"ID","Address","City","State","Zip"
330001,"PO BOX 1043","ABILENE","TX","79604"
330002,"PO BOX 1043","BENTON","AR","72018"
330003,"PO BOX 1043","CLINTON","SC","29325"
330004,"PO BOX 1043","DALLAS","GA","30132"
330005,"PO BOX 1043","EAGLE","ID","83616"
330006,"PO BOX 1043","HAMPTON","GA","30228"
330007,"PO BOX 1043","LAKE ALFRED","FL","33850"
330008,"PO BOX 1043","MANSFIELD","MA","02048"
330009,"PO BOX 1043","WAKE FOREST","NC","27588"
330010,"PO BOX 10431","BAINBRIDGE ISLAND","WA","98110"
330011,"PO BOX 10432","DAYTONA BEACH","FL","32120"
330012,"PO BOX 10434","OAKLAND","CA","94610"
330013,"PO BOX 104373","JEFFERSON CITY","MO","65110"
330014,"PO BOX 1044","ASHBURNHAM","MA","01430"
330015,"PO BOX 1044","DOVER","NH","03821"
330016,"PO BOX 1044","HOPEWELL JUNCTION","NY","12533"
330017,"PO BOX 1044","JACKSONVILLE","NC","28541"
330018,"PO BOX 1044","LAUREL","MT","59063"
330019,"PO BOX 1044","MAHOMET","IL","61853"
330020,"PO BOX 1044","MONTICELLO","MN","55362"
330021,"PO BOX 1044","PAONIA","CO","81428"
330022,"PO BOX 1044","ROCHESTER","IN","46975"
330023,"PO BOX 1044","SANTA CRUZ","NM","87567"
330024,"PO BOX 1044","WINSTED","CT","06098"
330025,"PO BOX 10442","FAYETTEVILLE","AR","72703"
330026,"PO BOX 10443","RIVIERA BEACH","FL","33419"
330027,"PO BOX 10444","ROCK HILL","SC","29731"
330028,"PO BOX 10445","ROCHESTER","NY","14610"
330029,"PO BOX 1045 125 S KING ST SUITE 2A","JACKSON","WY","83001"
330030,"PO BOX 1045","WILLISTON","FL","32696"
330031,"PO BOX 10457","ST THOMAS","VI","00801"
330032,"PO BOX 10459","CHARLOTTE AMLIE","VI","00801"
330033,"PO BOX 1046","EMMETT","ID","83617"
330034,"PO BOX 1046","FAIRPLAY","CO","80440"
330035,"PO BOX 1046","MIDDLEBURY","VT","05753"
330036,"PO BOX 1046","WALNUT GROVE","CA","95690"
330037,"PO BOX 1046","WELCOME","NC","27374"
330038,"PO BOX 10462","COLLEGE STATION","TX","77842"
330039,"PO BOX 10462","KALISPELL","MT","59904"
330040,"PO BOX 1047","GLEN","NH","03838"
330041,"PO BOX 1047","KALKASKA","MI","49646"
330042,"PO BOX 1047","PLAINS","TX","79355"
330043,"PO BOX 1047","WINDER","GA","30680"
330044,"PO BOX 10472","ROCKVILLE","MD","20849"
330045,"PO BOX 1048  251 NORTHWOOD WAY","KETCHUM","ID","83340"
330046,"PO BOX 1048","ALTURAS","CA","96101"
330047,"PO BOX 1048","ARBUCKLE","CA","95912"
330048,"PO BOX 1048","MONTICELLO","MN","55362"
330049,"PO BOX 1048","MOUNT SHASTA","CA","96067"
330050,"PO BOX 10480","CLEVELAND","OH","44110"
330051,"PO BOX 1049","STUARTS DRAFT","VA","24477"
330052,"PO BOX 10492","RALEIGH","NC","27605"
330053,"PO BOX 105 CENTRAL AVE","BARBOURSVILLE","WV","25504"
330054,"PO BOX 105","BEMUS POINT","NY","14712"
330055,"PO BOX 105","CLARKSVILLE","TN","37041"
330056,"PO BOX 105","CONDON","OR","97823"
330057,"PO BOX 105","DAGGETT","CA","92327"
330058,"PO BOX 105","EVANSTON","IL","60204"
330059,"PO BOX 105","HINGHAM","MA","02043"
330060,"PO BOX 105","HIRAM","ME","04041"
330061,"PO BOX 105","IRVINGTON","NY","10533"
330062,"PO BOX 105","KNOX","NY","12107"
330063,"PO BOX 105","LAUREL","DE","19956"
330064,"PO BOX 105","LIVINGSTON","NY","12541"
330065,"PO BOX 105","MONCLOVA","OH","43542"
330066,"PO BOX 105","MOUNT STERLING","OH","43143"
330067,"PO BOX 105","NEWAYGO","MI","49337"
330068,"PO BOX 105","PORTSMOUTH","RI","02871"
330069,"PO BOX 105","RHINELANDER","WI","54501"
330070,"PO BOX 105","RONAN","MT","59864"
330071,"PO BOX 105","SAND LAKE","MI","49343"
330072,"PO BOX 105","SPRINGERVILLE","AZ","85938"
330073,"PO BOX 105","STONY POINT","NY","10980"
330074,"PO BOX 105","TRINIDAD","CA","95570"
330075,"PO BOX 105","VINING","MN","56588"
330076,"PO BOX 1050","EDENTON","NC","27932"
330077,"PO BOX 1050","WORLAND","WY","82401"
330078,"PO BOX 10501","NORFOLK","VA","23513"
330079,"PO BOX 10502","BURKE","VA","22009"
330080,"PO BOX 10502","PRESCOTT","AZ","86304"
330081,"PO BOX 10505","ASPEN","CO","81612"
330082,"PO BOX 1051","COLUMBUS","TX","78934"
330083,"PO BOX 1051","KELSO","WA","98626"
330084,"PO BOX 1051","MITCHELL","SD","57301"
330085,"PO BOX 1051","NEDERLAND","TX","77627"
330086,"PO BOX 1051","WARRENTON","OR","97146"
330087,"PO BOX 1051","WAXAHACHIE","TX","75168"
330088,"PO BOX 10512","MERRILLVILLE","IN","46411"
330089,"PO BOX 1052","ARROYO GRANDE","CA","93421"
330090,"PO BOX 1052","BOERNE","TX","78006"
330091,"PO BOX 1052","DERIDDER","LA","70634"
330092,"PO BOX 1052","EAST WINDSOR","NJ","08520"
330093,"PO BOX 1052","GARDNERVILLE","NV","89410"
330094,"PO BOX 1052","MILLS","WY","82644"
330095,"PO BOX 1052","OPELIKA","AL","36803"
330096,"PO BOX 1052","RANCHO SANTA FE","CA","92067"
330097,"PO BOX 1052","SAINT JUST","PR","00978"
330098,"PO BOX 1052","WASHINGTON","MO","63090"
330099,"PO BOX 1052","WILMINGTON","CA","90748"
330100,"PO BOX 1052","WILTON","NH","03086"
330101,"PO BOX 1053","CALDWELL","ID","83605"
330102,"PO BOX 1053","CLEARFIELD","UT","84015"
330103,"PO BOX 1053","CRESTONE","CO","81131"
330104,"PO BOX 1053","MCCORMICK","SC","29835"
330105,"PO BOX 1053","NEW ROADS","LA","70760"
330106,"PO BOX 1053","OLD LYME","CT","06371"
330107,"PO BOX 1053","SHELBYVILLE","IN","46176"
330108,"PO BOX 1053","VASHON ISLAND","WA","98070"
330109,"PO BOX 10535","RIVIERA BEACH","FL","33419"
330110,"PO BOX 10539","CORPUS CHRISTI","TX","78460"
330111,"PO BOX 10539","WILMINGTON","NC","28404"
330112,"PO BOX 1054","BAKERSFIELD","CA","93301"
330113,"PO BOX 1054","BROADWAY","NC","27505"
330114,"PO BOX 1054","ELGIN","TX","78621"
330115,"PO BOX 1054","FRANKFORT","KY","40602"
330116,"PO BOX 1054","FREEDOM","WI","54131"
330117,"PO BOX 1054","HILMAR","CA","95324"
330118,"PO BOX 1054","ITTA BENA","MS","38941"
330119,"PO BOX 1054","MCKINNEY","TX","75070"
330120,"PO BOX 1054","MECHANICSVILLE","VA","23111"
330121,"PO BOX 1054","NEWPORT NEWS","VA","23601"
330122,"PO BOX 1054","OJAI","CA","93024"
330123,"PO BOX 1054","PETERSBURG","WV","26847"
330124,"PO BOX 1054","SOUTH SHORE","KY","41175"
330125,"PO BOX 1054","WILLIAMS","CA","95987"
330126,"PO BOX 10544","BROOKSVILLE","FL","34603"
330127,"PO BOX 1055","NORTH BEND","WA","98045"
330128,"PO BOX 1055","RICHLAND","WA","99352"
330129,"PO BOX 1055","SPRINGDALE","AR","72764"
330130,"PO BOX 105563","JEFFERSON CITY","MO","65110"
330131,"PO BOX 1056 2015 1ST ST S","WILMAR","MN","56201"
330132,"PO BOX 1056 365 WEST THIRD AVENUE","KETTLE FALLS","WA","99141"
330133,"PO BOX 1056","ABBEVILLE","LA","70510"
330134,"PO BOX 1056","DAWSONVILLE","GA","30534"
330135,"PO BOX 1056","ELGIN","TX","78621"
330136,"PO BOX 1056","LEESBURG","VA","20177"
330137,"PO BOX 1056","LOXAHATCHEE","FL","33470"
330138,"PO BOX 1056","OCOEE","FL","34761"
330139,"PO BOX 1056","VALLEY STREAM","NY","11582"
330140,"PO BOX 10561","MERRILLVILLE","IN","46411"
330141,"PO BOX 10562","DOTHAN","AL","36304"
330142,"PO BOX 10565","PITTSBURGH","PA","15235"
330143,"PO BOX 1057","FRANKTOWN","CO","80116"
330144,"PO BOX 1057","NEW YORK","NY","10276"
330145,"PO BOX 1057","VILONIA","AR","72173"
330146,"PO BOX 10572","ALBUQUERQUE","NM","87184"
330147,"PO BOX 10572","HILO","HI","96721"
330148,"PO BOX 10572","TRENTON","NJ","08650"
330149,"PO BOX 105773","JEFFERSON CITY","MO","65110"
330150,"PO BOX 105786","JEFFERSON CITY","MO","65110"
330151,"PO BOX 1058","COLUMBUS","IN","47202"
330152,"PO BOX 1058","FAIRBURN","GA","30213"
330153,"PO BOX 1058","JULIAN","CA","92036"
330154,"PO BOX 1058","POLSON","MT","59860"
330155,"PO BOX 1058","ROGERS","AR","72757"
330156,"PO BOX 1058","TILLAMOOK","OR","97141"
330157,"PO BOX 1058","TRYON","NC","28782"
330158,"PO BOX 1058","WILLIMATIC","CT","06226"
330159,"PO BOX 1059","BRENHAM","TX","77834"
330160,"PO BOX 1059","COATS","NC","27521"
330161,"PO BOX 1059","COLUMBIA","TN","38402"
330162,"PO BOX 1059","GRAPEVINE","TX","76099"
330163,"PO BOX 1059","GREENVILLE","OH","45331"
330164,"PO BOX 1059","HARRAH","OK","73045"
330165,"PO BOX 1059","OCEAN SHORES","WA","98569"
330166,"PO BOX 1059","WASHINGTON","DC","20013"
330167,"PO BOX 105932","JEFFERSON CITY","MO","65110"
330168,"PO BOX 105961","JEFFERSON CITY","MO","65110"
330169,"PO BOX 105995","JEFFERSON CITY","MO","65110"
330170,"PO BOX 106","ALBION","NE","68620"
330171,"PO BOX 106","ASHLAND","OH","44805"
330172,"PO BOX 106","BAILEY","CO","80421"
330173,"PO BOX 106","BLOWING ROCK","NC","28605"
330174,"PO BOX 106","BUHLER","KS","67522"
330175,"PO BOX 106","COPIAGUE","NY","11726"
330176,"PO BOX 106","FAIRBURN","SD","57738"
330177,"PO BOX 106","FERDINAND","IN","47532"
330178,"PO BOX 106","FREMONT","NH","03044"
330179,"PO BOX 106","GERALD","MO","63037"
330180,"PO BOX 106","HOUSTON","DE","19954"
330181,"PO BOX 106","LEWISBURG","WV","24901"
330182,"PO BOX 106","LODI","NJ","07644"
330183,"PO BOX 106","NORTH BEND","WA","98045"
330184,"PO BOX 106","REDLANDS","CA","92373"
330185,"PO BOX 106","TOLEDO","OR","97391"
330186,"PO BOX 1060","ALTON","IL","62002"
330187,"PO BOX 1060","DALHART","TX","79022"
330188,"PO BOX 1060","MARTHASVILLE","MO","63357"
330189,"PO BOX 1060","PLYMOUTH","FL","32768"
330190,"PO BOX 10602","PORTLAND","ME","04104"
330191,"PO BOX 10606","NEW IBERIA","LA","70562"
330192,"PO BOX 10608","SOUTHPORT","NC","28461"
330193,"PO BOX 1061","BROOKNEAL","VA","24528"
330194,"PO BOX 1061","GLOUCESTER","VA","23061"
330195,"PO BOX 1061","HIXSON","TN","37343"
330196,"PO BOX 1061","KERNERSVILLE","NC","27285"
330197,"PO BOX 1061","LOCKPORT","NY","14095"
330198,"PO BOX 1061","MURRAY","KY","42071"
330199,"PO BOX 1061","SANTA ROSA","CA","95402"
330200,"PO BOX 10611","LAHAINA","HI","96761"
330201,"PO BOX 106111","SAN ANTONIO","TX","78280"
330202,"PO BOX 10614","MIDLAND","TX","79702"
330203,"PO BOX 10615","EUGENE","OR","97440"
330204,"PO BOX 10616","PORTLAND","OR","97296"
330205,"PO BOX 10617","NAPA","CA","94581"
330206,"PO BOX 1062","AUSTELL","GA","30168"
330207,"PO BOX 1062","BEAR","DE","19701"
330208,"PO BOX 1062","BEND","OR","97709"
330209,"PO BOX 1062","BUXTON","NC","27920"
330210,"PO BOX 1062","DILLON","CO","80435"
330211,"PO BOX 1062","EXETER","CA","93221"
330212,"PO BOX 1062","GEORGETOWN","TX","78627"
330213,"PO BOX 1062","MADISON","MS","39130"
330214,"PO BOX 1062","MEADVILLE","PA","16335"
330215,"PO BOX 1062","WILLIMANTIC","CT","06226"
330216,"PO BOX 1062","WOODBRIDGE","NJ","07095"
330217,"PO BOX 10625","KALISPELL","MT","59904"
330218,"PO BOX 1063","AMHERST","NH","03031"
330219,"PO BOX 1063","COROZAL","PR","00783"
330220,"PO BOX 1063","DAYTON","NV","89403"
330221,"PO BOX 1063","FRUITLAND PARK","FL","34731"
330222,"PO BOX 1063","JACKSONVILLE","AR","72078"
330223,"PO BOX 1063","LAMAR","CO","81052"
330224,"PO BOX 1063","SEBASTOPOL","CA","95473"
330225,"PO BOX 1063","TALKEETNA","AK","99676"
330226,"PO BOX 10636","GOLDSBORO","NC","27532"
330227,"PO BOX 1064","ALBEMARLE","NC","28002"
330228,"PO BOX 1064","AUGUSTA","GA","30903"
330229,"PO BOX 1064","LAFAYETTE","IN","47904"
330230,"PO BOX 1064","LIVERMORE","CA","94551"
330231,"PO BOX 1064","POINT PLEASANT BEACH","NJ","08742"
330232,"PO BOX 1064","VENICE","FL","34284"
330233,"PO BOX 10640","FAIRBANKS","AK","99710"
330234,"PO BOX 10642","PANAMA CITY","FL","32404"
330235,"PO BOX 1065","CORBIN","KY","40702"
330236,"PO BOX 1065","DEER PARK","WA","99006"
330237,"PO BOX 1065","FT LAUDERDALE","FL","33302"
330238,"PO BOX 1065","GATLINBURG","TN","37738"
330239,"PO BOX 1065","HARTWELL","GA","30643"
330240,"PO BOX 1065","HOBE SOUND","FL","33475"
330241,"PO BOX 1065","INDIANOLA","MS","38751"
330242,"PO BOX 1065","LOS ALTOS","CA","94023"
330243,"PO BOX 1065","MADISON","FL","32340"
330244,"PO BOX 1065","MORRISVILLE","NC","27560"
330245,"PO BOX 1066","BIG SANDY","TX","75755"
330246,"PO BOX 1066","EASTHAMPTON","MA","01027"
330247,"PO BOX 1066","EDNA","TX","77957"
330248,"PO BOX 1066","FAIRBURN","GA","30213"
330249,"PO BOX 1066","HELENA","MT","59624"
330250,"PO BOX 1066","MOUNT OLIVE","NC","28365"
330251,"PO BOX 1066","PORTSMOUTH","OH","45662"
330252,"PO BOX 1066","VALLEJO","CA","94590"
330253,"PO BOX 1066","VIRGINIA BEACH","VA","23451"
330254,"PO BOX 1066","WAKE FOREST","NC","27588"
330255,"PO BOX 10664","WILMINGTON","DE","19850"
330256,"PO BOX 10667","TERRE HAUTE","IN","47801"
330257,"PO BOX 1067","CAMAS","WA","98607"
330258,"PO BOX 1067","CLARKSTON","GA","30021"
330259,"PO BOX 1067","FLORRISANT","MO","63031"
330260,"PO BOX 1067","GRAYSON","GA","30017"
330261,"PO BOX 1067","LADY LAKE","FL","32158"
330262,"PO BOX 1067","WHITE SALMON","WA","98672"
330263,"PO BOX 1067","WORLAND","WY","82401"
330264,"PO BOX 1068","BOONE","NC","28607"
330265,"PO BOX 1068","CENTRALIA","WA","98531"
330266,"PO BOX 1068","GILLETTE","WY","82717"
330267,"PO BOX 1068","HANCOCK","MA","01237"
330268,"PO BOX 1068","HAYESVILLE","NC","28904"
330269,"PO BOX 1068","LITCHFIELD PARK","AZ","85340"
330270,"PO BOX 1068","PONTE VEDRA BEACH","FL","32004"
330271,"PO BOX 1068","THOMASVILLE","NC","27360"
330272,"PO BOX 10681","PALM DESERT","CA","92255"
330273,"PO BOX 10682","WILMINGTON","DE","19850"
330274,"PO BOX 10687","SOUTH LAKE TAHOE","CA","96158"
330275,"PO BOX 1069","PUUNENE","HI","96784"
330276,"PO BOX 1069","STERLINGTON","LA","71280"
330277,"PO BOX 10698","SOUTHPORT","NC","28461"
330278,"PO BOX 107","ABBOTT","TX","76621"
330279,"PO BOX 107","ARGILLITE","KY","41121"
330280,"PO BOX 107","AURORA","OH","44202"
330281,"PO BOX 107","CASTINE","ME","04421"
330282,"PO BOX 107","CUMERLAND","ME","04021"
330283,"PO BOX 107","DAWSON SPRINGS","KY","42408"
330284,"PO BOX 107","FRANKTON","IN","46044"
330285,"PO BOX 107","LANCASTER","NY","14086"
330286,"PO BOX 107","MADRAS","OR","97741"
330287,"PO BOX 107","MCCOMB","MS","39649"
330288,"PO BOX 107","MEXIA","TX","76667"
330289,"PO BOX 107","MICHIGAN CITY","IN","46360"
330290,"PO BOX 107","MT PROSPECT","IL","60056"
330291,"PO BOX 107","PIPESTEM","WY","25979"
330292,"PO BOX 107","POINT HOPE","AK","99766"
330293,"PO BOX 107","PORT ROYAL","PA","17082"
330294,"PO BOX 107","WAMEGO","KS","66547"
330295,"PO BOX 107","WARDSBORO","VT","05355"
330296,"PO BOX 107","WASHOUGAL","WA","98671"
330297,"PO BOX 1070 APT 887","STATE COLLEGE","PA","16804"
330298,"PO BOX 1070","ISABELA","PR","00662"
330299,"PO BOX 1070","LANSDALE","PA","19446"
330300,"PO BOX 10701","BLACKSBURG","VA","24062"
330301,"PO BOX 10701","TRUCKEE","CA","96162"
330302,"PO BOX 10704","FAIRBANKS","AK","99710"
330303,"PO BOX 10704","GLENDALE","AZ","85318"
330304,"PO BOX 1071","DENHAM SPRINGS","LA","70726"
330305,"PO BOX 1071","KITTITAS","WA","98934"
330306,"PO BOX 1071","LA GRANDE","OR","97850"
330307,"PO BOX 1071","PIINOLE","CA","94564"
330308,"PO BOX 1072","AUBURN","NY","13021"
330309,"PO BOX 1072","BELLAIRE","MI","49615"
330310,"PO BOX 1072","CHECOTAH","OK","74426"
330311,"PO BOX 1072","EVANSVILLE","IN","47706"
330312,"PO BOX 1072","MEDINA","OH","44258"
330313,"PO BOX 1072","MILTON","WA","98354"
330314,"PO BOX 1072","SPRINGHILL","LA","71075"
330315,"PO BOX 10722","BURKE","VA","22009"
330316,"PO BOX 10723","SCOTTSDALE","AZ","85271"
330317,"PO BOX 10724","GOLDSBORO","NC","27532"
330318,"PO BOX 1073","COLUMBIA","TN","38401"
330319,"PO BOX 1073","CORSICANA","TX","75151"
330320,"PO BOX 1073","FAIRFIELD","CT","06825"
330321,"PO BOX 1073","MIAMISBURG","OH","45342"
330322,"PO BOX 1073","MILLBROOK","NY","12545"
330323,"PO BOX 1073","OCCIDENTAL","CA","95465"
330324,"PO BOX 1073","SENECA","SC","29678"
330325,"PO BOX 10731","DAYTON","OH","45402"
330326,"PO BOX 1074","ATLANTIC BEACH","NC","28512"
330327,"PO BOX 1074","BANDERA","TX","78003"
330328,"PO BOX 1074","BOULDER","CO","80302"
330329,"PO BOX 1074","DRIGGS","ID","83422"
330330,"PO BOX 1074","HILLSBORO","TX","76645"
330331,"PO BOX 1074","POMONA","CA","91769"
330332,"PO BOX 1074","WILLIS","TX","77378"
330333,"PO BOX 10741","JACKSON","TN","38308"
330334,"PO BOX 10746","ATLANTA","GA","30310"
330335,"PO BOX 1075","BOYNTON BEACH","FL","33425"
330336,"PO BOX 1075","COLUMBIA","SC","29202"
330337,"PO BOX 1075","TACOMA","WA","98401"
330338,"PO BOX 10754","GREENSBORO","NC","27404"
330339,"PO BOX 1076","ALEDO","TX","76008"
330340,"PO BOX 1076","CAPITOLA","CA","95010"
330341,"PO BOX 1076","DANIA BEACH","FL","33004"
330342,"PO BOX 1076","DRYDEN","NY","13053"
330343,"PO BOX 1076","DURANGO","CO","81302"
330344,"PO BOX 1076","FREELAND","WA","98249"
330345,"PO BOX 1076","GAYLORD","MN","55334"
330346,"PO BOX 1076","QUESTA","NM","87556"
330347,"PO BOX 1076","ROWLETT","TX","78030"
330348,"PO BOX 1076","WADLEY","GA","30477"
330349,"PO BOX 10763","GREEN BAY","WI","54307"
330350,"PO BOX 1077","BROADALBIN","NY","12025"
330351,"PO BOX 1077","DARBY","MT","59829"
330352,"PO BOX 1077","KAUNAKAKAI","HI","96748"
330353,"PO BOX 1077","QUINCY","FL","32351"
330354,"PO BOX 1077","SUNRAY","TX","79086"
330355,"PO BOX 10774","FORT WAYNE","IN","46853"
330356,"PO BOX 10774","HILO","CA","96721"
330357,"PO BOX 10776","PENSACOLA","FL","32524"
330358,"PO BOX 10777","OAKLAND","CA","94610"
330359,"PO BOX 1078","BARSTOW","CA","92312"
330360,"PO BOX 1078","FRAZIER PARK","CA","93225"
330361,"PO BOX 1078","LEWISTOWN","MT","59457"
330362,"PO BOX 1078","MOUNT OLIVE","NC","28365"
330363,"PO BOX 10789","RALEIGH","NC","27605"
330364,"PO BOX 1079","HOLLY SPRINGS","GA","30142"
330365,"PO BOX 1079","MAPLE VALLEY","WA","98038"
330366,"PO BOX 1079","NEDERLAND","CO","80466"
330367,"PO BOX 1079","RIDDLE","OR","97469"
330368,"PO BOX 1079","STOCKTON","CA","95201"
330369,"PO BOX 1079","WRANGELL","AK","99929"
330370,"PO BOX 10799","COLUMBUS","OH","43201"
330371,"PO BOX 108 - 86604 513TH AVE","ORCHARD","NE","68764"
330372,"PO BOX 108","CAMP WOOD","TX","78833"
330373,"PO BOX 108","CECIL","GA","31627"
330374,"PO BOX 108","FAYETTE","NY","13065"
330375,"PO BOX 108","GLENNALLEN","AK","99588"
330376,"PO BOX 108","HERMISTON","OR","97838"
330377,"PO BOX 108","LAFAYETTE","NJ","07484"
330378,"PO BOX 108","LEWISPORT","KY","42351"
330379,"PO BOX 108","ROSEWOOD","OH","43070"
330380,"PO BOX 108","TRURO","MA","02666"
330381,"PO BOX 108","WABASH","IN","46992"
330382,"PO BOX 1080","OAKLEY","CA","94561"
330383,"PO BOX 10809","DAYTONA BEACH","FL","32120"
330384,"PO BOX 1081","AVERILL PARK","NY","12018"
330385,"PO BOX 1081","BOWLING GREEN","KY","42102"
330386,"PO BOX 1081","BRENHAM","TX","77834"
330387,"PO BOX 1081","CUMMING","GA","30028"
330388,"PO BOX 1081","KANSAS CITY","KS","66110"
330389,"PO BOX 1081","LITCHFIELD","CT","06759"
330390,"PO BOX 1081","PARK FOREST","IL","60466"
330391,"PO BOX 1081","PELHAM","AL","35124"
330392,"PO BOX 10815","HILO","HI","96721"
330393,"PO BOX 1082","CONCORD","NH","03301"
330394,"PO BOX 1082","LAKE VILLA","IL","60046"
330395,"PO BOX 1082","NEW BRUNSWICK","NJ","08903"
330396,"PO BOX 1082","ORLEANS","MA","02653"
330397,"PO BOX 1082","OWATONNA","MN","55060"
330398,"PO BOX 1082","PALATKA","FL","32178"
330399,"PO BOX 1082","PIGEON FORGE","TN","37868"
330400,"PO BOX 1082","WARRENSBURG","MO","64093"
330401,"PO BOX 10823","GREEN BAY","WI","54307"
330402,"PO BOX 1083 206 COLLEGE STREET","PINEVILLE","NC","28134"
330403,"PO BOX 1083","CARLSBORG","WA","98324"
330404,"PO BOX 1083","COPPELL","TX","75019"
330405,"PO BOX 1083","HAMILTON","MT","59840"
330406,"PO BOX 1083","KELLER","TX","76244"
330407,"PO BOX 1083","LAS VEGAS","NV","89125"
330408,"PO BOX 1083","MANDEVILLE","LA","70470"
330409,"PO BOX 1083","MAYNARDVILLE","TN","37807"
330410,"PO BOX 1083","NEW YORK","NY","10116"
330411,"PO BOX 1084","BAY CITY","TX","77404"
330412,"PO BOX 1084","BLYTHE","CA","92225"
330413,"PO BOX 1084","BROOKLYN","NY","11236"
330414,"PO BOX 1084","COLORADO SPRINGS","CO","80901"
330415,"PO BOX 1084","JEFFERSON","TX","75657"
330416,"PO BOX 1084","LEXINGTON","KY","40588"
330417,"PO BOX 1084","MARQUETTE","MI","49855"
330418,"PO BOX 1084","RAPID CITY","SD","57709"
330419,"PO BOX 1084","ROBBINSVILLE","NC","28771"
330420,"PO BOX 1084","RUIDOSO DOWNS","NM","88346"
330421,"PO BOX 1085","ROGUE RIVER","OR","97502"
330422,"PO BOX 1085","SHELBYVILLE","IN","46176"
330423,"PO BOX 1085","WILDWOOD","FL","37485"
330424,"PO BOX 10852","NAPA","CA","94581"
330425,"PO BOX 1086 115 SE MAST AVE APT 77","LINCOLN CITY","OR","97367"
330426,"PO BOX 1086","ASBURY PARK","NJ","07712"
330427,"PO BOX 1086","COLLIERVILLE","TN","38027"
330428,"PO BOX 1086","FOREST GROVE","OR","97116"
330429,"PO BOX 1086","PENFIELD","NY","14526"
330430,"PO BOX 1086","ROYAL OAK","MI","48068"
330431,"PO BOX 1086","SALEM","OH","44460"
330432,"PO BOX 10862","CONWAY","AR","72034"
330433,"PO BOX 1087","CHARLES TOWN","WV","25414"
330434,"PO BOX 1087","HOMEDALE","ID","83628"
330435,"PO BOX 1087","HOMEDALE","ID","83639"
330436,"PO BOX 1087","HUNTINGTON","TX","75949"
330437,"PO BOX 1087","LIMA","OH","45802"
330438,"PO BOX 1087","SAN MARCOS","TX","78667"
330439,"PO BOX 10875","RENO","NV","89505"
330440,"PO BOX 10878","KILLEEN","TX","76547"
330441,"PO BOX 1088","ANGELS CAMP","CA","95222"
330442,"PO BOX 1088","APSEN","CO","81612"
330443,"PO BOX 1088","JERICHO","VT","05465"
330444,"PO BOX 1088","MANNFORD","OK","74044"
330445,"PO BOX 1088","PHILOMATH","OR","97370"
330446,"PO BOX 1088","SHERWOOD","OR","97140"
330447,"PO BOX 10886","TALLAHASSEE","FL","32302"
330448,"PO BOX 1089","CARENCRO","LA","70520"
330449,"PO BOX 1089","FRANKLIN","TN","37065"
330450,"PO BOX 1089","GRAYLING","MI","49738"
330451,"PO BOX 1089","NORTH TAZEWELL","VA","24630"
330452,"PO BOX 1089","ST HELENS","OR","97051"
330453,"PO BOX 1089","WEWOKA","OK","74884"
330454,"PO BOX 109","ALLENTOWN","NJ","08501"
330455,"PO BOX 109","GREAT FALLS","MT","59405"
330456,"PO BOX 109","GROTON","VT","05046"
330457,"PO BOX 109","HAKALAU","HI","96710"
330458,"PO BOX 109","NAMPA","ID","83653"
330459,"PO BOX 109","NEW FLORENCE","PA","15944"
330460,"PO BOX 109","SHELTON","CT","06484"
330461,"PO BOX 109","THOMASTON","GA","30286"
330462,"PO BOX 109","VALLEY COTTAGE","NY","10989"
330463,"PO BOX 109","WINONA","MO","65588"
330464,"PO BOX 1090 10 LONETOWN ROAD","REDDING CENTER","CT","06875"
330465,"PO BOX 1090","BEAVER","UT","84713"
330466,"PO BOX 1090","CARLSBAD","NM","88221"
330467,"PO BOX 1090","CRESCENT LAKE","OR","97733"
330468,"PO BOX 1090","LAKESIDE","MT","59922"
330469,"PO BOX 1090","MENDOCINO","CA","95460"
330470,"PO BOX 1090","VERONA","VA","24482"
330471,"PO BOX 10908","BURBANK","CA","91510"
330472,"PO BOX 1091","BILLINGS","MT","59103"
330473,"PO BOX 1091","BOLINGBROOK","IL","60440"
330474,"PO BOX 1091","DALLAS","OR","97338"
330475,"PO BOX 1091","DOVER","AR","72837"
330476,"PO BOX 1091","FRAZIER PARK","CA","93225"
330477,"PO BOX 1091","FRENCH CAMP","CA","95231"
330478,"PO BOX 1091","GRAHAM","WA","98338"
330479,"PO BOX 1091","GROTON","CT","06340"
330480,"PO BOX 1091","NOLENSVILLE","TN","37135"
330481,"PO BOX 1091","ORLAND PARK","IL","60462"
330482,"PO BOX 1091","ROUND ROCK","TX","78680"
330483,"PO BOX 1091","SPRING HILL","TN","37174"
330484,"PO BOX 1091","STANDISH","MI","48658"
330485,"PO BOX 1091","WEST COVINA","CA","91793"
330486,"PO BOX 10911","EUGENE","OR","97440"
330487,"PO BOX 10913","ST PETERSBURG","FL","33733"
330488,"PO BOX 10915","KALISPELL","MT","59904"
330489,"PO BOX 1092","CHILOQUIN","OR","97624"
330490,"PO BOX 1092","FREDERIKSTED","VI","00841"
330491,"PO BOX 1092","GREENWOOD","AR","72936"
330492,"PO BOX 1092","LOGANSPORT","IN","46947"
330493,"PO BOX 1092","MONTICELLO","AR","71657"
330494,"PO BOX 1092","MORENCI","AZ","85540"
330495,"PO BOX 10921","BURKE","VA","22009"
330496,"PO BOX 10922","NORFOLK","VA","23513"
330497,"PO BOX 1093","CALICO ROCK","AR","72519"
330498,"PO BOX 1093","CHANHASSEN","MN","55317"
330499,"PO BOX 1093","FRISCO","CO","80443"
330500,"PO BOX 1093","MABANK","TX","75147"
