"ID","Address","City","State","Zip"
148501,"273 PLEASANT STREET","ELIOT","ME","03903"
148502,"273 PRENTICE TRAIL","CARBONDALE","CO","81623"
148503,"273 RANDELL ROAD","COURTLAND","MS","38620"
148504,"273 REDSTONE CIRCLE","SUISUN","CA","94585"
148505,"273 RICHMOND AVENUE APT 5","BUFFALO","NY","14222"
148506,"273 RILEY WAY","ELIZABETHTOWN","KY","42701"
148507,"273 S RANCHO SANTA FE RD","SAN MARCOS","CA","92078"
148508,"273 SAGE ST","VALLEJO","CA","94589"
148509,"273 SEAGRAMS CT","RALEIGH","NC","27610"
148510,"273 SEVENTH AVE","BROOKLYN","NY","11215"
148511,"273 SIEGEL ST","WESTBURY","NY","11590"
148512,"273 SOUTH PARK AVENUE","POMONA","CA","91766"
148513,"273 SW BECKER ROAD","PORT ST. LUCIE","FL","34953"
148514,"273 SW MONTGOMERY","LAKE CITY","FL","32025"
148515,"273 TANYARD CIR","ADAMSVILLE","TN","38310"
148516,"273 UPLAND ROAD","CAMBRIDGE","MA","02140"
148517,"273 VAN CORTLANDT AVE EAST","BRONX","NY","10467"
148518,"273 W 15TH PLACE","CHICAGO HEIGHTS","IL","60411"
148519,"273 W 290 S","IVINS","UT","84738"
148520,"273 W PALMER ST","RAEFORD","NC","28376"
148521,"273 WALNUT STREET","COULTERVILLE","IL","62237"
148522,"273 WEST 3RD ST 3","BOSTON","MA","02127"
148523,"273 WESTON RD","WELLESLEY","MA","02482"
148524,"273 WESTWOOD AVE","EAST LONGMEADOW","MA","01028"
148525,"273 WILLOW STREET","BREMERTON","WA","98310"
148526,"273","SHARON CENTER","OH","44274"
148527,"2730 ARDEN WAY STE 235","SACRAMENTO","CA","95825"
148528,"2730 ARNOLD STREET","COLUMBUS","IN","47203"
148529,"2730 BACK MOUNTAIN ROAD","WINCHESTER","VA","22602"
148530,"2730 BIENVILLE BOULEVARD","OCEAN SPRINGS","MS","39564"
148531,"2730 BRESSI RANCH WAY","CARLSBAD","CA","92009"
148532,"2730 BRITTANY TRCE","MURFREESBORO","TN","37127"
148533,"2730 BROWNSBORO RD 135","LOUISVILLE","KY","40206"
148534,"2730 CASA GRANDE CT","MORGAN HILL","CA","95037"
148535,"2730 CENTENNIAL ROAD","TOLEDO","OH","43617"
148536,"2730 CHEYENNE AVENUE","NASHUA","IA","50658"
148537,"2730 E 31ST STREET","MINNEAPOLIS","MN","55406"
148538,"2730 E SILVER SPRINGS BLVD UNIT 200","OCALA","FL","34470"
148539,"2730 FARISS ROAD","POWHATAN","VA","23139"
148540,"2730 FIRST AVE","HIBBING","MN","55746"
148541,"2730 HARRIS STREET RD","KELSO","WA","98626"
148542,"2730 HISTORIC DECATUR RD SUITE 202","SAN DIEGO","CA","92106"
148543,"2730 HWY 34 E STE G 238","NEWNAN","GA","30265"
148544,"2730 LAKE COVE","CEDAR HILL","TX","75104"
148545,"2730 LOIS STREET","PORTAGE","IN","46368"
148546,"2730 MARYLAND AVE","BALTIMORE","MD","21218"
148547,"2730 MILVIA STREET","BERKELEY","CA","94703"
148548,"2730 MT ZION ROAD","JONESBORO","GA","30236"
148549,"2730 N 25TH STREET","MILWAUKEE","WI","53206"
148550,"2730 N BERKELEY LAKE  B720 1ST FL","DULUTH","GA","30096"
148551,"2730 N BERKELEY LAKE RD B1200 1214","DULUTH","GA","30096"
148552,"2730 N RICHMOND","WICHITA","KS","67204"
148553,"2730 N ROUGH STONE WAY","MERIDIAN","ID","83646"
148554,"2730 NORTH BERKELEY LAKE RD B1300","DULUTH","GA","30096"
148555,"2730 NORTH BROADWAY","LOS ANGELES","CA","90031"
148556,"2730 ROBERTSON AVENUE","PITTSBURGH","PA","15226"
148557,"2730 ROCKY CT","ATLANTA","GA","30349"
148558,"2730 ROMERO STREET","LAS VEGAS","NM","87701"
148559,"2730 SULLIVAN RD","COLLEGE PARK","GA","30337"
148560,"2730 SW 3RD AVE STE 501","MIAMI","FL","33129"
148561,"2730 SW 4 AVE","MIAMI","FL","33129"
148562,"2730 TAYLOR STREET","PHILADELPHIA","PA","19132"
148563,"2730 TEAL CT","REDDING","CA","96001"
148564,"2730 W 62ND PL APT 201","HIALEAH","FL","33016"
148565,"2730 W NIGHTHAWK","CHINO VALLEY","AZ","86323"
148566,"2730 W TRADE AVENUE  SUITE 2","MIAMI","FL","33133"
148567,"2730 WASHINGTON BOULEVARD STE 6267","OGDEN","UT","84401"
148568,"2730 WEST EDGEWOOD AVE","JACKSONVILLE","FL","32209"
148569,"2730 WEST MORSE AVE","CHICAGO","IL","60645"
148570,"2730 WESTLAKE AVE N","SEATTLE","WA","98109"
148571,"2730 WESTWIND DRIVE","ANCHORAGE","AK","99516"
148572,"2730 WOOLERY DRIVE","THAYER","KS","66776"
148573,"27301 SW 167 AVE","HOMESTEAD","FL","33031"
148574,"27302 AFTON WAY","HOUSTON","TX","77336"
148575,"27303 PINEY RANCH LANE","KATY","TX","77474"
148576,"27305 LIVE OAK DR STE 520","CASTAIC","CA","91384"
148577,"27305 VISTA AVE","PERRIS","CA","92570"
148578,"27308 SCHOOLCRAFT","REDFORD","MI","48239"
148579,"2731 17TH STREET - SUITE 300","DENVER","CO","80211"
148580,"2731 ALTAMONT DR","KLAMATH FALLS","OR","97603"
148581,"2731 BLACKLICK EASTERN ROAD","MILLERSPORT","OH","43046"
148582,"2731 CHELSEA DRIVE","NEW ORLEANS","LA","70131"
148583,"2731 CHOICE STREET","DALLAS","TX","75215"
148584,"2731 EAST TOWER DRIVE APT 505","CINCINANTI","OH","45238"
148585,"2731 FISHERMANS DRIVE NW","CONCORD","NC","28027"
148586,"2731 FORT SUMTER COURT","AURORA","IL","60503"
148587,"2731 HARDY INC","INGLEWOOD","CA","90305"
148588,"2731 HERSEY D WILSON DRIVE","SHREVEPORT","LA","71107"
148589,"2731 JUNCTION AVENUE 640485","SAN JOSE","CA","95134"
148590,"2731 MANSFIELD RD SUITE B","SHREVEPORT","LA","71107"
148591,"2731 MARIA ST","PLEASANTON","CA","94588"
148592,"2731 MONTARO DRIVE","SIERRA VISTA","AZ","85650"
148593,"2731 N ANDREWS AVE   B1","WILTON MANORS","FL","33311"
148594,"2731 N CAMPBELL AVE","CHICAGO","IL","60647"
148595,"2731 N LINCOLN AVE","CHICAGO","IL","60614"
148596,"2731 NE 3RD DRIVE","HOMESTEAD","FL","33033"
148597,"2731 OCEAN VALLEY DRIVE","ATLANTA","GA","30349"
148598,"2731 RIVERSIDE DR","SAINT ALBANS","WV","25177"
148599,"2731 SOUTHSIDE DR SE","ALEXANDRIA","MN","56308"
148600,"2731 TENBROECK AVENUE","BRONX","NY","10469"
148601,"2731 TERRATIM LANE","DECATUR","GA","30034"
148602,"2731 WATERS EDGE DRIVE","GRAND PRAIRIE","TX","75054"
148603,"2731 WEST COUNTY ROAD 650 NORTH","MIDDLETOWN","IN","47356"
148604,"27310 NEWPORT","WARREN","MI","48088"
148605,"27311 KITCH","INKSTER","MI","48141"
148606,"27311 PARK VISTA RD","AGOURA HILLS","CA","91301"
148607,"27314 BARRINGTON ST","MADISON HEIGHTS","MI","48071"
148608,"27315 JEFFERSON AVE STE J49","TEMECULA","CA","92590"
148609,"27317 NEAPTIDE DR","PUNTA GORDA","FL","33983"
148610,"27318 STURBRIDGE LN","WESTLAKE","OH","44145"
148611,"27318 WALDEN GULCH LANE","KATY","TX","77494"
148612,"2732 BENTON BOULEVARD","KANSAS CITY","MO","64128"
148613,"2732 BONNYBROOK DR SW","ATLANTA","GA","30311"
148614,"2732 CENTRAL AVE NE","WASHINGTON","DC","20018"
148615,"2732 COLCHESTER CRES","NORFOLK","VA","23504"
148616,"2732 HAMPTON PARKWAY UNIT D1","EVANSTON","IL","60201"
148617,"2732 KIMBERLY RD","TWIN FALLS","ID","83301"
148618,"2732 KIRKLAND DR NW","ROANOKE","VA","24017"
148619,"2732 MONTEVIDEO AVENUE","HOLLYWOOD","FL","33026"
148620,"2732 N AVERS","CHICAGO","IL","60647"
148621,"2732 NORFAIR LOOP","LITHONIA","GA","30038"
148622,"2732 PARK AVENUE APT 49","PETERSBURG","VA","23805"
148623,"2732 ROODS CREEK ROAD - BLDG 48","HANCOCK","NY","13783"
148624,"2732 ROODS CREEK ROAD BUILDING 6","HANCOCK","NY","13783"
148625,"2732 RUSSELL DRIVE","MARRERO","LA","70072"
148626,"2732 SHETLAND LANE","AURORA","IL","60502"
148627,"2732 SOUTH BEECH AVENUE","BROKEN ARROW","OK","74012"
148628,"2732 VILLAGE DR","THOMPSONS STATION","TN","37179"
148629,"2732 WAGON WHEEL DRIVE","CARROLLTON","TX","75006"
148630,"2732 WHITE OAK RIVER RD","MAYSVILLE","NC","28555"
148631,"27320 ADAMS","ELMWOOD","NE","68349"
148632,"27320 WEATHERSFIELD DRIVE","VALENCIA","CA","91354"
148633,"27321 HAMPDEN STREET","MADISON HEIGHTS","MI","48071"
148634,"27326 WINDING WAY","MALIBU","CA","90265"
148635,"27329 SWEETSPIRE TERRACE PL","MURRIETA","CA","92562"
148636,"27329 WELSH DR","WARREN","MI","48092"
148637,"2733 176TH ST","LAKE CITY","FL","32024"
148638,"2733 ACADIANA TRACE","MARRERO","LA","70072"
148639,"2733 BALLARD AVE","ORLANDO","FL","32833"
148640,"2733 BEAUCLERC ROAD","JACKSONVILLE","FL","32257"
148641,"2733 BEAUCLERC ROAD","JACKSONVILLE","FM","32257"
148642,"2733 BELMONT STREET  2ND FLOOR","HAMTRAMCK","MI","48212"
148643,"2733 BRIARWOOD LANE","NAZARETH","PA","18064"
148644,"2733 COUNTRY CLUB BLVD","STOCKTON","CA","95204"
148645,"2733 E BATTLEFIELD 286","SPRINGFIELD","MO","65804"
148646,"2733 E BATTLEFIELD ROAD / 183","SPRINGFIELD","MO","65804"
148647,"2733 ESPLANADE AVE","NEW ORLEANS","LA","70119"
148648,"2733 FAIRDALE TERRACE","SILVER SPRING","MD","20905"
148649,"2733 HUDSON PL","NEW ORLEANS","LA","70131"
148650,"2733 JUDIE ST","SULPHUR","LA","70663"
148651,"2733 LINDBERGH LANE","LINCOLN","CA","95648"
148652,"2733 MAPLE STREET","DES MOINES","IA","50317"
148653,"2733 N ROJO DR","HOBBS","NM","88240"
148654,"2733 NORTH 127TH DRIVE","AVONDALE","AZ","85392"
148655,"2733 NORTH POWER ROAD STE102-318","MESA","AZ","85215"
148656,"2733 NOTTINGHAM DRIVE","COLUMBIA","TN","38401"
148657,"2733 OAK RIDGE CT STE 104","FORT MYERS","FL","33901"
148658,"2733 PEYTON RIDGE RD","LIBERTY","KY","42539"
148659,"2733 RED ARROW DR","LAS VEGAS","NV","89135"
148660,"2733 RIVERSIDE BLVD","SACRAMENTO","CA","95818"
148661,"2733 ROSE DRIVE SE","ROCHESTER","MN","55904"
148662,"2733 SENECA TRAIL","DULUTH","GA","30096"
148663,"2733 SERRANO RD","SAN BERNARDINO","CA","92405"
148664,"2733 SHADYBRANCH DR","ORLANDO","FL","32822"
148665,"2733 SHERATON DRIVE STE F165","MACON","GA","31204"
148666,"2733 SUNNY VIEW DRIVE","ILLIOPOLIS","IL","62539"
148667,"2733 TROTTERS LANE","OWENSBORO","KY","42303"
148668,"2733 US HWY 59","WAUBUN","MN","56589"
148669,"2733 W NICHOLS ST","SPRINGFIELD","MO","65803"
148670,"2733 WEST BELDEN AVENUE UNIT 410","CHICAGO","IL","60647"
148671,"27333 STATE ROUTE 278","MCARTHUR","OH","45651"
148672,"27335 STERLING SILVER","SAN ANTONIO","TX","78260"
148673,"2734 BERKSHIRE DRIVE","WINDER","GA","30650"
148674,"2734 BURGEN AVE NE","GRAND RAPIDS","MI","49525"
148675,"2734 E BOSTON CIRCLE","MESA","AZ","85213"
148676,"2734 EAST 79TH STREET","CHICAGO","IL","60649"
148677,"2734 EDGEMONT STREET","PHILADELPHIA","PA","19134"
148678,"2734 FLORA HILLS DR","CAPE GIRARDEAU","MO","63701"
148679,"2734 HOCKING TRAIL","CANAL WINCHESTER","OH","43110"
148680,"2734 KNIGHTSBRIDGE RD","CLERMONT","FL","34711"
148681,"2734 MACON DR","SACRAMENTO","CA","95835"
148682,"2734 MANOOMIN PLACE","VIRGINIA BEACH","VA","23451"
148683,"2734 MARTINEC DR","PEARLAND","TX","77584"
148684,"2734 SPURGIN RD","MISSOULA","MT","59804"
148685,"2734 W LELAND AVE UNIT","CHICAGO","IL","60625"
148686,"2734 WEST 44TH ST","INDIANAPOLIS","IN","46228"
148687,"2734 WHISPERING FERN CT","KINGWOOD","TX","77345"
148688,"2734 WOODFLOWER AVE","HENDERSON","NV","89052"
148689,"27345 COUNTY ROAD 4","NAYTAHWAUSH","MN","56566"
148690,"27345 SAND CANYON ROAD","CANYON COUNTRY","CA","91387"
148691,"27349 EVERETT STREET","SOUTHFIELD","MI","48076"
148692,"2735 36TH AVENUE SE","NAPLES","FL","34117"
148693,"2735 BURLWOOD DR","BILLINGS","MT","59106"
148694,"2735 COWLES ROAD","CHARLOTTE","NC","28208"
148695,"2735 DANE HILL ROAD","WEST CHARLESTON","VT","05872"
148696,"2735 E 45TH PL","TULSA","OK","74105"
148697,"2735 E CARRERA CT","GREEN  BAY","WI","54311"
148698,"2735 E DUST DEVIL DR","SAN TAN VALLEY","AZ","85143"
148699,"2735 EAST BROADWAY SUITE B","ALTON","IL","62002"
148700,"2735 HAMPTON AVE","CHARLOTTE","NC","28207"
148701,"2735 KISMET WAY","EUGENE","OR","97405"
148702,"2735 N 1250 E","NORTH LOGAN","UT","84341"
148703,"2735 N DUBLIN CT","WICHITA","KS","67226"
148704,"2735 N LINCOLN AVE APT 3N","CHICAGO","IL","60614"
148705,"2735 N WILLIAMS LAKE RD","WATERFORD","MI","48329"
148706,"2735 RIVERCLIFF ROAD","FAYETTEVILLE","NC","28301"
148707,"2735 ROCKFORD ROAD","MCALESTER","OK","74501"
148708,"2735 S DUCK CIRCLE","WASILLA","AK","99654"
148709,"2735 S SANTA BARBARA","MESA","AZ","85202"
148710,"2735 SE 82ND AVE","PORTLAND","OR","97220"
148711,"2735 SOUTH AMES WAY","DENVER","CO","80227"
148712,"2735 STANTON WOODS DRIVE SE","CONYERS","GA","30094"
148713,"2735 THREE BARS DRIVE","EAST HELENA","MT","59635"
148714,"2735 W PEBBLE ROAD - 6-317","LAS VEGAS","NV","89123"
148715,"2735 WEST 71ST ST","CHICAGO","IL","60629"
148716,"2735 WORDEN ST","SAN DIEGO","CA","92110"
148717,"27350 EUCLID AVENUE APT 10409","EUCLID","OH","44132"
148718,"27351 DEQUINDRE ROAD","MADISON HEIGHTS","MI","48071"
148719,"27353 LINDEN LANE","VALENCIA","CA","91354"
148720,"27354 107TH STREET NW","ZIMMERMAN","MN","55398"
148721,"27356 CAYMAN LANE","RAMROD KEY","FL","33042"
148722,"27357 W ERB CT","TRACY","CA","95304"
148723,"27359 NIPPERSINK ROAD","INGLESIDE","IL","60041"
148724,"2735A GOUGH STREET","SAN FRANCISCO","CA","94123"
148725,"2736 ARMSTRONG AVENUE","LOS ANGELES","CA","90039"
148726,"2736 BRISCOE DR","FORT WORTH","TX","76108"
148727,"2736 CASTLEWOOD ROAD","COLUMBUS","OH","43209"
148728,"2736 KENWOOD AVE","FORT WAYNE","IN","46805"
148729,"2736 LAGUNA SECA","HENDERSON","NV","89052"
148730,"2736 LYNDALE AVE S SUITE 207","MINNEAPOLIS","MN","55408"
148731,"2736 N 49TH ST","MILWAUKEE","WI","53210"
148732,"2736 OLD UNITED STATES HIGHWAY 64","JAMESVILLE","NC","27846"
148733,"2736 PINE TRAIL DRIVE","LITTLE ELM","TX","75068"
148734,"2736 QUEENSBERRY DRIVE","HUNTINGTOWN","MD","20639"
148735,"2736 ROYAL LANE NO 29583","DALLAS","TX","75229"
148736,"2736 RUDDELL ROAD SE APT B","LACEY","WA","98503"
148737,"2736 S SAINT PAUL AVE","WICHITA","KS","67217"
148738,"2736 SIDNEY STREET","SAINT LOUIS","MO","63104"
148739,"2736 STATE HIGHWAY 9","BRECKENRIDGE","MN","56553"
148740,"2736 W GLADYS AVENUE","CHICAGO","IL","60612"
148741,"2736 W MONROE","CHICAGO","IL","60612"
148742,"2736 WEST 23RD PLACE","CHICAGO","IL","60608"
148743,"2736 WESTMINSTER AVE","NORFOLK","VA","23504"
148744,"27360 KREHLING ROAD","ELBERTA","AL","36530"
148745,"27361 EVERGREEN LANE","MELFA","VA","23410"
148746,"27361 SIERRA HWY SPACE 189","CANYON COUNTRY","CA","91351"
148747,"27368 DARTMOUTH","MADISON HEIGHTS","MI","48071"
148748,"2736A N 24TH PLACE","MILWAUKEE","WI","53206"
148749,"2737 AQUAMIST DR","DECATUR","GA","30034"
148750,"2737 AXE FACTORY ROAD","PHILADELPHIA","PA","19152"
148751,"2737 BAYOU BLEU DRIVE","MARRERO","LA","70072"
148752,"2737 BURTON ROAD NW","ATLANTA","GA","30311"
148753,"2737 BUTTERCUP DR","PALMDALE","CA","93550"
148754,"2737 CLARENDON AVE","BELLMORE","NY","11710"
148755,"2737 DEVONSHIRE PL NW APT 425","WASHINGTON","DC","20008"
148756,"2737 DEVONSHIRE PLACE NW APT 214","WASHINGTON","DC","20008"
148757,"2737 DEVONSHIRE PLACE NW","WASHINGTON","DC","20008"
148758,"2737 FALCONBRIDGE DRIVE","CINCINNATI","OH","45238"
148759,"2737 FRANKLIN DR STE 1624","MESQUITE","TX","75150"
148760,"2737 JOHN PAUL DRIVE","ORLANDO","FL","32810"
148761,"2737 KATE BOND RD","MEMPHIS","TN","38133"
148762,"2737 LANTERN LN","AUDUBON","PA","19403"
148763,"2737 N KIMBALL AVE UNIT 2","CHICAGO","IL","60647"
148764,"2737 NW 21 ST","MIAMI","FL","33142"
148765,"2737 NW 26TH STREET","OKLAHOMA CITY","OK","73107"
148766,"2737 NW UPSHUR ST APT 204","PORTLAND","OR","97210"
148767,"2737 REX LANE","VIRGINA BEACH","VA","23456"
148768,"2737 TIDEWATER DR","NORFOLK","VA","23509"
148769,"2737 W BASELINE RD STE 21","TEMPE","AZ","85283"
148770,"2737 W CECIL AVE","DELANO","CA","93215"
148771,"27370 BAYWAY COURT","PUNTA GORDA","FL","33980"
148772,"2738 ACTON","BERKELEY","CA","94702"
148773,"2738 BARCLAY LANE","KISSIMMEE","FL","34743"
148774,"2738 COUNTRY CLUB ROAD","LANETT","AL","36863"
148775,"2738 FAIR WATER DR","FORT COLLINS","CO","80524"
148776,"2738 FORSYTH ROAD","WINTER PARK","FL","32792"
148777,"2738 KELLOGG LOOP","LIVERMORE","CA","94550"
148778,"2738 S DUCK CIRCLE","WASILLA","AK","99654"
148779,"2738 SOUTH AVERS AVE","CHICAGO","IL","60623"
148780,"2738 THORNHILL DRIVE","EVANSVILLE","IN","47725"
148781,"2738 W POLK ST","CHICAGO","IL","60612"
148782,"2738 WALNUT ST UNIT B","LOS ALAMOS","NM","87544"
148783,"2738 WARDLOW AVE","SAN DIEGO","CA","92154"
148784,"27380 COOK RD APT 102","OLMSTED TOWNSHIP","OH","44138"
148785,"27380 VALLEY CENTER RD","VALLEY CENTER","CA","92082"
148786,"2739 BUCKHORN DR","RANDLEMAN","NC","27317"
148787,"2739 DAYVIEW LANE","ATLANTA","GA","30331"
148788,"2739 EASTLAND DRIVE","GRAND PRAIRIE","TX","75052"
148789,"2739 ELLENDALE AVENUE","SAINT LOUIS","MO","63143"
148790,"2739 FAITH CIRCLE","PALM HARBOR","FL","34684"
148791,"2739 FLOWER ST","HUNTINGTON PARK","CA","90255"
148792,"2739 GREGORY DRIVE SOUTH","BILLINGS","MT","59107"
148793,"2739 SINGER WOODS DRIVE","ABINGDON","MD","21009"
148794,"2739 W MCMICKEN AVENUE","CINCINNATI","OH","45225"
148795,"2739 W TEMPLE ST","LOS ANGELES","CA","90026"
148796,"27392 CALLE ARROYO SUITE C","SAN JUAN CAPISTRANO","CA","92675"
148797,"27393 YNEZ RD STE 164","TEMECULA","CA","92591"
148798,"27396 WHITE TAIL RD","MELFA","VA","23410"
148799,"274  BRANNAN STREET 5TH FLOOR","SAN FRANCISCO","CA","94107"
148800,"274 AMETHYST WAY","FRANKLIN PARK","NJ","08823"
148801,"274 ARNOLD CURRY ROAD","COLUMBIA","KY","42728"
148802,"274 ASSEMBLY STREET","WAYNESVILLE","NC","28786"
148803,"274 CARTER STREET","ROCHESTER","NY","14621"
148804,"274 CEDARWOOD TERRACE","ROCHESTER","NY","14609"
148805,"274 CLETA COURT","BALLWIN","MO","63021"
148806,"274 CONCORD ROAD","WAYLAND","MA","01778"
148807,"274 CONCORD STREET","CRESSKILL","NJ","07626"
148808,"274 DEER RUN DRIVE SOUTH","PONTE VEDRA BEACH","FL","32082"
148809,"274 DP ROAD","LOS ALAMOS","NM","87544"
148810,"274 FAIRVIEW AVE","RATON","NM","87740"
148811,"274 GRIGGS DRIVE","PRINCETON","NJ","08540"
148812,"274 HALLAM CURVE","MAHTEMEDI","MN","55115"
148813,"274 HIGHWAY 138 SW","RIVERDALE","GA","30274"
148814,"274 HOYT ST","BROOKLYN","NY","11217"
148815,"274 HWY 40","LECOMPTON","KS","66050"
148816,"274 IRON MOUNTAIN DRIVE","LIVERMORE","CO","80536"
148817,"274 JEFFERSON ROAD","BOONE","NC","28607"
148818,"274 JUDSON AVE","SAN FRANCISCO","CA","94112"
148819,"274 KEITH AVENUE","AKRON","OH","44313"
148820,"274 KELLEY BLVD","NORTH ATTLEBORO","MA","02760"
148821,"274 LIBORIO DRIVE","MIDDLETOWN","DE","19709"
148822,"274 MAPLEWOOD AVE","ROCHESTER","NY","14613"
148823,"274 N FAIRVIEW","RATON","NM","87740"
148824,"274 N GORHAM ROAD","GORHAM","ME","04038"
148825,"274 N MAIN ST","WELLSVILLE","NY","14895"
148826,"274 NORTH I STREET","SAN BERNARDINO","CA","92410"
148827,"274 OAK COVE","COURTLAND","MS","38620"
148828,"274 PHILIP BRANCH ROAD","MOUNT AIRY","NC","27030"
148829,"274 PINEBROOK DRIVE","HYDE PARK","NY","12538"
148830,"274 REDWOOD SHORES PKWY  UNIT 707","REDWOOD CITY","CA","94065"
148831,"274 RIATA ROAD","TULAROSA","NM","88352"
148832,"274 RICHFIELD AVE","SPRINGFIELD","MI","49037"
148833,"274 RUSSELL STREET","WOBURN","MA","01801"
148834,"274 S BURNETT ST 1ST FLOOR","EAST ORANGE","NJ","07018"
148835,"274 S HIGH ST","BRIDGTON","ME","04009"
148836,"274 SE 29TH ST","GRESHAM","OR","97080"
148837,"274 SEA VIEW COURT","ENCINITAS","CA","92024"
148838,"274 SPARROW DRIVE","MANHASSET","NY","11030"
148839,"274 STONEGATE","CADDO GAP","AR","71935"
148840,"274 STRAWBERRY CIRCLE","CRANBERRY TOWNSHIP","PA","16066"
148841,"274 SW 5TH COURT","DEERFIELD","FL","33441"
148842,"274 W CENTRAL AVE STE M","WINTER HAVEN","FL","33880"
148843,"274 WILLOUGHBY AVENUE   APT BQ","BROOKLYN","NY","11205"
148844,"274","ST. ANSGAR","IA","50472"
148845,"2740 38TH AVENUE","SAN FRANCISCO","CA","94116"
148846,"2740 68TH AVE","OAKLAND","CA","94605"
148847,"2740 6TH ST CT NE","HICKORY","NC","28601"
148848,"2740 CAROLINA AVE","REDWOOD CITY","CA","94061"
148849,"2740 CHURCH STREET","WHITEHAVEN","MD","21856"
148850,"2740 CHURCHILL DRIVE","HILLSBOROUGH","CA","94010"
148851,"2740 COLLEGE HEIGHTS RD","PRESCOTT","AZ","86301"
148852,"2740 CORINNE DR","MARRERO","LA","70072"
148853,"2740 CROPSEY AVE APT 13A","BROOKLYN","NY","11214"
148854,"2740 DAWSON DRIVE","CHESTER","SC","29706"
148855,"2740 DERBY STREET","BERKELEY","CA","94705"
148856,"2740 DOMINION AVENUE","NORFOLK","VA","23518"
148857,"2740 DR CARVER RD","CHARLOTTE","NC","28208"
148858,"2740 DUNCANVILLE ROAD APT 1426","DALLAS","TX","75211"
148859,"2740 E COLLEGE AVENUE UNIT 414","DECATUR","GA","30030"
148860,"2740 E CORONA AVE","PHOENIX","AZ","85040"
148861,"2740 ELVYRA WAY 35","SACRAMENTO","CA","95821"
148862,"2740 ENGLISH RD","PACIFIC","MO","63069"
148863,"2740 ESSEX RD","PIERRE","SD","57501"
148864,"2740 EVERGREEN LN","EAST CHICAGO","IN","46312"
148865,"2740 FM 2238","SCHULENBURG","TX","78956"
148866,"2740 FULTON AVE SUITE 101-35","SACRAMENTO","CA","95821"
148867,"2740 FULTON AVE","SACRAMENTO","CA","95821"
148868,"2740 GEORGIA AVENUE S","ST LOUIS PARK","MN","55426"
148869,"2740 GREEN ASH LOOP APT 107","WOODBRIDGE","VA","22192"
148870,"2740 HAPPY JOE DRIVE STE 1","BETTENDORF","IA","52722"
148871,"2740 LAUREL VALLEY LANE","ARLINGTON","TX","76006"
148872,"2740 LEEDS LANE","CHARLOTTESVILLE","VA","22901"
148873,"2740 MAEGEN CIRCLE","FORT WORTH","TX","76112"
148874,"2740 MARION ROAD","JACKSON","MI","49201"
148875,"2740 MINNEHAHA AVE STE 130-7","MINNEAPOLIS","MN","55406"
148876,"2740 MINNEHAHA AVENUE SUITE 130","MINNEAPOLIS","MN","55406"
148877,"2740 MOSCOW AVE","HICKMAN","KY","42050"
148878,"2740 N MAYFAIR AVE SUITE I260","SPRINGFIELD","MO","65803"
148879,"2740 NE 143RD PLACE","SEATTLE","WA","98125"
148880,"2740 NW 15TH ST","FORT LAUDERDALE","FL","33311"
148881,"2740 NW 209TH TER","MIAMI GARDENS","FL","33056"
148882,"2740 PAINT DR","AUBURN","CA","95603"
148883,"2740 PONCE DE LEON","GRAND PRAIRIE","TX","75054"
148884,"2740 R STREET APT 4","LINCOLN","NE","68503"
148885,"2740 SEPULVEDA BLVD","TORRANCE","CA","90505"
148886,"2740 SLEEPY HOLLOW TRL","FRISCO","TX","75033"
148887,"2740 SOUTH ROAD UNIT","POUGHKEEPSIE","NY","12601"
148888,"2740 SW MARTIN DOWNS BLVD SUITE 171","PALM CITY","FL","34990"
148889,"2740 SW MARTIN DOWNS BLVD UNIT 310","PALM CITY","FL","34990"
148890,"2740 SW MARTIN DOWNS BLVD","PALM CITY","FL","34990"
148891,"2740 UNION BOULEVARD","ISLIP","NY","11751"
148892,"2740 VALLEY VIEW RD","BELLEFONTE","PA","16823"
148893,"2740 VIA VENADO","SANTA FE","NM","87505"
148894,"2740 W 85TH PL","CHICAGO","IL","60652"
148895,"2740 WATERS EDGE DR","GRAND PRAIRIE","TX","75054"
148896,"2740 WATERS EDGE DRIVE","GRAND PRAIRIE","TX","75054"
148897,"2740 WYANDOT DRIVE","DOVER","OH","44622"
148898,"27400 HAMMOCK VIEW CT","YALAHA","FL","34797"
148899,"27401 OAK ROAD","HENSLEY","AR","72065"
148900,"27406 BRAYDEN HILL TRAIL","KATY","TX","77494"
148901,"27408 CHURCH RD","BURLINGTON","WV","53105"
148902,"27409 144TH AVE SE","KENT","WA","98042"
148903,"27409 ARLA ST","MORENO VALLEY","CA","92555"
148904,"27409 ARLA STREET","MORENO VALLEY","CA","92555"
148905,"2741 12 MILE ROAD","BERKLEY","MI","48072"
148906,"2741 70TH AVENUE SE","MERCER ISLAND","WA","98040"
148907,"2741 ADAMS STREET","INDIANAPOLIS","IN","46218"
148908,"2741 APRIL SPRINGS VIEW","CARMEL","IN","46074"
148909,"2741 BREVARD AVE","MONTGOMERY","AL","36109"
148910,"2741 CHICKORY HILL","SNELLVILLE","GA","30039"
148911,"2741 CHURCH ST","EAST POINT","GA","30344"
148912,"2741 FENTON AVENUE","BRONX","NY","10469"
148913,"2741 HAMNER AVE  212","NORCO","CA","92860"
148914,"2741 KATY CIRCLE","LINCOLN","NE","68506"
148915,"2741 LAKE JODECO ROAD","JONESBORO","GA","30236"
148916,"2741 LEMON GROVE AVE 202","LEMON GROVE","CA","91945"
148917,"2741 MARSHALL TRAIL","ROUND ROCK","TX","78665"
148918,"2741 MAYFAIR AVENUE","CHARLOTTE","NC","28208"
148919,"2741 NC HWY 58 SOUTH","POLLOCKSVILLE","NC","28573"
148920,"2741 NW 68TH AVENUE","GAINESVILLE","FL","32653"
148921,"2741 OLD STAGE ROAD","YADKINVILLE","NC","27055"
148922,"2741 RYEWOOD AVE APT A","COPLEY","OH","44321"
148923,"2741 SHEPHERDS GLEN","WITCHITA FALLS","TX","76308"
148924,"2741 SW 30TH AVENUE","MIAMI","FL","33133"
148925,"2741 WEST FOND DU LAC AVENUE","MILWAUKEE","WI","53210"
148926,"2741 WINTER STREET","LOS ANGELES","CA","90033"
148927,"27410 JUPITER LANDING COURT","SPRING","TX","77386"
148928,"27412 S HILLOCKBURN RD","ESTACADA","OR","97023"
148929,"27414 N 60TH DRIVE","PHOENIX","AZ","85083"
148930,"27414 N 66TH LN","PHOENIX","AZ","85083"
148931,"27415 281ST STREET SUITE A","HOLCOMBE","WI","54745"
148932,"27415 BLINKWOOD PARK","KATY","TX","77494"
148933,"2742 AVALON LOOP RD","CHARLOTTE","NC","28269"
148934,"2742 BLADES ROAD","BEAVERTON","MI","48612"
148935,"2742 CHILI AVE","ROCHESTER","NY","14624"
148936,"2742 EMBER PASS LANE","KATY","TX","77494"
148937,"2742 GARRISON AVE","EVANSTON","IL","60201"
148938,"2742 LUKE DR","ELLENWOOD","GA","30294"
148939,"2742 MAIN STREET","RANGELEY","ME","04970"
148940,"2742 SOUTH 160TH AVENUE","GOODYEAR","AZ","85338"
148941,"2742 SW 8 STREET SUITE 6","MIAMI","FL","33135"
148942,"2742 TAUNTON STREET","PHILADELPHIA","PA","19152"
148943,"2742 WATERHAVEN DRIVE","CHATTANOOGA","TN","37406"
148944,"27420 N 176TH STREET","RIO VERDE","AZ","85263"
148945,"27420 SENECA TRAIL NORTH","RENICK","WV","24966"
148946,"27421 BETANZOS","MISSION VIEJO","CA","92692"
148947,"27422 SILVER CREEK","SAN JUAN CAPISTRANO","CA","92675"
148948,"27423 ERICKSON ROAD","EUGENE","OR","97402"
148949,"27426 CEDAR ROAD","HOT SPRINGS","SD","57747"
148950,"27428 PINYON STREET","MURIETTA","CA","92562"
148951,"2743 ARLINGTON AVE","BRONX","NY","10463"
148952,"2743 E COUNTY ROAD 725 S","PAOLI","IN","47454"
148953,"2743 KAYNE AVE","MINDEN","NV","89423"
148954,"2743 MARL OAK DR","HIGHLAND PARK","IL","60035"
148955,"2743 N 20TH STREET","PHILADELPHIA","PA","19132"
148956,"2743 NE 14TH ST","FORT LAUDERDALE","FL","33304"
148957,"2743 ROSEBAY LANE","BESSEMER","AL","35022"
148958,"2743 SLOAN ST","FLINT","MI","48504"
148959,"2743 STUART DRIVE","FORT WORTH","TX","76104"
148960,"2743 W 25TH AVE UNIT 1","DENVER","CO","80211"
148961,"2743 WEST 70 ST","HIALEAH","FL","33016"
148962,"2743","BANDERA","TX","78003"
148963,"27430 ARLINGTON DR","SOUTHFIELD","MI","48076"
148964,"27430 ELDORADO PLACE","LATHRUP VILLAGE","MI","48076"
148965,"27430 SNOWBERRY CT","SANTA CLARITA","CA","91350"
148966,"27432 DORTCH AVE","BONITA SPRINGS","FL","34135"
148967,"27433 DAMERAU","NEW BRAUNFELS","TX","78132"
148968,"27436 AVONDALE STE B","INKSTER","MI","48141"
148969,"2744 BRANTLEY DRIVE","APEX","NC","27539"
148970,"2744 CANYON RIDGE DR","DALLAS","TX","75227"
148971,"2744 CARAMBOLA CIR S","COCONUT CREEK","FL","33066"
148972,"2744 EAST 11TH STREET C1","OAKLAND","CA","94601"
148973,"2744 LOWREY AVENUE","HONOLULU","HI","96822"
148974,"2744 MILLERS WAY DRIVE","ELLICOTT CITY","MD","21043"
148975,"2744 N FRANCISCO AVE APT 1","CHICAGO","IL","60647"
148976,"2744 PARKWAY COVE","LITHONIA","GA","30058"
148977,"2744 PYTHAGORAS CIRCLE","OCOEE","FL","34761"
148978,"2744 RAINBOW FOREST DRIVE","DECATUR","GA","30034"
148979,"2744 SPRING RAIN","MESQUITE","TX","75181"
148980,"2744 SW ONAWAY AVE","PORT ST LUCIE","FL","34987"
148981,"2744 YORKMONT ROAD","CHARLOTTE","NC","28208"
148982,"2744","WARMINSTER","PA","18974"
148983,"27440 KUYKENDAHL RD","TOMBALL","TX","77375"
148984,"27441 NC-125","SCOTLAND NECK","NC","27874"
148985,"27445 BIG SRPINGS RANCH RD","HEMET","CA","92544"
148986,"27447 SANDTOWN ROAD","GOLDSBORO","MD","21636"
148987,"27447 VALLE BLUFF","BOERNE","TX","78015"
148988,"27448 212TH PL SE","MAPLE VALLEY","WA","98038"
148989,"2745 58TH AVENUE SOUTH UNIT 257","SAINT PETERSBURG","FL","33712"
148990,"2745 8TH AVENUE APT 4D","NEW YORK","NY","10039"
148991,"2745 ANDERSON FERRY ROAD SUITE 3","CINCINNATI","OH","45238"
148992,"2745 ARBOR AVENUE","CINCINNATI","OH","45209"
148993,"2745 BIRCHCREST DR APT 708","GRAND RAPIDS","MI","49506"
148994,"2745 BORCHCREST DRIVE 706","GRAND RAPIDS","MI","49506"
148995,"2745 CANOE CREEK ROAD","SAINT CLOUD","FL","34772"
148996,"2745 CRESSET DRIVE","WINTERVILLE","NC","28590"
148997,"2745 DAHLONEGA TRAIL","AUSTELL","GA","30106"
148998,"2745 DOUGLAS AVENUE","DES MOINES","IA","50310"
148999,"2745 E 31 STREET","BROWNSVILLE","TX","78520"
149000,"2745 FIRST STREET APARTMENT 606","FORT MYERS","FL","33916"
