"ID","Address","City","State","Zip"
126501,"23 E 4TH STREET","ATLANTIC","IA","50022"
126502,"23 E ELM AVE","QUINCY","MA","02170"
126503,"23 E PINEVIEW DR","ROUND LAKE PARK","IL","60073"
126504,"23 E STONEWALL DR","MIDDLETOWN","DE","19709"
126505,"23 EAGLE LANDING DRIVE","FLINTSTONE","GA","30725"
126506,"23 EAGLE POINTE DRIVE","AUGUSTA","GA","30909"
126507,"23 EAGLES WAY","BAR HARBOR","ME","04609"
126508,"23 EAST HOWELL AVENUE","ALEXANDRIA","VA","22301"
126509,"23 EASTERN PKWY","JERSEY CITY","NJ","07305"
126510,"23 EASTVIEW TERRACE","DEMAREST","NJ","07627"
126511,"23 ELGIN ROAD","ELGIN","AZ","85611"
126512,"23 EPPIRT ST 2","EAST ORANGE","NJ","07018"
126513,"23 ERICSON AVE","BUFFALO","NY","14215"
126514,"23 ESPERANZA STREET","AGUADA","PR","00602"
126515,"23 EVERETT STREET","CAMBRIDGE","MA","02138"
126516,"23 EVERGREEN DRIVE","BRADFORD","MA","01835"
126517,"23 FAHMS AVENUE","LAUREL","MD","20707"
126518,"23 FALMOUTH RD","CHATHAM","NJ","07928"
126519,"23 FARM BOY RD","LAMONT","FL","32336"
126520,"23 FERN AVE","COLLINGSWOOD","NJ","08108"
126521,"23 FIELDSTONE WAY","BOXFORD","MA","01921"
126522,"23 FOLEY BEACH ROAD","HINGHAM","MA","02043"
126523,"23 FOOTHILLS DR","JERICHO","VT","05465"
126524,"23 FOREST AVENUE","WEST NEWTON","MA","02465"
126525,"23 FOREST DRIVE","MIDDLETOWN","OH","45044"
126526,"23 FORT ST","FAIRHAVEN","MA","02719"
126527,"23 FOWLER CT","SAN RAFAEL","CA","94903"
126528,"23 FOWLER ST","AUGUSTA","ME","04330"
126529,"23 FOX CREEK DR","REHOBOTH BEACH","DE","19971"
126530,"23 FOX MEADOW DR","LOVETTSVILLE","VA","20180"
126531,"23 FRANKLIN ST","TORRINGTON","CT","06790"
126532,"23 FREEDOM DRIVE","COLLINSVILLE","CT","06019"
126533,"23 FREYS GIN ROAD SE","MARIETTA","GA","30067"
126534,"23 FUNTASTIC DR","CABOT","AR","72023"
126535,"23 GAMBREL COURT","MIDDLEBURY","VT","05753"
126536,"23 GEMMER RD","WANTAGE","NJ","07461"
126537,"23 GENESEE STREET","AVON","WY","14414"
126538,"23 GENTLE WINDS WAY","GREENVILLE","SC","29605"
126539,"23 GERANIUM DRIVE","CHATHAM","MA","02633"
126540,"23 GLENMORE DRIVE","KINGSTON","GA","30145"
126541,"23 GRANDVIEW DRIVE","POESTENKILL","NY","12140"
126542,"23 GRANITE STREET","ROCHESTER","NH","03867"
126543,"23 GREEN APPLE CT","TAYLORSVILLE","GA","30178"
126544,"23 GREEN HILL ROAD","BETHLEHEM","CT","06751"
126545,"23 GREEN PL","NEW ROCHELLE","NY","10801"
126546,"23 GRENADA AVE","ROOSEVELT","NY","11575"
126547,"23 HAMPTON CT","MADISON","MS","39110"
126548,"23 HAMPTON TRAIL","WALLINGFORD","CT","06492"
126549,"23 HANSCOMB SCHOOL ROAD","LIMINGTON","ME","04049"
126550,"23 HARBOR POINTE CIR","BLOOMINGTON","IL","61704"
126551,"23 HARTLAND RD","MANCHESTER","CT","06042"
126552,"23 HASTINGS CIR","GREENSBORO","NC","27406"
126553,"23 HAZELWOOD DR","JERICHO","NY","11753"
126554,"23 HERBERT THOMAS RD","SANDY HOOK","MS","39478"
126555,"23 HERITAGE DRIVE","NORTH EASTON","MA","02356"
126556,"23 HIDDEN VALLEY","MINNESOTA CITY","MN","55959"
126557,"23 HIGHLAND PLACE","MAPLEWOOD","NJ","07040"
126558,"23 HILLSIDE AVENUE","GOLDENS BRIDGE","NY","10526"
126559,"23 HIXON DRIVE","BURLINGTON","NJ","08016"
126560,"23 HOLLY DRIVE","COLUMBUS","NJ","08022"
126561,"23 HOMESTEAD AVE","WEST LONG BRANCH","NJ","07764"
126562,"23 HOMESTEAD DR","WHEATLEY HEIGHTS","NY","11798"
126563,"23 HUCKLEBERRY ROAD","LYNNFIELD","MA","01940"
126564,"23 HURLEY LANE","BENNINGTON","VT","05201"
126565,"23 ILLINOIS AVENUE","MONTREAL","WI","54550"
126566,"23 INTERFAITH TERRACE APT B","FRAMINGHAM","MA","01702"
126567,"23 INTERFAITH TERRACE","FRAMINGHAM","MA","01702"
126568,"23 INVERNESS WAY E SUITE 200","ENGLEWOOD","CO","80112"
126569,"23 IRON HORSE TERRACE","NORTH KINGSTOWN","RI","02852"
126570,"23 JAMES TENNEY LN","TALLMANSVILLE","WV","26237"
126571,"23 JAMIE LANE","EAST FALMOUTH","MA","02536"
126572,"23 JASONS PATH","WALPOLE","MA","02081"
126573,"23 JAY STREET","GLENS FALLS","NY","12801"
126574,"23 JOHN ST","ITHACA","NY","14850"
126575,"23 JUNEBERRY","IRVINE","CA","92606"
126576,"23 KERRY PK","PITTSFORD","NY","14534"
126577,"23 KNOLLWOOD TERRACE","RANDOLPH","NJ","07869"
126578,"23 LAKE SHORE COURT APT 4","BRIGHTON","MA","02135"
126579,"23 LANCESTIRE DRIVE","QUEENSBURY","NY","12804"
126580,"23 LAVERGNE STREET","BELLEVILLE","NJ","07109"
126581,"23 LAWRENCE PLACE","SPRING VALLEY","NY","10977"
126582,"23 LAWRENCE SQUARE BLVD NORTH","LAWRENCEVILLE","NJ","08648"
126583,"23 LEIMS RD","PARK FOREST","IL","60466"
126584,"23 LESIA DRIVE","MEDINA","TN","38355"
126585,"23 LIBRARY STREET","HUDSON","NH","03051"
126586,"23 LITTLEBROOK ROAD","PRINCETON","NJ","08540"
126587,"23 LOVETT ST","SAINT AUGUSTINE","FL","32084"
126588,"23 MACY PLACE","MOBILE","AL","36604"
126589,"23 MAGAZINE STREET - UNIT 1","BOSTON","MA","02119"
126590,"23 MAIN STREET","AMESVILLE","OH","45711"
126591,"23 MAINE AVE SUITE 3","RICHMOND","CA","94804"
126592,"23 MAINE AVE","RICHMOND","CA","94804"
126593,"23 MAINE AVENUE 37","RICHMOND","CA","94804"
126594,"23 MAINE AVENUE","RICHMOND","CA","94804"
126595,"23 MAPLE AVE","NETCONG","NJ","07857"
126596,"23 MARATHON DRIVE","SEAFORD","DE","19973"
126597,"23 MARCELLA BLVD","HOPEWELL JCT","NY","12533"
126598,"23 MARCELLUS DR","NEWTON","MA","02459"
126599,"23 MARCUS GARVEY BLVD","BROOKLYN","NY","11206"
126600,"23 MARCUS GARVEY BVD","BROOKLYN","NY","11206"
126601,"23 MARGARET COURT","GREAT NECK","NY","11024"
126602,"23 MARSHALL ST","ALBANY","NY","12209"
126603,"23 MARY LOU LANE","DEPEW","NY","14043"
126604,"23 MASSASOIT AVENUE","SUDBURY","MA","01776"
126605,"23 MAST RD","LEE","NH","03861"
126606,"23 MAUCHLY SUITE 107","IRVINE","CA","92618"
126607,"23 MAVERICK STREET","BOSTON","MA","02128"
126608,"23 MCGEE ROAD","SEALE","AL","36875"
126609,"23 MEAD STREET","NEWARK","NJ","07106"
126610,"23 MEIER ROAD","POUGHKEEPSIE","NY","12603"
126611,"23 MIA COURT","SAUNDERSTOWN","RI","02874"
126612,"23 MILL LN","BELFAST","ME","04915"
126613,"23 MILL ROAD","KINGSTON","NH","03848"
126614,"23 MIRADOR","IRVINE","CA","92612"
126615,"23 MONMOUTH STREET","DEER PARK","NY","11729"
126616,"23 MONTAGUE CIRCLE","GREENVILLE","SC","29617"
126617,"23 MONTANA CT","STATEN ISLAND","NY","10303"
126618,"23 MONTICELLO BLVD","NEW CASTLE","DE","19720"
126619,"23 MT PLEASANT STREET","HYDE PARK","MA","02136"
126620,"23 N 8TH DUNCAN","DUNCAN","OK","73533"
126621,"23 N HAVILAND AVE","AUDUBON","NJ","08106"
126622,"23 N MAIN ST","PINE PLAINS","NY","12567"
126623,"23 N MARKET STREET","SAN JOSE","CA","95113"
126624,"23 NE 138TH STREET","OKEECHOBEE","FL","34972"
126625,"23 NELSON PL","WORCESTER","MA","01605"
126626,"23 NEPONSET AVE","BOSTON","MA","02136"
126627,"23 NORTH MAIN STREET","MASONTOWN","PA","15461"
126628,"23 NORTH OAKS PLAZA - SUITE 250","ST LOUIS","MO","63121"
126629,"23 NORTH ROAD SUITE A-16","WAKEFIELD","RI","02879"
126630,"23 NORTH STREET","RANDOLPH","MA","02368"
126631,"23 NORTHGATE DRIVE","GREENLAWN","NY","11740"
126632,"23 NORTON PLACE","PLAINVILLE","CT","06062"
126633,"23 NW 75 STREET","MIAMI","FL","33150"
126634,"23 NW GREENWOOD AVE","BEND","OR","97703"
126635,"23 O CONNOR RD","ORLEANS","MA","02653"
126636,"23 OAK STREET","CHARLESTOWN","MA","02129"
126637,"23 OCEAN AVE","MASTIC","NY","11950"
126638,"23 OGDEN PL","PARSIPPANY","NJ","07054"
126639,"23 OLD FARMSTEAD RD","CHESTER","NJ","07930"
126640,"23 OLD MAMARONECK RD 1M","WHITE PLAINS","NY","10605"
126641,"23 OLD POST LANE","COLUMBIA CROSS ROADS","PA","16914"
126642,"23 OLDE HAMLET DR","JERICHO","NY","11753"
126643,"23 OLDE MILL COURT","LITITZ","PA","17543"
126644,"23 OLSEN ROAD","PEABODY","MA","01960"
126645,"23 ORANGE LANE","LOUISA","KY","41230"
126646,"23 ORCHARD TERRACE","WYANTSKILL","NY","12198"
126647,"23 ORCHID LANE","COMMACK","NY","11725"
126648,"23 PADANARAM AVE","DANBURY","CT","06811"
126649,"23 PANCOAST ROAD","WARETOWN","NJ","08758"
126650,"23 PANTRY ROAD","SUDBURY","MA","01776"
126651,"23 PARK AVE","BRIDGETON","NJ","08302"
126652,"23 PATTON PLACE","TUSCALOOSA","AL","35404"
126653,"23 PAUL REVERE ROAD","ACTON","MA","01720"
126654,"23 PAYNE PLACE","NORMAL","IL","61761"
126655,"23 PAYSON ROAD","FALMOUTH","ME","04105"
126656,"23 PEARL STREET","NORWALK","OH","44857"
126657,"23 PECANWOOD","PETAL","MS","39465"
126658,"23 PEPPER COURT","INGLEWOOD","CA","90303"
126659,"23 PEPPERTREE COURT","MARIETTA","GA","30068"
126660,"23 PICASSO PATH PLACE","THE WOODLANDS","TX","77382"
126661,"23 PINE ST","WESTON","MA","02493"
126662,"23 PINE VALLEY RD","ROME","GA","30165"
126663,"23 PINTO TRAIL","GREENBRIER","AR","72058"
126664,"23 PLEASANT DRIVE","ORMOND BEACH","FL","32176"
126665,"23 PLEASANT ST","WINDSOR LOCKS","CT","06096"
126666,"23 PLEASANT STREET","ANDOVER","MA","01810"
126667,"23 PLEASANT STREET","DUNSTABLE","MA","01827"
126668,"23 PRALLS LOOP","HIGHWOOD","IL","60040"
126669,"23 PRISCILLA LANE","CHARLTON","MA","01507"
126670,"23 PURUS ST","PUNTA GORDA","FL","33983"
126671,"23 QUAIL COURT","WINDSOR LOCKS","CT","06096"
126672,"23 QUEEN AVENUE","WEST SPRINGFIELD","MA","01089"
126673,"23 RAILROAD AVE/ SUITE 442","DANVILLE","CA","94526"
126674,"23 RAILROAD AVENUE 1131","DANVILLE","CA","94526"
126675,"23 RAMAPO ROAD","HEWITT","NJ","07421"
126676,"23 RANGEWOOD COURT","PITTSBURG","CA","94565"
126677,"23 RASPBERRY CIRCLE","DURANGO","CO","81303"
126678,"23 REDGRAVE AVENUE","STATEN ISLAND","NY","10306"
126679,"23 RIBERIA STREET","SAINT AUGUSTINE","FL","32084"
126680,"23 RIVERSIDE AVE","MASTIC BEACH","NY","11951"
126681,"23 ROCKLAND ROAD","AUBURN","MA","01501"
126682,"23 ROCKROSE CT","NAPA","CA","94558"
126683,"23 ROCKWOOD STREET","MELROSE","MA","02176"
126684,"23 ROSE CT","GLEN CARBON","IL","62034"
126685,"23 ROSE LANE","CLEVELAND","MS","38732"
126686,"23 ROSEMUNN DRIVE APARTMENT B","LITTLE ROCK","AR","72205"
126687,"23 ROSS LANE","BELPRE","OH","45714"
126688,"23 ROSSITER AVENUE","PHOENIXVILLE","PA","19460"
126689,"23 S MAIN ST","NEW LONDON","OH","44851"
126690,"23 S MAIN STREET - SUITE H","MEDFORD","NJ","08055"
126691,"23 SAM LAW DRIVE","MONSEY","NY","10952"
126692,"23 SAN CARLOS","RCH STA MARGARITA","CA","92688"
126693,"23 SAWMILL ROAD","DUDLEY","MA","01571"
126694,"23 SCHENCK AVENUE SUITE 1AE","GREAT NECK","NY","11021"
126695,"23 SCHERMERHORN STREET APT 5R","BROOKLYN","NY","11201"
126696,"23 SCOTT STREET","TIDIOUTE","PA","16351"
126697,"23 SHADOW CREEK CIRCLE","PALOS HEIGHTS","IL","60463"
126698,"23 SHELDON AVE","EASTHAMPTON","MA","01027"
126699,"23 SHERRY RIDGE","TEXARKANA","TX","75501"
126700,"23 SHERWOOD DRIVE NW","CARTERSVILLE","GA","30121"
126701,"23 SHERWOOD MEADOWS CIRCLE","PEMBROKE","NH","03271"
126702,"23 SIDNEY ST  APT 406","CAMBRIDGE","MA","02139"
126703,"23 SIDNEY STREET","SMITHFIELD","RI","02917"
126704,"23 SIMON ROAD","ENFIELD","CT","06082"
126705,"23 SMITH GARRISON ROAD","NEWMARKET","NH","03857"
126706,"23 SNOW BUSH ST","LADERA RANCH","CA","92694"
126707,"23 SNOW ROAD","MARSHFIELD","MA","02050"
126708,"23 SOUTH 13TH ST APT 2ND","HARRISBURG","PA","17104"
126709,"23 SOUTH BEERS ST","HOLMDEL","NJ","07733"
126710,"23 SOUTH CANNON DRIVE","WILMINGTON","DE","19809"
126711,"23 SOUTH FRONT STREET","STEELTON","PA","17113"
126712,"23 SOUTH MAIN STREET 3RD FLOOR","AKRON","OH","44308"
126713,"23 SOUTH MAIN","AKRON","OH","44308"
126714,"23 SOUTH QUARRY STREET","MT PLEASANT","PA","15666"
126715,"23 SOUTH WAKEFIELD DRIVE","LITTLE ROCK","AR","72209"
126716,"23 SPARKLE DRIVE","LAWRENCE","MA","01843"
126717,"23 SPRING ST  STE 303","OSSINING","NY","10562"
126718,"23 ST JOHN DR","HAMPTON","VA","23666"
126719,"23 ST JOHNS DR","GANSEVOORT","NY","12831"
126720,"23 STATION COURT APT 204","GREENVILLE","SC","29601"
126721,"23 STONE TOWER LANE","WILMINGTON","DE","19803"
126722,"23 SUMMIT DRIVE","EAST BRUNSWICK","NJ","08816"
126723,"23 SUNNYDALE LN","RANCHO SANTA MARGARI","CA","92688"
126724,"23 TALL OAK DRIVE","HUNTINGTON","NY","11743"
126725,"23 TAYLOR SQUARE","WEST HARRISON","NY","10604"
126726,"23 TAYLORTON ROAD","MCDERMOTT","OH","45652"
126727,"23 TECUMSEH STREET","PITTSBURGH","PA","15207"
126728,"23 TEMPLE STREET","PORTSMOUTH","VA","23702"
126729,"23 TIGER WAY SUITE 119","MOODY AFB","GA","31699"
126730,"23 TIKVAH WAY","MORRISTOWN","NJ","07960"
126731,"23 TODD RIDGE RD","TITUSVILLE","NJ","08560"
126732,"23 TUSCANY TERRACE","LAKEWOOD","NJ","08701"
126733,"23 TWAIN AVE","OLD BRIDGE","NJ","08857"
126734,"23 TWAIN CIRCLE","SUGARLOAF","PA","18249"
126735,"23 UNIVERSITY HOUSES C","MADISON","WI","53705"
126736,"23 UPPER POND ROAD","ELLIJAY","GA","30540"
126737,"23 VALLEY STREET","BELLEVILLE","NJ","07109"
126738,"23 VAN ARSDALE CIRCLE","MILLSTONE","NJ","08535"
126739,"23 W 029 HACKBERRY DRIVE","GLEN ELLYN","IL","60137"
126740,"23 W 34TH STREET PO BOX 420","STEGER","IL","60475"
126741,"23 W 73RD ST SUITE 1405A","NEW YORK","NY","10023"
126742,"23 W 8TH ST APT 3B","NEW YORK","NY","10011"
126743,"23 W CENTRAL ENTRANCE 241","DULUTH","MN","55811"
126744,"23 W CENTRAL ENTRANCE STE 353","DULUTH","MN","55811"
126745,"23 W CHESTNUT AVE","VINELAND","NJ","08360"
126746,"23 W MAIN STREET","FILLMORE","NY","14735"
126747,"23 W MARKET STREET 201","CORNING","NY","14830"
126748,"23 WALKER AVENUE SUITE 100","BALTIMORE","MD","21208"
126749,"23 WALKER AVENUE SUITE 102","BALTIMORE","MD","21208"
126750,"23 WATCH TOWER LANE","OLD GREENWICH","CT","06870"
126751,"23 WATER GRANT STREET STE 3D","YONKERS","NY","10701"
126752,"23 WEBSTER CT","AMHERST","MA","01002"
126753,"23 WENDOVER SQUARE","LYNCHBURG","VA","24503"
126754,"23 WEST 116TH STREET 6C","NEW YORK","NY","10026"
126755,"23 WEST 73 STREET","MANHATTAN","NY","10023"
126756,"23 WEST CHERRY","ALBION","IL","62806"
126757,"23 WEST PELHAM ROAD","SHUTESBURY","MA","01072"
126758,"23 WESTBROOK COURT","GREENLAWN","NY","11740"
126759,"23 WESTERLY TERRACE","EAST HARTFORD","CT","06118"
126760,"23 WESTGATE ROAD","SUFFERN","NY","10901"
126761,"23 WEXFORD DRIVE","MONMOUTH JUNCTION","NJ","08852"
126762,"23 WHEATFIELD COVE RD","NARRAGANSETT","RI","02882"
126763,"23 WHITWORTH ST","LADERA RANCH","CA","92694"
126764,"23 WILLOW AVE","RANDOLPH","NJ","07869"
126765,"23 WILSON PARK DRIVE","GRANITE CITY","IL","62040"
126766,"23 WILTON COURT","WASHINGTON","WV","26181"
126767,"23 WINDING WAY","POMPTON PLAINS","NJ","07444"
126768,"23 WINSLOW STREET","LADERA RANCH","CA","92694"
126769,"23 WINTERGREEN CIRCLE","METHUEN","MA","01844"
126770,"23 WOODLAND DRIVE","EAST WINDSOR","NJ","08520"
126771,"23 WOODLAND ROAD","DOVER","NH","03820"
126772,"23 WOODLOT RD","AMHERST","MA","01002"
126773,"23 WOODWARD AVENUE","BATTLE CREEK","MI","49017"
126774,"23 WYMAN ROAD","LEXINGTON","MA","02420"
126775,"23 WYMAN STREET","PEABODY","MA","01905"
126776,"23- 56 STEINWAY STREET","ASTORIA","NY","11105"
126777,"23-13 CORPORAL KENNEDY STREET","BAYSIDE","NY","11360"
126778,"23-24 PITKIN AVE","BROOKLYN","NY","11207"
126779,"23-25 SPRING STREET","OSSINING","NY","10562"
126780,"23-47 26 STREET","ASTORIA","NY","11105"
126781,"23-59 91ST STREET","EAST ELMHURST","NY","11369"
126782,"23","DULUTH","MN","55805"
126783,"230 2ND ST","FALL RIVER","MA","02721"
126784,"230 2ND STREET EAST","CHESTER","MT","59522"
126785,"230 49TH STREET NE","WASHINGTON","DC","20019"
126786,"230 ABERDEEN CT","BELLEVILLE","MI","48111"
126787,"230 AERSHIRE COURT","CONCORD","NC","28025"
126788,"230 ALBI ROAD 1","NAPLES","FL","34112"
126789,"230 ALPINE STREET","BRIDGEPORT","CT","06610"
126790,"230 ANAWAN STREET","REHOBOTH","MA","02769"
126791,"230 ANVIL LANE","FEASTERVILLE","PA","19053"
126792,"230 ASHLAND PLACE  25A","BROOKLYN","NY","11217"
126793,"230 AVIATION DRIVE","WINCHESTER","VA","22602"
126794,"230 BELLEVUE LOOP","FAYETTEVILLE","GA","30215"
126795,"230 BETHANY RD APT 201","BURBANK","CA","91504"
126796,"230 BROOK AVE","NORTH PLAINFIELD","NJ","07060"
126797,"230 BUFFALO SHOALS ROAD","STATESVILLE","NC","28677"
126798,"230 CALABRIA AVE 1","MIAMI","FL","33134"
126799,"230 CALHOUN DRIVE","WILMINGTON","NC","28445"
126800,"230 CAPELLI DRIVE","FELTON","CA","95018"
126801,"230 CENTRAL PARK WEST SUITE D","NEW YORK CITY","NY","10024"
126802,"230 CENTRAL PARK WEST","NEW YORK","NY","10024"
126803,"230 CHERRY STREET","DONALSONVILLE","GA","39845"
126804,"230 CHEVALIER FIELD RD","PENSACOLA","FL","32508"
126805,"230 COE STREET","TIFFIN","OH","44883"
126806,"230 COLLEGE STREET","BURLINGTON","VT","05401"
126807,"230 COLMAR DRIVE","KING OF PRUSSIA","PA","19406"
126808,"230 COMMERCIAL STREET","BOSTON","MA","02109"
126809,"230 CONCORD LANE","CAROL STREAM","IL","60188"
126810,"230 COOPER ROAD","WEST BERLIN","NJ","08091"
126811,"230 CORVETTE LANE","BELTON","KY","42324"
126812,"230 COSBY DRIVE","LAGRANGE","GA","30241"
126813,"230 COUNTY RD 545 N","MARQUETTE","MI","49855"
126814,"230 COUNTY ROAD 112","HOUSTON","MS","38851"
126815,"230 COUNTY ROAD 340","ORRVILLE","AL","36767"
126816,"230 COUNTY ROAD 50","MOUNT HOPE","AL","35651"
126817,"230 CR 2362","LIBERTY","TX","77575"
126818,"230 CROSS ST  PO BOX 387","LOWELL","WI","53577"
126819,"230 CUMBERLAND BEND SUITE 230E","NASHVILLE","TN","37228"
126820,"230 CYPRESS DRIVE","DECATUR","AL","35603"
126821,"230 DARWIN ST","LAKE GENEVA","WI","53147"
126822,"230 DECKER AVENUE","STATEN ISLAND","NY","10302"
126823,"230 DETERING STREET","HOUSTON","TX","77007"
126824,"230 DOANSBURG ROAD","BREWSTER","NY","10509"
126825,"230 DONALD DRIVE","HOLLISTER","CA","95023"
126826,"230 E 38TH ST","ERIE","PA","16504"
126827,"230 E 3RD ST APT 1","JACKSONVILLE","FL","32206"
126828,"230 E 73RD ST  APT 8A","NEW YORK","NY","10021"
126829,"230 E 92ND STREET","BROOKLYN","NY","11212"
126830,"230 E BRADLEY STREET","DES PLAINES","IL","60016"
126831,"230 E FREMONT ST","STOCKTON","CA","95202"
126832,"230 E GARFIELD APT 102","CHICAGO","IL","60615"
126833,"230 E MONUMENT AVE SUITE B","KISSIMMEE","FL","34741"
126834,"230 E MONUMENT AVE","KISSIMMEE","FL","34741"
126835,"230 E ONTARIO ST APT 703","CHICAGO","IL","60611"
126836,"230 E PARK AVE","ESCONDIDO","CA","92025"
126837,"230 E QUEEN STREET","CHAMBERSBURG","PA","17201"
126838,"230 E RIDGEWOOD AVE","PARAMUS","NJ","07652"
126839,"230 E SECOND STREET","DELPHOS","OH","45833"
126840,"230 E VALENCIA AVE APT E","BURBANK","CA","91502"
126841,"230 E WISNER ST","ALPENA","MI","49707"
126842,"230 EAST 123RD ST","EL BARRIO-NY","NY","10035"
126843,"230 EAST AVENUE","NORTH TONAWANDA","NY","14120"
126844,"230 EAST COLLEGE DRIVE","DURANGO","CO","81301"
126845,"230 EAST NORTH STREET","SIDNEY","OH","45365"
126846,"230 ECKFORD ST","BROOKLYN","NY","11222"
126847,"230 ELLEN PL","ATLANTA","GA","30331"
126848,"230 ELM STREET","AMESBURY","MA","01913"
126849,"230 ENON COURT SW","ATLANTA","GA","30331"
126850,"230 FAOX HAVEN DRIVE","O FALLON","NC","63368"
126851,"230 FIELDS POND DR","MADISON","AL","35756"
126852,"230 FRANKLIN STREET","SELMA","AL","36703"
126853,"230 GILMER FERRY RD     BOX 508","BALL GROUND","GA","30107"
126854,"230 GLENMOOR RD","CANON CITY","CO","81212"
126855,"230 GOVERNMENT CENTER DRIVE- S100","WILMINGTON","NC","28403"
126856,"230 GRAND AVENUE","SHEPHERDSVILLE","KY","40165"
126857,"230 GREENBRIAR DR","DEERFIELD","IL","60015"
126858,"230 GREENVIEW TERR","MACON","GA","31220"
126859,"230 GREENWICH STREET","PHILADELPHIA","PA","19147"
126860,"230 GUY BROWN RD","SCOTTSVILLE","KY","42164"
126861,"230 HAMILTON BLVD","STRUTHERS","OH","44471"
126862,"230 HAMMOND DRIVE SUITE 328","SANDY SPRINGS","GA","30328"
126863,"230 HARRISON ST","MISSION","SD","57555"
126864,"230 HELLER CT","SHULLSBURG","WI","53586"
126865,"230 HENDRIX AVE","ATLANTA","GA","30315"
126866,"230 HIDDEN SPRINGS DRIVE","RUTLEDGE","GA","30663"
126867,"230 HILLCREST DR","TOMAHAWK","WI","54487"
126868,"230 HILLSIDE DR","MOAB","UT","84532"
126869,"230 HILLWOOD BLVD","NASHVILLE","TN","37205"
126870,"230 HODGENS MILL LN","OFALLON","IL","62269"
126871,"230 HUDSON AVE","ROOSEVELT","NY","11575"
126872,"230 HUDSON AVENUE","ROOSEVELT","NY","11757"
126873,"230 IRONWOOD CR","ALABASTER","AL","35007"
126874,"230 ISLE AVENUE","WAYNESBORO","VA","22980"
126875,"230 J  W  NEAL CIRCLE","HOPKINS","SC","29061"
126876,"230 J DAVIS RD","TALLAPOOSA","GA","30176"
126877,"230 JAMES STREET","CLAYTON","NY","13624"
126878,"230 JAMESTOWN AVENUE","JONESBORO","GA","30236"
126879,"230 JOHNSTON AVE 1ST FL","PLAINFIELD","NJ","07062"
126880,"230 KINGS HIGHWAY EAST -  SUITE 286","HADDONFIELD","NJ","08033"
126881,"230 KINGS HIGHWAY EAST - SUITE 286","HADDONFIELD","NJ","08033"
126882,"230 KINGS HIGHWAY EAST SUITE 110","HADDONFIELD","NJ","08033"
126883,"230 KINGS MALL CT NUM 213","KINGSTON","NY","12401"
126884,"230 KINNE ST","EAST SYRACUSE","NY","13057"
126885,"230 LAKESIDE CROSSING","MOUNT JOY","PA","17552"
126886,"230 LANTERN ROAD NO 11","REVERE","MA","02150"
126887,"230 LAUREL POINT CT","DELAND","FL","32724"
126888,"230 LEEWARD AVENUE","SHELL BEACH","CA","93449"
126889,"230 LEXINGTON AVE","BUFFALO","NY","14222"
126890,"230 LINDEN AVENUE UNIT 407","LONG BEACH","CA","90802"
126891,"230 LONSDALE CR","JACKSONVILLE","AR","72076"
126892,"230 MAIN ST","FALMOUTH","KY","41040"
126893,"230 MAIN STREET","SIERRA CITY","CA","96125"
126894,"230 MARIGOLD DR","TERRE HAUTE","IN","47803"
126895,"230 MARKET PLACE","MENLO PARK","CA","94025"
126896,"230 MARLBOROUGH ST","BOSTON","MA","02116"
126897,"230 MARLENE DR","SAN LUIS OBISPO","CA","93405"
126898,"230 MELTON DR","BATESVILLE","AR","72501"
126899,"230 MENDHAM ROAD","MORRISTOWN","NJ","07960"
126900,"230 MONROE STREET","SPRING GREEN","WI","53588"
126901,"230 MORROW ROAD","FOREST CITY","NC","28043"
126902,"230 MURPHY RD","PENDLETON","SC","29670"
126903,"230 N 1680 E STE T2","SAINT GEORGE","UT","84790"
126904,"230 N 3RD STREET 12TH FLOOR","HARRISBURG","PA","17101"
126905,"230 N 5TH ST","MANISTIQUE","MI","49854"
126906,"230 N BENNETT STREET SUITE 2","SOUTHERN PINES","NC","28387"
126907,"230 N MAIN ROAD","VINELAND","NJ","08360"
126908,"230 N MAIN STREET  P O BOX 166","ELDRED","PA","16731"
126909,"230 N PLAZA BLVD","CHILLICOTHE","OH","45601"
126910,"230 N SEINE DRIVE","CHEEKTOWAGA","NY","14227"
126911,"230 N SEMINOLE CIRCLE","FORT WAYNE","IN","46807"
126912,"230 N WASHINGTON SQ STE 101","LANSING","MI","48933"
126913,"230 N WATERFORD OAKS DR","CEDAR HILL","TX","75104"
126914,"230 N WOODLAND BLVD SUITE 304","DELAND","FL","32720"
126915,"230 NE 25TH AVE","OCALA","FL","34470"
126916,"230 NE 25TH AVENUE SUITE 100","OCALA","FL","34470"
126917,"230 NE 51ST STREET","OAKLAND PARK","FL","33334"
126918,"230 NH ROUTE 175","HOLDERNESS","NH","03245"
126919,"230 NH RTE 175","HOLDERNESS","NH","03245"
126920,"230 NORTH CLINTON STREET","IOWA CITY","IA","52245"
126921,"230 NORTH ELM STREET SUITE 1900","GREENSBORO","NC","27401"
126922,"230 NORTH HAMILTON STREET","DALTON","GA","30720"
126923,"230 NORTH MARKET SUITE 201","WICHITA","KS","67202"
126924,"230 NORTH MOUNTAIN ROAD","JEFFERSON","ME","04348"
126925,"230 NORTHLAND BLVD STE 114","CINCINNATI","OH","45246"
126926,"230 NORTHLANDS DRIVE","CARY","NC","27519"
126927,"230 ORIETA POINT ST","ALTAMONTE SPRINGS","FL","32701"
126928,"230 PARK AVENUE 3RD FLOOR WEST","NEW YORK","NY","10169"
126929,"230 PARK PLACE 6K","BROOKLYN","NY","11238"
126930,"230 PARK STREET","MIAMI SPRINGS","FL","33166"
126931,"230 PARK STREET","MONTCLAIR","NJ","07042"
126932,"230 PARTRIDGE RUN","SALISBURY","NC","28147"
126933,"230 PEACHTREE STREET SUITE 1601","ATLANTA","GA","30303"
126934,"230 PEACHTREE STREET SUITE 1601","ATLANTA","GA","30312"
126935,"230 PHEASANT DRIVE","HEALDSBURG","CA","95448"
126936,"230 PHEASANT RUN","UNION GROVE","WI","53182"
126937,"230 PIRATE DR","SAINT ROSE","LA","70087"
126938,"230 QUAIL RUN","ROSWELL","GA","30076"
126939,"230 RAIDER DRIVE","COOKEVILLE","TN","38501"
126940,"230 RANCHITOS RD","TAOS","NM","87571"
126941,"230 RANCHO VISTA DR","DOUBLE OAK","TX","75077"
126942,"230 RHODE ISLAND AVE NE APT 114","WASHINGTON","DC","20002"
126943,"230 RHODES ROAD","RENO","NV","89521"
126944,"230 RIDGEWOOD DRIVE","DAPHNE","AL","36526"
126945,"230 ROCKLAND TRAIL","LUCAS","TX","75002"
126946,"230 ROPE MILL RD","WOODSTOCK","GA","30188"
126947,"230 S BEMISTON AVE","ST LOUIS","MO","63105"
126948,"230 S BROAD STREET FLOOR 17","PHILADELPHIA","PA","19102"
126949,"230 S DEARBORN STREET STE 1200","CHICAGO","IL","60604"
126950,"230 S JACKSON ST STE 160","ALBANY","GA","31701"
126951,"230 S MARR ROAD","COLUMBUS","IN","47201"
126952,"230 S NEW YORK AVENUE","WINTER PARK","FL","32789"
126953,"230 S SPICE WOOD TER","LECANTO","FL","34461"
126954,"230 S STERLING DRIVE UNIT 260","MOUNTAIN HOUSE","CA","95391"
126955,"230 SANDHILLS CIR","PINEHURST","NC","28374"
126956,"230 SARANAC AVE","BUFFALO","NY","14216"
126957,"230 SAUGATUCK AVENUE - NUMBER 2","WESTPORT","CT","06880"
126958,"230 SHADY LANE","VALLEJO","CA","94591"
126959,"230 SKY HARBOR DRIVE","MURFREESBORO","TN","37129"
126960,"230 SKY HIGH DRIVE 81","SKY VALLEY","GA","30537"
126961,"230 SKYLINE VIEW","DALLAS","GA","30157"
126962,"230 SMOKEY ROAD","WINTERVILLE","GA","30683"
126963,"230 SOUTH 7TH AVENUE SUITE 2H","MOUNT VERNON","NY","10550"
126964,"230 SOUTH JACKSON STREET SUITE 208","ALBANY","GA","31701"
126965,"230 SOUTH JACKSON STREET SUITE 300","ALBANY","GA","31701"
126966,"230 SOUTH PHILLIPS AVENUE SUITE 300","SIOUX FALLS","SD","57104"
126967,"230 SOUTH STREET","HOLYOKE","MA","01040"
126968,"230 SOUTHLAND DR","LUMBERTON","TX","77657"
126969,"230 STAMPERS STREET","PHILADELPHIA","PA","19147"
126970,"230 STAUNTON AVE","SOUTH CHARLESTON","WV","25303"
126971,"230 STRAND STREET","SAINT HELENS","OR","97051"
126972,"230 STUART STREET APT 413","BOSTON","MA","02116"
126973,"230 SUMMER LN","MONCKS CORNER","SC","29461"
126974,"230 SUNSET ST","KINGSBURG","CA","93631"
126975,"230 SW CHELSEA TER","PORT ST LUCIE","FL","34984"
126976,"230 SWAYING PINE COURT","CRESTVIEW","FL","32539"
126977,"230 TANEY STREET","GARY","IN","46404"
126978,"230 TC JESTER BLVD APT 242","HOUSTON","TX","77007"
126979,"230 TEEPEE TRL","WHITESBURG","GA","30185"
126980,"230 THUROW DRIVE","OCONOMOWOC","WI","53066"
126981,"230 TIMBER RIDGE DR","MARTHASVILLE","MO","63357"
126982,"230 TOLEDO COURT","VALLEJO","CA","94591"
126983,"230 TOWER DR","SUN PRAIRIE","WI","53590"
126984,"230 TRANSIT ST","DENVER","IA","50622"
126985,"230 TUCKER ROAD","HELENA","AL","35080"
126986,"230 TURIN DRIVE","DALLAS","TX","75249"
126987,"230 TUSCAN RD","ARDMORE","OK","73401"
126988,"230 UNIVERSITY STREET","MARTIN","TN","38237"
126989,"230 VAN BUREN STREET","SHIRLEY","NY","11967"
126990,"230 W 140TH STREET APT 4","NEW YORK","NY","10030"
126991,"230 W 14TH AVE APT 107","ANCHORAGE","AK","99501"
126992,"230 W CENTER STREET","FAYETTEVILLE","AR","72701"
126993,"230 W JEAN ST","TAMPA","FL","33604"
126994,"230 W KLUBERTANZ DR","SUN PRAIRIE","WI","53590"
126995,"230 W MAPLE RD STE 101","TROY","MI","48084"
126996,"230 W MOREHEAD ST","REIDSVILLE","NC","27320"
126997,"230 W PLYMOUTH ST","VILLA PARK","IL","60181"
126998,"230 W POPLAR ST","TROY","KS","66087"
126999,"230 W WHITAKER ST","CLAYTON","NC","27520"
127000,"230 WALNUT STREET","MICHIGAN CITY","IN","46360"
