"ID","Address","City","State","Zip"
232501,"509 1/2 EAST DEYOUNG STREET","MARION","IL","62959"
232502,"509 13TH ST STE 7","MODESTO","CA","95354"
232503,"509 19TH STREET N","BESSEMER","AL","35020"
232504,"509 21ST STREET","WEST PALM BEACH","FL","33407"
232505,"509 33RD STREET SE","WASHINGTON","DC","20019"
232506,"509 3RD ST","TRENTON","ND","58853"
232507,"509 49TH AVENUE","BELLWOOD","IL","60104"
232508,"509 4TH","BREMERTON","WA","98310"
232509,"509 6TH AVE NE","CROSBY","MN","56441"
232510,"509 ACACIA AVE","SEBASTIAN","FL","32958"
232511,"509 ARCOLA DRIVE","COLUMBIA","SC","29223"
232512,"509 ARMSTRONG AVE","APOLLO","PA","15613"
232513,"509 ASTOR CIRCLE","NORFOLK","VA","23505"
232514,"509 BALDWIN ROAD","SUMMIT","NY","12175"
232515,"509 BEALL STREET","CUMBERLAND","MD","21502"
232516,"509 BELOIT AVE UNIT 1","FOREST PARK","IL","60130"
232517,"509 BLACK DIAMOND RD","PORT ANGELES","WA","98363"
232518,"509 BRANCH CROSSING DRIVE","COVINGTON","LA","70435"
232519,"509 BROADWAY","PATERSON","NJ","07514"
232520,"509 BUCKINGHAM PLACE","DESOTO","TX","75115"
232521,"509 CARAWAY CT","SAINT JOHNS","FL","32259"
232522,"509 CARY WOODS CIR","CARY","IL","60013"
232523,"509 CASSWAY ARCH","CHESAPEAKE","VA","23323"
232524,"509 CEDAR HILL ROAD","FAR ROCKAWAY","NY","11691"
232525,"509 CEDARWOOD CT","BARBERTON","OH","44203"
232526,"509 CHURCH STREET","LAFAYETTE","TN","37083"
232527,"509 COLGATE COURT","BENSALEM","PA","19020"
232528,"509 COPHER CT","EULESS","TX","76040"
232529,"509 DAVIE ROAD","CARRBORO","NC","27510"
232530,"509 DUNWOODY COURT","FRANKLIN","TN","37069"
232531,"509 E  3RD STREET","BROOKLYN","NY","11218"
232532,"509 E 75TH ST - 2ND FLOOR","CHICAGO","IL","60619"
232533,"509 E 75TH ST FL 2","CHICAGO","IL","60619"
232534,"509 E 75TH STREET 2ND FL","CHICAGO","IL","60619"
232535,"509 E 75TH STREET 2ND FLOOR","CHICAGO","IL","60619"
232536,"509 E CAPITOL STREET","JACKSON","MS","39201"
232537,"509 E ELGIN","BROKEN ARROW","OK","74012"
232538,"509 E ELLICOTT STREET","TAMPA","FL","33603"
232539,"509 E HARRISON AVENUE","COEUR D'ALENE","ID","83814"
232540,"509 E LANCASTER BLVD UNIT 7","LANCASTER","CA","93535"
232541,"509 E MAIN ST","GENEVA","OH","44041"
232542,"509 E PIUTE AVE","PHOENIX","AZ","85024"
232543,"509 EAST CENTER STREET","LEXINGTON","NC","27292"
232544,"509 EAST DUNN ROAD","NEW CARLISLE","IN","46552"
232545,"509 EAST EXETER STREET","GLADSTONE","OR","97027"
232546,"509 EAST WATAUGA AVENUE","JOHNSON CITY","TN","37601"
232547,"509 ELBETHEL RD","GAFFNEY","SC","29340"
232548,"509 ELM ST","RICHLAND","PA","17087"
232549,"509 ELMWOOD CT","KALAMAZOO","MI","49007"
232550,"509 EMBER DRIVE","DURHAM","NC","27703"
232551,"509 EMORY ST","AKRON","OH","44310"
232552,"509 ENERGY CENTER BLVD SUITE 803","NORTHPORT","AL","35473"
232553,"509 FLAMINGO DR","W. PALM BEACH","FL","33401"
232554,"509 FOREST RD","PERKASIE","PA","18944"
232555,"509 FOXGLOVE WAY","STAFFORD","VA","22554"
232556,"509 GARTRELL ST","ASHLAND","KY","41101"
232557,"509 GLENWOOD TOWERS   701","RALEIGH","NC","27603"
232558,"509 GOLDEN CREEK DR","ROUND ROCK","TX","78665"
232559,"509 GRAVEL PIKE","COLLEGEVILLE","PA","19426"
232560,"509 GREEN RIVER RD","CHESNEE","SC","29325"
232561,"509 GREENTOWN ROAD","TRENTON","NC","28585"
232562,"509 GULLEY STREET","FARMERVILLE","LA","71241"
232563,"509 HALSEY AVENUE UNIT 2","PITTSBURGH","PA","15221"
232564,"509 HARRIET STREET","FLINT","MI","48504"
232565,"509 HAZLETT AVE APT A","BALTIMORE","MD","21229"
232566,"509 HEATH LN","COPPELL","TX","75019"
232567,"509 HEGNER WAY","SEWICKLEY","PA","15143"
232568,"509 HERON WALK SE","SAMMAMISH","WA","98074"
232569,"509 HICKORY STREET","STATESVILLE","NC","28677"
232570,"509 HIDDEN HARBOUR DR","INDIAN ROCKS BEACH","FL","33785"
232571,"509 HIGHLAND MEADOWS DRIVE","SPARTA","WI","54656"
232572,"509 HIGHWAY 105 SUITE 306","MONUMENT","CO","80132"
232573,"509 HILLS APT 142","EL PASO","TX","79901"
232574,"509 HOCHUNK PLAZA N","WINNEBAGO","NE","68071"
232575,"509 JEFFERSON STREET","LAFAYETTE","LA","70501"
232576,"509 KATHY DR","DESOTO","TX","75115"
232577,"509 KAYS LANDING DR","SANFORD","FL","32771"
232578,"509 KELVINGTON DRIVE","ANNA","TX","75409"
232579,"509 KENNEDY ST","AMA","LA","70031"
232580,"509 KESSLER BOULEVARD WEST DRIVE","INDIANAPOLIS","IN","46228"
232581,"509 LAUREL RIDGE ROAD","NORTH CHARLESTON","SC","29418"
232582,"509 LAURELWOOD RD","BURLESON","TX","76028"
232583,"509 LINDEN CIRCLE","CHARLESTON","SC","29407"
232584,"509 LONDONTOWN RD","EDGEWATER","MD","21037"
232585,"509 MADISON AVE 4TH FLR","NEW YORK","NY","10022"
232586,"509 MAPLE COVE LANE NW","MADISON","AL","35757"
232587,"509 MAPLE DRIVE","SPRINGDALE","AR","72764"
232588,"509 MARTIN LUTHER KIND BLVD","TRENTON","NJ","08618"
232589,"509 MEADOW LEA DRIVE","AUSTIN","TX","78745"
232590,"509 MILLHOUSE RD","CASTLE HAYNE","NC","28429"
232591,"509 MILLIGAN DRIVE","STONE MOUNTAIN","GA","30083"
232592,"509 MOCKINGBIRD LANE","WEATHERFORD","TX","76086"
232593,"509 MONTROSE DR","ROMEOVILLE","IL","60446"
232594,"509 N 190TH STREET","SHORELINE","WA","98133"
232595,"509 N ALMOND WAY","BANNING","CA","92220"
232596,"509 N CUSTER STREET","WEATHERFORD","OK","73096"
232597,"509 N LAUREL VALLEY DRIVE","AZUSA","CA","91702"
232598,"509 N MAIN","HUXLEY","IA","50124"
232599,"509 N PARKER ST","RISING STAR","TX","76471"
232600,"509 N POINSETTIA PL","LOS ANGELES","CA","90036"
232601,"509 N POPLAR ST","CHARLOTTE","NC","28202"
232602,"509 N ROSS AVE","MEXIA","TX","76667"
232603,"509 N SALINAS BLVD UNIT 1329","DONNA","TX","78537"
232604,"509 N WESTOVER BLVD APT 221","ALBANY","GA","31707"
232605,"509 NAPLES TERRACE LANE","LAMARQUE","TX","77568"
232606,"509 NE 50TH COURT","POMPANO BEACH","FL","33064"
232607,"509 NE LIBERTY CT","ANKENY","IA","50021"
232608,"509 NORTH BROADWAY AVENUE","SYLACAUGA","AL","35150"
232609,"509 NORTH CAMPBELL STATION RD","FARRAGUT","TN","37934"
232610,"509 NORTH GRAHAM STREET UNIT3D","CHARLOTTE","NC","28202"
232611,"509 NORTH RIDGE STREET","DANVILLE","VA","24541"
232612,"509 NW 83RD ST","VANCOUVER","WA","98665"
232613,"509 OAK CIRCLE","EASLEY","SC","29640"
232614,"509 OLD SPEEDWAY DR NW","CONCORD","NC","28027"
232615,"509 OLIVE WAY SUITE 1451","SEATTLE","WA","98101"
232616,"509 OLIVE WAY/ SUITE 1711","SEATTLE","WA","98101"
232617,"509 PARKWAY DRIVE","IRVINGTON","KY","40146"
232618,"509 PARKWAY ROAD","HARRISBURG","PA","17110"
232619,"509 PINCHOT WAY","WOODSTOCK","GA","30188"
232620,"509 PINEHURST COURT","ROSLYN","NY","11576"
232621,"509 PLEASANT STREET","PARIS","KY","40361"
232622,"509 RANSOM UNITY B","BROOKINGS","OR","97415"
232623,"509 READS LN","FAR ROCKAWAY","NY","11691"
232624,"509 RIDGEWOOD ROAD","LOUISVILLE","KY","40207"
232625,"509 ROUTE 146","ALTAMONT","NY","12209"
232626,"509 ROUTE 32 APT 1","HIGHLAND MILLS","NY","10930"
232627,"509 RUNNYMEDE DR","FAYETTEVILLE","NC","28314"
232628,"509 RUSHWOOD COURT","SUFFOLK","VA","23435"
232629,"509 S 137TH STREET","BONNER SPRINGS","KS","66012"
232630,"509 S 22ND AVE","BOZEMAN","MT","59718"
232631,"509 S 5TH ST APT 16","CHAMPAIGN","IL","61820"
232632,"509 S ALTON BLVD","ALTON","TX","78573"
232633,"509 S CHICKASAW TRAIL 365","ORLANDO","FL","32825"
232634,"509 S COLLEGE STREET","NEWBERG","OR","97132"
232635,"509 S MAIN ST SUITE A","LAS CRUCES","NM","88001"
232636,"509 S SEMINOLE AVE","OKMULGEE","OK","74447"
232637,"509 S SPRUCE STREET","LARAMIE","WY","82072"
232638,"509 SANDERLING LANE","IMPERIAL BEACH","CA","91932"
232639,"509 SANDY PL","OXON HILL","MD","20745"
232640,"509 SAPPHIRE LANE","OCALA","FL","34472"
232641,"509 SCHOONER WAY","DOVER","DE","19901"
232642,"509 SE 13TH ST","GRIMES","IA","50111"
232643,"509 SENTOSA DR UNIT 309","ST JOHNS","FL","32259"
232644,"509 SERENITY LAKE CT","BARGERSVILLE","IN","46106"
232645,"509 SHOEMAKER AVE","JENKINTOWN","PA","19046"
232646,"509 SMILEY RD","HAMPTON","VA","23663"
232647,"509 SMITH STREET","WEST MONROE","LA","71292"
232648,"509 SO JEFFERSON","ABILENE","TX","79605"
232649,"509 SOUTH  BROAD STREET","PHILADELPHIA","PA","19147"
232650,"509 SOUTH EXETER STREET 4TH FLOOR","BALTIMORE","MD","21202"
232651,"509 SOUTH MARKET STREET","MUNCY","PA","17756"
232652,"509 SOUTH STREET","MADERA","CA","93638"
232653,"509 SPECTATOR AVE","HYATTSVILLE","MD","20785"
232654,"509 STRATFORD ST","HIGHLANDS","TX","77562"
232655,"509 STRAWBERRY RIDGE BLVD","VALRICO","FL","33594"
232656,"509 SW 2ND PL","POMPANO BEACH","FL","33060"
232657,"509 SWEDE STREET","NORRISTOWN","PA","19401"
232658,"509 TAMRANDON LN","BIRMINGHAM","AL","35005"
232659,"509 TRINIDAD DR","NORMAN","OK","73072"
232660,"509 UBER WAY","GROVE CITY","PA","16127"
232661,"509 UTAH STREET","HIAWATHA","KS","66434"
232662,"509 VALLEY MEADOW PLACE","ESCONDIDO","CA","92027"
232663,"509 W 121ST ST APT 611","NEW YORK","NY","10027"
232664,"509 W 34TH ST","WILMINGTON","DE","19802"
232665,"509 W 6TH ST","CLE ELUM","WA","98922"
232666,"509 W ATLANTIC ST","BRANSON","MO","65616"
232667,"509 W CHURCH ST","LYNN","IN","47355"
232668,"509 W CLEVELAND","CUERO","TX","77954"
232669,"509 W CORRIENTE CT","SAN TAN VALLEY","AZ","85143"
232670,"509 W HERRING ROAD","MASONTOWN","WV","26542"
232671,"509 W JEFFERSON ST","WASHINGTON","IA","52353"
232672,"509 W MAIN STREET","RIPON","CA","95366"
232673,"509 W MARKET ST","COLUMBIA CITY","IN","46725"
232674,"509 W WISCONSIN AVE","MILWAUKEE","WI","53203"
232675,"509 WASHBURN ROAD","WASHBURN","ME","04786"
232676,"509 WEST 3RD STREET","CHESTER","PA","19013"
232677,"509 WEST BERCKMAN STREET","FRUITLAND PARK","FL","34731"
232678,"509 WEST REED STREET","MOBERLY","MO","65270"
232679,"509 WHETSTONE GLEN STREET","GAITHERSBURG","MD","20877"
232680,"509 WILD PLUM CIRCLE","DERBY","KS","67037"
232681,"509 WISTERIA LANE","MORGANTON","GA","30560"
232682,"509 ZENITH DR","GLENVIEW","IL","60025"
232683,"5090 CENTER ST NE","SALEM","OR","97317"
232684,"5090 ELIOT ST","DENVER","CO","80221"
232685,"5090 GOLDENS PATH","YORK","PA","17408"
232686,"5090 KENT CT","RANCHO CUCAMONGA","CA","91739"
232687,"5090 N CORTE DE CATALONIA","TUCSON","AZ","85718"
232688,"5090 N WALDO RD","MIDLAND","MI","48642"
232689,"5090 NORTH 40TH STREET","PHOENIX","AZ","85018"
232690,"5090 OAK LN","GARDEN VALLEY","CA","95633"
232691,"5090 RICHMOND AVE APT 177","HOUSTON","TX","77056"
232692,"5090 RICHMOND AVE STE 111","HOUSTON","TX","77056"
232693,"5090 RICHMOND AVE STE 352","HOUSTON","TX","77056"
232694,"5090 RICHMOND AVE STE 620","HOUSTON","TX","77056"
232695,"5090 RICHMOND AVENUE 288","HOUSTON","TX","77056"
232696,"5090 SATURN RING COURT","GREENACRES","FL","33463"
232697,"5090 SHOREHAM PLACE UNIT 206","SAN DIEGO","CA","92122"
232698,"5090 SPINET DR","MELBOURNE","FL","32940"
232699,"5090 TENNYSON DRIVE","BEAUMONT","TX","77706"
232700,"5090 W LAREDO ST","CHANDLER","AZ","85226"
232701,"5090 WINDING GLEN DR","LITHONIA","GA","30038"
232702,"50909 HIGHWAY 31","SUMMER LAKE","OR","97640"
232703,"50909 HWY 31","SUMMER LAKE","OR","97640"
232704,"5091 COUNTY ROAD 119","WESTCLIFFE","CO","81252"
232705,"5091 HIGHWAY 260","SHOW LOW","AZ","85929"
232706,"5091 NEW TRIER AVENUE","SAN JOSE","CA","95136"
232707,"5091 SEYBURN STREET","DETROIT","MI","48213"
232708,"5092 GALILEO AVE","TROTWOOD","OH","45426"
232709,"5092 HOTZE RD","SALEM","IL","62881"
232710,"5092 SW 129TH TERRACE","MIRAMAR","FL","33027"
232711,"50920 CHERRY FARM TRAIL","GRANGER","IN","46530"
232712,"5093 N FLUSS COVE","BARTLETT","TN","38135"
232713,"5093 S LAFONTAINE AVE","SPRINGFIELD","MO","65810"
232714,"5093 SOUTH 1500 WEST","RIVERDALE","UT","84405"
232715,"5094 CHARMIAN DRIVE","SANTA ROSA","CA","95409"
232716,"5094 FALLEN OAK DRIVE","MORGAN HILL","CA","95037"
232717,"5094 HIGHWAY 309 S","BYHALIA","MS","38611"
232718,"5094 LA RAMADA DR","SANTA BARBARA","CA","93111"
232719,"5094 MEADOWSWEET DRIVE","PALMDALE","CA","93551"
232720,"5094","DENVER","CO","80238"
232721,"5095 COLE RD","SAGINAW","MI","48601"
232722,"5095 E ARMSTRONG ROAD","LODI","CA","95240"
232723,"5095 ESTES PARKWAY","LONGVIEW","TX","75603"
232724,"5095 FOURTH STREET","EAGLE RIVER","MI","49950"
232725,"5095 GLENDORA DRIVE","POWDER SPRINGS","GA","30127"
232726,"5095 MAPLE ST","SILVER SPRINGS","NV","89429"
232727,"5095 NAPILIHAU ST STE 109B UNIT 204","LAHAINA","HI","96761"
232728,"5095 NAPILIHAU STREET SUITE 108A","LAHAINA","HI","96761"
232729,"5095 ORLEANS CT","DENVER","CO","80249"
232730,"5095 PINE BURR BLVD","BEAUMONT","TX","77708"
232731,"5095 SPRINGTREE CT","LITHONIA","GA","30038"
232732,"50950 CENTURY COURT","WIXOM","MI","48393"
232733,"5096 BRIAN BOULEVARD","BOYNTON BEACH","FL","33472"
232734,"5096 ELK RIVER ROAD N","ELKVIEW","WV","25071"
232735,"5097 LEONARD RD STE 2","MEMPHIS","TN","38109"
232736,"5097 LEONARD ROAD STE 4","MEMPHIS","TN","38109"
232737,"5097 OLD WILLIAM PENN HIGHWAY","EXPORT","PA","15632"
232738,"5097 SAND HILL DRIVE","COLORADO SPRINGS","CO","80923"
232739,"5097 VILLAS TER","STONE MOUNTAIN","GA","30088"
232740,"5098 DALEWOOD LANE","LAKE WORTH","FL","33467"
232741,"5098 FOOTHILL BLVD","GRANTS PASS","OR","97526"
232742,"5098 FOOTHILLS BLVD 3109","ROSEVILLE","CA","95747"
232743,"5098 FOOTHILLS BLVD SUITE 3-397","ROSEVILLE","CA","95747"
232744,"5098 FOOTHILLS BLVD SUITE 3-494","ROSEVILLE","CA","95747"
232745,"5098 FOOTHILLS BLVD SUITE NO 3 468","ROSEVILLE","CA","95747"
232746,"5098 G ST SE","WASHINGTON","DC","20019"
232747,"5098 N STATE ROAD 129","OSGOOD","IN","47037"
232748,"5098 W LAURESTON WAY","HERRIMAN","UT","84096"
232749,"5099 IRONWOOD LANE","JOHNSTOWN","CO","80534"
232750,"5099 JOSEPH LANE","SAN JOSE","CA","95118"
232751,"5099 ROYAL OAKS DRIVE","OROVILLE","CA","95966"
232752,"5099 US HWY 377 S  STE 400","AUBREY","TX","76227"
232753,"509A BUCHANAN STREET","SAN FRANCISCO","CA","94102"
232754,"509A MAIN STREET","ELLENDALE","DE","19941"
232755,"509B ZENITH DR","GLENVIEW","IL","60025"
232756,"50A LOCUST HILL AVENUE SUITE 5J","YONKERS","NY","10701"
232757,"50A SPRING ST","SOMERVILLE","MA","02143"
232758,"50SENECA TEMP AT 121 UPPER BENNETT","HORNELL","NY","14843"
232759,"51 11TH STREET","TURNERS FALLS","MA","01376"
232760,"51 3RD STREET","ATHENS","NY","12015"
232761,"51 50TH AVE","BELLWOOD","IL","60104"
232762,"51 ALEXANDER AVE","BELMONT","MA","02478"
232763,"51 ALGONQUIN ROAD","CANTON","MA","02021"
232764,"51 AMHERST WAY","PRINCETON JUNCTION","NJ","08550"
232765,"51 ANCHOR DRIVE","WATERFORD","NY","12188"
232766,"51 ARIZONA ST","COVENTRY","RI","02816"
232767,"51 ASHFORD DRIVE","PLAINSBORO","NJ","08536"
232768,"51 BEDFORD ROAD SUITE 3","KATONAH","NY","10536"
232769,"51 BEDFORD STREET","NEW BEDFORD","MA","02740"
232770,"51 BEEMER HILL ROAD","BRANCHVILLE","NJ","07826"
232771,"51 BERKELEY AVENUE","ORINDA","CA","94563"
232772,"51 BEVERLY DRIVE","ARCATA","CA","95521"
232773,"51 BLUEBERRY LANE","MERIDEN","CT","06450"
232774,"51 BOGAN RD","STANLEY","NM","87056"
232775,"51 BOULEVARD AVE","GREENLAWN","NY","11740"
232776,"51 BREEZEWOOD DRIVE","LILLINGTON","NC","27546"
232777,"51 BRIER BEND","ACWORTH","GA","30101"
232778,"51 BRIGHTON AVE","SAN FRANCISCO","CA","94112"
232779,"51 BRINTON DR","NASHUA","NH","03064"
232780,"51 BROOKLAWN PLACE","BRIDGEPORT","CT","06604"
232781,"51 BRUCKNER BLVD    APT 2B","BRONX","NY","10454"
232782,"51 CAMBRIDGE LANE","LINCOLNSHIRE","IL","60069"
232783,"51 CARTO ROAD","TYLERTOWN","MS","39667"
232784,"51 CEDAR ST APT 4413","WOBURN","MA","01801"
232785,"51 CHADBOURNE ROAD","BELCHERTOWN","MA","01007"
232786,"51 CHURCH LANE","RIVERHEAD","NY","11901"
232787,"51 CLIFTON AVENUE APT C-1214","NEWARK","NJ","07104"
232788,"51 CLINTON STREET","NEW BRITAIN","CT","06053"
232789,"51 COACH LANE","NORWOOD","MA","02062"
232790,"51 COLUMBIA BLVD","WATERBURY","CT","06710"
232791,"51 CONTINENTAL DRIVE","NEW WINDSOR","NY","12553"
232792,"51 COOPER DRIVE","DALLAS","GA","30157"
232793,"51 COOPER STREET","PAWTUCKET","RI","02860"
232794,"51 CORDELLO AVE","CENTRAL ISLIP","NY","11722"
232795,"51 CRAFTS ROAD","CARMEL","NY","10512"
232796,"51 CRESCENT STREET","BRIDGEPORT","CT","06608"
232797,"51 CROSS ROAD","PATTERSON","NY","12563"
232798,"51 CROSSWAY","SCARSDALE","NY","10583"
232799,"51 CRYSTAL HILL COURT","STRASBURG","VA","22657"
232800,"51 CURTIS ST","SAN FRANCISCO","CA","94112"
232801,"51 DANBURY STREET SW","WASHINGTON","DC","20032"
232802,"51 DEWEY ST","DORCHESTER","MA","02125"
232803,"51 DUNNS CORNER ROAD","WESTERLY","RI","02891"
232804,"51 DUTCH HILL ROAD","HAMPTON","NJ","08827"
232805,"51 E 400 S STE 100","SALT LAKE CITY","UT","84111"
232806,"51 E COX RD","EDGERTON","WI","53534"
232807,"51 E JEFFERSON ST 19201","ORLANDO","FL","32802"
232808,"51 E SPRING VALLEY PK","CENTERVILLE","OH","45458"
232809,"51 EAST 9TH STREET","CHESTER","DE","19013"
232810,"51 EAST FULTON STREET","EPHRATA","PA","17522"
232811,"51 EAST JEFFERSON STREET UNIT 4578","APAPKA","FL","32712"
232812,"51 EAST JEFFERSON STREET","ORLANDO","FL","32802"
232813,"51 ELIZABETH STREET","VALLEY STREAM","NY","11580"
232814,"51 ELM STREET","MONTCLAIR","NJ","07042"
232815,"51 ELM STREET","NEW HAVEN","CT","06511"
232816,"51 EMILY AVE","ELMONT","NY","11003"
232817,"51 ESTABUENO DR","ORINDA","CA","94563"
232818,"51 FARRAGUT PLACE NW","WASHINGTON DC","DC","20011"
232819,"51 FIELDSTONE ROAD","STAMFORD","CT","06902"
232820,"51 FLAGG COURT","STATEN ISLAND","NY","10304"
232821,"51 FOREST ROAD SUITE 316/322","MONROE","NY","10950"
232822,"51 FOUR CORNERS RD","STATEN ISLAND","NY","10304"
232823,"51 FRANKLIN STREET FLOOR 3","BOSTON","MA","02110"
232824,"51 FRED HECHT DR","SPRING VALLEY","NY","10977"
232825,"51 FREDERICK A NITTEL DR","NORTH ATTLEBORO","MA","02760"
232826,"51 GIBSON CEMETERY RD","HUMBOLDT","TN","38343"
232827,"51 GODWIN LN","SAINT LOUIS","MO","63124"
232828,"51 GOODS RD","CONESTOGA","PA","17516"
232829,"51 GREENTREE DR","EASTMAN","GA","31023"
232830,"51 GREENWICH DRIVE","JACKSON","NJ","08527"
232831,"51 HARTWELL AVE","SALT LAKE","UT","84115"
232832,"51 HAVERSHAM LANE","NORTH BARRINGTON","IL","60010"
232833,"51 HEMLOCK POINT ROAD  P O BOX 1933","BOLTON LANDING","NY","12814"
232834,"51 HERON POINTE COURT","MARLTON","NJ","08053"
232835,"51 HILLCREST ROAD","MOUNT VERNON","NY","10552"
232836,"51 HILLDALE RD","CHELTENHAM","PA","19012"
232837,"51 HILLMOND ST","BETHLEHEM","PA","18018"
232838,"51 HOAGLAND ROAD","BLAIRSTOWN","NJ","07825"
232839,"51 HONEYSUCKLE WOODS","LAKE WYLIE","SC","29710"
232840,"51 HOPE LANE","BAYBORO","NC","28515"
232841,"51 HOPE STREET","LINCOLN","RI","02865"
232842,"51 HURDEN STREET","HILLSIDE","NJ","07205"
232843,"51 JACKSON BLVD","BEDFORD","OH","44146"
232844,"51 JADEN COURT","GREER","SC","29651"
232845,"51 JANE DRIVE","SAINT PETERS","MO","63376"
232846,"51 JEFFERSON BLVD","WARWICK","RI","02888"
232847,"51 JOYCETON TERRACE","UPPER MARLBORO","MD","20774"
232848,"51 KILMAYNE DR SUITE 303","CARY","NC","27511"
232849,"51 KINGSTON DRIVE","PIKE ROAD","AL","36064"
232850,"51 KNIGHT ROAD EXT","FRAMINGHAM","MA","01701"
232851,"51 LAFAYETTE ST","JERSEY CITY","NJ","07304"
232852,"51 LAIE IKI PL","MAKAWAO","HI","96768"
232853,"51 LANG STREET","CONCORD","MA","01742"
232854,"51 LAUREL RUN RD","TALLMANSVILLE","WV","26237"
232855,"51 LINCOLN ST","MEDFORD","MA","02155"
232856,"51 LINEAR STREET","FAIRMONT","WV","26554"
232857,"51 LOGUE HILL RD","CANDOR","NY","13743"
232858,"51 LOUISIANA AVE NW","WASHINGTON","DC","20001"
232859,"51 LYNN ROAD","IVORYTON","CT","06442"
232860,"51 MADISON AVENUE","CRESSKILL","NJ","07626"
232861,"51 MAIN STREET","ALBION","ME","04910"
232862,"51 MARKETPLACE","IRVINE","CA","92602"
232863,"51 MARSHALL STREET","POUGHKEEPSIE","NY","12601"
232864,"51 MAXFIELD STREET","WEST ROXBURY","MA","02132"
232865,"51 METCALF DR","AUBURN","NY","13021"
232866,"51 MITTEER RD","HURLEYVILLE","NY","12747"
232867,"51 MONROE ST SUITE 1406","ROCKVILLE","MD","20850"
232868,"51 MOSS ST UNIT B","SAN FRANCISCO","CA","94103"
232869,"51 MOSSY OAK DR","WINFIELD","WV","25213"
232870,"51 MT RUSHMORE PLACE","CLAYTON","CA","94517"
232871,"51 MYRTLE STREET APT 1","PORTLAND","ME","04101"
232872,"51 N 3RD ST UNIT 177","PHILADELPHIA","PA","19106"
232873,"51 N BROAD STREET","MOBILE","AL","36602"
232874,"51 N BUNCOMBE SCHOOL ROAD","WEAVERVILLE","NC","28787"
232875,"51 N PARK STREET        PO BOX 369","LEBANON","NH","03766"
232876,"51 N SPRING DR","JACKSON","TN","38305"
232877,"51 NASH STREET FL2","NEW HAVEN","CT","06511"
232878,"51 NATURE LN","SEWELL","NJ","08080"
232879,"51 NAUTILUS AVENUE","NORTHPORT","NY","11768"
232880,"51 NEW CLARK RD","CUMBERLAND","RI","02864"
232881,"51 NEWARK ST SUITE 205","HOBOKEN","NJ","07030"
232882,"51 NORMANDY DRIVE","BETHPAGE","NY","11714"
232883,"51 NORTH STREET","GEORGETOWN","MA","01833"
232884,"51 NORTHLITE CIRCLE","SACRAMENTO","CA","95831"
232885,"51 NW 110 AVE","PLANTATION","FL","33324"
232886,"51 NW CAROLINA ST","MELBOURNE","FL","32904"
232887,"51 OAK GROVE AVENUE","HASBROUCK HEIGHTS","NJ","07604"
232888,"51 ODD ROAD","POQUOSON","VA","23662"
232889,"51 OLD CANDLER TOWN RD","CANDLER","NC","28715"
232890,"51 OLD ORCHARD LANE","OCEAN","NJ","07712"
232891,"51 ORATON ST","NEWARK","NJ","07104"
232892,"51 ORTONA STREET","FORT MYERS","FL","33936"
232893,"51 OVERBROOK DR","SMYRNA","GA","30082"
232894,"51 PARK VISTA WAY","GREENVILLE","SC","29617"
232895,"51 PERRY ST","NEWNAN","GA","30263"
232896,"51 PINE MEADOW DRIVE","NORTH BERWICK","ME","03906"
232897,"51 PLEASANT STREET  SUITE 109","MALDEN","MA","02148"
232898,"51 PRENTISS STREET SUITE  2540","BOSTON","MA","02120"
232899,"51 PRINCETON RD","MALDEN","MA","02148"
232900,"51 PROSPECT ST","GARFIELD","NJ","07026"
232901,"51 REESE CRK","MISSION VIEJO","CA","92694"
232902,"51 RENI ROAD","MANHASSET","NY","11030"
232903,"51 REVOLUTIONARY ROAD","CONCORD","MA","01742"
232904,"51 RICHVIEW DRIVE","PASCO","WA","99301"
232905,"51 RIDGEWAY ST","GREENCASTLE","IN","46135"
232906,"51 RINEER ROAD","QUARRYVILLE","PA","17566"
232907,"51 RORRER CIR","ROCKINGHAM","VA","22801"
232908,"51 ROSS STREET APT 9C","BROOKLYN","NY","11249"
232909,"51 ROSSER MILL ROAD","PAMPLIN","VA","23958"
232910,"51 ROSWELL ROAD","CHEEKTOWAGA","NY","14215"
232911,"51 S 1ST E APT 206","REXBURG","ID","83440"
232912,"51 S DEFRAME WAY","GOLDEN","CO","80401"
232913,"51 S EAST STREET","BELLBROOK","OH","45305"
232914,"51 S RIVER BEND WAY SUITE 230","NORTH SALT LAKE","UT","84054"
232915,"51 S SPRING ST","ELGIN","IL","60120"
232916,"51 S WHITE MOUNTAIN ROAD","SHOW LOW","AZ","85901"
232917,"51 S WHT MTN ROAD","SHOW LOW","AZ","85901"
232918,"51 SAGAMORE LANE","BORDENTOWN","NJ","08505"
232919,"51 SAN ISIDRO","SAN ANTONIO","TX","78261"
232920,"51 SARATOGA SPRINGS DR","SILEX","MO","63377"
232921,"51 SCARBOROUGH PARK DR APT 6","WILMINGTON","DE","19804"
232922,"51 SCHOOL RD","VOORHEESVILLE","NY","12186"
232923,"51 SE 208TH ST","HOLT","MO","64048"
232924,"51 SHERMAN HILL RD A-202","WOODBURY","CT","06798"
232925,"51 SHERMAN STREET","GALETON","PA","16922"
232926,"51 SHERWOOD DRIVE","BATESVILLE","MS","38606"
232927,"51 SHORT TRAIL DRIVE","HUNLOCK CREEK","PA","18621"
232928,"51 SHREWSBURY AVE","HIGHLANDS","NJ","07732"
232929,"51 SILAS WOODS RD","MANORVILLE","NY","11949"
232930,"51 SLADEN STREET","DRACUT","MA","01826"
232931,"51 SOUTH EAST STREET","BELLBROOK","OH","45305"
232932,"51 SPENCER STREET","LYONS","NY","14489"
232933,"51 SPRUCE STREET","YORK","ME","03909"
232934,"51 STATE ROAD 46 E NUM 128","NASHVILLE","IN","47448"
232935,"51 STONE CHURCH RD PO BOX 402","ADAMSVILLE","RI","02801"
232936,"51 STONE RUN DRIVE","MECHANICSBURG","PA","17050"
232937,"51 TANYA COURT","PLANTSVILLE","CT","06479"
232938,"51 TEAK DRIVE","LANGHORNE","PA","19047"
232939,"51 TOTTENHAM CIRCLE","MARTINSBURG","WV","25404"
232940,"51 TREBOR ROAD","MASSAPEQUA","NY","11758"
232941,"51 TUPELO CIRCLE","HAMPTON","VA","23666"
232942,"51 VESPER ST","AKRON","OH","44310"
232943,"51 W CENTER STREET","LA VERKIN","UT","84745"
232944,"51 W GLENN","TUCSON","AZ","85705"
232945,"51 W MARKET ST","CLOVERDALE","IN","46120"
232946,"51 WADE STREET","JERSEY CITY","NJ","07305"
232947,"51 WALKER SPRINGS ROAD","BLAKELY","GA","39823"
232948,"51 WALTER DRIVE","WOODBRIDGE","NJ","07095"
232949,"51 WARD BLVD","OROVILLE","CA","95966"
232950,"51 WARWICK STONE WAY","GREAT FALLS","VA","22066"
232951,"51 WEST 2700 SOUTH","SALT LAKE CITY","UT","84115"
232952,"51 WEST CENTER SUITE 199","OREM","UT","84057"
232953,"51 WESTPORT STREET","STATEN ISLAND","NY","10314"
232954,"51 WILD DUNES WAY - UNIT 32","OLD ORCHARD BEACH","ME","04064"
232955,"51 WOODCREST RD","STATEN ISLAND","NY","10303"
232956,"51 WOODFIN RD","NEWPORT NEWS","VA","23601"
232957,"51 WOODLAND RD","CLARK","NJ","07066"
232958,"51 WOODLAWN AVE","MIDDLETOWN","NY","10940"
232959,"51 WOODLEIGH LANE","STAFFORD","VA","22556"
232960,"51 WOOSTER STREET 3RD FLOOR","NEW YORK","NY","10013"
232961,"51 ZAJAC LANE","NESCOPECK","PA","18635"
232962,"51-00 HOLLIS COURT BLVD","FRESH MEADOWS","NY","11365"
232963,"51-04 BOWNE STREET","BROOKLYN","NY","11355"
232964,"51-04 SKILLMAN AVENUE SUITE C10","WOODSIDE","NY","11377"
232965,"51-35 REEDER STREET APT 517","ELMHURST","NY","11373"
232966,"51-44 MANILLA STREET 3RD FLOOR","ELMHURST","NY","11373"
232967,"51","COLTON","WA","99113"
232968,"510 - 47TH AVENUE","SAN FRANCISCO","CA","94121"
232969,"510 13TH ST NE","CULLMAN","AL","35055"
232970,"510 1ST AVE EAST","MCLAUGHLIN","SD","57642"
232971,"510 1ST AVENUE NORTH","FORT DODGE","IA","50501"
232972,"510 20TH ST","STANTON","NE","68779"
232973,"510 20TH STREET SOUTH FOT 1020","BIRMINGHAM","AL","35294"
232974,"510 21ST AVE NE","ABERDEEN","SD","57401"
232975,"510 21ST AVE","LEWISTON","ID","83501"
232976,"510 240TH AVE SE","SAMMAMISH","WA","98074"
232977,"510 25TH AVE N","SAINT CLOUD","MN","56303"
232978,"510 25TH AVENUE NORTH SUITE B-1","SAINT CLOUD","MN","56303"
232979,"510 2ND AVE","POWERS","OR","97466"
232980,"510 4TH STREET SOUTHEAST","NAPLES","FL","34117"
232981,"510 5TH AVE FL 3 RM 312","NEW YORK","NY","10036"
232982,"510 5TH AVENUE","NEW YORK","NY","10036"
232983,"510 5TH LANE","GREENACRES","FL","33463"
232984,"510 7TH ST","TALLULAH","LA","71282"
232985,"510 9TH STREET SE","MASON CITY","IA","50401"
232986,"510 9TH STREET SOUTH","LACROSSE","WI","54601"
232987,"510 ACRE ST","GUTTENBERG","IA","52052"
232988,"510 ALEMANY BLVD","SAN FRANCISCO","CA","94110"
232989,"510 ALLEY COURT","SPRING","TX","77388"
232990,"510 ALLEY CT","SPRING","TX","77388"
232991,"510 ANE AVE","LOWELL","AR","72745"
232992,"510 ARCHER AVENUE","MARSHALL","IL","62441"
232993,"510 ARROWHEAD TRL","WWARNER ROBINS","GA","31088"
232994,"510 AVENUE G SE","WINTER HAVEN","FL","33880"
232995,"510 BATES STREET SE","TUMWATER","WA","98501"
232996,"510 BATES STREET SOUTHEAST","TUMWATER","WA","98501"
232997,"510 BELLA CAPRI DRIVE","MERRITT ISLAND","FL","32952"
232998,"510 BELLOT WINDS DR","DUNCAN","SC","29334"
232999,"510 BELMONT AVENUE","HALEDON","NJ","07508"
233000,"510 BENTON ROAD","BOSSIER CITY","LA","71111"
