"ID","Address","City","State","Zip"
246501,"561 KINGSLAND AVE UNIT 300426","SAINT LOUIS","MO","63130"
246502,"561 LARCH AVE","LA CRESCENT","MN","55947"
246503,"561 MAIN STREET SOUTH","SOUTHBURY","CT","06488"
246504,"561 N COLFAX STREET","LA HABRA","CA","90631"
246505,"561 N MOFFAT AVENUE 100A","EMMETT","ID","83617"
246506,"561 OAKDALE RD","NEWARK","DE","19713"
246507,"561 OLD NASHVILLE HWY","LAVERGNE","TN","37086"
246508,"561 OLD ROCK ISLAND RD","ROCK ISLAND","TN","38581"
246509,"561 ORION RD","TUSTIN","CA","92782"
246510,"561 PINE COURT","ALTAMONTE SPRINGS","FL","32714"
246511,"561 PINEDALE DRIVE","ANNAPOLIS","MD","21401"
246512,"561 POND WEED DR","LAWRENCEVILLE","GA","30045"
246513,"561 QUAIL ROAD","OREM","UT","84097"
246514,"561 RUSHING CREEK PLACE","THOUSAND OAKS","CA","91360"
246515,"561 S FIG TREE LANE","PLANTATION","FL","33317"
246516,"561 S PINE STREET","ORANGE","CA","92866"
246517,"561 SAINT MARKS AVE","BROOKLYN","NY","11216"
246518,"561 SANTA FE DRIVE","DENVER","CO","80202"
246519,"561 SHELBY STREET","LEXINGTON","KY","40505"
246520,"561 SOUTH BROWN RD","ENFIELD","NC","27823"
246521,"561 STERLING ST NE","PALM BAY","FL","32907"
246522,"561 STRANDER BLVD SUIT B-115","TUKWILA","WA","98188"
246523,"561 THORNTON ROAD STE Z","LITHIA SPRINGS","GA","30122"
246524,"561 WALKER ROAD","ONEIDA","TN","37841"
246525,"561 WATTS CREEK RD","WILLIAMSBURG","KY","40769"
246526,"561 WEST 143RD STREET APT 57A","NEW YORK","NY","10001"
246527,"561 WEST 147TH STREET APT 55","NEW YORK","NY","10031"
246528,"561 WEST 440 NORTH","AMERICAN FORK","UT","84003"
246529,"561 WEST WAYNE AVE","WAYNE","PA","19087"
246530,"561 WOODSFIELD DRIVE","COLUMBUS","OH","43214"
246531,"5610 2ND AVE","FERNDALE","WA","98248"
246532,"5610 BUNCOMBE RD APARTMENT 304","SHREVEPORT","LA","71129"
246533,"5610 BUNCOMBE RD APT 1211","SHREVEPORT","LA","71129"
246534,"5610 CAITLIN COURT","TROY","MI","48098"
246535,"5610 DELAWARE DRIVE","OXON HILL","MD","20745"
246536,"5610 FREDRICKS RD","SUNBURY","ID","43074"
246537,"5610 HARBOR HOUSE DR","GREENSBORO","NC","27410"
246538,"5610 JENNIFER LANE","MIDLOTHIAN","TX","76065"
246539,"5610 LANCASTER AVE SUITE 900","PHILADELPHIA","PA","19131"
246540,"5610 LOBO LN","WESLACO","TX","78596"
246541,"5610 N 56TH ST","TAMPA","FL","33610"
246542,"5610 OLD BULLARD RD STE 201","TYLER","TX","75703"
246543,"5610 ONYX CT","WILMINGTON","NC","28412"
246544,"5610 ROSE DR","MOSS POINT","MS","39563"
246545,"5610 S CURTICE ST","LITTLETON","CO","80120"
246546,"5610 SAN LUIS CT","PLEASANTON","CA","94566"
246547,"5610 SPURFLOWER DRIVE","AUSTIN","TX","78759"
246548,"5610 SUGARLOAF ST","ANACORTES","WA","98221"
246549,"5610 SW 7TH STREET","PLANTATION","FL","33317"
246550,"5610 TOCCOA DRIVE","DOUGLASVILLE","GA","30135"
246551,"5610 W MARTIN DR","MILWAUKEE","WI","53208"
246552,"5610 WEST BELLFORT","HOUSTON","TX","77035"
246553,"5610 WEST END ROAD SUITE 109","ARCATA","CA","95521"
246554,"5610 WESTON LN N","PLYMOUTH","MN","55446"
246555,"56100 BITTERSWEET RD","MISHAWAKA","IN","46545"
246556,"56100 BITTERSWEET ROAD","MISHAWAKA","IN","46545"
246557,"5611 108TH STREET NE","MARYSVILLE","WA","98271"
246558,"5611 AN COUNTY RD 370","PALESTINE","TX","75801"
246559,"5611 BENNING DRIVE","HOUSTON","TX","77096"
246560,"5611 CASCADE RD SE","GRAND RAPIDS","MI","49546"
246561,"5611 COUNTY ROAD 37","VALLEY GRANDE","AL","36701"
246562,"5611 FAIR OAKS AVENUE","BALTIMORE","MD","21214"
246563,"5611 MELSHIRE DRIVE","DALLAS","TX","75230"
246564,"5611 MORNING FLOWER DR","MEMPHIS","TN","38135"
246565,"5611 MORNING FLOWER DRIVE","MEMPHIS","TN","38135"
246566,"5611 NW OAKRIDGE COURT","KANSAS CITY","MO","64151"
246567,"5611 S 32ND STREET 256","PHOENIX","AZ","85040"
246568,"5611 SAN SABA AVE","MIDLAND","TX","79707"
246569,"5611 SOJOURN DR","RALEIGH","NC","27610"
246570,"5611 STONEGATE RD","DALLAS","TX","75209"
246571,"5611 SUNRISE DR","KNOXVILLE","TN","37919"
246572,"5611 W 79TH STREET","BURBANK","IL","60459"
246573,"5611 WEST MADISON","CHICAGO","IL","60644"
246574,"56113 STATE HIGHWAY 56","WEST CONCORD","MN","55985"
246575,"56119 HANO ROAD","INDEPENDANCE","LA","92544"
246576,"5612  LAKEWOOD AVENUE","NORFOLK","VA","23509"
246577,"5612 AMOROSO DRIVE","FORT MYERS","FL","33919"
246578,"5612 DARMONDALE","SAN ANTONIO","TX","78261"
246579,"5612 DIAMOND OAKS DR N","HALTOM CITY","TX","76117"
246580,"5612 DOVE CREEK AVE","NORTHPORT","AL","35473"
246581,"5612 E WASHINGTON ST","INDIANAPOLIS","IN","46219"
246582,"5612 EAST WASHINGTON STREET","INDIANAPOLIS","IN","46219"
246583,"5612 FIRST COURT","WEST LINN","OR","97068"
246584,"5612 FISH LAKE DAM RD","DULUTH","MN","55803"
246585,"5612 FORT HAMILTON PKWY   FL1","BROOKLYN","NY","11219"
246586,"5612 NE 4TH CT","RENTON","WA","98059"
246587,"5612 PARK RD","FT LAUDERDALE","FL","33312"
246588,"5612 PLUMMER BLVD","SUFFOLK","VA","23435"
246589,"5612 QUITMAN TRL","RALEIGH","NC","27610"
246590,"5612 VINEWOOD DR","GARLAND","TX","75043"
246591,"5612 W 158TH TERRACE","OVERLAND PARK","KS","66223"
246592,"5612 W NORTHWOOD DR","GLENDALE","AZ","85310"
246593,"5612 W WOODHAVEN DR","MCCORDSVILLE","IN","46055"
246594,"5612 WOODLAND AVENUE","WEST DES MOINES","IA","50266"
246595,"56122 LANCEWOOD DRIVE","SHELBY TOWNSHIP","MI","48316"
246596,"56123 RIO LINDO DRIVE","ELKHART","IN","46514"
246597,"5613 ARTESIAN DRIVE","DERWOOD","MD","20855"
246598,"5613 ASH AVENUE","RAYTOWN","MO","64133"
246599,"5613 CASTLEBURY COURT","BURKE","VA","22015"
246600,"5613 DENISE DRIVE","HALTOM CITY","TX","76148"
246601,"5613 JEFF DAVIS AVENUE UNIT B","AUSTIN","TX","78756"
246602,"5613 LEESBURG PIKE UNIT 41","FALLS CHURCH","VA","22041"
246603,"5613 MELODIA CIR","DUBLIN","CA","94568"
246604,"5613 QUAIL RIDGE DR","SANFORD","NC","27332"
246605,"5613 TOWN CENTER DRIVE UNIT 2","GRANGER","IN","46530"
246606,"5613 W 200 SOUTH","NEW PALESTINE","IN","46163"
246607,"5613 W TUSCARORA","PEORIA","IL","61607"
246608,"5613 WATER ROSE RD","WINTER GARDEN","FL","34787"
246609,"5613 WHITTIER LANE","TULLY","NY","13159"
246610,"5613 YAMASSEE DRIVE","LIBERTY TWP","OH","45011"
246611,"56139 MARSH HAWK RD","BEND","OR","97707"
246612,"5614 CIVETTA COURT","FRISCO","TX","75035"
246613,"5614 CONNECTICUT AVE NW NO 209","WASHINGTON DC","DC","20015"
246614,"5614 CONNECTICUT AVE NW NUMBER 140","WASHINGTON","DC","20015"
246615,"5614 CONNECTICUT AVE NW STE 151","WASHINGTON","DC","20015"
246616,"5614 CONNECTICUT AVENUE NW","WASHINGTON","DC","20015"
246617,"5614 CONNECTICUT AVENUE","NW WASHINGTON","DC","20015"
246618,"5614 CRESCENT RIDGE DRIVE","WHITE MARSH","MD","21162"
246619,"5614 GRAND PKWY","RICHMOND","NY","77406"
246620,"5614 LA MOYA AVE","JACKSONVILLE","FL","32210"
246621,"5614 LAURIUM ROAD","CHARLOTTE","NC","28226"
246622,"5614 MARLBOROUGH ROAD","PITTSBURGH","PA","15217"
246623,"5614 PARTRIDGE DRIVE","ORLANDO","FL","32810"
246624,"5614 S DORCHESTER AVE","CHICAGO","IL","60637"
246625,"5614 S VENTURA CT","CENTENNIAL","CO","80015"
246626,"5614 SAXON DR","HOUSTON","TX","77092"
246627,"5614 SOUTH HOOVER STREET UNIT 8","LOS ANGELES","CA","90037"
246628,"5614 SOUTH MAIN STREET","ROCK HALL","MD","21661"
246629,"5614 W FORT ST","DETROIT","MI","48209"
246630,"5614 W GRAND PKWY S STE 102-125","RICHMOND","TX","77406"
246631,"5614","LUBBOCK","TX","79414"
246632,"5615 1/2 GRAND AVE","DULUTH","MN","55807"
246633,"5615 165TH PLACE SE","BELLEVUE","WA","98006"
246634,"5615 COUNTY LINE RD","LEIGHTON","AL","35646"
246635,"5615 E EVANS DRIVE","SCOTTSDALE","AZ","85254"
246636,"5615 E VERNON AVE","SCOTTSDALE","AZ","85257"
246637,"5615 EAST BONIWOOD TURN","CLINTON","MD","20735"
246638,"5615 ESTABROOK WOODS DRIVE APT 104","ORLANDO","FL","32839"
246639,"5615 FREMONT AVENUE SOUTH","MINNEAPOLIS","MN","55419"
246640,"5615 GREENBLUFF ROAD SUITE 202","LOUISVILLE","KY","40219"
246641,"5615 HAVENWOOD CT","UPPER MARLBORO","MD","20772"
246642,"5615 KING ROAD","HOWELL","MI","48843"
246643,"5615 KIRBY SUITE 850","HOUSTON","TX","77005"
246644,"5615 KNOTTY RIDGE DR","DOUGLASVILLE","GA","30135"
246645,"5615 N CENTRAL AVENUE","CHICAGO","IL","60646"
246646,"5615 PEDDICORD RD","WAMEGO","KS","66547"
246647,"5615 ROLLING ROAD","SPRINGFIELD","VA","22151"
246648,"5615 ROSEMONT AVENUE","TAMPA","FL","33614"
246649,"5615 S INDIANAPOLIS AVE","TULSA","OK","74135"
246650,"5615 SHORT CT SE","LACEY","WA","98513"
246651,"5615 SOUTH WAYNE AVE","FORT WAYNE","IN","46807"
246652,"5615 ST BARNABAS RD","OXON HILL","MD","20745"
246653,"5615 STEWART WOODS DRIVE","DOUGLASVILLE","GA","30135"
246654,"5615 SUNSET RIDGE RD","NEWALLA","OK","75857"
246655,"5615 WILLOW CREST DR","SHREVEPORT","LA","71119"
246656,"5616  MAGNOLIA AVENUE","BALTIMORE","MD","21215"
246657,"5616 56TH WAY","WEST PALM BEACH","FL","33407"
246658,"5616 B STREET A","LITTLE ROCK","AR","72205"
246659,"5616 BROADWAY","BRONX","NY","10463"
246660,"5616 BROADWAY","BRONX","NY","10468"
246661,"5616 BUCKEYE RD","MACUNGIE","PA","18062"
246662,"5616 CLOTIDLE SOUPERT CT","NORTH LAS VEGAS","NV","89081"
246663,"5616 CONCORD AVE","EDINA","MN","55424"
246664,"5616 CYNTHIA DR","LOUISVILLE","KY","40291"
246665,"5616 FARROW ROAD","COLUMBIA","SC","29203"
246666,"5616 GATES LANDING ROAD","VIRGINIA BEACH","VA","23464"
246667,"5616 HENSLEY DRIVE","FORT WORTH","TX","76134"
246668,"5616 KINGSTON PIKE STE 301","KNOXVILLE","TN","37919"
246669,"5616 LEXINGTON AVE 307","LOS ANGELES","CA","90038"
246670,"5616 LINDSEY DRIVE","PLANO","TX","75093"
246671,"5616 MOCCASIN POINT STREET","LAS VEGAS","NV","89148"
246672,"5616 NE 204TH ST","KENMORE","WA","98028"
246673,"5616 NW 107TH TERRACE","OKLAHOMA CITY","OK","73162"
246674,"5616 PEMBROKE ROAD","WEST PARK","FL","33023"
246675,"5616 ROXBURY TERRACE UNIT D","INDIANAPOLIS","IN","46226"
246676,"5616 S HARLAN ST","DENVER","CO","80123"
246677,"5616 WEST AVE M4","LANCASTER","CA","93536"
246678,"5617 BELLEFONTAINE AVE","KANSAS CITY","MO","64130"
246679,"5617 BLUE PINE AVE NW","ALBUQUERQUE","NM","87120"
246680,"5617 E SWAN CREEK DR","TACOMA","WA","98404"
246681,"5617 FIVE KNOLLS DRIVE","CHARLOTTE","NC","28226"
246682,"5617 HENSLEY DR","FORT WORTH","TX","76134"
246683,"5617 HIGHWAY 153 SUITE 203","HIXSON","TN","37343"
246684,"5617 HILL ROAD","ALBANY","GA","31705"
246685,"5617 NARSONNE STREET","CORPUS CHRISTI","TX","78414"
246686,"5617 REGENCY OAKS DR N","MOBILE","AL","36609"
246687,"5617 VENICE BLVD","LOS ANGELES","CA","90019"
246688,"5618 11TH STREET","KATY","TX","77493"
246689,"5618 BARTLETT ST","PITTSBURGH","PA","15217"
246690,"5618 BROCKWAY STREET","SHAWNEE","KS","66226"
246691,"5618 DEERTAIL CREEK","SAN ANTONIO","TX","78251"
246692,"5618 FISHER RD","TEMPLE HILLS","MD","20748"
246693,"5618 HILLSBORO","DAVISBURG","MI","48350"
246694,"5618 ICEBURG CT","MIDLOTHIAN","TX","76065"
246695,"5618 OLD ROUW RD","VAN BUREN","AR","72956"
246696,"5618 POST RD","BRONX","NY","10471"
246697,"5618 SHERATON OAKS DRIVE","HOUSTON","TX","77091"
246698,"5618 W MELVINA AVENUE","MILWAUKEE","WI","53216"
246699,"5618 WESTWOOD LN","THE COLONY","TX","75056"
246700,"5619 ALDINE BENDER ROAD 193B","HOUSTON","TX","77032"
246701,"5619 BELMAR STREET","PHILADELPHIA","PA","19143"
246702,"5619 CARY GLEN BLVD","CARY","NC","27519"
246703,"5619 E GLADE AVENUE","MESA","AZ","85206"
246704,"5619 ETHERIDGE STREET","HOUSTON","TX","77087"
246705,"5619 GUIDING STAR CIR","N Las Vegas","NV","89031"
246706,"5619 HAZEN ST","HOUSTON","TX","77081"
246707,"5619 JAMES AVE N","BROOKLYN CENTER","MN","55430"
246708,"5619 JARIST DRIVE","CLIFTON","VA","20124"
246709,"5619 KENNARD ROAD","SEVILLE","OH","44273"
246710,"5619 STONECREEK DR","DURANT","OK","74701"
246711,"5619 THOMAS AVENUE","PHILADELPHIA","PA","19143"
246712,"562 335TH AVE","FREDERIC","WI","54837"
246713,"562 AZALEA LANE","BRIDGEVILLE","PA","15017"
246714,"562 BENNETT DRIVE","CHIPLEY","FL","32428"
246715,"562 BUSHBERRY RD","PELION","SC","29123"
246716,"562 CALLE DEL SOL","FLORISSANT","CO","80816"
246717,"562 CEDAR HILL ROAD","FAR ROCKAWAY","NY","11691"
246718,"562 DONIZETTI AVE","VENTURA","CA","93003"
246719,"562 E MAIN ST","SPRINGFIELD","OH","45503"
246720,"562 E PATERSON ST","FLINT","MI","48505"
246721,"562 ENGLEMORE RD","CLIFTON PARK","NY","12065"
246722,"562 FLATWOOD RD","SPARTANBURG","SC","29303"
246723,"562 GARFIELD AVE","BRIDGEPORT","CT","06606"
246724,"562 HACKMAN ROAD","LITITZ","PA","17543"
246725,"562 HIGHWAY 112","DERIDDER","LA","70634"
246726,"562 HIGHWAY 5 AND 240","FAYETTE","MO","65248"
246727,"562 LA COPITA CT","SAN RAMON","CA","94583"
246728,"562 LINKFIELD RD","WATERTOWN","CT","06795"
246729,"562 MAIN STREET APT 3","WALTHAM","MA","02452"
246730,"562 N HIGHWAY 92","JEFFERSON CITY","TN","37760"
246731,"562 N INWOOD DRIVE","HUNTINGTON","WV","25701"
246732,"562 NEW LONDON TPKE","NORWICH","CT","06360"
246733,"562 NOB HILL TRAIL","FRANKTOWN","CO","80116"
246734,"562 NOB HILL TRL","FRANKTOWN","CO","80116"
246735,"562 PONCHO ST","KINGSLAND","TX","78639"
246736,"562 ST JAMES AVE SUITE B","SPRINGFIELD","MA","01109"
246737,"562 STASSI LANE","SANTA MONICA","CA","90402"
246738,"562 SURREY STREET","MOBILE","AL","36617"
246739,"562 TURNER ROAD","ENNIS","TX","75119"
246740,"562 VISTA FLORA","NEWPORT BEACH","CA","92660"
246741,"562 W ELM ST","BISHOP","CA","93514"
246742,"562 WATER TURKEY RETREAT","CHARLESTON","SC","29412"
246743,"562 WEST CELESTE AVENUE","FRESNO","CA","93704"
246744,"562 WEST SUNNY SLOPE DRIVE","PAUL","ID","83347"
246745,"562 WHITE STONE WAY","HOOVER","AL","35226"
246746,"5620  S CLAREMONT AVE","CHICAGO","IL","60636"
246747,"5620 BARTMER AVE","SAINT LOUIS","MO","63112"
246748,"5620 BELFAST LANE","FORT WORTH","TX","76180"
246749,"5620 BELLA TERRA COURT","WAKE FOREST","NC","27587"
246750,"5620 BRYNER DR","JACKSONVILLE","FL","32244"
246751,"5620 CHARLOTT ST","FORT WORTH","TX","76112"
246752,"5620 COUNTRY CLUB PKWY","SAN JOSE","CA","95138"
246753,"5620 CRAWFORDSVILLE RD SUITE M","SPEEDWAY","IN","46224"
246754,"5620 E 21ST STREET","WICHITA","KS","67208"
246755,"5620 E 350 RD","EL DORADO SPRINGS","MO","64744"
246756,"5620 E BROADWAY RD","MESA","AZ","85206"
246757,"5620 FOREST DOWNS CIRCLE","ATLANTA","GA","30349"
246758,"5620 HARCOURT AVE","ORLANDO","FL","32839"
246759,"5620 HARRIET AVE","MINNEAPOLIS","MN","55419"
246760,"5620 HENDERSON OAKS DRIVE","CHARLOTTE","NC","28269"
246761,"5620 HOBART AVENUE","WEST PALM BEACH","FL","33405"
246762,"5620 INDUSTRIAL AVE","LOVES PARK","IL","61111"
246763,"5620 MAUSS HILL ROAD","ADAMS RUN","SC","29426"
246764,"5620 NE 202ND STREET","KENMORE","WA","98028"
246765,"5620 NW TOPEKA BLVD","TOPEKA","KS","66617"
246766,"5620 PEA RIDGE ROAD","RUTHERFORDTON","NC","28139"
246767,"5620 S COLONY BLVD SUITE 921","THE COLONY","TX","75056"
246768,"5620 W DIVISION ST","CHICAGO","IL","60651"
246769,"5620 WILKIEWICZ ROAD","NORTH LITTLE ROCK","AR","72118"
246770,"5620-22 W CHICAGO AVE","CHICAGO","IL","60651"
246771,"5621 BROOKLAND CT","ALEXANDRIA","VA","22310"
246772,"5621 BUNKER BLVD","WATAUGA","TX","76148"
246773,"5621 COSTA MARITIMA","SAN CLEMENTE","CA","92673"
246774,"5621 DELMAR BLVD SUITE 216","SAINT LOUIS","MO","63108"
246775,"5621 DENNY AVE","N HOLLYWOOD","CA","91601"
246776,"5621 DUPONT AVE S","MINNEAPOLIS","MN","55419"
246777,"5621 EAST MARINA DRIVE","FORT LAUDERDALE","FL","33312"
246778,"5621 EMERALD DRIVE","LAKE CHARLES","LA","70615"
246779,"5621 KENWOOD AVE","KANSAS CITY","MO","64110"
246780,"5621 LESLIE COURT","FLINT","MI","48504"
246781,"5621 LILYVIEW WAY","ELK GROVE","CA","95757"
246782,"5621 MELBURY WAY","ANTELOPE","CA","95843"
246783,"5621 MEREDITH DR","DES MOINES","IA","50310"
246784,"5621 NE 66TH CIRCLE","VANCOUVER","WA","98661"
246785,"5621 NICHORA WAY","CARMICHAEL","CA","95608"
246786,"5621 NORTH PARKER AVENUE","INDIANAPOLIS","IN","46220"
246787,"5621 S MARSALIS","DALLAS","TX","75241"
246788,"5621 SHETLAND COURT","MORROW","OH","45152"
246789,"5621 STRAND BLVD STE 109","NAPLES","FL","34110"
246790,"5621 SYLVAN AVE","BRONX","NY","10471"
246791,"5621 VALLEY GLEN WAY","LOS ANGELES","CA","90043"
246792,"5621 W BEECHWOOD AVE","FRESNO","CA","93722"
246793,"5621 WILLOW WOOD DRIVE","MORRISON","CO","80465"
246794,"5621 WOODLAND ROAD","WINNECONNE","WI","54986"
246795,"5621 WOODLAWN PLACE","NEW ORLEANS","LA","70124"
246796,"56210 160 AVE","WEST CONCORD","MN","55985"
246797,"5622 1ST AVE SOUTH","MINNEAPOLIS","MN","55419"
246798,"5622 36TH ST S SUITE B","FARGO","ND","58104"
246799,"5622 BEAR MEADOW LANE","KATY","TX","77449"
246800,"5622 BELMAR TERRACE","PHILADELPHIA","PA","19143"
246801,"5622 CENTRAL AVE","ST PETERSBURG","FL","33707"
246802,"5622 E ENROSE ST","MESA","AZ","85205"
246803,"5622 E SHORE DR","GREENSBORO","NC","27406"
246804,"5622 EPWORTH RD","NEWBURGH","IN","47630"
246805,"5622 HARVEY COURT","WHITE MARSH","MD","21162"
246806,"5622 KASHMERE ST","HOUSTON","TX","77026"
246807,"5622 MEAD CT","INDIANAPOLIS","IN","46220"
246808,"5622 N EAST SHAFER DR","MONTICELLO","IN","47960"
246809,"5622 ROSA AVENUE","ST. LOUIS","MO","63109"
246810,"5622 SE LAMAY DRIVE","STUART","FL","34997"
246811,"5622 SHENADOAH DR","FAYETTEVILLE","NC","28304"
246812,"5622 W LAKE STREET","ST LOUIS PARK","MN","55416"
246813,"5622 WATERBURY CIRCLE","DES MOINES","IA","50312"
246814,"5622 WOODROW DR","BISMARCK","ND","58504"
246815,"5623 152ND AVE SE","BELLEVUE","WA","98006"
246816,"5623 20TH AVE NE","SEATTLE","WA","98105"
246817,"5623 ALLENTOWN RD STE 100","SUITLAND","MD","20748"
246818,"5623 BELLINGTON AVE","SPRINGFIELD","VA","22151"
246819,"5623 E CUB RIVER RD","PRESTON","ID","83263"
246820,"5623 HAMILTON WOLFE APT 432","SAN ANTONIO","TX","78240"
246821,"5623 OLD ROUW RD","VAN BUREN","AR","72956"
246822,"5623 S ACACIA CANYON PLACE","GREEN VALLEY","AZ","85622"
246823,"5623 SADDLE BRED DR","HOUSTON","TX","77084"
246824,"5623 SANDHILL DRIVE","MIDDLETON","WI","53562"
246825,"5623 SCENICHILLS RD","KNOXVILLE","TN","37912"
246826,"5623 W 29TH PL","INDIANAPOLIS","IN","46224"
246827,"5623 WHEATSHEAT COURT","VIRGINIA BEACH","VA","23464"
246828,"5623 WILLIS AVE","DALLAS","TX","75206"
246829,"56236 LILAC LANE","LANDERS","CA","92285"
246830,"5624 58TH ST","MASPETH","NY","11378"
246831,"5624 APIA DRIVE","CYPRESS","CA","90630"
246832,"5624 COUNTRY LAKE COURT","SYLVANIA","OH","43560"
246833,"5624 EAGLE LAKE DR","GLEN ALLEN","VA","23060"
246834,"5624 EXECUTIVE CENTER DR SUITE 130","CHARLOTTE","NC","28212"
246835,"5624 EXECUTIVE CENTER DR SUITE 130","CHARLOTTE","NC","28215"
246836,"5624 GENDER RD","CANAL WINCHESTER","OH","43110"
246837,"5624 GREAT WOODS BLVD","COLUMBUS","OH","43231"
246838,"5624 HOKU ROAD","KAPAA","HI","96746"
246839,"5624 JUNEBERRY COURT","WATERFORD","MI","48329"
246840,"5624 MATEO DRIVE","FORT WAYNE","IN","46835"
246841,"5624 MC SHANN RD","DALLAS","TX","75230"
246842,"5624 MOUNT VERNON WAY","MT PLEASANT","WI","53406"
246843,"5624 ORCHARD LANE","TUSCALOOSA","AL","35405"
246844,"5624 PACES GLEN AVE APT 1028","CHARLOTTE","NC","28212"
246845,"5624 RAVENEL LANE","SPRINGFIELD","VA","22151"
246846,"5624 S 113TH ST","HALES CORNERS","WI","53130"
246847,"5624 S CARROLL ROAD","NEW PALESTINE","IN","46163"
246848,"5624 S GILLIAM STREET","PAHRUMP","NV","89061"
246849,"5624 THACKERAY DRIVE","FAYETTEVILLE","NC","28306"
246850,"5625 1/2 TRUETT ST","HOUSTON","TX","77023"
246851,"5625 23RD AVE S","MINNEAPOLIS","MN","55417"
246852,"5625 AMANDA ST","SAN DIEGO","CA","92114"
246853,"5625 BAILEY LANE","AMARILLO","TX","79118"
246854,"5625 BROADWAY","BRONX","NY","10463"
246855,"5625 GERMAN CHURCH ROAD STE 1011","INDIANAPOLIS","IN","46235"
246856,"5625 HAVERFORD WAY","LAKE WORTH","FL","33463"
246857,"5625 LAFAYETTE PARK DRIVE NORTH","JACKSONVILLE","FL","32244"
246858,"5625 N POST RD SUITE L100","INDIANAPOLIS","IN","46216"
246859,"5625 N WINTHROP AVE SUITE 500","CHICAGO","IL","60660"
246860,"5625 NORTHFIELD PKWY","TROY","MI","48098"
246861,"5625 NW 121ST AVENUE","CORAL SPRINGS","FL","33076"
246862,"5625 O STREET","LINCOLN","NE","68510"
246863,"5625 PIEDRA DR","FORT WORTH","TX","76179"
246864,"5625 PRAIRIE STREET","CEDAR FALLS","IA","50613"
246865,"5625 ROCK WREN CT","ELK GROVE","CA","95758"
246866,"5625 S 73RD ST","LINCOLN","NE","68516"
246867,"5625 SPICEWOOD DRIVE","COLUMBIA","MO","65203"
246868,"5625 W DIAMOND DR","JOPLIN","MO","64801"
246869,"5625 W WISCONSIN AVEENUE","MILWAUKEE","WI","53213"
246870,"5625 WEST WISCONSIN AVENUE","MILWAUKEE","WI","53215"
246871,"5626 21ST ST CT E","BRADENTON","FL","34203"
246872,"5626 AMELIA PLANTATION DRIVE","KATY","TX","77449"
246873,"5626 ARDMORE DR","BATON ROUGE","LA","70817"
246874,"5626 AUCKLAND AVE","NORTH HOLLYWOOD","CA","91601"
246875,"5626 CAMELIA AVE","NORTH HOLLYWOOD","CA","91601"
246876,"5626 DAVID CHRISTIAN PLACE","GREENSBORO","NC","27410"
246877,"5626 HEISKELL STREET","PHILADELPHIA","PA","19144"
246878,"5626 HODIAMONT AVENUE","JENNINGS","MO","63136"
246879,"5626 KERMIT LANE","STOCKTON","CA","95207"
246880,"5626 LUXEMBOURG STREET","ROCKVILLE","MD","20852"
246881,"5626 N 51ST AVE","GLENDALE","AZ","85301"
246882,"5626 NORTH 134TH DRIVE","LITCHFIELD PARK","AZ","85340"
246883,"5626 PRESTON OAKS RD APT 7A","DALLAS","TX","75232"
246884,"5626 SCOTLAND CIRCLE","PENSACOLA","FL","32526"
246885,"5626 SOUTEL DRIVE","JACKSONVILLE","FL","32219"
246886,"5627 ALLENTOWN ROAD 107","SUITLAND","MD","20746"
246887,"5627 APRIL JOURNEY","COLUMBIA","MD","21044"
246888,"5627 BYPASS TRAIL","SAN ANTONIO","TX","78244"
246889,"5627 COOPER HOLLOW RD","MONMOUTH","OR","97361"
246890,"5627 COUNTRY WALK LANE","SARASOTA","FL","34233"
246891,"5627 CRESTHAVEN LANE","TOLEDO","OH","43614"
246892,"5627 GARRIGA","LAS VEGAS","NV","89135"
246893,"5627 LAMAR RD","BETHESDA","MD","20816"
246894,"5627 N FLORA AVENUE","FRESNO","CA","93710"
246895,"5627 NORTH MARWOOD BOULEVARD","UPPER MARLBORO","MD","20772"
246896,"5627 TELEGRAPH AVE SUITE 158","OAKLAND","CA","94609"
246897,"56272 52ND AVENUE","LAWRENCE","MI","49064"
246898,"5628 INDIAN TRAIL","PORTSMOUTH","VA","23704"
246899,"5628 KENDALL AVE","LOS ANGELES","CA","90032"
246900,"5628 MAYBEE RD","CLARKSTON","MI","48455"
246901,"5628 MESA MOUNTAIN DRIVE","LAS VEGAS","NV","89135"
246902,"5628 MURRAY DRIVE","BERKELEY","IL","60163"
246903,"5628 SW GREEN OAKS BLVD STEB","ARLINGTON","TX","76017"
246904,"5628 W DAVIT AVE","SANTA ANA","CA","92704"
246905,"5628 W GUNNISON STREET","CHICAGO","IL","60630"
246906,"5628 WALDRON ST","CORONA","NY","11368"
246907,"5628 WOLF CREEK DRIVE","JACKSONVILLE","FL","32222"
246908,"56281 LITTLE CAPTINA RD","POWHATAN POINT","OH","43942"
246909,"5629 CHEVROLET BOULEVARD","PARMA","OH","44130"
246910,"5629 COLLEEN LANE","WEST BEND","WI","53095"
246911,"5629 CRENSHAW RD APT B","RICHMOND","VA","23227"
246912,"5629 FAWNBROOK LANE","DUBLIN","OH","43017"
246913,"5629 IVY HILL DRIVE","FREDERICKSBURG","VA","22407"
246914,"5629 WOOD ST","PORT ORANGE","FL","32127"
246915,"5629 WOODVINE CT","FORT WORTH","TX","76140"
246916,"56296 270TH AVENUE","PINE ISLAND","MN","55963"
246917,"563 BLAKE STREET","VICTORIA","TX","77905"
246918,"563 BROWNING DR","TUSCALOOSA","AL","35405"
246919,"563 CARTER COURT SUITE B","KIMBERLY","WI","54136"
246920,"563 CHESTNUT AVENUE","TEANECK","NJ","07666"
246921,"563 CHURCH ST","BOUND BROOK","NJ","08805"
246922,"563 COLLEGE AVENUE B102","LANCASTER","PA","17603"
246923,"563 DERRICK TURNBOW AVE","CINCINNATI","OH","45214"
246924,"563 E TREMONT AVE  2ND FL","BRONX","NY","10457"
246925,"563 EAST SIENA DRIVE","WASHINGTON","UT","84780"
246926,"563 EAST THREE NOTCH STREET","ANDALUSIA","AL","36420"
246927,"563 EMERALD ST","NEW ORLEANS","LA","70124"
246928,"563 FERGUSON DRIVE STE-L","ORLANDO","FL","32805"
246929,"563 GILMORE STAGE ROAD","ORANGE CITY","FL","32763"
246930,"563 HENDERSON AVENUE","STATEN ISLAND","NY","10310"
246931,"563 HILLMAN ST","WARRENVILLE","SC","29851"
246932,"563 LANDON HILL ROAD","CHESTERTOWN","NY","12817"
246933,"563 LARCHWOOD AVENUE","UPPER DARBY","PA","19082"
246934,"563 LOG ROAD","SMITHFIELD","RI","02917"
246935,"563 MAGNOLIA DR","CROWN POINT","IN","46307"
246936,"563 MAIN ST","MINTURN","CO","81645"
246937,"563 MEMORIAL DRIVE SE UNIT 204","ATLANTA","GA","30312"
246938,"563 MONTEAGLE DR","MEMPHIS","TN","38109"
246939,"563 NEW CUT LANE","BLAYTHEWOOD","SC","29016"
246940,"563 NORTH CYPRESS STREET","JESUP","GA","31546"
246941,"563 PECK AVENUE","FORT MYERS","FL","33919"
246942,"563 PIERMONT RD","DEMAREST","NJ","07627"
246943,"563 POINT PETER ROAD","ST. MARYS","GA","31558"
246944,"563 PRIMUS CT","FREDERICK","MD","21703"
246945,"563 RIDGESIDE DRIVE","GOLDEN","CO","80401"
246946,"563 RIVERSIDE DRIVE","PALM BEACH GARDENS","FL","33410"
246947,"563 RUTHERFORD CIRCLE","BIRMINGHAM","AL","35206"
246948,"563 SOUTH 400 EAST","SALT LAKE CITY","UT","84111"
246949,"563 SOUTH SHERMAN STREET","DENVER","CO","80209"
246950,"563 SUTTER STREET","SAN FRANCISCO","CA","94102"
246951,"563 VILLA DRIVE","YPSILANTI","MI","48198"
246952,"563 W 150TH STREET APT 1E","NEW YORK","NY","10031"
246953,"563 W 169TH ST FL 1ST","NEW YORK","NY","10032"
246954,"563 WAGON CREEK ROAD","BANDERA","TX","78003"
246955,"563 WARWICK STREET","BROOKLYN","NY","11207"
246956,"563","KEEGO HARBOR","MI","48320"
246957,"5630 CLARK STATE ROAD","GAHANNA","OH","43230"
246958,"5630 FARNSWORTH RD","BRETHREN","MI","49619"
246959,"5630 HWY 53 E","TATE","GA","30177"
246960,"5630 KENSINGTON AVE","COUNTRYSIDE","IL","60525"
246961,"5630 N CAMINO DE LAS ESTRELLAS","TUCSON","AZ","85718"
246962,"5630 N VISTA LANE","JANESVILLE","WI","53548"
246963,"5630 REDTAIL ROAD","COUNCIL BLUFFS","IA","51501"
246964,"5630 SANTA CRUZ AVE","RICHMOND","CA","94804"
246965,"5630 SEDONA DR","AUSTIN","TX","78759"
246966,"5630 SMITH RD","HUEYTOWN","AL","35023"
246967,"5630 STAR GRASS LANE","NAPLES","FL","34116"
246968,"5630 SW 120TH AVENUE","COOPER CITY","FL","33330"
246969,"5630 TULLS CORNER ROAD","MARION STATION","MD","21838"
246970,"5630 WAPELLO AVE SE","LONE TREE","IA","52755"
246971,"5631 ALPENROSE AVE","FRISCO","TX","75035"
246972,"5631 ANDERSON HIGHWAY","POWHATAN","VA","23139"
246973,"5631 CYPRESS AVENUE","CARMICHAEL","CA","95608"
246974,"5631 GLENN RD","INDIANAPOLIS","IN","46216"
246975,"5631 HIGHYWAY 90 NO 1571","THEODORE","AL","36582"
246976,"5631 MATLOCK RD","GRANBURY","TX","76049"
246977,"5631 MIRIAM ROAD","PHILADELPHIA","PA","19124"
246978,"5631 MOUNT HOLLY HUNTERSVILLE ROAD","CHARLOTTE","NC","28216"
246979,"5631 N US 421","MONON","IN","47959"
246980,"5631 SEDGEMOOR RD","VIRGINIA BEACH","VA","23455"
246981,"5631 STATE ROUTE 154","PINCKNEYVILLE","IL","62274"
246982,"5631 TILUBO LN","PACE","FL","32571"
246983,"5631 W SEEGER CT","VISALIA","CA","93277"
246984,"5631 WILLOWTWIG LANE","DAYTON","OH","45459"
246985,"5632 BELSTEAD LANE","GLEN ALLEN","VA","23059"
246986,"5632 BLOOMINGDALE RD","BLOUNTVILLE","TN","37617"
246987,"5632 CANDO DRIVE","FORT WORTH","TX","76134"
246988,"5632 DONNELLY AVE","FORT WORTH","TX","76107"
246989,"5632 SPANISH RIVER RD","FORT PIERCE","FL","34951"
246990,"5632 VAN NUYS BLVD    403","VAN NUYS","CA","91401"
246991,"5632 VAN NUYS BLVD  APT 201","VAN NUYS","CA","91401"
246992,"5632 VAN NUYS BLVD UNIT 1492","SHERMAN OAKS","CA","91401"
246993,"5632 WOODCREST AVENUE","PHILADELPHIA","PA","19131"
246994,"5633 BELLINGTON AVENUE","SPRINGFIELD","VA","22151"
246995,"5633 CLIFTON LANE","JACKSONVILLE","FL","32211"
246996,"5633 COLFAX AVE","NORTH HOLLYWOOD","CA","91601"
246997,"5633 DEVON ST","PORT ORANGE","FL","32127"
246998,"5633 EXECUTIVE WAY","NORCROSS","GA","30071"
246999,"5633 HAZEL AVENUE","PHILADELPHIA","PA","19143"
247000,"5633 HUNTERS BEND LANE","DALLAS","TX","75249"
