"ID","Address","City","State","Zip"
67001,"150 JOHN M","CLAWSON","MI","48017"
67002,"150 JOSEPHINE AVENUE","MADISON","WV","25130"
67003,"150 KELLY STREET","JASPER","TX","75951"
67004,"150 KITTO LANE","DUNDEE","FL","33838"
67005,"150 LINCOLN STREET","STRATFORD","CT","06614"
67006,"150 LONGHORN TRL","KERRVILLE","TX","78028"
67007,"150 LONGMEADOW ROAD","AMHERST","NY","14226"
67008,"150 LOOKOUT CT","HENRYVILLE","PA","18332"
67009,"150 LOUISE TERR","GLEN BURNIE","MD","21060"
67010,"150 LOVELADY LN","VIDOR","TX","77662"
67011,"150 LYDIAS LANE","RIDGELAND","SC","29936"
67012,"150 LYNN STREET","PEABODY","MA","01960"
67013,"150 MAIN ST","GROVELAND","MA","01834"
67014,"150 MAPLE AVE NUMBER 233","SOUTH PLAINFIELD","NJ","07080"
67015,"150 MAPLE STREET","ESSEX JUNCTION","VT","05452"
67016,"150 MAPLE STREET","ISLIP","NY","11751"
67017,"150 MATTHEW WAY","FAYETTEVILLE","GA","30214"
67018,"150 MERCER ST","PRINCETON","NJ","08540"
67019,"150 MINERAL SPRINGS DRIVE","ROCKAWAY","NJ","07866"
67020,"150 MONROE AVENUE","EDISON","NJ","08820"
67021,"150 MONTADALE DR","PRINCETON","NJ","08540"
67022,"150 MONTEREY ROAD APT 8","SOUTH PASADENA","CA","91030"
67023,"150 MONUMENT ROAD SUITE 207","BALA CYNWYD","VA","19004"
67024,"150 MOTOR PARKWAY SUITE 401","HAUPPAUGE","NY","11788"
67025,"150 N 3050 E NUMBER 85","ST GEORGE","UT","84790"
67026,"150 N BEACHWOOD DR APT C","BURBANK","CA","91506"
67027,"150 N EUCLID STREET","LA HABRA","CA","90631"
67028,"150 N HOLMES BLVD","ST AUGUSTINE","FL","32084"
67029,"150 N HOLMES BOULEVARD","ST AUGUSTINE","FL","32084"
67030,"150 N LAKEVIEW BLDV  NO 25","CHANDLER","AZ","85225"
67031,"150 N MAIN ST","SYCAMORE","IL","60178"
67032,"150 N MAIN STREET","FAIRPORT","NY","14450"
67033,"150 N MICHIGAN AVE STE 2130","CHICAGO","IL","60601"
67034,"150 N MICHIGAN AVE STE 2800","CHICAGO","IL","60601"
67035,"150 N MICHIGAN AVE SUITE 2800","CHICAGO","IL","60601"
67036,"150 N OAKRIDGE DR","HUDSON OAKS","TX","76087"
67037,"150 N RACE ST","MIDDLETOWN","PA","17057"
67038,"150 N RADNOR-CHESTER ROAD SU F-200","RADNOR","PA","19087"
67039,"150 N RESEARCH CAMPUS DRIVE","KANNAPOLIS","NC","28021"
67040,"150 N RIVER CIR UNIT 106","OCEANSIDE","CA","92057"
67041,"150 N RIVER ST","NEWCOMERSTOWN","OH","43832"
67042,"150 N SPRING BLVD","TARPON SPRINGS","FL","34689"
67043,"150 N UNIVERSITY ST","WEST LAFAYETTE","IN","47907"
67044,"150 NASSAU ST SUITE 4G","NEW YORK","NY","10038"
67045,"150 NATIVE TRACE","NICHOLASVILLE","KY","40356"
67046,"150 NE 70TH ST","MIAMI","FL","33138"
67047,"150 NEW STREET","HELLERTOWN","PA","18055"
67048,"150 NORTH BROADWAY APT 28","LINDENHURST","NY","11757"
67049,"150 NORTH DURANGO DRIVE SUITE 190","LAS VEGAS","NV","89145"
67050,"150 NORTH GREENFIELD ROAD","PORTER CORNERS","NY","12859"
67051,"150 NORTH MAIN STREET STE 110","HEBER CITY","UT","84032"
67052,"150 NORTH MICHIGAN AVE-28TH FLOOR","CHICAGO","IL","60601"
67053,"150 NORTHLAND RIDGE TRAIL","SANDY SPRINGS","GA","30342"
67054,"150 NORTHPARK PLAZA DR APT 719","KINGWOOD","TX","77339"
67055,"150 NUNES ROAD","APTOS HILLS","CA","95076"
67056,"150 OAK ROAD","DURANGO","CO","81303"
67057,"150 OAKLAND AVE STE 233","ROCK HILL","SC","29730"
67058,"150 OCEAN AVE 2A","BROOKLYN","NY","11225"
67059,"150 OHIO ST","APOLLO","PA","15613"
67060,"150 OLD CANAAN ROAD","SPARTANBURG","SC","29306"
67061,"150 OLD MEADOW DRIVE","DRACUT","MA","01826"
67062,"150 ONIX DRIVE","KENNETT SQUARE","PA","19348"
67063,"150 ORRS MILLS RD","SALISBURY MILLS","NY","12577"
67064,"150 OTTAWA AVE NW SUITE 1500","GRAND RAPIDS","MI","49503"
67065,"150 PALM AVE","AUBURN","CA","95603"
67066,"150 PALM VALLEY BLVD SUITE 2193","SAN JOSE","CA","95123"
67067,"150 PARDEE AVENUE","JAMESTOWN","NY","14701"
67068,"150 PARK AVENUE","NORFOLK","VA","23510"
67069,"150 PEARL ROAD","BRUNSWICK","OH","44212"
67070,"150 PEMBERTON WAY","AUSTIN","TX","78737"
67071,"150 PENCOYD AVENUE","BALA CYNWYD","PA","19004"
67072,"150 PIERCE STREET","SOMERSET","NJ","08873"
67073,"150 PIONEER LN","KINGSLAND","TX","78639"
67074,"150 POMPTON PLAINS ROAD","WAYNE","NJ","07474"
67075,"150 PONDEROSA WAY","EAGLE POINT","OR","97524"
67076,"150 PORTO MARINO DRIVE","TIBURON","CA","94920"
67077,"150 POST OFFICE ROAD 767","WALDORF","MD","20604"
67078,"150 PRESTIGE DR","ROYAL PALM BEACH","FL","33411"
67079,"150 PRIVATE ROAD 864","ROCHELLE","TX","76872"
67080,"150 PURCHASE STREET SUITE 9","RYE","NY","10580"
67081,"150 RASPBERRY WAY","MADISON","AL","35757"
67082,"150 RAVINE AVENUE  APT 3D","YONKERS","NY","10701"
67083,"150 REVOLUTIONARY WAR WAY","MYRTLE BEACH","SC","29579"
67084,"150 RICE ST","SAN FRANCISCO","CA","94112"
67085,"150 RIVER ROAD SUITE A3","MONTVILLE","NJ","07045"
67086,"150 RIVEROAK DR","FAYETTEVILLE","GA","30215"
67087,"150 ROSEBOWER CHURCH ROAD","PADUCAH","KY","42003"
67088,"150 RUSTIC RIDGE ROAD","FREDERICKSBURG","VA","22405"
67089,"150 S 34TH STREET","BOULDER","CO","80305"
67090,"150 S 700 E","PRICE","UT","84501"
67091,"150 S BROAD ST","GALESBURG","IL","61401"
67092,"150 S CIELO AVENUE","WILLCOX","AZ","85643"
67093,"150 S EAST STREET","FREDERICK","MD","21701"
67094,"150 S GLENDORA AVE","GLENDORA","CA","91741"
67095,"150 S LINCOLN ST SUITE 150","SPOKANE","WA","99201"
67096,"150 S MCKINLEY ST","CASPER","WY","82601"
67097,"150 S PINE ISLAND RD SUITE 312","FORT LAUDERDALE","FL","33324"
67098,"150 S PINE ISLAND ROAD SUITE 300","PLANTATION","FL","33324"
67099,"150 S SAN JOSE DR","YUMA","AZ","85364"
67100,"150 S WACKER DRIVE SUITE 2400","CHICAGO","IL","60606"
67101,"150 S WESTMORELAND AVE","TUCSON","AZ","85745"
67102,"150 SANTA MONICA","ROYAL PALM BEACH","FL","33411"
67103,"150 SARAH ELIZABETH DR","CLARKSVILLE","TN","37042"
67104,"150 SAWNEY DR","GLASGOW","MT","59230"
67105,"150 SCHOOL STREET","MOUNT HOLLY","VT","05758"
67106,"150 SE 25TH RD  SUITE 5M","MIAMI","FL","33129"
67107,"150 SE 25TH RD","MIAMI","FL","33129"
67108,"150 SE 2ND AVE PH6","MIAMI","NC","33130"
67109,"150 SE 2ND STREET SUITE 334","MIAMI","FL","33131"
67110,"150 SE 3RD AVE APT 516","MIAMI","FL","33131"
67111,"150 SE 3RD AVENUE APT 202","MIAMI","FL","33131"
67112,"150 SEA POINT WAY","PITTSBURG","CA","94565"
67113,"150 SHELL BEACH RD","PIERRE PART","LA","70339"
67114,"150 SHINGLE HILL RD","WEST HAVEN","CT","06516"
67115,"150 SILVERCREEK ROAD","WADSWORTH","OH","44281"
67116,"150 SIX MILE ROAD","COMSTOCK PARK","MI","49321"
67117,"150 SKYLINE DR","FAYETTEVILLE","AR","72701"
67118,"150 SOUTH 5TH STREET STE 1200","MINNEAPOLIS","MN","55402"
67119,"150 SOUTH 5TH STREET","MINNEAPOLIS","MN","55402"
67120,"150 SOUTH FRONT ST","COLUMBUS","OH","43215"
67121,"150 SOUTH MAIN STREET","RANDLEMAN","NC","27317"
67122,"150 SOUTH MONROE STREET SUITE 306","TALLAHASSEE","FL","32301"
67123,"150 SOUTH PINE STREET","DOYLESTOWN","PA","18901"
67124,"150 SOUTH ROAD SUITE 101 CB3302","CHAPEL HILL","NC","27599"
67125,"150 SOUTH ROYAL POINCIANA BLVD","MIAMI SPRINGS","FL","33166"
67126,"150 SOUTH STAEBLER ROAD TRLR 887","ANN ARBOR","MI","48103"
67127,"150 SOUTH UNION STREET","PENNVILLE","IN","47369"
67128,"150 SPINNAKER RIDGE DRIVE    A201","HUNTSVILLE","AL","35824"
67129,"150 SPRING STREET","NEWTON","NJ","07860"
67130,"150 SPRINGDALE DR","SPINDALE","NC","28160"
67131,"150 STATE STREET SUITE 504","ALBANY","NY","12207"
67132,"150 STOBE AVENUE","STATEN ISLAND","NY","10306"
67133,"150 SUNNYDALE ROAD","TRUMBULL","CT","06611"
67134,"150 SUNOL ST","SAN JOSE","CA","95126"
67135,"150 SW 12TH AVENUE","POMPANO BEACH","FL","33069"
67136,"150 SW 25TH RD STE 7A","MIAMI","FL","33129"
67137,"150 SWEET BAY TRAIL","PETAL","MS","39465"
67138,"150 TAYLOR CIRCLE DRIVE","LONDON","KY","40744"
67139,"150 TELEPHONE ROAD","WEST HENRIETTA","NY","14586"
67140,"150 TETUAN STREET","SAN JUAN","PR","00901"
67141,"150 THRUSHWOOD DRIVE","FAYETTEVILLE","GA","30215"
67142,"150 TIFFANY ESTATE DRIVE","ELM GROVE","LA","71051"
67143,"150 TOWNE HOUSE RD","HAMDEN","CT","06514"
67144,"150 TURNER STREET","SOMERSET","KY","42501"
67145,"150 UNION ROAD 171","EL DORADO","AK","71730"
67146,"150 UNION ROAD 171","EL DORADO","AR","71730"
67147,"150 VAN NESS AVE 1124","SAN FRANCISCO","CA","94102"
67148,"150 VAN NESS AVE APT 922","SAN FRANCISCO","CA","94102"
67149,"150 VERONA DRIVE","LAFAYETTE","LA","70507"
67150,"150 VETERANS MEMORIAL HWY SUITE 356","COMMACK","NY","11725"
67151,"150 VICTORIA PLACE","MADISON","MS","39110"
67152,"150 VICTORY BLVD","STATEN ISLAND","NY","10301"
67153,"150 VIGILANTE","GWINN","MI","49841"
67154,"150 VISTA DEL MAR","SHELL BEACH","CA","93449"
67155,"150 W 130TH STREET - SUITE 4","NEW YORK","NY","10027"
67156,"150 W 140TH ST APT 5C","NEW YORK","NY","10030"
67157,"150 W 168TH ST","SOUTH HOLLAND","IL","60473"
67158,"150 W 225TH STREET APT 19H","BRONX","NY","10463"
67159,"150 W 3RD AVE","DENVER","CO","80223"
67160,"150 W 62ND ST STE 7-123","NEW YORK","NY","10023"
67161,"150 W 92 HWY","KEARNEY","MO","64060"
67162,"150 W 9TH AVE UNIT 1511","DENVER","CO","80204"
67163,"150 W COURT ST","HASTINGS","MI","49058"
67164,"150 W GARFIELD ST","TRURO","IA","50257"
67165,"150 W JEFFERSON SUITE 100","DETROIT","MI","48226"
67166,"150 W JEFFERSON","JOLIET","IL","60432"
67167,"150 W RIDGEWOOD AVENUE","RIDGEWOOD","NJ","07450"
67168,"150 W WINDSOR AVENUE","LOMBARD","IL","60148"
67169,"150 WAGON FORD RD","BEULAVILLE","NC","28518"
67170,"150 WASHINGTON LANE","ALABASTER","AL","35007"
67171,"150 WASHINGTON ST","ARLINGTON","MA","02474"
67172,"150 WASHINGTON STREET APT  3M","HEMPSTEAD","NY","11550"
67173,"150 WASHINGTON STREET","MA","MA","02458"
67174,"150 WEST 100 SOUTH","MANTI","UT","84642"
67175,"150 WEST 105TH STREET","NEW YORK","NY","10025"
67176,"150 WEST 1450 NORTH","PROVO","UT","84604"
67177,"150 WEST 55TH STREET APT PHSE","NEW YORK","NY","10019"
67178,"150 WEST 88TH PL","CUT OFF","LA","70345"
67179,"150 WEST ABBOTTSFORD AVENUE","PHILADELPHIA","PA","19144"
67180,"150 WEST COUNTY ROAD 1075 NORTH","LIZTON","IN","46149"
67181,"150 WEST CYPRESS AVE SUITE D","BURBANK","CA","91502"
67182,"150 WEST EDITH AVENUE - APT 22","LOS ALTOS","CA","94022"
67183,"150 WEST END AVENUE 20K","NEW YORK","NY","10023"
67184,"150 WEST FLAGLER STREET SUITE 1675","MIAMI","FL","33130"
67185,"150 WEST JUANITA AVENUE","GILBERT","AZ","85233"
67186,"150 WEST MAIN STREET SUITE 2100","NORFOLK","VA","23510"
67187,"150 WEST MAIN STREET","DONALDS","SC","29638"
67188,"150 WEST MARKET STREET SUITE 400","INDIANAPOLIS","IN","46204"
67189,"150 WEST SICKLE STREET","KENNETT SQUARE","PA","19348"
67190,"150 WEST THOMPSON LANE APT O303","MURFREESBORO","TN","37129"
67191,"150 WEST WASHINGTON","JOLIET","IL","60432"
67192,"150 WILSON AVE","LYONS","GA","30436"
67193,"150 WINDSOR RD","NORTH LIBERTY","IA","52317"
67194,"150 WOODMONT DRIVE","EADS","TN","38028"
67195,"150 WOODSIDE DRIVE","FREELAND","PA","18224"
67196,"150 YOST AVE","PARK RIDGE","IL","60068"
67197,"150-09 SHORE AVE","JAMAICA","NY","11433"
67198,"150-10 JEWEL AVE APT 51A","FLUSHING","NY","11367"
67199,"150-15 HILLSIDE AVE SUITE STE 1001","JAMAICA","NY","11432"
67200,"150-15 RALEIGH STREET","OZONE PARK","WY","11417"
67201,"150-24 118TH AVENUE","JAMAICA","NY","11434"
67202,"150-24 60TH AVENUE 2FL","FLUSHING","NY","11355"
67203,"150-25 61ST ROAD","FLUSHING","NY","11367"
67204,"150-26 MELBOURNE AVE","FLUSHING","NY","11367"
67205,"150-27 ARLINGTON TERRACE","JAMAICA","NY","11433"
67206,"150-28 99TH PLACE","OZONE PARK","NY","11417"
67207,"150-29 HORACE HARDING","FLUSHING","NY","11367"
67208,"150-32 115TH DRIVE","JAMAICA","NY","11434"
67209,"150-62 87 AVENUE","JAMAICA","NY","11432"
67210,"150-74 116TH AVENUE","JAMAICA","NY","11434"
67211,"150","COLONIA","NJ","07067"
67212,"1500 12TH ST","LOS OSOS","CA","93402"
67213,"1500 14TH STREET","LUBBOCK","TX","79401"
67214,"1500 16TH STREET NW","WASHINGTON","DC","20036"
67215,"1500 1ST AVE NE NUMBER 210","ROCHESTER","MN","55906"
67216,"1500 1ST AVE NORTH UNIT 69","BIRMINGHAM","AL","35203"
67217,"1500 1ST AVENUE NORTH - UNIT 42","BIRMINGHAM","AL","35203"
67218,"1500 1ST AVENUE NORTH 91","BIRMINGHAM","AL","35203"
67219,"1500 1ST STREET","NEPTUNE BEACH","FL","32266"
67220,"1500 23RD ST","MENOMINEE","MI","49858"
67221,"1500 2ND AVENUE SOUTH","NASHVILLE","TN","37210"
67222,"1500 39TH STREET","WEST PALM BEACH","FL","33407"
67223,"1500 49TH AVE NE","COLUMBIA HEIGHTS","MN","55421"
67224,"1500 4TH ST","ARGYLE","TX","76226"
67225,"1500 7TH STREET PH5","SACRAMENTO","CA","95814"
67226,"1500 A WATERLOO TRAIL","AUSTIN","TX","78704"
67227,"1500 ALEXANDER TRCE 303","CANTON","GA","30114"
67228,"1500 AVE LOS ROMEROS APT 1212","SAN JUAN","PR","00926"
67229,"1500 BAY RD SUITE 940","MIAMI BEACH","FL","33139"
67230,"1500 BELL DRIVE","ATWATER","CA","95301"
67231,"1500 BEVILLE ROAD SUITE 606-385","DAYTONA BEACH","FL","32119"
67232,"1500 BEVILLE ROAD SUITE 606-391","DAYTONA BEACH","FL","32114"
67233,"1500 BIRCHMONT DR NE NUM16","BEMIDJI","MN","56601"
67234,"1500 BLENNERHASSETT AVENUE","BELPRE","OH","45714"
67235,"1500 BLUE HILL AVENUE","BOSTON","MA","02126"
67236,"1500 BLUEBIRD DRIVE","LITTLE ELM","TX","75068"
67237,"1500 BLUEBIRD RD APT 10","GRAND HAVEN","MI","49417"
67238,"1500 BOND AVE","EAST SAINT LOUIS","IL","62207"
67239,"1500 BOSTON RD 32","NY","NY","10460"
67240,"1500 BRIARWOOD DR","WILLIAMSTOWN","NJ","08094"
67241,"1500 BYPASS NORTH US 127 RM 116","LAWRENCEBURG","KY","40342"
67242,"1500 CALLE MARIBEL","SAN JUAN","PR","00911"
67243,"1500 CAMPBELL STREET","RAHWAY","NJ","07065"
67244,"1500 CANYON LEDGE CT","LAS VEGAS","NV","89117"
67245,"1500 CAPITAL AVE STE 102","PLANO","TX","75074"
67246,"1500 CAPITAL CIRCLE SE SUITE 6","TALLAHASSEE","FL","32301"
67247,"1500 CHESTNUT ST 1239","PHILADELPHIA","PA","19102"
67248,"1500 CHESTNUT STREET APT 19A","PHILADELPHIA","PA","19102"
67249,"1500 CHESTNUT STREET","PHILADELPHIA","PA","19102"
67250,"1500 CHESTNUT STREET","PHILIDELPHIA","PA","19102"
67251,"1500 CHICAGO AVE  APT 32","MINNEAPOLIS","MN","55404"
67252,"1500 COLLEGE PARKWAY","ELKO","NV","89801"
67253,"1500 COLVIN BOULEVARD","TONAWANDA","NY","14223"
67254,"1500 COMMERCE DRIVE","PLANO","TX","75093"
67255,"1500 COUNTRY CLUB DRIVE","PETALUMA","CA","94952"
67256,"1500 COUNTY ROAD 284","LIBERTY HILL","TX","78642"
67257,"1500 DAKOTA AVE S","HURON","SD","57350"
67258,"1500 DAYSPRING RDG","WALWORTH","NY","14568"
67259,"1500 DAYSPRING RIDGE","WALWORTH","NY","14568"
67260,"1500 DAYTON AVE","SAN LEANDRO","CA","94579"
67261,"1500 DEER CREEK RD","DESOTO","TX","75115"
67262,"1500 DIXIE STREET","WALLACE","WV","26448"
67263,"1500 DOBBINS ROAD","CORSICANA","TX","75110"
67264,"1500 E 11TH STREET","WINSTON SALE","NC","27101"
67265,"1500 E BROADWAY RD APT 2142","TEMPE","AZ","85282"
67266,"1500 E COLLEGE WAY PMB 427","MOUNT VERNON","WA","98273"
67267,"1500 E MED CTR DR SPC 5853 CVC 2367","ANN ARBOR","MI","48109"
67268,"1500 E PERSHING ST","APPLETON","WI","54911"
67269,"1500 E RIVERSIDE DR APT 808","AUSTIN","TX","78741"
67270,"1500 EAST AVE","BELVIDERE","IL","61008"
67271,"1500 EAST GREENWAY PARKWAY","PHOENIX","AZ","85022"
67272,"1500 EAST KANSAS AVENUE","GARDEN CITY","KS","67846"
67273,"1500 ENCHANTED WAY","LUCAS","TX","75002"
67274,"1500 ESCUELA PKWY","MILPITAS","CA","95035"
67275,"1500 EXALL","LLANO","TX","78643"
67276,"1500 FAIR OAKS AVE","SOUTH PASADENA","CA","91030"
67277,"1500 FAIRVIEW BEACH ROAD","PASADENA","MD","21122"
67278,"1500 FIFTH STREET SUITE 9","SANTA FE","NM","87505"
67279,"1500 FIRST AVENUE NE SUITE 210","ROCHESTER","MN","55906"
67280,"1500 FISHER RD","TRAVERSE CITY","MI","49685"
67281,"1500 FORREST ST","HUTCHINSON","KS","67501"
67282,"1500 FOUNTAIN AVENUE","PANAMA CITY","FL","32405"
67283,"1500 GABRIEL DRIVE UNIT 7","WAUKESHA","WI","53188"
67284,"1500 GAY RD UNIT 5D","WINTER PARK","FL","32789"
67285,"1500 GILLIONVILLE ROAD  STE B","ALBANY","GA","31707"
67286,"1500 GOLD RUSH DRIVE","CONCORD","NC","28025"
67287,"1500 GOLD STAR HWY","GROTON","CT","06340"
67288,"1500 GOVERNOR NICHOLLS","NEW ORLEANS","LA","70116"
67289,"1500 GRAND CONCOURSE APT 41C","BRONX","NY","10457"
67290,"1500 GRAYSON ST","NOCONA","TX","76255"
67291,"1500 GREENBRIER STREET","CHARLESTON","WV","25311"
67292,"1500 GREENWAVE DRIVE","LEEDS","AL","35094"
67293,"1500 GROESBECK RD","CINCINNATI","OH","45224"
67294,"1500 HADLEY ST NUM 871","HOUSTON","TX","77002"
67295,"1500 HADLEY ST UNIT 11","HOUSTON","TX","77001"
67296,"1500 HANSOM LANE NW","CONCORD","NC","28027"
67297,"1500 HERITAGE BLVD","GLENN HEIGHTS","TX","75154"
67298,"1500 HIGH FOREST DR N","TUSCALOOSA","AL","35406"
67299,"1500 HIGHLANDS DRIVE","LITITZ","PA","17543"
67300,"1500 HIGHWAY 17 NORTH SUITE 212","SURFSIDE BEACH","SC","29575"
67301,"1500 HILL ST","SUFFIELD","CT","06078"
67302,"1500 HORNELL LOOP 1C","BROOKLYN","NY","11239"
67303,"1500 HWY 80 W","JACKSON","MS","39203"
67304,"1500 INDIAN ROCK DAM ROAD","YORK","PA","17403"
67305,"1500 INDUSTRY STREET SUITE 300","EVERETT","WA","98203"
67306,"1500 JEFFERSON AVE","TEXARKANA","AR","71854"
67307,"1500 JFK BLVD SUITE 1040","PHILADELPHIA","PA","19102"
67308,"1500 JFK BLVD SUITE 1410","PHILADELPHIA","PA","19102"
67309,"1500 JOHN F KENNEDY BLVD SUITE 840","PHILADELPHIA","PA","19102"
67310,"1500 KAPIOLANI BLVD SUITE 102E","HONOLULU","HI","96814"
67311,"1500 KEPNER DR","LAFAYETTE","IN","47905"
67312,"1500 KINGS ROAD","CARPENTERSVILLE","IL","60110"
67313,"1500 LAKELAND HILLS BLVD SUITE 4","LAKELAND","FL","33805"
67314,"1500 LANCASTER AVENUE UNIT 2647","WILMINGTON","DE","19805"
67315,"1500 LOCUST ST STE 1408","PHILADELPHIA","PA","19102"
67316,"1500 LOS PADRES BLVD STE 105","SANTA CLARA","CA","95050"
67317,"1500 LOUISIANA ST","HOUSTON","TX","77002"
67318,"1500 MAIN STREET STE 15111","SPRINGFIELD","MA","01115"
67319,"1500 MALLINCKRODT","ST LOUIS","MO","63107"
67320,"1500 MANNING FOREST DR APT A4","GREENVILLE","NC","27834"
67321,"1500 MARILLA STREET SUITE 6BS","DALLAS","TX","75201"
67322,"1500 MARKET ST STE 3310E","PHILADELPHIA","PA","19102"
67323,"1500 MARKET STREET SUITE 3500E","PHILADELPHIA","PA","19102"
67324,"1500 MASSACHUSETTS AVE NW SUITE 835","WASHINGTON","DC","20005"
67325,"1500 MATHISON STREET","DURHAM","NC","27701"
67326,"1500 MAYWOOD DRIVE","SOUTH SAINT PAUL","MN","55075"
67327,"1500 MCLEAN ST MB NUMBER 200","RIDGECREST","CA","93555"
67328,"1500 MCMINNVILLE HWY","SPARTA","TN","38583"
67329,"1500 MEADOWLARK DRIVE","DELTONA","FL","32725"
67330,"1500 MILL AVE","BRAINERD","MN","56401"
67331,"1500 MORGAN AVENUE NORTH","MINNEAPOLIS","MN","55411"
67332,"1500 N 5TH AVE STE B","LAUREL","MS","39440"
67333,"1500 N 5TH AVENUE STE B","LAUREL","MS","39440"
67334,"1500 N 5TH ST","TEMPLE","TX","76501"
67335,"1500 N COLORADO STREET","CASA GRANDE","AZ","85122"
67336,"1500 N DIXIE HIGHWAY STE 305","WEST PALM BEACH","FL","33401"
67337,"1500 N DIXIE HWY 304","WEST PALM BCH","FL","33401"
67338,"1500 N HALSTED STREET FLOOR 2","CHICAGO","IL","60642"
67339,"1500 N HARBOR BLVD APT G2","SANTA ANA","CA","92703"
67340,"1500 N LOMBARDY STREET","RICHMOND","VA","23220"
67341,"1500 N OAKLAND AVE","BOLIVAR","MO","65613"
67342,"1500 N PATTERSON AVE 1132","WINSTON SALEM","NC","27105"
67343,"1500 N RAILROAD AVE","PFLUGERVILLE","TX","78660"
67344,"1500 NE 42ND TER","KANSAS CITY","MO","64116"
67345,"1500 NE REDBUD DRIVE","OKLAHOMA CITY","OK","73117"
67346,"1500 NEW YORK AVE","UNION CITY","NJ","08074"
67347,"1500 NICOLLET AVE APT 433","MINNEAPOLIS","MN","55403"
67348,"1500 NORTH CONGRESS AVENUE A-15","WEST PALM BEACH","FL","33401"
67349,"1500 NORTH CONGRESS AVENUE A-15","WEST PALM BEACH","FM","33401"
67350,"1500 NORTH GARFIELD ST","LEBANON","IN","46052"
67351,"1500 NORTH SCOVEL ST","TEMPE","AZ","85281"
67352,"1500 NORTH STREET","MARYSVILLE","KS","66508"
67353,"1500 NORTH TUTTLE AVENUE","SARASOTA","FL","34237"
67354,"1500 NW 118TH ST","DES MOINES","IA","50325"
67355,"1500 OAKDALE AVENUE","TOLEDO","OH","43605"
67356,"1500 OCEAN DRIVE SUITE 1005","MIAMI BEACH","FL","33139"
67357,"1500 OCEAN PARKWAY APT 5J","BROOKLYN","NY","11230"
67358,"1500 OLD EUSTIS RD","MOUNT DORA","FL","32757"
67359,"1500 OLE AMBROSE HIGHWAY","BELLS","TX","75414"
67360,"1500 OLE AMBROSE ROAD","BELLS","TX","75414"
67361,"1500 OWEN AVE","PETERSBURG","IL","62673"
67362,"1500 PAGE STREET   APT 38","PHILADELPHIA","PA","19121"
67363,"1500 PAGEDALE DRIVE","CEDAR PARK","TX","78613"
67364,"1500 PARK AVENUE 322","EMERYVILLE","CA","94608"
67365,"1500 PARKWOOD CIRCLE","ATLANTA","GA","30339"
67366,"1500 PEACHTREE INDUSTRIAL BLVD 220","SUWANEE","GA","30024"
67367,"1500 PEACHTREE INDUSTRIAL BLVD","SUWANEE","GA","30024"
67368,"1500 PERIMETER PARK DR STE 150","MORRISVILLE","NC","27560"
67369,"1500 PORTER ROAD","NASHVILLE","TN","37206"
67370,"1500 PROVIDENCE HIGHWAY UNIT 17","NORWOOD","MA","02062"
67371,"1500 QUAIL RUN","COLLEGE STATION","TX","77845"
67372,"1500 QUAIL ST SUITE 220","NEWPORT BEACH","CA","92660"
67373,"1500 RAILROAD CUT RD","ROGERS","AR","72756"
67374,"1500 RIVER DRIVE SUITE 209","BELMONT","NC","28012"
67375,"1500 RIVERMONT DRIVE","GASTONIA","NC","28056"
67376,"1500 ROSE STREET","KEY WEST","FL","33040"
67377,"1500 RYAN ROAD","FALL BRANCH","TN","37656"
67378,"1500 S 70TH ST STE 102","LINCOLN","NE","68506"
67379,"1500 S HAMILTON RD STE G","COLUMBUS","OH","43227"
67380,"1500 S HUDSON ALLEN RD","BUNNELL","FL","32110"
67381,"1500 S MAIN ST","CROWN POINT","IN","46307"
67382,"1500 S MAIN STREET","CROWN POINT","IN","46307"
67383,"1500 SANDBURG DRIVE","SCHAUMBURG","IL","60173"
67384,"1500 SANGAMON STREET","CRETE","IL","60417"
67385,"1500 SCORPIUS","IDAHO FALLS","ID","83402"
67386,"1500 SE 25TH AVE","GAINESVILLE","FL","32641"
67387,"1500 SIEBARTH DR","LAKE CHARLES","LA","70615"
67388,"1500 SILVER SHADOW DR","THOUSAND OAKS","CA","91320"
67389,"1500 SKYLYN DRIVE","SPARTANBURG","SC","29303"
67390,"1500 SOMERSET VALE COURT","LAWRENCEVILLE","GA","30044"
67391,"1500 SOUTH JACKSON AVENUE","BARTOW","FL","33830"
67392,"1500 SOUTH ROGERS AVE","BARTLESVILLE","OK","74003"
67393,"1500 ST OLAF AVE","NORTHFIELD","MN","55057"
67394,"1500 STATE HWY RA","GRAVOIS MILLS","MO","65037"
67395,"1500 STATE STREET SUITE 100","SAN DIEGO","CA","92101"
67396,"1500 STATE STREET","LEXINGTON","MO","64067"
67397,"1500 SULLIVAN ROAD","AURORA","IL","60506"
67398,"1500 SW 5TH PL APT A","FORT LAUDERDALE","FL","33312"
67399,"1500 SWEET LEAF LANE","PFLUGERVILLE","TX","78660"
67400,"1500 SYCAMORE LANE","KINGWOOD","TX","77339"
67401,"1500 THISTLEWOOD DRIVE","DESOTO","TX","75115"
67402,"1500 TYNER ROAD","HAINES CITY","FL","33844"
67403,"1500 UNION AVE STE 2300","BALTIMORE","MD","21211"
67404,"1500 UNIVERSITY DRIVE","BILLINGS","MT","59101"
67405,"1500 V STREET","PORT TOWNSEND","WA","98368"
67406,"1500 VAN CLEAVE RD NW","ALBUQUERQUE","NM","87107"
67407,"1500 VANDERBUILT ST","NORTH TONAWANDA","NY","14120"
67408,"1500 VIA MONTEMAR","PALOS VERDE ESTATES","CA","90274"
67409,"1500 VILLANOVA DR","AUSTIN","TX","78757"
67410,"1500 W  RIVERVIEW AVENUE","DAYTON","OH","45402"
67411,"1500 W 4TH ST","CEDAR FALLS","IA","50613"
67412,"1500 W 7TH STREET","STILLWATER","OK","74074"
67413,"1500 W ALGONQUIN ROAD","HOFFMAN ESTATES","IL","60192"
67414,"1500 W BIRCHWOOD AVE UNIT 2","CHICAGO","IL","60626"
67415,"1500 W CALLE TIBURON","TUCSON","AZ","85704"
67416,"1500 W CYPRESS CREEK ROAD SUITE 408","FORT LAUDERDALE","FL","33309"
67417,"1500 W EL CAMINO AVE 137","SACRAMENTO","CA","95833"
67418,"1500 W EL CAMINO AVE 332","SACRAMENTO","CA","95833"
67419,"1500 W ELM TERRACE","OLATHE","KS","66061"
67420,"1500 W JACKSON ST","COOKEVILLE","TN","38501"
67421,"1500 W LA QUINTA RD","NOGALES","AZ","85621"
67422,"1500 W LAQUINTA ROAD","NOGALES","AZ","85621"
67423,"1500 W MAIN","SUN PRAIRIE","WI","53590"
67424,"1500 W PINECREST DRIVE","MARSHALL","TX","75670"
67425,"1500 W SHAW AVE  STE 400","FRESNO","CA","93711"
67426,"1500 WALNUT ST SUITE 700-21A","PHILADELPHIA","PA","19102"
67427,"1500 WALNUT ST","PHILADELPHIA","PA","19102"
67428,"1500 WALNUT STREET - SUITE 700","PHILADELPHIA","PA","19102"
67429,"1500 WALTON RESERVE BLVD APT 5306","AUSTELL","GA","30168"
67430,"1500 WEST COLLEGE AVENUE","STATE COLLEGE","PA","16801"
67431,"1500 WEST EL CAMINO AVE 34341","SACRAMENTO","CA","95833"
67432,"1500 WEST EL CAMINO AVE BOX 730","SACRAMENTO","CA","95833"
67433,"1500 WEST EL CAMINO AVENUE 394","ROSEVILLE","CA","95833"
67434,"1500 WEST EL CAMINO AVENUE SUITE 49","SACRAMENTO","CA","95833"
67435,"1500 WEST FAIRMONT APT 101","LONGVIEW","TX","75604"
67436,"1500 WEST HWY 36 SUITE 825","ROSEVILLE","MN","55113"
67437,"1500 WEST MAIN STREET NUMBER 715","CARRBORO","NC","27510"
67438,"1500 WEST POLK STREET","CHICAGO","IL","60607"
67439,"1500 WEST WASHINGTON BLVD","LOS ANGELES","CA","90007"
67440,"1500 WESTEC DR","EUGENE","OR","97402"
67441,"1500 WEXFORD PL","NAPERVILLE","IL","60564"
67442,"1500 WOLF LAKE RD","GRASS LAKE","MI","49240"
67443,"1500 WOODHAVEN DR","PROSPER","TX","75078"
67444,"1500 WOODWARD CT","BRENTWOOD","TN","37027"
67445,"15000 GOSSOM MANOR PL","HAYMARKET","VA","20169"
67446,"15000 GOSSOM MNORPL","HAYMARKET","VA","20169"
67447,"15000 GRADUATION DRIVE","HAYMARKET","VA","20169"
67448,"15000 LIVINGSTON RD C/O PARKS  REC","NAPLES","FL","34109"
67449,"15000 LOS GATOS BLVD SUITE 2","LOS GATOS","CA","95032"
67450,"15000 PARK ROW APT 1101","HOUSTON","TX","77084"
67451,"15000 POTOMAC TOWN PL STE 100232","WOODBRIDGE","VA","22191"
67452,"15000 SE CROSSCREEK COURT","DAMASCUS","OR","97089"
67453,"15000 SUN HILLS DRIVE","COLORADO SPRINGS","CO","80921"
67454,"15000 W AIRPORT BLVD APT 633","SUGAR LAND","TX","77498"
67455,"15000 W IH 10","SAN ANTONIO","TX","78249"
67456,"15000 WEST CLEVELAND AVENUE","NEW BERLIN","WI","53151"
67457,"15000 WEST DELMAR COURT","RATHDRUM","ID","83858"
67458,"15000 WOODINVILLEREDMOND RD STE 200","WOODINVILLE","WA","98072"
67459,"15001 CROSSWINDS DR APT 901","HOUSTON","TX","77032"
67460,"15001 DARNESTOWN RD","GERMANTOWN","MD","20874"
67461,"15001 KANIS ROAD","LITTLE ROCK","AR","72223"
67462,"15001 KERCHEVAL AVE","GROSS POINTE PARK","MI","48320"
67463,"15001 KERCHEVAL AVE","GROSSE POINTE PARK","MI","48230"
67464,"15001 PLUM TREE WAY","BOWIE","MD","20721"
67465,"15002 DUNTON DRIVE","WHITTIER","CA","90604"
67466,"15002 N 43RD ST","PHOENIX","AZ","85032"
67467,"15002 OAK ORCHARD RD","NEW WINDSOR","MD","21776"
67468,"15002 PONTIAC PL","KILN","MS","39556"
67469,"15002 RAINY MORNING DRIVE","HUMBLE","TX","77346"
67470,"15002 WINDWARD 203","CORPUS CHRISTI","TX","78418"
67471,"15003 MISTY SUMMER LANE","HUMBLE","TX","77346"
67472,"15003 ULDERIC DRIVE","CENTREVILLE","VA","20120"
67473,"15004 DUNLEIGH DRIVE","BOWIE","MD","20721"
67474,"15005 S 22ND ST","BELLEVUE","NE","68123"
67475,"15005 S JUPITER APT 812","ALLEN","TX","75002"
67476,"15005 SUSSEX ST","DETROIT","MI","48227"
67477,"15005 TRANQUIL PLACE","BIGFORK","MT","59911"
67478,"15006 BREEZY FOREST LANE","CYPRESS","TX","77433"
67479,"15006 PINE VISTA LANE","CHESTER","VA","23831"
67480,"15007 LIVE OAK BEND WAY","CYPRESS","TX","77429"
67481,"15007 S WOODCREST AVE","HOMER GLEN","IL","60491"
67482,"15007 SAVANNAH DRIVE","NAPLES","FL","34119"
67483,"15007 SW 10TH ST","SUNRISE","FL","33326"
67484,"15007 SW 80 TER","MIAMI","FL","33193"
67485,"15008 NE 16TH STREET","BELLEVUE","WA","98007"
67486,"15008 W SOUTHPORT RD","BRIMFIELD","IL","61517"
67487,"15009 BUTTERNCHURN LANE","SILVER SPRING","MD","20905"
67488,"15009 CATLIN-TILTON ROAD","DANVILLE","IL","61834"
67489,"15009 DANUBE WAY","HAYMARKET","VA","20169"
67490,"15009 E 46TH STREET S","INDEPENDENCE","MO","64055"
67491,"15009 MANCHESTER RD SUITE 138","BALLWIN","MO","63011"
67492,"15009 MANCHESTER STE 156","BALLWIN","MO","63011"
67493,"1501 104TH AVE CT E","EDGEWOOD","WA","98372"
67494,"1501 10TH AVE","ALBANY","GA","31707"
67495,"1501 16TH ST APT 312","SACRAMENTO","CA","95814"
67496,"1501 1ST AVENUE SOUTH SUITE 310","SEATTLE","WA","98134"
67497,"1501 1ST AVENUE","MIDDLETOWN","OH","45044"
67498,"1501 1ST COURT WEST","BIRMINGHAM","AL","35208"
67499,"1501 42ND STREET SUITE 446","WEST DES MOINES","IA","50266"
67500,"1501 76TH AVE N","ST PETERSBURG","FL","33702"
