"ID","Address","City","State","Zip"
15001,"10640 BIRD STONE CV","CORDOVA","TN","38016"
15002,"10640 CARVER DR","CUPERTINO","CA","95014"
15003,"10640 HIGHWAY 322 BELLVIEW RD","CLARKSDALE","MS","38614"
15004,"10640 MAIN STREET SUITE 200","FAIRFAX","VA","22030"
15005,"10640 N 28TH DR STE A107","PHOENIX","AZ","85029"
15006,"10640 PEPPERWOOD DRIVE","INDEPENDENCE","KY","41051"
15007,"10640 SATORI LN APT 426","JACKSONVILLE","FL","32256"
15008,"10640 SCRIPPS RANCH BLVD SUITE 200","SAN DIEGO","CA","92131"
15009,"10640 WOODBRIDGE STREET PH 4","TOLUCA LAKE","CA","91602"
15010,"10641 CLAUDE FREEMAN DRIVE","CHARLOTTE","NC","28262"
15011,"10641 Hampton Road","Orland Park","IL","60462"
15012,"10641 HOLMES DR","EL PASO","TX","79924"
15013,"10641 MOUNTAIN SPRINGS DR","CHARLOTTE","NC","28278"
15014,"10641 S HALE AVENUE UNIT 2","CHICAGO","IL","60643"
15015,"10641 STEPPINGTON DR APT 1004","DALLAS","TX","75230"
15016,"10641 VINCENT AVE S","BLOOMINGTON","MN","55431"
15017,"10641 WUNDERLICH DR","CUPERTINO","CA","95014"
15018,"10641BARBERRY DR","HAMPTON","GA","30228"
15019,"10643 CAMINITO BANYON","SAN DIEGO","CA","92131"
15020,"10643 VERMILION ROAD","OBERLIN","OH","44074"
15021,"10644 VISTA CAMINO","LAKESIDE","CA","92040"
15022,"10645 AMERY CT","INVER GROVE HEIGHTS","MN","55077"
15023,"10645 N ORACLE RD STE 121-113","ORO VALLEY","AZ","85737"
15024,"10645 N TATUM BLVD 200277","PHOENIX","AZ","85028"
15025,"10645 N TATUM BLVD 200608","PHOENIX","AZ","85028"
15026,"10645 N TATUM BLVD SUITE 200-463","PHOENIX","AZ","85028"
15027,"10645 N TATUM BLVD SUITE 200608","PHOENIX","AZ","85028"
15028,"10645 RANDOLPH STREET LOBBY B","CROWN POINT","IN","46307"
15029,"10646 HAVERFORD RD STE 9","JACKSONVILLE","FL","32218"
15030,"10646 WINDSOR COURT","ORLANDO","FL","32821"
15031,"10647 ALAMEDA AVENUE","INVER GROVE HEIGHTS","MN","55077"
15032,"10647 MISTFLOWER WAY","INDIANAPOLIS","IN","46235"
15033,"10647 S SHAENRIDGE","SAN ANTONIO","TX","78254"
15034,"10647 SE MATHER RD","CLACKAMAS","OR","97015"
15035,"10647 SW 76TH TERR","MIAMI","FL","33173"
15036,"10648 RED BARN DRIVE","BLACKWELL","MO","63626"
15037,"10648 REDBU LANE","JONESBORO","GA","30238"
15038,"10649 LACKMAN ROAD","LENEXA","KS","66219"
15039,"1065 24TH AVENUE SW SUITE 116","OWATONNA","MN","55060"
15040,"1065 A NC HWY 150 W","SUMMERFIELD","NC","27358"
15041,"1065 ACORN LANE","JAMES CREEK","PA","16657"
15042,"1065 ALTMAN WAY","IRON STATION","NC","28080"
15043,"1065 ASH ROAD","HOFFMAN ESTATES","IL","60169"
15044,"1065 AUGUSTA LANE","GREENVILLE","NC","27858"
15045,"1065 AVILA TERRAZA","FREMONT","CA","94538"
15046,"1065 BAKER AVE","SCHENECTADY","NY","12309"
15047,"1065 BIRDIE CIRCLE","NORTH SALT LAKE","UT","84054"
15048,"1065 BLUE BIRD LANE","WAKE FOREST","NC","27587"
15049,"1065 BLUFF VISTA DRIVE","COLUMBUS","OH","43235"
15050,"1065 BORGHESE LANE APT 902","NAPLES","FL","34114"
15051,"1065 BOULDER DRIVE","FLORISSANT","MO","63031"
15052,"1065 CENTRAL ST APT B","PALMER","MA","01069"
15053,"1065 CHARLES ST","CLEARWATER","FL","33755"
15054,"1065 CHIMNEY WAY","ROGERSVILLE","TN","37857"
15055,"1065 COLLINS AVENUE","MARYSVILLE","OH","43040"
15056,"1065 CONN DRIVE","EVANS","GA","30809"
15057,"1065 E BEAL AVE APT 54","BUCYRUS","OH","44820"
15058,"1065 E BOUTZ RD","LAS CRUCES","NM","88001"
15059,"1065 E BROADWAY ST SUITE 3","OVIEDO","FL","32765"
15060,"1065 E CRESCENT COURT","CHANDLER","AZ","85249"
15061,"1065 E FREELAND STREET","LONG BEACH","CA","90807"
15062,"1065 E WINDING CREEK DR SUITE 250","EAGLE","ID","83616"
15063,"1065 EAGLE CANYON DRIVE","SPARKS","NV","89441"
15064,"1065 EAST 146TH STREET","CLEVELAND","OH","44110"
15065,"1065 EAST FLAMINGO 1-404","LAS VEGAS","NV","89119"
15066,"1065 EVANGELINE LANE","VIDOR","TX","77662"
15067,"1065 GIBSON RD","BENSALEM","PA","19020"
15068,"1065 GORDON MOUNTAIN VIEW COURT","GRAFORD","TX","76449"
15069,"1065 GRANT AVENUE     NUMBER 1","BRONX","NY","10456"
15070,"1065 HIGHLAND OAKS DRIVE","SOUTHLAKE","TX","76092"
15071,"1065 HUFFAKER LN","RENO","NV","89511"
15072,"1065 KEOLU DR","KAILUA","HI","96734"
15073,"1065 N CARLING STREET","HILDALE","UT","84784"
15074,"1065 N OLD MILL RD","PALATINE","IL","60067"
15075,"1065 OLD COUNTRY ROAD STE 201","WESTBURY","NY","11590"
15076,"1065 PEACH DRIVE","OGDEN","UT","84404"
15077,"1065 PERALTA AVE","ALBANY","CA","94706"
15078,"1065 SHADY LANE","WILLIAMSTON","NC","27892"
15079,"1065 SHOWERS DR","NORTH VERNON","IN","47265"
15080,"1065 SKEES RD APT 1","WEST PALM BEACH","FL","33411"
15081,"1065 SOYER CIRCLE","FOREST","VA","24551"
15082,"1065 SW 8TH ST APT 1053","MIAMI","FL","33130"
15083,"1065 SW 8TH ST UNIT 309","MIAMI","FL","33130"
15084,"1065 W 46ST","MIAMI BEACH","FL","33140"
15085,"1065 W COPPER CT","ROSEBURG","OR","97471"
15086,"1065 W SIERRA MADRE AVE","GILBERT","AZ","85233"
15087,"1065 W WINONA STREET","CHICAGO","IL","60640"
15088,"10650 22ND PLACE S","SEATTLE","WA","98168"
15089,"10650 CLIFF RIDGE AVE","LAS VEGAS","NV","89129"
15090,"10650 CULEBRA RD 104 PMB109","SAN ANTONIO","TX","78251"
15091,"10650 CULEBRA RD 104-106","SAN ANTONIO","TX","78251"
15092,"10650 CULEBRA RD STE 104 PMB 129","SAN ANTONIO","TX","78251"
15093,"10650 CULEBRA RD STE 104/116","SAN ANTONIO","TX","78251"
15094,"10650 HAVERFORD ROAD - SUITE 6","JACKSONVILLE","FL","32218"
15095,"10650 NE 9TH PL UNIT 826","BELLEVUE","WA","98004"
15096,"10650 ROE BLVD SUITE 115","OVERLAND PARK","KS","66207"
15097,"10650 SE LOOP RD","DAYTON","OR","97114"
15098,"10652 CALSTON WAY","SAN DIEGO","CA","92126"
15099,"10652 COUNTY RD 15","LONGMONT","CO","80504"
15100,"10652 FOXEN WAY","HELOTES","TX","78023"
15101,"10652 NETTLETON ST","SUN VALLEY","CA","91352"
15102,"10652 RIVIERA PL NE","SEATTLE","WA","98125"
15103,"10653 CATAWBA AVENUE","FONTANA","CA","92337"
15104,"10655 BOONVILLE HIGHWAY","CHANDLER","IN","47610"
15105,"10655 FRANCES LN","LARGO","FL","33774"
15106,"10655 LAZY LAKE DRIVE","ORLANDO","FL","32821"
15107,"10655 N SHANNON RD","TUCSON","AZ","85742"
15108,"10655 NE 132ND PL","KIRKLAND","WA","98034"
15109,"10655 PARK RUN DRIVE","LAS VEGAS","NV","89144"
15110,"10655 WILKOW DRIVE  T 106","ORLANDO","FL","32821"
15111,"10656 KAMEHAMEHA V HWY","KAUNAKAKAI","HI","96748"
15112,"10656 PARK VILLAGE PLACE - B","DALLAS","TX","75230"
15113,"10656 SW 186 STREET","MIAMI","FL","33157"
15114,"10656 WEST COOK ROAD","FORT WAYNE","IN","46818"
15115,"10656 WILSON AVE","GRANDVILLE","MI","49315"
15116,"10657 MARINE VIEW DR SW","SEATTLE","WA","98146"
15117,"10657 MAYFLOWER ROAD","BLUE MOUNDS","WI","53517"
15118,"10657 MELODY DR","NORTHGLENN","CO","80234"
15119,"10657 TATTERSALL DRIVE","MANASSAS","VA","20112"
15120,"10659 BRIARLAKE WOODS DR","SAN DIEGO","CA","92130"
15121,"10659 WEST PICO BOULEVARD","LOS ANGELES","CA","90064"
15122,"1066 4TH ST","NORTH CATASAUQUA","PA","18032"
15123,"1066 BAINBRIDGE CIRCLE","CORONA","CA","92882"
15124,"1066 BIG CREEK CIR","NAMPA","ID","83686"
15125,"1066 BOGUE ST ROOM A286","EAST LANSING","MI","48824"
15126,"1066 BOWMANTOWN RD","ROXBORO","NC","27574"
15127,"1066 CHAPEL FORGE DRIVE","LANCASTER","PA","17601"
15128,"1066 CHRISTMAS PLACE","GREENSBORO","NC","27410"
15129,"1066 DAHLIA CT","TRACY","CA","95304"
15130,"1066 E 130TH AVE NORTH","MULVANE","KS","67710"
15131,"1066 E 2100 S 11","SALT LAKE CITY","UT","84106"
15132,"1066 E WALNUT CREEK ROAD","COVINA","CA","91724"
15133,"1066 GARDENVIEW LOOP SUITE 303","WOODBRIDGE","VA","22191"
15134,"1066 GREEN ACRES LANE","NEENAH","WI","54956"
15135,"1066 HANOVER STREET","MANCHESTER","NH","03104"
15136,"1066 HAYES DRIVE","GRAY COURT","SC","29645"
15137,"1066 HIGHWAY 162","BENTON","LA","71006"
15138,"1066 LCR 776","THORNTON","TX","76687"
15139,"1066 PENNSYLVANIA","ST. LOUIS","MO","63130"
15140,"1066 PIKE AVENUE","ATTLEBORO","MA","02703"
15141,"1066 PROSPECT ST","SHREVEPORT","LA","71104"
15142,"1066 RIGBY STREET","NORFOLK","VA","23504"
15143,"1066 RIVER BEND DR","COOKEVILLE","TN","38506"
15144,"1066 SARATOGA AVENUE SUITE 100","SAN JOSE","CA","95129"
15145,"1066 STATE ROUTE 213","HIGH FALLS","NY","12440"
15146,"1066 UNION STREET","BROOKLYN","NY","11225"
15147,"1066 VIKING DR","STONE MOUNTAIN","GA","30083"
15148,"1066 W GRAND RIVER AVE","HOWELL","MI","48843"
15149,"1066 WEST KING ROAD","MALVERN","PA","19355"
15150,"1066 WOODCROFT CHASE NW","MARIETTA","GA","30064"
15151,"10660 ALISON WAY","INVER GROVE HEIGHTS","MN","55077"
15152,"10660 COUNTY RD  293","LAKEVIEW","OH","43331"
15153,"10660 E CHANNELSIDE DR","TUCSON","AZ","85748"
15154,"10660 JACATREE COURT","LEHIGH ACRES","FL","33936"
15155,"10660 NW 56TH CT","CORAL SPRINGS","FL","33076"
15156,"10660 PORTLAND AVE SW","BEACH CITY","OH","44608"
15157,"10660 S TRYON STREET SUITE 12","CHARLOTTE","NC","28273"
15158,"10660 SOUTH TRYON STREET","CHARLOTTE","NC","28273"
15159,"10660 SW 44TH COURT","DAVIE","FL","33328"
15160,"10660 WASHINGTON STREET","PEMBROKE PINES","FL","33025"
15161,"10661 NE QUAYBRIDGE CT","MIAMI","FL","33138"
15162,"10661 SW 88 ST - SUITE 116","MIAMI","FL","33176"
15163,"10661 UTRILLO LANE","NORTHGLENN","CO","80234"
15164,"10663 HARVEST OAKS DR","COLLIERVILLE","TN","38017"
15165,"10663 LOVELAND-MADEIRA RD STE 107","LOVELAND","OH","45140"
15166,"10663 PORTER RD SE","AUMSVILLE","OR","97325"
15167,"10664 CEDARCREST CIRCLE","HIGHLANDS RANCH","CO","80130"
15168,"10665 DURLAND AVENUE NE","SEATTLE","WA","98125"
15169,"10665 MYRTLE OAK COURT","BURKE","VA","22015"
15170,"10665 STANHAVEN PLACE SUITE 300A","WHITEPLAINS","MD","20695"
15171,"10665 SW 190TH ST","MIAMI","FL","33157"
15172,"10665 SW 62 AVENUE","PINECREST","FL","33156"
15173,"10667 EASTBORNE AVE","LOS ANGELES","CA","90024"
15174,"10667 EL SILBIDO AVENUE","FOUNTAIN VALLEY","CA","92708"
15175,"10667 W JETER RD","FAYETTEVILLE","AR","72701"
15176,"10668 62ND AVENUE SOUTH","SEATTLE","WA","98718"
15177,"10668 GARDENA COURT","CUPERTINO","CA","95014"
15178,"10668 PINHOLSTER ROAD","JACKSONVILLE","FL","32218"
15179,"106685 S 3500 RD","PRAGUE","OK","74864"
15180,"10669 CANTERBERRY ROAD","FAIRFAX STATION","VA","22039"
15181,"1067 ALAKEA ST - 4TH FLOOR","HONOLULU","HI","96813"
15182,"1067 AVONDALE ST","SAN JOSE","CA","95129"
15183,"1067 COUNTY ROAD 407","STEPHENVILLE","TX","76401"
15184,"1067 CROMWELL LN","BELLEVILLE","IL","62221"
15185,"1067 E HWY 23 STE 96","WOODLAND PARK","CO","80863"
15186,"1067 E SECRETARIAT","DANVILLE","KY","40422"
15187,"1067 E US HIGHWAY 24 SUITE182","WOODLAND PARK","CO","80863"
15188,"1067 EMIGRANT CREEK ROAD","ASHLAND","OR","97520"
15189,"1067 FRANKLIN AVE","COLUMBUS","OH","43205"
15190,"1067 GOLD HILL DRIVE","SHOW LOW","AZ","85901"
15191,"1067 HEATH AVE NW","PALM BAY","FL","32907"
15192,"1067 HICKERNELL RD","ELLWOOD CITY","PA","16117"
15193,"1067 HOSBROOK ST","INDIANAPOLIS","IN","46203"
15194,"1067 LEXINGTON DRIVE","MOODY","AL","35004"
15195,"1067 MARKET STREET STE 1036","SAN FRANCISCO","CA","94103"
15196,"1067 N LINCOLN ST","ORANGE","CA","92867"
15197,"1067 OAK WOOD DR","CAROL STREAM","IL","60188"
15198,"1067 OLD YORK RD","RINGOES","NJ","08551"
15199,"1067 PARK AVENUE","BRIDGEPORT","CT","06604"
15200,"1067 RISING STAR DRIVE","BEDFORD","VA","24523"
15201,"1067 RUDYARD DRIVE","PERTH AMBOY","NJ","08861"
15202,"1067 S 1400 W","SALT LAKE CITY","UT","84104"
15203,"1067 SCOTT RD","KENLY","NC","27542"
15204,"1067 SHENANDOAH DRIVE SE","SALEM","OR","97301"
15205,"1067 SOUTH 1400 WEST","SALT LAKE CITY","UT","84104"
15206,"1067 US HIGHWAY 1","COLUMBIA FALLS","ME","04623"
15207,"1067 W MAIN STREET","CENTRAL","SC","29630"
15208,"1067 WEST SEAGATE DRIVE","DELTONA","FL","32725"
15209,"10670 114TH ST N","STILLWATER","MN","55082"
15210,"10670 ABRAMS DRIVE","COLORADO SPRINGS","CO","80925"
15211,"10670 ATRIUM DR","SAN DIEGO","CA","92131"
15212,"10670 COY STREET","ALDEN","MI","49612"
15213,"10670 LINTON ROAD","SANDERSVILLE","GA","31082"
15214,"10670 LINTON ROAD","WARTHEN","GA","31094"
15215,"10670 TUTTLEHILL RD","MILAN","MI","48160"
15216,"10670 WEYMOUTH STREET 2","BETHESDA","MD","20814"
15217,"10671 ERIE DRIVE","CROWN POINT","IN","46307"
15218,"10671 GEIST RIDGE COURT","FISHERS","IN","46040"
15219,"10672 S CRESCENT BEND DR","SANDY","UT","84070"
15220,"10673 LONG LEAF LANE","WALDORF","MD","20603"
15221,"10673 W LAKE HAZEL RD 1023","BOISE","ID","83709"
15222,"10673 W LAKE HAZEN SUITE 7","BOISE","ID","83709"
15223,"10674 SELLERS CIR","STOCKTON","CA","95209"
15224,"10675 8TH AVE","HESPERIA","CA","92345"
15225,"10675 CALLE MAR DE MARIPOSA 1109","SAN DIEGO","CA","92130"
15226,"10675 NW 45TH ST","CORAL SPRINGS","FL","33065"
15227,"10676 26TH AVE NW","ANTLER","ND","58711"
15228,"10676 MISTY MEADOWS DRIVE","HAMPTON","GA","30228"
15229,"10677 ESSEX SQUARE BLVD","FORT MYESR","FL","33913"
15230,"10678 PALM SPRING DRIVE","BOCA RATON","FL","33428"
15231,"10679 LAKE IAMONIA DRIVE","TALLAHASSEE","FL","32312"
15232,"10679 MELODY PLACE","ADELANTO","CA","92301"
15233,"1067B STEVENSON STREET","COLTON","CA","92324"
15234,"1068 12TH STREET","SYRACUSE","NE","68446"
15235,"1068 AL ROBERTS RD","SENOIA","GA","30276"
15236,"1068 BARONA ROAD","LAKESIDE","CA","92040"
15237,"1068 BECKLEY DR","WILLIAMSTOWN","NJ","08094"
15238,"1068 BRIAR CREST DR","NEW ULM","TX","78950"
15239,"1068 CALLE GONZALEZ 102","SAN JUAN","PR","00925"
15240,"1068 CARLISLE HIGHWAY","CHARLOTTE","MI","48813"
15241,"1068 CRAWFORD STREET","ARCADIA","LA","71001"
15242,"1068 DARREN CIR E","CORDOVA","TN","38018"
15243,"1068 EAST CROOKED CREEK DRIVE","WASHINGTON","UT","84780"
15244,"1068 FASSLER AVENUE","PACIFICA","CA","94044"
15245,"1068 HAZEL DR","LAWRENCEBURG","KY","40342"
15246,"1068 HICKORY GLEN RD","WINSTON SALEM","NC","27106"
15247,"1068 IVORYHILL DRIVE","INDEPENDENCE","KY","41051"
15248,"1068 LAKESIDE DRIVE","FORT TOWSON","OK","74735"
15249,"1068 NORTH 100 EAST","CHESTERTON","IN","46304"
15250,"1068 NORTH DAVIS AVE","WEED","CA","96094"
15251,"1068 NORTH VINE STREET","HAZLE TWP","PA","18202"
15252,"1068 OAKLAWN DRIVE","CULPEPER","VA","22701"
15253,"1068 OLD CREEK CT","ELGIN","IL","60120"
15254,"1068 RUSHLEIGH RD","CLEVELAND HEIGHTS","OH","44121"
15255,"1068 SEVEN HILLS CURV","MOBILE","AL","36695"
15256,"1068 TOM LEDBETTER RD","WACO","TX","76712"
15257,"1068 W 560 N","ST GEORGE","UT","84770"
15258,"1068 WEST ONONDAGA STREET","SYRACUSE","NY","13204"
15259,"1068 WINDING DOWN WAY","GRAYSON","GA","30017"
15260,"1068 WINDSOR RD","TERRE HAUTE","IN","47802"
15261,"10680 WASHINGTON STREET APT 108","PEMBROKE PINES","FL","33025"
15262,"10681 HUNTERS RIDGE TRAIL SW","NISSWA","MN","56468"
15263,"10682 HEATHER RIDGE DRIVE","SAN DIEGO","CA","92130"
15264,"10682 TWO NOTCH RD APT 6204","ELGIN","SC","29045"
15265,"10684 BARBERRY DRIVE","HAMPTON","GA","30228"
15266,"10684-A CRESTWOOD DR","MANASSAS","VA","20109"
15267,"10685-B HAZELHURST DRIVE STE 22364","HOUSTON","TX","77043"
15268,"10688 GREEN MOUNTAIN CIRCLE","COLUMBIA","MD","21044"
15269,"10689 HIGH BEAM CT","COLUMBIA","MD","21044"
15270,"10689 HIGHLAND DR","INDIANAPOLIS","IN","46280"
15271,"10689 NORTH KENDALL DRIVE SUITE 307","MIAMI","FL","33176"
15272,"10689 WAKEMAN COURT","MANASSAS","VA","20110"
15273,"1069 ADAMS STREET SE","OLYMPIA","WA","98501"
15274,"1069 AMHERST BLVD","LONDON","OH","43140"
15275,"1069 BUCKINGHAM AVENUE","LINCOLN PARK","MI","48146"
15276,"1069 BUCKINGHAM","LINCOLN PARK","MI","48146"
15277,"1069 CALICO AVE","BILLINGS","MT","59105"
15278,"1069 E 90TH AVE NORTH","BELLE PLAINE","KS","67013"
15279,"1069 E 95TH STREET","BROOKLYN","NY","11355"
15280,"1069 EAGLE BLVD","HASLET","TX","76052"
15281,"1069 ELNO AVE","KENT","OH","44240"
15282,"1069 FAXON","MEMPHIS","TN","38107"
15283,"1069 GOLDEN GATE AVE  APT F","SAN FRANCISCO","CA","94115"
15284,"1069 HILLSBORO MILE UNIT 502","HILLSBORO BEACH","FL","33062"
15285,"1069 LAKEFIELD WALK","MARIETTA","GA","30064"
15286,"1069 MAIN STREET","SEBASTIAN","FL","32958"
15287,"1069 MARTIN LUTHER KING JR DRIVE NW","ATLANTA","GA","30314"
15288,"1069 MOUNTAIN RD","STOWE","VT","05672"
15289,"1069 N 900 E","GREENTOWN","IN","46936"
15290,"1069 NORTH 38TH STREET","BATON ROUGE","LA","70802"
15291,"1069 NORTH D STREET","SAN BERNARDINO","CA","92410"
15292,"1069 SEABOARD AVENUE APT 20","ATLANTA","GA","30307"
15293,"1069 SHERREN ST WEST","ST","MN","55113"
15294,"1069 W ARGYLE STREET","CHICAGO","IL","60640"
15295,"1069 W BROAD ST","COLUMBUS","OH","43222"
15296,"1069 WILSON AVE","TEANECK","NJ","07666"
15297,"1069 WINDING CREEK","CEDAR HILL","TX","75104"
15298,"1069 WINTER LANE","TALLAHASSEE","FL","32311"
15299,"10691 100TH AVE N","MAPLE GROVE","MN","55369"
15300,"10691 CR 33A","WAPAKONETA","OH","45895"
15301,"10691 DEER RUN DRIVE","GRAFTON","OH","44044"
15302,"10691 DEERSHADOW LANE","CINCINNATI","OH","45242"
15303,"10692 90TH STREET","OTTUMWA","IA","52501"
15304,"10692 HADDINGTON DR STE 100","HOUSTON","TX","77043"
15305,"10692 HADDINGTON DR STE 100","HOUSTON","TX","77429"
15306,"10692 N POLAR LANE","LITTLETON","CO","80125"
15307,"10693 WATER FALLS LN","VIENNA","VA","22182"
15308,"10694 SOMERSET RD","THORNVILLE","OH","43076"
15309,"10695 DEAN MARTIN DR/  UNIT 1181","LAS VEGAS","NV","89141"
15310,"10696 LIGHOUSE PT","SOUTH LYON","MI","48178"
15311,"10696 SANTA LAGUNA DR","BOCA RATON","FL","33428"
15312,"10696-A CRESTWOOD DR","MANASSAS","VA","20109"
15313,"10697 OLD HAMMOCK WAY","WELLINGTON","FL","33414"
15314,"10698 E BAILS PL","AURORA","CO","80012"
15315,"10698 SPLIT OAK DRIVE","NORTHPORT","AL","35475"
15316,"10699 US RT 60  SUITE 43","ASHLAND","KY","41102"
15317,"106A MORRIS STREET","FORT VALLEY","GA","31030"
15318,"106A N JEFFERSON AVENUE","EATONTON","GA","31024"
15319,"106A N MAIN STREET","PONTOTOC","MS","38863"
15320,"107  WHEELER AVENUE","BROCKTON","MA","02301"
15321,"107 1/2 COURTHOUSE SQUARE","EDGEFIELD","SC","29824"
15322,"107 1/2 SOUTH MAIN STREET","FAIRFIELD","IA","52556"
15323,"107 11TH ST NW","ROCHESTER","MN","55901"
15324,"107 13TH STREET","LYNCHBURG","VA","24504"
15325,"107 1ST ST SOUTH SUITE 307","CHARLOTTESVILLE","VA","22902"
15326,"107 2ND STREET","SPRINGDALE","MT","59082"
15327,"107 3RD ST","GRUVER","IA","51334"
15328,"107 5TH AVENUE NW","FORT PAYNE","AL","35967"
15329,"107 7TH AVE NW","RONAN","MT","59864"
15330,"107 A CLIFTON STREET","KERNERSVILLE","NC","27284"
15331,"107 ABBEY ROAD","WAXAHACHIE","TX","75165"
15332,"107 ABBEY TERRACE","DREXEL HILL","PA","19026"
15333,"107 ABBY LANE","PORT ORANGE","FL","32127"
15334,"107 ALICE DRIVE APT 7","THIBODAUX","LA","70301"
15335,"107 ALICE STREET","ESSEX","IA","51638"
15336,"107 ALLISON AVENUE","HOHENWALD","TN","38462"
15337,"107 ALPINE TERRACE","OAKLAND","CA","94618"
15338,"107 AMBER STREET","FITZGERALD","GA","31750"
15339,"107 ANNALISE DR","CLARKSVILLE","TN","37043"
15340,"107 APOLLO LANE","MILTON","DE","19968"
15341,"107 ARAPAHO DR","KATHLEEN","GA","31047"
15342,"107 ARCHDEACON AVENUE","CARLISLE","KY","40311"
15343,"107 ARLINGTON ROW","MACON","GA","31210"
15344,"107 ASHFORD PLACE 2524","WEST MONROE","LA","71055"
15345,"107 ASHFORD PLACE","GREENWOOD","SC","29646"
15346,"107 ATFIELD WAY","FOLSOM","CA","95630"
15347,"107 AUBURN TRACE POINTE","ST PETERS","MO","63376"
15348,"107 AVENUE LOUIS PASTEUR BOX 121","BOSTON","MA","02115"
15349,"107 AVON DRIVE","HUBERT","NC","28539"
15350,"107 B EAST DAVIS STREET","CULPEPER","VA","22701"
15351,"107 B PINEVIEW AVE","SEVERNA PARK","MD","21146"
15352,"107 BAINBRIDGE CROSSING","CANTON","MS","39046"
15353,"107 BAYBERRY HILLS","MCDONOUGH","GA","30253"
15354,"107 BAYVIEW ROAD","MANHASSET","NY","11030"
15355,"107 BEACON RD","MIDDLE RIVER","MD","21220"
15356,"107 BEEBE POND ROAD","CANAAN","NY","12029"
15357,"107 BEECHWOOD DRIVE","ROANOKE RAPIDS","NC","27870"
15358,"107 BELLE VALLEE DRIVE","COLUMBUS","MS","39705"
15359,"107 BERTRON ROAD","FLEMINGTON","NJ","08822"
15360,"107 BEULAH DR","DANVILLE","WV","25053"
15361,"107 BLACKWOOD LANE","DOUGLASSVILLE","PA","19518"
15362,"107 BLUE FLAG COURT","WHITEHOUSE STATION","NJ","08889"
15363,"107 BREEZEWAY LANE","GREENSBORO","NC","27405"
15364,"107 BRIARWOOD DR","DALTON","OH","44618"
15365,"107 BROADWAY","CHESTERTON","IN","46304"
15366,"107 BROADWELL ROAD","BOAZ","AL","35956"
15367,"107 BROOKFIELD DRIVE","GREENWOOD","SC","29646"
15368,"107 BROOKSHIRE CT","KINGSLAND","GA","31548"
15369,"107 BROOKSIDE DR","NEW PROVIDENCE","NJ","07974"
15370,"107 BROWNING COURT","LEESBURG","GA","31763"
15371,"107 CAMBRIDGE DR N","GRIFFIN","GA","30224"
15372,"107 CANNON VIEW DR","RED WING","MN","55066"
15373,"107 CAPE CHARLES COURT","NINETY SIX","SC","29666"
15374,"107 CARLS LANE","KOSCIUSKO","MS","39090"
15375,"107 CAROLINA CLOSE DRIVE","FRANKLIN","TN","37069"
15376,"107 CASS STREET SUITE A","TRAVERSE CITY","MI","49684"
15377,"107 CASSELL ROAD","OLIVER SPRINGS","TN","37840"
15378,"107 CATHERINE AVE","MAHWAH","NJ","07430"
15379,"107 CEDAR SPRINGS TRAIL","HENDERSONVILLE","TN","37075"
15380,"107 CENTENNIAL STREET STE 102A","LA PLATA","MD","20646"
15381,"107 CHELSEA CT","PHOENIX","OR","97535"
15382,"107 CHERRY STREET","WEST ORANGE","NJ","07052"
15383,"107 CHERRYWOOD DRIVE","NASHUA","NH","03062"
15384,"107 CHESAPEAKE BLVD SUITE 112","ELKTON","MD","21921"
15385,"107 CHESTNUT RIDGE DR","BEAVER FALLS","PA","15010"
15386,"107 CHESTNUT STREET","BOSTON","MA","02108"
15387,"107 CHESTNUT STREET","WILMINGTON","NC","28401"
15388,"107 CHETSWORTH LANE","GREENVILLE","SC","29607"
15389,"107 CHURCHCLIFF DRIVE","WOODSTOCK","GA","30188"
15390,"107 CLUB CENTRE COURT APT 4","EDWARDSVILLE","IL","62025"
15391,"107 CLUBSTONE LANE","CARY","NC","27518"
15392,"107 COAL HOLLOW ROAD","GREENSBURG","PA","15601"
15393,"107 COLUMBIANA ROAD","HOMEWOOD","AL","35209"
15394,"107 COLVILLE CT","WINNABOW","NC","28479"
15395,"107 COLWELL AVE","HAMMONTON","NJ","08037"
15396,"107 CONCORD ST","HOLLISTON","MA","01746"
15397,"107 CONLEY STREET","MORGANTON","NC","28655"
15398,"107 CONNIE DR","HENDERSONVILLE","TN","37075"
15399,"107 CONVENT ROAD","SYOSSET","NY","11791"
15400,"107 CORNELIA LANE","MILFORD","PA","18337"
15401,"107 COTTAGE HILL AVENUE","BUTLER","PA","16001"
15402,"107 COUNTRY KITCHEN ROAD","BARNESVILLE","GA","30204"
15403,"107 COUNTY ROAD 4433","BOSS","MO","65440"
15404,"107 COURT SQUARE WEST","COVINGTON","TN","38019"
15405,"107 CRANBURY RD","BRICK","NJ","08724"
15406,"107 CREEKRIDGE PL","COLONIAL HEIGHTS","VA","23834"
15407,"107 CRESCENT AVE","LOUISVILLE","KY","40206"
15408,"107 CRESTVIEW DRIVE","MORGANTOWN","WV","26505"
15409,"107 CROMWELL COURT","SUMMERVILLE","SC","29485"
15410,"107 CRYSTAL FALLS WAY","BERLIN","CT","06037"
15411,"107 CULPEEPER LANE","EASLEY","SC","29642"
15412,"107 CYNTHIA STREET","CLINTON","MS","39056"
15413,"107 CYPRESS DRIVE","DOTHAN","AL","36301"
15414,"107 DARTMOUTH AVE","SAN CARLOS","CA","94070"
15415,"107 DAVIS STREET APT  6","ANCHORAGE","AK","99508"
15416,"107 DEAN ST","WOODSTOCK","IL","60098"
15417,"107 DEMERE OAKS CIRCLE","SAINT SIMONS ISLAND","GA","31522"
15418,"107 DEPOT LOOP","LYNCH","KY","40855"
15419,"107 DIAL STREET","LAURENS","SC","29360"
15420,"107 DICKENSON CT","STEPHENS CITY","VA","22655"
15421,"107 DORCHESTER ROAD","LOUISVILLE","KY","40223"
15422,"107 DUFF DR","YORKTOWN","VA","23692"
15423,"107 E 17TH ST REAR","CONNERSVILLE","IN","47331"
15424,"107 E 2ND STREET","DEWITT","IA","52742"
15425,"107 E 80TH STREET","KANSAS CITY","MO","64114"
15426,"107 E BASELINE RD STE A2","TEMPE","AZ","85283"
15427,"107 E BEARD AVE","SYRACUSE","NY","13205"
15428,"107 E CENTER ST","WHITE OAK","TX","75693"
15429,"107 E COKER LN","CONWAY","SC","29526"
15430,"107 E ELIZABETH ST","CIMARRON","KS","67835"
15431,"107 E ELM ST","OXFORD","KS","67119"
15432,"107 E GARVEY AVE APT 287","MONTEREY PARK","CA","91755"
15433,"107 E MAIN STREET","PICKENS","SC","29671"
15434,"107 E MAIN STREET","SMITHVILLE","MO","64089"
15435,"107 E MARTIN L KING","MOUND BAYOU","MS","38762"
15436,"107 E PINE ST","HOUSTON","MO","65483"
15437,"107 E PRICE RD SUITE A2","BROWNSVILLE","TX","78521"
15438,"107 E SWEETWATER CREEK DR","LONGWOOD","FL","32779"
15439,"107 E SWEETWATER CREEK DRIVE","LONGWOOD","FL","32779"
15440,"107 E WALL STREET","CREEDE","CO","81130"
15441,"107 E WILSON AVE","NORFOLK","NE","68701"
15442,"107 EAST  126TH STREET APT 7F","NEW YORK","NY","10035"
15443,"107 EAST 126 STREET 8T","NEW YORK","NY","10035"
15444,"107 EAST 126 STREET","NEW YORK","NY","10035"
15445,"107 EAST 14TH STREET","CLAY CITY","IN","47841"
15446,"107 EAST 1ST STREET","CLE ELUM","WA","98922"
15447,"107 EAST 2ND STREET","BROOKLYN","NY","11218"
15448,"107 EAST BROADWAY 2/F","NEW YORK","NY","10002"
15449,"107 EAST E STREET","RANDOLPH","IA","51649"
15450,"107 EAST MAIN STREET","UNIONTOWN","PA","15401"
15451,"107 EAST MAPLE STREET","MCBAIN","MI","49657"
15452,"107 EAST MEADOWBROOK DRIVE","RED BANK","TN","37415"
15453,"107 EAST SECOND STREET","BOUND BROOK","NJ","08805"
15454,"107 ELM RD","BARRINGTON","IL","60010"
15455,"107 EMERALD CT","ROYAL PALM BCH","FL","33411"
15456,"107 EQUESTRIAN CT","FORSYTH","GA","31029"
15457,"107 ERNEST STREET","NORTH MASSAPEQUA","NY","11758"
15458,"107 ESTANCIAS DE SANTA MARIA","MANATI","PR","00674"
15459,"107 ESTATES WAY","WARNER ROBINS","GA","31088"
15460,"107 EVENINGWIND DR","MARION","AR","72364"
15461,"107 EVERGREEN RD","NEW EGYPT","NJ","08533"
15462,"107 FAIRFILED CIRCLE EAST","ROYERSFORD","PA","19468"
15463,"107 FEDERAL HILL RD","HOLLIS","NH","03049"
15464,"107 FEDERAL ST","MILTON","DE","19968"
15465,"107 FENLEY AVE  APT D10","LOUISVILLE","KY","40207"
15466,"107 FERN CT","DANVILLE","CA","94506"
15467,"107 FIELDSTONE CT","CHAPEL HILL","NC","27514"
15468,"107 FLAMINGO AVENUE","STUART","FL","34996"
15469,"107 FLYING HILLS CIRCLE","CARY","NC","27513"
15470,"107 FLYNN ROAD","WESTVILLE","IN","46391"
15471,"107 FOUNDRY ST","COATESVILLE","PA","19320"
15472,"107 FOXCREST COURT","CARY","NC","27513"
15473,"107 FOXWOOD COURT","NORTH AUGUSTA","SC","29860"
15474,"107 GEISSINGER AVENUE","MILLVILLE","NJ","08332"
15475,"107 GEORGE STREET","SARATOGA SPRINGS","NY","12866"
15476,"107 GILBERT STREET","GARDEN GROVE","CA","92841"
15477,"107 GLADE SHADOW DR","EULESS","TX","76039"
15478,"107 GLOSTER MILL WAY","LAWRENCEVILLE","GA","30044"
15479,"107 GOVERNOR FORAKER PLACE","HILLSBORO","OH","45133"
15480,"107 GRAEME DR","NASHVILLE","TN","37214"
15481,"107 GRANT AVE","WHEELING","WV","26003"
15482,"107 GRAY ROAD","NORTH YARMOUTH","ME","04097"
15483,"107 GREEN FERN LANE","BOONSBORO","MD","21713"
15484,"107 GREENWOOD TRACE","FAIRBURN","GA","30213"
15485,"107 GREYFIELD LANE","SANDY SPRINGS","GA","30350"
15486,"107 GROSBEAK CT","LAKE FREDERICK","VA","22630"
15487,"107 GROSS STREET","KINGSTON","NY","12401"
15488,"107 GROVE ST","MORRISVILLE","PA","19067"
15489,"107 GULF DRIVE","DUNANSVILLE","PA","16635"
15490,"107 GULLANE","WILLIAMSBURG","VA","23188"
15491,"107 HARRISON RD","PARSIPPANY","NJ","07054"
15492,"107 HARTMAN ROAD","DANVILLE","PA","17821"
15493,"107 HARVARD STREET","MONROE","NC","28112"
15494,"107 HENDRICKSON AVENUE","ROCKVILLE CENTRE","NY","11570"
15495,"107 HIDDEN SPRINGS CIRCLE","KISSIMMEE","FL","34743"
15496,"107 HIGHLAND AVENUE","NEPTUNE","NJ","07753"
15497,"107 HIGHWAY TO BAY BLVD","SAFETY HARBOR","FL","34695"
15498,"107 HILLMAN RD","COLRAIN","MA","01340"
15499,"107 HILLVIEW DRIVE","WOODBURY","TN","37190"
15500,"107 HINDMAN STREET","EDGEWOOD","TX","75117"
