"ID","Address","City","State","Zip"
86001,"1726 SUMTER ST","COLUMBIA","SC","29201"
86002,"1726 SUMTER STREET","COLUMBIA","SC","29080"
86003,"1726 SURREY LANE","POMONA","CA","91768"
86004,"1726 SW 43RD TERRACE","CAPE CORAL","FL","33914"
86005,"17260 WILLOW BROOK LN","FORT MYERS","FL","33913"
86006,"17265 NW 130TH CT","PLATTE CITY","MO","64079"
86007,"17265 SE WAX RD SUITE 103","COVINGTON","WA","98065"
86008,"17265 WOOD RD","RIVERSIDE","CA","92508"
86009,"17267 FLINT FARM DR","ROUND HILL","VA","20141"
86010,"17267 HWY 690","CUSTER","KY","40115"
86011,"17267 SUFFIELD DRIVE","CLINTON TOWNSHIP","MI","48038"
86012,"17269 MELROSE STREET","SOUTHFIELD","MI","48075"
86013,"17269 ZENA AVE","MONTE SERENO","CA","95030"
86014,"1727 8A SARDIS RD N 102","CHARLOTTE","NC","28270"
86015,"1727 ANDREO AVE","TORRANCE","CA","90501"
86016,"1727 AVENIDA LOS GRIEGOS NW","ALBUQUERQUE","NM","87107"
86017,"1727 E 107TH STREET","LOS ANGELES","CA","90002"
86018,"1727 E 25TH AVENUE","DENVER","CO","80205"
86019,"1727 EAGLE RIVER TRAIL","LANCASTER","TX","75146"
86020,"1727 EAST 107TH STREET","LOS ANGELES","CA","90002"
86021,"1727 ERIE ST","NEW ORLEANS","LA","70114"
86022,"1727 FOREST CREEK ROAD","AUGUSTA","GA","30909"
86023,"1727 GIRARD AVE N","MINNEAPOLIS","MN","55411"
86024,"1727 GODWIN DR","NEWARD","DE","19702"
86025,"1727 JEFFERSON ST","TELL CITY","IN","47586"
86026,"1727 KAHAI ST","HONOLULU","HI","96819"
86027,"1727 KENWOOD AVENUE","NEW HAMPTON","IA","50659"
86028,"1727 MARSH TRAIL CIR","ATLANTA","GA","30328"
86029,"1727 MASSACHUSETTS AVE NW APT 501","WASHINGTON","DC","20036"
86030,"1727 MCKNIGHT MILL RD","GREENSBORO","NC","27405"
86031,"1727 MESA VERDE SUITE 120","VENTURA","CA","93003"
86032,"1727 MILL POND DR","SALEM","VA","24153"
86033,"1727 MONTANA AVE NE","WASHINGTON","DC","20018"
86034,"1727 N COLONY RD","EVANSVILLE","IN","47715"
86035,"1727 N MAIN ST","RACINE","WI","53402"
86036,"1727 NORTH MADISON AVENUE","PASADENA","CA","91104"
86037,"1727 NORTHSHORE DRIVE","MISSOURI CITY","TX","77459"
86038,"1727 OAKBURY DR","MISSOURI CITY","TX","77489"
86039,"1727 ROCKYBEND DRIVE","SACRAMENTO","CA","95833"
86040,"1727 S ROCKY RIDGE DR","SPOKANE VALLEY","WA","99212"
86041,"1727 SAINT CLOUD STREET","LA CROSSE","WI","54603"
86042,"1727 SANRIDGE WIND LANE","CHARLOTTE","NC","28262"
86043,"1727 SEIFRIED ST APT B","NASHVILLE","TN","37208"
86044,"1727 SHADYBROOK RD","CHARLESTON","WV","25314"
86045,"1727 SOUTHRIDGE DRIVE","JEFFERSON CITY","MO","65109"
86046,"1727 STEAMBOAT RUN RD","SHEPHERDSTOWN","WV","25443"
86047,"1727 STEPHENSON STREET","MARINETTE","WI","54143"
86048,"1727 W 163RD ST","MARKHAM","IL","60428"
86049,"1727 W SPRUCE STREET","TAMPA","FL","33607"
86050,"1727 WEBSTER STREET NW","WASHINGTON","DC","20011"
86051,"1727 ZION CHURCH RD","MOUNT OLIVE","NC","28365"
86052,"17270 89TH PLACE N","LOXAHATCHEE","FL","33470"
86053,"17271 BROOKHURST ST A","FOUNTAIN VALLEY","CA","92708"
86054,"17271 BROOKHURST STREET","FOUNTAIN VALLEY","CA","92708"
86055,"17272 FUTCH WAY","WESTFIELD","IN","46074"
86056,"17272 NE 104TH STREET","REDMOND","WA","98052"
86057,"17275 COLONIAL PARK DRIVE","MONUMENT","CO","80132"
86058,"17275 E DEWBERRY CIR","PARKER","CO","80134"
86059,"17275 REDWING BLVD","HASTINGS","MN","55033"
86060,"17275 STRATFORD DRIVE","SOUTHFIELD","MI","48075"
86061,"17275 SW LOMA VISTA ST","ALOHA","OR","97007"
86062,"17277 PHLOX DRIVE","FORT MYERS","FL","33967"
86063,"17279 LOWERY RD","GULFPORT","MS","39503"
86064,"1728 1ST AVENUE APT 20138","NEW YORK","NY","10128"
86065,"1728 BARFIELD RUN NW","ATLANTA","GA","30318"
86066,"1728 BRIGHTSEAT RD APT 103","HYATTSVILLE","MD","20785"
86067,"1728 BRIGHTSEAT ROAD UNIT 103","HYATTSVILLE","MD","20785"
86068,"1728 CARVELLE DR","RIVIERA BEACH","FL","33404"
86069,"1728 CEDAR GLEN DR","LIBERTYVILLE","IL","60048"
86070,"1728 CENTERAL AVENUE SUITE 5","FORT DODGE","IA","50501"
86071,"1728 CONLEY TRACE","CONLEY","GA","30288"
86072,"1728 COUNTY ROUTE 41","PULASKI","NY","13142"
86073,"1728 DEKALB STREET","NORRISTOWN","PA","19401"
86074,"1728 E  ARROYO SECO","COTTONWOOD","AZ","86326"
86075,"1728 E 86TH ST STE 100","INDIANAPOLIS","IN","46240"
86076,"1728 E BARSTOW AVE APT 205","FRESNO","CA","93710"
86077,"1728 E IRLO BRONSON MEMORIAL HWY","SAINT CLOUD","FL","34771"
86078,"1728 GENESIS DRIVE","DUBLIN","GA","31021"
86079,"1728 GREEN DOWNS DR","RALEIGH","NC","27613"
86080,"1728 HEMPHILL DRIVE","DALLAS","TX","75216"
86081,"1728 LOGIE AVE","CHARLOTTE","NC","28205"
86082,"1728 MAIN ST","COLUMBIA","SC","29201"
86083,"1728 MONROE STREET","SAGINAW","MI","48602"
86084,"1728 N COLTON DRIVE","PRESCOTT VALLEY","AZ","86314"
86085,"1728 NE 2ND AVE UNIT 2","FORT LAUDERDALE","FL","33305"
86086,"1728 NW 43RD STREET","MIAMI","FL","33142"
86087,"1728 O AVE NW","CEDAR RAPIDS","IA","52405"
86088,"1728 OCEAN AVE SUITE 369","SAN FRANCISCO","CA","94110"
86089,"1728 OCEAN AVENUE BOX 158","SAN FRANCISCO","CA","94112"
86090,"1728 OCEAN AVENUE PMB 154","SAN FRANCISCO","CA","94112"
86091,"1728 OXMOOR ROAD","BIRMINGHAM","AL","35209"
86092,"1728 PEGGIO LANE UNIT 1","MISSOULA","MT","59802"
86093,"1728 PICKET STREET","CHARLESTON","SC","29412"
86094,"1728 PILGRIM ST","DETROIT","MI","48238"
86095,"1728 RIVERGATE TERRACE","SODDY DAISY","TN","37379"
86096,"1728 S 46TH STREET STE 101","ROGERS","AR","72758"
86097,"1728 S CARSON AVE","TULSA","OK","74119"
86098,"1728 S RICHEY ST","PASADENA","TX","77502"
86099,"1728 SAVONA LN","EDMOND","OK","73034"
86100,"1728 SENA STREET","DENTON","TX","76201"
86101,"1728 SOUTH CARSON AVENUE","TULSA","OK","74119"
86102,"1728 STANFORD RD","OAK PARK","MI","48072"
86103,"1728 SW 49TH TERRACE","CAPE CORAL","FL","33914"
86104,"1728 TIFFANY LANE","CINCINNATI","OH","45230"
86105,"1728 TIMBER HEIGHTS DR","INDIANAPOLIS","IN","46280"
86106,"1728 W BELFIELD AVE","PHILADELPHIA","PA","19138"
86107,"1728 W MISSION ROAD","ESCONDIDO","CA","92029"
86108,"1728 W ROSEHILL APT 2A","CHICAGO","IL","60660"
86109,"1728 WHISPERING OAKS DRIVE","OGDEN","UT","84403"
86110,"1728 WILDBERRY DR UNIT A","GLENVIEW","IL","60025"
86111,"1728 YELLOW ROCK RD","DE SOTO","MO","63020"
86112,"17280 BRECKENRIDGE DR","CLINTON TWP","MI","48038"
86113,"17280 NEWHOPE ST UNIT 6","FOUNTAIN VALLEY","CA","92708"
86114,"17281 WEST 54TH PL","GOLDEN","CO","80403"
86115,"17283 HAYES HOLLOW ROAD","WEST FALLS","NY","14170"
86116,"17283 HENLEY RD","JAMAICA","NY","11432"
86117,"17284 EUCLID ST C","FOUNTAIN VALLEY","CA","92708"
86118,"1729 ALABAMA AVE SE APT 203","WASHINGTON","DC","20020"
86119,"1729 BERNARD STREET","MERRICK","NY","11566"
86120,"1729 CHARISE CT","LAWRENCE","KS","66046"
86121,"1729 CRESTWOOD BLVD","IRONDALE","AL","35210"
86122,"1729 CULLOM STREET SOUTH APT E","BIRMINGHAM","AL","35205"
86123,"1729 E 15TH STREET APT 7","OAKLAND","CA","94606"
86124,"1729 E REDWOOD AVE","ANAHEIM","CA","92805"
86125,"1729 FAIRRIDGE CIRCLE","WEST COVINA","CA","91792"
86126,"1729 FAIRVIEW AVE","WILLOW GROVE","PA","19090"
86127,"1729 GABLE VIEW STREET","PALMDALE","CA","93550"
86128,"1729 GENESIS DRIVE","DUBLIN","GA","31021"
86129,"1729 GRAND RUE DRIVE","CASSELBERRY","FL","32707"
86130,"1729 GROSS ROAD","MESQUITE","TX","75149"
86131,"1729 HIDDEN FOREST LANE","JACKSONVILLE","FL","32225"
86132,"1729 KATO WAY","KISSIMMEE","FL","34744"
86133,"1729 LONG SHADOWS CT APT 1126","WOODBRIDGE","VA","22192"
86134,"1729 N 38TH ST","MILWAUKEE","WI","53208"
86135,"1729 NW 126TH DRIVE","CORAL SPRINGS","FL","33071"
86136,"1729 NW ST LUCIE W BLVD UNIT 1053","PORT SAINT LUCIE","FL","34986"
86137,"1729 PARKVIEW GREEN CIRCLE","SAN JOSE","CA","95131"
86138,"1729 QUAIL COURT","WOODSTOCK","IL","60098"
86139,"1729 QUAIL RIDGE RD","RALEIGH","NC","27609"
86140,"1729 RANDALL ROAD","INDIANAPOLIS","IN","46240"
86141,"1729 RIVERLANDING CIRCLE","LAWRENCEVILLE","GA","30045"
86142,"1729 RUTLEDGE LOOP ROAD","LUVERNE","AL","36049"
86143,"1729 STATE ROUTE 4","ST JACOB","IL","62281"
86144,"1729 STOP THIRTY ROAD","HENDERSONVILLE","TN","37075"
86145,"1729 STRICKLAND DRIVE","BLOOMFIELD HILLS","MI","48302"
86146,"1729 SUGAR HOLLOW DR","CHARLOTTE","NC","28214"
86147,"1729 SW 28 TH LN","CAPE CORAL","FL","33914"
86148,"1729 SWEETWATER OAKS","NEOSHO","MO","64850"
86149,"1729 TIMS LANE","CONROE","TX","77301"
86150,"1729 VALLEY AVE","BAKER CITY","OR","97814"
86151,"1729 WALTERS WAY","ST CHARLES","MO","63303"
86152,"1729 WEST 1000 NORTH","SALT LAKE CITY","UT","84116"
86153,"1729 WEST ADELITA STREET","WESLACO","TX","78599"
86154,"17291 HAYES AVE","LAKEVILLE","MN","55044"
86155,"17291 HAYES AVENUE","LAKEVILLE","MN","55044"
86156,"17291 IRVINE BOULEVARD STE 251","TUSTIN","CA","92780"
86157,"17295 CHESTERFIELD AIRPORT RD","CHESTERFIELD","MO","63005"
86158,"17295 CHESTERFIELD AIRPORT ROAD","CHESTERFIELD","MO","63005"
86159,"17297 VENABLES DRIVE","LEWES","DE","19958"
86160,"17298 SOUTH EAST 49TH PLACE","BELLEVUE","WA","98006"
86161,"17298 STINEVILLE ROAD","GRIFFITHVILLE","AR","72060"
86162,"17299 JONQUIL AVE","LAKEVILLE","MN","55044"
86163,"172A SCHAFER ST","BROOKLYN","NY","11207"
86164,"173 1/2 EAST FRANKLIN STREET","CHAPEL HILL","NC","27514"
86165,"173 4TH STREET","TROY","NY","12180"
86166,"173 7TH AVE APT 2F","TROY","NY","12180"
86167,"173 ACR 3158 BOX 563","VERNON","AZ","85940"
86168,"173 ALTA DRIVE","LA SELVA","CA","95076"
86169,"173 ANTELOPE STREET","WOODLAND","CA","95695"
86170,"173 BARBERRY LN","DALLAS","GA","30132"
86171,"173 BEACH 95TH STREET","ROCKAWAY BEACH","NY","11693"
86172,"173 BELLE POINTE DR","RUSTON","LA","71270"
86173,"173 BLACK ROCK LANE","ST CHARLES","MO","63304"
86174,"173 BOILING BROOK DR","STATESVILLE","NC","28625"
86175,"173 BRISTOL FOREST TRAIL","SANFORD","FL","32771"
86176,"173 BROOK HILL CT","ELKIN","NC","28621"
86177,"173 BROOKSIDE LANE","BROOKS","GA","30205"
86178,"173 BROWN DRIVE","CLAREMONT","CA","91711"
86179,"173 BURNS LANE","SYLACAUGA","AL","35151"
86180,"173 BUSH ROAD","SAVOY","MA","01256"
86181,"173 CAROLYN LANE","LINWOOD","NC","27299"
86182,"173 CAROLYN LANE","NICHOLASVILLE","KY","40356"
86183,"173 CARONDELET PLAZA","CLAYTON","MO","63105"
86184,"173 CARONDELET PLZ","CLAYTON","MO","63105"
86185,"173 CHARLOTTE LANE","BETHEL","OH","45106"
86186,"173 CHICKASAW BERRY RD","OCOEE","FL","34761"
86187,"173 CORBINS CLOSE","WYOMING","DE","19934"
86188,"173 COTTONWOOD DRIVE","LAKE HAVASU","AZ","86403"
86189,"173 DANDELION TRAIL","SAN MARCOS","TX","78666"
86190,"173 DAVIS ROAD","RICHMOND HILL","GA","31324"
86191,"173 E 154TH STREET","HARVEY","IL","60426"
86192,"173 E DUMAS ST","SAN BERNARDINO","CA","92408"
86193,"173 EDGEWOOD AVE 3RD FLOOR","NEW HAVEN","CT","06511"
86194,"173 ELM STREET 3RD FLOOR","WESTFIELD","NJ","70790"
86195,"173 ELM STREET","BYFIELD","MA","01922"
86196,"173 HAGEMANN AVE","SANTA CRUZ","CA","95062"
86197,"173 HALSEY STREET","PARAMUS","NJ","07652"
86198,"173 HALSTEAD AVENUE","HARRISON","NY","10528"
86199,"173 HAMILTON AVENUE STE 100","GREENWICH","CT","06830"
86200,"173 HEARTHSTONE","IRVINE","CA","92606"
86201,"173 HIDDEN CAVE","CIBOLO","TX","78108"
86202,"173 HUGUENOT ST STE 200","NEW ROCHELLE","NY","10801"
86203,"173 JAMES ROAD","GAHANNA","OH","43230"
86204,"173 LEONARD STREET","AGAWAM","MA","01001"
86205,"173 LOYD IRBY RD","PELAHATCHIE","MS","39145"
86206,"173 MAIN STREET","EAST RUTHERFORD","NJ","07073"
86207,"173 MASTIC BLVD NUM A","MASTIC","NY","11950"
86208,"173 MT EYRE ROAD","WASHINGTON CROSSING","PA","18977"
86209,"173 MULLBERRY HILL ROAD","WASHINGTON","PA","15301"
86210,"173 MYRTLE AVE","ALLENDALE","NJ","07401"
86211,"173 NE BRIDGETON RD SLIP 5","PORTLAND","OR","97211"
86212,"173 NILSSON STREET","BROCKTON","MA","02301"
86213,"173 NORTH MAIN STREET","SAYVILLE","NY","11782"
86214,"173 NORTHWOOD COMMONS","LIVERMORE","CA","94551"
86215,"173 OAK GREEN DR","LAWRENCEVILLE","GA","30044"
86216,"173 OLD MONTGOMERY HIGHWAY UNIT E","VESTAVIA HILLS","AL","35216"
86217,"173 OVER LANE","WILLIAMSBURG","PA","16693"
86218,"173 PARK AVE","PASSAIC","NJ","07055"
86219,"173 PIKES PEAK RD","DELTA","PA","17314"
86220,"173 POWERS ST","BROOKLYN","NY","11211"
86221,"173 PRIVATE RD 5043","GRAPELAND","TX","75844"
86222,"173 QUAIL RUN DR","DEFIANCE","MO","63341"
86223,"173 REDSTONE BLVD","REDSTONE","CO","81623"
86224,"173 RIDGEVIEW ROAD","WEARE","NH","03281"
86225,"173 ROYAL ASSEMBLY","CHARLESTON","SC","29492"
86226,"173 S MAIN STREET","LODI","WI","53555"
86227,"173 S VALLEY WAY 2","PALMER","AK","99645"
86228,"173 SCHOOL STREET","CONCORD","VT","05824"
86229,"173 SCHOOL STREET","RICHMOND","VT","05477"
86230,"173 SCHOOLHOUSE ROAD","PALMYRA","PA","17078"
86231,"173 SE MANLY AVENUE","PORT ST LUCIE","FL","34983"
86232,"173 SETTLEMENT ROAD","JASPER","GA","30143"
86233,"173 SIERRA AVENUE -  UNIT 19","MOUNTAIN VIEW","CA","94043"
86234,"173 SPENCER AVE","LEOLA","PA","17540"
86235,"173 SPRING GARDEN ST","LEESPORT","PA","19533"
86236,"173 SPRING VALLEY DRIVE","ADKINS","TX","78101"
86237,"173 STADIUM CIR","INWOOD","WV","25428"
86238,"173 STARLITE LANE","JERSEY SHORE","PA","17740"
86239,"173 STONEHAVEN DRIVE","MOORESVILLE","NC","28115"
86240,"173 TOVREA ROAD STE C","ALVIN","TX","77511"
86241,"173 TRAIN STREET","DORCHESTER","MA","02122"
86242,"173 TRAVERSE STREET","WATERBURY","CT","06704"
86243,"173 TREETOPS LANE","ASHEVILLE","NC","28803"
86244,"173 TUCKERMAN ROAD","ASHBURNHAM","MA","01430"
86245,"173 VIEW DRIVE","BLYTHEWOOD","SC","29016"
86246,"173 VILLAGE CT","FULLERTON","CA","92832"
86247,"173 W BROADWAY","JIM THORPE","PA","18229"
86248,"173 W MARKET ST","WARREN","OH","44481"
86249,"173 WALLACE RD","BLAIRSVILLE","PA","15717"
86250,"173 WALTER AVENUE","NEWBURY PARK","CA","91320"
86251,"173 WEST CREEK DRIVE","TRENTON","GA","30752"
86252,"173 WESTMINSTER ROAD","WEST HEMPSTEAD","NY","11552"
86253,"173 WESTMORELAND CIRCLE","KISSIMMEE","FL","34744"
86254,"173 WILLIAMS STREET","PROVIDENCE","RI","02906"
86255,"173-16 LINDEN BLVD","JAMAICA","NY","11434"
86256,"173","SPLENDORA","TX","77372"
86257,"173","TAYLOR","NE","68879"
86258,"1730 121ST AVENUE NORTH WEST","COON RAPIDS","MN","55448"
86259,"1730 22ND AVE APT 409","SEATTLE","WA","98122"
86260,"1730 6TH STREET NE","MINNEAPOLIS","MN","55413"
86261,"1730 ARLINGTON BLVD 604","ARLINGTON","VA","22209"
86262,"1730 BAY ROAD 407","EAST PALO ALTO","CA","94303"
86263,"1730 BAYSIDE BEACH RD","PASADENA","MD","21122"
86264,"1730 BROADWAY","SACRAMENTO","CA","95818"
86265,"1730 BUTTE AVENUE","HELENA","MT","59601"
86266,"1730 CAMBRIDGE AVE","FLOSSMOOR","IL","60622"
86267,"1730 CANYON RD SOUTH","MELBA","ID","83641"
86268,"1730 COTTAM CT","SAINT GEORGE","UT","84790"
86269,"1730 DAWES CT SE","GRAND RAPIDS","MI","49508"
86270,"1730 E HERMOSA VISTA DR","MESA","AZ","85203"
86271,"1730 ECHO LAKE DR","WEST PALM BEACH","FL","33407"
86272,"1730 ELLA T GRASSO BLVD","NEW HAVEN","CT","06511"
86273,"1730 ELM AVE","TORRANCE","CA","90503"
86274,"1730 GERMANTOWN PL","DILLON","SC","29536"
86275,"1730 GIDDINGS AVENUE SOUTHEAST","GRAND RAPIDS","MI","49507"
86276,"1730 HOLLY AVE  UNIT 770","EL SEGUNDO","CA","90245"
86277,"1730 HUNTERS CREEK DR","SOUTHLAKE","TX","76092"
86278,"1730 JACKSON AVE","YAZOO CITY","MS","39194"
86279,"1730 KINGS DOWN CIRCLE","DUNWOODY","GA","30338"
86280,"1730 L STREET UNIT 5","SACRAMENTO","CA","95811"
86281,"1730 LAGOON RD","LAKELAND","FL","33803"
86282,"1730 LAKWOOD DR  SOUTH","ST. PETERSBURG","FL","33712"
86283,"1730 LINDA LANE","MARYVILLE","TN","37803"
86284,"1730 MONTRACHET DRIVE","LAWRENCEVILLE","GA","30043"
86285,"1730 N 5TH ST / 101","PHILADELPHIA","PA","19122"
86286,"1730 N CLARK STREET SUITE 1102","CHICAGO","IL","60614"
86287,"1730 N KITTREDGE RD","FLAGSTAFF","AZ","86001"
86288,"1730 N LENNOX ST APT 15","OLATHE","KS","66061"
86289,"1730 NE 154TH STREET","MIAMI GARDENS","FL","33054"
86290,"1730 NORTH 71ST STREET","PHILADELPHIA","PA","19151"
86291,"1730 NW 31ST PLACE","GAINESVILLE","FL","32605"
86292,"1730 NW 5 AVENUE","POMPANO BEACH","FL","33060"
86293,"1730 OCEAN VIEW DRIVE SW","OCEAN ISLE BEACH","NC","28469"
86294,"1730 OLD LIBERTY LOOP","HUSTONVILLE","KY","40437"
86295,"1730 OVERHILL DR","FLINT","MI","48503"
86296,"1730 PALOMINO DRIVE","WARRINGTON","PA","18976"
86297,"1730 PENN AVENUE NORTH","MINNEAPOLIS","MN","55411"
86298,"1730 PERRIN PLACE","CHULA VISTA","CA","91913"
86299,"1730 RHODE ISLAND AVE NW STE 500","WASHINGTON","DC","20036"
86300,"1730 RHODE ISLAND AVE NW STE 500","WASHINGTON","FL","20036"
86301,"1730 RHODE ISLAND AVE NW STE500","WASHINGTON","DC","20036"
86302,"1730 RHODE ISLAND AVE NW SUITE 500","WASHINGTON","DC","20036"
86303,"1730 RIDGE ROAD","ONTARIO CENTER","NY","15420"
86304,"1730 S 280TH E AVENUE","CATOOSA","OK","74015"
86305,"1730 S AMPHLETT BLVD SUITE 206","SAN MATEO","CA","94402"
86306,"1730 SW BARTON ST","SEATTLE","WA","98106"
86307,"1730 VANDENBERG AVE","JB MDL","NJ","08641"
86308,"1730 VESTAL WAY","CORAL SPRINGS","FL","33071"
86309,"1730 W CHELTENHAM AVENUE","PHILADELPHIA","PA","19126"
86310,"1730 W HALL AVE","SANTA ANA","CA","92704"
86311,"1730 WELCOME RD","NEWNAN","GA","30263"
86312,"1730 WEST OXFORD STREET","PHILADELPHIA","PA","19121"
86313,"1730 WILLIAMSBURG DR SUITE 1","JEFFERSONVILLE","IN","47130"
86314,"1730 WILLOW ST","CANON CITY","CO","81212"
86315,"1730 WOODBEND","CLAREMONT","CA","91711"
86316,"17300 AZALEA COURT","LA PUENTE","CA","91744"
86317,"17300 BROWNING DRIVE","ATHENS","AL","35611"
86318,"17300 DALLAS PKWY STE 1075 A","DALLAS","TX","75248"
86319,"17300 GREENWOOD AVENUE","SOUTH HOLLAND","IL","60473"
86320,"17300 JAMES RIVER DRIVE","DISPUTANTA","VA","23842"
86321,"17300 LOLO CREEK RD","LOLO","MT","59847"
86322,"17300 NW COUNTY ROAD 4110","FROST","TX","76641"
86323,"17300 PRICHETT PARKWAY","NORTH FORT MYERS","FL","33917"
86324,"17300 RIVER RIDGE BLVD SUITE 201","WOODBRIDGE","VA","22191"
86325,"17300 SW 140TH CT","MIAMI","FL","33177"
86326,"17300 SW 298 ST","HOMESTEAD","FL","33030"
86327,"17300 SW 48TH STREET","SOUTH WEST RANCHES","FL","33331"
86328,"17300 TOLEDO DRIVE","OKLAHOMA CITY","OK","73170"
86329,"17301 AUTUMN BROOK LANE","BRANDY STATION","VA","22714"
86330,"17301 BROADWAY ST NUMBER 125","ALVA","FL","33920"
86331,"17301 KEELSON LANE APT 3","HUNTINGTON BEACH","CA","92647"
86332,"17301 LIVERNOIS AVE   UNIT411","DETROIT","MI","48221"
86333,"17301 LIVERNOIS AVE STE 187","DETROIT","MI","48221"
86334,"17301 LIVERNOIS AVE","DETROIT","MI","48221"
86335,"17301 S RIDGELAND AVE","TINLEY PARK","IL","60477"
86336,"17301 S TILSON ROAD","RUDYARD","MI","49780"
86337,"17301 SW 93RD AVENUE","MIAMI","FL","33157"
86338,"17302 BALLMONT PARK DR","ODESSA","FL","33556"
86339,"17302 BRENNAN HWY","TINLEY PARK","IL","60477"
86340,"17302 EMERSON AVE","HAZEL CREST","IL","60429"
86341,"17302 SE 23RD WAY","VANCOUVER","WA","98683"
86342,"17302 STETSON LANE","ODESSA","FL","33556"
86343,"17303 9TH ST SE","GRANDIN","ND","58038"
86344,"17303 DORSET AVE","SOUTHFIELD","MI","48075"
86345,"17303 LOCUST STREET","OMAHA","NE","68116"
86346,"17303 SUGARLOAF RESERVE DRIVE","DULUTH","GA","30097"
86347,"17303 TOMINTOUL PATH","RICHMOND","TX","77407"
86348,"17304 PRESTON ROAD SUITE 800","DALLAS","TX","75252"
86349,"17305 HIGHWAY 613","MOSS POINT","MS","39562"
86350,"17305 SW ARBUTUS DR","BEAVERTON","OR","97007"
86351,"17306 INYO NATIONAL DR","HUMBLE","TX","77346"
86352,"17307 GAUCHO DR","HOUSTON","TX","77083"
86353,"17307 PAGONIA ROAD SUITE 105","CLERMONT","FL","34711"
86354,"17307 PEACH GROVE LANE","HAZEL CREST","IL","60429"
86355,"17309 E 35TH ST S","INDEPENDENCE","MO","64055"
86356,"17309 E WARREN PL APT 104","AURORA","CO","80013"
86357,"17309 EAST MAIN ST","GALLIANO","LA","70354"
86358,"17309 LATHROP AVENUE","PFLUGERVILLE","TX","78660"
86359,"17309 STEDMAN CIR","DALLAS","TX","75252"
86360,"1731 217TH PL","SAUK VILLAGE","IL","60411"
86361,"1731 ABBEY LN","CENTERTON","AR","72719"
86362,"1731 ACAPULCO DR","SAN PABLO","CA","94806"
86363,"1731 ASHTREE WAY","TRACY","CA","95376"
86364,"1731 CALIFORNIA ST APT 2","BERKELEY","CA","94703"
86365,"1731 CLIFTON CT","CASPER","WY","82609"
86366,"1731 CONNECTICUT AVE NW STE 400","WASHINGTON","DC","20009"
86367,"1731 CORINTH AVENUE APT 206","LOS ANGELES","CA","90025"
86368,"1731 CUMBERLAND ST","ROCKFORD","IL","61103"
86369,"1731 DEARBOUGHT DRIVE","FREDERIC","MD","21701"
86370,"1731 EAST 84TH PLACE","CHICAGO","IL","60617"
86371,"1731 EDDY ST","SAN FRANCISCO","CA","94115"
86372,"1731 FORT VALLEY DR SW","ATLANTA","GA","30311"
86373,"1731 GAINESVILLE STREET SE APT 201","WASHINGTON DC","DC","20020"
86374,"1731 GRANDIN ROAD- SUITE R","ROANOKE","VA","24015"
86375,"1731 HASTI ACRES DR SUITE 208","BAKERSFIELD","CA","93309"
86376,"1731 HOWE AVE  STE 653","SACRAMENTO","CA","95825"
86377,"1731 HOWE AVENUE SUITE 227","SCRAMENTO","CA","95825"
86378,"1731 JIMMY CARTER DRIVE","VALDOSTA","GA","31602"
86379,"1731 KILLARNEY CT","VIENNA","VA","22182"
86380,"1731 LILAC MIST","SAN ANTONIO","TX","78260"
86381,"1731 MANDARIN ESTATES DRIVE","JACKSONVILLE","FL","32223"
86382,"1731 MONACO DRIVE","ALLEN","TX","75002"
86383,"1731 MONTEREY CT","ANN ARBOR","MI","48108"
86384,"1731 MORELAND AVENUE","BALTIMORE","MD","21216"
86385,"1731 N LEWIS AVE","TULSA","OK","74110"
86386,"1731 N STEELE ST","TACOMA","WA","98406"
86387,"1731 NORTH EAST SECOND COURT","BOYNTON BEACH","FL","33435"
86388,"1731 NORTH VEITCH STREET","ARLINGTON","VA","22201"
86389,"1731 NURSERY WAY","PLEASANTON","CA","94588"
86390,"1731 OAK STREET","COLUMBUS","OH","43205"
86391,"1731 OLD FORTY FOOT RD","HARLEYSVILLE","PA","19438"
86392,"1731 PEACHBLOSSOM DRIVE","LAKE HAVASU CITY","AZ","86403"
86393,"1731 PINEWALK LANE","RIVERDALE","GA","30296"
86394,"1731 RHYNES TRL","ROCK HILL","SC","29732"
86395,"1731 S HIGHWAY 160","PAHRUMP","NV","89048"
86396,"1731 SAVAGE LN","PESACOLA","FL","32505"
86397,"1731 SHERWOOD CT","DEARBORN","MI","48124"
86398,"1731 SOUTH RINGGOLD STREET","PHILADELPHIA","PA","19145"
86399,"1731 SPRINGTOWN RD","ALPHA","NJ","08865"
86400,"1731 W 48TH STREET","LOS ANGELES","CA","90062"
86401,"1731 W MARKET STREET APT 12","BETHLEHEM","PA","18018"
86402,"1731 W OHIO MATCH RD","RATHDRUM","ID","83858"
86403,"1731 W20TH ST","LOS ANGELES","CA","90007"
86404,"1731 WASHINGTON STREET","EVANSTON","IL","60202"
86405,"1731 WEST 6TH STREET","WILMINGTON","DE","19805"
86406,"1731 WEST WATROUS AVE SUITE 101","TAMPA","FL","33606"
86407,"1731 WILLARD ST NW APT 404","WASHINGTON","DC","20009"
86408,"1731 WOOD STORK DRIVE","HAMPTON","GA","30228"
86409,"1731 WOODWORTH ST NE","GRAND RAPIDS","MI","49525"
86410,"17310 FM 529 RD STE 111","HOUSTON","TN","77095"
86411,"17310 RAINER VALLEY LN","HUMBLE","TX","77346"
86412,"17310 RED HILL AVE STE 335","IRVINE","CA","92614"
86413,"17311 ARROWWOOD PLACE","ROUND HILL","VA","20141"
86414,"17311 GREENTREE DRIVE","RIVERSIDE","CA","92503"
86415,"17311 HALSEY STREET","GRANADA HILLS","CA","91344"
86416,"17311 ROY ST","LANSING","IL","60438"
86417,"17311 SULTANA AVE","HESPERIA","CA","92345"
86418,"17313 ENNIS TRAIL","AUSTIN","TX","78717"
86419,"17313 JOPLIN AVENUE","LAKEVILLE","MN","55044"
86420,"17314 LEGEND BROOK COURT","TOMBALL","TX","77375"
86421,"17314 MARTIN DR","ATHENS","AL","35611"
86422,"17314 STATE HIGHWAY 249 STE 210","HOUSTON","TX","77064"
86423,"17314 UPPER RIDGE LANE","HUMBLE","TX","77346"
86424,"17315 CASCADE CIRCLE","HOUSTON","TX","77095"
86425,"17315 MARIE TERRACE COURT","HOCKLEY","TX","77447"
86426,"17316 BROOK HILL DRIVE","ORLAND PARK","IL","60467"
86427,"17317 136TH AVENUE COURT EAST","PUYALLUP","WA","98374"
86428,"17317 EAGLE CANYON WAY","SAN DIEGO","CA","92127"
86429,"17318 ANTIOCH AVENUE","PFLUGERVILLE","TX","78660"
86430,"17318 GLENPATTI DRIVE","HOUSTON","TX","77084"
86431,"17318 SPRINGHILL","SAN ANTONIO","TX","78232"
86432,"17319 139TH AVE NE","WOODINVILLE","WA","98072"
86433,"1732 1ST AVE 27836","NEW YORK","NY","10128"
86434,"1732 1ST AVE 28507","NEW YORK","NY","10128"
86435,"1732 1ST AVE NUM 21484","NEW YORK","NY","10128"
86436,"1732 1ST AVE STE 26480","NEW YORK","NY","10128"
86437,"1732 1ST AVE SUITE 22939","NEW YORK","NY","10128"
86438,"1732 254TH STREET","LOMITA","CA","90717"
86439,"1732 6TH ST A","BERKELEY","CA","94710"
86440,"1732 ALEMANY BLVD","SAN FRANCISCO","CA","94112"
86441,"1732 AVIATION BLVD SUITE 549","REDONDO BEACH","CA","90278"
86442,"1732 BLACKHAWK ST APT 105","AURORA","CO","80011"
86443,"1732 CIMARRON TRAIL","GRAPEVINE","TX","76051"
86444,"1732 CORAL CLIFF DR","DICKINSON","TX","77539"
86445,"1732 E 30TH PL","TULSA","OK","74114"
86446,"1732 EAST HORNE AVENUE","SLC","UT","84106"
86447,"1732 FINNEY ROAD","MURPHYSBORO","IL","62966"
86448,"1732 GOODWIN DRIVE","VISTA","CA","92084"
86449,"1732 IRA DRIVE","ANCHORAGE","AK","99515"
86450,"1732 LIVE OAK AVENUE","CONCORD","CA","94521"
86451,"1732 MASSACHUSETTS AVE SE","WASHINGTON","DC","20003"
86452,"1732 MLK JR WAY S APT C","SEATTLE","WA","98144"
86453,"1732 NORTH TOWNSHIP ROAD","YUBA CITY","CA","95993"
86454,"1732 NORTHVIEW LANE","ABERDEEN","SD","57401"
86455,"1732 NW 3RD TER APT 208","HOMESTEAD","FL","33034"
86456,"1732 OSWALD PLACE","SANTA CLARA","CA","95051"
86457,"1732 PALMA DR 208","VENTURA","CA","93003"
86458,"1732 PLEASANT VIEW RD","RUSSELLVILLE","AR","72802"
86459,"1732 RUNNING RIVER DRIVE","DESOTO","TX","75115"
86460,"1732 S 43RD ST","TACOMA","WA","98418"
86461,"1732 SE 55TH AVENUE","PORTLAND","OR","97215"
86462,"1732 SOUTH CONGRESS AVE STE 240","PALM SPRINGS","FL","33461"
86463,"1732 SOUTH WILLOW WIND DRIVE","MIDWEST CITY","OK","73130"
86464,"1732 SPENCER CIRCLE","BENTON","LA","71006"
86465,"1732 STATE HIGHWAY 13","FRIENDSHIP","WI","53934"
86466,"1732 SUMMER BREEZE LN","AURORA","IL","60504"
86467,"1732 SUMMERFIELD CIR","BREA","CA","92821"
86468,"1732 WALNUT CREST LN","MATTHEWS","NC","28105"
86469,"17320 MULE DEER DRIVE","SPRING VALLEY","AZ","86333"
86470,"17320 RAMONA AVE","FONTANA","CA","92336"
86471,"17320 WOODENTREE LN","RIVERSIDE","CA","92503"
86472,"17321 GIBSON CIRCLE","HUNTINGTON BEACH","CA","92647"
86473,"17321 LOOKOUT RD APT 3209","SELMA","TX","78154"
86474,"17321 MURPHY AVENUE APT 411","IRVINE","CA","92614"
86475,"17321 NW 20TH AVE","MIAMI GARDENS","FL","33056"
86476,"17321 PHLOX DRIVE","FORT MYERS","FL","33967"
86477,"17321 WOODLAND HILL DR","HUMBLE","TX","77346"
86478,"17321 WOODLAND HILLS DRIVE","HUMBLE","TX","77346"
86479,"17322 BROOK CROSSING COURT","ORLAND PARK","IL","60467"
86480,"17322 CAN-ADA ROAD","NAMPA","ID","83687"
86481,"17322 KININVIE CROSSING","RICHMOND","TX","77407"
86482,"17323 GAUCHO DR","HOUSTON","TX","77083"
86483,"17323 LAKE CHELAN LN","HUMBLE","TX","77346"
86484,"17323 SAN FERNANDO MISSION BL","GRANADA HILLS","CA","91344"
86485,"17324 CAMPILLO DR","SAN DIEGO","CA","92128"
86486,"17325 BRIARWOOD DRIVE","HAMMOND","LA","70401"
86487,"17325 EUCLID AVE STE 3028","CLEVELAND","OH","44112"
86488,"17325 EUCLID AVE SUITE 2114","CLEVELAND","OH","44112"
86489,"17325 EUCLID AVE","CLEVELAND","OH","44112"
86490,"17325 EUCLID AVENUE STE 2066","CLEVELAND","OH","44112"
86491,"17325 EUCLID AVENUE SUITE 2040","CLEVELAND","OH","44112"
86492,"17325 EUCLID AVENUE SUITE 4076","CLEVELAND","OH","44112"
86493,"17325 EUCLID AVENUE","CLEVELAND","OH","44112"
86494,"17325 HWY 15","BRAITHWAITE","LA","70040"
86495,"17325 PARKSIDE DR","NORTH ROYALTON","OH","44133"
86496,"17325 RIVER RIDGE BLVD","SOUTHBRIDGE","VA","22026"
86497,"17325 RIVER VIEW LN SE","BIG LAKE","MN","55309"
86498,"17325 STERLING CT","SOUTH HOLLAND","IL","60473"
86499,"17326 BAMWOOD","HOUSTON","TX","77090"
86500,"17327 4S RANCH PKWY","SAN DIEGO","CA","92127"
