"ID","Address","City","State","Zip"
87501,"175 MAU DR","MUENSTER","TX","76252"
87502,"175 MEADOWVIEW LN","MEDINA","MN","55340"
87503,"175 MELROSE AVE","YOUNGSTOWN","OH","44512"
87504,"175 MILL RUN","FAYETTEVILLE","GA","30214"
87505,"175 MILLER AVENUE","BROOKLYN","NY","11207"
87506,"175 MONITOR AVE","CINCINNATI","OH","45233"
87507,"175 MORAIN STREET","BROCKTON","MA","02301"
87508,"175 MOUNTAIN LAUREL WAY","FAYETTEVILLE","GA","30215"
87509,"175 MOUNTAIN VIEW CIRCLE","COVINGTON","GA","30016"
87510,"175 N ARCHER AVENUE","MUNDELEIN","IL","60060"
87511,"175 N HARBOR DRIVE  UNIT 2906","CHICAGO","IL","60601"
87512,"175 N INDIAN HILL BLVD STE 203","CLAREMONT","CA","91711"
87513,"175 N LAVERGNE","CHICAGO","IL","60644"
87514,"175 N LOCUST HILL DR 2308","LEXINGTON","KY","40509"
87515,"175 N MAIN STREET","WHARTON","NJ","07885"
87516,"175 N MAIN","KAYLOR","SD","57354"
87517,"175 NANTUCKET PLACE","MORGANVILLE","NJ","07751"
87518,"175 NARRAGANSETT TRL","MEDFORD LAKES","NJ","08055"
87519,"175 NORTH HARBOR DRIVE 5202","CHICAGO","IL","60601"
87520,"175 NORTH HARBOR DRIVE SUITE 4006","CHICAGO","IL","60601"
87521,"175 NORTHEAST RD","STANDISH","ME","04084"
87522,"175 OAKLAND ROAD APT 608","SOUTH WINDSOR","CT","06074"
87523,"175 OAKSDALE DRIVE","BLUFFTON","SC","29909"
87524,"175 OLD STAGECOACH ROAD","CHINA GROVE","NC","28023"
87525,"175 OLDE HALF DAY RD STE 290","LINCOLNSHIRE","IL","60069"
87526,"175 OLDE HALF DAY ROAD STE 290","LINCOLNWOOD","IL","60069"
87527,"175 ORANGE STREET","NORTHUMBERLAND","PA","17857"
87528,"175 OTTAWA ST","LAKE GEORGE","NY","12845"
87529,"175 OWENS FARM RD","MOORESVILLE","NC","28115"
87530,"175 PAUL SIKES DRIVE","HINESVILLE","GA","31313"
87531,"175 PEARL STREET 1ST FLOOR","BROOKLYN","NY","11201"
87532,"175 PERSHING DR","LYNCHBURG","VA","24502"
87533,"175 PICKET POST LANE","PHOENIXVILLE","PA","19460"
87534,"175 PORT MONMOUTH RD","KEANSBURG","NJ","07734"
87535,"175 POTOMAC AVENUE","BUFFALO","NY","14213"
87536,"175 QUAIL HOLLOW ROAD","PINEHURST","NC","28374"
87537,"175 QUEENSLAND DR","SPENCERPORT","NY","14559"
87538,"175 RAMSHORN DRIVE","CASTLE ROCK","CO","80108"
87539,"175 REED ROAD","VILLA RICA","GA","30180"
87540,"175 RIVERTON PLACE","EDGEWATER","MD","21037"
87541,"175 ROCKY CREEK PL","PLEASANTON","CA","94566"
87542,"175 ROGERS AVENUE 3L","BROOKLYN","NY","11216"
87543,"175 ROGERS COMMERCE BLVD","BOILING SPRING","SC","29316"
87544,"175 ROYAL PALM DRIVE","FORT LAUDERDALE","FL","33301"
87545,"175 ROYAL PALM DRIVE","FT LAUDERDALE","FL","33301"
87546,"175 RT 340","SPARKILL","NY","10976"
87547,"175 RUMFORD ST","WATERBURY","CT","06704"
87548,"175 S 3RD STREET SUITE 200","COLUMBUS","OH","43215"
87549,"175 S AUSTIN AVENUE","DECATUR","IL","62522"
87550,"175 S EDITH ST","PONTIAC","MI","48342"
87551,"175 S HOLLIDAY ST","STRASBURG","VA","22657"
87552,"175 S LAKE AVENUE STE 200","PASADENA","AR","91101"
87553,"175 S SANDUSKY ST STE 445","DELAWARE","OH","43015"
87554,"175 SAINT LUKE CHURCH ROAD","SALISBURY","NC","28146"
87555,"175 SANDY RIDGE ROAD","STATE COLLEGE","PA","16803"
87556,"175 SCENIC COURT","CHESHIRE","CT","06410"
87557,"175 SCHOOLHOUSE ROAD","WARREN","RI","02885"
87558,"175 SHADEVILLE RD","WIGGINS","MS","39577"
87559,"175 SHERBROOKE AVE","WILLIAMSVILLE","NY","14221"
87560,"175 SHRELL LANE","QUINCY","FL","32351"
87561,"175 SILVER ST","DAYTON","NV","89403"
87562,"175 SKYVIEW CIRCLE","ASHEVILLE","NC","28804"
87563,"175 SMITH DRIVE","WINCHESTER","VA","22603"
87564,"175 SOUTH 3RD STREET","TECUMSEH","NE","68450"
87565,"175 SOUTH MAIN STREET SUITE 1410","SALT LAKE CTY","UT","84111"
87566,"175 SOUTH MAIN STREET SUITE 500","SALT LAKE CITY","UT","84111"
87567,"175 SOUTH THIRD STREET SUITE 200","COLUMBUS","OH","43215"
87568,"175 SOUTH WASHINGTON STREET","PLAINVILLE","CT","06062"
87569,"175 ST DAVIDS WAY","WELLINGTON","FL","33414"
87570,"175 STRAFFORD AVE    SUITE 360","WAYNE","PA","19087"
87571,"175 STRAFFORD AVENUE SUITE ONE","WAYNE","PA","19087"
87572,"175 SULLIVAN STREET APT 5B","NEW YORK","NY","10012"
87573,"175 SW 7 ST STE 2308","MIAMI","FL","33130"
87574,"175 SW 7 STREET SUITE 1914","MIAMI","FL","33130"
87575,"175 SW 7TH ST STE 2410","MIAMI","FL","33131"
87576,"175 SW 7TH STREET SUITE 2410","MIAMI","FL","33130"
87577,"175 SW 7TH STREET","MIAMI","FL","33130"
87578,"175 TOKEN HOUSE ROAD","DURHAM","NC","27703"
87579,"175 TOMPKINS AVENUE","PLEASANTVILLE","NY","10570"
87580,"175 TOPAZ DRIVE","FREEHOLD","NJ","07728"
87581,"175 TURTLE CREEK DRIVE","HATTIESBURG","MS","39402"
87582,"175 TWIN OAKS LN","WETUMPKA","AL","36093"
87583,"175 VARICK STREET 3RD FLOOR","NEW YORK","NY","10014"
87584,"175 VARICK STREET","NEW YORK","NY","10014"
87585,"175 VERBENA DR","TEMPLE","TX","76502"
87586,"175 VESTAL STREET","BEAUMONT","TX","77703"
87587,"175 VETERANS DR","WINSLOW","ME","04901"
87588,"175 VONDA KAY CIRCLE","LEXINGTON","SC","29072"
87589,"175 W 5TH ST FL 4TH","SN BERNRDNO","CA","92415"
87590,"175 W 76TH ST  APARTMENT 15 E","NEW YORK","NY","10023"
87591,"175 W CANYON CREST RD STE 306","ALPINE","UT","84004"
87592,"175 W JACKSON AVE  SUITE 203","NAPERVILLE","IL","60540"
87593,"175 W MAIN ST","BENTON HARBOR","MI","49022"
87594,"175 W MAIN ST","NORWALK","OH","44857"
87595,"175 W OSTEND STREET SUITE A3","BALTIMORE","MD","21230"
87596,"175 W PALMA DR","GREEN VALLEY","AZ","85614"
87597,"175 W ROOSEVELT AVENUE","ZEELAND","MI","49464"
87598,"175 W ROOSEVELT","ZEELAND","MI","49464"
87599,"175 WALNUT AVENUE SUITE 208","BRONX","NY","10454"
87600,"175 WARD PLACE","PISCATAWAY","NJ","08854"
87601,"175 WATCHUNG BPULEVARD","BERKELEY HEIGHTS","NJ","07922"
87602,"175 WATERDAM ROAD","MCMURRAY","PA","15317"
87603,"175 WEDGEWOOD AVE","CINCINNATI","OH","45217"
87604,"175 WEST 73RD STREET APT 5G","NEW YORK","NY","10023"
87605,"175 WEST 900 SOUTH SUITE 11","SAINT GEORGE","UT","84770"
87606,"175 WEST 90TH","NEW YORK","NY","10024"
87607,"175 WEST 93RD STREET APT 14B","NEW YORK","NY","10025"
87608,"175 WEST CANYON CREST RD STE 103","ALPINE","UT","84004"
87609,"175 WEST CANYON CREST RD STE 306","ALPINE","UT","84004"
87610,"175 WHITE OAK DR","HUNLOCK CREEK","PA","18621"
87611,"175 WILLIAM F MCCLELLAN HWY","EAST BOSTON","MA","02128"
87612,"175 WILLOW RIDGE WAY","AVONDALE ESTATES","GA","30002"
87613,"175 WINDSOR DR","CHRISTIANSBURG","VA","24073"
87614,"175 XOUT RANCH ROAD","MOUNTAIN HOME","TX","78058"
87615,"175 ZOE STREET NUMBER 3B","STATEN ISLAND","NY","10305"
87616,"175-06 DEVONSHIRE RD STE 4K","QUEENS","NY","11432"
87617,"175-09 111TH AVE","JAMAICA","NY","11433"
87618,"175-15 137TH AVE","JAMAICA","NY","11434"
87619,"175-20 WEXFORD TERRACE","JAMAICA","NY","11432"
87620,"175-25 UNION TURNPIKE STE 221","FRESH MEADOW","NY","11366"
87621,"175-41 HILLSIDE AVENUE","JAMAICA","NY","11432"
87622,"175","PORT ORANGE","FL","32128"
87623,"1750 16TH ST NW APT 53","WASHINGTON","DC","20009"
87624,"1750 30TH STREET - PMB 126","BOULDER","CO","80301"
87625,"1750 30TH STREET -156","BOULDER","CO","80301"
87626,"1750 30TH STREET S","ST PETERSBURG","FL","33712"
87627,"1750 30TH STREET STE 204","BOULDER","CO","80301"
87628,"1750 30TH STREET SUITE 301","BOULDER","CO","80301"
87629,"1750 34TH STREET SE","CEDAR RAPIDS","IA","52403"
87630,"1750 67TH AVE NE","NEW ROCKFORD","ND","58356"
87631,"1750 ANDERSON CREEK ROAD","TALENT","OR","97540"
87632,"1750 ARCADIA ROAD","HOLIDAY","FL","34690"
87633,"1750 AUSTIN DRIVE","TROY","MI","48083"
87634,"1750 AVENIDA DEL MUNDO APT 903","CORONADO","CA","92118"
87635,"1750 AVENIDA DEL MUNDO STE 901","CORONADO","CA","92118"
87636,"1750 BEAVER RUIN RD STE 100","NORCROSS","GA","30093"
87637,"1750 BELLEVUE LOOP","ANCHORAGE","AK","99515"
87638,"1750 BEN FRANKLIN DR 10 E","SARASOTA","FL","34236"
87639,"1750 BIG HAYNES CT","GRAYSON","GA","30017"
87640,"1750 BILLY BIBLE ROAD","GREENEVILLE","TN","37745"
87641,"1750 BUCHANAN STREET","SAN FRANCISCO","CA","94115"
87642,"1750 CLARKSTONE AVE","CLEVELAND","OH","44112"
87643,"1750 COMMERCE DRIVE","ATLANTA","GA","30318"
87644,"1750 DREW ROAD","EL CENTRO","CA","92243"
87645,"1750 EAST DOUGLAS RD","FORT COLLINS","CO","80524"
87646,"1750 EL PASEO RD","LAS CRUCES","NM","88001"
87647,"1750 FM 423  821","FRISCO","TX","75033"
87648,"1750 FOREST AVE","PARKVILLE","MD","21234"
87649,"1750 FRAYSER BLVD","MEMPHIS","TN","38128"
87650,"1750 HARBOR STREET","PITTSBURG","CA","94565"
87651,"1750 HIGHWAY 160 W SUITE 101 263","FORT MILL","SC","29708"
87652,"1750 HIGHWAY 160 WEST STE 101-243","FORT MILL","SC","29708"
87653,"1750 JUNCTION AVENUE","SAN JOSE","CA","95112"
87654,"1750 KYLLO LANE","EAGAN","MN","55122"
87655,"1750 LAKEWOOD DR","WOODBRIDGE","VA","22192"
87656,"1750 LITTLE RAVEN STREET SUITE 241","DENVER","CO","80202"
87657,"1750 LUNDY AVE UNIT 612066","SAN JOSE","CA","95161"
87658,"1750 MADISON AVE   STE 600","MEMPHIS","TN","38104"
87659,"1750 MARGARET STREET","PHILADELPHIA","PA","19124"
87660,"1750 MARTIN LUTHER KING BLVD 109","HOUMA","LA","70360"
87661,"1750 MERIDIAN AVE SUITE 6925","SAN JOSE","CA","95125"
87662,"1750 MOUNTAIN VIEW ROAD -18","HARRISBURG","PA","17110"
87663,"1750 N BAYSHORE DR APT 3114","MIAMI","FL","33132"
87664,"1750 N BAYSHORE DR SUITE 1208","MIAMI","FL","33132"
87665,"1750 N BAYSHORE DR SUITE 4705","MIAMI","FL","33132"
87666,"1750 N CAMPBELL AVE UNIT C","CHICAGO","IL","60647"
87667,"1750 N COLLINS BLVD SUITE 101V","RICHARDSON","TX","75080"
87668,"1750 N EL CERRITO PL 14","LOS ANGELES","CA","90028"
87669,"1750 OBERLIN CT NW","CANTON","OH","44703"
87670,"1750 OLES DR","INDIANAPOLIS","IN","46228"
87671,"1750 OLES DRIVE","INDIANAPOLIS","IN","46228"
87672,"1750 ORCHARD ROAD","HOLLISTER","CA","95023"
87673,"1750 OSBORN ROAD","WILMINGTON","OH","45177"
87674,"1750 PENNSYLVANIA AVENUE NW 28001","WASHINGTON","DC","20038"
87675,"1750 PETERS RANCH RD","DANVILLE","CA","94526"
87676,"1750 POWDER SPINGS RD SUITE 190 149","MARIETTA","GA","30064"
87677,"1750 POWDER SPR RD-STE 190 BOX 112","MARIETTA","GA","30064"
87678,"1750 POWDER SPRINGS RD STE 190-255","MARIETTA","GA","30064"
87679,"1750 PRAIRE CITY RD SUITE 130-689","FOLSOM","CA","95630"
87680,"1750 S WOODLANDS VILLAGE BLVD SUITE","FLAGSTAFF","AZ","86001"
87681,"1750 SEDGWICK AVE APT 7B","BRONX","NY","10453"
87682,"1750 SHADY OAKS CT","AZUSA","CA","91702"
87683,"1750 SMITHFIELD ROAD","ST STEPHENS CHURCH","VA","23148"
87684,"1750 ST CHARLES AVENUE  UNIT 425","NEW OLEANS","LA","70130"
87685,"1750 SUNSET DR STE A","ROCK SPRINGS","WY","82901"
87686,"1750 SW SKYLINE BLVD STE 202","PORTLAND","OR","97221"
87687,"1750 TUGALO DRIVE","JEFFERSON","GA","30549"
87688,"1750 TYSONS BLVD/ SUITE 1500","MCLEAN","VA","22102"
87689,"1750 UNION AVENUE   SUITE A-2","BALTIMORE","MD","21211"
87690,"1750 UNIVERSITY BLVD D STE 5","JACKSONVILLE","FL","32211"
87691,"1750 W 28TH ST APT 102","CLEVELAND","OH","44113"
87692,"1750 W HOLT AVE","POMONA","CA","91768"
87693,"1750 W OGDEN AVE UNIT 6142","NAPERVILLE","IL","60567"
87694,"1750 WEST 46 STREET 505","HIALEAH","FL","33012"
87695,"1750 WEST DIVISION STREET APT 402","CHICAGO","IL","60622"
87696,"1750 WEST LAMBERT ROAD","LA HABRA","CA","90631"
87697,"1750 WEST ST","CONCORD","CA","94521"
87698,"1750 YOUNGS RD","HANOVER","PA","17331"
87699,"1750 ZION ROAD","NORTHFIELD","NJ","08225"
87700,"17500 ADDISON RD","ADDISON","MI","49220"
87701,"17500 CHANDLER PARK DR","DETROIT","MI","48224"
87702,"17500 CHENAL PARKWAY SUITE 500","LITTLE ROCK","AR","72223"
87703,"17500 ELAINE CT","MONTE SERENO","CA","95030"
87704,"17500 EVERGREEN HILL DRIVE","PRAIRIEVILLE","LA","70769"
87705,"17500 MANA RD","APPLE VALLEY","CA","92307"
87706,"17500 N 67TH AVE 2042","GLENDALE","AZ","85308"
87707,"17500 NORTHLAND PARK COURT","SOUTHFIELD","MI","48075"
87708,"17500 PINEHURST","DETROIT","MI","48221"
87709,"17500 REYNOLDS ST UNIT 423","MARINA","CA","93933"
87710,"17500 S FM 1258","CLAUDE","TX","79019"
87711,"17500 SW FARMINGTON ROAD","BEAVERTON","OR","97007"
87712,"17501 DUVAL RD","MOSELEY","VA","23120"
87713,"17501 GINGER RD","LITTLE FALLS","MN","56345"
87714,"17501 HOLT CT","FARIBAULT","MN","55021"
87715,"17501 SW 92 COURT","PALMETTO BAY","FL","33157"
87716,"17502 DEFOREST","CLEVELAND","OH","44128"
87717,"17502 PALOMINO DRIVE","BOTHELL","WA","98012"
87718,"17503 E HUNTSMAN AVE","REEDLEY","CA","93654"
87719,"17503 HWY 12","SONOMA","CA","95476"
87720,"17503 LA CANTERA PARKWAY STE104-265","SAN ANTONIO","TX","78257"
87721,"17503 LA CANTERA PKWY 104-174","SAN ANTONIO","TX","78257"
87722,"17503 LA CANTERA PKWY STE 104 - 430","SAN ANTONIO","TX","78257"
87723,"17503 LA CANTERA PKWY STE 104-497","SAN ANTONIO","TX","78257"
87724,"17504 14TH AVE W","LYNNWOOD","WA","98037"
87725,"17504 DEER HOLLOW DR","SIOUX CITY","IA","51109"
87726,"17504 DEER ISLE CIRCLE","WINTER GARDEN","FL","34787"
87727,"17505 CARLSON FARM COURT","GERMANTOWN","MD","20874"
87728,"17505 E BOONE AVE","SPOKANE VALLEY","WA","99016"
87729,"17505 SOARING FLIGHT DRIVE","PRAIRIEVILLE","LA","70769"
87730,"17506 ALVA RD","SAN DIEGO","CA","92127"
87731,"17506 CANTON FOREST DR","RICHMOND","TX","77407"
87732,"17506 JUNGQUIST RD","MOUNT VERNON","WA","98273"
87733,"17506 RUXTON CT","PARKER","CO","80134"
87734,"17506 SW BRITETREE CIR","BEAVERTON","OR","97007"
87735,"17507 WAGNER RD","LOS GATOS","CA","95032"
87736,"17508 AIRLIFTER DR DEBRIEF SECTION","JBER","AK","99504"
87737,"17508 AIRLIFTER DRIVE RM 117","JBER","AK","99506"
87738,"17508 AIRLIFTER DRIVE","ELMENDORF AFB","AK","99506"
87739,"17508 E 46TH ST","TULSA","OK","74134"
87740,"17509 BOTTLE SPRINGS LANE","LEANDER","TX","78641"
87741,"1750ECRAWLINGSTONE-LANE","LACDUFLAMBEAU","WI","54538"
87742,"1751 AMSTERDAM AVENUE SUITE 3A","NEW YORK","NY","10031"
87743,"1751 APPLETON WAY","POMONA","CA","91767"
87744,"1751 ASHLAND CITY APT N109","CLARKSVILLE","TN","37043"
87745,"1751 BENT CREEK DRIVE","LANCASTER","OH","43130"
87746,"1751 BROADWAY STREET","HAMMOND","WI","54015"
87747,"1751 CHERYL WAY","APTOS","CA","95003"
87748,"1751 E 114TH ST","LOS ANGELES","CA","90059"
87749,"1751 E MAIN ST","DUNCAN","SC","29334"
87750,"1751 E RIVERSIDE DRIVE","INDIANAPOLIS","IN","46202"
87751,"1751 ESCALANTE WAY","BURLINGAME","CA","94010"
87752,"1751 FORTUNE DR UNIT G4","SAN JOSE","CA","95131"
87753,"1751 GLEBE CREEK WAY","ODENTON","MD","21113"
87754,"1751 GLEN SHADY BLVD","KNOXVILLE","TN","37922"
87755,"1751 HOUGH STREET","FORT MYERS","FL","33901"
87756,"1751 JUDY WAY","EDGEWOOD","MD","21040"
87757,"1751 LANE 10","POWELL","WY","82435"
87758,"1751 LINN-JOHNSON RD","FAIRFAX","IA","52228"
87759,"1751 N CEDAR DR","ST GEORGE","UT","84770"
87760,"1751 N PARKWAY","MEMPHIS","TN","38112"
87761,"1751 N W 85 STREET","MIAMI","FL","33147"
87762,"1751 NOTTINGHAM RD","LANSING","MI","48911"
87763,"1751 NW 85TH STREET","MIAMI","FL","33147"
87764,"1751 OLD SWEDE RD","DOUGLASSVILLE","PA","19518"
87765,"1751 OLIVER ST","WHITING","IN","46394"
87766,"1751 OPLAINE RD","LIBERTYVILLE","IL","60048"
87767,"1751 RADCLIFF","GARDEN CITY","MI","48135"
87768,"1751 RIGHT FORK WILSON CREEK ROAD","WAYNE","WV","25570"
87769,"1751 RIVER RUN SUITE 200","FORT WORTH","TX","76107"
87770,"1751 S VALLEY FORGE ROAD","LANSDALE","PA","19446"
87771,"1751 STATE HWY 434 BOX 702","GUADALUPITA","NM","87722"
87772,"1751 SW ORCHARD PL","GRESHAM","OR","97080"
87773,"1751 SW WHIPPLE AVE","PORT SAINT LUCIE","FL","34953"
87774,"1751 VERNA LEE BLVD TRLR 23","HARKER HEIGHTS","TX","76548"
87775,"1751 WINDING CREEK TRAIL","SPRING BRANCH","TX","78070"
87776,"17510 BARRINGTON COURT","MINNETONKA","MN","55345"
87777,"17510 HUNTERSGLEN CIRCLE","HUMBLE","TX","77396"
87778,"17510 LONG VIEW LANE","OLNEY","MD","20832"
87779,"17510 PIONEER BLVD  224","ARTESIA","CA","90701"
87780,"17510 SHELBURNE LANE","SPRING","TX","77379"
87781,"17510 W GRAND PARKWAY S    STE 420","SUGAR LAND","TX","77479"
87782,"17511 ADOBE ST","HESPERIA","CA","92345"
87783,"17511 E RD MIZE RD","INDEPENDENCE","MT","64057"
87784,"17511 GREEN ROAD","HARVARD","IL","60033"
87785,"17511 HEIDELBERG WAY","LAKEVILLE","MN","55044"
87786,"17511 N MAIN ST","GALESVILLE","WI","54630"
87787,"17512 BRENT LN","TUSTIN","CA","92780"
87788,"17512 GRIFFIN LN STE 7","HUNTINGTON BEACH","CA","92647"
87789,"17512 POND VIEW PL","COLORADO SPRINGS","CO","80908"
87790,"17512 SKYLINE DRIVE","ASHTON","MD","20861"
87791,"17514 CAMBRIDGE GROVE DRIVE","HUNTERSVILLE","NC","28078"
87792,"17514 E STARFLOWER CT","QUEEN CREEK","AZ","85142"
87793,"17514 HEARTWIND CT","HOUSTON","TX","77095"
87794,"17514 RIVERWAY DRIVE","LAKEWOOD","OH","44107"
87795,"17515 49TH AVE N","PLYMOUTH","MN","55446"
87796,"17515 SPRING CYPRESS ROAD","CYPRESS","TX","77429"
87797,"17515 W 9 MILE RD  SUITE 370","SOUTHFIELD","MI","48075"
87798,"17515 W NINE MILE ROAD SUITE 245","SOUTHFIELD","MI","48075"
87799,"17516 MURRAY ROAD","MOUNT VERNON","OH","43050"
87800,"17516 NW SPRINGVILLE RD NUM 5","PORTLAND","OR","97229"
87801,"17517 BEAVER SPRINGS DR","SPRING","TX","77090"
87802,"17517 QUEEN ELIZABETH DRIVE","OLNEY","MD","20832"
87803,"17518 MIMICH WAY","LOUISVILLE","KY","40245"
87804,"17519 HEATHER ST NW","ANDOVER","MN","55304"
87805,"17519 N 97TH PLACE","SCOTTSDALE","AZ","85255"
87806,"17519 W DALEA DR","GOODYEAR","AZ","85338"
87807,"17519 WILD CHERRY LN","KING GEORGE","VA","22485"
87808,"1751D W HOWARD ST","CHICAGO","IL","60626"
87809,"1752 8TH AVENUE BLVD","LEWISTON","ID","83501"
87810,"1752 CAPITAL ST STE 400","ELGIN","IL","60124"
87811,"1752 CHARLES AVENUE","ARCATA","CA","95521"
87812,"1752 DEL DIOS ROAD","ESCONDIDO","CA","92029"
87813,"1752 E 106TH STREET","LOS ANGELES","CA","90002"
87814,"1752 E AVE J STE 151","LANCASTER","CA","93535"
87815,"1752 E LUGONIA AVE STE 117 RM 13","REDLANDS","CA","92374"
87816,"1752 E LUGONIA AVE SUITE 117-1045","REDLANDS","CA","92374"
87817,"1752 EAST AVENUE J 104","LANCASTER","CA","93535"
87818,"1752 GREENVIEW CIRCLE","MEMPHIS","TN","38108"
87819,"1752 HUTCHINSON LANE","SILVER SPRING","MD","20906"
87820,"1752 LAS GALLINAS AVE","SAN RAFAEL","CA","94903"
87821,"1752 MONO COURT","TULARE","CA","93274"
87822,"1752 MUSSO VIEW AVE","CHESHIRE","CT","06410"
87823,"1752 NASHVILLE LANE","CRYSTAL LAKE","IL","60014"
87824,"1752 NEW HYDE PARK RD","NEW HYDE PARK","NY","11040"
87825,"1752 NW MARKET ST / 617","SEATTLE","WA","98107"
87826,"1752 NW MARKET ST 4123","SEATTLE","WA","98107"
87827,"1752 NW MARKET ST UNIT 4114","SEATTLE","WA","98107"
87828,"1752 PARHAM STREET","HENDERSON","NC","27536"
87829,"1752 ROUTE 206","SOUTHAMPTON","NJ","08088"
87830,"1752 SIMMS ST","AURORA","IL","60504"
87831,"1752 W 49TH STREET","LOS ANGELES","CA","90062"
87832,"1752 W EL CAMINITO DR","PHOENIX","AZ","85021"
87833,"17520 CHARTER PINES DRIVE","MONUMENT","CO","80132"
87834,"17520 DARTOWN RD PO BOX 241","WESTFIELD","IN","46074"
87835,"17520 DARTOWN RD UNIT 761","WESTFIELD","IN","46074"
87836,"17520 W 12 MILE RD  STE 115","SOUTHFIELD","MI","48076"
87837,"17520 ZINC","EDMOND","OK","73012"
87838,"17521 HWY 59","LITTLE RIVER","AL","36550"
87839,"17521 VALLEY VIEW DRIVE","JORDAN","MN","55352"
87840,"17522 NW 22ND AVE","MIAMI GARDENS","FL","33056"
87841,"17525 433RD AVE SE","GOLD BAR","WA","98251"
87842,"17525 AURORA AVE N","SHORELINE","WA","98133"
87843,"17525 E JEFFERSON AVE","GROSSE POINTE","MI","48230"
87844,"17525 PINOPOLIS ROAD","CAPRON","VA","23829"
87845,"17525 SHEPHERDSTOWN PIKE","SHARPSBURG","MD","21782"
87846,"17525 SILENT HARBOR LOOP","PFLUGERVILLE","TX","78660"
87847,"17525 SW 107TH CT","MIAMI","FL","33157"
87848,"17525 VIA LINDO","TUSTIN","CA","92780"
87849,"17526 WEST SEVEN MILE","DETROIT","MI","48235"
87850,"17527 HARRIS WAY SUITE 104","CANYON COUNTRY","CA","91387"
87851,"17527 KITTRIDGE ST","LAKE BALBOA","CA","91406"
87852,"17528 SAGEBRUSH WAY","CARSON","CA","90746"
87853,"1753 40TH ST","SACRAMENTO","CA","95819"
87854,"1753 BARDSTOWN ROAD","LOUISVILLE","KY","40205"
87855,"1753 BREMAN LANE","INDIANAPOLIS","IN","46229"
87856,"1753 DUNES CLUB PLACE","FERNANDINA BEACH","FL","32034"
87857,"1753 E BROADWAY RD STE 101-212","TEMPE","AZ","85282"
87858,"1753 E BROADWAY RD SUITE 101-133","TEMPE","AZ","85282"
87859,"1753 E BROADWAY ROAD STE 101-293","TEMPE","AZ","85282"
87860,"1753 E BROADWAY ROAD SUITE 101 459","CHANDLER","AZ","85249"
87861,"1753 GOPHER RIDGE ROAD","SAMSON","AL","36477"
87862,"1753 HANNAFORD DR","SUGAR GROVE","IL","60554"
87863,"1753 LOCH HAVEN COURT","TRINITY","FL","34655"
87864,"1753 MAYAPPLE WAY","GAMBRILLS","MD","21054"
87865,"1753 OAKPARK DRIVE","ROCKFORD","IL","61107"
87866,"1753 S 41ST ST","TACOMA","WA","98418"
87867,"1753 W SEYBERT ST","PHILADELPHIA","PA","19121"
87868,"1753 WELLSTEAD ST","MT PLEASANT","SC","29466"
87869,"1753 WICK WAY","MONTGOMERY","IL","60538"
87870,"1753 WOODS TRAIL","EIGHT MILE","AL","36613"
87871,"17530 80TH AVENUE CT E","PUYALLUP","WA","98375"
87872,"17530 NE 8TH PL","MIAMI","FL","33162"
87873,"17530 NE TERRYS LANE","NEWBERG","OR","97132"
87874,"17530 STATELINE AVE","LANSING","IL","60438"
87875,"17531 ELEANOR LANE","UPPER MARLBORO","MD","20774"
87876,"17531 GLENMORRIS DR","HOUSTON","TX","77084"
87877,"17531 SARGENT RD SW","ROCHESTER","WA","98579"
87878,"17532 CERRO VERDE DR","YORBA LINDA","CA","92886"
87879,"17534 E 43RD ST","TULSA","OK","74134"
87880,"17534 FIR ISLAND ROAD","MOUNT VERNON","WA","98273"
87881,"17534 SUMNER RD","PECATONICA","IL","61063"
87882,"17535 CORAL GABLES AVE","LATHRUP VLG","MI","48076"
87883,"17535 CYPRESS LAUREL STREET","HOUSTON","TX","77095"
87884,"17535 SANDALWOOD DRIVE","TINLEY PARK","IL","60477"
87885,"17536 BRIDGEFARMER BLVD","PFLUGERVILLE","TX","78660"
87886,"17536 YELLOWWOOD WAY","CARSON","CA","90746"
87887,"17537 40TH AVENUE","CONKLIN","MI","49403"
87888,"17538 BAKER AVENUE","COUNTRY CLUB HILLS","IL","60478"
87889,"17538 HIGHWAY 171","NORTHPORT","AL","35475"
87890,"17539 LAHSER","DETROIT","MI","48219"
87891,"1754 BYFIELD PKWY","VALPARAISO","IN","46385"
87892,"1754 E FOREST","DES PLAINES","IL","60018"
87893,"1754 EAST 70TH STREET","SHREVEPORT","LA","71105"
87894,"1754 FAWN CIRCLE","PACIFIC","MO","63069"
87895,"1754 HEATHER CIRCLE","INDIANAPOLIS","IN","46229"
87896,"1754 HIGHWAY 162","KAMIAH","ID","83536"
87897,"1754 KINSAUL WILLOUGHBY ROAD","GREENVILLE","NC","27834"
87898,"1754 LORENZEN DR","SAN JOSE","CA","95124"
87899,"1754 SOUTHARD STREET","ERIE","CO","80516"
87900,"1754 TECHNOLOGY DR","SAN JOSE","CA","95110"
87901,"1754 TECHNOLOGY DRIVE SUITE 122","SAN JOSE","CA","95110"
87902,"1754 WEST WOODBINE AVE","KIRKWOOD","MO","63122"
87903,"17540 FREELAND","DETROIT","MI","48235"
87904,"17540 MADISON AVE APT35","LAKEWOOD","OH","44107"
87905,"17541 KEDZIE AVE UNIT 577","HAZEL CREST","IL","60429"
87906,"17541 KEDZIE AVENUE","HAZEL CREST","IL","60429"
87907,"17541 PRESCOTT LANE","HUNTINGTON BEACH","CA","92647"
87908,"17541 SW 153 COURT","MIAMI","FL","33187"
87909,"17542 SEQUOIA DR","DALLAS","TX","75252"
87910,"17543 BOCA RATON LN","POWAY","CA","92064"
87911,"17544 NORTHROP","DETROIT","MI","48219"
87912,"17545 LINCOLNSHIRE ROAD","HAGERSTOWN","MD","21740"
87913,"17545 QUEEN ELIZABETH DIVE","OLNEY","MD","20832"
87914,"17546 BIRCHCREST DR","DETROIT","MI","48221"
87915,"17547 CHATSWORTH ST UNIT ONE HALF","GRANADA HILLS","CA","91344"
87916,"17548 MAGGIE COURT","SPRING HILL","FL","34610"
87917,"1755 166TH STREET","WHITESTONE","NY","11357"
87918,"1755 19TH STREET","WEST LINN","OR","97068"
87919,"1755 AMWELL ROAD","SOMERSET","NJ","08873"
87920,"1755 BALLPARK RD","STURGIS","SD","57785"
87921,"1755 CANAAN RD","HARTLAND","ME","04943"
87922,"1755 CRAFT ROAD","OLIVE BRANCH","MS","38654"
87923,"1755 CRESCENT PLAZA DR APT 2095","HOUSTON","TX","77077"
87924,"1755 DELHI ST","DUBUQUE","IA","52001"
87925,"1755 EAST GARY RD","LAKELAND","FL","33801"
87926,"1755 EDGEWOOD AVE WEST","JACKSONVILLE","FL","32208"
87927,"1755 EL PASEO","LAS CRUCES","NM","88001"
87928,"1755 GLENMOUNT AVE","AKRON","OH","44301"
87929,"1755 GROVEWAY DR","GERMANTOWN","TN","38139"
87930,"1755 HAMSTEAD CIR","REDLANDS","CA","92374"
87931,"1755 HANSON STREET","FORT MYERS","FL","32901"
87932,"1755 HUNTINGTON DRIVE","DUARTE","CA","91010"
87933,"1755 IVY STREET - NUMBER 214","JUNCTION CITY","OR","97448"
87934,"1755 JUNIPER ST","JUNCTION CITY","OR","97448"
87935,"1755 LAKE COOK ROAD APT 319","HIGHLAND PARK","IL","60035"
87936,"1755 LOOKOUT DRIVE","AGOURA","CA","91301"
87937,"1755 MICHIGAN AVENUE","SALT LAKE CITY","UT","84108"
87938,"1755 N  750 W","HARRISVILLE","UT","84404"
87939,"1755 N BROWN RD STE 110","LAWRENCEVILLE","GA","30043"
87940,"1755 N GATEWAY BOULEVARD SUITE 101","FRESNO","CA","93727"
87941,"1755 N13TH ST UPS STORE PMB155","PHILADELPHIA","PA","19122"
87942,"1755 NORTH 13TH STREET ROOM 349M","PHILADELPHIA","PA","19121"
87943,"1755 NORTH 400 EAST SUITE 201","NORTH LOGAN","UT","84341"
87944,"1755 NORTH BROWN RD STE 200","LAWRENCEVILLE","GA","30043"
87945,"1755 OCEAN PKWY UNIT B12","BROOKLYN","NY","11223"
87946,"1755 OCEAN STREET","OCEANO","CA","93445"
87947,"1755 PALO DURO TRAIL","GRAPEVINE","TX","76051"
87948,"1755 PARK STREET SUITE 200 NO 1018","NAPERVILLE","IL","60563"
87949,"1755 PELICAN WAY","VERO BEACH","FL","32963"
87950,"1755 QUIVER POINT AVENUE","HENDERSON","NV","89012"
87951,"1755 S COLLEGE AVE","COLLEGE PLACE","WA","99324"
87952,"1755 S COLLEGE AVENUE","COLLEGE PLACE","WA","99324"
87953,"1755 S JAMES MADISON HWY","ORANGE","VA","22960"
87954,"1755 S KINGS AVE","BRANDON","FL","33511"
87955,"1755 TELSAR DR SUITE 300","COLORADO SPRINGS","CO","80920"
87956,"1755 THE EXCHANGE SUITE 190","ATLANTA","GA","30339"
87957,"1755 TRINITY AVENUE   SUITE 63","WALNUT CREEK","CA","94596"
87958,"1755 US HWY 68","MAYSVILLE","KY","41056"
87959,"1755 VENICE LN  APT 2W","NORTH MIAMI","FL","33181"
87960,"1755 WATSON AVENUE","BRONX","NY","10472"
87961,"1755 WAYAH DRIVE","CHARLESTON","SC","29414"
87962,"1755 WEST BOSQUE LOOP","BOSQUE FARMS","NM","87068"
87963,"1755 WOODLAND AVE","KANSAS CITY","MO","64108"
87964,"1755 WTLO ROAD","SOMERSET","KY","42503"
87965,"17550 N PERIMETER DR STE 130","SCOTTSDALE","AZ","85255"
87966,"17551 SUNNYBROOK AVENUE","LATHRUP VILLAGE","MI","48076"
87967,"17552 MULBERRY AVE","TINLEY PARK","IL","60487"
87968,"17552 ROSA DREW LN APT 16C","IRVINE","CA","92612"
87969,"17553 DEER ISLE CIRCLE","WINTER GARDEN","FL","34787"
87970,"17553 VENTURA BLVD","ENCINO","CA","91316"
87971,"17555 ATLANTIC BLVD APT 503","SUNNY ISLES BEACH","FL","33160"
87972,"17555 GILBERT DRIVE","LOCKPORT","IL","60441"
87973,"17555 TUOLUMNE ROAD","TUOLUMNE","CA","95379"
87974,"17555 VENTURA BLVD STE 204","ENCINO","CA","91316"
87975,"17556 AIKEN RD","LOUISVILLE","KY","40245"
87976,"17559 CHATSWORTH ST","GRANADA HILLS","CA","91344"
87977,"17559 PARK STREET","MELVINDALE","MI","48122"
87978,"1756 BRIDGEWATER DRIVE","ORLAND","FL","32746"
87979,"1756 IBIS LANE","WESTON","FL","33327"
87980,"1756 MEADOWLAWN DRIVE","COLUMBUS","OH","43219"
87981,"1756 MORNING VIEW ROAD","BRUSSELS","WI","54204"
87982,"1756 N 8150 W","MENDON","UT","84325"
87983,"1756 N BAYSHORE DR 11D","MIAMI","FL","33132"
87984,"1756 N BAYSHORE DRIVE APT24O","MIAMI","FL","33132"
87985,"1756 NORTH BAYSHORE DR APT 33 O","MIAMI","FL","33132"
87986,"1756 NORTH BAYSHORE DRIVE UNIT 38L","MIAMI","FL","33132"
87987,"1756 PICASSO AVE SUITE B","DAVIS","CA","95616"
87988,"1756 PUTNAM DRIVE","OAK HARBOR","WA","98277"
87989,"1756 S 65TH STREET","PHILADELPHIA","PA","19142"
87990,"1756 SIGNATURE CT","HAMPTON","GA","30228"
87991,"1756 SOUTH COURT STREET","MONTGOMERY","AL","36104"
87992,"1756 STEAM ENGINE SE","KENTWOOD","MI","49508"
87993,"1756 STITH VALLEY RD","GUSTON","KY","40142"
87994,"1756 TAMARIND AVENUE SUITE 309","HOLLYWOOD","CA","90028"
87995,"1756 W 89TH STREET","CHICAGO","IL","60620"
87996,"1756 W LOS ARBOLES CT","CHANDLER","AZ","85224"
87997,"1756 YELLOWSTONE CIRCLE","DICKINSON","ND","58601"
87998,"17560 NW 27TH AVE SUITE 107","MIAMI GARDENS","FL","33056"
87999,"17560 NW 27TH AVENUE SUITE 118","MIAMI GARDENS","FL","33056"
88000,"17560 US HWY 59 N","MOSCOW","TX","75960"
