"ID","Address","City","State","Zip"
243501,"5496 COCONUT BLVD","WEST PALM BEACH","FL","33411"
243502,"5496 HARGROVE BOULEVARD","VIRGINIA BEACH","VA","23464"
243503,"5496 HIGHWAY 92","ACWORTH","GA","30102"
243504,"5496 HUGH HOWELL RD","STONE MOUNTAIN","GA","30087"
243505,"5496 MOON VALLEY DRIVE","LAKELAND","FL","33812"
243506,"5496 RD 7 NW","EPHRATA","WA","98823"
243507,"5496 RIDGE RD","MARSHALL","WI","53559"
243508,"5496 WEST 13680 SO","HERRIMAN","UT","84096"
243509,"5497 INSPIRATION DRIVE","RIVERSIDE","CA","92506"
243510,"5497 JOYCE CT","GOLDEN","CO","80403"
243511,"5497 MOJAVE COURT","HELENA","MT","59602"
243512,"5497 SIERRA TRAIL","ATLANTA","GA","30349"
243513,"5498 ASHBURN ROAD","SPRINGFIELD","TN","37172"
243514,"5498 COUGAR PARK COURT","JACKSONVILLE","FL","32244"
243515,"5498 GREYSTON STREET","PALM HARBOR","FL","34685"
243516,"5498 WEEPING WILLOW DRIVE","HUDSON","OH","44236"
243517,"5499 CR 401 SOUTH","HENDERSON","TX","75654"
243518,"5499 DEVONWOOD STREET","CIBOLO","TX","78108"
243519,"5499 GREY GOOSE GULCH APT 5","CARMEL","CA","93923"
243520,"5499 HUNTER ROAD/POST OFFIC BOX 126","CALVERT","TX","77837"
243521,"5499 KEYHAVEN PLACE","ATLANTA","GA","30349"
243522,"5499 N FEDERAL HIGHWAY STE H","BOCA RATON","FL","33487"
243523,"5499 N FEDERAL HIGHWAY STE N","BOCA RATON","FL","33487"
243524,"5499 N FEDERAL HIGHWAY UNIT N","BOCA RATON","FL","33487"
243525,"5499 WYNHALL DRIVE","NORCROSS","GA","30071"
243526,"549A DICKMAN ROAD","FORT BLISS","TX","79906"
243527,"54B WESTLAND STREET","BOSTON","MA","02115"
243528,"55  MEADOWGATE BLVD","BEDFORD","OH","44146"
243529,"55  PLYMOUTH ST","NEWARK","NJ","07106"
243530,"55 23RD STREET","BRISTOL","TN","37620"
243531,"55 46TH STREET NE","WASHINGTON","DC","20019"
243532,"55 AGNES ST","TEMPLE","GA","30179"
243533,"55 ALCOVY FOREST DR","COVINGTON","GA","30014"
243534,"55 ALDER STREET APT 2-S","YONKERS","NY","10701"
243535,"55 ALHAMBRA CIRCLE","CRANSTON","RI","02905"
243536,"55 ARABIAN WAY","HOLLAND","PA","18966"
243537,"55 AUDUBON STREET","NEW HAVEN","CT","06510"
243538,"55 AVALON PLACE","FEEDING HILLS","MA","01030"
243539,"55 BARTLETT BAY RD","S BURLINGTON","VT","05403"
243540,"55 BEACONSDALE LANE","NEWPORT NEWS","VA","23601"
243541,"55 BEAVERBROOK ROAD","ASHEVILLE","NC","28804"
243542,"55 BEECHWOOD HILL TRAIL","EXETER","RI","02822"
243543,"55 BENNETT AVENUE","HUNTINGTON STATION","NY","11746"
243544,"55 BENSON DR NO","LEWISTON","MN","55952"
243545,"55 BERWICK ROAD","SOUTH BERWICK","ME","03908"
243546,"55 BIRCH CT","NORTH LIBERTY","IA","52317"
243547,"55 BIRCHWOOD DRIVE WEST","VALLEY STREAM","NY","11580"
243548,"55 BLACK ALDER DR","PALM COAST","FL","32137"
243549,"55 BOGGESS ST","BUCKHANNON","WV","26201"
243550,"55 BRADLEY TERRACE","WATSONVILLE","CA","95076"
243551,"55 BROADWAY FLOOR 3","NEW YORK","NY","10006"
243552,"55 BROADWAY NO 325","GREENLAWN","NY","11740"
243553,"55 BROWN HILL ROAD","BOW","NH","03304"
243554,"55 CAMPAU AVE NW SUITE 300","GRAND RAPIDS","MI","49503"
243555,"55 CAMPAU AVENUE NW SUITE 300","GRAND RAPIDS","MI","49503"
243556,"55 CARDINAL LANE","MANDEVILLE","LA","70471"
243557,"55 CASTLE ROCK TRAIL","SEDONA","AZ","86336"
243558,"55 CAVENDISH DRIVE","AMBLER","PA","19002"
243559,"55 CENTER AVE EXT","NORWALK","CT","06851"
243560,"55 CENTER STREET","WESTPORT","CT","06880"
243561,"55 CHANNING AVENUE","PORTSMOUTH","VA","23702"
243562,"55 CHRISTIANS DRIVE","HANOVER","PA","17331"
243563,"55 CHURCH STREET","BRIDGEVILLE","DE","19933"
243564,"55 CHURCHILL STREET","SUDBURY","MA","01776"
243565,"55 CLINTON PLACE APT 203","HACKENSACK","NJ","07601"
243566,"55 COMMERCIAL AVE","NEW BRUNSWICK","NJ","08901"
243567,"55 CONSTANCE LN","NORTHBROOK","IL","60062"
243568,"55 CONSTITUTION DR","BEDFORD","NH","03110"
243569,"55 CONSTITUTION DRIVE","BEDFORD","NH","03110"
243570,"55 COVE CIRCLE","BROWNSVILLE","TX","78521"
243571,"55 CREEK BANK COURT","ACWORTH","GA","30101"
243572,"55 CREST PLACE","GADSDEN","AL","35901"
243573,"55 CRICKET LANE","TURNERSVILLE","NJ","08012"
243574,"55 CURTIS AVENUE","WOODBURY","NJ","08096"
243575,"55 DENNIS KNIGHT ROAD","COLLINS","MS","39428"
243576,"55 DORRANCE STREET","PROVIDENCE","RI","02903"
243577,"55 DOSCHER STREER","BROOKLYN","NY","11208"
243578,"55 DUNBAR STREET","CHATHAM","NJ","07928"
243579,"55 DUNMORE CT","FALLING WATERS","WV","25419"
243580,"55 DUSK DR","NEW ROCHELLE","NY","10804"
243581,"55 E 21ST","BROOKLYN","NY","11226"
243582,"55 E 3RD AVE","SAN MATEO","CA","94401"
243583,"55 E CIRCLE DR","EAST LONGMEADOW","MA","01028"
243584,"55 E GARFIELD  UNIT 609","CHICAGO","IL","60637"
243585,"55 E GRANADA BLVD UNIT 1553","ORMOND BEACH","FL","32175"
243586,"55 E GREYHOUND PASS","CARMEL","IN","46032"
243587,"55 E HUNTINGTON DR STE 108","ARCADIA","CA","91006"
243588,"55 E JACKSON BLVD SUITE 490","CHICAGO","IL","60604"
243589,"55 E LAWN DRIVE","COVINGTON","GA","30016"
243590,"55 E LINCOLN RD STE 102","SPOKANE","WA","99208"
243591,"55 E LONG LAKE RD NUM 401","TROY","MI","48085"
243592,"55 E LONG LAKE ROAD    SUITE 348","TROY","MI","48085"
243593,"55 E MONROE STREET SUITE 3800","CHICAGO","IL","60603"
243594,"55 E NORTH AVENUE","NORTHLAKE","IL","60164"
243595,"55 E RICHMOND STREET","WESTMONT","IL","60559"
243596,"55 E RUSSET GROVE CIRCLE","THE WOODLANDS","TX","77384"
243597,"55 E VILLA STREET","Pasadena","CA","91103"
243598,"55 EAST 18TH STREET","ANTIOCH","CA","94509"
243599,"55 EAST 200 SOUTH","ORANGEVILLE","UT","84537"
243600,"55 EAST 3RD STREET","SAN MATEO","CA","94401"
243601,"55 EAST 40TH STREET","BROOKLYN","NY","11203"
243602,"55 EAST 84TH STREET","NEW YORK","NY","10028"
243603,"55 EAST CUTHBERT BLVD","HADDON TOWNSHIP","NJ","08108"
243604,"55 EAST LONG LAKE RD  BOX 239","TROY","MI","48085"
243605,"55 EAST MONROE STREET","CHICAGO","IL","60603"
243606,"55 EAST TERRACE","PORTSMOUTH","RI","02871"
243607,"55 EAST WAY","MOUNT KISCO","NY","10549"
243608,"55 EASTERN PARKWAY","HILLSIDE","NJ","07205"
243609,"55 EBERHARDT RD","EAST HANOVER","NJ","07936"
243610,"55 ELM STREET","CARTERET","NJ","07008"
243611,"55 EMERALD CT","SATELLITE BEACH","FL","32937"
243612,"55 EMERALD DR","DRACUT","MA","01826"
243613,"55 EMMETT PL","YONKERS","NY","10703"
243614,"55 ESSEX ST APT 606","CAMBRIDGE","MA","02139"
243615,"55 ESSEX STREET APT 606","CAMBRIDGE","MA","02139"
243616,"55 FAIR DRIVE","COSTA MESA","CA","92626"
243617,"55 FAREWELL STREET","NEWPORT","RI","02840"
243618,"55 FARMHILL ROAD","WRENTHAM","MA","02093"
243619,"55 FILLMORE STREET","SAN FRANCISCO","CA","94117"
243620,"55 FIRE ROAD 10","LANCASTER","MA","01523"
243621,"55 FIRST STREET","PELHAM","NY","10803"
243622,"55 FIVE CENT RANCH ROAD","REPUBLIC","WA","99166"
243623,"55 FOURTH ST","FAIR HAVEN","VT","05743"
243624,"55 FREEDOM DRIVE NE","CARTERSVILLE","GA","30121"
243625,"55 FRUIT STREET WHT535","BOSTON","MA","02114"
243626,"55 GATES STREET","SLOAN","NY","14212"
243627,"55 GILMER ST SE","ATLANTA","GA","30303"
243628,"55 GIRARD AVE","HARTFORD","CT","06106"
243629,"55 GLEN STREET","DOVER","MA","02030"
243630,"55 GLENWOOD DRIVE","WARWICK","RI","02889"
243631,"55 GRAY FOX RUN  STE 1","CAMDENTON","MO","65020"
243632,"55 GREENWICH ROAD","AMHERST","MA","01002"
243633,"55 GROUNDS DR","SEDONA","AZ","86336"
243634,"55 HAMILTON AVE","OYSTER BAY","NY","11771"
243635,"55 HAMILTON DRIVE","PORTSMOUTH","RI","02871"
243636,"55 HARRFISTOWN RD SUITE 106","GLEN ROCK","NJ","07452"
243637,"55 HARRISTOWN ROAD   SUITE 106","GLEN ROCK","NJ","07452"
243638,"55 HARRISTOWN ROAD SUITE 106","GLEN ROCK","NJ","07452"
243639,"55 HARRISTOWN ROAD SUTE 106","GLEN ROCK","NJ","07452"
243640,"55 HEWITT STREET","ROCHESTER","NY","14612"
243641,"55 HICKORY ROAD","WOODBRIDGE","CT","06525"
243642,"55 HOLLOWAY RD","ROBBINSVILLE","NC","28771"
243643,"55 HOSMER STREET","WEST BOYLSTON","MA","01583"
243644,"55 HUDSON AVE","MAPLEWOOD","NJ","07040"
243645,"55 HUMMINGBIRD LANE","ORMOND BEACH","FL","32174"
243646,"55 ILION STREET","TONAWANDA","NY","14150"
243647,"55 JACOB STREET","NEWARK","NJ","07103"
243648,"55 JAMES NECK","SAINT JAMES","NY","11780"
243649,"55 JEFFREY DRIVE","AMHERST","NY","14228"
243650,"55 JENSEN RD","SAYREVILLE","NJ","08872"
243651,"55 JEWELERS PARK DRIVE SUITE 400","NEENAH","WI","54956"
243652,"55 JOHN CLARKE ROAD SUITE B1","MIDDLETOWN","RI","02842"
243653,"55 JUNIPER RD","CENTERVILLE","MA","02632"
243654,"55 KNOLLS CRESCENT APT 11J","BRONX","NY","10463"
243655,"55 LA SALLE STREET APT 20A","NEW YORK","NY","10027"
243656,"55 LAFAYETTE ROAD","NORTH HAMPTON","NH","03862"
243657,"55 LAKE DELAWARE DRIVE","DELHI","NY","13753"
243658,"55 LAKE HAVASU AVE S  F165","LAKE HAVASU CITY","AZ","86403"
243659,"55 LAKE HAVASU AVE S SUITE F-250","Lake Havasu City","AZ","86403"
243660,"55 LAKESIDE RD","MOUNT DESERT","ME","04660"
243661,"55 LANIER RDG","ACWORTH","GA","30101"
243662,"55 LITTLE COMFORT ROAD","SAVANNAH","GA","31411"
243663,"55 LONG HILL TERRACE","NEW HAVEN","CT","06515"
243664,"55 LOST CREEK LANE","BUENA VISTA","VA","24416"
243665,"55 LUZANNE CIRCLE","SAN ANSELMO","CA","94960"
243666,"55 MADISON AVE STE 424","MORRISTOWN","NJ","07960"
243667,"55 MADISON AVE SUITE 400","MORRISTOWN","NJ","07960"
243668,"55 MADISON AVENUE SUITE 400","MORRISTOWN","NJ","07960"
243669,"55 MAIN STREET SUITE 101","WOONSOCKET","RI","02895"
243670,"55 MAIN STREET","EAST ROCHESTER","NH","03868"
243671,"55 MALLORY AVENUE - 60","JERSEY CITY","NJ","07305"
243672,"55 MARBELLA DRIVE","RANCHO MIRAGE","CA","92270"
243673,"55 MARLOW DR APT 3","OAKLAND","CA","94605"
243674,"55 MARTHA ROAD","BOSTON","MA","02114"
243675,"55 MCLAUGHLIN DRIVE","GREENSBURG","PA","15601"
243676,"55 MEADOW STREET SUITE 222","BROOKLYN","NY","11206"
243677,"55 MELBOURNE ROAD","HYANNIS","MA","02601"
243678,"55 MERIDIAN PARKWAY SUITE 103","MARTINSBURG","WV","25404"
243679,"55 MINERVA STREET","SAN FRANCISCO","CA","94112"
243680,"55 MITCHELL BLVD  SUITE 16","SAN RAFAEL","CA","94903"
243681,"55 MOHAWK PATH TRL","THE WOODLANDS","TX","77389"
243682,"55 MONTGOMERY ST","PARISH","NY","13131"
243683,"55 MORNINGSIDE DRIVE","LONGMEADOW","MA","01106"
243684,"55 N HILLSIDE RD","CANFIELD","OH","44406"
243685,"55 N LOUDVILLE ROAD","FLORENCE","MA","01062"
243686,"55 N MULBERRY ST","MANSFIELD","OH","44902"
243687,"55 N PARK AVE UNIT 3402","TUCSON","AZ","85719"
243688,"55 N RAILROAD STREET","REBECCA","GA","31783"
243689,"55 N ROUTE 9W","WEST HAVERSTRAW","NY","10993"
243690,"55 N ROUTE O","ROCHEPORT","MO","65279"
243691,"55 NEW MONMOUTH ROAD","MIDDLETOWN","NJ","07748"
243692,"55 NEWTON SPARTA RD UNIT 107","NEWTON","NJ","07860"
243693,"55 NIGHTINGALE TRAIL","ENON","OH","45323"
243694,"55 NORTH 25TH ST","BATTLE CREEK","MI","49015"
243695,"55 NORTH MAIN STREET","HIGH SPRINGS","FL","32643"
243696,"55 OAKLAND AVE","LYNN","MA","01905"
243697,"55 OAKLAWN DRIVE","COVINGTON","LA","70433"
243698,"55 OLD HANCOCK ROAD","HANCOCK","NH","03449"
243699,"55 ORIOLE DRIVE","STEVENS","PA","17578"
243700,"55 PARISH RD","NEW CANAAN","CT","06840"
243701,"55 PARK AVENUE UNIT 35","BLOOMFIELD","NJ","07003"
243702,"55 PARK PLACE SUITE 300","ATLANTA","GA","30303"
243703,"55 PATRICK DRIVE","SNOW HILL","NC","28580"
243704,"55 PATRIOT WAY","UXBRIDGE","MA","01569"
243705,"55 PEACH GLEN RD","GARDNERS","PA","17324"
243706,"55 PECUNIT ST","CANTON","MA","02021"
243707,"55 PENN RIDGE CT","NORTH LIBERTY","IA","52317"
243708,"55 PHILLIPS ST","MIDDLETOWN","NY","10940"
243709,"55 PILGRIM ROAD","EDGARTOWN","MA","02539"
243710,"55 PIONEER CIRCLE","ATTLEBORO","MA","02703"
243711,"55 POLARIS LANE","TEWKSBURY","MA","01876"
243712,"55 PONDFIELD ROAD","BRONXVILLE","NY","10708"
243713,"55 POOSPATUCK LN","MASTIC","NY","11950"
243714,"55 PROSPECT PARK SW","BROOKLYN","NY","11215"
243715,"55 RESER RD","WALLA WALLA","WA","99362"
243716,"55 RICHFIELD STREET","PLAINVIEW","NY","11803"
243717,"55 RIVER OAKS PL SUITE 498","SAN JOSE","CA","95134"
243718,"55 RIVERCREST DRIVE","RIVERDALE","GA","30274"
243719,"55 RIVERWALK PL APT 732","WEST NEW YORK","NJ","07093"
243720,"55 ROBERTS ST","MALDEN","MA","02148"
243721,"55 ROLLING MEADOWS DR","CLAYTON","NC","27527"
243722,"55 S BARNSTEAD RD SUITE 21","CENTER BARNSTEAD","NH","03225"
243723,"55 S BRINKER AVE","COLUMBUS","OH","43204"
243724,"55 S KUKUI STREET","HONOLULU","HI","96813"
243725,"55 S LAKE AVE SUITE 600","PASADENA","CA","91101"
243726,"55 S MAIN STREET","LOBELVILLE","TN","37097"
243727,"55 S MIDLAND BLVD","NAMPA","ID","83651"
243728,"55 S STATE STREET 337","INDIANAPOLIS","IN","46220"
243729,"55 S VIEW DR","DEPEW","NY","14043"
243730,"55 SANFORD STREET","SAINT AUGUSTINE","FL","32084"
243731,"55 SANTA CLARA AVE STE 127","OAKLAND","CA","94610"
243732,"55 SCHUELE AVENUE","BUFFALO","NY","14215"
243733,"55 SE 2ND AVE","DELRAY BEACH","FL","33444"
243734,"55 SE 6TH APT 3701","MIAMI","FL","33131"
243735,"55 SE 6TH ST","MIAMI","FL","33131"
243736,"55 SE 6TH STREET APARTMENT 4106","MIAMI","FL","33131"
243737,"55 SE 6TH STREET UNIT 1506","MIAMI","FL","33131"
243738,"55 SHADOW LANE","WHISPERING PINES","NC","28327"
243739,"55 SHAW AVENUE SUITE 205","CLOVIS","CA","93612"
243740,"55 SIERRA VISTA DR","MONTEREY","CA","93940"
243741,"55 SILVER RIDGE RD","COVINGTON","GA","30016"
243742,"55 SMALLWOOD AVE","BELLEVILLE","NJ","07109"
243743,"55 SMITH ST","EAST STROUDSBURG","PA","18301"
243744,"55 SOUTH BAYSHORE DRIVE","EASTPOINT","FL","32328"
243745,"55 SOUTH COCALICO ROAD","DENVER","PA","17517"
243746,"55 SOUTH KUKUI STREET C109","HONOLULU","HI","96813"
243747,"55 SOUTH KUKUI STREET/D-1202","HONOLULU","HI","96813"
243748,"55 SOUTH MAIN STREET","LOBELVILLE","TN","37097"
243749,"55 SOUTH VILLAGE ST  SUITE 1","LOUDON","NH","03307"
243750,"55 SPRINGSTOWNE CTR STE 120","VALLEJO","CA","94591"
243751,"55 SPRINGSTOWNE CTR STE 325","VALLEJO","CA","94591"
243752,"55 SPRINGTOWNE CIR","BALTIMORE","MD","21234"
243753,"55 SR 46 E","NASHVILLE","IN","47448"
243754,"55 STATE STREET","TROY","NY","12180"
243755,"55 STEARNS AVE","MANSFIELD","MA","02048"
243756,"55 SUMMER STREET","LYNNFIELD","MA","01940"
243757,"55 SUMMER STREET","ROCHESTER","NH","03867"
243758,"55 SUNNYMEAD ROAD","HILLSBOROUGH","NJ","08844"
243759,"55 SUNRISE DRIVE","WILLISTON","VT","05495"
243760,"55 SUNSET AVENUE","VERONA","NJ","07044"
243761,"55 SUTHERLAND STREET","PITTSFORD","NY","14534"
243762,"55 SW 6TH STREET","LAKE BUTLER","FL","32054"
243763,"55 SW APPALOOSA ST","STUART","FL","34997"
243764,"55 SWEET ALLEN FARM ROAD","SOUTH KINGSTOWN","MA","02879"
243765,"55 TALMADGE RD","PROSPECT","CT","06712"
243766,"55 TAYLOR ST","SAN FRANCISCO","CA","94102"
243767,"55 THOMAS AVENUE","HAVERHILL","MA","01832"
243768,"55 TIPTOE LN","HILLSBOROUGH","CA","94010"
243769,"55 TOBIN AVE","GREAT NECK","NY","11021"
243770,"55 TOTTEN DRIVE","BRIDGEWATER","NJ","08807"
243771,"55 TRUESDALE LAKE DR","SOUTH SALEM","NY","10590"
243772,"55 TURNSTONE DR","SAFETY HARBOR","FL","34695"
243773,"55 UNION PL UNIT 280","SUMMIT","NJ","07901"
243774,"55 UNION PLACE","SUMMIT","NJ","07901"
243775,"55 UNION ST","ONEONTA","NY","13820"
243776,"55 VALDEZ AVENUE","SAN FRANCISCO","CA","94112"
243777,"55 VALLEY VIEW AVE","RIDGEWOOD","NJ","07450"
243778,"55 VAN BUREN ST NW","WASHINGTON","DC","20012"
243779,"55 VANDEWATER STREET APT 8","SAN FRANCISCO","CA","94133"
243780,"55 VINCE DR","BENNET","NE","68317"
243781,"55 W 116TH ST STE 412","NEW YORK","NY","10026"
243782,"55 W 12TH ST","COLUMBUS","OH","43210"
243783,"55 W 68TH STREET - APT 3A","NEW YORK","NY","10023"
243784,"55 W DELAWARE PLACE  APT 901","CHICAGO","IL","60610"
243785,"55 W FEDERAL HWY","ROSCOMMON","MI","48653"
243786,"55 W MIDLAND AVE","PARAMUS","NJ","07652"
243787,"55 W NEW STREET","WINDER","GA","30680"
243788,"55 WALDEN MILL WAY","CATONSVILLE","MD","21228"
243789,"55 WALLACE SSTREET","BELLEVILLE","NJ","07109"
243790,"55 WALLACE STREET","BELLEVILLE","NJ","07109"
243791,"55 WALNUT STREET","MONTCLAIR","NJ","07042"
243792,"55 WANAQUE AVE NUM 102","POMPTON LAKES","NJ","07442"
243793,"55 WASHINGTON ST STE 714","BROOKLYN","NY","11201"
243794,"55 WASHINGTON STREET SUITE 300","BROOKLYN","NY","11201"
243795,"55 WATERBURY CIRCLE","OSWEGO","IL","60543"
243796,"55 WATERFORD DRIVE","WHEATLEY HTS","NY","11798"
243797,"55 WATSON DRIVE","MOUNT LAUREL","NJ","08054"
243798,"55 WEST 116 STREET SUITE 236","NEW YORK","NY","10026"
243799,"55 WEST 116TH STREET SUITE 159","NEW YORK","NY","10026"
243800,"55 WEST 116TH STREET SUITE 204","NEW YORK","NY","10026"
243801,"55 WEST 116TH STREET SUITE 236","NEW YORK","NY","10026"
243802,"55 WEST 116TH STREET SUITE 288","NEW YORK","NY","10026"
243803,"55 WEST 129TH STREET","NEW YORK CITY","NY","10027"
243804,"55 WEST 400 SOUTH","RICHFIELD","UT","84701"
243805,"55 WEST 92ND STREET APT 2H","NEW YORK CITY","NY","10025"
243806,"55 WEST BOYLSTON DRIVE","WORCESTER","MA","01606"
243807,"55 WEST CHURCH STREET STE 2921","ORLANDO","FL","32801"
243808,"55 WEST MONROE STREET  SUITE 990","CHICAGO","IL","60603"
243809,"55 WEST RIVER PARKWAY","NORTH PROVIDENCE","RI","02904"
243810,"55 WEST RIVER PKWY","NORTH PROVIDENCE","RI","02904"
243811,"55 WEST WATER STREET","MIDDLETOWN","PA","17057"
243812,"55 WESTGATE RD","ASHEVILLE","NC","28806"
243813,"55 WHITNEY AVENUE SUITE 450","NEW HAVEN","CT","06510"
243814,"55 WHITNEY AVENUE","NEW HAVEN","CT","06510"
243815,"55 WHITNEY STE 430","NEW HAVEN","CT","06510"
243816,"55 WILLIAM PENN DRIVE","SCHWENKSVILLE","PA","19473"
243817,"55 WILLIAMS ROAD","SHARON","MA","02067"
243818,"55 WILLOUGHBY ST","BROOKYN","NY","11201"
243819,"55 WILLOW SPRINGS DRIVE","OAKLAND","TN","38060"
243820,"55 WINSTER FAX","WILLIAMSBURG","VA","23185"
243821,"55 WINTHROP STREET - FLOOR 2","SPRINGFIELD","MA","01105"
243822,"55 WOODCLIFF AVE","WESTWOOD","NJ","07675"
243823,"55 WOODS LANE  PO BOX 805","GEYSERVILLE","CA","95441"
243824,"55 YELLOW STRAW LN","HALL","MT","59837"
243825,"55-044 LANIHULI ST","LAIE","HI","96762"
243826,"55-050 KAMEHAMEHA HWY","LAIE","HI","96762"
243827,"55-080 KAMEHAMEHA HIGHWAY","HAUULA","HI","96717"
243828,"55-130 NAUPAKA STREET","LAIE","HI","96762"
243829,"55-158 KULANUI ST","LAIE","HI","96762"
243830,"55-164 KULANUI ST","LAIE","HI","96762"
243831,"55-220 KULANUI ST","LAIE","HI","96762"
243832,"55-421 KAMEHAMEHA HWY APT A","LAIE","HI","96762"
243833,"55-551 MOANA ST","LAIE","HI","96762"
243834,"55-603 MOANA STREET","LAIE","HI","96762"
243835,"55-607 NANILAO LOOP APT B","LAIE","HI","96762"
243836,"55","BELGRADE","MT","59714"
243837,"55","GLENWOOD CITY","WI","54013"
243838,"55","TIPTON","IN","46072"
243839,"550  N MARLEY RD","NEW LENOX","IL","60451"
243840,"550 15TH STREET UNIT 606","SAN DIEGO","CA","92101"
243841,"550 29TH AVENUE","SAN MATEO","CA","94403"
243842,"550 7TH ST W","HASTINGS","MN","55033"
243843,"550 ADELINE STREET","OAKLAND","CA","94607"
243844,"550 AIRPORT ROAD - SUITE 500","ROCK HILL","SC","29732"
243845,"550 AMBRYM DRIVE","FAIRVIEW","TX","75069"
243846,"550 AMERICAN AVE STE 203","KING OF PRUSSIA","PA","19406"
243847,"550 ANCHOR DRIVE","JOPPA","MD","21085"
243848,"550 AZALEA CIRCLE","NORTHFIELD","OH","44067"
243849,"550 BELLESTRI DRIVE","MONROE","MI","48161"
243850,"550 BLACKBERRY LANE","SAN RAFAEL","CA","94903"
243851,"550 BOBCAT RD","SUMMERFIELD","NC","27358"
243852,"550 BOURBON ST","GEORGETOWN","KY","40324"
243853,"550 BRANCH AVE","PROVIDENCE","RI","02904"
243854,"550 BUSH ROAD","JUPITER","FL","33458"
243855,"550 CASCADE DRIVE","LEBANON","OR","97335"
243856,"550 CENTRAL AVE","MIDDLETOWN","IN","47356"
243857,"550 CLAYPOOL BOYCE RD","ALVATON","KY","42122"
243858,"550 COCHITUATE ROAD SUITE 25","FRAMINGHAM","MA","01701"
243859,"550 COLUMBUS AVE APT 5","BOSTON","MA","02118"
243860,"550 CORAL COURT APT 2A","NEWPORT NEWS","VA","23606"
243861,"550 COUNTRY DR","RINGGOLD","VA","24586"
243862,"550 COUNTY HIGHWAY 782","DELANO","TN","37331"
243863,"550 COUNTY RD 502","BAYFIELD","CO","81122"
243864,"550 COURTHOUSE ROAD","STAFFORD","VA","22554"
243865,"550 COVE COURT 550","SAN LEANDRO","CA","94578"
243866,"550 CR 912A","BRAZORIA","TX","77422"
243867,"550 CRANES WAY APT 224","ALTAMONTE SPRGS","FL","32701"
243868,"550 CRESTWOOD AVE","WADSWORTH","OH","44281"
243869,"550 DORIAN ROAD","WESTFIELD","NJ","07090"
243870,"550 DULLES AVENUE","SUGAR LAND","TX","77478"
243871,"550 E 61ST","CHICAGO","IL","60637"
243872,"550 E CARSON PLAZA DR SUITE 221","CARSON","CA","90746"
243873,"550 E CARSON PLAZA DRIVE STE 232","CARSON","CA","90746"
243874,"550 E HAMBURG ST","PINCKNEY","MI","48169"
243875,"550 E HOSPITALITY LANE SUITE 200","SAN BERNARDINO","CA","92408"
243876,"550 E MCKELLIPS RD APT 1006","MESA","AZ","85203"
243877,"550 E MONA DR","OAK CREEK","WI","53154"
243878,"550 E SHAW AVE SUITE 240-21","FRESNO","CA","93710"
243879,"550 E SPRING STREET","COLUMBUS","OH","43215"
243880,"550 E STATE HIGHWAY 100","PALM COAST","FL","32164"
243881,"550 E WEDDELL DR UNIT 1121","SUNNYVALE","CA","94089"
243882,"550 EARL GARRETT STREET SUITE 103","KERRVILLE","TX","78028"
243883,"550 EAST 8TH STREET","HIALEAH","FL","33010"
243884,"550 EAST CHESTER STREET","LONG BEACH","NY","11561"
243885,"550 EAST HOSPITALITY LANE-SUITE 300","SAN BERNARDINO","CA","92408"
243886,"550 EAST MARKET ST","DALY CITY","CA","94014"
243887,"550 EAST SOUTH BOUNDARY","PERRYSBURG","OH","43551"
243888,"550 EAST TENNESSEE STREET","TALLAHASSEE","FL","32308"
243889,"550 EL CIELO ROAD 11","PALM SPRINGS","CA","92264"
243890,"550 EUGENE ST","FERNDALE","CA","95536"
243891,"550 F AVE","CORONADO","CA","92118"
243892,"550 FANNIN SUITE 600","BEAUMONT","TX","77701"
243893,"550 FISHERMAN STREET  541642","OPA-LOCKA","FL","33053"
243894,"550 FLYING POINT ROAD","WATER MILL","NY","11976"
243895,"550 FOREST AVE SUITE 14- 2","PLYMOUTH","MI","48170"
243896,"550 FRANKLIN AVENUE","BROOKLYN","NY","11238"
243897,"550 GOLDFINCH WAY","STOCKBRIDGE","GA","30281"
243898,"550 GRACELAND AVE - APT 11","DES PLAINES","IL","60016"
243899,"550 GREY GOOSE LANE","EFFORT","PA","18330"
243900,"550 GUS HIPP BLVD SUITE 1","ROCKLEDGE","FL","32955"
243901,"550 HANCOCK STREET","Q","MA","02170"
243902,"550 HARMONY SCHOOL ROAD","JASPER","GA","30143"
243903,"550 HARVEST PARK DR STE B","BRENTWOOD","CA","94513"
243904,"550 HIETTS LN SUITE C","CLARKSVILLE","TN","37043"
243905,"550 HIGHLAND STREET","FREDERICK","MD","21701"
243906,"550 HIGHWAY 72 BY-PASS","GREENWOOD","SC","29649"
243907,"550 HOMESTEAD ROAD","HERSHEY","PA","17033"
243908,"550 IDA ST    2SW","DES PLAINES","IL","60016"
243909,"550 JIMMY CARTER BLVRD   SUITE 110","NORCROSS","GA","30093"
243910,"550 JOHN WESLEY DOBBS AVE NE APT B","ATLANTA","GA","30312"
243911,"550 JUNE LN APT 302","RALEIGH","NC","27610"
243912,"550 KINGS AVE","LAKESIDE","OR","97449"
243913,"550 KNOX AVE","BOYD","TX","76023"
243914,"550 LAGUNA DRIVE SUITE A","CARLSBAD","CA","92008"
243915,"550 LARKSPUR ST H328","PONDERAY","ID","83852"
243916,"550 LENA STREET","SAINT AUGUSTINE","FL","32084"
243917,"550 LENOIR ROAD","MORGANTON","NC","28655"
243918,"550 LIBERTY SQUARE RD","BOXBOROUGH","MA","01719"
243919,"550 LINDSAY ST NW","ATLANTA","GA","30314"
243920,"550 LONG POINT ROAD","MOUNT PLEASANT","SC","29464"
243921,"550 MAIN ST","CAIRO","NY","12413"
243922,"550 MAIN STREET","CAIRO","NY","12413"
243923,"550 MALTBIE STREET","LAWRENCEVILLE","GA","30046"
243924,"550 MANOR RD SUITE 1042","STATEN ISLAND","NY","10314"
243925,"550 MANZANITA ROAD","REDLANDS","CA","92373"
243926,"550 MASSACHUSETTS AVE FLOOR 3","CAMBRIDGE","MA","02139"
243927,"550 MAYBELL AVE","PALO ALTO","CA","94306"
243928,"550 MCDONALD ST","GUNTER ANNEX","AL","36114"
243929,"550 MCDONALD ST","MONTGOMERY","AL","36114"
243930,"550 MEADE AVE","CHARLOTTESVILLE","VA","22902"
243931,"550 MEIGS STREET","ROCHESTER","NY","14607"
243932,"550 MINOT AVE","AUBURN","ME","04210"
243933,"550 MOREHOUSE ROAD","EASTON","CT","06612"
243934,"550 N 120 W","LINDON","UT","84042"
243935,"550 N 159TH ST E SUITE 309","WICHITA","KS","67230"
243936,"550 N 2300 EAST ROAD","PANA","IL","62557"
243937,"550 N CENTRAL EXPRESSWAY - UNIT 622","MCKINNEY","TX","75070"
243938,"550 N CENTRAL EXPRESSWAY 1274","MCKINNEY","TX","75070"
243939,"550 N CENTRAL EXPRESSWAY","MCKINNEY","TX","75070"
243940,"550 N CENTRAL EXPY NUM 2633","MCKINNEY","TX","75070"
243941,"550 N CENTRAL EXPY UNIT 18","MCKINNEY","TX","75070"
243942,"550 N CONGRESS AVE SUITE23","WEST PALMBEACH","FL","33401"
243943,"550 N FIGUEROA ST 6107","LOS ANGELES","CA","90012"
243944,"550 N FIGUEROA ST APT 2021","LOS ANGELES","CA","90012"
243945,"550 N FIGUEROA STREET APT 4056","LOS ANGELES","CA","90012"
243946,"550 N FIGUEROA STREET UNIT 4063","LOS ANGELES","CA","90012"
243947,"550 N FLORES ST 1","WEST HOLLYWOOD","CA","90048"
243948,"550 N INDIANA AVE","CROWN POINT","IN","46307"
243949,"550 N INDIANA ST","MOORESVILLE","IN","46158"
243950,"550 N INDIANA STREET","MOORESVILLE","IN","46158"
243951,"550 N MAIN ST PO BOX 128","WHEATLAND","MO","65779"
243952,"550 N MAIN STREET","JONESBORO","IL","62952"
243953,"550 N VAN DYKE ST","DECATUR","IL","62521"
243954,"550 NE 124 STREET","MIAMI","FL","33161"
243955,"550 NEGLEY RUN BOULEVARD","PITTSBURGH","PA","15206"
243956,"550 NELSON LN","LINCOLN","CA","95648"
243957,"550 NORTH 160 WEST CIRCLE","ST. GEORGE","UT","84770"
243958,"550 NORTH LARCHMONT BLVD STE 102","LOS ANGELES","CA","90004"
243959,"550 NORTH PARSON STREET","WEST COLUMBIA","SC","29169"
243960,"550 NORTH STREET","WHITE PLAINS","NY","10605"
243961,"550 NORTHRIDGE PARKWAY APT 2104","SANDY SPRINGS","GA","30350"
243962,"550 NW UNIVERSITY BLVD STE 104","PORT SAINT LUCIE","FL","34986"
243963,"550 ORANGE GROVE PLACE","PASADENA","CA","91103"
243964,"550 OURAY AVENUE","GRAND JUNCTION","CO","81504"
243965,"550 OZORA ROAD","LOGANVILLE","GA","30052"
243966,"550 PASEO MIRAMAR","PACIFIC PALISADES","CA","90272"
243967,"550 PECK ROAD","SPENCERPORT","NY","14559"
243968,"550 PHARR RD NE","ATLANTA","GA","30305"
243969,"550 PIN OAK DRIVE","LEXINGTON","SC","29073"
243970,"550 PINETOWN ROAD SUITE 205","FORT WASHINGTON","PA","19034"
243971,"550 POPLAR AVENUE","MEMPHIS","TN","38105"
243972,"550 POST RD UNIT 108","RIDGELAND","MS","39157"
243973,"550 RAMS BLVD","RACELAND","KY","41169"
243974,"550 RICE STREET","ST PAUL","MN","55103"
243975,"550 RIDGE ROAD","MILL HALL","PA","17751"
243976,"550 RIVER ROAD","CHATHAM","NJ","07928"
243977,"550 RIVERSIDE DR APT 54","NEW YORK","NY","10027"
243978,"550 RODRIGUEZ STREET","WATSONVILLE","CA","95076"
243979,"550 ROWANWOOD WAY","APEX","NC","27523"
243980,"550 S 600 W","HURRICANE","UT","84737"
243981,"550 S COHANSEY AVE","EGG HARBOR CITY","NJ","08215"
243982,"550 S GRANDIN AVENUE","AZUSA","CA","91702"
243983,"550 S ROAD 1 E","CHINO VALLEY","AZ","86323"
243984,"550 S SHORELINE BLVD","MOUNTAIN VIEW","CA","94041"
243985,"550 SAGLE RD","SAGLE","ID","83860"
243986,"550 SE  EIGHTH ST","EVANSVILLE","IN","47713"
243987,"550 SILKY LEAF DRIVE","HOUSTON","TX","77073"
243988,"550 SILVER SPUR RD STE 230","RANCHO PALOS VERDES","CA","90275"
243989,"550 SOMERSET TERRACE NE SUITE 101","ATLANTA","GA","30306"
243990,"550 SOUTH 52ND STREET","LINCOLN","NE","68510"
243991,"550 SOUTH AUDUBON ROAD","INDIANAPOLIS","IN","46219"
243992,"550 SOUTH GARDNER ST","SCOTTSBURG","IN","47170"
243993,"550 SOUTH HILL ST UNIT 1344","LOS ANGELES","CA","90013"
243994,"550 SOUTH HILL STREET SUITE 1650","LOS ANGELES","CA","90013"
243995,"550 SPRING BRANCH RD","OXFORD","GA","30054"
243996,"550 STAFFORD RUN RD 209","STAFFORD","TX","77477"
243997,"550 STANTON CHRISTIANA ROAD","NEWARK","DE","19713"
243998,"550 SUMMIT AVE","DUNDAS","MN","55019"
243999,"550 SUMMIT ST","ELGIN","IL","60120"
244000,"550 SW 146TH STREET","BURIEN","WA","98166"
