"ID","Address","City","State","Zip"
22501,"111 SW 5TH AVE STE 3150","PORTLAND","OR","97204"
22502,"111 SW 6TH STREET","FT LAUDERDALE","FL","33301"
22503,"111 SW 75TH TERRACE","PLANTATION","FL","33317"
22504,"111 SYCAMORE ST","OWENSBORO","KY","42301"
22505,"111 SYRINGA STREET","BROWNS MILLS","NJ","08015"
22506,"111 TAHITI CIRCLE","NAPLES","FL","34113"
22507,"111 TAYLOR STREET","PHOENIX","AZ","85004"
22508,"111 TERRA BELLA BLVD","COVINGTON","LA","70433"
22509,"111 THOMAS WILLIAM DR","JUDSONIA","AR","72081"
22510,"111 THORNBERRY TRAIL","JACKSON","GA","30233"
22511,"111 TIGER LANE","DRIPPING SPRINGS","TX","78620"
22512,"111 TIPTON DRIVE","DAHLONEGA","GA","30533"
22513,"111 UPPER GLEN DRIVE","BLYTHEWOOD","SC","29016"
22514,"111 VALLEY AVE","HIGHLANDS","NJ","07732"
22515,"111 VERDANT LAWN FARM","CHARLOTTESVILLE","VA","22901"
22516,"111 VETERANS BLVD SUITE 702","METAIRIE","LA","70005"
22517,"111 VILLAGE TRACE","WOODSTOCK","GA","30188"
22518,"111 VINCENT ST","FOND DU LAC","WI","54935"
22519,"111 W 10TH STREET","KANSAS CITY","MO","64105"
22520,"111 W 11TH AVE","TYNDALL","SD","57066"
22521,"111 W 5TH STREET","TYLER","TX","75701"
22522,"111 W 7TH ST/ STE 502","LOS ANGELES","CA","90014"
22523,"111 W ANDERSON LN SUITE E330","AUSTIN","TX","78752"
22524,"111 W ANDESON LN STE D-211","AUSTIN","TX","78752"
22525,"111 W AVENIDA PALIZADA","SAN CLEMENTE","CA","92672"
22526,"111 W BROADWAY","BOLIVAR","MO","65613"
22527,"111 W CENTRAL AVE  PO BOX 123","WINTER HAVEN","FL","33880"
22528,"111 W CENTRAL AVE","WINTER HAVEN","FL","33880"
22529,"111 W CENTRAL AVENUE","CAMDEN","OH","45311"
22530,"111 W FABRA LANE","BOERNE","TX","78006"
22531,"111 W FRANKLIN STREET","HARTWELL","GA","30643"
22532,"111 W FRONT STREET","BERWICK","PA","18603"
22533,"111 W GRANDVIEW AVE","ZELIENOPLE","PA","16063"
22534,"111 W HERITAGE DR","RAYMORE","MO","64083"
22535,"111 W HICKORY ST","DENTON","TX","76201"
22536,"111 W JACKSON BLVD STE 1700","CHICAGO","IL","60604"
22537,"111 W JACKSON BLVD SUITE 1700","CHICAGO","IL","60604"
22538,"111 W JONES AVE APT 222","SAN ANTONIO","TX","78215"
22539,"111 W JOSEPHINE ST","WEATHERFORD","TX","76086"
22540,"111 W LONDON AVE","SALISBURY","MD","21801"
22541,"111 W MAIN ST STE 110","BAY SHORE","NY","11706"
22542,"111 W MAIN ST SUITE 100","CARMEL","IN","46032"
22543,"111 W MAIN ST","FLORENCE","CO","81226"
22544,"111 W MAPLE AVENUE","MUNDELEIN","IL","60060"
22545,"111 W PORTAGE AVE 2ND FLOOR","SAULT STE. MARIE","MI","49783"
22546,"111 W QUINCY ST","PITTSBURG","KS","66762"
22547,"111 W STREAMWOOD BLVD","STREAMWOOD","IL","60107"
22548,"111 W TOPA TOPA STREET","OJAI","CA","93023"
22549,"111 W VIRGINIA AVE","VINTON","VA","24179"
22550,"111 W WILSON ST APT 804","MADISON","WI","53703"
22551,"111 WABASH DRIVE","LEXINGTON","KY","40503"
22552,"111 WASHINGTON AVE","FULTON","KY","42041"
22553,"111 WASHINGTON GROVE LANE  - 874","WASHINGTON GROVE","MD","20880"
22554,"111 WASHINGTON STREET","DONIPHAN","MO","63935"
22555,"111 WATER ST","NEW HAVEN","CT","06511"
22556,"111 WEBB DRIVE","DAVENPORT","FL","33837"
22557,"111 WELCH DR","LINCOLN","IL","62656"
22558,"111 WELLIVER RD","PLENTYWOOD","MT","59254"
22559,"111 WESLEY STREET","FREDERICKSBURG","IA","50630"
22560,"111 WEST 14TH STREET","CASPER","WY","82601"
22561,"111 WEST 1ST STREET / SUITE A","FROSTPROOF","FL","33843"
22562,"111 WEST ANDERSON LANE","AUSTIN","TX","78752"
22563,"111 WEST CLEVELAND","ELECTRA","TX","76360"
22564,"111 WEST MAIN ST","DESHLER","OH","43516"
22565,"111 WEST MAIN ST","LATTA","SC","29565"
22566,"111 WEST MAIN STREET","ALLEGANY","NY","14706"
22567,"111 WEST MAIN STREET","DURHAM","NC","27701"
22568,"111 WEST MONUMENT STREET","JACKSON","MS","39202"
22569,"111 WEST OCEAN BLVD FOURTH FLOOR","LONG BEACH","CA","90802"
22570,"111 WEST SAINT JAMES ST","SAN JOSE","CA","95113"
22571,"111 WEST WASHINGTON ST STE 1110","CHICAGO","IL","60602"
22572,"111 WEST WASHINGTON SUITE 1920","CHICAGO","IL","60602"
22573,"111 WILLOW STREET","BETHESDA","OH","43719"
22574,"111 WILMER VALLEY DR","WENTZVILLE","MO","63385"
22575,"111 WINDERMERE CIRCLE","PERRY","GA","31069"
22576,"111 WINDHAM","IRVINE","CA","92620"
22577,"111 WINSOME LANE","CHAPEL HILL","NC","27516"
22578,"111 WOODALE AVENUE","PEESKILL","NY","10566"
22579,"111 WOODLAND AVE APT 503","LEXINGTON","KY","40502"
22580,"111 WOODLAND AVE UNIT 509","LEXINGTON","KY","40502"
22581,"111 YARBOROUGH PL","WAVELAND","MS","39576"
22582,"111-04 180TH STREET","JAMAICA","NY","11433"
22583,"111-11 118 ST","SOUTH OZONE PARK","NY","11420"
22584,"111-15 127TH ST","SOUTH OZONE PARK","NY","11420"
22585,"111-20A FARMERS BLVD","SAINT ALBANS","NY","11412"
22586,"111-32 196TH STREET","ST ALBANS","NY","11412"
22587,"111-37 199TH ST","SAINT ALBANS","NY","11412"
22588,"111-38 205TH ST","ST ALBANS","NY","11412"
22589,"111-59 128TH STREET","SOUTH OZONE PARK","NY","11420"
22590,"111-59 41ST AVE","CORONA","NY","11368"
22591,"111-A LIBRARY HILL LANE","LEXINGTON","SC","29072"
22592,"111-A NORTH GLASS STREET","VICTORIA","TX","77901"
22593,"111","BERKELEY SPRINGS","WV","25411"
22594,"111","CHICAGO","IL","60603"
22595,"111","LONG BEACH","MS","39560"
22596,"1110  WEST LEIGH STREET","RICHMOND","VA","23220"
22597,"1110 12TH STREET","GOLDEN","CO","80401"
22598,"1110 18TH AVENUE","MONROE","WI","53566"
22599,"1110 1ST AVENUE FL2","NEW HYDE PARK","NY","11040"
22600,"1110 1ST ST SW","ELBA","MN","55910"
22601,"1110 20TH AVE","FAIRBANKS","AK","99701"
22602,"1110 6TH STREET    PO BOX 558","NEVADA","IA","50201"
22603,"1110 6TH STREET BOX 558","NEVADA","IA","50201"
22604,"1110 6TH STREET","NEVADA","IA","50201"
22605,"1110 77TH ST","LUBBOCK","TX","79423"
22606,"1110 ALLENS CREEK ROAD","ROCHESTER","NY","14618"
22607,"1110 ALTHEA STREET","RICHMOND","VA","23222"
22608,"1110 ANGELA DRIVE","CEDAR HILL","TX","75104"
22609,"1110 BIRCHWOOD DRIVE","GARLAND","TX","75043"
22610,"1110 BLAKELY COURT","WEST COLUMBIA","SC","29170"
22611,"1110 BLUEFIELD AVENUE","ELIZABETHTON","TN","37643"
22612,"1110 BRICKELL AVE STE 430","MIAMI","FL","33131"
22613,"1110 BRICKELL AVENUE SUITE 719","MIAMI","FL","33131"
22614,"1110 BRUSHY CREEK ROAD","LUCEALE","MS","39452"
22615,"1110 BRYSON LANE","MIDLOTHIAN","TX","76065"
22616,"1110 CAMINO CONSUELO","SANTA FE","NM","87507"
22617,"1110 CARRAIGE RD","PAPILLION","NE","68046"
22618,"1110 CATESBY TERRACE","HYATTSVILLE","MD","20785"
22619,"1110 CLANTON ROAD","CHARLOTTE","NC","28217"
22620,"1110 COAL AVE SW APT 8","ALBUQUERQUE","NM","87102"
22621,"1110 CONCORD SUITE 2","DETROIT","MI","48207"
22622,"1110 COOPER AVE","COLORADO SPRINGS","CO","80905"
22623,"1110 COUNTRY CLUB DR","ORELAND","PA","19075"
22624,"1110 CURTIS AVENUE","JOLIET","IL","60435"
22625,"1110 CYPRESS ROAD","WILMINGTON","DE","19810"
22626,"1110 DAPPLE GREY COURT","GREAT FALLS","VA","22066"
22627,"1110 DEL SOL ROAD SE","DEMING","NM","88030"
22628,"1110 DOSS ROAD","MILLSAP","TX","76066"
22629,"1110 DREW AV","ORLANDO","FL","32805"
22630,"1110 DUPONT CIRCLE","LOUISVILLE","KY","40207"
22631,"1110 E 33RD STREET","TUCSON","AZ","85713"
22632,"1110 E WINTERGREEN RD APT 1724","DESOTO","TX","75115"
22633,"1110 E WINTERGREEN RD APT 321","DESOTO","TX","75115"
22634,"1110 EAST FOURTH STREET","DULUTH","MN","55805"
22635,"1110 EAST PLEASANT RUN ROAD","DESOTO","TX","75115"
22636,"1110 ESCAMBIA WAY DR","RICHMOND","TX","77406"
22637,"1110 ESTES AVENUE","AUSTIN","TX","78721"
22638,"1110 FAIRGROUNDS RD PO BOX 435","MADISON","VA","22727"
22639,"1110 FAWN RIDGE DR","DUNCANVILLE","TX","75137"
22640,"1110 FAXON STREET","MEMPHIS","TN","38105"
22641,"1110 FIDLER LANE 800","SILVER SPRING","MD","20910"
22642,"1110 G STREET NE","WASHINGTON","MD","20002"
22643,"1110 GRAND AVENUE","PHOENIX","AZ","85007"
22644,"1110 GUINEA","HOUSTON","TX","77055"
22645,"1110 HACIENDA AVE","CAMPBELL","CA","95008"
22646,"1110 HACIENDA PLACE SUITE 102","WEST HOLLYWOOD","CA","90069"
22647,"1110 HARRISON STREET - SUITE I","FRECHTOWN","NJ","08825"
22648,"1110 HARRISWAY DRIVE","WILLIANSTON","NC","27892"
22649,"1110 HIGHWAY 41 NORTH","CORDELE","GA","31010"
22650,"1110 IDAHO STREET","GARY","IN","46403"
22651,"1110 KILMINGTON CT","ALPHARETTA","GA","30009"
22652,"1110 KIRKLAND DR","COCOA","FL","32922"
22653,"1110 LADY ELAINE DR","VALRICO","FL","33594"
22654,"1110 LEED PARKWAY","PLAIN","WI","53557"
22655,"1110 LEMONWOOD RD","JACKSONVILLE","FL","32259"
22656,"1110 LIBERTY ST","OSKALOOSA","KS","66066"
22657,"1110 MAIKAI DR","MERRITT ISLAND","FL","32953"
22658,"1110 MAIN STREET","HUNTINGBURG","IN","47542"
22659,"1110 MAIN STREET","SUSANVILLE","CA","96130"
22660,"1110 MATHIAS DR","SPRINGDALE","AR","72762"
22661,"1110 MILAN STREET","NEW ORLEANS","LA","70115"
22662,"1110 N CENTER PARKWAY SUITE A","KENNEWICK","WA","99336"
22663,"1110 N MAIN ST","FORT STOCKTON","TX","79735"
22664,"1110 N PALAFOX ST","PENSACOLA","FL","32501"
22665,"1110 NASA PARKWAY SUITE 305","HOUSTON","TX","77058"
22666,"1110 NC 153 HWY","CHINA GROVE","NC","28023"
22667,"1110 NE 17TH WAY","FT LAUDERDALE","FL","33304"
22668,"1110 NE ROSEWOOD STREET","SUBLIMITY","OR","97385"
22669,"1110 NORTH 5TH AVENUE NE","ROME","GA","30165"
22670,"1110 NORTH 9TH AVENUE","PENSACOLA","FL","32501"
22671,"1110 NORTH BRAND BLVD SUITE 304","GLENDALE","CA","91202"
22672,"1110 NUUANU AVE NUM 282","HONOLULU","HI","96817"
22673,"1110 NUUANU AVE UNIT A1-200","HONOLULU","HI","96817"
22674,"1110 NUUANU AVE UNIT A1-290","HONOLULU","HI","96817"
22675,"1110 NUUANU AVENUE UNIT 1028","HONOLULU","HI","96817"
22676,"1110 NUUANU AVENUE","HONOLULU","HI","96817"
22677,"1110 NW 134TH AVE","MIAMI","FL","33182"
22678,"1110 OLD SCHOOL RD","CHAPEL HILL","NC","27516"
22679,"1110 OPAL STREET SUITE 101","BROOMFIELD","CO","80020"
22680,"1110 PAIGE ROAD","HONEA PATH","SC","29654"
22681,"1110 PALM BLUFF STREET","CLEARWATER","FL","33755"
22682,"1110 PALMETTO STREET","NEW SMYRNA","FL","32168"
22683,"1110 PARK AVE  APT L","NORFOLK","VA","23504"
22684,"1110 PIERCE STREET","MOORE HAVEN","FL","33471"
22685,"1110 PINE RIDGE RD","WOODLAND PARK","CO","80863"
22686,"1110 POPLAR STREET","EVERETT","WA","98201"
22687,"1110 PRAIRIE VIEW DRIVE","WAUNAKEE","WI","53597"
22688,"1110 PRESIDENT STREET","BROOKLYN","NY","11225"
22689,"1110 PROFESSIONAL COURT SUITE 300","HAGERSTOWN","MD","21740"
22690,"1110 S 12TH STREET","LONGVIEW","TX","75602"
22691,"1110 S 4TH ST","IRONTON","OH","45638"
22692,"1110 S CORNELL AVE","CHERRY HILL","NJ","08002"
22693,"1110 S FELL","NORMAL","IL","61761"
22694,"1110 S LA CIENEGA BLVD","LOS ANGELES","CA","90035"
22695,"1110 S LINDEN ROAD SUITE 5","FLINT","MI","48532"
22696,"1110 S MAIN ST","HECTOR","AR","72843"
22697,"1110 S VISTA AVE STE 27","BOISE","ID","83705"
22698,"1110 SARANAC","NORTHBROOK","IL","60062"
22699,"1110 SCHENECTADY RD","ARLINGTON","TX","76017"
22700,"1110 SCOTT","WICHITA FALLS","TX","76301"
22701,"1110 SKY TAVERN","RENO","NV","89511"
22702,"1110 SOUTH AVENUE","NORWALK","IA","50211"
22703,"1110 SPRING HARBOR DRIVE","MADION","WI","53705"
22704,"1110 STAR LAKE DR","MISSOURI CITY","TX","77459"
22705,"1110 STATE OFFICE BUILDING","SALT LAKE CITY","UT","84114"
22706,"1110 STATE RTE 175","CAMPTON","NH","03223"
22707,"1110 STONUM LANE","MANTECA","CA","95337"
22708,"1110 STORYBROOK DRIVE","WASHINGTON COURTHOUS","OH","43160"
22709,"1110 STRUCKMAN BLVD","BARTLETT","IL","60103"
22710,"1110 SW BRIDGE STREET","GRANTS PASS","OR","97526"
22711,"1110 TABBERT RD","ALEXANDRIA","MN","56308"
22712,"1110 THORN CREEK PL","ROUND ROCK","TX","78664"
22713,"1110 TURTLE CREEK LN","THOUSAND OAKS","CA","91320"
22714,"1110 UNIVERSITY AVENUE SUITE 309","HONOLULU","HI","96826"
22715,"1110 VALKENBURG DR","COLORADO SPRINGS","CO","80907"
22716,"1110 VERMONT AVE NW SUITE 550","WASHINGTON","DC","20005"
22717,"1110 VERMONT AVENUE NW STE 500","WASHINGTON","DC","20005"
22718,"1110 VINYARD ROAD","VINTON","VA","24179"
22719,"1110 VISTA VALET APT818","SAN ANTONIO","TX","78216"
22720,"1110 W 57TH ST","LOS ANGELES","CA","90037"
22721,"1110 W 8TH","COFFEYVILLE","KS","67337"
22722,"1110 W FRONT ST","ALHAMBRA","CA","91803"
22723,"1110 WEST MICHIGAN STREET LO200","INDIANAPOLIS","IN","46203"
22724,"1110 WILLOWGRASS LN","WAKE FOREST","NC","27587"
22725,"11100 4TH STREET APT D102","RANCHO CUCAMONGA","CA","91730"
22726,"11100 BROOKES RESERVE ROAD","UPPER MARLBORO","MD","20772"
22727,"11100 CORRYVILLE ROAD","NORTH CHESTERFIELD","VA","23236"
22728,"11100 E DARTMOUTH AVE APT 208","DENVER","CO","80014"
22729,"11100 E WINNER RD","INDEPENDENCE","MO","64052"
22730,"11100 GAINSBORUGH ROAD","POTOMAC","MD","20854"
22731,"11100 GENERAL AVE","JACKSONVILLE","FL","32220"
22732,"11100 LORWIND COURT","CHARLOTTE","NC","28262"
22733,"11100 MUELLER ROAD STE 1","SAINT LOUIS","MO","63123"
22734,"11100 NW 188 STREET ROAD","MICANOPY","FL","32667"
22735,"11100 NW 188TH STREET ROAD","MICANOPY","FL","32667"
22736,"11100 NW 23RD STREET","CORAL SPRINGS","FL","33065"
22737,"11100 SADDLE RIDGE ROAD","MORENO VALLEY","CA","92557"
22738,"11100 SEPULVEDA BLVD STE 8 PMB 514","MISSION HILLS","CA","91345"
22739,"11100 STRATHERN ST 53","SUN VALLEY","CA","91352"
22740,"11100 SUNNYSLOPE DRIVE","KANSAS CITY","MO","64134"
22741,"11100 TELEGRAPH SPACE 85","VENTURA","CA","93004"
22742,"11100 VANALDEN AVENUE","PORTER RANCH","CA","91326"
22743,"11101 AIRLINE DR","HOUSTON","TX","77037"
22744,"11101 AIRLINE DRIVE","HOUSTON","TX","77037"
22745,"11101 COUNTY ROAD 64","DAPHNE","AL","36526"
22746,"11101 DOT 2200 CHILDRENS WAY","NASHVILLE","TN","37323"
22747,"11101 DRAGONS LAIR DRIVE","FREDERICKSBURG","VA","22407"
22748,"11101 HARBOUR ESTATES CIRCLE","FORT MYERS","FL","33908"
22749,"11101 SW 79TH AVENUE","PINECREST","FL","33156"
22750,"11101 WINTHROP WAY","TAMPA","FL","33612"
22751,"11101-9 LEOPARD ST","CORPUS CHRISTI","TX","78410"
22752,"11102 238TH ST E","GRAHAM","WA","98338"
22753,"11102 25TH AVE E STE D","TACOMA","WA","98445"
22754,"11102 HUNT GLENN CT","CHARLOTTE","NC","28216"
22755,"11102 N 79TH AVE","PEORIA","AZ","85345"
22756,"11103 BALLANTYNE FOREST DRIVE","CHARLOTTE","NC","28277"
22757,"11103 BIRCH WAY","CLINTON","MD","20735"
22758,"11103 CAMARILLO ST","NORTH HOLLYWOOD","CA","91602"
22759,"11103 NANTUCKET BAY CT","WELLINGTON","FL","33414"
22760,"11103 QUEENS WOOD TER","BOWIE","MD","20721"
22761,"11103 S HOBART BLVD","LOS ANGELES","CA","90047"
22762,"11104 BOWEN AVE","GREAT FALLS","VA","22066"
22763,"11104 CHESTNUT DRIVE","PLYMOUTH","MI","48170"
22764,"11104 DON TOMAS LOOP","LAREDO","TX","78045"
22765,"11104 GLEN ARM ROAD","GLEN ARM","MD","21057"
22766,"11104 SE 105TH AVE","HAPPY VALLEY","OR","97086"
22767,"11104 W AIRPORT BLVD SUITE 101","STAFFORD","TX","77477"
22768,"11104 WEST AIRPORT STE 214","STAFFORD","TX","77477"
22769,"11105 AUTUMN LANE","CLERMONT","FL","34711"
22770,"11105 BELLAVISTA DRIVE","POTOMAC","MD","20854"
22771,"11105 EASTVIEW CIRCLE","DALLAS","TX","75230"
22772,"11105 FAIRWAY AVE","OKLAHOMA CITY","OK","73170"
22773,"11105 QUEARY COURT","CHARLOTTE","NC","28277"
22774,"11105 SAFFOLD WAY","RESTON","VA","20190"
22775,"11105 VALLEYBROOK CIR","HIGHLANDS RANCH","CO","80130"
22776,"11105 WESTFORK RD","CHINOOK","MT","59523"
22777,"11105 ZION ST NW","COON RAPIDS","MN","55433"
22778,"11106 5850 ROAD","MONTROSE","CO","81403"
22779,"11106 BRIDGEHAMPTON DRIVE","CHARLOTTE","NC","28262"
22780,"11106 CROSBY GARDEN","MISSOURI CITY","TX","77459"
22781,"11106 CURREY DR","SONORA","CA","95370"
22782,"11106 DEER VALLEY DRIVE","INDIANAPOLIS","IN","46229"
22783,"11106 HACKETT RD","YAKIMA","WA","98903"
22784,"11106 HOTCHKISS DR UNIT A","SEBASTIAN","FL","32958"
22785,"11106 NE 101ST STREET","VANCOUVER","WA","98662"
22786,"11106 QUEENSWAY DR","ST LOUIS","MO","63146"
22787,"11106 VETERANS MEMORIAL DRIVE STE F","HOUSTON","TX","77067"
22788,"11106 WEST AVENUE","SAN ANTONIO","TX","78213"
22789,"11107 HOMRIGHAUS ROAD","GALVESTON","TX","77554"
22790,"11107 S LONGWOOD DR","CHICAGO","IL","60643"
22791,"11107 SHERWOOD GARDEN DR","HOUSTON","TX","77043"
22792,"11107 WURZBACH RD STE 602","SAN ANTONIO","TX","78230"
22793,"11108 CHENNAULT BEACH ROAD 1227","MUKILTEO","WA","98275"
22794,"11108 EAGLE VIEW DRIVE","BRAINERD","MN","56401"
22795,"11108 HUSTON ST","NORTH HOLLYWOOD","CA","91601"
22796,"111082 ANTIOCH ROAD SUITE A","OVERLAND PARK","KS","66212"
22797,"11109 DOVE VALLEY TRAIL","HASLET","TX","75062"
22798,"11109 FRUITWOOD DR","BOWIE","MD","20720"
22799,"11109 HARBOR ROAD","FRISCO","TX","75035"
22800,"11109 HICKMAN MILLS DR","KANSAS CITY","MO","64134"
22801,"11109 LARK LANDING CT","RIVERVIEW","FL","33569"
22802,"11109 NE 124TH LANE B205","KIRKLAND","WA","98034"
22803,"11109 NEW ORLEANS DR","FRISCO","TX","75035"
22804,"11109 OTSEGO ST NUMBER 305","NORTH HOLLYWOOD","CA","91601"
22805,"11109 STATE HIGHWAY 154 E","DIANA","TX","75640"
22806,"11109 W COUNTRY DRIVE","OKLAHOMA CITY","OK","73170"
22807,"1111 11TH AVENUE","SACRAMENTO","CA","95818"
22808,"1111 14TH STREET","REEDSBURG","WI","53959"
22809,"1111 17TH AVENUE","LANGDON","ND","58249"
22810,"1111 1ST AVE","WALNUT GROVE","CA","95690"
22811,"1111 22ND ST SUITE 640","OAK BROOK","IL","60523"
22812,"1111 24TH ST NW UNIT 46","WASHINGTON","DC","20037"
22813,"1111 25TH ST NW APT 104","WASHINGTON","DC","20037"
22814,"1111 2ND STREET EAST","DICKINSON","ND","58601"
22815,"1111 49TH AVENUE NE","ST PETERSBURG","FL","33703"
22816,"1111 57 STREET","BROOKLYN","NY","11219"
22817,"1111 7TH AVE NW","BUFFALO","MN","55313"
22818,"1111 ADAMS AVENUE APT I","HOMESTEAD","FL","33034"
22819,"1111 ADELLA AV UNIT 1","CORONADO","CA","92118"
22820,"1111 AINSLEE","MIDLAND","TX","79701"
22821,"1111 ALASKA  AVENUE  UNIT 58","FAIRFIELD","CA","94533"
22822,"1111 ARCHWOOD DR SW UNIT 291","OLYMPIA","WA","98502"
22823,"1111 BAILEY AVE","NEEDLES","CA","92363"
22824,"1111 BAKER COURT","TROY","MI","48083"
22825,"1111 BALD EAGLE DR","NORMAN","OK","73072"
22826,"1111 BELT LINE ROAD STE 108E","GARLAND","TX","75040"
22827,"1111 BENCKESER ROAD","COLE CAMP","MO","65325"
22828,"1111 BERGE RD","STEVENSON","WA","98648"
22829,"1111 BISCAYNE BLVD APT 126","N MIAMI","FL","33181"
22830,"1111 BLALOCK RD APT 90","HOUSTON","TX","77075"
22831,"1111 BLALOCK ROAD 32","HOUSTON","TX","77055"
22832,"1111 BLANCHARD ROAD","MEMPHIS","TN","38116"
22833,"1111 BOSTON POST ROAD","OLD SAYBROOK","CT","06475"
22834,"1111 BOXWOOD LANE","GREENWOOD","IN","46143"
22835,"1111 BRICKELL AVENUE SUITE 2325","MIAMI","FL","33131"
22836,"1111 BRICKELL AVENUE SUITE 2803","MIAMI","FL","33131"
22837,"1111 BROADWAY 24TH FLOOR","OAKLAND","CA","94607"
22838,"1111 BUSAC","JACKSONVILLE","FL","32205"
22839,"1111 CACTUS TERR  CONDO 102","DELRAY BCH","FL","33445"
22840,"1111 CAREY AVE STE 1","AKRON","OH","44314"
22841,"1111 CATALINA BOULEVARD","SAN DIEGO","CA","92107"
22842,"1111 CENTRE PKWY","LEXINGTON","KY","40517"
22843,"1111 CHAMPIONS POINTE DR","DURHAM","NC","27712"
22844,"1111 CHURCH STREET","CAMDEN","SC","29020"
22845,"1111 CLAIREMONT AVE SUITE B 2","DECAUTUR","GA","30030"
22846,"1111 CONFEDERATE DRIVE","COLUMBIA","TN","38401"
22847,"1111 CORNELL AVENUE      APT A","ALBANY","CA","94706"
22848,"1111 DAWSON AVENUE","LONG BEACH","CA","90804"
22849,"1111 DELAWARE AVE","MARYSVILLE","MI","48040"
22850,"1111 E 118TH STREET","LOS ANGELES","CA","90059"
22851,"1111 E 54TH ST SUITE 112","INDIANAPOLIS","IN","46220"
22852,"1111 E DRAPER PARKWAY SUITE 101","DRAPER","UT","84020"
22853,"1111 E HERNDON SUITE 306","FRESNO","CA","93720"
22854,"1111 E I-65 SERVICE RD S SUITE 208","MOBILE","AL","36606"
22855,"1111 E SUNRISE BLVD UNIT 609","FT LAUDERDALE","FL","33304"
22856,"1111 E UNION 421","SEATTLE","WA","98122"
22857,"1111 EAST LINCOLNWAY SUITE 213","CHEYENNE","WY","82001"
22858,"1111 EAST LINCOLWAY SUITE 109","CHEYENNE","WY","82001"
22859,"1111 EAST LONG STREET","COLUMBUS","OH","43203"
22860,"1111 EAST SOUTH RIVER STREET","APPLETON","WI","54915"
22861,"1111 ELDERGLEN LANE","HARBOR CITY","CA","90710"
22862,"1111 EUCLID STREET 101","SANTA MONICA","CA","90403"
22863,"1111 FIGUEROA PLACE","WILMINGTON","CA","90744"
22864,"1111 FISKE ST","PACIFIC PALISADES","CA","90272"
22865,"1111 FRANKLIN STREET","PORT TOWNSEND","WA","98368"
22866,"1111 GARNER CIR","AMES","IA","50010"
22867,"1111 GAZANIA DR","PFLUGERVILLE","TX","78660"
22868,"1111 GLENDALOUGH DRIVE","PFLUGERVILLE","TX","78660"
22869,"1111 GOUGH STREET","SAN FRANCISCO","CA","94109"
22870,"1111 GREEN HILLS ROAD","DUNCANVILLE","TX","75137"
22871,"1111 H STREET STE 205","SACRAMENTO","CA","95814"
22872,"1111 HARMONY ROAD","NORFOLK","VA","23502"
22873,"1111 HARRISON AVE","MURFREESBORO","TN","37130"
22874,"1111 HIGHWAY 6 SUITE 150","SUGAR LAND","TX","77478"
22875,"1111 HILLCREST DRIVE","CAVE CITY","AR","72521"
22876,"1111 HILLSBORO COVE CR","WEBSTER","NY","14580"
22877,"1111 HOUGHTON RD APT 1205","KATY","TX","77450"
22878,"1111 HOWE AVE STE 305","SACRAMENTO","CA","95823"
22879,"1111 INDUSTRY DRIVE","LAWRENCEBURG","KY","40342"
22880,"1111 J STREET STE G101","MODEST0","CA","95354"
22881,"1111 J STREET SUITE G101","MODESTO","CA","95354"
22882,"1111 KANE CONCOURSE SUITE 610","BAY HARBOR IS","FL","33154"
22883,"1111 KANE CONCOURSE SUITE 610","BAY HARBOR","FL","33154"
22884,"1111 KANE CONCOURSE SUITE 619","BAY HARBOR ISLANDS","FL","33154"
22885,"1111 LAFAYETTE DRIVE","NEW ALBANY","IN","47150"
22886,"1111 LANDER ROAD","MAYFIELD HEIGHTS","OH","44124"
22887,"1111 LINN DR","SPEARMAN","TX","79081"
22888,"1111 MAIN STREET STE 750","KANSAS CITY","MO","64105"
22889,"1111 MEADOW DR","EULESS","TX","76039"
22890,"1111 MEDICAL PLAZA DRIVE","SPRING","TX","77380"
22891,"1111 MERIDENE DRIVE UNIT 2","BALTIMORE","MD","21239"
22892,"1111 MORSE AVE SPACE 141","SUNNYVALE","CA","94089"
22893,"1111 MUSTANG DR","DANVILLE","CA","94526"
22894,"1111 N BOONVILLE AVE","SPRINGFIELD","MO","65802"
22895,"1111 N CALIFORNIA AVE","LA PUENTE","CA","91744"
22896,"1111 N CARLOS ST","WICHITA","KS","67203"
22897,"1111 N CHESTNUT AVE","MARSHFIELD","WI","54449"
22898,"1111 N COUNTRY CLUB DR","SHOREACRES","TX","77571"
22899,"1111 N NORTHSHORE DRIVE SUITE P250","KNOXVILLE","TN","37919"
22900,"1111 N PIKE STREET","GRAFTON","WV","26354"
22901,"1111 N POST ROAD","OKLAHOMA CITY","OK","73130"
22902,"1111 N RUSSELL ROAD","BLOOMINGTON","IN","47408"
22903,"1111 N WELLS   STE 500","CHICAGO","IL","60610"
22904,"1111 NE 99TH AVE SUITE 201","PORTLAND","OR","97220"
22905,"1111 NEAL DRIVE","ALEXANDRIA","VA","22308"
22906,"1111 NORTH BOONVILLE AVENUE","SPRINGFIELD","MO","65802"
22907,"1111 NORTH DRIVE","SEYMOUR","IN","47274"
22908,"1111 NORTH LOOP WEST SUITE 702","HOUSTON","TX","77008"
22909,"1111 NORTH MAPLE ROAD","ANN ARBOR","MI","48103"
22910,"1111 OCEAN SHORE BLVD 2","ORMOND BEACH","FL","32176"
22911,"1111 OLD CHENEY ROAD","LINCOLNE","NE","68512"
22912,"1111 ORTMAN ROAD","MARQUETTE","MI","49855"
22913,"1111 PARK AVE APT 1121","BALTIMORE","MD","21201"
22914,"1111 PARK AVENUE","NORFOLK","VA","23504"
22915,"1111 PARK CENTRE BLVD SUITE 105A","MIAMI","FL","33169"
22916,"1111 PARK CENTRE BLVD SUITE 402","MIAMI GARDENS","FL","33169"
22917,"1111 PAULA WAY","ESCONDIDO","CA","92027"
22918,"1111 PEARL STREET SUITE 203","BOULDER","CO","80302"
22919,"1111 PENINSULAR AVENUE","LOS ALTOS","CA","94024"
22920,"1111 POST OAK BLVD 582","HOUSTON","TX","77056"
22921,"1111 RANCHO CONEJO BLVD SUITE 305","THOUSAND OAKS","CA","91320"
22922,"1111 RASHO RD","TRAVERSE CITY","MI","49686"
22923,"1111 RAYDALE RD","HYATTSVILLE","MD","20783"
22924,"1111 RIDGE RD","VERNON HILL","VA","24597"
22925,"1111 ROSEDALE DRIVE NE","ATLANTA","GA","30306"
22926,"1111 RUSHMORE DR","ALLEN","TX","75002"
22927,"1111 S 1350 W APT G422","OREM","UT","84058"
22928,"1111 S 1ST","CHAMPAIGN","IL","61820"
22929,"1111 S BONNIE LN","TEMPE","AZ","85281"
22930,"1111 S BRYAN AVE","FORT COLLINS","CO","80521"
22931,"1111 S GRAND AVENUE APT 711","LOS ANGELES","CA","90015"
22932,"1111 S HAZELWOOD RD","SPOKANE","WA","99224"
22933,"1111 S HIGH HILL PL D","DALLAS","TX","75203"
22934,"1111 S JACKSON ST","FRANKFORT","IN","46041"
22935,"1111 S MAIN 2232","CARROLLTON","TX","75006"
22936,"1111 S MARIETTA PARKWAY SUITE A","MARIETTA","GA","30060"
22937,"1111 S ORANGE STREET","NEW SMYRNA BEACH","FL","32168"
22938,"1111 S ORCHARD ST STE 232","BOISE","ID","83705"
22939,"1111 S ORCHARD ST","BOISE","ID","83705"
22940,"1111 S PLATA CIRCLE","SANTA FE","NM","87501"
22941,"1111 S ROOP ST UNIT 100","CARSON CITY","CA","89702"
22942,"1111 SALIMAN","CARSON CITY","NV","89701"
22943,"1111 SANDPIPER DRIVE","BEAUMONT","CA","92223"
22944,"1111 SE DIVISION STREET","BEND","OR","97702"
22945,"1111 SHARON ROAD","LAS VEGAS","NV","89106"
22946,"1111 SOUTH 2ND STREET","LEAVENWORTH","KS","66048"
22947,"1111 SOUTH ALPINE ROAD     STE 704","ROCKFORD","IL","61108"
22948,"1111 SOUTH ALPINE ROAD  STE 704","ROCKFORD","IL","61104"
22949,"1111 SOUTH LAFLIN 1106","CHICAGO","IL","60607"
22950,"1111 SOUTH LINCOLN AVENUE BOX 622","OFALLON","IL","62269"
22951,"1111 SOUTH ORCHARD STREET SUITE 254","BOISE","ID","83705"
22952,"1111 STRATFORD ST","BARBERTON","OH","44203"
22953,"1111 SUBURBAN ST","CEDAR HILL","TX","75104"
22954,"1111 SW 1 AVE APT 3325","MIAMI","FL","33130"
22955,"1111 SW 1ST AVE APT 1615","MIAMI","FL","33130"
22956,"1111 TACOME AVENUE SOUTH","TACOME","WA","98402"
22957,"1111 TERRILL ROAD","SCOTCH PLAINS","NJ","07076"
22958,"1111 THIRD AVE - SUITE 3000","SEATTLE","WA","98101"
22959,"1111 W BETTERAVIA","SANTA MARIA","CA","93455"
22960,"1111 W CHICAGO AVE 2A","CHICAGO","IL","60642"
22961,"1111 W EL CAMINO REAL STE 109-387","SUNNYVALE","CA","94087"
22962,"1111 W EL CAMINO REAL STE 190","SUNNYVALE","CA","94087"
22963,"1111 W EL CAMINO REAL-SUITE 109/178","SUNNYVALE","CA","94087"
22964,"1111 W LEDBETTER DR SUITE 900","DALLAS","TX","75224"
22965,"1111 W LONG LAKE ROAD SUITE 200","TROY","MI","48098"
22966,"1111 W MOCKINGBIRD LANE STE 920","DALLAS","TX","75247"
22967,"1111 W MOCKINGBIRD LN STE 930","DALLAS","TX","75247"
22968,"1111 W MOCKINGBIRD LN STE","DALLAS","TX","75247"
22969,"1111 W ST NW APT 14","WASHINGTON","DC","20009"
22970,"1111 W SUMNER AVE","LAKE ELSINORE","CA","92530"
22971,"1111 WASHINGTON BLVD","MAYWOOD","IL","60153"
22972,"1111 WESLEY LANE","LEXINGTON","TX","78947"
22973,"1111 WEST AVE","CROSSVILLE","TN","38555"
22974,"1111 WEST AVENUE L12 STE A","LANCASTER","CA","93534"
22975,"1111 WEST CENTURY BLVD","LODI","CA","95240"
22976,"1111 WEST CYPRESS DR","POMPANO BEACH","FL","33069"
22977,"1111 WEST EL CAMINO REAL - STE 109","SUNNYVALE","CA","94087"
22978,"1111 WEST FOURTH STREET","MADERA","CA","93637"
22979,"1111 WEST LOOP SOUTH SUITE 120","HOUSTON","TX","77027"
22980,"1111 WEST SABINE STREET LOT 3","LONGVIEW","TX","75604"
22981,"1111 WEST VICTORY WAY SUITE 115","CRAIG","CO","81625"
22982,"1111 WESTCHESTER AVE 1129- 4-80A","WHITE PLAINS","NY","10605"
22983,"1111 WHITAKER WAY","RED OAK","TX","75154"
22984,"1111 WHITMAN STREET SE","ORANGEBURG","SC","29115"
22985,"1111 WILSHIRE BLVD RM 628","LOS ANGELES","CA","90017"
22986,"1111 WILSHIRE BLVD STE 732","LOS ANGELES","CA","90017"
22987,"1111 WILSON STREET","DENTON","TX","76205"
22988,"1111 WINDING CANYON CT","KATY","TX","77493"
22989,"1111 WREN CREEK DR","BLYTHEWOOD","SC","29016"
22990,"1111 YARDLEY COMMONS","YARDLEY","PA","19067"
22991,"1111-244TH ST SW UNIT B","BOTHELL","WA","98021"
22992,"11110 BELLAIRE BLVD SUITE 200","HOUSTON","TX","77072"
22993,"11110 CHESTERMERE CT","LAS VEGAS","NV","89135"
22994,"11110 IRISH MOSS AVE","RIVERVIEW","FL","33569"
22995,"11110 LAWRENCE 1137","MOUNT VERNON","MO","65712"
22996,"11110 MOORPARK ST  APT 206","NORTH HOLLYWOOD","CA","91602"
22997,"11110 MOORPARK ST APT 206","NORTH HOLLYWOOD","CA","91602"
22998,"11110 OHIO AVENUE APT 104","LA","CA","90025"
22999,"11110 SANDSTONE ROAD","CHARLOTTE","NC","28277"
23000,"11110 W OAKLAND PARK BLVD NUM 308","SUNRISE","FL","33351"
