"ID","Address","City","State","Zip"
193501,"3851 CHARTER PARK DRIVE STE M","SAN JOSE","CA","95136"
193502,"3851 COLBURN CULVER ROAD","SANDPOINT","ID","83864"
193503,"3851 E JUNIPER ST","MESA","AZ","85205"
193504,"3851 EAST MAIN ST","MESA","AZ","85205"
193505,"3851 FEE FEE RD","BRIDGETON","MO","63044"
193506,"3851 FOSTER ST","EVANSTON","IL","60203"
193507,"3851 N HILLWOOD CIRCLE","TUCSON","AZ","85750"
193508,"3851 N OCONTO AVE","CHICAGO","IL","60634"
193509,"3851 NE 21 AVENUE STE 29","LIGHTHOUSE POINT","FL","33064"
193510,"3851 OAK LANE NE","LEXINGTON","MN","55014"
193511,"3851 PEACHTREE CT","NEW ORLEANS","LA","70131"
193512,"3851 PENNWOOD AVENUE SUITE 115-117","LAS VEGAS","NV","89102"
193513,"3851 ROYAL ROAD","FAIRBANKS","AK","99701"
193514,"3851 RUSSELL ST","DETROIT","MI","48044"
193515,"3851 S TEMPE WAY","AURORA","CO","80018"
193516,"38513 KNUTE COURT","FREMONT","CA","94536"
193517,"38516 CHARLES TOWN PIKE","WATERFORD","VA","20197"
193518,"38517 N GREEN BAY RD","BEACH PARK","IL","60087"
193519,"3852 BROOKFIELD ROAD","VALDOSTA","GA","31605"
193520,"3852 CEDAR BLUFF LANE","JACKSONVILLE","FL","32226"
193521,"3852 DAYTONA DRIVE","AUSTINTOWN","OH","44515"
193522,"3852 MADISON ST","DENVER","CO","80205"
193523,"3852 N EAGLE ROAD","BOISE","ID","83713"
193524,"3852 N TIMBERS CT","HARVEY","LA","70058"
193525,"3852 PARK AVENUE","MEMPHIS","TN","38111"
193526,"3852 S DELAWARE ST","ENGLEWOOD","CO","80110"
193527,"3852 SOUTH 3RD STREET","JACKSONVILLE BEACH","FL","32250"
193528,"38529 5TH AVE","ZEPHYRHILLS","FL","33542"
193529,"3853 BRANHAM PARK","LEXINGTON","KY","40515"
193530,"3853 CLOVERLAWN AVENUE","YPSILANTI","MI","48197"
193531,"3853 E THOMAS RD","PHOENIX","AZ","85018"
193532,"3853 LAKE SHORE STREET","FALLBROOK","CA","92028"
193533,"3853 MAYFAIR STREET","PITTSBURGH","PA","15204"
193534,"3853 NORTHDALE BLVD 185","TAMPA","FL","33624"
193535,"3853 NORTHDALE BLVD 329","TAMPA","FL","33624"
193536,"3853 NORTHDALE BLVD SUITE 134","TAMPA","FL","33624"
193537,"3853 OLD EASTON RD","DOYLESTOWN","PA","18902"
193538,"3853 POKAPAHU PLACE","HONOLULU","HI","96816"
193539,"3853 SKY HAWK CT","CASTLE ROCK","CO","80109"
193540,"3853 SOUTH POINTE DRIVE UNIT C","DEKALB","IL","60115"
193541,"38531 GOLDFINCH LANE","OCEAN VIEW","DE","19970"
193542,"38535 6TH STREET EAST","PALMDALE","CA","93550"
193543,"3853G LAWRENCEVILLE HIGHWAY","TUCKER","GA","30084"
193544,"3854 140TH AVE NE","BELLEVUE","WA","98005"
193545,"3854 BETHANY RD","UNIVERSITY HEIGHTS","OH","44118"
193546,"3854 CAZADOR ST","LOS ANGELES","CA","90065"
193547,"3854 CAZADOR STREET","LOS ANGELES","CA","90065"
193548,"3854 GREENWOOD AVE","OAKLAND","CA","94602"
193549,"3854 HARVARD TERRACE","SKOKIE","IL","60076"
193550,"3854 HEAD ROAD","ADAMS","TN","37010"
193551,"3854 HOMEWOOD","TOLEDO","OH","43612"
193552,"3854 N BEVERLY HILLS DR","TOLEDO","OH","43614"
193553,"3854 TAHOE DRIVE","WARREN","MI","48019"
193554,"3854 VISTA CIRCLE COURT","LANCASTER","CA","93536"
193555,"3854 W 54TH STREET","LOS ANGELES","CA","90043"
193556,"3854 WELTY AVE SE","SALEM","OR","97302"
193557,"3855 12TH AVENUE","SACRAMENTO","CA","95817"
193558,"3855 ANTIOCH ROAD","SULPHUR ROCK","AR","72579"
193559,"3855 BLAIR MILL RD","HORSHAM","PA","19044"
193560,"3855 BROWN AVENUE","OAKLAND","CA","94619"
193561,"3855 CLARKSVILLE PIKE","NASHVILLE","TN","37218"
193562,"3855 COTTONWOOD DRIVE","TITUSVILLE","FL","32780"
193563,"3855 DC CANEY RIDGE ROAD","CLINTWOOD","VA","24228"
193564,"3855 DEWEESE RD","TROY","OH","45373"
193565,"3855 ECTOR ST","BEAUMONT","TX","77705"
193566,"3855 GRAND AVE","MIAMI","FL","33133"
193567,"3855 HOLCOMB BRIDGE ROAD SUITE 400","NORCROSS","GA","30092"
193568,"3855 HOLMAN ST ROOM 128","HOUSTON","TX","77004"
193569,"3855 LOCHDALE TERRACE 5107","LEXINGTON","KY","40514"
193570,"3855 OAK BROOK LANE","MARTINEZ","GA","30907"
193571,"3855 PACIFIC COAST HIGHWAY SUITE 16","TORRANCE","CA","90505"
193572,"3855 POWDER SPRINGS RD","POWDER SPRINGS","GA","30127"
193573,"3855 RALEIGH AVENUE","BETTENDORF","IA","52722"
193574,"3855 S 500 W STE E","SOUTH SALT LAKE","UT","84115"
193575,"3855 S MILITARY TRAIL","LAKE WORTH","FL","33463"
193576,"3855 S ORILLA ROAD","WEST DES MOINES","IA","50061"
193577,"3855 SHALLOWFORD ROAD STE 515","MARIETTA","GA","30062"
193578,"3855 SW 99TH AVE","PORTLAND","OR","97225"
193579,"3855 TAMARISK CT","SOUTH JORDAN","UT","84009"
193580,"3855 TULSA WAY","FORT WORTH","TX","76107"
193581,"3855 W FERDINAND","CHICAGO","IL","60624"
193582,"3855 W HARRISON","CHICAGO","IL","60624"
193583,"3855 WARM SPRINGS RD","COLUMBUS","GA","31909"
193584,"3856 DEWEY AVE","RICHTON PARK","IL","60471"
193585,"3856 E LAYTON AVE","CUDAHY","WI","53110"
193586,"3856 N OAKLEY AVE","CHICAGO","IL","60618"
193587,"3856 ROYAL LN","DALLAS","TX","75229"
193588,"3856 STRATFORD CIRCLE","VALDOSTA","GA","31605"
193589,"3856 W ARTHINGTON ST","CHICAGO","IL","60624"
193590,"3856 WEST 31ST STREET","CLEVELAND","OH","44102"
193591,"38565 HOOD ST","SANDY","OR","97055"
193592,"3857 BIRCH STREET SUITE 197","NEWPORT BEACH","CA","92660"
193593,"3857 BIRCH STREET","NEWPORT BEACH","CA","92660"
193594,"3857 BORING RD","DECATUR","GA","30034"
193595,"3857 CRESTVIEW DRIVE","SANTA ROSA","CA","95403"
193596,"3857 FOLSOM STREET","PHILADEPHIA","PA","19104"
193597,"3857 PALM STREET","HOUSTON","TX","77004"
193598,"3857 PARKER ROAD","FORT GRATIOT","MI","48059"
193599,"3857 SOUTH BLVD","TROY","MI","48098"
193600,"3857 WINTERGREEN BLVD","COLUMBUS","OH","43230"
193601,"3857 WOLVERINE ST NE STE C16","SALEM","OR","97305"
193602,"38571 NORTHFARM DR","NORTHVILLE","MI","48167"
193603,"3858 CHISOLM COURT","CLEVELAND","TX","77328"
193604,"3858 FOX RUN","DENVER","NC","28037"
193605,"3858 GLAZIER BAYLANE APT 326","FORT WORTH","TX","76133"
193606,"3858 MARTIS STREET","WEST SACRASACRAMENTO","CA","95691"
193607,"3858 MEADOW FARM ROAD","NEWTOWN SQUARE","PA","19073"
193608,"3858 REDWOOD DRIVE","RIVERSIDE","CA","92501"
193609,"3858 WASHINGTON BLVD","SAINT LOUIS","MO","63108"
193610,"38580 HIGHWAY 184","MANCOS","CO","81328"
193611,"38580 HWY 184","MANCOS","CO","81328"
193612,"38589 WEST 92ND STREET","RICHMOND","MO","64085"
193613,"3859 10TH AVENUE 2ND FLOOR","BRONX","NY","10034"
193614,"3859 BATTLEGROUND AVE SUITE 202","GREENSBORO","NC","27410"
193615,"3859 CARDIFF AVENUE","CULVER CITY","CA","90232"
193616,"3859 N NEW JERSEY ST","INDIANAPOLIS","IN","46205"
193617,"3859 QUARTZITE LANE","SAN BERNARDINO","CA","92407"
193618,"3859 S VINCENNES AVE","CHICAGO","IL","60653"
193619,"3859 W FOREST RD","CONROE","TX","77306"
193620,"38590 CARPENTER DYESVILLE RD","POMEROY","OH","45769"
193621,"38592 COUNTY ROAD 3P","GENOA","CO","80818"
193622,"38595 HUGHESVILLE RD","LEESBURG","VA","20175"
193623,"386 ANCHOR AVE","OCEANSIDE","NY","11572"
193624,"386 BEECHNUT HILL","AKRON","OH","44333"
193625,"386 CHAPMAN STREET","IRVINGTON","NJ","07111"
193626,"386 CLARKO ROAD","QUITMAN","MS","39355"
193627,"386 CR 784","NATALIA","TX","78059"
193628,"386 DARBY ROAD","DEFUNIAK SPRINGS","FL","32435"
193629,"386 E ROOSEVELT BLVD","MONROE","NC","28112"
193630,"386 E URIE NORTH DRIVE","WASHINGTON","UT","84780"
193631,"386 EAST E STREET","BENICIA","CA","94510"
193632,"386 EAST ELIZABETH STREET","PASADENA","CA","91104"
193633,"386 EAST MAIN STREET","NEWPORT","TN","37821"
193634,"386 FAIRFIELD DRIVE","JACKSON","MS","39206"
193635,"386 FEHRINGER STREET","SIDNEY","NE","69162"
193636,"386 FRONTIER AVE","MORGANTOWN","WV","26505"
193637,"386 GREAT BEDS CT","PERTH AMBOY","NJ","08861"
193638,"386 HIGHWAY 91 NORTH","ELIZABETHTON","TN","37643"
193639,"386 KELLY SPRINGS ROAD","MOUNT OLIVE","NC","28365"
193640,"386 LITCHFIELD ROAD","NEW MILFORD","CT","06776"
193641,"386 LOWBER RD","LOWBER","PA","15660"
193642,"386 MADISON AVE","ALBANY","NY","12210"
193643,"386 MAIN ST","EAST BERLIN","CT","06023"
193644,"386 MAIN STREET","NORWICH","VT","05055"
193645,"386 MAIN STREET","RIDGEFIELD","CT","06877"
193646,"386 MT SEQUOIA PL","CLAYTON","CA","94517"
193647,"386 N COAST HWY 101","ENCINITAS","CA","92024"
193648,"386 S ATLANTIC AVE UNIT 1042","ORMOND BEACH","FL","32716"
193649,"386 S ATLANTIC AVE UNIT 26","ORMOND BEACH","FL","32176"
193650,"386 SHORE ROAD","WESTERLY","RI","02891"
193651,"386 SPANISH WELLS ROAD SUITE B3","BLUFFTON","SC","29926"
193652,"386 SUTTON STREET","YORKVILLE","IL","60560"
193653,"386 TAFT AVE","BRIDGEPORT","CT","06604"
193654,"386 TRULL RD","TEWKSBURY","MA","01876"
193655,"386 W CHERRY STREET","JESUP","GA","31545"
193656,"386 WATER STREET","OLEY","PA","19547"
193657,"386 WEST 3540 NORTH","PROVO","UT","84604"
193658,"386 WEST MAIN STREET UNIT 4","NORTHBOROUGH","MA","01532"
193659,"386 YALMER RD","SKANDIA","MI","49885"
193660,"386","TIGER","GA","30576"
193661,"3860 AMBERLY DRIVE UNIT D","INGLEWOOD","CA","90305"
193662,"3860 BALSAM ST","WHEAT RIDGE","CO","80033"
193663,"3860 EAGLE GLEN RD","HIGH POINT","NC","27265"
193664,"3860 FRANKLIN ST","OMAHA","NE","68111"
193665,"3860 FRANKLIN STREET","OMAHA","NE","68111"
193666,"3860 GRAYBURN AVENUE","LOS ANGELES","CA","90008"
193667,"3860 GREY ABBEY DRIVE","ALPHARETTA","GA","30022"
193668,"3860 LEAVITT ST BOX 858","LOGANDALE","NV","89021"
193669,"3860 OAKLEAF AVE","PAHRUMP","NV","89048"
193670,"3860 RICHY ROAD","MIMS","FL","32754"
193671,"3860 S GERMANTOWN RD","MEMPHIS","TN","38125"
193672,"3860 TREVI LANE","SUWANEE","GA","30024"
193673,"3860 TUSCANY DR","IDAHO FALLS","ID","83404"
193674,"3860 US HIGHWAY 1","GRANT","FL","32949"
193675,"3860 WATERFORD CT","ORANGE VILLAGE","OH","44122"
193676,"38603 EAST RIVER ROAD","ELYRIA","OH","44035"
193677,"38605 GARDEN ISLAND VIEW RD","BEAVER ISLAND","MI","49782"
193678,"38608 KYLE PL","PALMDALE","CA","93551"
193679,"3861 38TH STREET SOUTH","SAINT PETERSBURG","FL","33711"
193680,"3861 EAST 8TH LANE","HIALEAH","FL","33013"
193681,"3861 EASTWAY ROAD","SOUTH EUCLID","OH","44118"
193682,"3861 FAVERSHAM ROAD","UNIVERSITY HEIGHTS","OH","44118"
193683,"3861 N LAKE ORLANDO PARKWAY","ORLANDO","FL","32808"
193684,"3861 NORTH MULLAN TRAIL","GOLD CREEK","MT","59733"
193685,"3861 QUAIL RIDGE DRIVE","MURRIETA","CA","92562"
193686,"38610 ANNETTE AVENUE","PALMDALE","CA","93551"
193687,"3862 AVOCADO ST","IRVINE","CA","92606"
193688,"3862 N GERMANTOWN PKWY","BARTLETT","TN","38133"
193689,"3862 SOUTH QUATAR WAY","AURORA","CO","80018"
193690,"3862 WHISPERING MEADOWS COURT NW","BEMIDJI","MN","56601"
193691,"38624 BEN PL","PALMDALE","CA","93551"
193692,"38627 CHERRY LANE SUITE 5","FREMONT","CA","94536"
193693,"3863 BENTLEY AVE APT 2","CULVER CITY","CA","90232"
193694,"3863 E 300 N","RIGBY","ID","83442"
193695,"3863 HIGHWAY 138 UNIT 3","STOCKBRIDGE","GA","30281"
193696,"3863 MANOR VIEW","MILTON","GA","30004"
193697,"3863 S UTICA AVE","TULSA","OK","74105"
193698,"38630 FANNIE MAE AVE","SOLDOTNA","AK","99699"
193699,"38632 AP HILL ROAD LOT 69","ZEPHYRHILLS","FL","33540"
193700,"38635 RESERVATION HIGHWAY 1","MORTON","MN","56270"
193701,"3864 CRENSHAW BL","LOS ANGELES","CA","90008"
193702,"3864 GUESS ROAD","DURHAM","NC","27705"
193703,"3864 GULL ROAD","PALM BEACH GARDENS","FL","33410"
193704,"3864 LAS FLORES CANYON RD","MALIBU","CA","90265"
193705,"3864 PROSPECT AVENUE","CULVER CITY","CA","90232"
193706,"3864 S BEACON DRIVE","SARATOGA SPRINGS","UT","84045"
193707,"3864 THACKARY DR","POWDER SPRINGS","GA","30127"
193708,"3864 THOMAS DRIVE","EMMAUS","PA","18049"
193709,"3864 US HWY 127 S","FRANKFORT","KY","40601"
193710,"3864 VINEYARDS LAKE CIRCLE","KENNESAW","GA","30144"
193711,"3864 WEST 107TH STREET NORTH","SPERRY","OK","74073"
193712,"3864 WEST BATH ROAD","AKRON","OH","44333"
193713,"38642 KUNICK ROAD","CENTERVILLE","PA","16404"
193714,"38648 MEMBERS CLUB DR","MURRIETA","CA","92563"
193715,"3865 BRUSHY WOOD DRIVE","LOGANVILLE","GA","30052"
193716,"3865 CARDINAL BLVD","PORT ORANGE","FL","32127"
193717,"3865 COMSTOCK LANE NORTH","PLYMOUTH","MN","55446"
193718,"3865 CREEKVIEW RIDGE DRIVE NE","BUFORD","GA","30518"
193719,"3865 EAST LONG AVE","CENTENNIAL","CO","80122"
193720,"3865 HWY 58","STELLA","NC","28582"
193721,"3865 HWY 710","PEMBROKE","NC","28372"
193722,"3865 LAKE POINT DRIVE","MUSKEGON","MI","49441"
193723,"3865 LAKESHORE AVENUE","OAKLAND","CA","94610"
193724,"3865 LAKEVIEW RD","MEMPHIS","TN","38116"
193725,"3865 MAGRATH RD","BELLINGHAM","WA","98226"
193726,"3865 MISSOURI ROAD","MAXTON","NC","28364"
193727,"3865 PARK AVE","MIAMI","FM","33133"
193728,"3865 STONECREST ROAD","WEST BLOOMFIELD","MI","48322"
193729,"3865 WILLOWVIEW DRIVE","SAN JOSE","CA","95118"
193730,"3865 WINCHESTER ROAD SUITE 6","MEMPHIS","TN","38118"
193731,"38651 WOODWARD AVE","BLOOMFLD HILLS","MI","48304"
193732,"38656 CORTINA WAY","PALMDALE","CA","93550"
193733,"3866 BAYTREE STREET","PITTSBURGH","PA","15214"
193734,"3866 EBERLY ROAD NE","HARTVILLE","OH","44632"
193735,"3866 HARVARD RD","DETROIT","MI","48224"
193736,"3866 MCKEES GAP RD","WARFORDSBURG","PA","17267"
193737,"3866 OLD DUNN RD","APOPKA","FL","32712"
193738,"3866 ROCHESTER RD","DRYDEN","MI","48428"
193739,"3866 SAN AUGUSTINE DR","GLENDALE","CA","91206"
193740,"3866 VIA DOLCE","MARINA DEL REY","CA","90292"
193741,"38668 SW ELDERBERRY ST","SCIO","OR","97374"
193742,"3867 HUNTERS GROVE BLVD","CANTON","MI","48188"
193743,"3867 KANE ROAD","CARLETON","MI","48117"
193744,"3867 MORAN WAY UNIT D","NORCROSS","GA","30092"
193745,"3867 NORTHWEST WAY","REDMOND","OR","97756"
193746,"3867 SPINEL CIR","RESCUE","CA","95672"
193747,"3867 STURDIVANT AVE","KLAMATH FALLS","OR","97603"
193748,"3867 W MARKET ST NUM154","AKRON","OH","44333"
193749,"3867 W MARKET ST STE 285","AKRON","OH","44333"
193750,"3867 W MARKET ST STE 335","AKRON","OH","44333"
193751,"3867 W MARKET STREET STE 285","AKRON","OH","44333"
193752,"3867 WEST MARKET ST STE 166","AKRON","OH","44333"
193753,"38678 SD HWY 34","WESSINGTON SPRINGS","SD","57382"
193754,"3868 BETHMAN ROAD","EASTON","PA","18045"
193755,"3868 E PLEASANT RUN S DRIVE","INDIANAPOLIS","IN","46201"
193756,"3868 MAGMA CT","MASON","OH","45040"
193757,"3868 N 30TH ST","PHOENIX","AZ","85016"
193758,"3868 S LAKE PARK AVE","CHICAGO","IL","60653"
193759,"38680 CALLE DE LOBO","MURRIETA","CA","92562"
193760,"3869 CHRISWOOD LN","HARVEY","LA","70058"
193761,"3869 OLD SANTA FE TRAIL","SANTA FE","NM","87505"
193762,"3869 SAINT MARYS ROAD PMB 137","COLUMBUS","GA","31906"
193763,"3869 SAN RAMON DRIVE 189","OCEANSIDE","CA","92057"
193764,"3869 W JEFFERSON AVE","ECORSE","MI","48229"
193765,"3869 WEBSTER STREET","OMAHA","NE","68131"
193766,"387 1/2 BLEECKER ST","NEW YORK","NY","10014"
193767,"387 AVENUE S APT 2F","BROOKLYN","NY","11375"
193768,"387 CARTER AVE","HARPERS FERRY","WV","25425"
193769,"387 CHILDS STREET","MARTIN","GA","30557"
193770,"387 COLE RD","HUSTONTOWN","PA","17229"
193771,"387 COUNTY ROAD 2981","HUGHES SPRINGS","TX","75656"
193772,"387 DUNAWAY COURT","GRAYSON","GA","30017"
193773,"387 E 48TH ST 1F","BROOKLYN","NY","11203"
193774,"387 E MUNICH DR","ST GEORGE","UT","84790"
193775,"387 EAST 48TH ST APT 1F","BROOKLYN","NY","11203"
193776,"387 EAST BECK ST","COLUMBUS","OH","43206"
193777,"387 FRANKLIN ST","BUFFALO","NY","14202"
193778,"387 GOODRICH AVE","ST PAUL","MN","55102"
193779,"387 JONES ROAD","FALMOUTH","MA","02540"
193780,"387 LIVORNA HEIGHTS ROAD","ALAMO","CA","94507"
193781,"387 MAGNOLIA AVE SUITE 103","CORONA","CA","92879"
193782,"387 MAGNOLIA AVE","CORONA","CA","92879"
193783,"387 MAGNOLIA AVENUE STE 103238","CORONA","CA","92879"
193784,"387 MAITLAND AVE","TEANECK","NJ","07666"
193785,"387 MCDONALD AVE","OVERTON","NV","89040"
193786,"387 MISSOURI VALLEY ROAD","SHOSHONI","WY","82649"
193787,"387 N 5TH STREET","TIMPSON","TX","75975"
193788,"387 PARK AVE S FL 5","NEW YORK","NY","10016"
193789,"387 PO BOX","LA MIRADA","CA","90637"
193790,"387 PRATT DRIVE SE UNIT 602","ATLANTA","GA","30315"
193791,"387 PRYOR DRIVE","MALVERN","AR","72104"
193792,"387 S HWY 18","LAWNDALE","NC","28090"
193793,"387 SHUMAN BLVD SUITE 310","NAPERVILLE","IL","60563"
193794,"387 SNOQUALMIE PL","LA CONNER","WA","98257"
193795,"387 W STATE ST APT 1","SHARON","OH","16146"
193796,"387 WHITE OAK LANE","GRAND ISLAND","NY","14072"
193797,"3870 E BIGGS RD","ASHLAND","MO","65010"
193798,"3870 E FLAMINGO RD      SUITE A2174","LAS VEGAS","NV","89121"
193799,"3870 E FLAMINGO RD A2 405","LAS VEGAS","NV","89121"
193800,"3870 E FLAMINGO RD STE A2 PMB133","LAS VEGAS","NV","89121"
193801,"3870 E FLAMINGO RD STE A2","LAS VEGAS","NV","89121"
193802,"3870 E QUARTZ STREET","GILBERT","AZ","85297"
193803,"3870 EAST BLVD","LOS ANGELES","CA","90066"
193804,"3870 LA SIERRA AVE 1081","RIVERSIDE","CA","92505"
193805,"3870 LA SIERRA AVE 234","RIVERSIDE","CA","92505"
193806,"3870 LA SIERRA AVENUE NUMBER 309","RIVERSIDE","CA","92505"
193807,"3870 LA SIERRA AVENUE SUITE 1045","RIVERSIDE","CA","92505"
193808,"3870 LA SIERRA AVENUE SUITE 376","RIVERSIDE","CA","92505"
193809,"3870 LEAFY WAY","MIAMI","FL","33133"
193810,"3870 MALLOW RD","COLORADO SPRINGS","CO","80907"
193811,"3870 NORTH PEACHTREE RD SUITE C","CHAMBLEE","GA","30341"
193812,"3870 NW 8TH STREET","LAUDERHILL","FL","33311"
193813,"3870 OZARK STREET","BATON ROUGE","LA","70805"
193814,"3870 PEACHTREE IND BLVD STE 340-294","DULUTH","GA","30096"
193815,"3870 PEACHTREE IND BLVD STE 340-313","DULUTH","GA","30096"
193816,"3870 PEACHTREE IND BLVD STE340NO119","DULUTH","GA","30096"
193817,"3870 QUARTZ STREET","GILBERT","AZ","85297"
193818,"3870 S BRIDAL VAIL DRIVE","GILBERT","AZ","85297"
193819,"3870 S QUARTZ ST","GILBERT","AZ","85297"
193820,"3870 S QUARTZ STREET","GILBERT","AZ","85297"
193821,"3870 S QUARTZ STREET","PHOENIX","AZ","85297"
193822,"3870 SALEM BOTTOM ROAD","WESTMINSTER","MD","21157"
193823,"3870 SOUTH ORANGE BLOSSOM TRAIL","KISSIMMEE","FL","34746"
193824,"3870 YOSEMITE AVE S","SAINT LOUIS PARK","MN","55416"
193825,"3870 YOSEMITE AVE S","ST LOUIS PARK","MN","55416"
193826,"38704 EDGEWOOD CIR","DENHAM SPRINGS","LA","70706"
193827,"38706 NW 14TH AVENUE","WOODLAND","WA","98674"
193828,"38707 9TH STREET EAST","PALMDALE","CA","93550"
193829,"3871 1ST AVENUE SW","NAPLES","FL","34117"
193830,"3871 BANBRIDGE DRIVE","HIGH POINT","NC","27260"
193831,"3871 HARLEM RD","CHEEKTOWAGA","NY","14215"
193832,"3871 HIGHWAY 100","LYLES","TN","37098"
193833,"3871 INNSBROOK DRIVE","MEMPHIS","TN","38115"
193834,"3871 LEEWARD SLOPES COVE","LAKELAND","TN","38002"
193835,"3871 MCELRIE COVE","BARTLETT","TN","38133"
193836,"3871 REDWINE ROAD APT 2303","ATLANTA","GA","30344"
193837,"3871 VILLA ROSE LN","ORLANDO","FL","32808"
193838,"3871 WOODMAN DR","TROY","MI","48084"
193839,"3871","CLARKSVILLE","TN","37043"
193840,"38713 TIERRA SUBIDA AVE  200 245","PALMDALE","CA","93551"
193841,"38713 TIERRA SUBIDA AVE NUM 264","PALMDALE","CA","93551"
193842,"38713 TIERRA SUBIDA AVE STE 200-111","PALMDALE","CA","93551"
193843,"38713 TIERRA SUBIDA AVE STE 200","PALMDALE","CA","93551"
193844,"38713 TIERRA SUBIDA AVE SUITE 654","PALMDALE","CA","93551"
193845,"38713 TIERRA SUBUDA AVE UNIT 645","PALMDALE","CA","93551"
193846,"3872 FM 537","FLORESVILLE","TX","78114"
193847,"3872 FOLIAGE DRIVE","WINSTON-SALEM","NC","27101"
193848,"3872 LANCEWOOD DR","CORAL SPRINGS","FL","33065"
193849,"3872 N 58TH BLVD","MILWAUKEE","WI","53216"
193850,"3872 RIVIERA CIRCLE","BONITA SPRING","FL","34134"
193851,"3872 WAKE CIRCLE APT B","NORFOLK","VA","23513"
193852,"3872 WOLCOTT COURT","FLORISSANT","MO","63034"
193853,"38726 AVENEL CT","WILLOUGHBY","OH","44094"
193854,"3873 GALA LOOP","BELLINGHAM","WA","98226"
193855,"3873 GLEN HAVEN RD","ST. JOSEPH","MI","49085"
193856,"3873 LANDMARK DRIVE","DOUGLASVILLE","GA","30135"
193857,"3873 N RICE RD","TAHLEQUAH","OK","74464"
193858,"3873 SUMMER GROVE WAY N","JACKSONVILLE","FL","32257"
193859,"3873 TIMBERWOLF TR","LINO LAKES","MN","55014"
193860,"38731 NORTH CRESTED QUAIL RUN","CAREFREE","AZ","85377"
193861,"38733 9TH STREET  EAST SUITE 04","PALMDALE","CA","93552"
193862,"38733 9TH STREET EAST","PALMDALE","CA","93550"
193863,"38736 ALMADEN PL","FREMONT","CA","94536"
193864,"3874 GENTIAN BLVD","COLUMBUS","GA","31907"
193865,"3874 PAXTON ROAD SUITE 9953","CINCINNATI","OH","45209"
193866,"3874 S HOBART BLVD","LOS ANGELES","CA","90062"
193867,"3874 SUNSET COVE DR","PORT ORANGE","FL","32129"
193868,"3874 W31ST STREET","CLEVELAND","OH","44109"
193869,"38745 FLANDERS DR","SOLON","OH","44139"
193870,"3875 BLAINE RD","POPLAR GROVE","IL","61065"
193871,"3875 CENTER AVENUE","SANTA BARBARA","CA","93110"
193872,"3875 CHIMNEY RIDGE CT","ELLENWOOD","GA","30294"
193873,"3875 GADWALL ROAD","GAHANNA","OH","43230"
193874,"3875 GEIST ROAD- SUITE E- BOX 478","FAIRBANKS","AK","99709"
193875,"3875 GRAND OAKS BLVD","OAKLAND","MI","48363"
193876,"3875 HURD CREEK WAY","SAN BERNARDINO","CA","92407"
193877,"3875 MOUNTAIN ROAD","GLEN ALLEN","VA","23060"
193878,"3875 N BUSINESS CENTER DRIVE","TUCSON","AZ","85705"
193879,"3875 NW 77TH AVE","SUNRISE","FL","33351"
193880,"3875 OAK STREET","CINCINNATI","OH","45227"
193881,"3875 PONTE AVENUE 916","ADDISON","TX","75001"
193882,"3875 POWDER SPRINGS RD C","POWDER SPRINGS","GA","30127"
193883,"3875 POWDER SPRINGS RD STE C","POWDER SPRINGS","GA","30127"
193884,"3875 POWDER SPRINGS RD SUITE C","POWDER SPRINGS","GA","30127"
193885,"3875 POWDER SPRINGS RD","C","GA","30127"
193886,"3875 POWDER SPRINGS RD","POWDER SPRINGS","GA","30127"
193887,"3875 POWER SPRINGS RD","POWDER SPRINGS","GA","30127"
193888,"3875 RAINBOW DRIVE  PO BOX 321","ISLAND PARK","ID","83429"
193889,"3875 WAGON TRAIL RD","REXBURG","ID","83440"
193890,"3875","ALBANY","OR","97322"
193891,"38753 CLEARBROOK DRIVE","MURRIETA","CA","92563"
193892,"38753 COLLINS LN","LEBANON","OR","97355"
193893,"38755 VIA VISTA GRANDE","MURRIETA","CA","92562"
193894,"38758 VINELAND STREET","CHERRY VALLEY","CA","92223"
193895,"3876 AUSTIN CIR 23","DECATUR","GA","30032"
193896,"3876 MOUNT ALBERTINE AVENUE","SAN DIEGO","CA","92111"
193897,"3876 NORTHSIDE DR APT 1003","MACON","GA","31210"
193898,"3876 ROSEDALE STREET","HOUSTON","TX","77004"
193899,"3876 SWALLOW TRL NE","MARIETTA","GA","30066"
193900,"38765 FLANDERS DRIVE","SOLON","OH","44139"
193901,"3877 38TH STREET STE A","SAN DIEGO","CA","92105"
193902,"3877 GAINE DR","CLARKSVILLE","TN","37040"
193903,"3877 PERSIMMON CIRCLE","FAIRFAX","VA","22031"
193904,"3877 ROCKY MOUNT RD","GREENVILLE","GA","30222"
193905,"3877 SOUTH LEAWOOD AVENUE","SPRINGFIELD","MO","65807"
193906,"3877 TIMBERLINE WAY","VESTAVIA HILLS","AL","35243"
193907,"3877 W VINCENNES TRAIL","SALEM","IN","47167"
193908,"38770 AVENIDA LA CRESTA","MURRIETA","CA","92562"
193909,"38775 BUTTERNUT RIDGE RD APT 103","ELYRIA","OK","44035"
193910,"3878 CARDINAL TER","FREMONT","CA","94555"
193911,"3878 CHESNUT AVE","CONCORD","CA","94519"
193912,"3878 CONNECTICUT","ST. LOUIS","MO","63116"
193913,"3878 GLENVIEW DRIVE","FREMONT","CA","94536"
193914,"3878 RICHARD AVE","GROVE CITY","OH","43123"
193915,"3878 W MAIN ST","GRAY","LA","70359"
193916,"38785 JUNIPER TREE RD","PALMDALE","CA","93551"
193917,"38788 MEADOWLAWN","WAYNE","MI","48184"
193918,"3879 DOWDELL ST","FORT WORTH","TX","76119"
193919,"3879 E 120TH AVE STE 91","THORNTON","CO","80233"
193920,"3879 E 120TH AVENUE   SUITE 160","THORNTON","CO","80233"
193921,"3879 LUNN DRIVE","NASHVILLE","TN","37218"
193922,"3879 NW 92 AVE","SUNRISE","FL","33351"
193923,"3879 QUARTZITE LN","SAN BERNARDINO","CA","92407"
193924,"3879 SE HERON GLEN WAY","MILWAUKIE","OR","97267"
193925,"388 ARBOGAST LANE","MORGANTOWN","WV","26508"
193926,"388 BEALE STREET APT 713","SAN FRANCISCO","CA","94105"
193927,"388 BEDFORD AVE","UNIONDALE","NY","11553"
193928,"388 BENNIE CAMP ROAD","DUNLAP","TN","37327"
193929,"388 BULLSBORO DR 247","NEWNAN","GA","30263"
193930,"388 CARPET DR","ATMORE","AL","36502"
193931,"388 CEDAR HILL ROAD NW","AMANDA","OH","43102"
193932,"388 DOUGLAS EDWARD DRIVE","OCOEE","FL","34761"
193933,"388 EAST 300 NORTH BOX 444","MORGAN","UT","84050"
193934,"388 EAST DIVISION ROAD","VALPARAISO","IN","46383"
193935,"388 ELDER LN","WINNETKA","IL","60093"
193936,"388 GAMBRILLS RD UNIT 882","GAMBRILLS","MD","21054"
193937,"388 GLYNN STREET N","FAYETTEVILLE","GA","30214"
193938,"388 GOLFVIEW ROAD UNIT F","NORTH PALM BEACH","FL","33408"
193939,"388 GROFF STREET NW","CONCORD","NC","28027"
193940,"388 HIWOOD AVE","MUNROE FALLS","OH","44262"
193941,"388 HORSESHOE FARM ROAD","PEMBROKE","VA","24136"
193942,"388 JAMISON AVE","ORANGEBURG","SC","29115"
193943,"388 JULIUSTOWN ROAD B34","JULIUSTOWN","NJ","08042"
193944,"388 MARKET ST STE 1300","SAN FRANCISCO","CA","94111"
193945,"388 MARKET STREET  SUITE 1300","SAN FRANCISCO","CA","94111"
193946,"388 MARKET STREET SUITE 1300","SAN FRANCISCO","CA","94111"
193947,"388 MEDFORD ST APT 1","SOMERVILLE","MA","02145"
193948,"388 MIDWOOD ST 6B","BROOKLYN","NY","11225"
193949,"388 MORGAN CREEK COURT NW","KENNESAW","GA","30144"
193950,"388 N WEST CROWN POINT ROAD","WINTER GARDEN","FL","34787"
193951,"388 NAPP STREET","CHURCH POINT","LA","70525"
193952,"388 NORTH MAIN ST","SHARON","MA","02067"
193953,"388 OAKWOOD DRIVE","WYCKOFF","NJ","07481"
193954,"388 PEARL ST APT 16F","NEW YORK","NY","10038"
193955,"388 PLEASANT MEADOW BLVD UNIT C","CUYAHOGA FALLS","OH","44224"
193956,"388 REESE RD","BELLEFONTE","PA","16823"
193957,"388 RINEHART RD","WALLACE","WV","26448"
193958,"388 RIVERBEND DRIVE","BERMUDA RUN","NC","27006"
193959,"388 S BON AIR","YOUNGSTOWN","OH","44509"
193960,"388 SHEPHERD LANE","TROY","VA","22974"
193961,"388 SOUTH CLAY STREET","MEMPHIS","MO","63555"
193962,"388 ST RT 85 E","CENTERTOWN","KY","42328"
193963,"388 SW OAK ST","WILLAMINA","OR","97396"
193964,"388 SW QUAIL HEIGHTS TERRACE","LAKE CITY","FL","32025"
193965,"388 SWANSON RD","TYRONE","GA","30290"
193966,"388 WEST WASHINGTON STREET","HANSON","MA","02341"
193967,"388 WILOW CREEK LANE","MOCKSVILLE","NC","27028"
193968,"388 YPAO ROAD","TAMUNING","GU","96913"
193969,"3880 BIRD ROAD 314","MIAMI","FL","33146"
193970,"3880 BIRD ROAD APT 325","MIAMI","FL","33146"
193971,"3880 BLACKHAWK RD STE300","DANVILLE","CA","94506"
193972,"3880 CHARLTON IVES DR NW","LILBURN","GA","30047"
193973,"3880 COCONUT CREEK PARKWAY","COCONUT CREEK","FL","33066"
193974,"3880 COEUR D ALENE AVE","SHASTA LAKE","CA","96019"
193975,"3880 FOWLER RD","WEST SACRAMENTO","CA","95691"
193976,"3880 GREENHOUSE RD STE 409","HOUSTON","TX","77084"
193977,"3880 IDA ROAD","KAMIAH","ID","83536"
193978,"3880 MENAUL BLVD NE","ALBUQUERQUE","NM","87110"
193979,"3880 NORTH STATE ROAD 39","LEBANON","IN","46052"
193980,"3880 RIDGE RD","MEDINA","OH","44256"
193981,"3880 S BASCOM AVE SUITE 202","SAN JOSE","CA","95124"
193982,"3880 SOUTH BASCOM AVE   SUITE 216","SAN JOSE","CA","95124"
193983,"3880 STOCKTON HILL RD 103-482","KINGMAN","AZ","86409"
193984,"3880 STOCTON HILL RD STE 103-326","KINGMAN","AZ","86409"
193985,"3880 STUYVESANT AVENUE NE","GRAND RAPIDS","MI","49525"
193986,"3880 WEST RIVERBEND AVE","POST FALLS","ID","83854"
193987,"38801 FLORENCE WAY","FREMONT","CA","94536"
193988,"3881 10 OAKS RD 2E","GLENELG","MD","21737"
193989,"3881 AUGUSTINE CIRCLE","PORTSMOUTH","VA","23703"
193990,"3881 BELMONT RIDGE DR","LITHONIA","GA","30038"
193991,"3881 BENATAR WAY SUITE G","CHICO","CA","95928"
193992,"3881 HARMONY WAY","SANTA CLARA","UT","84765"
193993,"3881 IDLEWIND DR","WESTFIELD","IN","46074"
193994,"3881 MANDEVILLE CANYON RD","LOS ANGELES","CA","90049"
193995,"3881 PETZINGER ROAD","COLUMBUS","OH","43232"
193996,"3881 READING ROAD","CINCINNATI","OH","45229"
193997,"3881 SW 125 COURT","MIAMI","FL","33175"
193998,"38814 3RD AVE","NORTH BRANCH","MN","55056"
193999,"3882 CHAMPION CIR W","MOBILE","AL","36695"
194000,"3882 CORBIN AVE","TARZANA","CA","91356"
