"ID","Address","City","State","Zip"
261501,"6247 N GRATZ ST","PHILADELPHIA","PA","19141"
261502,"6247 N SHADOWHILL WAY","LOVELAND","OH","45140"
261503,"6247 RICHMOND RD","SOLON","OH","44139"
261504,"6247 S URBAN ST","LITTLETON","CO","80127"
261505,"6247 W COUNTY LINE RD","LULA","GA","30554"
261506,"6248 ARABELLA DRIVE","CASTLE ROCK","CO","80108"
261507,"6248 AVON AVE","SAN GABRIEL","CA","91775"
261508,"6248 COOSA COUNTY ROAD 56","WEOGUFKA","AL","35183"
261509,"6248 FLORIDA ST","CAMP LEJEUNE","NC","28547"
261510,"6248 N WHEELING AVE","KANSAS CITY","KS","64119"
261511,"6248 RANIER LANE N","MAPLE GROVE","MN","55311"
261512,"6248 SID CRANE DRIVE","CHARLOTTE","NC","28216"
261513,"6248 SPARROWHAWK WAY","OAKWOOD VILLAGE","OH","44146"
261514,"6248 WASHINGTON BLVD","ARLINGTON","VA","22205"
261515,"6248 WINSTON FALLS","LAS VEGAS","NV","89139"
261516,"6248","OAKLAND","CA","94603"
261517,"6249 JUSTINS RIDGE RD","NASHVILLE","IN","47448"
261518,"6249 N 1600TH ST","WEST UNION","IL","62477"
261519,"625  MASSACHUSETTS  AVENUE","CAMBRIDGE","MA","02139"
261520,"625 148TH CT NE","BRADENTON","FL","34212"
261521,"625 28TH STREET","NEWPORT NEWS","VA","23607"
261522,"625 2ND ST","MOORLAND","IA","50566"
261523,"625 6TH AVENUE SOUTH","BROOKINGS","SD","57006"
261524,"625 6TH ST","RICHMOND","CA","94801"
261525,"625 6TH STREET","LACON","IL","61540"
261526,"625 AIRPORT RD SW","HUNTSVILLE","AL","35802"
261527,"625 ALLEN STREET","OWENSBORO","KY","42303"
261528,"625 AMANDA PLACE","WINSTON SALEM","NC","27101"
261529,"625 ATLANTA AVENUE","ATLANTA","GA","30312"
261530,"625 AVENUE C","BAYONNE","NJ","07002"
261531,"625 BAGNELL DR","SAINT LOUIS","MO","63137"
261532,"625 BAKERS BRIDGE AVE SUITE 105","FRANKLIN","TN","37067"
261533,"625 BANK STREET","Webster City","IA","50595"
261534,"625 BERKELEY RUN","ATLANTA","GA","30342"
261535,"625 BIRCHWOOD AVE","DES PLAINES","IL","60018"
261536,"625 BOSTON POST ROAD","SUDBURY","MA","01776"
261537,"625 BOULEVARD NE","ATLANTA","GA","30308"
261538,"625 BREAKNECK ROAD","MULLICA HILL","NJ","08062"
261539,"625 BRIGHTWOOD DRIVE","MARION","OH","43302"
261540,"625 BROAD ST SUITE 240","NEWARK","NJ","07102"
261541,"625 BROAD STREET STE 240","NEWARK","NJ","07102"
261542,"625 BROAD STREET","WADWORTH","OH","44281"
261543,"625 BROAD STREET/SUITE 240","NEWARK","NJ","07102"
261544,"625 BROADWAY ST","ALEXANDRIA","MN","56308"
261545,"625 BUCK MOUNTAIN ROAD","DOVER","AR","72837"
261546,"625 CANTERBURY COURT","COPPELL","TX","75019"
261547,"625 CANTERBURY LANE","NORTH SALT LAKE","UT","84054"
261548,"625 CATHARINE STREET","PHILADELPHIA","PA","19147"
261549,"625 CELESTE STREET","NEW ORLEANS","LA","70130"
261550,"625 CIRCLE DR","BRYAN","OH","43506"
261551,"625 COMELLIA COURT APT 2105","HAYWARD","CA","94544"
261552,"625 COUNTY ROAD 91","BISHOP","TX","78343"
261553,"625 CRESTMONT WAY","GREENVILLE","SC","29615"
261554,"625 DOE TRAIL","CONWAY","AR","72034"
261555,"625 E 65TH TER","KANSAS CITY","MO","64131"
261556,"625 E 96TH STREET","KANSAS CITY","MO","64131"
261557,"625 E DUCATI WAY","ST GEORGE","UT","84790"
261558,"625 E LANCASTER AVE APT C303","WYNNEWOOD","PA","19096"
261559,"625 E MAIN ST 102B-233","ASPEN","CO","81611"
261560,"625 E MAIN ST STE 102B-233","ASPEN","CO","81611"
261561,"625 E PGH MCK BLVD","NORTH VERSAILLES","PA","15137"
261562,"625 E PINE ST","MISSOULA","MT","59802"
261563,"625 E RIVER ST","CAVE JUNCTION","OR","97523"
261564,"625 E TRAFFICWAY ST","SPRINGFIELD","MO","65806"
261565,"625 EAST 22ND STREET","LOS ANGELES","CA","90011"
261566,"625 EDGEWOOD DRIVE","KENT","OH","44240"
261567,"625 ELM COURT","BOX ELDER","SD","57719"
261568,"625 ERBLE LANE","LAKE CHARLES","LA","70611"
261569,"625 EWING DRIVE","NASHVILLE","TN","37207"
261570,"625 FM 407 E","ARGYLE","TX","76226"
261571,"625 FOREST EDGE  DR","VERNON HILLS","IL","60061"
261572,"625 GEORGIA AVENUE RM 204","CHATTANOOGA","TN","37402"
261573,"625 GLENWOOD LN","HENDERSON","NV","89002"
261574,"625 GRANDIN RD","CHARLOTTE","NC","28208"
261575,"625 GREENWOOD AVENUE","BROOKLYN","NY","11218"
261576,"625 GULF AIRE DR","PORT ST JOE","FL","32456"
261577,"625 HARRISON STREET","WEST LAFAYETTE","IN","47906"
261578,"625 HARVARD STREET","HOUSTON","TX","77007"
261579,"625 HEATH DRIVE","MONTGOMERY","AL","36108"
261580,"625 HIGHLAND AVENUE","SAN MARTIN","CA","95046"
261581,"625 HIGHLAND TERRACE","SHEBOYGAN","WI","53083"
261582,"625 HILBERT DRIVE","FALLBROOK","CA","92028"
261583,"625 IDAHO AVENUE","VERONA","PA","15147"
261584,"625 IVY AVENUE","NEWPORT NEWS","VA","23607"
261585,"625 JAMAICA AVENUE","BROOKLYN","NY","11208"
261586,"625 JAMESTOWN BLVD APT 1226","ALTAMONTE SPRINGS","FL","32714"
261587,"625 JENNY LANE","STAR CITY","AR","71667"
261588,"625 JEWEL LANE N","PLYMOUTH","MN","55447"
261589,"625 JORDAN RIDGE LANE","RALEIGH","NC","27603"
261590,"625 KINSTON HIGHWAY","RICHLANDS","NC","28574"
261591,"625 KITLOU COURT","HOLLAND","OH","43528"
261592,"625 L STREET","PATTERSON","CA","95363"
261593,"625 LA SALLE AVENUE","SAN FRANCISCO","CA","94124"
261594,"625 LAKE DOT CIRCLE SUITE 404","ORLANDO","FL","32801"
261595,"625 LAKELAND E SUITE A","FLOWOOD","MS","39047"
261596,"625 LATIMER WAY","MONROE","NC","28110"
261597,"625 LAUREL RIDGE DR","GAHANNA","OH","43230"
261598,"625 LOOMIS RD","LAS CRUCES","NM","88007"
261599,"625 MAGNOLIA LANE","COLUMBUS","MS","39705"
261600,"625 MAHONING AVE","WARREN","OH","44483"
261601,"625 MAIN STREET APT 620","NEW YORK","NY","10044"
261602,"625 MAIN STREET APT 925","NEW YORK","NY","10044"
261603,"625 MAIN STREET SUITE 325","NEW YORK","NY","10044"
261604,"625 MAPLE STREET","BREMEN","OH","43107"
261605,"625 MARINA BLVD","BULLHEAD CITY","AZ","86442"
261606,"625 MARNICE ROAD","RIO LINDA","CA","95673"
261607,"625 MARSHALL STREET SUITE 1500","LITTLE ROCK","AR","72201"
261608,"625 MONROE STREET NE APT 440","WASHINGTON","DC","20017"
261609,"625 N 6TH ST","LAWRENCE","KS","66044"
261610,"625 N BENNETT STREET","SOUTHERN PINES","NC","28387"
261611,"625 N HINE AVE","WAUKESHA","WI","53188"
261612,"625 N KINGSBURY STREET","CHICAGO","IL","60654"
261613,"625 N MICHIGAN AVE STE 1705","CHICAGO","IL","60611"
261614,"625 N MICHIGAN AVE SUITE 1800","CHICAGO","IL","60611"
261615,"625 N MILL ST","JACKSON","MS","39202"
261616,"625 N MONROE ST","WATERLOO","WI","53594"
261617,"625 N OAK ST","JACKSON","GA","30233"
261618,"625 N RAYNOLDS AVE","CANON CITY","CO","81212"
261619,"625 N WINCHELL ST","PORTLAND","OR","97217"
261620,"625 NE 12TH AVE","OCALA","FL","34470"
261621,"625 NE 193RD TERRACE","MIAMI","FL","33179"
261622,"625 NORTH 11TH STREET","ARLINGTON","NE","68002"
261623,"625 NORTH HINE AVENUE","WAUKESHA","WI","53188"
261624,"625 NORTH MOSLEY ROAD","ST LOUIS","MO","63141"
261625,"625 NORTH NUGENT AVENUE","JOHNSON CITY","TX","78636"
261626,"625 NW 9TH COURT","HALLANDALE","FL","33309"
261627,"625 OHIO STREET","NORTH TONAWANDA","NY","14120"
261628,"625 OLD COUNTY RD APT 14","BELMONT","CA","94002"
261629,"625 ORCHARD ST","WADSWORTH","OH","44281"
261630,"625 PARK AVE UNIT 6B","NEW YORK","NY","10065"
261631,"625 PEIRSON AVENUE","NEWARK","NY","14513"
261632,"625 PETTIT RUN ROAD","SYCAMORE","PA","15364"
261633,"625 PHILLIPS AVE","CLAWSON","MI","48017"
261634,"625 PIEDMONT AVE NE 112","ATLANTA","GA","30308"
261635,"625 PIERSON AVE","NEWARK","NY","14513"
261636,"625 PINEY FOREST ROAD SUITE 104","DANVILLE","VA","24540"
261637,"625 PINEY FOREST SUITE 108","DANVILLE","VA","24540"
261638,"625 PONDEROSA CIRCLE","MIDWAY","FL","32343"
261639,"625 RADNOR VALLEY DRIVE","VILLANOVA","PA","19085"
261640,"625 RICHARDS AVE","BAKERSFIELD","CA","93307"
261641,"625 ROCK ROSE WAY","SAN PABLO","CA","94806"
261642,"625 RXR PLAZA SUITE 655","UNIONDALE","NY","11556"
261643,"625 S 4TH ST","RENTON","WA","98057"
261644,"625 S FAIR OAKS AVENUE SUITE 255","PASADENA","CA","91105"
261645,"625 S JANESVILLE STREET SUITE 3","WHITEWATER","WI","53190"
261646,"625 S KEECH STREET","DAYTONA BEACH","FL","32114"
261647,"625 S STATE RD 7 SUITE B","HOLLYWOOD","FL","33023"
261648,"625 S US HWY 41","INVERNESS","FL","34450"
261649,"625 SABLE VIEW LANE","ATLANTA","GA","30349"
261650,"625 SAN JUAN DR","CORAL GABLES","FL","33143"
261651,"625 SENECA DR","SLT","CA","96150"
261652,"625 SHERIDAN ROAD","HIGHLAND PARK","IL","60035"
261653,"625 SILVER AVE SW STE 412","ALBUQUERQUE","NM","87102"
261654,"625 SOUTH DEL MAR AVENUE","SAN GABRIEL","CA","91776"
261655,"625 SOUTH STATE RD 7","HOLLYWOOD","FL","33023"
261656,"625 SOUTH TOWNSEND STREET","SANTA ANA","CA","92703"
261657,"625 SPRING LAKE DRIVE","BETHANY BEACH","DC","19930"
261658,"625 SPYGLASS","WAUKEE","IA","50263"
261659,"625 ST CHARLES AVENUE","NEW ORLEANS","LA","70113"
261660,"625 STRAND STREET SUITE 1","FREDERIKSTED","VI","00840"
261661,"625 SUMMERBEEZE LANE","ANTIOCH","TN","37013"
261662,"625 SUNSET BLVD","KALSIPELL","MT","59901"
261663,"625 TERRAINE AVENUE","LONG BEACH","CA","90814"
261664,"625 TIGER LILY LANE","IMPERIAL","CA","92251"
261665,"625 TULARE STREET","PETALUMA","CA","94954"
261666,"625 TURRETT STREET","PITTSBURGH","PA","15206"
261667,"625 UNIVERSITY AVE","BOULDER","CO","80302"
261668,"625 VIA TREPADORA","SANTA BARBARA","CA","93110"
261669,"625 VIDA ROAD","BEECH BLUFF","TN","38313"
261670,"625 W 1ST ST APT 237","TEMPE","AZ","85281"
261671,"625 W 39TH PL APT 9A","HOBART","IN","46342"
261672,"625 W BANGALOR DR","ORO VALLEY","AZ","85737"
261673,"625 W BARRY AVE 1N","CHICAGO","IL","60657"
261674,"625 W CORNELL DR","TEMPE","AZ","85283"
261675,"625 W FRANKLIN ST","WEST SALEM","WI","54669"
261676,"625 W LINCOLN RD","VILLE PLATTE","LA","70586"
261677,"625 W MAIN ST","SHERIDAN","OR","97378"
261678,"625 W SOUTHERN AVE STE 25","MESA","AZ","85210"
261679,"625 WALNUT ST","WINONA","MN","55987"
261680,"625 WALTHAM AVE","ORLANDO","FL","32809"
261681,"625 WARING AVENUE","BRONX","NY","10467"
261682,"625 WEST 41ST STREET","INDIANAPOLIS","IN","46208"
261683,"625 WEST 57TH STREET APT 658","NEW YORK","NY","10019"
261684,"625 WEST 57TH STREET","NEW YORK","NY","10019"
261685,"625 WEST COLLEGE ST  SUITE 104","LOS ANGELES","CA","90012"
261686,"625 WEST PALO ALTO AVE","FRESNO","CA","93704"
261687,"625 WEST PALO ALTO","FRESNO","CA","93704"
261688,"625 WOODLAND DRIVE","LAPLACE","LA","70068"
261689,"625","MARSHALL","MI","49068"
261690,"6250 BEN PARKS ROAD","MURRAYVILLE","GA","30564"
261691,"6250 BUNCOMBE ROAD","SHREVEPORT","LA","71129"
261692,"6250 CLYMER CIRCLE","FORT COLLINS","CO","80528"
261693,"6250 CO RD 23","MCLEOD","ND","58057"
261694,"6250 COLLEGE PKWY","PENSACOLA","FL","32504"
261695,"6250 GREEN COVE LANE","GLOUCESTER","VA","23061"
261696,"6250 HOLLYWOOD BLVD UNIT 4M","LOS ANGELES","CA","90028"
261697,"6250 HOLLYWOOD BLVD UNIT 7M","LOS ANGELES","CA","90028"
261698,"6250 JEDDO ROAD","JEDDO","MI","48032"
261699,"6250 KENTFIELD AVENUE","NEW PORT RICHEY","FL","34653"
261700,"6250 KINGS SHIRE RD","GRAND BLANC","MI","48439"
261701,"6250 MICHAEL LANE","MATTESON","IL","60443"
261702,"6250 N 82ND ST","SCOTTSDALE","AZ","85250"
261703,"6250 N 82ND STREET","SCOTTSDALE","AZ","85250"
261704,"6250 NORTH 82ND STREET","SCOTTSDALE","AZ","85250"
261705,"6250 OLD DOBBIN LANE","COLUMBIA","MD","21045"
261706,"6250 PINEWOOD DR","CLARKSTON","MI","48346"
261707,"6250 ROCK CREEK RD NE","LELAND","NC","28451"
261708,"6250 RODEBAUGH RD","INDIANAPOLIS","IN","46268"
261709,"6250 ROSEWOOD DRIVE APT 2506","NORTH RICHLAND HILLS","TX","76180"
261710,"6250 S MOUNTAIN VISTA ST SUITE L5","HENDERSON","NV","89014"
261711,"6250 SALOMA AVE","VAN NUYS","CA","91411"
261712,"6250 STAUTON DRIVE","WINNEMUCCA","NV","89445"
261713,"6250 SYLMAR AVENUE","VAN NUYS","CA","91401"
261714,"6250 W 98TH ST","BLOOMINGTON","MN","55438"
261715,"6250 W FLAMINGO RD 32","LAS VEGAS","NV","89103"
261716,"6250 WESTBROOK DRIVE","NEW CARROLLTON","MD","20784"
261717,"6250 WESTPARK DRIVE SUITE 114","HOUSTON","TX","77057"
261718,"62500 MARKVILLE RD","SANDSTONE","MN","55072"
261719,"6251 AMMENDALE ROAD","BELTSVILLE","MD","20705"
261720,"6251 CHIMINEAS AVE","RESEDA","CA","91335"
261721,"6251 COUNTY ROUTE 10","LISBON","NY","13658"
261722,"6251 GENERAL DIAZ STREET SUITE B","NEW ORLEANS","LA","70124"
261723,"6251 LAMBERT RD","GROVE CITY","OH","43123"
261724,"6251 MEGAN LANE","ZEPHYRHILLS","FL","33542"
261725,"6251 NW 110TH TERRACE","HIALEAH","FL","33012"
261726,"6251 NW COUNTY ROAD 336","CHIEFLAND","FL","32626"
261727,"6251 OLD DAVIS ROAD","SIMS","NC","27880"
261728,"6251 PALM TRACE LANDINGS DRIVE APT","DAVIE","FL","33314"
261729,"6251 QUARTZ PLACE","NEWARK","CA","94560"
261730,"6251 SCHAEFER AVE SUITE K","CHINO","CA","91710"
261731,"6251 SE 136TH AVE UNIT 1","PORTLAND","OR","97236"
261732,"6252 COMMERCIAL WAY STE 105","WEEKI WACHEE","FL","34613"
261733,"6252 FIRE LANE","MECHANICSVILLE","VA","23116"
261734,"6252 GILLESPIE STREET","PHILADELPHIA","PA","19135"
261735,"6252 MORNING VISTA DR","LAS VEGAS","NV","89110"
261736,"6252 MORNING VISTA DRIVE","LAS VEGAS","NV","89110"
261737,"6252 SW CARMAN DRIVE","LAKE OSWEGO","OR","97035"
261738,"6252 TOPSAIL DRIVE","FORT WORTH","TX","76179"
261739,"6252 W NORTH AVE","CHICAGO","IL","60639"
261740,"6253 NIGHTINGALE","GILMER","TX","75644"
261741,"6253 THORNAPPLE VALLEY DRIVE","HASTINGS","MI","49058"
261742,"6253 W 3100 S","WEST VALLEY","UT","84128"
261743,"6254 DELOR","ST LOUIS","MO","63109"
261744,"6254 KEMPFER ROAD","ST. CLOUD","FL","34773"
261745,"6254 MACKENZIE RD","NORTH OLMSTED","OH","44070"
261746,"6254 S CASTLEFORD DR","WEST JORDAN","UT","84084"
261747,"6254 TIMBERSIDE DR","TOLEDO","OH","43615"
261748,"6255 ARROWHEAD LANE","VERO BEACH","FL","32967"
261749,"6255 ATLANTIC AVE NUM 39","LONG BEACH","CA","90805"
261750,"6255 EAST HWY 60","SALT LICK","KY","40371"
261751,"6255 FERRIS SQUARE SUITE E","SAN DIEGO","CA","92121"
261752,"6255 HABITAT DR  NO 3013","BOULDER","CO","80301"
261753,"6255 HABITAT DRIVE APT2023","BOULDER","CO","80301"
261754,"6255 JACINTO AVE 114","SACRAMENTO","CA","95823"
261755,"6255 PRESTONSHIRE LN","DALLAS","TX","75225"
261756,"6255 SCOTT RIVER RD","FORT JONES","CA","96032"
261757,"6255 TRUMAN DRIVE","FORT WORTH","TX","76112"
261758,"62555 WAUGH RD","BEND","OR","97701"
261759,"6256 GREENWICH DRIVE SUITE 520","SAN DIEGO","CA","92122"
261760,"6256 HLLANDALE DR APT 501","LITHONIA","GA","30058"
261761,"6256 LAS PAS TRAIL","INDIANAPOLIS","IN","46268"
261762,"6256 SPRING MOUNTAIN RD STE 100","LAS VEGAS","NV","89146"
261763,"6257 CURRY FORD RD SUITE 123","ORLANDO","FL","32822"
261764,"6257 EAST RIVER ROAD","RACINE","WI","53402"
261765,"6257 GLEN WOOD LOOP","MANASSAS","VA","20112"
261766,"6257 RATHLIN DRIVE","SPRINGFIELD","VA","22152"
261767,"6257 RHODES","ST LOUIS","MO","63109"
261768,"6257","LIVERMORE","CA","94551"
261769,"6258 90TH AVE N","GLYNDON","MN","56547"
261770,"6258 ENGLE ROAD","BROOK PARK","OH","44142"
261771,"6258 LONG BEACH BLVD","LONG BEACH","CA","90805"
261772,"6259 BRASSIE DRIVE","GRIFTON","NC","28530"
261773,"6259 GOLDEN RAIN STREET","NORTH LAS VEGAS","NV","89031"
261774,"626 34 STREET S","BIRMINGHAM","AL","35222"
261775,"626 3RD ST","NEWARK","NJ","07107"
261776,"626 4TH AVE","IOWA CITY","IA","52245"
261777,"626 4TH STREET","CEDAR KEY","FM","32625"
261778,"626 55TH STREET","SACRAMENTO","CA","95819"
261779,"626 5TH AVENUE SOUTH","LA CROSSE","WI","54601"
261780,"626 8TH ST","MCFARLAND","CA","93250"
261781,"626 ALEXANDRA AVE","RICHARDSON","TX","75081"
261782,"626 AMHERST DRIVE","SYCAMORE","IL","60178"
261783,"626 ARBOR RIDGE","LOGANVILLE","GA","30052"
261784,"626 ARTHUR STREET","UTICA","NY","13501"
261785,"626 ASPEN ST","FLORENCE","SC","29501"
261786,"626 AUSTINVILLE RD","TROY","PA","16947"
261787,"626 BENJAMIN COURT","MCDONOUGH","GA","30252"
261788,"626 BLUE SKY DRIVE","ARLINGTON","TX","76002"
261789,"626 BODESON CT","RIPON","CA","95366"
261790,"626 BOUNY STREET","NEW ORLEANS","LA","70114"
261791,"626 CALLE PLANO","CAMARILLO","CA","93012"
261792,"626 CANYON VIEW CIRCLE","PLEASANT GROVE","UT","84062"
261793,"626 CLUB HOUSE DR","SALISBURY","NC","28144"
261794,"626 COUNTRY CLUB DRIVE","WAYNESVILLE","NC","28786"
261795,"626 DAVIS DRIVE","NEW CUMBERLAND","PA","17070"
261796,"626 DRAKE AVENUE","MARIN CITY","CA","94965"
261797,"626 E APACHE ST 481122","TULSA","OK","74148"
261798,"626 E APACHE STREET UNIT 481241","TULSA","OK","74148"
261799,"626 E BEVERLY AVE","PONTIAC","MI","48340"
261800,"626 E BROADWAY","WEST MEMPHIS","AR","72301"
261801,"626 E COUNTRY HILL LANE","SPOKANE","WA","99208"
261802,"626 E HILL DR","GUTHRIE","OK","73044"
261803,"626 E OLIVE AVE","FRESNO","CA","93728"
261804,"626 E WARRINGTON AVENUE","PITTSBURGH","PA","15210"
261805,"626 EAST 35TH STREET APT 3C","BROOKLYN","NY","11203"
261806,"626 EAST JOHNSON STREET APT 202","MADISON","WI","53703"
261807,"626 EAST MALLORY AVE","MEMPHIS","TN","38106"
261808,"626 ELDERWOOD LP","MESQUITE","TX","75181"
261809,"626 EXCHANGE AVE","MEMPHIS","TN","38105"
261810,"626 FRANKLIN AVENUE","ALIQUIPPA","PA","15001"
261811,"626 GAMBLE MINE ROAD","JASPER","AL","35503"
261812,"626 HARPER AVENUE SUITE 3","LENOIR","NC","28645"
261813,"626 HAWTHORN LANE","GRAYSON","GA","30017"
261814,"626 HYDRANGEA CIRCLE NW","CONCORD","NC","28027"
261815,"626 I ST NE","WASHINGTON","DC","20002"
261816,"626 INGRAHAM STREET NW","WASHINGTON","DC","20011"
261817,"626 JONES RD","ENGLEWOOD","NJ","07631"
261818,"626 LEONARDS WAY","ARGUSVILLE","ND","58005"
261819,"626 LINCOLN AVE","POTTSTOWN","PA","19464"
261820,"626 LINCOLN AVENUE","GRAYSLAKE","IL","60031"
261821,"626 LIVVY CT","CLIFTON","CO","81520"
261822,"626 LLOYD JAMES RD","GROVETON","TX","75845"
261823,"626 LOVEJOY RD NW UNIT 2A","FORT WALTON BEACH","FL","32548"
261824,"626 LYNN VALLEY RD SW","ATLANTA","GA","30311"
261825,"626 MAIN STREET","DARLINGTON","WI","53530"
261826,"626 MCCAWLEY STREET","OCEANSIDE","CA","92058"
261827,"626 MILAN AVENUE","SOUTH PASADENA","CA","91030"
261828,"626 N 29TH STREET","RICHMOND","VA","23223"
261829,"626 N 30TH ST","WACO","TX","76707"
261830,"626 NAHMA AVE","CLAWSON","MI","48017"
261831,"626 NICKENS","GARLAND","TX","75043"
261832,"626 NORTH TWEEDT STREET APT 202","KENNEWICK","WA","99336"
261833,"626 NW 116 STREET","SEATTLE","WA","98177"
261834,"626 ONAHA STREET","HONOLULU","HI","96816"
261835,"626 PARKVIEW LANE","MADISON","MN","56256"
261836,"626 PECKS MILL CREEK ROAD","DAHLONEGA","GA","30533"
261837,"626 PHILLIPS","CLAWSON","MI","48017"
261838,"626 PINE KNOLL COURT","MCDONOUGH","GA","30252"
261839,"626 POWDER HORN ROW","LAKELAND","FL","33809"
261840,"626 QUEENS ROAD SUITE 303","CHARLOTTE","NC","28207"
261841,"626 RANDOLPH STREET","CAMDEN","NJ","08105"
261842,"626 RED OAK CIRCLE UNIT 206","ALTAMONTE SPRINGS","FL","32701"
261843,"626 REXCORP PLAZA","UNIONDALE","NY","11556"
261844,"626 RIVENDELL BLVD","OSPREY","FL","34229"
261845,"626 RIVERSIDE DRIVE STE 6B","NEW YORK","NY","10031"
261846,"626 ROCKHILL ROAD","PONTOTOC","MS","38863"
261847,"626 RUSSELL STREET","NASHVILLE","TN","37206"
261848,"626 RXR PLAZA STE 624","UNIONDALE","NY","11556"
261849,"626 S 3RD STREET","LAS VEGAS","NV","89101"
261850,"626 S ALVARADO ST STE 520","LOS ANGELES","CA","90057"
261851,"626 S COLLEGE AVE SUITE 1300","RENSSELAER","IN","47978"
261852,"626 S D STREET","BROKEN BOW","NE","68822"
261853,"626 S KINGSLEY DR","LOS ANGELES","CA","90005"
261854,"626 S MILWAUKEE AVE UNIT E","LIBERTYVILLE","IL","60048"
261855,"626 S MONTGOMERY ST APT 1","STARKVILLE","MS","39759"
261856,"626 S SPRING ST APT 206","LOS ANGELES","CA","90014"
261857,"626 SOUTH 3RD STREET","LAS VEGAS","NV","89101"
261858,"626 SOUTH J STREET","LAKE WORTH","FL","33460"
261859,"626 STECK STREET","GREENSBURG","PA","15601"
261860,"626 VALLEY LANE","BOULDER","CO","80302"
261861,"626 W BONDSVILLE ROAD","DOWNINGTOWN","PA","19335"
261862,"626 W JACKSON BLVD STE 400","CHICAGO","IL","60661"
261863,"626 W LANCASTER BLVD 75","LANCASTER","CA","93534"
261864,"626 W PALMER ST","COMPTON","CA","90220"
261865,"626 WATT STREET FLOOR 2","PITTSBURGH","PA","15219"
261866,"626 WELLS CT","LEXINGTON","KY","40505"
261867,"626 WENTWORTH AVENUE","CALUMET CITY","IL","60409"
261868,"626 WEST AVENUE  27","LOS ANGELES","CA","90065"
261869,"626 WHITE OAK LANE","TYLER","TX","75703"
261870,"626 WHITEOAK LANE","TYLER","TX","75703"
261871,"626 WHITFIELD ST","LECOMPTON","KS","66050"
261872,"626 WILSHIRE BLVD  STE 410","LOS ANGELES","CA","90017"
261873,"626 WILSHIRE BLVD STE 410","LOS ANGELES","CA","90017"
261874,"626 WILSHIRE BLVD STE 910","LOS ANGELES","CA","90017"
261875,"626 YOUNGS ROAD","PHILLIPSBURG","NJ","08865"
261876,"6260 BRIMPSVILLE PLACE","PORT TOBACCO","MD","20677"
261877,"6260 C DUPONT STATION COURT EAST","JACKSONVILLE","FL","32217"
261878,"6260 CORAL WAY","MIAMI","FL","33155"
261879,"6260 E 121ST DRIVE","BRIGHTON","CO","80602"
261880,"6260 E WINCHCOMB DRIVE","SCOTTSDALE","AZ","85254"
261881,"6260 EAST RIVERSIDE BLVD - 171","LOVES PARK","IL","61111"
261882,"6260 EDSALL RD APT 304","ALEXANDRIA","VA","22312"
261883,"6260 EVERETT COURT UNIT B","ARVADA","CO","80004"
261884,"6260 GENTRY WOOD DRIVE","DAYTON","OH","45459"
261885,"6260 HUDSON RESERVE WAY","W","OH","43081"
261886,"6260 S 97TH CIRCLE","LINCOLN","NE","68526"
261887,"6260 S MOHAWK AVE","YPSILANTI","MI","48197"
261888,"6260 VICKSBURG ST SUITE B","NEW ORLEANS","LA","70124"
261889,"6260 WESTPARK DR SUITE 105","HOUSTON","TX","77057"
261890,"6260 WESTPARK STE 305","HOUSTON","TX","77057"
261891,"6261 64TH AVENUE APT 5","RIVERDALE","MD","20737"
261892,"6261 HAZEL AVENUE 3102","ORANGEVALE","CA","95662"
261893,"6261 LEAVENWORTH RD","KANSAS CITY","KS","66104"
261894,"6261 NELL CR","ROANOKE","VA","24019"
261895,"6261 SOLOMONS CIRCLE","HURLOCK","MD","21643"
261896,"6261 WOODRUN PLACE","JACKSON","MS","39211"
261897,"6262 ARNO RD","FRANKLIN","TN","37064"
261898,"6262 WEBER RD STE 102","CORPUS CHRISTI","TX","78413"
261899,"6262 WEBER RD STE 120","CORPUS CHRISTI","TX","78413"
261900,"6262 WHITE RABBIT PLACE","INDIANAPOLIS","IN","46235"
261901,"6263 E LAUREL RD","LONDON","KY","40741"
261902,"6263 POPLAR AVENUE SUITE 201","MEMPHIS","TN","38119"
261903,"6263 STILLWATER DR","RIVERDALE","GA","30274"
261904,"6263 WASHINGTON PIKE","PHILADELPHIA","TN","37846"
261905,"6263 WILLOWFIELD WAY","SPRINGFIELD","VA","22150"
261906,"6263 XAVIER ST","ARVADA","CO","80003"
261907,"6264 COTTAGE STREET","PHILADELPHIA","PA","19135"
261908,"6264 FLANARY BRIDGE ROAD","JONESVILLE","VA","24263"
261909,"6264 ROBISON RD","CINCINNATI","OH","45213"
261910,"6264 STEEPLECHASE PKWY","WHITEHOUSE","OH","43571"
261911,"6264 SULTANA AVE","TEMPLE CITY","CA","91780"
261912,"6264 TOPAZ STREET","RANCHO CUCAMONGA","CA","91701"
261913,"6265 CRICKET PASS","COLUMBIA","MD","21044"
261914,"6265 EXECUTIVE BVLD","HUBER HEIGHTS","OH","45424"
261915,"6265 HIDDEN CLEARING","COLUMBIA","MD","21045"
261916,"6265 MAPLEVIEW LN","YPSILANTI","MI","48197"
261917,"6265 N RIVER ROAD","WATERVILLE","OH","43566"
261918,"6265 SAUNDERS STREET APT 2H","FOREST HILLS","NY","11375"
261919,"6266 LAPAS TRAIL","INDIANAPOLIS","IN","46268"
261920,"6266 S CONGRESS AVENUE","LAKE WORTH","FL","33462"
261921,"6266 WAITE STREET","MERRILLVILLE","IN","46410"
261922,"6267 MEMORIAL DRIVE LL","STONE MOUNTAIN","GA","30083"
261923,"6268 109TH AVE","PULLMAN","MI","49450"
261924,"6268 BURBANK CROSSING LOOP","MONTGMERY","AL","36117"
261925,"6268 W 8235 S","WEST JORDAN","UT","84081"
261926,"6268 WEST 8235 SOUTH","WEST JORDAN","UT","84081"
261927,"6269 CLEVELAND STREET","MERRILLVILLE","IN","46410"
261928,"6269 E 1000 NORTH ROAD","STANFORD","IL","61774"
261929,"6269 HAZEL CT","ROMULUS","MI","48174"
261930,"6269 LENAKING AVE","LAS VEGAS","NV","89122"
261931,"6269 MARBUT FARMS RD","LITHONIA","GA","30058"
261932,"6269 MONTMORENCY DR SE","CALEDONIA","MI","49316"
261933,"6269 MONTMORENCY DR","CALEDONIA","MI","49316"
261934,"6269 W FRENCH GLEN CT","EAGLE","ID","83613"
261935,"626C ADMIRAL DRIVE SUITE 515","ANNAPOLIS","MD","21401"
261936,"626C ADMIRAL DRIVE SUITE 735","ANNAPOLIS","MD","21401"
261937,"627 17TH AVENUE  NW APT        7312","ALTOONA","IA","50009"
261938,"627 7TH AVE NORTH UNIT 3","ST PETERSBURG","FL","33701"
261939,"627 8TH AVE","SAN DIEGO","CA","92101"
261940,"627 ADMIRAL DRIVE NUM 8304","ANNAPOLIS","MD","21401"
261941,"627 ALDER LN","BOSSIER CITY","LA","71111"
261942,"627 AURORA AVENUE","SAINT PAUL","MN","55104"
261943,"627 AVE ANDALUCIA FL2","SAN JUAN","PR","00918"
261944,"627 BAY SHORE DRIVE SUITE 100","OSHKOSH","WI","54901"
261945,"627 BOSTON ST","LYNN","MA","02140"
261946,"627 BRIGHTON PARK WAY UNIT 6207","BLOOMFIELD","CT","06002"
261947,"627 CASTLE HEIGHTS DRIVE","WENATCHEE","WA","98801"
261948,"627 CLARK AVE","OCEAN SPRINGS","MS","39564"
261949,"627 COLONIAL AVE","COLONIAL HEIGHTS","VA","23834"
261950,"627 CUNNINGHAM STREET","ROCKFORD","IL","61102"
261951,"627 DUDLEY AVE 5","NORFOLK","VA","23503"
261952,"627 E 24TH ST","MARYSVILLE","CA","95901"
261953,"627 E 900 S","PAYSON","UT","84651"
261954,"627 E RAINTREE LANE","GOLDSBORO","NC","27534"
261955,"627 E RIDGEWOOD AVE","RIDGEWOOD","NJ","07450"
261956,"627 E SENITA CANYON ST","MERIDIAN","ID","83646"
261957,"627 E SPRAGUE AVENUE SUITE 100","SPOKANE","WA","99202"
261958,"627 EAST 11TH STREET B1","NEW YORK","NY","10009"
261959,"627 EAST 3RD STREET","PLAINFIELD","NJ","07060"
261960,"627 EAST 6TH ST","HOLTVILLE","CA","92250"
261961,"627 EAST RIDGEWOOD AVE","RIDGEWOOD","NJ","07450"
261962,"627 FISHER RD","GROSSE POINTE","MI","48230"
261963,"627 FLORAL TERRACE","LOUISVILLE","KY","40208"
261964,"627 FORT STREET","PORT HURON","MI","48060"
261965,"627 GREENHOUSE PATIO DRIVE NW","KENNESAW","GA","30144"
261966,"627 GUNDERSEN DR   305","CAROL STREAM","IL","60188"
261967,"627 HARLAND STREET","MILTON","MA","02186"
261968,"627 HIGHLAND LOOP RD","KETTLE FALLS","WA","99141"
261969,"627 HOGAN ROAD","HOLLY SPRINGS","MS","38635"
261970,"627 LEYDEN LANE","CLAREMONT","CA","91711"
261971,"627 LINDA WAY","FOREST PARK","GA","30297"
261972,"627 MAGEE AVENUE","PATTON","PA","16668"
261973,"627 MANTOLOKING ROAD","BRICK","NJ","08723"
261974,"627 MONROE ROAD","PORT ANGELES","WA","98362"
261975,"627 MORELEY AVENUE","AKRON","OH","44320"
261976,"627 MOSBY BLVD","BERRYVILLE","VA","22611"
261977,"627 MOSBY BOULEVARD","BERRYVILLE","VA","22611"
261978,"627 MUDDY CREEK ROAD","CHESAPEAKE","VA","23324"
261979,"627 N 3RD ST","MONTGOMERY","IN","47558"
261980,"627 N 3RD STREET","MONTGOMERY","IN","47558"
261981,"627 N ELM ST","MUNCIE","IN","47305"
261982,"627 NEW YORK AVENUE","HUNTINGTON","NY","11743"
261983,"627 NEWBERRY ST","BOWLING GREEN","KY","42103"
261984,"627 NOBLE RD W","SHILOH","OH","44878"
261985,"627 PALM AVE","MODESTO","CA","95350"
261986,"627 PARK AVENUE","NEWPORT","KY","41071"
261987,"627 PAULK ROAD","DOTHAN","AL","36301"
261988,"627 PRINCETON LANE","WESTFIELD","IN","46074"
261989,"627 RADAM LN","AUSTIN","TX","78745"
261990,"627 ROSEBURY RD","HELENA","AL","35080"
261991,"627 S 67TH STREET","OMAHA","NE","68106"
261992,"627 S HARBOR BLVD","ANAHEIM","CA","92805"
261993,"627 S PLUM CREEK CIR","GARDNER","KS","66030"
261994,"627 S WESTVIEW","CHANUTE","KS","66720"
261995,"627 SANDY LN","OCEANSIDE","CA","92057"
261996,"627 SE 4TH AVENUE 105","FORT LAUDERDALE","FL","33301"
261997,"627 SOUTH STREET SUITE 205","HONOLULU","HI","96813"
261998,"627 SOUTH UNION","KENNEWICK","WA","99336"
261999,"627 SPICE TRADER WAY APT D","ORLANDO","FL","32818"
262000,"627 STATE HIGHWAY 47","BONNE TERRE","MO","63628"
