"ID","Address","City","State","Zip"
16001,"10714 PLAINFIELD STR","HOUSTON","TX","77031"
16002,"10714 S JORDAN GATEWAY STE 100","SOUTH JORDAN","UT","84095"
16003,"10714 S JORDAN GTWY STE 100","SOUTH JORDAN","UT","84095"
16004,"10714 S NANDINA CT","JENKS","OK","74037"
16005,"10714 SHELDRAKE DRIVE","CHESTERTOWN","MD","21620"
16006,"10715 CEDAR OAKS COURT","TEXAS CITY","TX","77591"
16007,"10715 FAWN DRIVE","GREAT FALLS","VA","22066"
16008,"10715 LOCKRIDGE DR","SILVER SPRING","MD","20901"
16009,"10715 SLAUGHTER CREEK DR","AUSTIN","TX","78748"
16010,"10715 VANDERKARR ROAD","HEBRON","IL","60034"
16011,"10716 CORRENTY DRIVE","GLEN ALLEN","VA","23059"
16012,"10716 E OUTER DRIVE","DETROIT","MI","48224"
16013,"10716 GALVESTON PL","MCKINNEY","TX","75071"
16014,"10716 MALOIAN DRIVE","SAINT JOHN","IN","46373"
16015,"10716 MONTROSE AVE","GARRETT PARK","MD","20896"
16016,"10717 281ST AVE NW","ZIMMERMAN","MN","55398"
16017,"10717 BLOOMFIELD STREET APT 3","NORTH HOLLYWOOD","CA","91602"
16018,"10717 DAVIS AVE","WOODSTOCK","MD","21163"
16019,"10717 EWING AVE","KANSAS CITY","MO","64134"
16020,"10717 LADY SLIPPER TERRACE","ROCKVILLE","MD","20852"
16021,"10717 SPYGLASS HILL","ROWLETT","TX","75089"
16022,"10717 STEVENSON ROAD","STEVENSON","MD","21153"
16023,"10717 WASHINGTON AVENUE","OSSINEKE","MI","49766"
16024,"10718 BUTTERFLY FLAT","SAN ANTONIO","TX","78254"
16025,"10718 CANYON BAY LANE","BOYNTON BEACH","FL","33473"
16026,"10718 DEEPBROOK DR","RIVERVIEW","FL","33569"
16027,"10718 WHITE OAK AVE UNIT 6","GRANADA HILLS","CA","91344"
16028,"10719 DEEPBROOK DRIVE","RIVERVIEW","FL","33569"
16029,"10719 JENKINS CIRCLE","SODDY-DAISY","TN","37379"
16030,"10719 N LAUREL AVE","KANSAS CITY","MO","64157"
16031,"10719 TUPPER LAKE DRIVE","HOUSTON","TX","77042"
16032,"1072 17TH AVENUE NORTH","SAINT PETERSBURG","FL","33704"
16033,"1072 ALABAMA STREET","SAN FRANCISCO","CA","94110"
16034,"1072 AMBOY ROAD","AMBOY","IL","61310"
16035,"1072 ARCARO COURT","GAHANNA","OH","43230"
16036,"1072 ARCARO CT","COLUMBUS","OH","43230"
16037,"1072 BAYHILL CIRCLE","NORTH LIBERTY","IA","52317"
16038,"1072 BAYWOOD DRIVE","WILLIAMSTOWN","NJ","08094"
16039,"1072 BROOK MONT","O'FALLON","MO","63366"
16040,"1072 BURT HILL ROAD","TOLLAND","MA","01034"
16041,"1072 CRANFORD ROAD","DENTON","NC","27239"
16042,"1072 DANBURY RD","FAYETTEVILLE","NC","28311"
16043,"1072 E 10TH ST","ROANOKE RAPIDS","NC","27870"
16044,"1072 EAGLE DR APT 1305","AKRON","OH","44312"
16045,"1072 EAST 85TH ST","BROOKLYN","NY","11236"
16046,"1072 JEFFERSON AVE SE","GRAND RAPIDS","MI","49507"
16047,"1072 MADISON AVE","LAKEWOOD","NJ","08701"
16048,"1072 MADISON AVENUE SUITE 601","LAKEWOOD","NJ","08701"
16049,"1072 MOSBY RD","MEMPHIS","TN","38116"
16050,"1072 NW 83RD AVENUE","PLANTATION","FL","33322"
16051,"1072 PALOMINO PASS","WATKINSVILLE","GA","30677"
16052,"1072 PEACHTREE STREET  SUITE 7455","ATLANTA","GA","30357"
16053,"1072 PIEDMONT GOLF COURSE ROAD","PIEDMONT","SC","29673"
16054,"1072 S DE ANZA BLVD SUITE A107-525","SAN JOSE","CA","95129"
16055,"1072 SOUTH MERRIMAC ROAD","CAMDEN","NJ","08104"
16056,"1072 SWEETGRASS COURT","HENDERSON","NV","89002"
16057,"1072 W 60TH PL","MERRILLVILLE","IN","46410"
16058,"1072 W PEACHTREE NW ST 77641","ATLANTA","GA","30357"
16059,"1072 W PEACHTREE ST NE STE 79331","ATLANTA","GA","30309"
16060,"1072 W PEACHTREE ST NW SUITE 77203","ATLANTA","GA","30309"
16061,"1072 W REX ROAD","MEMPHIS","TN","38119"
16062,"1072 WATERFORD","CASPER","WY","82609"
16063,"1072 WEST 15TH  STREET NUMBER 3","SAN PEDRO","CA","90731"
16064,"1072 WEST PEACHTREE ST NE  SUI79331","ATLANTA","GA","30309"
16065,"10720 KANIS ROAD","LITTLE ROCK","AR","72211"
16066,"10720 LITTLE HORSE CREEK AVE","LAS VEGAS","NV","89129"
16067,"10720 MIERA DR NW","ALBUQUERQUE","NM","87114"
16068,"10720 NW 66 ST  APT 307","DORAL","FL","33178"
16069,"10720 NW 66TH STREET APARTMENT 111","DORAL","FL","33178"
16070,"10720 THORNMINT RD SUITE C","SAN DIEGO","CA","92127"
16071,"10720 W INDIAN SCHOOL RD STE 19-148","PHOENIX","AZ","85037"
16072,"10720 W INDIAN SCHOOL RD STE 19146","PHOENIX","AZ","85037"
16073,"10720 W INDIAN SCHOOL RD STE 46","PHOENIX","AZ","85037"
16074,"10720 W INDIAN SCHOOL ROAD","PHOENIX","AZ","85037"
16075,"10721 BELL ROAD","JOHNS CREEK","GA","30097"
16076,"10721 CEDAR WAY","GRASS VALLEY","CA","95945"
16077,"10721 E JEFFERSON AVE 862","DETROIT","MI","48214"
16078,"10721 E JEFFERSON AVE STE 874","DETROIT","MI","48214"
16079,"10721 E JEFFERSON UNIT 705","DETROIT","MI","48214"
16080,"10721 RADAR RD NW","BEMIDJI","MN","56601"
16081,"10721 SURREY GREEN LANE APT 219","MATTHEWS","NC","28105"
16082,"10722 ARROOW ROUTE SUITE 520","RANCHO CUCAMONGA","CA","91730"
16083,"10722 BEVERLY BLVD SUITE P","WHITTIER","CA","90601"
16084,"10722 GEIST RIDGE CT","FISHERS","IN","46040"
16085,"10723 HELLEBORE RD","CHARLOTTE","NC","28213"
16086,"10723 KINGS LANE","BERRIEN SPRINGS","MI","49103"
16087,"10723 N OAK HILLS PARKWAY SUITE A","BATON ROUGE","LA","70810"
16088,"10723 SCOTT MILL RD","JACKSONVILLE","FL","32223"
16089,"10723 WEST DRIVE APT 304","FAIRFAX","VA","22030"
16090,"10724 GLEN EAGLE RD","WOODBURY","MN","55129"
16091,"10724 LEDERER","CHARLOTTE","NC","28277"
16092,"10724 WEST DRIVE UNIT 302","FAIRFAX","VA","22030"
16093,"10725 CLEVELAND AVE","KANSAS CITY","KS","66109"
16094,"10725 DERRINGER DRIVE","ORLANDO","FL","32829"
16095,"10725 EAST CHOLLA LANE","SCOTTSDALE","AZ","85259"
16096,"10725 NW 30TH PLACE UNIT 6","SUNRISE","FL","33322"
16097,"10725 S OCEAN DR LOT 479","JENSEN BEACH","FL","34957"
16098,"10725 SETTLERS LANE","HANOVER","MN","55341"
16099,"10726 AMESBURY WAY","HIGHLANDS RANCH","CO","80126"
16100,"10726 BURGOYNE RD","HOUSTON","TX","77042"
16101,"10726 COUNTY ROAD 64","DAPHNE","AL","36526"
16102,"10726 FLAMBEAU PL","LA MESA","CA","91941"
16103,"10726 HALLSTEAD DRIVE","SAINT LOUIS","MO","63136"
16104,"10726 LEWIS COURT","KANSAS CITY","MO","64134"
16105,"10726 MESA DRIVE","HOUSTON","TX","77078"
16106,"10726 NW 58 STREET","DORAL","FL","33178"
16107,"10726 SW 41ST AVE","PORTLAND","OR","97219"
16108,"10727 134TH STREET","SO RICHMOND HILL","NY","11419"
16109,"10727 ARCHER PT","SAN ANTONIO","TX","78254"
16110,"10727 E WILLOW RD","ENID","OK","73701"
16111,"10727 WASHINGTON AVE","OSSINEKE","MI","49766"
16112,"10728 AIRE DRIVE","LAS VEGAS","NV","89144"
16113,"10728 BEACONSFIELD STREET","DETROIT","MI","48224"
16114,"10728 CHESTNUT HILL DR","MATTHEWS","NC","28105"
16115,"10728 DUPREY ST","DETROIT","MI","48224"
16116,"10728 MANDYA COURT","BOYNTON BEACH","FL","33437"
16117,"10728 S MORNINGSIDE DR","GOODYEAR","AZ","85338"
16118,"10728 TWIN LAKES PARKWAY NW","ELK RIVER","MN","55330"
16119,"10729 CAMBRIDGE COURT","BURNSVILLE","MN","55337"
16120,"10729 GRAPE STREET","LOS ANGELES","CA","90059"
16121,"10729 STAGG ST","SUN VALLEY","CA","91352"
16122,"1072B TAFELSKI ROAD","NEW WAVERLY","TX","77358"
16123,"1073 ARLINGTON BLVD","EL CERRITO","CA","94530"
16124,"1073 BRIARWOOD DRIVE","LEXINGTON","KY","40511"
16125,"1073 CATALINA E DR","NEW PALESTINE","IN","46163"
16126,"1073 CLOVER AVENUE","CANON CITY","CO","81212"
16127,"1073 CORUM CIRCLE","EAST WENATCHEE","WA","98802"
16128,"1073 E 146TH ST","CLEVELAND","OH","44110"
16129,"1073 EAST 12TH STREET","BROOKLYN","NY","11230"
16130,"1073 EAST BALDY SPRING PLACE","GREEN VALLEY","AZ","85614"
16131,"1073 LOREAUVILLE HIGHWAY","SAINT MARTINVILLE","LA","70582"
16132,"1073 METHVEN COURT","HERNDON","VA","20170"
16133,"1073 N HIDDEN COVE LN","LEHI","UT","84043"
16134,"1073 NORTH BENSON ROAD","FAIRFIELD","CT","06824"
16135,"1073 PENNINGTON RD","EWING","NJ","08618"
16136,"1073 ROSS AVE STE D","EL CENTRO","CA","92243"
16137,"1073 S PALOMINO CREEK DRIVE","GILBERT","AZ","85296"
16138,"1073 SOUTHWOOD DRIVE","VILLA RICA","GA","30180"
16139,"1073 STANHOPE KELLOGGSVILLE RD","DORSET","OH","44032"
16140,"1073 SW FACET AVE","PORT SAINT LUCIE","FL","34953"
16141,"1073 SYDNEY COURT","UPLAND","CA","91786"
16142,"1073 WILLIAMSBURG DR","SCHERTZ","TX","78154"
16143,"1073 WILLOW STREET","FARIBAULT","MN","55021"
16144,"1073 ZION ROAD","GORDONSVILLE","VA","22942"
16145,"10730 ARTESIA BLVD","CERRITOS","CA","90703"
16146,"10730 BARKER CYPRESS RD STE C 309","CYPRESS","TX","77433"
16147,"10730 GLENORA DR APT 310","HOUSTON","TX","77065"
16148,"10730 GLENORA DRIVE  405","HOUSTON","TX","77065"
16149,"10730 JOHNSON STREET","CLINTON","LA","70722"
16150,"10730 N 56TH ST STE 206","TAMPA","FL","33617"
16151,"10730 NW 56TH COURT","CORAL SPRINGS","FL","33076"
16152,"10730 POTRANCO ROAD SUITE 122-152","SAN ANTONIO","TX","78251"
16153,"10730 POTRANCO ROAD SUITE 122-238","SAN ANTONIO","TX","78251"
16154,"10730 POTRANCO ROAD SUITE 122-282","SAN ANTONIO","TX","78251"
16155,"10730 POTRANO RD STE 122-556","SAN ANTONIO","TX","78251"
16156,"10730 W 118TH TERRACE","OVERLAND PARK KS","KS","66210"
16157,"10731 BEECHNUT COURT","FAIRFAX STATION","VA","22039"
16158,"10731 JOHNSON AVE","CUPERTINO","CA","95014"
16159,"10731 LURLINE AVE","CHATSWORTH","CA","91311"
16160,"10731 PROUTY ROAD","CONCORD TWP","OH","44077"
16161,"10731 RAU ROAD","ELK GROVE","CA","95757"
16162,"10732 141ST STREET","VERNADALE","MN","56580"
16163,"10732 154TH PL NE","REDMOND","WA","98052"
16164,"10732 MIERAS DRIVE 18","SPARTA","MI","49345"
16165,"10732 SOUTH MALL DRIVE","BATON ROUGE","LA","70809"
16166,"10732 WILLIAM TELL DRIVE","ORLANDO","FL","32821"
16167,"10733 E RAINDANCE ST","SIERRA VISTA","AZ","85635"
16168,"10733 REVERE ROAD","MOKENA","IL","60448"
16169,"10733 STATE ROUTE 150","RAYLAND","OH","43943"
16170,"10734 FLAXTON ST","CULVER CITY","CA","90230"
16171,"10734 SILVERBROOK DRIVE","CINCINNATI","OH","45240"
16172,"10735 COUNTY ROAD F","MERRILL","WI","54452"
16173,"10735 EMERALD CHASE DRIVE","ORLANDO","FL","32836"
16174,"10735 HYSSOP ST","PORT RICHEY","FL","34668"
16175,"10735 S APPLERIDGE LANE","OLATHE","KS","66061"
16176,"10735 SERRENTO HL","HELOTES","TX","78023"
16177,"10735 SW CANTERBURY LANE 101","TIGARD","OR","97224"
16178,"10735 TRASK DRIVE","SAINT LOUIS","MO","63136"
16179,"10735 WEST 132ND PLACE","OVERLAND PARK","KS","66213"
16180,"10736 FALLING WATER LANE UNIT A","WOODBURY","MN","55129"
16181,"10736 JEFFERSON BLVD - SUITE 803","CULVER CITY","CA","90230"
16182,"10736 JEFFERSON BLVD STE 142","CULVER CITY","CA","90230"
16183,"10736 JEFFERSON BLVD STE 917","CULVER CITY","CA","90230"
16184,"10736 JEFFERSON BLVD STE747","CULVER CITY","CA","90230"
16185,"10736 JEFFERSON BLVD SUITE 695","CULVER CITY","CA","90230"
16186,"10736 JEFFERSON BOULEVARD","CULVER CITY","CA","90230"
16187,"10736 MIDDLEBURY WAY","HIGHLANDS RANCH","CO","80126"
16188,"10736 PLANTATION BAY DR","TAMPA","FL","33647"
16189,"10736 S EBERHART AVE","CHICAGO","IL","60628"
16190,"10737 DOMAIN DRIVE SUITE 119","AUSTIN","TX","78758"
16191,"10737 JOYCETON DRIVE","UPPER MARLBORO","MD","20774"
16192,"10737 WHITEHILL ST","DETROIT","MI","48224"
16193,"10738 CRISWELL RD","FREDERICKSBURG","OH","44627"
16194,"10738 DURLAND AVE NE","SEATTLE","WA","98125"
16195,"10738 EAGLE RIDGE DR","ORLAND PARK","IL","60467"
16196,"10738 ENCINO DR","OAK VIEW","CA","93022"
16197,"10738 POINTER RIDGE DRIVE","CHARLOTTE","NC","28214"
16198,"1074 BELVEDERE DRIVE","SLIDELL","LA","70458"
16199,"1074 BREEZE WAY","LATROBE","PA","15650"
16200,"1074 CONEY ISLAND AVENUE","BROOKLYN","NY","11230"
16201,"1074 HARTS BLUFF RD","WADMALAW ISLAND","SC","29487"
16202,"1074 HEMLOCK DRIVE","BLUE BELL","PA","19422"
16203,"1074 HIGHLAND WAY","SANTA FE","NM","87507"
16204,"1074 HIGHWAY 1 AND 78","RICHLAND","IA","52585"
16205,"1074 HYDE PARK AVE  SUITE4","HYDE PARK","MA","02136"
16206,"1074 N SWAN","TUCSON","AZ","85711"
16207,"1074 PEACHTREE WALK NE","ATLANTA","GA","30309"
16208,"1074 PLEASANT VIEW LANE","LOOGOOTEE","IN","47553"
16209,"1074 S CLOVERDALE AVE","LOS ANGELES","CA","90019"
16210,"1074 S SEAWARD AVE","VENTURA","CA","93001"
16211,"1074 SCENIC DR","KNOXVILLE","TN","37919"
16212,"1074 W TAYLOR ST 203","CHICAGO","IL","60607"
16213,"1074 W TAYLOR ST UNIT 113","CHICAGO","IL","60607"
16214,"1074 WEST TAYLOR STREET","CHICAGO","IL","60607"
16215,"1074 WESTWOOD DR","MOORESVILLE","IN","46158"
16216,"10740 FLORRIE PL","BATON ROUGE","LA","70818"
16217,"10740 LACROSSE AVENUE","OAK LAWN","IL","60453"
16218,"10740 NE WALKER ROAD","HILLSBORO","OR","97006"
16219,"10740 STARBOARD WAY","EDMOND","OK","73025"
16220,"10740 SW LUCAS DRIVE","TUALATIN","OR","97062"
16221,"10740 WEATHERSTONE COURT","LOVELAND","OH","45140"
16222,"10741 FINGERBOARD RD","IJAMSVILLE","MD","21754"
16223,"10741 HWY 182","FRANKLIN","LA","70538"
16224,"10741 N CLEAR LAKE LN","FRESNO","CA","93730"
16225,"10741 SOUTH COUNTY ROAD 850 EAST","CLOVERDALE","IN","46120"
16226,"10741 TAVISTOCK DR","TAMPA","FL","33626"
16227,"10741 TOLEDO AVE","OSCEOLA","IN","46561"
16228,"10741 TYSON ROAD","ORLANDO","FL","32832"
16229,"10741 WEST EL CORTEZ PL 2190","PEORIA","AZ","85383"
16230,"10741 WEST EL CORTEZ PLACE APT 1134","PEORIA","AZ","85383"
16231,"10742 DURLAND AVE NE","SEATTLE","WA","98125"
16232,"10742 SW NAEVE ST","TIGARD","OR","97224"
16233,"10743 CRANE DR","INDIANAPOLIS","IN","46231"
16234,"10743 E MCNELLY RD","PEA RIDGE","AR","72751"
16235,"10743 LIBERTY CHAPEL RD","MOUNT VERNON","OH","43050"
16236,"10743 SO TOPVIEW RD","SOUTH JORDAN","UT","84095"
16237,"10743 VERMILION ROAD","OBERLIN","OH","44074"
16238,"10743","LA VISTA","NE","68128"
16239,"10744 CASTLETON TURN","UPPER MARLBORO","MD","20774"
16240,"10744 MORNING STAR LANE","NEVADA CITY","CA","95959"
16241,"10744 SERENBE LANE","CHATTAHOOCHEE HILLS","GA","30268"
16242,"10745 126TH AVENUE NE","KIRKLAND","WA","98034"
16243,"10745 ALISON WAY","INVER GROVE HEIGHTS","MN","55077"
16244,"10745 COUNTY ROAD B","AMHERST","WI","54406"
16245,"10746 BELLS FLATS RD","KODIAK","AK","99615"
16246,"10746 CEDAR BEACH DR NW","ORONOCO","MN","55960"
16247,"10746 FENTON DRIVE","PARKER","AZ","85344"
16248,"10746 QUEENSLAND STREET","LOS ANGELES","CA","90034"
16249,"10747 A FINGERBOARD RD","IJAMSVILLE","MD","21754"
16250,"10747 FURY LN","EL PASO","TX","79935"
16251,"10747 GOODWOOD BLVD","BATON ROUGE","LA","70815"
16252,"10747 NEIDERHOUSE ROAD","PERRYSBURG","OH","43551"
16253,"10747 VERSAILLES BLVD","WELLINGTON","FL","33449"
16254,"10748 159TH ST JAMAICA APT 2D","JAMAICA","NY","11433"
16255,"10748 W JEFFERSON AVE","RIVER ROUGE","MI","48218"
16256,"10749 E NORTHWEST HWY 103","DALLAS","TX","75238"
16257,"10749 LEATHERSTOCKING AV","LAS VEGAS","NV","89166"
16258,"10749 SOUTH STREET","CERRITOS","CA","90703"
16259,"10749 STANDING STONE DR","WIMAUMA","FL","33594"
16260,"10749 US HIGHWAY 441 NORTH","BROXTON","GA","31519"
16261,"1075 8TH ST NW","SALEM","OR","97304"
16262,"1075 BALFOUR QUARRY RD","SALISBURY","NC","28146"
16263,"1075 BAY BLVD","CHULA VISTA","CA","91911"
16264,"1075 BIRCH AVE","CORWITH","IA","50430"
16265,"1075 BLUEBERRY POINT RD","WHITE STONE","VA","22578"
16266,"1075 BROAD RIPPLE AVE STE 279","INDIANAPOLIS","IN","46220"
16267,"1075 BROAD RIPPLE AVENUE - STE 318","INDIANAPOLIS","IN","46220"
16268,"1075 BROAD RIPPLE AVENUE SUITE 335","INDIANAPOLIS","IN","46220"
16269,"1075 CAMINO DEL RIO SOUTH","SAN DIEGO","CA","92108"
16270,"1075 CRINELLA CT","ST HELENA","CA","94574"
16271,"1075 DEERFIELD PL","HIGHLAND PARK","IL","60035"
16272,"1075 EAST CEDAR STREET APT L","POCATELLO","ID","83201"
16273,"1075 EASTON AVE SUITE 11-323","SOMERSET","NJ","08873"
16274,"1075 EASTON AVENCUE  330 / SUITE 11","SOMERSET","NJ","08873"
16275,"1075 EASTON AVENUE SUITE 11 265","SOMERSET","NJ","08873"
16276,"1075 EASTON AVENUE","SOMERSET","NJ","08873"
16277,"1075 EVANS LANE","ROBERSONVILLE","NC","27871"
16278,"1075 FILLMORE ST","SAN FRANCISCO","CA","94115"
16279,"1075 GORE RD","MORRIS","IL","60450"
16280,"1075 GRAND CONCOURSE","NEW YORK","NY","10452"
16281,"1075 HONOR RUN","ALPHARETTA","GA","30005"
16282,"1075 JUNIPERO AVE  APT 303","LONG BEACH","CA","90804"
16283,"1075 LAWRENCE RD","HARROD","OH","45850"
16284,"1075 LOFTIS BLVD STE C4","NEWPORT NEWS","VA","23606"
16285,"1075 MANDI CT / PO BOX 2027","NIPOMO","CA","93444"
16286,"1075 MAZZONE DRIVE","SAN JOSE","CA","95120"
16287,"1075 MCBRIDE AVE","WOODLAND PARK","NJ","07424"
16288,"1075 MITTEN DR","WABASH","IN","46992"
16289,"1075 N CATALINA AVE","PASADENA","CA","91104"
16290,"1075 NE 167 STREET","NMB","FL","33162"
16291,"1075 NELSONA VE APT 4A","BRONX","NY","10452"
16292,"1075 NORMANDY ROAD","SPRINGFIELD","IL","62702"
16293,"1075 NW SKYLINE DRIVE","PENDLETON","OR","97801"
16294,"1075 PEACHTREE ST NE SUITE 3500","ATLANTA","GA","30309"
16295,"1075 PEACHTREE ST NE SUITE 3650","ATLANTA","GA","30309"
16296,"1075 PEACHTREE STREET NE SUITE 3650","ATLANTA","GA","30309"
16297,"1075 PICACHO WAY","VALLE","AZ","86046"
16298,"1075 PITTSBURGH DRIVE","DELAWARE","OH","43015"
16299,"1075 S STATE RT 260","COTTONWOOD","AZ","85326"
16300,"1075 S YUKON ST  SUITE 320","LAKEWOOD","CO","80226"
16301,"1075 SLEEPING CHILD RD","HAMILTON","MT","59840"
16302,"1075 SOUTH RICHFIELD WAY","AURORA","CO","80017"
16303,"1075 SPACE PARK WAY SPC 53","MOUNTAIN VIEW","CA","94043"
16304,"1075 STATE ROUTE 121 NORTH","MURRAY","KY","42071"
16305,"1075 SULKY DR","FLORISSANT","MO","63033"
16306,"1075 SUNSET STRIP","SUNRISE","FL","33313"
16307,"1075 US 46","CLIFTON","NJ","07013"
16308,"1075 W GRIFFIN STREET","DALLAS","TX","75215"
16309,"1075 WEST GRIFFIN STREET","DALLAS","TX","75215"
16310,"1075 WESTFORD STREET 3RD FL","LOWELL","MA","01851"
16311,"1075 WESTFORD STREET","LOWELL","MA","01851"
16312,"1075 WORTHINGTON RIDGE","BERLIN","CT","06037"
16313,"1075 YORBA PL SUITE 102","PLACENTIA","CA","92870"
16314,"1075","ANOKA","MN","55303"
16315,"10750 BARKER CYPRESS RD","CYPRESS","TX","77433"
16316,"10750 EAST 258TH STREET SOUTH","PORUM","OK","74455"
16317,"10750 GARLAND ROAD","DENTON","MD","21629"
16318,"10750 ROCKFORD ROAD APT 109","PLYMOUTH","MN","55442"
16319,"10750 S EGGLSESTON AVE","CHICAGO","IL","60628"
16320,"10750 SW 146 TERRACE","MIAMI","FL","33176"
16321,"10750 THUNDER MOUNTAIN AVENUE","COLORADO SPRINGS","CO","80908"
16322,"10751 BRIDLEREIN CT","SPOTSYLVANIA","VA","22553"
16323,"10751 CENTERVILLE BAY STREET","LAS VEGAS","NV","89179"
16324,"10751 FOXGLEN DRIVE","BOCA RATON","FL","33428"
16325,"10751 PALACE CT","MANASSAS","VA","20111"
16326,"10751 SHAVANO PEAK COURT","PEYTON","CO","80831"
16327,"10751 STONEY POINT DR","SOUTH LYON","MI","48178"
16328,"10751 W 77TH PLACE","ARVADA","CO","80005"
16329,"10751 WILSHIRE BLVD APT 701","LOS ANGELES","CA","90024"
16330,"10752 31ST STREET","WESTCHESTER","IL","60154"
16331,"10752 DEERWOOD PARK BLVD SUITE 100","JACKSONVILLE","FL","32256"
16332,"10752 DEERWOOD PARK BLVD SUITE 176","JACKSONVILLE","FL","32256"
16333,"10752 HIGHWAY 52","CHATSWORTH","GA","30705"
16334,"10752 OAKWOOD AVENUE","HESPERIA","CA","92345"
16335,"10752 ST RT 364","ST MARYS","OH","45885"
16336,"10753 BLIX ST APT 3","TOLUCA LAKE","CA","91602"
16337,"10753 WHITE ASPEN LANE","BOCA RATON","FL","33428"
16338,"10754 W PASO TRL","PEORIA","AZ","85383"
16339,"10755 PARK BLVD N SUITE B","SEMINOLE","FL","33772"
16340,"10755 SCRIPPS POWAY PARKWAY STE 437","SAN DIEGO","CA","92131"
16341,"10755 SCRIPPS POWAY PKWY  381","SAN DIEGO","CA","92131"
16342,"10756 JEANES STREET","PHILADELPHIA","PA","19116"
16343,"10756B AMBASSADOR DRIVE STE 201","MANASSAS","VA","20109"
16344,"10757 154 ST","JAMAICA","NY","11433"
16345,"10757 TORREY PINES CIRCLE","CARMEL","IN","46032"
16346,"10758 BELLE MAISONS DRIVE","ORLANDO","FL","32832"
16347,"10758 SACO DRIVE","COLORADO SPRINGS","CO","80925"
16348,"10758 WHEELING DR","COMMERCE CITY","CO","80022"
16349,"10759 S CHURCH ST","CHICAGO","IL","60643"
16350,"10759 SW 226TH STREET","GOULDS","FL","33170"
16351,"1076 BETHANY PLACE","GREEN BAY","WI","54304"
16352,"1076 COVE HOLLOW DR","CEDAR HILL","TX","75104"
16353,"1076 DEER TRAIL RD","DURANGO","CO","81303"
16354,"1076 E WOODBURY ROAD","PASADENA","CA","91104"
16355,"1076 FRANKLIN AVE","ASTORIA","OR","97103"
16356,"1076 GRACE CT","NORTHVILLE","MI","48167"
16357,"1076 GRANDVIEW GARDENS CT","FLORISSANT","MO","63033"
16358,"1076 HIGHLAND COLONY PARKWAY","RIDGELAND","MS","39157"
16359,"1076 HIGHWAY 107","QUITMAN","AR","72131"
16360,"1076 PURDYTOWN TURNPIKE","LAKEVILLE","PA","18438"
16361,"1076 RED BUD CIRCLE","ROCKLEDGE","FL","32955"
16362,"1076 ROSECRANS ST","SAN DIEGO","CA","92106"
16363,"1076 S STATE RD 19","PALATKA","FL","32177"
16364,"1076 SE 7TH AVENUE","HILLSBORO","OR","97123"
16365,"1076 THREE SPRINGS ROAD","MCGAHEYSVILE","VA","22840"
16366,"1076 VT RT 113","WEST FAIRLEE","VT","05083"
16367,"1076 WALBURK AVE","LAYTON","UT","84040"
16368,"1076 WEDDINGTON WOODS ST NW","CONCORD","NC","28027"
16369,"1076 WEST MARKET ST","SCHUYLKILL HAVEN","PA","17972"
16370,"1076 WEST MARKET STREET","SCHUYLKILL HAVEN","PA","17972"
16371,"1076 WINDSOR STREET","SAN JOSE","CA","95129"
16372,"10760 AVEINDA SANTA ANNA","BOCA RATON","FL","33498"
16373,"10760 FREDERICK ROAD","ELLICOTT CITY","MD","21042"
16374,"10760 LAWSONIA LINKS DR","JACKSONVILLE","FL","32222"
16375,"10760 PICTORIAL PARK DR","TAMPA","FL","33647"
16376,"10760 SKIPWITH RD","CHASE CITY","VA","23924"
16377,"10760 THORNMINT ROAD","SAN DIEGO","CA","92127"
16378,"10760 WATSON PLACE","JAMAICA","NY","11433"
16379,"10761 BLIX ST APT 106","TOLUCA LAKE","CA","91602"
16380,"10761 PERKINS RD STE D","BATON ROUGE","LA","70810"
16381,"10761 SW 28 ST","MIAMI","FL","33165"
16382,"10762 BENTBROOK DRIVE","VANCE","AL","35490"
16383,"10762 PICTORIAL PARK DR","TAMPA","FL","33647"
16384,"10762 THORNDALE ST","ADELANTO","CA","92301"
16385,"10763 GILKEY CREEK RD","OLA","AR","72853"
16386,"10763 W 2ND ST","AVONDALE","AZ","85323"
16387,"10766 ANGELA DR","KIRTLAND","OH","44094"
16388,"10766 BIRCH DRIVE","JOPLIN","MO","64804"
16389,"10766 COOK CT","NORTHGLENN","CO","80233"
16390,"10766 PREDDY AVE","KLAMATH FALLS","OR","97603"
16391,"10766 SUNSET RIDGE LANE","ORLANDO","FL","32832"
16392,"10767 JAMACHA BLVD 140","SPRING VALLEY","CA","91978"
16393,"10767 OREGON AVENUE","CULVER CITY","CA","90232"
16394,"10767 S PEORIA STREET","CHICAGO","IL","60643"
16395,"10767 SE OREGOLD CT","HAPPY VALLEY","OR","97086"
16396,"10767 WOODBINE ST NUM 328","LOS ANGELES","CA","90034"
16397,"10769 BROADWAY AV  SUITE 188","CROWN POINT","IN","46307"
16398,"10769 BROADWAY SUITE 136","CROWN POINT","IN","46307"
16399,"10769 BROADWAY SUITE 216","CROWN POINT","IN","46307"
16400,"1077 23RD ST","DES MOINES","IA","50311"
16401,"1077 30TH STREET NW SUITE 211","WASHINGTON","DC","20007"
16402,"1077 ALTAMONT RD","GREENVILLE","SC","29609"
16403,"1077 ARLINGTON AVE  APT 2","PLAINFIELD","NJ","07060"
16404,"1077 BAILEY CREEK ROAD","MILLERTON","PA","16936"
16405,"1077 BARKER RD","WHITMORE LAKE","MI","48189"
16406,"1077 BEECH FOREST RD","KENBRIDGE","VA","23944"
16407,"1077 CASTLETON AVE","STATEN ISLAND","NY","10301"
16408,"1077 COUNTY ROAD L","PANHANDLE","TX","79068"
16409,"1077 COURT AVE","HIGHLAND PARK","IL","60035"
16410,"1077 GLEN REILLY DRIVE","FAYETTEVILLE","NC","28314"
16411,"1077 HAWKSBILL LANE","SUGARLOAF KEY","FL","33042"
16412,"1077 HUBBARD ST","DETROIT","MI","48209"
16413,"1077 LANA STREET","PASO ROBLES","CA","93446"
16414,"1077 LEXINGTON ST","WALTHAM","MA","02452"
16415,"1077 MAIL AVE","DEPTFORD","NJ","08096"
16416,"1077 MANHATTAN AVE  APT 6","BROOKLYN","NY","11222"
16417,"1077 N WILLOW AVE SUITE 105-935","CLOVIS","CA","93611"
16418,"1077 PACIFIC COAST HIGHWAY NUM 267","SEAL BEACH","CA","90740"
16419,"1077 PACIFIC COAST HWY","SEAL BEACH","CA","90740"
16420,"1077 PARADISE DR","LEMOORE","CA","93245"
16421,"1077 RAILROAD STREET NW","CONYERS","GA","30012"
16422,"1077 SILAS DEANE HIGHWAY PMB 131","WETHERSFIELD","CT","06109"
16423,"1077 WALKER ROAD","SALTSBURG","PA","15681"
16424,"1077 WILSHIRE BOULEVARD","STEVENS POINT","WI","54481"
16425,"10770 BARELY LANE   STE 1301","HOUSTON","TX","77070"
16426,"10770 BIRCH RANCH DR","SACRAMENTO","CA","95830"
16427,"10770 BUECHE RD","BUECHE","LA","70729"
16428,"10770 COLUMBIA PIKE STE 400","SILVER SPRING","MD","20901"
16429,"10770 COLUMBIA PIKE SUITE 300-W-4","SILVER SPRING","MD","20901"
16430,"10770 E BILBY RD","TUCSON","AZ","85747"
16431,"10770 FALL CT NW","BEMIDJI","MN","56601"
16432,"10770 HIGH RD","HERNANDO","MS","38632"
16433,"10770 JAMACHA BLVD  67","SPRING VALLEY","CA","91978"
16434,"10770 NW 66TH STREET  APT 109","DORAL","FL","33178"
16435,"10770 WATTSBURG RD","ERIE","PA","16509"
16436,"10771 KITCHENER COURT","BOWIE","MD","20721"
16437,"10771 OLD COX PIKE","BON AQUA","TN","37025"
16438,"10772 KING ROAD","PLYMOUTH","IN","46563"
16439,"10772 RHODE ISLAND AVENUE","BELTSVILLE","MD","20705"
16440,"10773 LOOP RD","SODDY DAISY","TN","37379"
16441,"10773 NW 58TH STREET UNIT 164","DORAL","FL","33178"
16442,"10773 PASADENA ROAD","CARBONDALE","IL","62901"
16443,"10773 WHISPER WOODS COVE","COLLIERVILLE","TN","38017"
16444,"10774 ESSEX HALL DR","CHARLOTTE","NC","28277"
16445,"10774 SOURWOOD AVENUE","WALDORF","MD","20603"
16446,"10775 27TH AVENUE","BECKER","MN","55308"
16447,"10775 BABCOCK BLVD","GIBSONIA","PA","15044"
16448,"10775 KELLI DR","TYLER","TX","75703"
16449,"10775 MENTZER GAP ROAD","WAYNESBORO","PA","17268"
16450,"10775 RIDGE RIM TRL SE","PORT ORCHARD","WA","98367"
16451,"10775 ROOSEVELT HWY","LYNDONVILLE","NY","14098"
16452,"10775 SCRIPPS POWAY PKWY 155","SAN DIEGO","CA","92131"
16453,"10775 W ONTARIO PL","LITTLETON","CO","80127"
16454,"10775 W QUARLES AVE","LITTLETON","CO","80127"
16455,"10776 BELL RD","CLARKSVILLE","MI","48815"
16456,"10777 CHARLESTON PLACE","COOPER CITY","FL","33026"
16457,"10777 NORTHWEST FWY STE 700","HOUSTON","TX","77092"
16458,"10778 ABLE ST NE","BLAINE","MN","55434"
16459,"10779 DUPREY ST","DETROIT","MI","48224"
16460,"1078 230TH STREET","GOLDFIELD","IA","50542"
16461,"1078 90TH AVE NW","MOORHEAD","MN","56560"
16462,"1078 AZALEA LANE","CONCORD","CA","94520"
16463,"1078 COVENTRY WAY","MAHWAH","NJ","07430"
16464,"1078 CR 1035","GREENVILLE","TX","75401"
16465,"1078 EAST 43RD STREET","BROOKLYN","NY","11210"
16466,"1078 HIGHWAY 314","FAYETTEVILLE","GA","30214"
16467,"1078 HOSKINS LN","SAN RAMON","CA","94582"
16468,"1078 JACKSON STREET","PATTISON","MS","39144"
16469,"1078 N GARNETTE","SALT LAKE CITY","UT","84116"
16470,"1078 OLD OAK LN","HAYWARD","CA","94541"
16471,"1078 SHIELDS LANE","SOUTH JORDAN","UT","84095"
16472,"1078 W DESERT SAGE DR","PUEBLO WEST","CO","81007"
16473,"1078 W GLENN AVE","AUBURN","AL","36832"
16474,"10780 GLEN ELLEN DR","TAMPA","FL","33624"
16475,"107800 SOUTH 4240 ROAD","CHECOTAH","OK","74426"
16476,"10781 CHAPELWOOD DRIVE","GULFPORT","MS","39503"
16477,"10781 OAK STREET","KANSAS CITY","MO","64114"
16478,"10782 LAMPS ON AVE APT 14","GARDEN GROVE","CA","92840"
16479,"10782 WATTSBURG RD","ERIE","PA","16509"
16480,"10782 WEYBURN AVENUE","LOS ANGELES","CA","90024"
16481,"10785 CORSICAN STREET","ORLANDO","FL","32824"
16482,"10785 CROW HASSAN PARK RD","HANOVER","MN","55341"
16483,"10785 GUIBAL AVE","GILROY","CA","95020"
16484,"10785 MORTONS CIRCLE","JOHNS CREEK","GA","30022"
16485,"10785 TAYLOR FARD ROAD","WOODSTOCK","MD","21163"
16486,"10786 KEYES BRANCH RD","CADET","MO","63630"
16487,"10786 PERRY HIGHWAY","MEADVILLE","PA","16335"
16488,"10786 S MORLOS DRIVE","YUMA","AZ","85367"
16489,"10787 N  WHITETAIL COURT","MEQUON","WI","53092"
16490,"10787 SANTA TOMASA AVENUE","SAN DIEGO","CA","92127"
16491,"10788 BISHOPVILLE RD","BISHOPVILLE","MD","21813"
16492,"10788 NEPTUNE WAY","NEHALEM","OR","97131"
16493,"10789 W TWAIN AVENUE SUITE 100","LAS VEGAS","NV","89135"
16494,"10789 WYOMING AVE BOX 113","WYOMING","PA","18644"
16495,"1079 18TH AVE","NEWARK","NJ","07106"
16496,"1079 BELFAST LANE","VENTURA","CA","93001"
16497,"1079 BRUCE JACKSON RD","NEWNAN","GA","30263"
16498,"1079 COMMONWEALTH AVE UNIT 503","BOSTON","MA","02215"
16499,"1079 COUNTY ROAD 451","QUITMAN","MS","39355"
16500,"1079 GOLDEN POND RD","MCCLELLANVILLE","SC","29458"
