"ID","Address","City","State","Zip"
102501,"2 HEATH DRIVE","BASKING RIDGE","NJ","07920"
102502,"2 HEDGE ROW CT","LAWRENCEVILLE","NJ","08648"
102503,"2 HICKS AVE","ANNAPOLIS","MD","21401"
102504,"2 HIGH CLIFF AVENUE","PLYMOUTH","MA","02360"
102505,"2 HIGHWAY 61 E","ESKO","MN","55733"
102506,"2 HILLCREST CIRCLE","OXFORD","MA","01540"
102507,"2 HILLTOP LN","SOUTH EASTON","MA","02375"
102508,"2 HINMAN ROAD","PULASKI","NY","13142"
102509,"2 HIRTH DRIVE","YARDVILLE","NJ","08620"
102510,"2 HMB CIRCLE","FRANKFORT","KY","40601"
102511,"2 HOGAN CIRCLE","MIDDLETOWN","DE","19709"
102512,"2 HOLLY CREEK COURT","IRMO","SC","29063"
102513,"2 HOMESTEAD LANE","GREENWICH","CT","06831"
102514,"2 HOOK GATE","GLEN COVE","NY","11542"
102515,"2 HOPE COURT","BARRINGTON","RI","02806"
102516,"2 HOPEWELL LANE","WILLINGBORO","NJ","08046"
102517,"2 HORIZON CT UNIT 204","MONSEY","NY","10952"
102518,"2 HORIZON CT UNIT 301","MONSEY","NY","10952"
102519,"2 HORNBY LANE","BELLA VISTA","AR","72714"
102520,"2 HORSESHOE COURT","MONROE TWP","NJ","08831"
102521,"2 HUBBLE STREET","PULASKI","NY","13142"
102522,"2 HUFF DRIVE","GREENVILLE","SC","29611"
102523,"2 HWY 140","CHRISTINE","TX","78012"
102524,"2 ILENE COURT BUILDING 1 UNIT 4","HILLSBOROUGH","NJ","08844"
102525,"2 INDEPENDENT DR","JACKSONVILLE","FL","32202"
102526,"2 INDIAN HILL COURT","HAZLET","NJ","07730"
102527,"2 INDUSTRIAL PARK DRIVE SUITE B","WALDORF","MD","20602"
102528,"2 INVERNESS DRIVE EAST  105","ENGLEWOOD","CO","80112"
102529,"2 INWOOD TERRACE","SAN ANTONIO","TX","78248"
102530,"2 IONIC AVE","WORCESTER","MA","01608"
102531,"2 IRON POINT ROAD","NORTH HAVEN","ME","04853"
102532,"2 IVY DRIVE","ORINDA","CA","94563"
102533,"2 JACKSON LANE","MILLBURY","MA","01527"
102534,"2 JADE LANE","CHERRY HILL","NJ","08002"
102535,"2 JAMES TRAIL","GETTYSBURG","PA","17325"
102536,"2 JAN DALE AVE","ANNVILLE","PA","17003"
102537,"2 JANIS LANE","SAINT ALBANS","WV","25177"
102538,"2 JAQUES DRIVE","WASHINGTONVILLE","NY","10992"
102539,"2 JEAN LANE","MALTA","NY","12020"
102540,"2 JEFFERSON AVE LOWER LEVEL REAR","MAPLEWOOD","NJ","07040"
102541,"2 JEFFERSON AVENUE","MAPLEWOOD","NJ","07040"
102542,"2 JENNIFER WAY","SOUTH EASTON","MA","02375"
102543,"2 JESUP COURT","ELGIN","SC","29045"
102544,"2 JILFREY WAY","HARWICH","MA","02645"
102545,"2 JOANN CT","RANDOLPH","NJ","07869"
102546,"2 JODY DRIVE","PLYMOUTH MEETING","PA","19462"
102547,"2 JOHN BREWERS BAY","ST. THOMAS","VI","00802"
102548,"2 JOHNS BREWERS BAY","ST THOMAS","VI","00802"
102549,"2 JOHNS BREWERS BAY","ST. THOMAS","VI","00802"
102550,"2 JOSEFA PL","MORAGA","CA","94556"
102551,"2 JOSHUA DRIVE","BIDDEFORD","ME","04005"
102552,"2 KAREN COURT","WESTBURY","NY","11590"
102553,"2 KATHARINA PL","WASHINGTON TWP","NJ","07676"
102554,"2 KAY CT","MONROE","NJ","08831"
102555,"2 KEATS WAY APT D","DRYDEN","NY","13053"
102556,"2 KELSEY LANE","NORTH DARTMOUTH","MA","02727"
102557,"2 KENDRA LANE","CHARLESTON","WV","25312"
102558,"2 KERSHAW ROAD","WALLINGFORD","PA","19086"
102559,"2 KINGS WAY","ROCHESTER","NY","14624"
102560,"2 KINGSBURY PLACE","ST. LOUIS","MO","63112"
102561,"2 KINGSTON CIRCLE","EXTON","PA","19341"
102562,"2 KINSMAN LANE","MERRIMACK","NH","03054"
102563,"2 KWITKOWSKI COURT","SAYREVILLE","NJ","08872"
102564,"2 LA PERA COURT APT 2","SACRAMENTO","CA","95823"
102565,"2 LAFAYETTE STREET","HUNTINGTON","NY","11743"
102566,"2 LAKE DRIVE","WHITEHOUSE STATION","NJ","08809"
102567,"2 LAKE STREET","MONROE","NY","10950"
102568,"2 LAMBOLL STREET","CHARLESTON","SC","29401"
102569,"2 LAMPLIGHT CIRCLE APT 2","HAMPTON BAYS","NY","11946"
102570,"2 LANDINGS DR","AMHERST","NY","14228"
102571,"2 LANRAM RD","TAPPAN","NY","10983"
102572,"2 LANTERN ROAD","HOLBROOK","MA","02343"
102573,"2 LAURA LN","NEWTON","NH","03858"
102574,"2 LAUREL DRIVE","ROCKY RIVER","OH","44116"
102575,"2 LAUREN WAY","LOWELL","MA","01854"
102576,"2 LAWNCREST AVENUE","DAYTON","OH","45417"
102577,"2 LEAGUE COURT","CENTEREACH","NY","11720"
102578,"2 LEARNERS LDG","MARCELLUS","NY","13108"
102579,"2 LEAS COURTYARD","SENECA","SC","29678"
102580,"2 LEEWOOD CIRCLE APT 2L","EASTCHESTER","NY","10709"
102581,"2 LEONARD LANE","WILMINGTON","MA","01887"
102582,"2 LILAC LANE","NORWALK","CT","06851"
102583,"2 LINCOLN SQ REAR B","ALBANY","NY","12202"
102584,"2 LINDABURY AVENUE","BERNARDSVILLE","NJ","07924"
102585,"2 LITTLE CREEK LANE","GLENDALE","OH","45246"
102586,"2 LOG CABIN RD","SICKLERVILLE","NJ","08081"
102587,"2 LOGAN RD","CASTLE HAYNE","NC","28429"
102588,"2 LOGGERS TRAIL","EDWARDSVILLE","IL","62025"
102589,"2 LOGGERS TRL","EDWARDSVILLE","IL","62025"
102590,"2 LONE PINE DRIVE","UNIONTOWN","PA","15401"
102591,"2 LONGFELLOW LANE UNIT 104","TYNSBORO","MA","01879"
102592,"2 LOUISBURG SQUARE APT 4","BOSTON","MA","02108"
102593,"2 LOWE AVE","FAIR LAWN","NJ","07410"
102594,"2 LOWERY LANE","MARLBORO","NJ","07746"
102595,"2 LYNGBY CT","RIVERWOODS","IL","60015"
102596,"2 LYNGBY","RIVERWOODS","IL","60015"
102597,"2 M STREET SE","WASHINGTON","DC","20003"
102598,"2 MADONNA CT","BELLEVILLE","IL","62223"
102599,"2 MAHL AVE","HARTFORD","CT","06120"
102600,"2 MAIN ST/POBX 365","NEWPORT","NH","03773"
102601,"2 MAIN STREET 1443","SPARTA","NJ","07871"
102602,"2 MAIN STREET SOUTH","HUTCHINSON","MN","55350"
102603,"2 MAISON RUE","HATTIESBURG","MS","39402"
102604,"2 MAJESTIC PINE COURT","POOLER","GA","31322"
102605,"2 MALLARD RUN","HAMPTON","VA","23669"
102606,"2 MAPLE ROAD","HUNTINGTON STATION","NY","11746"
102607,"2 MAPLEWOOD AVENUE","FARMINGDALE","NY","11735"
102608,"2 MARINA BOULEVARD","PITTSBURG","CA","94565"
102609,"2 MARINE WAY - SUITE 207","JUNEAU","AK","99801"
102610,"2 MARJORIE COURT","ROCHESTER","NY","14620"
102611,"2 MARLOWE STREET","DORCHESTER","MA","02124"
102612,"2 MARSHALL CT","ANN ARBOR","MI","48104"
102613,"2 MASSACHUSETTS AVE NE SUITE 1885","WASHINGTON","DC","20013"
102614,"2 MASSACHUSETTS AVENUE NE RM 77009","WASHINGTON","DC","20013"
102615,"2 MASSACHUSETTSS AVE NE UNIT 2884","WASHINGTON","DC","20013"
102616,"2 MATHIAS LANE","SOUTH CHARLESTON","WV","25309"
102617,"2 MCCABE STREET","DARTMOUTH","MA","02748"
102618,"2 MCENROE DRIVE","LONDONDERRY","NH","03053"
102619,"2 MCGILL AVE","ALAMOGORDO","NM","88310"
102620,"2 MEAD ST APT 2","ALLSTON","MA","02134"
102621,"2 MEADOW SPRING LANE","GREER","SC","29650"
102622,"2 MEADOW VISTA CIRCLE","TEXARKANA","TX","75503"
102623,"2 MEADOWBROOK DR","GENESEO","IL","61254"
102624,"2 MERCHANT STREET SUITE 4","SHARON","MA","02067"
102625,"2 MERCHANTS DRIVE","HILLSBORO","MO","63050"
102626,"2 METCALF SQ","WINTHROP","MA","02152"
102627,"2 MIDDLE ST","FAIRHAVEN","MA","02740"
102628,"2 MILLEDGE RD","AUGUSTA","GA","30904"
102629,"2 MILLENNIUM PLAZA SUITE 202","CLARKSVILLE","TN","37040"
102630,"2 MINERAL SPRINGS COURT","GAITHERSBURGS","MD","20877"
102631,"2 MOHAWK DR","SOUTH BARRINGTON","IL","60010"
102632,"2 MONIVEA PLACE","PLEASANT HILL","CA","94523"
102633,"2 MONTGOMERY AVENUE","PINE HILL","NJ","08021"
102634,"2 MOONVINE","THE WOODLANDS","TX","77381"
102635,"2 MORGAN ROAD","LEXINGTON","MA","02421"
102636,"2 MORNING IVY ROAD","GREENVILLE","SC","29607"
102637,"2 MOUNTAIN ROAD PO BOX 137","MONTGOMERY CENTER","VT","05471"
102638,"2 MOUNTAINSIDE RD","WARWICK","NY","10990"
102639,"2 MURDOCK RD","BALTIMORE","MD","21212"
102640,"2 MYRTLE AVENUE  PO BOX 23","ALLENDALE","NJ","07401"
102641,"2 MYRTLE AVENUE UNIT 23","ALLENDALE","NJ","07401"
102642,"2 N  MAIN STREET BX-174","BEACON FALLS","CT","06403"
102643,"2 N 9TH ST STE 2B","TEMPLE","TX","76501"
102644,"2 N 9TH ST","NOBLESVILLE","IN","46060"
102645,"2 N BREVARD AVE BAILIWICK MALL","COCOA BEACH","FL","32931"
102646,"2 N CASCADE AVE STE 1430","COLORADO SPRINGS","CO","80903"
102647,"2 N FRANKLIN AVE","BERGENFIELD","NJ","07621"
102648,"2 N HORNBEAM PL","THE WOODLANDS","TX","77380"
102649,"2 N LAKE AVE STE 830","PASADENA","CA","91101"
102650,"2 N LASALLE ST STE 1250","CHICAGO","IL","60602"
102651,"2 N MAIN STREET","CHATHAM","VA","24531"
102652,"2 N PETTIGREW STREET","RALEIGH","NC","27610"
102653,"2 N RED MAPLE ST","SELINSGROVE","PA","17870"
102654,"2 N WOODLAND AVENUE","EAST BRUNSWICK","NJ","08816"
102655,"2 NARROWS COURT","SILVER SPRING","MD","20906"
102656,"2 NEPTUNE DRIVE","OLD SAYBROOK","CT","06475"
102657,"2 NEW JERSEY","IRVINE","CA","92606"
102658,"2 NEW LONDON DRIVE","LYNCHBURG","VA","24502"
102659,"2 NEWBURY CT","HAWTHORN WOODS","IL","60047"
102660,"2 NEWPORT CT","PRINCETON JUNCTION","NJ","08550"
102661,"2 NEWPORT STREET","BARNEGAT","NJ","08005"
102662,"2 NORBERTA WAY","JACKSONVILLE BEACH","FM","32250"
102663,"2 NORTH CASCADE SUITE 760","COLORADO SPRINGS","CO","80903"
102664,"2 NORTH JACKSON STREET STE 202","MONTGOMERY","AL","36104"
102665,"2 NORTH JEFFERSON AVENUE","WEST JEFFERSON","NC","28694"
102666,"2 NORTH MAIN STREET","GLOVERSVILLE","NY","12078"
102667,"2 NORTH MEDICAL DRIVE","SALT LAKE CITY","UT","84113"
102668,"2 NORTH NEVADA AVENUE STE 1100","COLORADO SPRINGS","CO","80903"
102669,"2 OAKLEY BND","MISSOURI CITY","TX","77459"
102670,"2 OAKMIST COURT","BLYTHEWOOD","SC","29016"
102671,"2 OCEAN WILLOW DR","OCEAN VIEW","DE","19970"
102672,"2 OFFICE PARK COURT SUITE 202","COLUMBIA","SC","29223"
102673,"2 OFFICE PARK CT UNIT 103","COLUMBIA","SC","29223"
102674,"2 OHIO AVE NE","MASSILLON","OH","44646"
102675,"2 OLD CIDER MILL RD","MANALAPAN","NJ","07726"
102676,"2 OLD HILL ROAD","WESTPORT","CT","06880"
102677,"2 OLD MAMARONECK RD APT 4J","WHITE PLAINS","NY","10605"
102678,"2 OLD STURBRIDGE VILLAGE RD","STURBRIDGE","MA","01566"
102679,"2 OLD STURBRIDGE VILLAGE ROAD","STURBRIDGE","MA","01566"
102680,"2 OLMSTED LANE","CINNAMINSON","NJ","08077"
102681,"2 OMNI COURT","LAKEWOOD","NJ","08701"
102682,"2 OTTO WAY","FREDERICKSBURG","VA","22406"
102683,"2 OVERLOOK DRIVE","NORRISTOWN","PA","19403"
102684,"2 OXFORD RD","CHARLTON","MA","01507"
102685,"2 PACHECO STREET","SAN FRANCISCO","CA","94116"
102686,"2 PALM DRIVE","FREDERICKSBURG","VA","22405"
102687,"2 PAMELA PL","BEAR","DE","19701"
102688,"2 PAPERMILL ROAD","ROSLYN","NY","11576"
102689,"2 PARENT ST","SOUTH BERWICK","ME","03908"
102690,"2 PARK AVENUE","PARK RIDGE","NJ","07656"
102691,"2 PARK LANE 5F","MOUNT VERNON","NY","10552"
102692,"2 PARK LANE","EASTSTROUDSBURG","PA","18301"
102693,"2 PARK PLAZA SUITE 850","IRVINE","CA","92614"
102694,"2 PARK SQUARE","RAHWAY","NJ","07036"
102695,"2 PARK STREET","ATTLEBORO","MA","02703"
102696,"2 PARKSIDE AVE","DALY CITY","CA","94015"
102697,"2 PARKWAY PLAZA","LUFKIN","TX","75904"
102698,"2 PARTRIDGE COURT","HACKETTSTOWN","NJ","07840"
102699,"2 PAT RD","NEWBURGH","NY","12550"
102700,"2 PAULISON AVENUE","PASSAIC","NJ","07055"
102701,"2 PAYNE RIVER CIRCLE","SACRAMENTO","CA","95831"
102702,"2 PEACH TREE LN","WILTON","NY","12831"
102703,"2 PEMBROKE TER","HILLSBOROUGH","NJ","08844"
102704,"2 PENN CENTER WEST SUITE 115","PITTSBURGH","PA","15276"
102705,"2 PENN MAWR CT","READING","PA","19606"
102706,"2 PENNA CT","FLORHAM PARK","NJ","07932"
102707,"2 PENNY LANE","PEABODY","MA","01960"
102708,"2 PERILLO COURT","PEARL RIVER","NY","10965"
102709,"2 PHILLIPS DR","BETHEL","CT","06801"
102710,"2 PHOTINIA","IRVINE","CA","92620"
102711,"2 PINE ST","LOWELL","MA","01851"
102712,"2 PINEHURST AVE APT F2","NEW YORK","NY","10033"
102713,"2 PINEMONT PL APT 2B","NOTTINGHAM","MD","21236"
102714,"2 PIRATE PARKWAY","BEREA","KY","40403"
102715,"2 PLAZA DRIVE","WOODRIDGE","IL","60517"
102716,"2 PLOWSHARE COURT","STAFFORD","VA","22554"
102717,"2 PLUM STREET","CAPE CHARLES","VA","23310"
102718,"2 PLYMOUTH PL","MAPLEWOOD","NJ","07040"
102719,"2 POINT O WOOD DR","TOMS RIVER","NJ","08753"
102720,"2 PONDAROSA HORCA SUBDIVISION","ANTONITO","CO","81120"
102721,"2 PORT AU PRINCE ROAD","HILTON HEAD ISLAND","SC","29928"
102722,"2 POST - POB 338","GRANTVILLE","GA","30220"
102723,"2 POTOMAC DRIVE SUITE A","FAIRVIEW HEIGHTS","IL","62208"
102724,"2 PPG PL STE 400","PITTSBURGH","PA","15222"
102725,"2 PPG PLACE STE 400","PITTSBURGH","PA","15222"
102726,"2 PPG PLACE SUITE 400","PITTSBURGH","PA","15222"
102727,"2 PRINCE ST SUITE4200","BROOKLYN","NY","11201"
102728,"2 PROGRESS DRIVE 4250","HALFMOON","NY","12065"
102729,"2 PROSPECT PKWY","PORTSMOUTH","VA","23702"
102730,"2 PROSPECT VILLAGE PLAZA","CLIFTON","NJ","07013"
102731,"2 PROVING GROUND ROAD","LAKEHURST","NJ","08733"
102732,"2 PURITAN AVE","BARRINGTON","RI","02806"
102733,"2 QUEENS COURT","PITTSBURGH","PA","15238"
102734,"2 QUIET CT","MILLER PLACE","NY","11764"
102735,"2 RACEWAY DRIVE","BRASELTON","GA","30517"
102736,"2 RADNEY CIRCLE","HOUSTON","TX","77024"
102737,"2 RAINBOW DRIVE","MAYS LANDING","NJ","08330"
102738,"2 RAM CT","FAIRVIEW HEIGHTS","IL","62208"
102739,"2 RAVENGLASS DRIVE","STAMFORD","CT","06903"
102740,"2 RAYMOND DRIVE","WOODSTOCK","NY","12498"
102741,"2 REARDON ROAD","HUDSON","MA","01749"
102742,"2 RECTOR STREET","BETHEL","CT","06801"
102743,"2 RED HAWK LANE","WEST CHESTER","PA","19382"
102744,"2 REED PARKWAY","MARCELLUS","NY","13108"
102745,"2 REEMS CT","HOPKINS","SC","29061"
102746,"2 REGALO DRIVE","MISSION VIEJO","CA","92692"
102747,"2 REGINA DR","CHELMSFORD","MA","01824"
102748,"2 REICHERT AVENUE","TRENTON","NJ","08610"
102749,"2 REIZEN AVE","CENTEREACH","NY","11720"
102750,"2 RENFREW PARK","MIDDLETOWN","RI","02842"
102751,"2 RESEARCH PLACE SUITE 300","ROCKVILLE","MD","20850"
102752,"2 RESEARCH WAY","PRINCETON","NJ","08540"
102753,"2 RIDE AVENUE","NATICK","MA","01760"
102754,"2 RIDGE AVENUE","NATICK","MA","01760"
102755,"2 RIDGEVIEW DRIVE","LITTLE ROCK","AR","72227"
102756,"2 RIVER TERRACE APT 12L","NEW YORK","NY","10282"
102757,"2 RIVERSIDE DRIVE","WILKES BARRE","PA","18702"
102758,"2 RIVERSIDE LANE","HOLMDEL","NJ","07733"
102759,"2 ROCKRIDGE CIRCLE","BRIDGEPORT","CT","06606"
102760,"2 ROCKY POOL LANE","LEVITTOWN","PA","19055"
102761,"2 RODING CIRCLE","BELLA VISTA","AR","72715"
102762,"2 RODNEY LANE","NEW MILFORD","CT","06776"
102763,"2 ROSE STREET","WOOD-RIDGE","NJ","07075"
102764,"2 ROUTE 31 NORTH","PENNINGTON","NY","08534"
102765,"2 ROUTE 37 EAST","SHERMAN","CT","06784"
102766,"2 RUDDER CT","LAKE ST LOUIS","MO","63367"
102767,"2 RUSSELL STREET","WINTERS","CA","95694"
102768,"2 S 25TH STREET APT 104","RICHMOND","VA","23223"
102769,"2 S 560 MAPLE TERRACE","WARRENVILLE","IL","60555"
102770,"2 S KINGSTON ROAD","NEWARK","DE","19713"
102771,"2 S LORNA LN","AIRMONT","NY","10952"
102772,"2 SADORE LN APT 4A","YONKERS","NY","10710"
102773,"2 SADOWA ST","SAN FRANCISCO","CA","94112"
102774,"2 SAINT ANDREWS COURT","NEW HOPE","PA","18938"
102775,"2 SAINT ANDREWS COURT","WEATAMTON","NJ","08060"
102776,"2 SAN DIEGO ROAD","PONTE VEDRA BEACH","FL","32082"
102777,"2 SANDALWOOD DR","WARREN","NJ","07059"
102778,"2 SANDHILL CRANE ROAD","HILTON HEAD ISLAND","SC","29928"
102779,"2 SANDWICH RD","PLYMOUTH","MA","02360"
102780,"2 SANTA CATRINA","RANCHO SANTA MARGARI","CA","92688"
102781,"2 SCENIC VIEW DRIVE","MONROEVILLE","PA","15146"
102782,"2 SCHOOL ROAD","MCGUIRE AFB","NJ","08641"
102783,"2 SCHWARTZ DRIVE APT M152","AUBURN","NY","13021"
102784,"2 SCRIVANI LANE","HAZLET","NJ","07730"
102785,"2 SCRIVANI","HAZLET","NJ","07730"
102786,"2 SEARLES RD","WINDHAM","NH","03087"
102787,"2 SENECA COURT","ACTON","MA","01720"
102788,"2 SETTLERS LANE","WENHAM","MA","01984"
102789,"2 SGT RICHARD QUINN DRIVE","WOODSTOCK","NY","12498"
102790,"2 SHAWNEE DRIVE","WENONAH","NJ","08090"
102791,"2 SHEFFIELD COURT","JACKSON","MS","39211"
102792,"2 SIERRA VISTA RD","ALPINE","TX","79830"
102793,"2 SIGNAL HILL ROAD","CHERRY HILL","NJ","08003"
102794,"2 SMITH AVENUE","MANSFIELD","OH","44905"
102795,"2 SMITH BRIDGE ROAD","SARATOGA SPRINGS","NY","12866"
102796,"2 SNOW FOREST COVE","SANDY","UT","84092"
102797,"2 SONJA MARIA","SOUTH EASTON","MA","02375"
102798,"2 SORREL LANE","LEMONT","IL","60439"
102799,"2 SOUTH 35TH AVENUE PO BOX 19201","PHOENIX","AZ","85009"
102800,"2 SOUTH 35TH AVENUE","PHOENIX","AZ","85009"
102801,"2 SOUTH BISCAYNE BLVD SUITE 2300","MIAMI","FL","33131"
102802,"2 SOUTH BISCAYNE BLVD SUITE 3760","MIAMI","FL","33131"
102803,"2 SOUTH BRIDGE DRIVE","AGAWAM","MA","01001"
102804,"2 SOUTH CENTRAL   PO BOX 370","CASEY","IL","62420"
102805,"2 SOUTH EASTON ROAD","GLENSIDE","PA","19038"
102806,"2 SOUTH EWING","HELENA","MT","59601"
102807,"2 SOUTH GEORGIA AVENUE","ATLANTIC CITY","NJ","08401"
102808,"2 SOUTH MAIN STE 2G","HEBER CITY","UT","84032"
102809,"2 SOUTH MAIN STREET","MIDDLETOWN","OH","45044"
102810,"2 SOUTH MAIN","SOUTH HUTCHINSON","KS","67505"
102811,"2 SOUTH MICKEY MANTLE DRIVE","OKLAHOMA CITY","OK","73104"
102812,"2 SOUTH WATER STREET","EDGARTOWN","MA","02539"
102813,"2 SOUTHGATE RD","OLD TOWN","ME","04468"
102814,"2 SPA CREEK LANDING UNIT A1","ANNAPOLIS","MD","21403"
102815,"2 SQUIRREL","NORTH OAKS","MN","55127"
102816,"2 STADLER HEIGHTS","WINSTED","CT","06098"
102817,"2 STALLION COURT","CHARLESTON","SC","29407"
102818,"2 STANFORD PLACE","PRINCETON JUNCTION","NJ","08550"
102819,"2 STATE STREET 1400 CROSSROADS BLDG","ROCHESTER","NY","14614"
102820,"2 STATE STREET","GORHAM","ME","04038"
102821,"2 STEPHENVILLE PARKWAY","EDISON","NJ","08820"
102822,"2 STIRRUP BROOK LANE","NORTHBOROUGH","MA","01532"
102823,"2 STONE HILL COURT","HACKETTSTOWN","NJ","07840"
102824,"2 STONEWOOD CIRCLE","NORTH ATTLEBORO","MA","02760"
102825,"2 STONY BROOK ROAD","SLOATSBURG","NY","10974"
102826,"2 STRATHMORE ROAD UNIT 3","BROOKLINE","MA","02445"
102827,"2 STUYVESANT OVAL 6A","NEW YORK","NY","10009"
102828,"2 SUGAR FALLS LANE","ANNISTON","AL","36207"
102829,"2 SUGAR HILL RD","HUNTSVILLE","TX","77320"
102830,"2 SUMMER STREET STE 35","NATICK","MA","01760"
102831,"2 SUNSET RDG","LEXINGTON","MA","02421"
102832,"2 SUTTER ST STE B","RED BLUFF","CA","96080"
102833,"2 TAYLOR WAY","MORGANTOWN","WV","26508"
102834,"2 TECUMSEH RIDGE","WHARTON","NJ","07885"
102835,"2 TEMPE WICK ROAD PO BOX 262","MENDHAM","NJ","07945"
102836,"2 TENTMILL LANE UNIT B","PIKESVILLE","MD","21208"
102837,"2 TEPEE RD","LAKE HOPATCONG","NJ","07849"
102838,"2 TERRA BELLA DRIVE","MANVEL","TX","77578"
102839,"2 TERRACE AVE","OSSINING","NY","10562"
102840,"2 THORNE COURT","BETHPAGE","NY","11714"
102841,"2 TIMOTHY AVE","KENDALL PARK","NJ","08824"
102842,"2 TIMOTHY STREET","FAIRHAVEN","MA","02719"
102843,"2 TREESCAPE CIRCLE","SPRING","TX","77381"
102844,"2 TRINITY PLACE","NORWALK","CT","06854"
102845,"2 TRUMAN CT","AMERICAN CANYON","CA","94503"
102846,"2 TULIP ST","SALEM","MA","01970"
102847,"2 TULLACH PLACE","HAYWARD","CA","94542"
102848,"2 TURES PLACE","MONTCLAIR","NJ","07043"
102849,"2 TUTOR PLACE 2LS","NEW YORK","NY","10017"
102850,"2 TUXEDO DR","LIVINGSTON","NJ","07039"
102851,"2 UNAMI TRAIL","CHALFONT","PA","18914"
102852,"2 UNION PARK APT 1","BOSTON","MA","02118"
102853,"2 UNION STREET SUITE 400","PORTLAND","ME","04101"
102854,"2 VAN BEUREN RD","MORRISTOWN","NJ","07960"
102855,"2 VAN BUREN CT","DELAWARE","DE","19977"
102856,"2 VAN HOUTEN AVENUE","BUTLER","NJ","07405"
102857,"2 VAN ZANT ST","NORWALK","CT","06855"
102858,"2 VAQUERO LN","CARSON","CA","90745"
102859,"2 VERMONT AVE","JACKSON","NJ","08527"
102860,"2 VICKIE BLVD","BEDFORD","PA","15522"
102861,"2 VICTORIAN LANE","FAIRFIELD","NJ","07004"
102862,"2 VILLAGE LANE","SELDEN","NY","11784"
102863,"2 VINEYARD WAY","MOUNT SINAI","NY","11766"
102864,"2 VISTA PALM LANE  UNIT 104","VERO BEACH","FL","32962"
102865,"2 VT-100","WESTON","VT","05161"
102866,"2 W 2ND ST STE 700","TULSA","OK","74103"
102867,"2 W 7TH ST","ANTIOCH","CA","94509"
102868,"2 W ALABAMA AVE","CASEY","IL","62420"
102869,"2 W FRONT STREET","WASHINGTON","MO","63090"
102870,"2 W MAIN ST","MENDHAM","NJ","07945"
102871,"2 WALKER RD APT 8","NORTH ANDOVER","MA","01845"
102872,"2 WALLACE AVE","BUFFALO","NY","14214"
102873,"2 WARREN STREET","MAYNARD","MA","01754"
102874,"2 WASHINGTON SQUARE - 2A","LARCHMONT","NY","10538"
102875,"2 WASHINGTON SQUARE APT M2","LARCHMONT","NY","10538"
102876,"2 WASHINGTON ST APT 402","MELROSE","MA","02176"
102877,"2 WASHINGTON STREET PO BOX 202","LIVONIA","NY","14487"
102878,"2 WATER CLUB WAY 801","NORTH PALM BEACH","FL","33408"
102879,"2 WATER STREET","LEBANON","NJ","08833"
102880,"2 WEST 111TH STREET APT 1E","NEW YORK","NY","10026"
102881,"2 WEST 45TH STREET SUITE 1208","NEW YORK","NY","10036"
102882,"2 WEST 9TH STREET","CHESTER","PA","19013"
102883,"2 WEST BLVD N","DAVENPORT","FL","33837"
102884,"2 WEST BROADWAY","GETTYSBURG","PA","17325"
102885,"2 WEST COURT","RHINEBECK","NY","12572"
102886,"2 WEST LAFAYETTE ST","NORRISTOWN","PA","19401"
102887,"2 WEST MAIN STREET SUITE 500","UNIONTOWN","PA","15401"
102888,"2 WEST MAIN STREET","BURKITTSVILLE","MD","21718"
102889,"2 WEST MAIN STREET","CHILLICOTHE","OH","45601"
102890,"2 WEST MAIN STREET","GRAFTON","WV","26354"
102891,"2 WEST MEMORY LANE","MT.  PROSPECT","IL","60056"
102892,"2 WEST NEWLANDS STREET","CHEVY CHASE","MD","20815"
102893,"2 WEST SECOND STREET  SUITE 700","TULSA","OK","74103"
102894,"2 WEST SECOND STREET","TULSA","OK","74103"
102895,"2 WESTHILL RD","SADDLE RIVER","NJ","07458"
102896,"2 WESTOVER CT","EASTAMPTON","NJ","08060"
102897,"2 WESTWOOD AVE","LAKEWOOD","NJ","08701"
102898,"2 WHARFSIDE ST UNIT 3 O","CHARLESTON","SC","29401"
102899,"2 WHEATON CENTER  APT 1410","WHEATON","IL","60187"
102900,"2 WHEELER AAF","WAHIAWA","HI","96786"
102901,"2 WILSON DRIVE","SPARTA","NJ","07871"
102902,"2 WINDCREST DRIVE","TYNGSBORO","MA","01879"
102903,"2 WINDGATE","MISSION VIEJO","CA","92692"
102904,"2 WINDING WOODS WAY","FREEHOLD","NJ","07728"
102905,"2 WINDSOR AVE","HOPATCONG","NJ","07843"
102906,"2 WINNIE ROAD","CENTER MORICHES","NY","11934"
102907,"2 WINSTON PLACE","WILMINGTON","DE","19804"
102908,"2 WINTHROP DR","WOODCLIFF LAKE","NJ","07677"
102909,"2 WISCONSIN CIR STE 700","CHEVY CHASE","MD","20815"
102910,"2 WITTE PLACE","MAHWAH","NJ","07430"
102911,"2 WOODCREST CIRCLE","BARNHART","MO","63012"
102912,"2 WOODCREST DRIVE","LIVINGSTON","NJ","07039"
102913,"2 WOODPATH LANE","SAINT PETERS","MO","63376"
102914,"2 WRECK COURT","SAYREVILLE","NJ","08872"
102915,"2 WYMAN ROAD","MARBLEHEAD","MA","01945"
102916,"2 WYMBERLY WAY COURT","SAVANNAH","GA","31406"
102917,"2 XAVIER CIRCLE","BIRMINGHAM","AL","35213"
102918,"2 YOXALL CT","ORISKANY","NY","13424"
102919,"2-134","CLEMSON","SC","29634"
102920,"2-25 35TH STREET","FAIR LAWN","NJ","07410"
102921,"2-304 NATHAN PRATT DRIVE","CONCORD","MA","01742"
102922,"2-4035 KAUMUALII HWY","KOLOA","HI","96756"
102923,"2-A FARMERS LANE","NEW FAIRFIELD","CT","06812"
102924,"2","AQUILLA","TX","76622"
102925,"2","BEND","OR","97701"
102926,"2","BRIDGEPORT","CT","06608"
102927,"2","FRANKLINVILLE","NY","14737"
102928,"2","INDIANAPOLIS","IN","46205"
102929,"2","LANOKA HARBOR","NJ","08734"
102930,"2","LEWISBURG","KY","42256"
102931,"2","OKLAHOMA CITY","OK","73170"
102932,"2","PHILADELPHIA","PA","19132"
102933,"2","SIOUX FALLS","SD","57197"
102934,"2","WEST UNION","SC","29696"
102935,"20  19TH AVENUE   NUMBER 3","VENICE","CA","90291"
102936,"20  E COLUMBIA ST","LOGANSPORT","IN","46947"
102937,"20 10TH AVENUE SOUTH APT 6","KIRKLAND","WA","98033"
102938,"20 10TH STREET  UNIT 1904","ATLANTA","GA","30309"
102939,"20 118TH STREET","TROY","NY","12182"
102940,"20 1ST STREET","TOMALES","CA","94971"
102941,"20 21ST AVENUE NW","CENTER POINT","AL","35215"
102942,"20 2ND ST NE UNIT 2502","MINNEAPOLIS","MN","55413"
102943,"20 8TH STREET APT 2","AUBURN","ME","04210"
102944,"20 ABE VOORHEES DR","MANASQUAN","NJ","08736"
102945,"20 ACORN ROAD","CASA BLANCA","NM","87007"
102946,"20 ADDISON AVE","FRANKLIN","MA","02038"
102947,"20 ADELE STREET","LADERA RANCH","CA","92694"
102948,"20 ADLER PLACE","SAINT JOHNS","FL","32259"
102949,"20 ALAMO AVE","RICHMOND","CA","94801"
102950,"20 ALDER ROAD","NORTON","MA","02766"
102951,"20 ALFRED DRIVE","PITTSFIELD","MA","01201"
102952,"20 ALICE STREET","EAST PROVIDENCE","RI","02914"
102953,"20 ALLEN AVE SUITE 341","SAINT LOUIS","MO","63119"
102954,"20 ANCHORAGE POINTE","LOUISVILLE","KY","40223"
102955,"20 ANDERSON DR","DUE WEST","SC","29639"
102956,"20 ARBOR CIRCLE","EDISON","NJ","08837"
102957,"20 ARCHBISHOP MAY DRIVE","ST LOUIS","MO","63119"
102958,"20 ASHLEY LN","CHAMPAIGN","IL","61820"
102959,"20 ASHWOOD DRIVE","HAMPTON","VA","23666"
102960,"20 AUDUBON POND ROAD","HILTON HEAD ISLAND","SC","29928"
102961,"20 AUGUST ALP COURT","SAINT CHARLES","MO","63303"
102962,"20 AUGUSTA DR","TRINITY","TX","75862"
102963,"20 BAILEY AVE 3","PITTSBURGH","PA","15211"
102964,"20 BARBOUR STREET","NORTH ADAMS","MA","01247"
102965,"20 BARCARDI CIRCLE","YORK","PA","17404"
102966,"20 BAYBERRY DRIVE","SADDLE RIVER","NJ","07458"
102967,"20 BEDFORD PARK","BRIDGEWATER","MA","02324"
102968,"20 BEECHWOOD DRIVE","MORRISTOWN","NJ","07960"
102969,"20 BEECHWOOD LANE","EAST HANOVER","NJ","07936"
102970,"20 BEEKMAN PL APT 4A","NEW YORK","NY","10022"
102971,"20 BELCHERTOWN ROAD","AMHERST","MA","01002"
102972,"20 BELLA ROSA COURT","LITTLE ROCK","AR","72223"
102973,"20 BELVEDERE COURT","WINNSBORO","SC","29180"
102974,"20 BENOIT COURT","SACRAMENTO","CA","95823"
102975,"20 BERING WAY","SOMERSET","NJ","08873"
102976,"20 BERLAMO","RANCHO SANTA MARGARI","CA","92688"
102977,"20 BEVERLY WAY","PEMBROKE","MA","02359"
102978,"20 BISHOPS FOREST DRIVE","WALTHAM","MA","02452"
102979,"20 BLACKBERRY HILL RD","BERWICK","ME","03901"
102980,"20 BLACKWELL STREET","FORT RUCKER","AL","36362"
102981,"20 BLUEBERRY HILL ROAD","SPRING VALLEY","NY","10901"
102982,"20 BONNIE COURT","WALLINGFORD","CT","06492"
102983,"20 BOONTON TPK","LINCOLN PARK","NJ","07035"
102984,"20 BOSTON COURT","NEWARK","NJ","07103"
102985,"20 BOYCE DR","BELLA VISTA","AR","72715"
102986,"20 BOYCE DRIVE","BELLA VISTA","AR","72715"
102987,"20 BRAMBLE CT","HAMBURG","NJ","07419"
102988,"20 BRENTON TERRACE","HAMDEN","CT","06518"
102989,"20 BROMLEY CIRCLE","CHESWICK","PA","15024"
102990,"20 BROOK ROAD - P O BOX 27","WEST HALIFAX","VT","05358"
102991,"20 BROOK ST","JAMESTOWN","RI","02835"
102992,"20 BROOKWAY TERRACE STE 349","ROSLINDALE","MA","02131"
102993,"20 BROOKWOOD DRIVE","MEDFORD","NJ","08055"
102994,"20 BROWN DRIVE","HAMILTON SQUARE","NJ","08690"
102995,"20 BRYANT STREET","PITTSFIELD","MA","01201"
102996,"20 BUCKEYE DR","ST LOUIS","MO","63135"
102997,"20 BUCKNELL DRIVE","PLAINVIEW","NY","11803"
102998,"20 BURGUNDY TERRACE","BEDFORD","NH","03110"
102999,"20 BUS LANE","LAUREL","MT","59044"
103000,"20 BUTLER ST  APT 1","TORRINGTON","CT","06790"
