"ID","Address","City","State","Zip"
152501,"2831 ST ROSE PARKWAY SUITE 200","HENDERSON","NV","89052"
152502,"2831 W LAWRENCE AVE","CHICAGO","IL","60625"
152503,"2831 WEST 1ST STREET","SANTA ANA","CA","92703"
152504,"2831 WEST TENTH STREET","CHESTER","PA","19013"
152505,"2831 WILD TAMARIND BLVD","ORLANDO","FL","32828"
152506,"28310 52ND AVE S","AUBURN","WA","98001"
152507,"28310 ROADSIDE DR STE 251","AGOURA","CA","91301"
152508,"28313 N 112TH WAY","SCOTTSDALE","AZ","85262"
152509,"28315 PEPER HOLLOW LANE","SPRING","TX","77386"
152510,"2832 CAPE HOPE WAY","LAS VEGAS","NV","89121"
152511,"2832 EADS AVE","ST. LOUIS","MO","63104"
152512,"2832 FAIRVIEW RD","CAMP HILL","PA","17011"
152513,"2832 LEELAND ST","HOUSTON","TX","77003"
152514,"2832 LIVE OAK PARK RD","FALLBROOK","CA","92028"
152515,"2832 LOFTVIEW SQUARE","ATLANTA","GA","30339"
152516,"2832 MYRTLE AVENUE NE","WASHINGTON","DC","20018"
152517,"2832 N 70TH AVENUE","OMAHA","NE","68104"
152518,"2832 N UNIVERSITY DR","CORAL SPRINGS","FL","33065"
152519,"2832 NORTH KINGS ROAD","VIRGINIA BEACH","VA","23452"
152520,"2832 NW 170TH COURT","EDMOND","OK","73012"
152521,"2832 NW 55TH AVENUE APT 1D","LAUDERHILL","FL","33313"
152522,"2832 OAK GLEN COURT","GRAND PRAIRIE","TX","75052"
152523,"2832 POLELINE AVE","POST FALLS","ID","83854"
152524,"2832 RIVERSIDE AVE","JACKSONVILLE","FL","32205"
152525,"2832 ROCKBRIDGE DRIVE","HIGHLANDS RANCH","CO","80129"
152526,"2832 SOUTH 8200 WEST","MAGNA","UT","84044"
152527,"2832 STATE ROUTE 59","RAVENNA","OH","44266"
152528,"2832 SUNSET AVE","WAUKEGAN","IL","60087"
152529,"2832 SUNSETRIDGE CT","DELTONA","FL","32725"
152530,"2832 TULIPAN LOOP SE","RIO RANCHO","NM","87124"
152531,"2832 W TOUHY","CHICAGO","IL","60645"
152532,"2832 WAGNER DRIVE","BURLINGTON","NC","27215"
152533,"2833 13TH AVE SOUTH SUITE 121","MINNEAPOLIS","MN","55407"
152534,"2833 ALABAMA AVE SE SUITE 30259","WASHINGTON","DC","20030"
152535,"2833 ALABAMA AVE SE SUITE 30259","WASHINGTON","DC","20032"
152536,"2833 ALABAMA AVENUE","WASHINGTON","DC","02302"
152537,"2833 E MALLORY ST","MESA","AZ","85213"
152538,"2833 EAGLE EYE COURT","KISSIMMEE","FL","34746"
152539,"2833 GRANDEUR AVENUE","ALTADENA","CO","91101"
152540,"2833 HAZEL GROVE LANE","OVIEDO","FL","32766"
152541,"2833 HORSEMANS RIDGE DRIVE","CLAYTON","NC","27520"
152542,"2833 MEADOW WOOD CIR","ANCHORAGE","AK","99516"
152543,"2833 MEADOWMONT LANE","FAYETTEVILLE","NC","28306"
152544,"2833 MONTICELLO DRIVE","WINSTON SALEM","NC","27106"
152545,"2833 MOSSWOOD DRIVE","LODI","CA","95242"
152546,"2833 N 14TH ST","ST LOUIS","MO","63107"
152547,"2833 NIHI ST","HONOLULU","HI","96819"
152548,"2833 NW 91ST AVE APT 104","CORAL SPRINGS","FL","33065"
152549,"2833 PEBBLE BEACH DRIV","FLAGSTAFF","AZ","86004"
152550,"2833 RIO VISTA DR","EMPORIA","KS","66801"
152551,"2833 RIVIERA BLVD","MALAGA","WA","98828"
152552,"2833 SMITH AVE STE 223","BALTIMORE","MD","21209"
152553,"2833 SMITH AVE STE 351","BALTIMORE","MD","21209"
152554,"2833 SMITH AVENUE STE 268","BALTIMORE","MD","21209"
152555,"2833 TENNESSEE STREET","VALLEJO","CA","94591"
152556,"2833 THISTLEBERRY COURT","HERNDON","VA","20171"
152557,"2833 VILLA CIRCLE","NORFOLK","VA","23504"
152558,"28331 466TH AVENUE","LENNOX","SD","57039"
152559,"28331 NE 112TH AVE","BATTLE GROUND","WA","98604"
152560,"28339 FISHER RD","MILTON","DE","19968"
152561,"28339 FISHER ROAD","MILTON","DE","19968"
152562,"2834 ALLESANDRA CT","LANCASTER","CA","93535"
152563,"2834 ANZA ST","SAN FRANCISCO","CA","94121"
152564,"2834 ANZA STREET","SAN FRANCISCO","CA","94121"
152565,"2834 AQUADUCT STREET","CHARLESTON","SC","29414"
152566,"2834 BRUNSWICK DRIVE","CLARKSVILLE","TN","37043"
152567,"2834 CEDAR GLADE DR","NAPERVILLE","IL","60564"
152568,"2834 CYNTHIA ROAD - A","PALMER","TX","75152"
152569,"2834 E 118TH ST","CLEVELAND","OH","44120"
152570,"2834 E 47TH ST","TULSA","OK","74105"
152571,"2834 E 4TH STREET","TUCSON","AZ","85716"
152572,"2834 HAMNER AVE STE 234","NORCO","CA","92860"
152573,"2834 HARRISON STREET","KANSAS CITY","MO","64109"
152574,"2834 KAIMUKI AVE APT 3","HONOLULU","HI","96816"
152575,"2834 KAYE DRIVE","THOMPSONS STATION","TN","37179"
152576,"2834 LIBWOOD AVE","N CHESTERFIELD","VA","23237"
152577,"2834 NE 50TH AVE","PORTLAND","OR","97213"
152578,"2834 NW 31ST TER","GAINESVILLE","FL","32605"
152579,"2834 R STREET SE SUITE 6","WASHINGTON","DC","20020"
152580,"2834 S FAIRVIEW","SANTA ANA","CA","92704"
152581,"2834 STAFFORD DR","MARKHAM","IL","60428"
152582,"2834 TWP RD 25","ADA","OH","45810"
152583,"2834 UPTON STREET SOUTH","GULFPORT","FL","33711"
152584,"2834 W CHASE AVE","CHICAGO","IL","60645"
152585,"2834","ABBEVILLE","SC","29620"
152586,"28345 STREAMWOOD DR","BEECHER","IL","60401"
152587,"2835 245TH ST","AINSWORTH","IA","52201"
152588,"2835 CLAXTON DAIRY RD","DUBLIN","GA","31021"
152589,"2835 EAST SOUTHERN HILLS BLVD","SPRINGFIELD","MO","65804"
152590,"2835 ELEANOR AVE","LOUISVILLE","KY","40205"
152591,"2835 FURNACE JCT","RAVENNA","KY","40472"
152592,"2835 HAYNES RD","PULASKI","VA","24301"
152593,"2835 JUDAH STREET","SAN FRANCISCO","CA","94122"
152594,"2835 KIMBERLEY RD","ANN ARBOR","MI","48104"
152595,"2835 MONTICELLO DR","HOUSTON","TX","77045"
152596,"2835 N SHEFFIELD SUITE 404","CHICAGO","IL","60657"
152597,"2835 NE 7TH ST APT B","OCALA","FL","34470"
152598,"2835 NORTHRIDGE DRIVE NO 4","PORTAGE","WI","53901"
152599,"2835 OTIS STREET NE","WASHINGTON","DC","20018"
152600,"2835 PLANTATION WOOD LANE","MISSOURI CITY","TX","77459"
152601,"2835 REGENT STREET","BERKELEY","CA","94705"
152602,"2835 SANBORN AVENUE","LA CRESCENTA","CA","91214"
152603,"2835 SPRINGHAVEN PL","MACUNGIE","PA","18062"
152604,"2835 TEE ROAD SW","ATLANTA","GA","30311"
152605,"2835 W FRENCH PL","SAN ANTONIO","TX","78228"
152606,"2835 WESTRIDGE RD","RIVERSIDE","CA","92506"
152607,"2835 WILSON COMMON","FREMONT","CA","94538"
152608,"2835 ZELDA ROAD SUITE 10","MONTGOMERY","AL","36106"
152609,"28351 AGOURA ROAD STE C","AGOURA HILLS","CA","91301"
152610,"28351 SENECA ST","FLAT ROCK","MI","48134"
152611,"28353 US HWY 169","ONAMIA","MN","56359"
152612,"28354 WILDWOOD TRAIL","FARMINGTON HILLS","MI","48336"
152613,"28355 CALEX DRIVE","SANTA CLARITA","CA","91354"
152614,"28355 MURCIA ST","HAYWARD","CA","94544"
152615,"28358 MERRIDY AVE","HIGHLAND","CA","92346"
152616,"2836 BEATY CT","FORT WORTH","TX","76112"
152617,"2836 BERRY WAY","SCHERTZ","TX","78154"
152618,"2836 BLUFFS CT","MCKINNEY","TX","75071"
152619,"2836 CHAPEL CREEK","LAMBERTVILLE","MI","48144"
152620,"2836 COUNCIL OAK DRIVE","SOUTH BEND","IN","46628"
152621,"2836 E DURBAN RD","SANDY","UT","84093"
152622,"2836 FILBERT ST","ANTIOCH","CA","94509"
152623,"2836 HILLVIEW LANE","LANCASTER","TX","75134"
152624,"2836 LANDING WAY","MARIETTA","GA","30066"
152625,"2836 MYRTLE STREET","OAKLAND","CA","94608"
152626,"2836 N 22ND ST","PHILADELPHIA","PA","19132"
152627,"2836 N VERDUGO RD","GLENDALE","CA","91208"
152628,"2836 OAK CREST DR","GRAND PRAIRIE","TX","75052"
152629,"2836 STATE HIGHWAY 14 N","CERILLOS","NM","87010"
152630,"2836 TRARES ROAD","MOGADORE","OH","44260"
152631,"2836 WEST PICO BLVD","LOS ANGELES","CA","90006"
152632,"2836 WHITEVIEW DR","ACWORTH","GA","30101"
152633,"28360 ORCHID COURT","PLYMOUTH","MN","56438"
152634,"28363 CONNIE CT","CANYON COUNTRY","CA","91387"
152635,"28364 S WESTERN AVE 65","PALOS VERDES","CA","90275"
152636,"28364 S WESTERN AVENUE SUITE 462","RANCHO PALOS VERDES","CA","90275"
152637,"28364 STANSFIELD LANE","SANTA CLARITA","CA","91350"
152638,"28367 NANTICOKE AVE","MILLSBORO","DE","19966"
152639,"28368 CONSTELLATION RD UNIT 340 B","VALENCIA","CA","91355"
152640,"28369 RIVER CREST DR","SOUTHFIELD","MI","48034"
152641,"2837 171ST","HAMMOND","IN","46323"
152642,"2837 BORDER AVE","JOSHUA TREE","CA","92252"
152643,"2837 BUTTERFLY LANDING DR","LAND O LAKES","FL","34638"
152644,"2837 CASTIGLIONE STREET","NEW ORLEANS","LA","70119"
152645,"2837 GRIGGSTOWN RD","CALVERT CITY","KY","42029"
152646,"2837 LINCOLN CT","NATIONAL CITY","CA","91950"
152647,"2837 MAYFAIR AVENUE","HENDERSON","NV","89074"
152648,"2837 N 24TH PL","MILWAUKEE","WI","53206"
152649,"2837 POWDER MILL RD","ADELPHI","MD","20783"
152650,"2837 SCHAEFER CIRCLE","APPLETON","WI","54915"
152651,"2837 SHANE DRIVE","RICHMOND","CA","94806"
152652,"28371 BRODIAEA AVE","MORENO VALLEY","CA","92555"
152653,"28373 MIDLAND TRL","HICO","WV","25854"
152654,"2838 28TH ST NW","WASHINGTON","DC","20008"
152655,"2838 29TH ST FL 2","ASTORIA","NY","11102"
152656,"2838 ANDREW AVE","PASCAGOULA","MS","39567"
152657,"2838 CASTY COURT","SANGER","CA","93657"
152658,"2838 COOLIDGE HWY STE 101","BERKLEY","MI","48072"
152659,"2838 FARRAGUT RD 125","SAN DIEGO","CA","92106"
152660,"2838 GREENWOOD ACRES DRIVE","DEKALB","IL","60115"
152661,"2838 HARTFORD STREET SE UNIT 301","WASHINGTON","DC","20020"
152662,"2838 LAKE BLVD","NORTH SAINT PAUL","MN","55109"
152663,"2838 MAPLETON AVE","NORFOLK","VA","23504"
152664,"2838 RUFFNER RD","BIRMINGHAM","AL","35210"
152665,"28383 TASCA DR","BONITA SPRINGS","FL","34135"
152666,"28384 FRANKLIN RD","SOUTHFIELD","MI","48034"
152667,"28386 FRANKLIN RD","SOUTHFIELD","MI","48034"
152668,"28388 REDWING AVE","SHAFER","MN","55074"
152669,"2839 BATESTOWN RD","OAKWOOD","IL","61858"
152670,"2839 CAMINO SERBAL","CARLSBAD","CA","92009"
152671,"2839 CHEROKEE","SAINT LOUIS","MO","63118"
152672,"2839 EKOM BEACH RD","LAURENS","SC","29360"
152673,"2839 FALCON RIDGE DRIVE","SPARKS","NV","89436"
152674,"2839 FREDERICK AVENUE","BALTIMORE","MD","21223"
152675,"2839 GOODMAN RIDGE DR","MISSOURI CITY","TX","77459"
152676,"2839 JAMESTOWN GUNNERSVILLE RD","JAMESTOWN","OH","45335"
152677,"2839 N BELLOWOOD STREET","WICHITA","KS","67205"
152678,"2839 RIDGE RD","INDIAN TRAIL","NC","28079"
152679,"2839 S LINDEN","WICHITA","KS","67210"
152680,"2839 SAIL BREEZE WAY","KISSIMMEE","FL","34744"
152681,"2839 SOLANO DEL SOL DR NE","RIO RANCHO","NM","87144"
152682,"2839 SW 83RD TER","MIRAMAR","FL","33025"
152683,"2839 SW BERKSHIRE DR","TOPEKA","KS","66614"
152684,"2839 W TOPAZ DRIVE","FAYETTEVILLE","AR","72704"
152685,"2839 WATERFALL WAY","WESTLAKE","OH","44145"
152686,"28390 MAYFAIR DR","VALENCIA","CA","91354"
152687,"28393 EAST BURNETT ROAD","ISLAND LAKE","IL","60042"
152688,"284 ARIEL DR","LEESBURG","VA","20176"
152689,"284 BEAUFORT AVENUE","LIVINGSTON","NJ","07039"
152690,"284 CAMPBELL DRIVE","HARTWELL","GA","30643"
152691,"284 CEDAR ROAD","MULLICA HILL","NJ","08062"
152692,"284 CHERRY AVENUE APT 1","LONG BEACH","CA","90802"
152693,"284 CINNAMON WAY","CLEMMONS","NC","27012"
152694,"284 COUNTY ROAD 32 SOUTH","BELLEFONTAINE","OH","43311"
152695,"284 EAGLE CREST COURT","KALISPELL","MT","59901"
152696,"284 GANSEVOORT BLVD","STATEN ISLAND","NY","10314"
152697,"284 HIGHLANDS LANE","MARTINEZ","GA","30907"
152698,"284 HIGHLINE RD","LAKE OZARK","MO","65049"
152699,"284 HURST RD NE","PALM BAY","FL","32907"
152700,"284 LA SERENA WAY","SONOMA","CA","95476"
152701,"284 LARCHWOOD DR","LARGO","FL","33770"
152702,"284 LASSEN AVE","MOUNTAIN VIEW","CA","94043"
152703,"284 LONG VIEW LANE","KENNETT SQUARE","PA","19348"
152704,"284 LYNNBANK ESTATES RD","KITTRELL","NC","27544"
152705,"284 MALIBU CIR","GREENACRES","FL","33413"
152706,"284 MARITIME STREET","HENDERSON","NV","89074"
152707,"284 MONCREST DR","CLARKSVILLE","TN","37042"
152708,"284 N GLASSELL ST","ORANGE","CA","92866"
152709,"284 NEW YORK AVE","BKLYN","NY","11216"
152710,"284 PACIFIC STREET APT 1","BROOKLYN","NY","11201"
152711,"284 RAINBOW DR","PAGOSA SPRINGS","CO","81147"
152712,"284 RIVER VALLEY DRIVE","CHESTERFIELD","MO","63017"
152713,"284 ROUTE 11","SUNAPEE","NH","03782"
152714,"284 S HARNEY STREET","CAMILLA","FL","31730"
152715,"284 SECOND STREET","VANCEBURG","KY","41179"
152716,"284 SEIGEL ST APT 2C","BROOKLYN","NY","11206"
152717,"284 SHEPARD AVENUE","HAMDEN","CT","06514"
152718,"284 SMITH FARM RD","LUFKIN","TX","75904"
152719,"284 SOUTH MAIN STREET SUITE 1200","ALPHARETTA","GA","30009"
152720,"284 SPRING ST UNIT 303","SAINT PAUL","MN","55102"
152721,"284 SUGAR RUN LANE","TOWANDA","PA","18848"
152722,"284 TURKEY HILL RD","RANDOLPH CTR","VT","05061"
152723,"284 VISTA RIDGE DR","DELAWARE","OH","43015"
152724,"284 WALKERS MILL RD","BETHEL","ME","04217"
152725,"284 WALLTOWN RD","GRAMPIAN","PA","16838"
152726,"284 WEST END STREET  APARTMENT 4B","NEW YORK","NY","10023"
152727,"284 WEST PALISADE AVE APT 1W","ENGLEWOOD","NJ","07631"
152728,"284 WHITE STREET","LEXINGTON","TN","38351"
152729,"284 WOODVILLE ROAD","FALMOUTH","ME","04105"
152730,"284 WYOMING AVENUE","KINGSTON","PA","18704"
152731,"284","NEWTON FALLS","OH","44444"
152732,"2840 134TH AVE NE","BELLEVUE","WA","98005"
152733,"2840 28TH STREET","BIRCHWOOD","WI","54817"
152734,"2840 BOUDINOT AVE","CINCINNATI","OH","45238"
152735,"2840 BRISTOL LANE","LODI","CA","95242"
152736,"2840 CAVELL AVENUE SOUTH","ST. LOUIS PARK","MN","55426"
152737,"2840 CHAMBERS BAY DR","STEILACOOM","WA","98388"
152738,"2840 CHAMPA STREET","DENVER","CO","80205"
152739,"2840 EAST 28TH STREET","ERIE","PA","16510"
152740,"2840 EAST 51ST STREET SUITE 205","TULSA","OK","74105"
152741,"2840 EASTLAKE AVE EAST APT 202","SEATTLE","WA","98102"
152742,"2840 FRASER STREET","GRAND RAPIDS","MN","55744"
152743,"2840 GREEN MILLS RD","COLUMBIA","TN","38401"
152744,"2840 IRONWOOD DR","GRAND PRAIRIE","TX","75052"
152745,"2840 KALAMA RIVER RD","KALAMA","WA","98625"
152746,"2840 N HIGHLANDS BLVD","AVON PARK","FL","33825"
152747,"2840 N MULLIGAN AVE","CHICAGO","IL","60634"
152748,"2840 N STOWELL AVE","MILWAUKEE","WI","53211"
152749,"2840 NORTH EAST 135TH STREET","ANTHONY","FL","32617"
152750,"2840 NW 152 TERRACE","OPA LOCKA","FL","33054"
152751,"2840 NW 152ND TERRACE","MIAMI","FL","33054"
152752,"2840 PEACHTREE ROAD NW 502","ATLANTA","GA","30305"
152753,"2840 PINE ROAD - UNIT F","HUNTINGDON VALLEY","PA","19006"
152754,"2840 PORTER ST SW","GRANDVILLE","MI","49418"
152755,"2840 PYTHAGORAS CIR","OCOEE","FL","34761"
152756,"2840 RIGGORY RIDGE ROAD","CHARLOTTESVILLE","VA","22911"
152757,"2840 ROBINSON PL SE NUMBER 302","WASHINGTON","DC","20020"
152758,"2840 ROBINSON ST","JACKSON","MS","39202"
152759,"2840 SHETLAND DRIVE","WINSTON SALEM","NC","27127"
152760,"2840 SOUTH PARCO AVE","ONTARIO","CA","91761"
152761,"2840 SOUTH PARK ROAD STE 202","HALLANDALE BEACH","FL","33009"
152762,"2840 US HIGHWAY 131 S","CADILLAC","MI","49601"
152763,"2840 VIA CONTESSA","HENDERSON","NV","89044"
152764,"2840 W CLARKSTON RD","LAKE ORION","MI","48362"
152765,"2840 WALNUT CREEK RD","MACON","GA","31211"
152766,"2840 WARM SPRINGS RD APT W4","COLUMBUS","GA","31904"
152767,"2840 WEST ALLRED CIRCLE","TAYLORSVILLE","UT","84129"
152768,"2840 WEST BAY DR NUMBER 141","BELLEAIR BLUFFS","FL","33770"
152769,"2840 WEST BAY DRIVE SUITE 304","BELLEAIR BLUFFS","FL","33770"
152770,"2840 WEST FOX CHASE CIRCLE","DOYLESTOWN","PA","18902"
152771,"2840 WILDERNESS PLACE","BOULDER","CO","80301"
152772,"2840 WINEBERRY","CONWAY","AR","72034"
152773,"2840 WISCONSIN 32","KRAKOW","WI","54137"
152774,"2840 WOOD HOLLOW LN","OVIEDO","FL","32766"
152775,"28400 RIDGE RD","MT AIRY","MD","21771"
152776,"28400 RUEHLE ST","SAINT CLAIR SHORES","MI","48081"
152777,"28401 SW 167TH AVENUE","HOMESTEAD","FL","33030"
152778,"28402 SW 129 PLACE","HOMESTEAD","FL","33033"
152779,"28402 VIA PASITO","SAN JUAN CAPISTRANO","CA","92675"
152780,"28404 ALGER BLVD","MADISON HEIGHTS","MI","48071"
152781,"28404 ALGER BLVD","MADISON HTS","MI","48071"
152782,"28409 NORTH 21ST AVENUE","PHOENIX","AZ","85085"
152783,"2841 24TH STREET","TUSCALOOSA","AL","35401"
152784,"2841 ANAHEIM STREET","ESCONDIDO","CA","92025"
152785,"2841 BARITE DRIVE","LAKE HAVASU CITY","AZ","86404"
152786,"2841 BOARDWALK DRIVE","ANN ARBOR","MI","48108"
152787,"2841 BROWNSVILLE ROAD","MOUNT VERNON","IL","62864"
152788,"2841 BRYANT AVENUE SOUTH","MINNEAPOLIS","MN","55408"
152789,"2841 CONGAREE RD","GADSDEN","SC","29052"
152790,"2841 EDWARDS STREET","MANHATTAN","KS","66502"
152791,"2841 EDWARDS STREET","MANHATTAN","KS","66503"
152792,"2841 HUGUENOT SPRINGS ROAD","MIDLOTHIAN","VA","23113"
152793,"2841 LOGAN STREET","NASHVILLE","TN","37211"
152794,"2841 LOVE LANE","FRIENDSWOOD","TX","77546"
152795,"2841 MERLE AVENUE","MODESTO","CA","95355"
152796,"2841 MONMOUTH RD","WRIGHTSTOWN","NJ","08562"
152797,"2841 MOUNTAIN CREST ROAD","JONESVILLE","NC","28642"
152798,"2841 N SILVER CREEK DR","PALMER","AK","99645"
152799,"2841 N WHIPPLE ST","CHICAGO","IL","60618"
152800,"2841 S 710 W","PRICE","UT","84501"
152801,"2841 TIERRA DRIVE 106","LINCOLN","NE","68516"
152802,"2841 WENDELL AVE","LIMA","OH","45805"
152803,"2841 WILDER ROAD","METAMORA","MI","48455"
152804,"2841 YELLOW CREEK RD","AKRON","OH","44333"
152805,"28411 KNICKERBOCKER RD","BAY VILLAGE","OH","44140"
152806,"28413 N 65TH STREET","CAVE CREEK","AZ","85331"
152807,"28414 PORTSMOUTH DRIVE","MENIFEE","CA","92586"
152808,"28416 LONGFELLOW LANE","ALBANY","LA","70711"
152809,"2842 32ND AVE S","SEATTLE","WA","98144"
152810,"2842 ARTHUR AVENUE","CAMDEN","NJ","08105"
152811,"2842 CENTREVILLE AVE","BELLEVILLE","IL","62269"
152812,"2842 FAIRBURN RD SW","ATLANTA","GA","30331"
152813,"2842 FRONT ST","CASTLE ROCK","CO","80104"
152814,"2842 GLADIOLUS LANE","DALLAS","TN","75233"
152815,"2842 GLADIOLUS LANE","DALLAS","TX","75233"
152816,"2842 LARK RISE","ROCKFORD","IL","61114"
152817,"2842 MAIN STREET SUITE 134","GLASTONBURY","CT","06033"
152818,"2842 MAIN STREET UNIT 305","GLASTONBURY","CT","06033"
152819,"2842 MERLOT DR SW","ALBUQUERQUE","NM","87121"
152820,"2842 OSPREY COVE PL 101","KISSIMMEE","FL","34746"
152821,"2842 SIERRA CANYON WAY","HACIENDA HEIGHTS","CA","91745"
152822,"2842 VIRGINIA AVENUE","HURRICAN","WV","25526"
152823,"2842 WEST 24TH STREET","BROOKLYN","NY","11224"
152824,"28422 CONSTELLATION ROAD 215","VALENCIA","CA","91355"
152825,"28425 N BLACK CANYON HWY 3037","PHOENIX","AZ","85085"
152826,"28426 VIA NANDINA","LAGUNA NIGUEL","CA","92677"
152827,"2843 11TH STREET","RIVERSIDE","CA","92507"
152828,"2843 27TH STREET S","FARGO","ND","58103"
152829,"2843 54TH STREET N","ST PETERSBURG","FL","33710"
152830,"2843 ASHWOOD RD","COLUMBIA","TN","38401"
152831,"2843 E GRAND RIVER 216","EAST LANSING","MI","48823"
152832,"2843 E STATE BLVD","FORT WAYNE","IN","46805"
152833,"2843 EAST GRAND RIVER AVE STE 221","EAST LANSING","MI","48823"
152834,"2843 EAST GRAND RIVER DRIVE STE 176","EAST LANSING","MI","48823"
152835,"2843 MIRA VISTA LN","ROCKWALL","TX","75032"
152836,"2843 N APPLE AVENUE","RIALTO","CA","92377"
152837,"2843 S BAYSHORE DR P1-D","MIAMI","FL","33133"
152838,"2843 S COCONINO VISTA","TUCSON","AZ","85713"
152839,"2843 SIKES LANE","TWINSBURG","OH","44087"
152840,"2843 TALIMORE CT","MARIETTA","GA","30066"
152841,"2843 TINDALL STREET","INDIANAPOLIS","IN","46203"
152842,"2843 VIA FLORENTINE ST","HENDERSON","NV","89074"
152843,"2843 W 15250 S","BLUFFDALE","UT","84065"
152844,"28436 SUNSET ROAD","VALLEY CENTER","CA","92082"
152845,"28436 TAMARACK LANE","SANTA CLARITA","CA","91390"
152846,"2843B DIVISION AVE","CLEVELAND","OH","44113"
152847,"2844 ANITA CIRCLE","BATON ROUGE","LA","70805"
152848,"2844 B KENNEDY AVE","GRAND JUNCTION","CO","81501"
152849,"2844 CRAVENRIDGE DRIVE","BROOKHAVEN","GA","30319"
152850,"2844 GOOSE GAP ROAD","SEVIERVILLE","TN","37876"
152851,"2844 GUNN CT","REDDING","CA","96001"
152852,"2844 LIVERNOIS AVE NUMBER 99172","TROY","MI","48099"
152853,"2844 LIVERNOIS ROAD BOX 775","TROY","MI","48099"
152854,"2844 LIVERNOIS ROAD- NUMBER 393","TROY","MI","48099"
152855,"2844 SAINT JOHNS AVE","LANCASTER","TX","75146"
152856,"2844 SALTER COURT","ORLANDO","FL","32818"
152857,"2844 SANTEZ DRIVE","POMONA","CA","91768"
152858,"2844 SUMMIT STREET SUITE 204","OAKLAND","CA","94609"
152859,"2844 VALLEY HEART DR NW","ATLANTA","GA","30318"
152860,"2844 VISTA ACEDERA","CARLSBAD","CA","92009"
152861,"2844 W FIREBROOK RD","TUCSON","AZ","85741"
152862,"2844 W JARVIS AVE","CHICAGO","IL","60645"
152863,"2844 W ROOSEVELT ROAD","CHICAGO","IL","60612"
152864,"2844 W SHERWIN AVE - UPPER ROOM","CHICAGO","IL","60645"
152865,"2844 W SHERWIN AVE","CHICAGO","IL","60645"
152866,"2844 WILLIAMS STREET","EUREKA","CA","95501"
152867,"2844 YOJOA PLACE","HACIENDA HEIGHTS","CA","91745"
152868,"28441 BOTORRIA","MISSION VEIJO","CA","92692"
152869,"28441 OFALLON MILLS DR","SPRING","TX","77386"
152870,"28443 15TH AVE S","FEDERAL WAY","WA","98003"
152871,"2845 33RD STREET APT 2F","ASTORIA","NY","11102"
152872,"2845 35TH STREET","SACRAMENTO","CA","95817"
152873,"2845 BATTLEFIELD MEMORIAL HWY","BEREA","KY","40403"
152874,"2845 BLOOMINGTON AVE APT 406","MINNEAPOLIS","MN","55407"
152875,"2845 BLOOMINGTON AVE APT 408","MINNEAPOLIS","MN","55407"
152876,"2845 CAMBRIDGE","DETROIT","MI","48221"
152877,"2845 CHAPMAN STREET","OAKLAND","CA","94601"
152878,"2845 FLINT AVENUE","ROCKINGHAM","VA","22801"
152879,"2845 FM 731","BURLESON","TX","76028"
152880,"2845 GLADE ROAD","LOVELAND","CO","80538"
152881,"2845 INDEPENDENCE ST","CAPE GIRARDEAU","MO","63703"
152882,"2845 LA BREA DR","SAINT CHARLES","MO","63303"
152883,"2845 LOTUS PARK","SCHERTZ","TX","78154"
152884,"2845 MANOR COURT","SNELLVILLE","GA","30078"
152885,"2845 MITCHELL","SAINT JOSEPH","MO","64507"
152886,"2845 NETTIE ST","BUTTE","MT","59701"
152887,"2845 OSLIN CREEK ROAD","GOODE","VA","24556"
152888,"2845 POST ROAD","WARWICK","RI","02886"
152889,"2845 SPANISH BAY DRIVE","DALLAS","TX","75253"
152890,"2845 STADIUM VIEW DR","FT WORTH","TX","76118"
152891,"2845 SUMMER OAKS DR","BARTLETT","TN","38134"
152892,"2845 SUMMER OAKS DRIVE","BARTLETT","TN","38134"
152893,"2845 TRAVIS AVE","FORT WORTH","TX","76110"
152894,"2845 VALENCIA WAY SOUTH","ST PETERSBURG","FL","33705"
152895,"2845 WAIALAE AVE  113","HONOLULU","HI","96826"
152896,"2845 WASHINGTON BOULEVARD","ST LOUIS","MO","63103"
152897,"2845 WEST ELK AVENUE","DUNCAN","OK","73533"
152898,"2845 WESTCHESTER CIR","PEARLAND","TX","77584"
152899,"2845 WESTCHESTER CIRCLE","PEARLAND","TX","77584"
152900,"2845 WILLOW SPRINGS","BULVERDE","TX","78163"
152901,"2845-A BROOKDALE DRIVE","BROOKLYN PARK","MN","55445"
152902,"28450 DRIVER AVE","AGOURA HILLS","CA","91301"
152903,"28451 LORENTE","MISSION VIEJO","CA","92692"
152904,"28453 ALMONA WAY","VALLEY CENTER","CA","92082"
152905,"2845B NORTH ARMISTEAD AVENUE","HAMPTON","VA","23666"
152906,"2846 BAKER STREET","SAN FRANCISCO","CA","94123"
152907,"2846 BELAIR PL NE","WASHINGTON","DC","20018"
152908,"2846 BELLINI DRIVE","HENDERSON","NV","89052"
152909,"2846 CAMBRIDGE DRIVE","SAN JOSE","CA","95125"
152910,"2846 CAZADERO DRIVE","CARLSBAD","CA","92009"
152911,"2846 FALLBROOK LN","SAN DIEGO","CA","92117"
152912,"2846 GRAND VIEW CT","GRAND JUNCTION","CO","81501"
152913,"2846 HWY 14","MADRID","NM","87010"
152914,"2846 JUBAN AVE","BATON ROUGE","LA","70805"
152915,"2846 MANOR COURT","SNELLVILLE","GA","30078"
152916,"2846 NW 8TH ROAD","FORT LAUDERDALE","FL","33311"
152917,"2846 S BECKLEY","DALLAS","TX","75224"
152918,"2846 STATE ROUTE 30","SPECULATOR","NY","12164"
152919,"2846 VETERANS MEMORIAL HWY","AUSTELL","GA","30168"
152920,"2846 WOODBRIDGE AVENUE","SCHENECTADY","NY","12306"
152921,"28462 WOODLAND TRAIL","NEW PRAGUE","MN","56071"
152922,"28465 US HIGHWAY 19 NORTH SUITE 200","CLEARWATER","FL","33761"
152923,"2847 BOB-O-LINK DRIVE","MACON","GA","31206"
152924,"2847 BOGART LANE","COLUMBUS","OH","43207"
152925,"2847 BURTON RD NW","ATLANTA","GA","30311"
152926,"2847 EAST 31ST STREET","ERIE","PA","16510"
152927,"2847 INGALLS ST","SAN FRANCISCO","CA","94124"
152928,"2847 JACK NICKLAUS WAY","SHALIMAR","FL","32579"
152929,"2847 JORDAN OAKS LANE","DECATUR","GA","30033"
152930,"2847 LEIALOHA PLACE","HAIKU","HI","96708"
152931,"2847 MOORINGS PKWY","SNELLVILLE","GA","30039"
152932,"2847 NW 61ST ST","SEATTLE","WA","98107"
152933,"2847 PARK STREET NORTH","ST. PETERSBURG","FL","33710"
152934,"2847 PEPPERDINE DRIVE","HE","GA","30815"
152935,"2847 S MAIN STREET","KENNESAW","GA","30144"
152936,"2847 SOUTH MAIN STREET","KENNESAW","GA","30144"
152937,"2847 STRATTON BLVD","SAINT AUGUSTINE","FL","32084"
152938,"2847 VETERANS MEMORIAL HWY UNIT 418","AUSTELL","GA","30168"
152939,"2847 VETERANS MEMORIAL HWY UNIT1353","AUSTELL","GA","30168"
152940,"2847 VETERANS MEMORIAL HWY UNIT1414","AUSTELL","GA","30168"
152941,"2847 VETERANS MEMORIAL STE 1493","AUSTELL","GA","30168"
152942,"2847 W 39TH ST","CHICAGO","IL","60623"
152943,"2847 W WINSTON ROAD","ROTHBURY","MI","49452"
152944,"28470 E 129 ST S","COWETA","OK","74429"
152945,"28475 GREENFIELD RD SUITE 200","SOUTHFIELD","MI","48076"
152946,"28475 GREENFIELD ROAD 113 PMB 1362","SOUTHFIELD","MI","48076"
152947,"28475 GREENFIELD ROAD","SOUTHFIELD","MI","48076"
152948,"2848 14TH ST W","WEST FARGO","ND","58078"
152949,"2848 ALEXANDER CRES","FLOSSMOOR","IL","60466"
152950,"2848 AUGUSTA WAY","SANTA ANA","CA","92706"
152951,"2848 BELLEGLADE COURT SE","GRAND RAPIDS","MI","49546"
152952,"2848 CHESFIELD DRIVE","COLUMBUS","OH","43204"
152953,"2848 EAGLE VIEW PL NW","CONCORD","NC","28027"
152954,"2848 ELM STREET","CAYCE","SC","29033"
152955,"2848 HIDEAWAY RD","FAIRFAX","VA","22031"
152956,"2848 HIGHWAY 26 EAST","DELIGHT","AR","71940"
152957,"2848 HYLAN BLVD APT B28","STATEN ISLAND","NY","10306"
152958,"2848 JACKSON AVE","TRACY","CA","95377"
152959,"2848 LEE STREET","DALLAS","TX","75206"
152960,"2848 MYRTLE AVE NE","WASHINGTON","DC","20018"
152961,"2848 OLD PEACHTREE ROAD","DACULA","GA","30019"
152962,"2848 PLEASANT AVE  208","MINNEAPOLIS","MN","55408"
152963,"2848 PLEASANT AVE S APT 324","MINNEAPOLIS","MN","55408"
152964,"2848 PLEASANT AVENUE 226","MINNEAPOLIS","MN","55408"
152965,"2848 PLEASANT RD SUITE 116","FORT MILL","SC","29708"
152966,"2848 WELLBOURNE DR","CARROLLTON","TX","75006"
152967,"2848 WILDWOOD DR","BRUNSWICK","GA","31520"
152968,"2848","BENTONVILLE","AR","72712"
152969,"28484 PLEASANT BAY LOOP","WESLEY CHAPEL","FL","33543"
152970,"28484 WCR 76","EATON","CO","80615"
152971,"2849 APPALACHEE TRAIL","MARIANNA","FL","32446"
152972,"2849 BUCKWHEAT ROAD","MARIETTA","NY","13110"
152973,"2849 EASTLAKE AVE E UNIT 318","SEATTLE","WA","98102"
152974,"2849 FERBER DR","COLORADO SPRINGS","CO","80916"
152975,"2849 KENFORD RD","WATERFORD","MI","48329"
152976,"2849 OLIVEWOOD LN","VALLEJO","CA","94591"
152977,"2849 PINWOOD DR","NORTON","OH","44203"
152978,"2849 S 8650 W","MAGNA","UT","84044"
152979,"2849 SEA VIEW PARKWAY","ALAMEDA","CA","94502"
152980,"2849 TIMBER KNOLL DR","VALRICO","FL","33596"
152981,"2849 W WEBSTER CT","ANTHEM","AZ","85086"
152982,"28491 UTICA RD","ROSEVILLE","MI","48066"
152983,"28492 MAY RD","SPLENDORA","TX","77372"
152984,"28498 RD 24 T2","MATTAWA","WA","99349"
152985,"284C E LAKE MEAD PKWY 260","HENDERSON","NV","89015"
152986,"285 3RD ST UNIT 304","CAMBRIDGE","MA","02142"
152987,"285 5TH AVENUE SUITE 426","BROOKLYN","NY","11215"
152988,"285 AGATE ST","LAGUNA BEACH","CA","92651"
152989,"285 AMBERGATE DRIVE","YOUNGSVILLE","NC","27596"
152990,"285 AMMERSEE LAKES DRIVE","MONTEVALLO","AL","35115"
152991,"285 AYCRIGG AVENUE SUITE 14-A","PASSAIC","NJ","07055"
152992,"285 BARTHE DRIVE","PASADENA","CA","91103"
152993,"285 BELHAVEN STREET","GREENVILLE","MS","38701"
152994,"285 BERENGER WALK","WELLINGTON","FL","33414"
152995,"285 BRIDGE STREET","SAN LUIS OBISPO","CA","93401"
152996,"285 BRITTANY LANE","SALINE","MI","48176"
152997,"285 BROADCAST AVENUE","LAS VEGAS","NV","89183"
152998,"285 BUSTER GOODE ROAD","WEST POINT","MS","39773"
152999,"285 CAMPBELL RANCH RUN","GENEVA","FL","32732"
153000,"285 CARROLLTON ST","TEMPLE","GA","30179"
