"ID","Address","City","State","Zip"
350501,"PO BOX 481714","CHARLOTTE","NC","28269"
350502,"PO BOX 482      419 S KANSAS","MARCELINE","MO","64658"
350503,"PO BOX 482 303 WEST MAIN STREET","WOODLAND","NC","27897"
350504,"PO BOX 482","AMSTERDAM","NY","12010"
350505,"PO BOX 482","CENTERVILLE","GA","31028"
350506,"PO BOX 482","COLUMBIA","TN","38402"
350507,"PO BOX 482","HEBRON","OH","43025"
350508,"PO BOX 482","LINTON","ND","58552"
350509,"PO BOX 482","LOMBARD","IL","60148"
350510,"PO BOX 482","MANHEIM","PA","17545"
350511,"PO BOX 482","MANTON","CA","96059"
350512,"PO BOX 482","MARKHAM","IL","60428"
350513,"PO BOX 482","NEPTUNE","NJ","07753"
350514,"PO BOX 482","NILAND","CA","92257"
350515,"PO BOX 482","ODESSA","MO","64076"
350516,"PO BOX 482","OXFORD","WI","53952"
350517,"PO BOX 482","ROSS","OH","45061"
350518,"PO BOX 482","ROWLETT","TX","75089"
350519,"PO BOX 482","SCOTTSBLUFF","NE","69363"
350520,"PO BOX 482","ST GEORGE","UT","84771"
350521,"PO BOX 482","STOWE","VT","05672"
350522,"PO BOX 482","TUSCOLA","TX","79562"
350523,"PO BOX 48206","COON RAPIDS","MN","55448"
350524,"PO BOX 48206","JACKSONVILLE","FL","32247"
350525,"PO BOX 482152","KAUNAKAKAI","HI","96748"
350526,"PO BOX 4824","CLEARWATER","FL","33758"
350527,"PO BOX 48271","ST PETERSBURG","FL","33743"
350528,"PO BOX 483","BIG STONE GAP","VA","24219"
350529,"PO BOX 483","BRATTLEBORO","VT","05302"
350530,"PO BOX 483","BRISTOL","TN","37621"
350531,"PO BOX 483","CAROGA LAKE","NY","12032"
350532,"PO BOX 483","CASSELTON","ND","58012"
350533,"PO BOX 483","CRISFIELD","MD","21817"
350534,"PO BOX 483","GAYLORD","MI","49734"
350535,"PO BOX 483","HARPSWELL","ME","04079"
350536,"PO BOX 483","JUNCTION CITY","OR","97448"
350537,"PO BOX 483","LAKE","MI","48632"
350538,"PO BOX 483","NEWPORT","NC","28570"
350539,"PO BOX 483","PORT EWEN","NY","12466"
350540,"PO BOX 483","RIGBY","ID","83442"
350541,"PO BOX 483","SALEM","IN","47167"
350542,"PO BOX 483","STURBRIDGE","MA","01566"
350543,"PO BOX 483","VALLEY STREAM","NY","11582"
350544,"PO BOX 483","WASHINGTON","NC","27889"
350545,"PO BOX 483","WEST WARWICK","RI","02893"
350546,"PO BOX 483","WESTON","MA","02493"
350547,"PO BOX 483","YACOLT","WA","98675"
350548,"PO BOX 4834","HUNTSVILLE","AL","35815"
350549,"PO BOX 4835","SCOTTSDALE","AZ","85261"
350550,"PO BOX 4835","SILVER SPRING","MD","20914"
350551,"PO BOX 4836","EDINBURG","TX","78540"
350552,"PO BOX 4836","NORTH MYRTLE BEACH","SC","29597"
350553,"PO BOX 48362","SAINT PETERSBURG","FL","33710"
350554,"PO BOX 48374","PHILADELPHIA","PA","19144"
350555,"PO BOX 4838","OMAHA","NE","68104"
350556,"PO BOX 484","BIRDSBORO","PA","19508"
350557,"PO BOX 484","CULBERTSON","MT","59218"
350558,"PO BOX 484","GLEN COVE","NY","11542"
350559,"PO BOX 484","GRAND BLANC","MI","48439"
350560,"PO BOX 484","GREEN LANE","PA","18054"
350561,"PO BOX 484","GUTHRIE","OK","73044"
350562,"PO BOX 484","HARRISBURG","SD","57032"
350563,"PO BOX 484","HAYDEN","AL","35079"
350564,"PO BOX 484","JENNINGS","FL","32053"
350565,"PO BOX 484","JOHANNESBURG","MI","49751"
350566,"PO BOX 484","LAGRANGE","KY","40031"
350567,"PO BOX 484","LISBON","OH","44432"
350568,"PO BOX 484","LUDINGTON","MI","49431"
350569,"PO BOX 484","MESILLA PARK","NM","88047"
350570,"PO BOX 484","MOUNT AYR","IA","50854"
350571,"PO BOX 484","NASHUA","MT","59248"
350572,"PO BOX 484","PIRU","CA","93040"
350573,"PO BOX 484","RANIER","MN","56668"
350574,"PO BOX 484","REEDSBURG","WI","53959"
350575,"PO BOX 484","SAN QUENTIN","CA","94964"
350576,"PO BOX 484","WEXFORD","PA","15090"
350577,"PO BOX 484","WILLIAMSBURG","MA","01096"
350578,"PO BOX 484","WOODBRIDGE","NJ","07095"
350579,"PO BOX 4841","EAGLE","CO","81631"
350580,"PO BOX 4841","SPOKANE","WA","99220"
350581,"PO BOX 48459","SPOKANE","WA","99228"
350582,"PO BOX 48466","ATLANTA","GA","30362"
350583,"PO BOX 4847","PENSACOLA","FL","32507"
350584,"PO BOX 48477","ST PAUL","MN","55448"
350585,"PO BOX 485","ANDERSON","TX","77830"
350586,"PO BOX 485","BLYTHEWOOD","SC","29016"
350587,"PO BOX 485","CHERRYFIELD","ME","04622"
350588,"PO BOX 485","DELMAR","NY","12054"
350589,"PO BOX 485","ENGLEWOOD","CO","80151"
350590,"PO BOX 485","FORT WORTH","TX","76101"
350591,"PO BOX 485","FRISCO","TX","75034"
350592,"PO BOX 485","GLENNVILLE","GA","30427"
350593,"PO BOX 485","LITHIA","FL","33547"
350594,"PO BOX 485","MIAMI","OK","74355"
350595,"PO BOX 485","NORGE","VA","23127"
350596,"PO BOX 485","OAKLAND","MD","21550"
350597,"PO BOX 485","POMONA","NY","10970"
350598,"PO BOX 485","SAN CARLOS","CA","94070"
350599,"PO BOX 485","SOUTH BEND","IN","46624"
350600,"PO BOX 4851","DEERFIELD BEACH","FL","33442"
350601,"PO BOX 48516","LEXINGTON","SC","29073"
350602,"PO BOX 48521","WASHINGTON","DC","20002"
350603,"PO BOX 48575","TAMPA","FL","33646"
350604,"PO BOX 486","BAYAMON","PR","00957"
350605,"PO BOX 486","CHENEY","KS","67025"
350606,"PO BOX 486","GALT","CA","95632"
350607,"PO BOX 486","GHENT","NY","12075"
350608,"PO BOX 486","HONEOYE FALLS","NY","14472"
350609,"PO BOX 486","KIOWA","CO","80117"
350610,"PO BOX 486","LOREAUVILLE","LA","70552"
350611,"PO BOX 486","MOUNT AIRY","NC","27030"
350612,"PO BOX 486","MOUNT VERNON","OH","43050"
350613,"PO BOX 486","MYSTIC","CT","06355"
350614,"PO BOX 486","SAN SABA","TX","76877"
350615,"PO BOX 486","SAN SEBASTIAN","PR","00685"
350616,"PO BOX 486","SHOW LOW","AZ","85902"
350617,"PO BOX 486","WELLSVILLE","KS","66092"
350618,"PO BOX 4861","WEST RICHLAND","WA","99353"
350619,"PO BOX 4862","AUBURN","CA","95604"
350620,"PO BOX 48639","WASHINGTON","DC","20002"
350621,"PO BOX 48639","WASHINGTON","MD","20002"
350622,"PO BOX 4864","BRYAN","TX","77802"
350623,"PO BOX 4864","BUTTE","MT","59701"
350624,"PO BOX 4866","LOUISVILLE","KY","40204"
350625,"PO BOX 4866","TAMPA","FL","33677"
350626,"PO BOX 4868","SAN JOSE","CA","95150"
350627,"PO BOX 48682","FORT WORTH","TX","76148"
350628,"PO BOX 487","ALLENSPARK","CO","80510"
350629,"PO BOX 487","ASHLAND","KS","67831"
350630,"PO BOX 487","FORT RECOVERY","OH","45846"
350631,"PO BOX 487","FRANKLINTON","NC","27525"
350632,"PO BOX 487","HAVRE","MT","59501"
350633,"PO BOX 487","HONDO","TX","78861"
350634,"PO BOX 487","MAKAWAO","HI","96768"
350635,"PO BOX 487","MANCHESTER","WA","98353"
350636,"PO BOX 487","MIAMI","AZ","85539"
350637,"PO BOX 487","PERKASIE","PA","18944"
350638,"PO BOX 487","RAYWOOD","TX","77582"
350639,"PO BOX 4874","WATERBURY","CT","06704"
350640,"PO BOX 4875","LOUISVILLE","KY","40204"
350641,"PO BOX 48765","ATHENS","GA","30604"
350642,"PO BOX 488","ASHLAND CITY","TN","37015"
350643,"PO BOX 488","BERLIN","NJ","08009"
350644,"PO BOX 488","BLOOMINGTON","IN","47402"
350645,"PO BOX 488","CHARLOTTE HALL","MD","20622"
350646,"PO BOX 488","DOYLESTOWN","PA","18901"
350647,"PO BOX 488","ENCAMPMENT","WY","82325"
350648,"PO BOX 488","EUDORA","KS","66025"
350649,"PO BOX 488","FENTON","MI","48430"
350650,"PO BOX 488","GARFIELD","NJ","07026"
350651,"PO BOX 488","HARVARD","MA","01451"
350652,"PO BOX 488","HOUSTON","TX","77001"
350653,"PO BOX 488","LAURELVILLE","OH","43135"
350654,"PO BOX 488","LEAKEY","TX","78873"
350655,"PO BOX 488","MONSEY","NY","10952"
350656,"PO BOX 488","NIPOMO","CA","93444"
350657,"PO BOX 488","OREGON HOUSE","CA","95962"
350658,"PO BOX 488","SENECA FALLS","NY","13148"
350659,"PO BOX 488","SOUTH POINT","OH","45680"
350660,"PO BOX 488","TACOMA","WA","98401"
350661,"PO BOX 488","TROUT LAKE","WA","98650"
350662,"PO BOX 4882","ALBANY","GA","31706"
350663,"PO BOX 4882","JOPLIN","MO","64803"
350664,"PO BOX 4884","ANNISTON","AL","36204"
350665,"PO BOX 4885","EAGLE","CO","81631"
350666,"PO BOX 4886","COVINGTON","LA","70434"
350667,"PO BOX 4888","FORT WORTH","TX","76164"
350668,"PO BOX 489","CALEDONIA","OH","43314"
350669,"PO BOX 489","CHARLOTTE","TX","78011"
350670,"PO BOX 489","CIMARRON","KS","67835"
350671,"PO BOX 489","CONVERSE","IN","46952"
350672,"PO BOX 489","FOLEY","AL","36535"
350673,"PO BOX 489","HARRODSBURG","KY","40330"
350674,"PO BOX 489","NEW ULM","MN","56073"
350675,"PO BOX 489","SAVOY","IL","61874"
350676,"PO BOX 489","VERNON","TX","76385"
350677,"PO BOX 489","WELLSTON","OH","45692"
350678,"PO BOX 489","WILLOW SPRING","NC","27592"
350679,"PO BOX 4892","ROCK HILL","SC","29732"
350680,"PO BOX 4893","MCALLEN","TX","78502"
350681,"PO BOX 48941","TAMPA","FL","33646"
350682,"PO BOX 4896","MOORESVILLE","NC","28117"
350683,"PO BOX 4896","WEST HILLS","CA","91308"
350684,"PO BOX 4897","WILMINGTON","NC","28406"
350685,"PO BOX 48992","TAMPA","FL","33646"
350686,"PO BOX 49","ATHENS","GA","30603"
350687,"PO BOX 49","BENNETT","IA","52721"
350688,"PO BOX 49","COLFAX","ND","58018"
350689,"PO BOX 49","CRAWFORD","NE","69339"
350690,"PO BOX 49","FOYIL","OK","74031"
350691,"PO BOX 49","GALLOWAY","OH","43119"
350692,"PO BOX 49","GIBSON ISLAND","MD","21056"
350693,"PO BOX 49","MCLEAN","VA","22101"
350694,"PO BOX 49","MURRAY","NE","68409"
350695,"PO BOX 49","POMONA","NJ","08240"
350696,"PO BOX 49","ROCKDALE","TX","76567"
350697,"PO BOX 49","SPRINGVILLE","AL","35146"
350698,"PO BOX 490 STATION 24","GAINESVILLE","FL","32627"
350699,"PO BOX 490","BIG HORN","WY","82833"
350700,"PO BOX 490","BREMOND","TX","76629"
350701,"PO BOX 490","KEMAH","TX","77565"
350702,"PO BOX 490","LAFAYETTE","CO","80026"
350703,"PO BOX 490","MARTIN","SD","57551"
350704,"PO BOX 490","NEWPORT","AR","72112"
350705,"PO BOX 490","TUBA CITY","AZ","86045"
350706,"PO BOX 490161","BLAINE","MN","55449"
350707,"PO BOX 490163","CHICAGO","IL","60649"
350708,"PO BOX 49023","COLLEGE PARK","GA","30349"
350709,"PO BOX 4903","KETCHUM","ID","83340"
350710,"PO BOX 4904","MOORESVILLE","NC","28117"
350711,"PO BOX 490488","LAWRENCEVILLE","GA","30049"
350712,"PO BOX 4905","CHICAGO","IL","60680"
350713,"PO BOX 4905","CLINTON","NJ","08809"
350714,"PO BOX 49052","WEST CARROLLTON","OH","45449"
350715,"PO BOX 4906","UPPER MARLBORO","MD","20775"
350716,"PO BOX 490641","BLAINE","MN","55449"
350717,"PO BOX 490722","ATLANTA","GA","30349"
350718,"PO BOX 490771","BLAINE","MN","55449"
350719,"PO BOX 490871","BLAINE","MN","55449"
350720,"PO BOX 490875","COLLEGE PARK","GA","30349"
350721,"PO BOX 49096","ATHENS","GA","30604"
350722,"PO BOX 491","BRECKENRIDGE","CO","80424"
350723,"PO BOX 491","COOPERSTOWN","NY","13326"
350724,"PO BOX 491","EASTOVER","SC","29044"
350725,"PO BOX 491","ELY","MN","55731"
350726,"PO BOX 491","FORT ATKINSON","WI","53538"
350727,"PO BOX 491","GOSHEN","CT","06756"
350728,"PO BOX 491","GREENBELT","MD","20770"
350729,"PO BOX 491","GUTHRIE","OK","73044"
350730,"PO BOX 491","HELOTES","TX","78023"
350731,"PO BOX 491","HUDSON","WI","54016"
350732,"PO BOX 491","KAHUKU","HI","96731"
350733,"PO BOX 491","MANCHESTER","GA","31816"
350734,"PO BOX 491","MENLO PARK","CA","94026"
350735,"PO BOX 491","NEWTON","IA","50208"
350736,"PO BOX 491","NORTH BENNINGTON","VT","05257"
350737,"PO BOX 491","PORTSMOUTH","VA","23705"
350738,"PO BOX 491","SOLEDAD","CA","93960"
350739,"PO BOX 491","SPRING LAKE","MI","49456"
350740,"PO BOX 491","WAUKEGAN","IL","60079"
350741,"PO BOX 491","YORK","PA","17405"
350742,"PO BOX 491077","LEESBURG","FL","34749"
350743,"PO BOX 4911","NAPERVILLE","IL","60567"
350744,"PO BOX 4913","OAK RIDGE","TN","37831"
350745,"PO BOX 49144","COOKEVILLE","TN","38506"
350746,"PO BOX 491554","ATLANTA","GA","30349"
350747,"PO BOX 4916","OCALA","FL","34478"
350748,"PO BOX 49168","AUSTIN","TX","78765"
350749,"PO BOX 49184","CHARLOTTE","NC","28277"
350750,"PO BOX 491975","LAWRENCEVILLE","GA","30049"
350751,"PO BOX 492","ADA","MI","49301"
350752,"PO BOX 492","ARLINGTON","TN","38002"
350753,"PO BOX 492","CONCORD","MI","49237"
350754,"PO BOX 492","DECATUR","IL","62525"
350755,"PO BOX 492","DERIDDER","LA","70634"
350756,"PO BOX 492","DESOTO","TX","75123"
350757,"PO BOX 492","EAST ALTON","IL","62034"
350758,"PO BOX 492","ERIE","CO","80516"
350759,"PO BOX 492","HAINES CITY","FL","33844"
350760,"PO BOX 492","HOWARD","PA","16841"
350761,"PO BOX 492","HUGHSON","CA","95326"
350762,"PO BOX 492","MABELVALE","AR","72103"
350763,"PO BOX 492","MILFORD","IA","51351"
350764,"PO BOX 492","PARK HILLS","MO","63601"
350765,"PO BOX 492","PAW PAW","WV","25434"
350766,"PO BOX 492","PEWAUKEE","WI","53072"
350767,"PO BOX 492","SWARTHMORE","PA","19081"
350768,"PO BOX 49208","GREENSBORO","NC","27419"
350769,"PO BOX 4921","HAILEY","ID","83333"
350770,"PO BOX 49216","AUSTIN","TX","78765"
350771,"PO BOX 492282","REDDING","CA","96049"
350772,"PO BOX 492341","LAWRENCEVILLE","GA","30049"
350773,"PO BOX 492375","LAWRENCEVILLE","GA","30049"
350774,"PO BOX 4924","SANTA ROSA","CA","95402"
350775,"PO BOX 49248","CHARLOTTE","NC","28277"
350776,"PO BOX 492485","ATLANTA","GA","30349"
350777,"PO BOX 492528","ATLANTA","GA","30349"
350778,"PO BOX 4926","MOORESVILLE","NC","28117"
350779,"PO BOX 4926","PHILADELPHIA","PA","19119"
350780,"PO BOX 492668","KEA'AU","HI","96749"
350781,"PO BOX 492671","LAWRENCEVILLE","GA","30949"
350782,"PO BOX 4927","CAVE CREEK","AZ","85327"
350783,"PO BOX 492934","LEESBURG","FL","34749"
350784,"PO BOX 493","BELFAIR","WA","98528"
350785,"PO BOX 493","BROOKINGS","SD","57006"
350786,"PO BOX 493","COLUMBUS","KS","66725"
350787,"PO BOX 493","DIMONDALE","MI","48821"
350788,"PO BOX 493","EUPORA","MS","39744"
350789,"PO BOX 493","FRANKFORT","IN","46041"
350790,"PO BOX 493","GROVE CITY","OH","43123"
350791,"PO BOX 493","HAVELOCK","NC","28532"
350792,"PO BOX 493","HOPKINSVILLE","KY","42241"
350793,"PO BOX 493","HUDSON","IA","50643"
350794,"PO BOX 493","HURON","SD","57350"
350795,"PO BOX 493","HYDE PARK","VT","05655"
350796,"PO BOX 493","KINSTON","NC","28502"
350797,"PO BOX 493","LIBERTY","NY","12754"
350798,"PO BOX 493","MADISON","TN","37116"
350799,"PO BOX 493","MOUNT MORRIS","MI","48458"
350800,"PO BOX 493","PISCATAWAY","NJ","08854"
350801,"PO BOX 493","RICE LAKE","WI","54868"
350802,"PO BOX 493","SUMMIT","NJ","07901"
350803,"PO BOX 493","WILDROSE","ND","58795"
350804,"PO BOX 493","WURTSBORO","NY","12790"
350805,"PO BOX 493006","REDDING","CA","96049"
350806,"PO BOX 4931","MODESTO","CA","95352"
350807,"PO BOX 4932","BUENA VISTA","CO","81211"
350808,"PO BOX 4932","MARIETTA","GA","30061"
350809,"PO BOX 49332","GREENSBORO","NC","27419"
350810,"PO BOX 4934","BOISE","ID","83711"
350811,"PO BOX 4935","TYLER","TX","75712"
350812,"PO BOX 4938","CLEVELAND","TN","37320"
350813,"PO BOX 4938","PALMER","AK","99645"
350814,"PO BOX 494","AGUILAR","CO","81020"
350815,"PO BOX 494","BYRON","CA","94514"
350816,"PO BOX 494","CHESAPEAKE","OH","45619"
350817,"PO BOX 494","FORT ANN","NY","12827"
350818,"PO BOX 494","GERING","NE","69341"
350819,"PO BOX 494","HALFWAY","OR","97834"
350820,"PO BOX 494","HERMANN","MO","65041"
350821,"PO BOX 494","HUGER","SC","29450"
350822,"PO BOX 494","LAKESIDE","OR","97449"
350823,"PO BOX 494","LOS BANOS","CA","93635"
350824,"PO BOX 494","LOVELL","WY","82431"
350825,"PO BOX 494","MILL CITY","OR","97360"
350826,"PO BOX 494","MONTICELLO","IN","47960"
350827,"PO BOX 494","MOUNT NEBO","WV","26679"
350828,"PO BOX 494","SUTHERLAND","IA","51058"
350829,"PO BOX 494","WEARE","NH","03281"
350830,"PO BOX 494","WYNANTSKILL","NY","12198"
350831,"PO BOX 494","ZION","IL","60099"
350832,"PO BOX 494144","PORT CHARLOTTE","FL","33949"
350833,"PO BOX 494186","PT. CHARLOTTE","FL","33949"
350834,"PO BOX 494341","GARLAND","TX","75049"
350835,"PO BOX 4944","SEVIERVILLE","TN","37864"
350836,"PO BOX 4946","BUFFALO GROVE","IL","60089"
350837,"PO BOX 494683","GARLAND","TX","75049"
350838,"PO BOX 494813","PORT CHARLOTTE","FL","33949"
350839,"PO BOX 4949","SYRACUSE","NY","13221"
350840,"PO BOX 49493","ATHENS","GA","30604"
350841,"PO BOX 495","COLUMBIANA","OH","44408"
350842,"PO BOX 495","ENCAMPMENT","WY","82325"
350843,"PO BOX 495","FRISCO","TX","75034"
350844,"PO BOX 495","HARTFORD","CT","06141"
350845,"PO BOX 495","ILION","NY","13357"
350846,"PO BOX 495","KIMBERLING CITY","MO","65686"
350847,"PO BOX 495","PERRYTON","TX","79070"
350848,"PO BOX 495","RUMNEY","NH","03266"
350849,"PO BOX 495","SKIDMORE","TX","78389"
350850,"PO BOX 495","SOUTH WEBSTER","OH","45682"
350851,"PO BOX 495","SYLVA","NC","28779"
350852,"PO BOX 495","WEBSTER","FL","33597"
350853,"PO BOX 4950","CAVE CREEK","AZ","85327"
350854,"PO BOX 49513","CHARLOTTE","NC","28277"
350855,"PO BOX 4952","KEY WEST","FL","33041"
350856,"PO BOX 495365","GARLAND","TX","75049"
350857,"PO BOX 4954","BUTTE","MT","59701"
350858,"PO BOX 495461","PORT CHARLOTTE","FL","33949"
350859,"PO BOX 4956","BREMERTON","WA","98312"
350860,"PO BOX 495622","GARLAND","TX","75049"
350861,"PO BOX 49572","CHARLOTTE","NC","28277"
350862,"PO BOX 496","BLUE BALL","PA","17506"
350863,"PO BOX 496","FRANCONIA","NH","03580"
350864,"PO BOX 496","NORTH SAN JUAN","CA","95960"
350865,"PO BOX 496","SAN QUENTIN","CA","94964"
350866,"PO BOX 496","SELMA","CA","93662"
350867,"PO BOX 4964","SONORA","CA","95370"
350868,"PO BOX 496404","CHICAGO","IL","60649"
350869,"PO BOX 49644","WEST CARROLLTON","OH","45449"
350870,"PO BOX 496454","PORT CHARLOTTE","FL","33949"
350871,"PO BOX 49646","ATLANTA","GA","30359"
350872,"PO BOX 4966","LAGO VISTA","TX","78645"
350873,"PO BOX 49660","WEST CARROLLTON","OH","45449"
350874,"PO BOX 49661","WEST CARROLLTON","OH","45449"
350875,"PO BOX 496662","GARLAND","TX","75049"
350876,"PO BOX 496725","CHICAGO","IL","60649"
350877,"PO BOX 49682","CHARLOTTE","NC","28277"
350878,"PO BOX 497","BAYFIELD","CO","81122"
350879,"PO BOX 497","COLUMBUS","MT","59019"
350880,"PO BOX 497","FAIRFIELD","CA","94533"
350881,"PO BOX 497","LIBERTY","MS","39645"
350882,"PO BOX 497","MONTAUK","NY","11954"
350883,"PO BOX 497","MONTCHANIN","DE","19710"
350884,"PO BOX 497","RIVERTON","UT","84065"
350885,"PO BOX 497","SKAGWAY","AK","99840"
350886,"PO BOX 497","WILLOW SPRINGS","MO","65793"
350887,"PO BOX 4970","KANEOHE","HI","96744"
350888,"PO BOX 49713","COOKEVILLE","TN","38501"
350889,"PO BOX 497382","GARLAND","TX","75049"
350890,"PO BOX 49746","LOS ANGELES","CA","90049"
350891,"PO BOX 4977","AUBURN","CA","95604"
350892,"PO BOX 498","CANASTOTA","NY","13032"
350893,"PO BOX 498","MORRIS PLAINS","NJ","07950"
350894,"PO BOX 498","PORT LAVACA","TX","77979"
350895,"PO BOX 4980","CAGUAS","PR","00725"
350896,"PO BOX 4983","LAGO VISTA","TX","78645"
350897,"PO BOX 4984","SILVER SPRING","MD","20914"
350898,"PO BOX 4985","SANTA FE","NM","87507"
350899,"PO BOX 498842","CINCINNATI","OH","45249"
350900,"PO BOX 499","MYRTLE CREEK","OR","97457"
350901,"PO BOX 499","WINONA","MN","55987"
350902,"PO BOX 4994","RICHMOND","VA","23220"
350903,"PO BOX 4995","JACKSON","WY","83001"
350904,"PO BOX 4996","OCALA","FL","34478"
350905,"PO BOX 5","ALLIANCE","NE","69301"
350906,"PO BOX 5","AYNOR","SC","29511"
350907,"PO BOX 5","BAKER CITY","OR","97814"
350908,"PO BOX 5","BASKING RIDGE","NJ","07920"
350909,"PO BOX 5","BELFAST","ME","04915"
350910,"PO BOX 5","BETHLEHEM","CT","06751"
350911,"PO BOX 5","CROSSLAKE","MN","56442"
350912,"PO BOX 5","FRANKLIN","TX","77856"
350913,"PO BOX 5","FREEPORT","FL","32439"
350914,"PO BOX 5","FREEPORT","PA","16229"
350915,"PO BOX 5","GREENFIELD","OH","45123"
350916,"PO BOX 5","HALBUR","IA","51444"
350917,"PO BOX 5","HUBBARD","OH","44425"
350918,"PO BOX 5","HUDSON","NY","12534"
350919,"PO BOX 5","JENSEN","UT","84035"
350920,"PO BOX 5","JUNCTION CITY","OR","97448"
350921,"PO BOX 5","KING","WI","54946"
350922,"PO BOX 5","LOGANTON","PA","17747"
350923,"PO BOX 5","LUDINGTON","MI","49431"
350924,"PO BOX 5","MANVEL","TX","77578"
350925,"PO BOX 5","MECHANICVILLE","NY","12118"
350926,"PO BOX 5","NEW FLORENCE","PA","15944"
350927,"PO BOX 5","NEW HARTFORD","CT","06057"
350928,"PO BOX 5","NORTHVALE","NJ","07647"
350929,"PO BOX 5","ORKNEY SPRINGS","VA","22845"
350930,"PO BOX 5","POLSON","MT","59860"
350931,"PO BOX 5","REDFIELD","AR","72132"
350932,"PO BOX 5","RIDERWOOD","MD","21139"
350933,"PO BOX 5","ROARK","KY","40979"
350934,"PO BOX 5","SIREN","WI","54872"
350935,"PO BOX 5","TALENT","OR","97540"
350936,"PO BOX 5","TEXARKANA","TX","75504"
350937,"PO BOX 5","TUSTIN","MI","49688"
350938,"PO BOX 5","WARRENTON","NC","27589"
350939,"PO BOX 5","WEST MEMPHIS","AR","72303"
350940,"PO BOX 5","WEST MILFORD","WV","26451"
350941,"PO BOX 5","WHITE STONE","VA","22578"
350942,"PO BOX 5","WINDSOR","VA","23487"
350943,"PO BOX 5","ZELIENOPLE","PA","16063"
350944,"PO BOX 50","ALTONA","IL","61414"
350945,"PO BOX 50","DENMARK","IA","52624"
350946,"PO BOX 50","EMMALENA","KY","41740"
350947,"PO BOX 50","LAFAYETTE HILL","PA","19444"
350948,"PO BOX 50","POULTNEY","VT","05764"
350949,"PO BOX 50","ROCKLAND","MA","02370"
350950,"PO BOX 500","CAIRO","NY","12413"
350951,"PO BOX 500","JERICHO","NY","11753"
350952,"PO BOX 500","KAKE","AK","99830"
350953,"PO BOX 500","KIMBERTON","PA","19442"
350954,"PO BOX 500","REEDS SPRING","MO","65737"
350955,"PO BOX 500","VEGA BAJA","PR","00694"
350956,"PO BOX 500","VIRGINIA","MN","55792"
350957,"PO BOX 5000 EL DORADO SUITE 150 184","FRISCO","TX","75033"
350958,"PO BOX 500040","PALMDALE","CA","93550"
350959,"PO BOX 5001","PLAINFIELD","NJ","07060"
350960,"PO BOX 50010","MYRTLE BEACH","SC","29579"
350961,"PO BOX 500164","AUSTIN","TX","78750"
350962,"PO BOX 5002","BURLINGTON","NC","27216"
350963,"PO BOX 50023","SPARKS","NV","89435"
350964,"PO BOX 500275","AUSTIN","TX","78750"
350965,"PO BOX 5003","ALPHARETTA","GA","30023"
350966,"PO BOX 5003","BRIDGEPORT","CT","06610"
350967,"PO BOX 5003","EAGLE","CO","81631"
350968,"PO BOX 5003","HELENA","MT","59601"
350969,"PO BOX 5003","WOODBRIDGE","VA","22194"
350970,"PO BOX 50030","IDAHO FALLS","ID","83405"
350971,"PO BOX 50038","MIDLAND","TX","79710"
350972,"PO BOX 5004","BERNALILLO","NM","87004"
350973,"PO BOX 5004","WEST FARGO","ND","58078"
350974,"PO BOX 50046","CLAYTON","MO","63105"
350975,"PO BOX 5005","CARSON","CA","90749"
350976,"PO BOX 5005","SARASOTA","FL","34277"
350977,"PO BOX 50052","ARLINGTON","VA","22205"
350978,"PO BOX 500578","ATLANTA","GA","31150"
350979,"PO BOX 500688","SAIPAN","MP","96950"
350980,"PO BOX 5007","PINE BLUFF","AR","71611"
350981,"PO BOX 500711","MIDLAND","TX","79710"
350982,"PO BOX 5008-137","MARIPOSA","CA","95338"
350983,"PO BOX 50081","BELLEVUE","WA","98015"
350984,"PO BOX 500849","MARATHON","FL","33050"
350985,"PO BOX 500862","SAN DIEGO","CA","92128"
350986,"PO BOX 50088","ST LOUIS","MO","63105"
350987,"PO BOX 50092","PASADENA","CA","91115"
350988,"PO BOX 50097","JACKSONVILLE BEACH","FL","32240"
350989,"PO BOX 501","CARLSBORG","WA","98324"
350990,"PO BOX 501","CLINTON","MA","01510"
350991,"PO BOX 501","COLTON","CA","92324"
350992,"PO BOX 501","DOBBS FERRY","NY","10522"
350993,"PO BOX 501","ENFIELD","CT","06082"
350994,"PO BOX 501","GRANITE QUARRY","NC","28072"
350995,"PO BOX 501","HAW RIVER","NC","27258"
350996,"PO BOX 501","INEZ","KY","41224"
350997,"PO BOX 501","JASPER","AR","72641"
350998,"PO BOX 501","KUNKLETOWN","PA","18058"
350999,"PO BOX 501","LOMA LINDA","CA","92354"
351000,"PO BOX 501","LOS BANOS","CA","93635"
