"ID","Address","City","State","Zip"
21001,"11024 LAKE ARBOR WAY","MITCHELLVILLE","MD","20721"
21002,"11024 MONTGOMERY BLVD NE SUITE 242","ALBUQUERQUE","NM","87111"
21003,"11024 N 28TH DR  SUITE 180","PHOENIX","AZ","85029"
21004,"11024 NAPA RIDGE DR","LAS VEGAS","NV","89144"
21005,"11024 NORTH 35TH STREET","PHOENIX","AZ","85028"
21006,"11024 S KEELER","OAK LAWN","IL","60453"
21007,"11024 SOUTH BELL AVE","CHICAGO","IL","60643"
21008,"11024 WARWICK BLVD","NEWPORT NEWS","VA","23601"
21009,"11025 GRESHAM PLACE","NOBLESVILLE","IN","46060"
21010,"11025 REDBUD WOODS LN","ORLANDO","FL","32832"
21011,"11025 SHADOW GROVE CIRCLE APT 322","CHARLOTTE","NC","28277"
21012,"11025 SOUTH KENNEDY STREET","JENKS","OK","74037"
21013,"11025 SW 223RD ST","MIAMI","FM","33170"
21014,"11026 CLEAR SKIES DR APT E","ST LOUIS","MO","63114"
21015,"11026 KURTISS","BRIGHTON","MI","48114"
21016,"11026 MARCLIFF RD","ROCKVILLE","MD","20852"
21017,"11026 STANFORD AVE","LOS ANGELES","CA","90059"
21018,"11026 SW 133 PLACE","MIAMI","FL","33186"
21019,"11026 WEST BELLFORT AVE","HOUSTON","TX","77099"
21020,"11027 10TH AVENUE EAST","BRADENTON","FL","34212"
21021,"11027 BELLBROOK DRIVE","HOUSTON","TX","77096"
21022,"11027 ELLISTON WAY NE","REDMOND","WA","98053"
21023,"11027 LE FLOSS AVENUE","DOWNEY","CA","90241"
21024,"11029 ARCOLA ROAD","ARCOLA","IN","46704"
21025,"11029 CORNELL AVE SOUTH","SEATTLE","WA","98178"
21026,"11029 CORNELL AVENUE SOUTH","SEATTLE","WA","98178"
21027,"11029 PALMER ROAD","DALRLINGTON","WI","53530"
21028,"11029 SALIDA ST","COMMERCE CITY","CO","80022"
21029,"1102A HWY 56 NORTH","WAYNESBORO","GA","30830"
21030,"1103  SOUTH HARBOR BLVD  STE  C","SANTA  ANA","CA","92704"
21031,"1103 18TH AVE  E","SEATTLE","WA","98112"
21032,"1103 38TH AVE W","SPENCER","IA","51301"
21033,"1103 6TH ST NE","CANTON","OH","44704"
21034,"1103 ABBINGTON WOODS DRIVE","BRUNSWICK","GA","31523"
21035,"1103 ALLENA","SAN ANTONIO","TX","78213"
21036,"1103 ANDERSON  SUITE 101","COLLEGE STATION","TX","77840"
21037,"1103 APPLESEED D","ST LOUIS","MO","63132"
21038,"1103 AUSTIN DRIVE","URBANA","IL","61802"
21039,"1103 BADBURY LN","GRAND PRAIRIE","TX","75052"
21040,"1103 BLOCK AVENUE","CLEVELAND","MS","38732"
21041,"1103 BLOSSOM OAK WAY","WHITSETT","NC","27377"
21042,"1103 BROAD PLUM LANE","INDIAN TRAIL","NC","28079"
21043,"1103 BUFORD CT","CHESAPEAKE","VA","23320"
21044,"1103 CAMBRIDGE RD","COSHOCTON","OH","43812"
21045,"1103 CANYON DRIVE","CASTLE ROCK","CO","80104"
21046,"1103 CHURCH STREET UNIT A","STOCKTON","CA","95203"
21047,"1103 CLAIRMONT","SAN ANGELO","TX","76905"
21048,"1103 COUNTY ROAD 1194","VINEMONT","AL","35179"
21049,"1103 CRYSTAL","BENTON","AR","72015"
21050,"1103 CYRMRY DRIVE","BERWYN","PA","19312"
21051,"1103 DARLING AVE  APT 7A","WAYCROSS","GA","31501"
21052,"1103 DAVENTRY DRIVE","GLENN HEIGHTS","TX","75154"
21053,"1103 DEER SPRINGS RD","PORT ORANGE","FL","32129"
21054,"1103 E 93RD ST","CHICAGO","IL","60619"
21055,"1103 EAST MAIN STREET","CASEY","IL","62420"
21056,"1103 EAST RITTENHOUSE STREET","PHILADELPHIA","PA","19138"
21057,"1103 EDGEWATER POINT DRIVE","LAKE ST LOUIS","MO","63367"
21058,"1103 ELM STREET","CROSSETT","AR","71635"
21059,"1103 EMERSON STREET","SHERIDAN","WY","82801"
21060,"1103 FREMONT ST","DES MOINES","IA","50316"
21061,"1103 GRAY FOX LANE","FRANKLIN","TN","37069"
21062,"1103 GREENE ACRES RD N","STANARDSVILLE","VA","22973"
21063,"1103 GREY STREET","APLINGTON","IA","50604"
21064,"1103 HALLAM DR","LAKELAND","FL","33813"
21065,"1103 HALSTEAD ROAD","CORTLAND","NY","13045"
21066,"1103 HARVARD LANE","ALLEN","TX","75002"
21067,"1103 HAYS STREET","TALLAHASSEE","FL","32301"
21068,"1103 HOLIDAY LN APT 13","DES PLAINES","IL","60016"
21069,"1103 HUNTERS LANE","ORELAND","PA","19075"
21070,"1103 ICEMORLEE STREET","MONROE","NC","28110"
21071,"1103 IVYWOOD LANE APT 304","TOWSON","MD","21286"
21072,"1103 JAKE CIRCLE","KENNEDALE","TX","76060"
21073,"1103 KENWOOD STREET","ALEXANDRIA","MN","56308"
21074,"1103 KIPP AVENUE","KEMAH","TX","77565"
21075,"1103 LA GRANGE PKWY","NEWARK","DE","19702"
21076,"1103 LAUREL OAK ROAD SUITE 105B","VOORHEES","NJ","08043"
21077,"1103 MAIN ST","OSAGE","IA","50461"
21078,"1103 MAIN STREET","HINGHAM","MA","02043"
21079,"1103 MARSH COURT","HAMPTON","GA","30228"
21080,"1103 MASSEY DRIVE","KINSTON","NC","28504"
21081,"1103 MICHIGAN AVE","NAPLES","FL","34103"
21082,"1103 N HAWTHORNE ST","CHATTANOOGA","TN","37406"
21083,"1103 N MACEDONIA AVE","MUNCIE","IN","47303"
21084,"1103 N OAKRIDGE CIR","LANATANA","FL","33462"
21085,"1103 N RAVINE PKWY","TOLEDO","OH","43605"
21086,"1103 NORTH ELM STREET SUITE 300","GREENSBORO","NC","27401"
21087,"1103 NORTH GRAY STREET","KILLEEN","TX","76541"
21088,"1103 PINE BLUFF SQUARE","MANNING","SC","29102"
21089,"1103 POLK BLVD","DES MOINES","IA","50311"
21090,"1103 POTATO SHED ROAD","BREAUX BRIDGE","LA","70517"
21091,"1103 RIDGE WAY DRIVE","ROCHESTER","MI","48307"
21092,"1103 ROCK HARBOR AVE","ORLANDO","FL","32828"
21093,"1103 S EAST AVENUE","WAUKESHA","WI","53186"
21094,"1103 S HAYWORTH AVENUE","LOS ANGELES","CA","90035"
21095,"1103 S MAIN ST","GOSHEN","IN","46526"
21096,"1103 SEARCY DRIVE","KILLEEN","TX","76543"
21097,"1103 SILVERBROOKE DRIVE","POWDER SPRINGS","GA","30127"
21098,"1103 SOMERSET PLACE","LUTHERVILLE","MD","21093"
21099,"1103 STEWART AVENUE","GARDEN CITY","NY","11530"
21100,"1103 SUMMIT POINT DRIVE","FRONT ROYAL","VA","22630"
21101,"1103 TIGER BLVD STE 4","CLEMS","SC","29631"
21102,"1103 VISTA POINTE BLVD","OCEANSIDE","CA","92057"
21103,"1103 W 129TH PL","COMPTON","CA","90222"
21104,"1103 W 4800 S","SALT LAKE CITY","UT","84123"
21105,"1103 W 5TH AVE","GASTONIA","NC","28052"
21106,"1103 W MORRIS BLVD","MORRISTOWN","TN","37814"
21107,"1103 W PECAN","ROGERS","AR","72756"
21108,"1103 WAVERLY PLACE","JOLIET","IL","60435"
21109,"1103 WEST AVE","CHARLESTON","WV","25302"
21110,"1103 WESTMINISTER CIRCLE","LAYTON","UT","84040"
21111,"1103 WESTPORT ROAD","KANSAS CITY","MO","64111"
21112,"1103 WILDWOOD AVE","COLUMBIA","SC","29203"
21113,"1103 WILLOW DRIVE","ROBINSON","IL","62454"
21114,"1103 WOODSMAN CT","CHESAPEAKE","VA","23320"
21115,"11030 AQUA VISTA ST APT 9","NORTH HOLLYWOOD","CA","91602"
21116,"11030 AQUA VISTA ST NUM 42","NORTH HOLLYWOOD","CA","91602"
21117,"11030 EVANSTON AVE NORTH","SEATTLE","WA","98133"
21118,"11030 GENOVA TERRACE","HAMPTON","GA","30228"
21119,"11030 HARTSOOK ST APT 118","NORTH HOLLYWOOD","CA","91601"
21120,"11030 LEAVENWORTH ST","OMAHA","NE","68154"
21121,"11030 NW 21ST COURT","MIAMI","FL","33167"
21122,"11030 RICHARDSON ROAD SUITE B25","ASHLAND","VA","23005"
21123,"11030 S LONGWOOD DR","CHICAGO","IL","60643"
21124,"11031 COTTONWOOD STREET","COON RAPIDS","MN","55448"
21125,"11032 ASHBURN ROAD","NORTH CHESTERFIELD","VA","23235"
21126,"11032 MCINTOSH COURT","WALDORF","MD","20602"
21127,"11032 N HUNTERS TRAIL CT","DUNLAP","IL","61525"
21128,"11033 66TH ST N","STILLWATER","MN","55082"
21129,"11033 ARROYO BCH PL SW","SEATTLE","WA","98146"
21130,"11033 MCGREGOR RD","PINCKNEY","MI","48169"
21131,"11033 S LANGLEY AVE","CHICAGO","IL","60628"
21132,"11033 S MACKINAW","CHICAGO","IL","60617"
21133,"11034 73RD ROAD APT 3C","FOREST HILLS","NY","11375"
21134,"11034 FURNESS PARKWAY","MEDINA","NY","14103"
21135,"11034 LONGWING DRIVE","FORT MYERS","FL","33912"
21136,"11034 S GREEN BAY AVENUE","CHICAGO","IL","60617"
21137,"11035 CABRILLO STREET","WHITTIER","CA","90603"
21138,"11035 FM 470","TARPLEY","TX","78883"
21139,"11035 GOLF LINKS DRIVE 77907","CHARLOTTE","NC","28277"
21140,"11035 INDEPENDENCE CIR E","PARKER","CO","80134"
21141,"11035 LAVENDER HILL DR","LAS VEGAS","NV","89135"
21142,"11035 LEGACY BLVD 104","PALM BEACH GARDENS","FL","33410"
21143,"11035 SE NEVADA RD","KINCAID","KS","66039"
21144,"11035 TALON RUN","SAN ANTONIO","TX","78254"
21145,"11035 WAR ADMIRAL DR","UNION","KY","41091"
21146,"11036 1ST AVE S","SEATTLE","WA","98168"
21147,"11036 8TH AVE NE NUMBER 75141","SEATTLE","WA","98125"
21148,"11036 CIRCLE DRIVE","GOLDEN","CO","80403"
21149,"11036 GLEN WILDING LN","BLOOMINGTON","MN","55431"
21150,"11036 PATSY DRIVE","ST LOUIS","MO","63123"
21151,"11036 SAFFOLD WAY","RESTON","VA","20190"
21152,"11037 WARNER AVE 268","FOUNTAIN VALLEY","CA","92708"
21153,"11037 WARNER AVENUE","FOUNTAIN VALLEY","CA","92708"
21154,"11038 E WASHINGTON BLVD STE A","WHITTIER","CA","90606"
21155,"11038 RESERVOIR PLACE DRIVE","CLEVELAND","OH","44104"
21156,"11039 N 87TH AVE UNIT 1140","PEORIA","AZ","85345"
21157,"1104 1/2 E 7TH ST APT 232","LOS ANGELES","CA","90021"
21158,"1104 1/2 IRVING STREET NW","WASHINGTON","DC","20010"
21159,"1104 16TH STREET","LYNCHBURG","VA","24504"
21160,"1104 20TH ST","HUNTINGTON","WV","25703"
21161,"1104 2ND AVE S STE 319","FARGO","ND","58103"
21162,"1104 ACKER LANE","VERONA","WI","53593"
21163,"1104 ADELAIDE AVENUE","BAKERSFIELD","CA","93307"
21164,"1104 ALBER STREET","WABASH","IN","46992"
21165,"1104 APPLE STREET","FORT PIERCE","FL","34950"
21166,"1104 ASHTON AVENUE SUITE 212","SALT LAKE CITY","UT","84106"
21167,"1104 BELLA VISTA CIRCLE","LONGWOOD","FL","32779"
21168,"1104 BERGEN ST","BROOKLYN","NY","11216"
21169,"1104 BLAKE AVE","GLENWOOD SPRINGS","CO","81601"
21170,"1104 BLUFFVIEW DRIVE","HUTCHINS","TX","75141"
21171,"1104 BONITA DRIVE","COLTON","CA","92324"
21172,"1104 BOYTE DR SE","BROOKHAVEN","MS","39601"
21173,"1104 BUCKINGHAM ROAD","GARNER","NC","27529"
21174,"1104 BUSH STREET","SAN DIEGO","CA","92103"
21175,"1104 BUTTERCUP LANE","WAKE FOREST","NC","27587"
21176,"1104 CEDAR PARK DRIVE","CEDAR PARK","TX","78613"
21177,"1104 CHEYENNE AVE","ALLIANCE","NE","69301"
21178,"1104 CHISWELL LANE","SILVER SPRING","MD","20901"
21179,"1104 CHURCHILL LANE","GREENVILLE","TX","75402"
21180,"1104 COLUMBIA ST","CORNING","AR","72422"
21181,"1104 CORPORATE WAY SUITE 101","SACRAMENTO","CA","95831"
21182,"1104 CORPORATE WAY","SACRAMENTO","CA","95831"
21183,"1104 CORTE PRIMAVERA","CHULA VISTA","CA","91910"
21184,"1104 CORTEZ ROAD","LAKE ARIEL","PA","18436"
21185,"1104 COTTMAN AVE","PHILADELPHIA","PA","19111"
21186,"1104 DEVONSHIRE RD","LANCASTER","PA","17601"
21187,"1104 DONOVAN AVENUE","BELLINGHAM","WA","98225"
21188,"1104 E 21ST STREET","IDAHO FALLS","ID","83404"
21189,"1104 E FORT WAYNE ST","WARSAW","IN","46580"
21190,"1104 E LIZZIE LANE","SAINT GEORGE","UT","84790"
21191,"1104 E NORTHSIDE DRIVE","CLINTON","MS","39056"
21192,"1104 E RENFRO ST","PLANT CITY","FL","33563"
21193,"1104 EAST 21ST STREET","IDAHO FALLS","ID","83404"
21194,"1104 EASTEND ROAD","MANCHESTER","TN","37355"
21195,"1104 EDBURY DRIVE","KNOXVILLE","TN","37922"
21196,"1104 EDINBURGH DRIVE","JAMESTOWN","NC","27282"
21197,"1104 ELDER AVE","BRONX","NY","10472"
21198,"1104 EVANS AVE","FORT WORTH","TX","76104"
21199,"1104 GARDEN VIEW ROAD","ENCINITAS","CA","92024"
21200,"1104 GILBERT DRIVE","BOSSIER CITY","LA","71112"
21201,"1104 GLORIA LANE","YARDLEY","PA","19067"
21202,"1104 HARVARD TERRACE","EVANSTON","IL","60202"
21203,"1104 HIGHLAND DRIVE","ROLLA","MO","65401"
21204,"1104 HILLSIDE LN","LOUISVILLE","CO","80027"
21205,"1104 HILTON STREET","MONROE","LA","71201"
21206,"1104 JANE SOWERS RD","STATESVILLE","NC","28625"
21207,"1104 JOHN MCCAIN RD","COLLEYVILLE","TX","76034"
21208,"1104 JOHN MCCAIN ROAD","COLLEYVILLE","TX","76034"
21209,"1104 JOHNSTON ST","AKRON","OH","44305"
21210,"1104 JOHNSTON STREET","AKRON","OH","44305"
21211,"1104 KENILWORTH DR  SUITE 300","BALTIMORE","MD","21204"
21212,"1104 LAKE RISE PLACE","GALLATIN","TN","37066"
21213,"1104 LIZZIE LANE","SAINT GEORGE","UT","84790"
21214,"1104 LORAIN ROAD","SAN MARINO","CA","91108"
21215,"1104 MAIN STREET","LADY LAKE","FL","32159"
21216,"1104 MANDELLA RD","ST STEPHEN","SC","29479"
21217,"1104 MARCY STREET","IOWA CITY","IA","52240"
21218,"1104 MARY LEE COURT","RIVERDALE","GA","30296"
21219,"1104 MEADOWBROOK ROAD WEST","IOLA","KS","66749"
21220,"1104 N 1500 E","VERNAL","UT","84078"
21221,"1104 N LAPHAM STREET","OCONOMOWOC","WI","53066"
21222,"1104 N MARTIN LUTHER KING JR AVE","LAKELAND","FL","33805"
21223,"1104 N PARKWAY APT 9","JACKSON","TN","38305"
21224,"1104 N PROVIDENCE RD","COLUMBIA","MO","65203"
21225,"1104 N SHELLBARK RD","MUNCIE","IN","47304"
21226,"1104 NAJAC LANE","KISSIMMEE","FL","34859"
21227,"1104 NE 4TH AVENUE","WILLISTON","FL","32696"
21228,"1104 NORTH EMBREE ERIC GOGGINS","PRINCETON","IN","47670"
21229,"1104 NORTH MAIN","MONTICELLO","KY","42633"
21230,"1104 NW 103RD ST","VANCOUVER","WA","98685"
21231,"1104 NW 43RD AVE","CAPE CORAL","FL","33993"
21232,"1104 OLIVE AVE","LONG BEACH","CA","90813"
21233,"1104 OSPREY LANE","DENTON","MD","21629"
21234,"1104 PARK MANOR BLVD","ENDWELL","NY","13760"
21235,"1104 PARKERS CREEK LANE","FRIENDSWOOD","TX","77546"
21236,"1104 RESTERTOWN RD","POPLARVILLE","MS","39470"
21237,"1104 RIVER BEND DR","GEORGETOWN","TX","78628"
21238,"1104 S 5TH STREET","EFFINGHAM","IL","62401"
21239,"1104 S MAIN ST","PINCKNEYVILLE","IL","62274"
21240,"1104 S MAIN ST","TRIPOLI","IA","50676"
21241,"1104 S MONTANA AVE APT G12","BOZEMAN","MT","59715"
21242,"1104 SCHOOL RD","TOMAHAWK","WI","54487"
21243,"1104 SEMINOLE DR","INDIAN HARBOR BEACH","FL","32937"
21244,"1104 SHADES CIRCLE SE","HUNTSVILLE","AL","35803"
21245,"1104 SPARROW LANE","BOWLING GREEN","OH","43402"
21246,"1104 SPRUCE CT","PRYOR","OK","74361"
21247,"1104 STANTON STREET","MONONGAHELA","MD","15063"
21248,"1104 STATE ROUTE 37","AKWESASNE","NY","13655"
21249,"1104 STOCKTON AVE","SOUTH LAKE TAHOE","CA","96150"
21250,"1104 SUMMERWOOD CIRCLE","WELLINGTON","FL","33414"
21251,"1104 SUTTER AVENUE","BROOKLYN","NY","11208"
21252,"1104 SW 15TH STREET","BOCA RATON","FL","33486"
21253,"1104 SW 33RD STREET","REDMOND","OR","97756"
21254,"1104 SW 71ST TER","N LAUDERDALE","FL","33068"
21255,"1104 SW B AVENUE","LAWTON","OK","73501"
21256,"1104 TERRACE DRIVE","ST LOUIS","MO","63114"
21257,"1104 TYLER LN","GREENWOOD","MO","64034"
21258,"1104 VILLA LANE","BOYNTON BEACH","FL","33435"
21259,"1104 W EUREKA","KINGMAN","KS","67068"
21260,"1104 WEST 7TH STREET","AUSTIN","TX","78703"
21261,"1104 WEST GAMBIER STREET","MOUNT VERNON","OH","43050"
21262,"1104 WHITWORT CT","HERNDON","VA","20170"
21263,"1104 WHITWORTH CT","HERNDON","VA","20170"
21264,"1104 WICKLOW DRIVE","CARY","NC","27511"
21265,"1104 WILMA LOIS AVE","PASADENA","TX","77502"
21266,"1104 WINDSONG TRL","RICHARDSON","TX","75081"
21267,"1104 WRIGHT ST","LLANO","TX","78643"
21268,"1104 ZODO AVE","ERIE","CO","80516"
21269,"11040 183RD CIRCLE NW SUITE A","ELK RIVER","MN","55330"
21270,"11040 BOLLINGER CANYON RD STE E-126","SAN RAMON","AR","94582"
21271,"11040 BOLLINGER CANYON RD STE E170","SAN RAMON","CA","94582"
21272,"11040 BRINK ROAD","GERMANTOWN","MD","20875"
21273,"11040 MANCHESTER ROAD","KIRKWOOD","MO","63122"
21274,"11040 OLINDA STREET","SUN VALLEY","CA","91352"
21275,"11040 PERWINKLE LANE","LOUISVILLE","KY","40291"
21276,"11040 PROSPECT HILL RD","GLEN DALE","MD","20769"
21277,"11040 PROSPECT HILL RD","GLENN DALE","MD","20769"
21278,"11040 PROSPECT HILL ROAD","GLENN DALE","MD","20769"
21279,"11040 SW 225TH TERR","MIAMI","FL","33170"
21280,"11040 SW GREENBURG RD STE 206","PORTLAND","OR","97223"
21281,"11041 5800 ROAD","MONTROSE","CO","81403"
21282,"11041 CARMENET WAY","RANCHO CORDOVA","CA","95670"
21283,"11041 MILLPOND","NEVADA CITY","CA","95959"
21284,"11041 SANTA MONICA BLVD STE 715","LOS ANGELES","CA","90025"
21285,"11041 SHADOW CREEK PKWY 121-55","PEARLAND","TX","77584"
21286,"11041 SHADOW CREEK PKWY STE 121-202","PEARLAND","TX","77584"
21287,"11041 WALSINGHAM ROAD SUITE 32","LARGO","FL","33774"
21288,"11042 166TH STREET","JAMAICA","NY","11433"
21289,"11042 ALPHARETTA HIGHWAY APT 1221","ROSWELL","GA","30075"
21290,"11042 BELMAR AVENUE","PORTER RANCH","CA","91326"
21291,"11042 CLOVERLAWN STREET","DETROIT","MI","48238"
21292,"11042 CYPRESS TRAIL DR","ORLANDO","FL","32825"
21293,"11042 MAIN STREET","STOUTSVILLE","OH","43154"
21294,"11042 MANCHESTER ROAD","KIRKWOOD","MO","63122"
21295,"11042 N 24TH AVE SUITE 103","PHOENIX","AZ","85029"
21296,"11042 NW 53RD LN","DORAL","FL","33178"
21297,"11042 S STRONGS RD","ECKERMAN","MI","49728"
21298,"11042 SR 525 STE 128","CLINTON","WA","98236"
21299,"11043 PACKARD AVENUE","WARREN","MI","48089"
21300,"11043 SANANDREW DRIVE","NEW MARKET","MD","21774"
21301,"11043 SIMMS RD","BAILEY","NC","27807"
21302,"11044 OAKRIDGE DRIVE","FISHERS","IN","46038"
21303,"11044 SR 674","WIMAUMA","FL","33598"
21304,"11044 US HIGHWAY 10","MARSHFIELD","WI","54449"
21305,"11045 BLUE DIAMOND RD","LAS VEGAS","NV","89161"
21306,"11045 CYNTHIA CIRCLE NO8","GARDEN GROVE","CA","92843"
21307,"11045 DOXBERRY CIRCLE","WOODSTOCK","MD","21163"
21308,"11045 NORTHRIDGE DR","KANSAS CITY","KS","66109"
21309,"11045 PRESTWICK DR","BENTON","IL","62812"
21310,"11045 RUTHELEN ST","LOS ANGELES","CA","90047"
21311,"11046 E TUPELO AVE","MESA","AZ","85212"
21312,"11046 QUEENSLAND ST","LOS ANGELES","CA","90034"
21313,"11046 STONE BRANCH DRIVE","RIVERVIEW","FL","33569"
21314,"11048 CAMARILLO ST APT 7","NORTH HOLLYWOOD","CA","91602"
21315,"11048 NORTH CLOUD VIEW PLACE","ORO VALLEY","AZ","85737"
21316,"11048 SARATOGA DR","ORLAND","IL","60467"
21317,"11049 N 34TH AVE","PHOENIX","AZ","85029"
21318,"1105 1/2 CHINO STREET","SANTA BARBARA","CA","93101"
21319,"1105 15TH AVENUE SUITE D508","LONGVIEW","WA","98632"
21320,"1105 2ND ST","KIEL","WI","53042"
21321,"1105 8TH STREET","CATASAUQUA","PA","18032"
21322,"1105 AFTERNOON SUN ROAD","MATTHEWS","NC","28104"
21323,"1105 ARIZONA COURT","DIXON","CA","95620"
21324,"1105 ATTICA ST","BURLINGTON","NC","27217"
21325,"1105 BEALL LANDING COURT","HOUSTON","TX","77008"
21326,"1105 BEAR CREEK RD","BLYTHEWOOD","SC","29016"
21327,"1105 BEECHWOOD DRIVE","BREA","CA","92821"
21328,"1105 BETHUNE DRIVE","ORLANDO","FL","32805"
21329,"1105 BRAZOS DRIVE","SOUTHLAKE","TX","76092"
21330,"1105 BRICE","MERIDIAN","TX","76665"
21331,"1105 CAMERON AVE","CHESTER","VA","23836"
21332,"1105 CERRITOS DRIVE","FULLERTON","CA","92835"
21333,"1105 CHESTNUT ST UNIT 373","MURRAY","KY","42071"
21334,"1105 CHURCH STREET","BARLING","AR","72923"
21335,"1105 CLAIRE AVE","AUSTIN","TX","78703"
21336,"1105 CLARA AVE  3107","PANAMA CITY BEACH","FL","32407"
21337,"1105 CLASSIC ROAD","APEX","NC","27539"
21338,"1105 COLUMBINE ST","WENATCHEE","WA","98801"
21339,"1105 COLUMNS DR","LITHIA SPRINGS","GA","30122"
21340,"1105 CONLEY ST","HAMMON","OK","73650"
21341,"1105 DALELAND DR","RALEIGH","NC","27612"
21342,"1105 DAVIS SOUND LANE","WILMINGTON","NC","28409"
21343,"1105 DEER ST SUITE 14","CONWAY","AR","72034"
21344,"1105 E 12TH","FORT SCOTT","KS","66701"
21345,"1105 E CONCORD STREET","ORLANDO","FL","32803"
21346,"1105 E ISAACS AVE","WALLA WALLA","WA","99362"
21347,"1105 EAST PARK AVENUE","SAVANNAH","GA","31404"
21348,"1105 ELK STREET","YUKON","OK","73099"
21349,"1105 FARRAR RD","PALMER","TX","75152"
21350,"1105 FARRAR ROAD","PALMER","TX","75152"
21351,"1105 FRANCES ST","NORTH AUGUSTA","SC","29841"
21352,"1105 FT CLARKE BLVD 1503","GAINESVILLE","FL","32606"
21353,"1105 GARTLAND AVENUE","NASHVILLE","TN","37206"
21354,"1105 HASTY TRAIL","CANTON","GA","30115"
21355,"1105 HAYES AVE","NORFOLK","NE","68701"
21356,"1105 HERMITAGE AVE SE","HUNTSVILLE","AL","35801"
21357,"1105 HIGHLANDS DRIVE","HAMPSTEAD","NC","28443"
21358,"1105 ISLAND DRIVE","BAYVILLE","NJ","08721"
21359,"1105 KELLY DR","SANFORD","NC","27330"
21360,"1105 LEON ST","KEY WEST","FL","33040"
21361,"1105 LINDEN STREET","WOODBRIDGE","VA","22191"
21362,"1105 LONG STREET","INGLEWOOD","CA","90302"
21363,"1105 LOVE STREET","ALBEMARLE","NC","28001"
21364,"1105 MAIN ST","ROCK VALLEY","IA","51247"
21365,"1105 MAIN STREET","HIGHLAND","IL","62249"
21366,"1105 MARY T MEAGHER DRIVE","ELIZABETHTOWN","KY","42701"
21367,"1105 MEADOWS PLACE","JEFFERSON CITY","MO","65101"
21368,"1105 METROPOLITAN AVE","LEAVENWORTH","KS","66048"
21369,"1105 MILLAR STREET","KETCHIKAN","AK","99901"
21370,"1105 MOUNT OLIVE AVE","SAINT LOUIS","MO","63130"
21371,"1105 N CYPRESS AVENUE","BROKEN ARROW","OK","74012"
21372,"1105 N EVERGREEN ST","SPOKANE","WA","99201"
21373,"1105 N MARKET STREET SUITE 1700","WILMINGTON","DE","19801"
21374,"1105 N VULCAN AVE","ENCINITAS","CA","92024"
21375,"1105 NEW DOVER ROAD","EDISON","NJ","08820"
21376,"1105 NEWFIELD ROAD","GWYNN OAK","MD","21207"
21377,"1105 NEWMANS TRL","HENDERSONVILLE","TN","37075"
21378,"1105 NORTH 19TH STREET","ELWOOD","IN","46036"
21379,"1105 NORTH DOLTON COURT","WILMINGTON","DE","19810"
21380,"1105 NORTH GRANT STREET","WEST LAFAYETTE","IN","47906"
21381,"1105 NW 155TH LANE APT 101","MIAMI","FL","33169"
21382,"1105 NW 91ST TERRACE","KANSAS CITY","MO","64155"
21383,"1105 OTTAWA AVE","GRAND HAVEN","MI","49417"
21384,"1105 PFEIFFER RD","BATESVILLE","AR","72501"
21385,"1105 POINDEXTER STREET","CHESAPEAKE","VA","23324"
21386,"1105 POPLAR STREET","PHILADELPHIA","PA","19123"
21387,"1105 PRINCETON LANE STE B","WALDORF","MD","20602"
21388,"1105 RANCH ROAD","WARSAW","IN","46580"
21389,"1105 RONLIN STREET","HAINES CITY","FL","33844"
21390,"1105 ROUTE 32","STILLWATER","NY","12170"
21391,"1105 RUE DES ETOILES","CARENCRO","LA","70520"
21392,"1105 S EUCLID ST STE D322","FULLERTON","CA","91436"
21393,"1105 S EUCLID ST SUITE D201","FULLERTON","CA","92832"
21394,"1105 S MAYFIELD AVENUE","CHICAGO","IL","60644"
21395,"1105 SE LOWELL DR","ANKENY","IA","50021"
21396,"1105 SIOUX STREET","JUPITER","FL","33458"
21397,"1105 SLAYDEN CT","APOPKA","FL","32712"
21398,"1105 SO MEIGS ST","VALLEY","NE","68022"
21399,"1105 SOUTH DOUGLAS AVENUE","NASHVILLE","TN","37204"
21400,"1105 SOUTH TRACY AVE","BOZEMAN","MT","59715"
21401,"1105 STRATWOOD AVE","OXON HILL","MD","20745"
21402,"1105 SW 30TH COURT","MOORE","OK","73160"
21403,"1105 TRUDEAU DRIVE","METAIRIE","LA","70003"
21404,"1105 VALLEY STREET","MCKEES ROCKS","PA","15136"
21405,"1105 VENIDO DR","KNOXVILLE","TN","37932"
21406,"1105 W 9TH STREET","WILMINGTON","DE","19806"
21407,"1105 W ANDERSON STREET","SELMA","NC","27576"
21408,"1105 W DICKERSON","BOZEMAN","MT","59715"
21409,"1105 W FRANKLIN ST","TYLER","TX","75702"
21410,"1105 W MAIN ST UNIT 703","DURHAM","NC","27701"
21411,"1105 W MAIN STREET","PAYNESVILLE","MN","56362"
21412,"1105 WALTHAM STREET","METAIRIE","LA","70001"
21413,"1105 WEDDEL AVE","BALTIMORE","MD","21227"
21414,"1105 WEST CORPUS CHRISTI","BEEVILLE","TX","78102"
21415,"1105 WEST ESSEX AVENUE","KIRKWOOD","MO","63122"
21416,"1105 WESTWOOD AVE","KINGSFORD","MI","49802"
21417,"1105 WHISPERING PINES RD","UNICOI","TN","37692"
21418,"1105 WHITTENBURG DRIVE","FORT WORTH","TX","76134"
21419,"1105 WILLOWWICK CIRCLE","PFLUGERVILLE","TX","78660"
21420,"1105 WOODSIDE AVE","GREENVILLE","SC","29611"
21421,"1105 WYNDHAM HILLS DR","LEXINGTON","KY","40514"
21422,"1105 YORKSHIRE PL","DAYTON","OH","45419"
21423,"1105-B CHURCHILL DR","GASTONIA","NC","28054"
21424,"11050 ARLINGTON AVE","RIVERSIDE","CA","92505"
21425,"11050 ARTESIA BLVD STE B","CERRITOS","CA","90703"
21426,"11050 E RENFIELD AVE","MESA","AZ","85212"
21427,"11050 FANCHER ROAD LOT 270","WESTERVILLE","OH","43082"
21428,"11050 HARTS RD APT 208","JACKSONVILLE","FL","32218"
21429,"11050 N 96TH STREET","SCOTTSDALE","AZ","85260"
21430,"11050 PINEHIGH DRIVE","ALPHARETTA","GA","30022"
21431,"11050 W WHYMAN AVENUE","AVONDALE","AZ","85323"
21432,"11051 COURSEY BOULEVARD","BATON ROUGE","LA","70816"
21433,"11052 CAMINITO VISITA PACIFICA","SAN DIEGO","CA","92131"
21434,"11053 N BOYER RD","SANDPOINT","ID","83864"
21435,"11054 LYNN LAKE CIRCLE","TAMPA","FL","33625"
21436,"11054 S MARY DRIVE","SANDY","UT","84092"
21437,"11054 VENTURA BLVD STE 258","STUDIO CITY","CA","91604"
21438,"11054 VENTURA BLVD SUITE 211","STUDIO CITY","CA","91604"
21439,"11054 VENTURA BLVD SUITE 239","STUDIO CITY","CA","91604"
21440,"11054 VENTURA BLVD SUITE 239","STUDIO ITY","CA","91604"
21441,"11054 VENTURA BLVD SUITE 309","STUDIO CITY","CA","91604"
21442,"11055 BIRCHTREE LANE","LAUREL","MD","20723"
21443,"11055 CUMPSTON STREET APT 503","NORTH HOLLYWOOD","CA","91601"
21444,"11055 E 75TH STREET","INDIANAPOLIS","IN","46236"
21445,"11055 KINSTON RIDGE PLACE","CHARLOTTE","NC","28273"
21446,"11055 N CAMINO DE LA TIERRA","TUCSON","AZ","85742"
21447,"11055 PENINSULA LN","FT WORTH","TX","76244"
21448,"11055 SW 15TH ST","PEMBROKE PINES","FL","33025"
21449,"11055 WHISPERING PINES LANE","BOCA RATON","FL","33428"
21450,"11056 SPRINGTREE PLACE","INDIANAPOLIS","IN","46239"
21451,"11057 MCINTOSH COURT","WALDORF","MD","20602"
21452,"11057 MT RUN LAKE RD","CULPEPER","VA","22701"
21453,"11057 W PRAIRIE WILLOW DR","MARANA","AZ","85653"
21454,"11058 WASHINGTON HIGHWAY - 3","GLEN ALLEN","VA","23059"
21455,"11059 E RUNNING DEER TRAIL","SCOTTSDALE","AZ","85262"
21456,"11059 LAMEY BRIDGE RD 811","DIBERVILLE","MS","39540"
21457,"1105D 15TH AVE","LONGVIEW","WA","98632"
21458,"1106 1/2 POLY DR","BILLINGS","MT","59102"
21459,"1106 2ND STREET 866","ENCINITAS","CA","92024"
21460,"1106 2ND STREET SUITE 186","ENCINITAS","CA","92024"
21461,"1106 2ND STREET UNIT 127","ENCINITAS","CA","92024"
21462,"1106 2ND STREET UNIT 290","ENCINITAS","CA","92024"
21463,"1106 4TH AVENUE NW","DILWORTH","MN","56529"
21464,"1106 5TH AVENUE","VENICE","CA","90291"
21465,"1106 7TH AVE SOUTH","ESCANABA","MI","49829"
21466,"1106 9TH AVE NE","WATERTOWN","SD","57201"
21467,"1106 ALDER AVE","LEWISTON","ID","83501"
21468,"1106 ARKANSAS ST","TALLAHASSEE","FL","32304"
21469,"1106 AUDREY TRAILS","TOMBALL","TX","77375"
21470,"1106 AUDUBON BLVD","WILMINGTON","NC","28403"
21471,"1106 BARBARA ST UNIT C","REDONDO BEACH","CA","90277"
21472,"1106 BAY RIDGE ROAD","MADISON","WI","53716"
21473,"1106 BRANDYWINE COURT APARTMENT B","SHELBYVILLE","IN","46176"
21474,"1106 BRITISH BLVD","GRAND PRAIRIE","TX","75050"
21475,"1106 BUFFALO COURT","MIDLAND","TX","79705"
21476,"1106 BUSH STREET APT 604","SAN FRANCISCO","CA","94109"
21477,"1106 CHESTNUT ST","WESTERN SPRINGS","IL","60558"
21478,"1106 CHITTOCK AVE","JACKSON","MI","49203"
21479,"1106 CLEVELAND AVE","GROVER","NC","28073"
21480,"1106 COOLIDGE SUITE 135","LAFAYETTE","LA","70503"
21481,"1106 E 4500 S","SALT LAKE CITY","UT","84117"
21482,"1106 E 73RD ST","CHICAGO","IL","60619"
21483,"1106 E CHAMBERS ST","CLEBURNE","TX","76031"
21484,"1106 E GROVERS AVE C/O PHOENIX CEN","PHOENIX","AZ","85022"
21485,"1106 E MAIN ST","LAEKAND","FL","33801"
21486,"1106 E MOMBASHA ROAD","MONROE","NY","10950"
21487,"1106 E MONROE ST","RIO GRANDE CITY","TX","78582"
21488,"1106 E WARRINGTON AVE","PITTSBURGH","PA","15210"
21489,"1106 E85TH STREET","BROOKLYN","NY","11236"
21490,"1106 EAGLE DR","EMMAUS","PA","18049"
21491,"1106 ESTELLE STREET","SWEENY","TX","77480"
21492,"1106 FORDNEY STREET","ABERDEEN","WA","98520"
21493,"1106 FRANKLIN STREET","DURHAM","NC","27701"
21494,"1106 GREENBANKS DR","MT. PLEASANT","MI","48858"
21495,"1106 GREGORY AVENUE","DOTHAN","AL","36301"
21496,"1106 HALCYON AVE","NASHVILLE","TN","37204"
21497,"1106 HALSEY ST APT 2","BROOKLYN","NY","11207"
21498,"1106 HAWTHORNE LN","FORT WASHINGTON","PA","19034"
21499,"1106 HOBSON AVE","HOT SPRINGS","AR","71913"
21500,"1106 HOLLIS STREET APT A","ARLINGTON","TX","76013"
