"ID","Address","City","State","Zip"
145001,"265 EAST CARSON STREET","CARSON","CA","90745"
145002,"265 EASTCHESTER DR STE 133 BOX 231","HIGH POINT","NC","27262"
145003,"265 ELLIS ROAD","OWENTON","KY","40359"
145004,"265 FACTORY RD","CEDARVILLE","NJ","08311"
145005,"265 FAIRFIELD RD","VILLA RICA","GA","30180"
145006,"265 FENIMORE ST","BROOKLYN","NY","11225"
145007,"265 FIR RD","BLYTHE","CA","92225"
145008,"265 FITZGERALD PL","ATLANTA","GA","30349"
145009,"265 FLATBOTTOM TRAIL","BALL GROUND","GA","30107"
145010,"265 FLORENCE COURT","HERCULES","CA","94547"
145011,"265 FROGTOWN ROAD","KITNERSVILLE","NY","18930"
145012,"265 GLASS DRIVE","OAKLAND","MD","21550"
145013,"265 HIGH STREET","SOMERSET","MA","02726"
145014,"265 HUNTER AVENUE","SLEEPY HOLLOW","NY","10591"
145015,"265 HURD STREET","FAIRFIELD","CT","06824"
145016,"265 KERRY LANE","BLUE BELL","PA","19422"
145017,"265 LABREA BLVD","MCDONOUGH","GA","30253"
145018,"265 LILY COVE DRIVE","LOGANVILLE","GA","30052"
145019,"265 LINCOLNSHIRE DRIVE","GEORGETOWN","SC","29440"
145020,"265 LISBON ST","LEWISTON","ME","04240"
145021,"265 LOCKMOOR AVENUE","NORTH LIBERTY","IA","52317"
145022,"265 LOVELY STREET","AVON","CT","06001"
145023,"265 MAIN STREET SOUTH","WOODBURY","CT","06798"
145024,"265 MAPLE LEAF AVE","SILOAM SPRINGS","AR","72761"
145025,"265 MAPLE STREET 2ND FL","BROOKLYN","NY","11225"
145026,"265 MAY STREET","WORCESTER","MA","01602"
145027,"265 MITCHELL RD PO BOX 101","NORCROSS","GA","30071"
145028,"265 MLK JR BLVD","COLUMBUS","OH","43203"
145029,"265 MOLLY BRIGHT LANE","FRANKLIN","TN","37064"
145030,"265 MULBERRY GROVE RD","ROYAL PALM BEACH","FL","33411"
145031,"265 N DIXIE DRIVE UNIT 81","SAINT GEORGE","UT","84770"
145032,"265 N GILBERT RD APT 2191","MESA","AZ","85203"
145033,"265 N MAIN STREET SUITE D235","KAYSVILLE","UT","84037"
145034,"265 NORTH LAMAR BLVD SUITE A","OXFORD","MS","38655"
145035,"265 NORTH PHILLIPS AVE","NEW BERN","NC","28560"
145036,"265 NORTH WINOOSKI AVE APT 3","BURLINGTON","VT","05401"
145037,"265 NW ALSEA HWY--PO BOX 2415","WALDPORT","OR","97394"
145038,"265 NW FREEMAN AVE","HILLSBORO","OR","97124"
145039,"265 OAKLAND PARK AVENUE","COLUMBUS","OH","43214"
145040,"265 OLD OAKEN BUCKET ROAD","SCITUATE","MA","02066"
145041,"265 PATSY LANE","BEREA","KY","40403"
145042,"265 PINE FOREST DRIVE","APTOS","CA","95003"
145043,"265 PRADO RD - 6","SAN LUIS OBISPO","CA","93401"
145044,"265 PREAKNESS AVENUE","PATERSON","NJ","07502"
145045,"265 RED RIVER TRAIL","IRVING","TX","75063"
145046,"265 RIDGEWOOD ROAD","BASSETT","VA","24055"
145047,"265 ROCHESTER AVE APT 2C","BROOKLYN","NY","11213"
145048,"265 ROCKY MOUNTAIN WAY","ARDEN","NC","28704"
145049,"265 ROLFING ROAD","HOLLY SPRINGS","MS","38635"
145050,"265 RUSSELL COURT","EFFORT","PA","18330"
145051,"265 S 2ND ST APT 34","BROOKLYN","NY","11211"
145052,"265 S RANDOLPH AVE STE 250","BREA","CA","92821"
145053,"265 S ROBERT WAY","SATELLITE BCH","FL","32937"
145054,"265 S WESTERN AVE 74115","LOS ANGELES","CA","90004"
145055,"265 SACRED EARTH LANE","WINCHESTER","TN","37398"
145056,"265 SAIN ROAD","MOCKSVILLE","NC","27028"
145057,"265 SANTIAGO AVENUE","RUTHERFORD","NJ","07070"
145058,"265 SEMINOLE DR","MADISON HEIGHTS","VA","24572"
145059,"265 SHADOW MOSS DRIVE","ATHENS","GA","30605"
145060,"265 SNEEDS MILL ROAD","ROCKINGHAM","NC","28379"
145061,"265 SO 9TH STREET-STE 4","PHILADELPHIA","PA","19107"
145062,"265 SOUTH FEDERAL HIGHWAY 415","DEERFIELD BEACH","FL","33441"
145063,"265 SOUTH RANDOLPH AVENUE SUITE 250","BREA","CA","92821"
145064,"265 SOUTH WESTERN AVE 243076","LOS ANGELES","CA","90004"
145065,"265 SPRINGDALE DR","GARDENDALE","AL","35071"
145066,"265 STONEGATE ROAD","ALGONQUIN","IL","60102"
145067,"265 SUNFLOWER LANE","COVINGTON","GA","30016"
145068,"265 SUNRISE HIGHWAY STE 1","ROCKVILLE CENTRE","NY","11570"
145069,"265 SUNRISE HWY UNIT 1-417","ROCKVILLE CENTRE","NY","11570"
145070,"265 THICKET STREET","WEYMOUTH","MA","02190"
145071,"265 TOWERIDGE DR SW","MARIETTA","GA","30064"
145072,"265 TRYON STREET","SOUTH GLASTONBURY","CT","06073"
145073,"265 TURKEYSAG TRAIL SUITE 102 - 143","PALMYRA","VA","22963"
145074,"265 VALLEY BROOK DR","COVINGTON","GA","30016"
145075,"265 W 4TH S","SODA SPRINGS","ID","83276"
145076,"265 W 9TH STREET","SHIP BOTTOM","NJ","08008"
145077,"265 W MIDWAY BLVD","BROOMFIELD","CO","80020"
145078,"265 WASHINGTON ST","ATLANTA","GA","30303"
145079,"265 WEST WATER STREET SUITE 2","BERNE","IN","46711"
145080,"265 WEST WATER STREET","BERNE","IN","46711"
145081,"265 WINDSOR DRIVE NE","CEDAR RAPIDS","IA","52402"
145082,"265 WOODRIDGE CIRCLE","ATHENS","GA","30601"
145083,"2650 9TH AVE","MANKATO","MN","56001"
145084,"2650 BARONNE DRIVE","SPRINGFIELD","IL","62704"
145085,"2650 BARTELS ROAD","CINCINNATI","OH","45244"
145086,"2650 BELVIDERE RD SUITE 100","WAUKEGAN","IL","60085"
145087,"2650 BENTLEY RD SE APT 10K","MARIETTA","GA","30067"
145088,"2650 BISCAYNE BLVD","MIAMI","FL","33137"
145089,"2650 BOWMAN MILL ROAD","LEXINGTON","KY","40513"
145090,"2650 CAMINO DEL RIO NORTH STE 202","SAN DIEGO","CA","92108"
145091,"2650 COLLEGE PL  APT L 22","FULLERTON","CA","92831"
145092,"2650 COUNTY RD 5","BEACH","ND","58621"
145093,"2650 COUNTY ROAD 364","ANSON","TX","79501"
145094,"2650 DELMAR BLVD","SAINT LOUIS","MO","63103"
145095,"2650 E DEMPSTER ST  APT GE","DES PLAINES","IL","60016"
145096,"2650 FAIRVIEW RD","COSTA MESA","CA","92626"
145097,"2650 FOREST GROVE","WYOMING","MI","49519"
145098,"2650 FOUNTAIN VIEW CIR 101","NAPLES","FL","34109"
145099,"2650 FOUNTAINVIEW CIR  UNIT 206","NAPLES","FL","34109"
145100,"2650 FRIESIAN CT","RENO","NV","89521"
145101,"2650 GIBBS WILLIAMS RD","DALLAS","TX","75233"
145102,"2650 JAMACHA RD STE 147 PMB 204","EL CAJON","CA","92019"
145103,"2650 JOHN CARLSON RD","BREMERTON","WA","98311"
145104,"2650 LAWRENCE COURT","ERIE","CO","80026"
145105,"2650 LOGAN WOOD DRIVE","HERNDON","VA","20171"
145106,"2650 MAIN STREET","GLASTONBURY","CT","06033"
145107,"2650 MIDDLE AVENUE","NORFOLK","VA","23504"
145108,"2650 MIGLIARA LN","EUSTIS","FL","32726"
145109,"2650 MOUNTAIN CLOVER","GARDNERVILLE","NV","89410"
145110,"2650 N FOUNTAIN ST","WICHITA","KS","67220"
145111,"2650 N LAKEVIEW AVE STE 1110","CHICAGO","IL","60614"
145112,"2650 N REED ROAD","CHINO VALLEY","AZ","86323"
145113,"2650 NORTH BLUFF","WICHITA","KS","67220"
145114,"2650 NORTH PAGE SPRINGS ROAD","CORNVILLE","AZ","86325"
145115,"2650 OLDE IVY LANE SUITE 2A","CONYERS","GA","30094"
145116,"2650 ORANGE BRANCH ROAD","EUSTIS","FL","32726"
145117,"2650 PARKVIEW DR","FORT WORTH","TX","76102"
145118,"2650 RIVER PARK DR","FORT WORTH","TX","76116"
145119,"2650 S 32ND ST","ABILENE","TX","79605"
145120,"2650 S DECKER LAKE LANE UNIT 2","WEST VALLEY CITY","UT","84119"
145121,"2650 S FORUM DR APT 10202","GRAND PRAIRIE","TX","75052"
145122,"2650 S WOLFCREEK ROAD","COLUMBUS","IN","47201"
145123,"2650 SAM POWELL TRAIL","SIGNAL MOUNTAIN","TN","37377"
145124,"2650 STAGHORN DR","TOLEDO","OH","43614"
145125,"2650 SUNSET BLVD","ROCKLIN","CA","95677"
145126,"2650 SW 27 AVE 301","MIAMI","FL","33243"
145127,"2650 SW 27 AVENUE 2ND FLOOR","MIAMI","FL","33133"
145128,"2650 UNIVERSITY AVE W UNIT 315","ST. PAUL","MN","55114"
145129,"2650 W TORTOLITA HILLS TRAIL","TUCSON","AZ","85755"
145130,"2650 WALNUT STREET","DENVER","CO","80205"
145131,"2650 WESTVIEW DRIVE","WYOMISSING","PA","19610"
145132,"2650 WOODLAKE PKWY","CONVERSE","TX","78109"
145133,"2650 YOUNG ROAD","STONE MOUNTAIN","GA","30088"
145134,"2650","DULUTH","GA","30097"
145135,"26500 AGOURA RD SUITE 795","CALABASAS","CA","91302"
145136,"26500 AGOURA ROAD SUITE 102-401","CALABASAS","CA","91302"
145137,"26500 AGOURA ROAD SUITE 102-561","CALABASAS","CA","91302"
145138,"26500 GRAND RIVER","REDFORD","MI","48240"
145139,"26500 TIMBERLANE WAY SE","COVINGTON","WA","98042"
145140,"26500 W AGOURA RD SUITE 102738","CALABASAS","CA","91302"
145141,"26501 DESERT VISTA BLVD","BUCKEYE","AZ","85396"
145142,"26502 MOUNTZ RD","HOMEWORTH","OH","44634"
145143,"26503 DOVER LINE RD","WATERFORD","WI","53185"
145144,"26507 COUNTY ROAD 32","GOSHEN","IN","46526"
145145,"26507 MIDDLEBELT ROAD","FARMINGTON HILLS","MI","48334"
145146,"26509 CR 48","KERSEY","CO","80644"
145147,"2651 BEDFORD PL NW","CONCORD","NC","28027"
145148,"2651 COLONEL HARRISON DRIVE","JOHNS ISLAND","SC","29455"
145149,"2651 CUMBERLAND DRIVE","JANESVILLE","WI","53546"
145150,"2651 DUANE DRIVE","SAGINAW","MI","48603"
145151,"2651 EAGLE RIDGE CT","GRAND JUNCTION","CO","81503"
145152,"2651 EAST CALLE DE FLORES","GILBERT","AZ","85298"
145153,"2651 FAVOR RD APT 1N1","MARIETTA","GA","30060"
145154,"2651 FRANCES AVENUE","ST LOUIS","MO","63114"
145155,"2651 GADSEN WALK","DULUTH","GA","30097"
145156,"2651 MELROSE AVENUE","CINCINNATI","OH","45206"
145157,"2651 MONROE ST","HOLLYWOOD","FL","33020"
145158,"2651 N Y STATE ROUTE 12B","DEANSBORO","NY","13328"
145159,"2651 NW 5TH STREET","POMPANO BEACH","FL","33069"
145160,"2651 OBSERVATORY AVE SUITE 10","CINCINNATI","OH","45208"
145161,"2651 PEARLAND PARKWAY STE 102","PEARLAND","TX","77581"
145162,"2651 PEARLAND PKWY STE 102","PEARLAND","TX","77581"
145163,"2651 S BOSTON AVENUE","TULSA","OK","74114"
145164,"2651 SEARLES 1222","LAS VEGAS","NV","89101"
145165,"2651 SW 27 AVENUE","MIAMI","FL","33133"
145166,"2651 W GREENLEAF AVE 1W","CHICAGO","IL","60645"
145167,"2651 WOODLAKE CT APT 5","WYOMING","MI","49519"
145168,"26510 DANBRIDGE HILLS LN","KATY","TX","77494"
145169,"26510 FOREST PINE LANE","KATY","TX","77494"
145170,"26510 LOGAN LN","SPOONER","WI","54801"
145171,"26511 E 203RD ST","PLEASANT HILL","MO","64080"
145172,"26511 VALPARAISO DR","PUNTA GORDA","FL","33983"
145173,"26512 BIMELER COURT","GEORGETOWN","DE","19947"
145174,"26512 FARMWAY ROAD","CALDWELL","ID","83607"
145175,"26513 S 118TH STREET","CHANDLER","AZ","85249"
145176,"26514 PRADERA LN","MENIFEE","CA","92584"
145177,"26515 NATURAL BRIDGE CAVERNS RD","SAN ANTONIO","TX","78266"
145178,"26515 OAKRIDGE DR","SPRING","TX","77380"
145179,"26515 OLD HOLLEY RD","SWEET HOME","OR","97386"
145180,"26516 OSO ROJO","MISSION VIEJO","CA","92692"
145181,"26519 ROYAL VISTA CT","CANYON COUNTRY","CA","91351"
145182,"2652 BONAFFON STREET","PHILADELPHIA","PA","19142"
145183,"2652 CHURCH LANE","SAN PABLO","CA","94806"
145184,"2652 CROSPEY AVENUE","BROOKLYN","NY","11214"
145185,"2652 HARRISON ST","BEAUMONT","TX","77702"
145186,"2652 KEYSER DRIVE","STOCKTON","CA","95212"
145187,"2652 MARK DR","MESQUITE","TX","75150"
145188,"2652 N 85TH STREET","WAUWATOSA","WI","53226"
145189,"2652 NC HIGHWAY 56","CREEDMOOR","NC","27522"
145190,"2652 SOUTH 70TH STREET","PHILADELPHIA","PA","19142"
145191,"2652 SUPERIOR STREET","OPA LOCKA","FL","33054"
145192,"2652 VERGIL CT","CASTRO VALLEY","CA","94546"
145193,"26520 482ND AVE","BRANDON","SD","57005"
145194,"26520 GRAND RIVER SUITE 103","REDFORD","MI","48240"
145195,"26520 ORANGE AVE","REDLANDS","CA","92373"
145196,"26521 CORNELL ST","LOMA LINDA","CA","92354"
145197,"26522 FLORENCE ACRES RD","MONROE","WA","98272"
145198,"26524 JOHN R ROAD","MADISON HEIGHTS","MI","48071"
145199,"26524 SUMMERDALE DRIVE","SOUTHFIELD","MI","48033"
145200,"26525 SMITHTOWN ROAD","SHOREWOOD","MN","55331"
145201,"26527 CLARITA","REDFORD","MI","48240"
145202,"2653 AUSTIN HWY","SAN ANTONIO","TX","78218"
145203,"2653 AVE C SW","WINTER HAVEN","FL","33880"
145204,"2653 DOUGLASS RD SE APT 202","WASHINGTON","DC","20020"
145205,"2653 EAST 13 STREET 1ST FL","BROOKLYN","NY","11235"
145206,"2653 EVANS CIRCLE","SHALLOTTE","NC","28470"
145207,"2653 GREENFIELD AVENUE","LOS ANGELES","CA","90064"
145208,"2653 MALCOLM ST","SHREVEPORT","LA","71108"
145209,"2653 MONTEVALLO ROAD","BIRMINGHAM","AL","35223"
145210,"2653 N ELYRIA RD","WOOSTER","OH","44691"
145211,"2653 N RACINE AVE APT 3","CHICAGO","IL","60614"
145212,"2653 OHIO AVENUE","SAINT LOUIS","MO","63118"
145213,"2653 PINE KNOLL RD","DANBURY","WI","54830"
145214,"2653 S CHERRY TREE LANE","SUTTONS BAY","MI","49682"
145215,"2653 SNOW ROAD","LAS CRUCES","DC","88005"
145216,"2653 TEAL LN","UNION CITY","CA","94587"
145217,"2653 W CRYSTAL ST APT 3F","CHICAGO","IL","60622"
145218,"2653 WARWICK CIRCLE NE","ATLANTA","GA","30345"
145219,"26530 GREENWOOD DRIVE","DENHAM SPRINGS","LA","70726"
145220,"26530 REECK RD APT 166","WOODHAVEN","MI","48183"
145221,"26532 BIRDSONG LANE","WANBLEE","SD","57577"
145222,"26535 BURG ROAD","WARREN","MI","48089"
145223,"26535 CHIMNEY SPIRE LANE","WESLEY CHAPEL","FL","33544"
145224,"26535 INDIAN SERVICE ROAD","HIGHLAND","CA","92346"
145225,"26536 WHITE DOVE AVENUE","ROCKAWAY BEACH","OR","97136"
145226,"26537 HOLT 210","MOUND CITY","MO","64470"
145227,"26539 FRANKLIN POINTE DRIVE","SOUTHFIELD","MI","48034"
145228,"2654 COLLINS ST","BLUE ISLAND","IL","60406"
145229,"2654 E BERYL AVENUE","PHOENIX","AZ","85028"
145230,"2654 EAST PAGE AVE","GILBERT","AZ","85234"
145231,"2654 MELVILLE DRIVE","EAST LANSING","MI","48823"
145232,"2654 N 250 E","NORTH OGDEN","UT","84414"
145233,"2654 N MORELAND SUITE 28","CLEVELAND","OH","44120"
145234,"2654 NOAHS ARK RD","JONESBORO","GA","30236"
145235,"2654 SW 332ND COURT","FEDERAL WAY","WA","98023"
145236,"2654 W HORIZON RIDGE PKWY ST B5 87","HENDERSON","NV","89052"
145237,"2654 WEST 28TH STREET","RIVIERA BEACH","FL","33404"
145238,"26541 SILVER SPUR ROAD","RANCHO PALOS VERDES","CA","90274"
145239,"26542 FOAMFLOWER BLVD","WESLEY CHAPEL","FL","33544"
145240,"26549 410TH ST","SHEVLIN","MN","56676"
145241,"2655 AIRPORT BLVD","MOBILE","AL","36606"
145242,"2655 APPLE WAY","ANN ARBOR","MI","48104"
145243,"2655 ARBOR DR","BROOKFIELD","WI","53005"
145244,"2655 CAPITAL CIRCLE NE STE 3","TALLAHASSEE","FL","32308"
145245,"2655 CASEY STREET","SAN DIEGO","CA","92139"
145246,"2655 CINDY PLACE","PORT HUENEME","CA","93041"
145247,"2655 E BOILING SPRING RD","SOUTHPORT","NC","28461"
145248,"2655 EL CAMINITO","LA CRESCENTA","CA","91214"
145249,"2655 ELDRIDGE ROAD","EAST AURORA","NY","14052"
145250,"2655 FIRST STREET  SUITE 250","SIMI VALLEY","CA","93065"
145251,"2655 HILLSIDE LANE","EVANSTON","IL","60201"
145252,"2655 HOLMES MILL PL SW","MARIETTA","GA","30064"
145253,"2655 LAKE RIDGE DRIVE","LITTLE ELM","TX","75068"
145254,"2655 LE JEUNE ROAD FIFTH FLOOR","CORAL GABLES","FL","33134"
145255,"2655 LEJUENE ROAD SUITE 516","CORAL GABLES","FL","33134"
145256,"2655 LEJUNE ROAD SUIT 413E","CORAL GABLES","FL","33134"
145257,"2655 LONG BLUFF ROAD NE","CEDAR RAPIDS","IA","52402"
145258,"2655 N YARBROUGH","EL PASO","TX","79925"
145259,"2655 NEPTUNE AVENUE","SEAFORD","NY","11783"
145260,"2655 NORTH 140 EAST UNIT 202","PROVO","UT","84604"
145261,"2655 OSBORNE ROAD","CHESTER","VA","23831"
145262,"2655 PROSPERITY AVE APT 352","FAIRFAX","VA","22031"
145263,"2655 RESEARCH PARK DR","FITCHBURG","WI","53711"
145264,"2655 S DECATUR BLVD","LAS VEGAS","NV","89102"
145265,"2655 SIENA HEIGHTS DR","HENDERSON","NV","89052"
145266,"2655 SUNFLOWER DR","BROWNSVILLE","TX","78521"
145267,"2655 TOWNSHIP ROAD 182","BELLEFONTAINE","OH","43311"
145268,"2655 ULMERTON RD NO 346","CLEARWATER","FL","33762"
145269,"2655 W GUADALUPE ROAD 27","MESA","AZ","85202"
145270,"2655 W MARION DR","WEST JORDAN","UT","84084"
145271,"2655 W OVERHILL","STEPHENVILLE","TX","76401"
145272,"2655 WEST OLYMPIC BLVD  SUITE 207","LOS ANGELES","CA","90006"
145273,"2655 WINDAGE DR SW","MARIETTA","GA","30008"
145274,"2655","CORAL GABLES","FL","33134"
145275,"26550 EAGLE VIEW DRIVE","WATERFORD","WI","53185"
145276,"26555 WESTFIELD","REDFORD","MI","48239"
145277,"2656 ANDERSON ROAD","BURLINGTON","NC","27217"
145278,"2656 CANTERCLUB TR","APOPKA","FL","32712"
145279,"2656 E 55TH WAY APT 5","LONG BEACH","CA","90805"
145280,"2656 HOGBACK ROAD","SUNBURY","OH","43074"
145281,"2656 LAKE ST","ORLANDO","FL","32818"
145282,"2656 NOTTINGHAM LANE","FENTON","MO","63026"
145283,"2656 ROUTE 22","PATTERSON","NY","12563"
145284,"2656 W DESERT BLUFFS CT","TUCSON","AZ","85742"
145285,"2656 WEST 25TH ST","JACKSONVILLE","FL","32209"
145286,"2656 WOODCREST DR","CONCORD","NC","28027"
145287,"26565 AGOURA RD STE 209","CALABASAS","CA","91302"
145288,"26565 AGOURA ROAD SUITE 200","CALABASAS","CA","91302"
145289,"26565 MAPLE LEAF DR","MORENO VALLEY","CA","92555"
145290,"2657 APPLING RD UNIT 102","MEMPHIS","TN","38133"
145291,"2657 ARTHURS COURT","CLARKSVILLE","TN","37040"
145292,"2657 CAMELOT CT","DULUTH","GA","30096"
145293,"2657 E 56TH WAY UNIT 9","LONG BEACH","CA","90805"
145294,"2657 G ANNAPOLIS RD","HANOVER","GA","21076"
145295,"2657 G ANNAPOLIS ROAD  BOX 241","HANOVER","MD","21076"
145296,"2657 G ANNAPOLIS ROAD  UNIT 241","HANOVER","MD","21076"
145297,"2657 G ANNAPOLIS ROAD UNIT 305","HANOVER","MD","21076"
145298,"2657 GALE CT","JACKSONVILLE","FL","32204"
145299,"2657 IVY DRIVE APT 3","OAKLAND","CA","94606"
145300,"2657 JESSICA LN SW","SUPPLY","NC","28462"
145301,"2657 LENOX RD STE 153","ATLANTA","GA","30324"
145302,"2657 MARFA AVE","DALLAS","TX","75216"
145303,"2657 MARK LANE","WEST LINN","OR","97068"
145304,"2657 NW 27TH AVE","OCALA","FL","34475"
145305,"2657 NW 95TH AVENUE","CORAL SPRINGS","FL","33065"
145306,"2657 ROYAL GATEWAY","BEAVERCREEK","OH","45431"
145307,"2657 S TELEGRAPH","DEARBORN","MI","48124"
145308,"2657 SOUTH ROBINSON ST","PHILADELPHIA","PA","19142"
145309,"2657 SPICEBUSH LOOP","APOPKA","FL","32712"
145310,"2657 SW 8TH ST","FORT LAUDERDALE","FL","33312"
145311,"2657 TALLEY AVE","BIRMINGHAM","AL","35211"
145312,"2657 VAN BUREN PL","LOS ANGELES","CA","90007"
145313,"2657 WILDHURST TRAIL","PACE","FL","32571"
145314,"2657 WINDMILL PARKWAY NUM 614","HENDERSON","NV","89074"
145315,"2657 WINDMILL PKWY STE 123","HENDERSON","NV","89074"
145316,"2657 WINDMILL PKWY UNIT 302","HENDERSON","NV","89074"
145317,"26571 MCLEMORE CIRCLE","HARVEST","AL","35749"
145318,"26572 HIGHWAY 5","MILAN","MO","63556"
145319,"26573 QUANTICO CREEK ROAD","HEBRON","MD","21830"
145320,"26576 ESTANCIERO DRIVE","MISSION VIEJO","CA","92691"
145321,"2657G ANNAPOLIS RD NUM 156","HANOVER","MD","21076"
145322,"2658 ARACATUBA AVE","LAS VEGAS","NV","89121"
145323,"2658 BLADES ROAD","BEAVERTON","MI","48612"
145324,"2658 BLUE WILLOW CT","CLARKSVILLE","TN","37042"
145325,"2658 DEL MAR HEIGHTS RD STE 514","DEL MAR","CA","92014"
145326,"2658 GRAND ISLAND SHORES RD","EUSTIS","FL","32726"
145327,"2658 GRIFFITH PARK BLVD BOX 308","LOS ANGELES","CA","90039"
145328,"2658 HAMILTON DRIVE","GRAND PRAIRIE","TX","75052"
145329,"2658 JODECO DRIVE","JONESBORO","GA","30236"
145330,"2658 MOFFATT AVE","DALLAS","TX","75216"
145331,"2658 NAPOLEON ST","INDIANAPOLIS","IN","46203"
145332,"2658 NORTH ARMISTEAD AVENUE APT D4","HAMPTON","VA","23666"
145333,"2658 STATE STREET","CARLSBAD","CA","92008"
145334,"2658 TUSCAN HILLS LN","LAS CRUCES","NM","88011"
145335,"26583 462ND AVE","HARTFORD","SD","57033"
145336,"26583 CENTER RIDGE RD","WESTLAKE","OH","44145"
145337,"2659 CARAMBOLA CIRCLE N","COCONUT CREEK","FL","33066"
145338,"2659 EDISON AVE","JACKSONVILLE","FL","32254"
145339,"2659 ENGLEWOOD RD","GREEN BAY","WI","54311"
145340,"2659 FIRST STREET","NAPA","CA","94558"
145341,"2659 GRACEWOOD RD","TOLEDO","OH","43613"
145342,"2659 LIVINGSTON RD","JACKSON","MS","39213"
145343,"2659 PATRICIA ROBERTS HARRIS PL NE","WASHINGTON","DC","20018"
145344,"2659 SAN PABLO WAY","DUARTE","CA","91010"
145345,"2659 SUTHERLAND AVE","INDIANAPOLIS","IN","46205"
145346,"26591 ESPALTER","MISSION VIEJO","CA","92691"
145347,"26592 PEPITA DR","MISSION VIEJO","CA","92691"
145348,"26592 PRESTON PLACE DRIVE","ABINGDON","VA","24211"
145349,"266 3RD AVE","TOMS RIVER","NJ","08757"
145350,"266 AKRON ROAD","LAKE WORTH","FL","33467"
145351,"266 AVALON HILLS DRIVE","FENTON","MO","63026"
145352,"266 BODLEY ROAD","ASTON","PA","19014"
145353,"266 BROAD ST STE H","MILFORD","CT","06460"
145354,"266 BROAD ST","MILFORD","CT","06460"
145355,"266 BROOKE VALLEY BLVD","KNOXVILLE","TN","37922"
145356,"266 BROOKSTONE DR SE","ROCHESTER","MN","55904"
145357,"266 C STREET","REDWOOD CITY","CA","94063"
145358,"266 CATHERINE LANE","WILLITS","CA","95490"
145359,"266 COUNTRY CLUB LANE","POMONA","NY","10970"
145360,"266 DECATUR STREET UNIT 2","BROOKLYN","NY","11233"
145361,"266 DEWITT AVE","BELLEVILLE","NJ","07109"
145362,"266 DONLEA ROAD","BARRINGTON HILLS","IL","60010"
145363,"266 E 19TH ST","PATERSON","NJ","07524"
145364,"266 EAST PARKWOOD ROAD","DECATUR","GA","30030"
145365,"266 F STREET WEST BLDG 901","RANDOLPH AFB","TX","78150"
145366,"266 GATLIN FARM RD","RAEFORD","NC","28376"
145367,"266 HARDMAN AVE N","SOUTH SAINT PAUL","MP","55075"
145368,"266 HARRISON AVE","FRANKLIN","NC","28734"
145369,"266 INDEPENDENCE BLVD","ASHEVILLE","NC","28805"
145370,"266 JASMINE DRIVE","ALBASTER","AL","35007"
145371,"266 JEFFERSON AVE","NEW LONDON","CT","06320"
145372,"266 KENDALL DRIVE","WINSTON-SALEM","NC","27107"
145373,"266 LAKE AVENUE","METUCHEN","NJ","08840"
145374,"266 LINCOLN STREET","WORCESTER","MA","01605"
145375,"266 LIVINGSTON AVE","ALBANY","NY","12210"
145376,"266 LOS REYES DRIVE","SAN DIEGO","CA","92114"
145377,"266 MAGNOLIA ST","ATLANTIC BEACH","FL","32233"
145378,"266 N CASSADY AVE","COLUMBUS","OH","43209"
145379,"266 N M-88 HIGHWAY","BELLAIRE","MI","49615"
145380,"266 N WOODHILL DR","AMHERST","OH","44001"
145381,"266 NORTH BEACON ST","BRIGHTON","MA","02135"
145382,"266 NORTH MAIN STREET","CONCORD","NH","03301"
145383,"266 OAKVIEW CIRCLE","TALLMADGE","OH","44278"
145384,"266 PAGE AVENUE","LYNDHURST","NJ","07071"
145385,"266 PALMER ST","COSTA MESA","CA","92627"
145386,"266 PARKER AVE","MAPLEWOOD","NJ","07040"
145387,"266 PAYSON RD","UNION","ME","04862"
145388,"266 PEPPERPIKE WAY","SAINT AUGUSTINE","FL","32092"
145389,"266 RIDGE ROAD","RIVA","MD","21140"
145390,"266 ROY DAVIS ROAD","NEW MARKET","AL","35761"
145391,"266 S FRONT STREET 108","MEMPHIS","TN","38103"
145392,"266 SIOUX TRAIL","TULAROSA","NM","88352"
145393,"266 STONE ST","ALBERTVILLE","AL","35951"
145394,"266 SUNSET PARK DR","HERNDON","VA","20170"
145395,"266 SW 9TH ROOM 1140","DES MOINES","IA","50315"
145396,"266 WEST 121ST STREET GROUND FL","NEW YORK","NY","10027"
145397,"266 WEST 121ST STREET SUITE 1","NEW YORK","NY","10027"
145398,"266 WILLAMETTE AVE","KENSINGTON","CA","94708"
145399,"266 WILTSHIRE ROAD","WYNNEWOOD","PA","19096"
145400,"266 WYCKOFF STREET OFFICE","BROOKLYN","NY","11217"
145401,"266 YORKMINSTER RD","WEST CHESTER","PA","19382"
145402,"2660 69TH AVE","SACRAMENTO","CA","95822"
145403,"2660 AIRPORT RD SUITE 2780","SANTA TERESA","NM","88008"
145404,"2660 BRIGGS AVENUE SUITE 2","BRONX","NY","10458"
145405,"2660 BUCHANAN STREET","DETROIT","MI","48208"
145406,"2660 BUENA VISTA ROAD SUITE A","COLUMBUS","GA","31906"
145407,"2660 BUENA VISTA ROAD","COLUMBUS","GA","31906"
145408,"2660 CABIN CREEK RD","JEFFERSON","GA","30549"
145409,"2660 CHILI AVENUE APT 20-18","ROCHESTER","NY","14624"
145410,"2660 DICKERSON","DETROIT","MI","48215"
145411,"2660 EAST MAIN ST SUITE 206","VENTURA","CA","93003"
145412,"2660 EASTMAN CROSSING SE","ALBUQUERQUE","NM","87106"
145413,"2660 F ROAD","LOXAHATCHEE GROVES","FL","33470"
145414,"2660 GREENWAY DRIVE","JUPITER","FL","33458"
145415,"2660 HERMITAGE DRIVE","CUMMING","GA","30041"
145416,"2660 HOLIDAY HILL DR","FLORISSANT","MO","63033"
145417,"2660 JOHN MONTGOMERY DR SUITE 27","SAN JOSE","CA","95148"
145418,"2660 LANGLAND COURT","ATLANTA","GA","30345"
145419,"2660 MAIN STREET","SPRINGFIELD","MA","01107"
145420,"2660 N NOBILE ST","PAULINA","LA","70763"
145421,"2660 NW HWY 20 SUITE 610-96","BEND","OR","97701"
145422,"2660 OLD BAINBRIDGE ROAD","TALLAHASSEE","FL","32303"
145423,"2660 PRESCOTT CIRCLE","CHESAPEAKE","VA","23323"
145424,"2660 S UNIVERSITY BLVD UNIT N","DENVER","CO","80210"
145425,"2660 SPYGLASS DR APT C","PISMO BEACH","CA","93449"
145426,"2660 STAFFORD ST","PITTSBURGH","PA","15204"
145427,"2660 TAMALPAIS AVE","EL CERRITO","CA","94530"
145428,"2660 TWIN CREEK TRACE","MARIETTA","GA","30062"
145429,"2660 UNAWEEP AVE","GRAND JCT","CO","81503"
145430,"2660 W 10TH ST","PANAMA CITY","FL","32401"
145431,"2660 WEST PARK DRIVE STE 1","PADUCAH","KY","42001"
145432,"2660 WEST WOODLAND DR SUITE 105","ANAHEIM","CA","92801"
145433,"2660 WOODMAN CENTER COURT","DAYTON","OH","45420"
145434,"2660 YONKERS ROAD","RALEIGH","NC","27604"
145435,"26600 DETROIT ROAD SUITE 300","WESTLAKE","OH","44145"
145436,"26600 S TUCKER RD","ESTACADA","OR","97023"
145437,"26601 S WESTERN AVE APT 305","LOMITA","CA","90717"
145438,"26604 BRICKENRIDGE CIRCLE","MURRIETA","CA","92563"
145439,"26604 STATE ROUTE 92","EXCELSIOR SPRINGS","MO","64024"
145440,"26605 HIGHWAY H","MARSHALL","MO","65340"
145441,"26608 NORTHEASTERN HWY","MADISON HEIGHTS","MI","48071"
145442,"2661 BEACH RD BLDG 1","WATSONVILLE","CA","95076"
145443,"2661 CANDLEWOOD PLACE","DECATUR","IL","62521"
145444,"2661 CHENE CT APT 507","DETROIT","MI","48207"
145445,"2661 CORRINTH RD","OLYMPIA FIELDS","IL","60461"
145446,"2661 CUNOT CATARACT RD","SPENCER","IN","47460"
145447,"2661 EAGLE RIDGE DR","GRAND JUNCTION","CO","81503"
145448,"2661 EBONY ROAD","BALTIMORE","MD","21234"
145449,"2661 FRANKLIN DR APT 1606","MESQUITE","TX","75150"
145450,"2661 HELMSMAN LANE","WOODBRIDGE","VA","22191"
145451,"2661 MEYER ST SW","WYOMING","MI","49519"
145452,"2661 N 2ND STREET","MILWAUKEE","WI","53212"
145453,"2661 N 53RD ST","MEQUON","WI","53092"
145454,"2661 N DONNA AVENUE","NOGALES","AZ","85621"
145455,"2661 N ILLINOIS PO BOX 137","SWANSEA","IL","62226"
145456,"2661 N PEARL ST","TACOMA","WA","98407"
145457,"2661 NW 60 TER","SUNRISE","FL","33313"
145458,"2661 PARKSIDE WAY","SNELLVILLE","GA","30078"
145459,"2661 QUEENSTOWN ROAD","BIRMINGHAM","AL","35210"
145460,"2661 RIVA ROAD BLDG 600 STE 601","ANNPOLIS","MD","21401"
145461,"2661 SCENIC LANE","NASHUA","IA","50658"
145462,"2661 SOUTH CARL PLACE","SAN BERNARDINO","CA","92408"
145463,"2661 VULCAN ST","HARVEY","LA","70058"
145464,"26610 AGOURA ROAD STE 120","CALABASAS","CA","91302"
145465,"26610 ECKEL ROAD  STE 3B","PERRYSBURG","OH","43551"
145466,"26610 PARKSIDE DR","TAYLOR","MI","48180"
145467,"26611 LAS TUNAS DRIVE","MISSION VIEJO","CA","92692"
145468,"26611 STUDENT FLOOR 2","REDFORD","MI","48239"
145469,"26612 FRONTIER AVE","WYOMING","MN","55092"
145470,"26613 WESTON HILLS DR","MURRIETA","CA","92563"
145471,"26615 52ND LN S","KENT","WA","98032"
145472,"26617 FM 509","SAN BENITO","TX","78586"
145473,"26618 ROAN AVE","WARREN","MI","48089"
145474,"2662 BERKLEY STREET","CAMDEN","NJ","08105"
145475,"2662 CHERRY ST","DENVER","CO","80207"
145476,"2662 E SOURWOOD COURT","GILBERT","AZ","85298"
145477,"2662 GARDNER FIELD RD","UVALDE","TX","78801"
145478,"2662 INDUSTRIAL BLVD","ABILENE","TX","79605"
145479,"2662 MARCEILLE DR","COEUR D ALENE","ID","83815"
145480,"2662 MEADOW CREST COURT","RICHMOND","CA","94806"
145481,"2662 N SHEFFORD CT","WICHITA","KS","67205"
145482,"2662 PICCADILLY CIRCLE","SAN RAMON","CA","94582"
145483,"2662 S DECATUR BLVD BLDG 1 APT 103","LAS VEGAS","VA","89102"
145484,"2662 S FM 200 NUM 459","NEMO","TX","76070"
145485,"2662 SAINT CHARLES ST","FORT MYERS","FL","33916"
145486,"2662 TALLOWTREE DR","STERLING HEIGHTS","MI","48314"
145487,"26620 N 41ST ST","CAVE CREEK","AZ","85331"
145488,"26625 GRANDE POPLAR CT","PLAINFIELD","IL","60585"
145489,"26627 GRANITE KNOLLE LANE","CYPRESS","TX","77433"
145490,"26627 TAYLOR STREET","VALLEY","NE","68064"
145491,"26629 STATE HWY 6 S","NAVASOTA","TX","77868"
145492,"2663 CARAMBOLA CIR N","COCONUT CREEK","FL","33066"
145493,"2663 CLEARFIELD LANE","FRISCO","TX","75034"
145494,"2663 COLLINGWOOD STREET","DETROIT","MI","48206"
145495,"2663 COVINGTON ROAD","SAN DIEGO","CA","92104"
145496,"2663 EDMUND DR","GULF BREEZE","FL","32563"
145497,"2663 ELMORE PARK ROAD","BARTLETT","TN","38134"
145498,"2663 FAIRMOUNT LANE","TALLAHASSEE","FL","32308"
145499,"2663 HEATH AVENUE 20 C","BRONX","NY","10463"
145500,"2663 HEATH AVENUE APT 11F","BRONX","NY","10463"
