"ID","Address","City","State","Zip"
213501,"44 KONTIKI CIRCLE","ST AUGUSTINE","FL","32080"
213502,"44 LAKE CROSSING COURT","FAYETTEVILLE","GA","30215"
213503,"44 LAKE STREET","LE ROY","NY","14482"
213504,"44 LAKES AT CHESHIRE DR","DELAWARE","OH","43015"
213505,"44 LANDAU ROAD","PLAINVILLE","MA","02762"
213506,"44 LAUREL WAY","WHITE","GA","30184"
213507,"44 LEE ST","PAW PAW","WV","25434"
213508,"44 LEROY AVE","VALHALLA","NY","10595"
213509,"44 LEWIS AVE APT 2J","BROOKLYN","NY","11206"
213510,"44 LOCUST STREET","MERRIMAC","MA","01860"
213511,"44 LOGANSPORT COURT","MONTGOMERY","TX","77356"
213512,"44 LONDON COURT","MERRIMACK","NH","03054"
213513,"44 LONG BEACH 3","ROCKPORT","MA","01966"
213514,"44 LUMBERJACK LANE","PINE GROVE","WV","26419"
213515,"44 LYNAM ROAD","STAMFORD","CT","06903"
213516,"44 LYNN CT","BOGOTA","NJ","07603"
213517,"44 MAIN STREET","SAXTONS RIVER","VT","05154"
213518,"44 MAIN STREET","SPERRYVILLE","VA","22740"
213519,"44 MAPLE STREET SUITE 1","DANVERS","MA","01923"
213520,"44 MARBLE AVENUE NUMBER 2","BURLINGTON","VT","05401"
213521,"44 MARGARET DRIVE","SOMERSET","NJ","08873"
213522,"44 MARION ST","QUINCY","MA","02170"
213523,"44 MARION STREET","QUINCY","MA","02170"
213524,"44 MARKET STREET","PASSAIC","NJ","07055"
213525,"44 MARSHALL STREET","MEDFORD","MA","02155"
213526,"44 MARYLAND AVE APT 1001","ROCKVILLE","MD","20850"
213527,"44 MCKAY DRIVE","EXETER","NH","03833"
213528,"44 MELWAY CIRCLE","MONTEREY","CA","93940"
213529,"44 MELWOOD COURT","SICKLERVILLE","NJ","08081"
213530,"44 MILTON AVE","ALPHARETTA","GA","30004"
213531,"44 MINE RD STE 2 PMB 189","STAFFORD","VA","22554"
213532,"44 MINE ROAD - SUITE 2 BOX 213","STAFFORD","VA","22554"
213533,"44 MINE ROAD SUITE 2-169","STAFFORD","VA","22554"
213534,"44 MOBILE LANE","ONTARIO","OR","97914"
213535,"44 MOCKINGBIRD WAY","MEDFORD","NJ","08055"
213536,"44 MOLASSES HILL ROAD","BROOKFIELD","MA","01506"
213537,"44 MONROE ST        4","OSWEGO","IL","60543"
213538,"44 MONTGOMERY STREET SUITE 4250","SAN FRANCISCO","CA","94104"
213539,"44 MYSTIC VIEW LANE","DOYLESTOWN","PA","18901"
213540,"44 N 2ND STREET SUITE 800","MEMPHIS","TN","38103"
213541,"44 N BROAD UNIT 534","CANFIELD","OH","44406"
213542,"44 N CHAMPLAIN ST APT 2","BURLINGTON","VT","05401"
213543,"44 N EDGEWATER AVE","YARDLEY","PA","19067"
213544,"44 NASSAU STREET UNIT E","PRINCETON","NJ","08542"
213545,"44 NE MEIKLE PLACE","PORTLAND","OR","97213"
213546,"44 NEAL COVE","BRYANT","AR","72022"
213547,"44 NEETA TRL","MEDFORD LAKES","NJ","08055"
213548,"44 NEW SHAKER ROAD","ALBANY","NY","12205"
213549,"44 NOBSCUSSET ROAD","DENNIS","MA","02638"
213550,"44 NORTH 9TH ST","EASTON","PA","18042"
213551,"44 NORTH FOREST AVENUE","GENEVA","OH","44041"
213552,"44 NORTH SPRING STREET","BLOOMFIELD","NJ","07003"
213553,"44 NORTHWOODS ROAD","OCEAN TWP","NJ","07712"
213554,"44 OGLE ROAD","OLD TAPPAN","NJ","07675"
213555,"44 ORANGE STREET APT 714","NEW HAVEN","CT","06510"
213556,"44 PAKANI STREET","MAKAWAO","HI","96768"
213557,"44 PALMER ST","SOMERSET","MA","02726"
213558,"44 PARK STREET","HOLLAND","NY","14080"
213559,"44 PARKENSON ROAD","NEW BLOOMFIELD","PA","17068"
213560,"44 PARKER STREET","BROCKTON","MA","02302"
213561,"44 PARKWAY COMMONS WAY","GREER","SC","29650"
213562,"44 PIERREPONT AVE THE CRANE SCHOOL","POTTSDAM","NY","13676"
213563,"44 PINE GROVE ROAD","BERKELEY HEIGHTS","NJ","07922"
213564,"44 PONDEROSA LN","MIDWAY","FL","32343"
213565,"44 PORTUGUESE BEND ROAD","ROLLING HILLS","CA","90274"
213566,"44 PROSPECT LAKE ROAD","NORTH EGREMONT","MA","01230"
213567,"44 PUTTERS WAY","MIDDLETOWN","NY","10940"
213568,"44 QUAIL FOREST DRIVE","SAVANNAH","GA","31419"
213569,"44 RED LEAF RD","MOORESTOWN","NJ","08057"
213570,"44 RICHARDSON STREET","BRIDGEPORT","CT","06610"
213571,"44 RIVER ROAD","WESTON","MA","02493"
213572,"44 RIVERVIEW WAY","TIFTON","GA","31793"
213573,"44 ROBINSON STREET","NEW LONDON","CT","06320"
213574,"44 ROSS AVE","COLUMBUS","GA","31903"
213575,"44 RYERSON AVENUE","NEWTON","NJ","07860"
213576,"44 S FRANKLIN STREET","BLOOMFIELD","IN","47424"
213577,"44 S WALNUT ST","SLATINGTON","PA","18080"
213578,"44 S WARNER AVE","BRYN MAWR","PA","19010"
213579,"44 SANTALINA  DRIVE","SICKLERVILLE","NJ","08081"
213580,"44 SAPP ST","INGLIS","FL","34449"
213581,"44 SAWGRASS DRIVE","WESTAMPTON","NJ","08060"
213582,"44 SHELTER ROCK ROAD","TRUMBULL","CT","06611"
213583,"44 SHERMAN AVENUE 5C","JERSEY CITY","NJ","07307"
213584,"44 SHERRY ROAD","SOUTH BURLINGTON","VT","05403"
213585,"44 SMYTHE DR","WILLIAMS BAY","WI","53191"
213586,"44 SODDARD ROAD","POMFRET CENTER","CT","06259"
213587,"44 SOUTH MUNN AVE 4T","EAST ORANGE","NJ","07018"
213588,"44 SOUTH MUNN AVE APT1T","EAST ORANGE","NJ","07018"
213589,"44 SOUTH MUNN STREET SUITE 9E","EAST ORANGE","NJ","07018"
213590,"44 SOUTHPORT DR","HOWELL","NJ","07731"
213591,"44 SPRING ROAD","LAKE OZARK","MO","65049"
213592,"44 SPRING ST","DANBURY","CT","06810"
213593,"44 STAFFORD STREET UNIT 3","WORCESTER","MA","01603"
213594,"44 STAMFORD AVE","PROVIDENCE","RI","02907"
213595,"44 STANNARD AVE","BRANFORD","CT","06405"
213596,"44 STANWYCK RD","MOUNT LAUREL","NJ","08054"
213597,"44 STARRS RIDGE RD","REDDING","CT","06896"
213598,"44 STEDMAN STREET UNIT 6","LOWELL","MA","01851"
213599,"44 STEPHEN WOODS LA","DURHAM","CT","06422"
213600,"44 STRAWBERRY HILL AVENUE 9J","STAMFORD","CT","06902"
213601,"44 STUTZ BEARCAT DR","SEDONA","AZ","86336"
213602,"44 SUMNER ROAD 1","NEW HAVEN","VT","05472"
213603,"44 SUSAN DR","NEWBURGH","NY","12550"
213604,"44 SYCAMORE LN","PALMAYRA","PA","17078"
213605,"44 SYLVAN AVE STE 2F","ENGLEWOOD CLIFFS","NJ","07632"
213606,"44 SYLVAN AVENUE - SUITE 2C","ENGLEWOOD CLIFFS","NJ","07632"
213607,"44 TAYLOR STREET","SAUGUS","MA","01906"
213608,"44 TEHAMA ST","SAN FRANCISCO","CA","94105"
213609,"44 THOMPSON STREET","BRUNSWICK","ME","04011"
213610,"44 THORNTON STREET","NEWTON","MA","02458"
213611,"44 TIFFANY PLACE","IRVINGTON","NJ","07111"
213612,"44 TINDER ROAD","LEVITTOWN","PA","19056"
213613,"44 TREASURE CREEK","GREENBRIER","AR","72058"
213614,"44 TUPELO DRIVE","OLD BRIDGE","NJ","08857"
213615,"44 UPLAND","COLORADO SPRINGS","CO","80906"
213616,"44 VALLEY CIRCLE","MILL VALLEY","CA","94941"
213617,"44 VARNEY RD  P O BOX 71","SUMNER","ME","04292"
213618,"44 VISTA CIRCLE","HOLDEN","MA","01520"
213619,"44 VISTA MONTANA LOOP","PLACITAS","NM","87043"
213620,"44 W 5TH STREET","ANDERSON","IN","46016"
213621,"44 W BROADWAY APT 1405","SALT LAKE CTY","UT","84101"
213622,"44 W BROADWAY SUITE 143","SALT LAKE CITY","UT","84101"
213623,"44 W GARFIELD BLVD","CHICAGO","IL","60609"
213624,"44 W WASHINGTON ST","SHELBYVILLE","IN","46176"
213625,"44 WALNUT SPRINGS RD","DOVER","PA","17406"
213626,"44 WASHINGTON AVE","EVANSVILLE","IN","47713"
213627,"44 WAYNE STREET","CROTON-ON-HUDSON","NY","10520"
213628,"44 WELLS HILL ROAD","WESTON","CT","06883"
213629,"44 WEST 130TH STREET","NEW YORK","NY","10037"
213630,"44 WEST ALFORD ROAD","WEST STOCKBRIDGE","MA","01266"
213631,"44 WEST CHESAPEAKE AVE","TOWSON","MD","21204"
213632,"44 WEST CHESAPEAKE AVENUE SUITE 205","TOWSON","MD","21204"
213633,"44 WEST CHESTNUT STREET","MERCHANTVILLE","NJ","08109"
213634,"44 WEST KING ST","LANCASTER","PA","17603"
213635,"44 WEST KING STREET","LANCASTER","PA","17603"
213636,"44 WEST RAILROAD STREET","WINNEMUCCA","NV","89445"
213637,"44 WEST STERLING STREET","WHARTON","NJ","07885"
213638,"44 WHITEWOOD DR","MORRIS PLAINS","NJ","07950"
213639,"44 WILDERNESS WAY","WILLINGTON","CT","06279"
213640,"44 WILLETS WAY","NEWBURGH","NY","12550"
213641,"44 WILLIAM F PALMER RD","MOODUS","CT","06469"
213642,"44 WILSON AVENUE","LANCASTER","PA","17603"
213643,"44 WIMBLEDON CIRCLE","PORTSMOUTH","RI","02871"
213644,"44 WINDSOR PLACE NO 1","BROOKLYN","NY","11215"
213645,"44 WINTER STREET","HINGHAM","MA","02043"
213646,"44 WOODCREST DR","SHARPSBURG","GA","30277"
213647,"44 WOODLAWN DRIVE","CLEVELAND","GA","30528"
213648,"44 WOODY CREST DRIVE","PITTSBURGH","PA","15234"
213649,"44 WYNDMOOR PLACE APT F","GWYNN OAK","MD","21207"
213650,"44 WYNDY BROOK LANE","MADISON","CT","06443"
213651,"44-01 11TH ST","LONG ISLAND CITY","NY","11101"
213652,"44-01 BROADWAY","ASTORIA","NY","11103"
213653,"44-02 23RD STREET STUDIO 216","LONG ISLAND CITY","NY","11101"
213654,"44-116 KEAALAU PLACE","KANEOHE","HI","96744"
213655,"44-44TH ST","KENTWOOD","MI","49548"
213656,"44-70 21ST STREET 3109","LONG ISLAND CITY","NY","11101"
213657,"44-D MRAVLAG MANOR","ELIZABETH","NJ","07202"
213658,"44","ESSEX","MD","21221"
213659,"44","FELTON","CA","95018"
213660,"440 28TH ST","MANHATTAN BEACH","CA","90266"
213661,"440 ALLENS LANDING COURT","LAWRENCEVILLE","GA","30045"
213662,"440 ANITA DRIVE","GOOSE CREEK","SC","29445"
213663,"440 ARCHAIC DR","WINTER HAVEN","FL","33880"
213664,"440 ASTER ST","WHITE ROCK","NM","87547"
213665,"440 AUBURN HILLS DRIVE","CORALVILLE","IA","52241"
213666,"440 BATTLES STREET EXT","BROCKTON","MA","02301"
213667,"440 BENMAR DR STE 1085","HOUSTON","TX","77060"
213668,"440 BENMAR DR STE 2295","HOUSTON","TX","77060"
213669,"440 BENMAR DR SUITE 2425","HOUSTON","TX","77060"
213670,"440 BENMAR DRIVE -SUITE 2255","HOUSTON","TX","77060"
213671,"440 BENMAR DRIVE 1088","HOUSTON","TX","77060"
213672,"440 BENMAR DRIVE SUITE 3350","HOUSTON","TX","77060"
213673,"440 BERNICE SNOW RD","GREER","SC","29651"
213674,"440 BUCKINGHAM AVENUE","FLINT","MI","48507"
213675,"440 BURROUGHS BOX NUMBER 612","DETROIT","MI","48202"
213676,"440 BURROUGHS ST STE 527","DETROIT","MI","48202"
213677,"440 BURROUGHS ST SUITE 196","DETROIT","MI","48202"
213678,"440 BURROUGHS ST","DETROIT","MI","48202"
213679,"440 BURROUGHS STREET SUITE 301","DETROIT","MI","48202"
213680,"440 BURROUGHS","DETROIT","MI","48201"
213681,"440 BURROUGHS","DETROIT","MI","48202"
213682,"440 BUTTERNUT CREEK ROAD","BLAIRSVILLE","GA","30512"
213683,"440 CANYON DRIVE APT 15","OCEANSIDE","AZ","92054"
213684,"440 CHEROKEE LANE","KALISPELL","MT","59901"
213685,"440 CLEVELAND DRIVE","CHEEKTOWAGA","NY","14225"
213686,"440 COBIA DRIVE  SUITE 704","KATY","TX","77494"
213687,"440 CONOVER TERRACE","ORANGE","NJ","07050"
213688,"440 COOLIDGE STREET","OCONOMOWOC","WI","53066"
213689,"440 COUNTRY CLUB RD","FAIRVIEW","TX","75069"
213690,"440 CREEKVIEW LANE","ATLANTA","GA","30349"
213691,"440 DAVIS COURT SUITE 1909","SAN FRANCISCO","CA","94111"
213692,"440 DIXON LANDING RD NUMBER H201","MILPITAS","CA","95035"
213693,"440 E 2ND STREET","PERRYSBURG","OH","43551"
213694,"440 E 400 S","WASHINGTON","IN","47501"
213695,"440 E 48TH PLACE UNIT 2","CHICAGO","IL","60615"
213696,"440 E 62ND ST","CHICAGO","IL","60637"
213697,"440 E 85TH ST","NEW YORK","NY","10028"
213698,"440 E BAY STREET","JACKSONVILLE","FL","32202"
213699,"440 E HIDALGO AVE","PHOENIX","AZ","85040"
213700,"440 E MARION ST","DES MOINES","IA","50315"
213701,"440 E MARKET STREET","CADIZ","OH","43907"
213702,"440 E RHEA STREET","LONG BEACH","CA","90806"
213703,"440 E STATE STREET","ALLIANCE","OH","44601"
213704,"440 E TAMARACK CT","HERMISTON","OR","97838"
213705,"440 E WARNER RD STE 1","CHANDLER","AZ","85225"
213706,"440 EAST 117TH STREET  APT 5B","NEW YORK","NY","10035"
213707,"440 EAST 13TH STREET SUITE C1","NEW YORK","NY","10009"
213708,"440 EAST 62ND STREET APT 15D","NEW YORK","NY","10065"
213709,"440 EAST 78TH STREET APARTMENT 1A","NEW YORK","NY","10075"
213710,"440 EAST 79TH STREET","NEW YORK","NY","10075"
213711,"440 EAST MARKET STREET","CADIZ","OH","43907"
213712,"440 EASTSIDE DRIVE","WHITE BLUFF","TN","37187"
213713,"440 EPPING WAY","ANNAPOLIS","MD","21401"
213714,"440 FLOWER CITY PARK","ROCHESTER","NY","14615"
213715,"440 FREESTONE DR","NEWNAN","GA","30265"
213716,"440 FURROWS RD","HOLBROOK","NY","11741"
213717,"440 GEORGE WALLACE DRIVE","GADSDEN","AL","35903"
213718,"440 GRACE ST","NORTHERN CAMBRIA","PA","15714"
213719,"440 GRIER AVE","ELIZABETH","NJ","07202"
213720,"440 HANOVER STREET","MANCHESTER","NH","03104"
213721,"440 HEDGE ROSE BLVD","SOMERVILLE","TN","38068"
213722,"440 HWY 531","MINDEN","LA","71055"
213723,"440 INDIANA STREET","GOLDEN","CO","80401"
213724,"440 JACKSON STATION RD","WATERFORD","PA","16441"
213725,"440 JUG STONE ROAD","BIGLERVILLE","PA","17307"
213726,"440 KENT AVE APT 15B","BROOKLYN","NY","11249"
213727,"440 LAKEWOOD DR","FAIRVIEW","TX","75069"
213728,"440 LARAMIE BLVD","BOULDER","CO","80304"
213729,"440 LOUISIANA STREET SUITE 970","HOUSTON","TX","77002"
213730,"440 MAIN STREET PO BOX 761","CARROLLTON","KY","41008"
213731,"440 MAIN STREET","HARWICH","MA","02645"
213732,"440 MAIN STREET","MIDDLETOWN","CT","06457"
213733,"440 MAIN STREET","OLEY","PA","19547"
213734,"440 MARKET STREET","SUFFOLK","VA","23434"
213735,"440 MATTS WAY","DEFIANCE","MO","63341"
213736,"440 MCBRIDE AVENUE","DUPO","IL","62239"
213737,"440 MICHAEL DRIVE","FALLON","NV","89406"
213738,"440 MISSION ST","CAROL STREAM","IL","60188"
213739,"440 MONTICELLO AVE STE 1800","NORFOLK","VA","23510"
213740,"440 MONTICELLO AVENUE SUITE 1800","NORFOLK","VA","23510"
213741,"440 MONTICELLO AVENUE SUITE 1802","NORFOLK","VA","23510"
213742,"440 N 10TH ST","BLAIR","NE","68008"
213743,"440 N 10TH ST","NOBLESVILLE","IN","46060"
213744,"440 N CAVENDER STREET","HOBART","IN","46342"
213745,"440 N MONROE STREET","TALLAHASSEE","FL","32301"
213746,"440 NEW ZEALAND REACH","CHESAPEAKE","VA","23322"
213747,"440 NEWPORT AVENUE","KATHLEEN","GA","31047"
213748,"440 NEWTOWN RD","VIRGINIA","VA","23462"
213749,"440 NEWTOWN RD","VIRGNIA BEACH","VA","23462"
213750,"440 NO MAIN STREET","SALEM","NH","03079"
213751,"440 NORTH EMERSON STREET SUITE 1","CAMBRIDGE","MN","55008"
213752,"440 NORTH MILL STREET","CURRIE","MN","56123"
213753,"440 NORTH RENGSTORFF AVENUE APT430A","MOUNTAIN VIEW","CA","94043"
213754,"440 NORTH STATE STREET","CARO","MI","48723"
213755,"440 NOTTINGHAM RD","MONTGOMERY","AL","36109"
213756,"440 NTH 41ST STREET","MILWAUKEE","WI","53208"
213757,"440 NW 15TH AVE NW","JASPER","FL","32052"
213758,"440 NW 15TH STREET","FLORIDA CITY","FL","33034"
213759,"440 OAKWOOD CIRCLE","MURRAY","KY","42071"
213760,"440 OCEANVIEW DRIVE","ANCHORAGE","AK","99515"
213761,"440 OLD GEORGES RD","NORTH BRUNSWCIK","NJ","08902"
213762,"440 OLIVE ST","VACAVILLE","CA","95688"
213763,"440 ORCHARDVIEW ROAD","SEVEN HILLS","OH","44131"
213764,"440 ORIOLE LN","INDIALANTIC","FL","32903"
213765,"440 PARK AVENUE","PATERSON","NJ","07504"
213766,"440 PINEBURR LANE","STONE MOOUNTAIN","GA","30087"
213767,"440 POLARIS PARKWAY SUITE 275","WESTERVILLE","OH","43082"
213768,"440 POSEY ROAD","NEWNAN","GA","30265"
213769,"440 PRESQUE ISLE DRIVE","PITTSBURGH","PA","15239"
213770,"440 QUADANGLE DRIVE STE C","BOLINGBROOK","IL","60440"
213771,"440 RADCLIFFE DR","SANTA CLARA","CA","95051"
213772,"440 RAVEN SPRINGS TRAIL","STONE MOUNTAIN","GA","30087"
213773,"440 RIVERGLEN DRIVE NW","CONCORD","NC","28027"
213774,"440 RIVERSIDE DRIVE APT 1","NEW YORK","NY","10027"
213775,"440 ROUSSEAU ST","HAYWARD","CA","94544"
213776,"440 S 13TH ST","HARRISBURG","PA","17104"
213777,"440 S BROAD STREET UNIT 1606","PHILADEPHIA","PA","19146"
213778,"440 S BROADWAY STE G8","LOS ANGELES","CA","90013"
213779,"440 S CLEAR CREEK CT","CLEARWATER","KS","67026"
213780,"440 S CRAZY WOMAN RD","BENSON","AZ","85602"
213781,"440 S MAIN STREET","HENDERSON","KY","42420"
213782,"440 S REYNOLDS RD SUITE E","TOLEDO","OH","43615"
213783,"440 SE GRAPE AVENUE","WINSTON","OR","97496"
213784,"440 SHICKSHINNY VALLEY RD","SHICKSHINNY","PA","18655"
213785,"440 SIGEL TRAIL","CENTERTON","AR","72719"
213786,"440 SMITH ST","HARRISBURG","OR","97446"
213787,"440 SONDRIO CT","RENO","NV","89521"
213788,"440 SOUTH BABCOCK STREET","MELBOURNE","FL","32901"
213789,"440 SOUTH LASALLE STREET SUITE 2325","CHICAGO","IL","60605"
213790,"440 SPRUCE AVENUE","GARWOOD","NJ","07027"
213791,"440 SPYGLASS COURT","VACAVILLE","CA","95687"
213792,"440 STONE BRIAR DR","RUSKIN","FL","33570"
213793,"440 SUMMIT DRIVE","ORANGE PARK","FL","32073"
213794,"440 SWEETWATER CREEK DR","CANTON","GA","30114"
213795,"440 SYLVAN AVENUE SUITE 250","ENGLEWOOD CLIFFS","NJ","07632"
213796,"440 VALLEY VIEW ROAD","SOUTH FORK","CO","81154"
213797,"440 VICTORIAN LN","JOHNS CREEK","GA","30097"
213798,"440 W CHIMNEY PIER LANE","VINCENNES","IN","47591"
213799,"440 W COLORADO ST  STE 107","GLENDALE","CA","91204"
213800,"440 W LAS CRUCES AVE","LAS CRUCES","NM","88005"
213801,"440 WAHACKME ROAD","NEW CANAAN","CT","06840"
213802,"440 WALNUT HILL ROAD","NORTH YARMOUTH","ME","04097"
213803,"440 WAVERLY AVE SUITE 11","PATCHOGUE","NY","11772"
213804,"440 WEBSTER","ELMHURST","IL","60126"
213805,"440 WELLETTKA DR","EL PASO","TX","79927"
213806,"440 WELSHWOOD DR","NASHVILLE","TN","37211"
213807,"440 WEST BURT DRIVE","LINCOLN","NE","68521"
213808,"440 WEST MAIN STREET","ABINGDON","VA","24210"
213809,"440 WHITLEY STREET","CEDAR HILL","TX","75104"
213810,"440 WILLOW GLEN WAY APT 312","SAN JOSE","CA","95125"
213811,"440 WOODSIDE AVE","HINSDALE","IL","60521"
213812,"440-A CAUSEWAY DR","WRIGHTSVILLE BEACH","NC","28480"
213813,"4400  UNIVERSITY DRIVE MSN5B6","FAIRFAX","VA","22030"
213814,"4400 23RD AVE SW","NAPLES","FL","34116"
213815,"4400 A AMBASSADOR CAFFERY 194","LAFAYETTE","LA","70503"
213816,"4400 ALTURA AVENUE NE","ALBUQUERQUE","NM","87110"
213817,"4400 BASS ST","TAMPA","FL","33617"
213818,"4400 BERKMAN DR UNIT E","AUSTIN","TX","78723"
213819,"4400 BLANCO AVE","EL PASO","TX","79905"
213820,"4400 BRASELON HWY 124","MILL CREEK HS GOLF","GA","30548"
213821,"4400 BRASELTON HIGHWAY","HOSCHTON","GA","30548"
213822,"4400 BRASELTON HWY 124","HOSCHTON","GA","30548"
213823,"4400 BRECKENRIDGE LANE 400","LOUISVILLE","KY","40218"
213824,"4400 BRECKENRIDGE LANE STE 100","LOUISVILLE","KY","40218"
213825,"4400 BRIERCREST AVE","LAKEWOOD","CA","90712"
213826,"4400 BRIERCREST AVENUE","LAKEWOOD","CA","90713"
213827,"4400 BRIERCREST","LAKEWOOD","CA","90713"
213828,"4400 BROADWAY SUITE 202","KANSAS CITY","MO","64111"
213829,"4400 BROWNSVILLE ROAD STE 205-107","POWDER SPRINGS","GA","30127"
213830,"4400 BUSINESS PARK BLVD SUITE B-22","ANCHORAGE","AK","99503"
213831,"4400 BYRD MILL ROAD","LOUISA","VA","23093"
213832,"4400 CALICO DR APT 402","FARGO","ND","34482"
213833,"4400 CANDY MOUNTAIN AVE","WEST RICHLAND","WA","99353"
213834,"4400 CHESTNUT STREET 1","PHILADELPHIA","PA","19104"
213835,"4400 CHESTNUT STREET","PHILADELPHIA","PA","19104"
213836,"4400 CHESTNUT STREETS FL 1B","PHILADELPHIA","PA","19107"
213837,"4400 COLISEUM BLVD","ALEXANDRIA","LA","71303"
213838,"4400 COUNTRY CLUB DRIVE UNIT 16","BAKERSFIELD","CA","93306"
213839,"4400 COVE NECK CT","MOSELEY","VA","23120"
213840,"4400 DUTCH HOLLOW ROAD","BEMUS POINT","NY","14712"
213841,"4400 E 12TH TER","KANSAS CITY","MO","64137"
213842,"4400 E CALLAHAN RD","ETNA","CA","96027"
213843,"4400 E WOODLAND DR","POST FALLS","ID","83854"
213844,"4400 FM 2093","FREDERICKSBURG","TX","78624"
213845,"4400 GIN PLANTATION DR","SNELLVILLE","GA","30039"
213846,"4400 GLEN CANYON CIR","PITTSBURG","CA","94565"
213847,"4400 GREENSBURG PIKE","PITTSBURGH","PA","15221"
213848,"4400 HOME AVE","STICKNEY","IL","60402"
213849,"4400 HORIZON HILL APT2006","SAN ANTONIO","TX","78229"
213850,"4400 KAPALUA DRIVE","SANTA MARIA","CA","93455"
213851,"4400 KEETER DRIVE","NORTH RICHLAND HILLS","TX","76180"
213852,"4400 KELLER AVE STE140 NUM 322","OAKLAND","CA","94605"
213853,"4400 KELLER AVENUE SUITE 138","OAKLAND","CA","94605"
213854,"4400 KELLER AVENUE SUITE 150","OAKLAND","CA","94605"
213855,"4400 KELLER RD 10-402","OAKLAND","CA","94619"
213856,"4400 KELMARBI ROAD","S CHESTERFIELD","VA","23834"
213857,"4400 KEN MICHAEL CT","NORTH RICHLAND HILL","TX","76180"
213858,"4400 KIRCHNER COURT","ALEXANDRIA","VA","22304"
213859,"4400 LANDSBERG COURT SOUTH","GREENSBORO","NC","27407"
213860,"4400 LISA LANE","OAK FOREST","IL","60452"
213861,"4400 LLOYD NOLAND PARKWAY","FAIFIELD","AL","35064"
213862,"4400 MACARTHUR BLVD NW  SUITE 100","WASHINGTON","DC","20007"
213863,"4400 MACARTHUR BLVD STE 900","NEWPORT BEACH","CA","92660"
213864,"4400 MACARTHUR BLVD SUITE 900","NEWPORT BEACH","CA","92660"
213865,"4400 MAGEE AVENUE","PHILADELPHIA","PA","19135"
213866,"4400 MASSACHUSETTS AVE NW-INCUBATOR","WASHINGTON","DC","20016"
213867,"4400 MASSACHUSETTS AVE NW","WASHINGTON","DC","20016"
213868,"4400 MASSACHUSETTS AVENUE NW","WASHINGTON","DC","20016"
213869,"4400 MCKINNEY ST","HOUSTON","TX","77023"
213870,"4400 N 107TH ST","KANSAS CITY","KS","66109"
213871,"4400 N 170TH STREET","KANSAS CITY","KS","66109"
213872,"4400 N 39TH STREET","MILWAUKEE","WI","53209"
213873,"4400 N FEDERAL HIGHWAY STE 210","BOCA RATON","FL","33431"
213874,"4400 N FEDERAL HWY SUITE 210","BOCA RATON","FL","33486"
213875,"4400 N SCOTTSDALE RD STE 999","SCOTTSDALE","AZ","85251"
213876,"4400 N SCOTTSDALE ROAD - 9-210","SCOTTSDALE","AZ","85251"
213877,"4400 N SCOTTSDALE ROAD 9360","SCOTTSDALE","AZ","85251"
213878,"4400 NEW JERSEY AVENUE","WILDWOOD","NJ","08260"
213879,"4400 NORTH 107TH STREET","KANSAS CITY","KS","66109"
213880,"4400 NORTH SCOTTSDALE ROAD 9-333","SCOTTSDALE","AZ","85251"
213881,"4400 NW 107TH AVENUE UNIT 104","DORAL","FL","33178"
213882,"4400 NW 13TH CT","LAUDERHILL","FL","33313"
213883,"4400 NW 5 PLACE","PLATATION","FL","33317"
213884,"4400 PARK ROAD SUITE 308","CHARLOTTE","NC","28209"
213885,"4400 POST OAK PARKWAY","HOUSTON","TX","77027"
213886,"4400 READING RD STE 1","CINCINNATI","OH","45229"
213887,"4400 RIVERVIEW LN","LITHONIA","GA","30038"
213888,"4400 ROLLING HILL DRIVE","CHARLOTTE","NC","28213"
213889,"4400 S CROCKETT","AMARILLO","TX","79110"
213890,"4400 S JONES BLVD UNIT 1020","LAS VEGAS","NV","89103"
213891,"4400 S LIBERTY UNIT 4","INDEPENDENCE","MO","64505"
213892,"4400 S VISTA LANE","SIOUX FALLS","SD","57105"
213893,"4400 S WILSON ST","AMARILLO","TX","79118"
213894,"4400 SAINT ANDREWS RD","COLUMBIA","SC","29210"
213895,"4400 SE 35TH STREET","DES MOINES","IA","50320"
213896,"4400 SECLUDED LAKE DRIVE NE","ROCKFORD","MI","49341"
213897,"4400 SMITH RD","NORWOOD","OH","45212"
213898,"4400 STATE HIGHWAY 121 STE 300","LEWISVILLE","TX","75056"
213899,"4400 STATE HWY 121 STE 300","LEWISVILLE","TX","75056"
213900,"4400 SW 72ND WAY","DAVIE","FL","33314"
213901,"4400 TANTILLA CIRCLE UNIT B","CHARLOTTE","NC","28215"
213902,"4400 TELFAIR BLVD APT 2057","CAMP SPRINGS","MD","20746"
213903,"4400 UNIVERSITY DRIVE/MSN 6E1","FAIRFAX","VA","22030"
213904,"4400 US HWY 92 W","PLANT CITY","FL","33563"
213905,"4400 VERDE GLEN COURT","MIDLAND","TX","79707"
213906,"4400 VIRGINIA BEACH BOULEVARD","VIRGINIA BEACH","VA","23462"
213907,"4400 W EARHART WAY","CHANDLER","AZ","85226"
213908,"4400 WARM SPRINGS RD  APT 33","COLUMBUS","GA","31909"
213909,"4400 WATER OAK ROAD","CHARLOTTE","NC","28211"
213910,"4400 WEST SAMPLE ROAD SUITE 200","COCONUT CREEK","FL","33073"
213911,"4400 WEST SPRUCE STREET APT 477","TAMPA","FL","33607"
213912,"4400 WILL ROGERS PARKWAY","OKLAHOMA CITY","OK","73108"
213913,"4400 YALE ROAD","MEMPHIS","TN","38128"
213914,"44001 GARFEILD","CLINTON TWP","MI","48038"
213915,"44001 TERRAZA CT","TEMECULA","CA","92592"
213916,"4401 62ND AVENUE SW","GREAT FALLS","MT","59404"
213917,"4401 BLUEFIELD DR","CORPUS CHRISTI","TX","78413"
213918,"4401 BONDALE DRIVE","COLUMBUS","GA","31907"
213919,"4401 BRYANT DR","LILBURN","GA","30047"
213920,"4401 BRYANT STREET","DENVER","CO","80211"
213921,"4401 CAROLINE AVENUE","TOLEDO","OH","43612"
213922,"4401 CHANDLER ROAD","HERMITAGE","TN","37076"
213923,"4401 CHARNETA CT","LAS VEGAS","NV","89130"
213924,"4401 COIT ROAD   -  SUITE 303","FRISCO","TX","75035"
213925,"4401 COIT ROAD/SUITE 303","FRISCO","TX","75035"
213926,"4401 COUNTRY CLUB VIEW","BAYTOWN","TX","77521"
213927,"4401 CR 309","LEXINGTON","TX","78650"
213928,"4401 DREXEL WAY","ATLANTA","GA","30346"
213929,"4401 E 147TH AVE","ANCHORAGE","AK","99516"
213930,"4401 EAST 46 ST","NORTH LITTLE ROCK","AR","72117"
213931,"4401 FELIX WAY SE","SMYRNA","GA","30082"
213932,"4401 FIR TREE ROAD SE","OLYMPIA","WA","98501"
213933,"4401 FRISCO BRIDGE BLVD","EDMOND","OK","73034"
213934,"4401 GEORGETOWN VERONA ROAD","LEWISBURG","OH","45338"
213935,"4401 HATTON POINT ROAD","PORTSMOUTH","VA","23703"
213936,"4401 INWOOD RD","FORT WORTH","TX","76109"
213937,"4401 KATHLAND AVE","BALTIMORE","MD","21207"
213938,"4401 KATIE RIDGE DRIVE","MOORE","OK","73160"
213939,"4401 KILLIAM COURT","GLEN ALLEN","VA","23060"
213940,"4401 LANCEFIELD LANE","BOWIE","MD","20720"
213941,"4401 LITTLE RD STE 550 - 240","ARLINGTON","TX","76016"
213942,"4401 LITTLE RD STE 550 - 272","ARLINGTON","TX","76016"
213943,"4401 LITTLE ROAD STE 550 281","ARLINGTON","TX","76016"
213944,"4401 LITTLE ROAD STE 550-226","ARLINGTON","TX","76016"
213945,"4401 LOOKOUT TRAIL","BISMARCK","ND","58504"
213946,"4401 MANCHESTER AVE APT 3","STOCKTON","CA","95207"
213947,"4401 N ARKANSAS AVE","WICHITA","KS","67204"
213948,"4401 N EAGLE ROAD SUITE 102","BOISE","ID","83713"
213949,"4401 NW 4TH ST SUITE 134","OKLAHOMA CITY","OK","73107"
213950,"4401 NW 87TH AVE UNIT 236","DORAL","FL","33178"
213951,"4401 PORPOISE DR","TAMPA","FL","33617"
213952,"4401 PROVIDENCE LANE STE 121","WINSTON SALEM","NC","27106"
213953,"4401 PRUDENCE STREET","BALRTIMORE","MD","21226"
213954,"4401 PRUDENCE STREET","BALTIMORE","MD","21226"
213955,"4401 REBECCA BLVD","METAIRIE","LA","70003"
213956,"4401 REDING RD","AMARILLO","TX","79108"
213957,"4401 S ALBANY AVE","CHICAGO","IL","60632"
213958,"4401 S ELLIS","CHICAGO","IL","60653"
213959,"4401 S LEWIS AVE","SIOUX FALLS","SD","57103"
213960,"4401 SAMARA DR","HENRICO","VA","23231"
213961,"4401 SAN FRANCISCO AVE","LAREDO","TX","78041"
213962,"4401 SAN LEANDRO ST APT 35","OAKLAND","CA","94601"
213963,"4401 SCHROEDER LANE","CINCINNATI","OH","45217"
213964,"4401 SHAW BLVD","ST LOUIS","MO","63110"
213965,"4401 SHERIFF RD NE","WASHINGTON","DC","20019"
213966,"4401 SLAUSON AVE SUITE 162","LOS ANGELES","CA","90043"
213967,"4401 SW 4TH STREET","MIAMI","FL","33134"
213968,"4401 TAHOE DR","FORT WORTH","TX","76119"
213969,"4401 TRINITY WOODS STREET","LEANDER","TX","78651"
213970,"4401 W SLAUSON AVE SUITE 206","LOS ANGELES","CA","90043"
213971,"4401 W SLAUSON AVE UNIT 134","LOS ANGELES","CA","90043"
213972,"4401 W US HWY 36","URBANA","OH","43078"
213973,"4401 WAVETREE DRIVE","FAYETTEVILLE","NC","28306"
213974,"4401 WEST ATLANTIC BLVD  APT1101","COCONUT CREEK","FL","33066"
213975,"4401 WILLET LANE","GARLAND","TX","75043"
213976,"4401 WILLIFORD ROAD","SACHSE","TX","75048"
213977,"4401 ZOO PARKWAY","ASHEBORO","NC","27205"
213978,"4401A CONNECTICUT AVE NW APT 133","WASHINGTON","DC","20008"
213979,"4401A CONNECTICUT AVE NW STE 302","WASHINGTON","DC","20008"
213980,"4402 40TH AVE","SWEA CITY","IA","50590"
213981,"4402 44TH WAY","WEST PALM BEACH","FL","33407"
213982,"4402 88TH STREET","LUBBOCK","TX","79424"
213983,"4402 BOWLES DRIVE","KILLEEN","TX","76549"
213984,"4402 BRIDGEMAN COURT","LOUISVILLE","KY","40218"
213985,"4402 DOVEWOOD DRIVE","SYLVANIA","OH","43560"
213986,"4402 HALLSVILLE PIKE","KINGSTON","OH","45644"
213987,"4402 MAIN STREET","WAITSFIELD","VT","05673"
213988,"4402 OLD COURT ROAD APT H","PIKEVILLE","MD","21208"
213989,"4402 ORLAN LANE","BOWIE","MD","20715"
213990,"4402 PENNINGTON AVE APT A","KILLEEN","TX","76549"
213991,"4402 PINKNEY STREET","OMAHA","NE","68111"
213992,"4402 QUINCY DR","MIDLAND","MI","48642"
213993,"4402 SADDLE CREEK WAY","BURTONSVILLE","MD","20866"
213994,"4402 SUNSET CIRCLE","LOUISVILLE","KY","40216"
213995,"4402 TIMBER CREEK CT","MISSOURI CITY","TX","77459"
213996,"44020 PRECISE STREET","LANCASTER","CA","93536"
213997,"44024","ASHBURN","VA","20147"
213998,"44028 MOUND ROAD SUITE 4","STERLING HEIGHTS","MI","48314"
213999,"4403 - 15 AVENUE SUITE 549","BROOKLYN","NY","11219"
214000,"4403 15TH AVE SUITE 194","BROOKLYN","NY","11219"
