"ID","Address","City","State","Zip"
363001,"POST OFFICE BOX 68014","CHARLOTTE","NC","28216"
363002,"POST OFFICE BOX 6805","AMERICUS","GA","31709"
363003,"POST OFFICE BOX 682","MC KEE","KY","40447"
363004,"POST OFFICE BOX 683","LAKE CHARLES","LA","70602"
363005,"POST OFFICE BOX 68474","INDIANAPOLIS","IN","46268"
363006,"POST OFFICE BOX 686","ARLINGTON","GA","39813"
363007,"POST OFFICE BOX 686","TALLULH","LA","71282"
363008,"POST OFFICE BOX 688","AURORA","OH","44202"
363009,"POST OFFICE BOX 69","SCARSDALE","NY","10583"
363010,"POST OFFICE BOX 692484","OLANDO","FL","32869"
363011,"POST OFFICE BOX 693","OXON HILL","MD","20745"
363012,"POST OFFICE BOX 694","ARLINGTON","VA","22216"
363013,"POST OFFICE BOX 694","MEEKER","OK","74855"
363014,"POST OFFICE BOX 7009","WOODLAND PARK","CO","80863"
363015,"POST OFFICE BOX 701","DAVIDSON","NC","28036"
363016,"POST OFFICE BOX 702","SUMMIT","IL","60501"
363017,"POST OFFICE BOX 704","MINERAL","VA","23117"
363018,"POST OFFICE BOX 70446","TUSCALOOSA","AL","35405"
363019,"POST OFFICE BOX 706","ST. HELENA ISLAND","SC","29920"
363020,"POST OFFICE BOX 7119","CHICAGO","IL","60680"
363021,"POST OFFICE BOX 713","KILMARNOCK","VA","22482"
363022,"POST OFFICE BOX 7182","GADSDEN","AL","35902"
363023,"POST OFFICE BOX 724","YELLOW SPRINGS","OH","45387"
363024,"POST OFFICE BOX 7256","WOODBRIDGE","VA","22195"
363025,"POST OFFICE BOX 7283","TUPELO","MS","38802"
363026,"POST OFFICE BOX 731218","SAN JOSE","CA","95173"
363027,"POST OFFICE BOX 73418","BATON ROUGE","LA","70874"
363028,"POST OFFICE BOX 736","OXFORD","MS","38655"
363029,"POST OFFICE BOX 7481","GULF SHORES","AL","36547"
363030,"POST OFFICE BOX 75","PUTNEY","VT","05346"
363031,"POST OFFICE BOX 750368","PETALUMA","CA","94975"
363032,"POST OFFICE BOX 750484","PETALUMA","CA","94975"
363033,"POST OFFICE BOX 7522","SHONTO","AZ","86054"
363034,"POST OFFICE BOX 7715","AUBURN","CA","95604"
363035,"POST OFFICE BOX 7729","ASPEN","CO","81615"
363036,"POST OFFICE BOX 773","POMPANO BEACH","FL","33061"
363037,"POST OFFICE BOX 778","RINGLING","OK","73456"
363038,"POST OFFICE BOX 78244","CHARLOTTE","NC","28271"
363039,"POST OFFICE BOX 784192","WINTER GARDEN","FL","34778"
363040,"POST OFFICE BOX 795","PHILMONT","NY","12565"
363041,"POST OFFICE BOX 802234","DALLAS","TX","75380"
363042,"POST OFFICE BOX 803124","SANTA CLARITA","CA","91380"
363043,"POST OFFICE BOX 8042","SOUTH LAKE TAHOE","CA","96158"
363044,"POST OFFICE BOX 806","CANDOR","NC","27229"
363045,"POST OFFICE BOX 80697","BATON ROUGE","LA","70808"
363046,"POST OFFICE BOX 8087","MONROE","LA","71211"
363047,"POST OFFICE BOX 814","WOODVILLE","MS","39669"
363048,"POST OFFICE BOX 816","SUMMERTON","SC","29148"
363049,"POST OFFICE BOX 817","EMMITSBURG","MD","21727"
363050,"POST OFFICE BOX 818","MOSES LAKE","WA","98837"
363051,"POST OFFICE BOX 81932","LAFAYETTE","LA","70598"
363052,"POST OFFICE BOX 820903","VICKSBURG","MS","39182"
363053,"POST OFFICE BOX 83","BOYDS","MD","20874"
363054,"POST OFFICE BOX 842","APEX","NC","27502"
363055,"POST OFFICE BOX 842358","HOUSTON","TX","77284"
363056,"POST OFFICE BOX 848 NORTH RAINBOW","LAS VEGAS","NV","89107"
363057,"POST OFFICE BOX 85175","TUCSON","AZ","85754"
363058,"POST OFFICE BOX 85840","SEATTLE","WA","98145"
363059,"POST OFFICE BOX 861","WAKE FOREST","NC","27587"
363060,"POST OFFICE BOX 864","SACO","ME","04072"
363061,"POST OFFICE BOX 870","ORANGEBURG","SC","29116"
363062,"POST OFFICE BOX 873","WOODINVILLE","WA","98072"
363063,"POST OFFICE BOX 885","NATCHEZ","MS","39121"
363064,"POST OFFICE BOX 885","SODA SPRINGS","CA","95728"
363065,"POST OFFICE BOX 887","LINDEN","CA","95236"
363066,"POST OFFICE BOX 891","DELLSLOW","WV","26531"
363067,"POST OFFICE BOX 894","LUTCHER","LA","70071"
363068,"POST OFFICE BOX 896","THREE RIVERS","CA","93271"
363069,"POST OFFICE BOX 90248","GARDENA","CA","90247"
363070,"POST OFFICE BOX 904","MILLSBORO","DE","19966"
363071,"POST OFFICE BOX 905","GRAND BLANC","MI","48439"
363072,"POST OFFICE BOX 90757","LOS ANGELES","CA","90009"
363073,"POST OFFICE BOX 91","SLIDELL","LA","70459"
363074,"POST OFFICE BOX 911","POMONA","NJ","08240"
363075,"POST OFFICE BOX 917","WORTHINGTON","OH","43085"
363076,"POST OFFICE BOX 92","SILAS","AL","36919"
363077,"POST OFFICE BOX 921446","NORCROSS","GA","30010"
363078,"POST OFFICE BOX 93","ROPER","NC","27970"
363079,"POST OFFICE BOX 939","CONCORD","NH","03302"
363080,"POST OFFICE BOX 940908","MAITLAND","FL","32794"
363081,"POST OFFICE BOX 952","CONWAY","AR","72033"
363082,"POST OFFICE BOX 96","VANCE","SC","29163"
363083,"POST OFFICE BOX 960195","BOSTON","MA","02195"
363084,"POST OFFICE BOX 963","TROY","AL","36081"
363085,"POST OFFICE BOX 9631","MOBILE","AL","36619"
363086,"POST OFFICE BOX 965","HENDERSON","NC","27536"
363087,"POST OFFICE BOX 9741","FRESNO","CA","93794"
363088,"POST OFFICE BOX 98","BEEBE","AR","72012"
363089,"POST OFFICE BOX 98","ROSEDALE","MS","38769"
363090,"POST OFFICE BOX 985","DESOTO","TX","75123"
363091,"POST OFFICE BOX 9874","BOISE","ID","83707"
363092,"POST OFFICE BOX 989","BRANDYWINE","MD","20613"
363093,"POST OFFICE BOX NUMBER 2361","CHANDLER","AZ","85225"
363094,"POST OFFICE BOX W","SHEPHERDSTOWN","WV","25443"
363095,"POSTAL BOX 178","WALNUT COVE","NC","27052"
363096,"POSTAL BOX 1983","PEMBROKE","NC","28372"
363097,"POSTAL BOX 25187","FAYETTEVILLE","NC","28314"
363098,"POSTAL BOX 344","MAXTON","NC","23864"
363099,"POUGHKEEPSIE","POUGHKEEPSIE","NY","12601"
363100,"POX 2378","JACKSONVILLE","FL","32203"
363101,"POX BOX 262","SAVANAH","GA","31402"
363102,"PP BOX 513","KAUKAUNA","WI","54130"
363103,"PP BOX 8372","WOODLAND","CA","95776"
363104,"PPO BOX16735","ROCHESTER","NY","14616"
363105,"PRADERAS DE NAVARRO 266","GURABO","PR","00778"
363106,"PRADERAS NAVARRO 62 CALCEDONIA C 5","GURABO","PR","00778"
363107,"PREMIERE AVENUE","LONG BEACH","CA","90808"
363108,"PRIMAVERAPASEODELASFLORESSA2","TRUJILLO ALTO","PR","00976"
363109,"PRO BOX 55","OAKVILLE","WA","98568"
363110,"PROF BUCK WHEATON CLG 27 E MAIN ST","NORTON","MA","02766"
363111,"PROVIDENCE STREET  P O BOX 2571","WHITEHOUSE","OH","43571"
363112,"PROVO","PROVO","UT","84604"
363113,"PRYOR CASHMAN LLP 7 TIMES SQUARE","NEW YORK","NY","10036"
363114,"PS 205 PO BOX 9024118","SAN JUAN","PR","00902"
363115,"PS 218 PO BOX 9024118","SAN JUAN","PR","00902"
363116,"PS BOX 1667","ROYAL OAK","MI","48073"
363117,"PSC 103 BOX 2533","APO","AE","09603"
363118,"PSC 3 BOX 1004","APO","AP","96266"
363119,"PSC 3 BOX 1273","APO","AP","96266"
363120,"PSC 3 BOX 5791","APO","AP","96266"
363121,"PSC 41 BOX 2569","APO","AE","09464"
363122,"PSC 473 BOX 128","FPO","AP","96349"
363123,"PSC 473 BOX 329","FPO","AP","96349"
363124,"PSC 473 BOX 856","FPO","AP","96349"
363125,"PSC 476 BOX 128","FPO","AP","96322"
363126,"PSC 482 BOX 3079","FPO","AP","96362"
363127,"PSC 559 BOX 5288","FPO","AP","96377"
363128,"PSC 560 BOX 162","APO","AP","96376"
363129,"PSC 560 BOX 165","FPO","AP","96376"
363130,"PSC 561 BOX 1118","FPO","AP","96310"
363131,"PSC 561 BOX 1874","FPO","AP","96310"
363132,"PSC 567 BOX 6786","FPO","AP","96384"
363133,"PSC 7 BOX R1086","APO","AE","09104"
363134,"PSC 701 BOX 528","APO","AP","96555"
363135,"PSC 701 BOX 887","APO","AP","96555"
363136,"PSC 701 BOX 955","APO","AP","96555"
363137,"PSC 702 BOX 8301","APO","AP","96557"
363138,"PSC 704 BOX 4","APO","AP","96337"
363139,"PSC 705 GD BOX 13","APO","AP","96338"
363140,"PSC 76 BOX 5065","APO","AP","96319"
363141,"PSC 76 BOX 5575","APO","AP","96319"
363142,"PSC 79 BOX 115","APO AE","NY","09714"
363143,"PSC 80 BOX 10309","APO AP","CA","96367"
363144,"PSC 80 BOX 14094","APO","AP","96367"
363145,"PSC 80 BOX 17174","APO","AP","96367"
363146,"PSC 808 BOX 8","FPO AE","NY","09618"
363147,"PSC 812 BOX 1918","FPO","AE","09627"
363148,"PSC 831 BOX 9912","FPO","AE","09363"
363149,"PSC 851 BOX 1425","FPO","ME","09834"
363150,"PSC 851 BOX 1576","FPO","AE","09834"
363151,"PSC BOX 20003","CAMP LEJEUNE","NC","28542"
363152,"PSC BOX 20128","CAMP LEJEUNE","NC","28542"
363153,"PSC BOX 21039","JACKSONVILLE","NC","28545"
363154,"PUERTO NUEVO CALLE APENINOS 616","SAN JUAN","PR","00920"
363155,"PUNTA LAS MARIAS 2406 GRANADA","SAN JUAN","PR","00913"
363156,"PUU NUI ST","WAIKOLOA","HI","96738"
363157,"PWHLLC 731 DUVAL STA RD STE 107-9","JACKSONVILLE","FL","32218"
363158,"Q 7  CALLE 2    URB SANTA ELENA","BAYAMON","PR","00957"
363159,"Q019 COUNTY ROAD 8","NAPOLEON","OH","43545"
363160,"Q15 QUINCY CIRCLE","DAYTON","NJ","08810"
363161,"QUINTAS DE STA MARIA 17 BO MIRADERO","MAYAGUEZ","PR","00680"
363162,"QUINTAS DEL RIO C-10","BAYAMON","PR","00961"
363163,"R4200 HILLFIELD ROAD","HAMDEN","CT","06518"
363164,"R910 BALLS FERRY RD","ANDERSON","CA","96007"
363165,"RACHEL STROHM 2327 PRINCE ST","BERKELEY","CA","94705"
363166,"RALPH MCGILL BLVD NE 1311","ATLANTA","GA","30308"
363167,"RANDOLPH HALL 460 OLD TURNER STREET","BLACKSBURG","VA","24061"
363168,"RDG 301 GRAND AVENUE","DES MOINES","IA","50309"
363169,"REAR NFP","CHICAGO","IL","60615"
363170,"RES HATO GRANDE EDIF 7 APT 25","SAN LORENZO","PR","00754"
363171,"RIT 90 LOMB MEMORIAL DRIVE","HENRIETTA","NY","14623"
363172,"RIVERFRONT PKWY","CHATTANOOGA","TN","37402"
363173,"RIVERTON WHARF","RIVERTON","MD","21837"
363174,"RM 5-239  149 13TH STREET","CHARLESTOWN","MA","02129"
363175,"RM553 1850 EAST-WEST RD","HONOLULU","HI","96822"
363176,"ROAD PR 997 KM 3-2","VIEQUES","PR","00765"
363177,"ROMANCE LANGUAGES -1233 U OF OREGON","EUGENE","OR","97403"
363178,"RONALD B PIZL","ANTIGO","WI","54409"
363179,"ROOM 305-A OGLESBY UNION","TALLAHASSEE","FL","32306"
363180,"ROOM A-45  7712 35TH AVENUE","JACKSON HEIGHTS","NY","11372"
363181,"ROSEDALE","ROSEDALE","NY","11422"
363182,"ROUTE 1 BOX 3600","AVA","MO","65608"
363183,"ROUTE 1 BOX 470","NOWATA","OK","74048"
363184,"ROUTE 1 BOX 51","MCLEANSBORO","IL","62859"
363185,"ROUTE 12A PO BOX 107","PLAINFIELD","NH","03781"
363186,"ROUTE 130","HARRISON CITY","PA","15636"
363187,"ROUTE 24","WEST LEBANON","IN","47991"
363188,"ROUTE 30","NEWFANE","VT","05345"
363189,"ROUTE 4 BOX 315","NEEDLES","CA","92363"
363190,"ROUTE 534","ALBRIGHTSVILLE","PA","18210"
363191,"ROUTE 7 NORTH","CHINLE","AZ","86503"
363192,"ROUTE 71 BOX 1218","ALTON","MO","65606"
363193,"ROY G VOSHELL PO BOX 289","CAMDEN","DE","19934"
363194,"RR 04 BOX 5383","ANASCO","PR","00610"
363195,"RR 1 BOX 10006","KINGSHILL","VI","00850"
363196,"RR 1 BOX 1079","HARDIN","MT","59034"
363197,"RR 1 BOX 1138","WAYNE","WV","25570"
363198,"RR 1 BOX 2244","STILWELL","OK","74960"
363199,"RR 1 BOX 4572","BRISTOW","OK","74010"
363200,"RR 1 BOX 646","ROSELAND","VA","22967"
363201,"RR 1 BOX 66","LAVERNE","OK","73848"
363202,"RR 1 BOX 68ABF","GUYMON","OK","73942"
363203,"RR 1 BOX 72","BIGGSVILLE","IL","61418"
363204,"RR 1 PO BOX 631","SUGAR GROVE","OH","43155"
363205,"RR 1","FORESTBURG","TX","76239"
363206,"RR 2   BOX 82","HARDIN","IL","62047"
363207,"RR 2 BOX 2389","HERMITAGE","MO","65668"
363208,"RR 2 BOX 4543","TOA ALTA","PR","00953"
363209,"RR 2 BOX 4669","TOA ALTA","PR","00953"
363210,"RR 2 BOX 72","HOOKER","OK","73945"
363211,"RR 3 BOX 250","AVA","MO","65608"
363212,"RR 4 BOX 2170","STILWELL","OK","74960"
363213,"RR 4 BOX 2656","STILWELL","OK","74960"
363214,"RR 5 BOX 982","STILWELL","OK","74960"
363215,"RR 63 BOX 728","CABOOL","MO","65689"
363216,"RR 71 BOX 1721","ALTON","MO","65606"
363217,"RR BOX 5441","KATY","TX","77491"
363218,"RR05 BOX 24800","ANASCO","PR","00610"
363219,"RR1  BOX 1550","WYACONDA","MO","63474"
363220,"RR1 BOX 1162","WATTS","OK","74964"
363221,"RR1 BOX 155","BARING","MO","63531"
363222,"RR1 BOX 305G","LESAGE","WV","25537"
363223,"RR1 BOX 46E","UNION","WV","24983"
363224,"RR1 BOX148C","RUTLEDGE","MO","63563"
363225,"RR2 4208 WEST THORSTENBERG RD","LINDSBORG","KS","67456"
363226,"RR2 BOX 110","MARBLE HILL","MO","63764"
363227,"RR2 BOX 26221 PINE CONE LANE","PIEDMONT","MO","63957"
363228,"RR2 BOX 4544","PAHOA","HI","96778"
363229,"RR3 BOX 8139","DONIPHAN","MO","63935"
363230,"RR3 BOX B15 / 8545 N ALPINE LOOP RD","SUNDANCE","UT","84604"
363231,"RR7 BOX 378","GREENSBURG","PA","15601"
363232,"RR72 BOX 503","NORWOOD","MO","65717"
363233,"RR8 BOX 1995 PMB 304","BAYAMON","PR","00956"
363234,"RSM US LLP 1185 AVE OF THE AMERICAS","NEW YORK","NY","10036"
363235,"RT 1 BOX 1340","STILWELL","OK","74960"
363236,"RT 1 BOX 1394","PIEDMONT","MO","63957"
363237,"RT 1 BOX 160","PETERSTOWN","WV","24963"
363238,"RT 1 BOX 290","MILL CREEK","WV","26280"
363239,"RT 1 BOX 665-A","PETERSOWN","WV","24963"
363240,"RT 1 BOX 93","MEMPHIS","MO","63555"
363241,"RT 1 OCHWALKEE RD","GLENWOOD","GA","30428"
363242,"RT 2 BOX 2147","THAYER","MO","65791"
363243,"RT 2 BOX 276AAA","MCLEANSBORO","IL","62859"
363244,"RT 2 BOX 608","SALT ROCK","WV","25559"
363245,"RT 3 BOX 186","AVA","MO","65608"
363246,"RT 3 BOX 2235","STILWELL","OK","74960"
363247,"RT 3 BOX 29 MILLSTONE","DELBARTON","WV","25670"
363248,"RT 4 BOX 689","ANGELTON","TX","77515"
363249,"RT 5 BOX 275","VINITA","OK","74301"
363250,"RT 5 BOX 418","AVA","MO","65608"
363251,"RT 6 AND 590 PO BOX 320","HAWLEY","PA","18428"
363252,"RT 61 BOX 1190","NAYLOR","MO","63953"
363253,"RT 72 BOX 2689","ALTON","MO","65606"
363254,"RURAL ROUTE 9 BOX 1240","GATEWOOD","MO","63942"
363255,"S 107 HOWARD  SUITE 500","SPOKANE","WA","99201"
363256,"S 3115 ALPINE RD","FOUNTAIN CITY","WI","54629"
363257,"S 3RD STREET PO BOX 421","LANSING","IA","52151"
363258,"S 607 WHITMAN AVENUE","ROSALI","WA","99170"
363259,"S COUNTER PO BOX 41","WILLIAMSTOWN","MA","01267"
363260,"S CZECH HALL ROAD","MUSTANG","OK","73064"
363261,"S FAIR STREET PH 1801","ARLINGTON","VA","22202"
363262,"S KING DR ATP 231","CHICAGO","IL","60616"
363263,"S M TRACY HERBARIUM 2138 TAMU","COLLEGE STATION","TX","77843"
363264,"S-3546 CALIFORNIA ROAD","ORCHARD PARK","NY","14127"
363265,"S101 W34628 COUNTY ROAD LO","EAGLE","WI","53119"
363266,"S102 W21390 KELSEY DRIVE","MUSKEGO","WI","53150"
363267,"S10659 STATE RD 23","SPRING GREEN","WI","53588"
363268,"S10915A FOX ROAD","SAUK CITY","WI","53583"
363269,"S1257 COUNTY RD II","ALMA","WI","54610"
363270,"S1494 SAC CT","LAVALLE","WI","53941"
363271,"S15052 OLD HWY 12 PO BOX 132","FAIRCHILD","WI","54741"
363272,"S15970 OTTOW ROAD","FAIRCHILD","WI","54741"
363273,"S1666 STENSLIEN LANE","WESTBY","WI","54667"
363274,"S2413 MEADOWVIEW ROAD","REEDSBURG","WI","53959"
363275,"S2972 WAUMANDEE CREEK ROAD","FOUNTAIN CITY","WI","54629"
363276,"S3146 LAKESHORE DR","REEDSBURG","WI","53941"
363277,"S3216 CASEY AVE","SPENCER","WI","54479"
363278,"S3661 STATE HIGHWAY 131","LA FARGE","WI","54639"
363279,"S38 W26445 RIVER VIEW DRIVE","WAUKESHA","WI","53189"
363280,"S380 STATE RD 37","MONDOVI","WI","54755"
363281,"S39W27460 BROOKHILL DR","WAUKESHA","WI","53189"
363282,"S4125A ROCKY POINT ROAD","BARABOO","WI","53913"
363283,"S4492 BELTER DR","NORTH FREEDOM","WI","53951"
363284,"S46W24590 LAWNSDALE ROAD","WAUKESHA","WI","53189"
363285,"S4706 ORCHARD ROAD","VIROQUA","WI","54665"
363286,"S4890 COUNTY ROAD I","NORTH FREEDOM","WI","53951"
363287,"S5601 STATE ROAD 113","BARABOO","WI","53913"
363288,"S6106 FREEDOM ROAD","NORTH FREEDOM","WI","53951"
363289,"S62 W28218 RIDGE VALLEY RD","WAUKESHA","WI","53189"
363290,"S643 COUNTY ROAD BB","MONDOVI","WI","54755"
363291,"S69W32751 WESTGATE DRIVE","MUKWONAGO","WI","53149"
363292,"S70 W22475 SONOMA WAY","BIG BEND","WI","53103"
363293,"S74W17095 JANESVILLE RD B","MUSKEGO","WI","53150"
363294,"S74W20150 FIELD DR","MUSKEGO","WI","53150"
363295,"S76W31320 CENTURY DR","MUKWONAGO","WI","53149"
363296,"S78W14322 HUNTER HILL CT","MUSKGEO","WI","53150"
363297,"S78W24070 CHERI AVENUE","BIG BEND","WI","53103"
363298,"S8293 PRESTEGARD ROAD","READSTOWN","WI","54652"
363299,"S86 W22930 EDGEWOOD AVENUE","BIG BEND","WI","53103"
363300,"S8W19471 APOLLO DR APT E","MUSKEGO","WI","53150"
363301,"S90W19108 ACORN DR","MUSKEGO","WI","53150"
363302,"S9220 HILLVIEW ROAD","FALL CREEK","WI","54742"
363303,"SAGE HALL-1167 UNION CIR SUITE 202","DENTON","TX","76203"
363304,"SAGITARIO 66","VIEQUES","PR","00765"
363305,"SAM HOUSTON STATE  816 17TH STREET","HUNTSVILLE","TX","77340"
363306,"SAMC 2175 REILLY RD STOP A","FORT BRAGG","NC","28310"
363307,"SAN ANTONIO STREET 1870 A PARADA 26","SAN JUAN","PR","00909"
363308,"SAN JOSE VILLAGE","TINIAN","MP","96952"
363309,"SANTA ROSA","SANTA ROSA","CA","95404"
363310,"SARATOGA COUNTY SPCA INC PO BOX 97","REXFORD","NY","12148"
363311,"SCAVMA OFFICE VMRCVM VIRGINIA TECH","BLACKSBURG","VA","24060"
363312,"SCHOOL OF NURSING CB7460 UNC-CH","CHAPEL HILL","NC","27599"
363313,"SCHOOL OF STEM 18115 CAMPUS WAY NE","BOTHELL","WA","98011"
363314,"SCHOOLCRAFT COLLEGE  18600 HAGGERTY","LIVONIA","MI","48152"
363315,"SCHUETTE A313 SUNY COLLEGE POTSDAM","POTSDAM","NY","13676"
363316,"SCIENCE CENTER 204","HIGHLAND HEIGHTS","KY","41009"
363317,"SCOTT SEBASTIAN - 43 LEXINGTON ROAD","WEST HARTFORD","CT","06119"
363318,"SE IRONWOOD CIRCLE","STUART","FL","34997"
363319,"SECOND CHANCE PO BOX 3823","SYRACUSE","NY","13220"
363320,"SECTOR PEPE TORRES BO MINILLAS","BAYAMON","PR","00956"
363321,"SEVEN MILES OUT MATTOLE ROAD","WEOTT","CA","95571"
363322,"SHANNON RD STE 51753","DURHAM","NC","27703"
363323,"SHELBY TWP","SHELBY TWP","MI","48316"
363324,"SHENEDEHOWA HS  970 ROUTE 146","CLIFTON PARK","NY","12065"
363325,"SHENENDEHOWA HSE  970 RTE 146","CLIFTON PARK","NY","12065"
363326,"SHENFIELD DR","UNION CITY","GA","30291"
363327,"SHERWOOD FOREST DRIVE","FLORISSANT","MO","63031"
363328,"SHORELINE CC 16101 GREENWOOD AVE N","SHORELINE","WA","98133"
363329,"SIL  100 N CHARLES ST  5TH FLOOR","BALTIMORE","MD","21201"
363330,"SILVER THISTLE LANE","SAINT CLOUD","FL","34772"
363331,"SIX PPG PLACE SUITE 1300","PITTSBURGH","PA","15222"
363332,"SK HIGH SCHOOL 215 COLUMBIA STREET","WAKEFIELD","RI","02879"
363333,"SLU 10719","HAMMOND","LA","70402"
363334,"SLU BOX 10878","HAMMOND","LA","70402"
363335,"SOULE FOUNDATION INC","NEW YORK","NY","10002"
363336,"SOUTH 165 HOWARD STREET","SPOKANE","WA","99201"
363337,"SOUTH SHORE ROAD","LINNEUS","ME","04730"
363338,"SOUTHWEST 49TH AVENUE","OCALA","FL","34474"
363339,"SPARTA DRIVE","MORROW","GA","30260"
363340,"SPEECH DEBATE 1327 SAN GABRIEL BLVD","SAN GABRIEL","CA","91776"
363341,"SPRING HAVEN CIRCLE SW","BIRMINGHAM","AL","35211"
363342,"SQUIRE AND CO 1329 S 800 E","OREM","UT","84097"
363343,"ST 307 - 5114 BALCONES WOODS DRIVE","AUSTIN","TX","78759"
363344,"ST BARTHOLOMEWS 82 PROSPECT ST","WHITE PLAINS","NY","10606"
363345,"ST JOHN PARISH-253 N WASHINGTON ST","SPRING GREEN","WI","53588"
363346,"ST VINCENTS 4200 CALLE REAL","SANTA BARBARA","CA","93110"
363347,"STATE BANK OF JEFFERS - PO BOX 128","JEFFERS","MN","56145"
363348,"STATE HWY 89 SUITE F","YARNELL","AZ","85362"
363349,"STATE ROAD 110 HOUSE NUMBER 41","EL RITO","NM","87630"
363350,"STATE ROUTE 54 PO BOX 47","HAMMONDSPORT","NY","14840"
363351,"STATE STREET  P O BOX 68","GREENSBORO","AL","36744"
363352,"STATION 4 22855 FRANZ RD","KATY","TX","77450"
363353,"STE 105 PMB 10023","LOMA LINDA","CA","92354"
363354,"STE 150 2607 KINGSTON PIKE","KKNOXVILLE","TN","37919"
363355,"STE 205 CROSSLAND AVE","CLARKSVILLE","TN","37040"
363356,"STE 280","PEMBROKE PINES","FL","33028"
363357,"STE 302 22356 EL TORO ROAD","LAKE FOREST","CA","92630"
363358,"STE 406 2 INTERNATIONAL PLZ","NASHVILLE","TN","37217"
363359,"STE C","OAKLAND","CA","94611"
363360,"STE C2 39 W BROAD ST","COOKEVILLE","TN","38501"
363361,"STEPHEN CHO 12 E 14TH ST APT 3B","NEW YORK","NY","10003"
363362,"STREET 10 AB-17 JARDINES DE CAPARRA","BAYAMON","PR","00959"
363363,"STUDENTS IN VITA CENTER FOR STUDENT","DAVIS","CA","95616"
363364,"SU BOX 12321","BATON ROUGE","LA","70813"
363365,"SUITE 100 GRAY FLATS ROAD","BECKLEY","WV","25801"
363366,"SUITE 102","DEL MAR","CA","92014"
363367,"SUITE 104 21076 BAKE PARKWAY","LAKE FOREST","CA","92630"
363368,"SUITE 1112 801 PENNSYLVANIA AVE NW","WASHINGTON","DC","20004"
363369,"SUITE 200 18081 BURT STREET","OMAHA","NE","68022"
363370,"SUITE 200","SAINT PAUL","MN","55130"
363371,"SUITE 201 1555 OXFORD ST","BERKELEY","CA","94709"
363372,"SUITE 202","BARTLESVILLE","OK","74006"
363373,"SUITE 205","LOUISVILLE","KY","40222"
363374,"SUITE 215 PO BOX 6001","SALINAS","PR","00751"
363375,"SUITE 240 1230 O STREET","LINCOLN","NE","68508"
363376,"SUITE 250-200  821 DAWSONVILLE HWY","GAINESVILLE","GA","30501"
363377,"SUITE 2500 1600 MARKET","PHILADELPHIA","PA","19103"
363378,"SUITE 300","COSTA MESA","CA","92627"
363379,"SUITE 35024","ST PETERSBURG","FL","33705"
363380,"SUITE 400 301 CARNEGIE CENTER","PRINCETON","NJ","08543"
363381,"SUITE 408","ANCHORAGE","AK","99503"
363382,"SUITE 410 - 330 2ND AVENUE SOUTH","MINNEAPOLIS","MN","55401"
363383,"SUITE 600 647","CHEVY CHASE","MD","20815"
363384,"SUITE 8","BLOOMFIELD","NJ","07003"
363385,"SUITE 931","ATLANTA","GA","30324"
363386,"SUITE 950 919 NORTH MARKET STREET","WLMINGTON","DE","19801"
363387,"SUITE A 151 5TH AVENUE","NEW YORK","NY","10001"
363388,"SUITE A","LAKE CHARELS","LA","70607"
363389,"SUITE C - 23039 VENTURA BLVD","WOODLAND HILLS","CA","91364"
363390,"SUITE CU3 162 4TH AVENUE N","NASHVILLE","TN","37219"
363391,"SUMMERFIELD DRIVE","ARCANUM","OH","45304"
363392,"SUNNYSIDE AVENUE","HEMPSTEAD","NY","11550"
363393,"SUNY POTSDAM 44 PIERREPONT AVE","POTSDAM","NY","13676"
363394,"SUPRIYA MUKHAPADHYAY","NAPERVILLE","IL","60564"
363395,"SURG CO B 3D MEDICAL BN BOX 63038","KANEOHE BAY","HI","96863"
363396,"SUSAN GOLDFARB 250 K ST NE APT 111","WAHINGTON","DC","20002"
363397,"SW 63RD AVENUE","ARCHER","FL","32618"
363398,"SW SIUSLAW LN","TUALATIN","OR","97062"
363399,"SWEET DREAMERS INC","STOCKTON","CA","95204"
363400,"SWSS  210 PARK AVE 2ND FLOOR","FLORHAM PARK","NJ","07932"
363401,"SYMPHONY ISLES BLVD","APOLLO BEACH","FL","33572"
363402,"TACONIC INNOVATIONS  FOUNDATION INC","WAPPINGERS FALLS","NY","12590"
363403,"TAMU 4221","COLLEGE STATION","TX","77843"
363404,"TAMU MS 3257","COLLEGE STATION","TX","77843"
363405,"TARRYWILE MANSION 70 SOUTHERN BLVD","DANBURY","CT","06810"
363406,"TEC CENTER 714 EAST MONUMENT AVENUE","DAYTON","OH","45402"
363407,"TENZER AND LUNIN 32 EAST 57TH ST","NEW YORK","NY","10022"
363408,"TERESE WATSON","COUNTRY CLUB HILLS","IL","60478"
363409,"TERRAZAS DE TINTILLO CALLE 1 NUM 8","GUAYNABO","PR","00966"
363410,"TF COUNTY FAIRGROUNDS 215 FAIR AVE","FILER","ID","83328"
363411,"THE 329 BUILDING SUITE 218","UNIVERSITY PARK","PA","16802"
363412,"THE UPS STORE 1919 PMB 198","MARTINEZ","GA","30907"
363413,"THE UPTOWN 500 WILLIAM ST STE 133A","OAKLAND","CA","94612"
363414,"THIRD AV AND MARKET ST","ELIZABETH","PA","15037"
363415,"THOMAS BOYLAND STREET SUITE 301","BROOKLYN","NC","11212"
363416,"THOMAS E TYLER 1525 LOCUST STREET","PHILADELPHIA","PA","19102"
363417,"THREE BESSOM STREET NO 154","MARBLEHEAD","MA","01945"
363418,"THUNDER RIVER CIRCLE 5020","LAS VEGAS","NV","89148"
363419,"TIERRAS  NUEVAS CALLE CAOBA 15","MANATI","PR","00674"
363420,"TIFFANY BATTLE-7980 CLAYTON ROAD","ST. LOUIS","MO","63117"
363421,"TIGERLABS 252 NASSAU STREET","PRINCETON","NJ","08542"
363422,"TNA-3    PO BOX 11564","FORT WORTH","TX","76110"
363423,"TOGETHER LOANS INC 625 7TH AVE NE","HICKORY","NC","28601"
363424,"TORCH BLVD BLDG 300","CANNON AFB","NM","88103"
363425,"TORRIMAR TOLEDO 12-1","GUAYNABO","PR","00966"
363426,"TOWN HALL 120 EAST MAIN STREET","LIGONIER","PA","15658"
363427,"TOWNLINE ROAD","CLIFTON SPRINGS","NY","14432"
363428,"TRACEY MARCHESONI","ROWLETT","TX","75088"
363429,"TRANSITION WITH A PURPOSE INC","MIDLAND","TX","79705"
363430,"TTU MS 42101 703 FLINT AVENUE","LUBBOCK","TX","79409"
363431,"TUCKER HIGH SCHOOL 5036 LAVISTA RD","TUCKER","GA","30084"
363432,"TWELVE CARTER TERRACE","SOMERVILLE","MA","02143"
363433,"TWO ATLANTIC AVENUE 4TH FLOOR","BOSTON","MA","02110"
363434,"TWO CITY PLAZA STE 202","WEST PALM BEACH","FL","33401"
363435,"TWO GREENWICH OFFICE PARK 3RD FLOOR","GREENWICH","CT","06831"
363436,"TWO INTERNATIONAL PLACE","BOSTON","MA","02110"
363437,"TWO NORTH NINTH STREET","NOBLESVILLE","IN","46060"
363438,"TWO ROUTE 3","PALERMO","ME","04354"
363439,"UCB 133","BOULER","CO","80309"
363440,"UCLA 405 HILGARD AVE GSE-IS - 2018","LOS ANGELES","CA","90095"
363441,"UHH INNOVATION CENTER 117 KEAWE ST","HILO","HI","96720"
363442,"UMASS MED SCHOOL-303 BELMONT ST","WORCESTER","MA","01604"
363443,"UMD HEALTH CENTER 3983 CAMPUS DR","COLLEGE PARK","MD","20742"
363444,"UNC 10 WATAUGA CLUB DR BOX 7009","RALEIGH","NC","27695"
363445,"UNCG - 1408 WALKER AVENUE","GREENSBORO","NC","27402"
363446,"UNCW EVS - 601 SOUTH COLLEGE ROAD","WILMINGTON","NC","28403"
363447,"UNG DEPT HISTORY 82 COLLEGE CIRCLE","DAHLONEGA","GA","30597"
363448,"UNIT 100317 BOX 1","FPO","AE","09591"
363449,"UNIT 100523 BOX 1","FPO","AE","09595"
363450,"UNIT 104","TUKWILA","WA","98188"
363451,"UNIT 15236","APO","AP","96205"
363452,"UNIT 17001 BOX 103","APO","AP","96555"
363453,"UNIT 17002 BOX 8002","APO","AP","96557"
363454,"UNIT 1A","SAN DIEGO","CA","92117"
363455,"UNIT 21606","APO","AE","09703"
363456,"UNIT 28044 BOX 7007R","APO","AE","09112"
363457,"UNIT 35023 MCB CAMP SD BUTLER","FPO","CA","96373"
363458,"UNIT 5170","APO","AE","09464"
363459,"UNIT 5198 BOX 10","APO","AP","96368"
363460,"UNIT 5198 BOX 10","APO","AP","96378"
363461,"UNIT 5623","APO","AE","09470"
363462,"UNIT I5-1 PMB 558","AIEA","HI","96701"
363463,"UNIV AT BUFFALO - 534 BALDY HALL","BUFFALO","NY","14260"
363464,"UNIVERSITY CENTER SOC BOX 15","MOUNT PLEASANT","MI","48859"
363465,"UNIVERSITY GARDEN CALLE SAUCE E44","ARECIBO","PR","00612"
363466,"UNIVERSITY OF CALIFORNIA IRVINE","IRVINE","CA","92697"
363467,"UNIVERSITY OF MONTANA FINE ARTS","MISSOULA","MT","59812"
363468,"UNIVERSITY OF TEXAS AT AUSTIN","AUSTIN","TX","78712"
363469,"UPR-U CARR 123KM 522 SALTO ARRIBA","UTUADO","PR","00641"
363470,"URB  QUINTAS DE CUPEY  A11 CALLE 14","SAN JUAN","PR","00926"
363471,"URB 105 CALLE D","AGUADILLA","PR","00603"
363472,"URB ANA MARIA CALLE 4 F-3","CABO ROJO","PR","00623"
363473,"URB BAIROA C/ 30 AP7","CAGUAS","PR","00725"
363474,"URB BALDRICH 204 PRESIDENTE RAMIREZ","SAN JUAN","PR","00918"
363475,"URB BALDRICH 210 PRESIDENTE RAMIREZ","SAN JUAN","PR","00918"
363476,"URB BAY VIEW 120 OCEAN DRIVE","CATANO","PR","00962"
363477,"URB BUNKER CALLE PANAMA 1","CAGUAS","PR","00725"
363478,"URB CAMINO REAL BUZON 30","CAGUAS","PR","00727"
363479,"URB CORCHADO  VIOLETA  4 ST","ISABELA","PR","00662"
363480,"URB COSTA BRAVA M-295 FINCHE ST","ISABELA","PR","00662"
363481,"URB DORADO DEL MAR PP6 ROSA VIENTOS","DORADO","PR","00646"
363482,"URB DOS PINOS 804 C LOPEZ SICARDO","SAN JUAN","PR","00923"
363483,"URB FOREST VIEW D103 CALLE BATAVIA","BAYAMON","PR","00956"
363484,"URB HACIENDAS DE MIRAMAR CAL COR 5","CABO ROJO","PR","00623"
363485,"URB HERMANAS DAVILAS 130 CALLE F","BAYAMON","PR","00959"
363486,"URB JAIME L DREW CALLE 5 NUMERO 129","PONCE","PR","00730"
363487,"URB LA MARGARITA D2 CALLE C","SALINAS","PR","00751"
363488,"URB LA SERRANIA AZUCENA 233","CAGUAS","PR","00725"
363489,"URB LEVITTOWN 1223 PASEO DONCELLA","TOA BAJA","PR","00949"
363490,"URB LEVITTOWN 1557 PASEO DELTA","TOA BAJA","PR","00949"
363491,"URB LOS PRADOS 249 EL VALLE","CAGUAS","PR","00727"
363492,"URB LOS PRADOS A/3","CAYEY","PR","00736"
363493,"URB METROPOLIS A18 CALLE 3","CAROLINA","PR","00987"
363494,"URB MIRADERO NUM 94","HUMACAO","PR","00791"
363495,"URB MONTE BRISAS L 54 CALLE K","FAJARDO","PR","00738"
363496,"URB MONTE PRIMAVERA 3","CIDRA","PR","00739"
363497,"URB MONTEHIEDRA 211 CALLE ZORZAL","SAN JUAN","PR","00926"
363498,"URB PAGAN 10","CABO ROJO","PR","00623"
363499,"URB PEREZ MORRIS  CALLE NUEVA 656","SAN JUAN","PR","00917"
363500,"URB PORTAL DE LOIZA CALLE 6 F-1","LOIZA","PR","00772"
