"ID","Address","City","State","Zip"
82001,"16809 9TH AVE NW","LAKEBAY","WA","98349"
82002,"16809 BELLFLOWER BLVD 521","BELLFLOWER","CA","90706"
82003,"16809 KERRINGTON CT","INDEPENDENCE","MO","64055"
82004,"16809 SPRING VALLEY ROAD","BELTON","MO","64012"
82005,"1681 42ND STREET","BROOKLYN","NY","11204"
82006,"1681 CANDLEWOOD AVE","RIALTO","CA","92377"
82007,"1681 COMSTOCK AVE","LOS ANGELES","CA","90024"
82008,"1681 GREEN OAK CIRCLE","LAWRENCEVILLE","GA","30043"
82009,"1681 N 5TH AVE","MELROSE PARK","IL","60160"
82010,"1681 QUARTZ AVE","CANTONMENT","FL","32533"
82011,"1681 RIDGEHILL LANE","LIMA","OH","45805"
82012,"1681 S IDALIA CIR UNIT A","AURORA","CO","80017"
82013,"1681 SAN NICHOLAS STREET","VENTURA","CA","93001"
82014,"1681 SUMMIT AVENUE","WILLOW GROVE","PA","19090"
82015,"1681 W 63RD STREET","EXCELSIOR","MN","55331"
82016,"16810 AIKEN RD","LOUISVILLE","KY","40245"
82017,"16810 ASHTON","DETROIT","MI","48019"
82018,"16810 SHOWDOWN PATH  UNIT 2","SELMA","TX","78154"
82019,"16811 COUNTY RD 39","ROSHARON","TX","77583"
82020,"16811 E 18TH CT","VERADALE","WA","99037"
82021,"16811 FLYING JIB RD","CORNELIUS","NC","28031"
82022,"16811 HALE AVENUE  SUITE A","IRVINE","CA","92606"
82023,"16812 BAYVIEW DRIVE","SUNSET BEACH","CA","90742"
82024,"16812 MEADOWVALE AVE","CLEVELAND","OH","44128"
82025,"16812 RED HIL AVENUE","IRVINE","CA","92606"
82026,"16812 SE 1ST STREET UNIT 111","LOON LAKE","WA","99148"
82027,"16813 CRYSTAL DOWNS COVE","AUSTIN","TX","78717"
82028,"16813 S OLCOTT AVE","TINLEY PARK","IL","60477"
82029,"16814 GREAT OAKS GLEN DRIVE","HOUSTON","TX","77083"
82030,"16814 LAKESHORE DRIVE","CORNELIUS","NC","28031"
82031,"16814 N 44TH PL","PHX","AZ","85032"
82032,"16814 W WESTMINSTER DR","SURPRISE","AZ","85374"
82033,"16815 EASTBURN ST","DETROIT","MI","48205"
82034,"16815 N 2200TH RD","GOOD HOPE","IL","61438"
82035,"16815 VIA CORTO WEST","DESERT HOT SPRINGS","CA","92240"
82036,"16817 EAST 111ST STREET","BROKEN ARROW","OK","74011"
82037,"16817 EDINBURG WAY","FARMINGTON","MN","55024"
82038,"16817 JARON DR","MANOR","TX","78653"
82039,"16819 BELLMOOR LANE","HOUSTON","TX","77084"
82040,"16819 ROUTE 16","GILLESPIE","IL","62033"
82041,"1682 27TH ST","RICE LAKE","WI","54868"
82042,"1682 CUTTER LANE","PARK CITY","UT","84098"
82043,"1682 DOROTHY CIRCLE","LONGMONT","CO","80503"
82044,"1682 FIDDYMENT DR","ROMEOVILLE","IL","60446"
82045,"1682 FOUR MIKE ROAD","RICHMOND","KY","40475"
82046,"1682 HIGH PLAINS DR","SUPERIOR","CO","80027"
82047,"1682 HWY 160","WESTVILLE","FL","32464"
82048,"1682 HYDE LN","BELOIT","KS","67420"
82049,"1682 LANGLEY AVE","IRVINE","CA","92614"
82050,"1682 MONET HL","CHARLOTTESVILLE","VA","22911"
82051,"1682 NORTH MALLORY STREET","HAMPTON","VA","23664"
82052,"1682 PACIFIC STREET","BROOKLYN","NY","11213"
82053,"1682 REUNION AVENUE","SOUTH JORDAN","UT","84065"
82054,"1682 RUSHING SPRINGS ROAD","LINCOLN","AL","35096"
82055,"1682 SAYMAN RD","NEW ALBANY PA","PA","18833"
82056,"1682 SWALLOWTAIL LANE","SANFORD","FL","32771"
82057,"1682 W 15TH STREET","RIVIERA BEACH","FL","33404"
82058,"16820 84TH CT N","LOXAHATCHEE","FL","33470"
82059,"16820 ARCHDALE","DETROIT","MI","48235"
82060,"16820 GROSS LANE","BEND","OR","97707"
82061,"16820 NORRIS RD","WEELIGTON","FL","33414"
82062,"16820 VERDURA AVE","PARAMOUNT","CA","90723"
82063,"16820 YUKON AVE STE B","TORRANCE","CA","90504"
82064,"16821 JED FOREST LANE","WOODBRIDGE","VA","22191"
82065,"16821 NE 8TH AVENUE","NORTH MIAMI BEACH","FL","33162"
82066,"16823 118TH ST NE","ARLINGTON","WA","98223"
82067,"16823 ACCOLADE WAY","CONROE","TX","77385"
82068,"16825 25TH AVE N","PLYMOUTH","MN","55447"
82069,"16825 48TH AVE W SUITE 114","LYNNWOOD","WA","98037"
82070,"16825 PLACER HILLS ROAD","MEADOW VISTA","CA","95722"
82071,"16825 S BRADLEY RD","OREGON CITY","OR","97045"
82072,"16825 TAYLOR LANE","POLK CITY","FL","33868"
82073,"16826 CR 3534","ADA","OK","74820"
82074,"16827 CREEK TRL","HOUSTON","TX","77084"
82075,"16827 FENMORE","DETROIT","MI","48235"
82076,"1683 7TH ST","OROVILLE","CA","95965"
82077,"1683 DRY RUN RD","DUNCANSVILLE","PA","16635"
82078,"1683 E ATKIN AVENUE","SALT LAKE CITY","UT","84106"
82079,"1683 HADDEN HALL PLACE","TRINITY","FL","34655"
82080,"1683 HAWTHORNE CT","WINONA LAKE","IN","46590"
82081,"1683 MARRIOTT LANE","BARNHART","MO","63012"
82082,"1683 NCOBBS CREEK LANE","DECATUR","GA","30032"
82083,"1683 PTARMIGAN DRIVE 1B","WALNUT CREEK","CA","94595"
82084,"1683 ROAD 11","SEDAN","KS","67361"
82085,"1683 WILLOWBROOK DRIVE","JENISON","MI","49428"
82086,"1683 WINDMILL RD","GARDNERVILLE","NV","89410"
82087,"16830 49TH PLACE N","MINNEAPOLIS","MN","55446"
82088,"16830 MANOR","DETROIT","MI","48221"
82089,"16830 VENTURA BLVD - SUITE 300","ENCINO","CA","91436"
82090,"16830 VENTURA BLVD STE 360","ENCINO","CA","91436"
82091,"16830 VENTURA BLVD SUITE 360","ENCINO","CA","91436"
82092,"16830 VENTURA BLVD","ENCINO","CA","94136"
82093,"16831 CENTERFIELD WAY","OLNEY","MD","20832"
82094,"16831 LINK COURT","FORT MYERS","FL","33912"
82095,"16831W MAIN ST SAND LAKE RD","STONE LAKE","WI","54876"
82096,"16832 COLLINGHAM DR","DETROIT","MI","48205"
82097,"16833 CHARLESTON CIR","LOCKPORT","IL","60441"
82098,"16833 LUCKENWALD DRIVE","ROUND ROCK","TX","78681"
82099,"16833 WESTBURY AVE SW","PRIOR LAKE","MN","55372"
82100,"16834 ACCOLADE WAY","CONROE","TX","77385"
82101,"16834 GREENWOOD","SOUTH HOLLAND","IL","60473"
82102,"16835 ALGONQUIN STREET SUITE 337","HUNTINGTON BEACH","CA","92649"
82103,"16835 ALGONQUIN STREET UNIT 225","HUNTINGTON BEACH","CA","92649"
82104,"16835 DEER CREEK DR STE 120","SPRING","TX","77379"
82105,"16835 SHERIDAN STREET","PEMBROKE PINES","FL","33331"
82106,"16837","NORTH HILLS","CA","91343"
82107,"16838 DOLPHIN ST","DETROIT","MI","48219"
82108,"16839 HARBOUR TOWN DR","SILVER SPRING","MD","20905"
82109,"1684 132ND AVE NE","BLAINE","MN","55449"
82110,"1684 78TH AVE NE","WILLMAR","MN","56201"
82111,"1684 ADIRONDACK ST","ROCHESTER","NY","14606"
82112,"1684 BLADEN ROAD","GALLIPOLIS","OH","45631"
82113,"1684 BORDEAUX LANE","LONG GROVE","IL","60047"
82114,"1684 BRANDON HALL DRIVE","ATLANTA","GA","30350"
82115,"1684 CALISTOGA CT","EUGENE","OR","97402"
82116,"1684 HANOVER STREET","CUYAHOGA FALLS","OH","44221"
82117,"1684 IRVING AVE","ASTORIA","OR","97103"
82118,"1684 IRVING AVENUE","ASTORIA","OR","97103"
82119,"1684 LAURELWOOD DR SW","ATLANTA","GA","30311"
82120,"1684 S MURDOCK ROAD","CAMP VERDE","AZ","86322"
82121,"1684 SPRING CREEK AVENUE","SPRINGDALE","AR","72764"
82122,"1684 STATE HWY 75 N","HUNTSVILLE","TX","77320"
82123,"1684 VENTURE DRIVE STE B","MOUNT VERNON","OH","43050"
82124,"16840 MELVILLE RD SE","TENINO","WA","98589"
82125,"16840 TOWNSHIP RD 118","KIMBOLTON","OH","43749"
82126,"16842 ARDMORE","DETROIT","MI","48235"
82127,"16842 PACIFIC COAST HWY UNIT 105","HUNTINGTON BEACH","CA","92649"
82128,"16843 NW 165TH LANE","ALACHUA","FL","32615"
82129,"16844 STANSBURY","DETROIT","MI","48235"
82130,"16844 SW 81 COURT","MIAMI","FL","33157"
82131,"16845 HOLLAND RD","BROOK PARK","OH","44142"
82132,"16847 DESERT LILY STREET","VICTORVILLE","CA","92394"
82133,"16847 LUELLA AVE","SOUTH HOLLAND","IL","60473"
82134,"16847 WOODS POINTE CIRCLE","ANCHORAGE","AK","99516"
82135,"16848 TOWAR","EAST LANSING","MI","48823"
82136,"1685 134TH AVENUE SE APT I103","BELLEVUE","WA","98005"
82137,"1685 ASHLEY AVE NE","NORTH CANTON","OH","44720"
82138,"1685 AVENIDA OCEANO","OCEANSIDE","CA","92056"
82139,"1685 BIG STONER ROAD","WINCHESTER","KY","40391"
82140,"1685 CLEARSTONE DRIVE","LITHIA SPRINGS","GA","30122"
82141,"1685 H STREET SUITE 1303","BLAINE","WA","98230"
82142,"1685 HWY 1071","TYNER","KY","40486"
82143,"1685 LAKE ELEANOR DRIVE","DEERFIELD","IL","60015"
82144,"1685 LIBERTY DR","AKRON","OH","44313"
82145,"1685 LINDEN LN","NORTH LIBERTY","IA","52317"
82146,"1685 S COLORADO BLVD UNIT S-218","DENVER","CO","80222"
82147,"1685 SOUTH TREZEVANT","MEMPHIS","TN","38114"
82148,"1685 SPARROW CT","LEWISVILLE","TX","75077"
82149,"1685 SPINFISHER DR","APOPKA","FL","32712"
82150,"1685 STEELE ST","DENVER","CO","80206"
82151,"1685 SUTTER ROAD","MCKINLEYVILLE","CA","95519"
82152,"16850 DEMARTINI ROAD","PLYMOUTH","CA","95669"
82153,"16850 FRANCES ST  SUITE 100","OMAHA","NE","68130"
82154,"16850 FRANCES STREET SUITE 100","OMAHA","NE","68130"
82155,"16850 JASMINE STREET APT E06","VICTORVILLE","CA","92395"
82156,"16850 N 16TH ST","PHOENIX","AZ","85022"
82157,"16851 93RD AVE FL 1","JAMAICA","NY","11433"
82158,"16851 CR 26","TYLER","TX","75707"
82159,"16851 PARK HUNT COURT","LEESBURG","VA","20176"
82160,"16851 US 550","AZTEC","NM","87410"
82161,"16855 WEST BERNARDO DRIVE STE 125","SAN DIEGO","CA","92127"
82162,"16856 70TH ST N","LOXAHATCHEE","FL","33470"
82163,"16856 JACK ROAD","CANEHILL","AR","72717"
82164,"16856 SW COBBLESTONE DR","SHERWOOD","OR","97140"
82165,"16857 W TASHA DRIVE","SURPRISE","AZ","85388"
82166,"16858 HWY 550","AZTEC","NM","87410"
82167,"16858 US 550","AZTEC","NM","87410"
82168,"1686 270TH AVE","ALEXIS","IL","61412"
82169,"1686 CLEVELAND MASSILLON ROAD","COPLEY","OH","44321"
82170,"1686 EAST 103RD STREET","LOS ANGELES","CA","90002"
82171,"1686 GENEVA AVE","SAN FRANCISCO","CA","94134"
82172,"1686 HANOVER AVE","DELTONA","FL","32725"
82173,"1686 LEXINGTON DR","TROY","MI","48084"
82174,"1686 MARYWOOD ROAD","MELBOURNE","FL","32934"
82175,"1686 MORSE AVENUE","DES PLAINES","IL","60018"
82176,"1686 PREIDT CIRCLE","FRANKLIN","IN","46131"
82177,"1686 SHANNONDORA STREET","MYRTLE BEACH","SC","29577"
82178,"1686 SUNFLOWER CIRCLE","TUPELO","MS","38801"
82179,"1686 SW SANDTRAP CRESCENT","PALM CITY","FL","34990"
82180,"1686 WASHINGTON ROAD","APOLLO","PA","15613"
82181,"1686 WYNNDOWNE TRL","SMYRNA","GA","30080"
82182,"16860 ROUTE 6","BURLINGTON","PA","18814"
82183,"16860 SW 49 COURT","MIRAMAR","FL","33027"
82184,"16861 MARBLE AVE","LE MARS","IA","51031"
82185,"16861 N BARRYMORE DR","NAMPA","ID","83687"
82186,"16862 EDINBOROUGH ROAD","DETROIT","MI","48219"
82187,"16862 TAMARIND COURT","CHINO HILLS","CA","91709"
82188,"16863 SW 50TH STREET","MIRAMAR","FL","33027"
82189,"16865 WHITCOMB","DETROIT","MI","48235"
82190,"16866 LAWTON STREET","DETROIT","MI","48221"
82191,"16866 WESTSIDE RD","LAKEVIEW","OR","97630"
82192,"16867 ROYAL PINES LANE","SANTA CLARITA","CA","91387"
82193,"16869 65TH AVENUE UNIT 402","LAKE OSWEGO","OR","97035"
82194,"16869 DUPONT HWY","HARRINGTON","DE","19952"
82195,"16869 SW 65TH AVE NO 290","LAKE OSWEGO","OR","97035"
82196,"16869 SW 65TH STREET   BOX 372","LAKE OSWEGO","OR","97035"
82197,"16869 SW 65TH STREET  BOX 372","LAKE OSWEGO","OR","97035"
82198,"1687 CLAY BROOKE LANE SE","SMYRNA","GA","30082"
82199,"1687 DUREN FIELDS WAY","LITHONIA","GA","30058"
82200,"1687 EAST STONEHURST DRIVE","HUNTSVILLE","AL","35801"
82201,"1687 LAUDA DRIVE","MT PLEASANT","SC","29464"
82202,"1687 NORTH RIVER ROAD","HALIFAX","PA","17032"
82203,"1687 RADCLIFFE PL","LONGMONT","CO","80503"
82204,"16872 FERNWOOD DR","LAKE OSWEGO","OR","97034"
82205,"16872 PETERSON RD","BURLINGTON","WA","98233"
82206,"16873 PIERRE CIRCLE","DELRAY BEACH","FL","33446"
82207,"16875 ARMADA CENTER RD","ARMADA","MI","48005"
82208,"16875 JERICHO ROAD","DALTON","OH","44618"
82209,"16875 W BERNARDO DRIVE SUITE 290","SAN DIEGO","CA","92127"
82210,"16877 EAST COLONIAL DR","ORLANDO","FL","32820"
82211,"16878 GLASTONBURY RD","DETROIT","MI","48219"
82212,"16879 BALMORAL STREET","MONTGOMERY","TX","77316"
82213,"1688 ALTURAS STREET","SAN BERNARDINO","CA","92411"
82214,"1688 INDEPENDENCE DRIVE","DOUGLASVILLE","GA","30134"
82215,"1688 LEGRAND CIR","LAWRENCEVILLE","GA","30043"
82216,"1688 MERIDIAN AVENUE 7FL","MIAMI BEACH","FL","33139"
82217,"1688 MERIDIAN AVENUE SUITE 700","MIAMI BEACH","FL","33139"
82218,"1688 NIGHT OWL TRAIL","MIDDLEBURG","FL","32068"
82219,"1688 NORTH SHORE DRIVE","PAINESVILLE","OH","44077"
82220,"1688 SOUTH LONGSPUR LN","GILBERT","AZ","85295"
82221,"1688 TROLIST DRIVE","IRWIN","PA","15642"
82222,"16883 AVE 168 - NUMBER 4031","WOODVILLE","CA","93257"
82223,"16883 ROYAL POINCIANA DRIVE","WESTON","FL","33326"
82224,"16885 PCH UNIT 1474","SUNSET BEACH","CA","90742"
82225,"16886 97TH WAY","JUPITER","FL","33478"
82226,"16886 INVERNESS ST","DETROIT","MI","48221"
82227,"16888 TRAIL VIEW CIR","PARKER","CO","80134"
82228,"16889 AIRPORT CIRCLE UNIT 106","HUNTINGTON BEACH","CA","92649"
82229,"1689 34TH ST NW","WASHINGTON","DC","20007"
82230,"1689 34TH STREET NW","WASHINGTON","DC","20007"
82231,"1689 BISCAYNE AVE","SOUTH DAYTONA","FL","32119"
82232,"1689 BRITAIN AVE APT A","BENTON HARBOR","MI","49022"
82233,"1689 CENTERVILLE DR","BUFORD","GA","30518"
82234,"1689 COTTONPORT RD","DAYTON","TN","37321"
82235,"1689 E 124 TH STREET","COMPTON","CA","90222"
82236,"1689 GEORGIA LANE","BULLHEAD CITY","AZ","86442"
82237,"1689 MANOR DRIVE","STREETSBORO","OH","44241"
82238,"1689 NE 2ND AVE","HILLSBORO","OR","97124"
82239,"1689 RANDALL AVE","BRONX","NY","10473"
82240,"1689 WEBB BRANCH RD","OAKWOOD","VA","24631"
82241,"1689 WESTGATE DRIVE 101","YORK","PA","17408"
82242,"16890 OAK ST","DILLWYN","VA","23936"
82243,"16890 S DIXIE HWY","MIAMI-DADE","FL","33157"
82244,"16891 B STREET","VICTORVILLE","CA","92395"
82245,"16893 BELLOTA DR","SAN DIEGO","CA","92128"
82246,"16893 TACK LANE","MORENO VALLEY","CA","92555"
82247,"16894 US HWY 63","LANCASTER","MO","63548"
82248,"16897 BLUE JAY ST","CONROE","TX","77385"
82249,"168SOUTH RIVER ROAD","BEDFORD","NH","03110"
82250,"169 ACKERMAN AVE APT 5","CLIFTON","NJ","07011"
82251,"169 ADAMS LAKE COURT","LAWRENCEVILLE","GA","30046"
82252,"169 ALDRICH ST","BELCHERTOWN","MA","01007"
82253,"169 APPALOOSA AVENUE","POCATELLO","ID","83201"
82254,"169 BLACK HILL RD","PLAINFIELD","CT","06374"
82255,"169 BLUFF AVENUE","CRANSTON","RI","02905"
82256,"169 BONITA AVENUE","FOWLER","CA","93625"
82257,"169 BONVIEW ST APT A","SAN FRANCISCO","CA","94110"
82258,"169 CLARK TRL","YANKTON","SD","57078"
82259,"169 CLAYSVILLE RD","CROSSVILLE","TN","38571"
82260,"169 CLINTON STREET","WATERBURY","CT","06710"
82261,"169 COMMACK ROAD SUITE H  358","COMMACK","NY","11725"
82262,"169 DALE ROAD","CENTER SANDWICH","NH","03227"
82263,"169 DEEMER DR","PITTSBURGH","PA","15234"
82264,"169 DEMMER DR","PITTSBURGH","PA","15345"
82265,"169 E 99TH STREET STE 7","NEW YORK","NY","10029"
82266,"169 E FLAGLER ST STE 1600","MIAMI","FL","33133"
82267,"169 E ORANGE GROVE APT 8","PASADENA","CA","91103"
82268,"169 E REYNOLDS ROAD","LEXINGTON","KY","40517"
82269,"169 E VANBUREN STREET","BATTLE CREEK","MI","49017"
82270,"169 EAGLE PARK DRIVE","COLUMBIA","SC","29206"
82271,"169 EAST 78TH STREET","NEW YORK","NY","10075"
82272,"169 EASTBROOK DRIVE","BOONE","NC","28607"
82273,"169 EASY ST","MOORESVILLE","NC","28117"
82274,"169 EASY STREET","MOORESVILLE","NC","28117"
82275,"169 EDGECOMBE AVENUE 4C","NEW YORK","NY","10030"
82276,"169 FERNBRIDGE BLVD","MADISON","AL","35758"
82277,"169 FIOLI CIR","GRANITEVILLE","SC","29829"
82278,"169 FLORIDA AVENUE SW","ATLANTA","GA","30310"
82279,"169 FOXBANK PLANTATION BLVD","MONCKS CORNER","SC","29461"
82280,"169 FRANKLIN STREET","NORWICH","CT","06360"
82281,"169 FRENCH ROAD","TEMPLETON","MA","01468"
82282,"169 GLADYS LN","TRINITY","TX","75862"
82283,"169 GRANDVIEW DRIVE","LIMERICK","ME","04048"
82284,"169 HALFERTY ST","DONNELLY","ID","83615"
82285,"169 HAMPDEN ROAD","EAST LONGMEADOW","MA","01028"
82286,"169 HARTNELL AVE   STE 202","REDDING","CA","96002"
82287,"169 HAVERFORD COURT","HAMPTON","VA","23666"
82288,"169 ISABELLA AVENUE","NEWARK","NJ","07106"
82289,"169 JAVA STREET","BROOKLYN","NY","11222"
82290,"169 JEFFER CT","RIDGEWOOOD","NJ","07450"
82291,"169 JEFFERSON ROAD","STATHAM","GA","30666"
82292,"169 KEITH STREET","WARRENTON","VA","20186"
82293,"169 KENWOOD ESTATES","GRISWOLD","CT","06351"
82294,"169 KU DR","WAILUKU","HI","96793"
82295,"169 LEISURE WAY","VACAVILLE","CA","95696"
82296,"169 LELAND STREET","FRAMINGHAM","MA","01702"
82297,"169 LONG DRIVE","ELKTON","MD","21921"
82298,"169 MAIN STREET SUITE 102","MATAWAN","NJ","07747"
82299,"169 MCELVEY RD","PHENIX CITY","AL","36869"
82300,"169 MEADOWBROOK ROAD","MONTGOMERY","PA","17752"
82301,"169 MOHAWK STREET","COHOES","NY","12047"
82302,"169 MONROE TURNPIKE","MONROE","CT","06468"
82303,"169 MONTEREY ST","HIGHLAND PARK","MI","48203"
82304,"169 N 4TH STREET","MARTINSVILLE","IN","46151"
82305,"169 N CENTRAL AVE","MARSHFIELD","WI","54449"
82306,"169 N HAMPSHIRE AVE","ELMHURST","IL","60126"
82307,"169 N OXFORD ST","EAST YORK","PA","17402"
82308,"169 N PORTAGE STREET","DOYLESTOWN","OH","44230"
82309,"169 N SHORT AVE","PORT CLINTON","OH","43452"
82310,"169 N WILSON RD APT 221","COLUMBUS","OH","43204"
82311,"169 NORTH 1160 WEST","SAINT GEORGE","UT","84770"
82312,"169 NUMBER SIX RD","OXFORD","ME","04270"
82313,"169 OLD SYLVIA RD","DICKSON","TN","37055"
82314,"169 ONTARIO STREET","HOUMA","LA","70364"
82315,"169 PELLS RD","RHINEBECK","NY","12572"
82316,"169 PELLS ROAD","RHINEBECK","NY","12572"
82317,"169 PILGRIM REST CHURCH ROAD","PINOLA","MS","39149"
82318,"169 RED OAK LANE","JOHNSTOWN","PA","15909"
82319,"169 RUSSELL MILL RD","WOOLWICH TWP","NJ","08085"
82320,"169 RUTGERS RD","PISCATAWAY","NJ","08854"
82321,"169 S ACADEMY STREET","JANESVILLE","WI","53548"
82322,"169 S ACTON ROAD","STOW","MA","01775"
82323,"169 S HUNT CLUB RUN","NEWPORT NEWS","VA","23608"
82324,"169 S JAMESON ST","ORANGE","CA","92866"
82325,"169 S MAIN ST SUITE 316","NEW CITY","NY","10956"
82326,"169 S MANNHEIM AVE","EGG HARBOR CITY","NJ","08215"
82327,"169 SHELTON AVE APT 25","NEW HAVEN","CT","06511"
82328,"169 SPRING OAK DRIVE","EMINENCE","KY","40019"
82329,"169 STANLEY POINT ROAD","SWANS ISLAND","ME","04685"
82330,"169 SUNKEN HEIGHTS AVE","BLOOMSBURG","PA","17815"
82331,"169 THOUSAND ACRES ROAD","DELANSON","NY","12053"
82332,"169 TREADWELL AVENUE","STATEN ISLAND","NY","10302"
82333,"169 UNION ST","POUGHKEEPSIE","NY","12601"
82334,"169 URBAN ROAD","HAWLEY","PA","18428"
82335,"169 VERDI RD","VENTURA","CA","93003"
82336,"169 VIRGINIA AVE","ASHEVILLE","NC","28806"
82337,"169 W 2710 S CIRCLE SUITE 203 A","ST GEORGE","UT","84790"
82338,"169 W CLINTON ST","DOYLESTOWN","OH","44230"
82339,"169 W GOLDEN GATE","DETROIT","MI","48203"
82340,"169 WAMSUTTA STREET","FALL RIVER","MA","02723"
82341,"169 WARREN STREET","BROOKLYN","NY","11201"
82342,"169 WEST 200 NORTH","BLADING","UT","84511"
82343,"169 WEST END AVENUE","RIDGEWOOD","NJ","07450"
82344,"169 WEST RAYE DRIVE","CHICAGO HEIGHTS","IL","60411"
82345,"169-9 144 ROAD","JAMAICA","NY","11434"
82346,"1690 290TH AVE","ALBION","NE","68620"
82347,"1690 BASSETT STREET UNIT 9","DENVER","CO","80202"
82348,"1690 BONNIE LANE","CORDOVA","TN","38016"
82349,"1690 BRITANNIA COURT","HARRISBURG","PA","17112"
82350,"1690 CAMDEN FORREST WAY","RIVERDALE","GA","30296"
82351,"1690 E REDWOOD PL","CHANDLER","AZ","85286"
82352,"1690 EAST 174 STREET 9F","BRONX","NY","10472"
82353,"1690 EDINBURGH DRIVE","TUCKER","GA","30084"
82354,"1690 EMERALD MOUNTAIN PARKWAY","WETUMPKA","AL","36093"
82355,"1690 FOREST LAKES CIRCLE APT B","WEST PALM BEACH","FL","33406"
82356,"1690 GASCONY RD","ENCINTAS","CA","92024"
82357,"1690 GIRL SCOUT RD","DENVER","PA","17517"
82358,"1690 HWY 70 WEST","DE QUEEN","AR","71832"
82359,"1690 MAIN ST","BROCKTON","MA","02301"
82360,"1690 MELROSE DR","ATLANTA","GA","30310"
82361,"1690 N MAJOR DR SUITE 202","BEAUMONT","TX","77713"
82362,"1690 N PORTER RD","FAYETTEVILLE","AR","72703"
82363,"1690 NORTH CAMBRIDGE AVE","WASHINGTON","UT","84780"
82364,"1690 OLD HIGHWAY 6","CROSS","SC","29436"
82365,"1690 PIPER LANE UNIT 205","Dayton","OH","45440"
82366,"1690 RENAISSANCE COMMNS BLVD 1326","BOYNTON BEACH","FL","33426"
82367,"1690 ROCKHURST LANE","CINCINNATI","OH","45255"
82368,"1690 SCOTTS LAKE RD","SALEM","NY","12865"
82369,"1690 SUPERIOR STREET","THREE LAKES","WI","54562"
82370,"1690 W LITTLETON BLVD SUITE 300","LITTLETON","CO","80120"
82371,"1690 WATERTROUGH ROAD","SEBASTOPOL","CA","95472"
82372,"1690 WEST HOLT AVENUE UNIT D","POMONA","CA","91768"
82373,"16900 C RD","COTTONWOOD","CA","96022"
82374,"16900 MONREAL RD","MADERA","CA","93636"
82375,"16900 NE 148 TERRACE RD","FORT MCCOY","FL","32134"
82376,"16900 NORTH BAY ROAD","SUNNY ISLES BEACH","FL","33160"
82377,"16900 SW 142ND PLACE","MIAMI","FL","33177"
82378,"16901 MELFORD BLVD SUITE 332","BOWIE","MD","20715"
82379,"16901 S HARRAH RD","NEWALLA","OK","74857"
82380,"16901 SW THEODORE WAY","BEAVERTON","OR","97006"
82381,"16902 BRIDGELAND LANDING","CYPRESS","TX","77433"
82382,"16902 CASTLE FRASER DR","HOUSTON","TX","77084"
82383,"16902 COUNTY RD 68","LOXLEY","AL","36551"
82384,"16902 E MORNINGSIDE LANE","SPOKANE VALLEY","WA","99016"
82385,"16902 HANNA RD","LUTZ","FL","33549"
82386,"16902 HULL STREET ROAD","MOSELEY","VA","23120"
82387,"16903 BECKETTS OAK DR","HOUSTON","TX","77083"
82388,"16903 BOUGAINVILLA LN","FRIENDSWOOD","TX","77546"
82389,"16903 COUNTY ROAD 325","BUENA VISTA","CO","81211"
82390,"16903 FISCHER RD STE 1 UP","LAKEWOOD","OH","44107"
82391,"16903 RED OAK DR SUITE 175","HOUSTON","TX","77090"
82392,"16903 SHRUB OAK","HUMBLE","TX","77396"
82393,"16906 ANNA GREEN ST","HOUSTON","TX","77084"
82394,"16906 BROOKWOOD","SAN ANTONIO","TX","78248"
82395,"16906 GREAT OAKS GLEN DR","HOUSTON","TX","77083"
82396,"16907 40TH DR SE","BOTHELL","WA","98012"
82397,"16907 TOM RIVER LOOP","DUMFRIES","VA","22026"
82398,"16908 ALSON WAY","BOWIE","MD","20716"
82399,"16908 W 83RD ST","LENEXA","KS","66219"
82400,"16908 W JONES RD","TAHLEQUAH","OK","74464"
82401,"16908 WALDEN AVENUE","CLEVELAND","OH","44128"
82402,"16909 CASS BROOK LN","WOODBRIDGE","VA","22191"
82403,"16909 SHANDS ROAD","SOUTH PRINCE GEORGE","VA","23805"
82404,"1691 BIARRITZ COURT","TRACY","CA","95304"
82405,"1691 COTTONWOOD DR","LEWIS CENTER","OH","43035"
82406,"1691 DEER CROSSING WAY","JONESBORO","GA","30236"
82407,"1691 E AUTUMN RIDGE","HAUBSTADT","IN","47639"
82408,"1691 HOLDERBY ROAD","HUNTINGTON","WV","25701"
82409,"1691 MICHIGAN AVE SUITE 360","MIAMI BEACH","FL","33139"
82410,"1691 MICHIGAN AVE","MIAMI BEACH","FL","33139"
82411,"1691 MICHIGAN AVENUE STE 310","MIAMI BEACH","FL","33139"
82412,"1691 MICHIGAN AVENUE STE 360","MIAMI BEACH","FL","33139"
82413,"1691 MOUNT PLEASANT ROAD","WILLOW SPRINGS","NC","27592"
82414,"1691 QUAIL TRAIL","MANNING","SC","29102"
82415,"1691 ROSSBACK RD","DAVIDSONVILLE","MD","21035"
82416,"1691 SCARLETT DR","PITTSBURGH","PA","15241"
82417,"1691 SCOTT ST","GLENDALE HEIGHTS","IL","60139"
82418,"1691 TUCKER RD","HOOD RIVER","OR","97031"
82419,"1691 WINCHESTER WAY SE","CONYERS","GA","30013"
82420,"16910 FM 2920 ROAD","TOMBALL","TX","77377"
82421,"16910 HAMPSHIRE DRIVE","WILLIAMSPORT","WA","21795"
82422,"16910 HAPPY HOLLOW DR","SAN ANTONIO","TX","78232"
82423,"16910 S COPLEY CT","OREGON CITY","OR","97045"
82424,"16910 SW 107TH CT","MIAMI","FL","33157"
82425,"16911 118TH AVE CT E","PUYALLUP","WA","98374"
82426,"16911 DALGETY CT","RICHMOND","TX","77407"
82427,"16911 DEVONSHIRE ST","GRANADA HILLS","CA","91344"
82428,"16911 HIBISCUS LANE","FRIENDSWOOD","TX","77546"
82429,"16912 CRYSTAL DOWNS CV","AUSTIN","TX","78717"
82430,"16912 SIMS LANE    211","HUNTINGTON BEACH","CA","92649"
82431,"16913 AVALON","SOUTH HOLLAND","IL","60473"
82432,"16913 HUNTINGTON WOODS DRIVE","MACOMB","MI","48042"
82433,"16914 NW 52ND PLACE","MIAMI","FL","33055"
82434,"16915 MOORISH AVE","BONNER SPRINGS","KS","66012"
82435,"16915 WORMER ST","DETROIT","MI","48219"
82436,"16916 464TH WAY SE","NORTH BEND","WA","98045"
82437,"16916 ORCHARD AVE","GARDENA","CA","90247"
82438,"16916 THROCKLEY AVENUE","CLEVELAND","OH","44128"
82439,"16919 289TH AVE","PAYNESVILLE","MN","56362"
82440,"16919 AGYLE RD","HOUSTON","TX","77049"
82441,"16919 HUTTONS COURT LN","RICHMOND","TX","77407"
82442,"16919 MELBOURNE DRIVE","LAUREL","MD","20707"
82443,"1692 354TH AVENUE","WEVER","IA","52658"
82444,"1692 AITKEN ROAD","LINCOLN","CA","95648"
82445,"1692 E CORTE DE CAJAMARCA","SAHUARITA","AZ","85629"
82446,"1692 EASTBROOK DR N","COLUMBUS","OH","43223"
82447,"1692 FIESTA LN","GREEN BAY","WI","54302"
82448,"1692 MANGROVE AVE UNIT 268","CHICO","CA","95926"
82449,"1692 MOSS ROSE WAY","BEAUMONT","CA","92223"
82450,"1692 NW JACIE WAY","MCMINNVILLE","OR","97128"
82451,"1692 WALTON STREET","PHILIPSBURG","PA","16866"
82452,"1692 WARNER AVE","MINERAL RIDGE","OH","44440"
82453,"16920 ASHTON OAKS DRIVE","CHARLOTE","NC","28278"
82454,"16920 BASELINE AVE","FONTANA","CA","92336"
82455,"16920 SOUTHALL PLANTATION LANE","CHARLES CITY","VA","23030"
82456,"16920 ZINFANDEL CIRCLE","MORGAN HILL","CA","95037"
82457,"169208 W KING TULL RD","PROSSER","WA","99350"
82458,"16921 JETTON ROAD","CORNELIUS","NC","28031"
82459,"16921 S WESTERN AVE STE 217","GARDENA","CA","90247"
82460,"16921 S WESTERN AVE SUITE 217","GARDENA","CA","90247"
82461,"16922 SE 41ST STREET","BELLEVUE","WA","98008"
82462,"16923 ESCALON DR","ENCINO","CA","91436"
82463,"16925 GEORGE ONEAL RD","BATON ROUGE","LA","70817"
82464,"16925 KETCH COURT","LEWES","DE","19958"
82465,"16925 LANDING LANE","SPRING LAKE","MI","49456"
82466,"16925 MASONIC  UNIT 512","FRASER","MI","48026"
82467,"16925 NE 32ND STREET","BELLEVUE","WA","98008"
82468,"16925 NW 25TH COURT","MIAMI GARDENS","FL","33056"
82469,"16925 SCHELL ROAD","KNIGHTS FERRY","CA","95361"
82470,"16926 CARAVAGGIO LOOP","MONTVERDE","FL","34756"
82471,"16926 RANGER RIDGE DRIVE","CYPRESS","TX","77429"
82472,"16926 SANDESTINE DR","HOUSTON","TX","77095"
82473,"16927 LAKE AVENUE","LAKEWOOD","OH","44107"
82474,"16928 LECLAIRE AVE","OAK FOREST","IL","60452"
82475,"16928 YELLOWSTONE DR","NORTHVILLE","MI","48168"
82476,"16929 FRANCES ST","OMAHA","NE","68130"
82477,"16929 SE 41ST ST","BELLEVUE","WA","98008"
82478,"16929 SW 103RD AVE","ARCHER","FL","32618"
82479,"1693 ADELIA AVENUE","LOUISVILLE","KY","40210"
82480,"1693 BISHOP DRIVE","CONCORD","CA","94521"
82481,"1693 GLENHAVEN CIRCLE","OCOEE","FL","34761"
82482,"1693 LAKEOVER ROAD","JACKSON","MS","39213"
82483,"1693 MAIN STREET","RARDEN","OH","45671"
82484,"1693 MELROSE DR","ATLANTA","GA","30310"
82485,"1693 NEBRASKA AVENUE EAST","ST. PAUL","MN","55106"
82486,"1693 OVERTON PARK AVE","MEMPHIS","TN","38112"
82487,"1693 STATE ROUTE 28A","WEST HURLEY","NY","12491"
82488,"1693 SW 159 AVE","SUNRISE","FL","33326"
82489,"1693 TAYLOR COURT","REDLANDS","CA","92374"
82490,"16930 ASPEN WAY","SOUTHGATE","MI","48195"
82491,"16930 BOSTON MANOR LANE","HOUSTON","TX","77073"
82492,"16930 SATICOY STREET","VAN NUYS","CA","91406"
82493,"16931 CHARTHAM PL","HACIENDA HEIGHTS","CA","91745"
82494,"16933 ENFIELD WAY","LAKEVILLE","MN","55044"
82495,"16934 CHABAD WAY","POWAY","CA","92064"
82496,"16934 CLAN MACINTOSH","HOUSTON","TX","77084"
82497,"16934 MACLEISH DR","HOUSTON","TX","77084"
82498,"16934 OLD ESPOLA ROAD","POWAY","CA","92064"
82499,"16935 126TH PL SE","RENTON","WA","98058"
82500,"16935 INGLESIDE AVENUE","SOUTH HOLLAND","IL","60473"
