"ID","Address","City","State","Zip"
112501,"21 CENTRAL AVENUE","BOSTON","MA","02136"
112502,"21 CHELSEA CT","SEWELL","NJ","08080"
112503,"21 CHESTER ROAD","BILLERICA","MA","01821"
112504,"21 CHESTNUT LANE","WAYNE","PA","19087"
112505,"21 CHESTNUT STREET","CHARLESTOWN","MA","02129"
112506,"21 CHRISMAR RD","PORTAGE","IN","46368"
112507,"21 CHRISTIE ST","DEMAREST","NJ","07627"
112508,"21 CLARENCE PLACE APT 402","SAN FRANCISCO","CA","94107"
112509,"21 CLEARWATER DRIVE","DURHAM","NC","27707"
112510,"21 CLEMATIS STREET APT 2","PROVIDENCE","RI","02908"
112511,"21 COACHMANS LANE","HAVERHILL","MA","01832"
112512,"21 COLONIA AVE","HADDONFIELD","NJ","08033"
112513,"21 COLUMBIA CIRCLE","PLYMOUTH","MA","02360"
112514,"21 COMMERCE BLVD SUITE 1","WEST GROVE","PA","19390"
112515,"21 CONCORD STREET","NORWALK","CT","06854"
112516,"21 CONGER ROAD","WORCESTER","MA","01602"
112517,"21 COOLIDGE AVENUE","SPENCERPORT","NY","14559"
112518,"21 CORPORATE DR SUITE 203","CLIFTON PARK","NY","12065"
112519,"21 CORPORATE DRIVE SUITE 203","CLIFTON PARK","NY","12065"
112520,"21 CORPORATE DRIVE","EASTON","PA","18045"
112521,"21 CORTE LATEUZA","LAKE ELSINORE","CA","92532"
112522,"21 COTTAGE ROAD","NEWBURY","MA","01951"
112523,"21 COTTONTAIL LANE","LAMOINE","ME","04605"
112524,"21 COUNTRY DRIVE","PORT WASHINGTON","NY","11050"
112525,"21 COUNTY ROAD","BENNINGTON","VT","05201"
112526,"21 COVE ROAD","SAG HARBOR","NY","11963"
112527,"21 COVERED BRIDGE ROAD","FLEMINGTON","NJ","08822"
112528,"21 COVEY LANE UNIT F","GREENSBORO","NC","27406"
112529,"21 CR 287","OXFORD","MS","38655"
112530,"21 CRAIGSIDE PLACE 7A","HONOLULU","HI","96817"
112531,"21 CRENSHAW DR","FLANDERS","NJ","07836"
112532,"21 CURRENT DR CAMPUS BOX 7904","RALEIGH","NC","27695"
112533,"21 CUSTOM HOUSE","BOSTON","MA","02110"
112534,"21 CYPRESS BLVD STE 1155","ROUND ROCK","TX","78665"
112535,"21 DALEBROOK DRIVE","PHOENIX","MD","21131"
112536,"21 DAVENPORT AVE 4H","NEW ROCHELLE","NY","10805"
112537,"21 DAVIS AVENUE","POUGHKEEPIE","NY","12603"
112538,"21 DAVIS STREET","DOUGLAS","MA","01516"
112539,"21 DEER VIEW ROAD","JOHNSTON","RI","02919"
112540,"21 DELBROOK RD","MORRIS PLAINS","NJ","07950"
112541,"21 DEVELLIS DRIVE","TRUMBULL","CT","06611"
112542,"21 DEVERELL DRIVE","NORTH BARRINGTON","IL","60010"
112543,"21 DEVONSHIRE DRIVE","WATERFORD","CT","06385"
112544,"21 DICKERSON ROAD","AUGUSTA","NJ","07822"
112545,"21 DIKE DRIVE","MONSEY","NY","10952"
112546,"21 DINEEN STREET","SPRINGFIELD","MA","01104"
112547,"21 DIVISION STREET","EAST GREENWICH","RI","02818"
112548,"21 DOLPHIN ST","GREENVILLE","SC","29605"
112549,"21 DOUGLAS DR","AYER","MA","01432"
112550,"21 E 10TH ST 11C","NEW YORK","NY","10003"
112551,"21 E 1ST STREET APT 502","NEW YORK","NY","10003"
112552,"21 E 36TH ST","BAYONNE","NJ","07002"
112553,"21 E 6TH ST 409","TEMPE","AZ","85281"
112554,"21 E BLACK HORSE PIKE","PLEASANTVILLE","NJ","08232"
112555,"21 E FREDERICK ST","STAUNTON","VA","24401"
112556,"21 E HANNAH ROAD","SUMMERTOWN","TN","38483"
112557,"21 E MAIN ST PO BOX 300","NEW PALESTINE","IN","46163"
112558,"21 E MAIN ST","BREVARD","NC","28712"
112559,"21 E ORCHARD LN","SHELTON","WA","98584"
112560,"21 EAST 21 STREET APT 6A","BROOKLYN","NY","11226"
112561,"21 EAST 32ND STREET APT 1","BAYONNE","NJ","07002"
112562,"21 EAST LUCIUS AVENUE","YOUNGSTOWN","OH","44507"
112563,"21 EASTOVER DRIVE","EAST NORTHPORT","NY","11731"
112564,"21 EDWARDS STREET","SPRINGFIELD","MA","01103"
112565,"21 ELCANO DR","HOT SPRINGS VILLAGE","AR","71909"
112566,"21 ELIZABETH STREET","HAMMOND","IN","46320"
112567,"21 ELLSWORTH ST","WEST HAVEN","CT","06516"
112568,"21 ELM AVENUE","KENTFIELD","CA","94904"
112569,"21 ELM DRIVE","NEPTUNE","NJ","07753"
112570,"21 ELMWOOD COURT","ALEXANDRIA","KY","41001"
112571,"21 ESSEX STREET","IRVINGTON","NJ","07111"
112572,"21 EUCLID AVE","MERCHANTVILLE","NJ","08109"
112573,"21 EVERETT ROAD EXT","ALBANY","NY","12205"
112574,"21 FAIRFIELD AVENUE","RANDOLPH","NJ","07869"
112575,"21 FELIZ CREEK ROAD","UKIAH","CA","95449"
112576,"21 FIELDWOOD PLACE","NEWNAN","GA","30263"
112577,"21 FIR DRIVE","MANHASSET HILLS","NY","11040"
112578,"21 FIRST ST","PORT JERVIS","NY","12771"
112579,"21 FLOVERTON ST","ROCHESTER","NY","14610"
112580,"21 FORBES AVE","BURLINGTON","MA","01803"
112581,"21 FRANK DAVIS ROAD","BRIDGETON","NJ","08302"
112582,"21 FREE STREET","MILFORD","MA","01757"
112583,"21 FROWEIN RD","CENTER MORICHES","NY","11934"
112584,"21 FROWEIN ROAD","CENTER MORICHES","NY","11934"
112585,"21 GAME FARM RD","CATSKILL","NY","12414"
112586,"21 GARDEN CITY DRIVE","CRANSTON","RI","02910"
112587,"21 GARDEN CITY DRIVE","CRANSTON","RI","02920"
112588,"21 GODEN STREET","BELMONT","MA","02478"
112589,"21 GORDON AVE","BRIARCLIFF MANOR","NY","10510"
112590,"21 GOULD STREET","EAST HAMPTON","NY","11937"
112591,"21 GRAMERCY PARK DR APT 516","BRYAN","TX","77802"
112592,"21 GRAND ROYALE CT","ALAMO","CA","94507"
112593,"21 GRAND ST  APT1","GLOVERSVILLE","NY","12078"
112594,"21 GRAYSTONE CT","SAINT CHARLES","MO","63303"
112595,"21 GRE","PROVIDENCE","RI","02906"
112596,"21 GREENHALGE STREET","TEWKSBURY","MA","01876"
112597,"21 GRETA DRIVE","RAYVILLE","LA","71269"
112598,"21 HAPUA PLACE","WAILUKU","HI","96793"
112599,"21 HARBOUR ISLE DRIVE WEST UNIT 104","FORT PIERCE","FL","34949"
112600,"21 HARFORD STREET","CLAREMONT","NH","03743"
112601,"21 HARRISON STREET","SOMERVILLE","MA","02143"
112602,"21 HAVEN COURT","HAINES","AK","99827"
112603,"21 HAVEN HILL","STERRETT","AL","35147"
112604,"21 HEATHER RIDGE","HIGHLAND MILLS","NY","10930"
112605,"21 HECKAMORE RD","BALA CYNWYD","PA","19004"
112606,"21 HERRICK COURT","TIFFIN","OH","44883"
112607,"21 HIGHLAND STREET","SOUTHBOROUGH","MA","01772"
112608,"21 HILL TOP LN","MUNCY VALLEY","PA","17758"
112609,"21 HILLCREST AVENUE","JAMESTOWN","NY","14701"
112610,"21 HILLSBOROUGH","NEWPORT BEACH","CA","92660"
112611,"21 HILLSIDE DRIVE","HIGHLAND FALLS","NY","10928"
112612,"21 HILLTOP CIRCLE","MENDHAM","NJ","07945"
112613,"21 HINCKLEY PLACE","BROOKLYN","NY","11218"
112614,"21 HINES STREET","MONROEVILLE","AL","36460"
112615,"21 HOBBS LN","CLINTON CORNERS","NY","12514"
112616,"21 HOLBROOK STREET","ROCKLAND","MA","02370"
112617,"21 HOMEFIELD COURT","O FALLON","MO","63366"
112618,"21 HOMESTEAD ROAD","WOONSOCKET","RI","02895"
112619,"21 HOSPITAL DRIVE","ASHEVILLE","NC","28801"
112620,"21 HUMMINGBIRD CV","JACKSON","TN","38305"
112621,"21 HUNTERS LANE","NORWALK","CT","06850"
112622,"21 INDEPENDENCE DR","WHIPPANY","NJ","07981"
112623,"21 INDEPENDENCE LANE","EAST MILLINOCKET","ME","04430"
112624,"21 INDIA STREET APT 2105","BROOKLYN","NY","11222"
112625,"21 INDIANA AVE","YOUNGSTOWN","OH","44504"
112626,"21 INGRAHAM BOULEVARD","HEMPSTEAD","NY","11550"
112627,"21 JACKSON AVE","SCARSDALE","NY","10583"
112628,"21 JASMINE LANE","WESTWEGO","LA","70094"
112629,"21 JAY ST","GENEVA","NY","14456"
112630,"21 JUDGES WAY","WESTPORT","MA","02790"
112631,"21 JUNE RD","KENMORE","NY","14217"
112632,"21 KATY LN","ELIOT","ME","03903"
112633,"21 KENNEY CT","NEWBURGH","NY","12550"
112634,"21 KENSINGTON ROAD","SCARSDALE","NY","10583"
112635,"21 KEYSTONE DR","SAVANNAH","GA","31406"
112636,"21 KILMER ROAD  11245","EDISON","NJ","08906"
112637,"21 KILMER ROAD 11245","EDISON","NJ","08906"
112638,"21 KIMBERLY LANE","RANDOLPH","MA","02368"
112639,"21 KINGLET DRIVE SOUTH","CRANBURY","NJ","08512"
112640,"21 KINGSLEY PL","STATEN ISLAND","NY","10301"
112641,"21 KLAMERT LANE","JOLIET","MT","59041"
112642,"21 KNAUTH RD","ASHEVILLE","NC","28805"
112643,"21 KNOLLWOOD LANE","PUTNAM","CT","06260"
112644,"21 KRISTIN DRIVE UNIT 529","SCHAUMBURG","IL","60195"
112645,"21 LA BUENA VIDA DRIVE","ARANSAS PASS","TX","78336"
112646,"21 LADERA ROAD","SANTA FE","NM","87508"
112647,"21 LAKE ROAD","SHORT HILLS","NJ","07078"
112648,"21 LAKE STREET UNIT 4B","WHITE PLAINS","NY","10603"
112649,"21 LANGSTON BLVD","HAMPTON","VA","23666"
112650,"21 LAZY GLEN","SNOWMASS","CO","81654"
112651,"21 LEEWAY","BALTIMORE","MD","21222"
112652,"21 LENOX ROAD","ROCKAWAY TOWNSHIP","NJ","07866"
112653,"21 LEONARD ST","GLOUCESTER","MA","01930"
112654,"21 LEUVINE ST","NORWALK","CT","06850"
112655,"21 LEWIS AVE   PO BOX 368","BELLMAWR","NJ","08031"
112656,"21 LEXINGTON DR","EAST WALPOLE","MA","02032"
112657,"21 LIANNE DR","ROCHESTER","NY","14626"
112658,"21 LIBERTY WAY","CLIFTON PARK","NY","12065"
112659,"21 LOCUST AVE STE 2A","NEW CANAAN","CT","06840"
112660,"21 LOCUST AVE SUITE 2D","NEW CANAAN","CT","06840"
112661,"21 LOUIE CREEK DRIVE","CURLEW","WA","99118"
112662,"21 LYNDE STREET","PROVIDENCE","RI","02908"
112663,"21 LYONS ROAD","STAFFORD SPRINGS","CT","06076"
112664,"21 MACERA FARM ROAD","JOHNSTON","RI","02919"
112665,"21 MADBURY ROAD","DURHAM","NH","03824"
112666,"21 MAIN ST SE    PO BOX 337","BOWBELLS","ND","58721"
112667,"21 MAIN ST","TAUNTON","MA","02780"
112668,"21 MAIN STREET 2ND FLOOR","SPARTA","NJ","07871"
112669,"21 MAIN STREET SUITE 200","HACKENSACK","NJ","07601"
112670,"21 MAPLE AVE","MENDHAM","NJ","07945"
112671,"21 MAPLE STREET","LINCOLN PARK","NJ","07035"
112672,"21 MAPLE STREET","WEST ORANGE","NJ","07052"
112673,"21 MARIAN COURT 2","SAN RAFAEL","CA","94901"
112674,"21 MARINER GREEN DRIVE","CORTE MADERA","CA","94925"
112675,"21 MATTOON ST","AMHERST","MA","01002"
112676,"21 MAXIE COURT STE 2","STATEN ISLAND","NY","10304"
112677,"21 MCALPIN AVENUE","ERLANGER","KY","41018"
112678,"21 MCINTOSH RD","HILTON HEAD ISLAND","SC","29926"
112679,"21 MEETING PLACE CIRCLE","BOXFORD","MA","01921"
112680,"21 MIDDLE STREE PO BOX 248","GALENA","OH","43021"
112681,"21 MIDDLE TURNPIKE EAST","MANCHESTER","CT","06040"
112682,"21 MILFORD STREET","HAMBURG","NY","14075"
112683,"21 MINERVA DRIVE","YONKERS","NY","10710"
112684,"21 MOHAWK TRAIL PMB 127","GREENFIELD","MA","01301"
112685,"21 MOLTON AVENUE","SAN CARLOS","CA","94070"
112686,"21 MONTAGUE ROAD","NEWARK","DE","19713"
112687,"21 MONTCLAIR AVENUE","WEST ROXBURY","MA","02132"
112688,"21 MONTVALE STREET","ROSLINDALE","MA","02131"
112689,"21 MORGAN STREET","LINCOLN","ME","04457"
112690,"21 MORRIS LANE","SCARSDALE","NY","10583"
112691,"21 MURRAY ST SE","KENTWOOD","MI","49508"
112692,"21 MYRTLE STREET","STONEHAM","MA","02180"
112693,"21 N ARCH ST","MILTON","PA","17847"
112694,"21 N FISHER PARK WY","EAGLE","ID","83616"
112695,"21 N HERRICK ST","GOTEBO","OK","73041"
112696,"21 N LAST CHANCE GULCH- SUITE 105","HELENA","MT","59601"
112697,"21 N MONTFORD AVE","BALTIMORE","MD","21224"
112698,"21 N PAYNE STREET","NEW ULM","MN","56073"
112699,"21 NAPEAGUE HARBOR ROAD","AMAGANSETT","NY","11963"
112700,"21 NECK ROAD","CHINA LAKE","ME","04358"
112701,"21 NEVADA STREET  NO 3","WINTHROP","MA","02152"
112702,"21 NEWINS ST","CENTER MORICHES","NY","11934"
112703,"21 NEWTON AVENUE","LYNBROOK","NY","11563"
112704,"21 NOB HILL CIRCLE","BRIDGEPORT","CT","06610"
112705,"21 NORFOLK ROAD","COHASSET","MA","02025"
112706,"21 NORMAL RD","FITCHBURG","MA","01420"
112707,"21 NORTH AUSTIN","CHICAGO","IL","60644"
112708,"21 NORTH BUCHANAN AVENUE","WENATCHEE","WA","98801"
112709,"21 NORTH DRIVE","TABERNACLE","NJ","08088"
112710,"21 NORTH ST","MIDDLETOWN","NY","10940"
112711,"21 NORTH STREET","WOODSTOCK","IL","60098"
112712,"21 NW 1ST AVENUE ROOM 1208","DANIA BEACH","FL","33004"
112713,"21 NW 1ST AVENUE","DANIA BEACH","FL","33004"
112714,"21 OAK STREET SUITE 208","HARTFORD","CT","06117"
112715,"21 OAK STREET","AUBURN","NY","13021"
112716,"21 OAKLAND AVENUE","QUINCY","MA","02170"
112717,"21 OAKMAN STREET","ROCHESTER","NY","14605"
112718,"21 OLD FARM WAY","NEWBURY","MA","01951"
112719,"21 OLD FORT ROAD","CAPE ELIZABETH","ME","04107"
112720,"21 ORBIT DRIVE","STONY BROOK","NY","11790"
112721,"21 OXFORD DRIVE","CORAOPOLIS","PA","15108"
112722,"21 OXFORD PARK","REVERE","MA","02151"
112723,"21 OXFORD ROAD","WHITE PLAINS","NY","10605"
112724,"21 OYSTER BAY RD APT G","ABSECON","NJ","08201"
112725,"21 PADDY CREEK ROAD","KENNEBUNKPORT","ME","04046"
112726,"21 PALMER DRIVE","MOORESTOWN","NJ","08057"
112727,"21 PALMER LN","OXFORD","CT","06478"
112728,"21 PAM CT","RIDGELEY","WV","26753"
112729,"21 PARK ACRE ROAD","PITTSFORD","NY","14534"
112730,"21 PARK ROAD","HAMDEN","CT","06517"
112731,"21 PARK ST","HYDE PARK","MA","02136"
112732,"21 PARK STREET","STOCKBRIDGE","MA","01262"
112733,"21 PARKSIDE DR","GREENVILLE","SC","29609"
112734,"21 PARKVIEW ROAD","CRANBURY","NJ","08512"
112735,"21 PARTRIDGE DRIVE","EXETER","RI","02822"
112736,"21 PASSAIC STREET","HACKENSACK","NJ","07601"
112737,"21 PEARL ST","FORESTVILLE","NY","14062"
112738,"21 PECAN GROVE CIRCLE","LUCAS","TX","75002"
112739,"21 PENISTON AVE","EAST HANOVER","NJ","07936"
112740,"21 PEZZENTE LN","EAST HARTFORD","CT","06108"
112741,"21 PINECREST DRIVE","BREVARD","NC","28712"
112742,"21 PLAZA VALENZA","LAKE ELSINORE","CA","92532"
112743,"21 PLEASANT ST SUITE 248","NEWBURYPORT","MA","01950"
112744,"21 PLEASANT STREET","CARVER","MA","02330"
112745,"21 POCO LANE","OAKLEY","CA","94561"
112746,"21 POINT OF VIEW ARCH","PORTSMOUTH","VA","23703"
112747,"21 POLLUX CIR E","PORTSMOUTH","VA","23701"
112748,"21 POND VIEW LANE","PENFIELD","NY","14526"
112749,"21 POWDER HORN LANE","REHOBOTH BEACH","DE","19971"
112750,"21 PRESTIGE CIRCLE  STE-100","ALLEN","TX","75002"
112751,"21 PROSPECT AVENUE","NIANTIC","CT","06357"
112752,"21 RED GROUND ROAD","OLD WESTBURY","NY","11568"
112753,"21 REDWOOD DR","PHENIX CITY","AL","36869"
112754,"21 REID ST","SOUTH BOUND BROOK","NJ","08880"
112755,"21 RETROP RD","NATICK","MA","01760"
112756,"21 REVERE DR","S BARRINGTON","IL","60010"
112757,"21 REVERE DRIVE","TINTON FALLS","NJ","07753"
112758,"21 RICHARD CIRCLE","WOBURN","MA","01801"
112759,"21 RICHARDSON AVE A","EATONTOWN","NJ","07724"
112760,"21 RICHEY PLACE","TRENTON","NJ","08618"
112761,"21 RIDER ROAD","BREWER","ME","04412"
112762,"21 RIDGE DRIVE","FLEETWOOD","PA","19522"
112763,"21 RIDGE ROAD","MORRIS","MN","56267"
112764,"21 RIP RAP ROAD","HAMPTON","VA","23669"
112765,"21 ROBERT PITT DRIVE SUITE 310","MONSEY","NY","10952"
112766,"21 ROBIN RD","MOORESTOWN","NJ","08057"
112767,"21 ROBINWOOD RD","BUZZARDS BAY","MA","02532"
112768,"21 ROCKVIEW AVENUE","NORTH PLAINFIELD","NJ","07060"
112769,"21 RODNEY STREET","SEAFORD","DE","19973"
112770,"21 ROIUTE 31 NORTH STE B5-A","PENNINGTON","NJ","08534"
112771,"21 ROLLING RD","CRANBERRY TWP","PA","16066"
112772,"21 S 11TH STREET","PHILADELPHIA","PA","19107"
112773,"21 S 12TH STREET SUITE 100","PHILADELPHIA","PA","19107"
112774,"21 S KENT STREET","WINCHESTER","VA","22601"
112775,"21 SACKETT HILL ROAD","WARREN","CT","06754"
112776,"21 SAGE HILL COURT","DANVILLE","CA","94526"
112777,"21 SAINT CHRISTOPHER COURT","SUGAR LAND","TX","77479"
112778,"21 SALT ISLAND ROAD","GLOUCESTER","MA","01930"
112779,"21 SANDY BROOK DRIVE","SPRING VALLEY","NY","10977"
112780,"21 SANDY LANE","BRISTOL","RI","02809"
112781,"21 SANDY POND ROAD","CONCORD","MA","01742"
112782,"21 SANTA BARBARA DR","RANCHO PALOS VERDES","CA","90275"
112783,"21 SARAH ANNE COURT","MILLER PLACE","NY","11764"
112784,"21 SAYBROOK AVE","NARRAGANSETT","RI","02882"
112785,"21 SCHOOL STREET","NEWPORT","NH","03773"
112786,"21 SCHUYLER AVENUE","STAMFORD","CT","06902"
112787,"21 SEAVER AVENUE APT 2D","STATEN ISLAND","NY","10306"
112788,"21 SECOND STREET SE","CHATFIELD","MN","55923"
112789,"21 SENECA AVE","ONEIDA CASTLE","NY","13421"
112790,"21 SEYMOUR AVE SE","MINNEAPOLIS","MN","55414"
112791,"21 SHERWOOD DR","BELCHERTOWN","MA","01007"
112792,"21 SOLARIS ROAD","HYDE PARK","MA","02136"
112793,"21 SOMERSET DRIVE UNIT 12Q","SUFFERN","NY","10901"
112794,"21 SOUTH END AVENUE SUITE 332","NEW YORK","NY","10280"
112795,"21 SOUTH WAHSATCH APARTMENT 42","COLORADO SPRINGS","CO","80903"
112796,"21 SOUTHBRIDGE","EDWARDSVILLE","IL","62025"
112797,"21 SOUTHLAND WAY","FREMONT","OH","43420"
112798,"21 SPANISH STREET","SAINT AUGUSTINE","FL","32084"
112799,"21 SPINNING WHEEL ROAD APT 16B","HINSDALE","IL","60521"
112800,"21 SPINNING WHEEL ROAD STE M18","HINSDALE","IL","60521"
112801,"21 SPIRIT LAKE RD","WINTER HAVEN","FL","33880"
112802,"21 SPRING AVE","FERGUSON","MO","63135"
112803,"21 ST JAMES PLACE","BROOKLYN","NY","11205"
112804,"21 ST MICHAEL PLACE","SALINAS","CA","93905"
112805,"21 STARR ROAD","SINKING SPRING","PA","19608"
112806,"21 STATE STREET","OSSINING","NY","10562"
112807,"21 STRATHMORE ROAD","NATICK","MA","01760"
112808,"21 SUFFOLK LANE","ESSEX JUNCTION","VT","05452"
112809,"21 SUMMER AVE","WALTHAM","MA","02452"
112810,"21 SUMMER ROAD","DAVIS","WV","26260"
112811,"21 SW 52ND ST","DES MOINES","IA","50312"
112812,"21 SWEETWATER LN","HAMBURG","NJ","07419"
112813,"21 TANNIN COURT","DALLAS","GA","30132"
112814,"21 TEMPLE PLACE APT 4R","BOSTON","MA","19807"
112815,"21 TERRELL LN","HICKSVILLE","NY","11801"
112816,"21 THATCH POND ROAD","SMITHTOWN","NY","11787"
112817,"21 THOMAS PARK UNIT 2","SOUTH BOSTON","MA","02127"
112818,"21 THORMAN LANE","NORTH BABYLON","NY","11703"
112819,"21 THOROUGHBRED TRAIL","PENFIELD","NY","14526"
112820,"21 TIER STREET","BRONX","NY","10464"
112821,"21 TINKERS LEDGE ROAD","DUXBURY","MA","02332"
112822,"21 TRAILSIDE RD","MEDFIELD","MA","02052"
112823,"21 VERDUN PLACE","CHEEKTOWAGA","NY","14225"
112824,"21 VICTORIA FALLS COURT","SPARKS","MD","21152"
112825,"21 VILLA MORAINE DRIVE","CHEEKTOWAGA","NY","14225"
112826,"21 VILLAGE AVE","CRANSTON","RI","02920"
112827,"21 VILLAGE HILL RD","DOVER","MA","02030"
112828,"21 W 131ST STREET 2R","NEW YORK","NY","10037"
112829,"21 W 758 CLIFFORD ROAD","GLEN ELLYN","IL","60137"
112830,"21 W BELAIR ROAD","RIDLEY PARK","PA","19078"
112831,"21 W BROADWAY","NYACK","NY","10960"
112832,"21 W COCONIO PLACE","CHANDLER","AZ","85248"
112833,"21 W EVERGREEN DR APT E","KALISPELL","MT","59901"
112834,"21 W GEORGE ST","ARCANUM","OH","45304"
112835,"21 W HENRI ST","PRESTON","IA","52069"
112836,"21 W LAUREL DRIVE SUITE 49","SALINAS","CA","93906"
112837,"21 W MOUNT KIRK AVE","EAGLEVILLE","PA","19403"
112838,"21 W NEW FEE AVE STE D","MELBOURNE","FL","32901"
112839,"21 W OLIVER","SHOW LOW","AZ","85901"
112840,"21 W TIMBER","RHINELANDER","WI","54501"
112841,"21 W WASHINGTON STREET","CHAGRIN FALLS","OH","44022"
112842,"21 WAGNER STREET","HUMMELSTOWN","PA","17036"
112843,"21 WALDEN BIRCH CT","WOODLAWN","MD","21207"
112844,"21 WALLER APT 513","AUSTIN","TX","78702"
112845,"21 WALNUT DR","ORWIGSBURG","PA","17961"
112846,"21 WALNUT PLACE","OYSTER BAY","NY","11771"
112847,"21 WALNUT ST","SALEM CITY","NJ","08079"
112848,"21 WALTER MARTIN UNIT 4718","FORT WALTON BEACH","FL","32549"
112849,"21 WALTER STREET","SPRINGFIELD","OH","45506"
112850,"21 WALWORTH AVE","SCARSDALE","NY","10583"
112851,"21 WANDERING WAY","SMITHTOWN","NY","11787"
112852,"21 WARFORD TERRACE","ORINDA","CA","94563"
112853,"21 WARWICK CIRCLE","SPRINGFIELD","NJ","07081"
112854,"21 WASHINGTON STREET","PENSACOLA","FL","32507"
112855,"21 WATSON LANE","WOBURN","MA","01801"
112856,"21 WEBSTER STREET","SOMERVILLE","MA","02145"
112857,"21 WELLESLEY COLLEGE ROAD UNIT 3115","WELLESLEY","MA","02139"
112858,"21 WELLS ROAD","CAPE ELIZABETH","ME","04107"
112859,"21 WEST BALTIMORE AVENUE","LANSDOWNE","PA","19050"
112860,"21 WEST CHURCH STREET","MILLTOWN","NJ","08850"
112861,"21 WEST COCONINO PLACE","CHANDLER","AZ","85248"
112862,"21 WEST END AVE","MIDDLEBORO","MA","02346"
112863,"21 WEST FORREST AVENUE","SHREWSBURY","PA","17361"
112864,"21 WEST MILL DR APT 6C","GREAT NECK","NY","11021"
112865,"21 WEST SILVER STREET","MIDDLETOWN","CT","06457"
112866,"21 WEST SOUTHERN PINES","PINE BLUFF","AR","71603"
112867,"21 WEST SUMTER ST","MAYESVILLE","SC","29104"
112868,"21 WESTBURY DR","BELLEVILLE","IL","62226"
112869,"21 WESTBURY DRIVE","BELLEVILLE","IL","62226"
112870,"21 WESTMINSTER PLACE","BEAUFORT","SC","29907"
112871,"21 WESTMONT DR","ASHEVILLE","NC","28806"
112872,"21 WESTRIDGE","PINE BLUFF","AR","71603"
112873,"21 WEYFAIR PATH","WEYMOUTH","MA","02190"
112874,"21 WHITE BIRCH DR","POMONA","NY","10970"
112875,"21 WHITNEYT STREET","SHERBORN","MA","01770"
112876,"21 WHITON AVENUE","QUINCY","MA","02169"
112877,"21 WILLIS STREET","NEW HAVEN","CT","06511"
112878,"21 WINDING HOLLOW TRL","DAYTON","OH","45414"
112879,"21 WINTER ST","MEDIA","PA","19063"
112880,"21 WINTERBERRY CT","GLASSBORO","NJ","08028"
112881,"21 WOODLAND DR","IRVINE","CA","92604"
112882,"21 WOODLAND DRIVE","ROSELLE","NJ","07203"
112883,"21 WOODLAND RD","EAST HARTFORD","CT","06108"
112884,"21 WYMAN ROAD","GROTON","MA","01450"
112885,"21 WYNDHAM KNOB","PARKERSBURG","WV","26104"
112886,"21-06 45TH AVENUE APT 1E","LONG ISLAND CITY","NY","11101"
112887,"21-22 NEWTON AVENUE APARTMENT 3R","ASTORIA","NY","11102"
112888,"21-25 35TH AVENUE APT 6D","ASTORIA","NY","11106"
112889,"21-32 CRESCENT STREET APT B4","ASTORIA","NY","11105"
112890,"21-34 44TH RD","LONG ISLAND CITY","NY","11101"
112891,"21-48 42ND STREET","ASTORIA","NY","11105"
112892,"21-75 JAMAICA AVE","QUEENS VILLAGE","NY","11428"
112893,"21-83 STEINWAY ST","ASTORIA","NY","11106"
112894,"21","ATLANTA","GA","30318"
112895,"210 11TH AVENUE SW","OLYMPIA","WA","98504"
112896,"210 11TH STREET","FORT LUPTON","CO","80621"
112897,"210 15TH STREET EAST APARTMENT 2","TUSCALOOSA","AL","35401"
112898,"210 15TH STREET","ROCK ISLAND","IL","61201"
112899,"210 16TH ST","MARYSVILLE","MI","48040"
112900,"210 1ST STREET NW","DILWORTH","MN","56529"
112901,"210 1ST STREET SOUTH","REFORM","AL","35481"
112902,"210 27TH STREET","COLUMBUS","GA","31904"
112903,"210 38TH ST SE","CANTON","OH","44707"
112904,"210 3RD STREET WEST SUITE 8106","BRADENTON","FL","34205"
112905,"210 4TH ST NW","CONOVER","NC","28613"
112906,"210 6TH STREET","JERSEY CITY","NJ","07302"
112907,"210 7 ST NW APT 2","JAMESTOWN","ND","58401"
112908,"210 AGUAVIVA","MANATI","PR","00674"
112909,"210 AMBER HILL RD","YADKINVILLE","NC","27055"
112910,"210 AMBERWOOD DR SOUTH  APT 917","KYLE","TX","78640"
112911,"210 ANDERSONTOWN ROAD","MECHANICSBURG","PA","17055"
112912,"210 ANNIVERSARY LANE","ACWORTH","GA","30102"
112913,"210 ANTHONY ROAD","SPARTANBURG","SC","29301"
112914,"210 ANTLER WAY DRIVE","SHERWOOD","AR","72120"
112915,"210 ARMORY RD","HAWTHORNE","NV","89415"
112916,"210 ARTIST VIEW ROAD","WELLINGTON","NV","89444"
112917,"210 ARUNDEL BEACH ROAD","SEVERNA PARK","MD","21146"
112918,"210 ASHFORD CT","NOBLESVILLE","IN","46062"
112919,"210 ASTOR LANE","FRANKLIN PARK","NJ","08823"
112920,"210 AUTUMN AVE","DUXBURY","MA","02332"
112921,"210 AVENUE B","REDONDO BEACH","CA","90277"
112922,"210 AVENUE E","HAWLEY","TX","79525"
112923,"210 AVERY DRIVE","COVINGTON","GA","30016"
112924,"210 B STREET SUITE 2","ROCK SPRINGS","WY","82901"
112925,"210 BAKER DRIVE","BERRY","AL","35546"
112926,"210 BARRETT AVENUE S","WESSINGTON SPRINGS","SD","57382"
112927,"210 BEEDY STREET","OXNARD","CA","93036"
112928,"210 BELLEFAYE LANE","MCCORMICK","SC","29835"
112929,"210 BENTON STREET","LEAVENWORTH","WA","98826"
112930,"210 BERRY ST","NASHVILLE","TN","37207"
112931,"210 BIRCH DR","ROSLYN","NY","11576"
112932,"210 BIRCH STREET","WILLIMANTIC","CT","06226"
112933,"210 BLACKPINE ROAD","PHILIPSBURG","MT","59858"
112934,"210 BLAKE ST","LEWISTON","ME","04240"
112935,"210 BLUESTONE AVE","MOUNTAIN TOP","PA","18707"
112936,"210 BONNIE ROAD","IRONWOOD","MI","49938"
112937,"210 BOSTON POST ROAD","WATERFORD","CT","06385"
112938,"210 BRIDGEWAY DRIVE","MARYVILLE","TN","37801"
112939,"210 BRITTANY DR","ALBRIGHTSVILLE","PA","18210"
112940,"210 BROAD STREET","SCOTIA","NY","12302"
112941,"210 BROADWAY  STE 202","FARGO","ND","58102"
112942,"210 BROOKSHIRE GARDENS","LAFAYETTE","LA","70503"
112943,"210 BURNETT AVE","WARREN","IL","61087"
112944,"210 CAMELOT DRIVE","FAYETTEVILLE","GA","30214"
112945,"210 CAMILLE VICTORIA COURT","MOUNT JULIET","TN","37122"
112946,"210 CAMP RD","COWANSVILLE","PA","16218"
112947,"210 CAMPBELL AVE","ITHACA","NY","14850"
112948,"210 CANAL ST","PORT NECHES","TX","77651"
112949,"210 CANNON ST","GRAIN VALLEY","MO","64029"
112950,"210 CAPITOL AVENUE ROOM 409A","HARTFORD","CT","06106"
112951,"210 CARLISLE RD","ALEXANDER CITY","AL","35010"
112952,"210 CARLTON ROAD","CHARLOTTESVILLE","VA","22902"
112953,"210 CARMEL HILL RD N","BETHLEHEM","CT","06751"
112954,"210 CARRIE LANE   APT B101","REDLANDS","CA","92373"
112955,"210 CARSON DRIVE","BRYAN","OH","43506"
112956,"210 CASHUA FERRY RD","DARLINGTON","SC","29532"
112957,"210 CEDAR LANE","MURCHISON","TX","75778"
112958,"210 CHEVAL CIR SE","BROWNSBORO","AL","35741"
112959,"210 CHURCH  STREET","MANCHESTER","KY","40962"
112960,"210 CLARKE ST","SYRACUSE","NY","13210"
112961,"210 CLINTON AVENUE","NORTH PLAINFIELD","NJ","07063"
112962,"210 CLYDE AVE","SMYRNA","TN","37167"
112963,"210 COLUMBIA STREET UNIT 4","CAMBRIDGE","MA","02139"
112964,"210 COMMERCIAL ST    PO BOX 272","BROOKLYN","WI","53521"
112965,"210 COMPTON DRIVE","WAXAHACHIE","TX","75167"
112966,"210 CONTINENTE AVE","BRENTWOOD","CA","94513"
112967,"210 COTTAGE AVENUE","WESTON","WV","26452"
112968,"210 COUNTY ROAD 6877","NATALIA","TX","78059"
112969,"210 COWANSHANNOCK AVENUE","RURAL VALLEY","PA","16249"
112970,"210 CR 289 PO BOX 31","PACHUTA","MS","39347"
112971,"210 CRESCENT CIRCLE","CHICKAMAUGA","GA","30707"
112972,"210 CROSSGATE DRIVE","CHURCH HILL","MD","21623"
112973,"210 CRYSTAL ST SUITE A","CARY","IL","60013"
112974,"210 CUMBERLAND ST","GLOUCESTER CITY","NJ","08030"
112975,"210 CUMBERLAND STREET","GLOUCESTER CITY","NJ","08030"
112976,"210 CYANAMID LANE","ANDERSONVILLE","GA","31711"
112977,"210 DELBURG STREET","MOORESVILLE","NC","28117"
112978,"210 DEVOE ST","JACKSONVILLE","FL","32220"
112979,"210 DEVON LN","WILMER","TX","75172"
112980,"210 DIVISION ST","SANDSTONE","MN","55072"
112981,"210 DOWNING DRIVE","GALT","CA","95632"
112982,"210 DOWNY DR","HAMPSTEAD","NC","28443"
112983,"210 E 2ND ST","NORBORNE","MO","64668"
112984,"210 E 3RD ST","GOLDEN","IL","62339"
112985,"210 E 51 STREET","BROOKLYN","NY","11203"
112986,"210 E 78TH AVE","MERRILLVILLE","IN","46410"
112987,"210 E AUGUSTA LN","SLIDELL","LA","70458"
112988,"210 E BIDDLE STREET","BALTIMORE","MD","21202"
112989,"210 E CHARLESTON AVE","WILDWOOD CREST","NJ","08260"
112990,"210 E DOZIER STREET","MARION","SC","29571"
112991,"210 E ELLIS ST","BELDING","MI","48809"
112992,"210 E FORSYTH STREET","JACKSONVILLE","FL","32202"
112993,"210 E HUDSPETH ST","WELCH","LA","70591"
112994,"210 E IVY AVE 5","INGLEWOOD","CA","90302"
112995,"210 E KNOB HILL DRIVE","ARLINGTON HEIGHTS","IN","60004"
112996,"210 E LIBERTY ST","CHARLES TOWN","WV","25414"
112997,"210 E LIVE OAK ST","SEGUIN","TX","78155"
112998,"210 E MAIN ST","AVON","MA","02322"
112999,"210 E MAIN ST","HOOKERTON","NC","28538"
113000,"210 E MAIN STREET","LAGRANGE","KY","40031"
