"ID","Address","City","State","Zip"
357501,"PO BOX 752","TOMBSTONE","AZ","85638"
357502,"PO BOX 752","WARRENTON","VA","20188"
357503,"PO BOX 752176","DAYTON","OH","45475"
357504,"PO BOX 7522","KALISPELL","MT","59904"
357505,"PO BOX 75221","COLORADO SPRINGS","CO","80970"
357506,"PO BOX 752234","LAS VEGAS","NV","89136"
357507,"PO BOX 752244","LAS VEGAS","NV","89136"
357508,"PO BOX 752252","DAYTON","OH","45475"
357509,"PO BOX 7523","PUEBLO WEST","CO","81007"
357510,"PO BOX 752343","DAYTON","OH","45475"
357511,"PO BOX 752454","LAS VEGAS","NV","89136"
357512,"PO BOX 752473","HOUSTON","TX","77075"
357513,"PO BOX 7525","NORTH BRUNSWICK","NJ","08902"
357514,"PO BOX 75253","KAPOLEI","HI","96707"
357515,"PO BOX 752552","MEMPHIS","TN","38175"
357516,"PO BOX 752586","LAS VEGAS","NV","89136"
357517,"PO BOX 752672","MEMPHIS","TN","38175"
357518,"PO BOX 752722","MEMPHIS","TN","38175"
357519,"PO BOX 752826","MEMPHIS","TN","38175"
357520,"PO BOX 753","ANDREWS","SC","29510"
357521,"PO BOX 753","BERRYVILLE","VA","22611"
357522,"PO BOX 753","BUFFALO","NY","14240"
357523,"PO BOX 753","DARDANELLE","AR","72834"
357524,"PO BOX 753","GLASGOW","KY","42141"
357525,"PO BOX 753","HAGATNA","GU","96932"
357526,"PO BOX 753","MIAMI BEACH","FL","33239"
357527,"PO BOX 753","ROSCOMMON","MI","48653"
357528,"PO BOX 753","SOLVAY","NY","13209"
357529,"PO BOX 753","SOUTH PITTSBURG","TN","37380"
357530,"PO BOX 753","WHITTIER","CA","90608"
357531,"PO BOX 753","WINTON","NC","27986"
357532,"PO BOX 7530","LAKE TAPPS","WA","98391"
357533,"PO BOX 753123","HOUSTON","TX","77275"
357534,"PO BOX 7533","WOODBRIDGE","VA","22195"
357535,"PO BOX 753415","MEMPHIS","TN","38175"
357536,"PO BOX 753566","MEMPHIS","TN","38175"
357537,"PO BOX 75361","WASHINGTON","DC","20013"
357538,"PO BOX 75384","HONOLULU","HI","96836"
357539,"PO BOX 754","ANAHEIM","CA","92815"
357540,"PO BOX 754","COCOC","FL","32923"
357541,"PO BOX 754","JAMESVILLE","NY","13078"
357542,"PO BOX 754","LANDRUM","SC","29356"
357543,"PO BOX 754","NEW CASTLE","CO","81647"
357544,"PO BOX 754","SILVERTON","OR","97381"
357545,"PO BOX 754","STANWOOD","WA","98292"
357546,"PO BOX 7543","OXFORD","AL","36203"
357547,"PO BOX 7544","TALLAHASSEE","FL","32304"
357548,"PO BOX 7545","BURBANK","CA","91510"
357549,"PO BOX 7545","ROCKY MOUNT","NC","27803"
357550,"PO BOX 754737","MEMPHIS","TN","38175"
357551,"PO BOX 7549","ATLANTA","GA","30357"
357552,"PO BOX 75496","HONOLULU","HI","96836"
357553,"PO BOX 755","ANDOVER","KS","67002"
357554,"PO BOX 755","BOLINGBROOK","IL","60440"
357555,"PO BOX 755","CHRISTIANSTED","VI","00821"
357556,"PO BOX 755","GALION","OH","44833"
357557,"PO BOX 755","HAMBURG","NY","14075"
357558,"PO BOX 755","NORTH COLLINS","NE","14111"
357559,"PO BOX 755","OJAI","CA","93024"
357560,"PO BOX 755","PORT ARANSAS","TX","78373"
357561,"PO BOX 755","RIDGEFIELD","NJ","07657"
357562,"PO BOX 755","SYLVA","NC","28779"
357563,"PO BOX 755","WELDON","NC","27890"
357564,"PO BOX 755","WINDSOR","CO","80550"
357565,"PO BOX 7550","ABILENE","TX","79608"
357566,"PO BOX 7551","PORT SAINT LUCIE","FL","34985"
357567,"PO BOX 7552","NASHUA","NH","03060"
357568,"PO BOX 7555","MISSOULA","MT","59807"
357569,"PO BOX 7557","CHARLESTON","WV","25356"
357570,"PO BOX 75590","FAIRBANKS","AK","99775"
357571,"PO BOX 756","ARIZONA CITY","AZ","85123"
357572,"PO BOX 756","BANDERA","TX","78003"
357573,"PO BOX 756","DALLAS","NC","28034"
357574,"PO BOX 756","ELDON","MO","65026"
357575,"PO BOX 756","ELIZABETHTOWN","KY","42702"
357576,"PO BOX 756","FARMINGTON","MI","48332"
357577,"PO BOX 756","FISHERS","IN","46038"
357578,"PO BOX 756","HALEIWA","HI","96712"
357579,"PO BOX 756","SPRINGFIELD","VT","05156"
357580,"PO BOX 756","TULLAHOMA","TN","37388"
357581,"PO BOX 756","WARSAW","IN","46581"
357582,"PO BOX 756","WOODSTOCK","VA","22664"
357583,"PO BOX 7561","MONROE","LA","71211"
357584,"PO BOX 7563","BLOOMFIELD","CT","06002"
357585,"PO BOX 7563","TEMPE","AZ","85281"
357586,"PO BOX 75633","HONOLULU","HI","96836"
357587,"PO BOX 7564","BEVERLY HILLS","CA","90212"
357588,"PO BOX 7564","BURBANK","CA","91505"
357589,"PO BOX 7565","VENTURA","CA","93006"
357590,"PO BOX 7566","BEAUMONT","TX","77726"
357591,"PO BOX 75666","HONOLULU","HI","96836"
357592,"PO BOX 75696","OKLAHOMA CITY","OK","73147"
357593,"PO BOX 757","AMITE","LA","70422"
357594,"PO BOX 757","CIRCLEVILLE","OH","43113"
357595,"PO BOX 757","IDAHO SPRINGS","CO","80452"
357596,"PO BOX 757","KALKASKA","MI","49646"
357597,"PO BOX 757","LEHIGH ACRES","FL","33970"
357598,"PO BOX 757","LODI","CA","95241"
357599,"PO BOX 757","LYNCH","KY","40855"
357600,"PO BOX 757","SALIDA","CO","81201"
357601,"PO BOX 757","WHITE SULPHUR SPRING","WV","24986"
357602,"PO BOX 7570","WOODLAND PARK","CO","80863"
357603,"PO BOX 7571","ROMEOVILLE","IL","60446"
357604,"PO BOX 75719","TAMPA","FL","33675"
357605,"PO BOX 7572","DES MOINES","IA","50322"
357606,"PO BOX 7572","VENTURA","CA","93006"
357607,"PO BOX 7573","RENO","NV","89510"
357608,"PO BOX 7573","TACOMA","WA","98417"
357609,"PO BOX 7577","LONG BEACH","CA","90807"
357610,"PO BOX 7579","AUSTIN","TX","78713"
357611,"PO BOX 758","ACCOMAC","VA","23301"
357612,"PO BOX 758","ARGYLE","TX","76226"
357613,"PO BOX 758","BELLEVUE","ID","83313"
357614,"PO BOX 758","CANTON","TX","75103"
357615,"PO BOX 758","LOUISBURG","NC","27549"
357616,"PO BOX 758","WAIALUA","HI","96791"
357617,"PO BOX 7582","CHRISTIANSTED","VI","00823"
357618,"PO BOX 7587","JACKSONVILLE","FL","32238"
357619,"PO BOX 7589","JACKSONVILLE","NC","28540"
357620,"PO BOX 759","BATTLE CREEK","MI","49016"
357621,"PO BOX 759","BONSALL","CA","92003"
357622,"PO BOX 759","ELKADER","IA","52043"
357623,"PO BOX 759","MERIDIAN","TX","76665"
357624,"PO BOX 759","NEWTON","MS","39345"
357625,"PO BOX 759","NORTH OLMSTED","OH","44070"
357626,"PO BOX 7593","PHOENIX","AZ","85011"
357627,"PO BOX 7595","KINGSPORT","TN","37664"
357628,"PO BOX 7595","SAN JOSE","CA","95150"
357629,"PO BOX 7596","COLORADO SPRINGS","CO","80933"
357630,"PO BOX 76","ATGLEN","PA","19310"
357631,"PO BOX 76","BRENTWOOD","CA","94513"
357632,"PO BOX 76","EDGARD","LA","70049"
357633,"PO BOX 76","ELLINGTON","CT","06029"
357634,"PO BOX 76","GILSUM","NH","03448"
357635,"PO BOX 76","GREAT CACAPON","WV","25422"
357636,"PO BOX 76","HAWI","HI","96719"
357637,"PO BOX 76","JOHNSON","VT","05656"
357638,"PO BOX 76","KINGSTON","MA","02364"
357639,"PO BOX 76","LATHAM","NY","12210"
357640,"PO BOX 76","LEMPSTER","NH","03605"
357641,"PO BOX 76","LOST CITY","WV","26810"
357642,"PO BOX 76","MCMINNVILLE","OR","97128"
357643,"PO BOX 76","OLIVET","MI","49076"
357644,"PO BOX 76","PALMER","IL","62556"
357645,"PO BOX 76","PONTOTOC","MS","38863"
357646,"PO BOX 76","RICHFIELD","PA","17086"
357647,"PO BOX 76","TOMAH","WI","54660"
357648,"PO BOX 76","WATERFORD","VT","05848"
357649,"PO BOX 760","FORT WHITE","FL","32038"
357650,"PO BOX 760","GORDON","GA","31031"
357651,"PO BOX 760","GRISWOLD","IA","51535"
357652,"PO BOX 760","HASKELL","OK","74436"
357653,"PO BOX 760","LOS GATOS","CA","95031"
357654,"PO BOX 760","NYACK","NY","10960"
357655,"PO BOX 760","WOODBRIDGE","NJ","07095"
357656,"PO BOX 7601","WASHINGTON","DC","20044"
357657,"PO BOX 760116","SOUTHFIELD","MI","48076"
357658,"PO BOX 76026","MILWAUKEE","WI","53216"
357659,"PO BOX 760399","LATHRUP VILLAGE","MI","48076"
357660,"PO BOX 7604","GAITHERSBURG","MD","20898"
357661,"PO BOX 760458","SAN ANTONIO","TX","78245"
357662,"PO BOX 76051","ST PETERSBURG","FL","33734"
357663,"PO BOX 760588","LATHRUP VILLAGE","MI","48076"
357664,"PO BOX 761","ATHENS","AL","35612"
357665,"PO BOX 761","BIG LAKE","MN","55309"
357666,"PO BOX 761","CARLISLE","AR","72024"
357667,"PO BOX 761","CLARKS SUMMIT","PA","18411"
357668,"PO BOX 761","CRESTONE","CO","81131"
357669,"PO BOX 761","DUNN","NC","28335"
357670,"PO BOX 761","HELOTES","TX","78023"
357671,"PO BOX 761","ONLEY","VA","23418"
357672,"PO BOX 761","TWINSBURG","OH","44087"
357673,"PO BOX 761","WURTSBORO","NY","12790"
357674,"PO BOX 7611","WESTCHESTER","IL","60154"
357675,"PO BOX 7612","GURNEE","IL","60031"
357676,"PO BOX 7612","LA VERNE","CA","91750"
357677,"PO BOX 7612","ROCKY MOUNT","NC","27804"
357678,"PO BOX 761226","SAN ANTONIO","TX","78245"
357679,"PO BOX 76126","MILWAUKEE","WI","53216"
357680,"PO BOX 761415","SAN ANTONIO","TX","78245"
357681,"PO BOX 761869","SAN ANTONIO","TX","78245"
357682,"PO BOX 761971","SAN ANTONIO","TX","78245"
357683,"PO BOX 762","COVINGTON","VA","24426"
357684,"PO BOX 762","FRUITLAND","MD","21826"
357685,"PO BOX 762","GUAYNABO","PR","00970"
357686,"PO BOX 762","MISSOURI CITY","TX","77459"
357687,"PO BOX 762","NORTH FALMOUTH","MA","02556"
357688,"PO BOX 762","OJAI","CA","93023"
357689,"PO BOX 762","PRAIRIE GROVE","AR","72753"
357690,"PO BOX 762","WELLINGTON","CO","80549"
357691,"PO BOX 76201","TAMPA","FL","33675"
357692,"PO BOX 762101","SAN ANTONIO","TX","78245"
357693,"PO BOX 7622","KLAMATH FALLS","OR","97603"
357694,"PO BOX 762264","SAN ANTONIO","TX","78245"
357695,"PO BOX 7623","SAN DIEGO","CA","92167"
357696,"PO BOX 762353","SAN ANTONIO","TX","78245"
357697,"PO BOX 76240","WASHINGTON","DC","20013"
357698,"PO BOX 7625","CHICAGO","IL","60680"
357699,"PO BOX 7625","DENVER","CO","80207"
357700,"PO BOX 76260","SANDY SPRINGS","GA","30358"
357701,"PO BOX 762739","SAN ANTONIO","TX","78254"
357702,"PO BOX 763","ELY","MN","55731"
357703,"PO BOX 763","FISH CREEK","WI","54212"
357704,"PO BOX 763","HADDOCK","GA","31033"
357705,"PO BOX 763","HEREFORD","AZ","85615"
357706,"PO BOX 763","NORTHPORT","AL","35476"
357707,"PO BOX 763","OGDENSBURG","NY","13669"
357708,"PO BOX 763","OTTUMWA","IA","52501"
357709,"PO BOX 763","SHEFFIELD","AL","35660"
357710,"PO BOX 763","SOUTH ST. PAUL","MN","55075"
357711,"PO BOX 763","STANHOPE","NJ","07874"
357712,"PO BOX 763","SUNDANCE","WY","82729"
357713,"PO BOX 763","SUSANVILLE","CA","96130"
357714,"PO BOX 763","WATERTOWN","CT","06795"
357715,"PO BOX 763","WATSONVILLE","CA","95077"
357716,"PO BOX 763","WHITE HOUSE","TN","37188"
357717,"PO BOX 763035","DALLAS","TX","75376"
357718,"PO BOX 7632","DENVER","CO","80207"
357719,"PO BOX 7632","PORTLAND","ME","04112"
357720,"PO BOX 7633","SAN JOSE","CA","95150"
357721,"PO BOX 7634","CONCORD","NC","28027"
357722,"PO BOX 763476","DALLAS","TX","75376"
357723,"PO BOX 7635","FREEHOLD","NJ","07728"
357724,"PO BOX 763571","DALLAS","TX","75232"
357725,"PO BOX 763596","DALLAS","TX","75376"
357726,"PO BOX 7636","COLUMBIA","SC","29202"
357727,"PO BOX 7636","SAVANNAH","GA","31408"
357728,"PO BOX 763746","DESOTO","TX","75376"
357729,"PO BOX 763804","DALLAS","TX","75376"
357730,"PO BOX 764","ABSAROKEE","MT","59001"
357731,"PO BOX 764","AMITY","OR","97101"
357732,"PO BOX 764","ANNA","TX","75409"
357733,"PO BOX 764","AVONDALE","AZ","85323"
357734,"PO BOX 764","BELOIT","WI","53511"
357735,"PO BOX 764","BENTONVILLE","AR","71712"
357736,"PO BOX 764","COTTONWOOD","AZ","86326"
357737,"PO BOX 764","FORT MYERS","FL","33902"
357738,"PO BOX 764","GLASGOW","MT","59230"
357739,"PO BOX 764","MCLOUD","OK","74851"
357740,"PO BOX 764","MEADVIEW","AZ","86444"
357741,"PO BOX 764","MIAMITOWN","OH","45041"
357742,"PO BOX 764","NORTHPORT","AL","35476"
357743,"PO BOX 764","POULSBO","WA","98370"
357744,"PO BOX 764","RICHLANDS","NC","28574"
357745,"PO BOX 764","SAUGERTIES","NY","12477"
357746,"PO BOX 764","STEPHENS CITY","VA","22655"
357747,"PO BOX 764","STONE MOUNTAIN","GA","30086"
357748,"PO BOX 764","SUWANEE","GA","30024"
357749,"PO BOX 764","WESTMINSTER","CA","92684"
357750,"PO BOX 764134","WASHINGTON","DC","20013"
357751,"PO BOX 764164","DALLAS","TX","75376"
357752,"PO BOX 764301","DALLAS","TX","75376"
357753,"PO BOX 764421","DALLAS","TX","75376"
357754,"PO BOX 76452","WASHINGTON","DC","20013"
357755,"PO BOX 764616","DALLAS","TX","75376"
357756,"PO BOX 764993","DALLAS","TX","75376"
357757,"PO BOX 765","ASHLAND","ME","04732"
357758,"PO BOX 765","CANYONVILLE","OR","97417"
357759,"PO BOX 765","EAU CLAIRE","WI","54702"
357760,"PO BOX 765","JACKSON","OH","45640"
357761,"PO BOX 765","JEFFERSON","NC","28640"
357762,"PO BOX 765","MARTIN","TN","38237"
357763,"PO BOX 765","STAR CITY","AR","71667"
357764,"PO BOX 765","WAYZATA","MN","55391"
357765,"PO BOX 7650","TIFTON","GA","31793"
357766,"PO BOX 76506","ST PETERSBURG","FL","33734"
357767,"PO BOX 7652","ATHENS","GA","30604"
357768,"PO BOX 76521","WASHINGTON","DC","20013"
357769,"PO BOX 7658","MAMMOTH LAKES","CA","93546"
357770,"PO BOX 766","ARP","TX","75750"
357771,"PO BOX 766","COLUMBUS","OH","43068"
357772,"PO BOX 766","EATON","OH","45320"
357773,"PO BOX 766","FLOYD","VA","24091"
357774,"PO BOX 766","FORKS","WA","98331"
357775,"PO BOX 766","GEYSERVILLE","CA","95441"
357776,"PO BOX 766","HOLBROOK","AZ","86025"
357777,"PO BOX 766","MARBLE FALLS","TX","78654"
357778,"PO BOX 766","ORLAND PARK","IL","60438"
357779,"PO BOX 766","ORLAND PARK","IL","60462"
357780,"PO BOX 766","PENDLETON","SC","29670"
357781,"PO BOX 766","SAN CARLOS","AZ","85550"
357782,"PO BOX 76609","WASHINTON","DC","20013"
357783,"PO BOX 7664","ATLANTA","GA","30357"
357784,"PO BOX 7664","NAPLES","FL","34101"
357785,"PO BOX 7665","URBANDALE","IA","50323"
357786,"PO BOX 767","BIGGS","CA","95917"
357787,"PO BOX 767","CRAWFORDSVILLE","IN","47933"
357788,"PO BOX 767","KAUNAKAKAI","HI","96748"
357789,"PO BOX 767","LOPEZ ISLAND","WA","98261"
357790,"PO BOX 767","LOUDON","TN","37774"
357791,"PO BOX 7673","DELRAY BEACH","FL","33482"
357792,"PO BOX 7673","PORTLAND","TN","37148"
357793,"PO BOX 7675","ROMEOVILLE","IL","60544"
357794,"PO BOX 768","DEL RIO","TX","78840"
357795,"PO BOX 768","ENFIELD","CT","06083"
357796,"PO BOX 768","MADISON","NC","27025"
357797,"PO BOX 768","MONTEREY","CA","93942"
357798,"PO BOX 768","PITTSBURG","CA","94565"
357799,"PO BOX 768","SEWELL","NJ","08080"
357800,"PO BOX 768","SOUTHAMPTON","NY","11743"
357801,"PO BOX 768","THERMOPOLIS","WY","82443"
357802,"PO BOX 7683","VENTURA","CA","93006"
357803,"PO BOX 768843","ROSWELL","GA","30076"
357804,"PO BOX 769","ALBANY","GA","31701"
357805,"PO BOX 769","MAGDALENA","NM","87825"
357806,"PO BOX 769","WINTERPORT","ME","04496"
357807,"PO BOX 7692","MYRTLE BEACH","SC","29572"
357808,"PO BOX 7692","SAN BERNARDINO","CA","92411"
357809,"PO BOX 7693","HELENA","MT","59604"
357810,"PO BOX 7693","NORTH PORT","FL","34290"
357811,"PO BOX 769411","SAN ANTONIO","TX","78245"
357812,"PO BOX 7695","LITTLE ROCK","AR","72217"
357813,"PO BOX 7696","LITTLE ROCK","AR","72217"
357814,"PO BOX 76975","ATLANTA","GA","30358"
357815,"PO BOX 7699","REDLANDS","CA","92375"
357816,"PO BOX 7699","SPOKANE","WA","99207"
357817,"PO BOX 769951","SAN ANTONIO","TX","78254"
357818,"PO BOX 77","AUGUSTA","MT","59410"
357819,"PO BOX 77","AVON","MA","02322"
357820,"PO BOX 77","CARROLLTON","MS","38917"
357821,"PO BOX 77","DELAVAN","WI","53115"
357822,"PO BOX 77","DENAIR","CA","95316"
357823,"PO BOX 77","EDEN","MD","21822"
357824,"PO BOX 77","FOYIL","OK","74031"
357825,"PO BOX 77","GOLD BEACH","OR","97444"
357826,"PO BOX 77","GRASS LAKE","MI","49240"
357827,"PO BOX 77","GRUNDY","VA","24614"
357828,"PO BOX 77","HARBOR SPRINGS","MI","49740"
357829,"PO BOX 77","MALAGA","NJ","08328"
357830,"PO BOX 77","NEW WASHINGTON","OH","44854"
357831,"PO BOX 77","OVID","NY","14521"
357832,"PO BOX 77","SHARON","MA","02067"
357833,"PO BOX 77","UNION","MO","63084"
357834,"PO BOX 77","WILLIAMSTON","MI","48895"
357835,"PO BOX 770","CLOVERDALE","CA","95425"
357836,"PO BOX 770","GRANDY","NC","27939"
357837,"PO BOX 770","LINDENHURST","NY","11757"
357838,"PO BOX 770006","WINTER GARDEN","FL","34777"
357839,"PO BOX 77007","ATLANTA","GA","30357"
357840,"PO BOX 770092","WINTER GARDEN","FL","34777"
357841,"PO BOX 7701","APPLETON","WI","54912"
357842,"PO BOX 7701","SAN DIEGO","CA","92160"
357843,"PO BOX 770181","STEAMBOAT SPRINGS","CO","80477"
357844,"PO BOX 7702","GOODYEAR","AZ","85338"
357845,"PO BOX 7702","GREENSBORO","NC","27417"
357846,"PO BOX 770247","MEMPHIS","TN","38177"
357847,"PO BOX 7703","COLUMBIA","SC","29202"
357848,"PO BOX 770451","WINTER GARDEN","FL","34777"
357849,"PO BOX 770502","NEW ORLEANS","LA","70177"
357850,"PO BOX 770543","OCALA","FL","34477"
357851,"PO BOX 770553","WINTER GARDEN","FL","34777"
357852,"PO BOX 77059","ROCHESTER","NY","14617"
357853,"PO BOX 770624","EAGLE RIVER","AK","99577"
357854,"PO BOX 770642","ORLANDO","FL","32877"
357855,"PO BOX 770666","WINTER GARDEN","FL","34777"
357856,"PO BOX 770777","MEMPHIS","TN","38177"
357857,"PO BOX 770795","LAKEWOOD","OH","44107"
357858,"PO BOX 770925","MEMPHIS","TN","38177"
357859,"PO BOX 770973","NEW ORLEANS","LA","70117"
357860,"PO BOX 770985","ORLANDO","FL","32877"
357861,"PO BOX 771   23 GROVE STREET","PETERBOROUGH","NH","03458"
357862,"PO BOX 771","BREWSTER","WA","98812"
357863,"PO BOX 771","BUELLTON","CA","93427"
357864,"PO BOX 771","CARLSBAD","NM","88221"
357865,"PO BOX 771","CARY","NC","27512"
357866,"PO BOX 771","CHEYENNE WELLS","CO","80810"
357867,"PO BOX 771","FIRESTONE","CO","80520"
357868,"PO BOX 771","FULLERTON","CA","92836"
357869,"PO BOX 771","HANA","HI","96713"
357870,"PO BOX 771","HEALDTON","OK","73438"
357871,"PO BOX 771","PEWAUKEE","WI","53702"
357872,"PO BOX 771","WADDELL","AZ","85355"
357873,"PO BOX 771","WINTER HAVEN","FL","33882"
357874,"PO BOX 771","WOODWARD","OK","73802"
357875,"PO BOX 771","YONKERS","NY","10710"
357876,"PO BOX 771","YUBA CITY","CA","95992"
357877,"PO BOX 7710","PATERSON","NJ","07509"
357878,"PO BOX 771011","ORLANDO","FL","32837"
357879,"PO BOX 771080","ST LOUIS","MO","63177"
357880,"PO BOX 771083","EAGLE RIVER","AK","99577"
357881,"PO BOX 7711","WOODLAND PARK","CO","80863"
357882,"PO BOX 771130","STEAMBOAT SPRINGS","CO","80477"
357883,"PO BOX 7712","CINCINNATI","OH","45205"
357884,"PO BOX 77127","TAMPA","FL","33675"
357885,"PO BOX 771326","EAGLE RIVER","AK","99577"
357886,"PO BOX 771390","ORLANDO","FL","32877"
357887,"PO BOX 771392","STEAMBOAT SPRINGS","CO","80477"
357888,"PO BOX 771491","SAINT LOUIS","MO","63177"
357889,"PO BOX 771501","ORLANDO","FL","32877"
357890,"PO BOX 77156","ATLANTA","GA","30357"
357891,"PO BOX 771561","CORAL SPRINGS","FL","33077"
357892,"PO BOX 771576","STEAMBOAT SPRINGS","CO","80477"
357893,"PO BOX 771582","LAKEWOOD","OH","44107"
357894,"PO BOX 77166","BATON ROUGE","LA","70879"
357895,"PO BOX 771702","HOUSTON","TX","77215"
357896,"PO BOX 771721","SAINT LOUIS","MO","63177"
357897,"PO BOX 771805","OCALA","FL","34477"
357898,"PO BOX 771885","EAGLE RIVER","AK","99577"
357899,"PO BOX 772","AGUADA","PR","00602"
357900,"PO BOX 772","BROOKPORT","IL","62910"
357901,"PO BOX 772","CLAREMONT","CA","91711"
357902,"PO BOX 772","DEWEYVILLE","TX","77614"
357903,"PO BOX 772","HAYWARD","WI","54843"
357904,"PO BOX 772","LEBANON","OR","97355"
357905,"PO BOX 772","OURAY","CO","81427"
357906,"PO BOX 772","REPUBLIC","WA","99166"
357907,"PO BOX 772","SARALAND","AL","36571"
357908,"PO BOX 772","STINNETT","TX","79083"
357909,"PO BOX 772","TIJERAS","NM","87059"
357910,"PO BOX 772","WEST BROOKFIELD","MA","01585"
357911,"PO BOX 772","WHITE PLAINS","NY","10602"
357912,"PO BOX 772","WORCESTER","MA","01613"
357913,"PO BOX 7720","LITTLE ROCK","AR","72217"
357914,"PO BOX 772024","ORLANDO","FL","32837"
357915,"PO BOX 772072","MEPMPHIS","TN","38177"
357916,"PO BOX 7721","MADISON","WI","53707"
357917,"PO BOX 77221","FORT WORTH","TX","76177"
357918,"PO BOX 772291","MIAMI","FL","33177"
357919,"PO BOX 7723","NEWARK","DE","19714"
357920,"PO BOX 772513","CORAL SPRINGS","FL","33077"
357921,"PO BOX 772570","STEAMBOAT SPRINGS","CO","80477"
357922,"PO BOX 7727","SAINT CLOUD","MN","56302"
357923,"PO BOX 772711","CORAL SPRINGS","FL","33077"
357924,"PO BOX 772774","OCALA","FL","34477"
357925,"PO BOX 772864","OCALA","FL","34477"
357926,"PO BOX 772981","STEAMBOAT SPRINGS","CO","80477"
357927,"PO BOX 772994","EAGLE RIVER","AK","99577"
357928,"PO BOX 773","BLYTHEVILLE","AR","72316"
357929,"PO BOX 773","CAPE GIRARDEAU","MO","63702"
357930,"PO BOX 773","CROOKS","SD","57020"
357931,"PO BOX 773","HARDY","VA","24101"
357932,"PO BOX 773","HOWELL","NJ","07731"
357933,"PO BOX 773","KENOSHA","WI","53140"
357934,"PO BOX 773","LINDSTROM","MN","55045"
357935,"PO BOX 773","MOBILE","AL","36601"
357936,"PO BOX 773","NEW BRUNSWICK","NJ","08903"
357937,"PO BOX 773","NEW YORK","NY","10163"
357938,"PO BOX 773","STANLEY","NC","28164"
357939,"PO BOX 773","TETON VILLAGE","WY","83025"
357940,"PO BOX 773","WHEAT RIDGE","CO","80034"
357941,"PO BOX 77306","ATLANTA","GA","30357"
357942,"PO BOX 7733","LOVELAND","CO","80537"
357943,"PO BOX 773371","STEAMBOAT SPRINGS","CO","80477"
357944,"PO BOX 773554","STEAMBOAT SPRINGS","CO","80487"
357945,"PO BOX 7736","COLUMBIA","SC","29202"
357946,"PO BOX 774","BAIRD","TX","79504"
357947,"PO BOX 774","CANDLER","NC","28715"
357948,"PO BOX 774","CANON CITY","CO","81215"
357949,"PO BOX 774","CAVE SPRINGS","GA","30124"
357950,"PO BOX 774","CENTER HARBOR","NH","03226"
357951,"PO BOX 774","FLINT","GA","48501"
357952,"PO BOX 774","FREDERICKSBURG","TX","78624"
357953,"PO BOX 774","GILROY","CA","95020"
357954,"PO BOX 774","GLASGOW","MT","59230"
357955,"PO BOX 774","KNOXVILLE","TN","37901"
357956,"PO BOX 774","LEXINGTON","TX","78947"
357957,"PO BOX 774","MELVILLE","NY","11747"
357958,"PO BOX 774","ROCKMART","GA","30153"
357959,"PO BOX 774","SANTA YNEZ","CA","93460"
357960,"PO BOX 774","ST JAMES","MO","65559"
357961,"PO BOX 774","WEST CHESTER","OH","45071"
357962,"PO BOX 774","WOONSOCKET","RI","02895"
357963,"PO BOX 7741","MISSOULA","MT","59807"
357964,"PO BOX 7741","THOUSAND OAKS","CA","91359"
357965,"PO BOX 77412","BATON ROUGE","LA","70879"
357966,"PO BOX 774169","STEAMBOAT SPRINGS","CO","80477"
357967,"PO BOX 774170","STEAMBOAT SPRINGS","CO","80477"
357968,"PO BOX 7741956","SAN DIEGO","CA","92174"
357969,"PO BOX 7742","CHARLOTTESVILLE","VA","22906"
357970,"PO BOX 7743","LAWTON","OK","73506"
357971,"PO BOX 7744","NORCO","CA","92860"
357972,"PO BOX 77448","SEATTLE","WA","98177"
357973,"PO BOX 7745","EWING","NJ","08628"
357974,"PO BOX 7748","EWING","NJ","08628"
357975,"PO BOX 77485","YBOR CITY","FL","33675"
357976,"PO BOX 775","CLARK","CO","80428"
357977,"PO BOX 775","FRANKTOWN","CO","80116"
357978,"PO BOX 775","LA MADERA","NM","87539"
357979,"PO BOX 775","LACONIA","NH","03246"
357980,"PO BOX 775","PRINCE GEORGE","VA","23875"
357981,"PO BOX 77508","SEATTLE","WA","98177"
357982,"PO BOX 7753","ESSEX","MD","21221"
357983,"PO BOX 7753","GOODYEAR","AZ","85338"
357984,"PO BOX 7753","VISALIA","CA","93290"
357985,"PO BOX 77583","BATON ROUGE","LA","70879"
357986,"PO BOX 77584","JACKSONVILLE","FL","32226"
357987,"PO BOX 776","COBLESKILL","NY","12043"
357988,"PO BOX 776","JACKSON","MS","39205"
357989,"PO BOX 776","NEW YORK","NY","10014"
357990,"PO BOX 776","NEW YORK","NY","10108"
357991,"PO BOX 776","REDMOND","OR","97756"
357992,"PO BOX 776","ROCKLAND","ME","04841"
357993,"PO BOX 776","SMYRNA","DE","19977"
357994,"PO BOX 776","TUSTIN","CA","92781"
357995,"PO BOX 776","URBANA","OH","43078"
357996,"PO BOX 776","VASS","NC","28394"
357997,"PO BOX 776","WAXHAW","NC","28173"
357998,"PO BOX 776108","STEAMBOAT SPRINGS","CO","80477"
357999,"PO BOX 776110","STEAMBOAT SPRINGS","CO","80477"
358000,"PO BOX 7764","CHRISTIANSTED","VI","00823"
