"ID","Address","City","State","Zip"
83501,"1700 UNIVERSITY BOULEVARD","ANDERSON","IN","46012"
83502,"1700 VAN NESS AVE 1011","SAN FRANCISCO","CA","94109"
83503,"1700 VAN NESS AVE 1118","SAN FRANCISCO","CA","94109"
83504,"1700 VAN NESS AVE 1180","SAN FRANCISCO","CA","94109"
83505,"1700 VINEYARDS PARKWAY","BRENTWOOD","CA","94513"
83506,"1700 W 25TH ST APT A-11","CASPER","WY","82604"
83507,"1700 W 31ST","AUSTIN","TX","78703"
83508,"1700 W ALBERTA RD","EDINBURG","TX","78539"
83509,"1700 W CEDAR STREET","EL DORADO","AR","71730"
83510,"1700 W MARKET ST  309","AKRON","OH","44313"
83511,"1700 W MARKET ST BOX 403","AKRON","OH","44313"
83512,"1700 W NEW HAVEN AVE","WEST MELBOURNE","FL","32904"
83513,"1700 W OLNEY AVE","PHILADELPHIA","PA","19141"
83514,"1700 W PIONEER DR","IRVING","TX","75061"
83515,"1700 W STADIUM BLVD","ANN ARBOR","MI","48103"
83516,"1700 W TUMBLE CREEK DR","MERIDIAN","ID","83646"
83517,"1700 W WASHINGTON STREET","PHOENIX","AZ","85007"
83518,"1700 WALWORTH AVENUE","PASADENA","CA","91104"
83519,"1700 WATERFORD ROAD","WALWORTH","NY","14568"
83520,"1700 WEBB STREET","ASBURY PARK","NJ","07712"
83521,"1700 WESCOTT DRIVE","RALEIGH","NC","27614"
83522,"1700 WEST  HILLSDALE BLVD","SAN MATEO","CA","94402"
83523,"1700 WEST ANNA","LAREDO","TX","78040"
83524,"1700 WEST ARROW HWY 115","UPLAND","CA","91786"
83525,"1700 WEST WASHINGTON STREET","PHOENIX","AZ","85007"
83526,"1700 WEST WATER STREET","MONTPELIER","IN","47359"
83527,"1700 WHIRLAWAY LN","TRACY","CA","95377"
83528,"1700 WILDLIFE COURT","WAUSAU","WI","54403"
83529,"1700 WILLOWWOOD","DENTON","TX","76205"
83530,"1700 WILSON ROAD","HUMBLE","TX","77338"
83531,"1700 WYOMING NO  4","EL PASO","TX","79902"
83532,"1700 ZAVALA DRIVE","ALLEN","TX","75002"
83533,"1700","MELROSE PARK","IL","60160"
83534,"17000 140TH AVE NE UNIT E102","WOODINVILLE","WA","98072"
83535,"17000 185TH AVENUE NE","FOLEY","MN","56329"
83536,"17000 ASTURIA COURT NE","RIO RANCHO","NY","87144"
83537,"17000 BANYAN VINE COURT","FORT MYERS","FL","33908"
83538,"17000 EXECUTIVE PLAZA DR SUITE 103","DEARBORN","MI","48126"
83539,"17000 GRANITE FALLS WAY","CHOWCHILLA","CA","93610"
83540,"17000 SILICA DRIVE","VICTORVILLE","CA","92395"
83541,"17000 SOUTH VERMONT AVE SUITE A","GARDENA","CA","90247"
83542,"17000 TAFT ROAD","SPRING LAKE","MI","49456"
83543,"17000 TIMOTHY DRIVE","SOUTHGATE","MI","48195"
83544,"17000 VENTURA BLVD SUITE 201","ENCINO","CA","91316"
83545,"17000 WEDGE PARKWAY 3121","RENO","NV","89511"
83546,"17001 BIRCHVIEW DRIVE","NUNICA","MI","49448"
83547,"17001 FERRIS STREET","GRAND HAVEN","MI","49417"
83548,"17001 HURRICANE BLVD","IRVINGTON","AL","36544"
83549,"17001 JEANETTE","SOUTHFIELD","MI","48075"
83550,"17001 SW 87 COURT","PALMETTO BAY","FL","33157"
83551,"17001 W LAKESHORE DRIVE","BRIMLEY","MI","49715"
83552,"17002 S CATALINA AVE","GARDENA","CA","90247"
83553,"17002 S PRAIRIE AVE","TORRANCE","CA","90504"
83554,"17002 SAGO DR","DIBERVILLE","MS","39540"
83555,"17002 W MARCONI AVENUE","SURPRISE","AZ","85388"
83556,"17002 WAUSAU","CASA GRANDE","IL","85122"
83557,"17003 BILLINGS DRIVE","CARSON","CA","90746"
83558,"17003 CHESTNUT AVENUE","ATASCADERO","CA","93422"
83559,"17003 COLT CREEK CT","HUMBLE","TX","77346"
83560,"17003 E KNOX LANE","SPOKANE VALLEY","WA","99016"
83561,"17003 KEITH HARROW","HOUSTON","TX","77084"
83562,"17003 NOWTHEN BOULEVARD","RAMSEY","MN","55303"
83563,"17003 VENTURA BLVD SUITE 208","ENCINO","CA","91316"
83564,"17005 UPLAND AVE","FONTANA","CA","92335"
83565,"17005 YUKON AVENUE NUMBER 17","TORRANCE","CA","90504"
83566,"170056","BROOKLYN","NY","11217"
83567,"17006 SE 5TH STREET","VANCOUVER","WA","98684"
83568,"17007 N HWS CLEVELAND BLVD","BENNINGTON","NE","68007"
83569,"17007 SW 142 PL","MIAMI","FL","33177"
83570,"17007 W BRISTOL LANE","SURPRISE","AZ","85374"
83571,"170074 SPRING CREEK RD","MITCHELL","NE","69357"
83572,"17008 119TH CT NE","BOTHELL","WA","98011"
83573,"17008 ASHBURTON DRIVE","LOUISVILLE","KY","40245"
83574,"17008 LAURELMONT CT","INDIAN LAND","SC","29707"
83575,"17008 SPANISH STAR DRIVE","ROUND ROCK","TX","78664"
83576,"17009 SE 261ST STREET","COVINGTON","WA","98042"
83577,"1701 12TH AVE","ALBANY","GA","31707"
83578,"1701 16TH AVE    PO BOX 1338","STERLING","IL","61081"
83579,"1701 16TH STREET NW APT 627","WASHINGTON","DC","20009"
83580,"1701 1ST AVE N APT 213","MOORHEAD","MN","56560"
83581,"1701 1ST AVE S APT 525","BIRMINGHAM","AL","35233"
83582,"1701 3RD AVE E","SPENCER","IA","51301"
83583,"1701 42ND ST UNIT D","KENNER","LA","70065"
83584,"1701 46 ST SW","NAPLES","FL","34116"
83585,"1701 46TH STREET","PENNSAUKEN","NJ","08110"
83586,"1701 5TH STREET NW","GREAT FALLS","MT","59405"
83587,"1701 90TH AVE NE","CLYDE HILL","WA","98004"
83588,"1701 ADAIR ST","OCOEE","FL","34761"
83589,"1701 ALLSTON WAY UNIT 1","BERKELEY","CA","94703"
83590,"1701 ALMA DRIVE","PLANO","TX","75075"
83591,"1701 ARDGLASS CT","KENNESAW","GA","30152"
83592,"1701 B AVE","MUSCATINE","IA","52761"
83593,"1701 BEACH ROAD UNIT 302","ENGLEWOOD","FL","34223"
83594,"1701 BELLEVUE RD","DUBLIN","GA","31021"
83595,"1701 BIG HORN BASIN DR","WILDWOOD","MO","63011"
83596,"1701 BLOOMINGDALE RD","GLENDALE HEIGHTS","IL","60139"
83597,"1701 BRIAR ST","AUSTIN","TX","78704"
83598,"1701 BROADWAY 400","VANCOUVER","WA","98663"
83599,"1701 BROADWAY NUM 258","VANCOUVER","WA","98663"
83600,"1701 BROOKHAVEN DRIVE","GREENVILLE","NC","27834"
83601,"1701 BROWN AVE","OSAWATOMIE","KS","66064"
83602,"1701 BUDDY HOLLY AVE STE A","LUBBOCK","TX","79401"
83603,"1701 CASTLE ROCK DRIVE","LEWISVILLE","TX","75077"
83604,"1701 CHERBOURG DR APT 1301","FORT WORTH","TX","76120"
83605,"1701 CHERRY AVE","BIRMINGHAM","AL","35214"
83606,"1701 CHURCH STREET SUITE B","NORFOLK","VA","23504"
83607,"1701 COLORADO AVENUE","LA JUNTA","CO","81050"
83608,"1701 COUNTRY CLUB ROAD","PARAGOULD","AR","72450"
83609,"1701 COUNTRY CLUB","EL DORADO","KS","67042"
83610,"1701 CREEK ROAD","TEMPLE","TX","76501"
83611,"1701 CREOSOTE DR","FORT WORTH","TX","76177"
83612,"1701 CURRANT COURT","WILLIAMSTOWN","NJ","08094"
83613,"1701 DALTON ROAD APT 501","LIMA","NY","14485"
83614,"1701 DIRECTORS BLVD STE 800","AUSTIN","TX","78744"
83615,"1701 DISCOVERY PLACE","NAMPA","ID","83686"
83616,"1701 DIVISADERO ST NUM 0316","SAN FRANCISCO","CA","94115"
83617,"1701 DIXIELAND RD","HARLINGEN","TX","78552"
83618,"1701 DIXIELAND ROAD","HARLINGEN","TX","78552"
83619,"1701 DR ANDREW J BROWN AVENUE","INDIANAPOLIS","IN","46202"
83620,"1701 E 12TH ST STE 103","CLEVELAND","OH","44114"
83621,"1701 E CENTERVILLE RD APT 5","GARLAND","TX","75041"
83622,"1701 E COLTER STREET APT 410","PHOENIX","AZ","85016"
83623,"1701 E EMPIRE ST STE 360-323","BLOOMINGTON","IL","61704"
83624,"1701 E EMPIRE ST SUITE 360-320","BLOOMINTON","IL","61704"
83625,"1701 E EUCLID AVE","PHOENIX","AZ","85042"
83626,"1701 E HEBRON PARKWAY APT 4103","CARROLLTON","TX","75010"
83627,"1701 E HEBRON PKWY APT 8307","CARROLLTON","TX","75010"
83628,"1701 E LYON STATION RD","CREEDMOOR","NC","27522"
83629,"1701 E MCINTYRE","EDINBURG","TX","78542"
83630,"1701 E PRATER WAY","SPARKS","NV","89434"
83631,"1701 E PUTNAM AVE","PORTERVILLE","CA","93257"
83632,"1701 E WESTCHESTER DR","TEMPE","AZ","85283"
83633,"1701 EAST ATLANTIC BLVD STE 4","POMPANO BEACH","FL","33060"
83634,"1701 EAST LAKE AVENUE SUITE 315","GLENVIEW","IL","60025"
83635,"1701 EAST LYON STATION ROAD","CREEDMOOR","NC","27522"
83636,"1701 EAST MOUNTAIN VIEW ROAD","PHOENIX","AZ","85020"
83637,"1701 EAST TRINITY BOULEVARD","MONTGOMERY","AL","36106"
83638,"1701 ELMWOOD AVE","WILMETTE","IL","60091"
83639,"1701 EMMA CIRCLE","SPRING HILL","TN","37174"
83640,"1701 ENTERPRISE","SOCORRO","NM","87801"
83641,"1701 FRANCIS ST APT D","ST JOSEPH","MO","64501"
83642,"1701 FRANKFORT ROAD","SHELBYVILLE","KY","40065"
83643,"1701 FRANKLIN AVENUE","NEW ORLEANS","LA","70017"
83644,"1701 GATEWAY BLVD STE 403","RICHARDSON","TX","75080"
83645,"1701 GATEWAY BLVD SUITE 447","RICHARDSON","TX","75080"
83646,"1701 GILLESPIE AVENUE","ALBANY","GA","31707"
83647,"1701 GILLIS AVE","DEL RIO","TX","78840"
83648,"1701 GORSUCH AVENUE","BALTIMORE","MD","21218"
83649,"1701 GREENBROOK BLVD","HANOVER PARK","IL","60133"
83650,"1701 HIGHWAY 193","COOL","CA","95614"
83651,"1701 HILLCREST ROAD","SAN PABLO","CA","94806"
83652,"1701 HOME RD","DELAWARE","OH","43015"
83653,"1701 HUNTINGTON WOODS CT","WINSTON SALEM","NC","27103"
83654,"1701 KALAMAZOO AVENUE SE","GRAND RAPIDS","MI","49507"
83655,"1701 LAFAYETTE PKWY","OPELIKA","AL","36801"
83656,"1701 LAGUNA STREET APT 207","CONCORD","CA","94520"
83657,"1701 LAMBERT RD UNIT C","LA HABRA","CA","90631"
83658,"1701 LAY ST","DES MOINES","IA","50317"
83659,"1701 LEE ROAD APT J333","WINTER PARK","FL","32789"
83660,"1701 LITTLE FLOCK CHURCH ROAD","COLLINS","GA","30421"
83661,"1701 LYNN ROAD","GREENSBORO","NC","27405"
83662,"1701 MAIN AVE SW STE 5","CULLMAN","AL","35055"
83663,"1701 MEADOWLARK DRIVE","MINOT","ND","58701"
83664,"1701 MEADOWS AVE","LANTANA","TX","76226"
83665,"1701 MILTON STREET","TURTLE CREEK","PA","15145"
83666,"1701 MOLLY LANE","BIRMINGHAM","AL","35235"
83667,"1701 MURPHY LANE","MOAB","UT","84532"
83668,"1701 N 165TH RD","LINCOLN","KS","67455"
83669,"1701 N 16TH ST","PEKIN","IL","61554"
83670,"1701 N 8TH ST","MCALLEN","TX","78501"
83671,"1701 N JONES BLVD UNIT 2082","LAS VEGAS","NV","89108"
83672,"1701 N LEE TREVINO STE A","EL PASO","TX","79936"
83673,"1701 N MARKET ST","SPARTA","IL","62286"
83674,"1701 N MARTIN LUTHER KING AVE","OKLAHOMA CITY","OK","73111"
83675,"1701 N ORANGE GROVE AVENUE","LOS ANGELES","CA","90046"
83676,"1701 NE 164 STREET STE 303","NORTH MIAMI BEACH","FL","33162"
83677,"1701 NE 97TH STREET","KANSAS CITY","MO","64155"
83678,"1701 NE OCEAN BLVD APT 301","STUART","FL","34996"
83679,"1701 NEW YORK AVE","EGG HARBOR CITY","NJ","08215"
83680,"1701 NORMANDY LN","MIDLAND","TX","79705"
83681,"1701 NORTH 211TH DRIVE","BUCKEYE","AZ","85396"
83682,"1701 NORTH BLVD","TAMPA","FL","33607"
83683,"1701 NORTH BOULEVARD","TAMPA","FL","33607"
83684,"1701 NORTH GREEN VALLEY PARKWAY 9A","HENDERSON","NV","89074"
83685,"1701 NORTH STREET 1ST FL BLDG 40","ENDICOTT","NY","13760"
83686,"1701 NW 26 AVENUE","FORT LAUDERDALE","FL","33311"
83687,"1701 NW 7TH ST","OKLAHOMA CITY","OK","73106"
83688,"1701 NW THURMAN ST STE 204","PORTLAND","OR","97209"
83689,"1701 OAK HALL DRIVE","SANDSTON","VA","23150"
83690,"1701 OAKHURST SCENIC DR","FORT WORTH","TX","76111"
83691,"1701 PAGE AVE","BELLEVILLE","IL","62221"
83692,"1701 PARK ROAD APT 412","WASHINGTON","DC","20010"
83693,"1701 PEACEFUL MEADOW CT SUITE 456B","LAREDO","TX","78041"
83694,"1701 PENNSYLVANIA AVE NW STE 200","WASHINGTON","DC","20006"
83695,"1701 PENNSYLVANIA AVE NW SUITE 300","WASHINGTON","DC","20006"
83696,"1701 PENNSYLVANIA AVE NW","WASHINGTON DC","DC","20006"
83697,"1701 PENNSYLVANIA AVE NW","WASHINGTON","DC","20006"
83698,"1701 PENNSYLVANIA AVENUE NW STE 200","WASHINGTON","MD","20006"
83699,"1701 PENNSYLVANIA AVENUE SUITE 300","WASHINGTON","DC","20006"
83700,"1701 QUINCY AVENUE NO 4","NAPERVILLE","IL","60540"
83701,"1701 REGATTA BLVD","RICHMOND","CA","94804"
83702,"1701 RIGGERS RD","NEZPERCE","ID","83543"
83703,"1701 RUGG STREET","KENT","OH","44240"
83704,"1701 RUTH STREET","HOUSTON","TX","77004"
83705,"1701 S BROADWAY DEPARTMENT OF CHEM","PITTSBURG","KS","66762"
83706,"1701 S CLEMATIS RD","WEST LINN","OR","97068"
83707,"1701 S FEDERAL HWY APT 10","LAKE WORTH","FL","33460"
83708,"1701 S LESLIE AVENUE","KANSAS CITY","MO","64055"
83709,"1701 S MAIN STREET STE 3334","BROKEN ARROW","OK","74012"
83710,"1701 S SHEPHERD DRIVE SUITE D","HOUSTON","TX","77019"
83711,"1701 SALMON CREEK LANE","JUNEAU","AK","99801"
83712,"1701 SAN JACINTO STREET","HOUSTON","TX","77002"
83713,"1701 SAN PABLO ROAD SOUTH APT 117","JACKSONVILLE","FL","32224"
83714,"1701 SE 5TH STREET","OCALA","FL","34471"
83715,"1701 SHREYA ST","EL PASO","TX","79928"
83716,"1701 SIERA HIGHLANDS CT","PLAINFIELD","IL","60586"
83717,"1701 SIMPKINS ST","NASHVILLE","TN","37208"
83718,"1701 SOUTH 28TH STREET APT 113B","PHILADELPHIA","PA","19145"
83719,"1701 SOUTH 2ND STREET","CABOT","AR","72023"
83720,"1701 SOUTH B STREET STE 100","ALBIA","IA","50231"
83721,"1701 SOUTH BROADWAY","PITTSBURG","KS","66762"
83722,"1701 SOUTH FIRST AVENUE SUITE 407","MAYWOOD","IL","60153"
83723,"1701 SOUTH PARK AVENUE","OSKALOOSA","IA","52577"
83724,"1701 SOUTH RAUL LONGORIA ROAD","EDINBURG","TX","78542"
83725,"1701 SOUTH ROAD","GARRETT","IN","46738"
83726,"1701 SW 160TH AVE","MIRAMAR","FL","33027"
83727,"1701 TEE DEE STREET","RALEIGH","NC","27610"
83728,"1701 THURMOND STREET","WINSTON-SALEM","NC","27105"
83729,"1701 TINA LANE","FLOSSMOOR","IL","60422"
83730,"1701 TURK STREET APT 9","SAN FRANCISCO","CA","94115"
83731,"1701 VALLEY RD","WILLITS","CA","95490"
83732,"1701 VINEYARD DR APT 1","WILSON","NC","27893"
83733,"1701 W 143RD ST APT 216","BURNSVILLE","MN","55306"
83734,"1701 W 4TH STREET F2","LAWRENCE","KS","66044"
83735,"1701 W NORTHWEST HWY SUITE 100","GRAPEVINE","TX","76051"
83736,"1701 W PRIEN LAKE RD","LAKE CHARLES","LA","70601"
83737,"1701 W WETHERBEE RD    UNIT 771611","ORLANDO","FL","32877"
83738,"1701 W WILL ROGERS BLVD","CLAREMORE","OK","74017"
83739,"1701 WADING HERON WAY","THE VILLAGES","FL","32163"
83740,"1701 WALNUT STREET FLOOR 7","PHILADELPHIA","PA","19103"
83741,"1701 WARREN AVENUE","JACKSON","MI","49203"
83742,"1701 WASHINGTON AVENUE","MIAMI BEACH","FL","33139"
83743,"1701 WATERLOO TRL UNIT A","AUSTIN","TX","78704"
83744,"1701 WEDGEWOOD","BLYTHEVILLE","AR","72315"
83745,"1701 WEST LEHIGH AVENUE","PHILADELPHIA","PA","19132"
83746,"1701 WESTCHESTER DRIVE","COLUMBIA","SC","29210"
83747,"1701 WESTWIND DRIVE 108","BAKERSFIELD","CA","93301"
83748,"1701 WHITNEY MESA DRIVE SUITE 101","HENDERSON","NV","89104"
83749,"1701 WILD  CIRCLE","CLARKSTON","GA","30021"
83750,"1701 WOODROW AVENUE","WICHITA FALLS","TX","76301"
83751,"1701 WRIGHT STREET","MADISON","WI","53704"
83752,"1701 WRIGHTSBORO RD","AUGUSTA","GA","30904"
83753,"17010 116TH AVE E","PUYALLUP","WA","98374"
83754,"17010 137TH PL SE","RENTON","WA","98058"
83755,"17010 CAIRNLASSIE STREET","HOUSTON","TX","77084"
83756,"17010 ROBERTS RD","LOS GATOS","CA","95032"
83757,"17011 BEACH BLVD SUITE 900","HUNTINGTON BEACH","CA","92647"
83758,"17011 GOYA STREET","GRANADA HILLS","CA","91344"
83759,"17011 LAKE ARLINGTON LN","HOUSTON","TX","77044"
83760,"17011 LINCOLN  SUITE 458","PARKER","CO","80134"
83761,"17011 LINCOLN AVE","PARKER","CO","80134"
83762,"17011 LINCOLN AVENUE BOX 185","PARKER","CO","80134"
83763,"17011 VASHON HWY SW","VASHON","WA","98070"
83764,"17012 GLEN OAK RUN","ROCKVILLE","MD","20855"
83765,"17012 TRAILWOOD DR","WHITNEY","TX","76692"
83766,"17013 71ST DR N E","ARLINGTON","WA","98223"
83767,"17013 ASPEN LEAF DRIVE","BOWIE","MD","20716"
83768,"17014 WINNING COLORS PLACE","LEESBURG","VA","20176"
83769,"17015 HAAS AVE","TORRANCE","CA","90504"
83770,"17015 MAGNOLIA DRIVE","HAZEL CREST","IL","60429"
83771,"17015 N WOLF COURT","SPLENDORA","TX","77372"
83772,"17015 SE 82ND ST","CLACKAMAS","OR","97015"
83773,"17015 SEVEN PINES DRVE BUILDING 3","SPRING","TX","77379"
83774,"17015 SNOWWOOD DR","MONUMENT","CO","80132"
83775,"17015 TORTOISE ST","ROUND ROCK","TX","78664"
83776,"17018 PITKENNEDY PATH","RICHMOND","TX","77407"
83777,"17018 SE 1ST PL","BELLEVUE","WA","98008"
83778,"1701B SOUTH 28TH STREET - APT 202B","PHILADELPHIA","PA","19145"
83779,"1702 146TH AVE NW","ALEXANDER","ND","58831"
83780,"1702 3RD AVE","BEAVER FALLS","PA","15010"
83781,"1702 4TH ST","SAN FERNANDO","CA","91340"
83782,"1702 98TH ST SO","TACOMA","WA","98444"
83783,"1702 AMSTERDAM AVE","NEW YORK","NY","10031"
83784,"1702 AVERY WAY","CASTLE ROCK","CO","80109"
83785,"1702 BIRCHWOOD ST UNIT 8","DELAVAN","WI","53115"
83786,"1702 BOULDER WALK LANE","ATLANTA","GA","30316"
83787,"1702 BREEZY BEND DRIVE","KATY","TX","77494"
83788,"1702 BRIGHTSEAT ROAD APT T4","HYATTSVILLE","MD","20785"
83789,"1702 CARDIFF ROAD","COLUMBUS","OH","43221"
83790,"1702 DOGWOOD RIDGE RD","WHEELERSBURG","OH","45694"
83791,"1702 E 71ST ST APT 411","TULSA","OK","74136"
83792,"1702 E BECKY CIRCLE","PAYSON","AZ","85541"
83793,"1702 E GLENDALE AVENUE","PHOENIX","AZ","85020"
83794,"1702 EAST 63RD ST","LONG BEACH","CA","90805"
83795,"1702 EISENHOWER DRIVE","SANTA CLARA","CA","95054"
83796,"1702 ENTERPRISE DR SUITE E","FAIRFIELD","CA","94533"
83797,"1702 FAIRMONT ST","DOTHAN","AL","36303"
83798,"1702 HERITAGE LOOP","HOOD RIVER","OR","97031"
83799,"1702 HORSEMAN CT","SANTA MARIA","CA","93454"
83800,"1702 HUNTINGTON PATH","THE VILLAGES","FL","32162"
83801,"1702 INDEPENDENCE AVE SE","WASHINGTON","DC","20003"
83802,"1702 KILBOURN STREET","LOS ANGELES","CA","90065"
83803,"1702 L ST SUITE 128","FRESNO","CA","93721"
83804,"1702 LYNNWOOD COURT","FLOSSMOOR","IL","60422"
83805,"1702 MACY DRIVE","ROSWELL","GA","30076"
83806,"1702 MAGNOLIA COVE","POCAHONTAS","AR","72455"
83807,"1702 MELLON WAY","SARASOTA","FL","34232"
83808,"1702 MONROE ST","YORK","PA","17404"
83809,"1702 MOSCOW AVE","HICKMAN","KY","42050"
83810,"1702 MOSSBACK CIRCLE","FRESNO","TX","77545"
83811,"1702 N HOWARD AVE SUITE A","TAMPA","FL","33607"
83812,"1702 N MAIN","DAVENPORT","IA","52803"
83813,"1702 N WOODLAND BLVD 116-176","DELAND","FL","32720"
83814,"1702 NURSERY WAY","PLEASANTON","CA","94588"
83815,"1702 PARKWAY DRIVE","LUBBOCK","TX","79403"
83816,"1702 PASEO CORTO DR","CEDAR PARK","TX","78613"
83817,"1702 PEBBLE CV","HOOLVER","AL","35244"
83818,"1702 PINE HARRIER CIR","SARASOTA","FL","34231"
83819,"1702 REPUBLIC ST","SAN DIEGO","CA","92114"
83820,"1702 ROSEWOOD SE","GRAND RAPIDS","MI","49506"
83821,"1702 S 9TH STREET","ST LOUIS","MO","63104"
83822,"1702 S BAYSHORE DRIVE","MIAMI","FL","33133"
83823,"1702 S RACE ST","URBANA","IL","61801"
83824,"1702 S STATE HIGHWAY 336","EDINBURG","TX","78539"
83825,"1702 SCHOOL STREET","FREEDOM","PA","15042"
83826,"1702 STENTON AVENUE","PHILADELPHIA","PA","19141"
83827,"1702 STONE ST STE A","JONESBORO","AR","72401"
83828,"1702 SUMMERHILL COURT","ROSEVILLE","CA","95661"
83829,"1702 SUNSET DRIVE","MENDOTA","IL","61342"
83830,"1702 TEAL RUN PLACE DR","FRESNO","TX","77545"
83831,"1702 TODDS LANE - SUITE 327","HAMPTON","VA","23666"
83832,"1702 W MAIN STREET","ELMA","WA","98541"
83833,"1702 WALNUT","AUSTIN","TX","78702"
83834,"1702 WESTSIDE DRIVE","SHERMAN","TX","75092"
83835,"1702 WILTSHIRE VILLAGE DRIVE","WELLINGTON","FL","33414"
83836,"1702 WOODBINE ST APT 10","QUEENS","NY","11385"
83837,"1702 WOODBINE STREET APT 5","RIDGEWOOD","NY","11385"
83838,"17021 RETRAC WAY","GRASS VALLEY","CA","95949"
83839,"17022 BUDOWSKI RD","BROOKSVILLE","FL","34614"
83840,"17022 WINCHESTER","NORTHVILLE","MI","48168"
83841,"17023 CROGAN PIKE","SHIRLEYSBURG","PA","17260"
83842,"17023 OLD NATIONAL PIKE SW","FROSTBURG","MD","21532"
83843,"17023 W DIXIE HWY","N MIAMI BEACH","FL","33160"
83844,"17023 W RIO VISTA LANE","GOODYEAR","AZ","85338"
83845,"17027 24TH AVE SE","BOTHELL","WA","98012"
83846,"17027 W DIXIE HIGHWAY STE 106","NORTH MIAMI BEACH","FL","33160"
83847,"17028 LAVIGNE ROAD","PONCHATOULA","LA","70454"
83848,"17028 MCKEEVER ST","GRANADA HILLS","CA","91344"
83849,"17029 PINEVIEW DRIVE","HOMER GLEN","IL","60491"
83850,"1702L MERIDIAN AVE NUM 199","SAN JOSE","CA","95125"
83851,"1703 18TH ST","LAKE CHARLES","LA","70601"
83852,"1703 AVENUE H","ABERNATHY","TX","79311"
83853,"1703 BRENWOOD DRIVE","MESQUITE","TX","75181"
83854,"1703 CANOE CREEK FALLS DR","ORLANDO","FL","32824"
83855,"1703 CEDAR","QUINCYI","IL","62301"
83856,"1703 CENTRAL STREET","YORKTOWN HEIGHTS","NY","10598"
83857,"1703 COLUMBINE RD","SANFORD","NC","27330"
83858,"1703 COURT NORTH DR","MELVILLE","NY","11747"
83859,"1703 CR 478","NEW ALBANY","MS","38652"
83860,"1703 DELAFORD DRIVE","CARROLLTON","TX","75007"
83861,"1703 DOLBY WAY","CHESTER SPRGS","PA","19425"
83862,"1703 DUNRAVEN ROAD","BLOOMINGTON","IL","61704"
83863,"1703 E 26TH AVE UNIT A","TAMPA","FL","33605"
83864,"1703 E 66TH STREET","TULSA","OK","74136"
83865,"1703 E BEVERLY RD","SHOREWOOD","WI","53211"
83866,"1703 E MCNEILL STREET","LILLINGTON","NC","27546"
83867,"1703 E SINGLETREE COURT","FLAGSTAFF","AZ","86005"
83868,"1703 EDENSIDE AVE","LOUISVILLE","KY","40204"
83869,"1703 FERN FOREST DR","GASTONIA","NC","28054"
83870,"1703 GRAND AVE","YAZOO CITY","MS","39194"
83871,"1703 GUNWALE RD","HOUSTON","TX","77062"
83872,"1703 JASPER LANE","CROFTON","MD","21114"
83873,"1703 KENYON DRIVE","REDDING","CA","96001"
83874,"1703 KILBOURNE PL NW STE 2","WASHINGTON","DC","20010"
83875,"1703 LAWRENCE STREET NE","WASHINGTON","DC","20018"
83876,"1703 LENORE CT","BALTIMORE","MD","21207"
83877,"1703 LONG PAW LANE","CHARLOTTE","NC","28214"
83878,"1703 MAIN STREET","SOUTHAVEN","MS","38671"
83879,"1703 MARLBROOK LANE","LANSDALE","PA","19446"
83880,"1703 N BEAUREGARD ST STE 420","ALEXANDRIA","VA","22311"
83881,"1703 N MCMULLEN BOOTH RD 201","SAFETY HARBOR","FL","34695"
83882,"1703 N MCMULLEN BOOTH ROAD 201","SAFETY HARBOR","FL","34695"
83883,"1703 NW 42 PL","GAINESVILLE","FL","32605"
83884,"1703 OCOTILLO CT","KATY","TX","77494"
83885,"1703 OLIVE SPRINGS ROAD","SOQUEL","CA","95073"
83886,"1703 PINECREST STREET","BURLINGTON","NC","27215"
83887,"1703 RUST STREET","EAU CLAIRE","WI","54701"
83888,"1703 S 94TH E AVE","TULSA","OK","74112"
83889,"1703 S CENTRAL AVE","ROCKFORD","IL","61102"
83890,"1703 S HALL","MESA","AZ","85204"
83891,"1703 S PACIFIC ST","BOISE","ID","83705"
83892,"1703 S PIFER RD","STAR TANNERY","VA","22654"
83893,"1703 SCHOENHEIT STREET","FALLS CITY","NE","68355"
83894,"1703 SINGER RD","JOPPA","MD","21085"
83895,"1703 SKILLMAN AVE W","ROSEVILLE","MN","55113"
83896,"1703 SOUTH SOUTHFIELD DR","MAHOMET","IL","61853"
83897,"1703 SOUTHERN HILLS DRIVE","ARDMORE","OK","73401"
83898,"1703 STONEY TERRACE DRIVE","BALLWIN","MO","63021"
83899,"1703 SUDDERTH DR SUITE 133","RUIDOSO","NM","88345"
83900,"1703 SUDDERTH DRIVE 435","RUIDOSO","NM","88345"
83901,"1703 SUMTER AVE 101","CHARLOTTE","NC","28208"
83902,"1703 SUSAN DRIVE","ARLINGTON","TX","76010"
83903,"1703 THONOTOSASSA ROAD","PLANT CITY","FL","33563"
83904,"1703 TIMBERLANE DRIVE","FLINT","MI","48507"
83905,"1703 W 34TH STREET","AUSTIN","TX","78703"
83906,"1703 YARBOROUGH DR","PEACHTREE CITY","GA","30269"
83907,"17030 DYKES ROAD","FRENCH SETTLEMENT","LA","70733"
83908,"17030 E LA MONTANA DR 207","FOUNTAIN HILLS","AZ","85268"
83909,"17030 LAKESIDE HILLS PLAZA","OMAHA","NE","68130"
83910,"17030 TURKEY POINT","SAN ANTONIO","TX","78232"
83911,"17031 WING ROAD","CHAGRIN FALLS","OH","44023"
83912,"17032 SILVER CHARM PLACE","LEESBURG","VA","20176"
83913,"17032 WEST SOUTHAMPTON ROAD","SURPRISE","AZ","85374"
83914,"17034 PINE AVE","LOS GATOS","CA","95032"
83915,"17035 HUNT RD","HILLMAN","MI","49746"
83916,"17038 NW 19 ST","PEMBROKE PINES","FL","33028"
83917,"1704 APRYL COURT","BEL AIR","MD","21015"
83918,"1704 BAYOU GRANDE BLVD NE","ST PETERSBURG","FL","33703"
83919,"1704 BEACON ROAD","TALBOTT","TN","37877"
83920,"1704 BERESFORD RD","N LITTLE ROCK","AR","72116"
83921,"1704 BLUEBIRD DR","LITTLE ELM","TX","75068"
83922,"1704 BLUFFS ISLAND COURT","ODENTON","MD","21113"
83923,"1704 BREDA DRIVE","KNOXVILLE","TN","37918"
83924,"1704 BROOKFIELD MANOR","COLUMBIA","MO","65203"
83925,"1704 CALLE PAZ PL","EL PASO","TX","79935"
83926,"1704 CEDAR LANE","SELAH","WA","98942"
83927,"1704 DEVONSHIRE DRIVE","BENICIA","CA","94510"
83928,"1704 DEXTER AVENUE SUITE 100","CINCINNATI","OH","45206"
83929,"1704 FAWN VISTA DR N APT H2","MYRTLE BEACH","SC","29575"
83930,"1704 FLOWERS CREEK DRIVE","MCDONOUGH","GA","30253"
83931,"1704 FOWLER ST","FORT MYERS","FL","33901"
83932,"1704 FUNNY CIDE DRIVE","WAXHAW","NC","28173"
83933,"1704 GRAND HIGHLANDS DR","PLAINFIELD","IL","60586"
83934,"1704 GRAY STREET","RICHLAND","WA","99352"
83935,"1704 HALIFAX WAY","EL DORADO HILLS","CA","95762"
83936,"1704 HOLLYWOOD DRIVE","MONROE","LA","71202"
83937,"1704 HUDSON CIRCLE","GRAND ISLAND","NE","68801"
83938,"1704 JACKSON AVE","SEYMOUR","TN","37865"
83939,"1704 JOHN ANDERSON DRIVE","ORMOND BEACH","FL","32176"
83940,"1704 JOLLIT AVENUE","OPELIKA","AL","36801"
83941,"1704 KELLEY DRIVE","ROGERS","AR","72756"
83942,"1704 LASALLE AVENUE","SAN FRANCISCO","CA","94124"
83943,"1704 LAUREL LAKE DRIVE","WACO","TX","76710"
83944,"1704 LEXINGTON AVE","ALLEN","TX","75013"
83945,"1704 LINCOLN AVE NUMBER 3","SAN RAFAEL","CA","94901"
83946,"1704 LLANO ST STE B-176","SANTA FE","NM","87505"
83947,"1704 LLANO ST SUITE B 1453","SANTE FE","NM","87505"
83948,"1704 LORETO COURT","MODESTO","CA","95355"
83949,"1704 MAGNOLIA ROAD","ST GEORGE ISLAND","FL","32328"
83950,"1704 MARY LOU LANE","ATLANTA","GA","30316"
83951,"1704 MELVILLE STREET","OAKHURST","NJ","07755"
83952,"1704 N BUCKEYE","ABILENE","KS","67410"
83953,"1704 N ROOSEVELT BLVD","KEY WEST","FL","33040"
83954,"1704 N SEDGWICK APT 2","CHICAGO","IL","60614"
83955,"1704 NE COUNTY ROAD 14963","MONTROSE","MO","64770"
83956,"1704 NORTH HAMPTON RD 201","DESOTO","TX","75115"
83957,"1704 NORTH PEARL STREET","JACKSONVILLE","FL","32206"
83958,"1704 NW 35TH ST","OCALA","FL","34475"
83959,"1704 NW 75TH STREET","VANCOUVER","WA","98665"
83960,"1704 NW FEDERAL HWY","STUART","FL","34994"
83961,"1704 OLD CANYON DR","HACIENDA HEIGHTS","CA","91745"
83962,"1704 OLD PARK LANE","BELLEVILLE","IL","62226"
83963,"1704 PENNWOOD DR APT","HAMPTON","VA","23666"
83964,"1704 PICNIC PLACE","RALEIGH","NC","27603"
83965,"1704 PINE HILLS LANE","CORINTH","TX","76210"
83966,"1704 PINTO LANE","LAS VEGAS","NV","89106"
83967,"1704 POLO CLUB CT","GLENDALE HEIGHTS","IL","60139"
83968,"1704 RIDGE OAK PL","MEMPHIS","TN","38120"
83969,"1704 S 12TH AVENUE","OZARK","MO","65721"
83970,"1704 S 12TH ST","OMAHA","NE","68108"
83971,"1704 S 7TH ST","ABERDEEN","SD","57401"
83972,"1704 S CLINTON AVE","TRENTON","NJ","08610"
83973,"1704 SHEA CENTER DRIVE UNIT 204","HIGHLANDS RANCH","CO","80129"
83974,"1704 SHERWOOD DR","FREDERICKSBURG","VA","22405"
83975,"1704 SPARTA RD","BELTON","TX","76513"
83976,"1704 STATE RD","CROYDON","PA","19021"
83977,"1704 SWEETBRIAR DR","BLOOMINGTON","IL","61701"
83978,"1704 THE WOODS DRIVE","EL CAJON","CA","92019"
83979,"1704 TRAILS END LN","BOLINGBROOK","IL","60490"
83980,"1704 VICKI LANE","MENDOTA HEIGHTS","MN","55118"
83981,"1704 VINE STREET","LEESBURG","FL","34748"
83982,"1704 W CERMAK RD 2ND FLOOR REAR","CHICAGO","IL","60608"
83983,"1704 W MANCHESTER AVE  STE 201B","LOS ANGELES","CA","90047"
83984,"1704 W MANCHESTER AVE STE 206B","LOS ANGELES","CA","90047"
83985,"1704 W MANCHESTER AVE SUITE 209D","LOS ANGELES","CA","90303"
83986,"1704 W MANCHESTER AVE SUITE 210 B","LOS ANGELES","CA","90047"
83987,"1704 WEST CHESTNUT STREET","LOUISVILLE","KY","40203"
83988,"17040 E 11 MILE RD B6","ROSEVILLE","MI","48066"
83989,"17040 EL CAMINO REAL SUITE 200","HOUSTON","TX","77058"
83990,"17040 HASTINGS AVENUE","PARKER","CO","80134"
83991,"17041 BARN RIDGE DRIVE","SILVER SPRING","MD","20906"
83992,"17042 PARKSIDE DRIVE SOUTH","COMMERCE CITY","CO","80022"
83993,"17043 ASHBURY LODGE","SAN ANTONIO","TX","78247"
83994,"17043 SPERRY LANDING DRIVE","HOUSTON","TX","77095"
83995,"17045 LOFTRIDGE LANE","GAINESVILLE","VA","20155"
83996,"17045 PENROD","STERLING HEIGHTS","MI","48312"
83997,"17047 OLD STATE HIGHWAY 28","PIKEVILLE","TN","37367"
83998,"17048 FM 449","HALLSVILLE","TX","75650"
83999,"17048 GRANDEE WAY","SAN DIEGO","CA","92128"
84000,"17048 NW CATALPA ST","PORTLAND","OR","97229"
