"ID","Address","City","State","Zip"
136001,"246 EAST 207TH STREET FLOOR 1","BRONX","NY","10467"
136002,"246 EASTON AVE W","EATONVILLE","WA","98328"
136003,"246 ENCINADA DRIVE","SALINAS","CA","93901"
136004,"246 FERRY LANE","ST IGNACE","MI","49781"
136005,"246 GRAND AVENUE","LEWISBURG","WV","24901"
136006,"246 GREYLOCK PARKWAY","BELLEVILLE","NJ","07109"
136007,"246 GUILFORD ROAD","LANSDOWNE","PA","19050"
136008,"246 GWYN AVENUE","ELKIN","NC","28621"
136009,"246 HAUSSLER ROAD","KELSO","WA","98626"
136010,"246 HICKORY LANE","WILLIAMSON","WV","25661"
136011,"246 HODSON HALL DR","COUMBIA","SC","29229"
136012,"246 HUFFMAN ROAD","GRADY","AL","36036"
136013,"246 JACKSON ST","TRENTON","NJ","08611"
136014,"246 JACKSON STREET","TRENTON","NJ","08611"
136015,"246 JEB DRIVE","WINCHESTER","VA","22602"
136016,"246 JOE FULTZ BLVD","OSWEGO","NY","13126"
136017,"246 JOHNSON AVE  4D","NEW YORK","NY","11206"
136018,"246 KRUMVILLE RD","OLIVEBRIDGE","NY","12461"
136019,"246 LINDEN AVE","DAYTON","OH","45403"
136020,"246 MACKENZIE LANE","STEPHENSON","VA","22656"
136021,"246 MAGNOLIA POINTE DR","JEFFERSON","GA","30549"
136022,"246 MAPLE STREET","SUGAR GROVE","IL","60554"
136023,"246 MARKET STREET BOX 213","PATERSON","NJ","07501"
136024,"246 MARWOOD DRIVE","BIRMINGHAM","AL","35244"
136025,"246 MCALLISTER RD","BASTROP","TX","78602"
136026,"246 MCCABE STREET","S. DARTMOUTH","MA","02748"
136027,"246 MERRBAUGH DR","HAGERSTOWN","MD","21740"
136028,"246 MILL STREET","BRISTOL","PA","19007"
136029,"246 MOORE DR","CONCORD","VA","24538"
136030,"246 MORGAN AVE","ELYRIA","OH","44035"
136031,"246 MORNINGSIDE AVE","WILMERDING","PA","15148"
136032,"246 N 2670 W CIR","HURRICANE","UT","84737"
136033,"246 N 32ND STREET","CAMP HILL","PA","17011"
136034,"246 N 8TH ST","BOISE","ID","83702"
136035,"246 N 8TH STREET","BOISE","ID","83702"
136036,"246 N COMMERCE AVE","SEBRING","FL","33870"
136037,"246 NORTHLAND DRIVE SUITE 20","MEDINA","OH","44256"
136038,"246 NORTHLAND DRIVE","MEDINA","OH","44256"
136039,"246 NW 183RD ST","MIAMI GARDENS","FL","33169"
136040,"246 OAKVALLEY DRIVE","MACON","GA","31217"
136041,"246 OKLAHOMA ST","ANCHORAGE","AK","99504"
136042,"246 OLD HIGHWAY 99 NORTH","BELLINGHAM","WA","98229"
136043,"246 PEARL STREET","LAWRENCE","NY","11559"
136044,"246 PICKERING DRIVE","MURRELLS INLET","SC","29576"
136045,"246 PLEASANT ST","PASADENA","CA","91101"
136046,"246 PLUMMER RD","MCLELLANDTOWN","PA","15458"
136047,"246 RATLEDGE ROAD","TOWNSEND","DE","19734"
136048,"246 RIVELY AVENUE","GLENOLDEN","PA","19036"
136049,"246 ROSE ST","COPIAGUE","NY","11726"
136050,"246 RUDI LN W","GOLDEN","CO","80403"
136051,"246 S SKINKLE ROAD","EAST JORDAN","MI","49727"
136052,"246 SAUL DRIVE","ELLENWOOD","GA","30294"
136053,"246 SOUTH CASSADY AVENUE","COLUMBUS","OH","43209"
136054,"246 SPRINGBROOK TRL S","OSWEGO","IL","60543"
136055,"246 STATE STREET","HAZLEHURST","MS","39083"
136056,"246 TIDWORTH COURT","RAEFORD","NC","28376"
136057,"246 W 116TH ST","NEW YORK","NY","10026"
136058,"246 W 6TH ST","OXNARD","CA","93030"
136059,"246 W HAMILTON AVE SUITE 3","CAMPBELL","CA","95008"
136060,"246 W LONGWOOD","DETROIT","MI","48203"
136061,"246 W THATCH PALM CIR","JUPITER","FL","33458"
136062,"246 W WASHINGTON STREET","SABINA","OH","45169"
136063,"246 WALNUT ST","NEWCOMERSTOWN","OH","43832"
136064,"246 WARREN STREET","BROOKLYN","NY","11201"
136065,"246 WEST BROAD STREET SUITE 3","QUAKERTOWN","PA","18951"
136066,"246 WEST END AVENUE APT 11D","NEW YORK","NY","10023"
136067,"246 WEST HAMILTON AVE 3","CAMPBELL","CA","95008"
136068,"246 WILLIAMS STREET","CEDAR HILL","TX","75104"
136069,"246 WINDMILL COURT","BRIDGEWATER","NJ","08807"
136070,"246 ZACKS WAY","NEWPORT","TN","37821"
136071,"246-A N JACKSON ST","GLENDALE","CA","91206"
136072,"246","RED OAK","TX","75154"
136073,"2460 AIRPORT BLVD UNIT 200","AURORA","CO","80011"
136074,"2460 ATKINSON STREET","DETROIT","MI","48206"
136075,"2460 BELL BRANCH RD","GAMBRILLS","MD","21054"
136076,"2460 BOWERS ROAD","LAPPER","MI","48446"
136077,"2460 CARLISLE STREET","MONTGOMERY","AL","36108"
136078,"2460 CHANNING ROAD","UNIVERSITY HTS","OH","44118"
136079,"2460 DAYBREAK CT","ELGIN","IL","60123"
136080,"2460 GLEBE STREET APT 412","CARMEL","IN","46032"
136081,"2460 KENLY AVE BUILDING 8265","LACKLAND AFB","TX","78236"
136082,"2460 KODIAK DRIVE","WINTERVILLE","NC","28590"
136083,"2460 MONETTE AVENUE","MEMPHIS","TN","38127"
136084,"2460 N EASTERN AVE APT14","LOS ANGELES","CA","90032"
136085,"2460 NE 128TH AVENUE","OKEECHOBEE","FL","34974"
136086,"2460 NORTH SHELLEY STREET","ALEXANDRIA","VA","22311"
136087,"2460 NORTH WEST 152 STREET","MIAMI GARDENS","FL","33054"
136088,"2460 OKA STREET SUITE 100","KILAUEA","HI","96754"
136089,"2460 REINHART RD","LOOGOOTEE","IN","47553"
136090,"2460 S LOCUST STE E","LAS CRUCES","NM","88001"
136091,"2460 S STONEBRIDGE RD","WARSAW","IN","46580"
136092,"2460 SHADOWVIEW CIRCLE","PLOVER","WI","54467"
136093,"2460 SPRINGROSE CIRCLE","VERONA","WI","53593"
136094,"2460 THE HAUL OVER","JOHNS ISLAND","SC","29455"
136095,"24600 LAKESHORE BLVD","EUCLID","OH","44123"
136096,"24600 MANISTEE","OAK PARK","MI","48237"
136097,"24600 S 186TH PL","QUEEN CREEK","AZ","85142"
136098,"24601 DANA DRIVE","DANA POINT","CA","92629"
136099,"24601 FAIRMOUNT BOULEVARD","BEACHWOOD","OH","44122"
136100,"24601 SW 137TH DAY AVE","HOMESTEAD","FL","33032"
136101,"24602 EAST ONTARIO DRIVE","AURORA","CO","80016"
136102,"24605 112TH ST E","BUCKLEY","WA","98321"
136103,"24606 S NACKE ROAD","CRETE","IL","60417"
136104,"24607 JACARTE DR","MURRIETA","CA","92562"
136105,"24607 WALNUT STREET","NEWHALL","CA","91321"
136106,"24609 102ND PLACE SE","KENT","WA","98030"
136107,"24609 COUNTY RD 20","ELKHART","IN","46517"
136108,"2461 10TH ST SUITE 203","CORALVILLE","IA","52241"
136109,"2461 ANTLERS WAY","SAN MARCOS","CA","92078"
136110,"2461 ATHERTON CT","SIMI VALLEY","CA","93065"
136111,"2461 BROOKLEDGE ROAD 33A","BRIDGEVILLE","PA","15017"
136112,"2461 CALVERT","DETROIT","MI","48206"
136113,"2461 CLEWISTON ST","SPRING HILL","FL","34609"
136114,"2461 COUNTY ROAD 23","WATERLOO","IN","46793"
136115,"2461 DAYTONA AVE","LAKE HAVASU CITY","AZ","86403"
136116,"2461 FURNACE RD","FELTON","PA","17322"
136117,"2461 G PRICE ST","MONTGOMERY","AL","36111"
136118,"2461 LANCE RIDGE WAY","BUFORD","GA","30519"
136119,"2461 MARTIN LUTHER KING JR BLVD","KNOXVILLE","TN","37915"
136120,"2461 MELROSE AVE","COLUMBUS","OH","43211"
136121,"2461 N WEST RAINTREE DR","NEW CASTLE","IN","47362"
136122,"2461 NORTH KING AVE","LUTCHER","LA","70071"
136123,"2461 NW 152ND TERRACE","OPA LOCKA","FL","33054"
136124,"2461 ROSSER ROAD","AJO","AZ","85321"
136125,"2461 SANTA MONICA BLVD SUITE 417","SANTA MONICA","CA","90404"
136126,"2461 SW 131 TERRACE","DAVIE","FL","33325"
136127,"2461 VALE DR","LEXINGTON","KY","40514"
136128,"2461 WALNUT TRAIL","ST. CHARLES","IA","50240"
136129,"2461 WEST STATE ROAD 426 UNIT 2041","OVIEDO","FL","32765"
136130,"2461","MADISON","AL","35758"
136131,"24610 AMBERLEAF CT","KATY","TX","77494"
136132,"24610 WALDEN RD W","SOUTHFIELD","MI","48033"
136133,"24612 MELODY RD","WARREN","MI","48089"
136134,"24614 MASON ST","WATERLOO","NE","68069"
136135,"24615 MADISON ST","TORRANCE","CA","90505"
136136,"24615 PACIFIC HIGHWAY SOUTH","KENT","WA","98032"
136137,"24616 NORTH 111 ST","SCOTTSDALE","AZ","85255"
136138,"24617 75TH ST","SALEM","WI","53168"
136139,"24619 90TH ST","CRESCO","IA","52136"
136140,"24619 NE 16TH ST","SAMMAMISH","WA","98074"
136141,"24619 WEST KINGSCREST CIRCLE","SPRING","TX","77389"
136142,"2462 AUTUMN MAPLE DRIVE","BRASELTON","GA","30517"
136143,"2462 BOOKSIN AVE","SAN JOSE","CA","95125"
136144,"2462 DEVOE TERRACE","BRONX","NY","10468"
136145,"2462 E UPPER HAYDEN LAKE RD","HAYDEN","ID","83835"
136146,"2462 FEATHERTREE LANE","LAWRENCEVILLE","GA","30044"
136147,"2462 FINCH LANE","WEST BEND","WI","53090"
136148,"2462 HUMBOLDT AVE","OAKLAND","CA","94601"
136149,"2462 LAKE DEBRA DRIVE   APT 2106","ORLANDO","FL","32835"
136150,"2462 W POINT AVE","ATLANTA","GA","30337"
136151,"2462 WEST PARK AVENUE","NAPA","CA","94558"
136152,"24620 MANISTEE ST","OAK PARK","MI","48237"
136153,"24620 RUSSEL ROAD R201","KENT","WA","98032"
136154,"24620 RUSSELL ROAD APT U201","KENT","WA","98032"
136155,"24624 INTERSTATE HWY 45 SUITE 200","SPRING","TX","77386"
136156,"2463 BARNESLEY PLACE","WINDSOR MILL","MD","21244"
136157,"2463 BEECH AVE","BUENA VISTA","VA","24416"
136158,"2463 BILL SMITH RD","CONROE","TX","77384"
136159,"2463 COACHMAN LAKE DRIVE","JACKSONVILLE","FL","32246"
136160,"2463 COUNTY ROAD 525","WILLIAMSVILLE","MO","63967"
136161,"2463 FIRST AVE","MOBILE","AL","36617"
136162,"2463 HARDIN FARMS LN","KNOXVILLE","TN","37932"
136163,"2463 HIGHMOOR ROAD","HIGHLAND PARK","IL","60035"
136164,"2463 N ATWOOD","MESA","AZ","85207"
136165,"2463 RIBBONWOOD RD","BOULEVARD","CA","91905"
136166,"2463 SMOKEY ROAD","NEWNAN","GA","30263"
136167,"2463 WILLOW STREET","GREENWOOD","IL","46143"
136168,"2463 WOODSTORK COURT","SAINT AUGUSTINE","FM","32092"
136169,"24630 FM 2004","ANGLETON","TX","77515"
136170,"24631 SAN MARINO DR APT 202","BROWNSTOWN","MI","48134"
136171,"24631 WILLOW TERRACE","HARBOR","CA","90710"
136172,"24631 WINE ROSE PATH","SAN ANTONIO","TX","78255"
136173,"24634 5 MILE RD STE 24","REDFORD","MI","48239"
136174,"24634 HUNTLEY DR","MORENO VALLEY","CA","92557"
136175,"24637 HUNTERS RD","GRAVETTE","AR","72736"
136176,"24638 COUNTY ROUTE 16","EVANS MILLS","NY","13637"
136177,"2464 AUSTRALIA WAY E STE 64","CLEARWATER","FL","33763"
136178,"2464 AUSTRALIA WAY EAST APT 64","CLEARWATER","FL","33763"
136179,"2464 CHARLOTTE ST","KANSAS CITY","MO","64108"
136180,"2464 EMBLETON DR","LEWISVILLE","TX","75067"
136181,"2464 GOLD RUSH AVE","HELENA","MT","59601"
136182,"2464 HARNEY ST APT 31","OMAHA","NE","68131"
136183,"2464 LYDIA WAY","NEW SMYRNA BEACH","FL","32168"
136184,"2464 M37","TRAVERSE CITY","MI","49685"
136185,"2464 N RIDGE BLVD","CHICAGO","IL","60626"
136186,"2464 PIERCE AVE","CAMBRIA","CA","93428"
136187,"2464 PIERING DRIVE","LITHONIA","GA","30038"
136188,"2464 PINERIDGE STREET","THIBDOAUX","LA","70301"
136189,"2464 PLEASURE HOUSE RD","VIRGINIA BEACH","VA","23455"
136190,"2464 SHERWOOD ROAD","BEXLEY","OH","43209"
136191,"2464 TAYLOR AVE","WHITE BEAR LAKE","MN","55110"
136192,"24640 JEFFERSON AVE UNIT 206","MURRIETA","CA","92562"
136193,"24641 WASHINGTON AVENUE","MURRIETA","CA","92562"
136194,"24642 INTERSTATE 45 N STE 200-102","SPRING","TX","77386"
136195,"24642 JERONIMO RD","LAKE FOREST","CA","92630"
136196,"24643 NEW HAVEN DR","MURRIETA","CA","92562"
136197,"24644 SYCAMORE WAY","HARBOR CITY","CA","90710"
136198,"24645 PACIFIC STREET","WATERLOO","NE","68069"
136199,"24645 SEATON CIRCUIT E","WARREN","MI","48091"
136200,"2465 ADMIRE SPRINGS DRIVE","DOVER","PA","17315"
136201,"2465 BELL WICK ROAD","HUBBARD","OH","44425"
136202,"2465 CAMPUS ROAD","HONOLULU","HI","96822"
136203,"2465 CARMICHAEL DR","CHICO","CA","95928"
136204,"2465 CARMICHAEL DRIVE","CHICO","CA","95928"
136205,"2465 CENTREVILLE RD  J17-219","HERNDON","VA","20171"
136206,"2465 CENTREVILLE ROAD STE J17-207","HERNDON","VA","20171"
136207,"2465 D STREET","LA VERNE","CA","91750"
136208,"2465 DEMERE ROAD SUITE 210","SAINT SIMONS ISLAND","GA","31522"
136209,"2465 DEMERE ROAD SUITE 210","SAINTS SIMONS ISLAND","GA","31522"
136210,"2465 EAST CLOVERDALE PARK","MONTOMERY","AL","36106"
136211,"2465 HOLLY LANE NORTH","PLYMOUTH","MN","55447"
136212,"2465 J-17 CENTREVILLE ROAD SUITE150","HERNDON","VA","20171"
136213,"2465 LAKE ERMA DRIVE","HAMPTON","GA","30228"
136214,"2465 LINCOLN AVENUE","ALTADENA","CA","91001"
136215,"2465 N 100 E","NORTH LOGAN","UT","84341"
136216,"2465 N HAVEN DR","EAGLE","ID","83616"
136217,"2465 PITCHFORK WAY","VIRGINIA BEACH","VA","23456"
136218,"2465 RODEO DRIVE","MOUNTAIN HOME","AR","72653"
136219,"2465 SW ALLEN CREEK RD","GRANTS PASS","OR","97527"
136220,"2465 W KILBY ROAD","PARK CITY","UT","84098"
136221,"2465 WEST DEERPATH DRIVE","POWHATAN","VA","23139"
136222,"24650 BLANCO RD","SAN ANTONIO","TX","78260"
136223,"24650 COLUMBUS ROAD","BEDFORD HEIGHTS","OH","44146"
136224,"24654 N LAKE PLEASANT PKWY  103-412","PEORIA","AZ","85383"
136225,"24654 N LAKE PLEASANT PKWY 103-261","PEORIA","AZ","85383"
136226,"24654 N LAKE PLEASANT PKWY 103-497","PEORIA","AZ","85383"
136227,"24654 N LAKE PLEASANT PKWY 103-504","PEORIA","AZ","85383"
136228,"24654 N LAKE PLEASANT PKWY 103-629","PEORIA","AZ","85383"
136229,"24654 N LAKE PLEASANT PKWY","PEORIA","AZ","85383"
136230,"24654 ROUTE 4","CARLINVILLE","IL","62626"
136231,"24656 LYNDON","REDFORD","MI","48239"
136232,"24659 CAVENDISH AVE E","NOVI","MI","48375"
136233,"2466 4023RD RD","SHERIDAN","IL","60551"
136234,"2466 ALVIN ST","MOUNTAIN VIEW","CA","94043"
136235,"2466 CORINTH AVE SUITE 6","LOS ANGELES","CA","90064"
136236,"2466 COUNTY ROAD DD","WOODVILLE","WI","54028"
136237,"2466 EAST  260TH STREET","WEBSTER","MN","55088"
136238,"2466 EAST 26TH STREET 2ND FLOOR","BROOKLYN","NY","11235"
136239,"2466 EAST STADIUM BLVD","ANN ARBOR","MI","48104"
136240,"2466 HARDING BLVD","BATON ROUGE","LA","70807"
136241,"2466 KIRBY RD LOT 235","ROBINSONVILLE","MS","38664"
136242,"2466 KNIGHTSHILL LANE","TOLEDO","OH","43614"
136243,"2466 MAHONING DRIVE EAST","LEHIGHTON","PA","18235"
136244,"2466 MOTOR PARKWAY","RONKONKOMA","NY","11779"
136245,"2466 TRAGG AVENUE","HERNANDO","MS","38632"
136246,"2466 W ELM STREET","LIMA","OH","45805"
136247,"2466 YADON RD","MANHATTAN","MT","59741"
136248,"24661 ALESSANDRO BLVD","MORENO VALLEY","CA","92553"
136249,"24661 COUNTY ROAD 18","NEVIS","MN","56467"
136250,"24665 LUISA DR APT 324","HARRISON TOWNSHIP","MI","48045"
136251,"24668 140TH STREET","COLUMBUS JCT","IA","52738"
136252,"2467 ASPEN LANE SW","ROCHESTER","MN","55902"
136253,"2467 BARNARD ROAD","DAYTON","PA","16222"
136254,"2467 EMERSON DRIVE","CORONA","CA","92882"
136255,"2467 HURNDON ROAD","SNELLVILLE","GA","30078"
136256,"2467 HURNDON","SNELLVILLE","GA","30078"
136257,"2467 JENNINGS ROAD","OLIN","NC","28660"
136258,"2467 KENILWORTH AVENUE","LOS ANGELES","CA","90039"
136259,"2467 LANE AVENUE SOUTH","JACKSONVILLE","FL","32210"
136260,"2467 POND CIRCLE WEST","MENDOTA HEIGHTS","MN","55120"
136261,"2467 S 19TH STREET","TERRE HAUTE","IN","47802"
136262,"2467 SPEY DRIVE","MEMPHIS","TN","38119"
136263,"2467 STATE ROUTE 10 BLDG 18-1A","MORRIS PLAINS","NJ","07950"
136264,"2467 SYCAMORE LAKES COVE","HERNDON","VA","20171"
136265,"2467 VICTORY LANE","MOBILE","AL","36617"
136266,"2467 WALL ST SE","CONYERS","GA","30013"
136267,"2467 WARRING ST UNIT 302","BERKELEY","CA","94704"
136268,"2467 WINDMILL WAY","MYRTLE BEACH","SC","29579"
136269,"2467 YARMOUTH CT","WALDORF","MD","20602"
136270,"24670 GRAVES AVE","GROSSE ILE","MI","48138"
136271,"24674 MANILA ROAD","SEDALIA","MO","65301"
136272,"24677 SUPERIOR AVE","MORENO VALLEY","CA","92551"
136273,"2468 110TH STREET","BADGER","IA","50516"
136274,"2468 ALLEN RD","ORTONVILLE","MI","48462"
136275,"2468 ARCADIA DR","ACWORTH","GA","30101"
136276,"2468 CLINTWOOD DR SW","MARIETTA","GA","30064"
136277,"2468 E EVERGREEN AVE","SALT LAKE CITY","UT","84109"
136278,"2468 HISTORIC DECATUR RD - STE 140","SAN DIEGO","CA","92106"
136279,"2468 HISTORIC DECATUR ROAD STE 140","SAN DIEGO","CA","92106"
136280,"2468 HISTORIC DECATUR ROAD SUITE 14","SAN DIEGO","CA","92106"
136281,"2468 HOOFTRAIL WAY","ANTIOCH","CA","94531"
136282,"2468 KENOGA DR","SAN JOSE","CA","95121"
136283,"2468 KETZLER DR","FLINT","MI","48507"
136284,"2468 LADERA COURT","SAN LUIS OBISPO","CA","93401"
136285,"2468 ROCK CHAPEL ROAD","LITHONIA","GA","30058"
136286,"2468 RUTHERFORD ST NW","ATLANTA","GA","30318"
136287,"2468 SURRY LANE","WINTERVILLE","NC","28590"
136288,"2468 US HIGHWAY 441/27 SUITE 104","FRUITLAND PARK","FL","34731"
136289,"2468 WILD SPRINGS CT","DECATUR","GA","30034"
136290,"2468 WILEY ST","HOLLYWOOD","FL","33020"
136291,"24681 LA PLAZA 300","DANA POINT","CA","92629"
136292,"24681 ULRICH LN","ELBERTA","AL","36530"
136293,"24688 CABLE MILL TERRACE","ALDIE","VA","20105"
136294,"2469 57TH AVENUE SUITE G","SACRAMENTO","CA","95822"
136295,"2469 CLOVER LANE","MERCED","CA","95340"
136296,"2469 COLINAS CORTE","EL CAJON","CA","92019"
136297,"2469 COUNTY ROAD 1197","BLANCHARD","OK","73010"
136298,"2469 DAWNLIGHT AVE","COLUMBUS","OH","43211"
136299,"2469 E 2350TH RD","MARSEILLES","IL","61341"
136300,"2469 FORT UNION BLVD","SALT LAKE CITY","UT","84121"
136301,"2469 LOUIS AVE","BRENTWOOD","MO","63144"
136302,"2469 N 15TH RD","WORDEN","MT","59088"
136303,"2469 N COUNTRY CLUB RD","TUCSON","AZ","85716"
136304,"2469 PARKER PL","MADISON","WI","53713"
136305,"2469 SHORELAND AVENUE","TOLEDO","OH","43611"
136306,"24690 PLEASANT STREET","ORAN","IA","50664"
136307,"24692 MILL ROAD","UTICA","OH","43080"
136308,"24695 MCDONALD STREET","DEARBORN HEIGHTS","MI","48125"
136309,"24699 GRAND RIVER AVE","DETROIT","MI","48219"
136310,"246A ESPERANZA STREET","TUBIRON","CA","94920"
136311,"247 19TH STREET","SANTA MONICA","CA","90402"
136312,"247 2ND ST","TROY","NY","12180"
136313,"247 ARKANSAS 230","CAVE CITY","AR","72521"
136314,"247 ATWOOD ST","CORYDON","IN","47112"
136315,"247 BAYBERRY LN","FOND DU LAC","WI","54935"
136316,"247 BENZING RD","ANTIOCH","TN","37013"
136317,"247 BERRY STREET","HACKENSACK","NJ","07601"
136318,"247 BLUE HILL AVE","ROXBURY","MA","02119"
136319,"247 CAYUGA ROAD","CHEEKTOWAGA","NY","14225"
136320,"247 CHESTATEE COURT","SIMPSONVILLE","SC","29680"
136321,"247 CHURCH ST","DEPORT","TX","75435"
136322,"247 CLOVERDALE RD","BLOOMINGDALE","IL","60108"
136323,"247 CORNELIUS ROAD","PORTERSVILLE","PA","16051"
136324,"247 CRAWFORD STREET","NORTHBOROUGH","MA","01532"
136325,"247 CRUSHED APPLE DRIVE","MARTINSBURG","WV","25403"
136326,"247 CRYSTAL DOWNS WAY","SUWANEE","GA","30024"
136327,"247 DAVIDSON RIDGE RD","YORK","SC","29745"
136328,"247 DEER RUN ROAD","PALM BAY","FL","32909"
136329,"247 DESSIE RD","CHADBOURN","NC","28431"
136330,"247 DORWIN AVE","SYRACUSE","NY","13205"
136331,"247 DOUBLE SPRINGS RD","BOWLING GREEN","KY","42101"
136332,"247 E 92ND STREET","LOS ANGELES","CA","90003"
136333,"247 EAST 121 STREET","NEW YORK","NY","10035"
136334,"247 ELLERY AVENUE","NEWARK","NJ","07106"
136335,"247 ENGLAND DRIVE","O'FALLON","MO","63366"
136336,"247 FIRE LAKE ROAD","CRYSTAL FALLS","MI","49920"
136337,"247 GLENDOWER RD","SCOTTSVILLE","VA","24590"
136338,"247 GRANITE STREET","ASHLAND","OR","97520"
136339,"247 GROVER AVE","TRENTON","NJ","08610"
136340,"247 HARBOR LANE","MASSAPEQUA PARK","NY","11762"
136341,"247 HILL BRANCH RD","RIDGEVILLE","SC","29472"
136342,"247 HILL ROAD","VENTURA","CA","93003"
136343,"247 HILLMAN AVE","STATEN ISLAND","NY","10314"
136344,"247 HOOKER AVE","POUGHKEEPSIE","NY","12603"
136345,"247 HUNTINGTON RD","BRIDGEPORT","CT","06608"
136346,"247 IRVING AVENUE","BROOKLYN","NY","11237"
136347,"247 JACK LONDON COURT","PITTSBURG","CA","94565"
136348,"247 KESTREL LANE","BOALSBURG","PA","16827"
136349,"247 LISA LANE","NASHVILLE","TN","37210"
136350,"247 LITTLE MAIL ROUTE ROAD","WINNFIELD","LA","71483"
136351,"247 LYDIA DR SE","ATLANTA","GA","30315"
136352,"247 MAIN STREET E PO BOX 211","WATERVILLE","MN","56096"
136353,"247 MAIN STREET","GLEN ROCK","NJ","07452"
136354,"247 MAPLE AVE","PHILIPPI","WV","26416"
136355,"247 MAPLE DRIVE","LOS ALAMOS","NM","87544"
136356,"247 MAPLE STREET","FRANKLIN","MA","02038"
136357,"247 MARKET STREET SUITE 201","LOCKPORT","NY","14094"
136358,"247 MATHILDA DRIVE APT 1","GOLETA","CA","93117"
136359,"247 MEARS RD","MILTON","VT","05468"
136360,"247 MOLASSES LANE","MT. PLEASANT","SC","29464"
136361,"247 MORNINGSIDE HEIGHTS DRIVE","SENECA","SC","29678"
136362,"247 MT PROSPECT AVE  2ND FLOOR","NEWARK","NJ","07104"
136363,"247 N COOPER AVE","CINCINNATI","OH","45215"
136364,"247 NANCY LANE","CORBIN","KY","40701"
136365,"247 NEW YORK AVE 2B","BROOKLYN","NY","11216"
136366,"247 NORTH 100 EAST","OREM","UT","84057"
136367,"247 NORWAY RD","BANGOR","ME","04401"
136368,"247 OAKLAWN AVENUE","CRANSTON","RI","02920"
136369,"247 PLANTATION ST","WORCESTER","MA","01604"
136370,"247 RALPH AVENUE APT 2","BROOKLYN","NY","11233"
136371,"247 RIVER LAUREL WAY","WOODSTOCK","GA","30188"
136372,"247 S 200 E","SPANISH FORK","UT","84660"
136373,"247 S 678","MOORE","SC","29369"
136374,"247 S BRIDGE ST PMB 211","ELKTON","MD","21921"
136375,"247 S HILL ROAD","VENTURA","CA","93003"
136376,"247 S HUNTINGTON ST","MEDINA","OH","44256"
136377,"247 S LOUDON AVE","BALTIMORE","MD","21229"
136378,"247 SECOND STREET   PO BOX 102","YATESBORO","PA","16263"
136379,"247 SHARON HILLS DRIVE","JACKSON","MS","39212"
136380,"247 SHEPARD AVENUE","EAST ORANGE","NJ","07018"
136381,"247 SHIVAR LN","TRENTON","NC","28585"
136382,"247 SILVER ST","HOT SPRINGS","AR","71901"
136383,"247 SOUTH 2ND ST","JESUP","GA","31545"
136384,"247 STRATFORD LANE","JACKSON","TN","38305"
136385,"247 STRAWRIDGE ROAD","WALLKILL","NY","12589"
136386,"247 SW LOWERY TER","FORT WHITE","FL","32038"
136387,"247 TALBOT AVE","BOSTON","MA","02124"
136388,"247 THURBERS AVE UNIT D","PROVIDENCE","RI","02905"
136389,"247 TURTLE CREEK DRIVE","WINDER","GA","30680"
136390,"247 UNION HILL CHURCH ROAD","HENDERSONVILLE","NC","28792"
136391,"247 VAN BUREN DR","RAEFORD","NC","28376"
136392,"247 W 23RD PL","CHICAGO","IL","60616"
136393,"247 W 38TH STREET RM 1003","NEW YORK","NY","10018"
136394,"247 W 6TH ST","CHELSEA","OK","74016"
136395,"247 W ROCKLAND STREET","PHILADELPHIA","PA","19120"
136396,"247 WEST KING HWY","EDEN","NC","27288"
136397,"247 WEST MILAM STREET","WHARTON","TX","77488"
136398,"247 WILSON AVE","BROOKLYN","NY","11237"
136399,"247 WOODLAND ROAD","MADISON","NJ","07940"
136400,"247-30 NORTHERN BOULEVARD","LITTLE NECK","NY","11362"
136401,"247","POTTSTOWN","NJ","19464"
136402,"2470 8TH AVENUE 5B","NEW YORK","NY","10027"
136403,"2470 8TH STREET","WYANDOTTE","MI","48192"
136404,"2470 APERTURE CIR","SAN DIEGO","CA","92108"
136405,"2470 AVALANCHE TRAIL","LAS VEGAS","NV","89124"
136406,"2470 BARTLETT ROAD","MANTUA","OH","44255"
136407,"2470 CLOWER LANE","BARTOW","FL","33830"
136408,"2470 CYPRESS AVE","EUREKA","CA","95503"
136409,"2470 DANIELLS BRIDGE ROAD SUITE 201","ATHENS","GA","30606"
136410,"2470 DELAWARE AVE SW","CANTON","OH","44706"
136411,"2470 FARRANCE CT","N FORT MYERS","FL","33917"
136412,"2470 FLINT CREEK DRIVE","CUMMING","GA","30041"
136413,"2470 HOLT AVENUE","COLUMBUS","OH","43219"
136414,"2470 LIGHTS CHAPEL ROAD","GREENBRIER","TN","37073"
136415,"2470 NORTH FAIRFIELD ROAD","LAYTON","UT","84041"
136416,"2470 PATTERSON RD STE 1","GRAND JUNCTION","CO","81505"
136417,"2470 PINE CONE DRIVE","TUCKER","GA","30084"
136418,"2470 PIONEER AVENUE","PITTSBURGH","PA","15226"
136419,"2470 PUGHSLEY RD","STAPLETON","GA","30823"
136420,"2470 REALM STREET","CHARLESTON","SC","29406"
136421,"2470 STATE ROUTE 138","SARDINIA","OH","45171"
136422,"2470 STEARNS STREET -148","SIMI VALLEY","CA","93063"
136423,"2470 W CORDOVA PLACE","PAHRUMP","NV","89060"
136424,"2470 W KETTLE AVE","LITTLETON","CO","80120"
136425,"2470 W WHITESTONE DRIVE","MERIDIAN","ID","83646"
136426,"2470 WEST BENT OAK CIRCLE","NORTH CANTON","OH","44720"
136427,"2470 WHITEHEAD PLACE DR","SUWANEE","GA","30024"
136428,"2470 WINDY HILL RD STE 300","MARIETTA","GA","30067"
136429,"2470 WINDY HILL ROAD SUITE 300","MARIETTA","GA","30067"
136430,"2470 WINDY HILL ROAD","SMYRNA","GA","30067"
136431,"24700 CENTER RIDGE RD STE 310","WESTLAKE","OH","44145"
136432,"24700 KEENE COURT","TEHACHAPI","CA","93561"
136433,"24701 S DIXIE HWY","HOMESTEAD","FL","33032"
136434,"24701 SANTA CLARA AVENUE","DANA POINT","CA","92629"
136435,"24703 SKYRIDGE PARK LANE","RICHMOND","TX","77406"
136436,"24705 MILLER HILL RD","LOS GATOS","CA","95033"
136437,"24705 US HWY 19 N SUITE 306","CLEARWATER","FL","33763"
136438,"24706 ABITA AVE","LOMITA","CA","90717"
136439,"24706 TIMBERLAKE DR","GREENWOOD","MO","64034"
136440,"24707 OCONEE DR","TOMBALL","TX","77375"
136441,"24708 172ND AVE SE","KENT","WA","98042"
136442,"2471 78TH AVENUE","PHILADELPHIA","PA","19150"
136443,"2471 BIRD ST","OROVILLE","CA","95965"
136444,"2471 CHUCK WAGON PLACE APT 1206","TWIN FALLS","ID","83301"
136445,"2471 CYPRESS GREEN LANE","HERNDON","VA","20171"
136446,"2471 E MAUMEE STREET","ADRIAN","MI","49221"
136447,"2471 FALCON VALLEY DRIVE","CHULA VISTA","CA","91914"
136448,"2471 FIELDSTONE RD SW","ROCHESTER","MN","55902"
136449,"2471 HIGHWAY 40","MADISON","MN","56256"
136450,"2471 HUGHES CT","ATLANTA","GA","30331"
136451,"2471 JOSHUA LANE","WINSTON SALEM","NC","27127"
136452,"2471 LAKELAND DRIVE","GRAND PRAIRIE","TX","75054"
136453,"2471 NORTHWEST 181ST TERRACE","MIAMI GARDENS","FL","33056"
136454,"2471 POLHEMUS RD","TOMS RIVER","NJ","08753"
136455,"2471 PRINCETON DR","SAN BRUNO","CA","94066"
136456,"2471 RAYMOND AVENUE","NORTH CHARLESTON","SC","29406"
136457,"2471 ROSEBUD DRIVE","MOBILE","AL","36695"
136458,"2471 SAWTELLE BLVD APT 204","LOS ANGELES","CA","90064"
136459,"2471 US 20A","SWANTON","OH","43558"
136460,"2471 W BLOSSER RANCH ROAD","PAHRUMP","NV","89060"
136461,"24710 SUMMIT FIELD ROAD","CARMEL","CA","93923"
136462,"24712 W 91ST TER","LENEXA","KS","66227"
136463,"24714 BETTS POND RD","MILLSBORO","DE","19966"
136464,"24714 E CHENANGO DRIVE","AURORA","CO","80016"
136465,"24714 SEAGROVE AVENUE","WILMINGTON","CA","90744"
136466,"24716 HARBOUR VIEW DRIVE","PONTE VEDRA BEACH","FL","32082"
136467,"24717 CUBBERNESS STREET","SAINT CLAIR SHORES","MI","48080"
136468,"24717 MASON ST","BLACK DIAMOND","WA","98010"
136469,"24719 BAMBOO COURT","MORENO VALLEY","CA","92553"
136470,"2472 BRITT LANE","DOUGLASVILLE","GA","30135"
136471,"2472 CHAMBERS ROAD SUITE 230","TUSTIN","CA","92780"
136472,"2472 DENTON AVE","ROSEMEAD","CA","91770"
136473,"2472 EL TAMBOR DR","PITTSBURG","CA","94565"
136474,"2472 ELECTRA DRIVE","ALLEN","TX","75013"
136475,"2472 HONEYSUCKLE LANE","BERRIEN SPRINGS","MI","49103"
136476,"2472 MEADOWOOD DR","VALLEY SPRINGS","CA","95252"
136477,"2472 MILLVALLEY DR","FLORISSANT","MO","63031"
136478,"2472 MULBERRY SQUARE APT 21","BLOOMFIELD HILLS","MI","48302"
136479,"2472 N 141ST LN","GOODYEAR","AZ","85395"
136480,"2472 NORTHSIDE DR","STATESVILLE","NC","28625"
136481,"2472 PATTERSON ROAD UNIT 1","GRAND JUNCTION","CO","81505"
136482,"2472 S GENOA WAY","AURORA","CO","80013"
136483,"2472 TRANSOM PL","WOODBRIDGE","VA","22191"
136484,"2472 WALNUT AVENUE","TUSTIN","CA","92780"
136485,"24720 CLANCEY AVENUE","MATTAWAN","MI","49071"
136486,"24720 TIOGA ST","SOUTHFIELD","MI","48033"
136487,"24723 BOGEY RIDGE","SAN ANTONIO","TX","78260"
136488,"24723 HWY 149","CREEDE","CO","81130"
136489,"24724 FARMBROOK ROAD SUITE 100","SOUTHFIELD","MI","48034"
136490,"24725 PENNSYLVANIA AVE B20","LOMITA","CA","90717"
136491,"24725 W TWELVE MILE ROAD SUITE 100","SOUTHFIELD","MI","48034"
136492,"24728 VIA PRADERA","CALABASAS","CA","91302"
136493,"2473 DUSKY COURT","TALLAHASSEE","FL","32309"
136494,"2473 GUERNEVILLE ROAD","SANTA ROSA","CA","95403"
136495,"2473 HYMAN PLACE","NEW ORLEANS","LA","70131"
136496,"2473 MANCHESTER BLVD","INGLEWOOD","CA","90305"
136497,"2473 MAPLEWOOD DR","ASBURY","IA","52002"
136498,"2473 S HIGLEY RD  104 125","GILBERT","AZ","85295"
136499,"2473 S HIGLEY RD NBR 104","GILBERT","AZ","85295"
136500,"2473 S HIGLEY ROAD SUITE 104-210","GILBERT","AZ","85295"
