"ID","Address","City","State","Zip"
306501,"8816 RENTON AVE S","SEATTLE","WA","98118"
306502,"8816 S KY 32","ISONVILLE","OH","41149"
306503,"8817 BRYSON BEND DRIVE","CHARLOTTE","NC","28277"
306504,"8817 GOODFELLOW BLVD","SAINT LOUIS","MO","63147"
306505,"8817 HIGHWAY 6 STE 700","MISSOURI CITY","TX","77459"
306506,"8817 POLLAND AVE","SAN DIEGO","CA","92123"
306507,"8817 S BROADWAY","HIGHLANDS RANCH","CO","80129"
306508,"8817 SW GREENING LANE","TIGARD","OR","97224"
306509,"8818 210TH STREET","QUEENS VILLAGE","NY","11427"
306510,"8818 CRENSHAW BLVD","INGLEWOOD","CA","90305"
306511,"8818 EASTHEIMER STREET","HOUSTON","TX","77064"
306512,"8818 GOODBYS EXECUTIVE DR","JACKSONVILLE","FL","32217"
306513,"8818 GREYHAWK DR","FT WAYNE","IN","46835"
306514,"8818 PINEY BRANCH ROAD","SILVER SPRING","MD","20903"
306515,"8818 S EGGLESTON","CHICAGO","IL","60620"
306516,"8818 SLEEPY HOLLOW LANE","POTOMAC","MD","20854"
306517,"8818 SLEEPY HOLLOW LN","POTOMAC","MD","20854"
306518,"8818 TARVER DRIVE","TEMPLE","TX","76502"
306519,"8818 VILLA VIEW CIRCLE","ORLANDO","FL","32821"
306520,"8818 WEEMS ROAD","MANASSAS","VA","20110"
306521,"8818 ZEPHYR RANCH RD","ZEPHYRHILLS","FL","33541"
306522,"8819 AUDRIE RAE LN","CYPRESS","TX","77433"
306523,"8819 BOOM CIRCLE","ANCHORAGE","AK","99502"
306524,"8819 DISTANT WOODS DRIVE","HOUSTON","TX","77095"
306525,"8819 E FREDERICK AVE","MILLWOOD","WA","99212"
306526,"8819 KILRENNY DR","SPRING","TX","77379"
306527,"8819 SE KNAPP ST","PORTLAND","OR","97266"
306528,"8819 SEGUIN COVE LN","RICHMOND","TX","77407"
306529,"8819 SHINING OCEANS WAY","COLUMBIA","MD","21045"
306530,"8819 TORREY PINES DR","CHESTERFIELD","VA","23832"
306531,"8819 UNIVERSITY EAST DR STE 201","CHARLOTTE","NC","28213"
306532,"881WINDSOR GREEN DR","VILLA HILLS","KY","41017"
306533,"882 13TH AVENUE SOUTH","ST PETERSBURG","FL","33701"
306534,"882 BAY STREET","SEBRING","FL","33870"
306535,"882 BRIAR DR","DELAWARE","OH","43015"
306536,"882 CLEVELAND ST APT 21","OAKLAND","CA","94606"
306537,"882 COLLEGE PARKWAY APT 302","ROCKVILLE","MD","20850"
306538,"882 COUNTY ROAD 461","ENGLEWOOD","TN","37329"
306539,"882 E NEW YORK AVENUE","BROOKLYN","NY","11203"
306540,"882 E WORTH AVE","PORTERVILLE","CA","93257"
306541,"882 EAST WORTH AVE","PORTERVILLE","CA","93257"
306542,"882 EDISON RD","GRAYSON","KY","41143"
306543,"882 HALYARD","NEWPORT BEACH","CA","92663"
306544,"882 HERITAGE OAKS DR","STONE MOUNTAIN","GA","30088"
306545,"882 HERITAGE PLACE","DECATUR","GA","30033"
306546,"882 HIGHWAY 92 S","DANDRIDGE","TN","37725"
306547,"882 HILLSIDE AVENUE","ALBANY","CA","94706"
306548,"882 HUNTING HORN WAY","EVANS","GA","30809"
306549,"882 JENNY LANE","BERTHOUD","CO","80513"
306550,"882 MONTRACHET CT","LEWISVILLE","NC","27023"
306551,"882 PATHVIEW COURT","DACULA","GA","30019"
306552,"882 ROCK SPRINGS ROAD","LAVONIA","GA","30553"
306553,"882 ROCKWOOD LANE","TRYON","NC","28782"
306554,"882 SHADOW OAK BEND","MARYSVILLE","OH","43040"
306555,"882 SUMMERFIELD DR","WESTLAND","MI","48185"
306556,"882 SUNSET RIDGE PLACE","CHULA VISTA","CA","91914"
306557,"882 WEST HIGHWAY 150","LINCOLNTON","NC","28092"
306558,"882 WOOD STREET","OAKLAND","CA","94607"
306559,"8820      E     33RD ST","INDIANAPOLIS","IN","46226"
306560,"8820 AVENUE J APT 3C","BROOKLYN","NY","11236"
306561,"8820 AVENUE J APT 3D","BROOKLYN","NY","11236"
306562,"8820 BASELINE RD","BATTLE CREEK","MI","49017"
306563,"8820 E 33 RD","INDIANAPOLIS","IN","46226"
306564,"8820 LILLINGTON CIRCLE","MONTGOMERY","AL","36117"
306565,"8820 MARSH AIRE LANE","EDISTO ISLAND","SC","29438"
306566,"8820 MEISENHEIMER AVENUE","LAS VEGAS","NV","89143"
306567,"8820 N SEVEN MILE RD","NINE MILE FALLS","WA","99026"
306568,"8820 REEDS CORNERS RD","DANSVILLE","NY","14437"
306569,"8820 RIXLEW LANE","MANASSAS","VA","20109"
306570,"8820 W 33RD STREET","INDIANAPOLIS","IN","46226"
306571,"8820 W BOONE PRAIRIE RD","FRANKLIN","TX","77856"
306572,"8820 W RUSSELL RD STE 155","LAS VEGAS","NV","89148"
306573,"8820 WAYNELL COURT","NAVARRE","FL","32566"
306574,"8820 WEST ACAPULCO LANE","PEORIA","AZ","85381"
306575,"8820 WESTHEIMER ROAD APT 1340","HOUSTON","TX","77063"
306576,"8821 DANIA DRIVE","PALM BEACH GARDENS","FL","33410"
306577,"8821 MANCHESTER RD","BRENTWOOD","MO","63144"
306578,"8821 VALLEY RCH PKWY E 122","IRVING","TX","75063"
306579,"8821 VILLANOVA AVE","LOS ANGELES","CA","90056"
306580,"8822 237TH ST","BELLEROSE","NY","11426"
306581,"8822 N 69TH DRIVE","PEORIA","AZ","85345"
306582,"8822 S UNION AVE","TULSA","OK","74132"
306583,"8822 SPECTRUM CENTER BLVD","SAN DIEGO","CA","92123"
306584,"8822 SVL BOX","VICTORVILLE","CA","92395"
306585,"8823 1/2 DORRINGTON AVE","WEST HOLLYWOOD","CA","90048"
306586,"8823 ANTRIM DR","DALLAS","TX","75218"
306587,"8823 CALLAGHAN RD","SAN ANTONIO","TX","78230"
306588,"8823 HOLLY DRIVE H-204","EVERETT","WA","98208"
306589,"8823 OWENFIELD DR","POWELL","OH","43065"
306590,"8823 SANDIFUR PARKWAY","PASCO","WA","99301"
306591,"8824 BRUNSWICK FARMS DR","ARLINGTON","TN","38002"
306592,"8824 BUFFALOE RD","KNIGHTDALE","NC","27545"
306593,"8824 CHURCH LANE","RANDALLSTOWN","MD","21133"
306594,"8824 HATTON COURT","CHARLOTTE","NC","28277"
306595,"8824 KELSEY DR","ELK GROVE","CA","95624"
306596,"8824 LEATRICE DRIVE","LITTLE ROCK","AR","72227"
306597,"8824 NORTH BROADWAY","SAINT LOUIS","MO","63147"
306598,"8824 RIVERWELL CIR W","HOUSTON","TX","77083"
306599,"8825 AERO DRIVE STE 200","SAN DIEGO","CA","92123"
306600,"8825 ASPINWALL DRIVE  107","CHARLOTT","NC","28216"
306601,"8825 E 93RD ST","TULSA","OK","74133"
306602,"8825 GULF DRIVE  APT A","FORT WAYNE","IN","46825"
306603,"8825 N 23 AVENUE STE 100","PHOENIX","AZ","85021"
306604,"8825 OAKWOOD DR","LAKE WALES","FL","33898"
306605,"8825 RAMBLEWOOD DRIVE SUITE 1505","CORAL SPRINGS","FL","33071"
306606,"8825 S ASOTIN ST","TACOMA","WA","98444"
306607,"8825 S CALUMET AVE","CHICAGO","IL","60619"
306608,"8825 TROPICAL PALM DR","TAMPA","FL","33626"
306609,"8825 WHITE OAK AVENUE","MUNSTER","IN","46321"
306610,"8825 WINTERBROOK ROAD","RANDALLSTOWN","MD","21133"
306611,"8826 ARRABIDA LN","ORLANDO","FL","32836"
306612,"8826 BANDERA ST","LOS ANGELES","CA","90002"
306613,"8826 CAVALRY DRIVE","FAIR OAKS RANCH","TX","78015"
306614,"8826 FORSHEY STREET","NEW ORLEANS","LA","70118"
306615,"8826 MAY AVENUE","SAINT LOUIS","MO","63136"
306616,"8826 RAMSBURY WAY","WILMINGTON","NC","28411"
306617,"8826 SE 28TH AVE","MILWAUKIE","OR","97222"
306618,"8826 SO HARPER","CHICAGO","IL","60619"
306619,"8826 TODD STREET ROAD","SUNBURY","OH","43074"
306620,"8826 VENIKOV PL","ORANGEVALE","CA","95662"
306621,"8826 WEST MARKET STREET","COLFAX","NC","27235"
306622,"8826 WHISPER GATE","FAIR OAKS RANCH","TX","78015"
306623,"8826","MORTON GROVE","IL","60053"
306624,"8827 31ST AVE","SEATTLE","WA","98126"
306625,"8827 HARGRAVE STREET","PHILADELPHIA","PA","19152"
306626,"8827 HIGHLAND LAKE DR","GEORGETOWN","IN","47122"
306627,"8827 NEWTON DRIVE","OVERLAND PARK","KS","66212"
306628,"8827 RUTHELEN STREET","LOS ANGELES","CA","90047"
306629,"8828 BURNET AVE STE 4","NORTH HILLS","CA","91343"
306630,"8828 PERSHING DRIVE UNIT 204","PLAYA DEL REY","CA","90293"
306631,"8828 RIVERVIEW","REDFORD","MI","48239"
306632,"8828 S MOZART AVE","EVERGREEN PARK","IL","60805"
306633,"8828 ST THOMAS CIRCLE","DALLAS","TX","75228"
306634,"8828 SUN HAVEN WAY","FORTH WORTH","TX","76244"
306635,"88289 YOUNGS RIVER RD","ASTORIA","OR","97103"
306636,"8829 CYPRESS CREEK RD","LANATA","TX","76226"
306637,"8829 GLENARDEN PARKWAY","LANHAM","MD","20706"
306638,"8829 JUDWIN STREET","HOUSTON","TX","77079"
306639,"8829 LEM TURNER RD","JACKSONVILLE","FL","32208"
306640,"8829 NORTH MARCUS STREET","WRIGHTSVILLE","GA","31096"
306641,"8829 TINNEY ROAD SE","DENNISON","OH","44621"
306642,"88299 HUSTON RD","VENETA","OR","97487"
306643,"883 ASPEN DRIVE","LITHIA SPRINGS","GA","30122"
306644,"883 BEATRICE PKWY","EDISON","NJ","08820"
306645,"883 BROADWAY AVE","LOWELL","MA","01854"
306646,"883 CAPTAIN SHREVE DR","SHREVEPORT","LA","71105"
306647,"883 COUNTY ROAD 2125N","CHAMPAIGN","IL","61822"
306648,"883 DAW PATE ROAD","PIKEVILLE","NC","27863"
306649,"883 EAST MADISON ROAD","MADISON","ME","04950"
306650,"883 FULLER AVE","SAINT PAUL","MN","55104"
306651,"883 HUNTINGTON DRIVE","HIGHLANDS RANCH","CO","80126"
306652,"883 MYSTIC WOODS DRIVE","HOWELL","MI","48843"
306653,"883 N 350 E","PRINCETON","IN","47670"
306654,"883 ST CHARLES DR APT17","THOUSAND OAKS","CA","91360"
306655,"883 WAGMYR LANE","LOGANTON","PA","17747"
306656,"883 WESTPOINTE CIRCLE","SALT LAKE CITY","UT","84116"
306657,"8830 1ST AVE NE","SEATTLE","WA","98115"
306658,"8830 ARCH ROCK DR","CYPRESS","TX","77433"
306659,"8830 ASHGROVE HOUSE LANE 102","VIENNA","VA","22182"
306660,"8830 BLUE GRASS","STOCKTON","CA","95210"
306661,"8830 E 29TH AVE","DENVER","CO","80238"
306662,"8830 EAST 35TH STREET","INDIANAPOLIS","IN","46226"
306663,"8830 FLICKER RD","TALLAHASSEE","FL","32305"
306664,"8830 GREENWOOD AVE","SAN GABRIEL","CA","91775"
306665,"8830 LEA BROOK ST","FAIRHOPE","AL","36532"
306666,"8830 MAPLEBROOK LANE","MINT HILL","NC","28227"
306667,"8830 S BISHOP","CHICAGO","IL","60620"
306668,"8830 S GENTIO RD","JETERSVILLE","VA","23083"
306669,"8830 SW 68 COURT UNIT D4","MIAMI","FL","33156"
306670,"8831 ALBATROSS DR","HUNTINGTON BEACH","CA","92646"
306671,"8831 BARNETT VALLEY ROAD","SEBASTOPOL","CA","95472"
306672,"8831 E 77TH PL","TULSA","OK","74133"
306673,"8831 N 17TH LANE","PHOENIX","AZ","85021"
306674,"8831 OTTER COVE CIRCLE","INDIANAPOLIS","IN","46236"
306675,"8831 S GRAMERCY PL","LOS ANGELES","CA","90047"
306676,"8831 SHADOWLAKE WAY","SPRINGFIELD","VA","22153"
306677,"8831 SW 17TH AVENUE","STUART","FL","34997"
306678,"8831 VINEYARD HAVEN DRIVE","DUBLIN","OH","43016"
306679,"8831 WEST HARBOR LANE","HOMOSASSA","FL","34448"
306680,"8832 BRENNAN CIRCLE APT 208","TAMPA","FL","33615"
306681,"8832 NORTH BROOK CIRCLE NORTH","BROOKLYN PARK","MN","55428"
306682,"8832 S BLACKSTONE","CHICAGO","IL","60619"
306683,"8832 SW 72ND ST APT M276","MIAMI","FL","33173"
306684,"8832 THREE CHIMNEYS DRIVE EAST","GERMANTOWN","TN","38138"
306685,"8833 ACADEMY DRIVE","BUENA PARK","CA","90620"
306686,"8833 EATONWICK DRIVE","CORDOVA","TN","38016"
306687,"8833 FRONTBEACH RD","PANAMA CITY BEACH","FL","32407"
306688,"8833 LAKE ROAD","UNION CITY","GA","30291"
306689,"8833 MAPLE RIDGE TRAIL","FORT WORTH","TX","76244"
306690,"8833 S 2700 W PO BOX 998","WEST JORDAN","UT","84084"
306691,"8834 250TH AVE NE","REDMOND","WA","98053"
306692,"8834 DENKER CIRCLE","WICHITA","KS","67210"
306693,"8834 E 34 RD 13 SMB 12139","CADILLAC","MI","49601"
306694,"8834 GALBRAITH RD","CHEBOYGAN","MI","49721"
306695,"8834 GORGOZA DRIVE","PARK CITY","UT","84098"
306696,"8834 RESEDA BLVD  PMB 4448","NORTHRIDGE","CA","91324"
306697,"8834 RESEDA BLVD SUITE 2080","NORTHRIDGE","CA","91324"
306698,"8835 164TH ST APT6AS","JAMAICA","NY","11432"
306699,"8835 BROOK DRIVE","WALDORF","MD","20603"
306700,"8835 CLEARWATER DR","DALLAS","TX","75243"
306701,"8835 COOLEY RD","RAVENNA","OH","44266"
306702,"8835 CRESSON DRIVE","DENHAM SPRINGS","LA","70726"
306703,"8835 NE 4TH AVENUE ROAD","MIAMI SHORES","FL","33138"
306704,"8835 ORCHID VALLEY WAY","CYPRESS","TX","77433"
306705,"8835 RAMBLEWOOD DRIVE APT1610","CORAL SPRINGS","FL","33071"
306706,"8835 RIFLE ROAD","LINCOLN","NE","68516"
306707,"8835 S HERMITAGE AVENUE","CHICAGO","IL","60620"
306708,"8835 SW 107 AVE NO 329","MIAMI","FL","33176"
306709,"8835 SW 107TH AVENUE  UNIT 294","MIAMI","FL","33176"
306710,"8835 SW CANYON LANE STE 402","PORTLAND","OR","97225"
306711,"8835 SW107TH AVE STE 347","MIAMI","FL","33143"
306712,"8835 SWASEY DR","REDDING","CA","96001"
306713,"8836 CHAPS AVENUE","FORT WORTH","TX","76244"
306714,"8836 COUNTY ROAD 128","CELINA","TX","75009"
306715,"8836 PECAN TREE DR","BATON ROUGE","LA","70810"
306716,"8836 S DANTE AVE APT 3","CHICAGO","IL","60619"
306717,"8836 WEST GAGE BLVD SUITE 204A","KENNEWICK","WA","99336"
306718,"8836 WORTHINGTON CIRCLE","INDIANAPOLIS","IN","46278"
306719,"8837 4TH STREET","STUART","OK","74570"
306720,"8837 CHINABERRY CIRCLE","MACEDONIA","OH","44056"
306721,"8837 DUNLAP ST","HOUSTON","TX","77074"
306722,"8837 LATREC AVENUE NO 302","ORLANDO","FL","32819"
306723,"8837 ORMAND WAY","WAKE FOREST","NC","27587"
306724,"8838 FARM RIDGE LN","HUMBLE","TX","77338"
306725,"8838 PHOENIX AVE","FAIR OAKS","CA","95628"
306726,"8838 S 2ND AVE","PHOENIX","AZ","85041"
306727,"8838 SOUTH SECOND AVE","PHOENIX","AZ","85041"
306728,"8839 28TH AVE SW","SEATTLE","WA","98126"
306729,"8839 E MCCLELLAN ST","TUCSON","AZ","85710"
306730,"8839 N CEDAR APT 314","FRESNO","CA","93720"
306731,"88395 TIMBERLINE DRIVE","VENETA","OR","97487"
306732,"884 3RD ST D","SANTA ROSA","CA","95403"
306733,"884 ALVARADO STREET","SAN FRANCISCO","CA","94114"
306734,"884 BLEECKER ST","UTICA","NY","13501"
306735,"884 CASTLETON AVENUE","STATEN ISLAND","NY","10310"
306736,"884 CHESTERFIELD ROAD","ANNAPOLIS","MD","21401"
306737,"884 CLONMEL DR","MATTHEWS","NC","28104"
306738,"884 MAIDEN LANE","ROCHESTER","NY","14615"
306739,"884 MCDONALD AVE","BROOKLYN","NY","11218"
306740,"884 MEADOW LANE","FRANKLIN LAKES","NJ","07417"
306741,"884 MURPHY AVE SW","ATLANTA","GA","30310"
306742,"884 N 1040 W","MAPLETON","UT","84664"
306743,"884 NEWFIELD AVENUE","STAMFORD","CT","06905"
306744,"884 NW 135TH CT","MIAMI","FL","33182"
306745,"884 NW TEXAS AVENUE","LAKE CITY","FL","32055"
306746,"884 SOUTH 3RD STREET","INDIANA","PA","15701"
306747,"884 WASHINGTON STREET","WEYMOUTH","MA","02189"
306748,"884 WEST END AVENUE - NO 103","NEW YORK","NY","10025"
306749,"8840 APPLEBY LANE","INDIANAPOLIS","IN","46256"
306750,"8840 CALICO WAY","STAGECOACH","NV","89429"
306751,"8840 E SUNLAND AVE  LOT 154","MESA","AZ","85208"
306752,"8840 GRAY ROAD","BARODA","MI","49101"
306753,"8840 LIMNOL STREET","RENO","NV","89506"
306754,"8840 LOCKRIDGE RD","FOLEY","AL","36535"
306755,"8840 M 72 EAST","WILLIAMSBURG","MI","49690"
306756,"8840 MARLOWE","DETROIT","MI","48228"
306757,"8840 NIAGARA DR","FONTANA","CA","92335"
306758,"8840 RIXLEW LN","MANASSAS","VA","20109"
306759,"8840 ROLLIN SUNSET DRIVE","WINONA","MN","55987"
306760,"8840 SW 204 STREET","CUTLER BAY","FL","33189"
306761,"8841 DORAL DRIVE","MENTOR","OH","44060"
306762,"8841 FOOTHILL BLVD STUDIO 4","RANCHO CUCAMONGA","CA","91730"
306763,"8841 FOOTHILL BOULEVARD","RANCHO CUCAMONGA","CA","91730"
306764,"8841 S MERRILL AVE","CHICAGO","IL","60617"
306765,"8841 S MERRILL","CHICAGO","IL","60617"
306766,"8841 SYNDICATE AVE","LEXINGTON","MN","55014"
306767,"8842 BROWNING DR APT E","INDIANAPOLIS","IN","46227"
306768,"8842 EAST  77TH STREET","TULSA","OK","74133"
306769,"8842 HANLEY","CROWN POINT","IN","46307"
306770,"8842 NEW BRIDGE RD","DENTON","MD","21629"
306771,"8842 RIDGECREST DRIVE","VALLES MINES","MO","63087"
306772,"8842 ROUNDHOUSE CIRCLE","EASTON","MD","21601"
306773,"8842 SKYLINE DR","BURR RIDGE","IL","60527"
306774,"8842 STATE ROUTE 571 EAST","ARCANUM","OH","45304"
306775,"8842 STATE RTE 90N","KING FERRY","NY","13081"
306776,"8843 E FAIRVIEW AVE","SAN GABRIEL","CA","91775"
306777,"8843 GRANT AVENUE APT 201","OVERLAND PARK","KS","66212"
306778,"8843 GREEN BELT ROAD SUITE 343","GREEN BELT","MD","20770"
306779,"8843 GREENBELT RD STE 159","GREENBELT","MD","20770"
306780,"8843 SALMON FALLS DRIVE UNIT C","SACRAMENTO","CA","95826"
306781,"8844 CORITLE DRIVE","LAS VEGAS","NV","89134"
306782,"8844 E 16TH PLACE","INDIANAPOLIS","IN","46219"
306783,"8844 MAIN STREET","WHITMORE LAKE","MI","48189"
306784,"8844 RAINBOW RIDGE DR","LAS VEGAS","NV","89117"
306785,"8844 ROUNDHOUSE CIRCLE","EASTON","MD","21601"
306786,"8844 VILLANOVA AVE","LOS ANGELES","CA","90045"
306787,"88442 FISHER RD","EUGENE","OR","97402"
306788,"8845 BLAYLOCK LANE","BEAUMONT","TX","77707"
306789,"8845 E FOUNTAIN ST","MESA","AZ","85207"
306790,"8845 FLAGSTONE DRIVE","ZIONSVILLE","IN","46077"
306791,"8845 JACKSON STREET","INDIANAPOLIS","IN","46231"
306792,"8845 N OAK FOREST DRIVE","PRESCOTT","AZ","86305"
306793,"8845 N WISNER AVE","NILES","IL","60714"
306794,"8845 PARK BYRD ROAD","LAKELAND","FL","33810"
306795,"8845 S RIDGELAND","CHICAGO","IL","60617"
306796,"8845 SMITH CALHOUN RD","PLAIN CITY","OH","43064"
306797,"8845 VIRGIN LAKE RD","TOMAHAWK","WI","54487"
306798,"8845 WALL TRIANA HWY","HARVEST","AL","35749"
306799,"8846 MOFFAT ST","DETROIT","MI","48213"
306800,"8846 OSO AVE","WINNETKA","CA","91306"
306801,"8846 W PINE LAKE RD","ARGONNE","IL","54511"
306802,"8847 HWY 53 E","DAWSONVILLE","GA","30534"
306803,"8847 KATHERINE ST","TAYLOR","MI","48180"
306804,"8847 N SUNBURST TRAIL","PARKER","CO","80134"
306805,"8847 TILBURY DR","WILMINGTON","NC","28411"
306806,"8848 BISMARCK PALM DRIVE","WINTER GARDEN","FL","34787"
306807,"8848 E FOOTHILLS DRIVE","SCOTTSDALE","AZ","85255"
306808,"8848 GREY HAWK POINT","ORLANDO","FL","32836"
306809,"8848 MICCOSUKEE ROAD","TALLAHASSEE","FL","32309"
306810,"8849 208TH STREET","QUEENS VILLAGE","NY","11427"
306811,"8849 HWY 5  SUITE A","DOUGLASVILLE","GA","30134"
306812,"8849 LATREC AVENUE APT 108","ORLANDO","FL","32819"
306813,"8849 SCORPIUS WAY","SAN DIEGO","CA","92126"
306814,"8849 SPECTRUM CENTER BLVD","SAN DIEGO","CA","92123"
306815,"8849 W CAMINO DE ORO","PEORIA","AZ","85383"
306816,"8849 WHITE EAGLE E","SYLVANIA","OH","43560"
306817,"885 ARAPAHOE AVENUE","BOULDER","CO","80302"
306818,"885 BADGER CIRCLE","GRAFTON","WI","53024"
306819,"885 BELLMORE ROAD","N BELLMORE","NY","11756"
306820,"885 CENTRE STREET BC LAB","NEWTON","MA","02459"
306821,"885 COX ROAD","HUNTINGTOWN","MD","20639"
306822,"885 E 56 ST APT 2C","BROOKLYN","NY","11234"
306823,"885 EAST KING STREET","KING","NC","27021"
306824,"885 EMPRESS DR","LAKE HAVASU CITY","AZ","86403"
306825,"885 GENEVA DRIVE","GENEVA","IL","60134"
306826,"885 JAQUELYN STREET","ASHLAND","OR","97520"
306827,"885 LUPINE ST  UNIT C","GOLDEN","CO","80401"
306828,"885 MABEN AVENUE","GARNER","IA","50438"
306829,"885 MAIN STREET","DARBY","PA","19023"
306830,"885 MARLBORO RD","LOTHIAN","MD","20711"
306831,"885 MONTGOMERY STREET","BROOKLYN","NY","11213"
306832,"885 NOBLES MILL RD","DEEP RUN","NC","28525"
306833,"885 NORTH 70TH AVENUE","PENSACOLA","FL","32506"
306834,"885 NORTH EASTON ROAD APT 13A5","GLENSIDE","PA","19038"
306835,"885 NORTH MEADOWS COURT APT C","COLUMBUS","OH","43229"
306836,"885 NORTH POWERS DRIVE A","ORLANDO","FL","32818"
306837,"885 NORTHWEST BLVD","COLUMBUS","OH","43212"
306838,"885 NORTHWOOD DRIVE","VIRGINIA BEACH","VA","23452"
306839,"885 PENNIMAN 5382","PLYMOUTH","MI","48170"
306840,"885 S COLLEGE MALL RD 362","BLOOMINGTON","IN","47401"
306841,"885 S COLLEGE MALL RD STE 144","BLOOMINGTON","IN","47401"
306842,"885 S COLLEGE MALL RD STE 274","BLOOMINGTON","IN","47401"
306843,"885 S FARM RD 197","SPRINGFIELD","MO","65809"
306844,"885 SCHUMANN DR","VIRGINIA BEACH","VA","23454"
306845,"885 SCOTT BLVD SUITE 4","SANTA CLARA","CA","95050"
306846,"885 SPALDING DRIVE","SANDY SPRINGS","GA","30328"
306847,"885 SUNDANCE ST","EUGENE","OR","97405"
306848,"885 THIRD AVE - 24TH FLOOR","NEW YORK","NY","10022"
306849,"885 TIBWIN PLACE","LAWRENCEVILLE","GA","30045"
306850,"885 TOWN CREEK CHURCH RD","DAHLONEGA","GA","30533"
306851,"885 TRAVIS AVE","STATEN ISLAND","NY","10314"
306852,"885 USS HUNLEY AVE","KINGSBAY","GA","31547"
306853,"885 W CO RD 1000 S","CLAY CITY","IN","47841"
306854,"885 W FOREST GROVE ROAD","LUCAS","TX","75002"
306855,"885 WEST CLYDESDALE","FAYETTEVILLE","AR","72701"
306856,"885 WOODSTOCK ROAD SUITE 430-207","ROSWELL","GA","30075"
306857,"8850 59 AVENUE E","BRADENTON","FL","34207"
306858,"8850 ALCOTT ST","LOS ANGELES","CA","90035"
306859,"8850 BROADWAY ST","SAN ANTONIO","TX","78217"
306860,"8850 COLUMBIA 100 PARKWAY SUITE 316","COLUMBIA","MD","21045"
306861,"8850 FARM ROAD 1100","PURDY","MO","65734"
306862,"8850 MODESTO AVE NE","ALBUQUERQUE","NM","87122"
306863,"8850 N POMONA AVE 205","KANSAS CITY","MO","64153"
306864,"8850 PARDEE RD","TAYLOR","MI","48180"
306865,"8850 RICHMOND HWY SUITE 202","ALEXANDRIA","VA","22309"
306866,"8850 SOUTH SIDE AVE","ELK GROVE","CA","95624"
306867,"8850 SOUTHSIDE AVE","ELK GROVE","CA","95624"
306868,"8850 TRUMPETER COURT","INDIANAPOLIS","IN","46234"
306869,"88500 FOREST MEADOWS LANE","VENETA","OR","97487"
306870,"88500 OVERSEAS HWY","TAVERNIER","FL","33070"
306871,"8851 BOLIN CIRCLE","HUNTINGTON BEACH","CA","92646"
306872,"8851 CAMINITO PRIMAVERA","LA JOLLA","CA","92037"
306873,"8851 CENTER DRIVE SUITE 307","LA MESA","CA","91942"
306874,"8851 ELVIRA AVENUE","WESTMINSTER","CA","92683"
306875,"8851 RESEARCH DRIVE","IRVINE","CA","92618"
306876,"8851 SMITHFIELD DRIVE NW","CALABASH","NC","28467"
306877,"88511 OVERSEA HWY UNIT 4","TAVERNIER","FL","33070"
306878,"88517 RIDICULOUS RD","VENETA","OR","97487"
306879,"8852","COVINGTON","WA","98042"
306880,"8853 RASPBERRY LANE","CORDOVA","TN","38016"
306881,"8854 S ESCANABA AVE","CHICAGO","IL","60617"
306882,"8855 ALPINE AVE NW","SPARTA","MI","49345"
306883,"8855 ANNAPOLIS ROAD SUITE 201","LANHAM","MD","20706"
306884,"8855 BROAD ST","RURAL HALL","NC","27045"
306885,"8855 CENER POINTE DRIVE","BALDWINSVILLE","NY","13027"
306886,"8855 INWOOD AVENUE SOUTH","COTTAGE GROVE","MN","55016"
306887,"8855 N LAMON AVENUE APT 2N","SKOKIE","IL","60077"
306888,"8855 N STEMMONS FWY","DALLAS","TX","75247"
306889,"8855 OKEECHOBEE BLVD APT 103","ROYAL PALM BEACH","FL","33411"
306890,"8855 RAGWEED COURT","SAN DIEGO","CA","92129"
306891,"8855 SOUTH EGGLESTON AVE","CHICAGO","IL","60620"
306892,"8855 W PICO BLVD","LOS ANGELES","CA","90035"
306893,"8856 FIRE PINK CT","INDIANAPOLIS","IN","46231"
306894,"8856 PEER ROAD","SOUTH LYON","MI","48178"
306895,"8856 SE 177TH GRASSAMERE ST","THE VILLAGES","FL","32162"
306896,"8856 W 47TH STREET","BROOKFIELD","IL","60513"
306897,"88563 CIRCLE CITY LANE","BANDON","OR","97411"
306898,"8857 DAVIS BLVD STE 100","KELLER","TX","76248"
306899,"8857 MINERS DR","HIGHLANDS RANCH","CO","80126"
306900,"8857 PENFIELD AVE","NORTHRIDGE","CA","91324"
306901,"8857 PENFIELD ST","NORTHRIDGE","CA","91324"
306902,"8857 PORTICO LANE","LONGMONT","CO","80503"
306903,"8858 CENTERGROVE PLACE CT","CLEMMONS","NC","27012"
306904,"8858 IVYMILL PLACE N","JACKSONVILLE","FL","32244"
306905,"8858 MAJORCA DRIVE","LAKE WORTH","FL","33467"
306906,"8858 MARATHON RD","NIWOT","CO","80503"
306907,"8858 SW 129 STREET","MIAMI","FL","33176"
306908,"8859 S DANTE AVE","CHICAGO","IL","60619"
306909,"8859 UNIT M N SWAN ROAD","MILWAUKEE","WI","53224"
306910,"886 A-1-A NORTH  SUITE 5","PONTE VEDRA BEACH","FL","32082"
306911,"886 A-1-A NORTH SUITE 5","PONTE VEDRA BEACH","FL","32082"
306912,"886 E 220 N","SALEM","UT","84653"
306913,"886 ELM STREET","WINNETKA","IL","60093"
306914,"886 GIRL SCOUT ROAD","DRUMMONDS","TN","38023"
306915,"886 GOUGH ROAD","RUSTBURG","VA","24588"
306916,"886 GREAT BEND ROAD","ALTAMONTE SPRINGS","FL","32714"
306917,"886 HALIFAX DRIVE","WARWICK","RI","02886"
306918,"886 JACKSON ST","KETCHIKAN","AK","99901"
306919,"886 LINDA WAY","FOREST PARK","GA","30297"
306920,"886 PARK AVENUE STE 202","MARCO ISLAND","FL","34145"
306921,"886 PARK AVENUE SUITE 202","MARCO ISLAND","FL","34145"
306922,"886 PARKER RD","AURORA","OH","44202"
306923,"886 S MORGAN AVENUE","BLANCHARD","OK","73010"
306924,"886 SW BILTMORE ST","PORT SAINT LUCIE","FL","34983"
306925,"886 VALLEY DR","ELLIJAY","GA","30536"
306926,"886 WEST 2600 NORTH","PLEASANT GROVE","UT","84062"
306927,"8860 CORBIN AVE STE 134","NORTHRIDGE","CA","91324"
306928,"8860 HWY 101","IRON","MN","55751"
306929,"8860 MIDLAND WOODS DR","MIDLAND","GA","31820"
306930,"8860 NW 78TH COURT 368","TAMARAC","FL","33321"
306931,"8860 PINEY BRANCH RD APT 1404","SILVER SPRING","MD","20903"
306932,"8860 SW 123 CT","MIAMI","FL","33186"
306933,"8860 W CR 500 S","SHIRLEY","IN","47384"
306934,"8861 BOEHNING LN","INDPLS","IN","46219"
306935,"8861 COUNTY ROAD 3590","ADA","OK","74820"
306936,"8861 CUSTER SCHOOL ROAD","CUSTER","WA","98240"
306937,"8861 GROVE AVE","CALIFORNIA CITY","CA","93505"
306938,"8861 MARTIN LANE","GILMER","TX","75645"
306939,"8861 VILLA LA JOLLA DRIVE 12863","LA JOLLA","CA","92037"
306940,"8861 VILLA LA JOLLA DRIVE 13352","LA JOLLA","CA","92037"
306941,"8863 ANDERSON MILL RD STE 109","AUSTIN","TX","78729"
306942,"8863 CR 192","ANDERSON","TX","77830"
306943,"8863 GREENBACK LANE 108","ORANGEVALE","CA","95662"
306944,"8863 GREENBACK LN STE 230","ORANGEVALE","CA","95662"
306945,"8863 GREENBACK LN STE 324","ORANGEVALE","CA","95662"
306946,"8863 ROSELAWN","DETROIT","MI","48204"
306947,"8864 LA MANGA AVE","LAS VEGAS","NV","89147"
306948,"8864 PRAIRIE KNOLL DR","LONGMONT","CO","80503"
306949,"8865 COMMODITY CIRCLE 13-216","ORLANDO","FL","32839"
306950,"8865 E ROSEMONT ST","INVERNESS","FL","34450"
306951,"8865 HAPPINESS ROAD","HARRISBURG","NC","28075"
306952,"8865 SW 132 STREET","MIAMI","FL","33176"
306953,"8866 FOREST BREEZE DR","CORDOVA","TN","38018"
306954,"8866 GULF FREEWAY STE 401","HOUSTON","TX","77017"
306955,"8866 GULF FREEWAY SUITE 320","HOUSTON","TX","77017"
306956,"8867 CHESTNUT RD","HENRYETTA","OK","74437"
306957,"88674 HIGHWAY 42 SO","BANDON","OR","07411"
306958,"886795 HIGHWAY 9","LINEVILLE","AL","36266"
306959,"8868 EAST 160 PL SOUTH","BIXBY","OK","74008"
306960,"8868 STATE ROAD","GIRARD","PA","16417"
306961,"8868 SUNSTONE LN","MIDDLETON","WI","53562"
306962,"88680 HIGHWAY 3 NORTH","ST MARIES","ID","83861"
306963,"8869 S 1125 W","OWENSVILLE","IN","47665"
306964,"887 BROOKLYN STREET","MORRISVILLE","VT","05661"
306965,"887 CAMPBELL ROAD","CLARKTON","NC","28433"
306966,"887 FAIRFAX RD","DREXEL HILL","PA","19026"
306967,"887 GRANT PARK DRIVE","MOBILE","AL","36606"
306968,"887 HARDCASTLE AVE","WOODBURN","OR","97071"
306969,"887 HARVEST POINTE DRIVE","FORT MILL","SC","29708"
306970,"887 HIGHWAY 138 WEST","STOCKBRIDGE","GA","30281"
306971,"887 JUMONVILLE ROAD","HOPWOOD","PA","15445"
306972,"887 LEWIS CREEK RD","HINESBURG","VT","05461"
306973,"887 LORETTA DR","GOODLETTSVILLE","TN","37072"
306974,"887 MAIN ST","DARBY","PA","19023"
306975,"887 MERCER RD","BEAVER FALLS","PA","15010"
306976,"887 MOLLY CIR","SARASOTA","FL","34232"
306977,"887 N STATE ST","BATESVILLE","AR","72501"
306978,"887 PATRIOT DRIVE SUITE H","MOORPARK","CA","93021"
306979,"887 PITTS SCHOOL RD SW","CONCORD","NC","28027"
306980,"887 REMINGTON COVE","SOUTHAVEN","MS","38671"
306981,"887 ROSWELL CREEK LANE APT H","ROSWELL","GA","30076"
306982,"887 SUDBERRY LANE","EAGAN","MN","55123"
306983,"8870 CHERRYGATE COURT","HUBER HEIGHTS","OH","45424"
306984,"8870 EAST GARDEN VIEW DRIVE","ANAHEIM HILLS","CA","92808"
306985,"8870 N HIMES AVE UNIT 138","TAMPA","FL","33614"
306986,"8870 NW 36 ST  SUITE 3201","DORAL","FL","33178"
306987,"8870 SPRING LANE","WOODBURY","MN","55125"
306988,"8870 WATERSIDE POINT","PARKLAND","FL","33076"
306989,"8870 YOUREE DRIVE SUITE 207","SHREVEPORT","LA","71115"
306990,"8871 GORMAN ROAD SUITE 100","LAUREL","MD","20723"
306991,"8871 HARVEY RD","CHURUBUSCO","IN","46723"
306992,"8871 NW 103RD PLACE","DORAL","FL","33178"
306993,"8871 SOUTH BECK PLACE","HOMETOWN","IL","60456"
306994,"8871 W FLAMINGO RD STE 202","LAS VEGAS","NV","89147"
306995,"8871 W FLAMINGO ROAD 202","LAS VEGAS","NV","89147"
306996,"8872 BURNET AVE","NORTH HILLS","CA","91343"
306997,"8872 JODY LN  APT 1C","DES PLAINES","IL","60016"
306998,"8872 MARYLEE DRIVE","GARDEN GROVE","CA","92841"
306999,"8872 S SILVERSTONE WAY","SANDY","UT","84093"
307000,"8872 SOUTH 2240 WEST","WEST JORDAN","UT","84088"
