"ID","Address","City","State","Zip"
142001,"2594 RIALTO RD","COVINGTON","TN","38019"
142002,"2594 S KILLARNEY COURT","AURORA","CO","80013"
142003,"2594 SAVANNAH DR","CENTRAL POINT","OR","97502"
142004,"2594 SE WELSH STREET","PORT SAINT LUCIE","FL","34984"
142005,"2594 SPRINGVALE ROAD","BOYNE FALLS","MI","49713"
142006,"2594 SPURWOOD COURT","APEX","NC","27502"
142007,"25940 429TH AVENUE","EMERY","SD","57332"
142008,"25941 CHAFFEE COURT","MECHANICSVILLE","MD","20659"
142009,"25942 E ORCHARD DRIVE","AURORA","CO","80016"
142010,"25943 NATAL PLUM","SAN ANTONIO","TX","78261"
142011,"25946 CADILLAC WAY","MARDELA SPGS","MD","21837"
142012,"25947 TENNYSON LANE","STEVENSON RANCH","CA","91381"
142013,"2595 BOWMONT DRIVE","EUGENE","OR","97405"
142014,"2595 COLLEGE ST","JACKSONVILLE","FL","32204"
142015,"2595 DALLAS PARKWAY SUITE 430","FRISCO","TX","75034"
142016,"2595 HUMMINGBIRD DR","HOLT","MI","48842"
142017,"2595 K STREET","HOUMA","LA","70364"
142018,"2595 MOUNTAIN INDUSTRIAL BLVD STE 4","TUCKER","GA","30084"
142019,"2595 SAN JOSE AVE","SAN FRANCISCO","CA","94112"
142020,"2595 SANFORD AVENUE","SANFORD","FL","32773"
142021,"2595 SEDGWICK AVE SUITE GR","BRONX","NY","10468"
142022,"2595 SIERRA VISTA DR","TURLOCK","CA","95380"
142023,"2595 W PICO BLVD","LOS ANGELES","CA","90006"
142024,"25950 THE OLD ROAD","STEVENSON RANCH","CA","91381"
142025,"25953 CALLE ENSENADA","MORENO VALLEY","CA","92551"
142026,"25953 STINGER DRIVE","CHANTILLY","VA","20152"
142027,"25953 WATERWAY DRIVE","HARRISON TWP","MI","48045"
142028,"25954 KILEY CT","MURRIETA","CA","92563"
142029,"25955 YORK ROAD","ROYAL OAK","MI","48067"
142030,"2596 BODDIE PL","DULUTH","GA","30097"
142031,"2596 CHURCH STREET","YORK","PA","17408"
142032,"2596 COUNTY ROAD L","WESTON","NE","68070"
142033,"2596 LARRIKEET CT","PLEASANTON","CA","94566"
142034,"2596 MADISON RD APT C2","CINCINNATI","OH","45208"
142035,"2596 MISSION STREET SUITE 330","SAN MARINO","CA","91108"
142036,"2596 N STOKESBERRY PLACE STE 160","MERIDIAN","ID","83646"
142037,"2596 SOUTH LEATHERWOOD ROAD","BEDFORD","IN","47421"
142038,"2596 TATER LANE","GUILFORD","VT","05301"
142039,"25965 TYTLER RD NE","POULSBO","WA","98370"
142040,"25967 ANGEL FERRY ROAD","GENESEO","IL","61254"
142041,"2597 BLUFF CITY ROAD","SOMERVILLE","AL","35670"
142042,"2597 HARDING AVE APT 2","MUSKEGON","MI","49441"
142043,"2597 NEW GLASGOW ROAD","FAIRFIELD","IA","52556"
142044,"2597 W 2375 N","CLINTON","UT","84015"
142045,"25971 HARDING SQUARE","OAK PARK","MI","48237"
142046,"25975 PRIMOSE RD","SEWARD","AK","99664"
142047,"2598 AYALA DR 47","RIALTO","CA","92377"
142048,"2598 CORPORATE AVE E","MEMPHIS","TN","38132"
142049,"2598 E GREENBROOK DR","EAGLE","ID","83616"
142050,"2598 FIELDSTONE DR SE","CONYERS","GA","30013"
142051,"2598 PORTOBELLO","TROY","MI","48083"
142052,"2598 STEWART ROAD","MUSCATINE","IA","52761"
142053,"2598 VICTORIA DRIVE","PALM BAY","FL","32905"
142054,"2598","ASHBURN","VA","20146"
142055,"25981 TUCKER LANE","WILLITS","CA","95490"
142056,"25983 E GEDDES CIR","AURORA","CO","80016"
142057,"25984 ROAD 180","VISALIA","CA","93292"
142058,"2599 CHURCH AVE APT B221","CLEVELAND","OH","44113"
142059,"2599 COUNTY ROAD 72","AUBURN","IN","46706"
142060,"2599 FOX AVE SE","MINERVA","OH","44657"
142061,"2599 HAWN AVENUE","REDDING","CA","96002"
142062,"2599 HIGHWAY 46","CEDAR BLUFF","MS","39741"
142063,"2599 IRWIN DRIVE","BELLINGHAM","WA","98226"
142064,"2599 NORTH MULFORD RD BOX 109","ROCKFORD","IL","61114"
142065,"2599 WATERCREST COURT","ELLENWOOD","GA","30294"
142066,"2599 WEST 2225 NORTH","FARR WEST","UT","84404"
142067,"2599 WORRALL HILL WAY","DULUTH","GA","30096"
142068,"25990 E DAVIES DRIVE","AURORA","CO","80016"
142069,"25990 OAK HILLS ROAD","LAKE BARRINGTON","IL","60010"
142070,"25996 N 2750 ROAD","VAN ORIN","IL","61374"
142071,"25996 SOBOBA ST","HEMET","CA","92544"
142072,"25998 W SIERRA PINTA DR","BUCKEYE","AZ","85396"
142073,"25999 N THORNTON ROAD","THORNTON","CA","95686"
142074,"25999 OLD 41 ROAD","BONITA SPRINGS","FL","34135"
142075,"259YALE AVENUE","KENSINGTON","CA","94708"
142076,"25A CRESCENT DR NUM 712","PLEASANT HILL","CA","94523"
142077,"25B PUBLIC SQUARE","LAWRENCEBURG","TN","38464"
142078,"25W048 RAMM DRIVE","NAPERVILLE","IL","60564"
142079,"25W253 WARRENVILLE ROAD","WHEATON","IL","60189"
142080,"25W560 GENEVA ROAD","CAROL STREAM","IL","60188"
142081,"25W571 LAKE ST","ROSELLE","IL","60172"
142082,"26  HOLMBERG ROAD","WEYMOUTH","MA","02189"
142083,"26 2ND AVENUE","LOWELL","MA","01854"
142084,"26 3RD AVE N","GLASGOW","MT","59230"
142085,"26 48TH STREET APARTMENT 2","WEEHAWKEN","NJ","07086"
142086,"26 7TH STREET 4TH FLOOR","SAN FRANCISCO","CA","94103"
142087,"26 ACADEMY STREET","MEXICO","NY","13114"
142088,"26 ACADEMY STREET","PINE HILL","NY","12465"
142089,"26 ACORN BLVD","LANCASTER","PA","17602"
142090,"26 AIKEN STREET","NORWALK","CT","06851"
142091,"26 ALAMEDA PLACE","FLEETWOOD","NY","10552"
142092,"26 ALDEN ROAD","LARCHMONT","NY","10538"
142093,"26 ALEXANDER DRIVE","WEST SPRINGFIELD","MA","01089"
142094,"26 ALEXANDER STREET","NEWARK","NJ","07106"
142095,"26 ALLEN BROOK DRIVE","PORT WENTWORTH","GA","31407"
142096,"26 AMHERST LANE","SMITHTOWN","NY","11787"
142097,"26 ANDREW STREET","HAMILTON","NJ","08610"
142098,"26 ANTHONY DRIVE","NEWARK","DE","19702"
142099,"26 ARBUSTO","IRVINE","CA","92606"
142100,"26 ASH STREET","BASKING RIDGE","NJ","07920"
142101,"26 ASHBURY WOODS APT 208","HUNTSVILLE","AL","35824"
142102,"26 AUTUMN LANE","SEWELL","NJ","08080"
142103,"26 BALBOA STREET 301","SAN FRANCISCO","CA","94118"
142104,"26 BALDWIN DRIVE","GREENVILLE","RI","02828"
142105,"26 BALLENTINE DRIVE","NORTH HALEDON","NJ","07508"
142106,"26 BANK STREET  UNIT 1","LEBANON","NH","03766"
142107,"26 BARON DRIVE","WARWICK","NY","10990"
142108,"26 BAYCREST DRIVE","SOUTH BURLINGTON","VT","05403"
142109,"26 BEACON LANE","EAST NORTHPORT","NY","11731"
142110,"26 BEACON ST APT 28A","BURLINGTON","MA","01803"
142111,"26 BELTON STREET","BOSTON","MA","02124"
142112,"26 BENEDICT RD","WARWICK","RI","02888"
142113,"26 BISMARK STREET","DEDHAM","MA","02026"
142114,"26 BRADFORD DR","CHILLICOTHE","OH","45601"
142115,"26 BRENTWOOD DRIVE","BAYVILLE","NJ","08721"
142116,"26 BRIARCREST SQUARE","HERSHEY","PA","17033"
142117,"26 BRIARWOOD","HAVERILL","MA","01832"
142118,"26 BRIDGE ST","HACKENSACK","NJ","07601"
142119,"26 BRIGHTON TERRACE","PARSIPPANY","NJ","07054"
142120,"26 BRIGHTON TRL","PARSIPPANY","NJ","07054"
142121,"26 BROADWAY FL 3","NEW YORK","NY","10004"
142122,"26 BROADWAY SUITE 901","NEW YORK","NY","10004"
142123,"26 BROADWAY","BANGOR","PA","18013"
142124,"26 BROOK DRIVE","HOPE VALLEY","RI","02832"
142125,"26 BRYANT ROAD","DEXTER","ME","04930"
142126,"26 BRYN MAWR DR","REHOBOTH BCH","DE","19971"
142127,"26 CALLE BETANCES","UTUADO","PR","00641"
142128,"26 CANAL STREET APT 5","NEW YORK","NY","10002"
142129,"26 CARASALJO DRIVE","LAKEWOOD","NJ","08701"
142130,"26 CAREY AVE APT 1","WATERTOWN","MA","02472"
142131,"26 CARLISLE ROAD","CHESTNUT RIDGE","NY","10977"
142132,"26 CASSELBERRY DRIVE","AUDUBON","PA","19403"
142133,"26 CHERRYWOOD CIRCLE","BRICK","NJ","08724"
142134,"26 CHESTNUT STREET","MASSAPEQUA","NY","11758"
142135,"26 CHRISTOPHER ST","DOVER","NJ","07801"
142136,"26 CIDER MILL LANE","PORT MURRAY","NJ","07865"
142137,"26 CLIFFORD STREET","ROXBURY","MA","02119"
142138,"26 COBBLESTONE TERRACE","MONTVILLE","NJ","07045"
142139,"26 COMMERCIAL STREET","CONCORD","NH","03301"
142140,"26 CONCORD TRAIL DRIVE","ST PETERS","MO","63376"
142141,"26 COOPER RD APT 805","POUGHKEEPSIE","NY","12603"
142142,"26 COOPERS LANE","HOPEWELL JUNCTION","NY","10570"
142143,"26 COUNTY ROAD","LAKEVILLE","MA","02347"
142144,"26 COURT STREET SUITE 701","BROOKLYN","NY","11242"
142145,"26 CUNNINGHAM STREET","WILMINGTON","MA","01887"
142146,"26 DAVIS AVENUE - SUITE 3B","BROOKLINE","MA","02445"
142147,"26 DECATUR LN","WAYLAND","MA","01778"
142148,"26 DEERWOOD DRIVE","DANIELSON","CT","06239"
142149,"26 DEPOT ROAD","HOLLIS","NH","03049"
142150,"26 DOANE ST UNIT B","LOWELL","MA","01851"
142151,"26 DOGWOOD LANE","GROVE CITY","PA","16127"
142152,"26 DUTTON PLACE WAY","GLASTONBURY","CT","06033"
142153,"26 E 59TH ST APT 202","JACKSONVILLE","FL","32208"
142154,"26 E ATOKA RD","ARTESIA","NM","88210"
142155,"26 E BASELINE RD STE 115","PHOENIX","AZ","85042"
142156,"26 E CHESTNUT ST","WALLA WALLA","WA","99632"
142157,"26 E LONG AVENUE","NEW CASTLE","PA","16103"
142158,"26 E MAIN","FREMONT","MI","49412"
142159,"26 E NEW HAVEN STREET","BLOOMVILLE","OH","44818"
142160,"26 E WEBSTER STREET","MERRICK","NY","11566"
142161,"26 E WENTWORTH ST","NEWCASTLE","WY","82701"
142162,"26 EAGLE DRIVE","LITTLETON","CO","80123"
142163,"26 EAST 1860 NORTH","TOOELE","UT","84074"
142164,"26 EAST 59TH STREET UNIT 201","JACKSONVILLE","FL","32208"
142165,"26 EAST BOOKER AVE","WYANDANCH","NY","11798"
142166,"26 EAST MAIN ST","AYER","MA","01432"
142167,"26 EASTMOOR DR","SILVER SPRING","MD","20901"
142168,"26 EDGAR PLACE","NUTLEY","NJ","07110"
142169,"26 EDWARDS PLACE","PRINCETON","NJ","08540"
142170,"26 ELM CT","TABERNACLE","NJ","08088"
142171,"26 ELM STREET","NEW HAVEN","CT","06510"
142172,"26 EMERSON AVE","PATERSON","NJ","07502"
142173,"26 EVERETT ST CHILD HALL115","CAMBRIDGE","MA","02138"
142174,"26 FAYETTE ST 1ST FLOOR","BROOKLYN","NY","11206"
142175,"26 FELLOWS STREET","DANVERS","MA","01923"
142176,"26 FENCEROW CT","BALTIMORE","MD","21236"
142177,"26 FENDLEY ROAD","AMITY","AR","71921"
142178,"26 FERNWOOD DR","LANCASTER","NY","14086"
142179,"26 FOREST DRIVE","HYDE PARK","NY","12538"
142180,"26 FRANKLIN AVE APT LL1","WHITE PLAINS","NY","10601"
142181,"26 FRANKLIN ST S","GLENWOOD","MN","56334"
142182,"26 FRENCHS MILL RD","ALTAMONT","NY","12009"
142183,"26 FRONTENAC AVENUE","BUFFALO","NY","14216"
142184,"26 GAZEBO","IRVINE","CA","92620"
142185,"26 GEORGE STREET","SEYMOUR","CT","06483"
142186,"26 GLADE BANK PL","THE WOODLANDS","TX","77382"
142187,"26 GOODE ST","BURNT HILLS","NY","12027"
142188,"26 GRAND AVE","OROVILLE","CA","95965"
142189,"26 GRIFFING CIRCLE","ASHEVILLE","NC","28804"
142190,"26 HADLEY CT","BASKING RIDGE","NJ","07920"
142191,"26 HANKINS RD","HAMPTON","VA","23669"
142192,"26 HARBOUR LANE","MARGATE","NJ","08402"
142193,"26 HARMONY SCHOOL ROAD","FLEMINGTON","NJ","08822"
142194,"26 HARPER STREET","PATCHOGUE","NY","11772"
142195,"26 HARRIET DRIVE","WHIPPANY","NJ","07981"
142196,"26 HARWICK ROAD","WESTBURY","NY","11590"
142197,"26 HEWETT ST","NEILLSVILLE","WI","54456"
142198,"26 HIDDEN VALLEY DR PO BOX 233","RAYNHAM CENTER","MA","02768"
142199,"26 HIGHRIDGE DR","MONROE","CT","06468"
142200,"26 HOLBROOK LN","NORTHBOROUGH","MA","01532"
142201,"26 HOOPER SANDS ROAD","SOUTH BERWICK","ME","03908"
142202,"26 HORSEMAN CT","RANDALLSTOWN","MD","21133"
142203,"26 HUNTERS CREEK LANE","GRANITE FALLS","NC","28630"
142204,"26 HURLBUT STREET","CAMBRIDGE","MA","02138"
142205,"26 IRIS LN","STAFFORD","VA","22554"
142206,"26 JAKE PL","MONROE TWP","NJ","08831"
142207,"26 JAYSON AVE","GREAT NECK","NY","11021"
142208,"26 JDB LN","RUSSELL SPRINGS","KY","42642"
142209,"26 JEFFERSON ROAD","NORTHBOROUGH","MA","01532"
142210,"26 JOEL PLACE","STATEN ISLAND","NY","10306"
142211,"26 KAHLER AVENUE","MILTON","MA","02186"
142212,"26 KAREN CT","JEFFERSON","LA","70121"
142213,"26 KEATS WAY APT D","DRYDEN","NY","13053"
142214,"26 KENDAL CT","NEWNAN","GA","30263"
142215,"26 KETTLE COURT","NEWBURGH","NY","12550"
142216,"26 KINO BLVD","HAMILTON","NJ","08619"
142217,"26 LAMSON LANE","SEWELL","NJ","08080"
142218,"26 LANTERN WAY","ASHLAND","MA","01721"
142219,"26 LATTANZI STREET","WEST HAVEN","CT","06516"
142220,"26 LAURENHURST CT","HOUSTON","TX","77043"
142221,"26 LIBERTY STREET","SIDNEY","NY","13838"
142222,"26 LIBORIO LN","SMYRNA","DE","19977"
142223,"26 LIEDTKE DRIVE","CRANBURY","NJ","08512"
142224,"26 LINDEN AVENUE","BEVERLY","MA","01915"
142225,"26 LINMOR AVENUE","NEWTON","NJ","07860"
142226,"26 LITTLE LEAF LN","BATESVILLE","IN","47006"
142227,"26 LIVINGSTON AVE","KEARNY","NJ","07032"
142228,"26 LONGWOOD DR","SWAMPSCOTT","MA","01907"
142229,"26 LOOKOUT LANE","DUBOIS","WY","82513"
142230,"26 LYON ROAD","BURLINGTON","CT","06013"
142231,"26 LYON ST  APT 3","NEW HAVEN","CT","06511"
142232,"26 MACGREGOR DRIVE","SHALLOTTE","NC","28470"
142233,"26 MADISON AVE","WALLINGFORD","CT","06492"
142234,"26 MADISON ST","BROOKLYN","NY","11238"
142235,"26 MAGGIORA DRIVE","OAKLAND","CA","94605"
142236,"26 MAGNOLIA CIRCLE","RAVENA","NY","12143"
142237,"26 MAIN STREET PO BOX 109","BLAIRSTOWN","NJ","07825"
142238,"26 MAIN STREET SUITE 202","CHATHAM","NJ","07928"
142239,"26 MANSFIELD ROAD","LANSDOWNE","PA","19050"
142240,"26 MAPLE AVENUE","SHREWSBURY","MA","01564"
142241,"26 MARINA KY","SECAUCUS","NJ","07094"
142242,"26 MARKET PLACE DRIVE","HILTON HEAD","SC","29928"
142243,"26 MATTHEW DRIVE","SALEM","NH","03079"
142244,"26 MEADOWS LANE","OCEAN","NJ","07712"
142245,"26 MEETINGHOUSE LANE","MADISON","CT","06443"
142246,"26 MELCH ROAD","LYNNFIELD","MA","01940"
142247,"26 MELLEN STREET","BOSTON","MA","02124"
142248,"26 MERIWETHER TRAIL","CONGERS","NY","10920"
142249,"26 MESA STREET","RESERVE","NM","87830"
142250,"26 MIDWOOD AVENUE","EDISON","NJ","08820"
142251,"26 MILLERS RUN","DELRAN","NJ","08075"
142252,"26 MONMOUTH STREET","BROOKLINE","MA","02446"
142253,"26 MORO DRIVE","HAMILTON","NJ","08619"
142254,"26 MOUNTAIN AVENUE","RIVERSIDE","RI","02915"
142255,"26 MOURNINGKILL DR","BALLSTON SPA","NY","12020"
142256,"26 MT RAINIER LOOP E","BONNEY LAKE","WA","98391"
142257,"26 N 3167 E","IDAHO FALLS","ID","83402"
142258,"26 N MAIN STREET","MIAMI","OK","74354"
142259,"26 N MAIN","FORT SCOTT","KS","66701"
142260,"26 N MAIN","MIAMI","OK","74354"
142261,"26 N SUMMIT AVENUE","GAITHERSBURG","MD","20877"
142262,"26 NANCY CT","ROSEDALE","MD","21237"
142263,"26 NAUTICAL WAY","SOUTH DENNIS","MA","02660"
142264,"26 NAVAJO TERRACE","WESTFORD","MA","01886"
142265,"26 NELSON AVE APT 2","PROVINCETOWN","MA","02657"
142266,"26 NEWTON AVENUE","WOODBURY","NJ","08096"
142267,"26 NORFOLK STREET","FREDERICKSBURG","VA","22406"
142268,"26 NORTH 10 STREET SECOND FLOOR","ALLENTOWN","PA","18101"
142269,"26 NORTH CEDAR STREET","OBERLIN","OH","44074"
142270,"26 NORTH CENTER ST","GRANTSVILLE","UT","84029"
142271,"26 NORTH ROAD","JAMESTOWN","RI","02835"
142272,"26 NORTH STATE STREET","YORK","PA","17403"
142273,"26 NOTTA RD","CARTHAGE","ME","04224"
142274,"26 NW HEATHERSTONE DR","LAWTON","OK","73505"
142275,"26 OAK AVE","CHARTER OAK","IA","51439"
142276,"26 OAK RIDGE ROAD","READING","MA","01867"
142277,"26 OAK ST","ROXBORO","NC","27573"
142278,"26 OFFICE PARK DR B2","KILMARNOCK","VA","22482"
142279,"26 OLD ORCHARD RD","CHERRY HILL","NJ","08003"
142280,"26 ORFORD RD","WEST HAVEN","CT","06516"
142281,"26 PADDOCK FARM LANE","DORSET","VT","05251"
142282,"26 PARRIS ISLAND GATEWAY","BEAUFORT","SC","29906"
142283,"26 PATRICK HENRY LANE","MILFORD","DE","19963"
142284,"26 PERCHWOOD DR","FREDERICKSBURG","VA","22405"
142285,"26 PERNA LANE","STAMFORD","CT","06903"
142286,"26 PIERSOLL RD","OLD BRIDGE","NJ","08857"
142287,"26 PILGRIM AVENUE","RUMFORD","RI","02916"
142288,"26 PINE COURSE","OCALA","FL","34472"
142289,"26 PIPELINE RD","LORDSBURG","NM","88045"
142290,"26 PLEASANT RIDGE ROAD","SPRING VALLEY","NY","10977"
142291,"26 POINT GROVE ROAD","SOUTHWICK","MA","01077"
142292,"26 PRICE ROAD","NEWNAN","GA","30263"
142293,"26 PROSPECT HILL ROAD","BRANFORD","CT","06405"
142294,"26 PURITAN AVE","WORCESTER","MA","01604"
142295,"26 QUARTER HORSE CIRLCE","RIVERTON","WY","82501"
142296,"26 REVO RD","PITTSBURGH","PA","15236"
142297,"26 RICHEMONT WAY","ALISO VIEJO","CA","92656"
142298,"26 RIDGE ROAD","SIMSBURY","CT","06070"
142299,"26 RIVER GLEN ROAD","WALLKILL","NY","12589"
142300,"26 RIVER RUN","GILBERTVILLE","MA","01031"
142301,"26 RIVERFIELD DRIVE","WESTON","CT","06883"
142302,"26 ROBIN ROAD","WESTON","MA","02493"
142303,"26 ROCKY HILL ROAD","BURLINGTON","MA","01803"
142304,"26 ROSA ST","NEW ORLEANS","LA","70094"
142305,"26 ROTUNDA CIRCLE","ASHEVILLE","NC","28806"
142306,"26 ROUSSEAU PL","SANTA CLARA","CA","95050"
142307,"26 RUSSELL ROAD","ALBANY","NY","12203"
142308,"26 S 1ST AVE STE 302","MARSHALLTOWN","IA","50158"
142309,"26 S ANGELA CIR","DURHAM","NC","27703"
142310,"26 S CHESTNUT ST","VENTURA","CA","93001"
142311,"26 S THIRD ST","WARRENTON","VA","20186"
142312,"26 SAILFISH CIRCLE","HATTIESBURG","MS","39402"
142313,"26 SALEM ST","WAKEFIELD","MA","01880"
142314,"26 SAMANTHA CT","OWINGS MILLS","MD","21117"
142315,"26 SCHWEIR ROAD","SOUTH WINDSOR","CT","06074"
142316,"26 SCOTT DR","MELVILLE","NY","11747"
142317,"26 SECOR DRIVE","DOBBS FERRY","NY","10522"
142318,"26 SHADY DRIVE","INDIANA","PA","15701"
142319,"26 SHANKPAINTER ROAD","PROVINCETOWN","MA","02657"
142320,"26 SHEPHERD LN","ROSLYN","NY","11577"
142321,"26 SHERBROOKE DRIVE","PRINCETON JUNCTION","NJ","08550"
142322,"26 SHREWSBURY STREET","WEST BOYLSTON","MA","01583"
142323,"26 SIEBRECHT PLACE","NEW ROCHELLE","NY","10804"
142324,"26 SKLAR STREET","LADERA RANCH","CA","92694"
142325,"26 SLEEPING GIANT DRIVE","HAMDEN","CT","06518"
142326,"26 SMITH ST","VALLEY STREAM","NY","11580"
142327,"26 SNOW ST","BRIGHTON","MA","02135"
142328,"26 SOLAR DRIVE","CARIBOU","ME","04736"
142329,"26 SOUTH BROAD STREET APT S5","NAZARETH","PA","18064"
142330,"26 SOUTH CHESTNUT STREET","VENTURA","CA","93001"
142331,"26 SOUTH FRANKLIN STREET","ATHENS","NY","12184"
142332,"26 SOUTH SPRUCE STREET","LITITZ","PA","17543"
142333,"26 SPRAGUE ROAD","SCARSDALE","NY","10583"
142334,"26 SPRING DELL 5A","RUTHERFORD","NJ","07070"
142335,"26 STILL RD","MONROE","NY","10950"
142336,"26 STILLMAN STREET UNIT 6-2","BOSTON","MA","02113"
142337,"26 STONE WALL DRIVE","STAMFORD","CT","06905"
142338,"26 STONEGATE DRIVE","STATEN ISLAND","NY","10304"
142339,"26 STONEWAY PLACE","NOTTINGHAM","MD","21236"
142340,"26 STORYLAND LANE","EAST SETAUKET","NY","11733"
142341,"26 STOUTENBURGH DRIVE","HYDE PARK","NY","12538"
142342,"26 STURBRIDGE LN","GREENSBORO","NC","27408"
142343,"26 SUNDOG DRIVE","SANTA FE","NM","87508"
142344,"26 SUNKIST LN","FARMINGTON","WV","26571"
142345,"26 SUNNY BROOK DRIVE","SPRUCE PINE","NC","28777"
142346,"26 SWINHOE DR UNIT 203","HAMPSTEAD","NC","28443"
142347,"26 SYCAMORE PLACE","PRINCETON","NJ","08540"
142348,"26 TALLGRASS PATH","LANCASTER","PA","17602"
142349,"26 TALLWOOD DRIVE","HAMPTON","VA","23666"
142350,"26 TAYLOR LANE","MOTICELLO","MS","39654"
142351,"26 TAYLOR ROAD","BELMONT","MA","02476"
142352,"26 TAYLOR ROAD","BELMONT","MA","02478"
142353,"26 TORY CT","BEDMINSTER","NJ","07921"
142354,"26 TOWNE CENTER WAY 241","HAMPTON","VA","23669"
142355,"26 TOWNE CENTER WAY SUITE 808","HAMPTON","VA","23666"
142356,"26 TREMONT ST","IRVINGTON","NJ","07111"
142357,"26 TROTTER LANE","LARAMIE","WY","82070"
142358,"26 TROW BLVD","RED HOOK","NY","12571"
142359,"26 TURNBERRY DRIVE","CABOT","AR","72023"
142360,"26 TURTLE LANE","HAINES CITY","FL","33844"
142361,"26 ULI PLACE","LAHAINA","HI","96761"
142362,"26 UPPER CIBOLO CREEK RD","BOERNE","TX","78006"
142363,"26 VAN BUREN AVE","CARTERET","NJ","07008"
142364,"26 VAN BUREN","TOLEDO","OH","43605"
142365,"26 VANDERGRIFT DR","DAYTON","OH","45431"
142366,"26 VERDIN PLACE","THE WOODLANDS","TX","77389"
142367,"26 VERNON STREET","PROVIDENCE","RI","02903"
142368,"26 VERNON STREET","RUTLAND","VT","05701"
142369,"26 VINE STREET","BEVERLY","MA","01915"
142370,"26 VISTA MONTEMAR","LAGUNA NIGUEL","CA","92677"
142371,"26 WALNUT HILL ROAD","CHESTNUT HILL","MA","02467"
142372,"26 WARDOUR DRIVE","ANNAPOLIS","MD","21401"
142373,"26 WARREN STREET","HUDSON","NY","12534"
142374,"26 WASHINGTON AVE","DEER PARK","NY","11729"
142375,"26 WATCH TOWER RD","PLYMOUTH","CT","06782"
142376,"26 WATERTOWN ROAD","MORRIS","CT","06763"
142377,"26 WEEPING SPRUCE COURT","THE WOODLANDS","TX","77384"
142378,"26 WEST 9TH ST SUITE 9A","NEW YORK","NY","10011"
142379,"26 WEST CHESTER PIKE","HAVERTOWN","PA","19083"
142380,"26 WEST EAGLE STREET","BOSTON","MA","02128"
142381,"26 WHITEHEAD AVENUE","SOUTH RIVER","NJ","08882"
142382,"26 WHITETAIL DRIVE","WEAVERVILLE","NC","28787"
142383,"26 WILLOW HURST COURT","COLUMBIA","SC","29209"
142384,"26 WINTER STREET","TAUNTON","MA","02780"
142385,"26 WINTON STREET","ROSLINDALE","MA","02131"
142386,"26 YEW ROAD","ESSEX","MD","21221"
142387,"26-01 CORPORAL KENNEDY STREET","BAYSIDE","NY","11360"
142388,"26-01 PELLACK DRIVE","FAIRLAWN","NJ","07410"
142389,"26-30 30TH STREET 2ND FLOOR","ASTORIA","NY","11102"
142390,"26-34 30TH ST 2C","ASTORIA","NY","11102"
142391,"26-40 CHURCH STREET UNIT 3","SOUTH ORANGE","NJ","07079"
142392,"26","LEESBURG","FL","34748"
142393,"26","SANGER","TX","76266"
142394,"26","TRINITY","TX","75862"
142395,"260 13TH ST  NE","SALEM","OR","97301"
142396,"260 18TH STREET SUITE 10160","ATLANTA","GA","30363"
142397,"260 36TH ST 201","NEW YORK","NY","10018"
142398,"260 65 STREET 4N","BROOKLYN","NY","11220"
142399,"260 ACADEMY STREET","SOUTH ORANGE","NJ","07079"
142400,"260 ADAMS LANE NUMBER 2B","BOONE","NC","28607"
142401,"260 ALAMEDA AVE","FORT MYERS","FL","33905"
142402,"260 ARLENE STREET","STATEN ISLAND","NY","10314"
142403,"260 BENJAMIN STREET","EUGENE","OR","97404"
142404,"260 BETHANY EBENEZER ROAD","LOUISVILLE","MS","39339"
142405,"260 BIRCH DRIVE","BRICK","NJ","08723"
142406,"260 BIRCH RD","VILLAS","NJ","08251"
142407,"260 BISHOP STREET","ATTLEBORO","MA","02703"
142408,"260 BLACKJACK OAK DR W","RICHMOND HILL","GA","31324"
142409,"260 BRIAR LANE","HIGHLAND PARK","IL","60035"
142410,"260 BROWN RD","MACON","MS","39341"
142411,"260 CANNON ROAD","STATESVILLE","NC","28625"
142412,"260 CANON DEL SOL","WATSONVILLE","CA","95076"
142413,"260 CARROLLTON AVE","SHREVEPORT","LA","71105"
142414,"260 CARTER STREET","WILMINGTON","DE","19802"
142415,"260 CASTLE DR","SANTA CRUZ","CA","95065"
142416,"260 CHANTILLY LANE","RINGGOLD","NC","30736"
142417,"260 CHAPMAN RD STE 104 B","NEWARK","DE","19702"
142418,"260 CHAPMAN ROAD SUITE 104B","NEWARK","DE","19702"
142419,"260 CHESTERFIELD DRIVE","KINGSPORT","TN","37663"
142420,"260 COLONEL JOHN GAR","NARRAGANSETT","RI","02882"
142421,"260 CONVENT AVENUE NUMBER 34","NEW YORK","NY","10031"
142422,"260 COOPER CREEK ROAD","HENNING","TN","38041"
142423,"260 COUNTRY CLUB RD","EUGENE","OR","97401"
142424,"260 CRANDON BLVD SUITE 32202","KEY BISCAYNE","FL","33149"
142425,"260 DARTMOUTH AVE","HOLLAND","MI","49423"
142426,"260 DAVIS AVENUE","GREENWICH","CT","06830"
142427,"260 DELAWARE STREET","DENVER","CO","80223"
142428,"260 DERROM AVENUE","PATERSON","NJ","07504"
142429,"260 DUNSMUIR DRIVE","LODI","CA","95240"
142430,"260 DYCKMAN AVE","SOUTH HAVEN","MI","49090"
142431,"260 E 4TH AVE","NUCLA","CO","81424"
142432,"260 E 9TH AVE","SPOKANE","WA","99202"
142433,"260 EAST BRADLEY AVE SPACE 46","EL CAJON","CA","92021"
142434,"260 EMILY DR SW","LILBURN","GA","30047"
142435,"260 EUREKA CHURCH ROAD","CARROLLTON","GA","30117"
142436,"260 FAIRWAY SHORES ROAD","MT GILEAD","NC","27306"
142437,"260 FORTUNA DRIVE","PALM BEACH GARDENS","FL","33410"
142438,"260 GOLF COURSE ROAD","HAYESVILLE","NC","28904"
142439,"260 GREBLE ROAD","LEBANON","PA","17046"
142440,"260 GROSVENOR AVENUE","EAST PROVIDENCE","RI","02914"
142441,"260 HAMMOND AVENUE","WATERLOO","IA","50702"
142442,"260 HEINE AVE","ELGIN","IL","60123"
142443,"260 HERKIMER STREET APT 6D","BROOKLYN","NY","11216"
142444,"260 HICKORY FARM ROAD PO BOX 13","IRELAND","WV","26376"
142445,"260 HIGHLAND DRIVE","MCDONOUGH DRIVE","GA","30253"
142446,"260 HODGES ROAD","CHOCOWINITY","NC","27817"
142447,"260 HOWARD STREET NE SUITE 4","ATLANTA","GA","30317"
142448,"260 INDUSTRIAL AVE","ORANGE CITY","FL","32763"
142449,"260 INTERNATIONAL PARKWAY NO 124","DALLAS","GA","30157"
142450,"260 JAMESTOWN RD","MACOMB","IL","61455"
142451,"260 JANSEN AVE NE","HANOVER","MN","55341"
142452,"260 JANSEN AVENUE NE","HANOVER","MN","55341"
142453,"260 JEFFERSON AVE","BROOKLYN","NY","11216"
142454,"260 JUDGE EDWARD DUFRESNE PKWY","LULING","LA","70070"
142455,"260 KENSTON COURT","GENEVA","IL","60134"
142456,"260 KENSTON CT","GENEVA","IL","60134"
142457,"260 KETTERING LANE","LEAGUE CITY","TX","77573"
142458,"260 KNOBLOCH BLVD","VALMEYER","IL","62295"
142459,"260 LAS FLORES DRIVE","BAKERSFIELD","CA","93305"
142460,"260 LEWIS ROAD","WEST GROVE","PA","19390"
142461,"260 LINDA ROSA AVENUE APT 5","PASADENA","CA","91107"
142462,"260 LINDEN BLVD STE B","BROOKLYN","NY","11226"
142463,"260 LONGHOUSE LANE","SLINGERLANDS","NY","12159"
142464,"260 LONGWOOD AVE","BOSTON","MA","02115"
142465,"260 LONSDALE AVENUE","PAWTUCKET","RI","02860"
142466,"260 LOS PINOS ROAD","SANTA FE","NM","87507"
142467,"260 MAIN STREET","CALHOUN","KY","42327"
142468,"260 MALDEN TPK","SAUGERTIES","NY","12477"
142469,"260 MANLEY RD","GRIFFIN","GA","30223"
142470,"260 MAPLE TERRACE","FAIRBORN","OH","45324"
142471,"260 MARCOTT ROAD","KINGSTON","NY","12401"
142472,"260 MARION OAKS GOLF RD","OCALA","FL","34473"
142473,"260 MARKET STREET","Leechburg","PA","15656"
142474,"260 MARYLAN AVE","BOWLING GREEN","KY","42101"
142475,"260 MCCRARY ROAD","MOORESVILLE","NC","28117"
142476,"260 MELODY AVE","LAYTON","UT","84041"
142477,"260 MUNSEY LANE","NEW TAZEWELL","TN","37825"
142478,"260 N 3RD ST","LAURENS","IA","50554"
142479,"260 N LOCUST ST","INGLEWOOD","CA","90301"
142480,"260 N MAINE ST","FALLON","NE","89406"
142481,"260 NEWPORT CENTER DRIVE SUITE 425","NEWPORT BEACH","CA","92660"
142482,"260 NORTH NOKOMIS AVE","VENICE","FL","34293"
142483,"260 NORTHLAND BLVD SUITE 105-A","SPRINGDALE","OH","45246"
142484,"260 NORTHLAND BLVD SUITE 114 H","SPRINGDALE","OH","45256"
142485,"260 NW 109TH AVE","MIAMI","FL","33172"
142486,"260 OLD ELM AVENUE PO BOX 521","DELAWARE CITY","DE","19706"
142487,"260 PALMER LANE","WOODBURY","TN","37190"
142488,"260 PEACHTREE ST NW SUITE 2200","ATLANTA","GA","30303"
142489,"260 PEACHTREE ST SUITE 2200","ATLANTA","GA","30303"
142490,"260 PEACHTREE ST","ATLANTA","GA","30303"
142491,"260 PEACHTREE STREET NW SUITE 1901","ATLANTA","GA","30303"
142492,"260 PEACHTREE STREET NW SUITE 2200","ATLANTA","GA","30303"
142493,"260 PEACHTREE STREET SUITE 2200","ATLANTA","GA","30303"
142494,"260 PELHAM RD","GREENVILLE","SC","29615"
142495,"260 PEMBROKE STREET","KINGSTON","MA","02364"
142496,"260 PLAINS COURT","GALT","CA","95632"
142497,"260 POMONA AVE","LONG BEACH","CA","90803"
142498,"260 PUTNAM AVE","HAMDEN","CT","06517"
142499,"260 RANDOLPH STREET","MAHOMET","IL","61853"
142500,"260 RED CEDAR COURT APT 1C","CHESAPEAKE","VA","23320"
