"ID","Address","City","State","Zip"
72001,"1545 WEST 94TH STREET","LOS ANGELES","CA","90047"
72002,"1545","BRANFORD","FL","32008"
72003,"15450 HEATHERWOOD","SOUTHGATE","MI","48195"
72004,"15450 PORTER ROAD","WINTER GARDEN","FL","34787"
72005,"15450 STATE ROUTE 47","NEWARK","IL","60541"
72006,"15450 SW 26 TERRACE","MIAMI","FL","33185"
72007,"15451 MEHERRIN DR","CENTREVILLE","VA","20120"
72008,"15451 SW 15 ST","WESTON","FL","33326"
72009,"15452 BEAVER MARSH ROAD","MOUNT VERNON","WA","98273"
72010,"15453 ROBSON","DETROIT","MI","48227"
72011,"15454 1ST STREET EASR","MADEIRA BEACH","FL","33708"
72012,"15455 MANCHESTER RD NUM 12","BALLWIN","MO","63011"
72013,"15455 N DALLAS PARKWAY SUITE 600","ADDISON","TX","75001"
72014,"15455 S PARK AVE","SOUTH HOLLAND","IL","60473"
72015,"15457 LAS FLORES LANE","OAK FOREST","IL","60452"
72016,"15459 HIGHWAY 121-S","MARIANNA","AR","72360"
72017,"1546 205TH ST","FORT SCOTT","KS","66701"
72018,"1546 4TH AVENUE","DEER TRAIL","CO","80105"
72019,"1546 5TH STREET NW","WASHINGTON","MD","20001"
72020,"1546 ARBOR VIEW COURT APT 202","MEMPHIS","TN","38134"
72021,"1546 AVLEIGH CIR","ORLANDO","FL","32824"
72022,"1546 BALSAM STREET","CHARLESTON","SC","29407"
72023,"1546 BRETTONWOOD WAY","HIGHLANDS RANCH","CO","80129"
72024,"1546 CAMDEN PLACE","FULLERTON","CA","92833"
72025,"1546 CROYDON STREET","ORLANDO","FL","32828"
72026,"1546 DOGWOOD DRIVE","CRYSTAL LAKE","IL","60014"
72027,"1546 DUNBAR STREET","FAR ROCKAWAY","NY","11691"
72028,"1546 E 76TH STREET","TULSA","OK","74136"
72029,"1546 MARDEN RIDGE LOOP 209","APOPKA","FL","32703"
72030,"1546 MARETT BLVD EXT","ROCK HILL","SC","29832"
72031,"1546 NE 2ND AVE","OAK HARBOR","WA","98277"
72032,"1546 NW 56TH STREET NUMBER 665","SEATTLE","WA","98107"
72033,"1546 NW 56TH STREET","SEATTLE","WA","98107"
72034,"1546 OAKWOOD DR","CLEVELAND HTS","OH","44121"
72035,"1546 ORENDORF ROAD","ACCIDENT","MD","21520"
72036,"1546 QUAIL","HOWARD","KS","67349"
72037,"1546 ROSSER AVE","ELMONT","NY","11003"
72038,"1546 S PARIS CT","AURORA","CO","80012"
72039,"1546 SELKIRK ROAD","COLUMBUS","OH","43227"
72040,"1546 SUNBURY ROAD","POTTSVILLE","PA","17901"
72041,"1546 WASHINGTON BLVD 2ND FLOOR","DETROIT","MI","48226"
72042,"1546 WESTMORELAND AVE","SYRACUSE","NY","13210"
72043,"15460 INDIANOLA DRIVE","DERWOOD","MD","20855"
72044,"15460 MOUNTAIN VIEW CIRCLE","BROOMFIELD","CO","80023"
72045,"15461 S 182ND LN","GOODYEAR","AZ","85338"
72046,"15462 N GLENN HWY","SUTTON","AK","99674"
72047,"15462 SW 144TH TERRACE","PORTLAND","OR","97224"
72048,"15462 SW 144TH TERRACE","TIGARD","OR","97224"
72049,"15462 TUNGSTEN WAY NW","RAMSEY","MN","55303"
72050,"15464 171ST DR SE","MONROE","WA","98272"
72051,"15464 WINTERGREEN ST NW","ANDOVER","MN","55304"
72052,"15465 PRESTWICK CIRCLE","NORTHVILLE","MI","48168"
72053,"15465 RESERVATION RD NE","OKEECHOBEE","FL","34974"
72054,"15465 SW 19 WAY","MIAMI","FL","33185"
72055,"15465 SW GULL COURT","BEAVERTON","OR","97007"
72056,"15466 SALEM CHURCH RD","HOMEWORTH","OH","44634"
72057,"15469 CRIMSON STREET","FONTANA","CA","92336"
72058,"1547 ADAMS STREET","COSHOCTON","OH","43812"
72059,"1547 BLACKFOOT TRAIL","JAMESTOWN","OH","45335"
72060,"1547 BRENTFIELD DRIVE","WADSWORTH","OH","44281"
72061,"1547 CLEVELAND AVENUE","LA GRANGE PARK","IL","60526"
72062,"1547 CYPRESS BEND DRIVE","CEDAR HILL","TX","75104"
72063,"1547 HARBOR OAKS RD","JACKSONVILLE","FL","32207"
72064,"1547 HIGHLAND AVE P O BOX 4142","LOUISVILLE","KY","40204"
72065,"1547 LAURIE LANE","HINCKLEY","OH","44233"
72066,"1547 LONGVIEW ROAD","UNIONVILLE","TN","37180"
72067,"1547 MACEDONIA ROAD","FRANKLIN","KY","42134"
72068,"1547 PALOS VERDES MALL 196","WALNUT CREEK","CA","94597"
72069,"1547 QUAIL RIDGE ROAD","WOODBURY","MN","55125"
72070,"1547 ROUTE 565","SUSSEX","NJ","07461"
72071,"1547 S OGDEN DR","LOS ANGELES","CA","90019"
72072,"1547 SANDSTONE DR","FRISCO","TX","75034"
72073,"1547 W 87TH ST","CHICAGO","IL","60620"
72074,"15471 NW 112TH AVE","REDDICK","FL","32686"
72075,"15471 TEMPLE BLVD","LOXAHATCHEE","FL","33470"
72076,"15474 TULLER","DETROIT","MI","48238"
72077,"15475 NW 2ND CT","MIAMI","FL","33169"
72078,"15475 SOUTH PARK AVENUE SUITE 110","SOUTH HOLLAND","IL","60473"
72079,"15476 COON HOLLOW RD SE","STAYTON","OR","97383"
72080,"15476 JOST MAIN","ST LOUIS","MO","63034"
72081,"15476 NW 77 COURT SUITE 233","MIAMI LAKES","FL","33016"
72082,"15476 NW 77TH COURT NUMBER 211","MIAMI LAKES","FL","33016"
72083,"15476 RYAN AVE","PRAIRIEVILLE","LA","70769"
72084,"15477 EL CAJON STREET","SYLMAR","CA","91342"
72085,"15477 S LAGRANGE RD   135","ORLAND PARK","IL","60462"
72086,"15479 LADYSLIPPER LANE","DEERWOOD","MN","56444"
72087,"1548 19TH ST","DES MOINES","IA","50314"
72088,"1548 23RD AVE W","PALMETTO","FL","34221"
72089,"1548 ATLANTIC AVE","LEMOORE","CA","93245"
72090,"1548 BITTERSWEET DR","ST ANNE","IL","60964"
72091,"1548 BREWSTER CIRCLE","BIRMINGHAM","AL","35235"
72092,"1548 BRIDLE CIRCLE APT E","GREENVILLE","NC","27834"
72093,"1548 CONDRAY CIRCLE","GADSDEN","AL","35903"
72094,"1548 COUNTY ROAD 6","WILSON","TX","79381"
72095,"1548 DR F D REESE STREET","SELMA","AL","36703"
72096,"1548 EAST 925 SO","CLEARFIELD","UT","84015"
72097,"1548 GREYSTONE PLACE","HELLERTOWN","PA","18055"
72098,"1548 INDIAN HERITAGE ROAD","LUMBERTON","NC","28358"
72099,"1548 KINTLA ROAD","APOPKA","FL","32712"
72100,"1548 N GLASGOW","POST FALLS","ID","83854"
72101,"1548 NC HWY 211 W","LUMBERTON","NC","28360"
72102,"1548 NE DOGWOOD LANE","MADRAS","OR","97741"
72103,"1548 NEEDLES LN","BREINIGSVILLE","PA","18031"
72104,"1548 NOELLE WAY","NAPA","CA","94558"
72105,"1548 PERRY TOWNSHIP ROAD 35","WOOSTER","OH","44691"
72106,"1548 POPLAR AVENUE","MEMPHIS","TN","38104"
72107,"1548 PORTOFINO DRIVE","BAY POINT","CA","94565"
72108,"1548 RURITAN ROAD","HARRIMAN","TN","37748"
72109,"1548 S HIGHWAY 501","MARION","SC","29571"
72110,"1548 SAN SABA DR","DALLAS","TX","75218"
72111,"1548 SOUTH HOMAN","CHICAGO","IL","60623"
72112,"1548 STATE STREET APT 1/2","BOWLING GREEN","KY","42101"
72113,"1548 TALLAHASSEE BLVD","INTERCESSION CITY","FL","33848"
72114,"1548 TREE RIDGE ROAD","RICHMOND","VA","23231"
72115,"1548 WEST PRATT BLVD APT 3","CHICAGO","IL","60626"
72116,"1548 WISCONSIN AVENUE","GRAFTON","WI","53024"
72117,"1548 WISEMANTOWN ROAD","IRVINE","KY","40336"
72118,"15480 ANNAPOLIS RD STE 202/141","BOWIE","MD","20715"
72119,"15480 ANNAPOLIS ROAD SUITE 202-139","BOWIE","MD","20715"
72120,"15480 ANNAPOLIS ROAD SUITE 202-233","BOWIE","MD","20715"
72121,"15480 ANNAPOLIS ROAD SUITE 202-252","BOWIE","MD","20715"
72122,"15480 N LAGO DEL ORO PARKWAY","TUCSON","AZ","85739"
72123,"15480 NILE RD","WILMER","AL","36587"
72124,"15480 POINT LOOKOUT ROAD","SAINT INIGOES","MD","20684"
72125,"15480 SEE STREET","ROGERS","AR","72756"
72126,"15481 AIRLINE HWY","BATON ROUGE","LA","70817"
72127,"15485 SW 78 PL","MIAMI","FL","33157"
72128,"15485 WATERLOO CIRCLE","TRUCKEE","CA","96161"
72129,"15486 DAYBREAK LN","FONTANA","CA","92337"
72130,"15487 CHOPAWAMSIC COURT","WOODBRIDGE","VA","22191"
72131,"15487 OAK LANE / SUITE 200-H3","GULFPORT","NJ","39503"
72132,"15488 RED PEPPER PLACE","FONTANA","CA","92336"
72133,"15488 WILDEMERE","DETROIT","MI","48219"
72134,"15489 COMSTOCK STREET","GRAND HAVEN","MI","49417"
72135,"1549 APPLETON COURT","COLUMBUS","OH","43232"
72136,"1549 BERKELEY ROAD","EMPORIA","KS","66801"
72137,"1549 BLACKSNAKE RD","MOUNT AIRY","GA","30563"
72138,"1549 BROOKHAVEN DRIVE","MCLEAN","VA","22101"
72139,"1549 CAMPBELL RD","HOUSTON","TX","77055"
72140,"1549 CEALS CT","NAPERVILLE","IL","60565"
72141,"1549 CLEARVIEW BLVD","YORK","NE","68467"
72142,"1549 E 85TH STREET","CHICAGO","IL","60619"
72143,"1549 FAIRWAY DRIVE STE 201","NAPERVILLE","IL","60563"
72144,"1549 FINNEGAN LN","NORTH BRUNSWICK","NJ","08902"
72145,"1549 HWY 42 S","FLOVILLA","GA","30216"
72146,"1549 KALAMAZOO AVE SE","GRAND RAPIDS","MI","49507"
72147,"1549 KAREN BLVD","DISTRICT HEIGHTS","MD","20747"
72148,"1549 LEWISTON DRIVE","SUNNYVALE","CA","94087"
72149,"1549 MALLARD WAY","SUNNYVALE","CA","94087"
72150,"1549 MEREDITH DR 24","CINCINNATI","OH","45231"
72151,"1549 N ROCKY CREEK CT","WICHITA","KS","67230"
72152,"1549 OLDENBURG DR","AWENDAW","SC","29429"
72153,"1549 PLEASANT STREET","WINSTON-SALEM","NC","27107"
72154,"1549 POINCIANA AVE","FORT MYERS","FL","33901"
72155,"1549 RICHMOND AVE","DU PONT","WA","98327"
72156,"1549 SOUTH HOLT AVE","LOS ANGELES","CA","90035"
72157,"1549 SPRUCE COURT","BUENOS AIRES ARG","AA","00000"
72158,"1549 UNIVERSITY AVE W STUDIO 204","ST PAUL","MN","55104"
72159,"15490 VENTURA BLVD SUITE 100","SHERMAN OAKS","CA","91403"
72160,"15490 VENTURA BLVD SUITE 220","SHERMAN OAKS","CA","91403"
72161,"15491 BOHLMAN ROAD","SARATOGA","CA","95070"
72162,"15491 MADDELEIN","DETROIT","MI","48205"
72163,"15491 PREVOST STREET","DETROIT","MI","48227"
72164,"15492 BOOKER TRAIL","FRISCO","TX","75035"
72165,"15492 OLIVE CIRCLE","PUNTA GORDA","FL","33955"
72166,"15492 W CAMPBELL AVENUE","GOODYEAR","AZ","85395"
72167,"15493 NORTH 107TH STREET","LONGMONT","CO","80504"
72168,"15495 TAMIAMI TRAIL N SUITE 125","NAPLES","FM","34110"
72169,"15497 STONEYBROOK W PARKWAY 160","WINTER GARDEN","FL","34787"
72170,"154A WEST FOOTHILL BLVD NO 323","UPLAND","CA","91786"
72171,"155  15 N CONDUIT APARTMENT 1D","JAMAICA","NY","11434"
72172,"155  S GROVE AVENUE","CINCINNATI","OH","45215"
72173,"155  WILLIAM GURGANOUS ROAD","MAPLE HILL","NC","28454"
72174,"155 31ST ST","OGDEN","UT","84401"
72175,"155 ABBEYWALK LANE","COLUMBIA","SC","29229"
72176,"155 ABEYANCE","MONCURE","NC","27559"
72177,"155 ARLINGTON AVE","SOMERSET","NJ","08873"
72178,"155 AUGUSTINE ROAD","WHITE PLAINS","NY","10603"
72179,"155 BAY 28TH ST APT 1B","BROOKLYN","NY","11214"
72180,"155 BAY RIDGE AVE","BROOKLYN","NY","11220"
72181,"155 BEACH 27TH STREET STE 1F","QUEENS","NY","11691"
72182,"155 BELMONT AVENUE","BRATTLEBORO","VT","05301"
72183,"155 BENCHVIEW DRIVE","TOOELE","UT","84074"
72184,"155 BENTLEY OAKS BLVD","AUBURNDALE","FL","33823"
72185,"155 BEVERLY RD NE","ATLANTA","GA","30309"
72186,"155 BLAKE RIDGE DR","SCOTT DEPOT","WV","25560"
72187,"155 BLANDING AVENUE","EAST PROVIDENCE","RI","02914"
72188,"155 BLUE HERON DR PO BOX 872","CORNVILLE","AZ","86325"
72189,"155 BOND STREET","NEW FREEDOM","PA","17349"
72190,"155 BREWSTER STREET  4C","MANSFIELD CENTER","CT","06250"
72191,"155 BROADVIEW AVE 2ND FLOOR","WARRENTON","VA","20186"
72192,"155 BROOKSIDE DRIVE","YELLOW SPRINGS","OH","45387"
72193,"155 CALLE ROSARIO APT 1","SAN JUAN","PR","00911"
72194,"155 CARTER CREEK DRIVE","TEMPLE","GA","30179"
72195,"155 CAZENOVIA STREET","BUFFALO","NY","14210"
72196,"155 CENTER ST","SANTA CRUZ","CA","95060"
72197,"155 CHEYENNE DR","GRANGEVILLE","ID","83850"
72198,"155 CHOPTANK ROAD","STAFFORD","VA","22556"
72199,"155 CHRISTMAS HOLLOW DR","BIG STONE GAP","VA","24219"
72200,"155 CLEARSPRINGS LANE","HARRISON","AR","72601"
72201,"155 CLIFFSIDE DR","LEWISTOWN","PA","17044"
72202,"155 COCHRAN ROAD","PITTSBURGH","PA","15228"
72203,"155 COTTAGE LANE","MIDDLEBURY","VT","05753"
72204,"155 COUNTRYSIDE DRIVE","KINTNERSVILLE","PA","18930"
72205,"155 COUNTY ROAD 1139","VINEMONT","AL","35179"
72206,"155 COUNTY ROAD 525","EVANT","TX","76525"
72207,"155 CRANES ROOST BLVD SUITE 2090","ALTAMONTE SPRINGS","FL","32701"
72208,"155 CURTIS WAY","ATHENS","GA","30605"
72209,"155 DENROSE DRIVE APT 6","BUFFALO","NY","14226"
72210,"155 DIVISION AVE","EUGENE","OR","97404"
72211,"155 DODD DR","WASHINGTON","PA","15301"
72212,"155 DUNDERBERG ROAD","CENTRAL VALLEY","NY","10917"
72213,"155 DUVAL STREET","MELBOURNE BEACH","FL","32951"
72214,"155 E 4TH STREET","PERRIS","CA","92570"
72215,"155 E BOARDWALK DR 471","FORT COLLINS","CO","80525"
72216,"155 E CAMPBELL AVE SUITE 112","CAMPBELL","CA","95008"
72217,"155 E CAMPBELL AVE SUITE 129","CAMPBELL","CA","95008"
72218,"155 E CAMPBELL AVENUE SUITE 211","CAMPBELL","CA","95008"
72219,"155 E COLORADO STREET","LA GRANGE","TX","78945"
72220,"155 E COURT ST","OTTUMWA","IA","52501"
72221,"155 E JANSS RD","THOUSAND OAKS","CA","91360"
72222,"155 E MAIN STREET","GREENWOOD","IN","46143"
72223,"155 E MOUNTAIN CREEK RD","GREENVILLE","SC","29609"
72224,"155 E OHIO AVE","LAKE HELEN","FL","32744"
72225,"155 EAST 2ND STREET","NEW YORK","NY","10009"
72226,"155 EAST 55TH STREET SUITE 204","NEW YORK","NY","10022"
72227,"155 EASTERN AVENUE","DEDHAM","RI","02026"
72228,"155 ELBERDENE ST","HOLLAND","MI","49424"
72229,"155 ENDICOTT RD","BLOOMFIELD HILLS","MI","48304"
72230,"155 FARNSLEIGH AVENUE","BLUFFTON","SC","29910"
72231,"155 FEDERAL STREET SUITE 700","BOSTON","MA","02110"
72232,"155 FERRIS AVENUE APT 9J","WHITE PLAINS","NY","10603"
72233,"155 FILBERT ST","OAKLAND","CA","94607"
72234,"155 FLEET STREET","PORTSMOUTH","NH","03801"
72235,"155 FLEETWOOD AVENUE","WAKEFIELD","VA","23888"
72236,"155 FOREST HILLS STREET UNIT 1","JAMAICA PLAIN","MA","02130"
72237,"155 FOREST VIEW DRIVE","WINSTON-SALEM","NC","27104"
72238,"155 FORSYTH STREET","ATLANTA","GA","30303"
72239,"155 FOURTH AVE SE","HARMONY","MN","55939"
72240,"155 FRANKLIN STREET","WESTFIELD","MA","01085"
72241,"155 GRAF RD","EDGERTON","WI","53534"
72242,"155 GREENFIELD DRIVE","CHICO","CA","95973"
72243,"155 GROVE STEET","PASSAIC","NJ","07055"
72244,"155 HALE KUAI STREET","KIHEI","HI","96753"
72245,"155 HAMPTON LANE","ELIZABETHTOWN","KY","42701"
72246,"155 HERITAGE CREEK WAY","GREENSBORO","NC","27405"
72247,"155 HESTER STREET  UNIT 701","NEW YORK","NY","10013"
72248,"155 HILLS FERRY RD","NASHUA","NH","03064"
72249,"155 HILLSIDE DR","HENDERSONVILLE","TN","37075"
72250,"155 HOLMDENE BLVD","GRAND RAPIDS","MI","49503"
72251,"155 INDIANA AVE STE 301","VALPARAISO","IN","46383"
72252,"155 INDIANA AVE","VALPARAISO","IN","46383"
72253,"155 INTRACOASTAL DRIVE","MADISON","AL","35758"
72254,"155 JENNIFER LANE","COVINGTON","GA","30016"
72255,"155 JERI DR","MOORESBURG","TN","37811"
72256,"155 JOHNSTON ST","ROCK HILL","SC","29731"
72257,"155 JOSEPH E LOWERY BLVD SW","ATLANTA","GA","30314"
72258,"155 KELLY MILL ROAD","SENECA","SC","29672"
72259,"155 KENNY VAUGHN RD","BELDEN","MS","38826"
72260,"155 KIBBE RD","EAST LONGMEADOW","MA","01028"
72261,"155 KINGSTON WAY","ATHENS","GA","30606"
72262,"155 LEE STREET","COLUMBUS","MS","39702"
72263,"155 LIMPKIN AVENUE","CLARKSBURG","MD","20871"
72264,"155 LIVERMORE FLATS","WHITEFISH","MT","59937"
72265,"155 MADISON STREET","ONEIDA","NY","13421"
72266,"155 MAIN STREET","MILFORD","MA","01757"
72267,"155 MAIN STREET","SALEM","NH","03079"
72268,"155 MARKET STREET  2ND FLOOR","PATERSON","NJ","07505"
72269,"155 MILL CIRCLE","WINCHENDON","MA","01475"
72270,"155 MONROE ST","MONROEVILLE","OH","44847"
72271,"155 MONTAUK DRIVE","STAMFORD","CT","06902"
72272,"155 MORRIS AVE STE 203","SPRINGFIELD","NJ","07081"
72273,"155 N BELLAIRE AVE","LOUISVILLE","KY","40206"
72274,"155 N CENTER ST","MESA","AZ","85201"
72275,"155 N COLLEGE AVENUE SUITE 128","FORT COLLINS","CO","80524"
72276,"155 N COLUMBIA STREET","MACY","IN","46951"
72277,"155 N COUNTY ROAD 315","INTERLACHEN","FL","32148"
72278,"155 N FAYETTE COURT","FAYETTEVILLE","GA","30214"
72279,"155 N HARBOR DR APT 209","CHICAGO","IL","60601"
72280,"155 N HARBOR DRIVE UNIT 2303","CHICAGO","IL","60601"
72281,"155 N HARBOR DRIVE UNIT 3110","CHICAGO","IL","60601"
72282,"155 N LAKE AVE FL 11","PASADENA","CA","91101"
72283,"155 N LAKE AVENUE SUITE 800","PASADENA","CA","91101"
72284,"155 N MAIN STREET","WELLSVILLE","NY","14895"
72285,"155 N MICHIGAN AVE STE 560","CHICAGO","IL","60601"
72286,"155 N PFINGSTEN ROAD SUITE 365","DEERFIELD","IL","60015"
72287,"155 N RIVERVIEW DRIVE","ANAHEIM","CA","92808"
72288,"155 NE NAZARENE CHURCH WAY","MADISON","FL","32340"
72289,"155 NEWPORT AVE","LAKEWOOD","NJ","08701"
72290,"155 NORTH HARBOR DR SUITE 5302","CHICAGO","IL","60601"
72291,"155 NORTH LAKE AVENUE - SUITE 800","PASADENA","CA","91101"
72292,"155 NORTH MAIN STREET SUITE 101D","COLLIERVILLE","TN","38017"
72293,"155 NORTH MAIN STREET","CRAMERTON","NC","28032"
72294,"155 NORTH RIVERVIEW DRIVE SUITE 225","ANAHEIM HILLS","CA","92808"
72295,"155 NORTH WACKER DRIVE SUITE 4250","CHICAGO","IL","60606"
72296,"155 NW 112TH AVE","PLANTATION","FL","33325"
72297,"155 NW 1ST STREET","LAKE BUTLER","FL","32054"
72298,"155 OCEAN LANE DRIVE 1215","MIAMI","FL","33149"
72299,"155 ORIENTE ST","DALY CITY","CA","94014"
72300,"155 PAIGE HILL ROAD","GOFFSTOWN","NH","03045"
72301,"155 PAOAKALANI AVENUE","HONOLULU","HI","96815"
72302,"155 PARISH ROAD","NEW CANAAN","CT","06840"
72303,"155 PARK VIEW CT","PENINSULA","OH","44264"
72304,"155 PERRY STREET","MAYFIELD","KY","42066"
72305,"155 PLYMOUTH STREET","FITCHBURG","MA","01420"
72306,"155 PONDEROSA CIRCLE","MIDWAY","FL","32343"
72307,"155 POTOMAC PASSAGE UNIT 431","OXON HILL","MD","20745"
72308,"155 POTOMAC PSGE UNIT PH17","NATIONAL HARBOR","MD","20745"
72309,"155 PRINCE STREET","BROOKLYN","NY","11201"
72310,"155 PRINCESS ANN AVE","VIOLA","DE","19979"
72311,"155 PROCTOR DRIVE","SALISBURY","NC","28147"
72312,"155 PROSPECT ST / PO BOX 1","HYDE PARK","VT","05655"
72313,"155 REEVES COVE ROAD","CHANDLER","NC","28715"
72314,"155 RHONDA WAY","ROCKWOOD","TN","37854"
72315,"155 RIDGE ROAD SE","WASHINGTON","DC","20019"
72316,"155 RIPPLEWATER LN","MOORESVILLE","NC","28117"
72317,"155 RIVERSIDE DRIVE APT 2A","NEW YORK","NY","10024"
72318,"155 RIVERVIEW RD","IRVINE","KY","40336"
72319,"155 ROSEMONT DRIVE","PADUCAH","KY","42001"
72320,"155 RUTH ANN DRIVE","LUCASVILLE","OH","45648"
72321,"155 S BRADFORD ST   SUITE 203","DOVER","DE","19904"
72322,"155 S BROADVIEW","GREENBRIER","AR","72058"
72323,"155 S EL MOLINO AVE STE104","PASADENA","CA","91101"
72324,"155 S EL MOLINO AVENUE SUITE 104","PASADENA","CA","91101"
72325,"155 S H ST","OXNARD","CA","93030"
72326,"155 S MAIN ST UNIT 463155","MOUNT CLEMENS","MI","48046"
72327,"155 S MASSANUTTEN ST","STRASBURG","VA","22657"
72328,"155 S PARK AVE","CAPE GIRARDEAU","MO","63701"
72329,"155 S PENNSYLVANIA STREET APT 108","DENVER","CO","80209"
72330,"155 S SECTION STREET","FAIRHOPE","AL","36532"
72331,"155 SADDLEBROOK LN UNIT 379","FLORENCE","KY","41042"
72332,"155 SAN LAZARO AVE","SUNNYVALE","CA","94086"
72333,"155 SANS SOUCI DRIVE","PAWLING","NY","12564"
72334,"155 SANSOME ST SUITE 500","SAN FRANCISCO","CA","94104"
72335,"155 SANSOME STREET STE 850","SAN FRANCISCO","CA","94104"
72336,"155 SCOTT DRIVE","SHERIDAN","WY","82801"
72337,"155 SE J ST","MADRAS","OR","97741"
72338,"155 SEAVIEW AVE","JERSEY CITY","NJ","07305"
72339,"155 SHADOWBROOK DR","ROSWELL","GA","30075"
72340,"155 SOMERVELLE ST","ALEXANDRIA","VA","22304"
72341,"155 SONOMA MOUNTAIN RD","PENNGROVE","CA","94954"
72342,"155 SOUTH EL MOLINO AVENUE","PASADENA","CA","91101"
72343,"155 SOUTH MAIN STREET UNIT 354","MOUNT CLEMENS","MI","48046"
72344,"155 SOUTH STREET SUITE 103","WRENTHAM","MA","02093"
72345,"155 SPIVEY GLEN DRIVE","JONESBORO","GA","30236"
72346,"155 STADIUM DRIVE HPER 308Q","FAYETTEVILLE","AR","72701"
72347,"155 SUNNYSIDE DRIVE","SAN LEANDRO","CA","94577"
72348,"155 SW AMESBURY AVE","PORT ST LUCIE","FL","34953"
72349,"155 THIRD AVE","TRIBES HILL","NY","12177"
72350,"155 VERSHIRE CENTER ROAD","CHELSEA","VT","05038"
72351,"155 W 2ND S","PARIS","ID","83261"
72352,"155 W CARLTON WAY","TRACY","CA","95376"
72353,"155 W CONGRESS SUITE 300","DETROIT","MI","48226"
72354,"155 W MAIN STREET 100A","COLUMBUS","OH","43215"
72355,"155 W MARKET ST","YORK","PA","17401"
72356,"155 W SYCAMORE LANE","LOUISVILLE","CO","80027"
72357,"155 WALTERS DRIVE","CHRISTIANSBURG","VA","24073"
72358,"155 WALTON ST","ENGLEWOOD","NJ","07631"
72359,"155 WASHINGTON LANE APT H1","JENKINTOWN","PA","19046"
72360,"155 WELLSTONE PLACE","COVINGTON","GA","30014"
72361,"155 WENTWORTH ROAD","WALPOLE","NH","03608"
72362,"155 WEST 126TH STREET","NEW YORK","NY","10027"
72363,"155 WEST 13TH STREET","NEW YORK","NY","10010"
72364,"155 WEST PACES FERRY ROAD NW","ATLANTA","GA","30305"
72365,"155 WESTRIDGE PKWY STE 213","MCDONOUGH","GA","30253"
72366,"155 WESTRIDGE PKWY STE 228","MCDONOUGH","GA","30253"
72367,"155 WILLOW BROOK DRIVE","ROSWELL","GA","30076"
72368,"155 WOOD DUCK LOOP","MOORESVILLE","NC","28117"
72369,"155 WOODCREST AVE","WHITE PLAINS","NY","10604"
72370,"155 WOODLAWN AVENUE","JERSEY CITY","NJ","07305"
72371,"155 WOODS MILL DR","STAUNTON","IL","62088"
72372,"155 WOOSTER STREET 6E/F","NEW YORK","NY","10012"
72373,"155 WYCKOFF AVENUE","WALDWICK","NJ","07463"
72374,"155 WYCKOFF STREET","BROOKLYN","NY","11217"
72375,"155 WYTHE AVENUE","BROOKLYN","NY","11249"
72376,"155 YORKTOWN BLVD","HAMMONTON","NJ","08037"
72377,"155-01 90TH AVENUE 2K","JAMAICA","NY","11432"
72378,"155-02 116 DRIVE","JAMAICA","NY","11434"
72379,"155","PENSACOLA","FL","32507"
72380,"1550 3RD STREET","RIVERSIDE","CA","92507"
72381,"1550 7TH ST NW SUITE 819","WASHINGTON","DC","20001"
72382,"1550 9TH AVE 3 ATTN JIM HERBST","SAN FRANCISCO","CA","94122"
72383,"1550 ACORN CT","MENASHA","WI","54952"
72384,"1550 ALBEMARLE WAY","BURLINGAME","CA","94010"
72385,"1550 BETHAL CT","RENO","NV","89521"
72386,"1550 BLOOMINGDALE ROAD","GLENDALE HEIGHTS","IL","60103"
72387,"1550 BOONE ROAD","ADEL","GA","31620"
72388,"1550 BRANDYWINE DRIVE","TAVARES","FL","32778"
72389,"1550 BRICKELL AVE UNIT A310","MIAMI","FL","33129"
72390,"1550 BROADWAY SUITE L","CHULA VISTA","CA","91911"
72391,"1550 CALLE DEL SOL","CHULA VISTA","CA","91913"
72392,"1550 CANARSIE RD","BROOKLYN","NY","11236"
72393,"1550 CASE AVENUE EAST","SAINT PAUL","MN","55106"
72394,"1550 CHASE AVE","CINCINNATI","OH","45223"
72395,"1550 COLGIN ST","MOBILE","AL","36605"
72396,"1550 CONANT","BURLEY","ID","83318"
72397,"1550 CONCORD PLACE DR 2C","KALAMAZOO","MI","49009"
72398,"1550 CYPRESS DRIVE","TRACY","CA","95376"
72399,"1550 DEER PARK AVENUE","DEER PARK","NY","11729"
72400,"1550 E REV CHESTER RIGGINS AVE","FRESNO","CA","93706"
72401,"1550 E RIVERCHASE","MIDLAND","MI","48640"
72402,"1550 E THUNDERBIRD RD NUM 2035","PHOENIX","AZ","85022"
72403,"1550 ELMAR ROAD","JACKSONVILLE","FL","32226"
72404,"1550 ENGINEERING DRIVE","MADISON","WI","53706"
72405,"1550 FARM ROAD","SEBRING","FL","33872"
72406,"1550 FORD RD","TERRY","MS","39170"
72407,"1550 GROVANIA AVENUE","ABINGTON","PA","19001"
72408,"1550 HARRISBURG AVE","MOUNT JOY","PA","17552"
72409,"1550 HARRISON STREET SOUTH","TWIN FALLS","ID","83301"
72410,"1550 HENDRICKSON STREET","BROOKLYN","NY","11234"
72411,"1550 HOPE VALLEY DRIVE","JACKSONVILLE","FL","32221"
72412,"1550 IRON POINT ROAD 212","FOLSOM","CA","95630"
72413,"1550 KATY GAP RD APT 205","KATY","TX","77494"
72414,"1550 KATY GAP ROAD  1802","KATY","TX","77494"
72415,"1550 KOHL ST","BROOMFIELD","CO","80020"
72416,"1550 LARIMER ST BOX 508","DENVER","CO","80202"
72417,"1550 LARIMER ST","DENVER","CO","80202"
72418,"1550 LARIMER STREET UNIT 157","DENVER","CO","80202"
72419,"1550 LARIMER STREET","DENVER","CO","80202"
72420,"1550 LATHAM ROAD SUITE 6","WEST PALM BEACH","FL","33409"
72421,"1550 LAUREL BLUFFS DR","HAZELWOOD","MO","63042"
72422,"1550 LENNOXVILLE ROAD","BEAUFORT","NC","28516"
72423,"1550 MADRUGA AVENUE     SUITE 506","CORAL GABLES","FL","33146"
72424,"1550 MADRUGA AVENUE SUITE 110","CORAL GABLES","FL","33146"
72425,"1550 MADRUGA AVENUE SUITE 240","CORAL GABLES","FL","33146"
72426,"1550 MAGNOLIA DRIVE","CINCINNATI","OH","45215"
72427,"1550 MAINE STREET","QUINCY","IL","62301"
72428,"1550 MARLWOOD CIRCLE","CHARLOTTE","NC","28227"
72429,"1550 MARSH AVENUE","DELPHOS","OH","45833"
72430,"1550 MARSHALL LN SE","CONYERS","GA","30094"
72431,"1550 MIDDLETON STREET UNIT 2612","ORANGEBURG","SC","29115"
72432,"1550 MIRASOL DRIVE","SAN MARINO","CA","91108"
72433,"1550 MONTE VISTA DRIVE","BULLHEAD CITY","AZ","86442"
72434,"1550 MUHLENBERG DR","BLUE BELL","PA","19422"
72435,"1550 N FULLER AVE - 210","LOS ANGELES","CA","90046"
72436,"1550 N MILWAUKEE AVE","CHICAGO","IL","60622"
72437,"1550 N NEW YORK","WICHITA","KS","67214"
72438,"1550 N POINSETTIA PLACE STE 112A","LOS ANGELES","CA","90046"
72439,"1550 NE 168TH ST","NORTH MIAMI BEACH","FL","33162"
72440,"1550 NEDW RD SUITE B","NORTHFIELD","NJ","08225"
72441,"1550 NESBIT ROAD","NESBIT","MS","38651"
72442,"1550 NEW RD SUITE B","NORTHFIELD","NJ","08225"
72443,"1550 NICODEMUS RD","REISTERSTOWN","MD","21136"
72444,"1550 NORTH RHODES STREET","MOUNT DORA","FL","32757"
72445,"1550 NORWOOD DRIVE  SUITE 307","HURST","TX","76054"
72446,"1550 NW 110TH AVE APT 357","PLANTATION","FL","33322"
72447,"1550 NW 128TH DRIVE 208","SUNRISE","FL","33323"
72448,"1550 O","BELLS","TX","75414"
72449,"1550 OLD RANCH ROAD","PLACERVILLE","CA","95667"
72450,"1550 OPELIKA RD SUITE 6 PO BOX 401","AUBURN","AL","36830"
72451,"1550 OPELIKA ROAD SUITE 6-332","AUBURN","AL","36830"
72452,"1550 OWENS STORE RD","CANTON","GA","30115"
72453,"1550 P ROAD","LOMA","CO","81521"
72454,"1550 PLATTE ST UNIT A450","DENVER","CO","80202"
72455,"1550 POLY DRIVE","BILLINGS","MT","59102"
72456,"1550 PURPLE SAGE CT","FORT COLLINS","CO","80526"
72457,"1550 S 1000 E","CLEARFIELD","UT","84015"
72458,"1550 S BEVERLY DR SUITE 2","LOS ANGELES","CA","90035"
72459,"1550 S CAMINO REAL UNIT 322","PALM SPRINGS","CA","92264"
72460,"1550 S DIXIE HWY 203","CORAL GABLES","FL","33146"
72461,"1550 S LIBERTY DRIVE","BLOOMINGTON","IN","47401"
72462,"1550 SALTER PATH RD 208","INDIAN BEACH","NC","28512"
72463,"1550 SAN SIERRA COURT","WATSONVILLE","CA","95076"
72464,"1550 SOUTH BLACK BRANCH ROAD","CECILIA","KY","42724"
72465,"1550 STROUD ROAD","MCDONOUGH","GA","30252"
72466,"1550 SYCAMORE AVE APT 407","HERCULES","CA","94547"
72467,"1550 TERRELL MILL RD 18B","MARIETTA","GA","30067"
72468,"1550 TERRELL MILL RD SE APT 20-O","MARIETTA","GA","30067"
72469,"1550 THE ALAMEDA SUITE 302","SAN JOSE","CA","95126"
72470,"1550 THOMPSON AVE","BETHLEHEM","PA","18017"
72471,"1550 TREVINO AVE","CORAL GABLES","FL","33134"
72472,"1550 VALVERDE LANE UNIT 1","CHULA VISTA","CA","91913"
72473,"1550 VIRGIL MOON ROAD","LOGANVILLE","GA","30052"
72474,"1550 W 84 ST STE 23","HIALEAH","FL","33014"
72475,"1550 W BROCK AVE","HERMISTON","OR","97838"
72476,"1550 W CARROLL AVENUE SUITE 210","CHICAGO","IL","60607"
72477,"1550 W PLANO PKWY","PLANO","TX","75075"
72478,"1550 WALL STREET SUITE 243","SAINT CHARLES","MO","63303"
72479,"1550 WEST HORIZON RIDGE  SUITE 34","HENDERSON","NV","89012"
72480,"1550 WESTFALL ROAD","ROCHESTER","NY","14618"
72481,"1550 WEWATTA ST FL 2","DENVER","CO","80202"
72482,"1550 WORCESTER ROAD - 422W","FRAMINGHAM","MA","01702"
72483,"1550 WYNGATE DR","DELAND","FL","32724"
72484,"1550-11 NORMANDY VILLAGE PKWY","JACKSONVILLE","FL","32221"
72485,"15500 CANTERBURY LANE","ORLAND PARK","IL","60462"
72486,"15500 ESPOLA ROAD","POWAY","CA","92064"
72487,"15500 JOJOBA LANE","VICTORVILLE","CA","92394"
72488,"15500 LEARNING LANE","HAYMARKET","VA","20169"
72489,"15500 LEGACY RD","TUSTIN","CA","92782"
72490,"15500 MIDTOWN DRIVE","VICTORVILLE","CA","92394"
72491,"15500 SIMONDS ROAD NE","KENMORE","WA","98028"
72492,"15501 BRUCE B DOWNS BLVD 306","TAMPA","FL","33647"
72493,"15501 BRUCE B DOWNS BLVD APT 2507","TAMPA","FL","33647"
72494,"15501 BRUCE B DOWNS BLVD","TAMPA","FL","33647"
72495,"15501 SAN PABLO AVE G239","RICHMOND","CA","94806"
72496,"15501 SAN PABLO AVE STE G 103","RICHMOND","CA","94806"
72497,"15501 SANDEL AVENUE","GARDENA","CA","90248"
72498,"15501 WEST COTTONWOOD ST","SURPRISE","AZ","85374"
72499,"15501 WILDFLOWER LANE","WESTFIELD","IN","46074"
72500,"15502 BRINTON WAY","BRANDYWINE","MD","20616"
