"ID","Address","City","State","Zip"
220501,"4644 W GANDBY BLVD STE 4 - 132","TAMPA","FL","33611"
220502,"46448 262ND STREET","HARTFORD","SD","57033"
220503,"4645 BIT AND SPUR ROAD","MOBILE","AL","36608"
220504,"4645 COLISEUM ST  APT 2","LOS ANGELES","CA","90016"
220505,"4645 DOLPHIN ROAD 113","DALLAS","TX","75223"
220506,"4645 ELM TERRACE","SKOKIE","IL","60076"
220507,"4645 ENDERS RD","MANLIUS","NY","13104"
220508,"4645 HAWTHORNE LANE NW","WASHINGTON","DC","20016"
220509,"4645 HIGHLINE PLACE","DENVER","CO","80222"
220510,"4645 JACKYBELL TRL","DECATUR","GA","30034"
220511,"4645 NANNIE HELEN BURROUGHS AVE NE","WASHINGTON","DC","20019"
220512,"4645 NANNIE HELEN BURROUGHS AVENUE","WASHINGTON","DC","20019"
220513,"4645 NH BURROUGHS AVE NE STE 20","WASHINGTON","DC","20019"
220514,"4645 PITT STREET","ALBUQUERQUE","NM","87111"
220515,"4645 PLANO PARKWAY 2204","CARROLLTON","TX","75010"
220516,"4645 RIVERMAN WAY","LEXINGTON","KY","40515"
220517,"4645 SE 11TH PL STE 101","CAPE CORAL","FL","33904"
220518,"4645 SEMINARY RD APT 301","ALEXANDRIA","VA","22304"
220519,"4645 SOUTH TROPICAL TRAIL","MERRITT ISLAND","FL","32952"
220520,"4645 VALAIS COURT UNIT 123","JOHNS CREEK","GA","30022"
220521,"4645 VALAIS CT 74","ALPHARETTA","GA","30222"
220522,"4645 W STATE ROAD","BLOOMINGTON","IN","47403"
220523,"4646 COLORADO ST SE","PRIOR LAKE","MN","55372"
220524,"4646 E MOUNTAIN VISTA DR","PHOENIX","AZ","85048"
220525,"4646 GOLDEN WEST COVE","SOUTHHAVEN","MS","38671"
220526,"4646 GREENE PL NW","WASHINGTON","DC","20007"
220527,"4646 JANSSEN DR","CORPUS CHRISTI","TX","78411"
220528,"4646 KATHI DR","BETHLEHEM","PA","18017"
220529,"4646 N BEACON STREET APT 102","CHICAGO","IL","60640"
220530,"4646 POPLAR AVE STE 515","MEMPHIS","TN","38117"
220531,"4646 POPLAR SUITE 440B","MEMPHIS","TN","38117"
220532,"4646 PRINCESS ANNE ROAD SUITE 105","VIRGINIA BEACH","VA","23462"
220533,"4646 RHETT LANE UNIT B","CARROLLTON","TX","75010"
220534,"4646 ROAMING DR NE","GRAND RAPIDS","MI","49525"
220535,"4646 SE ALLEN CT","TOPEKA","KS","66605"
220536,"4646 SHERER AVENUE SW","CANTON","OH","44706"
220537,"4646 SOUTH PRAIRIE AVE APT 1S","CHICAGO","IL","60653"
220538,"4646 SOUTH WALLACE LANE","HOLLADAY","UT","84117"
220539,"4646 WOODBINE RD","PENSACOLA","FL","32571"
220540,"4646 WOODLAND AVE","DREXEL HILL","PA","19026"
220541,"464612","LAWRENCEVILLE","GA","30044"
220542,"4647 E ANAHEIM ST","LONG BEACH","CA","90803"
220543,"4647 MERIDIAN RD","WILLIAMSTON","MI","48895"
220544,"4647 NATURES CIRCLE","SYRACUSE","NY","13215"
220545,"4647 SE 33RD AVENUE","PORTLAND","OR","97202"
220546,"4647 SIENNA OAKS CT","SAINT LOUIS","MO","63128"
220547,"4647 VISTA DEL MONTE AVE STE 208","SHERMAN OAKS","CA","91403"
220548,"46471 CREEKSIDE COURT","CANTON","MI","48187"
220549,"46472 CREEKSIDE CT","CANTON","MI","48187"
220550,"4648 CEDAR DR","HILLSBORO","MO","63050"
220551,"4648 CEDAR LAKE ROAD S APT 1","SAINT LOUIS PARK","MN","55416"
220552,"4648 CR 4300","INDEPENDENCE","KS","67301"
220553,"4648 E ALPINE DR","POST FALLS","ID","83854"
220554,"4648 GRAND DELL DRIVE","CRESTWOOD","KY","40014"
220555,"4648 GREEN FOREST CT","MOBILE","AL","36618"
220556,"4648 LONG BAY RD NW","HACKENSACK","MN","56452"
220557,"4648 MAPLETREE LOOP","WESLEY CHAPEL","FL","33549"
220558,"4648 POND RUN","CANTON","MI","48188"
220559,"4648 WEST MONROE STREET","CHICAGO","IL","60644"
220560,"4649 CAVERNS DRIVE","KISSIMMEE","FL","34758"
220561,"4649 CLOISTER CIR","HAMPTON","GA","30228"
220562,"4649 E ASHFORD AVENUE","ORANGE","CA","92867"
220563,"4649 FLOWER STREET","WHEAT RIDGE","CO","80033"
220564,"4649 GUTHRIE HWY","CLARKSVILLE","TN","37040"
220565,"4649 HICKORY WOOD ROW","GREENWOOD","IN","46143"
220566,"4649 MABRY PARKWAY","ROCK HILL","SC","29732"
220567,"4649 PONCE DE LEON BLVD SUITE 404","CORAL GABLES","FL","33146"
220568,"4649 PONCE DE LEON BLVD SUITE 406","CORAL GABLES","FL","33146"
220569,"4649 RAYNOR COURT","MASON","OH","45040"
220570,"4649 SHANNON VIEW","ACTON","CA","93510"
220571,"4649 W MOORESVILLE RD","INDIANAPOLIS","IN","46221"
220572,"465 21ST AVE S RM 4280A","NASHVILLE","TN","37240"
220573,"465 ANSON STREET","BRIDGEPORT","CT","06606"
220574,"465 ARBOR CIRCLE","YOUNGSTOWN","OH","44505"
220575,"465 ASH STREET","HENDERSON","NV","89015"
220576,"465 BELMONT AVE","SPRINGFIELD","MA","01108"
220577,"465 BOULEVARD - UNIT 4","ELMWOOD PARK","NJ","07407"
220578,"465 BOULEVARD","ELMWOOD PARK","NJ","07407"
220579,"465 BRICKELL AVENUE APT 5005","MIAMI","FL","33131"
220580,"465 BRIGHTVIEW DR","LAKE MARY","FL","32746"
220581,"465 BUOY DR","CROWLEY","TX","76036"
220582,"465 CALIFORNIA STREET SUITE 425","SAN FRANCISCO","CA","94104"
220583,"465 CALLE HOSTOS URB EL VEDADO","SAN JUAN","PR","00917"
220584,"465 CALLE PORTAL","SIERRA VISTA","AZ","85635"
220585,"465 CENTRAL AVE","ALBANY","NY","12206"
220586,"465 COLONIAL PLACE","NIPOMO","CA","93444"
220587,"465 COUNTY ROAD 526","POPLAR BLUFF","MO","63901"
220588,"465 DACULA ROAD SUITE G","DACULA","GA","30019"
220589,"465 DE LASALLE AVENUE","NAPERVILLE","IL","60565"
220590,"465 EAST 850 SOUTH","OREM","UT","84097"
220591,"465 EAST GRAND AVE","RAHWAY","NJ","07065"
220592,"465 GADWALL DRIVE","RICHMOND","KY","40475"
220593,"465 GLADES PT","FAIRBURN","GA","30213"
220594,"465 GOLD ASH MEWS","GAITHERSBURG","MD","20878"
220595,"465 GOLDEN POND LOOP","CAMPBELLSVILLE","KY","42718"
220596,"465 GRAND ST","NEW YORK","NY","10002"
220597,"465 HUNTINGTON ROAD SUITE 150","ATHENS","GA","30606"
220598,"465 LAND OR DR","RUTHER GLEN","VA","22546"
220599,"465 LOWERLINE","NEW ORLEANS","LA","70118"
220600,"465 MARIN BLVD","JERSEY CITY","NJ","07302"
220601,"465 MAYFLOWER DRIVE","SAGINAW","MI","48638"
220602,"465 MEMORIAL DR SE UNIT 252","ATLANTA","GA","30312"
220603,"465 MEMORIAL DR SE UNIT 681","ATLANTA","GA","30312"
220604,"465 N 4TH ST STE 110","LARAMIE","WY","82072"
220605,"465 N 660 W","WEST BOUNTIFUL","UT","84087"
220606,"465 N HAYWORTH AVE UNIT 207","LOS ANGELES","CA","90048"
220607,"465 N JAMES AVE","EAST WENATCHEE","WA","98802"
220608,"465 N PARK DR 3508","CHICAGO","IL","60611"
220609,"465 N WESTERN AVENUE APT 207","LOS ANGELES","CA","90004"
220610,"465 NE 7TH STREET","BOCA RATON","FL","33432"
220611,"465 NEWFOUND HARBOR DR","MERRITT ISLAND","FL","32952"
220612,"465 NORTH 4TH AVENUE","COAL CITY","IL","60416"
220613,"465 OCEAN PARKWAY 6C","BROOKLYN","NY","11218"
220614,"465 OKEEPA TRAIL","LOVELAND","CO","80537"
220615,"465 PAXSON AVENUE","HAMILTON","NJ","08690"
220616,"465 PERUQUE HILLS PARKWAY","WENTZVILLE","MO","63385"
220617,"465 PIERCE AVENUE","MACON","GA","31204"
220618,"465 PLAIN ROAD","HINSDALE","NH","03451"
220619,"465 PROSPECT ST","GLEN ROCK","NJ","07452"
220620,"465 RAMS WAY","TUCKER","GA","30084"
220621,"465 RED CORNER ROAD","DOUGLASSVILLE","PA","19518"
220622,"465 RIDGEWAY COURT","SPRING VALLEY","CA","91977"
220623,"465 RIDGEWAY","WHITE PLAINS","NY","10605"
220624,"465 RIVERSIDE DRIVE","PRINCE FREDERICK","MD","20678"
220625,"465 S MADISON AVE APT 307","PASADENA","CA","91101"
220626,"465 S MAIN ST","MARTINSVILLE","IN","46151"
220627,"465 S ORLANDO AVE NO 103","MAITLAND","FL","32751"
220628,"465 SAILMAKER CIRCLE","ALPHARETTA","GA","30022"
220629,"465 SCOTTS RUN ROAD","OSAGE","WV","26543"
220630,"465 SHIPPENSBURG RD","NEWVILLE","PA","17241"
220631,"465 SHUNPIKE RD","CAPE MAY COURTHOUSE","NJ","08210"
220632,"465 SPRING HILL RD","MONTGOMERY","NJ","08558"
220633,"465 STEVENSON ROAD","NEW HAVEN","CT","06515"
220634,"465 STREAM VIEW DR","SHELBYVILLE","KY","40065"
220635,"465 TENNYSON KNOLL","GRAYSON","GA","30017"
220636,"465 TERRELL CT","RICHMOND HEIGHTS","OH","44143"
220637,"465 TIORAM LANE","SMYRNA","GA","30080"
220638,"465 VIA VISTA","MONTEBELLO","CA","90640"
220639,"465 VICTORIA STATION BLVD","LAWRENCEVILLE","GA","30043"
220640,"465 VIOLA ROAD","SPRING VALLEY","NY","10977"
220641,"465 W 159TH STREET APT 53","NEW YORK","NY","10032"
220642,"465 W MEADOWHURST ROAD","SAINT MARIES","ID","83861"
220643,"465 WASHINGTON BLVD APT 2305 S","JERSEY CITY","NJ","07310"
220644,"465 WAVERLY OAKS ROAD","WALTHAM","MA","02452"
220645,"465 WEST LAKESHORE DRIVE","CLERMONT","FL","34711"
220646,"465 WEST MAIN STREET","KUTZTOWN","PA","19530"
220647,"465 WEST MARKET STREET","YORK","PA","17401"
220648,"465 WEST SLY FOX STREET","MERIDIAN","ID","83646"
220649,"465 WESTMINSTER ROAD","BROOKLYN","NY","11218"
220650,"465 WILDWOOD DR","BRIGHAM CITY","UT","84302"
220651,"465 WILLOW GLEN WAY APT 333","SAN JOSE","CA","95125"
220652,"4650 ADAMS LANE","ACWORTH","GA","30102"
220653,"4650 ARROW HIGHWAY SUITE B","MONTCLAIRE","CA","91763"
220654,"4650 AUDOBON","DETROIT","MI","48224"
220655,"4650 BRIGHT RD LOT 5","CHARLOTTE","NC","28214"
220656,"4650 CAMPUS DRIVE","FORT WORTH","TX","76119"
220657,"4650 DEWEY AVENUE","ROCHESTER","NY","14612"
220658,"4650 EAST PONCE DE LEON AVE A-11","CLARKSTON","GA","30021"
220659,"4650 EAST PONCE DE LEON","CLARKSTON","GA","30021"
220660,"4650 FIELDSTONE LANE","WASHINGTON","DC","20008"
220661,"4650 JOHNSON ST NE UNIT 104","COLUMBIA HEIGHTS","MN","55421"
220662,"4650 KESTER AVE 227","SHERMAN OAKS","CA","91403"
220663,"4650 LIPSCOMB ST NE SUITE 16","PALM BAY","FL","32905"
220664,"4650 LIVINGSTON ROAD SE","WASHINGTON","DC","20032"
220665,"4650 N 71ST LANE","PHOENIX","AZ","85033"
220666,"4650 N PALM AVE","FRESNO","CA","93704"
220667,"4650 N PORT WASHINGTON RD","MILWAUKEE","WI","53212"
220668,"4650 N RAINBOW BLVD 1016","LAS VEGAS","NV","89108"
220669,"4650 NW 74TH AVE","MIAMI","FL","33166"
220670,"4650 OLD LOONEY MILL ROAD","BIRMINGHAM","AL","35243"
220671,"4650 RANCH HOUSE ROAD UNIT 64","NORTH LAS VEGAS","NV","89031"
220672,"4650 REDWOOD","NEW ORLEANS","LA","70127"
220673,"4650 SW 61ST AVE SUITE D","DAVIE","FL","33314"
220674,"4650 SW 61ST AVE","DAVIE","FL","33314"
220675,"4650 VILLA RIDGE RD","MARIETTA","GA","30068"
220676,"4650 W SPENCER STREET STE A","APPLETON","WI","54914"
220677,"4650 WASHINGTON BLVD APT 911","ARLINGTON","VA","22201"
220678,"46500 ROYAL OAKS TRAIL","CALLAHAN","FL","32011"
220679,"46501 WARREN ROAD","CANTON","MI","48187"
220680,"4651 CASTLE CREST DR","LOS ANGELES","CA","90041"
220681,"4651 CHARLOTTE PARK DRIVE SUITE 300","CHARLOTTE","NC","28217"
220682,"4651 DEMETRIA RUN","ROCK HILL","SC","29732"
220683,"4651 GREENVIEW CT","AVON","OH","44011"
220684,"4651 HAIRSTON CROSSING PL","STONE MOUNTAIN","GA","30083"
220685,"4651 HICKORY GROVE ROAD","SHARON","SC","29742"
220686,"4651 NORTH PINE HILLS RD","ORLANDO","FL","32808"
220687,"4651 PONCE DE LEON BLVD SUITE 100","CORAL GABLES","FL","33146"
220688,"4651 SALISBURY RD STE 4OO","JACKSONVILLE","FL","32256"
220689,"4651 SOUTH CUSTER ROAD","MCKINNEY","TX","75070"
220690,"4651 TIGER LILY TRAIL","CLARKSTON","MI","48346"
220691,"4651 TOWNE PARK RD","SUITLAND","MD","20746"
220692,"4651 VERDE VIEW DR","COTTONWOOD","AZ","86326"
220693,"4651 VINCENT RD","MILLINGTON","TN","38053"
220694,"4651 WOODSTOCK RD STE 208-157","ROSWELL","GA","30075"
220695,"4651 WOODSTOCK RD","ROSWELL","GA","30075"
220696,"46512 EASTMAN ROAD","BROWNS VALLEY","MN","56219"
220697,"4652 GOLDROCK DRIVE","FORT WORTH","NV","76137"
220698,"4652 MEADOWGREEN TRAIL","LAKE WORTH","FL","33463"
220699,"4652 NORTH ECHO SUMMIT PLACE","STAR","ID","83669"
220700,"4652 S 2080 W","TAYLORSVILLE","UT","84129"
220701,"4652 S 500 W","VALLONIA","IN","47281"
220702,"4652 S SKY DANCE LN","SIERRA VISTA","AZ","85650"
220703,"4652 SHIRLEY PLACE","SAINT LOUIS","MO","63115"
220704,"4652 WINTERSTILL","ZIONSVILLE","IN","46077"
220705,"4652 YEARDLEY LOOP","WILLIAMSBURG","VA","23185"
220706,"46520 FREMONT BOULEVARD SUITE 614","FREMONT","CA","94538"
220707,"46525 CONTINENTAL DRIVE","CHESTERFIELD TWP","MI","48047"
220708,"4653 BENSON ST","PHILADELPHIA","PA","19136"
220709,"4653 CARMEL MOUNTAIN RD 308-517","SAN DIEGO","CA","92130"
220710,"4653 CARMEL MOUNTAIN RD STE 308-145","SAN DIEGO","CA","92130"
220711,"4653 CARMEL MTN RD  SUITE 308-221","SAN DIEGO","CA","92130"
220712,"4653 CLAIRTON BLVD","PITTSBURGH","PA","15236"
220713,"4653 CORTE MAR DE CORAZON","SAN DIEGO","CA","92130"
220714,"4653 DUPONT AVE S","MINNEAPOLIS","MN","55419"
220715,"4653 KING COLE BLVD","ORLANDO","FL","32811"
220716,"4653 NW 206TH ST","EDMOND","OK","73012"
220717,"4653 OLD SYLACAUGA HWY","SYLACAUGA","AL","35151"
220718,"4653 OXFORD TRENTON ROAD","OXFORD","OH","45056"
220719,"4653 TANEY AVENUE","ALEXANDRIA","VA","22304"
220720,"46533 VALLEY CT","MACOMB","MI","48044"
220721,"46537 BEAU JARDIN DR 1318","MACOMB","MI","48044"
220722,"4654 CONCORD CIRCLE","EASTON","PA","18045"
220723,"4654 E STATE ROAD 64 SUITE 142","BRADENTON","FL","34208"
220724,"4654 EAST STATE ROAD 64 - SUITE 231","BRADENTON","FL","34208"
220725,"4654 OWENS DR","DAYTON","OH","45406"
220726,"46540 10TH AVE","KENON","MN","55946"
220727,"465406 E 1010 RD","SALLISAW","OK","74955"
220728,"46542  EAST  CHURCH ROAD","STERLING","VA","20164"
220729,"4655 7TH ST","BOULDER","CO","80304"
220730,"4655 CLARA STREET APT C","NEW ORLEANS","LA","70115"
220731,"4655 DAHLONEGA HIGHWAY","CUMMING","GA","30028"
220732,"4655 DANBURY WAY","OKEMOS","MI","48864"
220733,"4655 DON ZAREMBO DR","LOS ANGELES","CA","90008"
220734,"4655 EBONY CT","MARIANNA","FL","32446"
220735,"4655 NW 68TH BLVD","LAKE PANASOFFKEE","FL","33538"
220736,"4655 OSAGE BEACH PARKWAY SUITE A","OSAGE BEACH","MO","65065"
220737,"4655 RISING FAWN DRIVE","DOUGLASVILLE","GA","30135"
220738,"4655 RISING SUN AVE","PHILADELPHIA","PA","19140"
220739,"4655 S COUNTRY CLUB RD","GARLAND","TX","75043"
220740,"4655 S KING DR","CHICAGO","IL","60653"
220741,"4655 S KING DRIVE STE 201","CHICAGO","IL","60653"
220742,"4655 S KING DRIVE SUITE 203","CHICAGO","IL","60653"
220743,"4655 S LAKE PARK AVE 120","CHICAGO","IL","60653"
220744,"4655 SOUTH LAKE PARK AVE STE 304","CHICAGO","IL","60653"
220745,"4655 STATE ROAD 10","TIPPECANOE","IN","46570"
220746,"4655 SW 146 COURT","MIAMI","FL","33175"
220747,"4655 TOWER TERRACE RD","CEDAR RAPIDS","IA","52411"
220748,"4655 W 228TH ST","FAIRVIEW PARK","OH","44126"
220749,"4655 W CHASE AV","LINCOLNWOOD","IL","60712"
220750,"4655 WEBB BRIDGE RD","ALPHARETTA","GA","30005"
220751,"4655 WEST  AMITY","MERIDIAN","ID","83642"
220752,"4655 WOODBINE RD","PACE","FL","32571"
220753,"46551 264TH ST","SIOUX FALLS","SD","57107"
220754,"46557 HEYDENREICH RD","MACOMB","MI","48044"
220755,"4656 BACKWOODS ROAD","CHESAPEAKE","VA","23322"
220756,"4656 EXPLORER DR APT 201","WEST MELBOURNE","FL","32904"
220757,"4656 FM 535","CEDAR CREEK","TX","78612"
220758,"4656 GARDEN COURT","TRAVERSE CITY","MI","49684"
220759,"4656 SOUTH WOOD DUCK LANE","HOLLADAY","UT","84117"
220760,"4656 W ERIE","CHICAGO","IL","60644"
220761,"4656 WEST 3855 SOUTH","WEST VALLEY CITY","UT","84120"
220762,"46560 FREMONT BLVD SUITE 105","FREMONT","CA","94538"
220763,"46569 HAMPSHIRE STATION DR","POTOMAC FALLS","VA","20165"
220764,"4657 E ODESSA DRIVE","SAN TAN VALLEY","AZ","85140"
220765,"4657 GESNER PL","SAN DIEGO","CA","92117"
220766,"4657 KIRBY AVE APT 2","CINCINNATI","OH","45223"
220767,"4657 OCEAN DRIVE APT 247","CORPUS CHRISTI","TX","78412"
220768,"4657 S US HWY 1 STE H","ROCKLEDGE","FL","32955"
220769,"4657 W MADISON 3R","CHICAGO","IL","60644"
220770,"46573 BONAPARTE DR","MACOMB","MI","48044"
220771,"46574 ERB DR","MACOMB","MI","48042"
220772,"4658 36TH ST SOUTH","ARLINGTON","VA","22206"
220773,"4658 CARLTON DUNES DRIVE  UNIT 11","AMELIA ISLAND","FL","32034"
220774,"4658 E KINGS AVE","PHOENIX","AZ","85032"
220775,"4658 GLENLEIGH DRIVE SW","MABLETON","GA","30126"
220776,"4658 IVORY CT NE","SALEM","OR","97305"
220777,"4658 JACKAM RIDGE COURT","LITHONIA","GA","30038"
220778,"4658 L B MCLEOD RD","ORLANDO","FL","32811"
220779,"4658D HAYGOOD ROAD","VIRGINIA BEACH","VA","23455"
220780,"4659 126TH DRIVE NORTH","WEST PALM BEACH","FL","33411"
220781,"4659 QUEENS GROVE STREET","WHITE PLAINS","MD","20695"
220782,"46597 PASEO PADRE PKWY","FREMONT","CA","94539"
220783,"466 AVENUE E","BAYONNE","NJ","07002"
220784,"466 BLAISDELL DR","DELAWARE","OH","43015"
220785,"466 CLARA DR","RIVERDALE","GA","30274"
220786,"466 CLEVELAND STREET","BROOKLYN","NY","11208"
220787,"466 COLLETT BRIDGE ROAD","ALVATON","KY","42122"
220788,"466 COUNTY ROAD 2320","DECATUR","TX","76234"
220789,"466 COUNTY ROAD 9","LYNN","AL","35575"
220790,"466 CRESTVIEW DR NE","LANCASTER","OH","43130"
220791,"466 DOUGLAS AVENUE","LEXINGTON","KY","40508"
220792,"466 E CAMINO BRAVO","NOGALES","AZ","85621"
220793,"466 EAST 170TH STREET","SOUTH HOLLAND","IL","60473"
220794,"466 ELLIS SQUARE COURT","SANFORD","FL","32771"
220795,"466 FM 2808","KEMPNER","TX","76539"
220796,"466 FOOTHILL BLVD - SUITE 378","LA CANADA FLINTRIDGE","CA","91011"
220797,"466 FOOTHILL BLVD NO 374","LA CANADA","CA","91011"
220798,"466 FOOTHILL BLVD UNIT 350","LA CANADA FLINTRIDGE","CA","91011"
220799,"466 GENEVA AVE APT 1","DORCHESTER","TN","02122"
220800,"466 HEMLOCK CIR SE","ATLANTA","GA","30316"
220801,"466 HUNT STREET","CENTRAL FALLS","RI","02863"
220802,"466 HUNTINGTON RIDGE DRIVE","NASHVILLE","TN","37211"
220803,"466 LAMSON AVE","BEDFORD","OH","44146"
220804,"466 LEGACY PARK LANE","MARIETTA","OK","73448"
220805,"466 MIDDLETOWN AVENUE APT 19","NEW HAVEN","CT","06513"
220806,"466 MIDLAND STREET","LITTLE ROCK","AR","72205"
220807,"466 N SALINA STREET","SYRACUSE","NY","13203"
220808,"466 NORTH SALINA STREET","SYRACUSE","NY","13203"
220809,"466 NORTHAMPTON STREET","EASTON","PA","18042"
220810,"466 OAK GLEN DR","BALLWIN","MO","63021"
220811,"466 OCEAN PKWY","BROOKLYN","NY","11218"
220812,"466 REINHARD AVE","COLUMBUS","OH","43206"
220813,"466 ROBESON STREET","SPRING LAKE","NC","28390"
220814,"466 ROLLING HILLS DRIVE","WADSWORTH","OH","44281"
220815,"466 S BALSAM ST","LAKEWOOD","CO","80226"
220816,"466 SOUTH 500 EAST","SALT LAKE CITY","UT","84102"
220817,"466 STEUBEN AVENUE","FORKED RIVER","NY","08731"
220818,"466 STEVENSVILLE AIRPORT RD","STEVENSVILLE","MT","59870"
220819,"466 VILLAGE GREEN RD","NAPERVILLE","IL","60540"
220820,"466 VISTA RAMBLA","WALNUT","CA","91789"
220821,"466 W SHELBY DR","MEMPHIS","TN","38109"
220822,"466 WARREN STREET","DORCHESTER","MA","02121"
220823,"466 WARREN WRIGHT RD","BELCHERTOWN","MA","01007"
220824,"466 WASHINGTON RD","RYE","NH","03870"
220825,"466 WESTCOTT STREET","SYRACUSE","NY","13210"
220826,"466 WESTGLEN VILLAGE DR","BALLWIN","MO","63021"
220827,"466 WOODLAND","BATESVILLE","MS","38606"
220828,"4660 BEECHNUT ST STE 210","HOUSTON","TX","77096"
220829,"4660 CHARECOTE LANE  E","COLUMBUS","OH","43220"
220830,"4660 CRAIN HWY NUMBER 1622","WHITE PLAINS","MD","20695"
220831,"4660 FAY BLVD","COCOA","FL","32927"
220832,"4660 FLEDGLING DR","TALLAHASSEE","FL","32311"
220833,"4660 KENNY ROAD UNIT E","COLUMBUS","OH","43220"
220834,"4660 LA JOLLA VILLAGE DR SUITE 1080","SAN DIEGO","CA","92122"
220835,"4660 LONG KEY LANE","COCONUT CREEK","FL","33073"
220836,"4660 M LUTH KING JR AV SW STE A3","WASHINGTON","DC","20032"
220837,"4660 MLK JR AVE SW APT C-415","WASHINGTON","DC","20032"
220838,"4660 N CAREFREE CIRCLE","COLORADO SPRINGS","CO","80917"
220839,"4660 N HIDDEN VALLEY RD","MARICOPA","AZ","85139"
220840,"4660 N RANCHO DR","LAS VEGAS","NV","89130"
220841,"4660 N US HIGHWAY 1","MELBOURNE","FL","32935"
220842,"4660 PINTO CT","ELLICOTT CITY","MD","21043"
220843,"4660 RALEIGH DALTON RD","DALLAS","TX","75227"
220844,"4660 US 1 NORTH","MELBOURNE","FL","32935"
220845,"4660 VICTORIA AVE APT 1701","RIVERSIDE","CA","92507"
220846,"4660 VIOLA ST","NEW ORLEANS","LA","70126"
220847,"4660 W CALIFORNIA AVE","FRESNO","CA","93706"
220848,"4660 WEST 9TH COURT","HIALEAH","FL","33012"
220849,"46600 STRATFORD COURT","NORTHVILLE","MI","48167"
220850,"4661 ARABIAN WAY","ANTIOCH","CA","94531"
220851,"4661 BARRINGTON DRIVE","SPRINGFIELD","IL","62711"
220852,"4661 BRIDLE WOOD DR","DALLAS","TX","75211"
220853,"4661 CR 3411","LONE OAK","TX","75453"
220854,"4661 DALLAS PLACE APT 103","TEMPLE HILLS","MD","20748"
220855,"4661 DOE HILL RD","MCDOWELL","VA","24458"
220856,"4661 ENGLEWOOD DRIVE","INDIANAPOLIS","IN","46226"
220857,"4661 MARYLAND AVE","ST. LOUIS","MO","63108"
220858,"4661 S FRASER CIRCLE UNIT A","AURORA","CO","80015"
220859,"4661 VIOLA STREET","NEW ORLEANS","LA","70126"
220860,"4661 WALES DRIVE","PLANO","TX","75021"
220861,"46616 VISTA DEL RIO","OAKHURST","CA","93644"
220862,"46617 CARRIAGE CT","STERLING","VA","20164"
220863,"4662 13TH ST SW","CANTON","OH","44710"
220864,"4662 ARDENWOOD DRIVE","FORT WORTH","TX","76123"
220865,"4662 BRAZIL WOOD DRIVE","KENNESAW","GA","30144"
220866,"4662 BRYSON TERRACE","SAN DIEGO","CA","92130"
220867,"4662 HANFORD STREET","NEW YORK","NY","11362"
220868,"4662 WEBSTER WAY NW","ACWORTH","GA","30101"
220869,"4663 BIG HILL RD","TODD","NC","28684"
220870,"4663 CARADOR LANE","LAFAYETTE","IN","47909"
220871,"4663 CENTENNIAL BLVD","COLORADO SPRINGS","CO","80919"
220872,"4663 E OUTER DRIVE 302","DETROIT","MI","48234"
220873,"4663 EAGLE RD","CHUBBUCK","ID","83202"
220874,"4663 EAST 153RD","CLEVELAND","OH","44128"
220875,"4663 GLENWAY AVENUE","CINCINNATI","OH","45238"
220876,"4663 MILES DR","HOLT","MI","48842"
220877,"4663 MOSELLE DR","LIBERTY TWP","OH","45011"
220878,"4663 PAGENTRY PL","WEST VALLEY CITY","UT","84120"
220879,"4663 RABUN DRIVE","DOUGLASVILLE","GA","30135"
220880,"4663 SILVERTHORN DR","JACKSONVILLE","FL","32258"
220881,"4663 SPRUCEWOOD DR","MACON","GA","31210"
220882,"4663 STATE HIGHWAY A","MAYSVILLE","MO","64469"
220883,"4664 CEDAR ST","ASTORIA","OR","97103"
220884,"4664 CHAPEL CREEK DR","PLANO","TX","75024"
220885,"4664 E MONTECITO AVE","FRESNO","CA","93702"
220886,"4664 EAST COUNTY ROAD 540-A","LAKELAND","FL","33813"
220887,"4664 LOS POBLANOS CIR NW","LOS RANCHOS DE ALBUQ","NM","87107"
220888,"4664 NORTH MAIN STREET","EMINENCE","KY","40019"
220889,"4664 NORTH PEACHTREE RD","DUNWOODY","GA","30338"
220890,"4664 NORTH PEACHTREE ROAD","DUNWOODY","GA","30338"
220891,"4664 NORTH ROCKTON AVE","ROCKFORD","IL","61103"
220892,"4664 NW 59TH COURT","TAMARAC","FL","33319"
220893,"4664 OLD STENTON AVENUE","PHILADELPHIA","PA","19144"
220894,"4664 PLEASANT HILL RD","ATHENS","OH","45701"
220895,"4664 ROUSILLON AVE","FREMONT","CA","94555"
220896,"4664 TEATREE CT","VIERA","FL","32955"
220897,"4664 UMBRIA STREET","PHILADELPHIA","PA","19127"
220898,"4664 WARNER RD","GARFIELD HEIGHTS","OH","44125"
220899,"4664 WILLIAMSTON BLVD","LAKELAND","FL","33810"
220900,"4665 BROWNSBORO ROAD UNIT D","WINSTON SALEM","NC","27106"
220901,"4665 COSNER DR","CORPUS CHRISTI","TX","78415"
220902,"4665 CR 1555","ADA","OK","74820"
220903,"4665 DIXIE SCHOOL ROAD","NOCONA","TX","76255"
220904,"4665 E GRANT AVE","FRESNO","CA","93702"
220905,"4665 FREEWAY CIR","SACRAMENTO","CA","95841"
220906,"4665 HOOVER ROAD","GROVE CITY","OH","43123"
220907,"4665 LAKE CALABAY DRIVE","ORLANDO","FL","32837"
220908,"4665 LOUISIANA ST UNIT 2","SAN DIEGO","CA","92116"
220909,"4665 MILE HIGH DRIVE","PROVO","UT","84604"
220910,"4665 MIRANDA CIRCLE","ORLANDO","FL","32818"
220911,"4665 SCARLET COURT","PALMDALE","CA","93551"
220912,"4665 SOUTH BLVD SUITE B","VIRGINIA BEACH","VA","23452"
220913,"4665 TRABUE RD","COLUMBUS","OH","43228"
220914,"46654 CARNATION ST","INDIO","CA","92201"
220915,"4666 NORTH 15TH STREET","PHILADELPHIA","PA","19140"
220916,"4666 POST ROAD","MANLIUS","NY","13104"
220917,"4666 S 132ND STREET","OMAHA","NE","68137"
220918,"4666 YORBA LANE","YORBA LINDA","CA","92886"
220919,"4667 CLINTON TINNIN ROAD","CLINTON","MS","39056"
220920,"4667 GLENSHIRE PLACE","ATLANTA","GA","30338"
220921,"4667 HIGHLAND CT","GRANDVILLE","MI","49418"
220922,"4667 NORTHWEST 103RD AVENUE","SUNRISE","FL","33351"
220923,"4667 ROBINHOOD CIRCLE","STRAWBERRY PLAINS","TN","37871"
220924,"4667 TELEGRAPH RD","VENTURA","CA","93003"
220925,"4668 FIELDSTON RD","BELLINGHAM","WA","98225"
220926,"4668 LAKES EDGE APT 7","WEST CHESTER","CA","45069"
220927,"4668 N LECLAIRE AVE","CHICAGO","IL","60630"
220928,"4668 N SPAULDING AVENUE","CHICAGO","IL","60625"
220929,"4668 NORTH DITTMAR ROAD","ARLINGTON","VA","22207"
220930,"4668 PALMER POINTE ROAD","EXCELSIOR","MN","55331"
220931,"4668 PEMBROOK PL","ORLANDO","FL","32811"
220932,"4668 WILLIAMSPORT ROAD","MONONGAHELA","PA","15063"
220933,"46681 COVINGTON DRIVE","MACOMB TOWNSHIP","MI","48044"
220934,"4669 BROOKVIEW DRIVE","AUBURN","IL","62615"
220935,"4669 BUTTE ROAD UNIT B","FLORENCE","CO","81226"
220936,"4669 MONTAUK STREET","ORLANDO","FL","32808"
220937,"4669 MURPHY CANYON RD SUITE 210","SAN DIEGO","CA","92123"
220938,"4669 SNAPDRAGON WAY","SAN LUIS OBISPO","CA","93401"
220939,"4669 STURBRIDGE COURT","ORLANDO","FM","32812"
220940,"46695 WINSTON DRIVE","EAST LIVERPOOL","OH","43920"
220941,"467 BARBIN STREET","HORSHAM","PA","19044"
220942,"467 BEACON CIRCLE","SPRINGFIELD","MA","01119"
220943,"467 DOLLY DR","CONVERSE","TX","78109"
220944,"467 E 43RD ST","LOS ANGELES","CA","90011"
220945,"467 E LEGACY DRIVE","MOUNTAIN HOUSE","CA","95391"
220946,"467 ENGLISH LANE","LONGVIEW","TX","75605"
220947,"467 HAY STREET","FAYETTEVILLE","NC","28301"
220948,"467 HIDEAWAY LN","GREENVILLE","CA","95947"
220949,"467 KIHOLO STREET","HONOLULU","HI","96821"
220950,"467 LONGFELLOW ST NE","FRIDLEY","MN","55432"
220951,"467 MALLARD ROAD","PHILIPSBURG","PA","16866"
220952,"467 N 425 E","LAPORTE","IN","46350"
220953,"467 N ALAFAYA TRL","ORLANDO","FL","32828"
220954,"467 OLD HICKORY DR","PITTSBURGH","PA","15235"
220955,"467 PARKSIDE WAY","MCDONOUGH","GA","30253"
220956,"467 RIDGE PINE DRIVE","CANTON","GA","30114"
220957,"467 SPARKS LANE","PICKENS","SC","29671"
220958,"467 STATE ST","PERTH AMBOY","NJ","08861"
220959,"467 SW 90 COURT","MIAMI","FL","33174"
220960,"467 SYLVAN AVE 1ST FLOOR","ENGLEWOOD CLIFFS","NJ","07632"
220961,"467 W 175 N","OREM","UT","84057"
220962,"467 W 800 S","MONROE","UT","84754"
220963,"467 WEST RAYMOND ST","COMPTON","CA","90220"
220964,"467 WHITE OAK SHADE ROAD","NEW CANAAN","CT","06840"
220965,"467 WINCHESTER ROAD P O BX 44","WINCHESTER CENTER","CT","06094"
220966,"467 YELLOW BRICK ROAD","ORANGE","CT","06477"
220967,"4670 ASHBURN SQUARE DRIVE","TAMPA","FL","33610"
220968,"4670 ATWOOD CT","BETTENDORF","IA","52722"
220969,"4670 BRYANT ROAD","BUFORD","GA","30518"
220970,"4670 CARPINTERIA AVE","CARPINTERIA","CA","93013"
220971,"4670 CIARRA KENNEDY LN","RENO","NV","89503"
220972,"4670 FISHER RIDGE RD","LIBERTY","WV","25124"
220973,"4670 GARYS PLACE","CROUSE","NC","28033"
220974,"4670 HOLIDAY DRIVE 204","BOULDER","CO","80304"
220975,"4670 PEMBROOKE CT SE","CONYERS","GA","30094"
220976,"4670 SOUTH PENINSULA DRIVE","PONCE INLET","FL","32127"
220977,"4670 STATE ROUTE 109 - PO BOX 343","MOCLIPS","WA","98562"
220978,"4670 WINDERMERE PARKWAY","CUMMING","GA","30041"
220979,"46709 MERION CIRCLE","NORTHVILLE","MI","48168"
220980,"4671 BELL WOOD DR","OLIVE BRANCH","MS","38654"
220981,"4671 GARRISON INN CT NW","CONCORD","NC","28027"
220982,"4671 KNOYLE ROAD","ERIE","PA","16510"
220983,"4671 TUTTLE CROSSING BLVD","DUBLIN","OH","43017"
220984,"4671 W 3145 S","WEST VALLEY CITY","UT","84120"
220985,"4671 WARNER AVE APT 128","HUNTINGTON BEACH","TX","92649"
220986,"4672 20TH ST N","ARLINGTON","VA","22207"
220987,"4672 35TH STREET","SAN DIEGO","CA","92116"
220988,"4672 MAGRATH DRIVE","COEUR D'ALENE","ID","83815"
220989,"4672 OTTER LAKE ROAD","OTTER LAKE","MI","48464"
220990,"4672 PERRY COURT","LEWISTON","NY","14092"
220991,"4672 PINE STREET SE","SMYRNA","GA","30080"
220992,"4672 WEST JENNIFER AVE SUITE 101","FRESNO","CA","93722"
220993,"4672 WOODMERE LANE","COLUMBUS","GA","31907"
220994,"467262 E 931 RD","BUNCH","OK","74931"
220995,"46727 WOODMINT TERRACE","STERLING","VA","20164"
220996,"4673 LABADIE AV","ST LOUIS","MO","63115"
220997,"4673 LIBERTY ROAD","SOUTH EUCLID","OH","44121"
220998,"4673 PAGE","ST LOUIS","MO","63113"
220999,"4673 S MONACO ST 304","DENVER","CO","80237"
221000,"46735 WOODMINT TERRACE","STERLING","VA","20164"
