"ID","Address","City","State","Zip"
137001,"2490 VALLEYDALE ROAD","BIRMINGHAM","AL","35244"
137002,"24900 E PARK CRESCENT CIRCLE","AURORA","CO","80016"
137003,"24900 FRANKLIN FARMS DRIVE","FRANKLIN","MI","48025"
137004,"24900 MEADOWS AVE","FLAT ROCK","MI","48134"
137005,"24900 SAVANNAH TRAIL","ATHENS","AL","35613"
137006,"24901 NORTHWESTERN HWY STE 603","SOUTHFIELD","MI","48075"
137007,"24903 PUCCINI PL","KATY","TX","77493"
137008,"24905 PINEBROOK RD","CHANTILLY","VA","20152"
137009,"24907 MEMPHIS AVE","ROSEDALE","NY","11422"
137010,"24908 DUFFIELD ROAD","BEACHWOOD","OH","44122"
137011,"24908 KENNEDY RIDGE","NORTH OLMSTED","OH","44070"
137012,"24909 19TH PL S","DES MOINES","WA","98198"
137013,"24909 MADISON AVE 2223","MURRIETA","CA","92562"
137014,"2491 ALLUVIAL AVE STE 300","CLOVIS","CA","93611"
137015,"2491 ALLUVIAL AVE SUITE 130","CLOVIS","CA","93611"
137016,"2491 BENTLEY DR","PALM HARBOR","FL","34684"
137017,"2491 BYRD AVENUE","SANFORD","FL","32771"
137018,"2491 CATAWBA CIR","SANTA CLARA","UT","84765"
137019,"2491 CHERRY HILL RD  BUILDING 2","PALMERTON","PA","18071"
137020,"2491 CONCORD CIRCLE","LAFAYETTE","CO","80026"
137021,"2491 DRIFTWOOD LOOP E","SEMMES","AL","36575"
137022,"2491 GREER ROAD","PALO ALTO","CA","94303"
137023,"2491 HIGHWAY 184 WEST","DUE WEST","SC","29639"
137024,"2491 HILLENDALE DRIVE","NORRISTOWN","PA","19403"
137025,"2491 HUNTINGTON DR","SAN MARINO","CA","91108"
137026,"2491 N MOUNT JULIET RD 824","MOUNT JULIET","TN","37122"
137027,"2491 N MOUNT JULIET RD BOX 1486","MOUNT JULIET","TN","37122"
137028,"2491 N MOUNT JULIET RD UNIT 27","MT JULIET","TN","37122"
137029,"2491 P AVE","CLUTIER","IA","52217"
137030,"2491 ROYSTON DRIVE","DULUTH","GA","30097"
137031,"2491 S DIXIE BLVD","RADCLIFF","KY","40160"
137032,"2491 SAWMILL ROAD - 2003","SANTA FE","NM","87505"
137033,"2491 SE GILLETTE AVE","PORT SAINT LUCIE","FL","24952"
137034,"2491 VISTA WOOD CIRCLE","WESTLAKE VILLAGE","CA","91362"
137035,"2491 WOOD LANE","LAKE HAVASU CITY","AZ","86406"
137036,"24912 POT BUNKER WAY","MILLSBORO","DE","19966"
137037,"24914 109TH PL SE A","KENT","WA","98030"
137038,"24914 109TH PL SE UNIT A","KENT","WA","98030"
137039,"24915 BLUE IRIS CT N","PLAINFIELD","IL","60585"
137040,"24917 WEST CHRISTINE DRIVE  TRL 1","SPLENDORA","TX","77372"
137041,"2492 BENTRIDGE DR W","MOBILE","AL","36695"
137042,"2492 EAGLE VALLEY DR","WOODBURY","MN","55129"
137043,"2492 FAIRWAY DRIVE","ORANGEBURG","SC","29118"
137044,"2492 HAMMOCK LAKE DR","LITTLE ELM","TX","75068"
137045,"2492 HAVERHILL RD","FAIRLAWN","OH","44333"
137046,"2492 MERRICK ROAD","BELLMORE","NY","11710"
137047,"2492 TROJAN WAY","UPLAND","CA","91786"
137048,"2492 WALL AVENUE","OGDEN","UT","84401"
137049,"2492 WALLACE DRIVE SW","BOGUE CHITTO","MS","39629"
137050,"24920 DERBY DR","SORRENTO","FL","32776"
137051,"24920 ZUBE ROAD","HOCKLEY","TX","77447"
137052,"24922 MUIRLANDS BLVD APT 104","LAKE FOREST","CA","92630"
137053,"24923 W DOVE MESA DR","BUCKEYE","AZ","85326"
137054,"24926 FLORINA RANCH DR","KATY","TX","77494"
137055,"24926 LAKECREST GLEN DR","KATY","TX","77493"
137056,"24928 CRESCENT VIEW RD","PAYNESVILLE","MN","56362"
137057,"24928 QUIMBY OAKS PLACE","ALDIE","VA","20105"
137058,"24929 E HWY 4/PO BOX 36","FARMINGTON","CA","95230"
137059,"24929 KATY RANCH","KATY","TX","77494"
137060,"2493 4TH AVE WEST  SUITE G","DICKINSON","ND","58601"
137061,"2493 COOSA COUNTY RD 119","ALEXANDER CITY","AL","35010"
137062,"2493 FAIRWAY DR","DYERSBURG","TN","38024"
137063,"2493 FERGUSON AVE","BOZEMAN","MT","59718"
137064,"2493 FOX TROT TERRACE","RESTON","VA","20191"
137065,"2493 HULL AVENUE","NORTH BELLMORE","NY","11710"
137066,"2493 SEDONA  CEDAR AVE","HENDERSON","NV","89052"
137067,"2493 W SHAW AVE","FRESNO","CA","93711"
137068,"24930 AVENUE STANFORD","SANTA CLARITA","CA","91355"
137069,"24931 UNION ST","DEARBORN","MI","48124"
137070,"24934 OCONEE CR","TOMBALLS","TX","77375"
137071,"24937 11TH AVE SOUTH","DES MOINES","WA","98198"
137072,"24937 S SOSSAMAN RD","QUEEN CREEK","AZ","85142"
137073,"24938 CORBINGATE DR","SPRING","TX","77389"
137074,"2494 BENGAL BLVD","SALT LAKE CITY","UT","84121"
137075,"2494 LAFOREST","ALPENA","MI","49707"
137076,"2494 NW 56TH ST","MIAMI","FL","33142"
137077,"2494 OTTER SLIDE AVE","ST CROIX FALLS","WI","54024"
137078,"2494 S  SEDALIA CIRCLE","AURORA","CO","80013"
137079,"2494 S MAIN STREET","MONTGOMERY CENTER","VT","05471"
137080,"2494 SAUNDERSVILLE FERRY RD","MOUNT JULIET","TN","37122"
137081,"24940 FAIRMOUNT","DEARBORN","MI","48124"
137082,"24945 N MELISSA DRIVE","DETROIT LAKES","MN","56501"
137083,"24946 E GEDDES CIR","AURORA","CO","80016"
137084,"24949 CONSTITUTION AVENUE 634","STEVENSON RANCH","CA","91381"
137085,"24949 KATY RANCH RD UNIT 1805","KATY","TX","77494"
137086,"24949 KATY RANCH ROAD APT 201","KATY","TX","77494"
137087,"24949 NATIONAL TRAILS HIGHWAY","HELENDALE","CA","92342"
137088,"2495 178TH LANE","CARLISLE","IA","50047"
137089,"2495 190TH STREET","GRANADA","MN","56039"
137090,"2495 CHESTNUT LANE","EASTON","PA","18040"
137091,"2495 DURHAM DAYTON HWY","DURHAM","CA","95938"
137092,"2495 E ORANGETHORPE AVE","FULLERTON","CA","92831"
137093,"2495 HILYARD STREET STE A","EUGENE","OR","97405"
137094,"2495 LEE ROAD","CLEVELAND HEIGHTS","OH","44118"
137095,"2495 MAIN ST","LAKE PLACID","NY","12946"
137096,"2495 MAIN STREET SUITE 210","BUFFALO","NY","14214"
137097,"2495 MAIN STREET SUITE 348","BUFFALO","NY","14214"
137098,"2495 MAIN STREET SUITE 437","BUFFALO","NY","14214"
137099,"2495 N DUPONT PKWY","MIDDLETOWN","DE","19709"
137100,"2495 OCTAVIA LN","MARIETTA","GA","30062"
137101,"2495 RAY ROAD","SPRING LAKE","NC","28390"
137102,"2495 RICKY ROAD","MELBOURNE","FL","32935"
137103,"2495 ROSENDALE ROAD","NISKAYUNA","NY","12309"
137104,"2495 S GRAHAM ST","MILWAUKEE","WI","53207"
137105,"2495 SERENITY HOLLOW DRIVE","HENDERSON","NV","89052"
137106,"2495 SIEBOLDT QUARRY ROAD","BEDFORD","IN","47421"
137107,"2495 SOUTH CLAYTON STREET","DENVER","CO","80210"
137108,"2495 SOUTH MASON RD APT 436","KATY","TX","77450"
137109,"2495 TWIGWOOD LANE","CINCINNATI","OH","45237"
137110,"2495 VERN DRIVE","FALLBROOK","CA","92028"
137111,"2495 WEBER HEIGHTS WAY","BUFORD","GA","30519"
137112,"2495 WILLOW BEND TRAIL","SAINT CHARLES","IA","50240"
137113,"24950 ROCKSIDE RD APT 143","BEDFORD HEIGHTS","OH","44146"
137114,"24950 S 195TH ST","QUEEN CREEK","AZ","85142"
137115,"24951 N LAKELAND BLVD","EUCLID","OH","44132"
137116,"24952 MUIR STREET","HAYWARD","CA","94544"
137117,"24953 SOUTHERN HERITAGE LN","ATHENS","AL","35613"
137118,"24954 HUNT DRIVE","MACOMB","MI","48042"
137119,"2496 FOX DRIVE","AURORA","IL","60506"
137120,"2496 MAIN ST","MILLBROOK","AL","36054"
137121,"2496 MAMMOTH WAY","ANTIOCH","CA","94531"
137122,"2496 W 2ND AVE UNIT 3","DENVER","CO","80223"
137123,"24962 CTY HWY 22","DETROIT LAKES","MN","56501"
137124,"24962 NELLIE GAIL ROAD","LAGUNA HILLS","CA","92653"
137125,"24965 NW PEDERSON RD","HILLSBORO","OR","97124"
137126,"24967 DEHOFF DR","TONGANOXIE","KS","66086"
137127,"2497 COPPER LANE","GREEN BAY","WI","54311"
137128,"2497 COTTONWOOD TRAIL","CHINO HILLS","CA","91709"
137129,"2497 CREVE COEUR MILL ROAD","MARYLAND HEIGHTS","MO","63043"
137130,"2497 PRAIRIE VIEW DRIVE","WINTER GARDEN","FL","34787"
137131,"2497 WOODBRIDGE ST","ROSEVILLE","MN","55113"
137132,"24972 WILKES PLACE","LAGUNA HILLS","CA","92653"
137133,"24975 COUNTY ROAD 6","ELKHART","IN","46514"
137134,"24977 GLENDA STREET","NOVI","MI","48375"
137135,"24979 CONSTITUTION AVE 1226","STEVENSON RANCH","CA","91381"
137136,"2498 65TH STREET","BROOKLYN","NY","11204"
137137,"2498 GREENWELL CT","WILMINGTON","NC","28409"
137138,"2498 HARVEL DRIVE NW","ATLANTA","GA","30318"
137139,"2498 MARION AVE","GREENFIELD","IA","50849"
137140,"2498 MEADOW PARK CIRCLE APT 324","BEDFORD","TX","76021"
137141,"2498 S CANAL","EATON RAPIDS","MI","48827"
137142,"2498 S HWY 97 SUITE F37","REDMOND","OR","97756"
137143,"2498 TANGLEWOOD RD","DECATUR","GA","30033"
137144,"2498 WHITTEN ROAD","BARTLETT","TN","38133"
137145,"24980 ARIELLA DRIVE","CALABASAS","CA","91302"
137146,"24981 DORIS CT","REDFORD","MI","48239"
137147,"24984 BECK AVE","EASTPOINTE","MI","48021"
137148,"24987 LEGHORN DR","SIREN","WI","54872"
137149,"2499 BUCK HILL RD","GERRARDSTOWN","WV","25420"
137150,"2499 CARTER HILL RD","MONTGOMERY","AL","36106"
137151,"2499 CORNER SHOALS DR","DECATUR","GA","30034"
137152,"2499 GLADES ROAD STE 304","BOCA RATON","FL","33431"
137153,"2499 GLADES ROAD SUITE 114","BOCA RATON","FL","33431"
137154,"2499 HAPPY VALLEY DRIVE","MEDFORD","OR","97501"
137155,"2499 HILTON DRIVE STE 3","GAINESVILLE","GA","30507"
137156,"2499 HWY 6  AND 50","GRAND JUNCTION","CO","81505"
137157,"2499 HYACINTH CT","WESTBURY","NY","11590"
137158,"2499 KAPIOLANI BOULEVARD 2309","HONOLULU","HI","96826"
137159,"2499 OLD LAKE MARY RD SUITE 104","SANFORD","FL","32771"
137160,"2499 PINE LAKE PL","TUCKER","GA","30084"
137161,"2499 QUAIL RUN BLVD N","KISSIMMEE","FL","34744"
137162,"2499 SE AMHERST STREET","STUART","FL","34997"
137163,"24990 SAMOSET TRAIL","SOUTHFIELD","MI","48033"
137164,"24992 LAS MARIAS LN","MISSION VIEJO","CA","92691"
137165,"24997 WOLCOTT RD","LEAVENWORTH","KS","66048"
137166,"24998 389TH AVE","MOUNT VERNON","SD","57363"
137167,"2499HIGHWAY 61S  NO137","PORT GIBSON","MS","39150"
137168,"249J THIRD ST","AYDEN","NC","28513"
137169,"24A ISBESTOR ST","ALBANY","NY","12205"
137170,"24TH STREET AND 10TH AVENUE","BEAVER FALLS","PA","15010"
137171,"24W538 OHIO ST","NAPERVILLE","IL","60540"
137172,"25  NADWORTHY LANE","STONY BROOK","NY","11790"
137173,"25 - 53RD STREET NE","WASHINGTON","DC","20019"
137174,"25 169TH STREET","HAMMOND","IN","46324"
137175,"25 19TH AVE SE","MINOT","ND","58701"
137176,"25 1ST AVENUE NE       SUITE 105","HICKORY","NC","28601"
137177,"25 3RD AVE SW","WATERTOWN","SD","57201"
137178,"25 3RD AVE","CHERRY CREEK","SD","57622"
137179,"25 A 7TH AVENUE","KEY WEST","FL","33040"
137180,"25 ABBEY LANE","CARTERSVILLE","GA","30120"
137181,"25 ADIN STREET","HOPEDALE","MA","01747"
137182,"25 AL HANNAH CIRCLE","PIKESVILLE","MD","21208"
137183,"25 ALUMNI DRIVE","DOVER","NH","03820"
137184,"25 AMBROSE STREET 2ND FLOOR","ROXBURY","MA","02118"
137185,"25 ANDREWS DRIVE","WOODLAND PARK","NJ","07424"
137186,"25 ANGWEN AVE","MANCHESTER","TN","37355"
137187,"25 ANITA STREET","GREENUP","KY","41144"
137188,"25 ANTILLES COVE","MIRAMAR BEACH","FL","32550"
137189,"25 APPLEDALE LANE","CHESTNUT RIDGE","NY","10977"
137190,"25 APPLEMINT LN","BEAUFORT","SC","29906"
137191,"25 APPLERIDGE DRIVE","BIDDEFORD","ME","04005"
137192,"25 APRICOT STREET","STAFFORD","VA","22554"
137193,"25 AREQUA RIDGE DRIVE","COLORADO SPRINGS","CO","80919"
137194,"25 ARLINGTON STREET","SOMERVILLE","MA","02145"
137195,"25 ARROWHEAD LN","CLARKSVILLE","AR","72830"
137196,"25 ASH LANE","STAFFORD","VA","22556"
137197,"25 AT THE FALLS","BUSHKILL","PA","18324"
137198,"25 BARTER RD","ROCKLAND","ME","04841"
137199,"25 BATES ROAD","SWAMPSCOTT","MA","01907"
137200,"25 BEACON AVE","PITTSFIELD","MA","01201"
137201,"25 BEDFORD AVE","MASSAPEQUA","NY","11758"
137202,"25 BEECHWOOD LN","ELIZABETHTOWN","PA","17022"
137203,"25 BEEKMAN ROAD","EAST BRUNSWICK","NJ","08816"
137204,"25 BELMOHR STREET","BELLEVILLE","NJ","07109"
137205,"25 BILLINGS PLACE","BROOKLYN","NY","11223"
137206,"25 BILLMAN RD","CATAWISSA","PA","17820"
137207,"25 BLACK GUM DRIVE","MONMOUTH JUNCTION","NJ","08852"
137208,"25 BLACKS BLUFF RD SW","ROME","GA","30161"
137209,"25 BLANCHARD STREET","PALMER","MA","01069"
137210,"25 BLUE HERON WAY","SKILLMAN","NJ","08558"
137211,"25 BLUEGRASS CIRCLE","TAUNTON","MA","02780"
137212,"25 BOGUS HILL","NORTH AUGUSTA","SC","29860"
137213,"25 BOND STREET","BROOKLYN","NY","11201"
137214,"25 BRENNER STREET","NEWARK","NJ","07108"
137215,"25 BREVOORT PLACE FLOOR 1","BROOKLYN","NY","11216"
137216,"25 BRIAN DRIVE","EAST ISLIP","NY","11730"
137217,"25 BRIAR HILL DRIVE","PUTNAM VALLEY","NY","10579"
137218,"25 BRIDGE ST UNIT 3","BILLERICA","MA","01821"
137219,"25 BRIGHTON AVENUE APT 1A","BELLEVILLE","NJ","07109"
137220,"25 BROOKSIDE PLACE 1ST FLOOR","NEW ROCHELLE","NY","10801"
137221,"25 BROOKSIDE ROAD","ORINDA","CA","94563"
137222,"25 BROWNS LANE","CHRISTIANA","DE","19702"
137223,"25 BULL HILL ROAD","NEWFIELD","NY","14867"
137224,"25 BURR ST","EASTON","CT","06612"
137225,"25 C STREET","BELMONT","MA","02478"
137226,"25 CALVARY CIRCLE","LONOKE","AR","72086"
137227,"25 CAMBRIDGE PLACE APT 2","BROOKLYN","NY","11238"
137228,"25 CAMELLIA LANE","PELL CITY","AL","35128"
137229,"25 CAPRICE CT","SACRAMENTO","CA","95832"
137230,"25 CARDIFF ST","JOHNSTOWN","PA","15906"
137231,"25 CAT FISH DR","BYHALIA","MS","38611"
137232,"25 CATHERINE STREET 6C","BRISTOL","RI","02809"
137233,"25 CATOCTIN CIR SE 2253","LEESBURG","VA","20177"
137234,"25 CATOCTIN CIRCLE SE UNIT 2976","LEESBURG","VA","20177"
137235,"25 CATOCTIN CIRCLE SUITE 4225","LEESBURG","VA","20177"
137236,"25 CAVALIER WAY","LATHAM","NY","12110"
137237,"25 CENTER ST","VERMILLION","SD","57069"
137238,"25 CHANDLER SQUARE","PORT JEFFERSON","NY","11777"
137239,"25 CHAPMAN PLACE","IRVINGTON","NJ","07111"
137240,"25 CHASE FARM RD","SOUTH WINDSOR","CT","06074"
137241,"25 CHERRY BARK TRL","ELLISVILLE","MS","39437"
137242,"25 CHURCH STREET","WELD","ME","04285"
137243,"25 CLAREMONT AVE NUM 4B","NEW YORK","NY","10027"
137244,"25 CLAREMONT UNIT 6","LONG BEACH","CA","90803"
137245,"25 CLIFF STREET","QUINCY","MA","02169"
137246,"25 CLOUTMANS LANE","MARBLEHEAD","MA","01945"
137247,"25 COLLINS CREEK RD","GREENVILLE","SC","29607"
137248,"25 CONCORD RD","BILLERICA","MA","01821"
137249,"25 CONCORD STREET","EAST HARTFORD","CT","06108"
137250,"25 CONGRESSIONAL PL","SPRINGBORO","OH","45066"
137251,"25 CONSTITUTION BLVD SOUTH","SHELTON","CT","06484"
137252,"25 COOPER RUN STREET","LOVETTSVILLE","VA","20180"
137253,"25 COPPER BEECH RD","GREENWICH","CT","06830"
137254,"25 COPPERHEAD RD","CLYDE","NC","28721"
137255,"25 CORNISH ROAD","CARMEL","NY","10512"
137256,"25 CORNISH STREET","STATEN ISLAND","NY","10308"
137257,"25 COUNTY ROAD 1772","JOPPA","AL","35087"
137258,"25 COUNTY ROAD 1905","LINDEN","TX","75563"
137259,"25 COUNTY ROAD 2127","PITTSBURG","TX","75686"
137260,"25 COUNTY ROAD 3523","HALEYVILLE","AL","35565"
137261,"25 CRABAPPLE LANE","FRANKLIN PARK","NJ","08823"
137262,"25 CRAFTS ROAD","CARMEL","NY","10512"
137263,"25 CRAWFORD STREET","HAVERHILL","MA","01832"
137264,"25 CREIGHTON STREET","JAMAICA PLAIN","MA","02130"
137265,"25 CRESCENT DRIVE STE A234","PLEASANT HILL","CA","94523"
137266,"25 CRESTWOOD RD","WINDHAM","NH","03087"
137267,"25 CURRAN AVE","NORWOOD","MA","02062"
137268,"25 CYPRESS LANE","WILBRAHAM","MA","01095"
137269,"25 DALE DR","CHATHAM","NJ","07928"
137270,"25 DANIELS ROAD","LAKEVILLE","PA","18438"
137271,"25 DARDENNE CROSSING COURT","DARDENNE PRAIRIE","MO","63368"
137272,"25 DAYTON AVENUE","TOMS RIVER","NJ","08753"
137273,"25 DEAN HUNDLEY RD","EASTBERNSTADT","KY","40729"
137274,"25 DEGARMO RD","POUGHKEEPSIE","NY","12603"
137275,"25 DEN HOLLOW RD","GUILFORD","CT","06437"
137276,"25 DEPOT ROAD","OXFORD","MA","01540"
137277,"25 DINONSIE WAY","WAKEFIELD","RI","02879"
137278,"25 DONNA STREET UNIT 1204","PALM HARBOR","FL","34684"
137279,"25 DORCHESTER AVE 51538","BOSTON","MA","02205"
137280,"25 DORCHESTER AVENUE    UNIT 51954","BOSTON","MA","02205"
137281,"25 DOWNING STREET UNIT 2-302","DENVER","CO","80218"
137282,"25 DRAPER STREET C/O ATLAS LOCAL","GREENVILLE","SC","29611"
137283,"25 DRIFTWOOD DRIVE","SOMERSET","NJ","08873"
137284,"25 DUBLIN DRIVE","NISKAYUNA","NY","12309"
137285,"25 DUDLEY AVENUE","GRANITE FALLS","NC","28630"
137286,"25 DUNBAR CREEK POINT","SAINT SIMONS ISLAND","GA","31522"
137287,"25 DUSENBERRY ROAD","BRONXVILLE","NY","10708"
137288,"25 E 10TH ST APT 7E","NEW YORK","NY","10003"
137289,"25 E 1ST ST","JACKSONVILLE","FL","32206"
137290,"25 E 39TH STREET","SAVANNAH","GA","31401"
137291,"25 E 40TH STREET UNIT 4B","INDIANAPOLIS","IN","46205"
137292,"25 E FOOTHILL BLVD","ARCADIA","CA","91006"
137293,"25 E GRANDVIEW DR","SOUTH HOLLAND","IL","60473"
137294,"25 E HIGHT STREET","GLASSBORO","NJ","08028"
137295,"25 E LINDEN AVE","MIAMISBURG","OH","45342"
137296,"25 E MAIN ST","RATHDRUM","ID","83440"
137297,"25 E MELLEN STREET","HAMPTON","VA","23663"
137298,"25 E METCALF ST","ERIE","PA","16504"
137299,"25 E MORAN VIEW RD","IDAHO FALLS","ID","83440"
137300,"25 E WASHINGTON ST STE 700","CHICAGO","IL","60602"
137301,"25 E WASHINGTON ST STE 750","CHICAGO","IL","60602"
137302,"25 E WASHINGTON ST SUITE 1811","CHICAGO","IL","60602"
137303,"25 EARLE ROAD","WELLESLEY","MA","02481"
137304,"25 EAST 31ST STREET 2ND FLOOR","BROOKLYN","NY","11226"
137305,"25 EAST 7TH STREET APT 4","NEW YORK","NY","10003"
137306,"25 EAST 8TH STREET","PANAMA CITY","FL","32401"
137307,"25 EAST BLUE HERON BOULEVARD","RIVIERA BEACH","FL","33404"
137308,"25 EAST CEDAR STREET","MASSAPEQUA","NY","11758"
137309,"25 EAST COFFEE STREET","HAZLEHURST","GA","31539"
137310,"25 EAST FRONT STREET","MILAN","OH","44846"
137311,"25 EAST MARKET STREET","HYDE PARK","NY","12538"
137312,"25 EAST PEARSON","CHICAGO","IL","60611"
137313,"25 EAST PINE STREET","ORLANDO","FL","32801"
137314,"25 EAST STATE STREET","NORTH AURORA","IL","60542"
137315,"25 EAST VARGO ROAD","HORSEHEADS","NY","14845"
137316,"25 EAST WASHINGTON ST","MARIONVILLE","MO","65705"
137317,"25 EAST WINDSOR PKWY","OCEANSIDE","NY","11572"
137318,"25 ELIZABETH STREET","GUILFORD","CT","06437"
137319,"25 ELLINGTON WAY","SPRING VALLEY","NY","10977"
137320,"25 ELM STREET","FRAMINGHAM","MA","01701"
137321,"25 EMBRY FARM ROAD","MARLBORO","NJ","07746"
137322,"25 EMERSON GARDENS","LEXINGTON","MA","02420"
137323,"25 EOLA AVENUE","ASEHVILLE","NC","28806"
137324,"25 ESSEX STREET","ANDOVER","MA","01810"
137325,"25 ESTEN AVE","PAWTUCKET","RI","02860"
137326,"25 EUGENE AVE","BRISTOL","CT","06010"
137327,"25 EUGENIA WAY","HILLSBOROUGH","CA","94010"
137328,"25 EVERETT RD","DUNBARTON","NH","03046"
137329,"25 EVERGREEN AVENUE","NEWARK","NJ","07114"
137330,"25 EXCHANGE ST","LYNN","MA","01901"
137331,"25 EXCHANGE STREET","LYNN","MA","01901"
137332,"25 EXPRESS LANE","WILLINGSBORO","NJ","08046"
137333,"25 FAIRHOPE AVE","EXCELSIOR","MN","55331"
137334,"25 FALLS DRIVE","TIGER","GA","30576"
137335,"25 FAMILY CIRCLE","LEE CENTER","NY","13363"
137336,"25 FELWAY DRIVE","CORAM","NY","11727"
137337,"25 FIFTH AVENUE","NARRAGANSETT","RI","02882"
137338,"25 FIORE DRIVE","SAVANNAH","GA","31419"
137339,"25 FIREWORKS CIR","BRIDGEWATER","MA","02324"
137340,"25 FIRST ST","ELIZABEETH","NJ","07206"
137341,"25 FISCHER AVENUE","BOGOTA","NJ","07603"
137342,"25 FISCHER LN","TIJERAS","NM","87059"
137343,"25 FISHER AVENUE","BROOKLINE","MA","02445"
137344,"25 FLAGSTICK LN STE 202","MAGNOLIA","DE","19962"
137345,"25 FLEMING LANE","FAIRFIELD","CT","06824"
137346,"25 FLORAMAR","RANCHO SANTA MARGARI","CA","92688"
137347,"25 FLOWER ROAD","SOMERSET","NJ","08873"
137348,"25 FLOYD AVENUE","TAUNTON","MA","02780"
137349,"25 FRANCES HUNTER DRIVE","NEW HAVEN","CT","06511"
137350,"25 FRANKLIN ST","WOBURN","MA","01801"
137351,"25 FREEDOM AVE","PISCATAWAY","NJ","08854"
137352,"25 GABLE PLACE","BARRE","VT","05641"
137353,"25 GARAND HILL RD","MIDDLESEX","VT","05602"
137354,"25 GILMER RD","TAYLORSVILLE","MS","39168"
137355,"25 GLENBROOK ROAD APT 318","STAMFORD","CT","06902"
137356,"25 GLENDALE CT","DALLAS","GA","30157"
137357,"25 GLENNWOOD DRIVE","NEWARK","DE","19702"
137358,"25 GOLF CLUB LANE","ASHLAND CITY","TN","37015"
137359,"25 GOLFVIEW LANE","READING","PA","19606"
137360,"25 GRACEWOOD DRIVE","MANHASSET","NY","11030"
137361,"25 GRAND MASTERS DR","LAS VEGAS","NV","89141"
137362,"25 GREENE STREET","NORTH SMITHFIELD","RI","02896"
137363,"25 GREENWOOD AVE","BETHEL","CT","06801"
137364,"25 GRISWOLD ST","CAMBRIDGE","MA","02138"
137365,"25 GUNDERSON ROAD","WILMINGTON","MA","01887"
137366,"25 HAELE PLACE","MAKAWAO","HI","96768"
137367,"25 HAMILTON PLACE","GARDEN CITY","NY","11530"
137368,"25 HANNA LANE","LITTLE ROCK","AR","72223"
137369,"25 HANSOM PL","ROOSEVELT","NY","11575"
137370,"25 HARRINGTON CIR","SALINAS","CA","93906"
137371,"25 HARTFORD STREET","NATICK","MA","01760"
137372,"25 HASTINGS AVENUE","OAKDALE","PA","15071"
137373,"25 HAWKSMOOR","ALISO VIEJO","CA","92656"
137374,"25 HAWTHORNE AVE","GLEN RIDGE","NJ","07028"
137375,"25 HEALTH SCIENCES DRIVE  BOX 216","STONY BROOK","NY","11790"
137376,"25 HEALTH SCIENCES DRIVE","STONY BROOK","NY","11790"
137377,"25 HEALY CT","LANGHORNE","PA","19047"
137378,"25 HICKORY RIDGE DRIVE","GARDINER","NY","12525"
137379,"25 HIGGINS DRIVE","MILFORD","CT","06460"
137380,"25 HIGH ST","HUNTINGTON","NY","11743"
137381,"25 HIGHFIELD LANE","NORWELL","MA","02061"
137382,"25 HIGHLAND PARK VILLAGE 100-805","DALLAS","TX","75205"
137383,"25 HIGHLAND PARK VLG - SUITE 472","DALLAS","TX","75205"
137384,"25 HIGHLAND PARK VLG","DALLAS","TX","75205"
137385,"25 HIGHSPIRE ROAD","RICHBORO","PA","18954"
137386,"25 HIGHVIEW AVENUE","RYE BROOK","NY","10573"
137387,"25 HILL DRIVE","CRYSTAL LAKE","IL","60014"
137388,"25 HILLSIDE AVENUE","NEW YORK","NY","10040"
137389,"25 HILLSIDE DRIVE","LANDER","WY","82520"
137390,"25 HILLTOP ROAD","EDISON","NJ","08820"
137391,"25 HOLLOW CIRCLE","WEST WARWICK","RI","02893"
137392,"25 HOOKS LANE SUITE 312","BALTIMORE","MD","21208"
137393,"25 HOWARD STREET","ROCKVILLE CENTRE","NY","11570"
137394,"25 HUDSON STREET SUITE 308","JERSEY CITY","NJ","07302"
137395,"25 INDUSTRIAL PARK ROAD","MIDDLETOWN","CT","06457"
137396,"25 INNIS AVE","POUGHKEEPSIE","NY","12601"
137397,"25 JACKSON INDUSTRIAL SUITE 500","ANN ARBOR","MI","48103"
137398,"25 JACOBS GULCH","KELLOGG","ID","83837"
137399,"25 JEFFERSON VALLEY","COATESVILLE","IN","46121"
137400,"25 JERICHO TPKE","JERICHO","NY","11753"
137401,"25 JUDSON STREET","BEVERLY","MA","01915"
137402,"25 JULIA MARIE CT","ELKTON","MD","21921"
137403,"25 KAREN RD","DANBURY","CT","06811"
137404,"25 KEITH DR","BATTLE CREEK","MI","49037"
137405,"25 KINGBIRD CT","COLUMBIA","SC","29229"
137406,"25 KINGDOM RD","WEST HAMLIN","WV","25571"
137407,"25 KINGSBURY STREET","WEST PARIS","ME","04289"
137408,"25 KINGSTON ST 6TH FLOOR","BOSTON","MA","02111"
137409,"25 KNISKERN AVENUE","MECHANICVILLE","NY","12118"
137410,"25 KNOWLTON AVENUE","SHREWSBURY","MA","01545"
137411,"25 KRAEMER ST","HICKSVILLE","NY","11801"
137412,"25 LAKE INEZ DR","BELLEVILLE","IL","62221"
137413,"25 LANTERN WAY","PORTSMOUTH","VA","23703"
137414,"25 LAUGHLIN MILL ROAD","NEWVILLE","PA","17241"
137415,"25 LAWN AVENUE","MOUNT VERNON","OH","43050"
137416,"25 LESHIN LANE","HIGHTSTOWN","NJ","08520"
137417,"25 LEWIS STREET","GREENWICH","CT","06830"
137418,"25 LEWIS WAY","LYNCHBURG","VA","24502"
137419,"25 LIBERTY DRIVE UNIT 4205","CARTERSVILLE","GA","30120"
137420,"25 LINCOLN CIRCLE","SWAMPSCOTT","MA","01907"
137421,"25 LINDEN","WATERTOWN","CT","06779"
137422,"25 LINDSLEY AVE","NASHVILLE","TN","37210"
137423,"25 LINWOOD PLACE","NORTH BRUNSWICK","NJ","08902"
137424,"25 LOCUST AVENUE","DANBURY","CT","06810"
137425,"25 LOMBARD DRIVE","WEST CALDWELL","NJ","07006"
137426,"25 LONGWOOD LN","COLUMBUS","NJ","08022"
137427,"25 LYNN DRIVE","TOMS RIVER","NJ","08753"
137428,"25 MACRAE DRIVE","GROVE CITY","PA","16127"
137429,"25 MAIN STREET - SUITE B","HASTINGS-ON-HUDSON","NY","10706"
137430,"25 MAIN STREET SUITE 220","NORTHAMPTON","MA","01060"
137431,"25 MAIN STREET SUITE 601","HACKENSACK","NJ","07601"
137432,"25 MAIN STREET","GRAFTON","MA","01560"
137433,"25 MAIN STREET","LANCASTER","NH","03584"
137434,"25 MANAS DR","BELLEVILLE","IL","62226"
137435,"25 MAPLE ST","PLAINVILLE","CT","06062"
137436,"25 MARATHON AVE","DAYTON","OH","45405"
137437,"25 MARGARET CT","FAIRLAWN","NJ","07410"
137438,"25 MARGETTS ROAD","MONSEY","NY","10977"
137439,"25 MARKET STREET","EDISON","NJ","08817"
137440,"25 MARTIN ROAD","COATESVILLE","PA","19320"
137441,"25 MASON DR","JACKSON","NJ","08527"
137442,"25 MASSIE COURT","SACRAMENTO","CA","95823"
137443,"25 MATHEWSON DRIVE","WEYMOUTH","MA","02189"
137444,"25 MAUCHLY SUITE 307","IRVINE","CA","92618"
137445,"25 MAYBURY RD","SUDBURY","NH","01776"
137446,"25 MCLEOD RD","PINEHURST","NC","28374"
137447,"25 MEADE DRIVE","NEWPORT NEWS","VA","23602"
137448,"25 MEADOW STREET","WILLIMANTIC","CT","06226"
137449,"25 MELANIE LANE","SYOSSET","NY","11791"
137450,"25 MITCHELL AVE","E BRUNSWICK","NJ","08816"
137451,"25 MITCHELL PLACE","PELHAM MANOR","NY","10803"
137452,"25 MIZZEN LN","PLYMOUTH","MA","02360"
137453,"25 MOHAWK DR","NORTH BABYLON","NY","11703"
137454,"25 MORAY PLACE","COVINGTON","GA","30014"
137455,"25 MORTON ST","GARNERVILLE","NY","10923"
137456,"25 MOUNTAINVIEW BLVD SUITE 202A","BASKING RIDGE","NJ","07920"
137457,"25 MSU FARM DR","MOREHEAD","KY","40351"
137458,"25 MULBERRY ST","SICKLERVILLE","NJ","08081"
137459,"25 MUNCH ROAD","RED BANK","NJ","07701"
137460,"25 MYRTLE LANE","CORAM","NY","11727"
137461,"25 N 11 STREET","ALLENTOWN","PA","18101"
137462,"25 N 3RD ST  SUITE 100","ZANESVILLE","OH","43701"
137463,"25 N 3RD ST SUITE 100","ZANESVILLE","OH","43701"
137464,"25 N ADAMS ST","POTTSTOWN","PA","19464"
137465,"25 N APPLE ST","LAKEWOOD","NJ","08701"
137466,"25 N CHURCH ST","MADISONVILLE","KY","42431"
137467,"25 N FORTY RD","WOODBURY","CT","06798"
137468,"25 N FRANKLIN ST","BLOOMFIELD","IN","47424"
137469,"25 N MAIN STREET","HEBER","UT","84032"
137470,"25 N MARKET STREET SUITE 250","JACKSONVILLE","FL","32202"
137471,"25 N PARKSIDE AVENUE","CHICAGO","IL","60644"
137472,"25 N RAILROAD","SHELBURN","IN","47879"
137473,"25 N WASHINGTON ST","ROCHESTER","NY","14614"
137474,"25 N33RD STREET","PHILADELPHIA","PA","19104"
137475,"25 NAPLES AVE REAR","SAUGUS","MA","01906"
137476,"25 NE 2ND STREET","MIAMI","FL","33132"
137477,"25 NEW YORK AVENUE","ROCHESTER","PA","15074"
137478,"25 NEWARK AVE","GOOSE CREEK","SC","29445"
137479,"25 NEWPORT COURT","STERLING","VA","20164"
137480,"25 NIMROD ROAD","WEST SIMSBURY","CT","06092"
137481,"25 NORMAN DR","RYE","NY","10580"
137482,"25 NORMANS FORD  DRIVE","SICKLERVILLE","NJ","08081"
137483,"25 NORTH 14TH STREET - SUITE 505","SAN JOSE","CA","95112"
137484,"25 NORTH 98TH STREET","BELLEVILLE","IL","62223"
137485,"25 NORTH BRIDGE STREET","SOMERVILLE","NJ","08876"
137486,"25 NORTH BROWING AVENUE","TENAFLY","NJ","07670"
137487,"25 NORTH CENTRAL AVE","STAUNTON","VA","24401"
137488,"25 NORTH COURT STREET","HARRISBURG","PA","17101"
137489,"25 NORTH FRANKLIN ST","PALMYRA","PA","17078"
137490,"25 NORTH MAIN STREET","WESTFORD","MA","01886"
137491,"25 NORTH MARKET STREET","JACKSONVILLE","FL","32202"
137492,"25 NORTH SUMNER AVENUE","NEWCASTLE","WY","82701"
137493,"25 NORTONTOWN ROAD","MADISON","CT","06443"
137494,"25 NUNNERY LN","CATONSVILLE","MD","21228"
137495,"25 NW 23RD PLACE SUITE 6 287","PORTLAND","OR","97210"
137496,"25 OAKHAM RD","N BROOKFIELD","MA","01535"
137497,"25 OAKLAND AVENUE","WHEELING","WV","26003"
137498,"25 OCELET PLACE","RENO","NV","89511"
137499,"25 OLD KINGS RD N STE A5","PALM COAST","FL","32137"
137500,"25 OLDE PRESTWICK WAY","PENFIELD","NY","14526"
