"ID","Address","City","State","Zip"
174501,"329 WICKLIFFE AVE","CAMPBELLSVILLE","KY","42718"
174502,"329 WILSON STREET","CARLISLE","PA","17013"
174503,"3290 BRIDGEHAMPTON WAY","CAMARILLO","CA","93012"
174504,"3290 CASEYS CROSSING","BIRMINGHAM","AL","35215"
174505,"3290 CHEYENNE DR","MERCED","CA","95348"
174506,"3290 COBB GALLERIA PARKWAY 15130","ATLANTA","GA","30339"
174507,"3290 COBB GALLERIA PARKWAY","ATLANTA","GA","30339"
174508,"3290 COBB GALLERIA PKWY STE 11127","ATLANTA","GA","30339"
174509,"3290 HEIGHTS DR","RENO","NV","89503"
174510,"3290 HWY 569","FERRIDAY","LA","71334"
174511,"3290 LARK HAVEN DRIVE NW","KENNESAW","GA","30152"
174512,"3290 LEYDEN ST","DENVER","CO","80207"
174513,"3290 N BUFFALO DRIVE","LAS VEGAS","NV","89129"
174514,"3290 NOAH ST","DELTONA","FL","32738"
174515,"3290 STATE RT 87","MONTOURSVILLE","PA","17754"
174516,"3290 UNIONTOWN RD","JAMESVILLE","NC","27846"
174517,"3290 W RADIO DR","FLORENCE","SC","29501"
174518,"32901 WOLFS TRAIL","SORRENTO","FL","32776"
174519,"32905 N 140TH ST","SCOTTSDALE","AZ","85262"
174520,"32906 N PEBBLE CREEK DR","SAN TAN VALLEY","AZ","85143"
174521,"32908 JOHNSON ROAD","SALISBRUY","MD","21801"
174522,"3291 HIDDEN COVE CIR","NORCROSS","GA","30092"
174523,"3291 SANCTUARY POINT","FORT MYERS","FL","33905"
174524,"3291 SCENIC TERRACE HWY","MEMPHIS","TN","38128"
174525,"3291 SOUTH BROADWAY","SARATOGA SPRINGS","NY","12866"
174526,"3291 SW 16 TERRACE","MIAMI","FL","33145"
174527,"3291 SW 174TH AVENUE","BEAVERTON","OR","97003"
174528,"3291 W SUNRISE BLVD","FORT LAUDERDALE","FL","33311"
174529,"32912 174TH PL SE","AUBURN","WA","98092"
174530,"32919 CENTER ST","WITTMANN","AZ","85361"
174531,"3292 BRUNO DR","SAN JOSE","CA","95136"
174532,"3292 EAGLE VIEW LANE  SUITE 340","LEXINGTON","KY","40509"
174533,"3292 LAHITTE COURT","SAN DIEGO","CA","92122"
174534,"3292 PERENNIAL LANE","SNELLVILLE","GA","30039"
174535,"3292 RIVA RIDGE WAY","BOISE","ID","83709"
174536,"3292 WINBROOK DR","MEMPHIS","TN","38116"
174537,"32921 SUNKEN LANE","UPPERVILLE","VA","20184"
174538,"32925 85TH STREET E","DUETTE","FL","34219"
174539,"32926 JEFFERSON AVENUE","ST CLAIR SHORES","MI","48082"
174540,"3293 DALE ROAD","BENSALEM","PA","19020"
174541,"3293 RIVERSIDE CT","CANTON","MI","48188"
174542,"3293 STONE MOUNTAIN HIGHWAY  D","SNELLVILLE","GA","30078"
174543,"3293 TULLAMORE RD","CLEVELAND HTS","OH","44118"
174544,"32931 WRIGHT ROAD","MAGNOLIA","TX","77355"
174545,"32932 PCH STE-14-294","DANA POINT","CA","92629"
174546,"32933 SE 43RD STREET","FALL CITY","WA","98024"
174547,"3294 ARUNDEL ON THE BAY ROAD","ANNAPOLIS","MD","21403"
174548,"3294 BOBBIE LANE","DECATUR","GA","30032"
174549,"3294 CAMPFIRE STREET","LOS LUNAS","NM","87031"
174550,"3294 COLEEN DRIVE","CINCINNATI","OH","34251"
174551,"3294 EAST 104TH","CLEVLAND","OH","44104"
174552,"3294 N 1450 E","NORTH LOGAN","UT","84341"
174553,"3294 SPANISH TRL APT 7","ATLANTA","GA","30344"
174554,"329415 TONYA DRIVE","LUTHER","OK","73054"
174555,"32945 SIBLEY RD","ROMULUS","MI","48174"
174556,"3295 BLAKE STREET APT 205","DENVER","CO","80205"
174557,"3295 GRANGER AVE E UNIT 1","BILLINGS","MT","59102"
174558,"3295 KAISER DRIVE - APT 404","ELLICOTT CITY","MD","21043"
174559,"3295 N SAVANNAH PLACE","VERO BEACH","FL","32963"
174560,"3295 PARK BRANCH AVE","CLERMONT","FL","34711"
174561,"3295 RIVER EXCHANGE DR STE 302","PEACHTREE CORNERS","GA","30022"
174562,"3295 SEVEN BRIDGES RD","MEDINA","OH","44256"
174563,"3295 VALLEY BEND RD","ATLANTA","GA","30349"
174564,"3295 W EXPOSITION AVE","DENVER","CO","80219"
174565,"32950 OLD HEMPSTEAD RD","MAGNOLIA","TX","77041"
174566,"32951 KIWI CT W","LEWES","DE","19958"
174567,"32953 RIVERSIDE DR","LAKE ELSINORE","CA","92530"
174568,"32956 LAKE ERIE STREET","FREMONT","CA","94555"
174569,"3296 BELLEFONTE DR","LEXINGTON","KY","40502"
174570,"3296 BEND COVE CT","LEAGUE CITY","TX","77573"
174571,"3296 DEER RUN CIRCLE","ALPHARETTA","GA","30004"
174572,"3296 FARTHING WAY","SAN JOSE","CA","95132"
174573,"3296 HOLLOW COURT","ELLICOTT CITY","MD","21043"
174574,"3296 N FEDERAL HIGHWAY  UNIT 11151","FORT LAUDERDALE","FL","33339"
174575,"3296 N US HWY 281","BURNET","TX","78611"
174576,"3296 NORTH 850 WEST","PLEASANT VIEW","UT","84414"
174577,"3296 SHEPARD RD","PERRY","OH","44081"
174578,"3296 SUMMIT RIDGE PKWY STE 1510","DULUTH","GA","30096"
174579,"3296 SUMMIT RIDGE PKWY STE 1620","DULUTH","GA","30096"
174580,"3296 ULSTER STREET","DENVER","CO","80238"
174581,"3296 WELCOME ROAD","ROOPVILLE","GA","30270"
174582,"3296 WESTERVILLE ROAD","COLUMBUS","OH","43224"
174583,"32965 HUNTER AVE","WESTLAND","MI","48185"
174584,"3297 IRISH VALLEY RD","PAXINOS","PA","17860"
174585,"3297 MARLIES CIRCLE","MACON","GA","31206"
174586,"3297 OSGOOD COVE NORTH","STILLWATER","MN","55082"
174587,"3297 TEA ROSE DR","EL DORADO HILLS","CA","95762"
174588,"3297 TEA ROSE DRIVE","EL DORADO HILLS","CA","95762"
174589,"32974 220TH ST","CANTON","MO","63435"
174590,"3298 BERKSHIRE ROAD","CLEVELAND HEIGHTS","OH","44118"
174591,"3298 LITTLE HILL LANE","SIERRA VISTA","AZ","85635"
174592,"3298 N GLASSFORD HILL RD 104","PRESCOTT VALLEY","AZ","86314"
174593,"3298 OAK LEAF PLACE","HIGHLANDS RANCH","CO","80129"
174594,"3298 ROXBURG DRIVE","LEXINGTON","KY","40503"
174595,"3299 BUS MCGALL RD","UKIAH","CA","95482"
174596,"3299 DON VALLEY DR","BARTLETT","TN","38133"
174597,"3299 GONDOLA DRIVE","LEXINGTON","KY","40513"
174598,"3299 GRAND POINT ROAD","CHAMBERSBURG","PA","17202"
174599,"3299 LIME KILN ROAD","GREEN BAY","WI","54311"
174600,"3299 ROUNDABOUT DR","MIDDLEBURG","FL","32068"
174601,"3299 RUPPERT ROAD","YORK","PA","17408"
174602,"3299 WHITE CASTLE WAY","DECATUR","GA","30034"
174603,"32996 COUNTY ROAD 135","PARK RAPIDS","MN","56470"
174604,"329A INGALLS ST","SANTA CRUZ","CA","95060"
174605,"32A WILLIAMS AVENUE","JERSEY CITY","NJ","07304"
174606,"32B PUNAHELE STREET","HILO","HI","96720"
174607,"32L9 LA PLATA AVENUE","HACIENDA","CA","91741"
174608,"32W045 WILL WAY","WAYNE","IL","60184"
174609,"33  CARNIAN  FORD  ROAD","RIPLEY","WV","25271"
174610,"33 10TH STREET","MCMECHEN","WV","26040"
174611,"33 3RD AVENUE APT 5","BROOKLYN","NY","11217"
174612,"33 43RD ST","IRVINGTON","NJ","07111"
174613,"33 43RD STREET","IRVINGTON","NJ","07111"
174614,"33 5TH STREET","BARNEGAT","NJ","08005"
174615,"33 ABERDEEN AVE","CAMBRIDGE","MA","02138"
174616,"33 ABIGAIL LANE","NORTH EAST","MD","21901"
174617,"33 ADELAIDE ST","HUDSON","NH","03051"
174618,"33 ALDHAM ROAD","PHOENIXVILLE","PA","19460"
174619,"33 ANITA DRIVE","CHARLESTON","SC","29407"
174620,"33 ANITA STREET","STATEN ISLAND","NY","10314"
174621,"33 ANN ST","RICE LAKE","WI","54868"
174622,"33 ANN STREET","RICE LAKE","WI","54868"
174623,"33 APPLEWAY RD","OKANOGAN","WA","98840"
174624,"33 ARDEN STREET APT 2","NEW YORK","NY","10040"
174625,"33 ARMM AVE","WALLINGTON","NJ","07057"
174626,"33 ARPEGE WAY","ATLANTA","GA","30327"
174627,"33 ARROWHEAD LN","LAWRENCE","NY","11559"
174628,"33 ARTHUR STREET","NEW HAVEN","CT","06519"
174629,"33 ASHFORD RD","JACKSON","NJ","08527"
174630,"33 AYLESBURY CT","KISSIMMEE","FL","34758"
174631,"33 B HARDING ST","BEAUFORT","SC","29902"
174632,"33 B MYERS STREET","BUFFALO","NY","14211"
174633,"33 BALI HAI ROAD","MECHANICSBURG","PA","17050"
174634,"33 BAY SHORE ROAD","DEER PARK","NY","11729"
174635,"33 BELLOWS FALLS RD","PUTNEY","VT","05346"
174636,"33 BENTON STREET","TONAWANDA","NY","14150"
174637,"33 BERKSHIRE ROAD","WILLIAMSBURG","VA","23188"
174638,"33 BLAIR STREET","GREENVILLE","SC","29607"
174639,"33 BLOOMFIELD STREET","DORCHESTER","MA","02124"
174640,"33 BLUE LEDGE DRIVE","ROSLINDALE","MA","02131"
174641,"33 BLUEFIELD DR UNIT 201","SPRING VALLEY","NY","10977"
174642,"33 BORTONS ROAD","MEDFORD","NJ","08055"
174643,"33 BRADFORD STREET","CONCORD","MA","01742"
174644,"33 BRAEMER RD","SETAUKET","NY","11733"
174645,"33 BRAYTON RD","BRIGHTON","MA","02135"
174646,"33 BREMEN STREET","BOSTON","MA","02128"
174647,"33 BRIDGE POINT","DOUGLASVILLE","GA","30134"
174648,"33 BRIGHTON DRIVE","GARNER","NC","27529"
174649,"33 BUCKSKIN","RAYNE","LA","70578"
174650,"33 BURLINGTON AVE","DEER PARK","NY","11747"
174651,"33 BURNHAM ROAD","BOLTON","MA","01740"
174652,"33 BURRILL AVE","LYNN","MA","01902"
174653,"33 CALIFORNIA DR","MIDDLETOWN","NY","10940"
174654,"33 CAMBRIDGE DRIVE","BERKELEY HEIGHTS","NJ","07922"
174655,"33 CANAL STREET APT 308","PENACOOK","NH","03303"
174656,"33 CANDLELIGHT LANE","PORTSMOUTH","VA","23703"
174657,"33 CANFIELD AVENUE","YONKERS","NY","10710"
174658,"33 CAROLINE DR","PRINCETON","NJ","08540"
174659,"33 CARSTON STREET","SELDEN","NY","11784"
174660,"33 CARTER ST","CONCORD","NH","03301"
174661,"33 CASCADE DRIVE","NEW HARTFORD","NY","13413"
174662,"33 CASTLE MEADOW ROAD","NEWTOWN","CT","06470"
174663,"33 CHACE AVE","PEPPERELL","MA","01463"
174664,"33 CHACE AVENUE","PEPPERELL","MA","01463"
174665,"33 CHARLES STREET","PORT WASHINGTON","NY","11050"
174666,"33 CHEYENNE ST","TINTON FALLS","NJ","07712"
174667,"33 CLINTON STREET","GOUVERNEUR","NY","13642"
174668,"33 CLINTON STREET","WESTFIELD","NY","14787"
174669,"33 COLLEGE STREET","NORCROSS","GA","30071"
174670,"33 COMMERCE DR","STANTON","KY","40380"
174671,"33 COMMONWEALTH AVE","GREAT BARRINGTON","MA","01230"
174672,"33 CONSERVATION WAY","STOUGHTON","MA","02072"
174673,"33 COOK ST","JOHNSON CITY","NY","13970"
174674,"33 COVELL STREET","WILKES-BARRE","PA","18702"
174675,"33 COWBARN LANE","NOVATO","CA","94947"
174676,"33 CRESCENT PLACE","SHORT HILLS","NJ","07078"
174677,"33 CUPRESSUS LN","FORT WALTON BEACH","FL","32548"
174678,"33 DEER MDW","TOLLAND","CT","06084"
174679,"33 DEERWOOD DRIVE","CLARK","NJ","07066"
174680,"33 DENMARK JACKSON RD","DENMARK","TN","38391"
174681,"33 DF HAVILAND LANE","WEYMOUTH","MA","02188"
174682,"33 DIXWELL AVE  SUITE 195","NEW HAVEN","CT","06511"
174683,"33 DONALD DRIVE","FAIRFIELD","OH","45014"
174684,"33 DOWNING ST","CHERRY HILL","NJ","08003"
174685,"33 DUNNE PLACE","LYNBROOK","NY","11563"
174686,"33 E CANON PERDIDO STREET","SANTA BARBARA","CA","93101"
174687,"33 E ELM ST","NORWALK","OH","44857"
174688,"33 E LEMON ST","LITITZ","PA","17543"
174689,"33 E VALLEY BLVD SUITE 213","ALHAMBRA","CA","91801"
174690,"33 E WASHINGTON STREET","NANTICOKE","PA","18634"
174691,"33 EAST AVE","SARATOGA SPRINGS","NY","12866"
174692,"33 EAST HILL RD","PLAINFIELD","VT","05667"
174693,"33 EAST MAIN ST","NEW LONDON","OH","44851"
174694,"33 EAST MEADOW LANE","MIDDLETON","MA","01949"
174695,"33 EAST MERRIMACK STREET","LOWELL","MA","01852"
174696,"33 EAST SCHROCK RD","WESTERVILLE","OH","43081"
174697,"33 EDDY ST","MILFORD","CT","06460"
174698,"33 ELSIN LANE","WILLINGBORO","NJ","08046"
174699,"33 ERIE ST W","BLAUVELT","NY","10913"
174700,"33 ERNSTON ROAD","COLONIA","NJ","07067"
174701,"33 EXETER RD","HAMPTON","NH","03842"
174702,"33 FAIRFAX VG","HARRISBURG","PA","17112"
174703,"33 FAIRFIELD DR","TINTON FALLS","NJ","07724"
174704,"33 FALLS CREEK RD","RAYMOND","WA","98577"
174705,"33 FLATBUSH AVE FL 4TH","BROOKLYN","NY","11217"
174706,"33 FOREST AVENUE","VALLEY STREAM","CA","11581"
174707,"33 FORSHAY ROAD","MONSEY","NY","10952"
174708,"33 FRANDEL DRIVE","AVON","CT","06001"
174709,"33 FRANKLIN DR","VOORHEES","NJ","08043"
174710,"33 FRANKLIN DRIVE","VOORHEES TOWNSHIP","NJ","08043"
174711,"33 GARDEN OAKS DRIVE","SMITHFIELD","NC","27577"
174712,"33 GARDEN STREET","STATEN ISLAND","NY","10314"
174713,"33 GATES CIRCLE NO 5E","BUFFALO","NY","14209"
174714,"33 GENA COURT","TRENTON","NJ","08690"
174715,"33 GILMER ST STE 304","ATLANTA","GA","30303"
174716,"33 GOLF COURSE DRIVE","SILVER BAY","MN","55614"
174717,"33 GORMLEY AVE","PORTSMOUTH","RI","02871"
174718,"33 GOVERNORS AVE","MEDFORD","MA","02155"
174719,"33 GRANITE ST","FOXBORO","MA","02035"
174720,"33 GRAVES LANE","TRENTON","TN","38382"
174721,"33 GREENWOOD AVE","NEW HAVEN","CT","06519"
174722,"33 GREYLAWN AVENUE","WARWICK","RI","02889"
174723,"33 GROVE AVE","WOLCOTT","CT","06716"
174724,"33 H BOUSCAY AVE","NORWALK","OH","44857"
174725,"33 HALIFAX PLACE","IRVINE","CA","92602"
174726,"33 HAMILTON TERRACE","NEW YORK","NY","10031"
174727,"33 HARRIET ST APT 1","SAN FRANCISCO","CA","94103"
174728,"33 HARRISON AVENUE - 8TH FLOOR","BOSTON","MA","02111"
174729,"33 HASKIN STREET","SPRINGFIELD","MA","01109"
174730,"33 HAYESTOWN ROAD","DANBURY","CT","06811"
174731,"33 HAZEN DRIVE","CONCORD","NH","03301"
174732,"33 HERITAGE HILL ROAD","TARRYTOWN","NY","10591"
174733,"33 HERRICK AVENUE","DELMAR","NY","12054"
174734,"33 HIGHVIEW LANE","RIDGE","NY","11961"
174735,"33 HILLCREST AVE","BROCKTON","MA","02301"
174736,"33 HOLLY DRIVE","UPPER SADDLE RIVER","NJ","07458"
174737,"33 HOMELAND","IRVINE","CA","92618"
174738,"33 HORSESHOE LANE","NORTH FALMOUTH","MA","02556"
174739,"33 HORTON PLACE LOWER","BUFFALO","NY","14209"
174740,"33 HOWARD ST","POMPTON LAKES","NJ","07442"
174741,"33 HUFF DRIVE","LAWRENCEVILLE","GA","30044"
174742,"33 HUMMINGBIRD CT","CHILLICOTHE","OH","45601"
174743,"33 INDEPENDENCE CIRCLE","MIDDLEBURY","CT","06768"
174744,"33 INTREPID CIRCLE APT 402","MARBLEHEAD","MA","01945"
174745,"33 IRVING STREET","NEWTON","MA","02459"
174746,"33 JAMES STREET","KEYSER","WV","26726"
174747,"33 JOHNATHAN RD","LAKE ZURICH","IL","60047"
174748,"33 JOHNSON STREET","CHATSWORTH","GA","30705"
174749,"33 JOYCE DRIVE","HAUPPAUGE","NY","11788"
174750,"33 JUNCTION LN","SOUTH HAMILTON","MA","01982"
174751,"33 KANE PLACE","BROOKLYN","NY","11233"
174752,"33 KELLOGG AVENUE 2","AMHERST","MA","01004"
174753,"33 KELLOGG AVENUE","AMHERST","MA","01002"
174754,"33 KINGMAN LANE","GARNERVILLE","NY","10923"
174755,"33 KINGSLAND COURT","FAIR LAWN","NJ","07410"
174756,"33 KINGSTON DRIVE","BELLEVILLE","IL","62223"
174757,"33 KINROSS DRIVE","STAFFORD","VA","22554"
174758,"33 LAKE AVE","STATEN ISLAND","NY","10303"
174759,"33 LAMBERTS LANE","COATESVILLE","PA","19320"
174760,"33 LEDGEWOOD DRIVE","COHASSET","MA","02025"
174761,"33 LESLIE WAY","HAMLIN","WV","25523"
174762,"33 LEXINGTON ST","HAMDEN","CT","06514"
174763,"33 LEYDEN STREET","PLYMOUTH","MA","02360"
174764,"33 LIGHTHOUSE DRIVE","GOOSE CREEK","SC","29445"
174765,"33 LINCOLN DRIVE","NORTH SMITHFIELD","RI","02896"
174766,"33 LOCUST LN","FLORENCE","KY","41042"
174767,"33 LONO SUITE 450","KAHULUI","HI","96732"
174768,"33 LOUDOUN ST 1G","YONKERS","NY","10705"
174769,"33 LUPTON AVE","WOODBURY","NJ","08096"
174770,"33 MACON DRIVE","CATAULA","GA","31804"
174771,"33 MADISON AVE","PISCATAWAY","NJ","08854"
174772,"33 MADOC STREET","NEWTON","MA","02459"
174773,"33 MAGUE AVE","NEWTON","MA","02465"
174774,"33 MAIN STREET","LITTLETON","NH","03561"
174775,"33 MALLARD LANE","WESTFIELD","MA","01085"
174776,"33 MALLARD PLACE","SEACAUCUS","NJ","07094"
174777,"33 MAPLE AVENUE   PO BOX 38","BOVINA CENTER","NY","13740"
174778,"33 MAPLE ROAD","MAHWAH","NJ","07430"
174779,"33 MARGATE AVE","BEESLEYS POINT","NJ","08223"
174780,"33 MARKET POINT DRIVE","GREENVILLE","SC","29607"
174781,"33 MARSELLE","LAGUNA NIGUEL","CA","92677"
174782,"33 MASSACHUSETTS AVE","MIDDLETOWN","RI","02842"
174783,"33 MCGREGOR DRIVE","SHERBORN","MA","01770"
174784,"33 MCINTOSH STREET","LIVERPOOL","NY","13090"
174785,"33 MCKEAN ST","GOUVERNEUR","NY","13642"
174786,"33 MCKINLEY CT","PHILLIPSBURG","MT","59858"
174787,"33 MEADOW BROOK DRIVE","PITTSBURG","CA","94565"
174788,"33 MESERO WAY","HOT SPRINGS VILLAGE","AR","71909"
174789,"33 MONROE STEET APT D","MILFORD","CT","06460"
174790,"33 MORNINGSIDE RD","VERONA","NJ","07044"
174791,"33 MOWBRAY STREET","PATCHOGUE","NY","11772"
174792,"33 MUSIC SQ W STE 102B","NASHVILLE","TN","37203"
174793,"33 N 25TH ST","LAS VEGAS","NV","89101"
174794,"33 N CENTRAL 404","MEDF","OR","97501"
174795,"33 N CHESTNUT STREET","CORTEZ","CO","81321"
174796,"33 N DEARBORN ST STE 300","CHICAGO","IL","60602"
174797,"33 N FIRST STREET  STE 1","ASHLAND","OR","97520"
174798,"33 N MAIN","ELKTON","MI","48731"
174799,"33 N PUBLIC SQUARE","KNOXVILLE","IL","61448"
174800,"33 N STREET","HULL","MA","02045"
174801,"33 N WEST ST","ALLENTOWN","PA","18102"
174802,"33 NATHAN HALE COURT","CHESHIRE","CT","06410"
174803,"33 NATHAN HALE CT","CHESHIRE","CT","06410"
174804,"33 NEW SCOTLAND AVE- APT 504","ALBANY","NY","12208"
174805,"33 NINA COURT","JONESBORO","GA","30238"
174806,"33 NORTH CENTRAL AVENUE","RAMSEY","NJ","07446"
174807,"33 NORTH DEARBORN STREET 1500","CHICAGO","IL","60602"
174808,"33 NORTH DEARBORN STREET SUITE 153","CHICAGO","IL","60602"
174809,"33 NORTH PALMER DRIVE","PORT TOWNSEND","VA","98368"
174810,"33 NORTH THOMPSON STREET","NEW BUFALO","MI","49117"
174811,"33 NORTHERN AVENUE","NORTHAMPTON","MA","01060"
174812,"33 NORWALK LANE","BARNEGAT","NJ","08005"
174813,"33 NOTTA LANE","GORHAM","ME","04038"
174814,"33 NW 168 STREET","NORTH MIAMI BEACH","FL","33169"
174815,"33 OAK LANE","SPRINGFIELD","IL","62712"
174816,"33 OAK PLACE","NEW IBERIA","LA","70563"
174817,"33 OAK STREET","SPRINGFIELD","MA","01109"
174818,"33 OFFICE PARK ROAD A-122","HILTON HEAD ISLAND","SC","29928"
174819,"33 OFFICE PARK ROAD A159","HILTON HEAD ISLAND","GA","29928"
174820,"33 OGDEN STREET","GLENS FALLS","NY","12801"
174821,"33 OLD NEW ENGLAND PATH","RUSSELL","MA","01071"
174822,"33 OLD WAGON ROAD","WOODSTOCK","NY","12498"
174823,"33 OLD WINDYBUSH ROAD","NEW HOPE","PA","18938"
174824,"33 ORCHARD HILL RD","KATONAH","NY","10536"
174825,"33 OSAGE ROAD","CLAYMONT","DE","19703"
174826,"33 OSGOOD ROAD","MILFORD","NH","03055"
174827,"33 PADDY HILL RD","MEDFORD","ME","04463"
174828,"33 PANNEL STREET - UNIT 1","BUFFALO","NY","14214"
174829,"33 PATRIOT DRIVE","BRUNSWICK","ME","04011"
174830,"33 PCR 540","PERRYVILLE","MO","63755"
174831,"33 PENELOPE CT","MAHOPAC","NY","10541"
174832,"33 PERCITA AVE B","SAN FRANCISCO","CA","94110"
174833,"33 PERRY STREET","AUBURN","MA","01501"
174834,"33 PETTINE ST","COVENTRY","RI","02816"
174835,"33 PINCKNEY DRIVE","COATESVILLE","PA","19320"
174836,"33 POLICE DRIVE","CHAPMANVILLE","WV","25508"
174837,"33 POPLAR ROAD","PISCATAWAY","NJ","08554"
174838,"33 PRENZLER DR","BLOOMINGTON","IL","61704"
174839,"33 PRESIDENT STREET","NEW ROCHELLE","NY","10801"
174840,"33 PROSPECT AVENUE 1R","WAKEFIELD","RI","02879"
174841,"33 PROSPECT HEIGHTS","ASHLAND","MA","01721"
174842,"33 QUAY COURT NO 30","SACRAMENTO","CA","95831"
174843,"33 RALPH STUBBS ROAD","RANDOLPH","MA","02368"
174844,"33 RASTRO STREET","RANCHO MISSION VIEJO","CA","92694"
174845,"33 RAVENWOOD BLVD","BARNEGAT","NJ","08005"
174846,"33 RICHARD CT","PLAINVIEW","NY","11803"
174847,"33 RICHMOND ROAD APT 305","SAN ANSELMO","CA","94960"
174848,"33 RIDGEWOOD DRIVE","MECHANICVILLE","NY","12118"
174849,"33 RIGGS RD NE","WASHINGTON","DC","20011"
174850,"33 RIVERVIEW DRIVE","ASHLAND","MA","01721"
174851,"33 ROGERS ST APT T70","CAMBRIDGE","MA","02142"
174852,"33 ROOSEVELT DRIVE","EAST DUBUQUE","IL","61025"
174853,"33 RYAN DRIVE","PALM COAST","FL","32164"
174854,"33 RYLAND DR","PALM COAST","FL","32164"
174855,"33 S 22ND ST","POTTSVILLE","PA","17901"
174856,"33 S DELAWARE AVE - STE 105","YARDLEY","PA","19067"
174857,"33 S MAIN ST","WATKINSVILLE","GA","30677"
174858,"33 S SYCAMORE ST SUITE 1","MESA","AZ","85202"
174859,"33 SADLER ST","WINDSOR LOCKS","CT","06096"
174860,"33 SAINT MARKS AVE","ROCKVILLE CENTRE","NY","11570"
174861,"33 SANDPIPER DRIVE","HACKETTSTOWN","NJ","07840"
174862,"33 SANTA BARBARA DR","HOUSTON","TX","77072"
174863,"33 SHARRER MILL ROAD","NEW OXFORD","PA","17350"
174864,"33 SHERMAN OAKS DRIVE","NEW HARTFORD","NY","13413"
174865,"33 SILVER CRESCENT","IRVINE","CA","92603"
174866,"33 SILVER LANDING","POTSDAM","NY","13676"
174867,"33 SILVER STREET SUITE 200","PORTLAND","ME","04101"
174868,"33 SLOANE DRIVE","FRAMINGHAM","MA","01701"
174869,"33 SMITH AVE","WESTFIELD","MA","01085"
174870,"33 SMITH AVENUE","WESTFIELD","MA","01085"
174871,"33 SNYDER AVENUE","DENVILLE","NJ","07834"
174872,"33 SOUTH 21ST","KENILWORTH","NJ","07033"
174873,"33 SOUTH 38TH STREET","CAMDEN","NJ","08105"
174874,"33 SOUTH 3RD STREET SUITE D","GRAND FORKS","ND","58203"
174875,"33 SOUTH BROADWAY","YONKERS","NY","10701"
174876,"33 STANWYCK COURT","ROBBINSVILLE","NJ","08691"
174877,"33 STATE ST STE 311","NEW ALBANY","IN","47150"
174878,"33 STONEY BROOK CT","FLETCHER","NC","28732"
174879,"33 STONY BROOK DRIVE","SOUTH PARIS","ME","04281"
174880,"33 SUMMIT ST","FRAMINGHAM","MA","01702"
174881,"33 SUSAN DRIVE","CUMBERLAND","RI","02864"
174882,"33 SUTTON ST","LYNN","MA","01901"
174883,"33 TACK FACTORY POND DRIVE","SCITUATE","MA","02066"
174884,"33 TENNYSON","HIGHLAND PARK","MI","48203"
174885,"33 TERMINAL WAY STE 325B","PITTSBURGH","PA","15219"
174886,"33 TICKNOR PLACE","LAGUNA HILLS","CA","92677"
174887,"33 TORRINGTON LANE","BLUFFTON","SC","29910"
174888,"33 TOWER HILL LANE","KINNELON","NJ","07405"
174889,"33 U ST NW","WASHINGTON","DC","20001"
174890,"33 UPLAND STREET","HOLBROOK","MA","02343"
174891,"33 VELA","SANTA FE","NM","87507"
174892,"33 VILLAGE ROAD","FLORHAM PARK","NJ","07936"
174893,"33 VOM EIGEN DRIVE","MORRISTOWN","NJ","07960"
174894,"33 W 155TH PLACE","SOUTH HOLLAND","IL","60473"
174895,"33 W DELAWARE PL","CHICAGO","IL","60610"
174896,"33 W ONTARIO ST APT 23I","CHICAGO","IL","60654"
174897,"33 WAKEFIELD ROAD","ATCO","NJ","08004"
174898,"33 WALPOLE STREET","NORWOOD","MA","02062"
174899,"33 WALT WHITMAN ROAD SUITE 300B","HUNTINGTON STATION","NY","11746"
174900,"33 WENTWORTH AVE EAST SUITE 350","WEST SAINT PAUL","MN","55118"
174901,"33 WENTWORTH AVENUE","WEST ST. PAUL","MN","55118"
174902,"33 WEST  MONROE STREET SUITE 1600","CHICAGO","IL","60603"
174903,"33 WEST END AVE 13K","NEW YORK","NY","10023"
174904,"33 WEST HAZEL DELL LANE","SPRINGFIELD","IL","62703"
174905,"33 WEST HUBBARD APT 901","CHICAGO","IL","60654"
174906,"33 WEST MAIN STREET","GRANVILLE","NY","12832"
174907,"33 WEST ROYAL OAKS DRIVE","BRISTOL","IL","60512"
174908,"33 WHISPERING WOODS DR","HOLLAND","MI","49424"
174909,"33 WHITE OAK CIR","ST CHARLES","IL","60174"
174910,"33 WHITEHALL STREET 16TH FLOOR","NEW YORK","NY","10004"
174911,"33 WHITTIER ROAD","MERRIMACK","NH","03054"
174912,"33 WHITTINGHAM CIRCLE","STERLING","VA","20165"
174913,"33 WILKINSON DRIVE","ESSEX JUNCTION","VT","05403"
174914,"33 WILLOW BEND COURT","PORTSMOUTH","VA","23703"
174915,"33 WILSHIRE AVENUE","DALY CITY","CA","94015"
174916,"33 WINDERMERE LANE","STAMFORD","CT","06902"
174917,"33 WINDSOR LANE","PALM BEACH GARDENS","FL","33418"
174918,"33 WOOD AVENUE S SUITE 600","ISELIN","NJ","08830"
174919,"33 WOOD AVENUE SOUTH SUITE 600","ISELIN","NJ","08830"
174920,"33 WOODS LANE","SOUTHAMPTON","NY","11968"
174921,"33 WOODSIDE AVE EXT","DANBURY","CT","06810"
174922,"33 WOODSIDE DRIVE","WOODBRIDGE","CT","06525"
174923,"33 WOODSTOCK ROAD","ROCHESTER","NY","14609"
174924,"33 WOODY DR","ROUNDUP","MT","59072"
174925,"33 WYLLYS ST","GLASTONBURY","CT","06033"
174926,"33 WYOMING STREET SUITE 5","DORCHESTER","MA","02121"
174927,"33 YACHT HARBOR CT","ISLE OF PALMS","SC","29451"
174928,"33-11 162ND STREET","FLUSHING","NY","11358"
174929,"33-11 BROADWAY SUITE 2","FAIR LAWN","NJ","07410"
174930,"33-14 145 PLACE","FLUSHING","NY","11354"
174931,"33-21 MURRAY LANE","FLUSHING","NY","11354"
174932,"33-41 WEST STREET","BOSTON","MA","02111"
174933,"33-45 90TH STREET APT 1D","JACKSON HEIGHTS","NY","11372"
174934,"33-47 61 STREET","WOODSIDE","NY","11377"
174935,"33-48 59 STREET","WOODSIDE","NY","11377"
174936,"33-48 97TH STREET SUITE 1","CORONA","NY","11368"
174937,"33-51 80TH STREET APARTMENT 32","QUEENS","NY","11372"
174938,"33-55 14 ST","ASTORIA","NY","11106"
174939,"33","WEST DES MOINES","IA","50265"
174940,"330  10TH STREET NORTH","SAUK RAPIDS","MN","56379"
174941,"330 15TH STREET","BOULDER","CO","80302"
174942,"330 17TH ST  APT 810","OAKLAND","CA","94612"
174943,"330 21ST AVE S STE 510C","MINNEAPOLIS","MN","55455"
174944,"330 3RD ST S UNIT 1817","SAINT PETERSBURG","FL","33701"
174945,"330 4TH ST","BAKERSFIELD","CA","93304"
174946,"330 9TH STREET","EASTON","PA","18042"
174947,"330 ADAMS ST","SEGUIN","TX","78155"
174948,"330 AIRLENE LANE","ROCKWALL","TX","75087"
174949,"330 ALLEN STREET","HUDSON","NY","12534"
174950,"330 ANGELO CIFELLI DR APT 268","HARRISON","NJ","07029"
174951,"330 ANGELO CIFELLI DR SUITE 275","HARRISON","NJ","07029"
174952,"330 ARROWHEAD BLVD SUITE 63D","JONESBORO","GA","30281"
174953,"330 ARROWHEAD BLVD","JONESBORO","GA","30236"
174954,"330 ASHLEY 470 W","HAMBURG","AR","71646"
174955,"330 AUBURN AV","ATLANTA","GA","30303"
174956,"330 AUBURN ST","CHERRY VALLEY","MA","01611"
174957,"330 AVE C SE","WINTER HAVEN","FL","33880"
174958,"330 BARCLAY AVE","MORRISVILLE","PA","19067"
174959,"330 BARNETTS BRIDGE ROAD","JACKSON","GA","30233"
174960,"330 BARTON AVE","PATCHOGUE","NY","11772"
174961,"330 BAYOU DR","THOMASVILLE","AL","36784"
174962,"330 BAYTREE DR","MELBOURNE","FL","32940"
174963,"330 BERGESON","BLACKFOOT","ID","83221"
174964,"330 BETHLEHEM DR","HILLSBOROUGH","NC","27278"
174965,"330 BOWDOIN STREET APT 411","BOSTON","MA","02122"
174966,"330 BREEZE MEADOW","FAIRBURN","GA","30213"
174967,"330 BROADWAY    PO BOX 343","FULLERTON","NE","68638"
174968,"330 BROTHERS RD","SCOTT","LA","70583"
174969,"330 BULLUNO DRIVE","RENO","NV","89521"
174970,"330 CAPE DRIVE SOUTHEAST","WASHINGTON","DC","20019"
174971,"330 CEDAR RIDGE RD","LONGVIEW","TX","75602"
174972,"330 CHANGEBRIDGE RD SUITE 101","MONTVILLE","NJ","07058"
174973,"330 CHANGEBRIDGE ROAD     SUITE101","PINEBROOK","NJ","07058"
174974,"330 CHESTNUT HILL ROAD","MILLVILLE","MA","01529"
174975,"330 CIGAR LOOP","HAVRE DE GRACE","MD","21078"
174976,"330 COCHITUATE ROAD - PO BOX 721","FRAMINGHAM","MA","01701"
174977,"330 COCHITUATE ROAD NO 5123","FRAMINGHAM","MA","01701"
174978,"330 COLLINS STREET","ORMOND BEACH","FL","32174"
174979,"330 COUNTY RD K","FOND DU LAC","WI","54937"
174980,"330 CREEKSIDE DRIVE","PALO ALTO","CA","94306"
174981,"330 CRESTONE AVE  1","SALIDA","CO","81201"
174982,"330 CROSS BAY BLVD","BROAD CHANNEL","NY","11693"
174983,"330 CROSS PARK DRIVE SUITE 4","PEARL","MS","39208"
174984,"330 DACIAN ROAD APT A","RALEIGH","NC","27610"
174985,"330 DAYTON ST SUITE 2","EDMONDS","WA","98020"
174986,"330 DOUBLE D LN","MANHATTAN","MT","59741"
174987,"330 DOUG FIR LN","MOLALLA","OR","97038"
174988,"330 DUMONT AVE","BROOKLYN","NY","11212"
174989,"330 DUNNSVIEW DRIVE","SALISBURY","NC","28146"
174990,"330 E 26TH STREET UNIT 12C","NEW YORK","NY","10010"
174991,"330 E CAMP WISDOM RD    APT4104","DALLAS","TX","75241"
174992,"330 E CAMP WISDOM ROAD APT 6103","DALLAS","TX","75241"
174993,"330 E COFFEE ST","GREENVILLE","SC","29601"
174994,"330 E CORTLAND ST","GROTON","NY","13073"
174995,"330 E COURT STREET","IOWA CITY","IA","52240"
174996,"330 E DOMINION BLVD","COLUMBUS","OH","43214"
174997,"330 E GRAYSON ST UNIT 100","SAN ANTONIO","TX","78215"
174998,"330 E JOHN ST","BEDFORD","PA","15522"
174999,"330 E KALEY STREET","ORLANDO","FL","32806"
175000,"330 E LAS COLINAS BLVD 1112","IRVING","TX","75039"
