"ID","Address","City","State","Zip"
163501,"3058 E FALL CREEK PARKWY N DR STE A","INDIANAPOLIS","IN","46205"
163502,"3058 GABLE STREET","DIBERVILLE","MS","39540"
163503,"3058 LIMEKILN PIKE","GLENSIDE","PA","19038"
163504,"3058 METHENY PLACE","DUMFRIES","VA","22026"
163505,"3058 MISTY CREEK DR","SWARTZ CREEK","MI","48473"
163506,"3058 NW 79TH STREET","MIAMI","FL","33147"
163507,"3058 RODERICK PLACE","LOS ANGELES","CA","90065"
163508,"3058 SMU BLVD","DALLAS","TX","75205"
163509,"30582 BENNETT ROAD","SALISBURY","MD","21804"
163510,"30584 OLDE HAWKEYE RD","DYERSVILLE","IA","52040"
163511,"3059 EMERALD WIND STREET","HENDERSON","NV","89052"
163512,"3059 GREENLODGE LANE","MEMPHIS","TN","38119"
163513,"3059 HARRIS AVENUE","MEMPHIS","TN","38114"
163514,"3059 HENDRICKS HILL DRIVE","EUGENE","OR","97403"
163515,"3059 JOPPA AVE S","ST LOUIS PARK","MN","55416"
163516,"3059 N OAKLAND FOREST DRIVE 104","OAKLAND PARK","FL","33309"
163517,"3059 N WEIL ST  UNIT 305","MILWAUKEE","WI","53212"
163518,"3059 SOUTH OGDEN STREET","ENGLEWOOD","CO","80113"
163519,"3059-18TH AVENUE SOUTH","SAINT PETERSBURG","FL","33712"
163520,"30595 IVY FORGE CT","WESLEY CHAPEL","FL","33543"
163521,"30596 PETTIT ROAD","HALLWOOD","VA","23359"
163522,"305B CROSS GREEN ST","GAITHERSBURG","MD","20878"
163523,"306  AND 1/2 E ANAPAMU ST","SANTA BARBARA","CA","93101"
163524,"306 - 1ST AVE","DEMOPOLIS","AL","36732"
163525,"306 16TH STREET SE","WASHINGTON","DC","20003"
163526,"306 2ND AVE N","MYRTLE BEACH","SC","29577"
163527,"306 3RD AVE","MELBOURNE","IA","50162"
163528,"306 3RD WAY","WEST PALM BEACH","FL","33407"
163529,"306 480TH ST","ARMSTRONG","IA","50514"
163530,"306 5TH AVENUE WEST","GOODING","ID","83330"
163531,"306 ALDRICH ROAD","PORTSMOUTH","NH","03801"
163532,"306 ALDWYN DRIVE","NEW CASTLE","DE","19720"
163533,"306 ARGUELLO BLVD NO 202","SAN FRANCISCO","CA","94118"
163534,"306 ATLANTIC STREET SE APT 3","WASHINGTON","DC","20032"
163535,"306 AUTUMN LAKE DR","MCDONOUGH","GA","30253"
163536,"306 AVE D","CLOQUET","MN","55720"
163537,"306 B WHARTON RD","MOUNT LAUREL","NJ","08054"
163538,"306 BEACH 47TH STREET","FAR ROCKAWAY","NY","11691"
163539,"306 BILL LOU DR","COLLINSVILLE","IL","62234"
163540,"306 BLACKFOOT TRL","VILLA RICA","GA","30180"
163541,"306 BOWEN STREET","REMINGTON","VA","22734"
163542,"306 BRADLEY STREET","CARROLLTON","GA","30117"
163543,"306 BRANSCOME DRIVE","GRENADA","MS","38901"
163544,"306 BRAZOS STREET","GARLAND","TX","75041"
163545,"306 BRUNSWICK DR","VIENNA","OH","44473"
163546,"306 CALLE PINUELAS","DELANO","CA","93215"
163547,"306 CAMBRIDGE WAY","CAMPBELLSVILLE","KY","42718"
163548,"306 CARDINAL DRIVE","FRANKLIN","KY","42134"
163549,"306 CHALEN KARETA","DEDEDO","GU","96929"
163550,"306 CHICAGO AVE UNIT S1","OAK PARK","IL","60302"
163551,"306 CHOCTAW STREET","WRIGHT CITY","OK","74766"
163552,"306 CLOVERDALE COVE","JONESBORO","AR","72401"
163553,"306 COLLEGE AVE N","WESSINGTON SPRINGS","SD","57382"
163554,"306 COLLEGE FARM ROAD","SHELBY","NC","28152"
163555,"306 COLLEGE STREET","FARMERSVILLE","TX","75442"
163556,"306 COLONIAL CIRCLE","JACKSON","MS","39211"
163557,"306 COMMECIAL DRIVE","SAVANNAH","GA","31406"
163558,"306 COMMERCIAL DRIVE","SAVANNAH","GA","31406"
163559,"306 COWBOY LANE","FRITCH","TX","79036"
163560,"306 CRICKLE CREEK LANE","DOVER","DE","19904"
163561,"306 DEMONCHERVEAUX BLVD","VILLE PLATTE","LA","70586"
163562,"306 DICKOP STREET","SOUTH BELOIT","IL","61080"
163563,"306 DONNA AVENUE","LANCASTER","PA","17603"
163564,"306 DUDEY STREET","PROVIDENCE","RI","02907"
163565,"306 E 1000 S","SALEM","UT","84653"
163566,"306 E 117TH STREET APT 7K","NEW YORK","NY","10035"
163567,"306 E 30TH STREET","BREMERTON","WA","98310"
163568,"306 E 83RD STREET APT 4B","NEW YORK","NY","10028"
163569,"306 E GRAND RIVER AVE","LANSING","MI","48906"
163570,"306 E GROVE","BLOOMINGTON","IL","61701"
163571,"306 E IOWA AVE","HAMMOND","LA","70403"
163572,"306 E JEFFERSON","FAIRFIELD","IA","52556"
163573,"306 E MCDERMOTT DR","ALLEN","TX","75002"
163574,"306 E MYRTLE","SAN ANTONIO","TX","78212"
163575,"306 E OAK AVE","TAMPA","FL","33602"
163576,"306 EAST CEDAR AVE","CONNELLSVILLE","PA","15425"
163577,"306 EAST CHATHAM ST","CARY","NC","27511"
163578,"306 EAST ELM STREET","CONSHOHOCKEN","PA","19428"
163579,"306 EAST MAIN STREET","RACINE","MN","55967"
163580,"306 EAST OMAHA AVENUE","NORFOLK","NE","68701"
163581,"306 EAST STATE STREET","ITHACA","NY","14850"
163582,"306 EAST STREET PO BOX 303","RUSSELL","PA","16345"
163583,"306 EAST WASHINGTON STREET 0303","MARFA","TX","79843"
163584,"306 EASTMINISTER COURT APT C","HENDERSON","NV","89015"
163585,"306 EVERGREEN RD","FALKKVILLE","AL","35622"
163586,"306 EXCHANGE BLVD STE 400 BOX 226","BETHLEHEM","GA","30620"
163587,"306 EXCHANGE BLVD SUITE 400 PMB 108","BETHLEHEM","GA","30620"
163588,"306 FAIRFOREST WAY","PICKENS","SC","29640"
163589,"306 FELTER AVE","HEWLETT","NY","11557"
163590,"306 FLORIDA AVENUE","LORAIN","OH","44052"
163591,"306 FOREST VALLEY DRIVE","FOREST HILL","MD","21050"
163592,"306 FORT DRIVE","LAGRANGE","GA","30240"
163593,"306 FRANKLIN ST","SARDIS","MS","38666"
163594,"306 FREMONT STREET","BOSCOBEL","WI","53805"
163595,"306 GETTYSBURG","COATESVILLE","IN","46121"
163596,"306 GOLD STREET APT 24E","BROOKLYN","NY","11201"
163597,"306 GOLD STREET STE 32A","BROOKLYN","NY","11201"
163598,"306 GRIFFIN AVENUE","CANON CITY","CO","81212"
163599,"306 HALO ST","DUNCANVILLE","TX","75137"
163600,"306 HARMON STREET","HENDERSON","TN","38340"
163601,"306 HATHCOCK CT","COLUMBIA","SC","29210"
163602,"306 HENRY LANE","WALLINGFORD","PA","19086"
163603,"306 HUGHES ST","MCCAUSLAND","IA","52758"
163604,"306 HURON AVENUE","CAMBRIDGE","MA","02138"
163605,"306 HWY 145 N","ABERDEEN","MS","39730"
163606,"306 INNER CAMPUS DR PO BOX 7609","AUSTIN","TX","78712"
163607,"306 JAMES AVE","LAKE WACCAMAW","NC","28450"
163608,"306 JANS WAY","MCKEES ROCKS","PA","15136"
163609,"306 JOHNSTON DRIVE","THOMASTON","GA","30286"
163610,"306 JULIANA LN","BLOOMINGDALE","IL","60108"
163611,"306 K STREET SE","WASHINGTON","DC","20003"
163612,"306 LAKE VIEW ROAD","LOUISBURG","NC","27549"
163613,"306 LANE ST","MENDON","MI","49072"
163614,"306 LATHROP AVE","BOONTON","NJ","07005"
163615,"306 LATHROP AVENUE","BOONTON","NJ","07005"
163616,"306 LEHAM RD","FORT BRAGG","NC","28307"
163617,"306 LEIGHANN RIDGE LN","ROLESVILLE","NC","27571"
163618,"306 LEXINGTON DR","WAUNAKEE","WI","53597"
163619,"306 LONG HILL RD","GOODE","VA","24556"
163620,"306 LONGVIEW AVENUE","LEWISBURG","WV","24901"
163621,"306 LUTHER ROAD","JOHNSTOWN","PA","15904"
163622,"306 MAIN ST SUITE 7","LA CRESCENT","MN","55947"
163623,"306 MAIN ST","DALLAS","SD","57529"
163624,"306 MAIN ST","EFFINGHAM","KS","66023"
163625,"306 MAIN STREET","SPEARMAN","TX","79081"
163626,"306 MCFARLAND DRIVE","NEWARK","DE","19702"
163627,"306 MEADOWRIDGE DR","WARNER ROBINS","GA","31093"
163628,"306 MEBANE STREET","RICHMOND","VA","23227"
163629,"306 MERRY OAKS RD","STREAMWOOD","IL","60107"
163630,"306 MILWAY ROAD","IRMO","SC","29063"
163631,"306 MORGANS LANDING DR","SANDY SPRINGS","GA","30350"
163632,"306 N 3700 E","RIGBY","ID","83442"
163633,"306 N ABBEY RD","URBANA","IL","61802"
163634,"306 N BUCHANAN","MONTICELLO","IL","61856"
163635,"306 N CHICAGO UNIT B","LUBBOCK","TX","79416"
163636,"306 N COLLEGE AVE","COLUMBIA","MO","65201"
163637,"306 N ERIE ST","WHEELING","WV","26003"
163638,"306 N GROVE STREET","LOCK HAVEN","PA","17745"
163639,"306 N HIGH ST","PORT MATILDA","PA","16870"
163640,"306 N JOHNSON STREET","MINEOLA","TX","75773"
163641,"306 N MADISON STREET","MINNEOTA","MN","56264"
163642,"306 N MAIN ST","CULPEPER","VA","22701"
163643,"306 N PARK AVENUE","FRESNO","CA","93701"
163644,"306 N WASHINGTON AVE","LUDINGTON","MI","49431"
163645,"306 NE 104TH AVENUE NUMBER 45","VANCOUVER","WA","98664"
163646,"306 NE COUNTRY LANE","LEES SUMMIT","MO","64086"
163647,"306 NE ROYCE LOOP","BENTONVILLE","AR","72712"
163648,"306 NORTH OAKHURST DRI","BEVERLY HILLS","CA","90210"
163649,"306 NORTH WARE DRIVE","WEST PALM BEACH","FL","33409"
163650,"306 OBRIEN DR","KATHLEEN","GA","31047"
163651,"306 OCOEE APOPKA RD STE 3","OCOEE","FL","34761"
163652,"306 OLD MAYHEW RD","STARKVILLE","MS","39759"
163653,"306 OLD MILL RD","VALLEY COTTAGE","NY","10989"
163654,"306 PARK AVENUE","FORT LUPTON","CO","80621"
163655,"306 PARKIN ST","BALTIMORE","MD","21230"
163656,"306 PAYNE PLACE","DUBLIN","GA","31021"
163657,"306 PIERCY STREET","BLOUNTVILLE","TN","37617"
163658,"306 PINELAND DRIVE","GOLDSBORO","NC","27534"
163659,"306 RIDGELAND ROAD","DOTHAN","AL","36301"
163660,"306 RIDGEVIEW LAKE ROAD","ALABASTER","AL","35007"
163661,"306 RIVER MOUNTAIN CT","CEDAR HILL","TX","75104"
163662,"306 RIVERDALE RD","SEVERNA PARK","MD","21146"
163663,"306 RIVERTON ROAD","MATTHEWS","NC","28104"
163664,"306 ROCKCREST ROAD","GEORGETOWN","TX","78628"
163665,"306 ROSALIE DR","DURANGO","CO","81301"
163666,"306 RUMSEY ROAD","YONKERS","NY","10705"
163667,"306 S AVENUE G","HASKELL","TX","79521"
163668,"306 S BRIDGE ST","VICTORIA","TX","77901"
163669,"306 S DUDLEY STREET","MEMPHIS","TN","38104"
163670,"306 S EAST STREET P O BOX 38","WALDRON","IN","46182"
163671,"306 S HAMMOND DRIVE","MONROE","GA","30655"
163672,"306 S IRONTON STREET UNIT E","AURORA","CO","80012"
163673,"306 S LAKE DR","STEVENSVILLE","MD","21666"
163674,"306 S LEHIGH AVE","SAYRE","PA","18840"
163675,"306 S PARK AVE","INVERNESS FL  34452","FL","34446"
163676,"306 S WALNUT ST","BAY CITY","MI","48706"
163677,"306 S WILLIS","DAINGERFIELD","TX","75638"
163678,"306 SABAL PALMS ROW","YOUNGSVILLE","LA","70592"
163679,"306 SANDY CREEK DR","DESOTO","TX","75115"
163680,"306 SANDY CREEK","DESOTO","TX","75115"
163681,"306 SE 8TH STREET","CAPE CORAL","FL","33990"
163682,"306 SEABREEZE CIRCLE","AVON","IN","46123"
163683,"306 SHAGBARK COURT","LADSON","SC","29456"
163684,"306 SHEA ST","GARLAND","TX","75040"
163685,"306 SITTON MILL ROAD","SENECA","SC","29678"
163686,"306 SMITH REED ROAD","LAFAYETTE","LA","70507"
163687,"306 SOUTH DUDLEY","MEMPHIS","TN","38104"
163688,"306 SOUTH GEORGE AVENUE","PETAL","MS","39465"
163689,"306 SOUTH GREENWOOD","LAGRANGE","GA","30240"
163690,"306 SOUTH HAMMOND DRIVE","MONROE","GA","30655"
163691,"306 SOUTH MARSHALL ST STE 1100","CALEDONIA","MN","55921"
163692,"306 SOUTH ST","SOMERSET","MA","02726"
163693,"306 SOUTH THIRD STREET","DUQUESNE","PA","15110"
163694,"306 SOUTH TIPTON ST","COVINGTON","TN","38019"
163695,"306 SPRING DR","PINE","CO","80470"
163696,"306 SPRING ST","ANN ARBOR","MI","48103"
163697,"306 STAFFORD ROAD","MANSFIELD CTR","CT","06250"
163698,"306 STATE STREET","NEWBURGH","IN","47630"
163699,"306 STELLER DR","BEAR","DE","19701"
163700,"306 STONEBROOK DRIVE","MCMURRAY","PA","15317"
163701,"306 STRATFORD PLACE","OAKLEY","CA","94561"
163702,"306 SUFFOLK ROAD","BALTIMORE","MD","21218"
163703,"306 TANGERINE TRAIL","CHESAPEAKE","VA","23325"
163704,"306 TARPON STREET","KISSIMMEE","FL","34744"
163705,"306 TAYLOR RD","SPRINGFIELD","PA","19064"
163706,"306 THUNDERBIRD DRIVE","EL PASO","TX","79912"
163707,"306 TOWNSEND","LANSING","MI","48933"
163708,"306 TREEMONT WAY","ROCKVILLE","MD","20850"
163709,"306 TROTTERS COURT","KNIGHTSTOWN","IN","46148"
163710,"306 VALLEY VIEW DR N","STROUDSBURG","PA","18360"
163711,"306 W 138TH ST APT 3","NEW YORK","NY","10030"
163712,"306 W 142 ST  APT 2B","NEW YORK","NY","10030"
163713,"306 W 32ND STREET","HOLLAND","MI","49423"
163714,"306 W 3RD ST","PIERPONT","SD","57468"
163715,"306 W 3RD STREET","LOS ANGELES","CA","90013"
163716,"306 W 47TH ST APT 4B","NEW YORK","NY","10036"
163717,"306 W AVENUE J13","LANCASTER","CA","93534"
163718,"306 W CAMEL ST APT D","GREENSBORO","NC","27401"
163719,"306 W CAMEL ST","GREENSBORO","NC","27401"
163720,"306 W CHURCH ST","CHAMPAIGN","IL","61820"
163721,"306 W JEFFERSON ST","HENRYETTA","OK","74437"
163722,"306 W POINTE DRIVE","SPARTANBURG","SC","29301"
163723,"306 W TROY","FERNDALE","MI","48220"
163724,"306 W WASHINGTON ST     PO BOX 533","KENNETT","MO","63857"
163725,"306 W148TH STREET STE1B","NEW YORK","NY","10039"
163726,"306 WASHINGTON STREET","DORCHESTER","MA","02121"
163727,"306 WASHINGTON STREET","MT HOLLY","NJ","08060"
163728,"306 WATERS EDGE DR","NEWARK","DE","19702"
163729,"306 WEDDLE STREET","FLEMINGSBURG","KY","41041"
163730,"306 WEST 7TH STREET STE 500","FORT WORTH","TX","76102"
163731,"306 WEST CEDAR STREET","ANAMOSA","IA","52205"
163732,"306 WEST CROSS STREET","YPSILANTI","MI","48197"
163733,"306 WEST GEORGE STREET","CARMICHAELS","PA","15320"
163734,"306 WEST GREEN STREET","CHAMPAIGN","IL","61820"
163735,"306 WEST MAIN ST","VILLE PLATTE","LA","70586"
163736,"306 WEST POWNAL RD","NORTH YARMOUTH","ME","04097"
163737,"306 WEST SAYLOR STREET","MOUNT CARMEL","PA","17851"
163738,"306 WEST STEPHEN STREET","MARTINSBURG","WV","25401"
163739,"306 WESTMINSTER COURT","OSWEGO","IL","60543"
163740,"306 WHITE STREET","MORGANTON","NC","28655"
163741,"306 WILLIAM ST","TOWANDA","PA","18848"
163742,"306 WILLOW BAY  DRIVE","BYRAM","MS","39272"
163743,"306 WINDMERE ST","HENDERSON","NV","89074"
163744,"306 WINDY RIDGE ROAD","MIDDLEBURGH","NY","12122"
163745,"306 WOOD AVENUE E","BIG STONE GAP","VA","24219"
163746,"306 WOODCLIFF DR","JACKSON","MS","39212"
163747,"306","ASHEVILLE","NC","28802"
163748,"306","AUGUSTA","KS","67010"
163749,"306","WOODBRIDGE","VA","22194"
163750,"3060 310TH STREET","ORIENT","IA","50858"
163751,"3060 AMSTERDAM DRIVE","RIVERSIDE","CA","92504"
163752,"3060 AVIANO CT","CHINO HILLS","CA","91709"
163753,"3060 B STEMMONS FRWY","DALLAS","TX","75247"
163754,"3060 BRIGHTON 12 STREET SUITE 4D","BROOKLYN","NY","11235"
163755,"3060 CHAVEZ RD","SAN DIEGO","CA","92154"
163756,"3060 E 5TH AVE","COLUMBUS","OH","43219"
163757,"3060 EIWA ST STE 210","LIHUE","HI","96766"
163758,"3060 EIWA ST SUITE 210","LIHUE","HI","96766"
163759,"3060 EL CERRITO PLAZA 509","EL CERRITO","CA","94530"
163760,"3060 EL CERRITO PLAZA BOX 362","EL CERRITO","CA","94530"
163761,"3060 ELCERRITO","RICHMOND","CA","94530"
163762,"3060 FAIRFIELD ROAD","GETTYSBURG","PA","17325"
163763,"3060 JOHNSTOWN UTICA RD","JOHNSTOWN","OH","43031"
163764,"3060 LANDING WAY","ORANGEBURG","SC","29118"
163765,"3060 MADISON SE","GRAND RAPIDS","MI","49548"
163766,"3060 MITCHELLVILLE ROAD SUITE 216","BOWIE","MD","20716"
163767,"3060 MITCHELLVILLE ROAD SUITE 216","BOWIE","MD","20720"
163768,"3060 N LAZY EIGHT CRT STE 7","WASILLA","AK","99645"
163769,"3060 N RIDGECREST UNIT 165","MESA","AZ","85207"
163770,"3060 N SWAN ROAD","TUCSON","AZ","85712"
163771,"3060 N SWAN","TUCSON","AZ","85712"
163772,"3060 OLDE TOWNE PARKWAY","DULUTH","GA","30097"
163773,"3060 PALO PKWY","BOULDER","CO","80301"
163774,"3060 PANTHER RIDGE LN","LEWISVILLE","NC","27023"
163775,"3060 PHARR COURT N SUITE 516","ATLANTA","GA","30305"
163776,"3060 PHARR CT","ATLANTA","GA","30318"
163777,"3060 RAVEN TRACE","FAIRBURN","GA","30213"
163778,"3060 REDFORD PLACE","SAN DIEGO","CA","92139"
163779,"3060 REDWOOD STREET","ANCHORAGE","AK","99508"
163780,"3060 ROUTE 97 STE 197","GLENWOOD","MD","21738"
163781,"3060 S CHURCH ST","BURLINGTON","NC","27215"
163782,"3060 SOUTHWORTH ROAD","DELPHOS","OH","45833"
163783,"3060 SUNSET AVE C202","MARINA","CA","93933"
163784,"3060 SW 85 AVE","MIAMI","FL","33155"
163785,"3060 TULLY PL","OAKLAND","CA","94605"
163786,"3060 WEIRTON DRIVE","COLUMBUS","OH","43207"
163787,"3060 WEST TEMPLE AVENUE","POMONA","CA","91766"
163788,"3060 WILSON BEND RD","GRAVOIS MILLS","MO","65037"
163789,"3060 WRENWOOD COURT","LOGANVILLE","GA","30052"
163790,"3060 WYE OAK DR","BELLEVILLE","IL","62221"
163791,"30600 MARGARITA RD","TEMECULA","CA","92591"
163792,"30600 OLD STREAM ST","SOUTHFIELD","MI","48076"
163793,"30600 TELEGRAPH RD  SUITE 1225","BINGHAM FARMS","MI","48025"
163794,"30600 TELEGRAPH RD SUITE 3240","BINGHAM FARMS","MI","48025"
163795,"30600 TELEGRAPH ROAD SUITE 2345","BINGHAM FARMS","MI","48025"
163796,"30600 TELEGRAPH ROAD SUITE 3250","BINGHAM FARMS","MI","48025"
163797,"30602 POSSUM TRAIL","MAGNOLIA","TX","77354"
163798,"30609 E RED ARROW HWY","PAW PAW","MI","49079"
163799,"30609 SE 352ND ST","ENUMCLAW","WA","98022"
163800,"3061 24TH AVE S","FARGO","ND","58103"
163801,"3061 ALLISON BONNETT MEMORIAL DRIVE","HUEYTOWN","AL","35023"
163802,"3061 CAROB STREET","NEWPORT BEACH","CA","92660"
163803,"3061 COLOMA ROAD","BENTON HARBOR","MI","49022"
163804,"3061 COUNTY ROAD 103","CARBONDALE","CO","81623"
163805,"3061 E 100 S","LA PORTE","IN","46350"
163806,"3061 GILLISON BRANCH RD","PINELAND","SC","29934"
163807,"3061 GUION ROAD","INDIANAPOLIS","IN","46222"
163808,"3061 LANSDOWNE DR","MONTGOMERY","AL","36111"
163809,"3061 LONDON HOLLOW RD NE","NEWARK","OH","43055"
163810,"3061 LUNAR ST","NAPLES","FL","34112"
163811,"3061 MILE VIEW RD","WEST BEND","WI","53095"
163812,"3061 NW 207 TERRACE","MIAMI GARDENS","FL","33056"
163813,"3061 NW 51ST STREET","MIAMI","FL","33142"
163814,"3061 NW 95 STREET","MIAMI","FL","33147"
163815,"3061 RED FOX RUN","WARREN","WA","44485"
163816,"3061 S TAGISH WAY","MERIDIAN","ID","83642"
163817,"3061 SCARBOROUGH RD","CLEVELAND HTS","OH","44118"
163818,"3061 TWIN OAKS RD","WRENS","GA","30833"
163819,"30610 MAPLE STREET","LINDSTROM","MN","55045"
163820,"30612 VIA RIVERA","RANCHO PALOS VERDES","CA","90275"
163821,"30615 STACKPOLE ROAD","OCEAN PARK","WA","98640"
163822,"30619 NORTH JOHN DRIVE","DENHAM SPRINGS","LA","70726"
163823,"3062 APPLE VALLEY LANE","BIRMINGHAM","AL","35215"
163824,"3062 ARCADIA AVE","OMAHA","NE","68111"
163825,"3062 ASPEN LANE","PALMDALE","CA","93550"
163826,"3062 CHERRY PLUM WAY","CASTLE ROCK","CO","80104"
163827,"3062 COUNTY ROAD C","MONTELLO","WI","53949"
163828,"3062 DAMASCUS RD SUITE 6","AUGUSTA","GA","30909"
163829,"3062 N ROAD M","ULYSSES","KS","67880"
163830,"3062 SIR CHRISTOPHER LANE","FLORISSANT","MO","63033"
163831,"3062 SPRING HILL PKWY SE APT H","SMYRNA","GA","30080"
163832,"3062 WAUNETA STREET","NEWBURY PARK","CA","91320"
163833,"3062 WESTON GREEN LOOP","CARY","NC","27513"
163834,"30623 W 12 MILE RD","FARMINGTON HILLS","MI","48334"
163835,"30624 SUNDERLAND DR","FARMINGTON HILLS","MI","48331"
163836,"30625","TAMPA","FL","33620"
163837,"30628 DETROIT RD UNIT 158","WESTLAKE","OH","44145"
163838,"30628 DETROIT ROAD BOX 243","WESTLAKE","OH","44145"
163839,"3063 BELL GROVE DRIVE","TALLAHASSEE","FL","32308"
163840,"3063 HUNGRY HILL RD","KETTLE FALLS","WA","99141"
163841,"3063 N 22ND ST","KANSAS CITY","KS","66104"
163842,"3063 OAK MEADOW LN","MOBILE","AL","36619"
163843,"3063 S 160TH LN","GOODYEAR","AZ","85338"
163844,"30635 CHICAGO TRAIL","NEW CARLISLE","IN","46552"
163845,"30636 SW PEACH COVE RD","WEST LINN","OR","97068"
163846,"30638 BROAD STREET","BRUCETON","TN","38317"
163847,"30639 38TH AVE","PAW PAW","MI","49079"
163848,"3064 BENTLEY DR","UPATOI","GA","31829"
163849,"3064 BROOK LN","REX","GA","30273"
163850,"3064 CHAMPION STREET - NUMBER 5","OAKLAND","CA","94602"
163851,"3064 CURTIS DRIVE","FLINT","MI","48507"
163852,"3064 E GASCONADE ST","SPRINGFIELD","MO","65804"
163853,"3064 FOXHILL CIRCLE APT 109","APOPKA","FL","32703"
163854,"3064 KINGS GLEN TRL","DECATUR","GA","30034"
163855,"3064 KITZMILLER RD","HANOVER","PA","17331"
163856,"3064 OLD NORCROSS ROAD SUITE 200","DULUTH","GA","30096"
163857,"3064 ONTARIO ST","COLUMBUS","OH","43224"
163858,"3064 RIVERVIEW RD","RIVA","MD","21140"
163859,"3064 SPRINGDALE DR UNIT 362","LONG BEACH","CA","90810"
163860,"3064 SPRUCE VALLEY LN APT 1104","DALLAS","TX","75233"
163861,"3064 WINDING RIVER DRIVE","ST. CHARLES","MO","63303"
163862,"3064 YANKEE ST","NILES","MI","49120"
163863,"30640 ROADRUNNER RIDGE","VALLEY CENTER","CA","92082"
163864,"30643 WALKER CUP PL","WESLEY CHAPEL","FL","33543"
163865,"30649 BUTTE CREEK RD","LEBANON","OR","97355"
163866,"3065 19TH ST","BEAUMONT","TX","77706"
163867,"3065 CENTRAL AVE","SAN DIEGO","CA","92105"
163868,"3065 COLLEGE DR","BLAIR","NE","68008"
163869,"3065 CRAIG CT","CASTLE ROCK","CO","80109"
163870,"3065 DANIELS RD 1021","WINTER GARDEN","FL","34787"
163871,"3065 FALCON BRIDGE DR","COLUMBUS","OH","43232"
163872,"3065 GRAND MARNIER DRIVE","SAINT LOUIS","MO","63129"
163873,"3065 GREAT NECK RD","COPIAGUE","NY","11726"
163874,"3065 MONTROSE WAY","EL DORADO HILLS","CA","95762"
163875,"3065 N 67TH AVE APT 119","PHOENIX","AZ","85033"
163876,"3065 N RANCHO DR STE 130","LAS VEGAS","NV","89130"
163877,"3065 NW 19 STREET","FORT LAUDERDALE","FL","33311"
163878,"3065 OLD FORGE ROAD","KENT","OH","44240"
163879,"3065 RIVERMONT PARKWAY","JOHNS CREEK","GA","30022"
163880,"3065 ROCHELLE COURT","SNELLVILLE","GA","30039"
163881,"3065 ROSECRANS PL STE 104","SAN DIEGO","CA","92110"
163882,"3065 S ELMIRA AVE","RUSSELLVILLE","AR","72802"
163883,"3065 SANTA MARGARITA ROAD","WEST PALM BEACH","FL","33411"
163884,"3065 SMOKEY ROAD","ATHENS","GA","30601"
163885,"3065 SOUTH ELMIRA AVE","RUSSELLVILLE","AR","72802"
163886,"3065 W CORNMAN RD","ELOY","AZ","85131"
163887,"3066 AKALA DRIVE","KIHEI","HI","96753"
163888,"3066 E MOON DIPPER ST","MERIDIAN","ID","83642"
163889,"3066 FREEPORT BLVD","SACRAMENTO","CA","95818"
163890,"3066 HAZELWOOD DR","ATLANTA","GA","30311"
163891,"3066 HORTALEZA PLACE","DAVIS","CA","95618"
163892,"3066 OLIVEWOOD PL","SAN JOSE","CA","95148"
163893,"3066 PORTER STREET NW","WASHINGTON","DC","20008"
163894,"3066 SO GRANBY ST","AURORA","CO","80014"
163895,"3066 STARLING COURT","CASTLE ROCK","CO","80109"
163896,"3066 W PEMBROOK LOOP","FRESNO","CA","93711"
163897,"30660 BROAD STREET","PRINCESS ANNE","MD","21853"
163898,"30660 MILKY WAY DR Q130","TEMECULA","CA","92592"
163899,"30665 NORTHWESTERN HWY STE 200","FARMINGTON HILLS","MI","48334"
163900,"30665 STELLAMAR ST","BEVERLY HILLS","MI","48025"
163901,"3067 E WARM SPRINGS ROAD  STE100","LAS VEGAS","NV","89120"
163902,"3067 GARNER RD","EDINBURG","PA","16116"
163903,"3067 MAIN AVE","DURANGO","CO","81301"
163904,"3067 MULLINEAUX LANE","ELLICOTT CITY","MD","21042"
163905,"3067 MULLINEAUX LN","ELLICOTT CITY","MD","21042"
163906,"3067 PLUM HILL SCHOOL RD","BELLEVILLE","IL","62221"
163907,"30670 DIAZ RD","VALLEY CENTER","CA","92082"
163908,"30671 455TH LN","GRIGGSVILLE","IL","62340"
163909,"30671 HWY 14","FAIRFIELD","NE","68938"
163910,"30677 OLD US 20","ELKHART","IN","46514"
163911,"3068 BATH ROAD","PENN YAN","NY","14527"
163912,"3068 COVINGTON PIKE STE 5","MEMPHIS","TN","38128"
163913,"3068 FERNWOOD AVENUE","EGG HARBOR TOWNSHIP","NJ","08234"
163914,"3068 FOXHILL CIRCLE","APOPKA","FL","32703"
163915,"3068 JACOB FIXEL COURT","JACKSONVILLE","FL","32257"
163916,"3068 PARK AVE","MEMPHIS","TN","38111"
163917,"3068 RIDGEWOOD LANE","HAZLEHURST","MS","39083"
163918,"3068 WINTER LAKE RD","LAKELAND","FL","33803"
163919,"30680 NELSON CIRCLE","WESTLAND","MI","48186"
163920,"30685 NYSTROM LANE","LINDSTROM","MN","55045"
163921,"30686 E THOUSAND OAKS BLVD STUDIO A","AGOURA HILLS","CA","91301"
163922,"3069 BALSAM COURT","EDGEWOOD","KY","41017"
163923,"3069 BOSTICK AVE","MARINA","CA","93933"
163924,"3069 CHAPEL RD","ANDERSON","IN","46012"
163925,"3069 COLETTE CT","SIMI VALLEY","CA","93063"
163926,"3069 GO CART ROAD","MARBURY","AL","36051"
163927,"3069 HUDSON DR","BRENTWOOD","CA","94513"
163928,"3069 HWY 51 MM","MCCOMB","MS","39648"
163929,"3069 SW 21ST STREET","MIAMI","FL","33145"
163930,"30696 ACORN LAKE RD","FRAZEE","MN","56544"
163931,"30696 JUNIPER ROAD","OSSIAN","IA","52161"
163932,"30698 BRENDA WAY","CATHEDRAL CITY","CA","92234"
163933,"306A ALBANY AVENUE SUITE 2","BROOKLYN","NY","11213"
163934,"306B FRANKLIN STREET","FRAMINGHAM","MA","01702"
163935,"306N W EL NORTE PKWY UNIT 29","ESCONDIDO","CA","92026"
163936,"307 11TH STREET SE","WASHINGTON","DC","20003"
163937,"307 17TH ST","HEYBURN","ID","83336"
163938,"307 32ND STREET","NEWPORT BEACH","CA","92663"
163939,"307 4TH STREET NE","ROSEAU","MN","56751"
163940,"307 7TH AVENUE  SUITE 910","NEW YORK","NY","10001"
163941,"307 AIRPORT WAY","RENTON","WA","98057"
163942,"307 AMHERST DR SE","ALBUQUERQUE","NM","87106"
163943,"307 ARGENT AVENUE","SAINT LOUIS","MO","63135"
163944,"307 BARGER DR","PT CHARLOTTE","FL","33954"
163945,"307 BAYONET PLACE","ODENTON","MD","21113"
163946,"307 BEDFORD RD","MORRIS","IL","60450"
163947,"307 BELLAVILLA WAY","MADISON","AL","35756"
163948,"307 BLANCHARD HOLLOW","WHITEFISH","MT","59937"
163949,"307 BLUEBIRD LANE","DICKSON","TN","37055"
163950,"307 BRADY AVENUE","OTTOSEN","IA","50570"
163951,"307 BRIARBRIDGE VALLEY ROAD","CHAPEL HILL","NC","27516"
163952,"307 BROAD ST SUITE 100","SUMMERSVILLE","WV","26651"
163953,"307 BROAD STREET","SUMMERSVILLE","WV","26651"
163954,"307 BROADWAY AVE","LEHUGH ACRES","FL","33936"
163955,"307 BROADWAY SUITE D","AURORA","IN","47001"
163956,"307 BROOKHAVEN WAY NE","BROOKHAVEN","GA","30319"
163957,"307 BROWNTOWN ROAD","CHATTANOOGA","TN","37415"
163958,"307 CACTUS DR","LEVELLAND","TX","79336"
163959,"307 CALVIN STREET","HARRINGTON","DE","19952"
163960,"307 CANAL PARK","EASTON","PA","18042"
163961,"307 CASHWELL DRIVE","GOLDSBORO","NC","27534"
163962,"307 CEDAR POINT BLVD","CEDAR POINT","NC","28584"
163963,"307 CHARLOTTE AVENUE","CAROLINA BEACH","NC","28428"
163964,"307 CHURCH ST EXT P O BOX 358","COMO","MS","38619"
163965,"307 COLUMBIA ROAD","ABBEVILLE","AL","36310"
163966,"307 COMANCHE TRAIL","TULIA","TX","79088"
163967,"307 CONGRESS STREET","DUXBURY","MA","02332"
163968,"307 CORNELL STREET","MIDDLETON","ID","83644"
163969,"307 CORONET ST","DENHAM SPRINGS","LA","70726"
163970,"307 COTTONWOOD LANE","PFLUGERVILLE","TX","78660"
163971,"307 COUNTY ROAD 179","HALLETTSVILLE","TX","77964"
163972,"307 COVENTRY CIR","FOLSOM","CA","95630"
163973,"307 CROMWELL RD","FESTUS","MO","63028"
163974,"307 CURTIS CORNER ROAD","WAKEFIELD","RI","02879"
163975,"307 DATES AVE NW","FORT WALTON BEACH","FL","32548"
163976,"307 DATES AVE","FORT WALTON BEACH","FL","32547"
163977,"307 DIEHL DRIVE","GREENDALE","IN","47025"
163978,"307 DIVISION AVE","BROOKLYN","NY","11211"
163979,"307 DORRIS CT","HENDERSONVILLE","TN","37075"
163980,"307 DUNHAM PLACE","GLEN ROCK","NJ","07452"
163981,"307 DUPREE RD","WEST DECATUR","PA","16878"
163982,"307 E 2ND STREET","MINNEOTA","MN","56264"
163983,"307 E 2ND STREET","TRINIDAD","CO","81082"
163984,"307 E 53RD ST","NEW YORK","NY","10022"
163985,"307 E CHERRY COVE LN","ROUND LAKE BEACH","IL","60073"
163986,"307 E ELM ST","GLASCO","KS","67445"
163987,"307 E FOOTHILL BLVD","ARCADIA","CA","91006"
163988,"307 E FRANKLIN AVE","BARRON","WI","54812"
163989,"307 E LOCUST ST","DULUTH","MN","55811"
163990,"307 E MCARTHUR ST","APPLETON","WI","54911"
163991,"307 E MEIGS STREET","VALLEY","NE","68064"
163992,"307 E ROYAL PALM ROAD","PHOENIX","AZ","85020"
163993,"307 E SCOTT STREET","SENECA","IL","61360"
163994,"307 E VEGA LN","KILLEEN","TX","76542"
163995,"307 EAST 89TH STREET UNIT E","NEW YORK","NY","10128"
163996,"307 EAST C STREET","COLTON","CA","92324"
163997,"307 EAST DUNCAN AVENUE APT F","ALEXANDRIA","VA","22301"
163998,"307 EAST GRACELAND HEIGHTS","HAGERSTOWN","IN","47346"
163999,"307 EAST MONROE","MOUNT PLEASANT","IA","52641"
164000,"307 EAST PIONEER PARKWAY","GRAND PRAIRIE","TX","75051"
