"ID","Address","City","State","Zip"
350001,"PO BOX 463","GLEN ALPINE","NC","28625"
350002,"PO BOX 463","GREENE","NY","13778"
350003,"PO BOX 463","HANSEN","ID","83334"
350004,"PO BOX 463","HOLTVILLE","CA","92250"
350005,"PO BOX 463","LANSING","IL","60438"
350006,"PO BOX 463","LODI","CA","95241"
350007,"PO BOX 463","MILLEDGEVILLE","GA","31059"
350008,"PO BOX 463","OAK HARBOR","OH","43449"
350009,"PO BOX 463","ROBINSON","IL","62454"
350010,"PO BOX 463","STANDISH","ME","04084"
350011,"PO BOX 463","TUPELO","MS","38802"
350012,"PO BOX 463","UNION CITY","GA","30291"
350013,"PO BOX 463","WAKEFIELD","NE","68784"
350014,"PO BOX 4631","SAINT PAUL","MN","55104"
350015,"PO BOX 4632","ANN ARBOR","MI","48106"
350016,"PO BOX 4632","DUBLIN","GA","31040"
350017,"PO BOX 4634","SPRINGFIELD","MA","01101"
350018,"PO BOX 4635","LOGAN","UT","84323"
350019,"PO BOX 4635","PORTLAND","ME","04112"
350020,"PO BOX 46366","MADISON","WI","53744"
350021,"PO BOX 46373","CHICAGO","IL","60646"
350022,"PO BOX 4639","LAFAYETTE","IN","47903"
350023,"PO BOX 46391","LAS VEGAS","NV","89114"
350024,"PO BOX 464","APPLE VALLEY","CA","92307"
350025,"PO BOX 464","BELLAIRE","MI","49615"
350026,"PO BOX 464","BOLIVAR","NY","14715"
350027,"PO BOX 464","CABOT","AR","72023"
350028,"PO BOX 464","CALLICOON","NY","12723"
350029,"PO BOX 464","HENRYVILLE","IN","47126"
350030,"PO BOX 464","HEYBURN","ID","83336"
350031,"PO BOX 464","HOUGHTON LAKE","MI","48629"
350032,"PO BOX 464","HUFFMAN","TX","77336"
350033,"PO BOX 464","JOSHUA TREE","CA","92252"
350034,"PO BOX 464","KYLE","TX","78640"
350035,"PO BOX 464","LIMA","OH","45802"
350036,"PO BOX 464","MATAGORDA","TX","77457"
350037,"PO BOX 464","MILLVILLE","NJ","08332"
350038,"PO BOX 464","OLD ORCHARD BEACH","ME","04064"
350039,"PO BOX 464","ORLAND","ME","04472"
350040,"PO BOX 464","PAW CREEK","NC","28130"
350041,"PO BOX 464","POTSDAM","NM","13676"
350042,"PO BOX 464","REHOBOTH","MA","02769"
350043,"PO BOX 464","RIDLEY PARK","PA","19078"
350044,"PO BOX 464","SNOOK","TX","77878"
350045,"PO BOX 464","SPENCER","WV","25276"
350046,"PO BOX 464","WILDWOOD","NJ","08260"
350047,"PO BOX 464","WOODLAND PARK","CO","80866"
350048,"PO BOX 46402","PLYMOUTH","MN","55446"
350049,"PO BOX 4642","HONOLULU","HI","96812"
350050,"PO BOX 4642","PARKER","CO","80138"
350051,"PO BOX 46431","PLYMOUTH","MN","55446"
350052,"PO BOX 4644","MOORESVILLE","NC","28117"
350053,"PO BOX 46449","CLEVELAND","OH","44146"
350054,"PO BOX 4645","COLUMBIA","SC","29240"
350055,"PO BOX 464548","LAWRENCEVILLE","GA","30042"
350056,"PO BOX 464654","AURORA","CO","80046"
350057,"PO BOX 46476","BEDFORD","OH","44146"
350058,"PO BOX 46486","LOS ANGELES","CA","90046"
350059,"PO BOX 464875","LAWRENCEVILLE","GA","30042"
350060,"PO BOX 464998","LAWRENCEVILLE","GA","30042"
350061,"PO BOX 465","ALTURAS","CA","96101"
350062,"PO BOX 465","CRANFORD","NJ","07016"
350063,"PO BOX 465","DAYTON","PA","16222"
350064,"PO BOX 465","FAIRFIELD","PA","17320"
350065,"PO BOX 465","FAYETTE","AL","35555"
350066,"PO BOX 465","FOXBORO","MA","02035"
350067,"PO BOX 465","HARTSVILLE","SC","29551"
350068,"PO BOX 465","KENEDY","TX","78119"
350069,"PO BOX 465","LA PLATA","NM","87418"
350070,"PO BOX 465","MANCOS","CO","81328"
350071,"PO BOX 465","OLALLA","WA","98359"
350072,"PO BOX 465","PORT WASHINGTON","NY","11050"
350073,"PO BOX 465","RIDGELAND","SC","29936"
350074,"PO BOX 465","ROYCE CITY","TX","75189"
350075,"PO BOX 465","SMITHVILLE","TX","78957"
350076,"PO BOX 465","STERLING","IL","61081"
350077,"PO BOX 465","YANTIS","TX","75497"
350078,"PO BOX 4650","GRAND JUNCTION","CO","81502"
350079,"PO BOX 4651","EL DORADO HILLS","CA","95762"
350080,"PO BOX 4651","UPPER MARLBORO","MD","20775"
350081,"PO BOX 46511","MADISON","WI","53744"
350082,"PO BOX 4652","PAGOSA SPRINGS","CO","81157"
350083,"PO BOX 4652","WICHITA FALLS","TX","76308"
350084,"PO BOX 4653","WEST RICHLAND","WA","99353"
350085,"PO BOX 46531","MADISON","WI","53744"
350086,"PO BOX 4654","VALDOSTA","GA","31604"
350087,"PO BOX 4657","FAIRVIEW HEIGHTS","IL","62208"
350088,"PO BOX 46591","SEATTLE","WA","98146"
350089,"PO BOX 466","AVALON","CA","90704"
350090,"PO BOX 466","BLAKESLEE","PA","18610"
350091,"PO BOX 466","DURANGO","CO","81302"
350092,"PO BOX 466","KENNEBUNK","ME","04043"
350093,"PO BOX 466","PAINTED POST","NY","14870"
350094,"PO BOX 466","STATESBORO","GA","30459"
350095,"PO BOX 466","SUN PRAIRIE","WI","53590"
350096,"PO BOX 466","VENUS","FL","33960"
350097,"PO BOX 466","WAKE FOREST","NC","27588"
350098,"PO BOX 466","WEWAHITCHKA","FL","32465"
350099,"PO BOX 46606","SEATTLE","WA","98146"
350100,"PO BOX 466251","LAWRENCEVILLE","GA","30042"
350101,"PO BOX 4663","OMAHA","NE","68104"
350102,"PO BOX 4666","LAWRENCE","KS","66046"
350103,"PO BOX 4666","ROSWELL","NM","88202"
350104,"PO BOX 46685","TAMPA","FL","33646"
350105,"PO BOX 467","ABINGTON","MA","02351"
350106,"PO BOX 467","BLOUNTSTOWN","FL","32424"
350107,"PO BOX 467","CABOOL","MO","65689"
350108,"PO BOX 467","COLUMBIA","IL","62236"
350109,"PO BOX 467","EAST BOOTHBAY","ME","04544"
350110,"PO BOX 467","MANCHESTER","IA","52057"
350111,"PO BOX 467","ORGAN","NM","88052"
350112,"PO BOX 467","PELLSTON","MI","49769"
350113,"PO BOX 46703","MOUNT CLEMENS","MI","48046"
350114,"PO BOX 46711","SEATTLE","WA","98146"
350115,"PO BOX 4672","PRAIRIE VIEW","TX","77446"
350116,"PO BOX 4673","WEST RICHLAND","WA","99353"
350117,"PO BOX 46733","CINCINNATI","OH","45240"
350118,"PO BOX 46734","BEDFORD","OH","44146"
350119,"PO BOX 467392","ATLANTA","GA","31146"
350120,"PO BOX 4676","ALPHARETTA","GA","30023"
350121,"PO BOX 4676","MIDDLETOWN","RI","02842"
350122,"PO BOX 46764","CINCINNATI","OH","45246"
350123,"PO BOX 467801","ATLANTA","GA","31146"
350124,"PO BOX 468 140 JUNIPER LANE","SPRINGDALE","UT","84767"
350125,"PO BOX 468","DETROIT","OR","97342"
350126,"PO BOX 468","HARRISON","OH","45030"
350127,"PO BOX 468","LONG BEACH","MS","39560"
350128,"PO BOX 468","MELISSA","TX","75454"
350129,"PO BOX 468","NELLYSFORD","VA","22958"
350130,"PO BOX 468","TAYLOR","TX","76574"
350131,"PO BOX 4683","MCALLEN","TX","78502"
350132,"PO BOX 4683","SPOKANE","WA","99220"
350133,"PO BOX 4684","KAILUA KONA","HI","96745"
350134,"PO BOX 4684","PINEHURST","NC","28374"
350135,"PO BOX 4684","WILMINGTON","NC","28406"
350136,"PO BOX 4687","CHARLESTON","WV","25364"
350137,"PO BOX 4687","DALLAS","TX","75208"
350138,"PO BOX 4687","ROSWELL","NM","88202"
350139,"PO BOX 4688","ATLANTA","GA","30300"
350140,"PO BOX 469","HUTTIG","AR","71747"
350141,"PO BOX 469","STOKESDALE","NC","27357"
350142,"PO BOX 469","TEMPLE HILLS","MD","20757"
350143,"PO BOX 469","TRINIDAD","CO","81082"
350144,"PO BOX 4691","CHRISTIANSTED","VI","00820"
350145,"PO BOX 4691","LANCASTER","CA","93539"
350146,"PO BOX 4691","VALDOSTA","GA","31604"
350147,"PO BOX 4695","SPRINGFIELD","MO","65808"
350148,"PO BOX 47-1973","MIAMI","FL","33247"
350149,"PO BOX 47","ACTON","ME","04001"
350150,"PO BOX 47","BICKNELL","IN","47512"
350151,"PO BOX 47","BRIGHTWATERS","NY","11718"
350152,"PO BOX 47","ENDEAVOR","WI","53930"
350153,"PO BOX 47","FAIRFAX","IA","52228"
350154,"PO BOX 47","JEFFERSON VALLEY","NY","10535"
350155,"PO BOX 47","KENT CITY","MI","49330"
350156,"PO BOX 47","MONESSEN","PA","15062"
350157,"PO BOX 47","MONTROSE","NY","10548"
350158,"PO BOX 47","PEEKSKILL","NY","10566"
350159,"PO BOX 470","BROOKFIELD","VT","05036"
350160,"PO BOX 470","CLIFTON FORGE","VA","24422"
350161,"PO BOX 470","GORDONSVILLE","VA","22942"
350162,"PO BOX 470","GROVES","TX","77619"
350163,"PO BOX 470","INDIAN HILLS","CO","80454"
350164,"PO BOX 470","PAWNEE","OK","74058"
350165,"PO BOX 470","SAN JUAN BAUTISTA","CA","95045"
350166,"PO BOX 470","STOCKTON","CA","95201"
350167,"PO BOX 470015","BROOKLYN","NY","11247"
350168,"PO BOX 470068","CLEVELAND","OH","44147"
350169,"PO BOX 4701","BUTTE","MT","59702"
350170,"PO BOX 4701","LAGO VISTA","TX","78645"
350171,"PO BOX 470115","SANFORD","FL","32771"
350172,"PO BOX 470126","LAKE MONROE","FL","32747"
350173,"PO BOX 47013","GLADSTONE","MO","64188"
350174,"PO BOX 470137","LAKE MONROE","FL","32747"
350175,"PO BOX 47015","TAMPA","FL","33647"
350176,"PO BOX 4702","CARY","NC","27519"
350177,"PO BOX 470250","CELEBRATION","FL","34747"
350178,"PO BOX 470256","LAKE MONROE","FL","32747"
350179,"PO BOX 4703","CLEARWATER","FL","33758"
350180,"PO BOX 470434","CHARLOTTE","NC","28226"
350181,"PO BOX 470478","LOS ANGELES","CA","90047"
350182,"PO BOX 470496","LOS ANGELES","CA","90250"
350183,"PO BOX 470502","AURORA","CO","80047"
350184,"PO BOX 470511","AURORA","CO","80047"
350185,"PO BOX 47052","ST PETERSBURG","FL","33743"
350186,"PO BOX 470563","CELEBRATION","FL","34747"
350187,"PO BOX 470576","BROOKLINE VILLAGE","MA","02447"
350188,"PO BOX 47062","PHOENIX","AZ","85068"
350189,"PO BOX 470683","CHARLOTTE","NC","28247"
350190,"PO BOX 470724","TULSA","OK","74147"
350191,"PO BOX 470812","LOS ANGELES","CA","90047"
350192,"PO BOX 470814","TULSA","OK","74147"
350193,"PO BOX 470815","CHARLOTTE","NC","28247"
350194,"PO BOX 470817","LOS ANGELES","CA","90247"
350195,"PO BOX 470834","TULSA","OK","74145"
350196,"PO BOX 470962","FORT WORTH","TX","76147"
350197,"PO BOX 470991","LAKE MONROE","FL","32747"
350198,"PO BOX 471","BROAD BROOK","CT","06016"
350199,"PO BOX 471","CAMBY","IN","46113"
350200,"PO BOX 471","CARSON CITY","NV","89702"
350201,"PO BOX 471","CARY","NC","27512"
350202,"PO BOX 471","CIALES","PR","00638"
350203,"PO BOX 471","COLUMBUS","MS","39703"
350204,"PO BOX 471","DEEPWATER","NJ","08023"
350205,"PO BOX 471","DICKSON","TN","37056"
350206,"PO BOX 471","ELK RAPIDS","MI","49629"
350207,"PO BOX 471","ENUMCLAW","WA","98022"
350208,"PO BOX 471","ESSINGTON","PA","19029"
350209,"PO BOX 471","GALLATIN","TN","37066"
350210,"PO BOX 471","HALE CENTER","TX","79041"
350211,"PO BOX 471","HIGGANUM","CT","06441"
350212,"PO BOX 471","HURON","OH","44839"
350213,"PO BOX 471","KODIAK","AK","99615"
350214,"PO BOX 471","LAPEER","MI","48446"
350215,"PO BOX 471","LAVALETTE","WV","25535"
350216,"PO BOX 471","MICANOPY","FL","32667"
350217,"PO BOX 471","MULLINS","SC","29574"
350218,"PO BOX 471","SAN BENITO","TX","78586"
350219,"PO BOX 471","VELMA","OK","73491"
350220,"PO BOX 471","WEST BRANCH","MI","48661"
350221,"PO BOX 471003","DISTRICT HEIGHTS","MD","20753"
350222,"PO BOX 471020","BROOKLINE VILLAGE","MA","02447"
350223,"PO BOX 471023","MIAMI","FL","33247"
350224,"PO BOX 4711","FORT EUSTIS","VA","23604"
350225,"PO BOX 471113","CHARLOTTE","NC","28247"
350226,"PO BOX 4712","GREENVILLE","SC","29608"
350227,"PO BOX 471251","FORT WORTH","TX","76147"
350228,"PO BOX 471297","BROOKLYN","NY","11247"
350229,"PO BOX 4714","SAN LUIS OBISPO","CA","93403"
350230,"PO BOX 4715","CLEARWATER","FL","33758"
350231,"PO BOX 471631","AURORA","CO","80047"
350232,"PO BOX 471752","FORT WORTH","TX","76147"
350233,"PO BOX 47176","DISTRICT HEIGHTS","MD","20753"
350234,"PO BOX 4719","TOLEDO","OH","43610"
350235,"PO BOX 472","ABSAROKEE","MT","59001"
350236,"PO BOX 472","ALTON","NH","03809"
350237,"PO BOX 472","ARLINGTON","MA","02476"
350238,"PO BOX 472","AURORA","NE","68818"
350239,"PO BOX 472","BLOOMINGDALE","GA","31302"
350240,"PO BOX 472","BOZEMAN","MT","59771"
350241,"PO BOX 472","ETOWAH","TN","37331"
350242,"PO BOX 472","GOLDEN","CO","80402"
350243,"PO BOX 472","GUILD","TN","37340"
350244,"PO BOX 472","HOBART","IN","46342"
350245,"PO BOX 472","IOWA FALLS","IA","50126"
350246,"PO BOX 472","LAURENS","SC","29360"
350247,"PO BOX 472","MIDLAND","GA","31820"
350248,"PO BOX 472","OXFORD","OH","45056"
350249,"PO BOX 472","PENNS PARK","PA","18943"
350250,"PO BOX 472","PETERSBURG","WV","26847"
350251,"PO BOX 472","SHAWANO","WI","54166"
350252,"PO BOX 472","SICKLERVILLE","NJ","08081"
350253,"PO BOX 472","SMYRNA","DE","19977"
350254,"PO BOX 472","SUN PRAIRIE","WI","53590"
350255,"PO BOX 472","TEMPLE HILLS","MD","20757"
350256,"PO BOX 472","VAN","TX","75790"
350257,"PO BOX 472","WASHINGTON COURTHOUS","OH","43160"
350258,"PO BOX 4720","SONORA","CA","95370"
350259,"PO BOX 472014","AURORA","CO","80047"
350260,"PO BOX 4721","HEMPSTEA","NY","11551"
350261,"PO BOX 472142","TULSA","OK","74147"
350262,"PO BOX 4724","DONALSONVILLE","GA","39845"
350263,"PO BOX 4724","HUACHUCA CITY","AZ","85616"
350264,"PO BOX 4724","WEST PALM BEACH","FL","33402"
350265,"PO BOX 472663","GARLAND","TX","75047"
350266,"PO BOX 472665","CHARLOTTE","NC","28247"
350267,"PO BOX 4727","FRANKFORT","KY","40604"
350268,"PO BOX 472744","CHARLOTTE","NC","28247"
350269,"PO BOX 47278","BROOKLYN","NY","11247"
350270,"PO BOX 473","BUFORD","GA","30515"
350271,"PO BOX 473","CANOVANAS","PR","00729"
350272,"PO BOX 473","CIBOLO","TX","78108"
350273,"PO BOX 473","GLADSTONE","OR","97027"
350274,"PO BOX 473","GRAY","GA","31032"
350275,"PO BOX 473","HARRISONBURG","VA","22803"
350276,"PO BOX 473","HEYWORTH","IL","61745"
350277,"PO BOX 473","JEMEZ PUEBLO","NM","87024"
350278,"PO BOX 473","KANE","PA","16735"
350279,"PO BOX 473","LEBO","KS","66856"
350280,"PO BOX 473","LUBBOCK","TX","79408"
350281,"PO BOX 473","OWASSO","OK","74055"
350282,"PO BOX 473","PALO ALTO","CA","94302"
350283,"PO BOX 473","PAOLA","KS","66071"
350284,"PO BOX 473","RIDERWOOD","MD","21139"
350285,"PO BOX 473","STURGEON BAY","WI","54235"
350286,"PO BOX 473","WEST BROOKFIELD","MA","01585"
350287,"PO BOX 4730","CHARLOTTESVILLE","VA","22905"
350288,"PO BOX 4732","ODESSA","TX","79760"
350289,"PO BOX 4733","CANTON","GA","30114"
350290,"PO BOX 473415","AURORA","CO","80047"
350291,"PO BOX 473533","AURORA","CO","80047"
350292,"PO BOX 473663","CHARLOTTE","NC","28247"
350293,"PO BOX 47376","CHICAGO","IL","60647"
350294,"PO BOX 4738","PHILADELPHIA","PA","19134"
350295,"PO BOX 474","AKRON","CO","80720"
350296,"PO BOX 474","BAKER","LA","70704"
350297,"PO BOX 474","CUMBERLAND","WI","54826"
350298,"PO BOX 474","FULTON","MO","65251"
350299,"PO BOX 474","GARDINER","ME","04345"
350300,"PO BOX 474","HAYWARD","CA","94543"
350301,"PO BOX 474","KNIGHTDALE","NC","27545"
350302,"PO BOX 474","LAKEFIELD","MN","56150"
350303,"PO BOX 474","LUCAMA","NC","27851"
350304,"PO BOX 474","MASON","OH","45040"
350305,"PO BOX 474","MERCEDES","TX","78570"
350306,"PO BOX 474","PATTERSON","NY","12563"
350307,"PO BOX 474","PRIEST RIVER","ID","83856"
350308,"PO BOX 474","SISTERS","OR","97759"
350309,"PO BOX 474","WILLITS","CA","95490"
350310,"PO BOX 474","WILTON","CA","95693"
350311,"PO BOX 474","WINDSOR","VT","05089"
350312,"PO BOX 474","WINTERS","CA","95694"
350313,"PO BOX 4741","WEST RICHLAND","WA","99353"
350314,"PO BOX 4744","CHARLOTTESVILLE","VA","22905"
350315,"PO BOX 47442","ST PETERSBURG","FL","33743"
350316,"PO BOX 4747","PALM SPRINGS","CA","92263"
350317,"PO BOX 4748","BOULDER","CO","80306"
350318,"PO BOX 47481","PHOENIX","AZ","85068"
350319,"PO BOX 475","ALMA","CO","80420"
350320,"PO BOX 475","BATTLE GROUND","WA","98604"
350321,"PO BOX 475","BRONWSBURG","IN","46112"
350322,"PO BOX 475","CLAYTON","CA","94517"
350323,"PO BOX 475","CULLMAN","AL","35056"
350324,"PO BOX 475","GOLDENS BRIDGE","NY","10526"
350325,"PO BOX 475","GREENVILLE","OH","45331"
350326,"PO BOX 475","GUADALUPITA","NM","87722"
350327,"PO BOX 475","HILLIARD","OH","43026"
350328,"PO BOX 475","JACKSON","AL","36545"
350329,"PO BOX 475","LANCASTER","MA","01523"
350330,"PO BOX 475","LONE GROVE","OK","73443"
350331,"PO BOX 475","MARION","OH","43301"
350332,"PO BOX 475","MCCOMB","OH","45858"
350333,"PO BOX 475","MILLERSVILLE","MD","21108"
350334,"PO BOX 475","NORCROSS","GA","30091"
350335,"PO BOX 475","NORTH CHILI","NY","14514"
350336,"PO BOX 475","OKMULGEE","OK","74447"
350337,"PO BOX 475","RIDGELAND","MS","39158"
350338,"PO BOX 475","SNELLVILLE","GA","30078"
350339,"PO BOX 475","ST CLOUD","MN","56302"
350340,"PO BOX 4751","BRIDGEPORT","WV","26330"
350341,"PO BOX 4751","MESA","AZ","85211"
350342,"PO BOX 4752","CARY","NC","27519"
350343,"PO BOX 47531","BALTIMORE","MD","21244"
350344,"PO BOX 4754","HIGHLAND PARK","NJ","08904"
350345,"PO BOX 4758","JACKSON","WY","83001"
350346,"PO BOX 4758","PITTSBURGH","PA","15206"
350347,"PO BOX 47584","WINDSOR MILL","MD","21244"
350348,"PO BOX 476","ANNANDALE","MN","55302"
350349,"PO BOX 476","BOWMAN","ND","58623"
350350,"PO BOX 476","CHARLESTON","TN","37310"
350351,"PO BOX 476","CONIFER","CO","80433"
350352,"PO BOX 476","EDINBURG","VA","22824"
350353,"PO BOX 476","ELKHART","IN","46515"
350354,"PO BOX 476","FAIRFIELD","PA","17320"
350355,"PO BOX 476","GENTRY","AR","72734"
350356,"PO BOX 476","GEORGETOWN","DE","19947"
350357,"PO BOX 476","HURON","OH","44839"
350358,"PO BOX 476","KENDALL","NY","14476"
350359,"PO BOX 476","LINCOLNTON","GA","30817"
350360,"PO BOX 476","NEW YORK","NY","10026"
350361,"PO BOX 476","RYE","CO","81069"
350362,"PO BOX 476","SEGUIN","TX","78156"
350363,"PO BOX 476","SOUTH HILL","VA","23970"
350364,"PO BOX 476","WELLINGTON","CO","80549"
350365,"PO BOX 476","YELM","WA","98597"
350366,"PO BOX 4760","CAPITOL HEIGHTS","MD","20791"
350367,"PO BOX 4760","POUGHKEEPSIE","NY","12602"
350368,"PO BOX 4763","BOZEMAN","MT","59772"
350369,"PO BOX 4763","GARDEN GROVE","CA","92842"
350370,"PO BOX 47636","JACKSONVILLE","FL","32247"
350371,"PO BOX 47642","ST PETERSBURG","FL","33743"
350372,"PO BOX 4767","BRYAN","TX","77805"
350373,"PO BOX 4767","DILLON","CO","80435"
350374,"PO BOX 477   1368 HWY 45","ST STEPHEN","SC","29479"
350375,"PO BOX 477","BAILEY","CO","80421"
350376,"PO BOX 477","BAKER CITY","OR","97814"
350377,"PO BOX 477","BOLINAS","CA","94924"
350378,"PO BOX 477","COLUMBIANA","OH","44408"
350379,"PO BOX 477","HAWTHORNE","NV","89415"
350380,"PO BOX 477","SHERBORN","MA","01770"
350381,"PO BOX 477","TENINO","WA","98589"
350382,"PO BOX 477","TROY","ID","83871"
350383,"PO BOX 477","WAITSFIELD","VT","05673"
350384,"PO BOX 477","WINCHESTER","CA","92596"
350385,"PO BOX 477","WURTSBORO","NY","12790"
350386,"PO BOX 477","YARMOUTH","ME","04096"
350387,"PO BOX 4770","CARY","NC","27519"
350388,"PO BOX 4773","SANTA CLARA","CA","95054"
350389,"PO BOX 4774","ASHEBORO","NC","27204"
350390,"PO BOX 4774","AUSTIN","TX","78765"
350391,"PO BOX 47753","SAN ANTONIO","TX","78265"
350392,"PO BOX 4777","RICHMOND","VA","23220"
350393,"PO BOX 4777","WOODLAND PARK","CO","80866"
350394,"PO BOX 47796  16350 BRUCE B DOWNS B","TAMPA","FL","33647"
350395,"PO BOX 478","ERIE","CO","80516"
350396,"PO BOX 478","GARDEN CITY","KS","67846"
350397,"PO BOX 478","GRANVILLE","WV","26534"
350398,"PO BOX 478","HAUULA","HI","96717"
350399,"PO BOX 478","MOUNTAIN LAKE","MN","56159"
350400,"PO BOX 478","ROWLETT","TX","75030"
350401,"PO BOX 478","WESTMORELAND","NY","13490"
350402,"PO BOX 47813","JACKSONVILLE","FL","32247"
350403,"PO BOX 4783","JACKSON","WY","83001"
350404,"PO BOX 478487","CHICAGO","IL","60647"
350405,"PO BOX 4787","MILILANI","HI","96789"
350406,"PO BOX 478823","CHICAGO","IL","60647"
350407,"PO BOX 4789","BOULDER","CO","80306"
350408,"PO BOX 4789","FT HARRISON","MT","59636"
350409,"PO BOX 4789","WHITEFISH","MT","59937"
350410,"PO BOX 479","CHEPACHET","RI","02814"
350411,"PO BOX 479","CLINTON","AR","72031"
350412,"PO BOX 479","CLYDE","TX","79510"
350413,"PO BOX 479","LAKE ORION","MI","48361"
350414,"PO BOX 479","PORT AUSTIN","MI","48467"
350415,"PO BOX 479","ROYSE CITY","TX","75189"
350416,"PO BOX 4790","SUTHERLIN","OR","97527"
350417,"PO BOX 47910","SAN ANTONIO","TX","78265"
350418,"PO BOX 4792","ALPHARETTA","GA","30023"
350419,"PO BOX 4793","JACKSON","WY","83001"
350420,"PO BOX 4793","MANCHESTER","NH","03108"
350421,"PO BOX 4793","MERIDIAN","MS","39304"
350422,"PO BOX 4794","KEY WEST","FL","33041"
350423,"PO BOX 47945","LOS ANGELES","CA","90047"
350424,"PO BOX 47963","ST PETERSBURG","FL","33743"
350425,"PO BOX 48 SHIP BOTTOM","SHIP BOTTOM","NJ","08008"
350426,"PO BOX 48","CANANDAIGUA","NY","14424"
350427,"PO BOX 48","CENTRAL ISLIP","NY","11722"
350428,"PO BOX 48","CLAY CITY","IN","47841"
350429,"PO BOX 48","CRYSTAL LAKE","IL","60039"
350430,"PO BOX 48","DECHERD","TN","37324"
350431,"PO BOX 48","FENTON","MO","63025"
350432,"PO BOX 48","GALIEN","MI","49113"
350433,"PO BOX 48","HART","MI","49420"
350434,"PO BOX 48","LAKE WALES","FL","33859"
350435,"PO BOX 48","LEXINGTON","VA","24450"
350436,"PO BOX 48","MAXIMO","OH","44650"
350437,"PO BOX 48","NEWTON","KS","67114"
350438,"PO BOX 48","ONEONTA","NY","13820"
350439,"PO BOX 48","RUTHERFORD","NJ","07070"
350440,"PO BOX 48","TILLSON","NY","12486"
350441,"PO BOX 48","TONTO BASIN","AZ","85553"
350442,"PO BOX 48","WHITMAN","MA","02382"
350443,"PO BOX 48","YODER","KS","67585"
350444,"PO BOX 480 8530 OLD POLAND RD","BARNEVELD","NY","13304"
350445,"PO BOX 480","LANCASTER","NY","14086"
350446,"PO BOX 480","LOS OLIVOS","CA","93441"
350447,"PO BOX 480","SAN MARCOS","TX","78667"
350448,"PO BOX 480","TUTTLE","OK","73089"
350449,"PO BOX 480","VAN ALSTYNE","TX","75495"
350450,"PO BOX 480","WAKE FOREST","NC","27588"
350451,"PO BOX 4800","INCLINE VILLAGE","NV","89450"
350452,"PO BOX 480077","LOS ANGELES","CA","90048"
350453,"PO BOX 48012","OAK PARK","MI","48237"
350454,"PO BOX 480139","COON RAPIDS","MN","55448"
350455,"PO BOX 480221","NILES","IL","60714"
350456,"PO BOX 480246","CHARLOTTE","NC","28269"
350457,"PO BOX 480279","NEW HAVEN","MI","48048"
350458,"PO BOX 480291","DELRAY BEACH","FL","33448"
350459,"PO BOX 4803","BEND","OR","97707"
350460,"PO BOX 4803","HAINES CITY","FL","33845"
350461,"PO BOX 480313","DELRAY BEACH","FL","33448"
350462,"PO BOX 480379","LOS ANGELES","CA","90048"
350463,"PO BOX 480514","NILES","IL","60714"
350464,"PO BOX 480716","CHARLOTTE","NC","28269"
350465,"PO BOX 480741","CHARLOTTE","NC","28269"
350466,"PO BOX 480808","CHARLOTTE","NC","28269"
350467,"PO BOX 480841","CHARLOTTE","NC","28269"
350468,"PO BOX 480855","KANSAS CITY","MO","64148"
350469,"PO BOX 480927","CHARLOTTE","NC","28269"
350470,"PO BOX 481","ARROYO SECO","NM","87514"
350471,"PO BOX 481","BARTLETT","TX","76511"
350472,"PO BOX 481","BURLEY","ID","83318"
350473,"PO BOX 481","CHESTERFIELD","MO","63006"
350474,"PO BOX 481","CRANBERRY LAKE","NY","12927"
350475,"PO BOX 481","CUTHBERT","GA","39840"
350476,"PO BOX 481","DEXTER","ME","04930"
350477,"PO BOX 481","FENTON","MI","48430"
350478,"PO BOX 481","FOXBORO","MA","02035"
350479,"PO BOX 481","GIG HARBOR","WA","98335"
350480,"PO BOX 481","JAYTON","TX","79528"
350481,"PO BOX 481","LAKE HAVASU CITY","AZ","86405"
350482,"PO BOX 481","LAYTON","UT","84402"
350483,"PO BOX 481","MAYS LANDING","NJ","08330"
350484,"PO BOX 481","MORRISVILLE","VT","05661"
350485,"PO BOX 481","NEW ULM","MN","56073"
350486,"PO BOX 481","OMAHA","NE","68101"
350487,"PO BOX 481","PENRYN","CA","95663"
350488,"PO BOX 481","PORTAGE","WI","53901"
350489,"PO BOX 481","SHELTON","WA","98584"
350490,"PO BOX 481","SOUTHERN PINES","NC","28388"
350491,"PO BOX 481","WALLOWA","OR","97885"
350492,"PO BOX 4811","FEDERAL WAY","WA","98063"
350493,"PO BOX 4811","GREENWOOD VILLAGE","CO","80155"
350494,"PO BOX 4812","HELENA","MT","59604"
350495,"PO BOX 481222","KANSAS CITY","MO","64148"
350496,"PO BOX 481223","CHARLOTTE","NC","28269"
350497,"PO BOX 481439","CHARLOTTE","NC","28269"
350498,"PO BOX 4815","WASHINGTON","DC","20008"
350499,"PO BOX 481601","KANSAS CITY","MO","64148"
350500,"PO BOX 481602","CHARLOTTE","NC","28269"
