"ID","Address","City","State","Zip"
288001,"7655 HAMPTON PLACE LN","CINCINNATI","OH","45244"
288002,"7655 JUNIPER AVE","FONTANA","CA","92336"
288003,"7655 MARKET STREET   SUITE B","WILMINGTON","NC","28411"
288004,"7655 N 3000 W","HONEYVILLE","UT","84314"
288005,"7655 PLEASANT RIDGE RD","ARLINGTON","TN","38002"
288006,"7655 PRODUCTION DRIVE","CINCINNATI","OH","45237"
288007,"7655 SOUTH VINCENNES AVENUE","CHICAGO","IL","60620"
288008,"7655 TWP RD 177","FREDERICKTOWN","OH","43019"
288009,"7655 W 60TH AVE","ARVADA","CO","80004"
288010,"7655 W GULF TO LAKE HWY SUITE 13","CRYSTAL RIVER","FL","34429"
288011,"7655 WINNETKA AVE UNIT 3274","WINNETKA","CA","91396"
288012,"7656 BIRCHWOOD HILL RD","CROZET","VA","22932"
288013,"7656 ECHO LANE","JONESBORO","GA","30236"
288014,"7656 LASER LANE","MEMPHIS","TN","38119"
288015,"7656 MICHELLE CT","MANASSAS","VA","20109"
288016,"7656 S EUCLID AVE","CHICAGO","IL","60649"
288017,"7656 STATE ROAD C","FULTON","MO","65251"
288018,"7656 STIRLING BRIDGE BLVD NORTH","DELRAY BEACH","FL","33446"
288019,"7657 CALLOW COVE LANE","POWELL","TN","37849"
288020,"7657 SCARLET VIEW TRL","FORT WORTH","TX","76131"
288021,"7657 WINNETKA AVE STE 222","WINNETKA","CA","91306"
288022,"7657 WINNETKA AVE STE 409","CANOGA PARK","CA","91306"
288023,"7658 DESIGN ROAD SUITE 300","BAXTER","MN","56425"
288024,"7658 HENRY KNOX DR","LORTON","VA","22709"
288025,"7658 LANCASTER AVENUE","MT AETNA","PA","19544"
288026,"7658 NORTH 78TH STREET UNIT 4","MILWAUKEE","WI","53223"
288027,"7658 STRAIGHT SHOOTER VW","COLORADO SPRINGS","CO","80923"
288028,"7658 TUSCAN BAY CIRCLE","WESLEY CHAPEL","FL","33545"
288029,"7659 CULEBRA VALLEY","SAN ANTONIO","TX","78254"
288030,"7659 E 42ND STREET","TUCSON","AZ","85730"
288031,"7659 FOLK AVE","MAPLEWOOD","MO","63143"
288032,"7659 ROAD E NW","EPHRATA","WA","98823"
288033,"7659 S  ROSEMARY CIRCLE","CENTENNIAL","CO","80112"
288034,"766 150TH AVE","SLAYTON","MN","56172"
288035,"766 BARBER LN","MILPITAS","CA","95035"
288036,"766 BOSTON POST ROAD","WEST HAVEN","CT","06516"
288037,"766 CHESTNUT STREET","MEADVILLE","PA","16335"
288038,"766 CLOVER RIDGE LANE","ITASCA","IL","60143"
288039,"766 COLORADO BOULEVARD","LOS ANGELES","CA","90041"
288040,"766 EAST UNIVERSITY DRIVE","AUBURN","AL","36830"
288041,"766 HEBBERTSBURG ROAD","CRAB ORCHARD","TN","37723"
288042,"766 JOHN  ST","SEATTLE","WA","98109"
288043,"766 JOHN ST","SEATTLE","WA","98109"
288044,"766 JOLLY AVE S APT M5","CLARKSTON","GA","30021"
288045,"766 KINGS HIGHWAY","SAUGERTIES","NY","12477"
288046,"766 LANINA PL","KIHEI","HI","96753"
288047,"766 MILL HILL TERRACE","SOUTHPORT","CT","06890"
288048,"766 N CLINTON ST","OLATHE","KS","66061"
288049,"766 OLD YORK RD","MONTGOMERY","PA","19046"
288050,"766 OLD YORK ROAD","JENKINTOWN","PA","19046"
288051,"766 POFF RD","YORK","PA","17406"
288052,"766 ROLAND ST","MEMPHIS","TN","38104"
288053,"766 S 12TH STREET","SAN JOSE","CA","95112"
288054,"766 SAXON AVE","AKRON","OH","44314"
288055,"766 SE KANE ST","ROSEBURG","OR","97470"
288056,"766 SELMER RD","PHILADELPHIA","PA","19116"
288057,"766 TURNBERRY TERRACE","RIO VISTA","CA","94571"
288058,"766 VASSAR ROAD","POUGHKEEPSIE","NY","12603"
288059,"766 VISTA GRANDE AVE","LOS ALTOS","CA","94024"
288060,"766 W HIGHWAY 21","TROY","TN","38260"
288061,"7660 BEVERLY BLVD 418","LOS ANGELES","CA","90036"
288062,"7660 BEVERLY BLVD APT 263","LOS ANGELES","CA","90036"
288063,"7660 BEVERLY BLVD UNIT 406","LOS ANGELES","CA","90036"
288064,"7660 BRADLEY RD","SOMIS","CA","93066"
288065,"7660 COCHRAN MILL RD","PALMETTO","GA","30268"
288066,"7660 ELDORADO PLACE","ORLANDO","FL","32818"
288067,"7660 GOODWIN RD","CHATTANOOGA","TN","37421"
288068,"7660 POWDER RUN LANE","MEMPHIS","TN","38125"
288069,"7660 PRODUCTION DRIVE","CINCINNATI","OH","45237"
288070,"7660 STEWART STREET","COLTON","CA","92324"
288071,"7660 UNIVERSTIY BLVD","WINTER PARK","FL","32792"
288072,"7660 W PARKSIDE DR","YOUNGSTOWN","OH","44512"
288073,"7660 WEST LEON TERRACE UNIT D","MILWAUKEE","WI","53218"
288074,"7660 WHITTINGTON DRIVE","NORTH CHESTERFIED","VA","23225"
288075,"7660 WICKERSHAM PL","BEAUMONT","TX","77706"
288076,"7661 COFFEEBERRY DRIVE","EASTVALE","CA","92880"
288077,"7661 EAST VIA DEL PLACITO","SCOTTSDALE","AZ","85258"
288078,"7661 KISMET ST","MIRAMAR","FL","33023"
288079,"7661 MANASSAS COURT","NORFOLK","VA","23518"
288080,"7661 MCLAUGHLIN RD","PEYTON","CO","80831"
288081,"7661 N SHERIDAN RD APT 1","CHICAGO","IL","60626"
288082,"7661 NORTH JEROME ROAD","JEROME","MI","49249"
288083,"7661 OAKRIDGE ROAD","HILLSBORO","OH","45133"
288084,"7661 PROVINCIAL DR SUITE 212","MCLEAN","VA","22102"
288085,"7661 SHIPPY ROAD SW","FIFE LAKE","MI","49633"
288086,"7661 SOUTHBEND DR","FAYETTEVILLE","NC","28314"
288087,"7661 SW CAPITOL HWY APT 110","PORTLAND","OR","97219"
288088,"7662 COTTONWOOD LN","PLEASANTON","CA","94588"
288089,"7662 E 8TH PLACE","DENVER","CO","80230"
288090,"7662 LEGACY RD","FLOWERY BRANCH","GA","30542"
288091,"7662 N 100 W","WORTHINGTON","IN","47471"
288092,"7663 JAMES MONROE WAY","GLOUCESTER","VA","23061"
288093,"7663 WROTHAM CIRCLE","ATLANTA","GA","30349"
288094,"7664 FALL CREEK WAY","BURLINGTON","KY","41005"
288095,"7664 PINNACLE DRIVE","JACKSONVILLE","FL","32221"
288096,"7664 WOODBINE AVENUE","PHILADELPHIA","PA","19151"
288097,"7664 WOODLAWN DR UNIT 3","MOUNDS VIEW","MN","55112"
288098,"7665 COPE DR","CHAGRIN FALLS","OH","44023"
288099,"7665 EASTERLY","MEMPHIS","TN","38125"
288100,"7665 MENTOR AVE SUITE 226","MENTOR","OH","44060"
288101,"7665 N BEN LOMOND AVE","GLENDORA","CA","91741"
288102,"7665 N SHERIDAN ROAD APT 1A","CHICAGO","IL","60626"
288103,"7665 SIERRA AVE","FONTANA","CA","92336"
288104,"7665 WRANGLER RIDGE DR","COLORADO SPRINGS","CO","80923"
288105,"7666 BEVERLY ST","SHELBY","MI","49455"
288106,"7666 JEREMY LANE","NEWBURGH","IN","47630"
288107,"7667 CROOKED COVE","KALAMAZOO","MI","49009"
288108,"7667 N 56TH STREET","TAMPA","FL","33617"
288109,"7667 PARK MEADOW LANE","WEST BLOOMFIELD","MI","48324"
288110,"7667 SPATTERDOCK DR","BOYNTON BEACH","FL","33437"
288111,"7667 TAMARACK LANE","ONTARIO","NY","14519"
288112,"7667 WEST 95TH STREET 1E","HICKORY HILLS","IL","60457"
288113,"7668 ALIVIA CIRCLE","SPRINGDALE","AR","72762"
288114,"7668 EL CAMINO REAL SUITE 104-611","LA COSTA","CA","92009"
288115,"7668 S LAKERIDGE DR","SEATTLE","WA","98178"
288116,"7668 SLATE RIDGE BLVD","REYNOLDSBURG","OH","43068"
288117,"7668 W VIA DEL SOL","PEORIA","AZ","85383"
288118,"7669 CAMILLE COURT","COLORADO SPRINGS","CO","80908"
288119,"7669 CAPONATA BLVD","SEMINOLE","FL","33777"
288120,"767 80TH ST","WEST DES MOINES","IA","50266"
288121,"767 ADDIS ST","NEW CASTLE","PA","16101"
288122,"767 BREEDLOVE STREET","MEMPHIS","TN","38107"
288123,"767 EAST 218 STREET","BRONX","NY","10461"
288124,"767 FIFTH AVENUE 12TH FLOOR","NEW YORK","NY","10153"
288125,"767 GINGER RIDGE DRIVE","TRENTON","OH","45067"
288126,"767 GOODRICH AVENUE","SAINT PAUL","MN","55105"
288127,"767 HERRERIAS WAY","PETALUMA","CA","94954"
288128,"767 JOHNSON AVENUE","NORFOLK","VA","23504"
288129,"767 LEE ROAD","CLYDE","NC","28721"
288130,"767 N 150 W","SPRINGVILLE","UT","84663"
288131,"767 NE 164 TERR","NORTH MIAMI BEACH","FL","33162"
288132,"767 NEIGHBORHOOD ROAD","LAKE KATRINE","NY","12449"
288133,"767 NORTHERN AVE APT G3","CLARKSTON","GA","30021"
288134,"767 PARK AVENUE WEST SUITE 130","HIGHLAND PARK","IL","60035"
288135,"767 PINE STREET","OAKLAND","CA","94607"
288136,"767 PORTSMOUTH DRIVE","PINGREE GROVE","IL","60140"
288137,"767 RAMONA AVE","SALT LAKE CITY","UT","84105"
288138,"767 ROBERT BLVD","SLIDELL","LA","70458"
288139,"767 ROBERT DRIVE","MOVILLE","IA","51039"
288140,"767 S AUTO MALL DRIVE STE 5","AMERICAN FORK","UT","84003"
288141,"767 SE ANDERSON LANE","GRESHAM","OR","97080"
288142,"767 SETTER COURT","REDDING","CA","96003"
288143,"767 SHPEHERD AVENUE","BROOKLYN","NY","11208"
288144,"767 THIRD AVE 16TH FL","NEW YORK","NY","10017"
288145,"767 THIRD AVENUE  SUITE 301","NEW YORK","NY","10017"
288146,"767 WEST ROLLING ROAD","SPRINGFIELD","PA","19064"
288147,"767 WESTCLIFF DRIVE","LAFAYETTE","CO","80026"
288148,"767 WOODLAND AVE","GEORGETOWN","SC","29440"
288149,"7670 ATLANTA ST","HOLLYWOOD","FL","33024"
288150,"7670 AUSTIN TRACY ROAD","FOUNTAIN RUN","KY","42133"
288151,"7670 E QUEEN PALM CIRCLE","TUCSON","AZ","85730"
288152,"7670 LANGLY AVE","COTTAGE GROVE","MN","55016"
288153,"7670 N STAR GRASS DR UNIT 1","TUCSON","AZ","85741"
288154,"7670 OPPORTUNITY RD STE 220","SAN DIEGO","CA","92111"
288155,"7670 RHINESTONE CIRCLE","RENO","NV","89511"
288156,"7670 RYEFIELD DRIVE","ATLANTA","GA","30350"
288157,"7670 W NORTHVIEW ST","BOISE","ID","83704"
288158,"7670 WESTWOOD DR 706","TAMARAC","FL","33321"
288159,"7671 ABIGAIL GLEN DRIVE","CHARLOTTE","NC","28212"
288160,"7671 ALHAMBRA DRIVE","HUNTINGTON BEACH","CA","92647"
288161,"7671 MANDRAKE CT UNIT 129","ELKRIDGE","MD","21075"
288162,"7672 AUDUBON MEADOW","ALEXANDRIA","VA","22306"
288163,"7672 BRYDEN ST","DETROIT","MI","48210"
288164,"7672 MONTGOMERY RD","CINCINNATI","OH","45236"
288165,"7672 PEKOE WAY","SACRAMENTO","CA","95828"
288166,"7673 NORTHERN OAKS CT","SPRINGFIELD","VA","22153"
288167,"7673 WILLARD DR W","THEODORE","AL","36582"
288168,"7674 COURTYARD RUN W","BOCA RATON","FL","33433"
288169,"7674 ROXTON CT","NEW ALBANY","OH","43054"
288170,"7674 SOUTHERN OAK DRIVE","SPRINGFIELD","VA","22153"
288171,"7674 TURQUOISE ST","DUBLIN","CA","94568"
288172,"7675 BAGWELL COVE","SAN DIEGO","CA","92126"
288173,"7675 LANEWOOD LN N","MAPLE GROVE","MN","55311"
288174,"7675 ROYAL SYDNEY DR","GAINESVILLE","VA","20155"
288175,"7675 SANTA MARGHERITA WAY","NAPLES","FL","34109"
288176,"7675 US HWY 76E","HIAWASSEE","GA","30546"
288177,"7675 WALKER ROAD","COLORADO SPRINGS","CO","80908"
288178,"7676 CR 247","CALDWELL","TX","77836"
288179,"7676 EL CERRITO ROAD","CORONA","CA","92881"
288180,"7676 HILLMONT DR","HOUSTON","TX","77040"
288181,"7676 HILLMONT ST SUITE 186","HOUSTON","TX","77040"
288182,"7676 NEW HAMPSHIRE AVE STE 303","TAKOMA PARK","MD","20912"
288183,"7676 PHOENIX DRIVE 1401","HOUSTON","TX","77030"
288184,"7676 W 63RD ST","SUMMIT","IL","60501"
288185,"7676 W 63RD STREET SUITE B","SUMMIT","IL","60501"
288186,"7677 DR PHILLIPS BLVD","ORLANDO","FL","32819"
288187,"7677 OAKPORT STREET SUITE 110","OAKLAND","CA","94621"
288188,"7677 OLD PLANK ROAD","STANLEY","NC","28164"
288189,"7677 TORINO COURT","ORLANDO","FL","32835"
288190,"7678 CAMILLE COURT","COLORADO SPRINGS","CO","80908"
288191,"7678 POLO CROSSE AVE","SACRAMENTO","CA","95829"
288192,"7678 RAMPART WAY","LITTLETON","UT","80125"
288193,"7678 SALIX PLACE","SAN DIEGO","CA","92129"
288194,"7679 NORTHEAST CIRCLE","CITRUS HEIGHTS","CA","95610"
288195,"7679 WATERBURY PL","RANCHO CUCAMONGA","CA","91730"
288196,"7679 WATFORD DR","WEST BLOOMFIELD","MI","48322"
288197,"76795 MOSBY CREEK RD","COTTAGE GROVE","OR","97424"
288198,"768 BANDIT TR","KELLER","TX","76248"
288199,"768 BELHAVEN ST","JACKSON","MS","39202"
288200,"768 BISON LANE","RAMSAY","MT","59748"
288201,"768 BROAD ST","CENTRAL FALLS","RI","02863"
288202,"768 CAMPHOR HEIGHTS PLACE","LAKE MARY","FL","32746"
288203,"768 DUTCHMANS BRANCH CT","IRMO","SC","29063"
288204,"768 DUVALL HIGHWAY","PASADENA","MD","21122"
288205,"768 E GARDEN RD UNIT 128","VINELAND","NJ","08360"
288206,"768 E GARDEN ROAD UNIT 128","VINELAND","NJ","08360"
288207,"768 E MAIN STREET","ZAVALLA","TX","75980"
288208,"768 EAGLE FURNACE RD","ROCKWOOD","TN","37854"
288209,"768 ELM ST","GLEN ELLYN","IL","60137"
288210,"768 FIELD CROSSING","AUBREY","TX","76227"
288211,"768 GREENE AVE APT 4","BROOKLYN","NY","11221"
288212,"768 GRIFFEY WAY","GALT","CA","95632"
288213,"768 KING SWORD CT","MABLETON","GA","30126"
288214,"768 LEE VALLEY ROAD","WHITESBURG","TN","37891"
288215,"768 LILAC ROAD","LITTLE SUAMICO","WI","54141"
288216,"768 MAGNOR LAKE LANE","CLAYTON","WI","54004"
288217,"768 MAIN ST","ELIOT","ME","03903"
288218,"768 MAIN STREET","WARRENTON","GA","30828"
288219,"768 MAYFIELD AVE","STANFORD","CA","94305"
288220,"768 MILLER RUN","ATLANTA","GA","30349"
288221,"768 NORTH HOLIDAY WAY","CLEVELAND","OH","74020"
288222,"768 NORTH STARR DRIVE","PICKERINGTON","OH","43147"
288223,"768 NW MORINGVIEW COURT","MCMINNVILLE","OR","97128"
288224,"768 PAYNE AVE","NORTH TONAWNADA","NY","14120"
288225,"768 PECAN LN","EUFAULA","OK","74432"
288226,"768 PRINCETON PLACE NW APT A","WASHINGTON","DC","20010"
288227,"768 S BOYLE AVE","LOS ANGELES","CA","90023"
288228,"768 SANAT CRUZ DRIVE","CHALAN PAGO","GU","96910"
288229,"768 SEAWALL ROAD","ESSEX","MD","21221"
288230,"768 W 2240 N","PLEASANT GROVE","UT","84062"
288231,"768 WATER LILY LANE","WASHINGTON","DC","20019"
288232,"768 WEST 2240 NORTH","PLEASANT GROVE","UT","84062"
288233,"768 WOODLAKE DRIVE","JACKSON","MS","39206"
288234,"7680 CELEBRATION WAY","CRESTWOOD","KY","40014"
288235,"7680 LOWER GATEWAY LOOP UNIT 527","ORLANDO","FL","32827"
288236,"7680 MUSTANG STREET","LAS VEGAS","NV","89131"
288237,"7680 STIRLING BRIDGE BLVD N","DELRAY BEACH","FL","33446"
288238,"7680 TALLEY ANN DR","TALLAHASSEE","FL","32311"
288239,"7681 CANYON DR","AMARILLO","TX","79110"
288240,"7681 COLONIAL BEACH RD","PASADENA","MD","21122"
288241,"7681 OLD RIVER RD","ROCKFORD","IL","61103"
288242,"7681 STONEGATE DRIVE","EASTVALE","CA","92880"
288243,"7681 TERAL CT SE","SALEM","OR","97317"
288244,"7682 DAYA WAY","SACRAMENTO","CA","95828"
288245,"7682 MORNING MIST DR","CORONA","CA","92880"
288246,"7682 NW SPRINGHILL DR","ALBANY","OR","97321"
288247,"7683 RAGLAN DRIVE NE","WARREN","OH","44484"
288248,"7683 SE 27TH ST  STE 443","MERCER ISLAND","WA","98040"
288249,"7683 SE 27TH ST STE 445","MERCER ISLAND","WA","98040"
288250,"7683 SE 27TH STREET NUMBER 107","MERCER ISLAND","WA","98040"
288251,"7684 BROADVIEW DRIVE SE","CALEDONIA","MI","49316"
288252,"7685 BALLESTRADE COURT","MCLEAN","VA","22102"
288253,"7685 COOSADA ROAD","COOSADA","AL","36020"
288254,"7685 PRAIRIEVIEW DRIVE","FISHERS","IN","46038"
288255,"7685 TEALS MILL RD","CHERAW","SC","29520"
288256,"7685 URBANDALE LANE N","MAPLE GROVE","MN","55311"
288257,"7685 WINTERBERRY DR","YOUNGSTOWN","OH","44512"
288258,"7686 HOMESTEAD ROAD","PARKER","CO","80138"
288259,"7686 RAVENWOOD DRIVE","GREENVILLE","OH","45331"
288260,"7686 WEST RIDGE ROAD","FAIRVIEW","PA","16415"
288261,"7687 PLUNGING FALLS","LV","NV","89131"
288262,"7687 S ALLISON COURT","LITTLETON","CO","80128"
288263,"7687 TYRA COVE","JONESBORO","GA","30236"
288264,"7687 WESTMINSTER BOULEVARD","WESTMINSTER","CA","92683"
288265,"7688 NW 86TH STREET","JOHNSTON","IA","50131"
288266,"7688 SW CAPITOL HWY","PORTLAND","OR","97219"
288267,"7689 DEL OAK WAY","SACRAMENTO","CA","95831"
288268,"7689 E PHILLIPS CIR","CENTENNIAL","CO","80112"
288269,"7689 WEBSTER STREET","HIGHLAND","CA","92346"
288270,"769 ARCHER STREET APT 4","SALINAS","CA","93901"
288271,"769 BOULEVARD STREET","AKRON","OH","44311"
288272,"769 CASSELBERRY TRAIL","MADISON","FL","32340"
288273,"769 CENTER BLVD STE 26","FAIRFAX","CA","94930"
288274,"769 CHERRY VALLEY ROAD","PRINCETON","NJ","08540"
288275,"769 CLUB STRAIGHT LANE","SHOW LOW","AZ","85901"
288276,"769 DACCO DRIVE","COOKEVILLE","TN","38506"
288277,"769 DRY CREEK ROAD","SANDY","UT","84094"
288278,"769 E 1580 N","SHELLEY","ID","83274"
288279,"769 EAST NORTH 13TH STREET","ABILENE","TX","79601"
288280,"769 EMPIRE AVE","FAR ROCKAWAY","NY","11691"
288281,"769 LAKE DRIVE","COLDWATER","MI","49036"
288282,"769 LAWTON STREET SW","ATLANTA","GA","30310"
288283,"769 OWLS NEST CT","MAINEVILLE","OH","45039"
288284,"769 PASCACK ROAD","PARAMUS","NJ","07652"
288285,"769 PICKFAIR TERRACE","LAKE MARY","FL","32746"
288286,"769 ROBERTS BLUFF RD","COUPEVILLE","WA","98239"
288287,"769 S GORDON ROAD","AUSTELL","GA","30168"
288288,"769 SAINT MARKS AVE APT 2-5D","BROOKLYN","NY","11213"
288289,"769 SHADOWRIDGE DR SE","ATLANTA","GA","30316"
288290,"769 STATE ROUTE 168","DARLINGTON","PA","16115"
288291,"769 STILL HILL RD","HAMDEN","CT","06518"
288292,"769 TURNER SCHOOL ROAD","FANCY GAP","VA","24328"
288293,"769 W 200 N","PROVO","UT","84601"
288294,"769 W 3RD STREET","SAN PEDRO","CA","90731"
288295,"769 WASHINGTON STREET","STOUGHTON","MA","02072"
288296,"7690 CHESTNUT HILL CHURCH ROAD","COOPERSBURG","PA","18036"
288297,"7690 MADISON AVENUE","LEMON GROVE","CA","91945"
288298,"7690 PETERS RD","TIPP CITY","OH","45371"
288299,"7690 SW 54TH ST","MIAMI","FL","33143"
288300,"7691 ANN ARBOR ROAD","DEXTER","MI","48130"
288301,"7691 CREOLE PLACE UNIT 1","RANCHO CUCAMONGA","CA","91739"
288302,"76917 TIMBERCREEK BLVD","YULEE","FL","32097"
288303,"7692 APPLE TREE CIRCLE","ORLANDO","FL","32819"
288304,"7692 HWY 12","DATIL","NM","87821"
288305,"7692 PEGOTTY","WARREN","OH","44484"
288306,"7692 S JORDAN LANDING BLVD","WEST JORDAN","UT","84084"
288307,"7693 WATER VIEW WAY  SUITE B","RENO","NV","89511"
288308,"7694 170 ST W","LAKEVILLE","MN","55044"
288309,"7694 CRITWELL COURT","REYNOLDSBURG","OH","43068"
288310,"7694 DORCHESTER BLVD UNIT 617","HANOVER","MD","21076"
288311,"7694 E BUTEO DR","SCOTTSDALE","AZ","85255"
288312,"7695 GREENBORO DR","MELBOURNE","FL","32904"
288313,"7695 KINNEYTUCK COURT","LEWIS CENTER","OH","43035"
288314,"7695 NELL DRIVE","FLAGSTAFF","AZ","86004"
288315,"7695 NW BUCKTHORN WAY","PORTLAND","OR","97229"
288316,"7695 SOUTH COUNTY ROAD 25-A","TIPP CITY","OH","45371"
288317,"7695 SOUTH COUNTY ROAD 25A","TIPP CITY","OH","45371"
288318,"7697 MORGAN RD","LIVERPOOL","NY","13090"
288319,"7698 CONVINGTON HWY","STONE CREST","GA","30058"
288320,"7698 E CREE LAKE DR N","KENDALLVILLE","IN","46755"
288321,"7698 SAMS LANE","NAMPA","ID","83686"
288322,"7699 9TH ST STE 204","BUENA PARK","CA","90621"
288323,"7699 E QUEEN PALM CIRCLE","TUCSON","AZ","85730"
288324,"7699 MOWATT LANE - SUITE 2520Q","COLLEGE PARK","MD","20742"
288325,"7699 PEACHLEAF DR","COLORADO SPRINGS","CO","80925"
288326,"76A GOTHIC STREET","NORTHAMPTON","MA","01060"
288327,"76A PAINE AVENUE","IRVINGTON","NJ","07111"
288328,"76B THREE RIVERS DR","NEWARK","DE","19702"
288329,"77 12TH ST NE UNIT 1206","ATLANTA","GA","30309"
288330,"77 12TH ST NE UNIT 2202","ATLANTA","GA","30309"
288331,"77 12TH STREET NE UNIT 915","ATLANTA","GA","30309"
288332,"77 20 251ST STREET","BELLEROSE","NC","11426"
288333,"77 ALDEN STREET","CHERRY VALLEY","NY","13320"
288334,"77 ALSACE AVENUE","BUFFALO","NY","14220"
288335,"77 ANN DR S","FREEPORT","NY","11520"
288336,"77 ANTWERP STREET","MILTON","MA","02186"
288337,"77 AUSTIN ROAD","MAHOPAC","NY","10541"
288338,"77 BALTUSROL WAY","SHORT HILLS","NJ","07078"
288339,"77 BASIN COVE","HARPSWELL","ME","04079"
288340,"77 BAY BRIDGE DR","GULF BREEZE","FL","32561"
288341,"77 BAYHEAD LN","OSPREY","FL","34229"
288342,"77 BEACON AVE","JERSEY CITY","NJ","07306"
288343,"77 BLOOM LANE","ROCKTON","PA","15856"
288344,"77 BOWEN LANE","CHERAW","SC","29520"
288345,"77 BOWLING VIEW ROAD","FRONT ROYAL","VA","22630"
288346,"77 BRENT STREET","MANCHESTER","NH","03103"
288347,"77 BROOK AVE","PASSAIC","NJ","07055"
288348,"77 BROWNS CREEK RD","RAVENDEN","AR","72459"
288349,"77 BUCKELEW STREET","SAUSALITO","CA","94965"
288350,"77 CHERRYVILLE STANTON ROAD","FLEMINGTON","NJ","08822"
288351,"77 CHURCH ST","BELFAST","ME","04915"
288352,"77 CONCORD AVENUE","HAMILTON","NJ","08619"
288353,"77 CONNOR LANE","LANCASTER","MA","01523"
288354,"77 CORNELL STREET SUITE 212","KINGSTON","NY","12401"
288355,"77 COURT STREET","DOVER FOXCROFT","ME","04426"
288356,"77 CRANDON BLVD APT 9D","KEY BISCAYNE","FL","33149"
288357,"77 DELANCEY STREET","NEW YORK","NY","10002"
288358,"77 DENNIS LEE ROAD","DENHAM SPRINGS","LA","70706"
288359,"77 DIXIE AVENUE","HAWTHORNE","NJ","07506"
288360,"77 DORCHESTER DRIVE","DALY CITY","CA","94015"
288361,"77 DOVER PKWY","STEWART MANOR","NY","11530"
288362,"77 DRIVING PARK AVENUE","LYNBROOK","NY","11563"
288363,"77 DUDLEY STREET","AKRON","OH","44305"
288364,"77 E CARLETON RD","HILLSDALE","MI","49242"
288365,"77 E COLUMBUS AVE SUITE 214","PHOENIX","AZ","85012"
288366,"77 E WALTON","CHICAGO","IL","60611"
288367,"77 EAST MISSOURI AVENUE SUITE 14","PHOENIX","AZ","85012"
288368,"77 EAST SOMERSET STREET","RARITAN","NJ","08869"
288369,"77 ELIOT STREET","ASHLAND","MA","01721"
288370,"77 ELM STREET SUITE 302","AMESBURY","MA","01913"
288371,"77 FAIRVIEW ST","BEECH CREEK","PA","16822"
288372,"77 FAWN RIDGE DRIVE","DECATUR","AL","35603"
288373,"77 FLORENCE STREET","CHESTNUT HILL","MA","02467"
288374,"77 FLORENCE STREET","ROSLINDALE","MA","02131"
288375,"77 FOSTERS CIRCLE","SHENANDOAH JUNCTION","WV","25442"
288376,"77 FRANKLIN ST","BARRE","VT","05641"
288377,"77 FULTON STREET","ATLANTA","GA","39312"
288378,"77 FULTON STREET","NEW YORK","NY","10038"
288379,"77 GARNER AVE","WALDORF","MD","20602"
288380,"77 GREENSBURG STREET SUITE H","DELMONT","PA","15626"
288381,"77 H APPY HOLLOW RD","GRANGEVILLE","ID","83530"
288382,"77 H ST NW APT 275","WASHINGTON","DC","20001"
288383,"77 H ST NW SUITE 234","WASHINGTON","DC","20001"
288384,"77 HALSEY RD","NEWTON","NJ","07860"
288385,"77 HALSEY ROAD","NEWTON","NJ","07860"
288386,"77 HELEN AVE","WARWICK","RI","02886"
288387,"77 HENSON","IRVINE","CA","92620"
288388,"77 HILLCREST RD","MOUNT VERNON","NY","10552"
288389,"77 HOOVER DR","CRESSKILL","NJ","07626"
288390,"77 INDIAN HEAD DRIVE","SAYVILLE","NY","11782"
288391,"77 JEFFERSON STREET","TIFFIN","OH","44883"
288392,"77 JODA DRIVE","LAKEWOOD","NJ","08701"
288393,"77 KENNEDY DRIVE","MALDEN","MA","02148"
288394,"77 LAKE ST","FLORENCE","MA","01062"
288395,"77 LAWRENCE RD","MERRIMACK","NH","03054"
288396,"77 LEEDHAM ST","ATTLEBORO","MA","02703"
288397,"77 LEROY AVE","CLAWSON","MI","48017"
288398,"77 LISA DRIVE","NEWARK","DE","19702"
288399,"77 MACK WALTERS RD STE 102","SHELBYVILLE","KY","40065"
288400,"77 MAIN STREET","NYACK","NY","10960"
288401,"77 MANOR LN","HIDDENITE","NC","28636"
288402,"77 MASSACHUSETTS AVE 35-327","CAMBRIDGE","MA","02139"
288403,"77 MASSACHUSETTS AVE W92-220","CAMBRIDGE","MA","02139"
288404,"77 MENDON STREET","UXBRIDGE","MA","01569"
288405,"77 MILL STREET","GAHANNA","OH","43230"
288406,"77 MOUNTAIN ROAD","CORNWALL-ON-HUDSON","NY","12520"
288407,"77 MOUNTAIN VALLEY STREET","OAKLAND","CA","94605"
288408,"77 N STATE ROUTE MP 21 BOX 3034","INDIAN WELLS","AZ","86031"
288409,"77 NE KNOTT ST","PORTLAND","OR","97212"
288410,"77 NE MORRIS STREET","PORTLAND","OR","97212"
288411,"77 NEW YORK AVENUE","BROOKLYN","NY","11216"
288412,"77 NORTH 14TH STREET","EAST  ORANGE","NJ","07017"
288413,"77 NORTH ANN STREET","LITTLE FALLS","NY","13365"
288414,"77 NORTH CENTRAL HIGH ROAD","UNION CITY","TN","38261"
288415,"77 NORTH CENTRE AVE SUITE 314","ROCKVILLE CENTRE","NY","11570"
288416,"77 NORTH KENTUCKY ST","DANVILLE","IN","46122"
288417,"77 NORTH WASHINGTON STREET 3RD FL","BOSTON","MA","02114"
288418,"77 NORTHERN BOULEVARD","GERMANTOWN","NY","12526"
288419,"77 OAK FOREST LOOP","MAUMELLE","AR","72113"
288420,"77 PARADISE RDG","MARSHALL","NC","28753"
288421,"77 PERSHING AVE","BUFFALO","NY","14211"
288422,"77 PIERSON LANE UNIT E","WINDSOR","CT","06095"
288423,"77 PINEVALE ST","INDIAN ORCHARD","MA","01151"
288424,"77 PIPETOWN HILL RD","NANUET","NY","10954"
288425,"77 POND AVE APT C204","BROOKLINE","MA","02445"
288426,"77 PONY RIDGE ROAD","BASSETT","VA","24055"
288427,"77 PROSPECT STREET","PATERSON","NJ","07505"
288428,"77 PROVIDENT PLACE","DOUGLASVILLE","GA","30134"
288429,"77 RANDOLPH PL","WEST ORANGE","NJ","07052"
288430,"77 RANDOLPH PLACE","WEST ORANGE","NJ","07052"
288431,"77 REDDER AVENUE","DAYTON","OH","45405"
288432,"77 RIDEOUT AVE APT 15-5","LEWISTON","ME","04240"
288433,"77 RIDGE ROAD","LONGMEADOW","MA","01106"
288434,"77 RIDGEVIEW AVENUE","BOSTON","MA","02126"
288435,"77 ROCO TRL","TRAVELERS REST","SC","29690"
288436,"77 ROSALIND CIRCLE","SICKLERVILLE","NJ","08081"
288437,"77 RT 232","WOODSTOCK","ME","04219"
288438,"77 RUSSELL STREET","MALDEN","MA","02148"
288439,"77 S OAKBRIDGE CT","MADISON","WI","53717"
288440,"77 SADDLE BACK ROAD","ROLLING HILLS","CA","90724"
288441,"77 SADDLEBACK ROAD","ROLLING HILLS","CA","90274"
288442,"77 SHERMAN STREET","HARTFORD","CT","06105"
288443,"77 SOLANO SQUARE STE 158","BENICIA","CA","94510"
288444,"77 SOUTH STREET APT 8","FREEHOLD","NJ","07728"
288445,"77 SPRUCE STREET SUITE 201","CEDARHURST","NY","11516"
288446,"77 SPRUCE STREET","BLOOMFIELD","NJ","07003"
288447,"77 STOCKER ROAD","ESSEX FELLS","NJ","07021"
288448,"77 STONE LANE","LEVITTOWN","NY","11756"
288449,"77 SUGAR CREEK CENTER SUITE 600","SUGAR LAND","TX","77478"
288450,"77 SULLIVAN PLACE APT- 2B","BROOKLYN","NY","11225"
288451,"77 SUMMERFIELD DRIVE","ANNAPOLIS","MD","21403"
288452,"77 SUNSHINE DRIVE","WHITE HAVEN","PA","18661"
288453,"77 TERI LANE","LITTLE HOCKING","OH","45742"
288454,"77 TYRON STREET","S GLASTONBURY","CT","06073"
288455,"77 UNDERHILL AVE APT 2B","BROOKLYN","NY","11238"
288456,"77 VAN NESS AVE STE 101 BOX 1736","SAN FRANCISCO","CA","94102"
288457,"77 VAN NESS AVE STE 101-1022","SAN FRANCISCO","CA","94102"
288458,"77 VAN NESS AVE STE 1111","SAN FRANCISCO","CA","94102"
288459,"77 VAN NESS AVENUE PMB 1605 STE 101","SAN FRANCISCO","CA","94102"
288460,"77 VELINA DRIVE","ALBANY","NY","12203"
288461,"77 W 11TH ST","HOLLAND","MI","49423"
288462,"77 W CHICAGO STE 9","CHANDLER","AZ","85225"
288463,"77 W FAIRMONT AVE STE C","SAVANNAH","GA","31406"
288464,"77 W MAIN STREET","MT JEWETT","PA","16740"
288465,"77 W VFW RD","CHEBOYGAN","MI","49721"
288466,"77 W WASHINGTON ST STE 1413","CHICAGO","IL","60602"
288467,"77 WALNUT ST - APT 2","PORTLAND","ME","04101"
288468,"77 WARREN STREET BUILDING 2","BRIGHTON","MA","02135"
288469,"77 WASHINGTON HWY","AMHERST","NY","14226"
288470,"77 WASHINGTON ST","ROCKVILLE","MD","20850"
288471,"77 WATER ROW","SUDBURY","MA","01776"
288472,"77 WEST 600 NORTH","LINDON","UT","84042"
288473,"77 WEST WASHINGTON STREET ROOM 711","CHICAGO","IL","60602"
288474,"77 WEST WASHINGTON SUITE 711","CHICAGO","IL","60602"
288475,"77 WEXFORD LANE","GREAT FALLS","MT","59404"
288476,"77 WILLIAM DR","CLYDE","FL","28721"
288477,"77-10 95 AVE","OZONE PARK","NY","11416"
288478,"77-172 KOAKOA ST","KAILUA KONA","HI","96740"
288479,"77-6425 KUAKINI HWY C2-25","KAILUA KONA","HI","96740"
288480,"77-6425 KUAKINI HWY STE C2-81","KAILUA KONA","HI","96740"
288481,"77","DALLAS","GA","30157"
288482,"77","PORTSMOUTH","RI","02871"
288483,"770 AMSTERDAM AVE  APT 5N","NEW YORK","NY","10025"
288484,"770 AUTUMN VALLEY DR","OFALLON","MO","63366"
288485,"770 BAYLOR DR","SANTA CLARA","CA","95051"
288486,"770 BLANCHARD WAY","SUNNYVALE","CA","94087"
288487,"770 BROOKSIDE DRIVE","EUGENE","OR","97405"
288488,"770 BUCKSNORT","COVINGTON","TN","38017"
288489,"770 CENTRE STREET","NEWTON","MA","02458"
288490,"770 CHEMEKETA ST NE","SALEM","OR","97301"
288491,"770 CLAUGHTON ISLAND DR STE 2103","MIAMI","FL","33131"
288492,"770 CLAUGHTON ISLAND DRIVE 1106","MIAMI","FL","33133"
288493,"770 CLYMER HILL RD","ELVERSON","PA","19520"
288494,"770 COTE HILL ROAD","MORRISVILLE","VT","05661"
288495,"770 COUNTY ROAD 284","LIBERTY HILL","TX","78642"
288496,"770 DURANGO DRIVE","TOLEDO","OH","43609"
288497,"770 E 221ST STREET 4B","BRONX","NY","10467"
288498,"770 E PARKVIEW STREET","BOLIVAR","MO","65613"
288499,"770 EAST AVENUE","LOCKPORT","NY","14094"
288500,"770 EMPIRE BLVD UNIT 4F","BROOKLYN","NY","11213"
