"ID","Address","City","State","Zip"
223501,"4795 EUREKA ROAD","BATESVILLE","MS","38606"
223502,"4795 FOXBERRY DRIVE","MEDINA","MN","55340"
223503,"4795 MAGNOLIA AVE","RIVERSIDE","CA","92506"
223504,"4795 RIVEREDGE COVE","SNELLVILLE","GA","30039"
223505,"4795 SUMMERLANE","MEMPHIS","TN","38118"
223506,"4796 ANDOREA DRIVE","MAYSLANDING","NJ","08330"
223507,"4796 BEAU POINT COURT","SNELLVILLE","GA","30039"
223508,"4796 GWYNNE ROAD","MEMPHIS","TN","38117"
223509,"4796 SOUTH RIVER MEADOW WAY","TAYLORSVILLE","UT","84123"
223510,"4797 10H STREET","BOULDER","CO","80304"
223511,"4797 ARBOR CT S","FARGO","ND","58104"
223512,"4797 COUNTY ROAD 862","MCKINNEY","TX","75071"
223513,"4797 PERSIMMON ROAD","CLAYTON","GA","30525"
223514,"4797 SHARON COPLEY ROAD","MEDINA","OH","44256"
223515,"4797 STONEWOOD DRIVE","FAIRFIELD","CA","94534"
223516,"4798 CAINS WREN TRAIL","SANFORD","FL","32771"
223517,"4798 FLAT SHOALS PKWY","DECATUR","GA","30034"
223518,"4798 HARBOR BLV","COLUMBUS","OH","43232"
223519,"4798 N KITTYHAWK AVE","SANGER","CA","93657"
223520,"4798 RAVENSWOOD","GRANDVILLE","MI","49418"
223521,"4798 RIDGE WALK LANE","MEMPHIS","TN","38125"
223522,"4798 S FLORIDA AVENUE  NO 123","LAKELAND","FL","33813"
223523,"4798 SOUTH FLORIDA AVE BOX 307","LAKELAND","FL","33813"
223524,"4798 WENMAR DRIVE","SAGINAW","MI","48604"
223525,"4799 EAST 176TH STREET","CLEVELAND","OH","44128"
223526,"4799 KELLY ROAD","WOODRIDGE","VA","22193"
223527,"4799 NW 4TH AVE","BOCA RATON","FL","33431"
223528,"47A ELM STREET","SALISBURY","MA","01952"
223529,"47W085 MAIN STREET ROAD","ELBURN","IL","60119"
223530,"48 14TH STREET","WHEELING","WV","26003"
223531,"48 16TH STREET","FALL RIVER","MA","02723"
223532,"48 2ND ST","PARK RIDGE","NJ","07656"
223533,"48 AARON DR","BELLEVILLE","IL","62220"
223534,"48 ALEXANDER STREET","CHARLESTON","SC","29401"
223535,"48 ALFRED STREET SUITE 205","BIDDEFORD","ME","04005"
223536,"48 ANNAPOLIS DRIVE","SICKLERVILLE","NJ","08081"
223537,"48 ARDEN STREET","HOLYOKE","MA","01040"
223538,"48 ARDMORE HWY","FAYETTEVILLE","TN","37334"
223539,"48 ASHLEY RD","WINDSOR","CT","06095"
223540,"48 AUGUSTA DRIVE","MEDFORD","NY","11763"
223541,"48 B SOUTH STREET","WILSON CITY","MO","63882"
223542,"48 BAY AVENUE","HANCOCK","ME","04640"
223543,"48 BENEDICT BOULEVARD","ELMIRA","NY","14903"
223544,"48 BENJAMIN RUSH LN","PRINCETON","NJ","08540"
223545,"48 BENTLY LN","WILLINGBORO","NJ","08046"
223546,"48 BI STATE PLAZA PMB 384","OLD TAPPAN","NJ","07675"
223547,"48 BIDLACK STREET","FORTY FORT","PA","18704"
223548,"48 BINGHAM ROAD","CARLISLE","MA","01741"
223549,"48 BIRCH RD","AMITYVILLE","NY","11701"
223550,"48 BITTERSWEET DR","DOYLESTOWN","PA","18901"
223551,"48 BLUE SPRUCE CIR","CLAYTON","NC","27527"
223552,"48 BRIDLE BROOK LANE","NEWARK","DE","19711"
223553,"48 BROAD AVE","TRENTON","NJ","08618"
223554,"48 CAMBRIDGE DRIVE","GREENWICH","CT","06831"
223555,"48 CAMDEN CIRCLE APT 206","SCOTT DEPOT","WV","25560"
223556,"48 CARMELITA AVENUE","MILL VALLEY","CA","94941"
223557,"48 CAROL ST","WEST HEMPSTEAD","NY","11552"
223558,"48 CARPENTER STREET","RED BANK","NJ","07701"
223559,"48 CEDAR ST","COVENTRY","RI","02816"
223560,"48 CHRISTIAN LANE","NEWINGTON","CT","06111"
223561,"48 CONCH REEF","ALISO VIEJO","CA","92656"
223562,"48 CONCORD ST","MAYNARD","MA","01754"
223563,"48 CORTLANDT STREET","RICHMOND","NY","10302"
223564,"48 CORTLANDT STREET","STATEN ISLAND","NY","10302"
223565,"48 CRANFORD BLVD","MASTIC","NY","11950"
223566,"48 CRESENT PLACE","BRIDEPORT","CT","06608"
223567,"48 CROSBY STREET","QUINCY","MA","02169"
223568,"48 DICKINSON AVE","BINGHAMTON","NY","13901"
223569,"48 DISALVO PLACE","APOPKA","FL","32704"
223570,"48 DONLEY ST SUITE 800","MORGANTOWN","WV","26501"
223571,"48 DONLEY STREET SUITE 800","MORGANTOWN","WV","26501"
223572,"48 DORRIS AVE","BUFFALO","NY","14215"
223573,"48 DRAWBRIDGE CT","SACRAMENTO","CA","95833"
223574,"48 DREAM LAKE RD","LAKE GEORGE","NY","12845"
223575,"48 DURHAM ROAD","SAN ANSELMO","CA","94960"
223576,"48 E FLAGLER STREET PENTHOUSE 101","MIAMI","FL","33131"
223577,"48 E MANKATO ST","CHULA VISTA","CA","91910"
223578,"48 EAST 51ST STREET","BROOKLYN","NY","11203"
223579,"48 EAST MCCULLEY COURT","WILMINGTON","DE","19801"
223580,"48 EAST WINTONBURY AVE","BLOOMFIELD","CT","06002"
223581,"48 EDDINGTON LN","MONROE","NJ","08831"
223582,"48 EDISON LANE","WILLINGBORO","NJ","80846"
223583,"48 ELMWOOD AVENUE","IRVINGTON","NJ","07111"
223584,"48 EVRON CT","LAKE SAINT LOUIS","MO","63367"
223585,"48 FAIRWAY AVE","WEST ORANGE","NJ","07052"
223586,"48 FALLS RD","NORTH EAST","MD","21901"
223587,"48 FALMOUTH ST","BELMONT","MA","02478"
223588,"48 FOREST AVE","MASSAPEQUA","NY","11758"
223589,"48 FOREST AVE","SAUGUS","MA","01906"
223590,"48 FORSTER ROAD","MANCHESTER","MA","01944"
223591,"48 FRONT STREET","BEREA","OH","44017"
223592,"48 GAINSBOROUGH RD","SCARSDALE","NY","10583"
223593,"48 GIRARD AVE","HARTFORD","CT","06105"
223594,"48 GLENVILLE AVENUE SUITE 8","ALLSTON","MA","02134"
223595,"48 GODFREY LANE","FREMONT","NH","03044"
223596,"48 GOLDENROD STREET","MCCONNELL","WV","25646"
223597,"48 GRANT AVENUE","EAST HANOVER","NJ","07936"
223598,"48 GREENWOOD DR","TURNERSVILLE","NJ","08012"
223599,"48 GROVELAND STREET","MATTAPAN","MA","02126"
223600,"48 HAMILTON LANE","OLD CHATHAM","NY","12136"
223601,"48 HAMPTON GLEN PARKWAY","HAMPTON","VA","23669"
223602,"48 HARDING STREET","MILFORD","MA","01757"
223603,"48 HAZELWOOD AVENUE","BRIDGEPORT","CT","06605"
223604,"48 HENDERSON STREET SW","MARIETTA","GA","30064"
223605,"48 HENRIETTA","SAINT LOUIS","MO","63104"
223606,"48 HIDING PLACE RD","LIBBY","MT","59923"
223607,"48 HIGH STREET APT 23","CLINTON","MA","01510"
223608,"48 HIGH STREET","SOUTHAMPTON","MA","01073"
223609,"48 HIGHLAND STREET","SHARON","MA","02067"
223610,"48 HILLCREST DRIVE","BERNARDSTON","MA","01337"
223611,"48 HURON ST","ALBANY","NY","12203"
223612,"48 INDIGO RD","LEVITTOWN","PA","19057"
223613,"48 ISLAND AVENUE","RAMSEY","NJ","07446"
223614,"48 JEFFERSON AVE","SHORT HILLS","NJ","07078"
223615,"48 JOHN STREET","BROOKLYN","NY","11201"
223616,"48 JUNIPER DRIVE","GOFFSTOWN","NH","03045"
223617,"48 JUNIPER HILL DRIVE","SOMERS","CT","06071"
223618,"48 KEMI LANE","SAYVILLE","NY","11782"
223619,"48 KENOSHA MOUNTAIN DRIVE","LIVERMORE","CO","80536"
223620,"48 KIMBERLY COURT","MONMOUTH JUNCTION","NJ","08852"
223621,"48 KINGSTON RD","NEWTON","MA","02461"
223622,"48 KRISTEN MEADOWS","EAST AMHERST","NY","14051"
223623,"48 LANGDON DR","PALM COAST","FL","32136"
223624,"48 LAREDO COURT","IOWA CITY","IA","52246"
223625,"48 LEXINGTON CT","RICHMOND HILL","GA","31324"
223626,"48 LINCOLN AVENUE","ISLIP TERRACE","NY","11752"
223627,"48 LONG HILL ROAD","NEW VERNON","NJ","07976"
223628,"48 LONGSHORE STREET","BAY SHORE","NY","11706"
223629,"48 MACON STREET 1","BROOKLYN","NY","11216"
223630,"48 MAIN STREET","WHITESBURG","KY","41858"
223631,"48 MALUNIU ST","KAILUA","HI","96734"
223632,"48 MANOR STREET","BAKERSFIELD","CA","93308"
223633,"48 MARINER WAY","MONSEY","NY","10952"
223634,"48 MARIO DRIVE","DAYTON","OH","45426"
223635,"48 MARION STREET","MEDFORD","MA","02155"
223636,"48 MASE ROAD","LK HOPATCONG","NJ","07849"
223637,"48 MASON DR","COLUMBUS","GA","31903"
223638,"48 MILFORD STREET  FLOOR 2","HARTFORD","CT","06112"
223639,"48 MONTE ST","JACKSONVILLE","FL","32254"
223640,"48 MORRELL ST","WEST ROXBURY","MA","02132"
223641,"48 N 4TH ST","ZANESVILLE","OH","43701"
223642,"48 N FORTY RD","WOODBURY","CT","06798"
223643,"48 N KIRKMAN RD ST 6","ORLANDO","FL","32811"
223644,"48 N OXFORD RD","SPRINGFIELD","IL","62702"
223645,"48 N WHITCOMB AVE","INDIANAPOLIS","IN","46224"
223646,"48 NARRATICON DRIVE","SWEDESORO","NJ","08085"
223647,"48 NORMAN PL","TENAFLY","NJ","07670"
223648,"48 NORTH FOURTH STREET","EASTON","PA","18042"
223649,"48 OKLAHOMA STATE DRIVE","NEWARK","DE","19713"
223650,"48 OVAL TURN LANE","LEVITTOWN","PA","19055"
223651,"48 OWEN STREET","FORTY FORT","PA","18704"
223652,"48 PHEASANT MEADOW DR","GALLOWAY","NJ","08205"
223653,"48 PINE KNOLL ROAD","LENOX","MA","01240"
223654,"48 PIONEER TRAIL","HANNIBAL","MO","63401"
223655,"48 PIONEER TRL","HANNIBAL","MO","63401"
223656,"48 POINT WEST CIRCLE","LITTLE ROCK","AR","72211"
223657,"48 POINTE ROK DRIVE","WORCESTER","MA","01604"
223658,"48 POODUCK ROAD","BROOKLIN","ME","04616"
223659,"48 POWDERVIEW COURT","NOTTINGHAM","MD","21236"
223660,"48 PRICHARD AVENUE","SOMERVILLE","MA","02144"
223661,"48 RED ROBIN TURN","HAMPTON","VA","23669"
223662,"48 RICHARD MINE ROAD","WHARTON","NJ","07885"
223663,"48 RIDGE DR APT 106","FAIRFIELD","OH","45014"
223664,"48 RIDGE ROAD","WESTMINSTER","MD","21157"
223665,"48 RIVERS RUN WAY","OAK RIDGE","TN","37830"
223666,"48 RIVERSIDE ROAD","WATSONVILLE","CA","95076"
223667,"48 ROBBINS DR","WETHERSFIELD","CT","06109"
223668,"48 RODERICK AVE","STATEN ISLAND","NY","10305"
223669,"48 ROLLING ACRES DRDIVE","CUMBERLAND","RI","02864"
223670,"48 ROOSEVELT AVENUE","WEST BRIDGEWATER","MA","02379"
223671,"48 ROSSINOFF PLACE","BRIDGEPORT","CT","06606"
223672,"48 S 300 W","PROVO","UT","84601"
223673,"48 S PURCELL AVENUE","WINCHESTER","VA","22601"
223674,"48 SANDALWOOD DRIVE","ATTLEBORO","MA","02703"
223675,"48 SARLES LANE","PLEASANTVILLE","NY","10570"
223676,"48 SCHOOL STREET","MIDDLEBORO","MA","02346"
223677,"48 SHADYLAWN DRIVE","MADISON","NJ","07940"
223678,"48 SHANNON ST APT 2","BOSTON","MA","02135"
223679,"48 SHERIDAN STREET NE","WASHINGTON","DC","20011"
223680,"48 SNOW STREET","CONCORD","NH","03303"
223681,"48 SOUTH FRANKLIN TURNPIKE","RAMSEY","NJ","07446"
223682,"48 SOUTH HIGH STREET SUITE B","DUBLIN","OH","43017"
223683,"48 SOUTH NEW YORK ROAD","GALLOWAY TOWNSHIP","NJ","08205"
223684,"48 SPERRY ROAD","WATERTOWN","CT","06795"
223685,"48 SPRING LAKE BLVD","WARETOWN","NJ","08758"
223686,"48 SPRUCE ST APT 2","SANFORD","ME","04073"
223687,"48 SQUIRE ST","NEW LONDON","CT","06320"
223688,"48 STAGE RD","WESTHAMPTON","MA","01027"
223689,"48 STATE HOUSE STATION","AUGUSTA","ME","04333"
223690,"48 STONEHURST LANE","DIX HILLS","NY","11746"
223691,"48 SUMMER ST","PLYMOUTH","MA","02360"
223692,"48 SUNSET DR","HUTCHINSON","KS","67502"
223693,"48 SUNSET DRIVE","HUTCHINSON","KS","67502"
223694,"48 SUNSET ROAD","POMPTON PLAINS","NJ","07444"
223695,"48 TALMADGE COURT","ASHEVILLE","NC","28806"
223696,"48 TAMARACK HILL DR","POUGHKEEPSIE","NY","12603"
223697,"48 THE GLEN","GLEN HEAD","NY","11545"
223698,"48 TOWLE PASTURE DRIVE","EPSOM","NH","03234"
223699,"48 TRADING POST LN","LANCASTER","PA","17602"
223700,"48 TROY DRIVE APT A","SPRINGFIELD","NJ","07081"
223701,"48 UNION ST STE 1C","STAMFORD","CT","06906"
223702,"48 UNION ST STE BLD 2","STAMFORD","CT","06906"
223703,"48 VINEYARD AVE PO BOX 325","OAK BLUFFS","MA","02557"
223704,"48 VIOLET LN","DALLAS","GA","30132"
223705,"48 W 138TH ST APT 3I","NEW YORK","NY","10037"
223706,"48 W 600 S","JEROME","ID","83338"
223707,"48 W BROADWAY 2005","SALT LAKE CITY","UT","84101"
223708,"48 W BROADWAY","PLYMOUTH","OH","44865"
223709,"48 W THIRD STREET","WILLIAMSPORT","PA","17701"
223710,"48 WALL ST 11TH FL","NEW YORK","NY","10005"
223711,"48 WALL STREET","NEW YORK","NY","10005"
223712,"48 WATERMAN AVE","RUMSON","NJ","07760"
223713,"48 WEST 105TH STREET 1A","NEW YORK","NY","10025"
223714,"48 WEST 21ST STREET FL 8","NEW YORK","NY","10010"
223715,"48 WEST CLINTON AVE","ROOSEVELT","NY","11575"
223716,"48 WEST HIGH STREET","WAYNESBURG","PA","15370"
223717,"48 WEST MAIN STREET","PENNS GROVE","NJ","08069"
223718,"48 WEST WINDSOR DRIVE","LITTLE ROCK","AR","72209"
223719,"48 WESTSIDE COURT","SALEM","NJ","08079"
223720,"48 WETSTONE","IRVINE","CA","92604"
223721,"48 WEYBOSSET","PROVIDENCE","RI","02903"
223722,"48 WHITE OAK DRIVE","NATCHEZ","MS","39120"
223723,"48 WILDWOOD DRIVE","SOUTHBOROUGH","MA","01772"
223724,"48 WINTER ST SUITE 4F","BOSTON","MA","02108"
223725,"48 WOOD FARM LANE","NORTH EAST","MD","21901"
223726,"48-1 REVERE RD","DREXEL HILL","PA","19026"
223727,"48-609 CALLE ESPERANZA","LA QUINTA","CA","92253"
223728,"480 23RD AVE N","ST PETERSBURG","FL","33704"
223729,"480 AMETHYST AVE","AUBURNDALE","FL","33823"
223730,"480 ARDEN CIRCLE","SHOREVIEW","MN","55126"
223731,"480 ARTESIAN WAY","WAUSAU","WI","54401"
223732,"480 BEACH 43RD STREET","FAR ROCKAWAY","NY","11691"
223733,"480 BEDFORD AVE","BROOKLYN","NY","11211"
223734,"480 BISON DR","BOULDER","CO","80302"
223735,"480 BLAIRWOOD CT","SPARTANBURG","SC","29303"
223736,"480 BROADWAY STREET","ROCHESTER","NY","14607"
223737,"480 CALLE DEL NORTE","BERNALILLO","NM","87004"
223738,"480 CHURCH RD","AVONDALE","PA","19311"
223739,"480 COLLEGE STREET","MOORESVILLE","NC","28115"
223740,"480 COURTRIGHT DR","PICKERINGTON","OH","43417"
223741,"480 DILLINGHAM CIRCLE","ASHEVILLE","NC","28805"
223742,"480 DR MARTIN LUTHER KING JR STREET","SAFETY HARBOR","FL","34695"
223743,"480 DREXEL LANE","LERONA","WV","25971"
223744,"480 E MARKET STEET","WARREN","OH","44481"
223745,"480 ELIOT STREET","MILTON","MA","02186"
223746,"480 HUNTERS HILL DR","CHESTERFIELD","MO","63017"
223747,"480 HWY 347","BIISMARCK","AR","71929"
223748,"480 ISLAND HOUSE PATH","THE VILLAGES","FL","32163"
223749,"480 JEFFERSON DR UNITE 104","DEERFIELD BEACH","FL","33442"
223750,"480 KELLEY LN SW","CLEVELAND","TN","37311"
223751,"480 KNICKERBOCKER AVENUE","BROOKLYN","NY","11237"
223752,"480 LA CUESTA DRIVE","SCOTTS VALLY","CA","95066"
223753,"480 LANGFORD RD","BLYTHEWOOD","SC","29016"
223754,"480 LEHMAN AVE APT 301","BOWLING GREEN","OH","43402"
223755,"480 LEXINGTON RD STE 12 BOX 187","VERSAILLES","KY","40383"
223756,"480 LONESTAR DR","ODESSA","TX","79766"
223757,"480 LUELLA ROAD","LOCUST GROVE","GA","30248"
223758,"480 MCBRIDE AVENUE","PATERSON","NJ","07502"
223759,"480 N CANAL ST","SOUTH SAN FRANCISCO","CA","94080"
223760,"480 N CANTON CENTER RD STE 871043","CANTON","MI","48187"
223761,"480 N CANTON CENTER RD SUITE 871851","CANTON","MI","48187"
223762,"480 N COUNTY HIGHWAY 393","SANTA ROSA BEACH","FL","32459"
223763,"480 N MAIN STORE","WOODSTOCK","VA","22664"
223764,"480 N SAN JACINTO AVE","SAN JACINTO","CA","92583"
223765,"480 NEW HOLLAND AVE SUITE 8202","LANCASTER","PA","17602"
223766,"480 NEW HOLLAND AVENUE APT 7304","LANCASTER","PA","17602"
223767,"480 NEW HOLLAND AVENUE SUITE 6205","LANCASTER","PA","17602"
223768,"480 NEW HOLLAND AVENUE- SUITE 6204","LANCASTER","PA","17602"
223769,"480 NICKMAN STREET","CHULA VISTA","CA","91911"
223770,"480 NORTH COUNTRY WAY DRIVE","CORDOVA","TN","38018"
223771,"480 NORTH HEWITT RD","YPSILANTI","MI","48197"
223772,"480 NOVA DRIVE SE","MASSILLON","OH","44646"
223773,"480 NW 90TH ST","EL PORTAL","FL","33150"
223774,"480 NW TORK PLACE","HILLSBORO","OR","97006"
223775,"480 OCEAN BLVD 5K","LONG BRANCH","NJ","07740"
223776,"480 OLD STONE RD","RIDGEWOOD","NJ","07450"
223777,"480 OLD STONE ROAD","RIDGEWOOD","NJ","07450"
223778,"480 OLD TURNPIKE ROAD","BANNER ELK","NC","28604"
223779,"480 OTIS AVE","SAINT PAUL","MN","55104"
223780,"480 PARK A VENUE APARTMENT 20H","NEW YORK","NY","10022"
223781,"480 PARKWAY DRIVE","BATTLE CREEK","MI","49037"
223782,"480 PEACHTREE LANE","BOWLING GREEN","KY","42103"
223783,"480 PENHOW CIRCLE","SACRAMENTO","CA","95834"
223784,"480 PINE AVE","LONG BEACH","CA","90802"
223785,"480 REDWOOD STREET SUITE 14","VALLEJO","CA","94590"
223786,"480 RIO COMMUNITIES BLVD BOX 3","RIO COMMUNITIES","NM","87002"
223787,"480 RIVER ST PO BOX 20","BELLEVILLE","WI","53508"
223788,"480 ROSEDALE ROAD","DONIPHAN","NE","68832"
223789,"480 S 3RD ST SUITE 44","COLUMBUS","OH","43215"
223790,"480 S BODMER AVE","STRASBURG","OH","44680"
223791,"480 S COMMERCE AVENUE SUITE F","FRONT ROYAL","VA","22630"
223792,"480 S PARK BLVD","GLEN ELLYN","IL","60137"
223793,"480 S RONALD REAGAN BLVD SUITE 1020","LONGWOOD","FL","32750"
223794,"480 SOUTH MAIN STREET","BRADFORD","MA","01835"
223795,"480 SOUTH PARK STREET","DETROIT","MI","48215"
223796,"480 ST NICHOLAS AVENUE UNIT 15D","NEW YORK","NY","10030"
223797,"480 ST PAUL AVE","FARIBAULT","MN","55021"
223798,"480 STAFFORD AVE","SYRACUSE","NY","13206"
223799,"480 STERLING HILL DR","LAWRENCEVILLE","GA","30046"
223800,"480 STONEWALL LANE","QUICKSBURG","VA","22847"
223801,"480 STONEY BROOK","KERRVILLE","TX","78028"
223802,"480 SW 102 WAY  UNIT 101","PEMBROKE PINES","FL","33025"
223803,"480 SW REMINGTON CT","LAKE CITY","FL","32024"
223804,"480 TANGENT STREET","LEBANON","OR","97355"
223805,"480 TOYON AVENUE SUITE 214","SAN JOSE","CA","95127"
223806,"480 TREASURE LAKE","DUBOIS","PA","15801"
223807,"480 UNDERWOOD AVE","MONTELLO","WI","53949"
223808,"480 W 187TH ST APT 5C","NEW YORK","NY","10033"
223809,"480 W BROOKS RD","MEMPHIS","TN","38109"
223810,"480 W CARMEN ST","TEMPE","AZ","85283"
223811,"480 W HONEY CREEK DRIVE","TERRE HAUTE","IN","47802"
223812,"480 W RIVERSIDE DRIVE","BURBANK","CA","91506"
223813,"480 WAYSIDE DRIVE","WINSTON SALEM","NC","27107"
223814,"480 WEST 580 NORTH","CRAWFORDSVILLE","IN","47933"
223815,"480 WEST 78TH STREET SUITE 114","CHANHASSEN","MN","55317"
223816,"480 WEST APPLE STREET","RINGTOWN","PA","17967"
223817,"480 WEST TOWN ST","COLUMBUS","OH","43215"
223818,"480 WESTGATE ST","PASADENA","CA","91103"
223819,"480 WILLIAM AVE E","DASSEL","MN","55325"
223820,"480 WOLCOTT STREET","BRISTOL","CT","06010"
223821,"480 YAKIMA RIVER DR","ELLENSBURG","WA","98926"
223822,"4800 28TH STREET","BOULDER","CO","80301"
223823,"4800 3RD ST UNIT 404","SAN FRANCISCO","CA","94124"
223824,"4800 ALPINE PLACE SUITE 12","LAS VEGAS","NV","89107"
223825,"4800 ARKANSAS AVE NW","WASHINGTON","DC","20011"
223826,"4800 AUBURN AVE SUITE 1606","BETHESDA","MD","20814"
223827,"4800 AUBURN FOLSOM ROAD SPACE 31","LOOMIS","CA","95650"
223828,"4800 BASS POINT ROAD","ORLANDO","FL","32820"
223829,"4800 BOARDWALK 1610","VENTNOR","NJ","08406"
223830,"4800 BRIDLE POINT PKWY","SNELLVILLE","GA","30039"
223831,"4800 CANDACRAIG","ALPHARETTA","GA","30022"
223832,"4800 CHEF MENTEUR HWY","NEW ORLEANS","LA","70126"
223833,"4800 COCHRAN ROAD","ATLANTA","GA","30349"
223834,"4800 CONVICT HILL RD","AUSTIN","TX","78749"
223835,"4800 DOLPHIN RD","DALLAS","TX","75223"
223836,"4800 DOUGLAS DRIVE NORTH","CRYSTAL","MN","55429"
223837,"4800 E 27TH ST PO BOX 270371","KANSAS CITY","MO","64127"
223838,"4800 E DOUBLETREE RANCH RD","PARADISE VALLEY","AZ","85253"
223839,"4800 ELDER STREET","MOSS POINT","MS","39563"
223840,"4800 ELMHURST","DETROIT","MI","48204"
223841,"4800 EXPRESS DR 19769","CHARLOTTE","NC","28208"
223842,"4800 FRICH DRIVE","PITTSBURGH","PA","15227"
223843,"4800 GLENWAY AVE","CINCINNATI","OH","45238"
223844,"4800 HAMPDEN LANE SUITE 200","BETHESDA","MD","20814"
223845,"4800 ISLAND VIEW ST","OXNARD","CA","93035"
223846,"4800 JACK C HAYS TRAIL","BUDA","TX","78610"
223847,"4800 JACK C HAYS TRL","BUDA","TX","78610"
223848,"4800 KENNETH COLE ROAD","VANCLEAVE","MS","39565"
223849,"4800 LABAN ROAD NE","RIO RANCHO","NM","87144"
223850,"4800 LEO BINGO CT","NEW WASHOE CITY","NV","89704"
223851,"4800 LEXINGTON AVE","BELTSVILLE","MD","20705"
223852,"4800 LINTON BLVD SUITE D503","DELRAY BEACH","FL","33445"
223853,"4800 MCADORY SCHOOL ROAD","MCCALLA","AL","35111"
223854,"4800 MEADE STREET NE","WASHINGTON","DC","20019"
223855,"4800 N 22ND STREET","PHOENIX","AZ","85016"
223856,"4800 N ARDMORE AVENUE","WHITEFISH BAY","WI","53217"
223857,"4800 N CAREER AVE SUITE 225","SIOUX FALLS","SD","57107"
223858,"4800 N DAVIS HIGHWAY","PENSACOLA","FL","32503"
223859,"4800 N DIXIE DR","DAYTON","OH","45414"
223860,"4800 NANNIE HELEN BURROUGHS NE 303","WASHINGTON","DC","20019"
223861,"4800 NATURAL BRIDGE","ST LOUIS","MO","63115"
223862,"4800 NEW HARTFORD ROAD","OWENSBORO","KY","42303"
223863,"4800 NORTH KENMORE AVENUE UNIT 3","CHICAGO","IL","60640"
223864,"4800 NW 15TH AVENUE SUITE B","FORT LAUDERDALE","FL","33309"
223865,"4800 OLD CHAPEL HILL ROAD","DURHAM","NC","27707"
223866,"4800 OLD STATE ROAD","NATIONAL CITY","MI","48748"
223867,"4800 OLDE MILL POND PLACE","GLEN ALLEN","VA","23060"
223868,"4800 PALUXY DR APT 117","TYLER","TX","75703"
223869,"4800 PARK AVE","MEMPHIS","TN","38117"
223870,"4800 PATMORE ASH DRIVE","LOVELAND","CO","80538"
223871,"4800 PINE ST","COCOA","FL","32926"
223872,"4800 PRINTERS WAY APT 4043","FRISCO","TX","75033"
223873,"4800 RILEY FUZZEL","SPRING","TX","77386"
223874,"4800 ROUNDING RUN ROAD","CHARLOTTE","NC","28277"
223875,"4800 S 60TH ST","GREENFIELD","WI","53220"
223876,"4800 S CHICAGO BEACH DR APT 2006S","CHICAGO","IL","60615"
223877,"4800 S CHICAGO BEACH DR SUITE 1707S","CHICAGO","IL","60615"
223878,"4800 S CHICAGO BEACH DR/SUITE2705 S","CHICAGO","IL","60615"
223879,"4800 S HENDERSON STREET","SEATTLE","WA","98118"
223880,"4800 S LAKE PARK AVE APT 1302A","CHICAGO","IL","60615"
223881,"4800 S LAKE PARK AVE UNIT 802A","CHICAGO","IL","60615"
223882,"4800 S ST LAWRENCE AVENUE 2S","CHICAGO","IL","60615"
223883,"4800 S WHITE MOUNTAIN RD STE A","SHOW LOW","AZ","85901"
223884,"4800 SACHSE ROAD","SACHSE","TX","75048"
223885,"4800 SEPULVEDA BLVD APT 411","CULVER CITY","CA","90230"
223886,"4800 SHIREMAN RD","POSEYVILLE","IN","47633"
223887,"4800 SOUTH CHICAGO BEACH DRIVE","CHICAGO","IL","60615"
223888,"4800 SOUTH ELLIS","CHICAGO","IL","60615"
223889,"4800 SOUTH LAKE PARK AVENUE 1602-A","CHICAGO","IL","60615"
223890,"4800 SOUTH ROCKFORT RD","BLOOMINGTON","IN","47403"
223891,"4800 SOUTH SAGINAW STREET","FLINT","MI","48507"
223892,"4800 SPARKMAN DRIVE","HUNTSVILLE","AL","35810"
223893,"4800 SUGAR GROVE BLVD STE 320","STAFFORD","TX","77477"
223894,"4800 SUGARGROVE BLVD STE 317","STAFFORD","TX","77477"
223895,"4800 SUSQUEHANNA  TRL","TURBOTVILLE","PA","17772"
223896,"4800 SUSQUEHANNA TRAIL","TURBOTVILLE","PA","17772"
223897,"4800 SW 35TH DRIVE","GAINESVILLE","FL","32608"
223898,"4800 SW GRIFFITH DR STE 320","BEAVERTON","OR","97005"
223899,"4800 SW MEADOWS RD SUITE 300","LAKE OSWEGO","OR","97035"
223900,"4800 TIMBER TRAIL DRIVE","MIDDLETOWN","OH","45044"
223901,"4800 TRUMPET CIRCLE","NASHVILLE","TN","37218"
223902,"4800 W COPANS ROAD","COCONUT CREEK","FL","33063"
223903,"4800 WATOGA PARK RD","MARLINTON","WV","24954"
223904,"4800 WEST HUNDRED RD","CHESTER","VA","23831"
223905,"4800 WHITE CLAY PIT ROAD","HAINES CITY","FL","33844"
223906,"4800","WASHOE VALLEY","NV","89704"
223907,"4800A NEW HARTFORD ROAD","OWENSBORO","KY","42303"
223908,"4801 34TH ST","LUBBOCK","TX","79410"
223909,"4801 6TH STREET NE","WASHINGTON","DC","20017"
223910,"4801 ALEXON WAY","CARMICHAEL","CA","95608"
223911,"4801 ALL SAINTS ROAD NW","ALBUQERQUE","NM","87120"
223912,"4801 BETHEL CREEK DRIVE","VERO BEACH","FL","32963"
223913,"4801 BONITA BAY BLVD PH 202","BONITA SPRINGS","FL","34134"
223914,"4801 BORDEAUX DRIVE","LAKE IN THE HILLS","IL","60156"
223915,"4801 CHARLESTON DRIVE","CHARLOTTE","NC","28212"
223916,"4801 CHURCH ROAD","EVANSVILLE","IN","47720"
223917,"4801 CIMARRON RIDGE DRIVE","BAKERSFIELD","CA","93313"
223918,"4801 CONNECTICUT AVE NW APT 404","WASHINGTON","DC","20008"
223919,"4801 COPLEY LN 140","UPPER MARLBORO","MD","20772"
223920,"4801 COUNTRY CLUB BLVD","SOUTH CHARLESTON","WV","25309"
223921,"4801 COUNTY ROAD 305","GRANDVIEW","TX","76050"
223922,"4801 COURTHOUSE STREET STE 300","WILLIAMSBUG","VA","23188"
223923,"4801 COURTHOUSE STREET STE 300","WILLIAMSBURG","VA","23188"
223924,"4801 COURTHOUSE STREET SUITE 300","WILLIAMSBURG","VA","23188"
223925,"4801 DEVERS RD","SOUTHSIDE","TN","37171"
223926,"4801 E 41 ST 106","SIOUX FALLS","SD","57110"
223927,"4801 E 65TH ST","INDIANAPOLIS","IN","46220"
223928,"4801 E BROADWAY BLVD SUITE 501","TUCSON","AZ","85711"
223929,"4801 E OAKVIEW DR","MILTON","WI","53563"
223930,"4801 E SAHARA AVE APT 163","LAS VEGAS","NV","89104"
223931,"4801 EAST HOFFMAN LANE","SPOKANE","WA","99223"
223932,"4801 EAST SAHARA AVE APT 42","LAS VEGAS","NV","89104"
223933,"4801 FARBER ROW","COLUMBUS","OH","43221"
223934,"4801 FRANKFORD ROAD - 300","DALLAS","TX","75287"
223935,"4801 FRANKLIN AVE ROOM 1132","DES MOINES","IA","50310"
223936,"4801 GEORGIA AVE NW","WASHINGTON","DC","20011"
223937,"4801 GLENWOOD AVE STE 200 PMB 471","RALEIGH","NC","27612"
223938,"4801 GLENWOOD AVE STE 200","RALEIGH","NC","27612"
223939,"4801 GLENWOOD AVE SUITE 200 PMB 521","RALEIGH","NC","27612"
223940,"4801 GLENWOOD AVE SUITE 200 PMB235","RALEIGH","NC","27612"
223941,"4801 GOOD DR","NEW ORLEANS","LA","70127"
223942,"4801 GRANBY WAY","DENVER","CO","80239"
223943,"4801 GULF BLVD - 330","ST PETE BEACH","FL","33706"
223944,"4801 GULF BLVD SUITE 172","ST PETE BEACH","FL","33706"
223945,"4801 HARD SCRABBLE RD","COLUMBIA","SC","29229"
223946,"4801 HARDSCRABBLE RD","COLUMBIA","SC","29229"
223947,"4801 HARGROVE ROAD","RALEIGH","NC","27616"
223948,"4801 HARPER DR","MESQUITE","TX","75150"
223949,"4801 HICKORY WOODS DRIVE","GREENSBORO","NC","27410"
223950,"4801 JOHNSON ROAD SUITE 9","COCONUT CREEK","FL","33073"
223951,"4801 KENMORE AVENUE APT 1219","ALEXANDRIA","VA","22304"
223952,"4801 LAGUNA BLVD    105-257","ELK GROVE","CA","95758"
223953,"4801 LAGUNA BLVD STE 105 381","ELK GROVE","CA","95759"
223954,"4801 LANG AVENUE NE SUITE 110","ALBUQUERQUE","NM","87109"
223955,"4801 LINTON BLVD 11A493","DELRAY BEACH","FL","33445"
223956,"4801 MCKNIGHT ROAD SUITE 202","PITTSBURGH","PA","15237"
223957,"4801 N 1ST AVE","TUCSON","AZ","85718"
223958,"4801 N CAGE BLVD","PHARR","TX","78577"
223959,"4801 N CAN ADA RD","STAR","ID","83669"
223960,"4801 N HILLS BLVD APT 1106","NORTH LITTLE ROCK","AR","72116"
223961,"4801 NE 19TH AVE","PORTLAND","OR","97211"
223962,"4801 NW LOOP 410 STE 530","SAN ANTONIO","TX","78229"
223963,"4801 NW75 TH AVE","LAUDERHILL","FL","33319"
223964,"4801 OAKWOOD DR","ST CLOUD","FL","34772"
223965,"4801 PACIFIC COAST HIGHWAY","TORRANCE","CA","90503"
223966,"4801 PACIFIC COAST HIGHWAY","TORRANCE","CA","90505"
223967,"4801 PACIFIC COAST HWY","TORRANCE","CA","90505"
223968,"4801 PINE ST APT D2","PHILADELPHIA","PA","19143"
223969,"4801 POLO COURT","PUEBLO","CO","81001"
223970,"4801 RANDOLPH RD","NORTH LITTLE ROCK","AR","72116"
223971,"4801 REEDY BRANCH ROAD","WINTERVILLE","NC","28590"
223972,"4801 S 26TH ST","MCALLEN","TX","78503"
223973,"4801 S ASHLAND AVE","CHICAGO","IL","60609"
223974,"4801 S UNIVERSITY DRIVE STE 2080","DAVIE","FL","33328"
223975,"4801 SAPONI VILLAGE TRAIL","WINSTON-SALEM","NC","27127"
223976,"4801 SIPPLE AVENUE","BALTIMORE","MD","21206"
223977,"4801 SOUTHSIDE DRIVE","LOUISVILLE","KY","40214"
223978,"4801 SOUTHWEST PKY PARKWAY2 STE 150","AUSTIN","TX","78735"
223979,"4801 SPRINGFIELD ST","DAYTON","OH","45431"
223980,"4801 SPRINGFIELD STREET","DAYTON","OH","45431"
223981,"4801 SPRINGVIEW DR","BANNING","CA","92220"
223982,"4801 STUDBURY HALL CT","WAKE FOREST","NC","27587"
223983,"4801 SUN VALLEY DR","EL PASO","TX","79924"
223984,"4801 TWIN HICKORY ROAD","GLEN ALLEN","VA","23059"
223985,"4801 US HIGHWAY 3","BILLINGS","MT","59106"
223986,"4801 W PETERSON AVE ROOM 210","CHICAGO","IL","60646"
223987,"4801 W TEN RD","EFLAND","NC","27243"
223988,"4801 WASHINGTON BLVD","INDIANAPOLIS","IN","46205"
223989,"4801 WAUKESHA ST","MADISON","WI","53705"
223990,"4801 WEST 41 STREET","ST. LOUIS PARK","MN","55416"
223991,"4801 WEST 41ST ST","SIOUX FALLS","SD","57106"
223992,"4801 WEST MAIN STREET SUITE 1","DOTHAN","AL","36305"
223993,"4801 WILSHIRE BLVD STE 301","LOS ANGELES","CA","90010"
223994,"4801 ZION HILL RD","WEATHERFORD","TX","76088"
223995,"48016 RIVERSIDE PLACE","SIOUX FALLS","SD","57108"
223996,"4802 48TH ST APT 3CR","FLUSHING","NY","11377"
223997,"4802 51ST STREET W  APT 1501","BRADENTON","FL","34210"
223998,"4802 CHAPEL RIDGE DR","GREENSBORO","NC","27405"
223999,"4802 CUMBERLAND RD","TUSCALOOSA","AL","35404"
224000,"4802 E RAY RD SUITE 23-264","PHOENIX","AZ","85044"
