"ID","Address","City","State","Zip"
141501,"2575 COUNTY ROAD 180","ALVIN","TX","77511"
141502,"2575 EASTERN BLVD","YORK","PA","17402"
141503,"2575 ESCAMBIA AVE","PENSACOLA","FL","32503"
141504,"2575 GRAYSTONE ROAD","EAST PETERSBURG","PA","17520"
141505,"2575 HARLOW LANE","SAN RAMON","CA","94582"
141506,"2575 INTREPID LANE N","JACKSONVILLE BEACH","FL","32250"
141507,"2575 N TOLEDO BLADE BLVD UNIT 3","NORTH PORT","FL","34289"
141508,"2575 OAK GLEN WAY","FORESTVILLE","MD","20747"
141509,"2575 OLD WILLIAMSTON ROAD","ANDERSON","SC","29621"
141510,"2575 S SYRACUSE WAY J303","DENVER","CO","80231"
141511,"2575 SEIDLERS RD","MIDLAND","MI","48642"
141512,"2575 SHUMARD OAK DR","BRASELTON","GA","30517"
141513,"2575 SPRING ARBOR ROAD","JACKSON","MI","49203"
141514,"2575 VOLLEY ROAD","MEADOW VISTA","CA","95722"
141515,"2575 W HORIZON RIDGE PKWY 2813","HENDERSON","NV","89052"
141516,"2575 W HORIZON RIDGE PKWY UNIT 420","HENDERSON","NV","89052"
141517,"2575 WEST 2500 SOUTH","ROOSEVELT","UT","84066"
141518,"25750 CARMEL KNOLLS","CARMEL","CA","93923"
141519,"25751 148TH ROAD","ROSEDALE","NY","11422"
141520,"25752 CHRISANTA DRIVE","MISSION VIEJO","CA","92691"
141521,"25755 CONTINENTAL DR","SOUTHFIELD","MI","48075"
141522,"25755 SE 40TH ST","SAMMAMISH","WA","98029"
141523,"25758 STATE ST","SAEGERTOWN","PA","16433"
141524,"2576 152 AVENUE B302","REDMOND","WA","98052"
141525,"2576 DUE WEST ROAD","DALLAS","GA","30157"
141526,"2576 JOSIAH STREET","CHARLESTON","SC","29492"
141527,"2576 KATHERINE COURT","EL CAJON","CA","92020"
141528,"2576 LYMAN LOOP","YORKVILLE","IL","60560"
141529,"2576 N 40TH STREET","MILWAUKEE","WI","53210"
141530,"2576 PETTUS ROAD","HOPE HULL","AL","36043"
141531,"2576 PINEY WOOD LANE","EAST POINT","GA","30344"
141532,"2576 ROBERTS AVE","CLOVIS","CA","93611"
141533,"2576 SPRINGDALE ROAD","ATLANTA","GA","30315"
141534,"2576 W VIA SAN CARLOS","SAN BERNARDINO","CA","92410"
141535,"2576 WAHO STREET","KOLOA","HI","96756"
141536,"2576 WULFERT ROAD","SANIBEL","FL","33957"
141537,"25762 MADISON AVE","MURRIETA","CA","92562"
141538,"25768 LONGFOREST DRIVE","CHANTILLY","VA","20152"
141539,"2577 GRAND CYPRESS BLVD","PALM HARBOR","FL","34684"
141540,"2577 JOHN BOONE COURT","MOUNT PLEASANT","SC","29466"
141541,"2577 N CHELTON ROAD","COLORADO SPRINGS","CO","80909"
141542,"2577 POST ST","SAN FRANCISCO","CA","94115"
141543,"2577 SEMMES ST","ATLANTA","GA","30344"
141544,"25772 SNOW ROAD","HOCKLEY","TX","77447"
141545,"25774 27TH ST","SAN BERNARDINO","CA","92404"
141546,"25775 WEST IL HIGHWAY 134","INGLESIDE","IL","60041"
141547,"25777 US HIGHWAY 331 SOUTH","SANTA ROSA BEACH","FL","32459"
141548,"25778 7TH STREET","SAN BERNARDINO","CA","92410"
141549,"2578 BROADWAY 108","NEW YORK","NY","11025"
141550,"2578 CEDAR SPRINGS DRIVE","NASHVILLE","TN","37217"
141551,"2578 E NEELY PLACE","FAYETTEVILLE","AR","72701"
141552,"2578 ENTERPRISE RD STE 18 19 20","ORANGE CITY","FL","32763"
141553,"2578 ENTERPRISE RD SUITE 169","ORANGE CITY","FL","32763"
141554,"2578 G W LOY RD","NEW MARKET","TN","37820"
141555,"2578 GENESEE ST","RETSOF","NY","14539"
141556,"2578 MAC ARTHUR AVENUE","SAN PABLO","CA","94806"
141557,"2578 N DOCTOR MLK DRIVE","MILWAUKEE","WI","53212"
141558,"2578 PERSHING AVE","MEMPHIS","TN","38112"
141559,"2578 TUSCANY WAY","FULLERTON","CA","92835"
141560,"25780 CALLE AGUA","MORENO VALLEY","CA","92551"
141561,"25780 LEONARD DRIVE","CHANTILLY","VA","20152"
141562,"25781 SW 124 CT","HOMESTEAD","FL","33032"
141563,"25785 MEADOW TRAIL","COLUMBIA STATION","OH","44028"
141564,"2579 42ND STREET 2F","ASTORIA","NY","11103"
141565,"2579 BOWLES RANCH","BELTON","TX","76513"
141566,"2579 COOSA COUNTY ROAD 37","ROCKFORD","AL","35136"
141567,"2579 COUNTY ROAD 88","WINFIELD","AL","35594"
141568,"2579 E JADE PLACE","CHANDLER","AZ","85286"
141569,"2579 EAST 17TH STREET 3RD FLOOR","BROOKLYN","NY","11235"
141570,"2579 HALLE PARKWAY","COLLIERVILLE","TN","38017"
141571,"2579 JENNA LANE","LITHIA SPRINGS","GA","30122"
141572,"2579 KATE STREET","LANSING","MI","48842"
141573,"2579 PARK CENTRAL BLVD","DECATUR","GA","30035"
141574,"2579 W PALISADES DR","MENASHA","WI","54952"
141575,"25791 JEFFERSON AVE","MURRIETA","CA","92562"
141576,"25797 DOUBLE BRIDLE TERRACE","ALDIE","VA","20105"
141577,"258  HARRY S TRUMAN DR","UPPER MARLBORO","MD","20774"
141578,"258 07 CRAFT AVE","ROSEDALE","NY","11422"
141579,"258 A STREET UNIT 209","ASHLAND","OR","97520"
141580,"258 ALBANY AVENUE - APT B","AMITYVILLE","NY","11701"
141581,"258 BEARTOOTH PKWY STE 100 PMB 1014","DAWSONVILLE","GA","30534"
141582,"258 BLACK BAY ROAD","CROSS","SC","29436"
141583,"258 BLACKBAY ROAD","CROSS","SC","29436"
141584,"258 BRUCE ST","LAKEWOOD","NJ","08701"
141585,"258 BRUNSWICK DR SUITE B","ELYRIA","OH","44035"
141586,"258 BRYNWOOD STREET","HAGERSTOWN","MD","21740"
141587,"258 CALLE 4 SAINT JUST","TRUJILLO ALTO","PR","00976"
141588,"258 CAROLINA LANE","MARSHALL","NC","28753"
141589,"258 CLIFTON AVENUE","NEWARK","NJ","07104"
141590,"258 CLUBHOUSE DRIVE","MIDDLETOWN","NJ","07748"
141591,"258 COLGATE AVENUE","KENSINGTON","CA","94708"
141592,"258 COLUMBIAN AVE","COLUMBUS","OH","43223"
141593,"258 COLUMBIAN AVENUE","COLUMBUS","OH","43223"
141594,"258 CONKLIN AVE","BROOKLYN","NY","11236"
141595,"258 COPPERSMITH DR","KATY","TX","77450"
141596,"258 COTTAGE WAY","THIBODAUX","LA","70301"
141597,"258 DAVIS MILL ROAD NORTH","DALLAS","GA","30157"
141598,"258 DERBY STREET UNIT 1","NEWTON","MA","02465"
141599,"258 DUBOISE ROAD","ITHACA","NY","14850"
141600,"258 E 165TH ST","BRONX","NY","10456"
141601,"258 E HIGH ST","MOORESVILLE","IN","46158"
141602,"258 EAST MARKET ST","NAPPANEE","IN","46550"
141603,"258 EDGELL ROAD","FRAMINGHAM","MA","01701"
141604,"258 FEEDING HILLS RD","SOUTHWICK","MA","01077"
141605,"258 FIRST AVENUE","GROVELAND","FL","34736"
141606,"258 GARLAND AVE","DECATUR","GA","30030"
141607,"258 GARRETT LANE","ALPINE","AL","35014"
141608,"258 GENESEE ST SUITE 505","UTICA","NY","13502"
141609,"258 GENESEE STREET","UTICA","NY","13502"
141610,"258 GRANDE ST","HOUMA","LA","70363"
141611,"258 GREENWAY DR","SCOTTSBURG","IN","47170"
141612,"258 HILLBROOK DR","SHEPHEREDSVILLE","KY","40165"
141613,"258 HOLMAN AUTRY RD","DANIELSVILLE","GA","30633"
141614,"258 ILLINOIS AVE SW","HURON","SD","57350"
141615,"258 LAKEWOOD DRIVE","ASHEVILLE","NC","28803"
141616,"258 LANTERN LANE","GULPH MILLS","PA","19428"
141617,"258 MAGNOLIA DRIVE","SELDEN","NY","11784"
141618,"258 MAIN STREET","WINTHROP","ME","04364"
141619,"258 MEALS LN","WHITESBORO","TX","76273"
141620,"258 MONTROSE DR","MCDONOUGH","GA","30253"
141621,"258 MOUNT VERNON STREET","NEWTON","MA","02465"
141622,"258 N HARVARD ST APT 2","BOSTON","MA","02134"
141623,"258 NORTH WEST END BLVD   PMB 317","QUAKERTOWN","PA","18951"
141624,"258 NORTHGLEN DRIVE","SPRING CREEK","NV","89815"
141625,"258 OHIO STREET","REYNOLDSVILLE","PA","15851"
141626,"258 OWL CREEK ROAD","TAMAQUA","PA","18252"
141627,"258 PARK ST","ARCADE","NY","14009"
141628,"258 PEAR BLOSSOM RD","STAFFORD","VA","22554"
141629,"258 PIONEER AVE APT 1207","DURANGO","CO","83101"
141630,"258 POLK AVENUE","RIVER ROUGE","MI","48218"
141631,"258 PYLANT STREET","SENOIA","GA","30276"
141632,"258 ROOSEVELT AVENUE","FRANKLIN SQUARE","NY","11010"
141633,"258 S 156 ST APT 22","BURIEN","WA","98148"
141634,"258 S SAM HOUSTON BLVD","SAN BENITO","TX","78586"
141635,"258 S WALNUT ST APT 2","EAST ORANGE","NJ","07017"
141636,"258 SOUTH MAIN STREET","CHESHIRE","CT","06410"
141637,"258 SOUTH WASHINGTON AVENUE","DUNELLEN","NJ","08812"
141638,"258 STANDISH AVE","PLYMOUTH","MA","02360"
141639,"258 STAPLES ROAD","CUMBERLAND","RI","02864"
141640,"258 SUMMIT VIEW DRIVE","MCDONOUGH","GA","30253"
141641,"258 THUNDER LAKE RD","WILTON","CT","06897"
141642,"258 THUNDER LAKE ROAD","WILTON","CT","06897"
141643,"258 TUCKAHOE LANE","SOUTHAMPTON","NY","11968"
141644,"258 TURNING TREE RD","WILMER","TX","75172"
141645,"258 W 123RD STREET APT 1","NEW YORK","NY","10027"
141646,"258 WAVA AVE","NICEVILLE","FL","32578"
141647,"258 WEST RUNYON STREET","NEWARK","NJ","07108"
141648,"258 WOODLANDS AVENUE","MOBILE","AL","36607"
141649,"2580 152ND AVE NE","REDMOND","WA","98052"
141650,"2580 ATWATER HILLS DR NE","GRAND RAPIDS","MI","49525"
141651,"2580 COLONEL FORD DR","LAKELAND","FL","33813"
141652,"2580 COSTA MESA CIR","LEAGUE CITY","TX","77573"
141653,"2580 COUNTY ROAD 751","JONESBORO","AR","72401"
141654,"2580 CRATER LAKE HWY","MEDFORD","OR","97504"
141655,"2580 E LUCAS DR","BAUMONT","TX","77703"
141656,"2580 GRACELAND WAY","WOOSTER","OH","44691"
141657,"2580 JUMPER LANE","BARTLETT","TN","38134"
141658,"2580 LAFAYETTE PLAIN CITY ROAD","LONDON","OH","43140"
141659,"2580 METROCENTRE BLVD STE 1","WEST PALM BEACH","FL","33407"
141660,"2580 N COLLEGE AV","FAYETTEVILLE","AR","72701"
141661,"2580 N COLLEGE AV","FAYETTEVILLE","AR","72703"
141662,"2580 N COLLEGE AVE","FAYETTEVILLE","AR","72701"
141663,"2580 N COLLEGE AVE","FAYETTEVILLE","AR","72703"
141664,"2580 N COLLEGE","FAYETTEVILLE","AR","72703"
141665,"2580 NASHVILLE HIGHWAY","SMITHVILLE","TN","37166"
141666,"2580 NEEDHAM COURT","AURORA","IL","60503"
141667,"2580 NORTH COLLEGE AVENUE","FAYETTEVILLE","AR","72701"
141668,"2580 NORTH COLLEGE AVENUE","FAYETTEVILLE","AR","72703"
141669,"2580 OLD GLORY DR","ZANESVILLE","OH","43701"
141670,"2580 UNION AVENUE EXT","MEMPHIS","TN","38112"
141671,"2580 W CAMP WISDOM RD   STE 105","GRAND PRAIREI","TX","75052"
141672,"2580 W CAMP WISDOM RD STE100-226","GRAND PRAIRIE","TX","75052"
141673,"2580 W ERIE STREET","CHANDLER","AZ","85224"
141674,"25802 CUNNINGHAM AVE","WARREN","MI","48091"
141675,"25803 BRICKHILL","SPRING","TX","77389"
141676,"25807 CRAFT AVE","ROSEDALE","NY","11422"
141677,"25807 LEWIS RANCH ROAD","NEW BRAUNFELS","TX","78132"
141678,"25807 WESTHEIMER PARKWAY SUITE 442","KATY","TX","77494"
141679,"25808 EAST COMFORT DRIVE","CHISAGO CITY","MN","55013"
141680,"25808 MARITIME CIR N","HARRISON TWP","MI","48045"
141681,"25808 S SUNSET DRIVE","MONEE","IL","60449"
141682,"2581 CALVANO DR","LAND O LAKES","FL","34639"
141683,"2581 COLLIN MCKINNEY PKWY APT 1806","MCKINNEY","TX","75070"
141684,"2581 COLLIN MCKINNEY PKWY APT 507","MCKINNEY","TX","75070"
141685,"2581 ISABELA TER","KISSIMMEE","FL","34743"
141686,"2581 NOPILI STREET","KAILUA","HI","96734"
141687,"2581 OLEANDER ST 2","SAINT JAMES CITY","FL","33956"
141688,"2581 POPES CROSSING ROAD","LUMBERTON","NC","28358"
141689,"2581 S EAGLE CIRCLE","AURORA","CO","80014"
141690,"2581 SPRING RD","SMYRNA","GA","30080"
141691,"2581 WEST 120TH STREET","GRANT","MI","49327"
141692,"25810 KELLY ROAD  STE 1","ROSEVILLE","MI","48066"
141693,"25811 GEORGETOWN RD","HOMEWORTH","OH","44634"
141694,"25812 LINCOLN AVE","HEMET","CA","92544"
141695,"25812 SLY FOX CT","SOUTH BEND","IN","46628"
141696,"25814 COBBLESTONE LANE","ATHENS","AL","35613"
141697,"25815 PEPPER ROAD","ATHENS","AL","35613"
141698,"25815 TURLOUGH TERRACE","SOUTH RIDING","VA","20152"
141699,"25817 NE 3RD ST","CAMAS","TX","98607"
141700,"25817 SE 398TH ST","ENUMCLAW","WA","98022"
141701,"25818 CELTIC TERRACE DRIVE","KATY","TX","77494"
141702,"25818 MAHOGONY TRL","SAN ANTONIO","TX","78255"
141703,"25818 NE 4TH PL","SAMMAMISH","WA","98074"
141704,"25819 SCHEIDER RD","PERRYSBURG","OH","43551"
141705,"2581B SPRING ROAD SE","SMYRNA","GA","30080"
141706,"2582 BEDFORD AVE","BROOKLYN","NY","11226"
141707,"2582 CAMBERLEY CIRCLE","WESTCHESTER","IL","60154"
141708,"2582 FLORAL VALLEY DRIVE","DACULA","GA","30019"
141709,"2582 GATEWAY DRIVE","STATE COLLEGE","PA","16801"
141710,"2582 JOSH CIRCLE","SUPPLY","NC","28462"
141711,"2582 MAGUIRE RD - 223","OCOEE","FL","34761"
141712,"2582 MAGUIRE RD SUITE 191","OCOEE","FL","34761"
141713,"2582 MAGUIRE RD/116","OCOEE","FL","34761"
141714,"2582 MAGUIRE ROAD BOX 413","OCOEE","FL","34761"
141715,"2582 MAGUIRE ROAD SUITE 126","OCOEE","FL","34761"
141716,"2582 MORNINGSIDE RD","LONG LAKE","MN","55356"
141717,"2582 N RILEY RD","BUCKEYE","AZ","85396"
141718,"25820 SOUTHFIELD RD 201","SOUTHFIELD","MI","48075"
141719,"25821 NOTRE DAME STREET","INKSTER","MI","48141"
141720,"25822 W NORTH STAR PL","BUCKEYE","AZ","85326"
141721,"25823 SE 31ST PL","SAMMAMISH","WA","98075"
141722,"25826 SPLASHING ROCK","SAN ANTONIO","TX","78260"
141723,"2583 CALLE DELFINO","SANTA FE","NM","87505"
141724,"2583 MOORE STREET","LAKEWOOD","CO","80215"
141725,"2583 PINE NEEDLE CT","EAST POINT","GA","30344"
141726,"2583 S VOLUSIA AVENUE STE 100","ORANGE CITY","FL","32763"
141727,"25830 408TH AVE","MITCHELL","SD","57301"
141728,"25830 NORTHCREST DR","SPRING","TX","77389"
141729,"25830 VILLAGE GREEN BLVD APT103","HARRISON TOWNSHIP","MI","48045"
141730,"25831 TEMPLE DR","MADERA","CA","93638"
141731,"25834 STONE BRIDGE AVE","MATTAWAN","MI","49071"
141732,"25835 NARBONNE AVE 200C","LOMITA","CA","90717"
141733,"2584 BEAL STREET","SNELLVILLE","GA","30078"
141734,"2584 CANYON RIDGE DRIVE","SAINT GEORGE","UT","84770"
141735,"2584 CHERRY BLOSSOM CIR","STOW","OH","44224"
141736,"2584 CLIFTON BRYAN RD","ZOLFO SPRINGS","FL","33890"
141737,"2584 CREEKWOOD TERRACE","DECATUR","GA","30030"
141738,"2584 DOVER GLEN CIRCLE","ORLANDO","FL","32828"
141739,"2584 ELMWOOD DRIVE EXT","HUBBARD TOWNSHIP","OH","44425"
141740,"2584 HENLEY AVE","INDEPENDENCE","IA","50644"
141741,"2584 HUTCHINS RD","LAWRENCEVILLE","GA","30044"
141742,"2584 RED HAWK RIDGE DR","AURORA","IL","60503"
141743,"2584 REMINGTON COURT","GREEN BAY","WI","54302"
141744,"2584 RUE PALAFOX","BILOXI","MS","39531"
141745,"2584 SW 58TH ST","REDMOND","OR","97756"
141746,"2584 WINONA DR","OSSEO","MI","49266"
141747,"25840 W 76TH STREET","SHAWNEE","KS","66227"
141748,"25842 WESTWOOD ROAD","WESTLAKE","OH","44145"
141749,"25843 SHORELINE DRIVE","NOVI","MI","48374"
141750,"25844 BLAKE CT","STEVENSON RANCH","CA","91381"
141751,"25845 N BIG SPRINGS RANCH ROAD","PAULDEN","AZ","86334"
141752,"25847 CHAPELWEIGH","FARMINGTON HILLS","MI","48336"
141753,"25847 W HILTON AVE","BUCKEYE","AZ","85326"
141754,"2585 ALA NAMAHANA PRKWY NO 1338","KILAUEA","HI","96754"
141755,"2585 BELMONT STAKES DRIVE","VIRGINIA BEACH","VA","23456"
141756,"2585 COUNTRYSIDE BLVD APT 102","CLEARWATER","FL","33761"
141757,"2585 FM 2022","ELKHART","TX","75839"
141758,"2585 GLADES CIRCLE","WESTON","FL","33327"
141759,"2585 H ROAD","GRAND JUNCTION","CO","81505"
141760,"2585 MONTESSOURI STREET","LAS VEGAS","NV","89117"
141761,"2585 OLD TULLAHOMA ROAD","WINCHESTER","TN","37398"
141762,"2585 PILLSBURY ROAD","CHICO","CA","95973"
141763,"2585 SEBASTOPOL RD 7232","SANTA ROSA","CA","95407"
141764,"2585 WOODVIEW DRIVE","LANCASTER","PA","17601"
141765,"25850 AVALON AVENUE","SAN BERNARDINO","CA","92404"
141766,"25852 MCBEAN PARKWAY UNIT 308","VALENCIA","CA","91355"
141767,"25852 NATURES LANE","CHANTILLY","VA","20152"
141768,"25853 MORGANZA TURNER RD","MECHANICSVILLE","MD","20659"
141769,"25853 PARSLEY AVENUE","MORENO VALLEY","CA","92553"
141770,"25857 CONCORD ROAD","HUNTINGTON WOODS","MI","48070"
141771,"25857 SINGING HILLS DRIVE APT 135","VALENCIA","CA","91355"
141772,"25859 MULROY DR","SOUTHFIELD","MI","48033"
141773,"2586 255TH AVE","DECORAH","IA","52101"
141774,"2586 BETHESDA OAKS DRIVE","GASTONIA","NC","28056"
141775,"2586 COY HINSON RD","BONIFAY","FL","32425"
141776,"2586 HIGHWAY 9 SOUTH","HOWELL","NJ","07731"
141777,"2586 MCNAMARA RD","GLADWIN","MI","48624"
141778,"2586 MILANO DRIVE","CARMEL","IN","46074"
141779,"2586 ONSLOW DRIVE","JACKSONVILLE","NC","28540"
141780,"2586 RED HILL ROAD","BISHOPVILLE","SC","29010"
141781,"2586 S LOTUS AVE","FRESNO","CA","93706"
141782,"2586 SOUTH COUNTY ROAD 225 WEST","PAOLI","IN","47454"
141783,"2586 TANZANITE PLACE","SANTA ROSA","CA","95404"
141784,"2586 W 10TH ST","CLEVELAND","OH","44113"
141785,"2586 WEST 10TH STREET FLOOR 2","CLEVELAND","OH","44113"
141786,"2586 WILD DUNES CIR","AURORA","IL","60503"
141787,"2587 MILLER GRABER ROAD","NEWTON FALLS","OH","44444"
141788,"2587 N 4TH ST","COLUMBUS","OH","43202"
141789,"2587 ROURKE DR","AURORA","IL","60503"
141790,"2587 ROURKE DRIVE","AURORA","IL","60503"
141791,"2587 S 177TH PLZ","OMAHA","NE","68130"
141792,"2587 S 42ND STREET","GRAND FORKS","ND","58201"
141793,"2587 TIMMERMAN RD","GREENWOOD","NY","14839"
141794,"25871 ARDEN PARK DR","FARMINGTON HLS","MI","48336"
141795,"25871 HANOVER DR","FLAT ROCK","MI","48134"
141796,"25871 HUNTWOOD WAY APT 5","HAYWARD","CA","94544"
141797,"25875 GOLF POINTE DR","SOUTHFIELD","MI","48075"
141798,"25875 SKYLINE DRIVE","TEHACHAPI","CA","93561"
141799,"25876 THE OLD ROAD UNIT 299","STEVENSON RANCH","CA","91381"
141800,"25878 POLLARD RD  APT 2212","DAPHNE","AL","36526"
141801,"25879 BUDDERLEIGH PLACE","MECHANICSVILLE","MD","20659"
141802,"2588 7TH AVE","NY","NY","10039"
141803,"2588 HAWAIIAN AVE","MEDFORD","OR","97504"
141804,"2588 QUAKER VALLEY RD","NEW PARIS","PA","15554"
141805,"2588 S 900 E APT 28","SALT LAKE CITY","UT","84106"
141806,"2588 S DUKE AVENUE","FRESNO","CA","93727"
141807,"25880  TOURNAMENT ROAD  SUITE 109","VALENCIA","CA","91355"
141808,"25883 ARMSTRONG ROAD","LAURELVILLE","OH","43135"
141809,"25886 SERENATA DR","MISSION VIEJO","CA","92691"
141810,"2589 CENTERGATE DRIVE APT 205","MIRAMAR","FL","33025"
141811,"2589 CR 203","DURANGO","CO","81301"
141812,"2589 MEADOW RUN","GERMANTOWN","TN","38138"
141813,"2589 MODENA DR","PITTSBURG","CA","94565"
141814,"2589 MORNINGSIDE ST","PASADENA","CA","91107"
141815,"2589 PRENDERGAST PL","REYNOLDSBURG","OH","43068"
141816,"2589 S YELLOW SPRINGS ST","SPRINGFIELD","OH","45506"
141817,"2589 S YELLOW SPRINGS STREET","SPRINGFIELD","OH","45506"
141818,"2589 W SKYLER ST","NAMPA","ID","83686"
141819,"25892 CULLEN RUN PLACE","ALDIE","VA","20105"
141820,"25897 SPRING FARM CIR","CHANTILLY","VA","20152"
141821,"25898 DELAWARE OAKS PL","ALDIE","VA","20105"
141822,"258A BEAUREGARD PLACE","WEST POINT","NY","10996"
141823,"258R TEATICKET HIGHWAY","EAST FALMOUTH","MA","02536"
141824,"259 1/2 F AVENUE","CORONADO","CA","92118"
141825,"259 12TH STREET","BROOKLYN","NY","11215"
141826,"259 19TH STREET","SANTA MONICA","CA","90402"
141827,"259 BEST STREET","BEREA","OH","44017"
141828,"259 CASCADING STREET","HENDERSON","NV","89074"
141829,"259 CEDAR RDG","LIVINGSTON","TX","77351"
141830,"259 CONGRESSIONAL LANE APT 314","ROCKVILLE","MD","20852"
141831,"259 COUNTRY CLUB RD","ALLEN","TX","75002"
141832,"259 COURTNEY LAKES CIRCLE APT 306","WEST PALM BEACH","FL","33401"
141833,"259 E 136TH ST - SUITE 2","CHICAGO","IL","60827"
141834,"259 E HILL DR","SAN BERNARDINO","CA","92404"
141835,"259 ELIA COURT SE","LEESBURG","VA","20175"
141836,"259 ELM STREET","AMESBURY","MA","01913"
141837,"259 FIELDSTONE PLACE","COLLEGE STATION","TX","77845"
141838,"259 FOREST PINE DRIVE","MACON","GA","31216"
141839,"259 GRAFF AVENUE","BRONX","NY","10465"
141840,"259 GREEN MEADOWS RD","WILMER","TX","75172"
141841,"259 GREEN STREET - 2ND FLOOR","BROOKLYN","NY","11222"
141842,"259 GREEN VIEW ROAD","MOYOCK","NC","27958"
141843,"259 GRIFFITH ROAD","TYLER HILL","PA","18469"
141844,"259 HOLLOWAY RD","ROBBINSVILLE","NC","28771"
141845,"259 HOSMER AVE APT A","BRONX","NY","10465"
141846,"259 HYDRAULIC RIDGE ROAD SUITE 203","CHARLOTTESVILLE","VA","22901"
141847,"259 IBERIA CT","HOLLY HILL","SC","29059"
141848,"259 INDUSTRIAL DRIVE","FRANKLIN","OH","45005"
141849,"259 IRONBARK COURT","BOLINGBROOK","IL","60440"
141850,"259 JEFFERSON AVE","YORK","PA","17401"
141851,"259 KIRKLEY PLACE EAST","Baton Rouge","LA","70815"
141852,"259 LENNI RD","MEDIA","PA","19063"
141853,"259 MADISON ST","SAN FRANCISCO","CA","94134"
141854,"259 MAIN STREET","BARNEGAT","NJ","08005"
141855,"259 MAYNARD ST BLDG 309","POPE ARMY AF","NC","28308"
141856,"259 MAYNARD ST SUITE 101C","FORT BRAGG","NC","28308"
141857,"259 MAYNARD STREET BLDG 309","POPE AAF","NC","28308"
141858,"259 MAYNARD STREET","POPE ARMY AIRFIELD","NC","28308"
141859,"259 MONROE AVE SUITE 200","ROCHESTER","NY","14607"
141860,"259 NASSAU ST BOX 1542","PRINCETON","NJ","08542"
141861,"259 NE FRANKLIN STREET SUITE 101","LAKE CITY","FL","32055"
141862,"259 NORTH MAR VISTA AVE SUITE 5","PASADENA","CA","91106"
141863,"259 NW 209TH AVE","BEAVERTON","OR","97006"
141864,"259 OAK COURT","SHAFTER","CA","93263"
141865,"259 OLD WASHBURN RD","CARIBOU","ME","04736"
141866,"259 PICKENS STREET","SUMMERVILLE","SC","29485"
141867,"259 PROSPECT PLACE 1","BROOKLYN","NY","11238"
141868,"259 PROSPECT RD","DRY PRONG","LA","71423"
141869,"259 REDBUD LANE","TAHLEQUAH","OK","74464"
141870,"259 REVONAH HILL ROAD","LIBERTY","NY","12754"
141871,"259 RICHARDSON ST SW 904","ATLANTA","GA","30312"
141872,"259 RIVERVIEW ROAD","SEARCY","AR","72143"
141873,"259 S ANN ST  2","LANCASTER","PA","17602"
141874,"259 S MARYLAND PARKWAY","LAS VEGAS","NV","89101"
141875,"259 SEA BREEZE DR","BACLIFF","TX","77518"
141876,"259 SELDOVIA STREET BOX 206","SELDOVIA","AK","99663"
141877,"259 SHEFFIELD ROAD","PEMBROKE","GA","31321"
141878,"259 SHERWOOD AVE","MCFARLAND","CA","93250"
141879,"259 SOUTH PERSHING ROAD","CHICAGO","IL","60653"
141880,"259 SOUTH SCHUYLER AVENUE","KANKAKEE","IL","60901"
141881,"259 SPRING VALLEY WAY","ROUND LAKE","IL","60073"
141882,"259 SULLIVAN AVE","SOUTH WINDSOR","CT","06074"
141883,"259 SULLIVAN AVENUE SUITE B","SOUTH WINDSOR","CT","06074"
141884,"259 SUMMIT VALLEY CIRCLE","MAUMELLE","AR","72113"
141885,"259 SUNSET DRIVE","WESTMINSTER","SC","29643"
141886,"259 VERSA PLACE","SAYVILLE","NY","11782"
141887,"259 VINE ST","CANONSBURG","PA","15317"
141888,"259 VINE STREET","CLINTON","IN","47842"
141889,"259 W 30TH ST   GROUND FLOOR","NEW YORK","NY","10001"
141890,"259 WASHINGTON AVE","EVANSVILLE","IN","47713"
141891,"259 WATSON ROAD","FORSYTH","GA","31029"
141892,"259 WESTPARK COURT","NEW ORLEANS","LA","70114"
141893,"259-08 148TH ROAD","ROSEDALE","NY","11422"
141894,"259-62 148 RD","ROSEDALE","NY","11422"
141895,"259-B SULLIVAN AVE","SOUTH WINDSOR","CT","06074"
141896,"2590 CENTRAL BLVD","EUGENE","OR","97403"
141897,"2590 DUE WEST CIRCLE NW","KENNESAW","GA","30152"
141898,"2590 GLADSTONE AVE","ANN ARBOR","MI","48104"
141899,"2590 HWY 1","THIBODAUX","LA","70301"
141900,"2590 N WASHINGTON STREET","DENVER","CO","80205"
141901,"2590 OGDEN AVE","AURORA","IL","60504"
141902,"2590 OGDEN AVENUE","AURORA","IL","60504"
141903,"2590 PINER ROAD","SANTA ROSA","CA","95401"
141904,"2590 PIONEER AVENUE     SUITE C","VISTA","CA","92081"
141905,"2590 PLAINFIELD","HALE","MI","48739"
141906,"2590 VINEYARD ROAD","NOVATO","CA","94947"
141907,"2590 W 235TH ST","TORRANCE","CA","90505"
141908,"2590 WALNUT STREET","DENVER","CO","80205"
141909,"2590 WELTON STREET APARTMENT 700","DENVER","CO","80205"
141910,"2590 WELTON STREET SUITE 200","DENVER","CO","80205"
141911,"25900 4TH ST W","ZIMMERMAN","MN","55398"
141912,"25900 GREENFIELD ROAD SUITE 511","OAK PARK","MI","48237"
141913,"25900 GREENFIELD STE 375","OAK PARK","MI","48228"
141914,"25900 NARBONNE AVE STE 50","LOMITA","CA","90717"
141915,"25901 E ARAPAHOE RD","AURORA","CO","80016"
141916,"25901 E ARAPAHOE ROAD","AURORA","CO","80016"
141917,"25901 ROYALTON RD","COLUMBIA STATION","OH","44028"
141918,"25902 DELAWARE OAKS PLACE","ALDIE","VA","20105"
141919,"25902 ESHELMAN AVE","LOMITA","CA","90717"
141920,"25902 SERENATA DR","MISSION VIEJO","CA","92691"
141921,"25903 N TURKEY CREEK ROAD","EVERGREEN","CO","80439"
141922,"25903 VIA PERA","MISSION VEIJO","CA","92691"
141923,"25904 STATE HIGHWAY EE","MARYVILLE","MO","64468"
141924,"25904 TANGLEWOOD DRIVE","N. DINWIDDIE","VA","23803"
141925,"25905 SYCAMORE GROVE PL","ALDIE","VA","20105"
141926,"25909 PALA  PLACE STE 320","MISSION VIEJO","CA","92691"
141927,"2591 ASH ST","DENVER","CO","80207"
141928,"2591 ASHWELL AVE SW","MASSILLON","OH","44646"
141929,"2591 CR 3405","JACKSONVILLE","TX","75766"
141930,"2591 EASTMONT TRAIL","SNELLVILLE","GA","30039"
141931,"2591 FOXY DRIVE","BETHLEHEM","GA","30620"
141932,"2591 LEGACY WAY","GRAND JUNCTION","CO","81503"
141933,"2591 N DIVISION AVE","HOLLAND","MI","49424"
141934,"2591 NORTHVIEW AVE","DECATUR","GA","30032"
141935,"2591 ROCHELLE AVE","MONROVIA","CA","91016"
141936,"2591 S 500 E","SALT LAKE CITY","UT","84106"
141937,"2591 SALEM CROSSING","TUCKER","GA","30084"
141938,"2591 SOUTH MADDEN ROAD","HUSTONTOWN","PA","17229"
141939,"2591 SOUTHHAVEN","BUFORD","GA","30519"
141940,"2591 US HWY 231 SOUTH","CRAWFORDSVILLE","IN","47933"
141941,"2591 WHITES MILL ROAD SUITE 513","DECATUR","GA","30034"
141942,"25910 OAK RIDGE DRIVE","THE WOODLANDS","TX","77380"
141943,"25910 TENNYSON LANE","STEVENSON RANCH","CA","91381"
141944,"25911 AVELINO BLUFF","SAN ANTONIO","TX","78261"
141945,"25914 CRIPPEN DRIVE","LAND O LAKES","FL","34639"
141946,"25915 LOCKSPUR CT","RICHMOND","TX","77406"
141947,"25915 MORGAN SPRINGS ST","SPRING","TX","77373"
141948,"25915 N NORTH RD","DEER PARK","WA","99006"
141949,"25916 140TH STREET","CANTON","MO","63435"
141950,"25918 169TH PL","COVINGTON","WA","98042"
141951,"25918 MORGAN SPRINGS","SPRING","TX","77379"
141952,"25919 545TH AVENUE","GROVE CITY","MN","56243"
141953,"2592 APPLING CREST DRIVE","MEMPHIS","TN","38133"
141954,"2592 BOXWOOD LANE","FAIRFIELD","CA","94533"
141955,"2592 E BARNETT RD","MEDFORD","OR","97504"
141956,"2592 EAST ROBINWOOD DRIVE","LAKE CHARLES","LA","70611"
141957,"2592 HEARD AVE","MEMPHIS","TN","38108"
141958,"2592 MASSACHUSETTS AVE APT 2","CAMBRIDGE","MA","02140"
141959,"2592 MILL GROVE LANE","MARRERO","LA","70072"
141960,"2592 SOUTH OKATIE HWY","HARDEEVILLE","SC","29927"
141961,"2592 WEST 14TH STREET","CLEVELAND","OH","44113"
141962,"2592 WINDING CREEK DR","LITHIA SPRINGS","GA","30122"
141963,"25920 AVONDALE ST","INKSTER","MI","48141"
141964,"25920 HENRY CLAY DR","MADISON","AL","35756"
141965,"25920 IRIS AVE ST 13A671","MORENO VALLEY","CA","92551"
141966,"25920 IRIS AVE SUITE  13A  261","MORENO VALLEY","CA","92551"
141967,"25920 IRIS AVENUE  SUITE 13A -  707","MORENO VALLEY","CA","92551"
141968,"25920 IRIS AVENUE - SUITE 13A - 329","MORENO VALLEY","CA","92551"
141969,"25921 BLOOMSBURY CT","LAND O LAKES","FL","34639"
141970,"25921 TREE TOP RD","LAGUNA HILLS","CA","92653"
141971,"25924 BRONZEWOOD STREET","DENHAM SPRINGS","LA","70726"
141972,"25928 PASEO PACIFICO","MORENO VALLEY","CA","92551"
141973,"2593 AMBLING CIRCLE","CROFTON","MD","21114"
141974,"2593 H NEUSE BLVD STE H","NEW BERN","NC","28562"
141975,"2593 HW 2 E STE 8","KALISPELL","MT","59901"
141976,"2593 NW MASER DR","CORVALLIS","OR","97330"
141977,"2593 POLI ST","VENTURA","CA","93003"
141978,"2593 POLI STREET","VENTURA","CA","93003"
141979,"2593 TAMWORTH LANE","SAN RAMON","CA","94582"
141980,"2593 W BASELINE ROAD","SHELBY","MI","49455"
141981,"2593 W BIRCH DR","ROUND LAKE","IL","60073"
141982,"2593 W ROOSEVELT BLVD STE 205","MONROE","NC","28110"
141983,"25930 NARBONNE AVE SUITE 140","LOMITA","CA","90717"
141984,"25930 ROLLING HILLS RD UNIT 419","TORRANCE","CA","90505"
141985,"25930 WESTBOURNE DR","KATY","TX","77494"
141986,"25931","PRESCOTT VALLEY","AZ","86312"
141987,"25933 STAFFORD CANYON UNIT G","STEVENSON RANCH","CA","91381"
141988,"25934 N LAKEFAIR DR","RICHMOND","TX","77406"
141989,"25935 DETROIT AVENUE SUITE 131","WESTLAKE","OH","44145"
141990,"25937 WILDFLOWER LANE","FLAT ROCK","MI","48134"
141991,"25938 160TH AVE SE","COVINGTON","WA","98042"
141992,"2594 1080TH ST","ALEXIS","IL","61412"
141993,"2594 8TH AVE","EAST MEADOW","NY","11554"
141994,"2594 CONGRESS STREET","CARMEL","IN","46032"
141995,"2594 CROWNPOINT AVE","OMAHA","NE","68111"
141996,"2594 ELK CANYON CIRCLE","SEDALIA","CO","80135"
141997,"2594 FARMERS CENTRAL ROAD","WOODLAND","CA","95776"
141998,"2594 KENWOOD GLEN TERRACE","DORAVILLE","GA","30340"
141999,"2594 NESMITH RD","NESMITH","SC","29580"
142000,"2594 NESMITH ROAD","NESMITH","SC","29580"
