"ID","Address","City","State","Zip"
173501,"3250 POINT VIEW DRIVE","TALLAHASSEE","FL","32303"
173502,"3250 POST VALLEY DRIVE","O FALLON","MO","63368"
173503,"3250 RIDGE CREST CT","HAYWARD","CA","94541"
173504,"3250 RIVER DRIVE SW","LAWRENCEVILLE","GA","30044"
173505,"3250 RIVER ROAD WEST","GOOCHLAND","VA","23063"
173506,"3250 S ARIZONA AVE APT 1008","CHANDLER","AZ","85248"
173507,"3250 SKY TERRA DRIVE","MOBILE","AL","36618"
173508,"3250 UNIVERSITY AVE","HIGHLAND PARK","IL","60035"
173509,"3250 VIEW VALLEY TRAIL","KATY","TX","77493"
173510,"3250 W 60TH STREET","CHICAGO","IL","60629"
173511,"3250 W ADAMS ST","CHICAGO","IL","60624"
173512,"3250 W BIG BEAVER RD STE 302","TROY","MI","48084"
173513,"3250 WASHBURN AVE N","MINNEAPOLIS","MN","55412"
173514,"3250 WEST BIG BEAVER ROAD","TROY","MI","48084"
173515,"3250 WILSHIRE BLVD  SUITE 1700","LOS ANGELES","CA","90010"
173516,"3250 WILSHIRE BLVD - SUITTE 1500","LOS ANGELES","CA","90010"
173517,"3250 WILSHIRE BLVD 1705","LOS ANGELES","CA","90010"
173518,"3250 WILSHIRE BLVD SUITE 1500","LOS ANGELES","CA","90010"
173519,"3250 WILSHIRE BLVD SUITE 1750 J","LOS ANGELES","CA","90010"
173520,"3250-A RIVER ROAD WEST","GOOCHLAND","VA","23063"
173521,"32500 CHARDON ROAD","WILLOUGHBY HILLS","OH","44094"
173522,"32500 EL DIENTE COURT","EVERGREEN","CO","80439"
173523,"32500 SCENIC LANE","FRANKLIN","MI","48025"
173524,"32500 TELEGRAPH ROAD  SUITE 222","BINGHAM FARMS","MI","48025"
173525,"32501 J ROAD","HOTCHKISS","CO","81419"
173526,"32501 MCDONNELL LANE","FORT BRAGG","CA","95437"
173527,"32503 SEACLIFF DR","RANCHO PALOS VERDES","CA","90275"
173528,"32504 N 56TH PL","CAVE CREEK","AZ","85331"
173529,"32509 COAL HERITAGE RD RT 52 BOX 10","KEYSTONE","WV","24868"
173530,"3251 3RD AVENUE N  STE 125","ST PETERSBURG","FL","33713"
173531,"3251 AUSTINS COLONY PARKWAY","BRYAN","TX","77808"
173532,"3251 AUSTINS COLONY PKWY","BRYAN","TX","77808"
173533,"3251 CARMAN AVENUE","SPRINGFIELD","IL","62703"
173534,"3251 CHANDON WAY","HIGHLANDS RANCH","CO","80126"
173535,"3251 CORNISH CIR","SOUTH JORDAN","UT","84095"
173536,"3251 CORTE MALPASO STE 501B","CAMARILLO","CA","93012"
173537,"3251 CORTE MALPASO STE 501B/C","CAMARILLO","CA","93012"
173538,"3251 CROOKED OAK DR","LENOIR CITY","TN","37771"
173539,"3251 CROSS KEYS RD","COLUMBUS","OH","43232"
173540,"3251 DOUGLAS HIGHWAY","JUNEAU","AK","99801"
173541,"3251 FOREST AVE APT 15","KANSAS CITY","MO","64109"
173542,"3251 MARLA DRIVE","WINNEMUCCA","NV","89445"
173543,"3251 NE 180TH AVE","WILLISTON","FL","39686"
173544,"3251 RIVERWOOD WAY","CASTLE ROCK","CO","80109"
173545,"3251 ROSECRANS STREET","SAN DIEGO","CA","92110"
173546,"3251 S CLAY STREET","GREEN BAY","WI","54301"
173547,"3251 S KRAMERIA ST","DENVER","CO","80222"
173548,"3251 S STEWART AVE UNIT D","CHICAGO","IL","60616"
173549,"3251 SCHANROCK RD","MERIDIAN","MS","39301"
173550,"3251 SW 67 AVE","MIAMI","FL","33155"
173551,"3251 TRENT ROAD","ORIENTAL","NC","28571"
173552,"3251 W 53RD AVE","DENVER","CO","80221"
173553,"3251 W 6TH ST STE 342","LOS ANGELES","CA","90020"
173554,"3251 W 6TH STREET","LOS ANGELES","CA","90020"
173555,"32511 CLAY BANK RD","ERHARD","MN","56534"
173556,"32515 HIGHWAY 31","CALERA","AL","35040"
173557,"3252 ALBANS DRIVE","LOS ALAMITOS","CA","90720"
173558,"3252 CALHOUN RD NE","ROME","GA","30161"
173559,"3252 COLLEGE BLVD","LYNN HAVEN","FL","32444"
173560,"3252 EDGEMONT STREET","PHILADELPHIA","PA","19134"
173561,"3252 FOXCROFT RD UNIT 308","MIRAMAR","FL","33025"
173562,"3252 HAWKS NEST DR","KISSIMMEE","FL","34741"
173563,"3252 HILLVIEW LANE","LAFAYETTE","CA","94549"
173564,"3252 HOOPER RD","FOREST","VA","24551"
173565,"3252 HUNTERS LANDING RD","BINGHAMTON","NY","13903"
173566,"3252 KILER CANYON ROAD","PASO ROBLES","CA","93446"
173567,"3252 LEXINGTON WAY","AUGUSTA","GA","30909"
173568,"3252 NORTH PALMER STREET","MILWAUKEE","WI","53212"
173569,"3252 SE  23RD ST","GRESHAM","OR","97080"
173570,"3252 SOUTHFORK DRIVE","PACE","FL","32571"
173571,"3252 SW WARNICKS RD","ST JOSEPH","MO","64504"
173572,"3252-B CLEVELAND AVENUE","COLUMBUS","OH","43224"
173573,"32522 WESTMINSTER DRIVE","WESTON LAKES","TX","77441"
173574,"32523 342ND AVE SE","RAVENSDALE","WA","98051"
173575,"32526 DUNFORD STREET","FARMINGTON HILLS","MI","48334"
173576,"3253 DOGWOOD DR","ATLANTA","GA","30354"
173577,"3253 GREEN KNOLL RD","WINDSOR MILL","MD","21244"
173578,"3253 GREEN KNOLL ROAD","BALTIMORE","MD","21244"
173579,"3253 KALLIN AVENUE","LONG BEACH","CA","90808"
173580,"3253 N LEWISVILLE LN","PARAGON","IN","46166"
173581,"3253 STANTON RD SE","WASHINGTON","DC","20020"
173582,"32539 2ND AVE","SAN ANTONIO","FL","33576"
173583,"3254 BANNING ROAD","CINCINNATI","OH","45239"
173584,"3254 BLACK OAK DRIVE","EAGAN","MN","55121"
173585,"3254 CASA LINDA DRIVE","DECATUR","GA","30032"
173586,"3254 HAZELWOOD","DETROIT","MI","48224"
173587,"3254 OAKDALE RD","STUDIO CITY","CA","91604"
173588,"3254 RIVERWOODS DR NE","ROCKFORD","MI","49341"
173589,"3254 S 301ST PL","AUBURN","WA","98001"
173590,"3254 SECOND STREET","OCEANSIDE","NY","11572"
173591,"3254 TRANQUILITY CT SE","SALEM","OR","97317"
173592,"3254 VAN AKEN BLVD","SHAKER HEIGHTS","OH","44120"
173593,"3254 W 86TH STREET","CHICAGO","IL","60652"
173594,"3254 W ROCKPORT PARK DR","JANESVILLE","WI","53548"
173595,"3254 WEST 116TH STREET","CLEVELAND","OH","44111"
173596,"3254 WININGS LANE","CARMEL","IN","46074"
173597,"32542 SAFFLOWER ST","WINCHESTER","CA","92596"
173598,"3255 39TH ST","ZACHARY","LA","70791"
173599,"3255 39TH STREET","ZACHARY","LA","70791"
173600,"3255 BROOMFIELD RD","DOVER","AR","72837"
173601,"3255 CALVIN CT","EAST POINT","GA","30344"
173602,"3255 CERRITOS AVE","SIGNAL HILL","CA","90755"
173603,"3255 CHESTNUT DR APT 2","EAST POINT","GA","30344"
173604,"3255 CYPRESS PARK RD UNIT C","GREENSBORO","NC","27407"
173605,"3255 FAIRGROVE TERRACE","ROCHESTER HILLS","MI","48309"
173606,"3255 GOTHIC PLACE","COLORADO SPRINGS","CO","80917"
173607,"3255 LAUREL ST","INDIANAPOLIS","IN","46227"
173608,"3255 LONGVIEW RD","MECHANICSBURG","PA","17055"
173609,"3255 LORIEN DR","PINCKNEY","MI","48169"
173610,"3255 LORIEN DRIVE","PINCKNEY","MI","48169"
173611,"3255 MATTHEWS DRIVE","SUMTER","SC","29154"
173612,"3255 N SURGING WATERS PLACE","TUCSON","AZ","85712"
173613,"3255 NE 184TH STREET APT 12218","N MIAMI BEACH","FL","33160"
173614,"3255 NW 94TH AVE NUM 8067","CORAL SPRINGS","FL","33065"
173615,"3255 NW 94TH AVE NUM 8711","CORAL SPRINGS","FL","33065"
173616,"3255 PIONEER DRIVE","GREEN BAY","WI","54313"
173617,"3255 POND RIDGE TRAIL","SNELLVILLE","GA","30078"
173618,"3255 PRUETT DRIVE","ROSEVILLE","CA","95747"
173619,"3255 S DORSEY LANE 1007","TEMPE","AZ","85282"
173620,"3255 SAINT ROSE PARKWAY SUITE 160","HNEDERSON","NV","89074"
173621,"3255 WILMINGTON ROAD","MONTGOMERY","AL","36105"
173622,"3255 WILSHIR BLVD SUITE 1717","LOS ANGELES","CA","90010"
173623,"3255 WILSHIRE BLVD STE 1717","LOS ANGELES","CA","90010"
173624,"3255 WILSHIRE BOULEVARD SUITE 1010","LOS ANGELES","CA","90010"
173625,"32553 FORSTER ROAD","LA CRESCENT","MN","55947"
173626,"32555 DEER HOLLOW WAY","TEMECULA","CA","92592"
173627,"32557 COUNTY 30","LAPORTE","MN","56461"
173628,"3256 BERRY DR","STUDIO CITY","CA","91604"
173629,"3256 BROWNS ISLAND CT","WEST SACRAMENTO","CA","95691"
173630,"3256 FIREBUSH AVENUE","ROSAMOND","CA","93560"
173631,"3256 MERCER UNIVERSITY DRIVE 116","CHAMBLEE","GA","30341"
173632,"3256 MILLWOOD TRAIL SE","SMYRNA","GA","30080"
173633,"3256 NORTHAVEN RD","DALLAS","TX","75229"
173634,"3256 ROSEDALE DRIVE","ARNOLD","MO","63010"
173635,"3256 SOUTH 106TH STREET","WEST ALLIS","WI","53227"
173636,"3256 WEATHERED WOOD WAY","REX","GA","30273"
173637,"3256 WEST LAKE MARY BLVD SUITE 1100","LAKE MARY","FL","32746"
173638,"32565 B GOLDEN LANTERN 354","DANA POINT","CA","92629"
173639,"32565 GOLDEN LANTERN 201","DANA POINT","CA","92629"
173640,"32565 GOLDEN LANTERN ST SUITE B260","DANA POINT","CA","92629"
173641,"32565-B GOLDEN LANTERN STREET 185","DANA POINT","CA","92629"
173642,"32565-B GOLDENA LANTERN ST 118","DANA POINT","CA","92629"
173643,"32565B GOLDEN LANTERN SUITE 261","DANA POINT","CA","92629"
173644,"3257 7TH ST","SARASOTA","FL","34237"
173645,"3257 BERT KOUNS APARTMENT 20105","SHREVEPORT","LA","71118"
173646,"3257 BERT KOUNS INDUSTRIAL APT15205","SHREVEPORT","LA","71118"
173647,"3257 CARRIAGE DR","PALM HARBOR","FL","34684"
173648,"3257 CREEK TRACE E","POWDER SPRINGS","GA","30127"
173649,"3257 EAST GERONIMO COURT","GILBERT","AZ","85295"
173650,"3257 LOHR RD","ANN ARBOR","MI","48108"
173651,"3257 S HUNTER OAK WAY","WEST VALLEY CITY","UT","84128"
173652,"3258 55TH STREET 2FL","WOODSIDE","NY","11377"
173653,"3258 BROAD STREET","DEXTER","MI","48130"
173654,"3258 GAYLORD AVENUE","PITTSBURGH","PA","15216"
173655,"3258 LANIER DR","BATON ROUGE","LA","70814"
173656,"3258 N CHAMBERLAIN BLVD","NORTH PORT","FL","34286"
173657,"3258 RIVER LANDING DR","ADDIS","LA","70710"
173658,"3258 S PINE ISLAND RD","BEAUMONT","TX","77713"
173659,"3258 SOUTHEAST RIVER VISTA DRIVE","PORT SAINT LUCIE","FL","34952"
173660,"32580 GRANDRIVER AVE - 14","FARMINGTON HILLS","MI","48336"
173661,"32581 MEADOW MOUNTAIN ROAD","EVERGREEN","CO","80439"
173662,"32583 SNOWSHOE RD","EVERGREEN","CA","80439"
173663,"32584 GALATINA STREET","TEMECULA","CA","92592"
173664,"3259 HOLDREGE ST  ROOM 7","LINCOLN","NE","68503"
173665,"3259 HYATT COURT","SAINT PETERS","MO","63303"
173666,"3259 KOAPAKA ST STE B","HONOLULU","HI","96819"
173667,"3259 LAPP LANE","NAPERVILLE","IL","60564"
173668,"3259 SAINT ANNE DRIVE","DUBUQUE","IA","52001"
173669,"3259 TRAIL POINT","DOUGLASVILLE","GA","30135"
173670,"3259 WELMINGAM  DRIVE SW","ATLANTA","GA","30331"
173671,"32593 RIVERSIDE DR","LAKE ELSINORE","CA","92530"
173672,"32597 C C RD","SLIDELL","LA","70460"
173673,"32598 SEWARD HWY","MOOSE PASS","AK","99631"
173674,"326 13TH STREET   UNIT 5","HUNTINGTON BEACH","CA","92648"
173675,"326 15TH ST SE APT B","WASHINGTON","DC","20003"
173676,"326 15TH STREET","OAKLAND","CA","94612"
173677,"326 2ND AVENUE","DECATUR","GA","30030"
173678,"326 3RD STREET","FARMINGTON","MN","55024"
173679,"326 4TH ST SE","WASHINGTON","DC","20003"
173680,"326 7TH STRETT","LAKEWOOD","NJ","08701"
173681,"326 ANCASTER COURT","NEKOOSA","WI","54457"
173682,"326 ANTIOCH ROAD","MGDONOUGH","GA","30252"
173683,"326 ARROYO DR","ENCINITAS","CA","92024"
173684,"326 ASBURY AVENUE","RIPLEY","TN","38063"
173685,"326 BEECH LANE","MIDDLETOWN","DE","19709"
173686,"326 BLUE MOUNTAIN RD","ANNISTON","AL","36201"
173687,"326 CALLAND DR","OROFINO","ID","83544"
173688,"326 CENTENNIAL BLVD","SPRINGFIELD","OR","97477"
173689,"326 CHANCELLOR AVENUE","NEWARK","NJ","07112"
173690,"326 CLEARBROOK AVE","LANSDOWNE","PA","19050"
173691,"326 CONCORD AVE","GREENSBURG","PA","15601"
173692,"326 COOPER SCHOOL RD","VACAVILLE","CA","95687"
173693,"326 CORNELIA STREET","BROOKLYN","NY","11237"
173694,"326 CRABAPPLE CHASE DRIVE","ANDERSON","SC","29625"
173695,"326 CROSSWHITE LANE","ERWIN","TN","37650"
173696,"326 DAYTON AVE","SPRINGFILED","OH","45506"
173697,"326 DONAHEY AVE NE","NEW PHILADELPHIA","OH","44663"
173698,"326 DUG ROAD","S GLASTONBURY","CT","06073"
173699,"326 E 103RD ST","KANSAS CITY","MO","64114"
173700,"326 E 36TH STREET","LOS ANGELES","CA","90011"
173701,"326 E 47TH PLACE","LOS ANGELES","CA","90011"
173702,"326 E MAIN ST","SYKESVILLE","PA","15865"
173703,"326 EAST 35TH STREET APT 62","NYC","NY","10016"
173704,"326 EGLINGTON WAY","CIBOLO","TX","78108"
173705,"326 ERIN DRIVE","NILES","MI","49120"
173706,"326 FERN STREET SUITE 613","WEST PALM BEACH","FL","33401"
173707,"326 FIRESTONE RD","GREENSBURG","PA","15601"
173708,"326 FM 286","HILLSBORO","TX","76645"
173709,"326 FOREST BEND DRIVE","MT JULIET","TN","37122"
173710,"326 GIFFORD PLACE","TEANECK","NJ","07666"
173711,"326 GREENLEAF DRIVE","BIRMINGHAM","AL","35214"
173712,"326 HABERSHAM ROAD","MARTINEZ","GA","30907"
173713,"326 HARRIS ST    P O  BOX 916","ITALY","TX","76651"
173714,"326 HIGHLAND AVENUE PO BOX 123","KUTZTOWN","PA","19530"
173715,"326 HUDSON AVENUE","ALBANY","NY","12210"
173716,"326 I ST SUITE 147","EUREKA","CA","95501"
173717,"326 I STREET SUITE 148","EUREKA","CA","95501"
173718,"326 JACKRABBIT DR","EL CENTRO","CA","92243"
173719,"326 KAHAKO ST","KAILUA","HI","96734"
173720,"326 KING AVE  APT 310","WILMINGTON","CA","90744"
173721,"326 LAKEVIEW DRIVE","ALEXANDER CITY","AL","35010"
173722,"326 LOCUST STREET","WALTERBORO","SC","29488"
173723,"326 LONG CANE ROAD","LAGRANGE","GA","30240"
173724,"326 MAIN ST","HLAF MOON BAY","CA","94019"
173725,"326 MAIN STREET","MOVILLE","IA","51039"
173726,"326 MAPLE TERRACE","PITTSBURGH","PA","15211"
173727,"326 MARKETVIEW","IRVINE","CA","92602"
173728,"326 MAYNARD AVE SW","WALKER","MI","49534"
173729,"326 MCCLURES MILL ROAD","GREENVILLE","VA","24440"
173730,"326 MERCER STREET","ELIZABETHTOWN","KY","42701"
173731,"326 MIDLAND COURT","WEST NEW YORK","NJ","07093"
173732,"326 MILL HOUSE DR","LINCOLN UNIVERSITY","PA","19352"
173733,"326 N ALMONT DRIVE","BEVERLY HILLS","NE","90211"
173734,"326 N ATHENIAN","WICHITA","KS","67203"
173735,"326 N ELM AVENUE","NEWTOWN","PA","18940"
173736,"326 N HAMPTON RD","WILMINGTON","NC","28409"
173737,"326 N SANDBRANCH ROAD APT 9A","MOUNT HOPE","WV","25880"
173738,"326 N WESTERN AVE SUITE 206","LOS ANGELES","CA","90004"
173739,"326 NAVAJO LOOP","HUNTINGTON","CT","06484"
173740,"326 NELSON ST SW APT 306","ATLANTA","GA","30313"
173741,"326 NELSON STREET SW  UNIT 302","ATLANTA","GA","30313"
173742,"326 NORA ST","STOUGHTON","WI","53589"
173743,"326 NORTH UNION","SHAWNEE","OK","74801"
173744,"326 NORTHRIDGE DRIVE","GRAND JUNCTION","CO","81506"
173745,"326 NW STRATFORD LANE","ANKENY","IA","50023"
173746,"326 ORCHARD TRACE LANE APT 6","CHARLOTTE","NC","28213"
173747,"326 ORENDORFF WAY NE","COLUMBIA HEIGHTS","MN","55421"
173748,"326 PARKER AVENUE","CLIFTON","NJ","07011"
173749,"326 POPHAM LN","CORVALLIS","MT","59828"
173750,"326 PROSPECT AVENUE 11H","HACKENSACK","NJ","07601"
173751,"326 REID AVENUE","PORT SAINT JOE","FL","32456"
173752,"326 RICE MILL DR","MYRTLE BEACH","SC","29588"
173753,"326 RIDER RIDGE ROAD","SANTA CRUZ","CA","95065"
173754,"326 RIDGE LANE","AUTRYVILLE","NC","28318"
173755,"326 RIO DRIVE","CHESAPEAKEKE","VA","23322"
173756,"326 ROCK ISLAND ST","DALLAS","TX","75207"
173757,"326 ROCKFERN AVE","ELYRIA","OH","44035"
173758,"326 S DILLARD ST","WINTER GARDEN","FL","34787"
173759,"326 S HEWITT ST UNIT 1","LOS ANGELES","CA","90018"
173760,"326 SAINT IDA CIR","LAFAYETTE","CO","80026"
173761,"326 SEDONA FALLS DR","SUNNYVALE","TX","75182"
173762,"326 SMITHWOLD RD","SOMERSET","NJ","08873"
173763,"326 SOUTHMOOR DRIVE","NATCHEZ","MS","39120"
173764,"326 SPRING STREET","JEFFERSONVILLE","IN","47130"
173765,"326 TABBS LANE","NEWPORT NEWS","VA","23602"
173766,"326 TAYLOR ROAD","KNOXVILLE","TN","37920"
173767,"326 TUSCARORA TRL","HARTWELL","GA","30643"
173768,"326 TY LANE","TRENTON","GA","30752"
173769,"326 VINCENT STREET","PHILOMATH","OR","97370"
173770,"326 W CHURCH ST","SOCORRO","NM","87801"
173771,"326 W NEW HAVEN AVENUE","MELBOURNE","FL","32901"
173772,"326 W PARADISE ST","ORRVILLE","OH","44667"
173773,"326 WALSH COURT","BROOKLYN","NY","11230"
173774,"326 WEST POINT DR","CLAREMONT","CA","91711"
173775,"326 WEST SENECA ST","ITHACA","NY","14850"
173776,"326 WILD PLUM ST","SAN MARCOS","TX","78666"
173777,"326 WOODBINE AVE","STATEN ISLAND","NY","10314"
173778,"326 WOODLAWN RD","BALTIMORE","MD","21210"
173779,"3260  FORDS COLONY DR","ROCKY MOUNT","NC","27804"
173780,"3260 BASS LAKE RD STE C","BROOKLYN CENTER","MN","55428"
173781,"3260 E WASATCH PINES LANE","SANDY","UT","84092"
173782,"3260 E WOODMEN RD STE 100","COLORADO SPGS","CO","80920"
173783,"3260 FAIRWAY DRIVE","LA MESA","CA","91941"
173784,"3260 FOUNTAIN FALLS WAY APT 1012","N LAS VEGAS","NV","89032"
173785,"3260 HENRY HUDSON PARKWAY APT 4F","BRONX","NY","10463"
173786,"3260 KINGSHOUSE COMMONS","ALPHARETTA","GA","30022"
173787,"3260 LIBERTY COURT SE","CONYERS","GA","30094"
173788,"3260 LONG RD","DESOTO","MO","63020"
173789,"3260 N 53RD ST","MILWAUKEE","WI","53216"
173790,"3260 N HAYDEN RD STE 210","SCOTTSDALE","AZ","85251"
173791,"3260 NIAGARA SQUARE","PITTSBURGH","PA","15213"
173792,"3260 NW 112TH AVE","CORAL SPRINGS","FL","33065"
173793,"3260 NW 23RD AVE SUITE 1100E","POMPANO BEACH","FL","33069"
173794,"3260 NW IVY LN","CAMAS","WA","98607"
173795,"3260 ORCHARD AVE","EDMOND","OK","73012"
173796,"3260 PRAIRIE SMOKE RD","BOZEMAN","MT","59715"
173797,"3260 REGENCY DR","LAKE ORION","MI","48359"
173798,"3260 STIRLING RD STE B","HOLLYWOOD","FL","33021"
173799,"3260 SW 25 ST","MIAMI","FL","33133"
173800,"3260 THAMES WAY","MIRAMAR","FL","33025"
173801,"32602 RIVERWOOD DRIVE","MAGNOLIA","TX","77354"
173802,"3261 19TH ST NW","ROCHESTER","MN","55901"
173803,"3261 ASHWORTH AVE","HIGHLANDS RANCH","CO","80126"
173804,"3261 E B AVE","PLAINWELL","MI","49080"
173805,"3261 E STATE ROAD 14","COLUMBIA CITY","IN","46725"
173806,"3261 EAST MILLER DRIVE","FLAGSTAFF","AZ","86004"
173807,"3261 FRANKLIN RD","MURFREESBORO","TN","37128"
173808,"3261 GEORGIA RD","FRANKLIN","NC","28734"
173809,"3261 HILHAM ROAD APT I2","COOKEVILLE","TN","38506"
173810,"3261 KEADY MILL LOOP","KANNAPOLIS","NC","28081"
173811,"3261 KNOWLAND AVE","OAKLAND","CA","94619"
173812,"3261 LANCASTER LN","MONTGOMERY","AL","36106"
173813,"3261 MONTECITO DR","LAS VEGAS","NV","89120"
173814,"3261 N 92ND STREET","MILWAUKEE","WI","53222"
173815,"3261 NW 40TH DRIVE APT 2","OKEECHOBEE","FL","34972"
173816,"3261 NW 96 WAY","SUNRISE","FL","33351"
173817,"3261 OLD WASHINGTON RD 2020","WALDORF","MD","20602"
173818,"3261 OLD WASHINGTON RD SUITE 1011","WALDORF","MD","20602"
173819,"3261 OLD WASHINGTON ROAD SUITE 2020","WALDORF","MD","20602"
173820,"3261 OZARK HWY","ENTERPRISE","AL","36330"
173821,"3261 PATRICK F TAYLOR HALL","BATON ROUGE","LA","70803"
173822,"3261 QUEENS GRANT DRIVE","MIDLOTHIAN","VA","23113"
173823,"3261 ROSS ROAD","PALO ALTO","CA","94303"
173824,"3261 SHINGLE SPRINGS DR","SHINGLE SPRINGS","CA","95682"
173825,"3261 SHINGLE SPRINGS DRIVE","SHINGLE SPRINGS","CA","95682"
173826,"3261 STANTON ROAD SE","WASHINGTON DC","DC","20020"
173827,"3261 ZUBIN LANE","KATY","TX","77493"
173828,"32610 STATE HWY 12","TRINIDAD","CO","81082"
173829,"32611 THE OLD ROAD","CASTAIC","CA","91384"
173830,"32619 COOPER DR NE","ALBANY","OR","97321"
173831,"3262 CAPRIANA CIRCLE","SAN JOSE","CA","95135"
173832,"3262 DRAKE AVE","GROVEPORT","OH","43125"
173833,"3262 LORI LANE","NEW PORT RICHEY","FL","34655"
173834,"3262 MARYSVILLE BLVD","SACRAMENTO","CA","95815"
173835,"3262 POINTE AUX BARQUES","PORT AUSTIN","MI","48467"
173836,"3262 S HUDSON AVE APT 72","TULSA","OK","74135"
173837,"3262 W WASHINGTON BLVD","CHICAGO","IL","60624"
173838,"3262 WESTHEIMER RD  124","HOUSTON","TX","77098"
173839,"3262 WESTHEIMER RD SUITE 219","HOUSTON","TX","77098"
173840,"3262 WESTHIMER ROAD STE 341","HOUSTON","TX","77098"
173841,"32620 JOYA ST","LOS FRESNOS","TX","78566"
173842,"32624 BLOSSOM LANE","LEESBURG","FL","34788"
173843,"32624 WOLFS TRAIL","SORRENTO","FL","32776"
173844,"32627 NE 109TH ST","CARNATION","WA","98014"
173845,"3263 AUTUMN ASH DRIVE","ZIONSVILLE","IN","46077"
173846,"3263 BIDLINGTON DR","COLUMBUS","OH","43224"
173847,"3263 BIDLINGTON DRIVE","COLUMBUS","OH","43224"
173848,"3263 GREENHILL COURT","VILLA RICA","GA","30180"
173849,"3263 HWY 70","BEAUFORT","NC","28516"
173850,"3263 OAK ORCHARD ROAD","ALBION","NY","14411"
173851,"3263 SHAWN WAY","HAYWARD","CA","94541"
173852,"3263 SPRING MESA CT","SNELLVELLE","GA","30039"
173853,"3263 US HIGHWAY 70 EAST","BEAUFORT","NC","28516"
173854,"3263 VERDANT DRIVE SW  -  1318","ATLANTA","GA","30331"
173855,"32630 TIMBER HILL DR","DADE CITY","FL","33523"
173856,"32638 RAY CT","VISALIA","CA","93292"
173857,"32639 LONG NECK RD   UNIT 18","MILLSBORO","DE","19966"
173858,"3264 ALTAMONT AVE","CLEVELAND HEIGHTS","OH","44118"
173859,"3264 CENTRAL AVENUE","ALAMEDA","CA","94501"
173860,"3264 CHATWIN AVE","LONG BEACH","CA","90808"
173861,"3264 PALMO CT","SAN JOSE","CA","95135"
173862,"3264 SANDERS ROAD UNIT B7","NORTHBROOK","IL","60062"
173863,"3264 SENECA TPKE","CANASTOTA","NY","13032"
173864,"3264 TOWNSEND BLVD","JACKSONVILLE","FL","32277"
173865,"3264 TOWNSEND","JACKSONVILLE","FL","32277"
173866,"3264 WINBROOK DR","MEMPHIS","TN","38116"
173867,"32640 CONCORD DRIVE","MADISON HEIGHTS","MI","48071"
173868,"32645 RACHEL CIR","DANA POINT","CA","92629"
173869,"32648 COACH DR","CHESTERFIELD","MI","48047"
173870,"3265 AAGIMAAK","MT. PLEASANT","MI","48858"
173871,"3265 ALMANAC ROAD","TALLAHASSEE","FL","32309"
173872,"3265 AQUEOUS LN","INDIANAPOLIS","IN","46214"
173873,"3265 CHURCHHILL LN 5","SAGINAW","MI","48603"
173874,"3265 E INDIGO BAY CT","GILBERT","AZ","85234"
173875,"3265 LIBERTY RD S","SALEM","OR","97302"
173876,"3265 N CALLE TORTOSA","TUCSON","AZ","85750"
173877,"3265 REBEL DR","SUN PRAIRIE","WI","53590"
173878,"3265 S SHORE DR SE APT 1","ALBANY","OR","97322"
173879,"3265 SANTA FE AVE APT 145","LONG BEACH","CA","90810"
173880,"3265 SUGARLOAF MOUNTAIN ROAD","LOOMIS","CA","95650"
173881,"32650 NANTASKET DRIVE APT 94","RANCHO PALOS VERDES","CA","90275"
173882,"32652 REDBUD DRIVE","BRIGHTON","IL","62012"
173883,"32659 CR 41","HUGO","CO","80821"
173884,"3266 BELLINGHAM DR","ORLANDO","FL","32825"
173885,"3266 HUNTING RIDGE ROAD","WINCHESTER","VA","22603"
173886,"3266 MCKELL DRIVE","MEMPHIS","TN","38127"
173887,"3266 N MERIDIAN ST","INDIANAPOLIS","IN","46208"
173888,"3266 RIDERS TRAIL","FORT WAYNE","IN","46814"
173889,"3266 RIVERWOOD WAY","CASTLE ROCK","CO","80109"
173890,"3266 S FOX ST","ENGLEWOOD","CO","80110"
173891,"3266 WESTCHESTER DR","ABILENE","TX","79606"
173892,"3266 WYNDHAM PARK WAY","DECATUR","GA","30034"
173893,"3266 ZOAR CHURCH LANE","SNELLVILLE","GA","30039"
173894,"32667 270TH ST","SLEEPY EYE","MN","56085"
173895,"3267 12TH AVE","ANOKA","MN","55303"
173896,"3267 BALTIC AVENUE","LONG BEACH","CA","90810"
173897,"3267 BEE CAVES ROAD SUITE 107-104","AUSTIN","TX","78746"
173898,"3267 CLAIRMONT NORTH NE","BROOKHAVEN","GA","30329"
173899,"3267 FORREST BLUFF WAY","LITHONIA","GA","30038"
173900,"3267 JANUARY AVE 4","ST. LOUIS","MO","63139"
173901,"3267 N 1ST ST","MILWAUKEE","WI","53212"
173902,"3267 N 36TH STREET","MILWAUKEE","WI","53216"
173903,"3267 N MIDDLETOWN RD","PARIS","KY","40361"
173904,"32676 WHIMBRET WAY","SPANISH FORT","AL","36527"
173905,"32677 SEMINOLE RD W","SEMINOLE","AL","36574"
173906,"3268 COMMERCIAL PKWY","MEMPHIS","TN","38116"
173907,"3268 EAGLE WAY","ROSAMOND","CA","93560"
173908,"3268 GOVERNOR DR  SUITE 262","SAN DIEGO","CA","92122"
173909,"3268 GOVERNOR DR NUMBER 104","SAN DIEGO","CA","92122"
173910,"3268 LAWRENCE AVENUE","OCEANSIDE","NY","11572"
173911,"3268 LONDON LANE","OXNARD","CA","93036"
173912,"3268 MIKE GODWIN DRIVE","EL PASO","TX","79936"
173913,"3268 NW 118TH LN","CORAL SPRINGS","FL","33065"
173914,"3268 REX RD","REX","GA","30273"
173915,"3268 SW 137TH LOOP","OCALA","FL","34473"
173916,"32681 ATKINS WY","FORT BRAGG","CA","95437"
173917,"3268A MISSION ST","SAN FRANCISCO","CA","94110"
173918,"3269 98 CIRCLE N","BROOKLYN PARK","MN","55443"
173919,"3269 MARCHANT DRIVE","BETHLEHEM","PA","18017"
173920,"3269 N SUMMIT AVE","MILWAUKEE","WI","53211"
173921,"3269 NELSON ROAD","OSHKOSH","WI","54904"
173922,"3269 OLD CONCORD ROAD","SMYRNA","GA","30082"
173923,"3269 STOCKTON HILL KRMC CASE MGR","KINGMAN","AZ","86409"
173924,"32693 GRUWELL STREET","WILDOMAR","CA","92595"
173925,"32693 ROAD 236","WOODLAKE","CA","93286"
173926,"32695 WEST OAKLAND ROAD","NASHOTAH","WI","53058"
173927,"327 30TH ST","GULFPORT","MS","39507"
173928,"327 4TH AVENUE NE","SAINT CLOUD","MN","56304"
173929,"327 52ND STREET","NEWPORT NEWS","VA","23607"
173930,"327 7TH AVE","LOMPOC","CA","93436"
173931,"327 ADAMS RANCH ROAD APT 703","TELLURIDE","CO","81435"
173932,"327 ALEXANDRIA DRIVE","MACON","GA","31210"
173933,"327 AMERICAN RIVER CT","OXNARD","CA","93036"
173934,"327 B PARKVIEW ROAD","READING","PA","19606"
173935,"327 BARBIE ST","SOUTH BEND","IN","46614"
173936,"327 BLOOMFIELD AVENUE","CALDWELL","NJ","07006"
173937,"327 BRIDGE STREET","EAST BRIDGEWATER","MA","02333"
173938,"327 BRYN MAWR DRIVE","WILLIAMSTOWN","NJ","08094"
173939,"327 BUCKINGHAM DR","VENETIA","PA","15367"
173940,"327 CALIFORNIA AVE","RENO","NV","89509"
173941,"327 CANNON TRAIL","DALLAS","GA","30157"
173942,"327 CANTON STREET","STOUGHTON","MA","02072"
173943,"327 CASTRO ST","OAKLAND","CA","94607"
173944,"327 CHERRY STREET","NEW YORK","NY","10002"
173945,"327 COUNTY ROAD 4651","POPLAR BLUFF","MO","63901"
173946,"327 COVINA AVE","SAN ANTONIO","TX","78218"
173947,"327 CROSS STREET","WESTBURY","NY","11590"
173948,"327 CURIE DR","SAN JOSE","CA","95119"
173949,"327 DAHLONEGA STREET STE 903A","CUMMING","GA","30040"
173950,"327 DECELLE STREET","JACKSON","MS","39216"
173951,"327 E  74TH ST","LOS ANGELES","CA","90003"
173952,"327 E 4TH ST","HUNTINGBURG","IN","47542"
173953,"327 E PERSHING RD","CHICAGO","IL","60653"
173954,"327 E42ND STREET","PATERSON","NJ","07504"
173955,"327 EAST 23RD ST APT G1","CHESTER","PA","19013"
173956,"327 EGAN DR","CRESTVIEW","FL","32536"
173957,"327 FOXBANK PLANTATION BLVD","MONCKS CORNER","SC","29461"
173958,"327 FRANKLIN AVENUE UNIT 3 SOUTH","HARTFORD","CT","06114"
173959,"327 GRAND OAKS DRIVE","NICEVILLE","FL","32578"
173960,"327 HAMILTON STREET APT 2","RAHWAY","NJ","07065"
173961,"327 HAVERHILL STREET","LAWRENCE","MA","01841"
173962,"327 HELLERMAN STREET","PHILADELPHIA","PA","19111"
173963,"327 HERSDEN LANE","ARNOLD","MD","21012"
173964,"327 HIDDEN CREEK PLACE","WEST FORK","AR","72774"
173965,"327 HILLBROOK ROAD","LAURENS","SC","29360"
173966,"327 HOWELL DRIVE SW","ATLANTA","GA","30331"
173967,"327 HUBBARD ST","ALLEGAN","MI","49010"
173968,"327 IRVINE CT","CHIPPEWA FALLS","WI","54729"
173969,"327 KAULANA ROAD","KAPAA","HI","96746"
173970,"327 KINGSTON AVE APT 3FL","BROOKLYN","NY","11213"
173971,"327 KIVA PLACE","SANTA ROSA","CA","95403"
173972,"327 LOGAN STREET","FRANKFORT","KY","40601"
173973,"327 MANOR RD","HARLEYSVILLE","PA","19438"
173974,"327 MARGARET AVE","ESSEX","MD","21221"
173975,"327 MEADOWBROOK LN","TALLAHASSEE","FL","32304"
173976,"327 MERRILL AVENUE","CALUMET CITY","IL","60409"
173977,"327 MILL POND RD","BLUFFTON","SC","29910"
173978,"327 MISSOURI AVE SUITE 417","EAST SAINT LOUIS","IL","62201"
173979,"327 N 21ST ST","LOUISVILLE","KY","40203"
173980,"327 N ASHLEY STREET DA OFFICE","VALDOSTA","GA","31601"
173981,"327 N CALLE DEL CHANCERO","GREEN VALLEY","AZ","85614"
173982,"327 N MILAN PLACE","ANAHEIM","CA","92801"
173983,"327 N QUEEN ST","KINSTON","NC","28504"
173984,"327 NELSON AVE","LONGWOOD","FL","32750"
173985,"327 NORTH PARKSIDE AVENUE","CHICAGO","IL","60644"
173986,"327 OFFICE PLAZA DRIVE  SUITE 108","TALLAHASSEE","FL","32301"
173987,"327 OFFICE PLAZA SUITE 208","TALLAHASSEE","FL","32301"
173988,"327 PARKLANDS TRAIL","BOZEMAN","MT","59718"
173989,"327 PENNSYLVANIA  AVE","OCOEE","FL","34761"
173990,"327 REGENCY AVENUE","PATASKALA","SC","43062"
173991,"327 RIVERSVILLE ROAD","GREENWICH","CT","06831"
173992,"327 ROBINSON WAY","BATAVIA","IL","60510"
173993,"327 ROYAL BLUFF RD","JACKSONVILLE","NC","28540"
173994,"327 S COUNTY RD 13","ORLANDO","FL","32833"
173995,"327 S FILLMORE STREET","EDWARDSVILLE","IL","62025"
173996,"327 S MARKET ST","TROY","OH","45373"
173997,"327 SAINT JAMES AVENUE","WOODBRIDGE","NJ","07095"
173998,"327 SNAPDRAGON LOOP","BRADENTON","FL","34212"
173999,"327 SOUTH ADAMS STREET","QUINCY","FL","32351"
174000,"327 SOUTH ELM STREET","CAMPBELLSPORT","WI","53010"
