"ID","Address","City","State","Zip"
307001,"8873 CHRISTIE DR","LARGO","FL","33771"
307002,"8873 FRIENDSVILLE ROAD","LODI","OH","44254"
307003,"8874 CONWHIT LN SW","PORT ORCHARD","WA","98367"
307004,"8874 HIGHWAY 25","ANGORA","MN","55703"
307005,"8874 ROCKY CREEK DRIVE","WEST JORDAN","UT","84081"
307006,"8875 HIDDEN RIVER PARKWAY SUITE 300","TAMPA","FL","33637"
307007,"8875 HILLERY DRIVE","SAN DIEGO","CA","92126"
307008,"8875 RAILWOOD DRIVE","NEWPORT","MI","48166"
307009,"8876 OVERLOOK POINT","SAINT JOHN","IN","46373"
307010,"8877 COLLINS AVE APT 406","MIAMI","FL","33136"
307011,"8877 LAKES AT 610 DR 124","HOUSTON","TX","77054"
307012,"8877 LAKES AT 610 DR APT 201","HOUSTON","TX","77054"
307013,"8877 LAKES AT 610 DRIVE","HOUSTON","TX","77054"
307014,"8877 MAIN STREET","WHITMORE LAKE","MI","48189"
307015,"8877 SW 99 STREET","MIAMI","FL","33176"
307016,"88772 GREEN MOUNTAIN RD","ASTORIA","OR","97103"
307017,"8878 CLAIREMONT MESA BLVD","SAN DIEGO","CA","92123"
307018,"8878 COUNTY ROAD 150","SALIDA","CO","81201"
307019,"8878 MAGNOLIA SPRINGS HWY LOT A","FOLEY","AL","36535"
307020,"8878 MONARD DRIVE","SILVER SPRING","MD","20910"
307021,"8878 NW 63RD ST STE 103","PARKVILLE","MO","64152"
307022,"8878 SCREECH OWL COURT","GAINESVILLE","VA","20155"
307023,"8878 SW 86TH LOOP","OCALA","FL","34481"
307024,"8879 CONNEMARA LN","CLARENCE CENTER","NY","14032"
307025,"8879 GOAT HOLLOW ROAD","MOORESVILLE","IN","46158"
307026,"8879 LINCOLN STREET","SAVAGE","MD","20763"
307027,"8879 W FLAMINGO RD SUITE 102","LAS VEGAS","NV","89147"
307028,"888 4TH ST 11","SAN RAFAEL","CA","94901"
307029,"888 7TH AVENUE","NEW YORK","NY","10106"
307030,"888 7TH STREET","SAN FRANCISCO","CA","94107"
307031,"888 ALLENE AVENUE SW","ATLANTA","GA","30310"
307032,"888 BAXTER DRIVE SUITE 100","SOUTH JORDAN","UT","84095"
307033,"888 BRICKELL AVE STE 400","MIAMI","FL","33131"
307034,"888 BRICKELL KEY DRIVE APT 2103","MIAMI","FL","33131"
307035,"888 BRYSON LOOP","LAKELAND","FL","33809"
307036,"888 CHERRY CT","BRAWLEY","CA","92227"
307037,"888 CHICAGO DRIVE","JENISON","MI","49428"
307038,"888 CRENSHAW BLVD","LOS ANGELES","CA","90005"
307039,"888 FOSTER CITY BLVD","FOSTER CITY","CA","94404"
307040,"888 GRAND CONCOURSE SUITE 1H","BRONX","NY","10451"
307041,"888 GROVE ST","SUN PRAIRIE","WI","53590"
307042,"888 GROVE STREET","SUN PRAIRIE","WI","53590"
307043,"888 IWILEI RD APT 1309","HONOLULU","HI","96817"
307044,"888 JONATHAN AVE","AKRON","OH","44306"
307045,"888 KAPIOLANI BLVD STE2805","HONOLULU","HI","96813"
307046,"888 LANDA ST","NEW BRAUNFELS","TX","78130"
307047,"888 LE COVE DRIVE","VIRGINIA BEACH","VA","23464"
307048,"888 MAIN STREET APT 137","NEW YORK","NY","10044"
307049,"888 MUNDYS MILL RD","JONESBORO","GA","30238"
307050,"888 N QUINCY ST APT 1506","ARLINGTON","VA","22203"
307051,"888 NEWARK AVE STUDIO B74","JERSEY CITY","NJ","07306"
307052,"888 NW 165TH COURT RD","DUNNELLON","FL","34432"
307053,"888 OCEAN AVENUE","SEAL BEACH","CA","90740"
307054,"888 S 710 W","TOOELE","UT","84074"
307055,"888 S DOUGLAS RD APT 916","CORAL GABLES","FL","33134"
307056,"888 S GREENVILLE AVE STE 202","RICHARDSON","TX","75081"
307057,"888 SALEM CHURCH ROAD","NEWARK","DE","19702"
307058,"888 SE 3RD AVENUE SUITE 300","FT LAUDERDALE","FL","33316"
307059,"888 SEVENTH SEVENTH AVE- 26TH FLOOR","SCARSDALE","NY","10583"
307060,"888 SW 5TH AVE STE 1600","PORTLAND","OR","97204"
307061,"888 SW EVERGREEN AVE","REDMOND","OR","97756"
307062,"888 SW FIFTH AVENUE STE 1600","PORTLAND","OR","97204"
307063,"888 SW FIFTH AVENUE","PORTLAND","OR","97204"
307064,"888 TOMMIE WOOTEN RD","CHADBOURN","NC","28431"
307065,"888 US 23 SOUTH","PAINTSVILLE","KY","41240"
307066,"888 US HWY 95A","FERNLEY","NV","89408"
307067,"888 VETERANS HWY SUITE 120","HAUPPAUGE","NY","11788"
307068,"888 W BIG BEAVER RD SUITE 200","TROY","MI","48084"
307069,"888 W VUELTA GRANADINA","SAHUARITA","AZ","85629"
307070,"888 WEEKS LANDING ROAD","CAPE MAY","NJ","08204"
307071,"888 WOODRIDGE DRIVE","MIDDLETOWN","PA","17057"
307072,"888 ZOLEZZI LANE","RENO","NV","89511"
307073,"8880 GOLDEN OAK DR STE R","MANASSAS","VA","20109"
307074,"8880 LA RIVIERA DR UNIT E","SACRAMENTO","TX","95826"
307075,"8880 RIO SAN DIEGO DRIVE 8TH FLOOR","SAN DIEGO","CA","92108"
307076,"8880 RIO SAN DIEGO DRIVE STE 800","SAN DIEGO","CA","92108"
307077,"8880 S KENDALE CIRCLE","LAKE WORTH","FL","33467"
307078,"8880 SW 8 ST SUIT 0571","MIAMI","FL","33134"
307079,"8880 TATUM ROAD","MARSTON","NC","28363"
307080,"8880 WARD","DETROIT","MI","48228"
307081,"8880 YELLOW HAMMER DR","GAINESVILLE","VA","20155"
307082,"8881 COOSAW SCENIC DR","RIDGELAND","SC","29936"
307083,"8881 CREEKWOOD DR NW","CANAL WINCHESTER","OH","43110"
307084,"8881 E CAROL WAY","SCOTTSDALE","AZ","85260"
307085,"88817 POLLY CREEK LN","BANDON","OR","97411"
307086,"8882 FIRST LADY AVENUE","LAS VEGAS","NV","89148"
307087,"88820 SHORELINE DRIVE","FLORENCE","OR","97439"
307088,"8883 GOOSE LANDING CIRCLE","COLUMBIA","MD","21045"
307089,"8883 LAKE EDGE COVE EAST","CORDOVA","TN","38016"
307090,"8884 INDIAN BLVD","COTTAGE GROVE","MN","55016"
307091,"8884 NW 27TH ST","CORAL SPRINGS","FL","33065"
307092,"8885 DORSEY RD","RIVERDALE","GA","30274"
307093,"8885 LENEXA DRIVE","OVERLAND PARK","KS","66214"
307094,"8885 RIO SAN DIEGO DR STE 135","SAN DIEGO","CA","92108"
307095,"8885 RIO SAN DIEGO DRIVE SUITE 237","SAN DIEGO","CA","92108"
307096,"8885 SE HARBOR ISLAND WAY","HOBE SOUND","FL","33455"
307097,"8886 N GOVERNMENT WAY BLDG2 UNIT I","HAYDEN","ID","83835"
307098,"8886 STATE ROAD 350","AURORA","IN","47001"
307099,"8887 HAMILTON STREET","RANCHO CUCAMONGA","CA","91701"
307100,"8888 DYER STREET","EL PASO","TX","79904"
307101,"8888 ELLINGHAM STREET","SAN DIEGO","CA","92129"
307102,"8888 N 47TH AVE APT 159","GLENDALE","AZ","85302"
307103,"8888 ROXBURY ROAD","LURGAN","PA","17232"
307104,"8889 PROMENADE NORTH PLACE","SAN DIEGO","CA","92123"
307105,"8889 W OLYMPIC BLVD PENTHOUSE","BEVERLY HILLS","CA","90211"
307106,"8889 W OLYMPIC BLVD","BEVERLY HILLS","CA","90211"
307107,"888C 8TH AVENUE  429","NEW YORK","NY","10019"
307108,"888C EIGHTH AVENUE SUITE 437","NEW YORK","NY","10019"
307109,"889 BILTON WAY","SAN GABRIEL","CA","91776"
307110,"889 E 100TH STREET","CHICAGO","IL","60628"
307111,"889 FRANKLIN ROAD - SUITE 180","MARIETTA","GA","30067"
307112,"889 GARRISON  ROAD","VINELAND","NJ","08360"
307113,"889 GRAND RAPIDS BLVD","NAPLS","FL","34120"
307114,"889 HARRISON AVENUE 4TH FLOOR","RIVERHEAD","NY","11901"
307115,"889 LA PARA AVENUE","PALO ALTO","CA","94306"
307116,"889 MINT MEADOW WAY","SPRINGFIELD","OR","97477"
307117,"889 MISSION ROAD SW","CARTERSVILLE","GA","30120"
307118,"889 MOWRY AVE APT 192","FREMONT","CA","94536"
307119,"889 N BALL RD","MEMPHIS","TN","38106"
307120,"889 ORCHARD DRIVE","RIVER HEIGHTS","UT","84321"
307121,"889 ROLLING HILLS ROAD","RIDGEWAY","SC","29130"
307122,"889 RUFFSDALE ALVERTON ROAD","RUFFS DALE","PA","15679"
307123,"889 S RAINBOW BLVD  137","LAS VEGAS","NV","89145"
307124,"889 S RAINBOW BLVD STE 565","LAS VEGAS","NV","89145"
307125,"889 S RAINBOW BLVD SUITE 510","LAS VEGAS","NV","89145"
307126,"889 S RAINBOW BLVD SUITE 625","LAS VEGAS","NV","89145"
307127,"889 SOUTH MAIN PMB 278","WILLITS","CA","95490"
307128,"889 THUNDERHILL ROAD","WOODBOURNE","NY","12788"
307129,"889 TULPEHOCKEN ROAD","MYERSTOWN","PA","17067"
307130,"889 TUPPER CT","LINDEN","MI","48451"
307131,"889 W ASH CIR","NIXA","MO","65714"
307132,"889 WEST 2100 SOUTH","WOODS CROSS","UT","84087"
307133,"8890 MCDONOGH ROAD SUITE 301","OWINGS MILLS","MD","21117"
307134,"8890 MEADOW HILL DRIVE","FRISCO","TX","75035"
307135,"8890 SPANISH RIDGE AVE","LAS VEGAS","NV","89148"
307136,"8890 STARR RD","WINDSOR","CA","95492"
307137,"8890 TRINITY","DETROIT","MI","48228"
307138,"8890 WINDY RIDGE WAY","MCLEAN","VA","22102"
307139,"8891 BRAILE ST","DETROIT","MI","48228"
307140,"8891 BRIGHTON LANE STE 115","BONITA SPRINGS","FL","34135"
307141,"8891 BURNING TREE ROAD","PENSACOLA","FL","32514"
307142,"8891 NORTHAMPTON","PLYMOUTH","MI","48170"
307143,"8891 PALMETTO ROAD","EDISTO ISLAND","SC","29438"
307144,"8891 RESEARCH DR","IRVINE","CA","92618"
307145,"8891 RTE 9","HOOPESTON","IL","60942"
307146,"8891 SUGARLAND DRIVE","SHREVEPORT","LA","71105"
307147,"8891 SW CORTLAND LN","PORTLAND","OR","97224"
307148,"8891 W COUNTY ROAD 400 S","REELSVILLE","IN","46171"
307149,"8891 WATSON STREET STE 103","CYPRESS","CA","90630"
307150,"8893 LA CARTERA ST","SAN DIEGO","CA","92129"
307151,"8893 LANGSTON COURT","MACEDONIA","OH","44056"
307152,"8893 MELINDA CT","MILAN","MI","48160"
307153,"8893 WREN AVE","FOUNTAIN VALLEY","CA","92708"
307154,"8894 PURPLE IRIS LANE","ELKRIDGE","MD","21075"
307155,"8894 WALNUT RIDGE LOOP","CORDOVA","TN","38018"
307156,"8895 DARBY DAN LANE","GERMANTOWN","TN","38138"
307157,"8895 FONTAINEBLEAU BLVD STE 207","MIAMI","FL","33172"
307158,"8895 YOUNGSTOWN SALEM RD","CANFIELD","OH","44406"
307159,"8896 135TH LOOP","LIVE OAK","FL","32060"
307160,"8896 SEQUOIA CT","GARDEN GROVE","CA","92841"
307161,"8897 HARGROVE COURT","FAIRFAX","VA","22031"
307162,"8897 PARKVIEW OAKS CIRCLE","OLIVE BRANCH","MS","38654"
307163,"8897 SW 184 LANE","MIAMI","FL","33157"
307164,"8899 S 700 E STE 100","SANDY","UT","84070"
307165,"89 00 170 ST UNIT 8D","JAMAICA","NY","11432"
307166,"89 1/2 N PIONEER ROAD","FOND DU LAC","WI","54935"
307167,"89 ARLINGTON AVE","STATEN ISLAND","NY","10303"
307168,"89 BARRE STREET","MONTPELIER","VT","05602"
307169,"89 BEACHDALE DRIVE","AVON LAKE","OH","44012"
307170,"89 BEDLES COURT","SOUTH LEBANON","OH","45065"
307171,"89 BELLS LAKE DRIVE","TURNERSVILLE","NJ","08012"
307172,"89 BROOKVIEW CIRCLE","JAMESBURG","NJ","08831"
307173,"89 BUTTERCUP LANE","SOUTH GRAFTON","MA","01560"
307174,"89 CABALLO AVE","MORIARTY","NM","87035"
307175,"89 CAROLINA AVENUE","HEMPSTEAD","NY","11550"
307176,"89 CHESTNUT DRIVE","SWEET WATER","AL","36782"
307177,"89 CLEARMONT AVENUE","STATEN ISLAND","NY","10309"
307178,"89 CLERMONT AVE","BROOKLYN","NY","11205"
307179,"89 CLIFTON TERRACE SUIT 2","WEEHAWKEN","NJ","07086"
307180,"89 COLLELO AVE","MOOSUP","CT","06354"
307181,"89 COMMERCIAL WHARF","BOSTON","MA","02110"
307182,"89 COWTOWN ROAD- BOX 299","HINDMAN","KY","41822"
307183,"89 CRAIGHEAD ST","PITTSBURGH","PA","15211"
307184,"89 CREST ROAD","WELLESLEY","MA","02482"
307185,"89 CROSSING LANE APT 8","SANTA ROSA BEACH","FL","32459"
307186,"89 DIVISION STREET","BLOOMFIELD","NJ","07003"
307187,"89 DODD AVE","SOMERS","MT","59932"
307188,"89 E 950 N","CHESTERTON","IN","46304"
307189,"89 E CORTE RANCHO CENTRO","SAHUARITA","AZ","85629"
307190,"89 EAGLE VIEW ROAD","OROVILLE","WA","98844"
307191,"89 EAST JERICHO TURNPIKE","MINEOLA","NY","11501"
307192,"89 EAST WASHINGTON ST","HANSON","MA","02341"
307193,"89 EASTPOINTE RIDGE DR APT 109","COLUMBUS","OH","43123"
307194,"89 EGREMONT AVE","PITTSFIELD","MA","01201"
307195,"89 ELIZABETH STREET","FITCHBURG","MA","01420"
307196,"89 ESTATE GROVE PLACE","FREDERIKSTED","VI","00841"
307197,"89 FAIRVIEW DR","ALBERTSON","NY","11507"
307198,"89 FIRST ST SUITE 205","HUDSON","OH","44236"
307199,"89 FLETCHER ST","KENNEBUNK","ME","04043"
307200,"89 GARDNER AVE","NEW LONDON","CT","06320"
307201,"89 GEORGIA AVE","LOWELL","MA","01851"
307202,"89 GOURLAY MOUNTAIN DR","MIDDLETOWN SPRINGS","VT","05757"
307203,"89 GRAVITT LN","CHICKAMAUGA","GA","30707"
307204,"89 HIGH OAK RD","HUNTSVILLE","TX","77340"
307205,"89 HOOKELE STREET STE 203","KAHULUI","HI","96732"
307206,"89 HUMMINGBIRD RD","COVINGTON","LA","70433"
307207,"89 HUNGRY HARBOR RD","VALLEY STREAM","NY","11581"
307208,"89 KELLOGG WAY","SANTA CLARA","CA","95051"
307209,"89 KNAPP ROAD","MECHANICVILLE","NY","12118"
307210,"89 LINEN AVE APT 1","BRIDGEPORT","CT","06604"
307211,"89 LIVOLI ROAD","BROCKTON","MD","02302"
307212,"89 LONG MEADOW ROAD","BRANDON","MS","39042"
307213,"89 MAIN STREET SUIT 4","MONTPELIER","VT","05602"
307214,"89 MAIN STREET SUITE 112","MEDWAY","MA","02053"
307215,"89 MARION AVENUE","MERRICK","NY","11566"
307216,"89 MATTSON LANE","BLUE HILL","ME","04614"
307217,"89 MCLEAN AVENUE","MANASQUAN","NJ","08736"
307218,"89 MIAMI PARKWAY","FORT THOMAS","KY","41075"
307219,"89 MONTICELLO AVENUE","JERSEY CITY","NJ","07304"
307220,"89 MOUNTAIN RIDGE RD","ROUGEMONT","NC","27572"
307221,"89 N LECHEMINANT DR","VINEYARD","UT","84058"
307222,"89 N RIVER RD","MUNROE FALLS","OH","44262"
307223,"89 N SUGAR CLIFF DR","CRAWFORDSVILLE","IN","47933"
307224,"89 NEDHAM STREET","NEWTON","MA","02461"
307225,"89 NORMANDY ROAD","COLONIA","NJ","07067"
307226,"89 QUITMAN STREET STE 3A","NEWARK","NJ","07108"
307227,"89 RICHARDS AVENUE","DOVER","NJ","07801"
307228,"89 ROSE AVENUE","VALLEY STREAM","NY","11580"
307229,"89 ROSE DRIVE","NEBO","NC","28761"
307230,"89 ROTON AVENUE","NORWALK","AL","06853"
307231,"89 ROUTE 8A","CHARLEMONT","MA","01339"
307232,"89 SECOND STREET","ATHENS","NY","12015"
307233,"89 SORENSON","IRVINE","CA","92602"
307234,"89 SOUTH ST","WILLIAMSBURG","MA","01096"
307235,"89 SOUTH STREET","CONCORD","NH","03301"
307236,"89 STALLION WAY","HIRAM","GA","30141"
307237,"89 STERLING ST","BROOKLYN","NY","11225"
307238,"89 STILLMAN AVE","BROCKTON","MA","02302"
307239,"89 SUTTON PLACE","BLOOMFIELD","CT","06002"
307240,"89 TALMADGE RD","HAMDEN","CT","06518"
307241,"89 THAYER ST 3K","NEW YORK","NY","10040"
307242,"89 THAYER ST APT 3K","NEW YORK","NY","10040"
307243,"89 THOMPSON RD","COCHRAN","GA","31014"
307244,"89 THROOP AVE","BROOKLYN","NY","11206"
307245,"89 UNCLES WAY","MARSHFIELD","VT","05658"
307246,"89 W SOUTH BLVD SUITE 600","TROY","MI","48085"
307247,"89 WATERS COVE ROAD","CANDLER","NC","28715"
307248,"89 WEBB ST","EDISON","NJ","08820"
307249,"89 WEST 32ND ST","BAYONNE","NJ","07002"
307250,"89 WEST LANE","RIDGEFIELD","CT","06877"
307251,"89 WEST MAIN ST","MERRIMAC","MA","01860"
307252,"89 WEST ROOSEVELT AVENUE","ROOSEVELT","NY","11575"
307253,"89 WEST WINDSOR DRIVE","LITTLE ROCK","AR","72209"
307254,"89 WETMORE RD","COLUMBUS","OH","43214"
307255,"89 WILLIS ST UNIT 46366","BEDFORD","OH","44146"
307256,"89 WISDOM WAY","GREENFIELD","MA","01301"
307257,"89 WOLFS LN","PELHAM","NY","10803"
307258,"89 WOODBINE AVE","AVENEL","NJ","07001"
307259,"89-1128 POHAKUPALENA STREET","WAIANAE","HI","96792"
307260,"89-213 NANAIKALA ST","WAIANAE","HI","96792"
307261,"89-35 155 AVE APT 1D","HOWARD BEACH","NY","11414"
307262,"89-372 MOKIAWE STREET","WAIANAE","HI","96792"
307263,"89-455 A POHAKUNUI AVE","WAIANAE","HI","96792"
307264,"89-55  214TH STREET","QUEENS VILLAGE","NY","11427"
307265,"89-73 221 STREET","QUEENS VILLAGE","NY","11427"
307266,"89-889 NANAKULI AVE","WAIANAE","HI","96792"
307267,"890 2ND STREET   PO BOX 433","SLEDGE","MS","38670"
307268,"890 34TH AVENUE 1","SAN FRANCISCO","CA","94121"
307269,"890 38TH AVE UNIT 20","SANTA CRUZ","CA","95062"
307270,"890 ASBURY TRAIL","LITHONIA","GA","30058"
307271,"890 BICKFORD POND RD","PORTER","ME","04068"
307272,"890 BROADWAY 7TH FLOOR","NEW YORK","NY","10003"
307273,"890 BROCK AVENUE","NEW BEDFORD","MA","02744"
307274,"890 BUCKSKIN TER","BRENTWOOD","CA","94513"
307275,"890 CAMDEN GROVE COVE","MEMPHIS","TN","38018"
307276,"890 ELKRIDGE STREET","BREA","CA","92821"
307277,"890 EMANUEL ROAD","LEWISBERRY","PA","17339"
307278,"890 GEARY ST APT 43","SAN FRANCISCO","CA","94109"
307279,"890 GRIFFITHS LN W","SEABECK","WA","98380"
307280,"890 HAMPSHIRE ROAD SUITE A","WESTLAKE VILLAGE","CA","91361"
307281,"890 LARKSPUR DRIVE","BROOK","WI","53045"
307282,"890 LITITZ ROAD","MANHEIM","PA","17545"
307283,"890 MADISON 5195","ELKINS","AR","72727"
307284,"890 NE 158TH STREET","NORTH MIAMI BEACH","FL","33162"
307285,"890 NIAGARA STREET","ELMONT","NY","11003"
307286,"890 PARROTT DRIVE","SAN MATEO","CA","94402"
307287,"890 S 6TH AVENUE","BARTOW","FL","33830"
307288,"890 SEA ISLAND LANE","FOSTER CITY","CA","94404"
307289,"890 SNOW PINE DRIVE","SOUTHAVEN","MS","38671"
307290,"890 SOUTH MATLACK STREET SUITE 460","WEST CHESTER","PA","19382"
307291,"890 SPRING MOUNTAIN LANE","AMERICAN CANYON","CA","94503"
307292,"890 W IOWA AVE","SUNNYVALE","CA","94086"
307293,"890 WEST BANCROFT","TOLEDO","OH","43606"
307294,"890 WEST FARIS ROAD  SUITE 510","GREENVILLE","SC","29605"
307295,"8900 170 STREET APT 3K","JAMAICA","NY","11432"
307296,"8900 23RD AVENUE","EAST ELMHURST","NY","11369"
307297,"8900 257TH CT","SALEM","WI","53168"
307298,"8900 BARLEYMOOR DRIVE","RALEIGH","NC","27615"
307299,"8900 BOLSA AVE SUITE A","WESTMINSTER","CA","92683"
307300,"8900 BREELAND WAY","RALEIGH","NC","27613"
307301,"8900 CHAPIN ROAD","FORT WORTH","TX","76116"
307302,"8900 CLIFFORD ST","WHITE SETTLEMENT","TX","76108"
307303,"8900 FONDREN RD APT 345B","HOUSTON","TX","77074"
307304,"8900 GOLD LEAF WAY","SACRAMENTO","CA","95826"
307305,"8900 HABERSHAM DRIVE","JONESBORO","GA","30238"
307306,"8900 LEE RD","BRIGHTON","MI","48116"
307307,"8900 LOCHAVEN DRICE","GAITHERSBURG","MD","20882"
307308,"8900 MELODIC COURT","ELK GROVE","CA","95624"
307309,"8900 MIRAMAR PARKWAY SUITE 100","MIRAMAR","FL","33025"
307310,"8900 N ARBON DR","MILWAUKEE","WI","53223"
307311,"8900 N INDUSTRIAL RD STE A","PEORIA","IL","61615"
307312,"8900 NW 107 CT APT 107 BUILDING 3","MIAMI","FL","33178"
307313,"8900 OLD CREEK DRIVE","ELK GROVE","CA","95758"
307314,"8900 PARK ROAD","CHARLOTTE","NC","28210"
307315,"8900 PRINCETON RD","ROWLETT","TX","75089"
307316,"8900 SHOAL CREEK BLVD STE 111","AUSTIN","TX","78757"
307317,"8900 SHOAL CREEK BLVD","AUSTIN","TX","78721"
307318,"8900 SW 107TH AVE STE 203","MIAMI","FL","33176"
307319,"8900 SW SWEEK DR 1431","TUALATIN","OR","97062"
307320,"8900 SW SWEEK DR APT 1538","TUALATIN","OR","97062"
307321,"8900 TRAIL CREEK DR","SHERWOOD","AR","72120"
307322,"8900 TRANSUE DR","BETHESDA","MD","20817"
307323,"8900 WILSHIRE BLVD","BEVERLY HILLS","CA","90211"
307324,"8900 ZION HILL ROAD","POOLVILLE","TX","76487"
307325,"8901 ADAMS ST NE STE A","ALBUQUERQUE","NM","87113"
307326,"8901 AIRPORT BLVD","MOBILE","AL","36608"
307327,"8901 BEDFORD COURT","ROSEVILLE","CA","95747"
307328,"8901 BRIARDALE DRIVE","BISMARCK","ND","58504"
307329,"8901 BRIDGEHAVEN CT","ALEXANDRIA","VA","22308"
307330,"8901 GUTENBURG ROAD","LOUISVILLE","KY","40299"
307331,"8901 HONEYDEW CT","CLEVES","OH","45002"
307332,"8901 JEFFERSON STREET NE NO 218","ALBUQUERQUE","NM","87113"
307333,"8901 JONES ROAD APT 516","HOUSTON","TX","77065"
307334,"8901 LIBERTY ROAD","RANDALLSTOWN","MD","21133"
307335,"8901 LILLY LANE","OKLAHOMA CITY","OK","73135"
307336,"8901 MEADOWOOD DR","ROCKFORD","MN","55373"
307337,"8901 N 1000 E","LAFAYETTE","IN","47905"
307338,"8901 N MISTY BROOK DRIVE","TUCSON","AZ","85743"
307339,"8901 N OREGON AVE","KANSAS CITY","MO","64154"
307340,"8901 NORTHRIDGE TERRACE","OKLAHOMA CITY","OK","73132"
307341,"8901 ROCKVALE ROAD","ROCKVALE","TN","37153"
307342,"8901 S LA CIENEGA BLVD STE 201","INGLEWOOD","CA","90301"
307343,"8901 STARK AVE","KANSAS CITY","MO","64138"
307344,"8901 SW 53RD COURT","OKLAHOMA CITY","OK","73179"
307345,"8901 TEHAMA PARKWAY PO BOX 127 185","FORT WORTH","TX","76177"
307346,"8901 W TUCANNON AVE STE 145","KENNEWICK","WA","99336"
307347,"8902 29TH STREET COURT EAST","EDGEWOOD","WA","98371"
307348,"8902 COWENTON AVENUE","PERRY HALL","MD","21128"
307349,"8902 E VIA LINDA 110-1011","SCOTTSDALE","AZ","85258"
307350,"8902 E VIA LINDA SUITE 110-62","SCOTTSDALE","AZ","85258"
307351,"8902 EAST 100TH PLACE","TULSA","OK","74133"
307352,"8902 GRANADA HILLS DR","AUSTIN","TX","78737"
307353,"8902 LANGHORNE ROAD","ESMONT","VA","22937"
307354,"8902 N DALE MABRY HWY SUITE 200","TAMPA","FL","33614"
307355,"8902 NORTHEAST 117TH STREET","KANSAS CITY","MO","64157"
307356,"8902 OTIS AVE SUITE S199B","INDIANAPOLIS","IN","46216"
307357,"8902 PLAINVIEW SUITE 1","DETROIT","MI","48228"
307358,"8902 TUCKAWAY COURT","FORT WASHINGTON","MD","20744"
307359,"8903 APPALOSSA PASS","CONVERSE","TX","78109"
307360,"8903 BELLA DANYELLE CT","BRIDGEVILLE","PA","15017"
307361,"8903 BENT GRASS LOOP E","SOUTHAVEN","MS","38671"
307362,"8903 BIRWOOD STREET","DETROIT","MI","48204"
307363,"8903 BUENA PLACE APT 3201","WINDERMERE","FL","34786"
307364,"8903 CUCKOLD POINT ROAD","SPARROWS POINT","MD","21219"
307365,"8903 E LIBERTY","SPOKANE","WA","99212"
307366,"8903 ELM DRAKE LN","HUMBLE","TX","77338"
307367,"8903 GLADES RD SUITE D8","BOCA RATON","FL","33434"
307368,"8903 JORDI DRIVE","TOMBALL","TX","77375"
307369,"8903 KEY PENINSULA HWY","LAKEBAY","WA","98349"
307370,"8903 RT 237 PO BOX 28","STAFFORD","NY","14143"
307371,"8903 SANTO DOMINGO","HOUSTON","TX","77017"
307372,"8903 SONNET HILL CT","NORTH CHESTERFIELD","VA","23236"
307373,"8903 W RYAN CIR","WICHITA","KS","67205"
307374,"8904 ASCOT LANE APT 32","LAUREL","MD","20708"
307375,"8904 CHIMNEY POINT DR","KNOXVILLE","TN","37922"
307376,"8904 ROCKRIDGE GLEN COVE","BOYNTON BEACH","FL","33473"
307377,"8904 S 50TH AVE","OAK LAWN","IL","60453"
307378,"8905 BEAR CREEK DR","MCKINNEY","TX","75072"
307379,"8905 BLUFFWOOD LANE","FORT WASHINGTON","MD","20744"
307380,"8905 COLDWATER DRIVE APT 2183","SANDY","UT","84094"
307381,"8905 CORNHUSKER HWY","LINCOLN","NE","68507"
307382,"8905 E 34TH ST","TULSA","OK","74145"
307383,"8905 FOOTED RIDGE","COLUMBIA","MD","21045"
307384,"8905 GRANDVILLE CIR","WESTMINSTER","CA","92683"
307385,"8905 GREENWOOD ROAD","GREENWOOD","LA","71033"
307386,"8905 LAKE AVENUE","CLEVELAND","OH","44102"
307387,"8905 NW 114TH AVE","DORAL","FL","33178"
307388,"8905 S PECOS ROAD","HENDERSON","NV","89074"
307389,"8905 SW 89TH LN","GAINESVILLE","FL","32608"
307390,"8906 177TH ST W","LAKEVILLE","MN","55044"
307391,"8906 C TRONE CIRCLE","AUSTIN","TX","78758"
307392,"8906 HOMEWOOD LN","HOUSTON","TX","77078"
307393,"8906 HUBBARD ST","CULVER CITY","CA","90232"
307394,"8906 LITTLE RAVEN TRAIL","NIWOT","CO","80503"
307395,"8906 PURPLE LILAC CIRCLE","LORTON","VA","22079"
307396,"8906 SLUMBER LANE","CONVERSE","TX","78109"
307397,"8906 STONEWALL ROAD","MANASSAS","VA","20110"
307398,"8906 WALL STREET  SUITE 103","AUSTIN","TX","78754"
307399,"8906 WEST FLAGLER STREET UNIT 203","MIAMI","FL","33174"
307400,"8907 43RD AVE","KENOSHA","WI","53142"
307401,"8907 AVENUE A","BROOKLYN","NY","11236"
307402,"8907 LINKSVUE DRIVE","KNOXVILLE","TN","37922"
307403,"8907 LORRAINE ST","HIGHLANDS","TX","77362"
307404,"8907 TALC DRIVE 1B","ROSEDALE","MD","21237"
307405,"8907 US HIGHWAY 42","PROSPECT","KY","40059"
307406,"8908 AUTUMNWOOD DR","SACRAMENTO","CA","95826"
307407,"8908 BOULEVARD OF THE GENERALS","SPOTSYLVANIA","VA","22553"
307408,"8908 DAKOTA RUN","CONVERSE","TX","78109"
307409,"8908 DONTREE WAY","ELK GROVE","CA","95624"
307410,"8908 E 825 S","UPLAND","IN","46989"
307411,"8908 LADERA COURT","BENBROOK","TX","76126"
307412,"8908 N BALES AVE","KANSAS CITY","MO","64156"
307413,"8908 SADDLE RED AVE","LAS VEGAS","NV","89143"
307414,"8908 US HWY 68 N","WEST LIBERTY","OH","43357"
307415,"8909 CARLISLE ROAD","WYNDMOOR","PA","19038"
307416,"8909 EUCLID AVENUE","MANASSAS","VA","20111"
307417,"8909 HIGH PLAIN LN","DALLAS","TX","75249"
307418,"8909 HIGHVIEW LN","WOODBURY","MN","55125"
307419,"8909 HUNTINGTON POINTE DR","SARASOTA","FL","34238"
307420,"8909 KENZIE COVE ST","LAS VEGAS","NV","89131"
307421,"8909 NW 135TH PL","OKLAHOMA CITY","OK","73142"
307422,"8909 NW 38TH DRIVE","CORAL SPRINGS","FL","33065"
307423,"8909 S LOWE AVE","CHICAGO","IL","60620"
307424,"8909 S WALLACE","CHICAGO","IL","60620"
307425,"8909 SALTILLO ROAD","LINCOLN","NE","68526"
307426,"8909 SAN RAMON RD","DUBLIN","CA","94568"
307427,"8909 SOUTH MAIN ST","HOMETOWN","IL","60456"
307428,"891 14 STREET UNIT 2415","DENVER","CO","80202"
307429,"891 14TH STREET UNIT 2910","DENVER","CO","80202"
307430,"891 BARREN OAKS DR","PONTIAC","MI","48341"
307431,"891 BROADWAY 2FL","BAYONNE","NJ","07002"
307432,"891 COPLY STREET SE","PALM BAY","FL","32909"
307433,"891 COUNTY ROAD 4740","WINNSBORO","TX","75494"
307434,"891 DRAKE AVENUE","MARIN CITY","CA","94965"
307435,"891 DULA ROAD","SPRUCE PINE","NC","28777"
307436,"891 E 10 AVE","HIALEAH","FL","33010"
307437,"891 E SILVER SHADOWS DR","WASHINGTON","UT","84780"
307438,"891 E STATE ROAD 434","LONGWOOD","FL","32750"
307439,"891 GAY RD","WALSTONBURG","NC","27888"
307440,"891 GOLDPAN ROAD","FAIRBANKS","AK","99712"
307441,"891 HONEYSUCKLE DR","CENTERTON","AR","72719"
307442,"891 HYDE PARK AVE","HYDE PARK","MA","02136"
307443,"891 LAGUNA CANYON ROAD","LAGUNA BEACH","CA","92603"
307444,"891 MARINA DRIVE","NAPA","CA","94559"
307445,"891 MOUNTAIN RANCH RD","SAN ANDREAS","CA","95249"
307446,"891 MOUNTAIN RANCH ROAD","SAN ANDREAS","CA","95249"
307447,"891 N POINTE DR NW","ALBANY","OR","97321"
307448,"891 PHILLIPS ROAD","PHLIPPI","WV","26416"
307449,"891 PULASKI HIGHWAY","BEAR","DE","19701"
307450,"891 TALLMAN COURT","SAN JOSE","CA","95123"
307451,"891 W APPLE ST","ODESSA","TX","79766"
307452,"891-I ROCKVILLE PIKE SUITE 300","ROCKVILLE","MD","20852"
307453,"8910 35TH AVE APT C5L","JACKSON HEIGHTS","NY","11372"
307454,"8910 99TH ST SE","ELLENDALE","ND","58436"
307455,"8910 ASTRONAUT BLVD SUITE 102","CAPE CANAVERAL","FL","32920"
307456,"8910 COUNTY ROAD 6875","LUBBOCK","TX","79407"
307457,"8910 GERHART RD","AMANDA","OH","43102"
307458,"8910 HARFORD RD","PARKVILLE","MD","21234"
307459,"8910 LIBERTY LANE","POTOMAC","MD","20854"
307460,"8910 MIRAMAR PARKWAY  SUITE 207","MIRAMAR","FL","33025"
307461,"8910 MIRAMAR PKWY 100","MIRAMAR","FL","33025"
307462,"8910 MIRAMAR PKWY STE 305","MIRAMAR","FL","33025"
307463,"8910 N DALE MABRY HWY STE 36","TAMPA","FL","33614"
307464,"8910 N LOOP 1604 WEST APT 717","SAN ANTONIO","TX","78249"
307465,"8910 PURDUE ROAD SUITE 210","INDIANAPOLIS","IN","46290"
307466,"8910 S BENNETT","CHICAGO","IL","60617"
307467,"8910 SAXON FOREST","HELOTES","TX","78023"
307468,"8910 SW CORAL ST","TIGARD","OR","97223"
307469,"8910 TEAL LANE","JONESBORO","GA","30236"
307470,"8910 UNIVERSITY CENTER LANE","SAN DIEGO","CA","92122"
307471,"8910 UNIVERSITY CENTER LN STE 800","SAN DIEGO","CA","92122"
307472,"8910 W VERNON AVENUE","PHOENIX","AZ","85037"
307473,"8910 WILLEY ROAD","HARRISON","OH","45030"
307474,"8910COQUINA LANE","CAPE CANAVERAL","FL","32920"
307475,"8911 ASHLEY WILKES","SAN ANTONIO","TX","78221"
307476,"8911 CYPRESS SQUARE DR","SPRING","TX","77379"
307477,"8911 DAVIES PLANTATION ROAD","BARTLETT","TN","38133"
307478,"8911 GRAVELLY LAKE DRIVE/106","LAKEWOOD","WA","98499"
307479,"8911 HAFLINGER WAY","ELK GROVE","CA","95757"
307480,"8911 KEY PENINSULA HWY N","LAKEBAY","WA","98349"
307481,"8911 LAKESHORE BLVD","MENTOR","OH","44060"
307482,"8911 NORTHEASTERN BLVD NE  APT B101","ALBUQUERQUE","NM","87112"
307483,"8911 THIRD STREET ROAD","LOUISVILLE","KY","40272"
307484,"8911 WEST CUSTER LANE","PEORIA","AZ","85381"
307485,"8911 WEST KATELLA AVENUE 102","ANAHEIM","CA","82840"
307486,"8912 NORTH CHRISTINE","BRIGHTON","MI","48114"
307487,"8912 PARKWAY EAST SUITE C","BIRMINGHAM","AL","35206"
307488,"8912 QUIGLEY ST","WESTMINSTER","CO","80031"
307489,"8912 ROLLING HILLS DRIVE","LAREDO","TX","78045"
307490,"89125 BARK POINT ROAD","HERBSTER","WI","54844"
307491,"8913 CINCINNATI-DAYTON RD","WEST CHESTER","OH","45069"
307492,"8913 SAMOSET TRL","SKOKIE","IL","60076"
307493,"8913 SENTER COURT","CHARLOTTE","NC","28277"
307494,"8913 SHEEP RANCH COURT","LAS VEGAS","NV","89146"
307495,"8913 W 148TH ST","OVERLAND PARK","KS","66221"
307496,"8913 W OLYMPIC BLVD STE 205","BEVERLY HILLS","CA","90211"
307497,"8914 149TH ST NW","GIG HARBOR","WA","98329"
307498,"8914 FOREST CREEK DR","TOMBALL","TX","77375"
307499,"8914 GREENS LANE","RANDALLSTOWN","MD","21133"
307500,"8914 PUERTO DEL RIO DR","CAPE CANAVERAL","FL","32920"
