"ID","Address","City","State","Zip"
213001,"4370 WOOD CREEK DRIVE","MARIETTA","GA","30062"
213002,"43709 MAHOGANY RUN COURT","LEESBURG","VA","20176"
213003,"4371 34TH ST SOUTH","SAINT PETERSBURG","FL","33711"
213004,"4371 COVINGTON WAY","NORMAN","OK","73072"
213005,"4371 CROSS LN","DECATUR","GA","30035"
213006,"4371 DRY FORK RD","WHITES CREEK","TN","37189"
213007,"4371 JOHN WESLEY DRIVE","DECATUR","GA","30035"
213008,"4371 LEGACY MILL DRIVE","ELLENWOOD","GA","30294"
213009,"4371 N JOHNSON CANYON RD","KANAB","UT","84741"
213010,"4371 NORTHLAKE BLVD 110","PALM BEACH GARDENS","FL","33410"
213011,"4371 PUAOLE ST STE D","LIHUE","HI","96766"
213012,"4371 S STATE HIGHWAY J","ROGERSVILLE","MO","65742"
213013,"4371 TRANQUILITY TRL","BETTENDORF","IA","52722"
213014,"4371 WINTERS CHAPEL RD  APT 2907","ATLANTA","GA","30360"
213015,"43711 N 16TH ST","NEW RIVER","AZ","85087"
213016,"43715 WOODVILLE CT","CHANTILLY","VA","20152"
213017,"43717 16TH ST E","LANCASTER","CA","93535"
213018,"4372 BEAVERTON CIR","LOGANVILLE","GA","30052"
213019,"4372 COPPERS CREEK DRIVE SE","SMYRNA","GA","30082"
213020,"4372 COVEY COURT","GRAND BLANC","MI","48439"
213021,"4372 CREEK VALLEY COURT","ATLANTA","GA","30331"
213022,"4372 DIAMOND ROAD","WINTER HAVEN","FL","33880"
213023,"4372 GARDENSPOT RD","CLAYTON","WA","99110"
213024,"4372 N CORNELIA","FRESNO","CA","93722"
213025,"4372 SHALLOWFORD INDUSTRIAL PARKWAY","MARIETTA","GA","30066"
213026,"4372 SHALLOWFORD INDUSTRIAL PKWY","MARIETTA","GA","30066"
213027,"4372 SOUTH INVERARY DR APT 10","SALT LAKE CITY","UT","84124"
213028,"4372 TIMBER LINE LANE","GRAND BLANC","MI","48439"
213029,"4372 WESLEY WAY","DECATUR","GA","30034"
213030,"43720 RED HOUSE DRIVE","LEESBURG","VA","20176"
213031,"43724 GOLDBERG","STERLING HEIGHTS","MI","48313"
213032,"43726 BIRCHTREE AVE","LANCASTER","CA","93534"
213033,"43728 S TIMBERVIEW DR","BELLEVILLE","MI","48111"
213034,"43729 CAMERON HILLS DR","FREMONT","CA","94539"
213035,"4373 50TH STREET APARTMENT 6","SAN DIEGO","CA","92115"
213036,"4373 E HACIENDA AVE","LAS VEGAS","NV","89120"
213037,"4373 EAST 200 NORTH","RIGBY","ID","83442"
213038,"4373 GLIDDEN WAY","FREMONT","CA","94536"
213039,"4373 NW 61ST TERRACE","GAINESVILLE","FL","32606"
213040,"4373 REFLECTIONS PARKWAY","SARASOTA","FL","34233"
213041,"4373 STANTON AVENUE","PITTSBURGH","PA","15201"
213042,"43736 32ND ST EAST","LANCASTER","CA","93535"
213043,"4374 E TURNBERRY CT","GILBERT","AZ","85298"
213044,"4374 FITZWILLIAM STREET","DUBLIN","CA","94568"
213045,"4374 FOXBURROW CT","SANTA MARIA","CA","93455"
213046,"4374 HACIENDA DR","WASHINGTON","IN","47501"
213047,"4374 KAUILA ST","LIHUE","HI","96766"
213048,"4374 RIVER RD","MANCHESTER","GA","31816"
213049,"4374 SKYLARK DRIVE","CINCINNATI","OH","45238"
213050,"4374 STEMEN ST","ELIDA","OH","45807"
213051,"4374 TIGER LANE","LAKE ARTHUR","LA","70549"
213052,"4374 WELLESLEY DR","OOLTEWAH","TN","37363"
213053,"4374 WELLESLEY DRIVE","OOLTEWAH","TN","37363"
213054,"43741 EUREKA  DRIVE","CLINTON TOWNSHIP","MI","48036"
213055,"43745 NANSA COURT","FREMONT","CA","94539"
213056,"43746 CLEMENS TERRACE","ASHBURN","VA","20147"
213057,"4375 BROOKSTONE DRIVE","ROSEVILLE","CA","95747"
213058,"4375 CLOUDYWING RD","HEMET","CA","92545"
213059,"4375 COPPER HILL DR","SPRING HILL","FL","34609"
213060,"4375 GREGORY AVE","WEST SACRAMENTO","CA","95691"
213061,"4375 LAURA STREET","PORT CHARLOTTE","FL","33980"
213062,"4375 LEE JACKSON HIGHWAY","GREENVILLE","VA","24440"
213063,"4375 NW 173RD DRIVE","MIAMI GARDENS","FL","33055"
213064,"4375 SANDY PARK DRIVE","MEMPHIS","TN","38141"
213065,"4375 VALLEY BROOK LN","COLLEGE PARK","GA","30349"
213066,"4375 VILLAGE GREEN CIRCLE","HOOVER","AL","35226"
213067,"4375 W ARBY AVENUE","LAS VEGAS","NV","89118"
213068,"4375 W BRADLEY RD APT 202","MILWAUKEE","WI","53223"
213069,"43759 15TH ST W 313","LANCASTER","CA","93534"
213070,"43759 15TH STREET 225","LANCASTER","CA","93534"
213071,"43759 40TH ST E","LANCASTER","CA","93535"
213072,"4376 ARBRE LANE NORTH","HUGO","MN","55038"
213073,"4376 LAKE ROAD","NEWFIELD","NJ","08344"
213074,"4376 PRESERVE TRAIL","SNELLVILLE","GA","30039"
213075,"4376 VIEWCREST RD S","SALEM","OR","97302"
213076,"4376 YORUK FOREST LANE","CHARLOTTE","NC","28211"
213077,"43766 LABURNUM SQ","ASHBURN","VA","20147"
213078,"4377 COMMERCIAL WAY NUM 103","SPRING HILL","FL","34606"
213079,"4377 COOL EMERALD DR","TALLAHASSEE","FL","32303"
213080,"4377 CRAWFORDVILLE ROAD UNIT A","TALLAHSSEE","FL","32305"
213081,"4377 GINA STREET","FREMONT","CA","94538"
213082,"4377 N 90TH ST APT 1","MILWAUKEE","WI","53222"
213083,"4377 NORTH DON PABLO CT","SAN BERNARDINO","CA","92407"
213084,"4377 OAKS SHADOW DR","NEW ALBANY","OH","43054"
213085,"4377 ROCK CREEK RD","PUEBLO","CO","81005"
213086,"4377 W 117TH CT","WESTMINSTER","CO","80031"
213087,"43770 CARRLEIGH CT","ASHBURN","VA","20147"
213088,"43776 ROYAL SAINT GEORGE DRIVE","INDIO","CA","92201"
213089,"4378 41ST ST","SAN DIEGO","CA","92105"
213090,"4378 BUENA TARA DRIVE","WEST PALM BEACH","FL","33413"
213091,"4378 GREEN TREE DR","ROUND ROCK","TX","78665"
213092,"4378 JASMINE AVE","CULVER CITY","CA","90232"
213093,"4378 JIGGERMAST AVE","JACKSONVILLE","FL","32277"
213094,"4378 WESLEY MEADOWS DRIVE","DECATUR","GA","30035"
213095,"43784 LEES MILL SQ","LEESBURG","VA","20176"
213096,"43784 WALMART RIO LOBO DR","MARICOPA","AZ","85138"
213097,"4379 109TH AVE","CLEAR LAKE","MN","55319"
213098,"4379 GREENE 443","MARMADUKE","AR","72443"
213099,"4379 JOHN WESLEY DRIVE","DECATUR","GA","30035"
213100,"4379 READY ROAD","SOUTH ROCKWOOD","MI","48179"
213101,"4379 S HOWELL AVE UNIT 26","MILWAUKEE","WI","53207"
213102,"4379 W GRANT STREET","SLATINGTON","PA","18080"
213103,"43795 320TH PLACE","AITKIN","MN","56431"
213104,"438 9TH AVE UNIT B","FORT KNOX","KY","40121"
213105,"438 AVERY WAY APT 8105","KNOXVILLE","TN","37966"
213106,"438 BOND ROAD","CASTLE ROCK","WA","98611"
213107,"438 BROWN AVENUE","BUTLER","PA","16001"
213108,"438 CASANOVA STREET","LOS ANGELES","CA","90012"
213109,"438 CHAUCER ST","PALO ALTO","CA","94301"
213110,"438 COUNTY RD 41","MOUNT HOPE","AL","35651"
213111,"438 COURTHOUSE SQ","DANIELSVILLE","GA","30633"
213112,"438 E COTTAGE AVE","SALT LAKE CITY","UT","84111"
213113,"438 E HORTTER ST","PHILADELPHIA","PA","19119"
213114,"438 E KATELLA AVE STE 215","ORANGE","CA","92867"
213115,"438 E SHAW AVE STE 221","FRESNO","CA","93710"
213116,"438 EAST BELLE","RANTOUL","IL","61866"
213117,"438 EAST GOVERNMENT STREET","PENSACOLA","FL","32502"
213118,"438 EAST MAIN RD","MIDDLETOWN","RI","02842"
213119,"438 FINSON ROAD LOT 5","BANGOR","ME","04401"
213120,"438 FOREST ROAD","WILTON","NH","03086"
213121,"438 GASKILL ST APT 3","PHILADELPHIA","PA","19147"
213122,"438 GOODNIGHT TRAIL","JUSTIN","TX","76247"
213123,"438 GREENDALE WAY APARTMENT 1","SAN JOSE","CA","95129"
213124,"438 HAYWOOD ROAD","ASHEVILLE","NC","28806"
213125,"438 HIGH ST","SPENCER","WV","25276"
213126,"438 KITE LAKE ROAD","FAYETTEVILLE","GA","30214"
213127,"438 LEE ROAD 282","SALEM","AL","36874"
213128,"438 LESLIE RD","SARVER","PA","16055"
213129,"438 LINDEN STREET","MECHANICSBURG","PA","17050"
213130,"438 MAIN ST FL 10TH","BUFFALO","NY","14202"
213131,"438 MAIN ST","CAMAK","GA","30807"
213132,"438 MAIN STREET","RAMONA","CA","92065"
213133,"438 MAIN STREET","WALTHAM","MA","02452"
213134,"438 N 851ST DIAGONAL RD","LAWRENCE","KS","66047"
213135,"438 N ADAMS STREET","SAINT CROIX FALLS","WI","54024"
213136,"438 N SKINKER BLVD BOX 101","ST LOUIS","MO","63130"
213137,"438 NORTH SKINKER BLVD","SAINT LOUIS","MO","63130"
213138,"438 NORTH SKINKER","ST. LOUIS","MO","63130"
213139,"438 NORTH STREET","PITTSFIELD","MA","01201"
213140,"438 OKOBOJI GROVE ROAD","ARNOLDS PARK","IA","51331"
213141,"438 OXEN LANE","WEST FORK","AR","72774"
213142,"438 PARK ROAD NW","WASHINGTON","DC","20010"
213143,"438 PENN AVE","DREXEL HILL","PA","19026"
213144,"438 PINEVIEW DR","VENICE","FL","34293"
213145,"438 RIVIERA ROAD","MOUNT NEBO","WV","26679"
213146,"438 ROSE AVE","JERSEY CITY","NJ","07305"
213147,"438 S STATE ST","DOVER","DE","19901"
213148,"438 SAINT JOHN DR","DURHAM","NC","27703"
213149,"438 SOUTH STATE STREET","MILLVILLE","PA","17846"
213150,"438 SOUTH STREET A","PLAINVILLE","MA","02762"
213151,"438 SW FEATHER LANE","FORT WHITE","FL","32038"
213152,"438 W JAMISON PLACE","LITTLETON","CO","80120"
213153,"438 W LOVERS LANE","MEMPHIS","MO","63555"
213154,"438 W OGLETHORPE HWY","HINESVILLE","GA","31313"
213155,"438 WASHINGTON AVE","WEST WYOMING","PA","18644"
213156,"438 WEALTHY STREET","KALAMAZOO","MI","49006"
213157,"438 WEST CT","GLEN BURNIE","MD","21061"
213158,"438 WEST DUANE ST","BENSON","AZ","85602"
213159,"4380 58 AVE","VERO BEACH","FL","32967"
213160,"4380 ANTELOPE LANE","SNELLVILLE","GA","30039"
213161,"4380 APPLE TREE PL","JACKSONVILLE","FL","32258"
213162,"4380 CANARD RD","MELBOURNE","FL","32934"
213163,"4380 CHARTER POINT BLVD","JACKSONVILLE","FL","32277"
213164,"4380 DANFORTH ROAD SW","ATLANTAT","GA","30331"
213165,"4380 FRENCH MARKET CIRCLE EAST","MEMPHIS","TN","38141"
213166,"4380 RT 19","SILVER SPRINGS","NY","14550"
213167,"4380 SPLIT CREEK DRIVE","DOUGLASVILLE","GA","30135"
213168,"4380 SW MACADAM AVE SUITE 190","PORTLAND","OR","97239"
213169,"4380 SW MACADAM AVENUE SUITE 190","PORTLAND","OR","97239"
213170,"4380 VILLAGE WAY","LEAGUE CITY","TX","77573"
213171,"4380 W 12TH STREET","ERIE","PA","16505"
213172,"4380 W VILLAGE LANE APT 107","BROWNDEER","WI","53223"
213173,"43800 PARAMOUNT PLACE","CHANTILLY","VA","20152"
213174,"43800 W 51ST ST S","JENNINGS","OK","74038"
213175,"43800 W HONEYCUTT RD","MARICOPA","AZ","85138"
213176,"43801 EAST BENTON ROAD","HEMET","CA","92544"
213177,"43805 WALD RD","CABLE","WI","54821"
213178,"43809 CHURCHILL GLEN DRIVE","CHANTILLY","VA","20152"
213179,"4381 DAVISON RD","DAVISON","MI","48509"
213180,"4381 DUNNWOOD DR","EL DORADO HILLS","CA","95762"
213181,"4381 E DURHAM CIRCLE","STONE MOUNTAIN","GA","30083"
213182,"4381 GATEWAY PARK BLVD 550","SACRAMENTO","CA","95834"
213183,"4381 GEM AVENUE","CASTRO VALLEY","CA","94546"
213184,"4381 GUINEVERE LN","BARTLETT","TN","38135"
213185,"4381 IRON MOUNTAIN DRIVE","SOUTH JORDAN","UT","84009"
213186,"4381 ROUTE 219","BROCKPORT","PA","15823"
213187,"4381 SHADOWLEAF COVE NORTH","MEMPHIS","TN","38128"
213188,"4381 SHADY GROVE ROAD","CABOOL","MO","65689"
213189,"4381 STRADALE LN","ANIWA","WI","54408"
213190,"4381 SW STATE RT D","POLO","MO","64671"
213191,"4381 W FLAMINGO ROAD UNIT 16321","LAS VEGAS","NV","89103"
213192,"4382 ALAMO ST","SIMI VALLEY","CA","93063"
213193,"4382 EUROPEAN JAUNT","WEST CHESTER","OH","45069"
213194,"4382 LENOX DRIVE","BETHLEHEM","PA","18017"
213195,"4382 NOWLIN DR SE","SMYRNA","GA","30082"
213196,"4382 REXWOOD DR BLDG 20","COLUMBUS","OH","43230"
213197,"4382 RUSTIC OAK LN","BRASELTON","GA","30517"
213198,"4382 STONERIDGE DR","FLINT","TX","75762"
213199,"4382 TEQUESQUITE AVE","RIVERSIDE","CA","92501"
213200,"43822 STATE ROUTE 556","BEALLSVILLE","OH","43716"
213201,"4383 CALDER AVENUE","BEAUMONT","TX","77706"
213202,"4383 CARPENTER AVE","BRONX","NY","10466"
213203,"4383 COLBURN DRIVE","SYRACUSE","NY","13215"
213204,"4383 E FICUS WAY","GILBERT","AZ","85298"
213205,"4383 IZARD STREET","OMAHA","NE","68131"
213206,"4383 S 91ST E AVE","TULSA","OK","74145"
213207,"4383 WESTMINISTER PLACE","SAINT LOUIS","MO","63108"
213208,"43834 W ELIZABETH AVE","MARICOPA","AZ","85138"
213209,"43836 LABURNUM SQUARE","ASHBURN","VA","20147"
213210,"43837 ROBINDALE CT","ASHBURN","VA","20147"
213211,"4384 CRISFIELD HIGHWAY","CRISFIELD","MD","21817"
213212,"4384 E ASHLAN AVE UNIT 107","FRESNO","CA","93726"
213213,"4384 HUMMINGBIRD CIR","FOLSOM","CA","95630"
213214,"4384 SOUTHERN AVE SE","WASHINGTON","DC","20019"
213215,"4384 SW 64TH AVENUE","DAVIE","FL","33314"
213216,"43844 W WADE DR","MARIOCOPA","AZ","85138"
213217,"43845 10TH STREET WEST UNIT 1D","LANCASTER","CA","93534"
213218,"43847 CHADWICK TERRACE","ASHBURN","VA","20148"
213219,"4385 HARBOR VILLAGE DRIVE","OMRO","WI","54963"
213220,"4385 LANTERMAN RD","AUSTINTOWN","OH","44515"
213221,"4385 LITTLE HOPE RD","LISMAN","AL","36912"
213222,"4385 MALAMA AINA PLACE","ANAHOLA","HI","96703"
213223,"4385 MCCORD LIVSEY RD","SNELLVILLE","GA","30039"
213224,"4385 OAK AVE","LAKEPORT","CA","95453"
213225,"4385 ROCK VALLEY DRIVE","FOREST","GA","30297"
213226,"4385 SHORELINE DR N","KEIZER","OR","97303"
213227,"438548 STATE HWY 144","NASHOBA","OK","74558"
213228,"43856 GOSHEN FARM CT","LEESBURG","VA","20176"
213229,"43858 MERRYOAK WAY","ASHBURN","VA","20147"
213230,"4386 INDIAN TRAIL DRIVE","MEMPHIS","TN","38141"
213231,"4386 MONACO STREET","SAN DIEGO","CA","92107"
213232,"4386 NE 26TH ST","DES MOINES","IA","50317"
213233,"4386 ROCKLEDGE CT","DE PERE","WI","54115"
213234,"4386 WEST OGDEN AVENUE","CHICAGO","IL","60623"
213235,"4386 WEST OGDEN","CHICAGO","IL","60623"
213236,"4386 WESTMINSTER LANE","SANTA MARIA","CA","93455"
213237,"4387 BROADWAY STREET","LAKE WORTH","FL","33461"
213238,"4387 FOXHOUND","MEMPHIS","TN","38141"
213239,"4387 LAKE AVE","ROCHESTER","NY","14612"
213240,"4387 LARKSPUR LANE","CHINO","CA","91710"
213241,"4387 UNION AVE","NETTLETON","MS","38858"
213242,"4387 W ELK MEADOWS DR","WEST JORDAN","UT","84088"
213243,"4387 W SWAMP RD 201","DOYLESTOWN","PA","18902"
213244,"43870 CAMELLIA STREET","ASHBURN","VA","20147"
213245,"43870 MARIGOLD DRIVE","PALM DESERT","CA","92260"
213246,"43874 CAMELLIA ST","ASHBURN","VA","20147"
213247,"4388 DELTA STREET SUITE 3","SAN DIEGO","CA","92113"
213248,"4388 EL CAMINO REAL UNIT 139","LOS ALTOS","CA","94022"
213249,"4388 JARVIS RD","HILLSBORO","MO","63050"
213250,"4388 LAKE SHORE DRIVE APT A","WACO","TX","76710"
213251,"4388 LAWRENCEVILLE HIGHWAY","TUCKER","GA","30084"
213252,"4388 SNAPFINGER LAKE DRIVE","DECATUR","GA","30034"
213253,"4388 STONE GATE WAY","EAST POINT","GA","30344"
213254,"4388 TAFT CT","WOODBRIDGE","VA","22193"
213255,"43881 WAXPOOL ROAD","ASHBURN","VA","20147"
213256,"43885 LARINO CT","TEMECULA","CA","92592"
213257,"43887 CENTERGATE DRIVE","ASHBURN",NA,"20148"
213258,"4389 123RD STREET","PLEASANT PRAIRIE","WI","53158"
213259,"4389 CINDY LANE","SYRACUSE","NY","13215"
213260,"4389 E 278 N","RIGBY","ID","83442"
213261,"4389 GEORGES LANE","CAPE CHARLES","VA","23310"
213262,"4389 MARLBOROUGH CT","MINNETONKA","MN","55345"
213263,"4389 N LONG RD","COLUMBUS","IN","47203"
213264,"4389 SAHARA DR NW","KENNESAW","GA","30144"
213265,"438C FAISON COURT","COLUMBUA","SC","29206"
213266,"439 1/2 E 76TH ST","LOS ANGELES","CA","90003"
213267,"439 17TH ST","SANTA MONICA","CA","90402"
213268,"439 42ND STREET","BROOKLYN","NY","11232"
213269,"439 APPLEWOOD DRIVE","LODI","CA","95242"
213270,"439 ASHFORD STREET","BROOKLYN","NY","11207"
213271,"439 AVON AVENUE","TROUTMAN","NC","28166"
213272,"439 CALIGULA AVE","CORAL GABLES","FL","33146"
213273,"439 COUNTY ROAD 430","HILLSBORO","AL","35643"
213274,"439 COUNTY ROAD 900 N","KEENES","IL","62851"
213275,"439 DEERFIELD DRIVE","NORTH TONAWANDA","NE","14120"
213276,"439 DIAMOND BRANCH RD","JOHNSONVILLE","SC","29555"
213277,"439 DOLLAR MILL ROAD","ATLANTA","GA","30331"
213278,"439 E 43RD STREET","BROOKLYN","NY","11203"
213279,"439 FAIRMONT ST","HARVEY","LA","70058"
213280,"439 FORESIDE ROAD","TOPSHAM","ME","04086"
213281,"439 FOREST AVENUE","SPARTANBURG","SC","29302"
213282,"439 FOURTH ST","HOLLISTER","CA","95023"
213283,"439 GEORGE ST","BELMONT","WI","53510"
213284,"439 GORDON AVENUE","CALUMET CITY","IL","60409"
213285,"439 HOLLY STREET","GRAPEVINE","TX","76051"
213286,"439 LAKE ST","EXCELSIOR","MN","55331"
213287,"439 LS INGRAM RD","SPARTA","GA","31087"
213288,"439 MAIN STREET","SOUTH BERWICK","ME","03908"
213289,"439 MONROE AVENUE - 2ND FLOOR","ROCHESTER","NY","14607"
213290,"439 MORAN DRIVE","HIGHLAND VILLAGE","TX","75077"
213291,"439 N 3RD ST","UPPER SANDUSKY","OH","43351"
213292,"439 N 9TH ST","SUNBURY","PA","17801"
213293,"439 N CHICOT","LAKE VILLAGE","AR","71653"
213294,"439 N MAIN ST","COLUMBIANA","OH","44408"
213295,"439 N MAIN ST","NASHVILLE","AR","71852"
213296,"439 N MAIN ST","ROCKDALE","TX","76567"
213297,"439 OLIVE AVE","LONG BEACH","CA","90802"
213298,"439 PASADENA AVENUE","YOUNGSTOWN","OH","44507"
213299,"439 PAUL ROAD","ROCHESTER","NY","14624"
213300,"439 QUEEN MARIE LANE","JACKSON","MS","39209"
213301,"439 RANDOM RD","BALTIMORE","MD","21229"
213302,"439 RIDGE AVENUE","ALLENTOWN","PA","18102"
213303,"439 SE 39TH TERR","OKEECHOBEE","FL","34974"
213304,"439 SOMERSET AVE","ROCKWOOD","PA","15501"
213305,"439 SOUTH BROAD ST STE 305","TRENTON","NJ","08611"
213306,"439 SOUTH DECATUR","LAS VEGAS","NV","89107"
213307,"439 SOUTH FLORIDA AVENUE STE 202","LAKELAND","FL","33806"
213308,"439 SOUTH UNION STREET","LAWRENCE","MA","01843"
213309,"439 STATEST","OREM","UT","84058"
213310,"439 TRACY TERR","DES PLAINES","IL","60016"
213311,"439 VALLEY VIEW DRIVE","STONE MOUNTAIN","GA","30087"
213312,"439 W 105TH ST","LOS ANGELES","CA","90003"
213313,"439 W LINCOLN AVE","MAGNOLIA","NJ","08049"
213314,"439 W MAPLE AVENUE","NEWARK","NY","14513"
213315,"439 WASHINGTON AVE","GLENCOE","IL","60022"
213316,"439 WEST 125TH STREET SUITE 6D","NEW YORK","NY","10027"
213317,"439 WEST 49TH STREET 7TH FL","NEW YORK","NY","10019"
213318,"439 WEST BERRY","UPLAND","IN","46989"
213319,"439 WEST MAIN STREET","ROGERSVILLE","TN","37857"
213320,"439 WESTWOOD SHOPPING CENTER PMB12","FAYETTEVILLE","NC","28314"
213321,"4390 E SANTA CLARA DR","SAN TAN VALLEY","AZ","85140"
213322,"4390 ISLAND DR  WEST","SAGINAW","MI","48603"
213323,"4390 KENSON DRIVE","ALLISON PARK","PA","15101"
213324,"4390 PASTURE COURT","WINSTON SALEM","NC","27101"
213325,"4390 S LOWELL BLVD","SHERIDAN","CO","80110"
213326,"4390 SW PARKVIEW AVENUE","PORTLAND","OR","97225"
213327,"4390 WELSH LANE APT 13","DALE CITY","VA","22193"
213328,"43905 HICKORY CORNER TER UNIT 112","ASHBURN","VA","20147"
213329,"43908 LOANGWOOD COURT","ASHBURN","VA","20147"
213330,"4391  FAIRVIEW ROAD SUITE 105 A","INDIAN TRAIL","NC","28079"
213331,"4391 BERKSHIRE STREET","DETROIT","MI","48224"
213332,"4391 IHU RD","KALAHEO","HI","96741"
213333,"4391 MIDDLESEX DR","SAN DIEGO","CA","92116"
213334,"4391 PACIFIC STREET","DETROIT","MI","48204"
213335,"4391/2 ACACIA RD","SANTA PAULA","CA","93060"
213336,"43911 GLENHAZEL DR","ASHBURN","VA","20147"
213337,"43919 17TH ST EAST","LANCASTER","CA","93535"
213338,"4392 STANLEY CT","RIVERSIDE","CA","92501"
213339,"4392 SUBLIME TRAIL","ATLANTA","GA","30349"
213340,"43922 CAMELLIA ST","ASHBURN","VA","20147"
213341,"43927 REMBRANDT STREET","LANCASTER","CA","93535"
213342,"4393 53RD ST S","FARGO","ND","58104"
213343,"4393 KEVIN WALKER DR UNIT 142","MONTCLAIR","VA","22025"
213344,"4393 KEVIN WALKER DRIVE BOX 133","DUMFRIES","VA","22025"
213345,"4393 LAURIAN DRIVE NW","KENNESAW","GA","30144"
213346,"43941 BRUCETON MILLS CIRCLE","ASHBURN","VA","20147"
213347,"43941 W CAREY DRIVE","MARICOPA","AZ","85138"
213348,"4395 ALYSHEBA DR","FAIRBURN","GA","30213"
213349,"4395 JENNINGS ROAD","SOUTH WAYNE","WI","53587"
213350,"4395 MILL WATER CROSSING","DOUGLASVILLE","GA","30135"
213351,"4395 OLMSTEAD ROAD","NEW ALBANY","OH","43054"
213352,"4395 PRINCESS PATH","LIVERPOOL","NY","13090"
213353,"43955 W GRIFFIS DR","MARICOPA","AZ","85138"
213354,"4396 BRIERWOOD","AUBURNDALE","FL","33823"
213355,"4396 CROIX PKWY","MANVEL","TX","77578"
213356,"4396 LAFAYETTE ST UNIT 201","MARIANNA","FL","32447"
213357,"4396 NE 139TH LANE","ANTHONY","FL","32617"
213358,"4396 ROCKDALE CT","TROY","MI","48085"
213359,"4396 TIGERS DEN ROAD","RANDLEMAN","NC","27317"
213360,"4396 WHEAT AVE NE","SALEM","OR","97305"
213361,"43964 BASSWOOD DR","STERLING HTS","MI","48314"
213362,"43964 BASSWOOD DRIVE","STERLING HEIGHTS","MI","48134"
213363,"4397 5TH ST","RIVERSIDE","CA","92501"
213364,"4397 AMADOR ROAD","FREMONT","CA","94538"
213365,"4397 BRICKWOOD LN","MEMPHIS","TN","38128"
213366,"4397 DIAL STREET","MARIANNA","FL","32448"
213367,"4397 HERITAGE ROAD","HOPEWELL","VA","23860"
213368,"4397 KUKUI GROVE STREET SUITE 102","LIHUE","HI","96766"
213369,"4398 130TH AVENUE","COLFAX","WI","54730"
213370,"4398 34TH AVE S","FARGO","ND","58104"
213371,"4398 QUINTON HILL CT","SNELLVILLE","GA","30039"
213372,"4398 STONECREST","SPRINGDALE","AR","72762"
213373,"4398 WYNNEFIELD DR","DOVER","PA","17315"
213374,"43980 MAHLON VAIL RD  STE 3002","TEMECULA","CA","92592"
213375,"43980 MAHLON VAIL ROAD   2402","TEMECULA","CA","92592"
213376,"43980 MAHLON VAIL ROAD STE 805","TEMECULA","CA","92592"
213377,"43987 JOHN MOSBY HIGHWAY","CHANTILLY","VA","20152"
213378,"4399 AVON STREET","JURUPA VALLEY","CA","92509"
213379,"4399 E COBURN DR","FLAGSTAFF","AZ","86004"
213380,"4399 LANDOVER BLVD","SPRING HILL","FL","34609"
213381,"4399 MAHAR ROAD","SOUTH VIENNA","OH","45369"
213382,"4399 NW 85 WAY","CORAL SPRINGS","FL","33065"
213383,"4399 SANTA ANITA AVENUE - SUITE 205","EL MONTE","CA","91731"
213384,"4399 SW 56TH AVE","DAVIE","FL","33314"
213385,"439A WALTON AVE","HUMMELSTOWN","PA","17036"
213386,"43C ULCO DR","FRANKLIN","NC","28734"
213387,"43I8 BOUGHTON LANE","HUMBLE","TX","77396"
213388,"43W390 MAIN STREET ROAD","ELBURN","IL","60119"
213389,"43W795 WILLOW CREEK DRIVE","ELBURN","IL","60119"
213390,"44  ELWOOD ROAD","DELMAR","NY","12054"
213391,"44 28TH AVENUE NORTH SUITE L104","SAINT CLOUD","MN","56303"
213392,"44 2ND AVE WEST - BOX 1422","KALISPELL","MT","59903"
213393,"44 ABBEY LANE  UNIT 4417","DANBURY","CT","06810"
213394,"44 ABBEY LANE 4111","DANBURY","CT","06810"
213395,"44 ALBERMARLE AVE","WEST BABYLON","NY","11704"
213396,"44 AMOGERONE CROSSWAY NUM 393","GREENWICH","CT","06830"
213397,"44 APPLE TREE LANE","ALAMO","CA","94507"
213398,"44 ARBOR DRIVE","HOWELL","NJ","07731"
213399,"44 ASHLEY COURT","DALLAS","GA","30157"
213400,"44 AVENUE E","APALACHICOLA","FL","32320"
213401,"44 AVIAN WAY","LANCASTER","NY","14086"
213402,"44 BALMORAL CT","ZIONSVILLE","IN","46077"
213403,"44 BARCELONA AVE","SAN FRANCISCO","CA","94115"
213404,"44 BAY COURSE COURT","LAS VEGAS","NV","89148"
213405,"44 BEDSON RD","CRANSTON","RI","02910"
213406,"44 BERRY STREET APT 200","SOMERSET","NJ","08873"
213407,"44 BEVERLY ROAD","LIVINGSTON","NJ","07039"
213408,"44 BIG SPRING ROAD","ROBESONIA","PA","19551"
213409,"44 BLOODY BROOK RD","HAMPSTEAD","NH","03841"
213410,"44 BRANDY LANE","LAKE GROVE","NY","11755"
213411,"44 BRASS HORSE ROAD","SANTA FE","NM","87508"
213412,"44 BREWER ROAD","MONSEY","NY","10952"
213413,"44 BRIDLE PATH COURT","SPARKS","NV","89441"
213414,"44 BROAD STREET NW SUITE 200","ATLANTA","GA","30303"
213415,"44 BROADLAWN PARK UNIT 20","CHESTNUT HILL","MA","02467"
213416,"44 BROADLEAF CIR","WINDSOR","CT","06095"
213417,"44 BRONZE DR","WHITESBURG","KY","41858"
213418,"44 BUTTERMILL DRIVE","PALM COAST","FL","32137"
213419,"44 BYRON ST UNIT 22","WORCESTER","MA","01606"
213420,"44 CARLETON STREET","PORTLAND","ME","04102"
213421,"44 CAROLYN DR","CHRISTIANA","PA","17509"
213422,"44 CAROUSEL LANE","BALDWINSVILLE","NY","13027"
213423,"44 CEDAR LANE","BRIDGEPORT","WV","26330"
213424,"44 CHAMPION WAY","HIRAM","GA","30141"
213425,"44 CHANNING DR","RINGWOOD","NJ","07456"
213426,"44 CHARLESTOWN CT","LITTLESTOWN","PA","17340"
213427,"44 CLEAR CREEK ROAD","FLINTSTONE","GA","30725"
213428,"44 CLYNE AVENUE","SPOTSWOOD","NJ","08884"
213429,"44 COCOANUT ROW B303","PALM BEACH","FL","33480"
213430,"44 COCOANUT ROW NUM B208","PALM BEACH","FL","33480"
213431,"44 COGGINS HILL RD","UNION","ME","04862"
213432,"44 COLUMBUS AVENUE","SOMERVILLE","MA","02143"
213433,"44 CONCORD RD","MARLBOROUGH","MA","01752"
213434,"44 CONWAY STREET","CARLISLE","PA","17013"
213435,"44 COOK STREET SUITE 100","Denver","CO","80206"
213436,"44 COOK STREET SUITE 100","DENVER","CO","80206"
213437,"44 COTTON XING W","SAVANNAH","GA","31411"
213438,"44 COURT STREET STE 1217","BROOKLYN","NY","11201"
213439,"44 CRESCENT VALLEY DRIVE","FREDERICKSBURG","VA","22405"
213440,"44 DARBYS RUN WAY","HIRAM","GA","30141"
213441,"44 DONGAN LANCE","NEWFOUNDLAND","NJ","07435"
213442,"44 DUVALI DRIVE","VENTURA","CA","93003"
213443,"44 E 77TH AVENUE","EUGENE","OR","97402"
213444,"44 E HAWTHORNE","SPOKANE","WA","99218"
213445,"44 E JOHNSTON ST","FORSYTH","GA","31029"
213446,"44 EAST 2ND STREET","NEW YORK","NY","10028"
213447,"44 EAST FRANKLIN STREET APT 2E","HAGERSTOWN","MD","21740"
213448,"44 EAST MAIN STREET","BERLIN HTS","OH","44814"
213449,"44 EAST OAK STREET","BASKING RIDGE","NJ","07920"
213450,"44 EAST PENN STREET","CARLISLE","PA","17013"
213451,"44 EAST ROGUES PATH","HUNTINGTON STATION","NY","11746"
213452,"44 EDGEWOOD RD","WAYLAND","MA","01778"
213453,"44 EDGEWOOD STREET","SPRINGFIELD","MA","01109"
213454,"44 ELSON ROAD","WALTHAM","MA","02451"
213455,"44 EMERALD RD","ROBBINSVILLE","NJ","08691"
213456,"44 EXCHANGE BLVD","ROCHESTER","NY","14616"
213457,"44 FABRIANO","IRVINE","CA","92620"
213458,"44 FAIRFAX DR","HUNTINGTON","WV","25705"
213459,"44 FAIRFAX ST","SOMERVILLE","MA","02144"
213460,"44 FAIRVIEW AVENUE","LONG VALLEY","NJ","07853"
213461,"44 FARADAY ST","HYDE PARK","MA","02136"
213462,"44 FAY LANE","NEEDHAM","MA","02492"
213463,"44 FISK ROAD","WAYNE","NJ","07470"
213464,"44 FORGE VALLEY DRIVE","MILLS RIVER","NC","28759"
213465,"44 FRIENDSHIP LN","COLORADO SPRINGS","CO","80904"
213466,"44 FULTON STREET","DEDHAM","MA","02026"
213467,"44 GARDEN AVE","BRICK","NJ","08724"
213468,"44 GARNET PARK ROAD","MADISON","CT","06443"
213469,"44 GARRETSON AVE","BAYONNE","NJ","07002"
213470,"44 GERALDINE ROAD","NORTH ARLINGTON","NJ","07031"
213471,"44 GEREMONTY DRIVE","SALEM","NH","03079"
213472,"44 GLEN DRIVE","PETERBOROUGH","NH","03458"
213473,"44 GLEN MARY ROAD","BAR HARBOR","ME","04609"
213474,"44 GRAVELLY HILL RD","BRIDGETON","NJ","08302"
213475,"44 GREEN HERON DRIVE","HACKETTSTOWN","NJ","07840"
213476,"44 GREENVILLE ST","NEWNAN","GA","30263"
213477,"44 GRESHEM LN","SAVANNAH","GA","31419"
213478,"44 HAMLIN ST","MANCHESTER","CT","06040"
213479,"44 HAMPTON STREET","SAG HARBOR","NY","11963"
213480,"44 HANSON LANE","HOLLIS CENTER","ME","04042"
213481,"44 HARRIET STREET","ALLEGANY","NY","14706"
213482,"44 HARWOOD STREET","LYNN","MA","01902"
213483,"44 HAWKINS AVENUE","CENTER MORICHES","NY","11934"
213484,"44 HENDERSON AVE","SAVANNAH","GA","31406"
213485,"44 HERKIMER ST","BUFFALO","NY","14213"
213486,"44 HILDEBRAND STREET","ASHEVILLE","NC","28801"
213487,"44 HUDSON PLACE 2ND FLOOR","HOBOKEN","NJ","07030"
213488,"44 HUNTERS RUN CT","RED LION","PA","17356"
213489,"44 HUNTLEY ROAD","BUFFALO","NY","14215"
213490,"44 JACOBS RD","TYLERTOWN","MS","39667"
213491,"44 JAMES HABERSHAM","BEAUFORT","SC","29906"
213492,"44 JENNINGS DRIVE","FRANKLIN","NC","28734"
213493,"44 JERSEY ST","SAN FRANCISCO","CA","94114"
213494,"44 KANANI RD SUITE 3-304","KIHEI","HI","96753"
213495,"44 KATE YAEGER RD","SAUGERTIES","NY","12477"
213496,"44 KAY CT","OAKLEY","CA","94561"
213497,"44 KENDALL PARK","WALTHAM","MA","02451"
213498,"44 KENYON AVE","WAKEFIELD","RI","02879"
213499,"44 KING ST","FREEPORT","NY","11520"
213500,"44 KNOX CIRCLE","GRENADA","MS","38901"
