"ID","Address","City","State","Zip"
85501,"172 WEST 127TH STREET","NEW YORK","NY","10027"
85502,"172 WEST HURON STREET","JACKSON","OH","45640"
85503,"172 WEST LIDO PROMENADE","LINDENHURST","NY","11757"
85504,"172 WESTPORT","NEWPORT BEACH","CA","92660"
85505,"172-02 JAMAICA AVE","JAMAICA","NY","11432"
85506,"172-06 144TH RD","JAMAICA","NY","11434"
85507,"172-09 SAYRES AVE","JAMAICA","NY","11433"
85508,"172-20 133RD AVE APT 2D","JAMAICA","NY","11434"
85509,"172-22 133RD AVENUE APT 4F","JAMAICA","NY","11434"
85510,"172-40 133RD AVE SUITE 5E","JAMAICA","NY","11434"
85511,"172-44 126 AVE","JAMAICA","NY","11434"
85512,"172-44 133RD AVE 2B","JAMAICA","NY","11434"
85513,"1720  NEWPORT HIGHWAY","SEVIERVILLE","TN","37876"
85514,"1720 57TH STREET","BROOKLYN","NY","11204"
85515,"1720 5TH ST SUITE I","WENATCHEE","WA","98801"
85516,"1720 8TH STREET","DES MOINES","IA","50309"
85517,"1720 ADRA CT","LAS VEGAS","NV","89102"
85518,"1720 ARUNDEL DRIVE","FLORISSANT","MO","63033"
85519,"1720 BAKER DR","TOMBALL","TX","77375"
85520,"1720 BATTERY ISLAND DRIVE","CHARLESTON","SC","29412"
85521,"1720 BEDFORD AVENUE APT 2F","BROOKLYN","NY","11225"
85522,"1720 BRENTWOOD DR","MT ZION","IL","62549"
85523,"1720 BROOKDALE ROAD","NAPERVILLE","IL","60563"
85524,"1720 CANYON DRIVE","PARK CITY","UT","84098"
85525,"1720 CENTRAL AVE","AUGUSTA","GA","30904"
85526,"1720 CONGRESSMAN WL DICKINSON DRIVE","MONTGOMERY","AL","36109"
85527,"1720 COUNTY ROAD 838","CULLMAN","AL","35057"
85528,"1720 CREBS WAY","UPLAND","CA","91784"
85529,"1720 CREEKSIDE DR NO 2102","FOLSOM","CA","95630"
85530,"1720 DOROTHY DR","RAPID CITY","SD","57703"
85531,"1720 E PRESTON ST","BALTIMORE","MD","21213"
85532,"1720 EAST 38 STREET","BROOKLYN","NY","11234"
85533,"1720 EMMETT AVENUE","SANFORD","FL","32771"
85534,"1720 ENOREE AVENUE","COLUMBIA","SC","29205"
85535,"1720 FLORIDA DRIVE","FORT WAYNE","IN","46805"
85536,"1720 FOSSIL DR","ENGLEWOOD","FL","34223"
85537,"1720 FOX TRAIL DRIVE NE","CEDAR RAPIDS","IA","52402"
85538,"1720 GENTRY COURT","HIGH POINT","NC","27265"
85539,"1720 GRAND CENTRAL AVENUE","ELMIRA HEIGHTS","NY","14903"
85540,"1720 GREENGATE STREET","YUBA CITY","CA","95991"
85541,"1720 GULF SHORES PKWY","GULF SHORES","AL","36542"
85542,"1720 HARRISON STREET UNIT 8B","HOLLYWOOD","FL","33020"
85543,"1720 HIGHLAND AVENUE","WESTON","WI","54476"
85544,"1720 HOLLAND STREET","ERIE","PA","16503"
85545,"1720 HOPKINS DR","SAN JOSE","CA","95122"
85546,"1720 HOPKINS DRIVE","SAN JOSE","CA","95122"
85547,"1720 I ST NW 4TH FLOOR","WASHINGTON","DC","20006"
85548,"1720 I ST NW SUITE 200","WASHINGTON","DC","20006"
85549,"1720 IRVING STREET 2","SAN FRANCISCO","CA","94122"
85550,"1720 JET STREAM DRIVE 208","COLORADO SPRINGS","CO","80921"
85551,"1720 JOHN GRAGG ROAD","ALBERTA","AL","36720"
85552,"1720 LACY LANE","MESQUITE","TX","75181"
85553,"1720 LINDEN AVE","BOULDER","CO","80304"
85554,"1720 LITITZ PIKE","LANCASTER","PA","17601"
85555,"1720 LOMBARD ST PH4","PHILADELPHIA","PA","19146"
85556,"1720 LONG PRAIRIE RD","ALLEN","TX","75002"
85557,"1720 M STREET","ARCATA","CA","95521"
85558,"1720 MARKET STREET","SAINT LOUIS","MO","63177"
85559,"1720 MARS HILL RD STE 120-319","ACWORTH","GA","30101"
85560,"1720 MARS HILL RD STE 124-391","ACWORTH","GA","30101"
85561,"1720 MARS HILL RD STE 8 296","ACKWORTH","GA","30101"
85562,"1720 MARS HILL ROAD 8-125","ACWORTH","GA","30101"
85563,"1720 MESA VERDE AVENUE","VENTURA","CA","93003"
85564,"1720 N GOLDENROD RD STE 9","ORLANDO","FL","32807"
85565,"1720 N GOLDENROD ROAD STE 9","ORLANDO","FL","32807"
85566,"1720 N KING ST","HAMPTON","VA","23669"
85567,"1720 NORTH 7TH STREET","COLORADO SPRINGS","CO","80907"
85568,"1720 NORTH BRUNSWICK STREET","WICHITA","KS","67212"
85569,"1720 NORTH FULLER AVENUE SUITE 360","LOS ANGELES","CA","90046"
85570,"1720 NORTH UNSER STREET","MOUNT DORA","FL","32757"
85571,"1720 NORTHUMBERLAND DRIVE","ROCHESTER HILLS","MI","48309"
85572,"1720 PACIFIC AVE APT304","VENICE","CA","90291"
85573,"1720 PACIFIC AVE ROOM 8","SAN FRANCISCO","CA","94109"
85574,"1720 REDWOOD AVE UNIT F","GRANTS PASS","OR","97527"
85575,"1720 REDWOOD AVE","PARKVILLE","MD","21234"
85576,"1720 REMINGTON POINT COURT","WALKERTOWN","NC","27051"
85577,"1720 ROGERS PL UNIT 11K","BURBANK","CA","91504"
85578,"1720 S 48TH ST","OMAHA","NE","68106"
85579,"1720 S COOPER STREET","ARLINGTON","TX","76013"
85580,"1720 S EDMONDS LN STE 7","LEWISVILLE","TX","75067"
85581,"1720 S MICHIGAN AVE UNIT 3008","CHICAGO","IL","60616"
85582,"1720 S SAN GABRIEL BLVD  STE 111","SAN GABRIEL","CA","91776"
85583,"1720 S WALTON BLVD STE 4 - 159","BENTONVILLE","AR","72712"
85584,"1720 SABAL PALM DRIVE","BOCA RATON","FL","33432"
85585,"1720 SADDLEWOOD DR","BARTOW","FL","33830"
85586,"1720 SE 16TH AVENUE BLDG 200","OCALA","FL","34471"
85587,"1720 SE SOLOMON LOOP","VANCOUVER","WA","98683"
85588,"1720 SOUTH MICHIGAN AVE APT 2405","CHICAGO","IL","60616"
85589,"1720 SPRUCEHAVEN ST","BAKERSFIELD","CA","93312"
85590,"1720 STEWART AVENUE","ARCATA","CA","95521"
85591,"1720 SW 102 AVENUE","MIAMI","FL","33165"
85592,"1720 THORNTREE LANE","JUSTIN","TX","76247"
85593,"1720 TONINI 108","SAN LUIS OBISPO","CA","93405"
85594,"1720 TOWNSHIP TERR","MCDONOUGH","GA","30252"
85595,"1720 UNIONVILLE RD","POTTSTOWN","PA","19465"
85596,"1720 W FAIRFIELD DR  SUITE 315","PENSACOLA","FL","32501"
85597,"1720 W FAIRFIELD DRIVE SUITE 505","PENSACOLA","FL","32501"
85598,"1720 W FLORIST AVENUE SUITE 125","GLENDALE","WI","53209"
85599,"1720 W PERALTA AVE","MESA","AZ","85202"
85600,"1720 W WELLINGTON AVE","CHICAGO","IL","60657"
85601,"1720 WELLS BRANCH PKWY APT 5207","AUSTIN","TX","78728"
85602,"1720 WEST 200 SOUTH","KAMAS","UT","84036"
85603,"1720 WEST BAYSHORE ROAD APT 10","EAST PALO ALTO","CA","94303"
85604,"1720 WESTMINSTER ST STE 100","DENTON","TX","76205"
85605,"1720 WINDSWEPT DR","MIDLOTHIAN","TX","76065"
85606,"1720 YATES DRIVE","MERRITT ISLAND","FL","32953"
85607,"17200 JAMBOREE RD","IRVINE","CA","92614"
85608,"17200 PONCHO SPRINGS LANE","AUSTIN","TX","78717"
85609,"17200 VALLEY ROAD","AUBURN TOWNSHIP","OH","44023"
85610,"17200 W 10 MILE","SOUTHFIELD","MI","48075"
85611,"17200 WATERHOUSE CIRCLE UNIT C","PARKER","CO","80134"
85612,"17201 COLLINS AVE APT 2307","SUNNY ISLES BEACH","FL","33160"
85613,"17201 CRANWOOD AVENUE","HUNTERSVILLE","NC","28078"
85614,"172010 DOUBLE LILLY","HOUSTON","TX","77095"
85615,"17202 BONNARD CIRCLE","SPRING","TX","77379"
85616,"17202 NE 2ND CIR","VANCOUVER","WA","98684"
85617,"17202 RICHMOND TURNPIKE PO BOX 778","BOWLING GREEN","VA","22427"
85618,"17203 SOUTH LONGFELLOW AVENUE","HAZEL CREST","IL","60429"
85619,"17204 LAKAY PL","TAMPA","FL","33647"
85620,"17204 ROSEMONT ST","MARICOPA","AZ","85138"
85621,"17205 GENITO RD","AMELIA","VA","23002"
85622,"17205 RUSH PEA CIR","AUSTIN","TX","78738"
85623,"17205 US HIGHWAY 27","FRANKLIN","GA","30217"
85624,"17206 CLAN MACINTOSH DR","HOUSTON","TX","77091"
85625,"17206 SNOW GOOSE CT","GERMANTOWN","MD","20874"
85626,"17207 EDEN FALLS CT","HOUSTON","TX","77095"
85627,"17207 GINGKO COURT","FONTANA","CA","92337"
85628,"17207 N 46TH PLACE","PHOENIX","AZ","85032"
85629,"17207 WHISLER DR","BROWNSTOWN","MI","48173"
85630,"17208 AUGUSTA","MACOMB","MI","48042"
85631,"17209 134TH AVE CT E","PUYALLUP","WA","98374"
85632,"17209 AMSTUTZ RD","LEO","IN","46765"
85633,"17209 ARLINGTON","DETROIT","MI","48212"
85634,"1721 11TH STREET","RAPID CITY","SD","57701"
85635,"1721 25TH ST","SACRAMENTO","CA","95816"
85636,"1721 45TH STREET","BROOKLYN","NY","11204"
85637,"1721 4TH AVENUE NORTH","BIRMINGHAM","AL","35203"
85638,"1721 7TH STREET","MOLINE","IL","61265"
85639,"1721 ANNISTON RD APT 915","JACKSONVILLE","FL","32246"
85640,"1721 BADGER STREET","GREEN BAY","WI","54303"
85641,"1721 BIRDSONG ST","KNOXVILLE","TN","37915"
85642,"1721 BROADWAY AVE SUITE 201","OAKLAND","CA","94612"
85643,"1721 BROADWAY SUITE 201","OAKLAND","CA","94612"
85644,"1721 CANOE DRIVE","LUTZ","FL","33559"
85645,"1721 CARPENTER FLECTCHER RD 308","DURHAM","NC","27713"
85646,"1721 CEDARWOOD DRIVE","MELBOURNE","FM","32935"
85647,"1721 CENTRAL AVENUE","HIGHLAND PARK","NJ","08904"
85648,"1721 CLUB HOUSE DR","DYERSBURG","TN","38024"
85649,"1721 CRESTMONT DR","HUNTINGTON","WV","25701"
85650,"1721 E 140TH PLACE S","BIXBY","OK","74008"
85651,"1721 EAST MAIN ST  UNIT 3","GRASS VALLEY","CA","95945"
85652,"1721 EWING AVE","EVANSVILLE","IN","47712"
85653,"1721 GALLINAS RD","RIO RANCHO","NM","87144"
85654,"1721 HARBOR WAY","SEAL BEACH","CA","90740"
85655,"1721 HILLCREST DRIVE","ROCHESTER HILLS","MI","48306"
85656,"1721 J JULIAN LANE","CHARLOTTE","NC","28208"
85657,"1721 JENNIFER MEADOWS COURT","SEVERN","MD","21144"
85658,"1721 KIDDER RIDGE ROAD","KAMIAH","ID","83536"
85659,"1721 LAKESIDE DR","ORLANDO","FL","32803"
85660,"1721 MANESS COURT","SYCAMORE","IL","60178"
85661,"1721 MITCHELL STREET","LARAMIE","WY","82072"
85662,"1721 N ANHINGA LN","HOMESTEAD","FL","33035"
85663,"1721 N BROADWAY","LOS ANGELES","CA","90031"
85664,"1721 N DAVIDSON ST","CHARLOTTE","NC","28206"
85665,"1721 NE 132ND AVE","PORTLAND","OR","97230"
85666,"1721 NE 63RD STREET","SEATTLE","WA","98115"
85667,"1721 NW 185TH STREET","MIAMI","FL","33056"
85668,"1721 NW 191 STREET","MIAMI GARDENS","FL","33056"
85669,"1721 OAKLAND AVE","DES MOINES","IA","50314"
85670,"1721 PARKER ROAD","SAINT LOUIS","MO","63138"
85671,"1721 PROSPECT AVENUE","WILLOW GROVE","PA","19090"
85672,"1721 RENEE DR","HURST","TX","76054"
85673,"1721 RIO VISTA WAY","YUBA CITY","CA","95993"
85674,"1721 RUNNING RIVER DRIVE","DESOTO","TX","75116"
85675,"1721 S G ST","TACOMA","WA","98405"
85676,"1721 S WESTGATE AVE SUITE 5","LOS ANGELES","CA","90025"
85677,"1721 SHERIDAN DRIVE","MADISON","WI","53704"
85678,"1721 SILVERSHIRE DRIVE","STOCKTON","CA","95206"
85679,"1721 SKYLINE DRIVE","JOHNSON CITY","MD","37604"
85680,"1721 SOUTH 13TH STREET","PHILADELPHIA","PA","19148"
85681,"1721 STAFFORD COURT","CEDAR HILL","TX","75104"
85682,"1721 W PLACITA ARANA","ORO VALLEY","AZ","85737"
85683,"1721 WOFFORD LN","PLANO","TX","75074"
85684,"1721 WOOD VALLEY DR","CARMEL","IN","46032"
85685,"1721 WYOMING ST","DAYTON","OH","45410"
85686,"17211 AMBLER AVE","CARSON","CA","90746"
85687,"17211 COUNTY HIGHWAY 8","TRACY","MN","56175"
85688,"17211 LANTANA DRIVE","SUGAR LAND","TX","77479"
85689,"17211 SATURN","HOUSTON","TX","77058"
85690,"17211 SW 112TH COURT","MIAMI","FL","33157"
85691,"17211 VALLEY VIEW AVE","CERRITOS","CA","90703"
85692,"17212 FLINT ST","MELVINDALE","MI","48122"
85693,"17213 HILLSIDE AVE SUITE 203","JAMAICA","NY","11432"
85694,"17213 LUZNAR LANE SW","FROSTBURG","MD","21532"
85695,"17214 BONHAM AVENUE","CARSON","CA","90746"
85696,"17214 ELM DRIVE","HAZELCREST","IL","60429"
85697,"17214 LITTLE PINTO CT","HOUSTON","TX","77095"
85698,"17214 ONTARIO","DETROIT","MI","48224"
85699,"17215 BROOKHOLLOW MIST CT","HOUSTON","TX","77084"
85700,"17215 STUDEBAKER ROAD","CERRITOS","CA","90703"
85701,"17215 WOODBURN RD","WOODBURN","IN","46797"
85702,"17216 SATICOY AVENUE","LAKE BALBOA","CA","91406"
85703,"17216 SATICOY ST UNIT 206","VAN NUYS","CA","91406"
85704,"17217 AMBER DRIVE","HAGERSTOWN","MD","21740"
85705,"17217 DEER TRL","ALPHARETTA","GA","30004"
85706,"17217 HAFER RD  UNIT 6104","HOUSTON","TX","77090"
85707,"17217 HAFER RD APT 11202","HOUSTON","TX","77090"
85708,"17217 HAFER RD","HOUSTON TEXAS","TX","77090"
85709,"17217 TANGERINE BLVD","LOXAHATCHEE","FL","33470"
85710,"17218 E ROSEMONT LANE","GREENACRES","WA","99016"
85711,"17218 HORSESHOE WAY","NEW CANEY","TX","77357"
85712,"17219 FOUNDATION PARKWAY  SUITE 100","WESTFIELD","IN","46074"
85713,"17219 PEPPERSTOCK LANE","JEFFERSONTON","VA","22724"
85714,"17219 SEQUOIA STREET  40","HESPERIA","CA","92345"
85715,"17219 SUMMER MAPLE WAY","SANTA CLARITA","CA","91387"
85716,"1722 12TH AVE N","LAKE WORTH","FL","33460"
85717,"1722 12TH AVE NORTH","LAKE WORTH","FL","33460"
85718,"1722 BANKER REVOLUCION","CANUTILLO","TX","79835"
85719,"1722 BOAT LAUNCH ROAD","KISSIMMEE","FL","34746"
85720,"1722 CEDAR STREET UNIT C","ALHAMBRA","CA","91801"
85721,"1722 CHAPEL COURT","NORTHBROOK","IL","60062"
85722,"1722 CHESTNUT STREET","HARRISBURG","PA","17109"
85723,"1722 CURLETTO DRIVE","CONCORD","CA","94521"
85724,"1722 DEL NORTE AVE","SAINT LOUIS","MO","63117"
85725,"1722 DESIRE AVE","ROWLAND HEIGHTS","CA","91748"
85726,"1722 E MAIN ST","EL CAJON","CA","90201"
85727,"1722 E MAIN ST","EL CAJON","CA","92021"
85728,"1722 FERN STREET","SAN DIEGO","CA","92102"
85729,"1722 FOX TREE LANE","SAN ANTONIO","TX","78248"
85730,"1722 HALLMARK DRIVE","GRIFFIN","GA","30223"
85731,"1722 HICKORY GATE DR S","DUNEDIN","FL","34698"
85732,"1722 HUNTER STREET","NORFOLK","VA","23504"
85733,"1722 KENSINGTON DRIVE","MURFREESBORO","TN","37127"
85734,"1722 MAXWELL COURT","MCLEAN","VA","22101"
85735,"1722 N NATIONAL AVENUE","SPRINGFIELD","MO","65803"
85736,"1722 NW RALEIGH MAILBOX 408","PORTLAND","OR","97209"
85737,"1722 OLIVE ST    NUMBER 205","ST LOUIS","MO","63103"
85738,"1722 PALMER VW","SAN ANTONIO","TX","78260"
85739,"1722 PALMERSTON CIRCLE","OCOEE","FL","34761"
85740,"1722 PARK AVE","NEW HYDE PARK","NY","11040"
85741,"1722 PRESIDENTIAL CIRCLE","SHAKOPEE","MN","55379"
85742,"1722 ROUTH ST SUITE 800","DALLAS","TX","75201"
85743,"1722 ROUTH STREET SUITE 1500","DALLAS","TX","75201"
85744,"1722 S CARSON AVENUE - 1200","TULSA","OK","74119"
85745,"1722 S GLENSTONE AVE SUITE F","SPRINGFIELD","MO","65804"
85746,"1722 SHELBURNE PL","JOHNSTOWN","PA","15905"
85747,"1722 SHERIDAN STREET SUITE 243","HOLLYWOOD","FL","33020"
85748,"1722 TODD STREET","SULPHUR","LA","70663"
85749,"1722 TULIP AVENUE","DISTRICT HEIGHTS","MD","20747"
85750,"1722 VOLVO PARKWAY","CHESAPEAKE","VA","23320"
85751,"1722 W VALENCIA DR","FULLERTON","CA","92833"
85752,"1722 WEST 165TH STREET","COMPTON","CA","90220"
85753,"1722 WEST 9TH STREET","FRIONA","TX","79035"
85754,"17220 CATTLE GATE LANE","KENNARD","NE","68034"
85755,"17220 FAIRWAY DRIVE","DETROIT","MI","48221"
85756,"17220 MERRILL AVE","FONTANA","CA","92335"
85757,"17221 PALATINE AVE N","SHORELINE","WA","98133"
85758,"17221 PIONEER BLVD","ARTESIA","CA","90701"
85759,"17221 POINTE DRIVE","ORLAND PARK","IL","60467"
85760,"17221 SE BARTELL RD","BORING","OR","97009"
85761,"17222 FM 2252","SAN ANTONIO","TX","78266"
85762,"17223 JEANETTA","SOUTHFIELD","MI","48076"
85763,"17225 E SHEA BLVD STE A109","FOUNTAIN HILLS","AZ","85268"
85764,"17225 N 16TH PL","PHOENIX","AZ","85022"
85765,"17225 PINEBROOK DRIVE","SILVER SPRING","MD","20905"
85766,"17225 S 90TH E AVE","BIXBY","OK","74008"
85767,"17226 30TH AVE NE","LAKE FOREST PARK","WA","98155"
85768,"17226 LIMEKILN RD","REEDSVILLE","WI","54230"
85769,"17226 MECURY DRIVE SUITE 108","HOUSTON","TX","77058"
85770,"17226 PINE HOLLOW LANDING COURT","HOUSTON","TX","77084"
85771,"17227 POLLARD CT SW","TENINO","WA","98589"
85772,"17229 BREEDERS CUP DR","ODESSA","FL","33556"
85773,"17229 COUNTY RD 42","GOSHEN","IN","46526"
85774,"1723 18TH STREET","BAKERSFIELD","CA","93301"
85775,"1723 79TH STREET 3FL","BROOKLYN","NY","11214"
85776,"1723 BRENTWOOD AVE","UPLAND","CA","91784"
85777,"1723 BROOK HOLLOW DR","ORLANDO","FL","32824"
85778,"1723 CINNAMON TEAL WAY","UPPER MARLBORO","MD","20774"
85779,"1723 CLEVELAND AVE SW","WYOMING","MI","49509"
85780,"1723 CLOUGH ST","BOWLING GREEN","OH","43402"
85781,"1723 CORNELL DRIVE","AUGUSTA","GA","30904"
85782,"1723 COTEAU RODAIRE HWY","ARNAUDVILLE","LA","70512"
85783,"1723 DILLARD STREET","FORT WORTH","TX","76105"
85784,"1723 E PLATA WAY","SANDY","UT","84093"
85785,"1723 ELM AVE","TORRANCE","CA","90503"
85786,"1723 FOREST HILL RD","SHEPHERDSVILLE","KY","40165"
85787,"1723 GRAND VALLEY DR","HOUSTON","TX","77090"
85788,"1723 GRANDE AVE SE","CEDAR RAPIDS","IA","52403"
85789,"1723 GRIST MILL DRIVE","NORTH EAST","PA","16428"
85790,"1723 JAMES M  WOOD BLVD 112","LOS ANGELES","CA","90015"
85791,"1723 JUNCTION AVE","SAN JOSE","CA","95112"
85792,"1723 KIRKTON","TROY","MI","48083"
85793,"1723 LOCERBIE DRIVE","MURFREESBORO","TN","37128"
85794,"1723 M STREET NE","WASHINGTON","DC","20002"
85795,"1723 N 32ND ST","OMAHA","NE","68111"
85796,"1723 N 77TH AVENUE","ELMWOOD PARK","IL","60707"
85797,"1723 N CASS ST","MILWAUKEE","WI","53202"
85798,"1723 OAK PARK LANE","HELENA","AL","35080"
85799,"1723 PRATT STREET","OMAHA","NE","68110"
85800,"1723 RIO DE JANIERO","EDINBURG","TX","78539"
85801,"1723 SE FENTON RD","PORT ORCHARD","WA","98367"
85802,"1723 SOUTH BROADWAY","LITTLE ROCK","AR","72206"
85803,"1723 TANGLEWOOD LANE","ROSEVILLE","CA","95661"
85804,"1723 THORNWOOD ROAD","WEST DES MOINES","IA","50265"
85805,"1723 TIDWELL LN","HOUSTON","TX","77093"
85806,"1723 WEST VIRGINIA AVE NE","WASHINGTON","DC","20002"
85807,"17230 NW 16 AVE","MIAMI","FL","33169"
85808,"17230 NW 27 AVE","MIAMI","FL","33056"
85809,"17231 COVENTRY LANE","COUNTRY CLUB HILLS","IL","60478"
85810,"17231 REGULUS DRIVE","YORBA LINDA","CA","92886"
85811,"17232 JEFFERSON HWY APARTMENT 627","BATON ROUGE","LA","70817"
85812,"17232 JEFFERSON HWY APT 715","BATON ROUGE","LA","70817"
85813,"17232 OVERSTONE CT","CHARLOTTE","NC","28277"
85814,"17233 RICH VALLEY ROAD","ABINGDON","TN","24210"
85815,"17234 133 AVE  SUITE 1A","JAMAICA","NY","11434"
85816,"17234 ROOSEVELT HIGHWAY","GREENVILLE","GA","30222"
85817,"17235 7TH STREET","MONTVERDE","FL","34756"
85818,"17235 FALCONS NEST LANDING","HOCKLEY","TX","77447"
85819,"17235 N 75TH AVENUE SUITE D145","GLENDALE","AZ","85308"
85820,"17235 NW 27TH AVE","MIAMI GARDENS","FL","33056"
85821,"17236 CR 424","DEFIANCE","OH","43512"
85822,"17236 HWY 696","KAPLAN","LA","70548"
85823,"17238 SE 85TH WILLOWICK CIRCLE","THE VILLAGES","FL","32162"
85824,"1724 10TH STREET SUITE 120","SACRAMENTO","CA","95811"
85825,"1724 10TH WAY SW","VERO BEACH","FL","32962"
85826,"1724 31ST ST NE","CANTON","OH","44714"
85827,"1724 BECKER COURT","CRYSTAL LAKE","IL","60014"
85828,"1724 BETTYS CT","LEXINGTON","KY","40505"
85829,"1724 BIRDIE DR","NAPLES","FL","34120"
85830,"1724 CAROTHERS PARKWAY STE 600","BRENTWOOD","TN","37027"
85831,"1724 CENTURY CIR N APT 1","INDIANAPOLIS","IN","46260"
85832,"1724 CHOCTAW DR","MESQUITE","TX","75149"
85833,"1724 DANDRIDGE LANE","BARNHART","MO","63012"
85834,"1724 DANDRIDGE","BARNHART","MO","63012"
85835,"1724 E 73RD ST","CHICAGO","IL","60649"
85836,"1724 E 9TH STREET","THE DALLES","OR","97058"
85837,"1724 E CIELO GRANDE AVENUE","PHOENIX","AZ","85024"
85838,"1724 EAST 12TH STREET","BROOKLYN","NY","11229"
85839,"1724 EDMAR LANE","SAINT LOUIS","MO","63138"
85840,"1724 ETON ST","FAYETTEVILLE","AR","72703"
85841,"1724 FAWCETTAVENUE","TACOMA","WA","98402"
85842,"1724 FAYLOR DR  SUITE B","AKRON","OH","44312"
85843,"1724 FLOWERS DR","CARROLLTON","TX","75007"
85844,"1724 FREEPORT TERRACE","SAN PEDRO","CA","90732"
85845,"1724 GOLDEN BELT DR","HAYS","KS","67601"
85846,"1724 HOWELL PLACE","SEATTLE","WA","98122"
85847,"1724 IMPERIAL RIDGE","LAS CRUCES","NM","88011"
85848,"1724 LEMON AVE","LONG BEACH","CA","90813"
85849,"1724 LINCOYA BAY DRIVE","NASHVILLE","TN","37214"
85850,"1724 MAIN STREET","ALAMEDA","CA","94501"
85851,"1724 MAIN STREET","NORTH LITTLE ROCK","AR","72114"
85852,"1724 N 8150 W","MENDON","UT","84325"
85853,"1724 N AUSTIN","CHICAGO","IL","60639"
85854,"1724 N HIGHLAND AVE 400","LOS ANGELES","CA","90028"
85855,"1724 N HUME AVE","MARSHFIELD","WI","54449"
85856,"1724 NORTH LARRABEE","CHICAGO","IL","60614"
85857,"1724 PATRICIA STREET","KEY WEST","FL","33040"
85858,"1724 PRINCETON AVENUE","NORFOLK","VA","23523"
85859,"1724 RISING VIEW CIR","MCDONOUGH","GA","30253"
85860,"1724 RIVER FOREST DRIVE","FORT DODGE","IA","50501"
85861,"1724 S 6TH STREET","PHILADELPHIA","PA","19148"
85862,"1724 S 9TH AVE","ELDRIDGE","IA","52748"
85863,"1724 TOPAZ DRIVE","LOVELAND","CO","80537"
85864,"1724 VINE STREET","DENVER","CO","80202"
85865,"1724 W KALAMO HWY","CHARLOTTE","MI","48813"
85866,"1724 W LOUGHLIN DR","CHANDLER","AZ","85224"
85867,"1724 WANDERING STREAM WAY","CENTERVILLE","OH","45458"
85868,"1724 YAMPA STREET","COLORADO SPRINGS","CO","80904"
85869,"1724-34 SOUTH 7TH STREET","PHILADELPHIA","PA","19148"
85870,"17240 CROSS WINDS RD","LIVONIA","MI","48152"
85871,"17240 JADE COURT","LAKEVILLE","MN","55044"
85872,"17240 W TEN MILE RD","SOUTHFIELD","MI","48075"
85873,"17241 IRIS AVE","RIVERSIDE","CA","92504"
85874,"17241 NW 9TH PLACE","MIAMI","FL","33169"
85875,"17242 CICERO AVE","CNTRY CLB HLS","IL","60478"
85876,"17243 LARKIN DR","DUMFRIES","VA","22026"
85877,"17243 NE 20TH PL","REDMOND","WA","98052"
85878,"17243 OASIS ROAD","CALDWELL","ID","83607"
85879,"17244 GOLDCREST LOOP","CLERMONT","FL","34714"
85880,"17245 WOODBINE ST","DETROIT","MI","48219"
85881,"17246 DEERING ST","LIVONIA","MI","48152"
85882,"17247 HIGHWAY 27","SANFORD","NC","27332"
85883,"17247 IDLEWOOD WAY","LAKEVILLE","MN","55044"
85884,"17247 STATE ROUTE E","SAVANNAH","MO","64485"
85885,"1725 13TH STREET","GERING","NE","69341"
85886,"1725 30TH AVE","SANTA CRUZ","CA","95062"
85887,"1725 32ND AVE S STE 1","GRAND FORKS","ND","58201"
85888,"1725 ABBOT KINNEY BOULEVARD","VENICE","CA","90291"
85889,"1725 ASHLAND AVENUE","SAINT PAUL","MN","55104"
85890,"1725 ASHLEY CIRCLE STE 206","BOWLING GREEN","KY","42104"
85891,"1725 BARKER ROAD","THOMPSON STATION","TN","37179"
85892,"1725 BRISTOL ST","ASHLAND","OR","97520"
85893,"1725 BROADWAY","HANNIBAL","MO","63401"
85894,"1725 BROKEN ARROW TRAIL NORTH","LAKELAND","FL","33813"
85895,"1725 BUCK RD","CASPER","WV","82604"
85896,"1725 CAMINO PALMERO STREET APT 408","LOS ANGELES","CA","90046"
85897,"1725 CAPITAL CIRCLE NE 201","TALLAHASSEE","FL","32308"
85898,"1725 CHADBOURNE AVE","MADISON","WI","53726"
85899,"1725 CINDY ST","ISHPEMING","MI","49849"
85900,"1725 CRESTDALE DRIVE","CHARLOTTE","NC","28216"
85901,"1725 DESALES ST NW SUITE 600","WASHINGTON","DC","20036"
85902,"1725 E FOWLER AVE","TAMPA","FL","33612"
85903,"1725 EDGEWOOD AVE","NASHVILLE","TN","37207"
85904,"1725 EMMONS AVENUE APT D18","BROOKLYN","NY","11235"
85905,"1725 FAIRHILL DR","EDGEWATER","MD","21037"
85906,"1725 FAIRMONT BLVD","EUGENE","OR","97403"
85907,"1725 FEDERAL AVE APT 1","LOS ANGELES","CA","90025"
85908,"1725 HILLSDALE ROAD","EL CAJON","CA","92019"
85909,"1725 I ST NW STE 300","WASHINGTON","DC","20006"
85910,"1725 I STREET NW SUITE 300","WASHINGTON","DC","20006"
85911,"1725 I STREET NW SUITE 335","WASHINGTON","DC","20006"
85912,"1725 JOYCE CIRCLE NW  APT 1103","ATLANTA","GA","30318"
85913,"1725 KEYSVILLE BRUCEVILLE ROAD","KEYMAR","MD","21757"
85914,"1725 KING WOODS DRIVE","AUGUSTA","GA","30904"
85915,"1725 LA VALHALLA PLACE","EL CAJON","CA","92019"
85916,"1725 LAKE CHRISTOPHER DRIVE","VIRGINIA BEACH","VA","23464"
85917,"1725 LINCOLN AVE","MARRERO","LA","70072"
85918,"1725 LORIANA ST","BRANDON","FL","33511"
85919,"1725 MAGNOLIA CIR","PLEASANTON","CA","94566"
85920,"1725 MAIN ST STE 2","HOUSTON","TX","77584"
85921,"1725 MANSION STREET","BRONX","NY","10460"
85922,"1725 MOHAWK DRIVE","APPLETON","WI","54914"
85923,"1725 MORNING DOVE CIRCLE","MODESTO","CA","95354"
85924,"1725 N 57TH TERRACE","KANSAS CITY","KS","66102"
85925,"1725 N ANANEA","MESA","AZ","85207"
85926,"1725 N COMMUNITY DR       116","ANAHEIM","CA","92806"
85927,"1725 N GONDOLA CT","VENICE","FL","34293"
85928,"1725 N PEORIA","TULSA","OK","74106"
85929,"1725 NASHVILLE QUAY","NORFOLK","VA","23518"
85930,"1725 NE 102ND AVE","PORTLAND","OR","97220"
85931,"1725 NORTH BASSWOOD AVENUE","DULUTH","MN","55811"
85932,"1725 NORTH PORTAL DRIVE NW","WASHINGTON","DC","20012"
85933,"1725 NORTH SUMMIT AVENUE","PASADENA","CA","91103"
85934,"1725 OCEAN AVE APT 226TH","SANTA MONICA","CA","90401"
85935,"1725 OCEAN AVE SUITE 406","SANTA MONICA","CA","90401"
85936,"1725 OCEAN AVE UNIT 226","SANTA MONICA","CA","90401"
85937,"1725 PENN AVE","SCRANTON","PA","18509"
85938,"1725 PRICE STREET","ALEXANDRIA","VA","22301"
85939,"1725 RHYNE RD","DALLAS","NC","28034"
85940,"1725 S 91ST AVE","OMAHA","NE","68124"
85941,"1725 S BRAND BLVD SUITE A","GLENDALE","CA","91204"
85942,"1725 S MADISON ST","MUNCIE","IN","47302"
85943,"1725 S PENNSYLVANIA ST","DENVER","CO","80210"
85944,"1725 S PEORIA AVE","TULSA","OK","74120"
85945,"1725 SCHOOLHOUSE ROAD","DUNCANNON","PA","17020"
85946,"1725 SHERIDAN AVENUE SUITE 134","CODY","WY","82414"
85947,"1725 STATE LINE ROAD","GREENSBURG","LA","70441"
85948,"1725 STATE ST 403S WIMBERLY HALL","LA CROSSE","WI","54601"
85949,"1725 STATE ST","CALUMET CITY","IL","60409"
85950,"1725 TIMBERDOODLE DR","SAINT CLOUD","MN","56303"
85951,"1725 UNIVERSITY AVE SE","MINNEAPOLIS","MN","55414"
85952,"1725 VICTORIA AVENUE","ARNOLD","PA","15068"
85953,"1725 W HARRISON","CHICAGO","IL","60612"
85954,"1725 W PONKAN RD","APOPKA","FL","32712"
85955,"1725 W WHITNEY CIR","ALCOA","TN","37701"
85956,"1725 WOODFIELD RD","MARTINSVILLE","NJ","08836"
85957,"1725 YUCCA COURT","FORT COLLINS","CO","80525"
85958,"1725","DETROIT","MI","48212"
85959,"17250 DALLAS PKWY STE 27","DALLAS","TX","75248"
85960,"17250 KINGS WAY DR","ANCHORAGE","AK","99516"
85961,"17250 NE 156TH CT","WOODINVILLE","WA","98072"
85962,"17250 REDFORD","DETROIT","MI","48219"
85963,"17250 W SUNSET BLVD APT 215","PACIFIC PALISADES","CA","90272"
85964,"17250 WEST TEN MILE RD","SOUTHFIELD","MI","48075"
85965,"17251 EARLY AVE","ROUND HILL","VA","20141"
85966,"17252 HAWTHORNE BLVD STE 137","TORRANCE","CA","90504"
85967,"17252 HAWTHORNE BLVD STE 403","TORRANCE","CA","90504"
85968,"17255 SOUTH HARRELLS FERRY ROAD","BATON ROUGE","LA","70816"
85969,"17255 STATE HWY N","MARTHASVILLE","MO","63357"
85970,"17257 US HIGHWAY 301 N","STATESBORO","GA","30458"
85971,"17258 MALLORYS FORD RD","GORDONSVILLE","VA","22942"
85972,"1726 13TH AVE CT NW","PUYALLUP","WA","98371"
85973,"1726 28TH AVENUE SOUTH","ST PETERSBURG","FL","33712"
85974,"1726 58TH STREET","BROOKLYN","NY","11204"
85975,"1726 ALLIE RD","GREENVILLE","GA","30222"
85976,"1726 ALTAMONT CT","AUBURN","AL","36830"
85977,"1726 AVENIDA LA POSTA","ENCINITAS","CA","92024"
85978,"1726 BATTLEGROUND DR","MURFREESBORO","TN","37129"
85979,"1726 BROOKE AVENUE","RALEIGH","NC","27607"
85980,"1726 CHELSEA AVE","BETHLEHEM","PA","18018"
85981,"1726 CLAY DRIVE","CROZET","VA","22932"
85982,"1726 DEARBOUGHT DRIVE","FREDERICK","MD","21701"
85983,"1726 FENTEM RD","GUSTINE","CA","95322"
85984,"1726 FREDERICKSBURG RD","SAN ANTONIO","TX","78201"
85985,"1726 GOLDEN CT","CROFTON","MD","21114"
85986,"1726 HARGROVE DRIVE","MCLEANSVILLE","NC","27301"
85987,"1726 HAROLD DR","DAYTON","OH","45406"
85988,"1726 LANSING COURT","MCLEAN","VA","22101"
85989,"1726 LES CT","KISSIMMEE","FL","34744"
85990,"1726 M STREET NW SUITE 600","WASHINGTON","DC","20036"
85991,"1726 MADISON AVE","MEMPHIS","TN","38104"
85992,"1726 MILLWICK ST","GARLAND","TX","75044"
85993,"1726 N 21ST AVE","MELROSE PARK","IL","60160"
85994,"1726 N MANGO AVE UNIT 1","CHICAGO","IL","60639"
85995,"1726 OXFORD RD","BERKLEY","MI","48072"
85996,"1726 RIDGE DRIVE","FREEPORT","IL","61032"
85997,"1726 ROCKVIEW TERRACE","LOGANVILLE","GA","30052"
85998,"1726 S VERMONT AVE","LOS ANGELES","CA","90006"
85999,"1726 SOUND CREEK COURT","NAVARRE","FL","32566"
86000,"1726 STATE HWY 361 STE K","PORT ARANSAS","TX","78373"
