"ID","Address","City","State","Zip"
278001,"710 S WHEELER STREET","GRIFFITH","IN","46319"
278002,"710 SE FRANCIS AVE","GRESHAM","OR","97080"
278003,"710 SETTLEMENT STREET","CEDAR PARK","TX","78613"
278004,"710 SHARING TERRACE","GREENSBORO","NC","27405"
278005,"710 SIBLEY DR","NORTHFIELD","MN","55057"
278006,"710 SO INDIAN HILLS DR  APT 73","ST GEORGE","UT","84770"
278007,"710 SOUTH 13TH STREET  900 108","NORFOLK","NE","68701"
278008,"710 SOUTH BOUNDARY AVE","DELAND","FL","32720"
278009,"710 SOUTH COMMERCE STREET","LOCKHART","TX","78644"
278010,"710 SOUTH DIAMOND ST","MANSFIELD","OH","44822"
278011,"710 SOUTH MYRTLE AVENUE SUITE 608","MONROVIA","CA","91016"
278012,"710 SPRING BROOK DR","WINONA","MN","55987"
278013,"710 SPROUL ST","CHESTER","PA","19013"
278014,"710 SPRUCE PLACE","BEAUMONT","CA","92223"
278015,"710 STH 35 SOUTH","SAINT CROIX FALLS","WI","54024"
278016,"710 STONE CHURCH LANE","GENESEO","IL","61254"
278017,"710 SUNSET DRIVE","LODI","WI","53555"
278018,"710 SUSAN STREET","GARDEN CITY","KS","67846"
278019,"710 SW 98 TERR","PEMBROKE PINES","FL","33025"
278020,"710 SW 98TH TERR","PEMBROKE PINES","FL","33025"
278021,"710 TEETSHORN STREET","HOUSTON","TX","77009"
278022,"710 TERRA VIEW CIRCLE","FORT COLLINS","CO","80525"
278023,"710 THISTLEWOOD DR","HOUSTON","TX","77079"
278024,"710 TRUMPETERS COURT WEST","MONUMENT","CO","80132"
278025,"710 TULIP LN","ROCKFORD","IL","61107"
278026,"710 VAN NESS AVE 263","FRESNO","CA","93721"
278027,"710 VAN NESS AVE NO 235","FRESNO","CA","93721"
278028,"710 VAN NESS AVE ROOM 141","FRESNO","CA","93721"
278029,"710 VAN NESS AVE STE 120-196","FRESNO","CA","93721"
278030,"710 VAN NESS AVE SUITE 188","FRESNO","CA","93721"
278031,"710 VAN NESS AVE SUITE 265","FRESNO","CA","93721"
278032,"710 VAN NESS AVENUE 170","FRESNO","CA","93721"
278033,"710 VAN NESS STE 192","FRESNO","CA","93721"
278034,"710 VILLA PLACE CT","ST. LOUIS","MO","63132"
278035,"710 VIRGINIA AVE","MARTINSBURG","WV","25401"
278036,"710 W 3RD STREET","WINNER","SD","57580"
278037,"710 W 42 ST","INDIANAPOLIS","IN","46208"
278038,"710 W BELDEN AVE","CHICAGO","IL","60614"
278039,"710 W CARISBROOK DRIVE","MAUMEE","OH","43537"
278040,"710 W CREEKSIDE DR","HOUSTON","TX","77024"
278041,"710 W FRONT ST","NORTH PLATTE","NE","69101"
278042,"710 W HOLLY ST","PASADENA","CA","91105"
278043,"710 W MAIN ST 4TH FLOOR","LOUISVILLE","KY","40202"
278044,"710 W SAN AUGUSTINE STREET","DEER PARK","TX","77536"
278045,"710 W SAN AUGUSTINE","DEER PARK","TX","77536"
278046,"710 W SANTA CRUZ DR","TEMPE","AZ","85282"
278047,"710 WALBRIDGE AVENUE","TOLEDO","OH","43609"
278048,"710 WATCH ISLAND REACH","CHESAPEAKE","VA","23320"
278049,"710 WATER OAK DR","GARLAND","TX","75044"
278050,"710 WAVERLY STREET","FRAMINGHAM","MA","01702"
278051,"710 WAYSIDE DRIVE","AUSTIN","TX","78703"
278052,"710 WEST MAIN","NEW HAMPTON","IA","50659"
278053,"710 WEST ST GEORGES AVE","LINDEN","NJ","07036"
278054,"710 WHITEHALL WAY","ROSWELL","GA","30076"
278055,"710 WICKS LANE SUITE 50656","BILLINGS","MT","59105"
278056,"710 WILLOW WAY","PRINCE FREDRICK","MD","20678"
278057,"710 WINDING BROOK ROAD","MONROE","NC","28112"
278058,"710 WISTERIA DR","JOSEPHINE","TX","75173"
278059,"710 WOOD DRIVE","ENCINITAS","CA","92007"
278060,"710 WOOD GATE DR","MADISON","MS","39110"
278061,"710 WOODLAND AVENUE","WESTFIELD","NJ","07090"
278062,"710 WYNBROOKE PARKWAY","STONE MOUNTAIN","GA","30087"
278063,"710-305 GATEWAY PARK DRIVE","RALEIGH","NC","27601"
278064,"7100 16TH STREET","BERWYN","IL","60402"
278065,"7100 ALMEDA    1203","HOUSTON","TX","77054"
278066,"7100 ALVERN STREET  APT 315","LOS ANGELES","CA","90045"
278067,"7100 BOULEVARD EAST","GUTTENBERG","NJ","07093"
278068,"7100 BOWLING DRIVE SUITE 100","SACRAMENTO","CA","95823"
278069,"7100 BROADWAY  STE 3J","DENVER","CO","80221"
278070,"7100 BUNKER HILL ROAD","THE PLAINS","VA","20198"
278071,"7100 CAMBRIDGE AVE","ST LOUIS","MO","63130"
278072,"7100 CHEASPEAKE ROAD 203","LANDOVER HLLLS","MD","20784"
278073,"7100 COLLEGE HEIGHTS DRIVE","HYATTSVILLE","MD","20782"
278074,"7100 E MATANUSKA SPUR","PALMER","AK","99645"
278075,"7100 GRAND MONTECITO PKWY STE 4037","LAS VEGAS","NV","89149"
278076,"7100 HALEYS WAY","THEODORE","AL","36582"
278077,"7100 HENRY AVENUE","PHILADELPHIA","PA","19128"
278078,"7100 HIDDEN RIDGE DR SE","GRAND RAPIDS","MI","49546"
278079,"7100 HILBURN DR","RALEIGH","NC","27613"
278080,"7100 HILBURN DRIVE","RALEIGH","NC","27613"
278081,"7100 IOWA STREET","DETROIT","MI","48212"
278082,"7100 KINSMAN ROAD","CLEVELAND","OH","44104"
278083,"7100 LAKE ELLENOR DR","ORLANDO","FL","32809"
278084,"7100 N COVENTRY AVE","KANSAS CITY","MO","64151"
278085,"7100 NATURAL BRIDGE ROAD","SAINT LOUIS","MO","63121"
278086,"7100 NEW KISSM COURT","SMITH","VA","20187"
278087,"7100 NORTH HIGH STREET - SUITE 204","WORTHINGTON","OH","43085"
278088,"7100 NORTH HIGH STREET SUITE 204","WORTHINGTON","OH","43085"
278089,"7100 OLD KATY RD 6112","HOUSTON","TX","77024"
278090,"7100 READ BLVD  SUITE 201","NEW ORLEANS","LA","70127"
278091,"7100 RIVER RUN DRIVE","CHATTANOOGA","TN","37416"
278092,"7100 S WESTERN AVE","LOS ANGELES","CA","90047"
278093,"7100 SHIELD COURT","UPPER MARLBORO","MD","20772"
278094,"7100 ST CHARLES AVENUE SUITE 209","NEW ORLEANS","LA","70118"
278095,"7100 SUNRISE DR","LANHAM","MD","20706"
278096,"7100 SW 99 AVENUE SUITE 201","MIAMI","FL","33173"
278097,"7100 THORPE AVE APT 3","HENRICO","VA","23228"
278098,"7100 VALLEY LAKE DRIVE","RALEIGH","NC","27612"
278099,"7100 VIRGIL ST","CLOVERDALE","OR","97112"
278100,"7100 W FONDDULAC AVENUE","MILWAUKEE","WI","53218"
278101,"7100 W GRANDVIEW RD UNIT 2103","PEORIA","AZ","85382"
278102,"7100 W GRANDVIEW ROAD  SUITE 1045","PEORIA","AZ","85382"
278103,"7100 WADSWORTH BLVD","ARVADA","CO","80003"
278104,"7100 WEST CAMINO REAL SUITE 200","BOCA RATON","FL","33433"
278105,"7100 WOLFEMONT LANE","PLANO","TX","75025"
278106,"7101 58TH STREET COURT W","UNIVERSITY PLACE","WA","98467"
278107,"7101 BIRCH STREET","COMMERCE CITY","CO","80022"
278108,"7101 BLACKWILLOW LANE","DALLAS","TX","75249"
278109,"7101 BUCKLEIGH POINT CT","MCKINNEY","TX","75071"
278110,"7101 CEDAR VALLEY DRIVE","RANDLEMAN","NC","27317"
278111,"7101 E 121ST ST S","BIXBY","OK","75008"
278112,"7101 ENGLISH POINT LANE","BRANDYWINE","MD","20613"
278113,"7101 LONGVIEW DRIVE","LONGMONT","CO","80503"
278114,"7101 LYNN DR","ROWLETT","TX","75088"
278115,"7101 MACAPA DRIVE","LOS ANGELES","CA","90068"
278116,"7101 MAMMOTH AVE","VAN NUYS","CA","91405"
278117,"7101 MARLBOROUGH DRIVE","BALTIMORE","MD","21234"
278118,"7101 MELTON DR","ROWLETT","TX","75089"
278119,"7101 MYRTLEWOOD LANE","SPRING HILL","FL","34606"
278120,"7101 N 183RD AVE","WADDELL","AZ","85355"
278121,"7101 N CICERO AVE SUITE 200","LINCOLNWOOD","IL","60712"
278122,"7101 NORTH DAKOTA ST","SPOKANE","WA","99208"
278123,"7101 NW 18TH STREET","LINCOLN","NE","68521"
278124,"7101 OLD BRANCH AVENUE","TEMPLE HILLS","MD","20748"
278125,"7101 OLD DAIRY LANE","CHARLOTTE","NC","28211"
278126,"7101 RONALD LANE","COLUMBIA","SC","29203"
278127,"7101 S 82ND ST","LINCOLN","NE","68516"
278128,"7101 SE 127TH AVE","PORTLAND","OR","97236"
278129,"7101 SHORELINE DRIVE","OKLAHOMA CITY","OK","73132"
278130,"7101 SMOKE RANCH RD","LAS VEGAS","NV","89128"
278131,"7101 SONNETT CT","DERWOOD","MD","20855"
278132,"7101 SOUTH UNION","CHICAGO","IL","60621"
278133,"7101 SPARR RD","GAYLORD","MI","49735"
278134,"7101 STEUBENVILLE PIKE","OAKDALE","PA","15071"
278135,"7101 SW 99 AVE SUITE 106","MIAMI","FL","33173"
278136,"7101 TRAPPERS LAKE DRIVE","CORPUS CHRISTI","TX","78413"
278137,"7101 W 12TH STREET STE 200","LITTLE ROCK","AR","72204"
278138,"7101 W COMMERCIAL BLVD STE 4A","TAMARAC","FL","33319"
278139,"7101 W MCNAB ROAD SUITE 200A","TAMARAC","FL","33321"
278140,"7101 W YALE AVE UNIT 504","DENVER","CO","80227"
278141,"7101 WELCHIRE FALLS DRIVE","LOUISVILLE","KY","40228"
278142,"7101 WEST 7TH STREET","TEXARKANA","TX","75501"
278143,"7101 WEST STRICKLAND STREET  207","DOUGLASVILLE","GA","30134"
278144,"7101 WILSON BLVD APT 8204","JACKSONVILLE","FL","32210"
278145,"7102 CALAMO ST","SPRINGFIELD","VA","22150"
278146,"7102 EAST EASTLAND STREET","TUCSON","AZ","85710"
278147,"7102 HEATHERMOORE LOOP","MONTGOMERY","AL","36117"
278148,"7102 HIGHWAY 26","JENNINGS","LA","70546"
278149,"7102 LAKE DR","SELLERSBERG","IN","47172"
278150,"7102 LOUNSBURY CT","BALTIMORE","MD","21244"
278151,"7102 NW OVERLOOK DR","VANCOUVER","WA","98665"
278152,"7102 QUAKERTOWN AVENUE","WINNETKA","CA","91306"
278153,"7102 REDDING RD","HOUSTON","TX","77036"
278154,"7102 RUTHERFORD GREEN CIRCLE","BALTIMORE","MD","21244"
278155,"7102 S 75TH EAST AVE","TULSA","OK","74133"
278156,"7102 VICTORIA PLACE","UPPER MARLBORO","MD","20772"
278157,"7102 W OKANOGAN PLACE","KENNEWICK","WA","99336"
278158,"7102 WILLGOOS AVENUE","PENNSAUKEN","NJ","08110"
278159,"7103 CLAYMORE AVENUE","HYATTSVILLE","MD","20782"
278160,"7103 CRABWALK COURT","WILMINGTON","NC","28405"
278161,"7103 GLEN CHASE CT","HOUSTON","TX","77095"
278162,"7103 HAMILTON MASON ROAD","WEST CHESTER","OH","45069"
278163,"7103 KELLA WAY","MECHANICSVILLE","VA","23111"
278164,"7103 LAUDER ST","AMARILLO","TX","79029"
278165,"7103 MT VISTA ROAD","KINGSVILLE","MD","21087"
278166,"7103 PANDORA WAY","SAN ANTONIO","TX","78252"
278167,"7103 PAR FOUR WAY","LITHONIA","GA","30038"
278168,"7103 ROSEMONT RD","DALLAS","TX","75217"
278169,"7103 SOUTH REDWOOD ROAD  SUITE 314","WEST JORDAN","UT","84084"
278170,"7103 WESTMORELAND DRIVE","ST LOUIS","MO","63130"
278171,"7103 WOOLSTON AVENUE","PHILADELPHIA","PA","19138"
278172,"7103D GLADE RD SE","ACWORTH","GA","30102"
278173,"7104 230TH ST SW","MOUNTLAKE TERRACE","WA","98043"
278174,"7104 67TH DR NE","MARRYSVILLE","WA","98270"
278175,"7104 AFRICA ROAD","GALENA","OH","43021"
278176,"7104 CAPROCK CIR","LAS VEGAS","NV","89129"
278177,"7104 CEDAR DONNE CIR","SIMPSONVILLE","SC","29680"
278178,"7104 CLARDEN RD","BETHESDA","MD","20814"
278179,"7104 INDIAN CREEK RD","WISE","VA","24293"
278180,"7104 MOYE DR","LITHINIA","GA","30038"
278181,"7104 NC 89 W","WESTFIELD","NC","27053"
278182,"7104 PEACH CT","BRENTWOOD","TN","37027"
278183,"7104 PILAA PLACE","HONOLULU","HI","96825"
278184,"7104 RACE ST","PITTSBURGH","PA","15208"
278185,"7104 RIO CAVADO WAY","ELK GROVE","CA","95757"
278186,"7104 RUMFORD DRIVE","GLEN BURNIE","MD","21061"
278187,"7104 WEBSTER STREET","LANDOVER HILLS","MD","20784"
278188,"7104 WOODLAWN AVE NE APT S404","SEATTLE","WA","98115"
278189,"7104 WOODLAWN AVENUE NE/S104","SEATTLE","WA","98115"
278190,"7105 2ND AVE S","BIRMINGHAM","AL","35206"
278191,"7105 3RD AVENUE NUM 227","BROOKLYN","NY","11209"
278192,"7105 BERWYN PL","CITRUS HEIGHTS","CA","95621"
278193,"7105 CORPORATE DRIVE TX2-981-02-04","PLANO","TX","75024"
278194,"7105 CREEKSIDE","OLIVE BRANCH","MS","38654"
278195,"7105 DEE COLE DR","THE COLONY","TX","75056"
278196,"7105 E MONTE AVE","MESA","AZ","85209"
278197,"7105 EAST RIDGE DRIVE","LANDOVER","MD","20785"
278198,"7105 FLOYDSBURG ROAD","CRESTWOOD","KY","40014"
278199,"7105 GLENWOOD AVE","RALEIGH","NC","27612"
278200,"7105 HIGHWAY 9","FELTON","CA","95018"
278201,"7105 HOLCOMB AVENUE","URBANDALE","IA","50322"
278202,"7105 LANHAM LANE","FORT WASHINGTON","MD","20744"
278203,"7105 OLD KATY ROAD APT 3112","HOUSTON","TX","77024"
278204,"7105 PRAIRIE DR","MIDDLETON","WI","53562"
278205,"7105 S 101ST AVE","LA VISTA","NE","68128"
278206,"7105 TREYWICK COURT","FAIRVIEW","TN","37062"
278207,"71055 MUSKEG ROAD","IRON RIVER","WI","54847"
278208,"7106 1/4 BAIRD AVE","RESEDA","CA","91335"
278209,"7106 4TH ARMORED DIVISION LOOP","FORT BENNING","GA","31905"
278210,"7106 APPLE CREEK","MEMPHIS","TN","38125"
278211,"7106 BANBURY COURT","SUGAR LAND","TX","77479"
278212,"7106 CASTOR AVE","PHILADELPHIA","PA","19149"
278213,"7106 CIDER MILL CIRCLE APT 1A","INDIANAPOLIS","IN","46226"
278214,"7106 COTTAGE AVE","NORTH BERGEN","NJ","07047"
278215,"7106 DUBLIN ROAD","DUBLIN","OH","43017"
278216,"7106 HUMBOLDT AVE NORTH","BROOKLYN","MN","55430"
278217,"7106 JUNIPER DRIVE","EVERETT","WA","98203"
278218,"7106 N 140 AVE","OMAHA","NE","68142"
278219,"7106 N CLARK ST","CHICAGO","IL","60606"
278220,"7106 NC HWY 42 S","RAMSEUR","NC","27316"
278221,"7106 PINEY BRANCH ROAD NW","WASHINGTON","DC","20012"
278222,"7106 QUISINBERRY WAY","BOWIE","MD","20720"
278223,"7106 SHARPSBURG DR","RICHMOND","TX","77469"
278224,"7106 SPRUCE COURT","RIVERDALE","GA","30296"
278225,"7106 W FORD LANE","RICHMOND","TX","77407"
278226,"7106 W HEARN RD","PEORIA","AZ","85381"
278227,"7106 WAYLAND DRIVE","INDIANAPOLIS","IN","46239"
278228,"71065 CYPRESS DRIVE","RANCHO MIRAGE","CA","92270"
278229,"7107 BROADWAY UNIT 2","LEMON GROVE","CA","91945"
278230,"7107 BUCCANEER TRAIL","AUSTIN","TX","78729"
278231,"7107 COSGROVE DR","DALLAS","TX","75231"
278232,"7107 GREENWOOD AVE NORTH STE C","SEATTLE","WA","98103"
278233,"7107 KIRKGLADE CT","HOUSTON","TX","77095"
278234,"7107 OLD EASTON RD","PIPERSVILLE","PA","18947"
278235,"7107 SOUTH YALE 225","TULSA","OK","74136"
278236,"7107 SOUTH YALE AVE","TULSA","OK","74136"
278237,"7107 WISTERIA WAY","CARLSBAD","CA","92011"
278238,"7108 COBI PL NW","BREMERTON","WA","98312"
278239,"7108 FLAG HARBOR DR","DISTRICT HEIGHTS","MD","20747"
278240,"7108 LITTLE MOHICAN DRIVE","FORT WORTH","TX","76179"
278241,"7108 LONGO DRIVE","THE COLONY","TX","75056"
278242,"7108 MERCURY TRAIL","AMARILLO","TX","79118"
278243,"7108 MONTIBILLO PKWY","DURHAM","NC","27713"
278244,"7108 NY 66","EAST NASSAU","NY","12062"
278245,"7108 RED TOP ROAD","HUMMELSTOWN","PA","17036"
278246,"7108 S 129TH PL","SEATTLE","WA","98178"
278247,"7108 S ROCKWELL AVE","CHICAGO","IL","60629"
278248,"71080 GAS STATION-SHIPPEY RD","ST CLAIRSVILLE","OH","43950"
278249,"7109 BLAKE STREET","EL CERRITO","CA","94530"
278250,"7109 BOA NOVA DRIVE","ELK GROVE","CA","95757"
278251,"7109 COUNTY HIGHWAY 19","HALEYVILLE","AL","35565"
278252,"7109 FARLEY","ST. LOUIS","MO","63121"
278253,"7109 FIELD AVE","ST LOUIS","MO","63116"
278254,"7109 FLEETWOOD DRIVE","EDINA","MN","55439"
278255,"7109 GENTRY RD","MARRERO","LA","70072"
278256,"7109 GLENFIELD LN","CHATTANOOGA","TN","37421"
278257,"7109 NATALIE JANAE LN NE","ALBUQUERQUE","NM","87109"
278258,"7109 ORDWAY ROAD","CENTREVILLE","VA","20121"
278259,"7109 SALEM","ROWLETT","TX","75089"
278260,"7109 WHISPER CREEK DRIVE","WENTZVILLE","MO","63385"
278261,"710A JEFFERSON AVE","BROOKLYN","NY","11221"
278262,"710B CONSTITUTION DRIVE","DURHAM","NC","27705"
278263,"711 1/2 MARYLAND AVENUE","ALAMOGORDO","NM","88310"
278264,"711 17TH STREET","NEWPORT NEWS","VA","23607"
278265,"711 19TH STREET","LYNDEN","WA","98264"
278266,"711 29TH AVE E","SEATTLE","WA","98112"
278267,"711 3RD ST S SUITE 6","JACKSONVILLE BEACH","FL","32250"
278268,"711 4TH STREET NW","WASHINGTON","DC","20001"
278269,"711 AMSTERDAM AVENUE  APT 6B","NEW YORK","NY","10025"
278270,"711 ANITA DR","TEHACHAPI","CA","93561"
278271,"711 ARCH HALL LANE","ALEXANDRIA","VA","22314"
278272,"711 ARMSTRONG LANE","MT WASHINGTON","KY","40047"
278273,"711 ASPEN STREET","SHELLEY","ID","83274"
278274,"711 AVENUE CHAUMONT","DELRAY BEACH","FL","33445"
278275,"711 BANDHOLTZ CT","MARINA","CA","93933"
278276,"711 BROADWAY ST","JOURDANTON","TX","78026"
278277,"711 BRONZE COURT","ACWORTH","GA","30102"
278278,"711 BURNET STREET","COPPELL","TX","75019"
278279,"711 CARDINAL AVENUE","ROCKLAND","WI","54653"
278280,"711 CENTRAL AVENUE","SCARSDALE","NY","10583"
278281,"711 CHAMPAGNOLLE ROAD","EL DORADO","AK","71730"
278282,"711 CHAMPAGNOLLE ROAD","EL DORADO","AR","71730"
278283,"711 CHICAGO","NEDERLAND","TX","77627"
278284,"711 COLLEGE","GOODLAND","KS","67735"
278285,"711 COMMERCIAL STREET","EMPORIA","KS","66801"
278286,"711 CRAWFORD STREET","PORTSMOUTH","VA","23704"
278287,"711 CYPRESS CHASE DR APT 231","ARLINGTON","TX","76011"
278288,"711 DAVIS ROAD","LAWRENCEVILLE","GA","30046"
278289,"711 DAVIS ST UNIT 3","SCRANTON","PA","18505"
278290,"711 DAVIS ST","SCRANTON","PA","18505"
278291,"711 DENNIS DR","DEL RIO","TX","78840"
278292,"711 DR CARVER ST","VILLE PLATTE","LA","70586"
278293,"711 DURANT STREET","HARLAN","IA","51537"
278294,"711 E 26TH STREET","WILMINGTON","DE","19802"
278295,"711 E 52ND ST","SAVANNAH","GA","31405"
278296,"711 E 9TH PL UNIT C","LOS ANGELES","CA","90021"
278297,"711 E ASCENSION ST SUITE 605","GONZALES","LA","70737"
278298,"711 E BLACKLIDGE ST","TUCSON","AZ","85719"
278299,"711 E COLFAX","SOUTH BEND","IN","46617"
278300,"711 E COREY STREET","SCRANTON","PA","18505"
278301,"711 E COUNTRY CLUB RD","CHICKASHA","OK","73018"
278302,"711 E GROVE ST","DELMAR","DE","19940"
278303,"711 E HARVESTER AVE","PAMPA","TX","79065"
278304,"711 E HARVESTER","PAMPA","TX","76065"
278305,"711 E SOUTH 6TH STREET APT 1095","SENECA","SC","29678"
278306,"711 E SOUTH AVE","EMPORIA","KS","66801"
278307,"711 E SOUTH ST","TIPTON","IA","52772"
278308,"711 E WARDLOW RD STE 203","LONG BEACH","CA","90803"
278309,"711 EAST 11TH STREET APT 9G","NEW YORK","NY","10009"
278310,"711 EAST 222 STREET","EUCLID","OH","44123"
278311,"711 EAST 222ND STREET","EUCLID","OH","44123"
278312,"711 EAST MAIN ST","AUBURN","WA","98002"
278313,"711 EAST MAIN STREET SUITE A3","LEXINGTON","SC","29072"
278314,"711 EAST SOUTH 6TH STREET APT 1095","SENECA","SC","29678"
278315,"711 EAST SOUTH STREET","TIPTON","IA","52772"
278316,"711 EBERLEIN DRIVE","MAUSTON","WI","53948"
278317,"711 EL ENCINO WAY","SACRAMENTO","CA","95864"
278318,"711 ESSES RD","DAYTONA BEACH","FL","32114"
278319,"711 EVERGREEN CIRCLE","HUDSON","WI","54016"
278320,"711 FM 1510","BROOKSTON","TX","75421"
278321,"711 FM 474","BOERNE","TX","78006"
278322,"711 FORD DR","CEDAR HILL","TX","75104"
278323,"711 FOREST AVE","SOUTH BEND","IN","46616"
278324,"711 FRANKLIN AVE","BROOKLYN","NY","11238"
278325,"711 GENE REED ROAD","BIRMINGHAM","AL","35235"
278326,"711 GIBBS STREET","NAVASOTA","TX","77868"
278327,"711 HAWK VIEW COURT","CHAPIN","SC","29036"
278328,"711 HAWLEY ST","JESUP","IA","50648"
278329,"711 HIGHLAND PAR DR","BILLINGS","MT","59102"
278330,"711 HIGHLAND PARK DR","BILLINGS","MT","59102"
278331,"711 HILDA STREET","NORTH BELLMORE","NY","11710"
278332,"711 HOLLOW ROAD","PHOENIXVILLE","PA","19460"
278333,"711 INDIAN ST","BELLE FOURCHE","SD","57717"
278334,"711 ISLINGTON","TOLEDO","OH","43610"
278335,"711 JAMACHA ROAD NUMBER 427","EL CAJON","CA","92019"
278336,"711 JAMES JONES RD","PLEASANT HILL","NC","27866"
278337,"711 KENNEDY AVE","DUNCANVILLE","TX","75116"
278338,"711 LAKE HARBOUR DR APT 1233","RIDGELAND","MS","39157"
278339,"711 LAKEVIEW DR","OCOEE","FL","34761"
278340,"711 LANCASTER BLVD","MOSS BEACH","CA","94038"
278341,"711 LIVE OAK DRIVE","ANGELS CAMP","CA","95222"
278342,"711 LIVINGSTON ST","STREATOR","IL","61364"
278343,"711 LOS PALOS DRIVE","LAFAYETTE","CA","94549"
278344,"711 MACOMB ST","COLCHESTER","IL","62326"
278345,"711 MADISON ST","COPPELL","TX","75019"
278346,"711 MAIN ST","SUSANVILLE","CA","96130"
278347,"711 MARGARET STREET","SPARTA","WI","54656"
278348,"711 MARINA PARK DRIVE","HUNTSVILLE","AL","35803"
278349,"711 MARY DRIVE","MOLALLA","OR","97038"
278350,"711 MEADOWS DR RM 236","KEESLER AFB","MS","39534"
278351,"711 MEDFORD CENTER SUITE 240","MEDFORD","OR","97504"
278352,"711 N 11TH AVE","TUCSON","AZ","85705"
278353,"711 N 17TH STREET","HARRISBURG","PA","17103"
278354,"711 N 2ND ST SUITE 2","HARRISBURG","PA","17102"
278355,"711 N BRIDGE ST ROOM 13","CHIPPEWA FALLS","WI","54729"
278356,"711 N GARRY DRIVE","LIBERTY LAKE","WA","99019"
278357,"711 N GLENDALE AVENUE","TOMAH","WI","54660"
278358,"711 N GRAND AVE","TALEQUAH","OK","74464"
278359,"711 N MADISON","RAYMORE","MO","64083"
278360,"711 N WALNUT AVE","CASA GRANDE","AZ","85122"
278361,"711 N WATER ST","UHRICHSVILLE","OH","44683"
278362,"711 NASH AVE","MENLO PARK","CA","94025"
278363,"711 NE MAGELLAN AVE APT B","LEE'S SUMMIT","MO","64086"
278364,"711 NE RANDALL AVE APT 101","PORTLAND","OR","97232"
278365,"711 NEW HOPE","TERRELL","TX","75160"
278366,"711 NO PROSPECT AVE","REDONDO BEACH","CA","90277"
278367,"711 NORTH 17TH STREET","ST LOUIS","MO","63103"
278368,"711 NORTH 2ND STREET","LUFKIN","TX","75901"
278369,"711 NORTH CARANCAHUA STE 408","CORPUS CHRISTI","TX","78408"
278370,"711 NORTH GRAND BLVD","ST. LOUIS","MO","63103"
278371,"711 NORTH PARK RD STE D","PLANT CITY","FL","33563"
278372,"711 NW 104TH AVE BLDG 11 UNIT 104","PEMBROKE PINES","FL","33026"
278373,"711 OAK SPRINGS ROAD","BRYN MAWR","PA","19010"
278374,"711 OAK STREET","MERKEL","TX","79536"
278375,"711 OAKWOOD DRIVE","GLENOLDEN","PA","19036"
278376,"711 OLD POST ROAD SUITE 9","LINCOLN","NE","68506"
278377,"711 ORCHARD ROAD","HUNTINGBURG","IN","47542"
278378,"711 OXFORD STREET","HOUSTON","TX","77007"
278379,"711 PARK AVE NW","WILLMAR","MN","56201"
278380,"711 PEACH STREET","MINDEN","LA","71055"
278381,"711 PEACOCK SHREET","VIDALIA","GA","30474"
278382,"711 PEACOCK STREET","VIDALIA","GA","30474"
278383,"711 PINE STREET","SPARTA","WI","54656"
278384,"711 PLUNKETT STREET","LEXINGTON","VA","24450"
278385,"711 PRESTON PLACE","GRAPEVINE","TX","76051"
278386,"711 QUINCY STREET","ONALASKA","WI","54650"
278387,"711 REAGAN SPRINGS ROAD","SEYMOUR","TN","37865"
278388,"711 RED MILE ROAD","LEXINGTON","KY","40504"
278389,"711 REGENCY DR","SALISBURY","MD","21804"
278390,"711 S CARSON STREET STE 4","CARSON CITY","NV","89701"
278391,"711 S HOWARD AVENUE","TAMPA","FL","33606"
278392,"711 S L YOUNG BLVD   SUITE 520","OKLAHOMA CITY","OK","73104"
278393,"711 S LACLEDE STATION  SUITE 2120","SAINT LOUIS","MO","63119"
278394,"711 S LACLEDE STATION RD SUITE 2120","SAINT LOUIS","MO","63119"
278395,"711 S M STREET","TACOMA","WA","98405"
278396,"711 S MAIN ST","GRAIN VALLEY","MO","64029"
278397,"711 S MENTOR AVE","PASADENA","CA","91106"
278398,"711 S PARK AVENUE","SANFORD","FL","32771"
278399,"711 S REGESTER ST","BALTIMORE","MD","21231"
278400,"711 S TEJON ST SUITE 201","COLORADO SPRINGS","CO","80903"
278401,"711 S ZUNIS AVE","TULSA","OK","74104"
278402,"711 SADDLEWOOD BOULEVARD","KERRVILLE","TX","78028"
278403,"711 SAGAMORE","EXCELSIOR SPRINGS","MO","64024"
278404,"711 SAINT  PAUL STREET GROUND FLOOR","BALTIMORE","MD","21202"
278405,"711 SAINT PAUL STREET GROUND FLOOR","BALTIMORE","MD","21202"
278406,"711 SECOND AVENUE","WAYNESBURG","PA","15370"
278407,"711 SIGNAL MOUNTAIN RD UNIT 229","CHATTANOOGA","TN","37405"
278408,"711 SLIGO CREEK PARKWAY","TAKOMA  PARK","MD","20912"
278409,"711 SO 5TH ST","SPRINGFIELD","IL","62703"
278410,"711 SOPERTON HWY","EASTMAN","GA","31023"
278411,"711 SOUTH 2ND STREET","LAPORTE","TX","77571"
278412,"711 SOUTH 3RD STREET SUITE 6","JACKSONVILLE BEACH","FL","32250"
278413,"711 SOUTH 6TH AVENUE","MOUNT VERNON","NY","10550"
278414,"711 SOUTH GRAMERCY PLACE","LOS ANGELES","CA","90005"
278415,"711 SOUTH MOUNTAIN ROAD","DILLSBURG","PA","17019"
278416,"711 SOUTH TEJON STREET SUITE 201","COLORADO SPRINGS","CO","80903"
278417,"711 THOMPSON BLVD","BUFFALO GROVE","IL","60089"
278418,"711 TYLER CT","DUNCANVILLE","TX","75137"
278419,"711 TYLER ST FL 2","LYNDHURST","NJ","07071"
278420,"711 UNION AVE","JONESBORO","AR","72401"
278421,"711 VERSAILLES DRIVE","RIDGELAND","MS","39157"
278422,"711 VOELKER ST","DE PERE","WI","54115"
278423,"711 W 86TH AVE","ANCHORAGE","AK","99515"
278424,"711 W CHURCH ST APT 12","CHAMPAIGN","IL","61820"
278425,"711 W NEELY AVE","MUNCIE","IN","47303"
278426,"711 W ROLLINS RD","COLUMBIA","MO","65203"
278427,"711 W WALNUT ST","PALMYRA","PA","17078"
278428,"711 W WASHINGTON","BLOOMINGTON","IL","61701"
278429,"711 W WHITE AVE","MCKINNEY","TX","75069"
278430,"711 WASHINGTON AVE","PORT LAVACA","TX","77979"
278431,"711 WASHINGTON ST","PLYMOUTH","NC","27962"
278432,"711 WEST END AVENUE 7CS","NEW YORK","NY","10025"
278433,"711 WEST HARPER STRREET","SNOW HILL","NC","28580"
278434,"711 WEST LAKE STREET SUITE 214","MINNEAPOLIS","MN","55408"
278435,"711 WEST MAIN STREET","MONONGAHELA","PA","15063"
278436,"711 WEST SILLER","NEWMAN","IL","61942"
278437,"711 WEST WASHINGTON STREET APT D","SOUTH BEND","IN","46601"
278438,"711 WICKHAM LAKES DRIVE","MELBOURNE","FL","32940"
278439,"711 WIL TARA DR","PITTSBURGH","PA","15236"
278440,"711 WILFRED AVE","DAYTON","OH","45410"
278441,"711 WOODED HAMLET COURT","ST AUGUSTINE","FL","32084"
278442,"7110 BELFORD RD","SUMMERFIELD","NC","27358"
278443,"7110 DONNELL PLACE B2","DISTRICT HEIGHTS","MD","20747"
278444,"7110 DUBLIN BOULEVARD","DUBLIN","CA","94568"
278445,"7110 HIGHWAY 12","VIDOR","TX","77662"
278446,"7110 HOLLY HILL DRIVE","DALLAS","TX","75231"
278447,"7110 LAUDER PLACE","TAMPA","FL","33617"
278448,"7110 LEDO RD","MOSELEY","VA","23120"
278449,"7110 N MARKS AVENUE SUITE 104","FRESNO","CA","93711"
278450,"7110 N YATES RD","FOX POINT","WI","53217"
278451,"7110 OAKLAND COURT","SHERWOOD","AR","72120"
278452,"7110 PARK AVE APT 3N","FLUSHING","NY","11365"
278453,"7110 PINE LAKE LN","MINT HILL","NC","28227"
278454,"7110 S  WEST SHORE BLVD","TAMPA","FL","33616"
278455,"7110 S CHAMPAGNE WAY","GILBERT","AZ","85298"
278456,"7110 STEMEN RD","PICKINGTON","OH","43147"
278457,"7110 THELMA DR","JACKSONVILLE","AR","72076"
278458,"7110 W 127TH ST STE 230","PALOS HEIGHTS","IL","60463"
278459,"7110 WELLINGTON POINT RD","MCKINNEY","TX","75072"
278460,"7111 ALABAMA  ST 10B","EL PASO","TX","79904"
278461,"7111 COLEMAN RD","EAST LANSING","MI","48823"
278462,"7111 DELLWOOD DRIVE","TAMPA","FL","33619"
278463,"7111 DIXIE HWY 125","CLARKSTON","MI","48346"
278464,"7111 EAST WILDERNESS AVE","ORANGE","CA","92869"
278465,"7111 HARWIN DR SUITE 105","HOUSTON","TX","77036"
278466,"7111 HOLATEE TRAIL","SOUTH WEST RANCHES","FL","33330"
278467,"7111 LAKE BARRINGTON DR","NEW ORLEANS","LA","70128"
278468,"7111 LUCEA RD","LITTLE ROCK","AR","72210"
278469,"7111 MARVIN D LOVE FWY STE 209","DALLAS","TX","75237"
278470,"7111 MASSAPONAX CHURCH RD","SPOTSYLVANIA","VA","22551"
278471,"7111 MOYE DR","LITHONIA","GA","30038"
278472,"7111 N FAIRCHILD CIRCLE","FOX POINT","WI","53211"
278473,"7111 NW 31ST STREET","BETHANY","OK","73008"
278474,"7111 PARK HEIGHTS AVENUE SUITE 503","BALTIMORE","MD","21215"
278475,"7111 RAMSGATE AVENUE UNIT 102","LOS ANGELES","CA","90045"
278476,"7111 SANTA MONICA BLVD SUITE B 113","WEST HOLLYWOOD","CA","90046"
278477,"7111 TALL SPRUCE DR","ANCHORAGE","AK","99502"
278478,"7111 VERMONT AVE","SAINT LOUIS","MO","63111"
278479,"7111 W 151ST ST   STE 142","OVERLAND PARK","KS","66223"
278480,"7111 W MEADOWS LN","GREENFIELD","IN","46140"
278481,"7111 WESTOVER STREET","HOUSTON","TX","77087"
278482,"7112 COLUMBIA PIKE","ANNANDALE","VA","22003"
278483,"7112 GRANTHAM WAY","CINCINNATI","OH","45230"
278484,"7112 LAKE CAROLINE DRIVE","CHESTERFIELD","VA","23832"
278485,"7112 LAWNVIEW COURT","TAMPA","FL","33615"
278486,"7112 NAPLES AVENUE","BIRMINGHAM","AL","35206"
278487,"7112 NE 132ND STREET","KIRKLAND","WA","98034"
278488,"7112 PAM TREE CIRCLE","BAKERSFIELD","CA","93308"
278489,"7112 RIDGE RD","LAKE POINT","UT","84074"
278490,"7112 S FILLMORE CIR","CENTENNIAL","CO","80112"
278491,"7112 SUNDAYS LANE","FREDERICK","MD","21702"
278492,"7112 TANGER BLVD","RIVERDALE","GA","30296"
278493,"7112 TRIUMPH LANE UNIT 50","PERRYSBURG","OH","43551"
278494,"7113 BATTLEFIELD LOOP","BRANDYWINE","MD","20613"
278495,"7113 BRAMBLE CT","LAS VEGAS","NV","89145"
278496,"7113 COLLEGE AVE","RED WING","MN","55066"
278497,"7113 GRIFFIN LANE","JACKSONVILLE","OR","97530"
278498,"7113 LARAMINE LANE","CORPUS CHRISTI","TX","78414"
278499,"7113 PARKER ROAD","HOUSTON","TX","77016"
278500,"7113 RAWLINS COURT","LAS VEGAS","NV","89128"
