"ID","Address","City","State","Zip"
92001,"1816 BUTTONSHELL","NEWPORT BEACH","CA","92660"
92002,"1816 CHASEWOOD DR","AUSTIN","TX","78727"
92003,"1816 CHESTNUT ST","CADILLAC","MI","49601"
92004,"1816 CLOVER SPRINGS DRIVE","HASLET","TX","76052"
92005,"1816 DAY DILY LN","ROCK HILL","SC","29730"
92006,"1816 E HELEN ST 109A","TUCSON","AZ","85719"
92007,"1816 EAST MCGALLIAR ROAD","MUNCIE","IN","47303"
92008,"1816 FROZEN CRK","RACCOON","KY","41557"
92009,"1816 GOOSE LAKE CIRCLE","NORTH LIBERTY","IA","52317"
92010,"1816 GREEN HILL RD","VIRGINIA BEACH","VA","23454"
92011,"1816 HEALTH CARE DRIVE","TRINITY","FL","34655"
92012,"1816 HILLCREST AVE","ANTIOCH","CA","94509"
92013,"1816 INDIAN HILL ROAD","VESTAVIA","AL","35216"
92014,"1816 JASPER DRIVE","ORLANDO","FL","32807"
92015,"1816 MARTIN LUTHER KING BLVD","HOUMA","LA","70360"
92016,"1816 MCCULLOH STREET","BALTIMORE","MD","21217"
92017,"1816 MEMORIAL DR SE APT B15","ATLANTA","GA","30317"
92018,"1816 MILL STREET SUITE 102","WAILUKU","HI","96793"
92019,"1816 N 3RD STREET","HARRISBURG","PA","17102"
92020,"1816 NEELY STREET","JACKSONVILLE","AR","72076"
92021,"1816 NORTH THIRD STREET","OSKALOOSA","IA","52577"
92022,"1816 PEBBLE COURT","HARRISBURG","PA","17110"
92023,"1816 PRINCE GEORGE AVE","EVANS","GA","30809"
92024,"1816 S CARSON AVE APT 130","TULSA","OK","74119"
92025,"1816 S FERNCREEK AVE","ORLANDO","FL","32806"
92026,"1816 S FIGUEROA ST 2ND FLOOR","LOS ANGELES","CA","90015"
92027,"1816 S FM 51  SUITE 400-117","DECATUR","TX","76234"
92028,"1816 S FM 51 STE 400-136","DECATUR","TX","76234"
92029,"1816 S OAK BUILDING A","PEARSALL","TX","78061"
92030,"1816 SE 1ST STREET","DEERFIELD BEACH","FL","33441"
92031,"1816 SHORT DRIVE","PRUDENVILLE","MI","48651"
92032,"1816 STONEHENGE DRIVE","BIRMINGHAM","AL","35215"
92033,"1816 SUNSET DRIVE","POPLAR BLUFF","MO","63901"
92034,"1816 TALBOT AVE","JACKSONVILLE","FL","32205"
92035,"1816 TANGLEWOOD DRIVE","LAFAYETTE","IN","47905"
92036,"1816 TYROL TER","MOUNT HOREB","WI","53572"
92037,"1816 VALLE VISTA BLVD","PEKIN","IL","61554"
92038,"1816 VARSITY DRIVE","CHESAPEAKE","VA","23324"
92039,"1816 VICTORIA DRIVE","EDMOND","OK","73003"
92040,"1816 W CAMERON ST","TULSA","OK","74127"
92041,"1816 W DEFENBAUGH SUITE A","KOKOMO","IN","46901"
92042,"1816 W LIBERTY","SPOKANE","WA","99205"
92043,"1816 WAPAKONETA AVENUE","SIDNEY","OH","45365"
92044,"1816 WEST 43RD STREET","LOS ANGELES","CA","90062"
92045,"1816 WOODCOVE PLACE","PITTSBURGH","PA","15216"
92046,"18160 CLEAR SPRING LN","EDEN PRAIRIE","MN","55347"
92047,"18161 FILMORE","SOUTHFIELD","MI","48075"
92048,"18161 S OLD ROUTE A","HARTSBURG","MO","65039"
92049,"18165 W MOUNTAIN SAGE DR","GOODYEAR","AZ","85338"
92050,"18166 W HOLLIDAY WAY","HAUSER","ID","83854"
92051,"18167 DOWNING RD","FAYETTEVILLE","AR","72701"
92052,"18168 NW 2AVE","MIAMI","FM","33169"
92053,"1817 19TH STREET NW","WASHINGTON","DC","20009"
92054,"1817 24TH PLACE S E /202","WASHINGTON","DC","20020"
92055,"1817 24TH PLACE SE UNIT 202","WASHINGTON","DC","20020"
92056,"1817 27TH AVE","SEATTLE","WA","98122"
92057,"1817 36TH STREET","ANACORTES","WA","98221"
92058,"1817 3RD AVENUE NORTH","BESSEMER","AL","35020"
92059,"1817 47TH STREET SOUTH","SAINT PETERSBURG","FL","33711"
92060,"1817 ARTESIAN SPRINGS XING","LEANDER","TX","78641"
92061,"1817 BELLAMY PLACE","GLEN ALLEN","VA","23059"
92062,"1817 BIRKDALE CT","MOUNT PLEASANT","NC","28124"
92063,"1817 BLACK BEAR DRIVE","FORT WAYNE","IN","46808"
92064,"1817 BRISTOL ROAD","GREENSBORO","VA","27406"
92065,"1817 CLAYCREEK PT","ANTIOCH","TN","37013"
92066,"1817 COVNINGTON DRIVE SE","GRAND RAPIDS","MI","49506"
92067,"1817 E 28TH ST","CHATTANOOGA","TN","37407"
92068,"1817 E LOMBARD STREET","BALTIMORE","MD","21231"
92069,"1817 E SOUTHERN AVE STE 508","TEMPE","AZ","85282"
92070,"1817 E WOOD LN","MOUNT PROSPECT","IL","60056"
92071,"1817 EAST 71ST STREET","CHICAGO","IL","60649"
92072,"1817 EAST HARVARD STREET","LUBBOCK","TX","79403"
92073,"1817 EAST THIRD STREET","CHATTANOOGA","TN","37404"
92074,"1817 EATON STREET","MCKEESPORT","PA","15132"
92075,"1817 FERRELL MEADOWS DR","ZEBULON","NC","27597"
92076,"1817 FOSTER AVENUE","MEMPHIS","TN","38114"
92077,"1817 GLENDALE DRIVE","WILSON","NC","27893"
92078,"1817 HOLLY STREET","HARRISBURG","PA","17104"
92079,"1817 HUMPHREY ST SE","OLYMPIA","WA","98501"
92080,"1817 I STREET NE   UNIT 1","WASHINGTON","DC","20002"
92081,"1817 KEARNY ST NE BASEMENT","WASHINGTON","DC","20018"
92082,"1817 LAKESHORE DRIVE","COLUMBUS","OH","43204"
92083,"1817 LEN PL","LAS VEGAS","NV","89106"
92084,"1817 LINDEN AVE","WAUKEGAN","IL","60087"
92085,"1817 LIVERY WAY","INDIANAPOLIS","IN","46202"
92086,"1817 LUMPKIN RD","AUGUSTA","GA","30906"
92087,"1817 MARKET STREET","CHATTANOOGA","TN","37408"
92088,"1817 MEADOWVIEW LANE","LITTLE CHUTE","WI","54140"
92089,"1817 MIDDLETON WAY","WEST PALM BEACH","FL","33409"
92090,"1817 MONTGOMERY","SAINT LOUIS","MO","63106"
92091,"1817 MORENA BLVD  STE A","SAN DIEGO","CA","92110"
92092,"1817 MORENA BLVD  SUITE A","SAN DIEGO","CA","92110"
92093,"1817 MORENA BLVD STE A","SAN DIEGO","CA","92110"
92094,"1817 N 37TH ST","SEATTLE","WA","98103"
92095,"1817 N DOBSON ROAD SUITE APT 1005","CHANDLER","AZ","85224"
92096,"1817 N EVERGREEN STREET","BURBANK","CA","91505"
92097,"1817 N HARRISON ST","ARLINGTON","VA","22205"
92098,"1817 N HEMLOCK","SPOKANE","WA","99205"
92099,"1817 NORTH HARRISON STREET","ARLINGTON","VA","22205"
92100,"1817 NORTH SEVENTH STREET","PHOENIX","AZ","85006"
92101,"1817 NW 111 STREET","MIAMI","FL","33167"
92102,"1817 NW 14TH AVENUE","FORT LAUDERDALE","FL","33311"
92103,"1817 OAK ST","SOUTH MILWAUKEE","WI","53172"
92104,"1817 OPALOCKA DR","MCLEAN","VA","22101"
92105,"1817 OXFORD STREET SUITE 17","BERKELEY","CA","94709"
92106,"1817 PARK MEADOW LN","RICHARDSON","TX","75081"
92107,"1817 PROSPECT STREET","HOUSTON","TX","77004"
92108,"1817 REGIMENT WAY","FREDERICK","MD","21702"
92109,"1817 SMITHLAND AVE","LA JUNTA","CO","81050"
92110,"1817 SOUTH A STREET","ELWOOD","IN","46036"
92111,"1817 SOUTH AVENUE WEST SUITE B","MISSOULA","MT","59801"
92112,"1817 STATE ROUTE 83 UNIT 443","Millersburg","OH","44654"
92113,"1817 STEVEN STREET","BRIDGEPORT","TX","76426"
92114,"1817 STONE CREST DRIVE","FLOWER MOUND","TX","75028"
92115,"1817 SW HAWTHORNE TERRACE","PORTLAND","OR","97201"
92116,"1817 SWETLAND ST","SCRANTON","PA","18504"
92117,"1817 VERA","FORT WORTH","TX","76105"
92118,"1817 WARD STREET","BERKELEY","CA","94703"
92119,"1817 WEST LOCKS EXT","SCOTTDALE","PA","15683"
92120,"1817 WILLIAM PENN WAY","LANCASTER","PA","17601"
92121,"1817 WILMAR ORCHARD","QUINCY","IL","62301"
92122,"181701","DENVER","CO","80218"
92123,"18171 COUNTY ROAD 33","WANNASKA","MN","56761"
92124,"18175 E A BASIN AVE","BUCKLEY AFB","CO","80011"
92125,"18175 E A-BASIN AVE","BUCKLEY AFB","CO","80011"
92126,"18177 GRANDVIEW DRIVE","FORNEY","TX","75126"
92127,"18177 NORTH SHORE DRIVE","HIDDEN VALLEY LAKE","CA","95467"
92128,"18178 SANTA ANA AVE","NAMPA","ID","83687"
92129,"1817B S SPRINGER RD","MOUNTAIN VIEW","CA","94040"
92130,"1818 230TH AVE NE","SAMMAMISH","WA","98074"
92131,"1818 29TH STREET","SACRAMENTO","CA","95816"
92132,"1818 9TH AVENUE EAST APT 24B","BRADENTON","FL","34208"
92133,"1818 BALZAR AVE UNIT 110","LAS VEGAS","NV","89106"
92134,"1818 BISHOPS GREEN DRIVE","MARIETTA","GA","30062"
92135,"1818 BOHLAND AVENUE","SAINT PAUL","MN","55116"
92136,"1818 CARLTON STREET","BERKELEY","CA","94703"
92137,"1818 CENTRE AVENUE NW","ROANOKE","VA","24017"
92138,"1818 CLIFFVIEW LN","FLORENCE","KY","41042"
92139,"1818 CONLIN AVENUE","EVANSVILLE","IN","47714"
92140,"1818 DEMAREE","HOUSTON","TX","77029"
92141,"1818 DOVER HEIGHTS LANE","FRESNO","TX","77545"
92142,"1818 E SOLAR AVE","FRESNO","CA","93720"
92143,"1818 E WILETTA ST","PHOENIX","AZ","85006"
92144,"1818 EAST LAKEWOOD STREET","SPRINGFIELD","MO","65804"
92145,"1818 EAST PIONEER PARKWAY NO 106","ARLINGTON","TX","76010"
92146,"1818 EAST PIONEER PARKWAY SUITE 100","ARLINGTON","TX","76010"
92147,"1818 GREENBROOK TRAIL","DALLAS","NC","28034"
92148,"1818 JAMESTOWN CIR","HOFFMAN ESTATES","IL","60169"
92149,"1818 KATYLAND DRIVE","KATY","TX","77493"
92150,"1818 LIBRARY ST STE 500","RESTON","VA","20190"
92151,"1818 LINDSAY LOOP","MOUNT VERNON","WA","98274"
92152,"1818 M STREET","ORD","NE","68862"
92153,"1818 MAPLEWOOD AVE","CORSICANA","TX","75110"
92154,"1818 MARSON STREET","LEHIGH ACRES","FL","33972"
92155,"1818 MLK BLVD 129","CHAPEL HILL","NC","27514"
92156,"1818 MLK JR BLVD SUITE 199","CHAPEL HILL","NC","27514"
92157,"1818 MOORE BLVD 221","DAVIS","CA","95618"
92158,"1818 N 30TH ST","RICHMOND","VA","23223"
92159,"1818 N TAYLOR   SUITE B   PMB 305","LITTLE ROCK","AR","72207"
92160,"1818 N TAYLOR ST","LITTLE ROCK","AR","72207"
92161,"1818 N TAYLOR STREET BOX 405","LITTLE ROCK","AR","72207"
92162,"1818 N TAYLOR STREET STE B 199","LITTLE ROCK","AR","72207"
92163,"1818 N TAYLOR STREET","LITTLE ROCK","AR","72207"
92164,"1818 OLD CUTHBERT ROAD SUITE 100","CHERRY HILL","NJ","08034"
92165,"1818 PASEO PENASCO","ROSEVILLE","CA","95747"
92166,"1818 RESERVOIR RD","LITTLE ROCK","AR","72227"
92167,"1818 S 151 W","GODDARD","KS","67052"
92168,"1818 S ERVAY ST STE 203","DALLAS","TX","75215"
92169,"1818 S WESTERN AVE STE 306","LOS ANGELES","CA","90006"
92170,"1818 S WESTERN AVE SUITE 200","LOS ANGELES","CA","90006"
92171,"1818 SOUTH 3RD STREET","IRONTON","OH","45638"
92172,"1818 SPRINGWOOD DR","MACON","GA","31211"
92173,"1818 STERIGERE STREET","NORRISTOWN","PA","19401"
92174,"1818 SUNSET CROSSING","CEDAR HILL","TX","75104"
92175,"1818 SW 1 AV SUITE 1001","MIAMI","FL","33129"
92176,"1818 SW 21ST STREET","FORT LAUDERDALE","FL","33315"
92177,"1818 SWEETSER AVENUE","EVANSVILLE","IN","47714"
92178,"1818 TENTH STREET","WICHITA FALLS","TX","76301"
92179,"1818 THE WOODS DRIVE","JACKSONVILLE","FL","32246"
92180,"1818 THOMAS STREET","MARINETTE","WI","54143"
92181,"1818 W 235TH STREET","TORRANCE","CA","90501"
92182,"1818 W CHASE AVE UNIT 3","CHICAGO","IL","60626"
92183,"1818 W FRANCIS AVE STE203","SPOKANE","WA","99205"
92184,"1818 W JUNEAU AVE 425","MILWAUKEE","WI","53233"
92185,"1818 W SPANISH BAY DRIVE","EAGLE","ID","83616"
92186,"1818 W THOMPSON ST","PHILADELPHIA","PA","19121"
92187,"1818 WEST MADISON STREET","LOUISVILLE","KY","40203"
92188,"1818 WILMAR ORCHARD","QUINCY","IL","62301"
92189,"18181 DOGWOOD DR","SPRING LAKE","MI","49456"
92190,"18182 LAKE HILLS CT","RENO","NV","89508"
92191,"18184 MC CIRCLE LP","ADEL","OR","97620"
92192,"18186 GREENPOINT CT","HIDDEN VALLEY LAKE","CA","95467"
92193,"18186 HIGHWAY 28","HAZLEHURST","MS","39083"
92194,"18187 SOUTH DRIVE APT 128","SOUTHFIELD","MI","48076"
92195,"18188 SW PIONEER COURT","LAKE OSWEGO","OR","97034"
92196,"18188 W DESERT LN","SURPRISE","AZ","85388"
92197,"18189 BERGTON RD","BERGTON","VA","22811"
92198,"1818A AUPUNI STREET","HONOLULU","HI","96817"
92199,"1819 14TH ST","OREGON CITY","OR","97045"
92200,"1819 48TH AVENUE","SAN FRANCISCO","CA","94122"
92201,"1819 ARBOR FALLS DRIVE","PLAINFIELD","IL","60586"
92202,"1819 BALLYBUNION DRIVE","JOHNS CREEK","GA","30097"
92203,"1819 BEVERLY HILLS ST","NORMAN","OK","73072"
92204,"1819 CEDRIC LANE","SAN ANTONIO","TX","78213"
92205,"1819 CLEVELAND ST","BOISE","ID","83705"
92206,"1819 CLIFF STREET","THE DALLES","OR","97058"
92207,"1819 EAST MARKET ST","CHARLOTTESVILLE","VA","22902"
92208,"1819 FALL MEADOW DRIVE","MISSOURI CITY","TX","77459"
92209,"1819 FIFTH AVENUE NORTH","BIRMINGHAM","AL","35203"
92210,"1819 FILLMORE DRIVE","MONTEREY PARK","CA","91755"
92211,"1819 GIBEN ROAD","SW ATLANTA","GA","30315"
92212,"1819 GULL ROAD","KALAMAZOO","MI","49048"
92213,"1819 HANA HIGHWAY","HANA","HI","96713"
92214,"1819 JUNIPER DRIVE","EDGEWATER","FL","32132"
92215,"1819 K STREET  SUITE 200","SACRAMENTO","CA","95811"
92216,"1819 K STREET SUITE 200","SACRAMENTO","CA","95811"
92217,"1819 KINGS ROW","SLIDELL","LA","70461"
92218,"1819 LASALLE AVE","FAYETTEVILLE","NY","28303"
92219,"1819 LAWANDA DR","CAPE GIRARDEAU","MO","63701"
92220,"1819 LAWRENCE","SAVANNA","IL","61074"
92221,"1819 LEADBURN RD","TOWSON","MD","21204"
92222,"1819 MARBLE DRIVE    2061","ARLINGTON","TX","76031"
92223,"1819 MARTIN LUTHER KING JR BLVD","DALLAS","TX","75215"
92224,"1819 N BEARWALLOW RD","FLETCHER","NC","28732"
92225,"1819 N LINCOLN W","CHICAGO","IL","60614"
92226,"1819 NE 181ST","NORTH MIAMI BEACH","FL","33162"
92227,"1819 NW LARKSPUR ST","CAMAS","WA","98607"
92228,"1819 OLD SPANISH TRL","SLIDELL","LA","70458"
92229,"1819 PEGGYS LANE","IDAHO FALLS","ID","83402"
92230,"1819 POLK STREET 449","SAN FRANCISCO","CA","94109"
92231,"1819 RAMADA DR","WACO","TX","76712"
92232,"1819 RIDGEVIEW CT","DUPONT","WA","98327"
92233,"1819 RIVER HEIGHTS DR","LITTLE ROCK","AR","72202"
92234,"1819 ROUTE 300","NEWBURGH","NY","12550"
92235,"1819 ROWLAND AVE SE","GRAND RAPIDS","MI","49546"
92236,"1819 S BYRNE RD","TOLEDO","OH","43614"
92237,"1819 SAN ARDO ST","TORRANCE","CA","90501"
92238,"1819 SOUTH MAIN ST","HOPE","AR","71801"
92239,"1819 SPEYER LN","REDONDO BEACH","CA","90278"
92240,"1819 STEELE STREET","LARAMIE","WY","82070"
92241,"1819 SW 5TH AVE 159","PORTLAND","OR","97201"
92242,"1819 SW 5TH AVE 268","PORTLAND","OR","97201"
92243,"1819 SW 5TH AVE SUITE 341","PORTLAND","OR","97201"
92244,"1819 SW 5TH AVENUE SUITE 166","PORTLAND","OR","97201"
92245,"1819 SW 5TH AVENUE UNIT 410","PORTLAND","OR","97201"
92246,"1819 TENNYSON COURT","GREENSBORO","NC","27410"
92247,"1819 VIZALEEA DR","DUBUQUE","IA","52002"
92248,"1819 WEST 19TH STREET","CHICAGO","IL","60608"
92249,"1819 WEST AVENUE BAY 5","MIAMI BEACH","FL","33139"
92250,"1819 WHITE AVE","ORLANDO","FL","32806"
92251,"1819 WOOD AVENUE","COLORADO SPRINGS","CO","80904"
92252,"1819-A RACE TRACK RD","NEW BERN","NC","28562"
92253,"18191 THIRD STREET","FOUNTAIN VALLEY","CA","92708"
92254,"18197 PATRICIA LANE","MAGNOLIA","TX","77355"
92255,"18197 PATRICIA LN","MAGNOLIA","TX","77355"
92256,"18198 FM 362","NAVASOTA","TX","77868"
92257,"18199 BEAVER DAM RD","LEWES","DE","19958"
92258,"1819C BRENTWOOD RD","BRENTWOOD","NY","11717"
92259,"181A HALSEY ST","BROOKLYN","NY","11216"
92260,"181A HALSEY STREET","BROOKLYN","NY","11216"
92261,"182 3/4 S WASHINGTON STREET","TIFFIN","OH","44883"
92262,"182 AUTUMN HILL ROAD","PRINCETON","NJ","08540"
92263,"182 BEN BURTON CIRCLE  SUITE 100-15","BOGART","GA","30622"
92264,"182 BEN BURTON CIRCLE SUITE 600 B","BOGART","GA","30622"
92265,"182 BULLVILLE ROAD","MONTGOMERY","NY","12549"
92266,"182 CAROLINA AVENUE","FOREST CITY","NC","28043"
92267,"182 CHICKADEE LANE","SEQUIM","WA","98382"
92268,"182 CR 245","HONDO","TX","78861"
92269,"182 CYPRESS POINTE DRIVE","RICHMOND HILL","GA","31324"
92270,"182 DALE DRIVE","CASSDAGA","NY","14718"
92271,"182 DEYO ROAD","ALCOVE","NY","12007"
92272,"182 DOGWOOD CIR","BRANDON","MS","39047"
92273,"182 EAST GRISSOM AVE","ROCKPORT","IN","47635"
92274,"182 EAST MAIN STREET","ABINGDON","VA","24210"
92275,"182 FLORIDA DRIVE","AGAWAM","MA","01001"
92276,"182 FLYING POINT ROAD","FREEPORT","ME","04032"
92277,"182 GRASSY CREEK RD","SMITHVILLE","TX","78957"
92278,"182 HEATHWOOD DRIVE","MACON","GA","31206"
92279,"182 HILLTOP DRIVE","LAKE IN THE HILLS","IL","60156"
92280,"182 KALMIA LANE","BOONE","NC","28607"
92281,"182 LAFAYETTE ST FL 3","NEW YORK","NY","10013"
92282,"182 LAKE ROAD","MCHENRY","MS","39561"
92283,"182 LANTANA CERRO","SPRING BRANCH","TX","78070"
92284,"182 LEWALLEN HOLLOW LANE","CLINTON","TN","37716"
92285,"182 LILY POND ROAD","GILFORD","NH","03249"
92286,"182 LOLA CIRCLE","DESTIN","FL","32541"
92287,"182 MOUNTAIN MEADOW ROAD","HOT SPRINGS","AR","71913"
92288,"182 NASSAU STREET SUITE  201","PRINCETON","NJ","08542"
92289,"182 NE COUNTY ROAD V","WARRENSBURG","MO","64093"
92290,"182 NEW YORK AVE","BAY SHORE","NY","11706"
92291,"182 NOLA DR","HOLDEN","MA","01520"
92292,"182 PASADENA ST","HIGHLAND PARK","MI","48203"
92293,"182 PETUNIA ROAD","WRIGHT CITY","OK","74766"
92294,"182 PRISON CAMP ROAD","PICKENS","SC","29671"
92295,"182 REBELS WAY","PORTSMOUTH","RI","02871"
92296,"182 SCHOONER ST","ARVERNE","NY","11692"
92297,"182 SEAVIEW AVE","BRIDGEPORT","CT","06607"
92298,"182 SILVERADO SPRINGS DRIVE","NAPA","CA","94558"
92299,"182 SOBIESKI STREET","BUFFALO","NY","14212"
92300,"182 STEVE ADAMS DRIVE","JONESVILLE","VA","24263"
92301,"182 STRATFORD PLACE","MADISON HEIGHTS","VA","24572"
92302,"182 TIMBER CREEK DR","HEADLAND","AL","36345"
92303,"182 UNITY LANE","FALMOUTH","KY","41040"
92304,"182 USHA CT","ORANGEBURG","SC","29118"
92305,"182 W 26TH STREET","BAYONNE","NJ","07002"
92306,"182 W WOLFCHASE CIRCLE APT 11","CORDOVA","MS","38016"
92307,"182 WEST 4TH ST UNIT 2","NEW YORK","NY","10014"
92308,"182 WEST VINEYARD ROAD","HAYESVILLE","NC","28904"
92309,"182 WILSONS MILLS ROAD","ERROL","NH","03579"
92310,"182-101 BURCHETT RD","ONALASKA","WA","98570"
92311,"182-188 ALEXANDER AVENUE","PATERSON","NJ","07502"
92312,"182-23 HOVENDEN ROAD","JAMAICA","NY","11432"
92313,"182-30 WEXFORD TERRACE","JAMAICA","NY","11432"
92314,"182-42 80TH DRIVE","JAMAICA ESTATES","NY","11432"
92315,"182-60 WEXFORD TERRACE","JAMAICA ESTATES","NY","11432"
92316,"182","WATERTOWN","SD","57201"
92317,"1820 185TH STREET","LANSING","IL","60438"
92318,"1820 216TH AVE CT E","LAKE TAPPS","WA","98391"
92319,"1820 260TH STREET","LOMITA","CA","90717"
92320,"1820 2ND AVENUE NORTH","PELL CITY","AL","35125"
92321,"1820 2ND ST APT 2","SNOHOMISH","WA","98290"
92322,"1820 53RD AVENUE WEST","BRADENTON","FL","34207"
92323,"1820 89TH STREET APT 105","KENOSHA","WI","53143"
92324,"1820 ALTA VISTA AVE","MUNSTER","IN","46321"
92325,"1820 AVE M SUITE 1151","BROOKLYN","NY","11230"
92326,"1820 AVE M SUITE 609","BROOKLYN","NY","11230"
92327,"1820 AVENUE M UNIT 590","BROOKLYN","NY","11230"
92328,"1820 BARRINGTON CIRCL","ROCKLEDGE","FL","32955"
92329,"1820 BELT ST","BALTIMORE","MD","21230"
92330,"1820 BENNETT POINT ROAD","QUEENSTOWN","MD","21658"
92331,"1820 BERKSHIRE","TOLEDO","OH","43612"
92332,"1820 BOARDWALK DR","STOCKTON","CA","95206"
92333,"1820 CHICAGO AVENUE","EVANSTON","IL","60201"
92334,"1820 CHILDRESS DR","ATLANTA","GA","30311"
92335,"1820 COMMERCIAL ST SE","SALEM","OR","97302"
92336,"1820 COOPERS POND RD","AUBURN","AL","36830"
92337,"1820 CRESTVIEW DRIVE","CONCORDIA","KS","66901"
92338,"1820 CUMBERLAND VALLEY PLACE SE","SMRYNA","GA","30080"
92339,"1820 DIXON STREET","CHATTANOOGA","TN","37421"
92340,"1820 E 54TH STREET","DAVENPORT","IA","52807"
92341,"1820 E RAY RD","CHANDLER","AZ","85225"
92342,"1820 E SAHARA AVE UNIT 210","LAS VEGAS","NV","89104"
92343,"1820 E WARM SPRINGS ROAD 130","LAS VEGAS","NV","89119"
92344,"1820 EAST 38TH STREET","ERIE","PA","16510"
92345,"1820 ECHO PARK AVE UNIT 6","LOS ANGLEES","CA","90026"
92346,"1820 EGANEY STREET","SOUTH PLAINFIELD","NJ","07080"
92347,"1820 EUGENE STREET","HOOD RIVER","OR","97031"
92348,"1820 FAIRMONT AVE","LA CANADA","CA","91364"
92349,"1820 FLEMING WOODS ROAD","CHARLESTON","SC","29412"
92350,"1820 FRANKLIN STREET SUITE 34","GRETNA","LA","70053"
92351,"1820 GA HWY 11 NORTH","MONROE","GA","30656"
92352,"1820 GOODE ST","ALVIN","TX","77511"
92353,"1820 GREENWOOD ST","EVANSTON","IL","60201"
92354,"1820 HARMON ST","BERKELEY","CA","94703"
92355,"1820 HARRIS HOUSTON RD 621342","CHARLOTTE","NC","28262"
92356,"1820 HARRIS HOUSTON ROAD 621311","CHARLOTTE","NC","28262"
92357,"1820 HIGHWAY 30 E","DENISON","IA","51442"
92358,"1820 HOOKER ST","DENVER","CO","80204"
92359,"1820 HUNTER LAKE DRIVE","RENO","NV","89509"
92360,"1820 HWY GA 20 SE","CONYERS","GA","30013"
92361,"1820 JAMES ST","BELLINGHAM","WA","98225"
92362,"1820 KENWOOD TER","ARLINGTON","TX","76013"
92363,"1820 KINGS HWY","LINCOLN","NE","68502"
92364,"1820 LARKDALE ROAD","NORTHBROOK","IL","60062"
92365,"1820 LOWELL BLVD","DENVER","CO","80204"
92366,"1820 MCLAUGHLIN RUN ROAD","UPPER ST CLAIR","PA","15241"
92367,"1820 MEMORIAL DRIVE","LINCOLN","NE","68502"
92368,"1820 MOCKINGBIRD LANE","CONWAY","AR","72032"
92369,"1820 MONROE STREET NE","WASHINGTON","DC","20018"
92370,"1820 N 52ND STREET","SEATTLE","WA","98103"
92371,"1820 N CORPORATE LAKES BLVD STE 304","WESTON","FL","33326"
92372,"1820 N GEM STREET","TULARE","CA","93274"
92373,"1820 N HILLS DRIVE APT 96","NORRISTOWN","PA","19401"
92374,"1820 N SPAULDING AVE APT 210","CHICAGO","IL","60647"
92375,"1820 N WINNIE LN","CARSON CITY","NV","89703"
92376,"1820 NE 48TH STREET","POMPANO","FL","33064"
92377,"1820 NE JENSEN BEACH BLVD 695","JENSEN BEACH","FL","34957"
92378,"1820 NE JENSEN BEACH BLVD BOX 590","JENSEN BEACH","FL","34957"
92379,"1820 NECK ROAD","PALMER","TX","75152"
92380,"1820 NESSA DRIVE","LANCASTER","CA","93535"
92381,"1820 NORRIS HWY","CENTRAL","SC","29630"
92382,"1820 NORTH CONGRESS AVENUE E207","WEST PALM BEACH","FL","33401"
92383,"1820 NORTH SHORE RD","LAKE OSWEGO","OR","97034"
92384,"1820 NORTH SIXTH STREET","HARRISBURG","PA","17102"
92385,"1820 NUNEZ STREET","NEW ORLEANS","LA","70114"
92386,"1820 NW 28TH AVE","FORT LAUDERDALE","FL","33311"
92387,"1820 ORCHARD DR","WILLIAMSTOWN","NJ","08094"
92388,"1820 PHELAN PLACE APT 5E","BRONX","NY","10453"
92389,"1820 RIDGE ROAD SUITE 303B","HOMEWOOD","IL","60430"
92390,"1820 RIMPAU AVE","CORONA","CA","92881"
92391,"1820 S BURLINGTON AVE","LOS ANGELES","CA","90006"
92392,"1820 S LAFLIN ST APT 1","CHICAGO","IL","60608"
92393,"1820 S STREET SE","WASHINGTON","DC","20020"
92394,"1820 SAN PEDRO NE SUITE 6","ALBUQUERQUE","NM","87110"
92395,"1820 SHADY KNOLL LN","FAYETTEVILLE","NC","28314"
92396,"1820 SNOOK DRIVE","DELTONA","FL","32738"
92397,"1820 SOUTH HILL BLVD","BLOOMFIELD HILLS","MI","48304"
92398,"1820 SOUTH JUNIPER STREET","PHILADELPHIA","PA","19148"
92399,"1820 SOUTH VALLIJO ST","DENVER","CO","80223"
92400,"1820 SPRING MEADOW COURT","CALEDONIA","MI","49316"
92401,"1820 SUNSET AVENUE - SUITE 102","LANSING","MI","48917"
92402,"1820 SW 29TH TERRACE","CAPE CORAL","FL","33914"
92403,"1820 SW 82 TERR","MIRAMAR","FL","33025"
92404,"1820 SW WILLOW PKWY","GRESHAM","OR","97080"
92405,"1820 SWEETBAY DRIVE SUITE 103","SALISBURY","MD","21804"
92406,"1820 TOPPING AVE 2FL","BRONX","NY","10457"
92407,"1820 TOPPING AVE FL 2","BRONX","NY","10457"
92408,"1820 TOPPING AVENUE APT 1","BRONX","NY","10457"
92409,"1820 TRIBUTE RD SUITE L","SACRAMENTO","CA","95815"
92410,"1820 TRIBUTE","SACRAMENTO","CA","95815"
92411,"1820 VINE ST APT E","ALHAMBRA","CA","91801"
92412,"1820 W ADAMS APT 3A","CHICAGO","IL","60612"
92413,"1820 W CARSON ST STE 206-266","TORRANCE","CA","90501"
92414,"1820 W KETTLEMAN LANE","LODI","CA","95242"
92415,"1820 W ORANGEWOOD AVE STE 105","ORANGE","CA","92868"
92416,"1820 WALTON ST SO","ST PETERSBURG","FL","33712"
92417,"1820 WEST 2ND AVENUE","DURANGO","CO","81301"
92418,"1820 WEST ORANGEWOOD AVENUE STE 104","ORANGE","CA","92868"
92419,"1820 XENIUM LANE NORTH","PLYMOUTH","MN","55441"
92420,"1820-C VILLAGE BROOK DRIVE","CHARLOTTE","NC","28210"
92421,"18200 COCHRAN BLVD","PORT CHARLOTTE","FL","33948"
92422,"18200 JOHN R","HIGHLAND PARK","MI","48203"
92423,"18200 KILLION ST 12","TARZANA","CA","91356"
92424,"18200 KOESTER STREET","RIVERVIEW","MI","48193"
92425,"18200 MOUNTAIN VIEW ROAD","BOONVILLE","CA","95415"
92426,"18200 WESTFIELD PLACE DR 635","HOUSTON","TX","77090"
92427,"18201 98TH ROAD","MERIDEN","KS","66512"
92428,"18201 COLLINS AVE NUM 5005","SUNNY ISLES BEACH","FL","33160"
92429,"18201 DAYBREAK DR","BOCA RATON","FL","33496"
92430,"18201 DONMETZ ST","PORTER RANCH","CA","91326"
92431,"18201 SE STARK ST","PORTLAND","OR","97233"
92432,"18201 SW 87TH AVENUE","MIAMI","FL","33157"
92433,"18201 TOWN HARBOUR ROAD","CORNELIUS","NC","28031"
92434,"18201 UTICA ROAD","UTICA","OH","43080"
92435,"18202 CREST AVE","CASTRO VALLEY","CA","94546"
92436,"18202 SHAW ROAD","CYPRESS","TX","77429"
92437,"18203 N ASTOR CT","COLBERT","WA","99005"
92438,"18204 HOMESTEAD AVE","MIAMI","FL","33157"
92439,"18204 W 4TH AVE UNIT E","GOLDEN","CO","80401"
92440,"18204 WARRINGTON DRIVE","DETROIT","MI","48221"
92441,"18205 SOUTH HIGHWAY 89","PEEPLES VALLEY","AZ","86332"
92442,"18206 BARNEY DRIVE","ACCOKEEK","MD","20607"
92443,"18206 HURRICANE COURT","HAGERSTOWN","MD","21740"
92444,"18206 JAMES MADISON HIGHWAY","GORDONSVILLE","VA","22942"
92445,"18207 COYOTE CREEK COURT","PARRISH","FL","34219"
92446,"18207 WILLOW CT","SPRING","TX","77379"
92447,"18208 ANSEL","IRVINE","CA","92618"
92448,"18208 PRESTON RD STE D9-159","DALLAS","TX","75252"
92449,"18208 PRESTON RD STE D9-469","DALLAS","TX","75252"
92450,"18208 PRESTON RD STE D9-505","DALLAS","TX","75252"
92451,"18208 PRESTON RD STE D9184","DALLAS","TX","75252"
92452,"18208 PRESTON RD","DALLAS","TX","75252"
92453,"18209 174TH AVENUE","SPRING LAKE","MI","49456"
92454,"18209 212TH AVE E","ORTING","WA","98360"
92455,"18209 COUCH MARKET RD","BEND","OR","97703"
92456,"18209 W PORT ROYALE LANE","SURPRISE","AZ","85388"
92457,"1820A EAST GLENWOOD","PHILADELPHIA","PA","19134"
92458,"1821 20TH STREET","BIRMINGHAM","AL","35218"
92459,"1821 5TH AVE","ARNOLD","PA","15068"
92460,"1821 A STATE ROUTE 728","LUCASVILLE","OH","45648"
92461,"1821 ALLANWOOD RD","LOUISVILLE","KY","40214"
92462,"1821 BLAKE STREET  SUITE 200","DENVER","CO","80202"
92463,"1821 BUCKBOARD CIRCLE","SPEARFISH","SD","57783"
92464,"1821 CR 13 SOUTH","ELKTON","FL","32033"
92465,"1821 DEWITT AVE","CAPITOL HEIGHTS","MD","20743"
92466,"1821 DEXTER ST","SAVANNAH","GA","31415"
92467,"1821 DRIFTSTONE DR","HARRISBURG","PA","17106"
92468,"1821 E WESTMINSTER AVE","SALT LAKE CITY","UT","84108"
92469,"1821 EAGLE DR","LEAGUE CITY","TX","77573"
92470,"1821 FLINT HILL ROAD","CAMDEN","SC","29020"
92471,"1821 FLORIDA AVE NW","WASHINGTON","DC","20009"
92472,"1821 FULTON STREET MAILBOX 1","HARRISBURG","PA","17102"
92473,"1821 FULTON STREET MAILBOX 1","HARRISBURG","PA","17103"
92474,"1821 FULTON STREET MAILBOX 6","HARRISBURG","PA","17102"
92475,"1821 FULTON STREET MAILBOX 7","HARRISBURG","PA","17102"
92476,"1821 FULTON STREET SUITE OFFICE 2","HARRISBURG","PA","17102"
92477,"1821 FULTON STREET","HARRISBURG","PA","17102"
92478,"1821 GOLDEN ARROW AVE","CEDAR PARK","TX","78613"
92479,"1821 GRANDE AVENUE SE","CEDAR RAPIDS","IA","52403"
92480,"1821 HILLANDALE RD STE 1B-400","DURHAM","NC","27705"
92481,"1821 HILLANDALE RD SUITE 1B 204","DURHAM","NC","27705"
92482,"1821 INDUSTRIAL BLVD","ABILENE","TX","79602"
92483,"1821 JEFFERSON PLACE NW","WASHINGTON","DC","20036"
92484,"1821 LAKEWOOD RANCH BLVD","BRADENTON","FL","34211"
92485,"1821 LANCASTER","KLAMATH FALLS","OR","97601"
92486,"1821 LEER STREET","SOUTH BEND","IN","46613"
92487,"1821 LYLE DRIVE","BIRMINGHAM","AL","35235"
92488,"1821 MEREDITH AVENUE","TARBORO","NC","27886"
92489,"1821 MORNING BROOK DRIVE","FOREST HILL","MD","21050"
92490,"1821 N MAPLE ST","BURBANK","CA","91505"
92491,"1821 N MASTICK WAY SUITE 1","NOGALES","AZ","85621"
92492,"1821 NELSON DRIVE","SANTA CLARA","CA","95054"
92493,"1821 NORMAN BRIDGE ROAD","MONTGOMERY","AL","36104"
92494,"1821 NW 12TH ROAD","GAINESVILLE","FL","32605"
92495,"1821 ONACREST COURT","MAPLEWOOD","MN","55117"
92496,"1821 ONEIDA PLACE","ANN ARBOR","MI","48104"
92497,"1821 QUIVERS KEEP","CHESAPEAKE","VA","23321"
92498,"1821 RIVIERA LANE","SOUTHLAKE","TX","76092"
92499,"1821 ROYAL AVENUE SUITE 5","MONROE","LA","71201"
92500,"1821 S 11TH ST  B","LARAMIE","WY","82070"
