"ID","Address","City","State","Zip"
90001,"18 PIENZA DRIVE","AMERICAN CANYON","CA","94503"
90002,"18 PIRATES COVE","HAMPTON","VA","23669"
90003,"18 PLANTATION DRIVE","HAUPPAUGE","NY","11788"
90004,"18 PLEASANT VIEW DR","EXETER","NH","03833"
90005,"18 PLYMOUTH ROAD","EAST ROCKAWAY","NY","11518"
90006,"18 POPLAR PLACE","NORTH AURORA","IL","60542"
90007,"18 PORTLAND WAY","WHEATLEY HEIGHTS","NY","11798"
90008,"18 PURITAN PLACE","STAFFORD","VA","22554"
90009,"18 QUARTERDECK","NEW BERN","NC","28562"
90010,"18 QUEEN CIRCLE","KINGSTREE","SC","29556"
90011,"18 RAILROAD AVENUE","YORK BEACH","ME","03910"
90012,"18 RAMBLER RD","HUTCHINSON","KS","67502"
90013,"18 RAYMOND STREET","BIDDEFORD","ME","04005"
90014,"18 RED SHIRT CT","GREER","SC","29651"
90015,"18 RED TAIL DR","HAWTHORN WOODS","IL","60047"
90016,"18 REDDY AVE","HYDE PARK","MA","02136"
90017,"18 RICHARD BANNA WAY","SEEKONK","MA","02771"
90018,"18 RICHARD COURT","AMITYVILLE","NY","11701"
90019,"18 RICHMOND LANE","ADAMS","MA","01220"
90020,"18 RIDGETOP DRIVE","SAINT LOUIS","MO","63117"
90021,"18 RIVER ROAD UNIT F","NUTLEY","NJ","07110"
90022,"18 RIVER ROAD","NORTH BROOKFIELD","MA","01535"
90023,"18 RIVIERA COURT","TROPHY CLUB","TX","76262"
90024,"18 ROBANETTE CT","FORT THOMAS","KY","41075"
90025,"18 ROBERTS STREET","PRESQUE ISLE","ME","04769"
90026,"18 ROBIN DR","EXETER","RI","02822"
90027,"18 ROLLING RIDGE DR","ROCKAWAY","NJ","07866"
90028,"18 ROMANOFF CT","PARKVILLE","MD","21234"
90029,"18 ROOSEVELT AVENUE","GLENS FALLS","NY","12801"
90030,"18 ROSEMONT AVENUE","SAN ANSELMO","CA","94960"
90031,"18 ROUND ROBIN","RENO","NV","89502"
90032,"18 S BROADWAY ST SUITE 200","LAKE ORION","MI","48362"
90033,"18 S BROADWAY STE 200","LAKE ORION","MI","48362"
90034,"18 S COURT ST","ALAMO","TN","38001"
90035,"18 S HUDSON STREET","ALEXANDRIA","VA","22304"
90036,"18 S MICHIGAN AVE FL 12","CHICAGO","IL","60603"
90037,"18 S NEW HAVEN AVE","VENTNOR","NJ","08406"
90038,"18 S ORANGE AVE 3","SOUTH ORANGE","NJ","07079"
90039,"18 S WATER ST    STE 10","WILMINGTON","NC","28401"
90040,"18 SACKSTON WOODS LANE","SAINT LOUIS","MO","63141"
90041,"18 SANDERSDALE ROAD","SOUTHBRIDGE","MA","01550"
90042,"18 SANDRINGHAM RD","TAYLORS","SC","29687"
90043,"18 SARAH DRIVE","NEW HEMPSTEAD","NY","10977"
90044,"18 SAWYER AVENUE","LA GRANGE","IL","60525"
90045,"18 SCHANCK RD","HOLMDEL","NJ","07733"
90046,"18 SCHOOL LANE","BARRINGTON","RI","02806"
90047,"18 SEA OAKS DRIVE","ST AUGUSTINE","FL","32080"
90048,"18 SEABREEZE LANE","WINTERPORT","ME","04496"
90049,"18 SECOND AVE","ILION","NY","13357"
90050,"18 SEELEY STREET","BROOKLYN","NY","11218"
90051,"18 SELDEN STREET","WOODBRIDGE","CT","06525"
90052,"18 SHATTUCK STREET","LOWELL","MA","01852"
90053,"18 SHEFFIELD AVENUE","NORTH PROVIDENCE","RI","02911"
90054,"18 SHEFFIELD RD","BOXFORD","MA","01921"
90055,"18 SHENANDOAH ST","KENNER","LA","70065"
90056,"18 SHETLAND DRIVE","SPRINGFIELD","IL","62702"
90057,"18 SHIPYARD DRIVE SUITE 2A-50","HINGHAM","CO","02043"
90058,"18 SHIPYARD DRIVE SUITE 2A","HINGHAM","MA","02043"
90059,"18 SIDNEY PLACE 17","BROOKLYN","NY","11201"
90060,"18 SIGNAL HILL DRIVE","VOORHEES","NJ","08043"
90061,"18 SINGAC COURT","PARSIPPANY","NJ","07054"
90062,"18 SMITH HILL ROAD","BINGHAMTON","NY","13905"
90063,"18 SOUTH K ST SUITE 1","LAKE WORTH BEACH","FL","33460"
90064,"18 SOUTH MAIN ST","CEDAR SPRINGS","MI","49319"
90065,"18 SOUTH MAIN STREET","GREEVILLE","SC","29601"
90066,"18 SOUTH MAIN STREET","JOHNSTOWN","OH","43031"
90067,"18 SOUTH MAIN STREET","ROCHESTER","NH","03867"
90068,"18 SOUTH OREGON AVE","MORRIS","MN","56267"
90069,"18 SOUTH STREET","NORWELL","MA","02061"
90070,"18 SPARROW DR","WEST WINDSOR TOWNSHI","NJ","08550"
90071,"18 SPARROW DR","WEST WINDSOR","NJ","08550"
90072,"18 SPINNAKER POINT COURT","INDIAN HARBOUR BEACH","FL","32937"
90073,"18 ST MARYS ROAD","MILTON","MA","02186"
90074,"18 STARVIEW DRIVE","MALAKOFF","TX","75148"
90075,"18 STONELEIGH CLOSE","SCARSDALE","NY","10583"
90076,"18 STUYVESANT AVE","LYNDHURST","NJ","07071"
90077,"18 SUGARBUSH ACCESS ROAD","WARREN","VT","05674"
90078,"18 SUMMIT RD","PATTERSON","NY","12563"
90079,"18 SUMMIT STREET","EAST HAMPTON","CT","06424"
90080,"18 SUNNIE WAY","GETTYSBURG","PA","17325"
90081,"18 SUNSET BLVD","HOPEWELL JUNCTION","NY","12533"
90082,"18 SUNSET DR","KENSINGTON","CA","94707"
90083,"18 SUNSET DRIVE","NORTH CALDWELL","NJ","07006"
90084,"18 SUSSEX WAY","NISKAYUNA","NY","12309"
90085,"18 SWARTHMORE LANE","DIX HILLS","NY","11746"
90086,"18 SYCAMORE COURT","REDWOOD CITY","CA","94061"
90087,"18 TAMERON PLACE","ROSEDALE","MD","21237"
90088,"18 TECHNOLOGY SUITE 118","IRVINE","CA","92618"
90089,"18 TELLER AVENUE","BEACON","NY","12508"
90090,"18 THOMAS NEWTON DRIVE","WESTBOROUGH","MA","01581"
90091,"18 THORNHILL ROAD","LUTHERVILLE","MD","21093"
90092,"18 TIANA PL","DIX HILLS","NY","11746"
90093,"18 TIMBERLANE RD","MATTESON","IL","60443"
90094,"18 TIOGA COURT","BORDENTOWN","NJ","08505"
90095,"18 TOVA DRIVE","LAKEWOOD","NJ","08701"
90096,"18 TOWNE LN","CENTEREACH","NY","11720"
90097,"18 TRAIL WOOD CT","NORTH EAST","MD","21901"
90098,"18 TREMONT ST","WILTON","NH","03086"
90099,"18 TROTTERS RUN","THOMASVILLE","NC","27360"
90100,"18 TRUMAN ST SUITE 208","IRVINE","CA","92620"
90101,"18 TUCK ROAD","LEBANON","NH","03766"
90102,"18 TULIP LANE","WILLINGBORO","NJ","08046"
90103,"18 VALE DR","MOUNTAIN LAKES","NJ","07046"
90104,"18 VALENCIA COURT","WINTER HAVEN","FL","33880"
90105,"18 VALLEY DRIVE","NEPTUNE","NJ","07753"
90106,"18 VALLEY FORGE DR","SWEDESBORO","NJ","08085"
90107,"18 VALLEY STREAM DRIVE","CUMBERLAND","RI","02864"
90108,"18 VALLEY VIEW RD","MORRISTOWN","NJ","07960"
90109,"18 VANBURGH COURT","STAFFORD","VA","22554"
90110,"18 VANDIVER LANE","ST  LOUIS","MO","63131"
90111,"18 VAUXHALL PLACE","CHAPEL HILL","NC","27517"
90112,"18 VERPLANCK AVENUE","BEACON","NY","12508"
90113,"18 VIA DE LUNA DRIVE UNIT 1906","GULF BREEZE","FL","32561"
90114,"18 VIA HERMOSA","GREENBRAE","CA","94904"
90115,"18 W 25TH STREET","BALTIMOER","MD","21218"
90116,"18 W AVE B UNIT 3","MELBOURNE FLORIDA","FL","32901"
90117,"18 W BIG HORN DRIVE","HAINESVILLE","IL","60073"
90118,"18 W MAIN ST","BOZEMAN","MT","59715"
90119,"18 W PICKETTS CROSSING","EDWARDSVILLE","IL","62025"
90120,"18 W STEWARD ST","PLANO","IL","60545"
90121,"18 WALDEN PL","BASKING RIDGE","NJ","07920"
90122,"18 WARD WAY","MILLSBORO","DE","19966"
90123,"18 WASHINGTON AVE","COLONIAL BEACH","VA","22443"
90124,"18 WASHINGTON SQ","TUSCALOOSA","AL","35401"
90125,"18 WASHINGTON ST","ELLICOTTVILLE","NY","14731"
90126,"18 WATERTREE CT","SPRING","TX","77380"
90127,"18 WEBSTER ST","ALLENSTOWN","NH","03275"
90128,"18 WEGMAN PARKWAY","JERSEY CITY","NJ","07305"
90129,"18 WELLS AVE","HARVEY","IL","60426"
90130,"18 WEST 5TH STREET","DAYTON","OH","45402"
90131,"18 WEST BEACH ROAD","DUNKIRK","NY","14048"
90132,"18 WEST CHURCH STREET","FREDERICK","MD","21701"
90133,"18 WEST GANSEVOORT ST","LITTLE FALLS","NY","13365"
90134,"18 WEST POINT DRIVE","MAUMELLE","AR","72113"
90135,"18 WEST SECOND STREET","WASHINGTON","MO","63090"
90136,"18 WHITE STREET PLACE APARTMENT 2","SOMERVILLE","MA","02144"
90137,"18 WHITTIER DRIVE","JOHNSTON","RI","02919"
90138,"18 WHITTIER STREET","ROXBURY","MA","02120"
90139,"18 WILCUN DRIVE","GREENVILLE","SC","29617"
90140,"18 WILSON ROAD","BELCHERTOWN","MA","01007"
90141,"18 WINCHESTER LANE","PLYMOUTH","MA","02360"
90142,"18 WINDSOR DR","ROCKWALL","TX","75032"
90143,"18 WINTONBURY AVE","BLOOMFIELD","CT","06002"
90144,"18 WOOD GLEN DRIVE","MAHOPAC","NY","10541"
90145,"18 WOODLAWN AVE","BRADFORD","PA","16701"
90146,"18 WOODSIDE AVE","TRENTON","NJ","08618"
90147,"18 WOODWARD ROAD","FRAMINGHAM","MA","01701"
90148,"18 YARD STREET","CRANSTON","RI","02920"
90149,"18 YARDLEY ROAD","ANDOVER","MA","01810"
90150,"18-4230 NORTH GLENWOOD ROAD","MOUNTAIN VIEW","HI","96771"
90151,"18-5 E DUNDEE RD STE 300","BARRINGTON","IL","60010"
90152,"18-5 E DUNDEE RD STE 310","BARRINGTON","IL","60010"
90153,"18-5 E DUNDEE RD STE 330","BARRINGTON","IL","60010"
90154,"18","IRVINE","CA","92612"
90155,"18","PAOLA","KS","66071"
90156,"180   108TH AVE","TREASURE ISLAND","FL","33706"
90157,"180 108TH AVE","TREASURE ISLAND","FL","33706"
90158,"180 12TH ST NE","NAPLES","FL","34120"
90159,"180 1ST STREET SW UNIT A","ATLANTA","GA","30314"
90160,"180 ABERDEEN DR","CULPEPER","VA","22701"
90161,"180 ADAIR LANE","SANTA ROSA BEACH","FL","32459"
90162,"180 ALEXANDER POINTE DRIVE","HOPKINS","SC","29061"
90163,"180 ARCHIBALD LANE","SALEMBURG","NC","28385"
90164,"180 BALLANTYNE ST  APT 305","EL CAJON","CA","92020"
90165,"180 BEDFORD ROAD","LINCOLN","MA","01773"
90166,"180 BEST DR","ATHENS","GA","30606"
90167,"180 BONNYWOOD WAY","SANTA CRUZ","CA","95060"
90168,"180 BRIDGESTONE COVE","FAYETTEVILLE","GA","30215"
90169,"180 BROAD STREET APT 314","STATEN ISLAND","NY","10304"
90170,"180 BROADWAY SUITE 1770","SAN DIEGO","CA","92101"
90171,"180 BROOKEIVEY LN","MILTON","GA","30004"
90172,"180 CAPP STREET LOBBY","SAN FRANCISCO","CA","94110"
90173,"180 CAPP STREET STE 4","SAN FRANCISCO","CA","94110"
90174,"180 CD DRIVE","JACKSON","AL","36545"
90175,"180 CHAUNCEY ST","BROOKLYN","NY","11233"
90176,"180 CHESTER COURT","DOWNINGTOWN","PA","19335"
90177,"180 CHINA CREEK COURT","CRESCENT CITY","CA","95531"
90178,"180 CHURCH ST","NAUGATUCK","CT","06770"
90179,"180 CLAREMONT AVENUE SUITE 44","NEW YORK CITY","NY","10027"
90180,"180 CLAREMONT DR","BRANSON","MO","65616"
90181,"180 CONNECTICUT AVENUE","PITTSFIELD","MA","01201"
90182,"180 CRISTY CREEK BOX 26","MOREHEAD","KY","40351"
90183,"180 CYPRESS MANOR LN","ATHENS","GA","30606"
90184,"180 DAVIS ROAD","MARTINSVILLE","VA","24112"
90185,"180 DEKALB AVENUE UNIT 5","BROOKLYN","NY","11205"
90186,"180 DERBY LANE","MORAGA","CA","94556"
90187,"180 DRAGONFLY DRIVE","PROSPER","TX","75078"
90188,"180 DRAGONFLY","PROSPER","TX","75078"
90189,"180 DUBOIS DRIVE","MEMPHIS","TN","38109"
90190,"180 E  OCEAN BLVD SUITE 200","LONG BEACH","CA","90802"
90191,"180 E HIGHLAND AVE","CLERMONT","FL","34711"
90192,"180 E MERRITT AVE","MERRITT ISLAND","FL","32953"
90193,"180 E OCEAN BLVD","LONG BEACH","CA","90802"
90194,"180 E UZONA","HILDALE","UT","84784"
90195,"180 EAST FIFTH STREET SUITE 940","SAINT PAUL","MN","55101"
90196,"180 EAST STREET","COLONIA","NJ","07067"
90197,"180 EDGECOMBE AVE  APT 6C","NEW YORK","NY","10030"
90198,"180 EDWARDS DRIVE","BOWIE","TX","76230"
90199,"180 ESTATES BOULEVARD APARTMENT 17","HAMILTON","NJ","08610"
90200,"180 FAGE AVENUE","SYRACUSE","NY","13205"
90201,"180 FLAT CREEK VALLEY ROAD","LAKE TOXAWAY","NC","28747"
90202,"180 FM 1183","ENNIS","TX","75119"
90203,"180 FOREST DRIVE","PALMERTON","PA","18071"
90204,"180 FOREVERGREEN ROAD","NORTH LIBERTY","IA","52317"
90205,"180 FOX SHORES DR","KAUKAUNA","WI","54130"
90206,"180 FRANKLIN CORNER RD APT L11","LAWRENCEVILLE","NJ","08648"
90207,"180 FRANKLIN STREET APT 20","BLOOMFIELD","NJ","07003"
90208,"180 FREYER DRIVE","MARETTA","GA","30060"
90209,"180 GARFIELD AVE","MINEOLA","NY","11501"
90210,"180 GATES POND ROAD","BERLIN","MA","01503"
90211,"180 GEORGE ST","EXCELSIOR","MN","55331"
90212,"180 GOLD MINE ROAD","FLANDERS","NJ","07836"
90213,"180 GREENWOOD STREET","BRIDGEPORT","CT","06606"
90214,"180 GULF STREAM WAY","DANIA BEACH","FL","33004"
90215,"180 HAMM ROAD","CHATTANOOGA","TN","37405"
90216,"180 HARBOR DRIVE","LUDINGTON","MI","49431"
90217,"180 HIGH SCHOOL RD","REIDSVILLE","NC","27320"
90218,"180 HIGH SCHOOL ROAD","REIDSVILLE","NC","27320"
90219,"180 HIGHLAND STREET APT 22","BROCKTON","MA","02301"
90220,"180 HILLSIDE PL","HOT SPRINGS","AR","71901"
90221,"180 HOLMAN AVE","ELIZABETHTOWN","KY","42701"
90222,"180 HOME ST","BISHOP","CA","93514"
90223,"180 HOMESIDE AVEN","WEST HAVEN","CT","06516"
90224,"180 HOMETOWN ROAD","VICKSBURG","MS","39180"
90225,"180 HORIZON WAY","CAMANO ISLAND","WA","98282"
90226,"180 HUNTINGDON DRIVE","LEESBURG","GA","31763"
90227,"180 HYDAWAY DRIVE","FOREST","VA","24551"
90228,"180 JACKSON STREET NE APT 3301","ATLANTA","GA","30312"
90229,"180 JAKE MAY DR","WENDELL","NC","27591"
90230,"180 JENNIFER LANE","CALUMET CITY","IL","60409"
90231,"180 JOHN OLDS DRIVE STE 101","MANCHESTER","CT","06042"
90232,"180 JUSTICE RD","OLIVER SPRINGS","TN","37840"
90233,"180 KENMORE DR","LONGMEADOW","MA","01106"
90234,"180 KESTREL CIRCLE","COVINGTON","GA","30014"
90235,"180 KING AVENUE","EWING","NJ","08638"
90236,"180 KING STREET","SPRINGFIELD","MA","01109"
90237,"180 KINGS WAY","FLORIDA","FL","33411"
90238,"180 KIRKALDY DR","HOUSTON","TX","77015"
90239,"180 LA COSTA COURT","WINCHESTER","VA","22602"
90240,"180 LAKE CAROLINE DRIVE","RUTHER GLEN","VA","22546"
90241,"180 LAMPLIGHTER DRIVE APT 6","KAUKAUNA","WI","54130"
90242,"180 LANDSCAPE LN","WINSTON SALEM","NC","27107"
90243,"180 LEBLEU ROAD","LEEVSVILLE","LA","71446"
90244,"180 LEDFORD LN","GAINESBORO","TN","38562"
90245,"180 LITTLEFIELD WAY","HEBER","CA","92249"
90246,"180 LIVINGSTON AVENUE","BABYLON","NY","11702"
90247,"180 LOCKWOOD DRIVE","CHARLESTON","SC","29403"
90248,"180 LONG MEADOW DRIVE","COOKEVILLE","TN","38501"
90249,"180 LYNN DR","SANTA ROSA BEACH","FL","32459"
90250,"180 MAIN STREET","BRATTLEBORO","VT","05301"
90251,"180 MARINA COURT SUITE 86","DETROIT","MI","48224"
90252,"180 MARTIN LANE","ORANGE","CT","06477"
90253,"180 MERCER ST","MEADVILLE","PA","16335"
90254,"180 MIDLAND AVE","STATEN ISLAND","NY","10306"
90255,"180 MIRROR LAKE DRIVE - A","SAINT PETERSBURG","FL","33701"
90256,"180 MYRTLE AVENUE 2N","BROOKLYN","NY","11201"
90257,"180 N BELVEDERE DR    STE 7","GALLATIN","TN","37066"
90258,"180 N FIRST STREET UNIT 10","DIXON","CA","95620"
90259,"180 N HOMESTEAD BLVD","HOMESTEAD","FL","33030"
90260,"180 N LASALLE ST 37TH FLOOR","CHICAGO","IL","60601"
90261,"180 N LASALLE STREET STE 2440","CHICAGO","IL","60601"
90262,"180 N MAIN ST","AURORA","UT","84620"
90263,"180 N STETSON AVE TWO PLAZA 3500","CHICAGO","IL","60601"
90264,"180 N TESSIER DRIVE","ST PETE BEACH","FL","33706"
90265,"180 N UNIVERSITY AVENUE SUITE 270","PROVO","UT","84601"
90266,"180 N WABASH SUITE 500","CHICAGO","IL","60601"
90267,"180 N WINDMERE CIRCLE","MATTESON","IL","60443"
90268,"180 NEVINS ST APT 1","BROOKLYN","NY","11217"
90269,"180 NW 5TH STREET","CORVALLIS","OR","97330"
90270,"180 NW COVELAND ST / PO BOX 279","COUPEVILLE","WA","98239"
90271,"180 OAK GROVE ROAD","CARROLLTON","GA","30117"
90272,"180 OAK RIDGE ROAD","VICKSBURG","MS","39183"
90273,"180 OAKLYN HILLS DRIVE","CHELSEA","AL","35043"
90274,"180 OLD COLONY AVE SUITE 300","QUINCY","MA","02170"
90275,"180 OLD PLANTATION WAY","FAYETTEVILLE","GA","30214"
90276,"180 PACKARD AVE OLIN 312","MEDFORD","MA","02155"
90277,"180 PARK HILL AVE SUITE LC","STATEN ISLAND","NY","10304"
90278,"180 PARKSTIONE WAY","MARIETTA","GA","30066"
90279,"180 PEARL STREET APT 402","PORTLAND","ME","04101"
90280,"180 PEARL STREET","PORTLAND","ME","04101"
90281,"180 PILCH RD","STATESVILLE","NC","28677"
90282,"180 PINE STREET","JERSEY CITY","NJ","07304"
90283,"180 PLEASANT STREET","HARTFORD","CT","06120"
90284,"180 POOL ST - SUITE 300","BIDDEFORD","ME","04005"
90285,"180 POPE ROAD","ACTON","MA","01720"
90286,"180 PR 298","HAMILTON","TX","76531"
90287,"180 PRACH RD","HILLSDALE","NY","12529"
90288,"180 PROMENADE CIRCLE SUITE 300","SACRAMENTO","CA","95834"
90289,"180 QUAKER VALLEY ROAD","BIGLERVILLE","PA","17307"
90290,"180 REMINGTON ST","BRENTWOOD","CA","94513"
90291,"180 RENSHAW AVE","EAST ORANGE","NJ","07017"
90292,"180 RICHMOND AVE APT 4","BUFFALO","NY","14222"
90293,"180 RIVERSIDE BLVD  19J","NEW YORK","NY","10069"
90294,"180 RIVERSIDE BLVD 8K","NEW YORK","NY","10069"
90295,"180 RIVERSIDE BLVD SUITE 5H","NEW YORK","NY","10069"
90296,"180 RIVERSIDE DRIVE 10D","NEW YORK","NY","10024"
90297,"180 S 100 W STE 914","PLEASANT GROVE","UT","84062"
90298,"180 S SHERWOOD AVE","PLAINWELL","MI","49080"
90299,"180 SCHOLES NUM 2D","BROOKLYN","NY","11206"
90300,"180 SHADOW COVE LANE","TRUSSVILLE","AL","35173"
90301,"180 SHADY BROOKE WALK","FAYETTEVILLE","GA","30214"
90302,"180 SHADYSIDE DRIVE","BOARDMAN","OH","44512"
90303,"180 SKILLMAN ST APT 3","BROOKLYN","NY","11205"
90304,"180 SMITH ST","CROTON","OH","43013"
90305,"180 SORCERER COURT","ANCHORAGE","AK","99518"
90306,"180 SOUTH BROADWAY SUITE 100","WHITE PLAINS","NY","10605"
90307,"180 SPRING ROAD","HUNTINGTON","NY","11743"
90308,"180 STATE ROUTE 15","LAFAYETTE","NJ","07848"
90309,"180 STEUART ST 192921","SAN FRANCISCO","CA","94105"
90310,"180 STEVEN BRIDGES LN","TRACY","CA","95377"
90311,"180 SW 69 TH TERRACE","MARGATE","FL","33068"
90312,"180 TALBOTT","ROCKVILLE","MD","20852"
90313,"180 TALMADGE AVENUE","EDISON","NJ","08817"
90314,"180 TALMADGE RD STE 646","EDISON","NJ","08817"
90315,"180 TALMADGE ROAD IGO BLDG","EDISON","NJ","08817"
90316,"180 TALMAGE ROAD","EDISON","NJ","08820"
90317,"180 TAYLOR RD","DICKSON","TN","37055"
90318,"180 TED TURNER DR SW","ATLANTA","GA","30303"
90319,"180 TOWD POINT RD","SOUTHAMPTON","NY","11968"
90320,"180 TREE CUTTERS","SANFORD","NC","27332"
90321,"180 TUCKER STREET","WOODVILLE","TX","75979"
90322,"180 TURKEY FARM ROAD","BLYTHEWOOD","SC","29016"
90323,"180 US HWY 380","POST","TX","79356"
90324,"180 VALLEY STREET  PO BOX 912","BALL GROUND","GA","30107"
90325,"180 VEGA STREET","PALM SPRINGS","CA","92264"
90326,"180 VISGER ROAD","RIVER ROUGE","MI","48218"
90327,"180 W CAMPUS DRIVE","FLAT ROCK","NC","28731"
90328,"180 WAIAKOA ROAD","KULA","HI","96790"
90329,"180 WELLIVER ROAD","DANVILLE","PA","17821"
90330,"180 WEST 76TH STREET","NEW YORK","NY","10023"
90331,"180 WEST BRIDGE STREET","NEW HOPE","PA","18938"
90332,"180 WEST END LANE 2206","PONTE VEDRA BEACH","FL","32082"
90333,"180 WEST STATE STREET","TRENTON","NJ","08607"
90334,"180 WEST WESTFIELD AVENUE","ROSELLE PARK","NJ","07204"
90335,"180 WHITE OAK DR","COLBERT","GA","30628"
90336,"180 WINDY ACRES ROAD","BRENHAM","TX","77833"
90337,"180 WRIGHTS MILL DR","MADISON","MS","39110"
90338,"180 WYONA STREET","BROOKLYN","NY","11207"
90339,"180 YORK STREET 3RD FLOOR OFFICE","NEW HAVEN","CT","06511"
90340,"180-05 145TH ROAD","JAMAICA","NY","11434"
90341,"180-06 145TH ROAD","JAMAICA","NY","11434"
90342,"180-13 145 DRIVE","JAMAICA","NY","11434"
90343,"180","AUSTIN","TX","78733"
90344,"180","LOOKOUT","WV","25868"
90345,"1800 18TH AVENUE","MENOMINEE","MI","49858"
90346,"1800 19TH STREET","BAKERSFIELD","CA","93301"
90347,"1800 24TH STREET","ELDORA","IA","50627"
90348,"1800 2ND ST STE 708","SARASOTA","FL","34236"
90349,"1800 2ND STREET","FREEPORT","TX","77541"
90350,"1800 34TH AVE NE","MINNEAPOLIS","MN","55418"
90351,"1800 7TH AVE","LAKE CHARLES","LA","70601"
90352,"1800 ASCOT PARKWAY","VALLEJO","CA","94590"
90353,"1800 AUGUSTA HIGHWAY","LEXINGTON","SC","29072"
90354,"1800 BADILLO STREET APT 812","WEST COVINA","CA","91790"
90355,"1800 BALTIMORE SUITE 500","KANSAS CITY","MO","64108"
90356,"1800 BANNISTER STREET","YORK","PA","17404"
90357,"1800 BECKER PLACE","PORT ARTHUR","TX","77642"
90358,"1800 BERRYHILL RD","CORDOVA","TN","38016"
90359,"1800 BOTHWELL STREET","GREENSBORO","NC","27401"
90360,"1800 BOWIE DRIVE","CORSICANA","TX","75110"
90361,"1800 BOYD CT","CARROLLTON","TX","75010"
90362,"1800 BRIARWOOD DR","MOUNT VERNON","IL","62864"
90363,"1800 BRICE RD","COLUMBUS","OH","43232"
90364,"1800 BRINKER RD SUITE 260","DENTON","TX","76208"
90365,"1800 BUHACH RD","ATWATER","CA","95301"
90366,"1800 BURLINGTON AVE","DELANCO","NJ","08075"
90367,"1800 CAMDEN ROAD   107","CHARLOTTE","NC","28203"
90368,"1800 CAMDEN ROAD SUITE 107-15","CHARLOTTE","ND","28203"
90369,"1800 CAMDEN ROAD SUITE 107-154","CHARLOTTE","NC","28203"
90370,"1800 CAMDEN ROAD SUITE 107-263","CHARLOTTE","NC","28203"
90371,"1800 CAMDEN ROAD SUITE 108","CHARLOTTE","NC","28203"
90372,"1800 CENTER POINT ROAD","BIRMINGHAM","AL","35215"
90373,"1800 CENTURY PARK EAST SUITE 600","LOS ANGELES","CA","90067"
90374,"1800 CHAPEL AVENUE WEST SUITE 128","CHERRY HILL","NJ","08002"
90375,"1800 CHARLESTON PLACE LANE APT 1E","CHARLOTTE","NC","28212"
90376,"1800 CLAIRMONT LAKE-419","DECATUR","GA","30033"
90377,"1800 COLLEGE AVENUE","FORNEY","TX","75126"
90378,"1800 CREASON STREET","BOWLING GREEN","KY","42101"
90379,"1800 CURD ROAD","MOUNT JULIET","TN","37122"
90380,"1800 DECATUR ST","WILLIS","TX","77318"
90381,"1800 DOUBLE TROUBLE ROAD","BEACHWOOD","NJ","08722"
90382,"1800 E 42ND STREET","ODESSA","TX","79762"
90383,"1800 E BROAD ST","MILLVILLE","NJ","08332"
90384,"1800 E CHANDLER BLVD","CHANDLER","AZ","85225"
90385,"1800 E CHEADLE RD / BOX 201","TISHOMINGO","OK","73460"
90386,"1800 E DAVIDSON AVENUE APT 5B","BRONX","NY","10453"
90387,"1800 E GARRY AVE STE 108","SANTA ANA","CA","92705"
90388,"1800 E NORTHERN PARKWAY NO 28084","BALTIMORE","MD","21239"
90389,"1800 E OCEAN VIEW AVE UNIT 4","NORFOLK","VA","23503"
90390,"1800 E PERSHING AVE","ORLANDO","FL","32806"
90391,"1800 EAST 42ND STREET","ODESSA","TX","79762"
90392,"1800 EAST 9TH AVE","TAMPA","FL","33605"
90393,"1800 EAST GENESEE STREET","SYRACUSE","NY","13210"
90394,"1800 EL PASEO APT314","HOUSTON","TX","77054"
90395,"1800 ELLER DRIVE 3RD FL","FORT LAUDERDALE","FL","33316"
90396,"1800 EMBASSY DRIVE UNIT 130","WEST PALM BEACH","FL","33401"
90397,"1800 ESSEX STREET SUITE 200","LOS ANGELES","CA","90021"
90398,"1800 FAGER HILL RD","PENRYN","CA","95663"
90399,"1800 FAGER HILL ROAD","PENRYN","CA","95663"
90400,"1800 FARMHOUSE WAY","FLORENCE","KY","41042"
90401,"1800 FOREST HILLS ROAD W","WILSON","NC","27893"
90402,"1800 FORSYTHE AVE STE 2 PMB 128","MONROE","LA","71201"
90403,"1800 FRUITVILLE PIKE","LANCASTER","PA","17601"
90404,"1800 GARRETT WAY STE 7","POCATELLO","ID","83201"
90405,"1800 GENESSEE STREET SUITE 406","KANSAS CITY","MO","64102"
90406,"1800 GILDED CREST DR","LEANDER","TX","78641"
90407,"1800 GLENEDEN CT","GRAYSON","GA","30017"
90408,"1800 GOGGIN LANE","DANVILLE","KY","40422"
90409,"1800 GRISWOLD DR UNIT 1","ELKO","NV","89801"
90410,"1800 H STREET","UNION CITY","CA","94587"
90411,"1800 HASKETT ROAD","KINSTON","NC","28501"
90412,"1800 HOBSON","HOT SPRINGS","AR","71913"
90413,"1800 HOLLEMAN DRIVE APT 1314","COLLEGE STATION","TX","77840"
90414,"1800 HOLLYWOOD DRIVE","YORK","PA","17403"
90415,"1800 INDIAN TRACE","WESTON","FL","33326"
90416,"1800 INDUSTRIAL BLVD STE 2","COLLEYVILLE","TX","76034"
90417,"1800 INDUSTRIAL SUITE 130A","LAS VEGAS","NV","89102"
90418,"1800 JFK BLVD SUITE 300","PHILADELPHIA","PA","19103"
90419,"1800 JFK BLVD SUITE 603","PHILADELPHIA","PA","19103"
90420,"1800 JOHN F KENNEDY BLVD SUITE 810","PHILADELPHIA","PA","19103"
90421,"1800 JUDES FERRY ROAD","POWHATAN","VA","23139"
90422,"1800 KEYSTONE STREET","CROYDON","PA","19021"
90423,"1800 LABROTT LN","ANNAPOLIS","MD","21401"
90424,"1800 LAKE EASY RD","BABSON PARK","FL","33827"
90425,"1800 LAKEWAY DR","LEWISVILLE","TX","75057"
90426,"1800 LAUREL  STREET","PINE BLUFF","AR","71601"
90427,"1800 LILBURN STONE MOUNTAIN ROAD","STONE MOUNTAIN","GA","30087"
90428,"1800 LINCOLNSHIRE DRIVE SUITE 103","DETROIT","MI","48203"
90429,"1800 LITCHFIELD DR","BANNING","CA","92220"
90430,"1800 LOCK AND DAM ROAD","DEMOPOLIS","AL","36732"
90431,"1800 LONDOTOWNE CIR","HAGERSTOWN","MD","21740"
90432,"1800 LUSK STREET","GUNTERSVILLE","AL","35976"
90433,"1800 M ST NW UNIT 33943","WASHINGTON","DC","20033"
90434,"1800 MAIN ST SUITE 107","TUPELO","MS","38801"
90435,"1800 MAPLE","NORTH LITTLE ROCK","AR","72114"
90436,"1800 MARKET","ATLON","IL","62002"
90437,"1800 MARTIN LUTHER KING JR DR","BIRMINGHAM","AL","35211"
90438,"1800 MCCULLOUGH AVENUE","SAN ANTONIO","TX","78212"
90439,"1800 MEDICAL CENTER PKWY SUITE 420","MURFREESBORO","TN","37129"
90440,"1800 MICCOSUKEE COMMONS DR 1202","TALLAHASSEE","FL","32308"
90441,"1800 MINERAL SPRING AVE SUITE 304","NORTH PROVIDENCE","RI","02904"
90442,"1800 MISTY MORN PL","LONGWOOD","FL","32779"
90443,"1800 MURRAY AVE PO BOX 81111","PITTSBURGH","PA","15217"
90444,"1800 N ANDREWS AVE","POMPANO BEACH","FL","33069"
90445,"1800 N BRISTOL ST C458","SANTA ANA","CA","92706"
90446,"1800 N DIXBORO RD","ANN ARBOR","MI","48105"
90447,"1800 N HALL ST APT 461","DALLAS","TX","75204"
90448,"1800 N HWY 426","OVIEDO","FM","32765"
90449,"1800 N MISSOURI STREET SUITE 7","WEST MEMPHIS","AR","72301"
90450,"1800 N ROME AVE","TAMPA","FL","33607"
90451,"1800 NE 114TH STREET SUITE 1608","NORTH MIAMI","FL","33181"
90452,"1800 NE 168TH STREET SUITE 208B","NORTH MIAMI BEACH","FL","33162"
90453,"1800 NE BROADWAY AVE","DES MOINES","IA","50313"
90454,"1800 NEW CENTRAL AVENUE","LAKEWOOD","NJ","08701"
90455,"1800 NORTH BAYSHORE DRIVE","MIAMI","FL","33132"
90456,"1800 NORTH DUPONT ST - UNIT 606","WILMINGTON","DE","19806"
90457,"1800 NORTH SHARTEL","OKLAHOMA CITY","OK","73103"
90458,"1800 NORTHWOOD ROAD APARTMENT F-46","JUNEAU","AK","99801"
90459,"1800 NW 169TH PLACE SUITE A250","BEAVERTON","OR","97006"
90460,"1800 OAK KNOLL ROAD","GLENDALE","CA","91208"
90461,"1800 OLD MEADOW RD APT 115","MCLEAN","VA","22102"
90462,"1800 OLD MEADOW ROAD  NO 1218","MCLEAN","VA","22102"
90463,"1800 OLD MEANSVILLE RD","ZEBULON","GA","30295"
90464,"1800 PALMER ROAD APT 305","FT WASHINGTON","MD","20744"
90465,"1800 PATTEE STREET","PERRY","IA","50220"
90466,"1800 PEACHTREE STREET NW","ATLANTA","GA","30309"
90467,"1800 PECAN LAKE DR","RICHMOND","TX","77406"
90468,"1800 PEMBROOK DRIVE SUITE 300","ORLANDO","FL","32801"
90469,"1800 PEMBROOK DRIVE SUITE 300","ORLANDO","FL","32810"
90470,"1800 PERSHING AVENUE","ORLANDO","FL","32806"
90471,"1800 PHILLIPS LANE","MOBILE","AL","36618"
90472,"1800 PINE CREEK DRIVE","AUSTELL","GA","30168"
90473,"1800 PINEVILLE MATTHEWS ROAD","CHARLOTTE","NC","28270"
90474,"1800 PLATEAU VISTA BLVD  APT 8104","ROUND ROCK","TX","78664"
90475,"1800 PLATEAU VISTA BLVD APT 16102","ROUND ROCK","TX","78664"
90476,"1800 POST RD 1228","SAN MARCOS","TX","78666"
90477,"1800 POST ROAD ROAD UNIT 5","WARWICK","RI","02886"
90478,"1800 PRAIRIE AVE","DOWNERS GROVE","IL","60515"
90479,"1800 PRIMROSE DRIVE APT 203H","WACO","TX","76706"
90480,"1800 PRINCETON PLACE","ST LOUIS","MO","63117"
90481,"1800 ROGERS ROAD  410","FORT WORTH","TX","76107"
90482,"1800 RUNYMEDE LANE","CHARLOTTE","NC","28211"
90483,"1800 S 265TH PL","DES MOINES","WA","98198"
90484,"1800 S 42ND STREET","WEST DES MOINES","IA","50265"
90485,"1800 S ADAMS ST","FORT WORTH","TX","76110"
90486,"1800 S BALTIMORE AVE SUITE 815","TULSA","OK","74119"
90487,"1800 S GOVERNOR STREET","EVANSVILLE","IN","47713"
90488,"1800 S INDIANA STREET","SUPERIOR","CO","80027"
90489,"1800 S KASPER DR","APPLETON","WI","54914"
90490,"1800 S KOLB RD","TUCSON","AZ","85710"
90491,"1800 S NORTHERN BLVD","INDEPENDENCE","MO","64052"
90492,"1800 S PARK AVE","SANFORD","FL","32771"
90493,"1800 S VRAIN ST","DENVER","CO","80219"
90494,"1800 S W GLENCO STREET","PORT ST.LUCIE","FL","34953"
90495,"1800 SE VETERANS MEMORIAL PARKWAY","PORT SAINT LUCIE","FL","34952"
90496,"1800 SILAS DEANE HIGHWAY REAR BLDG","ROCKY HILL","CT","06067"
90497,"1800 SMITHERS","BENTON","AR","72015"
90498,"1800 SOUTH BRENTWOOD BLVD UNIT 1415","ST. LOUIS","MO","63144"
90499,"1800 SOUTH GRANT AVENUE UNIT B36","POCATELLO","ID","83204"
90500,"1800 SPARKMAN DRIVE NW","HUNTSVILLE","AL","35816"
