"ID","Address","City","State","Zip"
40001,"12315 CAMILLA ST","WHITTIER","CA","90601"
40002,"12315 MAY LAUREL DR","HOUSTON","TX","77014"
40003,"12315 PEARSON CT","ALPHARETTA","GA","30004"
40004,"12315 RYE ST","STUDIO CITY","CA","91604"
40005,"12316 FLYNNWOOD RD","JACKSONVILLE","FL","32223"
40006,"12316 MEDITERRA PL","AUSTIN","TX","78732"
40007,"12316 WASHINGTON STREET","PEMBROKE PINES","FL","33025"
40008,"12317 40TH AVE NE","SEATTLE","WA","98125"
40009,"12317 6TH AVE NE","TULALIP","WA","98271"
40010,"12317 DOWNY BIRCH ROAD","CHARLOTTE","NC","28277"
40011,"12317 EDISON DR","OKLAHOMA CITY","OK","73120"
40012,"12318 DANDRIDGE DRIVE","DALLAS","TX","75243"
40013,"12318 GLADE DR","FREDERICKSBURG","VA","22407"
40014,"12318 MADISON","CENTER JUNCTION","IA","52212"
40015,"12318 SANLUCIA RIVER DR","HOUSTON","TX","77050"
40016,"12318 W PALO VERDE DR","LITCHFIELD PARK","AZ","85340"
40017,"12319 BELLAIRE BLVD STE 700-1000","HOUSTON","TX","77072"
40018,"12319 BOWSMAN DRIVE","TOMBALL","TX","77377"
40019,"12319 CHAIN LAKE RD","SNOHOMISH","WA","98290"
40020,"12319 DUCK RIVER ROAD","MIDLOTHAIN","VA","23112"
40021,"12319 SUMMER AVE","NORWALK","CA","90650"
40022,"12319 YALE AVENUE","CHICAGO","IL","60628"
40023,"1232  EAST WALDBURG ST","SAVANNAH","GA","31404"
40024,"1232 15TH ST  APT D","SANTA MONICA","CA","90404"
40025,"1232 46TH ST","BROOKLYN","NY","11219"
40026,"1232 48TH STREET","WASHOUGAL","WA","98671"
40027,"1232 ALLEN ST","BURTON","MI","48529"
40028,"1232 AVOCADO SUMMIT DRIVE","EL CAJON","CA","92019"
40029,"1232 BRANDT DR","BREINIGSVILLE","PA","18031"
40030,"1232 BRENHAM DR","ALLEN","TX","75013"
40031,"1232 BROADWAY","TOLEDO","OH","43609"
40032,"1232 CLEMENTINE RD","HOWARD","WI","54313"
40033,"1232 CORNERSTONE BLVD APT 268","DOWNINGTOWN","PA","19335"
40034,"1232 DOVER PLACE SE","CONYERS","GA","30013"
40035,"1232 DUNNAVANT ST RM 1","MEMPHIS","TN","38106"
40036,"1232 EISENHOWER RD","ROCK HILL","SC","29730"
40037,"1232 FARRAGUT DRIVE","SPARTANBURG","SC","29302"
40038,"1232 HANCOCK STREET","BROOKLYN","NY","11221"
40039,"1232 HICKMAN ROAD","AUGUSTA","GA","30904"
40040,"1232 KEWSWICK VILLAGE","CONYERS","GA","30013"
40041,"1232 KINGSTON RD","UNIONTOWN","OH","44685"
40042,"1232 LAS PALMAS CIRCLE","ALICE","TX","78332"
40043,"1232 LAUREL HILL ROAD","VERONA","VA","24482"
40044,"1232 MADRID AVE","TORRANCE","CA","90501"
40045,"1232 MEL AVE","LANSING","MI","48911"
40046,"1232 MONTOMERY ST","SAN FRANCISCO","CA","94133"
40047,"1232 MOUNTAIN CREEK RD","CROSSVILLE","TN","38572"
40048,"1232 N 15TH SUITE 2","BOZEMAN","MT","59715"
40049,"1232 N IRON CREEK PLACE","MERIDIAN","ID","83642"
40050,"1232 N LAURA ST","JACKSONVILLE","FL","32206"
40051,"1232 NASHVILLE DRIVE","WESLEY CHAPEL","FL","33544"
40052,"1232 NORTH 22ND STREET","MILWAUKEE","WI","53205"
40053,"1232 NW 14TH STREET","BOCA RATON","FL","33486"
40054,"1232 OAK ST","WATERLOO","WI","53594"
40055,"1232 PESCOS WAY","SUNNYVALE","CA","94089"
40056,"1232 S COLUMBIA PL","TULSA","OK","74104"
40057,"1232 SW 158TH STREET","OKLAHOMA CITY","OK","73170"
40058,"1232 SW GOODMAN AVENUE","PORT ST LUCIE","FL","34953"
40059,"1232 THOMAS DRIVE","KAYSVILLE","UT","84037"
40060,"1232 VILLA DRIVE","MERCED","CA","95340"
40061,"1232 W ROSAL AVE","APACHE JUNCTION","AZ","85120"
40062,"1232 W STATE HIGHWAY M28","MUNISING","MI","49862"
40063,"1232 WELLINGTON TERRACE","MAITLAND","FL","32751"
40064,"1232 WEST RIVER ROAD","BRATTLEBORO","VT","05301"
40065,"1232 YUMA RIDGE DR SW","BYRON CENTER","MI","49315"
40066,"12320 BARKER CYPRESS STE 600 BOX 11","CYPRESS","TX","77429"
40067,"12320 BEECHUT ST","HOUSTON","TX","77072"
40068,"12320 CLEGHORN ROAD","COCKEYSVILLE","MD","21030"
40069,"12320 EAST 138 STREET SOUTH","BROKEN ARROW","OK","74011"
40070,"12320 FM 93","BELTON","TX","76513"
40071,"12320 HWY 44 BLDG 3D","GONZALES","LA","70737"
40072,"12320 N 32ND STREET SUITE 2","PHOENIX","AZ","85032"
40073,"12320 NW 48DR","POMPANO BEACH","FL","33076"
40074,"12320 PARKLAWN DRIVE","ROCKVILLE","MD","20852"
40075,"12320 PINECREST ROAD","RESTON","VA","20191"
40076,"12320 WEP HAVEN DRIVE","ROCKVILLE","VA","23146"
40077,"12320 WEST COWDEN STREET NO 3","ODESSA","TX","79764"
40078,"12321 HARDIN DRIVE","OKLAHOMA CITY","OK","73111"
40079,"12321 HATCHERVILLE ROAD","BAYTOWN","TX","77521"
40080,"12321 JESSICA PLACE","CHARLOTTE","NC","28269"
40081,"12321 LAKESIDE PKWY","FAYETTEVILLE","GA","30215"
40082,"12321 SATICOY STREET","NORTH HOLLYWOOD","CA","91605"
40083,"12322 TALL PINES WAY","LAKEWOOD RANCH","FL","34202"
40084,"12322 WEST QUINN DRIVE","MORRISON","CO","80465"
40085,"12323 ALONDRA BLVD","NORWALK","CA","90650"
40086,"12323 FRANCES ST","BURLINGTON","WA","98233"
40087,"12323 IMPERIAL HWY","NORWALK","CA","90650"
40088,"12323 MONTARA DR","LARGO","FL","33773"
40089,"12323 SOUTH YALE","CHICAGO","IL","60628"
40090,"12323 SW 132ND CT","MIAMI","FL","33186"
40091,"12324 BEDFORD DR","SOUTHGATE","MI","48195"
40092,"12324 CHARLES STREET","OMAHA","NE","68154"
40093,"12324 E 86ST NORTH 461","OWASSO","OK","74055"
40094,"12324 GAYTON BLUFFS LN","HENRICO","VA","23233"
40095,"12324 S MASON VIEW CIR","RIVERTON","UT","84065"
40096,"12324 SW SUSSEX ST","BEAVERTON","OR","97008"
40097,"12325 HYMEADOW DR SUITE 2-100","AUSTIN","TX","78750"
40098,"12325 IMPERIAL HWY 295","NORWAL","CA","90650"
40099,"12325 NW 26TH CT","CORAL SPRINGS","FL","33065"
40100,"12325 SW THORNWOOD DRIVE","TIGARD","OR","97224"
40101,"12326 BELLINGHAM BLVD","FISHERS","IN","46037"
40102,"12326 OAK DRIVE","ORIENT","OH","43146"
40103,"12327 15TH AVE NE","SEATTLE","WA","98125"
40104,"12327 MERRICK BLVD APT 48","JAMAICA","NY","11434"
40105,"12328 GREENBRIAR BRANCH DRIVE","POTOMAC","MD","20854"
40106,"12329 CULBERTSON DRIVE","EDINBORO","PA","16412"
40107,"12329 HIGHWAY 5","CAVALIER","ND","58220"
40108,"12329 KOSICH PLACE","SARATOGA","CA","95070"
40109,"12329 ROSSRIDGE CT","ST LOUIS","MO","63146"
40110,"1233  17TH AVE S","NASHVILLE","TN","37212"
40111,"1233 7TH ST S APT E 302","WAITE PARK","MN","56387"
40112,"1233 A BRADEN RD","ALLEYTON","TX","78935"
40113,"1233 BAINBRIDGE ST PH3","PHILADELPHIA","PA","19147"
40114,"1233 BALTIMORE ST","SANDUSKY","OH","44870"
40115,"1233 BARRETT RD","CLOVER","SC","29710"
40116,"1233 BEECH STREET  NUMBER 11","ATLANTIC BEACH","NY","11509"
40117,"1233 BEECH STREET  UNIT 11","ATLANTIC BEACH","NY","11509"
40118,"1233 BENEFIT ROAD","CHESAPEAKE","VA","23322"
40119,"1233 BOTELHO ST","ANTIOCH","CA","94509"
40120,"1233 BOWER STREET","HOWELL","MI","48843"
40121,"1233 BROOKSIDE AVE SUITE B","REDLANDS","CA","92373"
40122,"1233 BULLRUSH DRIVE","BATON ROUGE","LA","70810"
40123,"1233 CANYON RIM CIRCLE","WESTLAKE VILLAGE","CA","91362"
40124,"1233 CHAWEE RD LOT 23","BREAUX BRIDGE","LA","70517"
40125,"1233 COUNTY ROAD 6628","BANKS","AL","36005"
40126,"1233 CREASE","PHILADELPHIA","PA","19125"
40127,"1233 FOX CHAPEL DRIVE","LUTZ","FL","33549"
40128,"1233 HEATHCOT PL","EL DORADO HILLS","CA","95762"
40129,"1233 LAWRENCE","ALICE","TX","78332"
40130,"1233 LUZERNE STREET EXT","JOHNSTOWN","PA","15905"
40131,"1233 MUSCOGEE TRAIL","CARROLLTON","TX","75010"
40132,"1233 N GULFSTREAM AVE 304","SARASOTA","FL","34236"
40133,"1233 OAK STREET","ALTAMONTE SPRINGS","FL","32701"
40134,"1233 OAKCREST DR","PLEASANTON","TX","78064"
40135,"1233 PENNY ROAD","HIGH POINT","NC","27265"
40136,"1233 POPLAR CIRCLE UNIT 102","HARRISONBURG","VA","22802"
40137,"1233 RED ABBOTT RD","CLIFFORD TWP","PA","18470"
40138,"1233 REGATTA ST 204","FAYETTEVILLE","NC","28301"
40139,"1233 REVELL ST","ROCKFORD","IL","61107"
40140,"1233 ROUTE 390","MOUNTAINHOME","PA","18342"
40141,"1233 SANDERSON RD","CHESAPEAKE","VA","23322"
40142,"1233 SAVANAH PLACE SE","WASHINGTON","DC","20032"
40143,"1233 SE 174TH AVE","PORTLAND","OR","97233"
40144,"1233 SEIDERSVILLE RD","BETHLEHEM","PA","18015"
40145,"1233 SHELBURNE RD SUITE C-4","SOUTH BURLINGTON","VT","05403"
40146,"1233 SHELBY STREET","INDIANAPOLIS","IN","46203"
40147,"1233 SOUTH 52ND STREET","PHILADELPHIA","PA","19143"
40148,"1233 SPECULATOR CT","LEXINGTON","KY","40514"
40149,"1233 SYCAMORE ST","CLARKSTON","WA","99403"
40150,"1233 TAKEAWAY PLACE","MORRISVILLE","NC","27560"
40151,"1233 UPLAND HILLS DR N","UPLAND","CA","91784"
40152,"1233 W JACKSON ST","ORLANDO","FL","32805"
40153,"1233 WAREHAM CIRCLE","AKRON","OH","44312"
40154,"1233 WEST LOOP SOUTH SUITE 1300","HOUSTON","TX","77027"
40155,"1233 WILSHIRE BLVD SUITE 400","SANTA MONICA","CA","90402"
40156,"12330 CLAY ROAD","NEWTON","WV","25266"
40157,"12330 DEERHURST DR","MIDLOTHIAN","VA","23113"
40158,"12330 E SHADOW LAKE LANE","CYPRESS","TX","77429"
40159,"12330 GARBER ST","PACOIMA","CA","91331"
40160,"12330 METRIC BLVD APT 7206","AUSTIN","TX","78758"
40161,"12330 OSBORNE ST UNIT 26","1.   PACOIMA","CA","91331"
40162,"12330 PAINESVILLE WARREN ROAD","CONCORD TWP.","OH","44077"
40163,"12330 RIDGE COVE CIRCLE","CHARLOTTE","NC","28273"
40164,"12330 SHADETREE LANE","LAUREL","MD","20708"
40165,"12330 STRATFIELD PLACE CIRCLE","PINEVILLE","NC","28134"
40166,"12330 SW 121ST AVENUE","TIGARD","OR","97223"
40167,"12330 SW 53RD STREET S-707","COOPER CITY","FL","33330"
40168,"12330 VANCE JACKSON APT 10105","SAN ANTONIO","TX","78230"
40169,"12331 MURPHY RD","STAFFORD","TX","77477"
40170,"12331 N GESSNER DR  APT 127","HOUSTON","TX","77064"
40171,"12331 PACIFIC HWY SW 76","LAKEWOOD","WA","98498"
40172,"12332 71ST AVENUE","BLUE GRASS","IA","52726"
40173,"12332 JASPER ST","BRIGHTON","CO","80603"
40174,"12332 PERRY RD","HOUSTON","TX","77070"
40175,"12332 SALISBURY ROAD","OCEAN CITY","MD","21842"
40176,"12332 SLEEPY LAKE COURT","FAIRFAX","VA","22033"
40177,"12333 195TH STREET","ARTESIA","CA","90701"
40178,"12333 83RD AVENUE","KEW GARDENS","NY","11415"
40179,"12333 NE RUSSELL STREET","PORTLAND","OR","97230"
40180,"12333 SOWDEN RD PMB 19434 STE B","HOUSTON","TX","77080"
40181,"12334 CROSS CUT","HELOTES","TX","78023"
40182,"12334 OTSEGO ST","VALLEY VILLAGE","CA","91607"
40183,"12334 PANTHERSVILLE DRIVE","CHARLOTTE","NC","28269"
40184,"12334 S KEELER AVE","ALSIP","IL","60803"
40185,"12335 82ND RD APT 4","KEW GARDENS","NY","11415"
40186,"12335 ACCIPITER DR","ORLANDO","FL","32837"
40187,"12335 E BARBARY COAST RD","TUCSON","AZ","85749"
40188,"12335 GRIFFING BLVD","MIAMI","FL","33161"
40189,"12335 KINGSRIDE LANE 320","HOUSTON","TX","77024"
40190,"12335 KINGSRIDE LN 245","HOUSTON","TX","77024"
40191,"12335 UNIVERSITY MALL CRT 2ND FLOOR","TAMPA","FL","33612"
40192,"12336 E MICHIGAN AVE","GRASS LAKE","MI","49240"
40193,"12336 GREAT COMMISSION WAY","ORLANDO","FL","32832"
40194,"12336 HUNTING BIRDS LANE","CHARLOTTE","NC","28278"
40195,"12336 TIERRA MADRE","EL PASO","TX","79938"
40196,"12337  FRANCES ROAD","OTISVILLE","MI","48463"
40197,"12337 GRIER PLACE","MATTHEWS","NC","28105"
40198,"12337 W VILLA HERMOSA CT","SUN CITY","AZ","85375"
40199,"12338 CROWN CT","CERRITOS","CA","90703"
40200,"12338 LUSTIANO COURT","RANCHO CUCAMONGA","CA","91739"
40201,"12338 MCCOURTNEY ROAD","GRASS VALLEY","CA","95949"
40202,"12338 RT 37","MARION","IL","62959"
40203,"12339 CAMERON CT","CALEDONIA","IL","61011"
40204,"12339 GREEN RIDGE DRIVE","WILLIS","TX","77318"
40205,"12339 SHUMARD LANE","FRISCO","TX","75035"
40206,"12339 SHUMARD LN","FRISCO","TX","75035"
40207,"12339 WAKE UNION CHURCH RD STE 108","WAKE FOREST","NC","27587"
40208,"1234 23RD STREET","PORTSMOUTH","OH","45662"
40209,"1234 29TH ST NW","WASHINGTON","DC","20007"
40210,"1234 AVENUE D","FORT PIERCE","FL","34950"
40211,"1234 BARCELONA DRIVE","LIVINGSTON","CA","95334"
40212,"1234 BARNEY RD","TOUCHET","WA","99360"
40213,"1234 BEACON HILL CT","NORMAL","IL","61761"
40214,"1234 BOSTON POST ROAD","BRONX","NY","10456"
40215,"1234 CEDAR GROVE ROAD","CLOVER","SC","29710"
40216,"1234 CEDAR LN","CHARLOTTE","NC","28226"
40217,"1234 CHALET DR APT 102","NAPERVILLE","IL","60563"
40218,"1234 CHESTER AVENUE STE 102","BAKERSFIELD","CA","93301"
40219,"1234 CRITTENDEN ST NW","WASHINGTON","DC","20011"
40220,"1234 DEL ESTE  STE 503","DENHAM SPRINGS","LA","70726"
40221,"1234 E 73RD STREET APT 2","BROOKLYN","NY","11234"
40222,"1234 E CLIVEDEN ST","PHILADELPHIA","PA","19119"
40223,"1234 EAST 31ST STREET","NEW YORK","NY","10016"
40224,"1234 EAST PONT DES MOUTON","LAFAYETTE","LA","70501"
40225,"1234 FAIRACRES ROAD","RYDAL","PA","19046"
40226,"1234 FOLSOM STREET","SAN FRANCISCO","CA","94103"
40227,"1234 GREENWOOD ST","MEMPHIS","TN","38106"
40228,"1234 HAVENHURST DRIVE SUITE 11","WEST HOLLYWOOD","CA","90046"
40229,"1234 JACKS CREEK","RICHMOND","KY","40475"
40230,"1234 LAGUNA SHORES RD","CORPUS CHRISTI","TX","78418"
40231,"1234 LANDS END","ORANGEBURG","SC","29118"
40232,"1234 MARKET ST 40839 SMB 12937","PHILADELPHIA","PA","19107"
40233,"1234 MARKET ST 40839 SMB 13547","PHILADELPHIE","PA","19107"
40234,"1234 MARKET STREET 16TH FLOOR","PHILADELPHIA","PA","19107"
40235,"1234 MASSACHUSETTS AVENUE NW 723","WASHINGTOJN","DC","20005"
40236,"1234 MELVILLE AVE","LAKELAND","FL","33805"
40237,"1234 MUNFORD AVENUE","MUNFORD","TN","38058"
40238,"1234 MYSTIC PARKWAY","SPRING BRANCH","TX","78070"
40239,"1234 N CEDAR ROAD SUITE F","NEW LENOX","IL","60451"
40240,"1234 N EDGEMONT ST APT 310","LOS ANGELES","CA","90029"
40241,"1234 N MAIN ST","BOWLING GREEN","OH","43402"
40242,"1234 NICKEL CRK","NEW BRAUNFELS","TX","78130"
40243,"1234 NORTH MAIN STREET","BOWLING GREEN","OH","43402"
40244,"1234 NORTH STREET","JESUP","IA","50648"
40245,"1234 NORWAY AVE","HUNTINGTON","WV","25705"
40246,"1234 OLD HENDERSON RD SUITE B","COLUMBUS","OH","43220"
40247,"1234 PALMINA COVE","CORDOVA","TN","38108"
40248,"1234 PARK HILL CIR","KNOXVILLE","TN","37909"
40249,"1234 RIDGE AVENUE","STEUBENVILLE","OH","43952"
40250,"1234 ROAN DRIVE","LANCASTER","TX","75134"
40251,"1234 RUTH DRIVE","ST LOUIS","MO","63122"
40252,"1234 S DIXIE HIGHWAY STE 1113","MIRAMAR","FL","33023"
40253,"1234 S JUNIPER STREET","PHILADELPHIA","PA","19147"
40254,"1234 S POWER RD SUITE 101","MESA","AZ","85206"
40255,"1234 S UNIVERSITY","FAYETTEVILLE","AR","72701"
40256,"1234 SAN LUIS REY DR","GLENDALE","CA","91208"
40257,"1234 SEMINARY AVE","SAINT PAUL","MN","55104"
40258,"1234 SNEE DRIVE","PITTSBURGH","PA","15236"
40259,"1234 SONNY GRANGER RD","DEQUINCY","LA","70633"
40260,"1234 SOUTHPOINT CROSSING DRIVE","DURHAM","NC","27713"
40261,"1234 TEXAS AVENUE","SHREVEPORT","LA","71101"
40262,"1234 W LA PASADITA PLACE","TUCSON","AZ","85705"
40263,"1234 WEISENBERGER MILL ROAD","MIDWAY","KY","40347"
40264,"1234 WENATCHEE DR","KRUM","TX","76249"
40265,"1234 WILLIAM MOSS BLVD","STOCKTON","CA","95206"
40266,"1234 WILLISTON ROAD","SOUTH BURLINGTON","VT","05403"
40267,"1234 WOOD STREET","PHILADELPHIA","PA","19107"
40268,"1234","FLORIDA CITY","FL","33034"
40269,"12340 FLINTLOCK LANE","FORT MYERS","FL","33912"
40270,"12340 FLYNN RD","SAWYER","MI","49125"
40271,"12340 NE 115TH PL APT 228","KIRKLAND","WA","98033"
40272,"12340 PINECREST ROAD SUITE 100","RESTON","VA","20191"
40273,"12340 S 200 W","KOKOMO","IN","46901"
40274,"12340 SANTA MONICA BLVD  231","WEST LOS ANGELES","CA","90025"
40275,"12340 SARATOGA SUNNYVALE ROAD","SARATOGA","CA","95070"
40276,"12340 SEAL BEACH BLVD B-B423","SEAL BEACH","CA","90740"
40277,"12340 SEAL BEACH BLVD B353","SEAL BEACH","CA","90740"
40278,"12340 SEAL BEACH BLVD B402","SEAL BEACH","CA","90740"
40279,"12340 SEAL BEACH BLVD STE B330","SEAL BEACH","CA","90740"
40280,"12340 SEAL BEACH BLVD","SEAL BEACH","CA","90740"
40281,"12340 SOUTH STREET","CERRITOS","CA","90703"
40282,"12341 - 35TH AVE NE  305","SEATTLE","WA","98125"
40283,"12341 FELSON PLACE","CERRITOS","CA","90703"
40284,"12341 GLADSTONE AVE","SYLMAR","CA","91342"
40285,"12341 SW 39TH TERRACE","MIAMI","FL","33175"
40286,"12341 WOODWALK TERRACE","BOWIE","MD","20721"
40287,"12342 207TH ST","LAKEWOOD","CA","90715"
40288,"12342 CARL STREET","PACOIMA","CA","91331"
40289,"12344 PREAKNESS CIRCLE LN","CLARKSVILLE","MD","21029"
40290,"12345 COYOTE DRIVE","ETIWANDA","CA","91739"
40291,"12345 HWY 260","MANNING","SC","29102"
40292,"12345 LAKE CITY WAY NE NUMBER 2094","SEATTLE","CA","98125"
40293,"12345 LAKE CITY WAY NE STE 162","SEATTLE","WA","98125"
40294,"12345 LAKE CITY WAY NE SUITE 162","SEATTLE","WA","98125"
40295,"12345 LAKE CITY WAY NE SUITE 255","SEATTLE","WA","98125"
40296,"12345 LAKE VISTA DRIVE","WILLIS","TX","77318"
40297,"12345 LAMPLIGHT VILLAGE AVE APT 815","AUSTIN","TX","78758"
40298,"12345 MOUNTAIN AVE STE N 270","CHINO","CA","91710"
40299,"12345 SILTON PEACE DR","RIVERVIEW","FM","33579"
40300,"12345 SUNNYGLEN DR","MOORPARK","CA","93021"
40301,"12345 W 95TH STREET","LENEXA","KS","66215"
40302,"12345 W MERCEDES STREET","BOISE","ID","83713"
40303,"12346 CIRCULA PANORAMA","NORTH TUSTIN","CA","92705"
40304,"12346 S 2240 W","RIVERTON","UT","84065"
40305,"12346 SMITH STREET APT B","BEAR LAKE","MI","49614"
40306,"12348 JASMINE ST","BRIGHTON","CO","80602"
40307,"12349 2 HOUR ROAD","CUSTER","SD","57730"
40308,"12349 PENZANCE LN","BRISTOW","VA","20136"
40309,"12349 RAILROAD RD","CLIO","MI","48420"
40310,"12349 ROOSEVELT WAY NE SUITE 101","SEATTLE","WA","98125"
40311,"12349 SOUTH FRONTAGE ROAD","YUCCA","AZ","86438"
40312,"1235  37TH AVE","ROCK ISLAND","IL","61201"
40313,"1235 3RD ST","SEDRO WOOLLEY","WA","98284"
40314,"1235 8TH AVENUE NORTH","CLINTON","IA","52732"
40315,"1235 BOONE HILL ROAD SUITE 3","SUMMERVILLE","SC","29483"
40316,"1235 BROAD AVE","WILMINGTON","CA","90744"
40317,"1235 BROWNSWOOD ROAD","JOHNS ISLAND","SC","29455"
40318,"1235 CEDAR LANE ROAD","MIDDLETOWN","DE","19709"
40319,"1235 CENTRAL AVENUE","HILLSIDE","NJ","07205"
40320,"1235 CHANDLER RIDGE DR","LAWRENCEVILLE","GA","30045"
40321,"1235 COVE LAKE ROAD","NORTH LAUDERDALE","FL","33068"
40322,"1235 DEESE RD","OZARK","AL","36360"
40323,"1235 E DORE STREET","WEST COVINA","CA","91792"
40324,"1235 E FOWLER AVE","TAMPA","FL","33612"
40325,"1235 E JAMES ROGERS WAY","TUCSON","AZ","85721"
40326,"1235 EUDORA STREET","DENVER","CO","80220"
40327,"1235 FEATHERSTONE RD","WOODBRIDGE","VA","22191"
40328,"1235 FILER AVE E","TWIN FALLS","ID","83301"
40329,"1235 GLENHAVEN CT SUITE 250","EL DORADO","CA","95762"
40330,"1235 GRAND CONCOURSE - APT 601","BRONX","NY","10452"
40331,"1235 HAMBURG ROAD SW","LANCASTER","OH","43130"
40332,"1235 HANCOCK STREET - NUMBER 1","BROOKLYN","NY","11221"
40333,"1235 INDIANA CT UNIT 105","REDLANDS","CA","92374"
40334,"1235 JOSEY STREET APT 200","HUNTSVILLE","TX","77340"
40335,"1235 JUNIPERO SERRA DRIVE","SAINT GEORGE","UT","84790"
40336,"1235 KIMBEL DRIVE","FRANKFORT","KY","40601"
40337,"1235 LAKE PLAZA DRIVE STE 230","COLORADO SPRINGS","CO","80906"
40338,"1235 LAMMERS PIKE","BATESVILLE","IN","47006"
40339,"1235 MAIN STREET","AKRON","PA","17501"
40340,"1235 MENDOCINO AVENUE","SANTA ROSA","CA","95401"
40341,"1235 MISTY LANE","DUNCANVILLE","TX","75116"
40342,"1235 MOUNT VERNON ST","ORLANDO","FL","32803"
40343,"1235 MT VERNON ST","ORLANDO","FL","32803"
40344,"1235 N CLYBOURN AVE SUITE 143","CHICAGO","IL","60610"
40345,"1235 NE 6TH STREET","GRANTS PASS","OR","97526"
40346,"1235 NE KELLAM AVE","TOPEKA","KS","66616"
40347,"1235 NORTH  MOCKINGBIRD","ABILENE","TX","79603"
40348,"1235 NORTH LOOP W SUITE 502","HOUSTON","TX","77008"
40349,"1235 NORTH LOOP WEST SUITE 706","HOUSTON","TX","77008"
40350,"1235 NORTHWOODS LAKE CT","DULUTH","GA","30096"
40351,"1235 PIPPIN STREET","JACKSONVILLE","FL","32206"
40352,"1235 PRINCESS AVENUE","CAMDEN","NJ","08103"
40353,"1235 RAMSEY STREET","FAYETTEVILLE","NC","28301"
40354,"1235 RAWSON AVENUE","SANGER","CA","93657"
40355,"1235 RICHLAND OAKS DR","RICHARDSON","TX","75801"
40356,"1235 RING BILL LOOP","UPPER MARLBORO","MD","20774"
40357,"1235 ROCKSPRINGS RD","RISING SUN","MD","21911"
40358,"1235 S MAGNOLIA AVE","ANAHEIM","CA","92804"
40359,"1235 S MAGNOLIA AVENUE","ANAHEIM","CA","92804"
40360,"1235 SAGEBRUSH COURT","FLINT","MI","48532"
40361,"1235 SALEM ROAD","CONWAY","AR","72034"
40362,"1235 SAN ANDRES ST","SANTA BARBARA","CA","93101"
40363,"1235 SE HARNEY ST","PORTLAND","OR","97202"
40364,"1235 SOUTH 2200 WEST","SYRACUSE","UT","84075"
40365,"1235 STORRS ROAD","STORRS","CT","06268"
40366,"1235 SWARTHMORE AVE","FOLSOM","PA","19033"
40367,"1235 SWIFT SHORE CIRCLE","WEST LINN","OR","97068"
40368,"1235 U RD","WISNER","NE","68791"
40369,"1235 UPPER FRONT STREET 303","BINGHAMTON","NY","13905"
40370,"1235 VALENCIA AVE APT A","HEMET","CA","92543"
40371,"1235 WESTLAKES DRIVE   SUITE 160","BERWYN","PA","19312"
40372,"1235 WINDING OAKS CIRCLE","VERO BEACH","FL","32963"
40373,"1235 WINSLEY COURT SW","MARIETTA","GA","30064"
40374,"1235-E EAST BLVD  STE-278","CHARLOTTE","NC","28203"
40375,"1235","CULPEPER","VA","22701"
40376,"12350 CLARIDON TROY ROAD","CHARDON","OH","44024"
40377,"12350 DEL AMO BLVD","LAKEWOOD","CA","90715"
40378,"12350 IMPERIAL HWY","NORWALK","CA","90650"
40379,"12350 JEFFERSON AVE STE 140","NEWPORT NEWS","VA","23602"
40380,"12350 JEFFERSON AVENUE","NEWPORT NEWS","VA","23602"
40381,"12350 MARSHALL AVE UNIT 133","CHINO","CA","91710"
40382,"12350 MIDSUMMER LANE A201","WOODBRIDGE","VA","22192"
40383,"12350 MOHICAN ROAD","WOODBRIDGE","VA","22192"
40384,"12350 NW 27TH PLACE","CORAL SPRINGS","FL","33065"
40385,"12350 OLD HALLS FERRY ROAD","FLORISSANT","MO","63033"
40386,"12350 PARK RD","ORIENT","OH","43146"
40387,"12350 TIMBERLAND BLVD","FORT WORTH","TX","76244"
40388,"12351 CRAVEN AVE","SHELBY TOWNSHIP","MI","48315"
40389,"12351 MANCHESTER WAY","WOODBRIDGE","VA","22192"
40390,"12351 N GRANVILLE RD","MEQUON","WI","53097"
40391,"12351 NW 80TH PL","PARKLAND","FL","33076"
40392,"12352 INDIANA","DETROIT","MI","48204"
40393,"12352 RUTHERFORD DRIVE","RANCHO CUCAMONGA","CA","91739"
40394,"12353 BEAMER RD","HOUSTON","TX","77089"
40395,"12353 E EASTER AVE STE 200","CENTENNIAL","CO","80112"
40396,"12353 W JOS R CHAFER RD","COUDERAY","WI","54828"
40397,"12353 WASHINGTON SQUARE","WALDORF","MD","20601"
40398,"12354 DEL SUR ST","VICTORVILLE","CA","92392"
40399,"12354 WEST HAZELWOOD STREET","AVONDALE","AZ","85392"
40400,"12355 AZALEAS DR","SANTA FE SPRINGS","CA","90670"
40401,"12355 JEWEL STONE LANE","FORT MYERS","FL","33913"
40402,"12355 S JOHN YOUNG PARKWAY","ORLANDO","FL","32837"
40403,"12355 STATE HIGHWAY CC","ROLLA","MO","65401"
40404,"12355 STATE HWY CC","ROLLA","MO","65401"
40405,"12355 SW 18 TH STREET","MIAMI","FL","33175"
40406,"12356 GREENSPRING AVE","OWINGS MILLS","MD","21117"
40407,"12356 S PERRY AVE","CHICAGO","MI","60628"
40408,"12357 MACKINAC RD","HOMER GLEN","IL","60491"
40409,"12357 RHEA DRIVE","PLAINFIELD","IL","60585"
40410,"12357 WENDOVER DR","PLYMOUTH","MI","48170"
40411,"12358 EPSTEIN VALLEY","SELMA","TX","78154"
40412,"12358 HONEY HILL LANE","CHARLOTTE","NC","28273"
40413,"12359 FOLKS RD","HANOVER","MI","49241"
40414,"12359 W ORANGE DRIVE","LITCHFIELD PARK","AZ","85340"
40415,"1235A NORTH CLYBOURN 369","CHICAGO","IL","60610"
40416,"1236 1ST STREET N APT 301","JACKSONVILLE BEACH","FL","32250"
40417,"1236 23RD AVENUE","OAKLAND","CA","94606"
40418,"1236 5TH AVE","HUNTINGTON","WV","25701"
40419,"1236 AIRPORT PULLING RD N","NAPLES","FL","34104"
40420,"1236 ANDUIN AVE","ANTIOCH","TN","37013"
40421,"1236 BARNES UNIT A","ATLANTA","GA","30318"
40422,"1236 BEAVERDAM FARM RD","CANON","GA","30520"
40423,"1236 BRACE ROAD STE B","CHERRY HILL","NJ","08034"
40424,"1236 C ST SE","WASHINGTON","DC","20003"
40425,"1236 CARROLL STREET","NEW YORK","NY","11225"
40426,"1236 CENTRAL AVENUE   SUITE A","SARASOTA","FL","34243"
40427,"1236 COBB DR SE APT 3A","GRAND RAIDS","MI","49508"
40428,"1236 CONNER STREET SUITE 200","NOBLESVILLE","IN","46060"
40429,"1236 DARLING ST","NAPA","CA","94558"
40430,"1236 DUBLIN ST","BILLINGS","MT","59105"
40431,"1236 EAST 88TH STREET","BROOKLYN","NY","11236"
40432,"1236 EAST DENWALL DRIVE","CARSON","CA","90746"
40433,"1236 ELLINGTON ROAD","SOUTH WINDSOR","CT","06074"
40434,"1236 GOSS AVE","LOUISVILLE","KY","40217"
40435,"1236 HALF MOON RD","EL PRADO","NM","87529"
40436,"1236 HALF ST SW","WASHINGTON","DC","20024"
40437,"1236 HIBISCUS WAY","LIVERMORE","CA","94551"
40438,"1236 HWY 24 EAST","LOUISVILLE","GA","30434"
40439,"1236 INTERNATIONAL BLVD","OAKLAND","CA","94606"
40440,"1236 ISLAND PLACE E","MEMPHIS","TN","38103"
40441,"1236 LARK AVE","BRIGHTON","CO","80601"
40442,"1236 LUAKALAI ST","KAPOLEI","HI","96707"
40443,"1236 MAMARONECK AVE","WHITE PLAINS","NY","10605"
40444,"1236 MARQUETTE DR","DETROIT","MI","48214"
40445,"1236 MOURFIELD","KNOXVILLE","TN","37922"
40446,"1236 N RURAL ST","INDIANAPOLIS","IN","46201"
40447,"1236 NORTHBROOK LANE","TROY","OH","45373"
40448,"1236 SOUTH ALFRED STREET SUITE 4","LOS ANGELES","CA","90035"
40449,"1236 TAMU SLOT 605","COLLEGE STATION","TX","77843"
40450,"1236 TEXAS AVENUE","LOUISVILLE","KY","40204"
40451,"1236 VIRGINIA AVENUE APT 5K","BRONX","NY","10472"
40452,"1236 W 200 N","ROCHESTER","IN","46975"
40453,"1236 WEST 23RD STREET","RIVIERA BEACH","FL","33404"
40454,"1236 WEST MULBERRY LANE","HIGHLANDS RANCH","CO","80129"
40455,"1236 WEST WALNUT STREET","STOCKTON","CA","95203"
40456,"1236","CHRISTIANSTED","VI","00820"
40457,"12360 66TH ST H4","LARGO","FL","33773"
40458,"12360 66TH STREET  STE A2","LARGO","FL","33773"
40459,"12360 66TH STREET N STE 700","LARGO","FL","33773"
40460,"12360 PRESERVE LANE","JOHNS CREEK","GA","30005"
40461,"12360 SE DIXIE HIGHWAY","HOBE SOUND","FL","33455"
40462,"12361 MAGNOLIA","GARDEN GROVE","CA","92841"
40463,"12361 PALM STREET","CERRITOS","CA","90703"
40464,"12362 STATE HIGHWAY F","POTOSI","MO","63664"
40465,"12363 STATE ROUTE 21","DE SOTO","MO","63020"
40466,"12365 HURON ST SUITE 1800","WESTMINSTER","CO","80234"
40467,"12365 N OAKLAWN LN","BILOXI","MS","39532"
40468,"12365 ROAD 36 1/2","MADERA","CA","93636"
40469,"12365 SW 18TH STREET UNIT 201","MIAMI","FL","33175"
40470,"12365 W DIXIE HWY","N MIAMI","FL","33161"
40471,"12366 POWAY RD STE B1","POWAY","CA","92064"
40472,"12366 RIVERHILL ROAD","FRISCO","TX","75033"
40473,"12367 SHEARWATER RUN","FORT WAYNE","IN","46845"
40474,"12368 MARKET DRIVE","OKLAHOMA CITY","OK","73114"
40475,"12368 TRIPLE TREE TERR","VICTORVILLE","CA","92392"
40476,"12368 W FOXHAVEN ST","STAR","ID","83669"
40477,"12369 BERKELEY SQUARE DRIVE","TAMPA","FL","33626"
40478,"1237 16TH STREET SE","MASSILLON","OH","44646"
40479,"1237 ALLEN STREET","CHARLOTTE","NC","28205"
40480,"1237 AMORETTI ST","THERMOPOLIS","WY","82443"
40481,"1237 BARN OWL ROAD","EFFINGHAM","SC","29541"
40482,"1237 BELLEVUE DRIVE","GADSDEN","AL","35904"
40483,"1237 BROWNSVILLE ROAD","MORGANTOWN","KY","42261"
40484,"1237 CANYON CREEK CIRCLE","COLLEGE STATION","TX","77840"
40485,"1237 CHINKAPIN PL","FLOWER MOUND","TX","75028"
40486,"1237 CROSBY AVE - APT 1","BRONX","NY","10461"
40487,"1237 CROSS KEYS RD","LEXINGTON","KY","40504"
40488,"1237 DICKERSON RD","NORTH WALES","PA","19454"
40489,"1237 E DIANA AVE","ANAHEIM","CA","92805"
40490,"1237 E WEISGARBER RD UNIT 53136","KNOXVILIE","TN","37950"
40491,"1237 FAIRLANE DR","CAPE GIRARDEAU","MO","63701"
40492,"1237 FR","CONWAY","AR","72032"
40493,"1237 GARDEN VILLAGE DR","FLORISSANT","MO","63031"
40494,"1237 GRANDVIEW AVE","GLENDALE","CA","91201"
40495,"1237 GREENRIDGE AVENUE","LITHONIA","GA","30058"
40496,"1237 HEBDEN COVE","VIRGINIA BEACH","VA","23452"
40497,"1237 LAURA LANE","NORTH WALES","PA","19454"
40498,"1237 LAUREL RD","CLINTON","TN","37716"
40499,"1237 MARTINIQUE CT","MARCO ISLAND","FL","34145"
40500,"1237 MARVIN AVENUE","CHARLESTON","SC","29407"
