"ID","Address","City","State","Zip"
15501,"107 HOOMALU PL","HILO","HI","96720"
15502,"107 HUCKLEBERRY DRIVE","LA PLATA","MD","20646"
15503,"107 INVERNESS DRIVE","GEORGETOWN","KY","40324"
15504,"107 JARRETT LANE","EL CAJON","CA","92021"
15505,"107 JASPER COURT","NORRISTOWN","PA","19403"
15506,"107 JEFFERSON STREET APT 2","HOBOKEN","NJ","07030"
15507,"107 JONES ST","CHAPEL HILL","NC","27514"
15508,"107 KACHINA","IRVINE","CA","92618"
15509,"107 KANSAS CITY RD","RUIDOSO","NM","88345"
15510,"107 KAUFMAN ST","WAXAHACHIE","TX","75165"
15511,"107 KAY LANE","CARROLLTON","GA","30117"
15512,"107 KELLY PLACE STE 102","HIGH POINT","NC","27260"
15513,"107 KERRY STREET","BALDWIN","LA","70514"
15514,"107 KILLDEER RD","ROGERS","AR","72756"
15515,"107 KIMBROOK DR","GREENWOOD","SC","29649"
15516,"107 KIMMIE RD","CHERAW","SC","29520"
15517,"107 KING WILLIAM ROAD","RALEIGH","NC","27610"
15518,"107 KNEUPPER ST","CONVERSE","TX","78109"
15519,"107 LACLAIRE DR APT D","WARNER ROBINS","GA","31088"
15520,"107 LAKE CAROLYN DR","LULING","LA","70070"
15521,"107 LAKE RD","SLEEPY HOLLOW","NY","10591"
15522,"107 LAMAR LANE","HOSCHTON","GA","30549"
15523,"107 LARSON LANE STE 300A","ALEDO","TX","76008"
15524,"107 LAURENCE COURT","WILLINGBORO","NJ","08046"
15525,"107 LAURENE COURT","WILLINGBORO","NJ","08046"
15526,"107 LAURYN ST","NATCHITOCHES","LA","71457"
15527,"107 LAYTON STREET SUITE A","DODGE CITY","KS","67801"
15528,"107 LEE HILL ROAD","PIERR","SD","57501"
15529,"107 LICKSKILLET LN","BLUE RIDGE","GA","30513"
15530,"107 LINDA DRIVE","MONROE","LA","71203"
15531,"107 LINDSEYS CV","SAN ANTONIO","TX","78258"
15532,"107 LOCUST ST","CHILLICOTHE","MO","64601"
15533,"107 LODGES LANE","BALA CYNWYD","PA","19004"
15534,"107 LOKOMSKI RD","HOOKSTOWN","PA","15050"
15535,"107 LONE STAR","SAN ANTONIO","TX","78204"
15536,"107 LYMAN PLACE","WEST PALM BEACH","FL","33409"
15537,"107 MAIN ST","DAYTON","TN","37321"
15538,"107 MAIN STREET PO BOX 273","SLICKVILLE","PA","15684"
15539,"107 MAIN STREET","HINGHAM","MA","02043"
15540,"107 MAIN STREET","SANDPOINT","ID","83864"
15541,"107 MAIN STREET","WINDSOR","NY","13865"
15542,"107 MAPLE AVENUE","MILFORD","DE","19963"
15543,"107 MAPLE STREET","HAHNVILLE","LA","70057"
15544,"107 MARDEN COURT SE","SMYRNA","GA","30082"
15545,"107 MARSTON ROAD","LEOMA","TN","38468"
15546,"107 MARTHA TER","PORTSMOUTH","NH","03801"
15547,"107 MARTIN LUTHER KING JR DR","SYLVANIA","GA","30467"
15548,"107 MAYFAIR CIRCLE","SANFORD","FL","32771"
15549,"107 MAYFAIR DRIVE","BELLA VISTA","AR","72715"
15550,"107 MC HUGH STREET","STEELE","AL","35987"
15551,"107 MCARTHUR DRIVE","TROY","IL","62294"
15552,"107 MCCARTHA DRIVE","COLUMBUS","GA","31907"
15553,"107 MEADOW DR","SENECA","SC","29678"
15554,"107 MEADOW DRIVE","YPSILANTI","MI","48197"
15555,"107 MEADOW POINT DR","MONETA","VA","24121"
15556,"107 MEADOW STREET","SPARTANBURG","SC","29307"
15557,"107 MEADOW WAY","CONVERSE","TX","78109"
15558,"107 MELODY CIRCLE","CEDAR HILL","TX","75104"
15559,"107 METKER TRAIL SUITE A","STANFORD","KY","40484"
15560,"107 MISTY GLEN DRIVE","MADISON","AL","35757"
15561,"107 MITCHELL ST","NEW BOSTON","TX","75570"
15562,"107 MOUNT VISTA DRIVE","SIDNEY","ME","04330"
15563,"107 MOUNTAIN VIEW LANE","MADISON","AL","35758"
15564,"107 N 11TH STREET SUITE 634","TAMPA","FL","33602"
15565,"107 N 1ST AVE","NEW BERN","NC","28560"
15566,"107 N 5TH ST RM 239","DOUGLAS","WY","82633"
15567,"107 N CAREY STREET SUITE 3","BALTIMORE","MD","21223"
15568,"107 N COOK STREET - 647","PORTLAND","OR","97227"
15569,"107 N CORTEZ ST SUITE 105","PRESCOTT","AZ","86301"
15570,"107 N CRENSHAW AVE","RICHMOND","VA","23221"
15571,"107 N GRANT STREET","CRAWFORDSVILLE","IA","52621"
15572,"107 N JACKSON ST SUITE B","KAUFMAN","TX","75142"
15573,"107 N LAKEPOINTE DR","LAFAYETTE","LA","70506"
15574,"107 N MAIN ST","YERINGTON","NV","89447"
15575,"107 N MAIN STREET PO BOX 28","CLYDE","OH","43410"
15576,"107 N OCEAN AVENUE","FREEPORT","NY","11520"
15577,"107 N PHILLIPS ROAD","LANETT","AL","36863"
15578,"107 N REINO RD UNIT 101","NEWBURY PARK","CA","91320"
15579,"107 N REINO ROAD SUITE 271","NEWBURK PARK","CA","91320"
15580,"107 N SHERMAN ST","DENVER","CO","80203"
15581,"107 N WEST STREET","DOVER","DE","19904"
15582,"107 NEW YORK AVE","SOUTH PORTLAND","ME","04106"
15583,"107 NEWKIRK STREET","CLAYTON","NJ","08312"
15584,"107 NORTH BEACH ROAD","HOBE SOUND","FL","33455"
15585,"107 NORTH COLLEGE WEST","DENHAM SPRINGS","LA","70726"
15586,"107 NORTH GREENWOOD AVENUE SUITE L","TULSA","OK","74120"
15587,"107 NORTH MAIN STREET PO BOX 28","CLYDE","OH","43410"
15588,"107 NORTH MAIN STREET","CLYDE","OH","43410"
15589,"107 NORTH MAIN STREET","ROCHESTER","NH","03867"
15590,"107 NORTH MAIN STREET","STANDISH","MI","48658"
15591,"107 NORTH MAPLE STREET","MURFREESBORO","TN","37130"
15592,"107 NORTH PARKWAY","HUEYTOWN","AL","35023"
15593,"107 NORTH REINO ROAD 155","NEWBURY PARK","CA","91320"
15594,"107 NORTH STATE STREET","CONCORD","NH","03301"
15595,"107 NORTH STREET","PLYMOUTH","CT","06782"
15596,"107 NW 5TH AVENUE","OKEECHOBEE","FL","34972"
15597,"107 OAK VIEW PL","SANFORD","FL","32773"
15598,"107 OLD COURT RD","BALTIMORE","MD","21208"
15599,"107 OLD CROSSING LANE","ANNAPOLIS","MD","21401"
15600,"107 OLD HARBOR ROAD","KNIFE RIVER","MN","55609"
15601,"107 OLD LANCASTER RD","DEVON","PA","19333"
15602,"107 ONYX LANE","KNIGHTDALE","NC","27545"
15603,"107 OTTER POND LN","SAYLORSBURG","PA","18353"
15604,"107 PANORAMA DRIVE","BENICIA","CA","94510"
15605,"107 PATRA DRIVE","MADISON","AL","35758"
15606,"107 PATTERSON ST","FORT MILL","SC","29715"
15607,"107 PAYTON DANIELS ROAD","ROSEBORO","NC","28382"
15608,"107 PEBBLE COURT","BEREA","OH","44017"
15609,"107 PENNINGTON DRIVE","DARLINGTON","PA","16115"
15610,"107 PENNSYLVANIA AVENUE","DOWAGIAC","MI","49047"
15611,"107 PHILIP DRIVE","PRINCETON","NJ","08540"
15612,"107 PICA LN","CARBONDALE","CO","81623"
15613,"107 PINE BROOK ROAD","MONVTILLE","NJ","07045"
15614,"107 PINECREST DRIVE","ANNAPOLIS","MD","21403"
15615,"107 PINEHURST GREEN WAY","GREENVILLE","SC","29609"
15616,"107 PLANO DRIVE","DURHAM","NC","27703"
15617,"107 POLK RD 154","HATFIELD","AR","71945"
15618,"107 PRESIDIO COURT APT 105","SCHAUMBURG","IL","60195"
15619,"107 PRICES SWITCH ROAD","VERNON","NJ","07462"
15620,"107 PRINCESS AVE","ANDERSON","SC","29621"
15621,"107 PROFESSIONAL PLAZA","HELENA","AR","72342"
15622,"107 RANDY ROAD","WAXAHACHIE","TX","75165"
15623,"107 REED HILL ROAD","JACKSONVILLE","VT","05342"
15624,"107 REEDER POINT ROAD","FAIR PLAY","SC","29643"
15625,"107 REID AVE","PASSAIC","NJ","07055"
15626,"107 RIDGEWOOD PLACE","STATEN ISLAND","NY","10301"
15627,"107 RIVER VALLEY TRAIL","KATHLEEN","GA","31047"
15628,"107 ROCKAWAY","LYNN","MA","01902"
15629,"107 ROYAL ST SW NUM B","LEESBURG","VA","20175"
15630,"107 RUTLAND CIRCLE","LAGRANGE","GA","30241"
15631,"107 S 1470 E STE 303","SAINT GEORGE","UT","84790"
15632,"107 S 55TH ST","OMAHA","NE","68132"
15633,"107 S FAIR OAKS AVE UNIT 112","PASADENA","CA","91105"
15634,"107 S GRAND AVE","EVANSVILLE","IN","47713"
15635,"107 S H ST","LOMPOC","CA","93436"
15636,"107 S LHS DR","LUMBERTON","TX","77657"
15637,"107 S MAIN ST","MOUNT CARROLL","IL","61053"
15638,"107 S MOODY STREET","VICTORIA","TX","77901"
15639,"107 S NOTTAWA ST SUITE B","STURGIS","MI","49091"
15640,"107 S NOTTAWA ST","STURGIS","MI","49091"
15641,"107 S POLLARD STREET","VINTON","VA","24179"
15642,"107 S RIDGE RD W","CONNEAUT","OH","44030"
15643,"107 S SHELBY STREET","BLACKSBURG","SC","29702"
15644,"107 S SHORE DR","FOREST LAKE","MN","55025"
15645,"107 S STATE ST SUITE 300","MONTICELLO","IL","61856"
15646,"107 S STATE","MONTICELLO","IL","61856"
15647,"107 S TOWER AVE","CENTRALIA","WA","98531"
15648,"107 S TRADE STREET","AMITY","OR","97101"
15649,"107 S URBAN ST","THOMASVILLE","NC","27360"
15650,"107 S WASHINGTON AVENUE","COOKEVILLE","TN","38506"
15651,"107 S WEST ST STE 154","ALEXANDRIA","VA","22314"
15652,"107 S WEST ST SUITE 932","ALEXANDRIA","VA","22314"
15653,"107 SAGAMORE STREET","SAN FRANCISCO","CA","94112"
15654,"107 SE SHORES CT","LEES SUMMIT","MO","64064"
15655,"107 SETTLERS LANDING ROAD","SUFFOLK","VA","23435"
15656,"107 SHADY GROVE","GEORGETOWN","TX","78633"
15657,"107 SHERFIELD COURT","ELIZABETHTOWN","PA","17022"
15658,"107 SHERIDAN ST NE","WASHINGTON","DC","20011"
15659,"107 SHERMAN OAKS DRIVE","COXS CREEK","KY","40013"
15660,"107 SILVER LAKE RD","ST SIMONS ISLAND","GA","31522"
15661,"107 SIR BARTON CT","BUSH","LA","70431"
15662,"107 SLATE RUN","DOUGLASSVILLE","PA","19518"
15663,"107 SMOKEY WOOD DRIVE","PITTSBURGH","PA","15218"
15664,"107 SOUTH 2ND STREET","MANKATO","MN","56001"
15665,"107 SOUTH MARION STREET","CARDINGTON","OH","43315"
15666,"107 SOUTH NOTTAWA STREET","STURGIS","MI","49091"
15667,"107 SOUTH PARK STREET","DAHLONEGA","GA","30533"
15668,"107 SPAULDING DRIVE","SCOTTSBURG","IN","47170"
15669,"107 SPYGLASS DRIVE","BLUE BELL","PA","19422"
15670,"107 STAN AVENUE","NEW STANTON","PA","15672"
15671,"107 STATE ST","MEDFORD","WI","54451"
15672,"107 STONELEIGH ROAD","WATERTOWN","MA","02472"
15673,"107 STRAITS HAVEN ROAD","BEAUFORT","NC","28516"
15674,"107 STRONGWOOD ROAD","OWINGS MILLS","MD","21117"
15675,"107 SUFFOLK STREET SUITE 213 A","NEW YORK","NY","10002"
15676,"107 SUR ASHFORF AVE","GUAYAMA","PR","00784"
15677,"107 SUZANNE STREET","BOGALUSA","LA","70427"
15678,"107 SW 1 STREET","DANIA","FL","33004"
15679,"107 SW 1ST STREET SUITE 102","ENTERPRISE","OR","97828"
15680,"107 SW 7 CT","POMPANO BEACH","FL","33060"
15681,"107 TANNER COURT","TARBORO","NC","27886"
15682,"107 TECHNOLOGY PARKWAY","PEACHTREE CORNERS","GA","30092"
15683,"107 TELFAIR PLACE","ATHENS","GA","30606"
15684,"107 TERRACE VIEW DRIVE","ITHACA","NY","14850"
15685,"107 TGT","PORTLAND","TN","37148"
15686,"107 THUNDERBIRD DRIVE","HARVEST","AL","35749"
15687,"107 TRADEWYND DR STE B","LYNCHBURG","VA","24502"
15688,"107 TREASURE HUNT TRAIL","BLUE EYE","MO","65611"
15689,"107 TREES OF AVALON PARKWAY","MCDONOUGH","GA","30253"
15690,"107 TRIBAL ROAD","LOUISVILLE","KY","40207"
15691,"107 VALERA WAY","OCEANSIDE","CA","92057"
15692,"107 VAN CORTLANDT PK AVE APT 6B","YONKERS","NY","10701"
15693,"107 VERPLANK STREET","BUFFALO","NY","14208"
15694,"107 VETERANS DRIVE","KILL DEVIL HILLS","NC","27948"
15695,"107 VIA DEL PINAR","MONTEREY","CA","93940"
15696,"107 VINTAGE OAKS CT","ANGLETON","TX","77515"
15697,"107 VISTA DRIVE","CLEMSON","SC","29631"
15698,"107 VIXENHILL DRIVE","JESUP","GA","31546"
15699,"107 W 126TH STREET APT 2","NEW YORK","NY","10027"
15700,"107 W 3RD STREET","SUGAR GROVE","OH","43155"
15701,"107 W AMBASSADOR BEND","THE WOODLANDS","TX","77382"
15702,"107 W AUSTIN ST","MARSHALL","TX","75670"
15703,"107 W COLUMBUS ST","PICKERINGTON","OH","43147"
15704,"107 W ELLAVILLE ST","ANDERSONVILLE","GA","31711"
15705,"107 W FIRST ST","MT MORRIS","IL","61054"
15706,"107 W GARFIELD AVE","SAN JUAN","TX","78589"
15707,"107 W GEER ST","DURHAM","NC","27701"
15708,"107 W HENSON AVE","SPRINGDALE","AR","72764"
15709,"107 W HOUSTON ST","GARRETT","IN","46738"
15710,"107 W LOCUST ST SUITE 111","BOONVILLE","IN","47601"
15711,"107 W LYTLE STREET","MURFREESBORO","TN","37130"
15712,"107 W MAIN ST","SMITHVILLE","MO","64089"
15713,"107 W MESQUITE ST","GILBERT","AZ","85233"
15714,"107 W NEWTON ST","RICE LAKE","WI","54868"
15715,"107 W ORBISON ST","BARNEVELD","WI","53507"
15716,"107 W ORCHARD AVE","INDIANOLA","IA","50125"
15717,"107 W PINE ST","COCHRANTON","PA","16314"
15718,"107 W QUAIL RIDGE RD","OXFORD","NC","27565"
15719,"107 W SUNKIST ST","ONTARIO","CA","91762"
15720,"107 W WALLACE AVE","NEW CASTLE","PA","16101"
15721,"107 W WASHINGTON STREET","WASHINGTON","IA","52353"
15722,"107 WALKBRIDGE WAY","CHAPIN","SC","29036"
15723,"107 WATER STREET","CHARDON","OH","44024"
15724,"107 WATERSFIELD RD","LELAND","NC","28451"
15725,"107 WELLESLEY LANE","MOORESVILLE","NC","28115"
15726,"107 WEST 135TH STREET","NEW YORK","NY","10030"
15727,"107 WEST 5TH AVE","TALLAHASSEE","FL","32303"
15728,"107 WEST 86TH STREET 3H","NEW YORK","NY","10024"
15729,"107 WEST DEER PARK","GAITHERSBURG","MD","20877"
15730,"107 WEST END DRIVE","MANHEIM","PA","17545"
15731,"107 WEST EXCHANGE STREET","SYCAMORE","IL","60178"
15732,"107 WEST FIRST STREET","JANESVILLE","MN","56048"
15733,"107 WEST MADISON AVE","CLIFTON HEIGHTS","PA","19018"
15734,"107 WEST MAIN ST","SMITHVILLE","MO","64089"
15735,"107 WEST MAIN STREET","WILLIAMSBURG","OH","45176"
15736,"107 WEST PASSAGE","COLUMBIA","SC","29212"
15737,"107 WEST QUAIL RIDGE RD","OXFORD","NC","27565"
15738,"107 WEST STREET SUITE 807","ALEXANDRIA","VA","22314"
15739,"107 WEST US-2","WAKEFIELD","MI","49968"
15740,"107 WEST WALWORTH STREET","ELKHORN","WI","53121"
15741,"107 WESTON PLACE","ASHEVILLE","NC","28803"
15742,"107 WILLOW OAKS ROAD","RICHMOND","VA","23238"
15743,"107 WILLOW POND ROAD","UNICOI","TN","37692"
15744,"107 WILLOWGATE DRIVE","BONAIRE","GA","31005"
15745,"107 WINDLAKE CT","WEST MONROE","LA","71291"
15746,"107 WITTENHAM COURT","SAN RAMON","CA","94583"
15747,"107 WOODBINE","LONGVIEW","TX","75601"
15748,"107 ZAIDE LN","BOZEMAN","MT","59718"
15749,"107-08 173RD STREET","JAMAICA","NY","11433"
15750,"107-10 SHORE FRONT PARKWAY APT 9H","ROCKAWAY PARK","NY","11694"
15751,"107-20 142 STREET","JAMAICA","NY","11435"
15752,"107-23 71ST RD STE 191","FOREST HILLS","NY","11375"
15753,"107-34 157TH STREET","JAMAICA","NY","11433"
15754,"107-51 GUY R BREWER BLVD","JAMAICA","NY","11433"
15755,"107","LOUISVILE","KY","40207"
15756,"1070 20TH AVE NE","NAPLES","FL","34120"
15757,"1070 BARBER TER NW","GRAND RAPIDS","MI","49504"
15758,"1070 BROAD STREET","PROVIDENCE","RI","02905"
15759,"1070 CAMBRIDGE DR","WABASH","IN","46992"
15760,"1070 CARMACK RD","COLUMBUS","OH","43210"
15761,"1070 CONKLIN RD","JONESBOROUGH","TN","37659"
15762,"1070 COUNTY ROAD 122","QUITMAN","MS","39355"
15763,"1070 COURIER PLACE 201","SMYRNA","TN","37167"
15764,"1070 CURB CHAIN LANE","WINDSOR","SC","29856"
15765,"1070 DRY FORK RD","DANVILLE","KY","40422"
15766,"1070 EAST 73RD ST STE 2","BROOKLYN","NY","11234"
15767,"1070 EAST COLLEGE PARKWAY","ANNAPOLIS","MD","21409"
15768,"1070 EAST FM 544","WYLIE","TX","75098"
15769,"1070 EBERLY WAY","LEMONT FURNACE","PA","15456"
15770,"1070 ELM ST","MACON","GA","31201"
15771,"1070 FOXRIDGE CT","SUMTER","SC","29150"
15772,"1070 GBI STREET","GRUNDY","VA","24614"
15773,"1070 GOVERNMENT STREET","MOBILE","AL","36604"
15774,"1070 GREAT OAKS DR","LAWRENCEVILLE","GA","30045"
15775,"1070 HARMONY LANE","CLERMONT","FL","34711"
15776,"1070 HARRIS RD","ADAMSVILLE","TN","38310"
15777,"1070 HAYSLOPE DRIVE","KNOXVILLE","TN","37919"
15778,"1070 HERNDON ROAD","LAWRENCEBURG","KY","40342"
15779,"1070 HICKORY CURVE","WATERTOWN","MN","55388"
15780,"1070 HIDDEN VALLEY CT","MC GREGOR","TX","76657"
15781,"1070 HIGHWAY 64 NW","RAMSEY","IN","47166"
15782,"1070 LIBBY COURT","DAYTONA BEACH","FL","32117"
15783,"1070 LUMEN RD NW","MINERVA","OH","44657"
15784,"1070 MARINA VILLAGE PARKWAY STE 206","ALAMEDA","CA","94501"
15785,"1070 MIDDLE COUNTRY RD SUITE 7-243","SELDON","NY","11784"
15786,"1070 MONA DRIVE","UNIVERSITY CITY","MO","63130"
15787,"1070 MONTGOMERY RD  STE 2205","ALTAMONTE SPRINGS","FM","32773"
15788,"1070 MONTGOMERY ROAD 2270","ALTAMONTE SPRINGS","FL","32714"
15789,"1070 NOBLE VINES DRIVE APT4","CLARKSTON","GA","30021"
15790,"1070 RIDEN ROAD","MADISON","GA","30650"
15791,"1070 S LA BREA AVE","LOS ANGELES","CA","90019"
15792,"1070 SONOMA LANE","AURORA","IL","60502"
15793,"1070 SOUTH BEDFORD APT 304","LOS ANGELES","CA","90035"
15794,"1070 STATLER RD","COLUMBIA","SC","29210"
15795,"1070 SW 19TH ST","BOCA RATON","FL","33486"
15796,"1070 SYBILLE CREEK RD","WHEATLAND","WY","82201"
15797,"1070 TUNNEL ROAD STE 10 275","ASHEVILLE","NC","28805"
15798,"1070 U AVE","NEVADA","IA","50201"
15799,"1070 VENTURACCI LN","FALLON","NV","89406"
15800,"1070 VIRGINIA AVE","GRANDVIEW HEIGHTS","OH","43212"
15801,"1070 VISTA POINTE CIR","SAN RAMON","CA","94582"
15802,"1070 VZ CR 4917","BEN WHEELER","TX","75754"
15803,"1070 W HORIZON RIDGE PKWY STE 111","HENDERSON","NV","89012"
15804,"1070 W HORIZON RIDGE ST 111","HENDERSON","NV","89002"
15805,"1070 W HORIZON RIDGE ST 111","HENDERSON","NV","89012"
15806,"1070 W HORIZON RIDGE STE 111","HENDERSON","NV","89005"
15807,"1070 W HORIZON RIDGE STE 111","HENDERSON","NV","89012"
15808,"1070 W HORIZON RIDGE STE 111","HENDERSON","NV","89148"
15809,"1070 YELLOWSTONE ROAD","CLEVELAND HEIGHTS","OH","44121"
15810,"10700 BAILEY DRIVE 10700 BAILEY DR","CHELTENHAM","MD","20623"
15811,"10700 BEACH BLVD UNIT 19424","JACKSONVILLE","FL","32246"
15812,"10700 BROOKWOOD AVE","UPPR MARLBORO","MD","20772"
15813,"10700 CITY CENTER BLVD APT 1105","PEMBROKE PINES","FL","33025"
15814,"10700 CITY CENTER BLVD SUITE 5245","PEMBROKE PINES","FL","33025"
15815,"10700 E EVANS AVE","AURORA","CO","80014"
15816,"10700 HAMPSHIRE AVE S 320","BLOOMINGTON","MN","55438"
15817,"10700 LEEWARD LANE","KNOXVILLE","TN","37934"
15818,"10700 LEGACY DR","FRISCO","TX","75034"
15819,"10700 LEGACY DRIVE","FRISCO","TX","75033"
15820,"10700 MCMICHAEL LN SW","ALBUQUERQUE","NM","87121"
15821,"10700 N 85TH AVENUE UNIT 2131","PEORIA","AZ","85385"
15822,"10700 N RODNEY PARHAM RD SUITE C-6A","LITTLE ROCK","AR","72212"
15823,"10700 RED BARN LANE","POTOMAC","HI","20854"
15824,"10700 RICHMOND AVE SUITE 107","HOUSTON","TX","77042"
15825,"10700 RICHMOND AVE SUITE 143","HOUSTON","TX","77042"
15826,"10700 RICHMOND AVENUE SUITE 143","HOUSTON","TX","77042"
15827,"10700 RICHMOND AVENUE SUITE 265","HOUSTON","TX","77042"
15828,"10700 ROBERT LN","CHAGRIN FALLS","OH","44023"
15829,"10700 S 120TH ST","BENNET","NE","68317"
15830,"10700 SILVER LINDEN CT","CLINTON","MD","20735"
15831,"10700 STAPLES MILL RD","GLEN ALLEN","VA","23060"
15832,"10700 STATE ROAD 70 EAST","OKEECHOBEE","FL","34972"
15833,"10701 AYRSHIRE DRIVE","TAMPA","FL","33626"
15834,"10701 BASELINE ROAD","LITTLE ROCK","AR","72209"
15835,"10701 BOWER AVENUE","WILLIAMSPORT","MD","21795"
15836,"10701 CASTLETON TURN","UPPR MARLBORO","MD","20774"
15837,"10701 CORPORATE DRIVE STE 340-104","STAFFORD","TX","77477"
15838,"10701 CR 1200","MALAKOFF","TX","75148"
15839,"10701 HAMILTON AVENUE SUITE 190","TORRANCE","CA","90502"
15840,"10701 JACKSON AVE","LYNWOOD","CA","90262"
15841,"10701 MANY OAKS DR","FORT WORTH","TX","76140"
15842,"10701 S EASTERN AVE APT1626","HENDERSON","NV","89052"
15843,"10701 S EASTERN SUITE 914","HENDERSON","NV","89052"
15844,"10701 S INTERSTATE 35 APT 411","AUSTIN","TX","78747"
15845,"10701 SPRING RUN ROAD","CHESTERFIELD","VA","23832"
15846,"10701 SW 216TH STREET","MIAMI","FL","33170"
15847,"10701 TWILIGHT VISTA","AUSTIN","TX","78736"
15848,"10701 UNIVERSITY AVE","LUBBOCK","TX","79423"
15849,"10701 WILLOW DRIVE","NEW ORLEANS","IA","70131"
15850,"10702 AKRON AVE","LUBBOCK","TX","79423"
15851,"10702 ALICANTE WAY","RANCHO CORDOVA","CA","95670"
15852,"10702 BALLANTINE STREET","HOUSTON","TX","77075"
15853,"10702 BIG PINEY DR","OMAHA","AR","72662"
15854,"10702 EAST BOUNDARY ROAD","ELK","WA","99009"
15855,"10702 GLENWILD ROAD","SILVER SPRING","MD","20901"
15856,"10702 NORMAN AVENUE","FAIRFAX","VA","22030"
15857,"10702 NW 77TH ST","MEDLEY","FL","33178"
15858,"10702 W 17 MILE RD","RUDYARD","MI","49780"
15859,"10702 WARREN DRIVE","LITTLE ROCK","AR","72209"
15860,"10703 BLOSSOM LANE","SILVER SPRING","MD","20903"
15861,"10703 BLOSSOM LN","SILVER SPRING","MD","20903"
15862,"10703 COGSWELL PL","FAIRFAX STATION","VA","22039"
15863,"10703 GAYTON RD","HENRICO","VA","23238"
15864,"10703 MAPLE STREET","FAIRFAX","VA","22030"
15865,"10703 N MACARTHUR BLVD APT 306","IRVING","TX","75063"
15866,"10703 REGENT SQUARE DRIVE","ORLANDO","FL","32825"
15867,"10703 SILVER SHIELD WAY","TOMBALL","TX","77375"
15868,"10703 STONER DRIVE","FREDERICKSBURG","VA","22408"
15869,"10703 TEMPO LAKE DR SE","OLYMPIA","WA","98513"
15870,"10703 W GRETNA ROAD","SANDY LEVEL","VA","24161"
15871,"10703 WEST RD","HARRISON","OH","45030"
15872,"10703 WINCHELSEA DR","AUSTIN","TX","78750"
15873,"10704 COURTHOUSE ROAD STE 200","FREDERICKSBURG","VA","22407"
15874,"10704 KESWICK ST","GARRETT PARK","MD","20896"
15875,"10704 LAKE RALPH DRIVE","CLERMONT","FL","34711"
15876,"10704 NASHVILLE DRIVE","FRISCO","TX","75035"
15877,"10704 PALMYRA CIRCLE","INDIANAPOLIS","IN","46239"
15878,"10704 SOUTH 212TH STREET","GRETNA","NE","68028"
15879,"10704 SOUTH STONE GATE CIRCLE","SANDY","UT","84092"
15880,"10704 TIMBERLANE AVENUE","BATON ROUGE","LA","70811"
15881,"10705 ANGLO HILL RD","COCKEYSVILLE","MD","21030"
15882,"10705 COTTER STREET","OAKLAND","CA","94605"
15883,"10705 FRANCIS DRIVE","SILVER SPRING","MD","20902"
15884,"10705 HEATHERLEIGH DRIVE","CHELTENHAM","MD","20623"
15885,"10705 LAUREL VISTA WAY","TAMPA","FL","33647"
15886,"10705 NORTHGATE ST","CULVER CITY","CA","90230"
15887,"10705 PINTAIL PLACE","JONESBORO","GA","30238"
15888,"10705 S STATE HWY 34","SCURRY","TX","75158"
15889,"10705 TORRANCE DRIVE","SILVER SPRING","MD","20902"
15890,"10706 227TH AVE E","BUCKLEY","WA","98321"
15891,"10706 E 76TH ST","TULSA","OK","74133"
15892,"10706 MORGAN CREEK DR","CHARLOTTE","NC","28273"
15893,"10707 192ND ST CT E","GRAHAM","WA","98338"
15894,"10707 BESSIE HEIGHTS RD","ORANGE","TX","77630"
15895,"10707 BUSINESS 21","HILLSBORO","MO","63050"
15896,"10707 CAMARILLO STREET APT 102","TOLUCA LAKE","CA","91602"
15897,"10707 CECILIA STREET","DOWNEY","CA","90241"
15898,"10707 INDUSTRIPLEX BLVD APT 2","BATON ROUGE","LA","70809"
15899,"10707 MASON ROAD","CYPRESS","TX","77433"
15900,"10707 MOORPARK ST","NORTH HOLLYWOOD","CA","91602"
15901,"10707 NIXON ROAD","TAMPA","FL","33624"
15902,"10707 OLD BLUE LN","SAN ANTONIO","TX","78230"
15903,"10707 S GESSNER RD","HOUSTON","TX","77071"
15904,"10707 W 162ND ST","OVERLAND PARK","KS","66221"
15905,"10708 ALLIANCE DRIVE","ST. LOUIS","MO","63136"
15906,"10708 E 43RD ST","KANSAS CITY","MO","64133"
15907,"10708 HWY AA","NEOSHO","MO","64850"
15908,"10708 INSIDE LOOP","ORLANDO","FL","32825"
15909,"10708 N SR 5","LIGONIER","IN","46767"
15910,"10708 NORTHGATE STREET","CULVER CITY","CA","90230"
15911,"10708 NW 38TH STREET","YUKON","OK","73099"
15912,"10708 S VINCENNES AVE","CHICAGO","IL","60643"
15913,"10708 W 129TH ST","OVERLAND PARK","KS","66213"
15914,"10708 WATER OAKS DR","DALLAS","TX","75201"
15915,"10709 BEGONIA LN","BOWIE","MD","20720"
15916,"10709 CARROL LANE","NORTHGLENN","CO","80233"
15917,"10709 DESERT LAWN DRIVE","CALIMESA","CA","92320"
15918,"10709 GLENLUCE AVENUE","CHARLOTTE","NC","28213"
15919,"10709 LEAFWOOD LANE","AUSTIN","TX","78750"
15920,"10709 N FLORA AVE","KANSAS CITY","MO","64155"
15921,"10709 NE 46TH ST","KIRKLAND","WA","98033"
15922,"10709 PERRIN CIRCLE","SPOTSYLVANIA","VA","22551"
15923,"10709 PROMENADE TER","MCKINNEY","TX","75072"
15924,"10709 S AVE F","CHICAGO","IL","60617"
15925,"1071 55TH ST","BROOKLYN","NY","11219"
15926,"1071 BELL AVE","SACRAMENTO","CA","95838"
15927,"1071 BERKSHIRE E","DEERFIELD BEACH","FL","33442"
15928,"1071 CANDLELIGH BOULEVARD APT B21","BROOKSVILLE","FL","34601"
15929,"1071 CHEYENNE TRAIL","WINTER SPRINGS","FL","32708"
15930,"1071 COUNTY ROAD 10 SUITE 210","SPRING LAKE PARK","MN","55432"
15931,"1071 DONEGAN ROAD  LOT 775","LARGO","FL","33771"
15932,"1071 E 100 S UNIT C-4","SAINT GEORGE","UT","84770"
15933,"1071 EAST LANDIS AVENUE SUITE 3","VINELAND","NJ","08360"
15934,"1071 FAIRDELL DR","HUMMELSTOWN","PA","17036"
15935,"1071 GREENFIELD AVE","GREEN BAY","WI","54313"
15936,"1071 JOSHUA LANE","ALTAMONT","NY","12009"
15937,"1071 LOWER PINDELL ROAD","LOTHIAN","MD","20711"
15938,"1071 NW 122ND TERR","PEMBROKE PINES","FL","33026"
15939,"1071 OAK PLAINS ROAD","CLARKSVILLE","TN","37043"
15940,"1071 OXFORD ROAD","ATLANTA","GA","30306"
15941,"1071 PARKVIEW BOULEVARD","PITTSBURGH","PA","15217"
15942,"1071 POST ROAD EAST SUITE 201","WESTPORT","CT","06880"
15943,"1071 PRESIDENT AVE PO BOX 9412","FALL RIVER","MA","02720"
15944,"1071 ROUND TOP LANE","CASTLE ROCK","CO","80108"
15945,"1071 S BROADWAY ST","FOREST CITY","NC","28043"
15946,"1071 S DEE ANN AVENUE","FRESNO","CA","93727"
15947,"1071 SAINT GALLEN AVE W","MOBILE","AL","36608"
15948,"1071 SCARLETT LN","BAUXITE","AR","72011"
15949,"1071 SE BUTTONWOOD CIRCLE","STUART","FL","34997"
15950,"1071 SOUTHERN ARTERY APT 203","QUINCY","MA","02169"
15951,"1071 STATE ROUTE 143","RAVENA","NY","12143"
15952,"1071 TURNER WARNELL RD","ARLINGTON","TX","76001"
15953,"1071 VICTORIA LANE NE","LELAND","NC","28451"
15954,"1071 W 15TH ST UNIT 110","CHICAGO","IL","60608"
15955,"1071 W ANTELOPE CREEK WAY","ORO VALLEY","AZ","85737"
15956,"1071 W KIRK PL","SAN ANTONIO","TX","78226"
15957,"1071 WATERBIRD WAY","SANTA CLARA","CA","95051"
15958,"1071 WEST JAMAICA ROAD","JAMAICA","VT","05343"
15959,"1071 WYNN CIRCLE","LIVERMORE","CA","94550"
15960,"1071 XAVIER","FLORENCE","KS","66851"
15961,"1071","GRAHAM","TX","76450"
15962,"10710 140TH AVE NE","REDMOND","WA","98053"
15963,"10710 BAILEY DRIVE","CHELTENHAM","MD","20623"
15964,"10710 BALTIMORE AVENUE","BELTSVILLE","MD","20705"
15965,"10710 E WRENWOOD LANE","CLOVIS","CA","93619"
15966,"10710 FRISCO STREET","FRISCO","TX","75034"
15967,"10710 KINNEIL RD","NEW ORLEANS","LA","70127"
15968,"10710 NE 38TH AVE","VANCOUVER","WA","98686"
15969,"10710 NW 215TH LANE ROAD","MICANOPY","FL","32667"
15970,"10710 NW 66 ST APT 405","MIAMI","FL","33178"
15971,"10710 PINKNEY LN","AUSTIN","TX","78739"
15972,"10710 S HOLLEY ST","JENKS","OK","74037"
15973,"10710 S SAM HOUSTON PKWY W STE 100","HOUSTON","TX","77031"
15974,"10710 WESTMINSTER BLVD","WESTMINSTER","CO","80020"
15975,"10711 CEDAR STREET","OMAHA","NE","68124"
15976,"10711 E 121ST STREET","FISHERS","IN","46037"
15977,"10711 SOUTH CHAMPLAIN AVENUE","CHICAGO","IL","60628"
15978,"10712 62ND AVE S","SEATTLE","WA","98178"
15979,"10712 BAMBOO ROD CIRCLE","RIVERVIEW","FL","33569"
15980,"10712 BRISTOL TER","KANSAS CITY","MO","64134"
15981,"10712 CHESTNUT ST","LOS ALAMITOS","CA","90720"
15982,"10712 E HOPE DR","SCOTTSDALE","AZ","85259"
15983,"10712 FIRST COURT","MOKENA","IL","60448"
15984,"10712 GREENWICH LANE","WELLINGTON","FL","33414"
15985,"10712 HINTON WAY","MANASSAS","VA","20112"
15986,"10712 LINEBERRY LANE","FRISCO","TX","75035"
15987,"10712 MILES AVE","CLEVELAND","OH","44105"
15988,"10712 PRUETT LN","GLEN ALLEN","VA","23059"
15989,"10712 S STATE","CHICAGO","IL","60628"
15990,"10712 WINDSOR PL","ORLANDO","FL","32821"
15991,"10713 EVANWOOD DRIVE","LOUISVILLE","KY","40228"
15992,"10713 MONTGOMERY DR","MANASSAS","VA","20111"
15993,"10713 NORTH STRAHORN ROAD","HAYDEN","ID","83835"
15994,"10713 TIDEWATER TRAIL","FREDERICKSBURG","VA","22408"
15995,"10713 WEATHER TOP COURT","LAS VEGAS","NV","89135"
15996,"10714 71ST ROAD 1ST FLOOR","FOREST HILLS","NY","11375"
15997,"10714 BUCKINGHAM CIRCLE","HAMPTON","GA","30228"
15998,"10714 GAZELLE CLIFF","SAN ANTONIO","TX","78245"
15999,"10714 GOLDFISH CIR","ORLANDO","FL","32825"
16000,"10714 N HWY 110","VAN","TX","75790"
