"ID","Address","City","State","Zip"
10501,"10335 CROSS CREEK BLVD STE 23","TAMPA","FL","33647"
10502,"10335 CYPRESS LAKES PRESERVE DR","LAKE WORTH","FL","33449"
10503,"10335 E RAINTREE DR","SCOTTSDALE","AZ","85255"
10504,"10335 PINENEEDLES DRIVE","NEW PORT RICHEY","FL","34654"
10505,"10335 SABLEBROOK LN","HOUSTON","TX","77095"
10506,"10335 VISCOUNT DRIVE","SAINT LOUIS","MO","63136"
10507,"10336 ELDER CREEK RD","SACRAMENTO","CA","95829"
10508,"10336 METCALF AVE","OVERLAND PARK","TX","66212"
10509,"10336 SHADYBROOK DRIVE","BOISE","ID","83704"
10510,"10336 SOUTH WESTERN AVENUE SUITE 8","CHICAGO","IL","60643"
10511,"10337 S BRADEN AVENUE","TULSA","OK","74137"
10512,"10337 TUTHILL RD","SOUTH LYON","MI","48178"
10513,"10337 TUTHILL ROAD","SOUTH LYON","MI","48178"
10514,"10338 138TH AVE SE","RAINIER","WA","98576"
10515,"10338 KARSTON AVE NE","ALBERTVILLE","MN","55301"
10516,"10338 SW 187 STREET","MIAMI","FL","33157"
10517,"10339 QUAIL CROWN DRIVE","NAPLES","FL","34119"
10518,"10339 S 2420 E","SANDY","UT","84092"
10519,"10339 S CORLISS AVENUE","CHICAGO","IL","60628"
10520,"10339 TRACERY CT","PARKER","CO","80134"
10521,"1034  E BROOKS ROAD","MEMPHIS","TN","38116"
10522,"1034 66TH AVENUE","OAKLAND","CA","94621"
10523,"1034 ALICE SPRINGS CIRCLE","SPRING HILL","TN","37174"
10524,"1034 AMBER DRIVE","COLUMBUS","GA","31907"
10525,"1034 ASTOUNDING HILLS DRIVE","HENDERSON","NV","89052"
10526,"1034 COOK DR SE","WASHINGTON","DC","20032"
10527,"1034 COURT ST","MARTINEZ","CA","94553"
10528,"1034 CR 445","ENTERPRISE","AL","36330"
10529,"1034 E 47TH STREET","CHICAGO","IL","60653"
10530,"1034 E GRAND BLANC RD","GRAND BLANC","MI","48439"
10531,"1034 E VALENCIA AVE","BURBANK","CA","91501"
10532,"1034 E WASHINGTON LANE","PHILADELPHIA","PA","19138"
10533,"1034 GATEWAY BLVD STE 107","BOYNTON BEACH","FL","33426"
10534,"1034 GERMAN SCHOOL RD","RICHMOND","VA","23225"
10535,"1034 HOLLISTER AVE","SAN FRANCISCO","CA","94124"
10536,"1034 INDIANA AVENUE","TOLEDO","OH","43607"
10537,"1034 IOWA ST","CEDAR FALLS","IA","50613"
10538,"1034 MADISON 9230","FREDERICKTOWN","MO","63645"
10539,"1034 MIRAMAR STREET","LAGUNA BEACH","CA","92651"
10540,"1034 MORGAN DRIVE","NEW ALBANY","MS","38652"
10541,"1034 MOSSY KNOLL DR","CORDOVA","TN","38018"
10542,"1034 N WELLS STREET","CHICAGO","IL","60610"
10543,"1034 NICHOLS CIRCLE EAST","GALLATIN","TN","37066"
10544,"1034 PIONEER TRL","BAYPORT","MN","55003"
10545,"1034 PUTNAM ST","SANDUSKY","OH","44870"
10546,"1034 QUAIL HAVEN LN","ROCKWELL","NC","28138"
10547,"1034 QUARTER HORESE ROAD","DUNCAN","AZ","85534"
10548,"1034 S BRENTWOOD BLVD  SUITE PH-1B","SAINT LOUIS","MO","63117"
10549,"1034 S BRENTWOOD BLVD STE 1201","SAINT LOUIS","MO","63117"
10550,"1034 S GRAND TRAVERSE","FLINT","MI","48502"
10551,"1034 SABLE","RANCHO SANTA MARGARI","CA","92688"
10552,"1034 SW LIGHTHOUSE DR","PALM CITY","FL","34990"
10553,"1034 W 252ND ST","HARBOR CITY","CA","90710"
10554,"1034 W ANN ARBOR TRAIL","PLYMOUTH","MI","48170"
10555,"1034 WEALTHY ST","GRAND RAPIDS","MI","49506"
10556,"1034 WEST BIRCHWOOD DRIVE","WASHINGTON","UT","84780"
10557,"1034 WESTVIEW DR","BOULDER","CO","80303"
10558,"1034 WILLOW WEST DRIVE","HOUSTON","TX","77073"
10559,"10340 CHARWOOD CT","RCH CUCAMONGA","CA","91737"
10560,"10340 SCHAEFFER RD","EVANSVILLE","IN","47720"
10561,"10340 TOWNSHIP HIGHWAY 132","NEVADA","OH","44849"
10562,"103400 OVERSEAS HWY SUITE 211","KEY LARGO","FL","33037"
10563,"103400 OVERSEAS HWY SUITE 237","KEY LARGO","FL","33037"
10564,"10341 BENNETT ROAD","ERIE","PA","16510"
10565,"10341 CIRCULO DE JUAREZ","FOUNTAIN VALLEY","CA","92708"
10566,"10341 LINN STATION RD","LOUISVILLE","KY","40223"
10567,"10342 EAST LAKEVIEW ROAD","POPLAR","WI","54864"
10568,"10342 ENCINO AVE","GRANADA HILLS","CA","91344"
10569,"10342 TULLIS AVENUE","KANSAS CITY","MO","64134"
10570,"10343 BEALLSVILLE STREET","LAS VEGAS","NV","89141"
10571,"10343 LADY GRACE LN","CHARLOTTE","NC","28270"
10572,"10344 BURNED OAK LANE","ESCONDIDO","CA","92026"
10573,"10344 EAST VENADO TRAIL","SCOTTSDALE","AZ","85262"
10574,"10344 ESCONDIDO CANYON ROAD","AGUA DULCE","CA","91390"
10575,"10344 WHITTIER COURT","WHITE PLAINS","MD","20695"
10576,"10345 CREEK RD","OAK VIEW","CA","93022"
10577,"10345 DAYLILY STREET","APPLE VALLEY","CA","92308"
10578,"10345 MICANOPY ST","TRINITY","FL","34655"
10579,"10345 NATIONS FORD ROAD SUITE C","CHARLOTTE","NC","28217"
10580,"10345 NATIONS FORD ROAD SUITE C","CHARLOTTE","NC","28273"
10581,"10345 PIONEER TRAIL","GREENFIELD","MN","55357"
10582,"10346 PLUMERIA CT UNIT 1","RANCHO CUCAMONGA","CA","91730"
10583,"10346 ZELZAH AVE UNIT 8","NORTHRIDGE","CA","91326"
10584,"10347 BATTLE COURT","CHARLOTTE","NC","28215"
10585,"10347 CROSS CREEK BLVD / STE A","TAMPA","FL","33647"
10586,"10347 S EWING AVENUE","CHICAGO","IL","60617"
10587,"10347 SILVERBERRY STREET","APPLE VALLEY","CA","92308"
10588,"10348 CALIFORNIA AVE","SOUTH GATE","CA","90280"
10589,"10348 CHADBOURNE DR","TAMPA","FL","33624"
10590,"10348 KIDRON AVENUE UNIT B","ENGLEWOOD","FL","34224"
10591,"10348 RIVERSIDE DRIVE","TOLUCA LAKE","CA","91602"
10592,"10349 4TH AVE S","BLOOMINGTON","MN","55420"
10593,"10349 BLACKMAN RD","KINGSLEY","MI","49649"
10594,"10349 BUGLENOTE WAY","COLUMBIA","MD","21044"
10595,"10349 LETTUCE LEAF ST","LAS VEGAS","NV","89183"
10596,"10349 S WOOD STREET","CHICAGO","IL","60643"
10597,"1035 11TH RD","LINN","KS","66953"
10598,"1035 16TH AVE NORTH","NASHVILLE","TN","37208"
10599,"1035 1ST AVE WEST","KALISPELL","MT","59901"
10600,"1035 240TH AVE","HAYS","KS","67601"
10601,"1035 4TH ST NW","ALTOONA","IA","50009"
10602,"1035 53RD STREET","BROOKLYN","NY","11219"
10603,"1035 7TH ST","OAKLAND","CA","94607"
10604,"1035 ARLINGTON AVE N APT 404","ST PETERSBURG","FL","33705"
10605,"1035 BELL AVENUE","YEADON","PA","19050"
10606,"1035 BENFIELD BLVD  SUITE 3","MILLERSVILLE","MD","21108"
10607,"1035 BIG TORCH ST","RIVIERA BEACH","FL","33407"
10608,"1035 BRENTWOOD WAY APT B","ATLANTA","GA","30350"
10609,"1035 CAMBRIDGE ST","CAMBRIDGE","MA","02141"
10610,"1035 CHAPEL HILL DRIVE","LAWRENCEVILLE","GA","30045"
10611,"1035 CR 600 N","TOLONO","IL","61880"
10612,"1035 E 153RD STREET","SOUTH HOLLAND","IL","60473"
10613,"1035 E JAMES STREET","WHITE CLOUD","MI","49349"
10614,"1035 EAST ANNIE","FORT WORTH","TX","76104"
10615,"1035 ESTATES VILLAGE LANE","RICHMOND","VA","23226"
10616,"1035 EXECUTIVE PARK AVE","BATON ROUGE","LA","70806"
10617,"1035 FAIRLAWN AVE","VIRGINIA BEACH","VA","23455"
10618,"1035 FRANKLIN GATEWAY","MARIETTA","GA","30067"
10619,"1035 HARBOR AVE 13062","MEMPHIS","TN","38113"
10620,"1035 HEATHER GLEN DRIVE","MATTHEWS","NC","28104"
10621,"1035 HUNTERS CREEK DRIVE","DESOTO","TX","75115"
10622,"1035 HUTTON ST","WINSTON SALEM","NC","27103"
10623,"1035 IRWIN AVE","FRESNO","CA","93612"
10624,"1035 LARKENS WAY","MEDINA","OH","44256"
10625,"1035 MCCLARDY RD","CLARKSVILLE","TN","37042"
10626,"1035 MUMMA ROAD SUITE 103","WORMLEYSBURG","PA","17403"
10627,"1035 N BROADWAY AVE","SPRINGFIELD","MO","65802"
10628,"1035 N GARDNER STREET","WEST HOLLYWOOD","CA","90046"
10629,"1035 N MARION ST UNIT 4","DENVER","CO","80218"
10630,"1035 N UNION ROAD","MANTECA","CA","95336"
10631,"1035 NEW CUT RD","LEXINGTON","NC","27292"
10632,"1035 OAKRIDGE DRIVE","LANESVILLE","IN","47136"
10633,"1035 PEARL ST SUITE 206","BOULDER","CO","80302"
10634,"1035 PEARL STREET 422","BOULDER","CO","80302"
10635,"1035 PEARL STREET SUITE 406A","BOULDER","CO","80302"
10636,"1035 PEMBROKE STREET","BRIDGEPORT","CT","06608"
10637,"1035 PROUTY WAY","SAN JOSE","CA","95129"
10638,"1035 RILEY RIDGE","EDMOND","OK","73025"
10639,"1035 ROCHOW ST APT 1454","HOUSTON","TX","77019"
10640,"1035 ROSEHILL DRIVE","BOULDER","CO","80302"
10641,"1035 S  PRAIRIE AVE STE  4","INGLEWOOD","CA","90301"
10642,"1035 S 4TH STREET","LOUIVILLE","KY","40203"
10643,"1035 S SEMORAN BLVD  2-1047","WINTER PARK","FL","32792"
10644,"1035 S SEMORAN BLVD 1047","WINTER PARK","FL","32792"
10645,"1035 SCALES ROAD 7403","SUWANEE","GA","30024"
10646,"1035 SEMINOLE SKY DR","RUSKIN","FL","33570"
10647,"1035 SOUTH ALKIRE STREET","LAKEWOOD","CO","80228"
10648,"1035 SOUTH CRESCENT HEIGHTS BLVD","LOS ANGELES","CA","90035"
10649,"1035 SW 12TH ST","MIAMI","FL","33135"
10650,"1035 TIMBERLINE PL","ALPHARETTA","GA","30005"
10651,"1035 TUSCALOOSA AVENUE","GADSDEN","AL","35901"
10652,"1035 U STREET","FRESNO","CA","93721"
10653,"1035 UNIVERSITY DRIVE ROOM SMED145","DULUTH","MN","55812"
10654,"1035 UNIVERSITY STREET","MEMPHIS","TN","38107"
10655,"1035 W ROUNDBUNCH","BRIDGE CITY","TX","77611"
10656,"1035 WASHINGTON AVENUE APT GR4","BROOKLYN","NY","11225"
10657,"1035 WASHINGTON AVENUE GR4","BROOKLYN","NY","11225"
10658,"1035 WEST 61ST STREET","CHICAGO","IL","60636"
10659,"1035 WEST AVENUE I","LANCASTER","CA","93534"
10660,"1035 WILLIAM ST","BUFFALO","NY","14206"
10661,"1035 WILLOW GLEN WAY","SAN JOSE","CA","95125"
10662,"1035","MANTENO","IL","60950"
10663,"1035","TUCSON","AZ","85719"
10664,"10350 DEARLOVE ROAD STE E","GLENVIEW","IL","60025"
10665,"10350 EAGLE LAKE DRIVE","ESCONDIDO","CA","92029"
10666,"10350 LANDS END DR 1703","HOUSTON","TX","77099"
10667,"10350 N VANCOUVER WAY 345","PORTLAND","OR","97217"
10668,"10350 ORMSBY PARK PLACE SUITE 200","LOUISVILLE","KY","40223"
10669,"10350 SIERRA VISTA AVE","LA MESA","CA","91941"
10670,"10350 UNION GROVE ROAD","GLADEWATER","TX","75647"
10671,"10350 WHIP O WILL WAY","HELOTES","TX","78023"
10672,"10351 E 12 3/4 ROAD","MANTON","MI","49663"
10673,"10351 S SASABE","TUCSON","AZ","85736"
10674,"10351 SW WHOOPING CRANE WAY","PALM CITY","FL","34990"
10675,"10351 SYCAMORE ST NW","COON RAPIDS","MN","55433"
10676,"10352 CORBEIL DRIVE","SAINT LOUIS","MO","63146"
10677,"10353 CROSS CREEK BLVD SUITE F","TAMPA","FL","33647"
10678,"10353 E STAR OF THE DESERT DR","SCOTTSDALE","AZ","85255"
10679,"10353 ORCHARD TRAIL N","BROOKLYN PARK","MN","55443"
10680,"10354 LEDBETTER ROAD","ASHLAND","VA","23005"
10681,"10354 S RHODES","CHICAGO","IL","60628"
10682,"10354 SHASTA BLVD","LOS MOLINOS","CA","96055"
10683,"10355 BURGUNDY WAY","SEBASTOPOL","CA","95472"
10684,"10355 DAWSON CREEK BLVD SUITE F","FT WAYNE","IN","46825"
10685,"10355 S MILLS AVE UNIT 218","MONTCLAIR","CA","91763"
10686,"10355 TONITA WAY","CUPERTINO","CA","95014"
10687,"10355 VALLEY RD NE PO BOX 4488","ROLLINGBAY","WA","98061"
10688,"10355 WHITECROWN CIRCLE","CORONA","CA","92883"
10689,"10356 KETTERING LANE","PARKER","CO","80134"
10690,"10357 MENLO OAKS COURT","ELK GROVE","CA","95624"
10691,"10357 OLD HAMMOND HWY","BATON ROUGE","LA","70816"
10692,"10358 ORCHARD TRAIL N","BROOKLYN PARK MN 554","MN","55443"
10693,"10358 W HASKELL CT","WICHITA","KS","67209"
10694,"10359 S THICKET PLACE","HEREFORD","AZ","85615"
10695,"10359 W ORCHIDS","PEORIA","AZ","85382"
10696,"1035D SOUTH POST OAK SUITE 111","HOUSTON","TX","77035"
10697,"1036 ARBOLADO RD","SANTA BARBARA","CA","93103"
10698,"1036 ARCARO DRIVE","GAHANNA","OH","43235"
10699,"1036 BOWEN LN","QUINCY","MI","49082"
10700,"1036 BRADFORD PARK RD","MT JULIET","TN","37122"
10701,"1036 CAMPBELL MEADOW ROAD","OWINGS MILLS","MD","21117"
10702,"1036 CEDAR FOREST DR","CONROE","TX","77384"
10703,"1036 COUNTY STREET 2945","TUTTLE","OK","73089"
10704,"1036 DUNN AVE SUITE 4 PMB 244","JACKSONVILLE","FL","32218"
10705,"1036 E ADELAIDE DR","TUCSON","AZ","85719"
10706,"1036 E IRON EAGLE  STE 130","EAGLE","ID","83616"
10707,"1036 EAST MAPLE STREET","SPOONER","WI","54801"
10708,"1036 EAST SEDGWICK STREET","PHILADELPHIA","PA","19150"
10709,"1036 ECKENRODE WAY","PLACENTIA","CA","92870"
10710,"1036 FISH CREEK RD","WHEATLAND","WY","82201"
10711,"1036 HEARTH LN SW","CONCORD","NC","28025"
10712,"1036 HEATHER HEATH","HOWELL","MI","48843"
10713,"1036 HEZEKIAH ROAD","EASTOVER","SC","29044"
10714,"1036 HIGH AVE","SHEBOYGAN","WI","53081"
10715,"1036 KADEL DRIVE","GENESEO","IL","61254"
10716,"1036 KERN ST","WATERLOO","IA","50703"
10717,"1036 KIPLING ROAD","CHARLESTON","SC","29407"
10718,"1036 LAFFERTY LANE","DOVER","DE","19901"
10719,"1036 LIBERTY PARK DR UNIT 4B","AUSTIN","TX","78746"
10720,"1036 LONESTONE CT SE","CHATFIELD","MN","55923"
10721,"1036 MAYSON TURNER RD NW","ATLANTA","GA","30314"
10722,"1036 MITSY HOLLOW DR NE","MARIETTA","GA","30068"
10723,"1036 MLK DR","WINNSBORO","LA","71295"
10724,"1036 N MONTEZUMA CASTLE HWY","CAMP VERDE","AZ","86322"
10725,"1036 N PINE HILLS RD","ORLANDO","FL","32808"
10726,"1036 N RD 1 WEST","CHINO VALLEY","AZ","86323"
10727,"1036 NW FIRST CT","HALLANDALE BEACH","FL","33009"
10728,"1036 NW PROSPECT","GRANTS PASS","OR","97526"
10729,"1036 PACIFIC BEACH DRIVE","SAN DIEGO","CA","92109"
10730,"1036 PENINSULA STREET","VENTURA","CA","93001"
10731,"1036 PURDUE DR","LONGMONT","CO","80503"
10732,"1036 RANDOLPH STREET","HOUSTON","TX","77088"
10733,"1036 RIDGETOP DR","JUSTIN","TX","76247"
10734,"1036 S 4TH AVENUE","TUCSON","AZ","85701"
10735,"1036 S CLARK BLVD","CLARKSVILLE","IN","47129"
10736,"1036 STRAWBERRY","ELLENWOOD","GA","30294"
10737,"1036 THICKET WYND","VIRGINIA BEACH","VA","23155"
10738,"1036 TICONDEROGA TRAIL","EAGAN","MN","55123"
10739,"1036 TIMBERVALLEY WAY","SPRING HILL","TN","37174"
10740,"1036 UPNOR RD","BALTIMORE","MD","21212"
10741,"1036 US-301 N","SARASOTA","FL","34236"
10742,"1036 W FRONT STREET","PLAINFIELD","NJ","07063"
10743,"1036 WEBSTER STREET","NEW ORLEANS","LA","70118"
10744,"1036 WEST KIRKLAND AVE STE 101","NASHVILLE","TN","37216"
10745,"1036","LAPEL","IN","46051"
10746,"10360 72ND ST","LARGO","FL","33777"
10747,"10360 BUTLER DR","BROWNSBURG","IN","46112"
10748,"10360 E JENAN DR","SCOTTSDALE","AZ","85004"
10749,"10360 E JENAN DR","SCOTTSDALE","AZ","85260"
10750,"10360 EAST OUTER DR","DETROIT","MI","48224"
10751,"10360 LORETO RIDGE DRIVE","KIRTLAND","OH","44094"
10752,"10360 NW 30TH COURT 402","SUNRISE","FL","33322"
10753,"10360 RILLRIDGE COURT","ALPHARETTA","GA","30022"
10754,"10360 SW 186TH STREET 971884","MIAMI","FL","33197"
10755,"10360 WATERSIDE COURT","PARKLAND","FL","33076"
10756,"10361 ESTATES DRIVE","TRUCKEE","CA","96161"
10757,"10361 SW 146 ST","MIAMI","FL","33176"
10758,"10362 COLE ROAD","WHITTIER","CA","90603"
10759,"10362 HART BRANCH CIRCLE","ORLANDO","FL","32832"
10760,"10362 OLD OLIVE STREET RD STE 217","CREVE COEUR","MO","63141"
10761,"10362 PLEASANTS CIRCLE","DOSWELL","VA","23047"
10762,"10362 SHOWBOAT LANE","ROYAL PALM BEACH","FL","33411"
10763,"10362 W SYLVIA STREET","MILWAUKEE","WI","53224"
10764,"10363 ATLEE STATION RD","MECHANICSVLLE","VA","23116"
10765,"10363 BRAEMAR DRIVE","POWELL","OH","43065"
10766,"10363 BRIDLE COURT","HAGERSTOWN","MD","21740"
10767,"10363 CAMINITO COVEWOOD","SAN DIEGO","CA","92131"
10768,"10363 E HUDSON RD","MAZOMANIE","WI","53560"
10769,"10363 HUFFORD RANCH RD","WHITMORE","CA","96096"
10770,"10363 HUFFORD RANCH RD","WHITMORE","CO","96096"
10771,"10363 LEIGHTON PLACE","MANASSAS","VA","20110"
10772,"10363 RIFLE FALLS WAY","COLORADO SPRINGS","CO","80924"
10773,"10363 SW 24TH STREET","MIRAMAR","FL","33025"
10774,"10363 W SAMPLE ROAD","CORAL SPRINGS","FL","33065"
10775,"10363","SAN ANTONIO","TX","78245"
10776,"10364 FOREST BROOK LANE UNIT G","CREVE COEUR","MO","63146"
10777,"10364 S 950 E","STENDAL","IN","47585"
10778,"10365 DAVENPORT STREET NE","BLAINE","MN","55449"
10779,"10365 SW 111ST","MIAMI","FL","33176"
10780,"10366 FRANK GREG WAY","ELK GROVE","CA","95757"
10781,"10366 ROCKINGHAM","SACRAMENTO","CA","95827"
10782,"10366 STAGECOACH PARK COURT","COLORADO SPRINGS","CO","80924"
10783,"10366 WINDROSE CURVE","ELKO","MN","55020"
10784,"10367 HALLORAN ROAD","BOW","WA","98232"
10785,"10368 CRAFTSMAN WAY APT 309","SAN DIEGO","CA","92127"
10786,"10368 EDGEWATER DRIVE","KELSEYVILLE","CA","95451"
10787,"10368 SPRING GARDEN RD","MANITO","IL","61546"
10788,"1037 26TH ROAD S","ARLINGTON","VA","22202"
10789,"1037 2ND COURT WEST","BIRMINGHAM","AL","35204"
10790,"1037 ANTHEM LANE UNIT 5306","FAYETTEVILLE","NC","28311"
10791,"1037 AQUARIUS WAY","OAKLAND","CA","94611"
10792,"1037 AUTUMN CREST DR","STONE MOUNTAIN","GA","30083"
10793,"1037 BENTOAK LN","SAN JOSE","CA","95129"
10794,"1037 BLANKENSHIP","LAS VEGAS","NV","89106"
10795,"1037 BOXWOOD DR","CRYSTAL LAKE","IL","60014"
10796,"1037 BROOKSHIRE COURT APT 1","BELLEVILLE","IL","62221"
10797,"1037 BULLARD COURT SUITE 208","RALEIGH","NC","27615"
10798,"1037 CALYPSO DR","LAKE ARIEL","PA","18436"
10799,"1037 COBLE AVENUE","ALBEMARLE","NC","28001"
10800,"1037 DELFIELD DRIVE","BETHEL PARK","PA","15102"
10801,"1037 E OHIO","INDIANAPOLIS","IN","46202"
10802,"1037 EAST AVENUE K SIUTE 1","LANCASTER","CA","93535"
10803,"1037 FRANK ST","ROSELLE","NJ","07203"
10804,"1037 HUNTING RIDGE ROAD SUITE D","RALEIGH","NC","27615"
10805,"1037 MAIN STREET","DARBY","PA","19023"
10806,"1037 MANNING ST","GREAT FALLS","VA","22066"
10807,"1037 MOELLER ROAD","NEW HAVEN","IN","46774"
10808,"1037 N FERRY ST","LUDINGTON","MI","49431"
10809,"1037 NARANJO DR","GEORGETOWN","TX","78628"
10810,"1037 NE 65TH ST 113","SEATTLE","WA","98115"
10811,"1037 NE 65TH ST 80804","SEATTLE","WA","98115"
10812,"1037 NE 65TH ST NUMBER 81384","SEATTLE","WA","98115"
10813,"1037 NE HIDDEN VALLEY DRIVE","BEND","OR","97701"
10814,"1037 NORTH DAMEN AVENUE APT 3","CHICAGO","IL","60622"
10815,"1037 PINECREST TERRACE","ASHLAND","OR","97520"
10816,"1037 RAMAH CHURCH ROAD","LETOHATCHEE","AL","36047"
10817,"1037 RAMONA ST","SAN GABRIEL","CA","91776"
10818,"1037 RIVER VIEW DRIVE","CODY","WY","82414"
10819,"1037 S BURNSIDE AVENUE","LOS ANGELES","CA","90019"
10820,"1037 S POSEYVILLE RD","MIDLAND","MI","48640"
10821,"1037 SANDPIPER LN","SANTA BARBARA","CA","93110"
10822,"1037 SEVILLA AVENUE","CORAL GABLES","FL","33134"
10823,"1037 SHACKAMAXON STREET","PHILADELPHIA","PA","19125"
10824,"1037 SHASTA DAISY DR","WAKE FOREST","NC","27587"
10825,"1037 STONES THROW DR","HUNTSVILLE","AL","35806"
10826,"1037 SUFFOLK WAY","FAIRFIELD","CA","94533"
10827,"1037 W 112TH PLACE","CHICAGO","IL","60643"
10828,"1037 W 63RD ST N","TULSA","OK","74126"
10829,"1037 W MCKINLEY AVE MB 301","MILWAUKEE","WI","53205"
10830,"1037 W MCKINLEY AVE NUM 301","MILWAUKEE","WI","53205"
10831,"1037 W MCKINLEY AVE STE 301","MILWAUKEE","WI","53205"
10832,"1037 W MCKINLEY AVE STE 400","MILWAUKEE","WI","53205"
10833,"1037 WARPERS LANE","FORT MILL","SC","29715"
10834,"1037 WELLINGTON RD","LAWRENCE","KS","66049"
10835,"1037 WEST 63RD STREET NORTH","TULSA","OK","74126"
10836,"1037 WHITECLIFF DRIVE","KIRKWOOD","MO","63122"
10837,"1037 WILLOW ST","OAKLAND","CA","94607"
10838,"1037 WOODWARD","AKRON","OH","44310"
10839,"1037","ELLENWOOD","GA","30294"
10840,"10370 BOYNE CITY ROAD","CHARLEVOIX","MI","49720"
10841,"10370 CITATION DRIVE","BRIGHTON","MI","48116"
10842,"10370 E 250 NORTH","CHARLOTTESVILLE","IN","46117"
10843,"10370 MARSHALL RD","SOUTH LYON","MI","48178"
10844,"10370 OLD 3 C","CLARKSVILLE","OH","45113"
10845,"10370 SW 200TH STREET","CULTER BAY","FL","33157"
10846,"10370 SW 51ST TERRACE","OCALA","FL","34476"
10847,"10370 SWIFTSTREAM PL APT 307","COLUMBIA","MD","21044"
10848,"10370 VERNON AVE 9","MONTCLAIR","CA","91763"
10849,"10370 WOODLAND DRIVE","DEMOTTE","IN","46310"
10850,"10371 EAST SUNNYWOOD DRIVE","TUCSON","AZ","85749"
10851,"10371 SW 152ND STREET","MIAMI","FL","33157"
10852,"10371B JAY STREET","LEWIS MCCHORD","WA","98433"
10853,"10372 SPLENDOR RIDGE AVE","LAS VEGAS","NV","89135"
10854,"10372 W MCFADDEN AVE","WESTMINSTER","CA","92683"
10855,"10373 GIBSON LAKE RD","DARDANELLE","AR","72834"
10856,"10373 HIGHWAY 90 - UNIT D","LITTLE RIVER","SC","29566"
10857,"10373 WAGER ROAD","BENTONVILLE","AR","72712"
10858,"10374 HEDGEAPPLE BND","NEW MARKET","MD","21774"
10859,"10374 HWY 165 N STE B","STERLINGTON","LA","71280"
10860,"10374 STANSFIELD ROAD","LAUREL","MD","20723"
10861,"10375 CHURCH STREET UNIT 83","RANCHO CUCAMONGA","CA","91730"
10862,"10375 CHURCH STREET","RANCHO CUCAMONGA","CA","91730"
10863,"10375 HUNTSMAN RD","COLORADO SPRINGS","CO","80908"
10864,"10375 LITTLE PATUXENT PARKWAY","COLUMBIA","MD","21044"
10865,"10375 PARK MEADOWS DR STE 350","LONE TREE","CO","80124"
10866,"10375 PERRY HWY","WEXFORD","PA","15090"
10867,"10375 WORTHINGTON HILLS MANOR","ROSWELL","GA","30076"
10868,"10376 PALMWOOD PLACE","WEEKI WACHEE","FL","34613"
10869,"10378 LOFTIN DRIVE","OLIVE BRANCH","MS","38654"
10870,"10379 JANJA COURT","MANASSAS","VA","20110"
10871,"1038 1ST AVE E","SHAKOPEE","MN","55379"
10872,"1038 31ST ST NW","WASHINGTON","DC","20007"
10873,"1038 5TH ST","GRETNA","LA","70053"
10874,"1038 BOSTON ROAD APT 3D","BRONX","NY","10456"
10875,"1038 BRENT ST UNIT 100","LOUISVILLE","KY","40204"
10876,"1038 BROADWAY ST NE","SALEM","OR","97301"
10877,"1038 BUCKEYE RD","MINDEN","NV","89423"
10878,"1038 BUDDLEIA CT","FLORENCE","KY","41042"
10879,"1038 CLEARLAKE RD","COCOA","FL","32922"
10880,"1038 COLD RIVER RUN RD","WESTFIELD","NC","27053"
10881,"1038 CRESSMONT ST","BOSSIER CITY","LA","71111"
10882,"1038 DEER RUN CT","STAUNTON","IL","62088"
10883,"1038 E LAKESHORE DR","GREENSBURG","IN","47240"
10884,"1038 GRACEWOOD DRIVE","LIBERTYVILLE","IL","60048"
10885,"1038 HAMPTON ROAD","HAMPTON","GA","30228"
10886,"1038 HAWKINS AVENUE","LAKE GROVE","NY","11755"
10887,"1038 JENKS AVE","PANAMA CITY","FL","32401"
10888,"1038 LANGSTON LN","HAVANA","FL","32333"
10889,"1038 MANSFIELD LANE","DUNCANVILLE","TX","75137"
10890,"1038 MASTELL DRIVE","REYNOLDSBURG","OH","43068"
10891,"1038 N ALVARO","MESA","AZ","85205"
10892,"1038 N EISENHOWER DR PMB 315","BECKLEY","WV","25801"
10893,"1038 N HOLLAND SYLVANIA RD","TOLEDO","OH","43615"
10894,"1038 NORTH MAIN STREET","EMPORIA","VA","23847"
10895,"1038 PRIVATE ROAD 3062","LEXINGTON","TX","78947"
10896,"1038 REGIS RD","JACKSONVILLE","FL","32218"
10897,"1038 RICHARD AVE","BERKELEY","IL","60163"
10898,"1038 RICHARD AVENUE","BERKELEY","IL","60163"
10899,"1038 S ROBERTSON BLVD  STE 4","LOS ANGELES","CA","90035"
10900,"1038 S WHITCOMB AVE","INDIANAPOLIS","IN","46241"
10901,"1038 SANTA QUETA","SOLANA BEACH","CA","92075"
10902,"1038 SLEEPY HOLLOW LANE","PLAINFIELD","NJ","07060"
10903,"1038 SW BARBAROSA AVE","PORT ST LUCIE","FL","34953"
10904,"1038 TUDOR DRIVE","CROWNSVILLE","MD","21032"
10905,"1038 VIA BOLZANO","GOLETA","CA","93117"
10906,"1038 WELLINGTON DRIVE","CHARLESTON","SC","29412"
10907,"1038 WEST MAIN STREET","OLNEY","IL","62450"
10908,"1038 WILLIS DRIVE","JACKSONVILLE","FL","32205"
10909,"1038 WINDSOR DRIVE","GALLATIN","TN","37066"
10910,"10380 EAST HIGHWAY 210","ALTA","UT","84092"
10911,"10380 SW 248TH STREET UNIT 7","PRINCETON","FL","33032"
10912,"10380 SW VILLAGE CENTER DR BOX 362","PORT ST LUCIE","FL","34987"
10913,"10380 SW VILLAGE CENTER DR STE 173","PORT SAINT LUCIE","FL","34987"
10914,"10380 SW VILLAGE CENTER DR","PORT ST LUCIE","FL","34987"
10915,"10381 COVE AVENUE","PENSACOLA","FL","32534"
10916,"10381 HARRY MCDONALD RD","EAGLE RIVER","AK","99577"
10917,"10381 NORTHWEST FREEWAY SUITE 238","HOUSTON","TX","77040"
10918,"10381 NOTTINGHAM AVE","WESTMINSTER","CA","92683"
10919,"10381 S MULINO RD CANBY","CANBY","OR","97013"
10920,"10381 US HWY 301 SOUTH","FOUR OAKS","NC","27524"
10921,"10383 FRANK LANE","SANTEE","CA","92071"
10922,"10383 NEW BRUNSWICK ST","PORT CHARLOTTE","FL","33981"
10923,"10383 SOUTH MORROW CIRCLE","DEARBORN","MI","48126"
10924,"10383 SW 186TH STREET","MIAMI","FL","33157"
10925,"10383 WHITE PALM WAY","FORT MYERS","FL","33966"
10926,"10384 N TAMARACK WAY","CEDAR HILLS","UT","84602"
10927,"10384 SO 2950 WEST","SOUTH JORDAN","UT","84095"
10928,"10385 IRONWOOD RD SUITE 134","PALM BEACH GARDENS","FL","33410"
10929,"10385 ROCKFISH ROAD","RAEFORD","NC","28376"
10930,"10385 W ROCKWOOD ST","BOISE","ID","83704"
10931,"10386 CYPRESS LAKES DRIVE","JACKSONVILLE","FL","32256"
10932,"10386 LOCHCREST DR","CINCINNAT","OH","45231"
10933,"10387 S  DUPONT HWY","FELTON","DE","19943"
10934,"10387 WATER CHEST DRIVE","FISHERS","IN","46038"
10935,"10388 KALAMAZOO AVE","CALEDONIA","MI","49316"
10936,"10388 LONGLEAF DR","CONROE","TX","77385"
10937,"10388 OLD ATLANTA HWY","COVINGTON","GA","30014"
10938,"10388 SE 187TH PL","RENTON","WA","98055"
10939,"10388 SOUTH RANDALL STREET","ORANGE","CA","92869"
10940,"10389 KUMQUAT LN","SEMINOLE","FL","33772"
10941,"1039 240TH AVENUE","SHANNON CITY","IA","50861"
10942,"1039 44TH AVENUE NORTH SUITE 203","MYRTLE BEACH","SC","29577"
10943,"1039 BAINS LAKE DRIVE","JACKSONVILLE","FL","32218"
10944,"1039 BANDELIER DR","ALLEN","TX","75013"
10945,"1039 BASIN ROAD","COLVILLE","WA","99114"
10946,"1039 CR 2450","SHELBYVILLE","TX","75973"
10947,"1039 E BRENNER PL","LONG BEACH","CA","90813"
10948,"1039 E OVERCREST ST","FAYETTEVILLE","AR","72703"
10949,"1039 E W REEVES","PORT GIBSON","MS","39150"
10950,"1039 EAST HEARNE WAY","GILBERT","AZ","85234"
10951,"1039 EMERY ST","EAU CLAIRE","WI","54701"
10952,"1039 FALLS AVENUE","CUYAHOGA FALLS","OH","44221"
10953,"1039 FOLGER AVENUE","BERKELEY","CA","94710"
10954,"1039 FOSTER CITY BLVD APT D","FOSTER CITY","CA","94404"
10955,"1039 GOLDENROD STREET","ESCONDIDO","CA","92027"
10956,"1039 HEATHER COURT","CRYSTAL LAKE","IL","60021"
10957,"1039 LAGUNA SECA LOOP","CHULA VISTA","CA","91915"
10958,"1039 LAWRENCE ROAD","LAWRENCEVILLE","NJ","08648"
10959,"1039 MAIN ROAD","LOCKE","NY","13092"
10960,"1039 MARBANK ST","WAKE FOREST","NC","27587"
10961,"1039 MIRAFLORES DR","CORONA","CA","92882"
10962,"1039 NIAGARA STREET STE 3","BUFFALO","NY","14213"
10963,"1039 NIAGARA STREET SUITE 3","BUFFALO","NY","14213"
10964,"1039 NW 7TH TER   UNIT 1","FORT LAUDERDALE","FL","33311"
10965,"1039 PARK COURT DR","MEMPHIS","TN","38119"
10966,"1039 PINE LOG RD NE APT 4","CONYERS","GA","30012"
10967,"1039 PINE TREE DRIVE","ANN ARBOR","MI","48103"
10968,"1039 ROLLING RIDGE","NEW WINDSOR","NY","12553"
10969,"1039 RUE MALINE","SAINT MARTINVILLE","LA","70582"
10970,"1039 S PARKER RD APT E3","DENVER","CO","80231"
10971,"1039 S PARKER RD B11","DENVER","CO","80231"
10972,"1039 SHAWNEE TRAIL","ELKVIEW","WV","25071"
10973,"1039 SOUTH 1200 EAST","SALT LAKE CITY","UT","84105"
10974,"1039 ST JOHN DR","PEARLAND","TX","77584"
10975,"1039 STERLING ST S","MAPLEWOOD","MN","55119"
10976,"1039 W GENEVA WOODS COURT","PRESCOTT","AZ","86305"
10977,"1039 WEST 24TH","ERIE","PA","16508"
10978,"1039 WEST 30TH STREET","LOS ANGELES","CA","90007"
10979,"1039 WEST GRACE STREET - UNIT 1","CHICAGO","IL","60613"
10980,"1039 WHITE CAP AVE","MANAHAWKIN","NJ","08050"
10981,"1039 WILMINGTON PIKE","WEST CHESTER","PA","19382"
10982,"1039 WOODLAND AVE SE","ATLANTA","GA","30316"
10983,"10390 KAHLER AVE NE","MONTICELLO","MN","55362"
10984,"10390 MORETTI DR","CUPERTINO","CA","95014"
10985,"10390 NW 20TH CT","SUNRISE","FL","33322"
10986,"10390 USA TODAY WAY","MIRAMAR","FL","33025"
10987,"10390 WEST WINDCHIME DR","TUCSON","AZ","85743"
10988,"10391 NORTHERN HILLS AVE","LAS VEGAS","NV","89166"
10989,"10391 PISGAH FOREST LN","CORDOVA","TN","38016"
10990,"10391 WATERSIDE CT","PARKLAND","FL","33076"
10991,"10392 ISLANDER DR","BOCA RATON","FL","33498"
10992,"10392 VILLAGE DRIVE EAST","FORISTELL","MO","63348"
10993,"10393 SAN DIEGO MISSION RD STE 209","SAN DIEGO","CA","92108"
10994,"10393 SEIDEL RD","WINTER GARDEN","FL","34787"
10995,"10394 W SAMPLE ROAD SUITE 200","CORAL SPRINGS","FL","33065"
10996,"10395 HEIMBERGER RD","BALTIMORE","OH","43105"
10997,"10395 NOONTIDE AVE","LAS VEGAS","NV","89135"
10998,"10395 SOQUEL DRIVE","APTOS","CA","95003"
10999,"10396 SNOWBIRD AVE","WEEKI WACHEE","FL","34614"
11000,"10396 TUSCANY RD","ELLICOTT CITY","MD","21042"
