"ID","Address","City","State","Zip"
322501,"BOX 430","WASHINGTON","VA","22747"
322502,"BOX 43111","LUBBOCK","TX","79409"
322503,"BOX 434","FAIRFAX","MN","55332"
322504,"BOX 4382","PAGO PAGO","AS","96799"
322505,"BOX 44","BRISCOE","TX","79011"
322506,"BOX 44","VERSAILLES","OH","45380"
322507,"BOX 440","YELLOW SPRINGS","OH","45387"
322508,"BOX 441","GENESEO","IL","61254"
322509,"BOX 442","DUPLESSIS","LA","70728"
322510,"BOX 444","INKSTER","MI","48141"
322511,"BOX 456 127 NOBLE ST","SHIRLEY","IN","47384"
322512,"BOX 459","SMITHERS","WV","25186"
322513,"BOX 467","GRANBY","MO","64844"
322514,"BOX 4799 WAYNESBURG PIKE","MOUNDSVILLE","WV","26041"
322515,"BOX 481","PAGO PAGO","AS","96799"
322516,"BOX 4871","PINEHURST","NC","28374"
322517,"BOX 4942","SAN LUIS OBISPO","CA","93403"
322518,"BOX 5018","YABUCOA","PR","00767"
322519,"BOX 50698","SUMMERVILLE","SC","29485"
322520,"BOX 51","TAYLOR","TX","76574"
322521,"BOX 52","JOHNSBURG","NY","12843"
322522,"BOX 52","SUTHERLAND","VA","23885"
322523,"BOX 520","WILDOMAR","CA","92562"
322524,"BOX 533","FREDERICK","SD","57441"
322525,"BOX 533","OTIS","MA","01253"
322526,"BOX 537 W GLEASON ROAD","ELFRIEDA","AZ","85610"
322527,"BOX 54","MCDONOUGH","GA","30253"
322528,"BOX 55","BRUNSWICK","ME","04011"
322529,"BOX 55","MT GILEAD","OH","43338"
322530,"BOX 551603","DALLAS","TX","75355"
322531,"BOX 554","BYRON","MN","55920"
322532,"BOX 555355","CAMP PENDLETON","CA","92055"
322533,"BOX 5554","STATELINE","CA","89449"
322534,"BOX 558","TOPANGA","CA","90290"
322535,"BOX 563","DOWAGIAC","MI","49047"
322536,"BOX 570","EDWARDS","CO","81632"
322537,"BOX 5705 CLARKSON UNIVERSITY","POTSDAM","NY","13699"
322538,"BOX 577","PINEDALE","WY","82941"
322539,"BOX 581","HOPE MILLS","NC","28348"
322540,"BOX 581","SHARPSVILLE","PA","16150"
322541,"BOX 585","EAST MACHIAS","ME","04630"
322542,"BOX 589","EUREKA","MT","59917"
322543,"BOX 59 1921 BRONSON ST","PENINSULA","OH","44264"
322544,"BOX 59","ALTON BAY","NH","03810"
322545,"BOX 59311","RENTON","WA","98058"
322546,"BOX 59504","JACKSON","MS","39213"
322547,"BOX 60816","MIDLAND","TX","79711"
322548,"BOX 609","UNION CITY","GA","30291"
322549,"BOX 61","LINDEN","IN","47955"
322550,"BOX 611","MEBANE","NC","27302"
322551,"BOX 61237","RALEIGH","NC","27661"
322552,"BOX 613","FORT WASHINGTON","PA","19034"
322553,"BOX 6182","MAYAGUEZ","PR","00681"
322554,"BOX 6239","WARWICK","RI","02887"
322555,"BOX 626","HOSCHTON","GA","30548"
322556,"BOX 626","SABINAL","TX","78881"
322557,"BOX 629","GARYVILLE","LA","70051"
322558,"BOX 633","RYE","NY","10580"
322559,"BOX 6375","WASHINGTON","DC","20015"
322560,"BOX 64","GIRARD","OH","44420"
322561,"BOX 64769","SOUDERTON","PA","18964"
322562,"BOX 653","MONA","UT","84645"
322563,"BOX 655","MOUNTAIN VIEW","WY","82939"
322564,"BOX 657","DOUGLASSVILLE","PA","19518"
322565,"BOX 66385","VIRGINIA BEACH","VA","23466"
322566,"BOX 670771","DALLAS","TX","75367"
322567,"BOX 6771","SAGINAW","MI","48603"
322568,"BOX 6786","WARWICK","RI","02886"
322569,"BOX 68","PRYOR","MT","59066"
322570,"BOX 681192","MIAMI","FL","33168"
322571,"BOX 690","INEZ","KY","41124"
322572,"BOX 70 GRAHAM STUDENT UNION","CHAPEL HILL","NC","27599"
322573,"BOX 71","CENTERVILLE","SD","57014"
322574,"BOX 71","GREENBACK","TN","37742"
322575,"BOX 7104","RALEIGH","NC","27695"
322576,"BOX 72 LAURA LANE","MANLEY HOT SPRINGS","AK","99756"
322577,"BOX 72","BENSON","NC","27504"
322578,"BOX 72","PICKSTOWN","SD","57367"
322579,"BOX 733","NIAGARA FALLS","NY","14304"
322580,"BOX 7414","BALTIMORE","MD","21227"
322581,"BOX 7414","SAN DIEGO","CA","92167"
322582,"BOX 744","NEW ALBANY","OH","43054"
322583,"BOX 7503","SPOKANE","WA","99207"
322584,"BOX 755","CUSHING","WI","54006"
322585,"BOX 76","FLOURTOWN","PA","19031"
322586,"BOX 7621 NC STATE UNIVERSITY","RALEIGH","NC","27695"
322587,"BOX 763664","DALLAS","TX","75376"
322588,"BOX 779","JOHNSON","KS","67855"
322589,"BOX 78835","LOS ANGELES","CA","90016"
322590,"BOX 8","NORTHFIELD","VT","05663"
322591,"BOX 81","HANNAFORD","ND","58448"
322592,"BOX 8101","EVANSTON","IL","60204"
322593,"BOX 8145","STATESBORO","GA","30460"
322594,"BOX 82","PETERSBURG","AK","99833"
322595,"BOX 844","TRUMANSBURG","NY","14886"
322596,"BOX 8463","LOS ANGELES","CA","90008"
322597,"BOX 848","HAMILTON","MT","59840"
322598,"BOX 850  800 WASHINGTON ST","BOSTON","MA","02111"
322599,"BOX 852","OXON HILL","MD","20744"
322600,"BOX 864","KEARNY","AZ","85137"
322601,"BOX 884","CAYEY","PR","00737"
322602,"BOX 886145","GREAT LAKES","IL","60088"
322603,"BOX 894","ENNIS","MT","59729"
322604,"BOX 894","HOMER","AK","99603"
322605,"BOX 8987","GREEN BAY","WI","54308"
322606,"BOX 90936 1000 POSTAL RD","ALLENTOWN","PA","18109"
322607,"BOX 91F  401 W KENNEDY BLVD","TAMPA","FL","33606"
322608,"BOX 92164","ATLANTA","GA","30314"
322609,"BOX 9224","SCARBOROUGH","NY","10510"
322610,"BOX 94","LAKEWOOD","NY","14750"
322611,"BOX 944","PORTSMOUTH","NH","03802"
322612,"BOX 9476 LOUISVILLE KY 40214","LOUISVILLE","KY","40214"
322613,"BOX 971","RYE","NH","03870"
322614,"BOX 982976","PAGO PAGO","AS","96799"
322615,"BOX 997","B","KY","41314"
322616,"BOX NUMBER 352","BIRMINGHAM","AL","35209"
322617,"BOX-463","BONNER SPRINGS","KS","66012"
322618,"BOX852","FORSYTH","MT","59327"
322619,"BOXT-0040","STEPHENVILLE","TX","76402"
322620,"BQ DE LAS FLORES CALLE TIAGOZAN A26","BAYAMON","PR","00956"
322621,"BRACH EICHLER 101 EISENHOWER PKWY","ROSELAND","NJ","07068"
322622,"BRADLEY ARANT 1819 5TH AVE NO","BIRMINGHAM","AL","35203"
322623,"BRANDEIS ENGLISH DEPARTMENT MS 023","WALTHAM","MA","02453"
322624,"BRANDEL LIBRARY 3225 WEST FOSTER","CHICAGO","IL","60625"
322625,"BRANDY GODSIL 47TH STREET APT 3D","ASTORIA","NY","11103"
322626,"BRANIFF BLDG 324 N ROBINSON S100","OKLAHOMA CITY","OK","73102"
322627,"BRIDGEWAY CHURCH PO BOX 471","WAYNESBORO","MS","39367"
322628,"BROAD STREET - 80963","ATLANTA","GA","30341"
322629,"BROWN RUDNICK ONE FINANCIAL CTR","BOSTON","MA","02111"
322630,"BRUCE FARR 4608 MORRIS COURT","SANTA ROSA","CA","95405"
322631,"BRUCE MUSEUM - 1 MUSEUM DRIVE","GREENWICH","CT","06830"
322632,"BSK PLLC STE 900 200 DELAWARE AVE","BUFFALO","NY","14202"
322633,"BUCARE 2100 SUITE 105 CALLE TURQUES","GUAYNABO","PR","00969"
322634,"BUFFALO COMMUNITY CENTER 206 CENTRA","BUFFALO","MN","55313"
322635,"BUILD LAB - 730 COMMONWEALTH AVENUE","BROOKLINE","MA","02446"
322636,"BUILDING 13 SUITE 207","JACKSONVILLE","FL","32212"
322637,"BUILDING 151","CERRO","NM","87519"
322638,"BUILDING 51 MUSEUM ROAD","GAINESVILLE","FL","32611"
322639,"BURNCOAT HIGH SCHOOL 179 BURNCOAT S","WORCESTER","MA","01606"
322640,"BYU 512 JRCB","Provo","UT","84043"
322641,"C  VITTORIOSO 19 WATER STREET","LEOMINSTER","MA","01453"
322642,"C / O DAVID SHINE FFHSJ 1 NY PLAZA","NEW YORK","NY","10004"
322643,"C ALPIERRE 9 URB COLIMAR","GUAYNABO","PR","00969"
322644,"C HENSYN VILLAGE APT 3A","BUDD LAKE","NJ","07828"
322645,"C O 2707 E VALLEY BLVD STE 300","WEST COVINA","CA","91792"
322646,"C O JIM HALL BANCFIRST PO BOX 1489","MUSKOGEE","OK","74402"
322647,"C SN FRNSCO SUITE 200 PMB 5480","SAN JUAN","PR","00901"
322648,"C VICTORIANO JUAREZ HM13 LEVITTOWN","TOA BAJA","PR","00949"
322649,"C-O 3990 SPRING VALLEY ROAD APT 113","FARMERS BRANCH","TX","75244"
322650,"C-O OCEAN BEACH PARK 98 NEPTUNE AVE","NEW LONDON","CT","06320"
322651,"C/ O 8595 FARVIEW DRIVE","BYRON CENTER","MI","49315"
322652,"C/- BAKER MCKENZIE  452 FIFTH AVENU","NEW YORK","NY","10018"
322653,"C/0 215 BROAD STREET","BERLIN","MD","21811"
322654,"C/0 JAMES D HAYNES 202 JEFFERSON AV","DESOTO","TX","75115"
322655,"C/O  B MAGUIRE 74 9TH AVE B0X 30233","NEW YORK","NJ","10011"
322656,"C/O  DR RYDER  109 EAST 36 ST 4","NEW YORK","NY","10016"
322657,"C/O  FOP LODGE 89 PO BOX 510","LOTHIAN","MD","20711"
322658,"C/O  J HARTON-100 N 20 ST-STE 400","PHILADELPHIA","PA","19103"
322659,"C/O  TONACHEL 175 RICHDALE AVE 310","CAMBRIDGE","MA","02140"
322660,"C/O 1 LITTLE WEST 12TH STREET","NEW YORK","NY","10014"
322661,"C/O 100 EAST VINE STREET  SUITE 800","LEXINGTON","KY","40507"
322662,"C/O 10006 CROSS CREEK BLVD STE 60","TAMPA","FL","33647"
322663,"C/O 1003 BISHOP ST STE 1925","HONOLULU","HI","96813"
322664,"C/O 1003 BISHOP STREET SUITE 465","HONOLULU","HI","96813"
322665,"C/O 1006 NW 87 AVENUE APT 102","MIAMI","FL","33172"
322666,"C/O 101 PETRONIA STREET","KEY WEST","FL","33040"
322667,"C/O 101 TRUDY AVENUE","MUNROE FALLS","OH","44262"
322668,"C/O 1011 28 TH STREET","DES MOINES","IA","50311"
322669,"C/O 1011 MOUNTAIN RIVER DR","LEBANON","OR","97355"
322670,"C/O 1019 WEST WISE ROAD SUITE 100","SCHAUMBURG","IL","60193"
322671,"C/O 1020 BRYN MAWR AVENUE","PENN VALLEY","PA","19072"
322672,"C/O 10455 ARMSTRONG ST STE 123","FAIRFAX","VA","22030"
322673,"C/O 106 COUNTRY CLUB PLACE","BELLEVILLE","IL","62223"
322674,"C/O 1075 DUVAL ST STE C11","KEY WEST","FL","33040"
322675,"C/O 109 WISE ROAD","GREENSBORO","PA","15338"
322676,"C/O 11 DODGE DRIVE","WEST HARTFORD","CT","06107"
322677,"C/O 11 EAST BROADWAY SUITE 10","NEW YORK","NY","10038"
322678,"C/O 110 NW 76TH AVENUE","MIAMI GARDENS","FL","33024"
322679,"C/O 110 OAKWOOD DRIVE SUITE 500","WINSTON-SALEM","NC","27103"
322680,"C/O 1100 H STREET - NW SUITE 840","WASHINGTON","DC","20005"
322681,"C/O 116 S WALNUT STREET","TRINIDAD","CO","81082"
322682,"C/O 116 WEST HOLT STREET","MEBANE","NC","27302"
322683,"C/O 1160 N 2ND ST","LYKENS","PA","17048"
322684,"C/O 1200 SHENADOAH AVENUE","WAYNESBORO","VA","22890"
322685,"C/O 1210 NIGHTSHADE DR","WILLIAMSTOWN","NJ","08094"
322686,"C/O 1251 OAK HILL","DOWNERS GROVE","IL","60515"
322687,"C/O 1254 CLEARWATER DRIVE","MANDEVILLE","LA","70471"
322688,"C/O 1261 FRUITWOOD WAY","TRACY","CA","95376"
322689,"C/O 1308 E 1ST ST","PUEBLO","CO","81001"
322690,"C/O 1361 ROYAL PALM SQ BLVD STE 1","FORT MYERS","FL","33919"
322691,"C/O 14 WRIGHT LANE","BUZZARDS BAY","MA","02532"
322692,"C/O 140 S LAKE AVE STE 300","PASADENA","CA","91101"
322693,"C/O 140 WEST LIBERTY ST","WOOSTER","OH","44691"
322694,"C/O 140 WEST LIBERTY STREET","WOOSTER","OH","44691"
322695,"C/O 1400 HEMLOCK STREET NW","WASHINGTON","DC","20012"
322696,"C/O 1427 N 1153RD LN","QUINCY","IL","62305"
322697,"C/O 144 ANAWAN ROAD","NORTH ATTLEBOROUGH","MA","02760"
322698,"C/O 15 RONALD ROAD","SUDBURY","MA","01776"
322699,"C/O 15051 LEFFINGWELL ROAD STE 106","WHITTIER","CA","90604"
322700,"C/O 15400 SOUTH WOODLAND ROAD","SHAKER HEIGHTS","OH","44120"
322701,"C/O 15863 HWY 59","MOUND CITY","MO","64470"
322702,"C/O 1600 LIBERTY BUILDING","BUFFALO","NY","14202"
322703,"C/O 16132 32ND AVENUE SE","MILL CREEK","WA","98012"
322704,"C/O 16400 GLYNN ROAD","CLEVELAND HEIGHTS","OH","44112"
322705,"C/O 17 CENTER STREET","PROSPECT","CT","06712"
322706,"C/O 1815 SOM CENTER ROAD","GATES MILLS","OH","44040"
322707,"C/O 18275 MEADOW SONG WAY","SALINAS","CA","93908"
322708,"C/O 1840 BRENDA WAY","WASHOE VALLEY","NV","89704"
322709,"C/O 19101 NW 11 STREET","PEMBROKE PINES","FL","33029"
322710,"C/O 2 PPG PLACE STE 400","PITTSBURGH","PA","15222"
322711,"C/O 2009 WILLIAMS AVE","WOODWARD","OK","73801"
322712,"C/O 201 S BISCAYNE BLVD STE 800","MIAMI","FL","33131"
322713,"C/O 2027 DODGE ST SUITE 501","OMAHA","NE","68102"
322714,"C/O 205 S RANDOLPH STREET","STACYVILLE","IA","50476"
322715,"C/O 21 HECKAMORE RD","BALA CYNWYD","PA","19004"
322716,"C/O 2155 JACKSON AVE NUMBER 3","ANN ARBOR","MI","48103"
322717,"C/O 2190 WEST SNOVER ROAD","SANDUSKY","MI","48471"
322718,"C/O 2222 ASHLEY RIVER ROAD SUITE 2J","CHARLESTON","SC","29414"
322719,"C/O 2232 FALLEN OAKS DR","KNOXVILLE","TN","37932"
322720,"C/O 224 PAUKAA DR","HILO","HI","96720"
322721,"C/O 241 MAIN STREET","HARTFORD","CT","06106"
322722,"C/O 245 NICHOLS STREET","NORWOOD","MA","02062"
322723,"C/O 249 MURRAY ST","MERIDEN","CT","06450"
322724,"C/O 25 OAKWOOD RD","MANCHESTER","CT","06042"
322725,"C/O 250 MAIN STREET SUITE 590","LAFAYETTE","IN","47901"
322726,"C/O 26 BRIDGE STREET","HACKENSACK","NJ","07601"
322727,"C/O 26630 BARTON RD APT 1014","REDLANDS","CA","92373"
322728,"C/O 27 RUNNING BROOK CIRCLE","FLEMINGTON","NJ","08822"
322729,"C/O 2709 S MONROE STREET","SPOKANE","WA","99203"
322730,"C/O 2731 ALA KINOIKI","KOLOA","HI","96756"
322731,"C/O 2866 PARK SQUARE PL E","FERNANDINA BEACH","FL","32034"
322732,"C/O 300 W 145TH STREET APT 4C","NEW YORK","NY","10039"
322733,"C/O 301 CAYUGA RD    SUITE 200","CHEEKTOWAGA","NY","14225"
322734,"C/O 30320 LIVE OAK CANYON RD","REDLANDS","CA","92373"
322735,"C/O 304 JONES AVENUE","WARRENSBURG","MO","64093"
322736,"C/O 307 SPOKANE AVE SUITE 102","WHITEFISH","MT","59937"
322737,"C/O 3119 QUENTIN ROAD","BROOKLYN","NY","11234"
322738,"C/O 3130 LA SELVA STREET SUITE 104","SAN MATEO","CA","94403"
322739,"C/O 3253 RAVENSWOOD WAY","SAN JOSE","CA","95148"
322740,"C/O 3341 S BARBETT AVE","SPRINGFIELD","MO","65804"
322741,"C/O 34 THURSTON DRIVE","UPPER MARLBORO","MD","20774"
322742,"C/O 3472 GRAND MEADOWS CROSSING","NEENAH","WI","54956"
322743,"C/O 3532 REISTERSTOWN ROAD","BALTIMORE","MD","21215"
322744,"C/O 356","PHILADELPHIA","PA","19148"
322745,"C/O 3701 DAVIS AVENUE","MODESTO","CA","95357"
322746,"C/O 3817 50TH AVENUE S","ST PETERSBURG","FL","33711"
322747,"C/O 386 WASHINGTON STREET","WELLESLEY","MA","02481"
322748,"C/O 3910 MAIN ST STE 205","FLUSHING","NY","11354"
322749,"C/O 402 E D ST","ELMWOOD","NE","68349"
322750,"C/O 41 COCHITUATE ROAD","WAYLAND","MA","01778"
322751,"C/O 4100 JASMINE DRIVE","BETHEL PARK","PA","15102"
322752,"C/O 415 12TH STREET","FRANKLIN","PA","16323"
322753,"C/O 422 3RD ST S","COGGON","IA","52218"
322754,"C/O 42517 SUNSET DR","WELLSVILLE","OH","43968"
322755,"C/O 431 CANAL ST FL 11 RM 40","NEW YORK","NY","10013"
322756,"C/O 4420 EVANS TO LOCKS RD","EVANS","GA","30809"
322757,"C/O 4420 EVANS TO LOCKS ROAD","EVANS","GA","30809"
322758,"C/O 4507 TWIN ELM DR","FRESNO","TX","77545"
322759,"C/O 4568 ROYALTON CENTER ROAD","GASPORT","NY","14067"
322760,"C/O 4608 MORRIS COURT","SANTA ROSA","CA","95405"
322761,"C/O 4660 SHANNON PL","PENSACOLA","FL","32504"
322762,"C/O 477 BRUINS TRACE","CORDOVA","TN","38018"
322763,"C/O 4800 ODELL ROAD","BELTSVILLE","MD","20705"
322764,"C/O 5 CROSS RD","MORRIS PLAINS","NJ","07950"
322765,"C/O 5 FISHKILL AVENUE","COLD SPRING","NY","10516"
322766,"C/O 515 RUSSELL AVE - SUSAN HARDING","WAKEENEY","KS","67672"
322767,"C/O 515 RUSSELL AVENUE","WAKEENEY","KS","67672"
322768,"C/O 555 EDGECOMBE AVENUE-SUITE 8B","NEW YORK","NY","10032"
322769,"C/O 5647 BROAD STREET","GREENDALE","WI","53129"
322770,"C/O 5866 OAKLAND AVENUE SOUTH","MINNEAPOLIS","MN","55417"
322771,"C/O 5913 BEATTIE AVE","LOCKPORT","NY","14094"
322772,"C/O 607 VERMONT","QUINCY","IL","62301"
322773,"C/O 616 CLEARWATER PK RD SUITE 305","WEST PALM BEACH","FL","33401"
322774,"C/O 6202 DEER HILL ROAD","WATERLOO","IL","62298"
322775,"C/O 648 W TIMBER BRANCH PARKWAY","ALEXANDRIA","VA","22302"
322776,"C/O 657 EAST MAIN STREET SUITE 6","MOUNT KISCO","NY","10549"
322777,"C/O 660 WALLER ROAD","MINTER","AL","36761"
322778,"C/O 677 RAMONA AVENUE","STATEN ISLAND","NY","10309"
322779,"C/O 68 WARNER STREET","NEWPORT","RI","02840"
322780,"C/O 6905 NE 43RD ST APT C","VANCOUVER","WA","98661"
322781,"C/O 7 CREEKWOOD CV","MORRILTON","AR","72110"
322782,"C/O 70 CRAIG MAIN STREET STE 3","CRAIG","MT","59648"
322783,"C/O 713 STORCH RD","STATE COLLEGE","PA","16801"
322784,"C/O 7323 ZANE AVENUE NORTH","BROOKLYN PARK","MN","55443"
322785,"C/O 7606 BROOKHOLLOW CV","AUSTIN","TX","78752"
322786,"C/O 7715 MONTGOMERY AVENUE","ELKINS PARK","PA","19027"
322787,"C/O 79565 FIRE RD","LORANE","OR","97451"
322788,"C/O 8 TABER ROAD","UTICA","NY","13501"
322789,"C/O 801 US HIGHWAY 1","NORTH PALM BEACH","FL","33408"
322790,"C/O 82 COLISEUM STREET","PERRIS","CA","92571"
322791,"C/O 8293 FM 20","SEGUIN","TX","78155"
322792,"C/O 8333 IOWA STREET SUITE 201","DOWNEY","CA","90241"
322793,"C/O 840 ECHO PARK AVENUE","LOS ANGELES","CA","90026"
322794,"C/O 8581 EAST QUAIL CALL LANE","HEREFORD","AZ","85615"
322795,"C/O 86 ANCHORAGE DRIVE","NEW YORK","NY","11795"
322796,"C/O 890 W HERITAGE PARK BLVD STE201","LAYTON","UT","84041"
322797,"C/O 905 SHOSHONE STREET NORTH","TWIN FALLS","ID","83301"
322798,"C/O 9505 W 32ND AVE","WHEAT RIDGE","CO","80033"
322799,"C/O A DAS 268 LARKSPUR LANE","KING OF PRUSSIA","PA","19406"
322800,"C/O A KLEINSCHMIDT 10858 JANE LN","BLOOMINGTON","IL","61705"
322801,"C/O A MEIGHAN 313 DELANCEY AVE","MAMARONECK","NY","10543"
322802,"C/O AA BOOKKEEPING 222 LEE ST SW","TUMWATER","WA","98501"
322803,"C/O ABBOTT   126 SUFFOLK AVENUE","PAWTUCKET","RI","02861"
322804,"C/O ADAM MEHAN 9 BRIDGE STREET APT6","PLATTSBURGH","NY","12901"
322805,"C/O ADAMS - 243 E 59TH ST APT 5B","NEW YORK","NY","10022"
322806,"C/O ADEYEMI KOLAWOLE PO BOX 740652","DALLAS","TX","75374"
322807,"C/O ADVENTURELORE/ 197 LONG POND RD","DANVILLE","NH","03819"
322808,"C/O AHABAT SHOLOM 151 OCEAN STREET","LYNN","MA","01902"
322809,"C/O AIKENHEAD 82 LEDGEBROOK DRIVE","NORWALK","CT","06854"
322810,"C/O ALLEN FIELDS 111 E 88 ST APT 8D","NEW YORK","NY","10128"
322811,"C/O ALLEN TAFLOVE - 2145 SHERIDAN","EVANSTON","IL","60208"
322812,"C/O ALVIRNE HS 200 DERRY RD","HUDSON","NH","03051"
322813,"C/O AMANDA BOWEN 57 MADISON STREET","MEDFORD","MA","02155"
322814,"C/O AMBER BULLMAN 883 HOMESTEAD RD","SAINT MARYS","WV","26170"
322815,"C/O AMHERST FIRE 177 AMHERST ST","MONT VERNON","NH","03057"
322816,"C/O AMISTAD CTR 6823 ST CHARLES AVE","NEW ORLEANS","LA","70118"
322817,"C/O AMITY HALL 80 W 3RD ST","NEW YORK","NY","10012"
322818,"C/O AMY ARNETT 571 PROCTOR TRAIL","BOWLING GREEN","KY","42101"
322819,"C/O AMY GRAY 13 LYN DRIVE","GRANBY","MA","01033"
322820,"C/O ANDRA BOWEN - 273 PLEASANT ST","BETHEL","VT","05032"
322821,"C/O ANDREW DEWEY  PO BOX 58","JONESBORO","ME","04648"
322822,"C/O ANDREW J STOESSEL","MARBLEHEAD","MA","01945"
322823,"C/O ANDREW RYDER 80 PINE HILL DRIVE","BANGOR","ME","04401"
322824,"C/O ANN SCHAEFFER  5611 15TH ST N","ARLINGTON","VA","22205"
322825,"C/O ANNE PRINGLE  44 NEAL STREET","PORTLAND","ME","04102"
322826,"C/O ANNE STUER PO BOX 311","NORWAY","ME","04268"
322827,"C/O ANNETTE DEVITT PO BOX 135","PEDRICKTOWN","NJ","08067"
322828,"C/O ANTHONY CANDIDO 4 TOPFIELD RD","MILFORD","CT","06460"
322829,"C/O AROLD 51 POWDER MILL BRIDGE RD","KINGSTON","NY","12401"
322830,"C/O ARTHUR I GOLDBERG 21 MAIN ST","HACKENSACK","NJ","07601"
322831,"C/O AS BEN-MERRE 5629 DELAFIELD AVE","BRONX","NY","10471"
322832,"C/O ASHLEY GREENE 39 MIDDLE STREET","BOSTON","MA","02127"
322833,"C/O ATHLETIC DEPT / 100 CARDINAL DR","CANFIELD","OH","44406"
322834,"C/O AUB 3 DAG HAMMARSKJOLD PLAZA","NEW YORK","NY","10017"
322835,"C/O B DAVIDSON135 CLARENDON ST 6Z","BOSTON","MA","02116"
322836,"C/O B KAEMPF - 24 PERCIVAL ST","BOSTON","MA","02122"
322837,"C/O B NELSON 1068 NEWTON FARM ROAD","SOUTH BOSTON","VA","24592"
322838,"C/O B ROTH 300 BAUSCH AND LOMB PL","ROCHESTER","NY","14604"
322839,"C/O B T CO- ONE PENN PLAZA STE 5335","NEW YORK","NY","10119"
322840,"C/O BAH 28 ERIE ST","PROVIDENCE","RI","02908"
322841,"C/O BAND DIRECTOR 400 7TH STREET","BAY CITY","TX","77414"
322842,"C/O BARBARA THOMAS 912 ELDRIDGE AVE","COLLINGSWOOD","NJ","08107"
322843,"C/O BARCLAY DAMON 300 S STATE ST","SYRACUSE","NY","13202"
322844,"C/O BARNARD ARGO PO BOX 425","DANVERS","IL","61732"
322845,"C/O BARNEKE 211 CONGRESS ST 7TH FL","BOSTON","MA","02110"
322846,"C/O BARNETT  117 LYONS ROAD","RUSH","NY","14543"
322847,"C/O BASALELY  475 W 186TH ST    2-C","NEW YORK","NY","10033"
322848,"C/O BENOIT MCGUIRE TAX 88 PINE ST","NEW YORK","NY","10005"
322849,"C/O BETSY HALET 5132 VOGES RD","MADISON","WI","53718"
322850,"C/O BETTY YUSUPOV 7150 PARSONS BLV","FLUSHING","NY","11365"
322851,"C/O BILL BERGER 2915 E KENTUCKY RD","BEECHER","IL","60401"
322852,"C/O BILL STOLTZ     210 W 10TH ST","ROLLA","MO","65401"
322853,"C/O BLANCHE M JACKSON","APPOMATTOX","VA","24522"
322854,"C/O BLISTEIN   16 MERION ROAD","MERION STATION","PA","19066"
322855,"C/O BMC/SPARK CENTER","BOSTON","MA","02126"
322856,"C/O BOB MISHLER 711 CORONADO","LAS VEGAS","NM","87701"
322857,"C/O BOSTON FD 115 SOUTHAMPTON ST","BOSTON","MA","02118"
322858,"C/O BOWYER 14600 CAMBRIDGE DRIVE","UPPER MARLBORO","MD","20772"
322859,"C/O BOX 545","ELLENVILLE","NY","12428"
322860,"C/O BRIAN BOYES 3330 UPPER ROAD","PLAINFIELD","VT","05667"
322861,"C/O BRIAN CRIM 1501 LAKESIDE DRIVE","LYNCHBURG","VA","24501"
322862,"C/O BRIAN N DAVIS - 506 E 11TH ST","DELL RAPIDS","SD","57022"
322863,"C/O BRIAN STEELE 4 TASKERS POND RD","FARMINGTON","CT","06032"
322864,"C/O BRIDGET MILLER 27127 SW WOOD AV","WILSONVILLE","OR","97070"
322865,"C/O BROOKE HENSCHEN PO BOX 374","OSWEGO","IL","60543"
322866,"C/O BRYAN SMITH 404 E 4TH ST","BLUE RAPIDS","KS","66411"
322867,"C/O BSK 22 CORPORATE WOODS BLVD","ALBANY","NY","12211"
322868,"C/O C BLEVINS 250 SCHOOL HOUSE ROAD","QUARRYVILLE","PA","17566"
322869,"C/O C GRUNFELDER 225 E43RD ST 3FL","NEW YORK","NY","10017"
322870,"C/O CAPLOE 37 ANNETT AVE","EDGEWATER","NJ","07020"
322871,"C/O CAROL ROEMHILD","COON RAPIDS","MN","55448"
322872,"C/O CATHY ZEIS 133 SUMMER PLACE CIR","POTTSBORO","TX","75076"
322873,"C/O CB2 - 350 JAY ST - 8TH FLOOR","BROOKLYN","NY","11201"
322874,"C/O CCV 60 WEST STREET","RUTLAND","VT","05701"
322875,"C/O CHAD UDEN  PO BOX 131","KENESAW","NE","68956"
322876,"C/O CHAIM M ROSENBERG 136 RT 306","MONSEY","NY","10952"
322877,"C/O CHARLES PIERCE 10 E NECK RD","HUNTINGTON","NY","11743"
322878,"C/O CHARLES R BOOZ 770 L ST STE 950","SACRAMENTO","CA","95814"
322879,"C/O CHRIS BYRD 706 E BLANCO RD","BOERNE","TX","78006"
322880,"C/O CHRIS GROTNES PO BOX 500","ANDOVER","NH","03216"
322881,"C/O CHRIS JACOBS 9 FIELDSTONE DR","YARMOUTH","ME","04096"
322882,"C/O CHUA 1460 BROADWAY 11FL","NEW YORK","NY","10036"
322883,"C/O CHURCH 29 JEFFERSON STREET","EMERSON","NJ","07630"
322884,"C/O CIDE 4993 DEER RIDGE DR N","CARMEL","IN","46033"
322885,"C/O CINDY REED /  P O BOX 461","HOT SPRINGS","SD","57747"
322886,"C/O CITY OF WESTBROOK 2 YORK ST","WESTBROOK","ME","04092"
322887,"C/O COLUMBIA BANK 2200 NOTH 30TH","TACOMA","WA","98403"
322888,"C/O CONNIE SCOTT 325 NORTHWEST ST","WINAMAC","IN","46996"
322889,"C/O CPD 201 N DAVID ST OFFICE 156","CASPER","WY","82601"
322890,"C/O CRAIG D PAGE 5015 SOUTHPARK DR","DURHAM","NC","27713"
322891,"C/O CRESSEY 41 OCEAN STREET","BELFAST","ME","04915"
322892,"C/O CTC 1290 E MAIN ST FL 1","STAMFORD","CT","06902"
322893,"C/O CYNTHIA LEE ROZANC PO BOX 4755","BEAVERTON","OR","97076"
322894,"C/O D BOULWARE-1021 FORBISHIRE DR","MATTHEWS","NC","28104"
322895,"C/O D CYPERT W10222 CTY RD F","FOX LAKE","WI","53933"
322896,"C/O DAILY CAMERA 5450 WESTERN AVENU","BOULDER","CO","80301"
322897,"C/O DALBY WENDLAND    PO BOX 1150","GLENWOOD SPRINGS","CO","81602"
322898,"C/O DANIEL K GERRY 5623 MURDOCH AVE","SAINT LOUIS","MO","63109"
322899,"C/O DANIEL MAZUR PO BOX 390990","CAMBRIDGE","MA","02139"
322900,"C/O DANNA  4401 W VERDUGO AVE APT B","BURBANK","CA","91505"
322901,"C/O DAVID THOMAS 259 W 15TH ST","NEW YORK","NY","10011"
322902,"C/O DAVIS 40 HORSESHOE RIDGE RD","SANDY HOOK","CT","06482"
322903,"C/O DEAN FORD PO BOX 6811","SCARBOROUGH","ME","04070"
322904,"C/O DEBRA SAVAGE 459 WOODLAND ST","WINDSOR LOCKS","CT","06096"
322905,"C/O DEEANN REEDER - I DENT DRIVE","LEWISBURG","PA","17837"
322906,"C/O DELORES DOENCH 1401 MONROE AVE","CROMWELL","IA","50842"
322907,"C/O DHC 605 THIRD AVE 34 FL","NEW YORK","NY","10158"
322908,"C/O DIAMOND 1136 RT 9","WAPPINGERS FALLS","NY","12590"
322909,"C/O DIANE LANGLOIS 39 SHADOW LANE","KEENE","NH","03431"
322910,"C/O DISABILITY RESOURCE ASSOCIATION","FESTUS","MO","63028"
322911,"C/O DIVNEY-455 EAST 116TH STREET AP","NEW YORK","NY","10029"
322912,"C/O DNF - 980 MADISON AVENUE 2ND FL","NEW YORK","NY","10075"
322913,"C/O DON HUGHES 323 E MAIN ST","WASHINGTON","IA","52353"
322914,"C/O DONALD FERRY 108 JOHNSON HILL R","POLAND","ME","04274"
322915,"C/O DONNA BOYD 13325 LOYALTY DRIVE","FISHERS","IN","46037"
322916,"C/O DONNIE KING 98 SE 7TH ST 1100","MIAMI","FL","33131"
322917,"C/O DOROTHY BANDERET 206 2ND ST","BERLIN","ND","58415"
322918,"C/O DOT MAGNELLI 7 LINCOLN DRIVE","WASHINGTONVILLE","NY","10992"
322919,"C/O DOUGLAS FRANK 812 2ND AVE","LAUREL","MT","59044"
322920,"C/O DR MATTEO 33 GREENMEADOW ROAD","PLEASANTVILLE","NY","10570"
322921,"C/O DREW THORESEN -6745 BEACH DR SW","SEATTLE","WA","98136"
322922,"C/O DUANE MORRIS LLP -1540 BROADWAY","NEW YORK","NY","10036"
322923,"C/O DUC TRAN  6 IVY LANE","FRANKLIN","MA","02038"
322924,"C/O DWIGHT MORROW HIGH SCHOOL","ENGLEWOOD","NJ","07631"
322925,"C/O E SAMUELSON -- 2304 300TH ST NW","STANWOOD","WA","98292"
322926,"C/O EBBERT UMC 532 C STREET","SPRINGFIELD","OR","97477"
322927,"C/O ED KENNEDY 13 LEXINGTON DR","NEWBURGH","NY","12550"
322928,"C/O EDWARD HAMMEL - 4532 NW 50 ST","COCONUT CREEK","FL","33073"
322929,"C/O ELEFF 6833 N KEDZIE AVE APT 615","CHICAGO","IL","60645"
322930,"C/O ELIZABETH AMPONG","BRONX","NY","10458"
322931,"C/O ELIZABETH YOUNG  1045 W MAPLE","FAYETTEVILLE","AR","72701"
322932,"C/O ELKS LODGE 901 LAKEVILLE ROAD","NEW HYDE PARK","NY","11040"
322933,"C/O ELLEN ZUCKERT 69 WILLOW AVENUE","LARCHMONT","NY","10538"
322934,"C/O ELLIOT STOKES 409 NORTH SHERMAN","MADISON","WI","53704"
322935,"C/O EMMA SEBEEY 311 LONG POINTE LN","COLUMBIA","SC","29229"
322936,"C/O EPPLO 15 UNION STREET","MILFORD","NH","03055"
322937,"C/O ERIK ASGEIRSSON  23 ISLAND DR","RYE","NY","10580"
322938,"C/O ESQUIRE ASSIST 125 LOCUST ST","HARRISBURG","PA","17101"
322939,"C/O ESUSU 215 WEST 125TH ST RM 410","NEW YORK","NY","10027"
322940,"C/O EUI WHANG","BELLFOWER","CA","90706"
322941,"C/O EVA JESSO 57 TAYLOR BROOK RD","HANCOCK","VT","05748"
322942,"C/O EVANGEL CHURCH 3920 27TH STREET","LONG ISLAND CITY","NY","11101"
322943,"C/O FCIA - 2265 GEORGIA PINE CT","LAS VEGAS","NV","89134"
322944,"C/O FILIS LAW FIRM  P O BOX 801144","HOUSTON","TX","77280"
322945,"C/O FLORES 104 BROOKMOOR ROAD","WEST HARTFORD","CT","06107"
322946,"C/O FOLEY 777 E WISCONSIN AVE","MILWAUKEE","WI","53202"
322947,"C/O FOUT  978 EL CENTRO STREET","OJAI","CA","93023"
322948,"C/O FR CHECK     669 WEST AVENUE","NORWALK","CT","06850"
322949,"C/O FRED SEIDEN   111 ALICIA DRIVE","NORTH BABYLON","NY","11703"
322950,"C/O FRONTLINE 1205 W CHURCH ST","ELMIRA","NY","14905"
322951,"C/O FSD LAW - 2 MONUMENT SQ STE 704","PORTLAND","ME","04101"
322952,"C/O G PRUITI 445 PARK AVENUE 9 FL","NEW YORK","NY","10022"
322953,"C/O GARY CAPPUCINO 24 PLEASANT ST","NORWOOD","MA","02062"
322954,"C/O GARY RHODES     219 ECKLES STRE","PIEDMONT","MO","63957"
322955,"C/O GB MCCUNE 67-1215 NOHOAINA PL","KAMUELA","HI","96743"
322956,"C/O GEORGE CATECHIS 1419 157 STREET","WHITESTONE","NY","11357"
322957,"C/O GEORGE OHAKAMNU 3344 PALMER AVE","BRONX","NY","10475"
322958,"C/O GFS 2008 S WABASH STE B","CHICAGO","IL","60616"
322959,"C/O GGY 1600 NEW ROAD","NORTHFIELD","NJ","08225"
322960,"C/O GIBSON DUNN 333 S GRAND AVE","LOS ANGELES","CA","90071"
322961,"C/O GINA HOUSER 1320 LIMESTONE ROAD","SAINT MARYS","WV","26170"
322962,"C/O GIRLS TENNIS 3591 CERRITOS AVE","LOS ALAMITOS","CA","90720"
322963,"C/O GLENN NEHODA 2015 SULLIVAN TRL","EASTON","PA","18040"
322964,"C/O GOBER 2308 MT VERNON AVE NUM762","ALEXANDRIA","VA","22301"
322965,"C/O GOLDSTEIN HALL 80 BROAD ST303","NEW YORK","NY","10004"
322966,"C/O GORDON      812-A THIRD ST SW","WASHINGTON","DC","20024"
322967,"C/O GREG YANNEKIS   10 DOWNING ROAD","BROOKLINE","MA","02445"
322968,"C/O GUY FISHMAN 182 HIGHLAND AVENUE","ARLINGTON","MA","02476"
322969,"C/O H TSAFAK 238 TIMBER VIEW CT","FREDERICK","MD","21702"
322970,"C/O HAKIM DYER 1700 RIDGELY ST","BALTIMORE","MD","21230"
322971,"C/O HALLOWELL FIRE DEPT 1 WINTHROP","HALLOWELL","ME","04347"
322972,"C/O HAMDEN HIGH SCH 2040 DIXWELL AV","HAMDEN","CT","06514"
322973,"C/O HANCOCK ESTABROOK 401 E STATE","ITHACA","NY","14850"
322974,"C/O HANSCOM PRIMARY 6 ENT ROAD","HANSCOM AFB","MA","01731"
322975,"C/O HAROLD HAGOPIAN 303 W 66TH ST","NEW YORK","NY","10023"
322976,"C/O HARRY JACOBS   22 WARREN PLACE","LAINVIEW","NY","11803"
322977,"C/O HARTSOOK INSURANCE 1252 MAIN ST","SWEET HOME","OR","97386"
322978,"C/O HBC - 1459 18TH STREET  PMB 167","SAN FRANCISCO","CA","94107"
322979,"C/O HBH 1515 MARKET ST STE 1700","PHILADELPHIA","PA","19102"
322980,"C/O HBH 1515 MARKET ST SUITE 1700","PHILADELPHIA","PA","19102"
322981,"C/O HELENE DUMAS 17 PAYSON ROAD","CHESTNUT HILL","MA","02467"
322982,"C/O HERBERT WACHACHA PO BOX 2015","CHEROKEE","NC","28719"
322983,"C/O HHS ATHLETIC 255 UNION AVENUE","HARRISON","NY","10528"
322984,"C/O HOWARD SAMUELS - 35 TIFFANY DR","LIVINGSTON","NJ","07039"
322985,"C/O ILENE ADAMS 158 HAMPTON PLACE","JUPITER","FL","33414"
322986,"C/O INTRAMURAL OFC NCSU BOX 8111","RALEIGH","NC","27695"
322987,"C/O ISOLINA CARLINI - 36420 RAYBURN","LIVONIA","MI","48154"
322988,"C/O ISUAA 430 BEACH AVENUE","AMES","IA","50011"
322989,"C/O J CAESAR 427 CHAPLIN STREET SE","WASHINGTON","DC","20019"
322990,"C/O J CARTER 17 GILLETTE RD","BUXTON","ME","04093"
322991,"C/O J CONSOLO 600 SUPERIOR AVE 2100","CLEVELAND","OH","44114"
322992,"C/O J CRUTE 233 WILSHIRE STE 400","SANTA MONICA","CA","90401"
322993,"C/O J FISHER-3222 E FIRST AVE","DENVER","IL","80206"
322994,"C/O J MASKIT / DENISON / PHILOSOPHY","GRANVILLE","OH","43023"
322995,"C/O J TADDEO 178 GODFREY ROAD EAST","WESTON","CT","06883"
322996,"C/O J WESTERFIELD 90 DEBORAH LANE","LILY","KY","40740"
322997,"C/O JAMES CROUCH 5359 77TH AVE N","PINELLAS PARK","FL","33781"
322998,"C/O JAN HARDER / 9 LANNING ROAD","VERONA","NJ","07044"
322999,"C/O JANA PACE    745 W 2250 S","WOODS CROSS","UT","84087"
323000,"C/O JANET JOSLIN    3050 W WABASH","SPRINGFIELD","IL","62704"
