"ID","Address","City","State","Zip"
57501,"1400 PRESTON ROAD STE 400","PLANO","TX","75093"
57502,"1400 PRIMM ROAD","LINCOLN","IL","62656"
57503,"1400 PUETTS CHAPLE ROAD","BESSEMER CITY","NC","28016"
57504,"1400 QUAIL ST STE 200","NEWPORT BEACH","CA","92660"
57505,"1400 QUAIL STREET   SUITE 100","NEWPORT BEACH","CA","92660"
57506,"1400 REDONDO AVE","LONG BEACH","CA","90804"
57507,"1400 RIDGEMONT DRIVE","AUSTIN","TX","78723"
57508,"1400 RIVIERA AVENUE","VENICE","CA","90291"
57509,"1400 ROBERT GURLEY RD","SCOTTS HILL","TN","38374"
57510,"1400 ROCKDALE DRIVE","ARLINGTON","TX","76018"
57511,"1400 ROSELLE AVE","PALATKA","FL","32177"
57512,"1400 S 11TH STREET","QUINCY","IL","62301"
57513,"1400 S 4TH STREET","PERRY","OK","73077"
57514,"1400 S 52ND ST UNIT 33","WEST DES MOINES","IA","50265"
57515,"1400 S AMBASSADOR WAY","SALT LAKE CITY","UT","84108"
57516,"1400 S BRADDOCK AVE","PITTSBURGH","PA","15218"
57517,"1400 S DIXIE HWY WEST STE 1W","POMPANO BEACH","FL","33060"
57518,"1400 S ESPLANADE ST","LEAVENWORTH","KS","66048"
57519,"1400 S JOYCE ST APT 1007","ARLINGTON","VA","22202"
57520,"1400 S LAMAR STREET","DALLAS","TX","75215"
57521,"1400 S LOOP 336 W","CONROE","TX","77304"
57522,"1400 S MARIETTA PKWY SE SUITE 202","MARIETTA","GA","30067"
57523,"1400 S MILITARY PLACE","PORTLAND","OR","97219"
57524,"1400 S SCHILLER ST","LITTLE ROCK","AR","72202"
57525,"1400 SACRAMENTO STREET","UPPER MARLBORO","MD","20774"
57526,"1400 SAN PABLO AVE","BERKELEY","CA","94702"
57527,"1400 SE 21ST ST","OKEECHOBEE","FL","34974"
57528,"1400 SEABREEZE AVE","JACKSONVILLE BEACH","FL","32250"
57529,"1400 SHATTUCK AVE STE 12","BERKELEY","CA","94709"
57530,"1400 SHERRI LN SOUTH","AZLE","TX","76020"
57531,"1400 SOUTH BOUNDARY ST","KIRKSVILLE","MO","63501"
57532,"1400 SOUTH MADISON STREET","MUNCIE","IN","47302"
57533,"1400 SOUTH MICHIGAN AVE ROOM 1706","CHICAGO","IL","60605"
57534,"1400 SOUTH MISSION","ANADARKO","OK","73005"
57535,"1400 SOUTH STADIUM DR","ADA","OK","74820"
57536,"1400 SPIESS LANE","WARMINSTER","PA","18974"
57537,"1400 SPRING GARDEN ST APT 506","PHILADELPHIA","PA","19130"
57538,"1400 STATE HIGHWAY U","CARUTHERSVILLE","MO","63830"
57539,"1400 SUNBURY DR","BELLEVUE","NE","68005"
57540,"1400 SUNSET SUITE  4","WAUKEGAN","IL","60087"
57541,"1400 SW 103RD AVENUE","MIAMI","FL","33176"
57542,"1400 SW CHAPMAN WAY","PALM CITY","FL","34990"
57543,"1400 SW SHOREWOOD DR","DUNNELLON","FL","34431"
57544,"1400 TIGER PRIDE DRIVE","SALEM","MO","65560"
57545,"1400 TORRENCE AVE","CALUMET CITY","IL","60409"
57546,"1400 TROWBRIDGE RD","FORT PIERCE","FL","34945"
57547,"1400 US HWY 76 EAST","HIAWASSEE","GA","30546"
57548,"1400 VET MEM HWY SE STE 134 - 193","MABLETON","GA","30126"
57549,"1400 VET MEM HWY SE SUITE 134 327","MABLETON","GA","30126"
57550,"1400 VETERANS MEM HWY STE 134-246","MABLETON","GA","30126"
57551,"1400 VETERANS MEM HWY STE 134-341","MABLETON","GA","30126"
57552,"1400 VETERANS MEMORIAL HWY 134-102","MABLETON","GA","30126"
57553,"1400 VETERANS MEMORIAL HWY STE 134","MABLETON","GA","30126"
57554,"1400 VETERANS MEMORIAL HWY STE 335","MABLETON","GA","30126"
57555,"1400 VETERANS MEMORIAL HWY","MABLETON","GA","30126"
57556,"1400 VILLAGE BLVD   919","WEST PAM BEACH","FL","33409"
57557,"1400 VILLAGE BLVD 718","WEST PALM BEACH","FL","33409"
57558,"1400 VILLAGE BLVD","WEST PALM BEACH","FL","33409"
57559,"1400 VILLAGE SQ BLVD STE 3-282","TALLAHASSEE","FL","32312"
57560,"1400 VILLAGE SQ BLVD SUITE 3-110","TALLAHASSEE","FL","32312"
57561,"1400 VILLAGE SQUARE BLVD 3 80744","TALLAHASSEE","FL","32312"
57562,"1400 W  COLD SPRING LANE","BALTIMORE","MD","21209"
57563,"1400 W 52ND AVE","DENVER","CO","80221"
57564,"1400 W 61ST AVENUE","MERRILLVILLE","IN","46410"
57565,"1400 W 8TH STREET","THE DALLES","OR","97058"
57566,"1400 W AIKEN AVE","PEORIA","IL","61605"
57567,"1400 W COMMONWEALTH AVE","FULLERTON","CA","92833"
57568,"1400 W JOHNSON AVE","ARANSAS PASS","TX","78336"
57569,"1400 W MARKHAM STE 202","LITTLE ROCK","AR","72201"
57570,"1400 W MARKHAM STREET SUITE 408","LITTLE ROCK","AR","72201"
57571,"1400 WALMSLEY AVE","DALLAS","TX","75208"
57572,"1400 WEST 50TH TERRACE","KANSAS CITY","MO","64112"
57573,"1400 WEST PEACHTREE ST UNIT 1905","ATLANTA","GA","30363"
57574,"1400 WEST WASHINGTON CENTER ROAD","FORT WAYNE","IN","46825"
57575,"1400 WESTINGHOUSE ROAD APT 317","GEORGETOWN","TX","78626"
57576,"1400 WILMORE RD","NICHOLASVILLE","KY","40356"
57577,"1400 WILSON CREEK PARKWAY","MCKINNEY","TX","75069"
57578,"1400 WINDMOOR CT NW","KENNESAW","GA","30144"
57579,"1400 WISCONSIN AVENUE","GRAND HAVEN","MI","49417"
57580,"1400 WISTERIA DRIVE","METAIRIE","LA","70005"
57581,"1400 WOODLOCH FOREST DR SUITE 590","THE WOODLANDS","TX","77380"
57582,"1400 WOODLOCH FOREST DRIVE STE 590","THE WOODLANDS","TX","77380"
57583,"1400 WYNDMERE HILLS LANE","MATTHEWS","NC","28105"
57584,"1400","BELLEVUE","OH","44811"
57585,"14000 CASTLE BLVD APT 1205","SILVER SPRING","MD","20904"
57586,"14000 CASTLE BLVD UNIT 910","SILVER SPRING","MD","20904"
57587,"14000 CHEF MENTEUR HIGHWAY","NEW ORLEANS","LA","70129"
57588,"14000 FLOYD STREET SUITE A","UPPER MARLBORO","MD","20772"
57589,"14000 FLOYD STREET UNIT 3203","OVERLAND PARK","KS","66223"
57590,"14000 MARSHALL DRIVE","LENEXA","KS","66215"
57591,"14000 MONT AVE","EAST CLEVELAND","OH","44118"
57592,"14000 NE LAWSON RD","PRINEVILLE","OR","97754"
57593,"14000 RIVERGLEN DRIVE","CORONA","CA","92880"
57594,"14000 SUDLEY MANOR DR","BRISTOW","VA","20136"
57595,"14000 TAHITI WAY STE 301","MARINA DEL REY","CA","90292"
57596,"14000 WECKFORD BLVD","HOUSTON","TX","77044"
57597,"14001 CALLE ROSALES","BAKERSFIELD","CA","93314"
57598,"14001 DOWNDALE DRIVE","LAUREL","MD","20707"
57599,"14001 DUNWOOD VALLEY DRIVE","BOWIE","MD","20721"
57600,"14001 FIREBUSH LN","HASLET","TX","76052"
57601,"14001 HWY 46 W","SPRING BRANCH","TX","78070"
57602,"14001 NW 4 STREET SUITE B","SUNRISE","FL","33325"
57603,"14001 NW 4 STREET SUITE C","SUNRISE","FL","33325"
57604,"14001 SMOKETOWN ROAD","WOODBRIDGE","VA","22192"
57605,"14001 SOUTH MURPHY ROAD","CHENEY","WA","99004"
57606,"14001 TELEGRAPH RD","REDFORD","MI","48239"
57607,"14001 TOLLISON DRIVE","BOWIE","MD","20720"
57608,"14001 TX-46","SPRING BRANCH","TX","78070"
57609,"14001 W MAIN ST","DALEVILLE","IN","47334"
57610,"14001 W US HIGHWAY 50","HALSTEAD","KS","67056"
57611,"14001 WASHINGTON AVE","STURTEVANT","WI","53177"
57612,"14001C SAINT GERMAIN DR  SUITE 423","CENTREVILLE","VA","20121"
57613,"14001C SAINT GERMAIN DR STE 361","CENTREVILLE","VA","20121"
57614,"14001C ST GERMAINE DR STE 191","CENTREVILLE","VA","20121"
57615,"14002 CRESTWICK DR E","JACKSONVILLE","FL","32218"
57616,"14002 JUNIPER PARK COURT","HOUSTON","TX","77066"
57617,"14002 KICKING HORSE CL","VICTORVILLE","CA","92394"
57618,"14002 MACCLAIN ST","GOWEN","MI","49326"
57619,"14003 LORNE DRIVE","HOUSTON","TX","77049"
57620,"14003 PALAWAN WAY APT 209","MARINA DEL REY","CA","90292"
57621,"14003 PINEHURST CIRCLE","BROOMFIELD","CO","80023"
57622,"14003 WHEATBRIDGE DR","HOUSTON","TX","77041"
57623,"14004 ARABIAN RUN LANE","VICTORVILLE","CA","92394"
57624,"14004 DOTY AVE","LOS ANGELES","CA","90250"
57625,"14004 ROAD 184","PORTERVILLE","CA","93257"
57626,"14004 WINDSOR ST","LEAWOOD","KS","66224"
57627,"140044","BROKEN ARROW","OK","74014"
57628,"14005 ARCHDALE STREET","DETROIT","MI","48227"
57629,"14006 BECKET ROAD","SHAKER HEIGHTS","OH","44120"
57630,"14006 MARLEIGH LN","CLIFTON","VA","20124"
57631,"14006 WINDSOR ROAD","MINNETONKA","MN","55345"
57632,"14008 - 127TH PL NE","KIRKLAND","WA","98034"
57633,"14008 56TH AVE NW","GIG HARBOR","WA","98332"
57634,"14008 CROSSBRANCH COURT","LOUISVILLE","KY","40245"
57635,"14008 KELLY RD","FESTUS","MO","63028"
57636,"14008 SANDY POINT LANE","EL PASO","TX","79338"
57637,"14009 CHADRON AVE APT 3","HAWTHORNE","CA","90250"
57638,"14009 EGGSBOURNSVILLE RD","CULPEPER","VA","22701"
57639,"14009 EUCALYPTUS BEND","AUSTIN","TX","78717"
57640,"14009 KORBYN DR","YUKON","OK","73099"
57641,"14009 SPOONBILL ST N","JACKSONVILLE","FL","32224"
57642,"1401 11TH AVE N","CLINTON","IA","52732"
57643,"1401 17TH AVE N","WAHPETON","ND","58075"
57644,"1401 1ST AVENUE CIRCLE NE","KASSON","MN","55944"
57645,"1401 1ST AVENUE","SCOTTSBLUFF","NE","69361"
57646,"1401 21ST ST STE R","SACRAMENTO","CA","95811"
57647,"1401 21ST ST SUITE R","SACRAMENTO","CA","95811"
57648,"1401 21ST STREET SUITE R","SACRAMENTO","CA","95811"
57649,"1401 290TH STREET","INWOOD","IA","51240"
57650,"1401 4TH AVE SW","BESSEMER","AL","35022"
57651,"1401 55TH ST APT 5A","BROOKLYN","NY","11219"
57652,"1401 55TH ST APT 5B","BROOKLYN","NY","11219"
57653,"1401 67TH ST APTD6","BROOKLYN","NY","11219"
57654,"1401 6TH STREET","BELLINGHAM","WA","98225"
57655,"1401 7TH ST SW","PIPESTONE","MN","56164"
57656,"1401 9TH STREET","SHALLOWATER","TX","79363"
57657,"1401 A W GRIMES BLVD  APT 711","ROUND ROCK","TX","78664"
57658,"1401 ADAMS AVENUE","HUNTINGTON","WV","25704"
57659,"1401 ARAMORE DRIVE SE","CONYERS","GA","30013"
57660,"1401 BAPTIST RD","STEELEVILLE","IL","62288"
57661,"1401 BAYSHORE RD","VILLAS","NJ","08251"
57662,"1401 BAYSIDE AVENUE","WOODBRIDGE","VA","22191"
57663,"1401 BLAIR MILL RD APT 901","SILVER SPRING","MD","20910"
57664,"1401 BLUEGRASS AVENUE","LOUISVILLE","KY","40215"
57665,"1401 BOTHAM JEAN BLVD","DALLAS","TX","75215"
57666,"1401 BRICKELL AVE","MIAMI","FL","33131"
57667,"1401 BRIDLE GLEN COURT","WAKE FOREST","NC","27587"
57668,"1401 BUCHANAN STREET NW UNIT B","WASHINGTON","DC","20011"
57669,"1401 BUDINGER AVE SUITE B","SAINT CLOUD","FL","34769"
57670,"1401 CALDWELL ST","CONWAY","AR","72034"
57671,"1401 CARPENTER AVE SUITE A","IRON MOUNTAIN","MI","49801"
57672,"1401 CATES STREET STE 103","BRIDGEPORT","TX","76426"
57673,"1401 CENTRAL AVE NW STE 3","EAST GRAND FORKS","MN","56721"
57674,"1401 CHERRYWOOD DR","RICHARDSON","TX","75080"
57675,"1401 CLAYTON AVENUE","NEWTON","IL","62448"
57676,"1401 CLEVELAND AVE","MOUNT VERNON","WA","98273"
57677,"1401 COLONY COURT EAST","MOUNT JULIET","TN","37122"
57678,"1401 CURVE RD","DELAWARE","OH","43015"
57679,"1401 CYNDI CIRCLE","BRENHAM","TX","77833"
57680,"1401 DAUPHIN STREET","MOBILE","AL","36604"
57681,"1401 DEERPATH DR","CAMBRIDGE","OH","43725"
57682,"1401 DOUG BAKER BLVD STE 107 429","BIRMINGHAM","AL","35242"
57683,"1401 DOUG BAKER BLVD STE 107","BIRMINGHAM","AL","35242"
57684,"1401 DOUGLAS ST","OPELIKA","AL","36801"
57685,"1401 E MILLBROOK ROAD APT 246","RALEIGH","NC","27609"
57686,"1401 E ROYERTON RD","MUNCIE","IN","47303"
57687,"1401 EAST 55TH STREET APT  606","CHICAGO","IL","60615"
57688,"1401 EAST FIRST STREET","TUCSON","AZ","85719"
57689,"1401 EDMONDSON AVE 213","BALTIMORE","MD","21223"
57690,"1401 ELM AVE","BAY CITY","TX","77414"
57691,"1401 EMMONS AVENUE","BROOKLYN","NY","11235"
57692,"1401 ERBY CAMPBELL","ROYSE CITY","TX","75189"
57693,"1401 ESSEX STREET","RAHWAY","NJ","07065"
57694,"1401 EVERGREEN AVE","JACKSONVILLE","FL","32206"
57695,"1401 EVERS AVE","WESTCHESTER","IL","60154"
57696,"1401 EXETER COURT","SOUTHLAKE","TX","76092"
57697,"1401 FALLING SPRINGS RD","EAST SAINT LOUIS","IL","62201"
57698,"1401 FAUSTINO COVE","LEANDER","TX","78641"
57699,"1401 FLATBUSH AVENUE SUITE 203","BROOKLYN","NY","11210"
57700,"1401 FORUM WAY STE 100","WEST PALM BEACH","FL","33401"
57701,"1401 GATESWALK PATH","LAWRENCEVILLE","GA","30045"
57702,"1401 GEIL AVENUE","DES MOINES","IA","50315"
57703,"1401 GLENSHIRE DR","GARLAND","TX","75043"
57704,"1401 GREENMONT HILLS DR","VIENNA","WV","26105"
57705,"1401 GREENVIEW DRIVE","BETHLEHEM","PA","18018"
57706,"1401 GROVE AVE    PO BOX 479","BERWYN","IL","60402"
57707,"1401 GUAVA AVE","MELBOURNE","FL","32935"
57708,"1401 HAMILTON ST NW","WASHINGTON","DC","20011"
57709,"1401 HARGIS CREEK TRAIL","AUSTIN","TX","78717"
57710,"1401 HARRELL AVE","HAMMOND","LA","70403"
57711,"1401 HESTERS CROSSING RD UNIT 2108","ROUND ROCK","TX","76861"
57712,"1401 HIGH SCHOOL DR","BELLEVUE","NE","68005"
57713,"1401 HIGHEDGE DRIVE","PLANO","TX","75075"
57714,"1401 HOME STEAD LANE","EDINBORO","PA","16412"
57715,"1401 JOHNSON FERRY RD STE 100","MARIETTA","GA","30062"
57716,"1401 JUNIPER DRIVE APT 4","LOUISVILLE","KY","40222"
57717,"1401 LAKE AVENUE APARTMENT C 7","METAIRIE","LA","70005"
57718,"1401 LAUREL OAK  RD","VOORHEES","NJ","08043"
57719,"1401 LAVACA ST PMB 40572","AUSTIN","TX","78701"
57720,"1401 LAVACA ST STE19","AUSTIN","TX","78701"
57721,"1401 LAVACA STREET 253","AUSTIN","TX","78701"
57722,"1401 LAWRENCE STREET NE","WASHINGTON","DC","20017"
57723,"1401 LEEVILLE PIKE","LEBANON","TN","37090"
57724,"1401 LITTLE ELM TRAIL - 102","CEDAR PARK","TX","78613"
57725,"1401 LITTLE NECK RD","SAVANNAH","GA","31419"
57726,"1401 MAIN AVE STE A","DURANGO","CO","81301"
57727,"1401 MAIN STREET APT 12-A","KINGMAN","AZ","86401"
57728,"1401 MAIN STREET","HOLDEN","MA","01520"
57729,"1401 MARVIN RD NE STE 307-502","LACEY","WA","98516"
57730,"1401 MAYWOOD AVE","ANN ARBOR","MI","48103"
57731,"1401 MERCANTILE LANE SUITE 200 - X3","LARGO","MD","20774"
57732,"1401 MERCANTILE LANE","LARGO","MD","20774"
57733,"1401 MERRIMAN STREET","PORT NECHES","TX","77651"
57734,"1401 MOON HARBOR CT ST AUGUSTINE FL","JACKSONVILLE","FL","32092"
57735,"1401 MORAY COURT","PARK CITY","UT","84060"
57736,"1401 N DECATUR BLVD","LAS VEGAS","NV","89108"
57737,"1401 N DECKER AVE","BALTIMORE","MD","21213"
57738,"1401 N KINGSHIGHWAY BLVD","ST LOUIS","MO","63113"
57739,"1401 N SANDBURG TERRACE","CHICAGO","IL","60610"
57740,"1401 N WESTERN AVENUE STE 2","LAKE FOREST","IL","60045"
57741,"1401 N WOODRIDGE AVE","SIOUX FALLS","SD","57107"
57742,"1401 NATCHEZ LOOP","COVINGTON","LA","70433"
57743,"1401 NE 11TH STREET","OKLAHOMA CITY","OK","73117"
57744,"1401 NE MIAMI GARDENS DR APT 390","NORTH MIAMI BEACH","FL","33179"
57745,"1401 NEW YORK AVE NE SUITE 677","WASHINGTON","DC","20002"
57746,"1401 NEW YORK AVENUE NE UNIT 333","WASHINGTON","DC","20002"
57747,"1401 NEW YORK AVENUE STE 384","WASHINGTON","DC","20002"
57748,"1401 NEWTON AVE N","MINNEAPOLIS","MN","55411"
57749,"1401 NICHOLS LANE","FOREST GROVE","OR","97116"
57750,"1401 NORMANDY DR","WICHITA FALLS","TX","76301"
57751,"1401 NORTH DUBUQUE AVENUE","SIOUX FALLS","SD","57110"
57752,"1401 NORTH HAIRSTON RD APT 18Q","STONE MOUNTAIN","GA","30083"
57753,"1401 NORTH LYNHURST DRIVE","SPEEDWAY","IN","46224"
57754,"1401 NORTH WICKHAM RD","MELBOURNE","FL","32935"
57755,"1401 NW 122 AVE","PEMBROKE PINES","FL","33026"
57756,"1401 NW 3RD AVENUE","POMPANO BEACH","FL","33060"
57757,"1401 NW 50TH STREET","MIAMI","FL","33142"
57758,"1401 NW REIGER RD","KANSAS CITY","MO","64118"
57759,"1401 OLD BAINBRIDGE RD","TALLAHASSEE","FL","32303"
57760,"1401 PARAMOUNT PL","LONGMONT","CO","80501"
57761,"1401 PEACHTREE STREET SUITE 500","ATLANTA","GA","30309"
57762,"1401 PENNSYLVANIA AVENUE SE 319","WASHINGTON","DC","20003"
57763,"1401 PLANTATION DRIVE","SOUTHLAKE","TX","76092"
57764,"1401 PORTER ST STE 123","BALTIMORE","MD","21230"
57765,"1401 PRAIRIE SPRINGS DRIVE","LOS BANOS","CA","93635"
57766,"1401 PRESQUE ISLE AVE   JC 227","MARQUETTE","MI","49855"
57767,"1401 PRESTON LAKE DR","TUCKER","GA","30084"
57768,"1401 PRINCESS AVE","CAMDEN","NJ","08103"
57769,"1401 RENEE DR","DECATUR","GA","30035"
57770,"1401 RIVER RIDGE ROAD","RIVER FALLS","WI","54022"
57771,"1401 RIVERPLACE BLVD APT 1508","JACKSONVILLE","FL","32207"
57772,"1401 RIVERPLACE BLVD SUITE 2607","JACKSONVILLE","FL","32207"
57773,"1401 ROANOAKE DR","GRAHAM","TX","76450"
57774,"1401 RUDAKOF CIR","ANCHORAGE","AK","99508"
57775,"1401 S ASH AVENUE","INDEPENDENCE","MO","64052"
57776,"1401 S BYRD AVE","SHEPHERD","TX","77371"
57777,"1401 S MILLIS LN","FLAGSTAFF","AZ","86001"
57778,"1401 S MONROE ST","SPOKANE","WA","99203"
57779,"1401 S STATE ST UNIT 601","CHICAGO","IL","60605"
57780,"1401 SACRAMENTO TERRACE","PLANO","TX","75075"
57781,"1401 SAINT ANDREW STREET","LA CROSSE","WI","54603"
57782,"1401 SALTER PATH ROAD","INDIAN BEACH","NC","28512"
57783,"1401 SAM RITTENBERG BLVD STE 11","CHARLESTON","SC","29407"
57784,"1401 SE 25TH AVENUE","MINERAL WELLS","TX","76067"
57785,"1401 SECOND AVENUE NORTH EAST","CULLMAN","AL","35055"
57786,"1401 SEWELL DR","ELKO","NV","89801"
57787,"1401 SHADY BARK DRIVE","GASTONIA","NC","28054"
57788,"1401 SO SPRAGUE AVE PMB 223","TACOMA","WA","98405"
57789,"1401 SOUTH 42ND STREET","WEST DES MOINES","IA","50265"
57790,"1401 SOUTH DOUGLAS BLVD SUITE W","MIDWEST CITY","OK","73130"
57791,"1401 SOUTH LAMAR ST","DALLAS","TX","75215"
57792,"1401 SOUTH M STREET NO 101","TACOMA","WA","98405"
57793,"1401 SPANOS COURT SUITE 108","MODESTO","CA","95355"
57794,"1401 SPRING VALE AVE","MCLEAN","VA","22101"
57795,"1401 ST EDWARDS DRIVE APT 217","AUSTIN","TX","78704"
57796,"1401 STATE AVE","ALAMOSA","CO","81101"
57797,"1401 SUGAR CREEK DR","JOLIET","IL","60433"
57798,"1401 SW 83RD AVE","NORTH LAUDERDALE","FL","33068"
57799,"1401 SYCAMORE ST","WAXAHACHIE","TX","75165"
57800,"1401 TRUXILLO STREET","HOUSTON","TX","77004"
57801,"1401 VAN BUREN ST","MISSOULA","MT","59802"
57802,"1401 VETERANS DR","ELKHORN","NE","68022"
57803,"1401 VETERANS DRIVE","ELKHORN","NE","68022"
57804,"1401 VILLAGE BOULEVARD APT 425","WEST PALM BEACH","FL","33409"
57805,"1401 VISCAYA PKWY STE 4","CAPE CORAL","FL","33990"
57806,"1401 W 20TH ST STE 6","LOS ANGELES","CA","90007"
57807,"1401 W DERRINGER WAY","CHAMDLER","MN","85216"
57808,"1401 W FORT ST NO 441411","DETROIT","MI","48244"
57809,"1401 W FORT ST","DETROIT","MI","48232"
57810,"1401 W FORT STREET STE 442440","DETROIT","MI","48244"
57811,"1401 W FORT STREET UNIT 32111","DETROIT","MI","48232"
57812,"1401 W GEDDES AVE","LITTLETON","CO","80120"
57813,"1401 W GREEN ST CUBE 36","URBANA","IL","61801"
57814,"1401 W GREEN ST NUMBER 15 SOC","URBANA","IL","61801"
57815,"1401 W PEARL STREET","GRANBURY","TX","76048"
57816,"1401 W WASHINGTON STREET","BROKEN ARROW","OK","74012"
57817,"1401 WEST FORT STREET UNIT 32427","DETROIT","MI","48232"
57818,"1401 WEST FREMONT AVE","SELAH","WA","98942"
57819,"1401 WEST GEDDES AVENUE","LITTLETON","CO","80120"
57820,"1401 WEST PACES FERRY RD NW 1301","ATLANTA","GA","30327"
57821,"1401 WEST WASHINGTON STREET","PHOENIX","AZ","85007"
57822,"1401 WEST WEBSTER AVE","CHICAGO","IL","60614"
57823,"1401 WESTWOOD LANE","WYNNEWOOD","PA","19096"
57824,"1401 WILLAMETTE ST","EUGENE","OR","97401"
57825,"1401 WILLAMETTE","EUGENE","OR","97401"
57826,"1401 WOODLAND DR","PORTAGE","MI","49024"
57827,"1401 WOODLANDS PARKWAY","THE WOODLANDS","TX","77380"
57828,"1401 WOODLANDS PKWY","THEWOO DLANDS","TX","77380"
57829,"1401 YALE AVE NW","CANTON","OH","44703"
57830,"1401 YALE AVENUE NW","CANTON","OH","44703"
57831,"1401 YELLOW JACKET WAY","LEESBURG","FL","34748"
57832,"1401 ZOLLMAN AVE","BEDFORD","IN","47421"
57833,"1401-G SE MAYNARD RD","CARY","NC","27511"
57834,"14010 CHELSEAHURST LANE","HOUSTON","TX","77047"
57835,"14010 CHERRYLAWN","DETROIT","MI","48238"
57836,"14011 CLARKDALE AVENUE UNIT 1131","NORWALK","CA","90650"
57837,"14011 SANTA TERESA RD","HOUSTON","TX","77045"
57838,"14011 W 500 N","JASONVILLE","IN","47438"
57839,"14012 3RD AVE NW","SEATTLE","WA","98177"
57840,"14012 BALDWIN AVENUE","CLEVELAND","GA","44110"
57841,"14012 BRANCHED ANTLER DR","MIDLOTHIAN","VA","23112"
57842,"14012 CALIFA STREET","VAN NUYS","CA","94101"
57843,"14012 NE 32ND ST","VANCOUVER","WA","98682"
57844,"14012 SULLY FIELD CIRCLE STE F","CHANTILLY","VA","20151"
57845,"14013 BAYBERRY PL","LITTLE ROCK","AR","72210"
57846,"14013 DRAKES WAY","YUKON","OK","73099"
57847,"14013 LAKE CHARLES HWY","LEESVILLE","LA","71446"
57848,"14013 N CANTERBURY DR","PHOENIX","AZ","85023"
57849,"14013 NORTH 80TH PLACE","SCOTTSDALE","AZ","85260"
57850,"14014 FALCONCREST ROAD","GERMANTOWN","MD","20874"
57851,"14014 LA SALLE COURT","FONTANA","LA","92336"
57852,"14014 OSMAREA DR","AUSTIN","TX","78717"
57853,"14014 ROLLING SPRINGS CT","LOUISVILLE","KY","40245"
57854,"14014 SW FRWY SUITE 301-737","SUGARLAND","TX","77477"
57855,"14015 ABINGTON AVE","DETROIT","MI","48227"
57856,"14015 CHARLEMAGNE AVE","BELLFLOWER","CA","90706"
57857,"14015 KINGFISHER GLEN DR","LITHIA","FL","33547"
57858,"14015 LONGACRE ST","DETROIT","MI","48227"
57859,"14015 S W FREEWAY SUITE 14","SUGAR LAND","TX","77478"
57860,"14015 TAYLOR CIRCLE","OMAHA","NE","68164"
57861,"14015 VAN NESS AVE SUITE 10","GARDENA","CA","90149"
57862,"14016 LAKESHORE DRIVE","GRAND HAVEN","MI","49417"
57863,"14017 56TH AVE NW","GIG HARBOR","WA","98332"
57864,"14017 ABBY WOOD CT","SAN DIEGO","CA","92131"
57865,"14017 AGATE DR","YUKON","OK","73099"
57866,"14017 GULLIVERS TRAIL","BOWIE","MD","20720"
57867,"14017 N COUNTY ROAD 1000 E","SUNMAN","IN","47041"
57868,"14017 PELLITA TERRACE","ROCKVILLE","MD","20852"
57869,"14017 PELLITA TERRACE","ROCVILLE","MD","20850"
57870,"14017 PETERSON RD","KANSAS CITY","MO","64149"
57871,"14018 98TH ST CT NW","GIG HARBOR","WA","98329"
57872,"14018 AVENIDA ESPANA","LA MIRADA","CA","90638"
57873,"14018 LAS PALMAS RD","JAMUL","CA","91935"
57874,"14018 TORREY RD","FENTON","MI","48430"
57875,"14019 BRIDLECHASE LANE","HOUSTON","TX","77014"
57876,"14019 GRAY WING ST","SAN ANTONIO","TX","78231"
57877,"14019 SNOWY OWL LANE","WINTER GARDEN","FL","34787"
57878,"14019 SOUTHWEST FREEWAY STE 603","SUGAR LAND","TX","77478"
57879,"14019 SOUTHWEST FRWY NO 301-194","SUGAR LAND","TX","77478"
57880,"14019 SOUTHWEST FRWY STE 301 241","SUGAR LAND","TX","77478"
57881,"14019 SW 275TH STREET","HOMESTEAD","FL","33032"
57882,"1401CALM WATERS CT","ST CLOUD","FL","34771"
57883,"1402 10TH STREET","INT'L FALLS","MN","56649"
57884,"1402 19TH ST","BOONE","IA","50036"
57885,"1402 32ND STREET SOUTH SUITE 105","FARGO","ND","58103"
57886,"1402 42ND ST WEST APT 207","WILLISTON","ND","58801"
57887,"1402 4TH ST","PERRY","IA","50220"
57888,"1402 4THAVE N","NASHVILLE","TN","37208"
57889,"1402 ASHBOURNE DRIVE","LYNCHBURG","VA","24501"
57890,"1402 AUBURN WAY N STE 271","AUBURN","WA","98002"
57891,"1402 AUBURN WAY N","AUBURN","WA","98001"
57892,"1402 AUTUMN LEAF DRIVE","BALLWIN","MO","63021"
57893,"1402 AVE N","BROOKLYN","NY","11230"
57894,"1402 BANKS ST","HOUSTON","TX","77006"
57895,"1402 BEL-AIR LIGHTHOUSE SUITE C","JACKSON","MO","63755"
57896,"1402 BELLE VIEW BOULEVARD C2","ALEXANDRIA","VA","22307"
57897,"1402 BLUE TEAL COURT","SOUTHLAKE","TX","76092"
57898,"1402 BRADFORD TRACE DRIVE","ALLEN","TX","75002"
57899,"1402 CHERRY GARDEN ROAD","BALTIMORE","MD","21221"
57900,"1402 CHERRY LANE","MACON","MO","63552"
57901,"1402 COFFMAN DRIVE","ATHENS","AL","35611"
57902,"1402 COMMERCE AVE","INDIANAPOLIS","IN","46201"
57903,"1402 CRABAPPLE DR","MANASQUAN","NJ","08736"
57904,"1402 CRAWFORD ST","BARABOO","WI","53913"
57905,"1402 DOUGHTY ROAD","EGG HARBOR TOWNSHIP","NJ","08234"
57906,"1402 E CATAMARAN DRIVE","GILBERT","AZ","85234"
57907,"1402 E KALEY STREET","ORLANDO","FL","32806"
57908,"1402 E LEONARD ST","PENSACOLA","FL","32503"
57909,"1402 E VILLAGE ESTATES CT","PARK CITY","KS","67219"
57910,"1402 E109TH STREET","CLEVELAND","OH","44106"
57911,"1402 EAST 50TH STREET","SAVANNAH","GA","31404"
57912,"1402 EAST LINDSEY STREET - SUITE D","NORMAN","OK","73071"
57913,"1402 FARMINGDALE AVENUE","CAPITOL HEIGHTS","MD","20743"
57914,"1402 FERRY STREET","EASTON","PA","18042"
57915,"1402 FIELD CLUB CT","PITTSBURGH","PA","15237"
57916,"1402 FREEDOM ROAD","LITTLE CHUTE","WI","54140"
57917,"1402 FRIO EAGLE","SAN ANTONIO","TX","78245"
57918,"1402 GOLDEN PARK COURT","TALLAHASSEE","FL","32303"
57919,"1402 HARRISON BLVD","BOISE","ID","83702"
57920,"1402 HIGHGATE RD","VALLEJO","CA","94591"
57921,"1402 HIGHWAY A1A SUITE A","SATELLITE BEACH","FL","32937"
57922,"1402 HWY A1A SUITE A","SATELLITE BEACH","FL","32937"
57923,"1402 LAKE TAPPS PKWY SE SUITE 104","AUBURN","WA","98092"
57924,"1402 LK TAPPS PKWY SE STE F104-146","AUBURN","WA","98092"
57925,"1402 MACY DR","ROSWELL","GA","30076"
57926,"1402 MACY DRIVE","ROSWELL","GA","30076"
57927,"1402 MAIN STREET NW  STE B1014","LOS LUNAS","NM","87031"
57928,"1402 MAIN STREET","PELLA","IA","50219"
57929,"1402 MCLEAN AVE","TOMAH","WI","54660"
57930,"1402 N GLENN AVE","FRESNO","CA","93728"
57931,"1402 N MLK JR AVE","CLEARWATER","FL","33755"
57932,"1402 NAVELLIER ST","EL CERRITO","CA","94530"
57933,"1402 NORMAN ST NE 8","PALM BAY","FL","32907"
57934,"1402 NORTH MENTOR AVENUE","PASADENA","CA","91104"
57935,"1402 ODDIE ST","RANGER","TX","76470"
57936,"1402 ORCHARD DRIVE","JACKSON","MO","63755"
57937,"1402 RAINER RD","BROOKHAVEN","PA","19015"
57938,"1402 RED BLUFF COURT","SAN DIMAS","CA","91773"
57939,"1402 RIVER VIEW DR","CODY","WY","82414"
57940,"1402 ROBIN COURT","LONGWOOD","FL","32750"
57941,"1402 ROSWELL","EL PASO","TX","79915"
57942,"1402 S CUSTER RD SUITE 504","MCKINNEY","TX","75072"
57943,"1402 S HALLADAY STREET","SANTA ANA","CA","92707"
57944,"1402 S KEMP AVE","COMPTON","CA","90220"
57945,"1402 S MAIN ST","MISHAWAKA","IN","46544"
57946,"1402 S PITKIN CIR","AURORA","CO","80017"
57947,"1402 SEXTANT AVE WEST","ROSEVILLE","MN","55113"
57948,"1402 SHADY LN","BURKBURNETT","TX","76354"
57949,"1402 SILVER LAKE ROAD","EVERETT","WA","98208"
57950,"1402 SLATE STREET","CLOQUET","MN","55720"
57951,"1402 SOUTH CAGE BLVD","PHARR","TX","78577"
57952,"1402 SOUTHMOOR DRIVE","ARLINGTON","TX","76010"
57953,"1402 STONEBORO LANE","RICHARDSON","TX","75082"
57954,"1402 W PARK AVENUE","CHANDLER","AZ","85224"
57955,"1402 WEST 19TH","HUTCHINSON","KS","67502"
57956,"1402 WEST UNION STREET","COLLINSVILLE","OK","74021"
57957,"1402 WEST WASHINGTON STREET","PASCO","WA","99301"
57958,"1402 WILSON AVE","WAUKEGAN","IL","60087"
57959,"1402","NEW RICHMOND","WI","54017"
57960,"14020 CEDAR ST","OVERLAND PARK","KS","66224"
57961,"14020 CITY CENTER DR","CHINO HILLS","CA","91709"
57962,"14020 CITY CENTER DRIVE","CHINO HILLS","CA","91709"
57963,"14020 N 1150TH ST","MACOMB","IL","61455"
57964,"14020 N US HWY 231","ODON","IN","47562"
57965,"14020 ORIZABA AVE 4","PARAMOUNT","CA","90723"
57966,"14020 SPECKING AVENUE","ANCHORAGE","AK","99515"
57967,"14021 LAKE CANDLEWOOD CT","MIAMI LAKES","FL","33014"
57968,"14021 METROPOLIS AVENUE","FORT MEYERS","FL","33912"
57969,"14021 METTETAL","DETROIT","MI","48227"
57970,"14021 METTETAL","DETROIT","MI","48228"
57971,"14021 SOUTH VERMONR AVENUE","GAMOENA","CA","90247"
57972,"14022 129TH AVE NE","KIRKLAND","WA","98034"
57973,"14023 APPLE AVE","LAKEVIEW","OH","43331"
57974,"14023 PUBLIC SAFETY COURT","CULPEPER","VA","22701"
57975,"14023 WEST SOUTH STREET ROAD","WOODSTOCK","IL","60098"
57976,"14024 BALLANTRAE DR","GRANDVIEW","MO","64030"
57977,"14024 DUNBAR CT","GRANDVIEW","MO","64030"
57978,"14024 NW 82ND AVENUE","MIAMI LAKES","FL","33016"
57979,"14024 STONE GATE DRIVE","BATON ROUGE","LA","70816"
57980,"14025 BATES ASTON ROAD","HASLET","TX","76052"
57981,"14025 COUNTY HIGHWAY G","VIOLA","WI","54664"
57982,"14025 JAMESON LN","CARMEL","IN","46032"
57983,"14027 LAKE CITY WAY NE","SEATTLE","WA","98125"
57984,"14027 MEMORIAL DR NUM 290","HOUSTON","TX","77079"
57985,"14027 MEMORIAL DR NUM 397","HOUSTON","TX","77079"
57986,"14027 MEMORIAL DR UNIT 236","HOUSTON","TX","77079"
57987,"14027 QUARLES ST","SAN ANTONIO","TX","78247"
57988,"14028 VAN NESS AVE 5655","GARDENA","CA","90249"
57989,"14028 VAN NESS AVENUE 5655","GARDENA","CA","90249"
57990,"14029 COMFORT RD","MCCALL","ID","83638"
57991,"14029 S HAWTHORNE BLVD","HAWTHORNE","CA","90250"
57992,"14029 SE CENTER STREET","PORTLAND","OR","97236"
57993,"1402N JOPPA FOREST DRIVE","JOPPA","AK","21085"
57994,"1403  EAST ELYSIAN PASS","SAN TAN VALLEY","AZ","85140"
57995,"1403  SUMMIT","SIOUX CITY","IA","51103"
57996,"1403 270TH WAY SE","SAMMAMISH","WA","98075"
57997,"1403 3RD STREET SW","ALBUQUERQUE","NM","87102"
57998,"1403 42ND AVENUE NE","TUSCALOOSA","AL","35404"
57999,"1403 ADRIAN LANE","MONTGOMERY","AL","36111"
58000,"1403 ANDREWS STREET","HOUSTON","TX","77019"
