"ID","Address","City","State","Zip"
282001,"73 ADIRONDACK LANE","PLATTSBURGH","NY","12901"
282002,"73 ALONA DRIVE","MOHOPAC","NY","10541"
282003,"73 ALTHEA STREET","CLIFTON","NJ","07013"
282004,"73 AMHERST AVE","WALTHAM","MA","02451"
282005,"73 ARROWOOD LANE","ORCHARD PARK","NY","14127"
282006,"73 BARNARD ROAD","GRANVILLE","MA","01034"
282007,"73 BELLEVUE AVE","OCEANSIDE","NY","11572"
282008,"73 BUCK ROAD SUITE H","HUNTINGDON VALLEY","PA","19006"
282009,"73 BUTLER PL","HEMPSTEAD","NY","11550"
282010,"73 CALENDON COURT","RICHMOND HILL","GA","31324"
282011,"73 CALLE ARAGON STE E","LAGUNA WOODS","CA","92637"
282012,"73 CARRIAGE HILL DRIVE","FREDERICKSBURG","VA","22405"
282013,"73 CAT ROCK ROAD","COS COB","CT","06807"
282014,"73 CAVALIER DRIVE APT 3408","WILMINGTON","NC","28405"
282015,"73 CENTRAL STREET","GARDINER","ME","04345"
282016,"73 CHELSEA STREET SUITE 308","CHARLESTOWN","MA","02129"
282017,"73 CHYSIS RD","MILPITAS","CA","95035"
282018,"73 CLIFFSIDE ROAD","LINDEN","VA","22642"
282019,"73 COUNTRY LN","MOBILE","AL","36608"
282020,"73 DAMON RD","MEDFORD","MA","02155"
282021,"73 DEAN ROAD UNIT 4","SACRAMENTO","CA","95815"
282022,"73 DEERFIELD CIRCLE","SEWELL","NJ","08080"
282023,"73 DELEGADO CT","FREMONT","CA","94539"
282024,"73 DEVON LANE","AVONDALE ESTATES","GA","30002"
282025,"73 DUTTON AVE UNIT E","SAN LEANDRO","CA","94577"
282026,"73 E JEFFERSON ST","WINTERSET","IA","50273"
282027,"73 E LAKE STREET APT 3803","CHICAGO","IL","60601"
282028,"73 E SATIN ST","JEFFERSON","OH","44047"
282029,"73 E SIERRA WAY","CHULA VISTA","CA","91911"
282030,"73 EDWARD ST","AGAWAM","MA","01001"
282031,"73 ELMWOOD RD","WELLESLEY","MA","02481"
282032,"73 EMMETT ST","FALL RIVER","MA","02721"
282033,"73 FERNWOOD AVENUE","OAKDALE","NY","11769"
282034,"73 FLAT HILLS ROAD","AMHERST","MA","01002"
282035,"73 FOSTER AVENUE","HAMPTON BAYS","NY","11946"
282036,"73 GALLIVAN BOULEVARD","DORCHESTER","MA","02124"
282037,"73 GAMMONS ROAD","ACUSHNET","MA","02743"
282038,"73 GATE LANE","ELKINS","WV","26241"
282039,"73 GLASHEEN ROAD","PETERSHAM","MA","01366"
282040,"73 GLEN EDEN AVENUE","OAKLAND","CA","94611"
282041,"73 GLENDALE DR","CADIZ","KY","42211"
282042,"73 GRACELAND DRIVE","SAN RAFAEL","CA","94901"
282043,"73 GREENLAND CIRCLE","YARMOUTHPORT","MA","02675"
282044,"73 GREENLEE ROAD","FRANKFORT","OH","45628"
282045,"73 GREENTREE DR 16","DOVER","DE","19904"
282046,"73 GREENTREE DRIVE - 127","DOVER","DE","19904"
282047,"73 GROVE STEET","MONTCLAIR","NJ","07042"
282048,"73 GROVE STREET","WALDWICK","NJ","07463"
282049,"73 HACKETT AVENUE","ALBANY","NY","12205"
282050,"73 HANSEL AVENUE","ASHEVILLE","NC","28806"
282051,"73 HERSCHEL AVENUE","WATERBURY","CT","06708"
282052,"73 HICKS HOLLOW ROAD","LEBANON","TN","37087"
282053,"73 HIGH ST","ROCKPORT","MA","01966"
282054,"73 HOLLY DR","LA PLACE","LA","70068"
282055,"73 HOWLAND AVENUE","TEANECK","NJ","07666"
282056,"73 HUCKLEBERRY LANE","SOUTHINGTON","CT","06489"
282057,"73 IHEA STREET","PUKALANI","HI","96768"
282058,"73 JAMES STREET","DENDRON","VA","23839"
282059,"73 JEZIERSKI LN","THOMPSON","CT","06277"
282060,"73 JOHN STREET SUITE A","WESTMINSTER","MD","21157"
282061,"73 JUNIPER WAY","LAKE VILLA","IL","60046"
282062,"73 KINGSLEY ROAD","ROCHESTER","NY","14612"
282063,"73 LEXINGTON STREET LL2","NEWTON","MA","02466"
282064,"73 LINCOLN AVE","HIGHLAND PARK","NJ","08904"
282065,"73 LINCOLN AVENUE","WOODCLIFF LAKE","NJ","07677"
282066,"73 LOCUST STREET","BRISTOL","CT","06010"
282067,"73 LOMB MEMORIAL DRIVE","ROCHESTER","NY","14623"
282068,"73 LONGFELLOW ST","THOUSAND OAKS","CA","91360"
282069,"73 LOTHROP STREET","BEVERLY","MA","01915"
282070,"73 MACKAY PL","BROOKLYN","NY","11209"
282071,"73 MADRID AVE","KENNER","LA","70065"
282072,"73 MAIN STREET PO BOX 574","WALPOLE","NH","03608"
282073,"73 MEMORIAL PARKWAY","ATLANTIC HIGHLANDS","NJ","07716"
282074,"73 MIDDLE STREET","SPRINGFIELD","MA","01104"
282075,"73 MOUNTAINSIDE RD","MENDHAM","NJ","07945"
282076,"73 MULLIS CREEK","PIKE ROAD","AL","36064"
282077,"73 N COLEMAN ROAD","CENTEREACH","NY","11720"
282078,"73 N LIBERTY STREET","ELGIN","IL","60120"
282079,"73 N MAIN ST","VICTOR","ID","83455"
282080,"73 NORTH ROAD","RED HOOK","NY","12571"
282081,"73 OAKSHOTT ROAD","COLVILLE","WA","99114"
282082,"73 OLD DUBLIN PIKE     SUITE 10-168","DOYLESTOWN","PA","18901"
282083,"73 OLD DUBLIN PIKE 10-303","DOYLESTOWN","PA","18901"
282084,"73 ORCHARD ST APT 1","ERIE","PA","16508"
282085,"73 ORIENT AVE SUITE 5","JERSEY CITY","NJ","07304"
282086,"73 PATRICIA DRIVE","PALM COAST","FL","32164"
282087,"73 PAWNEE AVE","OAKLAND","NJ","07436"
282088,"73 PEAK HILL DRIVE","ROCHESTER","NY","14625"
282089,"73 PELHAM STREET","NEWPORT","RI","02840"
282090,"73 PERTHSHIRE RD","BOSTON","MA","02135"
282091,"73 PETER COUTTS CIRCLE","STANFORD","CA","94305"
282092,"73 PORT CLYDE ROAD","TENANTS HARBOR","ME","04860"
282093,"73 POVERTY FLATS ROAD","EUREKA","MT","59917"
282094,"73 PROCTOR LANE","WAYNE","WV","25570"
282095,"73 PROVENCE COURT","CHULA VISTA","CA","91911"
282096,"73 PROVIDENCE LN","BLUEMONT","VA","20135"
282097,"73 RED BROOK LN","WEST WARWICK","RI","02893"
282098,"73 RIDGECLIFF DRIVE","RICHLAND","WA","99352"
282099,"73 ROCKWOOD RD","FLORHAM PARK","NJ","07932"
282100,"73 ROCKWOOD ROAD","FLORHAM PARK","NJ","07932"
282101,"73 ROSEMARY ROAD","NORTH ATTLEBORO","MA","02760"
282102,"73 ROSEWOOD ST","LAKE JACKSON","TX","77566"
282103,"73 S CANYON ST","NAMPA","ID","83651"
282104,"73 S OAK STREET","SAINT JAMES","MO","65559"
282105,"73 S WOODLAND AVE","WOODBURY","NJ","08096"
282106,"73 SADDLEBRUSH RD","ELLABELL","GA","31308"
282107,"73 SILVER SPRINGS DRIVE","KEY LARGO","FL","33037"
282108,"73 SOUTH CIRCLEWOOD GLEN","SPRING","TX","77381"
282109,"73 SOUTH VAN BRUNT","ENGLEWOOD","NJ","07631"
282110,"73 STATE STREET","WEST BABYLON","NY","11704"
282111,"73 THURMAN DRIVE","LAWTON","OK","73507"
282112,"73 TRAILWOOD","IRVINE","CA","92620"
282113,"73 TREVITT DRIVE D","STONE MOUNTAIN","GA","30083"
282114,"73 W ASHTABULA ST","JEFFERSON","OH","44047"
282115,"73 W MILTON AVE APT 1","RAHWAY","NJ","07065"
282116,"73 W MONROE ST STE 100","CHICAGO","IL","60603"
282117,"73 W WOODLAND AVE","COLUMBIANA","OH","44408"
282118,"73 WAGNER RD","TAYLORSVILLE","NC","28681"
282119,"73 WALTER AVE","HAUPPAUGE","NY","11788"
282120,"73 WAYSIDE DRIVE","SAINT LOUIS","MO","63135"
282121,"73 WEAVER STREET APARTMENT 20","GREENWICH","CT","06831"
282122,"73 WEST BROADWAY ST","WINONA","MN","55987"
282123,"73 WESTFIELD LOOP","LITTLE ROCK","AR","72210"
282124,"73 WHITE BRIDGE RD SUITE 103 125","NASHVILLE","TN","37205"
282125,"73 WHITE BRIDGE ROAD  SUITE 103-205","NASHVILLE","TN","37205"
282126,"73 WHITE BRIDGE ROAD STE 103 233","NASHVILLE","TN","37205"
282127,"73 WILMER STREET","ROCHESTER","NY","14607"
282128,"73 WOODFIELD ROAD","WASHINGTON TWP","NJ","07676"
282129,"73 WORLEY DRIVE","APALACHICOLA","FL","32320"
282130,"73 WORTH STREET APT 5F","NEW YORK","NY","10013"
282131,"73-1006 AHULANI STREET","KAILUA KONA","HI","96740"
282132,"73-1079 ALIHILANI DR","KAILUA-KONA","HI","96740"
282133,"73-1099 KAIMINANI DR","KAILUA KONA","HI","96740"
282134,"73-1166 MAHILANI DRIVE","KAILUA KONA","HI","96740"
282135,"73-1196 KAALELE STREET","KAILUA KONA","HI","96740"
282136,"73-1354 KAIMINA","KAILUA KONA","HI","96740"
282137,"73-1542 HAO WAY","KAILUA KONA","HI","96740"
282138,"73-2055 ALA KOHANAIKE","KAILUA-KONA","HI","96740"
282139,"73-23 210TH ST APT 3G","OAKLAND GARDENS","NY","11364"
282140,"73-336 SALT CEDAR ST","PALM DESERT","CA","92260"
282141,"73-4336 LIPINE PL","KAILUA KONA","HI","96740"
282142,"73-4341 OHALA PLACE","KAILUA KONA","HI","96740"
282143,"73-4344 PALUPALU PLACE","KAILUA KONA","HI","96740"
282144,"73-4648 OLD MAMALAHOA HWY","KAILUA-KONA","HI","96740"
282145,"73-5035 QUEEN KAAHUMANU HWY 1101","KAILUA KONA","HI","96740"
282146,"73-83 HIGHLAND AVENUE APT 10C","YONKERS","NY","10705"
282147,"73-989  B  AHULANI STREET","KAILLUA KONA","HI","96740"
282148,"73","CINCINNATI","OH","45237"
282149,"730 17TH ST SUITE 740","DENVER","CO","80202"
282150,"730 17TH STREET STE 650","DENVER","CO","80202"
282151,"730 17TH STREET SUITE 4","DENVER","CO","80202"
282152,"730 ABBEYWOOD DR","ROSWELL","GA","30075"
282153,"730 ALDER CIRCLE","VIRGINIA BEACH","VA","23462"
282154,"730 AVE F SUITE 200","PLANO","TX","75074"
282155,"730 BARSHAY DR","COVINGTON","GA","30016"
282156,"730 BECKHAM LANE APT 304","ROCK HILL","SC","29732"
282157,"730 BELMONT","WEST MEMPHIS","AR","72301"
282158,"730 BELVEDERE DRIVE","COLUMBUS","GA","31907"
282159,"730 BERGEN STREET 1ST FLOOR","NEWARK","NJ","07108"
282160,"730 BORDER PATROL LANE","RIO GRANDE CITY","TX","78582"
282161,"730 BOULDER TRACE","UNION CITY","GA","30291"
282162,"730 BOUNDLINE ROAD","WOLCOTT","CT","06716"
282163,"730 BUENA TIERRA WAY 370","OCEANSIDE","CA","92057"
282164,"730 CALLE CONTENTO","THOUSAND OAKS","CA","91360"
282165,"730 CANDY CREEK RD","REIDSVILLE","NC","27320"
282166,"730 CAPTAIN COOK AVE 426","HONOLULU","HI","96813"
282167,"730 CECIL AVENUE","LOUISVILLE","KY","40211"
282168,"730 CENTER STREET","RACINE","WI","53403"
282169,"730 CHESTER AVE","BAKERSFIELD","CA","93301"
282170,"730 CHICKAHOMINY LOOP APT 205","CARROLLTON","VA","23314"
282171,"730 COMMERCIAL STREET","SAN FRANCISCO","CA","94108"
282172,"730 CONESTOGA TRL","CHANHASSEN","MN","55317"
282173,"730 DIVISADERO APT 9","SAN FRANCISCO","CA","94117"
282174,"730 DIXIEANNE AVENUE UNIT 3","SACRAMENTO","CA","95815"
282175,"730 DOROTHY ADAMO LANE SUITE 321","SACRAMENOT","CA","95650"
282176,"730 DRAKE AVE","MARIN CITY","CA","94965"
282177,"730 DUBLIN COURT","CASTLE ROCK","CO","80104"
282178,"730 E FULTON ST","STOCKTON","CA","95204"
282179,"730 E HEALD ST","SHERIDAN","WY","82801"
282180,"730 E MAIN ST","ADA","OK","74820"
282181,"730 E STRAWBRIDGE AVE STE 101","MELBOURNE","FL","32901"
282182,"730 EAGLE SCHOOL RD","MARTINSBURG","WV","25404"
282183,"730 EAGLE WALK ROAD","DELAWARE","OH","43015"
282184,"730 EAST 1150 NORTH","OGDEN","UT","84404"
282185,"730 EAST 38TH STREET  SUITE 208","MINNEAPOLIS","MN","55408"
282186,"730 EAST PARK AVENUE","TALLAHASEE","FL","32301"
282187,"730 EAST PARK AVENUE","TALLAHASSEE","FL","32301"
282188,"730 EDGELL ROAD","FRAMINGHAM","MA","01701"
282189,"730 EL PASEO RD","OJAI","CA","93023"
282190,"730 ENON RD","ACKERMAN","MS","39735"
282191,"730 F AVENUE STE 220","PLANO","TX","75074"
282192,"730 HAWTHORNE LN APT 365","CHARLOTTE","NC","28204"
282193,"730 HILLSIDE AVENUE","BOONTON","NJ","07005"
282194,"730 HOWE AVENUE SUITE 500","SACRAMENTO","CA","95825"
282195,"730 HUNTCLIFF VILLAGE COURT","ATLANTA","GA","31150"
282196,"730 ILIAINA STREET","KAILUA","HI","96734"
282197,"730 JANNA LEE AVE              102","ALEXANDRIA","VA","22306"
282198,"730 JOLIET ROAD","MARQUETTE HEIGHTS","IL","61554"
282199,"730 JUMPING BRANCH ROAD","TAMASSEE","SC","29686"
282200,"730 KING RD","SALISBURY","NC","28146"
282201,"730 KIRBY ST","LAKE CHARLES","LA","70601"
282202,"730 KOONTZ ROAD","NEW ALEXANDRIA","PA","15670"
282203,"730 LAMPWICK LANE","CARY","NC","27513"
282204,"730 LANG STREET","NEW ORLEANS","LA","70131"
282205,"730 LEON ROAD","WALLED LAKE","MI","48390"
282206,"730 LEXINGTON AVENUE","ASTORIA","OR","97103"
282207,"730 LULLWATER DR","OVIEDO","FL","32765"
282208,"730 MAIN STREET SUITE 356","NORTH MYRTLE BEACH","SC","29582"
282209,"730 MALLORY DR","WAXAHACHIE","TX","75167"
282210,"730 MEDILL AVE","MASSILLON","OH","44646"
282211,"730 MEGAN DR","GREENVILLE","NC","27834"
282212,"730 MICHELLE DRIVE","NEWPORT NEWS","VA","23601"
282213,"730 MONROE STREET","SAUK CITY","WI","53583"
282214,"730 MOORMANS ARM RD","NASHVILLE","TN","37207"
282215,"730 N 4TH ST UNIT 805","MINNEAPOLIS","MN","55401"
282216,"730 N 72ND WAY","HOLLYWOOD","FL","33024"
282217,"730 N DIAMOND BAR BLVD","DIAMOND BAR","CA","91765"
282218,"730 N DOBSON RD","GREER","SC","29651"
282219,"730 N VAN BUREN ST","IOWA CITY","IA","52245"
282220,"730 NAVAJO WAY","FREMONT","CA","94539"
282221,"730 NORTH 5TH STREET","PRESCOTT","AZ","86301"
282222,"730 NORTH BROADWAY","SHAWNEE","OK","74801"
282223,"730 NORTH CEDAR RIDGE DRIVE  5221","ORACLE","AZ","85623"
282224,"730 NORTH JAY STREET","ROME","NY","13440"
282225,"730 NORTH LOOP","HOUSTON","AZ","77009"
282226,"730 NORTH PLANKINTON AVE 8C","MILWAUKEE","WI","53203"
282227,"730 NW HEINZWOOD CIR","LAWTON","OK","73505"
282228,"730 OCEAN AVE","JERSEY CITY","NJ","07305"
282229,"730 PEACHTREE ST NE 570","ATLANTA","GA","30308"
282230,"730 PEACHTREE ST NE UNIT 570","ATLANTA","GA","30308"
282231,"730 PEACHTREE ST NE","ATLANTA","GA","30308"
282232,"730 PEACHTREE STREET NE 570","ATLANTA","GA","30308"
282233,"730 PEACHTREE STREET NE STE 570","ATLANTA","GA","30308"
282234,"730 PEACHTREE STREET NE SUITE 570","ATLANTA","GA","30308"
282235,"730 PINE STREET","HILLMAN","MI","49746"
282236,"730 POLK STREET 4TH FLOOR","SAN FRANCISCO","CA","94109"
282237,"730 PONCE DE LEON PLACE NE","ATLANTA","GA","30306"
282238,"730 QUINTON AVE","TRENTON","NJ","08629"
282239,"730 RASCO RD","SOUTHAVEN","MS","38671"
282240,"730 RIVERSIDE DRIVE SUITE 9E","NEW YORK","NY","10031"
282241,"730 RIVERSIDE DRIVE","ESSEX","MD","21221"
282242,"730 RUBRIGHT RD","APOLLO","PA","15613"
282243,"730 S BROADWAY","ESCONDIDO","CA","92025"
282244,"730 S CHESTNUT STREET","NANTICOKE","PA","18634"
282245,"730 S CLOVERDALE AVE","LOS ANGELES","CA","90036"
282246,"730 S CLOVERDALE AVENUE","LOS ANGELES","CA","90036"
282247,"730 SAINT CLAIR NW","WALKER","MI","49534"
282248,"730 SE PARKER DRIVE","WAUKEE","IA","50263"
282249,"730 SIENNA DRIVE","CUMMING","GA","30040"
282250,"730 SIENNA VALLEY DRIVE","BRASELTON","GA","30517"
282251,"730 SINCLAIR WAY","JONESBORO","GA","30238"
282252,"730 STOVALL ROAD","ELIZABETHTOWN","KY","42701"
282253,"730 SYBIL AVENUE","SAN LEANDRO","CA","94577"
282254,"730 TARPON AVE UNIT B","FERNANDINA BEACH","FL","32034"
282255,"730 TENNESSEE ST","VALLEJO","CA","94590"
282256,"730 THIRD STREET","ALBANY","NY","12203"
282257,"730 TIDAL MARSH WALK","LOGANVILLE","GA","30052"
282258,"730 TWIN EAGLES LANE","LEBANON","KY","40033"
282259,"730 UNIVERSITY AVENUE","ITHACA","NY","14850"
282260,"730 VALLEY LANE","WEATHERFORD","TX","76085"
282261,"730 W HALLANDALE BEACH BLVD STE 109","HALLENDALE","FL","33009"
282262,"730 W INDIANOLA","ROSEBURG","OR","97471"
282263,"730 WINDERMERE XING E","MADISONVILLE","LA","70447"
282264,"730 YORKDALE DRIVE","CHARLOTTE","NC","28217"
282265,"730-B AMBERLY DRIVE","WATERFORD","MI","48328"
282266,"7300 80TH ST SE","MINOT","ND","58701"
282267,"7300 ABERCORN STREET","SAVANNAH","GA","31406"
282268,"7300 BELFONTE LANE","TERRE HAUTE","IN","47802"
282269,"7300 BELLINGHAM DRIVE","KNOXVILLE","TN","37919"
282270,"7300 BENT BOW TRAIL","CHANHASSEN","MN","55317"
282271,"7300 BLUEBONNET DR","ROWLETT","TX","75089"
282272,"7300 BRIGGS AVE","COCOA","FL","32927"
282273,"7300 BROOKLYN BLVD","BROOKLYN PARK","MN","55443"
282274,"7300 BROOKRIDGE CENTRAL BLVD","BROOKSVILLE","FL","34613"
282275,"7300 BUTTE VISTA","PRESCOTT VALLEY","AZ","86315"
282276,"7300 CALLBRAM LANE","AUSTIN","TX","78736"
282277,"7300 CARDINAL ROAD","CRESTWOOD","KY","40014"
282278,"7300 CASTLEGATE BLVD","KNOXVILLE","TN","37918"
282279,"7300 CEDAR POST ROAD - APT M6","LIVERPOOL","NY","13088"
282280,"7300 CITY AVE SUITE 310","PHILADELPHIA","PA","19151"
282281,"7300 CITY AVENUE SUITE 310","PHILADELPHIA","PA","19151"
282282,"7300 CROSBY LAKE ROAD","WHITE LAKE","MI","48383"
282283,"7300 E 109 ST","KANSAS CITY","MO","64134"
282284,"7300 EBBTIDE DRIVE","NEW ORLEANS","LA","70126"
282285,"7300 FAIRWAY TRL","BOCA RATON","FL","33487"
282286,"7300 FIRCREST AVE","SEBASTOPOL","CA","95472"
282287,"7300 FOREST RIDGE DRIVE","SCHERERVILLE","IN","46375"
282288,"7300 FRANCE AVENUE S SUITE 215","EDINA","MN","55435"
282289,"7300 GALLAGHER DRIVE APT 301","EDINA","MN","55435"
282290,"7300 HIDDEN FOREST DR","HUDSONVILLE","MI","49426"
282291,"7300 HILMAR DR","CHESTERFIELD","VA","23224"
282292,"7300 JOHNSTON ROAD","PLEASANTON","CA","94588"
282293,"7300 KARL MAY DR","WACO","TX","76708"
282294,"7300 KNOLLWOOD RD","TOWSON","MD","21286"
282295,"7300 LAKEVIEW DR","BLANCHARD","OK","73010"
282296,"7300 MABELVALE PIKE","LITTLE ROCK","AR","72209"
282297,"7300 MEADOW GLEN DRIVE","PARKER","TX","75002"
282298,"7300 MICHAEL ROAD","MIDDLETOWN","OH","45042"
282299,"7300 MT OAK LANE","GEORGETOWN","CA","95651"
282300,"7300 N DYSART RD","GLENDALE","AZ","85307"
282301,"7300 NILES CENTER ROAD","SKOKIE","IL","60077"
282302,"7300 NILES CENTER","SKOKIE","IL","60077"
282303,"7300 NW 118TH STREET","OKLAHOMA CITY","OK","73162"
282304,"7300 NW 11TH CT","PLANTATION","FL","33313"
282305,"7300 OLIVER ST","LANHAM","MD","20706"
282306,"7300 PARKDALE DR","NORFOLK","VA","23505"
282307,"7300 PENZANCE BLVD APT 506","FORT MYERS","FL","33966"
282308,"7300 PROVIDENCE DR","EDWARDSVILLE","IL","62025"
282309,"7300 RENDON NEW HOPE ROAD","FORT WORTH","TX","76140"
282310,"7300 RIDGEVIEW AVENUE","PITTSBURGH","PA","15235"
282311,"7300 SANDLAKE COMMONS BLVD 105","ORLANDO","FL","32819"
282312,"7300 SHALIMAR STREET","MIRAMAR","FL","33023"
282313,"7300 SHARON ROAD","NEWBURGH","IN","47630"
282314,"7300 SOUTH ASHLAND","CHICAGO","IL","60636"
282315,"7300 W FULLERTON AVE UNIT 35280","ELMWOOD PARK","IL","60707"
282316,"7300 W PALMER LAKE DRIVE","BROOKLYN PARK","MN","55429"
282317,"7300 WEST ADDISON STREET","CHICAGO","IL","60607"
282318,"7300 WOODROW STREET","IRMO","SC","29063"
282319,"7301  RAVINIA","ST. LOUIS","MO","63121"
282320,"7301 AIRLINE AVE","URBANDALE","IA","50322"
282321,"7301 AMBERLY LANE UNIT 205","DELRAY BEACH","FL","33446"
282322,"7301 BALMORAL DR","C","TX","76034"
282323,"7301 BASEBALL AVE","TAMPA","FL","33634"
282324,"7301 BELAIR ROAD","BALTIMORE","MD","21206"
282325,"7301 BLAIR ROAD NW","WASHINGTON","DC","20012"
282326,"7301 BRIGADE COURT","FREDERICKSBURG","VA","22407"
282327,"7301 BROADWAY AVE N","ROCHESTER","MN","55906"
282328,"7301 CRUBE CT","GRANBURY","TX","76049"
282329,"7301 E 22ND ST STE 2W","TUCSON","AZ","85710"
282330,"7301 E 22ND ST","TUCSON","AZ","85710"
282331,"7301 E 22ND STREET","TUCSON","AZ","85710"
282332,"7301 E BROWN RD","MESA","AZ","85207"
282333,"7301 E INDIAN BEND ROAD","SCOTTSDALE","AZ","85250"
282334,"7301 EAST BROWN ROAD","MESA","AZ","85207"
282335,"7301 FM 1902","JOSHUA","TX","76058"
282336,"7301 HANNA STREET","GILROY","CA","95020"
282337,"7301 HENNESSY BLVD SUITE 200","BATON ROUGE","LA","70808"
282338,"7301 LENNOX AVE UNIT C-10","VAN NUYS","CA","91405"
282339,"7301 LISMORE COURT","ORLANDO","FL","32835"
282340,"7301 N 12TH ST","PHOENIX","AZ","85020"
282341,"7301 N RIDGE BLVD APT 310","CHICAGO","IL","60645"
282342,"7301 NORMANDIE COURT APT C","HAZELWOOD","MO","63042"
282343,"7301 NW 16 ST D271","PLANTATION","FL","33313"
282344,"7301 RANCH ROAD 620 N SUITE 155 255","AUSTIN","TX","78726"
282345,"7301 RR 620 N STE 155 BOX 112","AUSTIN","TX","78726"
282346,"7301 S HARRISON HILLS DR  NO 205","LA VISTA","NE","68128"
282347,"7301 S PAXTON STREET","CHICAGO","IL","60649"
282348,"7301 SPRINGFIELD AVENUE","SYKESVILLE","MD","21784"
282349,"7301 SUNVIEW DR","COLUMBIA","SC","29209"
282350,"7301 WHITE LANE COURT","PEARLAND","TX","77574"
282351,"7302 BANBURY CT","BATON ROUGE","LA","70818"
282352,"7302 BONDURANT RD","PUEBLO","CO","81004"
282353,"7302 N 177TH AVE","WADDELL","AZ","85254"
282354,"7302 N RICHMOND AVE","PORTLAND","OR","97203"
282355,"7302 ROCKRIDGE ROAD","PIKESVILLE","MD","21207"
282356,"7302 S MEADOWS LANE","FRENCH LICK","IN","47432"
282357,"7302 SIX MILE LN APT 1","LOUISVILLE","KY","40220"
282358,"7302 SOUTH BINGHAM JUNCTION BLVD","MIDVALE","UT","84047"
282359,"7302 SOUTH GERMER ST","TAMPA","FL","33616"
282360,"7302 W DONALD DR","GLENDALE","AZ","85310"
282361,"7302 WARDLEIGH RD","HILL AFB","UT","84056"
282362,"7303 ALTHORP WAY","NA","TN","37211"
282363,"7303 CHICAMUXEN COURT","BRANDYWINE","MD","20613"
282364,"7303 DEN MEADE AVE","FORT WASHINGTON","MD","20744"
282365,"7303 EXETER STREET UNIT 208","PARAMOUNT","CA","90723"
282366,"7303 HOMESTEAD ROAD","MORGANTOWN","IN","46160"
282367,"7303 JOSEPH LANE","BAYTOWN","TX","77523"
282368,"7303 LAKE ARMSTRONG ROAD","ARLINGTON","WA","98223"
282369,"7303 LORETTA LANE     PO BOX 192","SMARTSVILLE","CA","95977"
282370,"7303 MONETARY DRIVE","ORLANDO","FL","32809"
282371,"7303 N 115TH ST","LONGMONT","CO","80504"
282372,"7303 NE WILLIAM ROGERS RD","INDIANOLA","WA","98342"
282373,"7303 NW 116TH LANE","PARKLAND","FL","33076"
282374,"7303 SALISBURY RD","MAUMEE","OH","43537"
282375,"7303 W BELMONT AVE","CHICAGO","IL","60634"
282376,"7303 WASHITA WAY","SAN ANTONIO","TX","78256"
282377,"7303 WILLOWBRANCH COURT","NORTH CHESTERFIELD","VA","23234"
282378,"7303 WINCHESTER DR","SOLON","OH","44139"
282379,"7303 WOOD ROCK RD","LOUISVILLE","KY","40291"
282380,"73030 LION DRIVE","COVINGTON","LA","70433"
282381,"73030 LIONS DR","COVINGTON","LA","70433"
282382,"7304 5TH AVE PMB 184","BROOKLYN","NY","11209"
282383,"7304 CARROLL AVENUE NO 190","TAKOMA PARK","MD","20912"
282384,"7304 COLONEL GLENN ROAD","LITTLE ROCK","AR","72204"
282385,"7304 DIRECTOR DR","BATON ROUGE","LA","70817"
282386,"7304 GALILEO WAY","LANHAM","MD","20706"
282387,"7304 HOGPATH RD","GREENVILLE","OH","45331"
282388,"7304 SENNAWOOD DR","CEDAR HILL","MO","63016"
282389,"7304 SWANSON DRIVE","PLANO","TX","75025"
282390,"7304 TREETOP HILL LANE","SPRINGFIELD","VA","22152"
282391,"7304 UDINE AVENUE","ORLANDO","FL","32819"
282392,"7304 WEST 130TH STREET SUITE 370","OVERLAND PARK","KS","66213"
282393,"7304 WEXFORD CT","NORTH RICHLAND HILLS","TX","76182"
282394,"7304 WILLOW GLEN WAY","ELKRIDGE","MD","21075"
282395,"7304","INDIANAPOLIS","IN","46259"
282396,"7304A S DORCHESTER AVE","CHICAGO","IL","60619"
282397,"7305 15TH PLACE","TAKOMA PARK","MD","20912"
282398,"7305 BALTIMORE AVE SUITE 307","COLLEGE PARK","MD","20740"
282399,"7305 BOISENBERRY LN","DALLAS","TX","75249"
282400,"7305 CALLE CONIFERA","CARLSBAD","CA","92009"
282401,"7305 DANCE HALL RD","FREDERICK","MD","21701"
282402,"7305 E FURNACE BRANCH RD","GLEN BURNIE","MD","21060"
282403,"7305 GODDARD DR","LANHAM","MD","20706"
282404,"7305 HANCOCK VILLAGE DR STE 324","CHESTERFIELD","VA","23832"
282405,"7305 HARVEST LANE","FREDERICKSBURG","VA","22407"
282406,"7305 HAZELTINE AVE STE 105","VAN NUYS","CA","91405"
282407,"7305 HYDE COURT","FORT WORTH","TX","76112"
282408,"7305 JANCZLIK DR","NEW PORT RICHEY","FL","34652"
282409,"7305 LA SOBRINA DR","DALLAS","TX","75248"
282410,"7305 MAIN STREET PO BOX 432","PORT SANILAC","MI","48469"
282411,"7305 MAPLECREST ROAD  NUMBER 306","ELKRIDGE","MD","21075"
282412,"7305 MIDDLETON DRIVE","FREDERICKSBURG","VA","22407"
282413,"7305 NORTH 33RD STREET","MCALLEN","TX","78504"
282414,"7305 OLD CHAPEL","COLLEGE PARK","GA","30349"
282415,"7305 SAN DARIO AVE STE G 310","LAREDO","TX","78045"
282416,"7305 SHARPLESS RD","MELROSE PARK","PA","19027"
282417,"7305 SOUTH STEWART  3C","CHICAGO","IL","60621"
282418,"7305 SUMMER GROVE AVENUE","LAS VEGAS","NV","89117"
282419,"7305 VENICE DRIVE UNIT 4","GRAND PRAIRIE","TX","75054"
282420,"7305 VILLE COURT","PARMA","OH","44129"
282421,"7305 W ATLANTIC BLVD SUITE 101","MARGATE","FL","33063"
282422,"7305 W CARIBBEAN LANE","PEORIA","AZ","85381"
282423,"7305 WALKER MILL ROAD","CAPITOL HEIGHTS","MD","20743"
282424,"7305 WESTERLY CT","CORPUS CHRISTI","TX","78414"
282425,"7306 BRANDENBURG CV","FAIRVIEW","TN","37062"
282426,"7306 E NARANJA AVE","MESA","AZ","85209"
282427,"7306 FRANKLIN RD","ANNANDALE","VA","22003"
282428,"7306 INZER STREET","SPRINGFIELD","VA","22151"
282429,"7306 LIGHTHOUSE RD","ARLINGTON","TX","76002"
282430,"7306 N HAMILTON ST","SPOKANE","WA","99208"
282431,"7306 NANTUCKET CT APT 2B","INDIANAPOLIS","IN","46214"
282432,"7306 ROCKRIDGE RD","GWYNN OAK","MD","21207"
282433,"7306 SATSUMA ST","HOUSTON","TX","77023"
282434,"7306 W 145TH TERR","OVERLAND PARK","KS","66223"
282435,"7306 WATERBURRY DR","ROWLETT","TX","75089"
282436,"7307 BINNACLE DR","CARLSBAD","CA","92011"
282437,"7307 CRESCENT BRIDGE COURT","HUMBLE","TX","77396"
282438,"7307 EMANON","DEARBORN","MI","48216"
282439,"7307 FLINT DR","SHAWNEE","KS","66203"
282440,"7307 GEORGE WASHINGTON MEM HWY","YORKTOWN","VA","23692"
282441,"7307 GLENWOOD LANE","OVERLAND PARK","KS","66204"
282442,"7307 HASKELL AVE STE 11","VAN NUYS","CA","91406"
282443,"7307 KINGS MANOR COURT","OKLAHOMA CITY","OK","73132"
282444,"7307 N DIVISION SUITE 222","SPOKANE","WA","99208"
282445,"7307 N WILLOWLAKE COURT","PEORIA","IL","61614"
282446,"7307 PACIFIC STREET","DAVENPORT","IA","52806"
282447,"7307 QUIET GLEN DRIVE","SUGAR LAND","TX","77479"
282448,"7307 S BENNETT AVE  2ND FL","CHICAGO","IL","60649"
282449,"7307 SHELL RIDGE TER","LAKE WORTH","FL","33467"
282450,"7307 STATECREST DRIVE","ANNANDALE","VA","22003"
282451,"7307 W MESQUITE RIVER DR","TUCSON","AZ","85743"
282452,"7307 WEBER STREET","OMAHA","NE","68122"
282453,"7307 WOODLAKE CT","WHITE CITY","OR","97503"
282454,"7308 141ST STREET COURT EAST","PUYALLUP","WA","98373"
282455,"7308 BLAISDELL AVE S","RICHFIELD","MN","55423"
282456,"7308 FLINTROCK ROAD","NORTH LITTLE ROCK","AR","72116"
282457,"7308 GRASS CV","AUSTIN","TX","78759"
282458,"7308 HANOVER GREEN DRIVE SUITE 300","MECHANICSVILLE","VA","23111"
282459,"7308 HIHENGE CT APT 1","RALEIGH","NC","27615"
282460,"7308 LOCH DUNNE PLACE","DUBLIN","OH","43016"
282461,"7308 S RIDGELAND  UNIT 3N","CHICAGO","IL","60649"
282462,"7308 WEST 91 STREET","LOS ANGELES","CA","90045"
282463,"7309 BALTIMORE AVE STE 117","COLLEGE PARK","MD","20740"
282464,"7309 BALTIMORE AVENUE SUITE 117","COLLEGE PARK","MD","20740"
282465,"7309 CODY CT","PLANO","TX","75024"
282466,"7309 CORAL LAKE DR","FLOWERY BRANCH","GA","30542"
282467,"7309 E COLONIAL DRIVE STE 600","ORLANDO","FL","32807"
282468,"7309 FRANKFORD AVE","PHILADELPHIA","PA","19136"
282469,"7309 GLENROIE AVE APT B","NORFOLK","VA","23505"
282470,"7309 HERITAGE OAKS COURT","ARLINGTON","TX","76001"
282471,"7309 LAZY CREEK DRIVE","AUSTIN","TX","78724"
282472,"7309 LEESBURG ROAD","CHARLOTTE","NC","28215"
282473,"7309 MCKINNEY MEADOWS DR","MCKINNEY","TX","75071"
282474,"7309 N 82ND DR","GLENDALE","AZ","85303"
282475,"7309 ST JOHN STREET","DETROIT","MI","48210"
282476,"7309 SW 8TH COURT","NORTH LAUDERDALE","FL","33068"
282477,"7309 W 80TH ST STE 300","OVERLAND PARK","KS","66204"
282478,"7309 W CARTER RD","LAVEEN","AZ","85339"
282479,"7309 WINTHORP WAY UNIT 6","DOWNERS GROVE","IL","60516"
282480,"731 44TH STREET","LOS ALAMOS","NM","87544"
282481,"731 8TH STREET SE STE 201","WASHINGTON","DC","20003"
282482,"731 ANSLEY PLACE CT","HOUMA","LA","70360"
282483,"731 BELLE POINTE BLVD","LAPLACE","LA","70068"
282484,"731 BRADFORD TERRACE","WEST CHESTER","PA","19382"
282485,"731 BUTTONWOOD DR","KISSIMMEE","FL","34743"
282486,"731 CANTABURY LN","MILLBROOK","AL","36054"
282487,"731 CHANCELLOR HEIGHTS DRIVE","MANCHESTER","MO","63011"
282488,"731 CHAPEL HILLS DRIVE","COLORADO SPRINGS","CO","80920"
282489,"731 CHESTNUT STREET","BALLY","PA","19503"
282490,"731 CIRCLE DRIVE","LONDON","OH","43140"
282491,"731 CLOUDYFOLD DRIVE","PIKESVILLE","MD","21208"
282492,"731 COLLEGE STREET","CALHOUN","GA","30701"
282493,"731 COLUMBIA RD","FORT COLLINS","CO","80525"
282494,"731 CROWN STREET","MORRISVILLE","PA","19067"
282495,"731 DURHAM TERRACE","BRICK","NJ","08724"
282496,"731 DUVAL STATION RD 107-159","JAX","FL","32218"
282497,"731 DUVAL STATION RD STE 107-126","JACKSONVILLE","FL","32218"
282498,"731 DUVAL STATION RD STE 107-168","JACKSONVILLE","FL","32218"
282499,"731 DUVAL STATION RD STE 107-287","JACKSONVILLE","FL","32218"
282500,"731 DUVAL STATION RD STE 107-432","JACKSONVILLE","FL","32218"
