"ID","Address","City","State","Zip"
352001,"PO BOX 530381","HENDERSON","NV","89053"
352002,"PO BOX 53039","FAYETTEVILLE","NC","28305"
352003,"PO BOX 5304","EDMOND","OK","73083"
352004,"PO BOX 5304","FRISCO","TX","75035"
352005,"PO BOX 5304","HEMET","CA","92544"
352006,"PO BOX 530423","GRAND PRAIRIE","TX","75053"
352007,"PO BOX 530432","BIRMINGHAM","AL","35253"
352008,"PO BOX 5305","KENT","WA","98030"
352009,"PO BOX 5305","PASCO","WA","99302"
352010,"PO BOX 530528","GRAND PRAIRIE","TX","75053"
352011,"PO BOX 530573","GRAND PRAIRIE","TX","75053"
352012,"PO BOX 530597","HENDERSON","NV","89053"
352013,"PO BOX 5306","KAILUA KONA","HI","96745"
352014,"PO BOX 5306","SUFFOLK","VA","23435"
352015,"PO BOX 530823","SAINT PETERSBURG","FL","33747"
352016,"PO BOX 53086","BELLEVUE","WA","98015"
352017,"PO BOX 5309","BEAVERTON","OR","97006"
352018,"PO BOX 5309","WARREN","MI","48090"
352019,"PO BOX 530905","HENDERSON","NV","89053"
352020,"PO BOX 530911","SAN DIEGO","CA","92153"
352021,"PO BOX 531  219 E MAIN ST","LOUISA","VA","23093"
352022,"PO BOX 531","AMITY","OR","97101"
352023,"PO BOX 531","ANTIOCH","CA","94509"
352024,"PO BOX 531","BRITTON","SD","57430"
352025,"PO BOX 531","BUFFALO","WY","82834"
352026,"PO BOX 531","CENTER VALLEY","PA","18034"
352027,"PO BOX 531","CLAYTON","DE","19938"
352028,"PO BOX 531","DRIPPING SPRINGS","TX","78620"
352029,"PO BOX 531","EAST OLYMPIA","WA","98540"
352030,"PO BOX 531","GALVESTON","TX","77553"
352031,"PO BOX 531","GOSHEN","MA","01032"
352032,"PO BOX 531","KALKASKA","MI","49646"
352033,"PO BOX 531","KINDERHOOK","NY","12106"
352034,"PO BOX 531","LINCOLN","IL","62656"
352035,"PO BOX 531","LOUP CITY","NE","68853"
352036,"PO BOX 531","MARICAO","PR","00606"
352037,"PO BOX 531","MURRAY","KY","42071"
352038,"PO BOX 531","PALMYRA","NJ","08065"
352039,"PO BOX 531","REIDSVILLE","GA","30453"
352040,"PO BOX 531","VERO BEACH","FL","32961"
352041,"PO BOX 531004","HENDERSON","NV","89052"
352042,"PO BOX 531004","HENDERSON","NV","89053"
352043,"PO BOX 53102","BELLEVUE","WA","98015"
352044,"PO BOX 531046","CINCINNATI","OH","45253"
352045,"PO BOX 531058","HENDERSON","NV","89053"
352046,"PO BOX 53108","CHICAGO","IL","60653"
352047,"PO BOX 53108","FAYETTEVILLE","NC","28305"
352048,"PO BOX 531095","HENDERSON","NV","89053"
352049,"PO BOX 5311","GOODYEAR","AZ","85338"
352050,"PO BOX 5311","SAN DIEGO","CA","92165"
352051,"PO BOX 531129","CINCINNATI","OH","45253"
352052,"PO BOX 531134","GRAND PRAIRIE","TX","75053"
352053,"PO BOX 531182","LAKE PARK","FL","33403"
352054,"PO BOX 531214","CINCINNATI","OH","45253"
352055,"PO BOX 53134","KNOXVILLE","TN","37950"
352056,"PO BOX 531427","GRAND PRAIRIE","TX","75053"
352057,"PO BOX 531534","HENDERSON","NV","89053"
352058,"PO BOX 531541","CINCINNATI","OH","45253"
352059,"PO BOX 5316","CHESAPEAKE","VA","23324"
352060,"PO BOX 5316","KINGWOOD","TX","77325"
352061,"PO BOX 53163","LUBBOCK","TX","79453"
352062,"PO BOX 531632","HENDERSON","NV","89053"
352063,"PO BOX 531728","HARLINGEN","TX","78553"
352064,"PO BOX 531751","GRAND PRAIRIE","TX","75053"
352065,"PO BOX 53192","OKLAHOMA CITY","OK","73152"
352066,"PO BOX 532","ADAMS CENTER","NY","13606"
352067,"PO BOX 532","AVON","CO","81620"
352068,"PO BOX 532","CHARLESTON","TN","37310"
352069,"PO BOX 532","COUPEVILLE","WA","98239"
352070,"PO BOX 532","DRACUT","MA","01826"
352071,"PO BOX 532","EAST MEADOW","NY","11554"
352072,"PO BOX 532","ELLENSBURG","WA","98926"
352073,"PO BOX 532","FONTANA","CA","92334"
352074,"PO BOX 532","GLOUCESTER CITY","NJ","08030"
352075,"PO BOX 532","GOLETA","CA","93116"
352076,"PO BOX 532","GREEN","OH","44232"
352077,"PO BOX 532","HUBBARD","TX","76648"
352078,"PO BOX 532","KAHUKU","HI","96731"
352079,"PO BOX 532","MENDON","MI","49072"
352080,"PO BOX 532","MOUNT VERNON","NY","10552"
352081,"PO BOX 532","NEWBURY","OH","44065"
352082,"PO BOX 532","NORRISTOWN","PA","19404"
352083,"PO BOX 532","PINE HILL","NY","12465"
352084,"PO BOX 532","PRESTON","WA","98050"
352085,"PO BOX 532","PRINCEVILLE","IL","61559"
352086,"PO BOX 532","ROCKAWAY","NJ","07866"
352087,"PO BOX 532","SALEM","OR","97308"
352088,"PO BOX 532","SCARSDALE","NY","10583"
352089,"PO BOX 532","SILVERTON","CO","81433"
352090,"PO BOX 532","WAILUKU","HI","96793"
352091,"PO BOX 532068","GRAND PRAIRIE","TX","75053"
352092,"PO BOX 5321","CHICAGO","IL","60680"
352093,"PO BOX 5321","MACON","GA","31208"
352094,"PO BOX 5321","NAPERVILLE","IL","60567"
352095,"PO BOX 532196","CINCINNATI","OH","45253"
352096,"PO BOX 53224","FAYETTEVILLE","NC","28305"
352097,"PO BOX 532264","LIVONIA","MI","48153"
352098,"PO BOX 5323","SACRAMENTO","CA","95817"
352099,"PO BOX 5324","VANCLEAVE","MS","39565"
352100,"PO BOX 532477","INDIANAPOLIS","IN","46253"
352101,"PO BOX 532521","GRAND PRAIRIE","TX","75053"
352102,"PO BOX 5327","MANSFIELD","OH","44901"
352103,"PO BOX 53282","SAN JOSE","CA","95153"
352104,"PO BOX 53283","LAFAYETTE","LA","70505"
352105,"PO BOX 53293","WASHINGTON","DC","20009"
352106,"PO BOX 533","ARCHBOLD","OH","43502"
352107,"PO BOX 533","CARTHAGE","TX","75633"
352108,"PO BOX 533","CECILIA","LA","70521"
352109,"PO BOX 533","CLEARLAKE","CA","95433"
352110,"PO BOX 533","DARLINGTON","SC","29532"
352111,"PO BOX 533","GLENDALE","AZ","85311"
352112,"PO BOX 533","GULF BREEZE","FL","32562"
352113,"PO BOX 533","HAMPTON","NH","03843"
352114,"PO BOX 533","JONES","OK","73049"
352115,"PO BOX 533","LELAND","IL","60531"
352116,"PO BOX 533","LITTLE RIVER ACADEMY","TX","76554"
352117,"PO BOX 533","MORRIS","IL","60450"
352118,"PO BOX 533","POUGHQUAG","NY","12570"
352119,"PO BOX 533","QUECHEE","VT","05059"
352120,"PO BOX 533","SCOTT","LA","70583"
352121,"PO BOX 533","SECRETARY","MD","21664"
352122,"PO BOX 533","ST HELENA","SC","29920"
352123,"PO BOX 533","TERRELL","TX","75160"
352124,"PO BOX 533","VALLEY VIEW","PA","17983"
352125,"PO BOX 533","WADENA","MN","56482"
352126,"PO BOX 533","WHITEVILLE","NC","28472"
352127,"PO BOX 533077","ORLANDO","FL","32853"
352128,"PO BOX 5331","GAINESVILLE","FL","30504"
352129,"PO BOX 53310","CHICAGO","IL","60615"
352130,"PO BOX 533216","INDIANAPOLIS","IN","46253"
352131,"PO BOX 5333","SHASTA LAKE","CA","96089"
352132,"PO BOX 5333","Suffolk","VA","23435"
352133,"PO BOX 53336","LUBBOCK","TX","79453"
352134,"PO BOX 5334 ORANGE AVE","CLEVELAND","OH","44101"
352135,"PO BOX 533664","HARLINGEN","TX","78552"
352136,"PO BOX 534  8 POMEROY MEADOW ROAD","SOUTHAMPTON","MA","01073"
352137,"PO BOX 534","ADA","OK","74821"
352138,"PO BOX 534","CAMBRIDGE","MD","21613"
352139,"PO BOX 534","CHENANGO BRIDGE","NY","13745"
352140,"PO BOX 534","CHOWCHILLA","CA","93610"
352141,"PO BOX 534","DUFUR","OR","97021"
352142,"PO BOX 534","EBENSBURG","PA","15931"
352143,"PO BOX 534","FALLS","TX","78113"
352144,"PO BOX 534","FELTON","CA","95018"
352145,"PO BOX 534","FORT SUMNER","NM","88119"
352146,"PO BOX 534","HARLEYSVILLE","PA","19438"
352147,"PO BOX 534","INDIAN LAKE","NY","12842"
352148,"PO BOX 534","IRRIGON","OR","97844"
352149,"PO BOX 534","KATY","TX","77492"
352150,"PO BOX 534","KAUKAUNA","WI","54130"
352151,"PO BOX 534","LAKE JACKSON","TX","77566"
352152,"PO BOX 534","LAKE ODESSA","MI","48849"
352153,"PO BOX 534","LIVINGSTON","TX","77351"
352154,"PO BOX 534","LUCEDALE","MS","39452"
352155,"PO BOX 534","MANCHESTER","NH","03105"
352156,"PO BOX 534","MILFORD","MI","48381"
352157,"PO BOX 534","NEW CUMBERLAND","PA","17070"
352158,"PO BOX 534","NEWPORT","WA","99156"
352159,"PO BOX 534","POCONO PINES","PA","18350"
352160,"PO BOX 534","PORTAGE","IN","46368"
352161,"PO BOX 534","SELLERSBURG","IN","47172"
352162,"PO BOX 534","TYNGSBOROUGH","MA","01879"
352163,"PO BOX 5341","GAINESVILLE","FL","32627"
352164,"PO BOX 5341","SYLVESTER","GA","31791"
352165,"PO BOX 5341","WILLOWICK","OH","44095"
352166,"PO BOX 53421","LUBBOCK","TX","79453"
352167,"PO BOX 534252","HARLINGEN","TX","78553"
352168,"PO BOX 5344","ETNA","WY","83118"
352169,"PO BOX 53454","FORT BENNING","GA","31905"
352170,"PO BOX 53458 C/O ELOUISE COLBERT","BATON ROUGE","LA","70892"
352171,"PO BOX 5346","PASADENA","TX","77508"
352172,"PO BOX 53499","SAN JOSE","CA","95153"
352173,"PO BOX 535","CEDAR SPRINGS","MI","49319"
352174,"PO BOX 535","CONNEAUT LAKE","PA","16316"
352175,"PO BOX 535","DALE","IN","47523"
352176,"PO BOX 535","DODGE CITY","KS","67801"
352177,"PO BOX 535","ENFIELD","CT","06083"
352178,"PO BOX 535","FLAT ROCK","MI","48134"
352179,"PO BOX 535","FRESNO","TX","77545"
352180,"PO BOX 535","HAXTUN","CO","80731"
352181,"PO BOX 535","HUSTISFORD","WI","53034"
352182,"PO BOX 535","MT VERNON","OH","43050"
352183,"PO BOX 535","OXFORD","OH","45056"
352184,"PO BOX 535","PAULDEN","AZ","86334"
352185,"PO BOX 535","SALEM","VA","24153"
352186,"PO BOX 535","SHERIDAN","WY","82801"
352187,"PO BOX 535","TWISP","WA","98856"
352188,"PO BOX 535","WAITSBURG","WA","99361"
352189,"PO BOX 535","ZELIENOPLE","PA","16063"
352190,"PO BOX 5351","WOODBRIDGE","VA","22191"
352191,"PO BOX 535111","GRAND PRAIRIE","TX","75053"
352192,"PO BOX 5352","SPARTANBURG","SC","29304"
352193,"PO BOX 5352","TACOMA","WA","98415"
352194,"PO BOX 5353","SANTA FE","NM","87502"
352195,"PO BOX 5354","CHRISTIANSTED","VI","00823"
352196,"PO BOX 53551","BATON ROUGE","LA","70892"
352197,"PO BOX 535611","GRAND PRAIRIE","TX","75053"
352198,"PO BOX 5357","FREDERICKSBURG","VA","22403"
352199,"PO BOX 5357","SPRINGFIELD","IL","62701"
352200,"PO BOX 5358","CLINTON","NJ","08809"
352201,"PO BOX 536","ASBURY PARK","NJ","07712"
352202,"PO BOX 536","BLOOMFIELD","NY","14469"
352203,"PO BOX 536","CLINTON","CT","06413"
352204,"PO BOX 536","DOWNIEVILLE","CA","95936"
352205,"PO BOX 536","FREMONT","NE","68025"
352206,"PO BOX 536","HASLET","TX","76052"
352207,"PO BOX 536","HEBRON","KY","41048"
352208,"PO BOX 536","LAPEER","MI","48446"
352209,"PO BOX 536","MACON","GA","31202"
352210,"PO BOX 536","NEWPORT BEACH","CA","92661"
352211,"PO BOX 536","PALMETTO","FL","34220"
352212,"PO BOX 536","PERU","IN","46970"
352213,"PO BOX 536","SHERWOOD","OR","97140"
352214,"PO BOX 536","ST CLAIR SHORES","MI","48080"
352215,"PO BOX 536","SUN PRAIRIE","WI","53590"
352216,"PO BOX 536","SUPERIOR","WI","54880"
352217,"PO BOX 536","TRACYTON","WA","98393"
352218,"PO BOX 536","WELLSTON","OH","45692"
352219,"PO BOX 5360","KINGSHILL","VI","00851"
352220,"PO BOX 536006","ORLANDO","FL","32853"
352221,"PO BOX 5363","BEAVERTON","OR","97006"
352222,"PO BOX 5363","STOCKTON","CA","95205"
352223,"PO BOX 5365","PLANT CITY","FL","33563"
352224,"PO BOX 536561","ORLANDO","FL","32853"
352225,"PO BOX 536794","ORLANDO","FL","32853"
352226,"PO BOX 536872","ORLANDO","FL","32853"
352227,"PO BOX 537","CENTER CITY","MN","44012"
352228,"PO BOX 537","CHILTON","TX","76632"
352229,"PO BOX 537","HAWTHORNE","CA","90250"
352230,"PO BOX 537","HOUSTON","MN","55943"
352231,"PO BOX 537","MUSKOGEE","OK","74402"
352232,"PO BOX 537","PELHAM","NH","03076"
352233,"PO BOX 537","TOKELAND","WA","98590"
352234,"PO BOX 537","TOMAHAWK","WI","54487"
352235,"PO BOX 5371 MS RC-507","SEATTLE","WA","98145"
352236,"PO BOX 5371","HILO","HI","96720"
352237,"PO BOX 5371","SOUTH SAN FRANCISCO","CA","94083"
352238,"PO BOX 5374","ETNA","WY","83118"
352239,"PO BOX 5374","PEORIA","AZ","85385"
352240,"PO BOX 5374","SAN JOSE","CA","95150"
352241,"PO BOX 53746","HOUSTON","TX","77052"
352242,"PO BOX 5376","GRANBURY","TX","76049"
352243,"PO BOX 53786","IRVINE","CA","92619"
352244,"PO BOX 538","CLINTON","NC","28329"
352245,"PO BOX 538","DRY RIDGE","KY","41035"
352246,"PO BOX 538","KEYSTONE HEIGHTS","FL","32656"
352247,"PO BOX 538","MEXICO","NY","13114"
352248,"PO BOX 538","NEWMAN","CA","95360"
352249,"PO BOX 538","SAN LUIS OBISPO","CA","93406"
352250,"PO BOX 538","STOCKTON","MO","65785"
352251,"PO BOX 538","TALLMAN","NY","10982"
352252,"PO BOX 538","VINELAND","NJ","08362"
352253,"PO BOX 538","WESTHAMPTON BEACH","NY","11978"
352254,"PO BOX 53804","FORT BENNING","GA","31995"
352255,"PO BOX 53807","LAFAYETTE","LA","70505"
352256,"PO BOX 539","CHILLICOTHE","OH","45601"
352257,"PO BOX 539","COLORADO SPRINGS","CO","80901"
352258,"PO BOX 539","EL CERRITO","CA","94530"
352259,"PO BOX 539","ELMA","WA","98541"
352260,"PO BOX 539","GREAT BARRINGTON","MA","01230"
352261,"PO BOX 539","HALF MOON BAY","CA","94019"
352262,"PO BOX 539","LIBBY","MT","59923"
352263,"PO BOX 539","PORT JEFFERSON STATI","NY","11776"
352264,"PO BOX 539","SAINT MARIES","ID","83861"
352265,"PO BOX 5391","KANEOHE","HI","96744"
352266,"PO BOX 5393","COCHITUATE","MA","01778"
352267,"PO BOX 5394","CINCINNATI","OH","45205"
352268,"PO BOX 5397","RICHMOND","CA","94805"
352269,"PO BOX 53975","FAYETTEVILLE","NC","28305"
352270,"PO BOX 54","BERLIN","MD","21811"
352271,"PO BOX 54","BOWIE","TX","76230"
352272,"PO BOX 54","CARROLLS","WA","98609"
352273,"PO BOX 54","CHATTAROY","WA","99003"
352274,"PO BOX 54","COLTON","OH","43510"
352275,"PO BOX 54","COTUIT","MA","02635"
352276,"PO BOX 54","DIXON","CA","95620"
352277,"PO BOX 54","HELOTES","TX","78023"
352278,"PO BOX 54","HIBERNIA","NJ","07842"
352279,"PO BOX 54","HILLBURN","NY","10931"
352280,"PO BOX 54","HILLSBORO","OH","45133"
352281,"PO BOX 54","HILLSBOROUGH","NC","27278"
352282,"PO BOX 54","HOLDERNESS","NH","03245"
352283,"PO BOX 54","MANKATO","KS","66956"
352284,"PO BOX 54","MCCLELLANDTOWN","PA","15458"
352285,"PO BOX 54","MEXICO","MO","65265"
352286,"PO BOX 54","MILFORD","IL","60953"
352287,"PO BOX 54","MODEL CITY","NY","14107"
352288,"PO BOX 54","MONUMENT","CO","80132"
352289,"PO BOX 54","N CAMBRIA","PA","15714"
352290,"PO BOX 54","NASH","TX","75569"
352291,"PO BOX 54","OLIVE HILL","KY","41164"
352292,"PO BOX 54","OTISVILLE","NY","10963"
352293,"PO BOX 54","PARLIN","NJ","08859"
352294,"PO BOX 54","PENNVILLE","IN","47369"
352295,"PO BOX 54","POMONA","NY","10970"
352296,"PO BOX 54","POWELL","WY","82435"
352297,"PO BOX 54","QUITAQUE","TX","79255"
352298,"PO BOX 54","ROLESVILLE","NC","27571"
352299,"PO BOX 54","SANTA BARBARA","CA","93102"
352300,"PO BOX 54","SEABROOK","NH","03874"
352301,"PO BOX 54","SLATON","TX","79364"
352302,"PO BOX 54","SOUTH PARK","PA","15129"
352303,"PO BOX 54","SOUTH POMFRET","VT","05067"
352304,"PO BOX 54","SUMRALL","MS","39482"
352305,"PO BOX 54","WEST DANVILLE","VT","05873"
352306,"PO BOX 540","BATESVILLE","MS","38606"
352307,"PO BOX 540","NEWARK","NJ","07101"
352308,"PO BOX 540","SPENCER","IN","47460"
352309,"PO BOX 540","STOCKTON","MO","65785"
352310,"PO BOX 540","SUSSEX","WI","53089"
352311,"PO BOX 5401","PORTLAND","OR","97228"
352312,"PO BOX 5402","WEST RICHLAND","WA","99353"
352313,"PO BOX 54021","WASHINGTON","DC","20032"
352314,"PO BOX 540263","MERRITT ISLAND","FL","32954"
352315,"PO BOX 540272","OPA LOCKA","FL","33054"
352316,"PO BOX 540294","DALLAS","TX","75354"
352317,"PO BOX 5403","ATLANTA","GA","31107"
352318,"PO BOX 540391","OMAHA","NE","68154"
352319,"PO BOX 5404","POLAND","OH","44514"
352320,"PO BOX 540455","LAKE WORTH","FL","33454"
352321,"PO BOX 540491","GRAND PRAIRIE","TX","75054"
352322,"PO BOX 5405","HEMET","CA","92544"
352323,"PO BOX 5406","KEY WEST","FL","33045"
352324,"PO BOX 540662","LAKE WORTH","FL","33454"
352325,"PO BOX 540772","ORLANDO","FL","32854"
352326,"PO BOX 540862","FLUSHING","NY","11354"
352327,"PO BOX 5409","SAGINAW","MI","48603"
352328,"PO BOX 540935","HOUSTON","TX","77254"
352329,"PO BOX 541","BELLE CHASSE","LA","70037"
352330,"PO BOX 541","BENTON HARBOR","MI","49023"
352331,"PO BOX 541","CARROLLTON","MS","38917"
352332,"PO BOX 541","ELIZABETHTOWN","KY","42702"
352333,"PO BOX 541","FT TOWSON","OK","74735"
352334,"PO BOX 541","LANETT","AL","36863"
352335,"PO BOX 541","MASON CITY","IA","50402"
352336,"PO BOX 541","MASSILLON","OH","44648"
352337,"PO BOX 541","MIDDLETON","ID","83644"
352338,"PO BOX 541","NEWPORT","WA","99156"
352339,"PO BOX 541","OLD BRIDGE","NJ","08857"
352340,"PO BOX 541","PANGUITCH","UT","84759"
352341,"PO BOX 541","PICKERINGTON","OH","43147"
352342,"PO BOX 541","RAPID CITY","SD","57709"
352343,"PO BOX 541","WALLKILL","NY","12589"
352344,"PO BOX 541","YARNELL","AZ","85362"
352345,"PO BOX 541063","HOUSTON","TX","77254"
352346,"PO BOX 5411","BAKERSFIELD","CA","93388"
352347,"PO BOX 541132","GREENACRES","FL","33454"
352348,"PO BOX 54129","WASHINGTON","DC","20032"
352349,"PO BOX 541512","WALTHAM","MA","02452"
352350,"PO BOX 5416","SIOUX CITY","IA","51102"
352351,"PO BOX 54166","CASPER","WY","82605"
352352,"PO BOX 5417","WENATCHEE","WA","98807"
352353,"PO BOX 541862","GRAND PRAIRIE","TX","75054"
352354,"PO BOX 541883","GREENACRES","FL","33454"
352355,"PO BOX 541885","GRAND PRAIRIE","TX","75054"
352356,"PO BOX 542","BARBOURVILLE","KY","40906"
352357,"PO BOX 542","BEEVILLE","TX","78104"
352358,"PO BOX 542","CLARKSTON","WA","99403"
352359,"PO BOX 542","CODEN","AL","36523"
352360,"PO BOX 542","DALTON","MA","01227"
352361,"PO BOX 542","EMPORIA","KS","66801"
352362,"PO BOX 542","ENNIS","TX","75120"
352363,"PO BOX 542","FAIRVIEW","OK","73737"
352364,"PO BOX 542","GARRISONVILLE","VA","22463"
352365,"PO BOX 542","GLEN ROCK","NJ","07452"
352366,"PO BOX 542","GRAND MARAIS","MN","55604"
352367,"PO BOX 542","GRINNELL","IA","50112"
352368,"PO BOX 542","HAYESVILLE","NC","28904"
352369,"PO BOX 542","HUGHSONVILLE","NY","12537"
352370,"PO BOX 542","LAS CRUCES","NM","88004"
352371,"PO BOX 542","LENOIR","NC","28645"
352372,"PO BOX 542","MADILL","OK","73446"
352373,"PO BOX 542","MAPLE VALLEY","WA","98038"
352374,"PO BOX 542","SILER CITY","NC","27344"
352375,"PO BOX 542","SILVERHILL","AL","36576"
352376,"PO BOX 542","SPRING BRANCH","TX","78070"
352377,"PO BOX 542","TYRONE","NM","88065"
352378,"PO BOX 542","WAYLAND","NY","14572"
352379,"PO BOX 542","WEST CHESTER","OH","45071"
352380,"PO BOX 542","WILLCOX","AZ","85644"
352381,"PO BOX 5421","TOMS RIVER","NJ","08754"
352382,"PO BOX 542211","HOUSTON","TX","77098"
352383,"PO BOX 542213","GRAND PRAIRIE","TX","75054"
352384,"PO BOX 5423","ORACLE","AZ","85623"
352385,"PO BOX 542334","GRAND PRAIRIE","TX","75054"
352386,"PO BOX 542362","GRAND PRAIRIE","TX","75054"
352387,"PO BOX 5424","GOODYEAR","AZ","85338"
352388,"PO BOX 5424","NEWPORT NEWS","VA","23605"
352389,"PO BOX 542451","DALLAS","TX","75354"
352390,"PO BOX 5426","BAY SHORE","NY","11706"
352391,"PO BOX 542635","MERRITT ISLAND","FL","32954"
352392,"PO BOX 542671","GRAND PRAIRIE","TX","75052"
352393,"PO BOX 542692","GRAND PRAIRIE","TX","75054"
352394,"PO BOX 5427","HAGATNA","GU","96932"
352395,"PO BOX 5427","SNOWMASS VILLAGE","CO","81615"
352396,"PO BOX 5428","FRISCO","TX","75035"
352397,"PO BOX 5428","HUNTSVILLE","AL","35814"
352398,"PO BOX 5429","VILLA PARK","IL","60181"
352399,"PO BOX 54294","WASHINGTON","DC","20032"
352400,"PO BOX 543","BUFFALO","NY","14202"
352401,"PO BOX 543","CABLE","WI","54821"
352402,"PO BOX 543","CARNESVILLE","GA","30521"
352403,"PO BOX 543","CENTERVILLE","UT","84014"
352404,"PO BOX 543","DEARBORN HEIGHTS","MI","48127"
352405,"PO BOX 543","DIAMOND SPRINGS","CA","95619"
352406,"PO BOX 543","DONNELLY","ID","83615"
352407,"PO BOX 543","FERRUM","VA","24088"
352408,"PO BOX 543","GREENEVILLE","TN","37744"
352409,"PO BOX 543","HARTWELL","GA","30643"
352410,"PO BOX 543","HASKELL","OK","74436"
352411,"PO BOX 543","ISLIP","NY","11751"
352412,"PO BOX 543","LEXINGTON","KY","40588"
352413,"PO BOX 543","LYNDEN","WA","98264"
352414,"PO BOX 543","MICHIGAN CENTER","MI","49254"
352415,"PO BOX 543","MISSOURI CITY","TX","77459"
352416,"PO BOX 543","RYE","NY","10580"
352417,"PO BOX 543","VERO BEACH","FL","32961"
352418,"PO BOX 543","WEST BRANCH","MI","48661"
352419,"PO BOX 543","WILDROSE","ND","58795"
352420,"PO BOX 543","YONKERS","NY","10702"
352421,"PO BOX 5430","CONCORD","NC","28027"
352422,"PO BOX 54304","OKLAHOMA CITY","OK","73154"
352423,"PO BOX 5431","NORMAN","OK","73070"
352424,"PO BOX 5432","YEADON","PA","19050"
352425,"PO BOX 5433","LA QUINTA","CA","92248"
352426,"PO BOX 543489","GRAND PRAIRIE","TX","75052"
352427,"PO BOX 5435","CLINTON","NJ","08809"
352428,"PO BOX 5435","GREENVILLE","SC","29606"
352429,"PO BOX 5436","SAGINAW","MI","48603"
352430,"PO BOX 54362","HURST","TX","76053"
352431,"PO BOX 5437","CLIFTON PARK","NY","12065"
352432,"PO BOX 54384","SAN JOSE","CA","95154"
352433,"PO BOX 544  131 OAK ST","DELAWARE WATER GAP","PA","18360"
352434,"PO BOX 544","ADRIAN","MI","49221"
352435,"PO BOX 544","BERRYVILLE","VA","22611"
352436,"PO BOX 544","CUMMING","GA","30028"
352437,"PO BOX 544","DELAWARE WATER GAP","PA","18327"
352438,"PO BOX 544","DICKINSON","TX","77539"
352439,"PO BOX 544","FLORENCE","MT","59833"
352440,"PO BOX 544","GEORGETOWN","CT","06829"
352441,"PO BOX 544","HARVARD","MA","01451"
352442,"PO BOX 544","HOBART","OK","73651"
352443,"PO BOX 544","JACKSONVILLE","IL","62651"
352444,"PO BOX 544","OMAHA","AR","72662"
352445,"PO BOX 544","OXFORD","MS","38655"
352446,"PO BOX 544","PITTSFIELD","ME","04967"
352447,"PO BOX 544","RIVERSIDE","NJ","08075"
352448,"PO BOX 544","SANTA MARIA","CA","93456"
352449,"PO BOX 544","SIOUX FALLS","SD","57101"
352450,"PO BOX 544","UNIONTOWN","OH","44232"
352451,"PO BOX 544","WILLOUGHBY","OH","44096"
352452,"PO BOX 544","WINSTED","MN","55395"
352453,"PO BOX 54401","MILLINGTON","TN","38054"
352454,"PO BOX 5441","ROCKVILLE","MD","20848"
352455,"PO BOX 5441","SYLVESTER","GA","31791"
352456,"PO BOX 54422","LEXINGTON","KY","40555"
352457,"PO BOX 5443","HIGH POINT","NC","27262"
352458,"PO BOX 5443","KEY WEST","FL","33045"
352459,"PO BOX 54430","CINCINNATI","OH","45254"
352460,"PO BOX 5444","CENTRAL POINT","OR","97502"
352461,"PO BOX 5444","CLEVELAND","TN","37320"
352462,"PO BOX 5445","HIGH POINT","NC","27262"
352463,"PO BOX 54452","ATLANTA","GA","30308"
352464,"PO BOX 54466","OKLAHOMA CITY","OK","73154"
352465,"PO BOX 5447","HERCULES","CA","94547"
352466,"PO BOX 5447","WAKEFIELD","RI","02880"
352467,"PO BOX 54476","CINCINNATI","OH","45254"
352468,"PO BOX 5448","BRYAN","TX","77805"
352469,"PO BOX 54482","TULSA","OK","74155"
352470,"PO BOX 545","ABINGTON","PA","19001"
352471,"PO BOX 545","BUTTE","MT","59703"
352472,"PO BOX 545","CAMAS","WA","98607"
352473,"PO BOX 545","DAYTON","TN","37321"
352474,"PO BOX 545","EDGEWATER","MD","21037"
352475,"PO BOX 545","EMERY","UT","84522"
352476,"PO BOX 545","GILBERT","SC","29054"
352477,"PO BOX 545","GRAND ISLAND","NE","68802"
352478,"PO BOX 545","HARTSVILLE","SC","29551"
352479,"PO BOX 545","JUNCTION CITY","KS","66441"
352480,"PO BOX 545","RAIL ROAD FLAT","CA","95248"
352481,"PO BOX 54505","HURST","TX","76054"
352482,"PO BOX 5451","CHARLESTON","WV","25361"
352483,"PO BOX 5454","CAREFREE","AZ","85377"
352484,"PO BOX 5454","HUNTSVILLE","AL","35814"
352485,"PO BOX 546 1700 1ST STREET","COLUMBIA CITY","OR","97018"
352486,"PO BOX 546","CARLISLE","PW","17013"
352487,"PO BOX 546","COPPELL","TX","75019"
352488,"PO BOX 546","EL DORADO","KS","67042"
352489,"PO BOX 546","EL RENO","OK","73036"
352490,"PO BOX 546","GRANT","MI","49327"
352491,"PO BOX 546","HIGHLAND","MD","20777"
352492,"PO BOX 546","MEDFORD","OR","97501"
352493,"PO BOX 546","MONA","UT","84645"
352494,"PO BOX 546","NORTH BELLMORE","NY","11710"
352495,"PO BOX 546","ONSET","MA","02558"
352496,"PO BOX 546","ORADELL","NJ","07649"
352497,"PO BOX 546","PHILMONT","NY","12565"
352498,"PO BOX 546","SHELBYVILLE","KY","40066"
352499,"PO BOX 546","SNOWMASS","CO","81654"
352500,"PO BOX 546","SUGAR LAND","TX","77487"
