"ID","Address","City","State","Zip"
349501,"PO BOX 447","HILLSBORO","WI","54634"
349502,"PO BOX 447","NEWPORT","NY","13416"
349503,"PO BOX 447","OCCOQUAN","VA","22125"
349504,"PO BOX 447","PORT ROYAL","SC","29935"
349505,"PO BOX 447","SEWELL","NJ","08080"
349506,"PO BOX 447","SIX MILE","SC","29682"
349507,"PO BOX 447","WASHINGTONVILLE","NY","10916"
349508,"PO BOX 4470","TULSA","OK","74159"
349509,"PO BOX 4472","ASHBURN","VA","20147"
349510,"PO BOX 4472","COMPTON","CA","90224"
349511,"PO BOX 4473","MOORESVILLE","NC","28117"
349512,"PO BOX 4475","HUNTSVILLE","AL","35815"
349513,"PO BOX 4475","MIDDLETOWN","RI","02842"
349514,"PO BOX 44752","FORT WASHINGTON","MD","20749"
349515,"PO BOX 4476","SANTA BARBARA","CA","93140"
349516,"PO BOX 44764","FORT WASHINGTON","MD","20749"
349517,"PO BOX 44785","NOTTINGHAM","MD","21236"
349518,"PO BOX 4479","PALMER","AK","99645"
349519,"PO BOX 448 / 317 MASON AVE","WINCHESTER","ID","83555"
349520,"PO BOX 448","COLUMBUS","NJ","08022"
349521,"PO BOX 448","COPIAGUE","NY","11726"
349522,"PO BOX 448","LAKEBAY","WA","98349"
349523,"PO BOX 448","LINDEN","TN","37096"
349524,"PO BOX 448","LIVINGSTON","TX","77351"
349525,"PO BOX 448","NYA","MN","55368"
349526,"PO BOX 448","OROFINO","ID","83544"
349527,"PO BOX 448","OXFORD","GA","30054"
349528,"PO BOX 448","RIO LINDA","CA","95673"
349529,"PO BOX 44801","INDIANAPOLIS","IN","46244"
349530,"PO BOX 44802","MADISON","WI","53744"
349531,"PO BOX 4481","PITTSBURGH","PA","15205"
349532,"PO BOX 4483","HAMDEN","CT","06514"
349533,"PO BOX 44832","BALTIMORE","MD","21236"
349534,"PO BOX 4484","KAILUA KONA","HI","96745"
349535,"PO BOX 4486","CRESTLINE","CA","92325"
349536,"PO BOX 4487","SPANAWAY","WA","98387"
349537,"PO BOX 44874","BOISE","ID","83711"
349538,"PO BOX 44875","EDEN PRAIRIE","MN","55344"
349539,"PO BOX 4488","JACKSON","WY","83001"
349540,"PO BOX 4489","CARMEL","CA","93921"
349541,"PO BOX 449","ARLINGTON","TN","38002"
349542,"PO BOX 449","BONAIRE","GA","31005"
349543,"PO BOX 449","CARLISLE","IA","50047"
349544,"PO BOX 449","JANESVILLE","CA","96114"
349545,"PO BOX 449","MOUNT AIRY","NC","27030"
349546,"PO BOX 449","MT. AIRY","NC","27030"
349547,"PO BOX 449","RIGBY","ID","83442"
349548,"PO BOX 449","WEST JEFFERSON","NC","28694"
349549,"PO BOX 449","WEST POINT","VA","23181"
349550,"PO BOX 449","WINNSBORO","SC","29180"
349551,"PO BOX 4493","LYNCHBURG","VA","24502"
349552,"PO BOX 4496","BALTIMORE","MD","21223"
349553,"PO BOX 4497","SAINT AUGUSTINE","FL","32085"
349554,"PO BOX 44976","EDEN PRAIRIE","MN","55347"
349555,"PO BOX 45-2654","MIAMI","FL","33245"
349556,"PO BOX 45","ATHENS","GA","30603"
349557,"PO BOX 45","BROWNSVILLE","KY","42210"
349558,"PO BOX 45","CANTON","NC","28716"
349559,"PO BOX 45","CAVE CITY","KY","42127"
349560,"PO BOX 45","CHANDLER","AZ","85244"
349561,"PO BOX 45","CLIFTON PARK","NY","12065"
349562,"PO BOX 45","COLLEYVILLE","TX","76034"
349563,"PO BOX 45","DARWIN","CA","93522"
349564,"PO BOX 45","DAYTON","IA","50530"
349565,"PO BOX 45","EAST QUOGUE","NY","11942"
349566,"PO BOX 45","ESTHERWOOD","LA","70534"
349567,"PO BOX 45","FORT BRANCH","IN","47648"
349568,"PO BOX 45","HALLTOWN","MO","65664"
349569,"PO BOX 45","KEARNY","AZ","85137"
349570,"PO BOX 45","LACROSSE","WA","99143"
349571,"PO BOX 45","LAKE CITY","FL","32024"
349572,"PO BOX 45","LAKE HUGHES","CA","93532"
349573,"PO BOX 45","MISSOURI CITY","TX","77459"
349574,"PO BOX 45","MURRAY","KY","42071"
349575,"PO BOX 45","NAHCOTTA","WA","98637"
349576,"PO BOX 45","OROVILLE","CA","95966"
349577,"PO BOX 45","PLEASANTVILLE","PA","16341"
349578,"PO BOX 45","ROWE","NM","87562"
349579,"PO BOX 45","RUTLAND","OH","45775"
349580,"PO BOX 45","VICTOR","NY","14564"
349581,"PO BOX 45","WADSWORTH","OH","44282"
349582,"PO BOX 45","WEST NEWBURY","VT","05085"
349583,"PO BOX 45","WINCHENDON","MA","01475"
349584,"PO BOX 450","CLOVERDALE","CA","95425"
349585,"PO BOX 450","DAHLONEGA","GA","30533"
349586,"PO BOX 450","LINCOLN","ME","04457"
349587,"PO BOX 450","SOUTH WINDSOR","CT","06074"
349588,"PO BOX 450","STEPHENVILLE","TX","76401"
349589,"PO BOX 4500","SONORA","CA","95370"
349590,"PO BOX 45005","TAMPA","FL","33677"
349591,"PO BOX 45009","BOISE","ID","83711"
349592,"PO BOX 4501","BALTIMORE","MD","21212"
349593,"PO BOX 450191","GROVE","OK","74344"
349594,"PO BOX 450233","KISSIMMEE","FM","34745"
349595,"PO BOX 450334","FORT LAUDERDALE","FL","33345"
349596,"PO BOX 450444","ATLANTA","GA","31145"
349597,"PO BOX 4505","PAGO PAGO","AS","96799"
349598,"PO BOX 450513","KISSIMMEE","FL","34745"
349599,"PO BOX 450556","LAREDO","TX","78040"
349600,"PO BOX 45065","BOISE","ID","83705"
349601,"PO BOX 45067","WESTLAKE","OH","44145"
349602,"PO BOX 4507","MS STATE","MS","39762"
349603,"PO BOX 45071","MADISON","WI","53744"
349604,"PO BOX 450728","SUNRISE","FL","33345"
349605,"PO BOX 450881","WESTLAKE","OH","44145"
349606,"PO BOX 450931","HOUSTON","TX","77053"
349607,"PO BOX 451 150 WASHINGTON STREET","MONTE VISTA","CO","81144"
349608,"PO BOX 451","ALCOA","TN","37701"
349609,"PO BOX 451","ANNA","OH","45302"
349610,"PO BOX 451","BRIGHTON","CO","80601"
349611,"PO BOX 451","CAMBY","IN","46113"
349612,"PO BOX 451","COLFAX","NC","27235"
349613,"PO BOX 451","ELDON","MO","65026"
349614,"PO BOX 451","EUTAW","AL","35462"
349615,"PO BOX 451","FELTON","DE","19943"
349616,"PO BOX 451","GARDEN CITY","MI","48135"
349617,"PO BOX 451","GASTONIA","NC","28034"
349618,"PO BOX 451","GOSHEN","OH","45122"
349619,"PO BOX 451","HOUSTON","MO","65483"
349620,"PO BOX 451","LAKE FOREST","CA","92630"
349621,"PO BOX 451","LAKE JACKSON","TX","77566"
349622,"PO BOX 451","LEWISTOWN","MT","59457"
349623,"PO BOX 451","MANSFIELD","TX","76063"
349624,"PO BOX 451","MONROE","OH","45050"
349625,"PO BOX 451","NEKOOSA","WI","54457"
349626,"PO BOX 451","NEWPORT","RI","02840"
349627,"PO BOX 451","PLAINVILLE","CT","06062"
349628,"PO BOX 451","SEASIDE","OR","97138"
349629,"PO BOX 451","TYLERTOWN","MS","39667"
349630,"PO BOX 451","WELCHES","OR","97067"
349631,"PO BOX 451","WINSTED","MN","55395"
349632,"PO BOX 451088","FORT LAUDERDALE","FL","33345"
349633,"PO BOX 4511","SIOUX CITY","IA","51104"
349634,"PO BOX 45113","MADISON","WI","53744"
349635,"PO BOX 4512","NEW WINDSOR","NY","12553"
349636,"PO BOX 4512","PORTLAND","ME","04112"
349637,"PO BOX 45124","LOS ANGELES","CA","90056"
349638,"PO BOX 4514","MARYVILLE","TN","37802"
349639,"PO BOX 451695","HOUSTON","TX","77245"
349640,"PO BOX 45188","TACOMA","WA","98448"
349641,"PO BOX 451935","LOS ANGELES","CA","90045"
349642,"PO BOX 451977","SUNRISE","FL","33345"
349643,"PO BOX 45199","PHOENIX","AZ","85064"
349644,"PO BOX 452","ALPHARETTA","GA","30009"
349645,"PO BOX 452","ANTIGO","WI","54409"
349646,"PO BOX 452","BRANDON","FL","33509"
349647,"PO BOX 452","CHARLES CITY","IA","50616"
349648,"PO BOX 452","CHARLESTOWN","IN","47111"
349649,"PO BOX 452","EASTSOUND","WA","98245"
349650,"PO BOX 452","GOLDEN MEADOW","LA","70357"
349651,"PO BOX 452","GOLDTHWAITE","TX","76844"
349652,"PO BOX 452","GOODMAN","MO","64843"
349653,"PO BOX 452","GREENS FARMS","CT","06838"
349654,"PO BOX 452","HARTSVILLE","SC","29551"
349655,"PO BOX 452","HOCKLEY","TX","77447"
349656,"PO BOX 452","HUGHES SPRINGS","TX","75656"
349657,"PO BOX 452","HUNTINGTON","IN","46750"
349658,"PO BOX 452","KEENE","NH","03431"
349659,"PO BOX 452","LAFAYETTE","CO","80026"
349660,"PO BOX 452","LAGRANGEVILLE","NY","12540"
349661,"PO BOX 452","LAPWAI","ID","83540"
349662,"PO BOX 452","LOPEZ ISLAND","WA","98261"
349663,"PO BOX 452","MARVELL","AR","72336"
349664,"PO BOX 452","MONTE VISTA","CO","81144"
349665,"PO BOX 452","MYRTLE BEACH","SC","29578"
349666,"PO BOX 452","POMONA","NJ","08240"
349667,"PO BOX 452","REEDERS","PA","18352"
349668,"PO BOX 452","SILT","CO","81652"
349669,"PO BOX 452","STROUD","OK","74079"
349670,"PO BOX 452","WAHPETON","ND","58074"
349671,"PO BOX 452005","GROVE","OK","74345"
349672,"PO BOX 452051","LOS ANGELES","CA","90045"
349673,"PO BOX 4521","BURLINGTON","VT","05406"
349674,"PO BOX 4521","KANEOHE","HI","96744"
349675,"PO BOX 4521","TUBAC","AZ","85646"
349676,"PO BOX 45212","LITTLE ROCK","AR","72214"
349677,"PO BOX 452124","LOS ANGELES","CA","90045"
349678,"PO BOX 45216","BOISE","ID","83711"
349679,"PO BOX 4523","OAKHURST","CA","93644"
349680,"PO BOX 45234","WESTLAKE","OH","44145"
349681,"PO BOX 4525","FEDERAL WAY","WA","98063"
349682,"PO BOX 45253","MADISON","WI","53744"
349683,"PO BOX 452561","GARLAND","TX","75045"
349684,"PO BOX 452661","GROVE","OK","74345"
349685,"PO BOX 4527","PORTLAND","OR","97208"
349686,"PO BOX 4528","HAILEY","ID","83333"
349687,"PO BOX 452865","LOS ANGELES","CA","90045"
349688,"PO BOX 452921","LOS ANGELES","CA","90045"
349689,"PO BOX 452945","KISSIMMEE","FL","34745"
349690,"PO BOX 453","ASBURY PARK","NJ","07712"
349691,"PO BOX 453","BEAVERCREEK","OR","97004"
349692,"PO BOX 453","BRYON","GA","31008"
349693,"PO BOX 453","BUCKINGHAM","PA","18912"
349694,"PO BOX 453","CAMP SHERMAN","OR","97730"
349695,"PO BOX 453","CARENCRO","LA","70520"
349696,"PO BOX 453","CINCINNATUS","NY","13040"
349697,"PO BOX 453","COLUMBIANA","OH","44408"
349698,"PO BOX 453","FAYETTEVILLE","NC","28302"
349699,"PO BOX 453","GREEN MOUNTAIN FALLS","CO","80819"
349700,"PO BOX 453","HANCOCK","MN","56244"
349701,"PO BOX 453","JACKSONVILLE","OR","97530"
349702,"PO BOX 453","JOPLIN","MO","64802"
349703,"PO BOX 453","LINCOLN","CA","95648"
349704,"PO BOX 453","LONGS","SC","29568"
349705,"PO BOX 453","MILFORD","ME","04461"
349706,"PO BOX 453","MOULTON","AL","35650"
349707,"PO BOX 453","NORDMAN","ID","83848"
349708,"PO BOX 453","OKLAHOMA CITY","OK","73101"
349709,"PO BOX 453","PITTSBORO","IN","46167"
349710,"PO BOX 453","ROCHESTER","PA","15074"
349711,"PO BOX 453","ROWLETT","TX","75030"
349712,"PO BOX 453","SANDUSKY","OH","44871"
349713,"PO BOX 453","SPRINGFIELD","OR","97477"
349714,"PO BOX 453","TILLAMOOK","OR","97141"
349715,"PO BOX 453","WILKESBORO","NC","28697"
349716,"PO BOX 4533","TUBAC","AZ","85646"
349717,"PO BOX 4537","HELENA","MT","59604"
349718,"PO BOX 454","ARANSAS PASS","TX","78335"
349719,"PO BOX 454","CAPTAIN COOK","HI","96704"
349720,"PO BOX 454","CLARK FORK","ID","83811"
349721,"PO BOX 454","COLLIERVILLE","TN","38027"
349722,"PO BOX 454","DARDANELLE","AR","72834"
349723,"PO BOX 454","DERBY LINE","VT","05830"
349724,"PO BOX 454","DOUGLAS","WY","82633"
349725,"PO BOX 454","FAIRFIELD","MT","59436"
349726,"PO BOX 454","HARTFIELD","VA","23071"
349727,"PO BOX 454","INDEPENDENCE","OR","97351"
349728,"PO BOX 454","LE MARS","IA","51031"
349729,"PO BOX 454","LINDEN","MI","48451"
349730,"PO BOX 454","MORROW","GA","30273"
349731,"PO BOX 454","NEWBURG","ND","58762"
349732,"PO BOX 454","SALEM","AR","72576"
349733,"PO BOX 454","SOUTH LYON","MI","48178"
349734,"PO BOX 454","TEWKSBURY","MA","01876"
349735,"PO BOX 454","TYNDALL","SD","57066"
349736,"PO BOX 45406","SEATTLE","WA","98145"
349737,"PO BOX 4541","BUENA VISTA","CO","81211"
349738,"PO BOX 4541","ST PAUL","MN","55101"
349739,"PO BOX 4543","MIDWAY","KY","40347"
349740,"PO BOX 4543","WHEATON","IL","60189"
349741,"PO BOX 4544","READING","PA","19606"
349742,"PO BOX 4546","DAVENPORT","IA","52801"
349743,"PO BOX 45464","MADISON","WI","53744"
349744,"PO BOX 455 DEAMBROGGI ROAD","CHARLEROI","PA","15022"
349745,"PO BOX 455","AVALON","TX","76623"
349746,"PO BOX 455","BRADY","TX","76825"
349747,"PO BOX 455","CHATFIELD","MN","55923"
349748,"PO BOX 455","CLAYMONT","DE","19703"
349749,"PO BOX 455","CRYSTAL SPRINGS","MS","39059"
349750,"PO BOX 455","FAIRVIEW","PA","16415"
349751,"PO BOX 455","FRAMINGHAM","MA","01704"
349752,"PO BOX 455","GILA","NM","88038"
349753,"PO BOX 455","GROOM","TX","79039"
349754,"PO BOX 455","KELLYVILLE","OK","74039"
349755,"PO BOX 455","KENNESAW","GA","30156"
349756,"PO BOX 455","LAUREL","MT","59044"
349757,"PO BOX 455","LEWISTOWN","MT","59457"
349758,"PO BOX 455","MILTON","FL","32583"
349759,"PO BOX 455","PERKASIE","PA","18944"
349760,"PO BOX 455","RIXEYVILLE","VA","22737"
349761,"PO BOX 455","SANTA CLARA","CA","95052"
349762,"PO BOX 455","SHAW ISLAND","WA","98286"
349763,"PO BOX 455","SOUTH SALEM","NY","10590"
349764,"PO BOX 455","STEVENS POINT","WI","54481"
349765,"PO BOX 45518","TACOMA","WA","98448"
349766,"PO BOX 4552","JACKSON","MS","39296"
349767,"PO BOX 4552","MISSOULA","MT","59806"
349768,"PO BOX 4552","SPOKANE","WA","99220"
349769,"PO BOX 4554","BOISE","ID","83711"
349770,"PO BOX 4555","BURLINGTON","VT","05401"
349771,"PO BOX 4555","COVINGTON","LA","70434"
349772,"PO BOX 45559","PHOENIX","AZ","85064"
349773,"PO BOX 4556","HUNTSVILLE","AL","35815"
349774,"PO BOX 45578","OMAHA","NE","68145"
349775,"PO BOX 456","ANNISTON","AL","36202"
349776,"PO BOX 456","AUSTIN","TX","78767"
349777,"PO BOX 456","BABYLON","NY","11702"
349778,"PO BOX 456","BERLIN","NY","12202"
349779,"PO BOX 456","CORONA","CA","92878"
349780,"PO BOX 456","DALLAS","PA","18612"
349781,"PO BOX 456","DAYTON","TX","77535"
349782,"PO BOX 456","EUSTACE","TX","75124"
349783,"PO BOX 456","FORT MYERS","FL","33902"
349784,"PO BOX 456","FREEMAN","SD","57029"
349785,"PO BOX 456","HARVARD","MA","01451"
349786,"PO BOX 456","HOLDERNESS","NH","03245"
349787,"PO BOX 456","JOSHUA","TX","76058"
349788,"PO BOX 456","LAKEVILLE","IN","46536"
349789,"PO BOX 456","LANCASTER","TX","75146"
349790,"PO BOX 456","PALATINE BRIDGE","NY","13428"
349791,"PO BOX 456","REYNOLDSBURG","OH","43068"
349792,"PO BOX 456","RIDGWAY","CO","81432"
349793,"PO BOX 456","RIVERDALE","CA","93656"
349794,"PO BOX 456","SOUTH BERWICK","ME","03908"
349795,"PO BOX 456","STAR","NC","27356"
349796,"PO BOX 456","SULPHUR","LA","70664"
349797,"PO BOX 456","TRACYTON","WA","98393"
349798,"PO BOX 456","VALLEY COTTAGE","NY","10989"
349799,"PO BOX 456","WOODSTOCK","GA","30188"
349800,"PO BOX 4563","CULVER CITY","CA","90231"
349801,"PO BOX 4563","SIOUX CITY","IA","51104"
349802,"PO BOX 45633","SEATTLE","WA","98145"
349803,"PO BOX 4564","TUBAC","AZ","85646"
349804,"PO BOX 45669","OKLAHOMA CITY","OK","73145"
349805,"PO BOX 4568","CARSON CITY","NV","89702"
349806,"PO BOX 4569","SOUTHERN PINES","NC","28387"
349807,"PO BOX 457","BENTON","AR","72018"
349808,"PO BOX 457","DANIELS","WV","25832"
349809,"PO BOX 457","DEER PARK","WA","99006"
349810,"PO BOX 457","EDGEWOOD","NM","87015"
349811,"PO BOX 457","GIDDINGS","TX","78942"
349812,"PO BOX 457","GOODWATER","AL","35072"
349813,"PO BOX 457","HARLEM","GA","30814"
349814,"PO BOX 457","HELPER","UT","84526"
349815,"PO BOX 457","INDIAN RIVER","MI","49749"
349816,"PO BOX 457","LIMA","OH","45802"
349817,"PO BOX 457","PORTSMOUTH","OH","45662"
349818,"PO BOX 457","SPEARFISH","SD","57783"
349819,"PO BOX 457","UTICA","OH","43080"
349820,"PO BOX 457","WELLINGTON","CO","80549"
349821,"PO BOX 4570","FAIRVIEW HEIGHTS","IL","62208"
349822,"PO BOX 4570","MORGANTOWN","WV","26504"
349823,"PO BOX 45706","SEATTLE","WA","98145"
349824,"PO BOX 4571","SONORA","CA","95370"
349825,"PO BOX 4571","ST AUGUSTINE","FL","32085"
349826,"PO BOX 4572","WAYNE","NJ","07474"
349827,"PO BOX 45723","PHILADELPHIA","PA","19149"
349828,"PO BOX 4577","EL MONTE","CA","91734"
349829,"PO BOX 458","DANIELSVILLE","GA","30633"
349830,"PO BOX 458","EAGLE","ID","83616"
349831,"PO BOX 458","MILNER","GA","30257"
349832,"PO BOX 458","PAROWAN","UT","84761"
349833,"PO BOX 458","PINE BLUFFS","WY","82082"
349834,"PO BOX 458","PRAIRIEVILLE","LA","70769"
349835,"PO BOX 458","RINGWOOD","NJ","07456"
349836,"PO BOX 458","SANFORD","FL","32772"
349837,"PO BOX 458","SHOREHAM","NY","11786"
349838,"PO BOX 458","SIPSEY","AL","35584"
349839,"PO BOX 458","ST CROIX FALLS","WI","54024"
349840,"PO BOX 4582","FAYETTEVILLE","AR","72702"
349841,"PO BOX 4582","SALT LAKE CITY","UT","84110"
349842,"PO BOX 4583","OMAHA","NE","68104"
349843,"PO BOX 45835","KANSAS CITY","MO","64171"
349844,"PO BOX 4584","LAWRENCE","KS","66046"
349845,"PO BOX 4585","EL DORADO HILLS","CA","95762"
349846,"PO BOX 4586","PAGO PAGO","AS","96799"
349847,"PO BOX 45862","ATLANTA","GA","30320"
349848,"PO BOX 4588","HALFMOON","NY","12065"
349849,"PO BOX 4589","INCLINE VILLAGE","NV","89450"
349850,"PO BOX 459","ALBEMARLE","NC","28002"
349851,"PO BOX 459","BUNKER HILL","IL","62014"
349852,"PO BOX 459","CANAAN","NY","12029"
349853,"PO BOX 459","GREEN","OH","44232"
349854,"PO BOX 459","GUYTON","GA","31312"
349855,"PO BOX 459","LAKESIDE","MT","59922"
349856,"PO BOX 459","ROYAL CENTER","IN","46978"
349857,"PO BOX 459","SAN RAMON","CA","94583"
349858,"PO BOX 459","WALDO","FL","32694"
349859,"PO BOX 459","WINFIELD","WV","25213"
349860,"PO BOX 45902","OKLAHOMA CITY","OK","73145"
349861,"PO BOX 4591","CHAPMANVILLE","WV","25508"
349862,"PO BOX 45923","PHILADELPHIA","PA","19149"
349863,"PO BOX 4595","NORFOLK","VA","23523"
349864,"PO BOX 46 2133 WENDWOOD DRIVE","LENOIR","NC","28645"
349865,"PO BOX 46","BAY MINETTE","AL","36507"
349866,"PO BOX 46","CADIZ","OH","43907"
349867,"PO BOX 46","CASSVILLE","GA","30123"
349868,"PO BOX 46","CHILDERSBURG","AL","35044"
349869,"PO BOX 46","CHRISTMAS VALLEY","OR","97641"
349870,"PO BOX 46","CORNELIUS","NC","28031"
349871,"PO BOX 46","CROMPOND","NY","10517"
349872,"PO BOX 46","DOWNS","IL","61736"
349873,"PO BOX 46","EAST MEREDITH","NY","13757"
349874,"PO BOX 46","GILBERTSVILLE","NY","13776"
349875,"PO BOX 46","HELTONVILLE","IN","47436"
349876,"PO BOX 46","HERSHEY","PA","17033"
349877,"PO BOX 46","HILLVIEW","KY","40129"
349878,"PO BOX 46","JAMESTOWN","RI","02835"
349879,"PO BOX 46","LINCOLN","MI","48742"
349880,"PO BOX 46","LITTLE ELM","TX","75068"
349881,"PO BOX 46","LOMIRA","WI","53048"
349882,"PO BOX 46","MANOR","TX","78653"
349883,"PO BOX 46","MOUNT VERNON","OH","43050"
349884,"PO BOX 46","NEW HAMPTON","NH","03256"
349885,"PO BOX 46","PINETOPS","NC","27864"
349886,"PO BOX 46","SILEX","MO","63377"
349887,"PO BOX 46","STAATSBURG","NY","12580"
349888,"PO BOX 46","VALENTINE","NE","69201"
349889,"PO BOX 46","VASSAR","MI","48768"
349890,"PO BOX 460","CRIPPLE CREEK","CO","80813"
349891,"PO BOX 460","FORT PIERRE","SD","57532"
349892,"PO BOX 460","RUSSELLVILLE","AR","72811"
349893,"PO BOX 460","WABENO","WI","54566"
349894,"PO BOX 460","ZIONSVILLE","IN","46077"
349895,"PO BOX 46003","MADISON","WI","53744"
349896,"PO BOX 460091","SAN ANTONIO","TX","78246"
349897,"PO BOX 4601","SPRINGFIELD","IL","62708"
349898,"PO BOX 460176","DENVER","CO","80246"
349899,"PO BOX 460178","AURORA","CO","80046"
349900,"PO BOX 460202","SAN ANTONIO","TX","78246"
349901,"PO BOX 460213","SAN FRANCISCO","CA","94146"
349902,"PO BOX 4603","CHAPMANVILLE","WV","25508"
349903,"PO BOX 460321","GLENDALE","CO","80246"
349904,"PO BOX 460333","GARLAND","TX","75046"
349905,"PO BOX 460365","HOUSTON","TX","77056"
349906,"PO BOX 46037","INDIANAPOLIS","IN","46240"
349907,"PO BOX 460425","GARLAND","TX","75046"
349908,"PO BOX 460429","SAN ANTONIO","TX","78246"
349909,"PO BOX 460454","GLENDALE","CO","80246"
349910,"PO BOX 460455","FORT LAUDERDALE","FL","33316"
349911,"PO BOX 460612","SAN FRANCISCO","CA","94146"
349912,"PO BOX 460622","AURORA","CO","80046"
349913,"PO BOX 4607","HEMPSTEAD","NY","11551"
349914,"PO BOX 4607","UTICA","NY","13504"
349915,"PO BOX 460725","GLENDALE","CO","80246"
349916,"PO BOX 460765","PAPILLION","NE","68046"
349917,"PO BOX 4608","ROSWELL","NM","88202"
349918,"PO BOX 460848","DENVER","CO","80246"
349919,"PO BOX 4609","EASTMAN","GA","31023"
349920,"PO BOX 461","AZUSA","CA","91702"
349921,"PO BOX 461","BAILEY","CO","80421"
349922,"PO BOX 461","BAILEY","NC","27807"
349923,"PO BOX 461","BRANDON","MN","56315"
349924,"PO BOX 461","CEDARVILLE","CA","96104"
349925,"PO BOX 461","CHRISTMAS","FL","32709"
349926,"PO BOX 461","DAMASCUS","VA","24236"
349927,"PO BOX 461","EDENTON","NC","27932"
349928,"PO BOX 461","GOFFSTOWN","NH","03045"
349929,"PO BOX 461","HARPERS FERRY","WV","25425"
349930,"PO BOX 461","KECHI","KS","67067"
349931,"PO BOX 461","LULA","GA","30554"
349932,"PO BOX 461","MANCHESTER","MI","48158"
349933,"PO BOX 461","MANHATTAN","KS","66505"
349934,"PO BOX 461","NEESES","SC","29107"
349935,"PO BOX 461","NEW CANAAN","CT","06840"
349936,"PO BOX 461","NEWMAN LAKE","WA","99025"
349937,"PO BOX 461","NEWTON GROVE","NC","28366"
349938,"PO BOX 461","PRINCETON","WI","54968"
349939,"PO BOX 461","RARITAN","NJ","08869"
349940,"PO BOX 461","SPRINGDALE","WA","99173"
349941,"PO BOX 461","TOWER","MN","55790"
349942,"PO BOX 461","VALLEY VIEW","TX","76272"
349943,"PO BOX 461","WSS","WV","24986"
349944,"PO BOX 461","ZWOLLE","LA","71486"
349945,"PO BOX 46102","BEDFORD","OH","44146"
349946,"PO BOX 461024","BEDFORD","OH","44146"
349947,"PO BOX 46107","BOISE","ID","83711"
349948,"PO BOX 4611","EAGLE","CO","81631"
349949,"PO BOX 4611","PORT JERVIS","NY","12771"
349950,"PO BOX 461214","PAPILLION","NE","68046"
349951,"PO BOX 461232","AURORA","CO","80046"
349952,"PO BOX 4613","LITTLE ROCK","AR","72214"
349953,"PO BOX 461375","AURORA","CO","80046"
349954,"PO BOX 4616","DAVENPORT","IA","52808"
349955,"PO BOX 4616","ORLANDO","FL","32802"
349956,"PO BOX 461738","AURORA","CO","80046"
349957,"PO BOX 461836","AURORA","CO","80046"
349958,"PO BOX 46197","CINCINNATI","OH","45246"
349959,"PO BOX 462","ANNAPOLIS JUNCTION","MD","20701"
349960,"PO BOX 462","BELLEVILLE","MI","48111"
349961,"PO BOX 462","BLUFF","UT","84512"
349962,"PO BOX 462","CLINTON","IN","47842"
349963,"PO BOX 462","COLUMBUS","MT","59019"
349964,"PO BOX 462","CUNNINGHAM","KY","42035"
349965,"PO BOX 462","DESTIN","FL","32541"
349966,"PO BOX 462","EAST BERLIN","PA","17316"
349967,"PO BOX 462","ENUMCLAW","WA","98022"
349968,"PO BOX 462","FAIRFIELD","WA","99012"
349969,"PO BOX 462","GREAT FALLS","MT","59403"
349970,"PO BOX 462","JEFFERSONVILLE","VT","05464"
349971,"PO BOX 462","MAIZE","KS","67101"
349972,"PO BOX 462","MISSION","TX","78573"
349973,"PO BOX 462","MORAVIA","NY","13118"
349974,"PO BOX 462","NEW BERN","NC","28563"
349975,"PO BOX 462","NOBLE","OK","73068"
349976,"PO BOX 462","RICHARDS","TX","77873"
349977,"PO BOX 462","SANTA CRUZ","CA","95061"
349978,"PO BOX 462","SAUK RAPIDS","MN","56379"
349979,"PO BOX 462","STILLWATER","OK","74076"
349980,"PO BOX 462","WAUBAY","SD","57273"
349981,"PO BOX 462004","ESCONDIDO","CA","92046"
349982,"PO BOX 4621","CARY","NC","27519"
349983,"PO BOX 46215","CINCINNATI","OH","45246"
349984,"PO BOX 46216","SEATTLE","WA","98146"
349985,"PO BOX 4623","FEDERAL WAY","WA","98063"
349986,"PO BOX 4623","MCALLEN","TX","78502"
349987,"PO BOX 4624","BOISE","ID","83711"
349988,"PO BOX 46245","SEATTLE","WA","98146"
349989,"PO BOX 462516","GARLAND","TX","75040"
349990,"PO BOX 462516","GARLAND","TX","75047"
349991,"PO BOX 462592","AURORA","CO","80046"
349992,"PO BOX 462635","CENTENNIAL","CO","80015"
349993,"PO BOX 46272","EDEN PRAIRIE","MN","55344"
349994,"PO BOX 463  88 HWY 85","BUFFALO","SD","57720"
349995,"PO BOX 463 BOULEVARD","KENILWORTH","NJ","07033"
349996,"PO BOX 463","ARNOLD","MO","63010"
349997,"PO BOX 463","BISMARCK","AR","71929"
349998,"PO BOX 463","CABLE","WI","54821"
349999,"PO BOX 463","CHATHAM","NJ","07928"
350000,"PO BOX 463","EASTOVER","SC","29044"
