"ID","Address","City","State","Zip","lat","long","id","input_address","match_indicator","match_type","matched_address","tiger_line_id","tiger_side"
196001,"15 MONTEBELLO ROAD","BOSTON","MA",2130,42.312848253,-71.102533991,1,"15 MONTEBELLO ROAD, BOSTON, MA, 2130","Match","Exact","15 MONTEBELLO RD, BOSTON, MA, 02130",85699840,"R"
196002,"15 MONTECITO","SANTA FE","NM",87506,35.73001027,-105.965586907,2,"15 MONTECITO, SANTA FE, NM, 87506","Match","Exact","15 MONTECITO, SANTA FE, NM, 87506",169388547,"R"
196003,"15 MONUMENT AVE","CHARLESTOWN","MA",2129,42.3742484090001,-71.062129748,3,"15 MONUMENT AVE, CHARLESTOWN, MA, 2129","Match","Exact","15 MONUMENT AVE, CHARLESTOWN, MA, 02129",639418822,"R"
196004,"15 MOON RD","GRAY","ME",4039,43.822088916,-70.3228361769999,4,"15 MOON RD, GRAY, ME, 4039","Match","Exact","15 MOON RD, GRAY, ME, 04039",78049546,"L"
196005,"15 MOON WAY","MEDFORD","NJ",8055,39.860599629,-74.777249136,5,"15 MOON WAY, MEDFORD, NJ, 8055","Match","Exact","15 MOON WAY, MEDFORD, NJ, 08055",134039822,"L"
196006,"15 MOORE","CHARLESTON","SC",29407,32.7830895980001,-79.978728496,6,"15 MOORE, CHARLESTON, SC, 29407","Match","Non_Exact","15 MOORE DR, CHARLESTON, SC, 29407",108804130,"R"
196007,"15 MOORING LANE","SALEM","SC",29676,34.8367567080001,-82.924035878,7,"15 MOORING LANE, SALEM, SC, 29676","Match","Exact","15 MOORING LN, SALEM, SC, 29676",25642629,"L"
196008,"15 MORAGA DRIVE","CHICO","CA",95926,39.754937838,-121.832627264,8,"15 MORAGA DRIVE, CHICO, CA, 95926","Match","Exact","15 MORAGA DR, CHICO, CA, 95926",647260589,"L"
196009,"15 MORLEY COURT","ALBERTSON","NY",11507,40.778422434,-73.659716499,9,"15 MORLEY COURT, ALBERTSON, NY, 11507","Match","Exact","15 MORLEY CT, ALBERTSON, NY, 11507",147837863,"L"
196010,"15 MORLEY-POTSDAM RD","CANTON","NY",13617,44.661975797,-75.194379811,10,"15 MORLEY-POTSDAM RD, CANTON, NY, 13617","Match","Non_Exact","15 MORLEY POTSDAM RD, CANTON, NY, 13617",155179052,"R"
196011,"15 MORNING GLORY RD","WARREN","NJ",7059,40.605078468,-74.508520038,11,"15 MORNING GLORY RD, WARREN, NJ, 7059","Match","Exact","15 MORNING GLORY RD, WARREN, NJ, 07059",60001608,"R"
196012,"15 MORNINGSIDE DRIVE","TOPSFIELD","MA",1983,42.6226568120001,-70.936831345,12,"15 MORNINGSIDE DRIVE, TOPSFIELD, MA, 1983","Match","Exact","15 MORNINGSIDE DR, TOPSFIELD, MA, 01983",647439930,"R"
196013,"15 MORRILL PLACE","LYNN","MA",1902,42.474815445,-70.946393443,13,"15 MORRILL PLACE, LYNN, MA, 1902","Match","Exact","15 MORRILL PL, LYNN, MA, 01902",86645175,"R"
196014,"15 MORRIS AVENUE","TURNERS FALLS","MA",1376,42.5921422710001,-72.546189,14,"15 MORRIS AVENUE, TURNERS FALLS, MA, 1376","Match","Exact","15 MORRIS AVE, TURNERS FALLS, MA, 01376",39916719,"R"
196015,"15 MORRIS DRIVE","HYDE PARK","NY",12538,41.8035770480001,-73.909492604,15,"15 MORRIS DRIVE, HYDE PARK, NY, 12538","Match","Exact","15 MORRIS DR, HYDE PARK, NY, 12538",4165694,"L"
196016,"15 MORRIS STREET","MALDEN","MA",2148,42.4291865110001,-71.026936882,16,"15 MORRIS STREET, MALDEN, MA, 2148","Match","Exact","15 MORRIS ST, MALDEN, MA, 02148",86874476,"R"
196017,"15 MORTIMER AVENUE","ELMSFORD","NY",10523,NA,NA,17,"15 MORTIMER AVENUE, ELMSFORD, NY, 10523","Tie",NA,NA,NA,NA
196018,"15 MOSSY ROCK CT","NEWNAN","GA",30265,33.363249185,-84.734131043,18,"15 MOSSY ROCK CT, NEWNAN, GA, 30265","Match","Exact","15 MOSSY ROCK CT, NEWNAN, GA, 30265",632505281,"R"
196019,"15 MOTHER GASTON AVE APT 11C","BROOKLYN","NY",11233,40.6809418230001,-73.908641449,19,"15 MOTHER GASTON AVE APT 11C, BROOKLYN, NY, 11233","Match","Non_Exact","15 MOTHER GASTON BLVD, BROOKLYN, NY, 11233",59083283,"L"
196020,"15 MOUNT VERNON","IRVINE","CA",92620,33.7280142920001,-117.75152737,20,"15 MOUNT VERNON, IRVINE, CA, 92620","Match","Exact","15 MOUNT VERNON, IRVINE, CA, 92620",144140314,"R"
196021,"15 MOUNTAIN VIEW LANE","STANDISH","ME",4084,43.745827896,-70.5682679719999,21,"15 MOUNTAIN VIEW LANE, STANDISH, ME, 4084","Match","Non_Exact","15 MOUNTAIN VIEW DR, STANDISH, ME, 04084",78015165,"R"
196022,"15 MOUNTAIN VIEW ROAD","BLUE HILL","ME",4614,44.4309049450001,-68.576219405,22,"15 MOUNTAIN VIEW ROAD, BLUE HILL, ME, 4614","Match","Non_Exact","15 MOUNTAIN RD, BLUE HILL, ME, 04614",110304296,"L"
196023,"15 MOUNTAINVIEW ST","MONTPELIER","VT",5602,44.252287268,-72.583330296,23,"15 MOUNTAINVIEW ST, MONTPELIER, VT, 5602","Match","Exact","15 MOUNTAINVIEW ST, MONTPELIER, VT, 05602",136666382,"R"
196024,"15 MUD STREET","ATHOL","NY",12810,43.492650408,-73.8573988059999,24,"15 MUD STREET, ATHOL, NY, 12810","Match","Exact","15 MUD ST, ATHOL, NY, 12810",173907728,"R"
196025,"15 MULBERRY LANE","AUGUSTA","GA",30909,33.504407013,-82.0532780619999,25,"15 MULBERRY LANE, AUGUSTA, GA, 30909","Match","Exact","15 MULBERRY LN, AUGUSTA, GA, 30909",604922966,"R"
196026,"15 MULBERRY ROW","PRINCETON","NJ",8540,40.376339364,-74.6508658229999,26,"15 MULBERRY ROW, PRINCETON, NJ, 8540","Match","Exact","15 MULBERRY ROW, PRINCETON, NJ, 08540",60192599,"L"
196027,"15 MULLBERRY WAY","TEWKSBURY","MA",1876,42.6202423510001,-71.229751984,27,"15 MULLBERRY WAY, TEWKSBURY, MA, 1876","Match","Non_Exact","15 MULBERRY WAY, TEWKSBURY, MA, 01876",86931088,"R"
196028,"15 MUSCONETCONG RIVER RD","HAMPTON","NJ",8827,40.7142647320001,-74.9649911779999,28,"15 MUSCONETCONG RIVER RD, HAMPTON, NJ, 8827","Match","Exact","15 MUSCONETCONG RIVER RD, HAMPTON, NJ, 08827",60041633,"L"
196029,"15 MYRTLE AVE","AUBURN","NY",13021,NA,NA,29,"15 MYRTLE AVE, AUBURN, NY, 13021","No_Match",NA,NA,NA,NA
196030,"15 MYRTLE AVENUE APT 5","IRVINGTON","NJ",7111,40.7271339490001,-74.227767549,30,"15 MYRTLE AVENUE APT 5, IRVINGTON, NJ, 7111","Match","Exact","15 MYRTLE AVE, IRVINGTON, NJ, 07111",63464897,"L"
196031,"15 MYRTLE CT","COLUMBIA","SC",29205,33.9934280100001,-81.0186612109999,31,"15 MYRTLE CT, COLUMBIA, SC, 29205","Match","Exact","15 MYRTLE CT, COLUMBIA, SC, 29205",71833421,"L"
196032,"15 MYRTLE STREET APT 3","EVERETT","MA",2149,42.4164698000001,-71.0547864389999,32,"15 MYRTLE STREET APT 3, EVERETT, MA, 2149","Match","Exact","15 MYRTLE ST, EVERETT, MA, 02149",86873391,"R"
196033,"15 MYRTLE STREET","JAMAICA PLAIN","MA",2130,42.313894363,-71.115814768,33,"15 MYRTLE STREET, JAMAICA PLAIN, MA, 2130","Match","Exact","15 MYRTLE ST, JAMAICA PLAIN, MA, 02130",85696540,"R"
196034,"15 N 10TH STREET","COLUMBIA","MO",65201,38.951624845,-92.326432491,34,"15 N 10TH STREET, COLUMBIA, MO, 65201","Match","Exact","15 N 10TH ST, COLUMBIA, MO, 65201",604984538,"L"
196035,"15 N 18 ST APT 3C","ALLENTOWN","PA",18102,NA,NA,35,"15 N 18 ST APT 3C, ALLENTOWN, PA, 18102","No_Match",NA,NA,NA,NA
196036,"15 N 46TH RD","MENDOTA","IL",61342,41.5990160690001,-89.1629902189999,36,"15 N 46TH RD, MENDOTA, IL, 61342","Match","Exact","15 N 46TH RD, MENDOTA, IL, 61342",8622048,"R"
196037,"15 N 47TH STREET","BELLEVILLE","IL",62226,38.5420166530001,-90.025413149,37,"15 N 47TH STREET, BELLEVILLE, IL, 62226","Match","Exact","15 N 47TH ST, BELLEVILLE, IL, 62226",107855142,"L"
196038,"15 N ARLINGTON HTS RD STE 100","ARLINGTON HTS","IL",60004,42.08311045,-87.980459799,38,"15 N ARLINGTON HTS RD STE 100, ARLINGTON HTS, IL, 60004","Match","Non_Exact","15 N ARLINGTON HEIGHTS RD, ARLINGTON HEIGHTS, IL, 60004",111716034,"R"
196039,"15 N CAMERON ST","WINCHESTER","VA",22601,39.1838275420001,-78.164121028,39,"15 N CAMERON ST, WINCHESTER, VA, 22601","Match","Exact","15 N CAMERON ST, WINCHESTER, VA, 22601",55578425,"L"
196040,"15 N CHARLES PLAZA 2801","BALTIMORE","MD",21201,NA,NA,40,"15 N CHARLES PLAZA 2801, BALTIMORE, MD, 21201","No_Match",NA,NA,NA,NA
196041,"15 N CHENEVERT ST","HOUSTON","TX",77002,29.7602118720001,-95.352175473,41,"15 N CHENEVERT ST, HOUSTON, TX, 77002","Match","Exact","15 N CHENEVERT ST, HOUSTON, TX, 77002",96069502,"L"
196042,"15 N CURLY WILLOW CIR","THE WOODLANDS","TX",77375,30.144417736,-95.566721397,42,"15 N CURLY WILLOW CIR, THE WOODLANDS, TX, 77375","Match","Non_Exact","15 CURLY WILLOW DR, THE WOODLANDS, TX, 77375",652138156,"L"
196043,"15 N E STREET","TACOMA","WA",98405,47.264886905,-122.44625624,43,"15 N E STREET, TACOMA, WA, 98405","Match","Non_Exact","15 N E ST, TACOMA, WA, 98403",184646359,"R"
196044,"15 N EDGELAWN DR STE 1","AURORA","IL",60506,NA,NA,44,"15 N EDGELAWN DR STE 1, AURORA, IL, 60506","Tie",NA,NA,NA,NA
196045,"15 N EDGELAWN DR","AURORA","IL",60506,41.764102027,-88.3592351519999,45,"15 N EDGELAWN DR, AURORA, IL, 60506","Match","Exact","15 N EDGELAWN DR, AURORA, IL, 60506",119513859,"R"
196046,"15 N ELMER DR MIDDLETOWN","MIDDLETOWN","OH",45042,39.511420017,-84.3511992379999,46,"15 N ELMER DR MIDDLETOWN, MIDDLETOWN, OH, 45042","Match","Non_Exact","15 N ELMER DR, MIDDLETOWN, OH, 45042",113793580,"R"
196047,"15 N F ST","PENSACOLA","FL",32502,30.4117059050001,-87.231721826,47,"15 N F ST, PENSACOLA, FL, 32502","Match","Exact","15 N F ST, PENSACOLA, FL, 32502",93220196,"L"
196048,"15 N FRANKLIN ST","VALPARAISO","IN",46383,41.4668766730001,-87.0597602399999,48,"15 N FRANKLIN ST, VALPARAISO, IN, 46383","Match","Exact","15 FRANKLIN ST, VALPARAISO, IN, 46383",119914322,"R"
196049,"15 N GOLDEN RD","UNCASVILLE","CT",6382,41.4775409920001,-72.098110186,49,"15 N GOLDEN RD, UNCASVILLE, CT, 6382","Match","Exact","15 GOLDEN RD, UNCASVILLE, CT, 06382",56840302,"R"
196050,"15 N HILL PARKWAY APT 15S","JACKSON","MS",39206,NA,NA,50,"15 N HILL PARKWAY APT 15S, JACKSON, MS, 39206","No_Match",NA,NA,NA,NA
196051,"15 N JUPITER AVE","CLEARWATER","FL",33755,27.965803753,-82.7660098009999,51,"15 N JUPITER AVE, CLEARWATER, FL, 33755","Match","Exact","15 N JUPITER AVE, CLEARWATER, FL, 33755",124668519,"R"
196052,"15 N LAWRENCE AVE","ELMSFORD","NY",10523,41.06278545,-73.805473059,52,"15 N LAWRENCE AVE, ELMSFORD, NY, 10523","Match","Exact","15 LAWRENCE AVE, ELMSFORD, NY, 10523",139764419,"R"
196053,"15 N MAIN STREET","TELFORD","PA",18969,40.3249153520001,-75.327877163,53,"15 N MAIN STREET, TELFORD, PA, 18969","Match","Exact","15 N MAIN ST, TELFORD, PA, 18969",134699685,"L"
196054,"15 N MAIN","ASHLAND","OR",97520,42.1983126810001,-122.715935018,54,"15 N MAIN, ASHLAND, OR, 97520","Match","Non_Exact","15 N MAIN ST, ASHLAND, OR, 97520",155521662,"L"
196055,"15 N NORTHWEST HWY","PARK RIDGE","IL",60064,42.0115176740001,-87.829911699,55,"15 N NORTHWEST HWY, PARK RIDGE, IL, 60064","Match","Non_Exact","15 N NORTHWEST HWY, PARK RIDGE, IL, 60068",111732965,"R"
196056,"15 N OAK ST UNIT 883","FELLSMERE","FL",32948,NA,NA,56,"15 N OAK ST UNIT 883, FELLSMERE, FL, 32948","Tie",NA,NA,NA,NA
196057,"15 N ROSBOROUGH AVE","VENTNOR","NJ",8406,39.335585006,-74.488289886,57,"15 N ROSBOROUGH AVE, VENTNOR, NJ, 8406","Match","Non_Exact","15 N ROSBOROUGH AVE, VENTNOR CITY, NJ, 08406",202488339,"R"
196058,"15 N ROYAL ST APT 6","YORK","PA",17402,NA,NA,58,"15 N ROYAL ST APT 6, YORK, PA, 17402","Tie",NA,NA,NA,NA
196059,"15 N UNION ST  203","PETERSBURG","VA",23803,NA,NA,59,"15 N UNION ST  203, PETERSBURG, VA, 23803","Tie",NA,NA,NA,NA
196060,"15 N WALNUT ST","WOODLAND","CA",95695,NA,NA,60,"15 N WALNUT ST, WOODLAND, CA, 95695","Tie",NA,NA,NA,NA
196061,"15 N WASHINGTON ST","VERMILLION","SD",57069,42.7796052780001,-96.936513807,61,"15 N WASHINGTON ST, VERMILLION, SD, 57069","Match","Exact","15 WASHINGTON ST, VERMILLION, SD, 57069",172949743,"R"
196062,"15 NARCISSUS DRIVE","SYOSSET","NY",11791,40.8294054510001,-73.4980216709999,62,"15 NARCISSUS DRIVE, SYOSSET, NY, 11791","Match","Exact","15 NARCISSUS DR, SYOSSET, NY, 11791",147640025,"L"
196063,"15 NASH","WESTBOROUGH","MA",1581,42.2304425240001,-71.639059663,63,"15 NASH, WESTBOROUGH, MA, 1581","Match","Non_Exact","15 NASH ST, WESTBOROUGH, MA, 01581",40060734,"R"
196064,"15 NATIONAL STREET","BELLE FOURCHE","SD",57717,NA,NA,64,"15 NATIONAL STREET, BELLE FOURCHE, SD, 57717","No_Match",NA,NA,NA,NA
196065,"15 NE 18TH ST","DELRAY BEACH","FL",33444,26.483211929,-80.073005704,65,"15 NE 18TH ST, DELRAY BEACH, FL, 33444","Match","Exact","15 NE 18TH ST, DELRAY BEACH, FL, 33444",115519410,"L"
196066,"15 NE 3RD ST","GRESHAM","OR",97030,45.4996354680001,-122.430695415,66,"15 NE 3RD ST, GRESHAM, OR, 97030","Match","Exact","15 NE 3RD ST, GRESHAM, OR, 97030",157529097,"L"
196067,"15 NE REDLOCK LANE","CASCADE LOCKS","OR",97014,45.6747315600001,-121.8806863,67,"15 NE REDLOCK LANE, CASCADE LOCKS, OR, 97014","Match","Exact","15 REDLOCK LN, CASCADE LOCKS, OR, 97014",625156318,"L"
196068,"15 NEFF CIRCLE","JACKSON","TN",38301,35.625033574,-88.801866091,68,"15 NEFF CIRCLE, JACKSON, TN, 38301","Match","Exact","15 NEFF CIR, JACKSON, TN, 38301",21327853,"L"
196069,"15 NEGBA ST","LAKEWOOD","NJ",8701,40.0964974460001,-74.2028763229999,69,"15 NEGBA ST, LAKEWOOD, NJ, 8701","Match","Exact","15 NEGBA ST, LAKEWOOD, NJ, 08701",203723790,"L"
196070,"15 NELL ST","HOPWOOD","PA",15445,39.8783784840001,-79.7004695529999,70,"15 NELL ST, HOPWOOD, PA, 15445","Match","Exact","15 NELL ST, HOPWOOD, PA, 15445",651950085,"L"
196071,"15 NELSON BLVD","BREWSTER","NY",10509,41.3921153810001,-73.6404362339999,71,"15 NELSON BLVD, BREWSTER, NY, 10509","Match","Exact","15 NELSON BLVD, BREWSTER, NY, 10509",139711019,"L"
196072,"15 NELSON REDGE SOUTH","WASHINGTON","ME",4574,44.2473199470001,-69.3880335059999,72,"15 NELSON REDGE SOUTH, WASHINGTON, ME, 4574","Match","Non_Exact","15 NELSON RIDGE S RD, WASHINGTON, ME, 04574",75563047,"R"
196073,"15 NELSON RIDGE SOUTH","WASHINGTON","ME",4574,44.2473199470001,-69.3880335059999,73,"15 NELSON RIDGE SOUTH, WASHINGTON, ME, 4574","Match","Non_Exact","15 NELSON RIDGE S RD, WASHINGTON, ME, 04574",75563047,"R"
196074,"15 NELSON STREET","KINGSTON","MA",2364,41.992440178,-70.7556976939999,74,"15 NELSON STREET, KINGSTON, MA, 2364","Match","Exact","15 NELSON ST, KINGSTON, MA, 02364",87512321,"R"
196075,"15 NEW HOME MISSIONARY RD","TICKFAW","LA",70466,NA,NA,75,"15 NEW HOME MISSIONARY RD, TICKFAW, LA, 70466","No_Match",NA,NA,NA,NA
196076,"15 NEW HOPE COURT","FLORISSANT","MO",63033,38.7821733550001,-90.315467282,76,"15 NEW HOPE COURT, FLORISSANT, MO, 63033","Match","Exact","15 NEW HOPE CT, FLORISSANT, MO, 63033",100144798,"L"
196077,"15 NEW MAIN STREET","HAVERSTRAW","NY",10927,NA,NA,77,"15 NEW MAIN STREET, HAVERSTRAW, NY, 10927","Tie",NA,NA,NA,NA
196078,"15 NEW ST FL 1","EAST ORANGE","NJ",7017,40.760439137,-74.204375483,78,"15 NEW ST FL 1, EAST ORANGE, NJ, 7017","Match","Exact","15 NEW ST, EAST ORANGE, NJ, 07017",63451743,"L"
196079,"15 NEW YORK AVE","MIDDLETOWN","NY",10940,41.468615018,-74.412857437,79,"15 NEW YORK AVE, MIDDLETOWN, NY, 10940","Match","Exact","15 NEW YORK AVE, MIDDLETOWN, NY, 10940",124390235,"L"
196080,"15 NEW YORK STREET","RAPID CITY","SD",57701,44.0858550990001,-103.22173418,80,"15 NEW YORK STREET, RAPID CITY, SD, 57701","Match","Exact","15 NEW YORK ST, RAPID CITY, SD, 57701",205507787,"L"
196081,"15 NEWBERRY LANE","SOUTHAMPTON","NY",11968,40.9013138880001,-72.391264502,81,"15 NEWBERRY LANE, SOUTHAMPTON, NY, 11968","Match","Exact","15 NEWBERRY LN, SOUTHAMPTON, NY, 11968",637083900,"R"
196082,"15 NEWFANE RD","NEW FAIRFIELD","CT",6812,41.455008352,-73.5341010499999,82,"15 NEWFANE RD, NEW FAIRFIELD, CT, 6812","Match","Exact","15 NEWFANE RD, NEW FAIRFIELD, CT, 06812",3275123,"L"
196083,"15 NEWPORT DRIVE","CLIFTON PARK","NY",12065,42.8760986830001,-73.815026045,83,"15 NEWPORT DRIVE, CLIFTON PARK, NY, 12065","Match","Exact","15 NEWPORT DR, CLIFTON PARK, NY, 12065",18803438,"L"
196084,"15 NEWPORT LANE","MEDFIELD","MA",1757,NA,NA,84,"15 NEWPORT LANE, MEDFIELD, MA, 1757","No_Match",NA,NA,NA,NA
196085,"15 NICHOLAS WAY","SEABROOK","NH",3874,42.881328943,-70.862110086,85,"15 NICHOLAS WAY, SEABROOK, NH, 3874","Match","Exact","15 NICHOLAS WAY, SEABROOK, NH, 03874",624587852,"L"
196086,"15 NINO DR","SHERMAN","IL",62684,39.8932794150001,-89.5934781669999,86,"15 NINO DR, SHERMAN, IL, 62684","Match","Exact","15 NINO DR, SHERMAN, IL, 62684",97311580,"L"
196087,"15 NONOTUCK STREET - APT 1","FLORENCE","MA",1062,42.3288508370001,-72.660704793,87,"15 NONOTUCK STREET - APT 1, FLORENCE, MA, 1062","Match","Exact","15 NONOTUCK ST, FLORENCE, MA, 01062",39849016,"R"
196088,"15 NORMA ROAD","HARRINGTON PARK","NJ",7640,40.982222402,-73.984920812,88,"15 NORMA ROAD, HARRINGTON PARK, NJ, 7640","Match","Exact","15 NORMA RD, HARRINGTON PARK, NJ, 07640",64369657,"R"
196089,"15 NORTH BREIEL BLVD","MIDDLETOWN","OH",45042,39.5141349080001,-84.3542611249999,89,"15 NORTH BREIEL BLVD, MIDDLETOWN, OH, 45042","Match","Non_Exact","15 BREIEL BLVD, MIDDLETOWN, OH, 45042",652717852,"R"
196090,"15 NORTH GRANBY ROAD","GRANBY","CT",6035,NA,NA,90,"15 NORTH GRANBY ROAD, GRANBY, CT, 6035","Tie",NA,NA,NA,NA
196091,"15 NORTH GREENFIELD CIRCLE","COVINGTON","GA",30016,33.5904038910001,-83.926556472,91,"15 NORTH GREENFIELD CIRCLE, COVINGTON, GA, 30016","Match","Exact","15 N GREENFIELD CIR, COVINGTON, GA, 30016",23626331,"L"
196092,"15 NORTH HILL PKWY 15-R","JACKSON","MS",39206,32.3564690100001,-90.155269168,92,"15 NORTH HILL PKWY 15-R, JACKSON, MS, 39206","Match","Exact","15 N HILL PKWY, JACKSON, MS, 39206",611216214,"L"
196093,"15 NORTH KIRKWOOD STREE","DOVER","DE",19904,39.1605635180001,-75.532047392,93,"15 NORTH KIRKWOOD STREE, DOVER, DE, 19904","Match","Non_Exact","15 N KIRKWOOD ST, DOVER, DE, 19904",68088260,"R"
196094,"15 NORTH MAPLE ST","EAST HAMPTON","CT",6424,41.5759615430001,-72.511144545,94,"15 NORTH MAPLE ST, EAST HAMPTON, CT, 6424","Match","Non_Exact","15 MAPLE ST, EAST HAMPTON, CT, 06424",113885113,"L"
196095,"15 NORTH MAPLE STREET","AKRON","OH",44303,41.0881875490001,-81.523282794,95,"15 NORTH MAPLE STREET, AKRON, OH, 44303","Match","Exact","15 N MAPLE ST, AKRON, OH, 44303",61340992,"R"
196096,"15 NORTH MORTIMER AVENUE","ELMSFORD","NY",10523,41.0547012600001,-73.8160604989999,96,"15 NORTH MORTIMER AVENUE, ELMSFORD, NY, 10523","Match","Exact","15 N MORTIMER AVE, ELMSFORD, NY, 10523",139841138,"L"
196097,"15 NORTH PLAIN STREET","NORWOOD","MA",2062,42.1854097820001,-71.182568712,97,"15 NORTH PLAIN STREET, NORWOOD, MA, 2062","Match","Non_Exact","15 NORTHPLAIN ST, NORWOOD, MA, 02062",87255405,"L"
196098,"15 NORTH RD","NEWBURGH","ME",4444,44.755160602,-68.97525584,98,"15 NORTH RD, NEWBURGH, ME, 4444","Match","Exact","15 NORTH RD, NEWBURGH, ME, 04444",635471174,"R"
196099,"15 NORTH ROAD","WARREN","NJ",7059,40.6141339060001,-74.5009262839999,99,"15 NORTH ROAD, WARREN, NJ, 7059","Match","Exact","15 NORTH RD, WARREN, NJ, 07059",59940217,"L"
196100,"15 NORTH ST APT B","WESTBROOK","ME",4092,43.679873435,-70.3619266589999,100,"15 NORTH ST APT B, WESTBROOK, ME, 4092","Match","Exact","15 NORTH ST, WESTBROOK, ME, 04092",78023517,"R"
196101,"15 NORTH ST","LE ROY","NY",14482,42.9799982050001,-77.9845772479999,101,"15 NORTH ST, LE ROY, NY, 14482","Match","Exact","15 NORTH ST, LE ROY, NY, 14482",48155931,"R"
196102,"15 NORTH ST","NEWBURGH","NY",12550,41.517124961,-74.0124252589999,102,"15 NORTH ST, NEWBURGH, NY, 12550","Match","Exact","15 NORTH ST, NEWBURGH, NY, 12550",124413502,"L"
196103,"15 NORTH WESTOVER DRIVE","POQUOSON","VA",23662,37.1349792660001,-76.409074886,103,"15 NORTH WESTOVER DRIVE, POQUOSON, VA, 23662","Match","Exact","15 N WESTOVER DR, POQUOSON, VA, 23662",103761387,"R"
196104,"15 NORTHCREST DRIVE","CLIFTON PARK","NY",12065,42.868574837,-73.793885664,104,"15 NORTHCREST DRIVE, CLIFTON PARK, NY, 12065","Match","Exact","15 NORTHCREST DR, CLIFTON PARK, NY, 12065",18774646,"L"
196105,"15 NORTHUP DR","QUEENSBURY","NY",12804,43.3177411720001,-73.6712083159999,105,"15 NORTHUP DR, QUEENSBURY, NY, 12804","Match","Exact","15 NORTHUP DR, QUEENSBURY, NY, 12804",173897123,"R"
196106,"15 NORTHWOOD ST","LUZERNE","PA",18709,NA,NA,106,"15 NORTHWOOD ST, LUZERNE, PA, 18709","No_Match",NA,NA,NA,NA
196107,"15 NOTTINGHAM DRIVE","BELLA VISTA","AR",72715,36.479131635,-94.285953397,107,"15 NOTTINGHAM DRIVE, BELLA VISTA, AR, 72715","Match","Exact","15 NOTTINGHAM DR, BELLA VISTA, AR, 72715",47820226,"L"
196108,"15 NOTTINGHAM RD","MARLTON","NJ",8053,39.871127976,-74.9101151419999,108,"15 NOTTINGHAM RD, MARLTON, NJ, 8053","Match","Exact","15 NOTTINGHAM RD, MARLTON, NJ, 08053",134037027,"L"
196109,"15 NUKS ROAD","NATCHEZ","MS",39120,NA,NA,109,"15 NUKS ROAD, NATCHEZ, MS, 39120","No_Match",NA,NA,NA,NA
196110,"15 NUTE ROAD","MADBURY","NH",3823,43.1821838710001,-70.9654292449999,110,"15 NUTE ROAD, MADBURY, NH, 3823","Match","Exact","15 NUTE RD, MADBURY, NH, 03823",117808487,"R"
196111,"15 NW GILLILAND RD","PENSACOLA","FL",32507,30.37685953,-87.290188512,111,"15 NW GILLILAND RD, PENSACOLA, FL, 32507","Match","Exact","15 NW GILLILAND RD, PENSACOLA, FL, 32507",93216408,"L"
196112,"15 NW MLK JR BLVD","EVANSVILLE","IN",47708,37.9733642040001,-87.568017595,112,"15 NW MLK JR BLVD, EVANSVILLE, IN, 47708","Match","Exact","15 NW MARTIN LUTHER KING JR BLVD, EVANSVILLE, IN, 47708",39782548,"R"
196113,"15 NYTKO DRIVE","POMONA","NY",10970,41.1918229990001,-74.024006313,113,"15 NYTKO DRIVE, POMONA, NY, 10970","Match","Exact","15 NYTKO DR, POMONA, NY, 10970",124605048,"L"
196114,"15 OAK FOREST PLACE","MAUMELLE","AR",72113,34.8771929210001,-92.4029586569999,114,"15 OAK FOREST PLACE, MAUMELLE, AR, 72113","Match","Exact","15 OAK FOREST PL, MAUMELLE, AR, 72113",83521868,"R"
196115,"15 OAK GROVE AVE","BARRINGTON","RI",2806,41.753181183,-71.2936105049999,115,"15 OAK GROVE AVE, BARRINGTON, RI, 2806","Match","Exact","15 OAK GROVE AVE, BARRINGTON, RI, 02806",46483901,"R"
196116,"15 OAK KNOLL DRIVE","BERWYN","PA",19312,40.0418045960001,-75.4604576359999,116,"15 OAK KNOLL DRIVE, BERWYN, PA, 19312","Match","Exact","15 OAK KNOLL DR, BERWYN, PA, 19312",179505533,"L"
196117,"15 OAK KNOLL ROAD","KENTFIELD","CA",94904,37.945633716,-122.551699926,117,"15 OAK KNOLL ROAD, KENTFIELD, CA, 94904","Match","Exact","15 OAK KNOLL RD, KENTFIELD, CA, 94904",192764122,"L"
196118,"15 OAK STREET","BELLOWS FALLS","VT",5101,43.133035255,-72.452292671,118,"15 OAK STREET, BELLOWS FALLS, VT, 5101","Match","Exact","15 OAK ST, BELLOWS FALLS, VT, 05101",171090625,"L"
196119,"15 OAKES ROAD","RUMSON","NJ",7760,40.343507882,-74.0305498549999,119,"15 OAKES ROAD, RUMSON, NJ, 7760","Match","Exact","15 OAKES RD, RUMSON, NJ, 07760",90459435,"R"
196120,"15 OAKHURST CIRCLE","NEEDHAM","MA",2492,42.271334842,-71.2350566499999,120,"15 OAKHURST CIRCLE, NEEDHAM, MA, 2492","Match","Exact","15 OAKHURST CIR, NEEDHAM, MA, 02492",617771500,"R"
196121,"15 OAKLAND STREET","HARTFORD","CT",6108,41.780068081,-72.631453429,121,"15 OAKLAND STREET, HARTFORD, CT, 6108","Match","Non_Exact","15 OAKLAND AVE, HARTFORD, CT, 06108",3490162,"L"
196122,"15 OAKLAND STREET","STOUGHTON","MA",2072,42.1347149700001,-71.0907419339999,122,"15 OAKLAND STREET, STOUGHTON, MA, 2072","Match","Exact","15 OAKLAND ST, STOUGHTON, MA, 02072",87331679,"R"
196123,"15 OAKLAND TERRACE","MOBILE","AL",36604,30.687274485,-88.062568894,123,"15 OAKLAND TERRACE, MOBILE, AL, 36604","Match","Exact","15 OAKLAND TER, MOBILE, AL, 36604",648314127,"L"
196124,"15 OAKRIDGE LANE","WESTPORT","MA",2790,41.606978084,-71.09580901,124,"15 OAKRIDGE LANE, WESTPORT, MA, 2790","Match","Non_Exact","15 OAK RIDGE LN, WESTPORT, MA, 02790",46822333,"R"
196125,"15 OAKWOOD DRIVE","PARLIN","NJ",8859,40.4543790340001,-74.2882502369999,125,"15 OAKWOOD DRIVE, PARLIN, NJ, 8859","Match","Exact","15 OAKWOOD DR, PARLIN, NJ, 08859",60284475,"R"
196126,"15 OAKWOOD LANE","WORCHESTER","MA",1604,42.2368886610001,-71.755286075,126,"15 OAKWOOD LANE, WORCHESTER, MA, 1604","Match","Non_Exact","15 OAKWOOD LN, WORCESTER, MA, 01604",40104227,"R"
196127,"15 OARKRIDGE","SILVER CITY","NM",88061,NA,NA,127,"15 OARKRIDGE, SILVER CITY, NM, 88061","No_Match",NA,NA,NA,NA
196128,"15 OCEAN AVE","SALEM","MA",1970,42.5085893500001,-70.888469016,128,"15 OCEAN AVE, SALEM, MA, 1970","Match","Exact","15 OCEAN AVE, SALEM, MA, 01970",86644024,"L"
196129,"15 OCEAN AVENUE SUITE 2C","BROOKLYN","NY",11207,40.6626671130001,-73.962835105,129,"15 OCEAN AVENUE SUITE 2C, BROOKLYN, NY, 11207","Match","Non_Exact","15 OCEAN AVE, BROOKLYN, NY, 11225",59099122,"L"
196130,"15 OCEAN AVENUE","LARCHMONT","NY",10538,40.9212328930001,-73.7453408769999,130,"15 OCEAN AVENUE, LARCHMONT, NY, 10538","Match","Exact","15 OCEAN AVE, LARCHMONT, NY, 10538",139755523,"R"
196131,"15 OCEAN RD","GREENLAND","NH",3840,43.044460809,-70.821447958,131,"15 OCEAN RD, GREENLAND, NH, 3840","Match","Exact","15 OCEAN RD, GREENLAND, NH, 03840",624283973,"R"
196132,"15 OFF TWIN LAKES ROAD","NORTH BRADFORD","CT",6471,41.3295826450001,-72.790656452,132,"15 OFF TWIN LAKES ROAD, NORTH BRADFORD, CT, 6471","Match","Non_Exact","15 TWIN LAKES RD, N BRANFORD, CT, 06471",606595560,"R"
196133,"15 OLD COLONY RD","BURLINGTON","MA",1803,42.5034046970001,-71.203659031,133,"15 OLD COLONY RD, BURLINGTON, MA, 1803","Match","Exact","15 OLD COLONY RD, BURLINGTON, MA, 01803",86905506,"L"
196134,"15 OLD FARM LANE","EAST SANDWICH","MA",2537,41.7405846510001,-70.459659495,134,"15 OLD FARM LANE, EAST SANDWICH, MA, 2537","Match","Exact","15 OLD FARM LN, EAST SANDWICH, MA, 02537",121587718,"L"
196135,"15 OLD FARMSTEAD ROAD","CHESTER","NJ",7930,40.8112053360001,-74.6513282029999,135,"15 OLD FARMSTEAD ROAD, CHESTER, NJ, 7930","Match","Exact","15 OLD FARMSTEAD RD, CHESTER, NJ, 07930",60456437,"L"
196136,"15 OLD GREENWOOD ROAD","ASHEVILLE","NC",28803,NA,NA,136,"15 OLD GREENWOOD ROAD, ASHEVILLE, NC, 28803","Tie",NA,NA,NA,NA
196137,"15 OLD IVY SQ NE","ATLANTA","GA",30342,NA,NA,137,"15 OLD IVY SQ NE, ATLANTA, GA, 30342","Tie",NA,NA,NA,NA
196138,"15 OLD MILL CT","COLLEGE PARK","GA",30349,NA,NA,138,"15 OLD MILL CT, COLLEGE PARK, GA, 30349","No_Match",NA,NA,NA,NA
196139,"15 OLD MILL LN","DUXBURY","MA",2332,42.0159437520001,-70.712761175,139,"15 OLD MILL LN, DUXBURY, MA, 2332","Match","Exact","15 OLD MILL LN, DUXBURY, MA, 02332",87455874,"L"
196140,"15 OLD OAK AVENUE","CRANSTON","RI",2920,41.7967319270001,-71.4532471369999,140,"15 OLD OAK AVENUE, CRANSTON, RI, 2920","Match","Exact","15 OLD OAK AVE, CRANSTON, RI, 02920",47459900,"R"
196141,"15 OLD STATE RD","OTIS","MA",1253,42.249435175,-73.1246623489999,141,"15 OLD STATE RD, OTIS, MA, 1253","Match","Exact","15 OLD STATE RD, OTIS, MA, 01253",3978477,"L"
196142,"15 OLD TAVERN LANE","SUTTON","MA",1590,42.1445050030001,-71.780711103,142,"15 OLD TAVERN LANE, SUTTON, MA, 1590","Match","Exact","15 OLD TAVERN LN, SUTTON, MA, 01590",647149718,"L"
196143,"15 OLD TOWN ROAD","WALPOLE","MA",2081,42.1981777060001,-71.268713165,143,"15 OLD TOWN ROAD, WALPOLE, MA, 2081","Match","Exact","15 OLD TOWN RD, WALPOLE, MA, 02081",87333064,"R"
196144,"15 ONEDA RD","TECUMSEH","OK",74873,35.2893074040001,-97.093441889,144,"15 ONEDA RD, TECUMSEH, OK, 74873","Match","Exact","15 ONEDA RD, TECUMSEH, OK, 74873",100592448,"R"
196145,"15 ORANGE STREET","CHELSEA","MA",2150,42.3973548880001,-71.032197601,145,"15 ORANGE STREET, CHELSEA, MA, 2150","Match","Exact","15 ORANGE ST, CHELSEA, MA, 02150",85707186,"R"
196146,"15 ORCHARD LANE","KINGSTON","MA",2364,NA,NA,146,"15 ORCHARD LANE, KINGSTON, MA, 2364","Tie",NA,NA,NA,NA
196147,"15 ORCHARD MEADOW LN","GREENVILLE","SC",29607,34.8167696690001,-82.346438467,147,"15 ORCHARD MEADOW LN, GREENVILLE, SC, 29607","Match","Exact","15 ORCHARD MEADOW LN, GREENVILLE, SC, 29607",38342392,"L"
196148,"15 ORCHARD STREET","NYACK","NY",10960,41.09544134,-73.9163081729999,148,"15 ORCHARD STREET, NYACK, NY, 10960","Match","Exact","15 ORCHARD ST, NYACK, NY, 10960",124600627,"L"
196149,"15 OREGON AVE","PAWTUCKET","RI",2861,41.862732829,-71.362922885,149,"15 OREGON AVE, PAWTUCKET, RI, 2861","Match","Exact","15 OREGON AVE, PAWTUCKET, RI, 02861",47473297,"R"
196150,"15 OREGON AVENUE","CRANSTON","RI",2910,NA,NA,150,"15 OREGON AVENUE, CRANSTON, RI, 2910","No_Match",NA,NA,NA,NA
196151,"15 OVERLOOK DRIVE","HACKETTSTOWN","NJ",7840,40.86094854,-74.8393472989999,151,"15 OVERLOOK DRIVE, HACKETTSTOWN, NJ, 7840","Match","Exact","15 OVERLOOK DR, HACKETTSTOWN, NJ, 07840",633905972,"L"
196152,"15 OVERLOOK DRIVE","ROCKAWAY","NJ",7866,40.8876386580001,-74.5308504609999,152,"15 OVERLOOK DRIVE, ROCKAWAY, NJ, 7866","Match","Exact","15 OVERLOOK DR, ROCKAWAY, NJ, 07866",60438971,"L"
196153,"15 OWENOKE WAY","RIVERSIDE","CT",6878,41.034081368,-73.577681153,153,"15 OWENOKE WAY, RIVERSIDE, CT, 6878","Match","Exact","15 OWENOKE WAY, RIVERSIDE, CT, 06878",3245059,"L"
196154,"15 OX HILL RD","NEWTOWN","CT",6470,41.365165619,-73.31311061,154,"15 OX HILL RD, NEWTOWN, CT, 6470","Match","Exact","15 OX HILL RD, NEWTOWN, CT, 06470",3236973,"L"
196155,"15 OXFORD COURT","BELLINGHAM","MA",2019,42.0465330440001,-71.482538936,155,"15 OXFORD COURT, BELLINGHAM, MA, 2019","Match","Exact","15 OXFORD CT, BELLINGHAM, MA, 02019",614998795,"L"
196156,"15 OXLEY WALK 03 03 BELLE VUE RESI","SINGAPORE 238590",NA,NA,NA,NA,156,"15 OXLEY WALK 03 03 BELLE VUE RESI, SINGAPORE 238590, , ","No_Match",NA,NA,NA,NA
196157,"15 OYSTER CREEK LANE","DAMARISCOTTA","ME",4543,44.057771046,-69.5078044909999,157,"15 OYSTER CREEK LANE, DAMARISCOTTA, ME, 4543","Match","Non_Exact","15 OYSTER CREEK RD, DAMARISCOTTA, ME, 04543",75321007,"R"
196158,"15 PALIOTTA PARKWAY","CRANSTON","RI",2908,NA,NA,158,"15 PALIOTTA PARKWAY, CRANSTON, RI, 2908","No_Match",NA,NA,NA,NA
196159,"15 PALMER LN","OXFORD","CT",6478,41.3697117570001,-73.146551056,159,"15 PALMER LN, OXFORD, CT, 6478","Match","Non_Exact","15 PALMER RD, OXFORD, CT, 06478",3696375,"L"
196160,"15 PALMER ROAD","YONKERS","NY",10701,40.9459508200001,-73.876814682,160,"15 PALMER ROAD, YONKERS, NY, 10701","Match","Exact","15 PALMER RD, YONKERS, NY, 10701",139841980,"L"
196161,"15 PANCETTA DR 234","DALY CITY","CA",94015,37.703241937,-122.4744163,161,"15 PANCETTA DR 234, DALY CITY, CA, 94015","Match","Non_Exact","15 PONCETTA DR, DALY CITY, CA, 94015",192367251,"R"
196162,"15 PAR FOUR DRIVE","AUBURN","ME",4210,44.0514746270001,-70.265439809,162,"15 PAR FOUR DRIVE, AUBURN, ME, 4210","Match","Exact","15 PAR FOUR DR, AUBURN, ME, 04210",77976556,"R"
196163,"15 PARADISE DRIVE","DOUGLASVILLE","GA",30134,33.75317484,-84.771796181,163,"15 PARADISE DRIVE, DOUGLASVILLE, GA, 30134","Match","Exact","15 PARADISE DR, DOUGLASVILLE, GA, 30134",618468492,"R"
196164,"15 PARADISE LANE","ONA","WV",25545,NA,NA,164,"15 PARADISE LANE, ONA, WV, 25545","No_Match",NA,NA,NA,NA
196165,"15 PARADISE PLAZA PMB 235","SARASOTA","FL",34239,NA,NA,165,"15 PARADISE PLAZA PMB 235, SARASOTA, FL, 34239","No_Match",NA,NA,NA,NA
196166,"15 PARDE STEET","NEW HAVEN","CT",6514,NA,NA,166,"15 PARDE STEET, NEW HAVEN, CT, 6514","No_Match",NA,NA,NA,NA
196167,"15 PARDEE STREET","ROCHESTER","NY",14621,43.1812018540001,-77.610293429,167,"15 PARDEE STREET, ROCHESTER, NY, 14621","Match","Exact","15 PARDEE ST, ROCHESTER, NY, 14621",14537906,"R"
196168,"15 PARK ROW APT 4D","NEW YORK","NY",10032,40.711371748,-74.008277415,168,"15 PARK ROW APT 4D, NEW YORK, NY, 10032","Match","Non_Exact","15 PARK ROW, NEW YORK, NY, 10038",640780143,"R"
196169,"15 PARK ST APT 204","SPRINGFIELD","MA",1103,42.0996064170001,-72.584675681,169,"15 PARK ST APT 204, SPRINGFIELD, MA, 1103","Match","Exact","15 PARK ST, SPRINGFIELD, MA, 01103",4035178,"R"
196170,"15 PARK ST APT 209","SPRINGFIELD","MA",1103,42.0996064170001,-72.584675681,170,"15 PARK ST APT 209, SPRINGFIELD, MA, 1103","Match","Exact","15 PARK ST, SPRINGFIELD, MA, 01103",4035178,"R"
196171,"15 PARK ST","SPRINGFIELD","MA",1103,42.0996064170001,-72.584675681,171,"15 PARK ST, SPRINGFIELD, MA, 1103","Match","Exact","15 PARK ST, SPRINGFIELD, MA, 01103",4035178,"R"
196172,"15 PARK STREET A","MIDDLEBORO","MA",2346,41.8973780170001,-70.914543752,172,"15 PARK STREET A, MIDDLEBORO, MA, 2346","Match","Exact","15 PARK ST, MIDDLEBORO, MA, 02346",87418762,"L"
196173,"15 PARKER STREET","ROCHDALE","MA",1542,42.1957207180001,-71.9313051139999,173,"15 PARKER STREET, ROCHDALE, MA, 1542","Match","Exact","15 PARKER ST, ROCHDALE, MA, 01542",40083723,"R"
196174,"15 PARKSIDE PLACE APT 101","REVERE","MA",2151,42.4399001990001,-71.021573824,174,"15 PARKSIDE PLACE APT 101, REVERE, MA, 2151","Match","Exact","15 PARKSIDE PL, REVERE, MA, 02151",636919651,"R"
196175,"15 PARKVIEW LANE","ORMOND BEACH","FL",32174,29.2624845610001,-81.065036608,175,"15 PARKVIEW LANE, ORMOND BEACH, FL, 32174","Match","Exact","15 PARKVIEW LN, ORMOND BEACH, FL, 32174",94558259,"R"
196176,"15 PARKWOOD DRIVE APT S","SOUTH AMBOY","NJ",8879,40.444936926,-74.294618509,176,"15 PARKWOOD DRIVE APT S, SOUTH AMBOY, NJ, 8879","Match","Exact","15 PARKWOOD DR, SOUTH AMBOY, NJ, 08879",645312415,"L"
196177,"15 PASTERN TERRACE","BURLINGTON","NJ",8016,40.045314972,-74.810209754,177,"15 PASTERN TERRACE, BURLINGTON, NJ, 8016","Match","Exact","15 PASTERN TER, BURLINGTON, NJ, 08016",134067969,"R"
196178,"15 PATRIOT WALK","EGG HARBOR TOWNSHIP","NJ",8234,39.43067746,-74.5884015079999,178,"15 PATRIOT WALK, EGG HARBOR TOWNSHIP, NJ, 8234","Match","Exact","15 PATRIOT WALK, EGG HARBOR TOWNSHIP, NJ, 08234",202555737,"R"
196179,"15 PATRIOT WAY","STAFFORD","VA",22554,38.444053264,-77.422889131,179,"15 PATRIOT WAY, STAFFORD, VA, 22554","Match","Exact","15 PATRIOT WAY, STAFFORD, VA, 22554",25578836,"L"
196180,"15 PATRIOTS ROAD","STRATHAM","NH",3885,43.0218256250001,-70.921704822,180,"15 PATRIOTS ROAD, STRATHAM, NH, 3885","Match","Exact","15 PATRIOTS RD, STRATHAM, NH, 03885",648227070,"L"
196181,"15 PATTEN ROAD","WESTFORD","MA",1886,42.5784402030001,-71.4603198789999,181,"15 PATTEN ROAD, WESTFORD, MA, 1886","Match","Exact","15 PATTEN RD, WESTFORD, MA, 01886",86919790,"R"
196182,"15 PATTON ST","ISELIN","NJ",8830,40.5692240180001,-74.307862578,182,"15 PATTON ST, ISELIN, NJ, 8830","Match","Exact","15 PATTON ST, ISELIN, NJ, 08830",60274210,"R"
196183,"15 PAULDING AVE","TARRYTOWN","NY",10591,41.0629342770001,-73.863571029,183,"15 PAULDING AVE, TARRYTOWN, NY, 10591","Match","Exact","15 PAULDING AVE, TARRYTOWN, NY, 10591",139731040,"R"
196184,"15 PEACEFUL DR","EDGEWOOD","NM",87015,35.0959089880001,-106.24199584,184,"15 PEACEFUL DR, EDGEWOOD, NM, 87015","Match","Exact","15 PEACEFUL DR, EDGEWOOD, NM, 87015",169398712,"L"
196185,"15 PEARL AVE","HAMDEN","CT",6514,41.352211283,-72.936416102,185,"15 PEARL AVE, HAMDEN, CT, 6514","Match","Exact","15 PEARL AVE, HAMDEN, CT, 06514",3698691,"R"
196186,"15 PEARL AVENUE","BLASDELL","NY",14219,42.8000542730001,-78.824812186,186,"15 PEARL AVENUE, BLASDELL, NY, 14219","Match","Exact","15 PEARL AVE, BLASDELL, NY, 14219",48308997,"R"
196187,"15 PEARL STREET","MIDDLETOWN","NJ",7748,40.421622262,-74.125920309,187,"15 PEARL STREET, MIDDLETOWN, NJ, 7748","Match","Exact","15 PEARL ST, MIDDLETOWN, NJ, 07748",90477111,"L"
196188,"15 PEBBLEBROOK DRIVE","WEST HARTFORD","CT",6107,41.749073729,-72.746080771,188,"15 PEBBLEBROOK DRIVE, WEST HARTFORD, CT, 6107","Match","Exact","15 PEBBLEBROOK DR, WEST HARTFORD, CT, 06107",3513548,"L"
196189,"15 PECKHAM HILL RD","SHERBORN","MA",1770,42.2371039350001,-71.360126661,189,"15 PECKHAM HILL RD, SHERBORN, MA, 1770","Match","Exact","15 PECKHAM HILL RD, SHERBORN, MA, 01770",86854155,"R"
196190,"15 PECKHAM STREET","COLDWATER","MI",49036,41.937196084,-85.004036146,190,"15 PECKHAM STREET, COLDWATER, MI, 49036","Match","Exact","15 PECKHAM ST, COLDWATER, MI, 49036",8211910,"L"
196191,"15 PEMBERTON ROAD","WAYLAND","MA",1778,42.316471128,-71.367704083,191,"15 PEMBERTON ROAD, WAYLAND, MA, 1778","Match","Exact","15 PEMBERTON RD, WAYLAND, MA, 01778",87103764,"R"
196192,"15 PERRY STREET SUITE 349","NEWNAN","GA",30263,33.3766222850001,-84.798134757,192,"15 PERRY STREET SUITE 349, NEWNAN, GA, 30263","Match","Exact","15 PERRY ST, NEWNAN, GA, 30263",647445489,"R"
196193,"15 PETEES POND LANE","WESTWOOD","MA",2090,42.189980301,-71.241483735,193,"15 PETEES POND LANE, WESTWOOD, MA, 2090","Match","Non_Exact","15 PETTEE'S POND LN, WESTWOOD, MA, 02090",87318278,"R"
196194,"15 PETUNIA COURT","STATEN ISLAND","NY",10307,40.507382749,-74.23913971,194,"15 PETUNIA COURT, STATEN ISLAND, NY, 10307","Match","Exact","15 PETUNIA CT, STATEN ISLAND, NY, 10307",59892326,"L"
196195,"15 PETUNIA DRIVE - APT 2B","NORTH BRUNSWICK","NJ",8902,40.4375537070001,-74.520864414,195,"15 PETUNIA DRIVE - APT 2B, NORTH BRUNSWICK, NJ, 8902","Match","Exact","15 PETUNIA DR, N BRUNSWICK, NJ, 08902",60342397,"L"
196196,"15 PHEASANT DR","MARLBORO","NJ",7746,40.3019198760001,-74.282389672,196,"15 PHEASANT DR, MARLBORO, NJ, 7746","Match","Exact","15 PHEASANT DR, MARLBORO, NJ, 07746",90445100,"R"
196197,"15 PHEASANT HOLLOW DRIVE","PLAINSBORO","NJ",8536,40.336665542,-74.5658927759999,197,"15 PHEASANT HOLLOW DRIVE, PLAINSBORO, NJ, 8536","Match","Exact","15 PHEASANT HOLLOW DR, PLAINSBORO, NJ, 08536",60339772,"R"
196198,"15 PHEASANT RIDGE RD","OSSINING","NY",10562,41.1803330910001,-73.848309398,198,"15 PHEASANT RIDGE RD, OSSINING, NY, 10562","Match","Exact","15 PHEASANT RIDGE RD, OSSINING, NY, 10562",139786396,"R"
196199,"15 PHELPS AVE","NEW BRUNSWICK","NJ",8901,40.485330854,-74.4255138619999,199,"15 PHELPS AVE, NEW BRUNSWICK, NJ, 8901","Match","Exact","15 PHELPS AVE, NEW BRUNSWICK, NJ, 08901",641754457,"R"
196200,"15 PHELPS","NEW BRUNSWICK","NJ",8901,40.485330854,-74.4255138619999,200,"15 PHELPS, NEW BRUNSWICK, NJ, 8901","Match","Non_Exact","15 PHELPS AVE, NEW BRUNSWICK, NJ, 08901",641754457,"R"
196201,"15 PHOENIX ROAD","BLUFFTON","SC",29910,32.258849679,-80.872827538,201,"15 PHOENIX ROAD, BLUFFTON, SC, 29910","Match","Exact","15 PHOENIX RD, BLUFFTON, SC, 29910",645535701,"L"
196202,"15 PHOENIX VALLEY DRIVE","SYLVA","NC",28779,35.378077488,-83.190327134,202,"15 PHOENIX VALLEY DRIVE, SYLVA, NC, 28779","Match","Exact","15 PHOENIX VALLEY DR, SYLVA, NC, 28779",641581734,"R"
196203,"15 PHYLLIS DR","POMONA","NY",10970,41.1904022310001,-74.027265034,203,"15 PHYLLIS DR, POMONA, NY, 10970","Match","Exact","15 PHYLLIS DR, POMONA, NY, 10970",124590741,"R"
196204,"15 PICCADILLY SQUARE","ROCHESTER","NY",14625,43.166061144,-77.49039864,204,"15 PICCADILLY SQUARE, ROCHESTER, NY, 14625","Match","Exact","15 PICCADILLY SQ, ROCHESTER, NY, 14625",14564541,"R"
196205,"15 PICKETT PLACE","SPRINGFIELD","MA",1119,NA,NA,205,"15 PICKETT PLACE, SPRINGFIELD, MA, 1119","No_Match",NA,NA,NA,NA
196206,"15 PIERSON DRIVE","HOCKESSIN","DE",19707,39.7920681580001,-75.716252727,206,"15 PIERSON DRIVE, HOCKESSIN, DE, 19707","Match","Exact","15 PIERSON DR, HOCKESSIN, DE, 19707",187251859,"L"
196207,"15 PIKES PEAK ROAD","LITTLE EGG HARBOR","NJ",8087,39.5968331010001,-74.359197149,207,"15 PIKES PEAK ROAD, LITTLE EGG HARBOR, NJ, 8087","Match","Exact","15 PIKES PEAK RD, LITTLE EGG HARBOR, NJ, 08087",203712742,"L"
196208,"15 PILGARD LANE","GLASTONBURY","CT",6033,41.6891036420001,-72.5678285239999,208,"15 PILGARD LANE, GLASTONBURY, CT, 6033","Match","Exact","15 PILGARD LN, GLASTONBURY, CT, 06033",3498160,"R"
196209,"15 PILGRIM AVE","MERRIMACK","NH",3054,42.867218114,-71.5197627479999,209,"15 PILGRIM AVE, MERRIMACK, NH, 3054","Match","Exact","15 PILGRIM AVE, MERRIMACK, NH, 03054",113543190,"R"
196210,"15 PILLOW LACE LANE","BEVERLY","MA",1915,42.5789846970001,-70.837531062,210,"15 PILLOW LACE LANE, BEVERLY, MA, 1915","Match","Non_Exact","15 PILLOWLACE LN, BEVERLY, MA, 01915",86679425,"R"
196211,"15 PILOTS WAY","WALPOLE","MA",2181,NA,NA,211,"15 PILOTS WAY, WALPOLE, MA, 2181","No_Match",NA,NA,NA,NA
196212,"15 PINE HILL CIRCLE","WALTHAM","MA",2451,42.400339736,-71.248689038,212,"15 PINE HILL CIRCLE, WALTHAM, MA, 2451","Match","Exact","15 PINE HILL CIR, WALTHAM, MA, 02451",86882271,"R"
196213,"15 PINE KNOLL DRIVE","SOUTHWICK","MA",1077,42.052724745,-72.735857389,213,"15 PINE KNOLL DRIVE, SOUTHWICK, MA, 1077","Match","Non_Exact","15 PINE KNOLL RD, SOUTHWICK, MA, 01077",4066488,"R"
196214,"15 PINE KNOLL PLACE","MAMMOTH LAKES","CA",93546,37.6393757450001,-118.989566934,214,"15 PINE KNOLL PLACE, MAMMOTH LAKES, CA, 93546","Match","Non_Exact","15 PINE KNOLL CRES, MAMMOTH LAKES, CA, 93546",102518555,"L"
196215,"15 PINE LANE","NESCOPECK","PA",18635,41.0357683570001,-76.1493528299999,215,"15 PINE LANE, NESCOPECK, PA, 18635","Match","Exact","15 PINE LN, NESCOPECK, PA, 18635",80954130,"R"
196216,"15 PINE LANE","RYE","NY",10580,40.970947611,-73.687220372,216,"15 PINE LANE, RYE, NY, 10580","Match","Exact","15 PINE LN, RYE, NY, 10580",139818329,"R"
196217,"15 PINE MANOR DRIVE","LITTLE ROCK","AR",72207,34.7645800660001,-92.348909917,217,"15 PINE MANOR DRIVE, LITTLE ROCK, AR, 72207","Match","Exact","15 PINE MANOR DR, LITTLE ROCK, AR, 72207",83504526,"L"
196218,"15 PINE ROAD","SOUTH GLENS FALLS","NY",12803,43.2792674340001,-73.6418307009999,218,"15 PINE ROAD, SOUTH GLENS FALLS, NY, 12803","Match","Exact","15 PINE RD, S GLENS FALLS, NY, 12803",18771469,"L"
196219,"15 pine st","EAST BRUNSWICK","NJ",8816,40.4161276580001,-74.366757707,219,"15 pine st, EAST BRUNSWICK, NJ, 8816","Match","Exact","15 PINE ST, E BRUNSWICK, NJ, 08816",60347455,"R"
196220,"15 PINE ST","EAST BRUNSWICK","NJ",8816,40.4161276580001,-74.366757707,220,"15 PINE ST, EAST BRUNSWICK, NJ, 8816","Match","Exact","15 PINE ST, E BRUNSWICK, NJ, 08816",60347455,"R"
196221,"15 PINE ST","HARVEYS LAKE","PA",18618,41.3758637010001,-76.04839629,221,"15 PINE ST, HARVEYS LAKE, PA, 18618","Match","Exact","15 PINE ST, HARVEYS LAKE, PA, 18618",80903640,"R"
196222,"15 PINE STREET APT 1","BRATTLEBORO","VT",5301,42.8441693820001,-72.557600597,222,"15 PINE STREET APT 1, BRATTLEBORO, VT, 5301","Match","Exact","15 PINE ST, BRATTLEBORO, VT, 05301",171080393,"R"
196223,"15 PINE STREET","FRANKLINTON","NC",27525,36.11026658,-78.456006676,223,"15 PINE STREET, FRANKLINTON, NC, 27525","Match","Exact","15 PINE ST, FRANKLINTON, NC, 27525",90235758,"L"
196224,"15 PINE TOP ROAD","WOODRIDGE","NY",12789,41.6923955520001,-74.583839181,224,"15 PINE TOP ROAD, WOODRIDGE, NY, 12789","Match","Non_Exact","15 PINE TOP ST, WOODRIDGE, NY, 12789",128985215,"L"
196225,"15 PINEBROOK LANE","BROWNS SUMMIT","NC",27214,36.2021629910001,-79.719168283,225,"15 PINEBROOK LANE, BROWNS SUMMIT, NC, 27214","Match","Non_Exact","15 PINEBARK LN, BROWNS SUMMIT, NC, 27214",131055404,"L"
196226,"15 PINEWOOD KNOLL","ROCHESTER","NY",14624,43.111891761,-77.711280066,226,"15 PINEWOOD KNOLL, ROCHESTER, NY, 14624","Match","Exact","15 PINEWOOD KNL, ROCHESTER, NY, 14624",14530534,"R"
196227,"15 PIONEER RIDGE ROAD","PORT DEPOSIT","MD",21904,39.639884232,-76.0435866239999,227,"15 PIONEER RIDGE ROAD, PORT DEPOSIT, MD, 21904","Match","Non_Exact","15 PIONEER RIDGE DR, PORT DEPOSIT, MD, 21904",187395678,"R"
196228,"15 PIPESTEM COURT","POTOMAC","MD",20854,39.074547388,-77.177113564,228,"15 PIPESTEM COURT, POTOMAC, MD, 20854","Match","Exact","15 PIPESTEM CT, POTOMAC, MD, 20854",62088942,"R"
196229,"15 PITNER PLACE","JACKSONVILLE","IL",62650,39.7321004610001,-90.254410615,229,"15 PITNER PLACE, JACKSONVILLE, IL, 62650","Match","Exact","15 PITNER PL, JACKSONVILLE, IL, 62650",81430773,"L"
196230,"15 PLANTATION RD","WHITEHOUSE STATION","NJ",8889,40.6248610580001,-74.786237462,230,"15 PLANTATION RD, WHITEHOUSE STATION, NJ, 8889","Match","Exact","15 PLANTATION RD, WHITEHOUSE STATION, NJ, 08889",60027707,"L"
196231,"15 PLAYHOUSE DRIVE","RINGGOLD","GA",30736,34.907426608,-85.176514813,231,"15 PLAYHOUSE DRIVE, RINGGOLD, GA, 30736","Match","Exact","15 PLAYHOUSE DR, RINGGOLD, GA, 30736",634076569,"R"
196232,"15 PLEASANT AVENUE","SOMERVILLE","MA",2143,42.3842368030001,-71.095294068,232,"15 PLEASANT AVENUE, SOMERVILLE, MA, 2143","Match","Exact","15 PLEASANT AVE, SOMERVILLE, MA, 02143",86869181,"R"
196233,"15 PLEASANT GROVE RD","WHEATLAND","CA",95692,38.9886834860001,-121.487650241,233,"15 PLEASANT GROVE RD, WHEATLAND, CA, 95692","Match","Exact","15 PLEASANT GROVE RD, WHEATLAND, CA, 95692",68575743,"L"
196234,"15 PLEASANT HILL AVE","MATTAPAN","MA",2126,42.2774954160001,-71.072582731,234,"15 PLEASANT HILL AVE, MATTAPAN, MA, 2126","Match","Exact","15 PLEASANT HILL AVE, MATTAPAN, MA, 02126",651813829,"R"
196235,"15 PLEASANT PL","LAWRENCE","MA",1841,42.7126922640001,-71.143883769,235,"15 PLEASANT PL, LAWRENCE, MA, 1841","Match","Exact","15 PLEASANT PL, LAWRENCE, MA, 01841",86679474,"R"
196236,"15 PLEASANT PLACE","LAWRENCE","MA",1841,42.7126922640001,-71.143883769,236,"15 PLEASANT PLACE, LAWRENCE, MA, 1841","Match","Exact","15 PLEASANT PL, LAWRENCE, MA, 01841",86679474,"R"
196237,"15 PLEASANT TERRACE","LAWRENCE","MD",20743,NA,NA,237,"15 PLEASANT TERRACE, LAWRENCE, MD, 20743","No_Match",NA,NA,NA,NA
196238,"15 PLUMMER PARK","WHITINSVILLE","MA",1588,42.1241516060001,-71.6440708809999,238,"15 PLUMMER PARK, WHITINSVILLE, MA, 1588","Match","Exact","15 PLUMMER PARK, WHITINSVILLE, MA, 01588",40024323,"L"
196239,"15 POLLUX CIRCLE W","PORTSMOUTH","VA",23701,36.8224012160001,-76.368575693,239,"15 POLLUX CIRCLE W, PORTSMOUTH, VA, 23701","Match","Exact","15 POLLUX CIR W, PORTSMOUTH, VA, 23701",122191525,"L"
196240,"15 POND ST","MILFORD","CT",6460,41.2180520260001,-73.0581653039999,240,"15 POND ST, MILFORD, CT, 6460","Match","Exact","15 POND ST, MILFORD, CT, 06460",3714698,"R"
196241,"15 POND VIEW RD","CRANSTON","RI",2920,41.786858737,-71.495919697,241,"15 POND VIEW RD, CRANSTON, RI, 2920","Match","Exact","15 POND VIEW RD, CRANSTON, RI, 02920",646864389,"R"
196242,"15 POOLE CIRCLE","HOLBROOK","MA",2343,42.152464154,-70.995753499,242,"15 POOLE CIRCLE, HOLBROOK, MA, 2343","Match","Exact","15 POOLE CIR, HOLBROOK, MA, 02343",87256676,"R"
196243,"15 POOR FARM RD","PRINCETON","NJ",8540,40.382620145,-74.65307337,243,"15 POOR FARM RD, PRINCETON, NJ, 8540","Match","Exact","15 POOR FARM RD, PRINCETON, NJ, 08540",60191283,"R"
196244,"15 POPLAR STREET","OLD ORCHARD BEACH","ME",4064,43.5360015900001,-70.397688848,244,"15 POPLAR STREET, OLD ORCHARD BEACH, ME, 4064","Match","Exact","15 POPLAR ST, OLD ORCHARD BEACH, ME, 04064",92757352,"L"
196245,"15 POPLAR STREET","WINDSOR LOCKS","CT",6096,41.9423064120001,-72.6354033489999,245,"15 POPLAR STREET, WINDSOR LOCKS, CT, 6096","Match","Exact","15 POPLAR ST, WINDSOR LOCKS, CT, 06096",3487385,"R"
196246,"15 POPPY AVENUE","NEPTURE","NJ",7753,40.205276788,-74.078694234,246,"15 POPPY AVENUE, NEPTURE, NJ, 7753","Match","Non_Exact","15 POPPY AVE, NEPTUNE, NJ, 07753",90457070,"L"
196247,"15 POPPY CT","NEWTOWN","PA",18940,40.262110986,-74.944343058,247,"15 POPPY CT, NEWTOWN, PA, 18940","Match","Exact","15 POPPY CT, NEWTOWN, PA, 18940",134738983,"L"
196248,"15 POTTER DR","EAST FALMOUTH","MA",2536,NA,NA,248,"15 POTTER DR, EAST FALMOUTH, MA, 2536","No_Match",NA,NA,NA,NA
196249,"15 POTTER LANE","PALM COAST","FL",32164,NA,NA,249,"15 POTTER LANE, PALM COAST, FL, 32164","No_Match",NA,NA,NA,NA
196250,"15 POTTERS LN","PALM COAST","FL",32164,29.5056239420001,-81.2182982959999,250,"15 POTTERS LN, PALM COAST, FL, 32164","Match","Exact","15 POTTERS LN, PALM COAST, FL, 32164",94951396,"R"
196251,"15 POWDERHORN LN","HOLLISTON","MA",1746,42.1967056990001,-71.395813515,251,"15 POWDERHORN LN, HOLLISTON, MA, 1746","Match","Exact","15 POWDERHORN LN, HOLLISTON, MA, 01746",86929279,"R"
196252,"15 POWERS MILL ROAD","PHILLIPSTON","MA",1331,42.564917877,-72.1371847459999,252,"15 POWERS MILL ROAD, PHILLIPSTON, MA, 1331","Match","Exact","15 POWERS MILL RD, PHILLIPSTON, MA, 01331",40151449,"L"
196253,"15 PRAIRIE ST","PORTAL","ND",58772,48.995507876,-102.547268959,253,"15 PRAIRIE ST, PORTAL, ND, 58772","Match","Exact","15 PRAIRIE ST, PORTAL, ND, 58772",200024300,"L"
196254,"15 PRATT STREET","NEW MILFORD","PA",18834,41.874239688,-75.726070583,254,"15 PRATT STREET, NEW MILFORD, PA, 18834","Match","Exact","15 PRATT ST, NEW MILFORD, PA, 18834",140067211,"R"
196255,"15 PRESERVE DR","LONDONDERRY","NH",3053,42.8563697010001,-71.4230388089999,255,"15 PRESERVE DR, LONDONDERRY, NH, 3053","Match","Exact","15 PRESERVE DR, LONDONDERRY, NH, 03053",635754718,"L"
196256,"15 PRESIDENT RD","MASTIC BEACH","NY",11951,40.769654777,-72.8471243019999,256,"15 PRESIDENT RD, MASTIC BEACH, NY, 11951","Match","Exact","15 PRESIDENT RD, MASTIC BEACH, NY, 11951",114020707,"L"
196257,"15 PRESTBURY DQ FLOOR 3 SUITE 21","NEWARK","DE",19713,39.6654891420001,-75.720663492,257,"15 PRESTBURY DQ FLOOR 3 SUITE 21, NEWARK, DE, 19713","Match","Non_Exact","15 PRESTBURY SQ, NEWARK, DE, 19713",606260600,"L"
196258,"15 PRESTON DRIVE","BARRINGTON","RI",NA,41.7248693130001,-71.2958838719999,258,"15 PRESTON DRIVE, BARRINGTON, RI, ","Match","Exact","15 PRESTON DR, BARRINGTON, RI, 02806",46480294,"R"
196259,"15 PRINCESS ANNE RD","MOBILE","AL",26608,30.6991116680001,-88.14488733,259,"15 PRINCESS ANNE RD, MOBILE, AL, 26608","Match","Non_Exact","15 PRINCESS ANNE RD, MOBILE, AL, 36608",61930319,"L"
196260,"15 PRINCETON AVENUE","YONKERS","NY",10710,40.9633809250001,-73.83284178,260,"15 PRINCETON AVENUE, YONKERS, NY, 10710","Match","Exact","15 PRINCETON AVE, YONKERS, NY, 10710",139734416,"L"
196261,"15 PRK CIRCLE CT","CALUMET CITY","IL",60409,NA,NA,261,"15 PRK CIRCLE CT, CALUMET CITY, IL, 60409","No_Match",NA,NA,NA,NA
196262,"15 PROCLAMATION WAY","IRVINE","CA",92602,33.7360091850001,-117.772689549,262,"15 PROCLAMATION WAY, IRVINE, CA, 92602","Match","Exact","15 PROCLAMATION WAY, IRVINE, CA, 92602",144132385,"L"
196263,"15 PROFESSOR OGUNLESI STREET STATIO","OGUN STATE, NIGERIA",NA,NA,NA,NA,263,"15 PROFESSOR OGUNLESI STREET STATIO, OGUN STATE, NIGERIA, , ","No_Match",NA,NA,NA,NA
196264,"15 PROMENADE DRIVE","GREENVILLE","SC",29609,NA,NA,264,"15 PROMENADE DRIVE, GREENVILLE, SC, 29609","No_Match",NA,NA,NA,NA
196265,"15 PROSPECT PLACE","BROOKLYN","NY",11217,40.6800723850001,-73.977178877,265,"15 PROSPECT PLACE, BROOKLYN, NY, 11217","Match","Exact","15 PROSPECT PL, BROOKLYN, NY, 11217",59077639,"L"
196266,"15 PROSPECT ST","NEW BRITAIN","CT",6051,41.664966033,-72.783796304,266,"15 PROSPECT ST, NEW BRITAIN, CT, 6051","Match","Exact","15 PROSPECT ST, NEW BRITAIN, CT, 06051",3510757,"R"
196267,"15 PROSPECT STREET","N. OXFORD","MA",1537,NA,NA,267,"15 PROSPECT STREET, N. OXFORD, MA, 1537","No_Match",NA,NA,NA,NA
196268,"15 PROSPECT STREET","NEW BRITAIN","CT",6051,41.664966033,-72.783796304,268,"15 PROSPECT STREET, NEW BRITAIN, CT, 6051","Match","Exact","15 PROSPECT ST, NEW BRITAIN, CT, 06051",3510757,"R"
196269,"15 PULASKI AVE","SAYERVILLE","NJ",8872,40.4605841910001,-74.346464423,269,"15 PULASKI AVE, SAYERVILLE, NJ, 8872","Match","Non_Exact","15 PULASKI AVE, SAYREVILLE, NJ, 08872",60281933,"L"
196270,"15 PULLER PLACE","STAFFORD","VA",22556,38.484640643,-77.486978796,270,"15 PULLER PLACE, STAFFORD, VA, 22556","Match","Exact","15 PULLER PL, STAFFORD, VA, 22556",640934956,"L"
196271,"15 PURCHASE ST","MILFORD","MA",1757,42.147428113,-71.520299533,271,"15 PURCHASE ST, MILFORD, MA, 1757","Match","Exact","15 PURCHASE ST, MILFORD, MA, 01757",40039570,"R"
196272,"15 QUAIL LN","ROCHESTER","NY",14624,43.1437694840001,-77.773120972,272,"15 QUAIL LN, ROCHESTER, NY, 14624","Match","Exact","15 QUAIL LN, ROCHESTER, NY, 14624",14559979,"L"
196273,"15 QUAIL RIDGE","JOPLIN","MO",64804,37.025387262,-94.48834916,273,"15 QUAIL RIDGE, JOPLIN, MO, 64804","Match","Non_Exact","15 QUAIL RIDGE DR, JOPLIN, MO, 64804",55983948,"R"
196274,"15 QUARRY AVE","WEST MILDFORD","NJ",7480,41.1255590910001,-74.366349132,274,"15 QUARRY AVE, WEST MILDFORD, NJ, 7480","Match","Non_Exact","15 QUARRY AVE, WEST MILFORD, NJ, 07480",65249001,"L"
196275,"15 QUARRY AVE","WEST MILFORD","NJ",7480,41.1255590910001,-74.366349132,275,"15 QUARRY AVE, WEST MILFORD, NJ, 7480","Match","Exact","15 QUARRY AVE, WEST MILFORD, NJ, 07480",65249001,"L"
196276,"15 QUEEN RD GLOUCESTER TOWER","HONG KONG",NA,NA,NA,NA,276,"15 QUEEN RD GLOUCESTER TOWER, HONG KONG, , ","No_Match",NA,NA,NA,NA
196277,"15 QUEENSWAY DR","MURRAY","KY",42071,36.584052091,-88.339947402,277,"15 QUEENSWAY DR, MURRAY, KY, 42071","Match","Exact","15 QUEENSWAY DR, MURRAY, KY, 42071",31709457,"R"
196278,"15 QUIET MOON","IRVINE","CA",92614,33.669531125,-117.8071482,278,"15 QUIET MOON, IRVINE, CA, 92614","Match","Exact","15 QUIET MOON, IRVINE, CA, 92614",647338442,"L"
196279,"15 QUINCE STREET","NATICK","MA",1760,42.278943488,-71.356970769,279,"15 QUINCE STREET, NATICK, MA, 1760","Match","Exact","15 QUINCE ST, NATICK, MA, 01760",87104602,"R"
196280,"15 QUINCY AVENUE 2D","BROOKLYN","NY",11238,40.6858179920001,-73.96062676,280,"15 QUINCY AVENUE 2D, BROOKLYN, NY, 11238","Match","Non_Exact","15 QUINCY ST, BROOKLYN, NY, 11238",59078040,"L"
196281,"15 QUINTARA","SAN FRANCISCO","CA",94116,37.749085468,-122.466014269,281,"15 QUINTARA, SAN FRANCISCO, CA, 94116","Match","Non_Exact","15 QUINTARA ST, SAN FRANCISCO, CA, 94116",192282536,"L"
196282,"15 QUINTARD DRIVE","PORT CHESTER","NY",10573,41.016550454,-73.6658530289999,282,"15 QUINTARD DRIVE, PORT CHESTER, NY, 10573","Match","Exact","15 QUINTARD DR, PORT CHESTER, NY, 10573",139762093,"L"
196283,"15 RACEHORSE DRIVE","JONESTOWN","PA",17038,40.3930954190001,-76.506479333,283,"15 RACEHORSE DRIVE, JONESTOWN, PA, 17038","Match","Exact","15 RACEHORSE DR, JONESTOWN, PA, 17038",634946697,"L"
196284,"15 RACOON POINTE","CANTON","NC",28716,35.5745456230001,-82.790195717,284,"15 RACOON POINTE, CANTON, NC, 28716","Match","Non_Exact","15 RACCOON PT, CANTON, NC, 28716",151841051,"L"
196285,"15 RAILROAD ST","CAIRO","WV",26337,39.207814022,-81.157011277,285,"15 RAILROAD ST, CAIRO, WV, 26337","Match","Exact","15 RAILROAD ST, CAIRO, WV, 26337",55272763,"R"
196286,"15 RAINBOWS END","HILLSBORO","NH",3244,43.1481693740001,-71.888008864,286,"15 RAINBOWS END, HILLSBORO, NH, 3244","Match","Exact","15 RAINBOWS END, HILLSBORO, NH, 03244",113550459,"L"
196287,"15 RAMSEY ROAD","MILLDESEX","NJ",8846,40.579049845,-74.5078908519999,287,"15 RAMSEY ROAD, MILLDESEX, NJ, 8846","Match","Non_Exact","15 RAMSEY RD, MIDDLESEX, NJ, 08846",60258347,"L"
196288,"15 RANDALL CIRCLE","WINDSOR","CT",6095,41.8672036460001,-72.631504163,288,"15 RANDALL CIRCLE, WINDSOR, CT, 6095","Match","Exact","15 RANDALL CIR, WINDSOR, CT, 06095",3489746,"L"
196289,"15 RANICK DRIVE WEST","AMITYVILLE","NY",11701,NA,NA,289,"15 RANICK DRIVE WEST, AMITYVILLE, NY, 11701","Tie",NA,NA,NA,NA
196290,"15 RAYMOND HALL DRIVE","NORTH ATTLEBORO","MA",2760,42.0015935260001,-71.296895325,290,"15 RAYMOND HALL DRIVE, NORTH ATTLEBORO, MA, 2760","Match","Exact","15 RAYMOND HALL DR, NORTH ATTLEBORO, MA, 02760",46764516,"R"
196291,"15 RED HAWK HOLLOW ROAD","WAPPINGERS FALLS","NY",12590,41.6357036590001,-73.8296773119999,291,"15 RED HAWK HOLLOW ROAD, WAPPINGERS FALLS, NY, 12590","Match","Exact","15 RED HAWK HOLLOW RD, WAPPINGERS FALLS, NY, 12590",4180493,"L"
196292,"15 REDONDO LN","PUEBLO","CO",81005,38.213031916,-104.671033472,292,"15 REDONDO LN, PUEBLO, CO, 81005","Match","Exact","15 REDONDO LN, PUEBLO, CO, 81005",105050920,"R"
196293,"15 REDSTONE LANE","WASHINGTON","PA",15301,40.1601858490001,-80.240828458,293,"15 REDSTONE LANE, WASHINGTON, PA, 15301","Match","Exact","15 REDSTONE LN, WASHINGTON, PA, 15301",52803809,"L"
196294,"15 REED STREET","AGAWAM","MA",1001,42.0874462080001,-72.624207814,294,"15 REED STREET, AGAWAM, MA, 1001","Match","Exact","15 REED ST, AGAWAM, MA, 01001",4033166,"L"
196295,"15 REGENTS PARK","WESTPORT","CT",6880,41.1385232210001,-73.315628144,295,"15 REGENTS PARK, WESTPORT, CT, 6880","Match","Exact","15 REGENTS PARK, WESTPORT, CT, 06880",635940572,"R"
196296,"15 REGENTS","NEWPORT BEACH","CA",92660,33.6304865980001,-117.855673916,296,"15 REGENTS, NEWPORT BEACH, CA, 92660","Match","Exact","15 REGENTS, NEWPORT BEACH, CA, 92660",144400833,"L"
196297,"15 REGINA BLVD","BEVERLY HILLS","FL",34465,28.9172190190001,-82.466809908,297,"15 REGINA BLVD, BEVERLY HILLS, FL, 34465","Match","Exact","15 REGINA BLVD, BEVERLY HILLS, FL, 34465",86218721,"L"
196298,"15 REGINA DRIVE","ROCHESTER","NY",14606,43.17513877,-77.7199015429999,298,"15 REGINA DRIVE, ROCHESTER, NY, 14606","Match","Exact","15 REGINA DR, ROCHESTER, NY, 14606",14529662,"L"
196299,"15 REIDY CT","COLUMBIA","SC",29223,34.1371324450001,-80.9111610589999,299,"15 REIDY CT, COLUMBIA, SC, 29223","Match","Exact","15 REIDY CT, COLUMBIA, SC, 29223",604758880,"L"
196300,"15 REMINGTON WAY","SAN ANTONIO","TX",78258,29.6539997520001,-98.475609505,300,"15 REMINGTON WAY, SAN ANTONIO, TX, 78258","Match","Exact","15 REMINGTON WAY, SAN ANTONIO, TX, 78258",101565991,"L"
196301,"15 RENAULT AVE","MEDFORD","OR",97501,42.3236198390001,-122.910394499,301,"15 RENAULT AVE, MEDFORD, OR, 97501","Match","Exact","15 RENAULT AVE, MEDFORD, OR, 97501",155607759,"L"
196302,"15 RESERVIOR LANE","BELVIDERE","NJ",7823,40.801263271,-75.0462425009999,302,"15 RESERVIOR LANE, BELVIDERE, NJ, 7823","Match","Non_Exact","15 RESERVOIR LN, BELVIDERE, NJ, 07823",98113518,"L"
196303,"15 RESERVOIR ST","BOYLSTON","MA",1505,NA,NA,303,"15 RESERVOIR ST, BOYLSTON, MA, 1505","No_Match",NA,NA,NA,NA
196304,"15 RETFORD DRIVE","BELLA VISTA","AR",72715,36.4376486680001,-94.2797348719999,304,"15 RETFORD DRIVE, BELLA VISTA, AR, 72715","Match","Exact","15 RETFORD DR, BELLA VISTA, AR, 72715",47872102,"L"
196305,"15 RETIRO WAY","SAN FRANCISCO","CA",94123,37.8045074180001,-122.438064939,305,"15 RETIRO WAY, SAN FRANCISCO, CA, 94123","Match","Exact","15 RETIRO WAY, SAN FRANCISCO, CA, 94123",192279461,"L"
196306,"15 RHODE ISLAND AVE","MASSAPEQUA","NY",11758,40.6879802,-73.479111314,306,"15 RHODE ISLAND AVE, MASSAPEQUA, NY, 11758","Match","Exact","15 RHODE ISLAND AVE, MASSAPEQUA, NY, 11758",147648605,"L"
196307,"15 RIBBON CANDY LANE","TROY","NY",12182,42.8094784560001,-73.616955858,307,"15 RIBBON CANDY LANE, TROY, NY, 12182","Match","Exact","15 RIBBON CANDY LN, TROY, NY, 12182",35768165,"L"
196308,"15 RICHARD AVE","SARATOGASPRINGS","NY",12866,43.0643361030001,-73.780574907,308,"15 RICHARD AVE, SARATOGASPRINGS, NY, 12866","Match","Non_Exact","15 RICHARD AVE, SARATOGA SPGS, NY, 12866",624836966,"L"
196309,"15 RICHARD AVENUE","SARATOGA SPRINGS","NY",12866,43.0643361030001,-73.780574907,309,"15 RICHARD AVENUE, SARATOGA SPRINGS, NY, 12866","Match","Exact","15 RICHARD AVE, SARATOGA SPGS, NY, 12866",624836966,"L"
196310,"15 RICHARD CT","RAYMOND","NH",3077,43.01542189,-71.237486825,310,"15 RICHARD CT, RAYMOND, NH, 3077","Match","Exact","15 RICHARD CT, RAYMOND, NH, 03077",113662120,"L"
196311,"15 RICHARD ST","ASHLEY","PA",18706,41.213051949,-75.907451319,311,"15 RICHARD ST, ASHLEY, PA, 18706","Match","Exact","15 RICHARD ST, ASHLEY, PA, 18706",604528361,"R"
196312,"15 RICHARDSON COURT","KEENE","NH",3431,42.932531521,-72.290721984,312,"15 RICHARDSON COURT, KEENE, NH, 3431","Match","Exact","15 RICHARDSON CT, KEENE, NH, 03431",124064613,"L"
196313,"15 RICHARDSON ST APT 3","SOMERVILLE","MA",2145,42.395644562,-71.1050580519999,313,"15 RICHARDSON ST APT 3, SOMERVILLE, MA, 2145","Match","Exact","15 RICHARDSON ST, SOMERVILLE, MA, 02145",86859141,"R"
196314,"15 RIDGE MANOR CT","WENTZVILLE","MO",63385,38.784037105,-90.885250003,314,"15 RIDGE MANOR CT, WENTZVILLE, MO, 63385","Match","Exact","15 RIDGE MANOR CT, WENTZVILLE, MO, 63385",605568933,"L"
196315,"15 RIDGEVIEW DR","PATTERSON","NY",12563,41.5050735200001,-73.628088131,315,"15 RIDGEVIEW DR, PATTERSON, NY, 12563","Match","Exact","15 RIDGEVIEW DR, PATTERSON, NY, 12563",645557515,"R"
196316,"15 RIDGEWAY DRIVE","CHILLICOTHE","OH",45601,39.3261602370001,-83.009836988,316,"15 RIDGEWAY DRIVE, CHILLICOTHE, OH, 45601","Match","Exact","15 RIDGEWAY DR, CHILLICOTHE, OH, 45601",37491247,"R"
196317,"15 RIDGEWOOD DR","WEST SUFFIELD","CT",6093,42.0159987800001,-72.748537933,317,"15 RIDGEWOOD DR, WEST SUFFIELD, CT, 6093","Match","Exact","15 RIDGEWOOD DR, WEST SUFFIELD, CT, 06093",648843093,"R"
196318,"15 RISING RIDGE ROAD","RIDGEFEILD","CT",6877,41.2629725100001,-73.4704111999999,318,"15 RISING RIDGE ROAD, RIDGEFEILD, CT, 6877","Match","Non_Exact","15 RISING RIDGE RD, RIDGEFIELD, CT, 06877",603287545,"L"
196319,"15 RIVER OAKS RD","WESTPORT","CT",6880,41.1262739650001,-73.333448083,319,"15 RIVER OAKS RD, WESTPORT, CT, 6880","Match","Exact","15 RIVER OAKS RD, WESTPORT, CT, 06880",3270879,"L"
196320,"15 RIVER ROAD","SHEATOWN","PA",18634,41.19505165,-76.014244815,320,"15 RIVER ROAD, SHEATOWN, PA, 18634","Match","Non_Exact","15 RIVER RD, NANTICOKE, PA, 18634",80905936,"L"
196321,"15 RIVERLEDGE ROAD","HUDSON","NY",12534,42.25537366,-73.7721304459999,321,"15 RIVERLEDGE ROAD, HUDSON, NY, 12534","Match","Exact","15 RIVERLEDGE RD, HUDSON, NY, 12534",41484569,"L"
196322,"15 RIVERMEADOWS DR","STEEP FALLS","ME",4085,43.745223401,-70.6409538039999,322,"15 RIVERMEADOWS DR, STEEP FALLS, ME, 4085","Match","Non_Exact","15 RIVER MEADOWS DR, STEEP FALLS, ME, 04085",78040658,"R"
196323,"15 RIVERSIDE DRIVE","DULUTH","MN",55808,46.708922285,-92.206361699,323,"15 RIVERSIDE DRIVE, DULUTH, MN, 55808","Match","Exact","15 RIVERSIDE DR, DULUTH, MN, 55808",163209636,"R"
196324,"15 RIVERSIDE LANE","HOLMDEL","NJ",7733,40.368532385,-74.17874797,324,"15 RIVERSIDE LANE, HOLMDEL, NJ, 7733","Match","Exact","15 RIVERSIDE LN, HOLMDEL, NJ, 07733",90499821,"R"
196325,"15 RIVERSIDE RD","SIMSBURY","CT",6070,41.86001916,-72.7979814139999,325,"15 RIVERSIDE RD, SIMSBURY, CT, 6070","Match","Exact","15 RIVERSIDE RD, SIMSBURY, CT, 06070",3532334,"L"
196326,"15 RIVERVIEW COURT","MILTON","WV",25541,38.4385969300001,-82.142255822,326,"15 RIVERVIEW COURT, MILTON, WV, 25541","Match","Exact","15 RIVERVIEW CT, MILTON, WV, 25541",101342450,"R"
196327,"15 RIVERVIEW DR","WESTPORT","MA",2790,41.593945671,-71.0569954919999,327,"15 RIVERVIEW DR, WESTPORT, MA, 2790","Match","Exact","15 RIVERVIEW DR, WESTPORT, MA, 02790",46847878,"R"
196328,"15 RIVIERA DR","SELDEN","NY",11784,40.87947839,-73.052941795,328,"15 RIVIERA DR, SELDEN, NY, 11784","Match","Exact","15 RIVIERA DR, SELDEN, NY, 11784",114003798,"R"
196329,"15 RIVINGTON STREET   3RD FLOOR","NEW YORK","NY",10002,40.7213402260001,-73.9925550899999,329,"15 RIVINGTON STREET   3RD FLOOR, NEW YORK, NY, 10002","Match","Exact","15 RIVINGTON ST, NEW YORK, NY, 10002",59653992,"R"
196330,"15 ROAD 3084","AZTEC","NM",87410,NA,NA,330,"15 ROAD 3084, AZTEC, NM, 87410","No_Match",NA,NA,NA,NA
196331,"15 ROAD 3546","FLORA VISTA","NM",87415,36.81074891,-108.087649234,331,"15 ROAD 3546, FLORA VISTA, NM, 87415","Match","Exact","15 RD 3546, FLORA VISTA, NM, 87415",127477096,"R"
196332,"15 ROBERT RD","STOW","MA",1775,42.4156729310001,-71.5156648829999,332,"15 ROBERT RD, STOW, MA, 1775","Match","Exact","15 ROBERT RD, STOW, MA, 01775",86924624,"L"
196333,"15 ROBERTA LN","WALDWICK","NJ",7463,41.011228798,-74.144071047,333,"15 ROBERTA LN, WALDWICK, NJ, 7463","Match","Exact","15 ROBERTA LN, WALDWICK, NJ, 07463",64402925,"R"
196334,"15 ROBERTS AVE","SAN RAFAEL","CA",94901,37.9636988600001,-122.527868536,334,"15 ROBERTS AVE, SAN RAFAEL, CA, 94901","Match","Exact","15 ROBERTS AVE, SAN RAFAEL, CA, 94901",647387583,"R"
196335,"15 ROBIN WAY","CANDLER","NC",28715,35.561539264,-82.67605471,335,"15 ROBIN WAY, CANDLER, NC, 28715","Match","Exact","15 ROBIN WAY, CANDLER, NC, 28715",36867141,"L"
196336,"15 ROCCO DRIVE","BLACKSTONE","MA",1504,42.0203382490001,-71.5225705829999,336,"15 ROCCO DRIVE, BLACKSTONE, MA, 1504","Match","Exact","15 ROCCO DR, BLACKSTONE, MA, 01504",40106943,"L"
196337,"15 ROCHFORD AVENUE","HAMDEN","CT",6514,41.345967962,-72.9418497139999,337,"15 ROCHFORD AVENUE, HAMDEN, CT, 6514","Match","Exact","15 ROCHFORD AVE, HAMDEN, CT, 06514",3698654,"R"
196338,"15 ROCK CAMP ROAD","FAYETTEVILLE","WV",25840,38.084844575,-81.1115956479999,338,"15 ROCK CAMP ROAD, FAYETTEVILLE, WV, 25840","Match","Exact","15 ROCK CAMP RD, FAYETTEVILLE, WV, 25840",652077567,"L"
196339,"15 ROCK HILL ROAD","WOODBRIDGE","CT",6525,41.3825666600001,-73.0172760789999,339,"15 ROCK HILL ROAD, WOODBRIDGE, CT, 6525","Match","Exact","15 ROCK HILL RD, WOODBRIDGE, CT, 06525",3716777,"R"
196340,"15 ROCKAWAY LANE","ARLINGTON","MA",2474,42.427558214,-71.1748274079999,340,"15 ROCKAWAY LANE, ARLINGTON, MA, 2474","Match","Exact","15 ROCKAWAY LN, ARLINGTON, MA, 02474",86912446,"R"
196341,"15 ROCKINGHAM LANE","OAK RIDGE","TN",37830,36.0199476980001,-84.181150518,341,"15 ROCKINGHAM LANE, OAK RIDGE, TN, 37830","Match","Exact","15 ROCKINGHAM LN, OAK RIDGE, TN, 37830",623925717,"R"
196342,"15 ROCKRIDGE ROAD","ANDOVER","MA",1810,42.6699308680001,-71.126087915,342,"15 ROCKRIDGE ROAD, ANDOVER, MA, 1810","Match","Exact","15 ROCKRIDGE RD, ANDOVER, MA, 01810",86630069,"R"
196343,"15 ROLLING STREET","LYNBROOK","NY",11563,40.6613247390001,-73.664526592,343,"15 ROLLING STREET, LYNBROOK, NY, 11563","Match","Exact","15 ROLLING ST, LYNBROOK, NY, 11563",147675266,"L"
196344,"15 RONALD ROAD","SUDBURY","MA",1776,42.391244552,-71.460691201,344,"15 RONALD ROAD, SUDBURY, MA, 1776","Match","Exact","15 RONALD RD, SUDBURY, MA, 01776",86846233,"R"
196345,"15 ROOSEBELT AVENUE","LEHIGH ACRES","FL",33936,26.6009583960001,-81.59268975,345,"15 ROOSEBELT AVENUE, LEHIGH ACRES, FL, 33936","Match","Non_Exact","15 ROOSEVELT AVE, LEHIGH ACRES, FL, 33936",117989872,"L"
196346,"15 ROSEMARY LANE","JAMESTOWN","RI",2835,41.5314795190001,-71.375243701,346,"15 ROSEMARY LANE, JAMESTOWN, RI, 2835","Match","Exact","15 ROSEMARY LN, JAMESTOWN, RI, 02835",47344752,"L"
196347,"15 ROSEMONT AVENUE","PAWTUCKET","RI",2861,41.8789256760001,-71.3601323029999,347,"15 ROSEMONT AVENUE, PAWTUCKET, RI, 2861","Match","Exact","15 ROSEMONT AVE, PAWTUCKET, RI, 02861",47506322,"R"
196348,"15 ROSEWOOD LN","COTUIT","MA",2635,41.643204779,-70.449942571,348,"15 ROSEWOOD LN, COTUIT, MA, 2635","Match","Exact","15 ROSEWOOD LN, COTUIT, MA, 02635",121668310,"R"
196349,"15 ROSZEL RD PO BOX 5910","PRINCETON","NJ",8540,40.3206468660001,-74.638894493,349,"15 ROSZEL RD PO BOX 5910, PRINCETON, NJ, 8540","Match","Exact","15 ROSZEL RD, PRINCETON, NJ, 08540",60213353,"L"
196350,"15 ROSZEL ROAD","PRINCETON","NJ",8540,40.3206468660001,-74.638894493,350,"15 ROSZEL ROAD, PRINCETON, NJ, 8540","Match","Exact","15 ROSZEL RD, PRINCETON, NJ, 08540",60213353,"L"
196351,"15 ROTHERWOOD ROAD","NEWTON CENTER","MA",2459,42.323761459,-71.1992687009999,351,"15 ROTHERWOOD ROAD, NEWTON CENTER, MA, 2459","Match","Exact","15 ROTHERWOOD RD, NEWTON CENTRE, MA, 02459",86866162,"R"
196352,"15 ROUND HILL ROAD","NORTH HAVEN","CT",6473,41.378568515,-72.895717051,352,"15 ROUND HILL ROAD, NORTH HAVEN, CT, 6473","Match","Exact","15 ROUND HILL RD, NORTH HAVEN, CT, 06473",3712170,"R"
196353,"15 ROVING DR","MARTINSBURG","WV",25403,39.5260665060001,-77.958697982,353,"15 ROVING DR, MARTINSBURG, WV, 25403","Match","Exact","15 ROVING DR, MARTINSBURG, WV, 25403",618011975,"L"
196354,"15 ROWANTREE DR","UPPER SADDLE RIVER","NJ",7458,41.076537708,-74.085685838,354,"15 ROWANTREE DR, UPPER SADDLE RIVER, NJ, 7458","Match","Exact","15 ROWANTREE DR, UPPER SADDLE RIVER, NJ, 07458",64365672,"L"
196355,"15 ROXBURY DRIVE","ATHENS","OH",45701,39.296408093,-82.0838544439999,355,"15 ROXBURY DRIVE, ATHENS, OH, 45701","Match","Exact","15 ROXBURY DR, ATHENS, OH, 45701",37099620,"L"
196356,"15 ROYAL PALM WAY","BOCA RATON","FL",33432,26.330192986,-80.091025917,356,"15 ROYAL PALM WAY, BOCA RATON, FL, 33432","Match","Exact","15 ROYAL PALM WAY, BOCA RATON, FL, 33432",650155824,"R"
196357,"15 ROYALTON PLACE","BLOOMFIELD","NJ",7040,NA,NA,357,"15 ROYALTON PLACE, BLOOMFIELD, NJ, 7040","No_Match",NA,NA,NA,NA
196358,"15 ROYALTY LANE","LAUREL SPRINGS","NJ",8021,39.8178710870001,-75.028925337,358,"15 ROYALTY LANE, LAUREL SPRINGS, NJ, 8021","Match","Exact","15 ROYALTY LN, LAUREL SPGS, NJ, 08021",134381716,"L"
196359,"15 ROYCE BROOK ROAD","HILLSBOROUGH","NJ",8844,40.5004888500001,-74.6306160669999,359,"15 ROYCE BROOK ROAD, HILLSBOROUGH, NJ, 8844","Match","Exact","15 ROYCE BROOK RD, HILLSBOROUGH, NJ, 08844",59975825,"L"
196360,"15 RUE DE VERGER","NEW IBERIA","LA",70563,30.0138604570001,-91.8102694469999,360,"15 RUE DE VERGER, NEW IBERIA, LA, 70563","Match","Exact","15 RUE DE VERGER, NEW IBERIA, LA, 70563",85363084,"L"
196361,"15 RUELLE DOLCIUS 3 PONT","GONAIVES",NA,NA,NA,NA,361,"15 RUELLE DOLCIUS 3 PONT, GONAIVES, , ","No_Match",NA,NA,NA,NA
196362,"15 RUNNING BROOK LN","STERLING","VA",20164,39.0425029880001,-77.370200073,362,"15 RUNNING BROOK LN, STERLING, VA, 20164","Match","Exact","15 RUNNING BROOK LN, STERLING, VA, 20164",62327702,"L"
196363,"15 RUSSELL BLVD","BRADFORD","PA",16701,41.972156924,-78.620513538,363,"15 RUSSELL BLVD, BRADFORD, PA, 16701","Match","Exact","15 RUSSELL BLVD, BRADFORD, PA, 16701",644189313,"L"
196364,"15 RUSSELL RD","WHITMAN","MA",2382,42.0943820370001,-70.944418911,364,"15 RUSSELL RD, WHITMAN, MA, 2382","Match","Exact","15 RUSSELL RD, WHITMAN, MA, 02382",87445831,"R"
196365,"15 RUSSET DRIVE","PITTSFIELD","NH",3263,43.304409121,-71.313393417,365,"15 RUSSET DRIVE, PITTSFIELD, NH, 3263","Match","Exact","15 RUSSET DR, PITTSFIELD, NH, 03263",117727870,"L"
196366,"15 RUTH ROAD","NORTHBOROUGH","MA",1532,42.3028857400001,-71.6487823309999,366,"15 RUTH ROAD, NORTHBOROUGH, MA, 1532","Match","Exact","15 RUTH RD, NORTHBOROUGH, MA, 01532",40023116,"L"
196367,"15 RUTHERFORD COURT","WARWICK","RI",2886,41.7075626280001,-71.465336248,367,"15 RUTHERFORD COURT, WARWICK, RI, 2886","Match","Exact","15 RUTHERFORD CT, WARWICK, RI, 02886",159146743,"R"
196368,"15 RUTLAND SQUARE","BOSTON","MA",2118,42.3415010900001,-71.077975163,368,"15 RUTLAND SQUARE, BOSTON, MA, 2118","Match","Exact","15 RUTLAND SQ, BOSTON, MA, 02118",85728127,"R"
196369,"15 RYAN RD","S. CASCO","ME",4077,NA,NA,369,"15 RYAN RD, S. CASCO, ME, 4077","No_Match",NA,NA,NA,NA
196370,"15 RYAN WAY","BRIDGEWATER","NJ",8807,40.6162515560001,-74.5913118349999,370,"15 RYAN WAY, BRIDGEWATER, NJ, 8807","Match","Exact","15 RYAN WAY, BRIDGEWATER, NJ, 08807",60001743,"R"
196371,"15 S 35TH CIRCLE","FORT SMITH","AR",72903,35.3415459340001,-94.3964346339999,371,"15 S 35TH CIRCLE, FORT SMITH, AR, 72903","Match","Exact","15 S 35TH CIR, FORT SMITH, AR, 72903",56104287,"L"
196372,"15 S 56TH ST","PHILADELPHIA","PA",19143,39.9605672800001,-75.2329342849999,372,"15 S 56TH ST, PHILADELPHIA, PA, 19143","Match","Non_Exact","15 S 56TH ST, PHILADELPHIA, PA, 19139",131399019,"L"
196373,"15 S BARBER ROAD","RYEGATE","MT",59074,46.3140536060001,-109.383910421,373,"15 S BARBER ROAD, RYEGATE, MT, 59074","Match","Exact","15 S BARBER RD, RYEGATE, MT, 59074",170695049,"L"
196374,"15 S DUTCHER STREET","IRVINGTON","NY",10544,41.039076881,-73.870154741,374,"15 S DUTCHER STREET, IRVINGTON, NY, 10544","Match","Non_Exact","15 S DUTCHER ST, IRVINGTON, NY, 10533",139731645,"L"
196375,"15 S FAIRWAY DR","NORTH SALT LAKE","UT",84054,40.839851778,-111.886861815,375,"15 S FAIRWAY DR, NORTH SALT LAKE, UT, 84054","Match","Exact","15 S FAIRWAY DR, N SALT LAKE, UT, 84054",632866694,"L"
196376,"15 S GRENADA LN","PORT ST LUCIE","FL",34952,27.3170917620001,-80.307213807,376,"15 S GRENADA LN, PORT ST LUCIE, FL, 34952","Match","Non_Exact","15 S GRANADA LN, PORT ST LUCIE, FL, 34952",120153607,"R"
196377,"15 S HELDERBERG PARKWAY","SLINGERLANDS","NY",12159,42.6260231700001,-73.874864341,377,"15 S HELDERBERG PARKWAY, SLINGERLANDS, NY, 12159","Match","Exact","15 S HELDERBERG PKWY, SLINGERLANDS, NY, 12159",18304522,"L"
196378,"15 S HOMAN AVENUE APT 422","CHICAGO","IL",60624,NA,NA,378,"15 S HOMAN AVENUE APT 422, CHICAGO, IL, 60624","Tie",NA,NA,NA,NA
196379,"15 S HUMBOLDT ST","SAN MATEO","CA",94401,37.5721764730001,-122.319064449,379,"15 S HUMBOLDT ST, SAN MATEO, CA, 94401","Match","Exact","15 S HUMBOLDT ST, SAN MATEO, CA, 94401",192377827,"L"
196380,"15 S LIBERTY STREET","HAMMONTON","NJ",8037,39.6442568190001,-74.793098054,380,"15 S LIBERTY STREET, HAMMONTON, NJ, 8037","Match","Exact","15 S LIBERTY ST, HAMMONTON, NJ, 08037",202477583,"L"
196381,"15 S PINE STREET","MOBILE","AL",36604,30.687432626,-88.059405311,381,"15 S PINE STREET, MOBILE, AL, 36604","Match","Exact","15 S PINE ST, MOBILE, AL, 36604",61867479,"L"
196382,"15 S RIO GRAND AVE","FARMINGTON","UT",84025,40.9803076600001,-111.912336372,382,"15 S RIO GRAND AVE, FARMINGTON, UT, 84025","Match","Exact","15 S RIO GRAND AVE, FARMINGTON, UT, 84025",645852563,"L"
196383,"15 S RODNEY DRIVE","WILMINGTON","DE",19809,39.75674954,-75.501445792,383,"15 S RODNEY DRIVE, WILMINGTON, DE, 19809","Match","Exact","15 S RODNEY DR, WILMINGTON, DE, 19809",187261913,"L"
196384,"15 S SHERIDAN","SHERIDAN","WY",82801,44.797003305,-106.948414041,384,"15 S SHERIDAN, SHERIDAN, WY, 82801","Match","Non_Exact","15 S SHERIDAN AVE, SHERIDAN, WY, 82801",147418342,"R"
196385,"15 S WALNUT STREET","FLAGSTAFF","AZ",86001,35.1989464920001,-111.656693538,385,"15 S WALNUT STREET, FLAGSTAFF, AZ, 86001","Match","Exact","15 S WALNUT ST, FLAGSTAFF, AZ, 86001",188860963,"L"
196386,"15 S WILLIAMS ST","CRYSTAL LAKE","IL",60014,42.240666893,-88.3189115929999,386,"15 S WILLIAMS ST, CRYSTAL LAKE, IL, 60014","Match","Exact","15 S WILLIAMS ST, CRYSTAL LAKE, IL, 60014",119821102,"L"
196387,"15 SADDLE RIVER RD","ANDOVER","NJ",7821,40.9509793280001,-74.7550537979999,387,"15 SADDLE RIVER RD, ANDOVER, NJ, 7821","Match","Non_Exact","15 SADDLE LN, ANDOVER, NJ, 07821",98016570,"L"
196388,"15 SAGAMORE DRIVE","SYOSSET","NY",11791,40.83715935,-73.5110403579999,388,"15 SAGAMORE DRIVE, SYOSSET, NY, 11791","Match","Exact","15 SAGAMORE DR, SYOSSET, NY, 11791",147639768,"L"
196389,"15 SAGAMORE RD","STANHOPE","NJ",7874,40.9129948460001,-74.707553649,389,"15 SAGAMORE RD, STANHOPE, NJ, 7874","Match","Exact","15 SAGAMORE RD, STANHOPE, NJ, 07874",649328801,"R"
196390,"15 SAGAMORE TRAIL","LITTLETON","MA",1460,42.573872948,-71.4977531659999,390,"15 SAGAMORE TRAIL, LITTLETON, MA, 1460","Match","Exact","15 SAGAMORE TRL, LITTLETON, MA, 01460",86917362,"L"
196391,"15 SAGE VIEW COURT","DILLON","CO",80435,39.591652992,-106.013434216,391,"15 SAGE VIEW COURT, DILLON, CO, 80435","Match","Exact","15 SAGE VIEW CT, DILLON, CO, 80435",607426102,"L"
196392,"15 SAHARA COURT","RENO","NV",89436,39.633415556,-119.721637023,392,"15 SAHARA COURT, RENO, NV, 89436","Match","Non_Exact","15 SAHARA CT, SPARKS, NV, 89436",107046597,"L"
196393,"15 SAINT ANDREW PL APT 3A","YONKERS","NY",10705,40.9168295590001,-73.897613983,393,"15 SAINT ANDREW PL APT 3A, YONKERS, NY, 10705","Match","Non_Exact","15 SAINT ANDREWS PL, YONKERS, NY, 10705",139743687,"R"
196394,"15 SAINT FRANCIS PALCE","BROOKLYN","NY",11216,40.6720621630001,-73.95653079,394,"15 SAINT FRANCIS PALCE, BROOKLYN, NY, 11216","Match","Non_Exact","15 ST FRANCIS PL, BROOKLYN, NY, 11216",59079343,"L"
196395,"15 SAINT LAURENT PLACE","JERICHO","NY",11753,NA,NA,395,"15 SAINT LAURENT PLACE, JERICHO, NY, 11753","No_Match",NA,NA,NA,NA
196396,"15 SAINT LAWRENCE DR","SAINT PETERS","MO",63376,38.7959882370001,-90.630185207,396,"15 SAINT LAWRENCE DR, SAINT PETERS, MO, 63376","Match","Exact","15 ST LAWRENCE DR, SAINT PETERS, MO, 63376",100015997,"R"
196397,"15 SALEM STREET","NEWBURYPORT","MA",1950,42.8075667300001,-70.862636433,397,"15 SALEM STREET, NEWBURYPORT, MA, 1950","Match","Exact","15 SALEM ST, NEWBURYPORT, MA, 01950",86686941,"L"
196398,"15 SALT CREEK LANE-SUITE 122","HNSDALE","IL",60521,41.8218547230001,-87.9211349079999,398,"15 SALT CREEK LANE-SUITE 122, HNSDALE, IL, 60521","Match","Non_Exact","15 SALT CREEK LN, HINSDALE, IL, 60521",112550090,"R"
196399,"15 SAMOS LANE","ANDOVER","MA",1810,42.6689625810001,-71.183017918,399,"15 SAMOS LANE, ANDOVER, MA, 1810","Match","Exact","15 SAMOS LN, ANDOVER, MA, 01810",86689457,"R"
196400,"15 SAMOSET AVENUE","BARRINGTON","RI",2806,41.7497533700001,-71.3120055969999,400,"15 SAMOSET AVENUE, BARRINGTON, RI, 2806","Match","Exact","15 SAMOSET AVE, BARRINGTON, RI, 02806",46479557,"R"
196401,"15 SAN LUIS OBISPO","LADERA RANCH","CA",92694,33.537574385,-117.627711987,401,"15 SAN LUIS OBISPO, LADERA RANCH, CA, 92694","Match","Non_Exact","15 SAN LUIS OBISPO ST, LADERA RANCH, CA, 92694",638897189,"L"
196402,"15 SAND DOLLAR STREET","NEWPORT BEACH","CA",92663,33.646899284,-117.944207068,402,"15 SAND DOLLAR STREET, NEWPORT BEACH, CA, 92663","Match","Non_Exact","15 SAND DOLLAR CT, NEWPORT BEACH, CA, 92663",144045530,"L"
196403,"15 SAND RUN CEMETERY WAY","ELKVIEW","WV",25071,NA,NA,403,"15 SAND RUN CEMETERY WAY, ELKVIEW, WV, 25071","No_Match",NA,NA,NA,NA
196404,"15 SANDHURST DR","DAYTON","OH",45405,39.7995052800001,-84.217839193,404,"15 SANDHURST DR, DAYTON, OH, 45405","Match","Exact","15 SANDHURST DR, DAYTON, OH, 45405",143568304,"L"
196405,"15 SANDRA LANE","WAYNE","NJ",7470,40.9460643370001,-74.275733223,405,"15 SANDRA LANE, WAYNE, NJ, 7470","Match","Exact","15 SANDRA LN, WAYNE, NJ, 07470",65258022,"L"
196406,"15 SANDSPRING DRIVE","SARATOGA SPRINGS","NY",12866,43.094571832,-73.7070986479999,406,"15 SANDSPRING DRIVE, SARATOGA SPRINGS, NY, 12866","Match","Non_Exact","15 SANDSPRING DR N, SARATOGA SPGS, NY, 12866",18768427,"L"
196407,"15 SANDY TERRACE","GORHAM","ME",4038,43.6208888670001,-70.44670329,407,"15 SANDY TERRACE, GORHAM, ME, 4038","Match","Exact","15 SANDY TER, GORHAM, ME, 04038",78078025,"R"
196408,"15 SANIBEL COVE","LITTLE ROCK","AR",72210,34.6993976000001,-92.4105491719999,408,"15 SANIBEL COVE, LITTLE ROCK, AR, 72210","Match","Exact","15 SANIBEL COVE, LITTLE ROCK, AR, 72210",618994307,"L"
196409,"15 SAPPHIRE DRIVE","KEY WEST","FL",33040,24.600682696,-81.6543603489999,409,"15 SAPPHIRE DRIVE, KEY WEST, FL, 33040","Match","Exact","15 SAPPHIRE DR, KEY WEST, FL, 33040",639075973,"L"
196410,"15 SARATOGA WAY","COVINGTON","GA",30016,33.5092483080001,-84.005172972,410,"15 SARATOGA WAY, COVINGTON, GA, 30016","Match","Exact","15 SARATOGA WAY, COVINGTON, GA, 30016",23624295,"L"
196411,"15 SCARBORA","WILLIAMSVILLE","NY",14221,42.9883204170001,-78.742990301,411,"15 SCARBORA, WILLIAMSVILLE, NY, 14221","Match","Non_Exact","15 SCARBORA DR, WILLIAMSVILLE, NY, 14221",48305108,"R"
196412,"15 SCARSDALE DR","LIVINGSTON","NJ",7039,40.804853893,-74.297918405,412,"15 SCARSDALE DR, LIVINGSTON, NJ, 7039","Match","Exact","15 SCARSDALE DR, LIVINGSTON, NJ, 07039",63457767,"L"
196413,"15 SCENEIC VIEW LANE","LEHIGHTON","PA",18235,40.8772689100001,-75.661158534,413,"15 SCENEIC VIEW LANE, LEHIGHTON, PA, 18235","Match","Non_Exact","15 SCENIC VW, LEHIGHTON, PA, 18235",80629931,"L"
196414,"15 SCENIC DRIVE","WARWICK","RI",2886,41.7169438080001,-71.449868819,414,"15 SCENIC DRIVE, WARWICK, RI, 2886","Match","Exact","15 SCENIC DR, WARWICK, RI, 02886",159158379,"R"
196415,"15 SCENIC HILLS DR","BLAIRSTOWN","NJ",7825,40.960835741,-74.9553374,415,"15 SCENIC HILLS DR, BLAIRSTOWN, NJ, 7825","Match","Exact","15 SCENIC HILLS DR, BLAIRSTOWN, NJ, 07825",624125471,"R"
196416,"15 SCENIC VISTA DRIVE","NEW CITY","NY",10956,41.164795472,-74.018653656,416,"15 SCENIC VISTA DRIVE, NEW CITY, NY, 10956","Match","Exact","15 SCENIC VISTA DR, NEW CITY, NY, 10956",124602494,"R"
196417,"15 SCHENCK AVE","GREAT NECK","NJ",11021,NA,NA,417,"15 SCHENCK AVE, GREAT NECK, NJ, 11021","No_Match",NA,NA,NA,NA
196418,"15 SCHOFIELD STREET","NEWARK","NJ",7106,NA,NA,418,"15 SCHOFIELD STREET, NEWARK, NJ, 7106","No_Match",NA,NA,NA,NA
196419,"15 SCHOOL STREET","BRIDGEWATER","MA",2324,41.988644541,-70.976092464,419,"15 SCHOOL STREET, BRIDGEWATER, MA, 2324","Match","Exact","15 SCHOOL ST, BRIDGEWATER, MA, 02324",87419259,"R"
196420,"15 SCHOOL STREET","THOMASTON","ME",4861,44.0776938070001,-69.188290777,420,"15 SCHOOL STREET, THOMASTON, ME, 4861","Match","Exact","15 SCHOOL ST, THOMASTON, ME, 04861",610445479,"L"
196421,"15 SCHOOLHOUSE ROAD","NORFOLK","CT",6058,41.9418454520001,-73.1721294119999,421,"15 SCHOOLHOUSE ROAD, NORFOLK, CT, 6058","Match","Exact","15 SCHOOLHOUSE RD, NORFOLK, CT, 06058",3132255,"L"
196422,"15 SCHOONER COURT","COLUMBIA","SC",29229,34.1691071320001,-80.885063519,422,"15 SCHOONER COURT, COLUMBIA, SC, 29229","Match","Exact","15 SCHOONER CT, COLUMBIA, SC, 29229",627500449,"L"
196423,"15 SCOFIELD STREET","NEWARK","NJ",7106,40.7361145620001,-74.230900327,423,"15 SCOFIELD STREET, NEWARK, NJ, 7106","Match","Exact","15 SCOFIELD ST, NEWARK, NJ, 07106",63489096,"R"
196424,"15 SCOTLAND HEIGHTS ROAD","HAVERHILL","MA",1832,42.7665784100001,-71.137044193,424,"15 SCOTLAND HEIGHTS ROAD, HAVERHILL, MA, 1832","Match","Exact","15 SCOTLAND HEIGHTS RD, HAVERHILL, MA, 01832",642522325,"R"
196425,"15 SCOTTS LANDING ROAD","SOUTHAMPTON","NY",11968,40.9492415990001,-72.397875918,425,"15 SCOTTS LANDING ROAD, SOUTHAMPTON, NY, 11968","Match","Exact","15 SCOTTS LANDING RD, SOUTHAMPTON, NY, 11968",114028879,"R"
196426,"15 SEAFORD CT","IRMO","SC",29063,34.124310452,-81.1748352119999,426,"15 SEAFORD CT, IRMO, SC, 29063","Match","Exact","15 SEAFORD CT, IRMO, SC, 29063",604784749,"L"
196427,"15 SECOND AVENUE","KINGSTON","PA",18704,41.254033727,-75.8889609029999,427,"15 SECOND AVENUE, KINGSTON, PA, 18704","Match","Exact","15 2ND AVE, KINGSTON, PA, 18704",80914026,"L"
196428,"15 SECRET GARDENS","SOCIAL CIRCLE","GA",30025,33.603572844,-83.7235350569999,428,"15 SECRET GARDENS, SOCIAL CIRCLE, GA, 30025","Match","Exact","15 SECRET GARDENS, SOCIAL CIRCLE, GA, 30025",23622831,"L"
196429,"15 SECRET GARDENS","SOCIAL CIRCLE","NY",30025,NA,NA,429,"15 SECRET GARDENS, SOCIAL CIRCLE, NY, 30025","No_Match",NA,NA,NA,NA
196430,"15 SEDGEWICK ST","SPRINGFIELD","MA",1108,42.0729536900001,-72.54230322,430,"15 SEDGEWICK ST, SPRINGFIELD, MA, 1108","Match","Exact","15 SEDGEWICK ST, SPRINGFIELD, MA, 01108",4039249,"R"
196431,"15 SEED HOUSE LANE","LONEPINE","MT",59848,47.702237424,-114.639224714,431,"15 SEED HOUSE LANE, LONEPINE, MT, 59848","Match","Non_Exact","15 SEEDHOUSE LN, LONEPINE, MT, 59848",607957460,"L"
196432,"15 SEFTON ST","BOSTON","MA",2136,42.27073469,-71.106427627,432,"15 SEFTON ST, BOSTON, MA, 2136","Match","Exact","15 SEFTON ST, BOSTON, MA, 02136",85704982,"R"
196433,"15 SENECA PLACE","JERICHO","NY",11753,40.776760369,-73.5457139069999,433,"15 SENECA PLACE, JERICHO, NY, 11753","Match","Exact","15 SENECA PL, JERICHO, NY, 11753",147625859,"L"
196434,"15 SEPULVEDA","RCHO STS MARG","CA",92688,33.6229470930001,-117.618917412,434,"15 SEPULVEDA, RCHO STS MARG, CA, 92688","Match","Non_Exact","15 SEPULVEDA, RCHO STA MARG, CA, 92688",144379113,"L"
196435,"15 SEQUOIA COURT","STEAMBOAT SPRINGS","CO",80487,40.446365477,-106.80898671,435,"15 SEQUOIA COURT, STEAMBOAT SPRINGS, CO, 80487","Match","Exact","15 SEQUOIA CT, STEAMBOAT SPRINGS, CO, 80487",105995914,"L"
196436,"15 SETALCOTT PLACE","SETAUKET","NY",11733,40.9299731,-73.121542769,436,"15 SETALCOTT PLACE, SETAUKET, NY, 11733","Match","Exact","15 SETALCOTT PL, SETAUKET, NY, 11733",113987173,"R"
196437,"15 SETH SPRAGUE ROAD","MARSHFIELD","MA",2050,42.101269007,-70.737992365,437,"15 SETH SPRAGUE ROAD, MARSHFIELD, MA, 2050","Match","Non_Exact","15 SETH SPRAUGE DR, MARSHFIELD, MA, 02050",648651569,"L"
196438,"15 SHADOW CREEK DR","AUSTIN","AR",72207,34.9826794960001,-91.9894401339999,438,"15 SHADOW CREEK DR, AUSTIN, AR, 72207","Match","Non_Exact","15 SHADOW CREEK DR, AUSTIN, AR, 72007",635384401,"R"
196439,"15 SHADY BEND DR","MELISSA","TX",75454,33.299585544,-96.583738757,439,"15 SHADY BEND DR, MELISSA, TX, 75454","Match","Exact","15 SHADY BEND DR, MELISSA, TX, 75454",123559575,"L"
196440,"15 SHADY GLADE","GLEN CARBON","IL",62054,38.768664765,-89.984103115,440,"15 SHADY GLADE, GLEN CARBON, IL, 62054","Match","Non_Exact","15 SHADY GLADE, GLEN CARBON, IL, 62034",107726790,"R"
196441,"15 SHADY LANE","KINGSTREE","SC",29556,33.6738051790001,-79.8131090959999,441,"15 SHADY LANE, KINGSTREE, SC, 29556","Match","Exact","15 SHADY LN, KINGSTREE, SC, 29556",29223708,"L"
196442,"15 SHAKER ROAD","GRAY","ME",4039,43.8872482730001,-70.331807026,442,"15 SHAKER ROAD, GRAY, ME, 4039","Match","Exact","15 SHAKER RD, GRAY, ME, 04039",78016797,"L"
196443,"15 SHARON LN","KINGWOOD","WV",26537,NA,NA,443,"15 SHARON LN, KINGWOOD, WV, 26537","No_Match",NA,NA,NA,NA
196444,"15 SHAW ACRES ROAD","STANDISH","ME",4084,43.835037217,-70.475363183,444,"15 SHAW ACRES ROAD, STANDISH, ME, 4084","Match","Exact","15 SHAW ACRES RD, STANDISH, ME, 04084",649883295,"L"
196445,"15 SHAW AVE","NEWARK","MD",7112,NA,NA,445,"15 SHAW AVE, NEWARK, MD, 7112","No_Match",NA,NA,NA,NA
196446,"15 SHEEP HILL ROAD","FLEETWOOD","PA",19522,40.421332346,-75.7754567969999,446,"15 SHEEP HILL ROAD, FLEETWOOD, PA, 19522","Match","Exact","15 SHEEP HILL RD, FLEETWOOD, PA, 19522",636356248,"L"
196447,"15 SHEFFIELD HILL ROAD","EXETER","RI",2822,41.5607825610001,-71.569496412,447,"15 SHEFFIELD HILL ROAD, EXETER, RI, 2822","Match","Exact","15 SHEFFIELD HILL RD, EXETER, RI, 02822",58901193,"R"
196448,"15 SHELLEY ROAD","SHORT HILLS","NJ",7078,40.7369350770001,-74.346435792,448,"15 SHELLEY ROAD, SHORT HILLS, NJ, 7078","Match","Exact","15 SHELLEY RD, SHORT HILLS, NJ, 07078",63456644,"L"
196449,"15 SHELLY DRIVE","BELLA VISTA","AR",72714,36.438985297,-94.207687515,449,"15 SHELLY DRIVE, BELLA VISTA, AR, 72714","Match","Exact","15 SHELLY DR, BELLA VISTA, AR, 72714",47859705,"R"
196450,"15 SHEPHERD AVENUE","ONEONTA","NY",13820,42.4539699420001,-75.0948334129999,450,"15 SHEPHERD AVENUE, ONEONTA, NY, 13820","Match","Exact","15 SHEPHERD AVE, ONEONTA, NY, 13820",125917961,"R"
196451,"15 SHERBROOKE DRIVE","PRINCETON JUNCTION","NJ",8550,40.3138282150001,-74.617056576,451,"15 SHERBROOKE DRIVE, PRINCETON JUNCTION, NJ, 8550","Match","Exact","15 SHERBROOKE DR, PRINCETON JCT, NJ, 08550",60172978,"L"
196452,"15 SHERI COURT","FARMINGVILLE","NY",11738,40.846636743,-73.063779809,452,"15 SHERI COURT, FARMINGVILLE, NY, 11738","Match","Exact","15 SHERI CT, FARMINGVILLE, NY, 11738",114060492,"R"
196453,"15 SHERIDAN STREET","WEST NEWTON","MA",2465,42.3589674730001,-71.232815635,453,"15 SHERIDAN STREET, WEST NEWTON, MA, 2465","Match","Exact","15 SHERIDAN ST, WEST NEWTON, MA, 02465",86862150,"R"
196454,"15 SHERMAN AVE","SUMMIT","NJ",7901,40.7221677150001,-74.363316964,454,"15 SHERMAN AVE, SUMMIT, NJ, 7901","Match","Exact","15 SHERMAN AVE, SUMMIT, NJ, 07901",60565165,"R"
196455,"15 SHERMAN STREET","HUNTINGTON","NY",11743,40.8307003240001,-73.434119922,455,"15 SHERMAN STREET, HUNTINGTON, NY, 11743","Match","Exact","15 SHERMAN ST, HUNTINGTON, NY, 11743",113963313,"L"
196456,"15 SHERMAN STREET","RIVERSIDE","RI",2915,41.7632915660001,-71.361700935,456,"15 SHERMAN STREET, RIVERSIDE, RI, 2915","Match","Exact","15 SHERMAN ST, RIVERSIDE, RI, 02915",47476143,"L"
196457,"15 SHERRI LANE","OCEANSIDE","CA",92054,NA,NA,457,"15 SHERRI LANE, OCEANSIDE, CA, 92054","No_Match",NA,NA,NA,NA
196458,"15 SHERWOOD CIRCLE","SHARON","MA",2067,42.099319011,-71.1603325139999,458,"15 SHERWOOD CIRCLE, SHARON, MA, 2067","Match","Exact","15 SHERWOOD CIR, SHARON, MA, 02067",87263156,"R"
196459,"15 SHERWOOD FARMS ROAD","FAIRFIELD","CT",6824,41.1689306160001,-73.277853708,459,"15 SHERWOOD FARMS ROAD, FAIRFIELD, CT, 6824","Match","Non_Exact","15 SHERWOOD FARM RD, FAIRFIELD, CT, 06824",626221750,"R"
196460,"15 SHERWOOD LANE","BARRINGTON","RI",2806,41.755587733,-71.3334548189999,460,"15 SHERWOOD LANE, BARRINGTON, RI, 2806","Match","Exact","15 SHERWOOD LN, BARRINGTON, RI, 02806",46478875,"R"
196461,"15 SHERWOOD LANE","STORMVILLE","NY",12582,41.5129459130001,-73.7202378709999,461,"15 SHERWOOD LANE, STORMVILLE, NY, 12582","Match","Exact","15 SHERWOOD LN, STORMVILLE, NY, 12582",4175962,"L"
196462,"15 SHORE DRIVE SW","EDWARDSVILLE","IL",62025,38.9119550620001,-89.939170813,462,"15 SHORE DRIVE SW, EDWARDSVILLE, IL, 62025","Match","Exact","15 SHORE DR SW, EDWARDSVILLE, IL, 62025",107669103,"R"
196463,"15 SHORE PARK RD","GREAT NECK","NY",11023,40.7898549920001,-73.746362727,463,"15 SHORE PARK RD, GREAT NECK, NY, 11023","Match","Exact","15 SHORE PARK RD, GREAT NECK, NY, 11023",147655942,"L"
196464,"15 SHORELINE DRIVE","HUDSON","NH",3051,42.784144902,-71.454190223,464,"15 SHORELINE DRIVE, HUDSON, NH, 3051","Match","Exact","15 SHORELINE DR, HUDSON, NH, 03051",624587855,"R"
196465,"15 SHORT CUT ROAD","EIGHTY FOUR","PA",15330,40.154970409,-80.046789421,465,"15 SHORT CUT ROAD, EIGHTY FOUR, PA, 15330","Match","Exact","15 SHORT CUT RD, EIGHTY FOUR, PA, 15330",52807608,"L"
196466,"15 SHORT DIRT","NEW GLOUCESTER","ME",4260,NA,NA,466,"15 SHORT DIRT, NEW GLOUCESTER, ME, 4260","No_Match",NA,NA,NA,NA
196467,"15 SHORT FORREST AVE","GADSDEN","AL",35904,34.0237597030001,-86.0484329189999,467,"15 SHORT FORREST AVE, GADSDEN, AL, 35904","Match","Exact","15 SHORT FORREST AVE, GADSDEN, AL, 35904",66766700,"L"
196468,"15 SHORT ROAD","SALEM","NJ",8079,39.532107823,-75.4693433149999,468,"15 SHORT ROAD, SALEM, NJ, 8079","Match","Exact","15 SHORT RD, SALEM, NJ, 08079",174410559,"R"
196469,"15 SHOUTH 7TH STREET","ELIZABETH","NJ",7206,NA,NA,469,"15 SHOUTH 7TH STREET, ELIZABETH, NJ, 7206","No_Match",NA,NA,NA,NA
196470,"15 SHY CREEK ROAD","PITTSTOWN","NJ",8867,40.5796946470001,-74.9687152069999,470,"15 SHY CREEK ROAD, PITTSTOWN, NJ, 8867","Match","Exact","15 SHY CREEK RD, PITTSTOWN, NJ, 08867",60022923,"R"
196471,"15 SIGNAL HILL DRIVE","HOCKESSIN","DE",19707,39.7588612490001,-75.697183971,471,"15 SIGNAL HILL DRIVE, HOCKESSIN, DE, 19707","Match","Exact","15 SIGNAL HILL DR, HOCKESSIN, DE, 19707",187272544,"L"
196472,"15 SILVER RIDGE ROAD","SHERMAN","ME",4776,45.8688652390001,-68.3298105059999,472,"15 SILVER RIDGE ROAD, SHERMAN, ME, 4776","Match","Exact","15 SILVER RIDGE RD, SHERMAN, ME, 04776",123843127,"L"
196473,"15 SILVERLEAF COURT","RIVERDALE","NJ",7457,40.9958796330001,-74.325903947,473,"15 SILVERLEAF COURT, RIVERDALE, NJ, 7457","Match","Non_Exact","15 SILVER LEAF CT, RIVERDALE, NJ, 07457",60470896,"R"
196474,"15 SIMMONS AVENUE","WHITMAN","MA",2382,42.0895820100001,-70.919793262,474,"15 SIMMONS AVENUE, WHITMAN, MA, 2382","Match","Exact","15 SIMMONS AVE, WHITMAN, MA, 02382",87445943,"R"
196475,"15 SIMS DR","SAG HARBOR","NY",11963,40.993149536,-72.317965989,475,"15 SIMS DR, SAG HARBOR, NY, 11963","Match","Exact","15 SIMS DR, SAG HARBOR, NY, 11963",114037655,"R"
196476,"15 SINGLE OAKS DR","SHERWOOD","AR",72120,34.8866352960001,-92.244115452,476,"15 SINGLE OAKS DR, SHERWOOD, AR, 72120","Match","Exact","15 SINGLE OAKS DR, SHERWOOD, AR, 72120",83497104,"L"
196477,"15 SIOUX TRAIL","GIRARD","OH",44420,41.1745046890001,-80.7013732,477,"15 SIOUX TRAIL, GIRARD, OH, 44420","Match","Exact","15 SIOUX TRL, GIRARD, OH, 44420",117410439,"R"
196478,"15 SIXTH ST","MELROSE","MA",2176,42.455199942,-71.051949395,478,"15 SIXTH ST, MELROSE, MA, 2176","Match","Exact","15 6TH ST, MELROSE, MA, 02176",86872098,"R"
196479,"15 SKY HARBOR DR","PORT MATILDA","PA",16870,40.769300043,-78.027595392,479,"15 SKY HARBOR DR, PORT MATILDA, PA, 16870","Match","Exact","15 SKY HARBOR DR, PORT MATILDA, PA, 16870",50395902,"L"
196480,"15 SKYLARK DR-22","LARKSPUR","CA",94939,37.9429433010001,-122.544780407,480,"15 SKYLARK DR-22, LARKSPUR, CA, 94939","Match","Non_Exact","15 SKYLARK DR, LARKSPUR, CA, 94939",647379831,"R"
196481,"15 SKYLINE DRIVE","POPLARVILLE","MS",39470,30.883670597,-89.5504004159999,481,"15 SKYLINE DRIVE, POPLARVILLE, MS, 39470","Match","Exact","15 SKYLINE DR, POPLARVILLE, MS, 39470",111488880,"L"
196482,"15 SKYVIEW LANE","STONY BROOK","NY",11790,40.915179671,-73.1373491209999,482,"15 SKYVIEW LANE, STONY BROOK, NY, 11790","Match","Exact","15 SKYVIEW LN, STONY BROOK, NY, 11790",114047813,"R"
196483,"15 SLATE COURT SE","MASON CITY","IA",50401,43.1517456350001,-93.193742962,483,"15 SLATE COURT SE, MASON CITY, IA, 50401","Match","Exact","15 SLATE CT SE, MASON CITY, IA, 50401",7299954,"L"
196484,"15 SLATE COURT","MASON CITY","IA",50401,43.1349254570001,-93.180333006,484,"15 SLATE COURT, MASON CITY, IA, 50401","Match","Exact","15 SLATE CT, MASON CITY, IA, 50401",7300201,"R"
196485,"15 SLM LANE","GREENBRIER","AR",72058,NA,NA,485,"15 SLM LANE, GREENBRIER, AR, 72058","No_Match",NA,NA,NA,NA
196486,"15 SLOAN LANE","PASADENA","MD",21122,39.107532695,-76.542017812,486,"15 SLOAN LANE, PASADENA, MD, 21122","Match","Exact","15 SLOAN LN, PASADENA, MD, 21122",68168696,"L"
196487,"15 SMITH ROAD","MILTON","MA",2186,42.2552874830001,-71.106163893,487,"15 SMITH ROAD, MILTON, MA, 2186","Match","Exact","15 SMITH RD, MILTON, MA, 02186",87295449,"R"
196488,"15 SMOKE TREE PLACE","PALM COAST","FL",32137,29.4160122530001,-81.178557331,488,"15 SMOKE TREE PLACE, PALM COAST, FL, 32137","Match","Non_Exact","15 SMOKE TREE PL, PALM COAST, FL, 32164",94944448,"L"
196489,"15 SOLAR STREET","IOWA CITY","IA",52240,41.644142958,-91.481738389,489,"15 SOLAR STREET, IOWA CITY, IA, 52240","Match","Exact","15 SOLAR ST, IOWA CITY, IA, 52240",84504365,"L"
196490,"15 SOMERSET ROAD","LEXINGTON","MA",2421,NA,NA,490,"15 SOMERSET ROAD, LEXINGTON, MA, 2421","No_Match",NA,NA,NA,NA
196491,"15 SOUTH 4TH STREET","HARRISBURG","PA",17101,40.261469622,-76.8787914449999,491,"15 SOUTH 4TH STREET, HARRISBURG, PA, 17101","Match","Exact","15 S 4TH ST, HARRISBURG, PA, 17101",70817770,"L"
196492,"15 SOUTH 6TH STREET","YAKIMA","WA",98901,46.6037536760001,-120.498268815,492,"15 SOUTH 6TH STREET, YAKIMA, WA, 98901","Match","Exact","15 S 6TH ST, YAKIMA, WA, 98901",184937263,"L"
196493,"15 SOUTH 7TH STREET","COLORADO SPRINGS","CO",80905,38.8339176120001,-104.837227371,493,"15 SOUTH 7TH STREET, COLORADO SPRINGS, CO, 80905","Match","Exact","15 S 7TH ST, COLORADO SPRINGS, CO, 80905",610728011,"L"
196494,"15 SOUTH BROAD STREET","TRENTON","NJ",8607,NA,NA,494,"15 SOUTH BROAD STREET, TRENTON, NJ, 8607","No_Match",NA,NA,NA,NA
196495,"15 SOUTH CHURCH STREET","CARBONDALE","PA",18407,41.5711603080001,-75.501539215,495,"15 SOUTH CHURCH STREET, CARBONDALE, PA, 18407","Match","Exact","15 S CHURCH ST, CARBONDALE, PA, 18407",623574168,"L"
196496,"15 SOUTH DIVISION","FAIRFIELD","MT",59436,47.6094982810001,-111.987121727,496,"15 SOUTH DIVISION, FAIRFIELD, MT, 59436","Match","Exact","15 S DIVISION, FAIRFIELD, MT, 59436",652339634,"R"
196497,"15 SOUTH ELM ST","WALLINGFORD","CT",6492,41.4526168530001,-72.815719023,497,"15 SOUTH ELM ST, WALLINGFORD, CT, 6492","Match","Exact","15 S ELM ST, WALLINGFORD, CT, 06492",3720779,"R"
196498,"15 SOUTH ELM STREET","WALLINGFORD","CT",6492,41.4526168530001,-72.815719023,498,"15 SOUTH ELM STREET, WALLINGFORD, CT, 6492","Match","Exact","15 S ELM ST, WALLINGFORD, CT, 06492",3720779,"R"
196499,"15 SOUTH GATE DR","HOWELL","NJ",7731,40.1589099670001,-74.212980584,499,"15 SOUTH GATE DR, HOWELL, NJ, 7731","Match","Non_Exact","15 SOUTHGATE DR, HOWELL, NJ, 07731",90450661,"R"
196500,"15 SOUTH GRADY WAY SUITE 250","RENTON","WA",98057,47.470780914,-122.217658878,500,"15 SOUTH GRADY WAY SUITE 250, RENTON, WA, 98057","Match","Exact","15 S GRADY WAY, RENTON, WA, 98057",187067636,"R"
