"ID","Address","City","State","Zip","lat","long","id","input_address","match_indicator","match_type","matched_address","tiger_line_id","tiger_side"
588501,"4004 MAIN STREET","HILLIARD",NA,NA,40.0334870830001,-83.160177415,1,"4004 MAIN STREET, HILLIARD, , ","Match","Exact","4004 MAIN ST, HILLIARD, OH, 43026",135559112,"R"
588502,"4004 MAYSVILLE RD","MOUNT STERLING","KY",40353,38.119172883,-83.960351932,2,"4004 MAYSVILLE RD, MOUNT STERLING, KY, 40353","Match","Exact","4004 MAYSVILLE RD, MT STERLING, KY, 40353",32037364,"L"
588503,"4004 MELLENE DRIVE","NORTH LITTLE ROCK","AR",72118,34.791461231,-92.271649563,3,"4004 MELLENE DRIVE, NORTH LITTLE ROCK, AR, 72118","Match","Exact","4004 MELLENE DR, N LITTLE ROCK, AR, 72118",83507668,"R"
588504,"4004 MOODY PLACE","MOUNT VERNON","WA",98274,48.4198870480001,-122.288179592,4,"4004 MOODY PLACE, MOUNT VERNON, WA, 98274","Match","Exact","4004 MOODY PL, MOUNT VERNON, WA, 98274",183662025,"L"
588505,"4004 N FARWELL AVE APT 8","MILWAUKEE","WI",53211,43.089477828,-87.881282647,5,"4004 N FARWELL AVE APT 8, MILWAUKEE, WI, 53211","Match","Non_Exact","4004 N FARWELL AVE, MILWAUKEE, WI, 53211",77743949,"R"
588506,"4004 N NC 903 HWY","ALBERTSON","NC",28508,35.128232435,-77.817744539,6,"4004 N NC 903 HWY, ALBERTSON, NC, 28508","Match","Non_Exact","4004 N NC 903 HWY, ALBERTSON, NC, 28508",640454123,"R"
588507,"4004 NATIONAL RD SW","HEBRON","OH",43025,39.9584705300001,-82.570707688,7,"4004 NATIONAL RD SW, HEBRON, OH, 43025","Match","Exact","4004 NATIONAL RD SW, HEBRON, OH, 43025",61514126,"R"
588508,"4004 NE 130TH AVE","VANCOUVER","WA",98682,45.6508708600001,-122.539644257,8,"4004 NE 130TH AVE, VANCOUVER, WA, 98682","Match","Exact","4004 NE 130TH AVE, VANCOUVER, WA, 98682",158329312,"R"
588509,"4004 NE 77TH STREET","KANSAS CITY","MO",64119,39.233451728,-94.532156103,9,"4004 NE 77TH STREET, KANSAS CITY, MO, 64119","Match","Exact","4004 NE 77TH ST, KANSAS CITY, MO, 64119",89795541,"L"
588510,"4004 NE 97TH STREET","VANCOUVER","WA",98665,45.6916343620001,-122.630603436,10,"4004 NE 97TH STREET, VANCOUVER, WA, 98665","Match","Exact","4004 NE 97TH ST, VANCOUVER, WA, 98665",158352259,"L"
588511,"4004 NE SHADY LANE DRIVE","GLADSTONE","MO",64119,39.205542291,-94.532160862,11,"4004 NE SHADY LANE DRIVE, GLADSTONE, MO, 64119","Match","Exact","4004 NE SHADY LANE DR, GLADSTONE, MO, 64119",89773463,"L"
588512,"4004 NICOLAS PLACE","BOWIE","MD",20716,NA,NA,12,"4004 NICOLAS PLACE, BOWIE, MD, 20716","No_Match",NA,NA,NA,NA
588513,"4004 NORTH OLA AVENUE","TAMPA","FL",33603,27.982011652,-82.4635276719999,13,"4004 NORTH OLA AVENUE, TAMPA, FL, 33603","Match","Exact","4004 N OLA AVE, TAMPA, FL, 33603",104520905,"L"
588514,"4004 NORTH SAINT LOUIS AVE UNIT 2S","CHICAGO","IL",60618,41.954000062,-87.715372778,14,"4004 NORTH SAINT LOUIS AVE UNIT 2S, CHICAGO, IL, 60618","Match","Exact","4004 N ST LOUIS AVE, CHICAGO, IL, 60618",605188524,"L"
588515,"4004 QUEENSBURY ROAD","HYATTSVILLE","MD",20782,38.9638567590001,-76.948979685,15,"4004 QUEENSBURY ROAD, HYATTSVILLE, MD, 20782","Match","Exact","4004 QUEENSBURY RD, HYATTSVILLE, MD, 20782",76304979,"L"
588516,"4004 REYNOLDS RD","MALABAR","FL",32950,27.9548957580001,-80.583886976,16,"4004 REYNOLDS RD, MALABAR, FL, 32950","Match","Exact","4004 REYNOLDS RD, MALABAR, FL, 32950",614403058,"L"
588517,"4004 RICHLAND DRIVE","WATERLOO","IA",50701,42.502780488,-92.4040974649999,17,"4004 RICHLAND DRIVE, WATERLOO, IA, 50701","Match","Exact","4004 RICHLAND DR, WATERLOO, IA, 50701",77249818,"R"
588518,"4004 ROAD 104","PASCO","WA",99301,46.263728058,-119.227174403,18,"4004 ROAD 104, PASCO, WA, 99301","Match","Exact","4004 RD 104, PASCO, WA, 99301",175247633,"L"
588519,"4004 S 158TH ST APT C","TUKWILA","WA",98188,47.4614334680001,-122.283424989,19,"4004 S 158TH ST APT C, TUKWILA, WA, 98188","Match","Non_Exact","4004 S 158TH ST, TUKWILA, WA, 98188",239775434,"L"
588520,"4004 S CLOVERDALE WAY","ONTARIO","CA",91762,34.0001340950001,-117.583740039,20,"4004 S CLOVERDALE WAY, ONTARIO, CA, 91762","Match","Non_Exact","4004 CLOVERDALE WAY, ONTARIO, CA, 91761",651291822,"L"
588521,"4004 S GRANDVIEW AVE","TEMPE","AZ",85282,33.3881325630001,-111.938200023,21,"4004 S GRANDVIEW AVE, TEMPE, AZ, 85282","Match","Exact","4004 S GRANDVIEW AVE, TEMPE, AZ, 85282",128227480,"R"
588522,"4004 S LINEDRIVE AVE","SIOUX FALLS","SD",57110,43.509507764,-96.646961491,22,"4004 S LINEDRIVE AVE, SIOUX FALLS, SD, 57110","Match","Exact","4004 S LINEDRIVE AVE, SIOUX FALLS, SD, 57110",626947558,"L"
588523,"4004 S MICHIGAN STREET","SOUTH BEND","IN",46614,41.6343218260001,-86.25046023,23,"4004 S MICHIGAN STREET, SOUTH BEND, IN, 46614","Match","Exact","4004 S MICHIGAN ST, SOUTH BEND, IN, 46614",8056822,"L"
588524,"4004 SE DIVISION ST","PORTLAND","OR",97202,45.504781499,-122.621338631,24,"4004 SE DIVISION ST, PORTLAND, OR, 97202","Match","Exact","4004 SE DIVISION ST, PORTLAND, OR, 97202",157514303,"R"
588525,"4004 SHADOW CREST RD","KINGMAN","AZ",86409,35.2396914560001,-114.041395562,25,"4004 SHADOW CREST RD, KINGMAN, AZ, 86409","Match","Exact","4004 SHADOW CREST RD, KINGMAN, AZ, 86409",190329497,"R"
588526,"4004 SHAWN CIRCLE","ORLANDO","FL",32826,28.601323171,-81.168315433,26,"4004 SHAWN CIRCLE, ORLANDO, FL, 32826","Match","Exact","4004 SHAWN CIR, ORLANDO, FL, 32826",94375861,"R"
588527,"4004 SHORELINE DRIVE","SPRINGPARK","MN",55384,44.9348055090001,-93.624569599,27,"4004 SHORELINE DRIVE, SPRINGPARK, MN, 55384","Match","Non_Exact","4004 SHORELINE DR, SPRING PARK, MN, 55384",644391256,"R"
588528,"4004 ST ANDREWS DRIVE","DALLAS","TX",75205,32.8386173700001,-96.80200668,28,"4004 ST ANDREWS DRIVE, DALLAS, TX, 75205","Match","Exact","4004 SAINT ANDREWS DR, DALLAS, TX, 75205",102993312,"L"
588529,"4004 STEFFY DRIVE","WESLACO","TX",78570,26.1819416550001,-97.951760741,29,"4004 STEFFY DRIVE, WESLACO, TX, 78570","Match","Non_Exact","4004 STEFFY DR, WESLACO, TX, 78599",71553169,"R"
588530,"4004 STEFFY DRIVE","WESLACO","TX",78599,26.1819416550001,-97.951760741,30,"4004 STEFFY DRIVE, WESLACO, TX, 78599","Match","Exact","4004 STEFFY DR, WESLACO, TX, 78599",71553169,"R"
588531,"4004 STEVEN DR","WASILLA","AK",99654,61.5847186060001,-149.35157347,31,"4004 STEVEN DR, WASILLA, AK, 99654","Match","Exact","4004 STEVEN DR, WASILLA, AK, 99654",191046461,"R"
588532,"4004 STONEBRIDGE","SPRINGFIELD","IL",62711,39.779610156,-89.7299253639999,32,"4004 STONEBRIDGE, SPRINGFIELD, IL, 62711","Match","Non_Exact","4004 STONE BRIDGE RD, SPRINGFIELD, IL, 62711",97350095,"R"
588533,"4004 SW 2ND AVE","CAPE CORAL","FL",33914,26.5773527440001,-81.9782744729999,33,"4004 SW 2ND AVE, CAPE CORAL, FL, 33914","Match","Exact","4004 SW 2ND AVE, CAPE CORAL, FL, 33914",118012474,"R"
588534,"4004 TEXTILE RD","YPSILANTI","MI",48197,42.2012844340001,-83.6789636949999,34,"4004 TEXTILE RD, YPSILANTI, MI, 48197","Match","Exact","4004 TEXTILE RD, YPSILANTI, MI, 48197",26017524,"R"
588535,"4004 TIMBER OAK TRAIL","FAIRFAX","VA",22033,38.874283973,-77.381644862,35,"4004 TIMBER OAK TRAIL, FAIRFAX, VA, 22033","Match","Exact","4004 TIMBER OAK TRL, FAIRFAX, VA, 22033",618701430,"R"
588536,"4004 VINEYARDS LANE NW","KENNESAW","GA",30144,34.048969071,-84.616229727,36,"4004 VINEYARDS LANE NW, KENNESAW, GA, 30144","Match","Exact","4004 VINEYARDS LN NW, KENNESAW, GA, 30144",632067261,"R"
588537,"4004 VIOLET CHENG LN","STOCKTON","CA",95206,37.904256107,-121.306061606,37,"4004 VIOLET CHENG LN, STOCKTON, CA, 95206","Match","Non_Exact","4004 VIOLET CHENG PL, STOCKTON, CA, 95206",133877431,"L"
588538,"4004 W 192ND ST","COUNTRY CLUB HILL","IL",60478,41.5400905860001,-87.71352409,38,"4004 W 192ND ST, COUNTRY CLUB HILL, IL, 60478","Match","Non_Exact","4004 192ND ST, COUNTRY CLUB HILLS, IL, 60478",605673530,"R"
588539,"4004 W 3RD STREET","CAMANCHE","IA",52730,41.7792454820001,-90.301040229,39,"4004 W 3RD STREET, CAMANCHE, IA, 52730","Match","Exact","4004 W 3RD ST, CAMANCHE, IA, 52730",16814017,"L"
588540,"4004 W 61ST PL","ARVADA","CO",80003,39.808891219,-105.039949182,40,"4004 W 61ST PL, ARVADA, CO, 80003","Match","Exact","4004 W 61ST PL, ARVADA, CO, 80003",177408806,"L"
588541,"4004 W PIONEER DR  APT 121","IRVING","TX",75061,32.8301909520001,-97.0033005349999,41,"4004 W PIONEER DR  APT 121, IRVING, TX, 75061","Match","Non_Exact","4004 W PIONEER DR, IRVING, TX, 75061",653855652,"L"
588542,"4004 WALKERS CORNER RD","SCOTT","AR",72142,34.707590382,-92.093495471,42,"4004 WALKERS CORNER RD, SCOTT, AR, 72142","Match","Exact","4004 WALKERS CORNER RD, SCOTT, AR, 72142",650985891,"R"
588543,"4004 WALNUT CLAY DRIVE","AUSTIN","TX",78731,30.3507819710001,-97.766931668,43,"4004 WALNUT CLAY DRIVE, AUSTIN, TX, 78731","Match","Exact","4004 WALNUT CLAY DR, AUSTIN, TX, 78731",64023760,"R"
588544,"4004 WEST LOPEZ DRIVE","EDINBURG","TX",78542,26.259660905,-98.138224231,44,"4004 WEST LOPEZ DRIVE, EDINBURG, TX, 78542","Match","Non_Exact","4004 LOPEZ DR, EDINBURG, TX, 78542",643165139,"R"
588545,"4004","COLUMBUS","OH",43207,NA,NA,45,"4004, COLUMBUS, OH, 43207","No_Match",NA,NA,NA,NA
588546,"4004","NAPERVILLE","IL",60564,NA,NA,46,"4004, NAPERVILLE, IL, 60564","No_Match",NA,NA,NA,NA
588547,"40043 97TH STREET WEST","LEONA VALLEY","CA",93551,34.609582458,-118.301914738,47,"40043 97TH STREET WEST, LEONA VALLEY, CA, 93551","Match","Exact","40043 97TH ST W, LEONA VALLEY, CA, 93551",142703238,"R"
588548,"40046 EI GAP RD","POLSON","MT",59860,NA,NA,48,"40046 EI GAP RD, POLSON, MT, 59860","No_Match",NA,NA,NA,NA
588549,"40047 W THORNBERRY LN","MARICOPA","AZ",85138,33.071774948,-111.998249964,49,"40047 W THORNBERRY LN, MARICOPA, AZ, 85138","Match","Exact","40047 W THORNBERRY LN, MARICOPA, AZ, 85138",627561591,"R"
588550,"40047 W THORNBERRY","MARICOPA","AZ",85138,33.071774948,-111.998249964,50,"40047 W THORNBERRY, MARICOPA, AZ, 85138","Match","Non_Exact","40047 W THORNBERRY LN, MARICOPA, AZ, 85138",627561591,"R"
588551,"4004B COLTRAIN RD","GREENSBORO","NC",27455,36.1364053550001,-79.787253834,51,"4004B COLTRAIN RD, GREENSBORO, NC, 27455","Match","Exact","4004 COLTRAIN RD, GREENSBORO, NC, 27455",131030765,"R"
588552,"4005  GIANTS DR","CORPUS CHRISTI","TX",78414,27.661987901,-97.367401485,52,"4005  GIANTS DR, CORPUS CHRISTI, TX, 78414","Match","Exact","4005 GIANTS DR, CORPUS CHRISTI, TX, 78414",627227340,"R"
588553,"4005 10TH AVE","LEAVENWORTH","KS",66048,39.27795044,-94.927885136,53,"4005 10TH AVE, LEAVENWORTH, KS, 66048","Match","Exact","4005 10TH AVE, LEAVENWORTH, KS, 66048",91414465,"L"
588554,"4005 24TH STREET SOUTH 213","SAINT CLOUD","MN",56301,45.536136771,-94.207741942,54,"4005 24TH STREET SOUTH 213, SAINT CLOUD, MN, 56301","Match","Exact","4005 24TH ST S, SAINT CLOUD, MN, 56301",635087901,"R"
588555,"4005 27TH AVE","TEMPLE HILLS","MD",20748,38.834636607,-76.949751137,55,"4005 27TH AVE, TEMPLE HILLS, MD, 20748","Match","Exact","4005 27TH AVE, TEMPLE HILLS, MD, 20748",76314133,"R"
588556,"4005 53RD STREET CT E","TACOMA","WA",98443,47.2084938190001,-122.376982012,56,"4005 53RD STREET CT E, TACOMA, WA, 98443","Match","Exact","4005 53RD STREET CT E, TACOMA, WA, 98443",184657423,"L"
588557,"4005 7TH STREET NW","ROCHESTER","MN",55901,44.0328163140001,-92.5245732179999,57,"4005 7TH STREET NW, ROCHESTER, MN, 55901","Match","Exact","4005 7TH ST NW, ROCHESTER, MN, 55901",611718088,"R"
588558,"4005 93RD STREET","LUBBOCK","TX",79423,33.5101891040001,-101.899251839,58,"4005 93RD STREET, LUBBOCK, TX, 79423","Match","Exact","4005 93RD ST, LUBBOCK, TX, 79423",185253041,"L"
588559,"4005 ANACOSTIA AVE NE","WASHINGTON","DC",20019,38.9065839310001,-76.9461461,59,"4005 ANACOSTIA AVE NE, WASHINGTON, DC, 20019","Match","Exact","4005 ANACOSTIA AVE NE, WASHINGTON, DC, 20019",641273517,"R"
588560,"4005 ANCIENT OAK COURT","ANNANDALE","VA",22003,38.8374047940001,-77.1691627019999,60,"4005 ANCIENT OAK COURT, ANNANDALE, VA, 22003","Match","Exact","4005 ANCIENT OAK CT, ANNANDALE, VA, 22003",76061298,"L"
588561,"4005 AVENIDA DE LA PLATA","OCEANSIDE","CA",92056,33.208482899,-117.300862373,61,"4005 AVENIDA DE LA PLATA, OCEANSIDE, CA, 92056","Match","Exact","4005 AVE DE LA PLATA, OCEANSIDE, CA, 92056",195454428,"R"
588562,"4005 BANISTER LN STE 245C","AUSTIN","TX",78704,30.2298031810001,-97.7779249499999,62,"4005 BANISTER LN STE 245C, AUSTIN, TX, 78704","Match","Exact","4005 BANISTER LN, AUSTIN, TX, 78704",63944253,"L"
588563,"4005 BAROSSA DR","IDAHO FALLS","ID",83404,43.461476191,-112.039312803,63,"4005 BAROSSA DR, IDAHO FALLS, ID, 83404","Match","Exact","4005 BAROSSA DR, IDAHO FALLS, ID, 83404",635747223,"L"
588564,"4005 BELL ST","KANSAS CITY","MO",64111,39.055235199,-94.6062243439999,64,"4005 BELL ST, KANSAS CITY, MO, 64111","Match","Exact","4005 BELL ST, KANSAS CITY, MO, 64111",91446523,"L"
588565,"4005 BITTERSWEET CIRCLE","COLLEGEVILLE","PA",19426,40.1629939740001,-75.410339425,65,"4005 BITTERSWEET CIRCLE, COLLEGEVILLE, PA, 19426","Match","Exact","4005 BITTERSWEET CIR, COLLEGEVILLE, PA, 19426",605630529,"L"
588566,"4005 BLESSINGTON DRIVE","FRISCO","TX",75036,33.1560800830001,-96.921115806,66,"4005 BLESSINGTON DRIVE, FRISCO, TX, 75036","Match","Exact","4005 BLESSINGTON DR, FRISCO, TX, 75036",648082807,"L"
588567,"4005 BRANDON HILL DRIVE","TALLAHASSEE","FL",32309,30.521120221,-84.219055746,67,"4005 BRANDON HILL DRIVE, TALLAHASSEE, FL, 32309","Match","Exact","4005 BRANDON HILL DR, TALLAHASSEE, FL, 32309",82846654,"R"
588568,"4005 CAMROSE DRIVE","PLANO","TX",75024,33.0737415200001,-96.772542675,68,"4005 CAMROSE DRIVE, PLANO, TX, 75024","Match","Exact","4005 CAMROSE DR, PLANO, TX, 75024",210475360,"L"
588569,"4005 CANE GARDEN DRIVE","RALEIGH","NC",27610,35.726161475,-78.547413202,69,"4005 CANE GARDEN DRIVE, RALEIGH, NC, 27610","Match","Exact","4005 CANE GARDEN DR, RALEIGH, NC, 27610",647326370,"L"
588570,"4005 CASCADE DRIVE","GREENSBORO","NC",27410,36.102574131,-79.849106477,70,"4005 CASCADE DRIVE, GREENSBORO, NC, 27410","Match","Exact","4005 CASCADE DR, GREENSBORO, NC, 27410",131027655,"L"
588571,"4005 CENTER AVENUE","LAFAYETTE HILL","PA",19444,40.092100041,-75.259603925,71,"4005 CENTER AVENUE, LAFAYETTE HILL, PA, 19444","Match","Exact","4005 CENTER AVE, LAFAYETTE HILL, PA, 19444",135088219,"L"
588572,"4005 CINDI LANE","WINTERVILLE","NC",28590,35.555338674,-77.384486865,72,"4005 CINDI LANE, WINTERVILLE, NC, 28590","Match","Exact","4005 CINDI LN, WINTERVILLE, NC, 28590",627428272,"L"
588573,"4005 CORNER ROCK ROAD","GREENSBORO","NC",27406,36.0502692060001,-79.7130546989999,73,"4005 CORNER ROCK ROAD, GREENSBORO, NC, 27406","Match","Non_Exact","4005 CORNERROCK DR, GREENSBORO, NC, 27406",131098729,"R"
588574,"4005 CORTEZ WAY S","ST PETERSBURG","FL",33712,27.73240638,-82.6739938649999,74,"4005 CORTEZ WAY S, ST PETERSBURG, FL, 33712","Match","Exact","4005 CORTEZ WAY S, SAINT PETERSBURG, FL, 33712",124710112,"R"
588575,"4005 COUNTRYSIDE WAY","SNELLVILLE","GA",30039,33.801119687,-84.005579349,75,"4005 COUNTRYSIDE WAY, SNELLVILLE, GA, 30039","Match","Exact","4005 COUNTRYSIDE WAY, SNELLVILLE, GA, 30039",88917599,"R"
588576,"4005 CRATHIE LN","UPPER MARLBORO","MD",20774,38.8345194070001,-76.7339624259999,76,"4005 CRATHIE LN, UPPER MARLBORO, MD, 20774","Match","Non_Exact","4005 CRATHIE LN, UPPER MARLBORO, MD, 20772",636189095,"R"
588577,"4005 DEL NORTE CIRCLE","LAS VEGAS","NV",89110,36.1615077340001,-115.088554172,77,"4005 DEL NORTE CIRCLE, LAS VEGAS, NV, 89110","Match","Non_Exact","4005 E DEL NORTE CIR, LAS VEGAS, NV, 89110",201874811,"L"
588578,"4005 DESTRIER DRIVE","DURHAM","NC",27703,35.989468151,-78.814576619,78,"4005 DESTRIER DRIVE, DURHAM, NC, 27703","Match","Exact","4005 DESTRIER DR, DURHAM, NC, 27703",71749324,"R"
588579,"4005 DUPLIN DRIVE","GREENSBORO","NC",27407,36.001165413,-79.8936901289999,79,"4005 DUPLIN DRIVE, GREENSBORO, NC, 27407","Match","Exact","4005 DUPLIN DR, GREENSBORO, NC, 27407",131056073,"L"
588580,"4005 E PALOMAR DRIVE","TUCSON","AZ",85711,32.220108962,-110.907173243,80,"4005 E PALOMAR DRIVE, TUCSON, AZ, 85711","Match","Exact","4005 E PALOMAR DR, TUCSON, AZ, 85711",121175567,"L"
588581,"4005 EASTVIEW COURT","BOWIE","MD",20716,38.9393750350001,-76.719336025,81,"4005 EASTVIEW COURT, BOWIE, MD, 20716","Match","Exact","4005 EASTVIEW CT, BOWIE, MD, 20716",76351848,"R"
588582,"4005 EMERALD PARK LANE","MILFORD","MI",48380,42.6102746170001,-83.666804322,82,"4005 EMERALD PARK LANE, MILFORD, MI, 48380","Match","Non_Exact","4005 EMERALD PARK DR, MILFORD, MI, 48380",69803197,"R"
588583,"4005 FOREST AVE","DES MOINES","IA",50310,41.6040072540001,-93.67172747,83,"4005 FOREST AVE, DES MOINES, IA, 50310","Match","Non_Exact","4005 FOREST AVE, DES MOINES, IA, 50311",65779863,"R"
588584,"4005 GENESSEE STREET","KANSAS CITY","MO",64111,39.055194951,-94.605067997,84,"4005 GENESSEE STREET, KANSAS CITY, MO, 64111","Match","Exact","4005 GENESSEE ST, KANSAS CITY, MO, 64111",91446528,"L"
588585,"4005 GIANTS DR","CORPUS  CHRISTI","TX",78414,27.661987901,-97.367401485,85,"4005 GIANTS DR, CORPUS  CHRISTI, TX, 78414","Match","Exact","4005 GIANTS DR, CORPUS CHRISTI, TX, 78414",627227340,"R"
588586,"4005 GIANTS DR","CORPUS CHRISTI","TX",78414,27.661987901,-97.367401485,86,"4005 GIANTS DR, CORPUS CHRISTI, TX, 78414","Match","Exact","4005 GIANTS DR, CORPUS CHRISTI, TX, 78414",627227340,"R"
588587,"4005 GRAND PRAIRIE","KALAMAZOO","MI",49006,42.3106723870001,-85.638700389,87,"4005 GRAND PRAIRIE, KALAMAZOO, MI, 49006","Match","Non_Exact","4005 GRAND PRAIRIE RD, KALAMAZOO, MI, 49006",635353774,"L"
588588,"4005 GULF SHORE BLVD N 403","NAPLES","FL",34103,26.19264557,-81.81314387,88,"4005 GULF SHORE BLVD N 403, NAPLES, FL, 34103","Match","Exact","4005 GULF SHORE BLVD N, NAPLES, FL, 34103",650104889,"L"
588589,"4005 GULF SHORE BLVD N UNIT 1100","NAPLES","FL",34103,26.19264557,-81.81314387,89,"4005 GULF SHORE BLVD N UNIT 1100, NAPLES, FL, 34103","Match","Exact","4005 GULF SHORE BLVD N, NAPLES, FL, 34103",650104889,"L"
588590,"4005 HERITAGE VIEW TRL","WAKE FOREST","NC",27587,NA,NA,90,"4005 HERITAGE VIEW TRL, WAKE FOREST, NC, 27587","Tie",NA,NA,NA,NA
588591,"4005 HIDALGO DRIVE","PLANO","TX",75074,33.017889666,-96.655287793,91,"4005 HIDALGO DRIVE, PLANO, TX, 75074","Match","Exact","4005 HIDALGO DR, PLANO, TX, 75074",210523802,"L"
588592,"4005 HUNSICKER DRIVE","WALNUTPORT","PA",18088,40.7566143270001,-75.525844056,92,"4005 HUNSICKER DRIVE, WALNUTPORT, PA, 18088","Match","Exact","4005 HUNSICKER DR, WALNUTPORT, PA, 18088",635372993,"L"
588593,"4005 HUNTERS LANE","MOUNTAIN BROOK","AL",35243,33.4605044410001,-86.746411412,93,"4005 HUNTERS LANE, MOUNTAIN BROOK, AL, 35243","Match","Exact","4005 HUNTERS LN, MOUNTAIN BRK, AL, 35243",81584821,"L"
588594,"4005 JUNGLE TREE DR","COLUMBIA","MO",65202,38.991395233,-92.3360542779999,94,"4005 JUNGLE TREE DR, COLUMBIA, MO, 65202","Match","Exact","4005 JUNGLE TREE DR, COLUMBIA, MO, 65202",604849186,"R"
588595,"4005 LAKE POINT RD","CHAMPAIGN","IL",61822,40.0899946280001,-88.311064347,95,"4005 LAKE POINT RD, CHAMPAIGN, IL, 61822","Match","Non_Exact","4005 LAKEPOINT RD, CHAMPAIGN, IL, 61822",8808403,"R"
588596,"4005 LAMAR ST","COLUMBIA","SC",29203,34.039285212,-81.043294356,96,"4005 LAMAR ST, COLUMBIA, SC, 29203","Match","Exact","4005 LAMAR ST, COLUMBIA, SC, 29203",71819777,"L"
588597,"4005 LAWRENCE ST","BRENTWOOD","MD",20722,38.9330575000001,-76.9465180139999,97,"4005 LAWRENCE ST, BRENTWOOD, MD, 20722","Match","Exact","4005 LAWRENCE ST, BRENTWOOD, MD, 20722",76306572,"R"
588598,"4005 LEEAMBUR CT","LILBURN","GA",30047,33.8985851370001,-84.112919005,98,"4005 LEEAMBUR CT, LILBURN, GA, 30047","Match","Non_Exact","4005 LEEAMBUR CT NW, LILBURN, GA, 30047",88915570,"R"
588599,"4005 LEXINGTON PLAZA APT 3","WEST DES MOINES","IA",50266,41.59097432,-93.758855103,99,"4005 LEXINGTON PLAZA APT 3, WEST DES MOINES, IA, 50266","Match","Exact","4005 LEXINGTON PLZ, WEST DES MOINES, IA, 50266",65775010,"L"
588600,"4005 LIBERTY ESTATES DRIVE","MACON","GA",31216,32.7241447320001,-83.664509961,100,"4005 LIBERTY ESTATES DRIVE, MACON, GA, 31216","Match","Exact","4005 LIBERTY ESTATES DR, MACON, GA, 31216",650756577,"R"
588601,"4005 LOVVORN ROAD","CARROLLTON","GA",30117,33.5850283180001,-85.202400972,101,"4005 LOVVORN ROAD, CARROLLTON, GA, 30117","Match","Exact","4005 LOVVORN RD, CARROLLTON, GA, 30117",647556324,"R"
588602,"4005 MAGNA LANE","INDIAN TRAIL","NC",28079,35.0310649570001,-80.6687144379999,102,"4005 MAGNA LANE, INDIAN TRAIL, NC, 28079","Match","Exact","4005 MAGNA LN, INDIAN TRAIL, NC, 28079",618497394,"L"
588603,"4005 MARION RD SE","ROCHESTER","MN",55904,43.963123986,-92.3744398439999,103,"4005 MARION RD SE, ROCHESTER, MN, 55904","Match","Exact","4005 MARION RD SE, ROCHESTER, MN, 55904",612127735,"L"
588604,"4005 MONTICELLO CT","YUKON","OK",73099,35.510498227,-97.730907321,104,"4005 MONTICELLO CT, YUKON, OK, 73099","Match","Exact","4005 MONTICELLO CT, YUKON, OK, 73099",613794644,"L"
588605,"4005 N COLONIAL","PORTLAND","OR",97227,45.55229094,-122.684108335,105,"4005 N COLONIAL, PORTLAND, OR, 97227","Match","Non_Exact","4005 N COLONIAL AVE, PORTLAND, OR, 97227",157497806,"L"
588606,"4005 N KENMORE AVE APT 2","CHICAGO","IL",60613,41.954817565,-87.656136724,106,"4005 N KENMORE AVE APT 2, CHICAGO, IL, 60613","Match","Non_Exact","4005 N KENMORE AVE, CHICAGO, IL, 60613",609038429,"R"
588607,"4005 N NAVAJP DR","PHEONIX","AZ",85051,NA,NA,107,"4005 N NAVAJP DR, PHEONIX, AZ, 85051","No_Match",NA,NA,NA,NA
588608,"4005 NICHOLSON DR APT 1605","BATON ROUGE","LA",70808,30.399094726,-91.1797268129999,108,"4005 NICHOLSON DR APT 1605, BATON ROUGE, LA, 70808","Match","Exact","4005 NICHOLSON DR, BATON ROUGE, LA, 70808",648610431,"L"
588609,"4005 NICHOLSON DR APT 2409","BATON ROUGE","LA",70808,30.399094726,-91.1797268129999,109,"4005 NICHOLSON DR APT 2409, BATON ROUGE, LA, 70808","Match","Exact","4005 NICHOLSON DR, BATON ROUGE, LA, 70808",648610431,"L"
588610,"4005 OAK TREE LANE","PLAINFIELD","IL",60586,41.5694362350001,-88.183132115,110,"4005 OAK TREE LANE, PLAINFIELD, IL, 60586","Match","Exact","4005 OAK TREE LN, PLAINFIELD, IL, 60586",653209466,"L"
588611,"4005 ODILE COURT","RENO","NV",89511,39.437771422,-119.809151349,111,"4005 ODILE COURT, RENO, NV, 89511","Match","Exact","4005 ODILE CT, RENO, NV, 89511",107046016,"L"
588612,"4005 OELLA COURT","SAN JOSE","CA",95124,37.2615075030001,-121.903227916,112,"4005 OELLA COURT, SAN JOSE, CA, 95124","Match","Exact","4005 OELLA CT, SAN JOSE, CA, 95124",122921440,"R"
588613,"4005 PAINTED PONY","SANTA FE","NM",87507,35.632196096,-106.062461332,113,"4005 PAINTED PONY, SANTA FE, NM, 87507","Match","Non_Exact","4005 PAINTED PONY CIR, SANTA FE, NM, 87507",635530391,"L"
588614,"4005 PATTE ANN DRIVE","MEMPHIS","TN",38116,35.039287959,-90.013592143,114,"4005 PATTE ANN DRIVE, MEMPHIS, TN, 38116","Match","Exact","4005 PATTE ANN DR, MEMPHIS, TN, 38116",72910450,"R"
588615,"4005 PATTE ANN","MEMPHIS","TN",38116,35.039287959,-90.013592143,115,"4005 PATTE ANN, MEMPHIS, TN, 38116","Match","Non_Exact","4005 PATTE ANN DR, MEMPHIS, TN, 38116",72910450,"R"
588616,"4005 PAWNEE DRIVE","LIVERPOOL","NY",13090,43.1339961300001,-76.2366017909999,116,"4005 PAWNEE DRIVE, LIVERPOOL, NY, 13090","Match","Exact","4005 PAWNEE DR, LIVERPOOL, NY, 13090",46624410,"R"
588617,"4005 PENHURST DRIVE","MARIETTA","GA",30062,33.989877219,-84.4355343459999,117,"4005 PENHURST DRIVE, MARIETTA, GA, 30062","Match","Exact","4005 PENHURST DR, MARIETTA, GA, 30062",17186594,"R"
588618,"4005 PERRO LANE","RENO","NV",89502,39.493988361,-119.754080664,118,"4005 PERRO LANE, RENO, NV, 89502","Match","Exact","4005 PERRO LN, RENO, NV, 89502",107061037,"L"
588619,"4005 PRESWICK CT","HIGH POINT","NC",27265,36.031859771,-80.0103868529999,119,"4005 PRESWICK CT, HIGH POINT, NC, 27265","Match","Exact","4005 PRESWICK CT, HIGH POINT, NC, 27265",131077768,"L"
588620,"4005 PRIMROSE PATH","WINSTON-SALEM","NC",27127,36.036982241,-80.296882685,120,"4005 PRIMROSE PATH, WINSTON-SALEM, NC, 27127","Match","Exact","4005 PRIMROSE PATH, WINSTON SALEM, NC, 27127",84639167,"R"
588621,"4005 RALEIGH AVE","BETTENDORF","IA",52722,41.5447197390001,-90.475718033,121,"4005 RALEIGH AVE, BETTENDORF, IA, 52722","Match","Exact","4005 RALEIGH AVE, BETTENDORF, IA, 52722",122718513,"R"
588622,"4005 RAVEN","LAS VEGAS","NV",89139,36.026562637,-115.192508086,122,"4005 RAVEN, LAS VEGAS, NV, 89139","Match","Non_Exact","4005 RAVEN AVE, LAS VEGAS, NV, 89139",640230808,"L"
588623,"4005 RINGDOVE WAY","ROANOKE","TX",76262,33.01776812,-97.2673324259999,123,"4005 RINGDOVE WAY, ROANOKE, TX, 76262","Match","Exact","4005 RINGDOVE WAY, ROANOKE, TX, 76262",614163195,"R"
588624,"4005 RUNNY MEADE LANE M","EAST POINT","GA",30344,33.6446321330001,-84.490274073,124,"4005 RUNNY MEADE LANE M, EAST POINT, GA, 30344","Match","Non_Exact","4005 RUNNYMEADE LN SW, EAST POINT, GA, 30344",17338746,"R"
588625,"4005 RUNNYMEDE DRIVE","NORRISTOWN","PA",19401,NA,NA,125,"4005 RUNNYMEDE DRIVE, NORRISTOWN, PA, 19401","No_Match",NA,NA,NA,NA
588626,"4005 S 26TH STREET","KALAMAZOO","MI",49048,42.2534072130001,-85.511828678,126,"4005 S 26TH STREET, KALAMAZOO, MI, 49048","Match","Exact","4005 S 26TH ST, KALAMAZOO, MI, 49048",12232075,"L"
588627,"4005 S EASTERN AVE","MOORE","OK",73160,35.3014032630001,-97.476797205,127,"4005 S EASTERN AVE, MOORE, OK, 73160","Match","Exact","4005 S EASTERN AVE, MOORE, OK, 73160",614978359,"R"
588628,"4005 S MAYFIELD ST","KENNEWICK","WA",99337,46.172349158,-119.135687616,128,"4005 S MAYFIELD ST, KENNEWICK, WA, 99337","Match","Exact","4005 S MAYFIELD ST, KENNEWICK, WA, 99337",174993456,"L"
588629,"4005 S WHITESIDE RD","HUTCHINSON","KS",67501,38.0052864300001,-98.013766468,129,"4005 S WHITESIDE RD, HUTCHINSON, KS, 67501","Match","Exact","4005 S WHITESIDE RD, HUTCHINSON, KS, 67501",637323078,"L"
588630,"4005 SAINT ANDREWS DR SE","RIO RANCHO","NM",87124,35.2456657390001,-106.656972802,130,"4005 SAINT ANDREWS DR SE, RIO RANCHO, NM, 87124","Match","Exact","4005 SAINT ANDREWS DR SE, RIO RANCHO, NM, 87124",193996792,"L"
588631,"4005 SAINT JOSEPH DR","INDIAN TRAIL","NC",28079,35.084745029,-80.626949462,131,"4005 SAINT JOSEPH DR, INDIAN TRAIL, NC, 28079","Match","Exact","4005 SAINT JOSEPH DR, INDIAN TRAIL, NC, 28079",14191240,"L"
588632,"4005 SANTA MARIA PL","TURLOCK","CA",95382,37.52980366,-120.848351792,132,"4005 SANTA MARIA PL, TURLOCK, CA, 95382","Match","Exact","4005 SANTA MARIA PL, TURLOCK, CA, 95382",102625011,"R"
588633,"4005 SANTA MONICA COURT","SHREVEPORT","LA",71119,32.466554482,-93.876642766,133,"4005 SANTA MONICA COURT, SHREVEPORT, LA, 71119","Match","Exact","4005 SANTA MONICA CT, SHREVEPORT, LA, 71119",57429899,"R"
588634,"4005 SAVANNAH CT","BOULDER","CO",80301,40.0475294620001,-105.248340178,134,"4005 SAVANNAH CT, BOULDER, CO, 80301","Match","Exact","4005 SAVANNAH CT, BOULDER, CO, 80301",647455588,"L"
588635,"4005 SE LAMBERT ST","PORTLAND","OR",97202,45.4670728200001,-122.621375236,135,"4005 SE LAMBERT ST, PORTLAND, OR, 97202","Match","Exact","4005 SE LAMBERT ST, PORTLAND, OR, 97202",157515540,"L"
588636,"4005 SHADOWS CT","DEFOREST","WI",53532,43.2092322340001,-89.306165903,136,"4005 SHADOWS CT, DEFOREST, WI, 53532","Match","Exact","4005 SHADOWS CT, DEFOREST, WI, 53532",49471604,"L"
588637,"4005 SIERRA","AUSTIN","TX",78731,30.353808041,-97.767155094,137,"4005 SIERRA, AUSTIN, TX, 78731","Match","Non_Exact","4005 SIERRA DR, AUSTIN, TX, 78731",63928461,"L"
588638,"4005 SINOVA ST","LOS ANGLES","FL",90031,NA,NA,138,"4005 SINOVA ST, LOS ANGLES, FL, 90031","No_Match",NA,NA,NA,NA
588639,"4005 SINOVA STREET","LOS ANGELES","CA",90031,34.0920647630001,-118.197994149,139,"4005 SINOVA STREET, LOS ANGELES, CA, 90031","Match","Exact","4005 SINOVA ST, LOS ANGELES, CA, 90031",141622087,"L"
588640,"4005 SPRING RIVER DR","PEARLAND","TX",77584,29.5360750190001,-95.304504341,140,"4005 SPRING RIVER DR, PEARLAND, TX, 77584","Match","Exact","4005 SPRING RIVER DR, PEARLAND, TX, 77584",116592741,"L"
588641,"4005 STANLEY RD","PLANT CITY","FL",33565,28.0596469430001,-82.2040045269999,141,"4005 STANLEY RD, PLANT CITY, FL, 33565","Match","Exact","4005 STANLEY RD, PLANT CITY, FL, 33565",104660211,"L"
588642,"4005 STERLING CREST LANE","DICKINSON","TX",77539,29.4377891990001,-95.1075638629999,142,"4005 STERLING CREST LANE, DICKINSON, TX, 77539","Match","Exact","4005 STERLING CREST LN, DICKINSON, TX, 77539",619913553,"R"
588643,"4005 STRATFORD RD","BOARDMAN","OH",44512,41.0594677600001,-80.670572895,143,"4005 STRATFORD RD, BOARDMAN, OH, 44512","Match","Exact","4005 STRATFORD RD, BOARDMAN, OH, 44512",64598334,"L"
588644,"4005 STRATFORD RD","YOUNGSTOWN","OH",44512,41.0594677600001,-80.670572895,144,"4005 STRATFORD RD, YOUNGSTOWN, OH, 44512","Match","Exact","4005 STRATFORD RD, YOUNGSTOWN, OH, 44512",64598334,"L"
588645,"4005 STUART STREET","DENVER","CO",80212,39.7717490060001,-105.04286567,145,"4005 STUART STREET, DENVER, CO, 80212","Match","Exact","4005 STUART ST, DENVER, CO, 80212",177299696,"L"
588646,"4005 SW 52ND AVE","HOLLYWOOD","FL",33023,25.9741188410001,-80.1944723409999,146,"4005 SW 52ND AVE, HOLLYWOOD, FL, 33023","Match","Exact","4005 SW 52ND AVE, HOLLYWOOD, FL, 33023",650107612,"L"
588647,"4005 SW BROOKLANE DRIVE","CORVALLIS","OR",97333,44.5369367910001,-123.294330399,147,"4005 SW BROOKLANE DRIVE, CORVALLIS, OR, 97333","Match","Exact","4005 SW BROOKLANE DR, CORVALLIS, OR, 97333",632923359,"L"
588648,"4005 TAFT PARK","METAIRIE","LA",70002,30.0104651,-90.170696747,148,"4005 TAFT PARK, METAIRIE, LA, 70002","Match","Exact","4005 TAFT PK, METAIRIE, LA, 70002",93532491,"R"
588649,"4005 TIMBERSTONE DRIVE","ELKHART","IN",46514,41.714163274,-85.9015434469999,149,"4005 TIMBERSTONE DRIVE, ELKHART, IN, 46514","Match","Exact","4005 TIMBERSTONE DR, ELKHART, IN, 46514",634017405,"L"
588650,"4005 TIMBERWOOD DR","NACOGDOCHES","TX",75965,31.65358317,-94.615570497,150,"4005 TIMBERWOOD DR, NACOGDOCHES, TX, 75965","Match","Exact","4005 TIMBERWOOD DR, NACOGDOCHES, TX, 75965",72434465,"R"
588651,"4005 TORREY PINES DRIVE","BYRAM","MS",39272,32.212292007,-90.260090726,151,"4005 TORREY PINES DRIVE, BYRAM, MS, 39272","Match","Exact","4005 TORREY PINES DR, BYRAM, MS, 39272",65385793,"L"
588652,"4005 TUSSAHAW CROSSING","MCDONOUGH","GA",30252,33.423225191,-84.1334508099999,152,"4005 TUSSAHAW CROSSING, MCDONOUGH, GA, 30252","Match","Exact","4005 TUSSAHAW CROSSING, MCDONOUGH, GA, 30252",627695756,"L"
588653,"4005 TYNE COURT","ATLANTA","GA",30349,33.6047921370001,-84.444216344,153,"4005 TYNE COURT, ATLANTA, GA, 30349","Match","Exact","4005 TYNE CT, ATLANTA, GA, 30349",625037309,"L"
588654,"4005 VALLONIA DRIVE","CARY","NC",27519,35.8387446630001,-78.895451937,154,"4005 VALLONIA DRIVE, CARY, NC, 27519","Match","Exact","4005 VALLONIA DR, CARY, NC, 27519",639452631,"R"
588655,"4005 VIOLETS LOCK CT","PT OF ROCKS","MD",21777,39.279461111,-77.5234500299999,155,"4005 VIOLETS LOCK CT, PT OF ROCKS, MD, 21777","Match","Exact","4005 VIOLETS LOCK CT, POINT OF ROCKS, MD, 21777",647319921,"L"
588656,"4005 VITRUVIAN WAY APT 130","ADDISON","TX",75001,32.937339245,-96.849610485,156,"4005 VITRUVIAN WAY APT 130, ADDISON, TX, 75001","Match","Exact","4005 VITRUVIAN WAY, ADDISON, TX, 75001",650611240,"L"
588657,"4005 VITRUVIAN WAY APT 160","ADDISON","TX",75001,32.937339245,-96.849610485,157,"4005 VITRUVIAN WAY APT 160, ADDISON, TX, 75001","Match","Exact","4005 VITRUVIAN WAY, ADDISON, TX, 75001",650611240,"L"
588658,"4005 W 104 TER","OVERLAND PARK","KS",66207,38.939987864,-94.631665926,158,"4005 W 104 TER, OVERLAND PARK, KS, 66207","Match","Exact","4005 104TH TER, OVERLAND PARK, KS, 66207",91280306,"L"
588659,"4005 W 104TH TERRACE","OVERLAND PARK","KS",66207,38.939987864,-94.631665926,159,"4005 W 104TH TERRACE, OVERLAND PARK, KS, 66207","Match","Exact","4005 104TH TER, OVERLAND PARK, KS, 66207",91280306,"L"
588660,"4005 WETHERBURN WAY","NORCROSS","GA",30092,33.9667628070001,-84.255047229,160,"4005 WETHERBURN WAY, NORCROSS, GA, 30092","Match","Exact","4005 WETHERBURN WAY, NORCROSS, GA, 30092",88964220,"L"
588661,"4005 WHISTLER DRIVE","PLANO","TX",75093,33.0484615230001,-96.771047896,161,"4005 WHISTLER DRIVE, PLANO, TX, 75093","Match","Exact","4005 WHISTLER DR, PLANO, TX, 75093",210477492,"L"
588662,"4005 WHITEBLOSSOM ESTATES CT","LOUISVILLE","KY",40241,38.301078735,-85.568326632,162,"4005 WHITEBLOSSOM ESTATES CT, LOUISVILLE, KY, 40241","Match","Exact","4005 WHITEBLOSSOM ESTATES CT, LOUISVILLE, KY, 40241",96889077,"L"
588663,"4005 WILLOW HILLS CT","PLANO","TX",75024,33.0979390570001,-96.773418751,163,"4005 WILLOW HILLS CT, PLANO, TX, 75024","Match","Exact","4005 WILLOW HILLS CT, PLANO, TX, 75024",123547827,"L"
588664,"4005 WINDWARD KEY COURT","CHESAPEAKE BEACH","MD",20732,38.6930466900001,-76.533936121,164,"4005 WINDWARD KEY COURT, CHESAPEAKE BEACH, MD, 20732","Match","Exact","4005 WINDWARD KEY CT, CHESAPEAKE BEACH, MD, 20732",78165252,"R"
588665,"4005 WYMAN","ROUND ROCK","TX",78681,30.5481177780001,-97.75583826,165,"4005 WYMAN, ROUND ROCK, TX, 78681","Match","Non_Exact","4005 WYMAN COVE, ROUND ROCK, TX, 78681",126454224,"R"
588666,"4005","SMYRNA","GA",30080,NA,NA,166,"4005, SMYRNA, GA, 30080","No_Match",NA,NA,NA,NA
588667,"40051 SUNSET LN","DEE RIVER","MN",56636,NA,NA,167,"40051 SUNSET LN, DEE RIVER, MN, 56636","No_Match",NA,NA,NA,NA
588668,"40051 SUNSET LN","DEER RIVER","MN",56636,NA,NA,168,"40051 SUNSET LN, DEER RIVER, MN, 56636","No_Match",NA,NA,NA,NA
588669,"40052 N COURAGE WAY","ANTHEM","AZ",85086,33.8486794790001,-112.136917763,169,"40052 N COURAGE WAY, ANTHEM, AZ, 85086","Match","Exact","40052 N COURAGE WAY, ANTHEM, AZ, 85086",128856542,"L"
588670,"40055 HILLSBOROUGH LOOP","OAKHURST","CA",93644,37.3313623080001,-119.624228622,170,"40055 HILLSBOROUGH LOOP, OAKHURST, CA, 93644","Match","Exact","40055 HILLSBOROUGH LOOP, OAKHURST, CA, 93644",102355460,"R"
588671,"40058 17 TH ST W","PALMDALE","CA",93551,34.6102886240001,-118.161019233,171,"40058 17 TH ST W, PALMDALE, CA, 93551","Match","Non_Exact","40058 17TH ST W, PALMDALE, CA, 93551",141527197,"R"
588672,"4006 192ND STREET","COUNTRY CLUB HILLS","IL",60478,41.5400905860001,-87.713567987,172,"4006 192ND STREET, COUNTRY CLUB HILLS, IL, 60478","Match","Exact","4006 192ND ST, COUNTRY CLUB HILLS, IL, 60478",605673530,"R"
588673,"4006 24 ST SW","LEHIGH ACRES","FL",33976,26.590443083,-81.702037462,173,"4006 24 ST SW, LEHIGH ACRES, FL, 33976","Match","Exact","4006 24TH ST SW, LEHIGH ACRES, FL, 33976",118030841,"L"
588674,"4006 2ND AVE NE","SEATTLE","WA",98105,47.6557668930001,-122.326811277,174,"4006 2ND AVE NE, SEATTLE, WA, 98105","Match","Exact","4006 2ND AVE NE, SEATTLE, WA, 98105",186583240,"R"
588675,"4006 37TH STREET","RAINIER","MD",20712,38.939696133,-76.957798515,175,"4006 37TH STREET, RAINIER, MD, 20712","Match","Non_Exact","4006 37TH ST, MOUNT RAINIER, MD, 20712",76388486,"L"
588676,"4006 49TH AVE NE","TACOMA","WA",98422,47.292821932,-122.382185497,176,"4006 49TH AVE NE, TACOMA, WA, 98422","Match","Exact","4006 49TH AVE NE, TACOMA, WA, 98422",645814322,"L"
588677,"4006 67TH AVE","TUSCALOOSA","AL",35401,33.178083343,-87.620397426,177,"4006 67TH AVE, TUSCALOOSA, AL, 35401","Match","Exact","4006 67TH AVE, TUSCALOOSA, AL, 35401",82164108,"R"
588678,"4006 7TH AVENUE","BROOKLYN","NY",11232,40.6479779320001,-74.000164556,178,"4006 7TH AVENUE, BROOKLYN, NY, 11232","Match","Exact","4006 7TH AVE, BROOKLYN, NY, 11232",59094821,"R"
588679,"4006 ADDISON RANCH","FULSHEAR","TX",77441,29.724465347,-95.849642726,179,"4006 ADDISON RANCH, FULSHEAR, TX, 77441","Match","Non_Exact","4006 ADDISON RANCH LN, FULSHEAR, TX, 77441",641052286,"R"
588680,"4006 ARCADE COURT","CHESAPEAKE BEACH","MD",20732,38.68954676,-76.533688081,180,"4006 ARCADE COURT, CHESAPEAKE BEACH, MD, 20732","Match","Exact","4006 ARCADE CT, CHESAPEAKE BEACH, MD, 20732",78180348,"L"
588681,"4006 AUBURN ST","LAKE CHARLES","LA",70607,30.185157605,-93.212737891,181,"4006 AUBURN ST, LAKE CHARLES, LA, 70607","Match","Exact","4006 AUBURN ST, LAKE CHARLES, LA, 70607",88438203,"R"
588682,"4006 BALD HILL TERRACE","MITCHELLVILLE","MD",20121,38.9443717780001,-76.8367686569999,182,"4006 BALD HILL TERRACE, MITCHELLVILLE, MD, 20121","Match","Non_Exact","4006 BALD HILL TER, MITCHELLVILLE, MD, 20721",76310839,"R"
588683,"4006 BALD HILL TERRACE","MITCHEVILLE","MD",20121,NA,NA,183,"4006 BALD HILL TERRACE, MITCHEVILLE, MD, 20121","No_Match",NA,NA,NA,NA
588684,"4006 BANDERA DRIVE","GRANBURY","TX",76049,32.426832221,-97.7017401049999,184,"4006 BANDERA DRIVE, GRANBURY, TX, 76049","Match","Exact","4006 BANDERA DR, GRANBURY, TX, 76049",158791422,"L"
588685,"4006 BERRY AVE","DREXEL HILL","PA",19026,39.9436948040001,-75.300051486,185,"4006 BERRY AVE, DREXEL HILL, PA, 19026","Match","Exact","4006 BERRY AVE, DREXEL HILL, PA, 19026",134876472,"L"
588686,"4006 BIG TIMBER DRIVE","FARMINGTON","MO",63640,37.7078062670001,-90.4471207999999,186,"4006 BIG TIMBER DRIVE, FARMINGTON, MO, 63640","Match","Exact","4006 BIG TIMBER DR, FARMINGTON, MO, 63640",642022188,"L"
588687,"4006 BISHOPMILL DRIVE","UPPER MARLBORO","MD",20772,38.8340744650001,-76.714784349,187,"4006 BISHOPMILL DRIVE, UPPER MARLBORO, MD, 20772","Match","Exact","4006 BISHOPMILL DR, UPPER MARLBORO, MD, 20772",76329069,"L"
588688,"4006 BISHOPMILL DRIVE","UPPER MARLBORO","MD",20774,38.8340744650001,-76.714784349,188,"4006 BISHOPMILL DRIVE, UPPER MARLBORO, MD, 20774","Match","Non_Exact","4006 BISHOPMILL DR, UPPER MARLBORO, MD, 20772",76329069,"L"
588689,"4006 BRINDISI COURT","MISSOURI CITY","TX",77459,29.5491697470001,-95.527189879,189,"4006 BRINDISI COURT, MISSOURI CITY, TX, 77459","Match","Exact","4006 BRINDISI CT, MISSOURI CITY, TX, 77459",624672022,"L"
588690,"4006 BUCKEYE WAY","GREEN BAY","WI",54311,44.5366511060001,-87.90379563,190,"4006 BUCKEYE WAY, GREEN BAY, WI, 54311","Match","Exact","4006 BUCKEYE WAY, GREEN BAY, WI, 54311",148114550,"L"
588691,"4006 BUCKINGHAM CT","DUMFRIES","VA",22025,38.610603686,-77.3322221889999,191,"4006 BUCKINGHAM CT, DUMFRIES, VA, 22025","Match","Exact","4006 BUCKINGHAM CT, DUMFRIES, VA, 22025",207152557,"R"
588692,"4006 CALLE SONORA OESTE 2D","LAGUNA WOODS","CA",92637,33.6021256650001,-117.734854781,192,"4006 CALLE SONORA OESTE 2D, LAGUNA WOODS, CA, 92637","Match","Non_Exact","4006 CLL SONORA OESTE, LAGUNA WOODS, CA, 92637",648694214,"R"
588693,"4006 CHAMPIONS DRIVE","LUFKIN","TX",75901,31.273031023,-94.730159493,193,"4006 CHAMPIONS DRIVE, LUFKIN, TX, 75901","Match","Exact","4006 CHAMPIONS DR, LUFKIN, TX, 75901",627675146,"L"
588694,"4006 CHATHAM ST","VALATIE","NY",12184,42.411705038,-73.673712456,194,"4006 CHATHAM ST, VALATIE, NY, 12184","Match","Exact","4006 CHATHAM ST, VALATIE, NY, 12184",648145675,"L"
588695,"4006 COTTAGE AVE","ST LOUIS","MO",63113,38.656359917,-90.231405481,195,"4006 COTTAGE AVE, ST LOUIS, MO, 63113","Match","Exact","4006 COTTAGE AVE, SAINT LOUIS, MO, 63113",107596245,"L"
588696,"4006 CRESCENT AVE","LAFAYETTE HILL","PA",19444,40.0863830100001,-75.2504739789999,196,"4006 CRESCENT AVE, LAFAYETTE HILL, PA, 19444","Match","Exact","4006 CRESCENT AVE, LAFAYETTE HILL, PA, 19444",135088667,"R"
588697,"4006 CRESTVIEW ROAD NE","SOLON","IA",52333,41.8108915780001,-91.539684075,197,"4006 CRESTVIEW ROAD NE, SOLON, IA, 52333","Match","Exact","4006 CRESTVIEW RD NE, SOLON, IA, 52333",84512345,"R"
588698,"4006 CRYSTAL BRIDGE DR","CARBONDALE","CO",81623,39.3862409700001,-107.220119598,198,"4006 CRYSTAL BRIDGE DR, CARBONDALE, CO, 81623","Match","Exact","4006 CRYSTAL BRIDGE DR, CARBONDALE, CO, 81623",605571819,"L"
588699,"4006 DALLAS STREET","HOUSTON","TX",77009,29.740911839,-95.339554849,199,"4006 DALLAS STREET, HOUSTON, TX, 77009","Match","Non_Exact","4006 DALLAS ST, HOUSTON, TX, 77023",96073647,"R"
588700,"4006 DE TONTY","SAINT LOUIS","MO",63110,38.616981894,-90.2481560209999,200,"4006 DE TONTY, SAINT LOUIS, MO, 63110","Match","Non_Exact","4006 DE TONTY ST, SAINT LOUIS, MO, 63110",107597357,"L"
588701,"4006 DRUMMOND","HOUSTON","TX",77025,29.696156859,-95.44220594,201,"4006 DRUMMOND, HOUSTON, TX, 77025","Match","Non_Exact","4006 DRUMMOND ST, HOUSTON, TX, 77025",96040007,"R"
588702,"4006 DUNMORE DRIVE","SAN ANTONIO","TX",78230,29.544672974,-98.564113283,202,"4006 DUNMORE DRIVE, SAN ANTONIO, TX, 78230","Match","Exact","4006 DUNMORE DR, SAN ANTONIO, TX, 78230",101491116,"L"
588703,"4006 ELM AVENUE","BROOKFIELD","IL",60513,41.8183411840001,-87.85018852,203,"4006 ELM AVENUE, BROOKFIELD, IL, 60513","Match","Exact","4006 ELM AVE, BROOKFIELD, IL, 60513",605135828,"R"
588704,"4006 FIRETHORN DRIVE","MCKEES ROCKS","PA",15136,40.4783400970001,-80.110700964,204,"4006 FIRETHORN DRIVE, MCKEES ROCKS, PA, 15136","Match","Non_Exact","4006 FIRETHORN DR, MC KEES ROCKS, PA, 15136",51690763,"L"
588705,"4006 FLAGSTONE COURT","FRANKLIN","TN",37069,36.029734019,-86.892708877,205,"4006 FLAGSTONE COURT, FRANKLIN, TN, 37069","Match","Exact","4006 FLAGSTONE CT, FRANKLIN, TN, 37069",73129713,"L"
588706,"4006 FONT HILL DR","ELLICOTT CITY","MD",21042,39.2600115450001,-76.855313313,206,"4006 FONT HILL DR, ELLICOTT CITY, MD, 21042","Match","Exact","4006 FONT HILL DR, ELLICOTT CITY, MD, 21042",158922665,"R"
588707,"4006 FULLERTON RD","BLOOMINGTON","IL",61705,40.5117833030001,-88.897692875,207,"4006 FULLERTON RD, BLOOMINGTON, IL, 61705","Match","Exact","4006 FULLERTON RD, BLOOMINGTON, IL, 61705",624382042,"R"
588708,"4006 GARI BALDI COURT","SPRING HILL","TN",37174,35.754203573,-86.885525184,208,"4006 GARI BALDI COURT, SPRING HILL, TN, 37174","Match","Exact","4006 GARI BALDI CT, SPRING HILL, TN, 37174",631983960,"R"
588709,"4006 GREENWOOD WAY","MANSFIELD","TX",76063,32.5822618120001,-97.072882721,209,"4006 GREENWOOD WAY, MANSFIELD, TX, 76063","Match","Exact","4006 GREENWOOD WAY, MANSFIELD, TX, 76063",629570549,"R"
588710,"4006 HANA RD","Edison","NJ",8817,NA,NA,210,"4006 HANA RD, Edison, NJ, 8817","No_Match",NA,NA,NA,NA
588711,"4006 HANA RD","EDISON","NJ",8817,NA,NA,211,"4006 HANA RD, EDISON, NJ, 8817","No_Match",NA,NA,NA,NA
588712,"4006 HANA ROAD","EDISON","NJ",8817,NA,NA,212,"4006 HANA ROAD, EDISON, NJ, 8817","No_Match",NA,NA,NA,NA
588713,"4006 HEADSAIL DR","NEW PORT RICHEY","FL",34652,28.235950159,-82.748093577,213,"4006 HEADSAIL DR, NEW PORT RICHEY, FL, 34652","Match","Exact","4006 HEADSAIL DR, NEW PORT RICHEY, FL, 34652",641251239,"R"
588714,"4006 HERMITAGE ROAD","RICHMOND","VA",23227,37.5882316760001,-77.464131756,214,"4006 HERMITAGE ROAD, RICHMOND, VA, 23227","Match","Exact","4006 HERMITAGE RD, RICHMOND, VA, 23227",201533819,"L"
588715,"4006 JEFFRY ST","SILVER SPRING","MD",20906,39.0672835070001,-77.0798860799999,215,"4006 JEFFRY ST, SILVER SPRING, MD, 20906","Match","Exact","4006 JEFFRY ST, SILVER SPRING, MD, 20906",62060483,"L"
588716,"4006 LOGAN COURT","PASADENA","MD",21122,39.125793478,-76.5168552979999,216,"4006 LOGAN COURT, PASADENA, MD, 21122","Match","Exact","4006 LOGAN CT, PASADENA, MD, 21122",68166287,"R"
588717,"4006 MAYFIELD CAVE TRAIL","ROUND ROCK","TX",78681,30.55815369,-97.737101131,217,"4006 MAYFIELD CAVE TRAIL, ROUND ROCK, TX, 78681","Match","Exact","4006 MAYFIELD CAVE TRL, ROUND ROCK, TX, 78681",126467406,"R"
588718,"4006 MEADOWLAND DR","LOUISVILLE","KY",40059,38.3661569380001,-85.5933881509999,218,"4006 MEADOWLAND DR, LOUISVILLE, KY, 40059","Match","Non_Exact","4006 MEADOWLAND DR, PROSPECT, KY, 40059",130916824,"L"
588719,"4006 MILLIKIN ST","HOMER","AK",99603,59.6484179060001,-151.558466547,219,"4006 MILLIKIN ST, HOMER, AK, 99603","Match","Non_Exact","4006 MULLIKIN ST, HOMER, AK, 99603",190994814,"L"
588720,"4006 MOUNTAIN VISTA DRIVE","GRANBURY","TX",76048,32.394515535,-97.781327886,220,"4006 MOUNTAIN VISTA DRIVE, GRANBURY, TX, 76048","Match","Exact","4006 MOUNTAIN VISTA DR, GRANBURY, TX, 76048",158789889,"L"
588721,"4006 N 31ST STREET","ST JOSEPH","MO",64506,39.805799559,-94.818179992,221,"4006 N 31ST STREET, ST JOSEPH, MO, 64506","Match","Exact","4006 N 31ST ST, SAINT JOSEPH, MO, 64506",15966391,"R"
588722,"4006 N HAIGHT AVE","PORTLAND","OR",97217,45.5522164910001,-122.670104786,222,"4006 N HAIGHT AVE, PORTLAND, OR, 97217","Match","Non_Exact","4006 N HAIGHT AVE, PORTLAND, OR, 97227",157503537,"R"
588723,"4006 NE 50TH ST","KANSAS CITY","MO",64119,39.1849719740001,-94.532728483,223,"4006 NE 50TH ST, KANSAS CITY, MO, 64119","Match","Exact","4006 NE 50TH ST, KANSAS CITY, MO, 64119",89758418,"L"
588724,"4006 NE 9TH AVE","PORTLAND","OR",97212,45.5522194550001,-122.656645151,224,"4006 NE 9TH AVE, PORTLAND, OR, 97212","Match","Exact","4006 NE 9TH AVE, PORTLAND, OR, 97212",157504183,"R"
588725,"4006 OSBY DRIVE","HOUSTON","TX",77025,29.676072828,-95.4403829679999,225,"4006 OSBY DRIVE, HOUSTON, TX, 77025","Match","Exact","4006 OSBY DR, HOUSTON, TX, 77025",96040179,"R"
588726,"4006 OTTER DRIVE","MEMPHIS","TN",38128,35.2352184740001,-89.912268647,226,"4006 OTTER DRIVE, MEMPHIS, TN, 38128","Match","Exact","4006 OTTER DR, MEMPHIS, TN, 38128",72899115,"R"
588727,"4006 PEACHTREE TOWN LANE","KNIGHTDALE","NC",27545,35.775597905,-78.5336851719999,227,"4006 PEACHTREE TOWN LANE, KNIGHTDALE, NC, 27545","Match","Exact","4006 PEACHTREE TOWN LN, KNIGHTDALE, NC, 27545",640612739,"L"
588728,"4006 PEPPERBUSH DIRVE","GREENSBORO","NC",27405,36.1719260830001,-79.703803164,228,"4006 PEPPERBUSH DIRVE, GREENSBORO, NC, 27405","Match","Non_Exact","4006 PEPPERBUSH DR, GREENSBORO, NC, 27405",131119592,"R"
588729,"4006 PINEHURST","AMARILLO","TX",79109,35.1685537450001,-101.918342532,229,"4006 PINEHURST, AMARILLO, TX, 79109","Match","Non_Exact","4006 PINEHURST DR, AMARILLO, TX, 79109",182652684,"R"
588730,"4006 REGAL ROSE","SAN ANTONIO","TX",78259,29.6371670340001,-98.412670388,230,"4006 REGAL ROSE, SAN ANTONIO, TX, 78259","Match","Exact","4006 REGAL ROSE, SAN ANTONIO, TX, 78259",101755475,"R"
588731,"4006 ROYAL ESTATES DRIVE","ST LOUIS","MO",63121,38.479306573,-90.351638147,231,"4006 ROYAL ESTATES DRIVE, ST LOUIS, MO, 63121","Match","Non_Exact","4006 ROYAL ESTATES DR, SAINT LOUIS, MO, 63129",100157107,"R"
588732,"4006 RT 9 S APT 307","RIO GRANDE","NJ",8242,NA,NA,232,"4006 RT 9 S APT 307, RIO GRANDE, NJ, 8242","No_Match",NA,NA,NA,NA
588733,"4006 S AUSTIN ST","SEATTLE","WA",98118,47.5341593530001,-122.281819143,233,"4006 S AUSTIN ST, SEATTLE, WA, 98118","Match","Exact","4006 S AUSTIN ST, SEATTLE, WA, 98118",649376503,"L"
588734,"4006 S MONROE","AMARILLO","TX",79110,35.172582746,-101.847536464,234,"4006 S MONROE, AMARILLO, TX, 79110","Match","Non_Exact","4006 S MONROE ST, AMARILLO, TX, 79110",182655544,"R"
588735,"4006 SEQUOIA ST","RIVERSIDE","CA",92503,33.9226312070001,-117.451174026,235,"4006 SEQUOIA ST, RIVERSIDE, CA, 92503","Match","Exact","4006 SEQUOIA ST, RIVERSIDE, CA, 92503",194739839,"L"
588736,"4006 SHADOW CREST RD","KINGMAN","AZ",86409,35.2398082890001,-114.041396696,236,"4006 SHADOW CREST RD, KINGMAN, AZ, 86409","Match","Exact","4006 SHADOW CREST RD, KINGMAN, AZ, 86409",190329497,"R"
588737,"4006 SOUTH NEW HAVEN AVENUE","TULSA","OK",74135,36.1052161980001,-95.933627122,237,"4006 SOUTH NEW HAVEN AVENUE, TULSA, OK, 74135","Match","Exact","4006 S NEW HAVEN AVE, TULSA, OK, 74135",166450079,"R"
588738,"4006 SUE ALLEN","HOUSTON","TX",77087,NA,NA,238,"4006 SUE ALLEN, HOUSTON, TX, 77087","No_Match",NA,NA,NA,NA
588739,"4006 SYDNEY CIRCLE","DALTON","GA",30721,34.821620615,-84.968939547,239,"4006 SYDNEY CIRCLE, DALTON, GA, 30721","Match","Exact","4006 SYDNEY CIR, DALTON, GA, 30721",629466107,"L"
588740,"4006 TARRANT TRACE CIRCLE","HIGH POINT","NC",27265,36.0420422990001,-79.947113851,240,"4006 TARRANT TRACE CIRCLE, HIGH POINT, NC, 27265","Match","Exact","4006 TARRANT TRACE CIR, HIGH POINT, NC, 27265",641642725,"L"
588741,"4006 VICTORY BLVD STE J 701","PORTSMOUTH","VA",23701,36.8094502100001,-76.357735744,241,"4006 VICTORY BLVD STE J 701, PORTSMOUTH, VA, 23701","Match","Exact","4006 VICTORY BLVD, PORTSMOUTH, VA, 23701",647885808,"R"
588742,"4006 VICTORY BLVD STE J-701","PORTSMOUTH","VA",23701,36.8094502100001,-76.357735744,242,"4006 VICTORY BLVD STE J-701, PORTSMOUTH, VA, 23701","Match","Exact","4006 VICTORY BLVD, PORTSMOUTH, VA, 23701",647885808,"R"
588743,"4006 VICTORY BLVD STE J200","PORTSMOUTH","VA",23701,36.8094502100001,-76.357735744,243,"4006 VICTORY BLVD STE J200, PORTSMOUTH, VA, 23701","Match","Exact","4006 VICTORY BLVD, PORTSMOUTH, VA, 23701",647885808,"R"
588744,"4006 VICTORY BLVD STE","PORTSMOUTH","VA",23701,36.8094502100001,-76.357735744,244,"4006 VICTORY BLVD STE, PORTSMOUTH, VA, 23701","Match","Exact","4006 VICTORY BLVD, PORTSMOUTH, VA, 23701",647885808,"R"
588745,"4006 VICTORY BLVD","PORTSMOUTH","VA",23701,36.8094502100001,-76.357735744,245,"4006 VICTORY BLVD, PORTSMOUTH, VA, 23701","Match","Exact","4006 VICTORY BLVD, PORTSMOUTH, VA, 23701",647885808,"R"
588746,"4006 WEATHERFIELD CT","SUGAR LAND","TX",77479,29.547393544,-95.567664849,246,"4006 WEATHERFIELD CT, SUGAR LAND, TX, 77479","Match","Exact","4006 WEATHERFIELD CT, SUGAR LAND, TX, 77479",624824217,"L"
588747,"4006 WEST DRIVE","NORTH DINWIDDIE","VA",23803,37.2167441550001,-77.460171825,247,"4006 WEST DRIVE, NORTH DINWIDDIE, VA, 23803","Match","Exact","4006 WEST DR, NORTH DINWIDDIE, VA, 23803",54159393,"L"
588748,"4006 YALE SQUARE CT","KATY","TX",77449,29.830381937,-95.728676749,248,"4006 YALE SQUARE CT, KATY, TX, 77449","Match","Exact","4006 YALE SQUARE CT, KATY, TX, 77449",624813608,"R"
588749,"4006-H NIGHT HERON COURT","WALDORF","MD",20603,38.6191678650001,-76.937409175,249,"4006-H NIGHT HERON COURT, WALDORF, MD, 20603","Match","Exact","4006 NIGHT HERON CT, WALDORF, MD, 20603",25385174,"L"
588750,"40060 MANERS CIRCLE","NEW LONDON","NC",28127,35.450280623,-80.173137276,250,"40060 MANERS CIRCLE, NEW LONDON, NC, 28127","Match","Exact","40060 MANERS CIR, NEW LONDON, NC, 28127",14101590,"L"
588751,"40061 310TH AVE","LAKE CITY","MN",55041,NA,NA,251,"40061 310TH AVE, LAKE CITY, MN, 55041","No_Match",NA,NA,NA,NA
588752,"40063-C","GONZALES","LA",70737,NA,NA,252,"40063-C, GONZALES, LA, 70737","No_Match",NA,NA,NA,NA
588753,"400678 W 3200 RD","RAMONA","OK",74061,36.5542387130001,-95.871642445,253,"400678 W 3200 RD, RAMONA, OK, 74061","Match","Exact","400678 W 3200 RD, RAMONA, OK, 74061",606557492,"R"
588754,"40068 W CORNERVIEW ROAD","GONZALES","LA",70737,30.232747531,-90.934980492,254,"40068 W CORNERVIEW ROAD, GONZALES, LA, 70737","Match","Exact","40068 CORNERVIEW RD, GONZALES, LA, 70737",115040236,"R"
588755,"40069 COLLINS WOOD LANE","PONCHATOULA","LA",70454,NA,NA,255,"40069 COLLINS WOOD LANE, PONCHATOULA, LA, 70454","No_Match",NA,NA,NA,NA
588756,"40069 CORTE CARRANZA","INDIO","CA",92203,33.757677745,-116.240996013,256,"40069 CORTE CARRANZA, INDIO, CA, 92203","Match","Exact","40069 CORTE CARRANZA, INDIO, CA, 92203",637213489,"L"
588757,"4006A VIA LUCERO","SANTA BARBARA","CA",93110,34.441722369,-119.755322088,257,"4006A VIA LUCERO, SANTA BARBARA, CA, 93110","Match","Exact","4006 VIA LUCERO, SANTA BARBARA, CA, 93110",642894273,"R"
588758,"4007 AGNES AVENUE","LYNWOOD","CA",90262,33.9165403650001,-118.199376173,258,"4007 AGNES AVENUE, LYNWOOD, CA, 90262","Match","Non_Exact","4007 AGNES ST, LYNWOOD, CA, 90262",141678520,"L"
588759,"4007 ALABAMA AVE SE","WASHINGTON","DC",20020,38.8691844740001,-76.9477890859999,259,"4007 ALABAMA AVE SE, WASHINGTON, DC, 20020","Match","Exact","4007 ALABAMA AVE SE, WASHINGTON, DC, 20020",76233770,"R"
588760,"4007 ALBERTA ST","METAIRIE","LA",70001,29.9954253270001,-90.1729540859999,260,"4007 ALBERTA ST, METAIRIE, LA, 70001","Match","Exact","4007 ALBERTA ST, METAIRIE, LA, 70001",93500449,"R"
588761,"4007 ALICE COURT","SUGAR LAND","TX",77478,29.6009445170001,-95.5925849979999,261,"4007 ALICE COURT, SUGAR LAND, TX, 77478","Match","Non_Exact","4007 ALICE DR, SUGAR LAND, TX, 77478",78283476,"R"
588762,"4007 ANCIENT AMBER WAY","PEACHTREE CORNERS","GA",30092,33.982559157,-84.223886347,262,"4007 ANCIENT AMBER WAY, PEACHTREE CORNERS, GA, 30092","Match","Exact","4007 ANCIENT AMBER WAY, PEACHTREE CORNERS, GA, 30092",88925254,"L"
588763,"4007 APPLEROCK DR","BAYTOWN","TX",77521,29.7652627410001,-94.986106123,263,"4007 APPLEROCK DR, BAYTOWN, TX, 77521","Match","Exact","4007 APPLEROCK DR, BAYTOWN, TX, 77521",96557261,"R"
588764,"4007 BALDWIN DRIVE","MICCO","FL",32976,27.8615245180001,-80.4953846459999,264,"4007 BALDWIN DRIVE, MICCO, FL, 32976","Match","Exact","4007 BALDWIN DR, MICCO, FL, 32976",93918242,"L"
588765,"4007 BALTIMORE AVE","PHILADELPHIA","PA",19104,39.9499202220001,-75.203729822,265,"4007 BALTIMORE AVE, PHILADELPHIA, PA, 19104","Match","Exact","4007 BALTIMORE AVE, PHILADELPHIA, PA, 19104",131404005,"R"
588766,"4007 BANBURY WAY","ANTIOCH","CA",94531,37.9829709840001,-121.779049365,266,"4007 BANBURY WAY, ANTIOCH, CA, 94531","Match","Exact","4007 BANBURY WAY, ANTIOCH, CA, 94531",192085200,"L"
588767,"4007 BATTERY BEE LANE","APEX","NC",27523,35.760778939,-78.863345451,267,"4007 BATTERY BEE LANE, APEX, NC, 27523","Match","Exact","4007 BATTERY BEE LN, APEX, NC, 27523",72596211,"R"
588768,"4007 BEECHWOOD DRIVE","COLUMBIA","MO",65202,38.990028517,-92.249773696,268,"4007 BEECHWOOD DRIVE, COLUMBIA, MO, 65202","Match","Exact","4007 BEECHWOOD DR, COLUMBIA, MO, 65202",23494409,"R"
588769,"4007 BELLAIRE BLVD STE E","HOUSTON","TX",77025,29.705955799,-95.442037813,269,"4007 BELLAIRE BLVD STE E, HOUSTON, TX, 77025","Match","Exact","4007 BELLAIRE BLVD, HOUSTON, TX, 77025",96609691,"L"
588770,"4007 BELLAIRE BLVD SUITE KK","HOUSTON","TX",77025,29.705955799,-95.442037813,270,"4007 BELLAIRE BLVD SUITE KK, HOUSTON, TX, 77025","Match","Exact","4007 BELLAIRE BLVD, HOUSTON, TX, 77025",96609691,"L"
588771,"4007 BOUQUET PARK LANE","SAN JOSE","CA",95135,37.3145365180001,-121.768298289,271,"4007 BOUQUET PARK LANE, SAN JOSE, CA, 95135","Match","Exact","4007 BOUQUET PARK LN, SAN JOSE, CA, 95135",627274747,"R"
588772,"4007 BRADWOOD DR","DAYTON","OH",45405,39.8065537570001,-84.240257718,272,"4007 BRADWOOD DR, DAYTON, OH, 45405","Match","Exact","4007 BRADWOOD DR, DAYTON, OH, 45405",143565561,"L"
588773,"4007 BRINELL AVE","ORLANDO","FL",32808,28.558487472,-81.428753136,273,"4007 BRINELL AVE, ORLANDO, FL, 32808","Match","Exact","4007 BRINELL AVE, ORLANDO, FL, 32808",639764598,"R"
588774,"4007 BROOKSHIRE COURT","MURRYSVILLE","PA",15668,40.4536358440001,-79.687952533,274,"4007 BROOKSHIRE COURT, MURRYSVILLE, PA, 15668","Match","Exact","4007 BROOKSHIRE CT, MURRYSVILLE, PA, 15668",52963438,"L"
588775,"4007 BRYANT AVE N","MINNEAPOLIS","MN",55412,45.027919184,-93.290643075,275,"4007 BRYANT AVE N, MINNEAPOLIS, MN, 55412","Match","Exact","4007 BRYANT AVE N, MINNEAPOLIS, MN, 55412",43622327,"L"
588776,"4007 CASTLEMAN","SAINT LOUIS","MO",63110,38.6150766970001,-90.248438628,276,"4007 CASTLEMAN, SAINT LOUIS, MO, 63110","Match","Non_Exact","4007 CASTLEMAN AVE, SAINT LOUIS, MO, 63110",107597361,"R"
588777,"4007 CASTLEMAN","ST. LOUIS","MO",63110,38.6150766970001,-90.248438628,277,"4007 CASTLEMAN, ST. LOUIS, MO, 63110","Match","Non_Exact","4007 CASTLEMAN AVE, SAINT LOUIS, MO, 63110",107597361,"R"
588778,"4007 CHESTNUT STREET","FAIRFAX","VA",22030,38.8516122340001,-77.3232282279999,278,"4007 CHESTNUT STREET, FAIRFAX, VA, 22030","Match","Exact","4007 CHESTNUT ST, FAIRFAX, VA, 22030",75966454,"L"
588779,"4007 CRESSIDA PL","WOODBRIDGE","VA",22192,38.6732807230001,-77.330979951,279,"4007 CRESSIDA PL, WOODBRIDGE, VA, 22192","Match","Exact","4007 CRESSIDA PL, WOODBRIDGE, VA, 22192",76532666,"R"
588780,"4007 DUPONT AVE NORTH","MINNEAPOLIS","MN",55412,45.027851388,-93.293176193,280,"4007 DUPONT AVE NORTH, MINNEAPOLIS, MN, 55412","Match","Exact","4007 DUPONT AVE N, MINNEAPOLIS, MN, 55412",43622274,"L"
588781,"4007 DURHAM A","DEERFILE BEACH","FL",33442,26.3143145440001,-80.137605987,281,"4007 DURHAM A, DEERFILE BEACH, FL, 33442","Match","Non_Exact","4007 DURHAM A, DEERFIELD BEACH, FL, 33442",114795609,"R"
588782,"4007 E 58TH ST","CLEVELAND","OH",44105,41.4489166070001,-81.648959834,282,"4007 E 58TH ST, CLEVELAND, OH, 44105","Match","Exact","4007 E 58TH ST, CLEVELAND, OH, 44105",61118205,"L"
588783,"4007 E PARADISSE FALLS DR SUITE 212","TUCSON","AZ",85712,32.2706555240001,-110.907287155,283,"4007 E PARADISSE FALLS DR SUITE 212, TUCSON, AZ, 85712","Match","Non_Exact","4007 E PARADISE FALLS DR, TUCSON, AZ, 85712",627251229,"R"
588784,"4007 E WINDSONG","SPOKANE","WA",99223,47.6100101320001,-117.350823267,284,"4007 E WINDSONG, SPOKANE, WA, 99223","Match","Non_Exact","4007 E WINDSONG AVE, SPOKANE, WA, 99223",189882068,"L"
588785,"4007 ELMDALE CT","CHARLOTTE","NC",28206,35.2705761060001,-80.79769096,285,"4007 ELMDALE CT, CHARLOTTE, NC, 28206","Match","Exact","4007 ELMDALE CT, CHARLOTTE, NC, 28206",70479735,"L"
588786,"4007 FALLSTON RD","SHELBY","NC",28150,35.3896865730001,-81.4979243339999,286,"4007 FALLSTON RD, SHELBY, NC, 28150","Match","Exact","4007 FALLSTON RD, SHELBY, NC, 28150",652327916,"L"
588787,"4007 GERTRUDE ST","SIMI VALLEY","CA",93063,34.273991445,-118.716792904,287,"4007 GERTRUDE ST, SIMI VALLEY, CA, 93063","Match","Exact","4007 GERTRUDE ST, SIMI VALLEY, CA, 93063",109979531,"L"
588788,"4007 GREENTREE CT","SMYRNA","TN",37167,35.9618226210001,-86.565523835,288,"4007 GREENTREE CT, SMYRNA, TN, 37167","Match","Exact","4007 GREENTREE CT, SMYRNA, TN, 37167",59033791,"L"
588789,"4007 GREENWAY COURT W","PORTSMOUTH","VA",23707,36.823588827,-76.351707945,289,"4007 GREENWAY COURT W, PORTSMOUTH, VA, 23707","Match","Exact","4007 GREENWAY CT W, PORTSMOUTH, VA, 23707",122192481,"L"
588790,"4007 HARPER ROAD","MECHANICSBURG","OH",43044,40.0626145350001,-83.636370192,290,"4007 HARPER ROAD, MECHANICSBURG, OH, 43044","Match","Exact","4007 HARPER RD, MECHANICSBURG, OH, 43044",606299918,"L"
588791,"4007 HEYWARD STREET","CINCINNATI","OH",45205,39.122137659,-84.578894331,291,"4007 HEYWARD STREET, CINCINNATI, OH, 45205","Match","Exact","4007 HEYWARD ST, CINCINNATI, OH, 45205",103921722,"L"
588792,"4007 INVERNESS CLIFFS","MEADOWBROOK","AL",35242,NA,NA,292,"4007 INVERNESS CLIFFS, MEADOWBROOK, AL, 35242","Tie",NA,NA,NA,NA
588793,"4007 LEEWARD AVE","LOS ANGELES","CA",90005,34.0589802590001,-118.314761274,293,"4007 LEEWARD AVE, LOS ANGELES, CA, 90005","Match","Exact","4007 LEEWARD AVE, LOS ANGELES, CA, 90005",141603670,"R"
588794,"4007 LEGEND","COLUMBUS","OH",43230,40.0603646810001,-82.867158302,294,"4007 LEGEND, COLUMBUS, OH, 43230","Match","Exact","4007 LEGEND, COLUMBUS, OH, 43230",641048231,"L"
588795,"4007 LIBERTY HEIGHTS","BALTIMORE",NA,NA,39.3282772490001,-76.685534768,295,"4007 LIBERTY HEIGHTS, BALTIMORE, , ","Match","Non_Exact","4007 LIBERTY HEIGHTS AVE, BALTIMORE, MD, 21207",206405305,"L"
588796,"4007 LITCHFIELD DRIVE","CHESTERFIELD","VA",23832,37.4528569020001,-77.535701166,296,"4007 LITCHFIELD DRIVE, CHESTERFIELD, VA, 23832","Match","Exact","4007 LITCHFIELD DR, CHESTERFIELD, VA, 23832",201544445,"L"
588797,"4007 LONGBOW COURT","JAMESTOWN","NC",27282,36.0297442250001,-79.954635346,297,"4007 LONGBOW COURT, JAMESTOWN, NC, 27282","Match","Exact","4007 LONGBOW CT, JAMESTOWN, NC, 27282",131078013,"L"
588798,"4007 MARSHALL STREET","PHILADELPHIA","PA",19140,40.012536509,-75.138601717,298,"4007 MARSHALL STREET, PHILADELPHIA, PA, 19140","Match","Non_Exact","4007 N MARSHALL ST, PHILADELPHIA, PA, 19140",131417681,"R"
588799,"4007 MCCLAIN LANE","HUNTSVILLE","AL",35810,34.7528841700001,-86.6289526579999,299,"4007 MCCLAIN LANE, HUNTSVILLE, AL, 35810","Match","Non_Exact","4007 MCCLAIN LN NW, HUNTSVILLE, AL, 35810",58113358,"L"
588800,"4007 MCCULLOGH 618","SAN ANTONIO","TX",78212,29.4673310850001,-98.491795458,300,"4007 MCCULLOGH 618, SAN ANTONIO, TX, 78212","Match","Non_Exact","4007 MCCULLOUGH AVE, SAN ANTONIO, TX, 78212",101523256,"L"
588801,"4007 MCCULLOUGH 188","SAN ANTONIO","TX",78212,29.4673310850001,-98.491795458,301,"4007 MCCULLOUGH 188, SAN ANTONIO, TX, 78212","Match","Non_Exact","4007 MCCULLOUGH AVE, SAN ANTONIO, TX, 78212",101523256,"L"
588802,"4007 MCCULLOUGH AVE","SAN ANTONIO","TX",78212,29.4673310850001,-98.491795458,302,"4007 MCCULLOUGH AVE, SAN ANTONIO, TX, 78212","Match","Exact","4007 MCCULLOUGH AVE, SAN ANTONIO, TX, 78212",101523256,"L"
588803,"4007 MCCULLOUGH NO 478","SAN ANTONIO","TX",78212,NA,NA,303,"4007 MCCULLOUGH NO 478, SAN ANTONIO, TX, 78212","No_Match",NA,NA,NA,NA
588804,"4007 MEADOW LN","CHATTANOOGA","TN",37406,35.0825558330001,-85.235093606,304,"4007 MEADOW LN, CHATTANOOGA, TN, 37406","Match","Exact","4007 MEADOW LN, CHATTANOOGA, TN, 37406",59310085,"L"
588805,"4007 N PARK ST","WESTMONT","IL",60559,41.8143850100001,-87.984422654,305,"4007 N PARK ST, WESTMONT, IL, 60559","Match","Exact","4007 N PARK ST, WESTMONT, IL, 60559",112547535,"L"
588806,"4007 NE LUXURY LN","BREMERTON","WA",98311,47.6264065300001,-122.596622145,306,"4007 NE LUXURY LN, BREMERTON, WA, 98311","Match","Exact","4007 NE LUXURY LN, BREMERTON, WA, 98311",187660716,"R"
588807,"4007 NEW HAMPTON COURT","ORLANDO","FL",32822,28.497130595,-81.2819805399999,307,"4007 NEW HAMPTON COURT, ORLANDO, FL, 32822","Match","Exact","4007 NEW HAMPTON CT, ORLANDO, FL, 32822",94316051,"L"
588808,"4007 NIAGARA DRIVE","LA GRANGE","KY",40031,38.3640211210001,-85.427967699,308,"4007 NIAGARA DRIVE, LA GRANGE, KY, 40031","Match","Non_Exact","4007 NIAGRA DR, LA GRANGE, KY, 40031",130917888,"L"
588809,"4007 NORTH DR","PUEBLO","CO",81008,38.3121546690001,-104.632006122,309,"4007 NORTH DR, PUEBLO, CO, 81008","Match","Exact","4007 NORTH DR, PUEBLO, CO, 81008",105058630,"R"
588810,"4007 NOVAR DR","CHANTILLY","VA",20151,38.887208403,-77.415389692,310,"4007 NOVAR DR, CHANTILLY, VA, 20151","Match","Exact","4007 NOVAR DR, CHANTILLY, VA, 20151",76049692,"L"
588811,"4007 NY HIGHWAY 43","WYNANTSKILL","NY",12198,42.643840266,-73.631616042,311,"4007 NY HIGHWAY 43, WYNANTSKILL, NY, 12198","Match","Non_Exact","4007 STATE RTE 43, WYNANTSKILL, NY, 12198",35742177,"R"
588812,"4007 OAKSTONE DRIVE","GEORGETOWN","IN",47122,38.2905545510001,-85.950792359,312,"4007 OAKSTONE DRIVE, GEORGETOWN, IN, 47122","Match","Exact","4007 OAKSTONE DR, GEORGETOWN, IN, 47122",648396926,"R"
588813,"4007 OLD MULBERRY ROAD","PLANT CITY","FL",33860,27.961920911,-82.06407547,313,"4007 OLD MULBERRY ROAD, PLANT CITY, FL, 33860","Match","Non_Exact","4007 OLD MULBERRY RD, PLANT CITY, FL, 33567",627970822,"R"
588814,"4007 OLD SEWARD HWY SUITE 100","ANCHORAGE","AK",99508,NA,NA,314,"4007 OLD SEWARD HWY SUITE 100, ANCHORAGE, AK, 99508","No_Match",NA,NA,NA,NA
588815,"4007 OLD SEWARD HWY SUITE 800","ANCHORAGE","AK",99503,61.1842652700001,-149.868136998,315,"4007 OLD SEWARD HWY SUITE 800, ANCHORAGE, AK, 99503","Match","Non_Exact","4007 OLD SEWARD HWY, ANCHORAGE, AK, 99503",190797916,"L"
588816,"4007 ORCHARD LANE","IRON STATION","NC",28080,35.440479657,-81.133578342,316,"4007 ORCHARD LANE, IRON STATION, NC, 28080","Match","Non_Exact","4007 ORCHARD RD, IRON STATION, NC, 28080",69542352,"R"
588817,"4007 PALM TREE BLVD","CAPE CORAL","FL",33904,26.5784806180001,-81.965349202,317,"4007 PALM TREE BLVD, CAPE CORAL, FL, 33904","Match","Exact","4007 PALM TREE BLVD, CAPE CORAL, FL, 33904",118014024,"L"
588818,"4007 PARK LANE","ASTON","PA",19014,39.857955873,-75.402583512,318,"4007 PARK LANE, ASTON, PA, 19014","Match","Exact","4007 PARK LN, ASTON, PA, 19014",134888961,"R"
588819,"4007 PENN LANE","RICHMOND","TX",77406,29.6638069460001,-95.871786882,319,"4007 PENN LANE, RICHMOND, TX, 77406","Match","Exact","4007 PENN LN, RICHMOND, TX, 77406",227773227,"R"
588820,"4007 PINE LIMB COURT","TAMPA","FL",33614,28.019104063,-82.5085647509999,320,"4007 PINE LIMB COURT, TAMPA, FL, 33614","Match","Exact","4007 PINE LIMB CT, TAMPA, FL, 33614",104514284,"R"
588821,"4007 PITT STREET","DULUTH","MN",55804,46.8323567,-92.0420624559999,321,"4007 PITT STREET, DULUTH, MN, 55804","Match","Exact","4007 PITT ST, DULUTH, MN, 55804",163215196,"L"
588822,"4007 RYEGATE COURT SW","CONYERS","GA",30094,33.6633110670001,-84.067288451,322,"4007 RYEGATE COURT SW, CONYERS, GA, 30094","Match","Exact","4007 RYEGATE CT SW, CONYERS, GA, 30094",23747151,"R"
588823,"4007 S VINCENNES","CHICAGO","IL",60653,41.821277024,-87.613189784,323,"4007 S VINCENNES, CHICAGO, IL, 60653","Match","Non_Exact","4007 S VINCENNES AVE, CHICAGO, IL, 60653",111770723,"L"
588824,"4007 S WABASH","CHICAGO","IL",60653,41.8214732760001,-87.62477017,324,"4007 S WABASH, CHICAGO, IL, 60653","Match","Non_Exact","4007 S WABASH AVE, CHICAGO, IL, 60653",618049310,"L"
588825,"4007 SALMON RIVER DR","MONROE","NC",28110,35.024851427,-80.648466244,325,"4007 SALMON RIVER DR, MONROE, NC, 28110","Match","Exact","4007 SALMON RIVER DR, MONROE, NC, 28110",628792790,"L"
588826,"4007 SAN JOSE","BELLMEAD","TX",76705,31.5943281900001,-97.090348998,326,"4007 SAN JOSE, BELLMEAD, TX, 76705","Match","Non_Exact","4007 SAN JOSE ST, BELLMEAD, TX, 76705",146737518,"R"
588827,"4007 SANDY RIDGE DR","COLUMBUS","OH",43204,39.9805014900001,-83.110891189,327,"4007 SANDY RIDGE DR, COLUMBUS, OH, 43204","Match","Exact","4007 SANDY RIDGE DR, COLUMBUS, OH, 43204",135668404,"L"
588828,"4007 SCARLETT OHARA DR","ELLENWOOD","GA",30294,33.6393732550001,-84.226928755,328,"4007 SCARLETT OHARA DR, ELLENWOOD, GA, 30294","Match","Non_Exact","4007 SCARLET OHARA DR, ELLENWOOD, GA, 30294",23407710,"R"
588829,"4007 SEPTEMBER SONG DR","MANCHACA","TX",78652,30.145906315,-97.886228524,329,"4007 SEPTEMBER SONG DR, MANCHACA, TX, 78652","Match","Exact","4007 SEPTEMBER SONG DR, MANCHACA, TX, 78652",63819506,"R"
588830,"4007 SEQUOIA TRAIL","SPRING HILL","TN",37174,35.718687184,-86.892853761,330,"4007 SEQUOIA TRAIL, SPRING HILL, TN, 37174","Match","Exact","4007 SEQUOIA TRL, SPRING HILL, TN, 37174",633655677,"L"
588831,"4007 SHADY HOLLOW LANE","GAINESVILLE","VA",20155,38.8611095630001,-77.6076463429999,331,"4007 SHADY HOLLOW LANE, GAINESVILLE, VA, 20155","Match","Exact","4007 SHADY HOLLOW LN, GAINESVILLE, VA, 20155",76503378,"R"
588832,"4007 SHERIDAN ROAD","YOUNGSTOWN","OH",44514,41.0595002000001,-80.6212025889999,332,"4007 SHERIDAN ROAD, YOUNGSTOWN, OH, 44514","Match","Exact","4007 SHERIDAN RD, YOUNGSTOWN, OH, 44514",64625220,"L"
588833,"4007 SMOOTH OAK LANE","HOUSTON","TX",77053,29.611592316,-95.437745134,333,"4007 SMOOTH OAK LANE, HOUSTON, TX, 77053","Match","Exact","4007 SMOOTH OAK LN, HOUSTON, TX, 77053",96087703,"L"
588834,"4007 SOARING ELM","HUMBLE","TX",77346,NA,NA,334,"4007 SOARING ELM, HUMBLE, TX, 77346","No_Match",NA,NA,NA,NA
588835,"4007 SOUTH BEACON STREET","MUNCIE","IN",47302,40.157347676,-85.37491006,335,"4007 SOUTH BEACON STREET, MUNCIE, IN, 47302","Match","Exact","4007 S BEACON ST, MUNCIE, IN, 47302",30838857,"R"
588836,"4007 SOUTHERN OAKS DRIVE","GULFPORT","MS",39507,30.397623003,-89.0206949669999,336,"4007 SOUTHERN OAKS DRIVE, GULFPORT, MS, 39507","Match","Exact","4007 SOUTHERN OAKS DR, GULFPORT, MS, 39507",111401134,"L"
588837,"4007 SOUTHERN PARKWY","LOUISVILLE","KY",40214,38.196555958,-85.7668360979999,337,"4007 SOUTHERN PARKWY, LOUISVILLE, KY, 40214","Match","Exact","4007 SOUTHERN PKWY, LOUISVILLE, KY, 40214",96844542,"L"
588838,"4007 SOUTHERN PWKY SUITE 1","LOUISVILLE","KY",40214,38.196555958,-85.7668360979999,338,"4007 SOUTHERN PWKY SUITE 1, LOUISVILLE, KY, 40214","Match","Non_Exact","4007 SOUTHERN PKWY, LOUISVILLE, KY, 40214",96844542,"L"
588839,"4007 STONEY BROOK LN","PORT ARTHUR","TX",77642,29.9546733290001,-93.979972189,339,"4007 STONEY BROOK LN, PORT ARTHUR, TX, 77642","Match","Exact","4007 STONEY BROOK LN, PORT ARTHUR, TX, 77642",73860833,"R"
588840,"4007 TARA DR","TALLAHASSEE","FL",32303,30.5079259130001,-84.324891779,340,"4007 TARA DR, TALLAHASSEE, FL, 32303","Match","Exact","4007 TARA DR, TALLAHASSEE, FL, 32303",82848339,"R"
588841,"4007 TARA DRIVE","TALLAHASSEE","FL",32303,30.5079259130001,-84.324891779,341,"4007 TARA DRIVE, TALLAHASSEE, FL, 32303","Match","Exact","4007 TARA DR, TALLAHASSEE, FL, 32303",82848339,"R"
588842,"4007 TERRA BELLA DRIVE","JEFFERSON CITY","MO",65109,38.589822854,-92.2651258079999,342,"4007 TERRA BELLA DRIVE, JEFFERSON CITY, MO, 65109","Match","Exact","4007 TERRA BELLA DR, JEFFERSON CITY, MO, 65109",629846888,"L"
588843,"4007 TULIP GLEN CT","KATY","TX",77449,29.830354911,-95.723194545,343,"4007 TULIP GLEN CT, KATY, TX, 77449","Match","Exact","4007 TULIP GLEN CT, KATY, TX, 77449",623878211,"L"
588844,"4007 VAN TASSEL STREET","AMARILLO","TX",79121,35.1656463940001,-101.936264421,344,"4007 VAN TASSEL STREET, AMARILLO, TX, 79121","Match","Exact","4007 VAN TASSEL ST, AMARILLO, TX, 79121",182658544,"L"
588845,"4007 W 140TH STREET","LEAWOOD","KS",66224,38.8755730780001,-94.634381044,345,"4007 W 140TH STREET, LEAWOOD, KS, 66224","Match","Exact","4007 W 140TH ST, LEAWOOD, KS, 66224",624210524,"R"
588846,"4007 W 49TH ST","EDINA","MN",55424,44.9143211260001,-93.332318933,346,"4007 W 49TH ST, EDINA, MN, 55424","Match","Exact","4007 W 49TH ST, EDINA, MN, 55424",43628001,"L"
588847,"4007 W 62ND TER","FAIRWAY","KS",66205,39.0159805930001,-94.63166275,347,"4007 W 62ND TER, FAIRWAY, KS, 66205","Match","Exact","4007 W 62ND TER, FAIRWAY, KS, 66205",91274206,"L"
588848,"4007 WADERIDGE TRAIL","GROVEPORT","OH",43125,39.895274268,-82.887831217,348,"4007 WADERIDGE TRAIL, GROVEPORT, OH, 43125","Match","Exact","4007 WADERIDGE TRL, GROVEPORT, OH, 43125",624301008,"R"
588849,"4007 WEST CONGRESS STREET SUITE B","LAFAYETTE","LA",70506,30.1981864140001,-92.070208372,349,"4007 WEST CONGRESS STREET SUITE B, LAFAYETTE, LA, 70506","Match","Exact","4007 W CONGRESS ST, LAFAYETTE, LA, 70506",640616633,"L"
588850,"4007 WOODLAND RETREAT BLVD","TRINITY","FL",34655,NA,NA,350,"4007 WOODLAND RETREAT BLVD, TRINITY, FL, 34655","No_Match",NA,NA,NA,NA
588851,"4007-15 AVE 5","BROOKLYN","NY",11218,NA,NA,351,"4007-15 AVE 5, BROOKLYN, NY, 11218","No_Match",NA,NA,NA,NA
588852,"4007","JAMESTOWN","NC",27282,NA,NA,352,"4007, JAMESTOWN, NC, 27282","No_Match",NA,NA,NA,NA
588853,"40071 DRUDE RD","PONCHATOULA","LA",70454,30.44162407,-90.476016978,353,"40071 DRUDE RD, PONCHATOULA, LA, 70454","Match","Exact","40071 DRUDE RD, PONCHATOULA, LA, 70454",75769623,"L"
588854,"40071 DRUDE ROAD","PONCHATOULA","LA",70454,30.44162407,-90.476016978,354,"40071 DRUDE ROAD, PONCHATOULA, LA, 70454","Match","Exact","40071 DRUDE RD, PONCHATOULA, LA, 70454",75769623,"L"
588855,"40079 BLAHA RD","WAGNER","SD",57380,NA,NA,355,"40079 BLAHA RD, WAGNER, SD, 57380","No_Match",NA,NA,NA,NA
588856,"4008 111TH ST SE","EVERETT","WA",98208,47.8966067040001,-122.178028781,356,"4008 111TH ST SE, EVERETT, WA, 98208","Match","Exact","4008 111TH ST SE, EVERETT, WA, 98208",187804538,"L"
588857,"4008 76TH STREET","ELMHURST","NY",11373,NA,NA,357,"4008 76TH STREET, ELMHURST, NY, 11373","No_Match",NA,NA,NA,NA
588858,"4008 91ST AVE","SPINGDALE","MD",20774,38.9404619850001,-76.849930321,358,"4008 91ST AVE, SPINGDALE, MD, 20774","Match","Non_Exact","4008 91ST AVE, SPRINGDALE, MD, 20774",76310785,"L"
588859,"4008 A CHILDRESS ST","HOUSTON","TX",77005,29.726939664,-95.441649548,359,"4008 A CHILDRESS ST, HOUSTON, TX, 77005","Match","Exact","4008 CHILDRESS ST, HOUSTON, TX, 77005",96034217,"R"
588860,"4008 AGUAS CALIENTES","LAREDO","TX",78046,27.480520896,-99.4503355419999,360,"4008 AGUAS CALIENTES, LAREDO, TX, 78046","Match","Non_Exact","4008 AGUASCALIENTES, LAREDO, TX, 78046",639645746,"L"
588861,"4008 AMES DR","NASHVILLE","TN",37218,36.221282118,-86.822577066,361,"4008 AMES DR, NASHVILLE, TN, 37218","Match","Exact","4008 AMES DR, NASHVILLE, TN, 37218",97184048,"R"
588862,"4008 AMY KAY CT NW","ALBUQUERQUE","NM",87107,35.137659973,-106.667267027,362,"4008 AMY KAY CT NW, ALBUQUERQUE, NM, 87107","Match","Exact","4008 AMY KAY CT NW, ALBUQUERQUE, NM, 87107",206762665,"L"
588863,"4008 ANNAS HOPE","ST CROIX","VI",820,NA,NA,363,"4008 ANNAS HOPE, ST CROIX, VI, 820","No_Match",NA,NA,NA,NA
588864,"4008 ASH TREE ST","SNELLVILLE","GA",30039,33.764832389,-84.013141404,364,"4008 ASH TREE ST, SNELLVILLE, GA, 30039","Match","Exact","4008 ASH TREE ST, SNELLVILLE, GA, 30039",632654080,"L"
588865,"4008 BELHAVEN FOREST DRIVE","GASTONIA","NC",28056,35.196377226,-81.111449486,365,"4008 BELHAVEN FOREST DRIVE, GASTONIA, NC, 28056","Match","Exact","4008 BELHAVEN FOREST DR, GASTONIA, NC, 28056",650903384,"R"
588866,"4008 BENTON RD","BOSSIER CITY","LA",71111,32.5721317200001,-93.730707179,366,"4008 BENTON RD, BOSSIER CITY, LA, 71111","Match","Exact","4008 BENTON RD, BOSSIER CITY, LA, 71111",639764919,"R"
588867,"4008 BIG THICKET DRIVE","FORT WORTH","TX",76244,32.899442637,-97.302511744,367,"4008 BIG THICKET DRIVE, FORT WORTH, TX, 76244","Match","Exact","4008 BIG THICKET DR, FORT WORTH, TX, 76244",639932189,"R"
588868,"4008 BRADY STREET","BATON ROUGE","LA",70805,30.474901523,-91.1492965319999,368,"4008 BRADY STREET, BATON ROUGE, LA, 70805","Match","Exact","4008 BRADY ST, BATON ROUGE, LA, 70805",92181677,"R"
588869,"4008 BRENTLY CIR","PANAMA CITY","FL",32405,30.2221116420001,-85.675167431,369,"4008 BRENTLY CIR, PANAMA CITY, FL, 32405","Match","Exact","4008 BRENTLY CIR, PANAMA CITY, FL, 32405",7046568,"R"
588870,"4008 CALLE SONORA OESTE 2D","LAGUNA WOODS","CA",92637,33.6019181250001,-117.734946607,370,"4008 CALLE SONORA OESTE 2D, LAGUNA WOODS, CA, 92637","Match","Non_Exact","4008 CLL SONORA OESTE, LAGUNA WOODS, CA, 92637",648694214,"R"
588871,"4008 CAMINO DEL RIO","GLENDALE","AZ",85310,NA,NA,371,"4008 CAMINO DEL RIO, GLENDALE, AZ, 85310","No_Match",NA,NA,NA,NA
588872,"4008 CAMPANIA STRADA WY","SPRING HILL","TN",37174,35.757093942,-86.888839904,372,"4008 CAMPANIA STRADA WY, SPRING HILL, TN, 37174","Match","Non_Exact","4008 CAMPANIA STRADA, SPRING HILL, TN, 37174",629204542,"L"
588873,"4008 CAVALRY DR","PLANO","TX",75023,33.052464759,-96.7055991289999,373,"4008 CAVALRY DR, PLANO, TX, 75023","Match","Exact","4008 CAVALRY DR, PLANO, TX, 75023",123488753,"R"
588874,"4008 CEDAR GATE ROAD NW","HUNTSVILLE","AL",35810,34.8061787780001,-86.6173804319999,374,"4008 CEDAR GATE ROAD NW, HUNTSVILLE, AL, 35810","Match","Non_Exact","4008 CEDAR GATE RD, HUNTSVILLE, AL, 35810",58115231,"L"
588875,"4008 CHANNING PLACE","CARY","NC",27519,35.8077970050001,-78.878628599,375,"4008 CHANNING PLACE, CARY, NC, 27519","Match","Exact","4008 CHANNING PL, CARY, NC, 27519",641591003,"L"
588876,"4008 CHARLOTTE STREET","KANSAS CITY","MO",64110,39.0541709,-94.5757574849999,376,"4008 CHARLOTTE STREET, KANSAS CITY, MO, 64110","Match","Exact","4008 CHARLOTTE ST, KANSAS CITY, MO, 64110",91447775,"R"
588877,"4008 CHASE CT","DECATUR","GA",30034,33.7000056470001,-84.2250217879999,377,"4008 CHASE CT, DECATUR, GA, 30034","Match","Exact","4008 CHASE CT, DECATUR, GA, 30034",23371436,"L"
588878,"4008 CHESTER DR","GLENVIEW","IL",60026,42.1025626680001,-87.854939805,378,"4008 CHESTER DR, GLENVIEW, IL, 60026","Match","Exact","4008 CHESTER DR, GLENVIEW, IL, 60026",639789958,"L"
588879,"4008 CLIPPER LANE","PORTSMOUTH","VA",23703,36.878810937,-76.397406199,379,"4008 CLIPPER LANE, PORTSMOUTH, VA, 23703","Match","Exact","4008 CLIPPER LN, PORTSMOUTH, VA, 23703",122190124,"L"
588880,"4008 CORAL REEF PLACE","LAKE HAVASU CITY","AZ",86406,34.4887711260001,-114.265343791,380,"4008 CORAL REEF PLACE, LAKE HAVASU CITY, AZ, 86406","Match","Exact","4008 CORAL REEF PL, LAKE HAVASU CITY, AZ, 86406",190281365,"R"
588881,"4008 CORDOVA DR","AUSTIN","TX",78759,30.404649804,-97.7339606209999,381,"4008 CORDOVA DR, AUSTIN, TX, 78759","Match","Exact","4008 CORDOVA DR, AUSTIN, TX, 78759",63929758,"R"
588882,"4008 COYOTE AVE","ISLAND PARK","ID",83429,44.5661513320001,-111.356211647,382,"4008 COYOTE AVE, ISLAND PARK, ID, 83429","Match","Non_Exact","4008 COYOTE RD, ISLAND PARK, ID, 83429",119218580,"L"
588883,"4008 CRESCENT DR","N TONAWANDA","NY",14120,43.0571981680001,-78.8226320699999,383,"4008 CRESCENT DR, N TONAWANDA, NY, 14120","Match","Exact","4008 CRESCENT DR, N TONAWANDA, NY, 14120",48696790,"R"
588884,"4008 CROWN SHORE DRIVE","DALLAS","TX",75244,32.913963602,-96.845943441,384,"4008 CROWN SHORE DRIVE, DALLAS, TX, 75244","Match","Exact","4008 CROWN SHORE DR, DALLAS, TX, 75244",102898456,"R"
588885,"4008 CRYSTAL LN LOOP SE","PUYALLUP","WA",98372,NA,NA,385,"4008 CRYSTAL LN LOOP SE, PUYALLUP, WA, 98372","No_Match",NA,NA,NA,NA
588886,"4008 E ALAN LANE","PHOENIX","AZ",85028,33.58129324,-111.995304807,386,"4008 E ALAN LANE, PHOENIX, AZ, 85028","Match","Exact","4008 E ALAN LN, PHOENIX, AZ, 85028",653306072,"L"
588887,"4008 E COLORADO ST","LONG BEACH","CA",90814,33.7698901680001,-118.14594794,387,"4008 E COLORADO ST, LONG BEACH, CA, 90814","Match","Exact","4008 E COLORADO ST, LONG BEACH, CA, 90814",141701855,"R"
588888,"4008 EAGLE DRIVE","BLACKSHEAR","GA",31516,31.282398807,-82.222652475,388,"4008 EAGLE DRIVE, BLACKSHEAR, GA, 31516","Match","Exact","4008 EAGLE DR, BLACKSHEAR, GA, 31516",639973239,"L"
588889,"4008 EBBTIDE LN","PORTSMOUTH","VA",23703,36.881192793,-76.4017364919999,389,"4008 EBBTIDE LN, PORTSMOUTH, VA, 23703","Match","Exact","4008 EBBTIDE LN, PORTSMOUTH, VA, 23703",122196795,"L"
588890,"4008 ELAINE PLACE SOUTH","COLUMBUS","OH",43227,39.936872312,-82.886803884,390,"4008 ELAINE PLACE SOUTH, COLUMBUS, OH, 43227","Match","Exact","4008 ELAINE PL S, COLUMBUS, OH, 43227",135593261,"L"
588891,"4008 EMERALD SPRING PLACE","LOUISVILLE","KY",40245,38.312178105,-85.5235172979999,391,"4008 EMERALD SPRING PLACE, LOUISVILLE, KY, 40245","Match","Exact","4008 EMERALD SPRING PL, LOUISVILLE, KY, 40245",641784258,"R"
588892,"4008 EQUESTERIAN WAY","LANCASTER","CA",93536,34.639573156,-118.201351238,392,"4008 EQUESTERIAN WAY, LANCASTER, CA, 93536","Match","Non_Exact","4008 EQUESTRIAN WAY, LANCASTER, CA, 93536",627312725,"L"
588893,"4008 ESKER DRIVE","FORT WORTH","TX",76137,NA,NA,393,"4008 ESKER DRIVE, FORT WORTH, TX, 76137","No_Match",NA,NA,NA,NA
588894,"4008 FARM HILL BLVD","REDWOOD CITY","CA",94061,37.4510923600001,-122.260294101,394,"4008 FARM HILL BLVD, REDWOOD CITY, CA, 94061","Match","Exact","4008 FARM HILL BLVD, REDWOOD CITY, CA, 94061",192386187,"R"
588895,"4008 FOREST VIEW DRIVE","EDWARDSVILLE","IL",62025,38.8063667690001,-89.91945142,395,"4008 FOREST VIEW DRIVE, EDWARDSVILLE, IL, 62025","Match","Exact","4008 FOREST VIEW DR, EDWARDSVILLE, IL, 62025",107821718,"L"
588896,"4008 FRANKLIN DRIVE","VESTAL","NY",13850,42.066253499,-75.966447945,396,"4008 FRANKLIN DRIVE, VESTAL, NY, 13850","Match","Non_Exact","4008 FRANKLIN PL, VESTAL, NY, 13850",46343752,"R"
588897,"4008 FREDERICK","WACO","TX",76707,31.544789071,-97.182282705,397,"4008 FREDERICK, WACO, TX, 76707","Match","Non_Exact","4008 FREDERICK AVE, WACO, TX, 76707",146749933,"L"
588898,"4008 GELSTON DRIVE","BALTIMORE","MD",21229,39.2956316470001,-76.682448546,398,"4008 GELSTON DRIVE, BALTIMORE, MD, 21229","Match","Exact","4008 GELSTON DR, BALTIMORE, MD, 21229",206453496,"R"
588899,"4008 GLENARBOR LANE","FORT COLLINS","CO",80524,40.601335874,-105.003155582,399,"4008 GLENARBOR LANE, FORT COLLINS, CO, 80524","Match","Exact","4008 GLENARBOR LN, FORT COLLINS, CO, 80524",188543180,"L"
588900,"4008 GRAND MANOR COURT","RALEIGH","NC",27612,35.8341193140001,-78.712856341,400,"4008 GRAND MANOR COURT, RALEIGH, NC, 27612","Match","Exact","4008 GRAND MANOR CT, RALEIGH, NC, 27612",72620559,"R"
588901,"4008 HERSCHEL AVENUE","DALLAS","TX",75219,32.820682667,-96.807967834,401,"4008 HERSCHEL AVENUE, DALLAS, TX, 75219","Match","Exact","4008 HERSCHEL AVE, DALLAS, TX, 75219",102906785,"R"
588902,"4008 HICKORY FAIRWAY DR","WOODSTOCK","GA",30188,34.1641059190001,-84.435374066,402,"4008 HICKORY FAIRWAY DR, WOODSTOCK, GA, 30188","Match","Exact","4008 HICKORY FAIRWAY DR, WOODSTOCK, GA, 30188",219045695,"L"
588903,"4008 HUNTERS RIDGE DR SW APT 12","HUNTSVILLE","AL",35802,34.6781853690001,-86.586378764,403,"4008 HUNTERS RIDGE DR SW APT 12, HUNTSVILLE, AL, 35802","Match","Exact","4008 HUNTERS RIDGE DR SW, HUNTSVILLE, AL, 35802",58214992,"L"
588904,"4008 INSPIRATION CIRCLE","CARROLLTON","TX",75010,33.019405184,-96.925317997,404,"4008 INSPIRATION CIRCLE, CARROLLTON, TX, 75010","Match","Exact","4008 INSPIRATION CIR, CARROLLTON, TX, 75010",103400803,"R"
588905,"4008 LAKE GLEN ROAD","FAIRFAX","VA",22033,38.8736166740001,-77.382960597,405,"4008 LAKE GLEN ROAD, FAIRFAX, VA, 22033","Match","Exact","4008 LAKE GLEN RD, FAIRFAX, VA, 22033",635444904,"R"
588906,"4008 LAKE SHORE RD S","DENVER","NC",28037,35.5052623510001,-80.979886592,406,"4008 LAKE SHORE RD S, DENVER, NC, 28037","Match","Exact","4008 LAKE SHORE RD S, DENVER, NC, 28037",69535057,"R"
588907,"4008 LEXMARK LANE UNIT 103","ROCKLEDGE","FL",32955,NA,NA,407,"4008 LEXMARK LANE UNIT 103, ROCKLEDGE, FL, 32955","No_Match",NA,NA,NA,NA
588908,"4008 MAINE AVENUE","BALTIMORE","MD",21207,39.3271436910001,-76.686145733,408,"4008 MAINE AVENUE, BALTIMORE, MD, 21207","Match","Exact","4008 MAINE AVE, BALTIMORE, MD, 21207",206405317,"R"
588909,"4008 MARYS FANCY","CHRISTIANSTED","VI",820,NA,NA,409,"4008 MARYS FANCY, CHRISTIANSTED, VI, 820","No_Match",NA,NA,NA,NA
588910,"4008 MIAMI ROAD","CINCINNATI","OH",45227,39.148128775,-84.369205944,410,"4008 MIAMI ROAD, CINCINNATI, OH, 45227","Match","Exact","4008 MIAMI RD, CINCINNATI, OH, 45227",103939526,"R"
588911,"4008 MONTICELLO","GARFIELD HEIGHTS","OH",44125,NA,NA,411,"4008 MONTICELLO, GARFIELD HEIGHTS, OH, 44125","No_Match",NA,NA,NA,NA
588912,"4008 N SHERIDAN RD","CHICAGO","IL",60613,41.954805477,-87.654557809,412,"4008 N SHERIDAN RD, CHICAGO, IL, 60613","Match","Exact","4008 N SHERIDAN RD, CHICAGO, IL, 60613",111762190,"L"
588913,"4008 N STORY RD APT 1211","IRVING","TX",75038,32.8608827050001,-96.976100705,413,"4008 N STORY RD APT 1211, IRVING, TX, 75038","Match","Non_Exact","4008 N STORY RD, IRVING, TX, 75038",653853999,"L"
588914,"4008 NC HWY 710","PEMBROKE","NC",28372,34.7239688930001,-79.211973373,414,"4008 NC HWY 710, PEMBROKE, NC, 28372","Match","Non_Exact","4008 STATE HWY 710, PEMBROKE, NC, 28372",638452452,"R"
588915,"4008 NORTH 48TH STREET","MILWAUKEE","WI",53216,43.0901803130001,-87.97348109,415,"4008 NORTH 48TH STREET, MILWAUKEE, WI, 53216","Match","Exact","4008 N 48TH ST, MILWAUKEE, WI, 53216",77731546,"R"
588916,"4008 NORTH COLLEGE AVENUE","INDIANAPOLIS","IN",46206,39.82906975,-86.145092464,416,"4008 NORTH COLLEGE AVENUE, INDIANAPOLIS, IN, 46206","Match","Non_Exact","4008 N COLLEGE AVE, INDIANAPOLIS, IN, 46205",107989025,"L"
588917,"4008 NUITE DRIVE","HEPHZIBAH","GA",30815,33.3774484460001,-82.087535738,417,"4008 NUITE DRIVE, HEPHZIBAH, GA, 30815","Match","Exact","4008 NUITE DR, HEPHZIBAH, GA, 30815",619214277,"L"
588918,"4008 NUITE DRIVE","HEPZIBAH","GA",30815,33.3774484460001,-82.087535738,418,"4008 NUITE DRIVE, HEPZIBAH, GA, 30815","Match","Non_Exact","4008 NUITE DR, HEPHZIBAH, GA, 30815",619214277,"L"
588919,"4008 NW 13TH PLACE","GAINESVILLE","FL",32605,29.664920544,-82.3856007809999,419,"4008 NW 13TH PLACE, GAINESVILLE, FL, 32605","Match","Exact","4008 NW 13TH PL, GAINESVILLE, FL, 32605",6847174,"R"
588920,"4008 ORDAZ CT","DUBLIN","CA",94568,37.712863935,-121.873092993,420,"4008 ORDAZ CT, DUBLIN, CA, 94568","Match","Exact","4008 ORDAZ CT, DUBLIN, CA, 94568",640786003,"R"
588921,"4008 PEAK LOOKOUT DRIVE","AUSTIN","TX",78738,30.3272873780001,-97.975415019,421,"4008 PEAK LOOKOUT DRIVE, AUSTIN, TX, 78738","Match","Exact","4008 PEAK LOOKOUT DR, AUSTIN, TX, 78738",600639783,"R"
588922,"4008 PHILADELPHIA PL","ENID","OK",73703,36.4210062330001,-97.928944298,422,"4008 PHILADELPHIA PL, ENID, OK, 73703","Match","Exact","4008 PHILADELPHIA PL, ENID, OK, 73703",154087212,"L"
588923,"4008 PHILLIPS COURT","MARS","PA",16046,40.7067122240001,-80.053119207,423,"4008 PHILLIPS COURT, MARS, PA, 16046","Match","Exact","4008 PHILLIPS CT, MARS, PA, 16046",607358665,"L"
588924,"4008 PINE RUN CIRCLE","ST AUGUSTINE","FL",32086,29.8135926160001,-81.3441560969999,424,"4008 PINE RUN CIRCLE, ST AUGUSTINE, FL, 32086","Match","Exact","4008 PINE RUN CIR, SAINT AUGUSTINE, FL, 32086",92606311,"R"
588925,"4008 QUIGLEY ST STE 3","OAKLAND","CA",94619,37.788965653,-122.198993879,425,"4008 QUIGLEY ST STE 3, OAKLAND, CA, 94619","Match","Exact","4008 QUIGLEY ST, OAKLAND, CA, 94619",605746592,"R"
588926,"4008 RAMSEY ROAD","OKLAH0MA CITY","OK",73099,35.5131640540001,-97.685994782,426,"4008 RAMSEY ROAD, OKLAH0MA CITY, OK, 73099","Match","Non_Exact","4008 RAMSEY RD, YUKON, OK, 73099",92575971,"R"
588927,"4008 ROSEWATER LN","INDIAN TRAIL","NC",28079,35.0452245490001,-80.660216588,427,"4008 ROSEWATER LN, INDIAN TRAIL, NC, 28079","Match","Exact","4008 ROSEWATER LN, INDIAN TRAIL, NC, 28079",618498086,"R"
588928,"4008 ROUTE 28","BOICEVILLE","NY",7030,NA,NA,428,"4008 ROUTE 28, BOICEVILLE, NY, 7030","No_Match",NA,NA,NA,NA
588929,"4008 S ATCHISON WAY","AURORA","CO",80014,39.644359502,-104.824981902,429,"4008 S ATCHISON WAY, AURORA, CO, 80014","Match","Exact","4008 S ATCHISON WAY, AURORA, CO, 80014",177522881,"L"
588930,"4008 S DEARBORN APT 2","CHICAGO","IL",60609,NA,NA,430,"4008 S DEARBORN APT 2, CHICAGO, IL, 60609","No_Match",NA,NA,NA,NA
588931,"4008 S FEDERAL WAY D-103","BOISE","ID",83716,43.5652722450001,-116.177729285,431,"4008 S FEDERAL WAY D-103, BOISE, ID, 83716","Match","Non_Exact","4008 S FEDERAL WAY, BOISE, ID, 83716",628568844,"L"
588932,"4008 SAINT JOHNS CIR","CARROLLTON","TX",75010,33.040719241,-96.85472771,432,"4008 SAINT JOHNS CIR, CARROLLTON, TX, 75010","Match","Exact","4008 SAINT JOHNS CIR, CARROLLTON, TX, 75010",218072229,"R"
588933,"4008 SAND HARBOUR LANE","ELK GROVE","CA",95758,38.4142561800001,-121.457803109,433,"4008 SAND HARBOUR LANE, ELK GROVE, CA, 95758","Match","Exact","4008 SAND HARBOUR LN, ELK GROVE, CA, 95758",133396458,"L"
588934,"4008 SAPLING WAY","TRIANGLE","VA",22172,38.542618195,-77.315102235,434,"4008 SAPLING WAY, TRIANGLE, VA, 22172","Match","Exact","4008 SAPLING WAY, TRIANGLE, VA, 22172",619934492,"L"
588935,"4008 SAW MILL COURT","CHESAPEAKE","VA",23321,36.794272097,-76.398593998,435,"4008 SAW MILL COURT, CHESAPEAKE, VA, 23321","Match","Exact","4008 SAW MILL CT, CHESAPEAKE, VA, 23321",121780100,"L"
588936,"4008 SE CAMELOT DR","LAWTON","OK",73501,34.6029224600001,-98.341518078,436,"4008 SE CAMELOT DR, LAWTON, OK, 73501","Match","Exact","4008 SE CAMELOT DR, LAWTON, OK, 73501",15003817,"L"
588937,"4008 SHARONDALE DR","FLOWER MOUND","TX",75022,33.027625404,-97.092832793,437,"4008 SHARONDALE DR, FLOWER MOUND, TX, 75022","Match","Exact","4008 SHARONDALE DR, FLOWER MOUND, TX, 75022",103424696,"L"
588938,"4008 SHERRY LANE","ADDISON","TX",75001,32.9440891890001,-96.8466532259999,438,"4008 SHERRY LANE, ADDISON, TX, 75001","Match","Exact","4008 SHERRY LN, ADDISON, TX, 75001",102996079,"R"
588939,"4008 SHILLINGFORD DR","RICHMOND","VA",23223,37.5472109790001,-77.3791239879999,439,"4008 SHILLINGFORD DR, RICHMOND, VA, 23223","Match","Exact","4008 SHILLINGFORD DR, RICHMOND, VA, 23223",106666456,"L"
588940,"4008 SHOALS DRIVE","OKEMOS","MI",48864,42.697930505,-84.394128816,440,"4008 SHOALS DRIVE, OKEMOS, MI, 48864","Match","Exact","4008 SHOALS DR, OKEMOS, MI, 48864",17511936,"L"
588941,"4008 SOPHORA ST","LAWRENCE","KS",66049,38.9910191220001,-95.291124027,441,"4008 SOPHORA ST, LAWRENCE, KS, 66049","Match","Exact","4008 SOPHORA ST, LAWRENCE, KS, 66049",618063621,"R"
588942,"4008 SOUTH A","RICHMOND","IN",47374,39.826470505,-84.846506571,442,"4008 SOUTH A, RICHMOND, IN, 47374","Match","Non_Exact","4008 S A ST, RICHMOND, IN, 47374",31335730,"R"
588943,"4008 SPRING FOREST DR","PEARLAND","TX",77584,29.536032635,-95.303724335,443,"4008 SPRING FOREST DR, PEARLAND, TX, 77584","Match","Exact","4008 SPRING FOREST DR, PEARLAND, TX, 77584",116592731,"R"
588944,"4008 STAGHORN LN","WESTON","FL",33331,26.068147541,-80.38897425,444,"4008 STAGHORN LN, WESTON, FL, 33331","Match","Exact","4008 STAGHORN LN, WESTON, FL, 33331",114782336,"R"
588945,"4008 STEVELEY ST APT 6","LOS ANGELES","CA",90008,34.0146428640001,-118.353559277,445,"4008 STEVELEY ST APT 6, LOS ANGELES, CA, 90008","Match","Non_Exact","4008 STEVELY AVE, LOS ANGELES, CA, 90008",141601456,"L"
588946,"4008 STOWE DRIVE","RICHMOND","VA",23234,37.465179683,-77.47153488,446,"4008 STOWE DRIVE, RICHMOND, VA, 23234","Match","Exact","4008 STOWE DR, RICHMOND, VA, 23234",201545571,"R"
588947,"4008 TRAVIS BLVD","MANSFIELD","TX",76063,32.5742408450001,-97.073738135,447,"4008 TRAVIS BLVD, MANSFIELD, TX, 76063","Match","Exact","4008 TRAVIS BLVD, MANSFIELD, TX, 76063",102118178,"L"
588948,"4008 TURQUOISE DRIVE","PENSACOLA","FL",32507,30.333523486,-87.352138586,448,"4008 TURQUOISE DRIVE, PENSACOLA, FL, 32507","Match","Exact","4008 TURQUOISE DR, PENSACOLA, FL, 32507",93246783,"L"
588949,"4008 US ROUTE 11","MANNSVILLE","NY",13661,43.7240403320001,-76.0639731529999,449,"4008 US ROUTE 11, MANNSVILLE, NY, 13661","Match","Exact","4008 US RTE 11, MANNSVILLE, NY, 13661",640594293,"L"
588950,"4008 VERNER STREET","COLUMBIA","SC",29204,34.023670135,-80.9830775579999,450,"4008 VERNER STREET, COLUMBIA, SC, 29204","Match","Exact","4008 VERNER ST, COLUMBIA, SC, 29204",71824141,"R"
588951,"4008 W GARRISON AVE","BALTIMORE","MD",21215,39.3428129920001,-76.681171112,451,"4008 W GARRISON AVE, BALTIMORE, MD, 21215","Match","Exact","4008 W GARRISON AVE, BALTIMORE, MD, 21215",206405395,"R"
588952,"4008 WALLACE LANE","NASHVILLE","TN",37215,36.105633326,-86.834585281,452,"4008 WALLACE LANE, NASHVILLE, TN, 37215","Match","Exact","4008 WALLACE LN, NASHVILLE, TN, 37215",97229902,"L"
588953,"4008 WASHINGTON STREET 2A","ROSLINDALE","MA",2131,42.2922998380001,-71.121864076,453,"4008 WASHINGTON STREET 2A, ROSLINDALE, MA, 2131","Match","Exact","4008 WASHINGTON ST, ROSLINDALE, MA, 02131",85696662,"L"
588954,"4008 WEAVER ROAD","HAMPTON","VA",23666,37.0255420890001,-76.422012465,454,"4008 WEAVER ROAD, HAMPTON, VA, 23666","Match","Non_Exact","4008 W WEAVER RD, HAMPTON, VA, 23666",103801440,"R"
588955,"4008 WELLINGTON DRIVE","OAKDALE","PA",15071,40.446829059,-80.206145108,455,"4008 WELLINGTON DRIVE, OAKDALE, PA, 15071","Match","Exact","4008 WELLINGTON DR, OAKDALE, PA, 15071",51923238,"L"
588956,"4008 WEST DRIVE","NORTH DINWIDDIE","VA",23803,37.216721143,-77.460171687,456,"4008 WEST DRIVE, NORTH DINWIDDIE, VA, 23803","Match","Exact","4008 WEST DR, NORTH DINWIDDIE, VA, 23803",54159393,"L"
588957,"4008 WESTER UNION SCHOOL RD","WAXHAW","NC",28173,34.925410551,-80.69350259,457,"4008 WESTER UNION SCHOOL RD, WAXHAW, NC, 28173","Match","Non_Exact","4008 WESTERN UNION SCHOOL RD, WAXHAW, NC, 28173",14172792,"L"
588958,"4008 WESTERN UNION SCHOOL RD","WAXHAW","NC",28173,34.925410551,-80.69350259,458,"4008 WESTERN UNION SCHOOL RD, WAXHAW, NC, 28173","Match","Exact","4008 WESTERN UNION SCHOOL RD, WAXHAW, NC, 28173",14172792,"L"
588959,"4008 WOODLAND FERRY RD","SEAFORD","DE",19973,38.616908633,-75.68439732,459,"4008 WOODLAND FERRY RD, SEAFORD, DE, 19973","Match","Exact","4008 WOODLAND FERRY RD, SEAFORD, DE, 19973",106090782,"L"
588960,"4008 WOODLAND TRAILS DRIVE","STILLWATER","OK",74074,36.0818285300001,-97.111639235,460,"4008 WOODLAND TRAILS DRIVE, STILLWATER, OK, 74074","Match","Non_Exact","4008 WOODLAND TRAILS AVE, STILLWATER, OK, 74074",617259541,"R"
588961,"4008 XERXES AVENUE NORTH","MINNEAPOLIS","MN",55412,45.0279853050001,-93.318615641,461,"4008 XERXES AVENUE NORTH, MINNEAPOLIS, MN, 55412","Match","Exact","4008 XERXES AVE N, MINNEAPOLIS, MN, 55412",43621083,"R"
588962,"4008 ZENITH AVE","ROBBINSDALE","MN",55422,45.028089982,-93.321175734,462,"4008 ZENITH AVE, ROBBINSDALE, MN, 55422","Match","Non_Exact","4008 ZENITH AVE N, ROBBINSDALE, MN, 55422",43621078,"R"
588963,"4008","SPRING HILL","TN",37174,NA,NA,463,"4008, SPRING HILL, TN, 37174","No_Match",NA,NA,NA,NA
588964,"40080 CASSIDY LN","PONCHATOULA","LA",70454,30.4409818190001,-90.517415689,464,"40080 CASSIDY LN, PONCHATOULA, LA, 70454","Match","Exact","40080 CASSIDY LN, PONCHATOULA, LA, 70454",635817744,"R"
588965,"40085 CEDAR DR","PAONIA","CO",81428,38.8865007740001,-107.602953246,465,"40085 CEDAR DR, PAONIA, CO, 81428","Match","Exact","40085 CEDAR DR, PAONIA, CO, 81428",122373363,"R"
588966,"40085 NATIONAL RD","BETHESDA","OH",43719,40.059624924,-81.076879005,466,"40085 NATIONAL RD, BETHESDA, OH, 43719","Match","Exact","40085 NATIONAL RD, BETHESDA, OH, 43719",640061230,"L"
588967,"40086 WEST BONNEAU","MARICOPA","AZ",85138,NA,NA,467,"40086 WEST BONNEAU, MARICOPA, AZ, 85138","No_Match",NA,NA,NA,NA
588968,"40087 MISSION BLVD STE 233","FREMONT","CA",94539,NA,NA,468,"40087 MISSION BLVD STE 233, FREMONT, CA, 94539","No_Match",NA,NA,NA,NA
588969,"40089 HULL RD","PHILADELPHIA","NY",13673,44.248977031,-75.674039025,469,"40089 HULL RD, PHILADELPHIA, NY, 13673","Match","Exact","40089 HULL RD, PHILADELPHIA, NY, 13673",154278647,"L"
588970,"4009 104TH ST","LUBBOCK","TX",79423,33.499976304,-101.899642566,470,"4009 104TH ST, LUBBOCK, TX, 79423","Match","Exact","4009 104TH ST, LUBBOCK, TX, 79423",643085926,"R"
588971,"4009 104TH STREET","LUBBOCK","TX",79423,33.499976304,-101.899642566,471,"4009 104TH STREET, LUBBOCK, TX, 79423","Match","Exact","4009 104TH ST, LUBBOCK, TX, 79423",643085926,"R"
588972,"4009 15TH AVE NE APT 707","SEATTLE","WA",98105,47.6554291260001,-122.312092845,472,"4009 15TH AVE NE APT 707, SEATTLE, WA, 98105","Match","Exact","4009 15TH AVE NE, SEATTLE, WA, 98105",186991304,"L"
588973,"4009 194TH PL NE","SAMMAMISH","WA",98074,47.6458888000001,-122.080663299,473,"4009 194TH PL NE, SAMMAMISH, WA, 98074","Match","Exact","4009 194TH PL NE, SAMMAMISH, WA, 98074",186961751,"L"
588974,"4009 21ST PLACE","TEMPLE HILLS","MD",20748,38.8346614800001,-76.964685016,474,"4009 21ST PLACE, TEMPLE HILLS, MD, 20748","Match","Exact","4009 21ST PL, TEMPLE HILLS, MD, 20748",76312315,"R"
588975,"4009 22ND STREET NE","WASHINGTON","DC",20018,38.9385089720001,-76.974169304,475,"4009 22ND STREET NE, WASHINGTON, DC, 20018","Match","Exact","4009 22ND ST NE, WASHINGTON, DC, 20018",76229098,"R"
588976,"4009 48TH AVE S","SEATTLE","WA",98118,47.5674618360001,-122.273268759,476,"4009 48TH AVE S, SEATTLE, WA, 98118","Match","Exact","4009 48TH AVE S, SEATTLE, WA, 98118",187031223,"R"
588977,"4009 93RD AVENUE NORTH","BROOKLYN PARK","MN",55443,45.122321739,-93.3323003579999,477,"4009 93RD AVENUE NORTH, BROOKLYN PARK, MN, 55443","Match","Non_Exact","4009 93RD AVE, BROOKLYN PARK, MN, 55443",43759390,"R"
588978,"4009 ALABAMA ST","SAN DIEGO","CA",92104,32.7505885090001,-117.14250425,478,"4009 ALABAMA ST, SAN DIEGO, CA, 92104","Match","Exact","4009 ALABAMA ST, SAN DIEGO, CA, 92104",195345289,"R"
588979,"4009 ARROWHEAD ROAD","MEMPHIS","TN",38118,35.07166956,-89.929531611,479,"4009 ARROWHEAD ROAD, MEMPHIS, TN, 38118","Match","Exact","4009 ARROWHEAD RD, MEMPHIS, TN, 38118",72921378,"R"
588980,"4009 BARKER COURT 111","FAIRFAX","VA",22032,38.839144606,-77.2666099149999,480,"4009 BARKER COURT 111, FAIRFAX, VA, 22032","Match","Exact","4009 BARKER CT, FAIRFAX, VA, 22032",76004501,"L"
588981,"4009 BAYWOODS DR","PENSACOLA","FL",32504,30.501521553,-87.170233482,481,"4009 BAYWOODS DR, PENSACOLA, FL, 32504","Match","Exact","4009 BAYWOODS DR, PENSACOLA, FL, 32504",93231529,"R"
588982,"4009 BEAVER CREEK ROAD","ALPHARETTA","GA",30022,34.0353277890001,-84.309739411,482,"4009 BEAVER CREEK ROAD, ALPHARETTA, GA, 30022","Match","Exact","4009 BEAVER CREEK RD, ALPHARETTA, GA, 30022",618448249,"R"
588983,"4009 BENNETTON WAY","LEANDER","TX",78641,30.5273050010001,-97.901446584,483,"4009 BENNETTON WAY, LEANDER, TX, 78641","Match","Non_Exact","4009 BENETTON WAY, LEANDER, TX, 78641",641748583,"L"
588984,"4009 BIBB RIDGE TRAIL","LOCUST GROVE","GA",30248,33.3157931270001,-84.10735527,484,"4009 BIBB RIDGE TRAIL, LOCUST GROVE, GA, 30248","Match","Exact","4009 BIBB RIDGE TRL, LOCUST GROVE, GA, 30248",618488757,"R"
588985,"4009 BOEING","ROBSTOWN","TX",78380,27.7820078,-97.70217551,485,"4009 BOEING, ROBSTOWN, TX, 78380","Match","Non_Exact","4009 BOEING RD, ROBSTOWN, TX, 78380",178536980,"R"
588986,"4009 BRAIDED STREAM WAY APT 1C","INDIANAPOLIS","IN",46268,39.904510723,-86.2280332409999,486,"4009 BRAIDED STREAM WAY APT 1C, INDIANAPOLIS, IN, 46268","Match","Exact","4009 BRAIDED STREAM WAY, INDIANAPOLIS, IN, 46268",108017251,"R"
588987,"4009 BRIMESTONE WAY","GREENBRIER","TN",37073,36.411527214,-86.800616384,487,"4009 BRIMESTONE WAY, GREENBRIER, TN, 37073","Match","Exact","4009 BRIMESTONE WAY, GREENBRIER, TN, 37073",637314677,"R"
588988,"4009 BROOKWATER CT","LEXINGTON","KY",40515,37.967359957,-84.5114337049999,488,"4009 BROOKWATER CT, LEXINGTON, KY, 40515","Match","Exact","4009 BROOKWATER CT, LEXINGTON, KY, 40515",31938679,"R"
588989,"4009 CARMELL PLACE","WEST FARGO","ND",58078,46.8178838000001,-96.901114317,489,"4009 CARMELL PLACE, WEST FARGO, ND, 58078","Match","Exact","4009 CARMELL PL, WEST FARGO, ND, 58078",151478738,"L"
588990,"4009 CARMERL VIEW ROAD NUM 168","SAN DIEGO","CA",92130,NA,NA,490,"4009 CARMERL VIEW ROAD NUM 168, SAN DIEGO, CA, 92130","No_Match",NA,NA,NA,NA
588991,"4009 CARMICHEAL DRIVE","PLANO","TX",75204,33.087483181,-96.772640069,491,"4009 CARMICHEAL DRIVE, PLANO, TX, 75204","Match","Non_Exact","4009 CARMICHAEL DR, PLANO, TX, 75024",123558458,"R"
588992,"4009 CARROLLTON AVENUE","INDIANAPOLIS","IN",46205,39.829096566,-86.1436515839999,492,"4009 CARROLLTON AVENUE, INDIANAPOLIS, IN, 46205","Match","Exact","4009 CARROLLTON AVE, INDIANAPOLIS, IN, 46205",107990003,"R"
588993,"4009 CHERRYWOOD LANE","LOGANVILLE","GA",30052,33.756194045,-83.9256420249999,493,"4009 CHERRYWOOD LANE, LOGANVILLE, GA, 30052","Match","Non_Exact","4009 CHERRYWOOD DR, LOGANVILLE, GA, 30052",627204110,"R"
588994,"4009 CORKWOOD COURT","COLUMBIA","MO",65203,38.927801011,-92.3960553919999,494,"4009 CORKWOOD COURT, COLUMBIA, MO, 65203","Match","Exact","4009 CORKWOOD CT, COLUMBIA, MO, 65203",23491711,"L"
588995,"4009 CORNING PLACE DR STE E2-388","CHARLOTTE","NC",28216,NA,NA,495,"4009 CORNING PLACE DR STE E2-388, CHARLOTTE, NC, 28216","No_Match",NA,NA,NA,NA
588996,"4009 COUNTY ROUTE 57","OSWEGO","NY",13126,43.423447804,-76.480204848,496,"4009 COUNTY ROUTE 57, OSWEGO, NY, 13126","Match","Exact","4009 CO RTE 57, OSWEGO, NY, 13126",57844199,"L"
588997,"4009 CRANE AVE","INDEPENDENCE","MO",64055,39.0465389620001,-94.404945842,497,"4009 CRANE AVE, INDEPENDENCE, MO, 64055","Match","Non_Exact","4009 CRANE CIR, INDEPENDENCE, MO, 64055",91470323,"L"
588998,"4009 CYPRESS GROVE","LAUDERHILL","FL",33312,26.0515373700001,-80.1786738719999,498,"4009 CYPRESS GROVE, LAUDERHILL, FL, 33312","Match","Non_Exact","4009 CYPRESS DR, LAUDERHILL, FL, 33312",114728743,"R"
588999,"4009 DAVID DR","ROWLETT","TX",75088,32.898763151,-96.572785459,499,"4009 DAVID DR, ROWLETT, TX, 75088","Match","Exact","4009 DAVID DR, ROWLETT, TX, 75088",103173517,"L"
589000,"4009 DOVER STREET","DEER PARK","TX",77536,29.675762799,-95.114408582,500,"4009 DOVER STREET, DEER PARK, TX, 77536","Match","Exact","4009 DOVER ST, DEER PARK, TX, 77536",96106396,"L"
