"ID","Address","City","State","Zip","lat","long","id","input_address","match_indicator","match_type","matched_address","tiger_line_id","tiger_side"
479001,"303 THOMPSON STREET","URBANA","OH",43078,40.1008290730001,-83.756547424,1,"303 THOMPSON STREET, URBANA, OH, 43078","Match","Exact","303 THOMPSON ST, URBANA, OH, 43078",134662359,"L"
479002,"303 THORN HOLLOW DRIVE","APEX","NC",27523,35.75029812,-78.8703414139999,2,"303 THORN HOLLOW DRIVE, APEX, NC, 27523","Match","Exact","303 THORN HOLLOW DR, APEX, NC, 27523",72602166,"L"
479003,"303 THREE CROSS DR","ROSWELL","NM",88201,33.445274096,-104.510333831,3,"303 THREE CROSS DR, ROSWELL, NM, 88201","Match","Exact","303 THREE CROSS DR, ROSWELL, NM, 88201",131765863,"R"
479004,"303 TIBBETT CIRCLE","FITCHBURG","MA",1420,42.557414339,-71.812878229,4,"303 TIBBETT CIRCLE, FITCHBURG, MA, 1420","Match","Exact","303 TIBBETT CIR, FITCHBURG, MA, 01420",623906113,"R"
479005,"303 TIMBER CREEK DR","TUTTLE","OK",73089,NA,NA,5,"303 TIMBER CREEK DR, TUTTLE, OK, 73089","No_Match",NA,NA,NA,NA
479006,"303 TIMBER MILL CIRCLE","CARROLLTON","GA",30116,33.6049173000001,-85.002336127,6,"303 TIMBER MILL CIRCLE, CARROLLTON, GA, 30116","Match","Exact","303 TIMBER MILL CIR, CARROLLTON, GA, 30116",17123873,"L"
479007,"303 TOWNSHIP ROAD 208 N","DE GRAFF","OH",43318,NA,NA,7,"303 TOWNSHIP ROAD 208 N, DE GRAFF, OH, 43318","No_Match",NA,NA,NA,NA
479008,"303 TRAIL 8","BURLINGTON","NC",27215,36.0774754510001,-79.459165861,8,"303 TRAIL 8, BURLINGTON, NC, 27215","Match","Non_Exact","303 TRL EIGHT, BURLINGTON, NC, 27215",71663497,"R"
479009,"303 TRAMWAY PLACE","GOLDSBORO","NC",27534,35.310662705,-77.8593103489999,9,"303 TRAMWAY PLACE, GOLDSBORO, NC, 27534","Match","Exact","303 TRAMWAY PL, GOLDSBORO, NC, 27534",14425490,"L"
479010,"303 TRIANGLE","DAYTON","OH",45419,39.7094933430001,-84.1665295349999,10,"303 TRIANGLE, DAYTON, OH, 45419","Match","Non_Exact","303 TRIANGLE AVE, DAYTON, OH, 45419",143581547,"L"
479011,"303 TRIMBLE AVENUE","CARY","NC",27511,35.7688311950001,-78.803779263,11,"303 TRIMBLE AVENUE, CARY, NC, 27511","Match","Exact","303 TRIMBLE AVE, CARY, NC, 27511",639836145,"R"
479012,"303 TRITON COURT","MOUNT PLEASANT","SC",29464,32.8538452560001,-79.875061809,12,"303 TRITON COURT, MOUNT PLEASANT, SC, 29464","Match","Exact","303 TRITON CT, MOUNT PLEASANT, SC, 29464",108906566,"L"
479013,"303 TWIN DOLPHIN DRIVE FLOOR 6","REDWOOD SHORES","CA",94065,37.5224255750001,-122.260499372,13,"303 TWIN DOLPHIN DRIVE FLOOR 6, REDWOOD SHORES, CA, 94065","Match","Non_Exact","303 TWIN DOLPHIN DR, REDWOOD CITY, CA, 94065",604980780,"L"
479014,"303 TWIN SPRINGS RD","GEORGETOWN","TX",78633,30.7027250510001,-97.7840300839999,14,"303 TWIN SPRINGS RD, GEORGETOWN, TX, 78633","Match","Exact","303 TWIN SPRINGS RD, GEORGETOWN, TX, 78633",126414553,"R"
479015,"303 TYLER WY","LOLO","MT",59847,46.7623598870001,-114.072770732,15,"303 TYLER WY, LOLO, MT, 59847","Match","Exact","303 TYLER WAY, LOLO, MT, 59847",205240507,"R"
479016,"303 UNION SPRINGS ROAD","TUSKEGEE","AL",36083,32.406919438,-85.6717903909999,16,"303 UNION SPRINGS ROAD, TUSKEGEE, AL, 36083","Match","Exact","303 UNION SPRINGS RD, TUSKEGEE, AL, 36083",69129196,"R"
479017,"303 UNION STREET","BAY SAINT LOUIS","MS",39520,30.3093528160001,-89.3346030279999,17,"303 UNION STREET, BAY SAINT LOUIS, MS, 39520","Match","Exact","303 UNION ST, BAY SAINT LOUIS, MS, 39520",642897336,"R"
479018,"303 UNIVERSITY AVENUE","NEWARK","NJ",7102,40.7387411550001,-74.175423702,18,"303 UNIVERSITY AVENUE, NEWARK, NJ, 7102","Match","Exact","303 UNIVERSITY AVE, NEWARK, NJ, 07102",63486045,"R"
479019,"303 VALLEY VIEW DR","EDWARDSVILLE","IL",62025,38.7817734820001,-89.967403,19,"303 VALLEY VIEW DR, EDWARDSVILLE, IL, 62025","Match","Exact","303 VALLEY VIEW DR, EDWARDSVILLE, IL, 62025",107717598,"L"
479020,"303 VANDENBERG","BARKSDALE AFB","LA",71110,32.5051251410001,-93.682259637,20,"303 VANDENBERG, BARKSDALE AFB, LA, 71110","Match","Non_Exact","303 VANDENBERG AVE, BARKSDALE AFB, LA, 71110",108509547,"L"
479021,"303 VASSAR AVE","STRATFORD","NJ",8084,39.8356362870001,-75.0106204209999,21,"303 VASSAR AVE, STRATFORD, NJ, 8084","Match","Exact","303 VASSAR AVE, STRATFORD, NJ, 08084",134357295,"L"
479022,"303 VERNON AVE","BROOKLYN","NY",11206,40.6956676780001,-73.9401751039999,22,"303 VERNON AVE, BROOKLYN, NY, 11206","Match","Exact","303 VERNON AVE, BROOKLYN, NY, 11206",642653420,"L"
479023,"303 VERNON AVENUE 15H","BROOKLYN","NY",11206,40.6956676780001,-73.9401751039999,23,"303 VERNON AVENUE 15H, BROOKLYN, NY, 11206","Match","Exact","303 VERNON AVE, BROOKLYN, NY, 11206",642653420,"L"
479024,"303 VERNON AVENUE 1Z","BROOKLYN","NY",11206,40.6956676780001,-73.9401751039999,24,"303 VERNON AVENUE 1Z, BROOKLYN, NY, 11206","Match","Exact","303 VERNON AVE, BROOKLYN, NY, 11206",642653420,"L"
479025,"303 VERNON AVENUE 9D","BROOKLYN","NY",11206,40.6956676780001,-73.9401751039999,25,"303 VERNON AVENUE 9D, BROOKLYN, NY, 11206","Match","Exact","303 VERNON AVE, BROOKLYN, NY, 11206",642653420,"L"
479026,"303 VERNON AVENUE 9G","BROOKLYN","NY",11206,40.6956676780001,-73.9401751039999,26,"303 VERNON AVENUE 9G, BROOKLYN, NY, 11206","Match","Exact","303 VERNON AVE, BROOKLYN, NY, 11206",642653420,"L"
479027,"303 VERNON AVENUE APARTMENT 11B","BROOKLYN","NY",11206,40.6956676780001,-73.9401751039999,27,"303 VERNON AVENUE APARTMENT 11B, BROOKLYN, NY, 11206","Match","Exact","303 VERNON AVE, BROOKLYN, NY, 11206",642653420,"L"
479028,"303 VICTORIA DR","GLENN HEIGHTS","TX",75154,32.564935801,-96.851263236,28,"303 VICTORIA DR, GLENN HEIGHTS, TX, 75154","Match","Exact","303 VICTORIA DR, GLENN HEIGHTS, TX, 75154",102998138,"R"
479029,"303 VILLAGE DR","JOHNSON CITY","TN",37604,36.346177164,-82.3816962129999,29,"303 VILLAGE DR, JOHNSON CITY, TN, 37604","Match","Exact","303 VILLAGE DR, JOHNSON CITY, TN, 37604",127945845,"L"
479030,"303 VILLAMIL METRO PLAZA TOWERS APT","SAN JUAN","PR",907,NA,NA,30,"303 VILLAMIL METRO PLAZA TOWERS APT, SAN JUAN, PR, 907","No_Match",NA,NA,NA,NA
479031,"303 VILLAMIL ST APT 604","SAN JUAN","PR",907,NA,NA,31,"303 VILLAMIL ST APT 604, SAN JUAN, PR, 907","No_Match",NA,NA,NA,NA
479032,"303 VINE STREET APT 301","PHILADELPHIA","PA",19106,NA,NA,32,"303 VINE STREET APT 301, PHILADELPHIA, PA, 19106","No_Match",NA,NA,NA,NA
479033,"303 W  MILLS ST","SANDUSKY","MI",48471,43.4153686540001,-82.8383994069999,33,"303 W  MILLS ST, SANDUSKY, MI, 48471","Match","Exact","303 W MILLS ST, SANDUSKY, MI, 48471",111052103,"R"
479034,"303 W 10TH STREET","SOUTHPORT","NC",28461,33.9294657140001,-78.02509069,34,"303 W 10TH STREET, SOUTHPORT, NC, 28461","Match","Exact","303 W 10TH ST, SOUTHPORT, NC, 28461",153169274,"L"
479035,"303 W 154TH STREET APT 2C","BRONX","NY",10039,NA,NA,35,"303 W 154TH STREET APT 2C, BRONX, NY, 10039","No_Match",NA,NA,NA,NA
479036,"303 W 16TH ST","IDAHO FALLS","ID",83402,43.4835641290001,-112.038745921,36,"303 W 16TH ST, IDAHO FALLS, ID, 83402","Match","Exact","303 W 16TH ST, IDAHO FALLS, ID, 83402",119119117,"L"
479037,"303 W 18TH ST","CONCORDIA","KS",66901,39.559465706,-97.663032393,37,"303 W 18TH ST, CONCORDIA, KS, 66901","Match","Exact","303 W 18TH ST, CONCORDIA, KS, 66901",148207472,"L"
479038,"303 W 21ST STREET","MERCED","CA",95340,37.304375641,-120.478178958,38,"303 W 21ST STREET, MERCED, CA, 95340","Match","Exact","303 W 21ST ST, MERCED, CA, 95340",125282208,"R"
479039,"303 W 23RD STREET","LUMBERTON","NC",28358,34.633561355,-79.010797284,39,"303 W 23RD STREET, LUMBERTON, NC, 28358","Match","Exact","303 W 23RD ST, LUMBERTON, NC, 28358",49136925,"L"
479040,"303 W 2ND","MAXWELL","NE",69151,41.0771209120001,-100.528623711,40,"303 W 2ND, MAXWELL, NE, 69151","Match","Non_Exact","303 2ND ST, MAXWELL, NE, 69151",151239595,"R"
479041,"303 W 5TH ST-412","JAMESTOWN","NY",14701,NA,NA,41,"303 W 5TH ST-412, JAMESTOWN, NY, 14701","No_Match",NA,NA,NA,NA
479042,"303 W 66TH STREET 5JE","NEW YORK","NY",10023,40.7760720040001,-73.98735168,42,"303 W 66TH STREET 5JE, NEW YORK, NY, 10023","Match","Non_Exact","303 W 66TH ST, NEW YORK, NY, 10023",59655094,"R"
479043,"303 W 6TH ST","OSMOND","NE",68765,42.361998241,-97.600032685,43,"303 W 6TH ST, OSMOND, NE, 68765","Match","Exact","303 W 6TH ST, OSMOND, NE, 68765",161746923,"L"
479044,"303 W 8TH AVENUE","CHEYENNE","WY",82001,41.1531955470001,-104.825410682,44,"303 W 8TH AVENUE, CHEYENNE, WY, 82001","Match","Exact","303 W 8TH AVE, CHEYENNE, WY, 82001",160148960,"L"
479045,"303 W BELLEVUE ST","LESLIE","MI",49251,42.451131203,-84.434719402,45,"303 W BELLEVUE ST, LESLIE, MI, 49251","Match","Exact","303 W BELLEVUE ST, LESLIE, MI, 49251",17509626,"L"
479046,"303 W BESSEMER AVE","GREENSBORO","NC",27401,36.086202273,-79.7918009059999,46,"303 W BESSEMER AVE, GREENSBORO, NC, 27401","Match","Exact","303 W BESSEMER AVE, GREENSBORO, NC, 27401",131105216,"L"
479047,"303 W BOLING","BENTON","IL",62812,37.986108277,-88.922875838,47,"303 W BOLING, BENTON, IL, 62812","Match","Non_Exact","303 W BOLING ST, BENTON, IL, 62812",92952650,"R"
479048,"303 W BROOKSIDE DRIVE","BRYAN","TX",77801,30.629619346,-96.352732239,48,"303 W BROOKSIDE DRIVE, BRYAN, TX, 77801","Match","Exact","303 W BROOKSIDE DR, BRYAN, TX, 77801",21815876,"L"
479049,"303 W BURTON ST","MURFREESBORO","TN",37130,35.84919733,-86.3923032559999,49,"303 W BURTON ST, MURFREESBORO, TN, 37130","Match","Exact","303 W BURTON ST, MURFREESBORO, TN, 37130",59013894,"L"
479050,"303 W CENTER ST","ATKINSON","IL",61235,41.4205301320001,-90.018572063,50,"303 W CENTER ST, ATKINSON, IL, 61235","Match","Exact","303 W CENTER ST, ATKINSON, IL, 61235",8907109,"L"
479051,"303 W CHESTER ST","LAFAYETTE","CO",80026,39.9952635650001,-105.093236549,51,"303 W CHESTER ST, LAFAYETTE, CO, 80026","Match","Exact","303 W CHESTER ST, LAFAYETTE, CO, 80026",188167018,"R"
479052,"303 W COLLEGE","BLACKWELL","OK",74631,36.8012957170001,-97.285589923,52,"303 W COLLEGE, BLACKWELL, OK, 74631","Match","Non_Exact","303 W COLLEGE AVE, BLACKWELL, OK, 74631",115887719,"L"
479053,"303 W CREST AVE","TAMPA","FL",33603,27.993759185,-82.4623400899999,53,"303 W CREST AVE, TAMPA, FL, 33603","Match","Exact","303 W CREST AVE, TAMPA, FL, 33603",104520718,"R"
479054,"303 W DIVISION APT 921","CHICAGO","IL",60610,NA,NA,54,"303 W DIVISION APT 921, CHICAGO, IL, 60610","No_Match",NA,NA,NA,NA
479055,"303 W DUNLAP STREET","LANCASTER","SC",29720,34.718871983,-80.773614266,55,"303 W DUNLAP STREET, LANCASTER, SC, 29720","Match","Exact","303 W DUNLAP ST, LANCASTER, SC, 29720",40703813,"R"
479056,"303 W FAIRVIEW BLVD","INGLEWOOD","CA",90302,33.9793928400001,-118.362716117,56,"303 W FAIRVIEW BLVD, INGLEWOOD, CA, 90302","Match","Exact","303 W FAIRVIEW BLVD, INGLEWOOD, CA, 90302",141653652,"R"
479057,"303 W FAY","EDINBURG","TX",78539,26.2977421160001,-98.165410766,57,"303 W FAY, EDINBURG, TX, 78539","Match","Non_Exact","303 W FAY ST, EDINBURG, TX, 78539",607620259,"R"
479058,"303 W FRANCES AVE","TAMPA","FL",33602,27.965095821,-82.4637546869999,58,"303 W FRANCES AVE, TAMPA, FL, 33602","Match","Exact","303 W FRANCES AVE, TAMPA, FL, 33602",104699365,"R"
479059,"303 W HALE","OSCEOLA","AR",72370,35.7028301240001,-89.970201414,59,"303 W HALE, OSCEOLA, AR, 72370","Match","Non_Exact","303 W HALE AVE, OSCEOLA, AR, 72370",47222143,"L"
479060,"303 W HOOD","SISTERS","OR",97759,44.2904725060001,-121.55253214,60,"303 W HOOD, SISTERS, OR, 97759","Match","Non_Exact","303 W HOOD AVE, SISTERS, OR, 97759",152544706,"L"
479061,"303 W JOAQUIN SUITE 290","SAN LEANDRO","CA",94577,37.7248426950001,-122.152798857,61,"303 W JOAQUIN SUITE 290, SAN LEANDRO, CA, 94577","Match","Non_Exact","303 JOAQUIN AVE, SAN LEANDRO, CA, 94577",125012109,"R"
479062,"303 W KAGAY AVE","EFFINGHAM","IL",62401,39.1072633090001,-88.544798956,62,"303 W KAGAY AVE, EFFINGHAM, IL, 62401","Match","Exact","303 W KAGAY AVE, EFFINGHAM, IL, 62401",94761540,"L"
479063,"303 W KALAMAMZOO ST","LANSING","MI",48901,NA,NA,63,"303 W KALAMAMZOO ST, LANSING, MI, 48901","No_Match",NA,NA,NA,NA
479064,"303 W KALAMAZOO ST","LANSING","MI",48901,42.730021772,-84.555628156,64,"303 W KALAMAZOO ST, LANSING, MI, 48901","Match","Non_Exact","303 W KALAMAZOO ST, LANSING, MI, 48933",17499253,"L"
479065,"303 W KATELLA AVE SUITE 300","ORANGE","CA",92867,NA,NA,65,"303 W KATELLA AVE SUITE 300, ORANGE, CA, 92867","Tie",NA,NA,NA,NA
479066,"303 W KIRBY AVENUE","CHAMPAIGN","IL",61820,40.098082779,-88.24683628,66,"303 W KIRBY AVENUE, CHAMPAIGN, IL, 61820","Match","Exact","303 W KIRBY AVE, CHAMPAIGN, IL, 61820",8810978,"L"
479067,"303 W LYTLE 5 POINTS RD","SPRINGBORO","OH",45066,39.5702393620001,-84.198808556,67,"303 W LYTLE 5 POINTS RD, SPRINGBORO, OH, 45066","Match","Non_Exact","303 W LYTLE-FIVE POINTS RD, SPRINGBORO, OH, 45066",159048046,"R"
479068,"303 W MAIN ST","GROVE CITY","PA",16127,41.158935533,-80.0903026509999,68,"303 W MAIN ST, GROVE CITY, PA, 16127","Match","Exact","303 W MAIN ST, GROVE CITY, PA, 16127",70649928,"R"
479069,"303 W MAIN ST","WALLACE","NC",28466,34.7339877100001,-77.999458926,69,"303 W MAIN ST, WALLACE, NC, 28466","Match","Exact","303 W MAIN ST, WALLACE, NC, 28466",13419777,"R"
479070,"303 W MASONIC VIEW AVE","ALEXANDRIA","VA",22301,38.813805367,-77.0674917589999,70,"303 W MASONIC VIEW AVE, ALEXANDRIA, VA, 22301","Match","Exact","303 W MASONIC VIEW AVE, ALEXANDRIA, VA, 22301",75987964,"R"
479071,"303 W OHIO ST APT 2018","CHICAGO","IL",60654,41.8923648100001,-87.635735253,71,"303 W OHIO ST APT 2018, CHICAGO, IL, 60654","Match","Non_Exact","303 W OHIO ST, CHICAGO, IL, 60654",111768528,"L"
479072,"303 W OHIO ST APT 2108","CHICAGO","IL",60654,41.8923648100001,-87.635735253,72,"303 W OHIO ST APT 2108, CHICAGO, IL, 60654","Match","Non_Exact","303 W OHIO ST, CHICAGO, IL, 60654",111768528,"L"
479073,"303 W PROSPECT ROAD UNIT 108","FT COLLINS","CO",80526,40.567104806,-105.080675143,73,"303 W PROSPECT ROAD UNIT 108, FT COLLINS, CO, 80526","Match","Non_Exact","303 W PROSPECT RD, FORT COLLINS, CO, 80526",648994312,"L"
479074,"303 W PROSPECT ST","RHINELANDER","WI",54501,45.630727386,-89.419006994,74,"303 W PROSPECT ST, RHINELANDER, WI, 54501","Match","Exact","303 W PROSPECT ST, RHINELANDER, WI, 54501",196610564,"L"
479075,"303 W SOUTH ST","KNOXVILLE","IL",61448,40.9069285200001,-90.28947497,75,"303 W SOUTH ST, KNOXVILLE, IL, 61448","Match","Exact","303 W SOUTH ST, KNOXVILLE, IL, 61448",9040562,"R"
479076,"303 W TRADE ST","DALLAS","NC",28034,35.3166490620001,-81.178700184,76,"303 W TRADE ST, DALLAS, NC, 28034","Match","Exact","303 W TRADE ST, DALLAS, NC, 28034",70374088,"L"
479077,"303 W VERNON AVE","LINWOOD","NJ",8221,39.36011376,-74.564676397,77,"303 W VERNON AVE, LINWOOD, NJ, 8221","Match","Exact","303 W VERNON AVE, LINWOOD, NJ, 08221",202483805,"L"
479078,"303 W WASHING ST","LAGRANGE","NC",28551,NA,NA,78,"303 W WASHING ST, LAGRANGE, NC, 28551","No_Match",NA,NA,NA,NA
479079,"303 W WASHINGTON ST","LAGRANGE","NC",28551,35.3073864990001,-77.794445798,79,"303 W WASHINGTON ST, LAGRANGE, NC, 28551","Match","Non_Exact","303 W WASHINGTON ST, LA GRANGE, NC, 28551",13873227,"L"
479080,"303 W WEBB","CARMI","IL",62821,38.0858253910001,-88.161779754,80,"303 W WEBB, CARMI, IL, 62821","Match","Non_Exact","303 W WEBB ST, CARMI, IL, 62821",38204788,"R"
479081,"303 W ZEDLER LANE","MEQUON","WI",53092,43.199332344,-87.911527769,81,"303 W ZEDLER LANE, MEQUON, WI, 53092","Match","Exact","303 W ZEDLER LN, MEQUON, WI, 53092",95904502,"L"
479082,"303 WAGNER ST","NEW ORLEANS","LA",70114,29.952706323,-90.039270519,82,"303 WAGNER ST, NEW ORLEANS, LA, 70114","Match","Exact","303 WAGNER ST, NEW ORLEANS, LA, 70114",191717427,"R"
479083,"303 WAKE DRIVE","WINSTON-SALEM","NC",27016,36.1336365350001,-80.29767512,83,"303 WAKE DRIVE, WINSTON-SALEM, NC, 27016","Match","Non_Exact","303 WAKE DR, WINSTON SALEM, NC, 27106",84628657,"R"
479084,"303 WALL RD","MAYODAN","NC",27027,36.411170531,-79.955114868,84,"303 WALL RD, MAYODAN, NC, 27027","Match","Exact","303 WALL RD, MAYODAN, NC, 27027",647181654,"R"
479085,"303 WALLACE DR","TUSKEGEE","AL",36083,32.419688642,-85.685017995,85,"303 WALLACE DR, TUSKEGEE, AL, 36083","Match","Exact","303 WALLACE DR, TUSKEGEE, AL, 36083",69127698,"R"
479086,"303 WALNBUT STREET","MARLTON","NJ",8053,NA,NA,86,"303 WALNBUT STREET, MARLTON, NJ, 8053","No_Match",NA,NA,NA,NA
479087,"303 WALNUT STREET","MARLTON","NJ",8053,39.8020476390001,-74.903138868,87,"303 WALNUT STREET, MARLTON, NJ, 8053","Match","Non_Exact","303 WALNUT AVE, MARLTON, NJ, 08053",134058673,"L"
479088,"303 WARWICK LANE","MANCHESTER","MO",63021,38.5869547120001,-90.523580486,88,"303 WARWICK LANE, MANCHESTER, MO, 63021","Match","Exact","303 WARWICK LN, MANCHESTER, MO, 63021",100113710,"L"
479089,"303 WASHINGTON AVE","DOWNINGTOWN","PA",19335,40.0070501010001,-75.6987681639999,89,"303 WASHINGTON AVE, DOWNINGTOWN, PA, 19335","Match","Exact","303 WASHINGTON AVE, DOWNINGTOWN, PA, 19335",179486322,"L"
479090,"303 WASHINGTON","GRAYMONT","IL",61743,40.8781549130001,-88.778299195,90,"303 WASHINGTON, GRAYMONT, IL, 61743","Match","Non_Exact","303 WASHINGTON ST, GRAYMONT, IL, 61743",22372073,"L"
479091,"303 WASHINGTON","HUDSON","MI",49247,41.8515063830001,-84.357764155,91,"303 WASHINGTON, HUDSON, MI, 49247","Match","Non_Exact","303 WASHINGTON ST, HUDSON, MI, 49247",25944839,"L"
479092,"303 WATERSIDE CT","WYLIE","TX",75098,NA,NA,92,"303 WATERSIDE CT, WYLIE, TX, 75098","No_Match",NA,NA,NA,NA
479093,"303 WAYMOUTH ST","TUCSON","AZ",85716,NA,NA,93,"303 WAYMOUTH ST, TUCSON, AZ, 85716","No_Match",NA,NA,NA,NA
479094,"303 WAYSIDE DRIVE  APT 231","TURLOCK","CA",95380,37.504232464,-120.845439163,94,"303 WAYSIDE DRIVE  APT 231, TURLOCK, CA, 95380","Match","Exact","303 WAYSIDE DR, TURLOCK, CA, 95380",102595049,"L"
479095,"303 WEEPING WILLOW DRIVE","SAVANNAH","GA",31419,32.0286126250001,-81.253521566,95,"303 WEEPING WILLOW DRIVE, SAVANNAH, GA, 31419","Match","Exact","303 WEEPING WILLOW DR, SAVANNAH, GA, 31419",641580838,"L"
479096,"303 WELLINGTON ROAD","BUFFALO","NY",14216,42.952242267,-78.8518119509999,96,"303 WELLINGTON ROAD, BUFFALO, NY, 14216","Match","Exact","303 WELLINGTON RD, BUFFALO, NY, 14216",48289536,"R"
479097,"303 WEST 11TH ST","GILLETTE","WY",82716,44.2846475810001,-105.507893035,97,"303 WEST 11TH ST, GILLETTE, WY, 82716","Match","Exact","303 W 11TH ST, GILLETTE, WY, 82716",146351577,"L"
479098,"303 WEST 15TH","HAYS","KS",67601,38.876584284,-99.331642717,98,"303 WEST 15TH, HAYS, KS, 67601","Match","Non_Exact","303 W 15TH ST, HAYS, KS, 67601",149804204,"R"
479099,"303 WEST 2600 SOUTH UNIT 3","BOUNTIFUL","UT",84010,40.8616128850001,-111.887808285,99,"303 WEST 2600 SOUTH UNIT 3, BOUNTIFUL, UT, 84010","Match","Exact","303 W 2600 S, BOUNTIFUL, UT, 84010",229353168,"L"
479100,"303 WEST 42ND STREET SUITE 505","NEW YORK","NY",10036,40.757307881,-73.989942742,100,"303 WEST 42ND STREET SUITE 505, NEW YORK, NY, 10036","Match","Exact","303 W 42ND ST, NEW YORK, NY, 10036",650074726,"R"
479101,"303 WEST 4TH STREET","CANTON","SD",57013,43.3017912330001,-96.595360673,101,"303 WEST 4TH STREET, CANTON, SD, 57013","Match","Exact","303 W 4TH ST, CANTON, SD, 57013",176324558,"L"
479102,"303 WEST 66TH ST APT 8DE","NEW YORK","NY",10023,40.7760718210001,-73.987351255,102,"303 WEST 66TH ST APT 8DE, NEW YORK, NY, 10023","Match","Exact","303 W 66TH ST, NEW YORK, NY, 10023",59655094,"R"
479103,"303 WEST 66TH STREET APT 2 JW","NEW YORK","NY",10023,40.7760718210001,-73.987351255,103,"303 WEST 66TH STREET APT 2 JW, NEW YORK, NY, 10023","Match","Exact","303 W 66TH ST, NEW YORK, NY, 10023",59655094,"R"
479104,"303 WEST 66TH STREET APT 2HW","NEW YORK","NY",10023,40.7760718210001,-73.987351255,104,"303 WEST 66TH STREET APT 2HW, NEW YORK, NY, 10023","Match","Exact","303 W 66TH ST, NEW YORK, NY, 10023",59655094,"R"
479105,"303 WEST 66TH STREET","NEW YORK","NY",10123,40.7760718210001,-73.987351255,105,"303 WEST 66TH STREET, NEW YORK, NY, 10123","Match","Non_Exact","303 W 66TH ST, NEW YORK, NY, 10023",59655094,"R"
479106,"303 WEST BARRINGTON ROAD","PEORIA","IL",61614,40.7400794230001,-89.596518246,106,"303 WEST BARRINGTON ROAD, PEORIA, IL, 61614","Match","Exact","303 W BARRINGTON RD, PEORIA, IL, 61614",8718493,"R"
479107,"303 WEST BESSEMER AVE","GREENSBORO","NC",27401,36.086202257,-79.791800447,107,"303 WEST BESSEMER AVE, GREENSBORO, NC, 27401","Match","Exact","303 W BESSEMER AVE, GREENSBORO, NC, 27401",131105216,"L"
479108,"303 WEST CLAY STREET","CALMAR","IA",52132,43.181134136,-91.867537907,108,"303 WEST CLAY STREET, CALMAR, IA, 52132","Match","Non_Exact","303 CLAY ST, CALMAR, IA, 52132",27513029,"R"
479109,"303 WEST CLEVLAND STREET","PRAIRIE GROVE","AR",72753,35.9738635480001,-94.320580104,109,"303 WEST CLEVLAND STREET, PRAIRIE GROVE, AR, 72753","Match","Non_Exact","303 W CLEVELAND ST, PRAIRIE GROVE, AR, 72753",49057588,"R"
479110,"303 WEST CRANFORD AV","VALDOSTA","GA",31602,30.85556309,-83.292838009,110,"303 WEST CRANFORD AV, VALDOSTA, GA, 31602","Match","Exact","303 W CRANFORD AVE, VALDOSTA, GA, 31602",87717211,"R"
479111,"303 WEST CRANFORD AV","VALDOSTA",NA,NA,30.85556309,-83.292838009,111,"303 WEST CRANFORD AV, VALDOSTA, , ","Match","Exact","303 W CRANFORD AVE, VALDOSTA, GA, 31602",87717211,"R"
479112,"303 WEST HILDA STREET","TAMPA","FL",33603,27.987365997,-82.462197519,112,"303 WEST HILDA STREET, TAMPA, FL, 33603","Match","Non_Exact","303 HILDA ST, TAMPA, FL, 33603",104520853,"R"
479113,"303 WEST LEA BOULEVARD","WILMINGTON","DE",19802,39.7647702300001,-75.523119234,113,"303 WEST LEA BOULEVARD, WILMINGTON, DE, 19802","Match","Exact","303 W LEA BLVD, WILMINGTON, DE, 19802",187258703,"R"
479114,"303 WEST MAIN STREET 11K","RADFORD","VA",24141,37.134147823,-80.5751275969999,114,"303 WEST MAIN STREET 11K, RADFORD, VA, 24141","Match","Exact","303 W MAIN ST, RADFORD, VA, 24141",73615417,"L"
479115,"303 WEST MAIN STREET","ADAMSTOWN","PA",19501,40.239337289,-76.0634669899999,115,"303 WEST MAIN STREET, ADAMSTOWN, PA, 19501","Match","Exact","303 W MAIN ST, ADAMSTOWN, PA, 19501",636371720,"R"
479116,"303 WEST MINER STREET APT 2","WEST CHESTER","PA",19382,39.9567403550001,-75.607848641,116,"303 WEST MINER STREET APT 2, WEST CHESTER, PA, 19382","Match","Exact","303 W MINER ST, WEST CHESTER, PA, 19382",179490654,"R"
479117,"303 WEST MISSION STREET","STRAWBERRY POINT","IA",52076,42.684328786,-91.53887572,117,"303 WEST MISSION STREET, STRAWBERRY POINT, IA, 52076","Match","Exact","303 W MISSION ST, STRAWBERRY POINT, IA, 52076",48479446,"R"
479118,"303 WEST MOYER CIRCLE","MILFORD","DE",19963,NA,NA,118,"303 WEST MOYER CIRCLE, MILFORD, DE, 19963","No_Match",NA,NA,NA,NA
479119,"303 WEST OHIO STREET APT 2508","CHICAGO","IL",60654,41.892364818,-87.635734731,119,"303 WEST OHIO STREET APT 2508, CHICAGO, IL, 60654","Match","Exact","303 W OHIO ST, CHICAGO, IL, 60654",111768528,"L"
479120,"303 WEST OHIO STREET APT 4004","CHICAGO","IL",60654,41.892364818,-87.635734731,120,"303 WEST OHIO STREET APT 4004, CHICAGO, IL, 60654","Match","Exact","303 W OHIO ST, CHICAGO, IL, 60654",111768528,"L"
479121,"303 WEST PLEASANT ST","MANKATO","MN",56001,44.15755577,-94.0111594969999,121,"303 WEST PLEASANT ST, MANKATO, MN, 56001","Match","Exact","303 W PLEASANT ST, MANKATO, MN, 56001",28096846,"R"
479122,"303 WEST ROSS","WAXAHACHIE","TX",75165,32.3968409230001,-96.844249828,122,"303 WEST ROSS, WAXAHACHIE, TX, 75165","Match","Non_Exact","303 W ROSS ST, WAXAHACHIE, TX, 75165",640569293,"R"
479123,"303 WEST SMITH","WYOMING","IL",61491,41.059542288,-89.776436258,123,"303 WEST SMITH, WYOMING, IL, 61491","Match","Non_Exact","303 W SMITH ST, WYOMING, IL, 61491",8976226,"L"
479124,"303 WEST STATE ST APT 322","DOYLESTOWN","PA",18901,40.30747022,-75.137383458,124,"303 WEST STATE ST APT 322, DOYLESTOWN, PA, 18901","Match","Exact","303 W STATE ST, DOYLESTOWN, PA, 18901",134703364,"R"
479125,"303 WEST STATE STREET","DOYLESTOWN","NY",18901,NA,NA,125,"303 WEST STATE STREET, DOYLESTOWN, NY, 18901","No_Match",NA,NA,NA,NA
479126,"303 WEST STATE STREET","GENEVA","IL",60134,41.88776038,-88.3066122279999,126,"303 WEST STATE STREET, GENEVA, IL, 60134","Match","Exact","303 W STATE ST, GENEVA, IL, 60134",119507861,"R"
479127,"303 WEST WALL STREET","MIDLAND","TX",79701,31.997455245,-102.076944516,127,"303 WEST WALL STREET, MIDLAND, TX, 79701","Match","Exact","303 W WALL ST, MIDLAND, TX, 79701",139583445,"L"
479128,"303 WEST WASHINGTON","URBANA","IL",61801,40.105575684,-88.211509717,128,"303 WEST WASHINGTON, URBANA, IL, 61801","Match","Non_Exact","303 W WASHINGTON ST, URBANA, IL, 61801",8813186,"L"
479129,"303 WEST WAVERLY AVE","GOSHEN","IN",46526,41.5679172230001,-85.8324166369999,129,"303 WEST WAVERLY AVE, GOSHEN, IN, 46526","Match","Exact","303 W WAVERLY AVE, GOSHEN, IN, 46526",641166859,"R"
479130,"303 WESTFIELD AVENUE","CLARK","NJ",7066,40.622191679,-74.310207318,130,"303 WESTFIELD AVENUE, CLARK, NJ, 7066","Match","Exact","303 WESTFIELD AVE, CLARK, NJ, 07066",60584683,"L"
479131,"303 WESTMONT","LAREDO","TX",78041,27.5633728780001,-99.484136225,131,"303 WESTMONT, LAREDO, TX, 78041","Match","Non_Exact","303 WESTMONT DR, LAREDO, TX, 78041",21668737,"L"
479132,"303 WESTPARK ST","RIDGELAND","MS",39157,32.4468317440001,-90.153625109,132,"303 WESTPARK ST, RIDGELAND, MS, 39157","Match","Exact","303 WESTPARK ST, RIDGELAND, MS, 39157",625108941,"L"
479133,"303 WESTRIDGE CIRCLE","MT. AIRY","MD",21771,39.3841657450001,-77.168204182,133,"303 WESTRIDGE CIRCLE, MT. AIRY, MD, 21771","Match","Exact","303 WESTRIDGE CIR, MOUNT AIRY, MD, 21771",60699712,"R"
479134,"303 WESTWOOD DR","TALLAHASSEE","FL",32304,30.462756047,-84.320298221,134,"303 WESTWOOD DR, TALLAHASSEE, FL, 32304","Match","Exact","303 WESTWOOD DR, TALLAHASSEE, FL, 32304",618798672,"L"
479135,"303 WHITE RD","WATSONVILLE","CA",95076,36.9686554960001,-121.836384552,135,"303 WHITE RD, WATSONVILLE, CA, 95076","Match","Exact","303 WHITE RD, WATSONVILLE, CA, 95076",605962221,"R"
479136,"303 WILLIAM WALSTON LANE","TARBORO","NC",27886,35.802515557,-77.518031991,136,"303 WILLIAM WALSTON LANE, TARBORO, NC, 27886","Match","Exact","303 WILLIAM WALSTON LN, TARBORO, NC, 27886",90191166,"L"
479137,"303 WILLIAMS AVENUE STE 129","HUNTSVILLE","AL",35801,NA,NA,137,"303 WILLIAMS AVENUE STE 129, HUNTSVILLE, AL, 35801","Tie",NA,NA,NA,NA
479138,"303 WILLIAMS DRIVE","BASTROP","LA",71220,32.776583191,-91.935480742,138,"303 WILLIAMS DRIVE, BASTROP, LA, 71220","Match","Exact","303 WILLIAMS DR, BASTROP, LA, 71220",75377619,"L"
479139,"303 WILLIAMS DRIVE","WASHINGTON","MO",63090,38.56110684,-91.0221823749999,139,"303 WILLIAMS DRIVE, WASHINGTON, MO, 63090","Match","Non_Exact","303 WILLIAMS ST, WASHINGTON, MO, 63090",99717426,"L"
479140,"303 WILLIAMS STREET 1B","PROVIDENCE","RI",2906,41.8229641040001,-71.392602891,140,"303 WILLIAMS STREET 1B, PROVIDENCE, RI, 2906","Match","Exact","303 WILLIAMS ST, PROVIDENCE, RI, 02906",47467755,"R"
479141,"303 WIND RIDGE NE","JACKSONVILLE","AL",36265,33.834931166,-85.756179488,141,"303 WIND RIDGE NE, JACKSONVILLE, AL, 36265","Match","Exact","303 WIND RIDGE NE, JACKSONVILLE, AL, 36265",66558875,"R"
479142,"303 WINDRIDGE DR NORTH","LOCKHART","TX",78644,29.884742939,-97.6993326849999,142,"303 WINDRIDGE DR NORTH, LOCKHART, TX, 78644","Match","Exact","303 WINDRIDGE DR N, LOCKHART, TX, 78644",648788377,"L"
479143,"303 WINDSOR PL","PEACHTREE CITY","GA",30269,33.3764102820001,-84.538087306,143,"303 WINDSOR PL, PEACHTREE CITY, GA, 30269","Match","Exact","303 WINDSOR PL, PEACHTREE CITY, GA, 30269",75936382,"L"
479144,"303 WINSLOW CIR","COCOA BEACH","FL",32931,28.3763552,-80.602176675,144,"303 WINSLOW CIR, COCOA BEACH, FL, 32931","Match","Exact","303 WINSLOW CIR, COCOA BEACH, FL, 32931",93928957,"L"
479145,"303 WISTERIA DRIVE","FRANKLIN","TN",37064,35.886714539,-86.8655946229999,145,"303 WISTERIA DRIVE, FRANKLIN, TN, 37064","Match","Exact","303 WISTERIA DR, FRANKLIN, TN, 37064",73124851,"L"
479146,"303 WISTERIA WAY","RED OAK","TX",75154,32.5410773580001,-96.83896114,146,"303 WISTERIA WAY, RED OAK, TX, 75154","Match","Exact","303 WISTERIA WAY, RED OAK, TX, 75154",635882264,"R"
479147,"303 WOLF STREET","LINDEN","AL",36748,32.3041747440001,-87.7948369979999,147,"303 WOLF STREET, LINDEN, AL, 36748","Match","Exact","303 WOLF ST, LINDEN, AL, 36748",9687985,"R"
479148,"303 WOLTHAM COURT","JOPPA","MD",21085,39.437778241,-76.3700658129999,148,"303 WOLTHAM COURT, JOPPA, MD, 21085","Match","Exact","303 WOLTHAM CT, JOPPA, MD, 21085",191686363,"R"
479149,"303 WOODARDS FORD RD","CHESAPEAKE","VA",23322,36.675442263,-76.21820662,149,"303 WOODARDS FORD RD, CHESAPEAKE, VA, 23322","Match","Exact","303 WOODARDS FORD RD, CHESAPEAKE, VA, 23322",121774320,"R"
479150,"303 WOODCOCK MTN ROAD","SALISBURY MILLS","NY",12577,41.4244493670001,-74.127365536,150,"303 WOODCOCK MTN ROAD, SALISBURY MILLS, NY, 12577","Match","Exact","303 WOODCOCK MOUNTAIN RD, SALISBURY MILLS, NY, 12577",124428726,"L"
479151,"303 YOST AVENUE","SPRING CITY","PA",19475,40.1794409250001,-75.551986652,151,"303 YOST AVENUE, SPRING CITY, PA, 19475","Match","Exact","303 YOST AVE, SPRING CITY, PA, 19475",179475244,"L"
479152,"303 YOUNGER AVE","CAPITOLA","CA",95010,36.9771758640001,-121.948714134,152,"303 YOUNGER AVE, CAPITOLA, CA, 95010","Match","Exact","303 YOUNGER AVE, CAPITOLA, CA, 95010",125509617,"L"
479153,"303-222 WEST BEAVER AVENUE","STATE COLEGE","PA",16801,40.791639989,-77.86272165,153,"303-222 WEST BEAVER AVENUE, STATE COLEGE, PA, 16801","Match","Non_Exact","303 W BEAVER AVE, STATE COLLEGE, PA, 16801",50398484,"R"
479154,"303-3 E WOODLAWN RD","CHARLOTTE","NC",28217,35.1778978940001,-80.879272197,154,"303-3 E WOODLAWN RD, CHARLOTTE, NC, 28217","Match","Exact","303 E WOODLAWN RD, CHARLOTTE, NC, 28217",70534873,"L"
479155,"303","CARY","NC",27519,NA,NA,155,"303, CARY, NC, 27519","No_Match",NA,NA,NA,NA
479156,"303","CLINTON","NC",28328,NA,NA,156,"303, CLINTON, NC, 28328","No_Match",NA,NA,NA,NA
479157,"303","CLOVERDALE","CA",95425,NA,NA,157,"303, CLOVERDALE, CA, 95425","No_Match",NA,NA,NA,NA
479158,"303","EDEN PRAIRIE","MN",55346,NA,NA,158,"303, EDEN PRAIRIE, MN, 55346","No_Match",NA,NA,NA,NA
479159,"303","KEYSTONE","IA",52249,NA,NA,159,"303, KEYSTONE, IA, 52249","No_Match",NA,NA,NA,NA
479160,"303","LONG BEACH","CA",90814,NA,NA,160,"303, LONG BEACH, CA, 90814","No_Match",NA,NA,NA,NA
479161,"303","SILVER SPRING","MD",20901,NA,NA,161,"303, SILVER SPRING, MD, 20901","No_Match",NA,NA,NA,NA
479162,"303","WINFIELD","IA",52659,NA,NA,162,"303, WINFIELD, IA, 52659","No_Match",NA,NA,NA,NA
479163,"3030 17TH STREET SOUTH","ST. PETERSBURG","FL",33712,27.753838375,-82.673522818,163,"3030 17TH STREET SOUTH, ST. PETERSBURG, FL, 33712","Match","Non_Exact","3030 17TH AVE S, SAINT PETERSBURG, FL, 33712",124706143,"L"
479164,"3030 5TH ST","DAVIS","CA",95618,38.554047156,-121.711468559,164,"3030 5TH ST, DAVIS, CA, 95618","Match","Exact","3030 5TH ST, DAVIS, CA, 95618",641565826,"R"
479165,"3030 AGUA LADOSO AVE","LAS CRUCES","NM",88012,32.376871346,-106.754353329,165,"3030 AGUA LADOSO AVE, LAS CRUCES, NM, 88012","Match","Exact","3030 AGUA LADOSO AVE, LAS CRUCES, NM, 88012",641472016,"R"
479166,"3030 ALTURA","EL PASO","TX",79930,31.796745001,-106.459380995,166,"3030 ALTURA, EL PASO, TX, 79930","Match","Non_Exact","3030 ALTURA AVE, EL PASO, TX, 79930",189340523,"R"
479167,"3030 ARROWHEAD DR","LOS ANGELES","CA",90068,34.124060695,-118.327676426,167,"3030 ARROWHEAD DR, LOS ANGELES, CA, 90068","Match","Exact","3030 ARROWHEAD DR, LOS ANGELES, CA, 90068",141594611,"R"
479168,"3030 ASHWOOD ROAD","HUEYTOWN","AL",35023,33.4255162740001,-86.9883573399999,168,"3030 ASHWOOD ROAD, HUEYTOWN, AL, 35023","Match","Exact","3030 ASHWOOD RD, HUEYTOWN, AL, 35023",81711352,"L"
479169,"3030 BEACON ST","COLORADO SPRINGS","CO",80907,38.8758875340001,-104.826916211,169,"3030 BEACON ST, COLORADO SPRINGS, CO, 80907","Match","Exact","3030 BEACON ST, COLORADO SPRINGS, CO, 80907",610714553,"L"
479170,"3030 BEAR RIDGE ROAD","MORRO BAY","CA",93442,35.426833398,-120.782630202,170,"3030 BEAR RIDGE ROAD, MORRO BAY, CA, 93442","Match","Exact","3030 BEAR RIDGE RD, MORRO BAY, CA, 93442",109792906,"R"
479171,"3030 BENVENUE AVENUE","BERKELEY","CA",94705,37.8552286980001,-122.253931161,171,"3030 BENVENUE AVENUE, BERKELEY, CA, 94705","Match","Exact","3030 BENVENUE AVE, BERKELEY, CA, 94705",124998771,"R"
479172,"3030 BERTRAND ST","HOUSTON","TX",77093,29.886745105,-95.3382197509999,172,"3030 BERTRAND ST, HOUSTON, TX, 77093","Match","Exact","3030 BERTRAND ST, HOUSTON, TX, 77093",96056756,"R"
479173,"3030 BIGHORN AVE","CODY","WY",82414,44.533425063,-109.0295026,173,"3030 BIGHORN AVE, CODY, WY, 82414","Match","Non_Exact","3030 BIG HORN AVE, CODY, WY, 82414",612521409,"R"
479174,"3030 BINGHAMPTON LANE","LAWRENCEVILLE","GA",30044,33.944283269,-84.0774182549999,174,"3030 BINGHAMPTON LANE, LAWRENCEVILLE, GA, 30044","Match","Exact","3030 BINGHAMPTON LN, LAWRENCEVILLE, GA, 30044",88951056,"L"
479175,"3030 BINGHAMPTON","LAWRENCEVILLE","GA",30044,33.944283269,-84.0774182549999,175,"3030 BINGHAMPTON, LAWRENCEVILLE, GA, 30044","Match","Non_Exact","3030 BINGHAMPTON LN, LAWRENCEVILLE, GA, 30044",88951056,"L"
479176,"3030 BLUEBIRD LANE APT 101","MELBANE","NC",27302,36.0639308310001,-79.297977401,176,"3030 BLUEBIRD LANE APT 101, MELBANE, NC, 27302","Match","Non_Exact","3030 BLUEBIRD LN, MEBANE, NC, 27302",650820598,"R"
479177,"3030 BOGOTA PLACE","DULLAS","VA",20189,NA,NA,177,"3030 BOGOTA PLACE, DULLAS, VA, 20189","No_Match",NA,NA,NA,NA
479178,"3030 BRIDGEWAY SUITE 117","SAUSALITO","CA",94965,37.870022927,-122.503428266,178,"3030 BRIDGEWAY SUITE 117, SAUSALITO, CA, 94965","Match","Exact","3030 BRIDGEWAY, SAUSALITO, CA, 94965",192785827,"R"
479179,"3030 BRIDGEWAY SUITE 303","SAUSALITO","CA",94965,37.870022927,-122.503428266,179,"3030 BRIDGEWAY SUITE 303, SAUSALITO, CA, 94965","Match","Exact","3030 BRIDGEWAY, SAUSALITO, CA, 94965",192785827,"R"
479180,"3030 CAFFEY STREET","HERNANDO","MS",38632,34.816602333,-89.995202883,180,"3030 CAFFEY STREET, HERNANDO, MS, 38632","Match","Exact","3030 CAFFEY ST, HERNANDO, MS, 38632",91821423,"R"
479181,"3030 CANDIES LANE","CLEVELAND","TN",37312,35.200994064,-84.905700656,181,"3030 CANDIES LANE, CLEVELAND, TN, 37312","Match","Exact","3030 CANDIES LN, CLEVELAND, TN, 37312",57571032,"R"
479182,"3030 CHEROKEE LN","MOUNT VERNON","WA",98273,48.427115375,-122.301538454,182,"3030 CHEROKEE LN, MOUNT VERNON, WA, 98273","Match","Exact","3030 CHEROKEE LN, MOUNT VERNON, WA, 98273",183650558,"L"
479183,"3030 CLANCY DRIVE","DUMFRIES","VA",22026,38.5763793520001,-77.30289931,183,"3030 CLANCY DRIVE, DUMFRIES, VA, 22026","Match","Exact","3030 CLANCY DR, DUMFRIES, VA, 22026",640174817,"L"
479184,"3030 CLAREMONT RD","GRAND PRAIRIE","TX",75052,NA,NA,184,"3030 CLAREMONT RD, GRAND PRAIRIE, TX, 75052","No_Match",NA,NA,NA,NA
479185,"3030 CLINTON AVENUE","STICKNEY","IL",60402,NA,NA,185,"3030 CLINTON AVENUE, STICKNEY, IL, 60402","No_Match",NA,NA,NA,NA
479186,"3030 CONGRESS BLVD APT 103","BATON ROUGE","LA",70808,30.4146127340001,-91.135886055,186,"3030 CONGRESS BLVD APT 103, BATON ROUGE, LA, 70808","Match","Exact","3030 CONGRESS BLVD, BATON ROUGE, LA, 70808",92184966,"R"
479187,"3030 CONGRESS BLVD APT 64","BATON ROUGE","LA",70808,30.4146127340001,-91.135886055,187,"3030 CONGRESS BLVD APT 64, BATON ROUGE, LA, 70808","Match","Exact","3030 CONGRESS BLVD, BATON ROUGE, LA, 70808",92184966,"R"
479188,"3030 CONTINENTAL COLONY PKWY","ATLANTA","GA",30331,33.6820070320001,-84.4937918049999,188,"3030 CONTINENTAL COLONY PKWY, ATLANTA, GA, 30331","Match","Non_Exact","3030 CONTINENTAL COLONY PKWY SW, ATLANTA, GA, 30331",635610709,"L"
479189,"3030 COTTON CREEK PL","CASPER","WY",82604,42.818721505,-106.417243591,189,"3030 COTTON CREEK PL, CASPER, WY, 82604","Match","Exact","3030 COTTON CREEK PL, CASPER, WY, 82604",149020590,"R"
479190,"3030 COVENANT PLACE","WALDORF","MD",20603,38.629284849,-77.01332243,190,"3030 COVENANT PLACE, WALDORF, MD, 20603","Match","Exact","3030 COVENANT PL, WALDORF, MD, 20603",25384762,"L"
479191,"3030 COWBOY DR","DALLAS","TX",75237,32.657521746,-96.8647963719999,191,"3030 COWBOY DR, DALLAS, TX, 75237","Match","Exact","3030 COWBOY DR, DALLAS, TX, 75237",619132830,"L"
479192,"3030 CR 62","ROSHARON","TX",77583,29.405292945,-95.422755299,192,"3030 CR 62, ROSHARON, TX, 77583","Match","Exact","3030 CR 62, ROSHARON, TX, 77583",646501499,"R"
479193,"3030 DECATUR AVE","ST. LOUIS PARK","MN",55426,44.948100567,-93.393259776,193,"3030 DECATUR AVE, ST. LOUIS PARK, MN, 55426","Match","Non_Exact","3030 DECATUR AVE S, SAINT LOUIS PARK, MN, 55426",43612250,"R"
479194,"3030 DIXIE HWY","WATERFORD","MI",48328,42.675617231,-83.3525170619999,194,"3030 DIXIE HWY, WATERFORD, MI, 48328","Match","Exact","3030 DIXIE HWY, WATERFORD, MI, 48328",69821881,"R"
479195,"3030 DUNVALE RD","HOUSTON","TX",77063,29.732623222,-95.5141214609999,195,"3030 DUNVALE RD, HOUSTON, TX, 77063","Match","Exact","3030 DUNVALE RD, HOUSTON, TX, 77063",96619879,"R"
479196,"3030 E FERN BROOK DR","EAGLE","ID",83616,43.7102993180001,-116.316370378,196,"3030 E FERN BROOK DR, EAGLE, ID, 83616","Match","Exact","3030 E FERN BROOK DR, EAGLE, ID, 83616",117880785,"R"
479197,"3030 E JACKSON APT S51","ANAHEIM","CA",92806,NA,NA,197,"3030 E JACKSON APT S51, ANAHEIM, CA, 92806","No_Match",NA,NA,NA,NA
479198,"3030 E MISSION BLVD","FAYETTEVILLE","AR",72703,36.087685854,-94.118359665,198,"3030 E MISSION BLVD, FAYETTEVILLE, AR, 72703","Match","Exact","3030 E MISSION BLVD, FAYETTEVILLE, AR, 72703",49061097,"L"
479199,"3030 EAGLE LAKE SHORE ROAD","VICKSBURG","MS",39183,32.481818563,-91.023931483,199,"3030 EAGLE LAKE SHORE ROAD, VICKSBURG, MS, 39183","Match","Exact","3030 EAGLE LAKE SHORE RD, VICKSBURG, MS, 39183",635267153,"L"
479200,"3030 EAST 13TH COURT","PANAMA CITY","FL",32401,30.1717060730001,-85.6184100259999,200,"3030 EAST 13TH COURT, PANAMA CITY, FL, 32401","Match","Exact","3030 E 13TH CT, PANAMA CITY, FL, 32401",614887198,"R"
479201,"3030 EASTSIDE ST","HOUSTON","TX",77098,29.737365595,-95.424778202,201,"3030 EASTSIDE ST, HOUSTON, TX, 77098","Match","Exact","3030 EASTSIDE ST, HOUSTON, TX, 77098",96125727,"R"
479202,"3030 ELGIN DR APT C","RIVERSIDE","CA",92507,33.9855242400001,-117.332043371,202,"3030 ELGIN DR APT C, RIVERSIDE, CA, 92507","Match","Exact","3030 ELGIN DR, RIVERSIDE, CA, 92507",608993276,"L"
479203,"3030 ELMSIDE APT 105","HOUSTON","TX",77042,29.7323901070001,-95.543235351,203,"3030 ELMSIDE APT 105, HOUSTON, TX, 77042","Match","Non_Exact","3030 ELMSIDE DR, HOUSTON, TX, 77042",96619707,"R"
479204,"3030 ELMSIDE DR 26","HOUSTON","TX",77042,29.7323901070001,-95.543235351,204,"3030 ELMSIDE DR 26, HOUSTON, TX, 77042","Match","Exact","3030 ELMSIDE DR, HOUSTON, TX, 77042",96619707,"R"
479205,"3030 FRANCE AVENUE 237","SAINT LOUIS PARK","MN",55416,44.9474414950001,-93.328868095,205,"3030 FRANCE AVENUE 237, SAINT LOUIS PARK, MN, 55416","Match","Non_Exact","3030 FRANCE AVE S, SAINT LOUIS PARK, MN, 55416",43627539,"R"
479206,"3030 GRAND BAY BLVD U 315","LONGBOAT KEY","FL",34228,27.37657346,-82.617956149,206,"3030 GRAND BAY BLVD U 315, LONGBOAT KEY, FL, 34228","Match","Exact","3030 GRAND BAY BLVD, LONGBOAT KEY, FL, 34228",16435787,"R"
479207,"3030 GROVE AVE","RICHMOND","VA",23221,37.556012245,-77.477354159,207,"3030 GROVE AVE, RICHMOND, VA, 23221","Match","Exact","3030 GROVE AVE, RICHMOND, VA, 23221",201535369,"R"
479208,"3030 HARDING AVE","BRONX","NY",10465,40.8166714880001,-73.8105460099999,208,"3030 HARDING AVE, BRONX, NY, 10465","Match","Exact","3030 HARDING AVE, BRONX, NY, 10465",80307637,"R"
479209,"3030 HARRISON STREET","SAN BERNARDINO","CA",92404,34.1460440860001,-117.264452005,209,"3030 HARRISON STREET, SAN BERNARDINO, CA, 92404","Match","Non_Exact","3030 HARRISON ST N, SAN BERNARDINO, CA, 92404",144655825,"L"
479210,"3030 HESTER AVENUE 607","DALLAS","TX",75205,32.824342991,-96.7859261199999,210,"3030 HESTER AVENUE 607, DALLAS, TX, 75205","Match","Exact","3030 HESTER AVE, DALLAS, TX, 75205",103200802,"R"
479211,"3030 HILTON ST","MASSILLON","OH",44646,40.7997947700001,-81.477914687,211,"3030 HILTON ST, MASSILLON, OH, 44646","Match","Non_Exact","3030 HILTON ST NW, MASSILLON, OH, 44646",623990351,"L"
479212,"3030 HIRSCHFIELD RD 44B","SPRING","TX",77373,30.043224077,-95.381033021,212,"3030 HIRSCHFIELD RD 44B, SPRING, TX, 77373","Match","Exact","3030 HIRSCHFIELD RD, SPRING, TX, 77373",642113340,"L"
479213,"3030 HIRSCHFIELD RD APT 25D","SPRING","TX",77373,30.043224077,-95.381033021,213,"3030 HIRSCHFIELD RD APT 25D, SPRING, TX, 77373","Match","Exact","3030 HIRSCHFIELD RD, SPRING, TX, 77373",642113340,"L"
479214,"3030 HOLMES AVENUE SOUTH 507","MINNEAPOLIS","MN",55408,44.9477609830001,-93.299565781,214,"3030 HOLMES AVENUE SOUTH 507, MINNEAPOLIS, MN, 55408","Match","Exact","3030 HOLMES AVE S, MINNEAPOLIS, MN, 55408",43628464,"R"
479215,"3030 HUDSON STREET","NEW ORLEANS","LA",70114,29.9238093480001,-90.027575013,215,"3030 HUDSON STREET, NEW ORLEANS, LA, 70114","Match","Exact","3030 HUDSON ST, NEW ORLEANS, LA, 70114",191720022,"L"
479216,"3030 HUDSON","NEW ORLEANS","LA",70114,29.9238093480001,-90.027575013,216,"3030 HUDSON, NEW ORLEANS, LA, 70114","Match","Non_Exact","3030 HUDSON ST, NEW ORLEANS, LA, 70114",191720022,"L"
479217,"3030 HUNTERS RUN","GARDENDALE","AL",35071,33.631346223,-86.7982699149999,217,"3030 HUNTERS RUN, GARDENDALE, AL, 35071","Match","Exact","3030 HUNTERS RUN, GARDENDALE, AL, 35071",81762971,"L"
479218,"3030 ISLAND DRIVE","REDDING","CA",96001,40.5136482130001,-122.36526509,218,"3030 ISLAND DRIVE, REDDING, CA, 96001","Match","Exact","3030 ISLAND DR, REDDING, CA, 96001",126657054,"L"
479219,"3030 IVY HILL LANE","IRVING","TX",75063,32.9000455240001,-96.984142763,219,"3030 IVY HILL LANE, IRVING, TX, 75063","Match","Exact","3030 IVY HILL LN, IRVING, TX, 75063",646743083,"L"
479220,"3030 JOHNSON AVE","SAN LUIS OBISPO","CA",93401,35.2686113520001,-120.63912476,220,"3030 JOHNSON AVE, SAN LUIS OBISPO, CA, 93401","Match","Exact","3030 JOHNSON AVE, SAN LUIS OBISPO, CA, 93401",645357731,"R"
479221,"3030 JON JON CT","ORLANDO","FL",32822,28.501112913,-81.291701942,221,"3030 JON JON CT, ORLANDO, FL, 32822","Match","Exact","3030 JON JON CT, ORLANDO, FL, 32822",94316068,"L"
479222,"3030 JULY STREET APARTMENT 230","BATON ROUGE","LA",70808,30.421771693,-91.171853499,222,"3030 JULY STREET APARTMENT 230, BATON ROUGE, LA, 70808","Match","Exact","3030 JULY ST, BATON ROUGE, LA, 70808",632762308,"R"
479223,"3030 KENNEDY","YUBA CITY","CA",95993,39.1491127140001,-121.67137676,223,"3030 KENNEDY, YUBA CITY, CA, 95993","Match","Non_Exact","3030 KENNEDY DR, YUBA CITY, CA, 95993",68567284,"L"
479224,"3030 KINSWOOD DR","LADSON","SC",29456,33.0219376860001,-80.104453746,224,"3030 KINSWOOD DR, LADSON, SC, 29456","Match","Non_Exact","3030 KINSWOOD LN, LADSON, SC, 29456",625075292,"L"
479225,"3030 KINSWOOD LN","LADSON","SC",29456,33.0219376860001,-80.104453746,225,"3030 KINSWOOD LN, LADSON, SC, 29456","Match","Exact","3030 KINSWOOD LN, LADSON, SC, 29456",625075292,"L"
479226,"3030 LAS POSITAS RD","SANTA BARBARA","CA",93105,34.436668529,-119.733728635,226,"3030 LAS POSITAS RD, SANTA BARBARA, CA, 93105","Match","Exact","3030 LAS POSITAS RD, SANTA BARBARA, CA, 93105",651648354,"R"
479227,"3030 LEADERSHIP PARKWAY UNIT 2310","RENO","NV",89503,39.550314449,-119.847934254,227,"3030 LEADERSHIP PARKWAY UNIT 2310, RENO, NV, 89503","Match","Exact","3030 LEADERSHIP PKWY, RENO, NV, 89503",107116601,"R"
479228,"3030 LEAPHART RD","WEST COLUMBIA","SC",29169,33.997328085,-81.122435062,228,"3030 LEAPHART RD, WEST COLUMBIA, SC, 29169","Match","Exact","3030 LEAPHART RD, WEST COLUMBIA, SC, 29169",70050657,"R"
479229,"3030 LOWERY LN","CENTRALIA","WA",98531,NA,NA,229,"3030 LOWERY LN, CENTRALIA, WA, 98531","No_Match",NA,NA,NA,NA
479230,"3030 MAIN STREET","CUSTER","WA",98240,48.917105801,-122.64499093,230,"3030 MAIN STREET, CUSTER, WA, 98240","Match","Exact","3030 MAIN ST, CUSTER, WA, 98240",183793289,"R"
479231,"3030 MANITOU WAY","MADISON","WI",53711,NA,NA,231,"3030 MANITOU WAY, MADISON, WI, 53711","No_Match",NA,NA,NA,NA
479232,"3030 MARINA VILLA N","SLIDELL","LA",70461,30.212528966,-89.7801034399999,232,"3030 MARINA VILLA N, SLIDELL, LA, 70461","Match","Exact","3030 MARINA VILLA N, SLIDELL, LA, 70461",617903592,"R"
479233,"3030 MATLOCK RD","ARLINGTON","TX",76015,32.6953760660001,-97.115013171,233,"3030 MATLOCK RD, ARLINGTON, TX, 76015","Match","Exact","3030 MATLOCK RD, ARLINGTON, TX, 76015",647911445,"R"
479234,"3030 MCKINNEY APT 701","DALLAS","TX",75204,32.801201076,-96.8008955459999,234,"3030 MCKINNEY APT 701, DALLAS, TX, 75204","Match","Non_Exact","3030 MCKINNEY AVE, DALLAS, TX, 75204",102909074,"R"
479235,"3030 MCKINNEY AVE NO 205","DALLAS","TX",75204,32.801201076,-96.8008955459999,235,"3030 MCKINNEY AVE NO 205, DALLAS, TX, 75204","Match","Non_Exact","3030 MCKINNEY AVE, DALLAS, TX, 75204",102909074,"R"
479236,"3030 MCKINNEY AVENUE - SUITE 1806","DALLAS","TX",75204,32.801201076,-96.8008955459999,236,"3030 MCKINNEY AVENUE - SUITE 1806, DALLAS, TX, 75204","Match","Exact","3030 MCKINNEY AVE, DALLAS, TX, 75204",102909074,"R"
479237,"3030 MEADOWOOD LANE","WEST HARRISON","IN",47060,39.3404922720001,-84.860223595,237,"3030 MEADOWOOD LANE, WEST HARRISON, IN, 47060","Match","Non_Exact","3030 MEADOWOOD, WEST HARRISON, IN, 47060",624362940,"L"
479238,"3030 MEDINA STREET","IRVING","TX",75038,32.8186968420001,-96.986580338,238,"3030 MEDINA STREET, IRVING, TX, 75038","Match","Non_Exact","3030 MEDINA ST, IRVING, TX, 75061",635760660,"L"
479239,"3030 N 3RD ST STE 200","PHOENIX","AZ",85012,33.482355553,-112.069435585,239,"3030 N 3RD ST STE 200, PHOENIX, AZ, 85012","Match","Non_Exact","3030 N 3RD ST, PHOENIX, AZ, 85012",128919452,"L"
479240,"3030 N 60TH STREET APT 311","OMAHA","NE",68104,41.2861545380001,-96.004772921,240,"3030 N 60TH STREET APT 311, OMAHA, NE, 68104","Match","Non_Exact","3030 N 60TH ST, OMAHA, NE, 68104",116976436,"L"
479241,"3030 N 64TH DR","PHOENIX","AZ",85033,33.4827726930001,-112.198838573,241,"3030 N 64TH DR, PHOENIX, AZ, 85033","Match","Exact","3030 N 64TH DR, PHOENIX, AZ, 85033",128199880,"L"
479242,"3030 N GRESHAM AVE","CHICAGO","IL",60647,41.93649707,-87.7139956949999,242,"3030 N GRESHAM AVE, CHICAGO, IL, 60647","Match","Non_Exact","3030 N GRESHAM AVE, CHICAGO, IL, 60618",605194026,"L"
479243,"3030 N ROCKY POINT DR STE 150 A","TAMPA","FL",33607,27.9677917770001,-82.56798169,243,"3030 N ROCKY POINT DR STE 150 A, TAMPA, FL, 33607","Match","Non_Exact","3030 N ROCKY POINT DR, TAMPA, FL, 33607",104508892,"L"
479244,"3030 N ROCKY POINT DR STE 150A","TAMPA","FL",33607,27.9677917770001,-82.56798169,244,"3030 N ROCKY POINT DR STE 150A, TAMPA, FL, 33607","Match","Non_Exact","3030 N ROCKY POINT DR, TAMPA, FL, 33607",104508892,"L"
479245,"3030 N ROCKY POINT DR STE150A","TAMPA","FL",33607,27.9677917770001,-82.56798169,245,"3030 N ROCKY POINT DR STE150A, TAMPA, FL, 33607","Match","Non_Exact","3030 N ROCKY POINT DR, TAMPA, FL, 33607",104508892,"L"
479246,"3030 N ROCKY POINT DR SUITE 150A","TAMPA","FL",33607,27.9677917770001,-82.56798169,246,"3030 N ROCKY POINT DR SUITE 150A, TAMPA, FL, 33607","Match","Non_Exact","3030 N ROCKY POINT DR, TAMPA, FL, 33607",104508892,"L"
479247,"3030 N ROCKY POINT DRIVE SUITE 150","TAMPA","FL",33607,27.9677917770001,-82.56798169,247,"3030 N ROCKY POINT DRIVE SUITE 150, TAMPA, FL, 33607","Match","Non_Exact","3030 N ROCKY POINT DR, TAMPA, FL, 33607",104508892,"L"
479248,"3030 N ROCKY POINT DRIVE SUITE 150A","TAMPA","FL",33607,27.9677917770001,-82.56798169,248,"3030 N ROCKY POINT DRIVE SUITE 150A, TAMPA, FL, 33607","Match","Non_Exact","3030 N ROCKY POINT DR, TAMPA, FL, 33607",104508892,"L"
479249,"3030 NE 188TH STREET 502","AVENTURA","FL",33180,25.949442318,-80.137502538,249,"3030 NE 188TH STREET 502, AVENTURA, FL, 33180","Match","Non_Exact","3030 NE 188TH ST, AVENTURA, FL, 33180",633328909,"R"
479250,"3030 NE 26TH AVENUE","PORTLAND","OR",97212,45.5445918340001,-122.63907327,250,"3030 NE 26TH AVENUE, PORTLAND, OR, 97212","Match","Exact","3030 NE 26TH AVE, PORTLAND, OR, 97212",157506067,"R"
479251,"3030 NED SHELTON ROAD 219","NASHVILLE","TN",37217,NA,NA,251,"3030 NED SHELTON ROAD 219, NASHVILLE, TN, 37217","No_Match",NA,NA,NA,NA
479252,"3030 NED SHELTON ROAD","NASHVILLE","TN",37217,36.097902705,-86.6339916269999,252,"3030 NED SHELTON ROAD, NASHVILLE, TN, 37217","Match","Exact","3030 NED SHELTON RD, NASHVILLE, TN, 37217",617930035,"L"
479253,"3030 NETTIE ST","BUTTE","MT",59701,45.990349086,-112.492178172,253,"3030 NETTIE ST, BUTTE, MT, 59701","Match","Exact","3030 NETTIE ST, BUTTE, MT, 59701",153580784,"L"
479254,"3030 NORTH FRAZIER APT 120","CONROE","TX",77303,30.352652257,-95.47232389,254,"3030 NORTH FRAZIER APT 120, CONROE, TX, 77303","Match","Non_Exact","3030 N FRAZIER ST, CONROE, TX, 77303",79335240,"R"
479255,"3030 NORTH LAKESHORE DRIVE","CHICAGO","IL",60657,41.9372632600001,-87.634616603,255,"3030 NORTH LAKESHORE DRIVE, CHICAGO, IL, 60657","Match","Non_Exact","3030 N LAKE SHORE DR, CHICAGO, IL, 60657",639820233,"L"
479256,"3030 NORTH ROCKY POINT DRIVE","TAMPA","FL",33607,27.967787061,-82.567981733,256,"3030 NORTH ROCKY POINT DRIVE, TAMPA, FL, 33607","Match","Exact","3030 N ROCKY POINT DR, TAMPA, FL, 33607",104508892,"L"
479257,"3030 NORTHWEST EXPRESSWAY STE 200B","OKLAHOMA CITY","OK",73112,NA,NA,257,"3030 NORTHWEST EXPRESSWAY STE 200B, OKLAHOMA CITY, OK, 73112","No_Match",NA,NA,NA,NA
479258,"3030 NW 178TH AVE","PORTLAND","OR",97229,45.541476581,-122.859868443,258,"3030 NW 178TH AVE, PORTLAND, OR, 97229","Match","Exact","3030 NW 178TH AVE, PORTLAND, OR, 97229",158182303,"R"
479259,"3030 NW 30TH TERRACE","OAKLAND PARK","FL",33311,26.1637117720001,-80.1856260389999,259,"3030 NW 30TH TERRACE, OAKLAND PARK, FL, 33311","Match","Exact","3030 NW 30TH TER, OAKLAND PARK, FL, 33311",644785135,"L"
479260,"3030 NW 8TH STREET","POMPANO BEACH","FL",33069,26.2388966250001,-80.164000764,260,"3030 NW 8TH STREET, POMPANO BEACH, FL, 33069","Match","Exact","3030 NW 8TH ST, POMPANO BEACH, FL, 33069",114693987,"L"
479261,"3030 NW ELWOOD LANE","BEND","OR",97703,NA,NA,261,"3030 NW ELWOOD LANE, BEND, OR, 97703","No_Match",NA,NA,NA,NA
479262,"3030 OAKHAVEN ROAD","COLUMBIA","SC",29204,34.0316198150001,-80.994520939,262,"3030 OAKHAVEN ROAD, COLUMBIA, SC, 29204","Match","Exact","3030 OAKHAVEN RD, COLUMBIA, SC, 29204",71823870,"R"
479263,"3030 ONEAL PKWY APT M11","BOULDER","CO",80301,40.0337380990001,-105.253373342,263,"3030 ONEAL PKWY APT M11, BOULDER, CO, 80301","Match","Exact","3030 ONEAL PKWY, BOULDER, CO, 80301",220758986,"R"
479264,"3030 ONEAL PKWY R34","BOULDER","CO",80301,40.0337380990001,-105.253373342,264,"3030 ONEAL PKWY R34, BOULDER, CO, 80301","Match","Exact","3030 ONEAL PKWY, BOULDER, CO, 80301",220758986,"R"
479265,"3030 P STREET NW","WASHINGTON","DC",20007,38.909296123,-77.060346134,265,"3030 P STREET NW, WASHINGTON, DC, 20007","Match","Exact","3030 P ST NW, WASHINGTON, DC, 20007",76224963,"L"
479266,"3030 PENNSYLVANIA AVENUE","SANTA MONICA","CA",90404,34.0327226690001,-118.465363011,266,"3030 PENNSYLVANIA AVENUE, SANTA MONICA, CA, 90404","Match","Exact","3030 PENNSYLVANIA AVE, SANTA MONICA, CA, 90404",142717587,"R"
479267,"3030 PICKETT","PARMA","MI",49269,42.2779436750001,-84.668936811,267,"3030 PICKETT, PARMA, MI, 49269","Match","Non_Exact","3030 PICKETT RD, PARMA, MI, 49269",17609338,"R"
479268,"3030 PIONEER STREET","FORT WORTH","TX",76119,32.6895459020001,-97.285734227,268,"3030 PIONEER STREET, FORT WORTH, TX, 76119","Match","Exact","3030 PIONEER ST, FORT WORTH, TX, 76119",101893451,"R"
479269,"3030 PREACHER MOON ROAD","CONYERS","GA",30012,33.7687489040001,-83.9441639619999,269,"3030 PREACHER MOON ROAD, CONYERS, GA, 30012","Match","Non_Exact","3030 PREACHER MOON RD SW, CONYERS, GA, 30012",77628695,"L"
479270,"3030 PROVINCIAL DRIVE","ANN ARBOR","MI",48104,42.265675265,-83.702931587,270,"3030 PROVINCIAL DRIVE, ANN ARBOR, MI, 48104","Match","Exact","3030 PROVINCIAL DR, ANN ARBOR, MI, 48104",26016527,"R"
479271,"3030 PUALEI CIRCLE APT 311","HONOLULU","HI",96815,21.26621133,-157.815063898,271,"3030 PUALEI CIRCLE APT 311, HONOLULU, HI, 96815","Match","Exact","3030 PUALEI CIR, HONOLULU, HI, 96815",203242817,"L"
479272,"3030 PURDUE ROAD","MCDAVID","FL",32568,30.9230189360001,-87.3914101999999,272,"3030 PURDUE ROAD, MCDAVID, FL, 32568","Match","Non_Exact","3030 PURDUE RD, MC DAVID, FL, 32568",93273952,"R"
479273,"3030 Q STREET SE","WASHINGTON","DC",20019,38.871737227,-76.9639986019999,273,"3030 Q STREET SE, WASHINGTON, DC, 20019","Match","Non_Exact","3030 Q ST SE, WASHINGTON, DC, 20020",76232024,"L"
479274,"3030 REGISTER ROAD","FRUITLAND PARK","FL",34731,28.8703949010001,-81.8994677329999,274,"3030 REGISTER ROAD, FRUITLAND PARK, FL, 34731","Match","Exact","3030 REGISTER RD, FRUITLAND PARK, FL, 34731",627267036,"L"
479275,"3030 RICHARD ALLEN COURT","DENVER","CO",80205,39.7596085170001,-104.943028595,275,"3030 RICHARD ALLEN COURT, DENVER, CO, 80205","Match","Exact","3030 RICHARD ALLEN CT, DENVER, CO, 80205",177310781,"R"
479276,"3030 ROAD RUNNER WALK","MISSOURI CITY","TX",77459,29.4847454050001,-95.529240451,276,"3030 ROAD RUNNER WALK, MISSOURI CITY, TX, 77459","Match","Exact","3030 ROAD RUNNER WALK, MISSOURI CITY, TX, 77459",635276025,"L"
479277,"3030 ROSE BLOSSOM CT NW","SALEM","OR",97304,44.9773282,-123.083030654,277,"3030 ROSE BLOSSOM CT NW, SALEM, OR, 97304","Match","Exact","3030 ROSE BLOSSOM CT NW, SALEM, OR, 97304",155784240,"R"
479278,"3030 RT 307 W","AUSTINBURG","OH",44010,NA,NA,278,"3030 RT 307 W, AUSTINBURG, OH, 44010","No_Match",NA,NA,NA,NA
479279,"3030 S 46TH STREET","LINCOLN","NE",68506,40.7817818510001,-96.656298517,279,"3030 S 46TH STREET, LINCOLN, NE, 68506","Match","Exact","3030 S 46TH ST, LINCOLN, NE, 68506",28260245,"L"
479280,"3030 S ALMA SCHOOL RD UNIT 15","MESA","AZ",85210,33.359972385,-111.859084043,280,"3030 S ALMA SCHOOL RD UNIT 15, MESA, AZ, 85210","Match","Non_Exact","3030 S ALMA SCHOOL RD, MESA, AZ, 85210",128785487,"R"
479281,"3030 S ALMA SCHOOL RD","MESA","AZ",85210,33.359972385,-111.859084043,281,"3030 S ALMA SCHOOL RD, MESA, AZ, 85210","Match","Exact","3030 S ALMA SCHOOL RD, MESA, AZ, 85210",128785487,"R"
479282,"3030 SAUNDERS PLACE","TITUSVILLE","FL",32780,28.5822784380001,-80.8271257929999,282,"3030 SAUNDERS PLACE, TITUSVILLE, FL, 32780","Match","Exact","3030 SAUNDERS PL, TITUSVILLE, FL, 32780",93890948,"R"
479283,"3030 SAWDUST LN","DUBLIN","OH",43017,40.087431285,-83.096665843,283,"3030 SAWDUST LN, DUBLIN, OH, 43017","Match","Exact","3030 SAWDUST LN, DUBLIN, OH, 43017",135609288,"R"
479284,"3030 SEEVERS","DALLAS","TX",75216,32.7088738940001,-96.8217819879999,284,"3030 SEEVERS, DALLAS, TX, 75216","Match","Non_Exact","3030 SEEVERS AVE, DALLAS, TX, 75216",102948071,"L"
479285,"3030 SEEVERS","DALLAS","TX",75224,NA,NA,285,"3030 SEEVERS, DALLAS, TX, 75224","No_Match",NA,NA,NA,NA
479286,"3030 SHADOWBRIAR DRIVE APT 1314","HOUSTON","TX",77082,29.731072327,-95.599799756,286,"3030 SHADOWBRIAR DRIVE APT 1314, HOUSTON, TX, 77082","Match","Exact","3030 SHADOWBRIAR DR, HOUSTON, TX, 77082",641738033,"L"
479287,"3030 SHADOWBRIAR","HOUSTON","TX",77082,29.731072327,-95.599799756,287,"3030 SHADOWBRIAR, HOUSTON, TX, 77082","Match","Non_Exact","3030 SHADOWBRIAR DR, HOUSTON, TX, 77082",641738033,"L"
479288,"3030 SOUTH MORELAND BLVD APT 3","CLEVELAND","OH",44120,41.4765579890001,-81.590557984,288,"3030 SOUTH MORELAND BLVD APT 3, CLEVELAND, OH, 44120","Match","Exact","3030 S MORELAND BLVD, CLEVELAND, OH, 44120",638865232,"R"
479289,"3030 SOUTH RITA WAY","SANTA ANA","CA",92704,33.7065578350001,-117.889453748,289,"3030 SOUTH RITA WAY, SANTA ANA, CA, 92704","Match","Exact","3030 S RITA WAY, SANTA ANA, CA, 92704",144043190,"R"
479290,"3030 ST ANDREWS DRIVE","DULUTH","GA",30096,33.9930322480001,-84.1354889,290,"3030 ST ANDREWS DRIVE, DULUTH, GA, 30096","Match","Exact","3030 ST ANDREWS DR, DULUTH, GA, 30096",88945430,"L"
479291,"3030 SUMMER BREEZE DR","VILLA RICA","GA",30180,33.7350699990001,-84.8734071969999,291,"3030 SUMMER BREEZE DR, VILLA RICA, GA, 30180","Match","Exact","3030 SUMMER BREEZE DR, VILLA RICA, GA, 30180",16661433,"L"
479292,"3030 SUMMER STREET","HOUSTON","TX",77007,NA,NA,292,"3030 SUMMER STREET, HOUSTON, TX, 77007","No_Match",NA,NA,NA,NA
479293,"3030 SUMMIT BLVD","LINCOLN","NE",68502,40.7820363970001,-96.676915433,293,"3030 SUMMIT BLVD, LINCOLN, NE, 68502","Match","Exact","3030 SUMMIT BLVD, LINCOLN, NE, 68502",28255958,"L"
479294,"3030 SUN GLEN COURT","KATY","TX",77449,29.811319371,-95.721929997,294,"3030 SUN GLEN COURT, KATY, TX, 77449","Match","Exact","3030 SUN GLEN CT, KATY, TX, 77449",96292500,"R"
479295,"3030 SUNCREST DRIVE","SAN DIEGOA","CA",92116,32.7638823720001,-117.129865628,295,"3030 SUNCREST DRIVE, SAN DIEGOA, CA, 92116","Match","Non_Exact","3030 SUNCREST DR, SAN DIEGO, CA, 92116",195345485,"L"
479296,"3030 SUNSET DRIVE","CHARLOTTE","NC",28209,35.1923555760001,-80.8578155929999,296,"3030 SUNSET DRIVE, CHARLOTTE, NC, 28209","Match","Exact","3030 SUNSET DR, CHARLOTTE, NC, 28209",70577323,"R"
479297,"3030 SW TUTBURY TOWN RD","TOPEKA","KS",66614,39.011808747,-95.773205715,297,"3030 SW TUTBURY TOWN RD, TOPEKA, KS, 66614","Match","Exact","3030 SW TUTBURY TOWN RD, TOPEKA, KS, 66614",17899969,"L"
479298,"3030 TOP O THE WALK DRIVE","NORCO","CA",92680,33.9113212610001,-117.577863301,298,"3030 TOP O THE WALK DRIVE, NORCO, CA, 92680","Match","Non_Exact","3030 TOP O THE WALK DR, NORCO, CA, 92860",195077646,"L"
479299,"3030 W 8TH STREET STE 400","LOS ANGELES","CA",90005,34.0577444690001,-118.292601935,299,"3030 W 8TH STREET STE 400, LOS ANGELES, CA, 90005","Match","Non_Exact","3030 W 8TH ST, LOS ANGELES, CA, 90005",141605115,"L"
479300,"3030 W CHERYLLYN LANE","ANAHEIM","CA",92804,33.8228410350001,-117.994252065,300,"3030 W CHERYLLYN LANE, ANAHEIM, CA, 92804","Match","Exact","3030 W CHERYLLYN LN, ANAHEIM, CA, 92804",144119004,"L"
479301,"3030 W FUQUA ST UNIT 450958","HOUSTON","TX",77245,29.6122846850001,-95.376991996,301,"3030 W FUQUA ST UNIT 450958, HOUSTON, TX, 77245","Match","Non_Exact","3030 FUQUA ST, HOUSTON, TX, 77047",644650128,"R"
479302,"3030 W MILLPOND RD","ROPER","NC",27970,35.8441673510001,-76.607327216,302,"3030 W MILLPOND RD, ROPER, NC, 27970","Match","Non_Exact","3030 W MILL POND RD, ROPER, NC, 27970",642902063,"L"
479303,"3030 W OLYMPIC BLVD STE 217","LOS ANGELES","CA",90006,34.052615143,-118.301308358,303,"3030 W OLYMPIC BLVD STE 217, LOS ANGELES, CA, 90006","Match","Non_Exact","3030 W OLYMPIC BLVD, LOS ANGELES, CA, 90006",141604075,"L"
479304,"3030 WABASH AVE","LOS ANGELES","CA",90063,34.0493774500001,-118.195429324,304,"3030 WABASH AVE, LOS ANGELES, CA, 90063","Match","Exact","3030 WABASH AVE, LOS ANGELES, CA, 90063",141622905,"R"
479305,"3030 WEST ACACIA AVE APT J201","HEMET","CA",92545,33.743762485,-117.004092586,305,"3030 WEST ACACIA AVE APT J201, HEMET, CA, 92545","Match","Exact","3030 W ACACIA AVE, HEMET, CA, 92545",647443205,"L"
479306,"3030 WIGGINS STREET","PITTSBURGH","PA",15219,40.457443095,-79.969140777,306,"3030 WIGGINS STREET, PITTSBURGH, PA, 15219","Match","Exact","3030 WIGGINS ST, PITTSBURGH, PA, 15219",51642462,"R"
479307,"3030 WILDLIFE WAY","MORRISTOWN","TN",37814,36.2575321210001,-83.283598292,307,"3030 WILDLIFE WAY, MORRISTOWN, TN, 37814","Match","Exact","3030 WILDLIFE WAY, MORRISTOWN, TN, 37814",639360678,"R"
479308,"3030 WILLIAMSBURG LANE","LATROBE","PA",15650,40.2875441140001,-79.461969461,308,"3030 WILLIAMSBURG LANE, LATROBE, PA, 15650","Match","Non_Exact","3030 WILLIAMSBURG DR, LATROBE, PA, 15650",52946311,"R"
479309,"3030 WILSON CT UNIT 5","DENVER","CO",80205,39.7596990070001,-104.946843854,309,"3030 WILSON CT UNIT 5, DENVER, CO, 80205","Match","Exact","3030 WILSON CT, DENVER, CO, 80205",177310760,"R"
479310,"3030 WOOD VALLEY DRIVE","MCDONOUGH","GA",30253,33.4882215480001,-84.152820536,310,"3030 WOOD VALLEY DRIVE, MCDONOUGH, GA, 30253","Match","Exact","3030 WOOD VALLEY DR, MCDONOUGH, GA, 30253",23196253,"R"
479311,"3030 WOODRIDGE AVE","SOUTH BEND","IN",46615,41.6913900700001,-86.205872894,311,"3030 WOODRIDGE AVE, SOUTH BEND, IN, 46615","Match","Non_Exact","3030 WOODRIDGE DR, SOUTH BEND, IN, 46615",8060145,"R"
479312,"30300 AGOURA ROAD SUITE 270","AGUORA HILLS","CA",91301,34.1452369720001,-118.783103859,312,"30300 AGOURA ROAD SUITE 270, AGUORA HILLS, CA, 91301","Match","Non_Exact","30300 AGOURA RD, AGOURA HILLS, CA, 91301",241248293,"L"
479313,"30300 ANTELOPE RD 1421","MENIFEE","CA",92584,33.68111119,-117.168685861,313,"30300 ANTELOPE RD 1421, MENIFEE, CA, 92584","Match","Exact","30300 ANTELOPE RD, MENIFEE, CA, 92584",195084754,"R"
479314,"30300 LAKE HILLS DRIVE","BURLINGTON","WI",53105,42.693800158,-88.234945893,314,"30300 LAKE HILLS DRIVE, BURLINGTON, WI, 53105","Match","Non_Exact","30300 LAKEHILLS DR, BURLINGTON, WI, 53105",77906997,"R"
479315,"30300 TELEGRAPH ROAD 205","BINGHAM FARMS","MI",48025,NA,NA,315,"30300 TELEGRAPH ROAD 205, BINGHAM FARMS, MI, 48025","No_Match",NA,NA,NA,NA
479316,"30300 TELEGRAPH ROAD","BINGHAM FARMS","MI",48025,NA,NA,316,"30300 TELEGRAPH ROAD, BINGHAM FARMS, MI, 48025","No_Match",NA,NA,NA,NA
479317,"30301 BALD RIDGE RD N","DAVENPORT","WA",99122,47.701931792,-117.990239275,317,"30301 BALD RIDGE RD N, DAVENPORT, WA, 99122","Match","Exact","30301 BALD RIDGE RD N, DAVENPORT, WA, 99122",174753042,"L"
479318,"30301 SW 171 AVENUE","HOMESTEAD","FL",33030,25.4854416000001,-80.4680972259999,318,"30301 SW 171 AVENUE, HOMESTEAD, FL, 33030","Match","Exact","30301 SW 171ST AVE, HOMESTEAD, FL, 33030",115991737,"L"
479319,"30302 FERN DR","WILLOWICK","OH",44095,41.629684717,-81.4676148999999,319,"30302 FERN DR, WILLOWICK, OH, 44095","Match","Exact","30302 FERN DR, WILLOWICK, OH, 44095",137459215,"R"
479320,"30303 STATE ROUTE D","DREXEL","MO",64742,38.5723425910001,-94.594997483,320,"30303 STATE ROUTE D, DREXEL, MO, 64742","Match","Exact","30303 STATE RTE D, DREXEL, MO, 64742",100903689,"R"
479321,"30303 WEST ROOSEVELT ST","BUCKEYE","AZ",85396,33.457408597,-112.704041855,321,"30303 WEST ROOSEVELT ST, BUCKEYE, AZ, 85396","Match","Exact","30303 W ROOSEVELT ST, BUCKEYE, AZ, 85396",128410020,"L"
479322,"30305 DOUBLE DRIVE","WESLEY CHAPEL","FL",33545,28.242945763,-82.312780043,322,"30305 DOUBLE DRIVE, WESLEY CHAPEL, FL, 33545","Match","Exact","30305 DOUBLE DR, WESLEY CHAPEL, FL, 33545",86401681,"L"
479323,"30305 TIMBERIDGE CIR APT 201","FARMINGTON HILLS","MI",48336,NA,NA,323,"30305 TIMBERIDGE CIR APT 201, FARMINGTON HILLS, MI, 48336","No_Match",NA,NA,NA,NA
479324,"30306 DIAMONTE LANE","RANCHO PALOS VERDES","CA",90275,33.741194728,-118.328598985,324,"30306 DIAMONTE LANE, RANCHO PALOS VERDES, CA, 90275","Match","Exact","30306 DIAMONTE LN, RANCHO PALOS VERDES, CA, 90275",142816985,"L"
479325,"30306 SAINT ANDREWS DRIVE","GEORGETOWN","TX",78628,30.7139299790001,-97.670000721,325,"30306 SAINT ANDREWS DRIVE, GEORGETOWN, TX, 78628","Match","Exact","30306 SAINT ANDREWS DR, GEORGETOWN, TX, 78628",126472095,"R"
479326,"30308 FOLKLORE WAY","CARY","NC",27519,35.8476063850001,-78.897549828,326,"30308 FOLKLORE WAY, CARY, NC, 27519","Match","Non_Exact","30308 FOLKLOARE WAY, CARY, NC, 27519",646542225,"R"
479327,"30309 SE 362ND STREET","ENUMCLAW","WA",98022,NA,NA,327,"30309 SE 362ND STREET, ENUMCLAW, WA, 98022","No_Match",NA,NA,NA,NA
479328,"3031 11TH ST NW","WASHINGTON","DC",20001,38.9284683020001,-77.0274415979999,328,"3031 11TH ST NW, WASHINGTON, DC, 20001","Match","Exact","3031 11TH ST NW, WASHINGTON, DC, 20001",652614312,"R"
479329,"3031 2ND AVE S","MINNEAPOLIS","MN",55408,44.9477773680001,-93.2741230089999,329,"3031 2ND AVE S, MINNEAPOLIS, MN, 55408","Match","Exact","3031 2ND AVE S, MINNEAPOLIS, MN, 55408",43633555,"L"
479330,"3031 320TH AVENUE","BROOK PARK","MN",55007,46.054265426,-93.090175189,330,"3031 320TH AVENUE, BROOK PARK, MN, 55007","Match","Exact","3031 320TH AVE, BROOK PARK, MN, 55007",163046390,"L"
479331,"3031 49TH TERRACE S","ST PETERSBURG","FL",33712,27.7234238180001,-82.673336591,331,"3031 49TH TERRACE S, ST PETERSBURG, FL, 33712","Match","Exact","3031 49TH TER S, SAINT PETERSBURG, FL, 33712",645848192,"L"
479332,"3031 ARBOR SQUARE DRIVE","FREDERICK","MD",21701,39.460998169,-77.389620349,332,"3031 ARBOR SQUARE DRIVE, FREDERICK, MD, 21701","Match","Exact","3031 ARBOR SQUARE DR, FREDERICK, MD, 21701",604675564,"R"
479333,"3031 ASPEN HOLLOW","SUGAR LAND","TX",77479,29.568405268,-95.693815448,333,"3031 ASPEN HOLLOW, SUGAR LAND, TX, 77479","Match","Non_Exact","3031 ASPEN HOLLOW LN, SUGAR LAND, TX, 77479",635754940,"R"
479334,"3031 BEVERLY BLVD STE B","LOS ANGELES","CA",90057,34.071570916,-118.281573119,334,"3031 BEVERLY BLVD STE B, LOS ANGELES, CA, 90057","Match","Exact","3031 BEVERLY BLVD, LOS ANGELES, CA, 90057",141605194,"R"
479335,"3031 BOONE AVE N","NEW HOPE","MN",55427,45.0110302940001,-93.390961358,335,"3031 BOONE AVE N, NEW HOPE, MN, 55427","Match","Exact","3031 BOONE AVE N, NEW HOPE, MN, 55427",43824198,"L"
479336,"3031 CHEN COURT","YORKTOWN HEIGHTS","NY",10598,41.310505348,-73.805383537,336,"3031 CHEN COURT, YORKTOWN HEIGHTS, NY, 10598","Match","Exact","3031 CHEN CT, YORKTOWN HEIGHTS, NY, 10598",139779134,"R"
479337,"3031 COAL MINE AVE UNIT H","RIFLE","CO",81650,39.557114466,-107.776292216,337,"3031 COAL MINE AVE UNIT H, RIFLE, CO, 81650","Match","Exact","3031 COAL MINE AVE, RIFLE, CO, 81650",105815030,"R"
479338,"3031 CRUM RD","BROOKSVILLE","FL",34604,28.4749234550001,-82.420023461,338,"3031 CRUM RD, BROOKSVILLE, FL, 34604","Match","Exact","3031 CRUM RD, BROOKSVILLE, FL, 34604",85464696,"R"
479339,"3031 CYPRESS COVE","BALL GROUND","GA",30107,34.37321073,-84.3760446699999,339,"3031 CYPRESS COVE, BALL GROUND, GA, 30107","Match","Exact","3031 CYPRESS COVE, BALL GROUND, GA, 30107",68867908,"L"
479340,"3031 DANBURY ROAD","INDIANAPOLIS","IN",46222,39.810932531,-86.227299761,340,"3031 DANBURY ROAD, INDIANAPOLIS, IN, 46222","Match","Exact","3031 DANBURY RD, INDIANAPOLIS, IN, 46222",107978973,"R"
479341,"3031 DERRY ST","HARRISBURG","PA",17103,40.2593907400001,-76.838240802,341,"3031 DERRY ST, HARRISBURG, PA, 17103","Match","Non_Exact","3031 DERRY ST, HARRISBURG, PA, 17111",70821808,"R"
479342,"3031 E PALMER","DETROIT","MI",48211,42.372479249,-83.0399502669999,342,"3031 E PALMER, DETROIT, MI, 48211","Match","Non_Exact","3031 E PALMER AVE, DETROIT, MI, 48211",95481671,"L"
479343,"3031 E VIA CORVINA","ONTARIO","CA",91764,NA,NA,343,"3031 E VIA CORVINA, ONTARIO, CA, 91764","No_Match",NA,NA,NA,NA
479344,"3031 EAGLE HAVEN DR","WINTER HAVEN","FL",33880,27.992605005,-81.7575118569999,344,"3031 EAGLE HAVEN DR, WINTER HAVEN, FL, 33880","Match","Exact","3031 EAGLE HAVEN DR, WINTER HAVEN, FL, 33880",104824348,"R"
479345,"3031 EDSON AVE","BRONX","NY",10469,40.872549248,-73.835216061,345,"3031 EDSON AVE, BRONX, NY, 10469","Match","Exact","3031 EDSON AVE, BRONX, NY, 10469",80303979,"L"
479346,"3031 EDSON AVENUE","BRONX","NY",10469,40.872549248,-73.835216061,346,"3031 EDSON AVENUE, BRONX, NY, 10469","Match","Exact","3031 EDSON AVE, BRONX, NY, 10469",80303979,"L"
479347,"3031 ELDORADO DR","LINCOLN","NE",68516,40.720139605,-96.677037669,347,"3031 ELDORADO DR, LINCOLN, NE, 68516","Match","Exact","3031 ELDORADO DR, LINCOLN, NE, 68516",647358326,"R"
479348,"3031 ELMWOOD COURT","ATLANTA","GA",30349,33.5866898690001,-84.490903854,348,"3031 ELMWOOD COURT, ATLANTA, GA, 30349","Match","Exact","3031 ELMWOOD CT, ATLANTA, GA, 30349",623855949,"L"
479349,"3031 EPHIPHANY LANE","EAU CLAIRE","WI",54703,44.8325711740001,-91.540810924,349,"3031 EPHIPHANY LANE, EAU CLAIRE, WI, 54703","Match","Non_Exact","3031 EPIPHANY LN, EAU CLAIRE, WI, 54703",46076248,"R"
479350,"3031 FAIRFIELD RD","CHESNEE","SC",29323,35.1346085340001,-81.953537532,350,"3031 FAIRFIELD RD, CHESNEE, SC, 29323","Match","Exact","3031 FAIRFIELD RD, CHESNEE, SC, 29323",19455166,"R"
479351,"3031 FALLSTAFF RD","BALTIMORE","MD",21209,39.369335058,-76.6916867579999,351,"3031 FALLSTAFF RD, BALTIMORE, MD, 21209","Match","Exact","3031 FALLSTAFF RD, BALTIMORE, MD, 21209",647412383,"L"
479352,"3031 GENA DRIVE","DECATUR","GA",30032,33.7231939690001,-84.267662812,352,"3031 GENA DRIVE, DECATUR, GA, 30032","Match","Exact","3031 GENA DR, DECATUR, GA, 30032",23370514,"R"
479353,"3031 HACKERS CREEK ROAD","JANE LEW","WV",26378,39.0787793870001,-80.379095084,353,"3031 HACKERS CREEK ROAD, JANE LEW, WV, 26378","Match","Exact","3031 HACKERS CREEK RD, JANE LEW, WV, 26378",50008943,"R"
479354,"3031 HARVEST BEND","ERIE","PA",16506,42.073612768,-80.128584798,354,"3031 HARVEST BEND, ERIE, PA, 16506","Match","Exact","3031 HARVEST BEND, ERIE, PA, 16506",117515343,"R"
479355,"3031 HAWTHORNE DR NE","WASHINGTON","DC",20017,38.928470002,-77.007515043,355,"3031 HAWTHORNE DR NE, WASHINGTON, DC, 20017","Match","Exact","3031 HAWTHORNE DR NE, WASHINGTON, DC, 20017",635190604,"L"
479356,"3031 HOLLAND AVE","BRONX","NY",10467,40.8700356800001,-73.865259397,356,"3031 HOLLAND AVE, BRONX, NY, 10467","Match","Exact","3031 HOLLAND AVE, BRONX, NY, 10467",80303320,"L"
479357,"3031 HOLME AVENUE FIRST FLOOR","PHILADELPHIA","PA",19136,40.056618955,-75.018151898,357,"3031 HOLME AVENUE FIRST FLOOR, PHILADELPHIA, PA, 19136","Match","Exact","3031 HOLME AVE, PHILADELPHIA, PA, 19136",641940779,"L"
479358,"3031 HUMMINGBIRD LN","AUGUSTA","GA",30906,33.4137925160001,-82.042864051,358,"3031 HUMMINGBIRD LN, AUGUSTA, GA, 30906","Match","Exact","3031 HUMMINGBIRD LN, AUGUSTA, GA, 30906",55649269,"R"
479359,"3031 HWY 33","SAUKVILLE","WI",53080,43.4149678540001,-88.015245421,359,"3031 HWY 33, SAUKVILLE, WI, 53080","Match","Non_Exact","3031 STATE HWY 33, SAUKVILLE, WI, 53080",634165687,"R"
479360,"3031 HWY 60E APT 100","HENDERSON","KY",42420,NA,NA,360,"3031 HWY 60E APT 100, HENDERSON, KY, 42420","No_Match",NA,NA,NA,NA
479361,"3031 JAMES ROAD","CHARLOTTE","NC",28215,35.2518363830001,-80.7260696339999,361,"3031 JAMES ROAD, CHARLOTTE, NC, 28215","Match","Exact","3031 JAMES RD, CHARLOTTE, NC, 28215",608564338,"L"
479362,"3031 JULIA SIMPKINS ROAD","HIWASSEE","VA",24347,36.9960764320001,-80.6786403359999,362,"3031 JULIA SIMPKINS ROAD, HIWASSEE, VA, 24347","Match","Exact","3031 JULIA SIMPKINS RD, HIWASSEE, VA, 24347",47021806,"L"
479363,"3031 LOW OAK","SAN ANTONIO","TX",78232,29.5921364070001,-98.441408708,363,"3031 LOW OAK, SAN ANTONIO, TX, 78232","Match","Non_Exact","3031 LOW OAK ST, SAN ANTONIO, TX, 78232",101498232,"L"
479364,"3031 MAJESTIC OAKS LN","SAINT CHARLES","IL",60174,41.935137587,-88.267939638,364,"3031 MAJESTIC OAKS LN, SAINT CHARLES, IL, 60174","Match","Exact","3031 MAJESTIC OAKS LN, SAINT CHARLES, IL, 60174",119562027,"R"
479365,"3031 MALLARD FOREST DRIVE","CHARLOTTE","NC",28269,35.3096652500001,-80.794884962,365,"3031 MALLARD FOREST DRIVE, CHARLOTTE, NC, 28269","Match","Exact","3031 MALLARD FOREST DR, CHARLOTTE, NC, 28269",70553213,"L"
479366,"3031 MARSHALL AVE","CINCINNATI","OH",45220,39.136915248,-84.5261923149999,366,"3031 MARSHALL AVE, CINCINNATI, OH, 45220","Match","Exact","3031 MARSHALL AVE, CINCINNATI, OH, 45220",103924533,"L"
479367,"3031 MILL CREEK ROAD","MENTONE","CA",92359,34.0733186690001,-117.075271495,367,"3031 MILL CREEK ROAD, MENTONE, CA, 92359","Match","Exact","3031 MILL CREEK RD, MENTONE, CA, 92359",647135792,"L"
479368,"3031 MILL PARK TERRACE","DACULA","GA",30119,34.0558404820001,-83.917097085,368,"3031 MILL PARK TERRACE, DACULA, GA, 30119","Match","Non_Exact","3031 MILL PARK TER, DACULA, GA, 30019",88935105,"R"
479369,"3031 MORNING MIST WAY","MURFREESBORO","TN",37128,35.802666049,-86.467815604,369,"3031 MORNING MIST WAY, MURFREESBORO, TN, 37128","Match","Exact","3031 MORNING MIST WAY, MURFREESBORO, TN, 37128",606772786,"L"
479370,"3031 MUD CREEK ROAD","TROY","PA",16947,41.7685613260001,-76.7454568049999,370,"3031 MUD CREEK ROAD, TROY, PA, 16947","Match","Exact","3031 MUD CREEK RD, TROY, PA, 16947",176959442,"L"
479371,"3031 N 17TH DR","PHOENIX","AZ",85015,33.4825822010001,-112.096764336,371,"3031 N 17TH DR, PHOENIX, AZ, 85015","Match","Exact","3031 N 17TH DR, PHOENIX, AZ, 85015",128210991,"R"
479372,"3031 N 17TH DRIVE","PHOENIX","AZ",85015,33.4825822010001,-112.096764336,372,"3031 N 17TH DRIVE, PHOENIX, AZ, 85015","Match","Exact","3031 N 17TH DR, PHOENIX, AZ, 85015",128210991,"R"
479373,"3031 N GUILFORD","INDIANAPOLIS","IN",46205,39.8111858240001,-86.140163526,373,"3031 N GUILFORD, INDIANAPOLIS, IN, 46205","Match","Non_Exact","3031 GUILFORD AVE, INDIANAPOLIS, IN, 46205",107990118,"R"
479374,"3031 N HAMILTON","CHICAGO","IL",60618,41.936650322,-87.68190294,374,"3031 N HAMILTON, CHICAGO, IL, 60618","Match","Non_Exact","3031 N HAMILTON AVE, CHICAGO, IL, 60618",605236671,"R"
479375,"3031 N MARTIN AVE","SPRINGFIELD","MO",65803,NA,NA,375,"3031 N MARTIN AVE, SPRINGFIELD, MO, 65803","No_Match",NA,NA,NA,NA
479376,"3031 N SAN FERNANDO BLVD UNIT 100","BURBANK","CA",91504,34.201948913,-118.34383435,376,"3031 N SAN FERNANDO BLVD UNIT 100, BURBANK, CA, 91504","Match","Non_Exact","3031 N SAN FERNANDO BLVD, BURBANK, CA, 91504",141825022,"L"
479377,"3031 NANTUCKET COVE","CONYERS","GA",30012,33.7129563400001,-83.942668858,377,"3031 NANTUCKET COVE, CONYERS, GA, 30012","Match","Non_Exact","3031 NANTUCKET COVE NE, CONYERS, GA, 30012",23746802,"L"
479378,"3031 NE 137TH ST APT 106","SEATTLE","WA",98125,47.7279741830001,-122.294907249,378,"3031 NE 137TH ST APT 106, SEATTLE, WA, 98125","Match","Non_Exact","3031 NE 137TH ST, SEATTLE, WA, 98125",239761153,"R"
479379,"3031 NE 52ND DRIVE","OKEECHOBEE","FL",34972,27.2937194410001,-80.803663822,379,"3031 NE 52ND DRIVE, OKEECHOBEE, FL, 34972","Match","Exact","3031 NE 52ND DR, OKEECHOBEE, FL, 34972",4973830,"R"
479380,"3031 NEBRASKA","SIOUX CITY","IA",51104,42.522561583,-96.403771942,380,"3031 NEBRASKA, SIOUX CITY, IA, 51104","Match","Non_Exact","3031 NEBRASKA ST, SIOUX CITY, IA, 51104",93421534,"L"
479381,"3031 NORTH OAKLAND FOREST DRIVE","LAUDERHILL","FL",33309,26.1716439460001,-80.1843191999999,381,"3031 NORTH OAKLAND FOREST DRIVE, LAUDERHILL, FL, 33309","Match","Non_Exact","3031 N OAKLAND FOREST DR, LAUDERDALE LAKES, FL, 33309",114751710,"R"
479382,"3031 NOTTINGHAM WAY","DOTHAN","AL",36305,31.204909172,-85.459523765,382,"3031 NOTTINGHAM WAY, DOTHAN, AL, 36305","Match","Exact","3031 NOTTINGHAM WAY, DOTHAN, AL, 36305",101235303,"L"
479383,"3031 NW 1ST DRIVE","POMPANO BEACH","FL",33064,26.268160837,-80.1241842159999,383,"3031 NW 1ST DRIVE, POMPANO BEACH, FL, 33064","Match","Exact","3031 NW 1ST DR, POMPANO BEACH, FL, 33064",114742435,"L"
479384,"3031 NW 77TH STREET","MIAMI","FL",33147,25.8444965570001,-80.2464734759999,384,"3031 NW 77TH STREET, MIAMI, FL, 33147","Match","Exact","3031 NW 77TH ST, MIAMI, FL, 33147",116000819,"R"
479385,"3031 OCULUS LOOP","RIO RANCHO","NM",87144,35.2977397500001,-106.626172005,385,"3031 OCULUS LOOP, RIO RANCHO, NM, 87144","Match","Non_Exact","3031 OCULUS LOOP NE, RIO RANCHO, NM, 87144",194019223,"R"
479386,"3031 PETERSON ST","PORTAGE","IN",46368,41.5643672800001,-87.1954390829999,386,"3031 PETERSON ST, PORTAGE, IN, 46368","Match","Exact","3031 PETERSON ST, PORTAGE, IN, 46368",119910940,"L"
479387,"3031 PIEDMONT","EL PASO","TX",79902,31.787509109,-106.495205923,387,"3031 PIEDMONT, EL PASO, TX, 79902","Match","Non_Exact","3031 PIEDMONT DR, EL PASO, TX, 79902",189340988,"L"
479388,"3031 PROMONTORY PEAK DR","COLORADO SPRINGS","CO",80920,38.974765533,-104.770177462,388,"3031 PROMONTORY PEAK DR, COLORADO SPRINGS, CO, 80920","Match","Exact","3031 PROMONTORY PEAK DR, CO SPGS, CO, 80920",105566217,"R"
479389,"3031 QUAIL STREET","EVANS","CO",80620,40.3769924600001,-104.727678569,389,"3031 QUAIL STREET, EVANS, CO, 80620","Match","Exact","3031 QUAIL ST, EVANS, CO, 80620",188725497,"R"
479390,"3031 RYECROFT LANE","FRANKLIN","TN",37064,35.8743737450001,-86.812332563,390,"3031 RYECROFT LANE, FRANKLIN, TN, 37064","Match","Exact","3031 RYECROFT LN, FRANKLIN, TN, 37064",648001362,"L"
479391,"3031 S 6TH AVE","TUCSON","AZ",85713,32.1883865550001,-110.968217017,391,"3031 S 6TH AVE, TUCSON, AZ, 85713","Match","Exact","3031 S 6TH AVE, TUCSON, AZ, 85713",635907744,"L"
479392,"3031 S MIAMI AVE","MIAMI","FL",33129,25.7487216650001,-80.2085325309999,392,"3031 S MIAMI AVE, MIAMI, FL, 33129","Match","Exact","3031 S MIAMI AVE, MIAMI, FL, 33129",116019256,"L"
479393,"3031 SCOTLAND PKWY","SUN PRAIRIE","WI",53590,43.219589382,-89.230035828,393,"3031 SCOTLAND PKWY, SUN PRAIRIE, WI, 53590","Match","Exact","3031 SCOTLAND PKWY, SUN PRAIRIE, WI, 53590",636997386,"L"
479394,"3031 SECRET WOODS TRAIL","JACKSONVILLE","FL",32216,30.2698188320001,-81.586959282,394,"3031 SECRET WOODS TRAIL, JACKSONVILLE, FL, 32216","Match","Non_Exact","3031 W SECRET WOODS TL, JACKSONVILLE, FL, 32216",83974412,"L"
479395,"3031 SMYRNA RD","OZARK","MO",65721,37.051072608,-93.159784123,395,"3031 SMYRNA RD, OZARK, MO, 65721","Match","Exact","3031 SMYRNA RD, OZARK, MO, 65721",99844401,"R"
479396,"3031 SOUTH ORANGE AVE-UNIT B","SANTA ANA","CA",92707,NA,NA,396,"3031 SOUTH ORANGE AVE-UNIT B, SANTA ANA, CA, 92707","No_Match",NA,NA,NA,NA
479397,"3031 STANFORD RANCH ROAD - 2222","ROCKLIN","CA",95765,38.8147032910001,-121.259367034,397,"3031 STANFORD RANCH ROAD - 2222, ROCKLIN, CA, 95765","Match","Exact","3031 STANFORD RANCH RD, ROCKLIN, CA, 95765",633818165,"L"
479398,"3031 STANFORD RANCH ROAD - STE 2222","ROCKLIN","CA",95765,38.8147032910001,-121.259367034,398,"3031 STANFORD RANCH ROAD - STE 2222, ROCKLIN, CA, 95765","Match","Exact","3031 STANFORD RANCH RD, ROCKLIN, CA, 95765",633818165,"L"
479399,"3031 STANFORD RANCH ROAD","ROCKLIN","CA",95765,38.8147032910001,-121.259367034,399,"3031 STANFORD RANCH ROAD, ROCKLIN, CA, 95765","Match","Exact","3031 STANFORD RANCH RD, ROCKLIN, CA, 95765",633818165,"L"
479400,"3031 STEINER STREET 8","SAN FRANCISCO","CA",94123,37.7971947790001,-122.437207104,400,"3031 STEINER STREET 8, SAN FRANCISCO, CA, 94123","Match","Exact","3031 STEINER ST, SAN FRANCISCO, CA, 94123",192279656,"L"
479401,"3031 STONE BRIDGE TRAIL","CONYERS","GA",30094,33.6566629600001,-84.09199347,401,"3031 STONE BRIDGE TRAIL, CONYERS, GA, 30094","Match","Non_Exact","3031 STONE BRIDGE TRL SW, CONYERS, GA, 30094",23745317,"R"
479402,"3031 SW 5CT","FT LAUDERDALE","FL",33312,NA,NA,402,"3031 SW 5CT, FT LAUDERDALE, FL, 33312","No_Match",NA,NA,NA,NA
479403,"3031 SW GISBOURNE LANE","TOPEKA","KS",66614,39.0113982190001,-95.7747550019999,403,"3031 SW GISBOURNE LANE, TOPEKA, KS, 66614","Match","Exact","3031 SW GISBOURNE LN, TOPEKA, KS, 66614",17897859,"L"
479404,"3031 TAYLOR","DETROIT","MI",48206,42.370658787,-83.111958167,404,"3031 TAYLOR, DETROIT, MI, 48206","Match","Non_Exact","3031 TAYLOR ST, DETROIT, MI, 48206",95471609,"L"
479405,"3031 TELEGRAPH AVENUE SUITE 241","BERKELEY","CA",94704,37.855089476,-122.259772223,405,"3031 TELEGRAPH AVENUE SUITE 241, BERKELEY, CA, 94704","Match","Non_Exact","3031 TELEGRAPH AVE, BERKELEY, CA, 94705",606834987,"L"
479406,"3031 TENNESSEE AVE","KENNER","LA",70065,30.0106359660001,-90.230352884,406,"3031 TENNESSEE AVE, KENNER, LA, 70065","Match","Exact","3031 TENNESSEE AVE, KENNER, LA, 70065",93493927,"L"
479407,"3031 TERRACAP WAY","ESTERO","FL",33928,NA,NA,407,"3031 TERRACAP WAY, ESTERO, FL, 33928","No_Match",NA,NA,NA,NA
479408,"3031 TISCH WAY 110 PLAZA WEST","SAN JOSE","CA",95128,37.3171814140001,-121.948030459,408,"3031 TISCH WAY 110 PLAZA WEST, SAN JOSE, CA, 95128","Match","Exact","3031 TISCH WAY, SAN JOSE, CA, 95128",122903976,"L"
479409,"3031 W 3RD STREET","CHESTER","PA",19013,39.8305326300001,-75.393509912,409,"3031 W 3RD STREET, CHESTER, PA, 19013","Match","Exact","3031 W 3RD ST, CHESTER, PA, 19013",134891374,"L"
479410,"3031 W 7TH","LAWRENCE","KS",66049,38.9699365050001,-95.2724662539999,410,"3031 W 7TH, LAWRENCE, KS, 66049","Match","Non_Exact","3031 W 7TH ST, LAWRENCE, KS, 66049",17683289,"L"
479411,"3031 W BETHANY HOME RD","PHOENIX","AZ",85017,33.5239937960001,-112.125082202,411,"3031 W BETHANY HOME RD, PHOENIX, AZ, 85017","Match","Exact","3031 W BETHANY HOME RD, PHOENIX, AZ, 85017",128421944,"L"
479412,"3031 W COUNTRY HILL DR","TUCSON","AZ",85742,32.361779176,-111.032083835,412,"3031 W COUNTRY HILL DR, TUCSON, AZ, 85742","Match","Exact","3031 W COUNTRY HILL DR, TUCSON, AZ, 85742",606801866,"L"
479413,"3031 W GRAND BLVD STE 440","DETROIT","MI",48202,NA,NA,413,"3031 W GRAND BLVD STE 440, DETROIT, MI, 48202","Tie",NA,NA,NA,NA
479414,"3031 W MARCH LANE 117","STOCKTON","CA",95219,37.984134576,-121.350125556,414,"3031 W MARCH LANE 117, STOCKTON, CA, 95219","Match","Non_Exact","3031 W MARCH LN, STOCKTON, CA, 95219",133928648,"R"
479415,"3031 W MARCH LANE SUITE 211","STOCKTON","CA",95219,37.984134576,-121.350125556,415,"3031 W MARCH LANE SUITE 211, STOCKTON, CA, 95219","Match","Non_Exact","3031 W MARCH LN, STOCKTON, CA, 95219",133928648,"R"
479416,"3031 W MARCH LANE SUITE 212W","STOCKTON","CA",95219,37.984134576,-121.350125556,416,"3031 W MARCH LANE SUITE 212W, STOCKTON, CA, 95219","Match","Non_Exact","3031 W MARCH LN, STOCKTON, CA, 95219",133928648,"R"
479417,"3031 W MARCH LANE SUITE 230","STOCKTON","CA",95219,37.984134576,-121.350125556,417,"3031 W MARCH LANE SUITE 230, STOCKTON, CA, 95219","Match","Non_Exact","3031 W MARCH LN, STOCKTON, CA, 95219",133928648,"R"
479418,"3031 W OBERLIN WAY","PHOENIX","AZ",85083,33.736500237,-112.124923891,418,"3031 W OBERLIN WAY, PHOENIX, AZ, 85083","Match","Exact","3031 W OBERLIN WAY, PHOENIX, AZ, 85083",128431176,"L"
479419,"3031 W VOGEL AVE","GREENFIELD","WI",53221,42.953098164,-87.952763213,419,"3031 W VOGEL AVE, GREENFIELD, WI, 53221","Match","Exact","3031 W VOGEL AVE, GREENFIELD, WI, 53221",77752483,"L"
479420,"3031 W WILLOW KNOLLS","PEORIA","IL",61614,40.776377069,-89.63958332,420,"3031 W WILLOW KNOLLS, PEORIA, IL, 61614","Match","Non_Exact","3031 W WILLOW KNOLLS DR, PEORIA, IL, 61614",8711751,"R"
479421,"3031 WAUNONA WAY","MADISON","WI",53713,43.0454676430001,-89.364542179,421,"3031 WAUNONA WAY, MADISON, WI, 53713","Match","Exact","3031 WAUNONA WAY, MADISON, WI, 53713",49473883,"L"
479422,"3031 WELLS TERRACE","STATE COLLEGE","PA",16801,40.7723752250001,-77.8677101009999,422,"3031 WELLS TERRACE, STATE COLLEGE, PA, 16801","Match","Exact","3031 WELLS TER, STATE COLLEGE, PA, 16801",50378746,"R"
479423,"3031 WEST  GRAND BLVD SUITE 515","DETROIT","MI",48202,42.3694087600001,-83.075927053,423,"3031 WEST  GRAND BLVD SUITE 515, DETROIT, MI, 48202","Match","Exact","3031 W GRAND BLVD, DETROIT, MI, 48202",95730536,"L"
479424,"3031 WEST GRAND BL SUITE 515","DETROIT","MI",48202,42.3694087600001,-83.075927053,424,"3031 WEST GRAND BL SUITE 515, DETROIT, MI, 48202","Match","Exact","3031 W GRAND BLVD, DETROIT, MI, 48202",95730536,"L"
479425,"3031 WEST SAHUARO DIVIDE","TUCSON","AZ",85742,32.4037696840001,-111.031727244,425,"3031 WEST SAHUARO DIVIDE, TUCSON, AZ, 85742","Match","Exact","3031 W SAHUARO DIVIDE, TUCSON, AZ, 85742",121394339,"L"
479426,"30310 L","WARREN","MI",48093,NA,NA,426,"30310 L, WARREN, MI, 48093","No_Match",NA,NA,NA,NA
479427,"30310 LAMPLIGHTER LN","MENIFEE","CA",92584,33.680586868,-117.145793378,427,"30310 LAMPLIGHTER LN, MENIFEE, CA, 92584","Match","Exact","30310 LAMPLIGHTER LN, MENIFEE, CA, 92584",650903372,"R"
479428,"30310 LUND AVE","WARREN","MI",48093,42.5169323900001,-83.019202127,428,"30310 LUND AVE, WARREN, MI, 48093","Match","Exact","30310 LUND AVE, WARREN, MI, 48093",110672943,"R"
479429,"30311 14TH AVE S","ROY","WA",98580,46.98154534,-122.450783391,429,"30311 14TH AVE S, ROY, WA, 98580","Match","Exact","30311 14TH AVE S, ROY, WA, 98580",184672454,"R"
479430,"30311 FOXCLUB DR","FARMINGTON HILLS","MI",48331,42.5183237570001,-83.4051863449999,430,"30311 FOXCLUB DR, FARMINGTON HILLS, MI, 48331","Match","Non_Exact","30311 FOX CLUB DR, FARMINGTON HILLS, MI, 48331",69756364,"R"
479431,"30312 BELLEVUE CASCADE RD","BELLEVUE","IA",52031,42.2421422100001,-90.544315259,431,"30312 BELLEVUE CASCADE RD, BELLEVUE, IA, 52031","Match","Exact","30312 BELLEVUE CASCADE RD, BELLEVUE, IA, 52031",16976543,"L"
479432,"30312 RED HILL RD","ALBEMARLE","NC",28001,35.3517007040001,-80.251692126,432,"30312 RED HILL RD, ALBEMARLE, NC, 28001","Match","Exact","30312 RED HILL RD, ALBEMARLE, NC, 28001",14078744,"R"
479433,"30312 TOKARA TERR","MT DORA","FL",32757,28.786419105,-81.602261449,433,"30312 TOKARA TERR, MT DORA, FL, 32757","Match","Exact","30312 TOKARA TER, MOUNT DORA, FL, 32757",618789471,"R"
479434,"30313 MEADOWRIDGE DRIVE","FARMINGTON HILLS","MI",48334,NA,NA,434,"30313 MEADOWRIDGE DRIVE, FARMINGTON HILLS, MI, 48334","No_Match",NA,NA,NA,NA
479435,"30314 112TH PL SE","AUBURN","WA",98092,47.3307097490001,-122.190999865,435,"30314 112TH PL SE, AUBURN, WA, 98092","Match","Exact","30314 112TH PL SE, AUBURN, WA, 98092",640948200,"L"
479436,"30314 JUNIPER MT RD","JORDAN VALLEY","OR",97910,NA,NA,436,"30314 JUNIPER MT RD, JORDAN VALLEY, OR, 97910","No_Match",NA,NA,NA,NA
479437,"30315 AVENIDA DE CALMA","RCH PALOS VRD","CA",90275,33.7590940870001,-118.403666919,437,"30315 AVENIDA DE CALMA, RCH PALOS VRD, CA, 90275","Match","Exact","30315 AVE DE CALMA, RCH PALOS VRD, CA, 90275",141585068,"R"
479438,"30315 S E LAKE RETREAT N DR","RAVENSDALE","WA",98051,47.3550927420001,-121.941077925,438,"30315 S E LAKE RETREAT N DR, RAVENSDALE, WA, 98051","Match","Exact","30315 SE LAKE RETREAT NORTH DR, RAVENSDALE, WA, 98051",186642301,"L"
479439,"30317 BARBARY COURT","WARREN","MI",48093,42.5167340950001,-83.0030053149999,439,"30317 BARBARY COURT, WARREN, MI, 48093","Match","Exact","30317 BARBARY CT, WARREN, MI, 48093",110673189,"L"
479440,"30318 FORESTGROVE ROAD","WILLOWICK","OH",44095,41.6243234730001,-81.464062021,440,"30318 FORESTGROVE ROAD, WILLOWICK, OH, 44095","Match","Exact","30318 FORESTGROVE RD, WILLOWICK, OH, 44095",137475290,"R"
479441,"30319 MERIDIEN CIRCLE","UNION CITY","CA",94587,37.6045275590001,-122.07381342,441,"30319 MERIDIEN CIRCLE, UNION CITY, CA, 94587","Match","Exact","30319 MERIDIEN CIR, UNION CITY, CA, 94587",125053733,"R"
479442,"30319 PALOMINO","WARREN","MI",48093,42.5171637450001,-82.998452968,442,"30319 PALOMINO, WARREN, MI, 48093","Match","Non_Exact","30319 PALOMINO DR, WARREN, MI, 48093",110673237,"L"
479443,"3031B STATE RD 33","SAUKVILLE","WI",53080,NA,NA,443,"3031B STATE RD 33, SAUKVILLE, WI, 53080","No_Match",NA,NA,NA,NA
479444,"3032  SOUTH LLEWELLYN  AVE","DALLAS","TX",75224,32.7092971710001,-96.831407181,444,"3032  SOUTH LLEWELLYN  AVE, DALLAS, TX, 75224","Match","Exact","3032 S LLEWELLYN AVE, DALLAS, TX, 75224",102947984,"L"
479445,"3032 16TH STREET SUITE 313","SAN FRANCISCO","CA",94103,37.7650187020001,-122.420337913,445,"3032 16TH STREET SUITE 313, SAN FRANCISCO, CA, 94103","Match","Exact","3032 16TH ST, SAN FRANCISCO, CA, 94103",192284270,"R"
479446,"3032 200TH STREET SOUTH","SEATAC","WA",98198,NA,NA,446,"3032 200TH STREET SOUTH, SEATAC, WA, 98198","No_Match",NA,NA,NA,NA
479447,"3032 AUGUSTA TRACE","OWENS CROSS RDS","AL",35763,34.6627798260001,-86.474135726,447,"3032 AUGUSTA TRACE, OWENS CROSS RDS, AL, 35763","Match","Exact","3032 AUGUSTA TRCE, OWENS CROSS ROADS, AL, 35763",58196541,"L"
479448,"3032 BRIDLEWOOD TRAIL","FRANKLIN","TN",37067,35.898823264,-86.797161032,448,"3032 BRIDLEWOOD TRAIL, FRANKLIN, TN, 37067","Match","Exact","3032 BRIDLEWOOD TRL, FRANKLIN, TN, 37067",73120834,"L"
479449,"3032 BRIGHTON STREET","BALTIMORE","MD",21216,39.3052171200001,-76.6679572039999,449,"3032 BRIGHTON STREET, BALTIMORE, MD, 21216","Match","Exact","3032 BRIGHTON ST, BALTIMORE, MD, 21216",206414063,"R"
479450,"3032 BYRON CENTER AVE SW APART 12","WYOMING","MI",49519,42.909263514,-85.724734486,450,"3032 BYRON CENTER AVE SW APART 12, WYOMING, MI, 49519","Match","Exact","3032 BYRON CENTER AVE SW, WYOMING, MI, 49519",12454140,"L"
479451,"3032 CESAREO DR","GRAND PRAIRIE","TX",75052,32.6286436660001,-97.0621073,451,"3032 CESAREO DR, GRAND PRAIRIE, TX, 75052","Match","Exact","3032 CESAREO DR, GRAND PRAIRIE, TX, 75052",648466087,"L"
479452,"3032 CHICA CIR","WEST MELBOURNE","FL",32904,28.064767058,-80.6416761799999,452,"3032 CHICA CIR, WEST MELBOURNE, FL, 32904","Match","Exact","3032 CHICA CIR, W MELBOURNE, FL, 32904",601722152,"R"
479453,"3032 COLDWATER ST","CONNELLY SPRINGS","NC",28612,35.730859158,-81.5156660599999,453,"3032 COLDWATER ST, CONNELLY SPRINGS, NC, 28612","Match","Exact","3032 COLDWATER ST, CONNELLY SPRINGS, NC, 28612",37190661,"R"
479454,"3032 CR 3A","LOUDONVILLE","OH",44842,40.620610276,-82.2489193649999,454,"3032 CR 3A, LOUDONVILLE, OH, 44842","Match","Exact","3032 CO RD 3A, LOUDONVILLE, OH, 44842",642177139,"L"
479455,"3032 CREEKSIDE OVERLOOK WAY","AUSTELL","GA",30168,33.8131197110001,-84.619967378,455,"3032 CREEKSIDE OVERLOOK WAY, AUSTELL, GA, 30168","Match","Exact","3032 CREEKSIDE OVERLOOK WAY, AUSTELL, GA, 30168",653737687,"L"
479456,"3032 DAHLIA DRIVE","DALLAS","TX",75216,32.6978168260001,-96.76751875,456,"3032 DAHLIA DRIVE, DALLAS, TX, 75216","Match","Exact","3032 DAHLIA DR, DALLAS, TX, 75216",102956713,"R"
479457,"3032 E TRINITY","SPRINGFIELD","IL",62702,39.8086779610001,-89.609320471,457,"3032 E TRINITY, SPRINGFIELD, IL, 62702","Match","Non_Exact","3032 E TRINITY AVE, SPRINGFIELD, IL, 62702",97326336,"R"
479458,"3032 GARDEN ROCK DR","EL PASO","TX",79938,31.7854324240001,-106.231470749,458,"3032 GARDEN ROCK DR, EL PASO, TX, 79938","Match","Exact","3032 GARDEN ROCK DR, EL PASO, TX, 79938",624607797,"R"
479459,"3032 GLENRIDGE CIR","MERRITT ISLAND","FL",32953,28.403334199,-80.700354491,459,"3032 GLENRIDGE CIR, MERRITT ISLAND, FL, 32953","Match","Exact","3032 GLENRIDGE CIR, MERRITT ISLAND, FL, 32953",604673152,"L"
479460,"3032 GLENVUE DR","WESTMINSTER","MD",21157,39.4889565350001,-77.075705623,460,"3032 GLENVUE DR, WESTMINSTER, MD, 21157","Match","Exact","3032 GLENVUE DR, WESTMINSTER, MD, 21157",61791115,"R"
479461,"3032 GODFREY PL","TALLAHASSEE","FL",32309,30.5297914400001,-84.2284959629999,461,"3032 GODFREY PL, TALLAHASSEE, FL, 32309","Match","Exact","3032 GODFREY PL, TALLAHASSEE, FL, 32309",82858998,"R"
479462,"3032 GOODSON","HAMTRAMCK","MI",48212,42.391249997,-83.051430329,462,"3032 GOODSON, HAMTRAMCK, MI, 48212","Match","Non_Exact","3032 GOODSON ST, HAMTRAMCK, MI, 48212",95477021,"R"
479463,"3032 GREYSTONE DRIVE","PACE","FL",32571,30.640367713,-87.198739702,463,"3032 GREYSTONE DRIVE, PACE, FL, 32571","Match","Exact","3032 GREYSTONE DR, PACE, FL, 32571",74577851,"R"
479464,"3032 HAMLET CIR","EAST LANSING","MI",48823,42.771290293,-84.499242044,464,"3032 HAMLET CIR, EAST LANSING, MI, 48823","Match","Exact","3032 HAMLET CIR, EAST LANSING, MI, 48823",649821169,"R"
479465,"3032 HUNTERS COVE","ROCK SPRINGS","WY",82901,41.5998383510001,-109.265926837,465,"3032 HUNTERS COVE, ROCK SPRINGS, WY, 82901","Match","Non_Exact","3032 HUNTER'S COVE, ROCK SPRINGS, WY, 82901",612164949,"L"
479466,"3032 JOHN GLENN DRIVE","JACKSON","MI",49201,42.3075635480001,-84.446327169,466,"3032 JOHN GLENN DRIVE, JACKSON, MI, 49201","Match","Exact","3032 JOHN GLENN DR, JACKSON, MI, 49201",17614718,"R"
479467,"3032 LANGLEY CLOSE NW","KENNESAW","GA",30144,34.0492126030001,-84.6394155849999,467,"3032 LANGLEY CLOSE NW, KENNESAW, GA, 30144","Match","Exact","3032 LANGLEY CLOSE NW, KENNESAW, GA, 30144",17244184,"R"
479468,"3032 LLOYDS AVE","CHALMETTE","LA",70043,29.948579007,-89.965808123,468,"3032 LLOYDS AVE, CHALMETTE, LA, 70043","Match","Exact","3032 LLOYDS AVE, CHALMETTE, LA, 70043",111186965,"L"
479469,"3032 LOTUS LANE","INDIANAPOLIS","IN",46227,39.6553983250001,-86.1127036829999,469,"3032 LOTUS LANE, INDIANAPOLIS, IN, 46227","Match","Exact","3032 LOTUS LN, INDIANAPOLIS, IN, 46227",108009884,"L"
479470,"3032 LUNA DR","VENTURA","CA",93003,34.276577596,-119.255675171,470,"3032 LUNA DR, VENTURA, CA, 93003","Match","Exact","3032 LUNA DR, VENTURA, CA, 93003",109952029,"R"
479471,"3032 M STREET SE","WASHINGTON","DC",20019,38.8761141620001,-76.964355332,471,"3032 M STREET SE, WASHINGTON, DC, 20019","Match","Exact","3032 M ST SE, WASHINGTON, DC, 20019",76231935,"L"
479472,"3032 MARION","DENVER","CO",80205,39.7599378830001,-104.972106774,472,"3032 MARION, DENVER, CO, 80205","Match","Non_Exact","3032 MARION ST, DENVER, CO, 80205",177305338,"R"
479473,"3032 MARVIN DRIVE","ADRIAN","MI",49221,41.897266503,-84.083804392,473,"3032 MARVIN DRIVE, ADRIAN, MI, 49221","Match","Exact","3032 MARVIN DR, ADRIAN, MI, 49221",639784377,"L"
479474,"3032 MCFARLIN BLVD","DALLAS","TX",75205,32.8437999440001,-96.780150794,474,"3032 MCFARLIN BLVD, DALLAS, TX, 75205","Match","Non_Exact","3032 MC FARLIN BLVD, DALLAS, TX, 75205",624278434,"R"
479475,"3032 MO","REEDSPORT","OR",97467,NA,NA,475,"3032 MO, REEDSPORT, OR, 97467","No_Match",NA,NA,NA,NA
479476,"3032 MONTE CARLO TRAIL","ORLANDO","FL",32805,28.528935803,-81.415889545,476,"3032 MONTE CARLO TRAIL, ORLANDO, FL, 32805","Match","Exact","3032 MONTE CARLO TRL, ORLANDO, FL, 32805",637646691,"L"
479477,"3032 MORRIS PL","REEDSPORT","OR",97467,43.6891530390001,-124.130736936,477,"3032 MORRIS PL, REEDSPORT, OR, 97467","Match","Exact","3032 MORRIS PL, REEDSPORT, OR, 97467",137247608,"L"
479478,"3032 N CAMINO LAGOS","GRAND PRAIRIE","TX",75054,NA,NA,478,"3032 N CAMINO LAGOS, GRAND PRAIRIE, TX, 75054","No_Match",NA,NA,NA,NA
479479,"3032 N DAVIDSON STREET","CHARLOTTE","NC",28205,35.245956026,-80.8075623249999,479,"3032 N DAVIDSON STREET, CHARLOTTE, NC, 28205","Match","Exact","3032 N DAVIDSON ST, CHARLOTTE, NC, 28205",636704381,"R"
479480,"3032 N FRAZIER ST STE A","CONROE","TX",77301,NA,NA,480,"3032 N FRAZIER ST STE A, CONROE, TX, 77301","No_Match",NA,NA,NA,NA
479481,"3032 N MOONGLOW LANE","POCATELLO","ID",83202,NA,NA,481,"3032 N MOONGLOW LANE, POCATELLO, ID, 83202","No_Match",NA,NA,NA,NA
479482,"3032 N NEW ENGLAND","CHICAGO","IL",60634,41.9351477600001,-87.798061624,482,"3032 N NEW ENGLAND, CHICAGO, IL, 60634","Match","Non_Exact","3032 N NEW ENGLAND AVE, CHICAGO, IL, 60634",111750550,"L"
479483,"3032 N NOEL RD","AVON PARK","FL",33825,27.640240643,-81.451121669,483,"3032 N NOEL RD, AVON PARK, FL, 33825","Match","Exact","3032 N NOEL RD, AVON PARK, FL, 33825",4647964,"R"
479484,"3032 N W 2ND STREET UNIT 4","POMPANO BEACH","FL",33069,26.2332722300001,-80.163926585,484,"3032 N W 2ND STREET UNIT 4, POMPANO BEACH, FL, 33069","Match","Non_Exact","3032 NW 2ND ST, POMPANO BEACH, FL, 33069",114694010,"L"
479485,"3032 NE LANCASTER LANE","LAWTON","OK",73507,34.6319382950001,-98.3508802279999,485,"3032 NE LANCASTER LANE, LAWTON, OK, 73507","Match","Exact","3032 NE LANCASTER LN, LAWTON, OK, 73507",639643523,"R"
479486,"3032 NW 4TH COURT","POMPANO BEACH","FL",33069,26.2353703950001,-80.164257904,486,"3032 NW 4TH COURT, POMPANO BEACH, FL, 33069","Match","Exact","3032 NW 4TH CT, POMPANO BEACH, FL, 33069",114693996,"L"
479487,"3032 PARK AVE","BELOIT","WI",53511,42.5561382160001,-89.0257359239999,487,"3032 PARK AVE, BELOIT, WI, 53511","Match","Exact","3032 PARK AVE, BELOIT, WI, 53511",49857023,"L"
479488,"3032 PILLSBURY AVE S","MINNEAPOLIS","MN",55408,44.94773229,-93.281367912,488,"3032 PILLSBURY AVE S, MINNEAPOLIS, MN, 55408","Match","Exact","3032 PILLSBURY AVE S, MINNEAPOLIS, MN, 55408",43633471,"R"
479489,"3032 POLK ST","MONROE","LA",71202,32.4716442770001,-92.1092781679999,489,"3032 POLK ST, MONROE, LA, 71202","Match","Exact","3032 POLK ST, MONROE, LA, 71202",161085476,"R"
479490,"3032 RED SAGE","IRVINE","CA",92698,33.682286547,-117.750330325,490,"3032 RED SAGE, IRVINE, CA, 92698","Match","Non_Exact","3032 RED SAGE, IRVINE, CA, 92618",650171273,"R"
479491,"3032 RIVERWOOD","GRAND PRAIRIE","TX",75052,32.6311542400001,-97.061058589,491,"3032 RIVERWOOD, GRAND PRAIRIE, TX, 75052","Match","Non_Exact","3032 RIVERWOOD LN, GRAND PRAIRIE, TX, 75052",618724091,"L"
479492,"3032 ROLLINGWOOD LANE SE","ATLANTA","GA",30316,33.698359038,-84.316552085,492,"3032 ROLLINGWOOD LANE SE, ATLANTA, GA, 30316","Match","Exact","3032 ROLLINGWOOD LN SE, ATLANTA, GA, 30316",23368059,"L"
479493,"3032 ROSEWALK DR","MOODY","AL",35004,33.5718910780001,-86.506629904,493,"3032 ROSEWALK DR, MOODY, AL, 35004","Match","Exact","3032 ROSEWALK DR, MOODY, AL, 35004",66903419,"L"
479494,"3032 RUSSELBOROUGH DR","WILMINGTON","NC",28411,34.3039837960001,-77.884677279,494,"3032 RUSSELBOROUGH DR, WILMINGTON, NC, 28411","Match","Non_Exact","3032 RUSSELLBOROUGH DR, WILMINGTON, NC, 28405",152739569,"R"
479495,"3032 S K ST","OXNARD","CA",93033,34.172240851,-119.187667796,495,"3032 S K ST, OXNARD, CA, 93033","Match","Exact","3032 S K ST, OXNARD, CA, 93033",110116406,"L"
479496,"3032 S OAK WAY","DENVER","CO",80227,39.661398827,-105.120743229,496,"3032 S OAK WAY, DENVER, CO, 80227","Match","Exact","3032 S OAK WAY, DENVER, CO, 80227",177761421,"L"
479497,"3032 SETTLERS TRAIL","ST CHARLES","IA",50240,41.237771164,-93.862307702,497,"3032 SETTLERS TRAIL, ST CHARLES, IA, 50240","Match","Exact","3032 SETTLERS TRL, SAINT CHARLES, IA, 50240",75205695,"R"
479498,"3032 SMITH STREET","FORT WAYNE","IN",46806,41.05726335,-85.1226428319999,498,"3032 SMITH STREET, FORT WAYNE, IN, 46806","Match","Exact","3032 SMITH ST, FORT WAYNE, IN, 46806",6382698,"R"
479499,"3032 STEPHENSON PL NW","WASHINGTON","CA",20015,NA,NA,499,"3032 STEPHENSON PL NW, WASHINGTON, CA, 20015","No_Match",NA,NA,NA,NA
479500,"3032 STEPHENSON PL NW","WASHINGTON","DC",20015,38.9715241930001,-77.060400767,500,"3032 STEPHENSON PL NW, WASHINGTON, DC, 20015","Match","Exact","3032 STEPHENSON PL NW, WASHINGTON, DC, 20015",76219370,"L"
