"ID","Address","City","State","Zip","lat","long","id","input_address","match_indicator","match_type","matched_address","tiger_line_id","tiger_side"
964501,"P O BOX 1748","GREAT FALLS","MT",59401,NA,NA,1,"P O BOX 1748, GREAT FALLS, MT, 59401","No_Match",NA,NA,NA,NA
964502,"P O BOX 1748","SMITHFIELD","NC",27577,NA,NA,2,"P O BOX 1748, SMITHFIELD, NC, 27577","No_Match",NA,NA,NA,NA
964503,"P O BOX 1749","PAGO PAGO","AS",96799,NA,NA,3,"P O BOX 1749, PAGO PAGO, AS, 96799","No_Match",NA,NA,NA,NA
964504,"P O BOX 175","EUBANK","KY",42567,NA,NA,4,"P O BOX 175, EUBANK, KY, 42567","No_Match",NA,NA,NA,NA
964505,"P O BOX 175","MENTMORE","NM",87319,NA,NA,5,"P O BOX 175, MENTMORE, NM, 87319","No_Match",NA,NA,NA,NA
964506,"P O BOX 17508","TUCSON","AZ",85731,NA,NA,6,"P O BOX 17508, TUCSON, AZ, 85731","No_Match",NA,NA,NA,NA
964507,"P O BOX 1751","WARREN","PA",16365,NA,NA,7,"P O BOX 1751, WARREN, PA, 16365","No_Match",NA,NA,NA,NA
964508,"P O BOX 1752","GOLDENROD","FL",32733,NA,NA,8,"P O BOX 1752, GOLDENROD, FL, 32733","No_Match",NA,NA,NA,NA
964509,"P O BOX 1752","VICTORVILLE","CA",92395,NA,NA,9,"P O BOX 1752, VICTORVILLE, CA, 92395","No_Match",NA,NA,NA,NA
964510,"P O BOX 1753 250 GEORGIA AVENUE","FAYETTEVILLE","GA",30214,NA,NA,10,"P O BOX 1753 250 GEORGIA AVENUE, FAYETTEVILLE, GA, 30214","Tie",NA,NA,NA,NA
964511,"P O BOX 1754","FRONT ROYAL","VA",22630,NA,NA,11,"P O BOX 1754, FRONT ROYAL, VA, 22630","No_Match",NA,NA,NA,NA
964512,"P O BOX 1754","WALTERBORO","SC",29488,NA,NA,12,"P O BOX 1754, WALTERBORO, SC, 29488","No_Match",NA,NA,NA,NA
964513,"P O BOX 17593","SUGAR LAND","TX",77496,NA,NA,13,"P O BOX 17593, SUGAR LAND, TX, 77496","No_Match",NA,NA,NA,NA
964514,"P O BOX 176","AUBREY","TX",76227,NA,NA,14,"P O BOX 176, AUBREY, TX, 76227","No_Match",NA,NA,NA,NA
964515,"P O BOX 176","CLEARBROOK","MN",56634,NA,NA,15,"P O BOX 176, CLEARBROOK, MN, 56634","No_Match",NA,NA,NA,NA
964516,"P O BOX 176","EAST OLYMPIA","WA",98540,NA,NA,16,"P O BOX 176, EAST OLYMPIA, WA, 98540","No_Match",NA,NA,NA,NA
964517,"P O BOX 176","EUSTIS","FL",32727,NA,NA,17,"P O BOX 176, EUSTIS, FL, 32727","No_Match",NA,NA,NA,NA
964518,"P O BOX 176","HAWTHORNE","NV",89415,NA,NA,18,"P O BOX 176, HAWTHORNE, NV, 89415","No_Match",NA,NA,NA,NA
964519,"P O BOX 17611","WEST PALM BEACH","FL",33416,NA,NA,19,"P O BOX 17611, WEST PALM BEACH, FL, 33416","No_Match",NA,NA,NA,NA
964520,"P O BOX 1763","SUN VALLEY","CA",91353,NA,NA,20,"P O BOX 1763, SUN VALLEY, CA, 91353","No_Match",NA,NA,NA,NA
964521,"P O BOX 1766","BURGAW","NC",28425,NA,NA,21,"P O BOX 1766, BURGAW, NC, 28425","No_Match",NA,NA,NA,NA
964522,"P O BOX 17667","MEMPHIS","TN",38187,NA,NA,22,"P O BOX 17667, MEMPHIS, TN, 38187","No_Match",NA,NA,NA,NA
964523,"P O BOX 17667","OKEREKE","TN",38187,NA,NA,23,"P O BOX 17667, OKEREKE, TN, 38187","No_Match",NA,NA,NA,NA
964524,"P O BOX 1767","LEBANON","VA",24266,NA,NA,24,"P O BOX 1767, LEBANON, VA, 24266","No_Match",NA,NA,NA,NA
964525,"P O BOX 177","AVON PARK","FL",33826,NA,NA,25,"P O BOX 177, AVON PARK, FL, 33826","No_Match",NA,NA,NA,NA
964526,"P O BOX 177","BLANCO","TX",78606,NA,NA,26,"P O BOX 177, BLANCO, TX, 78606","No_Match",NA,NA,NA,NA
964527,"P O BOX 177","FRIARS POINT","MS",38631,NA,NA,27,"P O BOX 177, FRIARS POINT, MS, 38631","No_Match",NA,NA,NA,NA
964528,"P O BOX 17702","URBANA","IL",61803,NA,NA,28,"P O BOX 17702, URBANA, IL, 61803","No_Match",NA,NA,NA,NA
964529,"P O BOX 17708","DENVER","CO",80217,NA,NA,29,"P O BOX 17708, DENVER, CO, 80217","No_Match",NA,NA,NA,NA
964530,"P O BOX 1772","DEMING","NM",88030,NA,NA,30,"P O BOX 1772, DEMING, NM, 88030","No_Match",NA,NA,NA,NA
964531,"P O BOX 1772","LIVINGSTON","AL",35470,NA,NA,31,"P O BOX 1772, LIVINGSTON, AL, 35470","No_Match",NA,NA,NA,NA
964532,"P O BOX 1772","MADISON","WI",53701,NA,NA,32,"P O BOX 1772, MADISON, WI, 53701","No_Match",NA,NA,NA,NA
964533,"P O BOX 1773","WRIGHTWOOD","CA",92397,NA,NA,33,"P O BOX 1773, WRIGHTWOOD, CA, 92397","No_Match",NA,NA,NA,NA
964534,"P O BOX 1774","BROOKINGS","OR",97415,NA,NA,34,"P O BOX 1774, BROOKINGS, OR, 97415","No_Match",NA,NA,NA,NA
964535,"P O BOX 1777","CASTLE ROCK","CO",80104,NA,NA,35,"P O BOX 1777, CASTLE ROCK, CO, 80104","No_Match",NA,NA,NA,NA
964536,"P O BOX 1777","PORT ANGELES","WA",98362,NA,NA,36,"P O BOX 1777, PORT ANGELES, WA, 98362","No_Match",NA,NA,NA,NA
964537,"P O BOX 1779","STONE MOUNTAIN","GA",30086,NA,NA,37,"P O BOX 1779, STONE MOUNTAIN, GA, 30086","No_Match",NA,NA,NA,NA
964538,"P O BOX 178","ANCHORVILLE","MI",48004,NA,NA,38,"P O BOX 178, ANCHORVILLE, MI, 48004","No_Match",NA,NA,NA,NA
964539,"P O BOX 178","KOLOA","HI",96756,NA,NA,39,"P O BOX 178, KOLOA, HI, 96756","No_Match",NA,NA,NA,NA
964540,"P O BOX 1781","DICKSON","TN",37056,NA,NA,40,"P O BOX 1781, DICKSON, TN, 37056","No_Match",NA,NA,NA,NA
964541,"P O BOX 1781","ELLIJAY","GA",30540,NA,NA,41,"P O BOX 1781, ELLIJAY, GA, 30540","No_Match",NA,NA,NA,NA
964542,"P O BOX 1782 D","MILWAUKEE","WI",53201,NA,NA,42,"P O BOX 1782 D, MILWAUKEE, WI, 53201","No_Match",NA,NA,NA,NA
964543,"P O BOX 1783","VERO BEACH","FL",32960,NA,NA,43,"P O BOX 1783, VERO BEACH, FL, 32960","No_Match",NA,NA,NA,NA
964544,"P O BOX 1788","RANCHO CORDOVA","CA",95741,NA,NA,44,"P O BOX 1788, RANCHO CORDOVA, CA, 95741","No_Match",NA,NA,NA,NA
964545,"P O BOX 1789","BURGAW","NC",28425,NA,NA,45,"P O BOX 1789, BURGAW, NC, 28425","No_Match",NA,NA,NA,NA
964546,"P O BOX 179","JAMAICA","VT",5343,NA,NA,46,"P O BOX 179, JAMAICA, VT, 5343","No_Match",NA,NA,NA,NA
964547,"P O BOX 179","PAHOA","HI",96721,NA,NA,47,"P O BOX 179, PAHOA, HI, 96721","No_Match",NA,NA,NA,NA
964548,"P O BOX 1792","GRAEAGLE","CA",96103,NA,NA,48,"P O BOX 1792, GRAEAGLE, CA, 96103","No_Match",NA,NA,NA,NA
964549,"P O BOX 1792","ROANOKE","TX",76262,NA,NA,49,"P O BOX 1792, ROANOKE, TX, 76262","No_Match",NA,NA,NA,NA
964550,"P O BOX 1794","HUMBLE","TX",77347,NA,NA,50,"P O BOX 1794, HUMBLE, TX, 77347","No_Match",NA,NA,NA,NA
964551,"P O BOX 1795","BLOOMINGTON","IL",61702,NA,NA,51,"P O BOX 1795, BLOOMINGTON, IL, 61702","No_Match",NA,NA,NA,NA
964552,"P O BOX 1796","BURLINGTON","NC",27216,NA,NA,52,"P O BOX 1796, BURLINGTON, NC, 27216","No_Match",NA,NA,NA,NA
964553,"P O BOX 1796","MANSFIELD","OH",44901,NA,NA,53,"P O BOX 1796, MANSFIELD, OH, 44901","No_Match",NA,NA,NA,NA
964554,"P O BOX 18","HELVETIA","WV",26224,NA,NA,54,"P O BOX 18, HELVETIA, WV, 26224","No_Match",NA,NA,NA,NA
964555,"P O BOX 180","CROWVILLE","LA",71230,NA,NA,55,"P O BOX 180, CROWVILLE, LA, 71230","No_Match",NA,NA,NA,NA
964556,"P O BOX 180","LIPSCOMB","TX",79056,NA,NA,56,"P O BOX 180, LIPSCOMB, TX, 79056","No_Match",NA,NA,NA,NA
964557,"P O BOX 18002","SARASOTA","FL",32932,NA,NA,57,"P O BOX 18002, SARASOTA, FL, 32932","No_Match",NA,NA,NA,NA
964558,"P O BOX 1802","MORGAN CITY","LA",70381,NA,NA,58,"P O BOX 1802, MORGAN CITY, LA, 70381","No_Match",NA,NA,NA,NA
964559,"P O BOX 1802","PELL CITY","AL",25125,NA,NA,59,"P O BOX 1802, PELL CITY, AL, 25125","No_Match",NA,NA,NA,NA
964560,"P O BOX 1806","HOUSTON","TX",77256,NA,NA,60,"P O BOX 1806, HOUSTON, TX, 77256","No_Match",NA,NA,NA,NA
964561,"P O BOX 1807","LUCEDALE","MS",39452,NA,NA,61,"P O BOX 1807, LUCEDALE, MS, 39452","No_Match",NA,NA,NA,NA
964562,"P O BOX 1809","KIHEI","HI",96753,NA,NA,62,"P O BOX 1809, KIHEI, HI, 96753","No_Match",NA,NA,NA,NA
964563,"P O BOX 181","CAPE MAY","NJ",8204,NA,NA,63,"P O BOX 181, CAPE MAY, NJ, 8204","No_Match",NA,NA,NA,NA
964564,"P O BOX 181","MARION","SC",29571,NA,NA,64,"P O BOX 181, MARION, SC, 29571","No_Match",NA,NA,NA,NA
964565,"P O BOX 18124","PENSACOLA","FL",32523,NA,NA,65,"P O BOX 18124, PENSACOLA, FL, 32523","No_Match",NA,NA,NA,NA
964566,"P O BOX 1813","CLEVELAND","MS",38732,NA,NA,66,"P O BOX 1813, CLEVELAND, MS, 38732","No_Match",NA,NA,NA,NA
964567,"P O BOX 1816","KEALAKEKUA","HI",96750,NA,NA,67,"P O BOX 1816, KEALAKEKUA, HI, 96750","No_Match",NA,NA,NA,NA
964568,"P O BOX 1817","CALUMET CITY","IL",60438,NA,NA,68,"P O BOX 1817, CALUMET CITY, IL, 60438","No_Match",NA,NA,NA,NA
964569,"P O BOX 1817","KENNER","LA",70063,NA,NA,69,"P O BOX 1817, KENNER, LA, 70063","No_Match",NA,NA,NA,NA
964570,"P O BOX 1817","LITHONIA","GA",30058,NA,NA,70,"P O BOX 1817, LITHONIA, GA, 30058","No_Match",NA,NA,NA,NA
964571,"P O BOX 1817","NATCHEZ","MS",39121,NA,NA,71,"P O BOX 1817, NATCHEZ, MS, 39121","No_Match",NA,NA,NA,NA
964572,"P O BOX 18175","RALEIGH","NC",27619,NA,NA,72,"P O BOX 18175, RALEIGH, NC, 27619","No_Match",NA,NA,NA,NA
964573,"P O BOX 1818","SEBASTOPOL","CA",95473,NA,NA,73,"P O BOX 1818, SEBASTOPOL, CA, 95473","No_Match",NA,NA,NA,NA
964574,"P O BOX 1818","WINTERHAVEN","FL",33880,NA,NA,74,"P O BOX 1818, WINTERHAVEN, FL, 33880","No_Match",NA,NA,NA,NA
964575,"P O BOX 182","BAYFIELD","WI",54891,NA,NA,75,"P O BOX 182, BAYFIELD, WI, 54891","No_Match",NA,NA,NA,NA
964576,"P O BOX 182","MULLEN","NE",69152,NA,NA,76,"P O BOX 182, MULLEN, NE, 69152","No_Match",NA,NA,NA,NA
964577,"P O BOX 182","ROCHELLE","TX",76872,NA,NA,77,"P O BOX 182, ROCHELLE, TX, 76872","No_Match",NA,NA,NA,NA
964578,"P O BOX 1821","LONGVIEW","TX",75606,NA,NA,78,"P O BOX 1821, LONGVIEW, TX, 75606","No_Match",NA,NA,NA,NA
964579,"P O BOX 1823","TUPELO","MS",38860,NA,NA,79,"P O BOX 1823, TUPELO, MS, 38860","No_Match",NA,NA,NA,NA
964580,"P O BOX 1824","STONE MOUNTAIN","GA",30086,NA,NA,80,"P O BOX 1824, STONE MOUNTAIN, GA, 30086","No_Match",NA,NA,NA,NA
964581,"P O BOX 18242","HATTIESBURG","MS",39404,NA,NA,81,"P O BOX 18242, HATTIESBURG, MS, 39404","No_Match",NA,NA,NA,NA
964582,"P O BOX 1825","AUGUSTA","GA",30903,NA,NA,82,"P O BOX 1825, AUGUSTA, GA, 30903","No_Match",NA,NA,NA,NA
964583,"P O BOX 1825","NOBLE","OK",73068,NA,NA,83,"P O BOX 1825, NOBLE, OK, 73068","No_Match",NA,NA,NA,NA
964584,"P O BOX 1827","THOMSON","GA",30824,NA,NA,84,"P O BOX 1827, THOMSON, GA, 30824","No_Match",NA,NA,NA,NA
964585,"P O BOX 182781","ARLINGTON","TX",76096,NA,NA,85,"P O BOX 182781, ARLINGTON, TX, 76096","No_Match",NA,NA,NA,NA
964586,"P O BOX 183","AUSTIN","TX",78767,NA,NA,86,"P O BOX 183, AUSTIN, TX, 78767","No_Match",NA,NA,NA,NA
964587,"P O BOX 183","JUNCTION","TX",76849,NA,NA,87,"P O BOX 183, JUNCTION, TX, 76849","No_Match",NA,NA,NA,NA
964588,"P O BOX 183","PLYMOUTH","NE",68424,NA,NA,88,"P O BOX 183, PLYMOUTH, NE, 68424","No_Match",NA,NA,NA,NA
964589,"P O BOX 183","WARING","TX",78074,NA,NA,89,"P O BOX 183, WARING, TX, 78074","No_Match",NA,NA,NA,NA
964590,"P O BOX 183","WASHINGTON","IN",47501,NA,NA,90,"P O BOX 183, WASHINGTON, IN, 47501","No_Match",NA,NA,NA,NA
964591,"P O BOX 1830","TELLUIRDE","CO",81435,NA,NA,91,"P O BOX 1830, TELLUIRDE, CO, 81435","No_Match",NA,NA,NA,NA
964592,"P O BOX 1830","TELLURIDE","CO",81435,NA,NA,92,"P O BOX 1830, TELLURIDE, CO, 81435","No_Match",NA,NA,NA,NA
964593,"P O BOX 18321","CHARLOTTE","NC",28218,NA,NA,93,"P O BOX 18321, CHARLOTTE, NC, 28218","No_Match",NA,NA,NA,NA
964594,"P O BOX 1835","HUNTINGTON","WV",25719,NA,NA,94,"P O BOX 1835, HUNTINGTON, WV, 25719","No_Match",NA,NA,NA,NA
964595,"P O BOX 1835","ROCKFORD","IL",61110,NA,NA,95,"P O BOX 1835, ROCKFORD, IL, 61110","No_Match",NA,NA,NA,NA
964596,"P O BOX 184","ALTON","MO",65606,NA,NA,96,"P O BOX 184, ALTON, MO, 65606","No_Match",NA,NA,NA,NA
964597,"P O BOX 184","LINCOLN","AR",72744,NA,NA,97,"P O BOX 184, LINCOLN, AR, 72744","No_Match",NA,NA,NA,NA
964598,"P O BOX 1842","NORMAL","AL",35762,NA,NA,98,"P O BOX 1842, NORMAL, AL, 35762","No_Match",NA,NA,NA,NA
964599,"P O BOX 18421","MINNEAPOLIS","MN",55418,NA,NA,99,"P O BOX 18421, MINNEAPOLIS, MN, 55418","No_Match",NA,NA,NA,NA
964600,"P O BOX 1845","AUSTIN","TX",78767,NA,NA,100,"P O BOX 1845, AUSTIN, TX, 78767","No_Match",NA,NA,NA,NA
964601,"P O BOX 1845","ROBBINSVILLE","NC",28771,NA,NA,101,"P O BOX 1845, ROBBINSVILLE, NC, 28771","No_Match",NA,NA,NA,NA
964602,"P O BOX 18453","SUGAR LAND","TX",77496,NA,NA,102,"P O BOX 18453, SUGAR LAND, TX, 77496","No_Match",NA,NA,NA,NA
964603,"P O BOX 1847","WENATCHEE","WA",98807,NA,NA,103,"P O BOX 1847, WENATCHEE, WA, 98807","No_Match",NA,NA,NA,NA
964604,"P O BOX 1848","TEMPLE","GA",30179,NA,NA,104,"P O BOX 1848, TEMPLE, GA, 30179","No_Match",NA,NA,NA,NA
964605,"P O BOX 1851","ALTOONA","PA",16603,NA,NA,105,"P O BOX 1851, ALTOONA, PA, 16603","No_Match",NA,NA,NA,NA
964606,"P O BOX 1852","TAHOKA","TX",79373,NA,NA,106,"P O BOX 1852, TAHOKA, TX, 79373","No_Match",NA,NA,NA,NA
964607,"P O BOX 18531","WASHINGTON","DC",20036,NA,NA,107,"P O BOX 18531, WASHINGTON, DC, 20036","No_Match",NA,NA,NA,NA
964608,"P O BOX 186","KNIPPA","TX",78870,NA,NA,108,"P O BOX 186, KNIPPA, TX, 78870","No_Match",NA,NA,NA,NA
964609,"P O BOX 186","NEW MARKET","AL",35761,NA,NA,109,"P O BOX 186, NEW MARKET, AL, 35761","No_Match",NA,NA,NA,NA
964610,"P O BOX 1863","MIDDLEBURG","VA",20118,NA,NA,110,"P O BOX 1863, MIDDLEBURG, VA, 20118","No_Match",NA,NA,NA,NA
964611,"P O BOX 1866","JACKSON","MS",39215,NA,NA,111,"P O BOX 1866, JACKSON, MS, 39215","No_Match",NA,NA,NA,NA
964612,"P O BOX 1867","FAIRPLAY","CO",80440,NA,NA,112,"P O BOX 1867, FAIRPLAY, CO, 80440","No_Match",NA,NA,NA,NA
964613,"P O BOX 1867","SANTA CRUZ","NM",87567,NA,NA,113,"P O BOX 1867, SANTA CRUZ, NM, 87567","No_Match",NA,NA,NA,NA
964614,"P O BOX 187","COLUMBUS","WI",53925,NA,NA,114,"P O BOX 187, COLUMBUS, WI, 53925","No_Match",NA,NA,NA,NA
964615,"P O BOX 187","HAZLET","NJ",7730,NA,NA,115,"P O BOX 187, HAZLET, NJ, 7730","No_Match",NA,NA,NA,NA
964616,"P O BOX 187","NORFOLK","CT",6058,NA,NA,116,"P O BOX 187, NORFOLK, CT, 6058","No_Match",NA,NA,NA,NA
964617,"P O BOX 1876","GREENWOOD","AR",72936,NA,NA,117,"P O BOX 1876, GREENWOOD, AR, 72936","No_Match",NA,NA,NA,NA
964618,"P O BOX 1877","NATCHEZ","MS",39120,NA,NA,118,"P O BOX 1877, NATCHEZ, MS, 39120","No_Match",NA,NA,NA,NA
964619,"P O BOX 1878","CROSS CITY","FL",32628,NA,NA,119,"P O BOX 1878, CROSS CITY, FL, 32628","No_Match",NA,NA,NA,NA
964620,"P O BOX 1878","LEWISBURG","WV",24901,NA,NA,120,"P O BOX 1878, LEWISBURG, WV, 24901","No_Match",NA,NA,NA,NA
964621,"P O BOX 188","JACKSON","MO",63755,NA,NA,121,"P O BOX 188, JACKSON, MO, 63755","No_Match",NA,NA,NA,NA
964622,"P O BOX 188","PORT JEFFERSON STA","NY",11776,NA,NA,122,"P O BOX 188, PORT JEFFERSON STA, NY, 11776","No_Match",NA,NA,NA,NA
964623,"P O BOX 188","ROYSTON","GA",30622,NA,NA,123,"P O BOX 188, ROYSTON, GA, 30622","No_Match",NA,NA,NA,NA
964624,"P O BOX 188","SANTA PAULA","CA",93061,NA,NA,124,"P O BOX 188, SANTA PAULA, CA, 93061","No_Match",NA,NA,NA,NA
964625,"P O BOX 1882","TWIN FALLS","ID",83303,NA,NA,125,"P O BOX 1882, TWIN FALLS, ID, 83303","No_Match",NA,NA,NA,NA
964626,"P O BOX 18844","BALTIMORE","MD",21206,NA,NA,126,"P O BOX 18844, BALTIMORE, MD, 21206","No_Match",NA,NA,NA,NA
964627,"P O BOX 189","GUFFEY","CO",80820,NA,NA,127,"P O BOX 189, GUFFEY, CO, 80820","No_Match",NA,NA,NA,NA
964628,"P O BOX 189","SMITHFIELD","VA",23430,NA,NA,128,"P O BOX 189, SMITHFIELD, VA, 23430","No_Match",NA,NA,NA,NA
964629,"P O BOX 1892","BRIGHTON","MI",48116,NA,NA,129,"P O BOX 1892, BRIGHTON, MI, 48116","No_Match",NA,NA,NA,NA
964630,"P O BOX 1893","RALEIGH","NC",27602,NA,NA,130,"P O BOX 1893, RALEIGH, NC, 27602","No_Match",NA,NA,NA,NA
964631,"P O BOX 1895","LEHIGH","FL",33970,NA,NA,131,"P O BOX 1895, LEHIGH, FL, 33970","No_Match",NA,NA,NA,NA
964632,"P O BOX 1898","CHEROKEE","NC",28719,NA,NA,132,"P O BOX 1898, CHEROKEE, NC, 28719","No_Match",NA,NA,NA,NA
964633,"P O BOX 18985","ANAHEIM HILLS","CA",92817,NA,NA,133,"P O BOX 18985, ANAHEIM HILLS, CA, 92817","No_Match",NA,NA,NA,NA
964634,"P O BOX 18985","ANAHEIM","CA",92817,NA,NA,134,"P O BOX 18985, ANAHEIM, CA, 92817","No_Match",NA,NA,NA,NA
964635,"P O BOX 19","BLUFF CITY","AR",71722,NA,NA,135,"P O BOX 19, BLUFF CITY, AR, 71722","No_Match",NA,NA,NA,NA
964636,"P O BOX 19","NEW MANCHESTER","WV",26056,NA,NA,136,"P O BOX 19, NEW MANCHESTER, WV, 26056","No_Match",NA,NA,NA,NA
964637,"P O BOX 19","THREE SPRINGS","PA",17264,NA,NA,137,"P O BOX 19, THREE SPRINGS, PA, 17264","No_Match",NA,NA,NA,NA
964638,"P O BOX 190","SPRINGFIELD","LA",70462,NA,NA,138,"P O BOX 190, SPRINGFIELD, LA, 70462","No_Match",NA,NA,NA,NA
964639,"P O BOX 190","WINSTON","GA",30187,NA,NA,139,"P O BOX 190, WINSTON, GA, 30187","No_Match",NA,NA,NA,NA
964640,"P O BOX 190004","ROXBURY","MA",2119,NA,NA,140,"P O BOX 190004, ROXBURY, MA, 2119","No_Match",NA,NA,NA,NA
964641,"P O BOX 190034","MOBILE","AL",36619,NA,NA,141,"P O BOX 190034, MOBILE, AL, 36619","No_Match",NA,NA,NA,NA
964642,"P O BOX 19006","LONG BEACH","CA",90807,NA,NA,142,"P O BOX 19006, LONG BEACH, CA, 90807","No_Match",NA,NA,NA,NA
964643,"P O BOX 1901","MONTGOMERY","AL",36102,NA,NA,143,"P O BOX 1901, MONTGOMERY, AL, 36102","No_Match",NA,NA,NA,NA
964644,"P O BOX 190177","FORT LAUDERDALE","FL",33319,NA,NA,144,"P O BOX 190177, FORT LAUDERDALE, FL, 33319","No_Match",NA,NA,NA,NA
964645,"P O BOX 190177","FORT LAUDERDDALE","FL",33319,NA,NA,145,"P O BOX 190177, FORT LAUDERDDALE, FL, 33319","No_Match",NA,NA,NA,NA
964646,"P O BOX 1903","COLLAGEDALE",NA,NA,NA,NA,146,"P O BOX 1903, COLLAGEDALE, , ","No_Match",NA,NA,NA,NA
964647,"P O BOX 1903","COLLAGEDALE","TN",37315,NA,NA,147,"P O BOX 1903, COLLAGEDALE, TN, 37315","No_Match",NA,NA,NA,NA
964648,"P O BOX 1903","PINEDALE","WY",82941,NA,NA,148,"P O BOX 1903, PINEDALE, WY, 82941","No_Match",NA,NA,NA,NA
964649,"P O BOX 1905","FRESNO","CA",93718,NA,NA,149,"P O BOX 1905, FRESNO, CA, 93718","No_Match",NA,NA,NA,NA
964650,"P O BOX 1906","MOUNTAIN HOME","AR",72654,NA,NA,150,"P O BOX 1906, MOUNTAIN HOME, AR, 72654","No_Match",NA,NA,NA,NA
964651,"P O BOX 1907","AVON PARK","FL",33826,NA,NA,151,"P O BOX 1907, AVON PARK, FL, 33826","No_Match",NA,NA,NA,NA
964652,"P O BOX 190710","DALLAS","TX",75219,NA,NA,152,"P O BOX 190710, DALLAS, TX, 75219","No_Match",NA,NA,NA,NA
964653,"P O BOX 1908","NEWNAN","GA",30264,NA,NA,153,"P O BOX 1908, NEWNAN, GA, 30264","No_Match",NA,NA,NA,NA
964654,"P O BOX 191","ALBURGH","VT",5440,NA,NA,154,"P O BOX 191, ALBURGH, VT, 5440","No_Match",NA,NA,NA,NA
964655,"P O BOX 191","BUCYRUS","OH",44820,NA,NA,155,"P O BOX 191, BUCYRUS, OH, 44820","No_Match",NA,NA,NA,NA
964656,"P O BOX 191193","ATLANTA","GA",31119,NA,NA,156,"P O BOX 191193, ATLANTA, GA, 31119","No_Match",NA,NA,NA,NA
964657,"P O BOX 192","GUFFEY","CO",80820,NA,NA,157,"P O BOX 192, GUFFEY, CO, 80820","No_Match",NA,NA,NA,NA
964658,"P O BOX 192","MAUPIN","OR",97037,NA,NA,158,"P O BOX 192, MAUPIN, OR, 97037","No_Match",NA,NA,NA,NA
964659,"P O BOX 192","OLIVE BRANCH","IL",62969,NA,NA,159,"P O BOX 192, OLIVE BRANCH, IL, 62969","No_Match",NA,NA,NA,NA
964660,"P O BOX 192","PARKERSBURG","WV",26101,NA,NA,160,"P O BOX 192, PARKERSBURG, WV, 26101","No_Match",NA,NA,NA,NA
964661,"P O BOX 1922","WINTERVILLE","NC",28590,NA,NA,161,"P O BOX 1922, WINTERVILLE, NC, 28590","No_Match",NA,NA,NA,NA
964662,"P O BOX 19227","CINCINNATI","OH",45219,NA,NA,162,"P O BOX 19227, CINCINNATI, OH, 45219","No_Match",NA,NA,NA,NA
964663,"P O BOX 1924","GREENSBORO","NC",27402,NA,NA,163,"P O BOX 1924, GREENSBORO, NC, 27402","No_Match",NA,NA,NA,NA
964664,"P O BOX 1925","FLOMATON","ID",36441,NA,NA,164,"P O BOX 1925, FLOMATON, ID, 36441","No_Match",NA,NA,NA,NA
964665,"P O BOX 19252","SAN JUAN","PR",910,NA,NA,165,"P O BOX 19252, SAN JUAN, PR, 910","No_Match",NA,NA,NA,NA
964666,"P O BOX 192533","DALLAS","TX",75219,NA,NA,166,"P O BOX 192533, DALLAS, TX, 75219","No_Match",NA,NA,NA,NA
964667,"P O BOX 1926","IDYLLWILD","CA",92549,NA,NA,167,"P O BOX 1926, IDYLLWILD, CA, 92549","No_Match",NA,NA,NA,NA
964668,"P O BOX 1929","MILLS","WY",82644,NA,NA,168,"P O BOX 1929, MILLS, WY, 82644","No_Match",NA,NA,NA,NA
964669,"P O BOX 193 ASHAIMAN MELODY LODGE","ACCRA",NA,NA,NA,NA,169,"P O BOX 193 ASHAIMAN MELODY LODGE, ACCRA, , ","No_Match",NA,NA,NA,NA
964670,"P O BOX 193","ATOKA","OK",74525,NA,NA,170,"P O BOX 193, ATOKA, OK, 74525","No_Match",NA,NA,NA,NA
964671,"P O BOX 193","BRENHAM","TX",77834,NA,NA,171,"P O BOX 193, BRENHAM, TX, 77834","No_Match",NA,NA,NA,NA
964672,"P O BOX 193","HORATIO","SC",29062,NA,NA,172,"P O BOX 193, HORATIO, SC, 29062","No_Match",NA,NA,NA,NA
964673,"P O BOX 193","LEMING","TX",78050,NA,NA,173,"P O BOX 193, LEMING, TX, 78050","No_Match",NA,NA,NA,NA
964674,"P O BOX 193","SHIRO","TX",77876,NA,NA,174,"P O BOX 193, SHIRO, TX, 77876","No_Match",NA,NA,NA,NA
964675,"P O BOX 193","TURRELL","AR",72384,NA,NA,175,"P O BOX 193, TURRELL, AR, 72384","No_Match",NA,NA,NA,NA
964676,"P O BOX 19356","FORT WORTH","TX",76119,NA,NA,176,"P O BOX 19356, FORT WORTH, TX, 76119","No_Match",NA,NA,NA,NA
964677,"P O BOX 19366","SPOKANE","WA",99219,NA,NA,177,"P O BOX 19366, SPOKANE, WA, 99219","No_Match",NA,NA,NA,NA
964678,"P O BOX 1937","PARKSLEY","VA",23421,NA,NA,178,"P O BOX 1937, PARKSLEY, VA, 23421","No_Match",NA,NA,NA,NA
964679,"P O BOX 19382","CHICAGO","IL",60619,NA,NA,179,"P O BOX 19382, CHICAGO, IL, 60619","No_Match",NA,NA,NA,NA
964680,"P O BOX 1939","FREDERICK","MD",21702,NA,NA,180,"P O BOX 1939, FREDERICK, MD, 21702","No_Match",NA,NA,NA,NA
964681,"P O BOX 194","MINNEOLA","FL",34755,NA,NA,181,"P O BOX 194, MINNEOLA, FL, 34755","No_Match",NA,NA,NA,NA
964682,"P O BOX 194","SALEM","MO",65560,NA,NA,182,"P O BOX 194, SALEM, MO, 65560","No_Match",NA,NA,NA,NA
964683,"P O BOX 194","SUSSEX","NJ",7461,NA,NA,183,"P O BOX 194, SUSSEX, NJ, 7461","No_Match",NA,NA,NA,NA
964684,"P O BOX 1948","DAWSONVILLE","GA",30534,NA,NA,184,"P O BOX 1948, DAWSONVILLE, GA, 30534","No_Match",NA,NA,NA,NA
964685,"P O BOX 194845","SAN JUAN","PR",919,NA,NA,185,"P O BOX 194845, SAN JUAN, PR, 919","No_Match",NA,NA,NA,NA
964686,"P O BOX 195","BEASLEY","TX",77417,NA,NA,186,"P O BOX 195, BEASLEY, TX, 77417","No_Match",NA,NA,NA,NA
964687,"P O BOX 195","MCLAIN","MS",39456,NA,NA,187,"P O BOX 195, MCLAIN, MS, 39456","No_Match",NA,NA,NA,NA
964688,"P O BOX 195","WARRENVILLE","IL",60555,NA,NA,188,"P O BOX 195, WARRENVILLE, IL, 60555","No_Match",NA,NA,NA,NA
964689,"P O BOX 19501","CLEVELAND","OH",44119,NA,NA,189,"P O BOX 19501, CLEVELAND, OH, 44119","No_Match",NA,NA,NA,NA
964690,"P O BOX 1951 ALASKA STATE ULTRAS","HOMER","AK",99603,NA,NA,190,"P O BOX 1951 ALASKA STATE ULTRAS, HOMER, AK, 99603","No_Match",NA,NA,NA,NA
964691,"P O BOX 1951","HEMINGWAY","CA",29554,NA,NA,191,"P O BOX 1951, HEMINGWAY, CA, 29554","No_Match",NA,NA,NA,NA
964692,"P O BOX 1954","CHICAGO","IL",60690,NA,NA,192,"P O BOX 1954, CHICAGO, IL, 60690","No_Match",NA,NA,NA,NA
964693,"P O BOX 19547","SUGARLAND","TX",77496,NA,NA,193,"P O BOX 19547, SUGARLAND, TX, 77496","No_Match",NA,NA,NA,NA
964694,"P O BOX 196","HARDIN","MT",59034,NA,NA,194,"P O BOX 196, HARDIN, MT, 59034","No_Match",NA,NA,NA,NA
964695,"P O BOX 1960","NEW YORK","NY",10025,NA,NA,195,"P O BOX 1960, NEW YORK, NY, 10025","No_Match",NA,NA,NA,NA
964696,"P O BOX 1966","FOLEY","AL",36536,NA,NA,196,"P O BOX 1966, FOLEY, AL, 36536","No_Match",NA,NA,NA,NA
964697,"P O BOX 1972","LUFKIN","TX",75902,NA,NA,197,"P O BOX 1972, LUFKIN, TX, 75902","No_Match",NA,NA,NA,NA
964698,"P O BOX 1972","RIALTO","CA",92377,NA,NA,198,"P O BOX 1972, RIALTO, CA, 92377","No_Match",NA,NA,NA,NA
964699,"P O BOX 1974","RED OAK","TX",75154,NA,NA,199,"P O BOX 1974, RED OAK, TX, 75154","No_Match",NA,NA,NA,NA
964700,"P O BOX 1981","GRIFFIN","GA",30224,NA,NA,200,"P O BOX 1981, GRIFFIN, GA, 30224","No_Match",NA,NA,NA,NA
964701,"P O BOX 19826","WEST PALM BEACH","FL",33416,NA,NA,201,"P O BOX 19826, WEST PALM BEACH, FL, 33416","No_Match",NA,NA,NA,NA
964702,"P O BOX 1985","BRANDON","MS",39043,NA,NA,202,"P O BOX 1985, BRANDON, MS, 39043","No_Match",NA,NA,NA,NA
964703,"P O BOX 1985","PLUGERVILLE","TX",78660,NA,NA,203,"P O BOX 1985, PLUGERVILLE, TX, 78660","No_Match",NA,NA,NA,NA
964704,"P O BOX 198808","CHICAGO","IL",60619,NA,NA,204,"P O BOX 198808, CHICAGO, IL, 60619","No_Match",NA,NA,NA,NA
964705,"P O BOX 199","KITTREDGE","CO",80457,NA,NA,205,"P O BOX 199, KITTREDGE, CO, 80457","No_Match",NA,NA,NA,NA
964706,"P O BOX 199","LANGLEY","WA",98260,NA,NA,206,"P O BOX 199, LANGLEY, WA, 98260","No_Match",NA,NA,NA,NA
964707,"P O BOX 1990","FREEDOM","CA",95019,NA,NA,207,"P O BOX 1990, FREEDOM, CA, 95019","No_Match",NA,NA,NA,NA
964708,"P O BOX 1991","SAINT ALBANS","WV",25177,NA,NA,208,"P O BOX 1991, SAINT ALBANS, WV, 25177","No_Match",NA,NA,NA,NA
964709,"P O BOX 1C","FARWELL","MN",56327,NA,NA,209,"P O BOX 1C, FARWELL, MN, 56327","No_Match",NA,NA,NA,NA
964710,"P O BOX 2","HANALEI","HI",96714,NA,NA,210,"P O BOX 2, HANALEI, HI, 96714","No_Match",NA,NA,NA,NA
964711,"P O BOX 2","LAGRANGE","TN",38046,NA,NA,211,"P O BOX 2, LAGRANGE, TN, 38046","No_Match",NA,NA,NA,NA
964712,"P O BOX 2","LARGO","FL",33779,NA,NA,212,"P O BOX 2, LARGO, FL, 33779","No_Match",NA,NA,NA,NA
964713,"P O BOX 2","METCALFE","MS",38760,NA,NA,213,"P O BOX 2, METCALFE, MS, 38760","No_Match",NA,NA,NA,NA
964714,"P O BOX 2","MILLERS TAVERN","VA",23115,NA,NA,214,"P O BOX 2, MILLERS TAVERN, VA, 23115","No_Match",NA,NA,NA,NA
964715,"P O BOX 2","PARKIN","AR",72373,NA,NA,215,"P O BOX 2, PARKIN, AR, 72373","No_Match",NA,NA,NA,NA
964716,"P O BOX 2","PORTLAND","ME",4112,NA,NA,216,"P O BOX 2, PORTLAND, ME, 4112","No_Match",NA,NA,NA,NA
964717,"P O BOX 2","VICTORIA","VA",23974,NA,NA,217,"P O BOX 2, VICTORIA, VA, 23974","No_Match",NA,NA,NA,NA
964718,"P O BOX 200","HOLLY POND","AL",35083,NA,NA,218,"P O BOX 200, HOLLY POND, AL, 35083","No_Match",NA,NA,NA,NA
964719,"P O BOX 2000","CAGUAS","PR",726,NA,NA,219,"P O BOX 2000, CAGUAS, PR, 726","No_Match",NA,NA,NA,NA
964720,"P O BOX 2000485","AUSTIN","TX",78720,NA,NA,220,"P O BOX 2000485, AUSTIN, TX, 78720","No_Match",NA,NA,NA,NA
964721,"P O BOX 20041","BAKERSFIELD","CA",93390,NA,NA,221,"P O BOX 20041, BAKERSFIELD, CA, 93390","No_Match",NA,NA,NA,NA
964722,"P O BOX 20044","MONTGOMERY","AL",36116,NA,NA,222,"P O BOX 20044, MONTGOMERY, AL, 36116","No_Match",NA,NA,NA,NA
964723,"P O BOX 200645","SOUTH OZONE PARK","NY",11420,NA,NA,223,"P O BOX 200645, SOUTH OZONE PARK, NY, 11420","No_Match",NA,NA,NA,NA
964724,"P O BOX 20089","STANFORD","CA",94309,NA,NA,224,"P O BOX 20089, STANFORD, CA, 94309","No_Match",NA,NA,NA,NA
964725,"P O BOX 201","CARVER","MA",2330,NA,NA,225,"P O BOX 201, CARVER, MA, 2330","No_Match",NA,NA,NA,NA
964726,"P O BOX 201","OAKDALE","LA",71463,NA,NA,226,"P O BOX 201, OAKDALE, LA, 71463","No_Match",NA,NA,NA,NA
964727,"P O BOX 201","OOLTEWAH","TN",37363,NA,NA,227,"P O BOX 201, OOLTEWAH, TN, 37363","No_Match",NA,NA,NA,NA
964728,"P O BOX 201","POTTER VALLEY","CA",95469,NA,NA,228,"P O BOX 201, POTTER VALLEY, CA, 95469","No_Match",NA,NA,NA,NA
964729,"P O BOX 20104","COLORADO CITY","CO",81019,NA,NA,229,"P O BOX 20104, COLORADO CITY, CO, 81019","No_Match",NA,NA,NA,NA
964730,"P O BOX 2012","BUELLTON","CA",93427,NA,NA,230,"P O BOX 2012, BUELLTON, CA, 93427","No_Match",NA,NA,NA,NA
964731,"P O BOX 2014","NORFOLK","VA",23501,NA,NA,231,"P O BOX 2014, NORFOLK, VA, 23501","No_Match",NA,NA,NA,NA
964732,"P O BOX 2015","WINNEMUCCA","NV",89446,NA,NA,232,"P O BOX 2015, WINNEMUCCA, NV, 89446","No_Match",NA,NA,NA,NA
964733,"P O BOX 20151","BILLINGS","MT",59104,NA,NA,233,"P O BOX 20151, BILLINGS, MT, 59104","No_Match",NA,NA,NA,NA
964734,"P O BOX 201774","CLEVELAND","OH",44120,NA,NA,234,"P O BOX 201774, CLEVELAND, OH, 44120","No_Match",NA,NA,NA,NA
964735,"P O BOX 201781","SHAKER HEIGHTS","OH",44120,NA,NA,235,"P O BOX 201781, SHAKER HEIGHTS, OH, 44120","No_Match",NA,NA,NA,NA
964736,"P O BOX 20186","ALBUQUERQUE","NM",87154,NA,NA,236,"P O BOX 20186, ALBUQUERQUE, NM, 87154","No_Match",NA,NA,NA,NA
964737,"P O BOX 20186","OKLAHOMA CITY","OK",73156,NA,NA,237,"P O BOX 20186, OKLAHOMA CITY, OK, 73156","No_Match",NA,NA,NA,NA
964738,"P O BOX 202","AMBLER","PA",19002,NA,NA,238,"P O BOX 202, AMBLER, PA, 19002","No_Match",NA,NA,NA,NA
964739,"P O BOX 202","CAPE COAST",NA,NA,NA,NA,239,"P O BOX 202, CAPE COAST, , ","No_Match",NA,NA,NA,NA
964740,"P O BOX 202","HOLLY GROVE","AR",72069,NA,NA,240,"P O BOX 202, HOLLY GROVE, AR, 72069","No_Match",NA,NA,NA,NA
964741,"P O BOX 202","JACKSON","MS",39205,NA,NA,241,"P O BOX 202, JACKSON, MS, 39205","No_Match",NA,NA,NA,NA
964742,"P O BOX 202","WAMPUM","PA",16157,NA,NA,242,"P O BOX 202, WAMPUM, PA, 16157","No_Match",NA,NA,NA,NA
964743,"P O BOX 202138","SAN ANTONIO","TX",78220,NA,NA,243,"P O BOX 202138, SAN ANTONIO, TX, 78220","No_Match",NA,NA,NA,NA
964744,"P O BOX 2022","KEAAU","HI",96749,NA,NA,244,"P O BOX 2022, KEAAU, HI, 96749","No_Match",NA,NA,NA,NA
964745,"P O BOX 2025","LYNNWOOD","WA",98036,NA,NA,245,"P O BOX 2025, LYNNWOOD, WA, 98036","No_Match",NA,NA,NA,NA
964746,"P O BOX 2026","WEATHERFORD","OK",73096,NA,NA,246,"P O BOX 2026, WEATHERFORD, OK, 73096","No_Match",NA,NA,NA,NA
964747,"P O BOX 203","ALTA VISTA","IA",50603,NA,NA,247,"P O BOX 203, ALTA VISTA, IA, 50603","No_Match",NA,NA,NA,NA
964748,"P O BOX 203","BRAWLEY","CA",92227,NA,NA,248,"P O BOX 203, BRAWLEY, CA, 92227","No_Match",NA,NA,NA,NA
964749,"P O BOX 203","GLENWOOD","AR",71943,NA,NA,249,"P O BOX 203, GLENWOOD, AR, 71943","No_Match",NA,NA,NA,NA
964750,"P O BOX 203","MADISON","VA",22727,NA,NA,250,"P O BOX 203, MADISON, VA, 22727","No_Match",NA,NA,NA,NA
964751,"P O BOX 203","OXFORD","MD",21654,NA,NA,251,"P O BOX 203, OXFORD, MD, 21654","No_Match",NA,NA,NA,NA
964752,"P O BOX 203","PLAINFIELD","NH",3781,NA,NA,252,"P O BOX 203, PLAINFIELD, NH, 3781","No_Match",NA,NA,NA,NA
964753,"P O BOX 2035","EAST DENNIS","MA",2641,NA,NA,253,"P O BOX 2035, EAST DENNIS, MA, 2641","No_Match",NA,NA,NA,NA
964754,"P O BOX 20367","FERNDALE","MI",48220,NA,NA,254,"P O BOX 20367, FERNDALE, MI, 48220","No_Match",NA,NA,NA,NA
964755,"P O BOX 204","LIBERTY","IL",62347,NA,NA,255,"P O BOX 204, LIBERTY, IL, 62347","No_Match",NA,NA,NA,NA
964756,"P O BOX 2043","CULPEPER","VA",22701,NA,NA,256,"P O BOX 2043, CULPEPER, VA, 22701","No_Match",NA,NA,NA,NA
964757,"P O BOX 20442","BROOKLYN","NY",11202,NA,NA,257,"P O BOX 20442, BROOKLYN, NY, 11202","No_Match",NA,NA,NA,NA
964758,"P O BOX 20442","HOT SPRINGS","AR",71902,NA,NA,258,"P O BOX 20442, HOT SPRINGS, AR, 71902","No_Match",NA,NA,NA,NA
964759,"P O BOX 20454","CHEYENNE","WY",82003,NA,NA,259,"P O BOX 20454, CHEYENNE, WY, 82003","No_Match",NA,NA,NA,NA
964760,"P O BOX 20455","SEATTLE","WA",98102,NA,NA,260,"P O BOX 20455, SEATTLE, WA, 98102","No_Match",NA,NA,NA,NA
964761,"P O BOX 2046","GLEN ELLEN","CA",95442,NA,NA,261,"P O BOX 2046, GLEN ELLEN, CA, 95442","No_Match",NA,NA,NA,NA
964762,"P O BOX 2046","NEW CITY","NY",10956,NA,NA,262,"P O BOX 2046, NEW CITY, NY, 10956","No_Match",NA,NA,NA,NA
964763,"P O BOX 205 / FERN LANE","MOOSE","WY",83012,NA,NA,263,"P O BOX 205 / FERN LANE, MOOSE, WY, 83012","No_Match",NA,NA,NA,NA
964764,"P O BOX 205","BELLEVILLE","MI",48112,NA,NA,264,"P O BOX 205, BELLEVILLE, MI, 48112","No_Match",NA,NA,NA,NA
964765,"P O BOX 205","KENNESAW","GA",30156,NA,NA,265,"P O BOX 205, KENNESAW, GA, 30156","No_Match",NA,NA,NA,NA
964766,"P O BOX 205","ROSANKY","TX",78953,NA,NA,266,"P O BOX 205, ROSANKY, TX, 78953","No_Match",NA,NA,NA,NA
964767,"P O BOX 205","SUITLAND","MD",20752,NA,NA,267,"P O BOX 205, SUITLAND, MD, 20752","No_Match",NA,NA,NA,NA
964768,"P O BOX 205","URIAH","AL",36480,NA,NA,268,"P O BOX 205, URIAH, AL, 36480","No_Match",NA,NA,NA,NA
964769,"P O BOX 2052","DICKSON","TN",37056,NA,NA,269,"P O BOX 2052, DICKSON, TN, 37056","No_Match",NA,NA,NA,NA
964770,"P O BOX 2052","HIXSON","TN",37343,NA,NA,270,"P O BOX 2052, HIXSON, TN, 37343","No_Match",NA,NA,NA,NA
964771,"P O BOX 20522","BALTIMORE","MD",21223,NA,NA,271,"P O BOX 20522, BALTIMORE, MD, 21223","No_Match",NA,NA,NA,NA
964772,"P O BOX 2054","CALHOUN","GA",30703,NA,NA,272,"P O BOX 2054, CALHOUN, GA, 30703","No_Match",NA,NA,NA,NA
964773,"P O BOX 2057","WRIGHTWOOD","CA",92397,NA,NA,273,"P O BOX 2057, WRIGHTWOOD, CA, 92397","No_Match",NA,NA,NA,NA
964774,"P O BOX 206","BRADY","MT",59416,NA,NA,274,"P O BOX 206, BRADY, MT, 59416","No_Match",NA,NA,NA,NA
964775,"P O BOX 206","BULLARD","TX",75757,NA,NA,275,"P O BOX 206, BULLARD, TX, 75757","No_Match",NA,NA,NA,NA
964776,"P O BOX 206","DECHERD","TN",37324,NA,NA,276,"P O BOX 206, DECHERD, TN, 37324","No_Match",NA,NA,NA,NA
964777,"P O BOX 206","LAKECITY","SC",29560,NA,NA,277,"P O BOX 206, LAKECITY, SC, 29560","No_Match",NA,NA,NA,NA
964778,"P O BOX 2061","CARLSBAD","NM",88221,NA,NA,278,"P O BOX 2061, CARLSBAD, NM, 88221","No_Match",NA,NA,NA,NA
964779,"P O BOX 2061","OMAK","WA",98841,NA,NA,279,"P O BOX 2061, OMAK, WA, 98841","No_Match",NA,NA,NA,NA
964780,"P O BOX 2062","AZLE","TX",76098,NA,NA,280,"P O BOX 2062, AZLE, TX, 76098","No_Match",NA,NA,NA,NA
964781,"P O BOX 20642","MACON","GA",31205,NA,NA,281,"P O BOX 20642, MACON, GA, 31205","No_Match",NA,NA,NA,NA
964782,"P O BOX 206457","LOUISVILLE","KY",40250,NA,NA,282,"P O BOX 206457, LOUISVILLE, KY, 40250","No_Match",NA,NA,NA,NA
964783,"P O BOX 20661","WEST PALM BEACH","FL",33416,NA,NA,283,"P O BOX 20661, WEST PALM BEACH, FL, 33416","No_Match",NA,NA,NA,NA
964784,"P O BOX 20673","INDIANAPOLIS","IN",46220,NA,NA,284,"P O BOX 20673, INDIANAPOLIS, IN, 46220","No_Match",NA,NA,NA,NA
964785,"P O BOX 20673","LOS ANGELES","CA",90006,NA,NA,285,"P O BOX 20673, LOS ANGELES, CA, 90006","No_Match",NA,NA,NA,NA
964786,"P O BOX 207","ALMA","CO",80420,NA,NA,286,"P O BOX 207, ALMA, CO, 80420","No_Match",NA,NA,NA,NA
964787,"P O BOX 207","BRIMFIELD","MA",1010,NA,NA,287,"P O BOX 207, BRIMFIELD, MA, 1010","No_Match",NA,NA,NA,NA
964788,"P O Box 207","SHELBY","NC",28151,NA,NA,288,"P O Box 207, SHELBY, NC, 28151","No_Match",NA,NA,NA,NA
964789,"P O BOX 207","ST ROSE","LA",70087,NA,NA,289,"P O BOX 207, ST ROSE, LA, 70087","No_Match",NA,NA,NA,NA
964790,"P O BOX 20718","WHITE HALL","AR",71602,NA,NA,290,"P O BOX 20718, WHITE HALL, AR, 71602","No_Match",NA,NA,NA,NA
964791,"P O BOX 2073","MILL VALLEY","CA",94942,NA,NA,291,"P O BOX 2073, MILL VALLEY, CA, 94942","No_Match",NA,NA,NA,NA
964792,"P O BOX 20737","HOT SPRINGS","AR",71903,NA,NA,292,"P O BOX 20737, HOT SPRINGS, AR, 71903","No_Match",NA,NA,NA,NA
964793,"P O BOX 2074","WILLISTON","ND",58802,NA,NA,293,"P O BOX 2074, WILLISTON, ND, 58802","No_Match",NA,NA,NA,NA
964794,"P O BOX 208 /10655 UPPER MEADOW","MOOSE","WY",83012,NA,NA,294,"P O BOX 208 /10655 UPPER MEADOW, MOOSE, WY, 83012","No_Match",NA,NA,NA,NA
964795,"P O BOX 208","HOPKINSVILLE","KY",42241,NA,NA,295,"P O BOX 208, HOPKINSVILLE, KY, 42241","No_Match",NA,NA,NA,NA
964796,"P O BOX 2083","ASPEN","CO",81612,NA,NA,296,"P O BOX 2083, ASPEN, CO, 81612","No_Match",NA,NA,NA,NA
964797,"P O BOX 2087","LITHONIA","GA",30058,NA,NA,297,"P O BOX 2087, LITHONIA, GA, 30058","No_Match",NA,NA,NA,NA
964798,"P O BOX 2088","FRONT ROYAL","VA",22630,NA,NA,298,"P O BOX 2088, FRONT ROYAL, VA, 22630","No_Match",NA,NA,NA,NA
964799,"P O BOX 21","BENSON","AZ",85602,NA,NA,299,"P O BOX 21, BENSON, AZ, 85602","No_Match",NA,NA,NA,NA
964800,"P O BOX 21","CLARKESVILLE","GA",30523,NA,NA,300,"P O BOX 21, CLARKESVILLE, GA, 30523","No_Match",NA,NA,NA,NA
964801,"P O BOX 21","INDEPENDENCE","CA",93526,NA,NA,301,"P O BOX 21, INDEPENDENCE, CA, 93526","No_Match",NA,NA,NA,NA
964802,"P O BOX 21","MAYFLOWER","AR",72106,NA,NA,302,"P O BOX 21, MAYFLOWER, AR, 72106","No_Match",NA,NA,NA,NA
964803,"P O BOX 21","MURPHY","NC",28906,NA,NA,303,"P O BOX 21, MURPHY, NC, 28906","No_Match",NA,NA,NA,NA
964804,"P O BOX 21","NEWCASTLE","OK",73065,NA,NA,304,"P O BOX 21, NEWCASTLE, OK, 73065","No_Match",NA,NA,NA,NA
964805,"P O BOX 21","RANDOLPH","OH",44265,NA,NA,305,"P O BOX 21, RANDOLPH, OH, 44265","No_Match",NA,NA,NA,NA
964806,"P O BOX 21","SEWANEE","TN",37375,NA,NA,306,"P O BOX 21, SEWANEE, TN, 37375","No_Match",NA,NA,NA,NA
964807,"P O BOX 210","LIBERTY","SC",29657,NA,NA,307,"P O BOX 210, LIBERTY, SC, 29657","No_Match",NA,NA,NA,NA
964808,"P O BOX 21007","JACKSON","MS",39289,NA,NA,308,"P O BOX 21007, JACKSON, MS, 39289","No_Match",NA,NA,NA,NA
964809,"P O BOX 210196","DALLAS","TX",75211,NA,NA,309,"P O BOX 210196, DALLAS, TX, 75211","No_Match",NA,NA,NA,NA
964810,"P O BOX 2102","BRUNSWICK","GA",31520,NA,NA,310,"P O BOX 2102, BRUNSWICK, GA, 31520","No_Match",NA,NA,NA,NA
964811,"P O BOX 2106","PITTSBURGH","PA",15230,NA,NA,311,"P O BOX 2106, PITTSBURGH, PA, 15230","No_Match",NA,NA,NA,NA
964812,"P O BOX 210726","BROOKLYN","NY",11221,NA,NA,312,"P O BOX 210726, BROOKLYN, NY, 11221","No_Match",NA,NA,NA,NA
964813,"P O BOX 210761","ST LOUIS","MO",63121,NA,NA,313,"P O BOX 210761, ST LOUIS, MO, 63121","No_Match",NA,NA,NA,NA
964814,"P O BOX 2109","GRAY","GA",31032,NA,NA,314,"P O BOX 2109, GRAY, GA, 31032","No_Match",NA,NA,NA,NA
964815,"P O BOX 2109","PINEDALE","WY",82941,NA,NA,315,"P O BOX 2109, PINEDALE, WY, 82941","No_Match",NA,NA,NA,NA
964816,"P O BOX 210993","ANCHORAGE","AK",99521,NA,NA,316,"P O BOX 210993, ANCHORAGE, AK, 99521","No_Match",NA,NA,NA,NA
964817,"P O BOX 211 510 2ND AVENUE WEST","WENDELL","ID",83355,42.7774011590001,-114.711173587,317,"P O BOX 211 510 2ND AVENUE WEST, WENDELL, ID, 83355","Match","Exact","510 2ND AVE W, WENDELL, ID, 83355",118507251,"R"
964818,"P O BOX 211","GOULD","AR",71643,NA,NA,318,"P O BOX 211, GOULD, AR, 71643","No_Match",NA,NA,NA,NA
964819,"P O BOX 211","GRACEWOOD","GA",30812,NA,NA,319,"P O BOX 211, GRACEWOOD, GA, 30812","No_Match",NA,NA,NA,NA
964820,"P O BOX 211","HONOMU","HI",96728,NA,NA,320,"P O BOX 211, HONOMU, HI, 96728","No_Match",NA,NA,NA,NA
964821,"P O BOX 211","LEXINGTON","MS",39095,NA,NA,321,"P O BOX 211, LEXINGTON, MS, 39095","No_Match",NA,NA,NA,NA
964822,"P O BOX 211","VERNON","AL",35592,NA,NA,322,"P O BOX 211, VERNON, AL, 35592","No_Match",NA,NA,NA,NA
964823,"P O BOX 2113","MEMPHIS","TN",38111,NA,NA,323,"P O BOX 2113, MEMPHIS, TN, 38111","No_Match",NA,NA,NA,NA
964824,"P O BOX 2115","GULFPORT","MS",39505,NA,NA,324,"P O BOX 2115, GULFPORT, MS, 39505","No_Match",NA,NA,NA,NA
964825,"P O BOX 21151","EUGENE","OR",97402,NA,NA,325,"P O BOX 21151, EUGENE, OR, 97402","No_Match",NA,NA,NA,NA
964826,"P O BOX 21154","ROANOKE","VA",24018,NA,NA,326,"P O BOX 21154, ROANOKE, VA, 24018","No_Match",NA,NA,NA,NA
964827,"P O BOX 212","ALPINE","AL",35014,NA,NA,327,"P O BOX 212, ALPINE, AL, 35014","No_Match",NA,NA,NA,NA
964828,"P O BOX 212","BRONX","NY",10452,NA,NA,328,"P O BOX 212, BRONX, NY, 10452","No_Match",NA,NA,NA,NA
964829,"P O BOX 212092","COLUMBIA","SC",29221,NA,NA,329,"P O BOX 212092, COLUMBIA, SC, 29221","No_Match",NA,NA,NA,NA
964830,"P O BOX 21210","BAKERSFIELD","CA",93390,NA,NA,330,"P O BOX 21210, BAKERSFIELD, CA, 93390","No_Match",NA,NA,NA,NA
964831,"P O BOX 212404","COLUMBIA","SC",29221,NA,NA,331,"P O BOX 212404, COLUMBIA, SC, 29221","No_Match",NA,NA,NA,NA
964832,"P O BOX 2126","HENDERSON","TX",75653,NA,NA,332,"P O BOX 2126, HENDERSON, TX, 75653","No_Match",NA,NA,NA,NA
964833,"P O BOX 21267","EL CAJON","CA",92021,NA,NA,333,"P O BOX 21267, EL CAJON, CA, 92021","No_Match",NA,NA,NA,NA
964834,"P O BOX 2127","SEBASTOPOL","CA",95473,NA,NA,334,"P O BOX 2127, SEBASTOPOL, CA, 95473","No_Match",NA,NA,NA,NA
964835,"P O BOX 21283","WACO","TX",76702,NA,NA,335,"P O BOX 21283, WACO, TX, 76702","No_Match",NA,NA,NA,NA
964836,"P O BOX 213","LANSING","KS",66043,NA,NA,336,"P O BOX 213, LANSING, KS, 66043","No_Match",NA,NA,NA,NA
964837,"P O BOX 213","LYLE","WA",98635,NA,NA,337,"P O BOX 213, LYLE, WA, 98635","No_Match",NA,NA,NA,NA
964838,"P O BOX 213","NEGLEY","OH",44441,NA,NA,338,"P O BOX 213, NEGLEY, OH, 44441","No_Match",NA,NA,NA,NA
964839,"P O BOX 213","PEARL RIVER","LA",70452,NA,NA,339,"P O BOX 213, PEARL RIVER, LA, 70452","No_Match",NA,NA,NA,NA
964840,"P O BOX 2132","ORANGE","TX",77631,NA,NA,340,"P O BOX 2132, ORANGE, TX, 77631","No_Match",NA,NA,NA,NA
964841,"P O BOX 21323","WASHINGTON","DC",20009,NA,NA,341,"P O BOX 21323, WASHINGTON, DC, 20009","No_Match",NA,NA,NA,NA
964842,"P O BOX 21347","HOUSTON","TX",77226,NA,NA,342,"P O BOX 21347, HOUSTON, TX, 77226","No_Match",NA,NA,NA,NA
964843,"P O BOX 214","FARWELL","NM",79325,NA,NA,343,"P O BOX 214, FARWELL, NM, 79325","No_Match",NA,NA,NA,NA
964844,"P O BOX 214","PIKEVILLE","TN",37367,NA,NA,344,"P O BOX 214, PIKEVILLE, TN, 37367","No_Match",NA,NA,NA,NA
964845,"P O BOX 214","STUDLEY","VA",23162,NA,NA,345,"P O BOX 214, STUDLEY, VA, 23162","No_Match",NA,NA,NA,NA
964846,"P O BOX 214","WINCHESTER","AR",71677,NA,NA,346,"P O BOX 214, WINCHESTER, AR, 71677","No_Match",NA,NA,NA,NA
964847,"P O BOX 21415","TALLAHASSEE","FL",32316,NA,NA,347,"P O BOX 21415, TALLAHASSEE, FL, 32316","No_Match",NA,NA,NA,NA
964848,"P O BOX 2144","ABERDEEN","WA",98520,NA,NA,348,"P O BOX 2144, ABERDEEN, WA, 98520","No_Match",NA,NA,NA,NA
964849,"P O BOX 2145","FREDERICKSBURG","TX",78624,NA,NA,349,"P O BOX 2145, FREDERICKSBURG, TX, 78624","No_Match",NA,NA,NA,NA
964850,"P O BOX 21467","WICHITA","KS",67208,NA,NA,350,"P O BOX 21467, WICHITA, KS, 67208","No_Match",NA,NA,NA,NA
964851,"P O BOX 215","PLANTERSVILLE","TX",77363,NA,NA,351,"P O BOX 215, PLANTERSVILLE, TX, 77363","No_Match",NA,NA,NA,NA
964852,"P O BOX 215","SLANESVILLE","WV",25444,NA,NA,352,"P O BOX 215, SLANESVILLE, WV, 25444","No_Match",NA,NA,NA,NA
964853,"P O BOX 2152","HAWTHORNE","CA",90251,NA,NA,353,"P O BOX 2152, HAWTHORNE, CA, 90251","No_Match",NA,NA,NA,NA
964854,"P O BOX 2154","MATTESON","IL",60443,NA,NA,354,"P O BOX 2154, MATTESON, IL, 60443","No_Match",NA,NA,NA,NA
964855,"P O BOX 216","BIG STONE GAP","VA",24219,NA,NA,355,"P O BOX 216, BIG STONE GAP, VA, 24219","No_Match",NA,NA,NA,NA
964856,"P O BOX 216","GOLD HILL","NC",28071,NA,NA,356,"P O BOX 216, GOLD HILL, NC, 28071","No_Match",NA,NA,NA,NA
964857,"P O BOX 216","JEREMIAH","KY",41826,NA,NA,357,"P O BOX 216, JEREMIAH, KY, 41826","No_Match",NA,NA,NA,NA
964858,"P O BOX 216","MERIT","TX",75458,NA,NA,358,"P O BOX 216, MERIT, TX, 75458","No_Match",NA,NA,NA,NA
964859,"P O BOX 216","NEWNAN","GA",30264,NA,NA,359,"P O BOX 216, NEWNAN, GA, 30264","No_Match",NA,NA,NA,NA
964860,"P O BOX 2160","WINNEMUCCA","NV",89446,NA,NA,360,"P O BOX 2160, WINNEMUCCA, NV, 89446","No_Match",NA,NA,NA,NA
964861,"P O BOX 2166","PAGOSA SPRINGS","CO",81147,NA,NA,361,"P O BOX 2166, PAGOSA SPRINGS, CO, 81147","No_Match",NA,NA,NA,NA
964862,"P O BOX 217","ALMA","CO",80420,NA,NA,362,"P O BOX 217, ALMA, CO, 80420","No_Match",NA,NA,NA,NA
964863,"P O BOX 217","CROWVILLE","LA",71230,NA,NA,363,"P O BOX 217, CROWVILLE, LA, 71230","No_Match",NA,NA,NA,NA
964864,"P O BOX 217","MOUNTAIN CITY","GA",30562,NA,NA,364,"P O BOX 217, MOUNTAIN CITY, GA, 30562","No_Match",NA,NA,NA,NA
964865,"P O BOX 2171","VENTURA","CA",93002,NA,NA,365,"P O BOX 2171, VENTURA, CA, 93002","No_Match",NA,NA,NA,NA
964866,"P O BOX 21712","EL CAJON","CA",92021,NA,NA,366,"P O BOX 21712, EL CAJON, CA, 92021","No_Match",NA,NA,NA,NA
964867,"P O BOX 217134","CHARLOTTE","NC",28221,NA,NA,367,"P O BOX 217134, CHARLOTTE, NC, 28221","No_Match",NA,NA,NA,NA
964868,"P O BOX 2172","ROSWELL","GA",30077,NA,NA,368,"P O BOX 2172, ROSWELL, GA, 30077","No_Match",NA,NA,NA,NA
964869,"P O BOX 218","FENTON","MI",48430,NA,NA,369,"P O BOX 218, FENTON, MI, 48430","No_Match",NA,NA,NA,NA
964870,"P O BOX 218","MAUPIN","OR",97037,NA,NA,370,"P O BOX 218, MAUPIN, OR, 97037","No_Match",NA,NA,NA,NA
964871,"P O BOX 218","REIDSVILLE","GA",30453,NA,NA,371,"P O BOX 218, REIDSVILLE, GA, 30453","No_Match",NA,NA,NA,NA
964872,"P O BOX 218","REPTON","AL",36475,NA,NA,372,"P O BOX 218, REPTON, AL, 36475","No_Match",NA,NA,NA,NA
964873,"P O BOX 218","SCOTLAND NECK","NC",27874,NA,NA,373,"P O BOX 218, SCOTLAND NECK, NC, 27874","No_Match",NA,NA,NA,NA
964874,"P O BOX 2181","CUMMING","GA",30028,NA,NA,374,"P O BOX 2181, CUMMING, GA, 30028","No_Match",NA,NA,NA,NA
964875,"P O BOX 2182","DESOTO","TX",75123,NA,NA,375,"P O BOX 2182, DESOTO, TX, 75123","No_Match",NA,NA,NA,NA
964876,"P O BOX 2186","FLORENCE","AZ",85132,NA,NA,376,"P O BOX 2186, FLORENCE, AZ, 85132","No_Match",NA,NA,NA,NA
964877,"P O BOX 21880","DETROIT","MI",48221,NA,NA,377,"P O BOX 21880, DETROIT, MI, 48221","No_Match",NA,NA,NA,NA
964878,"P O BOX 219","CUMBY","TX",75433,NA,NA,378,"P O BOX 219, CUMBY, TX, 75433","No_Match",NA,NA,NA,NA
964879,"P O BOX 219","KILA","MT",59920,NA,NA,379,"P O BOX 219, KILA, MT, 59920","No_Match",NA,NA,NA,NA
964880,"P O BOX 219","NEW EGYPT","NJ",8533,NA,NA,380,"P O BOX 219, NEW EGYPT, NJ, 8533","No_Match",NA,NA,NA,NA
964881,"P O BOX 2193","PEARL CITY","HI",96782,NA,NA,381,"P O BOX 2193, PEARL CITY, HI, 96782","No_Match",NA,NA,NA,NA
964882,"P O BOX 2198","DESOTO","TX",75123,NA,NA,382,"P O BOX 2198, DESOTO, TX, 75123","No_Match",NA,NA,NA,NA
964883,"P O BOX 2198","KINGSHILL","VI",851,NA,NA,383,"P O BOX 2198, KINGSHILL, VI, 851","No_Match",NA,NA,NA,NA
964884,"P O BOX 22","CASTANER","PR",631,NA,NA,384,"P O BOX 22, CASTANER, PR, 631","No_Match",NA,NA,NA,NA
964885,"P O BOX 22","DALLAS","GA",30132,NA,NA,385,"P O BOX 22, DALLAS, GA, 30132","No_Match",NA,NA,NA,NA
964886,"P O BOX 22","DANA","KY",41603,NA,NA,386,"P O BOX 22, DANA, KY, 41603","No_Match",NA,NA,NA,NA
964887,"P O BOX 22","JASPER","GA",30143,NA,NA,387,"P O BOX 22, JASPER, GA, 30143","No_Match",NA,NA,NA,NA
964888,"P O BOX 22","PARAMOUNT","CA",90723,NA,NA,388,"P O BOX 22, PARAMOUNT, CA, 90723","No_Match",NA,NA,NA,NA
964889,"P O BOX 22","SELIGMAN","AZ",86337,NA,NA,389,"P O BOX 22, SELIGMAN, AZ, 86337","No_Match",NA,NA,NA,NA
964890,"P O BOX 22","SILVER SPRING","WV",26810,NA,NA,390,"P O BOX 22, SILVER SPRING, WV, 26810","No_Match",NA,NA,NA,NA
964891,"P O BOX 220","COLUMBUS","GA",31836,NA,NA,391,"P O BOX 220, COLUMBUS, GA, 31836","No_Match",NA,NA,NA,NA
964892,"P O BOX 220","MCALEN","TX",78505,NA,NA,392,"P O BOX 220, MCALEN, TX, 78505","No_Match",NA,NA,NA,NA
964893,"P O BOX 220","MCALLEN","TX",78505,NA,NA,393,"P O BOX 220, MCALLEN, TX, 78505","No_Match",NA,NA,NA,NA
964894,"P O BOX 220","WARRIOR","AL",35180,NA,NA,394,"P O BOX 220, WARRIOR, AL, 35180","No_Match",NA,NA,NA,NA
964895,"P O BOX 2200","MCDONOUGH","GA",30253,NA,NA,395,"P O BOX 2200, MCDONOUGH, GA, 30253","No_Match",NA,NA,NA,NA
964896,"P O BOX 22033","LITTLE ROCK","AR",72221,NA,NA,396,"P O BOX 22033, LITTLE ROCK, AR, 72221","No_Match",NA,NA,NA,NA
964897,"P O BOX 2204","BATTLE CREEK","MI",49016,NA,NA,397,"P O BOX 2204, BATTLE CREEK, MI, 49016","No_Match",NA,NA,NA,NA
964898,"P O BOX 220563","ANCHORAGE","AK",99522,NA,NA,398,"P O BOX 220563, ANCHORAGE, AK, 99522","No_Match",NA,NA,NA,NA
964899,"P O BOX 2207","FLORENCE","AZ",85132,NA,NA,399,"P O BOX 2207, FLORENCE, AZ, 85132","No_Match",NA,NA,NA,NA
964900,"P O BOX 2207","MOUT BELVIEU","TX",77580,NA,NA,400,"P O BOX 2207, MOUT BELVIEU, TX, 77580","No_Match",NA,NA,NA,NA
964901,"P O BOX 22081","BEACHWOOD","OH",44122,NA,NA,401,"P O BOX 22081, BEACHWOOD, OH, 44122","No_Match",NA,NA,NA,NA
964902,"P O BOX 221","CAMILLA","GA",31779,NA,NA,402,"P O BOX 221, CAMILLA, GA, 31779","No_Match",NA,NA,NA,NA
964903,"P O BOX 221","CLEMMONS","NC",27012,NA,NA,403,"P O BOX 221, CLEMMONS, NC, 27012","No_Match",NA,NA,NA,NA
964904,"P O BOX 221","COLUMBIA FALLS","MT",59912,NA,NA,404,"P O BOX 221, COLUMBIA FALLS, MT, 59912","No_Match",NA,NA,NA,NA
964905,"P O BOX 221","MEDINA","TN",38355,NA,NA,405,"P O BOX 221, MEDINA, TN, 38355","No_Match",NA,NA,NA,NA
964906,"P O BOX 221","PRINCETON","NC",27569,NA,NA,406,"P O BOX 221, PRINCETON, NC, 27569","No_Match",NA,NA,NA,NA
964907,"P O BOX 22103","CHEYENNE","WY",82003,NA,NA,407,"P O BOX 22103, CHEYENNE, WY, 82003","No_Match",NA,NA,NA,NA
964908,"P O BOX 221141","NEWHALL","CA",91322,NA,NA,408,"P O BOX 221141, NEWHALL, CA, 91322","No_Match",NA,NA,NA,NA
964909,"P O BOX 2212","LILBURN","GA",30048,NA,NA,409,"P O BOX 2212, LILBURN, GA, 30048","No_Match",NA,NA,NA,NA
964910,"P O BOX 221267","ANCHORAGE","AK",99522,NA,NA,410,"P O BOX 221267, ANCHORAGE, AK, 99522","No_Match",NA,NA,NA,NA
964911,"P O BOX 2214","ELIZABETH","NJ",7207,NA,NA,411,"P O BOX 2214, ELIZABETH, NJ, 7207","No_Match",NA,NA,NA,NA
964912,"P O BOX 22162","HUNTSVILLE","AL",35814,NA,NA,412,"P O BOX 22162, HUNTSVILLE, AL, 35814","No_Match",NA,NA,NA,NA
964913,"P O BOX 22162P O BOX 22162","HUNTSVILLE","AL",35814,NA,NA,413,"P O BOX 22162P O BOX 22162, HUNTSVILLE, AL, 35814","No_Match",NA,NA,NA,NA
964914,"P O BOX 22182","SACRAMENTO","CA",95822,NA,NA,414,"P O BOX 22182, SACRAMENTO, CA, 95822","No_Match",NA,NA,NA,NA
964915,"P O BOX 222","HOT SPRINGS","SD",57747,NA,NA,415,"P O BOX 222, HOT SPRINGS, SD, 57747","No_Match",NA,NA,NA,NA
964916,"P O BOX 222","NORTH SUTTON","NH",3260,NA,NA,416,"P O BOX 222, NORTH SUTTON, NH, 3260","No_Match",NA,NA,NA,NA
964917,"P O BOX 222","WOODLAND PARK","CO",80866,NA,NA,417,"P O BOX 222, WOODLAND PARK, CO, 80866","No_Match",NA,NA,NA,NA
964918,"P O BOX 2221","BRYSON CITY","NC",28713,NA,NA,418,"P O BOX 2221, BRYSON CITY, NC, 28713","No_Match",NA,NA,NA,NA
964919,"P O BOX 2226","ARLINGTON","TX",76004,NA,NA,419,"P O BOX 2226, ARLINGTON, TX, 76004","No_Match",NA,NA,NA,NA
964920,"P O BOX 2226","HUDSON OAKS","TX",76004,NA,NA,420,"P O BOX 2226, HUDSON OAKS, TX, 76004","No_Match",NA,NA,NA,NA
964921,"P O BOX 22267","AKRON","OH",44302,NA,NA,421,"P O BOX 22267, AKRON, OH, 44302","No_Match",NA,NA,NA,NA
964922,"P O BOX 222872","CHRISTIANSTED","VI",820,NA,NA,422,"P O BOX 222872, CHRISTIANSTED, VI, 820","No_Match",NA,NA,NA,NA
964923,"P O BOX 223","ALTHA","FL",32421,NA,NA,423,"P O BOX 223, ALTHA, FL, 32421","No_Match",NA,NA,NA,NA
964924,"P O BOX 223","BOGALUSA","LA",70429,NA,NA,424,"P O BOX 223, BOGALUSA, LA, 70429","No_Match",NA,NA,NA,NA
964925,"P O BOX 223","NOXEN","PA",18636,NA,NA,425,"P O BOX 223, NOXEN, PA, 18636","No_Match",NA,NA,NA,NA
964926,"P O BOX 223009","PRINCEVILLE","HI",96722,NA,NA,426,"P O BOX 223009, PRINCEVILLE, HI, 96722","No_Match",NA,NA,NA,NA
964927,"P O BOX 2231","BATON ROUGE","LA",70821,NA,NA,427,"P O BOX 2231, BATON ROUGE, LA, 70821","No_Match",NA,NA,NA,NA
964928,"P O BOX 2231","VERNON","TX",76385,NA,NA,428,"P O BOX 2231, VERNON, TX, 76385","No_Match",NA,NA,NA,NA
964929,"P O BOX 223255","WEST PALM BEACH","FL",33422,NA,NA,429,"P O BOX 223255, WEST PALM BEACH, FL, 33422","No_Match",NA,NA,NA,NA
964930,"P O BOX 223329","PRINCEVILLE","HI",96722,NA,NA,430,"P O BOX 223329, PRINCEVILLE, HI, 96722","No_Match",NA,NA,NA,NA
964931,"P O BOX 223352","PRINCEVILLE","HI",96722,NA,NA,431,"P O BOX 223352, PRINCEVILLE, HI, 96722","No_Match",NA,NA,NA,NA
964932,"P O BOX 223418","PRINCEVILLE","HI",96722,NA,NA,432,"P O BOX 223418, PRINCEVILLE, HI, 96722","No_Match",NA,NA,NA,NA
964933,"P O BOX 223486","CHRISTIANSTED","VI",822,NA,NA,433,"P O BOX 223486, CHRISTIANSTED, VI, 822","No_Match",NA,NA,NA,NA
964934,"P O BOX 223912","DALLAS","TX",75222,NA,NA,434,"P O BOX 223912, DALLAS, TX, 75222","No_Match",NA,NA,NA,NA
964935,"P O BOX 224","DELANO","CA",93216,NA,NA,435,"P O BOX 224, DELANO, CA, 93216","No_Match",NA,NA,NA,NA
964936,"P O BOX 224","DYESS","AR",72230,NA,NA,436,"P O BOX 224, DYESS, AR, 72230","No_Match",NA,NA,NA,NA
964937,"P O BOX 224","MEADOW VALLEY","CA",95956,NA,NA,437,"P O BOX 224, MEADOW VALLEY, CA, 95956","No_Match",NA,NA,NA,NA
964938,"P O BOX 2242","KAPAA","HI",96746,NA,NA,438,"P O BOX 2242, KAPAA, HI, 96746","No_Match",NA,NA,NA,NA
964939,"P O BOX 22421","CHARLESTON","SC",29413,NA,NA,439,"P O BOX 22421, CHARLESTON, SC, 29413","No_Match",NA,NA,NA,NA
964940,"P O BOX 2245","LOVELAND","CO",80539,NA,NA,440,"P O BOX 2245, LOVELAND, CO, 80539","No_Match",NA,NA,NA,NA
964941,"P O BOX 2247","WEST PALM BEACH","FL",33416,NA,NA,441,"P O BOX 2247, WEST PALM BEACH, FL, 33416","No_Match",NA,NA,NA,NA
964942,"P O BOX 225","ELKHART","IL",62634,NA,NA,442,"P O BOX 225, ELKHART, IL, 62634","No_Match",NA,NA,NA,NA
964943,"P O BOX 225","STURGEON BAY","WI",NA,NA,NA,443,"P O BOX 225, STURGEON BAY, WI, ","No_Match",NA,NA,NA,NA
964944,"P O BOX 2255","OXFORD","NC",27565,NA,NA,444,"P O BOX 2255, OXFORD, NC, 27565","No_Match",NA,NA,NA,NA
964945,"P O BOX 226","AVALON","NJ",8202,NA,NA,445,"P O BOX 226, AVALON, NJ, 8202","No_Match",NA,NA,NA,NA
964946,"P O BOX 226","MOULTONBORO","NH",3254,NA,NA,446,"P O BOX 226, MOULTONBORO, NH, 3254","No_Match",NA,NA,NA,NA
964947,"P O BOX 2261","RICHMOND","CA",94802,NA,NA,447,"P O BOX 2261, RICHMOND, CA, 94802","No_Match",NA,NA,NA,NA
964948,"P O BOX 2264","SLIDELL","LA",70459,NA,NA,448,"P O BOX 2264, SLIDELL, LA, 70459","No_Match",NA,NA,NA,NA
964949,"P O BOX 2268","ROBBINSVILLE","NC",28771,NA,NA,449,"P O BOX 2268, ROBBINSVILLE, NC, 28771","No_Match",NA,NA,NA,NA
964950,"P O BOX 22683","SAVANNAH","GA",31403,NA,NA,450,"P O BOX 22683, SAVANNAH, GA, 31403","No_Match",NA,NA,NA,NA
964951,"P O BOX 227","VEGA","TX",79092,NA,NA,451,"P O BOX 227, VEGA, TX, 79092","No_Match",NA,NA,NA,NA
964952,"P O BOX 2272","FLORISSANT","MO",63032,NA,NA,452,"P O BOX 2272, FLORISSANT, MO, 63032","No_Match",NA,NA,NA,NA
964953,"P O BOX 227263","DALLAS","TX",75222,NA,NA,453,"P O BOX 227263, DALLAS, TX, 75222","No_Match",NA,NA,NA,NA
964954,"P O BOX 2273","BOWIE","MD",20718,NA,NA,454,"P O BOX 2273, BOWIE, MD, 20718","No_Match",NA,NA,NA,NA
964955,"P O BOX 2274","ROCKWALL","TX",75087,NA,NA,455,"P O BOX 2274, ROCKWALL, TX, 75087","No_Match",NA,NA,NA,NA
964956,"p o box 228","deary","ID",83823,NA,NA,456,"p o box 228, deary, ID, 83823","No_Match",NA,NA,NA,NA
964957,"P O BOX 228","MULLEN","NE",69152,NA,NA,457,"P O BOX 228, MULLEN, NE, 69152","No_Match",NA,NA,NA,NA
964958,"P O BOX 22893","NASHVILLE","TN",37202,NA,NA,458,"P O BOX 22893, NASHVILLE, TN, 37202","No_Match",NA,NA,NA,NA
964959,"P O BOX 22928","HOUSTON","TX",77227,NA,NA,459,"P O BOX 22928, HOUSTON, TX, 77227","No_Match",NA,NA,NA,NA
964960,"P O BOX 2294","MISSOURI CITY","TX",77459,NA,NA,460,"P O BOX 2294, MISSOURI CITY, TX, 77459","No_Match",NA,NA,NA,NA
964961,"P O BOX 22972","NASHVILLE","TN",37202,NA,NA,461,"P O BOX 22972, NASHVILLE, TN, 37202","No_Match",NA,NA,NA,NA
964962,"P O BOX 23","ALTOONA","KS",66710,NA,NA,462,"P O BOX 23, ALTOONA, KS, 66710","No_Match",NA,NA,NA,NA
964963,"P O BOX 23","CAREYWOOD","ID",83809,NA,NA,463,"P O BOX 23, CAREYWOOD, ID, 83809","No_Match",NA,NA,NA,NA
964964,"P O BOX 23","CUMBERLAND","VA",23040,NA,NA,464,"P O BOX 23, CUMBERLAND, VA, 23040","No_Match",NA,NA,NA,NA
964965,"P O BOX 23","ROUNDUP","MT",59072,NA,NA,465,"P O BOX 23, ROUNDUP, MT, 59072","No_Match",NA,NA,NA,NA
964966,"P O BOX 23004","COLUMBIA","SC",29224,NA,NA,466,"P O BOX 23004, COLUMBIA, SC, 29224","No_Match",NA,NA,NA,NA
964967,"P O BOX 23013","JACKSONVILLE","FL",32241,NA,NA,467,"P O BOX 23013, JACKSONVILLE, FL, 32241","No_Match",NA,NA,NA,NA
964968,"P O BOX 2302","CHINO","CA",91710,NA,NA,468,"P O BOX 2302, CHINO, CA, 91710","No_Match",NA,NA,NA,NA
964969,"P O BOX 2305","RIDGELAND","MS",39158,NA,NA,469,"P O BOX 2305, RIDGELAND, MS, 39158","No_Match",NA,NA,NA,NA
964970,"P O BOX 2306","BARTLESVILLE","OK",74005,NA,NA,470,"P O BOX 2306, BARTLESVILLE, OK, 74005","No_Match",NA,NA,NA,NA
964971,"P O BOX 231","COURTLAND","VA",23837,NA,NA,471,"P O BOX 231, COURTLAND, VA, 23837","No_Match",NA,NA,NA,NA
964972,"P O BOX 231","FAYETTEVILLE","WV",25480,NA,NA,472,"P O BOX 231, FAYETTEVILLE, WV, 25480","No_Match",NA,NA,NA,NA
964973,"P O BOX 231","MENDENHALL","MS",39114,NA,NA,473,"P O BOX 231, MENDENHALL, MS, 39114","No_Match",NA,NA,NA,NA
964974,"P O BOX 231","STRATFORD","NY",13470,NA,NA,474,"P O BOX 231, STRATFORD, NY, 13470","No_Match",NA,NA,NA,NA
964975,"P O BOX 2310","GAYLORD","MI",49734,NA,NA,475,"P O BOX 2310, GAYLORD, MI, 49734","No_Match",NA,NA,NA,NA
964976,"P O BOX 2311","APTOS","CA",95001,NA,NA,476,"P O BOX 2311, APTOS, CA, 95001","No_Match",NA,NA,NA,NA
964977,"P O BOX 231243","HOUSTON","TX",77223,NA,NA,477,"P O BOX 231243, HOUSTON, TX, 77223","No_Match",NA,NA,NA,NA
964978,"P O BOX 232","DIME BOX","TX",77853,NA,NA,478,"P O BOX 232, DIME BOX, TX, 77853","No_Match",NA,NA,NA,NA
964979,"P O BOX 232","PLAIN DEALING","LA",71064,NA,NA,479,"P O BOX 232, PLAIN DEALING, LA, 71064","No_Match",NA,NA,NA,NA
964980,"P O BOX 232","QUAKERTOWN","PA",18951,NA,NA,480,"P O BOX 232, QUAKERTOWN, PA, 18951","No_Match",NA,NA,NA,NA
964981,"P O BOX 2321","ALABASTER","AL",35007,NA,NA,481,"P O BOX 2321, ALABASTER, AL, 35007","No_Match",NA,NA,NA,NA
964982,"P O BOX 2328","WAUSAU","WI",54402,NA,NA,482,"P O BOX 2328, WAUSAU, WI, 54402","No_Match",NA,NA,NA,NA
964983,"P O BOX 233","ESTHERWOOD","LA",70534,NA,NA,483,"P O BOX 233, ESTHERWOOD, LA, 70534","No_Match",NA,NA,NA,NA
964984,"P O BOX 233","JAMAICA","VT",5343,NA,NA,484,"P O BOX 233, JAMAICA, VT, 5343","No_Match",NA,NA,NA,NA
964985,"P O BOX 233","LIUMPKIN","GA",31815,NA,NA,485,"P O BOX 233, LIUMPKIN, GA, 31815","No_Match",NA,NA,NA,NA
964986,"P O BOX 233","MOUND BAYOU","MS",38762,NA,NA,486,"P O BOX 233, MOUND BAYOU, MS, 38762","No_Match",NA,NA,NA,NA
964987,"P O BOX 233","WINDSOR","NC",27983,NA,NA,487,"P O BOX 233, WINDSOR, NC, 27983","No_Match",NA,NA,NA,NA
964988,"P O BOX 2338","NOVATO","CA",94947,NA,NA,488,"P O BOX 2338, NOVATO, CA, 94947","No_Match",NA,NA,NA,NA
964989,"P O BOX 23391","PHOENIX","AZ",85063,NA,NA,489,"P O BOX 23391, PHOENIX, AZ, 85063","No_Match",NA,NA,NA,NA
964990,"P O BOX 234","CEDAR KEY","FL",32625,NA,NA,490,"P O BOX 234, CEDAR KEY, FL, 32625","No_Match",NA,NA,NA,NA
964991,"P O BOX 234","GOODLETTSVILLE","TN",37070,NA,NA,491,"P O BOX 234, GOODLETTSVILLE, TN, 37070","No_Match",NA,NA,NA,NA
964992,"P O BOX 234","PIKEVILLE","TN",37367,NA,NA,492,"P O BOX 234, PIKEVILLE, TN, 37367","No_Match",NA,NA,NA,NA
964993,"P O BOX 234","SEAFORD","VA",23696,NA,NA,493,"P O BOX 234, SEAFORD, VA, 23696","No_Match",NA,NA,NA,NA
964994,"P O BOX 234","VIDOR","TX",77670,NA,NA,494,"P O BOX 234, VIDOR, TX, 77670","No_Match",NA,NA,NA,NA
964995,"P O BOX 234","VIDOR","TX",77706,NA,NA,495,"P O BOX 234, VIDOR, TX, 77706","No_Match",NA,NA,NA,NA
964996,"P O BOX 2340","GARDENA","CA",90247,NA,NA,496,"P O BOX 2340, GARDENA, CA, 90247","No_Match",NA,NA,NA,NA
964997,"P O BOX 2342","POWDER SPRINGS","GA",30127,NA,NA,497,"P O BOX 2342, POWDER SPRINGS, GA, 30127","No_Match",NA,NA,NA,NA
964998,"P O BOX 2348","GLENVILLE","NC",28736,NA,NA,498,"P O BOX 2348, GLENVILLE, NC, 28736","No_Match",NA,NA,NA,NA
964999,"P O BOX 235","CANADIAN","TX",79014,NA,NA,499,"P O BOX 235, CANADIAN, TX, 79014","No_Match",NA,NA,NA,NA
965000,"P O BOX 235","FLOYD","VA",24091,NA,NA,500,"P O BOX 235, FLOYD, VA, 24091","No_Match",NA,NA,NA,NA
