"ID","Address","City","State","Zip","lat","long","id","input_address","match_indicator","match_type","matched_address","tiger_line_id","tiger_side"
499501,"3154 HWY 1","RACELAND","LA",70394,29.736471866,-90.649937746,1,"3154 HWY 1, RACELAND, LA, 70394","Match","Non_Exact","3154 STATE HWY 1, RACELAND, LA, 70394",92351856,"L"
499502,"3154 LAKESIDE DR 205","GRAND JUNCTION","CO",81506,39.0989255490001,-108.555734037,2,"3154 LAKESIDE DR 205, GRAND JUNCTION, CO, 81506","Match","Exact","3154 LAKESIDE DR, GRAND JCT, CO, 81506",122465078,"L"
499503,"3154 LAKESIDE DR APT 204","GRAND JCT","CO",81506,39.0989255490001,-108.555734037,3,"3154 LAKESIDE DR APT 204, GRAND JCT, CO, 81506","Match","Exact","3154 LAKESIDE DR, GRAND JCT, CO, 81506",122465078,"L"
499504,"3154 N 14TH STREET","MILWAUKEE","WI",53206,43.0760886040001,-87.9286653949999,4,"3154 N 14TH STREET, MILWAUKEE, WI, 53206","Match","Exact","3154 N 14TH ST, MILWAUKEE, WI, 53206",77739142,"R"
499505,"3154 RAVENWOOD DR","FALLS CHURCH","VA",22044,38.861543415,-77.154228109,5,"3154 RAVENWOOD DR, FALLS CHURCH, VA, 22044","Match","Exact","3154 RAVENWOOD DR, FALLS CHURCH, VA, 22044",75981432,"R"
499506,"3154 RIDGEVIEW RD","CADDO MILLS","TX",75135,33.0467206550001,-96.195065627,6,"3154 RIDGEVIEW RD, CADDO MILLS, TX, 75135","Match","Exact","3154 RIDGEVIEW RD, CADDO MILLS, TX, 75135",642336119,"R"
499507,"3154 STATE ROUTE 352","BIG FLATS","NY",14814,42.1328394350001,-76.946907561,7,"3154 STATE ROUTE 352, BIG FLATS, NY, 14814","Match","Exact","3154 STATE RTE 352, BIG FLATS, NY, 14814",614662741,"L"
499508,"3154 SUMMIT CREST SW","ATLANTA","GA",30311,33.7052773940001,-84.493714088,8,"3154 SUMMIT CREST SW, ATLANTA, GA, 30311","Match","Non_Exact","3154 SUMMIT CRST, ATLANTA, GA, 30311",618356441,"R"
499509,"3154 SYCAMORE RD","CLEVELAND HEIGHTS","OH",44112,41.5143917300001,-81.566767571,9,"3154 SYCAMORE RD, CLEVELAND HEIGHTS, OH, 44112","Match","Non_Exact","3154 SYCAMORE RD, CLEVELAND HEIGHTS, OH, 44118",61123206,"R"
499510,"3154 TOWNSHIP HIGHWAY 95","CAREY","OH",43316,40.94718829,-83.4291682579999,10,"3154 TOWNSHIP HIGHWAY 95, CAREY, OH, 43316","Match","Exact","3154 TWP HWY 95, CAREY, OH, 43316",13043564,"L"
499511,"3154 WARRENTON STREET","JACKSONVILLE","FL",32254,NA,NA,11,"3154 WARRENTON STREET, JACKSONVILLE, FL, 32254","No_Match",NA,NA,NA,NA
499512,"3154 WEST GOLDEN VALLEY","SPRINGFIELD","MO",65807,37.1544340930001,-93.342028276,12,"3154 WEST GOLDEN VALLEY, SPRINGFIELD, MO, 65807","Match","Exact","3154 W GOLDEN VALLEY, SPRINGFIELD, MO, 65807",646717672,"L"
499513,"31542 FOREST BLVD","STACY","MN",55079,45.405182284,-92.982693404,13,"31542 FOREST BLVD, STACY, MN, 55079","Match","Exact","31542 FOREST BLVD, STACY, MN, 55079",97566557,"L"
499514,"31543 MENDOCINO CT","TEMECULA","CA",92592,33.4632468130001,-117.108947824,14,"31543 MENDOCINO CT, TEMECULA, CA, 92592","Match","Exact","31543 MENDOCINO CT, TEMECULA, CA, 92592",618701316,"L"
499515,"31544 FOX GRAPE DR","WINCHESTER","CA",92596,33.619364617,-117.109096964,15,"31544 FOX GRAPE DR, WINCHESTER, CA, 92596","Match","Exact","31544 FOX GRAPE DR, WINCHESTER, CA, 92596",630360814,"L"
499516,"31544 GRENNADA ST","LIVONIA","MI",48154,42.3880244700001,-83.35547518,16,"31544 GRENNADA ST, LIVONIA, MI, 48154","Match","Exact","31544 GRENNADA ST, LIVONIA, MI, 48154",95413083,"R"
499517,"31548 136TH ST NW","PRINCETON","MN",55371,45.5418989350001,-93.6141822549999,17,"31548 136TH ST NW, PRINCETON, MN, 55371","Match","Non_Exact","31548 136TH ST, PRINCETON, MN, 55371",97773895,"L"
499518,"3155 310TH AVENUE","ST EDWARD","NE",68660,41.6042296460001,-97.888888375,18,"3155 310TH AVENUE, ST EDWARD, NE, 68660","Match","Exact","3155 310TH AVE, SAINT EDWARD, NE, 68660",161719706,"L"
499519,"3155 ANDERSON HWY","POWHATAN","VA",23139,37.5325316810001,-77.864790133,19,"3155 ANDERSON HWY, POWHATAN, VA, 23139","Match","Exact","3155 ANDERSON HWY, POWHATAN, VA, 23139",73830211,"L"
499520,"3155 ASPEN AVE","COLLEGE PARK","GA",30349,33.58821727,-84.4895197449999,20,"3155 ASPEN AVE, COLLEGE PARK, GA, 30349","Match","Exact","3155 ASPEN AVE, COLLEGE PARK, GA, 30349",623855946,"R"
499521,"3155 ASPEN AVENUE","COLLEGE PARK","GA",30349,33.58821727,-84.4895197449999,21,"3155 ASPEN AVENUE, COLLEGE PARK, GA, 30349","Match","Exact","3155 ASPEN AVE, COLLEGE PARK, GA, 30349",623855946,"R"
499522,"3155 BEECH DRIVE","DECATUR","GA",30032,33.757938747,-84.2603150209999,22,"3155 BEECH DRIVE, DECATUR, GA, 30032","Match","Exact","3155 BEECH DR, DECATUR, GA, 30032",23369812,"R"
499523,"3155 BENT OAK ROAD","PENSACOLA","FL",32526,30.443091893,-87.304748221,23,"3155 BENT OAK ROAD, PENSACOLA, FL, 32526","Match","Exact","3155 BENT OAK RD, PENSACOLA, FL, 32526",93212249,"L"
499524,"3155 BERKSHIRE MANOR DR","ALPHARETTA","GA",30022,34.0310493630001,-84.268525124,24,"3155 BERKSHIRE MANOR DR, ALPHARETTA, GA, 30022","Match","Exact","3155 BERKSHIRE MANOR DR, ALPHARETTA, GA, 30022",17353821,"R"
499525,"3155 BLUESTEM DR NUM 372","WEST FARGO","ND",58078,46.834232538,-96.8848784469999,25,"3155 BLUESTEM DR NUM 372, WEST FARGO, ND, 58078","Match","Exact","3155 BLUESTEM DR, WEST FARGO, ND, 58078",643021181,"L"
499526,"3155 BREEZY HILL RD","DAVISBORO","GA",31018,32.962315878,-82.556756176,26,"3155 BREEZY HILL RD, DAVISBORO, GA, 31018","Match","Exact","3155 BREEZY HILL RD, DAVISBORO, GA, 31018",16768100,"R"
499527,"3155 BROTON","FRUITPORT","MI",49415,43.1952749270001,-86.0769271949999,27,"3155 BROTON, FRUITPORT, MI, 49415","Match","Non_Exact","3155 BROTON RD, FRUITPORT, MI, 49415",77668022,"L"
499528,"3155 BROWN LOOP","DUPONT","WA",98327,47.097986222,-122.678259492,28,"3155 BROWN LOOP, DUPONT, WA, 98327","Match","Exact","3155 BROWN LOOP, DUPONT, WA, 98327",625031161,"R"
499529,"3155 BURLINGTON AVE N APT 211","ST PETERSBURG","FL",33713,27.773744773,-82.6761834289999,29,"3155 BURLINGTON AVE N APT 211, ST PETERSBURG, FL, 33713","Match","Exact","3155 BURLINGTON AVE N, SAINT PETERSBURG, FL, 33713",124705451,"R"
499530,"3155 BURLINGTON AVENUE NO  APT 310","ST PETERSBURG","FL",33713,27.773744773,-82.6761834289999,30,"3155 BURLINGTON AVENUE NO  APT 310, ST PETERSBURG, FL, 33713","Match","Exact","3155 BURLINGTON AVE N, SAINT PETERSBURG, FL, 33713",124705451,"R"
499531,"3155 CALEDONIA ROAD","CADIZ","KY",42211,36.8358978460001,-87.768353823,31,"3155 CALEDONIA ROAD, CADIZ, KY, 42211","Match","Exact","3155 CALEDONIA RD, CADIZ, KY, 42211",11932223,"L"
499532,"3155 CAMBRIA RD SW","ATLANTA","GA",30331,33.668006511,-84.5105435099999,32,"3155 CAMBRIA RD SW, ATLANTA, GA, 30331","Match","Non_Exact","3155 CAMBRIA RD, ATLANTA, GA, 30331",619993836,"L"
499533,"3155 CARRIAGE DRIVE","PALM HARBOR","FL",34684,28.097636774,-82.738187513,33,"3155 CARRIAGE DRIVE, PALM HARBOR, FL, 34684","Match","Exact","3155 CARRIAGE DR, PALM HARBOR, FL, 34684",124679604,"R"
499534,"3155 CARVER","KINGMAN","AZ",86409,35.2676754390001,-114.006398007,34,"3155 CARVER, KINGMAN, AZ, 86409","Match","Non_Exact","3155 CARVER AVE, KINGMAN, AZ, 86409",190308236,"L"
499535,"3155 CHAPEL OAKS DRIVE APT 306","COPPELL","TX",75019,32.9320650610001,-96.987239185,35,"3155 CHAPEL OAKS DRIVE APT 306, COPPELL, TX, 75019","Match","Exact","3155 CHAPEL OAKS DR, COPPELL, TX, 75019",646662986,"L"
499536,"3155 CLEVELAND ST NE","MINNEAPOLIS","MN",55418,NA,NA,36,"3155 CLEVELAND ST NE, MINNEAPOLIS, MN, 55418","No_Match",NA,NA,NA,NA
499537,"3155 COOLIDGE","BERKLEY","MI",48072,NA,NA,37,"3155 COOLIDGE, BERKLEY, MI, 48072","No_Match",NA,NA,NA,NA
499538,"3155 DAISY LN","DECATUR","IL",62521,39.7979742430001,-88.9795836499999,38,"3155 DAISY LN, DECATUR, IL, 62521","Match","Exact","3155 DAISY LN, DECATUR, IL, 62521",20765083,"R"
499539,"3155 DALLAVO CT","COMMERCE","MI",48390,42.5678216900001,-83.4531957139999,39,"3155 DALLAVO CT, COMMERCE, MI, 48390","Match","Non_Exact","3155 DALLAVO CT, COMMERCE TOWNSHIP, MI, 48390",69837746,"L"
499540,"3155 DELSEA DRIVE","CLAYTON","NJ",8312,NA,NA,40,"3155 DELSEA DRIVE, CLAYTON, NJ, 8312","No_Match",NA,NA,NA,NA
499541,"3155 DOGWOOD LANE","MARGATE","FL",33063,26.2682781460001,-80.218959798,41,"3155 DOGWOOD LANE, MARGATE, FL, 33063","Match","Exact","3155 DOGWOOD LN, MARGATE, FL, 33063",114780731,"L"
499542,"3155 DOVER COURT","DULUTH","GA",30096,33.988579375,-84.138065105,42,"3155 DOVER COURT, DULUTH, GA, 30096","Match","Non_Exact","3155 DOVER CT NW, DULUTH, GA, 30096",88885305,"R"
499543,"3155 E 104TH AVE 4C","THORNTON","CO",80233,39.885047892,-104.947438347,43,"3155 E 104TH AVE 4C, THORNTON, CO, 80233","Match","Non_Exact","3155 E 104TH AVE, THORNTON, CO, 80233",177422518,"L"
499544,"3155 E SEDONA CT STE A","ONTARIO","CA",91786,34.068856801,-117.583335877,44,"3155 E SEDONA CT STE A, ONTARIO, CA, 91786","Match","Non_Exact","3155 SEDONA CT, ONTARIO, CA, 91764",619660819,"L"
499545,"3155 E SEDONA CT","ONTARIO","CA",91786,34.0688567190001,-117.583354938,45,"3155 E SEDONA CT, ONTARIO, CA, 91786","Match","Non_Exact","3155 SEDONA CT, ONTARIO, CA, 91764",619660819,"L"
499546,"3155 FINSTERWALD DRIVE","TITUSVILLE","FL",32780,28.580369794,-80.8224004149999,46,"3155 FINSTERWALD DRIVE, TITUSVILLE, FL, 32780","Match","Exact","3155 FINSTERWALD DR, TITUSVILLE, FL, 32780",93919365,"R"
499547,"3155 FLOWERS ROAD SOUTH","ATLANTA","GA",30341,33.8713278060001,-84.2588089069999,47,"3155 FLOWERS ROAD SOUTH, ATLANTA, GA, 30341","Match","Exact","3155 FLOWERS RD S, ATLANTA, GA, 30341",23401381,"R"
499548,"3155 FM 559","TEXARKANA","TX",75503,NA,NA,48,"3155 FM 559, TEXARKANA, TX, 75503","No_Match",NA,NA,NA,NA
499549,"3155 FOXEN CANYON RD","LOS OLIVOS","CA",93441,34.6736709630001,-120.122774137,49,"3155 FOXEN CANYON RD, LOS OLIVOS, CA, 93441","Match","Exact","3155 FOXEN CANYON RD, LOS OLIVOS, CA, 93441",634673093,"L"
499550,"3155 FREMONT ST","BOULDER","CO",80304,40.0319178710001,-105.265067085,50,"3155 FREMONT ST, BOULDER, CO, 80304","Match","Exact","3155 FREMONT ST, BOULDER, CO, 80304",220751616,"L"
499551,"3155 FRENCH RD 58","BEAUMONT","TX",77706,30.1113379060001,-94.141049639,51,"3155 FRENCH RD 58, BEAUMONT, TX, 77706","Match","Exact","3155 FRENCH RD, BEAUMONT, TX, 77706",73850244,"L"
499552,"3155 FRONTENAC CT NE","BROOKHAVEN","GA",30319,33.881040731,-84.3373012119999,52,"3155 FRONTENAC CT NE, BROOKHAVEN, GA, 30319","Match","Exact","3155 FRONTENAC CT NE, BROOKHAVEN, GA, 30319",23357827,"R"
499553,"3155 GRAND CONCOURSE APT 6E","BRONX","NY",10468,40.8758219750001,-73.886217932,53,"3155 GRAND CONCOURSE APT 6E, BRONX, NY, 10468","Match","Exact","3155 GRAND CONCOURSE, BRONX, NY, 10468",640811573,"L"
499554,"3155 GRAND CONCOURSE","BRONX","NY",10468,40.8758219750001,-73.886217932,54,"3155 GRAND CONCOURSE, BRONX, NY, 10468","Match","Exact","3155 GRAND CONCOURSE, BRONX, NY, 10468",640811573,"L"
499555,"3155 HEMBREE TRACE DRIVE","MARRIETTA","GA",30062,34.0271582730001,-84.441992016,55,"3155 HEMBREE TRACE DRIVE, MARRIETTA, GA, 30062","Match","Non_Exact","3155 HEMBREE TRACE DR, MARIETTA, GA, 30062",17221135,"R"
499556,"3155 HENDRICK DRIVE","MCDONOUGH","GA",30252,NA,NA,56,"3155 HENDRICK DRIVE, MCDONOUGH, GA, 30252","No_Match",NA,NA,NA,NA
499557,"3155 HILLDALE RD","FORT WORTH","TX",76116,32.7282873890001,-97.423154398,57,"3155 HILLDALE RD, FORT WORTH, TX, 76116","Match","Exact","3155 HILLDALE RD, FORT WORTH, TX, 76116",101880008,"L"
499558,"3155 KAREN STREET","FORT WORTH","TX",76116,32.727477804,-97.451871734,58,"3155 KAREN STREET, FORT WORTH, TX, 76116","Match","Exact","3155 KAREN ST, FORT WORTH, TX, 76116",101877962,"L"
499559,"3155 LA MANCHA WAY","HENDERSON","NV",89014,36.0591575180001,-115.086229348,59,"3155 LA MANCHA WAY, HENDERSON, NV, 89014","Match","Exact","3155 LA MANCHA WAY, HENDERSON, NV, 89014",201992111,"R"
499560,"3155 LEYTE","SAN ANTONIO","TX",78217,29.5305271240001,-98.4365733499999,60,"3155 LEYTE, SAN ANTONIO, TX, 78217","Match","Non_Exact","3155 LEYTE ST, SAN ANTONIO, TX, 78217",635394395,"L"
499561,"3155 LONGMEADOW LN","CINCINNATI","OH",45236,39.214638377,-84.423842518,61,"3155 LONGMEADOW LN, CINCINNATI, OH, 45236","Match","Exact","3155 LONGMEADOW LN, CINCINNATI, OH, 45236",103931445,"R"
499562,"3155 MARICOPA AVE","LAKE HAVASU CITY","AZ",86406,34.456983746,-114.28571338,62,"3155 MARICOPA AVE, LAKE HAVASU CITY, AZ, 86406","Match","Exact","3155 MARICOPA AVE, LAKE HAVASU CITY, AZ, 86406",649953828,"R"
499563,"3155 MARICOPA","LAKE HAVASU CITY","AZ",86403,NA,NA,63,"3155 MARICOPA, LAKE HAVASU CITY, AZ, 86403","No_Match",NA,NA,NA,NA
499564,"3155 MARICOPA","LAKE HAVASU CITY","AZ",86406,34.456983746,-114.28571338,64,"3155 MARICOPA, LAKE HAVASU CITY, AZ, 86406","Match","Non_Exact","3155 MARICOPA AVE, LAKE HAVASU CITY, AZ, 86406",649953828,"R"
499565,"3155 MARNE HIGHWAY","MT LAUREL","NJ",8054,39.978024786,-74.8750120179999,65,"3155 MARNE HIGHWAY, MT LAUREL, NJ, 8054","Match","Exact","3155 MARNE HWY, MOUNT LAUREL, NJ, 08054",134084435,"L"
499566,"3155 MARSEILLERS WAY","WEST VALLEY CITY","UT",84119,NA,NA,66,"3155 MARSEILLERS WAY, WEST VALLEY CITY, UT, 84119","No_Match",NA,NA,NA,NA
499567,"3155 MILL ST NE","COVINGTON","GA",30014,33.5977847400001,-83.8504263139999,67,"3155 MILL ST NE, COVINGTON, GA, 30014","Match","Exact","3155 MILL ST NE, COVINGTON, GA, 30014",23616115,"L"
499568,"3155 MLK BLVD","CLEVELAND","OH",44105,NA,NA,68,"3155 MLK BLVD, CLEVELAND, OH, 44105","No_Match",NA,NA,NA,NA
499569,"3155 N 46TH STREET","MILWAUKEE","WI",53216,43.0763998360001,-87.9710266769999,69,"3155 N 46TH STREET, MILWAUKEE, WI, 53216","Match","Exact","3155 N 46TH ST, MILWAUKEE, WI, 53216",77732169,"L"
499570,"3155 N 600 W","DECATUR","IN",46733,40.7893259840001,-85.052708052,70,"3155 N 600 W, DECATUR, IN, 46733","Match","Exact","3155 N 600 W, DECATUR, IN, 46733",647828219,"R"
499571,"3155 NE ELIZABETH CT","BEND","OR",97701,44.060210827,-121.255963789,71,"3155 NE ELIZABETH CT, BEND, OR, 97701","Match","Exact","3155 NE ELIZABETH CT, BEND, OR, 97701",152572202,"R"
499572,"3155 NW 55TH ST","MIAMI","FL",33142,25.824651891,-80.248001685,72,"3155 NW 55TH ST, MIAMI, FL, 33142","Match","Exact","3155 NW 55TH ST, MIAMI, FL, 33142",116001738,"R"
499573,"3155 NW CR 125","LAWTEY","FL",32058,30.059569712,-82.096344592,73,"3155 NW CR 125, LAWTEY, FL, 32058","Match","Exact","3155 NW CO RD 125, LAWTEY, FL, 32058",651752428,"R"
499574,"3155 OBANNON DRIVE","DALLAS","TX",75224,32.709156728,-96.838135666,74,"3155 OBANNON DRIVE, DALLAS, TX, 75224","Match","Non_Exact","3155 O BANNON DR, DALLAS, TX, 75224",103192060,"R"
499575,"3155 OSPREY DR","GREENWOOD","AR",72936,35.2040710360001,-94.207198749,75,"3155 OSPREY DR, GREENWOOD, AR, 72936","Match","Exact","3155 OSPREY DR, GREENWOOD, AR, 72936",56161027,"L"
499576,"3155 RAVENSWOOD WAY","SAN JOSE","CA",95148,37.3270038490001,-121.784482666,76,"3155 RAVENSWOOD WAY, SAN JOSE, CA, 95148","Match","Exact","3155 RAVENSWOOD WAY, SAN JOSE, CA, 95148",122917323,"L"
499577,"3155 ROBINSON RD","JACKSON","MI",49203,42.215048213,-84.457328414,77,"3155 ROBINSON RD, JACKSON, MI, 49203","Match","Exact","3155 ROBINSON RD, JACKSON, MI, 49203",17627469,"L"
499578,"3155 ROBINSON","JACKSON","MI",49203,42.215048213,-84.457328414,78,"3155 ROBINSON, JACKSON, MI, 49203","Match","Non_Exact","3155 ROBINSON RD, JACKSON, MI, 49203",17627469,"L"
499579,"3155 ROCHAMBEAU AVE","BRONX","NY",10467,40.8746705400001,-73.8803956369999,79,"3155 ROCHAMBEAU AVE, BRONX, NY, 10467","Match","Exact","3155 ROCHAMBEAU AVE, BRONX, NY, 10467",80299084,"L"
499580,"3155 ROSS ROAD","PALO ALTO","CA",94303,37.4319390730001,-122.120731056,80,"3155 ROSS ROAD, PALO ALTO, CA, 94303","Match","Exact","3155 ROSS RD, PALO ALTO, CA, 94303",122951544,"L"
499581,"3155 ROSWELL ROAD SUITE 220","ATLANTA","GA",30305,33.841677804,-84.378950624,81,"3155 ROSWELL ROAD SUITE 220, ATLANTA, GA, 30305","Match","Exact","3155 ROSWELL RD, ATLANTA, GA, 30305",17378356,"R"
499582,"3155 S HIDDEN VALLEY DR","ST GEORGE","UT",84790,37.0550626680001,-113.568812162,82,"3155 S HIDDEN VALLEY DR, ST GEORGE, UT, 84790","Match","Exact","3155 HIDDEN VALLEY DR, SAINT GEORGE, UT, 84790",648348954,"L"
499583,"3155 S NORTHFORK DRIVE","ULYSSES","KS",67880,37.546576685,-101.372165823,83,"3155 S NORTHFORK DRIVE, ULYSSES, KS, 67880","Match","Exact","3155 NORTHFORK DR, ULYSSES, KS, 67880",145642330,"L"
499584,"3155 S SEPULVEDA BLVD APT 102","LOS ANGELES","CA",90034,34.025034717,-118.426798595,84,"3155 S SEPULVEDA BLVD APT 102, LOS ANGELES, CA, 90034","Match","Non_Exact","3155 S SEPULVEDA BLVD, LOS ANGELES, CA, 90034",141570213,"R"
499585,"3155 SCENIC LAKE DR     APT 32","ANN ARBOR","MI",48108,42.2424322100001,-83.6754198849999,85,"3155 SCENIC LAKE DR     APT 32, ANN ARBOR, MI, 48108","Match","Exact","3155 SCENIC LAKE DR, ANN ARBOR, MI, 48108",26055858,"L"
499586,"3155 SE 80TH AVE","PORTLAND","OR",97206,45.499622479,-122.580873612,86,"3155 SE 80TH AVE, PORTLAND, OR, 97206","Match","Exact","3155 SE 80TH AVE, PORTLAND, OR, 97206",157516714,"R"
499587,"3155 SHADOW GREEN LANE","LAKELAND","TN",38002,35.2116587370001,-89.741609006,87,"3155 SHADOW GREEN LANE, LAKELAND, TN, 38002","Match","Exact","3155 SHADOW GREEN LN, LAKELAND, TN, 38002",72953523,"L"
499588,"3155 SO HIDDEN VALLEY DR  332","ST GEORGE","UT",84790,37.0550792540001,-113.568803492,88,"3155 SO HIDDEN VALLEY DR  332, ST GEORGE, UT, 84790","Match","Exact","3155 HIDDEN VALLEY DR, SAINT GEORGE, UT, 84790",648348954,"L"
499589,"3155 SOUTH MARSEILLES WAY","WEST VALLEY CITY","UT",84119,40.7026879260001,-111.934365333,89,"3155 SOUTH MARSEILLES WAY, WEST VALLEY CITY, UT, 84119","Match","Exact","3155 S MARSEILLES WAY, WEST VALLEY CITY, UT, 84119",609019720,"L"
499590,"3155 SQUIRREL HUNTING RD","MORGANTON","GA",30560,34.914010352,-84.137084935,90,"3155 SQUIRREL HUNTING RD, MORGANTON, GA, 30560","Match","Exact","3155 SQUIRREL HUNTING RD, MORGANTON, GA, 30560",57163270,"R"
499591,"3155 SUMIT SKY BLVD","EUGENE","OR",97405,44.019804505,-123.153341492,91,"3155 SUMIT SKY BLVD, EUGENE, OR, 97405","Match","Non_Exact","3155 SUMMIT SKY BLVD, EUGENE, OR, 97405",647959303,"L"
499592,"3155 SUMMIT CREST","ATLANTA","GA",30311,33.705266517,-84.493715752,92,"3155 SUMMIT CREST, ATLANTA, GA, 30311","Match","Exact","3155 SUMMIT CRST, ATLANTA, GA, 30311",618356441,"L"
499593,"3155 TIFFANY DRIVE","MIRA LOMA","CA",91752,34.031310304,-117.512632612,93,"3155 TIFFANY DRIVE, MIRA LOMA, CA, 91752","Match","Exact","3155 TIFFANY DR, MIRA LOMA, CA, 91752",194732555,"L"
499594,"3155 TOWN MANOR","DACULA","GA",30019,NA,NA,94,"3155 TOWN MANOR, DACULA, GA, 30019","Tie",NA,NA,NA,NA
499595,"3155 TRUMBAUER WAY","ELK GROVE","CA",95758,NA,NA,95,"3155 TRUMBAUER WAY, ELK GROVE, CA, 95758","No_Match",NA,NA,NA,NA
499596,"3155 US HIGHWAY 27 STE 2B","CATAULA","GA",31840,NA,NA,96,"3155 US HIGHWAY 27 STE 2B, CATAULA, GA, 31840","No_Match",NA,NA,NA,NA
499597,"3155 VIA VIEJAS","ALPINE","CA",91901,32.815996791,-116.746553048,97,"3155 VIA VIEJAS, ALPINE, CA, 91901","Match","Exact","3155 VIA VIEJAS, ALPINE, CA, 91901",195335661,"R"
499598,"3155 W AUGUSTA BLVD 1A","CHICAGO","IL",60622,41.899200395,-87.705925978,98,"3155 W AUGUSTA BLVD 1A, CHICAGO, IL, 60622","Match","Non_Exact","3155 W AUGUSTA BLVD, CHICAGO, IL, 60622",605064687,"L"
499599,"3155 W BUTTER DR","PHOENIX","AZ",85051,NA,NA,99,"3155 W BUTTER DR, PHOENIX, AZ, 85051","No_Match",NA,NA,NA,NA
499600,"3155 W LOS ALTOS","FRESNO","CA",93711,36.8344035100001,-119.848062632,100,"3155 W LOS ALTOS, FRESNO, CA, 93711","Match","Non_Exact","3155 W LOS ALTOS AVE, FRESNO, CA, 93711",197566416,"L"
499601,"3155 W TYSON PLACE","CHANDLER","AZ",85226,33.3087642030001,-111.897983061,101,"3155 W TYSON PLACE, CHANDLER, AZ, 85226","Match","Exact","3155 W TYSON PL, CHANDLER, AZ, 85226",128778035,"R"
499602,"3155 W WALNUT HILL LANE APT 1187","IRVING","TX",75038,32.866114628,-96.9873586849999,102,"3155 W WALNUT HILL LANE APT 1187, IRVING, TX, 75038","Match","Non_Exact","3155 W WALNUT HILL LN, IRVING, TX, 75038",103203084,"R"
499603,"3155 WRENFORD ST","DAYTON","OH",45409,39.7041061080001,-84.195883064,103,"3155 WRENFORD ST, DAYTON, OH, 45409","Match","Exact","3155 WRENFORD ST, DAYTON, OH, 45409",143580120,"R"
499604,"3155 YULE TRAIL DRIVE","FORT COLLINS","CO",80524,NA,NA,104,"3155 YULE TRAIL DRIVE, FORT COLLINS, CO, 80524","No_Match",NA,NA,NA,NA
499605,"31550 NORTHWESTERN DR","FARMINGTON HILLS","MI",48334,42.5186599720001,-83.339226894,105,"31550 NORTHWESTERN DR, FARMINGTON HILLS, MI, 48334","Match","Non_Exact","31550 NORTHWESTERN HWY, FARMINGTON HILLS, MI, 48334",69823184,"R"
499606,"31550 W 84TH TER","DE SOTO","KS",66018,38.975094976,-94.951960411,106,"31550 W 84TH TER, DE SOTO, KS, 66018","Match","Exact","31550 W 84TH TER, DE SOTO, KS, 66018",633212531,"L"
499607,"31554 CHAPPARAL CT","RICHMOND","CA",94806,NA,NA,107,"31554 CHAPPARAL CT, RICHMOND, CA, 94806","No_Match",NA,NA,NA,NA
499608,"31555 ARTHUR RD","SOLON","OH",44139,41.3715330800001,-81.4548152359999,108,"31555 ARTHUR RD, SOLON, OH, 44139","Match","Exact","31555 ARTHUR RD, SOLON, OH, 44139",642636241,"L"
499609,"31556 RAILROAD CANYON RD","CANYON LAKE","CA",92587,33.671811287,-117.261223686,109,"31556 RAILROAD CANYON RD, CANYON LAKE, CA, 92587","Match","Exact","31556 RAILROAD CANYON RD, CANYON LAKE, CA, 92587",194707652,"R"
499610,"31556B HWY 97","TONASKET","WA",98855,48.6859112710001,-119.458805935,110,"31556B HWY 97, TONASKET, WA, 98855","Match","Non_Exact","31556 US HWY 97, TONASKET, WA, 98855",643489334,"R"
499611,"3156 18TH STREET NW 1","WASHINGTON DC","DC",20010,38.9306417550001,-77.0413052769999,111,"3156 18TH STREET NW 1, WASHINGTON DC, DC, 20010","Match","Exact","3156 18TH ST NW, WASHINGTON, DC, 20010",76222863,"L"
499612,"3156 4TH AVE E","INDIANAPOLIS","IN",46221,39.717644213,-86.223915168,112,"3156 4TH AVE E, INDIANAPOLIS, IN, 46221","Match","Exact","3156 4TH AVE E, INDIANAPOLIS, IN, 46221",108005198,"R"
499613,"3156 BEACHWOOD BOULEVARD","PITTSBURGH","PA",15217,40.419635858,-79.922716241,113,"3156 BEACHWOOD BOULEVARD, PITTSBURGH, PA, 15217","Match","Non_Exact","3156 BEECHWOOD BLVD, PITTSBURGH, PA, 15217",51652488,"R"
499614,"3156 BEDFORD AVENUE","BROOKLYN","NY",11210,40.6254975250001,-73.951479266,114,"3156 BEDFORD AVENUE, BROOKLYN, NY, 11210","Match","Exact","3156 BEDFORD AVE, BROOKLYN, NY, 11210",59098117,"R"
499615,"3156 BENT TIMBER DRIVE","INDIANAPOLIS","IN",46268,39.886118094,-86.215267591,115,"3156 BENT TIMBER DRIVE, INDIANAPOLIS, IN, 46268","Match","Exact","3156 BENT TIMBER DR, INDIANAPOLIS, IN, 46268",647086373,"L"
499616,"3156 BRADFIELD DR","NOLENSVILLE","TN",37135,35.944647214,-86.655120208,116,"3156 BRADFIELD DR, NOLENSVILLE, TN, 37135","Match","Exact","3156 BRADFIELD DR, NOLENSVILLE, TN, 37135",648257456,"L"
499617,"3156 CHERRY VALLEY DRIVE","ATLANTA","GA",30316,33.6927301470001,-84.31578501,117,"3156 CHERRY VALLEY DRIVE, ATLANTA, GA, 30316","Match","Non_Exact","3156 CHERRY VALLEY DR SE, ATLANTA, GA, 30316",23368068,"L"
499618,"3156 CO RD 31","MOULTON","AL",35553,34.44770271,-87.416804594,118,"3156 CO RD 31, MOULTON, AL, 35553","Match","Non_Exact","3156 CO RD 31, MOULTON, AL, 35650",647423888,"L"
499619,"3156 CO RD 31","MOULTON","AL",35650,34.44770271,-87.416804594,119,"3156 CO RD 31, MOULTON, AL, 35650","Match","Exact","3156 CO RD 31, MOULTON, AL, 35650",647423888,"L"
499620,"3156 COLCHESTER BROOK LANE","FAIRFAX","VA",22031,38.86381477,-77.2599859869999,120,"3156 COLCHESTER BROOK LANE, FAIRFAX, VA, 22031","Match","Exact","3156 COLCHESTER BROOK LN, FAIRFAX, VA, 22031",76024412,"L"
499621,"3156 CONNECTOR DRIVE","TALLAHASSEE","FL",32303,30.494399124,-84.347440551,121,"3156 CONNECTOR DRIVE, TALLAHASSEE, FL, 32303","Match","Exact","3156 CONNECTOR DR, TALLAHASSEE, FL, 32303",82847252,"L"
499622,"3156 COUNTY ROAD 378","DUTTON","AL",35744,34.6448614550001,-85.865800658,122,"3156 COUNTY ROAD 378, DUTTON, AL, 35744","Match","Exact","3156 CO RD 378, DUTTON, AL, 35744",58039861,"L"
499623,"3156 FLUSHING MEADOWS DR","MODESTO","CA",95355,37.6726505820001,-120.936082608,123,"3156 FLUSHING MEADOWS DR, MODESTO, CA, 95355","Match","Exact","3156 FLUSHING MEADOWS DR, MODESTO, CA, 95355",102625603,"R"
499624,"3156 GARFIELD ST","ENUMCLAW","WA",98022,47.2124247140001,-122.00024124,124,"3156 GARFIELD ST, ENUMCLAW, WA, 98022","Match","Exact","3156 GARFIELD ST, ENUMCLAW, WA, 98022",239767412,"L"
499625,"3156 GRACEFIELD ROAD","SILVER SPRING","MD",20904,39.0536910160001,-76.950384452,125,"3156 GRACEFIELD ROAD, SILVER SPRING, MD, 20904","Match","Exact","3156 GRACEFIELD RD, SILVER SPRING, MD, 20904",608328440,"R"
499626,"3156 HOWELL MILL RD STE 400","ATLANTA","GA",30327,33.836421337,-84.419707261,126,"3156 HOWELL MILL RD STE 400, ATLANTA, GA, 30327","Match","Exact","3156 HOWELL MILL RD, ATLANTA, GA, 30327",17334814,"L"
499627,"3156 JOPPA CT","ROCKINGHAM","VA",22801,38.409334202,-78.9120651389999,127,"3156 JOPPA CT, ROCKINGHAM, VA, 22801","Match","Exact","3156 JOPPA CT, ROCKINGHAM, VA, 22801",633873386,"L"
499628,"3156 KENSINGTON AVENUE","PHILADELPHIA","PA",19134,39.996030739,-75.114218825,128,"3156 KENSINGTON AVENUE, PHILADELPHIA, PA, 19134","Match","Exact","3156 KENSINGTON AVE, PHILADELPHIA, PA, 19134",131421369,"L"
499629,"3156 KINGS GLEN TRAIL","DECATUR","GA",30034,33.6809764760001,-84.26005922,129,"3156 KINGS GLEN TRAIL, DECATUR, GA, 30034","Match","Exact","3156 KINGS GLEN TRL, DECATUR, GA, 30034",23403548,"L"
499630,"3156 KINGS HIGHWAY","SUFFOLK","VA",23435,36.823511915,-76.501655387,130,"3156 KINGS HIGHWAY, SUFFOLK, VA, 23435","Match","Exact","3156 KINGS HWY, SUFFOLK, VA, 23435",643438580,"L"
499631,"3156 LA LINDA CT SE","PORT ORCHARD","WA",98366,47.5066352900001,-122.613167001,131,"3156 LA LINDA CT SE, PORT ORCHARD, WA, 98366","Match","Exact","3156 LA LINDA CT SE, PORT ORCHARD, WA, 98366",187645459,"L"
499632,"3156 LAKESIDE DRIVE  NUMBER103","GRAND JUNCTION","CO",81506,39.098879605,-108.555731181,132,"3156 LAKESIDE DRIVE  NUMBER103, GRAND JUNCTION, CO, 81506","Match","Exact","3156 LAKESIDE DR, GRAND JCT, CO, 81506",122465078,"L"
499633,"3156 LAKESIDE DRIVE SUITE 103","GRAND JUNCTION","CO",81506,39.098879605,-108.555731181,133,"3156 LAKESIDE DRIVE SUITE 103, GRAND JUNCTION, CO, 81506","Match","Exact","3156 LAKESIDE DR, GRAND JCT, CO, 81506",122465078,"L"
499634,"3156 LYNSCOTT DR","MARINA","CA",93933,36.6783093240001,-121.782036613,134,"3156 LYNSCOTT DR, MARINA, CA, 93933","Match","Exact","3156 LYNSCOTT DR, MARINA, CA, 93933",196817513,"R"
499635,"3156 MANDEVILLE CANYON ROAD","LOS ANGELES","CA",90049,34.100503777,-118.503283358,135,"3156 MANDEVILLE CANYON ROAD, LOS ANGELES, CA, 90049","Match","Exact","3156 MANDEVILLE CANYON RD, LOS ANGELES, CA, 90049",627888857,"R"
499636,"3156 MAXWELL RD","TOLEDO","OH",43613,NA,NA,136,"3156 MAXWELL RD, TOLEDO, OH, 43613","No_Match",NA,NA,NA,NA
499637,"3156 MOUNT ZION RD APT 1501","STOCKBRIDGE","GA",30281,33.5527838740001,-84.2865855589999,137,"3156 MOUNT ZION RD APT 1501, STOCKBRIDGE, GA, 30281","Match","Exact","3156 MOUNT ZION RD, STOCKBRIDGE, GA, 30281",23334269,"L"
499638,"3156 MT ZION RD 406","STOCKBRIDGE","GA",30281,33.5527838740001,-84.2865855589999,138,"3156 MT ZION RD 406, STOCKBRIDGE, GA, 30281","Match","Exact","3156 MOUNT ZION RD, STOCKBRIDGE, GA, 30281",23334269,"L"
499639,"3156 MYERS LANE","MARANDA","IL",62958,37.6132542350001,-89.0982053399999,139,"3156 MYERS LANE, MARANDA, IL, 62958","Match","Non_Exact","3156 MYERS LN, MAKANDA, IL, 62958",6008250,"L"
499640,"3156 N 75TH STREET","BOULDER","CO",80301,40.032626216,-105.178528754,140,"3156 N 75TH STREET, BOULDER, CO, 80301","Match","Exact","3156 75TH ST, BOULDER, CO, 80301",635596108,"R"
499641,"3156 N HARTMAN","ORANGE","CA",92865,33.842432995,-117.848862625,141,"3156 N HARTMAN, ORANGE, CA, 92865","Match","Non_Exact","3156 N HARTMAN ST, ORANGE, CA, 92865",635486384,"L"
499642,"3156 N NEW JERSEY ST","INDAINAPOLIS","IN",46205,39.8131338970001,-86.150845846,142,"3156 N NEW JERSEY ST, INDAINAPOLIS, IN, 46205","Match","Non_Exact","3156 N NEW JERSEY ST, INDIANAPOLIS, IN, 46205",107989115,"L"
499643,"3156 PALO ALTO DRIVE","DALLAS","TX",75241,32.6567940840001,-96.7714245559999,143,"3156 PALO ALTO DRIVE, DALLAS, TX, 75241","Match","Exact","3156 PALO ALTO DR, DALLAS, TX, 75241",102954749,"R"
499644,"3156 PINCKARD PIKE","VERSAILLES","KY",40383,37.9790713300001,-84.6821673599999,144,"3156 PINCKARD PIKE, VERSAILLES, KY, 40383","Match","Exact","3156 PINCKARD PIKE, VERSAILLES, KY, 40383",636696251,"R"
499645,"3156 QUEEN CITY","CINCINNATI","OH",45238,39.1368936330001,-84.6070430519999,145,"3156 QUEEN CITY, CINCINNATI, OH, 45238","Match","Non_Exact","3156 QUEEN CITY AVE, CINCINNATI, OH, 45238",103917770,"R"
499646,"3156 REDBUD LANE","LOUISVILLE","KY",40220,38.2178465480001,-85.638205452,146,"3156 REDBUD LANE, LOUISVILLE, KY, 40220","Match","Exact","3156 REDBUD LN, LOUISVILLE, KY, 40220",96856651,"R"
499647,"3156 REEVES ST","SMYRNA","GA",30080,33.878651415,-84.527713574,147,"3156 REEVES ST, SMYRNA, GA, 30080","Match","Exact","3156 REEVES ST, SMYRNA, GA, 30080",17218878,"L"
499648,"3156 ROYAL LN","DALLAS","TX",75229,32.8950874060001,-96.872872205,148,"3156 ROYAL LN, DALLAS, TX, 75229","Match","Exact","3156 ROYAL LN, DALLAS, TX, 75229",103243608,"L"
499649,"3156 S CO RD 850","GREENSBURG","IN",47240,NA,NA,149,"3156 S CO RD 850, GREENSBURG, IN, 47240","No_Match",NA,NA,NA,NA
499650,"3156 SNOWY PINE","CHARLOTTE","MI",48813,42.545647568,-84.770285019,150,"3156 SNOWY PINE, CHARLOTTE, MI, 48813","Match","Non_Exact","3156 SNOWY PINE DR, CHARLOTTE, MI, 48813",623971552,"L"
499651,"3156 STONEWYCK PLACE","DECATUR","GA",30033,33.800283246,-84.265529489,151,"3156 STONEWYCK PLACE, DECATUR, GA, 30033","Match","Exact","3156 STONEWYCK PL, DECATUR, GA, 30033",650729269,"L"
499652,"3156 VAL VERDE AVE","LONG BEACH","CA",90808,33.8137233790001,-118.078870211,152,"3156 VAL VERDE AVE, LONG BEACH, CA, 90808","Match","Exact","3156 VAL VERDE AVE, LONG BEACH, CA, 90808",141746632,"R"
499653,"3156 W 111TH STREET","CLEVELAND","OH",44111,41.4661607560001,-81.763750138,153,"3156 W 111TH STREET, CLEVELAND, OH, 44111","Match","Exact","3156 W 111TH ST, CLEVELAND, OH, 44111",61104431,"R"
499654,"3156 W 38TH AVE","DENVER","CO",80211,39.7693683050001,-105.028362726,154,"3156 W 38TH AVE, DENVER, CO, 80211","Match","Exact","3156 W 38TH AVE, DENVER, CO, 80211",177300862,"L"
499655,"3156 W NORTHGATE DR APT 2024","IRVING","TX",75062,32.856187203,-96.989534643,155,"3156 W NORTHGATE DR APT 2024, IRVING, TX, 75062","Match","Non_Exact","3156 W NORTHGATE DR, IRVING, TX, 75062",103236701,"L"
499656,"3156 WELLER DRIVE","EDEN","NY",14057,42.6596390810001,-78.877290422,156,"3156 WELLER DRIVE, EDEN, NY, 14057","Match","Exact","3156 WELLER DR, EDEN, NY, 14057",48294106,"L"
499657,"31562 HIGHWAY 97","TONASKET","WA",98855,48.686091203,-119.458645226,157,"31562 HIGHWAY 97, TONASKET, WA, 98855","Match","Non_Exact","31562 US HWY 97, TONASKET, WA, 98855",643489334,"R"
499658,"31562 HIGHWAY 97","TONASKET","WA",98885,NA,NA,158,"31562 HIGHWAY 97, TONASKET, WA, 98885","No_Match",NA,NA,NA,NA
499659,"31566 RAILROAD CANYON ROAD PMB13","CANYON LAKE","CA",92587,NA,NA,159,"31566 RAILROAD CANYON ROAD PMB13, CANYON LAKE, CA, 92587","No_Match",NA,NA,NA,NA
499660,"315661 HIGHWAY 2","ELK","WA",99009,48.0484030690001,-117.34392188,160,"315661 HIGHWAY 2, ELK, WA, 99009","Match","Non_Exact","315661 US HWY 2, ELK, WA, 99009",169919465,"L"
499661,"31569 IRISH LN","EUREKA","IL",61530,NA,NA,161,"31569 IRISH LN, EUREKA, IL, 61530","No_Match",NA,NA,NA,NA
499662,"3157 130TH STREET","BELMOND","IA",50421,42.863234908,-93.54664351,162,"3157 130TH STREET, BELMOND, IA, 50421","Match","Exact","3157 130TH ST, BELMOND, IA, 50421",90718244,"L"
499663,"3157 330TH ROAD","HORTON","KS",66439,39.6455612550001,-95.492640708,163,"3157 330TH ROAD, HORTON, KS, 66439","Match","Exact","3157 330TH RD, HORTON, KS, 66439",10058523,"L"
499664,"3157 55TH ST","VALLEY","AL",36854,32.8251842440001,-85.195634292,164,"3157 55TH ST, VALLEY, AL, 36854","Match","Non_Exact","3157 55TH ST W, VALLEY, AL, 36854",639786935,"R"
499665,"3157 BIRCH BARK LANE","OKLAHOMA CITY","OK",73120,35.5887830200001,-97.5734439619999,165,"3157 BIRCH BARK LANE, OKLAHOMA CITY, OK, 73120","Match","Exact","3157 BIRCH BARK LN, OKLAHOMA CITY, OK, 73120",100422590,"R"
499666,"3157 BRINDLEY WAY","RANCHO CORDOVA","CA",95670,38.5845641860001,-121.278048482,166,"3157 BRINDLEY WAY, RANCHO CORDOVA, CA, 95670","Match","Exact","3157 BRINDLEY WAY, RANCHO CORDOVA, CA, 95670",618062431,"L"
499667,"3157 BROADWAY - APT 13","NEW YORK","NY",10027,40.814571981,-73.959106456,167,"3157 BROADWAY - APT 13, NEW YORK, NY, 10027","Match","Exact","3157 BROADWAY, NEW YORK, NY, 10027",610212338,"L"
499668,"3157 CASA LOMA DR","SAN BERNARDINO","CA",92404,34.148494167,-117.265137027,168,"3157 CASA LOMA DR, SAN BERNARDINO, CA, 92404","Match","Non_Exact","3157 N CASA LOMA DR, SAN BERNARDINO, CA, 92404",144655795,"R"
499669,"3157 CERROS REDONDOS","RANCHO SANTA FE","CA",92067,33.0446520560001,-117.224165891,169,"3157 CERROS REDONDOS, RANCHO SANTA FE, CA, 92067","Match","Exact","3157 CERROS REDONDOS, RANCHO SANTA FE, CA, 92067",195407163,"R"
499670,"3157 CHATHAM ROAD","HALIFAX","VA",24558,36.7890403000001,-79.007492581,170,"3157 CHATHAM ROAD, HALIFAX, VA, 24558","Match","Exact","3157 CHATHAM RD, HALIFAX, VA, 24558",90315734,"L"
499671,"3157 CHRISTY RIDGE DRIVE","DOUGLASVILLE","GA",30135,33.7047531860001,-84.6788037649999,171,"3157 CHRISTY RIDGE DRIVE, DOUGLASVILLE, GA, 30135","Match","Exact","3157 CHRISTY RIDGE DR, DOUGLASVILLE, GA, 30135",16655557,"L"
499672,"3157 COURTNEY AVE","KINGMAN","AZ",86401,35.192583943,-114.005662735,172,"3157 COURTNEY AVE, KINGMAN, AZ, 86401","Match","Exact","3157 COURTNEY AVE, KINGMAN, AZ, 86401",190360521,"R"
499673,"3157 CROWNVIEW DRIVE","PANCHO PALOS VERDES","CA",95949,NA,NA,173,"3157 CROWNVIEW DRIVE, PANCHO PALOS VERDES, CA, 95949","No_Match",NA,NA,NA,NA
499674,"3157 DALEVIEW WAY SW","ATLANTA","GA",30331,33.6696688530001,-84.511207443,174,"3157 DALEVIEW WAY SW, ATLANTA, GA, 30331","Match","Non_Exact","3157 DALEVIEW WAY, ATLANTA, GA, 30331",634083943,"L"
499675,"3157 ESHA COURT","ATLANTA","GA",30311,33.7041250300001,-84.49387553,175,"3157 ESHA COURT, ATLANTA, GA, 30311","Match","Exact","3157 ESHA CT, ATLANTA, GA, 30311",618356440,"R"
499676,"3157 EWART DR","PITTSBURGH","PA",15219,40.4486853820001,-79.960058886,176,"3157 EWART DR, PITTSBURGH, PA, 15219","Match","Exact","3157 EWART DR, PITTSBURGH, PA, 15219",51693804,"L"
499677,"3157 FARNAM ST APT 7520","OMAHA","NE",68131,41.2577024450001,-95.959824087,177,"3157 FARNAM ST APT 7520, OMAHA, NE, 68131","Match","Exact","3157 FARNAM ST, OMAHA, NE, 68131",116984520,"L"
499678,"3157 FARNAM STREET  SUITE 7107B","OMAHA","NE",68131,41.2577024450001,-95.959824087,178,"3157 FARNAM STREET  SUITE 7107B, OMAHA, NE, 68131","Match","Exact","3157 FARNAM ST, OMAHA, NE, 68131",116984520,"L"
499679,"3157 FUTURE STREET","LOS ANGELES","CA",90065,34.101103439,-118.229667922,179,"3157 FUTURE STREET, LOS ANGELES, CA, 90065","Match","Exact","3157 FUTURE ST, LOS ANGELES, CA, 90065",141612256,"L"
499680,"3157 GENTILLY BLVD STE 2029","NEW ORLEANS","LA",70122,29.9992923340001,-90.0597084139999,180,"3157 GENTILLY BLVD STE 2029, NEW ORLEANS, LA, 70122","Match","Exact","3157 GENTILLY BLVD, NEW ORLEANS, LA, 70122",191715154,"L"
499681,"3157 GRANDVIEW W","UNIVERSITY PLACE","WA",98466,47.2311982410001,-122.550374677,181,"3157 GRANDVIEW W, UNIVERSITY PLACE, WA, 98466","Match","Non_Exact","3157 GRANDVIEW DR W, UNIVERSITY PLACE, WA, 98466",184618612,"L"
499682,"3157 HOMESTEAD COMMONS DR APT 1","ANN ARBOR","MI",48108,42.242523964,-83.716291476,182,"3157 HOMESTEAD COMMONS DR APT 1, ANN ARBOR, MI, 48108","Match","Exact","3157 HOMESTEAD COMMONS DR, ANN ARBOR, MI, 48108",26045513,"L"
499683,"3157 HOWLETT DRIVE","ADA","MI",49301,42.9074551580001,-85.4806980669999,183,"3157 HOWLETT DRIVE, ADA, MI, 49301","Match","Non_Exact","3157 HOWLETT DR SE, ADA, MI, 49301",12480188,"L"
499684,"3157 KING BAY DRIVE","DECATUR","GA",30034,NA,NA,184,"3157 KING BAY DRIVE, DECATUR, GA, 30034","No_Match",NA,NA,NA,NA
499685,"3157 KINGS BAU DR","DECATUR","GA",30034,33.6920159050001,-84.282170464,185,"3157 KINGS BAU DR, DECATUR, GA, 30034","Match","Non_Exact","3157 KINGS BAY DR, DECATUR, GA, 30034",619384499,"L"
499686,"3157 KINGS BAY DR","DECATUR","GA",30034,33.6920159050001,-84.282170464,186,"3157 KINGS BAY DR, DECATUR, GA, 30034","Match","Exact","3157 KINGS BAY DR, DECATUR, GA, 30034",619384499,"L"
499687,"3157 KINGSLEY RD","SHAKER HEIGHTS","OH",44122,41.473443773,-81.541667946,187,"3157 KINGSLEY RD, SHAKER HEIGHTS, OH, 44122","Match","Exact","3157 KINGSLEY RD, SHAKER HEIGHTS, OH, 44122",61125539,"L"
499688,"3157 LINDEN DRIVE","LA CROSSE","WI",54601,43.777034675,-91.208468362,188,"3157 LINDEN DRIVE, LA CROSSE, WI, 54601","Match","Exact","3157 LINDEN DR, LA CROSSE, WI, 54601",51024675,"L"
499689,"3157 MAJESTIC OAK","COTTONWOOD","CA",96022,40.3796932390001,-122.356852141,189,"3157 MAJESTIC OAK, COTTONWOOD, CA, 96022","Match","Non_Exact","3157 MAJESTIC OAK CIR, COTTONWOOD, CA, 96022",126676688,"R"
499690,"3157 MAURY ST","CHARLOTTE","NC",28208,35.2407684990001,-80.882447526,190,"3157 MAURY ST, CHARLOTTE, NC, 28208","Match","Exact","3157 MAURY ST, CHARLOTTE, NC, 28208",70476703,"L"
499691,"3157 MOONLIGHT DRIVE","BRYAN","TX",77808,30.7433510170001,-96.3794266099999,191,"3157 MOONLIGHT DRIVE, BRYAN, TX, 77808","Match","Exact","3157 MOONLIGHT DR, BRYAN, TX, 77808",21845046,"R"
499692,"3157 N RAINBOW BLVD NUM 292","LAS VEGAS","NV",89108,36.2169935470001,-115.242295564,192,"3157 N RAINBOW BLVD NUM 292, LAS VEGAS, NV, 89108","Match","Non_Exact","3157 N RAINBOW BLVD, LAS VEGAS, NV, 89108",201899562,"L"
499693,"3157 OUTING CT","GREEN BAY","WI",54313,44.526971329,-88.127780672,193,"3157 OUTING CT, GREEN BAY, WI, 54313","Match","Exact","3157 OUTING CT, GREEN BAY, WI, 54313",148120102,"L"
499694,"3157 PALERMO AVENUE","VINELAND","NJ",8361,39.4425446340001,-74.970425058,194,"3157 PALERMO AVENUE, VINELAND, NJ, 8361","Match","Exact","3157 PALERMO AVE, VINELAND, NJ, 08361",174126920,"R"
499695,"3157 PINEHURST DRIVE UNIT B","LAS VEGAS","NV",89109,NA,NA,195,"3157 PINEHURST DRIVE UNIT B, LAS VEGAS, NV, 89109","No_Match",NA,NA,NA,NA
499696,"3157 QUARTZ AVENUE APT 2","FULLERTON","CA",92831,33.884313187,-117.872417206,196,"3157 QUARTZ AVENUE APT 2, FULLERTON, CA, 92831","Match","Non_Exact","3157 QUARTZ LN, FULLERTON, CA, 92831",609050677,"L"
499697,"3157 RAINBOW BLVD   127","LAS VEGAS","NV",89108,36.2169655650001,-115.242295487,197,"3157 RAINBOW BLVD   127, LAS VEGAS, NV, 89108","Match","Non_Exact","3157 N RAINBOW BLVD, LAS VEGAS, NV, 89108",201899562,"L"
499698,"3157 ROSS DR","VALLEY SPRINGS","CA",95252,38.173864178,-120.861153353,198,"3157 ROSS DR, VALLEY SPRINGS, CA, 95252","Match","Exact","3157 ROSS DR, VALLEY SPRINGS, CA, 95252",102245349,"L"
499699,"3157 S ARCHER 3N","CHICAGO","IL",60608,NA,NA,199,"3157 S ARCHER 3N, CHICAGO, IL, 60608","No_Match",NA,NA,NA,NA
499700,"3157 S ARCHER AVE UNIT 1","CHICAGO","IL",60608,41.836679421,-87.667365154,200,"3157 S ARCHER AVE UNIT 1, CHICAGO, IL, 60608","Match","Non_Exact","3157 S ARCHER AVE, CHICAGO, IL, 60608",616792730,"L"
499701,"3157 SAWYER COURT NE","MARIETTA","GA",30066,34.0572762780001,-84.463087332,201,"3157 SAWYER COURT NE, MARIETTA, GA, 30066","Match","Non_Exact","3157 SAWYER CT, MARIETTA, GA, 30066",17198704,"L"
499702,"3157 SELKIRK DRIVE","SUN PRAIRIE","WI",53590,43.1860488510001,-89.280046069,202,"3157 SELKIRK DRIVE, SUN PRAIRIE, WI, 53590","Match","Exact","3157 SELKIRK DR, SUN PRAIRIE, WI, 53590",49512258,"R"
499703,"3157 SHIPPS CORNER ROAD STE 105","VIRGINIA BEACH","VA",23453,36.79265235,-76.078685805,203,"3157 SHIPPS CORNER ROAD STE 105, VIRGINIA BEACH, VA, 23453","Match","Exact","3157 SHIPPS CORNER RD, VIRGINIA BCH, VA, 23453",122279604,"L"
499704,"3157 SOUTH 29TH STREET","MILWAUKEE","WI",53215,42.987451627,-87.9506944839999,204,"3157 SOUTH 29TH STREET, MILWAUKEE, WI, 53215","Match","Exact","3157 S 29TH ST, MILWAUKEE, WI, 53215",77750864,"R"
499705,"3157 SOUTH 400 EAST","SALT LAKE CITY","UT",84118,40.7021832,-111.879791635,205,"3157 SOUTH 400 EAST, SALT LAKE CITY, UT, 84118","Match","Non_Exact","3157 S 400 E, SALT LAKE CITY, UT, 84115",176079669,"L"
499706,"3157 VARCROFT RD","KNIGHTDALE","NC",27545,35.7710857800001,-78.4455208479999,206,"3157 VARCROFT RD, KNIGHTDALE, NC, 27545","Match","Exact","3157 VARCROFT RD, KNIGHTDALE, NC, 27545",612814616,"L"
499707,"3157 VARCROFT ROAD","KNIGHTDALE","NC",27545,35.7710857800001,-78.4455208479999,207,"3157 VARCROFT ROAD, KNIGHTDALE, NC, 27545","Match","Exact","3157 VARCROFT RD, KNIGHTDALE, NC, 27545",612814616,"L"
499708,"3157 W BARRY DR","LAKE GENEVA","OK",53147,NA,NA,208,"3157 W BARRY DR, LAKE GENEVA, OK, 53147","No_Match",NA,NA,NA,NA
499709,"3157 WOODS CIRCLE","DAVIS","CA",95616,38.5587288560001,-121.787180079,209,"3157 WOODS CIRCLE, DAVIS, CA, 95616","Match","Exact","3157 WOODS CIR, DAVIS, CA, 95616",67705872,"R"
499710,"31571 BUSINESS ROUTE 36 EAST","MACON","MO",63552,NA,NA,210,"31571 BUSINESS ROUTE 36 EAST, MACON, MO, 63552","No_Match",NA,NA,NA,NA
499711,"31574 PUTT MORAN LOOP","LACOMBE","LA",70445,30.405477585,-89.87594059,211,"31574 PUTT MORAN LOOP, LACOMBE, LA, 70445","Match","Exact","31574 PUTT MORAN LOOP, LACOMBE, LA, 70445",111307781,"L"
499712,"31574 SW LAUREL ROAD","HILLSBORO","OR",97123,45.4189251490001,-123.001806907,212,"31574 SW LAUREL ROAD, HILLSBORO, OR, 97123","Match","Exact","31574 SW LAUREL RD, HILLSBORO, OR, 97123",158230027,"L"
499713,"3158 6TH ST","WAYLAND","MI",49348,42.649308154,-85.60347547,213,"3158 6TH ST, WAYLAND, MI, 49348","Match","Exact","3158 6TH ST, WAYLAND, MI, 49348",11434401,"L"
499714,"3158 ALBANY CRES","BRONX","NY",10463,40.8795680850001,-73.9020819849999,214,"3158 ALBANY CRES, BRONX, NY, 10463","Match","Exact","3158 ALBANY CRES, BRONX, NY, 10463",641639164,"R"
499715,"3158 ALTA VISTA UNIT C","LAGUNA WOODS","CA",92637,33.6120831710001,-117.737953142,215,"3158 ALTA VISTA UNIT C, LAGUNA WOODS, CA, 92637","Match","Exact","3158 ALTA VIS, LAGUNA WOODS, CA, 92637",144061990,"L"
499716,"3158 AT THE POST CT","OWENSBORO","KY",42303,37.760245147,-87.055749309,216,"3158 AT THE POST CT, OWENSBORO, KY, 42303","Match","Exact","3158 AT THE POST CT, OWENSBORO, KY, 42303",37583494,"L"
499717,"3158 AVALON ST","PITTSBURGH","PA",15219,40.448292349,-79.960518673,217,"3158 AVALON ST, PITTSBURGH, PA, 15219","Match","Exact","3158 AVALON ST, PITTSBURGH, PA, 15219",51642699,"R"
499718,"3158 BEACH LAKE DR E","MILFORD","MI",48380,42.5575676810001,-83.7018236929999,218,"3158 BEACH LAKE DR E, MILFORD, MI, 48380","Match","Exact","3158 BEACH LAKE DR E, MILFORD, MI, 48380",23560964,"L"
499719,"3158 BOXLEY VALLEY RD","FRANKLIN","TN",37064,35.912182602,-86.966535177,219,"3158 BOXLEY VALLEY RD, FRANKLIN, TN, 37064","Match","Exact","3158 BOXLEY VALLEY RD, FRANKLIN, TN, 37064",607911620,"R"
499720,"3158 BROMLEY LANE","AURORA","IL",60502,41.777117129,-88.23805435,220,"3158 BROMLEY LANE, AURORA, IL, 60502","Match","Exact","3158 BROMLEY LN, AURORA, IL, 60502",112683302,"L"
499721,"3158 DOLORES ST","RIVERSIDE","CA",92504,33.935780519,-117.397689457,221,"3158 DOLORES ST, RIVERSIDE, CA, 92504","Match","Exact","3158 DOLORES ST, RIVERSIDE, CA, 92504",194743190,"L"
499722,"3158 DORCHEAT RD","MINDEN","LA",71055,32.6867338540001,-93.326961492,222,"3158 DORCHEAT RD, MINDEN, LA, 71055","Match","Exact","3158 DORCHEAT RD, MINDEN, LA, 71055",73416592,"L"
499723,"3158 E 84TH PLACE","TULSA","OK",74137,36.041429426,-95.9423651339999,223,"3158 E 84TH PLACE, TULSA, OK, 74137","Match","Exact","3158 E 84TH PL, TULSA, OK, 74137",166460994,"R"
499724,"3158 E 8TH RD","UTICA","IL",61373,41.391932169,-89.010137879,224,"3158 E 8TH RD, UTICA, IL, 61373","Match","Exact","3158 E 8TH RD, UTICA, IL, 61373",8595021,"R"
499725,"3158 EAST DERBYSHIRE","CLEVELAND HTS","OK",44118,NA,NA,225,"3158 EAST DERBYSHIRE, CLEVELAND HTS, OK, 44118","No_Match",NA,NA,NA,NA
499726,"3158 HADDINGTON DR","LOS ANGELES","CA",90064,34.03395835,-118.413941626,226,"3158 HADDINGTON DR, LOS ANGELES, CA, 90064","Match","Exact","3158 HADDINGTON DR, LOS ANGELES, CA, 90064",141573574,"L"
499727,"3158 HARVEST LANE","STEVENSVILLE","MT",59870,46.4566109690001,-114.087170399,227,"3158 HARVEST LANE, STEVENSVILLE, MT, 59870","Match","Exact","3158 HARVEST LN, STEVENSVILLE, MT, 59870",614119076,"L"
499728,"3158 HUNTINGTON ROAD","SHAKER HEIGHTS","OH",44102,41.474357335,-81.573899082,228,"3158 HUNTINGTON ROAD, SHAKER HEIGHTS, OH, 44102","Match","Non_Exact","3158 HUNTINGTON RD, SHAKER HEIGHTS, OH, 44120",61123524,"R"
499729,"3158 HUNTINGTON ROAD","SHAKER HEIGHTS","OH",44120,41.474357335,-81.573899082,229,"3158 HUNTINGTON ROAD, SHAKER HEIGHTS, OH, 44120","Match","Exact","3158 HUNTINGTON RD, SHAKER HEIGHTS, OH, 44120",61123524,"R"
499730,"3158 LAKE JEAN DRIVE","ORLANDO","FL",32817,28.58761658,-81.274430701,230,"3158 LAKE JEAN DRIVE, ORLANDO, FL, 32817","Match","Exact","3158 LAKE JEAN DR, ORLANDO, FL, 32817",624619670,"L"
499731,"3158 LANCER DR","POWDER SRING","GA",30127,33.8743282680001,-84.660529964,231,"3158 LANCER DR, POWDER SRING, GA, 30127","Match","Non_Exact","3158 LANCER DR, POWDER SPGS, GA, 30127",17172592,"R"
499732,"3158 MIDLAND ROAD","MIDLAND","VA",22728,38.529605098,-77.63528408,232,"3158 MIDLAND ROAD, MIDLAND, VA, 22728","Match","Exact","3158 MIDLAND RD, MIDLAND, VA, 22728",146302230,"R"
499733,"3158 MISSION STREET","SAN FRANCISCO","CA",94110,37.74663364,-122.419220312,233,"3158 MISSION STREET, SAN FRANCISCO, CA, 94110","Match","Exact","3158 MISSION ST, SAN FRANCISCO, CA, 94110",192288541,"R"
499734,"3158 N 53 ST","MILWAUKEE","WI",53216,43.0763538680001,-87.979678803,234,"3158 N 53 ST, MILWAUKEE, WI, 53216","Match","Exact","3158 N 53RD ST, MILWAUKEE, WI, 53216",77731847,"R"
499735,"3158 N E AZALEA STREET","HILLSBORO","OR",97124,45.522470023,-122.950311927,235,"3158 N E AZALEA STREET, HILLSBORO, OR, 97124","Match","Exact","3158 NE AZALEA ST, HILLSBORO, OR, 97124",158179300,"R"
499736,"3158 NEW HAMPSHIRE DR","CORONA","CA",92881,33.836132735,-117.549611138,236,"3158 NEW HAMPSHIRE DR, CORONA, CA, 92881","Match","Exact","3158 NEW HAMPSHIRE DR, CORONA, CA, 92881",194835315,"L"
499737,"3158 NEW HAMPSHIRE DRIVE","CORONA","CA",92881,33.836132735,-117.549611138,237,"3158 NEW HAMPSHIRE DRIVE, CORONA, CA, 92881","Match","Exact","3158 NEW HAMPSHIRE DR, CORONA, CA, 92881",194835315,"L"
499738,"3158 NORTHSIDE DR","KEY WEST","FL",33040,24.5671748300001,-81.767054717,238,"3158 NORTHSIDE DR, KEY WEST, FL, 33040","Match","Exact","3158 NORTHSIDE DR, KEY WEST, FL, 33040",116475584,"L"
499739,"3158 NW 92 ST","MIAMI","FL",33147,25.857266816,-80.249534313,239,"3158 NW 92 ST, MIAMI, FL, 33147","Match","Exact","3158 NW 92ND ST, MIAMI, FL, 33147",115998431,"L"
499740,"3158 PARSIFAL PL","BRONX","NY",10465,40.8395940790001,-73.822087734,240,"3158 PARSIFAL PL, BRONX, NY, 10465","Match","Exact","3158 PARSIFAL PL, BRONX, NY, 10465",80310639,"R"
499741,"3158 PARSIFAL PLACE","BRONX","NY",10465,40.8395940790001,-73.822087734,241,"3158 PARSIFAL PLACE, BRONX, NY, 10465","Match","Exact","3158 PARSIFAL PL, BRONX, NY, 10465",80310639,"R"
499742,"3158 PENNSYLVANIA","SAINT LOUIS","MO",63118,38.5992668270001,-90.232386568,242,"3158 PENNSYLVANIA, SAINT LOUIS, MO, 63118","Match","Non_Exact","3158 PENNSYLVANIA AVE, SAINT LOUIS, MO, 63118",605127740,"L"
499743,"3158 PREACHER HOLMES ROAD","GRAHAM","NC",27253,36.004029437,-79.376112082,243,"3158 PREACHER HOLMES ROAD, GRAHAM, NC, 27253","Match","Exact","3158 PREACHER HOLMES RD, GRAHAM, NC, 27253",617453560,"R"
499744,"3158 PYRAMID CIR","MANCHESTER","MD",21102,39.645292334,-76.885404084,244,"3158 PYRAMID CIR, MANCHESTER, MD, 21102","Match","Exact","3158 PYRAMID CIR, MANCHESTER, MD, 21102",635368857,"R"
499745,"3158 RIVERSHYRE PARKWAY","DAVISON","MI",48423,42.9870392990001,-83.520887747,245,"3158 RIVERSHYRE PARKWAY, DAVISON, MI, 48423","Match","Exact","3158 RIVERSHYRE PKWY, DAVISON, MI, 48423",630301274,"R"
499746,"3158 SHOAL CREEK RD","LAVONIA","GA",30553,34.4309685150001,-83.077464161,246,"3158 SHOAL CREEK RD, LAVONIA, GA, 30553","Match","Exact","3158 SHOAL CREEK RD, LAVONIA, GA, 30553",610574904,"L"
499747,"3158 SOUTH 57TH WEST AVENUE","TULSA","OK",74107,36.118021926,-96.056250099,247,"3158 SOUTH 57TH WEST AVENUE, TULSA, OK, 74107","Match","Exact","3158 S 57TH WEST AVE, TULSA, OK, 74107",653421813,"R"
499748,"3158 TUCKER ROAD","STREET","MD",21154,39.6324042310001,-76.286229296,248,"3158 TUCKER ROAD, STREET, MD, 21154","Match","Exact","3158 TUCKER RD, STREET, MD, 21154",647533508,"L"
499749,"3158 VERDUGO RD","LOS ANGELES","CA",90065,34.1085652520001,-118.237251603,249,"3158 VERDUGO RD, LOS ANGELES, CA, 90065","Match","Exact","3158 VERDUGO RD, LOS ANGELES, CA, 90065",141611951,"R"
499750,"3158 W NORTH PLAIN CITY RD","PLAIN CITY","UT",84404,NA,NA,250,"3158 W NORTH PLAIN CITY RD, PLAIN CITY, UT, 84404","Tie",NA,NA,NA,NA
499751,"3158 WAUCHEETA TRAIL","MADISON","WI",53711,43.0173374230001,-89.3332961149999,251,"3158 WAUCHEETA TRAIL, MADISON, WI, 53711","Match","Exact","3158 WAUCHEETA TRL, MADISON, WI, 53711",49531690,"R"
499752,"3158 WEST STREET","COTTONDALE","FL",32431,30.7962721700001,-85.3810211489999,252,"3158 WEST STREET, COTTONDALE, FL, 32431","Match","Exact","3158 WEST ST, COTTONDALE, FL, 32431",7179442,"R"
499753,"3158 WOODSIDE DRIVE","EFFINGHAM","SC",29541,34.1324654790001,-79.781662863,253,"3158 WOODSIDE DRIVE, EFFINGHAM, SC, 29541","Match","Exact","3158 WOODSIDE DR, EFFINGHAM, SC, 29541",640473069,"L"
499754,"3158 YOUNGERS CREEK ROAD","NEW HAVEN","KY",40051,37.7049350680001,-85.661168204,254,"3158 YOUNGERS CREEK ROAD, NEW HAVEN, KY, 40051","Match","Non_Exact","3158 YOUNGER CREEK RD, NEW HAVEN, KY, 40051",35041554,"R"
499755,"31580 23RD AVE S","FEDERAL WAY","WA",98003,47.319075662,-122.304121767,255,"31580 23RD AVE S, FEDERAL WAY, WA, 98003","Match","Exact","31580 23RD AVE S, FEDERAL WAY, WA, 98003",186711594,"R"
499756,"31580 STATE ROUTE 325","LANGSVILLE","OH",45741,39.0335509280001,-82.243149129,256,"31580 STATE ROUTE 325, LANGSVILLE, OH, 45741","Match","Exact","31580 STATE RTE 325, LANGSVILLE, OH, 45741",101273406,"R"
499757,"31582 CLAY RIVER RD","BARSTOW","CA",92311,34.891200703,-116.973124755,257,"31582 CLAY RIVER RD, BARSTOW, CA, 92311","Match","Exact","31582 CLAY RIVER RD, BARSTOW, CA, 92311",144528026,"R"
499758,"31582 CLAY RIVER RD","BATSTOW","CA",92311,34.891200703,-116.973124755,258,"31582 CLAY RIVER RD, BATSTOW, CA, 92311","Match","Non_Exact","31582 CLAY RIVER RD, BARSTOW, CA, 92311",144528026,"R"
499759,"31583 479TH AVE","ELK POINT","SD",57025,42.8164789040001,-96.6258674709999,259,"31583 479TH AVE, ELK POINT, SD, 57025","Match","Exact","31583 479TH AVE, ELK POINT, SD, 57025",176345160,"L"
499760,"31583 MORRIS LEONARD ROAD","PARSONSBURG","MD",21849,38.397919259,-75.517259005,260,"31583 MORRIS LEONARD ROAD, PARSONSBURG, MD, 21849","Match","Exact","31583 MORRIS LEONARD RD, PARSONSBURG, MD, 21849",114485518,"R"
499761,"31584 CALLE LA PURISIMA","SAN JUAN CAPISTRANO","CA",92675,33.5045001710001,-117.666326151,261,"31584 CALLE LA PURISIMA, SAN JUAN CAPISTRANO, CA, 92675","Match","Non_Exact","31584 CLL LA PURISIMA, SAN JUAN CAPISTRANO, CA, 92675",144072299,"L"
499762,"31584 K-64","KINGSLEY","IA",51028,NA,NA,262,"31584 K-64, KINGSLEY, IA, 51028","No_Match",NA,NA,NA,NA
499763,"31584 MCGREW LANE","POLSON","MT",59860,47.747955625,-114.018486342,263,"31584 MCGREW LANE, POLSON, MT, 59860","Match","Exact","31584 MCGREW LN, POLSON, MT, 59860",206902438,"L"
499764,"31586 MILLCREEK DR","MENIFEE","CA",92584,33.6618800640001,-117.158796785,264,"31586 MILLCREEK DR, MENIFEE, CA, 92584","Match","Exact","31586 MILLCREEK DR, MENIFEE, CA, 92584",194874935,"R"
499765,"31589 CHARLEYS RUN","BETHANY BEACH","DE",19930,38.5542189880001,-75.0698441,265,"31589 CHARLEYS RUN, BETHANY BEACH, DE, 19930","Match","Exact","31589 CHARLEYS RUN, BETHANY BEACH, DE, 19930",641475432,"L"
499766,"3159 40TH STREET","DES MOINES","IA",50310,41.62297062,-93.670568595,266,"3159 40TH STREET, DES MOINES, IA, 50310","Match","Exact","3159 40TH ST, DES MOINES, IA, 50310",65779726,"R"
499767,"3159 BEDFORD LANE","GERMANTOWN","TN",38138,35.062673311,-89.7397191489999,267,"3159 BEDFORD LANE, GERMANTOWN, TN, 38138","Match","Non_Exact","3159 BEDFORD LN, GERMANTOWN, TN, 38139",72972892,"L"
499768,"3159 BOOSHWAY CT","GRAND JUNCTION","CO",81504,39.066803731,-108.46688189,268,"3159 BOOSHWAY CT, GRAND JUNCTION, CO, 81504","Match","Exact","3159 BOOSHWAY CT, GRAND JCT, CO, 81504",648100901,"R"
499769,"3159 CHAR-AUGUSTA ROAD","BAMBERG","SC",29003,NA,NA,269,"3159 CHAR-AUGUSTA ROAD, BAMBERG, SC, 29003","No_Match",NA,NA,NA,NA
499770,"3159 COUNTY ROAD 93","INTERNATIONAL FALLS","MN",56649,48.6089605780001,-93.3114357319999,270,"3159 COUNTY ROAD 93, INTERNATIONAL FALLS, MN, 56649","Match","Exact","3159 CO RD 93, INTERNATIONAL FALLS, MN, 56649",611836155,"L"
499771,"3159 CR 342","PALACIOS","TX",77465,28.8107445380001,-96.2010956619999,271,"3159 CR 342, PALACIOS, TX, 77465","Match","Exact","3159 CO RD 342, PALACIOS, TX, 77465",83306739,"R"
499772,"3159 E EDDES ST","WEST COVINA","CA",91791,34.0595514520001,-117.877264933,272,"3159 E EDDES ST, WEST COVINA, CA, 91791","Match","Exact","3159 E EDDES ST, WEST COVINA, CA, 91791",141716387,"L"
499773,"3159 GRACIA ST","LOS ANGELES","CA",90039,34.113936229,-118.256651685,273,"3159 GRACIA ST, LOS ANGELES, CA, 90039","Match","Exact","3159 GRACIA ST, LOS ANGELES, CA, 90039",141610705,"L"
499774,"3159 HARRISON","FAIRFIELD TOWNSHIP","OH",45211,NA,NA,274,"3159 HARRISON, FAIRFIELD TOWNSHIP, OH, 45211","No_Match",NA,NA,NA,NA
499775,"3159 HENDERSONVILLE RD","FLETCHER","NC",28732,35.4390528000001,-82.5038272049999,275,"3159 HENDERSONVILLE RD, FLETCHER, NC, 28732","Match","Exact","3159 HENDERSONVILLE RD, FLETCHER, NC, 28732",650964148,"L"
499776,"3159 INTERLAKEN","ORCHARD LAKE","MI",48323,NA,NA,276,"3159 INTERLAKEN, ORCHARD LAKE, MI, 48323","Tie",NA,NA,NA,NA
499777,"3159 KEITH DRIVE","EL SOBRANTE","CA",94803,37.973989283,-122.291953601,277,"3159 KEITH DRIVE, EL SOBRANTE, CA, 94803","Match","Exact","3159 KEITH DR, EL SOBRANTE, CA, 94803",192042221,"L"
499778,"3159 LAND PAR","SACRAMENTO","CA",95818,NA,NA,278,"3159 LAND PAR, SACRAMENTO, CA, 95818","No_Match",NA,NA,NA,NA
499779,"3159 LAND PARK DRIVE","SACRAMENTO","CA",95818,38.5491406940001,-121.499160525,279,"3159 LAND PARK DRIVE, SACRAMENTO, CA, 95818","Match","Exact","3159 LAND PARK DR, SACRAMENTO, CA, 95818",133322578,"L"
499780,"3159 LISA MARIE COVE","MEMPHIS","TN",38133,35.2108237370001,-89.8253371879999,280,"3159 LISA MARIE COVE, MEMPHIS, TN, 38133","Match","Exact","3159 LISA MARIE COVE, MEMPHIS, TN, 38133",72957336,"R"
499781,"3159 N ISABELLA","SANGER","CA",93657,36.7813222450001,-119.579944149,281,"3159 N ISABELLA, SANGER, CA, 93657","Match","Exact","3159 N ISABELLA, SANGER, CA, 93657",617779892,"L"
499782,"3159 NATIONAL ROAD","COLUMBUS","IN",47203,NA,NA,282,"3159 NATIONAL ROAD, COLUMBUS, IN, 47203","No_Match",NA,NA,NA,NA
499783,"3159 NEWPORT","DETROIT","MI",48215,42.3833371330001,-82.953840456,283,"3159 NEWPORT, DETROIT, MI, 48215","Match","Non_Exact","3159 NEWPORT ST, DETROIT, MI, 48215",95485740,"L"
499784,"3159 OGIDAKI TRAIL","TRAVERSE CITY","MI",49686,44.851129348,-85.5132515879999,284,"3159 OGIDAKI TRAIL, TRAVERSE CITY, MI, 49686","Match","Exact","3159 OGIDAKI TRL, TRAVERSE CITY, MI, 49686",145515442,"R"
499785,"3159 PRIVATEER ST","LEEMORE","CA",93245,36.2611022520001,-119.887274037,285,"3159 PRIVATEER ST, LEEMORE, CA, 93245","Match","Non_Exact","3159 PRIVATEER ST, LEMOORE, CA, 93245",627920475,"R"
499786,"3159 ROYAL AVENUE","OCEANSIDE","NY",11572,40.6342033940001,-73.6550725289999,286,"3159 ROYAL AVENUE, OCEANSIDE, NY, 11572","Match","Exact","3159 ROYAL AVE, OCEANSIDE, NY, 11572",147680494,"L"
499787,"3159 SE 2079TH STREET","HOLT","MO",64048,NA,NA,287,"3159 SE 2079TH STREET, HOLT, MO, 64048","No_Match",NA,NA,NA,NA
499788,"3159 SHIRLEY DR","JACKSON,","MS",39212,32.258616755,-90.244223494,288,"3159 SHIRLEY DR, JACKSON,, MS, 39212","Match","Exact","3159 SHIRLEY DR, JACKSON, MS, 39212",65379818,"R"
499789,"3159 SILVERTON DR","DALLAS","TX",75229,32.8994200000001,-96.873427398,289,"3159 SILVERTON DR, DALLAS, TX, 75229","Match","Exact","3159 SILVERTON DR, DALLAS, TX, 75229",103206535,"L"
499790,"3159 SPLIT ROCK CIR","BULVERDE","TX",78163,29.754084474,-98.435519786,290,"3159 SPLIT ROCK CIR, BULVERDE, TX, 78163","Match","Exact","3159 SPLIT ROCK CIR, BULVERDE, TX, 78163",72259680,"L"
499791,"3159 SUMMER VIEW LANE","BOZEMAN","MT",59715,45.6470208160001,-111.056367884,291,"3159 SUMMER VIEW LANE, BOZEMAN, MT, 59715","Match","Exact","3159 SUMMER VIEW LN, BOZEMAN, MT, 59715",625269086,"L"
499792,"3159 TIMBERSTONE","MARIETTA","GA",30067,NA,NA,292,"3159 TIMBERSTONE, MARIETTA, GA, 30067","No_Match",NA,NA,NA,NA
499793,"3159 W 11 TH STREET APT 10","LOS ANGELES","CA",90006,NA,NA,293,"3159 W 11 TH STREET APT 10, LOS ANGELES, CA, 90006","No_Match",NA,NA,NA,NA
499794,"3159 W 11TH ST APT 10","LOS ANGELES","CA",90006,34.050840221,-118.307823558,294,"3159 W 11TH ST APT 10, LOS ANGELES, CA, 90006","Match","Non_Exact","3159 W 11TH ST, LOS ANGELES, CA, 90006",629804421,"R"
499795,"3159 W 11TH STREET APT 10","LOS ANGELES","CA",90006,34.050840221,-118.307823558,295,"3159 W 11TH STREET APT 10, LOS ANGELES, CA, 90006","Match","Non_Exact","3159 W 11TH ST, LOS ANGELES, CA, 90006",629804421,"R"
499796,"3159 W 11TH STREET","LOS ANGELES","CA",90006,34.050840221,-118.307823558,296,"3159 W 11TH STREET, LOS ANGELES, CA, 90006","Match","Exact","3159 W 11TH ST, LOS ANGELES, CA, 90006",629804421,"R"
499797,"31592 PALOMAR RD","MENIFEE","CA",92584,33.6615736590001,-117.162623718,297,"31592 PALOMAR RD, MENIFEE, CA, 92584","Match","Exact","31592 PALOMAR RD, MENIFEE, CA, 92584",651975102,"R"
499798,"31593 591ST AVE","WINTHROP","MN",55396,44.489800126,-94.4525537219999,298,"31593 591ST AVE, WINTHROP, MN, 55396","Match","Exact","31593 591ST AVE, WINTHROP, MN, 55396",607215560,"R"
499799,"31596 WINNERS CIRCLE","AVON LAKE","OH",44012,41.4809170660001,-81.971077694,299,"31596 WINNERS CIRCLE, AVON LAKE, OH, 44012","Match","Exact","31596 WINNERS CIR, AVON LAKE, OH, 44012",617718992,"R"
499800,"315A ASH ST","JEFFERSON CITY","MO",65101,38.56864289,-92.161920535,300,"315A ASH ST, JEFFERSON CITY, MO, 65101","Match","Exact","315 ASH ST, JEFFERSON CITY, MO, 65101",604584521,"R"
499801,"315A N 33RD STREET","RICHMOND","VA",23223,37.527396916,-77.411403068,301,"315A N 33RD STREET, RICHMOND, VA, 23223","Match","Exact","315 N 33RD ST, RICHMOND, VA, 23223",201548848,"R"
499802,"316  4TH ST NW APT 309","EAST GRAND FORKS","MN",56721,47.9293988810001,-97.023719221,302,"316  4TH ST NW APT 309, EAST GRAND FORKS, MN, 56721","Match","Exact","316 4TH ST NW, EAST GRAND FORKS, MN, 56721",171433363,"R"
499803,"316 10TH ST","PALISADES PARK","NJ",7650,40.8434295650001,-73.988463022,303,"316 10TH ST, PALISADES PARK, NJ, 7650","Match","Exact","316 10TH ST, PALISADES PARK, NJ, 07650",64391020,"R"
499804,"316 14TH AVE SE","DEVILS LAKE","ND",58301,48.1062028170001,-98.8435371849999,304,"316 14TH AVE SE, DEVILS LAKE, ND, 58301","Match","Exact","316 14TH AVE SE, DEVILS LAKE, ND, 58301",635837256,"R"
499805,"316 18TH AVE S","SOUTH ST. PAUL","MN",55075,44.8867733820001,-93.0563866159999,305,"316 18TH AVE S, SOUTH ST. PAUL, MN, 55075","Match","Exact","316 18TH AVE S, SOUTH SAINT PAUL, MN, 55075",37941063,"R"
499806,"316 18TH STREET","MANHATTAN BEACH","CA",90266,33.8893972440001,-118.412043062,306,"316 18TH STREET, MANHATTAN BEACH, CA, 90266","Match","Exact","316 18TH ST, MANHATTAN BEACH, CA, 90266",642865820,"R"
499807,"316 24TH ST NE","BRADENTON","FL",34208,27.5030378540001,-82.534450517,307,"316 24TH ST NE, BRADENTON, FL, 34208","Match","Exact","316 24TH ST NE, BRADENTON, FL, 34208",16244074,"L"
499808,"316 24TH STREET NORTH","LA CROSSE","WI",54601,43.81420882,-91.2205938549999,308,"316 24TH STREET NORTH, LA CROSSE, WI, 54601","Match","Exact","316 24TH ST N, LA CROSSE, WI, 54601",51012973,"R"
499809,"316 26TH ST","COLUBUS","GA",31904,32.488123498,-84.9886114609999,309,"316 26TH ST, COLUBUS, GA, 31904","Match","Non_Exact","316 26TH ST, COLUMBUS, GA, 31904",98952333,"R"
499810,"316 26TH ST","COLUMBUS","GA",31904,32.488123498,-84.9886114609999,310,"316 26TH ST, COLUMBUS, GA, 31904","Match","Exact","316 26TH ST, COLUMBUS, GA, 31904",98952333,"R"
499811,"316 26TH ST","UNION CITY","NJ",7087,40.767966496,-74.029381868,311,"316 26TH ST, UNION CITY, NJ, 7087","Match","Exact","316 26TH ST, UNION CITY, NJ, 07087",59599099,"R"
499812,"316 2ND AVENUE APT 3A","NEW YORK","NY",10003,40.7349851880001,-73.9830113419999,312,"316 2ND AVENUE APT 3A, NEW YORK, NY, 10003","Match","Exact","316 2ND AVE, NEW YORK, NY, 10003",59654583,"R"
499813,"316 30TH AVE","SAN MATEO","CA",94403,37.5369570240001,-122.308069977,313,"316 30TH AVE, SAN MATEO, CA, 94403","Match","Exact","316 30TH AVE, SAN MATEO, CA, 94403",192379877,"R"
499814,"316 32ND STREET","SACRAMENTO","CA",95816,38.579647503,-121.460142352,314,"316 32ND STREET, SACRAMENTO, CA, 95816","Match","Exact","316 32ND ST, SACRAMENTO, CA, 95816",133422136,"R"
499815,"316 40TH AVE NE","GREAT FALLS","MT",59404,47.542036748,-111.308402738,315,"316 40TH AVE NE, GREAT FALLS, MT, 59404","Match","Exact","316 40TH AVE NE, GREAT FALLS, MT, 59404",636065266,"R"
499816,"316 4TH AVE","IOWA CITY",NA,NA,NA,NA,316,"316 4TH AVE, IOWA CITY, , ","Tie",NA,NA,NA,NA
499817,"316 51ST ST APT 4","OAKLAND","CA",94609,37.834993899,-122.253068179,317,"316 51ST ST APT 4, OAKLAND, CA, 94609","Match","Exact","316 51ST ST, OAKLAND, CA, 94609",606252233,"R"
499818,"316 5TH STREET","OURAY","CO",81427,38.0197531650001,-107.66873233,318,"316 5TH STREET, OURAY, CO, 81427","Match","Exact","316 5TH ST, OURAY, CO, 81427",91865229,"L"
499819,"316 6TH STREET APARTMENT 2F","BROOKLYN","NY",11215,40.6713821490001,-73.985610086,319,"316 6TH STREET APARTMENT 2F, BROOKLYN, NY, 11215","Match","Exact","316 6TH ST, BROOKLYN, NY, 11215",59075661,"R"
499820,"316 ABBY LEIGH LANE","ALBANY","KY",42602,36.6693860390001,-85.1596447379999,320,"316 ABBY LEIGH LANE, ALBANY, KY, 42602","Match","Exact","316 ABBY LEIGH LN, ALBANY, KY, 42602",29471541,"R"
499821,"316 ACAPAHO DRIVE","MURFREESBORO","TN",37128,NA,NA,321,"316 ACAPAHO DRIVE, MURFREESBORO, TN, 37128","No_Match",NA,NA,NA,NA
499822,"316 ADAMS","NEWBURGH","IN",47630,37.946403198,-87.399889853,322,"316 ADAMS, NEWBURGH, IN, 47630","Match","Non_Exact","316 ADAMS ST, NEWBURGH, IN, 47630",32210570,"L"
499823,"316 ADAMSON AVE","CARROLLTON","GA",30117,33.575301218,-85.0648768949999,323,"316 ADAMSON AVE, CARROLLTON, GA, 30117","Match","Exact","316 ADAMSON AVE, CARROLLTON, GA, 30117",17113868,"R"
499824,"316 AMBER LANE","WILLOW SPRINGS","NC",27592,35.5509944230001,-78.605462813,324,"316 AMBER LANE, WILLOW SPRINGS, NC, 27592","Match","Exact","316 AMBER LN, WILLOW SPRING, NC, 27592",26542994,"R"
499825,"316 AMBROSE DRIVE","MURPHY","TX",75094,33.017134179,-96.6161242749999,325,"316 AMBROSE DRIVE, MURPHY, TX, 75094","Match","Exact","316 AMBROSE DR, MURPHY, TX, 75094",642474736,"L"
499826,"316 ANGIER ROAD","FAQUAY-VARINA","NC",27526,35.5816123920001,-78.796635345,326,"316 ANGIER ROAD, FAQUAY-VARINA, NC, 27526","Match","Non_Exact","316 ANGIER RD, FUQUAY VARINA, NC, 27526",72491119,"L"
499827,"316 ANNES COURT","PLAINWELL","MI",49080,42.443924414,-85.60135059,327,"316 ANNES COURT, PLAINWELL, MI, 49080","Match","Non_Exact","316 ANNS CT, PLAINWELL, MI, 49080",11436464,"R"
499828,"316 APARTMENT COURT DRIVE APT 62","BATON ROUGE","LA",70806,30.4456997880001,-91.123498626,328,"316 APARTMENT COURT DRIVE APT 62, BATON ROUGE, LA, 70806","Match","Exact","316 APARTMENT COURT DR, BATON ROUGE, LA, 70806",92197242,"L"
499829,"316 APPLETON COURT","BUDA","TX",78610,30.1085507830001,-97.876523343,329,"316 APPLETON COURT, BUDA, TX, 78610","Match","Exact","316 APPLETON CT, BUDA, TX, 78610",63830698,"R"
499830,"316 ARLINGTON AVE E","ST PAUL","MN",55130,44.9845442170001,-93.0870465039999,330,"316 ARLINGTON AVE E, ST PAUL, MN, 55130","Match","Exact","316 ARLINGTON AVE E, SAINT PAUL, MN, 55130",97644592,"R"
499831,"316 ASH STREET","JEFFERSON CITY","MO",65101,38.568650071,-92.1619311329999,331,"316 ASH STREET, JEFFERSON CITY, MO, 65101","Match","Exact","316 ASH ST, JEFFERSON CITY, MO, 65101",604584521,"L"
499832,"316 ATLANTA ST","VERNON","TX",76384,34.149938492,-99.2635848309999,332,"316 ATLANTA ST, VERNON, TX, 76384","Match","Exact","316 ATLANTA ST, VERNON, TX, 76384",183248890,"L"
499833,"316 ATLANTIC AVENUE","MARBLEHEAD","MA",1945,42.485701927,-70.8703546629999,333,"316 ATLANTIC AVENUE, MARBLEHEAD, MA, 1945","Match","Exact","316 ATLANTIC AVE, MARBLEHEAD, MA, 01945",86648213,"L"
499834,"316 AUBURN","LITTLE ROCK","AR",72205,34.754529962,-92.35101138,334,"316 AUBURN, LITTLE ROCK, AR, 72205","Match","Non_Exact","316 AUBURN DR, LITTLE ROCK, AR, 72205",83504556,"L"
499835,"316 AUGUSTA DRIVE","HOPEWELL JUNCTION","NY",12533,41.5963502970001,-73.7819691839999,335,"316 AUGUSTA DRIVE, HOPEWELL JUNCTION, NY, 12533","Match","Exact","316 AUGUSTA DR, HOPEWELL JCT, NY, 12533",4174620,"R"
499836,"316 AVE P NE","WINTER HAVEN","FL",33881,28.037867132,-81.7235175759999,336,"316 AVE P NE, WINTER HAVEN, FL, 33881","Match","Exact","316 AVE P NE, WINTER HAVEN, FL, 33881",104850353,"R"
499837,"316 AVENUE B","WESTWEGO","LA",70094,29.9128071530001,-90.141976991,337,"316 AVENUE B, WESTWEGO, LA, 70094","Match","Exact","316 AVE B, WESTWEGO, LA, 70094",93504784,"R"
499838,"316 B BROOKS RD","JACKSON","GA",30233,33.243438553,-84.006330227,338,"316 B BROOKS RD, JACKSON, GA, 30233","Match","Exact","316 BROOKS RD, JACKSON, GA, 30233",637662856,"R"
499839,"316 B STREET EAST","POPLAR","MT",59255,NA,NA,339,"316 B STREET EAST, POPLAR, MT, 59255","Tie",NA,NA,NA,NA
499840,"316 BAILEY AVE STE 100","FORT WORTH","TX",76107,32.7555642030001,-97.365075079,340,"316 BAILEY AVE STE 100, FORT WORTH, TX, 76107","Match","Exact","316 BAILEY AVE, FORT WORTH, TX, 76107",101883736,"R"
499841,"316 BAILEY LN","SARASOTA","FL",34237,27.3393578340001,-82.500747829,341,"316 BAILEY LN, SARASOTA, FL, 34237","Match","Exact","316 BAILEY LN, SARASOTA, FL, 34237",16414055,"L"
499842,"316 BAINBRIDGE CIRCLE","GARNER","NC",27529,35.6883343920001,-78.5983858549999,342,"316 BAINBRIDGE CIRCLE, GARNER, NC, 27529","Match","Exact","316 BAINBRIDGE CIR, GARNER, NC, 27529",72512006,"R"
499843,"316 BALTIMORE BLVD","SEA GIRT","NJ",8750,40.1332970020001,-74.034786004,343,"316 BALTIMORE BLVD, SEA GIRT, NJ, 8750","Match","Exact","316 BALTIMORE BLVD, SEA GIRT, NJ, 08750",90467787,"L"
499844,"316 BARBER DR","COPPERAS","TX",76562,NA,NA,344,"316 BARBER DR, COPPERAS, TX, 76562","No_Match",NA,NA,NA,NA
499845,"316 BARNSELY DRIVE","EVANS","GA",30809,33.589644514,-82.149853394,345,"316 BARNSELY DRIVE, EVANS, GA, 30809","Match","Non_Exact","316 BARNSLEY DR, EVANS, GA, 30809",653441739,"R"
499846,"316 BAXTER","NEWBURY PARK","CA",91320,34.1728744760001,-118.9483829,346,"316 BAXTER, NEWBURY PARK, CA, 91320","Match","Non_Exact","316 BAXTER ST, NEWBURY PARK, CA, 91320",109968660,"R"
499847,"316 BAY ST","NORTH VERNON","IN",47265,39.0084756360001,-85.637915923,347,"316 BAY ST, NORTH VERNON, IN, 47265","Match","Exact","316 BAY ST, NORTH VERNON, IN, 47265",30112386,"L"
499848,"316 BEACHCOMBER DR E","ROCKLIN","CA",95677,38.7949977440001,-121.264465918,348,"316 BEACHCOMBER DR E, ROCKLIN, CA, 95677","Match","Exact","316 BEACHCOMBER DR E, ROCKLIN, CA, 95677",106798027,"R"
499849,"316 BEL AIR BLVD SUITE 304","MOBILE","AL",36606,30.6755750940001,-88.118013941,349,"316 BEL AIR BLVD SUITE 304, MOBILE, AL, 36606","Match","Exact","316 BEL AIR BLVD, MOBILE, AL, 36606",61995132,"L"
499850,"316 BELLE AVE","BELLEVILLE","WI",53508,42.8727391210001,-89.5376491659999,350,"316 BELLE AVE, BELLEVILLE, WI, 53508","Match","Exact","316 BELLE AVE, BELLEVILLE, WI, 53508",49497094,"L"
499851,"316 BENEDICT DR","LAFAYETTE","LA",70508,30.110881508,-92.046376734,351,"316 BENEDICT DR, LAFAYETTE, LA, 70508","Match","Exact","316 BENEDICT DR, LAFAYETTE, LA, 70508",651740228,"R"
499852,"316 BLUE BELL COURT","EXETER","PA",18643,41.3349811240001,-75.819988166,352,"316 BLUE BELL COURT, EXETER, PA, 18643","Match","Non_Exact","316 BLUEBELL CT, EXETER, PA, 18643",80950138,"L"
499853,"316 BLUE JAY DRIVE","LEROY","IL",61752,40.326275944,-88.768292803,353,"316 BLUE JAY DRIVE, LEROY, IL, 61752","Match","Non_Exact","316 BLUE JAY DR, LE ROY, IL, 61752",642919910,"L"
499854,"316 BODENHAMER ST W","KERNERVILLE","NC",27284,NA,NA,354,"316 BODENHAMER ST W, KERNERVILLE, NC, 27284","No_Match",NA,NA,NA,NA
499855,"316 BOLERO DRIVE","DANVILLE","CA",94526,37.802077394,-121.973896368,355,"316 BOLERO DRIVE, DANVILLE, CA, 94526","Match","Exact","316 BOLERO DR, DANVILLE, CA, 94526",192065238,"L"
499856,"316 BOVEE ROAD","SOCORRO","TX",79927,31.636148517,-106.283824992,356,"316 BOVEE ROAD, SOCORRO, TX, 79927","Match","Exact","316 BOVEE RD, SOCORRO, TX, 79927",189402192,"L"
499857,"316 BOWMAN HALL","LEXINGTON","KY",40506,NA,NA,357,"316 BOWMAN HALL, LEXINGTON, KY, 40506","No_Match",NA,NA,NA,NA
499858,"316 BOXFORD ROAD","HAVERHILL","MA",1835,42.746997519,-71.062976905,358,"316 BOXFORD ROAD, HAVERHILL, MA, 1835","Match","Exact","316 BOXFORD RD, HAVERHILL, MA, 01835",86661446,"L"
499859,"316 BOXWOOD","MESQUITE","TX",75150,32.8151862180001,-96.6000222979999,359,"316 BOXWOOD, MESQUITE, TX, 75150","Match","Non_Exact","316 BOXWOOD DR, MESQUITE, TX, 75150",102933623,"R"
499860,"316 BRADFORD DR","HENDERSON","NV",89074,36.0502597930001,-115.091428825,360,"316 BRADFORD DR, HENDERSON, NV, 89074","Match","Exact","316 BRADFORD DR, HENDERSON, NV, 89074",201889780,"L"
499861,"316 BRADFORD WAY","PEACHTREE CITY","GA",30269,33.3900206660001,-84.542626195,361,"316 BRADFORD WAY, PEACHTREE CITY, GA, 30269","Match","Exact","316 BRADFORD WAY, PEACHTREE CITY, GA, 30269",75939476,"R"
499862,"316 BRISTOL NW","GRAND RAPIDS","MI",49504,42.969346742,-85.707230102,362,"316 BRISTOL NW, GRAND RAPIDS, MI, 49504","Match","Non_Exact","316 BRISTOL AVE NW, GRAND RAPIDS, MI, 49504",12455752,"R"
499863,"316 BRISTON COURT","MURFREESBORO","TN",37127,35.802375291,-86.342852549,363,"316 BRISTON COURT, MURFREESBORO, TN, 37127","Match","Exact","316 BRISTON CT, MURFREESBORO, TN, 37127",606765644,"R"
499864,"316 BRITTANY RD","MONTEREY","CA",93940,NA,NA,364,"316 BRITTANY RD, MONTEREY, CA, 93940","No_Match",NA,NA,NA,NA
499865,"316 BROADFOOT AVENUE","FAYETTEVILLE","NC",28305,35.0538457640001,-78.900492301,365,"316 BROADFOOT AVENUE, FAYETTEVILLE, NC, 28305","Match","Exact","316 BROADFOOT AVE, FAYETTEVILLE, NC, 28305",64200189,"R"
499866,"316 BROWER CT","SAN RAMON","CA",94582,37.773502643,-121.913413179,366,"316 BROWER CT, SAN RAMON, CA, 94582","Match","Exact","316 BROWER CT, SAN RAMON, CA, 94582",192115442,"L"
499867,"316 BRYAN HALL FOLEY INSTITUTE WSU","PULLMAN","WA",99164,NA,NA,367,"316 BRYAN HALL FOLEY INSTITUTE WSU, PULLMAN, WA, 99164","No_Match",NA,NA,NA,NA
499868,"316 BRYAN ST APT 1","DENTON","TX",76201,33.2169123950001,-97.147761411,368,"316 BRYAN ST APT 1, DENTON, TX, 76201","Match","Exact","316 BRYAN ST, DENTON, TX, 76201",103338612,"L"
499869,"316 BUCKINGHAM DRIVE","VENETIA","PA",15367,40.253690798,-80.073798363,369,"316 BUCKINGHAM DRIVE, VENETIA, PA, 15367","Match","Exact","316 BUCKINGHAM DR, VENETIA, PA, 15367",653368958,"R"
499870,"316 CADY LANE","CLEVELAND","GA",30528,34.60094545,-83.8263595029999,370,"316 CADY LANE, CLEVELAND, GA, 30528","Match","Exact","316 CADY LN, CLEVELAND, GA, 30528",89037126,"R"
499871,"316 CALIFORNIA AVE STE 362","RENO","NV",89509,39.5200836560001,-119.814493338,371,"316 CALIFORNIA AVE STE 362, RENO, NV, 89509","Match","Exact","316 CALIFORNIA AVE, RENO, NV, 89509",107045179,"L"
499872,"316 CALIFORNIA AVE SUITE 396","RENO","NV",89509,39.5200836560001,-119.814493338,372,"316 CALIFORNIA AVE SUITE 396, RENO, NV, 89509","Match","Exact","316 CALIFORNIA AVE, RENO, NV, 89509",107045179,"L"
499873,"316 CAMBRIDGE DRIVE","MANCHESTER","KY",40962,37.183159269,-83.780833103,373,"316 CAMBRIDGE DRIVE, MANCHESTER, KY, 40962","Match","Exact","316 CAMBRIDGE DR, MANCHESTER, KY, 40962",634140821,"L"
499874,"316 CANAL ST","MARSHFIELD","MA",2050,42.0715889740001,-70.652007075,374,"316 CANAL ST, MARSHFIELD, MA, 2050","Match","Exact","316 CANAL ST, MARSHFIELD, MA, 02050",87439373,"R"
499875,"316 CAPSTONE","CIBOLO","TX",78108,29.588158783,-98.214374906,375,"316 CAPSTONE, CIBOLO, TX, 78108","Match","Exact","316 CAPSTONE, CIBOLO, TX, 78108",627691907,"R"
499876,"316 CAPTAIN GREY CT SE","OCEAN SHORES","WA",98569,46.9738099100001,-124.14054237,376,"316 CAPTAIN GREY CT SE, OCEAN SHORES, WA, 98569","Match","Non_Exact","316 CAPTAIN GRAY CT SE, OCEAN SHORES, WA, 98569",180594283,"L"
499877,"316 CARRIAGE CROSSING LANE","MIDDLETOWN","CT",6457,41.585373147,-72.7101204969999,377,"316 CARRIAGE CROSSING LANE, MIDDLETOWN, CT, 6457","Match","Exact","316 CARRIAGE CROSSING LN, MIDDLETOWN, CT, 06457",641608130,"L"
499878,"316 CARRINGTON LANE","DOUGLASVILLE","GA",30135,33.7135092980001,-84.756592395,378,"316 CARRINGTON LANE, DOUGLASVILLE, GA, 30135","Match","Exact","316 CARRINGTON LN, DOUGLASVILLE, GA, 30135",618478049,"L"
499879,"316 CARRINGTON STREET","HUTTO","TX",78634,30.5681997460001,-97.548326658,379,"316 CARRINGTON STREET, HUTTO, TX, 78634","Match","Exact","316 CARRINGTON ST, HUTTO, TX, 78634",641127767,"L"
499880,"316 CARROL LOOP","ALICE","TX",78332,27.7340120050001,-98.14003299,380,"316 CARROL LOOP, ALICE, TX, 78332","Match","Non_Exact","316 CARROLL LOOP, ALICE, TX, 78332",635279683,"L"
499881,"316 CHANDLER RD","JACKSON","NJ",8527,40.1594882300001,-74.287171459,381,"316 CHANDLER RD, JACKSON, NJ, 8527","Match","Exact","316 CHANDLER RD, JACKSON, NJ, 08527",203716977,"L"
499882,"316 CHAPMAN DRIVE","CORTE","CA",94925,37.9230600920001,-122.526584172,382,"316 CHAPMAN DRIVE, CORTE, CA, 94925","Match","Non_Exact","316 CHAPMAN DR, CORTE MADERA, CA, 94925",192766253,"L"
499883,"316 CHESTNUT DRIVE","COPPERAS COVE","TX",76522,31.144875316,-97.926111329,383,"316 CHESTNUT DRIVE, COPPERAS COVE, TX, 76522","Match","Exact","316 CHESTNUT DR, COPPERAS COVE, TX, 76522",146566548,"R"
499884,"316 CHESTNUT STREET","WESTVILLE","NJ",8093,39.8665964400001,-75.1364133879999,384,"316 CHESTNUT STREET, WESTVILLE, NJ, 8093","Match","Exact","316 CHESTNUT ST, WESTVILLE, NJ, 08093",134583047,"L"
499885,"316 CHURCH ST","NEW YORK","NY",10013,40.7199014110001,-74.004036616,385,"316 CHURCH ST, NEW YORK, NY, 10013","Match","Exact","316 CHURCH ST, NEW YORK, NY, 10013",59660243,"L"
499886,"316 CIRCLE PARK PL","CHAPEL HILL","NC",27517,35.9086416690001,-79.012329914,386,"316 CIRCLE PARK PL, CHAPEL HILL, NC, 27517","Match","Exact","316 CIRCLE PARK PL, CHAPEL HILL, NC, 27517",72420253,"R"
499887,"316 CLEAR STREAM ROAD","JACKSON","NJ",8527,40.110046126,-74.266719069,387,"316 CLEAR STREAM ROAD, JACKSON, NJ, 8527","Match","Non_Exact","316 CLEARSTREAM RD, JACKSON, NJ, 08527",203807532,"L"
499888,"316 CLUBHOUUSE DR","FAIRHOPE","AE",36532,NA,NA,388,"316 CLUBHOUUSE DR, FAIRHOPE, AE, 36532","No_Match",NA,NA,NA,NA
499889,"316 COBBLERS COURT","LITITZ","PA",17543,40.1132168600001,-76.310652073,389,"316 COBBLERS COURT, LITITZ, PA, 17543","Match","Exact","316 COBBLERS CT, LITITZ, PA, 17543",179699099,"R"
499890,"316 COLUMBIA DR 1004 B","CARROLLTON","GA",30117,33.598176842,-85.102426026,390,"316 COLUMBIA DR 1004 B, CARROLLTON, GA, 30117","Match","Exact","316 COLUMBIA DR, CARROLLTON, GA, 30117",17138903,"L"
499891,"316 COLUMBIA DR 1004 B","FORT WAYNE","IN",46825,NA,NA,391,"316 COLUMBIA DR 1004 B, FORT WAYNE, IN, 46825","No_Match",NA,NA,NA,NA
499892,"316 COLUMBIA DRIVE","CARROLLTON","GA",30117,33.598176842,-85.102426026,392,"316 COLUMBIA DRIVE, CARROLLTON, GA, 30117","Match","Exact","316 COLUMBIA DR, CARROLLTON, GA, 30117",17138903,"L"
499893,"316 COMER AVE","HORSE CAVE","KY",42749,37.1743757290001,-85.901192124,393,"316 COMER AVE, HORSE CAVE, KY, 42749","Match","Exact","316 COMER AVE, HORSE CAVE, KY, 42749",635469180,"L"
499894,"316 CONCORD SQUARE","GURNEE","IL",60031,42.3557185110001,-87.9192474279999,394,"316 CONCORD SQUARE, GURNEE, IL, 60031","Match","Exact","316 CONCORD SQ, GURNEE, IL, 60031",119755835,"R"
499895,"316 COOK LN","TUSCUMBIA","AL",35674,34.6551150400001,-87.646877697,395,"316 COOK LN, TUSCUMBIA, AL, 35674","Match","Exact","316 COOK LN, TUSCUMBIA, AL, 35674",40772067,"L"
499896,"316 COOLIDGE DRIVE","PORTSMOUTH","NH",3801,43.038882216,-70.7745354469999,396,"316 COOLIDGE DRIVE, PORTSMOUTH, NH, 3801","Match","Exact","316 COOLIDGE DR, PORTSMOUTH, NH, 03801",113667076,"R"
499897,"316 COOPER ST","WILSALL","MT",59086,NA,NA,397,"316 COOPER ST, WILSALL, MT, 59086","No_Match",NA,NA,NA,NA
499898,"316 COPPER CREEK DR","RAEFORD","NC",28376,34.9653556420001,-79.050011792,398,"316 COPPER CREEK DR, RAEFORD, NC, 28376","Match","Exact","316 COPPER CREEK DR, RAEFORD, NC, 28376",625021048,"L"
499899,"316 COUNTY ROAD 4020","CRANE HILL","AL",35053,34.0691027240001,-87.1378847569999,399,"316 COUNTY ROAD 4020, CRANE HILL, AL, 35053","Match","Exact","316 CO RD 4020, CRANE HILL, AL, 35053",141389324,"L"
499900,"316 COUNTY ROUTE 68","SARATOGA SPRINGS","NY",12866,43.078243044,-73.661499567,400,"316 COUNTY ROUTE 68, SARATOGA SPRINGS, NY, 12866","Match","Non_Exact","316 CO RD 68, SARATOGA SPGS, NY, 12866",18769009,"R"
499901,"316 CR 1820","LIBERTY","TX",77575,30.0699626320001,-94.670573077,401,"316 CR 1820, LIBERTY, TX, 77575","Match","Exact","316 CO RD 1820, LIBERTY, TX, 77575",24124240,"R"
499902,"316 CR 3183","CLEVELAND","TX",77327,30.315242062,-95.0553994859999,402,"316 CR 3183, CLEVELAND, TX, 77327","Match","Exact","316 CO RD 3183, CLEVELAND, TX, 77327",24102337,"L"
499903,"316 CR 941","TEAGUE","TX",75860,31.6959663320001,-96.229702301,403,"316 CR 941, TEAGUE, TX, 75860","Match","Exact","316 CO RD 941, TEAGUE, TX, 75860",639918733,"R"
499904,"316 CRIMSON CIR","CAMPBELL","OH",44405,41.0833856630001,-80.5969662159999,404,"316 CRIMSON CIR, CAMPBELL, OH, 44405","Match","Exact","316 CRIMSON CIR, CAMPBELL, OH, 44405",64609541,"L"
499905,"316 CRYSTAL LAKE DRIVE","DESOTO","TX",75115,32.593930718,-96.905531764,405,"316 CRYSTAL LAKE DRIVE, DESOTO, TX, 75115","Match","Exact","316 CRYSTAL LAKE DR, DESOTO, TX, 75115",624608268,"L"
499906,"316 CYPRESS AVE","SANTA ANA","CA",92701,33.7431860190001,-117.866390239,406,"316 CYPRESS AVE, SANTA ANA, CA, 92701","Match","Exact","316 CYPRESS AVE, SANTA ANA, CA, 92701",144042176,"R"
499907,"316 DAKOTA LANE","COPPELL","TX",75019,32.959855799,-96.998274664,407,"316 DAKOTA LANE, COPPELL, TX, 75019","Match","Exact","316 DAKOTA LN, COPPELL, TX, 75019",103174128,"R"
499908,"316 DAY AVENUE","BAKERSFIELD","CA",93308,35.435224987,-119.018179342,408,"316 DAY AVENUE, BAKERSFIELD, CA, 93308","Match","Exact","316 DAY AVE, BAKERSFIELD, CA, 93308",109081854,"L"
499909,"316 DEL MAR AVE","VALLEJO","CA",94589,38.124040903,-122.24479834,409,"316 DEL MAR AVE, VALLEJO, CA, 94589","Match","Exact","316 DEL MAR AVE, VALLEJO, CA, 94589",192527108,"L"
499910,"316 DEPOT ST","ESBON","KS",66941,39.82393619,-98.43428955,410,"316 DEPOT ST, ESBON, KS, 66941","Match","Exact","316 DEPOT ST, ESBON, KS, 66941",148252408,"R"
499911,"316 DIAMOND RIDGE BLVD","AUBURNDALE","FL",33823,28.1002646110001,-81.776607158,411,"316 DIAMOND RIDGE BLVD, AUBURNDALE, FL, 33823","Match","Exact","316 DIAMOND RIDGE BLVD, AUBURNDALE, FL, 33823",104884625,"R"
499912,"316 DINGLE AVE","PALMYRA","MO",63461,39.797465894,-91.528949948,412,"316 DINGLE AVE, PALMYRA, MO, 63461","Match","Exact","316 DINGLE AVE, PALMYRA, MO, 63461",35331717,"L"
499913,"316 DOLAN AVENUE","MILL VALLEY","CA",94941,37.8797279340001,-122.52971157,413,"316 DOLAN AVENUE, MILL VALLEY, CA, 94941","Match","Exact","316 DOLAN AVE, MILL VALLEY, CA, 94941",192769508,"R"
499914,"316 DOME DRIVE","AVONDALE","LA",70094,29.915232616,-90.2228988259999,414,"316 DOME DRIVE, AVONDALE, LA, 70094","Match","Exact","316 DOME DR, AVONDALE, LA, 70094",93496621,"R"
499915,"316 DON MCCARTER RD","CLOVER","SC",29710,35.121471629,-81.158565408,415,"316 DON MCCARTER RD, CLOVER, SC, 29710","Match","Non_Exact","316 DON MCCARTER DR, CLOVER, SC, 29710",19803432,"R"
499916,"316 DOUGLAS AVE","CRYSTAL LAKE","IL",60014,42.2341487960001,-88.3326919789999,416,"316 DOUGLAS AVE, CRYSTAL LAKE, IL, 60014","Match","Exact","316 DOUGLAS AVE, CRYSTAL LAKE, IL, 60014",119820479,"L"
499917,"316 DRAYTON PLACE DRIVE","MONCKS CORNER","SC",29461,33.0762595530001,-80.0149485649999,417,"316 DRAYTON PLACE DRIVE, MONCKS CORNER, SC, 29461","Match","Exact","316 DRAYTON PLACE DR, MONCKS CORNER, SC, 29461",638905579,"R"
499918,"316 DRIFTWOOD LANE","AURORA","IL",60504,41.7591917720001,-88.223468882,418,"316 DRIFTWOOD LANE, AURORA, IL, 60504","Match","Exact","316 DRIFTWOOD LN, AURORA, IL, 60504",112581401,"R"
499919,"316 E 12TH ST APT 102","DALLAS","TX",75203,32.7435689340001,-96.819243036,419,"316 E 12TH ST APT 102, DALLAS, TX, 75203","Match","Non_Exact","316 E 12TH ST, DALLAS, TX, 75203",102948819,"R"
499920,"316 E 166TH ST APT 2","BRONX","NY",10456,40.8299975190001,-73.914056855,420,"316 E 166TH ST APT 2, BRONX, NY, 10456","Match","Non_Exact","316 E 166TH ST, BRONX, NY, 10456",80300476,"R"
499921,"316 E 37TH ST","HIBBING","MN",55746,NA,NA,421,"316 E 37TH ST, HIBBING, MN, 55746","Tie",NA,NA,NA,NA
499922,"316 E 3RD ST","GRANT CITY","MO",64456,40.4864254400001,-94.411544641,422,"316 E 3RD ST, GRANT CITY, MO, 64456","Match","Exact","316 E 3RD ST, GRANT CITY, MO, 64456",38652529,"L"
499923,"316 E 3RD STREET","MT. CARMEL","IL",62863,38.409561313,-87.756764634,423,"316 E 3RD STREET, MT. CARMEL, IL, 62863","Match","Exact","316 E 3RD ST, MOUNT CARMEL, IL, 62863",30031694,"L"
499924,"316 E 4TH ST","ATMORE","AL",36502,31.032315183,-87.4768762319999,424,"316 E 4TH ST, ATMORE, AL, 36502","Match","Exact","316 4TH ST, ATMORE, AL, 36502",1935568,"R"
499925,"316 E 650 N","BOUNTIFUL","UT",84010,40.896354961,-111.874276988,425,"316 E 650 N, BOUNTIFUL, UT, 84010","Match","Exact","316 E 650 N, BOUNTIFUL, UT, 84010",155311518,"R"
499926,"316 E 80TH STREET","NEW YORK","NY",10075,40.773654225,-73.9536928099999,426,"316 E 80TH STREET, NEW YORK, NY, 10075","Match","Exact","316 E 80TH ST, NEW YORK, NY, 10075",650073130,"R"
499927,"316 E 92ND STREET APT 1 RW","NEW YORK","NY",10128,40.781504813,-73.9485333389999,427,"316 E 92ND STREET APT 1 RW, NEW YORK, NY, 10128","Match","Non_Exact","316 E 92ND ST, NEW YORK, NY, 10128",609098347,"R"
499928,"316 E ACADEMY ST","LOUISVILLE","MS",39339,33.120876824,-89.050223414,428,"316 E ACADEMY ST, LOUISVILLE, MS, 39339","Match","Exact","316 E ACADEMY ST, LOUISVILLE, MS, 39339",915941,"R"
499929,"316 E AVENIDA DEL RIO","CLEWISTON","FL",33440,26.7596731880001,-80.929046505,429,"316 E AVENIDA DEL RIO, CLEWISTON, FL, 33440","Match","Exact","316 E AVE DEL RIO, CLEWISTON, FL, 33440",4493414,"L"
499930,"316 E BRINKERHOFF AVENUE","PALISADES PARK","NJ",7650,40.8423683250001,-73.9905905589999,430,"316 E BRINKERHOFF AVENUE, PALISADES PARK, NJ, 7650","Match","Exact","316 E BRINKERHOFF AVE, PALISADES PARK, NJ, 07650",64390929,"R"
499931,"316 E CHESTNUT ST","PIPER CITY","IL",60959,NA,NA,431,"316 E CHESTNUT ST, PIPER CITY, IL, 60959","Tie",NA,NA,NA,NA
499932,"316 E DALE ST","COLORADO SPRINGS","CO",80903,38.845026804,-104.819055006,432,"316 E DALE ST, COLORADO SPRINGS, CO, 80903","Match","Exact","316 E DALE ST, COLORADO SPRINGS, CO, 80903",610723472,"L"
499933,"316 E EVERGREEN LN","FAYETTEVILLE","AR",72703,36.1027697860001,-94.1527180159999,433,"316 E EVERGREEN LN, FAYETTEVILLE, AR, 72703","Match","Exact","316 E EVERGREEN LN, FAYETTEVILLE, AR, 72703",49060766,"R"
499934,"316 E GREGORY BLVD APT 3E","KANSAS CITY","MO",64114,NA,NA,434,"316 E GREGORY BLVD APT 3E, KANSAS CITY, MO, 64114","Tie",NA,NA,NA,NA
499935,"316 E ILLINOIS","MOUNT PLEASANT","MI",48858,NA,NA,435,"316 E ILLINOIS, MOUNT PLEASANT, MI, 48858","Tie",NA,NA,NA,NA
499936,"316 E KELSO RD","COLUMBUS","OH",43202,40.0213221720001,-83.004209325,436,"316 E KELSO RD, COLUMBUS, OH, 43202","Match","Exact","316 E KELSO RD, COLUMBUS, OH, 43202",218682979,"L"
499937,"316 E LEXINGTON","RICHMOND","MO",64085,39.2769134710001,-93.97337379,437,"316 E LEXINGTON, RICHMOND, MO, 64085","Match","Non_Exact","316 E LEXINGTON ST, RICHMOND, MO, 64085",20974272,"R"
499938,"316 E PARK AVE","FLANDREAU","SD",57028,44.0457847060001,-96.591023491,438,"316 E PARK AVE, FLANDREAU, SD, 57028","Match","Exact","316 E PARK AVE, FLANDREAU, SD, 57028",193666776,"R"
499939,"316 E QUINCY ST","RIVERSIDE","IL",60546,NA,NA,439,"316 E QUINCY ST, RIVERSIDE, IL, 60546","Tie",NA,NA,NA,NA
499940,"316 E SCHMEIZER LANE","BOISE","ID",83706,NA,NA,440,"316 E SCHMEIZER LANE, BOISE, ID, 83706","Tie",NA,NA,NA,NA
499941,"316 E SHILOH DR","RED BUD","IL",62278,38.2006671980001,-89.991104206,441,"316 E SHILOH DR, RED BUD, IL, 62278","Match","Exact","316 E SHILOH DR, RED BUD, IL, 62278",95171200,"L"
499942,"316 E SOUTH STREET","SOUTH BEND","IN",46601,41.6694640800001,-86.246370072,442,"316 E SOUTH STREET, SOUTH BEND, IN, 46601","Match","Exact","316 E SOUTH ST, SOUTH BEND, IN, 46601",8083965,"R"
499943,"316 E SPRUCE ST","PERKASIE","PA",18944,40.364492639,-75.290614939,443,"316 E SPRUCE ST, PERKASIE, PA, 18944","Match","Exact","316 E SPRUCE ST, PERKASIE, PA, 18944",635467993,"R"
499944,"316 E UNIVERSITY ST","BLOOMINGTON","IN",47401,39.160401903,-86.530959605,444,"316 E UNIVERSITY ST, BLOOMINGTON, IN, 47401","Match","Exact","316 E UNIVERSITY ST, BLOOMINGTON, IN, 47401",42322719,"R"
499945,"316 E VANBUREN ST","OHIO","IL",61349,41.558591203,-89.4580125049999,445,"316 E VANBUREN ST, OHIO, IL, 61349","Match","Non_Exact","316 E VAN BUREN ST, OHIO, IL, 61349",636380313,"R"
499946,"316 E62 STREET APT 2FE","NEW YORK","NY",10065,NA,NA,446,"316 E62 STREET APT 2FE, NEW YORK, NY, 10065","No_Match",NA,NA,NA,NA
499947,"316 EAST 4TH ST","LUMBERTON","NC",28358,34.619328415,-79.005750937,447,"316 EAST 4TH ST, LUMBERTON, NC, 28358","Match","Exact","316 E 4TH ST, LUMBERTON, NC, 28358",49140744,"L"
499948,"316 EAST 56TH STREET","BROOKLYN","NY",11203,40.649707472,-73.924342006,448,"316 EAST 56TH STREET, BROOKLYN, NY, 11203","Match","Exact","316 E 56TH ST, BROOKLYN, NY, 11203",59085823,"R"
499949,"316 EAST HOWELL STREET","PHILADELPHIA","PA",19120,40.0472077220001,-75.105381247,449,"316 EAST HOWELL STREET, PHILADELPHIA, PA, 19120","Match","Exact","316 E HOWELL ST, PHILADELPHIA, PA, 19120",131441012,"R"
499950,"316 EAST PICKENS","DUMAS","AR",71639,NA,NA,450,"316 EAST PICKENS, DUMAS, AR, 71639","No_Match",NA,NA,NA,NA
499951,"316 EAST WALNUT ST","GOLDSBORO","NC",27530,35.3816977980001,-77.992453246,451,"316 EAST WALNUT ST, GOLDSBORO, NC, 27530","Match","Exact","316 E WALNUT ST, GOLDSBORO, NC, 27530",14403471,"R"
499952,"316 EAST WATERTOWN APT 2","RAPID CITY","SD",57701,44.0884699200001,-103.207237189,452,"316 EAST WATERTOWN APT 2, RAPID CITY, SD, 57701","Match","Non_Exact","316 E WATERTOWN ST, RAPID CITY, SD, 57701",205509392,"L"
499953,"316 EAST WOODLAKE CIRCLE","MT. WASHINGTON","KY",40047,38.0443644860001,-85.558973652,453,"316 EAST WOODLAKE CIRCLE, MT. WASHINGTON, KY, 40047","Match","Exact","316 E WOODLAKE CIR, MOUNT WASHINGTON, KY, 40047",651454575,"R"
499954,"316 EATON AVENUE","HAMILTON","OH",45013,39.411380889,-84.573449781,454,"316 EATON AVENUE, HAMILTON, OH, 45013","Match","Exact","316 EATON AVE, HAMILTON, OH, 45013",113788930,"R"
499955,"316 ELIZABETH AVE","MONTEREY","CA",91755,34.0650924170001,-118.109366758,455,"316 ELIZABETH AVE, MONTEREY, CA, 91755","Match","Non_Exact","316 ELIZABETH AVE, MONTEREY PARK, CA, 91755",141640251,"R"
499956,"316 ELM STREET APT 22A","ANNISTON","AL",36201,33.629833282,-85.836308219,456,"316 ELM STREET APT 22A, ANNISTON, AL, 36201","Match","Exact","316 ELM ST, ANNISTON, AL, 36201",66543617,"L"
499957,"316 ENGLEWOOD AVE","BELLWOOD","IL",60104,41.8867097420001,-87.884595486,457,"316 ENGLEWOOD AVE, BELLWOOD, IL, 60104","Match","Exact","316 ENGLEWOOD AVE, BELLWOOD, IL, 60104",111727479,"R"
499958,"316 F ST","MILLVILLE","NJ",8332,39.4053953170001,-75.035596297,458,"316 F ST, MILLVILLE, NJ, 8332","Match","Exact","316 F ST, MILLVILLE, NJ, 08332",174133061,"L"
499959,"316 FAAS RANCH RD","NEW CASTLE","CO",81647,39.574148016,-107.514305112,459,"316 FAAS RANCH RD, NEW CASTLE, CO, 81647","Match","Exact","316 FAAS RANCH RD, NEW CASTLE, CO, 81647",637539065,"L"
499960,"316 FAIRHAVEN ROAD","ALAMEDA","CA",94501,37.7613354710001,-122.267977356,460,"316 FAIRHAVEN ROAD, ALAMEDA, CA, 94501","Match","Non_Exact","316 FAIR HAVEN RD, ALAMEDA, CA, 94501",606151372,"R"
499961,"316 FAIRMOUNT AVENUE","NEWARK","NJ",7103,40.736400173,-74.1962039109999,461,"316 FAIRMOUNT AVENUE, NEWARK, NJ, 7103","Match","Exact","316 FAIRMOUNT AVE, NEWARK, NJ, 07103",63465779,"L"
499962,"316 FAIRVIEW RD SW","CAMDEN","AZ",71701,NA,NA,462,"316 FAIRVIEW RD SW, CAMDEN, AZ, 71701","No_Match",NA,NA,NA,NA
499963,"316 FAITH COURT","BURLESON","TX",76028,32.5611176290001,-97.3351693829999,463,"316 FAITH COURT, BURLESON, TX, 76028","Match","Exact","316 FAITH CT, BURLESON, TX, 76028",102148588,"L"
499964,"316 FERN AVE","HADDON TOWNSHIP","NJ",8108,39.9206185900001,-75.054578656,464,"316 FERN AVE, HADDON TOWNSHIP, NJ, 8108","Match","Exact","316 FERN AVE, HADDON TOWNSHIP, NJ, 08108",134418523,"R"
499965,"316 FERNWOOD AVE","DAYTON","OH",45405,39.79390277,-84.2080628589999,465,"316 FERNWOOD AVE, DAYTON, OH, 45405","Match","Exact","316 FERNWOOD AVE, DAYTON, OH, 45405",143568640,"R"
499966,"316 FIFTH AVE","RAVENNA","KY",40472,37.685946465,-83.950467945,466,"316 FIFTH AVE, RAVENNA, KY, 40472","Match","Non_Exact","316 5TH ST, RAVENNA, KY, 40472",31904579,"R"
499967,"316 FIRST ST","ITHACA","NY",14850,42.44661891,-76.502447358,467,"316 FIRST ST, ITHACA, NY, 14850","Match","Exact","316 1ST ST, ITHACA, NY, 14850",18855273,"L"
499968,"316 FISCHER RD","FORT MILL","SC",29715,35.0523846410001,-80.908321681,468,"316 FISCHER RD, FORT MILL, SC, 29715","Match","Exact","316 FISCHER RD, FORT MILL, SC, 29715",628057078,"R"
499969,"316 FISH COURT","OXFORD","WI",53952,43.7860575280001,-89.641468591,469,"316 FISH COURT, OXFORD, WI, 53952","Match","Exact","316 FISH CT, OXFORD, WI, 53952",73291424,"R"
499970,"316 FLAT CREED RD","JOHNSON CITY","TX",78636,NA,NA,470,"316 FLAT CREED RD, JOHNSON CITY, TX, 78636","No_Match",NA,NA,NA,NA
499971,"316 FM 2413","BREMOND","TX",76629,31.1899596120001,-96.688236719,471,"316 FM 2413, BREMOND, TX, 76629","Match","Exact","316 FM 2413, BREMOND, TX, 76629",24855562,"R"
499972,"316 FOREST ST","BEREA","KY",40403,37.5761469610001,-84.2829456859999,472,"316 FOREST ST, BEREA, KY, 40403","Match","Exact","316 FOREST ST, BEREA, KY, 40403",31988647,"R"
499973,"316 FOREST STREET","BEREA","KY",40403,37.5761469610001,-84.2829456859999,473,"316 FOREST STREET, BEREA, KY, 40403","Match","Exact","316 FOREST ST, BEREA, KY, 40403",31988647,"R"
499974,"316 FOX CIRCLE","COTTAGE GROVE","WI",53527,43.089272721,-89.205424201,474,"316 FOX CIRCLE, COTTAGE GROVE, WI, 53527","Match","Exact","316 FOX CIR, COTTAGE GROVE, WI, 53527",49499684,"R"
499975,"316 FOXGLOVE AVENUE","SUMMERVILLE","SC",29483,33.009984226,-80.225157854,475,"316 FOXGLOVE AVENUE, SUMMERVILLE, SC, 29483","Match","Exact","316 FOXGLOVE AVE, SUMMERVILLE, SC, 29483",647842368,"R"
499976,"316 FRONT STREET","GREENPORT","NY",11944,41.1013388150001,-72.364440214,476,"316 FRONT STREET, GREENPORT, NY, 11944","Match","Exact","316 FRONT ST, GREENPORT, NY, 11944",113957842,"R"
499977,"316 GARFIELD COURT","FREDERICKSBURG","VA",22408,38.2551482640001,-77.489039355,477,"316 GARFIELD COURT, FREDERICKSBURG, VA, 22408","Match","Exact","316 GARFIELD CT, FREDERICKSBURG, VA, 22408",85022293,"R"
499978,"316 GARFIELD ST","SANTA FE","NM",87501,35.683958241,-105.944801721,478,"316 GARFIELD ST, SANTA FE, NM, 87501","Match","Exact","316 GARFIELD ST, SANTA FE, NM, 87501",169378770,"L"
499979,"316 GASTON AVE APT D","FAIRMONT","WV",26554,39.4804062370001,-80.146858724,479,"316 GASTON AVE APT D, FAIRMONT, WV, 26554","Match","Exact","316 GASTON AVE, FAIRMONT, WV, 26554",51429138,"R"
499980,"316 GAUNTLET WAY","SUFFOLK","VA",23434,36.778349545,-76.5923821109999,480,"316 GAUNTLET WAY, SUFFOLK, VA, 23434","Match","Exact","316 GAUNTLET WAY, SUFFOLK, VA, 23434",122242527,"R"
499981,"316 GENTRY RUN","GREENWOOD","SC",29649,34.2027767770001,-82.222022607,481,"316 GENTRY RUN, GREENWOOD, SC, 29649","Match","Exact","316 GENTRY RUN, GREENWOOD, SC, 29649",635577150,"R"
499982,"316 GLENNSTOVALL DRIVE","THOMSON","GA",30824,33.452354019,-82.502430324,482,"316 GLENNSTOVALL DRIVE, THOMSON, GA, 30824","Match","Non_Exact","316 GLENN STOVALL DR, THOMSON, GA, 30824",43141818,"R"
499983,"316 GLENSHANE PASS","BEAR","DE",19701,39.5573986650001,-75.6649477939999,483,"316 GLENSHANE PASS, BEAR, DE, 19701","Match","Exact","316 GLENSHANE PASS, BEAR, DE, 19701",605781315,"R"
499984,"316 GLIDEN RD","HOBBSVILLE","NC",27946,36.318791581,-76.61069664,484,"316 GLIDEN RD, HOBBSVILLE, NC, 27946","Match","Exact","316 GLIDEN RD, HOBBSVILLE, NC, 27946",18470274,"L"
499985,"316 GRAND LAKE DR","DAYTONA BEACH","FL",32124,29.170542717,-81.099571258,485,"316 GRAND LAKE DR, DAYTONA BEACH, FL, 32124","Match","Non_Exact","316 GRANDE LAKE DR, DAYTONA BEACH, FL, 32124",612318909,"R"
499986,"316 GRANDVIEW ROAD","CONWAY","NH",3818,44.0016605910001,-71.1387451689999,486,"316 GRANDVIEW ROAD, CONWAY, NH, 3818","Match","Exact","316 GRANDVIEW RD, CONWAY, NH, 03818",145601925,"R"
499987,"316 GRANT COURT","LIBERTYVILLE","ID",60048,NA,NA,487,"316 GRANT COURT, LIBERTYVILLE, ID, 60048","No_Match",NA,NA,NA,NA
499988,"316 GRAVESEND NECK RD","BROOKLYN","NY",11223,40.5947196290001,-73.9679763619999,488,"316 GRAVESEND NECK RD, BROOKLYN, NY, 11223","Match","Exact","316 GRAVESEND NECK RD, BROOKLYN, NY, 11223",59090945,"R"
499989,"316 GREEN BRIAR BLVD","POPLAR GROVE","IL",61065,42.3084714890001,-88.843380469,489,"316 GREEN BRIAR BLVD, POPLAR GROVE, IL, 61065","Match","Non_Exact","316 GREENBRIAR BLVD, POPLAR GROVE, IL, 61065",633545311,"L"
499990,"316 GREENE ROAD 604","PARAGOULD","AR",72450,36.0768152090001,-90.645177718,490,"316 GREENE ROAD 604, PARAGOULD, AR, 72450","Match","Exact","316 GREENE RD 604, PARAGOULD, AR, 72450",47065507,"L"
499991,"316 GREENWICH CIR E","LAGRANGE","GA",30240,NA,NA,491,"316 GREENWICH CIR E, LAGRANGE, GA, 30240","No_Match",NA,NA,NA,NA
499992,"316 GROVES","STINNETT","TX",79083,35.8370520350001,-101.448131184,492,"316 GROVES, STINNETT, TX, 79083","Match","Non_Exact","316 GROVES AVE, STINNETT, TX, 79083",185352833,"R"
499993,"316 HADDON AVENUE","COLLINGSWOOD","NJ",8108,39.920229675,-75.080793381,493,"316 HADDON AVENUE, COLLINGSWOOD, NJ, 8108","Match","Exact","316 HADDON AVE, COLLINGSWOOD, NJ, 08108",134416953,"R"
499994,"316 HAGUE","ROCHESTER","NY",14611,NA,NA,494,"316 HAGUE, ROCHESTER, NY, 14611","No_Match",NA,NA,NA,NA
499995,"316 HALA COURT","GREENVILLE","SC",29609,34.9366143350001,-82.380260661,495,"316 HALA COURT, GREENVILLE, SC, 29609","Match","Exact","316 HALA CT, GREENVILLE, SC, 29609",624757370,"R"
499996,"316 HALE AVENUE 23F","OWENSBORO","KY",42301,37.7534901170001,-87.1119573829999,496,"316 HALE AVENUE 23F, OWENSBORO, KY, 42301","Match","Non_Exact","316 HILL AVE, OWENSBORO, KY, 42301",37559731,"L"
499997,"316 HANCE ROAD","FAIR HAVEN","NJ",7704,40.353530086,-74.039080419,497,"316 HANCE ROAD, FAIR HAVEN, NJ, 7704","Match","Exact","316 HANCE RD, FAIR HAVEN, NJ, 07704",90452627,"R"
499998,"316 HANDY ST","ATTELBORO","MA",2703,41.915701611,-71.2695075349999,498,"316 HANDY ST, ATTELBORO, MA, 2703","Match","Non_Exact","316 HANDY ST, ATTLEBORO, MA, 02703",46748715,"L"
499999,"316 HARDERS CROSSING BLVD","SHREVEPORT","LA",71106,32.3515214760001,-93.7203862649999,499,"316 HARDERS CROSSING BLVD, SHREVEPORT, LA, 71106","Match","Exact","316 HARDERS CROSSING BLVD, SHREVEPORT, LA, 71106",648349435,"R"
500000,"316 HARLEY DRIVE","KNOXVILLE","TN",37919,35.927332677,-83.9965973549999,500,"316 HARLEY DRIVE, KNOXVILLE, TN, 37919","Match","Exact","316 HARLEY DR, KNOXVILLE, TN, 37919",42615879,"R"
