"ID","Address","City","State","Zip","lat","long","id","input_address","match_indicator","match_type","matched_address","tiger_line_id","tiger_side"
418001,"258 BENT TREE DR","CROSSVILLE","TN",38555,35.910500762,-85.073919732,1,"258 BENT TREE DR, CROSSVILLE, TN, 38555","Match","Exact","258 BENT TREE DR, CROSSVILLE, TN, 38555",26272243,"L"
418002,"258 BERKELEY ROAD","RIVER EDGE","NJ",7661,40.9250755960001,-74.0447502279999,2,"258 BERKELEY ROAD, RIVER EDGE, NJ, 7661","Match","Exact","258 BERKELEY RD, RIVER EDGE, NJ, 07661",64384440,"R"
418003,"258 BLACKBAY DRIVE","CROSS","SC",29436,33.380458893,-80.209590695,3,"258 BLACKBAY DRIVE, CROSS, SC, 29436","Match","Non_Exact","258 BLACKBAY RD, CROSS, SC, 29436",100733783,"L"
418004,"258 BLACKBAY ROAD","CROSS","SC",29436,33.380458893,-80.209590695,4,"258 BLACKBAY ROAD, CROSS, SC, 29436","Match","Exact","258 BLACKBAY RD, CROSS, SC, 29436",100733783,"L"
418005,"258 BRITTAIN LANE","QUINTON","OK",74561,NA,NA,5,"258 BRITTAIN LANE, QUINTON, OK, 74561","No_Match",NA,NA,NA,NA
418006,"258 BRUCE ST","LAKEWOOD","NJ",8701,40.0916558700001,-74.205597681,6,"258 BRUCE ST, LAKEWOOD, NJ, 8701","Match","Exact","258 BRUCE ST, LAKEWOOD, NJ, 08701",203723811,"R"
418007,"258 BRUNSWICK DR SUITE B","ELYRIA","OH",44035,41.365292808,-82.155578882,7,"258 BRUNSWICK DR SUITE B, ELYRIA, OH, 44035","Match","Exact","258 BRUNSWICK DR, ELYRIA, OH, 44035",55435972,"L"
418008,"258 BRYNWOOD STREET","HAGERSTOWN","MD",21740,39.6379700160001,-77.698024483,8,"258 BRYNWOOD STREET, HAGERSTOWN, MD, 21740","Match","Non_Exact","258 BRYNWOOD, HAGERSTOWN, MD, 21740",637060118,"L"
418009,"258 BUTTE CREEK RD","PEERLESS","MT",59253,48.8672666590001,-105.882777919,9,"258 BUTTE CREEK RD, PEERLESS, MT, 59253","Match","Exact","258 BUTTE CREEK RD, PEERLESS, MT, 59253",205452782,"R"
418010,"258 CALLE 4 SAINT JUST","TRUJILLO ALTO","PR",976,18.3150436400001,-65.9737811539999,10,"258 CALLE 4 SAINT JUST, TRUJILLO ALTO, PR, 976","Match","Exact","258 CLL 4, TRUJILLO ALTO, PR, 00976",650103199,"L"
418011,"258 CAMBO DRIVE","HOOVER","AL",35226,33.3883890860001,-86.84617335,11,"258 CAMBO DRIVE, HOOVER, AL, 35226","Match","Exact","258 CAMBO DR, HOOVER, AL, 35226",81663464,"L"
418012,"258 CARMON","LOVELL","WY",82431,44.8341378010001,-108.398633019,12,"258 CARMON, LOVELL, WY, 82431","Match","Non_Exact","258 CARMON AVE, LOVELL, WY, 82431",180492913,"L"
418013,"258 CARPY AVENUE","VINELAND","NJ",8361,39.4801450410001,-74.9822749109999,13,"258 CARPY AVENUE, VINELAND, NJ, 8361","Match","Exact","258 CARPY AVE, VINELAND, NJ, 08361",174115460,"R"
418014,"258 CARROL AVE EAST","NEWFOLDEN","MN",56738,NA,NA,14,"258 CARROL AVE EAST, NEWFOLDEN, MN, 56738","No_Match",NA,NA,NA,NA
418015,"258 CASCADE ROAD","PITTSBURGH","PA",15221,40.4267916220001,-79.8668047319999,15,"258 CASCADE ROAD, PITTSBURGH, PA, 15221","Match","Exact","258 CASCADE RD, PITTSBURGH, PA, 15221",51669192,"R"
418016,"258 CAVE LN","SAN ANTONIO","TX",78209,29.5087064840001,-98.449759423,16,"258 CAVE LN, SAN ANTONIO, TX, 78209","Match","Exact","258 CAVE LN, SAN ANTONIO, TX, 78209",101499240,"R"
418017,"258 CENTENNIAL ROAD","THOMASVILLE","GA",31792,NA,NA,17,"258 CENTENNIAL ROAD, THOMASVILLE, GA, 31792","No_Match",NA,NA,NA,NA
418018,"258 CENTRAL AVE","HAWTHORNE","NJ",7506,40.955288653,-74.151456436,18,"258 CENTRAL AVE, HAWTHORNE, NJ, 7506","Match","Exact","258 CENTRAL AVE, HAWTHORNE, NJ, 07506",65263660,"R"
418019,"258 CHESTNUT ST","LEETONIA","OH",44431,40.8842257760001,-80.7604536919999,19,"258 CHESTNUT ST, LEETONIA, OH, 44431","Match","Exact","258 CHESTNUT ST, LEETONIA, OH, 44431",616747798,"R"
418020,"258 CHESTNUT STREET","LAFAYETTE","IN",47905,40.4121065200001,-86.895276942,20,"258 CHESTNUT STREET, LAFAYETTE, IN, 47905","Match","Exact","258 CHESTNUT ST, LAFAYETTE, IN, 47905",27319095,"L"
418021,"258 CLIFTON AVENUE","NEWARK","NJ",7104,40.7588088630001,-74.175825199,21,"258 CLIFTON AVENUE, NEWARK, NJ, 7104","Match","Exact","258 CLIFTON AVE, NEWARK, NJ, 07104",63494793,"L"
418022,"258 CLINTON AVENUE","BROOKLYN","NY",11205,40.6904078430001,-73.9682722869999,22,"258 CLINTON AVENUE, BROOKLYN, NY, 11205","Match","Exact","258 CLINTON AVE, BROOKLYN, NY, 11205",639460791,"R"
418023,"258 CLUBHOUSE DRIVE","MIDDLETOWN","NJ",7748,40.4153810500001,-74.1346029589999,23,"258 CLUBHOUSE DRIVE, MIDDLETOWN, NJ, 7748","Match","Exact","258 CLUBHOUSE DR, MIDDLETOWN, NJ, 07748",90574929,"L"
418024,"258 COLGATE AVENUE","KENSINGTON","CA",94708,37.9078920650001,-122.273369101,24,"258 COLGATE AVENUE, KENSINGTON, CA, 94708","Match","Exact","258 COLGATE AVE, KENSINGTON, CA, 94708",192044421,"R"
418025,"258 COLOMBIAN AVENUE","COLUMBUS","OH",43223,39.9507680040001,-83.049981857,25,"258 COLOMBIAN AVENUE, COLUMBUS, OH, 43223","Match","Non_Exact","258 COLUMBIAN AVE, COLUMBUS, OH, 43223",218678184,"L"
418026,"258 COLUMBIA AVE","PALMERTON","PA",18071,40.8043382210001,-75.612850711,26,"258 COLUMBIA AVE, PALMERTON, PA, 18071","Match","Exact","258 COLUMBIA AVE, PALMERTON, PA, 18071",80622196,"R"
418027,"258 COLUMBIAN AVE","COLUMBUS","FL",43223,NA,NA,27,"258 COLUMBIAN AVE, COLUMBUS, FL, 43223","No_Match",NA,NA,NA,NA
418028,"258 COLUMBIAN AVE","COLUMBUS","OH",43223,39.9507680040001,-83.049981857,28,"258 COLUMBIAN AVE, COLUMBUS, OH, 43223","Match","Exact","258 COLUMBIAN AVE, COLUMBUS, OH, 43223",218678184,"L"
418029,"258 CONKLIN AVE","BROOKLYN","NY",11236,40.6452483190001,-73.8999066539999,29,"258 CONKLIN AVE, BROOKLYN, NY, 11236","Match","Exact","258 CONKLIN AVE, BROOKLYN, NY, 11236",59086721,"R"
418030,"258 CONROY AVE","DAVIDSON","NC",28036,35.495149629,-80.8332618759999,30,"258 CONROY AVE, DAVIDSON, NC, 28036","Match","Exact","258 CONROY AVE, DAVIDSON, NC, 28036",70604733,"R"
418031,"258 CONROY AVENUE","DAVDISON","NC",28036,35.495149629,-80.8332618759999,31,"258 CONROY AVENUE, DAVDISON, NC, 28036","Match","Non_Exact","258 CONROY AVE, DAVIDSON, NC, 28036",70604733,"R"
418032,"258 COP","KATY","TX",77450,NA,NA,32,"258 COP, KATY, TX, 77450","No_Match",NA,NA,NA,NA
418033,"258 COPPERSMITH DR","KATY","TX",77450,29.780829017,-95.767940088,33,"258 COPPERSMITH DR, KATY, TX, 77450","Match","Exact","258 COPPERSMITH DR, KATY, TX, 77450",96013472,"R"
418034,"258 COTTAGE WAY","THIBODAUX","LA",70301,29.7874805910001,-90.8528752189999,34,"258 COTTAGE WAY, THIBODAUX, LA, 70301","Match","Exact","258 COTTAGE WAY, THIBODAUX, LA, 70301",648289097,"L"
418035,"258 COUNTY ROAD 1024","CULLMAN","AL",35057,34.175595549,-87.107896818,35,"258 COUNTY ROAD 1024, CULLMAN, AL, 35057","Match","Exact","258 CO RD 1024, CULLMAN, AL, 35057",130245889,"R"
418036,"258 COUNTY ROAD 323","SWEETWATER","TN",37874,35.549982593,-84.528170904,36,"258 COUNTY ROAD 323, SWEETWATER, TN, 37874","Match","Exact","258 CO RD 323, SWEETWATER, TN, 37874",88542236,"L"
418037,"258 CR 797","BROOKLAND","AR",72417,35.9539451270001,-90.604911793,37,"258 CR 797, BROOKLAND, AR, 72417","Match","Exact","258 CO RD 797, BROOKLAND, AR, 72417",46943635,"R"
418038,"258 CRAFTON AVENUE","STATEN ISLAND","NY",10314,40.6043663340001,-74.141980457,38,"258 CRAFTON AVENUE, STATEN ISLAND, NY, 10314","Match","Exact","258 CRAFTON AVE, STATEN ISLAND, NY, 10314",59880931,"L"
418039,"258 CRYSTAL CREEK DRIVE","ROCHESTER","NY",14612,43.2600800160001,-77.707716558,39,"258 CRYSTAL CREEK DRIVE, ROCHESTER, NY, 14612","Match","Exact","258 CRYSTAL CREEK DR, ROCHESTER, NY, 14612",14563878,"L"
418040,"258 CRYSTAL SPRINGS RD","BLOUNTVILLE","TN",37617,36.5751161750001,-82.407727495,40,"258 CRYSTAL SPRINGS RD, BLOUNTVILLE, TN, 37617","Match","Exact","258 CRYSTAL SPRINGS RD, BLOUNTVILLE, TN, 37617",127836543,"R"
418041,"258 DANFORTH STREET","PORTLAND","ME",4102,43.647229558,-70.266210391,41,"258 DANFORTH STREET, PORTLAND, ME, 4102","Match","Exact","258 DANFORTH ST, PORTLAND, ME, 04102",78028753,"L"
418042,"258 DAVIS MILL ROAD NORTH","DALLAS","GA",30157,NA,NA,42,"258 DAVIS MILL ROAD NORTH, DALLAS, GA, 30157","No_Match",NA,NA,NA,NA
418043,"258 DERBY STREET UNIT 1","NEWTON","MA",2465,42.3599679880001,-71.234341405,43,"258 DERBY STREET UNIT 1, NEWTON, MA, 2465","Match","Exact","258 DERBY ST, NEWTON, MA, 02465",86862128,"L"
418044,"258 DEVONSHIRE DR","CHARLESTON","SC",29407,32.777820477,-79.997317628,44,"258 DEVONSHIRE DR, CHARLESTON, SC, 29407","Match","Exact","258 DEVONSHIRE DR, CHARLESTON, SC, 29407",108803973,"R"
418045,"258 DOVE ST","WINFIELD","AL",35594,33.9322147780001,-87.775673865,45,"258 DOVE ST, WINFIELD, AL, 35594","Match","Exact","258 DOVE ST, WINFIELD, AL, 35594",130620810,"R"
418046,"258 DUBOISE ROAD","ITHACA","NY",14850,NA,NA,46,"258 DUBOISE ROAD, ITHACA, NY, 14850","No_Match",NA,NA,NA,NA
418047,"258 E 1640 N","PLEASANT GROVE","UT",84062,40.3812666950001,-111.737016648,47,"258 E 1640 N, PLEASANT GROVE, UT, 84062","Match","Exact","258 E 1640 N, PLEASANT GROVE, UT, 84062",134229452,"R"
418048,"258 E 22ND ST","IDAHO FALLS","ID",83404,43.478077784,-112.029619123,48,"258 E 22ND ST, IDAHO FALLS, ID, 83404","Match","Exact","258 E 22ND ST, IDAHO FALLS, ID, 83404",119119283,"L"
418049,"258 E CROCKET","LA GRANGE","TX",78945,29.905533856,-96.874335079,49,"258 E CROCKET, LA GRANGE, TX, 78945","Match","Non_Exact","258 E CROCKETT ST, LA GRANGE, TX, 78945",41997802,"R"
418050,"258 E LEMON LN","SAN TAN VALLEY","AZ",85140,33.203524171,-111.560799712,50,"258 E LEMON LN, SAN TAN VALLEY, AZ, 85140","Match","Exact","258 E LEMON LN, SAN TAN VALLEY, AZ, 85140",645223546,"L"
418051,"258 E NORTHSIDE DRIVE","JACKSON","PA",39206,NA,NA,51,"258 E NORTHSIDE DRIVE, JACKSON, PA, 39206","No_Match",NA,NA,NA,NA
418052,"258 EAST 4TH STREET - APARTMENT 5A","NEW YORK","NY",10009,40.7230095360001,-73.9818982039999,52,"258 EAST 4TH STREET - APARTMENT 5A, NEW YORK, NY, 10009","Match","Exact","258 E 4TH ST, NEW YORK, NY, 10009",59654738,"R"
418053,"258 EAST 8TH","WAHOO","NE",68066,41.212876855,-96.617838208,53,"258 EAST 8TH, WAHOO, NE, 68066","Match","Non_Exact","258 E 8TH ST, WAHOO, NE, 68066",28512684,"R"
418054,"258 EAST MARKET ST","NAPPANEE","IN",46550,41.4426485170001,-85.999074403,54,"258 EAST MARKET ST, NAPPANEE, IN, 46550","Match","Exact","258 E MARKET ST, NAPPANEE, IN, 46550",604689745,"R"
418055,"258 EAST NORTHPORT MANOR","MANORVILLE","NY",11949,NA,NA,55,"258 EAST NORTHPORT MANOR, MANORVILLE, NY, 11949","No_Match",NA,NA,NA,NA
418056,"258 EDGELL ROAD","FRAMINGHAM","MA",1701,42.308255199,-71.4350745469999,56,"258 EDGELL ROAD, FRAMINGHAM, MA, 1701","Match","Exact","258 EDGELL RD, FRAMINGHAM, MA, 01701",87101696,"L"
418057,"258 ELLIOT COURT","TAYLORSVILLE","KY",40071,38.102248677,-85.392786593,57,"258 ELLIOT COURT, TAYLORSVILLE, KY, 40071","Match","Non_Exact","258 ELLIOTT CT, TAYLORSVILLE, KY, 40071",47765733,"R"
418058,"258 EVERGREEN ROAD","LAKE OSWEGO","OR",97034,45.4182681820001,-122.666518239,58,"258 EVERGREEN ROAD, LAKE OSWEGO, OR, 97034","Match","Exact","258 EVERGREEN RD, LAKE OSWEGO, OR, 97034",642612497,"L"
418059,"258 FARM HILL RD","MORRISTOWN","VT",5661,44.578380861,-72.6514489899999,59,"258 FARM HILL RD, MORRISTOWN, VT, 5661","Match","Exact","258 FARM HILL RD, MORRISTOWN, VT, 05661",136628173,"L"
418060,"258 FARM LANE","WESTWOOD","MA",2090,42.234550557,-71.2037788609999,60,"258 FARM LANE, WESTWOOD, MA, 2090","Match","Exact","258 FARM LN, WESTWOOD, MA, 02090",87294184,"L"
418061,"258 FARM LN","WESTWOOD","MA",2090,42.234550557,-71.2037788609999,61,"258 FARM LN, WESTWOOD, MA, 2090","Match","Exact","258 FARM LN, WESTWOOD, MA, 02090",87294184,"L"
418062,"258 FARMINGTON FALLS RD","NEW SHARON","ME",4955,44.644366786,-70.033423984,62,"258 FARMINGTON FALLS RD, NEW SHARON, ME, 4955","Match","Exact","258 FARMINGTON FALLS RD, NEW SHARON, ME, 04955",165298866,"R"
418063,"258 FARNHAM LANE","LAKE FOREST","IL",60045,NA,NA,63,"258 FARNHAM LANE, LAKE FOREST, IL, 60045","No_Match",NA,NA,NA,NA
418064,"258 FEEDING HILLS RD","SOUTHWICK","MA",1077,42.063685827,-72.719092151,64,"258 FEEDING HILLS RD, SOUTHWICK, MA, 1077","Match","Exact","258 FEEDING HILLS RD, SOUTHWICK, MA, 01077",4061566,"L"
418065,"258 FEEDING HILLS ROAD","SOUTHWICK","MA",1077,42.063685827,-72.719092151,65,"258 FEEDING HILLS ROAD, SOUTHWICK, MA, 1077","Match","Exact","258 FEEDING HILLS RD, SOUTHWICK, MA, 01077",4061566,"L"
418066,"258 FICUS TER","SUNNYVALE","WA",94086,NA,NA,66,"258 FICUS TER, SUNNYVALE, WA, 94086","No_Match",NA,NA,NA,NA
418067,"258 FIRST AVENUE","GROVELAND","FL",34736,28.5598450700001,-81.844456153,67,"258 FIRST AVENUE, GROVELAND, FL, 34736","Match","Non_Exact","258 1ST ST, GROVELAND, FL, 34736",94103559,"L"
418068,"258 FOLEY RD","SHEPHERDSVILLE","KY",40165,37.978084718,-85.636768659,68,"258 FOLEY RD, SHEPHERDSVILLE, KY, 40165","Match","Exact","258 FOLEY RD, SHEPHERDSVILLE, KY, 40165",47742831,"L"
418069,"258 FOXWORTH DRIVE","JACKSON","TN",38305,35.696425596,-88.8622558179999,69,"258 FOXWORTH DRIVE, JACKSON, TN, 38305","Match","Exact","258 FOXWORTH DR, JACKSON, TN, 38305",643176370,"R"
418070,"258 FREEPORT ST","DELMONT","PA",15626,40.4194192790001,-79.570498836,70,"258 FREEPORT ST, DELMONT, PA, 15626","Match","Exact","258 FREEPORT ST, DELMONT, PA, 15626",633285040,"R"
418071,"258 GARLAND AVE","DECATUR","GA",30030,33.754706517,-84.294431795,71,"258 GARLAND AVE, DECATUR, GA, 30030","Match","Exact","258 GARLAND AVE, DECATUR, GA, 30030",23367461,"L"
418072,"258 GARRETT LANE","ALPINE","AL",35014,33.405816671,-86.320156998,72,"258 GARRETT LANE, ALPINE, AL, 35014","Match","Non_Exact","258 GARRETT DR, ALPINE, AL, 35014",66914883,"L"
418073,"258 GATEWOOD DR","HORTENSE","GA",31543,31.2998602230001,-81.78385049,73,"258 GATEWOOD DR, HORTENSE, GA, 31543","Match","Exact","258 GATEWOOD DR, HORTENSE, GA, 31543",9122129,"R"
418074,"258 GENESEE ST STE 505","UTICA","NY",13502,43.0995728010001,-75.2349658099999,74,"258 GENESEE ST STE 505, UTICA, NY, 13502","Match","Exact","258 GENESEE ST, UTICA, NY, 13502",171531057,"R"
418075,"258 GENESEE STREET SUITE 302","UTICA","NY",13502,43.0995728010001,-75.2349658099999,75,"258 GENESEE STREET SUITE 302, UTICA, NY, 13502","Match","Exact","258 GENESEE ST, UTICA, NY, 13502",171531057,"R"
418076,"258 GRANDE ST","HOUMA","LA",70363,29.5872635420001,-90.693858687,76,"258 GRANDE ST, HOUMA, LA, 70363","Match","Exact","258 GRANDE ST, HOUMA, LA, 70363",92068226,"R"
418077,"258 GRANT AVE","CRESSKILL","NJ",7626,NA,NA,77,"258 GRANT AVE, CRESSKILL, NJ, 7626","No_Match",NA,NA,NA,NA
418078,"258 GREEN WAY LANE","WILKESBORO","NC",28697,36.1106085650001,-81.154237915,78,"258 GREEN WAY LANE, WILKESBORO, NC, 28697","Match","Exact","258 GREEN WAY LN, WILKESBORO, NC, 28697",46136929,"R"
418079,"258 GREENWAY DR","SCOTTSBURG","IN",47170,38.694161428,-85.80161944,79,"258 GREENWAY DR, SCOTTSBURG, IN, 47170","Match","Exact","258 GREENWAY DR, SCOTTSBURG, IN, 47170",639995389,"L"
418080,"258 GREENWOOD DR","LILBURN","GA",30047,33.8828468,-84.155876807,80,"258 GREENWOOD DR, LILBURN, GA, 30047","Match","Non_Exact","258 GREENWOOD DR NW, LILBURN, GA, 30047",88940335,"R"
418081,"258 HARDING ST","ALCOA","TN",37701,35.7780550780001,-83.962016056,81,"258 HARDING ST, ALCOA, TN, 37701","Match","Exact","258 HARDING ST, ALCOA, TN, 37701",89830927,"R"
418082,"258 HARP TERRACE","SEBASTIAN","FL",32958,27.794753042,-80.477779234,82,"258 HARP TERRACE, SEBASTIAN, FL, 32958","Match","Exact","258 HARP TER, SEBASTIAN, FL, 32958",120296972,"R"
418083,"258 HARRY S TRUMAN DR","UPPER MARLBORO","MD",20774,38.885421926,-76.8342707419999,83,"258 HARRY S TRUMAN DR, UPPER MARLBORO, MD, 20774","Match","Exact","258 HARRY S TRUMAN DR, UPPER MARLBORO, MD, 20774",76378484,"L"
418084,"258 HAWTHORNE GROVES BLVD 33-101","ORLANDO","FL",32835,28.5440847020001,-81.506645373,84,"258 HAWTHORNE GROVES BLVD 33-101, ORLANDO, FL, 32835","Match","Exact","258 HAWTHORNE GROVES BLVD, ORLANDO, FL, 32835",94419940,"L"
418085,"258 HAYNES HOLLER DRIVE","WAYNESVILLE","NC",28785,35.5406731780001,-82.9819782709999,85,"258 HAYNES HOLLER DRIVE, WAYNESVILLE, NC, 28785","Match","Exact","258 HAYNES HOLLER DR, WAYNESVILLE, NC, 28785",151828787,"R"
418086,"258 HEIKKILA LANE","MCCALL","ID",83638,44.8615151110001,-116.035097733,86,"258 HEIKKILA LANE, MCCALL, ID, 83638","Match","Exact","258 HEIKKILA LN, MCCALL, ID, 83638",141460517,"R"
418087,"258 HOCKENBURY ROAD","HILLSBOROUGH","NJ",8844,40.495827449,-74.783398876,87,"258 HOCKENBURY ROAD, HILLSBOROUGH, NJ, 8844","Match","Exact","258 HOCKENBURY RD, HILLSBOROUGH, NJ, 08844",653286694,"R"
418088,"258 HOLMAN AUTRY RD","DANIELSVILLE","GA",30633,34.10253012,-83.2379379289999,88,"258 HOLMAN AUTRY RD, DANIELSVILLE, GA, 30633","Match","Exact","258 HOLMAN AUTRY RD, DANIELSVILLE, GA, 30633",625400945,"R"
418089,"258 HOLMES AVE","ATHENS","NC",30606,NA,NA,89,"258 HOLMES AVE, ATHENS, NC, 30606","No_Match",NA,NA,NA,NA
418090,"258 HOPPIN BRANCH RD","GRIFFIN","GA",30224,33.193145241,-84.222786449,90,"258 HOPPIN BRANCH RD, GRIFFIN, GA, 30224","Match","Exact","258 HOPPIN BRANCH RD, GRIFFIN, GA, 30224",23771153,"L"
418091,"258 HUGO ST","SAN FRANCISCO","CA",94122,37.7652357590001,-122.460569264,91,"258 HUGO ST, SAN FRANCISCO, CA, 94122","Match","Exact","258 HUGO ST, SAN FRANCISCO, CA, 94122",192282041,"R"
418092,"258 HUNTINGTON DR","CEDARBURG","WI",53012,43.2857535140001,-88.0363844409999,92,"258 HUNTINGTON DR, CEDARBURG, WI, 53012","Match","Exact","258 HUNTINGTON DR, CEDARBURG, WI, 53012",95899828,"R"
418093,"258 HWY 380E","THROCKMORTON","TX",76483,NA,NA,93,"258 HWY 380E, THROCKMORTON, TX, 76483","No_Match",NA,NA,NA,NA
418094,"258 JAMES ROAD","LEWISBURG","PA",7837,NA,NA,94,"258 JAMES ROAD, LEWISBURG, PA, 7837","No_Match",NA,NA,NA,NA
418095,"258 JAYBIRD RD","NEWPORT","TN",37821,35.965438523,-83.1994145749999,95,"258 JAYBIRD RD, NEWPORT, TN, 37821","Match","Exact","258 JAYBIRD RD, NEWPORT, TN, 37821",132782835,"L"
418096,"258 JEAN STREET","WINTER GARDEN","FL",34787,28.572543798,-81.572559228,96,"258 JEAN STREET, WINTER GARDEN, FL, 34787","Match","Exact","258 JEAN ST, WINTER GARDEN, FL, 34787",94354152,"L"
418097,"258 KEMP LANE","OLMSTEAD","KY",42265,36.7493134590001,-87.0200458479999,97,"258 KEMP LANE, OLMSTEAD, KY, 42265","Match","Exact","258 KEMP LN, OLMSTEAD, KY, 42265",15854251,"L"
418098,"258 KILDEER CREEK","SAN ANTONIO","TX",78253,29.4314314580001,-98.8111734669999,98,"258 KILDEER CREEK, SAN ANTONIO, TX, 78253","Match","Exact","258 KILDEER CRK, SAN ANTONIO, TX, 78253",650612230,"R"
418099,"258 KINGSTON AVENUE","BROOKLYN","NY",11213,40.67076474,-73.9420729829999,99,"258 KINGSTON AVENUE, BROOKLYN, NY, 11213","Match","Exact","258 KINGSTON AVE, BROOKLYN, NY, 11213",59079686,"R"
418100,"258 LAKEWOOD DRIVE","ASHEVILLE","NC",28803,35.5786618930001,-82.53358532,100,"258 LAKEWOOD DRIVE, ASHEVILLE, NC, 28803","Match","Exact","258 LAKEWOOD DR, ASHEVILLE, NC, 28803",36848785,"L"
418101,"258 LANTERN LANE","GULPH MILLS","PA",19428,40.0659163500001,-75.34792585,101,"258 LANTERN LANE, GULPH MILLS, PA, 19428","Match","Exact","258 LANTERN LN, GULPH MILLS, PA, 19428",135126057,"L"
418102,"258 LENOX AVE","ALBANY","NY",12208,42.6601719940001,-73.8103493949999,102,"258 LENOX AVE, ALBANY, NY, 12208","Match","Exact","258 LENOX AVE, ALBANY, NY, 12208",18360367,"R"
418103,"258 LINCOLN STREET","STEELTON","PA",17113,40.2395178460001,-76.841889948,103,"258 LINCOLN STREET, STEELTON, PA, 17113","Match","Exact","258 LINCOLN ST, STEELTON, PA, 17113",70828694,"R"
418104,"258 LINDEN STREET","GLEN ELLYN","IL",60137,41.8828181420001,-88.0791215799999,104,"258 LINDEN STREET, GLEN ELLYN, IL, 60137","Match","Exact","258 LINDEN ST, GLEN ELLYN, IL, 60137",112520876,"L"
418105,"258 LONG BEACH RD","HEMPSTEAD","NY",11550,40.6891271640001,-73.6189195059999,105,"258 LONG BEACH RD, HEMPSTEAD, NY, 11550","Match","Exact","258 LONG BEACH RD, HEMPSTEAD, NY, 11550",147628923,"R"
418106,"258 LONGBEACH ROAD","HEMPSTEAD","NY",11550,40.6891271640001,-73.6189195059999,106,"258 LONGBEACH ROAD, HEMPSTEAD, NY, 11550","Match","Non_Exact","258 LONG BEACH RD, HEMPSTEAD, NY, 11550",147628923,"R"
418107,"258 LYONS PL NE","RENTON","WA",98059,47.4862022710001,-122.144776742,107,"258 LYONS PL NE, RENTON, WA, 98059","Match","Exact","258 LYONS PL NE, RENTON, WA, 98059",187080112,"R"
418108,"258 MAGNOLIA DRIVE","SELDEN","NY",11784,40.8827034920001,-73.0444979279999,108,"258 MAGNOLIA DRIVE, SELDEN, NY, 11784","Match","Exact","258 MAGNOLIA DR, SELDEN, NY, 11784",114003697,"L"
418109,"258 MAIN STREET","PORTLAND","CT",6457,41.557769197,-72.647944617,109,"258 MAIN STREET, PORTLAND, CT, 6457","Match","Non_Exact","258 MAIN ST, MIDDLETOWN, CT, 06457",636463636,"L"
418110,"258 MATHER ROAD","JENKINTOWN","PA",19046,40.0905552410001,-75.130725973,110,"258 MATHER ROAD, JENKINTOWN, PA, 19046","Match","Exact","258 MATHER RD, JENKINTOWN, PA, 19046",135106349,"R"
418111,"258 MEALS LN","WHITESBORO","TX",76273,33.670988843,-96.964545005,111,"258 MEALS LN, WHITESBORO, TX, 76273","Match","Exact","258 MEALS LN, WHITESBORO, TX, 76273",151331977,"R"
418112,"258 MERTON","MEMPHS","TN",38112,NA,NA,112,"258 MERTON, MEMPHS, TN, 38112","No_Match",NA,NA,NA,NA
418113,"258 MICHAEL STREET","WEST PLAINS","MO",65775,36.7581716460001,-91.865807229,113,"258 MICHAEL STREET, WEST PLAINS, MO, 65775","Match","Exact","258 MICHAEL ST, WEST PLAINS, MO, 65775",33334486,"L"
418114,"258 MIDDLE STREET","RANGELY","CO",81648,40.0826138680001,-108.800191465,114,"258 MIDDLE STREET, RANGELY, CO, 81648","Match","Exact","258 MIDDLE ST, RANGELY, CO, 81648",650320628,"L"
418115,"258 MILLBURN AVENUE","MILLBURN","NJ",7041,40.7238627240001,-74.300614073,115,"258 MILLBURN AVENUE, MILLBURN, NJ, 7041","Match","Exact","258 MILLBURN AVE, MILLBURN, NJ, 07041",63461906,"L"
418116,"258 MODDER ST","MEMPHIS","TN",38109,35.0978458750001,-90.0712216219999,116,"258 MODDER ST, MEMPHIS, TN, 38109","Match","Non_Exact","258 MODDER AVE, MEMPHIS, TN, 38109",72905916,"R"
418117,"258 MONTROSE DR","MCDONOUGH","GA",30253,33.4959696670001,-84.213241168,117,"258 MONTROSE DR, MCDONOUGH, GA, 30253","Match","Exact","258 MONTROSE DR, MCDONOUGH, GA, 30253",23212131,"R"
418118,"258 MORRIS ROAD","MOUNT HOPE","WV",25880,37.8347608280001,-81.207130609,118,"258 MORRIS ROAD, MOUNT HOPE, WV, 25880","Match","Exact","258 MORRIS RD, MOUNT HOPE, WV, 25880",652092085,"R"
418119,"258 MOUNT VERNON STREET","NEWTON","MA",2465,42.3474304740001,-71.220389143,119,"258 MOUNT VERNON STREET, NEWTON, MA, 2465","Match","Exact","258 MOUNT VERNON ST, NEWTON, MA, 02465",86862743,"L"
418120,"258 N BAY DRIVE","BULLARD","TX",75757,32.161369135,-95.442920446,120,"258 N BAY DRIVE, BULLARD, TX, 75757","Match","Exact","258 N BAY DR, BULLARD, TX, 75757",141264350,"L"
418121,"258 N DODGE","WICHITA","KS",67203,37.6872167920001,-97.35422016,121,"258 N DODGE, WICHITA, KS, 67203","Match","Non_Exact","258 N DODGE AVE, WICHITA, KS, 67203",115634840,"R"
418122,"258 N HARVARD ST APT 2","BOSTON","MA",2134,42.3490610370001,-71.129891426,122,"258 N HARVARD ST APT 2, BOSTON, MA, 2134","Match","Non_Exact","258 HARVARD AVE, BOSTON, MA, 02134",85695669,"L"
418123,"258 N MONROE STREET","ROCKFORD","MI",49341,43.1243606470001,-85.5581790689999,123,"258 N MONROE STREET, ROCKFORD, MI, 49341","Match","Non_Exact","258 N MONROE ST NE, ROCKFORD, MI, 49341",12495859,"L"
418124,"258 N RIDGE ST","RYE BROOK","NY",10573,41.0234898080001,-73.6841376689999,124,"258 N RIDGE ST, RYE BROOK, NY, 10573","Match","Exact","258 N RIDGE ST, RYE BROOK, NY, 10573",139761606,"L"
418125,"258 N WEST END BLVD 306","QUAKERTOWN","PA",18951,40.4363261890001,-75.35392261,125,"258 N WEST END BLVD 306, QUAKERTOWN, PA, 18951","Match","Non_Exact","258 S WEST END BLVD, QUAKERTOWN, PA, 18951",134770230,"L"
418126,"258 N WEST END BLVD- PMB 317","QUAKERTOWN","PA",18951,NA,NA,126,"258 N WEST END BLVD- PMB 317, QUAKERTOWN, PA, 18951","No_Match",NA,NA,NA,NA
418127,"258 N WHEELER LOOP","SISTERS","OR",97759,44.292899726,-121.562938937,127,"258 N WHEELER LOOP, SISTERS, OR, 97759","Match","Exact","258 N WHEELER LOOP, SISTERS, OR, 97759",152584169,"R"
418128,"258 NE 90 STREET","EL PORTAL","FL",33138,25.8577465720001,-80.1920148679999,128,"258 NE 90 STREET, EL PORTAL, FL, 33138","Match","Exact","258 NE 90TH ST, EL PORTAL, FL, 33138",116260763,"R"
418129,"258 NORTH 2970 WEST","PROVO","UM",84601,NA,NA,129,"258 NORTH 2970 WEST, PROVO, UM, 84601","No_Match",NA,NA,NA,NA
418130,"258 NORTH STREET","WHITNEY POINT","NY",13862,42.3544890690001,-75.881247951,130,"258 NORTH STREET, WHITNEY POINT, NY, 13862","Match","Exact","258 NORTH ST, WHITNEY POINT, NY, 13862",46329737,"R"
418131,"258 NORTH WEST END BLVD   PMB 317","QUAKERTOWN","PA",18951,40.4363269580001,-75.3539230659999,131,"258 NORTH WEST END BLVD   PMB 317, QUAKERTOWN, PA, 18951","Match","Non_Exact","258 S WEST END BLVD, QUAKERTOWN, PA, 18951",134770230,"L"
418132,"258 NORTH WINOOSKI AVE APT 303","BURLINGTON","VT",5401,44.487090246,-73.2089001969999,132,"258 NORTH WINOOSKI AVE APT 303, BURLINGTON, VT, 5401","Match","Exact","258 N WINOOSKI AVE, BURLINGTON, VT, 05401",135827882,"R"
418133,"258 NORTHGLEN DRIVE","SPRING CREEK","NV",89815,40.7405888640001,-115.596806209,133,"258 NORTHGLEN DRIVE, SPRING CREEK, NV, 89815","Match","Exact","258 NORTHGLEN DR, SPRING CREEK, NV, 89815",154778951,"R"
418134,"258 NW 122ND AVE","OXFORD","FL",34484,28.934540973,-82.1069443109999,134,"258 NW 122ND AVE, OXFORD, FL, 34484","Match","Exact","258 NW 122ND AVE, OXFORD, FL, 34484",612189810,"R"
418135,"258 OAKLAND ROAD","SAINT GEORGE","SC",29477,33.1249909840001,-80.555285842,135,"258 OAKLAND ROAD, SAINT GEORGE, SC, 29477","Match","Exact","258 OAKLAND RD, SAINT GEORGE, SC, 29477",178455376,"R"
418136,"258 OAKLAND ROAD","ST GEORGE","SC",29477,33.1249909840001,-80.555285842,136,"258 OAKLAND ROAD, ST GEORGE, SC, 29477","Match","Exact","258 OAKLAND RD, SAINT GEORGE, SC, 29477",178455376,"R"
418137,"258 OHIO STREET","REYNOLDSVILLE","PA",15851,41.1026588460001,-78.896865785,137,"258 OHIO STREET, REYNOLDSVILLE, PA, 15851","Match","Exact","258 OHIO ST, REYNOLDSVILLE, PA, 15851",66455393,"R"
418138,"258 ORANGE AVE","ASHLAND","OR",97520,42.205635408,-122.716460294,138,"258 ORANGE AVE, ASHLAND, OR, 97520","Match","Exact","258 ORANGE AVE, ASHLAND, OR, 97520",155521550,"L"
418139,"258 OWL CREEK ROAD","TAMAQUA","PA",18252,40.794608254,-75.938952887,139,"258 OWL CREEK ROAD, TAMAQUA, PA, 18252","Match","Exact","258 OWL CREEK RD, TAMAQUA, PA, 18252",70956797,"R"
418140,"258 PARK ST","ARCADE","NY",14009,42.5223572950001,-78.423687232,140,"258 PARK ST, ARCADE, NY, 14009","Match","Exact","258 PARK ST, ARCADE, NY, 14009",48883054,"L"
418141,"258 PAULISON AVENUE","PASSAIC","NJ",7055,40.85762499,-74.1306028989999,141,"258 PAULISON AVENUE, PASSAIC, NJ, 7055","Match","Exact","258 PAULISON AVE, PASSAIC, NJ, 07055",65252166,"R"
418142,"258 PEAR BLOSSOM RD","STAFFORD","VA",22554,38.4340825580001,-77.42571893,142,"258 PEAR BLOSSOM RD, STAFFORD, VA, 22554","Match","Exact","258 PEAR BLOSSOM RD, STAFFORD, VA, 22554",652114137,"L"
418143,"258 PEAR BLOSSOM ROAD","STAFFORD","VA",22554,38.4340825580001,-77.42571893,143,"258 PEAR BLOSSOM ROAD, STAFFORD, VA, 22554","Match","Exact","258 PEAR BLOSSOM RD, STAFFORD, VA, 22554",652114137,"L"
418144,"258 PEAR TREE RD","STRONG","AR",71765,33.208126527,-92.318289506,144,"258 PEAR TREE RD, STRONG, AR, 71765","Match","Exact","258 PEAR TREE RD, STRONG, AR, 71765",28165703,"L"
418145,"258 PEARLMONT ROAD","BARNET","VT",5821,44.275202542,-72.0835857179999,145,"258 PEARLMONT ROAD, BARNET, VT, 5821","Match","Exact","258 PEARLMONT RD, BARNET, VT, 05821",181080410,"L"
418146,"258 PELHAM ISLAND ROAD","WAYLAND","MA",1778,42.3548038390001,-71.3867488079999,146,"258 PELHAM ISLAND ROAD, WAYLAND, MA, 1778","Match","Exact","258 PELHAM ISLAND RD, WAYLAND, MA, 01778",647975418,"R"
418147,"258 PERRY ST APT 2","ELGIN","IL",60123,42.0297746700001,-88.288782608,147,"258 PERRY ST APT 2, ELGIN, IL, 60123","Match","Exact","258 PERRY ST, ELGIN, IL, 60123",119503770,"R"
418148,"258 PERSHING AVENUE","YORK","PA",17401,39.9574073300001,-76.729627394,148,"258 PERSHING AVENUE, YORK, PA, 17401","Match","Non_Exact","258 S PERSHING AVE, YORK, PA, 17401",88731189,"R"
418149,"258 PINE VALLEY DRIVE","EL DORADO","AR",71730,33.1600360670001,-92.7159111029999,149,"258 PINE VALLEY DRIVE, EL DORADO, AR, 71730","Match","Exact","258 PINE VALLEY DR, EL DORADO, AR, 71730",28178555,"R"
418150,"258 PIONEER AVE","DURANGO","CO",81301,37.236695184,-107.822705796,150,"258 PIONEER AVE, DURANGO, CO, 81301","Match","Exact","258 PIONEER AVE, DURANGO, CO, 81301",650296347,"L"
418151,"258 PLUM LANE","ETHELSVILLE","AL",35461,33.3255123590001,-88.239857366,151,"258 PLUM LANE, ETHELSVILLE, AL, 35461","Match","Exact","258 PLUM LN, ETHELSVILLE, AL, 35461",616397,"L"
418152,"258 POLK AVENUE","RIVER ROUGE","MI",48218,42.273394824,-83.141155092,152,"258 POLK AVENUE, RIVER ROUGE, MI, 48218","Match","Exact","258 POLK AVE, RIVER ROUGE, MI, 48218",95480320,"R"
418153,"258 POPLAR AVE","NEW PARIS","PA",15554,40.1345806050001,-78.579422659,153,"258 POPLAR AVE, NEW PARIS, PA, 15554","Match","Exact","258 POPLAR AVE, NEW PARIS, PA, 15554",50164300,"R"
418154,"258 POST OAK LANE","RICHLAND","MS",39218,32.2061572000001,-90.135545904,154,"258 POST OAK LANE, RICHLAND, MS, 39218","Match","Exact","258 POST OAK LN, RICHLAND, MS, 39218",116918984,"R"
418155,"258 PYLANT","SENOIA","GA",30276,33.299540918,-84.5578494709999,155,"258 PYLANT, SENOIA, GA, 30276","Match","Non_Exact","258 PYLANT ST, SENOIA, GA, 30276",9341832,"L"
418156,"258 QUINCY AVE B","LONG BEACH","CA",90803,33.766655165,-118.139365245,156,"258 QUINCY AVE B, LONG BEACH, CA, 90803","Match","Exact","258 QUINCY AVE, LONG BEACH, CA, 90803",141702308,"R"
418157,"258 RAINTREE ROAD","VIRGINIA BEACH","VA",23452,36.832044024,-76.087277152,157,"258 RAINTREE ROAD, VIRGINIA BEACH, VA, 23452","Match","Exact","258 RAINTREE RD, VA BCH, VA, 23452",122267380,"L"
418158,"258 RANDY WAY","DALLAS","GA",30132,33.9824867080001,-84.7878663449999,158,"258 RANDY WAY, DALLAS, GA, 30132","Match","Exact","258 RANDY WAY, DALLAS, GA, 30132",618953723,"R"
418159,"258 REDWING VILLAGE COURT","HENDERSON","NV",89012,36.022206635,-115.068441653,159,"258 REDWING VILLAGE COURT, HENDERSON, NV, 89012","Match","Exact","258 REDWING VILLAGE CT, HENDERSON, NV, 89012",201911293,"L"
418160,"258 RICHARDS AVE","LANSDOWNE","PA",19050,39.9376988610001,-75.284581983,160,"258 RICHARDS AVE, LANSDOWNE, PA, 19050","Match","Exact","258 RICHARDS AVE, LANSDOWNE, PA, 19050",134877433,"L"
418161,"258 RIVER ROAD","SUNDERLAND","MA",1375,42.4423714650001,-72.583736839,161,"258 RIVER ROAD, SUNDERLAND, MA, 1375","Match","Exact","258 RIVER RD, SUNDERLAND, MA, 01375",39922858,"R"
418162,"258 ROOSEVELT AVENUE","FRANKLIN SQUARE","NY",11010,40.7146413140001,-73.6814789909999,162,"258 ROOSEVELT AVENUE, FRANKLIN SQUARE, NY, 11010","Match","Exact","258 ROOSEVELT AVE, FRANKLIN SQUARE, NY, 11010",147667299,"R"
418163,"258 ROSE AVE","STATEN ISLAND","NY",10306,40.5714195730001,-74.114837688,163,"258 ROSE AVE, STATEN ISLAND, NY, 10306","Match","Exact","258 ROSE AVE, STATEN ISLAND, NY, 10306",59867839,"R"
418164,"258 ROYCE","ST. LOUIS","MO",63135,38.7416365920001,-90.2845797799999,164,"258 ROYCE, ST. LOUIS, MO, 63135","Match","Non_Exact","258 ROYCE DR, SAINT LOUIS, MO, 63135",100146954,"L"
418165,"258 RYHILL DR","DOVER","DE",19904,39.2381720760001,-75.587335308,165,"258 RYHILL DR, DOVER, DE, 19904","Match","Non_Exact","258 RYHILL LN, DOVER, DE, 19904",601698469,"R"
418166,"258 S 156 ST APT 22","BURIEN","WA",98148,47.4632820400001,-122.329971585,166,"258 S 156 ST APT 22, BURIEN, WA, 98148","Match","Non_Exact","258 S 156TH ST, BURIEN, WA, 98148",186624599,"L"
418167,"258 S 8TH STREET","HILBERT","WI",54129,44.1356983580001,-88.1640697669999,167,"258 S 8TH STREET, HILBERT, WI, 54129","Match","Exact","258 S 8TH ST, HILBERT, WI, 54129",74795709,"L"
418168,"258 S LINN AVE","NEW HAMPTON","IA",50659,43.055462452,-92.317793583,168,"258 S LINN AVE, NEW HAMPTON, IA, 50659","Match","Exact","258 S LINN AVE, NEW HAMPTON, IA, 50659",9745030,"R"
418169,"258 S ROLLING WOODS WAY","FAYETTEVILLE","AR",72704,36.060830975,-94.201178533,169,"258 S ROLLING WOODS WAY, FAYETTEVILLE, AR, 72704","Match","Exact","258 S ROLLING WOODS WAY, FAYETTEVILLE, AR, 72704",617845826,"L"
418170,"258 S SAM HOUSTON BLVD","SAN BENITO","TX",78586,NA,NA,170,"258 S SAM HOUSTON BLVD, SAN BENITO, TX, 78586","No_Match",NA,NA,NA,NA
418171,"258 S SMITH ST","FORSYTH","IL",62535,NA,NA,171,"258 S SMITH ST, FORSYTH, IL, 62535","Tie",NA,NA,NA,NA
418172,"258 S WALNUT ST APT 2","EAST ORANGE","NJ",7017,40.769930134,-74.2068371299999,172,"258 S WALNUT ST APT 2, EAST ORANGE, NJ, 7017","Match","Non_Exact","258 N WALNUT ST, EAST ORANGE, NJ, 07017",63451520,"R"
418173,"258 SEA PINE DRIVE","EGG HARBOR TOWNSHIP","NJ",8234,39.3760697440001,-74.6047937499999,173,"258 SEA PINE DRIVE, EGG HARBOR TOWNSHIP, NJ, 8234","Match","Exact","258 SEA PINE DR, EGG HARBOR TOWNSHIP, NJ, 08234",619154317,"R"
418174,"258 SEMINOLE AVE","WALHTAM","MA",2451,42.410602812,-71.246394144,174,"258 SEMINOLE AVE, WALHTAM, MA, 2451","Match","Non_Exact","258 SEMINOLE AVE, WALTHAM, MA, 02451",623943308,"L"
418175,"258 SHERBURNE PLACE","LYNDONVILLE","VT",5851,44.561949574,-72.006435494,175,"258 SHERBURNE PLACE, LYNDONVILLE, VT, 5851","Match","Exact","258 SHERBURNE PL, LYNDONVILLE, VT, 05851",181078789,"L"
418176,"258 SONIA WAY","LIVERMORE","CA",94550,37.6885982590001,-121.747824859,176,"258 SONIA WAY, LIVERMORE, CA, 94550","Match","Exact","258 SONIA WAY, LIVERMORE, CA, 94550",646826931,"R"
418177,"258 SOUTH DRIVE","ROCHESTER","NY",14612,NA,NA,177,"258 SOUTH DRIVE, ROCHESTER, NY, 14612","No_Match",NA,NA,NA,NA
418178,"258 SOUTH WASHINGTON AVENUE","DUNELLEN","NJ",8812,40.5877702400001,-74.458765812,178,"258 SOUTH WASHINGTON AVENUE, DUNELLEN, NJ, 8812","Match","Exact","258 S WASHINGTON AVE, DUNELLEN, NJ, 08812",60259577,"R"
418179,"258 SPRING OAK ROAD 2312","CAMARILLO","CA",93010,34.2232160020001,-119.073216564,179,"258 SPRING OAK ROAD 2312, CAMARILLO, CA, 93010","Match","Exact","258 SPRING OAK RD, CAMARILLO, CA, 93010",650930390,"R"
418180,"258 SPRING RUN LANE","DOWNINGTOWN","PA",19335,40.0472513710001,-75.685449367,180,"258 SPRING RUN LANE, DOWNINGTOWN, PA, 19335","Match","Exact","258 SPRING RUN LN, DOWNINGTOWN, PA, 19335",179521513,"L"
418181,"258 SPRUCE ROAD","MIDDLETOWN","NY",10940,41.507478948,-74.490715654,181,"258 SPRUCE ROAD, MIDDLETOWN, NY, 10940","Match","Exact","258 SPRUCE RD, MIDDLETOWN, NY, 10940",128990795,"R"
418182,"258 SPRUCE STREET","BOULDER","CO",30302,40.016309495,-105.292948618,182,"258 SPRUCE STREET, BOULDER, CO, 30302","Match","Non_Exact","258 SPRUCE ST, BOULDER, CO, 80302",627563010,"R"
418183,"258 ST NICHOLAS AVE SE","NEW YORK","NY",10027,40.809740182,-73.953039253,183,"258 ST NICHOLAS AVE SE, NEW YORK, NY, 10027","Match","Non_Exact","258 ST NICHOLAS AVE, NEW YORK, NY, 10027",59656083,"R"
418184,"258 STAPLES ROAD","CUMBERLAND","RI",2864,41.9807239090001,-71.428779666,184,"258 STAPLES ROAD, CUMBERLAND, RI, 2864","Match","Exact","258 STAPLES RD, CUMBERLAND, RI, 02864",47510402,"R"
418185,"258 STATE STREET","HAMBURG","PA",19526,40.5547894640001,-75.984783466,185,"258 STATE STREET, HAMBURG, PA, 19526","Match","Exact","258 STATE ST, HAMBURG, PA, 19526",80364954,"R"
418186,"258 SUFFOLK RD","MOBILE","AL",36608,30.683638364,-88.176709146,186,"258 SUFFOLK RD, MOBILE, AL, 36608","Match","Exact","258 SUFFOLK RD, MOBILE, AL, 36608",61853969,"R"
418187,"258 SUMMIT VIEW DRIVE","MCDONOUGH","GA",30253,33.5053013420001,-84.174266138,187,"258 SUMMIT VIEW DRIVE, MCDONOUGH, GA, 30253","Match","Exact","258 SUMMIT VIEW DR, MCDONOUGH, GA, 30253",647589728,"R"
418188,"258 SUN VALLEY TERRACE","HAZARD","KY",41701,37.254015087,-83.181014653,188,"258 SUN VALLEY TERRACE, HAZARD, KY, 41701","Match","Exact","258 SUN VALLEY TER, HAZARD, KY, 41701",88065266,"R"
418189,"258 THUNDER LAKE RD","WILTON","CT",6897,41.2596821430001,-73.445407081,189,"258 THUNDER LAKE RD, WILTON, CT, 6897","Match","Exact","258 THUNDER LAKE RD, WILTON, CT, 06897",642079845,"R"
418190,"258 TRAIL EAST","PATASKALA","OH",43062,39.962422856,-82.693497738,190,"258 TRAIL EAST, PATASKALA, OH, 43062","Match","Exact","258 TRAIL E, PATASKALA, OH, 43062",61520834,"R"
418191,"258 TROUT BROOK DR","WEST HARTFORD","CT",6110,41.7388112350001,-72.731772942,191,"258 TROUT BROOK DR, WEST HARTFORD, CT, 6110","Match","Exact","258 TROUT BROOK DR, WEST HARTFORD, CT, 06110",3513834,"R"
418192,"258 TUCKAHOE LANE","SOUTHAMPTON","NY",11968,40.9001192000001,-72.429385548,192,"258 TUCKAHOE LANE, SOUTHAMPTON, NY, 11968","Match","Exact","258 TUCKAHOE LN, SOUTHAMPTON, NY, 11968",114029247,"R"
418193,"258 TURNING TREE RD","WILMER","TX",75172,32.595611578,-96.673774591,193,"258 TURNING TREE RD, WILMER, TX, 75172","Match","Exact","258 TURNING TREE RD, WILMER, TX, 75172",623950023,"R"
418194,"258 VZ COUNTY ROAD 3506","EDGEWOOD","TX",75117,32.7063977890001,-95.905619836,194,"258 VZ COUNTY ROAD 3506, EDGEWOOD, TX, 75117","Match","Exact","258 VZ COUNTY ROAD 3506, EDGEWOOD, TX, 75117",646721282,"R"
418195,"258 W 123RD ST APT 1","NEW YORK","NY",10027,40.8083662940001,-73.950951023,195,"258 W 123RD ST APT 1, NEW YORK, NY, 10027","Match","Non_Exact","258 W 123RD ST, NEW YORK, NY, 10027",59656106,"L"
418196,"258 W 23RD STREET","MERCED","CA",95340,37.3060770820001,-120.476266097,196,"258 W 23RD STREET, MERCED, CA, 95340","Match","Exact","258 W 23RD ST, MERCED, CA, 95340",125282145,"L"
418197,"258 W 6TH ST","SOUTH BOSTON","MA",2127,42.334523204,-71.049483795,197,"258 W 6TH ST, SOUTH BOSTON, MA, 2127","Match","Exact","258 W 6TH ST, SOUTH BOSTON, MA, 02127",640250590,"L"
418198,"258 W ALTADENA DR","ALTADENA","CA",91001,34.196188858,-118.152393664,198,"258 W ALTADENA DR, ALTADENA, CA, 91001","Match","Exact","258 W ALTADENA DR, ALTADENA, CA, 91001",142735283,"L"
418199,"258 W COUNTY ROAD 750N","OSGOOD","IN",47037,NA,NA,199,"258 W COUNTY ROAD 750N, OSGOOD, IN, 47037","No_Match",NA,NA,NA,NA
418200,"258 W SOMERVILLE AVENUE","PHILADELPHIA","PA",19120,40.032957131,-75.127818603,200,"258 W SOMERVILLE AVENUE, PHILADELPHIA, PA, 19120","Match","Exact","258 W SOMERVILLE AVE, PHILADELPHIA, PA, 19120",131419480,"L"
418201,"258 W WASHINGTON RD","WASHINGTON","ME",4574,44.2850089520001,-69.435339477,201,"258 W WASHINGTON RD, WASHINGTON, ME, 4574","Match","Exact","258 W WASHINGTON RD, WASHINGTON, ME, 04574",635957022,"L"
418202,"258 WABASH AVE","KENMORE","NY",14217,42.9649960680001,-78.88013819,202,"258 WABASH AVE, KENMORE, NY, 14217","Match","Exact","258 WABASH AVE, KENMORE, NY, 14217",48287472,"L"
418203,"258 WAGON TRAIL NORTH","POWELL","OH",43065,40.1558048750001,-83.079036276,203,"258 WAGON TRAIL NORTH, POWELL, OH, 43065","Match","Exact","258 WAGON TRL N, POWELL, OH, 43065",640602972,"R"
418204,"258 WASHINGTON ST","CANTON","MA",2021,42.1455636250001,-71.149929787,204,"258 WASHINGTON ST, CANTON, MA, 2021","Match","Exact","258 WASHINGTON ST, CANTON, MA, 02021",87256011,"R"
418205,"258 WAVA AVE","NICEVILLE","FL",32578,30.5217686870001,-86.445786853,205,"258 WAVA AVE, NICEVILLE, FL, 32578","Match","Exact","258 WAVA AVE, NICEVILLE, FL, 32578",74400419,"R"
418206,"258 WAXHAW DR","FAYETTEVILLE","NC",28314,35.0724706180001,-79.0005474559999,206,"258 WAXHAW DR, FAYETTEVILLE, NC, 28314","Match","Exact","258 WAXHAW DR, FAYETTEVILLE, NC, 28314",64193984,"R"
418207,"258 WEAVER ROAD","SABINA","OH",45169,39.515566285,-83.6638477499999,207,"258 WEAVER ROAD, SABINA, OH, 45169","Match","Exact","258 WEAVER RD, SABINA, OH, 45169",146846113,"R"
418208,"258 WEST 575 SOUTH","PROVIDENCE","UT",84332,41.697168779,-111.824899654,208,"258 WEST 575 SOUTH, PROVIDENCE, UT, 84332","Match","Exact","258 W 575 S, PROVIDENCE, UT, 84332",624367893,"L"
418209,"258 WEST 93RD STREET 4A","NEW YORK","NY",10025,40.792854731,-73.97350948,209,"258 WEST 93RD STREET 4A, NEW YORK, NY, 10025","Match","Exact","258 W 93RD ST, NEW YORK, NY, 10025",59656696,"L"
418210,"258 WEST ATARA STREET","MONROVIA","CA",91016,34.1256890010001,-118.006787696,210,"258 WEST ATARA STREET, MONROVIA, CA, 91016","Match","Exact","258 W ATARA ST, MONROVIA, CA, 91016",141646546,"L"
418211,"258 WEST RUNYON STREET","NEWARK","NJ",7108,40.7189288870001,-74.2071047539999,211,"258 WEST RUNYON STREET, NEWARK, NJ, 7108","Match","Exact","258 W RUNYON ST, NEWARK, NJ, 07108",63466028,"L"
418212,"258 WEST WASHINGTON RD","WASHINGTON","ME",4570,NA,NA,212,"258 WEST WASHINGTON RD, WASHINGTON, ME, 4570","No_Match",NA,NA,NA,NA
418213,"258 WESTBOUND RD","SUMMERVILLE","SC",29486,NA,NA,213,"258 WESTBOUND RD, SUMMERVILLE, SC, 29486","No_Match",NA,NA,NA,NA
418214,"258 WESTERN AVE","LIVERMORE","CA",94551,37.6826799930001,-121.779998644,214,"258 WESTERN AVE, LIVERMORE, CA, 94551","Match","Exact","258 WESTERN AVE, LIVERMORE, CA, 94551",606178253,"R"
418215,"258 WHITE TAIL RUN","CORTLAND","OH",44410,41.3108608150001,-80.7186180049999,215,"258 WHITE TAIL RUN, CORTLAND, OH, 44410","Match","Exact","258 WHITE TAIL RUN, CORTLAND, OH, 44410",645576475,"L"
418216,"258 WICKSON WAY","BRENTWOOD","CA",94513,37.9205417140001,-121.730718231,216,"258 WICKSON WAY, BRENTWOOD, CA, 94513","Match","Exact","258 WICKSON WAY, BRENTWOOD, CA, 94513",192104390,"R"
418217,"258 WILBUR AVE","CRANSTON","RI",2921,41.7502252690001,-71.486715159,217,"258 WILBUR AVE, CRANSTON, RI, 2921","Match","Exact","258 WILBUR AVE, CRANSTON, RI, 02921",640386048,"L"
418218,"258 WILLIAMSBURG ST NE","AIKEN","SC",29801,33.5602934790001,-81.706650719,218,"258 WILLIAMSBURG ST NE, AIKEN, SC, 29801","Match","Exact","258 WILLIAMSBURG ST NE, AIKEN, SC, 29801",653325982,"L"
418219,"258 WINDSONG CT","AZUSA","CA",91702,34.1550843410001,-117.910068237,219,"258 WINDSONG CT, AZUSA, CA, 91702","Match","Exact","258 WINDSONG CT, AZUSA, CA, 91702",142238768,"R"
418220,"258 WINDY HILL DR","WAYNESVILLE","NC",28786,35.552646908,-83.00892972,220,"258 WINDY HILL DR, WAYNESVILLE, NC, 28786","Match","Non_Exact","258 WINDY HILL DR, WAYNESVILLE, NC, 28785",151822706,"R"
418221,"258 WINIFRED ST W","ST PAUL","MN",55107,NA,NA,221,"258 WINIFRED ST W, ST PAUL, MN, 55107","No_Match",NA,NA,NA,NA
418222,"258 WOODLANDS AVENUE","MOBILE","AL",36607,30.692574044,-88.091138053,222,"258 WOODLANDS AVENUE, MOBILE, AL, 36607","Match","Exact","258 WOODLANDS AVE, MOBILE, AL, 36607",61859956,"R"
418223,"258 YAREMICH DRIVE","BRIDGEPORT","CT",6606,41.2178143470001,-73.1961433879999,223,"258 YAREMICH DRIVE, BRIDGEPORT, CT, 6606","Match","Exact","258 YAREMICH DR, BRIDGEPORT, CT, 06606",3222380,"R"
418224,"258-A ROCKRIMMON BLVD","COLO SPGS","CO",80919,NA,NA,224,"258-A ROCKRIMMON BLVD, COLO SPGS, CO, 80919","Tie",NA,NA,NA,NA
418225,"2580 152ND AVE NE","REDMOND","WA",98052,47.633290296,-122.137682992,225,"2580 152ND AVE NE, REDMOND, WA, 98052","Match","Exact","2580 152ND AVE NE, REDMOND, WA, 98052",187053312,"R"
418226,"2580 6TH ST","OSCEOLA","WI",54020,45.2192828060001,-92.691649985,226,"2580 6TH ST, OSCEOLA, WI, 54020","Match","Non_Exact","2580 6TH AVE, OSCEOLA, WI, 54020",110850117,"R"
418227,"2580 APOLLO AVENUE","HARVEY","LA",70058,29.869041644,-90.0546991369999,227,"2580 APOLLO AVENUE, HARVEY, LA, 70058","Match","Exact","2580 APOLLO AVE, HARVEY, LA, 70058",93519555,"R"
418228,"2580 ATWATER HILLS DR NE","GRAND RAPIDS","MI",49525,NA,NA,228,"2580 ATWATER HILLS DR NE, GRAND RAPIDS, MI, 49525","No_Match",NA,NA,NA,NA
418229,"2580 AVALON CIRCLE","CHATTANOOGA","TN",37415,35.0901260700001,-85.29364326,229,"2580 AVALON CIRCLE, CHATTANOOGA, TN, 37415","Match","Exact","2580 AVALON CIR, CHATTANOOGA, TN, 37415",59306739,"R"
418230,"2580 BALWYNNE PARK FLOOR 2","PHILADELPHIA","PA",19131,39.999177735,-75.209908766,230,"2580 BALWYNNE PARK FLOOR 2, PHILADELPHIA, PA, 19131","Match","Non_Exact","2580 BALWYNNE PARK RD, PHILADELPHIA, PA, 19131",131444626,"R"
418231,"2580 BLUE BIRD CIRCLE","MARRERO","LA",70072,29.815605336,-90.10255972,231,"2580 BLUE BIRD CIRCLE, MARRERO, LA, 70072","Match","Exact","2580 BLUE BIRD CIR, MARRERO, LA, 70072",631936351,"L"
418232,"2580 BLUE HERON CIRCLE","LAFAYETTE","CO",80026,NA,NA,232,"2580 BLUE HERON CIRCLE, LAFAYETTE, CO, 80026","Tie",NA,NA,NA,NA
418233,"2580 BLUFFS VIEW DRIVE APT 303","RALEIGH","NC",27610,NA,NA,233,"2580 BLUFFS VIEW DRIVE APT 303, RALEIGH, NC, 27610","No_Match",NA,NA,NA,NA
418234,"2580 BRIDLE TRAILS LANE","SANTA MARIA","CA",93454,34.9139383030001,-120.390667235,234,"2580 BRIDLE TRAILS LANE, SANTA MARIA, CA, 93454","Match","Exact","2580 BRIDLE TRAILS LN, SANTA MARIA, CA, 93454",108613729,"L"
418235,"2580 BROOKVIEW RD","CASTLETON","NY",12033,42.5742509200001,-73.706127689,235,"2580 BROOKVIEW RD, CASTLETON, NY, 12033","Match","Exact","2580 BROOKVIEW RD, CASTLETON, NY, 12033",645415504,"R"
418236,"2580 CENTENNIAL COVE","ATLANTA","AR",30349,NA,NA,236,"2580 CENTENNIAL COVE, ATLANTA, AR, 30349","No_Match",NA,NA,NA,NA
418237,"2580 CHARNEY ROAD","UNIVERSITY HTS","OH",44118,41.4895931090001,-81.5422568449999,237,"2580 CHARNEY ROAD, UNIVERSITY HTS, OH, 44118","Match","Exact","2580 CHARNEY RD, UNIVERSITY HEIGHTS, OH, 44118",61125462,"R"
418238,"2580 COLCHESTER RD","CLEVELAND HEIGHTS","OH",44106,41.493869976,-81.587520297,238,"2580 COLCHESTER RD, CLEVELAND HEIGHTS, OH, 44106","Match","Exact","2580 COLCHESTER RD, CLEVELAND HEIGHTS, OH, 44106",61122788,"R"
418239,"2580 COLLIN MCKINNEY PARKWAY","MCKINNEY","TX",75070,33.1621681500001,-96.6467719349999,239,"2580 COLLIN MCKINNEY PARKWAY, MCKINNEY, TX, 75070","Match","Exact","2580 COLLIN MCKINNEY PKWY, MCKINNEY, TX, 75070",614138207,"R"
418240,"2580 COLLIN MCKINNEY PKWY NO 3423","MCKINNEY","TX",75070,33.1621681500001,-96.6467719349999,240,"2580 COLLIN MCKINNEY PKWY NO 3423, MCKINNEY, TX, 75070","Match","Non_Exact","2580 COLLIN MCKINNEY PKWY, MCKINNEY, TX, 75070",614138207,"R"
418241,"2580 COLONEL FORD DR","LAKELAND","FL",33813,27.9442565890001,-81.9174095399999,241,"2580 COLONEL FORD DR, LAKELAND, FL, 33813","Match","Exact","2580 COLONEL FORD DR, LAKELAND, FL, 33813",104896209,"R"
418242,"2580 COSTA MESA CIR","LEAGUE CITY","TX",77573,29.480181777,-95.090224038,242,"2580 COSTA MESA CIR, LEAGUE CITY, TX, 77573","Match","Exact","2580 COSTA MESA CIR, LEAGUE CITY, TX, 77573",96743563,"L"
418243,"2580 COUNTY ROAD 751","JONESBORO","AR",72401,35.9209025270001,-90.656657211,243,"2580 COUNTY ROAD 751, JONESBORO, AR, 72401","Match","Non_Exact","2580 CO RD 751, JONESBORO, AR, 72405",46946699,"R"
418244,"2580 CRATER LAKE HWY","MEDFORD","OR",97504,42.3540230930001,-122.870377969,244,"2580 CRATER LAKE HWY, MEDFORD, OR, 97504","Match","Exact","2580 CRATER LAKE HWY, MEDFORD, OR, 97504",155549028,"R"
418245,"2580 E 2900 S","SLC","UT",84109,40.708102619,-111.817860166,245,"2580 E 2900 S, SLC, UT, 84109","Match","Non_Exact","2580 E 2900 SOUTH ST, SLC, UT, 84109",176093893,"R"
418246,"2580 E LUCAS DR","BEAUMONT","TX",77703,30.1256235750001,-94.1267450569999,246,"2580 E LUCAS DR, BEAUMONT, TX, 77703","Match","Exact","2580 E LUCAS DR, BEAUMONT, TX, 77703",73850357,"R"
418247,"2580 E US 52","SHERIDAN","IL",60551,41.4855586840001,-88.677093118,247,"2580 E US 52, SHERIDAN, IL, 60551","Match","Non_Exact","2580 US HWY 52, SHERIDAN, IL, 60551",8584713,"R"
418248,"2580 FARMSTEAD DR","COLUMBUS","IN",47201,39.284165984,-85.954045698,248,"2580 FARMSTEAD DR, COLUMBUS, IN, 47201","Match","Exact","2580 FARMSTEAD DR, COLUMBUS, IN, 47201",639738217,"L"
418249,"2580 FIRETHORN COURT","GASTONIA","NC",28056,35.2048814940001,-81.130998098,249,"2580 FIRETHORN COURT, GASTONIA, NC, 28056","Match","Exact","2580 FIRETHORN CT, GASTONIA, NC, 28056",70419584,"L"
418250,"2580 FOREST RUN DR","MELBOURNE","FL",32935,28.1804411860001,-80.663480743,250,"2580 FOREST RUN DR, MELBOURNE, FL, 32935","Match","Exact","2580 FOREST RUN DR, MELBOURNE, FL, 32935",93930637,"L"
418251,"2580 GRACELAND WAY","WOOSTER","OH",44691,40.766701869,-81.9816457209999,251,"2580 GRACELAND WAY, WOOSTER, OH, 44691","Match","Exact","2580 GRACELAND WAY, WOOSTER, OH, 44691",647847786,"R"
418252,"2580 GRACELAND","WOOSTER","OH",44691,40.766701869,-81.9816457209999,252,"2580 GRACELAND, WOOSTER, OH, 44691","Match","Non_Exact","2580 GRACELAND WAY, WOOSTER, OH, 44691",647847786,"R"
418253,"2580 GRAND AVE","MARION","IA",52302,42.020277284,-91.585030102,253,"2580 GRAND AVE, MARION, IA, 52302","Match","Exact","2580 GRAND AVE, MARION, IA, 52302",17036108,"L"
418254,"2580 HARMONY RD SUITE 201","FORT COLLINS","CO",80528,40.523355575,-105.030985253,254,"2580 HARMONY RD SUITE 201, FORT COLLINS, CO, 80528","Match","Non_Exact","2580 E HARMONY RD, FORT COLLINS, CO, 80528",188622579,"L"
418255,"2580 HIKO DR","SPARKS","NV",89432,NA,NA,255,"2580 HIKO DR, SPARKS, NV, 89432","No_Match",NA,NA,NA,NA
418256,"2580 JEFFERSON ST","EUGENE","OR",97405,44.030272761,-123.10127379,256,"2580 JEFFERSON ST, EUGENE, OR, 97405","Match","Exact","2580 JEFFERSON ST, EUGENE, OR, 97405",638576495,"R"
418257,"2580 JUMPER LANE","BARTLETT","TN",38134,35.1959266920001,-89.866096844,257,"2580 JUMPER LANE, BARTLETT, TN, 38134","Match","Exact","2580 JUMPER LN, BARTLETT, TN, 38134",72953725,"R"
418258,"2580 KENZIE TERRACE UNIT 116A","ST ANTHONY","MN",55418,45.0144255280001,-93.223507448,258,"2580 KENZIE TERRACE UNIT 116A, ST ANTHONY, MN, 55418","Match","Exact","2580 KENZIE TER, SAINT ANTHONY, MN, 55418",647744606,"R"
418259,"2580 KITSAP COURT NW","SALEM","OR",97304,44.9533805410001,-123.083597074,259,"2580 KITSAP COURT NW, SALEM, OR, 97304","Match","Non_Exact","2580 KITSAP ST NW, SALEM, OR, 97304",155784389,"R"
418260,"2580 KUBEL AVE","SOUTH LAKE TAHOE","CA",96150,38.921456538,-119.980489276,260,"2580 KUBEL AVE, SOUTH LAKE TAHOE, CA, 96150","Match","Exact","2580 KUBEL AVE, SOUTH LAKE TAHOE, CA, 96150",133036744,"R"
418261,"2580 LAFAYETTE PLAIN CITY ROAD","LONDON","OH",43140,39.9744028870001,-83.394535495,261,"2580 LAFAYETTE PLAIN CITY ROAD, LONDON, OH, 43140","Match","Exact","2580 LAFAYETTE PLAIN CITY RD, LONDON, OH, 43140",135259528,"L"
418262,"2580 LEMI PLACE","HAIKU","HI",96708,20.8783394010001,-156.306981653,262,"2580 LEMI PLACE, HAIKU, HI, 96708","Match","Exact","2580 LEMI PL, HAIKU, HI, 96708",85098992,"R"
418263,"2580 LOMA LARGA RD","CORRALES","NM",87048,35.2357107240001,-106.62179509,263,"2580 LOMA LARGA RD, CORRALES, NM, 87048","Match","Exact","2580 LOMA LARGA RD, CORRALES, NM, 87048",194015023,"L"
418264,"2580 LONGRIDGE ROAD","CLAYTON","DE",19938,39.281802027,-75.7111684079999,264,"2580 LONGRIDGE ROAD, CLAYTON, DE, 19938","Match","Exact","2580 LONGRIDGE RD, CLAYTON, DE, 19938",68103192,"L"
418265,"2580 MT ELBA RD E","RISON","AR",71665,33.9145786710001,-92.1859258599999,265,"2580 MT ELBA RD E, RISON, AR, 71665","Match","Exact","2580 MT ELBA RD E, RISON, AR, 71665",3022417,"R"
418266,"2580 N COLLEGE AV","FAYETTEVILLE","AR",72703,36.09847188,-94.1509955669999,266,"2580 N COLLEGE AV, FAYETTEVILLE, AR, 72703","Match","Exact","2580 N COLLEGE AVE, FAYETTEVILLE, AR, 72703",49100356,"R"
418267,"2580 N COLLEGE AVE","FAYETEVILLE","AR",72703,36.098466806,-94.150998644,267,"2580 N COLLEGE AVE, FAYETEVILLE, AR, 72703","Match","Non_Exact","2580 N COLLEGE AVE, FAYETTEVILLE, AR, 72703",49100356,"R"
418268,"2580 N COLLEGE","FAUETTEVO;;E","AR",72703,36.09847188,-94.1509955669999,268,"2580 N COLLEGE, FAUETTEVO;;E, AR, 72703","Match","Non_Exact","2580 N COLLEGE AVE, FAYETTEVILLE, AR, 72703",49100356,"R"
418269,"2580 N COLLEGE","FAYETTEVILLE","AR",72703,36.09847188,-94.1509955669999,269,"2580 N COLLEGE, FAYETTEVILLE, AR, 72703","Match","Non_Exact","2580 N COLLEGE AVE, FAYETTEVILLE, AR, 72703",49100356,"R"
418270,"2580 NE 31ST AVE","PORTLAND","OR",97212,45.5408633540001,-122.634049921,270,"2580 NE 31ST AVE, PORTLAND, OR, 97212","Match","Exact","2580 NE 31ST AVE, PORTLAND, OR, 97212",157507159,"R"
418271,"2580 NEEDHAM COURT","AURORA","IL",60503,41.71871287,-88.251728687,271,"2580 NEEDHAM COURT, AURORA, IL, 60503","Match","Exact","2580 NEEDHAM CT, AURORA, IL, 60503",111626372,"L"
418272,"2580 NIGHTINGALE DRIVE","SAN JOSE","CA",95125,37.285837257,-121.875312335,272,"2580 NIGHTINGALE DRIVE, SAN JOSE, CA, 95125","Match","Exact","2580 NIGHTINGALE DR, SAN JOSE, CA, 95125",627253761,"L"
418273,"2580 NORTH COLLEGE AVENUE","FAYETTEVILLE","AR",72701,36.098466806,-94.150998644,273,"2580 NORTH COLLEGE AVENUE, FAYETTEVILLE, AR, 72701","Match","Non_Exact","2580 N COLLEGE AVE, FAYETTEVILLE, AR, 72703",49100356,"R"
418274,"2580 NORTH COLLEGE AVENUE","FAYETTEVILLE","AR",72703,36.098466806,-94.150998644,274,"2580 NORTH COLLEGE AVENUE, FAYETTEVILLE, AR, 72703","Match","Exact","2580 N COLLEGE AVE, FAYETTEVILLE, AR, 72703",49100356,"R"
418275,"2580 NURSERY RD","CLEARWATER","FL",33756,27.942095857,-82.731557131,275,"2580 NURSERY RD, CLEARWATER, FL, 33756","Match","Non_Exact","2580 NURSERY RD, CLEARWATER, FL, 33764",637387380,"L"
418276,"2580 OCEAN PARKWAY","BROOKLYN","NY",11235,40.5870591,-73.966365825,276,"2580 OCEAN PARKWAY, BROOKLYN, NY, 11235","Match","Exact","2580 OCEAN PKWY, BROOKLYN, NY, 11235",640848559,"R"
418277,"2580 OLD COVINGTON RD","CONYERS","GA",30013,33.637483553,-83.961094142,277,"2580 OLD COVINGTON RD, CONYERS, GA, 30013","Match","Non_Exact","2580 OLD COVINGTON RD NE, CONYERS, GA, 30013",23750060,"L"
418278,"2580 OLD GLORY DR","ZANESVILLE","OH",43701,NA,NA,278,"2580 OLD GLORY DR, ZANESVILLE, OH, 43701","No_Match",NA,NA,NA,NA
418279,"2580 OLD OXFORD ROAD","HAMILTON","OH",45013,39.434986958,-84.645261337,279,"2580 OLD OXFORD ROAD, HAMILTON, OH, 45013","Match","Exact","2580 OLD OXFORD RD, HAMILTON, OH, 45013",113817190,"L"
418280,"2580 ORIOLE LANE","NEW BRIGHTON","MN",55112,45.093057134,-93.211226548,280,"2580 ORIOLE LANE, NEW BRIGHTON, MN, 55112","Match","Exact","2580 ORIOLE LN, NEW BRIGHTON, MN, 55112",97633784,"L"
418281,"2580 OVERLOOK RD 9","CLEVELAND HEIGHTS","OH",44106,41.50743297,-81.5879569479999,281,"2580 OVERLOOK RD 9, CLEVELAND HEIGHTS, OH, 44106","Match","Exact","2580 OVERLOOK RD, CLEVELAND HEIGHTS, OH, 44106",61122461,"R"
418282,"2580 PENCIL ROAD","ALTURAS","CA",96101,41.535477444,-120.5288265,282,"2580 PENCIL ROAD, ALTURAS, CA, 96101","Match","Exact","2580 PENCIL RD, ALTURAS, CA, 96101",127066068,"R"
418283,"2580 PINE RUN ROAD","LAS VEGAS","NV",89135,NA,NA,283,"2580 PINE RUN ROAD, LAS VEGAS, NV, 89135","No_Match",NA,NA,NA,NA
418284,"2580 PLANO RD","BOWLING GREEN","KY",42104,36.8894105410001,-86.418386899,284,"2580 PLANO RD, BOWLING GREEN, KY, 42104","Match","Exact","2580 PLANO RD, BOWLING GREEN, KY, 42104",28019000,"R"
418285,"2580 QUARTZ ST NE","KEIZER","OR",97303,45.0384629660001,-123.000128984,285,"2580 QUARTZ ST NE, KEIZER, OR, 97303","Match","Exact","2580 QUARTZ ST NE, KEIZER, OR, 97303",156262323,"R"
418286,"2580 RIDGE ROAD","HARTWELL","GA",30643,34.385635676,-82.8913216569999,286,"2580 RIDGE ROAD, HARTWELL, GA, 30643","Match","Exact","2580 RIDGE RD, HARTWELL, GA, 30643",642604962,"R"
418287,"2580 RIVER ROAD","PRINCE GEORGE","VA",23875,37.2781792870001,-77.3492506219999,287,"2580 RIVER ROAD, PRINCE GEORGE, VA, 23875","Match","Exact","2580 RIVER RD, PRINCE GEORGE, VA, 23875",54185856,"L"
418288,"2580 ROBERTS ROAD","TURLOCK","CA",95382,37.5255573380001,-120.878414548,288,"2580 ROBERTS ROAD, TURLOCK, CA, 95382","Match","Exact","2580 ROBERTS RD, TURLOCK, CA, 95382",102633080,"R"
418289,"2580 S 90TH ST","OMAHA","NE",68124,41.2356464440001,-96.052658523,289,"2580 S 90TH ST, OMAHA, NE, 68124","Match","Exact","2580 S 90TH ST, OMAHA, NE, 68124",116973490,"R"
418290,"2580 SENTER ROAD","SAN JOSE","CA",95111,37.3044395490001,-121.844250548,290,"2580 SENTER ROAD, SAN JOSE, CA, 95111","Match","Exact","2580 SENTER RD, SAN JOSE, CA, 95111",123019200,"L"
418291,"2580 SHANNONDALE ROAD","MAYPORT","PA",16240,41.106536894,-79.265398981,291,"2580 SHANNONDALE ROAD, MAYPORT, PA, 16240","Match","Exact","2580 SHANNONDALE RD, MAYPORT, PA, 16240",66227129,"R"
418292,"2580 SOUTH 11TH ST","BELLEVILLE","IL",62226,38.50959987,-90.029706575,292,"2580 SOUTH 11TH ST, BELLEVILLE, IL, 62226","Match","Exact","2580 S 11TH ST, BELLEVILLE, IL, 62226",647683619,"L"
418293,"2580 SUMMER LAKE APT 10208","LITHIA SPRINGS","GA",30122,33.733751221,-84.607072725,293,"2580 SUMMER LAKE APT 10208, LITHIA SPRINGS, GA, 30122","Match","Non_Exact","2580 SUMMER LAKE RD, LITHIA SPGS, GA, 30122",647080240,"R"
418294,"2580 SUMMER LAKE ROAD UNIT 7303","LITHIA SPRINGS","GA",30122,33.733751221,-84.607072725,294,"2580 SUMMER LAKE ROAD UNIT 7303, LITHIA SPRINGS, GA, 30122","Match","Exact","2580 SUMMER LAKE RD, LITHIA SPGS, GA, 30122",647080240,"R"
418295,"2580 SW BUCKINGHAM ST","PORTLAND","OR",97201,45.5064862560001,-122.687385933,295,"2580 SW BUCKINGHAM ST, PORTLAND, OR, 97201","Match","Non_Exact","2580 SW BUCKINGHAM AVE, PORTLAND, OR, 97201",157500749,"L"
418296,"2580 TROY-SIDNEY RD","TROY","OH",45373,40.071271289,-84.204170652,296,"2580 TROY-SIDNEY RD, TROY, OH, 45373","Match","Exact","2580 TROY-SIDNEY RD, TROY, OH, 45373",135324677,"R"
418297,"2580 TWIN BAY DR","TRAVERSE CITY","MI",49696,44.683568832,-85.52582675,297,"2580 TWIN BAY DR, TRAVERSE CITY, MI, 49696","Match","Exact","2580 TWIN BAY DR, TRAVERSE CITY, MI, 49696",145519963,"R"
418298,"2580 UNDERHILL RD","TOLEDO","OH",43615,41.6673677570001,-83.655352092,298,"2580 UNDERHILL RD, TOLEDO, OH, 43615","Match","Exact","2580 UNDERHILL RD, TOLEDO, OH, 43615",33934598,"R"
418299,"2580 UNION AVE EXT","MEMPHIS","TN",38112,NA,NA,299,"2580 UNION AVE EXT, MEMPHIS, TN, 38112","No_Match",NA,NA,NA,NA
418300,"2580 W BROWN RD","RUSHVILLE","IN",46173,39.6431351900001,-85.493887784,300,"2580 W BROWN RD, RUSHVILLE, IN, 46173","Match","Exact","2580 W BROWN RD, RUSHVILLE, IN, 46173",636704804,"R"
418301,"2580 W CAMP WISDOM   STE 105","GRAND PRAIRIE","TX",75052,NA,NA,301,"2580 W CAMP WISDOM   STE 105, GRAND PRAIRIE, TX, 75052","No_Match",NA,NA,NA,NA
418302,"2580 W CAMP WISDOM RD STE100-226","GRAND PRAIRIE","TX",75052,32.647865166,-97.0473714189999,302,"2580 W CAMP WISDOM RD STE100-226, GRAND PRAIRIE, TX, 75052","Match","Non_Exact","2580 W CAMP WISDOM RD, GRAND PRAIRIE, TX, 75052",652040929,"R"
418303,"2580 W ERIE STREET","CHANDLER","AZ",85224,33.309902476,-111.887000909,303,"2580 W ERIE STREET, CHANDLER, AZ, 85224","Match","Exact","2580 W ERIE ST, CHANDLER, AZ, 85224",128804200,"R"
418304,"2580 W ORANGE AVENUE","ANAHEIM","CA",92804,33.824918865,-117.975443487,304,"2580 W ORANGE AVENUE, ANAHEIM, CA, 92804","Match","Exact","2580 W ORANGE AVE, ANAHEIM, CA, 92804",609066735,"L"
418305,"2580 WEST HICKORY GROVE ROAD","BLOOMFIELD HILLS","MI",48302,42.600728932,-83.2930028919999,305,"2580 WEST HICKORY GROVE ROAD, BLOOMFIELD HILLS, MI, 48302","Match","Exact","2580 W HICKORY GROVE RD, BLOOMFIELD HILLS, MI, 48302",69706135,"R"
418306,"2580 WEVOK WAY","ATLANTA","GA",30017,33.8905890880001,-83.935239176,306,"2580 WEVOK WAY, ATLANTA, GA, 30017","Match","Non_Exact","2580 WEVOK WAY, GRAYSON, GA, 30017",624001259,"L"
418307,"2580 WILDE CREEK DRIVE","MAIDENS","VA",23102,37.7210435270001,-77.8512871619999,307,"2580 WILDE CREEK DRIVE, MAIDENS, VA, 23102","Match","Exact","2580 WILDE CREEK DR, MAIDENS, VA, 23102",73808656,"L"
418308,"25800 18TH ST","ZIMMERMAN","MN",55398,45.4381645990001,-93.614938138,308,"25800 18TH ST, ZIMMERMAN, MN, 55398","Match","Non_Exact","25800 18TH ST W, ZIMMERMAN, MN, 55398",97776980,"L"
418309,"25800 CARLOS BEE BLVD PE130","HAYWARD","CA",94542,37.6587819260001,-122.062227596,309,"25800 CARLOS BEE BLVD PE130, HAYWARD, CA, 94542","Match","Exact","25800 CARLOS BEE BLVD, HAYWARD, CA, 94542",125056013,"L"
418310,"25800 INDUSTRIAL BLVD - APT Y1193","HAYWARD","CA",94545,37.6348625730001,-122.112817473,310,"25800 INDUSTRIAL BLVD - APT Y1193, HAYWARD, CA, 94545","Match","Exact","25800 INDUSTRIAL BLVD, HAYWARD, CA, 94545",648128796,"L"
418311,"25801 KENSINGTON WAY","DAPHNE","AL",36526,30.6010472580001,-87.8646773519999,311,"25801 KENSINGTON WAY, DAPHNE, AL, 36526","Match","Exact","25801 KENSINGTON WAY, DAPHNE, AL, 36526",131685301,"R"
418312,"25801 N LAKELAND BLVD STE 403","EUCLID","OH",44132,41.6011560530001,-81.504260836,312,"25801 N LAKELAND BLVD STE 403, EUCLID, OH, 44132","Match","Non_Exact","25801 N LAKELAND BLVD, EUCLID, OH, 44132",638263024,"L"
418313,"25801 OWENS LAKE CIRCLE","LAKE FOREST","CA",92630,NA,NA,313,"25801 OWENS LAKE CIRCLE, LAKE FOREST, CA, 92630","No_Match",NA,NA,NA,NA
418314,"25801 ROXBURY DR","MADERA","CA",93638,37.0228540750001,-120.078207769,314,"25801 ROXBURY DR, MADERA, CA, 93638","Match","Exact","25801 ROXBURY DR, MADERA, CA, 93638",102370348,"R"
418315,"25802 CUNNINGHAM AVE","WARREN","MI",48091,42.482820889,-83.060179416,315,"25802 CUNNINGHAM AVE, WARREN, MI, 48091","Match","Exact","25802 CUNNINGHAM AVE, WARREN, MI, 48091",110688955,"R"
418316,"25802 SE 31ST PLACE","SAMMAMISH","WA",98201,47.58096428,-121.995158111,316,"25802 SE 31ST PLACE, SAMMAMISH, WA, 98201","Match","Non_Exact","25802 SE 31ST PL, SAMMAMISH, WA, 98075",640963481,"L"
418317,"25803 BRICKHILL DR","SPRING","TX",77389,30.13357488,-95.537786914,317,"25803 BRICKHILL DR, SPRING, TX, 77389","Match","Non_Exact","25803 BRICK HILL DR, SPRING, TX, 77389",96001821,"R"
418318,"25804 DUNDEE RD","HUNTINGTON WOODS","MI",48070,42.4806919010001,-83.153772389,318,"25804 DUNDEE RD, HUNTINGTON WOODS, MI, 48070","Match","Exact","25804 DUNDEE RD, HUNTINGTON WOODS, MI, 48070",69741995,"R"
418319,"25805 115TH ROAD","KEARNEY","NE",68845,40.786161222,-99.1259183619999,319,"25805 115TH ROAD, KEARNEY, NE, 68845","Match","Exact","25805 115TH RD, KEARNEY, NE, 68845",137866631,"R"
418320,"25805 DULANEY ST","SPLENDORA","TX",77372,30.226335942,-95.164558089,320,"25805 DULANEY ST, SPLENDORA, TX, 77372","Match","Exact","25805 DULANEY ST, SPLENDORA, TX, 77372",79325181,"L"
418321,"25806 BRIDGEWOOD LANE","BROWNSTOWN","MI",48134,42.117289419,-83.281786901,321,"25806 BRIDGEWOOD LANE, BROWNSTOWN, MI, 48134","Match","Exact","25806 BRIDGEWOOD LN, BROWNSTOWN, MI, 48134",647860049,"R"
418322,"25806 MAIN STREET","ALTHA","FL",32421,30.57230795,-85.127201427,322,"25806 MAIN STREET, ALTHA, FL, 32421","Match","Exact","25806 MAIN ST, ALTHA, FL, 32421",6974488,"L"
418323,"25807 BUDDE RD","SPRING","TX",77380,30.136403499,-95.4496600429999,323,"25807 BUDDE RD, SPRING, TX, 77380","Match","Exact","25807 BUDDE RD, SPRING, TX, 77380",642101320,"L"
418324,"25807 CRAFT AVE","ROSEDALE","NY",11422,NA,NA,324,"25807 CRAFT AVE, ROSEDALE, NY, 11422","No_Match",NA,NA,NA,NA
418325,"25807 LEWIS RANCH ROAD","NEW BRAUNFELS","TX",78132,29.6829126390001,-98.30101761,325,"25807 LEWIS RANCH ROAD, NEW BRAUNFELS, TX, 78132","Match","Exact","25807 LEWIS RANCH RD, NEW BRAUNFELS, TX, 78132",72255857,"R"
418326,"25807 LOS FLORES DR","SAN BERNANDINO","CA",92404,34.153654074,-117.241350051,326,"25807 LOS FLORES DR, SAN BERNANDINO, CA, 92404","Match","Non_Exact","25807 LOS FLORES DR, SAN BERNARDINO, CA, 92404",144660513,"R"
418327,"25807 WESTHEIMER PARKWAY STE 442","KATY","TX",77494,29.7516452350001,-95.80007495,327,"25807 WESTHEIMER PARKWAY STE 442, KATY, TX, 77494","Match","Exact","25807 WESTHEIMER PKWY, KATY, TX, 77494",650586725,"R"
418328,"25807 WHIPPOORWILL ROAD","NEOLA","IA",51559,41.4917915290001,-95.693435516,328,"25807 WHIPPOORWILL ROAD, NEOLA, IA, 51559","Match","Exact","25807 WHIPPOORWILL RD, NEOLA, IA, 51559",43920410,"R"
418329,"25808 201ST AVE SE","COVINGTON","WA",98042,47.371572289,-122.073538469,329,"25808 201ST AVE SE, COVINGTON, WA, 98042","Match","Exact","25808 201ST AVE SE, COVINGTON, WA, 98042",186931987,"R"
418330,"25808 EAST COMFORT DRIVE","CHISAGO CITY","MN",55013,45.3222911770001,-92.944404678,330,"25808 EAST COMFORT DRIVE, CHISAGO CITY, MN, 55013","Match","Exact","25808 E COMFORT DR, CHISAGO CITY, MN, 55013",97578523,"R"
418331,"25808 GOLDFINCH AVENUE","WYOMING","MN",55092,45.322584267,-92.9806627039999,331,"25808 GOLDFINCH AVENUE, WYOMING, MN, 55092","Match","Exact","25808 GOLDFINCH AVE, WYOMING, MN, 55092",97593579,"L"
418332,"25808 LINCOLN TERRACE DR APT 101","OAK PARK","MI",48237,42.480255551,-83.1966166349999,332,"25808 LINCOLN TERRACE DR APT 101, OAK PARK, MI, 48237","Match","Exact","25808 LINCOLN TERRACE DR, OAK PARK, MI, 48237",630373801,"R"
418333,"25808 MARITIME CIR N","HARRISON TWP","MI",48045,NA,NA,333,"25808 MARITIME CIR N, HARRISON TWP, MI, 48045","No_Match",NA,NA,NA,NA
418334,"25808 MILFORD RD","SOUTH LYON","MI",48178,42.4745909590001,-83.6130794749999,334,"25808 MILFORD RD, SOUTH LYON, MI, 48178","Match","Exact","25808 MILFORD RD, SOUTH LYON, MI, 48178",69790581,"R"
418335,"25808 RAINS AVE","TABOR","IA",51653,40.915955038,-95.6883033239999,335,"25808 RAINS AVE, TABOR, IA, 51653","Match","Exact","25808 RAINS AVE, TABOR, IA, 51653",651223601,"R"
418336,"25808 S SUNSET DRIVE","MONEE","IL",60449,41.425043504,-87.760259714,336,"25808 S SUNSET DRIVE, MONEE, IL, 60449","Match","Exact","25808 S SUNSET DR, MONEE, IL, 60449",111551658,"R"
418337,"25809 OAK MEADOW","VALENCIA","CA",91381,NA,NA,337,"25809 OAK MEADOW, VALENCIA, CA, 91381","Tie",NA,NA,NA,NA
418338,"2581  8TH STREET","CUYAHOGA FALLS","OH",44221,41.1437649960001,-81.492365894,338,"2581  8TH STREET, CUYAHOGA FALLS, OH, 44221","Match","Exact","2581 8TH ST, CUYAHOGA FALLS, OH, 44221",61347738,"R"
418339,"2581 220TH STREET","NEW HAMPTON","IA",50659,43.0378678100001,-92.242374589,339,"2581 220TH STREET, NEW HAMPTON, IA, 50659","Match","Exact","2581 220TH ST, NEW HAMPTON, IA, 50659",9744608,"R"
418340,"2581 ARLDOWNE DR","TUCKER","GA",30084,33.862362336,-84.222140299,340,"2581 ARLDOWNE DR, TUCKER, GA, 30084","Match","Exact","2581 ARLDOWNE DR, TUCKER, GA, 30084",23363452,"R"
418341,"2581 AVALON CIRCLE","CHATTANOOGA","TN",37415,35.090238141,-85.293629046,341,"2581 AVALON CIRCLE, CHATTANOOGA, TN, 37415","Match","Exact","2581 AVALON CIR, CHATTANOOGA, TN, 37415",59306739,"L"
418342,"2581 CALVANO DR","LAND O LAKES","FL",34639,28.194155037,-82.423081211,342,"2581 CALVANO DR, LAND O LAKES, FL, 34639","Match","Exact","2581 CALVANO DR, LAND O LAKES, FL, 34639",640776761,"L"
418343,"2581 CAMINO LLANO","TUCSON","AZ",85742,NA,NA,343,"2581 CAMINO LLANO, TUCSON, AZ, 85742","No_Match",NA,NA,NA,NA
418344,"2581 COLLIN MCKINNEY PKWY 507","MCKINNEY","TX",75070,33.162158495,-96.646765729,344,"2581 COLLIN MCKINNEY PKWY 507, MCKINNEY, TX, 75070","Match","Exact","2581 COLLIN MCKINNEY PKWY, MCKINNEY, TX, 75070",614138207,"L"
418345,"2581 COLLIN MCKINNEY PKWY APT 1806","MCKINNEY","TX",75070,33.162158495,-96.646765729,345,"2581 COLLIN MCKINNEY PKWY APT 1806, MCKINNEY, TX, 75070","Match","Exact","2581 COLLIN MCKINNEY PKWY, MCKINNEY, TX, 75070",614138207,"L"
418346,"2581 GREENWOOD LANE","CAMERON PARK","CA",95682,38.6596062150001,-121.001483653,346,"2581 GREENWOOD LANE, CAMERON PARK, CA, 95682","Match","Exact","2581 GREENWOOD LN, CAMERON PARK, CA, 95682",133053046,"L"
418347,"2581 ISABELA TER","KISSIMMEE","FL",34743,28.3379866990001,-81.340705547,347,"2581 ISABELA TER, KISSIMMEE, FL, 34743","Match","Exact","2581 ISABELA TER, KISSIMMEE, FL, 34743",650570379,"L"
418348,"2581 JOHNS BROOKE DRIVE","LITHIA SPRINGS","GA",30122,33.741562172,-84.660478471,348,"2581 JOHNS BROOKE DRIVE, LITHIA SPRINGS, GA, 30122","Match","Non_Exact","2581 JOHNSBROOKE DR, LITHIA SPGS, GA, 30122",627660919,"L"
418349,"2581 KRAMERIA STREET","DENVER","CO",80207,39.7542817790001,-104.916340056,349,"2581 KRAMERIA STREET, DENVER, CO, 80207","Match","Exact","2581 KRAMERIA ST, DENVER, CO, 80207",177312292,"L"
418350,"2581 MCCLINTOCK","BLOOMFIELD HILLS","MI",48302,42.6012058060001,-83.320929959,350,"2581 MCCLINTOCK, BLOOMFIELD HILLS, MI, 48302","Match","Non_Exact","2581 MCCLINTOCK RD, BLOOMFIELD HILLS, MI, 48302",69771466,"L"
418351,"2581 MCKINNEY PARKWAY APT 507","MCKINNEY","TX",75070,NA,NA,351,"2581 MCKINNEY PARKWAY APT 507, MCKINNEY, TX, 75070","No_Match",NA,NA,NA,NA
418352,"2581 MCKINNON STREET","COTTONDALE","FL",32431,30.796818122,-85.381694797,352,"2581 MCKINNON STREET, COTTONDALE, FL, 32431","Match","Exact","2581 MCKINNON ST, COTTONDALE, FL, 32431",7179506,"R"
418353,"2581 MOSSY CREEK DRIVE","OWATONNA","MN",55060,44.0894517350001,-93.184255322,353,"2581 MOSSY CREEK DRIVE, OWATONNA, MN, 55060","Match","Non_Exact","2581 MOSSY CREEK DR SW, OWATONNA, MN, 55060",38179045,"R"
418354,"2581 NOPILI STREET","KAILUA","HI",96734,NA,NA,354,"2581 NOPILI STREET, KAILUA, HI, 96734","No_Match",NA,NA,NA,NA
418355,"2581 NW CANAL VIEW WAY","POULSBO","WA",98370,47.7936376980001,-122.683810719,355,"2581 NW CANAL VIEW WAY, POULSBO, WA, 98370","Match","Exact","2581 NW CANAL VIEW WAY, POULSBO, WA, 98370",630048258,"L"
418356,"2581 OLEANDER ST 2","SAINT JAMES CITY","FL",33956,26.4969421960001,-82.081688215,356,"2581 OLEANDER ST 2, SAINT JAMES CITY, FL, 33956","Match","Exact","2581 OLEANDER ST, SAINT JAMES CITY, FL, 33956",118062052,"R"
418357,"2581 POPES CROSSING RD","LUMBERTON","NC",28358,34.5691040940001,-79.005728346,357,"2581 POPES CROSSING RD, LUMBERTON, NC, 28358","Match","Non_Exact","2581 POPE CROSSING RD, LUMBERTON, NC, 28358",608082007,"R"
418358,"2581 REPUBLIC AVENUE WEST","MONROE","IA",50170,41.5177837730001,-93.085502188,358,"2581 REPUBLIC AVENUE WEST, MONROE, IA, 50170","Match","Exact","2581 REPUBLIC AVE W, MONROE, IA, 50170",89433058,"L"
418359,"2581 S EAGLE CIRCLE","AURORA","CO",80014,39.6683882140001,-104.816767684,359,"2581 S EAGLE CIRCLE, AURORA, CO, 80014","Match","Exact","2581 S EAGLE CIR, AURORA, CO, 80014",177549126,"R"
418360,"2581 S TAYLOR RD","CLEVELAND HEIGHTS","OH",44118,41.4892231090001,-81.556064775,360,"2581 S TAYLOR RD, CLEVELAND HEIGHTS, OH, 44118","Match","Exact","2581 S TAYLOR RD, CLEVELAND HEIGHTS, OH, 44118",61125257,"L"
418361,"2581 SHENANDOAH SHORES RD","FRONT ROYAL","VA",22630,38.959014955,-78.143011658,361,"2581 SHENANDOAH SHORES RD, FRONT ROYAL, VA, 22630","Match","Exact","2581 SHENANDOAH SHORES RD, FRONT ROYAL, VA, 22630",635758340,"L"
418362,"2581 ST RT 136","HILLSBORO","OH",45133,39.082284402,-83.662259128,362,"2581 ST RT 136, HILLSBORO, OH, 45133","Match","Non_Exact","2581 STATE RTE 136, HILLSBORO, OH, 45133",101066262,"L"
418363,"2581 TEN MILE RD","PACE","FL",32571,30.7208563950001,-87.213993596,363,"2581 TEN MILE RD, PACE, FL, 32571","Match","Exact","2581 TEN MILE RD, PACE, FL, 32571",74554997,"L"
418364,"2581 W CALLE VISTA DR","RIALTO","CA",92377,34.1613790870001,-117.424654341,364,"2581 W CALLE VISTA DR, RIALTO, CA, 92377","Match","Exact","2581 W CALLE VISTA DR, RIALTO, CA, 92377",144966115,"R"
418365,"2581 WEST 120TH STREET","GRANT","MI",49327,43.336453626,-85.864004713,365,"2581 WEST 120TH STREET, GRANT, MI, 49327","Match","Exact","2581 W 120TH ST, GRANT, MI, 49327",150222684,"R"
418366,"2581 WEST JANE RD","PT CLINTON","OH",43452,NA,NA,366,"2581 WEST JANE RD, PT CLINTON, OH, 43452","No_Match",NA,NA,NA,NA
418367,"2581 ZEPHYR-MOUNTAIN PARK ROAD","STATE ROAD","NC",28676,36.3551854730001,-80.88894585,367,"2581 ZEPHYR-MOUNTAIN PARK ROAD, STATE ROAD, NC, 28676","Match","Non_Exact","2581 ZEPHYR MOUNTAIN PARK RD, STATE ROAD, NC, 28676",154192822,"R"
418368,"25810 BOWMAN ACRES LANE","DAMASCUS","MD",20872,39.2810731010001,-77.175094627,368,"25810 BOWMAN ACRES LANE, DAMASCUS, MD, 20872","Match","Exact","25810 BOWMAN ACRES LN, DAMASCUS, MD, 20872",647253206,"R"
418369,"25810 CHAPMAN FALLS DR","RICHMOND","TX",77406,29.6940548960001,-95.8231100519999,369,"25810 CHAPMAN FALLS DR, RICHMOND, TX, 77406","Match","Exact","25810 CHAPMAN FALLS DR, RICHMOND, TX, 77406",627032136,"L"
418370,"25810 KELLY ROAD  STE 1","ROSEVILLE","MI",48066,42.486516529,-82.927513635,370,"25810 KELLY ROAD  STE 1, ROSEVILLE, MI, 48066","Match","Exact","25810 KELLY RD, ROSEVILLE, MI, 48066",110689486,"R"
418371,"25810 KINSHIP COURT","KATY","TX",77493,29.8568929780001,-95.821169447,371,"25810 KINSHIP COURT, KATY, TX, 77493","Match","Exact","25810 KINSHIP CT, KATY, TX, 77493",652755928,"R"
418372,"25810 LIRA LN","WARREN","MI",48089,42.4853762700001,-82.972643045,372,"25810 LIRA LN, WARREN, MI, 48089","Match","Exact","25810 LIRA LN, WARREN, MI, 48089",110713961,"L"
418373,"25810 SUMMERWOOD DR","MADISON","AL",35756,34.7308487180001,-86.862900673,373,"25810 SUMMERWOOD DR, MADISON, AL, 35756","Match","Exact","25810 SUMMERWOOD DR, MADISON, AL, 35756",625182715,"L"
418374,"25810 TUNGSTEN RD","EUCLID","OH",44132,41.5911022120001,-81.5045192119999,374,"25810 TUNGSTEN RD, EUCLID, OH, 44132","Match","Exact","25810 TUNGSTEN RD, EUCLID, OH, 44132",638301875,"R"
418375,"25811 CASTLEREIGH DRIVE","FARMINGTON HILLS","MI",48336,42.484338931,-83.334130264,375,"25811 CASTLEREIGH DRIVE, FARMINGTON HILLS, MI, 48336","Match","Exact","25811 CASTLEREIGH DR, FARMINGTON HILLS, MI, 48336",69730659,"L"
418376,"25811 GEORGETOWN ROAD","HOMEWORTH","OH",44634,40.8405893620001,-81.0167209419999,376,"25811 GEORGETOWN ROAD, HOMEWORTH, OH, 44634","Match","Exact","25811 GEORGETOWN RD, HOMEWORTH, OH, 44634",638680761,"L"
418377,"25811 NE 373RD ST","YACOLT","WA",98675,45.890984362,-122.40836127,377,"25811 NE 373RD ST, YACOLT, WA, 98675","Match","Exact","25811 NE 373RD ST, YACOLT, WA, 98675",648928440,"L"
418378,"25812 GLADSTONE COURT","ESCONDIDO","CA",92026,NA,NA,378,"25812 GLADSTONE COURT, ESCONDIDO, CA, 92026","No_Match",NA,NA,NA,NA
418379,"25812 HERMOSA VIS","SAN ANTONIO","TX",78260,NA,NA,379,"25812 HERMOSA VIS, SAN ANTONIO, TX, 78260","No_Match",NA,NA,NA,NA
418380,"25812 LEONARD DRIVE","SOUTH RIDING","VA",20152,38.903206127,-77.521867931,380,"25812 LEONARD DRIVE, SOUTH RIDING, VA, 20152","Match","Exact","25812 LEONARD DR, SOUTH RIDING, VA, 20152",62354196,"L"
418381,"25812 LINCOLN AVE","HEMET","CA",92544,33.746944768,-116.884438649,381,"25812 LINCOLN AVE, HEMET, CA, 92544","Match","Exact","25812 LINCOLN AVE, HEMET, CA, 92544",194822604,"L"
418382,"25812 N 67TH DR","PEORIA","AZ",85383,33.719368135,-112.204246545,382,"25812 N 67TH DR, PEORIA, AZ, 85383","Match","Exact","25812 N 67TH DR, PEORIA, AZ, 85383",128954814,"L"
418383,"25812 S RIDGEVIEW RD","CLAREMORE","OK",74019,36.238184463,-95.701867593,383,"25812 S RIDGEVIEW RD, CLAREMORE, OK, 74019","Match","Exact","25812 RIDGEVIEW RD, CLAREMORE, OK, 74019",20687162,"R"
418384,"25812 SLY FOX CT","SOUTH BEND","IN",46628,41.725494053,-86.366537936,384,"25812 SLY FOX CT, SOUTH BEND, IN, 46628","Match","Exact","25812 SLY FOX CT, SOUTH BEND, IN, 46628",8074527,"L"
418385,"25812 W WLLIAMS STREET","BUCKEYE","AZ",85326,33.4191423010001,-112.606371182,385,"25812 W WLLIAMS STREET, BUCKEYE, AZ, 85326","Match","Non_Exact","25812 W WILLIAMS ST, BUCKEYE, AZ, 85326",243954718,"L"
418386,"25813 LINGO LANE","MILLSBORO","DE",19966,38.633472453,-75.172209376,386,"25813 LINGO LANE, MILLSBORO, DE, 19966","Match","Exact","25813 LINGO LN, MILLSBORO, DE, 19966",106112000,"R"
418387,"25813 MIRAMONTE ST","REDLANDS","CA",92373,34.061801641,-117.241754955,387,"25813 MIRAMONTE ST, REDLANDS, CA, 92373","Match","Exact","25813 MIRAMONTE ST, REDLANDS, CA, 92373",144732412,"R"
418388,"25814 ANDERSON LANE","STEVENSON RANCH","CA",91381,34.389451648,-118.584273415,388,"25814 ANDERSON LANE, STEVENSON RANCH, CA, 91381","Match","Exact","25814 ANDERSON LN, STEVENSON RANCH, CA, 91381",241112292,"L"
418389,"25814 COBBLESTONE LANE","ATHENS","AL",35613,34.7475071310001,-86.86302411,389,"25814 COBBLESTONE LANE, ATHENS, AL, 35613","Match","Exact","25814 COBBLESTONE LN, ATHENS, AL, 35613",625711386,"L"
418390,"25815 184TH PL SE","COVINGTON","WA",98042,47.3696417890001,-122.095440791,390,"25815 184TH PL SE, COVINGTON, WA, 98042","Match","Exact","25815 184TH PL SE, COVINGTON, WA, 98042",186638777,"L"
418391,"25815 ENCHANTED DAWN","SAN ANTONIO","TX",78255,29.6838837400001,-98.660694866,391,"25815 ENCHANTED DAWN, SAN ANTONIO, TX, 78255","Match","Exact","25815 ENCHANTED DAWN, SAN ANTONIO, TX, 78255",642213559,"L"
418392,"25815 ESPINOZA DR","VALENCIA","CA",91355,34.4072805100001,-118.545597837,392,"25815 ESPINOZA DR, VALENCIA, CA, 91355","Match","Exact","25815 ESPINOZA DR, VALENCIA, CA, 91355",141778777,"R"
418393,"25815 ESPINOZA DRIVE","VALENCIA","CA",91355,34.4072805100001,-118.545597837,393,"25815 ESPINOZA DRIVE, VALENCIA, CA, 91355","Match","Exact","25815 ESPINOZA DR, VALENCIA, CA, 91355",141778777,"R"
418394,"25815 PEPPER ROAD","ATHENS","AL",35613,34.7883360320001,-86.862530707,394,"25815 PEPPER ROAD, ATHENS, AL, 35613","Match","Exact","25815 PEPPER RD, ATHENS, AL, 35613",95237511,"L"
418395,"25815 TURLOUGH TERRACE","SOUTH RIDING","VA",20152,38.9034119990001,-77.51507291,395,"25815 TURLOUGH TERRACE, SOUTH RIDING, VA, 20152","Match","Exact","25815 TURLOUGH TER, SOUTH RIDING, VA, 20152",627258690,"L"
418396,"25817 NE 3RD ST","CAMAS","WA",98607,45.6236532080001,-122.408164055,396,"25817 NE 3RD ST, CAMAS, WA, 98607","Match","Exact","25817 NE 3RD ST, CAMAS, WA, 98607",158331349,"L"
418397,"25817 RAMIE FARM ROAD","LUCEDALE","MS",39452,30.7189372920001,-88.496098321,397,"25817 RAMIE FARM ROAD, LUCEDALE, MS, 39452","Match","Exact","25817 RAMIE FARM RD, LUCEDALE, MS, 39452",89268902,"L"
418398,"25817 SE 398TH ST","ENUMCLAW","WA",98022,47.244985426,-121.997291737,398,"25817 SE 398TH ST, ENUMCLAW, WA, 98022","Match","Exact","25817 SE 398TH ST, ENUMCLAW, WA, 98022",186923876,"L"
418399,"25818 CELTIC TERRACE DRIVE","KATY","TX",77494,29.7309500380001,-95.801923498,399,"25818 CELTIC TERRACE DRIVE, KATY, TX, 77494","Match","Exact","25818 CELTIC TERRACE DR, KATY, TX, 77494",627523065,"R"
418400,"25818 HALPIN RD","HARLINGEN","TX",78552,26.1837558240001,-97.764312236,400,"25818 HALPIN RD, HARLINGEN, TX, 78552","Match","Exact","25818 HALPIN RD, HARLINGEN, TX, 78552",89987287,"R"
418401,"25818 MAHOGONY TRAIL","SAN ANTONIO","TX",78255,29.684586586,-98.6860103399999,401,"25818 MAHOGONY TRAIL, SAN ANTONIO, TX, 78255","Match","Exact","25818 MAHOGONY TRL, SAN ANTONIO, TX, 78255",101481330,"R"
418402,"25818 NE 4TH PL","SAMMAMISH","WA",98074,47.6124947220001,-121.994484216,402,"25818 NE 4TH PL, SAMMAMISH, WA, 98074","Match","Exact","25818 NE 4TH PL, SAMMAMISH, WA, 98074",639749025,"R"
418403,"25819 26TH PL S B304","KENT","WA",98032,47.3699784730001,-122.29869328,403,"25819 26TH PL S B304, KENT, WA, 98032","Match","Exact","25819 26TH PL S, KENT, WA, 98032",187020432,"R"
418404,"25819 SCHEIDER RD","PERRYSBURG","OH",43551,41.5333306960001,-83.616355671,404,"25819 SCHEIDER RD, PERRYSBURG, OH, 43551","Match","Exact","25819 SCHEIDER RD, PERRYSBURG, OH, 43551",642218689,"L"
418405,"25819 WEST COMFORT DRIVE","WYOMING","MN",55092,45.322127019,-92.955926634,405,"25819 WEST COMFORT DRIVE, WYOMING, MN, 55092","Match","Exact","25819 W COMFORT DR, WYOMING, MN, 55092",97572971,"L"
418406,"2581B SPRING ROAD SE","SMYRNA","FM",30080,NA,NA,406,"2581B SPRING ROAD SE, SMYRNA, FM, 30080","No_Match",NA,NA,NA,NA
418407,"2581B SPRING ROAD SE","SMYRNA","GA",30080,NA,NA,407,"2581B SPRING ROAD SE, SMYRNA, GA, 30080","No_Match",NA,NA,NA,NA
418408,"2582 18TH STREET  APT 11","KENOSHA","WI",53140,42.6243737030001,-87.8401853999999,408,"2582 18TH STREET  APT 11, KENOSHA, WI, 53140","Match","Exact","2582 18TH ST, KENOSHA, WI, 53140",622427860,"R"
418409,"2582 BECKHAM ROAD","APPOMATTOX","VA",24522,37.486666514,-78.908157703,409,"2582 BECKHAM ROAD, APPOMATTOX, VA, 24522","Match","Exact","2582 BECKHAM RD, APPOMATTOX, VA, 24522",624969334,"R"
418410,"2582 BEDFORD AVE","BROOKLYN","NY",11226,40.64048731,-73.9542761119999,410,"2582 BEDFORD AVE, BROOKLYN, NY, 11226","Match","Exact","2582 BEDFORD AVE, BROOKLYN, NY, 11226",59081463,"R"
418411,"2582 CAMBERLEY CIRCLE","WESTCHESTER","IL",60154,41.8413489280001,-87.906594925,411,"2582 CAMBERLEY CIRCLE, WESTCHESTER, IL, 60154","Match","Exact","2582 CAMBERLEY CIR, WESTCHESTER, IL, 60154",641687761,"L"
418412,"2582 CENTERGATE DRIVE APT 306","MIRAMAR","FL",33025,NA,NA,412,"2582 CENTERGATE DRIVE APT 306, MIRAMAR, FL, 33025","No_Match",NA,NA,NA,NA
418413,"2582 CLEVELAND RD","VINTON","LA",70668,30.1797259750001,-93.6035658329999,413,"2582 CLEVELAND RD, VINTON, LA, 70668","Match","Exact","2582 CLEVELAND RD, VINTON, LA, 70668",88455857,"R"
418414,"2582 DELANO ROAD","PORT ST. LUCIE","FL",34952,27.2642574590001,-80.2895682019999,414,"2582 DELANO ROAD, PORT ST. LUCIE, FL, 34952","Match","Non_Exact","2582 SE DELANO RD, PORT ST LUCIE, FL, 34952",120154776,"R"
418415,"2582 FLORAL VALLEY DRIVE","DACULA","GA",30019,34.0583340210001,-83.899978693,415,"2582 FLORAL VALLEY DRIVE, DACULA, GA, 30019","Match","Exact","2582 FLORAL VALLEY DR, DACULA, GA, 30019",636786570,"R"
418416,"2582 HOBBLEBRUSH DR","NORTH PORT","FL",34289,27.079969007,-82.123273792,416,"2582 HOBBLEBRUSH DR, NORTH PORT, FL, 34289","Match","Exact","2582 HOBBLEBRUSH DR, NORTH PORT, FL, 34289",617660048,"R"
418417,"2582 JOSH CIRCLE","SUPPLY","NC",28462,33.9434620280001,-78.2737859699999,417,"2582 JOSH CIRCLE, SUPPLY, NC, 28462","Match","Exact","2582 JOSH CIR, SUPPLY, NC, 28462",153175935,"R"
418418,"2582 JUDSON AVE","EAST POINT","GA",30344,33.6925005620001,-84.472618589,418,"2582 JUDSON AVE, EAST POINT, GA, 30344","Match","Exact","2582 JUDSON AVE, EAST POINT, GA, 30344",17340897,"L"
418419,"2582 KNAPP ST NE","GRAND RAPIDS","MI",49505,42.998810715,-85.605524881,419,"2582 KNAPP ST NE, GRAND RAPIDS, MI, 49505","Match","Exact","2582 KNAPP ST NE, GRAND RAPIDS, MI, 49505",630113364,"R"
418420,"2582 MAGUIRE RD - 223","OCOEE","FL",34761,28.532662551,-81.5418135319999,420,"2582 MAGUIRE RD - 223, OCOEE, FL, 34761","Match","Exact","2582 MAGUIRE RD, OCOEE, FL, 34761",639775774,"R"
418421,"2582 MAGUIRE RD SUITE 191","OCOEE","FL",34761,28.532662551,-81.5418135319999,421,"2582 MAGUIRE RD SUITE 191, OCOEE, FL, 34761","Match","Exact","2582 MAGUIRE RD, OCOEE, FL, 34761",639775774,"R"
418422,"2582 MAGUIRE ROAD BOX 413","OCOEE","FL",34761,28.532662551,-81.5418135319999,422,"2582 MAGUIRE ROAD BOX 413, OCOEE, FL, 34761","Match","Exact","2582 MAGUIRE RD, OCOEE, FL, 34761",639775774,"R"
418423,"2582 MORNINGSIDE RD","LONG LAKE","MN",55356,45.001924796,-93.5884202129999,423,"2582 MORNINGSIDE RD, LONG LAKE, MN, 55356","Match","Exact","2582 MORNINGSIDE RD, LONG LAKE, MN, 55356",43818593,"R"
418424,"2582 N RILEY RD","BUCKEYE","AZ",85396,33.475512182,-112.510149597,424,"2582 N RILEY RD, BUCKEYE, AZ, 85396","Match","Exact","2582 N RILEY RD, BUCKEYE, AZ, 85396",627860726,"L"
418425,"2582 OAKWOOD LANE","OLYMPIA FIELDS","IL",60462,NA,NA,425,"2582 OAKWOOD LANE, OLYMPIA FIELDS, IL, 60462","No_Match",NA,NA,NA,NA
418426,"2582 POMPEY HOLLOW RD","CAZENOVIA","NY",13035,NA,NA,426,"2582 POMPEY HOLLOW RD, CAZENOVIA, NY, 13035","No_Match",NA,NA,NA,NA
418427,"2582 PROFFIT RD","CHARLOTTESVILLE","VA",22911,38.118257924,-78.421510879,427,"2582 PROFFIT RD, CHARLOTTESVILLE, VA, 22911","Match","Exact","2582 PROFFIT RD, CHARLOTTESVILLE, VA, 22911",221714232,"L"
418428,"2582 RUE PALAFOX","BILOXI","MS",39531,30.398470334,-88.988072463,428,"2582 RUE PALAFOX, BILOXI, MS, 39531","Match","Exact","2582 RUE PALAFOX, BILOXI, MS, 39531",111411788,"L"
418429,"2582 S ARLINGTON MILL DRIVE APT G","ARLINGTON","VA",22206,38.844659646,-77.094267595,429,"2582 S ARLINGTON MILL DRIVE APT G, ARLINGTON, VA, 22206","Match","Non_Exact","2582 S ARLINGTON MILL DR, ARLINGTON, VA, 22206",76477856,"R"
418430,"2582 SW MARSHFIELD COUNRT","PORT ST LUCIE","FL",34953,NA,NA,430,"2582 SW MARSHFIELD COUNRT, PORT ST LUCIE, FL, 34953","No_Match",NA,NA,NA,NA
418431,"2582 TENBROECK AVE","BRONX","NY",10469,40.863995098,-73.852922451,431,"2582 TENBROECK AVE, BRONX, NY, 10469","Match","Exact","2582 TENBROECK AVE, BRONX, NY, 10469",80303724,"R"
418432,"2582 VALLEYVIEW DR","WAYNOKA","OK",73860,NA,NA,432,"2582 VALLEYVIEW DR, WAYNOKA, OK, 73860","No_Match",NA,NA,NA,NA
418433,"2582 VICTORIA DRIVE","PALM BAY","FL",32905,28.0613713120001,-80.595146713,433,"2582 VICTORIA DRIVE, PALM BAY, FL, 32905","Match","Non_Exact","2582 VICTORIA DR NE, PALM BAY, FL, 32905",93905604,"R"
418434,"2582 WESTFALL LANE","ST LOUIS","MO",63136,38.734016737,-90.243236586,434,"2582 WESTFALL LANE, ST LOUIS, MO, 63136","Match","Exact","2582 WESTFALL LN, SAINT LOUIS, MO, 63136",604465080,"R"
418435,"25820 LEONARD DR","CHANTILLY","VA",20152,38.903055753,-77.521934578,435,"25820 LEONARD DR, CHANTILLY, VA, 20152","Match","Exact","25820 LEONARD DR, CHANTILLY, VA, 20152",62354196,"L"
418436,"25820 ROAD L","CORTEZ","CO",81321,NA,NA,436,"25820 ROAD L, CORTEZ, CO, 81321","No_Match",NA,NA,NA,NA
418437,"25820 SOUTHFIELD RD 201","SOUTHFIELD","MI",48075,NA,NA,437,"25820 SOUTHFIELD RD 201, SOUTHFIELD, MI, 48075","No_Match",NA,NA,NA,NA
418438,"25820 SOUTHFIELD ROAD 201","SOUTHFIELD","MI",48075,NA,NA,438,"25820 SOUTHFIELD ROAD 201, SOUTHFIELD, MI, 48075","No_Match",NA,NA,NA,NA
418439,"25820 VALLEY DRIVE","BETTENDORF","IA",52722,41.581526814,-90.400837746,439,"25820 VALLEY DRIVE, BETTENDORF, IA, 52722","Match","Exact","25820 VALLEY DR, BETTENDORF, IA, 52722",639758037,"L"
418440,"25821 NE TEXAS RD","GARNETT","KS",66032,38.2661147690001,-95.1481028269999,440,"25821 NE TEXAS RD, GARNETT, KS, 66032","Match","Exact","25821 NE TEXAS RD, GARNETT, KS, 66032",10474086,"L"
418441,"25821 NOTRE DAME STREET","INKSTER","MI",48141,42.286704629,-83.29064257,441,"25821 NOTRE DAME STREET, INKSTER, MI, 48141","Match","Exact","25821 NOTRE DAME ST, INKSTER, MI, 48141",95435678,"L"
418442,"25821 PASTORAL DRIVE","PLAINFIELD","IL",60585,41.6463237730001,-88.247024118,442,"25821 PASTORAL DRIVE, PLAINFIELD, IL, 60585","Match","Exact","25821 PASTORAL DR, PLAINFIELD, IL, 60585",111624940,"R"
418443,"25822 S EASTLAKE DR","SUN LAKES","AZ",85248,33.212765803,-111.861495906,443,"25822 S EASTLAKE DR, SUN LAKES, AZ, 85248","Match","Exact","25822 S EASTLAKE DR, SUN LAKES, AZ, 85248",128326430,"R"
418444,"25822 US HWY 270","WISTER","OK",74966,34.9494153530001,-94.708539033,444,"25822 US HWY 270, WISTER, OK, 74966","Match","Exact","25822 US HWY 270, WISTER, OK, 74966",652134448,"R"
418445,"25822 W NORTH STAR PL","BUCKEYE","AZ",85326,33.380112668,-112.606267477,445,"25822 W NORTH STAR PL, BUCKEYE, AZ, 85326","Match","Exact","25822 W NORTH STAR PL, BUCKEYE, AZ, 85326",243946711,"L"
418446,"25823 SE 31ST PL","SAMMAMISH","WA",98075,47.5809512320001,-121.995046202,446,"25823 SE 31ST PL, SAMMAMISH, WA, 98075","Match","Exact","25823 SE 31ST PL, SAMMAMISH, WA, 98075",640963481,"R"
418447,"25824 GREEN TERRACE","SAN ANTONIO","TX",78255,29.6850116580001,-98.659640162,447,"25824 GREEN TERRACE, SAN ANTONIO, TX, 78255","Match","Exact","25824 GREEN TER, SAN ANTONIO, TX, 78255",642213175,"R"
418448,"25824 WEST ELWOOD STREET","BUCKEYE","AZ",85326,33.4134100700001,-112.606725711,448,"25824 WEST ELWOOD STREET, BUCKEYE, AZ, 85326","Match","Exact","25824 W ELWOOD ST, BUCKEYE, AZ, 85326",243956745,"L"
418449,"25825 ANDERSON SCHOOL ROAD","SEDALIA","MO",65301,38.6239232770001,-93.214569185,449,"25825 ANDERSON SCHOOL ROAD, SEDALIA, MO, 65301","Match","Exact","25825 ANDERSON SCHOOL RD, SEDALIA, MO, 65301",54732482,"R"
418450,"25825 E VINE ST","SAN BERNARDINO","CA",92410,34.113490498,-117.240992223,450,"25825 E VINE ST, SAN BERNARDINO, CA, 92410","Match","Exact","25825 VINE ST, SAN BERNARDINO, CA, 92410",144661323,"R"
418451,"25825 GIBRALTAR RD","FLAT ROCK","MI",48134,42.0944094540001,-83.286056323,451,"25825 GIBRALTAR RD, FLAT ROCK, MI, 48134","Match","Exact","25825 GIBRALTAR RD, FLAT ROCK, MI, 48134",95455888,"L"
418452,"25825 RAVENWOOD CIRCLE","DAPHNE","AL",36526,30.5930419920001,-87.8401533219999,452,"25825 RAVENWOOD CIRCLE, DAPHNE, AL, 36526","Match","Exact","25825 RAVENWOOD CIR, DAPHNE, AL, 36526",614088273,"R"
418453,"25825 S TRUMAN COURT","MONEE","IL",60449,NA,NA,453,"25825 S TRUMAN COURT, MONEE, IL, 60449","Tie",NA,NA,NA,NA
418454,"25825 SCIENCE PARK DRIVE","BEACHWOOD","OH",44125,41.470570654,-81.4944750029999,454,"25825 SCIENCE PARK DRIVE, BEACHWOOD, OH, 44125","Match","Non_Exact","25825 SCIENCE PARK DR, BEACHWOOD, OH, 44122",61170761,"L"
418455,"25826 N 65TH AVE","PHOENIX","AZ",85083,33.720734275,-112.199396064,455,"25826 N 65TH AVE, PHOENIX, AZ, 85083","Match","Exact","25826 N 65TH AVE, PHOENIX, AZ, 85083",128954296,"R"
418456,"25826 SP","SAN ANTONIO","TX",78260,NA,NA,456,"25826 SP, SAN ANTONIO, TX, 78260","No_Match",NA,NA,NA,NA
418457,"25826 YARROW","KIRKSVILLE","MO",63501,40.114013131,-92.678482829,457,"25826 YARROW, KIRKSVILLE, MO, 63501","Match","Non_Exact","25826 YARROW TRL, KIRKSVILLE, MO, 63501",607761760,"R"
418458,"25827 184TH PL SE","COVINGTON","WA",98042,47.369559112,-122.095444556,458,"25827 184TH PL SE, COVINGTON, WA, 98042","Match","Exact","25827 184TH PL SE, COVINGTON, WA, 98042",186638777,"L"
418459,"25828 N 67TH DR","PEORIA","AZ",85382,33.719707015,-112.204246895,459,"25828 N 67TH DR, PEORIA, AZ, 85382","Match","Non_Exact","25828 N 67TH DR, PEORIA, AZ, 85383",128954815,"L"
418460,"25828 WHITE EAGLE","SAN ANTONIO","TX",78260,29.684653897,-98.495610153,460,"25828 WHITE EAGLE, SAN ANTONIO, TX, 78260","Match","Non_Exact","25828 WHITE EAGLE DR, SAN ANTONIO, TX, 78260",635440664,"L"
418461,"25829 N ARROWHEAD","MUNDELEIN","IL",60060,42.2402709790001,-88.0065123969999,461,"25829 N ARROWHEAD, MUNDELEIN, IL, 60060","Match","Non_Exact","25829 N ARROWHEAD DR, MUNDELEIN, IL, 60060",119749923,"L"
418462,"2583 240TH STREET","DALLAS CENTER","IA",50063,41.6882504220001,-93.9751026,462,"2583 240TH STREET, DALLAS CENTER, IA, 50063","Match","Exact","2583 240TH ST, DALLAS CENTER, IA, 50063",65632289,"R"
418463,"2583 255TH ST","WASHINGTON","IA",52353,41.2872690390001,-91.635987644,463,"2583 255TH ST, WASHINGTON, IA, 52353","Match","Exact","2583 255TH ST, WASHINGTON, IA, 52353",84182968,"R"
418464,"2583 ANNIES PL","CASTLE ROCK","CO",80104,39.3081578370001,-104.8380006,464,"2583 ANNIES PL, CASTLE ROCK, CO, 80104","Match","Exact","2583 ANNIES PL, CASTLE ROCK, CO, 80104",130842086,"R"
418465,"2583 BALD HILL LOOP","MADISON","NC",27025,36.3774259530001,-79.8947647689999,465,"2583 BALD HILL LOOP, MADISON, NC, 27025","Match","Exact","2583 BALD HILL LOOP, MADISON, NC, 27025",630127824,"L"
418466,"2583 Buckingham Way","Clovis","CA",93611,36.793262887,-119.665039628,466,"2583 Buckingham Way, Clovis, CA, 93611","Match","Exact","2583 BUCKINGHAM WAY, CLOVIS, CA, 93611",197620158,"L"
418467,"2583 BUTTERWOOD CIRCLE","POWHATAN","VA",23139,37.4436773890001,-77.8323704009999,467,"2583 BUTTERWOOD CIRCLE, POWHATAN, VA, 23139","Match","Exact","2583 BUTTERWOOD CIR, POWHATAN, VA, 23139",73835481,"L"
418468,"2583 CALLE DELFINO","SANTA FE","NM",87505,35.637770812,-105.981989492,468,"2583 CALLE DELFINO, SANTA FE, NM, 87505","Match","Non_Exact","2583 CLL DELFINO, SANTA FE, NM, 87505",169397789,"L"
418469,"2583 COLDWATER ROAD","INEZ","KY",41224,37.8232740120001,-82.504091546,469,"2583 COLDWATER ROAD, INEZ, KY, 41224","Match","Exact","2583 COLDWATER RD, INEZ, KY, 41224",637554163,"R"
418470,"2583 EAST BURNETT AVENUE","LOUISVILLE","KY",40217,38.2144139930001,-85.731130069,470,"2583 EAST BURNETT AVENUE, LOUISVILLE, KY, 40217","Match","Exact","2583 E BURNETT AVE, LOUISVILLE, KY, 40217",96847427,"L"
418471,"2583 HARRINGTON RD","CROSWELL","MI",48422,43.2760586730001,-82.7058617069999,471,"2583 HARRINGTON RD, CROSWELL, MI, 48422","Match","Exact","2583 HARRINGTON RD, CROSWELL, MI, 48422",642484582,"L"
418472,"2583 HOWARD SPRINGS RD","CROSSVILLE","TN",38571,35.9694055590001,-85.112810425,472,"2583 HOWARD SPRINGS RD, CROSSVILLE, TN, 38571","Match","Exact","2583 HOWARD SPRINGS RD, CROSSVILLE, TN, 38571",26257484,"R"
418473,"2583 KEYSTONE FURNACE ROAD","JACKSON","OH",45640,39.026134122,-82.5608250509999,473,"2583 KEYSTONE FURNACE ROAD, JACKSON, OH, 45640","Match","Exact","2583 KEYSTONE FURNACE RD, JACKSON, OH, 45640",54780676,"R"
418474,"2583 MESA CIRCLE","LEAGUE CITY","TX",77573,NA,NA,474,"2583 MESA CIRCLE, LEAGUE CITY, TX, 77573","No_Match",NA,NA,NA,NA
418475,"2583 MILL LN","FULLERTON","CA",92831,33.8985778040001,-117.908938599,475,"2583 MILL LN, FULLERTON, CA, 92831","Match","Exact","2583 MILL LN, FULLERTON, CA, 92831",144135278,"R"
418476,"2583 MOORE STREET","LAKEWOOD","CO",80215,39.75425863,-105.115427251,476,"2583 MOORE STREET, LAKEWOOD, CO, 80215","Match","Exact","2583 MOORE ST, LAKEWOOD, CO, 80215",177286727,"L"
418477,"2583 NORWICH STREET","FITCHBURG","WI",53711,42.9963210610001,-89.440701041,477,"2583 NORWICH STREET, FITCHBURG, WI, 53711","Match","Exact","2583 NORWICH ST, FITCHBURG, WI, 53711",49477021,"R"
418478,"2583 NW 49TH AVE 104","LAUDERDALE LAKES","FL",33313,26.158409218,-80.217080589,478,"2583 NW 49TH AVE 104, LAUDERDALE LAKES, FL, 33313","Match","Non_Exact","2583 NW 49TH AVE, LAUDERDALE LAKES, FL, 33313",114707871,"L"
418479,"2583 PINE NEEDLE CT","EAST POINT","GA",30344,33.6852367810001,-84.481362766,479,"2583 PINE NEEDLE CT, EAST POINT, GA, 30344","Match","Exact","2583 PINE NEEDLE CT, EAST POINT, GA, 30344",17338490,"R"
418480,"2583 RESTORATION DRIVE","POWDER SPRINGS","GA",30127,33.8912918460001,-84.7020085469999,480,"2583 RESTORATION DRIVE, POWDER SPRINGS, GA, 30127","Match","Exact","2583 RESTORATION DR, POWDER SPGS, GA, 30127",644677690,"R"
418481,"2583 S VOLUSIA AVE","ORANGE CITY","FL",32763,28.9146170760001,-81.3020398529999,481,"2583 S VOLUSIA AVE, ORANGE CITY, FL, 32763","Match","Exact","2583 S VOLUSIA AVE, ORANGE CITY, FL, 32763",638967860,"R"
418482,"2583 S VOLUSIA STE 100","ORANGE CITY","FL",32763,NA,NA,482,"2583 S VOLUSIA STE 100, ORANGE CITY, FL, 32763","No_Match",NA,NA,NA,NA
418483,"2583 W 2580 N","CLINTON","UT",84015,41.1512314990001,-112.07579505,483,"2583 W 2580 N, CLINTON, UT, 84015","Match","Exact","2583 W 2580 N, CLINTON, UT, 84015",155363834,"L"
418484,"2583 WATERMAN AVE","GRANITE CITY","IL",62040,38.7339659030001,-90.0961340699999,484,"2583 WATERMAN AVE, GRANITE CITY, IL, 62040","Match","Exact","2583 WATERMAN AVE, GRANITE CITY, IL, 62040",107688158,"L"
418485,"25830 408TH AVE","MITCHELL","SD",57301,43.640276912,-98.0462321799999,485,"25830 408TH AVE, MITCHELL, SD, 57301","Match","Exact","25830 408TH AVE, MITCHELL, SD, 57301",200658949,"R"
418486,"25830 HORIZON ST","APPLE VALLEY","CA",92308,34.422970494,-117.100460997,486,"25830 HORIZON ST, APPLE VALLEY, CA, 92308","Match","Exact","25830 HORIZON ST, APPLE VALLEY, CA, 92308",144596251,"L"
418487,"25830 NORTHCREST DR","SPRING","TX",77389,30.1339998620001,-95.5179575559999,487,"25830 NORTHCREST DR, SPRING, TX, 77389","Match","Exact","25830 NORTHCREST DR, SPRING, TX, 77389",624603053,"R"
418488,"25830 VILLAGE GREEN BLVD APT 103","HARRISON TOWNSHIP","MI",48045,42.5605157420001,-82.851905863,488,"25830 VILLAGE GREEN BLVD APT 103, HARRISON TOWNSHIP, MI, 48045","Match","Exact","25830 VILLAGE GREEN BLVD, HARRISON TOWNSHIP, MI, 48045",110683824,"L"
418489,"25830 VILLAGE GREEN BLVD APT 103","HARRISON TWP","MI",48045,42.5605157420001,-82.851905863,489,"25830 VILLAGE GREEN BLVD APT 103, HARRISON TWP, MI, 48045","Match","Exact","25830 VILLAGE GREEN BLVD, HARRISON TOWNSHIP, MI, 48045",110683824,"L"
418490,"25831 340TH AVENUE SW","FISHER","MN",56723,47.7913725010001,-96.782058789,490,"25831 340TH AVENUE SW, FISHER, MN, 56723","Match","Exact","25831 340TH AVE SW, FISHER, MN, 56723",171436950,"L"
418491,"25831 S 465TH WEST AVE","DEPEW","OK",74028,35.789716132,-96.5122175019999,491,"25831 S 465TH WEST AVE, DEPEW, OK, 74028","Match","Exact","25831 S 465TH W AVE, DEPEW, OK, 74028",165878503,"R"
418492,"25831 TEMPLE DR","MADERA","CA",93638,36.991828238,-120.077833452,492,"25831 TEMPLE DR, MADERA, CA, 93638","Match","Exact","25831 TEMPLE DR, MADERA, CA, 93638",102370801,"R"
418493,"25833 WILDWOOD ROAD","VENETA","OR",97487,44.0543733480001,-123.322952294,493,"25833 WILDWOOD ROAD, VENETA, OR, 97487","Match","Exact","25833 WILDWOOD RD, VENETA, OR, 97487",642182880,"L"
418494,"25834 STONE BRIDGE AVE","MATTAWAN","MI",49071,42.2542138000001,-85.80298056,494,"25834 STONE BRIDGE AVE, MATTAWAN, MI, 49071","Match","Exact","25834 STONE BRIDGE AVE, MATTAWAN, MI, 49071",34770068,"R"
418495,"25834 W PLEASANT LANE","BUCKEYE","AZ",85326,33.3911693270001,-112.605676878,495,"25834 W PLEASANT LANE, BUCKEYE, AZ, 85326","Match","Exact","25834 W PLEASANT LN, BUCKEYE, AZ, 85326",647420989,"L"
418496,"25835 NARBONNE AVE 200A","LOMITA","CA",90717,33.788573962,-118.319978549,496,"25835 NARBONNE AVE 200A, LOMITA, CA, 90717","Match","Exact","25835 NARBONNE AVE, LOMITA, CA, 90717",241244593,"R"
418497,"25835 NARBONNE AVE 200C","LOMITA","CA",90717,33.788573962,-118.319978549,497,"25835 NARBONNE AVE 200C, LOMITA, CA, 90717","Match","Exact","25835 NARBONNE AVE, LOMITA, CA, 90717",241244593,"R"
418498,"25835 NARBONNE AVE STE 200C","LOMITA","CA",90717,33.788573962,-118.319978549,498,"25835 NARBONNE AVE STE 200C, LOMITA, CA, 90717","Match","Exact","25835 NARBONNE AVE, LOMITA, CA, 90717",241244593,"R"
418499,"25835 PIERCE LANE","PELICAN RAPIDS","MN",56572,46.56032645,-95.949535811,499,"25835 PIERCE LANE, PELICAN RAPIDS, MN, 56572","Match","Exact","25835 PIERCE LN, PELICAN RAPIDS, MN, 56572",168307376,"R"
418500,"25835 SOUTHBROOK","LAKE FOREST","CA",92630,33.631313397,-117.679711258,500,"25835 SOUTHBROOK, LAKE FOREST, CA, 92630","Match","Exact","25835 SOUTHBROOK, LAKE FOREST, CA, 92630",144121530,"L"
