"ID","Address","City","State","Zip","lat","long","id","input_address","match_indicator","match_type","matched_address","tiger_line_id","tiger_side"
987001,"PO BOX 417","OAK BLUFFS","MA",2557,NA,NA,1,"PO BOX 417, OAK BLUFFS, MA, 2557","No_Match",NA,NA,NA,NA
987002,"PO BOX 41711","LOS ANGELES","CA",90041,NA,NA,2,"PO BOX 41711, LOS ANGELES, CA, 90041","No_Match",NA,NA,NA,NA
987003,"PO BOX 4172","WESTLAKE VILLAGE","CA",91359,NA,NA,3,"PO BOX 4172, WESTLAKE VILLAGE, CA, 91359","No_Match",NA,NA,NA,NA
987004,"PO BOX 41732","CHICAGO","IL",60643,NA,NA,4,"PO BOX 41732, CHICAGO, IL, 60643","No_Match",NA,NA,NA,NA
987005,"PO BOX 4174","WEST COVINA","CA",91791,NA,NA,5,"PO BOX 4174, WEST COVINA, CA, 91791","No_Match",NA,NA,NA,NA
987006,"PO BOX 4176","CANTON","GA",30114,NA,NA,6,"PO BOX 4176, CANTON, GA, 30114","No_Match",NA,NA,NA,NA
987007,"PO BOX 4176","CARTERSVILLE","GA",30121,NA,NA,7,"PO BOX 4176, CARTERSVILLE, GA, 30121","No_Match",NA,NA,NA,NA
987008,"PO BOX 4176","FRANKFORT","KY",40604,NA,NA,8,"PO BOX 4176, FRANKFORT, KY, 40604","No_Match",NA,NA,NA,NA
987009,"PO BOX 41763","MESA","AZ",85274,NA,NA,9,"PO BOX 41763, MESA, AZ, 85274","No_Match",NA,NA,NA,NA
987010,"PO BOX 4178","SANTA ROSA","CA",95402,NA,NA,10,"PO BOX 4178, SANTA ROSA, CA, 95402","No_Match",NA,NA,NA,NA
987011,"PO BOX 418","BISBEE","AZ",85603,NA,NA,11,"PO BOX 418, BISBEE, AZ, 85603","No_Match",NA,NA,NA,NA
987012,"PO BOX 418","BISBEE","AZ",85613,NA,NA,12,"PO BOX 418, BISBEE, AZ, 85613","No_Match",NA,NA,NA,NA
987013,"PO BOX 418","DOBBINS","CA",95935,NA,NA,13,"PO BOX 418, DOBBINS, CA, 95935","No_Match",NA,NA,NA,NA
987014,"PO BOX 418","EAST BARRE","VT",5649,NA,NA,14,"PO BOX 418, EAST BARRE, VT, 5649","No_Match",NA,NA,NA,NA
987015,"PO BOX 418","GLENDALE","CA",91209,NA,NA,15,"PO BOX 418, GLENDALE, CA, 91209","No_Match",NA,NA,NA,NA
987016,"PO BOX 418","MOUNTAIN HOME","TX",78058,NA,NA,16,"PO BOX 418, MOUNTAIN HOME, TX, 78058","No_Match",NA,NA,NA,NA
987017,"PO BOX 418","NASHVILLE","OH",44661,NA,NA,17,"PO BOX 418, NASHVILLE, OH, 44661","No_Match",NA,NA,NA,NA
987018,"PO BOX 418","ORCAS","WA",98280,NA,NA,18,"PO BOX 418, ORCAS, WA, 98280","No_Match",NA,NA,NA,NA
987019,"PO BOX 418","TEAGUE","TX",75860,NA,NA,19,"PO BOX 418, TEAGUE, TX, 75860","No_Match",NA,NA,NA,NA
987020,"PO BOX 418","TOKELAND","WA",98590,NA,NA,20,"PO BOX 418, TOKELAND, WA, 98590","No_Match",NA,NA,NA,NA
987021,"PO BOX 418","TRACY CITY","TN",37387,NA,NA,21,"PO BOX 418, TRACY CITY, TN, 37387","No_Match",NA,NA,NA,NA
987022,"PO BOX 418","VICTOR","CA",95253,NA,NA,22,"PO BOX 418, VICTOR, CA, 95253","No_Match",NA,NA,NA,NA
987023,"PO BOX 418","WAITSFIELD","VT",5673,NA,NA,23,"PO BOX 418, WAITSFIELD, VT, 5673","No_Match",NA,NA,NA,NA
987024,"PO BOX 418","WESTFIELD","IN",46074,NA,NA,24,"PO BOX 418, WESTFIELD, IN, 46074","No_Match",NA,NA,NA,NA
987025,"PO BOX 418","YAKUTAT","AK",99689,NA,NA,25,"PO BOX 418, YAKUTAT, AK, 99689","No_Match",NA,NA,NA,NA
987026,"PO BOX 4180","CASPER","WY",82604,NA,NA,26,"PO BOX 4180, CASPER, WY, 82604","No_Match",NA,NA,NA,NA
987027,"PO BOX 4181","BROWNSVILLE","TX",78523,NA,NA,27,"PO BOX 4181, BROWNSVILLE, TX, 78523","No_Match",NA,NA,NA,NA
987028,"PO BOX 4181","MCCALL","ID",83638,NA,NA,28,"PO BOX 4181, MCCALL, ID, 83638","No_Match",NA,NA,NA,NA
987029,"PO BOX 4182","CLIFTON PARK","NY",12065,NA,NA,29,"PO BOX 4182, CLIFTON PARK, NY, 12065","No_Match",NA,NA,NA,NA
987030,"PO BOX 41826","NASHVILLE","TN",37204,NA,NA,30,"PO BOX 41826, NASHVILLE, TN, 37204","No_Match",NA,NA,NA,NA
987031,"PO BOX 4183","SUNNYSIDE","NY",11104,NA,NA,31,"PO BOX 4183, SUNNYSIDE, NY, 11104","No_Match",NA,NA,NA,NA
987032,"PO BOX 41831","SACRAMENTO","CA",95841,NA,NA,32,"PO BOX 41831, SACRAMENTO, CA, 95841","No_Match",NA,NA,NA,NA
987033,"PO BOX 418340","SACRAMENTO","CA",95841,NA,NA,33,"PO BOX 418340, SACRAMENTO, CA, 95841","No_Match",NA,NA,NA,NA
987034,"PO BOX 4184","ENGLEWOOD","CO",80155,NA,NA,34,"PO BOX 4184, ENGLEWOOD, CO, 80155","No_Match",NA,NA,NA,NA
987035,"PO BOX 4185","CLEARWATER","FL",33758,NA,NA,35,"PO BOX 4185, CLEARWATER, FL, 33758","No_Match",NA,NA,NA,NA
987036,"PO BOX 4186","IRVINE","CA",92616,NA,NA,36,"PO BOX 4186, IRVINE, CA, 92616","No_Match",NA,NA,NA,NA
987037,"PO BOX 41866","NASHVILLE","TN",37204,NA,NA,37,"PO BOX 41866, NASHVILLE, TN, 37204","No_Match",NA,NA,NA,NA
987038,"PO BOX 4188","EVERETT","WA",98203,NA,NA,38,"PO BOX 4188, EVERETT, WA, 98203","No_Match",NA,NA,NA,NA
987039,"PO BOX 419","BUNA","TX",77612,NA,NA,39,"PO BOX 419, BUNA, TX, 77612","No_Match",NA,NA,NA,NA
987040,"PO BOX 419","FILMORE","CA",93016,NA,NA,40,"PO BOX 419, FILMORE, CA, 93016","No_Match",NA,NA,NA,NA
987041,"PO BOX 419","OAKDALE","NY",11769,NA,NA,41,"PO BOX 419, OAKDALE, NY, 11769","No_Match",NA,NA,NA,NA
987042,"PO BOX 419","PALMER","AK",99645,NA,NA,42,"PO BOX 419, PALMER, AK, 99645","No_Match",NA,NA,NA,NA
987043,"PO BOX 419","STAUNTON","VA",24402,NA,NA,43,"PO BOX 419, STAUNTON, VA, 24402","No_Match",NA,NA,NA,NA
987044,"PO BOX 419","TOKELAND","WA",98590,NA,NA,44,"PO BOX 419, TOKELAND, WA, 98590","No_Match",NA,NA,NA,NA
987045,"PO BOX 419","WESTFIELD","IN",46074,NA,NA,45,"PO BOX 419, WESTFIELD, IN, 46074","No_Match",NA,NA,NA,NA
987046,"PO BOX 4191","BRANDON","FL",33509,NA,NA,46,"PO BOX 4191, BRANDON, FL, 33509","No_Match",NA,NA,NA,NA
987047,"PO BOX 4191","DEDHAM","MA",2027,NA,NA,47,"PO BOX 4191, DEDHAM, MA, 2027","No_Match",NA,NA,NA,NA
987048,"PO BOX 4191","TELLURIDE","CO",81435,NA,NA,48,"PO BOX 4191, TELLURIDE, CO, 81435","No_Match",NA,NA,NA,NA
987049,"PO BOX 4192","GLEN ALLEN","VA",23058,NA,NA,49,"PO BOX 4192, GLEN ALLEN, VA, 23058","No_Match",NA,NA,NA,NA
987050,"PO BOX 4192","SANTA ANA","CA",92702,NA,NA,50,"PO BOX 4192, SANTA ANA, CA, 92702","No_Match",NA,NA,NA,NA
987051,"PO BOX 4193","ATLANTA","GA",30302,NA,NA,51,"PO BOX 4193, ATLANTA, GA, 30302","No_Match",NA,NA,NA,NA
987052,"PO BOX 4195","MIDDLETOWN","RI",2842,NA,NA,52,"PO BOX 4195, MIDDLETOWN, RI, 2842","No_Match",NA,NA,NA,NA
987053,"PO BOX 4199","PALMER","AK",99645,NA,NA,53,"PO BOX 4199, PALMER, AK, 99645","No_Match",NA,NA,NA,NA
987054,"PO BOX 42","ALVIN","TX",77512,NA,NA,54,"PO BOX 42, ALVIN, TX, 77512","No_Match",NA,NA,NA,NA
987055,"PO BOX 42","BORON","CA",93516,NA,NA,55,"PO BOX 42, BORON, CA, 93516","No_Match",NA,NA,NA,NA
987056,"PO BOX 42","BOWMANSVILLE","NY",14026,NA,NA,56,"PO BOX 42, BOWMANSVILLE, NY, 14026","No_Match",NA,NA,NA,NA
987057,"PO BOX 42","CASTLETON","NY",12033,NA,NA,57,"PO BOX 42, CASTLETON, NY, 12033","No_Match",NA,NA,NA,NA
987058,"PO BOX 42","EAGLE","CO",81631,NA,NA,58,"PO BOX 42, EAGLE, CO, 81631","No_Match",NA,NA,NA,NA
987059,"PO BOX 42","FARWELL","TX",79325,NA,NA,59,"PO BOX 42, FARWELL, TX, 79325","No_Match",NA,NA,NA,NA
987060,"PO BOX 42","FREWSBURG","NY",14738,NA,NA,60,"PO BOX 42, FREWSBURG, NY, 14738","No_Match",NA,NA,NA,NA
987061,"PO BOX 42","LUBEC","ME",4652,NA,NA,61,"PO BOX 42, LUBEC, ME, 4652","No_Match",NA,NA,NA,NA
987062,"PO BOX 42","MARENGO","IL",60152,NA,NA,62,"PO BOX 42, MARENGO, IL, 60152","No_Match",NA,NA,NA,NA
987063,"PO BOX 42","MILFORD","OH",45150,NA,NA,63,"PO BOX 42, MILFORD, OH, 45150","No_Match",NA,NA,NA,NA
987064,"PO BOX 42","MILL CITY","OR",97360,NA,NA,64,"PO BOX 42, MILL CITY, OR, 97360","No_Match",NA,NA,NA,NA
987065,"PO BOX 42","MILTON","NY",12547,NA,NA,65,"PO BOX 42, MILTON, NY, 12547","No_Match",NA,NA,NA,NA
987066,"PO BOX 42","MONKTON","MD",21111,NA,NA,66,"PO BOX 42, MONKTON, MD, 21111","No_Match",NA,NA,NA,NA
987067,"PO BOX 42","MORROW","GA",30260,NA,NA,67,"PO BOX 42, MORROW, GA, 30260","No_Match",NA,NA,NA,NA
987068,"PO BOX 42","NATOMA","KS",67651,NA,NA,68,"PO BOX 42, NATOMA, KS, 67651","No_Match",NA,NA,NA,NA
987069,"PO BOX 42","OLNEY","TX",76374,NA,NA,69,"PO BOX 42, OLNEY, TX, 76374","No_Match",NA,NA,NA,NA
987070,"PO BOX 42","PETERSBURG","WV",26847,NA,NA,70,"PO BOX 42, PETERSBURG, WV, 26847","No_Match",NA,NA,NA,NA
987071,"PO BOX 42","PLYMOUTH","FL",32768,NA,NA,71,"PO BOX 42, PLYMOUTH, FL, 32768","No_Match",NA,NA,NA,NA
987072,"PO BOX 42","PORT ARANSAS","TX",78373,NA,NA,72,"PO BOX 42, PORT ARANSAS, TX, 78373","No_Match",NA,NA,NA,NA
987073,"PO BOX 42","ROSLYN","WA",98941,NA,NA,73,"PO BOX 42, ROSLYN, WA, 98941","No_Match",NA,NA,NA,NA
987074,"PO BOX 42","SHERMANS DALE","PA",17090,NA,NA,74,"PO BOX 42, SHERMANS DALE, PA, 17090","No_Match",NA,NA,NA,NA
987075,"PO BOX 42","SUNBURG","MN",56289,NA,NA,75,"PO BOX 42, SUNBURG, MN, 56289","No_Match",NA,NA,NA,NA
987076,"PO BOX 42","WATERFORD","CT",6385,NA,NA,76,"PO BOX 42, WATERFORD, CT, 6385","No_Match",NA,NA,NA,NA
987077,"PO BOX 420","CASSOPOLIS","MI",49031,NA,NA,77,"PO BOX 420, CASSOPOLIS, MI, 49031","No_Match",NA,NA,NA,NA
987078,"PO BOX 420","LITTLETON","CO",80160,NA,NA,78,"PO BOX 420, LITTLETON, CO, 80160","No_Match",NA,NA,NA,NA
987079,"PO BOX 420","STAR","MS",39167,NA,NA,79,"PO BOX 420, STAR, MS, 39167","No_Match",NA,NA,NA,NA
987080,"PO BOX 420","WEST ORANGE","NJ",7052,NA,NA,80,"PO BOX 420, WEST ORANGE, NJ, 7052","No_Match",NA,NA,NA,NA
987081,"PO BOX 4200","KANEOHE","HI",96744,NA,NA,81,"PO BOX 4200, KANEOHE, HI, 96744","No_Match",NA,NA,NA,NA
987082,"PO BOX 4202","LAS VEGAS","NM",87701,NA,NA,82,"PO BOX 4202, LAS VEGAS, NM, 87701","No_Match",NA,NA,NA,NA
987083,"PO BOX 42032","AUSTIN","TX",78704,NA,NA,83,"PO BOX 42032, AUSTIN, TX, 78704","No_Match",NA,NA,NA,NA
987084,"PO BOX 420365","KISSIMMEE","FL",34742,NA,NA,84,"PO BOX 420365, KISSIMMEE, FL, 34742","No_Match",NA,NA,NA,NA
987085,"PO BOX 4204","ARLINGTON","VA",22204,NA,NA,85,"PO BOX 4204, ARLINGTON, VA, 22204","No_Match",NA,NA,NA,NA
987086,"PO BOX 4204","BOULDER","CO",80306,NA,NA,86,"PO BOX 4204, BOULDER, CO, 80306","No_Match",NA,NA,NA,NA
987087,"PO BOX 4204","GREENVILLE","NC",27836,NA,NA,87,"PO BOX 4204, GREENVILLE, NC, 27836","No_Match",NA,NA,NA,NA
987088,"PO BOX 4204","WOODBRIDGE","VA",22194,NA,NA,88,"PO BOX 4204, WOODBRIDGE, VA, 22194","No_Match",NA,NA,NA,NA
987089,"PO BOX 4205","BROOKINGS","OR",97415,NA,NA,89,"PO BOX 4205, BROOKINGS, OR, 97415","No_Match",NA,NA,NA,NA
987090,"PO BOX 4205","CARTERSVILLE","GA",30120,NA,NA,90,"PO BOX 4205, CARTERSVILLE, GA, 30120","No_Match",NA,NA,NA,NA
987091,"PO BOX 42051","EUGENE","OR",97404,NA,NA,91,"PO BOX 42051, EUGENE, OR, 97404","No_Match",NA,NA,NA,NA
987092,"PO BOX 420523","MIAMI","FL",33142,NA,NA,92,"PO BOX 420523, MIAMI, FL, 33142","No_Match",NA,NA,NA,NA
987093,"PO BOX 420566","MIAMI","FL",33242,NA,NA,93,"PO BOX 420566, MIAMI, FL, 33242","No_Match",NA,NA,NA,NA
987094,"PO BOX 420665","KISSIMMEE","FL",34742,NA,NA,94,"PO BOX 420665, KISSIMMEE, FL, 34742","No_Match",NA,NA,NA,NA
987095,"PO BOX 420675","ATLANTA","GA",30342,NA,NA,95,"PO BOX 420675, ATLANTA, GA, 30342","No_Match",NA,NA,NA,NA
987096,"PO BOX 4207","WENATCHEE","WA",98807,NA,NA,96,"PO BOX 4207, WENATCHEE, WA, 98807","No_Match",NA,NA,NA,NA
987097,"PO BOX 42071","CINCINNATI","OH",45242,NA,NA,97,"PO BOX 42071, CINCINNATI, OH, 45242","No_Match",NA,NA,NA,NA
987098,"PO BOX 4208","ALBANY","GA",31706,NA,NA,98,"PO BOX 4208, ALBANY, GA, 31706","No_Match",NA,NA,NA,NA
987099,"PO BOX 4208","COTTONWOOD","AZ",86326,NA,NA,99,"PO BOX 4208, COTTONWOOD, AZ, 86326","No_Match",NA,NA,NA,NA
987100,"PO BOX 420801","HOUSON","TX",77242,NA,NA,100,"PO BOX 420801, HOUSON, TX, 77242","No_Match",NA,NA,NA,NA
987101,"PO BOX 420808","SUMMERLAND","FL",33042,NA,NA,101,"PO BOX 420808, SUMMERLAND, FL, 33042","No_Match",NA,NA,NA,NA
987102,"PO BOX 420831","DEL RIO","TX",78842,NA,NA,102,"PO BOX 420831, DEL RIO, TX, 78842","No_Match",NA,NA,NA,NA
987103,"PO BOX 42095","LOS ANGELES","CA",90042,NA,NA,103,"PO BOX 42095, LOS ANGELES, CA, 90042","No_Match",NA,NA,NA,NA
987104,"PO BOX 421","ALPINE","NJ",7620,NA,NA,104,"PO BOX 421, ALPINE, NJ, 7620","No_Match",NA,NA,NA,NA
987105,"PO BOX 421","ARAPAHO","OK",73620,NA,NA,105,"PO BOX 421, ARAPAHO, OK, 73620","No_Match",NA,NA,NA,NA
987106,"PO BOX 421","COMERIO","PR",782,NA,NA,106,"PO BOX 421, COMERIO, PR, 782","No_Match",NA,NA,NA,NA
987107,"PO BOX 421","EDNA","TX",77957,NA,NA,107,"PO BOX 421, EDNA, TX, 77957","No_Match",NA,NA,NA,NA
987108,"PO BOX 421","FREMONT","IN",46737,NA,NA,108,"PO BOX 421, FREMONT, IN, 46737","No_Match",NA,NA,NA,NA
987109,"PO BOX 421","GILBERT","MN",55741,NA,NA,109,"PO BOX 421, GILBERT, MN, 55741","No_Match",NA,NA,NA,NA
987110,"PO BOX 421","LA VETA","CO",81055,NA,NA,110,"PO BOX 421, LA VETA, CO, 81055","No_Match",NA,NA,NA,NA
987111,"PO BOX 421","MOORESVILLE","NC",28115,NA,NA,111,"PO BOX 421, MOORESVILLE, NC, 28115","No_Match",NA,NA,NA,NA
987112,"PO BOX 421","MOUNTAINDALE","NY",12763,NA,NA,112,"PO BOX 421, MOUNTAINDALE, NY, 12763","No_Match",NA,NA,NA,NA
987113,"PO BOX 421","NORDMAN","ID",83848,NA,NA,113,"PO BOX 421, NORDMAN, ID, 83848","No_Match",NA,NA,NA,NA
987114,"PO BOX 421","PALACIOS","TX",77465,NA,NA,114,"PO BOX 421, PALACIOS, TX, 77465","No_Match",NA,NA,NA,NA
987115,"PO BOX 421","PATTISON","TX",77466,NA,NA,115,"PO BOX 421, PATTISON, TX, 77466","No_Match",NA,NA,NA,NA
987116,"PO BOX 421","RAYWOOD","TX",77582,NA,NA,116,"PO BOX 421, RAYWOOD, TX, 77582","No_Match",NA,NA,NA,NA
987117,"PO BOX 421","REEDSVILLE","WI",54230,NA,NA,117,"PO BOX 421, REEDSVILLE, WI, 54230","No_Match",NA,NA,NA,NA
987118,"PO BOX 421","SARDIS","OH",43946,NA,NA,118,"PO BOX 421, SARDIS, OH, 43946","No_Match",NA,NA,NA,NA
987119,"PO BOX 421","SPICELAND","IN",47385,NA,NA,119,"PO BOX 421, SPICELAND, IN, 47385","No_Match",NA,NA,NA,NA
987120,"PO BOX 421","SUMMERSVILLE","WV",26651,NA,NA,120,"PO BOX 421, SUMMERSVILLE, WV, 26651","No_Match",NA,NA,NA,NA
987121,"PO BOX 421","TRAVERSE CITY","MI",49685,NA,NA,121,"PO BOX 421, TRAVERSE CITY, MI, 49685","No_Match",NA,NA,NA,NA
987122,"PO BOX 421","TROY","MT",59935,NA,NA,122,"PO BOX 421, TROY, MT, 59935","No_Match",NA,NA,NA,NA
987123,"PO BOX 421","YERMO","CA",92398,NA,NA,123,"PO BOX 421, YERMO, CA, 92398","No_Match",NA,NA,NA,NA
987124,"PO BOX 42104","LAS VEGAS","NV",89116,NA,NA,124,"PO BOX 42104, LAS VEGAS, NV, 89116","No_Match",NA,NA,NA,NA
987125,"PO BOX 4212","MANTECA","CA",95337,NA,NA,125,"PO BOX 4212, MANTECA, CA, 95337","No_Match",NA,NA,NA,NA
987126,"PO BOX 421224","SAN FRANCISCO","CA",94142,NA,NA,126,"PO BOX 421224, SAN FRANCISCO, CA, 94142","No_Match",NA,NA,NA,NA
987127,"PO BOX 42129","CINCINNATI","OH",45242,NA,NA,127,"PO BOX 42129, CINCINNATI, OH, 45242","No_Match",NA,NA,NA,NA
987128,"PO BOX 42131","ARLINGTON","VA",22204,NA,NA,128,"PO BOX 42131, ARLINGTON, VA, 22204","No_Match",NA,NA,NA,NA
987129,"PO BOX 421328","KISSIMMEE","FL",34742,NA,NA,129,"PO BOX 421328, KISSIMMEE, FL, 34742","No_Match",NA,NA,NA,NA
987130,"PO BOX 42151","URBANDALE","IA",50323,NA,NA,130,"PO BOX 42151, URBANDALE, IA, 50323","No_Match",NA,NA,NA,NA
987131,"PO BOX 42155","DEL RIO","TX",78842,NA,NA,131,"PO BOX 42155, DEL RIO, TX, 78842","No_Match",NA,NA,NA,NA
987132,"PO BOX 42163","CINCINNATI","OH",45242,NA,NA,132,"PO BOX 42163, CINCINNATI, OH, 45242","No_Match",NA,NA,NA,NA
987133,"PO BOX 42168","ATLANTA","GA",30311,NA,NA,133,"PO BOX 42168, ATLANTA, GA, 30311","No_Match",NA,NA,NA,NA
987134,"PO BOX 421696","MIDDLETOWN","OH",45042,NA,NA,134,"PO BOX 421696, MIDDLETOWN, OH, 45042","No_Match",NA,NA,NA,NA
987135,"PO BOX 42174","BAKERSFIELD","CA",93384,NA,NA,135,"PO BOX 42174, BAKERSFIELD, CA, 93384","No_Match",NA,NA,NA,NA
987136,"PO BOX 4218","BRANDON","FL",33509,NA,NA,136,"PO BOX 4218, BRANDON, FL, 33509","No_Match",NA,NA,NA,NA
987137,"PO BOX 421823","HOUSTON","TX",77242,NA,NA,137,"PO BOX 421823, HOUSTON, TX, 77242","No_Match",NA,NA,NA,NA
987138,"PO BOX 422 521 CHERRY ST","TILDEN","IL",62292,38.213400968,-89.678662086,138,"PO BOX 422 521 CHERRY ST, TILDEN, IL, 62292","Match","Exact","521 CHERRY ST, TILDEN, IL, 62292",95173037,"L"
987139,"PO BOX 422","CABLE","WI",54821,NA,NA,139,"PO BOX 422, CABLE, WI, 54821","No_Match",NA,NA,NA,NA
987140,"PO BOX 422","CARTHAGE","NC",28327,NA,NA,140,"PO BOX 422, CARTHAGE, NC, 28327","No_Match",NA,NA,NA,NA
987141,"PO BOX 422","CEDAR GROVE","NJ",7009,NA,NA,141,"PO BOX 422, CEDAR GROVE, NJ, 7009","No_Match",NA,NA,NA,NA
987142,"PO BOX 422","CLAY SPRINGS","AZ",85923,NA,NA,142,"PO BOX 422, CLAY SPRINGS, AZ, 85923","No_Match",NA,NA,NA,NA
987143,"PO BOX 422","DENTON","MT",59430,NA,NA,143,"PO BOX 422, DENTON, MT, 59430","No_Match",NA,NA,NA,NA
987144,"PO BOX 422","ELMA","WA",98541,NA,NA,144,"PO BOX 422, ELMA, WA, 98541","No_Match",NA,NA,NA,NA
987145,"PO BOX 422","FAIRFIELD","MT",59436,NA,NA,145,"PO BOX 422, FAIRFIELD, MT, 59436","No_Match",NA,NA,NA,NA
987146,"PO BOX 422","HANALEI","HI",96714,NA,NA,146,"PO BOX 422, HANALEI, HI, 96714","No_Match",NA,NA,NA,NA
987147,"PO BOX 422","HARLETON","TX",75651,NA,NA,147,"PO BOX 422, HARLETON, TX, 75651","No_Match",NA,NA,NA,NA
987148,"PO BOX 422","HASKELL","OK",74436,NA,NA,148,"PO BOX 422, HASKELL, OK, 74436","No_Match",NA,NA,NA,NA
987149,"PO BOX 422","LOUISE","TX",77455,NA,NA,149,"PO BOX 422, LOUISE, TX, 77455","No_Match",NA,NA,NA,NA
987150,"PO BOX 422","MANASQUAN","NJ",8736,NA,NA,150,"PO BOX 422, MANASQUAN, NJ, 8736","No_Match",NA,NA,NA,NA
987151,"PO BOX 422","MIRANDA","CA",95553,NA,NA,151,"PO BOX 422, MIRANDA, CA, 95553","No_Match",NA,NA,NA,NA
987152,"PO BOX 422","MOUNTAIN LAKES","NJ",7046,NA,NA,152,"PO BOX 422, MOUNTAIN LAKES, NJ, 7046","No_Match",NA,NA,NA,NA
987153,"PO BOX 422","OCONOMOWOC","WI",53066,NA,NA,153,"PO BOX 422, OCONOMOWOC, WI, 53066","No_Match",NA,NA,NA,NA
987154,"PO BOX 422","ORRVILLE","OH",44667,NA,NA,154,"PO BOX 422, ORRVILLE, OH, 44667","No_Match",NA,NA,NA,NA
987155,"PO BOX 422","OWEGO","NY",13827,NA,NA,155,"PO BOX 422, OWEGO, NY, 13827","No_Match",NA,NA,NA,NA
987156,"PO BOX 422","TRACYTON","WA",98393,NA,NA,156,"PO BOX 422, TRACYTON, WA, 98393","No_Match",NA,NA,NA,NA
987157,"PO BOX 422","WALCOTT","IA",52773,NA,NA,157,"PO BOX 422, WALCOTT, IA, 52773","No_Match",NA,NA,NA,NA
987158,"PO BOX 422","WELDON","NC",27890,NA,NA,158,"PO BOX 422, WELDON, NC, 27890","No_Match",NA,NA,NA,NA
987159,"PO BOX 422","WINTER PARK","FL",32789,NA,NA,159,"PO BOX 422, WINTER PARK, FL, 32789","No_Match",NA,NA,NA,NA
987160,"PO BOX 4220","SCOBEY","MT",59263,NA,NA,160,"PO BOX 4220, SCOBEY, MT, 59263","No_Match",NA,NA,NA,NA
987161,"PO BOX 4221","IDYLLWILD","CA",92549,NA,NA,161,"PO BOX 4221, IDYLLWILD, CA, 92549","No_Match",NA,NA,NA,NA
987162,"PO BOX 4221","OCEANSIDE","CA",92052,NA,NA,162,"PO BOX 4221, OCEANSIDE, CA, 92052","No_Match",NA,NA,NA,NA
987163,"PO BOX 42214","ATLANTA","GA",30311,NA,NA,163,"PO BOX 42214, ATLANTA, GA, 30311","No_Match",NA,NA,NA,NA
987164,"PO BOX 42215","CINCINNATI","OH",45242,NA,NA,164,"PO BOX 42215, CINCINNATI, OH, 45242","No_Match",NA,NA,NA,NA
987165,"PO BOX 422186","SAN FRANCISCO","CA",94142,NA,NA,165,"PO BOX 422186, SAN FRANCISCO, CA, 94142","No_Match",NA,NA,NA,NA
987166,"PO BOX 422271","ATLANTA","GA",30342,NA,NA,166,"PO BOX 422271, ATLANTA, GA, 30342","No_Match",NA,NA,NA,NA
987167,"PO BOX 4223","CHARLOTTESVILLE","VA",22905,NA,NA,167,"PO BOX 4223, CHARLOTTESVILLE, VA, 22905","No_Match",NA,NA,NA,NA
987168,"PO BOX 4223","CHEYENNE","WY",82003,NA,NA,168,"PO BOX 4223, CHEYENNE, WY, 82003","No_Match",NA,NA,NA,NA
987169,"PO BOX 42236","HOUSTON","TX",77242,NA,NA,169,"PO BOX 42236, HOUSTON, TX, 77242","No_Match",NA,NA,NA,NA
987170,"PO BOX 422649","KISSIMMEE","FL",34742,NA,NA,170,"PO BOX 422649, KISSIMMEE, FL, 34742","No_Match",NA,NA,NA,NA
987171,"PO BOX 423","ANDREWS","TX",79714,NA,NA,171,"PO BOX 423, ANDREWS, TX, 79714","No_Match",NA,NA,NA,NA
987172,"PO BOX 423","ARIVACA","AZ",85601,NA,NA,172,"PO BOX 423, ARIVACA, AZ, 85601","No_Match",NA,NA,NA,NA
987173,"PO BOX 423","BONDSVILLE","MA",1009,NA,NA,173,"PO BOX 423, BONDSVILLE, MA, 1009","No_Match",NA,NA,NA,NA
987174,"PO BOX 423","CARPINTERIA","CA",93014,NA,NA,174,"PO BOX 423, CARPINTERIA, CA, 93014","No_Match",NA,NA,NA,NA
987175,"PO BOX 423","CLAYMONT","DE",19703,NA,NA,175,"PO BOX 423, CLAYMONT, DE, 19703","No_Match",NA,NA,NA,NA
987176,"PO BOX 423","COBLESKILL","NY",12043,NA,NA,176,"PO BOX 423, COBLESKILL, NY, 12043","No_Match",NA,NA,NA,NA
987177,"PO BOX 423","CRESCENT CITY","CA",95531,NA,NA,177,"PO BOX 423, CRESCENT CITY, CA, 95531","No_Match",NA,NA,NA,NA
987178,"PO BOX 423","HARDIN","TX",77561,NA,NA,178,"PO BOX 423, HARDIN, TX, 77561","No_Match",NA,NA,NA,NA
987179,"PO BOX 423","HELENA","MT",59624,NA,NA,179,"PO BOX 423, HELENA, MT, 59624","No_Match",NA,NA,NA,NA
987180,"PO BOX 423","HUNTSVILLE","AL",35804,NA,NA,180,"PO BOX 423, HUNTSVILLE, AL, 35804","No_Match",NA,NA,NA,NA
987181,"PO BOX 423","JERMYN","TX",76459,NA,NA,181,"PO BOX 423, JERMYN, TX, 76459","No_Match",NA,NA,NA,NA
987182,"PO BOX 423","LEAVENWORTH","WA",98826,NA,NA,182,"PO BOX 423, LEAVENWORTH, WA, 98826","No_Match",NA,NA,NA,NA
987183,"PO BOX 423","MYRTLE BEACH","SC",29577,NA,NA,183,"PO BOX 423, MYRTLE BEACH, SC, 29577","No_Match",NA,NA,NA,NA
987184,"PO BOX 423","NORTH CREEK","NY",12853,NA,NA,184,"PO BOX 423, NORTH CREEK, NY, 12853","No_Match",NA,NA,NA,NA
987185,"PO BOX 423","PILOT MOUNTAIN","NC",27041,NA,NA,185,"PO BOX 423, PILOT MOUNTAIN, NC, 27041","No_Match",NA,NA,NA,NA
987186,"PO BOX 423","RUSHLAND","PA",18956,NA,NA,186,"PO BOX 423, RUSHLAND, PA, 18956","No_Match",NA,NA,NA,NA
987187,"PO BOX 423","SIDNEY","NY",13838,NA,NA,187,"PO BOX 423, SIDNEY, NY, 13838","No_Match",NA,NA,NA,NA
987188,"PO BOX 423","SUNRAY","TX",79086,NA,NA,188,"PO BOX 423, SUNRAY, TX, 79086","No_Match",NA,NA,NA,NA
987189,"PO BOX 4230","TELLURIDE","CO",81435,NA,NA,189,"PO BOX 4230, TELLURIDE, CO, 81435","No_Match",NA,NA,NA,NA
987190,"PO BOX 4231","LEXINGTON","KY",40544,NA,NA,190,"PO BOX 4231, LEXINGTON, KY, 40544","No_Match",NA,NA,NA,NA
987191,"PO BOX 423111","SAN FRANCISCO","CA",94102,NA,NA,191,"PO BOX 423111, SAN FRANCISCO, CA, 94102","No_Match",NA,NA,NA,NA
987192,"PO BOX 423111","SAN FRANCISCO","CA",94142,NA,NA,192,"PO BOX 423111, SAN FRANCISCO, CA, 94142","No_Match",NA,NA,NA,NA
987193,"PO BOX 42326","WASHINGTON","DC",20015,NA,NA,193,"PO BOX 42326, WASHINGTON, DC, 20015","No_Match",NA,NA,NA,NA
987194,"PO BOX 4233","JACKSON","WY",83001,NA,NA,194,"PO BOX 4233, JACKSON, WY, 83001","No_Match",NA,NA,NA,NA
987195,"PO BOX 4234","CEDAR PARK","TX",78630,NA,NA,195,"PO BOX 4234, CEDAR PARK, TX, 78630","No_Match",NA,NA,NA,NA
987196,"PO BOX 4234","WATERBURY","CT",6704,NA,NA,196,"PO BOX 4234, WATERBURY, CT, 6704","No_Match",NA,NA,NA,NA
987197,"PO BOX 4235","COVINA","CA",91723,NA,NA,197,"PO BOX 4235, COVINA, CA, 91723","No_Match",NA,NA,NA,NA
987198,"PO BOX 42362","HENRICO","VA",23242,NA,NA,198,"PO BOX 42362, HENRICO, VA, 23242","No_Match",NA,NA,NA,NA
987199,"PO BOX 4237","EDWARDS","CO",81632,NA,NA,199,"PO BOX 4237, EDWARDS, CO, 81632","No_Match",NA,NA,NA,NA
987200,"PO BOX 4238","MIDDLETON","RI",2842,NA,NA,200,"PO BOX 4238, MIDDLETON, RI, 2842","No_Match",NA,NA,NA,NA
987201,"PO BOX 424","ABSAROKEE","MT",59001,NA,NA,201,"PO BOX 424, ABSAROKEE, MT, 59001","No_Match",NA,NA,NA,NA
987202,"PO BOX 424","ALABASTER","AL",35007,NA,NA,202,"PO BOX 424, ALABASTER, AL, 35007","No_Match",NA,NA,NA,NA
987203,"PO BOX 424","ALTOONA","FL",32702,NA,NA,203,"PO BOX 424, ALTOONA, FL, 32702","No_Match",NA,NA,NA,NA
987204,"PO BOX 424","BIGFORK","MT",59911,NA,NA,204,"PO BOX 424, BIGFORK, MT, 59911","No_Match",NA,NA,NA,NA
987205,"PO BOX 424","BRANDYWINE","MD",20613,NA,NA,205,"PO BOX 424, BRANDYWINE, MD, 20613","No_Match",NA,NA,NA,NA
987206,"PO BOX 424","CABOT","AR",72023,NA,NA,206,"PO BOX 424, CABOT, AR, 72023","No_Match",NA,NA,NA,NA
987207,"PO BOX 424","CAHAN","CO",80808,NA,NA,207,"PO BOX 424, CAHAN, CO, 80808","No_Match",NA,NA,NA,NA
987208,"PO BOX 424","CASTLE ROCK","MN",55010,NA,NA,208,"PO BOX 424, CASTLE ROCK, MN, 55010","No_Match",NA,NA,NA,NA
987209,"PO BOX 424","CRIPPLE CREEK","CO",80813,NA,NA,209,"PO BOX 424, CRIPPLE CREEK, CO, 80813","No_Match",NA,NA,NA,NA
987210,"PO BOX 424","DUNCAN","AZ",85534,NA,NA,210,"PO BOX 424, DUNCAN, AZ, 85534","No_Match",NA,NA,NA,NA
987211,"PO BOX 424","FREWSBURG","NY",14738,NA,NA,211,"PO BOX 424, FREWSBURG, NY, 14738","No_Match",NA,NA,NA,NA
987212,"PO BOX 424","GLIDE","OR",97443,NA,NA,212,"PO BOX 424, GLIDE, OR, 97443","No_Match",NA,NA,NA,NA
987213,"PO BOX 424","HANSVILLE","WA",98340,NA,NA,213,"PO BOX 424, HANSVILLE, WA, 98340","No_Match",NA,NA,NA,NA
987214,"PO BOX 424","HOLYOKE","CO",80734,NA,NA,214,"PO BOX 424, HOLYOKE, CO, 80734","No_Match",NA,NA,NA,NA
987215,"PO BOX 424","JACKSON","WY",83001,NA,NA,215,"PO BOX 424, JACKSON, WY, 83001","No_Match",NA,NA,NA,NA
987216,"PO BOX 424","KUNKLETOWN","PA",18058,NA,NA,216,"PO BOX 424, KUNKLETOWN, PA, 18058","No_Match",NA,NA,NA,NA
987217,"PO BOX 424","MARATHON","TX",79842,NA,NA,217,"PO BOX 424, MARATHON, TX, 79842","No_Match",NA,NA,NA,NA
987218,"PO BOX 424","MASON","TX",76856,NA,NA,218,"PO BOX 424, MASON, TX, 76856","No_Match",NA,NA,NA,NA
987219,"PO BOX 424","MILL VALLEY","CA",94941,NA,NA,219,"PO BOX 424, MILL VALLEY, CA, 94941","No_Match",NA,NA,NA,NA
987220,"PO BOX 424","PATEROS","WA",98846,NA,NA,220,"PO BOX 424, PATEROS, WA, 98846","No_Match",NA,NA,NA,NA
987221,"PO BOX 424","PEYTON","CO",80831,NA,NA,221,"PO BOX 424, PEYTON, CO, 80831","No_Match",NA,NA,NA,NA
987222,"PO BOX 424","SHARON CENTER","OH",44274,NA,NA,222,"PO BOX 424, SHARON CENTER, OH, 44274","No_Match",NA,NA,NA,NA
987223,"PO BOX 424","YELM","WA",98597,NA,NA,223,"PO BOX 424, YELM, WA, 98597","No_Match",NA,NA,NA,NA
987224,"PO BOX 4240","TAMPA","FL",33677,NA,NA,224,"PO BOX 4240, TAMPA, FL, 33677","No_Match",NA,NA,NA,NA
987225,"PO BOX 42406","BALTIMORE","MD",21284,NA,NA,225,"PO BOX 42406, BALTIMORE, MD, 21284","No_Match",NA,NA,NA,NA
987226,"PO BOX 4242","SEVIERVILLE","TN",37864,NA,NA,226,"PO BOX 4242, SEVIERVILLE, TN, 37864","No_Match",NA,NA,NA,NA
987227,"PO BOX 4243","MISSOULA","MT",59806,NA,NA,227,"PO BOX 4243, MISSOULA, MT, 59806","No_Match",NA,NA,NA,NA
987228,"PO BOX 4244","BIG BEAR LAKE","CA",92315,NA,NA,228,"PO BOX 4244, BIG BEAR LAKE, CA, 92315","No_Match",NA,NA,NA,NA
987229,"PO BOX 4244","FRISCO","CO",80443,NA,NA,229,"PO BOX 4244, FRISCO, CO, 80443","No_Match",NA,NA,NA,NA
987230,"PO BOX 4244","GREENVILLE","NC",27836,NA,NA,230,"PO BOX 4244, GREENVILLE, NC, 27836","No_Match",NA,NA,NA,NA
987231,"PO BOX 4245","IDYLLWILD","CA",92549,NA,NA,231,"PO BOX 4245, IDYLLWILD, CA, 92549","No_Match",NA,NA,NA,NA
987232,"PO BOX 4245","RANCHO CUCAMONGA","CA",91729,NA,NA,232,"PO BOX 4245, RANCHO CUCAMONGA, CA, 91729","No_Match",NA,NA,NA,NA
987233,"PO BOX 4245","YUMA","AZ",85366,NA,NA,233,"PO BOX 4245, YUMA, AZ, 85366","No_Match",NA,NA,NA,NA
987234,"PO BOX 42453","LAS VEGAS","NV",89116,NA,NA,234,"PO BOX 42453, LAS VEGAS, NV, 89116","No_Match",NA,NA,NA,NA
987235,"PO BOX 4246","FORT SMITH","AR",72914,NA,NA,235,"PO BOX 4246, FORT SMITH, AR, 72914","No_Match",NA,NA,NA,NA
987236,"PO BOX 4247","FORT WORTH","TX",76164,NA,NA,236,"PO BOX 4247, FORT WORTH, TX, 76164","No_Match",NA,NA,NA,NA
987237,"PO BOX 42486","TUCSON","AZ",85733,NA,NA,237,"PO BOX 42486, TUCSON, AZ, 85733","No_Match",NA,NA,NA,NA
987238,"PO BOX 425","ADEL","GA",31620,NA,NA,238,"PO BOX 425, ADEL, GA, 31620","No_Match",NA,NA,NA,NA
987239,"PO BOX 425","AVONDALE","AZ",85323,NA,NA,239,"PO BOX 425, AVONDALE, AZ, 85323","No_Match",NA,NA,NA,NA
987240,"PO BOX 425","BELLOWS FALLS","VT",5101,NA,NA,240,"PO BOX 425, BELLOWS FALLS, VT, 5101","No_Match",NA,NA,NA,NA
987241,"PO BOX 425","BESSEMER CITY","NC",28016,NA,NA,241,"PO BOX 425, BESSEMER CITY, NC, 28016","No_Match",NA,NA,NA,NA
987242,"PO BOX 425","BEVERLY HILLS","CA",90213,NA,NA,242,"PO BOX 425, BEVERLY HILLS, CA, 90213","No_Match",NA,NA,NA,NA
987243,"PO BOX 425","BREWERTON","NY",13029,NA,NA,243,"PO BOX 425, BREWERTON, NY, 13029","No_Match",NA,NA,NA,NA
987244,"PO BOX 425","CABLE","WI",54821,NA,NA,244,"PO BOX 425, CABLE, WI, 54821","No_Match",NA,NA,NA,NA
987245,"PO BOX 425","DANVERS","IL",61732,NA,NA,245,"PO BOX 425, DANVERS, IL, 61732","No_Match",NA,NA,NA,NA
987246,"PO BOX 425","DIABLO","CA",94528,NA,NA,246,"PO BOX 425, DIABLO, CA, 94528","No_Match",NA,NA,NA,NA
987247,"PO BOX 425","ENUMCLAW","WA",98022,NA,NA,247,"PO BOX 425, ENUMCLAW, WA, 98022","No_Match",NA,NA,NA,NA
987248,"PO BOX 425","FOWLER","CA",93625,NA,NA,248,"PO BOX 425, FOWLER, CA, 93625","No_Match",NA,NA,NA,NA
987249,"PO BOX 425","FRANKLIN SQUARE","NY",11010,NA,NA,249,"PO BOX 425, FRANKLIN SQUARE, NY, 11010","No_Match",NA,NA,NA,NA
987250,"PO BOX 425","GOFFSTOWN","NH",3045,NA,NA,250,"PO BOX 425, GOFFSTOWN, NH, 3045","No_Match",NA,NA,NA,NA
987251,"PO BOX 425","JACKSBORO","TX",76458,NA,NA,251,"PO BOX 425, JACKSBORO, TX, 76458","No_Match",NA,NA,NA,NA
987252,"PO BOX 425","JOSHUA TREE","CA",92252,NA,NA,252,"PO BOX 425, JOSHUA TREE, CA, 92252","No_Match",NA,NA,NA,NA
987253,"PO BOX 425","KERNERSVILLE","NC",27285,NA,NA,253,"PO BOX 425, KERNERSVILLE, NC, 27285","No_Match",NA,NA,NA,NA
987254,"PO BOX 425","LADYSMITH","WI",54848,NA,NA,254,"PO BOX 425, LADYSMITH, WI, 54848","No_Match",NA,NA,NA,NA
987255,"PO BOX 425","LAKE CITY","SC",29560,NA,NA,255,"PO BOX 425, LAKE CITY, SC, 29560","No_Match",NA,NA,NA,NA
987256,"PO BOX 425","LEAVENWORTH","KS",66048,NA,NA,256,"PO BOX 425, LEAVENWORTH, KS, 66048","No_Match",NA,NA,NA,NA
987257,"PO BOX 425","LOGANDALE","NV",89021,NA,NA,257,"PO BOX 425, LOGANDALE, NV, 89021","No_Match",NA,NA,NA,NA
987258,"PO BOX 425","MINCO","OK",73059,NA,NA,258,"PO BOX 425, MINCO, OK, 73059","No_Match",NA,NA,NA,NA
987259,"PO BOX 425","SPRING VALLEY","NY",10977,NA,NA,259,"PO BOX 425, SPRING VALLEY, NY, 10977","No_Match",NA,NA,NA,NA
987260,"PO BOX 425","STANTON","KY",40380,NA,NA,260,"PO BOX 425, STANTON, KY, 40380","No_Match",NA,NA,NA,NA
987261,"PO BOX 425","STOWE","VT",5672,NA,NA,261,"PO BOX 425, STOWE, VT, 5672","No_Match",NA,NA,NA,NA
987262,"PO BOX 425","WARWICK","NY",10990,NA,NA,262,"PO BOX 425, WARWICK, NY, 10990","No_Match",NA,NA,NA,NA
987263,"PO BOX 425","WINCHESTER","TN",37398,NA,NA,263,"PO BOX 425, WINCHESTER, TN, 37398","No_Match",NA,NA,NA,NA
987264,"PO BOX 4251","BAYAMON","PR",958,NA,NA,264,"PO BOX 4251, BAYAMON, PR, 958","No_Match",NA,NA,NA,NA
987265,"PO BOX 4252","NEWARK","NJ",7112,NA,NA,265,"PO BOX 4252, NEWARK, NJ, 7112","No_Match",NA,NA,NA,NA
987266,"PO BOX 4253","BELLINGHAM","WA",98227,NA,NA,266,"PO BOX 4253, BELLINGHAM, WA, 98227","No_Match",NA,NA,NA,NA
987267,"PO BOX 4254","LYNCHBURG","VA",24502,NA,NA,267,"PO BOX 4254, LYNCHBURG, VA, 24502","No_Match",NA,NA,NA,NA
987268,"PO BOX 4255","GREENVILLE","MS",38703,NA,NA,268,"PO BOX 4255, GREENVILLE, MS, 38703","No_Match",NA,NA,NA,NA
987269,"PO BOX 4256","BROCKTON","MA",2301,NA,NA,269,"PO BOX 4256, BROCKTON, MA, 2301","No_Match",NA,NA,NA,NA
987270,"PO BOX 4257","SUWANEE","GA",30024,NA,NA,270,"PO BOX 4257, SUWANEE, GA, 30024","No_Match",NA,NA,NA,NA
987271,"PO BOX 425708","DENTON","TX",76204,NA,NA,271,"PO BOX 425708, DENTON, TX, 76204","No_Match",NA,NA,NA,NA
987272,"PO BOX 426","AVA","MO",65608,NA,NA,272,"PO BOX 426, AVA, MO, 65608","No_Match",NA,NA,NA,NA
987273,"PO BOX 426","BELTON","TX",76513,NA,NA,273,"PO BOX 426, BELTON, TX, 76513","No_Match",NA,NA,NA,NA
987274,"PO BOX 426","CHIMAYO","NM",87522,NA,NA,274,"PO BOX 426, CHIMAYO, NM, 87522","No_Match",NA,NA,NA,NA
987275,"PO BOX 426","COCOLALLA","ID",83869,NA,NA,275,"PO BOX 426, COCOLALLA, ID, 83869","No_Match",NA,NA,NA,NA
987276,"PO BOX 426","CONIFER","CO",80433,NA,NA,276,"PO BOX 426, CONIFER, CO, 80433","No_Match",NA,NA,NA,NA
987277,"PO BOX 426","COREY","CO",81414,NA,NA,277,"PO BOX 426, COREY, CO, 81414","No_Match",NA,NA,NA,NA
987278,"PO BOX 426","CROWLEY","LA",70527,NA,NA,278,"PO BOX 426, CROWLEY, LA, 70527","No_Match",NA,NA,NA,NA
987279,"PO BOX 426","DELEON","TX",76444,NA,NA,279,"PO BOX 426, DELEON, TX, 76444","No_Match",NA,NA,NA,NA
987280,"PO BOX 426","DENTON","TX",76202,NA,NA,280,"PO BOX 426, DENTON, TX, 76202","No_Match",NA,NA,NA,NA
987281,"PO BOX 426","GLOUCESTER","MA",1930,NA,NA,281,"PO BOX 426, GLOUCESTER, MA, 1930","No_Match",NA,NA,NA,NA
987282,"PO BOX 426","HILLSBOROUGH","NH",3244,NA,NA,282,"PO BOX 426, HILLSBOROUGH, NH, 3244","No_Match",NA,NA,NA,NA
987283,"PO BOX 426","ITTA BENA","MS",38941,NA,NA,283,"PO BOX 426, ITTA BENA, MS, 38941","No_Match",NA,NA,NA,NA
987284,"PO BOX 426","LA CROSSE","FL",32658,NA,NA,284,"PO BOX 426, LA CROSSE, FL, 32658","No_Match",NA,NA,NA,NA
987285,"PO BOX 426","MAYFIELD","MI",49666,NA,NA,285,"PO BOX 426, MAYFIELD, MI, 49666","No_Match",NA,NA,NA,NA
987286,"PO BOX 426","MIDDLETOWN","NJ",7748,NA,NA,286,"PO BOX 426, MIDDLETOWN, NJ, 7748","No_Match",NA,NA,NA,NA
987287,"PO BOX 426","PERRY","OK",73077,NA,NA,287,"PO BOX 426, PERRY, OK, 73077","No_Match",NA,NA,NA,NA
987288,"PO BOX 426","PHILLIPS","ME",4966,NA,NA,288,"PO BOX 426, PHILLIPS, ME, 4966","No_Match",NA,NA,NA,NA
987289,"PO BOX 426","SAND SPRINGS","OK",74063,NA,NA,289,"PO BOX 426, SAND SPRINGS, OK, 74063","No_Match",NA,NA,NA,NA
987290,"PO BOX 426","SHADY COVE","OR",97539,NA,NA,290,"PO BOX 426, SHADY COVE, OR, 97539","No_Match",NA,NA,NA,NA
987291,"PO BOX 426","STEPHENSON","MI",49887,NA,NA,291,"PO BOX 426, STEPHENSON, MI, 49887","No_Match",NA,NA,NA,NA
987292,"PO BOX 426","TETONIA","ID",83452,NA,NA,292,"PO BOX 426, TETONIA, ID, 83452","No_Match",NA,NA,NA,NA
987293,"PO BOX 426","TRUCKEE","CA",96160,NA,NA,293,"PO BOX 426, TRUCKEE, CA, 96160","No_Match",NA,NA,NA,NA
987294,"PO BOX 426","WOODINVILLE","WA",98072,NA,NA,294,"PO BOX 426, WOODINVILLE, WA, 98072","No_Match",NA,NA,NA,NA
987295,"PO BOX 426004","SAN FRANCISCO","CA",94142,NA,NA,295,"PO BOX 426004, SAN FRANCISCO, CA, 94142","No_Match",NA,NA,NA,NA
987296,"PO BOX 4262","WEST PALM BEACH","FL",33402,NA,NA,296,"PO BOX 4262, WEST PALM BEACH, FL, 33402","No_Match",NA,NA,NA,NA
987297,"PO BOX 4263","BILOXI","MS",39535,NA,NA,297,"PO BOX 4263, BILOXI, MS, 39535","No_Match",NA,NA,NA,NA
987298,"PO BOX 4264","BREMERTON","WA",98311,NA,NA,298,"PO BOX 4264, BREMERTON, WA, 98311","No_Match",NA,NA,NA,NA
987299,"PO BOX 4266","CHAPEL HILL","NC",27515,NA,NA,299,"PO BOX 4266, CHAPEL HILL, NC, 27515","No_Match",NA,NA,NA,NA
987300,"PO BOX 4266","VENTURA","CA",93007,NA,NA,300,"PO BOX 4266, VENTURA, CA, 93007","No_Match",NA,NA,NA,NA
987301,"PO BOX 426733","SAN FRANCISCO","CA",94142,NA,NA,301,"PO BOX 426733, SAN FRANCISCO, CA, 94142","No_Match",NA,NA,NA,NA
987302,"PO BOX 426846","SAN FRANCISCO","CA",94108,NA,NA,302,"PO BOX 426846, SAN FRANCISCO, CA, 94108","No_Match",NA,NA,NA,NA
987303,"PO BOX 427 -4195 DOUGLAS AVE","SEDALIA","CO",80135,NA,NA,303,"PO BOX 427 -4195 DOUGLAS AVE, SEDALIA, CO, 80135","No_Match",NA,NA,NA,NA
987304,"PO BOX 427","BEN BOLT","TX",78342,NA,NA,304,"PO BOX 427, BEN BOLT, TX, 78342","No_Match",NA,NA,NA,NA
987305,"PO BOX 427","CAMBRIA","WI",53923,NA,NA,305,"PO BOX 427, CAMBRIA, WI, 53923","No_Match",NA,NA,NA,NA
987306,"PO BOX 427","CONDON","OR",97823,NA,NA,306,"PO BOX 427, CONDON, OR, 97823","No_Match",NA,NA,NA,NA
987307,"PO BOX 427","DONNELLY","ID",83615,NA,NA,307,"PO BOX 427, DONNELLY, ID, 83615","No_Match",NA,NA,NA,NA
987308,"PO BOX 427","DRUMMOND","MT",59832,NA,NA,308,"PO BOX 427, DRUMMOND, MT, 59832","No_Match",NA,NA,NA,NA
987309,"PO BOX 427","FOREST KNOLLS","CA",94933,NA,NA,309,"PO BOX 427, FOREST KNOLLS, CA, 94933","No_Match",NA,NA,NA,NA
987310,"PO BOX 427","MARSTON MILLS","MA",2648,NA,NA,310,"PO BOX 427, MARSTON MILLS, MA, 2648","No_Match",NA,NA,NA,NA
987311,"PO BOX 427","NORTH GROSVENORDALE","CT",6255,NA,NA,311,"PO BOX 427, NORTH GROSVENORDALE, CT, 6255","No_Match",NA,NA,NA,NA
987312,"PO BOX 427","NORTHEAST","MD",21901,NA,NA,312,"PO BOX 427, NORTHEAST, MD, 21901","No_Match",NA,NA,NA,NA
987313,"PO BOX 427","OTTSVILLE","PA",18942,NA,NA,313,"PO BOX 427, OTTSVILLE, PA, 18942","No_Match",NA,NA,NA,NA
987314,"PO BOX 427","RAVENSDALE","WA",98051,NA,NA,314,"PO BOX 427, RAVENSDALE, WA, 98051","No_Match",NA,NA,NA,NA
987315,"PO BOX 427","RISING SUN","MD",21911,NA,NA,315,"PO BOX 427, RISING SUN, MD, 21911","No_Match",NA,NA,NA,NA
987316,"PO BOX 427","SOUTH LYON","MI",48178,NA,NA,316,"PO BOX 427, SOUTH LYON, MI, 48178","No_Match",NA,NA,NA,NA
987317,"PO BOX 427","ST JOSEPH","LA",71366,NA,NA,317,"PO BOX 427, ST JOSEPH, LA, 71366","No_Match",NA,NA,NA,NA
987318,"PO BOX 427","STANDARD","CA",95373,NA,NA,318,"PO BOX 427, STANDARD, CA, 95373","No_Match",NA,NA,NA,NA
987319,"PO BOX 427","TERRELL","TX",75160,NA,NA,319,"PO BOX 427, TERRELL, TX, 75160","No_Match",NA,NA,NA,NA
987320,"PO BOX 427","WEAVERVILLE","CA",96093,NA,NA,320,"PO BOX 427, WEAVERVILLE, CA, 96093","No_Match",NA,NA,NA,NA
987321,"PO BOX 42702","PHILADELPHIA","PA",19101,NA,NA,321,"PO BOX 42702, PHILADELPHIA, PA, 19101","No_Match",NA,NA,NA,NA
987322,"PO BOX 4271","AUSTINTOWN","OH",44515,NA,NA,322,"PO BOX 4271, AUSTINTOWN, OH, 44515","No_Match",NA,NA,NA,NA
987323,"PO BOX 4271","MEDIA","PA",19063,NA,NA,323,"PO BOX 4271, MEDIA, PA, 19063","No_Match",NA,NA,NA,NA
987324,"PO BOX 4271","SANTA CRUZ","CA",95063,NA,NA,324,"PO BOX 4271, SANTA CRUZ, CA, 95063","No_Match",NA,NA,NA,NA
987325,"PO BOX 42752","TUCSON","AZ",85733,NA,NA,325,"PO BOX 42752, TUCSON, AZ, 85733","No_Match",NA,NA,NA,NA
987326,"PO BOX 4277","WILMINGTON","DE",19807,NA,NA,326,"PO BOX 4277, WILMINGTON, DE, 19807","No_Match",NA,NA,NA,NA
987327,"PO BOX 428 2955 WILKINSON ROAD","RUSHLAND","PA",18956,NA,NA,327,"PO BOX 428 2955 WILKINSON ROAD, RUSHLAND, PA, 18956","No_Match",NA,NA,NA,NA
987328,"PO BOX 428","ALEDO","TX",76008,NA,NA,328,"PO BOX 428, ALEDO, TX, 76008","No_Match",NA,NA,NA,NA
987329,"PO BOX 428","AUGUSTA","NJ",7822,NA,NA,329,"PO BOX 428, AUGUSTA, NJ, 7822","No_Match",NA,NA,NA,NA
987330,"PO BOX 428","BLYTHE","CA",92226,NA,NA,330,"PO BOX 428, BLYTHE, CA, 92226","No_Match",NA,NA,NA,NA
987331,"PO BOX 428","BOGATA","NJ",7603,NA,NA,331,"PO BOX 428, BOGATA, NJ, 7603","No_Match",NA,NA,NA,NA
987332,"PO BOX 428","BROWNSVILLE","VT",5037,NA,NA,332,"PO BOX 428, BROWNSVILLE, VT, 5037","No_Match",NA,NA,NA,NA
987333,"PO BOX 428","CAMDEN","SC",29021,NA,NA,333,"PO BOX 428, CAMDEN, SC, 29021","No_Match",NA,NA,NA,NA
987334,"PO BOX 428","EAST GRANBY","CT",6206,NA,NA,334,"PO BOX 428, EAST GRANBY, CT, 6206","No_Match",NA,NA,NA,NA
987335,"PO BOX 428","HARVARD","MA",1451,NA,NA,335,"PO BOX 428, HARVARD, MA, 1451","No_Match",NA,NA,NA,NA
987336,"PO BOX 428","HUGER","SC",29450,NA,NA,336,"PO BOX 428, HUGER, SC, 29450","No_Match",NA,NA,NA,NA
987337,"PO BOX 428","LIDGERWOOD","ND",58053,NA,NA,337,"PO BOX 428, LIDGERWOOD, ND, 58053","No_Match",NA,NA,NA,NA
987338,"PO BOX 428","LLANO","TX",78643,NA,NA,338,"PO BOX 428, LLANO, TX, 78643","No_Match",NA,NA,NA,NA
987339,"PO BOX 428","MANZANITA","OR",97131,NA,NA,339,"PO BOX 428, MANZANITA, OR, 97131","No_Match",NA,NA,NA,NA
987340,"PO BOX 428","MCCAMEY","TX",79752,NA,NA,340,"PO BOX 428, MCCAMEY, TX, 79752","No_Match",NA,NA,NA,NA
987341,"PO BOX 428","MUMFORD","NY",14511,NA,NA,341,"PO BOX 428, MUMFORD, NY, 14511","No_Match",NA,NA,NA,NA
987342,"PO BOX 428","OAKHURST","NJ",7755,NA,NA,342,"PO BOX 428, OAKHURST, NJ, 7755","No_Match",NA,NA,NA,NA
987343,"PO BOX 428","PAAUILO","HI",96776,NA,NA,343,"PO BOX 428, PAAUILO, HI, 96776","No_Match",NA,NA,NA,NA
987344,"PO BOX 428","PIKEVILLE","KY",41501,NA,NA,344,"PO BOX 428, PIKEVILLE, KY, 41501","No_Match",NA,NA,NA,NA
987345,"PO BOX 428","ROSWELL","NM",88202,NA,NA,345,"PO BOX 428, ROSWELL, NM, 88202","No_Match",NA,NA,NA,NA
987346,"PO BOX 428","SALEM","NM",87941,NA,NA,346,"PO BOX 428, SALEM, NM, 87941","No_Match",NA,NA,NA,NA
987347,"PO BOX 428","SILVER GROVE","KY",41085,NA,NA,347,"PO BOX 428, SILVER GROVE, KY, 41085","No_Match",NA,NA,NA,NA
987348,"PO BOX 428","TRINITY","NC",27370,NA,NA,348,"PO BOX 428, TRINITY, NC, 27370","No_Match",NA,NA,NA,NA
987349,"PO BOX 428","VALLEY FORD","CA",94972,NA,NA,349,"PO BOX 428, VALLEY FORD, CA, 94972","No_Match",NA,NA,NA,NA
987350,"PO BOX 428","WARROAD","MN",56649,NA,NA,350,"PO BOX 428, WARROAD, MN, 56649","No_Match",NA,NA,NA,NA
987351,"PO BOX 428","WARROAD","MN",56763,NA,NA,351,"PO BOX 428, WARROAD, MN, 56763","No_Match",NA,NA,NA,NA
987352,"PO BOX 428","WILLISTON","SC",29853,NA,NA,352,"PO BOX 428, WILLISTON, SC, 29853","No_Match",NA,NA,NA,NA
987353,"PO BOX 4280","HILO","HI",96720,NA,NA,353,"PO BOX 4280, HILO, HI, 96720","No_Match",NA,NA,NA,NA
987354,"PO BOX 42817","PHILADELPHIA","PA",19101,NA,NA,354,"PO BOX 42817, PHILADELPHIA, PA, 19101","No_Match",NA,NA,NA,NA
987355,"PO BOX 42827","CHARLOTTE","NC",28215,NA,NA,355,"PO BOX 42827, CHARLOTTE, NC, 28215","No_Match",NA,NA,NA,NA
987356,"PO BOX 42828","ATLANTA","GA",30311,NA,NA,356,"PO BOX 42828, ATLANTA, GA, 30311","No_Match",NA,NA,NA,NA
987357,"PO BOX 4283","TAMPA","FL",33677,NA,NA,357,"PO BOX 4283, TAMPA, FL, 33677","No_Match",NA,NA,NA,NA
987358,"PO BOX 4283","WINCHESTER","VA",22604,NA,NA,358,"PO BOX 4283, WINCHESTER, VA, 22604","No_Match",NA,NA,NA,NA
987359,"PO BOX 4284","KAYENTA","AZ",86033,NA,NA,359,"PO BOX 4284, KAYENTA, AZ, 86033","No_Match",NA,NA,NA,NA
987360,"PO BOX 428424","DETROIT","MI",48228,NA,NA,360,"PO BOX 428424, DETROIT, MI, 48228","No_Match",NA,NA,NA,NA
987361,"PO BOX 4285","EAGLE","CO",81631,NA,NA,361,"PO BOX 4285, EAGLE, CO, 81631","No_Match",NA,NA,NA,NA
987362,"PO BOX 4285","VICTORIA","TX",77903,NA,NA,362,"PO BOX 4285, VICTORIA, TX, 77903","No_Match",NA,NA,NA,NA
987363,"PO BOX 42852","TUCSON","AZ",85733,NA,NA,363,"PO BOX 42852, TUCSON, AZ, 85733","No_Match",NA,NA,NA,NA
987364,"PO BOX 429","DRAKE","CO",80515,NA,NA,364,"PO BOX 429, DRAKE, CO, 80515","No_Match",NA,NA,NA,NA
987365,"PO BOX 429","FAIRFIELD","IL",62837,NA,NA,365,"PO BOX 429, FAIRFIELD, IL, 62837","No_Match",NA,NA,NA,NA
987366,"PO BOX 429","HALES CORNER","WI",53130,NA,NA,366,"PO BOX 429, HALES CORNER, WI, 53130","No_Match",NA,NA,NA,NA
987367,"PO BOX 429","MADISON","WV",25130,NA,NA,367,"PO BOX 429, MADISON, WV, 25130","No_Match",NA,NA,NA,NA
987368,"PO BOX 429","MANHEIM","PA",17545,NA,NA,368,"PO BOX 429, MANHEIM, PA, 17545","No_Match",NA,NA,NA,NA
987369,"PO BOX 429","OSCODA","MI",48750,NA,NA,369,"PO BOX 429, OSCODA, MI, 48750","No_Match",NA,NA,NA,NA
987370,"PO BOX 429","PALMER LAKE","CO",80133,NA,NA,370,"PO BOX 429, PALMER LAKE, CO, 80133","No_Match",NA,NA,NA,NA
987371,"PO BOX 429","SOMERVILLE","TX",77879,NA,NA,371,"PO BOX 429, SOMERVILLE, TX, 77879","No_Match",NA,NA,NA,NA
987372,"PO BOX 429","ST. JOHNS","AZ",85936,NA,NA,372,"PO BOX 429, ST. JOHNS, AZ, 85936","No_Match",NA,NA,NA,NA
987373,"PO BOX 429","STRAWN","TX",76475,NA,NA,373,"PO BOX 429, STRAWN, TX, 76475","No_Match",NA,NA,NA,NA
987374,"PO BOX 429","WEST POINT","VA",23181,NA,NA,374,"PO BOX 429, WEST POINT, VA, 23181","No_Match",NA,NA,NA,NA
987375,"PO BOX 4291","WHITTIER","CA",90607,NA,NA,375,"PO BOX 4291, WHITTIER, CA, 90607","No_Match",NA,NA,NA,NA
987376,"PO BOX 42921","FAYETTEVILLE","NC",28309,NA,NA,376,"PO BOX 42921, FAYETTEVILLE, NC, 28309","No_Match",NA,NA,NA,NA
987377,"PO BOX 4293","CEDAR HILL","TX",75106,NA,NA,377,"PO BOX 4293, CEDAR HILL, TX, 75106","No_Match",NA,NA,NA,NA
987378,"PO BOX 4293","NAPA","CA",94558,NA,NA,378,"PO BOX 4293, NAPA, CA, 94558","No_Match",NA,NA,NA,NA
987379,"PO BOX 42955","ATLANTA","GA",30311,NA,NA,379,"PO BOX 42955, ATLANTA, GA, 30311","No_Match",NA,NA,NA,NA
987380,"PO BOX 4297","FREDERIKSTED","VI",851,NA,NA,380,"PO BOX 4297, FREDERIKSTED, VI, 851","No_Match",NA,NA,NA,NA
987381,"PO BOX 42983","BAKERSFIELD","CA",93384,NA,NA,381,"PO BOX 42983, BAKERSFIELD, CA, 93384","No_Match",NA,NA,NA,NA
987382,"PO BOX 42987","ATLANTA","GA",30311,NA,NA,382,"PO BOX 42987, ATLANTA, GA, 30311","No_Match",NA,NA,NA,NA
987383,"PO BOX 4299","PRESCOTT","AZ",86302,NA,NA,383,"PO BOX 4299, PRESCOTT, AZ, 86302","No_Match",NA,NA,NA,NA
987384,"PO BOX 4299","WENATCHEE","WA",98807,NA,NA,384,"PO BOX 4299, WENATCHEE, WA, 98807","No_Match",NA,NA,NA,NA
987385,"PO BOX 42H","SCARSDALE","NY",10583,NA,NA,385,"PO BOX 42H, SCARSDALE, NY, 10583","No_Match",NA,NA,NA,NA
987386,"PO BOX 43","BRIDGEVILLE","PA",15017,NA,NA,386,"PO BOX 43, BRIDGEVILLE, PA, 15017","No_Match",NA,NA,NA,NA
987387,"PO BOX 43","BYERS","CO",80103,NA,NA,387,"PO BOX 43, BYERS, CO, 80103","No_Match",NA,NA,NA,NA
987388,"PO BOX 43","CENTRAL CITY","IA",52214,NA,NA,388,"PO BOX 43, CENTRAL CITY, IA, 52214","No_Match",NA,NA,NA,NA
987389,"PO BOX 43","CHIPPEWA BAY","NY",13623,NA,NA,389,"PO BOX 43, CHIPPEWA BAY, NY, 13623","No_Match",NA,NA,NA,NA
987390,"PO BOX 43","CISSNA PARK","IL",60924,NA,NA,390,"PO BOX 43, CISSNA PARK, IL, 60924","No_Match",NA,NA,NA,NA
987391,"PO BOX 43","CLINTONDALE","NY",12515,NA,NA,391,"PO BOX 43, CLINTONDALE, NY, 12515","No_Match",NA,NA,NA,NA
987392,"PO BOX 43","EL RITO","NM",87530,NA,NA,392,"PO BOX 43, EL RITO, NM, 87530","No_Match",NA,NA,NA,NA
987393,"PO BOX 43","FALLON","NV",89407,NA,NA,393,"PO BOX 43, FALLON, NV, 89407","No_Match",NA,NA,NA,NA
987394,"PO BOX 43","FOSSIL","OR",97830,NA,NA,394,"PO BOX 43, FOSSIL, OR, 97830","No_Match",NA,NA,NA,NA
987395,"PO BOX 43","GREENSBURG","IN",47240,NA,NA,395,"PO BOX 43, GREENSBURG, IN, 47240","No_Match",NA,NA,NA,NA
987396,"PO BOX 43","HARRISON","ME",4040,NA,NA,396,"PO BOX 43, HARRISON, ME, 4040","No_Match",NA,NA,NA,NA
987397,"PO BOX 43","HINGHAM","WI",53031,NA,NA,397,"PO BOX 43, HINGHAM, WI, 53031","No_Match",NA,NA,NA,NA
987398,"PO BOX 43","LAKELAND","MN",55001,NA,NA,398,"PO BOX 43, LAKELAND, MN, 55001","No_Match",NA,NA,NA,NA
987399,"PO BOX 43","LANDER","WY",82520,NA,NA,399,"PO BOX 43, LANDER, WY, 82520","No_Match",NA,NA,NA,NA
987400,"PO BOX 43","LEAVENWORTH","WA",98826,NA,NA,400,"PO BOX 43, LEAVENWORTH, WA, 98826","No_Match",NA,NA,NA,NA
987401,"PO BOX 43","LEMOORE","CA",93245,NA,NA,401,"PO BOX 43, LEMOORE, CA, 93245","No_Match",NA,NA,NA,NA
987402,"PO BOX 43","LIBERTY","PA",16930,NA,NA,402,"PO BOX 43, LIBERTY, PA, 16930","No_Match",NA,NA,NA,NA
987403,"PO BOX 43","LITTLEROCK","CA",93543,NA,NA,403,"PO BOX 43, LITTLEROCK, CA, 93543","No_Match",NA,NA,NA,NA
987404,"PO BOX 43","LOS ALAMOS","NM",87544,NA,NA,404,"PO BOX 43, LOS ALAMOS, NM, 87544","No_Match",NA,NA,NA,NA
987405,"PO BOX 43","LUGOFF","SC",29078,NA,NA,405,"PO BOX 43, LUGOFF, SC, 29078","No_Match",NA,NA,NA,NA
987406,"PO BOX 43","MCELHATTEN","PA",17748,NA,NA,406,"PO BOX 43, MCELHATTEN, PA, 17748","No_Match",NA,NA,NA,NA
987407,"PO BOX 43","OLEMA","CA",94950,NA,NA,407,"PO BOX 43, OLEMA, CA, 94950","No_Match",NA,NA,NA,NA
987408,"PO BOX 43","PARK FOREST","IL",60466,NA,NA,408,"PO BOX 43, PARK FOREST, IL, 60466","No_Match",NA,NA,NA,NA
987409,"PO BOX 43","PONCE DE LEON","FL",32455,NA,NA,409,"PO BOX 43, PONCE DE LEON, FL, 32455","No_Match",NA,NA,NA,NA
987410,"PO BOX 43","RAWLINS","WY",82301,NA,NA,410,"PO BOX 43, RAWLINS, WY, 82301","No_Match",NA,NA,NA,NA
987411,"PO BOX 43","ROSE HILL","KS",67133,NA,NA,411,"PO BOX 43, ROSE HILL, KS, 67133","No_Match",NA,NA,NA,NA
987412,"PO BOX 43","ROUND LAKE","NY",12151,NA,NA,412,"PO BOX 43, ROUND LAKE, NY, 12151","No_Match",NA,NA,NA,NA
987413,"PO BOX 43","SIERRA BLANCA","TX",79851,NA,NA,413,"PO BOX 43, SIERRA BLANCA, TX, 79851","No_Match",NA,NA,NA,NA
987414,"PO BOX 43","SILVERTON","CO",81433,NA,NA,414,"PO BOX 43, SILVERTON, CO, 81433","No_Match",NA,NA,NA,NA
987415,"PO BOX 43","THOMASTON","TX",77989,NA,NA,415,"PO BOX 43, THOMASTON, TX, 77989","No_Match",NA,NA,NA,NA
987416,"PO BOX 43","TIOGA","PA",16946,NA,NA,416,"PO BOX 43, TIOGA, PA, 16946","No_Match",NA,NA,NA,NA
987417,"PO BOX 43","TRYON","NC",28782,NA,NA,417,"PO BOX 43, TRYON, NC, 28782","No_Match",NA,NA,NA,NA
987418,"PO BOX 43","WINDOM","MN",56101,NA,NA,418,"PO BOX 43, WINDOM, MN, 56101","No_Match",NA,NA,NA,NA
987419,"PO BOX 43","WISCASSET","ME",4578,NA,NA,419,"PO BOX 43, WISCASSET, ME, 4578","No_Match",NA,NA,NA,NA
987420,"PO BOX 43","YODER","KS",67585,NA,NA,420,"PO BOX 43, YODER, KS, 67585","No_Match",NA,NA,NA,NA
987421,"PO BOX 430","AWENDAW","SC",29429,NA,NA,421,"PO BOX 430, AWENDAW, SC, 29429","No_Match",NA,NA,NA,NA
987422,"PO BOX 430","BIG TIMBER","MT",59011,NA,NA,422,"PO BOX 430, BIG TIMBER, MT, 59011","No_Match",NA,NA,NA,NA
987423,"PO BOX 430","CAIRO","NY",12413,NA,NA,423,"PO BOX 430, CAIRO, NY, 12413","No_Match",NA,NA,NA,NA
987424,"PO BOX 430","CLAYTON","CA",94517,NA,NA,424,"PO BOX 430, CLAYTON, CA, 94517","No_Match",NA,NA,NA,NA
987425,"PO BOX 430","FALLS CITY","TX",78113,NA,NA,425,"PO BOX 430, FALLS CITY, TX, 78113","No_Match",NA,NA,NA,NA
987426,"PO BOX 430","GERMANTOWN","WI",53022,NA,NA,426,"PO BOX 430, GERMANTOWN, WI, 53022","No_Match",NA,NA,NA,NA
987427,"PO BOX 430","HAGATNA","GU",96932,NA,NA,427,"PO BOX 430, HAGATNA, GU, 96932","No_Match",NA,NA,NA,NA
987428,"PO BOX 430","LA CONNER","WA",98257,NA,NA,428,"PO BOX 430, LA CONNER, WA, 98257","No_Match",NA,NA,NA,NA
987429,"PO BOX 430","MERKEL","TX",79536,NA,NA,429,"PO BOX 430, MERKEL, TX, 79536","No_Match",NA,NA,NA,NA
987430,"PO BOX 430","MOSS BEACH","CA",94038,NA,NA,430,"PO BOX 430, MOSS BEACH, CA, 94038","No_Match",NA,NA,NA,NA
987431,"PO BOX 430","SCHOHARIE","NY",12157,NA,NA,431,"PO BOX 430, SCHOHARIE, NY, 12157","No_Match",NA,NA,NA,NA
987432,"PO BOX 43008","BALTIMORE","MD",21236,NA,NA,432,"PO BOX 43008, BALTIMORE, MD, 21236","No_Match",NA,NA,NA,NA
987433,"PO BOX 430099","BIG PINE KEY","FL",33043,NA,NA,433,"PO BOX 430099, BIG PINE KEY, FL, 33043","No_Match",NA,NA,NA,NA
987434,"PO BOX 430146","BIG PINE KEY","FL",33043,NA,NA,434,"PO BOX 430146, BIG PINE KEY, FL, 33043","No_Match",NA,NA,NA,NA
987435,"PO BOX 430233","SOUTH MIAMI","FL",33243,NA,NA,435,"PO BOX 430233, SOUTH MIAMI, FL, 33243","No_Match",NA,NA,NA,NA
987436,"PO BOX 43024","ATLANTA","GA",30336,NA,NA,436,"PO BOX 43024, ATLANTA, GA, 30336","No_Match",NA,NA,NA,NA
987437,"PO BOX 4303","SPANAWAY","WA",98387,NA,NA,437,"PO BOX 4303, SPANAWAY, WA, 98387","No_Match",NA,NA,NA,NA
987438,"PO BOX 4303","WICHITA FALLS","TX",76308,NA,NA,438,"PO BOX 4303, WICHITA FALLS, TX, 76308","No_Match",NA,NA,NA,NA
987439,"PO BOX 4304","SUWANEE","GA",30024,NA,NA,439,"PO BOX 4304, SUWANEE, GA, 30024","No_Match",NA,NA,NA,NA
987440,"PO BOX 4305","PO BOX 4305","CT",6514,NA,NA,440,"PO BOX 4305, PO BOX 4305, CT, 6514","No_Match",NA,NA,NA,NA
987441,"PO BOX 4306","CASPER","WY",82604,NA,NA,441,"PO BOX 4306, CASPER, WY, 82604","No_Match",NA,NA,NA,NA
987442,"PO BOX 4306","COLUMBIA","SC",29240,NA,NA,442,"PO BOX 4306, COLUMBIA, SC, 29240","No_Match",NA,NA,NA,NA
987443,"PO BOX 4306","LAFAYETTE","LA",70502,NA,NA,443,"PO BOX 4306, LAFAYETTE, LA, 70502","No_Match",NA,NA,NA,NA
987444,"PO BOX 430662","PONTIAC","MI",48343,NA,NA,444,"PO BOX 430662, PONTIAC, MI, 48343","No_Match",NA,NA,NA,NA
987445,"PO BOX 43071","LOS ANGELES","CA",90043,NA,NA,445,"PO BOX 43071, LOS ANGELES, CA, 90043","No_Match",NA,NA,NA,NA
987446,"PO BOX 4308","PASO ROBLES","CA",93447,NA,NA,446,"PO BOX 4308, PASO ROBLES, CA, 93447","No_Match",NA,NA,NA,NA
987447,"PO BOX 430938","REDDING","CA",96001,NA,NA,447,"PO BOX 430938, REDDING, CA, 96001","No_Match",NA,NA,NA,NA
987448,"PO BOX 430938","SAN YSIDRO","CA",92143,NA,NA,448,"PO BOX 430938, SAN YSIDRO, CA, 92143","No_Match",NA,NA,NA,NA
987449,"PO BOX 431","ALDIE","VA",20105,NA,NA,449,"PO BOX 431, ALDIE, VA, 20105","No_Match",NA,NA,NA,NA
987450,"PO BOX 431","ATWATER","CA",95301,NA,NA,450,"PO BOX 431, ATWATER, CA, 95301","No_Match",NA,NA,NA,NA
987451,"PO BOX 431","BENTONVILLE","AR",72712,NA,NA,451,"PO BOX 431, BENTONVILLE, AR, 72712","No_Match",NA,NA,NA,NA
987452,"PO BOX 431","CARTERET","NJ",7008,NA,NA,452,"PO BOX 431, CARTERET, NJ, 7008","No_Match",NA,NA,NA,NA
987453,"PO BOX 431","CASCADE","CO",80809,NA,NA,453,"PO BOX 431, CASCADE, CO, 80809","No_Match",NA,NA,NA,NA
987454,"PO BOX 431","FERRON","UT",84523,NA,NA,454,"PO BOX 431, FERRON, UT, 84523","No_Match",NA,NA,NA,NA
987455,"PO BOX 431","FLORENCE","AL",35631,NA,NA,455,"PO BOX 431, FLORENCE, AL, 35631","No_Match",NA,NA,NA,NA
987456,"PO BOX 431","FREER","TX",78357,NA,NA,456,"PO BOX 431, FREER, TX, 78357","No_Match",NA,NA,NA,NA
987457,"PO BOX 431","GERMANTOWN","WI",53022,NA,NA,457,"PO BOX 431, GERMANTOWN, WI, 53022","No_Match",NA,NA,NA,NA
987458,"PO BOX 431","JACUMBA","CA",91934,NA,NA,458,"PO BOX 431, JACUMBA, CA, 91934","No_Match",NA,NA,NA,NA
987459,"PO BOX 431","JESUP","GA",31545,NA,NA,459,"PO BOX 431, JESUP, GA, 31545","No_Match",NA,NA,NA,NA
987460,"PO BOX 431","MONTCLAIR","NJ",7042,NA,NA,460,"PO BOX 431, MONTCLAIR, NJ, 7042","No_Match",NA,NA,NA,NA
987461,"PO BOX 431","NEAH BAY","WA",98357,NA,NA,461,"PO BOX 431, NEAH BAY, WA, 98357","No_Match",NA,NA,NA,NA
987462,"PO BOX 431","QUESTA","NM",87556,NA,NA,462,"PO BOX 431, QUESTA, NM, 87556","No_Match",NA,NA,NA,NA
987463,"PO BOX 431","TOWNSHEND","VT",5353,NA,NA,463,"PO BOX 431, TOWNSHEND, VT, 5353","No_Match",NA,NA,NA,NA
987464,"PO BOX 431","UPTON","WY",82730,NA,NA,464,"PO BOX 431, UPTON, WY, 82730","No_Match",NA,NA,NA,NA
987465,"PO BOX 431","WHITESBORO","NY",13492,NA,NA,465,"PO BOX 431, WHITESBORO, NY, 13492","No_Match",NA,NA,NA,NA
987466,"PO BOX 431","WHTIESBORO","NY",13492,NA,NA,466,"PO BOX 431, WHTIESBORO, NY, 13492","No_Match",NA,NA,NA,NA
987467,"PO BOX 431002","BROOKLYN PARK","MN",55443,NA,NA,467,"PO BOX 431002, BROOKLYN PARK, MN, 55443","No_Match",NA,NA,NA,NA
987468,"PO BOX 4311","CAMP CONNELL","CA",95223,NA,NA,468,"PO BOX 4311, CAMP CONNELL, CA, 95223","No_Match",NA,NA,NA,NA
987469,"PO BOX 4312","PALESTINE","TX",75802,NA,NA,469,"PO BOX 4312, PALESTINE, TX, 75802","No_Match",NA,NA,NA,NA
987470,"PO BOX 4313","APOPKA","FL",32704,NA,NA,470,"PO BOX 4313, APOPKA, FL, 32704","No_Match",NA,NA,NA,NA
987471,"PO BOX 43130","RICHMOND HTS","OH",44143,NA,NA,471,"PO BOX 43130, RICHMOND HTS, OH, 44143","No_Match",NA,NA,NA,NA
987472,"PO BOX 4314","PALMER","AK",99645,NA,NA,472,"PO BOX 4314, PALMER, AK, 99645","No_Match",NA,NA,NA,NA
987473,"PO BOX 431410","MIAMI","FL",33243,NA,NA,473,"PO BOX 431410, MIAMI, FL, 33243","No_Match",NA,NA,NA,NA
987474,"PO BOX 431433","BROOKLYN PARK","MN",55443,NA,NA,474,"PO BOX 431433, BROOKLYN PARK, MN, 55443","No_Match",NA,NA,NA,NA
987475,"PO BOX 43145","BROOKLYN PARK","MN",55443,NA,NA,475,"PO BOX 43145, BROOKLYN PARK, MN, 55443","No_Match",NA,NA,NA,NA
987476,"PO BOX 43157","WASHINGTON","DC",20010,NA,NA,476,"PO BOX 43157, WASHINGTON, DC, 20010","No_Match",NA,NA,NA,NA
987477,"PO BOX 431751","BIG PINE KEY","FL",33043,NA,NA,477,"PO BOX 431751, BIG PINE KEY, FL, 33043","No_Match",NA,NA,NA,NA
987478,"PO BOX 4318","CHINO VALLEY","AZ",86323,NA,NA,478,"PO BOX 4318, CHINO VALLEY, AZ, 86323","No_Match",NA,NA,NA,NA
987479,"PO BOX 4318","STOCKDALE","TX",78160,NA,NA,479,"PO BOX 4318, STOCKDALE, TX, 78160","No_Match",NA,NA,NA,NA
987480,"PO BOX 43191","BROOKLYN PARK","AZ",55443,NA,NA,480,"PO BOX 43191, BROOKLYN PARK, AZ, 55443","No_Match",NA,NA,NA,NA
987481,"PO BOX 43191","BROOKLYN PARK","MN",55443,NA,NA,481,"PO BOX 43191, BROOKLYN PARK, MN, 55443","No_Match",NA,NA,NA,NA
987482,"PO BOX 431950","BIG PINE KEY","FL",33043,NA,NA,482,"PO BOX 431950, BIG PINE KEY, FL, 33043","No_Match",NA,NA,NA,NA
987483,"PO BOX 432","BENKELMAN","NE",69021,NA,NA,483,"PO BOX 432, BENKELMAN, NE, 69021","No_Match",NA,NA,NA,NA
987484,"PO BOX 432","BRONSTON","KY",42518,NA,NA,484,"PO BOX 432, BRONSTON, KY, 42518","No_Match",NA,NA,NA,NA
987485,"PO BOX 432","BROWNSVILLE","CA",95919,NA,NA,485,"PO BOX 432, BROWNSVILLE, CA, 95919","No_Match",NA,NA,NA,NA
987486,"PO BOX 432","CLARKSTON","GA",30021,NA,NA,486,"PO BOX 432, CLARKSTON, GA, 30021","No_Match",NA,NA,NA,NA
987487,"PO BOX 432","CLAYSBURG","PA",16625,NA,NA,487,"PO BOX 432, CLAYSBURG, PA, 16625","No_Match",NA,NA,NA,NA
987488,"PO BOX 432","CONCHO","AZ",85924,NA,NA,488,"PO BOX 432, CONCHO, AZ, 85924","No_Match",NA,NA,NA,NA
987489,"PO BOX 432","CRAB ORCHARD","WV",25827,NA,NA,489,"PO BOX 432, CRAB ORCHARD, WV, 25827","No_Match",NA,NA,NA,NA
987490,"PO BOX 432","GRANDVIEW","MO",64030,NA,NA,490,"PO BOX 432, GRANDVIEW, MO, 64030","No_Match",NA,NA,NA,NA
987491,"PO BOX 432","IDAHO SPRINGS","CO",80452,NA,NA,491,"PO BOX 432, IDAHO SPRINGS, CO, 80452","No_Match",NA,NA,NA,NA
987492,"PO BOX 432","INDIANOLA","WA",98342,NA,NA,492,"PO BOX 432, INDIANOLA, WA, 98342","No_Match",NA,NA,NA,NA
987493,"PO BOX 432","MIRANDA","CA",95553,NA,NA,493,"PO BOX 432, MIRANDA, CA, 95553","No_Match",NA,NA,NA,NA
987494,"PO BOX 432","NEGLEY","OH",44441,NA,NA,494,"PO BOX 432, NEGLEY, OH, 44441","No_Match",NA,NA,NA,NA
987495,"PO BOX 432","NORWOOD","NC",28128,NA,NA,495,"PO BOX 432, NORWOOD, NC, 28128","No_Match",NA,NA,NA,NA
987496,"PO BOX 432","QUAKERTOWN","NJ",8868,NA,NA,496,"PO BOX 432, QUAKERTOWN, NJ, 8868","No_Match",NA,NA,NA,NA
987497,"PO BOX 432","ST THOMAS","VI",804,NA,NA,497,"PO BOX 432, ST THOMAS, VI, 804","No_Match",NA,NA,NA,NA
987498,"PO BOX 432","TILTON","NH",3276,NA,NA,498,"PO BOX 432, TILTON, NH, 3276","No_Match",NA,NA,NA,NA
987499,"PO BOX 432","WALTERBORO","SC",29488,NA,NA,499,"PO BOX 432, WALTERBORO, SC, 29488","No_Match",NA,NA,NA,NA
987500,"PO BOX 432","WILKESON","WA",98396,NA,NA,500,"PO BOX 432, WILKESON, WA, 98396","No_Match",NA,NA,NA,NA
