"ID","Address","City","State","Zip","lat","long","id","input_address","match_indicator","match_type","matched_address","tiger_line_id","tiger_side"
60001,"1101 E HECTOR ST UNIT 106W","CONSHOHOCKEN","PA",19428,40.075423309,-75.288089552,1,"1101 E HECTOR ST UNIT 106W, CONSHOHOCKEN, PA, 19428","Match","Non_Exact","1101 E HECTOR ST, CONSHOHOCKEN, PA, 19428",135086208,"R"
60002,"1101 E HECTOR ST","CONSHOHOCKEN","PA",19428,40.075423309,-75.288089552,2,"1101 E HECTOR ST, CONSHOHOCKEN, PA, 19428","Match","Exact","1101 E HECTOR ST, CONSHOHOCKEN, PA, 19428",135086208,"R"
60003,"1101 E HWY 252","HUNTINGTON","AR",72940,35.1097629340001,-94.2430954769999,3,"1101 E HWY 252, HUNTINGTON, AR, 72940","Match","Exact","1101 E HWY 252, HUNTINGTON, AR, 72940",56158880,"L"
60004,"1101 E MITCHELL ST","TUCSON","AZ",85719,32.255738663,-110.954474664,4,"1101 E MITCHELL ST, TUCSON, AZ, 85719","Match","Exact","1101 E MITCHELL ST, TUCSON, AZ, 85719",121170359,"L"
60005,"1101 E MONAHANS ST","ODESSA","TX",79761,31.8359146180001,-102.344314713,5,"1101 E MONAHANS ST, ODESSA, TX, 79761","Match","Exact","1101 E MONAHANS ST, ODESSA, TX, 79761",139432848,"L"
60006,"1101 E MONAHANS","ODESSA","TX",79761,31.8359146180001,-102.344314713,6,"1101 E MONAHANS, ODESSA, TX, 79761","Match","Non_Exact","1101 E MONAHANS ST, ODESSA, TX, 79761",139432848,"L"
60007,"1101 E OAK AVE","LA GRANGE PARK","IL",60526,41.8254623890001,-87.862265764,7,"1101 E OAK AVE, LA GRANGE PARK, IL, 60526","Match","Non_Exact","1101 E OAK AVE, LA GRANGE PARK, IL, 60526",111790193,"L"
60008,"1101 E PARMER LN - 111","AUSTIN","TX",78753,30.398498605,-97.654751045,8,"1101 E PARMER LN - 111, AUSTIN, TX, 78753","Match","Non_Exact","1101 E PARMER LN, AUSTIN, TX, 78753",624609959,"R"
60009,"1101 E PATTEN DRIVE","PALATINE","IL",60074,42.120564132,-88.015798393,9,"1101 E PATTEN DRIVE, PALATINE, IL, 60074","Match","Exact","1101 E PATTEN DR, PALATINE, IL, 60074",111696607,"R"
60010,"1101 E PATTERSON ST","TAMPA","FL",33604,28.017443889,-82.448059691,10,"1101 E PATTERSON ST, TAMPA, FL, 33604","Match","Exact","1101 E PATTERSON ST, TAMPA, FL, 33604",104519812,"R"
60011,"1101 E REDONDO BLVD","INGLEWOOD","CA",90302,33.9752673580001,-118.336730348,11,"1101 E REDONDO BLVD, INGLEWOOD, CA, 90302","Match","Exact","1101 E REDONDO BLVD, INGLEWOOD, CA, 90302",241242536,"L"
60012,"1101 E ROSEMONT PL","ANDOVER","KS",67002,37.6946601390001,-97.123847477,12,"1101 E ROSEMONT PL, ANDOVER, KS, 67002","Match","Exact","1101 ROSEMONT PL, ANDOVER, KS, 67002",608242362,"R"
60013,"1101 E VIA WANDA","LONG BEACH","CA",90805,33.850013856,-118.178547524,13,"1101 E VIA WANDA, LONG BEACH, CA, 90805","Match","Exact","1101 E VIA WANDA, LONG BEACH, CA, 90805",141684727,"L"
60014,"1101 EAST 2ND ST / 2ND FLOOR","PLAINFIELD","NJ",7062,40.6330530760001,-74.409794076,14,"1101 EAST 2ND ST / 2ND FLOOR, PLAINFIELD, NJ, 7062","Match","Exact","1101 E 2ND ST, PLAINFIELD, NJ, 07062",60567122,"L"
60015,"1101 EAST 2ND ST","DALHART","TX",79022,36.0643169360001,-102.511277445,15,"1101 EAST 2ND ST, DALHART, TX, 79022","Match","Exact","1101 E 2ND ST, DALHART, TX, 79022",164381025,"L"
60016,"1101 EAST 36TH STREET SUITE 3","CHARLOTTE","NC",28205,35.2429292910001,-80.79893373,16,"1101 EAST 36TH STREET SUITE 3, CHARLOTTE, NC, 28205","Match","Exact","1101 E 36TH ST, CHARLOTTE, NC, 28205",70480260,"L"
60017,"1101 EAST ARMY POST","DES MOINES","IA",50315,41.526328644,-93.5998226309999,17,"1101 EAST ARMY POST, DES MOINES, IA, 50315","Match","Non_Exact","1101 E ARMY POST RD, DES MOINES, IA, 50315",65819118,"R"
60018,"1101 EAST CREEK COURT","COVINGTON","LA",70435,30.5043512180001,-90.161022583,18,"1101 EAST CREEK COURT, COVINGTON, LA, 70435","Match","Exact","1101 E CREEK CT, COVINGTON, LA, 70435",651181750,"L"
60019,"1101 EAST ELLIOT ROAD","GILBERT","AZ",85234,NA,NA,19,"1101 EAST ELLIOT ROAD, GILBERT, AZ, 85234","No_Match",NA,NA,NA,NA
60020,"1101 EAST HACKAMORE DRIVE","DRAPER","UT",84020,40.5019855090001,-111.858973518,20,"1101 EAST HACKAMORE DRIVE, DRAPER, UT, 84020","Match","Exact","1101 E HACKAMORE DR, DRAPER, UT, 84020",176123528,"R"
60021,"1101 EAST HOME AVENUE UNIT 2C","HARTSVILLE","SC",29550,34.382596646,-80.0497020079999,21,"1101 EAST HOME AVENUE UNIT 2C, HARTSVILLE, SC, 29550","Match","Exact","1101 E HOME AVE, HARTSVILLE, SC, 29550",78414952,"R"
60022,"1101 EAST STANFORD","SPRINGFIELD","MO",65807,37.1839137000001,-93.278831488,22,"1101 EAST STANFORD, SPRINGFIELD, MO, 65807","Match","Non_Exact","1101 E STANFORD ST, SPRINGFIELD, MO, 65807",76678935,"L"
60023,"1101 EASTERN BLVD","CLARKSVILLE","IN",47129,38.3046061800001,-85.766051827,23,"1101 EASTERN BLVD, CLARKSVILLE, IN, 47129","Match","Exact","1101 EASTERN BLVD, CLARKSVILLE, IN, 47129",64877514,"L"
60024,"1101 EDGEHILL AVENUE SUITE 812","NASHVILLE","TN",37203,36.14234155,-86.7855096219999,24,"1101 EDGEHILL AVENUE SUITE 812, NASHVILLE, TN, 37203","Match","Exact","1101 EDGEHILL AVE, NASHVILLE, TN, 37203",97190652,"L"
60025,"1101 EDITH CIR","RICHARDSON","TX",75080,32.9769413550001,-96.757621726,25,"1101 EDITH CIR, RICHARDSON, TX, 75080","Match","Exact","1101 EDITH CIR, RICHARDSON, TX, 75080",102896408,"R"
60026,"1101 EL CAMPO DRIVE","SAN JUAN","TX",78589,26.2016057600001,-98.143771263,26,"1101 EL CAMPO DRIVE, SAN JUAN, TX, 78589","Match","Exact","1101 EL CAMPO DR, SAN JUAN, TX, 78589",71525582,"L"
60027,"1101 ELBANK AVE","BALTIMORE","MD",21239,39.364689007,-76.596492648,27,"1101 ELBANK AVE, BALTIMORE, MD, 21239","Match","Exact","1101 ELBANK AVE, BALTIMORE, MD, 21239",206445931,"R"
60028,"1101 ELDER STREET APARTMENT 208","HOUSTON","TX",77007,29.768430654,-95.367614615,28,"1101 ELDER STREET APARTMENT 208, HOUSTON, TX, 77007","Match","Exact","1101 ELDER ST, HOUSTON, TX, 77007",96352554,"L"
60029,"1101 ELISA GINA TER","LAWRENCEVILLE","GA",30043,33.9978394930001,-84.039705188,29,"1101 ELISA GINA TER, LAWRENCEVILLE, GA, 30043","Match","Exact","1101 ELISA GINA TER, LAWRENCEVILLE, GA, 30043",623998105,"L"
60030,"1101 ELIZABETH STREET","NEW SMYRNA","FL",32168,29.000565141,-80.937405279,30,"1101 ELIZABETH STREET, NEW SMYRNA, FL, 32168","Match","Exact","1101 ELIZABETH ST, NEW SMYRNA, FL, 32168",94532446,"L"
60031,"1101 ELM ST","CODY","WY",82414,44.531381174,-109.067140978,31,"1101 ELM ST, CODY, WY, 82414","Match","Non_Exact","1101 ELM AVE, CODY, WY, 82414",149205124,"R"
60032,"1101 EMERYWOOD CT  STE B","LAS VEGAS","NV",89117,36.158881525,-115.276871526,32,"1101 EMERYWOOD CT  STE B, LAS VEGAS, NV, 89117","Match","Exact","1101 EMERYWOOD CT, LAS VEGAS, NV, 89117",639385374,"R"
60033,"1101 EUCLID STREET NW APT 13","WASHINGTON","MD",20009,NA,NA,33,"1101 EUCLID STREET NW APT 13, WASHINGTON, MD, 20009","No_Match",NA,NA,NA,NA
60034,"1101 EXCHANGE PLACE 1023","DURHAM","NC",27713,35.9105035850001,-78.915857659,34,"1101 EXCHANGE PLACE 1023, DURHAM, NC, 27713","Match","Exact","1101 EXCHANGE PL, DURHAM, NC, 27713",71769448,"L"
60035,"1101 FAIRMONT ST NW NO 2","WASHINGTON","DC",20009,38.924763936,-77.027251049,35,"1101 FAIRMONT ST NW NO 2, WASHINGTON, DC, 20009","Match","Exact","1101 FAIRMONT ST NW, WASHINGTON, DC, 20009",76224236,"R"
60036,"1101 FAIRVIEW STREET","DURHAM","NC",27707,35.9905306470001,-78.918015396,36,"1101 FAIRVIEW STREET, DURHAM, NC, 27707","Match","Exact","1101 FAIRVIEW ST, DURHAM, NC, 27707",71740321,"L"
60037,"1101 FAIRWAY DR","CHESAPEAKE","VA",23320,36.753291604,-76.219585237,37,"1101 FAIRWAY DR, CHESAPEAKE, VA, 23320","Match","Exact","1101 FAIRWAY DR, CHESAPEAKE, VA, 23320",121777645,"R"
60038,"1101 FARMINGTON DR APT 111","VACAVILLE","CA",95687,38.334582783,-121.957770292,38,"1101 FARMINGTON DR APT 111, VACAVILLE, CA, 95687","Match","Exact","1101 FARMINGTON DR, VACAVILLE, CA, 95687",192603379,"L"
60039,"1101 FENMORE DRIVE","CINCINNATI","OH",45237,39.1802136480001,-84.4794522,39,"1101 FENMORE DRIVE, CINCINNATI, OH, 45237","Match","Exact","1101 FENMORE DR, CINCINNATI, OH, 45237",103928560,"L"
60040,"1101 FLOWER ST","DELHI","CA",95315,NA,NA,40,"1101 FLOWER ST, DELHI, CA, 95315","No_Match",NA,NA,NA,NA
60041,"1101 FRAZIER ROAD","MEBANE","NC",27302,36.0993890990001,-79.214268518,41,"1101 FRAZIER ROAD, MEBANE, NC, 27302","Match","Non_Exact","1101 N FRAZIER RD, MEBANE, NC, 27302",627866475,"R"
60042,"1101 FRENCH VALLEY RD","RUSSELL SPRINGS","KY",42642,37.0321798750001,-85.0926249029999,42,"1101 FRENCH VALLEY RD, RUSSELL SPRINGS, KY, 42642","Match","Exact","1101 FRENCH VALLEY RD, RUSSELL SPRINGS, KY, 42642",639971474,"L"
60043,"1101 FRONT PORCH CIRCLE","HUNTSVILLE","AL",35806,34.7403769150001,-86.698806454,43,"1101 FRONT PORCH CIRCLE, HUNTSVILLE, AL, 35806","Match","Non_Exact","1101 FRONT PORCH CIR NW, HUNTSVILLE, AL, 35806",648156140,"L"
60044,"1101 FULLERTON","BUFFALO","WY",82834,44.332822208,-106.708374389,44,"1101 FULLERTON, BUFFALO, WY, 82834","Match","Non_Exact","1101 FULLERTON AVE, BUFFALO, WY, 82834",147310003,"L"
60045,"1101 GEORGETOWN DRIVE","LYNCHBURG","VA",24501,37.4172524210001,-79.2184157739999,45,"1101 GEORGETOWN DRIVE, LYNCHBURG, VA, 24501","Match","Exact","1101 GEORGETOWN DR, LYNCHBURG, VA, 24501",62737381,"R"
60046,"1101 GETTYSBURG AVE APT 1239","CLOVIS","CA",93612,36.8012423640001,-119.695855694,46,"1101 GETTYSBURG AVE APT 1239, CLOVIS, CA, 93612","Match","Exact","1101 GETTYSBURG AVE, CLOVIS, CA, 93612",197584966,"L"
60047,"1101 GETTYSBURG DR","CHEYENNE","WY",82001,41.135742501,-104.741815521,47,"1101 GETTYSBURG DR, CHEYENNE, WY, 82001","Match","Exact","1101 GETTYSBURG DR, CHEYENNE, WY, 82001",160152928,"R"
60048,"1101 GLASGOW ROAD","BOZEMAN","MT",59715,45.653034597,-110.844849465,48,"1101 GLASGOW ROAD, BOZEMAN, MT, 59715","Match","Exact","1101 GLASGOW RD, BOZEMAN, MT, 59715",163549279,"L"
60049,"1101 GLENLAKE AVE","PARK RIDGE","IL",60068,41.9901079160001,-87.839927723,49,"1101 GLENLAKE AVE, PARK RIDGE, IL, 60068","Match","Exact","1101 GLENLAKE AVE, PARK RIDGE, IL, 60068",111732800,"L"
60050,"1101 GLENVIEW DR","ELIZABETHTON","TN",37643,36.3544141420001,-82.201853552,50,"1101 GLENVIEW DR, ELIZABETHTON, TN, 37643","Match","Exact","1101 GLENVIEW DR, ELIZABETHTON, TN, 37643",43042137,"R"
60051,"1101 GOLDEN BEAR DR","ANCHORAGE","AK",99504,NA,NA,51,"1101 GOLDEN BEAR DR, ANCHORAGE, AK, 99504","No_Match",NA,NA,NA,NA
60052,"1101 GRANITE NW","ALBUQUERQUE","NM",87102,35.094897431,-106.657936173,52,"1101 GRANITE NW, ALBUQUERQUE, NM, 87102","Match","Non_Exact","1101 GRANITE AVE NW, ALBUQUERQUE, NM, 87102",206706325,"R"
60053,"1101 GRANTIE PASS","CONROE","TX",77304,30.2978230410001,-95.4882860719999,53,"1101 GRANTIE PASS, CONROE, TX, 77304","Match","Non_Exact","1101 GRANITE PASS, CONROE, TX, 77304",625263053,"R"
60054,"1101 GREAT OAKS LANE","FREDERICKSBURG","VA",22401,38.3015887500001,-77.4966715639999,54,"1101 GREAT OAKS LANE, FREDERICKSBURG, VA, 22401","Match","Exact","1101 GREAT OAKS LN, FREDERICKSBURG, VA, 22401",635879693,"L"
60055,"1101 GREENOUGH DRIVE WEST APT F5","MISSSOULA","MT",59801,46.876445995,-113.981181995,55,"1101 GREENOUGH DRIVE WEST APT F5, MISSSOULA, MT, 59801","Match","Non_Exact","1101 GREENOUGH DR W, MISSOULA, MT, 59802",637477305,"L"
60056,"1101 GRENN MEADOWS","LANCASTER","OH",43130,NA,NA,56,"1101 GRENN MEADOWS, LANCASTER, OH, 43130","No_Match",NA,NA,NA,NA
60057,"1101 GRETCHEN LANE","WICHITA","KS",67208,NA,NA,57,"1101 GRETCHEN LANE, WICHITA, KS, 67208","No_Match",NA,NA,NA,NA
60058,"1101 GREY HOLLOW AVENUE","NO. LAS VEGAS","NV",89031,36.2648939910001,-115.156516624,58,"1101 GREY HOLLOW AVENUE, NO. LAS VEGAS, NV, 89031","Match","Exact","1101 GREY HOLLOW AVE, N LAS VEGAS, NV, 89031",201909901,"L"
60059,"1101 GULF BREEZE PARKWAY","GULF BREEZE","FL",32561,30.358694525,-87.155924458,59,"1101 GULF BREEZE PARKWAY, GULF BREEZE, FL, 32561","Match","Exact","1101 GULF BREEZE PKWY, GULF BREEZE, FL, 32561",636383408,"R"
60060,"1101 HARWOOD HIILS COURT","HENDERSON","NV",89002,35.9943953550001,-114.970049824,60,"1101 HARWOOD HIILS COURT, HENDERSON, NV, 89002","Match","Non_Exact","1101 HARWOOD HILLS CT, HENDERSON, NV, 89002",650199147,"R"
60061,"1101 HAUGHTON GREEN CT","APEX","NC",27502,35.7231378110001,-78.869415445,61,"1101 HAUGHTON GREEN CT, APEX, NC, 27502","Match","Exact","1101 HAUGHTON GREEN CT, APEX, NC, 27502",208354428,"R"
60062,"1101 HAXALL POINT UNIT 406","RICHMOND","VA",23219,37.533635341,-77.437975611,62,"1101 HAXALL POINT UNIT 406, RICHMOND, VA, 23219","Match","Exact","1101 HAXALL PT, RICHMOND, VA, 23219",652495412,"R"
60063,"1101 HAYNES ST STE 201","RALEIGH","NC",27604,35.794358781,-78.637315735,63,"1101 HAYNES ST STE 201, RALEIGH, NC, 27604","Match","Exact","1101 HAYNES ST, RALEIGH, NC, 27604",72507543,"L"
60064,"1101 HELEN ST","MIDLAND","MI",48640,43.624245532,-84.239968447,64,"1101 HELEN ST, MIDLAND, MI, 48640","Match","Exact","1101 HELEN ST, MIDLAND, MI, 48640",81198096,"L"
60065,"1101 HENRY DR","ALABASTER","AL",35007,33.206472798,-86.819044538,65,"1101 HENRY DR, ALABASTER, AL, 35007","Match","Exact","1101 HENRY DR, ALABASTER, AL, 35007",609316343,"R"
60066,"1101 HERMOSA DRIVE","ROCKLEDGE","FL",32955,28.324812874,-80.750830513,66,"1101 HERMOSA DRIVE, ROCKLEDGE, FL, 32955","Match","Exact","1101 HERMOSA DR, ROCKLEDGE, FL, 32955",93915927,"L"
60067,"1101 HESTON STREET","TOLEDO","OH",43607,41.651241542,-83.575357927,67,"1101 HESTON STREET, TOLEDO, OH, 43607","Match","Exact","1101 HESTON ST, TOLEDO, OH, 43607",33938333,"L"
60068,"1101 HIGGINS PLACE","ROCKVILLE","MD",20852,39.0641306370001,-77.117558173,68,"1101 HIGGINS PLACE, ROCKVILLE, MD, 20852","Match","Exact","1101 HIGGINS PL, ROCKVILLE, MD, 20852",642722459,"L"
60069,"1101 HIGHLAND COURT","STEWERTSVILLE","NJ",8886,40.6979556860001,-75.141701868,69,"1101 HIGHLAND COURT, STEWERTSVILLE, NJ, 8886","Match","Non_Exact","1101 HIGHLAND CT, STEWARTSVILLE, NJ, 08886",618413518,"R"
60070,"1101 HILL ST","SOUTH HILL","VA",23970,36.728177171,-78.146720084,70,"1101 HILL ST, SOUTH HILL, VA, 23970","Match","Exact","1101 HILL ST, SOUTH HILL, VA, 23970",54303803,"L"
60071,"1101 HILL","JOPLIN","MO",64801,NA,NA,71,"1101 HILL, JOPLIN, MO, 64801","No_Match",NA,NA,NA,NA
60072,"1101 HILLCREST COURT","HOLLYWOOD","FL",33021,26.0009814090001,-80.193083449,72,"1101 HILLCREST COURT, HOLLYWOOD, FL, 33021","Match","Exact","1101 HILLCREST CT, HOLLYWOOD, FL, 33021",114763069,"L"
60073,"1101 HILLSBORO ST","FAYETTEVILLE","NC",28301,35.0742403250001,-78.883161534,73,"1101 HILLSBORO ST, FAYETTEVILLE, NC, 28301","Match","Exact","1101 HILLSBORO ST, FAYETTEVILLE, NC, 28301",64201054,"L"
60074,"1101 HOLLY LANE","MIDWEST CITY","OK",73110,35.4758498470001,-97.3815993379999,74,"1101 HOLLY LANE, MIDWEST CITY, OK, 73110","Match","Non_Exact","1101 S HOLLY LN, MIDWEST CITY, OK, 73110",100438559,"L"
60075,"1101 HOOVER WAY","HANFORD","CA",93230,36.343112569,-119.627211678,75,"1101 HOOVER WAY, HANFORD, CA, 93230","Match","Exact","1101 HOOVER WAY, HANFORD, CA, 93230",197995336,"L"
60076,"1101 HORIZON DR STE 108","FAIRFIELD","CA",94533,38.27450487,-122.011232962,76,"1101 HORIZON DR STE 108, FAIRFIELD, CA, 94533","Match","Exact","1101 HORIZON DR, FAIRFIELD, CA, 94533",192579854,"L"
60077,"1101 HOYT AVE W","SAINT PAUL","MN",55108,44.988339985,-93.1466671109999,77,"1101 HOYT AVE W, SAINT PAUL, MN, 55108","Match","Exact","1101 HOYT AVE W, SAINT PAUL, MN, 55108",97641812,"R"
60078,"1101 HUGH WALLIS RD S STE 205","LAFAYETTE","LA",70508,30.190940691,-91.999525247,78,"1101 HUGH WALLIS RD S STE 205, LAFAYETTE, LA, 70508","Match","Exact","1101 HUGH WALLIS RD S, LAFAYETTE, LA, 70508",85625186,"R"
60079,"1101 HWY 174 LOT 15","RIO VISTA","TX",76093,32.243393455,-97.381825292,79,"1101 HWY 174 LOT 15, RIO VISTA, TX, 76093","Match","Non_Exact","1101 STATE HWY 174, RIO VISTA, TX, 76093",653734240,"R"
60080,"1101 INE JOHNSON TRAIL","MORGANTON","NC",28655,35.848328694,-81.673506317,80,"1101 INE JOHNSON TRAIL, MORGANTON, NC, 28655","Match","Exact","1101 INE JOHNSON TRL, MORGANTON, NC, 28655",37184446,"L"
60081,"1101 IOWA DRIVE","LECLAIRE","IA",52753,41.5907707160001,-90.3553241339999,81,"1101 IOWA DRIVE, LECLAIRE, IA, 52753","Match","Exact","1101 IOWA DR, LECLAIRE, IA, 52753",634711700,"L"
60082,"1101 IVY COURT","RENO","NV",89511,39.458190528,-119.792187158,82,"1101 IVY COURT, RENO, NV, 89511","Match","Exact","1101 IVY CT, RENO, NV, 89511",107053510,"R"
60083,"1101 JAMES COVE","JONESBORI","AR",72401,35.826122852,-90.720327191,83,"1101 JAMES COVE, JONESBORI, AR, 72401","Match","Non_Exact","1101 JAMES COVE, JONESBORO, AR, 72401",46912382,"L"
60084,"1101 JAMESON ROAD","EASELY","SC",29640,34.8978015650001,-82.591920809,84,"1101 JAMESON ROAD, EASELY, SC, 29640","Match","Non_Exact","1101 JAMESON RD, EASLEY, SC, 29640",26167482,"R"
60085,"1101 JESSUP ROAD","COOK","WA",98605,45.757910553,-121.649902781,85,"1101 JESSUP ROAD, COOK, WA, 98605","Match","Exact","1101 JESSUP RD, COOK, WA, 98605",158455262,"L"
60086,"1101 JEWELL AVE","PORTSMOUTH","VA",23701,36.8150258430001,-76.376501171,86,"1101 JEWELL AVE, PORTSMOUTH, VA, 23701","Match","Exact","1101 JEWELL AVE, PORTSMOUTH, VA, 23701",122191491,"L"
60087,"1101 JEWELL STREET","AUSTIN","TX",78704,30.2525418020001,-97.7606895,87,"1101 JEWELL STREET, AUSTIN, TX, 78704","Match","Exact","1101 JEWELL ST, AUSTIN, TX, 78704",63955845,"L"
60088,"1101 JOE COX DR","NICHOHLAVILLE","KY",40356,37.823112258,-84.5450740639999,88,"1101 JOE COX DR, NICHOHLAVILLE, KY, 40356","Match","Non_Exact","1101 JOE COX DR, NICHOLASVILLE, KY, 40356",38463802,"L"
60089,"1101 JOE STREET","SHERIDAN","WY",82801,44.8091157900001,-106.942071049,89,"1101 JOE STREET, SHERIDAN, WY, 82801","Match","Exact","1101 JOE ST, SHERIDAN, WY, 82801",605384201,"R"
60090,"1101 JOHN WESLEY AVE","XENIA","OH",45385,NA,NA,90,"1101 JOHN WESLEY AVE, XENIA, OH, 45385","No_Match",NA,NA,NA,NA
60091,"1101 JONES RD","INDEPENDENCE","MO",64056,39.1227688000001,-94.34606279,91,"1101 JONES RD, INDEPENDENCE, MO, 64056","Match","Exact","1101 JONES RD, INDEPENDENCE, MO, 64056",633576427,"R"
60092,"1101 JOSEPHINE ST","SWEETWATER","TX",79556,32.477790751,-100.398672041,92,"1101 JOSEPHINE ST, SWEETWATER, TX, 79556","Match","Exact","1101 JOSEPHINE ST, SWEETWATER, TX, 79556",186307888,"L"
60093,"1101 JUNIPER ST NE 63","ATLANTA","GA",30309,33.7843884050001,-84.382210921,93,"1101 JUNIPER ST NE 63, ATLANTA, GA, 30309","Match","Exact","1101 JUNIPER ST NE, ATLANTA, GA, 30309",17343533,"R"
60094,"1101 JUNIPER ST NE UNIT 429","ATLANTA","GA",30309,33.7843884050001,-84.382210921,94,"1101 JUNIPER ST NE UNIT 429, ATLANTA, GA, 30309","Match","Exact","1101 JUNIPER ST NE, ATLANTA, GA, 30309",17343533,"R"
60095,"1101 JUNIPER ST NE UNIT I13","ATLANTA","GA",30309,33.7843884050001,-84.382210921,95,"1101 JUNIPER ST NE UNIT I13, ATLANTA, GA, 30309","Match","Exact","1101 JUNIPER ST NE, ATLANTA, GA, 30309",17343533,"R"
60096,"1101 JUNIPER STREET","ATLANTA","GA",30309,33.7843884050001,-84.382210921,96,"1101 JUNIPER STREET, ATLANTA, GA, 30309","Match","Non_Exact","1101 JUNIPER ST NE, ATLANTA, GA, 30309",17343533,"R"
60097,"1101 KAREN WAY","MOUNTAIN VIEW","CA",94040,37.39127968,-122.10333785,97,"1101 KAREN WAY, MOUNTAIN VIEW, CA, 94040","Match","Exact","1101 KAREN WAY, MOUNTAIN VIEW, CA, 94040",122954091,"L"
60098,"1101 KAY STREET","OTSEGO","MI",49078,42.446629967,-85.686998299,98,"1101 KAY STREET, OTSEGO, MI, 49078","Match","Exact","1101 KAY ST, OTSEGO, MI, 49078",11440861,"L"
60099,"1101 KENT LANE","PHILADELPHIA","PA",19115,40.1008222610001,-75.040269517,99,"1101 KENT LANE, PHILADELPHIA, PA, 19115","Match","Exact","1101 KENT LN, PHILADELPHIA, PA, 19115",131430430,"L"
60100,"1101 KERMIT DRIVE","NASHVILLE","TN",37217,36.1219490600001,-86.704665854,100,"1101 KERMIT DRIVE, NASHVILLE, TN, 37217","Match","Exact","1101 KERMIT DR, NASHVILLE, TN, 37217",97196942,"R"
60101,"1101 KIRKWOOD LANE","JACKSONVILLE","TX",75766,31.9591054530001,-95.247688656,101,"1101 KIRKWOOD LANE, JACKSONVILLE, TX, 75766","Match","Exact","1101 KIRKWOOD LN, JACKSONVILLE, TX, 75766",72305537,"L"
60102,"1101 KNOX WAY","MOUNT LAUREL","NJ",8054,NA,NA,102,"1101 KNOX WAY, MOUNT LAUREL, NJ, 8054","No_Match",NA,NA,NA,NA
60103,"1101 KUKULU ST  UNIT 34","KAPOLEI","HI",96707,21.3245461270001,-158.074633324,103,"1101 KUKULU ST  UNIT 34, KAPOLEI, HI, 96707","Match","Exact","1101 KUKULU ST, KAPOLEI, HI, 96707",646532740,"R"
60104,"1101 LAKE DR","SILER CITY","NC",27344,35.7265844550001,-79.4835530719999,104,"1101 LAKE DR, SILER CITY, NC, 27344","Match","Exact","1101 LAKE DR, SILER CITY, NC, 27344",71350669,"L"
60105,"1101 LAKE RISE PLACE","GALLATIN","TN",37066,36.3039848670001,-86.5256019989999,105,"1101 LAKE RISE PLACE, GALLATIN, TN, 37066","Match","Exact","1101 LAKE RISE PL, GALLATIN, TN, 37066",29785743,"L"
60106,"1101 LAKE STREET","OAK PARK","IL",60301,41.8886349640001,-87.80273575,106,"1101 LAKE STREET, OAK PARK, IL, 60301","Match","Exact","1101 LAKE ST, OAK PARK, IL, 60301",649610477,"R"
60107,"1101 LAKEVIEW DRIVE","CRESCENT CITY","CA",95531,41.8092571170001,-124.177364186,107,"1101 LAKEVIEW DRIVE, CRESCENT CITY, CA, 95531","Match","Non_Exact","1101 LAKEVIEW RD, CRESCENT CITY, CA, 95531",113161028,"L"
60108,"1101 LAKEWOOD DR","ADRIAN","MI",49221,41.875096505,-84.0565047709999,108,"1101 LAKEWOOD DR, ADRIAN, MI, 49221","Match","Exact","1101 LAKEWOOD DR, ADRIAN, MI, 49221",634818772,"R"
60109,"1101 LANDFALL WAY","SEABROOK ISLAND","SC",29455,32.5972201800001,-80.162867056,109,"1101 LANDFALL WAY, SEABROOK ISLAND, SC, 29455","Match","Exact","1101 LANDFALL WAY, SEABROOK ISLAND, SC, 29455",625306389,"R"
60110,"1101 LARAIL DRIVE","COLUMBIA","MO",65203,NA,NA,110,"1101 LARAIL DRIVE, COLUMBIA, MO, 65203","No_Match",NA,NA,NA,NA
60111,"1101 LARCH WAY","WELLINGTON","FL",33414,26.665140105,-80.2241028299999,111,"1101 LARCH WAY, WELLINGTON, FL, 33414","Match","Exact","1101 LARCH WAY, WELLINGTON, FL, 33414",624096565,"R"
60112,"1101 LENORE DRIVE","TACOMA","WA",98406,47.260487589,-122.530011995,112,"1101 LENORE DRIVE, TACOMA, WA, 98406","Match","Exact","1101 LENORE DR, TACOMA, WA, 98406",184643214,"R"
60113,"1101 LILLY VUE COURT","MARS","PA",16046,NA,NA,113,"1101 LILLY VUE COURT, MARS, PA, 16046","No_Match",NA,NA,NA,NA
60114,"1101 LITTLEOAK CIR","SAN JOSE","CA",95129,37.3050571650001,-122.001495177,114,"1101 LITTLEOAK CIR, SAN JOSE, CA, 95129","Match","Exact","1101 LITTLEOAK CIR, SAN JOSE, CA, 95129",122997215,"R"
60115,"1101 LIVE OAK","ALICE","TX",78332,27.7738335380001,-98.06474301,115,"1101 LIVE OAK, ALICE, TX, 78332","Match","Non_Exact","1101 LIVE OAK DR, ALICE, TX, 78332",21524021,"L"
60116,"1101 LULA LANE","FRANKLIN","TN",37064,35.9002723080001,-86.908765323,116,"1101 LULA LANE, FRANKLIN, TN, 37064","Match","Exact","1101 LULA LN, FRANKLIN, TN, 37064",73103482,"L"
60117,"1101 LYNDALE DRIVE","POLK CITY","IA",50226,41.7744698920001,-93.721453023,117,"1101 LYNDALE DRIVE, POLK CITY, IA, 50226","Match","Exact","1101 LYNDALE DR, POLK CITY, IA, 50226",65773781,"L"
60118,"1101 MACLAREN COURT","FRANKLIN","IN",46131,39.497431271,-86.038613975,118,"1101 MACLAREN COURT, FRANKLIN, IN, 46131","Match","Exact","1101 MACLAREN CT, FRANKLIN, IN, 46131",630027599,"R"
60119,"1101 MADILL STREET","KEYSTONE","SD",57751,43.901355188,-103.413369061,119,"1101 MADILL STREET, KEYSTONE, SD, 57751","Match","Exact","1101 MADILL ST, KEYSTONE, SD, 57751",637478177,"L"
60120,"1101 MADISON ST","LYNCHBURG","VA",24504,37.411106137,-79.144427315,120,"1101 MADISON ST, LYNCHBURG, VA, 24504","Match","Exact","1101 MADISON ST, LYNCHBURG, VA, 24504",62626929,"R"
60121,"1101 MAIN STREET APT A","MURRY","KY",42071,36.6105984600001,-88.3135632409999,121,"1101 MAIN STREET APT A, MURRY, KY, 42071","Match","Non_Exact","1101 MAIN ST, MURRAY, KY, 42071",31709014,"R"
60122,"1101 MAIN STREET","BENTON","KY",42025,36.856869869,-88.350759725,122,"1101 MAIN STREET, BENTON, KY, 42025","Match","Exact","1101 MAIN ST, BENTON, KY, 42025",99505176,"R"
60123,"1101 MAIN STREET","LOGANSPORT","LA",71049,31.975124518,-93.99538653,123,"1101 MAIN STREET, LOGANSPORT, LA, 71049","Match","Exact","1101 MAIN ST, LOGANSPORT, LA, 71049",613035304,"L"
60124,"1101 MAJESTIC VIEW LANE","KALISPELL","MT",59901,48.104430365,-114.163697416,124,"1101 MAJESTIC VIEW LANE, KALISPELL, MT, 59901","Match","Exact","1101 MAJESTIC VIEW LN, KALISPELL, MT, 59901",628327853,"R"
60125,"1101 MANSFIELD DR","FORT COLLINS","CO",80525,40.540297459,-105.057906094,125,"1101 MANSFIELD DR, FORT COLLINS, CO, 80525","Match","Exact","1101 MANSFIELD DR, FORT COLLINS, CO, 80525",188494368,"R"
60126,"1101 MANSFIELD","INDIANA","PA",15701,40.617415818,-79.180389079,126,"1101 MANSFIELD, INDIANA, PA, 15701","Match","Non_Exact","1101 MANSFIELD AVE, INDIANA, PA, 15701",66290140,"L"
60127,"1101 MAPLE STREET","TYNDALL","SD",57066,42.9863570520001,-97.861199856,127,"1101 MAPLE STREET, TYNDALL, SD, 57066","Match","Exact","1101 MAPLE ST, TYNDALL, SD, 57066",172918350,"R"
60128,"1101 MARIEDALE CT D","KIRKWOOD","MO",63122,38.6013659500001,-90.392641111,128,"1101 MARIEDALE CT D, KIRKWOOD, MO, 63122","Match","Exact","1101 MARIEDALE CT, KIRKWOOD, MO, 63122",100137812,"L"
60129,"1101 MARINA VILLAGE PKWY STE 201","ALAMEDA","CA",94501,37.788041655,-122.276621565,129,"1101 MARINA VILLAGE PKWY STE 201, ALAMEDA, CA, 94501","Match","Exact","1101 MARINA VILLAGE PKWY, ALAMEDA, CA, 94501",124997331,"R"
60130,"1101 MARION ST SE","ISANTI","MN",55040,45.487577817,-93.222067983,130,"1101 MARION ST SE, ISANTI, MN, 55040","Match","Exact","1101 MARION ST SE, ISANTI, MN, 55040",627521475,"L"
60131,"1101 MARSH WREN DR","PATTERSON","CA",95363,37.467032508,-121.14546374,131,"1101 MARSH WREN DR, PATTERSON, CA, 95363","Match","Exact","1101 MARSH WREN DR, PATTERSON, CA, 95363",102634474,"L"
60132,"1101 MARTHA ST","TEXARKAN","AK",71854,NA,NA,132,"1101 MARTHA ST, TEXARKAN, AK, 71854","No_Match",NA,NA,NA,NA
60133,"1101 MARTIN LUTHER KING BLVD","AMORY","MS",38821,33.979382151,-88.495220691,133,"1101 MARTIN LUTHER KING BLVD, AMORY, MS, 38821","Match","Exact","1101 DR MARTIN LUTHER KING JR BLVD, AMORY, MS, 38821",120067416,"R"
60134,"1101 MASTERS ROW","CHESAPEAKE","VA",23320,36.7679719020001,-76.2164100419999,134,"1101 MASTERS ROW, CHESAPEAKE, VA, 23320","Match","Exact","1101 MASTERS ROW, CHESAPEAKE, VA, 23320",121782924,"R"
60135,"1101 MCCOLLOUGH CT NW APT 303","WASHINGTON","DC",20001,38.8962222100001,-77.009704469,135,"1101 MCCOLLOUGH CT NW APT 303, WASHINGTON, DC, 20001","Match","Exact","1101 MCCOLLOUGH CT NW, WASHINGTON, DC, 20001",76235186,"L"
60136,"1101 MEADOWBROOKE LANE","JUNCTION CITY","KS",66441,39.013531158,-96.881193444,136,"1101 MEADOWBROOKE LANE, JUNCTION CITY, KS, 66441","Match","Exact","1101 MEADOWBROOKE LN, JUNCTION CITY, KS, 66441",627553876,"R"
60137,"1101 MEL AVE","LANSING","MI",48911,42.6776947550001,-84.5678732499999,137,"1101 MEL AVE, LANSING, MI, 48911","Match","Exact","1101 MEL AVE, LANSING, MI, 48911",17502411,"L"
60138,"1101 MERCANTILE LANE SUITE 200","LARGO","MD",20774,38.905996498,-76.837819775,138,"1101 MERCANTILE LANE SUITE 200, LARGO, MD, 20774","Match","Exact","1101 MERCANTILE LN, LARGO, MD, 20774",76367383,"L"
60139,"1101 MERCANTILE LANE SUITE 200A","LARGO","MD",20774,38.905996498,-76.837819775,139,"1101 MERCANTILE LANE SUITE 200A, LARGO, MD, 20774","Match","Exact","1101 MERCANTILE LN, LARGO, MD, 20774",76367383,"L"
60140,"1101 MERCANTILE LANE","LARGO","MD",20774,38.905996498,-76.837819775,140,"1101 MERCANTILE LANE, LARGO, MD, 20774","Match","Exact","1101 MERCANTILE LN, LARGO, MD, 20774",76367383,"L"
60141,"1101 MERCANTILE LN STE 260","LARGO","MD",20774,38.905996498,-76.837819775,141,"1101 MERCANTILE LN STE 260, LARGO, MD, 20774","Match","Exact","1101 MERCANTILE LN, LARGO, MD, 20774",76367383,"L"
60142,"1101 MERCANTILE LN STE 260","UPPER MARLBORO","MD",20774,38.905996498,-76.837819775,142,"1101 MERCANTILE LN STE 260, UPPER MARLBORO, MD, 20774","Match","Exact","1101 MERCANTILE LN, UPPER MARLBORO, MD, 20774",76367383,"L"
60143,"1101 MEREDITH LN 1324","PLANO","TX",75093,33.014965365,-96.819348767,143,"1101 MEREDITH LN 1324, PLANO, TX, 75093","Match","Exact","1101 MEREDITH LN, PLANO, TX, 75093",210492318,"L"
60144,"1101 MIDDLE STREET","FORT LAUDERDALE","FL",33312,26.1195719630001,-80.156231194,144,"1101 MIDDLE STREET, FORT LAUDERDALE, FL, 33312","Match","Exact","1101 MIDDLE ST, FORT LAUDERDALE, FL, 33312",114721456,"R"
60145,"1101 MIMOSA DR","ROSWELL","NM",88201,33.425828306,-104.509975116,145,"1101 MIMOSA DR, ROSWELL, NM, 88201","Match","Non_Exact","1101 MIMOSA LN, ROSWELL, NM, 88201",614026283,"R"
60146,"1101 MIRANDA LANE","KISSIMMEE","FL",34741,28.3470212980001,-81.41448539,146,"1101 MIRANDA LANE, KISSIMMEE, FL, 34741","Match","Exact","1101 MIRANDA LN, KISSIMMEE, FL, 34741",639422723,"L"
60147,"1101 MISSIONWOOD LANE","TALLAHASSEE","FL",32304,30.454007372,-84.327438539,147,"1101 MISSIONWOOD LANE, TALLAHASSEE, FL, 32304","Match","Exact","1101 MISSIONWOOD LN, TALLAHASSEE, FL, 32304",82848022,"R"
60148,"1101 MISSIONWOOD LN","TALLAHASSEE","FL",32304,30.454007372,-84.327438539,148,"1101 MISSIONWOOD LN, TALLAHASSEE, FL, 32304","Match","Exact","1101 MISSIONWOOD LN, TALLAHASSEE, FL, 32304",82848022,"R"
60149,"1101 MOORE SWAMP RD","NEW BERN","NC",28560,35.144997593,-76.8827060899999,149,"1101 MOORE SWAMP RD, NEW BERN, NC, 28560","Match","Non_Exact","1101 MOORES SWAMP RD, NEW BERN, NC, 28560",67916821,"L"
60150,"1101 MOSSY RIDGE ROAD","MOUNTAIN VIEW","AR",72560,35.7721659010001,-92.1736230769999,150,"1101 MOSSY RIDGE ROAD, MOUNTAIN VIEW, AR, 72560","Match","Exact","1101 MOSSY RIDGE RD, MOUNTAIN VIEW, AR, 72560",2247049,"R"
60151,"1101 MUNCHS CORNER","LEXINGTON","KY",40515,37.9059288170001,-84.318098435,151,"1101 MUNCHS CORNER, LEXINGTON, KY, 40515","Match","Exact","1101 MUNCHS COR, LEXINGTON, KY, 40515",31793978,"R"
60152,"1101 N  8TH PLACE","COOLIDGE","AZ",85128,32.9867769690001,-111.528246038,152,"1101 N  8TH PLACE, COOLIDGE, AZ, 85128","Match","Exact","1101 N 8TH PL, COOLIDGE, AZ, 85128",129224367,"R"
60153,"1101 N 13TH ST","PHOENIX","AZ",85006,33.459632313,-112.054253042,153,"1101 N 13TH ST, PHOENIX, AZ, 85006","Match","Exact","1101 N 13TH ST, PHOENIX, AZ, 85006",128293297,"R"
60154,"1101 N 22ND ST","RICHMOND","VA",23223,37.5403149110001,-77.414817104,154,"1101 N 22ND ST, RICHMOND, VA, 23223","Match","Exact","1101 N 22ND ST, RICHMOND, VA, 23223",201548436,"R"
60155,"1101 N 6TH","BROKEN ARROW","OK",74012,36.0615818040001,-95.782890599,155,"1101 N 6TH, BROKEN ARROW, OK, 74012","Match","Non_Exact","1101 N 6TH ST, BROKEN ARROW, OK, 74012",166510541,"L"
60156,"1101 N 8TH PLACE","COOLIDGE","AZ",85128,32.9867769690001,-111.528246038,156,"1101 N 8TH PLACE, COOLIDGE, AZ, 85128","Match","Exact","1101 N 8TH PL, COOLIDGE, AZ, 85128",129224367,"R"
60157,"1101 N CALVERT STREET APT 1108","BALTIMORE","MD",21202,39.3025887260001,-76.613244815,157,"1101 N CALVERT STREET APT 1108, BALTIMORE, MD, 21202","Match","Non_Exact","1101 N CALVERT ST, BALTIMORE, MD, 21202",206419481,"R"
60158,"1101 N COLLIER BLVD","MARCO ISLAND","FL",34145,25.955319425,-81.7213488899999,158,"1101 N COLLIER BLVD, MARCO ISLAND, FL, 34145","Match","Exact","1101 N COLLIER BLVD, MARCO ISLAND, FL, 34145",640833358,"L"
60159,"1101 N COMMONS RD","TURLOCK","CA",95380,37.502512655,-120.912810223,159,"1101 N COMMONS RD, TURLOCK, CA, 95380","Match","Exact","1101 N COMMONS RD, TURLOCK, CA, 95380",102594046,"R"
60160,"1101 N CONGRESS AVE STE 202","BOYNTON BEACH","FL",33426,NA,NA,160,"1101 N CONGRESS AVE STE 202, BOYNTON BEACH, FL, 33426","Tie",NA,NA,NA,NA
60161,"1101 N CONGRESS AVE SUITE 202","BOYNTON BEACH","FL",33426,NA,NA,161,"1101 N CONGRESS AVE SUITE 202, BOYNTON BEACH, FL, 33426","Tie",NA,NA,NA,NA
60162,"1101 N DECATUR BLVD","LAS VEGAS","NV",89108,36.1830403450001,-115.206104866,162,"1101 N DECATUR BLVD, LAS VEGAS, NV, 89108","Match","Exact","1101 N DECATUR BLVD, LAS VEGAS, NV, 89108",201860984,"L"
60163,"1101 N ELM ST 1203","GREENSBORO","NC",27401,36.0881916910001,-79.789026592,163,"1101 N ELM ST 1203, GREENSBORO, NC, 27401","Match","Non_Exact","1101 N ELM ST, GREENSBORO, NC, 27401",131032740,"L"
60164,"1101 N GIDDINGS","VISALIA","CA",93291,36.3402453140001,-119.30557233,164,"1101 N GIDDINGS, VISALIA, CA, 93291","Match","Non_Exact","1101 N GIDDINGS ST, VISALIA, CA, 93291",202779983,"L"
60165,"1101 N GRETCHEN LANE","WICHITA","KS",67206,37.706412443,-97.254334068,165,"1101 N GRETCHEN LANE, WICHITA, KS, 67206","Match","Exact","1101 N GRETCHEN LN, WICHITA, KS, 67206",115640312,"L"
60166,"1101 N HIGHLAND ST","ARLINGTON","VA",22201,38.886227266,-77.094826226,166,"1101 N HIGHLAND ST, ARLINGTON, VA, 22201","Match","Exact","1101 N HIGHLAND ST, ARLINGTON, VA, 22201",76469612,"R"
60167,"1101 N HUMPHREY","OAK PARK","IL",60302,41.90594953,-87.776793601,167,"1101 N HUMPHREY, OAK PARK, IL, 60302","Match","Non_Exact","1101 N HUMPHREY AVE, OAK PARK, IL, 60302",605115993,"L"
60168,"1101 N JEFFERSON","CARROLLTON","MO",64633,39.371262061,-93.494139643,168,"1101 N JEFFERSON, CARROLLTON, MO, 64633","Match","Non_Exact","1101 N JEFFERSON ST, CARROLLTON, MO, 64633",20817401,"L"
60169,"1101 N KINGS HIGHWAY SUITE 201","CHERRY HILL","NJ",8034,39.9196601570001,-75.003948866,169,"1101 N KINGS HIGHWAY SUITE 201, CHERRY HILL, NJ, 8034","Match","Exact","1101 KINGS HWY, CHERRY HILL, NJ, 08034",134419657,"L"
60170,"1101 N LAKE DRIVE","LAKEWOOD","NJ",8701,40.096374224,-74.2318545159999,170,"1101 N LAKE DRIVE, LAKEWOOD, NJ, 8701","Match","Exact","1101 N LAKE DR, LAKEWOOD, NJ, 08701",203723359,"L"
60171,"1101 N MAIN AVE","SIDNEY","OH",45365,40.2985922010001,-84.155331045,171,"1101 N MAIN AVE, SIDNEY, OH, 45365","Match","Exact","1101 N MAIN AVE, SIDNEY, OH, 45365",52233051,"L"
60172,"1101 N MAIN ST","QUINCY","OH",45365,NA,NA,172,"1101 N MAIN ST, QUINCY, OH, 45365","No_Match",NA,NA,NA,NA
60173,"1101 N MARKET","WILMINGTON","DE",19801,39.74652064,-75.5471444999999,173,"1101 N MARKET, WILMINGTON, DE, 19801","Match","Non_Exact","1101 N MARKET ST, WILMINGTON, DE, 19801",187257888,"L"
60174,"1101 N MAYS ST","ROUND ROCK","TX",78664,30.518288436,-97.683064712,174,"1101 N MAYS ST, ROUND ROCK, TX, 78664","Match","Exact","1101 N MAYS ST, ROUND ROCK, TX, 78664",126483663,"R"
60175,"1101 N MCCALEB ROAD","MONTGOMERY","TX",77356,30.369357414,-95.586956894,175,"1101 N MCCALEB ROAD, MONTGOMERY, TX, 77356","Match","Exact","1101 N MCCALEB RD, MONTGOMERY, TX, 77356",79313613,"L"
60176,"1101 N MILAM STREET","SAN BENITO","TX",78586,NA,NA,176,"1101 N MILAM STREET, SAN BENITO, TX, 78586","No_Match",NA,NA,NA,NA
60177,"1101 N MILAM","SAN BENITO","TX",78586,NA,NA,177,"1101 N MILAM, SAN BENITO, TX, 78586","No_Match",NA,NA,NA,NA
60178,"1101 N NEW YORK DR","MASSAPEQUA","NY",11758,40.7145616270001,-73.458952341,178,"1101 N NEW YORK DR, MASSAPEQUA, NY, 11758","Match","Exact","1101 N NEW YORK DR, MASSAPEQUA, NY, 11758",147650196,"L"
60179,"1101 N OLD CHISHOLM TRL A","DEWEY","AZ",86327,34.5591303420001,-112.259820958,179,"1101 N OLD CHISHOLM TRL A, DEWEY, AZ, 86327","Match","Non_Exact","1101 N OLD CHISHOLM TRL, DEWEY, AZ, 86327",608212932,"R"
60180,"1101 N ROSEDALE SQ","WEBB CITY","MO",64870,37.187746255,-94.446484455,180,"1101 N ROSEDALE SQ, WEBB CITY, MO, 64870","Match","Exact","1101 N ROSEDALE SQ, WEBB CITY, MO, 64870",66171273,"R"
60181,"1101 N SIDNEY AVENUE L","RUSSELLVILLE","AR",72801,35.289741357,-93.111750635,181,"1101 N SIDNEY AVENUE L, RUSSELLVILLE, AR, 72801","Match","Non_Exact","1101 N SIDNEY AVE, RUSSELLVILLE, AR, 72801",81893303,"R"
60182,"1101 N TAYLOR AVE","OAK PARK","IL",60302,41.905942925,-87.778100766,182,"1101 N TAYLOR AVE, OAK PARK, IL, 60302","Match","Exact","1101 N TAYLOR AVE, OAK PARK, IL, 60302",605116031,"L"
60183,"1101 NALLEY ROAD 1017","LANDOVER","MD",20785,38.9054117310001,-76.87437497,183,"1101 NALLEY ROAD 1017, LANDOVER, MD, 20785","Match","Exact","1101 NALLEY RD, LANDOVER, MD, 20785",76381923,"L"
60184,"1101 NAVIGATION BLVD","CORPUS CHRISTI","TX",78407,27.8058151610001,-97.453635971,184,"1101 NAVIGATION BLVD, CORPUS CHRISTI, TX, 78407","Match","Non_Exact","1101 NAVIGATION BLVD, CORPUS CHRISTI, TX, 78408",178512899,"L"
60185,"1101 NE 19","OKLAHOMA CITY","OK",73104,NA,NA,185,"1101 NE 19, OKLAHOMA CITY, OK, 73104","No_Match",NA,NA,NA,NA
60186,"1101 NE 24TH STREET","MIDWEST CITY","OK",73160,35.360332129,-97.473599221,186,"1101 NE 24TH STREET, MIDWEST CITY, OK, 73160","Match","Non_Exact","1101 NE 24TH ST, MOORE, OK, 73160",99907378,"L"
60187,"1101 NE 2ND COURT","HALLENDALE BEACH","FL",33009,25.988957004,-80.1373083029999,187,"1101 NE 2ND COURT, HALLENDALE BEACH, FL, 33009","Match","Non_Exact","1101 NE 2ND CT, HALLANDALE BEACH, FL, 33009",114736878,"L"
60188,"1101 NE 3RD AVE","BOCA RATON","FL",33432,26.36068083,-80.080672624,188,"1101 NE 3RD AVE, BOCA RATON, FL, 33432","Match","Exact","1101 NE 3RD AVE, BOCA RATON, FL, 33432",115303256,"L"
60189,"1101 NE 40TH CT","OAKLAND PARK","FL",33334,NA,NA,189,"1101 NE 40TH CT, OAKLAND PARK, FL, 33334","No_Match",NA,NA,NA,NA
60190,"1101 NE WATER ST","VICTORIA","TX",77901,28.7913020510001,-96.998721403,190,"1101 NE WATER ST, VICTORIA, TX, 77901","Match","Exact","1101 NE WATER ST, VICTORIA, TX, 77901",44560601,"R"
60191,"1101 NETHERLAND LANE","ALBANY","GA",31705,31.5592654230001,-84.123546851,191,"1101 NETHERLAND LANE, ALBANY, GA, 31705","Match","Exact","1101 NETHERLAND LN, ALBANY, GA, 31705",84322362,"R"
60192,"1101 NEVAREZ","KYLE","TX",78640,30.024149316,-97.888926451,192,"1101 NEVAREZ, KYLE, TX, 78640","Match","Exact","1101 NEVAREZ, KYLE, TX, 78640",650776121,"L"
60193,"1101 NEW YORK AVE NW SUITE 909","WASHINGTON","DC",20005,38.90085255,-77.0277779209999,193,"1101 NEW YORK AVE NW SUITE 909, WASHINGTON, DC, 20005","Match","Non_Exact","1101 NEW YORK AVE NW, WASHINGTON, DC, 20005",76226160,"R"
60194,"1101 NEW YORK AVE","ALAMOGORDO","NM",88310,32.9007763820001,-105.959009795,194,"1101 NEW YORK AVE, ALAMOGORDO, NM, 88310","Match","Exact","1101 NEW YORK AVE, ALAMOGORDO, NM, 88310",132290395,"L"
60195,"1101 NORCOVA CT","CHESAPEAKE","VA",23320,36.7510303820001,-76.213329457,195,"1101 NORCOVA CT, CHESAPEAKE, VA, 23320","Match","Exact","1101 NORCOVA CT, CHESAPEAKE, VA, 23320",121777671,"R"
60196,"1101 NORTH 70 TERRACE","HOLLYWOOD","FL",33024,26.0190915160001,-80.229065818,196,"1101 NORTH 70 TERRACE, HOLLYWOOD, FL, 33024","Match","Non_Exact","1101 NW 70TH TER, HOLLYWOOD, FL, 33024",114716014,"R"
60197,"1101 NORTH CEDAR STREET","TALLULAH","LA",71282,32.41607959,-91.1820016619999,197,"1101 NORTH CEDAR STREET, TALLULAH, LA, 71282","Match","Exact","1101 N CEDAR ST, TALLULAH, LA, 71282",651796735,"L"
60198,"1101 NORTH CHARLOTTE TERRACE","MUSTANG","OK",73064,35.4015861880001,-97.7200592459999,198,"1101 NORTH CHARLOTTE TERRACE, MUSTANG, OK, 73064","Match","Exact","1101 N CHARLOTTE TER, MUSTANG, OK, 73064",624762044,"L"
60199,"1101 NORTH RIVER ROAD","DES PLAINES","IL",60016,42.0333960360001,-87.881270424,199,"1101 NORTH RIVER ROAD, DES PLAINES, IL, 60016","Match","Non_Exact","1101 S RIVER RD, DES PLAINES, IL, 60016",111723744,"L"
60200,"1101 NORTHRIDGE PLACE","MONTEREY PARK","CA",91745,NA,NA,200,"1101 NORTHRIDGE PLACE, MONTEREY PARK, CA, 91745","No_Match",NA,NA,NA,NA
60201,"1101 NW 12TH ST","MOORE","OK",73160,35.348845005,-97.510276582,201,"1101 NW 12TH ST, MOORE, OK, 73160","Match","Exact","1101 NW 12TH ST, MOORE, OK, 73160",99905308,"R"
60202,"1101 NW 2ND STREET","DELRAY BEACH","FL",33444,26.46537834,-80.0838570619999,202,"1101 NW 2ND STREET, DELRAY BEACH, FL, 33444","Match","Exact","1101 NW 2ND ST, DELRAY BEACH, FL, 33444",115290915,"R"
60203,"1101 NW 5TH AVE","BOCA RATON","FL",33432,26.3607811540001,-80.096309664,203,"1101 NW 5TH AVE, BOCA RATON, FL, 33432","Match","Exact","1101 NW 5TH AVE, BOCA RATON, FL, 33432",115302925,"L"
60204,"1101 OAK VALLEY DRIVE","PONTIAC","MI",48341,42.6180717840001,-83.2977878789999,204,"1101 OAK VALLEY DRIVE, PONTIAC, MI, 48341","Match","Exact","1101 OAK VALLEY DR, PONTIAC, MI, 48341",69796958,"L"
60205,"1101 OAKDALE","FINDLAY","OH",45840,NA,NA,205,"1101 OAKDALE, FINDLAY, OH, 45840","No_Match",NA,NA,NA,NA
60206,"1101 OCEAN FRONT WALK APT 12","LOS ANGELES","CA",90291,33.98947128,-118.475906481,206,"1101 OCEAN FRONT WALK APT 12, LOS ANGELES, CA, 90291","Match","Non_Exact","1101 OCEAN FRONT WALK, VENICE, CA, 90291",141575924,"L"
60207,"1101 OGLETHORPE DRIVE NE","ATLANTA","GA",30319,33.87792009,-84.3286816199999,207,"1101 OGLETHORPE DRIVE NE, ATLANTA, GA, 30319","Match","Exact","1101 OGLETHORPE DR NE, ATLANTA, GA, 30319",23392323,"R"
60208,"1101 OLD FORGE RD","ROCKY MOU","NC",27804,35.983218465,-77.842481059,208,"1101 OLD FORGE RD, ROCKY MOU, NC, 27804","Match","Non_Exact","1101 OLD FORGE RD, ROCKY MOUNT, NC, 27804",90392839,"L"
60209,"1101 OLD FORGE RD","ROCKY MOUNT","NC",27804,35.983218465,-77.842481059,209,"1101 OLD FORGE RD, ROCKY MOUNT, NC, 27804","Match","Exact","1101 OLD FORGE RD, ROCKY MOUNT, NC, 27804",90392839,"L"
60210,"1101 OLD RANCH ROAD","CAMARILLO","CA",93012,34.2283394030001,-118.985974299,210,"1101 OLD RANCH ROAD, CAMARILLO, CA, 93012","Match","Exact","1101 OLD RANCH RD, CAMARILLO, CA, 93012",109965475,"L"
60211,"1101 ORAN","SAINT LOUIS","MO",63136,NA,NA,211,"1101 ORAN, SAINT LOUIS, MO, 63136","No_Match",NA,NA,NA,NA
60212,"1101 OWENS RD","COLUMBIA","SC",29203,34.12780609,-81.031192609,212,"1101 OWENS RD, COLUMBIA, SC, 29203","Match","Exact","1101 OWENS RD, COLUMBIA, SC, 29203",71811270,"L"
60213,"1101 PALOMAS DR SE APT 26","ALBUQUERQUE","NM",87108,35.063619015,-106.583098276,213,"1101 PALOMAS DR SE APT 26, ALBUQUERQUE, NM, 87108","Match","Exact","1101 PALOMAS DR SE, ALBUQUERQUE, NM, 87108",206718352,"R"
60214,"1101 PARKSIDE ROAD","CLEVELAND","OH",44108,41.5268725380001,-81.6241616619999,214,"1101 PARKSIDE ROAD, CLEVELAND, OH, 44108","Match","Exact","1101 PARKSIDE RD, CLEVELAND, OH, 44108",61112390,"L"
60215,"1101 PARKVIEW DRIVE","ROSEVILLE","CA",95661,38.7327611470001,-121.263154408,215,"1101 PARKVIEW DRIVE, ROSEVILLE, CA, 95661","Match","Exact","1101 PARKVIEW DR, ROSEVILLE, CA, 95661",106765370,"L"
60216,"1101 PATRICK DRIVE","FAYETTEVILLE","NC",28314,35.040420871,-79.058857229,216,"1101 PATRICK DRIVE, FAYETTEVILLE, NC, 28314","Match","Exact","1101 PATRICK DR, FAYETTEVILLE, NC, 28314",64251105,"L"
60217,"1101 PEACHTREE PLACE NW","WILSON","NC",27896,NA,NA,217,"1101 PEACHTREE PLACE NW, WILSON, NC, 27896","Tie",NA,NA,NA,NA
60218,"1101 PENNSYLVANIA AVE NW 300","WASHINGTON","DC",20006,38.894765625,-77.027134932,218,"1101 PENNSYLVANIA AVE NW 300, WASHINGTON, DC, 20006","Match","Non_Exact","1101 PENNSYLVANIA AVE NW, WASHINGTON, DC, 20004",76226316,"R"
60219,"1101 PENNSYLVANIA AVE NW SUITE 300","WASHINGTON","DC",20004,38.894765625,-77.027134932,219,"1101 PENNSYLVANIA AVE NW SUITE 300, WASHINGTON, DC, 20004","Match","Exact","1101 PENNSYLVANIA AVE NW, WASHINGTON, DC, 20004",76226316,"R"
60220,"1101 PENNYBAKER LN","MCKINNEY","TX",75071,33.21274615,-96.76688376,220,"1101 PENNYBAKER LN, MCKINNEY, TX, 75071","Match","Exact","1101 PENNYBAKER LN, MCKINNEY, TX, 75071",646810012,"R"
60221,"1101 PERSON FARM ROAD","BOLIVIA","NC",28422,33.9699552880001,-78.2076545359999,221,"1101 PERSON FARM ROAD, BOLIVIA, NC, 28422","Match","Non_Exact","1101 PERSON FARM RD SE, BOLIVIA, NC, 28422",153177082,"R"
60222,"1101 PERU OLENA","NORWALK","OH",44857,NA,NA,222,"1101 PERU OLENA, NORWALK, OH, 44857","No_Match",NA,NA,NA,NA
60223,"1101 PINE ST","SILVERTON","OR",97381,45.0108673510001,-122.791982538,223,"1101 PINE ST, SILVERTON, OR, 97381","Match","Exact","1101 PINE ST, SILVERTON, OR, 97381",156243212,"L"
60224,"1101 PINE STREET","AUGUSTA","GA",30901,33.4663671910001,-81.977357209,224,"1101 PINE STREET, AUGUSTA, GA, 30901","Match","Exact","1101 PINE ST, AUGUSTA, GA, 30901",55640104,"R"
60225,"1101 PINEVIEW STREET","CAMDEN","SC",29020,34.2501061350001,-80.580546811,225,"1101 PINEVIEW STREET, CAMDEN, SC, 29020","Match","Exact","1101 PINEVIEW ST, CAMDEN, SC, 29020",645502846,"R"
60226,"1101 PLANTATION COURT UNIT A","LAS VEGAS","NV",89117,36.158942014,-115.254730337,226,"1101 PLANTATION COURT UNIT A, LAS VEGAS, NV, 89117","Match","Exact","1101 PLANTATION CT, LAS VEGAS, NV, 89117",639385348,"R"
60227,"1101 PLANZ ROAD","BAKERSFIELD","CA",93304,35.3249251820001,-119.013284876,227,"1101 PLANZ ROAD, BAKERSFIELD, CA, 93304","Match","Exact","1101 PLANZ RD, BAKERSFIELD, CA, 93304",109433965,"L"
60228,"1101 PLUMSTEAD ROAD","CHARLOTTE","NC",28216,35.2845039420001,-80.864975756,228,"1101 PLUMSTEAD ROAD, CHARLOTTE, NC, 28216","Match","Exact","1101 PLUMSTEAD RD, CHARLOTTE, NC, 28216",70476032,"L"
60229,"1101 POINT SYLVAN COURT APT E","ORLANDO","FL",32825,28.5618667790001,-81.2203685539999,229,"1101 POINT SYLVAN COURT APT E, ORLANDO, FL, 32825","Match","Exact","1101 POINT SYLVAN CT, ORLANDO, FL, 32825",94399858,"L"
60230,"1101 POTOMAC AVENUE","TURLOCK","CA",95382,37.524508536,-120.83607106,230,"1101 POTOMAC AVENUE, TURLOCK, CA, 95382","Match","Exact","1101 POTOMAC AVE, TURLOCK, CA, 95382",102627689,"R"
60231,"1101 PROSPECT PROMENADE","PANAMA CITY BEACH","FL",32413,NA,NA,231,"1101 PROSPECT PROMENADE, PANAMA CITY BEACH, FL, 32413","No_Match",NA,NA,NA,NA
60232,"1101 QUAIL HOLLOW DR","CHESTER","SC",29706,34.7304073080001,-81.1735666389999,232,"1101 QUAIL HOLLOW DR, CHESTER, SC, 29706","Match","Non_Exact","1101 QUAIL HOLLOW CIR, CHESTER, SC, 29706",40563323,"L"
60233,"1101 QUIET COVE LANE","KANNAPOLIS","NC",28083,35.5244248500001,-80.591962369,233,"1101 QUIET COVE LANE, KANNAPOLIS, NC, 28083","Match","Exact","1101 QUIET COVE LN, KANNAPOLIS, NC, 28083",25272633,"L"
60234,"1101 RAILROAD LANE","PITTSBURG","CA",94565,38.025133624,-121.885540943,234,"1101 RAILROAD LANE, PITTSBURG, CA, 94565","Match","Exact","1101 RAILROAD LN, PITTSBURG, CA, 94565",607702359,"R"
60235,"1101 RANCHWOOD DR","SHOREWOOD","IL",60404,41.513643696,-88.211779201,235,"1101 RANCHWOOD DR, SHOREWOOD, IL, 60404","Match","Exact","1101 RANCHWOOD DR, SHOREWOOD, IL, 60404",111589455,"R"
60236,"1101 RASPBERRY LANE","DESOTO","TX",75115,32.5808465150001,-96.885931378,236,"1101 RASPBERRY LANE, DESOTO, TX, 75115","Match","Exact","1101 RASPBERRY LN, DESOTO, TX, 75115",103277832,"R"
60237,"1101 RED DRIVE","TRAVERSE CITY","MI",49696,44.752100318,-85.6464257,237,"1101 RED DRIVE, TRAVERSE CITY, MI, 49696","Match","Non_Exact","1101 RED DR, TRAVERSE CITY, MI, 49684",650224918,"R"
60238,"1101 RED OAK DR","KAUFMAN","TX",75142,32.6452508350001,-96.267350256,238,"1101 RED OAK DR, KAUFMAN, TX, 75142","Match","Exact","1101 RED OAK DR, KAUFMAN, TX, 75142",123743571,"L"
60239,"1101 RED","DR","MI",49684,NA,NA,239,"1101 RED, DR, MI, 49684","No_Match",NA,NA,NA,NA
60240,"1101 REMINGTON DRIVE","KNOXVILLE","TN",37923,35.940538201,-84.072964235,240,"1101 REMINGTON DRIVE, KNOXVILLE, TN, 37923","Match","Non_Exact","1101 REMINGTON RD, KNOXVILLE, TN, 37923",42610222,"R"
60241,"1101 REXBURG DR","CARY","NC",27513,35.8025495300001,-78.8069421449999,241,"1101 REXBURG DR, CARY, NC, 27513","Match","Exact","1101 REXBURG DR, CARY, NC, 27513",650709378,"L"
60242,"1101 RIVER RIDGE PKWY","SAN MARCOS","TX",78666,29.9034437220001,-97.89993132,242,"1101 RIVER RIDGE PKWY, SAN MARCOS, TX, 78666","Match","Exact","1101 RIVER RIDGE PKWY, SAN MARCOS, TX, 78666",639349829,"R"
60243,"1101 RIVER ROAD","MELBOURNE BEACH","FL",32951,28.067274178,-80.5654219259999,243,"1101 RIVER ROAD, MELBOURNE BEACH, FL, 32951","Match","Exact","1101 RIVER RD, MELBOURNE BCH, FL, 32951",93906484,"L"
60244,"1101 RIVERSIDE DRIVE","SOUTH BEND","IN",46616,41.6906334770001,-86.262740171,244,"1101 RIVERSIDE DRIVE, SOUTH BEND, IN, 46616","Match","Exact","1101 RIVERSIDE DR, SOUTH BEND, IN, 46616",8053773,"L"
60245,"1101 ROPER MOUNTAIN RD APT 195","GREENVILLE","SC",29615,34.8423696900001,-82.2924822749999,245,"1101 ROPER MOUNTAIN RD APT 195, GREENVILLE, SC, 29615","Match","Exact","1101 ROPER MOUNTAIN RD, GREENVILLE, SC, 29615",637480432,"L"
60246,"1101 ROSEWOOD COURT","CAMERON","MO",64429,39.750179378,-94.2564677409999,246,"1101 ROSEWOOD COURT, CAMERON, MO, 64429","Match","Exact","1101 ROSEWOOD CT, CAMERON, MO, 64429",17805078,"R"
60247,"1101 ROUNDTREE DRIVE","BEDFORD","VA",24523,37.331018871,-79.546696368,247,"1101 ROUNDTREE DRIVE, BEDFORD, VA, 24523","Match","Exact","1101 ROUNDTREE DR, BEDFORD, VA, 24523",62651314,"R"
60248,"1101 ROWAN COURT","BALTIMORE","MD",21234,39.381291058,-76.576615169,248,"1101 ROWAN COURT, BALTIMORE, MD, 21234","Match","Exact","1101 ROWAN CT, BALTIMORE, MD, 21234",191514730,"R"
60249,"1101 ROYAL PARKWAY SUITE 109","EULEESS","TX",76040,32.8215544780001,-97.118844237,249,"1101 ROYAL PARKWAY SUITE 109, EULEESS, TX, 76040","Match","Non_Exact","1101 ROYAL PKWY, EULESS, TX, 76040",102101457,"L"
60250,"1101 ROYAL PARKWAY SUITE 109","EULESS","TX",76040,32.8215544780001,-97.118844237,250,"1101 ROYAL PARKWAY SUITE 109, EULESS, TX, 76040","Match","Exact","1101 ROYAL PKWY, EULESS, TX, 76040",102101457,"L"
60251,"1101 RUNNING T DRIVE","GILLETTE","WY",82718,NA,NA,251,"1101 RUNNING T DRIVE, GILLETTE, WY, 82718","No_Match",NA,NA,NA,NA
60252,"1101 RUSHING PARC DRIVE","HOOVER","AL",35244,33.332514385,-86.880946587,252,"1101 RUSHING PARC DRIVE, HOOVER, AL, 35244","Match","Exact","1101 RUSHING PARC DR, HOOVER, AL, 35244",82123092,"R"
60253,"1101 S 131ST E AVE","TULSA","OK",74108,36.147691772,-95.831048041,253,"1101 S 131ST E AVE, TULSA, OK, 74108","Match","Exact","1101 S 131ST EAST AVE, TULSA, OK, 74108",642918270,"L"
60254,"1101 S 3RD AVE","KELSO","WA",98626,NA,NA,254,"1101 S 3RD AVE, KELSO, WA, 98626","Tie",NA,NA,NA,NA
60255,"1101 S 4TH STREET","COLUMBUS","OH",43206,39.9399615300001,-82.992575559,255,"1101 S 4TH STREET, COLUMBUS, OH, 43206","Match","Exact","1101 S 4TH ST, COLUMBUS, OH, 43206",135580214,"R"
60256,"1101 S 7TH ST","CLINTON","MO",64735,38.35837273,-93.7652275569999,256,"1101 S 7TH ST, CLINTON, MO, 64735","Match","Exact","1101 7TH ST, CLINTON, MO, 64735",44936213,"L"
60257,"1101 S 7TH STREET","CONROE","TX",77301,NA,NA,257,"1101 S 7TH STREET, CONROE, TX, 77301","Tie",NA,NA,NA,NA
60258,"1101 S AVALON APT H7","WEST MEMPHIS","AR",72301,NA,NA,258,"1101 S AVALON APT H7, WEST MEMPHIS, AR, 72301","No_Match",NA,NA,NA,NA
60259,"1101 S BAY CLUB DRIVE","MANTEO","NC",27954,35.898920074,-75.667753045,259,"1101 S BAY CLUB DRIVE, MANTEO, NC, 27954","Match","Exact","1101 S BAY CLUB DR, MANTEO, NC, 27954",627148753,"L"
60260,"1101 S BENNETT","CHANDLER","OK",74834,35.699424552,-96.873135132,260,"1101 S BENNETT, CHANDLER, OK, 74834","Match","Non_Exact","1101 BENNETT BLVD, CHANDLER, OK, 74834",143030729,"L"
60261,"1101 S BROADWAY","TOLEDO","IA",52342,41.9836152730001,-92.578432752,261,"1101 S BROADWAY, TOLEDO, IA, 52342","Match","Non_Exact","1101 S BROADWAY ST, TOLEDO, IA, 52342",637902133,"R"
60262,"1101 S COOLIDGE CIR","AURORA","CO",80018,39.6955488630001,-104.708453523,262,"1101 S COOLIDGE CIR, AURORA, CO, 80018","Match","Exact","1101 S COOLIDGE CIR, AURORA, CO, 80018",177550506,"L"
60263,"1101 S DIXIE HIGHWAY","NEW SMYRNA BEACH","FL",32168,NA,NA,263,"1101 S DIXIE HIGHWAY, NEW SMYRNA BEACH, FL, 32168","No_Match",NA,NA,NA,NA
60264,"1101 S DWIGHT ST","COMPTON","CA",90220,NA,NA,264,"1101 S DWIGHT ST, COMPTON, CA, 90220","No_Match",NA,NA,NA,NA
60265,"1101 S HIGH ST","GRANT CITY","MO",64456,40.479229113,-94.413379458,265,"1101 S HIGH ST, GRANT CITY, MO, 64456","Match","Exact","1101 S HIGH ST, GRANT CITY, MO, 64456",38652645,"L"
60266,"1101 S HYDE PARK","SIOUX FALLS","SD",57106,43.5358112540001,-96.819488764,266,"1101 S HYDE PARK, SIOUX FALLS, SD, 57106","Match","Non_Exact","1101 S HYDE PARK AVE, SIOUX FALLS, SD, 57106",640212528,"R"
60267,"1101 S JOYCE ST  APT 2401","ARLINGTON","VA",22202,38.864106813,-77.0634226669999,267,"1101 S JOYCE ST  APT 2401, ARLINGTON, VA, 22202","Match","Non_Exact","1101 S JOYCE ST, ARLINGTON, VA, 22202",650091584,"L"
60268,"1101 S JOYCE ST APT 2221","ARLINGTON","VA",22202,38.864106813,-77.0634226669999,268,"1101 S JOYCE ST APT 2221, ARLINGTON, VA, 22202","Match","Non_Exact","1101 S JOYCE ST, ARLINGTON, VA, 22202",650091584,"L"
60269,"1101 S JOYCE ST APT 2401","ARLINGTON","VA",22202,38.864106813,-77.0634226669999,269,"1101 S JOYCE ST APT 2401, ARLINGTON, VA, 22202","Match","Non_Exact","1101 S JOYCE ST, ARLINGTON, VA, 22202",650091584,"L"
60270,"1101 S LIONS AVE","BROKEN ARROW","OK",74012,36.0416641530001,-95.80542819,270,"1101 S LIONS AVE, BROKEN ARROW, OK, 74012","Match","Exact","1101 S LIONS AVE, BROKEN ARROW, OK, 74012",166464119,"L"
60271,"1101 S M RD","AURORA","NE",68818,40.8436271640001,-98.073540183,271,"1101 S M RD, AURORA, NE, 68818","Match","Exact","1101 S M RD, AURORA, NE, 68818",159719955,"L"
60272,"1101 S M ST APT 2","LAKE WORTH","FL",33460,NA,NA,272,"1101 S M ST APT 2, LAKE WORTH, FL, 33460","Tie",NA,NA,NA,NA
60273,"1101 S MAIN ST UNIT 307","MILPITAS","CA",95035,37.414145992,-121.901854746,273,"1101 S MAIN ST UNIT 307, MILPITAS, CA, 95035","Match","Non_Exact","1101 S MAIN ST, MILPITAS, CA, 95035",648201114,"R"
60274,"1101 S QUINN STREET","ARLINGTON","VA",22204,38.8646071700001,-77.074283534,274,"1101 S QUINN STREET, ARLINGTON, VA, 22204","Match","Exact","1101 S QUINN ST, ARLINGTON, VA, 22204",76471088,"L"
60275,"1101 S ST","NEWMAN","CA",95360,37.3170187910001,-121.029093817,275,"1101 S ST, NEWMAN, CA, 95360","Match","Exact","1101 S ST, NEWMAN, CA, 95360",102596110,"R"
60276,"1101 S STATE STREET","CHICAGO","IL",60605,41.8691380180001,-87.627384507,276,"1101 S STATE STREET, CHICAGO, IL, 60605","Match","Exact","1101 S STATE ST, CHICAGO, IL, 60605",641805256,"L"
60277,"1101 S THIRD","KELSO","WA",98626,NA,NA,277,"1101 S THIRD, KELSO, WA, 98626","No_Match",NA,NA,NA,NA
60278,"1101 S WINCHESTER BLVD SUITE H-187","SAN JOSE","CA",95128,37.3063802550001,-121.95000948,278,"1101 S WINCHESTER BLVD SUITE H-187, SAN JOSE, CA, 95128","Match","Exact","1101 WINCHESTER BLVD, SAN JOSE, CA, 95128",122904112,"R"
60279,"1101 S WINCHESTER BLVD SUITE H-187","SAN JSOE","CA",95128,37.3063802550001,-121.95000948,279,"1101 S WINCHESTER BLVD SUITE H-187, SAN JSOE, CA, 95128","Match","Non_Exact","1101 WINCHESTER BLVD, SAN JOSE, CA, 95128",122904112,"R"
60280,"1101 SAINT PAUL STREET","BALTIMORE","MD",21202,39.302548254,-76.614403511,280,"1101 SAINT PAUL STREET, BALTIMORE, MD, 21202","Match","Exact","1101 SAINT PAUL ST, BALTIMORE, MD, 21202",206419286,"R"
60281,"1101 SALT SPRINGS ROAD","SYRACUSE","NY",13224,43.047439044,-76.096114391,281,"1101 SALT SPRINGS ROAD, SYRACUSE, NY, 13224","Match","Exact","1101 SALT SPRINGS RD, SYRACUSE, NY, 13224",46574252,"L"
60282,"1101 SAM BRADSHAW ROAD","IRMO","SC",29063,34.172663593,-81.192107446,282,"1101 SAM BRADSHAW ROAD, IRMO, SC, 29063","Match","Exact","1101 SAM BRADSHAW RD, IRMO, SC, 29063",71836193,"L"
60283,"1101 SAN BERNADINO","ST LOUIS","MO",63121,38.714549274,-90.294672987,283,"1101 SAN BERNADINO, ST LOUIS, MO, 63121","Match","Non_Exact","1101 SAN BERNADINO AVE, SAINT LOUIS, MO, 63121",100146725,"L"
60284,"1101 SAN FERNANDO","SOLEDAD","CA",93960,36.442532181,-121.317573228,284,"1101 SAN FERNANDO, SOLEDAD, CA, 93960","Match","Non_Exact","1101 SAN FERNANDO ST, SOLEDAD, CA, 93960",196877941,"R"
60285,"1101 SANDERLING DR","GALVESTON","TX",75043,32.864766407,-96.597923764,285,"1101 SANDERLING DR, GALVESTON, TX, 75043","Match","Non_Exact","1101 SANDERLING DR, GARLAND, TX, 75043",627516463,"R"
60286,"1101 SANTA FE DRIVE","WEATHERFORD","TX",76086,32.7467579890001,-97.782181832,286,"1101 SANTA FE DRIVE, WEATHERFORD, TX, 76086","Match","Exact","1101 SANTA FE DR, WEATHERFORD, TX, 76086",103579827,"R"
60287,"1101 SATELLITE VIEW 405","ROUND ROCK","TX",78665,NA,NA,287,"1101 SATELLITE VIEW 405, ROUND ROCK, TX, 78665","No_Match",NA,NA,NA,NA
60288,"1101 SAYWORD DR","BAKERSFIELD","CA",93312,35.367906959,-119.128651374,288,"1101 SAYWORD DR, BAKERSFIELD, CA, 93312","Match","Non_Exact","1101 SAYWORD CT, BAKERSFIELD, CA, 93312",109529407,"L"
60289,"1101 SE 36TH ST","TOPEKA","KS",66605,39.002926229,-95.664546757,289,"1101 SE 36TH ST, TOPEKA, KS, 66605","Match","Exact","1101 SE 36TH ST, TOPEKA, KS, 66605",17892436,"R"
60290,"1101 SE RAY DRIVE APT B","OAK GROVE","MO",64075,39.0058630990001,-94.117355505,290,"1101 SE RAY DRIVE APT B, OAK GROVE, MO, 64075","Match","Non_Exact","1101 SE RAY DR, OAK GROVE, MO, 64075",649158459,"L"
60291,"1101 SE RAY DRIVE APT C","OAK GROVE","MO",64075,39.0058630990001,-94.117355505,291,"1101 SE RAY DRIVE APT C, OAK GROVE, MO, 64075","Match","Non_Exact","1101 SE RAY DR, OAK GROVE, MO, 64075",649158459,"L"
60292,"1101 SE SYCAMORE APT 218","TUSTIN","CA",92780,33.729131174,-117.829459951,292,"1101 SE SYCAMORE APT 218, TUSTIN, CA, 92780","Match","Non_Exact","1101 SYCAMORE AVE, TUSTIN, CA, 92780",635895066,"L"
60293,"1101 SEPULVEDA BLVD UNIT 101","TORRANCE","CA",90502,33.8115596870001,-118.294027436,293,"1101 SEPULVEDA BLVD UNIT 101, TORRANCE, CA, 90502","Match","Exact","1101 SEPULVEDA BLVD, TORRANCE, CA, 90502",142650641,"R"
60294,"1101 SHADESLAND CT","RENO","NV",89523,NA,NA,294,"1101 SHADESLAND CT, RENO, NV, 89523","No_Match",NA,NA,NA,NA
60295,"1101 SHAGBARK","UNION GROVE","WI",53182,42.6859050900001,-88.0361659709999,295,"1101 SHAGBARK, UNION GROVE, WI, 53182","Match","Non_Exact","1101 SHAGBARK LN, UNION GROVE, WI, 53182",77917712,"R"
60296,"1101 SHAKER RUN","MCKINNEY","TX",75069,33.1871982660001,-96.625196064,296,"1101 SHAKER RUN, MCKINNEY, TX, 75069","Match","Exact","1101 SHAKER RUN, MCKINNEY, TX, 75069",210482192,"L"
60297,"1101 SHERIDAN","DANVILLE","IL",61832,NA,NA,297,"1101 SHERIDAN, DANVILLE, IL, 61832","No_Match",NA,NA,NA,NA
60298,"1101 SHERMAN DRIVE","UTICA","NY",13501,43.0761062300001,-75.2199742339999,298,"1101 SHERMAN DRIVE, UTICA, NY, 13501","Match","Exact","1101 SHERMAN DR, UTICA, NY, 13501",171531780,"L"
60299,"1101 SHINNECOCK HILLS DR","GEORGETOWN","TX",78628,30.6945047950001,-97.687270914,299,"1101 SHINNECOCK HILLS DR, GEORGETOWN, TX, 78628","Match","Exact","1101 SHINNECOCK HILLS DR, GEORGETOWN, TX, 78628",126533171,"R"
60300,"1101 SHORE RD","CHESAPEAKE","VA",23323,36.7800862820001,-76.3238187919999,300,"1101 SHORE RD, CHESAPEAKE, VA, 23323","Match","Exact","1101 SHORE RD, CHESAPEAKE, VA, 23323",121769377,"R"
60301,"1101 SIOUX STREET","DERIDDER","LA",70634,30.868021431,-93.298833843,301,"1101 SIOUX STREET, DERIDDER, LA, 70634","Match","Exact","1101 SIOUX ST, DERIDDER, LA, 70634",88363328,"L"
60302,"1101 SIXTH STREET 5104","MARBLE FALLS","TX",78654,30.5761046210001,-98.27827053,302,"1101 SIXTH STREET 5104, MARBLE FALLS, TX, 78654","Match","Exact","1101 6TH ST, MARBLE FALLS, TX, 78654",146493203,"L"
60303,"1101 SNYDER","TRENTON","MO",64683,40.076459443,-93.601589213,303,"1101 SNYDER, TRENTON, MO, 64683","Match","Non_Exact","1101 SNYDER ST, TRENTON, MO, 64683",17850411,"L"
60304,"1101 SO MAIN ST","ATTLEBORO","MA",2703,41.906263659,-71.317141049,304,"1101 SO MAIN ST, ATTLEBORO, MA, 2703","Match","Non_Exact","1101 S MAIN ST, ATTLEBORO, MA, 02703",46748324,"R"
60305,"1101 SOLAR RD NW","ALBUQUERQUE","NM",87107,35.1517304910001,-106.654198076,305,"1101 SOLAR RD NW, ALBUQUERQUE, NM, 87107","Match","Exact","1101 SOLAR RD NW, ALBUQUERQUE, NM, 87107",648068509,"R"
60306,"1101 SOLITUDE WAY","FAIRBANKS","AK",99709,64.905334258,-147.748729105,306,"1101 SOLITUDE WAY, FAIRBANKS, AK, 99709","Match","Exact","1101 SOLITUDE WAY, FAIRBANKS, AK, 99709",190892940,"L"
60307,"1101 SOUTH 19TH STREET","SPRINGFIELD","IL",62703,39.790455432,-89.629748021,307,"1101 SOUTH 19TH STREET, SPRINGFIELD, IL, 62703","Match","Exact","1101 S 19TH ST, SPRINGFIELD, IL, 62703",97325837,"R"
60308,"1101 SOUTH AUSTIN ST","MAXTON","NC",28364,34.7245502320001,-79.359292287,308,"1101 SOUTH AUSTIN ST, MAXTON, NC, 28364","Match","Exact","1101 S AUSTIN ST, MAXTON, NC, 28364",49133321,"R"
60309,"1101 SOUTH BROADWAY SUITE 120","CARROLLTON","TX",75006,32.952416843,-96.90794389,309,"1101 SOUTH BROADWAY SUITE 120, CARROLLTON, TX, 75006","Match","Non_Exact","1101 S BROADWAY ST, CARROLLTON, TX, 75006",102888562,"L"
60310,"1101 SOUTH CARBON AVE TRLR 42","PRICE","UT",84501,39.586306248,-110.812887033,310,"1101 SOUTH CARBON AVE TRLR 42, PRICE, UT, 84501","Match","Exact","1101 S CARBON AVE, PRICE, UT, 84501",132831086,"R"
60311,"1101 SOUTH DASH POINT ROAD","FEDERAL WAY","WA",98003,47.3349380980001,-122.318941507,311,"1101 SOUTH DASH POINT ROAD, FEDERAL WAY, WA, 98003","Match","Exact","1101 S DASH POINT RD, FEDERAL WAY, WA, 98003",239774315,"R"
60312,"1101 SOUTH DIXIE FREEWAY","NEW SMYRNA BEACH","FL",32168,29.014338991,-80.922006568,312,"1101 SOUTH DIXIE FREEWAY, NEW SMYRNA BEACH, FL, 32168","Match","Exact","1101 S DIXIE FWY, NEW SMYRNA BEACH, FL, 32168",639403936,"R"
60313,"1101 SOUTH KEYSTONE AVENUE","UPPER DARBY","PA",19082,39.9599036320001,-75.27293436,313,"1101 SOUTH KEYSTONE AVENUE, UPPER DARBY, PA, 19082","Match","Exact","1101 S KEYSTONE AVE, UPPER DARBY, PA, 19082",134877566,"R"
60314,"1101 SOUTH M RD","AURORA","NE",68818,40.8436271640001,-98.073540183,314,"1101 SOUTH M RD, AURORA, NE, 68818","Match","Exact","1101 S M RD, AURORA, NE, 68818",159719955,"L"
60315,"1101 SOUTH MCCULLOM","EL CENTRO","CA",92243,NA,NA,315,"1101 SOUTH MCCULLOM, EL CENTRO, CA, 92243","No_Match",NA,NA,NA,NA
60316,"1101 SOUTH NEPTUNE ROAD","EDMOND","OK",73003,35.6428579220001,-97.497667687,316,"1101 SOUTH NEPTUNE ROAD, EDMOND, OK, 73003","Match","Exact","1101 S NEPTUNE RD, EDMOND, OK, 73003",100435424,"R"
60317,"1101 SOUTH POTOMAC STREET","HAGERSTOWN","MD",21740,39.6222967040001,-77.728744405,317,"1101 SOUTH POTOMAC STREET, HAGERSTOWN, MD, 21740","Match","Exact","1101 S POTOMAC ST, HAGERSTOWN, MD, 21740",612163260,"R"
60318,"1101 SOUTH SPENCER RD","NEW LENOX","IL",60451,41.4965358270001,-87.9411366209999,318,"1101 SOUTH SPENCER RD, NEW LENOX, IL, 60451","Match","Exact","1101 S SPENCER RD, NEW LENOX, IL, 60451",111564346,"R"
60319,"1101 SOUTH STREET 603","CHICAGO","IL",60605,NA,NA,319,"1101 SOUTH STREET 603, CHICAGO, IL, 60605","No_Match",NA,NA,NA,NA
60320,"1101 SOUTH WEST 2ND AVE","ALEDO","IL",61231,NA,NA,320,"1101 SOUTH WEST 2ND AVE, ALEDO, IL, 61231","No_Match",NA,NA,NA,NA
60321,"1101 SOUTHEAST BLVD BLDG A","BAYOU VISTA","LA",70380,NA,NA,321,"1101 SOUTHEAST BLVD BLDG A, BAYOU VISTA, LA, 70380","No_Match",NA,NA,NA,NA
60322,"1101 SOUTHER OAKS DR","RALEIGH","NC",27603,35.6201040240001,-78.685772643,322,"1101 SOUTHER OAKS DR, RALEIGH, NC, 27603","Match","Non_Exact","1101 SOUTHERN OAKS DR, RALEIGH, NC, 27603",639837507,"R"
60323,"1101 SPRING STREET","COAL HILL","AR",72832,35.4384314000001,-93.663011946,323,"1101 SPRING STREET, COAL HILL, AR, 72832","Match","Non_Exact","1101 SPRING, COAL HILL, AR, 72832",73530732,"L"
60324,"1101 ST PAUL ST 603","BALTIMORE","MD",21202,39.302548254,-76.614403511,324,"1101 ST PAUL ST 603, BALTIMORE, MD, 21202","Match","Exact","1101 SAINT PAUL ST, BALTIMORE, MD, 21202",206419286,"R"
60325,"1101 ST PAUL STREET  UNIT 1023","BALTIMORE","MD",21202,39.302548254,-76.614403511,325,"1101 ST PAUL STREET  UNIT 1023, BALTIMORE, MD, 21202","Match","Exact","1101 SAINT PAUL ST, BALTIMORE, MD, 21202",206419286,"R"
60326,"1101 STAIN PAUL STREET UNIT 208","BALTIMORE","MD",21202,NA,NA,326,"1101 STAIN PAUL STREET UNIT 208, BALTIMORE, MD, 21202","No_Match",NA,NA,NA,NA
60327,"1101 STEVEN ST","BURLESON","TX",76028,32.5220166570001,-97.33700426,327,"1101 STEVEN ST, BURLESON, TX, 76028","Match","Exact","1101 STEVEN ST, BURLESON, TX, 76028",103516967,"L"
60328,"1101 STINNETT PLACE","DESOTO","TX",75115,32.6017470900001,-96.8842488939999,328,"1101 STINNETT PLACE, DESOTO, TX, 75115","Match","Exact","1101 STINNETT PL, DESOTO, TX, 75115",102944099,"R"
60329,"1101 STINNETTPLACE","DESOTO","TX",75115,NA,NA,329,"1101 STINNETTPLACE, DESOTO, TX, 75115","No_Match",NA,NA,NA,NA
60330,"1101 SUMMERHILL","PARAGOULD","AR",72450,36.046750295,-90.505527983,330,"1101 SUMMERHILL, PARAGOULD, AR, 72450","Match","Exact","1101 SUMMERHILL, PARAGOULD, AR, 72450",47061738,"L"
60331,"1101 SUMMIT AVENUE","GREENSBORO","NC",27405,36.0887737990001,-79.7742196889999,331,"1101 SUMMIT AVENUE, GREENSBORO, NC, 27405","Match","Exact","1101 SUMMIT AVE, GREENSBORO, NC, 27405",131033111,"L"
60332,"1101 SUNNYSIDE AVENUE","AURORA","IN",47001,39.0804197240001,-84.912641471,332,"1101 SUNNYSIDE AVENUE, AURORA, IN, 47001","Match","Exact","1101 SUNNYSIDE AVE, AURORA, IN, 47001",650426092,"R"
60333,"1101 SUNSET DR","BEL AIR","MD",21204,39.532154738,-76.375094099,333,"1101 SUNSET DR, BEL AIR, MD, 21204","Match","Non_Exact","1101 SUNSET DR, BEL AIR, MD, 21014",191654919,"R"
60334,"1101 SUNSET RD  681805","CHARLOTTE","NC",28216,35.32266292,-80.901668294,334,"1101 SUNSET RD  681805, CHARLOTTE, NC, 28216","Match","Exact","1101 SUNSET RD, CHARLOTTE, NC, 28216",70555457,"R"
60335,"1101 SUPERBA AVE","VENICE","CA",90291,33.9981592460001,-118.45623926,335,"1101 SUPERBA AVE, VENICE, CA, 90291","Match","Exact","1101 SUPERBA AVE, VENICE, CA, 90291",141569408,"L"
60336,"1101 SURREY LANE","ALLEN","TX",75013,33.1257396390001,-96.6954335619999,336,"1101 SURREY LANE, ALLEN, TX, 75013","Match","Exact","1101 SURREY LN, ALLEN, TX, 75013",123561085,"R"
60337,"1101 SURREY TRACE","TUMWATER","WA",98501,47.0019657620001,-122.8864139,337,"1101 SURREY TRACE, TUMWATER, WA, 98501","Match","Non_Exact","1101 SURREY TRCE SE, TUMWATER, WA, 98501",180964457,"R"
60338,"1101 SW 23RD STREET","OKLAHOMA CITY","OK",73170,35.3145849270001,-97.51397036,338,"1101 SW 23RD STREET, OKLAHOMA CITY, OK, 73170","Match","Non_Exact","1101 SW 23RD ST, OKLAHOMA CITY, OK, 73170",99934157,"L"
60339,"1101 SW 35 AVENUE","MIAMI","FL",33135,25.7617580570001,-80.251986732,339,"1101 SW 35 AVENUE, MIAMI, FL, 33135","Match","Non_Exact","1101 SW 35TH AVE, MIAMI, FL, 33135",116011916,"L"
60340,"1101 SW 37TH COURT","ANKENY","IA",50023,41.6949100320001,-93.61370429,340,"1101 SW 37TH COURT, ANKENY, IA, 50023","Match","Exact","1101 SW 37TH CT, ANKENY, IA, 50023",65815960,"R"
60341,"1101 SW JACQUELINE AVE","PORT ST LUCIE","FL",34953,27.29104915,-80.383176223,341,"1101 SW JACQUELINE AVE, PORT ST LUCIE, FL, 34953","Match","Non_Exact","1101 SW JACQUELINE AVE, PORT ST LUCIE, FL, 34953",120137757,"R"
60342,"1101 SW WASHINGTON ST","PORTLAND","OR",97205,45.521641678,-122.682476814,342,"1101 SW WASHINGTON ST, PORTLAND, OR, 97205","Match","Exact","1101 SW WASHINGTON ST, PORTLAND, OR, 97205",157499031,"R"
60343,"1101 TANBARK RD","LEXINGTON","KY",40509,37.967133614,-84.4952492739999,343,"1101 TANBARK RD, LEXINGTON, KY, 40509","Match","Non_Exact","1101 TANBARK RD, LEXINGTON, KY, 40515",31946966,"L"
60344,"1101 TEPEE CT","DOUGLAS","WY",82633,42.7446469430001,-105.385453457,344,"1101 TEPEE CT, DOUGLAS, WY, 82633","Match","Exact","1101 TEPEE CT, DOUGLAS, WY, 82633",631793257,"R"
60345,"1101 TERRACE DRIVE","YREKA","CA",96097,41.740375617,-122.648041476,345,"1101 TERRACE DRIVE, YREKA, CA, 96097","Match","Exact","1101 TERRACE DR, YREKA, CA, 96097",113225980,"R"
60346,"1101 TIMBER RUN","O FALLON","IL",62269,38.608164253,-89.896485883,346,"1101 TIMBER RUN, O FALLON, IL, 62269","Match","Exact","1101 TIMBER RUN, O FALLON, IL, 62269",107886779,"R"
60347,"1101 TIMBERLAKE AVE","HIGH POINT","NC",27265,NA,NA,347,"1101 TIMBERLAKE AVE, HIGH POINT, NC, 27265","No_Match",NA,NA,NA,NA
60348,"1101 TOM SADLER ROAD","CHARLOTTE","NC",28214,35.288865548,-80.947200713,348,"1101 TOM SADLER ROAD, CHARLOTTE, NC, 28214","Match","Exact","1101 TOM SADLER RD, CHARLOTTE, NC, 28214",70503986,"R"
60349,"1101 TORRINGTON CIR","ROCK HILL","SC",29732,34.9830224180001,-81.026731578,349,"1101 TORRINGTON CIR, ROCK HILL, SC, 29732","Match","Exact","1101 TORRINGTON CIR, ROCK HILL, SC, 29732",19808342,"L"
60350,"1101 TRAFALGER DRIVE","GLENDALE","CA",91207,34.17336894,-118.237556138,350,"1101 TRAFALGER DRIVE, GLENDALE, CA, 91207","Match","Exact","1101 TRAFALGER DR, GLENDALE, CA, 91207",141609377,"L"
60351,"1101 TRAIL VIEW LANE SE","PINE ISLAND","MN",55963,44.1939403540001,-92.634633847,351,"1101 TRAIL VIEW LANE SE, PINE ISLAND, MN, 55963","Match","Exact","1101 TRAIL VIEW LN SE, PINE ISLAND, MN, 55963",30570801,"R"
60352,"1101 TRAIL VIEW LN SE","PINE ISLAND","MN",55963,44.1939403540001,-92.634633847,352,"1101 TRAIL VIEW LN SE, PINE ISLAND, MN, 55963","Match","Exact","1101 TRAIL VIEW LN SE, PINE ISLAND, MN, 55963",30570801,"R"
60353,"1101 TRINIDAD DR","FORT WORTH","TX",76140,32.604644197,-97.3001989109999,353,"1101 TRINIDAD DR, FORT WORTH, TX, 76140","Match","Exact","1101 TRINIDAD DR, FORT WORTH, TX, 76140",619874383,"L"
60354,"1101 TURNER STREET","CLEARWATER","FL",33756,27.9594826910001,-82.791542937,354,"1101 TURNER STREET, CLEARWATER, FL, 33756","Match","Exact","1101 TURNER ST, CLEARWATER, FL, 33756",124776224,"R"
60355,"1101 TURNER STREET","UNION CITY","TN",38261,36.4072594360001,-89.047104433,355,"1101 TURNER STREET, UNION CITY, TN, 38261","Match","Exact","1101 TURNER ST, UNION CITY, TN, 38261",636649787,"L"
60356,"1101 TYVOLA RD  SUITE 321","CHARLOTTE","NC",28217,35.165338219,-80.877355942,356,"1101 TYVOLA RD  SUITE 321, CHARLOTTE, NC, 28217","Match","Exact","1101 TYVOLA RD, CHARLOTTE, NC, 28217",70486407,"L"
60357,"1101 UNIVERSITY AVENUE SE","MINNEAPOLIS","MN",55414,44.98110188,-93.240564558,357,"1101 UNIVERSITY AVENUE SE, MINNEAPOLIS, MN, 55414","Match","Exact","1101 UNIVERSITY AVE SE, MINNEAPOLIS, MN, 55414",43636795,"L"
60358,"1101 VATICAN ROAD","CHURCH POINT","LA",70525,30.3093046990001,-92.1249366869999,358,"1101 VATICAN ROAD, CHURCH POINT, LA, 70525","Match","Exact","1101 VATICAN RD, CHURCH POINT, LA, 70525",642937136,"R"
60359,"1101 VERMONT ST APT 405","LAWRENCE","KS",66044,38.9637265740001,-95.237407648,359,"1101 VERMONT ST APT 405, LAWRENCE, KS, 66044","Match","Exact","1101 VERMONT ST, LAWRENCE, KS, 66044",17684033,"R"
60360,"1101 VICKERY DR","CHARLOTTE","NC",28215,35.251506885,-80.7616017409999,360,"1101 VICKERY DR, CHARLOTTE, NC, 28215","Match","Exact","1101 VICKERY DR, CHARLOTTE, NC, 28215",70481632,"L"
60361,"1101 VICTORIA ST","BRANDON","FL",33510,27.9451157450001,-82.300406272,361,"1101 VICTORIA ST, BRANDON, FL, 33510","Match","Exact","1101 VICTORIA ST, BRANDON, FL, 33510",104542961,"L"
60362,"1101 VILLA LN APT 1112","ARLINGTON","TX",76017,32.660578462,-97.131874582,362,"1101 VILLA LN APT 1112, ARLINGTON, TX, 76017","Match","Exact","1101 VILLA LN, ARLINGTON, TX, 76017",102131969,"L"
60363,"1101 VILLAGE LAKE DR","MONROE","NC",28110,35.030882928,-80.501246838,363,"1101 VILLAGE LAKE DR, MONROE, NC, 28110","Match","Exact","1101 VILLAGE LAKE DR, MONROE, NC, 28110",649403332,"R"
60364,"1101 VINE AVENUE","MARTINEZ","CA",94553,38.0085555380001,-122.115657043,364,"1101 VINE AVENUE, MARTINEZ, CA, 94553","Match","Exact","1101 VINE AVE, MARTINEZ, CA, 94553",192036117,"L"
60365,"1101 VINE ST","WEATHERFORD","TX",76086,32.7655378520001,-97.8118433879999,365,"1101 VINE ST, WEATHERFORD, TX, 76086","Match","Exact","1101 VINE ST, WEATHERFORD, TX, 76086",103575657,"L"
60366,"1101 VISTORIA ST","BRANDON","FL",33510,27.9451157450001,-82.300406272,366,"1101 VISTORIA ST, BRANDON, FL, 33510","Match","Non_Exact","1101 VICTORIA ST, BRANDON, FL, 33510",104542961,"L"
60367,"1101 VOLUNTEER PKWY STE 5 MB 128","BRISTOL","TN",37620,NA,NA,367,"1101 VOLUNTEER PKWY STE 5 MB 128, BRISTOL, TN, 37620","No_Match",NA,NA,NA,NA
60368,"1101 W  GARDENIA","MCALLEN","TX",78501,26.2332202210001,-98.2262704779999,368,"1101 W  GARDENIA, MCALLEN, TX, 78501","Match","Non_Exact","1101 GARDENIA AVE, MCALLEN, TX, 78501",71494266,"L"
60369,"1101 W 22ND ST","PANAMA CITY","FL",32405,30.187399832,-85.679450425,369,"1101 W 22ND ST, PANAMA CITY, FL, 32405","Match","Exact","1101 W 22ND ST, PANAMA CITY, FL, 32405",7028756,"L"
60370,"1101 W 34TH ST 148","AUSTIN","TX",78705,30.303235828,-97.745838492,370,"1101 W 34TH ST 148, AUSTIN, TX, 78705","Match","Non_Exact","1101 W 34TH ST, AUSTIN, TX, 78705",63942455,"L"
60371,"1101 W 34TH ST APT 156","AUSTIN","TX",78705,30.303235828,-97.745838492,371,"1101 W 34TH ST APT 156, AUSTIN, TX, 78705","Match","Non_Exact","1101 W 34TH ST, AUSTIN, TX, 78705",63942455,"L"
60372,"1101 W 3RD","ALTURAS","CA",96101,41.4864258640001,-120.557812665,372,"1101 W 3RD, ALTURAS, CA, 96101","Match","Non_Exact","1101 W 3RD ST, ALTURAS, CA, 96101",127078109,"L"
60373,"1101 W 87TH ST","KANSAS CITY","MO",64114,38.9710589000001,-94.603052874,373,"1101 W 87TH ST, KANSAS CITY, MO, 64114","Match","Exact","1101 W 87TH ST, KANSAS CITY, MO, 64114",91454315,"L"
60374,"1101 W ERIE STREET SUITE F","CHANDLER","AZ",85224,33.309693602,-111.860992999,374,"1101 W ERIE STREET SUITE F, CHANDLER, AZ, 85224","Match","Non_Exact","1101 W ERIE ST, CHANDLER, AZ, 85224",128242736,"L"
60375,"1101 W GRANT AVE","ULYSSES","KS",67880,37.580643659,-101.371496924,375,"1101 W GRANT AVE, ULYSSES, KS, 67880","Match","Exact","1101 W GRANT AVE, ULYSSES, KS, 67880",145645004,"L"
60376,"1101 W GROVE ST","BOISE","ID",83702,43.616685085,-116.207849758,376,"1101 W GROVE ST, BOISE, ID, 83702","Match","Exact","1101 GROVE ST, BOISE, ID, 83702",117864608,"L"
60377,"1101 W HAMILTON ST STE 273","ALLENTOWN","PA",18101,40.5999854120001,-75.479903237,377,"1101 W HAMILTON ST STE 273, ALLENTOWN, PA, 18101","Match","Non_Exact","1101 W HAMILTON ST, ALLENTOWN, PA, 18101",80770038,"R"
60378,"1101 W JACINTO CIR","MESA","AZ",85210,33.379306634,-111.855075142,378,"1101 W JACINTO CIR, MESA, AZ, 85210","Match","Exact","1101 W JACINTO CIR, MESA, AZ, 85210",128241414,"L"
60379,"1101 W LUCAS RD","LUCAS","TX",75002,33.085951412,-96.561053433,379,"1101 W LUCAS RD, LUCAS, TX, 75002","Match","Non_Exact","1101 E LUCAS RD, LUCAS, TX, 75002",642473869,"R"
60380,"1101 W REDBUD DR","HURST","TX",76053,32.8177692140001,-97.196492341,380,"1101 W REDBUD DR, HURST, TX, 76053","Match","Exact","1101 W REDBUD DR, HURST, TX, 76053",101866628,"L"
60381,"1101 W RIVER ST STE 350","BOISE","ID",83702,43.612410077,-116.211944368,381,"1101 W RIVER ST STE 350, BOISE, ID, 83702","Match","Exact","1101 RIVER ST, BOISE, ID, 83702",117864387,"L"
60382,"1101 W STREET SE","WASHINGTON","DC",20020,38.8653263240001,-76.9905778729999,382,"1101 W STREET SE, WASHINGTON, DC, 20020","Match","Exact","1101 W ST SE, WASHINGTON, DC, 20020",76231073,"R"
60383,"1101 W VICKSBURG PL","1101 W VICKSBURG PL","OK",74011,36.0097319810001,-95.803692144,383,"1101 W VICKSBURG PL, 1101 W VICKSBURG PL, OK, 74011","Match","Non_Exact","1101 W VICKSBURG PL, BROKEN ARROW, OK, 74011",166464523,"R"
60384,"1101 WALNUT UNIT 2004","KANSAS CITY","MO",64106,39.1009682580001,-94.5820157049999,384,"1101 WALNUT UNIT 2004, KANSAS CITY, MO, 64106","Match","Non_Exact","1101 WALNUT ST, KANSAS CITY, MO, 64106",91445184,"L"
60385,"1101 WALTERS WAY","ELK CITY","OK",73644,35.4191652850001,-99.41803357,385,"1101 WALTERS WAY, ELK CITY, OK, 73644","Match","Exact","1101 WALTERS WAY, ELK CITY, OK, 73644",151554283,"R"
60386,"1101 WASHINGTON ST","LEWISBURG","WV",24901,37.8009258880001,-80.444076264,386,"1101 WASHINGTON ST, LEWISBURG, WV, 24901","Match","Non_Exact","1101 E WASHINGTON ST, LEWISBURG, WV, 24901",74723750,"R"
60387,"1101 WELLINGTON DRIVE","LEAVENWORTH","KS",66048,39.278637987,-94.9310314849999,387,"1101 WELLINGTON DRIVE, LEAVENWORTH, KS, 66048","Match","Exact","1101 WELLINGTON DR, LEAVENWORTH, KS, 66048",91406908,"L"
60388,"1101 WEST 11TH ST","GRAFTON","ND",58237,NA,NA,388,"1101 WEST 11TH ST, GRAFTON, ND, 58237","No_Match",NA,NA,NA,NA
60389,"1101 WEST 45TH ST APT  2","LOS ANGELES","CA",90037,34.0026697920001,-118.293894752,389,"1101 WEST 45TH ST APT  2, LOS ANGELES, CA, 90037","Match","Exact","1101 W 45TH ST, LOS ANGELES, CA, 90037",141607784,"R"
60390,"1101 WEST 5TH","BOONE","IA",50036,42.061243575,-93.906948415,390,"1101 WEST 5TH, BOONE, IA, 50036","Match","Non_Exact","1101 W 5TH ST, BOONE, IA, 50036",64934606,"R"
60391,"1101 WEST 9TH STREET","DAVENPORT","IA",52804,41.528855132,-90.588903595,391,"1101 WEST 9TH STREET, DAVENPORT, IA, 52804","Match","Exact","1101 W 9TH ST, DAVENPORT, IA, 52804",122725138,"L"
60392,"1101 WEST RED OAK ROAD","RED OAK","TX",75154,32.517244256,-96.816903972,392,"1101 WEST RED OAK ROAD, RED OAK, TX, 75154","Match","Exact","1101 W RED OAK RD, RED OAK, TX, 75154",632537575,"L"
60393,"1101 WEST SHIRLEY ANN CIRCLE APT  2","WASILLA","AK",99654,61.6081086360001,-149.479722082,393,"1101 WEST SHIRLEY ANN CIRCLE APT  2, WASILLA, AK, 99654","Match","Non_Exact","1101 SHIRLEY-ANN CIR, WASILLA, AK, 99654",191045019,"L"
60394,"1101 WEST STEVENS AVE APT 14","SANTA ANA","CA",92707,33.694576942,-117.88224999,394,"1101 WEST STEVENS AVE APT 14, SANTA ANA, CA, 92707","Match","Exact","1101 W STEVENS AVE, SANTA ANA, CA, 92707",612216042,"R"
60395,"1101 WEST SWANN AVENUE","TAMPA","FL",33606,27.937310681,-82.470763183,395,"1101 WEST SWANN AVENUE, TAMPA, FL, 33606","Match","Exact","1101 W SWANN AVE, TAMPA, FL, 33606",104631248,"R"
60396,"1101 WESTVIEW DRIVE","NAPA","CA",94558,38.309936328,-122.33247237,396,"1101 WESTVIEW DRIVE, NAPA, CA, 94558","Match","Exact","1101 WESTVIEW DR, NAPA, CA, 94558",67428892,"L"
60397,"1101 WHEATLAND RD","PROSPER","TX",75078,33.251428364,-96.74539179,397,"1101 WHEATLAND RD, PROSPER, TX, 75078","Match","Exact","1101 WHEATLAND RD, PROSPER, TX, 75078",210481206,"R"
60398,"1101 WHISPERING SPRING CT","BURLESON","TX",76028,32.52154002,-97.240806828,398,"1101 WHISPERING SPRING CT, BURLESON, TX, 76028","Match","Exact","1101 WHISPERING SPRING CT, BURLESON, TX, 76028",642839356,"R"
60399,"1101 WHITE HORSE ROAD SUITE C","VOORHEES","NJ",8043,39.850368534,-74.9861931899999,399,"1101 WHITE HORSE ROAD SUITE C, VOORHEES, NJ, 8043","Match","Exact","1101 WHITE HORSE RD, VOORHEES, NJ, 08043",134402208,"R"
60400,"1101 WHITEHORSE ROAD","GREENVILLE","SC",29605,NA,NA,400,"1101 WHITEHORSE ROAD, GREENVILLE, SC, 29605","No_Match",NA,NA,NA,NA
60401,"1101 WILLIAMS RD","FORT WORTH","TX",76120,32.7634171820001,-97.200854685,401,"1101 WILLIAMS RD, FORT WORTH, TX, 76120","Match","Exact","1101 WILLIAMS RD, FORT WORTH, TX, 76120",101900979,"L"
60402,"1101 WILLIAMS ST","FLATWOODS","KY",41139,38.5158553380001,-82.7210925259999,402,"1101 WILLIAMS ST, FLATWOODS, KY, 41139","Match","Exact","1101 WILLIAMS ST, FLATWOODS, KY, 41139",151402066,"L"
60403,"1101 WILLOWRIDGE CIRCLE","LEWISVILLE","TX",75067,33.0254121850001,-97.019599499,403,"1101 WILLOWRIDGE CIRCLE, LEWISVILLE, TX, 75067","Match","Exact","1101 WILLOWRIDGE CIR, LEWISVILLE, TX, 75067",635395075,"L"
60404,"1101 WILMINGTON AVE","NEW CASTLE","PA",16101,41.0120692570001,-80.3503207749999,404,"1101 WILMINGTON AVE, NEW CASTLE, PA, 16101","Match","Non_Exact","1101 WILMINGTON RD, NEW CASTLE, PA, 16101",65178635,"L"
60405,"1101 WILSON DR","LANTANA","TX",76226,33.1051705730001,-97.1207087989999,405,"1101 WILSON DR, LANTANA, TX, 76226","Match","Exact","1101 WILSON DR, LANTANA, TX, 76226",641536033,"R"
60406,"1101 WINCHESTER AVE","MEDFORD","OR",97501,42.3137949690001,-122.887700464,406,"1101 WINCHESTER AVE, MEDFORD, OR, 97501","Match","Non_Exact","1101 WINCHESTER ST, MEDFORD, OR, 97501",636600865,"L"
60407,"1101 WINEGARDNER RD","DES MOINES","IA",50317,41.599849851,-93.531047885,407,"1101 WINEGARDNER RD, DES MOINES, IA, 50317","Match","Exact","1101 WINEGARDNER RD, DES MOINES, IA, 50317",65790543,"R"
60408,"1101 WITT ROAD","CINCINNATI","OH",45255,39.069373526,-84.3366010569999,408,"1101 WITT ROAD, CINCINNATI, OH, 45255","Match","Exact","1101 WITT RD, CINCINNATI, OH, 45255",103940874,"L"
60409,"1101 WOOD ST","OAKLAND","CA",94612,37.8111962,-122.299559332,409,"1101 WOOD ST, OAKLAND, CA, 94612","Match","Non_Exact","1101 WOOD ST, OAKLAND, CA, 94607",124995189,"L"
60410,"1101 WOODSIDE AVE","CHARLOTTE","NC",28205,35.238924572,-80.8044332979999,410,"1101 WOODSIDE AVE, CHARLOTTE, NC, 28205","Match","Exact","1101 WOODSIDE AVE, CHARLOTTE, NC, 28205",70566506,"L"
60411,"1101 WOODSTOCK WAY APT B2A","BELLINGHAM","WA",98226,48.7751395720001,-122.464008228,411,"1101 WOODSTOCK WAY APT B2A, BELLINGHAM, WA, 98226","Match","Exact","1101 WOODSTOCK WAY, BELLINGHAM, WA, 98226",653044046,"R"
60412,"1101 WOODWARD AVE","ROTHSCHILD","WI",54474,44.879017418,-89.611728693,412,"1101 WOODWARD AVE, ROTHSCHILD, WI, 54474","Match","Exact","1101 WOODWARD AVE, ROTHSCHILD, WI, 54474",117164472,"R"
60413,"1101 WYLAND CT","LELAND","NC",28451,34.2221627820001,-78.0395218899999,413,"1101 WYLAND CT, LELAND, NC, 28451","Match","Exact","1101 WYLAND CT, LELAND, NC, 28451",153186286,"R"
60414,"1101 WYNDHAM DR","GALLATIN","TN",37066,NA,NA,414,"1101 WYNDHAM DR, GALLATIN, TN, 37066","No_Match",NA,NA,NA,NA
60415,"1101 YEADON AVENUE","LANSDOWNE","PA",19050,39.9260318940001,-75.2473468429999,415,"1101 YEADON AVENUE, LANSDOWNE, PA, 19050","Match","Exact","1101 YEADON AVE, LANSDOWNE, PA, 19050",134886800,"L"
60416,"1101 YEADON AVENUE","YEADON","PA",19050,39.9260318940001,-75.2473468429999,416,"1101 YEADON AVENUE, YEADON, PA, 19050","Match","Exact","1101 YEADON AVE, YEADON, PA, 19050",134886800,"L"
60417,"1101 YEWELL ST","IOWA CITY","IA",52245,41.648169362,-91.5169128109999,417,"1101 YEWELL ST, IOWA CITY, IA, 52245","Match","Non_Exact","1101 YEWELL ST, IOWA CITY, IA, 52240",84496284,"R"
60418,"11010 ANNAPOLIS RD","BOWIE","MD",20720,38.95690898,-76.814435508,418,"11010 ANNAPOLIS RD, BOWIE, MD, 20720","Match","Exact","11010 ANNAPOLIS RD, BOWIE, MD, 20720",639596703,"L"
60419,"11010 ASCOTT VIEW LN","SILVER SPRING","MD",20901,39.0372757580001,-76.995962321,419,"11010 ASCOTT VIEW LN, SILVER SPRING, MD, 20901","Match","Exact","11010 ASCOTT VIEW LN, SILVER SPRING, MD, 20901",618599158,"L"
60420,"11010 BOULDER CIRCLE","ANCHORAGE","AK",99507,61.1209392750001,-149.723112939,420,"11010 BOULDER CIRCLE, ANCHORAGE, AK, 99507","Match","Exact","11010 BOULDER CIR, ANCHORAGE, AK, 99507",190804780,"L"
60421,"11010 BRIDGE CREEK DR","PENSACOLA","FL",32506,30.390094945,-87.376554644,421,"11010 BRIDGE CREEK DR, PENSACOLA, FL, 32506","Match","Exact","11010 BRIDGE CREEK DR, PENSACOLA, FL, 32506",93233838,"L"
60422,"11010 BUNK FOSS RD","SNOHOMISH","WA",98290,47.9491807540001,-122.083944832,422,"11010 BUNK FOSS RD, SNOHOMISH, WA, 98290","Match","Exact","11010 BUNK FOSS RD, SNOHOMISH, WA, 98290",187810920,"L"
60423,"11010 CANDLEWOOD","HOUSTON","TX",77077,NA,NA,423,"11010 CANDLEWOOD, HOUSTON, TX, 77077","No_Match",NA,NA,NA,NA
60424,"11010 FORESTGATE PLACE","GLENN DALE","MD",20769,38.9976017230001,-76.817143304,424,"11010 FORESTGATE PLACE, GLENN DALE, MD, 20769","Match","Exact","11010 FORESTGATE PL, GLENN DALE, MD, 20769",76342707,"L"
60425,"11010 GOLDEN POND DRIVE","EL PASO","TX",79934,31.930585433,-106.403038485,425,"11010 GOLDEN POND DRIVE, EL PASO, TX, 79934","Match","Exact","11010 GOLDEN POND DR, EL PASO, TX, 79934",189380289,"L"
60426,"11010 INDIAN VILLAGE DR","ALPHARETTA","GA",30022,34.048535664,-84.232142579,426,"11010 INDIAN VILLAGE DR, ALPHARETTA, GA, 30022","Match","Exact","11010 INDIAN VILLAGE DR, ALPHARETTA, GA, 30022",17383904,"L"
60427,"11010 LAKE VICTORIA LANE","BOWIE","MD",20720,38.9549781950001,-76.8195770689999,427,"11010 LAKE VICTORIA LANE, BOWIE, MD, 20720","Match","Exact","11010 LAKE VICTORIA LN, BOWIE, MD, 20720",76355321,"R"
60428,"11010 LOUISIANA COURT WEST","CHAMPLIN","MN",55316,45.1554730560001,-93.37017557,428,"11010 LOUISIANA COURT WEST, CHAMPLIN, MN, 55316","Match","Exact","11010 LOUISIANA CT W, CHAMPLIN, MN, 55316",43828272,"L"
60429,"11010 MAIDEN DRIVE","BOWIE","MD",20720,38.9476944300001,-76.8168332879999,429,"11010 MAIDEN DRIVE, BOWIE, MD, 20720","Match","Exact","11010 MAIDEN DR, BOWIE, MD, 20720",76338131,"L"
60430,"11010 MORNINGVIEW","SOUTHGATE","MI",48195,42.2271163570001,-83.208231653,430,"11010 MORNINGVIEW, SOUTHGATE, MI, 48195","Match","Exact","11010 MORNINGVIEW, SOUTHGATE, MI, 48195",95700279,"L"
60431,"11010 N MAY AVENUE","OKLAHOMA CITY","OK",73120,35.582512416,-97.56718019,431,"11010 N MAY AVENUE, OKLAHOMA CITY, OK, 73120","Match","Non_Exact","11010 N MAY AVE, OKLAHOMA CITY, OK, 73120",100423395,"R"
60432,"11010 NOB HILL ROAD","PARKLAND","FL",33076,NA,NA,432,"11010 NOB HILL ROAD, PARKLAND, FL, 33076","No_Match",NA,NA,NA,NA
60433,"11010 PELICAN LN","UPPER MARLBORO","MD",20772,38.7545322240001,-76.815612833,433,"11010 PELICAN LN, UPPER MARLBORO, MD, 20772","Match","Non_Exact","11010 PELICAN DR, UPPER MARLBORO, MD, 20772",76345047,"L"
60434,"11010 PFEFFER ROAD","KINGSVILLE","MD",21087,NA,NA,434,"11010 PFEFFER ROAD, KINGSVILLE, MD, 21087","No_Match",NA,NA,NA,NA
60435,"11010 POPLAR FORD TRL","MANASSAS","VA",20109,38.8349724930001,-77.524204519,435,"11010 POPLAR FORD TRL, MANASSAS, VA, 20109","Match","Exact","11010 POPLAR FORD TRL, MANASSAS, VA, 20109",207156806,"L"
60436,"11010 ROCKLEDGE VIEW DRIVE","RIVERVIEW","FL",33579,27.7826481870001,-82.323756159,436,"11010 ROCKLEDGE VIEW DRIVE, RIVERVIEW, FL, 33579","Match","Exact","11010 ROCKLEDGE VIEW DR, RIVERVIEW, FL, 33579",636366015,"L"
60437,"11010 ROCKY TRAIL","SAN ANTONIO","CA",78249,NA,NA,437,"11010 ROCKY TRAIL, SAN ANTONIO, CA, 78249","No_Match",NA,NA,NA,NA
60438,"11010 ROUGEMONT ROAD","ROUGEMONT","NC",27572,36.1958676300001,-78.948559389,438,"11010 ROUGEMONT ROAD, ROUGEMONT, NC, 27572","Match","Exact","11010 ROUGEMONT RD, ROUGEMONT, NC, 27572",652164995,"R"
60439,"11010 S HARDING AVE","CHICAGO","IL",60655,41.6928529360001,-87.719199814,439,"11010 S HARDING AVE, CHICAGO, IL, 60655","Match","Exact","11010 S HARDING AVE, CHICAGO, IL, 60655",605316739,"R"
60440,"11010 S TRYON STREET","CHARLOTTE","NC",28273,35.1165326440001,-80.959416543,440,"11010 S TRYON STREET, CHARLOTTE, NC, 28273","Match","Exact","11010 S TRYON ST, CHARLOTTE, NC, 28273",612447802,"R"
60441,"11010 SAILBROOK DR","RIVERVIEW","FL",33578,NA,NA,441,"11010 SAILBROOK DR, RIVERVIEW, FL, 33578","No_Match",NA,NA,NA,NA
60442,"11010 SAILBROOKE DR","RIVERVIEW","FL",33579,27.794194975,-82.325023191,442,"11010 SAILBROOKE DR, RIVERVIEW, FL, 33579","Match","Exact","11010 SAILBROOKE DR, RIVERVIEW, FL, 33579",104641104,"R"
60443,"11010 SW 121ST AVE","TIGARD","OR",97223,45.440203593,-122.800251609,443,"11010 SW 121ST AVE, TIGARD, OR, 97223","Match","Exact","11010 SW 121ST AVE, TIGARD, OR, 97223",158234204,"L"
60444,"11010 SW 123 CT","MIAMI","FL",33186,25.6641379860001,-80.3946775329999,444,"11010 SW 123 CT, MIAMI, FL, 33186","Match","Exact","11010 SW 123RD CT, MIAMI, FL, 33186",116257428,"R"
60445,"11010 SW 12TH COURT","PEMPROKE PINES","FL",33025,25.9974270390001,-80.294470759,445,"11010 SW 12TH COURT, PEMPROKE PINES, FL, 33025","Match","Non_Exact","11010 SW 12TH CT, PEMBROKE PINES, FL, 33025",114753648,"R"
60446,"11010 SW 25TH CT APT 6103","MIRAMAR","FL",33025,25.984956143,-80.2932362,446,"11010 SW 25TH CT APT 6103, MIRAMAR, FL, 33025","Match","Non_Exact","11010 SW 25TH CT, MIRAMAR, FL, 33025",646617493,"R"
60447,"11010 THOUSAND OAKS DRIVE","ST LOUIS","MO",63136,38.772370159,-90.251664283,447,"11010 THOUSAND OAKS DRIVE, ST LOUIS, MO, 63136","Match","Exact","11010 THOUSAND OAKS DR, SAINT LOUIS, MO, 63136",100148277,"R"
60448,"11010 W ELM LANE","AVONDALE","AZ",85232,33.4230983160001,-112.296042521,448,"11010 W ELM LANE, AVONDALE, AZ, 85232","Match","Non_Exact","11010 W ELM LN, AVONDALE, AZ, 85323",647582038,"R"
60449,"11010 W ELM LANE","AVONDALE","AZ",85323,33.4230983160001,-112.296042521,449,"11010 W ELM LANE, AVONDALE, AZ, 85323","Match","Exact","11010 W ELM LN, AVONDALE, AZ, 85323",647582038,"R"
60450,"11010 W HWY 156","WEST FORK","AR",72774,NA,NA,450,"11010 W HWY 156, WEST FORK, AR, 72774","No_Match",NA,NA,NA,NA
60451,"11010 WARWICK BLVD","NEWPORT NEWS","VA",23601,37.0433064650001,-76.4729682289999,451,"11010 WARWICK BLVD, NEWPORT NEWS, VA, 23601","Match","Exact","11010 WARWICK BLVD, NEWPORT NEWS, VA, 23601",103824176,"R"
60452,"11010 WELSH ST","JANESVILLE","WI",53548,NA,NA,452,"11010 WELSH ST, JANESVILLE, WI, 53548","No_Match",NA,NA,NA,NA
60453,"11011 1/2  SARAH STREET","NORTH HOLLYWOOD","CA",91602,34.153475223,-118.371023686,453,"11011 1/2  SARAH STREET, NORTH HOLLYWOOD, CA, 91602","Match","Exact","11011 SARAH ST, N HOLLYWOOD, CA, 91602",141591826,"R"
60454,"11011 540 LOOP","LOGAN","NM",88426,35.3750868290001,-103.475254886,454,"11011 540 LOOP, LOGAN, NM, 88426","Match","Exact","11011 540 LOOP, LOGAN, NM, 88426",645018161,"R"
60455,"11011 BUNNY HOP ROAD","BENTON","IL",62812,38.017484562,-88.904844822,455,"11011 BUNNY HOP ROAD, BENTON, IL, 62812","Match","Exact","11011 BUNNY HOP RD, BENTON, IL, 62812",615858874,"L"
60456,"11011 CALLE VERDE DR","AUSTIN","TX",78759,30.401172988,-97.73146485,456,"11011 CALLE VERDE DR, AUSTIN, TX, 78759","Match","Exact","11011 CALLE VERDE DR, AUSTIN, TX, 78759",63929764,"R"
60457,"11011 CRENSHAW BLVD STE 102","INGLEWOOD","CA",90303,33.935663758,-118.326409298,457,"11011 CRENSHAW BLVD STE 102, INGLEWOOD, CA, 90303","Match","Exact","11011 CRENSHAW BLVD, INGLEWOOD, CA, 90303",141657181,"R"
60458,"11011 DEKALB PLACE","CHARLOTTE","NC",28262,35.328302965,-80.6993050469999,458,"11011 DEKALB PLACE, CHARLOTTE, NC, 28262","Match","Exact","11011 DEKALB PL, CHARLOTTE, NC, 28262",70538832,"R"
60459,"11011 DOMAIN DRIVE","AUSTIN","TX",78758,30.396292859,-97.726512086,459,"11011 DOMAIN DRIVE, AUSTIN, TX, 78758","Match","Exact","11011 DOMAIN DR, AUSTIN, TX, 78758",640743411,"L"
60460,"11011 E CALLE VAQUEROS","TUCSON","AZ",85749,32.276951609,-110.757856707,460,"11011 E CALLE VAQUEROS, TUCSON, AZ, 85749","Match","Non_Exact","11011 E CLL VAQUEROS, TUCSON, AZ, 85749",121187630,"L"
60461,"11011 FEATHER BROOK ROAD APT 3C","CHARLOTTE","NC",28262,35.3374343450001,-80.721891093,461,"11011 FEATHER BROOK ROAD APT 3C, CHARLOTTE, NC, 28262","Match","Non_Exact","11011 FEATHERBROOK RD, CHARLOTTE, NC, 28262",70558505,"R"
60462,"11011 GOLDEN SILENCE DRIVE","RIVERVIEW","FL",33579,27.7859312030001,-82.324016375,462,"11011 GOLDEN SILENCE DRIVE, RIVERVIEW, FL, 33579","Match","Exact","11011 GOLDEN SILENCE DR, RIVERVIEW, FL, 33579",636093872,"L"
60463,"11011 HARTS RD APT 1315","JACKSONVILLE","FL",32218,NA,NA,463,"11011 HARTS RD APT 1315, JACKSONVILLE, FL, 32218","Tie",NA,NA,NA,NA
60464,"11011 HARTS ROAD APT 516","JACKSONVILLE","FL",32218,NA,NA,464,"11011 HARTS ROAD APT 516, JACKSONVILLE, FL, 32218","Tie",NA,NA,NA,NA
60465,"11011 HUSTON ST","NORTH HOLLYWOOD","CA",91601,34.160103351,-118.370805088,465,"11011 HUSTON ST, NORTH HOLLYWOOD, CA, 91601","Match","Exact","11011 HUSTON ST, N HOLLYWOOD, CA, 91601",141591786,"R"
60466,"11011 INWOOD AVENUE","WHEATON","MD",20904,39.037454315,-77.0353260539999,466,"11011 INWOOD AVENUE, WHEATON, MD, 20904","Match","Non_Exact","11011 INWOOD AVE, WHEATON, MD, 20902",62064303,"R"
60467,"11011 JEFFERSON ST","BLAINE","MN",55434,45.170541701,-93.2556202169999,467,"11011 JEFFERSON ST, BLAINE, MN, 55434","Match","Non_Exact","11011 JEFFERSON ST NE, BLAINE, MN, 55434",97486244,"R"
60468,"11011 MEADOWVALE CIRCLE","HIGHLANDS RANCH","CO",80130,39.5155374380001,-104.941580904,468,"11011 MEADOWVALE CIRCLE, HIGHLANDS RANCH, CO, 80130","Match","Exact","11011 MEADOWVALE CIR, HIGHLANDS RANCH, CO, 80130",627784894,"L"
60469,"11011 NW 12 CT","MIAMI","FL",33167,25.8751708520001,-80.219495563,469,"11011 NW 12 CT, MIAMI, FL, 33167","Match","Exact","11011 NW 12TH CT, MIAMI, FL, 33167",116056250,"R"
60470,"11011 NW 12TH PLACE","GAINESVILLE","FL",32606,29.6644610970001,-82.4594931399999,470,"11011 NW 12TH PLACE, GAINESVILLE, FL, 32606","Match","Exact","11011 NW 12TH PL, GAINESVILLE, FL, 32606",6802862,"L"
60471,"11011 NW 18TH PL","PEMBROKE PINES","FL",33026,26.02392594,-80.2950068919999,471,"11011 NW 18TH PL, PEMBROKE PINES, FL, 33026","Match","Exact","11011 NW 18TH PL, PEMBROKE PINES, FL, 33026",114700830,"R"
60472,"11011 OLDE MINT HOUSE LN","TOMBALL","TX",77375,30.0655531090001,-95.58501075,472,"11011 OLDE MINT HOUSE LN, TOMBALL, TX, 77375","Match","Exact","11011 OLDE MINT HOUSE LN, TOMBALL, TX, 77375",96555216,"L"
60473,"11011 PARK AVE S","TACOMA","WA",98444,47.1571515630001,-122.438563553,473,"11011 PARK AVE S, TACOMA, WA, 98444","Match","Exact","11011 PARK AVE S, TACOMA, WA, 98444",184731818,"R"
60474,"11011 PINEWOOD","LA PORTE","TX",77571,29.6590642900001,-95.059104576,474,"11011 PINEWOOD, LA PORTE, TX, 77571","Match","Non_Exact","11011 PINEWOOD CT, LA PORTE, TX, 77571",96566018,"L"
60475,"11011 PLEASANT COLONY DR 2097","HOUSTON","TX",77065,29.897336168,-95.58470189,475,"11011 PLEASANT COLONY DR 2097, HOUSTON, TX, 77065","Match","Exact","11011 PLEASANT COLONY DR, HOUSTON, TX, 77065",96651389,"R"
60476,"11011 PLEASANT COLONY DR APT 1525","JERSEY VILLAGE","TX",77065,29.897336168,-95.58470189,476,"11011 PLEASANT COLONY DR APT 1525, JERSEY VILLAGE, TX, 77065","Match","Exact","11011 PLEASANT COLONY DR, JERSEY VILLAGE, TX, 77065",96651389,"R"
60477,"11011 RED SNOW DR","CHARLOTTE","NC",28215,35.251935706,-80.6392208519999,477,"11011 RED SNOW DR, CHARLOTTE, NC, 28215","Match","Non_Exact","11011 RED SNOW CT, CHARLOTTE, NC, 28215",70518173,"R"
60478,"11011 S 513TH W AVE","DRUMRIGHT","OK",74030,36.004091094,-96.566049391,478,"11011 S 513TH W AVE, DRUMRIGHT, OK, 74030","Match","Exact","11011 S 513TH WEST AVE, DRUMRIGHT, OK, 74030",165907156,"R"
60479,"11011 S CAMBRIDGE","PARKER","CO",80138,39.5150791520001,-104.752508293,479,"11011 S CAMBRIDGE, PARKER, CO, 80138","Match","Non_Exact","11011 S CAMBRIDGE PL, PARKER, CO, 80138",130803972,"L"
60480,"11011 SAFFOLD WAY","RESTON","VA",20190,38.970954829,-77.328004064,480,"11011 SAFFOLD WAY, RESTON, VA, 20190","Match","Exact","11011 SAFFOLD WAY, RESTON, VA, 20190",76035610,"R"
60481,"11011 SANTA FE AVE EAST","HESPERIA","CA",92345,34.452069813,-117.291490524,481,"11011 SANTA FE AVE EAST, HESPERIA, CA, 92345","Match","Exact","11011 SANTA FE AVE E, HESPERIA, CA, 92345",144588760,"R"
60482,"11011 SCAGGSVILLE RD","LAUREL","MD",20723,39.144083562,-76.894234307,482,"11011 SCAGGSVILLE RD, LAUREL, MD, 20723","Match","Exact","11011 SCAGGSVILLE RD, LAUREL, MD, 20723",158959465,"L"
60483,"11011 SCENIC POINT","SAN ANTONIO","TX",78254,29.536440676,-98.678747618,483,"11011 SCENIC POINT, SAN ANTONIO, TX, 78254","Match","Exact","11011 SCENIC PT, SAN ANTONIO, TX, 78254",101699573,"L"
60484,"11011 SE 256TH ST UNIT 201","KENT","WA",98030,47.3725667190001,-122.196810377,484,"11011 SE 256TH ST UNIT 201, KENT, WA, 98030","Match","Non_Exact","11011 SE 256TH ST, KENT, WA, 98030",633295773,"L"
60485,"11011 SW 104 ST","MIAMI","FL",33176,25.672067659,-80.3776718239999,485,"11011 SW 104 ST, MIAMI, FL, 33176","Match","Exact","11011 SW 104TH ST, MIAMI, FL, 33176",115979688,"R"
60486,"11011 VICTORSON COURT","KETCHIKAN","AK",99901,55.4326292960001,-131.791982039,486,"11011 VICTORSON COURT, KETCHIKAN, AK, 99901","Match","Exact","11011 VICTORSON CT, KETCHIKAN, AK, 99901",190775929,"R"
60487,"11011 VINCENT AVE S","BLOOMINGTON","MN",55431,44.8042903460001,-93.316840622,487,"11011 VINCENT AVE S, BLOOMINGTON, MN, 55431","Match","Exact","11011 VINCENT AVE S, BLOOMINGTON, MN, 55431",43595441,"L"
60488,"11012 5TH AVE","HESPERIA","CA",92345,34.4511233760001,-117.309209083,488,"11012 5TH AVE, HESPERIA, CA, 92345","Match","Exact","11012 5TH AVE, HESPERIA, CA, 92345",144588771,"L"
60489,"11012 ALEXANDRIA DR","FRISCO","TX",75035,33.128583887,-96.7834283299999,489,"11012 ALEXANDRIA DR, FRISCO, TX, 75035","Match","Exact","11012 ALEXANDRIA DR, FRISCO, TX, 75035",123527579,"L"
60490,"11012 BENWELL DR","LYNWOOD","CA",90262,33.9316696430001,-118.199729645,490,"11012 BENWELL DR, LYNWOOD, CA, 90262","Match","Exact","11012 BENWELL DR, LYNWOOD, CA, 90262",141678066,"L"
60491,"11012 CANVASBACK CT","SPOTSYLVANIA","VA",22553,38.2656506640001,-77.6173857589999,491,"11012 CANVASBACK CT, SPOTSYLVANIA, VA, 22553","Match","Exact","11012 CANVASBACK CT, SPOTSYLVANIA, VA, 22553",228797632,"R"
60492,"11012 CANYON RD E STE 8 PMB 190","PUYALLUP","WA",98373,47.156156481,-122.357188269,492,"11012 CANYON RD E STE 8 PMB 190, PUYALLUP, WA, 98373","Match","Exact","11012 CANYON RD E, PUYALLUP, WA, 98373",184759994,"R"
60493,"11012 CANYON RD E STE 8-110","PUYALLUP","WA",98373,47.156156481,-122.357188269,493,"11012 CANYON RD E STE 8-110, PUYALLUP, WA, 98373","Match","Exact","11012 CANYON RD E, PUYALLUP, WA, 98373",184759994,"R"
60494,"11012 CANYON RD EAST","TACOMA","WA",98373,47.156156481,-122.357188269,494,"11012 CANYON RD EAST, TACOMA, WA, 98373","Match","Non_Exact","11012 CANYON RD E, PUYALLUP, WA, 98373",184759994,"R"
60495,"11012 CHANERA AVENUE","INGLEWOOD","CA",90303,33.9354999070001,-118.32440732,495,"11012 CHANERA AVENUE, INGLEWOOD, CA, 90303","Match","Non_Exact","11012 S CHANERA AVE, INGLEWOOD, CA, 90303",141657180,"L"
60496,"11012 FALL CREST WAY","SAN DIEGO","CA",92126,32.9178183490001,-117.177628358,496,"11012 FALL CREST WAY, SAN DIEGO, CA, 92126","Match","Exact","11012 FALL CREST WAY, SAN DIEGO, CA, 92126",645308674,"R"
60497,"11012 INTERLAAKEN DR SW","LAKEWOOD","WA",98498,47.157526225,-122.541824735,497,"11012 INTERLAAKEN DR SW, LAKEWOOD, WA, 98498","Match","Exact","11012 INTERLAAKEN DR SW, LAKEWOOD, WA, 98498",184621578,"R"
60498,"11012 LUCKY HORSESHOE LANE","CHARLOTTE","FL",28277,NA,NA,498,"11012 LUCKY HORSESHOE LANE, CHARLOTTE, FL, 28277","No_Match",NA,NA,NA,NA
60499,"11012 MOUNTAIN CLIMB","HELOTES","TX",78023,29.599600133,-98.7110826269999,499,"11012 MOUNTAIN CLIMB, HELOTES, TX, 78023","Match","Exact","11012 MOUNTAIN CLIMB, HELOTES, TX, 78023",101487923,"R"
60500,"11012 NORTON AVENUE","KANSAS CITY","MO",64137,38.926147773,-94.5437373189999,500,"11012 NORTON AVENUE, KANSAS CITY, MO, 64137","Match","Exact","11012 NORTON AVE, KANSAS CITY, MO, 64137",91483735,"L"
