"ID","Address","City","State","Zip","lat","long","id","input_address","match_indicator","match_type","matched_address","tiger_line_id","tiger_side"
489501,"310 E 105TH STREET","NEW YORK","NY",10029,40.7897775590001,-73.942530956,1,"310 E 105TH STREET, NEW YORK, NY, 10029","Match","Exact","310 E 105TH ST, NEW YORK, NY, 10029",59658178,"R"
489502,"310 E 10TH ST","INDIANAPOLIS","IN",46202,39.781079376,-86.151607175,2,"310 E 10TH ST, INDIANAPOLIS, IN, 46202","Match","Exact","310 E 10TH ST, INDIANAPOLIS, IN, 46202",108051762,"L"
489503,"310 E 1ST ST","BALD KNOB","AR",72010,35.307424767,-91.568965344,3,"310 E 1ST ST, BALD KNOB, AR, 72010","Match","Exact","310 E 1ST ST, BALD KNOB, AR, 72010",82945020,"L"
489504,"310 E 2ND AVE","RITZVILLE","WA",99169,47.1274212160001,-118.375266491,4,"310 E 2ND AVE, RITZVILLE, WA, 99169","Match","Exact","310 E 2ND AVE, RITZVILLE, WA, 99169",181841009,"L"
489505,"310 E 2ND ST 5C","NY","NY",10009,40.720624935,-73.980160556,5,"310 E 2ND ST 5C, NY, NY, 10009","Match","Non_Exact","310 E 2ND ST, NEW YORK, NY, 10009",59654749,"L"
489506,"310 E 2ND STREET APT 5E","NEW YORK","NY",10009,40.720624935,-73.980160556,6,"310 E 2ND STREET APT 5E, NEW YORK, NY, 10009","Match","Non_Exact","310 E 2ND ST, NEW YORK, NY, 10009",59654749,"L"
489507,"310 E 35TH ST","ANDERSON","IN",46013,40.079852965,-85.6751126939999,7,"310 E 35TH ST, ANDERSON, IN, 46013","Match","Exact","310 E 35TH ST, ANDERSON, IN, 46013",31115407,"L"
489508,"310 E 38TH ST SUITE 224","MINNEAPOLIS","MN",55409,NA,NA,8,"310 E 38TH ST SUITE 224, MINNEAPOLIS, MN, 55409","Tie",NA,NA,NA,NA
489509,"310 E 38TH STREET SUITE 305","MINNEAPOLIS","MN",55409,NA,NA,9,"310 E 38TH STREET SUITE 305, MINNEAPOLIS, MN, 55409","Tie",NA,NA,NA,NA
489510,"310 E 44TH ST STE C","NEW YORK","NY",10017,40.7509562010001,-73.970880654,10,"310 E 44TH ST STE C, NEW YORK, NY, 10017","Match","Non_Exact","310 E 44TH ST, NEW YORK, NY, 10017",640866014,"R"
489511,"310 E 6TH ST","MARION","MI",49665,44.1062916870001,-85.1435339939999,11,"310 E 6TH ST, MARION, MI, 49665","Match","Exact","310 SIXTH ST, MARION, MI, 49665",110621509,"L"
489512,"310 E 6TH ST","MOSCOW","ID",83843,46.7301664170001,-116.998340121,12,"310 E 6TH ST, MOSCOW, ID, 83843","Match","Exact","310 E 6TH ST, MOSCOW, ID, 83843",193850462,"R"
489513,"310 E 6TH","STRONG CITY","KS",66869,38.399091775,-96.536357949,13,"310 E 6TH, STRONG CITY, KS, 66869","Match","Non_Exact","310 6TH ST, STRONG CITY, KS, 66869",32340078,"R"
489514,"310 E 8TH","RITZVILLE","WA",99169,47.1243849910001,-118.370206686,14,"310 E 8TH, RITZVILLE, WA, 99169","Match","Non_Exact","310 E 8TH AVE, RITZVILLE, WA, 99169",181849827,"R"
489515,"310 E ASH","OBERLIN","KS",67749,39.8237488770001,-100.526351177,15,"310 E ASH, OBERLIN, KS, 67749","Match","Non_Exact","310 E ASH ST, OBERLIN, KS, 67749",164206817,"R"
489516,"310 E ASHLAN AVE","FRESNO","CA",93704,36.7938970390001,-119.808315517,16,"310 E ASHLAN AVE, FRESNO, CA, 93704","Match","Exact","310 E ASHLAN AVE, FRESNO, CA, 93704",197573930,"R"
489517,"310 E AVE K","JEROME","ID",83338,42.7135499780001,-114.51509272,17,"310 E AVE K, JEROME, ID, 83338","Match","Exact","310 E AVE K, JEROME, ID, 83338",646600001,"R"
489518,"310 E BALBOA BLVD APT 6","NEWPORT BEACH","CA",92661,NA,NA,18,"310 E BALBOA BLVD APT 6, NEWPORT BEACH, CA, 92661","Tie",NA,NA,NA,NA
489519,"310 E BARTON ST","GRANBURY","TX",76048,32.4496126550001,-97.784738595,19,"310 E BARTON ST, GRANBURY, TX, 76048","Match","Exact","310 E BARTON ST, GRANBURY, TX, 76048",158789059,"R"
489520,"310 E BUFFALO STREET STE 128","MILWAUKEE","WI",53202,43.0338545860001,-87.907043662,20,"310 E BUFFALO STREET STE 128, MILWAUKEE, WI, 53202","Match","Non_Exact","310 E BUFFALO ST, MILWAUKEE, WI, 53202",77744684,"L"
489521,"310 E CAMINO COLEGIO","SANTA MARIA","CA",93455,NA,NA,21,"310 E CAMINO COLEGIO, SANTA MARIA, CA, 93455","No_Match",NA,NA,NA,NA
489522,"310 E DIVISION","FOND DU LAC","WI",54935,43.7787473160001,-88.435222035,22,"310 E DIVISION, FOND DU LAC, WI, 54935","Match","Non_Exact","310 E DIVISION ST, FOND DU LAC, WI, 54935",74810642,"R"
489523,"310 E FIR DR","GERVAIS","OR",97026,45.105663786,-122.892217814,23,"310 E FIR DR, GERVAIS, OR, 97026","Match","Exact","310 E FIR DR, GERVAIS, OR, 97026",156270229,"R"
489524,"310 E GARFIELD ST","CLARINDA","IA",51632,40.7350931770001,-95.034867637,24,"310 E GARFIELD ST, CLARINDA, IA, 51632","Match","Exact","310 E GARFIELD ST, CLARINDA, IA, 51632",10225808,"R"
489525,"310 E GAY STREET","LANCASTER","SC",29720,34.720170399,-80.766606923,25,"310 E GAY STREET, LANCASTER, SC, 29720","Match","Exact","310 E GAY ST, LANCASTER, SC, 29720",40693091,"L"
489526,"310 E GILSON","EDMORE","MI",48829,43.4070674110001,-85.041498802,26,"310 E GILSON, EDMORE, MI, 48829","Match","Non_Exact","310 E GILSON ST, EDMORE, MI, 48829",110558714,"R"
489527,"310 E JEFFERSON ST","MORRIS","IL",60450,41.359241238,-88.421387669,27,"310 E JEFFERSON ST, MORRIS, IL, 60450","Match","Exact","310 E JEFFERSON ST, MORRIS, IL, 60450",54441759,"L"
489528,"310 E LAMBRIGHT STREET UNIT 2","TAMPA","FL",33604,NA,NA,28,"310 E LAMBRIGHT STREET UNIT 2, TAMPA, FL, 33604","Tie",NA,NA,NA,NA
489529,"310 E LAURA STREET","ROGERS","AR",72756,NA,NA,29,"310 E LAURA STREET, ROGERS, AR, 72756","Tie",NA,NA,NA,NA
489530,"310 E MAIN STREET","LOUISA","KY",41230,38.1140348770001,-82.607018046,30,"310 E MAIN STREET, LOUISA, KY, 41230","Match","Non_Exact","310 W MAIN ST, LOUISA, KY, 41230",34844653,"R"
489531,"310 E MAIN STREET","NORMAN","OK",73069,35.2221914020001,-97.440295164,31,"310 E MAIN STREET, NORMAN, OK, 73069","Match","Exact","310 E MAIN ST, NORMAN, OK, 73069",99911418,"R"
489532,"310 E MCKINNEY","HERMISTON","OR",97838,45.8277467780001,-119.286084796,32,"310 E MCKINNEY, HERMISTON, OR, 97838","Match","Non_Exact","310 E MCKINNEY AVE, HERMISTON, OR, 97838",616382189,"R"
489533,"310 E MICHIGAN AVENUE APT 3","URBANA","IL",61801,NA,NA,33,"310 E MICHIGAN AVENUE APT 3, URBANA, IL, 61801","Tie",NA,NA,NA,NA
489534,"310 E NORTH ST","CAMBRIDGE","WI",53523,43.003861074,-89.013376694,34,"310 E NORTH ST, CAMBRIDGE, WI, 53523","Match","Exact","310 NORTH ST, CAMBRIDGE, WI, 53523",49557689,"R"
489535,"310 E OAKLAND PARK BLVD","WILTON MANORS","FL",33334,26.1665376920001,-80.142262834,35,"310 E OAKLAND PARK BLVD, WILTON MANORS, FL, 33334","Match","Exact","310 E OAKLAND PARK BLVD, WILTON MANORS, FL, 33334",637131702,"R"
489536,"310 E PINE ST NUMBER 9","HALLSVILLE","TX",75650,32.5055397080001,-94.571124702,36,"310 E PINE ST NUMBER 9, HALLSVILLE, TX, 75650","Match","Exact","310 PINE ST, HALLSVILLE, TX, 75650",141170962,"L"
489537,"310 E RIDGE ST","KINGS MOUNTAIN","NC",28086,35.2425190600001,-81.337975151,37,"310 E RIDGE ST, KINGS MOUNTAIN, NC, 28086","Match","Exact","310 E RIDGE ST, KINGS MOUNTAIN, NC, 28086",640611493,"L"
489538,"310 E SMOKETREE TER","JOHNS CREEK","GA",30005,34.0769822550001,-84.18442591,38,"310 E SMOKETREE TER, JOHNS CREEK, GA, 30005","Match","Exact","310 E SMOKETREE TER, JOHNS CREEK, GA, 30005",17421141,"L"
489539,"310 E SOUTH ST","ANGOLA","IN",46703,41.633167744,-84.9967330059999,39,"310 E SOUTH ST, ANGOLA, IN, 46703","Match","Exact","310 E SOUTH ST, ANGOLA, IN, 46703",7715322,"L"
489540,"310 E SPRING STREET","OXFORD","NC",27565,36.3115491070001,-78.584175,40,"310 E SPRING STREET, OXFORD, NC, 27565","Match","Exact","310 E SPRING ST, OXFORD, NC, 27565",77102700,"R"
489541,"310 E THIRD STREET","FLINT","MI",48502,43.015326773,-83.6862989959999,41,"310 E THIRD STREET, FLINT, MI, 48502","Match","Exact","310 E THIRD ST, FLINT, MI, 48502",69568869,"R"
489542,"310 E THORN ST","COLFAX","WA",99111,46.8750659890001,-117.362530414,42,"310 E THORN ST, COLFAX, WA, 99111","Match","Exact","310 E THORN ST, COLFAX, WA, 99111",173287184,"L"
489543,"310 E TRAVERSE LAKE","CEDAR","MI",49682,NA,NA,43,"310 E TRAVERSE LAKE, CEDAR, MI, 49682","No_Match",NA,NA,NA,NA
489544,"310 E TYLER STREET STE A","HARLINGEN","TX",78552,NA,NA,44,"310 E TYLER STREET STE A, HARLINGEN, TX, 78552","No_Match",NA,NA,NA,NA
489545,"310 E UPSAL ST","PHILADELPHIA","PA",19119,40.0522612090001,-75.179297618,45,"310 E UPSAL ST, PHILADELPHIA, PA, 19119","Match","Exact","310 E UPSAL ST, PHILADELPHIA, PA, 19119",131395334,"R"
489546,"310 E WASHINGTON","PONTIAC","IL",61764,40.8794911890001,-88.626208167,46,"310 E WASHINGTON, PONTIAC, IL, 61764","Match","Non_Exact","310 E WASHINGTON ST, PONTIAC, IL, 61764",22372957,"L"
489547,"310 EAST 19TH STREET APARTMENT 17","NEW YORK","NY",10003,40.7352583000001,-73.982295259,47,"310 EAST 19TH STREET APARTMENT 17, NEW YORK, NY, 10003","Match","Exact","310 E 19TH ST, NEW YORK, NY, 10003",59654584,"R"
489548,"310 EAST 24TH STREET APT 2K","NEW YORK","NY",10010,40.738381727,-73.980028658,48,"310 EAST 24TH STREET APT 2K, NEW YORK, NY, 10010","Match","Exact","310 E 24TH ST, NEW YORK, NY, 10010",59654555,"R"
489549,"310 EAST 3RD ST","WASHBURN","WI",54891,46.6766895160001,-90.8876557739999,49,"310 EAST 3RD ST, WASHBURN, WI, 54891","Match","Exact","310 E 3RD ST, WASHBURN, WI, 54891",194282160,"R"
489550,"310 EAST 44TH ST APT 1101","NEW YORK","NY",10017,40.7509579590001,-73.970884739,50,"310 EAST 44TH ST APT 1101, NEW YORK, NY, 10017","Match","Exact","310 E 44TH ST, NEW YORK, NY, 10017",640866014,"R"
489551,"310 EAST 44TH STREET - APT 810","NEW YORK","NY",10017,40.7509579590001,-73.970884739,51,"310 EAST 44TH STREET - APT 810, NEW YORK, NY, 10017","Match","Exact","310 E 44TH ST, NEW YORK, NY, 10017",640866014,"R"
489552,"310 EAST 46TH ST UNIT 6T","NEW YORK","NY",10017,40.752291857,-73.9701470539999,52,"310 EAST 46TH ST UNIT 6T, NEW YORK, NY, 10017","Match","Exact","310 E 46TH ST, NEW YORK, NY, 10017",650072470,"R"
489553,"310 EAST 4TH AVENUE","LITITZ","PA",17543,40.1485327340001,-76.299808496,53,"310 EAST 4TH AVENUE, LITITZ, PA, 17543","Match","Non_Exact","310 E 4TH ST, LITITZ, PA, 17543",179686513,"R"
489554,"310 EAST 53RD STREET APT 9A","NEW YORK","NY",10022,40.7565977150001,-73.9667626839999,54,"310 EAST 53RD STREET APT 9A, NEW YORK, NY, 10022","Match","Exact","310 E 53RD ST, NEW YORK, NY, 10022",651705931,"R"
489555,"310 EAST 53RD STREET","ANDERSON","IN",46013,40.061816246,-85.675528173,55,"310 EAST 53RD STREET, ANDERSON, IN, 46013","Match","Exact","310 E 53RD ST, ANDERSON, IN, 46013",31115818,"L"
489556,"310 EAST 54TH STREET","SAVANNAH","GA",31405,32.0424698200001,-81.098077597,56,"310 EAST 54TH STREET, SAVANNAH, GA, 31405","Match","Exact","310 E 54TH ST, SAVANNAH, GA, 31405",6178083,"L"
489557,"310 EAST 6340 SOUTH","MURRAY","UT",84107,40.633636337,-111.881679582,57,"310 EAST 6340 SOUTH, MURRAY, UT, 84107","Match","Exact","310 E 6340 S, MURRAY, UT, 84107",176097935,"R"
489558,"310 EAST 70TH ST 7K","NEW YORK","NY",10021,40.7673333450001,-73.958947504,58,"310 EAST 70TH ST 7K, NEW YORK, NY, 10021","Match","Exact","310 E 70TH ST, NEW YORK, NY, 10021",650072570,"R"
489559,"310 EAST 70TH STREET 12U","New York","NY",10021,40.7673333450001,-73.958947504,59,"310 EAST 70TH STREET 12U, New York, NY, 10021","Match","Exact","310 E 70TH ST, NEW YORK, NY, 10021",650072570,"R"
489560,"310 EAST 71ST ST 7F","NEW YORK","NY",10021,40.7679512030001,-73.958470806,60,"310 EAST 71ST ST 7F, NEW YORK, NY, 10021","Match","Exact","310 E 71ST ST, NEW YORK, NY, 10021",642471542,"R"
489561,"310 EAST 71ST STREET APT 3K","NEW YORK","NY",10021,40.7679512030001,-73.958470806,61,"310 EAST 71ST STREET APT 3K, NEW YORK, NY, 10021","Match","Exact","310 E 71ST ST, NEW YORK, NY, 10021",642471542,"R"
489562,"310 EAST 75TH STREET APT 2J","NEW YORK","NY",10021,40.770625002,-73.9566460679999,62,"310 EAST 75TH STREET APT 2J, NEW YORK, NY, 10021","Match","Exact","310 E 75TH ST, NEW YORK, NY, 10021",650073006,"R"
489563,"310 EAST 7TH STREET","LATHROP","CA",95231,37.88243178,-121.271245806,63,"310 EAST 7TH STREET, LATHROP, CA, 95231","Match","Non_Exact","310 E 7TH ST, FRENCH CAMP, CA, 95231",133855083,"R"
489564,"310 EAST 9TH ST","HERMANN","MO",65041,38.69963397,-91.4331526349999,64,"310 EAST 9TH ST, HERMANN, MO, 65041","Match","Exact","310 E 9TH ST, HERMANN, MO, 65041",647415014,"R"
489565,"310 EAST BROADWAY","EAGLE GROVE","IA",50533,42.6641205980001,-93.898784142,65,"310 EAST BROADWAY, EAGLE GROVE, IA, 50533","Match","Non_Exact","310 E BROADWAY ST, EAGLE GROVE, IA, 50533",90719087,"L"
489566,"310 EAST CAMELIA","MESQUITE","NV",89027,NA,NA,66,"310 EAST CAMELIA, MESQUITE, NV, 89027","Tie",NA,NA,NA,NA
489567,"310 EAST CAMPUS ROAD ROOM 219","ATHENS","GA",30602,33.94478924,-83.370939713,67,"310 EAST CAMPUS ROAD ROOM 219, ATHENS, GA, 30602","Match","Exact","310 E CAMPUS RD, ATHENS, GA, 30602",4803478,"R"
489568,"310 EAST CLAREMONT ROAD","PHILADELPHIA","PA",19120,40.0464166940001,-75.114971881,68,"310 EAST CLAREMONT ROAD, PHILADELPHIA, PA, 19120","Match","Exact","310 E CLAREMONT RD, PHILADELPHIA, PA, 19120",649365847,"R"
489569,"310 EAST FEDERAL STREET","NILES","OH",44446,41.1855387140001,-80.7595301649999,69,"310 EAST FEDERAL STREET, NILES, OH, 44446","Match","Exact","310 E FEDERAL ST, NILES, OH, 44446",117426359,"L"
489570,"310 EAST GENESEE","FLINT","MI",48505,43.04315038,-83.700707329,70,"310 EAST GENESEE, FLINT, MI, 48505","Match","Non_Exact","310 E GENESEE ST, FLINT, MI, 48505",69567166,"R"
489571,"310 EAST I-30 STE B105","GARLAND","TX",75043,32.847376018,-96.576541806,71,"310 EAST I-30 STE B105, GARLAND, TX, 75043","Match","Non_Exact","310 E I- 30, GARLAND, TX, 75043",103202807,"R"
489572,"310 EAST IOWA AVENUE","BERTHOUD","CO",80513,40.299154899,-105.06909694,72,"310 EAST IOWA AVENUE, BERTHOUD, CO, 80513","Match","Exact","310 E IOWA AVE, BERTHOUD, CO, 80513",188522829,"L"
489573,"310 EAST MARLETTE","PHOENIX","AZ",85012,33.529216143,-112.068926314,73,"310 EAST MARLETTE, PHOENIX, AZ, 85012","Match","Non_Exact","310 E MARLETTE AVE, PHOENIX, AZ, 85012",128919012,"L"
489574,"310 EAST PLEASANT STREET","CYNTHIANA","KY",41031,38.3900912400001,-84.2931415419999,74,"310 EAST PLEASANT STREET, CYNTHIANA, KY, 41031","Match","Exact","310 E PLEASANT ST, CYNTHIANA, KY, 41031",57899931,"R"
489575,"310 EAST PLEASANT STREET","PHILADELPHIA","PA",19119,40.0575751430001,-75.182716269,75,"310 EAST PLEASANT STREET, PHILADELPHIA, PA, 19119","Match","Exact","310 E PLEASANT ST, PHILADELPHIA, PA, 19119",131395198,"R"
489576,"310 EAST POCKET RD","FLORENCE","SC",29506,34.275042711,-79.7214434649999,76,"310 EAST POCKET RD, FLORENCE, SC, 29506","Match","Exact","310 E POCKET RD, FLORENCE, SC, 29506",28890031,"L"
489577,"310 EAST SAYLOR STREET","MOUNT CARMEL","PA",17851,40.7997562190001,-76.4227047689999,77,"310 EAST SAYLOR STREET, MOUNT CARMEL, PA, 17851","Match","Exact","310 E SAYLOR ST, MOUNT CARMEL, PA, 17851",48063360,"R"
489578,"310 EAST SOUTH ST","LISBON","IA",52253,41.919823615,-91.381549058,78,"310 EAST SOUTH ST, LISBON, IA, 52253","Match","Exact","310 E SOUTH ST, LISBON, IA, 52253",17046520,"L"
489579,"310 EAST STATION STREET","BAXTER","IA",50028,41.8272547220001,-93.146530696,79,"310 EAST STATION STREET, BAXTER, IA, 50028","Match","Exact","310 E STATION ST, BAXTER, IA, 50028",89438524,"R"
489580,"310 EAST STREET ELMO STE B","AUSTIN","TX",78745,NA,NA,80,"310 EAST STREET ELMO STE B, AUSTIN, TX, 78745","No_Match",NA,NA,NA,NA
489581,"310 EAST STREET SUITE A","JONESBORO","AR",72401,35.839870445,-90.702849956,81,"310 EAST STREET SUITE A, JONESBORO, AR, 72401","Match","Exact","310 EAST ST, JONESBORO, AR, 72401",46909216,"R"
489582,"310 EAST STREET","RENSSELAER","NY",12144,42.6374986440001,-73.7411570419999,82,"310 EAST STREET, RENSSELAER, NY, 12144","Match","Exact","310 EAST ST, RENSSELAER, NY, 12144",35727733,"R"
489583,"310 EASTRIDGE DR","LAENDALE","NC",28090,35.5006260070001,-81.504424071,83,"310 EASTRIDGE DR, LAENDALE, NC, 28090","Match","Non_Exact","310 EASTRIDGE DR, LAWNDALE, NC, 28090",636566742,"R"
489584,"310 EASTWOOD ROAD","CHAPEL HILL","NC",27514,35.9470705210001,-79.044713552,84,"310 EASTWOOD ROAD, CHAPEL HILL, NC, 27514","Match","Exact","310 EASTWOOD RD, CHAPEL HILL, NC, 27514",72386159,"R"
489585,"310 EASY STREET","MOUNTAIN VIEW","CA",94043,37.398907116,-122.066284223,85,"310 EASY STREET, MOUNTAIN VIEW, CA, 94043","Match","Exact","310 EASY ST, MOUNTAIN VIEW, CA, 94043",614030689,"L"
489586,"310 EBENEZER RD","LEBANON","PA",17046,40.357379958,-76.457310051,86,"310 EBENEZER RD, LEBANON, PA, 17046","Match","Exact","310 EBENEZER RD, LEBANON, PA, 17046",80694351,"R"
489587,"310 EDGEMORE AVENUE","CARY","NC",27519,35.7940892770001,-78.876218234,87,"310 EDGEMORE AVENUE, CARY, NC, 27519","Match","Exact","310 EDGEMORE AVE, CARY, NC, 27519",72587188,"R"
489588,"310 ELM ST","PHOENIX","AZ",85001,NA,NA,88,"310 ELM ST, PHOENIX, AZ, 85001","No_Match",NA,NA,NA,NA
489589,"310 ELSMERE PLACE APT 3","FORT LEE","NJ",7024,40.845067381,-73.9770762369999,89,"310 ELSMERE PLACE APT 3, FORT LEE, NJ, 7024","Match","Exact","310 ELSMERE PL, FORT LEE, NJ, 07024",64391832,"L"
489590,"310 EMANUEL JONES DR","PELAHATCHIE","MS",39145,NA,NA,90,"310 EMANUEL JONES DR, PELAHATCHIE, MS, 39145","No_Match",NA,NA,NA,NA
489591,"310 ENCINO LANE UNIT B","SAN CLEMENTE","CA",92672,33.4246137760001,-117.619688417,91,"310 ENCINO LANE UNIT B, SAN CLEMENTE, CA, 92672","Match","Exact","310 ENCINO LN, SAN CLEMENTE, CA, 92672",144407638,"R"
489592,"310 ENGLISH CIRCLE","BIRMINGHAM","AL",35209,33.4783859350001,-86.781160689,92,"310 ENGLISH CIRCLE, BIRMINGHAM, AL, 35209","Match","Exact","310 ENGLISH CIR, BIRMINGHAM, AL, 35209",81584114,"R"
489593,"310 ENRIQUEZ CT","MILPITAS","CA",95035,37.444367931,-121.903498294,93,"310 ENRIQUEZ CT, MILPITAS, CA, 95035","Match","Exact","310 ENRIQUEZ CT, MILPITAS, CA, 95035",122960215,"R"
489594,"310 ESPANA CT","SATELLITE BEACH","FL",32937,28.181052875,-80.605847543,94,"310 ESPANA CT, SATELLITE BEACH, FL, 32937","Match","Exact","310 ESPANA CT, SATELLITE BEACH, FL, 32937",640504643,"R"
489595,"310 ESPLANADE AVE APT 70","PACIFICA","CA",94044,37.6528489840001,-122.492884796,95,"310 ESPLANADE AVE APT 70, PACIFICA, CA, 94044","Match","Exact","310 ESPLANADE AVE, PACIFICA, CA, 94044",192397174,"L"
489596,"310 ESTES ST","WOONSOCKET","RI",2895,42.016824415,-71.4942689919999,96,"310 ESTES ST, WOONSOCKET, RI, 2895","Match","Exact","310 ESTES ST, WOONSOCKET, RI, 02895",47472304,"R"
489597,"310 EXCHANGE BLVD","ROCHESTER","NY",14608,43.1493754630001,-77.6112545129999,97,"310 EXCHANGE BLVD, ROCHESTER, NY, 14608","Match","Exact","310 EXCHANGE BLVD, ROCHESTER, NY, 14608",638202214,"L"
489598,"310 EXECUTIVE COURT","LITTLE ROCK","AR",72205,34.7522592390001,-92.390541957,98,"310 EXECUTIVE COURT, LITTLE ROCK, AR, 72205","Match","Exact","310 EXECUTIVE CT, LITTLE ROCK, AR, 72205",83539471,"R"
489599,"310 F STREET NE","LINTON","IN",47441,NA,NA,99,"310 F STREET NE, LINTON, IN, 47441","No_Match",NA,NA,NA,NA
489600,"310 FAIRFAX AVENUE","RICHLANDS","VA",24641,37.0970841020001,-81.805634584,100,"310 FAIRFAX AVENUE, RICHLANDS, VA, 24641","Match","Exact","310 FAIRFAX AVE, RICHLANDS, VA, 24641",47294497,"L"
489601,"310 FAIRMOUNT AVE","JERSEY CITY","NJ",7306,40.7250878,-74.070259627,101,"310 FAIRMOUNT AVE, JERSEY CITY, NJ, 7306","Match","Exact","310 FAIRMOUNT AVE, JERSEY CITY, NJ, 07306",59604482,"R"
489602,"310 FAIRWAY DRIVE","SPRINGBORO","OH",45066,39.5615041250001,-84.236066547,102,"310 FAIRWAY DRIVE, SPRINGBORO, OH, 45066","Match","Exact","310 FAIRWAY DR, SPRINGBORO, OH, 45066",159029479,"L"
489603,"310 FALL LANE","EASTON","MD",21601,38.768020832,-76.0658356869999,103,"310 FALL LANE, EASTON, MD, 21601","Match","Exact","310 FALL LN, EASTON, MD, 21601",209755770,"L"
489604,"310 FARMWOOD DRIVE","FOUNTAIN INN","SC",29644,34.6801360000001,-82.244973869,104,"310 FARMWOOD DRIVE, FOUNTAIN INN, SC, 29644","Match","Exact","310 FARMWOOD DR, FOUNTAIN INN, SC, 29644",632547768,"L"
489605,"310 FARRAGUT STREET NW","WASHINGTON","DC",20011,38.951122173,-77.016118585,105,"310 FARRAGUT STREET NW, WASHINGTON, DC, 20011","Match","Exact","310 FARRAGUT ST NW, WASHINGTON, DC, 20011",76223775,"L"
489606,"310 FEARN ST SE","HUNTSVILLE","AL",35801,34.7448187690001,-86.5300662779999,106,"310 FEARN ST SE, HUNTSVILLE, AL, 35801","Match","Exact","310 FEARN ST SE, HUNTSVILLE, AL, 35801",58119614,"R"
489607,"310 FENROSE DR","HARVEST","AL",35749,34.839854309,-86.7003247709999,107,"310 FENROSE DR, HARVEST, AL, 35749","Match","Exact","310 FENROSE DR, HARVEST, AL, 35749",649125754,"L"
489608,"310 FENWICK AVE","SALEM","NJ",8079,39.5697030910001,-75.45967797,108,"310 FENWICK AVE, SALEM, NJ, 8079","Match","Exact","310 FENWICK AVE, SALEM, NJ, 08079",647503467,"L"
489609,"310 FERNWOOD DRIVE","AVON LAKE","OH",44012,41.5008665,-82.0346034029999,109,"310 FERNWOOD DRIVE, AVON LAKE, OH, 44012","Match","Non_Exact","310 FERNWOOD AVE, AVON LAKE, OH, 44012",55440364,"R"
489610,"310 FERRY ROAD","LEWISTON","ME",4240,44.0327717100001,-70.1763552369999,110,"310 FERRY ROAD, LEWISTON, ME, 4240","Match","Exact","310 FERRY RD, LEWISTON, ME, 04240",647134152,"L"
489611,"310 FIFTH ST EXT","VERONA","PA",15147,40.5005501210001,-79.829565723,111,"310 FIFTH ST EXT, VERONA, PA, 15147","Match","Non_Exact","310 5TH ST EXD, VERONA, PA, 15147",51933027,"L"
489612,"310 FIFTH STREET EXTENSION","VERONA","PA",15147,NA,NA,112,"310 FIFTH STREET EXTENSION, VERONA, PA, 15147","No_Match",NA,NA,NA,NA
489613,"310 FIRST AVE NW","NEW PRAGUE","MN",56071,44.546070544,-93.579286758,113,"310 FIRST AVE NW, NEW PRAGUE, MN, 56071","Match","Exact","310 1ST AVE NW, NEW PRAGUE, MN, 56071",38143079,"L"
489614,"310 FIRST AVENUE  NW","NEW PRAGUE","MN",56071,44.546070544,-93.579286758,114,"310 FIRST AVENUE  NW, NEW PRAGUE, MN, 56071","Match","Exact","310 1ST AVE NW, NEW PRAGUE, MN, 56071",38143079,"L"
489615,"310 FIRST AVENUE APT 4B","NEW YORK","NY",10009,40.733669444,-73.980399392,115,"310 FIRST AVENUE APT 4B, NEW YORK, NY, 10009","Match","Non_Exact","310 FIRST AVE LP, NEW YORK, NY, 10009",650073079,"R"
489616,"310 FIRST AVENUE SO SUITE 331","SEATTLE","WA",98104,NA,NA,116,"310 FIRST AVENUE SO SUITE 331, SEATTLE, WA, 98104","No_Match",NA,NA,NA,NA
489617,"310 FLETCHER DR","HURRICANE","WV",25526,38.4422380410001,-81.998375975,117,"310 FLETCHER DR, HURRICANE, WV, 25526","Match","Exact","310 FLETCHER DR, HURRICANE, WV, 25526",130531291,"L"
489618,"310 FM 3313","CROCKETT","TX",75835,31.344828754,-95.4475458209999,118,"310 FM 3313, CROCKETT, TX, 75835","Match","Exact","310 FM 3313, CROCKETT, TX, 75835",21998294,"R"
489619,"310 FOLK STREET","POTTERVILLE","MI",48876,42.6220832050001,-84.745052615,119,"310 FOLK STREET, POTTERVILLE, MI, 48876","Match","Exact","310 FOLK ST, POTTERVILLE, MI, 48876",648150131,"R"
489620,"310 FOREST PINES RD","AIKEN","SC",29803,33.4872092740001,-81.727647135,120,"310 FOREST PINES RD, AIKEN, SC, 29803","Match","Exact","310 FOREST PINES RD, AIKEN, SC, 29803",65019110,"L"
489621,"310 FORSYTHIA DR","DEERFIELD","IL",60015,42.1585570350001,-87.872838044,121,"310 FORSYTHIA DR, DEERFIELD, IL, 60015","Match","Exact","310 FORSYTHIA DR, DEERFIELD, IL, 60015",119650444,"L"
489622,"310 FOURTH AVE SOUTH SUITE 5010","MINNEAPOLIS","MN",55415,44.978269643,-93.2636635869999,122,"310 FOURTH AVE SOUTH SUITE 5010, MINNEAPOLIS, MN, 55415","Match","Exact","310 4TH AVE S, MINNEAPOLIS, MN, 55415",43632471,"R"
489623,"310 FOX WAY","CHAGRIN FALLS","OH",44022,41.4323771750001,-81.340655977,123,"310 FOX WAY, CHAGRIN FALLS, OH, 44022","Match","Exact","310 FOX WAY, CHAGRIN FALLS, OH, 44022",137439485,"L"
489624,"310 FRANKLIN AVE","BARTONVILLE","IL",61607,40.6480488010001,-89.655947858,124,"310 FRANKLIN AVE, BARTONVILLE, IL, 61607","Match","Exact","310 FRANKLIN AVE, BARTONVILLE, IL, 61607",647081426,"R"
489625,"310 FULTON LANE","LAS VEGAS","NV",89101,NA,NA,125,"310 FULTON LANE, LAS VEGAS, NV, 89101","No_Match",NA,NA,NA,NA
489626,"310 FUNSTON","SAN ANTONIO","TX",78209,29.4576381270001,-98.464258227,126,"310 FUNSTON, SAN ANTONIO, TX, 78209","Match","Non_Exact","310 FUNSTON PL, SAN ANTONIO, TX, 78209",101525208,"R"
489627,"310 G STREET NE","WASHINGTON","DC",20002,38.89892008,-77.001792358,127,"310 G STREET NE, WASHINGTON, DC, 20002","Match","Exact","310 G ST NE, WASHINGTON, DC, 20002",76229831,"L"
489628,"310 GARDEN STREET","DAYTONA BEACH","FL",32114,29.210748369,-81.035447585,128,"310 GARDEN STREET, DAYTONA BEACH, FL, 32114","Match","Exact","310 GARDEN ST, DAYTONA BEACH, FL, 32114",94524409,"L"
489629,"310 GARDEN STREET","MOUNT HOLLY","NJ",8060,39.9975097010001,-74.782829592,129,"310 GARDEN STREET, MOUNT HOLLY, NJ, 8060","Match","Exact","310 GARDEN ST, MOUNT HOLLY, NJ, 08060",134035533,"R"
489630,"310 GARDNER AVENUE","TRENTON","NJ",8618,40.241929113,-74.7838440049999,130,"310 GARDNER AVENUE, TRENTON, NJ, 8618","Match","Exact","310 GARDNER AVE, TRENTON, NJ, 08618",60176862,"R"
489631,"310 GARRISON DRIVE","CHARLOTTE","NC",28269,35.310098005,-80.7934498399999,131,"310 GARRISON DRIVE, CHARLOTTE, NC, 28269","Match","Exact","310 GARRISON DR, CHARLOTTE, NC, 28269",70478396,"R"
489632,"310 GENTRY ST","PARK FOREST","IL",60466,41.504788605,-87.683401514,132,"310 GENTRY ST, PARK FOREST, IL, 60466","Match","Exact","310 GENTRY ST, PARK FOREST, IL, 60466",111710459,"R"
489633,"310 GEORGETOWN DRIVE","GLENDIVE","MT",59330,47.1162442420001,-104.690341248,133,"310 GEORGETOWN DRIVE, GLENDIVE, MT, 59330","Match","Exact","310 GEORGETOWN DR, GLENDIVE, MT, 59330",161615410,"R"
489634,"310 GIBRALTAR ROAD","READING","PA",19606,40.2988137930001,-75.8587064229999,134,"310 GIBRALTAR ROAD, READING, PA, 19606","Match","Exact","310 GIBRALTAR RD, READING, PA, 19606",80385597,"R"
489635,"310 GLADE BLVD","WALKERSVILLE","MD",21793,39.4817844880001,-77.3423292799999,135,"310 GLADE BLVD, WALKERSVILLE, MD, 21793","Match","Exact","310 GLADE BLVD, WALKERSVILLE, MD, 21793",60696121,"R"
489636,"310 GRAFTON STREET","BROOKLYN","NY",11212,40.660839535,-73.9172430309999,136,"310 GRAFTON STREET, BROOKLYN, NY, 11212","Match","Exact","310 GRAFTON ST, BROOKLYN, NY, 11212",642653284,"R"
489637,"310 GRAND BLVD","MAYVILLE","WI",53050,43.4997020820001,-88.553680909,137,"310 GRAND BLVD, MAYVILLE, WI, 53050","Match","Exact","310 GRAND BLVD, MAYVILLE, WI, 53050",53530331,"R"
489638,"310 GRANT AVE PO BOX 775","EAST BUTLER","PA",16029,40.8739561030001,-79.838998152,138,"310 GRANT AVE PO BOX 775, EAST BUTLER, PA, 16029","Match","Exact","310 GRANT AVE, EAST BUTLER, PA, 16029",52658266,"R"
489639,"310 GRANT STREET SUITE 1005","PITTSBURGH","PA",15219,NA,NA,139,"310 GRANT STREET SUITE 1005, PITTSBURGH, PA, 15219","No_Match",NA,NA,NA,NA
489640,"310 GRANT STREET","PITTSBURGH","PA",15219,NA,NA,140,"310 GRANT STREET, PITTSBURGH, PA, 15219","No_Match",NA,NA,NA,NA
489641,"310 GRAVEL HILL RD","BUFFALO JUNCTION","VA",24529,36.65551778,-78.664239577,141,"310 GRAVEL HILL RD, BUFFALO JUNCTION, VA, 24529","Match","Exact","310 GRAVEL HILL RD, BUFFALO JCT, VA, 24529",54321922,"R"
489642,"310 GRAY GHOST STREET","BENSON","NC",37504,35.5266170690001,-78.5544112319999,142,"310 GRAY GHOST STREET, BENSON, NC, 37504","Match","Non_Exact","310 GRAY GHOST ST, BENSON, NC, 27504",636056036,"R"
489643,"310 GREEN STREET","FAYETTEVILLE","NC",28305,35.055842275,-78.877125303,143,"310 GREEN STREET, FAYETTEVILLE, NC, 28305","Match","Non_Exact","310 GREEN ST, FAYETTEVILLE, NC, 28301",64259654,"R"
489644,"310 GREENBRIAR ROAD","ELLIOTTSBURG","PA",17024,40.363495303,-77.271854763,144,"310 GREENBRIAR ROAD, ELLIOTTSBURG, PA, 17024","Match","Exact","310 GREENBRIAR RD, ELLIOTTSBURG, PA, 17024",652293347,"L"
489645,"310 GREENHILL CIRCLE","BROUSSARD","LA",70518,NA,NA,145,"310 GREENHILL CIRCLE, BROUSSARD, LA, 70518","Tie",NA,NA,NA,NA
489646,"310 GREENSBORO ROAD","GREENSBORO","PA",15338,NA,NA,146,"310 GREENSBORO ROAD, GREENSBORO, PA, 15338","No_Match",NA,NA,NA,NA
489647,"310 GREENWICH CT","KISSIMMEE","FL",34758,28.1716430650001,-81.500516499,147,"310 GREENWICH CT, KISSIMMEE, FL, 34758","Match","Exact","310 GREENWICH CT, KISSIMMEE, FL, 34758",176669511,"L"
489648,"310 GREENWICH ST APT 6J","NEW YORK","NY",10013,40.7174290780001,-74.010709632,148,"310 GREENWICH ST APT 6J, NEW YORK, NY, 10013","Match","Exact","310 GREENWICH ST, NEW YORK, NY, 10013",59659468,"L"
489649,"310 GREENWICH ST APT 8H","NEW YORK","NY",10013,40.7174290780001,-74.010709632,149,"310 GREENWICH ST APT 8H, NEW YORK, NY, 10013","Match","Exact","310 GREENWICH ST, NEW YORK, NY, 10013",59659468,"L"
489650,"310 GREENWICH STREET 21B","NEW YORK","NY",10013,40.7174290780001,-74.010709632,150,"310 GREENWICH STREET 21B, NEW YORK, NY, 10013","Match","Exact","310 GREENWICH ST, NEW YORK, NY, 10013",59659468,"L"
489651,"310 GREENWICH STREET","NEW YORK","NY",10013,40.7174290780001,-74.010709632,151,"310 GREENWICH STREET, NEW YORK, NY, 10013","Match","Exact","310 GREENWICH ST, NEW YORK, NY, 10013",59659468,"L"
489652,"310 GRISWOLD AVE UNIT 3","SAN FERNANDO","CA",91340,34.283153225,-118.434872157,152,"310 GRISWOLD AVE UNIT 3, SAN FERNANDO, CA, 91340","Match","Exact","310 GRISWOLD AVE, SAN FERNANDO, CA, 91340",141548055,"R"
489653,"310 GUN STREET","NEW BERN","NC",28560,35.086882265,-77.029243588,153,"310 GUN STREET, NEW BERN, NC, 28560","Match","Non_Exact","310 GUM ST, NEW BERN, NC, 28560",34112974,"L"
489654,"310 HALSTEAD LN 38","WESTLAKE","OH",44145,41.4586670940001,-81.954641803,154,"310 HALSTEAD LN 38, WESTLAKE, OH, 44145","Match","Exact","310 HALSTEAD LN, WESTLAKE, OH, 44145",617257822,"R"
489655,"310 HAMSFORK CIRCLE","KEMMERER","WY",83101,41.798297695,-110.560294788,155,"310 HAMSFORK CIRCLE, KEMMERER, WY, 83101","Match","Non_Exact","310 HAMS FORK CIR, KEMMERER, WY, 83101",625394502,"L"
489656,"310 HANES ROAD","SABINSVILLE","PA",16943,41.818166294,-77.643229632,156,"310 HANES ROAD, SABINSVILLE, PA, 16943","Match","Exact","310 HANES RD, SABINSVILLE, PA, 16943",126358349,"L"
489657,"310 HANNA CT","CHESTER","MD",21619,38.971807433,-76.2815205269999,157,"310 HANNA CT, CHESTER, MD, 21619","Match","Exact","310 HANNA CT, CHESTER, MD, 21619",607195580,"R"
489658,"310 HANNAH LANE","COVENTRY","CT",6238,41.821559102,-72.3683325009999,158,"310 HANNAH LANE, COVENTRY, CT, 6238","Match","Exact","310 HANNAH LN, COVENTRY, CT, 06238",633308850,"R"
489659,"310 HARBIN AVE","WAXAHACHIE","TX",75165,32.3991352800001,-96.8487120189999,159,"310 HARBIN AVE, WAXAHACHIE, TX, 75165","Match","Non_Exact","310 HARBIN ST, WAXAHACHIE, TX, 75165",103450470,"R"
489660,"310 HARBOR POINTE DR","STONE MOUNTAIN","GA",30087,33.7840333180001,-84.084824747,160,"310 HARBOR POINTE DR, STONE MOUNTAIN, GA, 30087","Match","Exact","310 HARBOR POINTE DR, STONE MOUNTAIN, GA, 30087",23389123,"L"
489661,"310 HARRIS HILL RD","ELMIRA","NY",14903,42.119724821,-76.9050555599999,161,"310 HARRIS HILL RD, ELMIRA, NY, 14903","Match","Exact","310 HARRIS HILL RD, ELMIRA, NY, 14903",635503125,"R"
489662,"310 HARRISON STREET","MARQUETTE","MI",49855,46.5497327730001,-87.397587215,162,"310 HARRISON STREET, MARQUETTE, MI, 49855","Match","Exact","310 HARRISON ST, MARQUETTE, MI, 49855",182034695,"R"
489663,"310 HARROGATE WAY","ALPHARETTA","GA",30022,NA,NA,163,"310 HARROGATE WAY, ALPHARETTA, GA, 30022","No_Match",NA,NA,NA,NA
489664,"310 HATTIE LOOP","BUTTE","MT",59701,45.971745168,-112.562236172,164,"310 HATTIE LOOP, BUTTE, MT, 59701","Match","Exact","310 HATTIE LOOP, BUTTE, MT, 59701",640926417,"R"
489665,"310 HAWK WING DRIVE","MANAKIN SABOT","VA",23103,37.6530645330001,-77.699828799,165,"310 HAWK WING DRIVE, MANAKIN SABOT, VA, 23103","Match","Exact","310 HAWK WING DR, MANAKIN SABOT, VA, 23103",629751239,"R"
489666,"310 HAYES ST","BRISTOL","PA",19007,40.1094543400001,-74.84385528,166,"310 HAYES ST, BRISTOL, PA, 19007","Match","Exact","310 HAYES ST, BRISTOL, PA, 19007",134734075,"L"
489667,"310 HAZELHURST DRIVE","COVINGTON","GA",30016,33.5769593900001,-83.980526249,167,"310 HAZELHURST DRIVE, COVINGTON, GA, 30016","Match","Exact","310 HAZELHURST DR, COVINGTON, GA, 30016",23637373,"L"
489668,"310 HEATHER LN","AUBURN","IL",62615,39.592925559,-89.734062233,168,"310 HEATHER LN, AUBURN, IL, 62615","Match","Non_Exact","310 N HEATHER LN, AUBURN, IL, 62615",97318342,"L"
489669,"310 HENDRICK","BEAUFORT","NC",28516,NA,NA,169,"310 HENDRICK, BEAUFORT, NC, 28516","No_Match",NA,NA,NA,NA
489670,"310 HENRY STREET","WALTERBORO","SC",29488,32.887987384,-80.631063458,170,"310 HENRY STREET, WALTERBORO, SC, 29488","Match","Exact","310 HENRY ST, WALTERBORO, SC, 29488",19167518,"L"
489671,"310 HERITAGE ROAD","BRANSON","MO",65616,NA,NA,171,"310 HERITAGE ROAD, BRANSON, MO, 65616","No_Match",NA,NA,NA,NA
489672,"310 HERMOSA DR NE","ALBUQUERQUE","NM",87108,35.082274453,-106.603164058,172,"310 HERMOSA DR NE, ALBUQUERQUE, NM, 87108","Match","Exact","310 HERMOSA DR NE, ALBUQUERQUE, NM, 87108",206710419,"R"
489673,"310 HERMOSA","CLAUDE","TX",79019,35.1090676920001,-101.373825981,173,"310 HERMOSA, CLAUDE, TX, 79019","Match","Non_Exact","310 HERMOSA ST, CLAUDE, TX, 79019",182135532,"L"
489674,"310 HIGHLAND DRIVE","POTTSVILLE","PA",17901,40.6697953730001,-76.194093887,174,"310 HIGHLAND DRIVE, POTTSVILLE, PA, 17901","Match","Exact","310 HIGHLAND DR, POTTSVILLE, PA, 17901",616126742,"R"
489675,"310 HIGHLAND MEADOWS COURT","WENTZVILLE","MO",63385,38.828402484,-90.887130951,175,"310 HIGHLAND MEADOWS COURT, WENTZVILLE, MO, 63385","Match","Exact","310 HIGHLAND MEADOWS CT, WENTZVILLE, MO, 63385",100097390,"L"
489676,"310 HILCREST AVENUE","SOMERSET","NJ",8873,40.493225685,-74.487192771,176,"310 HILCREST AVENUE, SOMERSET, NJ, 8873","Match","Non_Exact","310 HILLCREST AVE, SOMERSET, NJ, 08873",59958293,"R"
489677,"310 HILL DRIVE","HARDINSBURG","KY",40143,NA,NA,177,"310 HILL DRIVE, HARDINSBURG, KY, 40143","No_Match",NA,NA,NA,NA
489678,"310 HILLCREST  DRIVE","SEWELL","NJ",8080,39.80174243,-75.1278381549999,178,"310 HILLCREST  DRIVE, SEWELL, NJ, 8080","Match","Exact","310 HILLCREST DR, SEWELL, NJ, 08080",641655495,"R"
489679,"310 HILLPOINT DRIVE","PALM HARBOR","FL",34683,28.0645401150001,-82.779246266,179,"310 HILLPOINT DRIVE, PALM HARBOR, FL, 34683","Match","Exact","310 HILLPOINT DR, PALM HARBOR, FL, 34683",124750186,"L"
489680,"310 HILLSIDE AVE","PIEDMONT","CA",94611,37.824853852,-122.235412472,180,"310 HILLSIDE AVE, PIEDMONT, CA, 94611","Match","Exact","310 HILLSIDE AVE, PIEDMONT, CA, 94611",125001747,"L"
489681,"310 HILLSIDE DR","MCKINNEY","TX",75071,33.2056742500001,-96.5669893789999,181,"310 HILLSIDE DR, MCKINNEY, TX, 75071","Match","Exact","310 HILLSIDE DR, MCKINNEY, TX, 75071",123525822,"R"
489682,"310 HILLVIEW DRIVE","RISING SUN","IN",47041,NA,NA,182,"310 HILLVIEW DRIVE, RISING SUN, IN, 47041","No_Match",NA,NA,NA,NA
489683,"310 HINTON VIEW LANE","KNIGHTDALE","NC",27545,35.812480158,-78.482633966,183,"310 HINTON VIEW LANE, KNIGHTDALE, NC, 27545","Match","Exact","310 HINTON VIEW LN, KNIGHTDALE, NC, 27545",648927447,"R"
489684,"310 HO HUM TRAIL","HOLLISTER","MO",65672,36.574330337,-93.291898475,184,"310 HO HUM TRAIL, HOLLISTER, MO, 65672","Match","Exact","310 HO HUM TRL, HOLLISTER, MO, 65672",648160591,"L"
489685,"310 HOEPPNER LANE NE","CULLMAN","AL",35055,34.1831515010001,-86.838884751,185,"310 HOEPPNER LANE NE, CULLMAN, AL, 35055","Match","Exact","310 HOEPPNER LN NE, CULLMAN, AL, 35055",639021727,"R"
489686,"310 HOLLANDER RD","WAYZATA","MN",55391,44.9935224770001,-93.5299280579999,186,"310 HOLLANDER RD, WAYZATA, MN, 55391","Match","Exact","310 HOLLANDER RD, WAYZATA, MN, 55391",43840780,"R"
489687,"310 HONDO DR","ROSWELL","NM",88201,33.3960064400001,-104.504198502,187,"310 HONDO DR, ROSWELL, NM, 88201","Match","Exact","310 HONDO DR, ROSWELL, NM, 88201",131767106,"L"
489688,"310 HONDO DRIVE","ROSWELL","NM",88201,33.3960064400001,-104.504198502,188,"310 HONDO DRIVE, ROSWELL, NM, 88201","Match","Exact","310 HONDO DR, ROSWELL, NM, 88201",131767106,"L"
489689,"310 HONEY TREE DRIVE","LEXINGTON","SC",29073,33.991196557,-81.1809629539999,189,"310 HONEY TREE DRIVE, LEXINGTON, SC, 29073","Match","Exact","310 HONEY TREE DR, LEXINGTON, SC, 29073",645303839,"R"
489690,"310 HOPI COURT","CAROL STREAM","IL",60188,41.924621404,-88.128834924,190,"310 HOPI COURT, CAROL STREAM, IL, 60188","Match","Exact","310 HOPI CT, CAROL STREAM, IL, 60188",112518114,"R"
489691,"310 HOPI DRIVE","GREENSBURG","PA",15601,40.2763966250001,-79.581072643,191,"310 HOPI DRIVE, GREENSBURG, PA, 15601","Match","Exact","310 HOPI DR, GREENSBURG, PA, 15601",52992675,"L"
489692,"310 HORACE AVE","PALMYRA","NJ",8065,40.0048410950001,-75.0274553529999,192,"310 HORACE AVE, PALMYRA, NJ, 8065","Match","Exact","310 HORACE AVE, PALMYRA, NJ, 08065",134024746,"L"
489693,"310 HOUGHTON RD","KATY","TX",77450,NA,NA,193,"310 HOUGHTON RD, KATY, TX, 77450","No_Match",NA,NA,NA,NA
489694,"310 HOWARD STREET","WINONA","MN",55987,NA,NA,194,"310 HOWARD STREET, WINONA, MN, 55987","Tie",NA,NA,NA,NA
489695,"310 HOWARDS TRUST CT","GLEN BURNIE","MD",21060,39.1419449370001,-76.575764877,195,"310 HOWARDS TRUST CT, GLEN BURNIE, MD, 21060","Match","Exact","310 HOWARDS TRUST CT, GLEN BURNIE, MD, 21060",636752393,"L"
489696,"310 HUNTING HILL CIRCLE","GREER","SC",29650,34.884141415,-82.28717671,196,"310 HUNTING HILL CIRCLE, GREER, SC, 29650","Match","Exact","310 HUNTING HILL CIR, GREER, SC, 29650",38309828,"R"
489697,"310 HWY 12 AND HWY 27","FAIRCHILD","WI",54741,NA,NA,197,"310 HWY 12 AND HWY 27, FAIRCHILD, WI, 54741","No_Match",NA,NA,NA,NA
489698,"310 HWY 137","GATESVILLE","NC",27938,36.4072784410001,-76.776617588,198,"310 HWY 137, GATESVILLE, NC, 27938","Match","Non_Exact","310 STATE RTE 137, GATESVILLE, NC, 27938",18576796,"L"
489699,"310 HWY 389","DEQUINCY","LA",70633,NA,NA,199,"310 HWY 389, DEQUINCY, LA, 70633","No_Match",NA,NA,NA,NA
489700,"310 HYLAN AVE","HAMLET","NC",28345,34.8902296470001,-79.710435455,200,"310 HYLAN AVE, HAMLET, NC, 28345","Match","Exact","310 HYLAN AVE, HAMLET, NC, 28345",13921078,"R"
489701,"310 INDIANA AVENUE","MARYVILLE","TN",37803,35.7480648050001,-83.96794821,201,"310 INDIANA AVENUE, MARYVILLE, TN, 37803","Match","Exact","310 INDIANA AVE, MARYVILLE, TN, 37803",636497230,"L"
489702,"310 INDIGO BUNTING LANE","MARSHALL","NC",28753,35.8218671160001,-82.7419466109999,202,"310 INDIGO BUNTING LANE, MARSHALL, NC, 28753","Match","Exact","310 INDIGO BUNTING LN, MARSHALL, NC, 28753",608813358,"L"
489703,"310 INLET PLACE DR","WINSTON-SALEM","NC",27127,36.025567504,-80.248768022,203,"310 INLET PLACE DR, WINSTON-SALEM, NC, 27127","Match","Exact","310 INLET PLACE DR, WINSTON SALEM, NC, 27127",632186787,"R"
489704,"310 INSPIRATIONAL DRIVE","SEDONA","AZ",86336,34.859344741,-111.788733805,204,"310 INSPIRATIONAL DRIVE, SEDONA, AZ, 86336","Match","Exact","310 INSPIRATIONAL DR, SEDONA, AZ, 86336",159474051,"R"
489705,"310 IRA YOUNG DRIVE","TEMPLE","TX",76504,NA,NA,205,"310 IRA YOUNG DRIVE, TEMPLE, TX, 76504","No_Match",NA,NA,NA,NA
489706,"310 JACKSON AVE","LEHIGH ACRES","FL",33936,26.61114976,-81.589923428,206,"310 JACKSON AVE, LEHIGH ACRES, FL, 33936","Match","Exact","310 JACKSON AVE, LEHIGH ACRES, FL, 33936",118091717,"R"
489707,"310 JACKSON RD","GOODLETTSVILLE","TN",37072,36.3261051050001,-86.6961735679999,207,"310 JACKSON RD, GOODLETTSVILLE, TN, 37072","Match","Exact","310 JACKSON RD, GOODLETTSVILLE, TN, 37072",636669555,"L"
489708,"310 JACKSON ST APT 353","HOBOKEN","NJ",7030,40.741963233,-74.040193288,208,"310 JACKSON ST APT 353, HOBOKEN, NJ, 7030","Match","Exact","310 JACKSON ST, HOBOKEN, NJ, 07030",59605375,"L"
489709,"310 JACKSON STREET","REMSEN","IA",51050,42.813493996,-95.976110281,209,"310 JACKSON STREET, REMSEN, IA, 51050","Match","Exact","310 JACKSON ST, REMSEN, IA, 51050",93324797,"L"
489710,"310 JACKSONIAN DRIVE","HERMITAGE","TN",37076,36.194724487,-86.627002507,210,"310 JACKSONIAN DRIVE, HERMITAGE, TN, 37076","Match","Exact","310 JACKSONIAN DR, HERMITAGE, TN, 37076",97199404,"R"
489711,"310 JARDINE AVENUE","JACKSON","MT",59736,45.369320659,-113.409297901,211,"310 JARDINE AVENUE, JACKSON, MT, 59736","Match","Exact","310 JARDINE AVE, JACKSON, MT, 59736",645033327,"R"
489712,"310 JASPER","BACLIFF","TX",77518,29.5197258470001,-94.999497591,212,"310 JASPER, BACLIFF, TX, 77518","Match","Non_Exact","310 JASPER ST, BACLIFF, TX, 77518",96706431,"L"
489713,"310 JEFF CO CH 716 R ARRINGTON BLV","BIRMINGHAM","AL",35203,NA,NA,213,"310 JEFF CO CH 716 R ARRINGTON BLV, BIRMINGHAM, AL, 35203","No_Match",NA,NA,NA,NA
489714,"310 JEFFERSON AVE APT 3","WASHINGTON","PA",15301,40.1742134990001,-80.254475301,214,"310 JEFFERSON AVE APT 3, WASHINGTON, PA, 15301","Match","Exact","310 JEFFERSON AVE, WASHINGTON, PA, 15301",52802883,"L"
489715,"310 JEFFERSON ST","NASHVILLE","TN",37208,36.1748183890001,-86.7855068599999,215,"310 JEFFERSON ST, NASHVILLE, TN, 37208","Match","Exact","310 JEFFERSON ST, NASHVILLE, TN, 37208",606367238,"R"
489716,"310 JERLYN AVENUE","LINTHICUM","MD",21090,39.2106424610001,-76.6590275899999,216,"310 JERLYN AVENUE, LINTHICUM, MD, 21090","Match","Exact","310 JERLYN AVE, LINTHICUM, MD, 21090",68155126,"L"
489717,"310 JEROME AVE","BRISTOL","CT",6010,41.69823094,-72.928571786,217,"310 JEROME AVE, BRISTOL, CT, 6010","Match","Exact","310 JEROME AVE, BRISTOL, CT, 06010",3505250,"R"
489718,"310 JIM ELLIOTT ROAD","DENTON","NC",27239,35.577409808,-80.0939289569999,218,"310 JIM ELLIOTT ROAD, DENTON, NC, 27239","Match","Exact","310 JIM ELLIOTT RD, DENTON, NC, 27239",20213616,"L"
489719,"310 JOHNSON STREET","MODESTO","CA",95354,37.648724202,-120.991438088,219,"310 JOHNSON STREET, MODESTO, CA, 95354","Match","Exact","310 JOHNSON ST, MODESTO, CA, 95354",102604708,"R"
489720,"310 JOPPA CROSSING WAY","JOPPA","MD",21085,39.4245326490001,-76.3667516259999,220,"310 JOPPA CROSSING WAY, JOPPA, MD, 21085","Match","Exact","310 JOPPA CROSSING WAY, JOPPA, MD, 21085",191656588,"R"
489721,"310 JORDAN PL","ORFORDVILLE","WI",53576,42.6306204380001,-89.244064846,221,"310 JORDAN PL, ORFORDVILLE, WI, 53576","Match","Exact","310 JORDAN PL, ORFORDVILLE, WI, 53576",629472094,"R"
489722,"310 K STREET SUITE 200","ANCHORAGE","AK",99501,61.2193527530001,-149.90165346,222,"310 K STREET SUITE 200, ANCHORAGE, AK, 99501","Match","Exact","310 K ST, ANCHORAGE, AK, 99501",190796643,"R"
489723,"310 KAM HIGHWAY SUITE 117","AIEA","HI",96701,NA,NA,223,"310 KAM HIGHWAY SUITE 117, AIEA, HI, 96701","No_Match",NA,NA,NA,NA
489724,"310 KAREN CIRCLE","BENNETTSVILLE","SC",29512,34.6368800550001,-79.661925084,224,"310 KAREN CIRCLE, BENNETTSVILLE, SC, 29512","Match","Exact","310 KAREN CIR, BENNETTSVILLE, SC, 29512",646960433,"L"
489725,"310 KEITH ALLEN DR","BREMEN","IN",46506,41.4364861970001,-86.138600073,225,"310 KEITH ALLEN DR, BREMEN, IN, 46506","Match","Exact","310 KEITH ALLEN DR, BREMEN, IN, 46506",7653871,"L"
489726,"310 KEMP LANE","CHESAPEAKE","VA",23325,36.829772529,-76.241048354,226,"310 KEMP LANE, CHESAPEAKE, VA, 23325","Match","Exact","310 KEMP LN, CHESAPEAKE, VA, 23325",121770766,"R"
489727,"310 KENDALL MILL ROAD","THOMASVILLE","NC",27360,35.855831439,-80.095948662,227,"310 KENDALL MILL ROAD, THOMASVILLE, NC, 27360","Match","Exact","310 KENDALL MILL RD, THOMASVILLE, NC, 27360",604804039,"R"
489728,"310 KENDIGS MILL ROAD","OWINGS MILLS","MD",21117,39.444885608,-76.7899725889999,228,"310 KENDIGS MILL ROAD, OWINGS MILLS, MD, 21117","Match","Exact","310 KENDIGS MILL RD, OWINGS MILLS, MD, 21117",191501526,"L"
489729,"310 KENMORE AVENUE","EDGEWATER","MD",21037,38.9414130820001,-76.550918955,229,"310 KENMORE AVENUE, EDGEWATER, MD, 21037","Match","Exact","310 KENMORE AVE, EDGEWATER, MD, 21037",68171379,"L"
489730,"310 KIMBERWICKE COURT","ALAMO","CA",94507,37.8503762120001,-121.977410494,230,"310 KIMBERWICKE COURT, ALAMO, CA, 94507","Match","Exact","310 KIMBERWICKE CT, ALAMO, CA, 94507",192096050,"R"
489731,"310 KNOLLCREST DR","PINNACLE","NC",27043,36.297076637,-80.484361102,231,"310 KNOLLCREST DR, PINNACLE, NC, 27043","Match","Exact","310 KNOLLCREST DR, PINNACLE, NC, 27043",154180133,"R"
489732,"310 KNOLLWOOD AVE","DOUGLASTON","NY",11363,40.7799888320001,-73.750339653,232,"310 KNOLLWOOD AVE, DOUGLASTON, NY, 11363","Match","Exact","310 KNOLLWOOD AVE, DOUGLASTON, NY, 11363",59703706,"R"
489733,"310 LABRADOR LN","GUYTON","GA",31312,32.321600018,-81.352978513,233,"310 LABRADOR LN, GUYTON, GA, 31312","Match","Exact","310 LABRADOR LN, GUYTON, GA, 31312",619933614,"R"
489734,"310 LAKE VISTA DRIVE","ZANESVILLE","OH",43701,39.947114895,-82.0810386319999,234,"310 LAKE VISTA DRIVE, ZANESVILLE, OH, 43701","Match","Exact","310 LAKE VISTA DR, ZANESVILLE, OH, 43701",45603751,"L"
489735,"310 LANDERS CT","EXTON","PA",19341,40.0375531240001,-75.6246769429999,235,"310 LANDERS CT, EXTON, PA, 19341","Match","Exact","310 LANDERS CT, EXTON, PA, 19341",179528384,"R"
489736,"310 LARGOVISTA DR","OAKLAND","FL",34787,28.5474595210001,-81.631323895,236,"310 LARGOVISTA DR, OAKLAND, FL, 34787","Match","Exact","310 LARGOVISTA DR, OAKLAND, FL, 34787",627397632,"R"
489737,"310 LAS TABLAS","HELOTES","TX",78023,29.58227322,-98.653636794,237,"310 LAS TABLAS, HELOTES, TX, 78023","Match","Exact","310 LAS TABLAS, HELOTES, TX, 78023",101740415,"L"
489738,"310 LAURELBROOK LANE","EBENSBURG","PA",15931,40.4724831610001,-78.7383013909999,238,"310 LAURELBROOK LANE, EBENSBURG, PA, 15931","Match","Non_Exact","310 LAURELBROOK RD, EBENSBURG, PA, 15931",636369456,"L"
489739,"310 LEMAY DR","TYLER","TX",75704,32.3484563390001,-95.365879136,239,"310 LEMAY DR, TYLER, TX, 75704","Match","Exact","310 LEMAY DR, TYLER, TX, 75704",141287543,"R"
489740,"310 LENKER RD","HARRISBURG","PA",17111,40.2618835580001,-76.824120857,240,"310 LENKER RD, HARRISBURG, PA, 17111","Match","Exact","310 LENKER RD, HARRISBURG, PA, 17111",70822455,"L"
489741,"310 LENNOX DRIVE","FALLSTON","MD",21047,39.4967687540001,-76.383644483,241,"310 LENNOX DRIVE, FALLSTON, MD, 21047","Match","Exact","310 LENNOX DR, FALLSTON, MD, 21047",642685956,"R"
489742,"310 LESTER SHELTON ROAD","DAHLONEGA","GA",30533,34.4551180550001,-83.9857038979999,242,"310 LESTER SHELTON ROAD, DAHLONEGA, GA, 30533","Match","Exact","310 LESTER SHELTON RD, DAHLONEGA, GA, 30533",101130713,"R"
489743,"310 LEXINGTON AVE SUITE 4A","NEW YORK","NY",10016,40.7487894870001,-73.977990366,243,"310 LEXINGTON AVE SUITE 4A, NEW YORK, NY, 10016","Match","Exact","310 LEXINGTON AVE, NEW YORK, NY, 10016",59654433,"L"
489744,"310 LEXINGTON AVENUE 15C","NEW YORK","NY",10016,40.7487894870001,-73.977990366,244,"310 LEXINGTON AVENUE 15C, NEW YORK, NY, 10016","Match","Exact","310 LEXINGTON AVE, NEW YORK, NY, 10016",59654433,"L"
489745,"310 LEXINGTON AVENUE APT 15F","NEW YORK","NY",10016,40.7487894870001,-73.977990366,245,"310 LEXINGTON AVENUE APT 15F, NEW YORK, NY, 10016","Match","Exact","310 LEXINGTON AVE, NEW YORK, NY, 10016",59654433,"L"
489746,"310 LIBERTY HEIGHTS DRIVE","CHASKA","MN",55318,44.8002459210001,-93.6077624,246,"310 LIBERTY HEIGHTS DRIVE, CHASKA, MN, 55318","Match","Exact","310 LIBERTY HEIGHTS DR, CHASKA, MN, 55318",642916293,"L"
489747,"310 LIBOUREL ROAD","SOUTH PLAINFIELD","NJ",7080,40.5921896840001,-74.414133078,247,"310 LIBOUREL ROAD, SOUTH PLAINFIELD, NJ, 7080","Match","Exact","310 LIBOUREL RD, S PLAINFIELD, NJ, 07080",60261125,"L"
489748,"310 LINCOLN DR","BAY CITY","MI",48706,43.6583873180001,-83.890465041,248,"310 LINCOLN DR, BAY CITY, MI, 48706","Match","Exact","310 LINCOLN DR, BAY CITY, MI, 48706",81138367,"R"
489749,"310 LINCOLN ST","HART","MI",49420,43.7008450430001,-86.362158644,249,"310 LINCOLN ST, HART, MI, 49420","Match","Exact","310 LINCOLN ST, HART, MI, 49420",163691216,"R"
489750,"310 LINDA LANE","LINO LAKES","MN",55014,NA,NA,250,"310 LINDA LANE, LINO LAKES, MN, 55014","Tie",NA,NA,NA,NA
489751,"310 LINDEN AVENUE","LONG BEACH","CA",90802,33.7707306840001,-118.186354633,251,"310 LINDEN AVENUE, LONG BEACH, CA, 90802","Match","Exact","310 LINDEN AVE, LONG BEACH, CA, 90802",141694428,"R"
489752,"310 LINDSAY STREET","CHAPEL HILL","NC",27516,35.9145740610001,-79.0599339459999,252,"310 LINDSAY STREET, CHAPEL HILL, NC, 27516","Match","Exact","310 LINDSAY ST, CHAPEL HILL, NC, 27516",72378842,"L"
489753,"310 LINDSEY COURT","CONYERS","GA",30094,NA,NA,253,"310 LINDSEY COURT, CONYERS, GA, 30094","No_Match",NA,NA,NA,NA
489754,"310 LITTLE LAKE DR","HUTTO","TX",78634,30.5072797180001,-97.573118397,254,"310 LITTLE LAKE DR, HUTTO, TX, 78634","Match","Non_Exact","310 LITTLE LAKE RD, HUTTO, TX, 78634",126469397,"R"
489755,"310 LIVERPOOL RD","ROCK HILL","SC",29730,34.9369664710001,-80.9743875,255,"310 LIVERPOOL RD, ROCK HILL, SC, 29730","Match","Exact","310 LIVERPOOL RD, ROCK HILL, SC, 29730",637332768,"L"
489756,"310 LOCUST ST","CRISFIELD","MD",21817,37.98310675,-75.852173079,256,"310 LOCUST ST, CRISFIELD, MD, 21817","Match","Exact","310 LOCUST ST, CRISFIELD, MD, 21817",104143475,"R"
489757,"310 LONGVUE ACRES DR","WHEELING","WV",26003,40.1274388260001,-80.6529042889999,257,"310 LONGVUE ACRES DR, WHEELING, WV, 26003","Match","Non_Exact","310 LONGVUE ACRES RD, WHEELING, WV, 26003",38090282,"R"
489758,"310 LOOKOUT AVE APT 401","HACKSENSACK","NJ",7601,40.8983337720001,-74.0489732409999,258,"310 LOOKOUT AVE APT 401, HACKSENSACK, NJ, 7601","Match","Non_Exact","310 LOOKOUT AVE, HACKENSACK, NJ, 07601",64385748,"R"
489759,"310 LOTT AVE","BROOKYN","NY",11212,40.6588420350001,-73.901644377,259,"310 LOTT AVE, BROOKYN, NY, 11212","Match","Non_Exact","310 LOTT AVE, BROOKLYN, NY, 11212",59084828,"R"
489760,"310 LOWER LANDING ROAD","BLACKWOOD","NJ",8012,39.8304194080001,-75.072426107,260,"310 LOWER LANDING ROAD, BLACKWOOD, NJ, 8012","Match","Exact","310 LOWER LANDING RD, BLACKWOOD, NJ, 08012",647273715,"L"
489761,"310 LYDIA LN","LEBANON","OR",97355,44.5297086530001,-122.901523125,261,"310 LYDIA LN, LEBANON, OR, 97355","Match","Exact","310 LYDIA LN, LEBANON, OR, 97355",627419258,"L"
489762,"310 M STREET NW APT 7","WASHINGTON","DC",20001,38.905646447,-77.0153940599999,262,"310 M STREET NW APT 7, WASHINGTON, DC, 20001","Match","Exact","310 M ST NW, WASHINGTON, DC, 20001",76226513,"L"
489763,"310 M STREET NW","WASHINGTON","DC",20001,38.905646447,-77.0153940599999,263,"310 M STREET NW, WASHINGTON, DC, 20001","Match","Exact","310 M ST NW, WASHINGTON, DC, 20001",76226513,"L"
489764,"310 MACKS","PEMBROKE","NC",28372,34.676746144,-79.224098316,264,"310 MACKS, PEMBROKE, NC, 28372","Match","Non_Exact","310 MACK'S DR, PEMBROKE, NC, 28372",49135057,"R"
489765,"310 MADISON AVENUE","EVANSVILLE","IN",47713,37.9604773780001,-87.560994168,265,"310 MADISON AVENUE, EVANSVILLE, IN, 47713","Match","Exact","310 MADISON AVE, EVANSVILLE, IN, 47713",39783275,"L"
489766,"310 MADISON ST APT2","CORTEZ","CO",81321,NA,NA,266,"310 MADISON ST APT2, CORTEZ, CO, 81321","Tie",NA,NA,NA,NA
489767,"310 MAGNOLIA","EL CENTRO","CA",92243,32.8014377700001,-115.549343635,267,"310 MAGNOLIA, EL CENTRO, CA, 92243","Match","Non_Exact","310 MAGNOLIA AVE, EL CENTRO, CA, 92243",194493923,"R"
489768,"310 MAIN STREET W","RALEIGH","NC",27601,NA,NA,268,"310 MAIN STREET W, RALEIGH, NC, 27601","No_Match",NA,NA,NA,NA
489769,"310 MAIN STREET","ARROW ROCK","MO",65320,39.0700433540001,-92.9450775129999,269,"310 MAIN STREET, ARROW ROCK, MO, 65320","Match","Exact","310 MAIN ST, ARROW ROCK, MO, 65320",21030216,"L"
489770,"310 MAIN STREET","COLLINS","IA",50055,41.9020609840001,-93.304981445,270,"310 MAIN STREET, COLLINS, IA, 50055","Match","Exact","310 MAIN ST, COLLINS, IA, 50055",65944736,"R"
489771,"310 MALCOLM DRIVE","CENTREVILLE","MD",21617,39.029689288,-75.8873440039999,271,"310 MALCOLM DRIVE, CENTREVILLE, MD, 21617","Match","Exact","310 MALCOLM DR, CENTREVILLE, MD, 21617",68052264,"L"
489772,"310 MALIBU CANYON DR","COLUMBIA","TN",38401,35.6363801000001,-87.12777148,272,"310 MALIBU CANYON DR, COLUMBIA, TN, 38401","Match","Exact","310 MALIBU CANYON DR, COLUMBIA, TN, 38401",627297062,"L"
489773,"310 MARGATE ROAD","UPPER DARBY","PA",19082,39.9551002680001,-75.269942495,273,"310 MARGATE ROAD, UPPER DARBY, PA, 19082","Match","Exact","310 MARGATE RD, UPPER DARBY, PA, 19082",134877594,"L"
489774,"310 MARINA DR","COLDSPRING","TX",77331,30.7040991700001,-95.177630828,274,"310 MARINA DR, COLDSPRING, TX, 77331","Match","Exact","310 MARINA DR, COLDSPRING, TX, 77331",24277111,"R"
489775,"310 MARINE ST","MOBILE","AL",36604,30.6813035010001,-88.054894492,275,"310 MARINE ST, MOBILE, AL, 36604","Match","Exact","310 MARINE ST, MOBILE, AL, 36604",61867748,"R"
489776,"310 MARION AVE","SUMMERVILLE","SC",29483,33.0063784380001,-80.193288936,276,"310 MARION AVE, SUMMERVILLE, SC, 29483","Match","Exact","310 MARION AVE, SUMMERVILLE, SC, 29483",178479797,"R"
489777,"310 MARLIN LANE","PIKEVILLE","NC",27863,35.472135924,-78.0282002019999,277,"310 MARLIN LANE, PIKEVILLE, NC, 27863","Match","Exact","310 MARLIN LN, PIKEVILLE, NC, 27863",14424025,"L"
489778,"310 Martin Street","Fairmont","NC",28340,34.476477893,-79.113167731,278,"310 Martin Street, Fairmont, NC, 28340","Match","Exact","310 MARTIN ST, FAIRMONT, NC, 28340",49126680,"L"
489779,"310 MARTIN STREET","FAIRMONT","NC",28340,34.476477893,-79.113167731,279,"310 MARTIN STREET, FAIRMONT, NC, 28340","Match","Exact","310 MARTIN ST, FAIRMONT, NC, 28340",49126680,"L"
489780,"310 MARYLAND AVENUE","GREENSBURG","PA",15601,40.2945969790001,-79.557193313,280,"310 MARYLAND AVENUE, GREENSBURG, PA, 15601","Match","Exact","310 MARYLAND AVE, GREENSBURG, PA, 15601",52975272,"R"
489781,"310 MAST ROAD","MANCHESTER","NH",3102,42.9845453020001,-71.4902333969999,281,"310 MAST ROAD, MANCHESTER, NH, 3102","Match","Non_Exact","310 S MAST RD, MANCHESTER, NH, 03102",113529609,"L"
489782,"310 MCDOWELL AVE","AKRON","OH",44313,41.115525925,-81.56565463,282,"310 MCDOWELL AVE, AKRON, OH, 44313","Match","Exact","310 MCDOWELL AVE, AKRON, OH, 44313",61337648,"L"
489783,"310 MCKINLEY AVE","KEWANEE","IL",61443,41.2371936220001,-89.92212697,283,"310 MCKINLEY AVE, KEWANEE, IL, 61443","Match","Exact","310 MCKINLEY AVE, KEWANEE, IL, 61443",8915024,"R"
489784,"310 MEADOR ST","MOODY","TX",76557,31.300134563,-97.365988268,284,"310 MEADOR ST, MOODY, TX, 76557","Match","Exact","310 MEADOR ST, MOODY, TX, 76557",146754991,"R"
489785,"310 MEADOW CHASE DR","FESTUS","MO",63028,38.228130503,-90.420859558,285,"310 MEADOW CHASE DR, FESTUS, MO, 63028","Match","Exact","310 MEADOW CHASE DR, FESTUS, MO, 63028",62808551,"L"
489786,"310 MEADOW LAKE CIR","SEYMOUR","TN",37865,35.879275846,-83.758838501,286,"310 MEADOW LAKE CIR, SEYMOUR, TN, 37865","Match","Exact","310 MEADOW LAKE CIR, SEYMOUR, TN, 37865",107555004,"R"
489787,"310 MEADOWBROOK DRIVE","WINTERSVILLE","OH",43953,40.372359112,-80.7089573119999,287,"310 MEADOWBROOK DRIVE, WINTERSVILLE, OH, 43953","Match","Exact","310 MEADOWBROOK DR, WINTERSVILLE, OH, 43953",635523338,"R"
489788,"310 MEDLEY COURT","VINE GROVE","KY",40121,37.821010388,-85.964193073,288,"310 MEDLEY COURT, VINE GROVE, KY, 40121","Match","Non_Exact","310 MEDLEY CT, VINE GROVE, KY, 40175",34637620,"R"
489789,"310 MEIGS ST APT 6","ROCHESTER","NY",14607,43.14791039,-77.594212552,289,"310 MEIGS ST APT 6, ROCHESTER, NY, 14607","Match","Exact","310 MEIGS ST, ROCHESTER, NY, 14607",14540517,"L"
489790,"310 MEIGS STREET 6","ROCHESTER","NY",14607,43.14791039,-77.594212552,290,"310 MEIGS STREET 6, ROCHESTER, NY, 14607","Match","Exact","310 MEIGS ST, ROCHESTER, NY, 14607",14540517,"L"
489791,"310 MELVIN DR 17","NORTHBROOK","IL",60062,42.1468080660001,-87.850813049,291,"310 MELVIN DR 17, NORTHBROOK, IL, 60062","Match","Exact","310 MELVIN DR, NORTHBROOK, IL, 60062",111839179,"R"
489792,"310 MELVIN DRIVE","N SYRACUSE","NY",13212,43.0975539340001,-76.1641213519999,292,"310 MELVIN DRIVE, N SYRACUSE, NY, 13212","Match","Exact","310 MELVIN DR, N SYRACUSE, NY, 13212",46568310,"R"
489793,"310 MEOTA STREET","PARK FOREST","IL",60466,41.4779542320001,-87.690983637,293,"310 MEOTA STREET, PARK FOREST, IL, 60466","Match","Exact","310 MEOTA ST, PARK FOREST, IL, 60466",111710785,"R"
489794,"310 MERRILL DR","BENTON","AR",72015,34.5662909690001,-92.5461168959999,294,"310 MERRILL DR, BENTON, AR, 72015","Match","Non_Exact","310 MERRIL DR, BENTON, AR, 72015",627600567,"L"
489795,"310 MIDDLE STREET","RED BUD","IL",62278,38.2091848310001,-89.992147312,295,"310 MIDDLE STREET, RED BUD, IL, 62278","Match","Exact","310 MIDDLE ST, RED BUD, IL, 62278",95171931,"L"
489796,"310 MIDWAY","RIDGELAND","MS",39157,32.412469473,-90.144999454,296,"310 MIDWAY, RIDGELAND, MS, 39157","Match","Non_Exact","310 MIDWAY AVE, RIDGELAND, MS, 39157",152491428,"L"
489797,"310 MILLPOND LANE","SALISBURY","MD",21804,38.406906339,-75.561083821,297,"310 MILLPOND LANE, SALISBURY, MD, 21804","Match","Non_Exact","310 MILL POND LN, SALISBURY, MD, 21804",641523359,"R"
489798,"310 MILTON STREET","CINCINNATI","OH",45202,39.1134632210001,-84.5102732569999,298,"310 MILTON STREET, CINCINNATI, OH, 45202","Match","Exact","310 MILTON ST, CINCINNATI, OH, 45202",103970322,"L"
489799,"310 MOCKINGBIRD STREET","HOT SPRINGS","AR",71913,34.4604846870001,-93.0685248029999,299,"310 MOCKINGBIRD STREET, HOT SPRINGS, AR, 71913","Match","Exact","310 MOCKINGBIRD ST, HOT SPRINGS, AR, 71913",22734147,"R"
489800,"310 MODEST STREET","LAKELAND","FL",33805,28.067925116,-81.959791442,300,"310 MODEST STREET, LAKELAND, FL, 33805","Match","Exact","310 MODEST ST, LAKELAND, FL, 33805",104808195,"L"
489801,"310 MONROE ST","HENRY","IL",61537,41.107604989,-89.3617398499999,301,"310 MONROE ST, HENRY, IL, 61537","Match","Exact","310 MONROE ST, HENRY, IL, 61537",610575285,"R"
489802,"310 MONTE DR","ROSEBURG","OR",97496,43.1637450600001,-123.381845908,302,"310 MONTE DR, ROSEBURG, OR, 97496","Match","Non_Exact","310 MONTE DR, ROSEBURG, OR, 97471",625591966,"R"
489803,"310 MORMON CHURCH ROAD","SENECA","SC",29678,34.663569136,-82.948925149,303,"310 MORMON CHURCH ROAD, SENECA, SC, 29678","Match","Exact","310 MORMON CHURCH RD, SENECA, SC, 29678",25662434,"L"
489804,"310 MORNINGSIDE DR","LEAGUE CITY","TX",77573,29.485111322,-95.156542627,304,"310 MORNINGSIDE DR, LEAGUE CITY, TX, 77573","Match","Non_Exact","310 MORNINGSIDE, LEAGUE CITY, TX, 77573",96683415,"L"
489805,"310 MORTON AVENUE","PAULSBORO","NJ",8066,39.826266822,-75.245506626,305,"310 MORTON AVENUE, PAULSBORO, NJ, 8066","Match","Exact","310 MORTON AVE, PAULSBORO, NJ, 08066",134581405,"L"
489806,"310 MORTON ST","RICHMOND","TX",77469,29.583096959,-95.7611116049999,306,"310 MORTON ST, RICHMOND, TX, 77469","Match","Exact","310 MORTON ST, RICHMOND, TX, 77469",78263954,"L"
489807,"310 MOUNTAIN RIDGE COURT","GLEN BURNIE","MD",21061,39.139202019,-76.63055833,307,"310 MOUNTAIN RIDGE COURT, GLEN BURNIE, MD, 21061","Match","Exact","310 MOUNTAIN RIDGE CT, GLEN BURNIE, MD, 21061",653874950,"R"
489808,"310 MULBERRY CIRCLE","BROOMFIELD","CO",80020,39.9084756840001,-105.070409885,308,"310 MULBERRY CIRCLE, BROOMFIELD, CO, 80020","Match","Exact","310 MULBERRY CIR, BROOMFIELD, CO, 80020",640418732,"L"
489809,"310 MYERS ROAD","HOWES CAVE","NY",12043,42.7013506800001,-74.4338131169999,309,"310 MYERS ROAD, HOWES CAVE, NY, 12043","Match","Non_Exact","310 MYERS RD, HOWES CAVE, NY, 12092",640419419,"R"
489810,"310 N 12TH","INDEPENDENCE","KS",67301,37.2257184000001,-95.713502779,310,"310 N 12TH, INDEPENDENCE, KS, 67301","Match","Non_Exact","310 N 12TH ST, INDEPENDENCE, KS, 67301",13783548,"R"
489811,"310 N 14TH STREET","CLARINDA","IA",51632,40.7404552740001,-95.035173662,311,"310 N 14TH STREET, CLARINDA, IA, 51632","Match","Exact","310 N 14TH ST, CLARINDA, IA, 51632",10233418,"L"
489812,"310 N 155TH STREET","SEATTLE","WA",98133,47.7413918840001,-122.354804771,312,"310 N 155TH STREET, SEATTLE, WA, 98133","Match","Exact","310 N 155TH ST, SEATTLE, WA, 98133",186967102,"L"
489813,"310 N 29TH ST","BOISE","ID",83702,43.6237843980001,-116.226595308,313,"310 N 29TH ST, BOISE, ID, 83702","Match","Exact","310 N 29TH ST, BOISE, ID, 83702",117859036,"R"
489814,"310 N 4TH ST","QUENEMO","KS",66528,38.5829018840001,-95.525828059,314,"310 N 4TH ST, QUENEMO, KS, 66528","Match","Exact","310 N 4TH ST, QUENEMO, KS, 66528",11223106,"R"
489815,"310 N 5TH ST","BOISE","ID",83702,43.615488805,-116.198350992,315,"310 N 5TH ST, BOISE, ID, 83702","Match","Exact","310 N 5TH ST, BOISE, ID, 83702",117865675,"R"
489816,"310 N 5TH STREET","NEWMAN GROVE","NE",68758,41.750742378,-97.777985999,316,"310 N 5TH STREET, NEWMAN GROVE, NE, 68758","Match","Exact","310 N 5TH ST, NEWMAN GROVE, NE, 68758",161559995,"L"
489817,"310 N 61ST ST","KANSAS CITY","KS",66102,39.1037211620001,-94.719193761,317,"310 N 61ST ST, KANSAS CITY, KS, 66102","Match","Exact","310 N 61ST ST, KANSAS CITY, KS, 66102",91159544,"L"
489818,"310 N 61ST ST","PHILADELPHIA","PA",19139,39.9670771890001,-75.241722914,318,"310 N 61ST ST, PHILADELPHIA, PA, 19139","Match","Exact","310 N 61ST ST, PHILADELPHIA, PA, 19139",131397497,"L"
489819,"310 N 6TH STREET","LAKE CITY","MN",55041,44.44701508,-92.273686036,319,"310 N 6TH STREET, LAKE CITY, MN, 55041","Match","Exact","310 N 6TH ST, LAKE CITY, MN, 55041",31620228,"R"
489820,"310 N 7TH","TONKAWA","OK",74653,36.6811860110001,-97.308592801,320,"310 N 7TH, TONKAWA, OK, 74653","Match","Non_Exact","310 N 7TH ST, TONKAWA, OK, 74653",115890732,"R"
489821,"310 N ARCH ST","NEW HAMPTON","MO",64471,40.265413047,-94.194206827,321,"310 N ARCH ST, NEW HAMPTON, MO, 64471","Match","Exact","310 N ARCH ST, NEW HAMPTON, MO, 64471",17990143,"L"
489822,"310 N BRADOAKS AVE","MONROVIA","CA",91016,34.157409262,-117.985114932,322,"310 N BRADOAKS AVE, MONROVIA, CA, 91016","Match","Exact","310 N BRADOAKS AVE, MONROVIA, CA, 91016",141646189,"R"
489823,"310 N BROOKE DRIVE","CANTON","GA",30115,34.239039318,-84.4491625909999,323,"310 N BROOKE DRIVE, CANTON, GA, 30115","Match","Exact","310 N BROOKE DR, CANTON, GA, 30115",624153336,"R"
489824,"310 N CHICAGO ST  PO BOX 637","ROYAL CENTER","IN",46978,40.866580949,-86.502134449,324,"310 N CHICAGO ST  PO BOX 637, ROYAL CENTER, IN, 46978","Match","Non_Exact","310 N CHICAGO ST, ROYAL CENTER, IN, 46978",27183145,"L"
489825,"310 N CIVIC DRIVE","WALNUT CREEK","CA",94596,37.911078946,-122.059940473,325,"310 N CIVIC DRIVE, WALNUT CREEK, CA, 94596","Match","Exact","310 N CIVIC DR, WALNUT CREEK, CA, 94596",192055884,"R"
489826,"310 N COLLEGE PKWY","FREDERICK","MD",21701,39.419117042,-77.4191089179999,326,"310 N COLLEGE PKWY, FREDERICK, MD, 21701","Match","Exact","310 N COLLEGE PKWY, FREDERICK, MD, 21701",632778000,"R"
489827,"310 N DARLINGTON AVENUE","LAMAR","SC",29069,34.172956535,-80.054520187,327,"310 N DARLINGTON AVENUE, LAMAR, SC, 29069","Match","Exact","310 N DARLINGTON AVE, LAMAR, SC, 29069",78397552,"R"
489828,"310 N FIELD ST","BURLESON","TX",76028,32.546912223,-97.319058323,328,"310 N FIELD ST, BURLESON, TX, 76028","Match","Exact","310 N FIELD ST, BURLESON, TX, 76028",103517426,"L"
489829,"310 N FIFTH AVE","COAL CITY","IL",60416,41.2924138480001,-88.2694147409999,329,"310 N FIFTH AVE, COAL CITY, IL, 60416","Match","Exact","310 N 5TH AVE, COAL CITY, IL, 60416",639671265,"L"
489830,"310 N FRONT ST APT4185","WILMINGTON","NC",28401,NA,NA,330,"310 N FRONT ST APT4185, WILMINGTON, NC, 28401","Tie",NA,NA,NA,NA
489831,"310 N GRANT ST","MINNEOTA","MN",56264,44.5598432250001,-95.980862953,331,"310 N GRANT ST, MINNEOTA, MN, 56264","Match","Exact","310 N GRANT ST, MINNEOTA, MN, 56264",38512777,"R"
489832,"310 N GRANT STREET","WESTMONT","IL",60559,41.803094587,-87.97841242,332,"310 N GRANT STREET, WESTMONT, IL, 60559","Match","Exact","310 N GRANT ST, WESTMONT, IL, 60559",649653451,"L"
489833,"310 N GREEN","EASTLAND","TX",76448,32.4035517290001,-98.8207349959999,333,"310 N GREEN, EASTLAND, TX, 76448","Match","Non_Exact","310 N GREEN ST, EASTLAND, TX, 76448",158685719,"L"
489834,"310 N HARTH AVE","MADISON","SD",57042,44.007595994,-97.112546129,334,"310 N HARTH AVE, MADISON, SD, 57042","Match","Non_Exact","310 HARTH AVE N, MADISON, SD, 57042",203673324,"R"
489835,"310 N HELIOTROPE DR  APARTMENT 201","LOS ANGELES","CA",90004,34.076540295,-118.295549211,335,"310 N HELIOTROPE DR  APARTMENT 201, LOS ANGELES, CA, 90004","Match","Non_Exact","310 N HELIOTROPE DR, LOS ANGELES, CA, 90004",141604315,"R"
489836,"310 N HELIOTROPE DR STE 103","LOS ANGELES","CA",90004,34.076540295,-118.295549211,336,"310 N HELIOTROPE DR STE 103, LOS ANGELES, CA, 90004","Match","Non_Exact","310 N HELIOTROPE DR, LOS ANGELES, CA, 90004",141604315,"R"
489837,"310 N HELIOTROPE DR UNIT 112","LOS ANGELES","CA",90004,34.076540295,-118.295549211,337,"310 N HELIOTROPE DR UNIT 112, LOS ANGELES, CA, 90004","Match","Non_Exact","310 N HELIOTROPE DR, LOS ANGELES, CA, 90004",141604315,"R"
489838,"310 N INDIAN HILL BOULEVARD 111","CLAREMONT","CA",91711,NA,NA,338,"310 N INDIAN HILL BOULEVARD 111, CLAREMONT, CA, 91711","Tie",NA,NA,NA,NA
489839,"310 N JEFFERSON ST","MONTICELLO","FL",32344,30.546994049,-83.870150059,339,"310 N JEFFERSON ST, MONTICELLO, FL, 32344","Match","Exact","310 N JEFFERSON ST, MONTICELLO, FL, 32344",82673181,"R"
489840,"310 N LA FOX STREET UNIT 583","SOUTH ELGIN","IL",60177,NA,NA,340,"310 N LA FOX STREET UNIT 583, SOUTH ELGIN, IL, 60177","No_Match",NA,NA,NA,NA
489841,"310 N LAFAYETTE","MADISON","MO",65263,39.4755114880001,-92.2089784089999,341,"310 N LAFAYETTE, MADISON, MO, 65263","Match","Non_Exact","310 N LAFAYETTE ST, MADISON, MO, 65263",636259720,"R"
489842,"310 N LLOYD ST","SUFFOLK","VA",23434,36.72928225,-76.56964536,342,"310 N LLOYD ST, SUFFOLK, VA, 23434","Match","Exact","310 N LLOYD ST, SUFFOLK, VA, 23434",122227218,"R"
489843,"310 N LONG AVE","CHICAGO","IL",60644,41.8860990570001,-87.760297215,343,"310 N LONG AVE, CHICAGO, IL, 60644","Match","Exact","310 N LONG AVE, CHICAGO, IL, 60644",616787396,"L"
489844,"310 N MAIN ST","CISCO","IL",61830,40.0137187990001,-88.726010357,344,"310 N MAIN ST, CISCO, IL, 61830","Match","Exact","310 N MAIN ST, CISCO, IL, 61830",8552451,"R"
489845,"310 N MAPLE ST","MONTROSE","IL",62445,39.1649952020001,-88.383301084,345,"310 N MAPLE ST, MONTROSE, IL, 62445","Match","Exact","310 N MAPLE ST, MONTROSE, IL, 62445",94758921,"L"
489846,"310 N MASON STREET APT 521","FORT COLLINS","CO",80524,NA,NA,346,"310 N MASON STREET APT 521, FORT COLLINS, CO, 80524","Tie",NA,NA,NA,NA
489847,"310 N PIERCE ST","SULLIVAN","IL",61951,NA,NA,347,"310 N PIERCE ST, SULLIVAN, IL, 61951","No_Match",NA,NA,NA,NA
489848,"310 N PRAIRIE ST","UNION SPRINGS","AL",36089,32.1396098920001,-85.716148477,348,"310 N PRAIRIE ST, UNION SPRINGS, AL, 36089","Match","Non_Exact","310 PRAIRIE ST S, UNION SPRINGS, AL, 36089",636431086,"L"
489849,"310 N PROSPECT STREET","CRESCENT CITY","FL",32112,29.4341137910001,-81.509349404,349,"310 N PROSPECT STREET, CRESCENT CITY, FL, 32112","Match","Exact","310 PROSPECT ST, CRESCENT CITY, FL, 32112",86062991,"R"
489850,"310 N RIDGE ST","SOUTHERN PINES","NC",28387,35.1722508890001,-79.386168711,350,"310 N RIDGE ST, SOUTHERN PINES, NC, 28387","Match","Exact","310 N RIDGE ST, SOUTHERN PINES, NC, 28387",20296354,"L"
489851,"310 N ROOSEVELT AVENUE","COLUMBUS","OH",43209,39.9775370630001,-82.925164796,351,"310 N ROOSEVELT AVENUE, COLUMBUS, OH, 43209","Match","Exact","310 N ROOSEVELT AVE, COLUMBUS, OH, 43209",135590697,"R"
489852,"310 N SANBORN","PLANKINTON","SD",57368,NA,NA,352,"310 N SANBORN, PLANKINTON, SD, 57368","Tie",NA,NA,NA,NA
489853,"310 N SUMMER LANE","SANTA ANA","CA",92602,33.747557193,-117.924045237,353,"310 N SUMMER LANE, SANTA ANA, CA, 92602","Match","Non_Exact","310 SUMMER LN, SANTA ANA, CA, 92703",609056556,"R"
489854,"310 N THAYER ST APT 2","ANN ARBOR","MI",48104,NA,NA,354,"310 N THAYER ST APT 2, ANN ARBOR, MI, 48104","Tie",NA,NA,NA,NA
489855,"310 N VENTURA ST","OJAI","CA",93023,34.4497857270001,-119.24730187,355,"310 N VENTURA ST, OJAI, CA, 93023","Match","Exact","310 N VENTURA ST, OJAI, CA, 93023",109984085,"R"
489856,"310 N WALNUT STREET","STARKE","FL",32091,29.945812249,-82.109147288,356,"310 N WALNUT STREET, STARKE, FL, 32091","Match","Exact","310 N WALNUT ST, STARKE, FL, 32091",6899537,"R"
489857,"310 N WARREN","SOUTH LYON","MI",48178,42.4624356030001,-83.6547399029999,357,"310 N WARREN, SOUTH LYON, MI, 48178","Match","Non_Exact","310 N WARREN ST, SOUTH LYON, MI, 48178",69766116,"L"
489858,"310 N WASHINGTON STREET","FLORA","IN",46929,40.550539837,-86.52737215,358,"310 N WASHINGTON STREET, FLORA, IN, 46929","Match","Exact","310 N WASHINGTON ST, FLORA, IN, 46929",27043797,"L"
489859,"310 N WAUMBAGH","BAZINE","KS",67516,38.449094275,-99.690670631,359,"310 N WAUMBAGH, BAZINE, KS, 67516","Match","Non_Exact","310 N WAUMBAUGH ST, BAZINE, KS, 67516",138327606,"R"
489860,"310 N YELLOWSTONE DRIVE","MADISON","WI",53705,43.0720130120001,-89.496138027,360,"310 N YELLOWSTONE DRIVE, MADISON, WI, 53705","Match","Exact","310 N YELLOWSTONE DR, MADISON, WI, 53705",49466739,"L"
489861,"310 NATHAN DRIVE","CLYDE","OH",43410,41.325294614,-83.004240922,361,"310 NATHAN DRIVE, CLYDE, OH, 43410","Match","Exact","310 NATHAN DR, CLYDE, OH, 43410",636865314,"R"
489862,"310 NE 161 STREET","MIAMI","FL",33162,25.923215838,-80.193741319,362,"310 NE 161 STREET, MIAMI, FL, 33162","Match","Exact","310 NE 161ST ST, MIAMI, FL, 33162",116254012,"R"
489863,"310 NE 165TH ST","NORTH MIAMI BEACH","FL",33162,25.926862563,-80.193910887,363,"310 NE 165TH ST, NORTH MIAMI BEACH, FL, 33162","Match","Exact","310 NE 165TH ST, N MIAMI BEACH, FL, 33162",116031151,"R"
489864,"310 NE 22ND ST","WILTON MANORS","FL",33305,26.155966028,-80.141875683,364,"310 NE 22ND ST, WILTON MANORS, FL, 33305","Match","Exact","310 NE 22ND ST, WILTON MANORS, FL, 33305",114722010,"R"
489865,"310 NE 2ND AVENUE","MIAMI","FL",33137,25.777305137,-80.190362294,365,"310 NE 2ND AVENUE, MIAMI, FL, 33137","Match","Non_Exact","310 NE 2ND AVE, MIAMI, FL, 33132",116018753,"L"
489866,"310 NE 8TH AVENUE","ALEDO","IL",61231,41.203436894,-90.7413347459999,366,"310 NE 8TH AVENUE, ALEDO, IL, 61231","Match","Exact","310 NE 8TH AVE, ALEDO, IL, 61231",646921376,"R"
489867,"310 NE DUSTY MILLER AVENUE","MADISON","FL",32340,30.507640989,-83.373574984,367,"310 NE DUSTY MILLER AVENUE, MADISON, FL, 32340","Match","Exact","310 DUSTY MILLER AVE, MADISON, FL, 32340",634831002,"L"
489868,"310 NELSEN ST NE","ORTING","WA",98360,47.1122797130001,-122.219694302,368,"310 NELSEN ST NE, ORTING, WA, 98360","Match","Non_Exact","310 NELSON ST NE, ORTING, WA, 98360",630053964,"L"
489869,"310 NEW LONDON CT","BRANDON","FL",33510,27.938711852,-82.28235542,369,"310 NEW LONDON CT, BRANDON, FL, 33510","Match","Exact","310 NEW LONDON CT, BRANDON, FL, 33510",104644630,"L"
489870,"310 NEW YORK ST","SAINT LOUIS","MO",63022,38.565919095,-90.4015765629999,370,"310 NEW YORK ST, SAINT LOUIS, MO, 63022","Match","Non_Exact","310 NEW YORK ST, SAINT LOUIS, MO, 63122",100137659,"R"
489871,"310 NEWELL STREET","DEPUE","IL",61322,41.3266119260001,-89.314212746,371,"310 NEWELL STREET, DEPUE, IL, 61322","Match","Exact","310 NEWELL ST, DEPUE, IL, 61322",8496523,"L"
489872,"310 NICOLE DRIVE","JEFFERSONVILLE","ID",47130,NA,NA,372,"310 NICOLE DRIVE, JEFFERSONVILLE, ID, 47130","No_Match",NA,NA,NA,NA
489873,"310 NINTH ST","BAY ST LOUIS","MS",39520,30.3089374190001,-89.359877497,373,"310 NINTH ST, BAY ST LOUIS, MS, 39520","Match","Exact","310 NINTH ST, BAY SAINT LOUIS, MS, 39520",111132061,"R"
489874,"310 NINTH STREET","BAY ST LOUIS","MS",39520,30.3089374190001,-89.359877497,374,"310 NINTH STREET, BAY ST LOUIS, MS, 39520","Match","Exact","310 NINTH ST, BAY SAINT LOUIS, MS, 39520",111132061,"R"
489875,"310 NORMANDY HTS RD","TAYLORSVILLE","KY",40071,38.0981406720001,-85.333879746,375,"310 NORMANDY HTS RD, TAYLORSVILLE, KY, 40071","Match","Exact","310 NORMANDY HEIGHTS RD, TAYLORSVILLE, KY, 40071",47767372,"R"
489876,"310 NORTH 3RD STREET","CLINTON","IA",52732,41.847718469,-90.190762337,376,"310 NORTH 3RD STREET, CLINTON, IA, 52732","Match","Exact","310 N 3RD ST, CLINTON, IA, 52732",16808006,"L"
489877,"310 NORTH 9TH STREET","NILES","MI",49120,41.8309318330001,-86.249094272,377,"310 NORTH 9TH STREET, NILES, MI, 49120","Match","Exact","310 N 9TH ST, NILES, MI, 49120",119989513,"L"
489878,"310 NORTH ALABAMA STREET STE 330","INDIANAPOLIS","IN",46204,39.7714259640001,-86.1524935099999,378,"310 NORTH ALABAMA STREET STE 330, INDIANAPOLIS, IN, 46204","Match","Exact","310 N ALABAMA ST, INDIANAPOLIS, IN, 46204",107991858,"L"
489879,"310 NORTH ALABAMA STREET SUITE 200","INDIANAPOLIS","IN",46204,39.7714259640001,-86.1524935099999,379,"310 NORTH ALABAMA STREET SUITE 200, INDIANAPOLIS, IN, 46204","Match","Exact","310 N ALABAMA ST, INDIANAPOLIS, IN, 46204",107991858,"L"
489880,"310 NORTH CHEROKEE TRAIL","CLEVER","MO",65631,37.034631647,-93.475871501,380,"310 NORTH CHEROKEE TRAIL, CLEVER, MO, 65631","Match","Non_Exact","310 CHEROKEE TRL, CLEVER, MO, 65631",626366787,"L"
489881,"310 NORTH DEWEY","FREEBURG","IL",62243,38.429721208,-89.91260492,381,"310 NORTH DEWEY, FREEBURG, IL, 62243","Match","Non_Exact","310 N DEWEY ST, FREEBURG, IL, 62243",107848529,"R"
489882,"310 NORTH FODALE AVENUE","SOUTHPORT","NC",28461,33.9273599630001,-78.012815379,382,"310 NORTH FODALE AVENUE, SOUTHPORT, NC, 28461","Match","Exact","310 N FODALE AVE, SOUTHPORT, NC, 28461",153142441,"R"
489883,"310 NORTH FRONT ST SUITE 4 BOX 305","WILMINGTON","NC",28401,34.238996979,-77.949167188,383,"310 NORTH FRONT ST SUITE 4 BOX 305, WILMINGTON, NC, 28401","Match","Exact","310 N FRONT ST, WILMINGTON, NC, 28401",152730786,"R"
489884,"310 NORTH MAIN STREET","LATHAM","IL",62543,39.968057672,-89.1626921549999,384,"310 NORTH MAIN STREET, LATHAM, IL, 62543","Match","Exact","310 N MAIN ST, LATHAM, IL, 62543",22454795,"R"
489885,"310 NORTH OAK GROVE RD","MEMPHIS","TN",38120,35.1393818130001,-89.8788516659999,385,"310 NORTH OAK GROVE RD, MEMPHIS, TN, 38120","Match","Exact","310 N OAK GROVE RD, MEMPHIS, TN, 38120",72925425,"R"
489886,"310 NORTH SCOTTS ST","DEWITT","MI",48820,NA,NA,386,"310 NORTH SCOTTS ST, DEWITT, MI, 48820","No_Match",NA,NA,NA,NA
489887,"310 NW 25TH ST","GAINESVILLE","FL",32607,29.654352573,-82.360517293,387,"310 NW 25TH ST, GAINESVILLE, FL, 32607","Match","Exact","310 NW 25TH ST, GAINESVILLE, FL, 32607",623945399,"L"
489888,"310 NW 3RD STREET","PERKINS","OK",74059,35.9763215180001,-97.0375599979999,388,"310 NW 3RD STREET, PERKINS, OK, 74059","Match","Exact","310 NW 3RD ST, PERKINS, OK, 74059",166355453,"R"
489889,"310 NW 4TH","SEMINOLE","TX",79360,NA,NA,389,"310 NW 4TH, SEMINOLE, TX, 79360","Tie",NA,NA,NA,NA
489890,"310 NW 84TH ST","SEATTLE","WA",98117,47.6898384360001,-122.360935368,390,"310 NW 84TH ST, SEATTLE, WA, 98117","Match","Exact","310 NW 84TH ST, SEATTLE, WA, 98117",186578907,"R"
489891,"310 OAK COVE DRIVE","COLUMBIA","SC",29229,34.1839271910001,-80.899372929,391,"310 OAK COVE DRIVE, COLUMBIA, SC, 29229","Match","Exact","310 OAK COVE DR, COLUMBIA, SC, 29229",627505003,"R"
489892,"310 OAK HAVEN DR","MELBOURNE","FL",32940,28.2215479560001,-80.67722198,392,"310 OAK HAVEN DR, MELBOURNE, FL, 32940","Match","Exact","310 OAK HAVEN DR, MELBOURNE, FL, 32940",93925818,"R"
489893,"310 OAK KNOLL TERRACE","NORTH BROOK","IL",60062,42.1472109600001,-87.886896647,393,"310 OAK KNOLL TERRACE, NORTH BROOK, IL, 60062","Match","Non_Exact","310 OAK KNOLL TER, NORTHBROOK, IL, 60062",111838617,"L"
489894,"310 OAK STREET UNIT 403","HOOD RIVER","OR",97031,45.7088584840001,-121.513469334,394,"310 OAK STREET UNIT 403, HOOD RIVER, OR, 97031","Match","Exact","310 OAK ST, HOOD RIVER, OR, 97031",158132605,"R"
489895,"310 OAKLAND AVENUE","OAKLAND","CA",94611,37.8165396300001,-122.257202168,395,"310 OAKLAND AVENUE, OAKLAND, CA, 94611","Match","Exact","310 OAKLAND AVE, OAKLAND, CA, 94611",125049940,"R"
489896,"310 OASIS WAY APT 122","LYNCHBURG","VA",24502,37.3352997550001,-79.1731781349999,396,"310 OASIS WAY APT 122, LYNCHBURG, VA, 24502","Match","Exact","310 OASIS WAY, LYNCHBURG, VA, 24502",651944538,"R"
489897,"310 OKEECHOBEE BLVD","WEST PALM BEACH","FL",33401,26.705450446,-80.0523674839999,397,"310 OKEECHOBEE BLVD, WEST PALM BEACH, FL, 33401","Match","Exact","310 OKEECHOBEE BLVD, WEST PALM BEACH, FL, 33401",115278722,"L"
489898,"310 OLD BROOK LANE","BIRMINGHAM","AL",35242,33.4150544710001,-86.671248638,398,"310 OLD BROOK LANE, BIRMINGHAM, AL, 35242","Match","Exact","310 OLD BROOK LN, BIRMINGHAM, AL, 35242",82086835,"L"
489899,"310 OLD CAMP CREEK ROAD","CORNELIA","GA",30531,34.5250636540001,-83.527274666,399,"310 OLD CAMP CREEK ROAD, CORNELIA, GA, 30531","Match","Exact","310 CAMP CREEK RD, CORNELIA, GA, 30531",41729371,"R"
489900,"310 OLD COLONY ROAD","HARTSDALE","NY",10530,41.0023558180001,-73.804208777,400,"310 OLD COLONY ROAD, HARTSDALE, NY, 10530","Match","Exact","310 OLD COLONY RD, HARTSDALE, NY, 10530",652206165,"R"
489901,"310 OLD FARM ROAD","WYNCOTE","PA",19095,40.0816774680001,-75.157237521,401,"310 OLD FARM ROAD, WYNCOTE, PA, 19095","Match","Exact","310 OLD FARM RD, WYNCOTE, PA, 19095",135093857,"L"
489902,"310 OLD FRAZIERS TRAIL","WEST POINT","VA",23181,37.650893012,-76.906330095,402,"310 OLD FRAZIERS TRAIL, WEST POINT, VA, 23181","Match","Exact","310 OLD FRAZIERS TRL, WEST POINT, VA, 23181",212491511,"R"
489903,"310 OLD POINT AVE","HAMPTON","VA",23669,37.0311581330001,-76.3322508489999,403,"310 OLD POINT AVE, HAMPTON, VA, 23669","Match","Exact","310 OLD POINT AVE, HAMPTON, VA, 23669",103759884,"R"
489904,"310 OLD POINT","HAMPTON","VA",23669,37.0311581330001,-76.3322508489999,404,"310 OLD POINT, HAMPTON, VA, 23669","Match","Non_Exact","310 OLD POINT AVE, HAMPTON, VA, 23669",103759884,"R"
489905,"310 OLD RIVER RD","MORRILTON","AR",72110,NA,NA,405,"310 OLD RIVER RD, MORRILTON, AR, 72110","No_Match",NA,NA,NA,NA
489906,"310 OLD UNION CHURCH ROAD","BOWLING GREEN","KY",42104,36.8516043480001,-86.4343784119999,406,"310 OLD UNION CHURCH ROAD, BOWLING GREEN, KY, 42104","Match","Exact","310 OLD UNION CHURCH RD, BOWLING GREEN, KY, 42104",635156968,"R"
489907,"310 OLDFIELD ROAD","MADISON","WI",53717,43.0712863160001,-89.511851859,407,"310 OLDFIELD ROAD, MADISON, WI, 53717","Match","Exact","310 OLDFIELD RD, MADISON, WI, 53717",49493562,"L"
489908,"310 OLIVE STREET","NEW HAVEN","MO",63068,NA,NA,408,"310 OLIVE STREET, NEW HAVEN, MO, 63068","No_Match",NA,NA,NA,NA
489909,"310 OLIVER DRIVE","NEW SMYRNA BEACH","FL",32168,29.011591136,-80.9663396079999,409,"310 OLIVER DRIVE, NEW SMYRNA BEACH, FL, 32168","Match","Exact","310 OLIVER DR, NEW SMYRNA BEACH, FL, 32168",643542526,"R"
489910,"310 OLVIER ST NW 3","ATLANTA","GA",30314,33.76375813,-84.4156284589999,410,"310 OLVIER ST NW 3, ATLANTA, GA, 30314","Match","Non_Exact","310 OLIVER ST NW, ATLANTA, GA, 30314",639073323,"L"
489911,"310 ORANGE STREET EAST","CAVALIER","ND",58220,48.797080646,-97.6175287409999,411,"310 ORANGE STREET EAST, CAVALIER, ND, 58220","Match","Exact","310 ORANGE ST E, CAVALIER, ND, 58220",196166778,"L"
489912,"310 PAANI PLACE","PAIA","HI",96779,20.910060319,-156.40721375,412,"310 PAANI PLACE, PAIA, HI, 96779","Match","Exact","310 PAANI PL, PAIA, HI, 96779",85092407,"R"
489913,"310 PAIGE","COSTA MESA","CA",92627,33.654050909,-117.894231185,413,"310 PAIGE, COSTA MESA, CA, 92627","Match","Non_Exact","310 PAIGE LN, COSTA MESA, CA, 92627",144385174,"R"
489914,"310 PALMER AVENUE","NEPTUNE","NJ",7753,40.21713398,-74.0576038729999,414,"310 PALMER AVENUE, NEPTUNE, NJ, 7753","Match","Exact","310 PALMER AVE, NEPTUNE, NJ, 07753",90457334,"R"
489915,"310 PARADISE LN","EDGEWATER","FL",32132,28.979406296,-80.902664554,415,"310 PARADISE LN, EDGEWATER, FL, 32132","Match","Exact","310 PARADISE LN, EDGEWATER, FL, 32132",94533038,"L"
489916,"310 PARDUCCI","ATLANTA","GA",30349,33.674004537,-84.6376701459999,416,"310 PARDUCCI, ATLANTA, GA, 30349","Match","Non_Exact","310 PARDUCCI TRL, ATLANTA, GA, 30349",625655609,"L"
489917,"310 PARK AVE","LAKEWOOD","NJ",8701,40.093713585,-74.208087904,417,"310 PARK AVE, LAKEWOOD, NJ, 8701","Match","Exact","310 PARK AVE, LAKEWOOD, NJ, 08701",624746488,"L"
489918,"310 PARKER ROAD","STONEBORO","PA",16153,41.3063023650001,-80.0970726369999,418,"310 PARKER ROAD, STONEBORO, PA, 16153","Match","Exact","310 PARKER RD, STONEBORO, PA, 16153",605363023,"R"
489919,"310 PARRAMATTA LANE 2221","HOUSTON","TX",77073,NA,NA,419,"310 PARRAMATTA LANE 2221, HOUSTON, TX, 77073","No_Match",NA,NA,NA,NA
489920,"310 PARRAMATTA LN APT 2221","HOUSTON","TX",77073,NA,NA,420,"310 PARRAMATTA LN APT 2221, HOUSTON, TX, 77073","No_Match",NA,NA,NA,NA
489921,"310 PASEO SONRISA","WALNUT","CA",91789,34.012622283,-117.858245517,421,"310 PASEO SONRISA, WALNUT, CA, 91789","Match","Non_Exact","310 PSO SONRISA, WALNUT, CA, 91789",241250094,"R"
489922,"310 PATRICIAN DRIVE","SPANISH FORT","AL",36527,NA,NA,422,"310 PATRICIAN DRIVE, SPANISH FORT, AL, 36527","Tie",NA,NA,NA,NA
489923,"310 PECKS RD","PITTSFIELD","MA",1201,42.4748293810001,-73.2630302429999,423,"310 PECKS RD, PITTSFIELD, MA, 1201","Match","Exact","310 PECKS RD, PITTSFIELD, MA, 01201",3920438,"R"
489924,"310 PEMBERTON PL","CEDAR HILL","TX",75104,32.6192769560001,-96.953015699,424,"310 PEMBERTON PL, CEDAR HILL, TX, 75104","Match","Exact","310 PEMBERTON PL, CEDAR HILL, TX, 75104",103280262,"R"
489925,"310 PEPPERHILL LANE","GREENWOOD","SC",29649,34.2471003470001,-82.208893224,425,"310 PEPPERHILL LANE, GREENWOOD, SC, 29649","Match","Exact","310 PEPPERHILL LN, GREENWOOD, SC, 29649",646932295,"R"
489926,"310 PERRY ROAD","PETERSBURG","NJ",8270,39.2507815600001,-74.737890082,426,"310 PERRY ROAD, PETERSBURG, NJ, 8270","Match","Non_Exact","310 PERRY RD, WOODBINE, NJ, 08270",174341282,"R"
489927,"310 PETERSON STREET","FORT COLLINS","CO",80524,40.5837817770001,-105.071937977,427,"310 PETERSON STREET, FORT COLLINS, CO, 80524","Match","Exact","310 PETERSON ST, FORT COLLINS, CO, 80524",188571195,"L"
489928,"310 PHILLIPS DR","DUMAS","TX",79029,35.862912877,-101.957696897,428,"310 PHILLIPS DR, DUMAS, TX, 79029","Match","Exact","310 PHILLIPS DR, DUMAS, TX, 79029",164659781,"L"
489929,"310 PIEDMONT COURT","BERLIN","MD",21811,38.3692295810001,-75.1397276019999,429,"310 PIEDMONT COURT, BERLIN, MD, 21811","Match","Exact","310 PIEDMONT CT, BERLIN, MD, 21811",114526215,"R"
489930,"310 PINCKARD PIKE","VERSAILLES","KY",40383,38.0049229320001,-84.71685545,430,"310 PINCKARD PIKE, VERSAILLES, KY, 40383","Match","Exact","310 PINCKARD PIKE, VERSAILLES, KY, 40383",636696695,"L"
489931,"310 PINEBERRY DRIVE","VONORE","TN",37885,35.637333331,-84.254165886,431,"310 PINEBERRY DRIVE, VONORE, TN, 37885","Match","Exact","310 PINEBERRY DR, VONORE, TN, 37885",636645063,"R"
489932,"310 PLUM ST","NOGALES","AZ",85628,NA,NA,432,"310 PLUM ST, NOGALES, AZ, 85628","No_Match",NA,NA,NA,NA
489933,"310 PLYMOUTH STREET","WEST HEMPSTEAD","NY",11552,40.698665975,-73.648613989,433,"310 PLYMOUTH STREET, WEST HEMPSTEAD, NY, 11552","Match","Exact","310 PLYMOUTH ST, W HEMPSTEAD, NY, 11552",147675798,"R"
489934,"310 POPLAR DRIVE","ENTERPRISE","AL",36330,31.267723399,-85.812747676,434,"310 POPLAR DRIVE, ENTERPRISE, AL, 36330","Match","Exact","310 POPLAR DR, ENTERPRISE, AL, 36330",650636516,"R"
489935,"310 POWELL AVENUE","MONROE","LA",71201,32.518982024,-92.080699748,435,"310 POWELL AVENUE, MONROE, LA, 71201","Match","Exact","310 POWELL AVE, MONROE, LA, 71201",612368801,"R"
489936,"310 PRATT ST","BUFFALO","NY",14209,42.8896723820001,-78.858849068,436,"310 PRATT ST, BUFFALO, NY, 14209","Match","Non_Exact","310 PRATT ST, BUFFALO, NY, 14204",48291354,"L"
489937,"310 PRESIDENT ST","DUNEDIN","FL",34698,28.0083891690001,-82.7893461629999,437,"310 PRESIDENT ST, DUNEDIN, FL, 34698","Match","Exact","310 PRESIDENT ST, DUNEDIN, FL, 34698",124665367,"L"
489938,"310 PRESSLER ROAD","WALKILL","NY",12589,41.571241521,-74.054502498,438,"310 PRESSLER ROAD, WALKILL, NY, 12589","Match","Non_Exact","310 PRESSLER RD, WALLKILL, NY, 12589",124441340,"L"
489939,"310 PRINCETON WALK","ADAIRSVILLE","GA",30103,34.373130286,-84.915272054,439,"310 PRINCETON WALK, ADAIRSVILLE, GA, 30103","Match","Exact","310 PRINCETON WALK, ADAIRSVILLE, GA, 30103",30469412,"L"
489940,"310 PRISTINE VIEW","WILLIAMSBURG","VA",23188,NA,NA,440,"310 PRISTINE VIEW, WILLIAMSBURG, VA, 23188","No_Match",NA,NA,NA,NA
489941,"310 PROSPECT AVE  APT 429","HACKENSACK","NJ",7601,40.8912823640001,-74.054263455,441,"310 PROSPECT AVE  APT 429, HACKENSACK, NJ, 7601","Match","Exact","310 PROSPECT AVE, HACKENSACK, NJ, 07601",649130578,"R"
489942,"310 PROSPECT AVE UNIT 448","HACKENSACK","NJ",7601,40.8912823640001,-74.054263455,442,"310 PROSPECT AVE UNIT 448, HACKENSACK, NJ, 7601","Match","Exact","310 PROSPECT AVE, HACKENSACK, NJ, 07601",649130578,"R"
489943,"310 PROSPECT AVENUE 107","HACKENSACK","NJ",7601,40.8912823640001,-74.054263455,443,"310 PROSPECT AVENUE 107, HACKENSACK, NJ, 7601","Match","Exact","310 PROSPECT AVE, HACKENSACK, NJ, 07601",649130578,"R"
489944,"310 PROSPECT ST","HACKENSACK","NJ",7601,40.8912823640001,-74.054263455,444,"310 PROSPECT ST, HACKENSACK, NJ, 7601","Match","Non_Exact","310 PROSPECT AVE, HACKENSACK, NJ, 07601",649130578,"R"
489945,"310 PROSPECT STREET","CAMBRIDGE","MA",2319,NA,NA,445,"310 PROSPECT STREET, CAMBRIDGE, MA, 2319","No_Match",NA,NA,NA,NA
489946,"310 PROSPECT","HACKENSACK","NJ",7601,40.8912823640001,-74.054263455,446,"310 PROSPECT, HACKENSACK, NJ, 7601","Match","Non_Exact","310 PROSPECT AVE, HACKENSACK, NJ, 07601",649130578,"R"
489947,"310 QUEENSBERRY CIRCLE","PITTSBURGH","PA",15234,40.353413007,-80.04172162,447,"310 QUEENSBERRY CIRCLE, PITTSBURGH, PA, 15234","Match","Exact","310 QUEENSBERRY CIR, PITTSBURGH, PA, 15234",51689532,"R"
489948,"310 RAINBOW DRIVE","BRIGANTINE","NJ",8203,NA,NA,448,"310 RAINBOW DRIVE, BRIGANTINE, NJ, 8203","No_Match",NA,NA,NA,NA
489949,"310 REDWOOD AVENUE","PATERSON","NJ",7522,40.9276720130001,-74.191052124,449,"310 REDWOOD AVENUE, PATERSON, NJ, 7522","Match","Exact","310 REDWOOD AVE, PATERSON, NJ, 07522",65260592,"R"
489950,"310 REDWOOD RD","ROCK HILL","SC",29730,NA,NA,450,"310 REDWOOD RD, ROCK HILL, SC, 29730","No_Match",NA,NA,NA,NA
489951,"310 REEDS LANE","STRATFORD","CT",6614,41.2167168190001,-73.1290891639999,451,"310 REEDS LANE, STRATFORD, CT, 6614","Match","Exact","310 REEDS LN, STRATFORD, CT, 06614",3273695,"L"
489952,"310 REETZ AVENUE","HULMEVILLE","PA",19047,40.1408591970001,-74.9021106229999,452,"310 REETZ AVENUE, HULMEVILLE, PA, 19047","Match","Exact","310 REETZ AVE, HULMEVILLE, PA, 19047",134713214,"R"
489953,"310 REMEL COURT","KILL DEVIL HILLS","NC",27948,NA,NA,453,"310 REMEL COURT, KILL DEVIL HILLS, NC, 27948","No_Match",NA,NA,NA,NA
489954,"310 RICHARD PLACE","ORLANDO","FL",32806,28.507484941,-81.382908984,454,"310 RICHARD PLACE, ORLANDO, FL, 32806","Match","Exact","310 RICHARD PL, ORLANDO, FL, 32806",94283633,"L"
489955,"310 RICHFIELD RD","UPPER DARBY","PA",19082,39.955254374,-75.260675754,455,"310 RICHFIELD RD, UPPER DARBY, PA, 19082","Match","Exact","310 RICHFIELD RD, UPPER DARBY, PA, 19082",134878264,"R"
489956,"310 RICHNECK ROAD","ENFIELD","NC",27823,36.2659776770001,-77.702979441,456,"310 RICHNECK ROAD, ENFIELD, NC, 27823","Match","Exact","310 RICHNECK RD, ENFIELD, NC, 27823",56733287,"L"
489957,"310 RIDGE RD NO 9","PINEY FLATS","TN",37686,NA,NA,457,"310 RIDGE RD NO 9, PINEY FLATS, TN, 37686","No_Match",NA,NA,NA,NA
489958,"310 RIDGE STREET","BUCKLAND","OH",45819,40.620933984,-84.2590662439999,458,"310 RIDGE STREET, BUCKLAND, OH, 45819","Match","Exact","310 RIDGE ST, BUCKLAND, OH, 45819",36421517,"L"
489959,"310 RIDGEMONT AVE","ROCKVILLE","MD",20850,39.1172432640001,-77.1737542719999,459,"310 RIDGEMONT AVE, ROCKVILLE, MD, 20850","Match","Exact","310 RIDGEMONT AVE, ROCKVILLE, MD, 20850",617450137,"L"
489960,"310 RILEY LAKE DRIVE","HAWTHORNE","FL",32640,29.5206233970001,-82.034627003,460,"310 RILEY LAKE DRIVE, HAWTHORNE, FL, 32640","Match","Exact","310 RILEY LAKE DR, HAWTHORNE, FL, 32640",613329973,"L"
489961,"310 RISLEY ROAD","DEKALB JUNCTION","NY",13630,44.528506802,-75.283336832,461,"310 RISLEY ROAD, DEKALB JUNCTION, NY, 13630","Match","Non_Exact","310 RISLEY RD, DE KALB JUNCTION, NY, 13630",155199085,"R"
489962,"310 RIVER COUNTRY ROAD","SALISBURY","NC",28146,35.6652642670001,-80.333764344,462,"310 RIVER COUNTRY ROAD, SALISBURY, NC, 28146","Match","Exact","310 RIVER COUNTRY RD, SALISBURY, NC, 28146",636541136,"L"
489963,"310 RIVERSHIRE COURT","LINCOLNSHIRE","IL",60069,42.1879554990001,-87.92349455,463,"310 RIVERSHIRE COURT, LINCOLNSHIRE, IL, 60069","Match","Exact","310 RIVERSHIRE CT, LINCOLNSHIRE, IL, 60069",119744023,"L"
489964,"310 RIVERSIDE DRIVE APT 1905","NEW YORK","NY",10025,40.8003852790001,-73.9714147879999,464,"310 RIVERSIDE DRIVE APT 1905, NEW YORK, NY, 10025","Match","Exact","310 RIVERSIDE DR, NEW YORK, NY, 10025",59656548,"R"
489965,"310 RIVERSIDE DRIVE","NEW YORK","NY",10025,40.8003852790001,-73.9714147879999,465,"310 RIVERSIDE DRIVE, NEW YORK, NY, 10025","Match","Exact","310 RIVERSIDE DR, NEW YORK, NY, 10025",59656548,"R"
489966,"310 ROBBINS STREET","PHILADELPHIA","PA",19111,40.05025005,-75.100238097,466,"310 ROBBINS STREET, PHILADELPHIA, PA, 19111","Match","Exact","310 ROBBINS ST, PHILADELPHIA, PA, 19111",131414899,"R"
489967,"310 ROBINSON RD","SALEM","NJ",8079,39.511993309,-75.414615063,467,"310 ROBINSON RD, SALEM, NJ, 8079","Match","Exact","310 ROBINSON RD, SALEM, NJ, 08079",174427709,"L"
489968,"310 ROOSEVELT COURT","VIENNA","VA",22180,38.9121670600001,-77.2706386199999,468,"310 ROOSEVELT COURT, VIENNA, VA, 22180","Match","Non_Exact","310 ROOSEVELT CT NE, VIENNA, VA, 22180",75961298,"L"
489969,"310 ROSE STREET","LITTLE ROCK","AR",72205,34.7538049360001,-92.320596945,469,"310 ROSE STREET, LITTLE ROCK, AR, 72205","Match","Exact","310 ROSE ST, LITTLE ROCK, AR, 72205",83566101,"L"
489970,"310 ROSEHILL DRIVE","LEMONT","IL",60439,41.6634333390001,-87.997292167,470,"310 ROSEHILL DRIVE, LEMONT, IL, 60439","Match","Exact","310 ROSEHILL DR, LEMONT, IL, 60439",111806238,"R"
489971,"310 ROSEMONT PARK LANE","MARIETTA","GA",30064,33.948999664,-84.6420368189999,471,"310 ROSEMONT PARK LANE, MARIETTA, GA, 30064","Match","Non_Exact","310 ROSEMONT PARK LN SW, MARIETTA, GA, 30064",634054002,"L"
489972,"310 ROSEWOOD AVENUE","NEW HAVEN","CT",6513,41.3129211950001,-72.8760192,472,"310 ROSEWOOD AVENUE, NEW HAVEN, CT, 6513","Match","Exact","310 ROSEWOOD AVE, NEW HAVEN, CT, 06513",3704372,"L"
489973,"310 ROSEWOOD LANE","WALLINGFORD","PA",19086,39.891780683,-75.376585255,473,"310 ROSEWOOD LANE, WALLINGFORD, PA, 19086","Match","Exact","310 ROSEWOOD LN, WALLINGFORD, PA, 19086",134900279,"L"
489974,"310 ROSS RD APT 12J","COLUMBIA","SC",29223,34.0919513170001,-80.958318119,474,"310 ROSS RD APT 12J, COLUMBIA, SC, 29223","Match","Exact","310 ROSS RD, COLUMBIA, SC, 29223",604762304,"R"
489975,"310 ROXFORD ROAD SOUTH","SYRACUSE","NY",13208,43.0815327350001,-76.133754333,475,"310 ROXFORD ROAD SOUTH, SYRACUSE, NY, 13208","Match","Exact","310 ROXFORD RD S, SYRACUSE, NY, 13208",46569467,"R"
489976,"310 ROYAL PALM DR","ATLANTIC BEACH","FL",32233,30.327261838,-81.410376464,476,"310 ROYAL PALM DR, ATLANTIC BEACH, FL, 32233","Match","Non_Exact","310 ROYAL PALMS DR, ATLANTIC BCH, FL, 32233",83907190,"L"
489977,"310 RUDDLE AVE","ANDERSON","IN",46012,40.112495112,-85.671561942,477,"310 RUDDLE AVE, ANDERSON, IN, 46012","Match","Exact","310 RUDDLE AVE, ANDERSON, IN, 46012",31114308,"L"
489978,"310 RUSSI COURT","FOLSOM","CA",95630,38.6600102630001,-121.144579203,478,"310 RUSSI COURT, FOLSOM, CA, 95630","Match","Exact","310 RUSSI CT, FOLSOM, CA, 95630",133383944,"R"
489979,"310 S 25TH STREET","PARSONS","KS",67357,37.3386008680001,-95.273887288,479,"310 S 25TH STREET, PARSONS, KS, 67357","Match","Exact","310 S 25TH ST, PARSONS, KS, 67357",13735979,"R"
489980,"310 S 3RD STREET","INDIANOLA","IA",50125,41.3580971980001,-93.5569500669999,480,"310 S 3RD STREET, INDIANOLA, IA, 50125","Match","Exact","310 S 3RD ST, INDIANOLA, IA, 50125",83764097,"L"
489981,"310 S 49TH W AVE","TULSA","OK",74127,36.1526270050001,-96.0471845069999,481,"310 S 49TH W AVE, TULSA, OK, 74127","Match","Exact","310 S 49TH W AVE, TULSA, OK, 74127",166482395,"R"
489982,"310 S 4TH STREET UNIT 803","PHOENIX","AZ",85004,33.4449216080001,-112.068689883,482,"310 S 4TH STREET UNIT 803, PHOENIX, AZ, 85004","Match","Non_Exact","310 S 4TH ST, PHOENIX, AZ, 85004",128213728,"R"
489983,"310 S 65TH STREET","SAN DIEGO","CA",92114,NA,NA,483,"310 S 65TH STREET, SAN DIEGO, CA, 92114","Tie",NA,NA,NA,NA
489984,"310 S 6TH ST","FERNANDINA BEACH","FL",32034,30.666903474,-81.461043834,484,"310 S 6TH ST, FERNANDINA BEACH, FL, 32034","Match","Exact","310 S 6TH ST, FERNANDINA BCH, FL, 32034",84105283,"R"
489985,"310 S 7TH ST","DARBY","PA",19023,39.914670749,-75.258068709,485,"310 S 7TH ST, DARBY, PA, 19023","Match","Exact","310 S 7TH ST, DARBY, PA, 19023",134886491,"R"
489986,"310 S 9500 E","HUNTSVILLE","UT",84317,41.2586347980001,-111.720803651,486,"310 S 9500 E, HUNTSVILLE, UT, 84317","Match","Exact","310 S 9500 E, HUNTSVILLE, UT, 84317",155688966,"R"
489987,"310 S BARTON ST","JOHNSON CITY","TN",37604,36.307143178,-82.396868948,487,"310 S BARTON ST, JOHNSON CITY, TN, 37604","Match","Exact","310 S BARTON ST, JOHNSON CITY, TN, 37604",127922058,"R"
489988,"310 S BROAD STREET APT 202","ROME","GA",30161,NA,NA,488,"310 S BROAD STREET APT 202, ROME, GA, 30161","No_Match",NA,NA,NA,NA
489989,"310 S CHESTNUT","VERSAILLES","IL",62378,39.8829815600001,-90.659349838,489,"310 S CHESTNUT, VERSAILLES, IL, 62378","Match","Non_Exact","310 CHESTNUT ST, VERSAILLES, IL, 62378",48264008,"R"
489990,"310 S DEWBERRY","MIDLAND","TX",79703,31.9809268590001,-102.138541987,490,"310 S DEWBERRY, MIDLAND, TX, 79703","Match","Non_Exact","310 S DEWBERRY DR, MIDLAND, TX, 79703",139579980,"R"
489991,"310 S EAST END AVE STE K","POMONA","CA",91766,NA,NA,491,"310 S EAST END AVE STE K, POMONA, CA, 91766","No_Match",NA,NA,NA,NA
489992,"310 S ELLIS ST","SALISBURY","NC",28144,35.669105475,-80.476529044,492,"310 S ELLIS ST, SALISBURY, NC, 28144","Match","Exact","310 S ELLIS ST, SALISBURY, NC, 28144",25268784,"R"
489993,"310 S FIRST AVE","AULT","CO",80610,40.5849741480001,-104.734536355,493,"310 S FIRST AVE, AULT, CO, 80610","Match","Exact","310 1ST AVE, AULT, CO, 80610",188687226,"R"
489994,"310 S GARDNER ST","LOS ANGELES","CA",90036,34.0699083980001,-118.35305168,494,"310 S GARDNER ST, LOS ANGELES, CA, 90036","Match","Exact","310 S GARDNER ST, LOS ANGELES, CA, 90036",141599117,"L"
489995,"310 S GARLAND AVE","GARLAND","TX",75040,32.9096472910001,-96.648044163,495,"310 S GARLAND AVE, GARLAND, TX, 75040","Match","Exact","310 S GARLAND AVE, GARLAND, TX, 75040",103271476,"L"
489996,"310 S GARLAND AVENUE","GARLAND","TX",75040,32.9096472910001,-96.648044163,496,"310 S GARLAND AVENUE, GARLAND, TX, 75040","Match","Exact","310 S GARLAND AVE, GARLAND, TX, 75040",103271476,"L"
489997,"310 S GRIMES ST","GIDDINGS","TX",78942,30.180730586,-96.936720856,497,"310 S GRIMES ST, GIDDINGS, TX, 78942","Match","Exact","310 S GRIMES ST, GIDDINGS, TX, 78942",39132967,"R"
489998,"310 S HARRISON ST","ARLINGTON","VA",22204,38.8637012230001,-77.1205314119999,498,"310 S HARRISON ST, ARLINGTON, VA, 22204","Match","Exact","310 S HARRISON ST, ARLINGTON, VA, 22204",630411993,"R"
489999,"310 S HOLLY STREET","CANBY","OR",97013,45.2592369930001,-122.692248199,499,"310 S HOLLY STREET, CANBY, OR, 97013","Match","Exact","310 S HOLLY ST, CANBY, OR, 97013",157912040,"L"
490000,"310 S ILLINOIS STREET","ARLINGTON","VA",22204,38.8637860580001,-77.1222565959999,500,"310 S ILLINOIS STREET, ARLINGTON, VA, 22204","Match","Exact","310 S ILLINOIS ST, ARLINGTON, VA, 22204",76468717,"R"
