"ID","Address","City","State","Zip","lat","long","id","input_address","match_indicator","match_type","matched_address","tiger_line_id","tiger_side"
169501,"1400 W AIKEN AVE","PEORIA","IL",61605,40.6886356430001,-89.6146996159999,1,"1400 W AIKEN AVE, PEORIA, IL, 61605","Match","Exact","1400 W AIKEN AVE, PEORIA, IL, 61605",617836774,"L"
169502,"1400 W BENSON BLVD SUITE 200","ANCHORAGE","AK",99503,61.193704993,-149.908461145,2,"1400 W BENSON BLVD SUITE 200, ANCHORAGE, AK, 99503","Match","Non_Exact","1400 W BENSON BLVD, ANCHORAGE, AK, 99503",190814582,"L"
169503,"1400 W COLD SPRING LANE","BALTIMORE","MD",21209,NA,NA,3,"1400 W COLD SPRING LANE, BALTIMORE, MD, 21209","No_Match",NA,NA,NA,NA
169504,"1400 W COMMONWEALTH AVE","FULLERTON","CA",92833,33.8701858520001,-117.946392153,4,"1400 W COMMONWEALTH AVE, FULLERTON, CA, 92833","Match","Exact","1400 W COMMONWEALTH AVE, FULLERTON, CA, 92833",144021590,"L"
169505,"1400 W ELIZABETH ST APT 142","FORT COLLINS","CO",80521,40.5745659030001,-105.100788516,5,"1400 W ELIZABETH ST APT 142, FORT COLLINS, CO, 80521","Match","Non_Exact","1400 W ELIZABETH ST, FORT COLLINS, CO, 80521",188620053,"R"
169506,"1400 W FAIRBANKS AVE SUITE 100","WINTER PARK","FL",32789,28.593103817,-81.367863542,6,"1400 W FAIRBANKS AVE SUITE 100, WINTER PARK, FL, 32789","Match","Non_Exact","1400 W FAIRBANKS AVE, WINTER PARK, FL, 32789",94277535,"L"
169507,"1400 W LENAWEE","LANSING","MI",48915,42.7288159500001,-84.571747666,7,"1400 W LENAWEE, LANSING, MI, 48915","Match","Non_Exact","1400 W LENAWEE ST, LANSING, MI, 48915",17498141,"R"
169508,"1400 W MAIN ST","DENISON","TX",75020,33.7560025650001,-96.556757666,8,"1400 W MAIN ST, DENISON, TX, 75020","Match","Exact","1400 W MAIN ST, DENISON, TX, 75020",606355199,"L"
169509,"1400 W MARKHAM STE 202","LITTLE ROCK","AR",72201,NA,NA,9,"1400 W MARKHAM STE 202, LITTLE ROCK, AR, 72201","No_Match",NA,NA,NA,NA
169510,"1400 W RUSSELL AVE","BONHAM","TX",75418,NA,NA,10,"1400 W RUSSELL AVE, BONHAM, TX, 75418","No_Match",NA,NA,NA,NA
169511,"1400 W WASHINGTON ST STE 104 BX 193","SEQUIM","WA",98382,NA,NA,11,"1400 W WASHINGTON ST STE 104 BX 193, SEQUIM, WA, 98382","Tie",NA,NA,NA,NA
169512,"1400 WALKERS AVE 85","ELIZABETH CITY","NC",27909,NA,NA,12,"1400 WALKERS AVE 85, ELIZABETH CITY, NC, 27909","No_Match",NA,NA,NA,NA
169513,"1400 WALMSLEY AVE","DALLAS","TX",75208,32.7694189760001,-96.843727717,13,"1400 WALMSLEY AVE, DALLAS, TX, 75208","Match","Exact","1400 WALMSLEY AVE, DALLAS, TX, 75208",102905384,"L"
169514,"1400 WASHINGTON AVE BIO 329","ALBANY","NY",12222,42.6918155500001,-73.825635491,14,"1400 WASHINGTON AVE BIO 329, ALBANY, NY, 12222","Match","Exact","1400 WASHINGTON AVE, ALBANY, NY, 12222",643205839,"L"
169515,"1400 WASHINGTON AVENUE","ALBANY","NY",12222,42.6918155500001,-73.825635491,15,"1400 WASHINGTON AVENUE, ALBANY, NY, 12222","Match","Exact","1400 WASHINGTON AVE, ALBANY, NY, 12222",643205839,"L"
169516,"1400 WEDEKIND RD","RENO","NV",89512,39.546382457,-119.802156412,16,"1400 WEDEKIND RD, RENO, NV, 89512","Match","Exact","1400 WEDEKIND RD, RENO, NV, 89512",107047621,"R"
169517,"1400 WEST 22ND ST","SIOUX FALLS","SD",57105,43.5330428400001,-96.7425875329999,17,"1400 WEST 22ND ST, SIOUX FALLS, SD, 57105","Match","Exact","1400 W 22ND ST, SIOUX FALLS, SD, 57105",34971684,"R"
169518,"1400 WEST 22ND STREET","SIOUX FALLS","SD",57105,43.5330428400001,-96.7425875329999,18,"1400 WEST 22ND STREET, SIOUX FALLS, SD, 57105","Match","Exact","1400 W 22ND ST, SIOUX FALLS, SD, 57105",34971684,"R"
169519,"1400 WEST 43RD STREET","PINE BLUFF","AR",71601,NA,NA,19,"1400 WEST 43RD STREET, PINE BLUFF, AR, 71601","No_Match",NA,NA,NA,NA
169520,"1400 WEST 50TH TERRACE","KANSAS CITY","MO",64112,39.0363982920001,-94.6037616579999,20,"1400 WEST 50TH TERRACE, KANSAS CITY, MO, 64112","Match","Exact","1400 W 50TH TER, KANSAS CITY, MO, 64112",91446991,"R"
169521,"1400 WEST CORNWALLIS AVENUE","GREENSBORO","NC",27408,36.098148012,-79.812974541,21,"1400 WEST CORNWALLIS AVENUE, GREENSBORO, NC, 27408","Match","Non_Exact","1400 W CORNWALLIS DR, GREENSBORO, NC, 27408",131030550,"R"
169522,"1400 WEST ELIZABETH STREET APT 312","FORT COLLINS","CO",80521,40.5745659030001,-105.100788516,22,"1400 WEST ELIZABETH STREET APT 312, FORT COLLINS, CO, 80521","Match","Exact","1400 W ELIZABETH ST, FORT COLLINS, CO, 80521",188620053,"R"
169523,"1400 WEST MAIN STREET","BELLEVUE","OH",44811,41.284924862,-82.881966717,23,"1400 WEST MAIN STREET, BELLEVUE, OH, 44811","Match","Exact","1400 W MAIN ST, BELLEVUE, OH, 44811",38677831,"R"
169524,"1400 WEST PEACHTREE ST UNIT 1905","ATLANTA","GA",30363,NA,NA,24,"1400 WEST PEACHTREE ST UNIT 1905, ATLANTA, GA, 30363","No_Match",NA,NA,NA,NA
169525,"1400 WEST TAYLOR 130","CHICAGO","IL",60607,41.8693459,-87.661737006,25,"1400 WEST TAYLOR 130, CHICAGO, IL, 60607","Match","Non_Exact","1400 W TAYLOR ST, CHICAGO, IL, 60607",111802784,"R"
169526,"1400 WEST WARNER AVE APT 60","SANTA ANA","CA",92704,33.716132788,-117.886639036,26,"1400 WEST WARNER AVE APT 60, SANTA ANA, CA, 92704","Match","Exact","1400 W WARNER AVE, SANTA ANA, CA, 92704",144043495,"L"
169527,"1400 WEST WASHINGTON CENTER ROAD","FORT WAYN","IN",46825,41.1324337130001,-85.157458564,27,"1400 WEST WASHINGTON CENTER ROAD, FORT WAYN, IN, 46825","Match","Non_Exact","1400 W WASHINGTON CENTER RD, FORT WAYNE, IN, 46825",6376480,"R"
169528,"1400 WEST WASHINGTON CENTER ROAD","FORT WAYNE","IN",46825,41.1324337130001,-85.157458564,28,"1400 WEST WASHINGTON CENTER ROAD, FORT WAYNE, IN, 46825","Match","Exact","1400 W WASHINGTON CENTER RD, FORT WAYNE, IN, 46825",6376480,"R"
169529,"1400 WEST WATTS","EL RENO","OK",73036,35.5296109770001,-97.9690296809999,29,"1400 WEST WATTS, EL RENO, OK, 73036","Match","Non_Exact","1400 W WATTS ST, EL RENO, OK, 73036",92521163,"R"
169530,"1400 WESTCHESTER BLVD","WESTCHESTER","IL",60154,41.8595999980001,-87.877308087,30,"1400 WESTCHESTER BLVD, WESTCHESTER, IL, 60154","Match","Exact","1400 WESTCHESTER BLVD, WESTCHESTER, IL, 60154",111788310,"R"
169531,"1400 WESTINGHOUSE ROAD APT 317","GEORGETOWN","TX",78626,NA,NA,31,"1400 WESTINGHOUSE ROAD APT 317, GEORGETOWN, TX, 78626","No_Match",NA,NA,NA,NA
169532,"1400 WHISNAND RD","BLOOMINGTON","IN",47401,NA,NA,32,"1400 WHISNAND RD, BLOOMINGTON, IN, 47401","No_Match",NA,NA,NA,NA
169533,"1400 WHITE WING AVENUE","MCALLEN","TX",78501,26.2284159050001,-98.2308841399999,33,"1400 WHITE WING AVENUE, MCALLEN, TX, 78501","Match","Non_Exact","1400 WHITEWING AVE, MCALLEN, TX, 78501",71494250,"R"
169534,"1400 WHITTLE ROAD","MARTINSVILLE","VA",24112,36.6551407590001,-79.848342412,34,"1400 WHITTLE ROAD, MARTINSVILLE, VA, 24112","Match","Exact","1400 WHITTLE RD, MARTINSVILLE, VA, 24112",55516665,"L"
169535,"1400 WILDERNESS RD","BROOKS","KY",40109,NA,NA,35,"1400 WILDERNESS RD, BROOKS, KY, 40109","No_Match",NA,NA,NA,NA
169536,"1400 WILLARD STREET","NEW SMYRNA BEACH","FL",32168,29.067859458,-80.961309179,36,"1400 WILLARD STREET, NEW SMYRNA BEACH, FL, 32168","Match","Exact","1400 WILLARD ST, NEW SMYRNA BEACH, FL, 32168",94547425,"R"
169537,"1400 WILSON CREEK PKWY","MCKINNEY","TX",75069,33.1881086290001,-96.636765856,37,"1400 WILSON CREEK PKWY, MCKINNEY, TX, 75069","Match","Exact","1400 WILSON CREEK PKWY, MCKINNEY, TX, 75069",210482085,"R"
169538,"1400 WINDMOOR COURT","KENNESAW","GA",30144,34.058355534,-84.5947455529999,38,"1400 WINDMOOR COURT, KENNESAW, GA, 30144","Match","Non_Exact","1400 WINDMOOR CT NW, KENNESAW, GA, 30144",17224908,"L"
169539,"1400 WISCONSIN AVENUE","GRAND HAVEN","MI",49417,43.0507990900001,-86.230361537,39,"1400 WISCONSIN AVENUE, GRAND HAVEN, MI, 49417","Match","Exact","1400 WISCONSIN AVE, GRAND HAVEN, MI, 49417",71100987,"L"
169540,"1400 WISTERIA DR","METAIRIE","LA",70005,30.0160356750001,-90.139903385,40,"1400 WISTERIA DR, METAIRIE, LA, 70005","Match","Exact","1400 WISTERIA DR, METAIRIE, LA, 70005",93498339,"L"
169541,"1400 WISTERIA DRIVE","METAIRIE","LA",70005,30.0160356750001,-90.139903385,41,"1400 WISTERIA DRIVE, METAIRIE, LA, 70005","Match","Exact","1400 WISTERIA DR, METAIRIE, LA, 70005",93498339,"L"
169542,"1400 WOODFIELD DRIVE","NASHVILLE","TN",37211,36.0228854980001,-86.7200108069999,42,"1400 WOODFIELD DRIVE, NASHVILLE, TN, 37211","Match","Exact","1400 WOODFIELD DR, NASHVILLE, TN, 37211",97213123,"R"
169543,"1400 WOODLOCH FOREST DR SUITE 590","THE WOODLANDS","TX",77380,NA,NA,43,"1400 WOODLOCH FOREST DR SUITE 590, THE WOODLANDS, TX, 77380","No_Match",NA,NA,NA,NA
169544,"1400 WYNDMERE HILLS LANE","MATTHEWS","NC",28105,35.110191494,-80.7554846419999,44,"1400 WYNDMERE HILLS LANE, MATTHEWS, NC, 28105","Match","Exact","1400 WYNDMERE HILLS LN, MATTHEWS, NC, 28105",70516409,"R"
169545,"1400 WYNWOOD DR","CINNAMINSON","NJ",8077,40.0039051850001,-74.990520787,45,"1400 WYNWOOD DR, CINNAMINSON, NJ, 8077","Match","Exact","1400 WYNWOOD DR, CINNAMINSON, NJ, 08077",134025929,"L"
169546,"1400 YORK STREET","UNION GROVE","WI",53182,42.682883299,-88.061682145,46,"1400 YORK STREET, UNION GROVE, WI, 53182","Match","Exact","1400 YORK ST, UNION GROVE, WI, 53182",77919376,"L"
169547,"1400","BELLEVUE","OH",44811,NA,NA,47,"1400, BELLEVUE, OH, 44811","No_Match",NA,NA,NA,NA
169548,"14000 BEECH DALY ROAD","REDFORD","MI",48239,42.386725471,-83.295443918,48,"14000 BEECH DALY ROAD, REDFORD, MI, 48239","Match","Exact","14000 BEECH DALY RD, REDFORD, MI, 48239",95716908,"R"
169549,"14000 CASTLE BLVD APT 1205","SILVER SPRING","MD",20904,39.086625541,-76.939949242,49,"14000 CASTLE BLVD APT 1205, SILVER SPRING, MD, 20904","Match","Exact","14000 CASTLE BLVD, SILVER SPRING, MD, 20904",650358922,"L"
169550,"14000 CASTLE BLVD APT 501","SILVER SPRING","MD",20904,39.086625541,-76.939949242,50,"14000 CASTLE BLVD APT 501, SILVER SPRING, MD, 20904","Match","Exact","14000 CASTLE BLVD, SILVER SPRING, MD, 20904",650358922,"L"
169551,"14000 CASTLE BLVD UNIT 910","SILVER SPRING","MD",20904,39.086625541,-76.939949242,51,"14000 CASTLE BLVD UNIT 910, SILVER SPRING, MD, 20904","Match","Exact","14000 CASTLE BLVD, SILVER SPRING, MD, 20904",650358922,"L"
169552,"14000 CASTLE BOULEVARD APT 203","SILVER SPRING","MD",20904,39.086625541,-76.939949242,52,"14000 CASTLE BOULEVARD APT 203, SILVER SPRING, MD, 20904","Match","Exact","14000 CASTLE BLVD, SILVER SPRING, MD, 20904",650358922,"L"
169553,"14000 CHESTERFIELD CIRCLE","NORTH LITTLE ROCK","AR",72117,34.7460065440001,-92.108779166,53,"14000 CHESTERFIELD CIRCLE, NORTH LITTLE ROCK, AR, 72117","Match","Exact","14000 CHESTERFIELD CIR, N LITTLE ROCK, AR, 72117",83545298,"R"
169554,"14000 E 113TH STREET","FISHERS","IN",46040,39.9553621740001,-85.9133212359999,54,"14000 E 113TH STREET, FISHERS, IN, 46040","Match","Exact","14000 E 113TH ST, FISHERS, IN, 46040",29318415,"R"
169555,"14000 ELLA BLVD  405","HOUSTON","TX",77014,29.9712610940001,-95.433588346,55,"14000 ELLA BLVD  405, HOUSTON, TX, 77014","Match","Exact","14000 ELLA BLVD, HOUSTON, TX, 77014",642131433,"R"
169556,"14000 FLOYD ST","UPPER MARLBORO","MD",20772,NA,NA,56,"14000 FLOYD ST, UPPER MARLBORO, MD, 20772","No_Match",NA,NA,NA,NA
169557,"14000 FLOYD STREET UNIT 3203","OVERLAND PARK","KS",66223,38.8746223730001,-94.6685570719999,57,"14000 FLOYD STREET UNIT 3203, OVERLAND PARK, KS, 66223","Match","Exact","14000 FLOYD ST, OVERLAND PARK, KS, 66223",91325262,"R"
169558,"14000 FLOYD STREET","UPPER MARLBORO","MD",20772,NA,NA,58,"14000 FLOYD STREET, UPPER MARLBORO, MD, 20772","No_Match",NA,NA,NA,NA
169559,"14000 HIGHWAY 82 W SAB SUITE 353","ITTA BENA","MS",39841,33.5140962140001,-90.333266693,59,"14000 HIGHWAY 82 W SAB SUITE 353, ITTA BENA, MS, 39841","Match","Non_Exact","14000 HWY 82 W, ITTA BENA, MS, 38941",638768506,"L"
169560,"14000 HIGHWAY 82 W SAB SUITE 357","ITTA BENA","MS",38941,33.5140962140001,-90.333266693,60,"14000 HIGHWAY 82 W SAB SUITE 357, ITTA BENA, MS, 38941","Match","Exact","14000 HWY 82 W, ITTA BENA, MS, 38941",638768506,"L"
169561,"14000 HWY 82 NUMBER 7258","ITTA BENA","MS",38941,NA,NA,61,"14000 HWY 82 NUMBER 7258, ITTA BENA, MS, 38941","No_Match",NA,NA,NA,NA
169562,"14000 HWY 82 WEST","ITTA BENA","MS",38941,33.5140962140001,-90.333266693,62,"14000 HWY 82 WEST, ITTA BENA, MS, 38941","Match","Exact","14000 HWY 82 W, ITTA BENA, MS, 38941",638768506,"L"
169563,"14000 JERICHO PARK ROAD SUITE 308C","BOWIE","MD",20715,39.016900193,-76.76415981,63,"14000 JERICHO PARK ROAD SUITE 308C, BOWIE, MD, 20715","Match","Exact","14000 JERICHO PARK RD, BOWIE, MD, 20715",76362964,"L"
169564,"14000 JERICHO PARK ROAD","BOWIE","MD",20706,39.016900193,-76.76415981,64,"14000 JERICHO PARK ROAD, BOWIE, MD, 20706","Match","Non_Exact","14000 JERICHO PARK RD, BOWIE, MD, 20715",76362964,"L"
169565,"14000 LEANING PINE DRIVE","MIAMI LAKES","FL",33014,25.900797074,-80.3178526249999,65,"14000 LEANING PINE DRIVE, MIAMI LAKES, FL, 33014","Match","Exact","14000 LEANING PINE DR, MIAMI LAKES, FL, 33014",116024682,"L"
169566,"14000 MALLARD LAKE ROAD","CHARLOTTE","NC",28262,35.342811958,-80.72303776,66,"14000 MALLARD LAKE ROAD, CHARLOTTE, NC, 28262","Match","Exact","14000 MALLARD LAKE RD, CHARLOTTE, NC, 28262",614168855,"L"
169567,"14000 MARSHALL DRIVE","LENEXA","KS",66215,38.9451015430001,-94.7435734219999,67,"14000 MARSHALL DRIVE, LENEXA, KS, 66215","Match","Exact","14000 MARSHALL DR, LENEXA, KS, 66215",91322767,"R"
169568,"14000 MATSON ROAD","FRAZEE","MN",56544,46.7738485520001,-95.7642936669999,68,"14000 MATSON ROAD, FRAZEE, MN, 56544","Match","Non_Exact","14000 MATTSON RD, FRAZEE, MN, 56544",167953819,"L"
169569,"14000 MIDDLETON CIRCLE","FRANKLIN","TN",37064,35.88819089,-86.819491326,69,"14000 MIDDLETON CIRCLE, FRANKLIN, TN, 37064","Match","Exact","14000 MIDDLETON CIR, FRANKLIN, TN, 37064",651697551,"L"
169570,"14000 MONT AVE","EAST CLEVELAND","OH",44118,41.5158545080001,-81.58019052,70,"14000 MONT AVE, EAST CLEVELAND, OH, 44118","Match","Exact","14000 MONT AVE, EAST CLEVELAND, OH, 44118",61122989,"L"
169571,"14000 N 94TH ST UNIT 2159","SCOTTSDALE","AZ",85260,33.612744263,-111.87835025,71,"14000 N 94TH ST UNIT 2159, SCOTTSDALE, AZ, 85260","Match","Non_Exact","14000 N 94TH ST, SCOTTSDALE, AZ, 85260",128945604,"L"
169572,"14000 N 94TH ST UNIT 2167","SCOTTSDALAE","AZ",85260,33.612744263,-111.87835025,72,"14000 N 94TH ST UNIT 2167, SCOTTSDALAE, AZ, 85260","Match","Non_Exact","14000 N 94TH ST, SCOTTSDALE, AZ, 85260",128945604,"L"
169573,"14000 N 94TH ST UNIT 2167","SCOTTSDALE","AZ",85260,33.612744263,-111.87835025,73,"14000 N 94TH ST UNIT 2167, SCOTTSDALE, AZ, 85260","Match","Non_Exact","14000 N 94TH ST, SCOTTSDALE, AZ, 85260",128945604,"L"
169574,"14000 NE LAWSON RD","PRINEVILLE","OR",97754,NA,NA,74,"14000 NE LAWSON RD, PRINEVILLE, OR, 97754","No_Match",NA,NA,NA,NA
169575,"14000 NOEL ROAD APT 806","DALLAS","TX",75240,32.9381989120001,-96.817870447,75,"14000 NOEL ROAD APT 806, DALLAS, TX, 75240","Match","Exact","14000 NOEL RD, DALLAS, TX, 75240",650067527,"L"
169576,"14000 PALAWAY WAY SLIP 44","MARINA DEL REY","CA",90292,NA,NA,76,"14000 PALAWAY WAY SLIP 44, MARINA DEL REY, CA, 90292","No_Match",NA,NA,NA,NA
169577,"14000 PEACH GROVE ST","SHERMAN OAKS","CA",91423,34.159172498,-118.437107162,77,"14000 PEACH GROVE ST, SHERMAN OAKS, CA, 91423","Match","Exact","14000 PEACH GROVE ST, SHERMAN OAKS, CA, 91423",141561890,"L"
169578,"14000 RENAISSANCE COURT","AUSTIN","TX",78728,30.4363152110001,-97.685479976,78,"14000 RENAISSANCE COURT, AUSTIN, TX, 78728","Match","Exact","14000 RENAISSANCE CT, AUSTIN, TX, 78728",641659007,"R"
169579,"14000 RILEY STREET  APT 3101","OVERLAND PARK","KS",66223,38.874648849,-94.66980453,79,"14000 RILEY STREET  APT 3101, OVERLAND PARK, KS, 66223","Match","Exact","14000 RILEY ST, OVERLAND PARK, KS, 66223",91329145,"L"
169580,"14000 S WILKIE AVE","GARDENA","CA",90249,33.904718168,-118.323111725,80,"14000 S WILKIE AVE, GARDENA, CA, 90249","Match","Exact","14000 WILKIE AVE, GARDENA, CA, 90249",141661082,"L"
169581,"14000 SOUTH BRADDOCK AVE","PITTSBURGH","PA",15218,NA,NA,81,"14000 SOUTH BRADDOCK AVE, PITTSBURGH, PA, 15218","No_Match",NA,NA,NA,NA
169582,"14000 SUDLEY MANOR DRIVE","BRISTOW","VA",20136,38.7410537310001,-77.5776552089999,82,"14000 SUDLEY MANOR DRIVE, BRISTOW, VA, 20136","Match","Exact","14000 SUDLEY MANOR DR, BRISTOW, VA, 20136",207143330,"R"
169583,"14000 SW 45TH TER","OCALA","FL",34473,NA,NA,83,"14000 SW 45TH TER, OCALA, FL, 34473","No_Match",NA,NA,NA,NA
169584,"14000 SWEITZER LANE","CUMBERLAND","MD",21502,39.704049765,-78.711131796,84,"14000 SWEITZER LANE, CUMBERLAND, MD, 21502","Match","Non_Exact","14000 SWIETZER LN, CUMBERLAND, MD, 21502",123314678,"L"
169585,"14000 TAHITI WAY STE 301","MARINA DEL REY","CA",90292,33.973731367,-118.453999863,85,"14000 TAHITI WAY STE 301, MARINA DEL REY, CA, 90292","Match","Exact","14000 TAHITI WAY, MARINA DEL REY, CA, 90292",650064431,"L"
169586,"14000 TERRAPIN ST / APT 14203","FRANKLIN","TN",37067,35.935418315,-86.806941229,86,"14000 TERRAPIN ST / APT 14203, FRANKLIN, TN, 37067","Match","Exact","14000 TERRAPIN ST, FRANKLIN, TN, 37067",643545454,"L"
169587,"14000 TURAH ROAD","MISSOULA","MT",59825,46.812502066,-113.803292759,87,"14000 TURAH ROAD, MISSOULA, MT, 59825","Match","Non_Exact","14000 TURAH RD, CLINTON, MT, 59825",205316987,"R"
169588,"14000 US HWY 287 S","BELLEVUE","TX",76228,33.6541715490001,-98.046528388,88,"14000 US HWY 287 S, BELLEVUE, TX, 76228","Match","Non_Exact","14000 US HWY 287, BELLEVUE, TX, 76228",169803391,"R"
169589,"14000 W 87TH STREET PARKWAY  109","LENEXA","KS",66215,38.971080509,-94.7480641829999,89,"14000 W 87TH STREET PARKWAY  109, LENEXA, KS, 66215","Match","Non_Exact","14000 W 87TH STREET PKWY, LENEXA, KS, 66215",91269977,"R"
169590,"14000 WECKFORD BLVD","HOUSTON","TX",77044,29.924769767,-95.2061240199999,90,"14000 WECKFORD BLVD, HOUSTON, TX, 77044","Match","Exact","14000 WECKFORD BLVD, HOUSTON, TX, 77044",645170589,"R"
169591,"14000 WECKFORD","HOUSTON","TX",77044,29.924769767,-95.2061240199999,91,"14000 WECKFORD, HOUSTON, TX, 77044","Match","Non_Exact","14000 WECKFORD BLVD, HOUSTON, TX, 77044",645170589,"R"
169592,"14000 WETHERSFIELD TERRACE COURT","CHESTERFIELD","MO",63017,38.6581472710001,-90.512891907,92,"14000 WETHERSFIELD TERRACE COURT, CHESTERFIELD, MO, 63017","Match","Exact","14000 WETHERSFIELD TERRACE CT, CHESTERFIELD, MO, 63017",100175791,"L"
169593,"14001 BELLE POINTE DRIVE","LR","AR",72212,34.7711475880001,-92.433529521,93,"14001 BELLE POINTE DRIVE, LR, AR, 72212","Match","Non_Exact","14001 BELLE POINTE DR, LITTLE ROCK, AR, 72212",83532168,"L"
169594,"14001 CALLE ROSALES","BAKERSFIELD","CA",93314,35.356781357,-119.157346948,94,"14001 CALLE ROSALES, BAKERSFIELD, CA, 93314","Match","Non_Exact","14001 CLL ROSALES, BAKERSFIELD, CA, 93314",109136722,"R"
169595,"14001 CYPRESS CT","MIAMI LAKES","FL",33014,25.9011559030001,-80.314929761,95,"14001 CYPRESS CT, MIAMI LAKES, FL, 33014","Match","Exact","14001 CYPRESS CT, MIAMI LAKES, FL, 33014",116024686,"R"
169596,"14001 DANPARK LOOP","FORT MYERS","FL",33912,NA,NA,96,"14001 DANPARK LOOP, FORT MYERS, FL, 33912","No_Match",NA,NA,NA,NA
169597,"14001 DOWNDALE DRIVE","LAUREL","MD",20707,39.082859209,-76.876263556,97,"14001 DOWNDALE DRIVE, LAUREL, MD, 20707","Match","Exact","14001 DOWNDALE DR, LAUREL, MD, 20707",650118278,"R"
169598,"14001 DUNWOOD VALLEY DRIVE","BOWIE","MD",20721,38.93534457,-76.762106788,98,"14001 DUNWOOD VALLEY DRIVE, BOWIE, MD, 20721","Match","Exact","14001 DUNWOOD VALLEY DR, BOWIE, MD, 20721",76398307,"L"
169599,"14001 E MARIANA - 412","AURORA","CO",80014,NA,NA,99,"14001 E MARIANA - 412, AURORA, CO, 80014","No_Match",NA,NA,NA,NA
169600,"14001 FIREBUSH LN","HASLET","TX",76052,32.9843752100001,-97.378026458,100,"14001 FIREBUSH LN, HASLET, TX, 76052","Match","Exact","14001 FIREBUSH LN, HASLET, TX, 76052",619874129,"L"
169601,"14001 FONDREN RD APT 116","MISSOURI CITY","TX",77489,29.6185774750001,-95.5087577309999,101,"14001 FONDREN RD APT 116, MISSOURI CITY, TX, 77489","Match","Exact","14001 FONDREN RD, MISSOURI CITY, TX, 77489",78341675,"R"
169602,"14001 FONDREN RD APT 234","MISSOURI CITY","TX",77489,29.6185774750001,-95.5087577309999,102,"14001 FONDREN RD APT 234, MISSOURI CITY, TX, 77489","Match","Exact","14001 FONDREN RD, MISSOURI CITY, TX, 77489",78341675,"R"
169603,"14001 HOWLETT LINE DRIVE","COLONIAL HEIGHTS","VA",23834,37.33465233,-77.3816045359999,103,"14001 HOWLETT LINE DRIVE, COLONIAL HEIGHTS, VA, 23834","Match","Exact","14001 HOWLETT LINE DR, COLONIAL HEIGHTS, VA, 23834",201577628,"R"
169604,"14001 HWY 46 WEST","SPRING BRANCH","TX",78070,29.8065234760001,-98.3570494259999,104,"14001 HWY 46 WEST, SPRING BRANCH, TX, 78070","Match","Non_Exact","14001 STATE HWY 46 W, SPRING BRANCH, TX, 78070",636327829,"L"
169605,"14001 KANE RD","STOCKBRIDGE","MI",49285,42.439608863,-84.140731634,105,"14001 KANE RD, STOCKBRIDGE, MI, 49285","Match","Exact","14001 KANE RD, STOCKBRIDGE, MI, 49285",17516650,"R"
169606,"14001 KELVIN AVE","PHILADELPHIA","PA",19116,40.12585554,-75.005405976,106,"14001 KELVIN AVE, PHILADELPHIA, PA, 19116","Match","Exact","14001 KELVIN AVE, PHILADELPHIA, PA, 19116",131433235,"R"
169607,"14001 LEE TOWN RD","PEA RIDGE","AR",72751,36.4409387540001,-94.0679715589999,107,"14001 LEE TOWN RD, PEA RIDGE, AR, 72751","Match","Exact","14001 LEE TOWN RD, PEA RIDGE, AR, 72751",652953854,"L"
169608,"14001 LOOKOUT DR","KANSAS CITY","MO",64134,38.9514931840001,-94.418998726,108,"14001 LOOKOUT DR, KANSAS CITY, MO, 64134","Match","Non_Exact","14001 LOOKOUT DR, KANSAS CITY, MO, 64139",91491829,"R"
169609,"14001 MARQUETTE","BURNHAM","IL",60633,41.640693878,-87.556795818,109,"14001 MARQUETTE, BURNHAM, IL, 60633","Match","Non_Exact","14001 MARQUETTE AVE, BURNHAM, IL, 60633",111779796,"L"
169610,"14001 MT PLEASANT RD","VANCLEAVE","MS",39565,30.5457287180001,-88.647979853,110,"14001 MT PLEASANT RD, VANCLEAVE, MS, 39565","Match","Exact","14001 MOUNT PLEASANT RD, VANCLEAVE, MS, 39565",640017588,"L"
169611,"14001 MUSTANG TRAIL","SOUTHWEST RANCHES","FL",33330,26.0332272380001,-80.334331897,111,"14001 MUSTANG TRAIL, SOUTHWEST RANCHES, FL, 33330","Match","Exact","14001 MUSTANG TRL, SOUTHWEST RANCHES, FL, 33330",114700178,"R"
169612,"14001 N CR 400E","EATON","IN",47338,40.3147212860001,-85.31383128,112,"14001 N CR 400E, EATON, IN, 47338","Match","Non_Exact","14001 N CO RD 400 E, EATON, IN, 47338",30845339,"R"
169613,"14001 N ROOTH RD","EDINBURG","TX",78541,NA,NA,113,"14001 N ROOTH RD, EDINBURG, TX, 78541","No_Match",NA,NA,NA,NA
169614,"14001 NE 7TH CIR","VANCOUVER","WA",98684,45.6261373090001,-122.528313758,114,"14001 NE 7TH CIR, VANCOUVER, WA, 98684","Match","Exact","14001 NE 7TH CIR, VANCOUVER, WA, 98684",158329762,"L"
169615,"14001 NW 4 STREET SUITE C","SUNRISE","FL",33325,26.12597809,-80.3396000119999,115,"14001 NW 4 STREET SUITE C, SUNRISE, FL, 33325","Match","Non_Exact","14001 NW 4TH ST, SUNRISE, FL, 33325",638966273,"L"
169616,"14001 PECAN HOLLOW TERRACE","EDMOND","OK",73013,35.6124887650001,-97.446796439,116,"14001 PECAN HOLLOW TERRACE, EDMOND, OK, 73013","Match","Exact","14001 PECAN HOLLOW TER, EDMOND, OK, 73013",100434137,"L"
169617,"14001 SE LAURIE AVE","MILWAUKIE","OR",97267,45.4216079220001,-122.648103861,117,"14001 SE LAURIE AVE, MILWAUKIE, OR, 97267","Match","Exact","14001 SE LAURIE AVE, MILWAUKIE, OR, 97267",641496136,"R"
169618,"14001 SMOKETOWN ROAD","WOODBRIDGE","VA",22192,38.6461967020001,-77.301956665,118,"14001 SMOKETOWN ROAD, WOODBRIDGE, VA, 22192","Match","Exact","14001 SMOKETOWN RD, WOODBRIDGE, VA, 22192",640176365,"L"
169619,"14001 SOUTH LAKES DRIVE","CHARLOTTE","NC",28273,35.1031925880001,-80.957987827,119,"14001 SOUTH LAKES DRIVE, CHARLOTTE, NC, 28273","Match","Exact","14001 S LAKES DR, CHARLOTTE, NC, 28273",651893831,"L"
169620,"14001 SOUTH MURPHY ROAD","CHENEY","WA",99004,47.5260187860001,-117.577950906,120,"14001 SOUTH MURPHY ROAD, CHENEY, WA, 99004","Match","Exact","14001 S MURPHY RD, CHENEY, WA, 99004",189901482,"R"
169621,"14001 TELEGRAPH RD","REDFORD","MI",48239,NA,NA,121,"14001 TELEGRAPH RD, REDFORD, MI, 48239","No_Match",NA,NA,NA,NA
169622,"14001 TEXAS 46","SPRING BRANCH","TX",78070,29.8065234760001,-98.3570494259999,122,"14001 TEXAS 46, SPRING BRANCH, TX, 78070","Match","Non_Exact","14001 STATE HWY 46 W, SPRING BRANCH, TX, 78070",636327829,"L"
169623,"14001 TICONDEROGA CT","FONTANA","CA",92336,34.1133566230001,-117.499011395,123,"14001 TICONDEROGA CT, FONTANA, CA, 92336","Match","Exact","14001 TICONDEROGA CT, FONTANA, CA, 92336",144707928,"L"
169624,"14001 TOLLISON DRIVE","BOWIE","MD",20720,38.9606705050001,-76.763563032,124,"14001 TOLLISON DRIVE, BOWIE, MD, 20720","Match","Exact","14001 TOLLISON DR, BOWIE, MD, 20720",76342592,"R"
169625,"14001 TURKEY HOLLOW TRAIL","AUSTIN","TX",78717,30.49051065,-97.79449458,125,"14001 TURKEY HOLLOW TRAIL, AUSTIN, TX, 78717","Match","Exact","14001 TURKEY HOLLOW TRL, AUSTIN, TX, 78717",627701709,"R"
169626,"14001 W MAIN ST","DALEVILLE","IN",47334,40.128637752,-85.551077366,126,"14001 W MAIN ST, DALEVILLE, IN, 47334","Match","Exact","14001 W MAIN ST, DALEVILLE, IN, 47334",30842429,"R"
169627,"14001 W US HIGHWAY 50","HALSTEAD","KS",67056,38.0286195840001,-97.5470107949999,127,"14001 W US HIGHWAY 50, HALSTEAD, KS, 67056","Match","Exact","14001 US HWY 50, HALSTEAD, KS, 67056",120640065,"L"
169628,"14001 W WASHINGTON STREET SUITE 100","PHOENIX","AZ",85007,NA,NA,128,"14001 W WASHINGTON STREET SUITE 100, PHOENIX, AZ, 85007","No_Match",NA,NA,NA,NA
169629,"14001 WASHINGTON AVE","STURTEVANT","WI",53177,42.726486606,-87.9569483719999,129,"14001 WASHINGTON AVE, STURTEVANT, WI, 53177","Match","Exact","14001 WASHINGTON AVE, STURTEVANT, WI, 53177",653015222,"R"
169630,"14001C SAINT GERMAIN DR STE 361","CENTREVILLE","VA",20121,38.837002216,-77.435223444,130,"14001C SAINT GERMAIN DR STE 361, CENTREVILLE, VA, 20121","Match","Exact","14001 SAINT GERMAIN DR, CENTREVILLE, VA, 20121",76025652,"R"
169631,"14002 1/2 ROSCOE BLVD","PANORAMA CITY","CA",91402,34.2216290900001,-118.438230032,131,"14002 1/2 ROSCOE BLVD, PANORAMA CITY, CA, 91402","Match","Exact","14002 ROSCOE BLVD, PANORAMA CITY, CA, 91402",141550163,"L"
169632,"14002 CRESTWICK DR E","JACKSONVILLE","FL",32218,30.490763182,-81.617869946,132,"14002 CRESTWICK DR E, JACKSONVILLE, FL, 32218","Match","Exact","14002 CRESTWICK DR E, JACKSONVILLE, FL, 32218",83961095,"L"
169633,"14002 FOSTERS CREEK DR","CYPRESS","TX",77429,29.9726242460001,-95.655453391,133,"14002 FOSTERS CREEK DR, CYPRESS, TX, 77429","Match","Exact","14002 FOSTERS CREEK DR, CYPRESS, TX, 77429",96562094,"R"
169634,"14002 GARDEN BROOK CT","ROSHARON","TX",77583,29.501802313,-95.439192329,134,"14002 GARDEN BROOK CT, ROSHARON, TX, 77583","Match","Exact","14002 GARDEN BROOK CT, ROSHARON, TX, 77583",116644290,"L"
169635,"14002 JUNIPER PARK COURT","HOUSTON","TX",77066,29.9393513360001,-95.47073361,135,"14002 JUNIPER PARK COURT, HOUSTON, TX, 77066","Match","Exact","14002 JUNIPER PARK CT, HOUSTON, TX, 77066",96011690,"L"
169636,"14002 JUNIPER PARK COURT","HUNTSVILLE","TX",77066,29.9393513360001,-95.47073361,136,"14002 JUNIPER PARK COURT, HUNTSVILLE, TX, 77066","Match","Non_Exact","14002 JUNIPER PARK CT, HOUSTON, TX, 77066",96011690,"L"
169637,"14002 KICKING HORSE CL","VICTORVILLE","CA",92394,34.514546368,-117.358039439,137,"14002 KICKING HORSE CL, VICTORVILLE, CA, 92394","Match","Non_Exact","14002 KICKING HORSE CIR, VICTORVILLE, CA, 92394",647991783,"L"
169638,"14002 MACCLAIN ST","GOWEN","MI",49326,43.1984777870001,-85.323065575,138,"14002 MACCLAIN ST, GOWEN, MI, 49326","Match","Exact","14002 MACCLAIN ST, GOWEN, MI, 49326",12448305,"R"
169639,"14002 SAN CASA PLACE","TAMPA","FL",33613,28.074777166,-82.442007147,139,"14002 SAN CASA PLACE, TAMPA, FL, 33613","Match","Exact","14002 SAN CASA PL, TAMPA, FL, 33613",104645972,"R"
169640,"14002 TOBAGO CT","BAYTOWN","TX",77523,29.8353742840001,-94.841483226,140,"14002 TOBAGO CT, BAYTOWN, TX, 77523","Match","Exact","14002 TOBAGO CT, BAYTOWN, TX, 77523",633525127,"R"
169641,"14003 GRAYSTONE AVE","NORWALK","CA",90650,33.90416887,-118.093999876,141,"14003 GRAYSTONE AVE, NORWALK, CA, 90650","Match","Exact","14003 GRAYSTONE AVE, NORWALK, CA, 90650",142693037,"R"
169642,"14003 LORNE DRIVE","HOUSTON","TX",77049,29.8105571190001,-95.201563267,142,"14003 LORNE DRIVE, HOUSTON, TX, 77049","Match","Exact","14003 LORNE DR, HOUSTON, TX, 77049",96095493,"L"
169643,"14003 MCINTOSH","THONOTOSASSA","FL",33593,NA,NA,143,"14003 MCINTOSH, THONOTOSASSA, FL, 33593","No_Match",NA,NA,NA,NA
169644,"14003 PALAWAN WAY APT 209","MARINA DEL REY","CA",90292,33.98123207,-118.45196589,144,"14003 PALAWAN WAY APT 209, MARINA DEL REY, CA, 90292","Match","Exact","14003 PALAWAN WAY, MARINA DEL REY, CA, 90292",142446667,"L"
169645,"14003 PINEHURST CIRCLE","BROOMFIELD","CO",80023,39.950858494,-105.030445909,145,"14003 PINEHURST CIRCLE, BROOMFIELD, CO, 80023","Match","Exact","14003 PINEHURST CIR, BROOMFIELD, CO, 80023",210038477,"L"
169646,"14003 POMELO PLACE","TAMPA","FL",33625,28.073269333,-82.57334466,146,"14003 POMELO PLACE, TAMPA, FL, 33625","Match","Exact","14003 POMELO PL, TAMPA, FL, 33625",104579590,"R"
169647,"14003 ROLLING SPRINGS COURT","LOUISVILLE","KY",40245,38.296748617,-85.499907659,147,"14003 ROLLING SPRINGS COURT, LOUISVILLE, KY, 40245","Match","Exact","14003 ROLLING SPRINGS CT, LOUISVILLE, KY, 40245",96889849,"R"
169648,"14003 TURTLE HILL ROAD","MIDLOTHIAN","VA",23112,37.45896129,-77.662859394,148,"14003 TURTLE HILL ROAD, MIDLOTHIAN, VA, 23112","Match","Exact","14003 TURTLE HILL RD, MIDLOTHIAN, VA, 23112",201563842,"R"
169649,"14003 WHEATBRIDGE DR","HOUSTON","TX",77041,29.8604061510001,-95.6225733589999,149,"14003 WHEATBRIDGE DR, HOUSTON, TX, 77041","Match","Exact","14003 WHEATBRIDGE DR, HOUSTON, TX, 77041",96566532,"L"
169650,"14003 WIMBLEDON LOOP","LITTLE ROCK","AR",72210,34.6666549610001,-92.4316250109999,150,"14003 WIMBLEDON LOOP, LITTLE ROCK, AR, 72210","Match","Exact","14003 WIMBLEDON LOOP, LITTLE ROCK, AR, 72210",83502219,"L"
169651,"14003 WOODSIDE COVER","OXFORD","MS",38655,34.374586643,-89.605753078,151,"14003 WOODSIDE COVER, OXFORD, MS, 38655","Match","Non_Exact","14003 WOODSIDE COVE, OXFORD, MS, 38655",649519198,"L"
169652,"140037 RYAN DR","MITCHELL","NE",69357,41.9347823640001,-103.803704144,152,"140037 RYAN DR, MITCHELL, NE, 69357","Match","Exact","140037 RYAN DR, MITCHELL, NE, 69357",160058455,"L"
169653,"14004 ARABIAN RUN LANE","VICTORVILLE","CA",92394,34.5181742870001,-117.357232715,153,"14004 ARABIAN RUN LANE, VICTORVILLE, CA, 92394","Match","Exact","14004 ARABIAN RUN LN, VICTORVILLE, CA, 92394",144745553,"R"
169654,"14004 CARTER RD","WAKEMAN","OH",44889,41.2888691840001,-82.381234461,154,"14004 CARTER RD, WAKEMAN, OH, 44889","Match","Exact","14004 CARTER RD, WAKEMAN, OH, 44889",55332740,"R"
169655,"14004 DOTY AVE  APT 1","HAWTHORNE","CA",90044,33.9043267700001,-118.33948994,155,"14004 DOTY AVE  APT 1, HAWTHORNE, CA, 90044","Match","Non_Exact","14004 DOTY AVE, HAWTHORNE, CA, 90250",142752707,"L"
169656,"14004 DOTY AVE","LOS ANGELES","CA",90250,33.9043267700001,-118.33948994,156,"14004 DOTY AVE, LOS ANGELES, CA, 90250","Match","Non_Exact","14004 DOTY AVE, HOLLYGLEN, CA, 90250",142752707,"L"
169657,"14004 E 90TH ST N","OWASSO","OK",74055,36.2852826880001,-95.817384252,157,"14004 E 90TH ST N, OWASSO, OK, 74055","Match","Exact","14004 E 90TH ST N, OWASSO, OK, 74055",166516059,"R"
169658,"14004 EAST CENTER ST","BURTON","OH",44021,41.4708319470001,-81.140201481,158,"14004 EAST CENTER ST, BURTON, OH, 44021","Match","Exact","14004 E CENTER ST, BURTON, OH, 44021",615304668,"L"
169659,"14004 FLAGSTONE TRAIL","APPLE VALLEY","MN",55124,44.7419635850001,-93.198100682,159,"14004 FLAGSTONE TRAIL, APPLE VALLEY, MN, 55124","Match","Exact","14004 FLAGSTONE TRL, APPLE VALLEY, MN, 55124",37928838,"R"
169660,"14004 LEMOLI AVENUE - UNIT B","HAWTHORNE","CA",90250,33.904215675,-118.330819651,160,"14004 LEMOLI AVENUE - UNIT B, HAWTHORNE, CA, 90250","Match","Exact","14004 LEMOLI AVE, HAWTHORNE, CA, 90250",641501799,"L"
169661,"14004 MARIAN DR","ROCKVILLE","MD",20850,39.0872539910001,-77.19922208,161,"14004 MARIAN DR, ROCKVILLE, MD, 20850","Match","Exact","14004 MARIAN DR, ROCKVILLE, MD, 20850",62119618,"L"
169662,"14004 MT CHARLESTON STREET","RENO","NV",89506,39.655231482,-119.876092165,162,"14004 MT CHARLESTON STREET, RENO, NV, 89506","Match","Exact","14004 MOUNT CHARLESTON ST, RENO, NV, 89506",107112474,"R"
169663,"14004 WEEPING CHERRY DRIVE","ROCKVILLE","MD",20850,39.0856383130001,-77.200430265,163,"14004 WEEPING CHERRY DRIVE, ROCKVILLE, MD, 20850","Match","Exact","14004 WEEPING CHERRY DR, ROCKVILLE, MD, 20850",62119616,"L"
169664,"14004 WINDSOR ST","LEAWOOD","KS",66224,38.8751734900001,-94.6247692749999,164,"14004 WINDSOR ST, LEAWOOD, KS, 66224","Match","Exact","14004 WINDSOR ST, LEAWOOD, KS, 66224",91300455,"L"
169665,"14004 WOODWELL TER","SILVER SPRING","MD",20906,39.08661699,-77.036026137,165,"14004 WOODWELL TER, SILVER SPRING, MD, 20906","Match","Exact","14004 WOODWELL TER, SILVER SPRING, MD, 20906",62063119,"L"
169666,"14005 ARCHDALE ST","DETROIT","MI",48227,42.387976263,-83.216227136,166,"14005 ARCHDALE ST, DETROIT, MI, 48227","Match","Exact","14005 ARCHDALE ST, DETROIT, MI, 48227",95439376,"L"
169667,"14005 BROADRIPPLE PLACE","LOUISVILLE","KY",40299,38.1842914470001,-85.512636974,167,"14005 BROADRIPPLE PLACE, LOUISVILLE, KY, 40299","Match","Exact","14005 BROADRIPPLE PL, LOUISVILLE, KY, 40299",96885848,"L"
169668,"14005 E STATE HWY 22","CRANFILLS GAP","TX",76637,31.7645077,-97.896520853,168,"14005 E STATE HWY 22, CRANFILLS GAP, TX, 76637","Match","Exact","14005 STATE HWY 22, CRANFILLS GAP, TX, 76637",644319530,"L"
169669,"14005 NW WOODCREEK CT","PORTLAND","OR",97229,45.5569858320001,-122.820988104,169,"14005 NW WOODCREEK CT, PORTLAND, OR, 97229","Match","Exact","14005 NW WOODCREEK CT, PORTLAND, OR, 97229",624719514,"R"
169670,"14005 SILVER FERN RD","MOUNT AIRY","PA",21771,NA,NA,170,"14005 SILVER FERN RD, MOUNT AIRY, PA, 21771","No_Match",NA,NA,NA,NA
169671,"14005-B BRISTON STREET","LAUREL","MD",20707,39.0844713560001,-76.866357433,171,"14005-B BRISTON STREET, LAUREL, MD, 20707","Match","Exact","14005 BRISTON ST, LAUREL, MD, 20707",76335461,"R"
169672,"14006 BECKET ROAD","SHAKER HEIGHTS","OH",44120,41.4733428710001,-81.584420558,172,"14006 BECKET ROAD, SHAKER HEIGHTS, OH, 44120","Match","Exact","14006 BECKET RD, SHAKER HEIGHTS, OH, 44120",650990670,"R"
169673,"14006 CYPRESS CT","ALPHARETTA","GA",30005,34.0714197200001,-84.251601831,173,"14006 CYPRESS CT, ALPHARETTA, GA, 30005","Match","Exact","14006 CYPRESS CT, ALPHARETTA, GA, 30005",17420940,"L"
169674,"14006 FISH EAGLE DR E","JACKSONVILLE","FL",32226,NA,NA,174,"14006 FISH EAGLE DR E, JACKSONVILLE, FL, 32226","No_Match",NA,NA,NA,NA
169675,"14006 FOXFORD WAY","HOUSTON","TX",77015,29.794563091,-95.1741112449999,175,"14006 FOXFORD WAY, HOUSTON, TX, 77015","Match","Exact","14006 FOXFORD WAY, HOUSTON, TX, 77015",96098422,"R"
169676,"14006 HARLEQUINN DR","CHARLOTTE","NC",28273,35.100359688,-80.9654084699999,176,"14006 HARLEQUINN DR, CHARLOTTE, NC, 28273","Match","Non_Exact","14006 HARLEQUIN DR, CHARLOTTE, NC, 28273",70517001,"L"
169677,"14006 HOLLOW CREST PLACE","RIVERVIEW","FL",33579,27.7763400260001,-82.331332285,177,"14006 HOLLOW CREST PLACE, RIVERVIEW, FL, 33579","Match","Exact","14006 HOLLOW CREST PL, RIVERVIEW, FL, 33579",633886173,"L"
169678,"14006 MARLEIGH LN","CLIFTON","VA",20124,38.805816013,-77.4314530359999,178,"14006 MARLEIGH LN, CLIFTON, VA, 20124","Match","Exact","14006 MARLEIGH LN, CLIFTON, VA, 20124",648296620,"L"
169679,"14006 NINA DR","CARMEL","IN",46032,39.98985701,-86.234383441,179,"14006 NINA DR, CARMEL, IN, 46032","Match","Non_Exact","14006 NINA DR, CARMEL, IN, 46074",618464005,"L"
169680,"14006 RUGBY STREET","WINTER GARDEN","FL",34787,28.551387042,-81.660587471,180,"14006 RUGBY STREET, WINTER GARDEN, FL, 34787","Match","Exact","14006 RUGBY ST, WINTER GARDEN, FL, 34787",648416847,"R"
169681,"14006 SW DOWNING ST","BEAVERTON","OR",97006,45.515352008,-122.820799495,181,"14006 SW DOWNING ST, BEAVERTON, OR, 97006","Match","Exact","14006 SW DOWNING ST, BEAVERTON, OR, 97006",641894709,"L"
169682,"14006 TEALCREST LANE","HOUSTON","TX",77047,29.6053664510001,-95.360999189,182,"14006 TEALCREST LANE, HOUSTON, TX, 77047","Match","Exact","14006 TEALCREST LN, HOUSTON, TX, 77047",624602896,"R"
169683,"14006 WINDSOR ROAD","MINNETONKA","MN",55345,44.921395535,-93.458066133,183,"14006 WINDSOR ROAD, MINNETONKA, MN, 55345","Match","Exact","14006 WINDSOR RD, MINNETONKA, MN, 55345",43826003,"R"
169684,"14007 69TH DR SE T2","SNOHOMISH","WA",98296,47.8693928820001,-122.138262957,184,"14007 69TH DR SE T2, SNOHOMISH, WA, 98296","Match","Exact","14007 69TH DR SE, SNOHOMISH, WA, 98296",608934388,"R"
169685,"14007 69TH DR SE UNIT T2","SNOHOMISH","WA",98296,47.8693928820001,-122.138262957,185,"14007 69TH DR SE UNIT T2, SNOHOMISH, WA, 98296","Match","Exact","14007 69TH DR SE, SNOHOMISH, WA, 98296",608934388,"R"
169686,"14007 BOQUITA DRIVE","DEL MAR","CA",92014,32.9518121290001,-117.249701484,186,"14007 BOQUITA DRIVE, DEL MAR, CA, 92014","Match","Exact","14007 BOQUITA DR, DEL MAR, CA, 92014",195298044,"R"
169687,"14007 CHRISTINA LANE","HOMER GLEN","IL",60491,41.6336972180001,-87.98422111,187,"14007 CHRISTINA LANE, HOMER GLEN, IL, 60491","Match","Exact","14007 CHRISTINA LN, HOMER GLEN, IL, 60491",111607624,"L"
169688,"14007 COTTONTAIL LN","ALEXANDER","AR",72002,34.6230316940001,-92.42193603,188,"14007 COTTONTAIL LN, ALEXANDER, AR, 72002","Match","Exact","14007 COTTONTAIL LN, ALEXANDER, AR, 72002",24224393,"L"
169689,"14007 MANORVALE RD","ROCKVILL","MD",20853,39.0857316170001,-77.1080504239999,189,"14007 MANORVALE RD, ROCKVILL, MD, 20853","Match","Non_Exact","14007 MANORVALE RD, ROCKVILLE, MD, 20853",62055547,"R"
169690,"14007 NE CR 3170","KERENS","TX",75144,32.20838243,-96.2532796959999,190,"14007 NE CR 3170, KERENS, TX, 75144","Match","Non_Exact","14007 NE 3170, KERENS, TX, 75144",642868097,"L"
169691,"14007 NEVILLE RD","QUANTICO","VA",22134,NA,NA,191,"14007 NEVILLE RD, QUANTICO, VA, 22134","No_Match",NA,NA,NA,NA
169692,"14007 RIVERDOWNS NORTH PL","MIDLOTHIAN","VA",23113,37.554118875,-77.6539076129999,192,"14007 RIVERDOWNS NORTH PL, MIDLOTHIAN, VA, 23113","Match","Exact","14007 RIVERDOWNS NORTH PL, MIDLOTHIAN, VA, 23113",616581723,"L"
169693,"14007 WHEATBRIDGE","HOUSTON","TX",77041,29.860448992,-95.622602708,193,"14007 WHEATBRIDGE, HOUSTON, TX, 77041","Match","Non_Exact","14007 WHEATBRIDGE DR, HOUSTON, TX, 77041",96566532,"L"
169694,"14008 - 127TH PL NE","KIRKLAND","WA",98034,NA,NA,194,"14008 - 127TH PL NE, KIRKLAND, WA, 98034","No_Match",NA,NA,NA,NA
169695,"14008 56TH AVE NW","GIG HARBOR","WA",98332,47.3853240130001,-122.612884013,195,"14008 56TH AVE NW, GIG HARBOR, WA, 98332","Match","Exact","14008 56TH AVE NW, GIG HARBOR, WA, 98332",184640661,"L"
169696,"14008 ARDENALL AVE","EAST CLEVELAND","OH",44112,41.5391281770001,-81.584859598,196,"14008 ARDENALL AVE, EAST CLEVELAND, OH, 44112","Match","Exact","14008 ARDENALL AVE, EAST CLEVELAND, OH, 44112",61121478,"R"
169697,"14008 CALTHA DR","DALLAS","TX",75253,32.6715134180001,-96.5985136479999,197,"14008 CALTHA DR, DALLAS, TX, 75253","Match","Exact","14008 CALTHA DR, DALLAS, TX, 75253",619139111,"L"
169698,"14008 CAMINO BARCO","SARATOGA","CA",95070,NA,NA,198,"14008 CAMINO BARCO, SARATOGA, CA, 95070","No_Match",NA,NA,NA,NA
169699,"14008 CROSSBRANCH COURT","LOUISVILLE","KY",40245,38.242198526,-85.490572416,199,"14008 CROSSBRANCH COURT, LOUISVILLE, KY, 40245","Match","Exact","14008 CROSSBRANCH CT, LOUISVILLE, KY, 40245",96877428,"R"
169700,"14008 KATHERINE AVE","BATON ROUGE","LA",70815,30.4552388390001,-91.027795059,200,"14008 KATHERINE AVE, BATON ROUGE, LA, 70815","Match","Exact","14008 KATHERINE AVE, BATON ROUGE, LA, 70815",92194334,"R"
169701,"14008 KELLY RD","FESTUS","MO",63028,38.081805321,-90.372134069,201,"14008 KELLY RD, FESTUS, MO, 63028","Match","Exact","14008 KELLY RD, FESTUS, MO, 63028",637815288,"R"
169702,"14008 LEWISTON ST","SAN DIEGO","CA",92128,32.9747890300001,-117.074622601,202,"14008 LEWISTON ST, SAN DIEGO, CA, 92128","Match","Exact","14008 LEWISTON ST, SAN DIEGO, CA, 92128",195390757,"R"
169703,"14008 NORTH COVENTRY CIRCLE","FOUNTAIN HILLS","AZ",85268,33.614026516,-111.729856122,203,"14008 NORTH COVENTRY CIRCLE, FOUNTAIN HILLS, AZ, 85268","Match","Exact","14008 N COVENTRY CIR, FOUNTAIN HILLS, AZ, 85268",128190545,"L"
169704,"14008 PATERNO DR","FRISCO","TX",75035,33.1620758610001,-96.7561899469999,204,"14008 PATERNO DR, FRISCO, TX, 75035","Match","Exact","14008 PATERNO DR, FRISCO, TX, 75035",615036570,"L"
169705,"14008 RAMONA DR","WHITTIER","CA",90605,33.961248874,-118.023500641,205,"14008 RAMONA DR, WHITTIER, CA, 90605","Match","Exact","14008 RAMONA DR, WHITTIER, CA, 90605",141748498,"R"
169706,"14008 SANDY POINT LANE","EL PASO","TX",79938,31.7874325490001,-106.236981396,206,"14008 SANDY POINT LANE, EL PASO, TX, 79938","Match","Exact","14008 SANDY POINT LN, EL PASO, TX, 79938",618946582,"R"
169707,"14008 W TRAVIS LN","MALAKOFF","TX",75148,32.225650665,-96.015348962,207,"14008 W TRAVIS LN, MALAKOFF, TX, 75148","Match","Exact","14008 W TRAVIS LN, MALAKOFF, TX, 75148",125797949,"L"
169708,"14008 WAYNE PL N","SEATTLE","WA",98133,47.730756677,-122.335290228,208,"14008 WAYNE PL N, SEATTLE, WA, 98133","Match","Exact","14008 WAYNE PL N, SEATTLE, WA, 98133",186574976,"R"
169709,"14009 BESSEMER ST UNIT 3","VAN NUYS","GA",91401,NA,NA,209,"14009 BESSEMER ST UNIT 3, VAN NUYS, GA, 91401","No_Match",NA,NA,NA,NA
169710,"14009 BRAMBLE LANE APT 103","LAUREL","MD",20708,39.0829669340001,-76.851269068,210,"14009 BRAMBLE LANE APT 103, LAUREL, MD, 20708","Match","Exact","14009 BRAMBLE LN, LAUREL, MD, 20708",76326415,"R"
169711,"14009 CHADRON AVE APT 3","HAWTHORNE","CA",90250,33.904190574,-118.328656024,211,"14009 CHADRON AVE APT 3, HAWTHORNE, CA, 90250","Match","Exact","14009 CHADRON AVE, HAWTHORNE, CA, 90250",648188966,"R"
169712,"14009 E 380 ROAD","JAY","OK",74346,36.467019023,-94.75522404,212,"14009 E 380 ROAD, JAY, OK, 74346","Match","Exact","14009 E 380 RD, JAY, OK, 74346",49669827,"L"
169713,"14009 EGGSBOURNVILLE RD","CULPEPER","VA",22701,NA,NA,213,"14009 EGGSBOURNVILLE RD, CULPEPER, VA, 22701","No_Match",NA,NA,NA,NA
169714,"14009 EUCALYPTUS BEND","AUSTIN","TX",78717,30.478149838,-97.768320117,214,"14009 EUCALYPTUS BEND, AUSTIN, TX, 78717","Match","Exact","14009 EUCALYPTUS BND, AUSTIN, TX, 78717",651931730,"L"
169715,"14009 KORBYN DR","YUKON","OK",73099,35.6124806230001,-97.694327469,215,"14009 KORBYN DR, YUKON, OK, 73099","Match","Exact","14009 KORBYN DR, YUKON, OK, 73099",92566461,"L"
169716,"14009 LAYNE LP","LEANDER","TX",78641,30.5866128320001,-97.983342871,216,"14009 LAYNE LP, LEANDER, TX, 78641","Match","Exact","14009 LAYNE LOOP, LEANDER, TX, 78641",63963705,"R"
169717,"14009 N FORK RD","NORTH LITTLE ROCK","AR",72113,34.8843414070001,-92.395974576,217,"14009 N FORK RD, NORTH LITTLE ROCK, AR, 72113","Match","Exact","14009 N FORK RD, N LITTLE ROCK, AR, 72113",83540697,"R"
169718,"14009 SPOONBILL ST N","JACKSONVILLE","FL",32224,30.315580061,-81.442434191,218,"14009 SPOONBILL ST N, JACKSONVILLE, FL, 32224","Match","Exact","14009 SPOONBILL ST N, JACKSONVILLE, FL, 32224",83952213,"R"
169719,"14009 VALNA DR","WHITTIER","CA",90605,33.963116615,-118.023686692,219,"14009 VALNA DR, WHITTIER, CA, 90605","Match","Exact","14009 VALNA DR, WHITTIER, CA, 90605",141748500,"L"
169720,"14009 WEEKS VALLEY RD","WATTSBURG","PA",16442,42.0405283420001,-79.774067397,220,"14009 WEEKS VALLEY RD, WATTSBURG, PA, 16442","Match","Exact","14009 WEEKS VALLEY RD, WATTSBURG, PA, 16442",117522379,"R"
169721,"1400N ALBANY AVE","ATLANTIC CITY","NJ",8401,NA,NA,221,"1400N ALBANY AVE, ATLANTIC CITY, NJ, 8401","No_Match",NA,NA,NA,NA
169722,"1401 100TH ST NE","GRANITE FALLS","WA",98252,NA,NA,222,"1401 100TH ST NE, GRANITE FALLS, WA, 98252","No_Match",NA,NA,NA,NA
169723,"1401 11TH AVE EAST","POLSON","MT",59860,47.6854631470001,-114.144850244,223,"1401 11TH AVE EAST, POLSON, MT, 59860","Match","Exact","1401 11TH AVE E, POLSON, MT, 59860",206910555,"R"
169724,"1401 11TH STREET","EUNICE","NM",88231,32.4416876550001,-103.157041831,224,"1401 11TH STREET, EUNICE, NM, 88231","Match","Exact","1401 11TH ST, EUNICE, NM, 88231",132028281,"L"
169725,"1401 144TH PL SE","MILL CREEK","WA",98012,47.8668418390001,-122.213497552,225,"1401 144TH PL SE, MILL CREEK, WA, 98012","Match","Exact","1401 144TH PL SE, MILL CREEK, WA, 98012",187760729,"L"
169726,"1401 15TH STREET","MANHATTAN BEACH","CA",90266,33.8891719710001,-118.389734563,226,"1401 15TH STREET, MANHATTAN BEACH, CA, 90266","Match","Exact","1401 15TH ST, MANHATTAN BEACH, CA, 90266",141582461,"L"
169727,"1401 17TH AVE N","WAHPETON","ND",58075,46.284686483,-96.620489768,227,"1401 17TH AVE N, WAHPETON, ND, 58075","Match","Non_Exact","1401 17TH AVE, WAHPETON, ND, 58075",647429780,"L"
169728,"1401 17TH STREET SUITE 600","DENVER","CO",80202,39.750880561,-104.997135685,228,"1401 17TH STREET SUITE 600, DENVER, CO, 80202","Match","Exact","1401 17TH ST, DENVER, CO, 80202",177304360,"R"
169729,"1401 19TH AVE","MAYWOOD","IL",60153,41.8743152600001,-87.8559016949999,229,"1401 19TH AVE, MAYWOOD, IL, 60153","Match","Non_Exact","1401 S 19TH AVE, MAYWOOD, IL, 60153",111790884,"L"
169730,"1401 1ST AVE WEST","SPENCER","IA",51301,43.15179706,-95.146874289,230,"1401 1ST AVE WEST, SPENCER, IA, 51301","Match","Exact","1401 1ST AVE W, SPENCER, IA, 51301",82785817,"L"
169731,"1401 1ST AVENUE CIR NE","KASSON","MN",55944,44.0431888160001,-92.7467810219999,231,"1401 1ST AVENUE CIR NE, KASSON, MN, 55944","Match","Exact","1401 1ST AVE CIR NE, KASSON, MN, 55944",31422635,"R"
169732,"1401 21ST S","ARLINGTON","VA",22202,38.85476935,-77.0695093369999,232,"1401 21ST S, ARLINGTON, VA, 22202","Match","Non_Exact","1401 21ST ST S, ARLINGTON, VA, 22202",76471955,"R"
169733,"1401 21ST ST STE R","SACRAMENTO","CA",95811,38.5718512380001,-121.480492411,233,"1401 21ST ST STE R, SACRAMENTO, CA, 95811","Match","Exact","1401 21ST ST, SACRAMENTO, CA, 95811",133421976,"L"
169734,"1401 21ST ST SUITE R","SACRAMENTO","CA",95811,38.5718512380001,-121.480492411,234,"1401 21ST ST SUITE R, SACRAMENTO, CA, 95811","Match","Exact","1401 21ST ST, SACRAMENTO, CA, 95811",133421976,"L"
169735,"1401 21ST STREET SUITE R","SACRAMENTO","CA",95811,38.5718512380001,-121.480492411,235,"1401 21ST STREET SUITE R, SACRAMENTO, CA, 95811","Match","Exact","1401 21ST ST, SACRAMENTO, CA, 95811",133421976,"L"
169736,"1401 220TH ST","ST CROIX FALLS","WI",54024,45.4120434750001,-92.610790536,236,"1401 220TH ST, ST CROIX FALLS, WI, 54024","Match","Exact","1401 220TH ST, SAINT CROIX FALLS, WI, 54024",110857656,"L"
169737,"1401 290TH STREET","INWOOD","IA",51240,43.2288953940001,-96.500851774,237,"1401 290TH STREET, INWOOD, IA, 51240","Match","Exact","1401 290TH ST, INWOOD, IA, 51240",93368584,"L"
169738,"1401 3RD AVE N APT 538","NASHVILLE","TN",37208,36.1793964930001,-86.787525557,238,"1401 3RD AVE N APT 538, NASHVILLE, TN, 37208","Match","Exact","1401 3RD AVE N, NASHVILLE, TN, 37208",97185612,"L"
169739,"1401 3RD STREET APT 18","SACRAMENTO","CA",95814,38.578295118,-121.504676053,239,"1401 3RD STREET APT 18, SACRAMENTO, CA, 95814","Match","Exact","1401 3RD ST, SACRAMENTO, CA, 95814",133421462,"L"
169740,"1401 3RD STREET","LA VERNE","CA",91750,34.1037270950001,-117.782550421,240,"1401 3RD STREET, LA VERNE, CA, 91750","Match","Exact","1401 3RD ST, LA VERNE, CA, 91750",142788597,"L"
169741,"1401 4TH STREET SUITE 6","ST THOAMS","VI",801,NA,NA,241,"1401 4TH STREET SUITE 6, ST THOAMS, VI, 801","No_Match",NA,NA,NA,NA
169742,"1401 4TH STREET SUITE 6","ST THOMAS","VI",801,NA,NA,242,"1401 4TH STREET SUITE 6, ST THOMAS, VI, 801","No_Match",NA,NA,NA,NA
169743,"1401 4TH STREET","ROGERS","AR",72756,36.3209093620001,-94.1206615739999,243,"1401 4TH STREET, ROGERS, AR, 72756","Match","Non_Exact","1401 S 4TH ST, ROGERS, AR, 72756",47835170,"L"
169744,"1401 4TH STREET","SANTA ROSA","CA",95405,38.446948396,-122.701741692,244,"1401 4TH STREET, SANTA ROSA, CA, 95405","Match","Non_Exact","1401 4TH ST, SANTA ROSA, CA, 95404",67470547,"L"
169745,"1401 55TH ST APT 5A","BROOKLYN","NY",11219,40.6302345240001,-73.993229378,245,"1401 55TH ST APT 5A, BROOKLYN, NY, 11219","Match","Exact","1401 55TH ST, BROOKLYN, NY, 11219",59080256,"L"
169746,"1401 55TH ST APT 5B","BROOKLYN","NY",11219,40.6302345240001,-73.993229378,246,"1401 55TH ST APT 5B, BROOKLYN, NY, 11219","Match","Exact","1401 55TH ST, BROOKLYN, NY, 11219",59080256,"L"
169747,"1401 5TH AVE N APT 601","SEATTLE","WA",98109,47.6314794780001,-122.347632784,247,"1401 5TH AVE N APT 601, SEATTLE, WA, 98109","Match","Exact","1401 5TH AVE N, SEATTLE, WA, 98109",647877414,"R"
169748,"1401 5TH AVE W APT 401","SEATTLE","WA",98119,47.6314077170001,-122.363118144,248,"1401 5TH AVE W APT 401, SEATTLE, WA, 98119","Match","Exact","1401 5TH AVE W, SEATTLE, WA, 98119",186581939,"L"
169749,"1401 5TH STREET","IOWA CITY","IA",52240,41.6767718140001,-91.582109155,249,"1401 5TH STREET, IOWA CITY, IA, 52240","Match","Non_Exact","1401 5TH ST, IOWA CITY, IA, 52241",84519304,"R"
169750,"1401 61ST STREET SUITE 213","GULFPORT","FL",33707,27.7564002070001,-82.71817184,250,"1401 61ST STREET SUITE 213, GULFPORT, FL, 33707","Match","Non_Exact","1401 61ST ST S, GULFPORT, FL, 33707",124699213,"R"
169751,"1401 67TH ST","BROOKLYN","NY",11219,40.6233880030001,-74.000348582,251,"1401 67TH ST, BROOKLYN, NY, 11219","Match","Exact","1401 67TH ST, BROOKLYN, NY, 11219",59087976,"L"
169752,"1401 6TH ST SW","WILLMAR","MN",56201,45.108184771,-95.047960706,252,"1401 6TH ST SW, WILLMAR, MN, 56201","Match","Exact","1401 6TH ST SW, WILLMAR, MN, 56201",36712438,"R"
169753,"1401 7TH NE","PARIS","TX",75460,33.6743486080001,-95.550159831,253,"1401 7TH NE, PARIS, TX, 75460","Match","Non_Exact","1401 7TH ST NE, PARIS, TX, 75460",63576041,"L"
169754,"1401 85TH AVE SE","LAKE STEVENS","WA",98258,47.9837810340001,-122.116065822,254,"1401 85TH AVE SE, LAKE STEVENS, WA, 98258","Match","Exact","1401 85TH AVE SE, LAKE STEVENS, WA, 98258",606939648,"R"
169755,"1401 8TH AVE","BELLE PLAINE","IA",52208,41.8981698900001,-92.27659634,255,"1401 8TH AVE, BELLE PLAINE, IA, 52208","Match","Exact","1401 8TH AVE, BELLE PLAINE, IA, 52208",94707609,"R"
169756,"1401 8TH STREET EXT","AMBRIDGE","PA",15003,NA,NA,256,"1401 8TH STREET EXT, AMBRIDGE, PA, 15003","No_Match",NA,NA,NA,NA
169757,"1401 9TH AVE","CONWAY","SC",29526,33.840034243,-79.056095435,257,"1401 9TH AVE, CONWAY, SC, 29526","Match","Exact","1401 9TH AVE, CONWAY, SC, 29526",29040844,"R"
169758,"1401 9TH STREET","SHALLOWATER","TX",79363,33.6905426550001,-101.987831192,258,"1401 9TH STREET, SHALLOWATER, TX, 79363","Match","Exact","1401 9TH ST, SHALLOWATER, TX, 79363",649901401,"L"
169759,"1401 A STREET","LAPORTE","IN",46350,41.595573061,-86.719535418,259,"1401 A STREET, LAPORTE, IN, 46350","Match","Exact","1401 A ST, LAPORTE, IN, 46350",15407856,"R"
169760,"1401 A W GRIMES BLVD APT 711","ROUND ROCK","TX",78664,NA,NA,260,"1401 A W GRIMES BLVD APT 711, ROUND ROCK, TX, 78664","No_Match",NA,NA,NA,NA
169761,"1401 ADAMS AVENUE","HUNTINGTON","WV",25704,38.411848563,-82.479904706,261,"1401 ADAMS AVENUE, HUNTINGTON, WV, 25704","Match","Exact","1401 ADAMS AVE, HUNTINGTON, WV, 25704",640187188,"L"
169762,"1401 AIRPORT","CHEYENNE","WY",82001,41.15234445,-104.803218743,262,"1401 AIRPORT, CHEYENNE, WY, 82001","Match","Non_Exact","1401 AIRPORT PKWY, CHEYENNE, WY, 82001",160178818,"L"
169763,"1401 ALAMEDA DR","ONTARIO","OR",97914,44.0145093340001,-116.983161941,263,"1401 ALAMEDA DR, ONTARIO, OR, 97914","Match","Exact","1401 ALAMEDA DR, ONTARIO, OR, 97914",632611710,"L"
169764,"1401 ALAMO BELL WAY","HASLET","TX",76052,32.9793355740001,-97.3911865059999,264,"1401 ALAMO BELL WAY, HASLET, TX, 76052","Match","Exact","1401 ALAMO BELL WAY, HASLET, TX, 76052",619871924,"L"
169765,"1401 ALAMO WAY BELL","HASLET","TX",76052,NA,NA,265,"1401 ALAMO WAY BELL, HASLET, TX, 76052","No_Match",NA,NA,NA,NA
169766,"1401 AMBASSOADOR","CLEARWATER","FL",33764,27.945100638,-82.752925714,266,"1401 AMBASSOADOR, CLEARWATER, FL, 33764","Match","Non_Exact","1401 AMBASSADOR DR, CLEARWATER, FL, 33764",124676026,"L"
169767,"1401 AMMONS STREET","LAKEWOOD","CO",80214,39.738563205,-105.087259554,267,"1401 AMMONS STREET, LAKEWOOD, CO, 80214","Match","Exact","1401 AMMONS ST, LAKEWOOD, CO, 80214",639432724,"L"
169768,"1401 APEX DR","ESCONDIDO","CA",92026,33.161755149,-117.072568824,268,"1401 APEX DR, ESCONDIDO, CA, 92026","Match","Non_Exact","1401 APEX PL, ESCONDIDO, CA, 92026",651829648,"L"
169769,"1401 APPLE BROOK LANE","DAYTON","OH",45458,39.5898083820001,-84.149254845,269,"1401 APPLE BROOK LANE, DAYTON, OH, 45458","Match","Exact","1401 APPLE BROOK LN, DAYTON, OH, 45458",143599367,"L"
169770,"1401 ARAMORE DR SE","CONYERS","GA",30013,NA,NA,270,"1401 ARAMORE DR SE, CONYERS, GA, 30013","No_Match",NA,NA,NA,NA
169771,"1401 ARKANSAS AVE","ATLANTIC CITY","NJ",8401,39.371755632,-74.445993325,271,"1401 ARKANSAS AVE, ATLANTIC CITY, NJ, 8401","Match","Non_Exact","1401 N ARKANSAS AVE, ATLANTIC CITY, NJ, 08401",202489086,"R"
169772,"1401 ARTHUR AVE","JOLIET","IL",60432,41.5506357790001,-88.058857446,272,"1401 ARTHUR AVE, JOLIET, IL, 60432","Match","Exact","1401 ARTHUR AVE, JOLIET, IL, 60432",111545749,"L"
169773,"1401 ASPEN GLEN DRIVE","HAMDEN","CT",6518,41.389289681,-72.910717341,273,"1401 ASPEN GLEN DRIVE, HAMDEN, CT, 6518","Match","Exact","1401 ASPEN GLEN DR, HAMDEN, CT, 06518",634423694,"L"
169774,"1401 BACKUS STREET","EL PASO","TX",79925,31.778223546,-106.361868353,274,"1401 BACKUS STREET, EL PASO, TX, 79925","Match","Exact","1401 BACKUS ST, EL PASO, TX, 79925",624839928,"L"
169775,"1401 BALLY CASTLE LANE","CORINTH","TX",76210,33.1447577800001,-97.087422856,275,"1401 BALLY CASTLE LANE, CORINTH, TX, 76210","Match","Non_Exact","1401 BALLYCASTLE LN, CORINTH, TX, 76210",218046291,"L"
169776,"1401 BAPTIST RD","STEELEVILLE","IL",62288,38.01136768,-89.6749349149999,276,"1401 BAPTIST RD, STEELEVILLE, IL, 62288","Match","Non_Exact","1401 BAPTIST LN, STEELEVILLE, IL, 62288",95193792,"L"
169777,"1401 BAYOU STREET","EUDORA","AR",71640,33.1243227470001,-91.25650797,277,"1401 BAYOU STREET, EUDORA, AR, 71640","Match","Non_Exact","1401 BAYOU RD, EUDORA, AR, 71640",69035718,"R"
169778,"1401 BAYSIDE AVENUE","WOODBRIDGE","VA",22191,38.6475193260001,-77.2580554319999,278,"1401 BAYSIDE AVENUE, WOODBRIDGE, VA, 22191","Match","Exact","1401 BAYSIDE AVE, WOODBRIDGE, VA, 22191",207158172,"L"
169779,"1401 BEECHWOOD BLVD","PITTSBURGH","PA",15217,40.4441659290001,-79.9177199549999,279,"1401 BEECHWOOD BLVD, PITTSBURGH, PA, 15217","Match","Exact","1401 BEECHWOOD BLVD, PITTSBURGH, PA, 15217",51652125,"L"
169780,"1401 BETH COURT","ELK CITY","OK",73644,35.425251514,-99.421245431,280,"1401 BETH COURT, ELK CITY, OK, 73644","Match","Exact","1401 BETH CT, ELK CITY, OK, 73644",151544502,"L"
169781,"1401 BLAIR MILL RD APT 901","SILVER SPRING","MD",20910,38.9901005350001,-77.0322775659999,281,"1401 BLAIR MILL RD APT 901, SILVER SPRING, MD, 20910","Match","Exact","1401 BLAIR MILL RD, SILVER SPRING, MD, 20910",62067913,"R"
169782,"1401 BLAIR MILL ROAD APT 417","SILVER SPRING","MD",20910,38.9901005350001,-77.0322775659999,282,"1401 BLAIR MILL ROAD APT 417, SILVER SPRING, MD, 20910","Match","Exact","1401 BLAIR MILL RD, SILVER SPRING, MD, 20910",62067913,"R"
169783,"1401 BLAIR MILL ROAD APT 811","SILVER SPRING","MD",20910,38.9901005350001,-77.0322775659999,283,"1401 BLAIR MILL ROAD APT 811, SILVER SPRING, MD, 20910","Match","Exact","1401 BLAIR MILL RD, SILVER SPRING, MD, 20910",62067913,"R"
169784,"1401 BLAIR MILL ROAD APT 901","SILVER SPRING","MD",20910,38.9901005350001,-77.0322775659999,284,"1401 BLAIR MILL ROAD APT 901, SILVER SPRING, MD, 20910","Match","Exact","1401 BLAIR MILL RD, SILVER SPRING, MD, 20910",62067913,"R"
169785,"1401 BLAIR MILL ROAD","SILVER SPRING","NJ",20910,NA,NA,285,"1401 BLAIR MILL ROAD, SILVER SPRING, NJ, 20910","No_Match",NA,NA,NA,NA
169786,"1401 BLUEGRASS  AVENUE","LOUISVILLE","KY",40215,38.179450715,-85.786495599,286,"1401 BLUEGRASS  AVENUE, LOUISVILLE, KY, 40215","Match","Exact","1401 BLUEGRASS AVE, LOUISVILLE, KY, 40215",96848221,"R"
169787,"1401 BLUEGRASS AVENUE","LOUISVILLE","KY",40215,38.179450715,-85.786495599,287,"1401 BLUEGRASS AVENUE, LOUISVILLE, KY, 40215","Match","Exact","1401 BLUEGRASS AVE, LOUISVILLE, KY, 40215",96848221,"R"
169788,"1401 BOOKER ST","LAKE CHARLES","LA",70601,NA,NA,288,"1401 BOOKER ST, LAKE CHARLES, LA, 70601","No_Match",NA,NA,NA,NA
169789,"1401 BOTHAM JEAN BLVD","DALLAS","TX",75215,NA,NA,289,"1401 BOTHAM JEAN BLVD, DALLAS, TX, 75215","No_Match",NA,NA,NA,NA
169790,"1401 BOWER STREET","LINDEN","NJ",7037,NA,NA,290,"1401 BOWER STREET, LINDEN, NJ, 7037","No_Match",NA,NA,NA,NA
169791,"1401 BRICKELL AVE STE 320","MIAMI","FL",33131,25.760276908,-80.1921956039999,291,"1401 BRICKELL AVE STE 320, MIAMI, FL, 33131","Match","Exact","1401 BRICKELL AVE, MIAMI, FL, 33131",116018742,"L"
169792,"1401 BRIDLE GLEN COURT","WAKE FOREST","NC",27587,35.996330523,-78.674282101,292,"1401 BRIDLE GLEN COURT, WAKE FOREST, NC, 27587","Match","Exact","1401 BRIDLE GLEN CT, WAKE FOREST, NC, 27587",612815388,"L"
169793,"1401 BRIGHTON CIR","LAWRENCE","KS",66049,38.958411488,-95.296326532,293,"1401 BRIGHTON CIR, LAWRENCE, KS, 66049","Match","Exact","1401 BRIGHTON CIR, LAWRENCE, KS, 66049",17699101,"R"
169794,"1401 BUCHANAN ST NW UNIT B","WASHINGTON","DC",20011,38.9461296370001,-77.032865423,294,"1401 BUCHANAN ST NW UNIT B, WASHINGTON, DC, 20011","Match","Exact","1401 BUCHANAN ST NW, WASHINGTON, DC, 20011",76222440,"R"
169795,"1401 BUCHANAN STREET NW UNIT B","WASHINGTON","DC",20011,38.9461296370001,-77.032865423,295,"1401 BUCHANAN STREET NW UNIT B, WASHINGTON, DC, 20011","Match","Exact","1401 BUCHANAN ST NW, WASHINGTON, DC, 20011",76222440,"R"
169796,"1401 BULLARD AVENUE","METAIRIE","LA",70003,29.9883161710001,-90.211918101,296,"1401 BULLARD AVENUE, METAIRIE, LA, 70003","Match","Exact","1401 BULLARD AVE, METAIRIE, LA, 70003",93498914,"R"
169797,"1401 BURNHAM DR","PLANO","TX",75903,33.0171853860001,-96.78959195,297,"1401 BURNHAM DR, PLANO, TX, 75903","Match","Non_Exact","1401 BURNHAM DR, PLANO, TX, 75093",210474371,"L"
169798,"1401 BURR OAK RD  UNIT 115B","HINSDALE","IL",60521,41.825056606,-87.922322593,298,"1401 BURR OAK RD  UNIT 115B, HINSDALE, IL, 60521","Match","Exact","1401 BURR OAK RD, HINSDALE, IL, 60521",646585218,"L"
169799,"1401 BURR OAK RD UNIT 116B","HINSDALE","IL",60521,41.825056606,-87.922322593,299,"1401 BURR OAK RD UNIT 116B, HINSDALE, IL, 60521","Match","Exact","1401 BURR OAK RD, HINSDALE, IL, 60521",646585218,"L"
169800,"1401 BUTTE ST","CORNING","CA",96021,39.9298822280001,-122.183638959,300,"1401 BUTTE ST, CORNING, CA, 96021","Match","Exact","1401 BUTTE ST, CORNING, CA, 96021",119378539,"R"
169801,"1401 CALDWELL CREEK DR","COLLEYVILLE","TX",76034,32.9090115440001,-97.145638478,301,"1401 CALDWELL CREEK DR, COLLEYVILLE, TX, 76034","Match","Exact","1401 CALDWELL CREEK DR, COLLEYVILLE, TX, 76034",102090333,"R"
169802,"1401 CALDWELL CREKK DR","COLLEYVILLE","TX",76034,NA,NA,302,"1401 CALDWELL CREKK DR, COLLEYVILLE, TX, 76034","No_Match",NA,NA,NA,NA
169803,"1401 CALIBRE PARKWAY","ROSWELL","GA",30076,NA,NA,303,"1401 CALIBRE PARKWAY, ROSWELL, GA, 30076","No_Match",NA,NA,NA,NA
169804,"1401 CALLE LUISA CAPETILLO","SAN JUAN","PR",921,18.3841719270001,-66.101367436,304,"1401 CALLE LUISA CAPETILLO, SAN JUAN, PR, 921","Match","Non_Exact","1401 CLL LUISA CAPETILLO, SAN JUAN, PR, 00921",206606396,"L"
169805,"1401 CALUMET NBR 209","HOUSTON","TX",77004,29.7245268410001,-95.3853912169999,305,"1401 CALUMET NBR 209, HOUSTON, TX, 77004","Match","Non_Exact","1401 CALUMET ST, HOUSTON, TX, 77004",96071211,"L"
169806,"1401 CANTRELL ST","ASHLAND","KY",41102,38.4551832720001,-82.667551486,306,"1401 CANTRELL ST, ASHLAND, KY, 41102","Match","Exact","1401 CANTRELL ST, ASHLAND, KY, 41102",151046314,"L"
169807,"1401 CAPOUSE AVE","SCRANTON","PA",18509,41.4250654040001,-75.651171781,307,"1401 CAPOUSE AVE, SCRANTON, PA, 18509","Match","Exact","1401 CAPOUSE AVE, SCRANTON, PA, 18509",139325919,"L"
169808,"1401 CARPENTER AVE","IRON MOUNTAIN","MI",49801,45.80923503,-88.068641742,308,"1401 CARPENTER AVE, IRON MOUNTAIN, MI, 49801","Match","Exact","1401 CARPENTER AVE, IRON MOUNTAIN, MI, 49801",170159168,"R"
169809,"1401 CARPENTER AVE","IRON MOUNTAIN","MI",49829,45.80923503,-88.068641742,309,"1401 CARPENTER AVE, IRON MOUNTAIN, MI, 49829","Match","Non_Exact","1401 CARPENTER AVE, IRON MOUNTAIN, MI, 49801",170159168,"R"
169810,"1401 CARRINGTON PARK","JONESBORO","GA",30096,33.5544353710001,-84.3035872089999,310,"1401 CARRINGTON PARK, JONESBORO, GA, 30096","Match","Non_Exact","1401 CARRINGTON PARK, JONESBORO, GA, 30236",628095236,"R"
169811,"1401 CATES STREET STE 103","BRIDGEPORT","TX",76426,33.2093276570001,-97.753327278,311,"1401 CATES STREET STE 103, BRIDGEPORT, TX, 76426","Match","Exact","1401 CATES ST, BRIDGEPORT, TX, 76426",103662417,"R"
169812,"1401 CEDAR DR","KERRVILLE","TX",78028,30.072120125,-99.1606813719999,312,"1401 CEDAR DR, KERRVILLE, TX, 78028","Match","Exact","1401 CEDAR DR, KERRVILLE, TX, 78028",176903952,"L"
169813,"1401 CEDAR LANE","NASHVILLE","TN",37212,36.120220266,-86.792933652,313,"1401 CEDAR LANE, NASHVILLE, TN, 37212","Match","Exact","1401 CEDAR LN, NASHVILLE, TN, 37212",606395697,"L"
169814,"1401 CEDAR RIVER DRIVE","PALO","IA",52324,42.0729865810001,-91.80366507,314,"1401 CEDAR RIVER DRIVE, PALO, IA, 52324","Match","Exact","1401 CEDAR RIVER DR, PALO, IA, 52324",600403630,"L"
169815,"1401 CEDAR ST NO 9","MISSOULA","MT",59802,46.8770367820001,-114.014751764,315,"1401 CEDAR ST NO 9, MISSOULA, MT, 59802","Match","Non_Exact","1401 CEDAR ST, MISSOULA, MT, 59802",641119274,"L"
169816,"1401 CENTRAL AVE NW APT 1","EAST GRAND FORKS","MN",56721,47.939838514,-97.020478375,316,"1401 CENTRAL AVE NW APT 1, EAST GRAND FORKS, MN, 56721","Match","Exact","1401 CENTRAL AVE NW, EAST GRAND FORKS, MN, 56721",171433456,"R"
169817,"1401 CHENE APT 701","DETROIT","MI",48207,42.34339486,-83.026283109,317,"1401 CHENE APT 701, DETROIT, MI, 48207","Match","Non_Exact","1401 CHENE ST, DETROIT, MI, 48207",648749628,"L"
169818,"1401 CHEROKEE DRIVE","WAYCROSS","GA",31501,31.2198601420001,-82.341027593,318,"1401 CHEROKEE DRIVE, WAYCROSS, GA, 31501","Match","Exact","1401 CHEROKEE DR, WAYCROSS, GA, 31501",5237192,"L"
169819,"1401 CHERRYWOOD DR","RICHARDSON","TX",75080,32.9539382340001,-96.7665192169999,319,"1401 CHERRYWOOD DR, RICHARDSON, TX, 75080","Match","Exact","1401 CHERRYWOOD DR, RICHARDSON, TX, 75080",103211410,"L"
169820,"1401 CHURCH ST NW UNIT 501","WASHINGTON","DC",20005,38.9103928390001,-77.032158564,320,"1401 CHURCH ST NW UNIT 501, WASHINGTON, DC, 20005","Match","Exact","1401 CHURCH ST NW, WASHINGTON, DC, 20005",635190554,"R"
169821,"1401 CHURCH STREET APT 523","WASHINGTON","DC",20005,38.9103928390001,-77.032158564,321,"1401 CHURCH STREET APT 523, WASHINGTON, DC, 20005","Match","Non_Exact","1401 CHURCH ST NW, WASHINGTON, DC, 20005",635190554,"R"
169822,"1401 CHURCHILL STREET","WAUPACA","WI",54981,44.342074258,-89.0690907539999,322,"1401 CHURCHILL STREET, WAUPACA, WI, 54981","Match","Exact","1401 CHURCHILL ST, WAUPACA, WI, 54981",74977308,"R"
169823,"1401 CLEVELAND AVE","NATIONAL CITY","CA",91950,32.6682286590001,-117.11303729,323,"1401 CLEVELAND AVE, NATIONAL CITY, CA, 91950","Match","Exact","1401 CLEVELAND AVE, NATIONAL CITY, CA, 91950",195418384,"L"
169824,"1401 CLIVEDEN STREET","PHILADELPHIA","PA",19150,40.061446962,-75.16856796,324,"1401 CLIVEDEN STREET, PHILADELPHIA, PA, 19150","Match","Non_Exact","1401 E CLIVEDEN ST, PHILADELPHIA, PA, 19150",131395638,"L"
169825,"1401 CLUB DRIVE","MOUNT VERNON","OH",43050,40.3607216570001,-82.4688533199999,325,"1401 CLUB DRIVE, MOUNT VERNON, OH, 43050","Match","Exact","1401 CLUB DR, MOUNT VERNON, OH, 43050",24659727,"L"
169826,"1401 COBBLESTONE COURT","FLEMINGTON","NJ",8822,40.4996098140001,-74.848128802,326,"1401 COBBLESTONE COURT, FLEMINGTON, NJ, 8822","Match","Exact","1401 COBBLESTONE CT, FLEMINGTON, NJ, 08822",60021972,"R"
169827,"1401 COLLEGE AVE","LEVELLAND","TX",79336,33.5757396430001,-102.367703933,327,"1401 COLLEGE AVE, LEVELLAND, TX, 79336","Match","Exact","1401 COLLEGE AVE, LEVELLAND, TX, 79336",608403010,"R"
169828,"1401 COLONY CT EAST","MOUNT JULIET","TN",37122,36.2108901340001,-86.545821178,328,"1401 COLONY CT EAST, MOUNT JULIET, TN, 37122","Match","Exact","1401 COLONY CT E, MOUNT JULIET, TN, 37122",89699498,"L"
169829,"1401 COMETA STREET","AUSTIN","TX",78721,30.280535421,-97.689996016,329,"1401 COMETA STREET, AUSTIN, TX, 78721","Match","Exact","1401 COMETA ST, AUSTIN, TX, 78721",63948032,"R"
169830,"1401 CONSTITUTION AVE","FORT COLLINS","CO",80521,40.5693135990001,-105.106014283,330,"1401 CONSTITUTION AVE, FORT COLLINS, CO, 80521","Match","Exact","1401 CONSTITUTION AVE, FORT COLLINS, CO, 80521",188490568,"R"
169831,"1401 COUNTRY CLUB DRIVE","HAZLETON","PA",18202,40.9216277030001,-76.103492548,331,"1401 COUNTRY CLUB DRIVE, HAZLETON, PA, 18202","Match","Non_Exact","1401 COUNTRY CLUB RD, HAZLETON, PA, 18202",649111589,"L"
169832,"1401 COUNTY ROAD 1255","HUNTSVILLE","MO",65259,39.483917633,-92.537363516,332,"1401 COUNTY ROAD 1255, HUNTSVILLE, MO, 65259","Match","Exact","1401 CO RD 1255, HUNTSVILLE, MO, 65259",607764656,"L"
169833,"1401 CRICKET AVENUE","LUBBOCK","TX",79401,NA,NA,333,"1401 CRICKET AVENUE, LUBBOCK, TX, 79401","No_Match",NA,NA,NA,NA
169834,"1401 CURVE RD","DELAWARE","OH",43015,40.280765328,-83.0345038469999,334,"1401 CURVE RD, DELAWARE, OH, 43015","Match","Exact","1401 CURVE RD, DELAWARE, OH, 43015",635844882,"L"
169835,"1401 CUYLER BEST ROAD","GOLDSBORO","NC",27534,35.392946196,-77.9434983099999,335,"1401 CUYLER BEST ROAD, GOLDSBORO, NC, 27534","Match","Exact","1401 CUYLER BEST RD, GOLDSBORO, NC, 27534",624539951,"L"
169836,"1401 CYNDI CIRCLE","BRENHAM","TX",77833,30.154468616,-96.408233259,336,"1401 CYNDI CIRCLE, BRENHAM, TX, 77833","Match","Exact","1401 CYNDI CIR, BRENHAM, TX, 77833",39244371,"R"
169837,"1401 DAUPHIN STREET","MOBILE","AL",36604,30.687212043,-88.070203034,337,"1401 DAUPHIN STREET, MOBILE, AL, 36604","Match","Exact","1401 DAUPHIN ST, MOBILE, AL, 36604",61861555,"L"
169838,"1401 DELANCEY WAY","MARLTON","NJ",8053,39.8979477950001,-74.871792242,338,"1401 DELANCEY WAY, MARLTON, NJ, 8053","Match","Exact","1401 DELANCEY WAY, MARLTON, NJ, 08053",617132499,"L"
169839,"1401 DEODARA DRIVE","CEDAR PARK","TX",78613,30.523333849,-97.837839076,339,"1401 DEODARA DRIVE, CEDAR PARK, TX, 78613","Match","Exact","1401 DEODARA DR, CEDAR PARK, TX, 78613",648536229,"L"
169840,"1401 DEZARAE 9","SAN ANTONIO","TX",78253,29.446857057,-98.730962182,340,"1401 DEZARAE 9, SAN ANTONIO, TX, 78253","Match","Exact","1401 DEZARAE, SAN ANTONIO, TX, 78253",101687506,"L"
169841,"1401 DIXON DR","JEFFERSON CITY","MO",65101,38.5473782030001,-92.171918612,341,"1401 DIXON DR, JEFFERSON CITY, MO, 65101","Match","Exact","1401 DIXON DR, JEFFERSON CITY, MO, 65101",34408662,"R"
169842,"1401 DOUG BAKER BLVD STE 107 429","BIRMINGHAM","AL",35242,33.4094113780001,-86.6698099,342,"1401 DOUG BAKER BLVD STE 107 429, BIRMINGHAM, AL, 35242","Match","Exact","1401 DOUG BAKER BLVD, BIRMINGHAM, AL, 35242",627972813,"R"
169843,"1401 DOUGLAS ST","OPELIKA","AL",36801,32.6649361340001,-85.348368642,343,"1401 DOUGLAS ST, OPELIKA, AL, 36801","Match","Exact","1401 DOUGLAS ST, OPELIKA, AL, 36801",1587446,"L"
169844,"1401 DOVER DR","SAINT JOSEPH","IL",61873,40.1031384080001,-88.023112197,344,"1401 DOVER DR, SAINT JOSEPH, IL, 61873","Match","Exact","1401 DOVER DR, SAINT JOSEPH, IL, 61873",8844084,"R"
169845,"1401 DRESDEN DR SUITE 200","ATLANTA","GA",30319,33.8606502550001,-84.3321495389999,345,"1401 DRESDEN DR SUITE 200, ATLANTA, GA, 30319","Match","Non_Exact","1401 DRESDEN DR NE, ATLANTA, GA, 30319",23358053,"R"
169846,"1401 DUKE DRIVE","DAVIS","CA",95616,38.550189878,-121.733231756,346,"1401 DUKE DRIVE, DAVIS, CA, 95616","Match","Exact","1401 DUKE DR, DAVIS, CA, 95616",67691649,"L"
169847,"1401 E 17TH ST","STOCKTON","CA",95206,NA,NA,347,"1401 E 17TH ST, STOCKTON, CA, 95206","No_Match",NA,NA,NA,NA
169848,"1401 E 76TH TERRACE","KANSAS CITY","MO",64131,38.988157077,-94.568898748,348,"1401 E 76TH TERRACE, KANSAS CITY, MO, 64131","Match","Exact","1401 E 76TH TER, KANSAS CITY, MO, 64131",91455341,"R"
169849,"1401 E 7TH AVE","TAMPA","FL",33605,27.960281412,-82.444132721,349,"1401 E 7TH AVE, TAMPA, FL, 33605","Match","Exact","1401 E 7TH AVE, TAMPA, FL, 33605",104631035,"R"
169850,"1401 E 815 S","FERDINAND","IN",47532,38.2583583810001,-86.8775665269999,350,"1401 E 815 S, FERDINAND, IN, 47532","Match","Exact","1401 E 815 S, FERDINAND, IN, 47532",7873306,"L"
169851,"1401 E 99TH ST","LOS ANGELES","CA",90002,33.946953884,-118.249961644,351,"1401 E 99TH ST, LOS ANGELES, CA, 90002","Match","Exact","1401 E 99TH ST, LOS ANGELES, CA, 90002",640422398,"L"
169852,"1401 E BEACH ST","PEORIA","IL",61615,40.8013573440001,-89.571798768,352,"1401 E BEACH ST, PEORIA, IL, 61615","Match","Exact","1401 E BEACH ST, PEORIA, IL, 61615",8713117,"L"
169853,"1401 E COURT ST PRAHL COLLEGE CENTE","FLINT","MI",48503,NA,NA,353,"1401 E COURT ST PRAHL COLLEGE CENTE, FLINT, MI, 48503","Tie",NA,NA,NA,NA
169854,"1401 E JEFFERSON SUITE 405","SEATTLE","WA",98122,NA,NA,354,"1401 E JEFFERSON SUITE 405, SEATTLE, WA, 98122","No_Match",NA,NA,NA,NA
169855,"1401 E LA MIRANDA DR","PHOENIX","AZ",85042,NA,NA,355,"1401 E LA MIRANDA DR, PHOENIX, AZ, 85042","No_Match",NA,NA,NA,NA
169856,"1401 E MILLBROOK ROAD APT 246","RALEIGH","NC",27609,35.8505663080001,-78.614371336,356,"1401 E MILLBROOK ROAD APT 246, RALEIGH, NC, 27609","Match","Non_Exact","1401 E MILLBROOK RD, RALEIGH, NC, 27609",208361104,"L"
169857,"1401 E NAVAJO DR APT 3102","HOBBS","NM",88240,32.7402085420001,-103.123517552,357,"1401 E NAVAJO DR APT 3102, HOBBS, NM, 88240","Match","Non_Exact","1401 E NAVAJO DR, HOBBS, NM, 88240",646700097,"R"
169858,"1401 E ROYERTON RD","MUNCIE","IN",47303,40.262470851,-85.371334331,358,"1401 E ROYERTON RD, MUNCIE, IN, 47303","Match","Exact","1401 E ROYERTON RD, MUNCIE, IN, 47303",30835533,"R"
169859,"1401 E STEAMBOAT BEND DR","TEMPE","AZ",85283,33.3736929390001,-111.916930569,359,"1401 E STEAMBOAT BEND DR, TEMPE, AZ, 85283","Match","Exact","1401 E STEAMBOAT BEND DR, TEMPE, AZ, 85283",128238462,"R"
169860,"1401 E STREET","FLORESVILLE","TX",78114,29.1342980480001,-98.152715933,360,"1401 E STREET, FLORESVILLE, TX, 78114","Match","Exact","1401 E ST, FLORESVILLE, TX, 78114",54879096,"L"
169861,"1401 E THREE NOTCH ST","ANDALUSIA","AL",36420,31.313961041,-86.465469392,361,"1401 E THREE NOTCH ST, ANDALUSIA, AL, 36420","Match","Exact","1401 E THREE NOTCH ST, ANDALUSIA, AL, 36420",1852927,"L"
169862,"1401 E WESTBROOK ROAD","DAYTON","OH",45314,39.8332370900001,-84.2829227679999,362,"1401 E WESTBROOK ROAD, DAYTON, OH, 45314","Match","Non_Exact","1401 E WESTBROOK RD, DAYTON, OH, 45415",143596935,"R"
169863,"1401 EAGLE ST","MURFREESBO","TN",37130,35.8326380780001,-86.3684629429999,363,"1401 EAGLE ST, MURFREESBO, TN, 37130","Match","Non_Exact","1401 EAGLE ST, MURFREESBORO, TN, 37130",59015960,"R"
169864,"1401 EAGLE ST","MURFREESBORO","TN",37130,35.8326380780001,-86.3684629429999,364,"1401 EAGLE ST, MURFREESBORO, TN, 37130","Match","Exact","1401 EAGLE ST, MURFREESBORO, TN, 37130",59015960,"R"
169865,"1401 EAST 55TH STREET APT 606","CHICAGO","IL",60615,41.7955072840001,-87.5915840169999,365,"1401 EAST 55TH STREET APT 606, CHICAGO, IL, 60615","Match","Exact","1401 E 55TH ST, CHICAGO, IL, 60615",111771756,"R"
169866,"1401 EAST BESSEMER AVENUE","GREENSBORO","NC",27405,36.0850101790001,-79.768223217,366,"1401 EAST BESSEMER AVENUE, GREENSBORO, NC, 27405","Match","Exact","1401 E BESSEMER AVE, GREENSBORO, NC, 27405",131035310,"L"
169867,"1401 EAST INDIANA CREEK ESTATES","PRINCETON","IN",47670,38.3577893300001,-87.537002136,367,"1401 EAST INDIANA CREEK ESTATES, PRINCETON, IN, 47670","Match","Non_Exact","1401 E INDIAN CREEK EST, PRINCETON, IN, 47670",36381122,"L"
169868,"1401 EAST LANCASTER AVE","FORT WORTH","TX",76102,32.7462198370001,-97.314141938,368,"1401 EAST LANCASTER AVE, FORT WORTH, TX, 76102","Match","Exact","1401 E LANCASTER AVE, FORT WORTH, TX, 76102",101889567,"L"
169869,"1401 EAST PARK DRIVE","EVANSVILLE","IN",47714,37.9582010780001,-87.546826314,369,"1401 EAST PARK DRIVE, EVANSVILLE, IN, 47714","Match","Exact","1401 E PARK DR, EVANSVILLE, IN, 47714",39785741,"R"
169870,"1401 EAST REGATTA STREET","BOISE","ID",83706,43.5790710030001,-116.165584956,370,"1401 EAST REGATTA STREET, BOISE, ID, 83706","Match","Exact","1401 E REGATTA ST, BOISE, ID, 83706",616496483,"L"
169871,"1401 EAST RIVERSIDE DRIVE","ONTARIO","CA",91761,34.019516486,-117.623618693,371,"1401 EAST RIVERSIDE DRIVE, ONTARIO, CA, 91761","Match","Exact","1401 E RIVERSIDE DR, ONTARIO, CA, 91761",144637117,"L"
169872,"1401 EAST UNIVERSITY BLVD SUITE G1","HYATTSVILLE","MD",20783,38.9868196410001,-76.984492051,372,"1401 EAST UNIVERSITY BLVD SUITE G1, HYATTSVILLE, MD, 20783","Match","Non_Exact","1401 UNIVERSITY BLVD, HYATTSVILLE, MD, 20783",647279873,"L"
169873,"1401 EDGEWOOD ST","HARTSELE","AL",35640,34.456409007,-86.953023043,373,"1401 EDGEWOOD ST, HARTSELE, AL, 35640","Match","Non_Exact","1401 EDGEWOOD ST NW, HARTSELLE, AL, 35640",97105303,"L"
169874,"1401 EDMONDSON AVE 213","BALTIMORE","MD",21223,39.295398811,-76.640075806,374,"1401 EDMONDSON AVE 213, BALTIMORE, MD, 21223","Match","Exact","1401 EDMONDSON AVE, BALTIMORE, MD, 21223",206417460,"L"
169875,"1401 EDWARDS LAKE ROAD","BIRMINGHAM","AL",35235,33.6019368870001,-86.65377633,375,"1401 EDWARDS LAKE ROAD, BIRMINGHAM, AL, 35235","Match","Exact","1401 EDWARDS LAKE RD, BIRMINGHAM, AL, 35235",81732168,"R"
169876,"1401 ELLA T GRASSO BLVD","NEW HAVEN","CT",6511,41.3168817700001,-72.950150766,376,"1401 ELLA T GRASSO BLVD, NEW HAVEN, CT, 6511","Match","Exact","1401 ELLA T GRASSO BLVD, NEW HAVEN, CT, 06511",3700123,"R"
169877,"1401 ELM AVE","BAY CITY","TX",77414,28.990467574,-95.9583997189999,377,"1401 ELM AVE, BAY CITY, TX, 77414","Match","Exact","1401 ELM AVE, BAY CITY, TX, 77414",83277097,"R"
169878,"1401 ELM DR","CRESTON","IA",50801,41.0734180260001,-94.365124368,378,"1401 ELM DR, CRESTON, IA, 50801","Match","Exact","1401 ELM DR, CRESTON, IA, 50801",75231948,"R"
169879,"1401 EMMONS AVENUE","BROOKLYN","NY",11235,40.583117606,-73.954084141,379,"1401 EMMONS AVENUE, BROOKLYN, NY, 11235","Match","Exact","1401 EMMONS AVE, BROOKLYN, NY, 11235",59097472,"R"
169880,"1401 EMPORIA ST UNIT 711","AURORA","CO",80010,39.738445229,-104.87407126,380,"1401 EMPORIA ST UNIT 711, AURORA, CO, 80010","Match","Exact","1401 EMPORIA ST, AURORA, CO, 80010",177314040,"L"
169881,"1401 ENCANTADO CIRCLE","MISSION","TX",78572,NA,NA,381,"1401 ENCANTADO CIRCLE, MISSION, TX, 78572","No_Match",NA,NA,NA,NA
169882,"1401 ENFIELD ROAD APT 207","AUSTIN","TX",78703,30.281236979,-97.7550321529999,382,"1401 ENFIELD ROAD APT 207, AUSTIN, TX, 78703","Match","Exact","1401 ENFIELD RD, AUSTIN, TX, 78703",63942879,"L"
169883,"1401 ERIN ST - 286","MONROE","LA",71201,32.5215887570001,-92.11570389,383,"1401 ERIN ST - 286, MONROE, LA, 71201","Match","Exact","1401 ERIN ST, MONROE, LA, 71201",612366543,"L"
169884,"1401 ESSEX STREET","RAHWAY","NJ",7065,40.6031823060001,-74.2711955,384,"1401 ESSEX STREET, RAHWAY, NJ, 7065","Match","Exact","1401 ESSEX ST, RAHWAY, NJ, 07065",635850704,"R"
169885,"1401 EVERS","WESTCHESTER","IL",60154,41.8589448230001,-87.895800118,385,"1401 EVERS, WESTCHESTER, IL, 60154","Match","Non_Exact","1401 EVERS AVE, WESTCHESTER, IL, 60154",111787820,"L"
169886,"1401 EXETER COURT","SOUTHLAKE","TX",76092,32.958492445,-97.1639952849999,386,"1401 EXETER COURT, SOUTHLAKE, TX, 76092","Match","Exact","1401 EXETER CT, SOUTHLAKE, TX, 76092",102089585,"R"
169887,"1401 EYE ST NW STE 800","WASHINGTON","DC",20005,NA,NA,387,"1401 EYE ST NW STE 800, WASHINGTON, DC, 20005","No_Match",NA,NA,NA,NA
169888,"1401 EYE STREET NW SUITE 800","WASHINGTON","TX",20005,NA,NA,388,"1401 EYE STREET NW SUITE 800, WASHINGTON, TX, 20005","No_Match",NA,NA,NA,NA
169889,"1401 FAIRLANE DRIVE","SCHAUMBURG","IL",60193,42.000001818,-88.1210364139999,389,"1401 FAIRLANE DRIVE, SCHAUMBURG, IL, 60193","Match","Exact","1401 FAIRLANE DR, SCHAUMBURG, IL, 60193",111692954,"L"
169890,"1401 FAIRMONT ST NW","WASHINGTON","DC",20009,38.9245378520001,-77.032370941,390,"1401 FAIRMONT ST NW, WASHINGTON, DC, 20009","Match","Exact","1401 FAIRMONT ST NW, WASHINGTON, DC, 20009",76223143,"R"
169891,"1401 FAIRVIEW DRIVE","MOUNT JULIET","TN",37122,36.183287539,-86.521498847,391,"1401 FAIRVIEW DRIVE, MOUNT JULIET, TN, 37122","Match","Exact","1401 FAIRVIEW DR, MOUNT JULIET, TN, 37122",89695285,"L"
169892,"1401 FAIRWAY DRIVE","CLAYTON","NC",27520,35.682218628,-78.502287066,392,"1401 FAIRWAY DRIVE, CLAYTON, NC, 27520","Match","Exact","1401 FAIRWAY DR, CLAYTON, NC, 27520",72599727,"R"
169893,"1401 FALLING SPRINGS RD","EAST SAINT LOUIS","IL",62201,38.6064586680001,-90.1645593219999,393,"1401 FALLING SPRINGS RD, EAST SAINT LOUIS, IL, 62201","Match","Exact","1401 FALLING SPRINGS RD, E SAINT LOUIS, IL, 62201",107829289,"L"
169894,"1401 FAUSTINO COVE","LEANDER","TX",78641,30.557742551,-97.823521768,394,"1401 FAUSTINO COVE, LEANDER, TX, 78641","Match","Exact","1401 FAUSTINO COVE, LEANDER, TX, 78641",126505403,"R"
169895,"1401 FINCH STREET","EL CAJON","CA",92020,32.8143531360001,-116.98250286,395,"1401 FINCH STREET, EL CAJON, CA, 92020","Match","Exact","1401 FINCH ST, EL CAJON, CA, 92020",195328133,"R"
169896,"1401 FLATBUSH AVENUE SUITE 203","BROOKLYN","NY",11210,40.636514678,-73.951550415,396,"1401 FLATBUSH AVENUE SUITE 203, BROOKLYN, NY, 11210","Match","Exact","1401 FLATBUSH AVE, BROOKLYN, NY, 11210",59081630,"L"
169897,"1401 FLATBUSH AVENUE","BROOKLYN","NY",11210,40.636514678,-73.951550415,397,"1401 FLATBUSH AVENUE, BROOKLYN, NY, 11210","Match","Exact","1401 FLATBUSH AVE, BROOKLYN, NY, 11210",59081630,"L"
169898,"1401 FLORIDA AVENUE","WOODBRIDGE","VA",22191,38.622118378,-77.257008345,398,"1401 FLORIDA AVENUE, WOODBRIDGE, VA, 22191","Match","Exact","1401 FLORIDA AVE, WOODBRIDGE, VA, 22191",76512020,"L"
169899,"1401 FM 1462","ALVIN","TX",77511,NA,NA,399,"1401 FM 1462, ALVIN, TX, 77511","No_Match",NA,NA,NA,NA
169900,"1401 FORENSIC SCIENCE DRIVE","HUNTINGTON","WV",25701,38.411852578,-82.431683678,400,"1401 FORENSIC SCIENCE DRIVE, HUNTINGTON, WV, 25701","Match","Exact","1401 FORENSIC SCIENCE DR, HUNTINGTON, WV, 25701",101333612,"L"
169901,"1401 FOWLER DR","GARNER","NC",27529,35.695393762,-78.632325431,401,"1401 FOWLER DR, GARNER, NC, 27529","Match","Exact","1401 FOWLER DR, GARNER, NC, 27529",72511384,"L"
169902,"1401 FRIENDSHIP CHURCH ROAD","FARMVILLE","NC",27828,35.5468967460001,-77.644400285,402,"1401 FRIENDSHIP CHURCH ROAD, FARMVILLE, NC, 27828","Match","Exact","1401 FRIENDSHIP CHURCH RD, FARMVILLE, NC, 27828",26511972,"L"
169903,"1401 FULLILOVE DR","BOSSIER CITY","LA",71111,32.503781792,-93.690742658,403,"1401 FULLILOVE DR, BOSSIER CITY, LA, 71111","Match","Non_Exact","1401 FULLILOVE DR, BOSSIER CITY, LA, 71112",108509512,"L"
169904,"1401 GATESWALK PATH","LAWRENCEVILLE","GA",30045,33.9148940870001,-83.960497255,404,"1401 GATESWALK PATH, LAWRENCEVILLE, GA, 30045","Match","Exact","1401 GATESWALK PATH, LAWRENCEVILLE, GA, 30045",88920023,"L"
169905,"1401 GEIL AVENUE","DES MOINES","IA",50315,41.5246666580001,-93.6354331909999,405,"1401 GEIL AVENUE, DES MOINES, IA, 50315","Match","Exact","1401 GEIL AVE, DES MOINES, IA, 50315",65786222,"R"
169906,"1401 GIRARD AVENUE NORTH","MINNEAPOLIS","MN",55411,44.993143897,-93.2971939619999,406,"1401 GIRARD AVENUE NORTH, MINNEAPOLIS, MN, 55411","Match","Exact","1401 GIRARD AVE N, MINNEAPOLIS, MN, 55411",43623815,"L"
169907,"1401 GLENSHIRE DR","GARLAND","TX",75043,32.8653403180001,-96.591275726,407,"1401 GLENSHIRE DR, GARLAND, TX, 75043","Match","Exact","1401 GLENSHIRE DR, GARLAND, TX, 75043",103276921,"L"
169908,"1401 GLENWOOD RD","VESTAL","NY",13850,42.059141266,-76.040771588,408,"1401 GLENWOOD RD, VESTAL, NY, 13850","Match","Exact","1401 GLENWOOD RD, VESTAL, NY, 13850",46339471,"L"
169909,"1401 GOLDEN SQURIEL WAY","SEFNER","FL",33584,27.9759676740001,-82.262252039,409,"1401 GOLDEN SQURIEL WAY, SEFNER, FL, 33584","Match","Non_Exact","1401 GOLDEN SQUIRREL WAY, SEFFNER, FL, 33584",104614922,"R"
169910,"1401 GRAPE ST","DENVER","CO",80220,39.7384471680001,-104.924612982,410,"1401 GRAPE ST, DENVER, CO, 80220","Match","Exact","1401 GRAPE ST, DENVER, CO, 80220",177312215,"L"
169911,"1401 GREENMONT HILLS DR","VIENNA","WV",26105,39.339721954,-81.525536519,411,"1401 GREENMONT HILLS DR, VIENNA, WV, 26105","Match","Exact","1401 GREENMONT HILLS DR, VIENNA, WV, 26105",90878728,"L"
169912,"1401 GRIIFIN ROAD","LAKELAND","FL",33810,28.0805620150001,-81.978304795,412,"1401 GRIIFIN ROAD, LAKELAND, FL, 33810","Match","Non_Exact","1401 GRIFFIN RD, LAKELAND, FL, 33810",641415421,"R"
169913,"1401 GRIMES ROAD","HAMPTON","VA",23663,37.0449092750001,-76.315311037,413,"1401 GRIMES ROAD, HAMPTON, VA, 23663","Match","Exact","1401 GRIMES RD, HAMPTON, VA, 23663",103759809,"L"
169914,"1401 GUAVA AVE","MELBOURNE","FL",32935,28.1297752040001,-80.6278876929999,414,"1401 GUAVA AVE, MELBOURNE, FL, 32935","Match","Exact","1401 GUAVA AVE, MELBOURNE, FL, 32935",93903659,"R"
169915,"1401 HAISLEY AVE","ODEM","TX",78370,27.943572267,-97.591160491,415,"1401 HAISLEY AVE, ODEM, TX, 78370","Match","Exact","1401 HAISLEY AVE, ODEM, TX, 78370",36323433,"L"
169916,"1401 HALF STREET SW","WASHINGTON","DC",20024,38.8728882390001,-77.0106558319999,416,"1401 HALF STREET SW, WASHINGTON, DC, 20024","Match","Exact","1401 HALF ST SW, WASHINGTON, DC, 20024",76227315,"R"
169917,"1401 HAMILTON ST NW","WASHINGTON","DC",20011,38.952915207,-77.033523557,417,"1401 HAMILTON ST NW, WASHINGTON, DC, 20011","Match","Exact","1401 HAMILTON ST NW, WASHINGTON, DC, 20011",641520506,"R"
169918,"1401 HAMPTON ST  APT 317","COLUMBIA","SC",29201,34.0063250470001,-81.031978392,418,"1401 HAMPTON ST  APT 317, COLUMBIA, SC, 29201","Match","Exact","1401 HAMPTON ST, COLUMBIA, SC, 29201",71820803,"L"
169919,"1401 HARGIS CREEK TRAIL","AUSTIN","TX",78717,30.514615312,-97.7413730069999,419,"1401 HARGIS CREEK TRAIL, AUSTIN, TX, 78717","Match","Exact","1401 HARGIS CREEK TRL, AUSTIN, TX, 78717",126462773,"L"
169920,"1401 HARRELL AVE","HAMMOND","LA",70403,30.4960792840001,-90.475687667,420,"1401 HARRELL AVE, HAMMOND, LA, 70403","Match","Exact","1401 HARRELL AVE, HAMMOND, LA, 70403",75754865,"R"
169921,"1401 HARRISON","GOODLAND","KS",67735,39.3447912980001,-101.700870846,421,"1401 HARRISON, GOODLAND, KS, 67735","Match","Non_Exact","1401 HARRISON AVE, GOODLAND, KS, 67735",146652982,"R"
169922,"1401 HAWTHORNE WAY","WESTLAKE","TX",76262,32.9695917170001,-97.189764117,422,"1401 HAWTHORNE WAY, WESTLAKE, TX, 76262","Match","Non_Exact","1401 HAWTHORN WAY, WESTLAKE, TX, 76262",102119195,"L"
169923,"1401 HENDREN DR","DELAND","FL",32724,29.0521116,-81.291038687,423,"1401 HENDREN DR, DELAND, FL, 32724","Match","Exact","1401 HENDREN DR, DELAND, FL, 32724",94561470,"R"
169924,"1401 HERITAGE SQUARE","MIDDLETOWN","PA",17057,40.238832684,-76.760049427,424,"1401 HERITAGE SQUARE, MIDDLETOWN, PA, 17057","Match","Exact","1401 HERITAGE SQ, MIDDLETOWN, PA, 17057",70841420,"R"
169925,"1401 HESTERS CROSSING RD UNIT 2108","ROUND ROCK","TX",76861,30.4834445270001,-97.6915248239999,425,"1401 HESTERS CROSSING RD UNIT 2108, ROUND ROCK, TX, 76861","Match","Non_Exact","1401 HESTERS CROSSING RD, ROUND ROCK, TX, 78681",647908448,"L"
169926,"1401 HIGH SCHOOL DR","BELLEVUE","NE",68005,41.1464805700001,-95.906241983,426,"1401 HIGH SCHOOL DR, BELLEVUE, NE, 68005","Match","Exact","1401 HIGH SCHOOL DR, BELLEVUE, NE, 68005",641485178,"L"
169927,"1401 HIGH SCHOOL DR","BELLEVUE","NE",68123,41.1464805700001,-95.906241983,427,"1401 HIGH SCHOOL DR, BELLEVUE, NE, 68123","Match","Non_Exact","1401 HIGH SCHOOL DR, BELLEVUE, NE, 68005",641485178,"L"
169928,"1401 HIGHEDGE DRIVE","PLANO","TX",75075,33.01806091,-96.742997732,428,"1401 HIGHEDGE DRIVE, PLANO, TX, 75075","Match","Exact","1401 HIGHEDGE DR, PLANO, TX, 75075",123487979,"L"
169929,"1401 HIGHEDGE DRIVE","PLANO","TX",75080,33.01806091,-96.742997732,429,"1401 HIGHEDGE DRIVE, PLANO, TX, 75080","Match","Non_Exact","1401 HIGHEDGE DR, PLANO, TX, 75075",123487979,"L"
169930,"1401 HIGHGATE CT","CHEASEPAK","VA",23322,36.7089572510001,-76.2924938899999,430,"1401 HIGHGATE CT, CHEASEPAK, VA, 23322","Match","Non_Exact","1401 HIGHGATE CT, CHESAPEAKE, VA, 23322",626752995,"L"
169931,"1401 HIGHWAY 360   1035","EULESS","TX",76039,32.855270116,-97.065033149,431,"1401 HIGHWAY 360   1035, EULESS, TX, 76039","Match","Non_Exact","1401 STATE HWY 360, EULESS, TX, 76039",638318670,"R"
169932,"1401 HIGHWAY 360 APT 1035","EULESS","TX",76039,32.855270116,-97.065033149,432,"1401 HIGHWAY 360 APT 1035, EULESS, TX, 76039","Match","Non_Exact","1401 STATE HWY 360, EULESS, TX, 76039",638318670,"R"
169933,"1401 HIGHWAY 360 APT 537","EULESS","TX",76039,32.855270116,-97.065033149,433,"1401 HIGHWAY 360 APT 537, EULESS, TX, 76039","Match","Non_Exact","1401 STATE HWY 360, EULESS, TX, 76039",638318670,"R"
169934,"1401 HIGHWAY 80 K-128","CLINTON","MS",39056,NA,NA,434,"1401 HIGHWAY 80 K-128, CLINTON, MS, 39056","No_Match",NA,NA,NA,NA
169935,"1401 HILLSIDE LANE","ROSEVILLE","CA",95661,38.7239531820001,-121.251777306,435,"1401 HILLSIDE LANE, ROSEVILLE, CA, 95661","Match","Exact","1401 HILLSIDE LN, ROSEVILLE, CA, 95661",106765710,"R"
169936,"1401 HILLTOP DRIVE APT 1315","RICHMOND","CA",94806,NA,NA,436,"1401 HILLTOP DRIVE APT 1315, RICHMOND, CA, 94806","No_Match",NA,NA,NA,NA
169937,"1401 HOKE STREET","GADSDEN","AL",35901,34.0023133350001,-85.9537475119999,437,"1401 HOKE STREET, GADSDEN, AL, 35901","Match","Non_Exact","1401 HOKE ST, GADSDEN, AL, 35903",66772921,"R"
169938,"1401 HOMESTEAD LANE","EDINBORO","PA",16412,41.865448794,-80.091035602,438,"1401 HOMESTEAD LANE, EDINBORO, PA, 16412","Match","Exact","1401 HOMESTEAD LN, EDINBORO, PA, 16412",611640646,"L"
169939,"1401 HUNTERS CLUB LANE","NORCROSS","GA",30093,33.873186667,-84.194714985,439,"1401 HUNTERS CLUB LANE, NORCROSS, GA, 30093","Match","Non_Exact","1401 HUNTER CLUB LN, NORCROSS, GA, 30093",624616587,"L"
169940,"1401 IDA STREET APT 19","TUPELO","MS",38804,34.251130733,-88.7289280369999,440,"1401 IDA STREET APT 19, TUPELO, MS, 38804","Match","Non_Exact","1401 IDA ST, TUPELO, MS, 38801",90677543,"L"
169941,"1401 ISABELLA CT","AURORA","TX",76078,33.05422373,-97.5065329189999,441,"1401 ISABELLA CT, AURORA, TX, 76078","Match","Exact","1401 ISABELLA CT, AURORA, TX, 76078",651967621,"L"
169942,"1401 JACKSON ST  APT 301","OAKLAND","CA",94612,37.802095395,-122.265217139,442,"1401 JACKSON ST  APT 301, OAKLAND, CA, 94612","Match","Exact","1401 JACKSON ST, OAKLAND, CA, 94612",125000925,"L"
169943,"1401 JACKSON STREET APT 403","OAKLAND","CA",94612,37.802095395,-122.265217139,443,"1401 JACKSON STREET APT 403, OAKLAND, CA, 94612","Match","Exact","1401 JACKSON ST, OAKLAND, CA, 94612",125000925,"L"
169944,"1401 JESSUP AVENUE APT 5A","BRONX","NY",10452,40.8415034710001,-73.9205775739999,444,"1401 JESSUP AVENUE APT 5A, BRONX, NY, 10452","Match","Non_Exact","1401 JESUP AVE, BRONX, NY, 10452",80299434,"L"
169945,"1401 JFK BLVD 12TH FLOOR","PHILADELPHIA","PA",19102,NA,NA,445,"1401 JFK BLVD 12TH FLOOR, PHILADELPHIA, PA, 19102","No_Match",NA,NA,NA,NA
169946,"1401 JJ FLEWELLEN ROAD","WACO","TX",76704,31.5779283640001,-97.129800304,446,"1401 JJ FLEWELLEN ROAD, WACO, TX, 76704","Match","Non_Exact","1401 J J FLEWELLEN RD, WACO, TX, 76704",146735462,"R"
169947,"1401 JOHN ROAD","ARDMORE","OK",73401,34.156955193,-97.16834542,447,"1401 JOHN ROAD, ARDMORE, OK, 73401","Match","Exact","1401 JOHN RD, ARDMORE, OK, 73401",14865533,"L"
169948,"1401 JOHNSON FERRY RD STE 100","MARIETTA","GA",30062,33.983909947,-84.427107722,448,"1401 JOHNSON FERRY RD STE 100, MARIETTA, GA, 30062","Match","Exact","1401 JOHNSON FERRY RD, MARIETTA, GA, 30062",636713027,"L"
169949,"1401 JONES AVENUE NE","RENTON","WA",98056,47.5046585690001,-122.1963375,449,"1401 JONES AVENUE NE, RENTON, WA, 98056","Match","Exact","1401 JONES AVE NE, RENTON, WA, 98056",186631601,"L"
169950,"1401 JONQUIL LANE","WAUSAU","WI",54401,NA,NA,450,"1401 JONQUIL LANE, WAUSAU, WI, 54401","No_Match",NA,NA,NA,NA
169951,"1401 JUNIPER AVENUE","ELKINS PARK","PA",19027,40.0676455940001,-75.1346746579999,451,"1401 JUNIPER AVENUE, ELKINS PARK, PA, 19027","Match","Exact","1401 JUNIPER AVE, ELKINS PARK, PA, 19027",639286206,"R"
169952,"1401 JUNIPER DR APT 4","LOUISVILLE","KY",40222,38.2660356650001,-85.602834765,452,"1401 JUNIPER DR APT 4, LOUISVILLE, KY, 40222","Match","Exact","1401 JUNIPER DR, LOUISVILLE, KY, 40222",96870615,"R"
169953,"1401 KAITLYN LANE","KELLER","TX",76248,32.9213929410001,-97.223511817,453,"1401 KAITLYN LANE, KELLER, TX, 76248","Match","Exact","1401 KAITLYN LN, KELLER, TX, 76248",102128794,"R"
169954,"1401 KERN AVE","RICE LAKE","WI",54868,45.486272591,-91.725082454,454,"1401 KERN AVE, RICE LAKE, WI, 54868","Match","Exact","1401 KERN AVE, RICE LAKE, WI, 54868",126297200,"R"
169955,"1401 KILKENNY DRIVE","ARLINGTON","TX",75062,32.626276289,-97.0888711699999,455,"1401 KILKENNY DRIVE, ARLINGTON, TX, 75062","Match","Non_Exact","1401 KILKENNY DR, ARLINGTON, TX, 76002",102119539,"R"
169956,"1401 KINNEY AVE","AUSTIN","TX",78704,30.254892092,-97.766560371,456,"1401 KINNEY AVE, AUSTIN, TX, 78704","Match","Exact","1401 KINNEY AVE, AUSTIN, TX, 78704",650102542,"L"
169957,"1401 KUMQUAT PLACE","OXNARD","CA",93036,34.2288327640001,-119.192762108,457,"1401 KUMQUAT PLACE, OXNARD, CA, 93036","Match","Exact","1401 KUMQUAT PL, OXNARD, CA, 93036",110120306,"R"
169958,"1401 LAKE AVENUE APARTMENT C 7","METAIRIE","LA",70005,30.011104388,-90.123717292,458,"1401 LAKE AVENUE APARTMENT C 7, METAIRIE, LA, 70005","Match","Exact","1401 LAKE AVE, METAIRIE, LA, 70005",93498858,"R"
169959,"1401 LAKE ST","EVANSTON","IL",60201,42.0442375260001,-87.692109541,459,"1401 LAKE ST, EVANSTON, IL, 60201","Match","Exact","1401 LAKE ST, EVANSTON, IL, 60201",605247729,"R"
169960,"1401 LAKESIDE DR SUITE 400","OAKLAND","CA",94612,37.8020529350001,-122.262313956,460,"1401 LAKESIDE DR SUITE 400, OAKLAND, CA, 94612","Match","Exact","1401 LAKESIDE DR, OAKLAND, CA, 94612",125000959,"L"
169961,"1401 LAVACA ST PMB 40572","AUSTIN","TX",78701,30.276743099,-97.742234744,461,"1401 LAVACA ST PMB 40572, AUSTIN, TX, 78701","Match","Exact","1401 LAVACA ST, AUSTIN, TX, 78701",63943297,"R"
169962,"1401 LAVACA ST STE19","AUSTIN","TX",78701,30.276743099,-97.742234744,462,"1401 LAVACA ST STE19, AUSTIN, TX, 78701","Match","Exact","1401 LAVACA ST, AUSTIN, TX, 78701",63943297,"R"
169963,"1401 LAVACA STREET","AUSTIN","TX",78701,30.276743099,-97.742234744,463,"1401 LAVACA STREET, AUSTIN, TX, 78701","Match","Exact","1401 LAVACA ST, AUSTIN, TX, 78701",63943297,"R"
169964,"1401 LAWRENCE STREET NE","WASHINGTON","DC",20017,38.931791059,-76.9861294199999,464,"1401 LAWRENCE STREET NE, WASHINGTON, DC, 20017","Match","Exact","1401 LAWRENCE ST NE, WASHINGTON, DC, 20017",76228797,"R"
169965,"1401 LAWRENCE STREET STE 1000","DENVER","CO",80202,39.746746348,-104.998864826,465,"1401 LAWRENCE STREET STE 1000, DENVER, CO, 80202","Match","Exact","1401 LAWRENCE ST, DENVER, CO, 80202",640072113,"L"
169966,"1401 LEEVILLE PIKE","LEBANON","TN",37090,36.1970351690001,-86.322311429,466,"1401 LEEVILLE PIKE, LEBANON, TN, 37090","Match","Exact","1401 LEEVILLE PIKE, LEBANON, TN, 37090",89688823,"L"
169967,"1401 LIME ROCK DRIVE","ROUND ROCK","TX",78681,30.4960313400001,-97.695451868,467,"1401 LIME ROCK DRIVE, ROUND ROCK, TX, 78681","Match","Exact","1401 LIME ROCK DR, ROUND ROCK, TX, 78681",638666737,"L"
169968,"1401 LINDEN AVE","SPRINGFIELD","OH",45505,39.9083031110001,-83.8053110289999,468,"1401 LINDEN AVE, SPRINGFIELD, OH, 45505","Match","Exact","1401 LINDEN AVE, SPRINGFIELD, OH, 45505",135010031,"R"
169969,"1401 LITTLE ELM TRAIL - 102","CEDAR PARK","TX",78613,30.4944857950001,-97.811087387,469,"1401 LITTLE ELM TRAIL - 102, CEDAR PARK, TX, 78613","Match","Exact","1401 LITTLE ELM TRL, CEDAR PARK, TX, 78613",650114851,"L"
169970,"1401 LITTLE NECK RD","SAVANNAH","GA",31419,32.0535443110001,-81.292543842,470,"1401 LITTLE NECK RD, SAVANNAH, GA, 31419","Match","Exact","1401 LITTLE NECK RD, SAVANNAH, GA, 31419",6212306,"R"
169971,"1401 LOGAN AVENUE N","MINNEAPOOLIS","MN",55411,44.993154992,-93.3032077139999,471,"1401 LOGAN AVENUE N, MINNEAPOOLIS, MN, 55411","Match","Non_Exact","1401 LOGAN AVE N, MINNEAPOLIS, MN, 55411",43623529,"L"
169972,"1401 LONGCREEK DRIVE 301C","COLUMBIA","SC",29210,34.0412513480001,-81.084667254,472,"1401 LONGCREEK DRIVE 301C, COLUMBIA, SC, 29210","Match","Exact","1401 LONGCREEK DR, COLUMBIA, SC, 29210",71860105,"R"
169973,"1401 LOWELL","SPRINGFIELD","IL",62704,NA,NA,473,"1401 LOWELL, SPRINGFIELD, IL, 62704","No_Match",NA,NA,NA,NA
169974,"1401 LUCIA DRIVE","CANONSBURG","PA",15317,40.2766258880001,-80.189892544,474,"1401 LUCIA DRIVE, CANONSBURG, PA, 15317","Match","Exact","1401 LUCIA DR, CANONSBURG, PA, 15317",641774058,"R"
169975,"1401 MAGNOLIA ST","NORMAN","OK",73072,35.191257068,-97.461575002,475,"1401 MAGNOLIA ST, NORMAN, OK, 73072","Match","Exact","1401 MAGNOLIA ST, NORMAN, OK, 73072",99910936,"R"
169976,"1401 MAIN STREET APT 12-A","KINGMAN","AZ",86401,35.201003502,-114.031321643,476,"1401 MAIN STREET APT 12-A, KINGMAN, AZ, 86401","Match","Exact","1401 MAIN ST, KINGMAN, AZ, 86401",190314162,"L"
169977,"1401 MAIN STREET","PECKVILLE","PA",18452,41.4796496610001,-75.597299167,477,"1401 MAIN STREET, PECKVILLE, PA, 18452","Match","Exact","1401 MAIN ST, PECKVILLE, PA, 18452",139353438,"L"
169978,"1401 MAJESTY TERRACE","WESTON","FL",33327,26.1205850440001,-80.4215775879999,478,"1401 MAJESTY TERRACE, WESTON, FL, 33327","Match","Exact","1401 MAJESTY TER, WESTON, FL, 33327",114814430,"R"
169979,"1401 MAPLE RIDGE RD","NEW RICHMOND","OH",45157,38.921563834,-84.2379147789999,479,"1401 MAPLE RIDGE RD, NEW RICHMOND, OH, 45157","Match","Non_Exact","1401 MAPLE RIDGE DR, NEW RICHMOND, OH, 45157",617092268,"R"
169980,"1401 MARA COURT","SANFORD","FL",32771,28.799969397,-81.2576343269999,480,"1401 MARA COURT, SANFORD, FL, 32771","Match","Exact","1401 MARA CT, SANFORD, FL, 32771",93763565,"L"
169981,"1401 MARYLAND AVE A6","WILMINGTON","DE",19805,39.7356859660001,-75.571514854,481,"1401 MARYLAND AVE A6, WILMINGTON, DE, 19805","Match","Exact","1401 MARYLAND AVE, WILMINGTON, DE, 19805",187303443,"R"
169982,"1401 MARYLAND AVE APT C8","WILMINGTON","DE",19805,39.7356859660001,-75.571514854,482,"1401 MARYLAND AVE APT C8, WILMINGTON, DE, 19805","Match","Exact","1401 MARYLAND AVE, WILMINGTON, DE, 19805",187303443,"R"
169983,"1401 MAYWOOD","ANN ARBOR","MI",48103,42.2636885950001,-83.76610277,483,"1401 MAYWOOD, ANN ARBOR, MI, 48103","Match","Non_Exact","1401 MAYWOOD AVE, ANN ARBOR, MI, 48103",26012728,"L"
169984,"1401 MCKENZIE","POINT ROBERTS","WA",98281,NA,NA,484,"1401 MCKENZIE, POINT ROBERTS, WA, 98281","No_Match",NA,NA,NA,NA
169985,"1401 MEADOWLARK","BOWLING GREEN","KY",42101,NA,NA,485,"1401 MEADOWLARK, BOWLING GREEN, KY, 42101","No_Match",NA,NA,NA,NA
169986,"1401 MELODY BREEZE CT","KELLER","TX",76262,32.959767835,-97.211622199,486,"1401 MELODY BREEZE CT, KELLER, TX, 76262","Match","Exact","1401 MELODY BREEZE CT, KELLER, TX, 76262",101929069,"L"
169987,"1401 MERCANTILE LANE 200-CC","LARGO","MD",20774,38.908332192,-76.8371989249999,487,"1401 MERCANTILE LANE 200-CC, LARGO, MD, 20774","Match","Exact","1401 MERCANTILE LN, LARGO, MD, 20774",76367375,"L"
169988,"1401 MEYRS WOOD LANE","HIGHLAND PARK","CO",80129,NA,NA,488,"1401 MEYRS WOOD LANE, HIGHLAND PARK, CO, 80129","No_Match",NA,NA,NA,NA
169989,"1401 MISSION ST UNIT 204","SOUTH PASADENA","CA",91030,34.115767367,-118.153040062,489,"1401 MISSION ST UNIT 204, SOUTH PASADENA, CA, 91030","Match","Exact","1401 MISSION ST, SOUTH PASADENA, CA, 91030",141630230,"R"
169990,"1401 MOCKINGBIRD LANE","OLNEY","TX",76374,33.3511531250001,-98.7585640999999,490,"1401 MOCKINGBIRD LANE, OLNEY, TX, 76374","Match","Exact","1401 MOCKINGBIRD LN, OLNEY, TX, 76374",183303283,"L"
169991,"1401 MONROE AVE","CROMWELL","IA",50842,41.036155582,-94.4617165129999,491,"1401 MONROE AVE, CROMWELL, IA, 50842","Match","Exact","1401 MONROE AVE, CROMWELL, IA, 50842",75231863,"R"
169992,"1401 MONTANA AVE SUITE 13","EL PASO","TX",79901,31.7714554520001,-106.479924259,492,"1401 MONTANA AVE SUITE 13, EL PASO, TX, 79901","Match","Non_Exact","1401 MONTANA AVE, EL PASO, TX, 79902",189341299,"L"
169993,"1401 MONTECRISTO CT","DENTON","TX",76210,33.161978047,-97.1160621349999,493,"1401 MONTECRISTO CT, DENTON, TX, 76210","Match","Exact","1401 MONTECRISTO CT, DENTON, TX, 76210",103398003,"R"
169994,"1401 MORAY COURT","PARK CITY","UT",84060,40.6693112890001,-111.502263489,494,"1401 MORAY COURT, PARK CITY, UT, 84060","Match","Exact","1401 MORAY CT, PARK CITY, UT, 84060",160625470,"L"
169995,"1401 N 21ST STREET","ALLENTOWN","PA",18104,40.6151572790001,-75.5105155919999,495,"1401 N 21ST STREET, ALLENTOWN, PA, 18104","Match","Exact","1401 N 21ST ST, ALLENTOWN, PA, 18104",80760546,"R"
169996,"1401 N 4TH STREET APT 162","FLAGSTAFF","AZ",86004,35.1985293070001,-111.607639361,496,"1401 N 4TH STREET APT 162, FLAGSTAFF, AZ, 86004","Match","Non_Exact","1401 N 4TH ST, FLAGSTAFF, AZ, 86004",189061231,"R"
169997,"1401 N 9TH STREET","PERRY","OK",73077,36.2993628130001,-97.291863287,497,"1401 N 9TH STREET, PERRY, OK, 73077","Match","Exact","1401 N 9TH ST, PERRY, OK, 73077",154990871,"L"
169998,"1401 N ALEXANEDER ST","CHARLOTTE","NC",28205,35.232681911,-80.822113606,498,"1401 N ALEXANEDER ST, CHARLOTTE, NC, 28205","Match","Non_Exact","1401 N ALEXANDER ST, CHARLOTTE, NC, 28205",70479555,"L"
169999,"1401 N DECKER AVE","BALTIMORE","MD",21213,39.3073055250001,-76.5747748159999,499,"1401 N DECKER AVE, BALTIMORE, MD, 21213","Match","Exact","1401 N DECKER AVE, BALTIMORE, MD, 21213",206424349,"R"
170000,"1401 N DOWELL ROAD","AMARILLO","TX",79124,35.2263088760001,-101.988829985,500,"1401 N DOWELL ROAD, AMARILLO, TX, 79124","Match","Exact","1401 DOWELL RD, AMARILLO, TX, 79124",182464628,"L"
