"ID","Address","City","State","Zip","lat","long","id","input_address","match_indicator","match_type","matched_address","tiger_line_id","tiger_side"
335501,"2101 ROSS AVENUE","DALLAS","TX",75201,32.787719409,-96.798311771,1,"2101 ROSS AVENUE, DALLAS, TX, 75201","Match","Exact","2101 ROSS AVE, DALLAS, TX, 75201",102909896,"L"
335502,"2101 ROY STREET","FORT WAYNE","IN",46803,41.0668296490001,-85.10242267,2,"2101 ROY STREET, FORT WAYNE, IN, 46803","Match","Exact","2101 ROY ST, FORT WAYNE, IN, 46803",6380788,"L"
335503,"2101 RUBEN DRIVE","WAUKESHA","WI",53186,43.0331679060001,-88.188604552,3,"2101 RUBEN DRIVE, WAUKESHA, WI, 53186","Match","Exact","2101 RUBEN DR, WAUKESHA, WI, 53186",53812779,"R"
335504,"2101 RUSSELL ROAD","WAYCROSS","GA",31501,31.23739892,-82.334988305,4,"2101 RUSSELL ROAD, WAYCROSS, GA, 31501","Match","Exact","2101 RUSSELL RD, WAYCROSS, GA, 31501",5244913,"L"
335505,"2101 S 3300 W","SYRACUSE","UT",84075,41.083474187,-112.089508052,5,"2101 S 3300 W, SYRACUSE, UT, 84075","Match","Exact","2101 S 3300 W, SYRACUSE, UT, 84075",155339683,"L"
335506,"2101 S 7TH AVE","MAYWOOD","IL",60153,41.866017099,-87.8408228659999,6,"2101 S 7TH AVE, MAYWOOD, IL, 60153","Match","Exact","2101 S 7TH AVE, MAYWOOD, IL, 60153",111791298,"L"
335507,"2101 S ARLINGTON AVE","INDEPENDENCE","MO",64052,39.0840869900001,-94.4647060679999,7,"2101 S ARLINGTON AVE, INDEPENDENCE, MO, 64052","Match","Exact","2101 S ARLINGTON AVE, INDEPENDENCE, MO, 64052",91459867,"L"
335508,"2101 S L DAVIS AVE","AUSTIN","TX",78702,30.2710516560001,-97.717227107,8,"2101 S L DAVIS AVE, AUSTIN, TX, 78702","Match","Exact","2101 S L DAVIS AVE, AUSTIN, TX, 78702",63947217,"R"
335509,"2101 S LAKELINE AVE","CEDAR PARK","TX",78613,30.4802338330001,-97.823775497,9,"2101 S LAKELINE AVE, CEDAR PARK, TX, 78613","Match","Non_Exact","2101 S LAKELINE BLVD, CEDAR PARK, TX, 78613",650110089,"L"
335510,"2101 S LAKELINE BLVD APT 125","CEDAR PARK","TX",78613,30.4802338330001,-97.823775497,10,"2101 S LAKELINE BLVD APT 125, CEDAR PARK, TX, 78613","Match","Non_Exact","2101 S LAKELINE BLVD, CEDAR PARK, TX, 78613",650110089,"L"
335511,"2101 S MICHIGAN AVE APT 1101","CHICAGO","IL",60616,41.854180565,-87.6238403,11,"2101 S MICHIGAN AVE APT 1101, CHICAGO, IL, 60616","Match","Non_Exact","2101 S MICHIGAN AVE, CHICAGO, IL, 60616",111769980,"L"
335512,"2101 S MICHIGAN AVE SUITE 1902","CHICAGO","IL",60616,41.854180565,-87.6238403,12,"2101 S MICHIGAN AVE SUITE 1902, CHICAGO, IL, 60616","Match","Non_Exact","2101 S MICHIGAN AVE, CHICAGO, IL, 60616",111769980,"L"
335513,"2101 S MICHIGAN AVE UNIT1010","CHICAGO","IL",60616,41.854180565,-87.6238403,13,"2101 S MICHIGAN AVE UNIT1010, CHICAGO, IL, 60616","Match","Non_Exact","2101 S MICHIGAN AVE, CHICAGO, IL, 60616",111769980,"L"
335514,"2101 S OCEAN DR UNIT 505","HOLLYWOOD","FL",33019,NA,NA,14,"2101 S OCEAN DR UNIT 505, HOLLYWOOD, FL, 33019","Tie",NA,NA,NA,NA
335515,"2101 S OCEAN DRIVE APT 2805","HOLLYWOOD","FL",33019,NA,NA,15,"2101 S OCEAN DRIVE APT 2805, HOLLYWOOD, FL, 33019","Tie",NA,NA,NA,NA
335516,"2101 S OCEAN DRIVE","HOLLYWOOD","FL",33019,25.9998051480001,-80.1179320649999,16,"2101 S OCEAN DRIVE, HOLLYWOOD, FL, 33019","Match","Exact","2101 S OCEAN DR, HOLLYWOOD, FL, 33019",114737216,"L"
335517,"2101 S US HIGHWAY 1","JUPITER","FL",33477,26.914412359,-80.071025434,17,"2101 S US HIGHWAY 1, JUPITER, FL, 33477","Match","Exact","2101 US HWY 1, JUPITER, FL, 33477",646844176,"L"
335518,"2101 S WALKERS MILL RD","GRIFFIN","GA",30224,33.195896567,-84.190925164,18,"2101 S WALKERS MILL RD, GRIFFIN, GA, 30224","Match","Exact","2101 S WALKERS MILL RD, GRIFFIN, GA, 30224",23762960,"R"
335519,"2101 SCOTTWOOD DRIVE","GASTONIA","NC",28054,35.255724147,-81.143394427,19,"2101 SCOTTWOOD DRIVE, GASTONIA, NC, 28054","Match","Exact","2101 SCOTTWOOD DR, GASTONIA, NC, 28054",70381385,"R"
335520,"2101 SE LARCH AVE","PORTLAND","OR",97214,45.5079644520001,-122.652498173,20,"2101 SE LARCH AVE, PORTLAND, OR, 97214","Match","Exact","2101 SE LARCH AVE, PORTLAND, OR, 97214",157508477,"R"
335521,"2101 SE MAIN STREET","PORTLAND","OR",97214,45.5136096460001,-122.644449277,21,"2101 SE MAIN STREET, PORTLAND, OR, 97214","Match","Exact","2101 SE MAIN ST, PORTLAND, OR, 97214",157509246,"L"
335522,"2101 SE TIBBETTS","PORTLAND","OR",97202,45.5006419200001,-122.64455083,22,"2101 SE TIBBETTS, PORTLAND, OR, 97202","Match","Non_Exact","2101 SE TIBBETTS ST, PORTLAND, OR, 97202",157509562,"L"
335523,"2101 SEIDENBURG","KEY WEST","FL",33040,24.557551898,-81.778923956,23,"2101 SEIDENBURG, KEY WEST, FL, 33040","Match","Non_Exact","2101 SEIDENBERG AVE, KEY WEST, FL, 33040",116475429,"R"
335524,"2101 SHERWOOD  HALL LANE","ALEXANDRIA","VA",22306,38.7470994550001,-77.0659806529999,24,"2101 SHERWOOD  HALL LANE, ALEXANDRIA, VA, 22306","Match","Exact","2101 SHERWOOD HALL LN, ALEXANDRIA, VA, 22306",75990943,"L"
335525,"2101 SHORELINE DR UNIT 430","ALAMEDA","CA",94501,37.7567037520001,-122.256550083,25,"2101 SHORELINE DR UNIT 430, ALAMEDA, CA, 94501","Match","Exact","2101 SHORELINE DR, ALAMEDA, CA, 94501",636429692,"L"
335526,"2101 SHORELINE DRIVE APT 204","ALAMEDA","CA",94501,37.7567037520001,-122.256550083,26,"2101 SHORELINE DRIVE APT 204, ALAMEDA, CA, 94501","Match","Exact","2101 SHORELINE DR, ALAMEDA, CA, 94501",636429692,"L"
335527,"2101 SHORELINE DRIVE","ALAMEDA","CA",94501,37.7567037520001,-122.256550083,27,"2101 SHORELINE DRIVE, ALAMEDA, CA, 94501","Match","Exact","2101 SHORELINE DR, ALAMEDA, CA, 94501",636429692,"L"
335528,"2101 SIDNEY STREET","GREENVILLE","NC",27834,35.6558040960001,-77.3897353139999,28,"2101 SIDNEY STREET, GREENVILLE, NC, 27834","Match","Exact","2101 SIDNEY ST, GREENVILLE, NC, 27834",80041992,"L"
335529,"2101 SILVERBERRY DRIVE 208","CHESAPEAKE","VA",23321,36.8180949000001,-76.448709752,29,"2101 SILVERBERRY DRIVE 208, CHESAPEAKE, VA, 23321","Match","Exact","2101 SILVERBERRY DR, CHESAPEAKE, VA, 23321",651943843,"L"
335530,"2101 SILVERBERRY DRIVE APT 208","CHESAPEAKE","VA",23321,36.8180949000001,-76.448709752,30,"2101 SILVERBERRY DRIVE APT 208, CHESAPEAKE, VA, 23321","Match","Exact","2101 SILVERBERRY DR, CHESAPEAKE, VA, 23321",651943843,"L"
335531,"2101 SIMPLE SAVINGS DRIVE","BENTOVILLE","AR",72712,36.345387299,-94.187866609,31,"2101 SIMPLE SAVINGS DRIVE, BENTOVILLE, AR, 72712","Match","Non_Exact","2101 SE SIMPLE SAVINGS DR, BENTONVILLE, AR, 72712",47886741,"L"
335532,"2101 SOUTH 114TH STREET","OMAHA","NE",68144,41.239958733,-96.091057873,32,"2101 SOUTH 114TH STREET, OMAHA, NE, 68144","Match","Exact","2101 S 114TH ST, OMAHA, NE, 68144",116972530,"L"
335533,"2101 SOUTH 11TH ST","GADSDEN","AL",35904,33.9961468700001,-86.035421081,33,"2101 SOUTH 11TH ST, GADSDEN, AL, 35904","Match","Exact","2101 S 11TH ST, GADSDEN, AL, 35904",640015106,"R"
335534,"2101 SOUTH 5TH AVENUE","LEBANON","PA",17042,40.3150702080001,-76.350946684,34,"2101 SOUTH 5TH AVENUE, LEBANON, PA, 17042","Match","Exact","2101 S 5TH AVE, LEBANON, PA, 17042",80678923,"L"
335535,"2101 SOUTH JONES BLVD","LAS VEGAS","NV",89146,36.1479369670001,-115.225452506,35,"2101 SOUTH JONES BLVD, LAS VEGAS, NV, 89146","Match","Exact","2101 S JONES BLVD, LAS VEGAS, NV, 89146",201894584,"R"
335536,"2101 SOUTH MCCOLL ROAD","MCALLEN","TX",78503,26.1828361,-98.215994445,36,"2101 SOUTH MCCOLL ROAD, MCALLEN, TX, 78503","Match","Exact","2101 S MCCOLL RD, MCALLEN, TX, 78503",71558348,"L"
335537,"2101 SPRING DR","GARNER","NC",27529,35.711958641,-78.635157022,37,"2101 SPRING DR, GARNER, NC, 27529","Match","Exact","2101 SPRING DR, GARNER, NC, 27529",72576194,"L"
335538,"2101 SPRING DRIVE","GARNER","NC",27529,35.711958641,-78.635157022,38,"2101 SPRING DRIVE, GARNER, NC, 27529","Match","Exact","2101 SPRING DR, GARNER, NC, 27529",72576194,"L"
335539,"2101 SPRING HOLLOW DR","AUSTIN","TX",78681,30.513242512,-97.7058464849999,39,"2101 SPRING HOLLOW DR, AUSTIN, TX, 78681","Match","Non_Exact","2101 SPRING HOLLOW PATH, AUSTIN, TX, 78681",126452102,"R"
335540,"2101 STATE ROUTE 63","WAYLAND","NY",14572,42.555394968,-77.615612171,40,"2101 STATE ROUTE 63, WAYLAND, NY, 14572","Match","Exact","2101 STATE RTE 63, WAYLAND, NY, 14572",14723834,"L"
335541,"2101 STEPTOE STREET APT 214","RICHLAND","WA",99352,46.225335484,-119.244036378,41,"2101 STEPTOE STREET APT 214, RICHLAND, WA, 99352","Match","Exact","2101 STEPTOE ST, RICHLAND, WA, 99352",650142046,"L"
335542,"2101 STONEHEDGE COURT","FINDLAY","OH",45840,41.065842096,-83.600816063,42,"2101 STONEHEDGE COURT, FINDLAY, OH, 45840","Match","Exact","2101 STONEHEDGE CT, FINDLAY, OH, 45840",36481502,"R"
335543,"2101 SULPHUR SPRING RD","CLIFTON FORGE","VA",24422,37.8395156460001,-79.8474940949999,43,"2101 SULPHUR SPRING RD, CLIFTON FORGE, VA, 24422","Match","Non_Exact","2101 SULFUR SPRING RD, CLIFTON FORGE, VA, 24422",62562354,"L"
335544,"2101 SUMAC DRIVE","FORNEY","TX",75126,32.7595254840001,-96.410310183,44,"2101 SUMAC DRIVE, FORNEY, TX, 75126","Match","Exact","2101 SUMAC DR, FORNEY, TX, 75126",627563465,"R"
335545,"2101 SUNSWEPT CIRCLE","LANCASTER","CA",93536,34.6817173330001,-118.170335173,45,"2101 SUNSWEPT CIRCLE, LANCASTER, CA, 93536","Match","Exact","2101 SUNSWEPT CIR, LANCASTER, CA, 93536",241237840,"R"
335546,"2101 SW 22ND ST TERR","BLUE SPRINGS","MO",64015,NA,NA,46,"2101 SW 22ND ST TERR, BLUE SPRINGS, MO, 64015","No_Match",NA,NA,NA,NA
335547,"2101 SW 83 AVE","MIAMI","FL",33155,25.750460769,-80.330093381,47,"2101 SW 83 AVE, MIAMI, FL, 33155","Match","Exact","2101 SW 83RD AVE, MIAMI, FL, 33155",115976193,"L"
335548,"2101 SW SUNSET BLVD E205","RENTON","WA",98057,47.4806332580001,-122.234640173,48,"2101 SW SUNSET BLVD E205, RENTON, WA, 98057","Match","Non_Exact","2101 SW SUNSET BLVD, RENTON, WA, 98057",239782262,"R"
335549,"2101 SW SUNSET BLVD G303","RENTON","WA",98057,47.4806332580001,-122.234640173,49,"2101 SW SUNSET BLVD G303, RENTON, WA, 98057","Match","Non_Exact","2101 SW SUNSET BLVD, RENTON, WA, 98057",239782262,"R"
335550,"2101 TANNA LANE","FORT WORTH","TX",76134,32.634059397,-97.351386514,50,"2101 TANNA LANE, FORT WORTH, TX, 76134","Match","Exact","2101 TANNA LN, FORT WORTH, TX, 76134",619865173,"L"
335551,"2101 TEZCUCO LANE","MARRERO","LA",70072,29.866157817,-90.0934028459999,51,"2101 TEZCUCO LANE, MARRERO, LA, 70072","Match","Exact","2101 TEZCUCO LN, MARRERO, LA, 70072",93524824,"L"
335552,"2101 TOWN CENTRE DRIVE","ROUND ROCK","TX",78664,30.4923956000001,-97.653733255,52,"2101 TOWN CENTRE DRIVE, ROUND ROCK, TX, 78664","Match","Exact","2101 TOWN CENTRE DR, ROUND ROCK, TX, 78664",617767751,"R"
335553,"2101 VALENCIA DR NE","ALBUQUERQUE","NM",87110,35.100234205,-106.580920314,53,"2101 VALENCIA DR NE, ALBUQUERQUE, NM, 87110","Match","Exact","2101 VALENCIA DR NE, ALBUQUERQUE, NM, 87110",206716068,"L"
335554,"2101 VALLEJO ST","SAN FRANCISCO","CA",94123,37.7956223200001,-122.431956389,54,"2101 VALLEJO ST, SAN FRANCISCO, CA, 94123","Match","Exact","2101 VALLEJO ST, SAN FRANCISCO, CA, 94123",192279937,"L"
335555,"2101 VALLEY VIEW RD","ROBERT LEE","TX",76945,31.847479273,-100.43783142,55,"2101 VALLEY VIEW RD, ROBERT LEE, TX, 76945","Match","Exact","2101 VALLEY VIEW RD, ROBERT LEE, TX, 76945",187484542,"R"
335556,"2101 VESTAL PKWY WEST","VESTAL","NY",13850,42.070874797,-76.0925026909999,56,"2101 VESTAL PKWY WEST, VESTAL, NY, 13850","Match","Exact","2101 VESTAL PKWY W, VESTAL, NY, 13850",46372358,"L"
335557,"2101 VIA NAPOLI STREET","PLANT CITY","FL",33566,27.9783334410001,-82.143046301,57,"2101 VIA NAPOLI STREET, PLANT CITY, FL, 33566","Match","Exact","2101 VIA NAPOLI ST, PLANT CITY, FL, 33566",639492166,"R"
335558,"2101 VILLAGE ROAD","DEARBORN","MI",48124,NA,NA,58,"2101 VILLAGE ROAD, DEARBORN, MI, 48124","No_Match",NA,NA,NA,NA
335559,"2101 VINE ST APT 405","KANSAS CITY","MO",64108,39.0870327470001,-94.5635366069999,59,"2101 VINE ST APT 405, KANSAS CITY, MO, 64108","Match","Exact","2101 VINE ST, KANSAS CITY, MO, 64108",91449572,"L"
335560,"2101 VINE STREET LOFTS UNIT 409","KANSAS CITY","MO",64108,39.0870327470001,-94.5635366069999,60,"2101 VINE STREET LOFTS UNIT 409, KANSAS CITY, MO, 64108","Match","Exact","2101 VINE ST, KANSAS CITY, MO, 64108",91449572,"L"
335561,"2101 VINE STREET","KANSAS CITY","MO",64108,39.0870327470001,-94.5635366069999,61,"2101 VINE STREET, KANSAS CITY, MO, 64108","Match","Exact","2101 VINE ST, KANSAS CITY, MO, 64108",91449572,"L"
335562,"2101 VISTA PARKWAY","WEST PALM BEACH","FL",33411,26.713239297,-80.1494301289999,62,"2101 VISTA PARKWAY, WEST PALM BEACH, FL, 33411","Match","Exact","2101 VISTA PKWY, WEST PALM BEACH, FL, 33411",625220873,"L"
335563,"2101 VIVADA ST","ORLANDO","FL",32803,28.560874862,-81.355364058,63,"2101 VIVADA ST, ORLANDO, FL, 32803","Match","Exact","2101 VIVADA ST, ORLANDO, FL, 32803",94416882,"L"
335564,"2101 W 41ST ST","SIOUX FALLS","SD",57105,43.514833815,-96.7525260799999,64,"2101 W 41ST ST, SIOUX FALLS, SD, 57105","Match","Exact","2101 W 41ST ST, SIOUX FALLS, SD, 57105",635589030,"L"
335565,"2101 W 68TH STREET","MISSION HILLS","KS",66208,39.0060230340001,-94.610050746,65,"2101 W 68TH STREET, MISSION HILLS, KS, 66208","Match","Exact","2101 W 68TH ST, MISSION HILLS, KS, 66208",91286549,"L"
335566,"2101 W EVERGREEN AVE  APT 2","CHICAGO","IL",60623,NA,NA,66,"2101 W EVERGREEN AVE  APT 2, CHICAGO, IL, 60623","No_Match",NA,NA,NA,NA
335567,"2101 W HWY 390","PANAMA CITY","FL",32405,30.194679738,-85.691460171,67,"2101 W HWY 390, PANAMA CITY, FL, 32405","Match","Non_Exact","2101 HWY 390 E, PANAMA CITY, FL, 32405",7028096,"L"
335568,"2101 W LAS LANAS LANE","FULLERTON","CA",92833,33.8890422600001,-117.960537779,68,"2101 W LAS LANAS LANE, FULLERTON, CA, 92833","Match","Exact","2101 W LAS LANAS LN, FULLERTON, CA, 92833",144095507,"R"
335569,"2101 W LUNT","CHICAGO","IL",60645,42.008860423,-87.684128892,69,"2101 W LUNT, CHICAGO, IL, 60645","Match","Non_Exact","2101 W LUNT AVE, CHICAGO, IL, 60645",111744841,"L"
335570,"2101 W WARM SPRINGS RD 4011","HENDERSON","NV",89014,36.0563703930001,-115.078463109,70,"2101 W WARM SPRINGS RD 4011, HENDERSON, NV, 89014","Match","Non_Exact","2101 W WARM SPRINGS RD, HENDERSON, NV, 89014",630483166,"L"
335571,"2101 WALLIE ANN CT","LOUISVILLE","KY",40210,38.2209565000001,-85.789926507,71,"2101 WALLIE ANN CT, LOUISVILLE, KY, 40210","Match","Exact","2101 WALLIE ANN CT, LOUISVILLE, KY, 40210",96843209,"L"
335572,"2101 WALTON WAY","AUGUSTA","GA",30904,33.475545648,-82.009401048,72,"2101 WALTON WAY, AUGUSTA, GA, 30904","Match","Exact","2101 WALTON WAY, AUGUSTA, GA, 30904",604924788,"R"
335573,"2101 WASHINGTON ST NE APT 313","MINNEAPOLIS","MN",55418,45.0093066380001,-93.256980518,73,"2101 WASHINGTON ST NE APT 313, MINNEAPOLIS, MN, 55418","Match","Exact","2101 WASHINGTON ST NE, MINNEAPOLIS, MN, 55418",43835620,"R"
335574,"2101 WASHINGTON STREET NE APT213","MINNEAPOLIS","MN",55418,45.0093066380001,-93.256980518,74,"2101 WASHINGTON STREET NE APT213, MINNEAPOLIS, MN, 55418","Match","Exact","2101 WASHINGTON ST NE, MINNEAPOLIS, MN, 55418",43835620,"R"
335575,"2101 WASHINGTON STREET","GARY","IN",46407,41.580198802,-87.337887232,75,"2101 WASHINGTON STREET, GARY, IN, 46407","Match","Exact","2101 WASHINGTON ST, GARY, IN, 46407",98426908,"L"
335576,"2101 WEBSTER STREET SUITE 1200","OAKLAND","CA",94612,37.809898624,-122.265833989,76,"2101 WEBSTER STREET SUITE 1200, OAKLAND, CA, 94612","Match","Exact","2101 WEBSTER ST, OAKLAND, CA, 94612",125000345,"L"
335577,"2101 WELLWOOD CIR","CHARLOTTE","NC",28212,35.1800938320001,-80.7654372059999,77,"2101 WELLWOOD CIR, CHARLOTTE, NC, 28212","Match","Exact","2101 WELLWOOD CIR, CHARLOTTE, NC, 28212",70492430,"R"
335578,"2101 WEST 90TH STREET","BLOOMINGTON","MN",55431,44.8407684430001,-93.306646642,78,"2101 WEST 90TH STREET, BLOOMINGTON, MN, 55431","Match","Exact","2101 W 90TH ST, BLOOMINGTON, MN, 55431",43595536,"L"
335579,"2101 WEST CLINTON AVE SUITE 102","HUNTSVILLE","AL",35805,NA,NA,79,"2101 WEST CLINTON AVE SUITE 102, HUNTSVILLE, AL, 35805","No_Match",NA,NA,NA,NA
335580,"2101 WEST D STREET","NORTH PLATTE","NE",69101,41.1308011620001,-100.787984646,80,"2101 WEST D STREET, NORTH PLATTE, NE, 69101","Match","Exact","2101 W D ST, NORTH PLATTE, NE, 69101",151235034,"R"
335581,"2101 WEST E AVE","KALAMAZOO","MI",49009,42.361948882,-85.617031277,81,"2101 WEST E AVE, KALAMAZOO, MI, 49009","Match","Exact","2101 W E AVE, KALAMAZOO, MI, 49009",12237590,"L"
335582,"2101 WEST GARDEN DRIVE","TEMPE","AZ",85282,33.3848563650001,-111.970456516,82,"2101 WEST GARDEN DRIVE, TEMPE, AZ, 85282","Match","Exact","2101 W GARDEN DR, TEMPE, AZ, 85282",128226642,"L"
335583,"2101 WEST HOLMES ROAD","LANSING","MI",48910,42.697561965,-84.580197168,83,"2101 WEST HOLMES ROAD, LANSING, MI, 48910","Match","Exact","2101 W HOLMES RD, LANSING, MI, 48910",17502222,"L"
335584,"2101 WEST OAK STREET","DENTON","TX",76201,33.215738704,-97.155704106,84,"2101 WEST OAK STREET, DENTON, TX, 76201","Match","Exact","2101 W OAK ST, DENTON, TX, 76201",103338312,"L"
335585,"2101 WESTBURY COURT","BROOKLYN","NY",11225,40.6566727760001,-73.960804906,85,"2101 WESTBURY COURT, BROOKLYN, NY, 11225","Match","Exact","2101 WESTBURY CT, BROOKLYN, NY, 11225",652205295,"L"
335586,"2101 WESTLAKE DRIVE","LONGMONT","CO",80503,40.195992172,-105.134833361,86,"2101 WESTLAKE DRIVE, LONGMONT, CO, 80503","Match","Exact","2101 WESTLAKE DR, LONGMONT, CO, 80503",188154425,"R"
335587,"2101 WEYLAND AVE","CHARLOTTE","NC",28208,35.228174499,-80.8884150489999,87,"2101 WEYLAND AVE, CHARLOTTE, NC, 28208","Match","Exact","2101 WEYLAND AVE, CHARLOTTE, NC, 28208",70476754,"L"
335588,"2101 WILDROSE DR","DECATUR","GA",30032,33.7282392180001,-84.299903618,88,"2101 WILDROSE DR, DECATUR, GA, 30032","Match","Exact","2101 WILDROSE DR, DECATUR, GA, 30032",23368264,"R"
335589,"2101 WILHEMINA AVE","CHARLOTTE","NC",28205,35.2297768880001,-80.802404254,89,"2101 WILHEMINA AVE, CHARLOTTE, NC, 28205","Match","Non_Exact","2101 WILHELMINA AVE, CHARLOTTE, NC, 28205",70480355,"L"
335590,"2101 WINDCLIFF DRIVE","MARIETTA","GA",30067,33.9142644230001,-84.48300849,90,"2101 WINDCLIFF DRIVE, MARIETTA, GA, 30067","Match","Non_Exact","2101 WINDCLIFF DR SE, MARIETTA, GA, 30067",17267199,"R"
335591,"2101 WINDISH DR","GALESBURG","IL",61401,40.975715264,-90.359611346,91,"2101 WINDISH DR, GALESBURG, IL, 61401","Match","Exact","2101 WINDISH DR, GALESBURG, IL, 61401",9052460,"L"
335592,"2101 WITTEVILLE DRIVE","POTEAU","OK",74953,35.069943535,-94.632868015,92,"2101 WITTEVILLE DRIVE, POTEAU, OK, 74953","Match","Exact","2101 WITTEVILLE DR, POTEAU, OK, 74953",79899225,"L"
335593,"2101 WOODHAVEN RD","CAPE GIRARDEAU","MO",63701,37.3368082440001,-89.5441160079999,93,"2101 WOODHAVEN RD, CAPE GIRARDEAU, MO, 63701","Match","Non_Exact","2101 WOODHAVEN DR, CAPE GIRARDEAU, MO, 63701",35184403,"R"
335594,"2101 WOODLAWN AVE","GRANITE CITY","IL",62040,38.7343934450001,-90.113039685,94,"2101 WOODLAWN AVE, GRANITE CITY, IL, 62040","Match","Exact","2101 WOODLAWN AVE, GRANITE CITY, IL, 62040",107688067,"L"
335595,"2101 WOODROW DR","KNOXVILLE","TN",37918,36.0237670270001,-83.9389223379999,95,"2101 WOODROW DR, KNOXVILLE, TN, 37918","Match","Exact","2101 WOODROW DR, KNOXVILLE, TN, 37918",42617186,"L"
335596,"2101 WOODWIND POINT","MOUNT JULIET","TN",37122,36.2198241140001,-86.507138218,96,"2101 WOODWIND POINT, MOUNT JULIET, TN, 37122","Match","Exact","2101 WOODWIND PT, MOUNT JULIET, TN, 37122",637321888,"L"
335597,"2101-103 WESTINGHOUSE BLVD","RALEIGH","NC",27604,35.8084459790001,-78.5948879159999,97,"2101-103 WESTINGHOUSE BLVD, RALEIGH, NC, 27604","Match","Exact","2101 WESTINGHOUSE BLVD, RALEIGH, NC, 27604",72617270,"L"
335598,"2101","HOUSTON","TX",77002,NA,NA,98,"2101, HOUSTON, TX, 77002","No_Match",NA,NA,NA,NA
335599,"21010 39TH WAY S","DES MOINES","WA",98198,47.4153845380001,-122.285268046,99,"21010 39TH WAY S, DES MOINES, WA, 98198","Match","Exact","21010 39TH WAY S, DES MOINES, WA, 98198",650434805,"L"
335600,"21010 ANCLOTE COURT","VENICE","FL",34293,27.0731142070001,-82.349961301,100,"21010 ANCLOTE COURT, VENICE, FL, 34293","Match","Exact","21010 ANCLOTE CT, VENICE, FL, 34293",648465864,"R"
335601,"21010 BRUSHY CANYON DR","HOUSTON","TX",77073,29.998349664,-95.415032632,101,"21010 BRUSHY CANYON DR, HOUSTON, TX, 77073","Match","Exact","21010 BRUSHY CANYON DR, HOUSTON, TX, 77073",630544288,"R"
335602,"21010 CASTLEROCK LANE","GRETNA","NE",68028,41.1294845350001,-96.244645487,102,"21010 CASTLEROCK LANE, GRETNA, NE, 68028","Match","Exact","21010 CASTLEROCK LN, GRETNA, NE, 68028",646710424,"L"
335603,"21010 CLASSIC CT","CUPERTINO","CA",95014,37.3076992910001,-122.041533193,103,"21010 CLASSIC CT, CUPERTINO, CA, 95014","Match","Exact","21010 CLASSIC CT, CUPERTINO, CA, 95014",122974574,"R"
335604,"21010 NE 133RD ST","WOODINVILLE","WA",98077,47.718904562,-122.0595754,104,"21010 NE 133RD ST, WOODINVILLE, WA, 98077","Match","Exact","21010 NE 133RD ST, WOODINVILLE, WA, 98077",187068720,"L"
335605,"21010 SOUTHBANK ST UNIT 420","STERLING","VA",20165,39.034326503,-77.397969525,105,"21010 SOUTHBANK ST UNIT 420, STERLING, VA, 20165","Match","Exact","21010 SOUTHBANK ST, STERLING, VA, 20165",218946256,"R"
335606,"21010 SOUTHBANK STREET","STERLING","VA",20165,39.034326503,-77.397969525,106,"21010 SOUTHBANK STREET, STERLING, VA, 20165","Match","Exact","21010 SOUTHBANK ST, STERLING, VA, 20165",218946256,"R"
335607,"21010 VANOWEN STREET","CANOGA PARK","CA",91303,34.1937669820001,-118.59095847,107,"21010 VANOWEN STREET, CANOGA PARK, CA, 91303","Match","Exact","21010 VANOWEN ST, CANOGA PARK, CA, 91303",141535280,"L"
335608,"21010 WOODLAKE DR","EDMONDS","WA",98026,47.8084258000001,-122.346661002,108,"21010 WOODLAKE DR, EDMONDS, WA, 98026","Match","Exact","21010 WOODLAKE DR, EDMONDS, WA, 98026",187754958,"R"
335609,"21011 BOYDTON PLANK ROAD","MCKENNY","VA",23872,36.9830216280001,-77.714776026,109,"21011 BOYDTON PLANK ROAD, MCKENNY, VA, 23872","Match","Non_Exact","21011 BOYDTON PLANK RD, MC KENNEY, VA, 23872",54144716,"R"
335610,"21011 COMMERCE POINTE DR STE C","CITY OF INDUSTRY","CA",91789,34.0173072150001,-117.845368598,110,"21011 COMMERCE POINTE DR STE C, CITY OF INDUSTRY, CA, 91789","Match","Exact","21011 COMMERCE POINTE DR, CITY OF INDUSTRY, CA, 91789",241165336,"R"
335611,"21011 CREEK EDGE CT","KATY","TX",77449,29.8191944590001,-95.740915581,111,"21011 CREEK EDGE CT, KATY, TX, 77449","Match","Exact","21011 CREEK EDGE CT, KATY, TX, 77449",96559147,"R"
335612,"21011 JOHNSON STREET OFFICE 110","PEMBROKE PINES","FL",33029,26.015113726,-80.4302463559999,112,"21011 JOHNSON STREET OFFICE 110, PEMBROKE PINES, FL, 33029","Match","Exact","21011 JOHNSON ST, PEMBROKE PINES, FL, 33029",114771509,"R"
335613,"21011 RANDOLPH PLACE","DENVER","CO",80249,39.7973694830001,-104.743325065,113,"21011 RANDOLPH PLACE, DENVER, CO, 80249","Match","Non_Exact","21011 E RANDOLPH PL, DENVER, CO, 80249",640653229,"L"
335614,"21011 SOLSTICE","HOCKLEY","TX",77447,NA,NA,114,"21011 SOLSTICE, HOCKLEY, TX, 77447","No_Match",NA,NA,NA,NA
335615,"21011 SWEENEY ROAD SE","MAPLE VALLEY","WA",98038,47.4137941380001,-122.078378656,115,"21011 SWEENEY ROAD SE, MAPLE VALLEY, WA, 98038","Match","Exact","21011 SWEENEY RD SE, MAPLE VALLEY, WA, 98038",186637966,"L"
335616,"21011ST AVENUE","TOMS RIVER","NJ",8757,NA,NA,116,"21011ST AVENUE, TOMS RIVER, NJ, 8757","No_Match",NA,NA,NA,NA
335617,"21012 1/2 ROYAL BLVD","TORRANCE","CA",90502,33.8389604490001,-118.294765528,117,"21012 1/2 ROYAL BLVD, TORRANCE, CA, 90502","Match","Non_Exact","21012 S ROYAL BLVD, TORRANCE, CA, 90502",141669325,"L"
335618,"21012 FAIRGROUNDS RD","ONANCOCK","VA",23417,37.708514188,-75.719246894,118,"21012 FAIRGROUNDS RD, ONANCOCK, VA, 23417","Match","Exact","21012 FAIRGROUNDS RD, ONANCOCK, VA, 23417",114604588,"L"
335619,"21012 HALBURTON","BEACHWOOD","OH",44122,41.4668473740001,-81.5318284589999,119,"21012 HALBURTON, BEACHWOOD, OH, 44122","Match","Non_Exact","21012 HALBURTON RD, BEACHWOOD, OH, 44122",647776389,"R"
335620,"21012 KESWICK STREET","CANOGA PARK","CA",91304,34.210252472,-118.591040729,120,"21012 KESWICK STREET, CANOGA PARK, CA, 91304","Match","Exact","21012 KESWICK ST, CANOGA PARK, CA, 91304",141533261,"L"
335621,"21013 ASHBURN HEIGHTS","ASHBURN","VA",20148,39.034860404,-77.526744074,121,"21013 ASHBURN HEIGHTS, ASHBURN, VA, 20148","Match","Non_Exact","21013 ASHBURN HEIGHTS DR, ASHBURN, VA, 20148",645681563,"R"
335622,"21013 FAWN RIDGE DRIVE","LAGO VISTA","TX",78645,30.4650310100001,-97.986757258,122,"21013 FAWN RIDGE DRIVE, LAGO VISTA, TX, 78645","Match","Exact","21013 FAWN RIDGE DR, LAGO VISTA, TX, 78645",63921024,"L"
335623,"21013 LAKE VIENNA DRIVE","LAND O'LAKES","FL",34638,28.204560368,-82.4688035299999,123,"21013 LAKE VIENNA DRIVE, LAND O'LAKES, FL, 34638","Match","Non_Exact","21013 LAKE VIENNA DR, LAND O LAKES, FL, 34638",86405918,"R"
335624,"21013 LEMON SPRINGS TERRACE","ASHBURN","VA",20147,39.0353862580001,-77.480492999,124,"21013 LEMON SPRINGS TERRACE, ASHBURN, VA, 20147","Match","Exact","21013 LEMON SPRINGS TER, ASHBURN, VA, 20147",62336720,"L"
335625,"21013 NW 14TH PLACE UNIT 243","MIAMI GARDENS","FL",33169,25.9668763170001,-80.227128196,125,"21013 NW 14TH PLACE UNIT 243, MIAMI GARDENS, FL, 33169","Match","Non_Exact","21013 NW 14TH PL, MIAMI GARDENS, FL, 33169",651140096,"L"
335626,"21013 SOJOURN CT","GERMANTOWN","MD",20876,39.2038315660001,-77.263843078,126,"21013 SOJOURN CT, GERMANTOWN, MD, 20876","Match","Exact","21013 SOJOURN CT, GERMANTOWN, MD, 20876",62101544,"R"
335627,"21014 ALPINE DR","LAWRENCEBURG","IN",47025,39.1764667460001,-84.842588556,127,"21014 ALPINE DR, LAWRENCEBURG, IN, 47025","Match","Exact","21014 ALPINE DR, LAWRENCEBURG, IN, 47025",76858229,"R"
335628,"21014 RUBY VALLEY CT","CYPRESS","TX",77433,30.023475999,-95.750034697,128,"21014 RUBY VALLEY CT, CYPRESS, TX, 77433","Match","Exact","21014 RUBY VALLEY CT, CYPRESS, TX, 77433",625720715,"R"
335629,"21014 WHITE SHORE LANE","SPRING","TX",77379,30.0720952080001,-95.515566397,129,"21014 WHITE SHORE LANE, SPRING, TX, 77379","Match","Exact","21014 WHITE SHORE LN, SPRING, TX, 77379",624928871,"L"
335630,"21015 S BETHUNE PL","FERNDALE","MI",48220,42.4487415070001,-83.166735167,130,"21015 S BETHUNE PL, FERNDALE, MI, 48220","Match","Exact","21015 BETHUNE PL, FERNDALE, MI, 48220",69837044,"L"
335631,"21015","WASHINGTON","DC",20009,NA,NA,131,"21015, WASHINGTON, DC, 20009","No_Match",NA,NA,NA,NA
335632,"21016 SW 121 AVE","MIAMI","FL",33177,25.571039317,-80.388286261,132,"21016 SW 121 AVE, MIAMI, FL, 33177","Match","Exact","21016 SW 121ST AVE, MIAMI, FL, 33177",116073532,"R"
335633,"21017 N FIR LN","RATHDRUM","ID",83858,NA,NA,133,"21017 N FIR LN, RATHDRUM, ID, 83858","Tie",NA,NA,NA,NA
335634,"21017 SE 35TH PLACE","SAMMAMISH","WA",98075,47.5785264780001,-122.05899147,134,"21017 SE 35TH PLACE, SAMMAMISH, WA, 98075","Match","Exact","21017 SE 35TH PL, SAMMAMISH, WA, 98075",186958228,"R"
335635,"21018 GHIA STREET NE","EAST BETHEL","MN",55011,45.350247589,-93.161093087,135,"21018 GHIA STREET NE, EAST BETHEL, MN, 55011","Match","Exact","21018 GHIA ST NE, EAST BETHEL, MN, 55011",97540386,"L"
335636,"21018 NE 212TH AVE","VANCOUVER","WA",98604,45.7752054750001,-122.455288364,136,"21018 NE 212TH AVE, VANCOUVER, WA, 98604","Match","Non_Exact","21018 NE 212TH AVE, BATTLE GROUND, WA, 98604",158343595,"L"
335637,"21018 NEGAUNEE","SOUTHFIELD","MI",48033,42.4449549830001,-83.313208128,137,"21018 NEGAUNEE, SOUTHFIELD, MI, 48033","Match","Non_Exact","21018 NEGAUNEE ST, SOUTHFIELD, MI, 48033",69731704,"R"
335638,"21018 TERRACE VIEW LANE","KATY","TX",77449,29.868629082,-95.729219601,138,"21018 TERRACE VIEW LANE, KATY, TX, 77449","Match","Non_Exact","21018 TERRACE VIEW DR, KATY, TX, 77449",96014019,"L"
335639,"21018 W 81ST TER","LENEXA","KS",66220,NA,NA,139,"21018 W 81ST TER, LENEXA, KS, 66220","Tie",NA,NA,NA,NA
335640,"21019 47TH AVE WEST","LYNNWOOD","WA",98036,47.8084679300001,-122.296375183,140,"21019 47TH AVE WEST, LYNNWOOD, WA, 98036","Match","Exact","21019 47TH AVE W, LYNNWOOD, WA, 98036",647668210,"R"
335641,"21019 CROSS CREEK DR","SAUGUS","CA",91350,34.4602642190001,-118.503040406,141,"21019 CROSS CREEK DR, SAUGUS, CA, 91350","Match","Exact","21019 CROSS CREEK DR, SAUGUS, CA, 91350",627587407,"L"
335642,"21019TH AVENUENE","MINNEAPOLIS","MN",55416,NA,NA,142,"21019TH AVENUENE, MINNEAPOLIS, MN, 55416","No_Match",NA,NA,NA,NA
335643,"2101S MICHIGAN","CHICAGO","IL",60156,NA,NA,143,"2101S MICHIGAN, CHICAGO, IL, 60156","No_Match",NA,NA,NA,NA
335644,"2102 16TH AVE","MONROE","WI",53566,42.591881555,-89.6391417,144,"2102 16TH AVE, MONROE, WI, 53566","Match","Exact","2102 16TH AVE, MONROE, WI, 53566",48532607,"R"
335645,"2102 187TH AVENUE NE","REDMOND","WA",98052,47.6289203100001,-122.090326654,145,"2102 187TH AVENUE NE, REDMOND, WA, 98052","Match","Exact","2102 187TH AVE NE, REDMOND, WA, 98052",239772893,"R"
335646,"2102 26TH AVE NW","OLYMPIA","WA",98502,47.0705739270001,-122.926602306,146,"2102 26TH AVE NW, OLYMPIA, WA, 98502","Match","Exact","2102 26TH AVE NW, OLYMPIA, WA, 98502",630051213,"R"
335647,"2102 26TH STREET","CODY","WY",82414,44.5166075230001,-109.038269486,147,"2102 26TH STREET, CODY, WY, 82414","Match","Exact","2102 26TH ST, CODY, WY, 82414",612520922,"R"
335648,"2102 70TH WEST","UNIVERSITY PLACE","WA",98466,47.2409529280001,-122.529999265,148,"2102 70TH WEST, UNIVERSITY PLACE, WA, 98466","Match","Non_Exact","2102 70TH AVE W, UNIVERSITY PLACE, WA, 98466",184619068,"L"
335649,"2102 ACKMEN CT","BRIDGEWATER","NJ",8807,40.5803370310001,-74.6676400539999,149,"2102 ACKMEN CT, BRIDGEWATER, NJ, 8807","Match","Non_Exact","2102 ACKMAN CT, BRIDGEWATER, NJ, 08807",59955289,"R"
335650,"2102 AIRLINE DRIVE","FRIENDSWOOD","TX",77546,29.5043622700001,-95.176760861,150,"2102 AIRLINE DRIVE, FRIENDSWOOD, TX, 77546","Match","Exact","2102 AIRLINE DR, FRIENDSWOOD, TX, 77546",96712913,"L"
335651,"2102 ALDEN AVE","SCOTCH PLAINS","NJ",7076,NA,NA,151,"2102 ALDEN AVE, SCOTCH PLAINS, NJ, 7076","No_Match",NA,NA,NA,NA
335652,"2102 ALFRED DR APT B","TEADON","PA",19050,39.920876826,-75.251582233,152,"2102 ALFRED DR APT B, TEADON, PA, 19050","Match","Non_Exact","2102 ALFRED DR, YEADON, PA, 19050",616270082,"R"
335653,"2102 ASPEN WAY","WINSTON SALEM","NC",27106,36.137528306,-80.26918861,153,"2102 ASPEN WAY, WINSTON SALEM, NC, 27106","Match","Exact","2102 ASPEN WAY, WINSTON SALEM, NC, 27106",647235711,"R"
335654,"2102 AUBURN AVENUE","SAVANNAH","GA",31404,32.060292207,-81.057978549,154,"2102 AUBURN AVENUE, SAVANNAH, GA, 31404","Match","Non_Exact","2102 AUBURN ST, SAVANNAH, GA, 31404",6177647,"L"
335655,"2102 AVENUE J","DANBURY","TX",77534,29.223055893,-95.347021736,155,"2102 AVENUE J, DANBURY, TX, 77534","Match","Exact","2102 AVE J, DANBURY, TX, 77534",116577976,"L"
335656,"2102 BANK ST","BALTIMORE","MD",21231,39.286902995,-76.586704455,156,"2102 BANK ST, BALTIMORE, MD, 21231","Match","Exact","2102 BANK ST, BALTIMORE, MD, 21231",206458123,"L"
335657,"2102 BARNWELL DR APT A","FLORENCE","SC",29501,34.2319285630001,-79.7826992399999,157,"2102 BARNWELL DR APT A, FLORENCE, SC, 29501","Match","Exact","2102 BARNWELL DR, FLORENCE, SC, 29501",28875971,"R"
335658,"2102 BAYBERRY RD","EDGEWOOD","MD",21040,39.427724719,-76.301974346,158,"2102 BAYBERRY RD, EDGEWOOD, MD, 21040","Match","Exact","2102 BAYBERRY RD, EDGEWOOD, MD, 21040",191643960,"L"
335659,"2102 BEAL RD","PLANT CITY","FL",33567,27.9414865700001,-82.0858918439999,159,"2102 BEAL RD, PLANT CITY, FL, 33567","Match","Exact","2102 BEAL RD, PLANT CITY, FL, 33567",104592543,"L"
335660,"2102 BEATRICE AVE","EDINBURG","TX",78539,26.2673725230001,-98.190322091,160,"2102 BEATRICE AVE, EDINBURG, TX, 78539","Match","Exact","2102 BEATRICE AVE, EDINBURG, TX, 78539",627621421,"R"
335661,"2102 BEAVER SPRING LANE APT C","NORCROSS","GA",30071,NA,NA,161,"2102 BEAVER SPRING LANE APT C, NORCROSS, GA, 30071","No_Match",NA,NA,NA,NA
335662,"2102 BELCOURT AVE","NASHVILLE","TN",37212,36.136643716,-86.80101039,162,"2102 BELCOURT AVE, NASHVILLE, TN, 37212","Match","Exact","2102 BELCOURT AVE, NASHVILLE, TN, 37212",606379113,"R"
335663,"2102 BERKSHIRE ELM STREET","KATY","TX",77493,29.8036357460001,-95.789873649,163,"2102 BERKSHIRE ELM STREET, KATY, TX, 77493","Match","Exact","2102 BERKSHIRE ELM ST, KATY, TX, 77493",635274087,"L"
335664,"2102 BERRELL AVE","COLUMBUS","OH",43219,40.0112339630001,-82.955500937,164,"2102 BERRELL AVE, COLUMBUS, OH, 43219","Match","Exact","2102 BERRELL AVE, COLUMBUS, OH, 43219",218653113,"R"
335665,"2102 BISCAYNE DRIVE","LITTLE ROCK","AR",72227,34.772441631,-92.363870433,165,"2102 BISCAYNE DRIVE, LITTLE ROCK, AR, 72227","Match","Exact","2102 BISCAYNE DR, LITTLE ROCK, AR, 72227",83503506,"L"
335666,"2102 BLACK ISLAND S 204","LAS VEGAS","NV",89128,NA,NA,166,"2102 BLACK ISLAND S 204, LAS VEGAS, NV, 89128","No_Match",NA,NA,NA,NA
335667,"2102 BOCA RIO COURT","PFLUGERVILLE","TX",78660,30.4810900520001,-97.580079767,167,"2102 BOCA RIO COURT, PFLUGERVILLE, TX, 78660","Match","Exact","2102 BOCA RIO CT, PFLUGERVILLE, TX, 78660",64000020,"R"
335668,"2102 BRADDISH AVENUE","BALTIMORE","MD",21216,39.311553465,-76.661329886,168,"2102 BRADDISH AVENUE, BALTIMORE, MD, 21216","Match","Exact","2102 BRADDISH AVE, BALTIMORE, MD, 21216",206414013,"L"
335669,"2102 BRIDGEWATER DR","FAIRBANKS","AK",99709,64.862959205,-147.773318761,169,"2102 BRIDGEWATER DR, FAIRBANKS, AK, 99709","Match","Exact","2102 BRIDGEWATER DR, FAIRBANKS, AK, 99709",190892587,"R"
335670,"2102 BUNGALOW PARK DRIVE","MARIETTA","GA",30066,34.0004606200001,-84.504945724,170,"2102 BUNGALOW PARK DRIVE, MARIETTA, GA, 30066","Match","Exact","2102 BUNGALOW PARK DR, MARIETTA, GA, 30066",637665489,"R"
335671,"2102 CARRIAGE DRIVE SW BLDG F","OLYMPIA","WA",98502,47.0304115660001,-122.925392821,171,"2102 CARRIAGE DRIVE SW BLDG F, OLYMPIA, WA, 98502","Match","Exact","2102 CARRIAGE DR SW, OLYMPIA, WA, 98502",642491883,"L"
335672,"2102 CEDAR BEND DR","GR BLANC","MI",48439,42.9443144620001,-83.623404692,172,"2102 CEDAR BEND DR, GR BLANC, MI, 48439","Match","Non_Exact","2102 CEDAR BEND DR, GRAND BLANC, MI, 48439",633574918,"L"
335673,"2102 CEDAR GROVE DRIVE","DURHAM","NC",27703,35.922559269,-78.827045997,173,"2102 CEDAR GROVE DRIVE, DURHAM, NC, 27703","Match","Exact","2102 CEDAR GROVE DR, DURHAM, NC, 27703",633681522,"R"
335674,"2102 CHAPMAN RD","HYATTSVILLE","MD",20783,38.9786179540001,-76.974520602,174,"2102 CHAPMAN RD, HYATTSVILLE, MD, 20783","Match","Exact","2102 CHAPMAN RD, HYATTSVILLE, MD, 20783",76303696,"L"
335675,"2102 CONEY ISLAND AVENUE APT 1R","BROOKLYN","NY",11223,40.6063161340001,-73.961812013,175,"2102 CONEY ISLAND AVENUE APT 1R, BROOKLYN, NY, 11223","Match","Exact","2102 CONEY ISLAND AVE, BROOKLYN, NY, 11223",59089899,"R"
335676,"2102 COOLIDGE DR","ARLINGTON","TX",76011,32.766741847,-97.107489303,176,"2102 COOLIDGE DR, ARLINGTON, TX, 76011","Match","Exact","2102 COOLIDGE DR, ARLINGTON, TX, 76011",101907510,"L"
335677,"2102 COUNTRY AIR LANE","HILLSBOROUGH","NC",27278,36.1043868520001,-79.053686198,177,"2102 COUNTRY AIR LANE, HILLSBOROUGH, NC, 27278","Match","Exact","2102 COUNTRY AIR LN, HILLSBOROUGH, NC, 27278",72407517,"L"
335678,"2102 COWAN AVE","SAVANNAH","GA",31405,32.0360336890001,-81.147892615,178,"2102 COWAN AVE, SAVANNAH, GA, 31405","Match","Exact","2102 COWAN AVE, SAVANNAH, GA, 31405",6172183,"R"
335679,"2102 CR 3406","JACKSONVILLE","TX",75766,32.036386253,-95.3458686,179,"2102 CR 3406, JACKSONVILLE, TX, 75766","Match","Exact","2102 CO RD 3406, JACKSONVILLE, TX, 75766",649864598,"R"
335680,"2102 CRESTVIEW DRIVE","EMPORIA","KS",66801,38.430886011,-96.207908839,180,"2102 CRESTVIEW DRIVE, EMPORIA, KS, 66801","Match","Exact","2102 CRESTVIEW DR, EMPORIA, KS, 66801",10972183,"R"
335681,"2102 DARTMOUTH DR","ALEXANDRIA","VA",22307,38.769191241,-77.06653175,181,"2102 DARTMOUTH DR, ALEXANDRIA, VA, 22307","Match","Exact","2102 DARTMOUTH DR, ALEXANDRIA, VA, 22307",75990014,"R"
335682,"2102 DEL HOLLOW ST","LAKEWOOD","CA",90712,33.847487727,-118.166134899,182,"2102 DEL HOLLOW ST, LAKEWOOD, CA, 90712","Match","Exact","2102 DEL HOLLOW ST, LAKEWOOD, CA, 90712",642869780,"R"
335683,"2102 DOGOON DR","LOUISVILLE","KY",40223,38.2748509520001,-85.5688854059999,183,"2102 DOGOON DR, LOUISVILLE, KY, 40223","Match","Exact","2102 DOGOON DR, LOUISVILLE, KY, 40223",96976359,"L"
335684,"2102 E 16 RD","MANTON","MI",49663,44.4108559060001,-85.538060232,184,"2102 E 16 RD, MANTON, MI, 49663","Match","Exact","2102 E 16 RD, MANTON, MI, 49663",146091911,"R"
335685,"2102 E CHEVY CHASE DR","GLENDALE","CA",91206,34.156579263,-118.222422906,185,"2102 E CHEVY CHASE DR, GLENDALE, CA, 91206","Match","Exact","2102 E CHEVY CHASE DR, GLENDALE, CA, 91206",141609791,"R"
335686,"2102 E EUCLID AVE","CENTENNIAL","CO",80121,39.599262894,-104.963616323,186,"2102 E EUCLID AVE, CENTENNIAL, CO, 80121","Match","Exact","2102 E EUCLID AVE, CENTENNIAL, CO, 80121",177337723,"R"
335687,"2102 E MARLBORO AVE UNIT 204","LANDOVER","MD",20785,NA,NA,187,"2102 E MARLBORO AVE UNIT 204, LANDOVER, MD, 20785","No_Match",NA,NA,NA,NA
335688,"2102 EAST 21ST STREET","AUSTIN","TX",78722,30.282174033,-97.71961221,188,"2102 EAST 21ST STREET, AUSTIN, TX, 78722","Match","Exact","2102 E 21ST ST, AUSTIN, TX, 78722",63946908,"L"
335689,"2102 EAST 98TH PLACE","CHICAGO","IL",60617,41.716163613,-87.573797634,189,"2102 EAST 98TH PLACE, CHICAGO, IL, 60617","Match","Exact","2102 E 98TH PL, CHICAGO, IL, 60617",111777038,"L"
335690,"2102 ENGLAND COURT","STOCKTON","CA",95206,37.910372388,-121.314870418,190,"2102 ENGLAND COURT, STOCKTON, CA, 95206","Match","Exact","2102 ENGLAND CT, STOCKTON, CA, 95206",133877398,"R"
335691,"2102 FLINTLOCK BLVD","KISSIMMEE","FL",34743,28.314134686,-81.35863624,191,"2102 FLINTLOCK BLVD, KISSIMMEE, FL, 34743","Match","Exact","2102 FLINTLOCK BLVD, KISSIMMEE, FL, 34743",627437227,"L"
335692,"2102 FM 132","CROCKET","TX",75835,31.2755789070001,-95.604125075,192,"2102 FM 132, CROCKET, TX, 75835","Match","Non_Exact","2102 FM 132, CROCKETT, TX, 75835",22001936,"L"
335693,"2102 FOUNTAIN VIEW DR APT 52 C","HOUSTON","TX",77057,29.745685855,-95.485476191,193,"2102 FOUNTAIN VIEW DR APT 52 C, HOUSTON, TX, 77057","Match","Exact","2102 FOUNTAIN VIEW DR, HOUSTON, TX, 77057",96032989,"R"
335694,"2102 GARFIELD AVENUE","WEST LAWN","PA",19609,40.324497926,-75.9873826149999,194,"2102 GARFIELD AVENUE, WEST LAWN, PA, 19609","Match","Exact","2102 GARFIELD AVE, WEST LAWN, PA, 19609",80372415,"R"
335695,"2102 GAYBROOK ROAD","WINDSOR MILL","MD",21244,39.3184400310001,-76.755430261,195,"2102 GAYBROOK ROAD, WINDSOR MILL, MD, 21244","Match","Exact","2102 GAYBROOK RD, WINDSOR MILL, MD, 21244",191482913,"L"
335696,"2102 GILMAN ST","DURHAM","NC",27703,NA,NA,196,"2102 GILMAN ST, DURHAM, NC, 27703","No_Match",NA,NA,NA,NA
335697,"2102 GLENN LAKES LANE","MISSOURI CITY","TX",77459,29.562426794,-95.534548032,197,"2102 GLENN LAKES LANE, MISSOURI CITY, TX, 77459","Match","Exact","2102 GLENN LAKES LN, MISSOURI CITY, TX, 77459",227761673,"R"
335698,"2102 GRAMERCY PARK DRIVE","GREENSBORO","NC",27406,36.0428190970001,-79.712051113,198,"2102 GRAMERCY PARK DRIVE, GREENSBORO, NC, 27406","Match","Exact","2102 GRAMERCY PARK DR, GREENSBORO, NC, 27406",131098879,"R"
335699,"2102 GREAT NORTHERN DR","FARGO","ND",58102,46.886304421,-96.813782453,199,"2102 GREAT NORTHERN DR, FARGO, ND, 58102","Match","Exact","2102 GREAT NORTHERN DR, FARGO, ND, 58102",635755791,"L"
335700,"2102 GROSS AVE NE","CANTON","OH",44714,40.8204243380001,-81.35570481,200,"2102 GROSS AVE NE, CANTON, OH, 44714","Match","Exact","2102 GROSS AVE NE, CANTON, OH, 44714",64684127,"R"
335701,"2102 GUNNELLS LN","OXFORD","AL",36203,33.5853736400001,-85.8208260389999,201,"2102 GUNNELLS LN, OXFORD, AL, 36203","Match","Exact","2102 GUNNELLS LN, OXFORD, AL, 36203",66964782,"R"
335702,"2102 HARRIS AVE APT 2","BELLINGHAM","WA",98225,48.720125357,-122.490086152,202,"2102 HARRIS AVE APT 2, BELLINGHAM, WA, 98225","Match","Exact","2102 HARRIS AVE, BELLINGHAM, WA, 98225",183774168,"R"
335703,"2102 HARRISBURG PIKE","LANCASTER","PA",17601,40.069133934,-76.356934038,203,"2102 HARRISBURG PIKE, LANCASTER, PA, 17601","Match","Exact","2102 HARRISBURG PIKE, LANCASTER, PA, 17601",179660774,"L"
335704,"2102 HARVEY ROAD","WILMINGTON","DE",19810,39.8121012410001,-75.491726801,204,"2102 HARVEY ROAD, WILMINGTON, DE, 19810","Match","Exact","2102 HARVEY RD, WILMINGTON, DE, 19810",187295109,"L"
335705,"2102 HIGHLAND AVE","BERWYN","IL",60402,41.8517223270001,-87.781126362,205,"2102 HIGHLAND AVE, BERWYN, IL, 60402","Match","Exact","2102 HIGHLAND AVE, BERWYN, IL, 60402",605107839,"R"
335706,"2102 HILLARD ROAD","RICHMOND","VA",23228,37.616776024,-77.472289223,206,"2102 HILLARD ROAD, RICHMOND, VA, 23228","Match","Non_Exact","2102 HILLIARD RD, RICHMOND, VA, 23228",106647779,"R"
335707,"2102 HOBSON AVENUE","SAVANNAH","GA",31405,32.0597914570001,-81.137768541,207,"2102 HOBSON AVENUE, SAVANNAH, GA, 31405","Match","Exact","2102 HOBSON AVE, SAVANNAH, GA, 31405",6169897,"R"
335708,"2102 HOLLY DRIVE","LOS ANGELES","CA",90068,34.109228844,-118.329841095,208,"2102 HOLLY DRIVE, LOS ANGELES, CA, 90068","Match","Exact","2102 HOLLY DR, LOS ANGELES, CA, 90068",142726652,"R"
335709,"2102 HOMEDALE DRIVE","AUSTIN","TX",78704,30.255487901,-97.783860251,209,"2102 HOMEDALE DRIVE, AUSTIN, TX, 78704","Match","Exact","2102 HOMEDALE DR, AUSTIN, TX, 78704",63943546,"R"
335710,"2102 HOYT AVE S","LONG ISLAND CITY","NY",11102,NA,NA,210,"2102 HOYT AVE S, LONG ISLAND CITY, NY, 11102","No_Match",NA,NA,NA,NA
335711,"2102 HUNTER TRAIL","CORNING","IA",50841,40.97945968,-94.7219389799999,211,"2102 HUNTER TRAIL, CORNING, IA, 50841","Match","Exact","2102 HUNTER TRL, CORNING, IA, 50841",639897415,"L"
335712,"2102 JUDD AVENUE","GLENCOE","MN",55336,44.7807874200001,-94.149399132,212,"2102 JUDD AVENUE, GLENCOE, MN, 55336","Match","Non_Exact","2102 JUDD AVE N, GLENCOE, MN, 55336",646410526,"R"
335713,"2102 KUERBITZ DR","LANSING","MI",48906,42.7559623710001,-84.5948598319999,213,"2102 KUERBITZ DR, LANSING, MI, 48906","Match","Exact","2102 KUERBITZ DR, LANSING, MI, 48906",17496218,"R"
335714,"2102 LAWN CREST","MISSOURI CITY","TX",77489,29.596914054,-95.50670244,214,"2102 LAWN CREST, MISSOURI CITY, TX, 77489","Match","Non_Exact","2102 LAWN CREST DR, MISSOURI CITY, TX, 77489",636831928,"L"
335715,"2102 LEWIS STREET","FLINT","MI",48506,43.0350029080001,-83.675098296,215,"2102 LEWIS STREET, FLINT, MI, 48506","Match","Exact","2102 LEWIS ST, FLINT, MI, 48506",69568370,"R"
335716,"2102 LINDA SUE CIRCLE","FORT PIERCE","FL",34982,27.417841104,-80.3464644049999,216,"2102 LINDA SUE CIRCLE, FORT PIERCE, FL, 34982","Match","Exact","2102 LINDA SUE CIR, FORT PIERCE, FL, 34982",640629149,"R"
335717,"2102 LIVE OAK LANE","COLUMBIA","MO",65202,38.985967816,-92.3066952409999,217,"2102 LIVE OAK LANE, COLUMBIA, MO, 65202","Match","Exact","2102 LIVE OAK LN, COLUMBIA, MO, 65202",23492266,"L"
335718,"2102 LIVINGSTON STREET","BETHLEHEM","PA",18017,40.642245632,-75.345143094,218,"2102 LIVINGSTON STREET, BETHLEHEM, PA, 18017","Match","Exact","2102 LIVINGSTON ST, BETHLEHEM, PA, 18017",136879902,"R"
335719,"2102 LUGINE AVENUE","GWYNN OAK","MD",21207,39.3333693710001,-76.743313612,219,"2102 LUGINE AVENUE, GWYNN OAK, MD, 21207","Match","Exact","2102 LUGINE AVE, GWYNN OAK, MD, 21207",191555153,"L"
335720,"2102 MADELYN DR UNIT 8","KNOXVILLE","IA",50138,41.3194252490001,-93.118160592,220,"2102 MADELYN DR UNIT 8, KNOXVILLE, IA, 50138","Match","Exact","2102 MADELYN DR, KNOXVILLE, IA, 50138",651111740,"R"
335721,"2102 MARVONNE ROAD","LAWRENCE","KS",66047,38.9466640580001,-95.270449027,221,"2102 MARVONNE ROAD, LAWRENCE, KS, 66047","Match","Exact","2102 MARVONNE RD, LAWRENCE, KS, 66047",17684333,"L"
335722,"2102 MARY CATHERINE","LOUISVILLE","KY",40216,38.2009917500001,-85.8157434829999,222,"2102 MARY CATHERINE, LOUISVILLE, KY, 40216","Match","Non_Exact","2102 MARY CATHERINE DR, LOUISVILLE, KY, 40216",96837154,"L"
335723,"2102 MENDOCINO BLVD","SAN DIEGO","CA",92107,32.743169363,-117.236635556,223,"2102 MENDOCINO BLVD, SAN DIEGO, CA, 92107","Match","Exact","2102 MENDOCINO BLVD, SAN DIEGO, CA, 92107",639047899,"L"
335724,"2102 MERRIWOOD CT","SANFORD","NC",27330,35.481801503,-79.218193303,224,"2102 MERRIWOOD CT, SANFORD, NC, 27330","Match","Exact","2102 MERRIWOOD CT, SANFORD, NC, 27330",72072522,"L"
335725,"2102 MOORESVILL PIKE","CULLEOKA","TN",38451,NA,NA,225,"2102 MOORESVILL PIKE, CULLEOKA, TN, 38451","No_Match",NA,NA,NA,NA
335726,"2102 MOUNTAIN LAKE DRIVE","KINGWOOD","TX",77345,30.0529266620001,-95.153026364,226,"2102 MOUNTAIN LAKE DRIVE, KINGWOOD, TX, 77345","Match","Exact","2102 MOUNTAIN LAKE DR, KINGWOOD, TX, 77345",96141509,"R"
335727,"2102 N 194TH ST","SHORELINE","WA",98133,47.770055083,-122.334932971,227,"2102 N 194TH ST, SHORELINE, WA, 98133","Match","Exact","2102 N 194TH ST, SHORELINE, WA, 98133",639170792,"L"
335728,"2102 N 20TH ST","GRAND JUNCTION","CO",81501,39.086572317,-108.542502493,228,"2102 N 20TH ST, GRAND JUNCTION, CO, 81501","Match","Exact","2102 20TH ST, GRAND JCT, CO, 81501",122433714,"R"
335729,"2102 N 2OTH ST","GRAND JUNCTION","CO",81501,39.0773950390001,-108.540636872,229,"2102 N 2OTH ST, GRAND JUNCTION, CO, 81501","Match","Non_Exact","2102 NORTH AVE, GRAND JCT, CO, 81501",614196479,"L"
335730,"2102 N CORLETT AVE","LOS ANGELES","CA",90059,33.9115023430001,-118.258014644,230,"2102 N CORLETT AVE, LOS ANGELES, CA, 90059","Match","Exact","2102 N CORLETT AVE, LOS ANGELES, CA, 90059",141673809,"R"
335731,"2102 N PEARL","TACOMA","WA",98406,47.26742654,-122.515906285,231,"2102 N PEARL, TACOMA, WA, 98406","Match","Non_Exact","2102 N PEARL ST, TACOMA, WA, 98406",633294526,"L"
335732,"2102 NAVARO RD","WILMINGTON","DE",19803,39.800929453,-75.536504657,232,"2102 NAVARO RD, WILMINGTON, DE, 19803","Match","Exact","2102 NAVARO RD, WILMINGTON, DE, 19803",187256220,"L"
335733,"2102 NORTH FOUNTAIN VALLEY DRIVE","MISSOURI CITY","TX",77459,29.570458219,-95.536457082,233,"2102 NORTH FOUNTAIN VALLEY DRIVE, MISSOURI CITY, TX, 77459","Match","Exact","2102 N FOUNTAIN VALLEY DR, MISSOURI CITY, TX, 77459",78271000,"L"
335734,"2102 NORTH SCOTT STREET APT 108","ARLINGTON","VA",22209,38.8982808230001,-77.0815361149999,234,"2102 NORTH SCOTT STREET APT 108, ARLINGTON, VA, 22209","Match","Exact","2102 N SCOTT ST, ARLINGTON, VA, 22209",76469800,"L"
335735,"2102 NW CORPORATE BLVD","BOCA RATON","FL",33431,26.370752005,-80.125505972,235,"2102 NW CORPORATE BLVD, BOCA RATON, FL, 33431","Match","Exact","2102 NW CORPORATE BLVD, BOCA RATON, FL, 33431",115301894,"L"
335736,"2102 OAK BOWERY ROAD","OPELIKA","AL",36801,32.674358598,-85.402113336,236,"2102 OAK BOWERY ROAD, OPELIKA, AL, 36801","Match","Exact","2102 OAK BOWERY RD, OPELIKA, AL, 36801",1599065,"L"
335737,"2102 OAK MEADOW CR","SOUTH DAYTONA","FL",32119,29.1655195490001,-81.018098962,237,"2102 OAK MEADOW CR, SOUTH DAYTONA, FL, 32119","Match","Exact","2102 OAK MEADOW CIR, S DAYTONA, FL, 32119",94526983,"L"
335738,"2102 OAK MEADOW","GARLAND","TX",75040,32.9414396770001,-96.5981169139999,238,"2102 OAK MEADOW, GARLAND, TX, 75040","Match","Non_Exact","2102 OAK MEADOW CIR, GARLAND, TX, 75040",103170172,"R"
335739,"2102 OLD STERLINGTON ROAD","STERLINGTON","LA",71280,32.6840423450001,-92.049724342,239,"2102 OLD STERLINGTON ROAD, STERLINGTON, LA, 71280","Match","Exact","2102 OLD STERLINGTON RD, STERLINGTON, LA, 71280",612358062,"L"
335740,"2102 OPAL FIELD LANE","ROSENBERG","TX",77469,29.504395458,-95.715096536,240,"2102 OPAL FIELD LANE, ROSENBERG, TX, 77469","Match","Exact","2102 OPAL FIELD LN, ROSENBERG, TX, 77469",648704739,"R"
335741,"2102 OWL CREEK ROAD","NASHVILLE","IN",47448,39.2271110410001,-86.28475014,241,"2102 OWL CREEK ROAD, NASHVILLE, IN, 47448","Match","Exact","2102 OWL CREEK RD, NASHVILLE, IN, 47448",43526421,"R"
335742,"2102 PATTIZ AVE","LONG BEACH","CA",90815,33.793687644,-118.092768948,242,"2102 PATTIZ AVE, LONG BEACH, CA, 90815","Match","Exact","2102 PATTIZ AVE, LONG BEACH, CA, 90815",642861113,"R"
335743,"2102 PETERSON LANE","SANTA ROSA","CA",95403,38.471349441,-122.763971058,243,"2102 PETERSON LANE, SANTA ROSA, CA, 95403","Match","Exact","2102 PETERSON LN, SANTA ROSA, CA, 95403",67489386,"R"
335744,"2102 QUAIL POINT CIRCLE","MEDFORD","OR",97504,42.309966563,-122.837858735,244,"2102 QUAIL POINT CIRCLE, MEDFORD, OR, 97504","Match","Exact","2102 QUAIL POINT CIR, MEDFORD, OR, 97504",155576581,"L"
335745,"2102 QUARRY ROAD","AUSTIN","TX",78703,30.284593081,-97.766173468,245,"2102 QUARRY ROAD, AUSTIN, TX, 78703","Match","Exact","2102 QUARRY RD, AUSTIN, TX, 78703",63941499,"R"
335746,"2102 RED OAK CIRCLE","ROUND ROCK","TX",78681,30.529221534,-97.7139119879999,246,"2102 RED OAK CIRCLE, ROUND ROCK, TX, 78681","Match","Exact","2102 RED OAK CIR, ROUND ROCK, TX, 78681",126453823,"L"
335747,"2102 RIO DRIVE","RAPID CITY","SD",57702,44.0661679,-103.254628366,247,"2102 RIO DRIVE, RAPID CITY, SD, 57702","Match","Exact","2102 RIO DR, RAPID CITY, SD, 57702",205508033,"R"
335748,"2102 ROBIN STREET","SLIDELL","LA",70460,30.2916930490001,-89.839693123,248,"2102 ROBIN STREET, SLIDELL, LA, 70460","Match","Exact","2102 ROBIN ST, SLIDELL, LA, 70460",111248023,"R"
335749,"2102 S 8TH STRET","TACOMA","WA",98405,NA,NA,249,"2102 S 8TH STRET, TACOMA, WA, 98405","No_Match",NA,NA,NA,NA
335750,"2102 S CALHOUN ST","FORT WAYNE","IN",46802,41.0662292040001,-85.1380684229999,250,"2102 S CALHOUN ST, FORT WAYNE, IN, 46802","Match","Exact","2102 S CALHOUN ST, FORT WAYNE, IN, 46802",6379543,"R"
335751,"2102 SAINT PAUL STREET","BALTIMORE","MD",21218,39.3133787880001,-76.615139432,251,"2102 SAINT PAUL STREET, BALTIMORE, MD, 21218","Match","Exact","2102 SAINT PAUL ST, BALTIMORE, MD, 21218",206418955,"L"
335752,"2102 SCARLET OAKS DR","IRVING","TX",75060,32.792769261,-96.9371017889999,252,"2102 SCARLET OAKS DR, IRVING, TX, 75060","Match","Exact","2102 SCARLET OAKS DR, IRVING, TX, 75060",102893254,"L"
335753,"2102 SE ASH ST UNIT 2","PORTLAND","OR",97214,45.521444289,-122.644460727,253,"2102 SE ASH ST UNIT 2, PORTLAND, OR, 97214","Match","Non_Exact","2102 SE ASH ST, PORTLAND, OR, 97214",157507080,"R"
335754,"2102 SELIM AVE","CINCINNATI","OH",45214,39.120452308,-84.55185915,254,"2102 SELIM AVE, CINCINNATI, OH, 45214","Match","Exact","2102 SELIM AVE, CINCINNATI, OH, 45214",103922753,"R"
335755,"2102 SHALLCROSS","WILMINGTON","DE",19806,39.7627143190001,-75.564240067,255,"2102 SHALLCROSS, WILMINGTON, DE, 19806","Match","Non_Exact","2102 SHALLCROSS AVE, WILMINGTON, DE, 19806",187256641,"L"
335756,"2102 SHALLOWFORD DRIVE","VALPARAISO","IN",46383,41.4807489030001,-87.035445048,256,"2102 SHALLOWFORD DRIVE, VALPARAISO, IN, 46383","Match","Exact","2102 SHALLOWFORD DR, VALPARAISO, IN, 46383",119928599,"L"
335757,"2102 SINGLETREE AVE","AUSTIN","TX",78727,30.420488332,-97.6940669419999,257,"2102 SINGLETREE AVE, AUSTIN, TX, 78727","Match","Exact","2102 SINGLETREE AVE, AUSTIN, TX, 78727",63927120,"R"
335758,"2102 SOUTH 47TH STREET","OMAHA","NE",68106,41.2398051690001,-95.984231277,258,"2102 SOUTH 47TH STREET, OMAHA, NE, 68106","Match","Exact","2102 S 47TH ST, OMAHA, NE, 68106",116983854,"R"
335759,"2102 SOUTH BROAD AVENUE","LANETT","AL",36863,32.851136851,-85.188824058,259,"2102 SOUTH BROAD AVENUE, LANETT, AL, 36863","Match","Non_Exact","2102 BROAD AVE, LANETT, AL, 36863",3058710,"L"
335760,"2102 STONEBRIDGE CT","WHEATON","IL",60007,41.8419536530001,-88.137112224,260,"2102 STONEBRIDGE CT, WHEATON, IL, 60007","Match","Non_Exact","2102 STONEBRIDGE CT, WHEATON, IL, 60189",112734697,"L"
335761,"2102 STONEWOOD HEIGHTS COURT","PEARLAND","TX",77581,29.5708213890001,-95.270661015,261,"2102 STONEWOOD HEIGHTS COURT, PEARLAND, TX, 77581","Match","Exact","2102 STONEWOOD HEIGHTS CT, PEARLAND, TX, 77581",627722735,"R"
335762,"2102 SUNRISE DR","JACKSONVILLE","FL",32217,30.3130589790001,-81.536228486,262,"2102 SUNRISE DR, JACKSONVILLE, FL, 32217","Match","Non_Exact","2102 SUNRISE DR, JACKSONVILLE, FL, 32246",83905117,"R"
335763,"2102 SW 30TH ST","CAPE CORAL","FL",33914,26.596885958,-82.016707351,263,"2102 SW 30TH ST, CAPE CORAL, FL, 33914","Match","Exact","2102 SW 30TH ST, CAPE CORAL, FL, 33914",118002063,"R"
335764,"2102 SW HOLDEN ST","SEATTLE","WA",98106,47.5336947420001,-122.360669394,264,"2102 SW HOLDEN ST, SEATTLE, WA, 98106","Match","Exact","2102 SW HOLDEN ST, SEATTLE, WA, 98106",186591148,"R"
335765,"2102 VALENCIA AVENUE","FORT PIERCE","FL",34946,27.472033932,-80.345955176,265,"2102 VALENCIA AVENUE, FORT PIERCE, FL, 34946","Match","Exact","2102 VALENCIA AVE, FORT PIERCE, FL, 34946",635518506,"R"
335766,"2102 VALLEY DRIVE","UNION CITY","TN",38261,36.3979620740001,-89.039450409,266,"2102 VALLEY DRIVE, UNION CITY, TN, 38261","Match","Exact","2102 VALLEY DR, UNION CITY, TN, 38261",30903111,"R"
335767,"2102 VIRGINIA AVE","EVERETT","WA",98201,47.9895882390001,-122.197044799,267,"2102 VIRGINIA AVE, EVERETT, WA, 98201","Match","Exact","2102 VIRGINIA AVE, EVERETT, WA, 98201",187745326,"R"
335768,"2102 W 68TH STREET","STILLWATER","OK",74074,36.0434699360001,-97.0822040739999,268,"2102 W 68TH STREET, STILLWATER, OK, 74074","Match","Exact","2102 W 68TH ST, STILLWATER, OK, 74074",166387199,"L"
335769,"2102 W 68TH","STILLWATER","OK",74074,36.0434699360001,-97.0822040739999,269,"2102 W 68TH, STILLWATER, OK, 74074","Match","Non_Exact","2102 W 68TH ST, STILLWATER, OK, 74074",166387199,"L"
335770,"2102 W COYOTE TRAIL","ROGERS","AR",72758,36.293389077,-94.150966965,270,"2102 W COYOTE TRAIL, ROGERS, AR, 72758","Match","Exact","2102 W COYOTE TRL, ROGERS, AR, 72758",640693562,"L"
335771,"2102 W SIBLEY STREET","PARK RIDGE","IL",60068,42.0177937220001,-87.853385454,271,"2102 W SIBLEY STREET, PARK RIDGE, IL, 60068","Match","Exact","2102 W SIBLEY ST, PARK RIDGE, IL, 60068",111732110,"R"
335772,"2102 WABASH RD","LANSING","MI",48910,42.6982732160001,-84.5213494719999,272,"2102 WABASH RD, LANSING, MI, 48910","Match","Exact","2102 WABASH RD, LANSING, MI, 48910",17503646,"R"
335773,"2102 WALLIE ANN CT","LOUISVILLE","KY",40210,38.220922456,-85.7899546039999,273,"2102 WALLIE ANN CT, LOUISVILLE, KY, 40210","Match","Exact","2102 WALLIE ANN CT, LOUISVILLE, KY, 40210",96843209,"R"
335774,"2102 WENTE PL","FLORISSANT","MO",63031,38.797748878,-90.3807860109999,274,"2102 WENTE PL, FLORISSANT, MO, 63031","Match","Exact","2102 WENTE PL, FLORISSANT, MO, 63031",100172760,"L"
335775,"2102 WEST QUAIL AVENUE SUITE 4","PHOENIX","AZ",85027,33.6783925170001,-112.102745341,275,"2102 WEST QUAIL AVENUE SUITE 4, PHOENIX, AZ, 85027","Match","Exact","2102 W QUAIL AVE, PHOENIX, AZ, 85027",128322811,"R"
335776,"2102 WESTMORELAND DRIVE","BREA","CA",92821,33.913154401,-117.874589247,276,"2102 WESTMORELAND DRIVE, BREA, CA, 92821","Match","Non_Exact","2102 E WESTMORELAND DR, BREA, CA, 92821",640194173,"R"
335777,"2102 WILLIAMSBURG WAY","BIRMINGHAM","AL",35223,33.4883997910001,-86.784510862,277,"2102 WILLIAMSBURG WAY, BIRMINGHAM, AL, 35223","Match","Exact","2102 WILLIAMSBURG WAY, BIRMINGHAM, AL, 35223",81648552,"L"
335778,"2102 WISTERIA ROAD","MACUNGIE","PA",18062,40.5298197550001,-75.597027574,278,"2102 WISTERIA ROAD, MACUNGIE, PA, 18062","Match","Exact","2102 WISTERIA RD, MACUNGIE, PA, 18062",80785885,"L"
335779,"2102 WOODHAVEN","MESQUITE","TX",75181,32.7426284160001,-96.5510207359999,279,"2102 WOODHAVEN, MESQUITE, TX, 75181","Match","Non_Exact","2102 WOODHAVEN LN, MESQUITE, TX, 75181",629560941,"R"
335780,"21020 80TH AVENUE","FRANKFORT","IL",60423,41.5085640520001,-87.809638276,280,"21020 80TH AVENUE, FRANKFORT, IL, 60423","Match","Exact","21020 80TH AVE, FRANKFORT, IL, 60423",111551139,"R"
335781,"21020 BRIAR TIMBER DRIVE","PORTER","TX",77365,30.0995154840001,-95.252661707,281,"21020 BRIAR TIMBER DRIVE, PORTER, TX, 77365","Match","Exact","21020 BRIAR TIMBER DR, PORTER, TX, 77365",79286719,"R"
335782,"21020 COUNTY ROAD 6-5","WELDONA","CO",80653,NA,NA,282,"21020 COUNTY ROAD 6-5, WELDONA, CO, 80653","No_Match",NA,NA,NA,NA
335783,"21020 NE 14TH AVE","MIAMI","FL",33179,25.9692614150001,-80.174420003,283,"21020 NE 14TH AVE, MIAMI, FL, 33179","Match","Non_Exact","21020 NE 14TH AVE, MIAMI, FL, 33179",116034812,"L"
335784,"21020 PIONEER WAY","EDMONDS","WA",98026,47.808783938,-122.350538095,284,"21020 PIONEER WAY, EDMONDS, WA, 98026","Match","Exact","21020 PIONEER WAY, EDMONDS, WA, 98026",651793782,"L"
335785,"21020 REDWOOD ROAD","CASTRO VALLEY","CA",94546,NA,NA,285,"21020 REDWOOD ROAD, CASTRO VALLEY, CA, 94546","No_Match",NA,NA,NA,NA
335786,"21021 109TH PL SE 304","KENT","WA",98031,47.4129632610001,-122.195630672,286,"21021 109TH PL SE 304, KENT, WA, 98031","Match","Exact","21021 109TH PL SE, KENT, WA, 98031",187020872,"R"
335787,"21021 66TH AVE NE","ARLINGTON","WA",98223,48.1867824400001,-122.140648107,287,"21021 66TH AVE NE, ARLINGTON, WA, 98223","Match","Exact","21021 66TH AVE NE, ARLINGTON, WA, 98223",649645418,"R"
335788,"21021 ALDINE WESTFIELD 5310","HUMBLE","TX",77338,30.0220538250001,-95.3805068199999,288,"21021 ALDINE WESTFIELD 5310, HUMBLE, TX, 77338","Match","Non_Exact","21021 ALDINE WESTFIELD RD, HUMBLE, TX, 77338",96578689,"L"
335789,"21021 ERWIN ST APT 215","WOODLAND HILLS","CA",91367,34.182787326,-118.590862584,289,"21021 ERWIN ST APT 215, WOODLAND HILLS, CA, 91367","Match","Exact","21021 ERWIN ST, WOODLAND HILLS, CA, 91367",141535389,"R"
335790,"21021 ERWIN ST","WOODLAND HILLS","CA",91367,34.182787326,-118.590862584,290,"21021 ERWIN ST, WOODLAND HILLS, CA, 91367","Match","Exact","21021 ERWIN ST, WOODLAND HILLS, CA, 91367",141535389,"R"
335791,"21021 KAROLINE CT","FOREST LAKE","MN",55025,45.2544543010001,-92.905478713,291,"21021 KAROLINE CT, FOREST LAKE, MN, 55025","Match","Non_Exact","21021 KAROLINE CT N, FOREST LAKE, MN, 55025",624345829,"R"
335792,"21021 N 56TH ST  APT 2028","PHOENIX","AZ",85054,33.6766514710001,-111.959960556,292,"21021 N 56TH ST  APT 2028, PHOENIX, AZ, 85054","Match","Non_Exact","21021 N 56TH ST, PHOENIX, AZ, 85054",640951206,"R"
335793,"21021 STERLING BAY LANE E APT I","CORNELIUS","NC",28031,35.4884246350001,-80.869509535,293,"21021 STERLING BAY LANE E APT I, CORNELIUS, NC, 28031","Match","Exact","21021 STERLING BAY LN E, CORNELIUS, NC, 28031",70540410,"L"
335794,"21022 CRYSTAL GREENS DRIVE","KATY","TX",77450,29.7305679250001,-95.7392516529999,294,"21022 CRYSTAL GREENS DRIVE, KATY, TX, 77450","Match","Exact","21022 CRYSTAL GREENS DR, KATY, TX, 77450",78349078,"L"
335795,"21022 GALBAR CIRCLE","HUNTINGTON BEACH","CA",92646,33.6572273370001,-117.95163929,295,"21022 GALBAR CIRCLE, HUNTINGTON BEACH, CA, 92646","Match","Exact","21022 GALBAR CIR, HUNTINGTON BEACH, CA, 92646",144416582,"L"
335796,"21022 SPRING CREEK","KATY","TX",77449,NA,NA,296,"21022 SPRING CREEK, KATY, TX, 77449","No_Match",NA,NA,NA,NA
335797,"21022 SW 85TH PASS","MIAMI","FL",33189,NA,NA,297,"21022 SW 85TH PASS, MIAMI, FL, 33189","Tie",NA,NA,NA,NA
335798,"21023 N 30TH AVENUE","PHOENIX","AZ",85027,33.680868622,-112.123378363,298,"21023 N 30TH AVENUE, PHOENIX, AZ, 85027","Match","Exact","21023 N 30TH AVE, PHOENIX, AZ, 85027",128398360,"R"
335799,"21023 RAILROAD AVE","HIGH SPRINGS","FL",32643,29.81297571,-82.568723893,299,"21023 RAILROAD AVE, HIGH SPRINGS, FL, 32643","Match","Exact","21023 RAILROAD AVE, HIGH SPRINGS, FL, 32643",647015488,"L"
335800,"21023 W CANYON DRIVE","BUCKEYE","AZ",85396,33.484634306,-112.512244689,300,"21023 W CANYON DRIVE, BUCKEYE, AZ, 85396","Match","Exact","21023 CANYON DR, BUCKEYE, AZ, 85396",633358544,"R"
335801,"21024 LIV 359","CHILLICOTHE","MO",64601,39.673628428,-93.460688534,301,"21024 LIV 359, CHILLICOTHE, MO, 64601","Match","Exact","21024 LIV 359, CHILLICOTHE, MO, 64601",18116117,"R"
335802,"21024 WEST 81ST PLACE","LENEXA","KS",66220,38.979385904,-94.8296461149999,302,"21024 WEST 81ST PLACE, LENEXA, KS, 66220","Match","Exact","21024 W 81ST PL, LENEXA, KS, 66220",633212616,"L"
335803,"21024 ZION RD","GAITHERSBURG","MD",20882,39.200602459,-77.098580129,303,"21024 ZION RD, GAITHERSBURG, MD, 20882","Match","Exact","21024 ZION RD, GAITHERSBURG, MD, 20882",62123199,"L"
335804,"21025 76TH AVE W APT 11","EDMONDS","WA",98026,47.8082337390001,-122.335751238,304,"21025 76TH AVE W APT 11, EDMONDS, WA, 98026","Match","Exact","21025 76TH AVE W, EDMONDS, WA, 98026",606932859,"L"
335805,"21025 ALLUVIAL STREET","CHUGIAK","AK",99567,61.4153564590001,-149.491496779,305,"21025 ALLUVIAL STREET, CHUGIAK, AK, 99567","Match","Exact","21025 ALLUVIAL ST, CHUGIAK, AK, 99567",190823634,"L"
335806,"21025 HARTZELL ROAD","LONG BEACH","MS",39560,NA,NA,306,"21025 HARTZELL ROAD, LONG BEACH, MS, 39560","No_Match",NA,NA,NA,NA
335807,"21025 N HWY 36","BRAZORIA","TX",77422,29.0815772770001,-95.612083938,307,"21025 N HWY 36, BRAZORIA, TX, 77422","Match","Exact","21025 N HWY 36, BRAZORIA, TX, 77422",116610793,"L"
335808,"21025 S 156TH ST","GILBERT","AZ",85298,33.2565977950001,-111.746674305,308,"21025 S 156TH ST, GILBERT, AZ, 85298","Match","Exact","21025 S 156TH ST, GILBERT, AZ, 85298",616768030,"L"
335809,"21026 109TH AVE SE","SNOHOMISH","WA",98296,47.8060796830001,-122.084958368,309,"21026 109TH AVE SE, SNOHOMISH, WA, 98296","Match","Exact","21026 109TH AVE SE, SNOHOMISH, WA, 98296",627045697,"L"
335810,"21026 BEAR CREEK CHURCH RD","NEW LONDON","NC",28001,35.3969322410001,-80.3128634569999,310,"21026 BEAR CREEK CHURCH RD, NEW LONDON, NC, 28001","Match","Non_Exact","21026 BEAR CREEK CHURCH RD, NEW LONDON, NC, 28127",642923299,"L"
335811,"21026 JOHN LANE","KENTWOOD","LA",70444,30.982144341,-90.380408267,311,"21026 JOHN LANE, KENTWOOD, LA, 70444","Match","Exact","21026 JOHN LN, KENTWOOD, LA, 70444",612186927,"R"
335812,"21026 MORGAN KNOLL LN","KATY","TX",77449,29.7993339120001,-95.742610599,312,"21026 MORGAN KNOLL LN, KATY, TX, 77449","Match","Exact","21026 MORGAN KNOLL LN, KATY, TX, 77449",633234622,"L"
335813,"21026 N 24TH AVE","PHOENIX","AZ",85027,33.6769711360001,-112.11032004,313,"21026 N 24TH AVE, PHOENIX, AZ, 85027","Match","Exact","21026 N 24TH AVE, PHOENIX, AZ, 85027",128353639,"R"
335814,"21027 E HWY H","FAIR PLAY","MO",65649,NA,NA,314,"21027 E HWY H, FAIR PLAY, MO, 65649","No_Match",NA,NA,NA,NA
335815,"21027 GEPHART AVE","PUNTA GORDA","FL",33955,NA,NA,315,"21027 GEPHART AVE, PUNTA GORDA, FL, 33955","No_Match",NA,NA,NA,NA
335816,"21027 HARVEST HILLS","SAN ANTONIO","TX",78259,NA,NA,316,"21027 HARVEST HILLS, SAN ANTONIO, TX, 78259","No_Match",NA,NA,NA,NA
335817,"21027 VOYAGER BLVD APT 7","LAND O LAKES, FL 346","FL",34638,28.216202104,-82.467965084,317,"21027 VOYAGER BLVD APT 7, LAND O LAKES, FL 346, FL, 34638","Match","Non_Exact","21027 VOYAGER BLVD, LAND O LAKES, FL, 34638",605915998,"L"
335818,"21027 VOYAGER BLVD APT 7","LAND O LAKES","FL",34638,28.216202104,-82.467965084,318,"21027 VOYAGER BLVD APT 7, LAND O LAKES, FL, 34638","Match","Exact","21027 VOYAGER BLVD, LAND O LAKES, FL, 34638",605915998,"L"
335819,"21028 150TH ST","CRESCO","IA",52136,43.2990530980001,-92.15960195,319,"21028 150TH ST, CRESCO, IA, 52136","Match","Exact","21028 150TH ST, CRESCO, IA, 52136",27406381,"R"
335820,"21028 BEACH ROAD","PERRY","FL",32348,29.819289073,-83.5773387899999,320,"21028 BEACH ROAD, PERRY, FL, 32348","Match","Exact","21028 BEACH RD, PERRY, FL, 32348",53958247,"R"
335821,"21028 CANYON RIDGE DRIVE","LAKE ELSINORE","CA",92532,33.6663023300001,-117.28913928,321,"21028 CANYON RIDGE DRIVE, LAKE ELSINORE, CA, 92532","Match","Exact","21028 CANYON RIDGE DR, LAKE ELSINORE, CA, 92532",194839445,"R"
335822,"21028 CHURON AVE","PORT CHARLOTTE","FL",33952,27.001224758,-82.106543221,322,"21028 CHURON AVE, PORT CHARLOTTE, FL, 33952","Match","Exact","21028 CHURON AVE, PORT CHARLOTTE, FL, 33952",4288509,"R"
335823,"21028 OLD YORK RD","PARKTON","MD",21120,NA,NA,323,"21028 OLD YORK RD, PARKTON, MD, 21120","Tie",NA,NA,NA,NA
335824,"21028 SE THOMAS RD","BEND","OR",97702,44.04488694,-121.271971013,324,"21028 SE THOMAS RD, BEND, OR, 97702","Match","Non_Exact","21028 THOMAS DR, BEND, OR, 97702",152554471,"R"
335825,"21029 36TH AVE NW","STANWOOD","WA",98292,48.186556705,-122.280200095,325,"21029 36TH AVE NW, STANWOOD, WA, 98292","Match","Exact","21029 36TH AVE NW, STANWOOD, WA, 98292",187780427,"R"
335826,"21029","STANWOOD","WA",98292,NA,NA,326,"21029, STANWOOD, WA, 98292","No_Match",NA,NA,NA,NA
335827,"2103 140TH PL SE","MILL CREEK","WA",98012,47.870336545,-122.203924239,327,"2103 140TH PL SE, MILL CREEK, WA, 98012","Match","Exact","2103 140TH PL SE, MILL CREEK, WA, 98012",187822855,"L"
335828,"2103 159TH STREET COURT SE","MILL CREEK","WA",98012,47.8542899940001,-122.204481036,328,"2103 159TH STREET COURT SE, MILL CREEK, WA, 98012","Match","Non_Exact","2103 159TH CT SE, MILL CREEK, WA, 98012",187760836,"R"
335829,"2103 1ST AVE","NEBRASKA CITY","NE",68410,40.677751421,-95.871405835,329,"2103 1ST AVE, NEBRASKA CITY, NE, 68410","Match","Exact","2103 1ST AVE, NEBRASKA CITY, NE, 68410",10394740,"L"
335830,"2103 310TH STREET","MADRID","IA",50156,41.907066935,-93.7579826799999,330,"2103 310TH STREET, MADRID, IA, 50156","Match","Exact","2103 310TH ST, MADRID, IA, 50156",64943172,"R"
335831,"2103 3RD ST UNIT 2","SANTA MONICA","CA",90405,34.007396622,-118.486480502,331,"2103 3RD ST UNIT 2, SANTA MONICA, CA, 90405","Match","Exact","2103 3RD ST, SANTA MONICA, CA, 90405",141559812,"L"
335832,"2103 540TH ST SW","KALONA","IA",52247,41.5405325420001,-91.725664818,332,"2103 540TH ST SW, KALONA, IA, 52247","Match","Exact","2103 540TH ST SW, KALONA, IA, 52247",84492550,"L"
335833,"2103 59TH STREET","SAINT LOUIS","MO",63110,38.617121023,-90.2846775579999,333,"2103 59TH STREET, SAINT LOUIS, MO, 63110","Match","Exact","2103 59TH ST, SAINT LOUIS, MO, 63110",107594515,"R"
335834,"2103 5TH AVE","LOS ANGELES","CA",90018,34.037853017,-118.322446423,334,"2103 5TH AVE, LOS ANGELES, CA, 90018","Match","Exact","2103 5TH AVE, LOS ANGELES, CA, 90018",141605567,"R"
335835,"2103 60TH AVE","GREELEY","CO",80634,40.4047252350001,-104.777355194,335,"2103 60TH AVE, GREELEY, CO, 80634","Match","Exact","2103 60TH AVE, GREELEY, CO, 80634",188754639,"R"
335836,"2103 ACKER WAY","ESCONDIDO","CA",92029,33.0899187800001,-117.09319367,336,"2103 ACKER WAY, ESCONDIDO, CA, 92029","Match","Exact","2103 ACKER WAY, ESCONDIDO, CA, 92029",195429773,"R"
335837,"2103 ALBANS ROAD","HOUSTON","TX",77005,29.723903826,-95.408799014,337,"2103 ALBANS ROAD, HOUSTON, TX, 77005","Match","Exact","2103 ALBANS RD, HOUSTON, TX, 77005",96064281,"L"
335838,"2103 ALFREDA BLVD","SAN PABLO","CA",94806,37.9526024190001,-122.349145938,338,"2103 ALFREDA BLVD, SAN PABLO, CA, 94806","Match","Exact","2103 ALFREDA BLVD, SAN PABLO, CA, 94806",192038872,"L"
335839,"2103 ALTHEA DR","HOUSTON","TX",77018,29.824828058,-95.449471865,339,"2103 ALTHEA DR, HOUSTON, TX, 77018","Match","Exact","2103 ALTHEA DR, HOUSTON, TX, 77018",96028856,"L"
335840,"2103 ANNA COURT","MILTON","FL",32583,30.511259726,-87.093092896,340,"2103 ANNA COURT, MILTON, FL, 32583","Match","Exact","2103 ANNA CT, MILTON, FL, 32583",618771695,"R"
335841,"2103 ARCADIA DRIVE APT1D","CORTLAND","NY",13045,42.5097217310001,-76.142094705,341,"2103 ARCADIA DRIVE APT1D, CORTLAND, NY, 13045","Match","Exact","2103 ARCADIA DR, CORTLAND, NY, 13045",45805538,"L"
335842,"2103 ARLINGTON AVE","PITTSBURGH","PA",15210,40.417809963,-79.977182332,342,"2103 ARLINGTON AVE, PITTSBURGH, PA, 15210","Match","Exact","2103 ARLINGTON AVE, PITTSBURGH, PA, 15210",51637341,"L"
335843,"2103 BALERIA DRIVE","SAN PEDRO","CA",90732,33.726745012,-118.320743273,343,"2103 BALERIA DRIVE, SAN PEDRO, CA, 90732","Match","Exact","2103 BALERIA DR, SAN PEDRO, CA, 90732",141690032,"L"
335844,"2103 BANNING PLACE","HYATTSVILLE","MD",20783,38.976180228,-76.9745589189999,344,"2103 BANNING PLACE, HYATTSVILLE, MD, 20783","Match","Exact","2103 BANNING PL, HYATTSVILLE, MD, 20783",76303658,"R"
335845,"2103 BARSHAM CT","CEDAR PARK","TX",78613,30.470246767,-97.849650324,345,"2103 BARSHAM CT, CEDAR PARK, TX, 78613","Match","Exact","2103 BARSHAM CT, CEDAR PARK, TX, 78613",64079673,"R"
335846,"2103 BAY BROOK DRIVE","COLUMBIA","MO",65201,38.904832304,-92.307847925,346,"2103 BAY BROOK DRIVE, COLUMBIA, MO, 65201","Match","Exact","2103 BAY BROOK DR, COLUMBIA, MO, 65201",636187599,"L"
335847,"2103 BECHTEL RD","INDIANAPOLIS","IN",46260,39.9138734490001,-86.197204969,347,"2103 BECHTEL RD, INDIANAPOLIS, IN, 46260","Match","Exact","2103 BECHTEL RD, INDIANAPOLIS, IN, 46260",107980944,"L"
335848,"2103 BEVERLY PIKE","GRAFTON","WV",26354,39.352020189,-80.1223353249999,348,"2103 BEVERLY PIKE, GRAFTON, WV, 26354","Match","Exact","2103 BEVERLY PIKE, GRAFTON, WV, 26354",51548932,"L"
335849,"2103 BIRCH LEAF LN","BLACKSBURG","VA",24060,37.2643848860001,-80.4054963089999,349,"2103 BIRCH LEAF LN, BLACKSBURG, VA, 24060","Match","Non_Exact","2103 BIRCHLEAF LN, BLACKSBURG, VA, 24060",73613720,"L"
335850,"2103 BLACKHAWK RIDGE LN","MANVEL","TX",77578,29.5337772390001,-95.413805022,350,"2103 BLACKHAWK RIDGE LN, MANVEL, TX, 77578","Match","Exact","2103 BLACKHAWK RIDGE LN, MANVEL, TX, 77578",651906953,"R"
335851,"2103 BLOSSOM CT","HAINES CITY","FL",33844,28.1256672960001,-81.618289712,351,"2103 BLOSSOM CT, HAINES CITY, FL, 33844","Match","Exact","2103 BLOSSOM CT, HAINES CITY, FL, 33844",104805114,"R"
335852,"2103 BOLIVAR DRIVE","ARLINGTON","TX",76002,32.6327992720001,-97.073007472,352,"2103 BOLIVAR DRIVE, ARLINGTON, TX, 76002","Match","Exact","2103 BOLIVAR DR, ARLINGTON, TX, 76002",101960584,"L"
335853,"2103 BRIARWOOD CT","RICHLAND","WA",99354,46.3088019400001,-119.26678407,353,"2103 BRIARWOOD CT, RICHLAND, WA, 99354","Match","Exact","2103 BRIARWOOD CT, RICHLAND, WA, 99354",174987321,"L"
335854,"2103 BROOKLYN AVE","KANSAS CITY","MO",64127,39.086768862,-94.556631405,354,"2103 BROOKLYN AVE, KANSAS CITY, MO, 64127","Match","Exact","2103 BROOKLYN AVE, KANSAS CITY, MO, 64127",91449689,"L"
335855,"2103 BRUSHMEADE LANE","SUGAR LAND","TX",77479,29.5786261920001,-95.683747174,355,"2103 BRUSHMEADE LANE, SUGAR LAND, TX, 77479","Match","Exact","2103 BRUSHMEADE LN, SUGAR LAND, TX, 77479",78328744,"L"
335856,"2103 CABOTS POINT LANE","RESTON","VA",20191,38.932951121,-77.333975088,356,"2103 CABOTS POINT LANE, RESTON, VA, 20191","Match","Exact","2103 CABOTS POINT LN, RESTON, VA, 20191",618589464,"L"
335857,"2103 CAMPANELLI BLVD","BOYNTON BEACH","FL",33426,26.5083919080001,-80.080761676,357,"2103 CAMPANELLI BLVD, BOYNTON BEACH, FL, 33426","Match","Exact","2103 CAMPANELLI BLVD, BOYNTON BEACH, FL, 33426",115289418,"R"
335858,"2103 CHARLESTON PLACE","HYATTSVILLE","MD",20783,38.9767270990001,-76.975647468,358,"2103 CHARLESTON PLACE, HYATTSVILLE, MD, 20783","Match","Exact","2103 CHARLESTON PL, HYATTSVILLE, MD, 20783",76303655,"R"
335859,"2103 COLOGA STREET","COLTON","CA",92324,NA,NA,359,"2103 COLOGA STREET, COLTON, CA, 92324","No_Match",NA,NA,NA,NA
335860,"2103 CONTINENTAL AVE","HARRISONVILLE","MO",64701,38.659684156,-94.330825503,360,"2103 CONTINENTAL AVE, HARRISONVILLE, MO, 64701","Match","Exact","2103 CONTINENTAL AVE, HARRISONVILLE, MO, 64701",100900924,"L"
335861,"2103 CORAL WAY  FL2","CORAL GABLES","FL",33145,NA,NA,361,"2103 CORAL WAY  FL2, CORAL GABLES, FL, 33145","No_Match",NA,NA,NA,NA
335862,"2103 CORAL WAY 2ND FLOOR","MIAMI","FL",33145,NA,NA,362,"2103 CORAL WAY 2ND FLOOR, MIAMI, FL, 33145","No_Match",NA,NA,NA,NA
335863,"2103 CORAL WAY STE 200","MIAMI","FL",33145,NA,NA,363,"2103 CORAL WAY STE 200, MIAMI, FL, 33145","No_Match",NA,NA,NA,NA
335864,"2103 CORAL WAY STE 202","MIAMI","FL",33145,NA,NA,364,"2103 CORAL WAY STE 202, MIAMI, FL, 33145","No_Match",NA,NA,NA,NA
335865,"2103 CORAL WAY SUITE 200","MIAMI","FL",33145,NA,NA,365,"2103 CORAL WAY SUITE 200, MIAMI, FL, 33145","No_Match",NA,NA,NA,NA
335866,"2103 CORAL WAY SUITE 202","MIAMI","FL",33145,NA,NA,366,"2103 CORAL WAY SUITE 202, MIAMI, FL, 33145","No_Match",NA,NA,NA,NA
335867,"2103 CYPRESS ST","VALDOSTA","GA",31601,30.8440888210001,-83.253783437,367,"2103 CYPRESS ST, VALDOSTA, GA, 31601","Match","Exact","2103 CYPRESS ST, VALDOSTA, GA, 31601",87717653,"R"
335868,"2103 CYPRINE COVE","CHESAPEAKE","VA",23321,36.8169625310001,-76.4274112959999,368,"2103 CYPRINE COVE, CHESAPEAKE, VA, 23321","Match","Exact","2103 CYPRINE COVE, CHESAPEAKE, VA, 23321",121787453,"R"
335869,"2103 DESMOND DR","DECATUR","GA",30033,33.8012033250001,-84.303000696,369,"2103 DESMOND DR, DECATUR, GA, 30033","Match","Exact","2103 DESMOND DR, DECATUR, GA, 30033",23360067,"R"
335870,"2103 DRIFTWOOD","PUEBLO","CO",81005,38.2288925440001,-104.656647646,370,"2103 DRIFTWOOD, PUEBLO, CO, 81005","Match","Non_Exact","2103 DRIFTWOOD LN, PUEBLO, CO, 81005",105022729,"R"
335871,"2103 E COLUMBIA AVE","SPOKANE","WA",99208,47.710439369,-117.378508508,371,"2103 E COLUMBIA AVE, SPOKANE, WA, 99208","Match","Exact","2103 E COLUMBIA AVE, SPOKANE, WA, 99208",189878222,"L"
335872,"2103 E HARVEST CIRCLE APT B","PERRYVILLE","MO",63775,NA,NA,372,"2103 E HARVEST CIRCLE APT B, PERRYVILLE, MO, 63775","Tie",NA,NA,NA,NA
335873,"2103 E HOWELL ST","TAMPA","FL",33610,28.012884166,-82.435588938,373,"2103 E HOWELL ST, TAMPA, FL, 33610","Match","Exact","2103 HOWELL ST, TAMPA, FL, 33610",104520253,"R"
335874,"2103 E LAWNDALE DRIVE","SAN ANTONIO","TX",78209,29.5097176580001,-98.460252713,374,"2103 E LAWNDALE DRIVE, SAN ANTONIO, TX, 78209","Match","Exact","2103 E LAWNDALE DR, SAN ANTONIO, TX, 78209",101497863,"L"
335875,"2103 E MISSION AVE","SPOKANE","WA",99202,47.671854678,-117.3792716,375,"2103 E MISSION AVE, SPOKANE, WA, 99202","Match","Exact","2103 E MISSION AVE, SPOKANE, WA, 99202",189879183,"L"
335876,"2103 EAST 30TH STREET","LUBBOCK","TX",79404,33.5671289960001,-101.813895011,376,"2103 EAST 30TH STREET, LUBBOCK, TX, 79404","Match","Exact","2103 E 30TH ST, LUBBOCK, TX, 79404",185257555,"L"
335877,"2103 EAST 6425 SOUTH","SALT LAKE CITY","UT",84121,40.634454356,-111.832608969,377,"2103 EAST 6425 SOUTH, SALT LAKE CITY, UT, 84121","Match","Exact","2103 E 6425 S, SALT LAKE CITY, UT, 84121",176152479,"L"
335878,"2103 ELMWOOD PARK DR","CAPITOL HEIGHT","MD",20743,38.8608264630001,-76.8439536399999,378,"2103 ELMWOOD PARK DR, CAPITOL HEIGHT, MD, 20743","Match","Exact","2103 ELMWOOD PARK DR, CAPITOL HGTS, MD, 20743",76320008,"R"
335879,"2103 FAIRWAY LANE","HARRISBURG","PA",17112,40.333561719,-76.814977528,379,"2103 FAIRWAY LANE, HARRISBURG, PA, 17112","Match","Exact","2103 FAIRWAY LN, HARRISBURG, PA, 17112",648399432,"R"
335880,"2103 FAIRWAYS LN","ROSEVILLE","MN",55113,45.0045897360001,-93.199535649,380,"2103 FAIRWAYS LN, ROSEVILLE, MN, 55113","Match","Exact","2103 FAIRWAYS LN, ROSEVILLE, MN, 55113",97666717,"L"
335881,"2103 FOREST PARK BLVD","FORT WAYNE","IN",46805,41.0967015470001,-85.1176267179999,381,"2103 FOREST PARK BLVD, FORT WAYNE, IN, 46805","Match","Exact","2103 FOREST PARK BLVD, FORT WAYNE, IN, 46805",6380061,"L"
335882,"2103 FOUNTAIN HILL DRIVE","TIMONIUM","MD",21093,39.4424025910001,-76.613314154,382,"2103 FOUNTAIN HILL DRIVE, TIMONIUM, MD, 21093","Match","Exact","2103 FOUNTAIN HILL DR, TIMONIUM, MD, 21093",191471468,"R"
335883,"2103 FOXCROFT CIRCLE","DENTON","TX",76209,33.239823071,-97.1054721949999,383,"2103 FOXCROFT CIRCLE, DENTON, TX, 76209","Match","Exact","2103 FOXCROFT CIR, DENTON, TX, 76209",103436113,"R"
335884,"2103 FRANKLIN AVE","BONHAM","TX",75418,33.5969632420001,-96.180430139,384,"2103 FRANKLIN AVE, BONHAM, TX, 75418","Match","Exact","2103 FRANKLIN AVE, BONHAM, TX, 75418",63272272,"L"
335885,"2103 FRUITVILLE ROAD","EAST GREENVILLE","PA",18041,40.400299793,-75.532774698,385,"2103 FRUITVILLE ROAD, EAST GREENVILLE, PA, 18041","Match","Exact","2103 FRUITVILLE RD, E GREENVILLE, PA, 18041",135132961,"R"
335886,"2103 GENEVA ST","CASTROVILLE","TX",78009,29.3566607000001,-98.892281568,386,"2103 GENEVA ST, CASTROVILLE, TX, 78009","Match","Exact","2103 GENEVA ST, CASTROVILLE, TX, 78009",634858494,"R"
335887,"2103 GLENCOVE WAY","LOUISVILLE","KY",40220,38.2837028800001,-85.652573694,387,"2103 GLENCOVE WAY, LOUISVILLE, KY, 40220","Match","Non_Exact","2103 GLEN COVE WAY, LOUISVILLE, KY, 40207",96854312,"R"
335888,"2103 GRANT PLACE","PORT HURON","MI",48060,42.947685129,-82.447978323,388,"2103 GRANT PLACE, PORT HURON, MI, 48060","Match","Exact","2103 GRANT PL, PORT HURON, MI, 48060",110985152,"R"
335889,"2103 GREGG AVE","WORLAND","WY",82401,44.0157465560001,-107.941713118,389,"2103 GREGG AVE, WORLAND, WY, 82401","Match","Exact","2103 GREGG AVE, WORLAND, WY, 82401",149724701,"R"
335890,"2103 GUN SITE RD","DEKALB","MS",39328,NA,NA,390,"2103 GUN SITE RD, DEKALB, MS, 39328","No_Match",NA,NA,NA,NA
335891,"2103 GUN SITE RIDGE RD","DEKALB","MS",39328,NA,NA,391,"2103 GUN SITE RIDGE RD, DEKALB, MS, 39328","No_Match",NA,NA,NA,NA
335892,"2103 HACKLESHIN ROAD","PEEBLES","OH",45660,38.988194455,-83.323732005,392,"2103 HACKLESHIN ROAD, PEEBLES, OH, 45660","Match","Exact","2103 HACKLESHIN RD, PEEBLES, OH, 45660",100862937,"R"
335893,"2103 HADDEN HOLLOW DRIVE","HOUSTON","TX",77067,29.9390000290001,-95.455846136,393,"2103 HADDEN HOLLOW DRIVE, HOUSTON, TX, 77067","Match","Exact","2103 HADDEN HOLLOW DR, HOUSTON, TX, 77067",96225908,"R"
335894,"2103 HALLSBORO RD NORTH","WHITEVILLE","NC",28472,34.361411279,-78.60875565,394,"2103 HALLSBORO RD NORTH, WHITEVILLE, NC, 28472","Match","Exact","2103 HALLSBORO RD N, WHITEVILLE, NC, 28472",638978534,"L"
335895,"2103 HARRISON AVE NW STE 230","OLYMPIA","WA",98502,47.0460559270001,-122.927310303,395,"2103 HARRISON AVE NW STE 230, OLYMPIA, WA, 98502","Match","Exact","2103 HARRISON AVE NW, OLYMPIA, WA, 98502",180979665,"L"
335896,"2103 HEATHER HILL LN","PLANO","TX",75075,33.036055076,-96.734444066,396,"2103 HEATHER HILL LN, PLANO, TX, 75075","Match","Exact","2103 HEATHER HILL LN, PLANO, TX, 75075",123487529,"R"
335897,"2103 HENRY STREET","COPPERAS COVE","TX",76522,31.1024099580001,-97.909296406,397,"2103 HENRY STREET, COPPERAS COVE, TX, 76522","Match","Exact","2103 HENRY ST, COPPERAS COVE, TX, 76522",146565277,"R"
335898,"2103 HIGH","OUTHBEND","IN",46601,NA,NA,398,"2103 HIGH, OUTHBEND, IN, 46601","No_Match",NA,NA,NA,NA
335899,"2103 HIGH","OUTHBEND","IN",46613,NA,NA,399,"2103 HIGH, OUTHBEND, IN, 46613","No_Match",NA,NA,NA,NA
335900,"2103 HODGES PL","MANSFIELD","TX",76063,32.596115378,-97.09606056,400,"2103 HODGES PL, MANSFIELD, TX, 76063","Match","Exact","2103 HODGES PL, MANSFIELD, TX, 76063",102114220,"R"
335901,"2103 HONEYWELL AVENUE 4M","BRONX","NY",10460,40.845084522,-73.882350301,401,"2103 HONEYWELL AVENUE 4M, BRONX, NY, 10460","Match","Exact","2103 HONEYWELL AVE, BRONX, NY, 10460",80301684,"L"
335902,"2103 HOPKINS MILL LANE","DULUTH","GA",30096,33.9514502750001,-84.159552885,402,"2103 HOPKINS MILL LANE, DULUTH, GA, 30096","Match","Exact","2103 HOPKINS MILL LN, DULUTH, GA, 30096",88905065,"L"
335903,"2103 INVERNESS LANDING","BIRMINGHAM","AL",35242,33.408806656,-86.703610607,403,"2103 INVERNESS LANDING, BIRMINGHAM, AL, 35242","Match","Exact","2103 INVERNESS LNDG, BIRMINGHAM, AL, 35242",653333879,"L"
335904,"2103 IVERSON STREET","TEMPLE HILLS","MD",20748,38.8307939900001,-76.9636742769999,404,"2103 IVERSON STREET, TEMPLE HILLS, MD, 20748","Match","Exact","2103 IVERSON ST, TEMPLE HILLS, MD, 20748",76361074,"L"
335905,"2103 JANNSEN COURT","MENOMONIE","WI",54751,44.8593698760001,-91.9043976839999,405,"2103 JANNSEN COURT, MENOMONIE, WI, 54751","Match","Exact","2103 JANNSEN CT, MENOMONIE, WI, 54751",78989915,"L"
335906,"2103 KOZELEK RD","ROSHOLT","WI",54473,44.580301815,-89.33047805,406,"2103 KOZELEK RD, ROSHOLT, WI, 54473","Match","Exact","2103 KOZELEK RD, ROSHOLT, WI, 54473",126797163,"R"
335907,"2103 LARK GLEN","ESCONDIDO","CA",92026,33.1592501320001,-117.112205479,407,"2103 LARK GLEN, ESCONDIDO, CA, 92026","Match","Exact","2103 LARK GLEN, ESCONDIDO, CA, 92026",195376277,"R"
335908,"2103 LAUREL OAKS LN","HOUSTON","TX",77014,NA,NA,408,"2103 LAUREL OAKS LN, HOUSTON, TX, 77014","No_Match",NA,NA,NA,NA
335909,"2103 LEE ST","FAYETTEVILLE","AR",72701,36.052169894,-94.1315614659999,409,"2103 LEE ST, FAYETTEVILLE, AR, 72701","Match","Non_Exact","2103 E LEE ST, FAYETTEVILLE, AR, 72701",49046942,"R"
335910,"2103 LINCOLN AVE","WILMINGTON","DE",19809,39.788758649,-75.4776679569999,410,"2103 LINCOLN AVE, WILMINGTON, DE, 19809","Match","Exact","2103 LINCOLN AVE, WILMINGTON, DE, 19809",187261133,"R"
335911,"2103 LINDSAY LANE SOUTH","ATHENS","AL",35613,34.7525649720001,-86.930639613,411,"2103 LINDSAY LANE SOUTH, ATHENS, AL, 35613","Match","Exact","2103 LINDSAY LN S, ATHENS, AL, 35613",95275719,"R"
335912,"2103 MAHOGNEY DRIVE","BOYNTON BEACH","FL",33436,26.546711009,-80.092994945,412,"2103 MAHOGNEY DRIVE, BOYNTON BEACH, FL, 33436","Match","Non_Exact","2103 MAHOGANY DR, BOYNTON BEACH, FL, 33436",115556992,"L"
335913,"2103 MEDFORD LANE","GREENSBORO","NC",27408,36.102170486,-79.802641584,413,"2103 MEDFORD LANE, GREENSBORO, NC, 27408","Match","Exact","2103 MEDFORD LN, GREENSBORO, NC, 27408",131049673,"L"
335914,"2103 MIDLAND AVE","SYRACUSE","NY",13205,43.0189014060001,-76.148847363,414,"2103 MIDLAND AVE, SYRACUSE, NY, 13205","Match","Exact","2103 MIDLAND AVE, SYRACUSE, NY, 13205",46571780,"L"
335915,"2103 MILLCROFT RD","PLEASANT GARDEN","NC",27313,35.9110184,-79.747262851,415,"2103 MILLCROFT RD, PLEASANT GARDEN, NC, 27313","Match","Exact","2103 MILLCROFT RD, PLEASANT GARDEN, NC, 27313",131086759,"R"
335916,"2103 MONUMENT VILLAGE CIRCLE","GRAND JUNCTION","CO",81507,39.089009182,-108.650204384,416,"2103 MONUMENT VILLAGE CIRCLE, GRAND JUNCTION, CO, 81507","Match","Exact","2103 MONUMENT VILLAGE CIR, GRAND JCT, CO, 81507",122463986,"L"
335917,"2103 N 9TH","PARAGOULD","AR",72450,NA,NA,417,"2103 N 9TH, PARAGOULD, AR, 72450","No_Match",NA,NA,NA,NA
335918,"2103 N BRECKENRIDGE","ENNIS","TX",75119,32.3447795160001,-96.636672228,418,"2103 N BRECKENRIDGE, ENNIS, TX, 75119","Match","Non_Exact","2103 N BRECKENRIDGE ST, ENNIS, TX, 75119",103490147,"L"
335919,"2103 N DAYTON","LAKE FOREST","IL",60614,NA,NA,419,"2103 N DAYTON, LAKE FOREST, IL, 60614","No_Match",NA,NA,NA,NA
335920,"2103 N FITZHUGH AVE","DALLAS","TX",75204,32.8095018390001,-96.7801484989999,420,"2103 N FITZHUGH AVE, DALLAS, TX, 75204","Match","Exact","2103 N FITZHUGH AVE, DALLAS, TX, 75204",102910902,"L"
335921,"2103 N KEYSTONE AVENUE","CHICAGO","IL",60639,41.9191620400001,-87.727833854,421,"2103 N KEYSTONE AVENUE, CHICAGO, IL, 60639","Match","Exact","2103 N KEYSTONE AVE, CHICAGO, IL, 60639",111758622,"R"
335922,"2103 N O STREET","WASHOUGAL","WA",98671,45.5869389360001,-122.349776416,422,"2103 N O STREET, WASHOUGAL, WA, 98671","Match","Exact","2103 N O ST, WASHOUGAL, WA, 98671",625117983,"L"
335923,"2103 NE 12TH AVE","GAINESVILLE","FL",32641,29.6630588410001,-82.297984002,423,"2103 NE 12TH AVE, GAINESVILLE, FL, 32641","Match","Exact","2103 NE 12TH AVE, GAINESVILLE, FL, 32641",6879082,"R"
335924,"2103 NE 90TH AVE","VANCOUVER","WA",98664,45.637995141,-122.58037113,424,"2103 NE 90TH AVE, VANCOUVER, WA, 98664","Match","Exact","2103 NE 90TH AVE, VANCOUVER, WA, 98664",158365881,"R"
335925,"2103 NE 90TH AVENUE","VANCOUVER","WA",98664,45.637995141,-122.58037113,425,"2103 NE 90TH AVENUE, VANCOUVER, WA, 98664","Match","Exact","2103 NE 90TH AVE, VANCOUVER, WA, 98664",158365881,"R"
335926,"2103 NORTH SPAULIDING","CHICAGO","IL",60647,41.9192894440001,-87.710298161,426,"2103 NORTH SPAULIDING, CHICAGO, IL, 60647","Match","Non_Exact","2103 N SPAULDING AVE, CHICAGO, IL, 60647",605222511,"R"
335927,"2103 NOYES ST","EVANSTON","IL",60201,42.0581315160001,-87.702092948,427,"2103 NOYES ST, EVANSTON, IL, 60201","Match","Exact","2103 NOYES ST, EVANSTON, IL, 60201",111743096,"R"
335928,"2103 NUGENT DR","MANSFIELD","TX",76063,32.5984239590001,-97.104969916,428,"2103 NUGENT DR, MANSFIELD, TX, 76063","Match","Exact","2103 NUGENT DR, MANSFIELD, TX, 76063",101955371,"R"
335929,"2103 OAKMONT ROAD","FALLSTON","MD",21047,39.534583927,-76.4284838729999,429,"2103 OAKMONT ROAD, FALLSTON, MD, 21047","Match","Exact","2103 OAKMONT RD, FALLSTON, MD, 21047",191639624,"L"
335930,"2103 OLD ROSEBUD DRIVE","KNIGHTDALE","NC",27545,35.7835640110001,-78.504749261,430,"2103 OLD ROSEBUD DRIVE, KNIGHTDALE, NC, 27545","Match","Exact","2103 OLD ROSEBUD DR, KNIGHTDALE, NC, 27545",638750181,"L"
335931,"2103 OLIVIA SPRINGS LANE","SPRING","TX",77386,30.0982974820001,-95.389650241,431,"2103 OLIVIA SPRINGS LANE, SPRING, TX, 77386","Match","Exact","2103 OLIVIA SPRINGS LN, SPRING, TX, 77386",630552986,"R"
335932,"2103 PALATINE PL","STOCKBRIDGE","GA",30281,33.514187995,-84.256543229,432,"2103 PALATINE PL, STOCKBRIDGE, GA, 30281","Match","Exact","2103 PALATINE PL, STOCKBRIDGE, GA, 30281",210422817,"L"
335933,"2103 PAR THREE WAY","LITHONIA","GA",30038,33.694592212,-84.147096494,433,"2103 PAR THREE WAY, LITHONIA, GA, 30038","Match","Non_Exact","2103 PAR THREE CT, LITHONIA, GA, 30038",23375276,"R"
335934,"2103 PARADISE DRIVE APT 2","PHARR","TX",78577,26.21517069,-98.1912505499999,434,"2103 PARADISE DRIVE APT 2, PHARR, TX, 78577","Match","Exact","2103 PARADISE DR, PHARR, TX, 78577",71562170,"R"
335935,"2103 PARKSIDE AVE","PHILADELPHIA","PA",19131,NA,NA,435,"2103 PARKSIDE AVE, PHILADELPHIA, PA, 19131","No_Match",NA,NA,NA,NA
335936,"2103 PLYMOUTH STREET","MIDLAND","MI",48642,43.638884542,-84.2014939159999,436,"2103 PLYMOUTH STREET, MIDLAND, MI, 48642","Match","Exact","2103 PLYMOUTH ST, MIDLAND, MI, 48642",81201791,"R"
335937,"2103 POINT WELCOME PLACE","HONOLULU","HI",96818,NA,NA,437,"2103 POINT WELCOME PLACE, HONOLULU, HI, 96818","No_Match",NA,NA,NA,NA
335938,"2103 QUAIL VALLEY EAST DR","MISSOURI CITY","TX",77459,29.574936059,-95.533656295,438,"2103 QUAIL VALLEY EAST DR, MISSOURI CITY, TX, 77459","Match","Exact","2103 QUAIL VALLEY EAST DR, MISSOURI CITY, TX, 77459",78271022,"R"
335939,"2103 QUAIL VALLEY EAST DRIVE","MISSOURI CITY","TX",77459,29.574936059,-95.533656295,439,"2103 QUAIL VALLEY EAST DRIVE, MISSOURI CITY, TX, 77459","Match","Exact","2103 QUAIL VALLEY EAST DR, MISSOURI CITY, TX, 77459",78271022,"R"
335940,"2103 RAPHINE RD","RAPHINE","VA",24472,37.9388894530001,-79.2343531,440,"2103 RAPHINE RD, RAPHINE, VA, 24472","Match","Exact","2103 RAPHINE RD, RAPHINE, VA, 24472",624370571,"R"
335941,"2103 REDWATER DRIVE","DECATUR","GA",30035,33.7282432210001,-84.1986275579999,441,"2103 REDWATER DRIVE, DECATUR, GA, 30035","Match","Exact","2103 REDWATER DR, DECATUR, GA, 30035",23398059,"R"
335942,"2103 RENAISSANCE BLVD","MIRAMAR","FL",33025,25.9892288780001,-80.3065468619999,442,"2103 RENAISSANCE BLVD, MIRAMAR, FL, 33025","Match","Exact","2103 RENAISSANCE BLVD, MIRAMAR, FL, 33025",648202917,"R"
335943,"2103 RIDGEDALE DR","ARLINGTON","TX",76013,32.711313052,-97.179727306,443,"2103 RIDGEDALE DR, ARLINGTON, TX, 76013","Match","Exact","2103 RIDGEDALE DR, ARLINGTON, TX, 76013",101902067,"L"
335944,"2103 RIDGEDALE DRIVE","ARLINTON","TX",76013,32.711313052,-97.179727306,444,"2103 RIDGEDALE DRIVE, ARLINTON, TX, 76013","Match","Non_Exact","2103 RIDGEDALE DR, ARLINGTON, TX, 76013",101902067,"L"
335945,"2103 ROBINSON ST UNIT C","REDONDO BEACH","CA",90278,33.8800867040001,-118.37465085,445,"2103 ROBINSON ST UNIT C, REDONDO BEACH, CA, 90278","Match","Non_Exact","2103 W ROBINSON ST, REDONDO BEACH, CA, 90278",141662783,"L"
335946,"2103 S 192ND AVE","OMAHA","NE",68130,41.239364768,-96.216241853,446,"2103 S 192ND AVE, OMAHA, NE, 68130","Match","Exact","2103 S 192ND AVE, OMAHA, NE, 68130",117034578,"L"
335947,"2103 S 4TH AVE UNIT C","MAYWOOD","IL",60153,41.866098041,-87.837136878,447,"2103 S 4TH AVE UNIT C, MAYWOOD, IL, 60153","Match","Non_Exact","2103 S 4TH AVE, MAYWOOD, IL, 60153",111791332,"L"
335948,"2103 S 57TH AVE FL 2","CICERO","IL",60804,41.8523109920001,-87.7663894519999,448,"2103 S 57TH AVE FL 2, CICERO, IL, 60804","Match","Non_Exact","2103 S 57TH AVE, CICERO, IL, 60804",605267997,"L"
335949,"2103 S 57TH AVENUE FLOOR 2","CICERO","IL",60804,41.8523109920001,-87.7663894519999,449,"2103 S 57TH AVENUE FLOOR 2, CICERO, IL, 60804","Match","Non_Exact","2103 S 57TH AVE, CICERO, IL, 60804",605267997,"L"
335950,"2103 S WASHINGTON ST","MARION","IN",46953,40.542184144,-85.659793411,450,"2103 S WASHINGTON ST, MARION, IN, 46953","Match","Exact","2103 S WASHINGTON ST, MARION, IN, 46953",95009426,"L"
335951,"2103 SALTWORKS RD","PALESTINE","TX",75803,31.74939872,-95.676015991,451,"2103 SALTWORKS RD, PALESTINE, TX, 75803","Match","Non_Exact","2103 SALT WORKS RD, PALESTINE, TX, 75803",74660162,"R"
335952,"2103 SAVAGE LANE","LEWISVILLE","TX",75057,33.0735229100001,-97.018555819,452,"2103 SAVAGE LANE, LEWISVILLE, TX, 75057","Match","Exact","2103 SAVAGE LN, LEWISVILLE, TX, 75057",103370079,"L"
335953,"2103 SE 43RD AVE","AMARILLO","TX",79118,35.1698141300001,-101.814589529,453,"2103 SE 43RD AVE, AMARILLO, TX, 79118","Match","Exact","2103 SE 43RD AVE, AMARILLO, TX, 79118",182673268,"L"
335954,"2103 SHIRLEYDALE AVENUE","RICHMOND","VA",23231,37.5123639020001,-77.3864794259999,454,"2103 SHIRLEYDALE AVENUE, RICHMOND, VA, 23231","Match","Exact","2103 SHIRLEYDALE AVE, RICHMOND, VA, 23231",106650763,"R"
335955,"2103 SORRENTO DRIVE","BOONE","NC",28607,NA,NA,455,"2103 SORRENTO DRIVE, BOONE, NC, 28607","No_Match",NA,NA,NA,NA
335956,"2103 SOUTH 121ST STREET","OMAHA","NE",68144,41.239513899,-96.10197106,456,"2103 SOUTH 121ST STREET, OMAHA, NE, 68144","Match","Exact","2103 S 121ST ST, OMAHA, NE, 68144",116972457,"L"
335957,"2103 SOUTH 57TH AVE","CICERO","IL",60804,41.8523154820001,-87.766389567,457,"2103 SOUTH 57TH AVE, CICERO, IL, 60804","Match","Exact","2103 S 57TH AVE, CICERO, IL, 60804",605267997,"L"
335958,"2103 SOUTH COUNTRY CLUB DR","COLUMBIA","MO",65201,38.9559164450001,-92.307303086,458,"2103 SOUTH COUNTRY CLUB DR, COLUMBIA, MO, 65201","Match","Exact","2103 S COUNTRY CLUB DR, COLUMBIA, MO, 65201",23484643,"L"
335959,"2103 SOUTH COUNTRY CLUB","COLUMBIA","MO",65201,38.9559164450001,-92.307303086,459,"2103 SOUTH COUNTRY CLUB, COLUMBIA, MO, 65201","Match","Non_Exact","2103 S COUNTRY CLUB DR, COLUMBIA, MO, 65201",23484643,"L"
335960,"2103 SOUTH TRACY","BOZEMAN","MT",59715,45.6588371190001,-111.040271975,460,"2103 SOUTH TRACY, BOZEMAN, MT, 59715","Match","Non_Exact","2103 S TRACY AVE, BOZEMAN, MT, 59715",163498643,"L"
335961,"2103 SOUTH VIEW DRIVE","GREENVILLE","NC",27858,35.5880065650001,-77.364408506,461,"2103 SOUTH VIEW DRIVE, GREENVILLE, NC, 27858","Match","Non_Exact","2103 SOUTHVIEW DR, GREENVILLE, NC, 27858",80012034,"R"
335962,"2103 STONE SEMINARY ROAD","COOKEVILLE","TN",38506,36.088985414,-85.481785191,462,"2103 STONE SEMINARY ROAD, COOKEVILLE, TN, 38506","Match","Exact","2103 STONE SEMINARY RD, COOKEVILLE, TN, 38506",25147425,"L"
335963,"2103 STONEBRIDGE WAY","CLERMONT","FL",34711,28.509840421,-81.7163543779999,463,"2103 STONEBRIDGE WAY, CLERMONT, FL, 34711","Match","Exact","2103 STONEBRIDGE WAY, CLERMONT, FL, 34711",94160704,"R"
335964,"2103 STRATFORD COURT","HIGHLANDS RANCH","CO",80126,39.5355641670001,-104.964574164,464,"2103 STRATFORD COURT, HIGHLANDS RANCH, CO, 80126","Match","Non_Exact","2103 E STRATFORD CT, HIGHLANDS RANCH, CO, 80126",130818375,"R"
335965,"2103 STRATHMOOR BLVD","LOUISVILLE","KY",40205,38.2186016950001,-85.6838399379999,465,"2103 STRATHMOOR BLVD, LOUISVILLE, KY, 40205","Match","Exact","2103 STRATHMOOR BLVD, LOUISVILLE, KY, 40205",96853767,"L"
335966,"2103 SUITLAND TER SE APT 201","WASHINGTON","DC",20020,38.862949879,-76.948240966,466,"2103 SUITLAND TER SE APT 201, WASHINGTON, DC, 20020","Match","Exact","2103 SUITLAND TER SE, WASHINGTON, DC, 20020",76233758,"L"
335967,"2103 SUMMIT DRIVE","ROYERSFORD","PA",19468,40.2069023240001,-75.5253863409999,467,"2103 SUMMIT DRIVE, ROYERSFORD, PA, 19468","Match","Exact","2103 SUMMIT DR, ROYERSFORD, PA, 19468",651858914,"R"
335968,"2103 SUNNYSIDE","SAN ANTONIO","TX",78258,29.6369069130001,-98.458706282,468,"2103 SUNNYSIDE, SAN ANTONIO, TX, 78258","Match","Exact","2103 SUNNYSIDE, SAN ANTONIO, TX, 78258",101575630,"R"
335969,"2103 SW 173 AVE","MIRAMAR","FL",33029,25.98936537,-80.3777539879999,469,"2103 SW 173 AVE, MIRAMAR, FL, 33029","Match","Exact","2103 SW 173RD AVE, MIRAMAR, FL, 33029",114777838,"R"
335970,"2103 SWEETWATER CREEK DR","FORT COLLINS","CO",80528,40.513018221,-105.038687027,470,"2103 SWEETWATER CREEK DR, FORT COLLINS, CO, 80528","Match","Exact","2103 SWEETWATER CREEK DR, FORT COLLINS, CO, 80528",635613199,"R"
335971,"2103 SWITCH GRASS CIRCLE","OCOEE","FL",34761,28.588838115,-81.510189113,471,"2103 SWITCH GRASS CIRCLE, OCOEE, FL, 34761","Match","Exact","2103 SWITCH GRASS CIR, OCOEE, FL, 34761",634028822,"L"
335972,"2103 TIMBERGREEN CIRCLE","MAGNOLIA","TX",77355,30.1447340030001,-95.696954014,472,"2103 TIMBERGREEN CIRCLE, MAGNOLIA, TX, 77355","Match","Exact","2103 TIMBERGREEN CIR, MAGNOLIA, TX, 77355",79308865,"R"
335973,"2103 TONY","FRANKLINTON","NC",27525,36.1209316380001,-78.5571208659999,473,"2103 TONY, FRANKLINTON, NC, 27525","Match","Non_Exact","2103 TONY CIR, FRANKLINTON, NC, 27525",611857746,"L"
335974,"2103 TREEMONT LANE","ORANGE","TX",77630,30.110163159,-93.752954153,474,"2103 TREEMONT LANE, ORANGE, TX, 77630","Match","Exact","2103 TREEMONT LN, ORANGE, TX, 77630",74020576,"L"
335975,"2103 TWIN MILL LANE","OAKTON","VA",22124,38.9177174230001,-77.322237678,475,"2103 TWIN MILL LANE, OAKTON, VA, 22124","Match","Exact","2103 TWIN MILL LN, OAKTON, VA, 22124",75959629,"L"
335976,"2103 VERMILLION OAKS ST","FRESNO","TX",77545,29.5467072530001,-95.4852326179999,476,"2103 VERMILLION OAKS ST, FRESNO, TX, 77545","Match","Non_Exact","2103 VERMILLION OAK ST, FRESNO, TX, 77545",624576665,"R"
335977,"2103 W 6TH ST","HASTINGS","NE",68901,40.5890695030001,-98.412121681,477,"2103 W 6TH ST, HASTINGS, NE, 68901","Match","Exact","2103 W 6TH ST, HASTINGS, NE, 68901",196205072,"L"
335978,"2103 W CANAL DR","KENNEWICK","WA",99336,46.216676525,-119.147790349,478,"2103 W CANAL DR, KENNEWICK, WA, 99336","Match","Exact","2103 W CANAL DR, KENNEWICK, WA, 99336",607020788,"L"
335979,"2103 W CARMEN ST","TAMPA","FL",33606,27.949163077,-82.482823434,479,"2103 W CARMEN ST, TAMPA, FL, 33606","Match","Exact","2103 W CARMEN ST, TAMPA, FL, 33606",104526577,"R"
335980,"2103 W CHESTER CIR SE","CONYERS","GA",30013,33.6005256240001,-83.9772100979999,480,"2103 W CHESTER CIR SE, CONYERS, GA, 30013","Match","Exact","2103 W CHESTER CIR SE, CONYERS, GA, 30013",23738347,"L"
335981,"2103 W DELEON ST","TAMPA","FL",33606,27.9386165010001,-82.481395111,481,"2103 W DELEON ST, TAMPA, FL, 33606","Match","Non_Exact","2103 W DE LEON ST, TAMPA, FL, 33606",623822272,"R"
335982,"2103 WALDEN PARK CIRCLE APT 102","KISSIMMEE","FL",34744,28.280646727,-81.3562073259999,482,"2103 WALDEN PARK CIRCLE APT 102, KISSIMMEE, FL, 34744","Match","Exact","2103 WALDEN PARK CIR, KISSIMMEE, FL, 34744",633966881,"R"
335983,"2103 WELCH PL","MANSFIELD","TX",76063,32.5940149510001,-97.100133574,483,"2103 WELCH PL, MANSFIELD, TX, 76063","Match","Exact","2103 WELCH PL, MANSFIELD, TX, 76063",101950628,"R"
335984,"2103 WHITMAN COURT","MONROE","GA",30656,33.8095494630001,-83.742763957,484,"2103 WHITMAN COURT, MONROE, GA, 30656","Match","Exact","2103 WHITMAN CT, MONROE, GA, 30656",627358557,"L"
335985,"2103 WITTEN COURT","WALDORF","MD",20603,38.6274725740001,-76.9742476879999,485,"2103 WITTEN COURT, WALDORF, MD, 20603","Match","Exact","2103 WITTEN CT, WALDORF, MD, 20603",624498171,"R"
335986,"2103 YELLOWHAMMER HILL","VESTAVIA","AL",35216,33.4185988780001,-86.8068283819999,486,"2103 YELLOWHAMMER HILL, VESTAVIA, AL, 35216","Match","Non_Exact","2103 YELLOWHAMMERHILL, VESTAVIA, AL, 35216",653883283,"L"
335987,"2103 YUPON CIR","PEARLAND","TX",77581,29.5679344600001,-95.271575718,487,"2103 YUPON CIR, PEARLAND, TX, 77581","Match","Exact","2103 YUPON CIR, PEARLAND, TX, 77581",116603214,"L"
335988,"21030 LOCK TWO ROAD","JACKSON CENTER","OH",45334,40.4539908,-84.0300149129999,488,"21030 LOCK TWO ROAD, JACKSON CENTER, OH, 45334","Match","Exact","21030 LOCK TWO RD, JACKSON CENTER, OH, 45334",52229761,"L"
335989,"21030 PACIFIC CITY CIR STE 3102","HUNTINGTON BEACH","CA",92648,33.656490273,-117.996875992,489,"21030 PACIFIC CITY CIR STE 3102, HUNTINGTON BEACH, CA, 92648","Match","Exact","21030 PACIFIC CITY CIR, HUNTINGTON BEACH, CA, 92648",650883981,"L"
335990,"21030 PEACHTREE ROAD","DICKERSON","MD",20842,39.2006690270001,-77.371335738,490,"21030 PEACHTREE ROAD, DICKERSON, MD, 20842","Match","Non_Exact","21030 PEACH TREE RD, DICKERSON, MD, 20842",62104779,"R"
335991,"21031 ELK LAKE ROAD","ELK RIVER","MN",55330,45.352670776,-93.6075793799999,491,"21031 ELK LAKE ROAD, ELK RIVER, MN, 55330","Match","Non_Exact","21031 ELK LAKE RD NW, ELK RIVER, MN, 55330",97769872,"R"
335992,"21031 STATE HWY P","CANTON","MO",63435,40.0924594750001,-91.581115159,492,"21031 STATE HWY P, CANTON, MO, 63435","Match","Exact","21031 STATE HWY P, CANTON, MO, 63435",607739986,"L"
335993,"21031 VENTURA BLVD  SUITE 210","WOODLAND HILLS","CA",91364,34.1666944200001,-118.591482524,493,"21031 VENTURA BLVD  SUITE 210, WOODLAND HILLS, CA, 91364","Match","Exact","21031 VENTURA BLVD, WOODLAND HILLS, CA, 91364",141535668,"R"
335994,"21032 AVERY LANE","BEND","OR",97702,NA,NA,494,"21032 AVERY LANE, BEND, OR, 97702","No_Match",NA,NA,NA,NA
335995,"21032 WILLOWBROOK DR","ASHBURN","VA",20147,39.034479252,-77.508836859,495,"21032 WILLOWBROOK DR, ASHBURN, VA, 20147","Match","Exact","21032 WILLOWBROOK DR, ASHBURN, VA, 20147",62337650,"L"
335996,"21033 SOJOURN COURT","GERMAN TOWN","MD",20876,39.203788151,-77.26387271,496,"21033 SOJOURN COURT, GERMAN TOWN, MD, 20876","Match","Non_Exact","21033 SOJOURN CT, GERMANTOWN, MD, 20876",62101544,"R"
335997,"21034 CHATSWORTH ST","CHATSWORTH","CA",91311,34.264495412,-118.591909341,497,"21034 CHATSWORTH ST, CHATSWORTH, CA, 91311","Match","Exact","21034 CHATSWORTH ST, CHATSWORTH, CA, 91311",141532028,"L"
335998,"21034 CHATSWORTH STREET","CHATSWORTH","CA",91311,34.264495412,-118.591909341,498,"21034 CHATSWORTH STREET, CHATSWORTH, CA, 91311","Match","Exact","21034 CHATSWORTH ST, CHATSWORTH, CA, 91311",141532028,"L"
335999,"21034 COUNTY ROAD 15","RENVILLE","MN",56284,44.6700101530001,-95.2572567719999,499,"21034 COUNTY ROAD 15, RENVILLE, MN, 56284","Match","Exact","21034 CO RD 15, RENVILLE, MN, 56284",34063088,"L"
336000,"21034 MORGAN KNOLL LANE","KATY","TX",77449,29.799113156,-95.742610599,500,"21034 MORGAN KNOLL LANE, KATY, TX, 77449","Match","Exact","21034 MORGAN KNOLL LN, KATY, TX, 77449",633234621,"L"
