"ID","Address","City","State","Zip","lat","long","id","input_address","match_indicator","match_type","matched_address","tiger_line_id","tiger_side"
971001,"PO BOX 1225","CLARKSTON","GA",30021,NA,NA,1,"PO BOX 1225, CLARKSTON, GA, 30021","No_Match",NA,NA,NA,NA
971002,"PO BOX 1225","COOS BAY","OR",97420,NA,NA,2,"PO BOX 1225, COOS BAY, OR, 97420","No_Match",NA,NA,NA,NA
971003,"PO BOX 1225","KASILOF","AK",99610,NA,NA,3,"PO BOX 1225, KASILOF, AK, 99610","No_Match",NA,NA,NA,NA
971004,"PO BOX 1225","KITTY HAWK","NC",27949,NA,NA,4,"PO BOX 1225, KITTY HAWK, NC, 27949","No_Match",NA,NA,NA,NA
971005,"PO BOX 1225","LYNDONVILLE","VT",5851,NA,NA,5,"PO BOX 1225, LYNDONVILLE, VT, 5851","No_Match",NA,NA,NA,NA
971006,"PO BOX 1225","TEMPLETON","CA",93465,NA,NA,6,"PO BOX 1225, TEMPLETON, CA, 93465","No_Match",NA,NA,NA,NA
971007,"PO BOX 1225","VISALIA","CA",93279,NA,NA,7,"PO BOX 1225, VISALIA, CA, 93279","No_Match",NA,NA,NA,NA
971008,"PO BOX 1225","WAUKEE","IA",50263,NA,NA,8,"PO BOX 1225, WAUKEE, IA, 50263","No_Match",NA,NA,NA,NA
971009,"PO BOX 1226","CHINO VALLEY","AZ",86323,NA,NA,9,"PO BOX 1226, CHINO VALLEY, AZ, 86323","No_Match",NA,NA,NA,NA
971010,"PO BOX 1226","MAKAWAO","HI",96768,NA,NA,10,"PO BOX 1226, MAKAWAO, HI, 96768","No_Match",NA,NA,NA,NA
971011,"PO BOX 12261","SPRING","TX",77391,NA,NA,11,"PO BOX 12261, SPRING, TX, 77391","No_Match",NA,NA,NA,NA
971012,"PO BOX 1227","CITRUS HEIGHTS","CA",95611,NA,NA,12,"PO BOX 1227, CITRUS HEIGHTS, CA, 95611","No_Match",NA,NA,NA,NA
971013,"PO BOX 1227","CLARKDALE","AZ",86324,NA,NA,13,"PO BOX 1227, CLARKDALE, AZ, 86324","No_Match",NA,NA,NA,NA
971014,"PO BOX 1227","GREENBELT","MD",20768,NA,NA,14,"PO BOX 1227, GREENBELT, MD, 20768","No_Match",NA,NA,NA,NA
971015,"PO BOX 1227","KALKASKA","MI",49646,NA,NA,15,"PO BOX 1227, KALKASKA, MI, 49646","No_Match",NA,NA,NA,NA
971016,"PO BOX 1227","KILGORE","TX",75663,NA,NA,16,"PO BOX 1227, KILGORE, TX, 75663","No_Match",NA,NA,NA,NA
971017,"PO BOX 1227","MALTA","MT",59538,NA,NA,17,"PO BOX 1227, MALTA, MT, 59538","No_Match",NA,NA,NA,NA
971018,"PO BOX 12274","NEW BERN","NC",28561,NA,NA,18,"PO BOX 12274, NEW BERN, NC, 28561","No_Match",NA,NA,NA,NA
971019,"PO BOX 122785","SAN DIEGO","CA",92112,NA,NA,19,"PO BOX 122785, SAN DIEGO, CA, 92112","No_Match",NA,NA,NA,NA
971020,"PO BOX 1228","IGNACIO","CO",81137,NA,NA,20,"PO BOX 1228, IGNACIO, CO, 81137","No_Match",NA,NA,NA,NA
971021,"PO BOX 1228","OLNEY","MD",20832,NA,NA,21,"PO BOX 1228, OLNEY, MD, 20832","No_Match",NA,NA,NA,NA
971022,"PO BOX 1228","WEAVERVILLE","CA",96093,NA,NA,22,"PO BOX 1228, WEAVERVILLE, CA, 96093","No_Match",NA,NA,NA,NA
971023,"PO BOX 12281","MARINA DEL REY","CA",90295,NA,NA,23,"PO BOX 12281, MARINA DEL REY, CA, 90295","No_Match",NA,NA,NA,NA
971024,"PO BOX 1229","CLATSKANIE","OR",97016,NA,NA,24,"PO BOX 1229, CLATSKANIE, OR, 97016","No_Match",NA,NA,NA,NA
971025,"PO BOX 1229","FLINT","MI",48501,NA,NA,25,"PO BOX 1229, FLINT, MI, 48501","No_Match",NA,NA,NA,NA
971026,"PO BOX 1229","FLINT","MI",48532,NA,NA,26,"PO BOX 1229, FLINT, MI, 48532","No_Match",NA,NA,NA,NA
971027,"PO BOX 1229","KNIGHTDALE","NC",27545,NA,NA,27,"PO BOX 1229, KNIGHTDALE, NC, 27545","No_Match",NA,NA,NA,NA
971028,"PO BOX 1229","LAWAI","HI",96765,NA,NA,28,"PO BOX 1229, LAWAI, HI, 96765","No_Match",NA,NA,NA,NA
971029,"PO BOX 1229","MENA","AR",71953,NA,NA,29,"PO BOX 1229, MENA, AR, 71953","No_Match",NA,NA,NA,NA
971030,"PO BOX 1229","MONT BELVIEU","TX",77580,NA,NA,30,"PO BOX 1229, MONT BELVIEU, TX, 77580","No_Match",NA,NA,NA,NA
971031,"PO BOX 1229","PINE BLUFF","AR",71613,NA,NA,31,"PO BOX 1229, PINE BLUFF, AR, 71613","No_Match",NA,NA,NA,NA
971032,"PO BOX 12294","FORT WORTH","TX",76110,NA,NA,32,"PO BOX 12294, FORT WORTH, TX, 76110","No_Match",NA,NA,NA,NA
971033,"PO BOX 12295","OKLAHOMA CITY","OK",73157,NA,NA,33,"PO BOX 12295, OKLAHOMA CITY, OK, 73157","No_Match",NA,NA,NA,NA
971034,"PO BOX 12296","BEAUMONT","TX",77726,NA,NA,34,"PO BOX 12296, BEAUMONT, TX, 77726","No_Match",NA,NA,NA,NA
971035,"PO BOX 12296","SAN FRANCISCO","CA",94112,NA,NA,35,"PO BOX 12296, SAN FRANCISCO, CA, 94112","No_Match",NA,NA,NA,NA
971036,"PO BOX 123","ABINGDON","MD",21009,NA,NA,36,"PO BOX 123, ABINGDON, MD, 21009","No_Match",NA,NA,NA,NA
971037,"PO BOX 123","ALDEN","NY",14004,NA,NA,37,"PO BOX 123, ALDEN, NY, 14004","No_Match",NA,NA,NA,NA
971038,"PO BOX 123","AMSTERDAM","OH",43903,NA,NA,38,"PO BOX 123, AMSTERDAM, OH, 43903","No_Match",NA,NA,NA,NA
971039,"PO BOX 123","BARRE","VT",5641,NA,NA,39,"PO BOX 123, BARRE, VT, 5641","No_Match",NA,NA,NA,NA
971040,"PO BOX 123","BELLBROOK","OH",45305,NA,NA,40,"PO BOX 123, BELLBROOK, OH, 45305","No_Match",NA,NA,NA,NA
971041,"PO BOX 123","CAMDEN","MI",49232,NA,NA,41,"PO BOX 123, CAMDEN, MI, 49232","No_Match",NA,NA,NA,NA
971042,"PO BOX 123","CARLSBAD","CA",92018,NA,NA,42,"PO BOX 123, CARLSBAD, CA, 92018","No_Match",NA,NA,NA,NA
971043,"PO BOX 123","CARROLLTON","VA",23314,NA,NA,43,"PO BOX 123, CARROLLTON, VA, 23314","No_Match",NA,NA,NA,NA
971044,"PO BOX 123","CAYUGA","IN",47928,NA,NA,44,"PO BOX 123, CAYUGA, IN, 47928","No_Match",NA,NA,NA,NA
971045,"PO BOX 123","CAZADERO","CA",95421,NA,NA,45,"PO BOX 123, CAZADERO, CA, 95421","No_Match",NA,NA,NA,NA
971046,"PO BOX 123","CIALES","PR",638,NA,NA,46,"PO BOX 123, CIALES, PR, 638","No_Match",NA,NA,NA,NA
971047,"PO BOX 123","ETTERS","PA",17319,NA,NA,47,"PO BOX 123, ETTERS, PA, 17319","No_Match",NA,NA,NA,NA
971048,"PO BOX 123","FAIRVIEW","NC",28730,NA,NA,48,"PO BOX 123, FAIRVIEW, NC, 28730","No_Match",NA,NA,NA,NA
971049,"PO BOX 123","FONDA","NY",12303,NA,NA,49,"PO BOX 123, FONDA, NY, 12303","No_Match",NA,NA,NA,NA
971050,"PO BOX 123","GASTON","SC",29052,NA,NA,50,"PO BOX 123, GASTON, SC, 29052","No_Match",NA,NA,NA,NA
971051,"PO BOX 123","GILDFORD","MT",59525,NA,NA,51,"PO BOX 123, GILDFORD, MT, 59525","No_Match",NA,NA,NA,NA
971052,"PO BOX 123","GOOCHLAND","VA",23063,NA,NA,52,"PO BOX 123, GOOCHLAND, VA, 23063","No_Match",NA,NA,NA,NA
971053,"PO BOX 123","GREEN MOUNTAIN FALLS","CO",80819,NA,NA,53,"PO BOX 123, GREEN MOUNTAIN FALLS, CO, 80819","No_Match",NA,NA,NA,NA
971054,"PO BOX 123","HOPE HULL","AL",36043,NA,NA,54,"PO BOX 123, HOPE HULL, AL, 36043","No_Match",NA,NA,NA,NA
971055,"PO BOX 123","HOWELLS","NE",68641,NA,NA,55,"PO BOX 123, HOWELLS, NE, 68641","No_Match",NA,NA,NA,NA
971056,"PO BOX 123","HUGHESVILLE","MD",20637,NA,NA,56,"PO BOX 123, HUGHESVILLE, MD, 20637","No_Match",NA,NA,NA,NA
971057,"PO BOX 123","IVANHOE","TX",75447,NA,NA,57,"PO BOX 123, IVANHOE, TX, 75447","No_Match",NA,NA,NA,NA
971058,"PO BOX 123","JACKSON","NH",3846,NA,NA,58,"PO BOX 123, JACKSON, NH, 3846","No_Match",NA,NA,NA,NA
971059,"PO BOX 123","LOCUST VALLEY","NY",11560,NA,NA,59,"PO BOX 123, LOCUST VALLEY, NY, 11560","No_Match",NA,NA,NA,NA
971060,"PO BOX 123","LOWER WATERFORD","VT",5848,NA,NA,60,"PO BOX 123, LOWER WATERFORD, VT, 5848","No_Match",NA,NA,NA,NA
971061,"PO BOX 123","MORGANTOWN","IN",46160,NA,NA,61,"PO BOX 123, MORGANTOWN, IN, 46160","No_Match",NA,NA,NA,NA
971062,"PO BOX 123","NATALBANY","LA",70451,NA,NA,62,"PO BOX 123, NATALBANY, LA, 70451","No_Match",NA,NA,NA,NA
971063,"PO BOX 123","NEW RIEGEL","OH",44853,NA,NA,63,"PO BOX 123, NEW RIEGEL, OH, 44853","No_Match",NA,NA,NA,NA
971064,"PO BOX 123","OAK CREEK","WI",53154,NA,NA,64,"PO BOX 123, OAK CREEK, WI, 53154","No_Match",NA,NA,NA,NA
971065,"PO BOX 123","OURAY","CO",81427,NA,NA,65,"PO BOX 123, OURAY, CO, 81427","No_Match",NA,NA,NA,NA
971066,"PO BOX 123","PHILIP","SD",57567,NA,NA,66,"PO BOX 123, PHILIP, SD, 57567","No_Match",NA,NA,NA,NA
971067,"PO BOX 123","ROWLETT","TX",75030,NA,NA,67,"PO BOX 123, ROWLETT, TX, 75030","No_Match",NA,NA,NA,NA
971068,"PO BOX 123","SAG HARBOR","NY",11963,NA,NA,68,"PO BOX 123, SAG HARBOR, NY, 11963","No_Match",NA,NA,NA,NA
971069,"PO BOX 123","SILVER LAKE","OR",97638,NA,NA,69,"PO BOX 123, SILVER LAKE, OR, 97638","No_Match",NA,NA,NA,NA
971070,"PO BOX 123","SPURGER","TX",77660,NA,NA,70,"PO BOX 123, SPURGER, TX, 77660","No_Match",NA,NA,NA,NA
971071,"PO BOX 123","STOWE","VT",5672,NA,NA,71,"PO BOX 123, STOWE, VT, 5672","No_Match",NA,NA,NA,NA
971072,"PO BOX 123","TARBORO","NC",27886,NA,NA,72,"PO BOX 123, TARBORO, NC, 27886","No_Match",NA,NA,NA,NA
971073,"PO BOX 123","TOWANDA","PA",18848,NA,NA,73,"PO BOX 123, TOWANDA, PA, 18848","No_Match",NA,NA,NA,NA
971074,"PO BOX 123","WINONA","TX",75792,NA,NA,74,"PO BOX 123, WINONA, TX, 75792","No_Match",NA,NA,NA,NA
971075,"PO BOX 123","YARMOUTH","ME",4096,NA,NA,75,"PO BOX 123, YARMOUTH, ME, 4096","No_Match",NA,NA,NA,NA
971076,"PO BOX 1230","LANDER","WY",82520,NA,NA,76,"PO BOX 1230, LANDER, WY, 82520","No_Match",NA,NA,NA,NA
971077,"PO BOX 1230","TUBAC","AZ",85646,NA,NA,77,"PO BOX 1230, TUBAC, AZ, 85646","No_Match",NA,NA,NA,NA
971078,"PO BOX 12301","RICHMOND","VA",23241,NA,NA,78,"PO BOX 12301, RICHMOND, VA, 23241","No_Match",NA,NA,NA,NA
971079,"PO BOX 12302","ALBUQUERQUE","NM",87195,NA,NA,79,"PO BOX 12302, ALBUQUERQUE, NM, 87195","No_Match",NA,NA,NA,NA
971080,"PO BOX 12308","AUSTIN","TX",78711,NA,NA,80,"PO BOX 12308, AUSTIN, TX, 78711","No_Match",NA,NA,NA,NA
971081,"PO BOX 1231","ENNIS","TX",75120,NA,NA,81,"PO BOX 1231, ENNIS, TX, 75120","No_Match",NA,NA,NA,NA
971082,"PO BOX 1231","EPHRATA","WA",98823,NA,NA,82,"PO BOX 1231, EPHRATA, WA, 98823","No_Match",NA,NA,NA,NA
971083,"PO BOX 1231","PALO CEDRO","CA",96073,NA,NA,83,"PO BOX 1231, PALO CEDRO, CA, 96073","No_Match",NA,NA,NA,NA
971084,"PO BOX 1231","SEELEY LAKE","MT",59868,NA,NA,84,"PO BOX 1231, SEELEY LAKE, MT, 59868","No_Match",NA,NA,NA,NA
971085,"PO BOX 1231","STANTON","TX",79782,NA,NA,85,"PO BOX 1231, STANTON, TX, 79782","No_Match",NA,NA,NA,NA
971086,"PO BOX 1231","WINNEMUCCA","NV",89446,NA,NA,86,"PO BOX 1231, WINNEMUCCA, NV, 89446","No_Match",NA,NA,NA,NA
971087,"PO BOX 12318","COSTA MESA","CA",92627,NA,NA,87,"PO BOX 12318, COSTA MESA, CA, 92627","No_Match",NA,NA,NA,NA
971088,"PO BOX 1232","ANTHONY","FL",32617,NA,NA,88,"PO BOX 1232, ANTHONY, FL, 32617","No_Match",NA,NA,NA,NA
971089,"PO BOX 1232","CLYDE","NC",28721,NA,NA,89,"PO BOX 1232, CLYDE, NC, 28721","No_Match",NA,NA,NA,NA
971090,"PO BOX 1232","FRESNO","CA",93015,NA,NA,90,"PO BOX 1232, FRESNO, CA, 93015","No_Match",NA,NA,NA,NA
971091,"PO BOX 1232","GRANTHAM","NH",3753,NA,NA,91,"PO BOX 1232, GRANTHAM, NH, 3753","No_Match",NA,NA,NA,NA
971092,"PO BOX 1232","TOPPENISH","WA",98948,NA,NA,92,"PO BOX 1232, TOPPENISH, WA, 98948","No_Match",NA,NA,NA,NA
971093,"PO BOX 1232","WESTON","CT",6883,NA,NA,93,"PO BOX 1232, WESTON, CT, 6883","No_Match",NA,NA,NA,NA
971094,"PO BOX 1233","ABINGDON","MD",21009,NA,NA,94,"PO BOX 1233, ABINGDON, MD, 21009","No_Match",NA,NA,NA,NA
971095,"PO BOX 1233","COAL CITY","WV",25823,NA,NA,95,"PO BOX 1233, COAL CITY, WV, 25823","No_Match",NA,NA,NA,NA
971096,"PO BOX 1233","CORVALLIS","OR",97339,NA,NA,96,"PO BOX 1233, CORVALLIS, OR, 97339","No_Match",NA,NA,NA,NA
971097,"PO BOX 1233","DEL MAR","CA",92014,NA,NA,97,"PO BOX 1233, DEL MAR, CA, 92014","No_Match",NA,NA,NA,NA
971098,"PO BOX 1233","EAGAR","AZ",85925,NA,NA,98,"PO BOX 1233, EAGAR, AZ, 85925","No_Match",NA,NA,NA,NA
971099,"PO BOX 1233","FORT SMITH","AR",72902,NA,NA,99,"PO BOX 1233, FORT SMITH, AR, 72902","No_Match",NA,NA,NA,NA
971100,"PO BOX 1233","GEORGETOWN","CO",80444,NA,NA,100,"PO BOX 1233, GEORGETOWN, CO, 80444","No_Match",NA,NA,NA,NA
971101,"PO BOX 1233","MAGDALENA","NM",87825,NA,NA,101,"PO BOX 1233, MAGDALENA, NM, 87825","No_Match",NA,NA,NA,NA
971102,"PO BOX 1233","MILFORD","PA",18337,NA,NA,102,"PO BOX 1233, MILFORD, PA, 18337","No_Match",NA,NA,NA,NA
971103,"PO BOX 12333","SEATTLE","WA",98111,NA,NA,103,"PO BOX 12333, SEATTLE, WA, 98111","No_Match",NA,NA,NA,NA
971104,"PO BOX 12336","SAN ANTONIO","TX",78212,NA,NA,104,"PO BOX 12336, SAN ANTONIO, TX, 78212","No_Match",NA,NA,NA,NA
971105,"PO BOX 1234","BAYTOWN","TX",77522,NA,NA,105,"PO BOX 1234, BAYTOWN, TX, 77522","No_Match",NA,NA,NA,NA
971106,"PO BOX 1234","CARTHAGE","TX",75633,NA,NA,106,"PO BOX 1234, CARTHAGE, TX, 75633","No_Match",NA,NA,NA,NA
971107,"PO BOX 1234","CLYDE","TX",79510,NA,NA,107,"PO BOX 1234, CLYDE, TX, 79510","No_Match",NA,NA,NA,NA
971108,"PO BOX 1234","FORSYTH","MT",59327,NA,NA,108,"PO BOX 1234, FORSYTH, MT, 59327","No_Match",NA,NA,NA,NA
971109,"PO BOX 1234","GARDEN VALLEY","ID",83622,NA,NA,109,"PO BOX 1234, GARDEN VALLEY, ID, 83622","No_Match",NA,NA,NA,NA
971110,"PO BOX 1234","HAMILTON","OH",45012,NA,NA,110,"PO BOX 1234, HAMILTON, OH, 45012","No_Match",NA,NA,NA,NA
971111,"PO BOX 1234","SOUTH BOSTON","VA",24592,NA,NA,111,"PO BOX 1234, SOUTH BOSTON, VA, 24592","No_Match",NA,NA,NA,NA
971112,"PO BOX 12343","MILWAUKEE","WI",53212,NA,NA,112,"PO BOX 12343, MILWAUKEE, WI, 53212","No_Match",NA,NA,NA,NA
971113,"PO BOX 12345","CINCINNATI","OH",45212,NA,NA,113,"PO BOX 12345, CINCINNATI, OH, 45212","No_Match",NA,NA,NA,NA
971114,"PO BOX 12346","PLEASANTON","CA",94588,NA,NA,114,"PO BOX 12346, PLEASANTON, CA, 94588","No_Match",NA,NA,NA,NA
971115,"PO BOX 1235","LEAKEY","TX",78873,NA,NA,115,"PO BOX 1235, LEAKEY, TX, 78873","No_Match",NA,NA,NA,NA
971116,"PO BOX 1235","LUCASVILLE","OH",45648,NA,NA,116,"PO BOX 1235, LUCASVILLE, OH, 45648","No_Match",NA,NA,NA,NA
971117,"PO BOX 1235","PALATKA","FL",32178,NA,NA,117,"PO BOX 1235, PALATKA, FL, 32178","No_Match",NA,NA,NA,NA
971118,"PO BOX 1235","TILLAMOOK","OR",97141,NA,NA,118,"PO BOX 1235, TILLAMOOK, OR, 97141","No_Match",NA,NA,NA,NA
971119,"PO BOX 1236","CANOVANAS","PR",729,NA,NA,119,"PO BOX 1236, CANOVANAS, PR, 729","No_Match",NA,NA,NA,NA
971120,"PO BOX 1236","CHALLIS","ID",83226,NA,NA,120,"PO BOX 1236, CHALLIS, ID, 83226","No_Match",NA,NA,NA,NA
971121,"PO BOX 1236","ELON","NC",27244,NA,NA,121,"PO BOX 1236, ELON, NC, 27244","No_Match",NA,NA,NA,NA
971122,"PO BOX 1236","MEEKER","CO",81641,NA,NA,122,"PO BOX 1236, MEEKER, CO, 81641","No_Match",NA,NA,NA,NA
971123,"PO BOX 1236","PAROWAN","UT",84761,NA,NA,123,"PO BOX 1236, PAROWAN, UT, 84761","No_Match",NA,NA,NA,NA
971124,"PO BOX 1236","PETERSBURG","AK",99833,NA,NA,124,"PO BOX 1236, PETERSBURG, AK, 99833","No_Match",NA,NA,NA,NA
971125,"PO BOX 1236","SEWARD","AK",99664,NA,NA,125,"PO BOX 1236, SEWARD, AK, 99664","No_Match",NA,NA,NA,NA
971126,"PO BOX 12367","SEATTLE","WA",98111,NA,NA,126,"PO BOX 12367, SEATTLE, WA, 98111","No_Match",NA,NA,NA,NA
971127,"PO BOX 1237 1 RUSTLING OAKS ROAD","WEST TISBURY","MA",2575,41.3800379530001,-70.6101079219999,127,"PO BOX 1237 1 RUSTLING OAKS ROAD, WEST TISBURY, MA, 2575","Match","Exact","1 RUSTLING OAKS RD, WEST TISBURY, MA, 02575",627120298,"R"
971128,"PO BOX 1237","DECATUR","AL",35602,NA,NA,128,"PO BOX 1237, DECATUR, AL, 35602","No_Match",NA,NA,NA,NA
971129,"PO BOX 1237","FORT MYERS","FL",33902,NA,NA,129,"PO BOX 1237, FORT MYERS, FL, 33902","No_Match",NA,NA,NA,NA
971130,"PO BOX 1237","LA VETA","CO",81055,NA,NA,130,"PO BOX 1237, LA VETA, CO, 81055","No_Match",NA,NA,NA,NA
971131,"PO BOX 1237","LOGANVILLE","GA",30052,NA,NA,131,"PO BOX 1237, LOGANVILLE, GA, 30052","No_Match",NA,NA,NA,NA
971132,"PO BOX 1237","WHITEHOUSE","TX",75791,NA,NA,132,"PO BOX 1237, WHITEHOUSE, TX, 75791","No_Match",NA,NA,NA,NA
971133,"PO BOX 12371","MILL CREEK","WA",98082,NA,NA,133,"PO BOX 12371, MILL CREEK, WA, 98082","No_Match",NA,NA,NA,NA
971134,"PO BOX 1238","ALPINE","NJ",7620,NA,NA,134,"PO BOX 1238, ALPINE, NJ, 7620","No_Match",NA,NA,NA,NA
971135,"PO BOX 1238","CENTURY","FL",32535,NA,NA,135,"PO BOX 1238, CENTURY, FL, 32535","No_Match",NA,NA,NA,NA
971136,"PO BOX 1238","DECATUR","TX",76234,NA,NA,136,"PO BOX 1238, DECATUR, TX, 76234","No_Match",NA,NA,NA,NA
971137,"PO BOX 1238","DERRY","NH",3038,NA,NA,137,"PO BOX 1238, DERRY, NH, 3038","No_Match",NA,NA,NA,NA
971138,"PO BOX 12382","PENSACOLA","FL",32591,NA,NA,138,"PO BOX 12382, PENSACOLA, FL, 32591","No_Match",NA,NA,NA,NA
971139,"PO BOX 12394","SALEM","OR",97309,NA,NA,139,"PO BOX 12394, SALEM, OR, 97309","No_Match",NA,NA,NA,NA
971140,"PO BOX 124 - 237 FLATBUSH AVENUE","BROOKLYN","NY",11217,40.684930191,-73.978081032,140,"PO BOX 124 - 237 FLATBUSH AVENUE, BROOKLYN, NY, 11217","Match","Exact","124 FLATBUSH AVE, BROOKLYN, NY, 11217",59077595,"R"
971141,"PO BOX 124","ADNA","WA",98522,NA,NA,141,"PO BOX 124, ADNA, WA, 98522","No_Match",NA,NA,NA,NA
971142,"PO BOX 124","ALEXANDRIA","PA",16611,NA,NA,142,"PO BOX 124, ALEXANDRIA, PA, 16611","No_Match",NA,NA,NA,NA
971143,"PO BOX 124","BANDON","OR",97411,NA,NA,143,"PO BOX 124, BANDON, OR, 97411","No_Match",NA,NA,NA,NA
971144,"PO BOX 124","CENTER CONWAY","NH",3813,NA,NA,144,"PO BOX 124, CENTER CONWAY, NH, 3813","No_Match",NA,NA,NA,NA
971145,"PO BOX 124","CHATSWORTH","GA",30705,NA,NA,145,"PO BOX 124, CHATSWORTH, GA, 30705","No_Match",NA,NA,NA,NA
971146,"PO BOX 124","CORYDON","KY",42406,NA,NA,146,"PO BOX 124, CORYDON, KY, 42406","No_Match",NA,NA,NA,NA
971147,"PO BOX 124","DRYDEN","MI",48428,NA,NA,147,"PO BOX 124, DRYDEN, MI, 48428","No_Match",NA,NA,NA,NA
971148,"PO BOX 124","FALLS MILLS","VA",24613,NA,NA,148,"PO BOX 124, FALLS MILLS, VA, 24613","No_Match",NA,NA,NA,NA
971149,"PO BOX 124","FT DRUM","NY",13603,NA,NA,149,"PO BOX 124, FT DRUM, NY, 13603","No_Match",NA,NA,NA,NA
971150,"PO BOX 124","GLENWOOD SPRINGS","CO",81601,NA,NA,150,"PO BOX 124, GLENWOOD SPRINGS, CO, 81601","No_Match",NA,NA,NA,NA
971151,"PO BOX 124","GOFFSTOWN","NH",3045,NA,NA,151,"PO BOX 124, GOFFSTOWN, NH, 3045","No_Match",NA,NA,NA,NA
971152,"PO BOX 124","JUNCOS","PR",777,NA,NA,152,"PO BOX 124, JUNCOS, PR, 777","No_Match",NA,NA,NA,NA
971153,"PO BOX 124","KINGFISHER","OK",73750,NA,NA,153,"PO BOX 124, KINGFISHER, OK, 73750","No_Match",NA,NA,NA,NA
971154,"PO BOX 124","LINN","TX",78563,NA,NA,154,"PO BOX 124, LINN, TX, 78563","No_Match",NA,NA,NA,NA
971155,"PO BOX 124","MANNS HARBOR","NC",27953,NA,NA,155,"PO BOX 124, MANNS HARBOR, NC, 27953","No_Match",NA,NA,NA,NA
971156,"PO BOX 124","MARLINTON","WV",24954,NA,NA,156,"PO BOX 124, MARLINTON, WV, 24954","No_Match",NA,NA,NA,NA
971157,"PO BOX 124","MAUMEE","OH",43537,NA,NA,157,"PO BOX 124, MAUMEE, OH, 43537","No_Match",NA,NA,NA,NA
971158,"PO BOX 124","MONTEVIDEO","MN",56265,NA,NA,158,"PO BOX 124, MONTEVIDEO, MN, 56265","No_Match",NA,NA,NA,NA
971159,"PO BOX 124","NEW YORK","NY",10012,NA,NA,159,"PO BOX 124, NEW YORK, NY, 10012","No_Match",NA,NA,NA,NA
971160,"PO BOX 124","NORCO","LA",70079,NA,NA,160,"PO BOX 124, NORCO, LA, 70079","No_Match",NA,NA,NA,NA
971161,"PO BOX 124","PAHOA","HI",96778,NA,NA,161,"PO BOX 124, PAHOA, HI, 96778","No_Match",NA,NA,NA,NA
971162,"PO BOX 124","PAIGE","TX",78659,NA,NA,162,"PO BOX 124, PAIGE, TX, 78659","No_Match",NA,NA,NA,NA
971163,"PO BOX 124","PALESTINE","TX",75802,NA,NA,163,"PO BOX 124, PALESTINE, TX, 75802","No_Match",NA,NA,NA,NA
971164,"PO BOX 124","RHAME","ND",58651,NA,NA,164,"PO BOX 124, RHAME, ND, 58651","No_Match",NA,NA,NA,NA
971165,"PO BOX 124","RINEYVILLE","KY",40162,NA,NA,165,"PO BOX 124, RINEYVILLE, KY, 40162","No_Match",NA,NA,NA,NA
971166,"PO BOX 124","ROSELAWN","IN",46372,NA,NA,166,"PO BOX 124, ROSELAWN, IN, 46372","No_Match",NA,NA,NA,NA
971167,"PO BOX 124","ROTTERDAM JUNCTION","NY",12150,NA,NA,167,"PO BOX 124, ROTTERDAM JUNCTION, NY, 12150","No_Match",NA,NA,NA,NA
971168,"PO BOX 124","SIMPSONVILLE","SC",29681,NA,NA,168,"PO BOX 124, SIMPSONVILLE, SC, 29681","No_Match",NA,NA,NA,NA
971169,"PO BOX 124","STRATFORD","TX",79084,NA,NA,169,"PO BOX 124, STRATFORD, TX, 79084","No_Match",NA,NA,NA,NA
971170,"PO BOX 124","TETONIA","ID",83452,NA,NA,170,"PO BOX 124, TETONIA, ID, 83452","No_Match",NA,NA,NA,NA
971171,"PO BOX 124","WAUTOMA","WI",54982,NA,NA,171,"PO BOX 124, WAUTOMA, WI, 54982","No_Match",NA,NA,NA,NA
971172,"PO BOX 124","WESTVILLE","NJ",8093,NA,NA,172,"PO BOX 124, WESTVILLE, NJ, 8093","No_Match",NA,NA,NA,NA
971173,"PO BOX 124","YANCEYVILLE","NC",27379,NA,NA,173,"PO BOX 124, YANCEYVILLE, NC, 27379","No_Match",NA,NA,NA,NA
971174,"PO BOX 1240","MANATI","PR",674,NA,NA,174,"PO BOX 1240, MANATI, PR, 674","No_Match",NA,NA,NA,NA
971175,"PO BOX 1240","PEMBROKE","NC",28372,NA,NA,175,"PO BOX 1240, PEMBROKE, NC, 28372","No_Match",NA,NA,NA,NA
971176,"PO BOX 1240","SEMINOLE","OK",74818,NA,NA,176,"PO BOX 1240, SEMINOLE, OK, 74818","No_Match",NA,NA,NA,NA
971177,"PO BOX 1240","WALDPORT","OR",97394,NA,NA,177,"PO BOX 1240, WALDPORT, OR, 97394","No_Match",NA,NA,NA,NA
971178,"PO BOX 1241","DILLON","SC",29536,NA,NA,178,"PO BOX 1241, DILLON, SC, 29536","No_Match",NA,NA,NA,NA
971179,"PO BOX 1241","ELKO","NV",89803,NA,NA,179,"PO BOX 1241, ELKO, NV, 89803","No_Match",NA,NA,NA,NA
971180,"PO BOX 1241","HADDONFIELD","NJ",8033,NA,NA,180,"PO BOX 1241, HADDONFIELD, NJ, 8033","No_Match",NA,NA,NA,NA
971181,"PO BOX 1241","HOWARD","KS",67349,NA,NA,181,"PO BOX 1241, HOWARD, KS, 67349","No_Match",NA,NA,NA,NA
971182,"PO BOX 1241","KINSTON","NC",28502,NA,NA,182,"PO BOX 1241, KINSTON, NC, 28502","No_Match",NA,NA,NA,NA
971183,"PO BOX 1241","MOREHEAD","KY",40351,NA,NA,183,"PO BOX 1241, MOREHEAD, KY, 40351","No_Match",NA,NA,NA,NA
971184,"PO BOX 12413","RICHMOND","VA",23241,NA,NA,184,"PO BOX 12413, RICHMOND, VA, 23241","No_Match",NA,NA,NA,NA
971185,"PO BOX 1242","ADELANTO","CA",92301,NA,NA,185,"PO BOX 1242, ADELANTO, CA, 92301","No_Match",NA,NA,NA,NA
971186,"PO BOX 1242","BAGDAD","AZ",86321,NA,NA,186,"PO BOX 1242, BAGDAD, AZ, 86321","No_Match",NA,NA,NA,NA
971187,"PO BOX 1242","CALDWELL","ID",83606,NA,NA,187,"PO BOX 1242, CALDWELL, ID, 83606","No_Match",NA,NA,NA,NA
971188,"PO BOX 1242","CAPTAIN COOK","HI",96704,NA,NA,188,"PO BOX 1242, CAPTAIN COOK, HI, 96704","No_Match",NA,NA,NA,NA
971189,"PO BOX 1242","FARMINGTON","NM",87499,NA,NA,189,"PO BOX 1242, FARMINGTON, NM, 87499","No_Match",NA,NA,NA,NA
971190,"PO BOX 1242","FAYETTE","MS",39069,NA,NA,190,"PO BOX 1242, FAYETTE, MS, 39069","No_Match",NA,NA,NA,NA
971191,"PO BOX 1242","GREEN VALLEY","AZ",85622,NA,NA,191,"PO BOX 1242, GREEN VALLEY, AZ, 85622","No_Match",NA,NA,NA,NA
971192,"PO BOX 1242","ORANGE BEACH","AL",36561,NA,NA,192,"PO BOX 1242, ORANGE BEACH, AL, 36561","No_Match",NA,NA,NA,NA
971193,"PO BOX 1242","ROME","GA",30162,NA,NA,193,"PO BOX 1242, ROME, GA, 30162","No_Match",NA,NA,NA,NA
971194,"PO BOX 12426","PORTLAND","OR",92712,NA,NA,194,"PO BOX 12426, PORTLAND, OR, 92712","No_Match",NA,NA,NA,NA
971195,"PO BOX 1243","ASHBURN","VA",20146,NA,NA,195,"PO BOX 1243, ASHBURN, VA, 20146","No_Match",NA,NA,NA,NA
971196,"PO BOX 1243","AZUSA","CA",91702,NA,NA,196,"PO BOX 1243, AZUSA, CA, 91702","No_Match",NA,NA,NA,NA
971197,"PO BOX 1243","BARTOW","FL",33831,NA,NA,197,"PO BOX 1243, BARTOW, FL, 33831","No_Match",NA,NA,NA,NA
971198,"PO BOX 1243","BATTLE GROUND","WA",98604,NA,NA,198,"PO BOX 1243, BATTLE GROUND, WA, 98604","No_Match",NA,NA,NA,NA
971199,"PO BOX 1243","NAGS HEAD","NC",27959,NA,NA,199,"PO BOX 1243, NAGS HEAD, NC, 27959","No_Match",NA,NA,NA,NA
971200,"PO BOX 1243","PHILIPSBURG","MT",59858,NA,NA,200,"PO BOX 1243, PHILIPSBURG, MT, 59858","No_Match",NA,NA,NA,NA
971201,"PO BOX 1243","YULEE","FL",32041,NA,NA,201,"PO BOX 1243, YULEE, FL, 32041","No_Match",NA,NA,NA,NA
971202,"PO BOX 12431","MILL CREEK","WA",98082,NA,NA,202,"PO BOX 12431, MILL CREEK, WA, 98082","No_Match",NA,NA,NA,NA
971203,"PO BOX 12439","NEWPORT BEACH","CA",92658,NA,NA,203,"PO BOX 12439, NEWPORT BEACH, CA, 92658","No_Match",NA,NA,NA,NA
971204,"PO BOX 1244","BIG SPRING","TX",79721,NA,NA,204,"PO BOX 1244, BIG SPRING, TX, 79721","No_Match",NA,NA,NA,NA
971205,"PO BOX 1244","COAMO","PR",769,NA,NA,205,"PO BOX 1244, COAMO, PR, 769","No_Match",NA,NA,NA,NA
971206,"PO BOX 1244","COTTONWOOD","AZ",86326,NA,NA,206,"PO BOX 1244, COTTONWOOD, AZ, 86326","No_Match",NA,NA,NA,NA
971207,"PO BOX 1244","JESUP","GA",31598,NA,NA,207,"PO BOX 1244, JESUP, GA, 31598","No_Match",NA,NA,NA,NA
971208,"PO BOX 1244","LAGUNA BEACH","CA",92652,NA,NA,208,"PO BOX 1244, LAGUNA BEACH, CA, 92652","No_Match",NA,NA,NA,NA
971209,"PO BOX 1244","MOLALLA","OR",97038,NA,NA,209,"PO BOX 1244, MOLALLA, OR, 97038","No_Match",NA,NA,NA,NA
971210,"PO BOX 1244","OCEAN PARK","WA",98640,NA,NA,210,"PO BOX 1244, OCEAN PARK, WA, 98640","No_Match",NA,NA,NA,NA
971211,"PO BOX 1244","SHELBYVILLE","KY",40066,NA,NA,211,"PO BOX 1244, SHELBYVILLE, KY, 40066","No_Match",NA,NA,NA,NA
971212,"PO BOX 1244","STANLEY","ND",58784,NA,NA,212,"PO BOX 1244, STANLEY, ND, 58784","No_Match",NA,NA,NA,NA
971213,"PO BOX 1244","SULTAN","WA",98294,NA,NA,213,"PO BOX 1244, SULTAN, WA, 98294","No_Match",NA,NA,NA,NA
971214,"PO BOX 1244","THOMSPON FALLS","MT",59873,NA,NA,214,"PO BOX 1244, THOMSPON FALLS, MT, 59873","No_Match",NA,NA,NA,NA
971215,"PO BOX 1244","VACAVILLE","CA",95696,NA,NA,215,"PO BOX 1244, VACAVILLE, CA, 95696","No_Match",NA,NA,NA,NA
971216,"PO BOX 1245","HOMER","AK",99603,NA,NA,216,"PO BOX 1245, HOMER, AK, 99603","No_Match",NA,NA,NA,NA
971217,"PO BOX 1245","TAYLOR","TX",76574,NA,NA,217,"PO BOX 1245, TAYLOR, TX, 76574","No_Match",NA,NA,NA,NA
971218,"PO BOX 12457","AUSTIN","TX",78711,NA,NA,218,"PO BOX 12457, AUSTIN, TX, 78711","No_Match",NA,NA,NA,NA
971219,"PO BOX 12459","JOHNSON CITY","TN",37614,NA,NA,219,"PO BOX 12459, JOHNSON CITY, TN, 37614","No_Match",NA,NA,NA,NA
971220,"PO BOX 1246","BRENTWOOD","TN",37024,NA,NA,220,"PO BOX 1246, BRENTWOOD, TN, 37024","No_Match",NA,NA,NA,NA
971221,"PO BOX 1246","CHESTER","CA",96020,NA,NA,221,"PO BOX 1246, CHESTER, CA, 96020","No_Match",NA,NA,NA,NA
971222,"PO BOX 1246","KAMIAH","ID",83536,NA,NA,222,"PO BOX 1246, KAMIAH, ID, 83536","No_Match",NA,NA,NA,NA
971223,"PO BOX 1246","SIOUX FALLS","SD",57101,NA,NA,223,"PO BOX 1246, SIOUX FALLS, SD, 57101","No_Match",NA,NA,NA,NA
971224,"PO BOX 1246","WESTMINSTER","CA",92684,NA,NA,224,"PO BOX 1246, WESTMINSTER, CA, 92684","No_Match",NA,NA,NA,NA
971225,"PO BOX 1246","WESTMISTER","CA",92684,NA,NA,225,"PO BOX 1246, WESTMISTER, CA, 92684","No_Match",NA,NA,NA,NA
971226,"PO BOX 12465","JACKSON","MS",39236,NA,NA,226,"PO BOX 12465, JACKSON, MS, 39236","No_Match",NA,NA,NA,NA
971227,"PO BOX 124665","SAN DIEGO","CA",92112,NA,NA,227,"PO BOX 124665, SAN DIEGO, CA, 92112","No_Match",NA,NA,NA,NA
971228,"PO BOX 1247","BIG TIMBER","MT",59011,NA,NA,228,"PO BOX 1247, BIG TIMBER, MT, 59011","No_Match",NA,NA,NA,NA
971229,"PO BOX 1247","SHELBYVILLE","KY",40066,NA,NA,229,"PO BOX 1247, SHELBYVILLE, KY, 40066","No_Match",NA,NA,NA,NA
971230,"PO BOX 1248","ASPEN","CO",81612,NA,NA,230,"PO BOX 1248, ASPEN, CO, 81612","No_Match",NA,NA,NA,NA
971231,"PO BOX 1248","BENTON","AR",72018,NA,NA,231,"PO BOX 1248, BENTON, AR, 72018","No_Match",NA,NA,NA,NA
971232,"PO BOX 1248","KAUNAKAKAI","HI",96748,NA,NA,232,"PO BOX 1248, KAUNAKAKAI, HI, 96748","No_Match",NA,NA,NA,NA
971233,"PO BOX 1248","KEMMERER","WY",83101,NA,NA,233,"PO BOX 1248, KEMMERER, WY, 83101","No_Match",NA,NA,NA,NA
971234,"PO BOX 1248","PAULDEN","AZ",86334,NA,NA,234,"PO BOX 1248, PAULDEN, AZ, 86334","No_Match",NA,NA,NA,NA
971235,"PO BOX 1248","RICHMOND","TX",77406,NA,NA,235,"PO BOX 1248, RICHMOND, TX, 77406","No_Match",NA,NA,NA,NA
971236,"PO BOX 1248","SUNSET BEACH","CA",90742,NA,NA,236,"PO BOX 1248, SUNSET BEACH, CA, 90742","No_Match",NA,NA,NA,NA
971237,"PO BOX 12481","DALLAS","TX",75225,NA,NA,237,"PO BOX 12481, DALLAS, TX, 75225","No_Match",NA,NA,NA,NA
971238,"PO BOX 1249","PAULDEN","AZ",86334,NA,NA,238,"PO BOX 1249, PAULDEN, AZ, 86334","No_Match",NA,NA,NA,NA
971239,"PO BOX 1249","SARATOGA","WY",82331,NA,NA,239,"PO BOX 1249, SARATOGA, WY, 82331","No_Match",NA,NA,NA,NA
971240,"PO BOX 12492","DENVER","CO",80212,NA,NA,240,"PO BOX 12492, DENVER, CO, 80212","No_Match",NA,NA,NA,NA
971241,"PO BOX 12497","DURHAM","NC",27709,NA,NA,241,"PO BOX 12497, DURHAM, NC, 27709","No_Match",NA,NA,NA,NA
971242,"PO BOX 125 - 26 MESA STREET","RESERVE","NM",87830,33.7028750850001,-108.764279772,242,"PO BOX 125 - 26 MESA STREET, RESERVE, NM, 87830","Match","Exact","26 MESA ST, RESERVE, NM, 87830",178734803,"R"
971243,"PO BOX 125","ADAMS RUN","SC",29426,NA,NA,243,"PO BOX 125, ADAMS RUN, SC, 29426","No_Match",NA,NA,NA,NA
971244,"PO BOX 125","APPLE SPRINGS","TX",75926,NA,NA,244,"PO BOX 125, APPLE SPRINGS, TX, 75926","No_Match",NA,NA,NA,NA
971245,"PO BOX 125","BACLIFF","TX",77518,NA,NA,245,"PO BOX 125, BACLIFF, TX, 77518","No_Match",NA,NA,NA,NA
971246,"PO BOX 125","BELT","MT",59412,NA,NA,246,"PO BOX 125, BELT, MT, 59412","No_Match",NA,NA,NA,NA
971247,"PO BOX 125","BRAINERD","MN",56401,NA,NA,247,"PO BOX 125, BRAINERD, MN, 56401","No_Match",NA,NA,NA,NA
971248,"PO BOX 125","BUSHLAND","TX",79012,NA,NA,248,"PO BOX 125, BUSHLAND, TX, 79012","No_Match",NA,NA,NA,NA
971249,"PO BOX 125","CLAYVILLE","RI",2815,NA,NA,249,"PO BOX 125, CLAYVILLE, RI, 2815","No_Match",NA,NA,NA,NA
971250,"PO BOX 125","DOWNEY","ID",83234,NA,NA,250,"PO BOX 125, DOWNEY, ID, 83234","No_Match",NA,NA,NA,NA
971251,"PO BOX 125","EAST OLYMPIA","WA",98540,NA,NA,251,"PO BOX 125, EAST OLYMPIA, WA, 98540","No_Match",NA,NA,NA,NA
971252,"PO BOX 125","FALL CITY","WA",98024,NA,NA,252,"PO BOX 125, FALL CITY, WA, 98024","No_Match",NA,NA,NA,NA
971253,"PO BOX 125","GREEN VILLAGE","NJ",7935,NA,NA,253,"PO BOX 125, GREEN VILLAGE, NJ, 7935","No_Match",NA,NA,NA,NA
971254,"PO BOX 125","GREENCASTLE","IN",46135,NA,NA,254,"PO BOX 125, GREENCASTLE, IN, 46135","No_Match",NA,NA,NA,NA
971255,"PO BOX 125","HAWLEY","TX",79525,NA,NA,255,"PO BOX 125, HAWLEY, TX, 79525","No_Match",NA,NA,NA,NA
971256,"PO BOX 125","HUDSON","NH",3051,NA,NA,256,"PO BOX 125, HUDSON, NH, 3051","No_Match",NA,NA,NA,NA
971257,"PO BOX 125","HURTSBORO","AL",36860,NA,NA,257,"PO BOX 125, HURTSBORO, AL, 36860","No_Match",NA,NA,NA,NA
971258,"PO BOX 125","INWOOD","WV",25428,NA,NA,258,"PO BOX 125, INWOOD, WV, 25428","No_Match",NA,NA,NA,NA
971259,"PO BOX 125","JAMESTOWN","SC",29453,NA,NA,259,"PO BOX 125, JAMESTOWN, SC, 29453","No_Match",NA,NA,NA,NA
971260,"PO BOX 125","KERHONKSON","NY",12446,NA,NA,260,"PO BOX 125, KERHONKSON, NY, 12446","No_Match",NA,NA,NA,NA
971261,"PO BOX 125","KIELER","WI",53812,NA,NA,261,"PO BOX 125, KIELER, WI, 53812","No_Match",NA,NA,NA,NA
971262,"PO BOX 125","KINGSTON","ID",83839,NA,NA,262,"PO BOX 125, KINGSTON, ID, 83839","No_Match",NA,NA,NA,NA
971263,"PO BOX 125","KULA","HI",96790,NA,NA,263,"PO BOX 125, KULA, HI, 96790","No_Match",NA,NA,NA,NA
971264,"PO BOX 125","LAFAYETTE","NJ",7848,NA,NA,264,"PO BOX 125, LAFAYETTE, NJ, 7848","No_Match",NA,NA,NA,NA
971265,"PO BOX 125","LYNN","AR",72440,NA,NA,265,"PO BOX 125, LYNN, AR, 72440","No_Match",NA,NA,NA,NA
971266,"PO BOX 125","MARION","SD",57043,NA,NA,266,"PO BOX 125, MARION, SD, 57043","No_Match",NA,NA,NA,NA
971267,"PO BOX 125","MILFORD","NY",13807,NA,NA,267,"PO BOX 125, MILFORD, NY, 13807","No_Match",NA,NA,NA,NA
971268,"PO BOX 125","MORRILTON","AR",72110,NA,NA,268,"PO BOX 125, MORRILTON, AR, 72110","No_Match",NA,NA,NA,NA
971269,"PO BOX 125","MOSHEIM","TN",37818,NA,NA,269,"PO BOX 125, MOSHEIM, TN, 37818","No_Match",NA,NA,NA,NA
971270,"PO BOX 125","ORIENT","NY",11957,NA,NA,270,"PO BOX 125, ORIENT, NY, 11957","No_Match",NA,NA,NA,NA
971271,"PO BOX 125","PENDER","NE",68047,NA,NA,271,"PO BOX 125, PENDER, NE, 68047","No_Match",NA,NA,NA,NA
971272,"PO BOX 125","PENNOCK","MN",56279,NA,NA,272,"PO BOX 125, PENNOCK, MN, 56279","No_Match",NA,NA,NA,NA
971273,"PO BOX 125","PIERCE","NE",68767,NA,NA,273,"PO BOX 125, PIERCE, NE, 68767","No_Match",NA,NA,NA,NA
971274,"PO BOX 125","RAQUETTE LAKE","NY",13436,NA,NA,274,"PO BOX 125, RAQUETTE LAKE, NY, 13436","No_Match",NA,NA,NA,NA
971275,"PO BOX 125","RICHFIELD SPRINGS","NY",13439,NA,NA,275,"PO BOX 125, RICHFIELD SPRINGS, NY, 13439","No_Match",NA,NA,NA,NA
971276,"PO BOX 125","RUBY","NY",12475,NA,NA,276,"PO BOX 125, RUBY, NY, 12475","No_Match",NA,NA,NA,NA
971277,"PO BOX 125","SPRINGBROOK","IA",52075,NA,NA,277,"PO BOX 125, SPRINGBROOK, IA, 52075","No_Match",NA,NA,NA,NA
971278,"PO BOX 125","STEUBEN","ME",4680,NA,NA,278,"PO BOX 125, STEUBEN, ME, 4680","No_Match",NA,NA,NA,NA
971279,"PO BOX 125","TALKEETNA","AK",99676,NA,NA,279,"PO BOX 125, TALKEETNA, AK, 99676","No_Match",NA,NA,NA,NA
971280,"PO BOX 125","WACO","KY",40385,NA,NA,280,"PO BOX 125, WACO, KY, 40385","No_Match",NA,NA,NA,NA
971281,"PO BOX 125","WAYMART","PA",18472,NA,NA,281,"PO BOX 125, WAYMART, PA, 18472","No_Match",NA,NA,NA,NA
971282,"PO BOX 125","WILLIS WHARF","VA",23486,NA,NA,282,"PO BOX 125, WILLIS WHARF, VA, 23486","No_Match",NA,NA,NA,NA
971283,"PO BOX 125","WINDSOR","ME",4363,NA,NA,283,"PO BOX 125, WINDSOR, ME, 4363","No_Match",NA,NA,NA,NA
971284,"PO BOX 125","WOOD LAKE","MN",56297,NA,NA,284,"PO BOX 125, WOOD LAKE, MN, 56297","No_Match",NA,NA,NA,NA
971285,"PO BOX 1250","CHOTEAU","MT",59422,NA,NA,285,"PO BOX 1250, CHOTEAU, MT, 59422","No_Match",NA,NA,NA,NA
971286,"PO BOX 1250","DRIPPING SPRINGS","TX",78620,NA,NA,286,"PO BOX 1250, DRIPPING SPRINGS, TX, 78620","No_Match",NA,NA,NA,NA
971287,"PO BOX 1250","GREENBELT","MD",20768,NA,NA,287,"PO BOX 1250, GREENBELT, MD, 20768","No_Match",NA,NA,NA,NA
971288,"PO BOX 1250","STARKVILLE","MS",39759,NA,NA,288,"PO BOX 1250, STARKVILLE, MS, 39759","No_Match",NA,NA,NA,NA
971289,"PO BOX 1250","VALPARAISO","IN",46384,NA,NA,289,"PO BOX 1250, VALPARAISO, IN, 46384","No_Match",NA,NA,NA,NA
971290,"PO BOX 12507","SEATTLE","WA",98101,NA,NA,290,"PO BOX 12507, SEATTLE, WA, 98101","No_Match",NA,NA,NA,NA
971291,"PO BOX 1251","CHATTANOOGA","TN",37341,NA,NA,291,"PO BOX 1251, CHATTANOOGA, TN, 37341","No_Match",NA,NA,NA,NA
971292,"PO BOX 1251","CLARKDALE","AZ",86324,NA,NA,292,"PO BOX 1251, CLARKDALE, AZ, 86324","No_Match",NA,NA,NA,NA
971293,"PO BOX 1251","EVANSTON","WY",82931,NA,NA,293,"PO BOX 1251, EVANSTON, WY, 82931","No_Match",NA,NA,NA,NA
971294,"PO BOX 1251","PERRYSBURG","OH",43552,NA,NA,294,"PO BOX 1251, PERRYSBURG, OH, 43552","No_Match",NA,NA,NA,NA
971295,"PO BOX 1251","SEMINOLE","TX",79360,NA,NA,295,"PO BOX 1251, SEMINOLE, TX, 79360","No_Match",NA,NA,NA,NA
971296,"PO BOX 1251","TOCCOA","GA",30577,NA,NA,296,"PO BOX 1251, TOCCOA, GA, 30577","No_Match",NA,NA,NA,NA
971297,"PO BOX 12513","KANSAS CITY","OK",66112,NA,NA,297,"PO BOX 12513, KANSAS CITY, OK, 66112","No_Match",NA,NA,NA,NA
971298,"PO BOX 12514","SEATTLE","DC",98111,NA,NA,298,"PO BOX 12514, SEATTLE, DC, 98111","No_Match",NA,NA,NA,NA
971299,"PO BOX 12514","SEATTLE","WA",98111,NA,NA,299,"PO BOX 12514, SEATTLE, WA, 98111","No_Match",NA,NA,NA,NA
971300,"PO BOX 12516","JACKSON","TN",38308,NA,NA,300,"PO BOX 12516, JACKSON, TN, 38308","No_Match",NA,NA,NA,NA
971301,"PO Box 1252","Aberdeen","NC",28315,NA,NA,301,"PO Box 1252, Aberdeen, NC, 28315","No_Match",NA,NA,NA,NA
971302,"PO BOX 1252","ALAMO","CA",94507,NA,NA,302,"PO BOX 1252, ALAMO, CA, 94507","No_Match",NA,NA,NA,NA
971303,"PO BOX 1252","POMPANO BEACH","FL",33061,NA,NA,303,"PO BOX 1252, POMPANO BEACH, FL, 33061","No_Match",NA,NA,NA,NA
971304,"PO BOX 1252","PURVIS","MS",39475,NA,NA,304,"PO BOX 1252, PURVIS, MS, 39475","No_Match",NA,NA,NA,NA
971305,"PO BOX 1252","RICHLANDS","NC",28574,NA,NA,305,"PO BOX 1252, RICHLANDS, NC, 28574","No_Match",NA,NA,NA,NA
971306,"PO BOX 1252","SHADY SPRING","WV",25918,NA,NA,306,"PO BOX 1252, SHADY SPRING, WV, 25918","No_Match",NA,NA,NA,NA
971307,"PO BOX 1252","SMYRNA","TN",37167,NA,NA,307,"PO BOX 1252, SMYRNA, TN, 37167","No_Match",NA,NA,NA,NA
971308,"PO BOX 12522","ALBUQUERQUE","NM",87195,NA,NA,308,"PO BOX 12522, ALBUQUERQUE, NM, 87195","No_Match",NA,NA,NA,NA
971309,"PO BOX 12523","PITTSBURGH","PA",15241,NA,NA,309,"PO BOX 12523, PITTSBURGH, PA, 15241","No_Match",NA,NA,NA,NA
971310,"PO BOX 12528","DURHAM","NC",27709,NA,NA,310,"PO BOX 12528, DURHAM, NC, 27709","No_Match",NA,NA,NA,NA
971311,"PO BOX 1253","CORNVILLE","AZ",86325,NA,NA,311,"PO BOX 1253, CORNVILLE, AZ, 86325","No_Match",NA,NA,NA,NA
971312,"PO BOX 1253","GOLDTHWAITE","TX",76844,NA,NA,312,"PO BOX 1253, GOLDTHWAITE, TX, 76844","No_Match",NA,NA,NA,NA
971313,"PO BOX 1253","KENNESAW","GA",30156,NA,NA,313,"PO BOX 1253, KENNESAW, GA, 30156","No_Match",NA,NA,NA,NA
971314,"PO BOX 1253","PINE KNOT","KY",42635,NA,NA,314,"PO BOX 1253, PINE KNOT, KY, 42635","No_Match",NA,NA,NA,NA
971315,"PO BOX 12530","GLENDALE","AZ",85318,NA,NA,315,"PO BOX 12530, GLENDALE, AZ, 85318","No_Match",NA,NA,NA,NA
971316,"PO BOX 1254","ASHLAND","NH",3217,NA,NA,316,"PO BOX 1254, ASHLAND, NH, 3217","No_Match",NA,NA,NA,NA
971317,"PO BOX 1254","LITHONIA","GA",30058,NA,NA,317,"PO BOX 1254, LITHONIA, GA, 30058","No_Match",NA,NA,NA,NA
971318,"PO BOX 1254","MADISONVILLE","LA",70447,NA,NA,318,"PO BOX 1254, MADISONVILLE, LA, 70447","No_Match",NA,NA,NA,NA
971319,"PO BOX 1254","MANDAN","ND",58554,NA,NA,319,"PO BOX 1254, MANDAN, ND, 58554","No_Match",NA,NA,NA,NA
971320,"PO BOX 1254","MEDFORD","OR",97501,NA,NA,320,"PO BOX 1254, MEDFORD, OR, 97501","No_Match",NA,NA,NA,NA
971321,"PO BOX 1254","NEW YORK","NY",10027,NA,NA,321,"PO BOX 1254, NEW YORK, NY, 10027","No_Match",NA,NA,NA,NA
971322,"PO BOX 1254","RINCON","PR",677,NA,NA,322,"PO BOX 1254, RINCON, PR, 677","No_Match",NA,NA,NA,NA
971323,"PO BOX 1254","SIMPSONVILLE","SC",29681,NA,NA,323,"PO BOX 1254, SIMPSONVILLE, SC, 29681","No_Match",NA,NA,NA,NA
971324,"PO BOX 1254","TALENT","OR",97540,NA,NA,324,"PO BOX 1254, TALENT, OR, 97540","No_Match",NA,NA,NA,NA
971325,"PO BOX 1254","VARNVILLE","SC",29944,NA,NA,325,"PO BOX 1254, VARNVILLE, SC, 29944","No_Match",NA,NA,NA,NA
971326,"PO BOX 1255","DAVENPORT","WA",99122,NA,NA,326,"PO BOX 1255, DAVENPORT, WA, 99122","No_Match",NA,NA,NA,NA
971327,"PO BOX 1255","DECATUR","TX",76234,NA,NA,327,"PO BOX 1255, DECATUR, TX, 76234","No_Match",NA,NA,NA,NA
971328,"PO BOX 1255","FAIRBURN","GA",30213,NA,NA,328,"PO BOX 1255, FAIRBURN, GA, 30213","No_Match",NA,NA,NA,NA
971329,"PO BOX 1255","FARMINGTON","MO",63640,NA,NA,329,"PO BOX 1255, FARMINGTON, MO, 63640","No_Match",NA,NA,NA,NA
971330,"PO BOX 1255","GOLDTHWAITE","TX",76844,NA,NA,330,"PO BOX 1255, GOLDTHWAITE, TX, 76844","No_Match",NA,NA,NA,NA
971331,"PO BOX 1255","SENECA","SC",29672,NA,NA,331,"PO BOX 1255, SENECA, SC, 29672","No_Match",NA,NA,NA,NA
971332,"PO BOX 1255","TARBORO","NC",27886,NA,NA,332,"PO BOX 1255, TARBORO, NC, 27886","No_Match",NA,NA,NA,NA
971333,"PO BOX 1255","YORKTOWN","TX",78164,NA,NA,333,"PO BOX 1255, YORKTOWN, TX, 78164","No_Match",NA,NA,NA,NA
971334,"PO BOX 12556","DALLAS","TX",75225,NA,NA,334,"PO BOX 12556, DALLAS, TX, 75225","No_Match",NA,NA,NA,NA
971335,"PO BOX 12557","TOLEDO","OH",43606,NA,NA,335,"PO BOX 12557, TOLEDO, OH, 43606","No_Match",NA,NA,NA,NA
971336,"PO BOX 1256","ALLENDALE","SC",29810,NA,NA,336,"PO BOX 1256, ALLENDALE, SC, 29810","No_Match",NA,NA,NA,NA
971337,"PO BOX 1256","COMFORT","TX",78013,NA,NA,337,"PO BOX 1256, COMFORT, TX, 78013","No_Match",NA,NA,NA,NA
971338,"PO BOX 1256","JEFFERSONVILLE","IN",47131,NA,NA,338,"PO BOX 1256, JEFFERSONVILLE, IN, 47131","No_Match",NA,NA,NA,NA
971339,"PO BOX 1256","KODIAK","AK",99615,NA,NA,339,"PO BOX 1256, KODIAK, AK, 99615","No_Match",NA,NA,NA,NA
971340,"PO BOX 1256","LOLO","MT",59847,NA,NA,340,"PO BOX 1256, LOLO, MT, 59847","No_Match",NA,NA,NA,NA
971341,"PO BOX 12564","PORTLAND","OR",97212,NA,NA,341,"PO BOX 12564, PORTLAND, OR, 97212","No_Match",NA,NA,NA,NA
971342,"PO BOX 12565","CHARLOTTE","NC",28220,NA,NA,342,"PO BOX 12565, CHARLOTTE, NC, 28220","No_Match",NA,NA,NA,NA
971343,"PO BOX 12569","BEAUMONT","TX",77706,NA,NA,343,"PO BOX 12569, BEAUMONT, TX, 77706","No_Match",NA,NA,NA,NA
971344,"PO BOX 1257","LIBERTY","TX",77575,NA,NA,344,"PO BOX 1257, LIBERTY, TX, 77575","No_Match",NA,NA,NA,NA
971345,"PO BOX 1257","LUQUILLO","PR",773,NA,NA,345,"PO BOX 1257, LUQUILLO, PR, 773","No_Match",NA,NA,NA,NA
971346,"PO BOX 1257","VOLCANO","HI",96785,NA,NA,346,"PO BOX 1257, VOLCANO, HI, 96785","No_Match",NA,NA,NA,NA
971347,"PO BOX 1258","CARLSBORG","WA",98324,NA,NA,347,"PO BOX 1258, CARLSBORG, WA, 98324","No_Match",NA,NA,NA,NA
971348,"PO BOX 1258","FAIRMONT","WV",26555,NA,NA,348,"PO BOX 1258, FAIRMONT, WV, 26555","No_Match",NA,NA,NA,NA
971349,"PO BOX 1258","GARY","IN",46407,NA,NA,349,"PO BOX 1258, GARY, IN, 46407","No_Match",NA,NA,NA,NA
971350,"PO BOX 1258","LIVINGSTON","AL",35470,NA,NA,350,"PO BOX 1258, LIVINGSTON, AL, 35470","No_Match",NA,NA,NA,NA
971351,"PO BOX 12580","COLUMBUS","OH",43212,NA,NA,351,"PO BOX 12580, COLUMBUS, OH, 43212","No_Match",NA,NA,NA,NA
971352,"PO BOX 12581","JACKSONVILLE","NC",28546,NA,NA,352,"PO BOX 12581, JACKSONVILLE, NC, 28546","No_Match",NA,NA,NA,NA
971353,"PO BOX 1259","BLUEFIELD","WV",24701,NA,NA,353,"PO BOX 1259, BLUEFIELD, WV, 24701","No_Match",NA,NA,NA,NA
971354,"PO BOX 1259","MAPLE VALLEY","WA",98038,NA,NA,354,"PO BOX 1259, MAPLE VALLEY, WA, 98038","No_Match",NA,NA,NA,NA
971355,"PO BOX 1259","SEBASTOPOL","CA",95473,NA,NA,355,"PO BOX 1259, SEBASTOPOL, CA, 95473","No_Match",NA,NA,NA,NA
971356,"PO BOX 12591","NORFOLK","VA",23541,NA,NA,356,"PO BOX 12591, NORFOLK, VA, 23541","No_Match",NA,NA,NA,NA
971357,"PO BOX 126 118 SOUTH THIRD","RIGBY","ID",83442,43.6716627910001,-111.923475299,357,"PO BOX 126 118 SOUTH THIRD, RIGBY, ID, 83442","Match","Non_Exact","118 S 3RD W, RIGBY, ID, 83442",119296412,"L"
971358,"PO BOX 126","ABBEVILLE","AL",36310,NA,NA,358,"PO BOX 126, ABBEVILLE, AL, 36310","No_Match",NA,NA,NA,NA
971359,"PO BOX 126","BAKER","NV",89311,NA,NA,359,"PO BOX 126, BAKER, NV, 89311","No_Match",NA,NA,NA,NA
971360,"PO BOX 126","BECKER","MN",55308,NA,NA,360,"PO BOX 126, BECKER, MN, 55308","No_Match",NA,NA,NA,NA
971361,"PO BOX 126","DAYTON","WY",82836,NA,NA,361,"PO BOX 126, DAYTON, WY, 82836","No_Match",NA,NA,NA,NA
971362,"PO BOX 126","E WATERBORO","ME",4030,NA,NA,362,"PO BOX 126, E WATERBORO, ME, 4030","No_Match",NA,NA,NA,NA
971363,"PO BOX 126","GARFIELD","WA",99130,NA,NA,363,"PO BOX 126, GARFIELD, WA, 99130","No_Match",NA,NA,NA,NA
971364,"PO BOX 126","GLENWOOD","GA",30428,NA,NA,364,"PO BOX 126, GLENWOOD, GA, 30428","No_Match",NA,NA,NA,NA
971365,"PO BOX 126","KALIDA","OH",45853,NA,NA,365,"PO BOX 126, KALIDA, OH, 45853","No_Match",NA,NA,NA,NA
971366,"PO BOX 126","KENNEBUNK","ME",4043,NA,NA,366,"PO BOX 126, KENNEBUNK, ME, 4043","No_Match",NA,NA,NA,NA
971367,"PO BOX 126","LOCUST VALLEY","NY",11560,NA,NA,367,"PO BOX 126, LOCUST VALLEY, NY, 11560","No_Match",NA,NA,NA,NA
971368,"PO BOX 126","MILFORD","TX",76670,NA,NA,368,"PO BOX 126, MILFORD, TX, 76670","No_Match",NA,NA,NA,NA
971369,"PO BOX 126","MOUNT MORRIS","NY",14510,NA,NA,369,"PO BOX 126, MOUNT MORRIS, NY, 14510","No_Match",NA,NA,NA,NA
971370,"PO BOX 126","NEWELL","NC",28126,NA,NA,370,"PO BOX 126, NEWELL, NC, 28126","No_Match",NA,NA,NA,NA
971371,"PO BOX 126","PERRY","OH",44081,NA,NA,371,"PO BOX 126, PERRY, OH, 44081","No_Match",NA,NA,NA,NA
971372,"PO BOX 126","PORT RICHEY","FL",34673,NA,NA,372,"PO BOX 126, PORT RICHEY, FL, 34673","No_Match",NA,NA,NA,NA
971373,"PO BOX 126","PORTIA","AR",72457,NA,NA,373,"PO BOX 126, PORTIA, AR, 72457","No_Match",NA,NA,NA,NA
971374,"PO BOX 126","SCOBEY","MT",59263,NA,NA,374,"PO BOX 126, SCOBEY, MT, 59263","No_Match",NA,NA,NA,NA
971375,"PO BOX 126","SHAKOPEE","MN",55379,NA,NA,375,"PO BOX 126, SHAKOPEE, MN, 55379","No_Match",NA,NA,NA,NA
971376,"PO BOX 126","SHINGLE SPRINGS","CA",95682,NA,NA,376,"PO BOX 126, SHINGLE SPRINGS, CA, 95682","No_Match",NA,NA,NA,NA
971377,"PO BOX 126","SUMMERVILLE","SC",29484,NA,NA,377,"PO BOX 126, SUMMERVILLE, SC, 29484","No_Match",NA,NA,NA,NA
971378,"PO BOX 126","WOODY CREEK","CO",81656,NA,NA,378,"PO BOX 126, WOODY CREEK, CO, 81656","No_Match",NA,NA,NA,NA
971379,"PO BOX 126002","BENBROOK","TX",76126,NA,NA,379,"PO BOX 126002, BENBROOK, TX, 76126","No_Match",NA,NA,NA,NA
971380,"PO BOX 12604","AUGUSTA","GA",30914,NA,NA,380,"PO BOX 12604, AUGUSTA, GA, 30914","No_Match",NA,NA,NA,NA
971381,"PO BOX 1261","CAPTAIN COOK","HI",96704,NA,NA,381,"PO BOX 1261, CAPTAIN COOK, HI, 96704","No_Match",NA,NA,NA,NA
971382,"PO BOX 1261","JOHNSTON","IA",50131,NA,NA,382,"PO BOX 1261, JOHNSTON, IA, 50131","No_Match",NA,NA,NA,NA
971383,"PO BOX 1261","KENOSHA","WI",53141,NA,NA,383,"PO BOX 1261, KENOSHA, WI, 53141","No_Match",NA,NA,NA,NA
971384,"PO BOX 1261","LYNCHBURG","VA",24505,NA,NA,384,"PO BOX 1261, LYNCHBURG, VA, 24505","No_Match",NA,NA,NA,NA
971385,"PO BOX 1261","PORT ORFORD","OR",97465,NA,NA,385,"PO BOX 1261, PORT ORFORD, OR, 97465","No_Match",NA,NA,NA,NA
971386,"PO BOX 1261","ZEBULON","GA",30295,NA,NA,386,"PO BOX 1261, ZEBULON, GA, 30295","No_Match",NA,NA,NA,NA
971387,"PO BOX 12615","KANSAS CITY","MO",64116,NA,NA,387,"PO BOX 12615, KANSAS CITY, MO, 64116","No_Match",NA,NA,NA,NA
971388,"PO BOX 1262","DILLON","MT",59725,NA,NA,388,"PO BOX 1262, DILLON, MT, 59725","No_Match",NA,NA,NA,NA
971389,"PO BOX 1262","ELIZABETH","CO",80107,NA,NA,389,"PO BOX 1262, ELIZABETH, CO, 80107","No_Match",NA,NA,NA,NA
971390,"PO BOX 1262","FARMINGTON","AR",72730,NA,NA,390,"PO BOX 1262, FARMINGTON, AR, 72730","No_Match",NA,NA,NA,NA
971391,"PO BOX 1262","FOWLERVILLE","MI",48836,NA,NA,391,"PO BOX 1262, FOWLERVILLE, MI, 48836","No_Match",NA,NA,NA,NA
971392,"PO BOX 1262","HURST","TX",76053,NA,NA,392,"PO BOX 1262, HURST, TX, 76053","No_Match",NA,NA,NA,NA
971393,"PO BOX 1262","LAMPASAS","TX",76550,NA,NA,393,"PO BOX 1262, LAMPASAS, TX, 76550","No_Match",NA,NA,NA,NA
971394,"PO BOX 12620","DENVER","CO",80212,NA,NA,394,"PO BOX 12620, DENVER, CO, 80212","No_Match",NA,NA,NA,NA
971395,"PO BOX 1263","CAVE JUNCTION","OR",97523,NA,NA,395,"PO BOX 1263, CAVE JUNCTION, OR, 97523","No_Match",NA,NA,NA,NA
971396,"PO BOX 1263","CLIFTON","AZ",85533,NA,NA,396,"PO BOX 1263, CLIFTON, AZ, 85533","No_Match",NA,NA,NA,NA
971397,"PO BOX 1263","KAILUA","HI",96734,NA,NA,397,"PO BOX 1263, KAILUA, HI, 96734","No_Match",NA,NA,NA,NA
971398,"PO BOX 1263","KILMARNOCK","VA",22482,NA,NA,398,"PO BOX 1263, KILMARNOCK, VA, 22482","No_Match",NA,NA,NA,NA
971399,"PO BOX 1263","LA LUZ","NM",88337,NA,NA,399,"PO BOX 1263, LA LUZ, NM, 88337","No_Match",NA,NA,NA,NA
971400,"PO BOX 1263","MYRTLE BEACH","SC",29578,NA,NA,400,"PO BOX 1263, MYRTLE BEACH, SC, 29578","No_Match",NA,NA,NA,NA
971401,"PO BOX 1263","OLD TOWN","FL",32680,NA,NA,401,"PO BOX 1263, OLD TOWN, FL, 32680","No_Match",NA,NA,NA,NA
971402,"PO BOX 1263","SAN JACINTO","CA",92581,NA,NA,402,"PO BOX 1263, SAN JACINTO, CA, 92581","No_Match",NA,NA,NA,NA
971403,"PO BOX 1263","SDONA","AZ",86339,NA,NA,403,"PO BOX 1263, SDONA, AZ, 86339","No_Match",NA,NA,NA,NA
971404,"PO BOX 126335","HARRISBURG","PA",17112,NA,NA,404,"PO BOX 126335, HARRISBURG, PA, 17112","No_Match",NA,NA,NA,NA
971405,"PO BOX 1264","BANDON","OR",97411,NA,NA,405,"PO BOX 1264, BANDON, OR, 97411","No_Match",NA,NA,NA,NA
971406,"PO BOX 1264","BRISTOL","VA",24209,NA,NA,406,"PO BOX 1264, BRISTOL, VA, 24209","No_Match",NA,NA,NA,NA
971407,"PO BOX 1264","JACKSONVILLE","IL",62651,NA,NA,407,"PO BOX 1264, JACKSONVILLE, IL, 62651","No_Match",NA,NA,NA,NA
971408,"PO BOX 1264","MARBLEHEAD","MA",1945,NA,NA,408,"PO BOX 1264, MARBLEHEAD, MA, 1945","No_Match",NA,NA,NA,NA
971409,"PO BOX 1264","MORENO VALLEY","CA",92556,NA,NA,409,"PO BOX 1264, MORENO VALLEY, CA, 92556","No_Match",NA,NA,NA,NA
971410,"PO BOX 1264","PAWLEYS ISLAND","SC",29585,NA,NA,410,"PO BOX 1264, PAWLEYS ISLAND, SC, 29585","No_Match",NA,NA,NA,NA
971411,"PO BOX 1264","WORTHINGTON","OH",43085,NA,NA,411,"PO BOX 1264, WORTHINGTON, OH, 43085","No_Match",NA,NA,NA,NA
971412,"PO BOX 1265","ARROYO GRANDE","CA",93421,NA,NA,412,"PO BOX 1265, ARROYO GRANDE, CA, 93421","No_Match",NA,NA,NA,NA
971413,"PO BOX 1265","DELTA JUNCTION","AK",99737,NA,NA,413,"PO BOX 1265, DELTA JUNCTION, AK, 99737","No_Match",NA,NA,NA,NA
971414,"PO BOX 12657","RTP","NC",27709,NA,NA,414,"PO BOX 12657, RTP, NC, 27709","No_Match",NA,NA,NA,NA
971415,"PO BOX 1266","CHESTERFIELD","VA",23832,NA,NA,415,"PO BOX 1266, CHESTERFIELD, VA, 23832","No_Match",NA,NA,NA,NA
971416,"PO BOX 1266","CONCORD","NC",28026,NA,NA,416,"PO BOX 1266, CONCORD, NC, 28026","No_Match",NA,NA,NA,NA
971417,"PO BOX 1266","WAIMEA","HI",96796,NA,NA,417,"PO BOX 1266, WAIMEA, HI, 96796","No_Match",NA,NA,NA,NA
971418,"PO BOX 1267","FLAGSTAFF","AZ",86002,NA,NA,418,"PO BOX 1267, FLAGSTAFF, AZ, 86002","No_Match",NA,NA,NA,NA
971419,"PO BOX 1267","GILROY","CA",95021,NA,NA,419,"PO BOX 1267, GILROY, CA, 95021","No_Match",NA,NA,NA,NA
971420,"PO BOX 1267","HAVANA","FL",32333,NA,NA,420,"PO BOX 1267, HAVANA, FL, 32333","No_Match",NA,NA,NA,NA
971421,"PO BOX 1267","KENNESAW","GA",30156,NA,NA,421,"PO BOX 1267, KENNESAW, GA, 30156","No_Match",NA,NA,NA,NA
971422,"PO BOX 1267","KINGSTON","NY",12401,NA,NA,422,"PO BOX 1267, KINGSTON, NY, 12401","No_Match",NA,NA,NA,NA
971423,"PO BOX 1267","SHINER","TX",77984,NA,NA,423,"PO BOX 1267, SHINER, TX, 77984","No_Match",NA,NA,NA,NA
971424,"PO BOX 1268","FRAMINGHAM","MA",1701,NA,NA,424,"PO BOX 1268, FRAMINGHAM, MA, 1701","No_Match",NA,NA,NA,NA
971425,"PO BOX 1268","FREMONT","NE",68026,NA,NA,425,"PO BOX 1268, FREMONT, NE, 68026","No_Match",NA,NA,NA,NA
971426,"PO BOX 1268","MOUNT IDA","AR",71957,NA,NA,426,"PO BOX 1268, MOUNT IDA, AR, 71957","No_Match",NA,NA,NA,NA
971427,"PO BOX 1268","MUSKEGON","MI",49440,NA,NA,427,"PO BOX 1268, MUSKEGON, MI, 49440","No_Match",NA,NA,NA,NA
971428,"PO BOX 1268","SANGER","CA",93657,NA,NA,428,"PO BOX 1268, SANGER, CA, 93657","No_Match",NA,NA,NA,NA
971429,"PO BOX 12681","BALTIMORE","MD",21217,NA,NA,429,"PO BOX 12681, BALTIMORE, MD, 21217","No_Match",NA,NA,NA,NA
971430,"PO BOX 12683","DALLAS","TX",75230,NA,NA,430,"PO BOX 12683, DALLAS, TX, 75230","No_Match",NA,NA,NA,NA
971431,"PO BOX 1269","CORRALES","NM",87048,NA,NA,431,"PO BOX 1269, CORRALES, NM, 87048","No_Match",NA,NA,NA,NA
971432,"PO BOX 1269","HUNTINGTON","WV",25714,NA,NA,432,"PO BOX 1269, HUNTINGTON, WV, 25714","No_Match",NA,NA,NA,NA
971433,"PO BOX 1269","LINDSAY","OK",73052,NA,NA,433,"PO BOX 1269, LINDSAY, OK, 73052","No_Match",NA,NA,NA,NA
971434,"PO BOX 1269","OCOEE","FL",34761,NA,NA,434,"PO BOX 1269, OCOEE, FL, 34761","No_Match",NA,NA,NA,NA
971435,"PO BOX 1269","PORT ISABEL","TX",78578,NA,NA,435,"PO BOX 1269, PORT ISABEL, TX, 78578","No_Match",NA,NA,NA,NA
971436,"PO BOX 1269","TONTITOWN","AR",72770,NA,NA,436,"PO BOX 1269, TONTITOWN, AR, 72770","No_Match",NA,NA,NA,NA
971437,"PO BOX 127","ALTO","GA",30510,NA,NA,437,"PO BOX 127, ALTO, GA, 30510","No_Match",NA,NA,NA,NA
971438,"PO BOX 127","AMERICUS","GA",31709,NA,NA,438,"PO BOX 127, AMERICUS, GA, 31709","No_Match",NA,NA,NA,NA
971439,"PO BOX 127","ANCHORAGE","AK",99729,NA,NA,439,"PO BOX 127, ANCHORAGE, AK, 99729","No_Match",NA,NA,NA,NA
971440,"PO BOX 127","ARIZONA CITY","AZ",85123,NA,NA,440,"PO BOX 127, ARIZONA CITY, AZ, 85123","No_Match",NA,NA,NA,NA
971441,"PO BOX 127","BARRONETT","WI",54813,NA,NA,441,"PO BOX 127, BARRONETT, WI, 54813","No_Match",NA,NA,NA,NA
971442,"PO BOX 127","BRISTOW","OK",74010,NA,NA,442,"PO BOX 127, BRISTOW, OK, 74010","No_Match",NA,NA,NA,NA
971443,"PO BOX 127","CAROGA LAKE","NY",12032,NA,NA,443,"PO BOX 127, CAROGA LAKE, NY, 12032","No_Match",NA,NA,NA,NA
971444,"PO BOX 127","CLEVELAND","WI",53015,NA,NA,444,"PO BOX 127, CLEVELAND, WI, 53015","No_Match",NA,NA,NA,NA
971445,"PO BOX 127","DUNCAN","MS",38740,NA,NA,445,"PO BOX 127, DUNCAN, MS, 38740","No_Match",NA,NA,NA,NA
971446,"PO BOX 127","ELKTON","KY",42220,NA,NA,446,"PO BOX 127, ELKTON, KY, 42220","No_Match",NA,NA,NA,NA
971447,"PO BOX 127","FORT TOTTEN","ND",58335,NA,NA,447,"PO BOX 127, FORT TOTTEN, ND, 58335","No_Match",NA,NA,NA,NA
971448,"PO BOX 127","GREENWOOD","ME",4255,NA,NA,448,"PO BOX 127, GREENWOOD, ME, 4255","No_Match",NA,NA,NA,NA
971449,"PO BOX 127","HENDERSON","TX",75653,NA,NA,449,"PO BOX 127, HENDERSON, TX, 75653","No_Match",NA,NA,NA,NA
971450,"PO BOX 127","HUSTON","ID",83630,NA,NA,450,"PO BOX 127, HUSTON, ID, 83630","No_Match",NA,NA,NA,NA
971451,"PO BOX 127","INDEPENDENCE","LA",70443,NA,NA,451,"PO BOX 127, INDEPENDENCE, LA, 70443","No_Match",NA,NA,NA,NA
971452,"PO BOX 127","INTERVALE","NH",3845,NA,NA,452,"PO BOX 127, INTERVALE, NH, 3845","No_Match",NA,NA,NA,NA
971453,"PO BOX 127","JOHANNESBURG","CA",93528,NA,NA,453,"PO BOX 127, JOHANNESBURG, CA, 93528","No_Match",NA,NA,NA,NA
971454,"PO BOX 127","JOPLIN","MO",64802,NA,NA,454,"PO BOX 127, JOPLIN, MO, 64802","No_Match",NA,NA,NA,NA
971455,"PO BOX 127","JURALES","NM",87023,NA,NA,455,"PO BOX 127, JURALES, NM, 87023","No_Match",NA,NA,NA,NA
971456,"PO BOX 127","KOOSKIA","ID",83539,NA,NA,456,"PO BOX 127, KOOSKIA, ID, 83539","No_Match",NA,NA,NA,NA
971457,"PO BOX 127","LAIE","HI",96762,NA,NA,457,"PO BOX 127, LAIE, HI, 96762","No_Match",NA,NA,NA,NA
971458,"PO BOX 127","LEOLA","SD",57456,NA,NA,458,"PO BOX 127, LEOLA, SD, 57456","No_Match",NA,NA,NA,NA
971459,"PO BOX 127","LEWISTOWN","MT",59457,NA,NA,459,"PO BOX 127, LEWISTOWN, MT, 59457","No_Match",NA,NA,NA,NA
971460,"PO BOX 127","LINCOLN","DE",19960,NA,NA,460,"PO BOX 127, LINCOLN, DE, 19960","No_Match",NA,NA,NA,NA
971461,"PO BOX 127","LOYALTON","CA",96118,NA,NA,461,"PO BOX 127, LOYALTON, CA, 96118","No_Match",NA,NA,NA,NA
971462,"PO BOX 127","LYNN","AR",72440,NA,NA,462,"PO BOX 127, LYNN, AR, 72440","No_Match",NA,NA,NA,NA
971463,"PO BOX 127","MANILA","UT",84046,NA,NA,463,"PO BOX 127, MANILA, UT, 84046","No_Match",NA,NA,NA,NA
971464,"PO BOX 127","MARIPOSA","CA",95338,NA,NA,464,"PO BOX 127, MARIPOSA, CA, 95338","No_Match",NA,NA,NA,NA
971465,"PO BOX 127","MEADOW VALLEY","CA",95956,NA,NA,465,"PO BOX 127, MEADOW VALLEY, CA, 95956","No_Match",NA,NA,NA,NA
971466,"PO BOX 127","MIDDLEBURGH","NY",12122,NA,NA,466,"PO BOX 127, MIDDLEBURGH, NY, 12122","No_Match",NA,NA,NA,NA
971467,"PO BOX 127","MT VERNON","OR",97865,NA,NA,467,"PO BOX 127, MT VERNON, OR, 97865","No_Match",NA,NA,NA,NA
971468,"PO BOX 127","NORWAY","ME",4268,NA,NA,468,"PO BOX 127, NORWAY, ME, 4268","No_Match",NA,NA,NA,NA
971469,"PO BOX 127","PHILOMATH","OR",97370,NA,NA,469,"PO BOX 127, PHILOMATH, OR, 97370","No_Match",NA,NA,NA,NA
971470,"PO BOX 127","SANDPOINT","ID",83864,NA,NA,470,"PO BOX 127, SANDPOINT, ID, 83864","No_Match",NA,NA,NA,NA
971471,"PO BOX 127","SEMINOLE","TX",79360,NA,NA,471,"PO BOX 127, SEMINOLE, TX, 79360","No_Match",NA,NA,NA,NA
971472,"PO BOX 127","SNYDER","OK",73566,NA,NA,472,"PO BOX 127, SNYDER, OK, 73566","No_Match",NA,NA,NA,NA
971473,"PO BOX 127","SOUTHINGTON","OH",44470,NA,NA,473,"PO BOX 127, SOUTHINGTON, OH, 44470","No_Match",NA,NA,NA,NA
971474,"PO BOX 127","SPRINGLAKE","TX",79082,NA,NA,474,"PO BOX 127, SPRINGLAKE, TX, 79082","No_Match",NA,NA,NA,NA
971475,"PO BOX 127","TIPTON","IN",46072,NA,NA,475,"PO BOX 127, TIPTON, IN, 46072","No_Match",NA,NA,NA,NA
971476,"PO BOX 127","TRIBES HILL","NY",12177,NA,NA,476,"PO BOX 127, TRIBES HILL, NY, 12177","No_Match",NA,NA,NA,NA
971477,"PO BOX 127","TROUT RUN","PA",17771,NA,NA,477,"PO BOX 127, TROUT RUN, PA, 17771","No_Match",NA,NA,NA,NA
971478,"PO BOX 127","WAITSBURG","WA",99361,NA,NA,478,"PO BOX 127, WAITSBURG, WA, 99361","No_Match",NA,NA,NA,NA
971479,"PO BOX 127","WALDPORT","OR",97394,NA,NA,479,"PO BOX 127, WALDPORT, OR, 97394","No_Match",NA,NA,NA,NA
971480,"PO BOX 127","WEIMAR","CA",95736,NA,NA,480,"PO BOX 127, WEIMAR, CA, 95736","No_Match",NA,NA,NA,NA
971481,"PO BOX 127","WELLS","ND",89835,NA,NA,481,"PO BOX 127, WELLS, ND, 89835","No_Match",NA,NA,NA,NA
971482,"PO BOX 127","WORDEN","MT",59088,NA,NA,482,"PO BOX 127, WORDEN, MT, 59088","No_Match",NA,NA,NA,NA
971483,"PO BOX 1270","BLOCK ISLAND","RI",2807,NA,NA,483,"PO BOX 1270, BLOCK ISLAND, RI, 2807","No_Match",NA,NA,NA,NA
971484,"PO BOX 1270","ORTING","WA",98360,NA,NA,484,"PO BOX 1270, ORTING, WA, 98360","No_Match",NA,NA,NA,NA
971485,"PO BOX 1270","PAGO PAGO","AS",96799,NA,NA,485,"PO BOX 1270, PAGO PAGO, AS, 96799","No_Match",NA,NA,NA,NA
971486,"PO BOX 1270","SARATOGA","WY",82331,NA,NA,486,"PO BOX 1270, SARATOGA, WY, 82331","No_Match",NA,NA,NA,NA
971487,"PO BOX 12701","RENO","NV",89501,NA,NA,487,"PO BOX 12701, RENO, NV, 89501","No_Match",NA,NA,NA,NA
971488,"PO BOX 127081","SAN DIEGO","CA",92112,NA,NA,488,"PO BOX 127081, SAN DIEGO, CA, 92112","No_Match",NA,NA,NA,NA
971489,"PO BOX 12709","MILWAUKEE","WI",53212,NA,NA,489,"PO BOX 12709, MILWAUKEE, WI, 53212","No_Match",NA,NA,NA,NA
971490,"PO BOX 12709","MILWAUKEE","WV",53212,NA,NA,490,"PO BOX 12709, MILWAUKEE, WV, 53212","No_Match",NA,NA,NA,NA
971491,"PO BOX 1271","IDAHO SPRINGS","CO",80452,NA,NA,491,"PO BOX 1271, IDAHO SPRINGS, CO, 80452","No_Match",NA,NA,NA,NA
971492,"PO BOX 1271","KODIAK","AK",99615,NA,NA,492,"PO BOX 1271, KODIAK, AK, 99615","No_Match",NA,NA,NA,NA
971493,"PO BOX 1271","STUDIO CITY","CA",91614,NA,NA,493,"PO BOX 1271, STUDIO CITY, CA, 91614","No_Match",NA,NA,NA,NA
971494,"PO BOX 12714","LA JOLLA","CA",92039,NA,NA,494,"PO BOX 12714, LA JOLLA, CA, 92039","No_Match",NA,NA,NA,NA
971495,"PO BOX 1272","GAINESVILLE","TX",76241,NA,NA,495,"PO BOX 1272, GAINESVILLE, TX, 76241","No_Match",NA,NA,NA,NA
971496,"PO BOX 1272","GLENROCK","WY",82637,NA,NA,496,"PO BOX 1272, GLENROCK, WY, 82637","No_Match",NA,NA,NA,NA
971497,"PO BOX 1272","SWEETWATER","TX",79556,NA,NA,497,"PO BOX 1272, SWEETWATER, TX, 79556","No_Match",NA,NA,NA,NA
971498,"PO BOX 1272","TOMBSTONE","AZ",85638,NA,NA,498,"PO BOX 1272, TOMBSTONE, AZ, 85638","No_Match",NA,NA,NA,NA
971499,"PO BOX 1272","TRACY","CA",95378,NA,NA,499,"PO BOX 1272, TRACY, CA, 95378","No_Match",NA,NA,NA,NA
971500,"PO BOX 12725","SAN LUIS OBISPO","CA",93406,NA,NA,500,"PO BOX 12725, SAN LUIS OBISPO, CA, 93406","No_Match",NA,NA,NA,NA
