"ID","Address","City","State","Zip","lat","long","id","input_address","match_indicator","match_type","matched_address","tiger_line_id","tiger_side"
433001,"27 MCCARTHY AVE","SAN FRANCISCO","CA",94134,37.7103938590001,-122.414000995,1,"27 MCCARTHY AVE, SAN FRANCISCO, CA, 94134","Match","Exact","27 MCCARTHY AVE, SAN FRANCISCO, CA, 94134",192290301,"L"
433002,"27 MCELNEA STREET","EAST HAMPTON","NY",11963,40.987714054,-72.185264213,2,"27 MCELNEA STREET, EAST HAMPTON, NY, 11963","Match","Non_Exact","27 MCELNEA ST, EAST HAMPTON, NY, 11937",114266253,"R"
433003,"27 MCINTOSH LANE","SOUTH BURLINGTON","VT",5403,44.436716522,-73.207097226,3,"27 MCINTOSH LANE, SOUTH BURLINGTON, VT, 5403","Match","Non_Exact","27 MCINTOSH AVE, S BURLINGTON, VT, 05403",135829607,"R"
433004,"27 MCKEEN STREET","BRUNSWICH","ME",4011,43.907828039,-69.969031161,4,"27 MCKEEN STREET, BRUNSWICH, ME, 4011","Match","Non_Exact","27 MCKEEN ST, BRUNSWICK, ME, 04011",78007410,"L"
433005,"27 MCKONE STREET","BOSTON","MA",2122,42.289694808,-71.047024635,5,"27 MCKONE STREET, BOSTON, MA, 2122","Match","Exact","27 MCKONE ST, BOSTON, MA, 02122",647313156,"R"
433006,"27 MEADOW DRIVE","LITTLE FALLS","NJ",7424,40.8791270240001,-74.236482559,6,"27 MEADOW DRIVE, LITTLE FALLS, NJ, 7424","Match","Exact","27 MEADOW DR, LITTLE FALLS, NJ, 07424",652272912,"R"
433007,"27 MEADOW RUE PLACE","BALLSON SPA","NY",12020,42.982118572,-73.762988252,7,"27 MEADOW RUE PLACE, BALLSON SPA, NY, 12020","Match","Non_Exact","27 MEADOW RUE PL, BALLSTON SPA, NY, 12020",18778409,"R"
433008,"27 MEADOWBROOK CCE","BALLWIN","MO",63011,NA,NA,8,"27 MEADOWBROOK CCE, BALLWIN, MO, 63011","No_Match",NA,NA,NA,NA
433009,"27 MEADOWCREST DR","CECIL","PA",15321,40.3192856570001,-80.193881871,9,"27 MEADOWCREST DR, CECIL, PA, 15321","Match","Exact","27 MEADOWCREST DR, CECIL, PA, 15321",52799987,"L"
433010,"27 MEADOWLARK DR","CABOT","AR",72023,34.9662726980001,-92.014419575,10,"27 MEADOWLARK DR, CABOT, AR, 72023","Match","Exact","27 MEADOWLARK DR, CABOT, AR, 72023",79707132,"L"
433011,"27 MEADOWVIEW DR","PHILLIPSBURG","NJ",8865,40.7119569820001,-75.155328883,11,"27 MEADOWVIEW DR, PHILLIPSBURG, NJ, 8865","Match","Exact","27 MEADOWVIEW DR, PHILLIPSBURG, NJ, 08865",98098348,"L"
433012,"27 MECHANIC ST","NORTH BENNINGTON","VT",5257,42.928085057,-73.2375085319999,12,"27 MECHANIC ST, NORTH BENNINGTON, VT, 5257","Match","Exact","27 MECHANIC ST, N BENNINGTON, VT, 05257",139201404,"L"
433013,"27 MECHANICS AVE","TARRYTOWN","NY",10591,41.0790492580001,-73.861540797,13,"27 MECHANICS AVE, TARRYTOWN, NY, 10591","Match","Exact","27 MECHANICS AVE, TARRYTOWN, NY, 10591",139730933,"L"
433014,"27 MELROSE AVENUE","BRIDGEPORT","CT",6605,41.158866678,-73.223105533,14,"27 MELROSE AVENUE, BRIDGEPORT, CT, 6605","Match","Non_Exact","27 MELROSE ST, BRIDGEPORT, CT, 06605",3228782,"L"
433015,"27 MERAMEC DR","ST PETERS","MO",63376,NA,NA,15,"27 MERAMEC DR, ST PETERS, MO, 63376","No_Match",NA,NA,NA,NA
433016,"27 MERMONT CIRCLE","DARBY","PA",19023,39.925128595,-75.266007932,16,"27 MERMONT CIRCLE, DARBY, PA, 19023","Match","Exact","27 MERMONT CIR, DARBY, PA, 19023",649314016,"L"
433017,"27 MERRITT STREET","LEOMINSTER","MA",1453,42.5302407840001,-71.7716372789999,17,"27 MERRITT STREET, LEOMINSTER, MA, 1453","Match","Exact","27 MERRITT ST, LEOMINSTER, MA, 01453",40029981,"R"
433018,"27 MERRYMEETING ROAD","NEW DURHAM","NH",3855,43.4409365290001,-71.173535312,18,"27 MERRYMEETING ROAD, NEW DURHAM, NH, 3855","Match","Exact","27 MERRYMEETING RD, NEW DURHAM, NH, 03855",117814634,"R"
433019,"27 MIAMI","PONTIAC","MI",48341,42.6346558020001,-83.316665853,19,"27 MIAMI, PONTIAC, MI, 48341","Match","Non_Exact","27 MIAMI RD, PONTIAC, MI, 48341",69703626,"L"
433020,"27 MICHAEL STREET","SCOTT DEPOT","WV",25560,38.441398275,-81.9399417719999,20,"27 MICHAEL STREET, SCOTT DEPOT, WV, 25560","Match","Exact","27 MICHAEL ST, SCOTT DEPOT, WV, 25560",130541870,"L"
433021,"27 MICHIE ROAD","NEW CASTLE","DE",19720,39.676793891,-75.573948773,21,"27 MICHIE ROAD, NEW CASTLE, DE, 19720","Match","Exact","27 MICHIE RD, NEW CASTLE, DE, 19720",187268960,"R"
433022,"27 MIDDAY SUN PL","THE WOODLANDS","TX",77382,30.190928157,-95.5791666109999,22,"27 MIDDAY SUN PL, THE WOODLANDS, TX, 77382","Match","Exact","27 MIDDAY SUN PL, THE WOODLANDS, TX, 77382",79340563,"L"
433023,"27 MIDDLE FORK RIDGE","GARDEN VALLEY","ID",83622,44.1503937570001,-115.971500691,23,"27 MIDDLE FORK RIDGE, GARDEN VALLEY, ID, 83622","Match","Non_Exact","27 MIDDLE FORK RIDGE RD, GARDEN VALLEY, ID, 83622",118320842,"L"
433024,"27 MIDLINE ROAD","BALLSTON LAKE","NY",12019,42.9143587730001,-73.87725342,24,"27 MIDLINE ROAD, BALLSTON LAKE, NY, 12019","Match","Exact","27 MIDLINE RD, BALLSTON LAKE, NY, 12019",18772944,"L"
433025,"27 MIDVALE LANE","WILLINGBORO","NJ",8016,NA,NA,25,"27 MIDVALE LANE, WILLINGBORO, NJ, 8016","No_Match",NA,NA,NA,NA
433026,"27 MILL STREAM LANE","PENACOOCK","NH",3229,NA,NA,26,"27 MILL STREAM LANE, PENACOOCK, NH, 3229","No_Match",NA,NA,NA,NA
433027,"27 MILLBURY ST","GRAFTON","MA",1519,42.2060042800001,-71.69032599,27,"27 MILLBURY ST, GRAFTON, MA, 1519","Match","Exact","27 MILLBURY ST, GRAFTON, MA, 01519",40016911,"L"
433028,"27 MILLS STREET","BLOOMFIELD","NJ",7003,NA,NA,28,"27 MILLS STREET, BLOOMFIELD, NJ, 7003","No_Match",NA,NA,NA,NA
433029,"27 MINE HILL RD","SCHWENKSVILE","PA",19473,40.2619446570001,-75.476099157,29,"27 MINE HILL RD, SCHWENKSVILE, PA, 19473","Match","Non_Exact","27 MINE HILL RD, SCHWENKSVILLE, PA, 19473",135130190,"R"
433030,"27 MINGUS HILL ROAD","CANTON","NC",28716,35.534111071,-82.8584281079999,30,"27 MINGUS HILL ROAD, CANTON, NC, 28716","Match","Exact","27 MINGUS HILL RD, CANTON, NC, 28716",641072325,"L"
433031,"27 MINQUIL DRIVE","NEWARK","DE",19713,39.6559538560001,-75.755140432,31,"27 MINQUIL DRIVE, NEWARK, DE, 19713","Match","Exact","27 MINQUIL DR, NEWARK, DE, 19713",606244695,"L"
433032,"27 MOHAWK DRIVE","RAMSEY","NJ",7446,41.073578781,-74.151772039,32,"27 MOHAWK DRIVE, RAMSEY, NJ, 7446","Match","Exact","27 MOHAWK DR, RAMSEY, NJ, 07446",64400497,"R"
433033,"27 MONMOUTH STREET","BOSTON","MA",2128,42.379806349,-71.038024301,33,"27 MONMOUTH STREET, BOSTON, MA, 2128","Match","Exact","27 MONMOUTH ST, BOSTON, MA, 02128",85711362,"R"
433034,"27 MONROE ST","MONTCLAIR","NJ",7042,40.8020083150001,-74.213885174,34,"27 MONROE ST, MONTCLAIR, NJ, 7042","Match","Non_Exact","27 MONROE PL, MONTCLAIR, NJ, 07042",63449709,"R"
433035,"27 MONTAGUE RD","AMHERST","MA",1002,42.411353955,-72.5304457299999,35,"27 MONTAGUE RD, AMHERST, MA, 1002","Match","Exact","27 MONTAGUE RD, AMHERST, MA, 01002",39865264,"R"
433036,"27 MONTAGUE ROAD APT 10","AMHERST","MA",1002,42.411353955,-72.5304457299999,36,"27 MONTAGUE ROAD APT 10, AMHERST, MA, 1002","Match","Exact","27 MONTAGUE RD, AMHERST, MA, 01002",39865264,"R"
433037,"27 MONTAUK LANE","PALM COAST","FL",32164,29.535189523,-81.23368743,37,"27 MONTAUK LANE, PALM COAST, FL, 32164","Match","Exact","27 MONTAUK LN, PALM COAST, FL, 32164",94956088,"R"
433038,"27 MONTVALE CIRCLE","LITTLE ROCK","AR",72223,NA,NA,38,"27 MONTVALE CIRCLE, LITTLE ROCK, AR, 72223","No_Match",NA,NA,NA,NA
433039,"27 MOORE STREET","WALTHAM","MA",2453,42.3678962550001,-71.226205745,39,"27 MOORE STREET, WALTHAM, MA, 2453","Match","Exact","27 MOORE ST, WALTHAM, MA, 02453",86861916,"R"
433040,"27 MOORMAN DRIVE","TIFTON","GA",31794,31.500931999,-83.447566925,40,"27 MOORMAN DRIVE, TIFTON, GA, 31794","Match","Exact","27 MOORMAN DR, TIFTON, GA, 31794",635988366,"L"
433041,"27 MORGAN PLACE","WHITE PLAINS","NY",10605,40.9965340160001,-73.7405499779999,41,"27 MORGAN PLACE, WHITE PLAINS, NY, 10605","Match","Exact","27 MORGAN PL, WHITE PLAINS, NY, 10605",139754569,"R"
433042,"27 MORNING GLORY COURT","EGG HARBOR TOWNSHIP","NJ",8234,39.3649998110001,-74.613370742,42,"27 MORNING GLORY COURT, EGG HARBOR TOWNSHIP, NJ, 8234","Match","Exact","27 MORNING GLORY CT, EGG HARBOR TOWNSHIP, NJ, 08234",202540422,"R"
433043,"27 MORNING MIST DRIVE","NORTH HAVEN","CT",6473,41.389345124,-72.837099215,43,"27 MORNING MIST DRIVE, NORTH HAVEN, CT, 6473","Match","Exact","27 MORNING MIST DR, NORTH HAVEN, CT, 06473",3749115,"L"
433044,"27 MORNINGSIDE DRIVE","OLD BRIDGE","NJ",8857,40.3911528290001,-74.295585638,44,"27 MORNINGSIDE DRIVE, OLD BRIDGE, NJ, 8857","Match","Exact","27 MORNINGSIDE DR, OLD BRIDGE, NJ, 08857",60285900,"L"
433045,"27 MORREL PLACE","GARFIELD","NJ",7026,40.8756947590001,-74.101752647,45,"27 MORREL PLACE, GARFIELD, NJ, 7026","Match","Non_Exact","27 MORRELL PL, GARFIELD, NJ, 07026",64413128,"L"
433046,"27 MORRIS STREET","AUBURN","NY",13021,42.935739025,-76.552949481,46,"27 MORRIS STREET, AUBURN, NY, 13021","Match","Exact","27 MORRIS ST, AUBURN, NY, 13021",33496900,"L"
433047,"27 MOSS LANE","BILLINGS","MT",59101,45.779713019,-108.516698902,47,"27 MOSS LANE, BILLINGS, MT, 59101","Match","Exact","27 MOSS LN, BILLINGS, MT, 59101",181493441,"L"
433048,"27 MOXLEY RD","UNCASVILLE","CT",6382,41.434106103,-72.118663939,48,"27 MOXLEY RD, UNCASVILLE, CT, 6382","Match","Exact","27 MOXLEY RD, UNCASVILLE, CT, 06382",613008911,"R"
433049,"27 MT HOLLY DRIVE","RYE","NY",10580,41.0001822180001,-73.689268913,49,"27 MT HOLLY DRIVE, RYE, NY, 10580","Match","Exact","27 MOUNT HOLLY DR, RYE, NY, 10580",139772291,"R"
433050,"27 MT OLIVER STREET","PITTSBURGH","PA",15210,40.420857579,-79.9874401869999,50,"27 MT OLIVER STREET, PITTSBURGH, PA, 15210","Match","Exact","27 MOUNT OLIVER ST, PITTSBURGH, PA, 15210",51637156,"R"
433051,"27 MUIRFIELD DRIVE","LAPLACE","LA",70068,30.097399732,-90.50052234,51,"27 MUIRFIELD DRIVE, LAPLACE, LA, 70068","Match","Non_Exact","27 MUIRFIELD DR, LA PLACE, LA, 70068",636265958,"R"
433052,"27 MULBERRY ST","ROCHESTER","NY",14620,43.136548706,-77.603366458,52,"27 MULBERRY ST, ROCHESTER, NY, 14620","Match","Exact","27 MULBERRY ST, ROCHESTER, NY, 14620",14540467,"R"
433053,"27 MULE DEER CT","ELKTON","MD",21921,39.656282504,-75.791431754,53,"27 MULE DEER CT, ELKTON, MD, 21921","Match","Exact","27 MULE DEER CT, ELKTON, MD, 21921",640478421,"R"
433054,"27 MURDOCK LANE","NEW CITY","NY",10956,41.131930681,-74.0212427869999,54,"27 MURDOCK LANE, NEW CITY, NY, 10956","Match","Exact","27 MURDOCK LN, NEW CITY, NY, 10956",124613187,"R"
433055,"27 MUSIC MOUNTAIN BLVD","LAMBERTVILLE","NJ",8530,40.3819353380001,-74.938743492,55,"27 MUSIC MOUNTAIN BLVD, LAMBERTVILLE, NJ, 8530","Match","Exact","27 MUSIC MOUNTAIN BLVD, LAMBERTVILLE, NJ, 08530",617782587,"L"
433056,"27 MYRTLE ST","LOWELL","MA",1850,42.6506614960001,-71.299607064,56,"27 MYRTLE ST, LOWELL, MA, 1850","Match","Exact","27 MYRTLE ST, LOWELL, MA, 01850",86877759,"R"
433057,"27 MYRTLE STREET","LOWELL","MA",1850,42.6506614960001,-71.299607064,57,"27 MYRTLE STREET, LOWELL, MA, 1850","Match","Exact","27 MYRTLE ST, LOWELL, MA, 01850",86877759,"R"
433058,"27 N ABERDEEN SUITE PHN","CHICAGO","IL",60617,NA,NA,58,"27 N ABERDEEN SUITE PHN, CHICAGO, IL, 60617","No_Match",NA,NA,NA,NA
433059,"27 N BROAD ST","HILLSDALE","MI",49242,41.920787627,-84.631015786,59,"27 N BROAD ST, HILLSDALE, MI, 49242","Match","Exact","27 N BROAD ST, HILLSDALE, MI, 49242",8281523,"R"
433060,"27 N CHURCH ST","JAMESTOWN","OH",45335,39.660336908,-83.733282494,60,"27 N CHURCH ST, JAMESTOWN, OH, 45335","Match","Exact","27 N CHURCH ST, JAMESTOWN, OH, 45335",143402615,"L"
433061,"27 N COCHRANS GREEN CIRCLE","THE WOODLANDS","TX",77381,30.201132908,-95.514137402,61,"27 N COCHRANS GREEN CIRCLE, THE WOODLANDS, TX, 77381","Match","Exact","27 N COCHRANS GREEN CIR, THE WOODLANDS, TX, 77381",79304844,"L"
433062,"27 N CREST PL","LAKEWOOD","NJ",8701,40.092883423,-74.2545459569999,62,"27 N CREST PL, LAKEWOOD, NJ, 8701","Match","Exact","27 N CREST PL, LAKEWOOD, NJ, 08701",617580839,"L"
433063,"27 N HILLTOP ROAD","CHURCHVILLE","PA",18966,NA,NA,63,"27 N HILLTOP ROAD, CHURCHVILLE, PA, 18966","Tie",NA,NA,NA,NA
433064,"27 N MAIN STREET","MEDFORD","NJ",8055,39.9007598110001,-74.823510588,64,"27 N MAIN STREET, MEDFORD, NJ, 8055","Match","Exact","27 N MAIN ST, MEDFORD, NJ, 08055",134038342,"R"
433065,"27 N MCNEIL RD","NATCHEZ","MS",39120,31.561780399,-91.300628827,65,"27 N MCNEIL RD, NATCHEZ, MS, 39120","Match","Non_Exact","27 MC NEIL RD, NATCHEZ, MS, 39120",79847448,"L"
433066,"27 N PUEBLO ST","GILBERT","AZ",85233,33.350757715,-111.796701683,66,"27 N PUEBLO ST, GILBERT, AZ, 85233","Match","Exact","27 N PUEBLO ST, GILBERT, AZ, 85233",128796375,"L"
433067,"27 N SHERIDAN AVE","COLORADO SPRINGS","CO",80909,38.8336333870001,-104.802223847,67,"27 N SHERIDAN AVE, COLORADO SPRINGS, CO, 80909","Match","Exact","27 N SHERIDAN AVE, COLORADO SPRINGS, CO, 80909",105517019,"R"
433068,"27 N WACKER DR STE 202","CHICAGO","IL",60606,NA,NA,68,"27 N WACKER DR STE 202, CHICAGO, IL, 60606","Tie",NA,NA,NA,NA
433069,"27 N WACKER DRIVE SUITE 467","CHICAGO","IL",60606,NA,NA,69,"27 N WACKER DRIVE SUITE 467, CHICAGO, IL, 60606","Tie",NA,NA,NA,NA
433070,"27 N YUCCA","ALAMOGORDO","NM",88310,32.761790977,-105.977118342,70,"27 N YUCCA, ALAMOGORDO, NM, 88310","Match","Non_Exact","27 YUCCA CIR, ALAMOGORDO, NM, 88310",132323493,"L"
433071,"27 NANDINA WAY","CRAWFORDVILLE","FL",32327,30.2611724770001,-84.365639115,71,"27 NANDINA WAY, CRAWFORDVILLE, FL, 32327","Match","Exact","27 NANDINA WAY, CRAWFORDVILLE, FL, 32327",625133697,"L"
433072,"27 NASH PARKWAY","SOMERSWORTH","NH",3878,43.25196751,-70.866621584,72,"27 NASH PARKWAY, SOMERSWORTH, NH, 3878","Match","Exact","27 NASH PKWY, SOMERSWORTH, NH, 03878",117805086,"R"
433073,"27 NASH","RINGOES","NJ",8551,NA,NA,73,"27 NASH, RINGOES, NJ, 8551","No_Match",NA,NA,NA,NA
433074,"27 NASHAWAY DRIVE","RINGOES","NH",8551,NA,NA,74,"27 NASHAWAY DRIVE, RINGOES, NH, 8551","No_Match",NA,NA,NA,NA
433075,"27 NASHAWAY DRIVE","RINGOES","NJ",8551,40.4784636420001,-74.876548282,75,"27 NASHAWAY DRIVE, RINGOES, NJ, 8551","Match","Exact","27 NASHAWAY DR, RINGOES, NJ, 08551",645500944,"L"
433076,"27 NE BEACH STREET","PORTLAND","OR",97212,45.5495382890001,-122.665930535,76,"27 NE BEACH STREET, PORTLAND, OR, 97212","Match","Non_Exact","27 NE BEECH ST, PORTLAND, OR, 97212",652333378,"L"
433077,"27 NEW HAVEN ROAD","HULETT","WY",82720,44.6860243020001,-104.62472379,77,"27 NEW HAVEN ROAD, HULETT, WY, 82720","Match","Exact","27 NEW HAVEN RD, HULETT, WY, 82720",147174054,"R"
433078,"27 NEWMAN STREET","KEENE","NH",3431,42.9390037800001,-72.301427901,78,"27 NEWMAN STREET, KEENE, NH, 3431","Match","Exact","27 NEWMAN ST, KEENE, NH, 03431",124051055,"R"
433079,"27 NIBLICK LANE","GREENLAND","NH",3840,43.005492222,-70.8657675379999,79,"27 NIBLICK LANE, GREENLAND, NH, 3840","Match","Exact","27 NIBLICK LN, GREENLAND, NH, 03840",643232633,"L"
433080,"27 NICKERSON RD","LEXINGTON","MA",2421,42.445442282,-71.2469777219999,80,"27 NICKERSON RD, LEXINGTON, MA, 2421","Match","Exact","27 NICKERSON RD, LEXINGTON, MA, 02421",86881629,"R"
433081,"27 NOLAN ST","NORWALK","CT",6850,41.12145137,-73.431581275,81,"27 NOLAN ST, NORWALK, CT, 6850","Match","Exact","27 NOLAN ST, NORWALK, CT, 06850",3249353,"L"
433082,"27 NORMANDY DR","BETHPAGE","NY",11714,40.7232562410001,-73.4780628669999,82,"27 NORMANDY DR, BETHPAGE, NY, 11714","Match","Exact","27 NORMANDY DR, BETHPAGE, NY, 11714",147646410,"R"
433083,"27 NORRIS STREET","CAMBRIDGE","MA",2140,42.3955260290001,-71.129571544,83,"27 NORRIS STREET, CAMBRIDGE, MA, 2140","Match","Exact","27 NORRIS ST, CAMBRIDGE, MA, 02140",87112081,"R"
433084,"27 NORTH 4TH STREET","DUQUESNE","PA",15110,40.373418337,-79.8497977979999,84,"27 NORTH 4TH STREET, DUQUESNE, PA, 15110","Match","Exact","27 N 4TH ST, DUQUESNE, PA, 15110",51671698,"L"
433085,"27 NORTH BROAD STREET - FIRST FLOOR","RIDGEWOOD","NJ",7450,40.9802700970001,-74.1203664079999,85,"27 NORTH BROAD STREET - FIRST FLOOR, RIDGEWOOD, NJ, 7450","Match","Exact","27 N BROAD ST, RIDGEWOOD, NJ, 07450",64376454,"R"
433086,"27 NORTH BUCKHOUT ST/ APT 7","IRVINGTON","NY",10533,41.0400370580001,-73.8717677559999,86,"27 NORTH BUCKHOUT ST/ APT 7, IRVINGTON, NY, 10533","Match","Non_Exact","27 N BUCKHOUT ST, IRVINGTON, NY, 10533",139731620,"L"
433087,"27 NORTH FAIRLAWN AVE","MUNDELEIN","IL",60060,42.2630815250001,-88.01752551,87,"27 NORTH FAIRLAWN AVE, MUNDELEIN, IL, 60060","Match","Non_Exact","27 N FAIRLAWN DR, MUNDELEIN, IL, 60060",119637334,"L"
433088,"27 NORTH FRANKLIN STREET","NYACK","NY",10960,41.092308272,-73.921410324,88,"27 NORTH FRANKLIN STREET, NYACK, NY, 10960","Match","Exact","27 N FRANKLIN ST, NYACK, NY, 10960",124600541,"R"
433089,"27 NORTH GENESEE STREET","WAUKEGAN","IL",60085,42.359966291,-87.8313358939999,89,"27 NORTH GENESEE STREET, WAUKEGAN, IL, 60085","Match","Exact","27 N GENESEE ST, WAUKEGAN, IL, 60085",119645487,"R"
433090,"27 NORTH POLK AVENUE","ARCADIA","FL",34266,NA,NA,90,"27 NORTH POLK AVENUE, ARCADIA, FL, 34266","No_Match",NA,NA,NA,NA
433091,"27 NORTH ST","MORRISVILLE","NY",13408,42.9006170590001,-75.640199522,91,"27 NORTH ST, MORRISVILLE, NY, 13408","Match","Exact","27 NORTH ST, MORRISVILLE, NY, 13408",46498453,"L"
433092,"27 NORTHWOOD BLVD","CENTRAL ISLIP","NY",11722,40.781369737,-73.197940919,92,"27 NORTHWOOD BLVD, CENTRAL ISLIP, NY, 11722","Match","Exact","27 NORTHWOOD BLVD, CENTRAL ISLIP, NY, 11722",114244390,"L"
433093,"27 NW 39TH ST","KANSAS CITY","MO",64116,39.165193179,-94.582025621,93,"27 NW 39TH ST, KANSAS CITY, MO, 64116","Match","Exact","27 NW 39TH ST, KANSAS CITY, MO, 64116",89756515,"L"
433094,"27 NYSSA LANE","BEAUFORT","SC",29907,32.488629534,-80.640930199,94,"27 NYSSA LANE, BEAUFORT, SC, 29907","Match","Exact","27 NYSSA LN, BEAUFORT, SC, 29907",612411303,"R"
433095,"27 OAK MILLS CROSSING","W HENRIETTA","NY",14586,43.0732061150001,-77.690340717,95,"27 OAK MILLS CROSSING, W HENRIETTA, NY, 14586","Match","Exact","27 OAK MILLS CROSSING, W HENRIETTA, NY, 14586",14558799,"L"
433096,"27 OAK PLACE","NEW IBERIA","LA",70563,29.992717828,-91.7866068289999,96,"27 OAK PLACE, NEW IBERIA, LA, 70563","Match","Exact","27 OAK PL, NEW IBERIA, LA, 70563",85374676,"L"
433097,"27 OAKBROOK","COTO DE CAZA","CA",92679,33.610715752,-117.57906062,97,"27 OAKBROOK, COTO DE CAZA, CA, 92679","Match","Exact","27 OAKBROOK, COTO DE CAZA, CA, 92679",144389523,"L"
433098,"27 OAKS HUNT ROAD","GREAT NECK","NY",11020,40.769934817,-73.7263685469999,98,"27 OAKS HUNT ROAD, GREAT NECK, NY, 11020","Match","Exact","27 OAKS HUNT RD, GREAT NECK, NY, 11020",147660305,"L"
433099,"27 OGDEN AVENUE","DOBBS FERRY","NY",10522,41.0129911400001,-73.858640266,99,"27 OGDEN AVENUE, DOBBS FERRY, NY, 10522","Match","Exact","27 OGDEN AVE, DOBBS FERRY, NY, 10522",139732239,"L"
433100,"27 OLCOTT STREET","MANCHESTER","CT",6040,41.7742918160001,-72.550221676,100,"27 OLCOTT STREET, MANCHESTER, CT, 6040","Match","Exact","27 OLCOTT ST, MANCHESTER, CT, 06040",617511552,"R"
433101,"27 OLD FARM ROAD","LINCOLN","MA",1773,42.4298727940001,-71.288205459,101,"27 OLD FARM ROAD, LINCOLN, MA, 1773","Match","Exact","27 OLD FARM RD, LINCOLN, MA, 01773",86846094,"R"
433102,"27 OLD FARMS ROAD","SOUTH GLASTONBURY","CT",6073,41.653296008,-72.534170107,102,"27 OLD FARMS ROAD, SOUTH GLASTONBURY, CT, 6073","Match","Exact","27 OLD FARMS RD, S GLASTONBURY, CT, 06073",635728853,"R"
433103,"27 OLD GRAY ROAD","CUMBERLAND","ME",4021,NA,NA,103,"27 OLD GRAY ROAD, CUMBERLAND, ME, 4021","Tie",NA,NA,NA,NA
433104,"27 OLD MEADOW LANE","CUMBERLAND","RI",2864,41.9730554490001,-71.3896498989999,104,"27 OLD MEADOW LANE, CUMBERLAND, RI, 2864","Match","Exact","27 OLD MEADOW LN, CUMBERLAND, RI, 02864",47453871,"R"
433105,"27 OLD MILL LANE","QUEENSBURY","NY",12804,43.3212394620001,-73.680278281,105,"27 OLD MILL LANE, QUEENSBURY, NY, 12804","Match","Exact","27 OLD MILL LN, QUEENSBURY, NY, 12804",173921612,"L"
433106,"27 OLD PECOS LN","SANTA FE","NM",87508,35.630967969,-105.936288406,106,"27 OLD PECOS LN, SANTA FE, NM, 87508","Match","Exact","27 OLD PECOS LN, SANTA FE, NM, 87508",169412622,"R"
433107,"27 OLD STAGE ROAD","NEWFANE","VT",5345,43.002729914,-72.690154808,107,"27 OLD STAGE ROAD, NEWFANE, VT, 5345","Match","Exact","27 OLD STAGE RD, NEWFANE, VT, 05345",171087578,"L"
433108,"27 OLD TERRACE","BELLOWS FALLS","VT",5101,43.1270337240001,-72.446104071,108,"27 OLD TERRACE, BELLOWS FALLS, VT, 5101","Match","Exact","27 OLD TER, BELLOWS FALLS, VT, 05101",635531250,"L"
433109,"27 OPAL CIRCLE","ODESSA","TX",79762,31.8887549040001,-102.307865857,109,"27 OPAL CIRCLE, ODESSA, TX, 79762","Match","Exact","27 OPAL CIR, ODESSA, TX, 79762",139431826,"L"
433110,"27 ORCHARD DRIVE","REDDING","CT",6896,41.28011187,-73.395399363,110,"27 ORCHARD DRIVE, REDDING, CT, 6896","Match","Exact","27 ORCHARD DR, REDDING, CT, 06896",635574340,"L"
433111,"27 ORCHARD ST","DELMAR","NY",12054,42.624724965,-73.8541247859999,111,"27 ORCHARD ST, DELMAR, NY, 12054","Match","Exact","27 ORCHARD ST, DELMAR, NY, 12054",18304730,"R"
433112,"27 ORCHARD ST","EXETER","PA",18643,41.318979208,-75.819448688,112,"27 ORCHARD ST, EXETER, PA, 18643","Match","Exact","27 ORCHARD ST, EXETER, PA, 18643",80955732,"L"
433113,"27 OREGON AVE","PITTSBURGH","PA",15205,40.4393928700001,-80.0643015539999,113,"27 OREGON AVE, PITTSBURGH, PA, 15205","Match","Exact","27 OREGON AVE, PITTSBURGH, PA, 15205",51628833,"L"
433114,"27 OSBORNE STREET","ALBANY","NY",12202,42.6419852490001,-73.762460762,114,"27 OSBORNE STREET, ALBANY, NY, 12202","Match","Exact","27 OSBORNE ST, ALBANY, NY, 12202",18360775,"R"
433115,"27 OSCHAWA AV","BUFFALO","NY",14210,42.8537080470001,-78.800457131,115,"27 OSCHAWA AV, BUFFALO, NY, 14210","Match","Exact","27 OSCHAWA AVE, BUFFALO, NY, 14210",48303107,"R"
433116,"27 OSWEGATCHIE ROAD","WATERFORD","CT",6385,41.3656758390001,-72.189097691,116,"27 OSWEGATCHIE ROAD, WATERFORD, CT, 6385","Match","Exact","27 OSWEGATCHIE RD, WATERFORD, CT, 06385",56844169,"R"
433117,"27 OVERLOOK AVE","WEST ORANGE","NJ",7052,40.762038171,-74.259338521,117,"27 OVERLOOK AVE, WEST ORANGE, NJ, 7052","Match","Exact","27 OVERLOOK AVE, WEST ORANGE, NJ, 07052",63460922,"R"
433118,"27 OVERLOOK DRIVE","GOLF","IL",60029,42.0589224620001,-87.793375334,118,"27 OVERLOOK DRIVE, GOLF, IL, 60029","Match","Exact","27 OVERLOOK DR, GOLF, IL, 60029",111734487,"L"
433119,"27 OVERLOOK TERRACE","RINGWOOD","NJ",7456,41.0979300020001,-74.254826583,119,"27 OVERLOOK TERRACE, RINGWOOD, NJ, 7456","Match","Exact","27 OVERLOOK TER, RINGWOOD, NJ, 07456",65254991,"L"
433120,"27 OXBOW LANE","SOUTH WINDSOR","CT",6074,41.8499114790001,-72.6078053379999,120,"27 OXBOW LANE, SOUTH WINDSOR, CT, 6074","Match","Exact","27 OXBOW LN, SOUTH WINDSOR, CT, 06074",623850174,"R"
433121,"27 PACKARD WAY","BROCKTON","MA",2301,42.0710338600001,-71.022595657,121,"27 PACKARD WAY, BROCKTON, MA, 2301","Match","Exact","27 PACKARD WAY, BROCKTON, MA, 02301",87444171,"R"
433122,"27 PADDOCK DR","NORTH PORT","NY",11768,40.886512527,-73.275788776,122,"27 PADDOCK DR, NORTH PORT, NY, 11768","Match","Non_Exact","27 PADDOCK DR, NORTHPORT, NY, 11768",114047881,"L"
433123,"27 PALMETTO STREET","BROOKLYN","NY",11221,40.689869936,-73.920532533,123,"27 PALMETTO STREET, BROOKLYN, NY, 11221","Match","Exact","27 PALMETTO ST, BROOKLYN, NY, 11221",59082847,"L"
433124,"27 PAPER CHASE DR","FARMINGTON","CT",6032,41.736297941,-72.869053767,124,"27 PAPER CHASE DR, FARMINGTON, CT, 6032","Match","Exact","27 PAPER CHASE DR, FARMINGTON, CT, 06032",3512424,"L"
433125,"27 PAPER CHASE DRIVE","FARMINGTON","CT",6032,41.736297941,-72.869053767,125,"27 PAPER CHASE DRIVE, FARMINGTON, CT, 6032","Match","Exact","27 PAPER CHASE DR, FARMINGTON, CT, 06032",3512424,"L"
433126,"27 PARK AVE","WINDSOR","CT",6095,41.839163306,-72.653367168,126,"27 PARK AVE, WINDSOR, CT, 6095","Match","Exact","27 PARK AVE, WINDSOR, CT, 06095",648787768,"L"
433127,"27 PARK LANE","CLEAR LAKE","IA",50428,43.1385452320001,-93.4218342359999,127,"27 PARK LANE, CLEAR LAKE, IA, 50428","Match","Exact","27 PARK LN, CLEAR LAKE, IA, 50428",7298479,"L"
433128,"27 PARK LANE","WESTPORT","CT",6880,41.136145952,-73.3499610219999,128,"27 PARK LANE, WESTPORT, CT, 6880","Match","Exact","27 PARK LN, WESTPORT, CT, 06880",3238563,"L"
433129,"27 PARK POND CIR","WALLINGFORD","CT",6492,41.4915626810001,-72.841990719,129,"27 PARK POND CIR, WALLINGFORD, CT, 6492","Match","Exact","27 PARK POND CIR, WALLINGFORD, CT, 06492",3719418,"R"
433130,"27 PARK ST APT 2","SOMERVILLE","MA",2143,42.382150349,-71.106819162,130,"27 PARK ST APT 2, SOMERVILLE, MA, 2143","Match","Exact","27 PARK ST, SOMERVILLE, MA, 02143",86868624,"R"
433131,"27 PARKVIEW CIRCLE","CORTE MADERA","CA",94925,37.9152909200001,-122.510322143,131,"27 PARKVIEW CIRCLE, CORTE MADERA, CA, 94925","Match","Exact","27 PARKVIEW CIR, CORTE MADERA, CA, 94925",624622342,"R"
433132,"27 PARKVIEW DRIVE","ST. PETERS","MO",63376,38.7642711340001,-90.6103970079999,132,"27 PARKVIEW DRIVE, ST. PETERS, MO, 63376","Match","Exact","27 PARKVIEW DR, SAINT PETERS, MO, 63376",100017119,"L"
433133,"27 PATTI DRIVE","GREENVILLE","SC",29611,34.8087283340001,-82.4435918189999,133,"27 PATTI DRIVE, GREENVILLE, SC, 29611","Match","Exact","27 PATTI DR, GREENVILLE, SC, 29611",38304135,"R"
433134,"27 PAUL PL","WEST SENECA","NY",14210,42.857854924,-78.816127363,134,"27 PAUL PL, WEST SENECA, NY, 14210","Match","Exact","27 PAUL PL, WEST SENECA, NY, 14210",48301784,"R"
433135,"27 PAULINE STREET","SPRINGFIELD","MA",1104,42.1313872210001,-72.5860008079999,135,"27 PAULINE STREET, SPRINGFIELD, MA, 1104","Match","Exact","27 PAULINE ST, SPRINGFIELD, MA, 01104",4023637,"R"
433136,"27 PAW PAW LAKE DRIVE","CHAGRIN FALLS","OH",44022,41.433610747,-81.314261227,136,"27 PAW PAW LAKE DRIVE, CHAGRIN FALLS, OH, 44022","Match","Exact","27 PAW PAW LAKE DR, CHAGRIN FALLS, OH, 44022",137433868,"L"
433137,"27 PAWNEE LN","HONEY BROOK","PA",19344,40.0663164310001,-75.810527908,137,"27 PAWNEE LN, HONEY BROOK, PA, 19344","Match","Exact","27 PAWNEE LN, HONEY BROOK, PA, 19344",179524725,"R"
433138,"27 PAYSON ROAD","CORNWALL ON HUDSON","NY",12520,41.4403459690001,-74.013031918,138,"27 PAYSON ROAD, CORNWALL ON HUDSON, NY, 12520","Match","Exact","27 PAYSON RD, CORNWALL ON HUDSON, NY, 12520",124424131,"R"
433139,"27 PAYTONS WAY","HARPSWELL","ME",4079,NA,NA,139,"27 PAYTONS WAY, HARPSWELL, ME, 4079","No_Match",NA,NA,NA,NA
433140,"27 PEABODY ROW","LONDONDERRY","NH",3053,42.856646186,-71.36235045,140,"27 PEABODY ROW, LONDONDERRY, NH, 3053","Match","Exact","27 PEABODY ROW, LONDONDERRY, NH, 03053",113685998,"L"
433141,"27 PEACH STREET","PEARL RIVER","NY",10965,NA,NA,141,"27 PEACH STREET, PEARL RIVER, NY, 10965","No_Match",NA,NA,NA,NA
433142,"27 PEARL ST","MALDEN","MA",2148,42.4262953150001,-71.076357631,142,"27 PEARL ST, MALDEN, MA, 2148","Match","Exact","27 PEARL ST, MALDEN, MA, 02148",87106168,"R"
433143,"27 PEASLEE ROAD","MERRIMACK","NH",3054,42.8243681390001,-71.5401537019999,143,"27 PEASLEE ROAD, MERRIMACK, NH, 3054","Match","Exact","27 PEASLEE RD, MERRIMACK, NH, 03054",113543098,"R"
433144,"27 PEGASUS DR","TINTON FALLS","NJ",7724,40.316152414,-74.105965747,144,"27 PEGASUS DR, TINTON FALLS, NJ, 7724","Match","Exact","27 PEGASUS DR, TINTON FALLS, NJ, 07724",601178048,"L"
433145,"27 PENDLETON AVENUE","SPRINGFIELD","MA",1109,42.10542559,-72.570763058,145,"27 PENDLETON AVENUE, SPRINGFIELD, MA, 1109","Match","Exact","27 PENDLETON AVE, SPRINGFIELD, MA, 01109",4035869,"R"
433146,"27 PERDICARIS PL","TRENTON","NJ",8618,40.2248544400001,-74.778588202,146,"27 PERDICARIS PL, TRENTON, NJ, 8618","Match","Exact","27 PERDICARIS PL, TRENTON, NJ, 08618",60224832,"R"
433147,"27 PERIWINKLE CI","TINTON FALLS","NJ",7712,40.2376121830001,-74.077184087,147,"27 PERIWINKLE CI, TINTON FALLS, NJ, 7712","Match","Exact","27 PERIWINKLE CIR, TINTON FALLS, NJ, 07712",90601837,"L"
433148,"27 PERIWINKLE DRIVE","MONMOUTH JUNCTION","NJ",8852,40.368223147,-74.576742828,148,"27 PERIWINKLE DRIVE, MONMOUTH JUNCTION, NJ, 8852","Match","Exact","27 PERIWINKLE DR, MONMOUTH JCT, NJ, 08852",60309710,"R"
433149,"27 PIERCE AVENUE","DORCHESTER","MA",2122,42.2873246240001,-71.05319696,149,"27 PIERCE AVENUE, DORCHESTER, MA, 2122","Match","Exact","27 PIERCE AVE, DORCHESTER, MA, 02122",85715575,"R"
433150,"27 PIERCE RD","RIVERSIDE","CT",6878,41.0352816490001,-73.588621421,150,"27 PIERCE RD, RIVERSIDE, CT, 6878","Match","Exact","27 PIERCE RD, RIVERSIDE, CT, 06878",3244306,"R"
433151,"27 PILGRIM DRIVE","LITCHFIELD","NH",3052,42.8188126530001,-71.433022691,151,"27 PILGRIM DRIVE, LITCHFIELD, NH, 3052","Match","Exact","27 PILGRIM DR, LITCHFIELD, NH, 03052",636314045,"R"
433152,"27 PIN OAK DR","NORTH BRUNSWICK","NJ",8902,40.4355463890001,-74.494571257,152,"27 PIN OAK DR, NORTH BRUNSWICK, NJ, 8902","Match","Exact","27 PIN OAK DR, N BRUNSWICK, NJ, 08902",647264418,"R"
433153,"27 PIN OAK DRIVE","LAWRENCEVILLE","NJ",8648,40.27551507,-74.723003034,153,"27 PIN OAK DRIVE, LAWRENCEVILLE, NJ, 8648","Match","Exact","27 PIN OAK DR, LAWRENCEVILLE, NJ, 08648",60171867,"L"
433154,"27 PINE GROVE CIRCLE","NEWNAN","GA",30263,33.3684356590001,-84.8206698559999,154,"27 PINE GROVE CIRCLE, NEWNAN, GA, 30263","Match","Exact","27 PINE GROVE CIR, NEWNAN, GA, 30263",9340134,"L"
433155,"27 PINE ST","DALTON","MA",1226,42.4774326250001,-73.173981898,155,"27 PINE ST, DALTON, MA, 1226","Match","Exact","27 PINE ST, DALTON, MA, 01226",3922872,"R"
433156,"27 PINE TRAIL","EAST HAMPTON","CT",6405,NA,NA,156,"27 PINE TRAIL, EAST HAMPTON, CT, 6405","No_Match",NA,NA,NA,NA
433157,"27 PINELYNN DR","PALM COAST","FL",32164,29.519935735,-81.2165603879999,157,"27 PINELYNN DR, PALM COAST, FL, 32164","Match","Exact","27 PINELYNN DR, PALM COAST, FL, 32164",94961848,"L"
433158,"27 PINNACLE MOUNTAIN ROAD","WEST PARIS","ME",4289,44.323409305,-70.480219349,158,"27 PINNACLE MOUNTAIN ROAD, WEST PARIS, ME, 4289","Match","Exact","27 PINNACLE MTN RD, WEST PARIS, ME, 04289",92674498,"L"
433159,"27 PLANTATION ST APT 3","WORCESTER","MA",1604,42.253220121,-71.7818049969999,159,"27 PLANTATION ST APT 3, WORCESTER, MA, 1604","Match","Exact","27 PLANTATION ST, WORCESTER, MA, 01604",40011730,"L"
433160,"27 PLEASANT ST","EAST WINDSOR","CT",6088,41.934099948,-72.614728911,160,"27 PLEASANT ST, EAST WINDSOR, CT, 6088","Match","Exact","27 PLEASANT ST, EAST WINDSOR, CT, 06088",647245808,"R"
433161,"27 POINT WEST","WEST LAFAYETTE","IN",47906,40.4581506650001,-86.959214516,161,"27 POINT WEST, WEST LAFAYETTE, IN, 47906","Match","Exact","27 POINT W, W LAFAYETTE, IN, 47906",27316507,"L"
433162,"27 POND VIEW WAY","NORTH ATTLEBORO","MA",2760,41.9669711010001,-71.3167140859999,162,"27 POND VIEW WAY, NORTH ATTLEBORO, MA, 2760","Match","Exact","27 POND VIEW WAY, NORTH ATTLEBORO, MA, 02760",624893318,"R"
433163,"27 PONDVIEW ROAD","SWANZEY","NH",3446,42.87648045,-72.3381814049999,163,"27 PONDVIEW ROAD, SWANZEY, NH, 3446","Match","Non_Exact","27 PONDVIEW, SWANZEY, NH, 03446",124066754,"R"
433164,"27 POPE HILL ROAD","MILTON","MA",2186,42.249559703,-71.0986775379999,164,"27 POPE HILL ROAD, MILTON, MA, 2186","Match","Exact","27 POPE HILL RD, MILTON, MA, 02186",87276636,"R"
433165,"27 POPLAR ST","JERSEY CITY","NJ",7307,40.7539202310001,-74.0453969609999,165,"27 POPLAR ST, JERSEY CITY, NJ, 7307","Match","Exact","27 POPLAR ST, JERSEY CITY, NJ, 07307",59600119,"L"
433166,"27 POPPER STREET","MANAHAWKIN","NJ",8050,39.7182810100001,-74.251459299,166,"27 POPPER STREET, MANAHAWKIN, NJ, 8050","Match","Exact","27 POPPER ST, MANAHAWKIN, NJ, 08050",645487683,"R"
433167,"27 POWHATAN ROAD","PEPPERELL","MA",1463,42.633592159,-71.615117617,167,"27 POWHATAN ROAD, PEPPERELL, MA, 1463","Match","Exact","27 POWHATAN RD, PEPPERELL, MA, 01463",87174467,"R"
433168,"27 PRENTICE PLACE","BECKET","MA",1223,42.330660505,-73.083102567,168,"27 PRENTICE PLACE, BECKET, MA, 1223","Match","Exact","27 PRENTICE PL, BECKET, MA, 01223",3928274,"L"
433169,"27 PRESIDENT ST","HUNTINGTON STATION","NY",11746,40.8386002890001,-73.414669233,169,"27 PRESIDENT ST, HUNTINGTON STATION, NY, 11746","Match","Exact","27 PRESIDENT ST, HUNTINGTON STATION, NY, 11746",113965753,"R"
433170,"27 PRESTON STREET","HUNTINGTON","NY",11743,40.8857146080001,-73.429314483,170,"27 PRESTON STREET, HUNTINGTON, NY, 11743","Match","Exact","27 PRESTON ST, HUNTINGTON, NY, 11743",114033466,"L"
433171,"27 PRICES COURT","COLUMBIA","SC",29212,34.076855864,-81.132516841,171,"27 PRICES COURT, COLUMBIA, SC, 29212","Match","Exact","27 PRICES CT, COLUMBIA, SC, 29212",653322410,"L"
433172,"27 PRINCETON RD","MALDEN","MA",2148,42.437721997,-71.054312335,172,"27 PRINCETON RD, MALDEN, MA, 2148","Match","Exact","27 PRINCETON RD, MALDEN, MA, 02148",86872350,"R"
433173,"27 PROGRESSIVE AVENUE","WEST BRIDGEWATER","MA",2379,42.0382600130001,-71.0300606289999,173,"27 PROGRESSIVE AVENUE, WEST BRIDGEWATER, MA, 2379","Match","Exact","27 PROGRESSIVE AVE, W BRIDGEWATER, MA, 02379",87444415,"R"
433174,"27 PROSPECT ST","DEXTER","ME",4930,45.02828457,-69.284381965,174,"27 PROSPECT ST, DEXTER, ME, 4930","Match","Exact","27 PROSPECT ST, DEXTER, ME, 04930",123655164,"R"
433175,"27 PROSPECT ST","MARLBOROUGH","MA",1752,42.3471771480001,-71.551625266,175,"27 PROSPECT ST, MARLBOROUGH, MA, 1752","Match","Exact","27 PROSPECT ST, MARLBOROUGH, MA, 01752",86899430,"L"
433176,"27 PUEBLO CT","MORGANVILLE","NJ",7751,40.348625338,-74.2539868219999,176,"27 PUEBLO CT, MORGANVILLE, NJ, 7751","Match","Exact","27 PUEBLO CT, MORGANVILLE, NJ, 07751",90500484,"R"
433177,"27 PULASKI STREET","BINGHAMTON","NV",13905,NA,NA,177,"27 PULASKI STREET, BINGHAMTON, NV, 13905","No_Match",NA,NA,NA,NA
433178,"27 PULASKI STREET","BINGHAMTON","NY",13905,42.118984126,-75.941166542,178,"27 PULASKI STREET, BINGHAMTON, NY, 13905","Match","Exact","27 PULASKI ST, BINGHAMTON, NY, 13905",46372696,"R"
433179,"27 PURITAN AVE","EAST WAREHAM","MA",2538,41.798421031,-70.6338195439999,179,"27 PURITAN AVE, EAST WAREHAM, MA, 2538","Match","Exact","27 PURITAN AVE, EAST WAREHAM, MA, 02538",647367679,"L"
433180,"27 PUSHAW RD","HOPE","ME",4847,44.216486194,-69.181908329,180,"27 PUSHAW RD, HOPE, ME, 4847","Match","Exact","27 PUSHAW RD, HOPE, ME, 04847",75546647,"R"
433181,"27 QUAIL CREEK LANE","PHILLIPS RANCH","CA",91766,34.0293891040001,-117.772377127,181,"27 QUAIL CREEK LANE, PHILLIPS RANCH, CA, 91766","Match","Exact","27 QUAIL CREEK LN, PHILLIPS RANCH, CA, 91766",141731108,"R"
433182,"27 QUENSEL COUR","LAKE GROVE","NY",11755,40.8440594040001,-73.115847919,182,"27 QUENSEL COUR, LAKE GROVE, NY, 11755","Match","Non_Exact","27 QUENSEL CT, LAKE GROVE, NY, 11755",613008433,"L"
433183,"27 QUENSEL COURT","LAKE GROVE","NY",11755,40.8440594040001,-73.115847919,183,"27 QUENSEL COURT, LAKE GROVE, NY, 11755","Match","Exact","27 QUENSEL CT, LAKE GROVE, NY, 11755",613008433,"L"
433184,"27 RACE ROAD","DALLAS","PA",18612,41.3970780390001,-75.936653344,184,"27 RACE ROAD, DALLAS, PA, 18612","Match","Exact","27 RACE RD, DALLAS, PA, 18612",648959573,"R"
433185,"27 RADCLIFFE ROAD","BOSTON","MA",2136,42.267978961,-71.104453802,185,"27 RADCLIFFE ROAD, BOSTON, MA, 2136","Match","Exact","27 RADCLIFFE RD, BOSTON, MA, 02136",651813863,"R"
433186,"27 RADIO CIRCLE DRIVE","MT. KISCO","NY",10549,41.1924461080001,-73.7342879719999,186,"27 RADIO CIRCLE DRIVE, MT. KISCO, NY, 10549","Match","Exact","27 RADIO CIR DR, MOUNT KISCO, NY, 10549",139819217,"L"
433187,"27 RALPH STUBBS ROAD","RANDOLPH","MA",2368,42.1832324170001,-71.0491314939999,187,"27 RALPH STUBBS ROAD, RANDOLPH, MA, 2368","Match","Exact","27 RALPH STUBBS RD, RANDOLPH, MA, 02368",87280042,"R"
433188,"27 RAMBLE ROAD","STATEN ISLAND","NY",10308,40.5499307310001,-74.146602607,188,"27 RAMBLE ROAD, STATEN ISLAND, NY, 10308","Match","Exact","27 RAMBLE RD, STATEN ISLAND, NY, 10308",636672647,"L"
433189,"27 RANDALL WOOD DRIVE","MONTAGUE","MA",1351,42.5786911280001,-72.557613482,189,"27 RANDALL WOOD DRIVE, MONTAGUE, MA, 1351","Match","Exact","27 RANDALL WOOD DR, MONTAGUE, MA, 01351",39952821,"L"
433190,"27 RANDOLPH STREET","CANTON","MA",2021,42.1802327290001,-71.1177275049999,190,"27 RANDOLPH STREET, CANTON, MA, 2021","Match","Exact","27 RANDOLPH ST, CANTON, MA, 02021",87266654,"R"
433191,"27 RANGER TRAIL","BYRAM","NJ",7871,41.0009904500001,-74.685163296,191,"27 RANGER TRAIL, BYRAM, NJ, 7871","Match","Non_Exact","27 RANGER TRL, SPARTA, NJ, 07871",98016273,"R"
433192,"27 RAPIDAN DR","STAFFORD","VA",22556,38.478667311,-77.4003429209999,192,"27 RAPIDAN DR, STAFFORD, VA, 22556","Match","Exact","27 RAPIDAN DR, STAFFORD, VA, 22556",640798938,"L"
433193,"27 RAVENSWOOD LANE","SCOTCH PLAINS","NJ",7076,40.609450542,-74.393566558,193,"27 RAVENSWOOD LANE, SCOTCH PLAINS, NJ, 7076","Match","Exact","27 RAVENSWOOD LN, SCOTCH PLAINS, NJ, 07076",60602360,"L"
433194,"27 RAVENSWOOD TERRACE","CHEEKTOWAGA","NY",14225,42.9478091650001,-78.7723660469999,194,"27 RAVENSWOOD TERRACE, CHEEKTOWAGA, NY, 14225","Match","Exact","27 RAVENSWOOD TER, CHEEKTOWAGA, NY, 14225",48298990,"R"
433195,"27 RAYMOND AVENUE","NUTLEY","NJ",7110,40.825114613,-74.164548376,195,"27 RAYMOND AVENUE, NUTLEY, NJ, 7110","Match","Exact","27 RAYMOND AVE, NUTLEY, NJ, 07110",63480455,"L"
433196,"27 RED BROOK ROAD","BUZZRD'S BAY","MA",2532,41.75773544,-70.637458663,196,"27 RED BROOK ROAD, BUZZRD'S BAY, MA, 2532","Match","Non_Exact","27 RED BROOK RD, BUZZARDS BAY, MA, 02532",87427177,"L"
433197,"27 RED BUD","ALISO VIEJO","CA",92656,33.5837123330001,-117.739685937,197,"27 RED BUD, ALISO VIEJO, CA, 92656","Match","Exact","27 RED BUD, ALISO VIEJO, CA, 92656",608140754,"L"
433198,"27 RED FOX DR","ALBANY","NY",12205,42.7263456790001,-73.837547204,198,"27 RED FOX DR, ALBANY, NY, 12205","Match","Exact","27 RED FOX DR, ALBANY, NY, 12205",18302964,"R"
433199,"27 RED OAK CT","MONROE","NJ",8831,40.3584626910001,-74.403476191,199,"27 RED OAK CT, MONROE, NJ, 8831","Match","Exact","27 RED OAK CT, MONROE, NJ, 08831",632436326,"R"
433200,"27 RED ROCK CIRCLE","NEWINGTON","CT",6111,41.663613169,-72.751588466,200,"27 RED ROCK CIRCLE, NEWINGTON, CT, 6111","Match","Exact","27 RED ROCK CIR, NEWINGTON, CT, 06111",3515330,"R"
433201,"27 REDBUD HOLLOW LN","STAUNTON","VA",24401,38.2001792830001,-79.124090713,201,"27 REDBUD HOLLOW LN, STAUNTON, VA, 24401","Match","Exact","27 REDBUD HOLLOW LN, STAUNTON, VA, 24401",213457419,"L"
433202,"27 REDBUD WAY","MARLBOROUGH","MA",1752,42.319933098,-71.574863691,202,"27 REDBUD WAY, MARLBOROUGH, MA, 1752","Match","Exact","27 REDBUD WAY, MARLBOROUGH, MA, 01752",645283256,"R"
433203,"27 REDROCK RD","ROCHESTER","NY",14626,NA,NA,203,"27 REDROCK RD, ROCHESTER, NY, 14626","No_Match",NA,NA,NA,NA
433204,"27 RESERVOIR DRIVE","DANVERS","MA",1923,42.596279128,-70.9526479479999,204,"27 RESERVOIR DRIVE, DANVERS, MA, 1923","Match","Exact","27 RESERVOIR DR, DANVERS, MA, 01923",86638725,"R"
433205,"27 REYNES BROOK DR","DOVER","NH",3820,43.224575638,-70.918739907,205,"27 REYNES BROOK DR, DOVER, NH, 3820","Match","Non_Exact","27 REYNERS BROOK DR, DOVER, NH, 03820",117809610,"R"
433206,"27 REYNOLDS RD","CHARLTON","MA",1507,42.088424393,-71.991016439,206,"27 REYNOLDS RD, CHARLTON, MA, 1507","Match","Exact","27 REYNOLDS RD, CHARLTON, MA, 01507",40067316,"R"
433207,"27 RICHMAR DRIVE","SAYVILLE","NY",11782,40.7606874320001,-73.0790924,207,"27 RICHMAR DRIVE, SAYVILLE, NY, 11782","Match","Exact","27 RICHMAR DR, SAYVILLE, NY, 11782",114006927,"R"
433208,"27 RICKY ROAD","RONKONKOMA","NY",11779,40.820290261,-73.1287883489999,208,"27 RICKY ROAD, RONKONKOMA, NY, 11779","Match","Exact","27 RICKY RD, RONKONKOMA, NY, 11779",113992067,"L"
433209,"27 RIDGE DRIVE","MOUNTAIN BROOK","AL",35213,33.5008904740001,-86.7657570809999,209,"27 RIDGE DRIVE, MOUNTAIN BROOK, AL, 35213","Match","Exact","27 RIDGE DR, MOUNTAIN BRK, AL, 35213",647581579,"R"
433210,"27 RIDGE HAVEN DRIVE","RIDGE","NY",11961,40.912056083,-72.885942729,210,"27 RIDGE HAVEN DRIVE, RIDGE, NY, 11961","Match","Exact","27 RIDGE HAVEN DR, RIDGE, NY, 11961",114057823,"R"
433211,"27 RIDGEWOOD LANE","MELROSE","MA",2176,42.4595586900001,-71.0423264739999,211,"27 RIDGEWOOD LANE, MELROSE, MA, 2176","Match","Exact","27 RIDGEWOOD LN, MELROSE, MA, 02176",86916190,"R"
433212,"27 RIDINGS PARKWAY","PRINCETON","NJ",8540,40.4247881910001,-74.589004755,212,"27 RIDINGS PARKWAY, PRINCETON, NJ, 8540","Match","Exact","27 RIDINGS PKWY, PRINCETON, NJ, 08540",59972979,"L"
433213,"27 RIDINGS WAY","WEST CHESTER","PA",19382,39.968117385,-75.51047347,213,"27 RIDINGS WAY, WEST CHESTER, PA, 19382","Match","Exact","27 RIDINGS WAY, WEST CHESTER, PA, 19382",626861017,"L"
433214,"27 RIESLING COURT","COMMACK","NY",11725,40.86151191,-73.253804498,214,"27 RIESLING COURT, COMMACK, NY, 11725","Match","Exact","27 RIESLING CT, COMMACK, NY, 11725",114235225,"R"
433215,"27 RIONDA COURT","ALPINE","NJ",7620,40.945619068,-73.925382933,215,"27 RIONDA COURT, ALPINE, NJ, 7620","Match","Exact","27 RIONDA CT, ALPINE, NJ, 07620",625351521,"L"
433216,"27 RITCH DRIVE","RIDGEFIELD","CT",6877,41.3103804510001,-73.479573594,216,"27 RITCH DRIVE, RIDGEFIELD, CT, 6877","Match","Exact","27 RITCH DR, RIDGEFIELD, CT, 06877",3271374,"L"
433217,"27 RIVER RANCH RD","KETTLE FALLS","WA",99141,48.6915123590001,-118.123065555,217,"27 RIVER RANCH RD, KETTLE FALLS, WA, 99141","Match","Non_Exact","27 RIVER RD, KETTLE FALLS, WA, 99141",627046552,"R"
433218,"27 RIVER STREET","REHOBOTH","MA",2769,41.845548777,-71.268479468,218,"27 RIVER STREET, REHOBOTH, MA, 2769","Match","Exact","27 RIVER ST, REHOBOTH, MA, 02769",46808991,"R"
433219,"27 RIVERFRONT RD","CAMDEN","AL",36726,32.039222438,-87.276181556,219,"27 RIVERFRONT RD, CAMDEN, AL, 36726","Match","Exact","27 RIVERFRONT RD, CAMDEN, AL, 36726",10820984,"L"
433220,"27 RIVERVIEW DRIVE","COHASSET","MA",2025,42.21430823,-70.815528101,220,"27 RIVERVIEW DRIVE, COHASSET, MA, 2025","Match","Exact","27 RIVERVIEW DR, COHASSET, MA, 02025",87298667,"L"
433221,"27 ROAD 240","AMERICUS","KS",66835,38.5066302600001,-96.2508751029999,221,"27 ROAD 240, AMERICUS, KS, 66835","Match","Exact","27 RD 240, AMERICUS, KS, 66835",635865137,"R"
433222,"27 ROAD 6407","KIRTLAND","NM",87417,36.743135539,-108.34585038,222,"27 ROAD 6407, KIRTLAND, NM, 87417","Match","Exact","27 RD 6407, KIRTLAND, NM, 87417",127411092,"L"
433223,"27 ROBERT CRESCENT","STONY BROOK","NY",11790,40.8990000800001,-73.0987147719999,223,"27 ROBERT CRESCENT, STONY BROOK, NY, 11790","Match","Exact","27 ROBERT CRES, STONY BROOK, NY, 11790",634256658,"R"
433224,"27 ROBIN DRIVE","SKILLMAN","NJ",8558,40.408936392,-74.6452777599999,224,"27 ROBIN DRIVE, SKILLMAN, NJ, 8558","Match","Exact","27 ROBIN DR, SKILLMAN, NJ, 08558",59949952,"L"
433225,"27 ROBINWOOD CT","ENGLEWOOD","OH",45322,39.8552237710001,-84.289535837,225,"27 ROBINWOOD CT, ENGLEWOOD, OH, 45322","Match","Exact","27 ROBINWOOD CT, ENGLEWOOD, OH, 45322",143630514,"R"
433226,"27 ROCK CREEK RD","BUFFALO","WY",82834,44.3829288140001,-106.698666741,226,"27 ROCK CREEK RD, BUFFALO, WY, 82834","Match","Exact","27 ROCK CREEK RD, BUFFALO, WY, 82834",635138692,"R"
433227,"27 ROCKINGHAM LANE","PALM COAST","FL",32164,29.521089325,-81.254480643,227,"27 ROCKINGHAM LANE, PALM COAST, FL, 32164","Match","Exact","27 ROCKINGHAM LN, PALM COAST, FL, 32164",94947536,"R"
433228,"27 ROCKVILLE AVENUE","LEXINGTON","MA",2421,42.42393608,-71.215114393,228,"27 ROCKVILLE AVENUE, LEXINGTON, MA, 2421","Match","Exact","27 ROCKVILLE AVE, LEXINGTON, MA, 02421",86883950,"R"
433229,"27 ROGERS ST","TUCKAHOE","NY",10707,40.9506797970001,-73.822257182,229,"27 ROGERS ST, TUCKAHOE, NY, 10707","Match","Exact","27 ROGERS ST, TUCKAHOE, NY, 10707",139747858,"L"
433230,"27 ROLAND AVENUE","MOUNT LAUREL","NJ",8054,39.923648212,-74.9659364619999,230,"27 ROLAND AVENUE, MOUNT LAUREL, NJ, 8054","Match","Exact","27 ROLAND AVE, MOUNT LAUREL, NJ, 08054",134028071,"L"
433231,"27 ROSALIE STREET","MANVILLE","NJ",8835,40.5394013380001,-74.5873375529999,231,"27 ROSALIE STREET, MANVILLE, NJ, 8835","Match","Exact","27 ROSALIE ST, MANVILLE, NJ, 08835",59939614,"L"
433232,"27 ROSALIND PLACE","LAWRENCE","NY",11559,40.614246565,-73.7324830869999,232,"27 ROSALIND PLACE, LAWRENCE, NY, 11559","Match","Exact","27 ROSALIND PL, LAWRENCE, NY, 11559",640606785,"L"
433233,"27 ROSE AVE","SPRING VALLEY","NY",10977,41.1188508130001,-74.0369175119999,233,"27 ROSE AVE, SPRING VALLEY, NY, 10977","Match","Exact","27 ROSE AVE, SPRING VALLEY, NY, 10977",124593666,"R"
433234,"27 ROSE AVENUE APT C10","SPRING VALLEY","NY",10977,41.1188508130001,-74.0369175119999,234,"27 ROSE AVENUE APT C10, SPRING VALLEY, NY, 10977","Match","Exact","27 ROSE AVE, SPRING VALLEY, NY, 10977",124593666,"R"
433235,"27 ROSEBANK AVENUE","KENTFIELD","CA",94904,37.9525313780001,-122.542794953,235,"27 ROSEBANK AVENUE, KENTFIELD, CA, 94904","Match","Exact","27 ROSEBANK AVE, KENTFIELD, CA, 94904",192764824,"L"
433236,"27 ROYAL COURT","SAN RAFAEL","CA",94901,37.9695543990001,-122.50281345,236,"27 ROYAL COURT, SAN RAFAEL, CA, 94901","Match","Exact","27 ROYAL CT, SAN RAFAEL, CA, 94901",192767298,"L"
433237,"27 RT 12","HARTLAND","VT",5048,43.5425169230001,-72.402281182,237,"27 RT 12, HARTLAND, VT, 5048","Match","Non_Exact","27 STATE RTE 12, HARTLAND, VT, 05048",139241005,"L"
433238,"27 RUNNING BROOK CIRCLE","FLEMINGTON","NJ",8822,40.495613833,-74.803245422,238,"27 RUNNING BROOK CIRCLE, FLEMINGTON, NJ, 8822","Match","Exact","27 RUNNING BROOK CIR, FLEMINGTON, NJ, 08822",60028231,"L"
433239,"27 RUST ROAD","BARKHAMSTED","CT",6063,41.8988229450001,-72.9983129349999,239,"27 RUST ROAD, BARKHAMSTED, CT, 6063","Match","Exact","27 RUST RD, BARKHAMSTED, CT, 06063",3113120,"L"
433240,"27 RYE CT","GAITHERSBURG","MD",20878,39.13231441,-77.226932221,240,"27 RYE CT, GAITHERSBURG, MD, 20878","Match","Exact","27 RYE CT, GAITHERSBURG, MD, 20878",62109420,"R"
433241,"27 S 24TH ST","SAN JOSE","CA",95116,37.346535063,-121.867286637,241,"27 S 24TH ST, SAN JOSE, CA, 95116","Match","Exact","27 S 24TH ST, SAN JOSE, CA, 95116",122908923,"R"
433242,"27 S 2ND STREET","ASHLAND","OR",97520,42.194990026,-122.711580291,242,"27 S 2ND STREET, ASHLAND, OR, 97520","Match","Exact","27 S 2ND ST, ASHLAND, OR, 97520",155547699,"L"
433243,"27 S ANN ST","BALTIMORE","MD",21231,39.291274012,-76.591748439,243,"27 S ANN ST, BALTIMORE, MD, 21231","Match","Exact","27 S ANN ST, BALTIMORE, MD, 21231",206424490,"L"
433244,"27 S ARLINGTON AVE","BALTIMORE","MD",21223,39.2878529380001,-76.635243164,244,"27 S ARLINGTON AVE, BALTIMORE, MD, 21223","Match","Exact","27 S ARLINGTON AVE, BALTIMORE, MD, 21223",206417847,"L"
433245,"27 S DARLINGTON ST","WEST CHESTER","PA",19382,39.9580014590001,-75.606689461,245,"27 S DARLINGTON ST, WEST CHESTER, PA, 19382","Match","Exact","27 S DARLINGTON ST, WEST CHESTER, PA, 19382",179490660,"L"
433246,"27 S PATTON AVE","ARLINGTON HEIGHTS","IL",60005,42.082121704,-87.9962714119999,246,"27 S PATTON AVE, ARLINGTON HEIGHTS, IL, 60005","Match","Exact","27 S PATTON AVE, ARLINGTON HEIGHTS, IL, 60005",111715671,"L"
433247,"27 SAAB COURT","SPRINGFIELD","MA",1104,42.1114961600001,-72.592439581,247,"27 SAAB COURT, SPRINGFIELD, MA, 1104","Match","Exact","27 SAAB CT, SPRINGFIELD, MA, 01104",4034872,"R"
433248,"27 SABBATIA DR","WHISPERING PINES","NC",28327,35.2511056060001,-79.351999268,248,"27 SABBATIA DR, WHISPERING PINES, NC, 28327","Match","Exact","27 SABBATIA DR, WHISPERING PINES, NC, 28327",20343443,"L"
433249,"27 SACRAMENTO DRIVE APT 21","HAMPTON","VA",23666,37.0673051210001,-76.382013817,249,"27 SACRAMENTO DRIVE APT 21, HAMPTON, VA, 23666","Match","Exact","27 SACRAMENTO DR, HAMPTON, VA, 23666",103805161,"L"
433250,"27 SAGE DRIVE","BRIDGEPORT","WV",26330,39.299880322,-80.1813984299999,250,"27 SAGE DRIVE, BRIDGEPORT, WV, 26330","Match","Exact","27 SAGE DR, BRIDGEPORT, WV, 26330",649184935,"L"
433251,"27 SAGEBRUSH WAY","AZUSA","CA",91702,34.160707614,-117.90361599,251,"27 SAGEBRUSH WAY, AZUSA, CA, 91702","Match","Exact","27 SAGEBRUSH WAY, AZUSA, CA, 91702",640110793,"L"
433252,"27 SAINT REGIS DRIVE NORTH","ROCHESTER","NY",14618,43.132499297,-77.57069545,252,"27 SAINT REGIS DRIVE NORTH, ROCHESTER, NY, 14618","Match","Exact","27 SAINT REGIS DR N, ROCHESTER, NY, 14618",14541402,"R"
433253,"27 SALA TERRACE","SAN FRANCISCO","CA",94112,37.7139603370001,-122.445295185,253,"27 SALA TERRACE, SAN FRANCISCO, CA, 94112","Match","Exact","27 SALA TER, SAN FRANCISCO, CA, 94112",192286141,"L"
433254,"27 SAMANTHA DR","MONROE TWP","NJ",8831,40.3640862440001,-74.4069844049999,254,"27 SAMANTHA DR, MONROE TWP, NJ, 8831","Match","Exact","27 SAMANTHA DR, MONROE TOWNSHIP, NJ, 08831",60310996,"L"
433255,"27 SAMPY LANE","HUNTLY","VA",22640,38.8147051240001,-78.082044017,255,"27 SAMPY LANE, HUNTLY, VA, 22640","Match","Exact","27 SAMPY LN, HUNTLY, VA, 22640",29940729,"L"
433256,"27 SAN MARCOS TROUT CLUB","SANTA BARBARA","CA",93105,34.4912174250001,-119.798713781,256,"27 SAN MARCOS TROUT CLUB, SANTA BARBARA, CA, 93105","Match","Exact","27 SAN MARCOS TROUT CLUB, SANTA BARBARA, CA, 93105",108601878,"R"
433257,"27 SANTA MONICA ST","ALISO VIEJO","CA",92656,33.5816702270001,-117.713882311,257,"27 SANTA MONICA ST, ALISO VIEJO, CA, 92656","Match","Exact","27 SANTA MONICA ST, ALISO VIEJO, CA, 92656",640202616,"L"
433258,"27 SATINWOOD WAY","IRVINE","CA",92612,33.6652525110001,-117.818528616,258,"27 SATINWOOD WAY, IRVINE, CA, 92612","Match","Exact","27 SATINWOOD WAY, IRVINE, CA, 92612",645528739,"R"
433259,"27 SAUCER LANE","LEVITTOWN","NY",11756,40.7203234250001,-73.5001292749999,259,"27 SAUCER LANE, LEVITTOWN, NY, 11756","Match","Exact","27 SAUCER LN, LEVITTOWN, NY, 11756",147645056,"L"
433260,"27 SAXHAM WAY","WYNNEWOOD","PA",19096,39.979734453,-75.274973297,260,"27 SAXHAM WAY, WYNNEWOOD, PA, 19096","Match","Exact","27 SAXHAM WAY, WYNNEWOOD, PA, 19096",135088046,"R"
433261,"27 SAYBROOK DRIVE","LANCASTER","NY",14086,NA,NA,261,"27 SAYBROOK DRIVE, LANCASTER, NY, 14086","No_Match",NA,NA,NA,NA
433262,"27 SCHNEIDER DRIVE","FAIRBORN","OH",45324,39.829521135,-84.019287591,262,"27 SCHNEIDER DRIVE, FAIRBORN, OH, 45324","Match","Exact","27 SCHNEIDER DR, FAIRBORN, OH, 45324",143383906,"L"
433263,"27 SCHOOL STREET PLACE APT 2","BOSTON","MA",2119,42.3137301720001,-71.0970622199999,263,"27 SCHOOL STREET PLACE APT 2, BOSTON, MA, 2119","Match","Exact","27 SCHOOL STREET PL, BOSTON, MA, 02119",85699886,"R"
433264,"27 SCHOOL STREET","EAST HARDWICK","VT",5836,44.519324264,-72.305329495,264,"27 SCHOOL STREET, EAST HARDWICK, VT, 5836","Match","Exact","27 SCHOOL ST, EAST HARDWICK, VT, 05836",181090970,"L"
433265,"27 SCHOOL STREET","LEXINGTON","MA",2420,NA,NA,265,"27 SCHOOL STREET, LEXINGTON, MA, 2420","No_Match",NA,NA,NA,NA
433266,"27 SCHOOL STREET","RANDOLPH","VT",5060,43.9247047000001,-72.6715508469999,266,"27 SCHOOL STREET, RANDOLPH, VT, 5060","Match","Exact","27 SCHOOL ST, RANDOLPH, VT, 05060",648397772,"L"
433267,"27 SCHUYLER DRIVE","COMMACK","NY",11725,40.837544785,-73.2870797319999,267,"27 SCHUYLER DRIVE, COMMACK, NY, 11725","Match","Exact","27 SCHUYLER DR, COMMACK, NY, 11725",113981882,"L"
433268,"27 SCOTT RD","TERRYVILLE","CT",6782,NA,NA,268,"27 SCOTT RD, TERRYVILLE, CT, 6782","No_Match",NA,NA,NA,NA
433269,"27 SCUREMAN ST","HANOVER TOWNSHIP","PA",18706,41.233013821,-75.934112108,269,"27 SCUREMAN ST, HANOVER TOWNSHIP, PA, 18706","Match","Exact","27 SCUREMAN ST, HANOVER TOWNSHIP, PA, 18706",80912363,"L"
433270,"27 SCUREMAN ST","HANOVER TWP","PA",18706,41.233013821,-75.934112108,270,"27 SCUREMAN ST, HANOVER TWP, PA, 18706","Match","Exact","27 SCUREMAN ST, HANOVER TOWNSHIP, PA, 18706",80912363,"L"
433271,"27 SEA ISLAND DRIVE","BLUFFTON","SC",29910,32.2850974630001,-80.917660015,271,"27 SEA ISLAND DRIVE, BLUFFTON, SC, 29910","Match","Exact","27 SEA ISLAND DR, BLUFFTON, SC, 29910",633586972,"L"
433272,"27 SEA STREET","CAMDEN","ME",4843,44.210756577,-69.060898945,272,"27 SEA STREET, CAMDEN, ME, 4843","Match","Exact","27 SEA ST, CAMDEN, ME, 04843",75547612,"L"
433273,"27 SEABRING STREET","SPRING VALLEY","NY",10977,41.1128948410001,-74.040941265,273,"27 SEABRING STREET, SPRING VALLEY, NY, 10977","Match","Exact","27 SEABRING ST, SPRING VALLEY, NY, 10977",124594344,"L"
433274,"27 SEABURY STREET","NEWARK","NJ",7104,NA,NA,274,"27 SEABURY STREET, NEWARK, NJ, 7104","Tie",NA,NA,NA,NA
433275,"27 SECATOGUE AVENUE","EAST ISLIP","NY",11730,40.7295314610001,-73.1864983949999,275,"27 SECATOGUE AVENUE, EAST ISLIP, NY, 11730","Match","Exact","27 SECATOGUE AVE, EAST ISLIP, NY, 11730",113998705,"L"
433276,"27 SECOND AVENUE","TROY","NY",12180,42.7542860890001,-73.682529878,276,"27 SECOND AVENUE, TROY, NY, 12180","Match","Exact","27 2ND AVE, TROY, NY, 12180",35728494,"L"
433277,"27 SECOND ST","GOULDSBORO","PA",18424,41.2429409210001,-75.453934728,277,"27 SECOND ST, GOULDSBORO, PA, 18424","Match","Exact","27 SECOND ST, GOULDSBORO, PA, 18424",140137770,"L"
433278,"27 SECOND ST","SOMERSET","IN",46984,40.6683563980001,-85.829097453,278,"27 SECOND ST, SOMERSET, IN, 46984","Match","Exact","27 2ND ST, SOMERSET, IN, 46984",647417591,"L"
433279,"27 SEMINARY AVE","BINGHAMTON","NY",13905,42.097457906,-75.923351499,279,"27 SEMINARY AVE, BINGHAMTON, NY, 13905","Match","Exact","27 SEMINARY AVE, BINGHAMTON, NY, 13905",46342319,"L"
433280,"27 SEWELL RD","NARRAGANSETT","RI",2882,41.3886275180001,-71.480558532,280,"27 SEWELL RD, NARRAGANSETT, RI, 2882","Match","Exact","27 SEWELL RD, NARRAGANSETT, RI, 02882",58903984,"R"
433281,"27 SHARON CT","PITTSBURGH","PA",15235,40.460693797,-79.862450041,281,"27 SHARON CT, PITTSBURGH, PA, 15235","Match","Exact","27 SHARON CT, PITTSBURGH, PA, 15235",641906021,"R"
433282,"27 SHARP STREET","DARTMOUTH","MA",2747,NA,NA,282,"27 SHARP STREET, DARTMOUTH, MA, 2747","No_Match",NA,NA,NA,NA
433283,"27 SHEFFIELD LN","FLORENCE","MA",1062,42.338636315,-72.668979889,283,"27 SHEFFIELD LN, FLORENCE, MA, 1062","Match","Exact","27 SHEFFIELD LN, FLORENCE, MA, 01062",39848889,"R"
433284,"27 SHELTON COURT","COMMACK","NY",11725,40.851807953,-73.270436439,284,"27 SHELTON COURT, COMMACK, NY, 11725","Match","Exact","27 SHELTON CT, COMMACK, NY, 11725",113981960,"L"
433285,"27 SHENANDOAH RD","BUFFALO","NY",14220,42.8390233010001,-78.806713772,285,"27 SHENANDOAH RD, BUFFALO, NY, 14220","Match","Exact","27 SHENANDOAH RD, BUFFALO, NY, 14220",48303179,"R"
433286,"27 SHEPARD STREET","BOSTON","MA",2135,42.3470597200001,-71.150472469,286,"27 SHEPARD STREET, BOSTON, MA, 2135","Match","Exact","27 SHEPARD ST, BOSTON, MA, 02135",85695152,"R"
433287,"27 SHERRI LANE","SPRING VALLEY","NY",10977,41.1520807530001,-74.059880558,287,"27 SHERRI LANE, SPRING VALLEY, NY, 10977","Match","Exact","27 SHERRI LN, SPRING VALLEY, NY, 10977",124629215,"L"
433288,"27 SHETLAND RD","EAST BRUNSWICK","NJ",8816,40.4155738250001,-74.37239034,288,"27 SHETLAND RD, EAST BRUNSWICK, NJ, 8816","Match","Exact","27 SHETLAND RD, E BRUNSWICK, NJ, 08816",60363108,"R"
433289,"27 SHIEFIELS COURT","NORTH BRUNSWICK","NJ",8902,NA,NA,289,"27 SHIEFIELS COURT, NORTH BRUNSWICK, NJ, 8902","No_Match",NA,NA,NA,NA
433290,"27 SHURTLEFF","SOUTH PARIS","ME",4281,44.217497436,-70.519254389,290,"27 SHURTLEFF, SOUTH PARIS, ME, 4281","Match","Non_Exact","27 SHURTLEFF ST, SOUTH PARIS, ME, 04281",92661383,"R"
433291,"27 SILVER CIRCLE","BARRE","VT",5641,44.171596778,-72.5009827869999,291,"27 SILVER CIRCLE, BARRE, VT, 5641","Match","Exact","27 SILVER CIR, BARRE, VT, 05641",136672435,"R"
433292,"27 SINGING PINES DR","CANDLER","NC",28715,35.564059119,-82.651811537,292,"27 SINGING PINES DR, CANDLER, NC, 28715","Match","Exact","27 SINGING PINES DR, CANDLER, NC, 28715",36875662,"L"
433293,"27 SIPPEWISSETT ROAD","WEST FALMOUTH","MA",2540,41.572925351,-70.6303895739999,293,"27 SIPPEWISSETT ROAD, WEST FALMOUTH, MA, 2540","Match","Non_Exact","27 SIPPEWISSETT RD, FALMOUTH, MA, 02540",121643624,"L"
433294,"27 SIXTH STREET","GARDEN CITY PARK","NY",11040,40.7427757840001,-73.6695696149999,294,"27 SIXTH STREET, GARDEN CITY PARK, NY, 11040","Match","Exact","27 6TH ST, GARDEN CITY PARK, NY, 11040",147671123,"L"
433295,"27 SLASHPINE CIRCLE","HOCKESSIN","DE",19707,39.7845879770001,-75.707324372,295,"27 SLASHPINE CIRCLE, HOCKESSIN, DE, 19707","Match","Exact","27 SLASHPINE CIR, HOCKESSIN, DE, 19707",635473752,"L"
433296,"27 SLATE CREEK DRIVE","CHEEKTOWAGA","NY",14227,42.870870638,-78.742071613,296,"27 SLATE CREEK DRIVE, CHEEKTOWAGA, NY, 14227","Match","Exact","27 SLATE CREEK DR, CHEEKTOWAGA, NY, 14227",48327901,"L"
433297,"27 SLATE DR","FREDERICKSBURG","VA",22406,NA,NA,297,"27 SLATE DR, FREDERICKSBURG, VA, 22406","No_Match",NA,NA,NA,NA
433298,"27 SLEEPY HILL ROAD","SOUTHBURY","CT",6488,41.4564933980001,-73.2123406269999,298,"27 SLEEPY HILL ROAD, SOUTHBURY, CT, 6488","Match","Exact","27 SLEEPY HILL RD, SOUTHBURY, CT, 06488",3725941,"L"
433299,"27 SMITHSHIRE ESTATES","ANDOVER","MA",1810,42.6609996350001,-71.1519103919999,299,"27 SMITHSHIRE ESTATES, ANDOVER, MA, 1810","Match","Exact","27 SMITHSHIRE ESTS, ANDOVER, MA, 01810",86679148,"R"
433300,"27 SMOKEY MEADOWS WAY   101","CANTON","NC",28716,35.520784614,-82.838280416,300,"27 SMOKEY MEADOWS WAY   101, CANTON, NC, 28716","Match","Exact","27 SMOKEY MEADOWS WAY, CANTON, NC, 28716",651382006,"L"
433301,"27 SMOKEY MEADOWS WAY  101","CANTON","NC",28716,35.520784614,-82.838280416,301,"27 SMOKEY MEADOWS WAY  101, CANTON, NC, 28716","Match","Exact","27 SMOKEY MEADOWS WAY, CANTON, NC, 28716",651382006,"L"
433302,"27 SMOKEY MEADOWS WAY","CANTON","NC",28716,35.520784614,-82.838280416,302,"27 SMOKEY MEADOWS WAY, CANTON, NC, 28716","Match","Exact","27 SMOKEY MEADOWS WAY, CANTON, NC, 28716",651382006,"L"
433303,"27 SNOW ST 3R","SOUTHBRIDGE","MA",1550,42.082383329,-72.028869142,303,"27 SNOW ST 3R, SOUTHBRIDGE, MA, 1550","Match","Exact","27 SNOW ST, SOUTHBRIDGE, MA, 01550",40001415,"R"
433304,"27 SOLMAN STREET   APT 210","CARIBOU","ME",4736,46.874568577,-68.010323931,304,"27 SOLMAN STREET   APT 210, CARIBOU, ME, 4736","Match","Exact","27 SOLMAN ST, CARIBOU, ME, 04736",123830725,"L"
433305,"27 SOMERSET DRIVE","WINDSOR","FL",6095,NA,NA,305,"27 SOMERSET DRIVE, WINDSOR, FL, 6095","No_Match",NA,NA,NA,NA
433306,"27 SOUTH 6TH STREET","COLUMBIA","PA",17512,40.0345964840001,-76.497455067,306,"27 SOUTH 6TH STREET, COLUMBIA, PA, 17512","Match","Exact","27 S 6TH ST, COLUMBIA, PA, 17512",179657699,"L"
433307,"27 SOUTH ANN STREET","BALTIMORE","MD",21231,39.2912792010001,-76.591748756,307,"27 SOUTH ANN STREET, BALTIMORE, MD, 21231","Match","Exact","27 S ANN ST, BALTIMORE, MD, 21231",206424490,"L"
433308,"27 SOUTH CIRCLE","BEACON FALLS","CT",6403,41.447084395,-73.062123097,308,"27 SOUTH CIRCLE, BEACON FALLS, CT, 6403","Match","Exact","27 SOUTH CIR, BEACON FALLS, CT, 06403",3717835,"L"
433309,"27 SOUTH HEATHCOTE AVE","EDISON","NJ",8817,40.5216129940001,-74.372495074,309,"27 SOUTH HEATHCOTE AVE, EDISON, NJ, 8817","Match","Exact","27 S HEATHCOTE AVE, EDISON, NJ, 08817",60277490,"R"
433310,"27 SOUTH MAIN STREET","ELBA","NY",14058,43.0784967860001,-78.187060098,310,"27 SOUTH MAIN STREET, ELBA, NY, 14058","Match","Exact","27 S MAIN ST, ELBA, NY, 14058",48143939,"L"
433311,"27 SOUTH QUEENS CT","HUNTINGTON","WV",25704,38.3991992050001,-82.4054367209999,311,"27 SOUTH QUEENS CT, HUNTINGTON, WV, 25704","Match","Non_Exact","27 S QUEENS CT, HUNTINGTON, WV, 25705",643753779,"L"
433312,"27 SOUTH QUEENS CT","HUNTINGTON","WV",25705,38.3991992050001,-82.4054367209999,312,"27 SOUTH QUEENS CT, HUNTINGTON, WV, 25705","Match","Exact","27 S QUEENS CT, HUNTINGTON, WV, 25705",643753779,"L"
433313,"27 SOUTH RIGBY AVE","LANDSDOWNE","PA",19050,39.938717372,-75.267858561,313,"27 SOUTH RIGBY AVE, LANDSDOWNE, PA, 19050","Match","Non_Exact","27 S RIGBY AVE, LANSDOWNE, PA, 19050",134878042,"L"
433314,"27 SOUTH SHORE ROAD","SPOFFORD","NH",3462,42.899891128,-72.4504727679999,314,"27 SOUTH SHORE ROAD, SPOFFORD, NH, 3462","Match","Exact","27 S SHORE RD, SPOFFORD, NH, 03462",124088671,"L"
433315,"27 SOUTH ST","CAMDEN","DE",19934,39.111541147,-75.553063395,315,"27 SOUTH ST, CAMDEN, DE, 19934","Match","Exact","27 SOUTH ST, CAMDEN, DE, 19934",636203272,"R"
433316,"27 SOUTH WAYOLA AVE APT 301","LAGRANGE","IL",60525,41.8134901010001,-87.877034394,316,"27 SOUTH WAYOLA AVE APT 301, LAGRANGE, IL, 60525","Match","Non_Exact","27 S WAIOLA AVE, LAGRANGE HLDS, IL, 60525",605149151,"L"
433317,"27 SOUTHERN SLOPE DRIVE","MILLBURN","NJ",7041,40.7193013150001,-74.300027859,317,"27 SOUTHERN SLOPE DRIVE, MILLBURN, NJ, 7041","Match","Exact","27 SOUTHERN SLOPE DR, MILLBURN, NJ, 07041",63484219,"R"
433318,"27 SPEED STREET","BRENTWOOD","NY",11717,40.7754379400001,-73.216977485,318,"27 SPEED STREET, BRENTWOOD, NY, 11717","Match","Exact","27 SPEED ST, BRENTWOOD, NY, 11717",113985711,"R"
433319,"27 SPENCER COVE","GRENADA","MS",38901,33.7801999770001,-89.863463802,319,"27 SPENCER COVE, GRENADA, MS, 38901","Match","Non_Exact","27 SPENCER RD, GRENADA, MS, 38901",7564687,"L"
433320,"27 SPRING EAST","WILLIAMSBURG","VA",23188,37.3152825810001,-76.7615968489999,320,"27 SPRING EAST, WILLIAMSBURG, VA, 23188","Match","Exact","27 SPRING E, WILLIAMSBURG, VA, 23188",103779615,"L"
433321,"27 SPRING HILL LANE","BLOOMFIELD","CT",6002,41.8449134360001,-72.754704874,321,"27 SPRING HILL LANE, BLOOMFIELD, CT, 6002","Match","Exact","27 SPRING HILL LN, BLOOMFIELD, CT, 06002",3535056,"L"
433322,"27 SPRING LAKE DRIVE","STAFFORD","VA",22556,38.4619770050001,-77.47212594,322,"27 SPRING LAKE DRIVE, STAFFORD, VA, 22556","Match","Exact","27 SPRING LAKE DR, STAFFORD, VA, 22556",636655528,"L"
433323,"27 SPRING PLACE SMYRNA RD","CHATSWORTH","GA",30705,34.7303804960001,-84.785492418,323,"27 SPRING PLACE SMYRNA RD, CHATSWORTH, GA, 30705","Match","Exact","27 SPRING PLACE SMYRNA RD, CHATSWORTH, GA, 30705",651712101,"R"
433324,"27 SPRINKLE LANE","WHITE SALMON","WA",98672,45.849535175,-121.510142629,324,"27 SPRINKLE LANE, WHITE SALMON, WA, 98672","Match","Exact","27 SPRINKLE LN, WHITE SALMON, WA, 98672",649945574,"L"
433325,"27 ST CATHERINE COURT","BUFFALO","NY",14222,NA,NA,325,"27 ST CATHERINE COURT, BUFFALO, NY, 14222","No_Match",NA,NA,NA,NA
433326,"27 ST CATHERINES CT","BUFFALO","NY",14222,42.9171658320001,-78.874675689,326,"27 ST CATHERINES CT, BUFFALO, NY, 14222","Match","Exact","27 ST CATHERINES CT, BUFFALO, NY, 14222",48289281,"R"
433327,"27 ST JAMES PLACE","BREWSTER","NY",10509,41.38202055,-73.584766073,327,"27 ST JAMES PLACE, BREWSTER, NY, 10509","Match","Exact","27 ST JAMES PL, BREWSTER, NY, 10509",139689420,"R"
433328,"27 STADLEY ROUGH RD","DANBURY","CT",6811,41.424061355,-73.43179144,328,"27 STADLEY ROUGH RD, DANBURY, CT, 6811","Match","Exact","27 STADLEY ROUGH RD, DANBURY, CT, 06811",3270749,"R"
433329,"27 STAFFORD LANE","BEDMINSTER","NJ",7921,40.665444968,-74.6303985019999,329,"27 STAFFORD LANE, BEDMINSTER, NJ, 7921","Match","Exact","27 STAFFORD LN, BEDMINSTER, NJ, 07921",642394501,"L"
433330,"27 STANFORD AVENUE","PROVIDENCE","RI",2907,41.7801543370001,-71.4186208359999,330,"27 STANFORD AVENUE, PROVIDENCE, RI, 2907","Match","Non_Exact","27 STAMFORD AVE, PROVIDENCE, RI, 02907",47467203,"R"
433331,"27 STANFORD COURT","IRVINE","CA",92612,33.6552358540001,-117.839318201,331,"27 STANFORD COURT, IRVINE, CA, 92612","Match","Exact","27 STANFORD CT, IRVINE, CA, 92612",647328019,"L"
433332,"27 STEPHEN ST","LYNN","MA",1902,42.4671149010001,-70.931753723,332,"27 STEPHEN ST, LYNN, MA, 1902","Match","Exact","27 STEPHEN ST, LYNN, MA, 01902",86646694,"R"
433333,"27 STEVENS STREET","NEW HAVEN","CT",6519,41.3019599180001,-72.942874365,333,"27 STEVENS STREET, NEW HAVEN, CT, 6519","Match","Exact","27 STEVENS ST, NEW HAVEN, CT, 06519",3700455,"R"
433334,"27 STEVENS WAY","EUREKA","MT",59917,48.878645197,-115.048524877,334,"27 STEVENS WAY, EUREKA, MT, 59917","Match","Exact","27 STEVENS WAY, EUREKA, MT, 59917",169647394,"L"
433335,"27 STILL RIVER ROAD","BOLTON","MA",1740,NA,NA,335,"27 STILL RIVER ROAD, BOLTON, MA, 1740","No_Match",NA,NA,NA,NA
433336,"27 STILL ST","DANVILLE","VA",24541,36.562148458,-79.4383879599999,336,"27 STILL ST, DANVILLE, VA, 24541","Match","Exact","27 STILL ST, DANVILLE, VA, 24541",56588050,"L"
433337,"27 STIRLING ROAD","BERNARDSVILLE","NJ",7924,40.7057378390001,-74.575072115,337,"27 STIRLING ROAD, BERNARDSVILLE, NJ, 7924","Match","Exact","27 STIRLING RD, BERNARDSVILLE, NJ, 07924",624943750,"R"
433338,"27 STONE CHURCH ROAD","BERWICK","PA",18603,41.068402688,-76.1964695189999,338,"27 STONE CHURCH ROAD, BERWICK, PA, 18603","Match","Exact","27 STONE CHURCH RD, BERWICK, PA, 18603",635764547,"R"
433339,"27 STONEHILL RD         C","OSWEGO","IL",60543,41.6832327230001,-88.336855815,339,"27 STONEHILL RD         C, OSWEGO, IL, 60543","Match","Non_Exact","27 STONE HILL RD, OSWEGO, IL, 60543",611657115,"R"
433340,"27 STONEHURST LANE","DIX HILLS","NY",11746,40.8092124230001,-73.299986927,340,"27 STONEHURST LANE, DIX HILLS, NY, 11746","Match","Exact","27 STONEHURST LN, DIX HILLS, NY, 11746",113981677,"L"
433341,"27 STONEWOOD COURT","RACINE","WI",53402,42.7766338180001,-87.779631686,341,"27 STONEWOOD COURT, RACINE, WI, 53402","Match","Exact","27 STONEWOOD CT, RACINE, WI, 53402",77917279,"L"
433342,"27 STONEYCREST DR","MIDDLETOWN","CT",6457,41.569275202,-72.6703857919999,342,"27 STONEYCREST DR, MIDDLETOWN, CT, 6457","Match","Exact","27 STONEYCREST DR, MIDDLETOWN, CT, 06457",113888867,"R"
433343,"27 STOOTHOFF DR","NEW HYDE PARK","NY",11040,40.7504257470001,-73.658804457,343,"27 STOOTHOFF DR, NEW HYDE PARK, NY, 11040","Match","Exact","27 STOOTHOFF DR, NEW HYDE PARK, NY, 11040",147671446,"L"
433344,"27 STRAWBERRY CANYON PL","THE WOODLANDS","TX",77382,30.1902180650001,-95.5796615149999,344,"27 STRAWBERRY CANYON PL, THE WOODLANDS, TX, 77382","Match","Exact","27 STRAWBERRY CANYON PL, THE WOODLANDS, TX, 77382",79340562,"L"
433345,"27 STURBRIDGE DRIVE EAST","PISCATAWAY","NJ",8854,40.534945232,-74.4417933839999,345,"27 STURBRIDGE DRIVE EAST, PISCATAWAY, NJ, 8854","Match","Exact","27 STURBRIDGE DR E, PISCATAWAY, NJ, 08854",60265180,"R"
433346,"27 STURBRIDGE DRIVE","PISCATAWAY","NJ",8854,40.5355136640001,-74.445320673,346,"27 STURBRIDGE DRIVE, PISCATAWAY, NJ, 8854","Match","Exact","27 STURBRIDGE DR, PISCATAWAY, NJ, 08854",60265169,"R"
433347,"27 SUMMIT AVE","SHARON","MA",2067,42.1230935830001,-71.175802946,347,"27 SUMMIT AVE, SHARON, MA, 2067","Match","Exact","27 SUMMIT AVE, SHARON, MA, 02067",87262325,"R"
433348,"27 SUNBRIGHT DRIVE NORTH","MERIDEN","CT",6450,41.53647182,-72.7729867749999,348,"27 SUNBRIGHT DRIVE NORTH, MERIDEN, CT, 6450","Match","Exact","27 SUNBRIGHT DR N, MERIDEN, CT, 06450",3724569,"R"
433349,"27 SUNFLOWER LANE","YARDVILLE","NJ",8620,40.166659387,-74.6603563159999,349,"27 SUNFLOWER LANE, YARDVILLE, NJ, 8620","Match","Non_Exact","27 SUNFLOWER LN, TRENTON, NJ, 08620",60193641,"L"
433350,"27 SUNNY ROAD","SAINT JAMES","NY",11780,40.868703199,-73.153241556,350,"27 SUNNY ROAD, SAINT JAMES, NY, 11780","Match","Exact","27 SUNNY RD, SAINT JAMES, NY, 11780",113987635,"L"
433351,"27 SUNSET DRIVE","OSSINING","NY",10562,41.173639843,-73.838412019,351,"27 SUNSET DRIVE, OSSINING, NY, 10562","Match","Exact","27 SUNSET DR, OSSINING, NY, 10562",139839614,"L"
433352,"27 SUSIES HOLLOW","SEWELL","NJ",8080,39.7669152660001,-75.155812897,352,"27 SUSIES HOLLOW, SEWELL, NJ, 8080","Match","Exact","27 SUSIES HOLLOW, SEWELL, NJ, 08080",637379589,"L"
433353,"27 SWAN STREET","TRENTON","NJ",8611,40.211026942,-74.7494237349999,353,"27 SWAN STREET, TRENTON, NJ, 8611","Match","Exact","27 SWAN ST, TRENTON, NJ, 08611",60181598,"R"
433354,"27 SWEET BAY TRAIL","PETAL","MS",39465,31.343456954,-89.189023784,354,"27 SWEET BAY TRAIL, PETAL, MS, 39465","Match","Exact","27 SWEET BAY TRL, PETAL, MS, 39465",607638062,"R"
433355,"27 SWIFT","LAKE FOREST","CA",94568,33.672649348,-117.67727295,355,"27 SWIFT, LAKE FOREST, CA, 94568","Match","Non_Exact","27 SWIFT, LAKE FOREST, CA, 92630",646564203,"R"
433356,"27 SYLVIA ST","GLEN HEAD","NY",11545,40.830600744,-73.635548345,356,"27 SYLVIA ST, GLEN HEAD, NY, 11545","Match","Exact","27 SYLVIA ST, GLEN HEAD, NY, 11545",147662194,"L"
433357,"27 TAFT STREET","DANIELSON","CT",6239,41.773359618,-71.894305545,357,"27 TAFT STREET, DANIELSON, CT, 6239","Match","Exact","27 TAFT ST, DANIELSON, CT, 06239",56457937,"L"
433358,"27 TALL OAK","IRVINE","CA",92603,NA,NA,358,"27 TALL OAK, IRVINE, CA, 92603","No_Match",NA,NA,NA,NA
433359,"27 TALL TIMBERS DR","BERWICK","ME",3901,43.3092534690001,-70.8505345679999,359,"27 TALL TIMBERS DR, BERWICK, ME, 3901","Match","Exact","27 TALL TIMBERS DR, BERWICK, ME, 03901",92758839,"R"
433360,"27 TANGELO DR","HAINES CITY","FL",33844,28.0560562840001,-81.608721147,360,"27 TANGELO DR, HAINES CITY, FL, 33844","Match","Exact","27 TANGELO DR, HAINES CITY, FL, 33844",104830620,"L"
433361,"27 TAPPAN TERRACE","BRIARCLIFF MANOR","NY",10510,41.1641367980001,-73.8349218239999,361,"27 TAPPAN TERRACE, BRIARCLIFF MANOR, NY, 10510","Match","Exact","27 TAPPAN TER, BRIARCLIFF MANOR, NY, 10510",139727082,"L"
433362,"27 TAYLOR STREET","CHICOPEE","MA",1020,42.1615165220001,-72.579430894,362,"27 TAYLOR STREET, CHICOPEE, MA, 1020","Match","Exact","27 TAYLOR ST, CHICOPEE, MA, 01020",4022679,"L"
433363,"27 TAYLORS HILL WAY","FREDERICKSBURG","VA",22405,38.346979993,-77.473370211,363,"27 TAYLORS HILL WAY, FREDERICKSBURG, VA, 22405","Match","Exact","27 TAYLORS HILL WAY, FREDERICKSBURG, VA, 22405",637499243,"L"
433364,"27 TEAL CT","LA PLATA","MD",20646,38.5340905030001,-76.991252107,364,"27 TEAL CT, LA PLATA, MD, 20646","Match","Exact","27 TEAL CT, LA PLATA, MD, 20646",627038443,"R"
433365,"27 TEMONS COURT","WINDSOR MILL","MD",21244,39.310752312,-76.76902104,365,"27 TEMONS COURT, WINDSOR MILL, MD, 21244","Match","Exact","27 TEMONS CT, WINDSOR MILL, MD, 21244",191509639,"L"
433366,"27 TEMPLE HILL RD","HUGHESVILLE","PA",17737,41.2736178550001,-76.723917098,366,"27 TEMPLE HILL RD, HUGHESVILLE, PA, 17737","Match","Exact","27 TEMPLE HILL RD, HUGHESVILLE, PA, 17737",59458178,"L"
433367,"27 TERRENCE AVENUE","EAST FALMOUTH","MA",2536,41.5837896350001,-70.55776869,367,"27 TERRENCE AVENUE, EAST FALMOUTH, MA, 2536","Match","Exact","27 TERRENCE AVE, EAST FALMOUTH, MA, 02536",121572726,"R"
433368,"27 THORNTON AVENUE","AUBURN","NY",13021,42.9173666550001,-76.579405317,368,"27 THORNTON AVENUE, AUBURN, NY, 13021","Match","Exact","27 THORNTON AVE, AUBURN, NY, 13021",33497241,"L"
433369,"27 TIDAL WAY","SAN MATEO","CA",94401,NA,NA,369,"27 TIDAL WAY, SAN MATEO, CA, 94401","No_Match",NA,NA,NA,NA
433370,"27 TIDEWATER TERRACE","FALLING WATERS","WV",25419,39.578160428,-77.869445088,370,"27 TIDEWATER TERRACE, FALLING WATERS, WV, 25419","Match","Non_Exact","27 TIDE WATER TER, FALLING WATERS, WV, 25419",625193490,"L"
433371,"27 TIMBER MEADOW","NEW BRAUNFELS","TX",78132,29.7233238690001,-98.163198429,371,"27 TIMBER MEADOW, NEW BRAUNFELS, TX, 78132","Match","Exact","27 TIMBER MEADOW, NEW BRAUNFELS, TX, 78132",72257530,"L"
433372,"27 TOMBER COURT","GWYNN OAK","MD",21207,39.3262438090001,-76.740575228,372,"27 TOMBER COURT, GWYNN OAK, MD, 21207","Match","Exact","27 TOMBER CT, GWYNN OAK, MD, 21207",191555967,"R"
433373,"27 TOPLEDGE ROAD","REDDING","CT",6896,41.2959344770001,-73.448529344,373,"27 TOPLEDGE ROAD, REDDING, CT, 6896","Match","Exact","27 TOPLEDGE RD, REDDING, CT, 06896",3263752,"L"
433374,"27 TOWER LN","REEDS SPRING","MO",65737,36.7399411370001,-93.377476671,374,"27 TOWER LN, REEDS SPRING, MO, 65737","Match","Exact","27 TOWER LN, REEDS SPRING, MO, 65737",639692333,"L"
433375,"27 TOWNSEND AVE","STATEN ISLAND","NY",10304,40.6208190310001,-74.0725779909999,375,"27 TOWNSEND AVE, STATEN ISLAND, NY, 10304","Match","Exact","27 TOWNSEND AVE, STATEN ISLAND, NY, 10304",59869619,"R"
433376,"27 TOWNSEND ROAD","WANAQUE","NJ",7465,41.070092979,-74.309834039,376,"27 TOWNSEND ROAD, WANAQUE, NJ, 7465","Match","Exact","27 TOWNSEND RD, WANAQUE, NJ, 07465",65254721,"L"
433377,"27 TOWNSHIP RD 1098","DILLONVALE","OH",43917,NA,NA,377,"27 TOWNSHIP RD 1098, DILLONVALE, OH, 43917","No_Match",NA,NA,NA,NA
433378,"27 TREASURE COVE DRIVE","THE WOODLANDS","TX",77381,30.158903143,-95.48872612,378,"27 TREASURE COVE DRIVE, THE WOODLANDS, TX, 77381","Match","Exact","27 TREASURE COVE DR, THE WOODLANDS, TX, 77381",79305794,"L"
433379,"27 TREMONT ST","WILTON","NH",3086,42.8441677320001,-71.7340739639999,379,"27 TREMONT ST, WILTON, NH, 3086","Match","Exact","27 TREMONT ST, WILTON, NH, 03086",113541277,"R"
433380,"27 TREMONT STREET","MAYNARD","MA",1754,42.4404738490001,-71.451138207,380,"27 TREMONT STREET, MAYNARD, MA, 1754","Match","Exact","27 TREMONT ST, MAYNARD, MA, 01754",86843102,"L"
433381,"27 TRIPLE CROWN COURT APT 101","NEWPORT NEWS","VA",23666,37.08848419,-76.39553467,381,"27 TRIPLE CROWN COURT APT 101, NEWPORT NEWS, VA, 23666","Match","Non_Exact","27 TRIPLE CROWN CT, HAMPTON, VA, 23666",103800400,"L"
433382,"27 TROTTER RD","CODY","WY",82414,44.5892139220001,-108.977782525,382,"27 TROTTER RD, CODY, WY, 82414","Match","Exact","27 TROTTER RD, CODY, WY, 82414",612521918,"L"
433383,"27 TUNDRA RIDGE","CLANCY","MT",59634,NA,NA,383,"27 TUNDRA RIDGE, CLANCY, MT, 59634","No_Match",NA,NA,NA,NA
433384,"27 TWIN OAK TRAIL","BEACN FALLS","CT",6403,41.425411109,-73.0373251779999,384,"27 TWIN OAK TRAIL, BEACN FALLS, CT, 6403","Match","Non_Exact","27 TWIN OAK TRL, BEACON FALLS, CT, 06403",648784398,"R"
433385,"27 TWO TRAILS RD","SANTA FE","NM",87505,35.6027102730001,-105.904752886,385,"27 TWO TRAILS RD, SANTA FE, NM, 87505","Match","Exact","27 TWO TRAILS RD, SANTA FE, NM, 87505",169406403,"L"
433386,"27 UNDERWITTED ROAD","GRAY","ME",4039,43.8803126780001,-70.301144022,386,"27 UNDERWITTED ROAD, GRAY, ME, 4039","Match","Exact","27 UNDERWITTED RD, GRAY, ME, 04039",78062277,"L"
433387,"27 UNION PARK APT 2","BOSTON","MA",2118,42.3415529050001,-71.069930501,387,"27 UNION PARK APT 2, BOSTON, MA, 2118","Match","Non_Exact","27 UNION PARK ST, BOSTON, MA, 02118",85722671,"R"
433388,"27 UNION RD  APT 40G","SPRING VALLEY","NY",10977,41.119559958,-74.0476212689999,388,"27 UNION RD  APT 40G, SPRING VALLEY, NY, 10977","Match","Exact","27 UNION RD, SPRING VALLEY, NY, 10977",124607505,"L"
433389,"27 UNION STREET","BRIGHTON","MA",2135,42.345118933,-71.14845511,389,"27 UNION STREET, BRIGHTON, MA, 2135","Match","Exact","27 UNION ST, BRIGHTON, MA, 02135",85695173,"R"
433390,"27 UNION STREET","HALLOWELL","ME",4347,44.28583009,-69.793730102,390,"27 UNION STREET, HALLOWELL, ME, 4347","Match","Exact","27 UNION ST, HALLOWELL, ME, 04347",75456857,"R"
433391,"27 UNITY CT","WARWICK","RI",2889,41.7329599920001,-71.4142374209999,391,"27 UNITY CT, WARWICK, RI, 2889","Match","Exact","27 UNITY CT, WARWICK, RI, 02889",159148406,"R"
433392,"27 UPLAND RD","ATLLEBORO","MA",2703,41.953860488,-71.2876669079999,392,"27 UPLAND RD, ATLLEBORO, MA, 2703","Match","Non_Exact","27 UPLAND RD, ATTLEBORO, MA, 02703",46747623,"R"
433393,"27 UPLAND RD","ATTLEBORO","MA",2703,41.953860488,-71.2876669079999,393,"27 UPLAND RD, ATTLEBORO, MA, 2703","Match","Exact","27 UPLAND RD, ATTLEBORO, MA, 02703",46747623,"R"
433394,"27 UTE AVE","LAKE HIAWATHA","NJ",7034,40.871886606,-74.368077747,394,"27 UTE AVE, LAKE HIAWATHA, NJ, 7034","Match","Exact","27 UTE AVE, LAKE HIAWATHA, NJ, 07034",60446369,"L"
433395,"27 UTOPIAN PLACE","AIRMONT","NY",10901,41.098790224,-74.11318418,395,"27 UTOPIAN PLACE, AIRMONT, NY, 10901","Match","Exact","27 UTOPIAN PL, AIRMONT, NY, 10901",124592320,"L"
433396,"27 VALLEY VIEW CIRCLE","BARRE","VT",5641,44.213765256,-72.487519054,396,"27 VALLEY VIEW CIRCLE, BARRE, VT, 5641","Match","Exact","27 VALLEY VIEW CIR, BARRE, VT, 05641",136687494,"R"
433397,"27 VANCOUVER AVENUE","PITTSBURGH","PA",15205,40.4446559520001,-80.06684589,397,"27 VANCOUVER AVENUE, PITTSBURGH, PA, 15205","Match","Exact","27 VANCOUVER AVE, PITTSBURGH, PA, 15205",51681628,"L"
433398,"27 VASSAR LAKE DRIVE","POUGHKEEPSIE","NY",12603,41.6846228520001,-73.898472452,398,"27 VASSAR LAKE DRIVE, POUGHKEEPSIE, NY, 12603","Match","Exact","27 VASSAR LAKE DR, POUGHKEEPSIE, NY, 12603",4204083,"L"
433399,"27 VEHORN RD","FAIRVIEW","NC",28730,35.5355838130001,-82.381706719,399,"27 VEHORN RD, FAIRVIEW, NC, 28730","Match","Exact","27 VEHORN RD, FAIRVIEW, NC, 28730",636804539,"R"
433400,"27 VELMA DR","NEWNAN","GA",30263,33.387832798,-84.804181179,400,"27 VELMA DR, NEWNAN, GA, 30263","Match","Exact","27 VELMA DR, NEWNAN, GA, 30263",9319198,"L"
433401,"27 VERANO LOOP","SANTA FE","NM",87508,35.5490064480001,-105.914389873,401,"27 VERANO LOOP, SANTA FE, NM, 87508","Match","Exact","27 VERANO LOOP, SANTA FE, NM, 87508",169374216,"L"
433402,"27 VERDOSA DR","PUEBLO","CO",81005,38.2215120430001,-104.67741427,402,"27 VERDOSA DR, PUEBLO, CO, 81005","Match","Exact","27 VERDOSA DR, PUEBLO, CO, 81005",105022533,"R"
433403,"27 VERDUN DRIVE","READING","PA",19605,40.42882043,-75.932090546,403,"27 VERDUN DRIVE, READING, PA, 19605","Match","Exact","27 VERDUN DR, READING, PA, 19605",648163835,"R"
433404,"27 VERMONT ST","METHUEN","MA",1844,42.72354998,-71.1535620559999,404,"27 VERMONT ST, METHUEN, MA, 1844","Match","Exact","27 VERMONT ST, METHUEN, MA, 01844",86627527,"R"
433405,"27 VIALE BELLEZZA","FAIRHOPE","AL",36532,30.5582422860001,-87.894874868,405,"27 VIALE BELLEZZA, FAIRHOPE, AL, 36532","Match","Exact","27 VIALE BELLEZZA, FAIRHOPE, AL, 36532",131717814,"L"
433406,"27 VICKSBURG STREET","SAN FRANCISCO","CA",94114,37.7543481340001,-122.428791823,406,"27 VICKSBURG STREET, SAN FRANCISCO, CA, 94114","Match","Exact","27 VICKSBURG ST, SAN FRANCISCO, CA, 94114",640405598,"L"
433407,"27 VICTORIA LANE","WILBRAHAM","MA",1095,42.124273396,-72.462291819,407,"27 VICTORIA LANE, WILBRAHAM, MA, 1095","Match","Exact","27 VICTORIA LN, WILBRAHAM, MA, 01095",4050159,"R"
433408,"27 VICTORIAN LANE","BROOKVILLE","NY",11545,40.815714402,-73.549047082,408,"27 VICTORIAN LANE, BROOKVILLE, NY, 11545","Match","Non_Exact","27 VICTORIAN LN, GLEN HEAD, NY, 11545",147830397,"R"
433409,"27 VILLAGE GREEN","SOUTHERN PINES","NC",28387,35.1841073140001,-79.389506768,409,"27 VILLAGE GREEN, SOUTHERN PINES, NC, 28387","Match","Non_Exact","27 VILLAGE GREEN CIR, SOUTHERN PINES, NC, 28387",20345349,"L"
433410,"27 VINEYARD WAY","WHITE","GA",30184,34.274401089,-84.741994685,410,"27 VINEYARD WAY, WHITE, GA, 30184","Match","Exact","27 VINEYARD WAY, WHITE, GA, 30184",30460811,"L"
433411,"27 VINSON STREET","BOSTON","MA",2124,42.298347893,-71.0646851939999,411,"27 VINSON STREET, BOSTON, MA, 2124","Match","Exact","27 VINSON ST, BOSTON, MA, 02124",85713382,"R"
433412,"27 VIRGINIA RAIL DRIVE","BETHANY","CT",6524,41.4213737520001,-73.017217874,412,"27 VIRGINIA RAIL DRIVE, BETHANY, CT, 6524","Match","Exact","27 VIRGINIA RAIL DR, BETHANY, CT, 06524",618697253,"L"
433413,"27 VIVIAN ST","NEWINGTON","CT",6111,41.6803930240001,-72.740576499,413,"27 VIVIAN ST, NEWINGTON, CT, 6111","Match","Exact","27 VIVIAN ST, NEWINGTON, CT, 06111",3514645,"R"
433414,"27 VOSE HILL ROAD","WESTFORD","MA",1886,42.540210319,-71.3874069629999,414,"27 VOSE HILL ROAD, WESTFORD, MA, 1886","Match","Exact","27 VOSE HILL RD, WESTFORD, MA, 01886",86917547,"L"
433415,"27 W 101 SYCAMORE LANE","WINFIELD","IL",60190,NA,NA,415,"27 W 101 SYCAMORE LANE, WINFIELD, IL, 60190","Tie",NA,NA,NA,NA
433416,"27 W 27TH ST APT 2B","NEW YORK","NY",10001,40.7446518180001,-73.989132373,416,"27 W 27TH ST APT 2B, NEW YORK, NY, 10001","Match","Non_Exact","27 W 27TH ST, NEW YORK, NY, 10001",59653417,"R"
433417,"27 W 541 PURNELL","WEST CHICAGO","IL",60185,NA,NA,417,"27 W 541 PURNELL, WEST CHICAGO, IL, 60185","No_Match",NA,NA,NA,NA
433418,"27 W 650 BROOKSIDE DRIVE","WINFIELD","IL",60190,NA,NA,418,"27 W 650 BROOKSIDE DRIVE, WINFIELD, IL, 60190","Tie",NA,NA,NA,NA
433419,"27 W 67TH ST 5S","NEW YORK","NY",10023,40.773406236,-73.979146869,419,"27 W 67TH ST 5S, NEW YORK, NY, 10023","Match","Non_Exact","27 W 67TH ST, NEW YORK, NY, 10023",59657046,"R"
433420,"27 W 8TH ST","MEDIA","PA",19063,39.9255956330001,-75.387688125,420,"27 W 8TH ST, MEDIA, PA, 19063","Match","Exact","27 W 8TH ST, MEDIA, PA, 19063",134870415,"R"
433421,"27 W ANAPAMU ST SUITE 205","SANTA BARBARA","CA",93101,NA,NA,421,"27 W ANAPAMU ST SUITE 205, SANTA BARBARA, CA, 93101","Tie",NA,NA,NA,NA
433422,"27 W ANAPAMU ST UNIT 135","SANTA BARBARA","CA",93101,NA,NA,422,"27 W ANAPAMU ST UNIT 135, SANTA BARBARA, CA, 93101","Tie",NA,NA,NA,NA
433423,"27 W ANAPAMU ST UNIT 466","SANTA BARBARA","CA",93101,NA,NA,423,"27 W ANAPAMU ST UNIT 466, SANTA BARBARA, CA, 93101","Tie",NA,NA,NA,NA
433424,"27 W ANAPAMU STREET NO 336","SANTA BARBARA","CA",93101,NA,NA,424,"27 W ANAPAMU STREET NO 336, SANTA BARBARA, CA, 93101","No_Match",NA,NA,NA,NA
433425,"27 W BANK STREET  APT  A","PETERSBURG","VA",23803,37.231883429,-77.4041703939999,425,"27 W BANK STREET  APT  A, PETERSBURG, VA, 23803","Match","Non_Exact","27 E BANK ST, PETERSBURG, VA, 23803",647713139,"L"
433426,"27 W BROAD STREET APT 1C","RICHMOND","VA",23220,NA,NA,426,"27 W BROAD STREET APT 1C, RICHMOND, VA, 23220","No_Match",NA,NA,NA,NA
433427,"27 W CANYON WREN CIR","SPRING","TX",77389,30.145606942,-95.531596544,427,"27 W CANYON WREN CIR, SPRING, TX, 77389","Match","Exact","27 W CANYON WREN CIR, SPRING, TX, 77389",630274842,"R"
433428,"27 W CHURCH STREET","BLACKWOOD","NJ",8012,39.8018807020001,-75.0680904399999,428,"27 W CHURCH STREET, BLACKWOOD, NJ, 8012","Match","Exact","27 W CHURCH ST, BLACKWOOD, NJ, 08012",134353098,"R"
433429,"27 W LEMON ST","LANCASTER","PA",17603,40.0441683350001,-76.308201093,429,"27 W LEMON ST, LANCASTER, PA, 17603","Match","Exact","27 W LEMON ST, LANCASTER, PA, 17603",179662647,"R"
433430,"27 W MAIN ST","PLATTEVILLE","WI",53818,42.7341417760001,-90.478526243,430,"27 W MAIN ST, PLATTEVILLE, WI, 53818","Match","Exact","27 W MAIN ST, PLATTEVILLE, WI, 53818",32755286,"L"
433431,"27 W MAPLE AVE","MONSEY","NY",10952,41.1154647700001,-74.072834762,431,"27 W MAPLE AVE, MONSEY, NY, 10952","Match","Exact","27 W MAPLE AVE, MONSEY, NY, 10952",124592934,"L"
433432,"27 W MAPLE AVE","MOORESTOWN","NJ",8057,39.970390579,-74.951934647,432,"27 W MAPLE AVE, MOORESTOWN, NJ, 8057","Match","Exact","27 W MAPLE AVE, MOORESTOWN, NJ, 08057",134030645,"R"
433433,"27 W MCPHERSON STREET","DAYTON","OH",45405,39.767307798,-84.195130109,433,"27 W MCPHERSON STREET, DAYTON, OH, 45405","Match","Exact","27 W MCPHERSON ST, DAYTON, OH, 45405",143571295,"R"
433434,"27 W MINGLEWOOD DR","MIDDLETOWN","DE",19709,39.431433541,-75.715412025,434,"27 W MINGLEWOOD DR, MIDDLETOWN, DE, 19709","Match","Exact","27 W MINGLEWOOD DR, MIDDLETOWN, DE, 19709",187293567,"R"
433435,"27 WAKEFIELD AVE","CORAM","NY",11727,40.907236955,-72.9933168969999,435,"27 WAKEFIELD AVE, CORAM, NY, 11727","Match","Exact","27 WAKEFIELD AVE, CORAM, NY, 11727",114010723,"R"
433436,"27 WALCOTT DRIVE","BOYNTON BEACH","FL",33426,26.562790292,-80.0864672179999,436,"27 WALCOTT DRIVE, BOYNTON BEACH, FL, 33426","Match","Exact","27 WALCOTT DR, BOYNTON BEACH, FL, 33426",115547380,"R"
433437,"27 WALNUT AVENUE","HAMPTON","NH",3842,42.930518739,-70.8043119609999,437,"27 WALNUT AVENUE, HAMPTON, NH, 3842","Match","Exact","27 WALNUT AVE, HAMPTON, NH, 03842",113677209,"L"
433438,"27 WALNUT BLVD","PETERSBURG","VA",23805,37.2017380840001,-77.381669916,438,"27 WALNUT BLVD, PETERSBURG, VA, 23805","Match","Exact","27 WALNUT BLVD, PETERSBURG, VA, 23805",54214397,"R"
433439,"27 WALNUT BOULEVARD","PETERSBURG","VA",23805,37.2017380840001,-77.381669916,439,"27 WALNUT BOULEVARD, PETERSBURG, VA, 23805","Match","Exact","27 WALNUT BLVD, PETERSBURG, VA, 23805",54214397,"R"
433440,"27 WARD ROAD NO 6","BAYTOWN","TX",77520,NA,NA,440,"27 WARD ROAD NO 6, BAYTOWN, TX, 77520","No_Match",NA,NA,NA,NA
433441,"27 WARE DR","BALDWINVILLE","MA",1436,42.5962699790001,-72.078653613,441,"27 WARE DR, BALDWINVILLE, MA, 1436","Match","Exact","27 WARE DR, BALDWINVILLE, MA, 01436",625315016,"L"
433442,"27 WARREN AVENUE APT 2","BOSTON","MA",2116,42.3452086630001,-71.071131307,442,"27 WARREN AVENUE APT 2, BOSTON, MA, 2116","Match","Exact","27 WARREN AVE, BOSTON, MA, 02116",85698269,"R"
433443,"27 WARREN ST 8A","STATEN ISLAND","NY",10304,40.6218349960001,-74.0824395229999,443,"27 WARREN ST 8A, STATEN ISLAND, NY, 10304","Match","Exact","27 WARREN ST, STATEN ISLAND, NY, 10304",611911450,"L"
433444,"27 WARREN ST APT5B","STATEN ISLAND","NY",10304,40.6218349960001,-74.0824395229999,444,"27 WARREN ST APT5B, STATEN ISLAND, NY, 10304","Match","Exact","27 WARREN ST, STATEN ISLAND, NY, 10304",611911450,"L"
433445,"27 WARREN ST","REVERE","MA",2151,42.410383154,-71.016588747,445,"27 WARREN ST, REVERE, MA, 2151","Match","Exact","27 WARREN ST, REVERE, MA, 02151",85707409,"R"
433446,"27 WARREN STREET","NEEDHAM","MA",2492,42.2836791780001,-71.232864073,446,"27 WARREN STREET, NEEDHAM, MA, 2492","Match","Exact","27 WARREN ST, NEEDHAM, MA, 02492",87241407,"R"
433447,"27 WASHINGTON AVE","PATERSON","NJ",7503,40.9059541600001,-74.168297331,447,"27 WASHINGTON AVE, PATERSON, NJ, 7503","Match","Exact","27 WASHINGTON AVE, PATERSON, NJ, 07503",65265167,"L"
433448,"27 WASHINGTON ST","PATERSON","NJ",7503,40.9059541600001,-74.168297331,448,"27 WASHINGTON ST, PATERSON, NJ, 7503","Match","Non_Exact","27 WASHINGTON AVE, PATERSON, NJ, 07503",65265167,"L"
433449,"27 WATERWAY","IRVINE","CA",92614,33.6699652300001,-117.80661175,449,"27 WATERWAY, IRVINE, CA, 92614","Match","Exact","27 WATERWAY, IRVINE, CA, 92614",616893624,"L"
433450,"27 WATROO PT","DANIEL ISLAND","SC",29492,32.879737574,-79.9110775569999,450,"27 WATROO PT, DANIEL ISLAND, SC, 29492","Match","Exact","27 WATROO PT, DANIEL ISLAND, SC, 29492",615961548,"L"
433451,"27 WATSON DRIVE","SEWICKLEY","PA",15143,40.578162966,-80.205769338,451,"27 WATSON DRIVE, SEWICKLEY, PA, 15143","Match","Non_Exact","27 WATSON RD, SEWICKLEY, PA, 15143",51603890,"L"
433452,"27 WAYNE AVE APT 2","EAST ORANGE","NJ",7018,40.7570823720001,-74.228329775,452,"27 WAYNE AVE APT 2, EAST ORANGE, NJ, 7018","Match","Exact","27 WAYNE AVE, EAST ORANGE, NJ, 07018",63450263,"L"
433453,"27 WEEKS DR","ORFORD","NH",3777,43.8852858400001,-72.0860425819999,453,"27 WEEKS DR, ORFORD, NH, 3777","Match","Exact","27 WEEKS DR, ORFORD, NH, 03777",145692797,"R"
433454,"27 WEISS AVENUE","FLOURTOWN","PA",19031,40.1059859200001,-75.215627809,454,"27 WEISS AVENUE, FLOURTOWN, PA, 19031","Match","Exact","27 WEISS AVE, FLOURTOWN, PA, 19031",135118213,"R"
433455,"27 WELLINGTON OAKS CIRCLE","DENTON","TX",76210,33.164293635,-97.131457771,455,"27 WELLINGTON OAKS CIRCLE, DENTON, TX, 76210","Match","Exact","27 WELLINGTON OAKS CIR, DENTON, TX, 76210",103415012,"R"
433456,"27 WEST 55TH STREET","NEW YORK","NY",10019,40.7620851730001,-73.9758871659999,456,"27 WEST 55TH STREET, NEW YORK, NY, 10019","Match","Exact","27 W 55TH ST, NEW YORK, NY, 10019",59657128,"R"
433457,"27 WEST 60TH STREET STE 20444","NEW YORK","NY",10023,40.7694263340001,-73.983310666,457,"27 WEST 60TH STREET STE 20444, NEW YORK, NY, 10023","Match","Exact","27 W 60TH ST, NEW YORK, NY, 10023",650153592,"R"
433458,"27 WEST 67TH STREET","NEW YORK","NY",10023,40.773400693,-73.979133711,458,"27 WEST 67TH STREET, NEW YORK, NY, 10023","Match","Exact","27 W 67TH ST, NEW YORK, NY, 10023",59657046,"R"
433459,"27 WEST 75TH STREET APARTMENT B","NEW YORK","NY",10023,40.778667909,-73.975696993,459,"27 WEST 75TH STREET APARTMENT B, NEW YORK, NY, 10023","Match","Exact","27 W 75TH ST, NEW YORK, NY, 10023",611185619,"R"
433460,"27 WEST 96TH STREET","NEW YORK","NY",10025,40.792191745,-73.9659189229999,460,"27 WEST 96TH STREET, NEW YORK, NY, 10025","Match","Exact","27 W 96TH ST, NEW YORK, NY, 10025",611176052,"R"
433461,"27 WEST AVE","ALBION","NY",14411,43.240987854,-78.194741909,461,"27 WEST AVE, ALBION, NY, 14411","Match","Exact","27 WEST AVE, ALBION, NY, 14411",48805073,"L"
433462,"27 WEST HICKMAN STREET","WINCHESTER","KY",40391,37.990936822,-84.179521844,462,"27 WEST HICKMAN STREET, WINCHESTER, KY, 40391","Match","Exact","27 W HICKMAN ST, WINCHESTER, KY, 40391",31787088,"R"
433463,"27 WEST KANAWHA AVENUE","COLUMBUS","OH",43214,40.071192931,-83.019928925,463,"27 WEST KANAWHA AVENUE, COLUMBUS, OH, 43214","Match","Exact","27 W KANAWHA AVE, COLUMBUS, OH, 43214",135569181,"L"
433464,"27 WEST LAKE STREET","MADISONVILLE","KY",42431,37.3226490320001,-87.500289599,464,"27 WEST LAKE STREET, MADISONVILLE, KY, 42431","Match","Exact","27 W LAKE ST, MADISONVILLE, KY, 42431",11504729,"R"
433465,"27 WEST MAIN STREET","NEW BRITAIN","CT",6051,41.667649442,-72.782968791,465,"27 WEST MAIN STREET, NEW BRITAIN, CT, 6051","Match","Exact","27 W MAIN ST, NEW BRITAIN, CT, 06051",3510760,"L"
433466,"27 WEST MAIN STREET","NEWTON","NH",3858,42.866463718,-71.064957068,466,"27 WEST MAIN STREET, NEWTON, NH, 3858","Match","Exact","27 W MAIN ST, NEWTON, NH, 03858",113671551,"R"
433467,"27 WEST MCPHERSON STREET","DAYTON","OH",45405,39.76730847,-84.195126096,467,"27 WEST MCPHERSON STREET, DAYTON, OH, 45405","Match","Exact","27 W MCPHERSON ST, DAYTON, OH, 45405",143571295,"R"
433468,"27 WEST MORTEN AVENUE","PHOENIX","AZ",85021,33.5482444030001,-112.075533634,468,"27 WEST MORTEN AVENUE, PHOENIX, AZ, 85021","Match","Exact","27 W MORTEN AVE, PHOENIX, AZ, 85021",128207069,"L"
433469,"27 WEST ROAD","TROY","NY",12180,42.7320055330001,-73.646670749,469,"27 WEST ROAD, TROY, NY, 12180","Match","Exact","27 WEST RD, TROY, NY, 12180",35731028,"L"
433470,"27 WEST STRAND RD","NEW HARBOR","ME",4554,NA,NA,470,"27 WEST STRAND RD, NEW HARBOR, ME, 4554","Tie",NA,NA,NA,NA
433471,"27 WEST STREET","OLD BRIDGE","NJ",8857,40.395076863,-74.371357025,471,"27 WEST STREET, OLD BRIDGE, NJ, 8857","Match","Non_Exact","27 WEST AVE, OLD BRIDGE, NJ, 08857",60282791,"L"
433472,"27 WEST ZOLLER ROAD","EAST BRUNSWICK","NJ",8816,40.4415006670001,-74.417969537,472,"27 WEST ZOLLER ROAD, EAST BRUNSWICK, NJ, 8816","Match","Exact","27 W ZOLLER RD, E BRUNSWICK, NJ, 08816",60269254,"L"
433473,"27 WESTBRIDGE DRIVE","HOLBROOK","NY",11741,40.7795487060001,-73.068918248,473,"27 WESTBRIDGE DRIVE, HOLBROOK, NY, 11741","Match","Exact","27 WESTBRIDGE DR, HOLBROOK, NY, 11741",114006962,"L"
433474,"27 WESTBROOKS AVE","NEWARK","NJ",7103,NA,NA,474,"27 WESTBROOKS AVE, NEWARK, NJ, 7103","No_Match",NA,NA,NA,NA
433475,"27 WESTVIEW DRIVE","DANBURY","CT",6810,41.395661809,-73.4236317749999,475,"27 WESTVIEW DRIVE, DANBURY, CT, 6810","Match","Exact","27 WESTVIEW DR, DANBURY, CT, 06810",3232376,"R"
433476,"27 WESTVIEW ROAD","SPRING VALLEY","NY",10977,41.1487069830001,-74.042130394,476,"27 WESTVIEW ROAD, SPRING VALLEY, NY, 10977","Match","Exact","27 WESTVIEW RD, SPRING VALLEY, NY, 10977",124606332,"R"
433477,"27 WHEELER PARK","BRUNSWICK","ME",4011,43.914107374,-69.9508310379999,477,"27 WHEELER PARK, BRUNSWICK, ME, 4011","Match","Exact","27 WHEELER PARK, BRUNSWICK, ME, 04011",78007968,"L"
433478,"27 WHITE OAK DR","PLYMOUTH","MA",2360,41.8974605940001,-70.638588262,478,"27 WHITE OAK DR, PLYMOUTH, MA, 2360","Match","Exact","27 WHITE OAK DR, PLYMOUTH, MA, 02360",87439827,"R"
433479,"27 WHITNEY STREET","SAUGUS","MA",1906,42.4475940030001,-71.01398782,479,"27 WHITNEY STREET, SAUGUS, MA, 1906","Match","Exact","27 WHITNEY ST, SAUGUS, MA, 01906",86636320,"R"
433480,"27 WHITTEN ST","DORCHESTER","MA",2122,42.2930889960001,-71.060534729,480,"27 WHITTEN ST, DORCHESTER, MA, 2122","Match","Exact","27 WHITTEN ST, DORCHESTER, MA, 02122",85713489,"R"
433481,"27 WILBERT STREET","HAMDEN","NY",6514,NA,NA,481,"27 WILBERT STREET, HAMDEN, NY, 6514","No_Match",NA,NA,NA,NA
433482,"27 WILDRIDGE ROAD","STANDISH","ME",4084,43.747843566,-70.531186582,482,"27 WILDRIDGE ROAD, STANDISH, ME, 4084","Match","Exact","27 WILDRIDGE RD, STANDISH, ME, 04084",78015490,"R"
433483,"27 WILL ROGERS LANE","NANUET","NY",10954,41.0933476550001,-74.0304320929999,483,"27 WILL ROGERS LANE, NANUET, NY, 10954","Match","Exact","27 WILL ROGERS LN, NANUET, NY, 10954",124596188,"R"
433484,"27 WILLIAM MANOR DRIVE","WADDINGTON","NY",13694,44.85338424,-75.1906144279999,484,"27 WILLIAM MANOR DRIVE, WADDINGTON, NY, 13694","Match","Exact","27 WILLIAM MANOR DR, WADDINGTON, NY, 13694",155222478,"R"
433485,"27 WILLINK AVE","BUFFALO","NY",14210,42.8460968210001,-78.8004444859999,485,"27 WILLINK AVE, BUFFALO, NY, 14210","Match","Exact","27 WILLINK AVE, BUFFALO, NY, 14210",48323268,"R"
433486,"27 WILLIS ST APT 14","FRAMINGHAM","MA",1702,42.281189086,-71.4018529849999,486,"27 WILLIS ST APT 14, FRAMINGHAM, MA, 1702","Match","Exact","27 WILLIS ST, FRAMINGHAM, MA, 01702",87173043,"R"
433487,"27 WILLOW CRESCENT","BROOKLINE","MA",2445,42.33273625,-71.1507237929999,487,"27 WILLOW CRESCENT, BROOKLINE, MA, 2445","Match","Exact","27 WILLOW CRES, BROOKLINE, MA, 02445",87244576,"R"
433488,"27 WILLOW LANE","MONTAUK","NY",11954,41.0201517880001,-71.984752993,488,"27 WILLOW LANE, MONTAUK, NY, 11954","Match","Exact","27 WILLOW LN, MONTAUK, NY, 11954",114032068,"L"
433489,"27 WILLOWBROOK","IRVINE","CA",92604,33.6862721590001,-117.799518681,489,"27 WILLOWBROOK, IRVINE, CA, 92604","Match","Exact","27 WILLOWBROOK, IRVINE, CA, 92604",649564579,"L"
433490,"27 WILLS WAY","HAMPTON","VA",23666,37.0616078690001,-76.443291964,490,"27 WILLS WAY, HAMPTON, VA, 23666","Match","Exact","27 WILLS WAY, HAMPTON, VA, 23666",103800457,"R"
433491,"27 WILSHIRE WOOD DRIVE","MACKINAW","IL",61755,40.539621944,-89.324421343,491,"27 WILSHIRE WOOD DRIVE, MACKINAW, IL, 61755","Match","Exact","27 WILSHIRE WOOD DR, MACKINAW, IL, 61755",22496283,"L"
433492,"27 WINDMILL HILL LANE","CASTINE","ME",4421,44.3955392390001,-68.797261275,492,"27 WINDMILL HILL LANE, CASTINE, ME, 4421","Match","Exact","27 WINDMILL HILL LN, CASTINE, ME, 04421",110292350,"R"
433493,"27 WINDMILL HILL RD","GROTON","MA",1450,42.6094370340001,-71.6287411879999,493,"27 WINDMILL HILL RD, GROTON, MA, 1450","Match","Exact","27 WINDMILL HILL RD, GROTON, MA, 01450",86839533,"L"
433494,"27 WINDSOR CIRCLE","MINERAL WELLS","WV",26181,39.1800694950001,-81.511810596,494,"27 WINDSOR CIRCLE, MINERAL WELLS, WV, 26181","Match","Non_Exact","27 WINDSOR CIR, MINERAL WELLS, WV, 26150",90881670,"L"
433495,"27 WINGATE CT","MANDEVILLE","LA",70448,30.385010208,-90.064218269,495,"27 WINGATE CT, MANDEVILLE, LA, 70448","Match","Exact","27 WINGATE CT, MANDEVILLE, LA, 70448",111256843,"L"
433496,"27 WINSOME ROAD","S YARMOUTH","MA",2664,41.692450127,-70.187326974,496,"27 WINSOME ROAD, S YARMOUTH, MA, 2664","Match","Exact","27 WINSOME RD, SOUTH YARMOUTH, MA, 02664",121561286,"L"
433497,"27 WINTER ST","BARRE","MA",1005,42.424617508,-72.104622902,497,"27 WINTER ST, BARRE, MA, 1005","Match","Exact","27 WINTER ST, BARRE, MA, 01005",39993637,"L"
433498,"27 WINTER STREET","WAYLAND","MA",1778,42.3199816440001,-71.363039262,498,"27 WINTER STREET, WAYLAND, MA, 1778","Match","Exact","27 WINTER ST, WAYLAND, MA, 01778",86851810,"R"
433499,"27 WINTERGREEN DR","MELVILLE","NY",11747,40.8062713090001,-73.3869824339999,499,"27 WINTERGREEN DR, MELVILLE, NY, 11747","Match","Exact","27 WINTERGREEN DR, MELVILLE, NY, 11747",114271493,"L"
433500,"27 WINTHROP DR","MANALAPAN","TX",7726,NA,NA,500,"27 WINTHROP DR, MANALAPAN, TX, 7726","No_Match",NA,NA,NA,NA
