"ID","Address","City","State","Zip","lat","long","id","input_address","match_indicator","match_type","matched_address","tiger_line_id","tiger_side"
996001,"PO BOX 765","BOARDMAN","OR",97818,NA,NA,1,"PO BOX 765, BOARDMAN, OR, 97818","No_Match",NA,NA,NA,NA
996002,"PO BOX 765","CHAPMANVILLE","WV",25508,NA,NA,2,"PO BOX 765, CHAPMANVILLE, WV, 25508","No_Match",NA,NA,NA,NA
996003,"PO BOX 765","DARBY","MT",59829,NA,NA,3,"PO BOX 765, DARBY, MT, 59829","No_Match",NA,NA,NA,NA
996004,"PO BOX 765","INDIAN HILLS","CO",80454,NA,NA,4,"PO BOX 765, INDIAN HILLS, CO, 80454","No_Match",NA,NA,NA,NA
996005,"PO BOX 765","JEFFERSON","NC",28640,NA,NA,5,"PO BOX 765, JEFFERSON, NC, 28640","No_Match",NA,NA,NA,NA
996006,"PO BOX 765","LANSING","IL",60438,NA,NA,6,"PO BOX 765, LANSING, IL, 60438","No_Match",NA,NA,NA,NA
996007,"PO BOX 765","TALKEETNA","AK",99676,NA,NA,7,"PO BOX 765, TALKEETNA, AK, 99676","No_Match",NA,NA,NA,NA
996008,"PO BOX 7650","TAHOE CITY","CA",96145,NA,NA,8,"PO BOX 7650, TAHOE CITY, CA, 96145","No_Match",NA,NA,NA,NA
996009,"PO BOX 7650","TIFTON","GA",31793,NA,NA,9,"PO BOX 7650, TIFTON, GA, 31793","No_Match",NA,NA,NA,NA
996010,"PO BOX 76506","ST PETERSBURG","FL",33734,NA,NA,10,"PO BOX 76506, ST PETERSBURG, FL, 33734","No_Match",NA,NA,NA,NA
996011,"PO BOX 7653","ARLINGTON","VA",22207,NA,NA,11,"PO BOX 7653, ARLINGTON, VA, 22207","No_Match",NA,NA,NA,NA
996012,"PO BOX 7659","WILMINGTON","NC",27109,NA,NA,12,"PO BOX 7659, WILMINGTON, NC, 27109","No_Match",NA,NA,NA,NA
996013,"PO BOX 766","CRYSTAL BAY","NV",89402,NA,NA,13,"PO BOX 766, CRYSTAL BAY, NV, 89402","No_Match",NA,NA,NA,NA
996014,"PO BOX 766","DRYDEN","VA",24243,NA,NA,14,"PO BOX 766, DRYDEN, VA, 24243","No_Match",NA,NA,NA,NA
996015,"PO BOX 766","FORKS","WA",98331,NA,NA,15,"PO BOX 766, FORKS, WA, 98331","No_Match",NA,NA,NA,NA
996016,"PO BOX 766","GEYSERVILLE","CA",95441,NA,NA,16,"PO BOX 766, GEYSERVILLE, CA, 95441","No_Match",NA,NA,NA,NA
996017,"PO BOX 766","GEYSERVILLE","CA",96441,NA,NA,17,"PO BOX 766, GEYSERVILLE, CA, 96441","No_Match",NA,NA,NA,NA
996018,"PO BOX 766","MARBLE FALLS","TX",78654,NA,NA,18,"PO BOX 766, MARBLE FALLS, TX, 78654","No_Match",NA,NA,NA,NA
996019,"PO BOX 766","OJAI","CA",93024,NA,NA,19,"PO BOX 766, OJAI, CA, 93024","No_Match",NA,NA,NA,NA
996020,"PO BOX 766","PENDLETON","SC",29670,NA,NA,20,"PO BOX 766, PENDLETON, SC, 29670","No_Match",NA,NA,NA,NA
996021,"PO BOX 766","PLAINFIELD","IL",60544,NA,NA,21,"PO BOX 766, PLAINFIELD, IL, 60544","No_Match",NA,NA,NA,NA
996022,"PO BOX 766","SAN CARLOS","AZ",85550,NA,NA,22,"PO BOX 766, SAN CARLOS, AZ, 85550","No_Match",NA,NA,NA,NA
996023,"PO BOX 766","TALKEETNA","AK",99676,NA,NA,23,"PO BOX 766, TALKEETNA, AK, 99676","No_Match",NA,NA,NA,NA
996024,"PO BOX 766","WILTON","NH",3086,NA,NA,24,"PO BOX 766, WILTON, NH, 3086","No_Match",NA,NA,NA,NA
996025,"PO BOX 7665","URBANDALE","IA",50323,NA,NA,25,"PO BOX 7665, URBANDALE, IA, 50323","No_Match",NA,NA,NA,NA
996026,"PO BOX 767","BIGGS","CA",95917,NA,NA,26,"PO BOX 767, BIGGS, CA, 95917","No_Match",NA,NA,NA,NA
996027,"PO BOX 767","DOVE CREEK","CO",81324,NA,NA,27,"PO BOX 767, DOVE CREEK, CO, 81324","No_Match",NA,NA,NA,NA
996028,"PO BOX 767","MATTITUCK","NY",11952,NA,NA,28,"PO BOX 767, MATTITUCK, NY, 11952","No_Match",NA,NA,NA,NA
996029,"PO BOX 767","MT SINAI","NY",11766,NA,NA,29,"PO BOX 767, MT SINAI, NY, 11766","No_Match",NA,NA,NA,NA
996030,"PO BOX 767","PHILMONT","NY",12565,NA,NA,30,"PO BOX 767, PHILMONT, NY, 12565","No_Match",NA,NA,NA,NA
996031,"PO BOX 767","SUISUN CITY","CA",94585,NA,NA,31,"PO BOX 767, SUISUN CITY, CA, 94585","No_Match",NA,NA,NA,NA
996032,"PO BOX 767","VAN VLECK","TX",77482,NA,NA,32,"PO BOX 767, VAN VLECK, TX, 77482","No_Match",NA,NA,NA,NA
996033,"PO BOX 767277","ROSWELL","GA",30076,NA,NA,33,"PO BOX 767277, ROSWELL, GA, 30076","No_Match",NA,NA,NA,NA
996034,"PO BOX 767424","ROSWELL","GA",30076,NA,NA,34,"PO BOX 767424, ROSWELL, GA, 30076","No_Match",NA,NA,NA,NA
996035,"PO BOX 768","GLEN","NH",3838,NA,NA,35,"PO BOX 768, GLEN, NH, 3838","No_Match",NA,NA,NA,NA
996036,"PO BOX 768","MONTEREY","CA",93942,NA,NA,36,"PO BOX 768, MONTEREY, CA, 93942","No_Match",NA,NA,NA,NA
996037,"PO BOX 768","POWDER SPRINGS","GA",30127,NA,NA,37,"PO BOX 768, POWDER SPRINGS, GA, 30127","No_Match",NA,NA,NA,NA
996038,"PO BOX 768","SALEM","AR",72576,NA,NA,38,"PO BOX 768, SALEM, AR, 72576","No_Match",NA,NA,NA,NA
996039,"PO BOX 768","SYLVESTER","GA",31791,NA,NA,39,"PO BOX 768, SYLVESTER, GA, 31791","No_Match",NA,NA,NA,NA
996040,"PO BOX 768","THERMOPOLIS","WY",82443,NA,NA,40,"PO BOX 768, THERMOPOLIS, WY, 82443","No_Match",NA,NA,NA,NA
996041,"PO BOX 768154","ROSWELL","FM",30076,NA,NA,41,"PO BOX 768154, ROSWELL, FM, 30076","No_Match",NA,NA,NA,NA
996042,"PO BOX 768154","ROSWELL","GA",30076,NA,NA,42,"PO BOX 768154, ROSWELL, GA, 30076","No_Match",NA,NA,NA,NA
996043,"PO BOX 768843","ROSWELL","GA",30076,NA,NA,43,"PO BOX 768843, ROSWELL, GA, 30076","No_Match",NA,NA,NA,NA
996044,"PO BOX 769","MASON","TX",76856,NA,NA,44,"PO BOX 769, MASON, TX, 76856","No_Match",NA,NA,NA,NA
996045,"PO BOX 769","REX","GA",30273,NA,NA,45,"PO BOX 769, REX, GA, 30273","No_Match",NA,NA,NA,NA
996046,"PO BOX 7692","MYRTLE BEACH","SC",29572,NA,NA,46,"PO BOX 7692, MYRTLE BEACH, SC, 29572","No_Match",NA,NA,NA,NA
996047,"PO BOX 7693","PORTSMOUTH","VA",23707,NA,NA,47,"PO BOX 7693, PORTSMOUTH, VA, 23707","No_Match",NA,NA,NA,NA
996048,"PO BOX 769411","SAN ANTONIO","TX",78245,NA,NA,48,"PO BOX 769411, SAN ANTONIO, TX, 78245","No_Match",NA,NA,NA,NA
996049,"PO BOX 769583","SAN ANTONIO","TX",78245,NA,NA,49,"PO BOX 769583, SAN ANTONIO, TX, 78245","No_Match",NA,NA,NA,NA
996050,"PO BOX 7698","ATLANTA","GA",30357,NA,NA,50,"PO BOX 7698, ATLANTA, GA, 30357","No_Match",NA,NA,NA,NA
996051,"PO BOX 7699","REDLANDS","CA",92375,NA,NA,51,"PO BOX 7699, REDLANDS, CA, 92375","No_Match",NA,NA,NA,NA
996052,"PO BOX 769951","SAN ANTONIO","TX",78245,NA,NA,52,"PO BOX 769951, SAN ANTONIO, TX, 78245","No_Match",NA,NA,NA,NA
996053,"PO BOX 77","ANDOVER","IL",61233,NA,NA,53,"PO BOX 77, ANDOVER, IL, 61233","No_Match",NA,NA,NA,NA
996054,"PO BOX 77","AVON","MA",2322,NA,NA,54,"PO BOX 77, AVON, MA, 2322","No_Match",NA,NA,NA,NA
996055,"PO BOX 77","BIRD IN HAND","PA",17505,NA,NA,55,"PO BOX 77, BIRD IN HAND, PA, 17505","No_Match",NA,NA,NA,NA
996056,"PO BOX 77","BROOKFIELD","CT",6804,NA,NA,56,"PO BOX 77, BROOKFIELD, CT, 6804","No_Match",NA,NA,NA,NA
996057,"PO BOX 77","DELAVAN","WI",53115,NA,NA,57,"PO BOX 77, DELAVAN, WI, 53115","No_Match",NA,NA,NA,NA
996058,"PO BOX 77","ELKHORN","WI",53121,NA,NA,58,"PO BOX 77, ELKHORN, WI, 53121","No_Match",NA,NA,NA,NA
996059,"PO BOX 77","ESTER","AK",99725,NA,NA,59,"PO BOX 77, ESTER, AK, 99725","No_Match",NA,NA,NA,NA
996060,"PO BOX 77","FLIPPIN","AR",72634,NA,NA,60,"PO BOX 77, FLIPPIN, AR, 72634","No_Match",NA,NA,NA,NA
996061,"PO BOX 77","HARBOR SPRINGS","MI",49740,NA,NA,61,"PO BOX 77, HARBOR SPRINGS, MI, 49740","No_Match",NA,NA,NA,NA
996062,"PO BOX 77","HENEFER","UT",84033,NA,NA,62,"PO BOX 77, HENEFER, UT, 84033","No_Match",NA,NA,NA,NA
996063,"PO BOX 77","ISABEL","SD",57633,NA,NA,63,"PO BOX 77, ISABEL, SD, 57633","No_Match",NA,NA,NA,NA
996064,"PO BOX 77","JAMESPORT","NY",11947,NA,NA,64,"PO BOX 77, JAMESPORT, NY, 11947","No_Match",NA,NA,NA,NA
996065,"PO BOX 77","LAKE ARROWHEAD","CA",92352,NA,NA,65,"PO BOX 77, LAKE ARROWHEAD, CA, 92352","No_Match",NA,NA,NA,NA
996066,"PO BOX 77","LEWIS RUN","PA",16738,NA,NA,66,"PO BOX 77, LEWIS RUN, PA, 16738","No_Match",NA,NA,NA,NA
996067,"PO BOX 77","VIRGINIA CITY","MT",59755,NA,NA,67,"PO BOX 77, VIRGINIA CITY, MT, 59755","No_Match",NA,NA,NA,NA
996068,"PO BOX 77","WILMOT","SD",57279,NA,NA,68,"PO BOX 77, WILMOT, SD, 57279","No_Match",NA,NA,NA,NA
996069,"PO BOX 770","CLOVERDALE","CA",5425,NA,NA,69,"PO BOX 770, CLOVERDALE, CA, 5425","No_Match",NA,NA,NA,NA
996070,"PO BOX 770","CLOVERDALE","CA",95425,NA,NA,70,"PO BOX 770, CLOVERDALE, CA, 95425","No_Match",NA,NA,NA,NA
996071,"PO BOX 770","GRANDY","NC",27939,NA,NA,71,"PO BOX 770, GRANDY, NC, 27939","No_Match",NA,NA,NA,NA
996072,"PO BOX 770","WHITTIER","AK",99693,NA,NA,72,"PO BOX 770, WHITTIER, AK, 99693","No_Match",NA,NA,NA,NA
996073,"PO BOX 770006","WINTER GARDEN","FL",34777,NA,NA,73,"PO BOX 770006, WINTER GARDEN, FL, 34777","No_Match",NA,NA,NA,NA
996074,"PO BOX 770096","WINTER GARDEN","FL",34777,NA,NA,74,"PO BOX 770096, WINTER GARDEN, FL, 34777","No_Match",NA,NA,NA,NA
996075,"PO BOX 7701","APPLETON","WI",54912,NA,NA,75,"PO BOX 7701, APPLETON, WI, 54912","No_Match",NA,NA,NA,NA
996076,"PO BOX 7701","BEVERLY HILLS","CA",90212,NA,NA,76,"PO BOX 7701, BEVERLY HILLS, CA, 90212","No_Match",NA,NA,NA,NA
996077,"PO BOX 7701","SAN DIEGO","CA",92160,NA,NA,77,"PO BOX 7701, SAN DIEGO, CA, 92160","No_Match",NA,NA,NA,NA
996078,"PO BOX 770181","STEAMBOAT SPRINGS","CO",80477,NA,NA,78,"PO BOX 770181, STEAMBOAT SPRINGS, CO, 80477","No_Match",NA,NA,NA,NA
996079,"PO BOX 770247","MEMPHIS","TN",38177,NA,NA,79,"PO BOX 770247, MEMPHIS, TN, 38177","No_Match",NA,NA,NA,NA
996080,"PO BOX 770362","STEAMBOAT SPRINGS","CO",80477,NA,NA,80,"PO BOX 770362, STEAMBOAT SPRINGS, CO, 80477","No_Match",NA,NA,NA,NA
996081,"PO BOX 770451","WINTER GARDEN","FL",34777,NA,NA,81,"PO BOX 770451, WINTER GARDEN, FL, 34777","No_Match",NA,NA,NA,NA
996082,"PO BOX 770502","NEW ORLEANS","LA",70177,NA,NA,82,"PO BOX 770502, NEW ORLEANS, LA, 70177","No_Match",NA,NA,NA,NA
996083,"PO BOX 770543","OCALA","FL",34477,NA,NA,83,"PO BOX 770543, OCALA, FL, 34477","No_Match",NA,NA,NA,NA
996084,"PO BOX 770553","WINTER GARDEN","FL",34777,NA,NA,84,"PO BOX 770553, WINTER GARDEN, FL, 34777","No_Match",NA,NA,NA,NA
996085,"PO BOX 77059","ROCHESTER","NY",14617,NA,NA,85,"PO BOX 77059, ROCHESTER, NY, 14617","No_Match",NA,NA,NA,NA
996086,"PO BOX 770626","CORAL SPRINGS","FL",33077,NA,NA,86,"PO BOX 770626, CORAL SPRINGS, FL, 33077","No_Match",NA,NA,NA,NA
996087,"PO BOX 770686","EAGLE RIVER","AK",99577,NA,NA,87,"PO BOX 770686, EAGLE RIVER, AK, 99577","No_Match",NA,NA,NA,NA
996088,"PO BOX 7707626","CORAL SPRINGS","FL",33077,NA,NA,88,"PO BOX 7707626, CORAL SPRINGS, FL, 33077","No_Match",NA,NA,NA,NA
996089,"PO BOX 770795","LAKEWOOD","OH",44107,NA,NA,89,"PO BOX 770795, LAKEWOOD, OH, 44107","No_Match",NA,NA,NA,NA
996090,"PO BOX 770874","MIAMI","FL",33177,NA,NA,90,"PO BOX 770874, MIAMI, FL, 33177","No_Match",NA,NA,NA,NA
996091,"PO BOX 770887","EAGLE RIVER","AK",99577,NA,NA,91,"PO BOX 770887, EAGLE RIVER, AK, 99577","No_Match",NA,NA,NA,NA
996092,"PO BOX 770907","STEAMBOAT SPRINGS","CO",80477,NA,NA,92,"PO BOX 770907, STEAMBOAT SPRINGS, CO, 80477","No_Match",NA,NA,NA,NA
996093,"PO BOX 770985","ORLANDO","FL",32877,NA,NA,93,"PO BOX 770985, ORLANDO, FL, 32877","No_Match",NA,NA,NA,NA
996094,"PO BOX 771","BREWSTER","WA",98812,NA,NA,94,"PO BOX 771, BREWSTER, WA, 98812","No_Match",NA,NA,NA,NA
996095,"PO BOX 771","BYRON","CA",94514,NA,NA,95,"PO BOX 771, BYRON, CA, 94514","No_Match",NA,NA,NA,NA
996096,"PO BOX 771","CARLSBAD","NM",88221,NA,NA,96,"PO BOX 771, CARLSBAD, NM, 88221","No_Match",NA,NA,NA,NA
996097,"PO BOX 771","CHEYENNE WELLS","CO",80810,NA,NA,97,"PO BOX 771, CHEYENNE WELLS, CO, 80810","No_Match",NA,NA,NA,NA
996098,"PO BOX 771","CHINO HILLS","CA",91709,NA,NA,98,"PO BOX 771, CHINO HILLS, CA, 91709","No_Match",NA,NA,NA,NA
996099,"PO BOX 771","CLEMENTON","NJ",8021,NA,NA,99,"PO BOX 771, CLEMENTON, NJ, 8021","No_Match",NA,NA,NA,NA
996100,"PO BOX 771","CONCHO","AZ",85924,NA,NA,100,"PO BOX 771, CONCHO, AZ, 85924","No_Match",NA,NA,NA,NA
996101,"PO BOX 771","DUNSMUIR","CA",96025,NA,NA,101,"PO BOX 771, DUNSMUIR, CA, 96025","No_Match",NA,NA,NA,NA
996102,"PO BOX 771","HANA","HI",96713,NA,NA,102,"PO BOX 771, HANA, HI, 96713","No_Match",NA,NA,NA,NA
996103,"PO BOX 771","HARRISON","AR",72602,NA,NA,103,"PO BOX 771, HARRISON, AR, 72602","No_Match",NA,NA,NA,NA
996104,"PO BOX 771","HEALDTON","OK",73438,NA,NA,104,"PO BOX 771, HEALDTON, OK, 73438","No_Match",NA,NA,NA,NA
996105,"PO BOX 771","LESTER PRAIRIE","MN",55354,NA,NA,105,"PO BOX 771, LESTER PRAIRIE, MN, 55354","No_Match",NA,NA,NA,NA
996106,"PO BOX 771","OXFORD","MS",38655,NA,NA,106,"PO BOX 771, OXFORD, MS, 38655","No_Match",NA,NA,NA,NA
996107,"PO BOX 771","WADDELL","AZ",85355,NA,NA,107,"PO BOX 771, WADDELL, AZ, 85355","No_Match",NA,NA,NA,NA
996108,"PO BOX 771","YUBA CITY","CA",95992,NA,NA,108,"PO BOX 771, YUBA CITY, CA, 95992","No_Match",NA,NA,NA,NA
996109,"PO BOX 7710","TACOMA","WA",98417,NA,NA,109,"PO BOX 7710, TACOMA, WA, 98417","No_Match",NA,NA,NA,NA
996110,"PO BOX 771011","ORLANDO","FL",32837,NA,NA,110,"PO BOX 771011, ORLANDO, FL, 32837","No_Match",NA,NA,NA,NA
996111,"PO BOX 771080","ST LOUIS","MO",63177,NA,NA,111,"PO BOX 771080, ST LOUIS, MO, 63177","No_Match",NA,NA,NA,NA
996112,"PO BOX 771080","ST LOUIS","MO",73177,NA,NA,112,"PO BOX 771080, ST LOUIS, MO, 73177","No_Match",NA,NA,NA,NA
996113,"PO BOX 771121","ST. LOUIS","MO",63177,NA,NA,113,"PO BOX 771121, ST. LOUIS, MO, 63177","No_Match",NA,NA,NA,NA
996114,"PO BOX 771214","STEAMBOAT SPRINGS","CO",80477,NA,NA,114,"PO BOX 771214, STEAMBOAT SPRINGS, CO, 80477","No_Match",NA,NA,NA,NA
996115,"PO BOX 77127","TAMPA","FL",33675,NA,NA,115,"PO BOX 77127, TAMPA, FL, 33675","No_Match",NA,NA,NA,NA
996116,"PO BOX 771326","EAGLE RIVER","AK",99577,NA,NA,116,"PO BOX 771326, EAGLE RIVER, AK, 99577","No_Match",NA,NA,NA,NA
996117,"PO BOX 771392","STEAMBOAT SPRINGS","CO",80477,NA,NA,117,"PO BOX 771392, STEAMBOAT SPRINGS, CO, 80477","No_Match",NA,NA,NA,NA
996118,"PO BOX 771493","STEAMBOAT SPRINGS","CO",80477,NA,NA,118,"PO BOX 771493, STEAMBOAT SPRINGS, CO, 80477","No_Match",NA,NA,NA,NA
996119,"PO BOX 771576","STEAMBOAT SPRINGS","CO",80477,NA,NA,119,"PO BOX 771576, STEAMBOAT SPRINGS, CO, 80477","No_Match",NA,NA,NA,NA
996120,"PO BOX 7716","MARIETTA","GA",30065,NA,NA,120,"PO BOX 7716, MARIETTA, GA, 30065","No_Match",NA,NA,NA,NA
996121,"PO BOX 771724","STEAMBOAT SPRINGS","CO",80477,NA,NA,121,"PO BOX 771724, STEAMBOAT SPRINGS, CO, 80477","No_Match",NA,NA,NA,NA
996122,"PO BOX 771736","STEAMBOAT SPRINGS","CO",80477,NA,NA,122,"PO BOX 771736, STEAMBOAT SPRINGS, CO, 80477","No_Match",NA,NA,NA,NA
996123,"PO BOX 771759","STEAMBOAT SPRINGS","CO",80477,NA,NA,123,"PO BOX 771759, STEAMBOAT SPRINGS, CO, 80477","No_Match",NA,NA,NA,NA
996124,"PO BOX 771764","CORAL SPRINGS","FL",33077,NA,NA,124,"PO BOX 771764, CORAL SPRINGS, FL, 33077","No_Match",NA,NA,NA,NA
996125,"PO BOX 77185","FORT WORTH","TX",76177,NA,NA,125,"PO BOX 77185, FORT WORTH, TX, 76177","No_Match",NA,NA,NA,NA
996126,"PO BOX 771885","EAGLE RIVER","AK",99577,NA,NA,126,"PO BOX 771885, EAGLE RIVER, AK, 99577","No_Match",NA,NA,NA,NA
996127,"PO BOX 771905","HOUSTON","TX",77215,NA,NA,127,"PO BOX 771905, HOUSTON, TX, 77215","No_Match",NA,NA,NA,NA
996128,"PO BOX 772","AGUADA","PR",602,NA,NA,128,"PO BOX 772, AGUADA, PR, 602","No_Match",NA,NA,NA,NA
996129,"PO BOX 772","BROOKPORT","IL",62910,NA,NA,129,"PO BOX 772, BROOKPORT, IL, 62910","No_Match",NA,NA,NA,NA
996130,"PO BOX 772","COLLEYVILLE","TX",76034,NA,NA,130,"PO BOX 772, COLLEYVILLE, TX, 76034","No_Match",NA,NA,NA,NA
996131,"PO BOX 772","COUPEVILLE","WA",98239,NA,NA,131,"PO BOX 772, COUPEVILLE, WA, 98239","No_Match",NA,NA,NA,NA
996132,"PO BOX 772","DEWEYVILLE","TX",77614,NA,NA,132,"PO BOX 772, DEWEYVILLE, TX, 77614","No_Match",NA,NA,NA,NA
996133,"PO BOX 772","LEBANON","OR",97355,NA,NA,133,"PO BOX 772, LEBANON, OR, 97355","No_Match",NA,NA,NA,NA
996134,"PO BOX 772","REPUBLIC","WA",99166,NA,NA,134,"PO BOX 772, REPUBLIC, WA, 99166","No_Match",NA,NA,NA,NA
996135,"PO BOX 772","STURGIS","SD",57785,NA,NA,135,"PO BOX 772, STURGIS, SD, 57785","No_Match",NA,NA,NA,NA
996136,"PO BOX 772","TIJERAS","NM",87059,NA,NA,136,"PO BOX 772, TIJERAS, NM, 87059","No_Match",NA,NA,NA,NA
996137,"PO BOX 772","WELDON","NC",27890,NA,NA,137,"PO BOX 772, WELDON, NC, 27890","No_Match",NA,NA,NA,NA
996138,"PO BOX 772","WESTHAMPTON","NY",11977,NA,NA,138,"PO BOX 772, WESTHAMPTON, NY, 11977","No_Match",NA,NA,NA,NA
996139,"PO BOX 772","WILBRAHAM","MA",1095,NA,NA,139,"PO BOX 772, WILBRAHAM, MA, 1095","No_Match",NA,NA,NA,NA
996140,"PO BOX 772024","ORLANDO","FL",32837,NA,NA,140,"PO BOX 772024, ORLANDO, FL, 32837","No_Match",NA,NA,NA,NA
996141,"PO BOX 772062","STEAMBOAT SPRINGS","CO",80477,NA,NA,141,"PO BOX 772062, STEAMBOAT SPRINGS, CO, 80477","No_Match",NA,NA,NA,NA
996142,"PO BOX 772079","STEAMBOAT SPRINGS","CO",80477,NA,NA,142,"PO BOX 772079, STEAMBOAT SPRINGS, CO, 80477","No_Match",NA,NA,NA,NA
996143,"PO BOX 772158","STEAMBOAT SPRINGS","CO",80477,NA,NA,143,"PO BOX 772158, STEAMBOAT SPRINGS, CO, 80477","No_Match",NA,NA,NA,NA
996144,"PO BOX 772205","EAGLE RIVER","AK",99577,NA,NA,144,"PO BOX 772205, EAGLE RIVER, AK, 99577","No_Match",NA,NA,NA,NA
996145,"PO BOX 772291","MIAMI","FL",33177,NA,NA,145,"PO BOX 772291, MIAMI, FL, 33177","No_Match",NA,NA,NA,NA
996146,"PO BOX 772336","STEAMBOAT SPRINGS","CO",80477,NA,NA,146,"PO BOX 772336, STEAMBOAT SPRINGS, CO, 80477","No_Match",NA,NA,NA,NA
996147,"PO BOX 7725","SEBRING","FL",33870,NA,NA,147,"PO BOX 7725, SEBRING, FL, 33870","No_Match",NA,NA,NA,NA
996148,"PO BOX 772570","STEAMBOAT SPRINGS","CO",80477,NA,NA,148,"PO BOX 772570, STEAMBOAT SPRINGS, CO, 80477","No_Match",NA,NA,NA,NA
996149,"PO BOX 7726","CAVE CREEK","AZ",85327,NA,NA,149,"PO BOX 7726, CAVE CREEK, AZ, 85327","No_Match",NA,NA,NA,NA
996150,"PO BOX 772774","OCALA","FL",34477,NA,NA,150,"PO BOX 772774, OCALA, FL, 34477","No_Match",NA,NA,NA,NA
996151,"PO BOX 772850","STEAMBOAT SPRINGS","CO",80477,NA,NA,151,"PO BOX 772850, STEAMBOAT SPRINGS, CO, 80477","No_Match",NA,NA,NA,NA
996152,"PO BOX 772981","STEAMBOAT SPRINGS","CO",80477,NA,NA,152,"PO BOX 772981, STEAMBOAT SPRINGS, CO, 80477","No_Match",NA,NA,NA,NA
996153,"PO BOX 772984","CRAIG","CO",81625,NA,NA,153,"PO BOX 772984, CRAIG, CO, 81625","No_Match",NA,NA,NA,NA
996154,"PO BOX 773","BRADY","TX",76825,NA,NA,154,"PO BOX 773, BRADY, TX, 76825","No_Match",NA,NA,NA,NA
996155,"PO BOX 773","CGARKITTESVILLE","VA",22902,NA,NA,155,"PO BOX 773, CGARKITTESVILLE, VA, 22902","No_Match",NA,NA,NA,NA
996156,"PO BOX 773","HALEIWA","HI",96712,NA,NA,156,"PO BOX 773, HALEIWA, HI, 96712","No_Match",NA,NA,NA,NA
996157,"PO BOX 773","HOLUALOA","HI",96725,NA,NA,157,"PO BOX 773, HOLUALOA, HI, 96725","No_Match",NA,NA,NA,NA
996158,"PO BOX 773","IRRIGON","OR",97844,NA,NA,158,"PO BOX 773, IRRIGON, OR, 97844","No_Match",NA,NA,NA,NA
996159,"PO BOX 773","KENOSHA","WI",53140,NA,NA,159,"PO BOX 773, KENOSHA, WI, 53140","No_Match",NA,NA,NA,NA
996160,"PO BOX 773","LINDSTROM","MN",55045,NA,NA,160,"PO BOX 773, LINDSTROM, MN, 55045","No_Match",NA,NA,NA,NA
996161,"PO BOX 773","NEW YORK","NY",10163,NA,NA,161,"PO BOX 773, NEW YORK, NY, 10163","No_Match",NA,NA,NA,NA
996162,"PO BOX 773","STANLEY","NC",28164,NA,NA,162,"PO BOX 773, STANLEY, NC, 28164","No_Match",NA,NA,NA,NA
996163,"PO BOX 773","TETON VILLAGE","WY",83025,NA,NA,163,"PO BOX 773, TETON VILLAGE, WY, 83025","No_Match",NA,NA,NA,NA
996164,"PO BOX 773","TWISP","WA",98856,NA,NA,164,"PO BOX 773, TWISP, WA, 98856","No_Match",NA,NA,NA,NA
996165,"PO BOX 77325","BATON ROUGE","LA",70879,NA,NA,165,"PO BOX 77325, BATON ROUGE, LA, 70879","No_Match",NA,NA,NA,NA
996166,"PO BOX 773253","STEAMBOAT SPRINGS","CO",80477,NA,NA,166,"PO BOX 773253, STEAMBOAT SPRINGS, CO, 80477","No_Match",NA,NA,NA,NA
996167,"PO BOX 773382","OCALA","FL",34477,NA,NA,167,"PO BOX 773382, OCALA, FL, 34477","No_Match",NA,NA,NA,NA
996168,"PO BOX 7735","GRAND RAPIDS","MI",49510,NA,NA,168,"PO BOX 7735, GRAND RAPIDS, MI, 49510","No_Match",NA,NA,NA,NA
996169,"PO BOX 7736","COLUMBIA","SC",29202,NA,NA,169,"PO BOX 7736, COLUMBIA, SC, 29202","No_Match",NA,NA,NA,NA
996170,"PO BOX 773706","OCALA","FL",34477,NA,NA,170,"PO BOX 773706, OCALA, FL, 34477","No_Match",NA,NA,NA,NA
996171,"PO BOX 773974","STEAMBOAT","CO",80477,NA,NA,171,"PO BOX 773974, STEAMBOAT, CO, 80477","No_Match",NA,NA,NA,NA
996172,"PO BOX 774","ALTO","TX",75925,NA,NA,172,"PO BOX 774, ALTO, TX, 75925","No_Match",NA,NA,NA,NA
996173,"PO BOX 774","CAVE SPRINGS","GA",30124,NA,NA,173,"PO BOX 774, CAVE SPRINGS, GA, 30124","No_Match",NA,NA,NA,NA
996174,"PO BOX 774","DREXEL","NC",28619,NA,NA,174,"PO BOX 774, DREXEL, NC, 28619","No_Match",NA,NA,NA,NA
996175,"PO BOX 774","FREDERICKSBURG","TX",78624,NA,NA,175,"PO BOX 774, FREDERICKSBURG, TX, 78624","No_Match",NA,NA,NA,NA
996176,"PO BOX 774","GILROY","CA",95020,NA,NA,176,"PO BOX 774, GILROY, CA, 95020","No_Match",NA,NA,NA,NA
996177,"PO BOX 774","HARLEM","MT",59526,NA,NA,177,"PO BOX 774, HARLEM, MT, 59526","No_Match",NA,NA,NA,NA
996178,"PO BOX 774","LEXINGTON","TX",78947,NA,NA,178,"PO BOX 774, LEXINGTON, TX, 78947","No_Match",NA,NA,NA,NA
996179,"PO BOX 774","LOVELOCK","NV",89419,NA,NA,179,"PO BOX 774, LOVELOCK, NV, 89419","No_Match",NA,NA,NA,NA
996180,"PO BOX 774","OAKHURST","CA",93644,NA,NA,180,"PO BOX 774, OAKHURST, CA, 93644","No_Match",NA,NA,NA,NA
996181,"PO BOX 774","OMAK","WA",98841,NA,NA,181,"PO BOX 774, OMAK, WA, 98841","No_Match",NA,NA,NA,NA
996182,"PO BOX 774","WATERLOO","IA",50704,NA,NA,182,"PO BOX 774, WATERLOO, IA, 50704","No_Match",NA,NA,NA,NA
996183,"PO BOX 774","WESTVILLE","OK",74965,NA,NA,183,"PO BOX 774, WESTVILLE, OK, 74965","No_Match",NA,NA,NA,NA
996184,"PO BOX 7741","MISSOULA","MT",59807,NA,NA,184,"PO BOX 7741, MISSOULA, MT, 59807","No_Match",NA,NA,NA,NA
996185,"PO BOX 7741","THOUSAND OAKS","CA",91359,NA,NA,185,"PO BOX 7741, THOUSAND OAKS, CA, 91359","No_Match",NA,NA,NA,NA
996186,"PO BOX 774169","STEAMBOAT SPRINGS","CO",80477,NA,NA,186,"PO BOX 774169, STEAMBOAT SPRINGS, CO, 80477","No_Match",NA,NA,NA,NA
996187,"PO BOX 77495","CHARLOTTE","NC",28271,NA,NA,187,"PO BOX 77495, CHARLOTTE, NC, 28271","No_Match",NA,NA,NA,NA
996188,"PO BOX 775","BLUE HILL","ME",4614,NA,NA,188,"PO BOX 775, BLUE HILL, ME, 4614","No_Match",NA,NA,NA,NA
996189,"PO BOX 775","CLARK","CO",80428,NA,NA,189,"PO BOX 775, CLARK, CO, 80428","No_Match",NA,NA,NA,NA
996190,"PO BOX 775","EL RITO","NM",87530,NA,NA,190,"PO BOX 775, EL RITO, NM, 87530","No_Match",NA,NA,NA,NA
996191,"PO BOX 775","FRANKTOWN","CO",80116,NA,NA,191,"PO BOX 775, FRANKTOWN, CO, 80116","No_Match",NA,NA,NA,NA
996192,"PO BOX 775","HALEIWA","HI",96712,NA,NA,192,"PO BOX 775, HALEIWA, HI, 96712","No_Match",NA,NA,NA,NA
996193,"PO BOX 775","LABELLE","FL",33975,NA,NA,193,"PO BOX 775, LABELLE, FL, 33975","No_Match",NA,NA,NA,NA
996194,"PO BOX 775","OURAY","CO",81427,NA,NA,194,"PO BOX 775, OURAY, CO, 81427","No_Match",NA,NA,NA,NA
996195,"PO BOX 775","PLYMOUTH MEETING","PA",19462,NA,NA,195,"PO BOX 775, PLYMOUTH MEETING, PA, 19462","No_Match",NA,NA,NA,NA
996196,"PO BOX 775","SELMA","OR",97538,NA,NA,196,"PO BOX 775, SELMA, OR, 97538","No_Match",NA,NA,NA,NA
996197,"PO BOX 775","WRIGHTWOOD","CA",92397,NA,NA,197,"PO BOX 775, WRIGHTWOOD, CA, 92397","No_Match",NA,NA,NA,NA
996198,"PO BOX 775067","STEAMBOAT SPRINGS","CO",80477,NA,NA,198,"PO BOX 775067, STEAMBOAT SPRINGS, CO, 80477","No_Match",NA,NA,NA,NA
996199,"PO BOX 7751","EDMOND","OK",73013,NA,NA,199,"PO BOX 7751, EDMOND, OK, 73013","No_Match",NA,NA,NA,NA
996200,"PO BOX 775121","STEAMBOAT SPRINGS","CO",80477,NA,NA,200,"PO BOX 775121, STEAMBOAT SPRINGS, CO, 80477","No_Match",NA,NA,NA,NA
996201,"PO BOX 7752","GURNEE","IL",60031,NA,NA,201,"PO BOX 7752, GURNEE, IL, 60031","No_Match",NA,NA,NA,NA
996202,"PO BOX 7753","Goodyear","AZ",85338,NA,NA,202,"PO BOX 7753, Goodyear, AZ, 85338","No_Match",NA,NA,NA,NA
996203,"PO BOX 7753","GOODYEAR","AZ",85338,NA,NA,203,"PO BOX 7753, GOODYEAR, AZ, 85338","No_Match",NA,NA,NA,NA
996204,"PO BOX 7754","EAST RUTHERFORD","NJ",7073,NA,NA,204,"PO BOX 7754, EAST RUTHERFORD, NJ, 7073","No_Match",NA,NA,NA,NA
996205,"PO BOX 775664","STEAMBOAT SPRINGS","CO",80477,NA,NA,205,"PO BOX 775664, STEAMBOAT SPRINGS, CO, 80477","No_Match",NA,NA,NA,NA
996206,"PO BOX 77583","BATON ROUGE","LA",70879,NA,NA,206,"PO BOX 77583, BATON ROUGE, LA, 70879","No_Match",NA,NA,NA,NA
996207,"PO BOX 775835","STEAMBOAT SPRINGS","CO",80477,NA,NA,207,"PO BOX 775835, STEAMBOAT SPRINGS, CO, 80477","No_Match",NA,NA,NA,NA
996208,"PO BOX 775858","STEAMBOAT SPRINGS","CO",80477,NA,NA,208,"PO BOX 775858, STEAMBOAT SPRINGS, CO, 80477","No_Match",NA,NA,NA,NA
996209,"PO BOX 776","BARTOW","FL",33831,NA,NA,209,"PO BOX 776, BARTOW, FL, 33831","No_Match",NA,NA,NA,NA
996210,"PO BOX 776","BLOOMVILLE","NY",13739,NA,NA,210,"PO BOX 776, BLOOMVILLE, NY, 13739","No_Match",NA,NA,NA,NA
996211,"PO BOX 776","HAMPTON","GA",30228,NA,NA,211,"PO BOX 776, HAMPTON, GA, 30228","No_Match",NA,NA,NA,NA
996212,"PO BOX 776","JACKSON","MS",39205,NA,NA,212,"PO BOX 776, JACKSON, MS, 39205","No_Match",NA,NA,NA,NA
996213,"PO BOX 776","MONROE","WA",98272,NA,NA,213,"PO BOX 776, MONROE, WA, 98272","No_Match",NA,NA,NA,NA
996214,"PO BOX 776","NEW YORK","NY",10108,NA,NA,214,"PO BOX 776, NEW YORK, NY, 10108","No_Match",NA,NA,NA,NA
996215,"PO BOX 776","ORACLE","AZ",85623,NA,NA,215,"PO BOX 776, ORACLE, AZ, 85623","No_Match",NA,NA,NA,NA
996216,"PO BOX 776","PARKER","SD",57053,NA,NA,216,"PO BOX 776, PARKER, SD, 57053","No_Match",NA,NA,NA,NA
996217,"PO BOX 776","PORT RICHEY","FL",34673,NA,NA,217,"PO BOX 776, PORT RICHEY, FL, 34673","No_Match",NA,NA,NA,NA
996218,"PO BOX 776","SAINT PAULS","NC",28384,NA,NA,218,"PO BOX 776, SAINT PAULS, NC, 28384","No_Match",NA,NA,NA,NA
996219,"PO BOX 776","URBANA","OH",43078,NA,NA,219,"PO BOX 776, URBANA, OH, 43078","No_Match",NA,NA,NA,NA
996220,"PO BOX 776083","STEAMBOAT SPRINGS","CO",80477,NA,NA,220,"PO BOX 776083, STEAMBOAT SPRINGS, CO, 80477","No_Match",NA,NA,NA,NA
996221,"PO BOX 776108","STEAMBOAT SPRINGS","CO",80477,NA,NA,221,"PO BOX 776108, STEAMBOAT SPRINGS, CO, 80477","No_Match",NA,NA,NA,NA
996222,"PO BOX 7763","CROSS LANES","WV",25356,NA,NA,222,"PO BOX 7763, CROSS LANES, WV, 25356","No_Match",NA,NA,NA,NA
996223,"PO BOX 7763","SOUTH LAKE TAHOE","CA",96158,NA,NA,223,"PO BOX 7763, SOUTH LAKE TAHOE, CA, 96158","No_Match",NA,NA,NA,NA
996224,"PO BOX 776389","STEAMBOAT SPRINGS","CO",80477,NA,NA,224,"PO BOX 776389, STEAMBOAT SPRINGS, CO, 80477","No_Match",NA,NA,NA,NA
996225,"PO BOX 77641","GREENSBORO","NC",27417,NA,NA,225,"PO BOX 77641, GREENSBORO, NC, 27417","No_Match",NA,NA,NA,NA
996226,"PO BOX 77657","SEATTLE","WA",98177,NA,NA,226,"PO BOX 77657, SEATTLE, WA, 98177","No_Match",NA,NA,NA,NA
996227,"PO BOX 77658","COLUMBUS","OH",43207,NA,NA,227,"PO BOX 77658, COLUMBUS, OH, 43207","No_Match",NA,NA,NA,NA
996228,"PO BOX 777","BROWNVILLE","NY",13615,NA,NA,228,"PO BOX 777, BROWNVILLE, NY, 13615","No_Match",NA,NA,NA,NA
996229,"PO BOX 777","CENTERVILLE","TX",75833,NA,NA,229,"PO BOX 777, CENTERVILLE, TX, 75833","No_Match",NA,NA,NA,NA
996230,"PO BOX 777","DALEVILLE","AL",36322,NA,NA,230,"PO BOX 777, DALEVILLE, AL, 36322","No_Match",NA,NA,NA,NA
996231,"PO BOX 777","DALLAS","OR",97338,NA,NA,231,"PO BOX 777, DALLAS, OR, 97338","No_Match",NA,NA,NA,NA
996232,"PO BOX 777","GRAPELAND","TX",75844,NA,NA,232,"PO BOX 777, GRAPELAND, TX, 75844","No_Match",NA,NA,NA,NA
996233,"PO BOX 777","HARRISON","NY",10528,NA,NA,233,"PO BOX 777, HARRISON, NY, 10528","No_Match",NA,NA,NA,NA
996234,"PO BOX 777","HEYBURN","ID",83336,NA,NA,234,"PO BOX 777, HEYBURN, ID, 83336","No_Match",NA,NA,NA,NA
996235,"PO BOX 777","NICHOLASVILLE","KY",40340,NA,NA,235,"PO BOX 777, NICHOLASVILLE, KY, 40340","No_Match",NA,NA,NA,NA
996236,"PO BOX 777","NOBLE","OK",73068,NA,NA,236,"PO BOX 777, NOBLE, OK, 73068","No_Match",NA,NA,NA,NA
996237,"PO BOX 777","PINEHURST","TX",77362,NA,NA,237,"PO BOX 777, PINEHURST, TX, 77362","No_Match",NA,NA,NA,NA
996238,"PO BOX 777","PINETOPS","NC",27864,NA,NA,238,"PO BOX 777, PINETOPS, NC, 27864","No_Match",NA,NA,NA,NA
996239,"PO BOX 777","RALSTON","WY",82440,NA,NA,239,"PO BOX 777, RALSTON, WY, 82440","No_Match",NA,NA,NA,NA
996240,"PO BOX 777","REDWOOD ESTATES","CA",95044,NA,NA,240,"PO BOX 777, REDWOOD ESTATES, CA, 95044","No_Match",NA,NA,NA,NA
996241,"PO BOX 777","SELMA","NC",27576,NA,NA,241,"PO BOX 777, SELMA, NC, 27576","No_Match",NA,NA,NA,NA
996242,"PO BOX 777","SOUTHAMPTON","NY",11969,NA,NA,242,"PO BOX 777, SOUTHAMPTON, NY, 11969","No_Match",NA,NA,NA,NA
996243,"PO BOX 777","SULTAN","WA",98294,NA,NA,243,"PO BOX 777, SULTAN, WA, 98294","No_Match",NA,NA,NA,NA
996244,"PO BOX 777","WADLEY","GA",30477,NA,NA,244,"PO BOX 777, WADLEY, GA, 30477","No_Match",NA,NA,NA,NA
996245,"PO BOX 777","WALDO","AR",71770,NA,NA,245,"PO BOX 777, WALDO, AR, 71770","No_Match",NA,NA,NA,NA
996246,"PO BOX 777","WESTON","WV",26452,NA,NA,246,"PO BOX 777, WESTON, WV, 26452","No_Match",NA,NA,NA,NA
996247,"PO BOX 777","WOLFEBORO FALLS","NH",3896,NA,NA,247,"PO BOX 777, WOLFEBORO FALLS, NH, 3896","No_Match",NA,NA,NA,NA
996248,"PO BOX 777","WORTHINGTON","OH",43085,NA,NA,248,"PO BOX 777, WORTHINGTON, OH, 43085","No_Match",NA,NA,NA,NA
996249,"PO BOX 7771","SILVER SPRING","MD",20907,NA,NA,249,"PO BOX 7771, SILVER SPRING, MD, 20907","No_Match",NA,NA,NA,NA
996250,"PO BOX 7771","TEMPE","AZ",85281,NA,NA,250,"PO BOX 7771, TEMPE, AZ, 85281","No_Match",NA,NA,NA,NA
996251,"PO BOX 7773","RUIDOSO","NM",88345,NA,NA,251,"PO BOX 7773, RUIDOSO, NM, 88345","No_Match",NA,NA,NA,NA
996252,"PO BOX 7775","EWING","NJ",8628,NA,NA,252,"PO BOX 7775, EWING, NJ, 8628","No_Match",NA,NA,NA,NA
996253,"PO BOX 778","AVON","CO",81620,NA,NA,253,"PO BOX 778, AVON, CO, 81620","No_Match",NA,NA,NA,NA
996254,"PO BOX 778","BARTON","VT",5822,NA,NA,254,"PO BOX 778, BARTON, VT, 5822","No_Match",NA,NA,NA,NA
996255,"PO BOX 778","CORBIN","KY",40702,NA,NA,255,"PO BOX 778, CORBIN, KY, 40702","No_Match",NA,NA,NA,NA
996256,"PO BOX 778","MILLSBORO","DE",19966,NA,NA,256,"PO BOX 778, MILLSBORO, DE, 19966","No_Match",NA,NA,NA,NA
996257,"PO BOX 778","PLAINVILLE","CT",6062,NA,NA,257,"PO BOX 778, PLAINVILLE, CT, 6062","No_Match",NA,NA,NA,NA
996258,"PO BOX 778","POLSON","MT",59860,NA,NA,258,"PO BOX 778, POLSON, MT, 59860","No_Match",NA,NA,NA,NA
996259,"PO BOX 778","SKANEATELES","NY",13152,NA,NA,259,"PO BOX 778, SKANEATELES, NY, 13152","No_Match",NA,NA,NA,NA
996260,"PO BOX 778","SUNRAY","TX",79086,NA,NA,260,"PO BOX 778, SUNRAY, TX, 79086","No_Match",NA,NA,NA,NA
996261,"PO BOX 778","WADSWORTH","OH",44282,NA,NA,261,"PO BOX 778, WADSWORTH, OH, 44282","No_Match",NA,NA,NA,NA
996262,"PO BOX 778153","HENDERSON","NV",89077,NA,NA,262,"PO BOX 778153, HENDERSON, NV, 89077","No_Match",NA,NA,NA,NA
996263,"PO BOX 77822","GREENSBORO","NC",27417,NA,NA,263,"PO BOX 77822, GREENSBORO, NC, 27417","No_Match",NA,NA,NA,NA
996264,"PO BOX 778238","HENDERSON","NV",89077,NA,NA,264,"PO BOX 778238, HENDERSON, NV, 89077","No_Match",NA,NA,NA,NA
996265,"PO BOX 7784","TYLER","TX",75711,NA,NA,265,"PO BOX 7784, TYLER, TX, 75711","No_Match",NA,NA,NA,NA
996266,"PO BOX 7785","REDLANDS","CA",92375,NA,NA,266,"PO BOX 7785, REDLANDS, CA, 92375","No_Match",NA,NA,NA,NA
996267,"PO BOX 7787","ASPEN","CO",81612,NA,NA,267,"PO BOX 7787, ASPEN, CO, 81612","No_Match",NA,NA,NA,NA
996268,"PO BOX 7787","GREENSBORO","NC",27417,NA,NA,268,"PO BOX 7787, GREENSBORO, NC, 27417","No_Match",NA,NA,NA,NA
996269,"PO BOX 7788","OVERLAND PARK","KS",66207,NA,NA,269,"PO BOX 7788, OVERLAND PARK, KS, 66207","No_Match",NA,NA,NA,NA
996270,"PO BOX 779","CATHLAMET","WA",98612,NA,NA,270,"PO BOX 779, CATHLAMET, WA, 98612","No_Match",NA,NA,NA,NA
996271,"PO BOX 779","OAKRIDGE","OR",97463,NA,NA,271,"PO BOX 779, OAKRIDGE, OR, 97463","No_Match",NA,NA,NA,NA
996272,"PO BOX 77933","GREENSBORO","NC",27417,NA,NA,272,"PO BOX 77933, GREENSBORO, NC, 27417","No_Match",NA,NA,NA,NA
996273,"PO BOX 78","ANGOLA","IN",46703,NA,NA,273,"PO BOX 78, ANGOLA, IN, 46703","No_Match",NA,NA,NA,NA
996274,"PO BOX 78","BASTROP","TX",78602,NA,NA,274,"PO BOX 78, BASTROP, TX, 78602","No_Match",NA,NA,NA,NA
996275,"PO BOX 78","COAL CITY","WV",25823,NA,NA,275,"PO BOX 78, COAL CITY, WV, 25823","No_Match",NA,NA,NA,NA
996276,"PO BOX 78","DOUGLASVILLE","GA",30133,NA,NA,276,"PO BOX 78, DOUGLASVILLE, GA, 30133","No_Match",NA,NA,NA,NA
996277,"PO BOX 78","EDMONSON","TX",79032,NA,NA,277,"PO BOX 78, EDMONSON, TX, 79032","No_Match",NA,NA,NA,NA
996278,"PO BOX 78","LAJAS","PR",667,NA,NA,278,"PO BOX 78, LAJAS, PR, 667","No_Match",NA,NA,NA,NA
996279,"PO BOX 78","LIBERTY HILL","TX",78642,NA,NA,279,"PO BOX 78, LIBERTY HILL, TX, 78642","No_Match",NA,NA,NA,NA
996280,"PO BOX 78","LIVINGSTON","NY",12541,NA,NA,280,"PO BOX 78, LIVINGSTON, NY, 12541","No_Match",NA,NA,NA,NA
996281,"PO BOX 78","MACCLESFIELD","NC",27852,NA,NA,281,"PO BOX 78, MACCLESFIELD, NC, 27852","No_Match",NA,NA,NA,NA
996282,"PO BOX 78","MACCLESFIELD","NC",27864,NA,NA,282,"PO BOX 78, MACCLESFIELD, NC, 27864","No_Match",NA,NA,NA,NA
996283,"PO BOX 78","MIDVALE","OH",44653,NA,NA,283,"PO BOX 78, MIDVALE, OH, 44653","No_Match",NA,NA,NA,NA
996284,"PO BOX 78","SAVAGE","MT",59262,NA,NA,284,"PO BOX 78, SAVAGE, MT, 59262","No_Match",NA,NA,NA,NA
996285,"PO BOX 78","TOWNSEND","WI",54175,NA,NA,285,"PO BOX 78, TOWNSEND, WI, 54175","No_Match",NA,NA,NA,NA
996286,"PO BOX 78","WORTON","MD",21678,NA,NA,286,"PO BOX 78, WORTON, MD, 21678","No_Match",NA,NA,NA,NA
996287,"PO BOX 780","CEDAR HILL","TX",75106,NA,NA,287,"PO BOX 780, CEDAR HILL, TX, 75106","No_Match",NA,NA,NA,NA
996288,"PO BOX 780","HARPER","OR",97906,NA,NA,288,"PO BOX 780, HARPER, OR, 97906","No_Match",NA,NA,NA,NA
996289,"PO BOX 780","HUNTSVILLE","AL",35804,NA,NA,289,"PO BOX 780, HUNTSVILLE, AL, 35804","No_Match",NA,NA,NA,NA
996290,"PO BOX 780","KAPAA","HI",96746,NA,NA,290,"PO BOX 780, KAPAA, HI, 96746","No_Match",NA,NA,NA,NA
996291,"PO BOX 780","ROGERS","TX",76569,NA,NA,291,"PO BOX 780, ROGERS, TX, 76569","No_Match",NA,NA,NA,NA
996292,"PO BOX 780","TEKOA","WA",99033,NA,NA,292,"PO BOX 780, TEKOA, WA, 99033","No_Match",NA,NA,NA,NA
996293,"PO BOX 780026","ORLANDO","FL",32878,NA,NA,293,"PO BOX 780026, ORLANDO, FL, 32878","No_Match",NA,NA,NA,NA
996294,"PO BOX 780112","WICHITA","KS",67278,NA,NA,294,"PO BOX 780112, WICHITA, KS, 67278","No_Match",NA,NA,NA,NA
996295,"PO BOX 780123","MASPETH","NY",11378,NA,NA,295,"PO BOX 780123, MASPETH, NY, 11378","No_Match",NA,NA,NA,NA
996296,"PO BOX 780248","TALLASSEE","AL",36078,NA,NA,296,"PO BOX 780248, TALLASSEE, AL, 36078","No_Match",NA,NA,NA,NA
996297,"PO BOX 780250","TALLASSEE","AL",36078,NA,NA,297,"PO BOX 780250, TALLASSEE, AL, 36078","No_Match",NA,NA,NA,NA
996298,"PO BOX 7804","CAGUAS","PR",726,NA,NA,298,"PO BOX 7804, CAGUAS, PR, 726","No_Match",NA,NA,NA,NA
996299,"PO BOX 780406","WICHITA","KS",67278,NA,NA,299,"PO BOX 780406, WICHITA, KS, 67278","No_Match",NA,NA,NA,NA
996300,"PO BOX 780513","ORLANDO","FL",32828,NA,NA,300,"PO BOX 780513, ORLANDO, FL, 32828","No_Match",NA,NA,NA,NA
996301,"PO BOX 780542","SAN ANTONIO","TX",78278,NA,NA,301,"PO BOX 780542, SAN ANTONIO, TX, 78278","No_Match",NA,NA,NA,NA
996302,"PO BOX 780546","MASPETH","NY",11378,NA,NA,302,"PO BOX 780546, MASPETH, NY, 11378","No_Match",NA,NA,NA,NA
996303,"PO BOX 780547","TALLASSEE","AL",36078,NA,NA,303,"PO BOX 780547, TALLASSEE, AL, 36078","No_Match",NA,NA,NA,NA
996304,"PO BOX 780573","SAN ANTONIO","TX",78278,NA,NA,304,"PO BOX 780573, SAN ANTONIO, TX, 78278","No_Match",NA,NA,NA,NA
996305,"PO BOX 780631","ORLANDO","FL",32878,NA,NA,305,"PO BOX 780631, ORLANDO, FL, 32878","No_Match",NA,NA,NA,NA
996306,"PO BOX 780674","SAN ANTONIO","TX",78278,NA,NA,306,"PO BOX 780674, SAN ANTONIO, TX, 78278","No_Match",NA,NA,NA,NA
996307,"PO BOX 780716","SEBASTIAN","FL",32967,NA,NA,307,"PO BOX 780716, SEBASTIAN, FL, 32967","No_Match",NA,NA,NA,NA
996308,"PO BOX 780716","SEBASTIAN","FL",32978,NA,NA,308,"PO BOX 780716, SEBASTIAN, FL, 32978","No_Match",NA,NA,NA,NA
996309,"PO BOX 780822","ORLANDO","FL",32878,NA,NA,309,"PO BOX 780822, ORLANDO, FL, 32878","No_Match",NA,NA,NA,NA
996310,"PO BOX 7809","DALLAS","TX",75209,NA,NA,310,"PO BOX 7809, DALLAS, TX, 75209","No_Match",NA,NA,NA,NA
996311,"PO BOX 781","BURNSIDE","KY",42519,NA,NA,311,"PO BOX 781, BURNSIDE, KY, 42519","No_Match",NA,NA,NA,NA
996312,"PO BOX 781","HARLEM","MT",59526,NA,NA,312,"PO BOX 781, HARLEM, MT, 59526","No_Match",NA,NA,NA,NA
996313,"PO BOX 781","MONETTE","AR",72447,NA,NA,313,"PO BOX 781, MONETTE, AR, 72447","No_Match",NA,NA,NA,NA
996314,"PO BOX 781","PIE TOWN","NM",87827,NA,NA,314,"PO BOX 781, PIE TOWN, NM, 87827","No_Match",NA,NA,NA,NA
996315,"PO BOX 781","SAYVILLE","NY",11782,NA,NA,315,"PO BOX 781, SAYVILLE, NY, 11782","No_Match",NA,NA,NA,NA
996316,"PO BOX 781","SOCORRO","NM",87801,NA,NA,316,"PO BOX 781, SOCORRO, NM, 87801","No_Match",NA,NA,NA,NA
996317,"PO BOX 781","SQUAW VALLEY","CA",93675,NA,NA,317,"PO BOX 781, SQUAW VALLEY, CA, 93675","No_Match",NA,NA,NA,NA
996318,"PO BOX 781","TRACYTON","WA",98383,NA,NA,318,"PO BOX 781, TRACYTON, WA, 98383","No_Match",NA,NA,NA,NA
996319,"PO BOX 781","WAKEFIELD","RI",2880,NA,NA,319,"PO BOX 781, WAKEFIELD, RI, 2880","No_Match",NA,NA,NA,NA
996320,"PO BOX 781","WEST JEFFERSON","NC",28694,NA,NA,320,"PO BOX 781, WEST JEFFERSON, NC, 28694","No_Match",NA,NA,NA,NA
996321,"PO BOX 781051","ORLANDO","FL",32878,NA,NA,321,"PO BOX 781051, ORLANDO, FL, 32878","No_Match",NA,NA,NA,NA
996322,"PO BOX 781091","INDIANAPOLIS","IN",46278,NA,NA,322,"PO BOX 781091, INDIANAPOLIS, IN, 46278","No_Match",NA,NA,NA,NA
996323,"PO BOX 7811","ANN ARBOR","MI",48107,NA,NA,323,"PO BOX 7811, ANN ARBOR, MI, 48107","No_Match",NA,NA,NA,NA
996324,"PO BOX 781133","INDIANAPOLIS","IN",46278,NA,NA,324,"PO BOX 781133, INDIANAPOLIS, IN, 46278","No_Match",NA,NA,NA,NA
996325,"PO BOX 781166","LOS ANGELES","CA",90016,NA,NA,325,"PO BOX 781166, LOS ANGELES, CA, 90016","No_Match",NA,NA,NA,NA
996326,"PO BOX 781213","SAN ANTONIO","TX",78278,NA,NA,326,"PO BOX 781213, SAN ANTONIO, TX, 78278","No_Match",NA,NA,NA,NA
996327,"PO BOX 781248","SEBASTIAN","FL",32978,NA,NA,327,"PO BOX 781248, SEBASTIAN, FL, 32978","No_Match",NA,NA,NA,NA
996328,"PO BOX 7813","NEW YORK","NY",10116,NA,NA,328,"PO BOX 7813, NEW YORK, NY, 10116","No_Match",NA,NA,NA,NA
996329,"PO BOX 78155","SEATTLE","WA",98178,NA,NA,329,"PO BOX 78155, SEATTLE, WA, 98178","No_Match",NA,NA,NA,NA
996330,"PO BOX 78176","SAN ANTONIO","TX",78278,NA,NA,330,"PO BOX 78176, SAN ANTONIO, TX, 78278","No_Match",NA,NA,NA,NA
996331,"PO BOX 7818","BEND","OR",97708,NA,NA,331,"PO BOX 7818, BEND, OR, 97708","No_Match",NA,NA,NA,NA
996332,"PO BOX 7818","TORRANCE","CA",90504,NA,NA,332,"PO BOX 7818, TORRANCE, CA, 90504","No_Match",NA,NA,NA,NA
996333,"PO BOX 782","CARLIN","NV",89822,NA,NA,333,"PO BOX 782, CARLIN, NV, 89822","No_Match",NA,NA,NA,NA
996334,"PO BOX 782","CODY","WY",82414,NA,NA,334,"PO BOX 782, CODY, WY, 82414","No_Match",NA,NA,NA,NA
996335,"PO BOX 782","GOOCHLAND","VA",23063,NA,NA,335,"PO BOX 782, GOOCHLAND, VA, 23063","No_Match",NA,NA,NA,NA
996336,"PO BOX 782","KELLER","TX",76244,NA,NA,336,"PO BOX 782, KELLER, TX, 76244","No_Match",NA,NA,NA,NA
996337,"PO BOX 782","LA HABRA","CA",90633,NA,NA,337,"PO BOX 782, LA HABRA, CA, 90633","No_Match",NA,NA,NA,NA
996338,"PO BOX 782","MODESTO","CA",95353,NA,NA,338,"PO BOX 782, MODESTO, CA, 95353","No_Match",NA,NA,NA,NA
996339,"PO BOX 782","PEQUOT LAKES","MN",56472,NA,NA,339,"PO BOX 782, PEQUOT LAKES, MN, 56472","No_Match",NA,NA,NA,NA
996340,"PO BOX 782","SALOME","AZ",85348,NA,NA,340,"PO BOX 782, SALOME, AZ, 85348","No_Match",NA,NA,NA,NA
996341,"PO BOX 782","SOUTH CLE ELUM","WA",98943,NA,NA,341,"PO BOX 782, SOUTH CLE ELUM, WA, 98943","No_Match",NA,NA,NA,NA
996342,"PO BOX 782","WESTHAMPTON","NY",11977,NA,NA,342,"PO BOX 782, WESTHAMPTON, NY, 11977","No_Match",NA,NA,NA,NA
996343,"PO BOX 782","WINTER PARK","FL",32789,NA,NA,343,"PO BOX 782, WINTER PARK, FL, 32789","No_Match",NA,NA,NA,NA
996344,"PO BOX 782","WINTER PARK","FL",32790,NA,NA,344,"PO BOX 782, WINTER PARK, FL, 32790","No_Match",NA,NA,NA,NA
996345,"PO BOX 7823","CHARLOTTE","NC",28241,NA,NA,345,"PO BOX 7823, CHARLOTTE, NC, 28241","No_Match",NA,NA,NA,NA
996346,"PO BOX 782315","SAN ANTONIO","TX",78278,NA,NA,346,"PO BOX 782315, SAN ANTONIO, TX, 78278","No_Match",NA,NA,NA,NA
996347,"PO BOX 78240","SHREVEPORT","LA",71137,NA,NA,347,"PO BOX 78240, SHREVEPORT, LA, 71137","No_Match",NA,NA,NA,NA
996348,"PO BOX 782467","WICHITA","KS",67278,NA,NA,348,"PO BOX 782467, WICHITA, KS, 67278","No_Match",NA,NA,NA,NA
996349,"PO BOX 782824","WICHITA","KS",67278,NA,NA,349,"PO BOX 782824, WICHITA, KS, 67278","No_Match",NA,NA,NA,NA
996350,"PO BOX 78283","LOS ANGELES","CA",90016,NA,NA,350,"PO BOX 78283, LOS ANGELES, CA, 90016","No_Match",NA,NA,NA,NA
996351,"PO BOX 783 306 STAFFORD","EDNA","TX",77957,28.9303324040001,-96.6536722389999,351,"PO BOX 783 306 STAFFORD, EDNA, TX, 77957","Match","Non_Exact","783 CO RD 306, EDNA, TX, 77957",42116734,"R"
996352,"PO BOX 783","BIG TIMBER","MT",59011,NA,NA,352,"PO BOX 783, BIG TIMBER, MT, 59011","No_Match",NA,NA,NA,NA
996353,"PO BOX 783","CANTON","TX",75103,NA,NA,353,"PO BOX 783, CANTON, TX, 75103","No_Match",NA,NA,NA,NA
996354,"PO BOX 783","CAREFREE","AZ",85377,NA,NA,354,"PO BOX 783, CAREFREE, AZ, 85377","No_Match",NA,NA,NA,NA
996355,"PO BOX 783","CAROGA LAKE","NY",12032,NA,NA,355,"PO BOX 783, CAROGA LAKE, NY, 12032","No_Match",NA,NA,NA,NA
996356,"PO BOX 783","EPPING","NH",3042,NA,NA,356,"PO BOX 783, EPPING, NH, 3042","No_Match",NA,NA,NA,NA
996357,"PO BOX 783","PINOLE","CA",94564,NA,NA,357,"PO BOX 783, PINOLE, CA, 94564","No_Match",NA,NA,NA,NA
996358,"PO BOX 783","PROSPER","TX",75078,NA,NA,358,"PO BOX 783, PROSPER, TX, 75078","No_Match",NA,NA,NA,NA
996359,"PO BOX 783","WEIMAR","CA",95736,NA,NA,359,"PO BOX 783, WEIMAR, CA, 95736","No_Match",NA,NA,NA,NA
996360,"PO BOX 78302","ATLANTA","GA",30357,NA,NA,360,"PO BOX 78302, ATLANTA, GA, 30357","No_Match",NA,NA,NA,NA
996361,"PO BOX 7831","SAVANNAH","GA",31418,NA,NA,361,"PO BOX 7831, SAVANNAH, GA, 31418","No_Match",NA,NA,NA,NA
996362,"PO BOX 7831","WARNER ROBINS","GA",31095,NA,NA,362,"PO BOX 7831, WARNER ROBINS, GA, 31095","No_Match",NA,NA,NA,NA
996363,"PO BOX 783188","WICHITA","KS",67278,NA,NA,363,"PO BOX 783188, WICHITA, KS, 67278","No_Match",NA,NA,NA,NA
996364,"PO BOX 78331","LOS ANGELES","CA",90016,NA,NA,364,"PO BOX 78331, LOS ANGELES, CA, 90016","No_Match",NA,NA,NA,NA
996365,"PO BOX 78358","SEATTLE","WA",98178,NA,NA,365,"PO BOX 78358, SEATTLE, WA, 98178","No_Match",NA,NA,NA,NA
996366,"PO BOX 784","ANKENY","IA",50021,NA,NA,366,"PO BOX 784, ANKENY, IA, 50021","No_Match",NA,NA,NA,NA
996367,"PO BOX 784","ATLANTA","TX",75551,NA,NA,367,"PO BOX 784, ATLANTA, TX, 75551","No_Match",NA,NA,NA,NA
996368,"PO BOX 784","COLUMBIA","NC",27925,NA,NA,368,"PO BOX 784, COLUMBIA, NC, 27925","No_Match",NA,NA,NA,NA
996369,"PO BOX 784","DEMOPOLIS","AL",36732,NA,NA,369,"PO BOX 784, DEMOPOLIS, AL, 36732","No_Match",NA,NA,NA,NA
996370,"PO BOX 784","DORSET","VT",5251,NA,NA,370,"PO BOX 784, DORSET, VT, 5251","No_Match",NA,NA,NA,NA
996371,"PO BOX 784","EAGLE LAKE","TX",77434,NA,NA,371,"PO BOX 784, EAGLE LAKE, TX, 77434","No_Match",NA,NA,NA,NA
996372,"PO BOX 784","ELEELE","HI",96705,NA,NA,372,"PO BOX 784, ELEELE, HI, 96705","No_Match",NA,NA,NA,NA
996373,"PO BOX 784","HARRISONBURG","VA",22803,NA,NA,373,"PO BOX 784, HARRISONBURG, VA, 22803","No_Match",NA,NA,NA,NA
996374,"PO BOX 784","LAND O' LAKES","FL",34639,NA,NA,374,"PO BOX 784, LAND O' LAKES, FL, 34639","No_Match",NA,NA,NA,NA
996375,"PO BOX 784","LIBERTY","KY",42539,NA,NA,375,"PO BOX 784, LIBERTY, KY, 42539","No_Match",NA,NA,NA,NA
996376,"PO BOX 784","MALIBU","CA",90265,NA,NA,376,"PO BOX 784, MALIBU, CA, 90265","No_Match",NA,NA,NA,NA
996377,"PO BOX 784","MORENCI","AZ",85540,NA,NA,377,"PO BOX 784, MORENCI, AZ, 85540","No_Match",NA,NA,NA,NA
996378,"PO BOX 784","ONEONTA","NY",13820,NA,NA,378,"PO BOX 784, ONEONTA, NY, 13820","No_Match",NA,NA,NA,NA
996379,"PO BOX 784","PLACITAS","NM",87043,NA,NA,379,"PO BOX 784, PLACITAS, NM, 87043","No_Match",NA,NA,NA,NA
996380,"PO BOX 784","TAHOE CITY","CA",96145,NA,NA,380,"PO BOX 784, TAHOE CITY, CA, 96145","No_Match",NA,NA,NA,NA
996381,"PO BOX 784","TUXEDO PARK","NY",10987,NA,NA,381,"PO BOX 784, TUXEDO PARK, NY, 10987","No_Match",NA,NA,NA,NA
996382,"PO BOX 784","WEST JEFFERSON","NC",28694,NA,NA,382,"PO BOX 784, WEST JEFFERSON, NC, 28694","No_Match",NA,NA,NA,NA
996383,"PO BOX 7840","WILMINGTON","NC",28406,NA,NA,383,"PO BOX 7840, WILMINGTON, NC, 28406","No_Match",NA,NA,NA,NA
996384,"PO BOX 78435","SEATTLE","WA",98178,NA,NA,384,"PO BOX 78435, SEATTLE, WA, 98178","No_Match",NA,NA,NA,NA
996385,"PO BOX 784779","WINTER GARDEN","FL",34778,NA,NA,385,"PO BOX 784779, WINTER GARDEN, FL, 34778","No_Match",NA,NA,NA,NA
996386,"PO BOX 784881","WINTER GARDEN","FL",34787,NA,NA,386,"PO BOX 784881, WINTER GARDEN, FL, 34787","No_Match",NA,NA,NA,NA
996387,"PO BOX 785","ALACHUA","FL",32616,NA,NA,387,"PO BOX 785, ALACHUA, FL, 32616","No_Match",NA,NA,NA,NA
996388,"PO BOX 785","AROMAS","CA",95004,NA,NA,388,"PO BOX 785, AROMAS, CA, 95004","No_Match",NA,NA,NA,NA
996389,"PO BOX 785","CORRALES","NM",87048,NA,NA,389,"PO BOX 785, CORRALES, NM, 87048","No_Match",NA,NA,NA,NA
996390,"PO BOX 785","FRANKLINTON","NC",27525,NA,NA,390,"PO BOX 785, FRANKLINTON, NC, 27525","No_Match",NA,NA,NA,NA
996391,"PO BOX 785","HENDERSON","NC",27536,NA,NA,391,"PO BOX 785, HENDERSON, NC, 27536","No_Match",NA,NA,NA,NA
996392,"PO BOX 785","HUDSON","NY",12534,NA,NA,392,"PO BOX 785, HUDSON, NY, 12534","No_Match",NA,NA,NA,NA
996393,"PO BOX 785","KINGSTREE","SC",29556,NA,NA,393,"PO BOX 785, KINGSTREE, SC, 29556","No_Match",NA,NA,NA,NA
996394,"PO BOX 785","SEWARD","AK",99664,NA,NA,394,"PO BOX 785, SEWARD, AK, 99664","No_Match",NA,NA,NA,NA
996395,"PO BOX 785","THATCHER","AZ",85552,NA,NA,395,"PO BOX 785, THATCHER, AZ, 85552","No_Match",NA,NA,NA,NA
996396,"PO BOX 785","WILLSBORO","NY",12996,NA,NA,396,"PO BOX 785, WILLSBORO, NY, 12996","No_Match",NA,NA,NA,NA
996397,"PO BOX 785","WORTH","IL",60482,NA,NA,397,"PO BOX 785, WORTH, IL, 60482","No_Match",NA,NA,NA,NA
996398,"PO BOX 7851","ST PAUL","MN",55107,NA,NA,398,"PO BOX 7851, ST PAUL, MN, 55107","No_Match",NA,NA,NA,NA
996399,"PO BOX 786","BRADY","TX",76825,NA,NA,399,"PO BOX 786, BRADY, TX, 76825","No_Match",NA,NA,NA,NA
996400,"PO BOX 786","CORVALLIS","OR",97339,NA,NA,400,"PO BOX 786, CORVALLIS, OR, 97339","No_Match",NA,NA,NA,NA
996401,"PO BOX 786","EDMOND","OK",73083,NA,NA,401,"PO BOX 786, EDMOND, OK, 73083","No_Match",NA,NA,NA,NA
996402,"PO BOX 786","FORKED RIVER","NJ",8731,NA,NA,402,"PO BOX 786, FORKED RIVER, NJ, 8731","No_Match",NA,NA,NA,NA
996403,"PO BOX 786","FRANCONIA","NH",3580,NA,NA,403,"PO BOX 786, FRANCONIA, NH, 3580","No_Match",NA,NA,NA,NA
996404,"PO BOX 786","HOT SPRINGS","MT",59845,NA,NA,404,"PO BOX 786, HOT SPRINGS, MT, 59845","No_Match",NA,NA,NA,NA
996405,"PO BOX 786","LOMPOC","CA",93438,NA,NA,405,"PO BOX 786, LOMPOC, CA, 93438","No_Match",NA,NA,NA,NA
996406,"PO BOX 786","LORANGER","LA",70446,NA,NA,406,"PO BOX 786, LORANGER, LA, 70446","No_Match",NA,NA,NA,NA
996407,"PO BOX 786","NORTH SAN JUAN","CA",95960,NA,NA,407,"PO BOX 786, NORTH SAN JUAN, CA, 95960","No_Match",NA,NA,NA,NA
996408,"PO BOX 786","PATUXENT RIVER","MD",20670,NA,NA,408,"PO BOX 786, PATUXENT RIVER, MD, 20670","No_Match",NA,NA,NA,NA
996409,"PO BOX 786","SARATOGA SPRINGS","NY",12866,NA,NA,409,"PO BOX 786, SARATOGA SPRINGS, NY, 12866","No_Match",NA,NA,NA,NA
996410,"PO BOX 78614","SHREVEPORT","LA",71137,NA,NA,410,"PO BOX 78614, SHREVEPORT, LA, 71137","No_Match",NA,NA,NA,NA
996411,"PO BOX 78625","CHARLOTTE","NC",28271,NA,NA,411,"PO BOX 78625, CHARLOTTE, NC, 28271","No_Match",NA,NA,NA,NA
996412,"PO BOX 7863","ATLANTA","GA",30309,NA,NA,412,"PO BOX 7863, ATLANTA, GA, 30309","No_Match",NA,NA,NA,NA
996413,"PO BOX 7864","WESTCHESTER","IL",60154,NA,NA,413,"PO BOX 7864, WESTCHESTER, IL, 60154","No_Match",NA,NA,NA,NA
996414,"PO BOX 78653","CHARLOTTE","NC",28271,NA,NA,414,"PO BOX 78653, CHARLOTTE, NC, 28271","No_Match",NA,NA,NA,NA
996415,"PO BOX 78662","SEATTLE","WA",98118,NA,NA,415,"PO BOX 78662, SEATTLE, WA, 98118","No_Match",NA,NA,NA,NA
996416,"PO BOX 7868","MAMMOTH LAKES","CA",93546,NA,NA,416,"PO BOX 7868, MAMMOTH LAKES, CA, 93546","No_Match",NA,NA,NA,NA
996417,"PO BOX 787 LAGOS NIGERIA","FESTAC",NA,NA,NA,NA,417,"PO BOX 787 LAGOS NIGERIA, FESTAC, , ","No_Match",NA,NA,NA,NA
996418,"PO BOX 787","ENUMCLAW","WA",98022,NA,NA,418,"PO BOX 787, ENUMCLAW, WA, 98022","No_Match",NA,NA,NA,NA
996419,"PO BOX 787","KEY WEST","FL",33040,NA,NA,419,"PO BOX 787, KEY WEST, FL, 33040","No_Match",NA,NA,NA,NA
996420,"PO BOX 787","MCHENRY","MD",21541,NA,NA,420,"PO BOX 787, MCHENRY, MD, 21541","No_Match",NA,NA,NA,NA
996421,"PO BOX 787","NEW BOSTON","TX",75570,NA,NA,421,"PO BOX 787, NEW BOSTON, TX, 75570","No_Match",NA,NA,NA,NA
996422,"PO BOX 787","ONALASKA","WA",98570,NA,NA,422,"PO BOX 787, ONALASKA, WA, 98570","No_Match",NA,NA,NA,NA
996423,"PO BOX 787","PHILLIPSBURG","MO",65722,NA,NA,423,"PO BOX 787, PHILLIPSBURG, MO, 65722","No_Match",NA,NA,NA,NA
996424,"PO BOX 787","WELCH","LA",70591,NA,NA,424,"PO BOX 787, WELCH, LA, 70591","No_Match",NA,NA,NA,NA
996425,"PO BOX 78713","ATLANTA","GA",30357,NA,NA,425,"PO BOX 78713, ATLANTA, GA, 30357","No_Match",NA,NA,NA,NA
996426,"PO BOX 7873","BLOOMINGTON","IN",47407,NA,NA,426,"PO BOX 7873, BLOOMINGTON, IN, 47407","No_Match",NA,NA,NA,NA
996427,"PO BOX 7874","GARDEN CITY","NY",11552,NA,NA,427,"PO BOX 7874, GARDEN CITY, NY, 11552","No_Match",NA,NA,NA,NA
996428,"PO BOX 7874","VISALIA","CA",93290,NA,NA,428,"PO BOX 7874, VISALIA, CA, 93290","No_Match",NA,NA,NA,NA
996429,"PO BOX 7875","ASPEN","CO",81612,NA,NA,429,"PO BOX 7875, ASPEN, CO, 81612","No_Match",NA,NA,NA,NA
996430,"PO BOX 7878","PINE BLUFF","AR",71611,NA,NA,430,"PO BOX 7878, PINE BLUFF, AR, 71611","No_Match",NA,NA,NA,NA
996431,"PO BOX 788","DEER PARK","WA",99006,NA,NA,431,"PO BOX 788, DEER PARK, WA, 99006","No_Match",NA,NA,NA,NA
996432,"PO BOX 788","LOREAUVILLE","LA",70552,NA,NA,432,"PO BOX 788, LOREAUVILLE, LA, 70552","No_Match",NA,NA,NA,NA
996433,"PO BOX 788","MERRILL","OR",97633,NA,NA,433,"PO BOX 788, MERRILL, OR, 97633","No_Match",NA,NA,NA,NA
996434,"PO BOX 788","NORTH OLMSTEAD","OH",44070,NA,NA,434,"PO BOX 788, NORTH OLMSTEAD, OH, 44070","No_Match",NA,NA,NA,NA
996435,"PO BOX 788","OCOEE","FL",34761,NA,NA,435,"PO BOX 788, OCOEE, FL, 34761","No_Match",NA,NA,NA,NA
996436,"PO BOX 788","REIDSVILLE","GA",30453,NA,NA,436,"PO BOX 788, REIDSVILLE, GA, 30453","No_Match",NA,NA,NA,NA
996437,"PO BOX 788","SOMONAUK","IL",60552,NA,NA,437,"PO BOX 788, SOMONAUK, IL, 60552","No_Match",NA,NA,NA,NA
996438,"PO BOX 788","WOODSTOCK","GA",30188,NA,NA,438,"PO BOX 788, WOODSTOCK, GA, 30188","No_Match",NA,NA,NA,NA
996439,"PO BOX 788","YORK","AL",36925,NA,NA,439,"PO BOX 788, YORK, AL, 36925","No_Match",NA,NA,NA,NA
996440,"PO BOX 78835","LOS ANGELES","CA",90016,NA,NA,440,"PO BOX 78835, LOS ANGELES, CA, 90016","No_Match",NA,NA,NA,NA
996441,"PO BOX 7887","CHANDLER","AZ",85224,NA,NA,441,"PO BOX 7887, CHANDLER, AZ, 85224","No_Match",NA,NA,NA,NA
996442,"PO BOX 78891","LOS ANGELES","CA",90016,NA,NA,442,"PO BOX 78891, LOS ANGELES, CA, 90016","No_Match",NA,NA,NA,NA
996443,"PO BOX 789","BALDWIN","GA",30511,NA,NA,443,"PO BOX 789, BALDWIN, GA, 30511","No_Match",NA,NA,NA,NA
996444,"PO BOX 789","CHARLESTOWN","NH",3603,NA,NA,444,"PO BOX 789, CHARLESTOWN, NH, 3603","No_Match",NA,NA,NA,NA
996445,"PO BOX 789","EDGARD","LA",70049,NA,NA,445,"PO BOX 789, EDGARD, LA, 70049","No_Match",NA,NA,NA,NA
996446,"PO BOX 789","FAYETTEVILLE","WV",25840,NA,NA,446,"PO BOX 789, FAYETTEVILLE, WV, 25840","No_Match",NA,NA,NA,NA
996447,"PO BOX 789","HIGH SPRINGS","FL",32655,NA,NA,447,"PO BOX 789, HIGH SPRINGS, FL, 32655","No_Match",NA,NA,NA,NA
996448,"PO BOX 789","LITTLEFIELD","TX",79339,NA,NA,448,"PO BOX 789, LITTLEFIELD, TX, 79339","No_Match",NA,NA,NA,NA
996449,"PO BOX 789","MILLS","WY",82644,NA,NA,449,"PO BOX 789, MILLS, WY, 82644","No_Match",NA,NA,NA,NA
996450,"PO BOX 789","OAKHURST","NJ",7755,NA,NA,450,"PO BOX 789, OAKHURST, NJ, 7755","No_Match",NA,NA,NA,NA
996451,"PO BOX 789","SUMMIT","SD",57266,NA,NA,451,"PO BOX 789, SUMMIT, SD, 57266","No_Match",NA,NA,NA,NA
996452,"PO BOX 7891  PMB 221","GUAYNABO","PR",970,NA,NA,452,"PO BOX 7891  PMB 221, GUAYNABO, PR, 970","No_Match",NA,NA,NA,NA
996453,"PO BOX 7891 PMB 221","GUAYNABO","PR",970,NA,NA,453,"PO BOX 7891 PMB 221, GUAYNABO, PR, 970","No_Match",NA,NA,NA,NA
996454,"PO BOX 7893","PORTSMOUTH","VA",23707,NA,NA,454,"PO BOX 7893, PORTSMOUTH, VA, 23707","No_Match",NA,NA,NA,NA
996455,"PO BOX 7894","SPRINGFIELD","OR",97475,NA,NA,455,"PO BOX 7894, SPRINGFIELD, OR, 97475","No_Match",NA,NA,NA,NA
996456,"PO BOX 7897","COVINGTON","WA",98042,NA,NA,456,"PO BOX 7897, COVINGTON, WA, 98042","No_Match",NA,NA,NA,NA
996457,"PO BOX 79","CEDARVILLE","NJ",8311,NA,NA,457,"PO BOX 79, CEDARVILLE, NJ, 8311","No_Match",NA,NA,NA,NA
996458,"PO BOX 79","EASTMAN","WI",54626,NA,NA,458,"PO BOX 79, EASTMAN, WI, 54626","No_Match",NA,NA,NA,NA
996459,"PO BOX 79","FINLEY","OK",74543,NA,NA,459,"PO BOX 79, FINLEY, OK, 74543","No_Match",NA,NA,NA,NA
996460,"PO BOX 79","KANSAS","OK",74347,NA,NA,460,"PO BOX 79, KANSAS, OK, 74347","No_Match",NA,NA,NA,NA
996461,"PO BOX 79","NARBERTH","PA",19072,NA,NA,461,"PO BOX 79, NARBERTH, PA, 19072","No_Match",NA,NA,NA,NA
996462,"PO BOX 79","WAIANAE","HI",96792,NA,NA,462,"PO BOX 79, WAIANAE, HI, 96792","No_Match",NA,NA,NA,NA
996463,"PO BOX 790","CLAYTON","CA",94517,NA,NA,463,"PO BOX 790, CLAYTON, CA, 94517","No_Match",NA,NA,NA,NA
996464,"PO BOX 790","COLLEGE PARK","MD",20741,NA,NA,464,"PO BOX 790, COLLEGE PARK, MD, 20741","No_Match",NA,NA,NA,NA
996465,"PO BOX 790","DUBLIN","VA",24084,NA,NA,465,"PO BOX 790, DUBLIN, VA, 24084","No_Match",NA,NA,NA,NA
996466,"PO BOX 790","EASTON","WA",98925,NA,NA,466,"PO BOX 790, EASTON, WA, 98925","No_Match",NA,NA,NA,NA
996467,"PO BOX 790","ESPANOLA","NM",87532,NA,NA,467,"PO BOX 790, ESPANOLA, NM, 87532","No_Match",NA,NA,NA,NA
996468,"PO BOX 790","FRIENDSWOOD","TX",77549,NA,NA,468,"PO BOX 790, FRIENDSWOOD, TX, 77549","No_Match",NA,NA,NA,NA
996469,"PO BOX 790","GLENNALLEN","AK",99588,NA,NA,469,"PO BOX 790, GLENNALLEN, AK, 99588","No_Match",NA,NA,NA,NA
996470,"PO BOX 790","GLENWOOD SPRINGS","CO",81601,NA,NA,470,"PO BOX 790, GLENWOOD SPRINGS, CO, 81601","No_Match",NA,NA,NA,NA
996471,"PO BOX 790","GLENWOOD SPRINGS","CO",81602,NA,NA,471,"PO BOX 790, GLENWOOD SPRINGS, CO, 81602","No_Match",NA,NA,NA,NA
996472,"PO BOX 790","LAVONIA","GA",30553,NA,NA,472,"PO BOX 790, LAVONIA, GA, 30553","No_Match",NA,NA,NA,NA
996473,"PO BOX 790","NORTHFIELD","NJ",8225,NA,NA,473,"PO BOX 790, NORTHFIELD, NJ, 8225","No_Match",NA,NA,NA,NA
996474,"PO BOX 790232","VIGIN","UT",84779,NA,NA,474,"PO BOX 790232, VIGIN, UT, 84779","No_Match",NA,NA,NA,NA
996475,"PO BOX 7904","COLUMBIA","SC",29201,NA,NA,475,"PO BOX 7904, COLUMBIA, SC, 29201","No_Match",NA,NA,NA,NA
996476,"PO BOX 790681","PAIA","HI",96779,NA,NA,476,"PO BOX 790681, PAIA, HI, 96779","No_Match",NA,NA,NA,NA
996477,"PO BOX 790805","PAIA","HI",96779,NA,NA,477,"PO BOX 790805, PAIA, HI, 96779","No_Match",NA,NA,NA,NA
996478,"PO BOX 790890","PAIA","HI",96779,NA,NA,478,"PO BOX 790890, PAIA, HI, 96779","No_Match",NA,NA,NA,NA
996479,"PO BOX 791","BARRANQUITAS","PR",794,NA,NA,479,"PO BOX 791, BARRANQUITAS, PR, 794","No_Match",NA,NA,NA,NA
996480,"PO BOX 791","BROOKLANDVILLE","MD",21022,NA,NA,480,"PO BOX 791, BROOKLANDVILLE, MD, 21022","No_Match",NA,NA,NA,NA
996481,"PO BOX 791","BROWNS MILLS","NJ",8015,NA,NA,481,"PO BOX 791, BROWNS MILLS, NJ, 8015","No_Match",NA,NA,NA,NA
996482,"PO BOX 791","BRYN MAWR","PA",19010,NA,NA,482,"PO BOX 791, BRYN MAWR, PA, 19010","No_Match",NA,NA,NA,NA
996483,"PO BOX 791","DRYDEN","VA",24243,NA,NA,483,"PO BOX 791, DRYDEN, VA, 24243","No_Match",NA,NA,NA,NA
996484,"PO BOX 791","HANALEI","HI",96714,NA,NA,484,"PO BOX 791, HANALEI, HI, 96714","No_Match",NA,NA,NA,NA
996485,"PO BOX 791","HOODSPORT","WA",98548,NA,NA,485,"PO BOX 791, HOODSPORT, WA, 98548","No_Match",NA,NA,NA,NA
996486,"PO BOX 791","LAURENS","SC",29360,NA,NA,486,"PO BOX 791, LAURENS, SC, 29360","No_Match",NA,NA,NA,NA
996487,"PO BOX 791","LIBERTY LAKE","WA",99019,NA,NA,487,"PO BOX 791, LIBERTY LAKE, WA, 99019","No_Match",NA,NA,NA,NA
996488,"PO BOX 791","MONTEREY","CA",93942,NA,NA,488,"PO BOX 791, MONTEREY, CA, 93942","No_Match",NA,NA,NA,NA
996489,"PO BOX 791","ONTARIO","OR",97914,NA,NA,489,"PO BOX 791, ONTARIO, OR, 97914","No_Match",NA,NA,NA,NA
996490,"PO BOX 791","WENATCHEE","WA",98807,NA,NA,490,"PO BOX 791, WENATCHEE, WA, 98807","No_Match",NA,NA,NA,NA
996491,"PO BOX 7911","NORTH PORT","FL",34290,NA,NA,491,"PO BOX 7911, NORTH PORT, FL, 34290","No_Match",NA,NA,NA,NA
996492,"PO BOX 7911","WOODLAND PARK","CO",80863,NA,NA,492,"PO BOX 7911, WOODLAND PARK, CO, 80863","No_Match",NA,NA,NA,NA
996493,"PO BOX 79115","GREENSBORO","NC",27417,NA,NA,493,"PO BOX 79115, GREENSBORO, NC, 27417","No_Match",NA,NA,NA,NA
996494,"PO BOX 79123","ATLANTA","GA",30357,NA,NA,494,"PO BOX 79123, ATLANTA, GA, 30357","No_Match",NA,NA,NA,NA
996495,"PO BOX 791385","PAIA","HI",96779,NA,NA,495,"PO BOX 791385, PAIA, HI, 96779","No_Match",NA,NA,NA,NA
996496,"PO BOX 7914","BEND","OR",97708,NA,NA,496,"PO BOX 7914, BEND, OR, 97708","No_Match",NA,NA,NA,NA
996497,"PO BOX 791641","NEW ORLEANS","LA",70719,NA,NA,497,"PO BOX 791641, NEW ORLEANS, LA, 70719","No_Match",NA,NA,NA,NA
996498,"PO BOX 791651","SAN ANTONIO","TX",78279,NA,NA,498,"PO BOX 791651, SAN ANTONIO, TX, 78279","No_Match",NA,NA,NA,NA
996499,"PO BOX 791657","PAIA","HI",96779,NA,NA,499,"PO BOX 791657, PAIA, HI, 96779","No_Match",NA,NA,NA,NA
996500,"PO BOX 791864","PAIA","HI",96779,NA,NA,500,"PO BOX 791864, PAIA, HI, 96779","No_Match",NA,NA,NA,NA
