"ID","Address","City","State","Zip","lat","long","id","input_address","match_indicator","match_type","matched_address","tiger_line_id","tiger_side"
654001,"4656 W SCHULTZ RD","LAPORTE","IN",46350,41.658642227,-86.790356634,1,"4656 W SCHULTZ RD, LAPORTE, IN, 46350","Match","Exact","4656 W SCHULTZ RD, LAPORTE, IN, 46350",645469071,"R"
654002,"4656 W SCHULTZ RD","LAPORTE","IN",46360,41.658642227,-86.790356634,2,"4656 W SCHULTZ RD, LAPORTE, IN, 46360","Match","Non_Exact","4656 W SCHULTZ RD, LAPORTE, IN, 46350",645469071,"R"
654003,"4656 WALES DRIVE","PLANO","TX",75024,33.065638522,-96.790139983,3,"4656 WALES DRIVE, PLANO, TX, 75024","Match","Exact","4656 WALES DR, PLANO, TX, 75024",123530587,"R"
654004,"4656 WEST 3855 SOUTH","WEST VALLEY CITY","UT",84120,40.687958549,-112.002491394,4,"4656 WEST 3855 SOUTH, WEST VALLEY CITY, UT, 84120","Match","Exact","4656 W 3855 S, WEST VALLEY CITY, UT, 84120",176069360,"R"
654005,"4656 WOODHILL DRIVE","PITTSBURGH","PA",15120,40.379323453,-79.899034377,5,"4656 WOODHILL DRIVE, PITTSBURGH, PA, 15120","Match","Non_Exact","4656 WOODHILL DR, HOMESTEAD, PA, 15120",51655915,"R"
654006,"46561 WHITNEY RD","WELLINGTON","OH",44090,41.223479399,-82.228573324,6,"46561 WHITNEY RD, WELLINGTON, OH, 44090","Match","Exact","46561 WHITNEY RD, WELLINGTON, OH, 44090",55438909,"R"
654007,"46568 CHAPARRAL DRIVE","FREMONT","CA",94539,37.4972261820001,-121.911704152,7,"46568 CHAPARRAL DRIVE, FREMONT, CA, 94539","Match","Exact","46568 CHAPARRAL DR, FREMONT, CA, 94539",124990068,"L"
654008,"46569 HAMPSHIRE STATION DR","POTOMAC FALLS","VA",20165,39.0421291700001,-77.388887945,8,"46569 HAMPSHIRE STATION DR, POTOMAC FALLS, VA, 20165","Match","Exact","46569 HAMPSHIRE STATION DR, POTOMAC FALLS, VA, 20165",62340306,"L"
654009,"4656HWY 242W","HELENA","AR",72342,NA,NA,9,"4656HWY 242W, HELENA, AR, 72342","No_Match",NA,NA,NA,NA
654010,"4657 91ST AVE SE","MERCER ISLAND","WA",98040,47.562541793,-122.217579951,10,"4657 91ST AVE SE, MERCER ISLAND, WA, 98040","Match","Exact","4657 91ST AVE SE, MERCER ISLAND, WA, 98040",186959700,"R"
654011,"4657 BRECKINRIDGE CT","TRACY","CA",95377,37.697708832,-121.443761088,11,"4657 BRECKINRIDGE CT, TRACY, CA, 95377","Match","Exact","4657 BRECKINRIDGE CT, TRACY, CA, 95377",133922570,"R"
654012,"4657 DAVENPORT AVE","OAKLAND","CA",94619,37.788181235,-122.183562706,12,"4657 DAVENPORT AVE, OAKLAND, CA, 94619","Match","Exact","4657 DAVENPORT AVE, OAKLAND, CA, 94619",125004823,"R"
654013,"4657 E ODESSA DRIVE","SAN TAN VALLEY","AZ",85140,33.227250053,-111.515678435,13,"4657 E ODESSA DRIVE, SAN TAN VALLEY, AZ, 85140","Match","Exact","4657 ODESSA DR, SAN TAN VALLEY, AZ, 85140",624651465,"R"
654014,"4657 ELM STREET","BUCHEL","OH",45716,NA,NA,14,"4657 ELM STREET, BUCHEL, OH, 45716","No_Match",NA,NA,NA,NA
654015,"4657 GESNER PL","SAN DIEGO","CA",92117,32.792823909,-117.199486343,15,"4657 GESNER PL, SAN DIEGO, CA, 92117","Match","Exact","4657 GESNER PL, SAN DIEGO, CA, 92117",195304158,"R"
654016,"4657 HILLMA DR SW","BIRMINGHAM","AL",35221,NA,NA,16,"4657 HILLMA DR SW, BIRMINGHAM, AL, 35221","No_Match",NA,NA,NA,NA
654017,"4657 KIRBY AVE","CINCINNATI","OH",45223,39.175546985,-84.5492185099999,17,"4657 KIRBY AVE, CINCINNATI, OH, 45223","Match","Exact","4657 KIRBY AVE, CINCINNATI, OH, 45223",103921361,"L"
654018,"4657 KIRBY AVE","CINCINNATI","OH",NA,39.175546985,-84.5492185099999,18,"4657 KIRBY AVE, CINCINNATI, OH, ","Match","Exact","4657 KIRBY AVE, CINCINNATI, OH, 45223",103921361,"L"
654019,"4657 KY 556","SANDY HOOK","KY",41171,38.106583034,-83.1888895069999,19,"4657 KY 556, SANDY HOOK, KY, 41171","Match","Non_Exact","4657 KY 556, SANDY HOOK, KY, 41171",39519318,"R"
654020,"4657 N BEARLILY WAY","CASTLE ROCK","CO",80109,39.408951931,-104.898005232,20,"4657 N BEARLILY WAY, CASTLE ROCK, CO, 80109","Match","Exact","4657 N BEARLILY WAY, CASTLE ROCK, CO, 80109",130821475,"R"
654021,"4657 PALMBROOKE CIRCLE","WEST PALM BEACH","FL",33417,26.7491001450001,-80.112197297,21,"4657 PALMBROOKE CIRCLE, WEST PALM BEACH, FL, 33417","Match","Exact","4657 PALMBROOKE CIR, WEST PALM BEACH, FL, 33417",115581419,"R"
654022,"4657 PERSIMMON PL","SAN JOSE","CA",95129,37.3162807100001,-121.984799628,22,"4657 PERSIMMON PL, SAN JOSE, CA, 95129","Match","Exact","4657 PERSIMMON PL, SAN JOSE, CA, 95129",122899978,"L"
654023,"4657 RIO AVENUE","LONG BEACH","CA",90805,33.8426182630001,-118.19377248,23,"4657 RIO AVENUE, LONG BEACH, CA, 90805","Match","Non_Exact","4657 N RIO AVE, LONG BEACH, CA, 90805",141818616,"L"
654024,"4657 S MERIDIAN ROAD","MOUNT PLEASANT","MI",48858,43.5725144,-84.847760905,24,"4657 S MERIDIAN ROAD, MOUNT PLEASANT, MI, 48858","Match","Exact","4657 S MERIDIAN RD, MOUNT PLEASANT, MI, 48858",110218397,"R"
654025,"4657 S TABOR WAY","MORRISON","CO",80465,39.6340915910001,-105.132325906,25,"4657 S TABOR WAY, MORRISON, CO, 80465","Match","Exact","4657 S TABOR WAY, MORRISON, CO, 80465",177754466,"R"
654026,"4657 W MADISON 3R","CHICAGO","IL",60644,NA,NA,26,"4657 W MADISON 3R, CHICAGO, IL, 60644","No_Match",NA,NA,NA,NA
654027,"4657 WATERS ROAD","WOODSTOCK","GA",30188,34.133123686,-84.428695965,27,"4657 WATERS ROAD, WOODSTOCK, GA, 30188","Match","Exact","4657 WATERS RD, WOODSTOCK, GA, 30188",646132084,"R"
654028,"46573 BONAPARTE DR","MACOMB","MI",48044,42.641578313,-82.902032575,28,"46573 BONAPARTE DR, MACOMB, MI, 48044","Match","Exact","46573 BONAPARTE DR, MACOMB, MI, 48044",110705153,"R"
654029,"46574 ERB DR","MACOMB","MI",48042,42.6418457780001,-82.857863902,29,"46574 ERB DR, MACOMB, MI, 48042","Match","Exact","46574 ERB DR, MACOMB, MI, 48042",110664415,"L"
654030,"46574 ERB ST","MACOMB","MI",48042,42.6418457780001,-82.857863902,30,"46574 ERB ST, MACOMB, MI, 48042","Match","Non_Exact","46574 ERB DR, MACOMB, MI, 48042",110664415,"L"
654031,"46577 MISSOURI ST LOT 40","BURBANK","SD",57010,42.7334434800001,-96.8844927439999,31,"46577 MISSOURI ST LOT 40, BURBANK, SD, 57010","Match","Exact","46577 MISSOURI ST, BURBANK, SD, 57010",172955418,"L"
654032,"46577 MISSOURI ST LOT 70","BURBANK","SD",57010,42.7334434800001,-96.8844927439999,32,"46577 MISSOURI ST LOT 70, BURBANK, SD, 57010","Match","Exact","46577 MISSOURI ST, BURBANK, SD, 57010",172955418,"L"
654033,"4658 200TH AVE","REED CITY","MI",49677,43.8831332610001,-85.483265064,33,"4658 200TH AVE, REED CITY, MI, 49677","Match","Non_Exact","4658 S 200TH AVE, REED CITY, MI, 49677",635519410,"R"
654034,"4658 36th St South","Arlington","VA",22206,38.833368122,-77.0943674379999,34,"4658 36th St South, Arlington, VA, 22206","Match","Exact","4658 36TH ST S, ARLINGTON, VA, 22206",635443896,"L"
654035,"4658 36TH ST SOUTH","ARLINGTON","VA",22206,38.833368122,-77.0943674379999,35,"4658 36TH ST SOUTH, ARLINGTON, VA, 22206","Match","Exact","4658 36TH ST S, ARLINGTON, VA, 22206",635443896,"L"
654036,"4658 BATTENBURG LANE","FAIRFAX","VA",22030,38.850028857,-77.364914174,36,"4658 BATTENBURG LANE, FAIRFAX, VA, 22030","Match","Exact","4658 BATTENBURG LN, FAIRFAX, VA, 22030",618969259,"L"
654037,"4658 BELVEDERE CIRCLE","PACE","FL",32571,30.608124946,-87.153399469,37,"4658 BELVEDERE CIRCLE, PACE, FL, 32571","Match","Exact","4658 BELVEDERE CIR, PACE, FL, 32571",617982569,"R"
654038,"4658 CAMP CREEK LN","ORANGE PARK","FL",32065,30.144628686,-81.8612902849999,38,"4658 CAMP CREEK LN, ORANGE PARK, FL, 32065","Match","Exact","4658 CAMP CREEK LN, ORANGE PARK, FL, 32065",610526636,"R"
654039,"4658 CARLTON DUNES DRIVE  UNIT 11","AMELIA ISLAND","FL",32034,30.5976768840001,-81.444459235,39,"4658 CARLTON DUNES DRIVE  UNIT 11, AMELIA ISLAND, FL, 32034","Match","Non_Exact","4658 CARLTON DUNES, AMELIA ISLAND, FL, 32034",610868486,"L"
654040,"4658 E KINGS AVE","PHOENIX","AZ",85032,33.63666979,-111.980645469,40,"4658 E KINGS AVE, PHOENIX, AZ, 85032","Match","Exact","4658 E KINGS AVE, PHOENIX, AZ, 85032",128186337,"R"
654041,"4658 E KINGS AVE","PHOENIX",NA,NA,33.636669845,-111.980665674,41,"4658 E KINGS AVE, PHOENIX, , ","Match","Exact","4658 E KINGS AVE, PHOENIX, AZ, 85032",128186337,"R"
654042,"4658 ELM STREET","WEST DES MOINES","IA",50265,41.574430254,-93.765079578,42,"4658 ELM STREET, WEST DES MOINES, IA, 50265","Match","Exact","4658 ELM ST, W DES MOINES, IA, 50265",65853007,"L"
654043,"4658 GLENLEIGH DRIVE SW","MABLETON","GA",30126,33.8416803260001,-84.556222544,43,"4658 GLENLEIGH DRIVE SW, MABLETON, GA, 30126","Match","Exact","4658 GLENLEIGH DR SW, MABLETON, GA, 30126",17258697,"L"
654044,"4658 HICKORY POINTE BLVD","YPSILANTI","MI",48197,42.215262409,-83.667026596,44,"4658 HICKORY POINTE BLVD, YPSILANTI, MI, 48197","Match","Exact","4658 HICKORY POINTE BLVD, YPSILANTI, MI, 48197",26034770,"L"
654045,"4658 HWY 92   PO BOX 242","BROOKLYN","WI",53521,42.8526960300001,-89.361204135,45,"4658 HWY 92   PO BOX 242, BROOKLYN, WI, 53521","Match","Non_Exact","4658 STATE HWY 92, BROOKLYN, WI, 53521",649023466,"L"
654046,"4658 IVORY CT NE","SALEM","OR",97305,44.9842909640001,-122.969904053,46,"4658 IVORY CT NE, SALEM, OR, 97305","Match","Exact","4658 IVORY CT NE, SALEM, OR, 97305",156252380,"R"
654047,"4658 JACKAM RIDGE COURT","LITHONIA","GA",30038,33.6369418,-84.133704907,47,"4658 JACKAM RIDGE COURT, LITHONIA, GA, 30038","Match","Exact","4658 JACKAM RIDGE CT, LITHONIA, GA, 30038",635317747,"R"
654048,"4658 L B MCLEOD RD","ORLANDO","FL",32811,28.5082498400001,-81.440382474,48,"4658 L B MCLEOD RD, ORLANDO, FL, 32811","Match","Exact","4658 L B MCLEOD RD, ORLANDO, FL, 32811",94274150,"L"
654049,"4658 LAMPLIGHT LANE SE APT 24","GRAND RAPIDS","MI",49546,42.915848232,-85.552164125,49,"4658 LAMPLIGHT LANE SE APT 24, GRAND RAPIDS, MI, 49546","Match","Exact","4658 LAMPLIGHT LN SE, GRAND RAPIDS, MI, 49546",12479599,"R"
654050,"4658 MASON STREET","OMAHA","NE",68106,41.249697944,-95.9838015669999,50,"4658 MASON STREET, OMAHA, NE, 68106","Match","Exact","4658 MASON ST, OMAHA, NE, 68106",116983510,"R"
654051,"4658 N COURTNEY","TUCSON","AZ",85705,32.291928237,-111.006633295,51,"4658 N COURTNEY, TUCSON, AZ, 85705","Match","Non_Exact","4658 COURTNEY DR, TUCSON, AZ, 85705",121160601,"R"
654052,"4658 NORTHWOOD TER","SARASOTA","FL",34234,27.373164762,-82.512298946,52,"4658 NORTHWOOD TER, SARASOTA, FL, 34234","Match","Exact","4658 NORTHWOOD TER, SARASOTA, FL, 34234",16349250,"R"
654053,"4658 SEARS RD","COLUMBUS","GA",31907,32.5113811480001,-84.903862268,53,"4658 SEARS RD, COLUMBUS, GA, 31907","Match","Exact","4658 SEARS RD, COLUMBUS, GA, 31907",98946159,"R"
654054,"4658 SOUTH MICHIGAN AVE","CHICAGO","IL",60653,41.8100554320001,-87.622861168,54,"4658 SOUTH MICHIGAN AVE, CHICAGO, IL, 60653","Match","Exact","4658 S MICHIGAN AVE, CHICAGO, IL, 60653",111770575,"R"
654055,"4658 WESCOTT","CASPER","WY",82609,NA,NA,55,"4658 WESCOTT, CASPER, WY, 82609","No_Match",NA,NA,NA,NA
654056,"4658 WEYBURN LANE","STONE MOUNTAIN","GA",30083,33.752055354,-84.2000313569999,56,"4658 WEYBURN LANE, STONE MOUNTAIN, GA, 30083","Match","Exact","4658 WEYBURN LN, STONE MOUNTAIN, GA, 30083",23372022,"L"
654057,"46580 COUNTY ROAD 4","COPE","CO",80812,39.6260809410001,-102.829792691,57,"46580 COUNTY ROAD 4, COPE, CO, 80812","Match","Exact","46580 CO RD 4, COPE, CO, 80812",635478329,"L"
654058,"46585 E TEA CUP RANCH RD","FLORENCE","AZ",85132,33.010892245,-111.065207162,58,"46585 E TEA CUP RANCH RD, FLORENCE, AZ, 85132","Match","Exact","46585 E TEA CUP RANCH RD, FLORENCE, AZ, 85132",129373810,"R"
654059,"4659 126TH DRIVE NORTH","WEST PALM BEACH",NA,NA,26.7459597050001,-80.241627213,59,"4659 126TH DRIVE NORTH, WEST PALM BEACH, , ","Match","Exact","4659 126TH DR N, WEST PALM BEACH, FL, 33411",115535738,"R"
654060,"4659 CHAPEL RIDGE DR","GREENSBORO","NC",27405,36.141572792,-79.763726807,60,"4659 CHAPEL RIDGE DR, GREENSBORO, NC, 27405","Match","Exact","4659 CHAPEL RIDGE DR, GREENSBORO, NC, 27405",623949540,"L"
654061,"4659 CHRISTY WAY","CASTRO VALLEY","CA",94546,NA,NA,61,"4659 CHRISTY WAY, CASTRO VALLEY, CA, 94546","No_Match",NA,NA,NA,NA
654062,"4659 HAMBONE TR","VERNON","FL",32462,30.582697302,-85.8296931209999,62,"4659 HAMBONE TR, VERNON, FL, 32462","Match","Exact","4659 HAMBONE TRL, VERNON, FL, 32462",33064070,"R"
654063,"4659 HIGHWAY 68","SALEM","MO",65560,37.719332706,-91.551227528,63,"4659 HIGHWAY 68, SALEM, MO, 65560","Match","Non_Exact","4659 STATE HWY 68, SALEM, MO, 65560",45208874,"L"
654064,"4659 JEFFERSON AVE","SOUTH OGDEN","UT",84403,41.177670504,-111.963775005,64,"4659 JEFFERSON AVE, SOUTH OGDEN, UT, 84403","Match","Exact","4659 JEFFERSON AVE, SOUTH OGDEN, UT, 84403",155707577,"L"
654065,"4659 LAMAR AVENUE","SUITLAND","MD",20746,38.8551032820001,-76.9250173089999,65,"4659 LAMAR AVENUE, SUITLAND, MD, 20746","Match","Exact","4659 LAMAR AVE, SUITLAND, MD, 20746",76314428,"R"
654066,"4659 N 144TH AVE","WALKERVILLE","MI",49459,43.7273763790001,-86.197990475,66,"4659 N 144TH AVE, WALKERVILLE, MI, 49459","Match","Exact","4659 N 144TH AVE, WALKERVILLE, MI, 49459",163691641,"L"
654067,"4659 N 38TH STREET","MILWAUKEE","WI",53209,43.101820967,-87.960374037,67,"4659 N 38TH STREET, MILWAUKEE, WI, 53209","Match","Non_Exact","4659 N 38TH ST, MILWAUKEE, WI, 53209",77737327,"L"
654068,"4659 N CAMPBELL UNIT 2","CHICAGO","IL",60625,NA,NA,68,"4659 N CAMPBELL UNIT 2, CHICAGO, IL, 60625","No_Match",NA,NA,NA,NA
654069,"4659 OAKLAND CIR","PENSACOLA","FL",32526,30.4510033330001,-87.305309199,69,"4659 OAKLAND CIR, PENSACOLA, FL, 32526","Match","Exact","4659 OAKLAND CIR, PENSACOLA, FL, 32526",93212234,"L"
654070,"4659 QUEENS GROVE STREET","WHITE PLAINS","MD",20695,38.613401063,-77.027598418,70,"4659 QUEENS GROVE STREET, WHITE PLAINS, MD, 20695","Match","Exact","4659 QUEENS GROVE ST, WHITE PLAINS, MD, 20695",25428279,"L"
654071,"4659 QUEENS GROVE","WHITEPLAINS","MD",20695,38.613401063,-77.027598418,71,"4659 QUEENS GROVE, WHITEPLAINS, MD, 20695","Match","Non_Exact","4659 QUEENS GROVE ST, WHITE PLAINS, MD, 20695",25428279,"L"
654072,"4659 RUBY LN","FOREST PARK","GA",30297,33.6272019080001,-84.369316434,72,"4659 RUBY LN, FOREST PARK, GA, 30297","Match","Exact","4659 RUBY LN, FOREST PARK, GA, 30297",23314271,"R"
654073,"4659 S DREXEL AVE APT 612","CHICAGO","IL",60653,NA,NA,73,"4659 S DREXEL AVE APT 612, CHICAGO, IL, 60653","No_Match",NA,NA,NA,NA
654074,"4659 S ROMANO","MESA","AZ",85212,33.3302209920001,-111.59662807,74,"4659 S ROMANO, MESA, AZ, 85212","Match","Exact","4659 S ROMANO, MESA, AZ, 85212",616712754,"L"
654075,"4659 SMITH STEWART RD","VIENNA","OH",44473,41.20883904,-80.650052499,75,"4659 SMITH STEWART RD, VIENNA, OH, 44473","Match","Non_Exact","4659 SMITH-STEWART RD, VIENNA, OH, 44473",633563686,"L"
654076,"4659 SOUTH DREXEL BLVD APT 313","CHICAGO","IL",60653,41.809993493,-87.6038945189999,76,"4659 SOUTH DREXEL BLVD APT 313, CHICAGO, IL, 60653","Match","Exact","4659 S DREXEL BLVD, CHICAGO, IL, 60653",605499745,"L"
654077,"4659 SOUTH QUAIL VISTA LN UNIT B","SALT LAKE CITY","UT",84117,NA,NA,77,"4659 SOUTH QUAIL VISTA LN UNIT B, SALT LAKE CITY, UT, 84117","Tie",NA,NA,NA,NA
654078,"4659 STAR CORAL DRIVE","ORLANDO","FL",32818,28.5768623770001,-81.441991144,78,"4659 STAR CORAL DRIVE, ORLANDO, FL, 32818","Match","Non_Exact","4659 STAR CORAL DR, ORLANDO, FL, 32808",640933596,"R"
654079,"4659 SW 40TH PLACE","OCALA","FL",34474,29.147560523,-82.199491452,79,"4659 SW 40TH PLACE, OCALA, FL, 34474","Match","Exact","4659 SW 40TH PL, OCALA, FL, 34474",624768418,"R"
654080,"4659 TRAIL NORTH","WEST PALM BEACH","FL",33411,NA,NA,80,"4659 TRAIL NORTH, WEST PALM BEACH, FL, 33411","No_Match",NA,NA,NA,NA
654081,"46597 PASEO PADRE PKWY","FREMONT","CA",94539,NA,NA,81,"46597 PASEO PADRE PKWY, FREMONT, CA, 94539","No_Match",NA,NA,NA,NA
654082,"465A HALSEY STREET","BROOKLYN","NY",11233,40.6836375280001,-73.9339903869999,82,"465A HALSEY STREET, BROOKLYN, NY, 11233","Match","Exact","465 HALSEY ST, BROOKLYN, NY, 11233",59082768,"L"
654083,"466 5TH AVE N","ST PETERSBURG","FL",33705,27.77754903,-82.63979592,83,"466 5TH AVE N, ST PETERSBURG, FL, 33705","Match","Non_Exact","466 5TH AVE N, SAINT PETERSBURG, FL, 33701",124707286,"L"
654084,"466 ALBERT MANN ROAD","NEW HOPE","AL",35760,34.543742104,-86.366126973,84,"466 ALBERT MANN ROAD, NEW HOPE, AL, 35760","Match","Exact","466 ALBERT MANN RD, NEW HOPE, AL, 35760",58179807,"R"
654085,"466 ALLEN ST","IONIA","MI",48846,42.9904464840001,-85.051790596,85,"466 ALLEN ST, IONIA, MI, 48846","Match","Exact","466 ALLEN ST, IONIA, MI, 48846",12145090,"R"
654086,"466 ATLANTIC AVENUE","MASSAPEQUA PARK","NY",11762,40.699180358,-73.439892051,86,"466 ATLANTIC AVENUE, MASSAPEQUA PARK, NY, 11762","Match","Exact","466 ATLANTIC AVE, MASSAPEQUA PARK, NY, 11762",147690547,"L"
654087,"466 AVENUE E","BAYONNE","NJ",7002,40.669524202,-74.1102274679999,87,"466 AVENUE E, BAYONNE, NJ, 7002","Match","Exact","466 AVENUE E, BAYONNE, NJ, 07002",59603520,"R"
654088,"466 BETHUNE DRIVE","WILMINGTON","DE",19801,39.7067753690001,-75.553554371,88,"466 BETHUNE DRIVE, WILMINGTON, DE, 19801","Match","Exact","466 BETHUNE DR, WILMINGTON, DE, 19801",187269836,"R"
654089,"466 BLACK FEATHER LOOP 520","CASTLE ROCK","CO",80104,39.3993374140001,-104.858833754,89,"466 BLACK FEATHER LOOP 520, CASTLE ROCK, CO, 80104","Match","Exact","466 BLACK FEATHER LOOP, CASTLE ROCK, CO, 80104",649665878,"R"
654090,"466 BLACKWOLF DR","SPRINGFIELD","IL",62711,NA,NA,90,"466 BLACKWOLF DR, SPRINGFIELD, IL, 62711","No_Match",NA,NA,NA,NA
654091,"466 BLAISDELL DR","DELAWARE","OH",43015,40.3078092700001,-83.116871615,91,"466 BLAISDELL DR, DELAWARE, OH, 43015","Match","Exact","466 BLAISDELL DR, DELAWARE, OH, 43015",24606557,"L"
654092,"466 BONNIE PEARL LN","CLEVELAND","GA",30528,34.584121716,-83.706220792,92,"466 BONNIE PEARL LN, CLEVELAND, GA, 30528","Match","Exact","466 BONNIE PEARL LN, CLEVELAND, GA, 30528",89044018,"R"
654093,"466 BORONDA ROAD","SALINAS","CA",93907,36.7027408020001,-121.674473782,93,"466 BORONDA ROAD, SALINAS, CA, 93907","Match","Exact","466 BORONDA RD, SALINAS, CA, 93907",196819019,"L"
654094,"466 BOSTON RD","SUTTON","MA",1590,42.137784314,-71.784753607,94,"466 BOSTON RD, SUTTON, MA, 1590","Match","Exact","466 BOSTON RD, SUTTON, MA, 01590",40091313,"L"
654095,"466 BOWLING GREEN ROAD","MONTGOMERY","AL",36109,32.387745523,-86.229252753,95,"466 BOWLING GREEN ROAD, MONTGOMERY, AL, 36109","Match","Non_Exact","466 BOWLING GREEN DR, MONTGOMERY, AL, 36109",1487672,"R"
654096,"466 BROADWAY SPC 12","CHULA VISTA","CA",91910,32.632201717,-117.089939248,96,"466 BROADWAY SPC 12, CHULA VISTA, CA, 91910","Match","Exact","466 BROADWAY, CHULA VISTA, CA, 91910",195684988,"R"
654097,"466 CALVIN ROAD","GROSSE POINTE FARMS","MI",48236,42.4116004040001,-82.911126581,97,"466 CALVIN ROAD, GROSSE POINTE FARMS, MI, 48236","Match","Non_Exact","466 CALVIN AVE, GROSSE POINTE FARMS, MI, 48236",95720385,"R"
654098,"466 CAPITOL VIEW DR","COLUMBUS","OH",43203,39.9747891550001,-82.975798802,98,"466 CAPITOL VIEW DR, COLUMBUS, OH, 43203","Match","Exact","466 CAPITOL VIEW DR, COLUMBUS, OH, 43203",135707103,"L"
654099,"466 CARROLL STREET","ORANGE","NJ",7050,40.7864730210001,-74.2219510479999,99,"466 CARROLL STREET, ORANGE, NJ, 7050","Match","Exact","466 CARROLL ST, ORANGE, NJ, 07050",646935290,"R"
654100,"466 CARTER AVENUE SE","ATLANTA","GA",30317,33.7391862210001,-84.305099366,100,"466 CARTER AVENUE SE, ATLANTA, GA, 30317","Match","Exact","466 CARTER AVE SE, ATLANTA, GA, 30317",23401104,"L"
654101,"466 CHEROKEE TRAIL DRIVE","UNION","MO",63084,NA,NA,101,"466 CHEROKEE TRAIL DRIVE, UNION, MO, 63084","No_Match",NA,NA,NA,NA
654102,"466 CHESTNUT STREET","NUTLEY","NJ",7110,40.822191811,-74.167179532,102,"466 CHESTNUT STREET, NUTLEY, NJ, 7110","Match","Exact","466 CHESTNUT ST, NUTLEY, NJ, 07110",63452987,"R"
654103,"466 CLARA DR","RIVERDALE","GA",30274,33.550915681,-84.3753869079999,103,"466 CLARA DR, RIVERDALE, GA, 30274","Match","Exact","466 CLARA DR, RIVERDALE, GA, 30274",23316344,"L"
654104,"466 CLEVELAND STREET","BROOKLYN","NY",11208,40.673210673,-73.884111412,104,"466 CLEVELAND STREET, BROOKLYN, NY, 11208","Match","Exact","466 CLEVELAND ST, BROOKLYN, NY, 11208",652209119,"R"
654105,"466 CLUB TRAIL APT 6","MELBOURNE","FL",32907,28.0513442820001,-80.6277582279999,105,"466 CLUB TRAIL APT 6, MELBOURNE, FL, 32907","Match","Non_Exact","466 CLUB TRL, MELBOURNE, FL, 32901",636365789,"L"
654106,"466 COMMONWEALTH RD","WAYLAND","MA",1778,42.3275494800001,-71.333138517,106,"466 COMMONWEALTH RD, WAYLAND, MA, 1778","Match","Exact","466 COMMONWEALTH RD, WAYLAND, MA, 01778",86852424,"R"
654107,"466 CONGRESS AVENUE","INDIANAPOLIS","IN",46208,39.8122720690001,-86.16733821,107,"466 CONGRESS AVENUE, INDIANAPOLIS, IN, 46208","Match","Exact","466 CONGRESS AVE, INDIANAPOLIS, IN, 46208",107988861,"R"
654108,"466 COPPER CREEK CIR","POOLER","GA",31322,32.138765585,-81.263841118,108,"466 COPPER CREEK CIR, POOLER, GA, 31322","Match","Exact","466 COPPER CREEK CIR, POOLER, GA, 31322",634549210,"R"
654109,"466 COUNTY ROAD 2320","DECATUR","TX",76234,33.255100251,-97.442783084,109,"466 COUNTY ROAD 2320, DECATUR, TX, 76234","Match","Exact","466 CO RD 2320, DECATUR, TX, 76234",103683092,"R"
654110,"466 COUNTY ROAD 3266","COLMESNEIL","TX",75938,30.914153519,-94.3741167379999,110,"466 COUNTY ROAD 3266, COLMESNEIL, TX, 75938","Match","Exact","466 CO RD 3266, COLMESNEIL, TX, 75938",24405328,"R"
654111,"466 COUNTY ROAD 9","LYNN","AL",35575,34.086746879,-87.6069923649999,111,"466 COUNTY ROAD 9, LYNN, AL, 35575","Match","Exact","466 CO RD 9, LYNN, AL, 35575",650921587,"L"
654112,"466 CR 404","CARTHAGE","TX",75633,32.1254918070001,-94.314156757,112,"466 CR 404, CARTHAGE, TX, 75633","Match","Exact","466 CO RD 404, CARTHAGE, TX, 75633",636774690,"L"
654113,"466 CRESTVIEW DR NE","LANCASTER","OH",43130,39.7245865200001,-82.5594495459999,113,"466 CRESTVIEW DR NE, LANCASTER, OH, 43130","Match","Non_Exact","466 CRESTVIEW DR, LANCASTER, OH, 43130",37222141,"R"
654114,"466 CROOKED CRK","BUDA","TX",78610,30.091319852,-97.86270003,114,"466 CROOKED CRK, BUDA, TX, 78610","Match","Exact","466 CROOKED CREEK, BUDA, TX, 78610",627716022,"R"
654115,"466 CROSSINGS DR","WESTERVILLE","OH",43082,40.1373980810001,-82.927465218,115,"466 CROSSINGS DR, WESTERVILLE, OH, 43082","Match","Exact","466 CROSSINGS DR, WESTERVILLE, OH, 43082",24595492,"R"
654116,"466 DARLING FARM ROAD","CAMDEN-WYOMING","DE",19934,39.087874819,-75.677971282,116,"466 DARLING FARM ROAD, CAMDEN-WYOMING, DE, 19934","Match","Exact","466 DARLING FARM RD, CAMDEN WYOMING, DE, 19934",68108835,"R"
654117,"466 E ASPEN MEADOWS CT","SALT LAKE CITY","UT",84107,40.6844077740001,-111.877823211,117,"466 E ASPEN MEADOWS CT, SALT LAKE CITY, UT, 84107","Match","Exact","466 E ASPEN MEADOWS CT, SALT LAKE CITY, UT, 84107",627481865,"R"
654118,"466 E BURDICK ROAD","CHESTERTON","IN",46304,41.6009488380001,-86.97791218,118,"466 E BURDICK ROAD, CHESTERTON, IN, 46304","Match","Exact","466 E BURDICK RD, CHESTERTON, IN, 46304",119915116,"R"
654119,"466 E CAMINO BRAVO","NOGALES","AZ",85621,NA,NA,119,"466 E CAMINO BRAVO, NOGALES, AZ, 85621","No_Match",NA,NA,NA,NA
654120,"466 E NINEMILE RD","PENSACOLA","FL",32514,30.532887112,-87.256948473,120,"466 E NINEMILE RD, PENSACOLA, FL, 32514","Match","Non_Exact","466 E NINE MILE RD, PENSACOLA, FL, 32514",636361878,"L"
654121,"466 EAST 170TH STREET","SOUTH HOLLAND","IL",60473,41.586345099,-87.60476047,121,"466 EAST 170TH STREET, SOUTH HOLLAND, IL, 60473","Match","Exact","466 E 170TH ST, SOUTH HOLLAND, IL, 60473",111778953,"L"
654122,"466 EAST HIGH ST","CLAYTON","NJ",8312,39.6575019540001,-75.082473529,122,"466 EAST HIGH ST, CLAYTON, NJ, 8312","Match","Exact","466 E HIGH ST, CLAYTON, NJ, 08312",134590190,"R"
654123,"466 ENGLEWOOD CT","FORT WAYNE","IN",46807,41.0513241370001,-85.14381337,123,"466 ENGLEWOOD CT, FORT WAYNE, IN, 46807","Match","Exact","466 ENGLEWOOD CT, FORT WAYNE, IN, 46807",6382216,"R"
654124,"466 FALL CIRCLE","KYLE","TX",78640,29.982900284,-97.863693815,124,"466 FALL CIRCLE, KYLE, TX, 78640","Match","Exact","466 FALL CIR, KYLE, TX, 78640",63853354,"R"
654125,"466 FELTON DRIVE","MNELO PARK","CA",94025,37.460257196,-122.189743302,125,"466 FELTON DRIVE, MNELO PARK, CA, 94025","Match","Non_Exact","466 FELTON DR, MENLO PARK, CA, 94025",192364425,"R"
654126,"466 FIRETHORN TRAIL","DAKOTA DUNES","SD",57049,42.4888327690001,-96.500465983,126,"466 FIRETHORN TRAIL, DAKOTA DUNES, SD, 57049","Match","Exact","466 FIRETHORN TRL, DAKOTA DUNES, SD, 57049",176353703,"R"
654127,"466 FM 2808","KEMPNER","TX",76539,31.0770759700001,-97.985781456,127,"466 FM 2808, KEMPNER, TX, 76539","Match","Exact","466 FM 2808, KEMPNER, TX, 76539",146695134,"L"
654128,"466 FOOTHILL BLVD NO 374","LA CANADA","CA",91011,34.198930278,-118.188255441,128,"466 FOOTHILL BLVD NO 374, LA CANADA, CA, 91011","Match","Non_Exact","466 FOOTHILL BLVD, LA CANADA, CA, 91011",640107629,"L"
654129,"466 FOOTHILL BLVD UNIT 350","LA CANADA FLINTRIDGE","CA",91011,34.198930278,-118.188255441,129,"466 FOOTHILL BLVD UNIT 350, LA CANADA FLINTRIDGE, CA, 91011","Match","Exact","466 FOOTHILL BLVD, LA CANADA, CA, 91011",640107629,"L"
654130,"466 FOXDALL AVE NE","PALM BAY","FL",32907,28.006397114,-80.608372746,130,"466 FOXDALL AVE NE, PALM BAY, FL, 32907","Match","Exact","466 FOXDALL AVE NE, PALM BAY, FL, 32907",93910058,"R"
654131,"466 GARDENWOOD DRIVE","BOARDMAN","OH",44512,40.998023914,-80.6734168799999,131,"466 GARDENWOOD DRIVE, BOARDMAN, OH, 44512","Match","Exact","466 GARDENWOOD DR, BOARDMAN, OH, 44512",64599201,"R"
654132,"466 GENEVA AVE APT 1","DORCHESTER","MA",2122,42.2996261690001,-71.065023514,132,"466 GENEVA AVE APT 1, DORCHESTER, MA, 2122","Match","Exact","466 GENEVA AVE, DORCHESTER, MA, 02122",85702298,"L"
654133,"466 GIBSON AVENUE","PACIFIC GROVE","CA",93950,36.6151312430001,-121.916896591,133,"466 GIBSON AVENUE, PACIFIC GROVE, CA, 93950","Match","Exact","466 GIBSON AVE, PACIFIC GROVE, CA, 93950",196812793,"R"
654134,"466 GOLDEN WEST DRIVE","REDLANDS","CA",92373,NA,NA,134,"466 GOLDEN WEST DRIVE, REDLANDS, CA, 92373","No_Match",NA,NA,NA,NA
654135,"466 HARRISON ST","PASSAIC","NJ",7055,40.867042559,-74.1349362939999,135,"466 HARRISON ST, PASSAIC, NJ, 7055","Match","Exact","466 HARRISON ST, PASSAIC, NJ, 07055",65278583,"R"
654136,"466 HEMLOCK CIR SE","ATLANTA","GA",30316,33.740997667,-84.3512780899999,136,"466 HEMLOCK CIR SE, ATLANTA, GA, 30316","Match","Exact","466 HEMLOCK CIR SE, ATLANTA, GA, 30316",17358058,"L"
654137,"466 HIDDEN FALLS RD","TULLY","NY",13159,42.812099985,-76.159318261,137,"466 HIDDEN FALLS RD, TULLY, NY, 13159","Match","Exact","466 HIDDEN FALLS RD, TULLY, NY, 13159",46588522,"L"
654138,"466 HUNT STREET APT 604","CENTRAL FALLS","RI",2863,41.8920313180001,-71.397110341,138,"466 HUNT STREET APT 604, CENTRAL FALLS, RI, 2863","Match","Exact","466 HUNT ST, CENTRAL FALLS, RI, 02863",47455445,"L"
654139,"466 HUNT STREET APT 808","CENTRAL FALLS","RI",2863,41.8920313180001,-71.397110341,139,"466 HUNT STREET APT 808, CENTRAL FALLS, RI, 2863","Match","Exact","466 HUNT ST, CENTRAL FALLS, RI, 02863",47455445,"L"
654140,"466 HUNT STREET","CENTRAL FALLS","RI",2863,41.8920313180001,-71.397110341,140,"466 HUNT STREET, CENTRAL FALLS, RI, 2863","Match","Exact","466 HUNT ST, CENTRAL FALLS, RI, 02863",47455445,"L"
654141,"466 HUNTINGTON RIDGE DRIVE","NASHVILLE","TN",37211,36.0520813520001,-86.730007214,141,"466 HUNTINGTON RIDGE DRIVE, NASHVILLE, TN, 37211","Match","Exact","466 HUNTINGTON RIDGE DR, NASHVILLE, TN, 37211",636664411,"R"
654142,"466 JUSTICE ST","CEDAR HILL","TX",75104,32.5827948290001,-96.935652799,142,"466 JUSTICE ST, CEDAR HILL, TX, 75104","Match","Non_Exact","466 JUSTICE DR, CEDAR HILL, TX, 75104",103185740,"L"
654143,"466 KELLY STREET","MANCHESTER","NH",3102,42.9949959310001,-71.488464598,143,"466 KELLY STREET, MANCHESTER, NH, 3102","Match","Non_Exact","466 KELLEY ST, MANCHESTER, NH, 03102",113529584,"L"
654144,"466 LAMSON","BEDFORD","OH",44146,41.396714644,-81.540027467,144,"466 LAMSON, BEDFORD, OH, 44146","Match","Non_Exact","466 LAMSON AVE, BEDFORD, OH, 44146",61130070,"R"
654145,"466 LAUREL OAK DRIVE","MADISON","MS",39110,32.4711335600001,-90.114392208,145,"466 LAUREL OAK DRIVE, MADISON, MS, 39110","Match","Exact","466 LAUREL OAK DR, MADISON, MS, 39110",152482380,"R"
654146,"466 LAUREL PINE ROAD","CRESCO","PA",18326,41.178192521,-75.266002268,146,"466 LAUREL PINE ROAD, CRESCO, PA, 18326","Match","Exact","466 LAUREL PINE RD, CRESCO, PA, 18326",650756438,"R"
654147,"466 LIMA DRIVE","LEXINGTON","KY",40511,38.073787671,-84.510644746,147,"466 LIMA DRIVE, LEXINGTON, KY, 40511","Match","Exact","466 LIMA DR, LEXINGTON, KY, 40511",31955443,"R"
654148,"466 LINDA DRIVE","SAN ANTONIO","TX",78216,29.5006906400001,-98.4848492089999,148,"466 LINDA DRIVE, SAN ANTONIO, TX, 78216","Match","Exact","466 LINDA DR, SAN ANTONIO, TX, 78216",101497431,"R"
654149,"466 LUCY AVE","MEMPHIS","TN",38106,35.1140539290001,-90.0465695679999,149,"466 LUCY AVE, MEMPHIS, TN, 38106","Match","Exact","466 LUCY AVE, MEMPHIS, TN, 38106",72907645,"L"
654150,"466 MAGNOLIA","COSTA MESA","CA",92627,33.6327947390001,-117.906461106,150,"466 MAGNOLIA, COSTA MESA, CA, 92627","Match","Non_Exact","466 MAGNOLIA ST, COSTA MESA, CA, 92627",635436670,"L"
654151,"466 MIDDLETOWN AVE APT 19","NEW HAVEN","CT",6513,41.329672718,-72.876175965,151,"466 MIDDLETOWN AVE APT 19, NEW HAVEN, CT, 6513","Match","Exact","466 MIDDLETOWN AVE, NEW HAVEN, CT, 06513",3703317,"L"
654152,"466 MIDLAND STREET","LITTLE ROCK","AR",72205,34.754479227,-92.310683363,152,"466 MIDLAND STREET, LITTLE ROCK, AR, 72205","Match","Exact","466 MIDLAND ST, LITTLE ROCK, AR, 72205",83508685,"L"
654153,"466 MONCURE LANE","HENRICCO","NC",27842,36.538391075,-77.8867344129999,153,"466 MONCURE LANE, HENRICCO, NC, 27842","Match","Non_Exact","466 MONCURE DR, HENRICO, NC, 27842",54077118,"L"
654154,"466 MT IDA RD","LUVERNE","AL",36049,31.6976038600001,-86.2753086559999,154,"466 MT IDA RD, LUVERNE, AL, 36049","Match","Exact","466 MOUNT IDA RD, LUVERNE, AL, 36049",10433196,"L"
654155,"466 N 1ST ST","WOOD RIVER","IL",62095,38.8658475720001,-90.09596526,155,"466 N 1ST ST, WOOD RIVER, IL, 62095","Match","Exact","466 N 1ST ST, WOOD RIVER, IL, 62095",107684988,"L"
654156,"466 N BROADWAY","GLOUCESTER CITY","NJ",8030,39.9027263250001,-75.120148404,156,"466 N BROADWAY, GLOUCESTER CITY, NJ, 8030","Match","Exact","466 N BROADWAY, GLOUCESTER CITY, NJ, 08030",134346807,"R"
654157,"466 N CANYON VIEW DR","ELK RIDGE","UT",84651,40.007950341,-111.673340393,157,"466 N CANYON VIEW DR, ELK RIDGE, UT, 84651","Match","Non_Exact","466 S CANYON VIEW DR, ELK RIDGE, UT, 84651",134201103,"R"
654158,"466 N HENNINGER ST","MAYVILLE","WI",53050,43.502804025,-88.552495543,158,"466 N HENNINGER ST, MAYVILLE, WI, 53050","Match","Exact","466 N HENNINGER ST, MAYVILLE, WI, 53050",53539292,"R"
654159,"466 NORTH 1ST STREET","PONCHATOULA","LA",70454,30.4455004640001,-90.434896319,159,"466 NORTH 1ST STREET, PONCHATOULA, LA, 70454","Match","Exact","466 N 1ST ST, PONCHATOULA, LA, 70454",75775967,"R"
654160,"466 NORTHAMPTON STREET","EASTON","PA",18042,40.6910785960001,-75.212372541,160,"466 NORTHAMPTON STREET, EASTON, PA, 18042","Match","Exact","466 NORTHAMPTON ST, EASTON, PA, 18042",136884080,"L"
654161,"466 OAK GLEN DR","BALLWIN","MO",63021,38.5700119840001,-90.5307394549999,161,"466 OAK GLEN DR, BALLWIN, MO, 63021","Match","Exact","466 OAK GLEN DR, BALLWIN, MO, 63021",100168346,"L"
654162,"466 OCEAN PARKWAY 3RD FL","BROOKLYN","NY",11218,40.6371197230001,-73.973208886,162,"466 OCEAN PARKWAY 3RD FL, BROOKLYN, NY, 11218","Match","Exact","466 OCEAN PKWY, BROOKLYN, NY, 11218",59080762,"R"
654163,"466 OCEAN PARKWAY TOP FL","BROOKLYN","NY",11218,40.6371197230001,-73.973208886,163,"466 OCEAN PARKWAY TOP FL, BROOKLYN, NY, 11218","Match","Exact","466 OCEAN PKWY, BROOKLYN, NY, 11218",59080762,"R"
654164,"466 PARK AVENUE","VALPARAISO","IN",46385,41.473650476,-87.067872175,164,"466 PARK AVENUE, VALPARAISO, IN, 46385","Match","Exact","466 PARK AVE, VALPARAISO, IN, 46385",119913182,"L"
654165,"466 PERRY RD","SWAN LAKE","NY",12783,41.721516154,-74.8945427039999,165,"466 PERRY RD, SWAN LAKE, NY, 12783","Match","Exact","466 PERRY RD, SWAN LAKE, NY, 12783",128980718,"R"
654166,"466 PINE HILL ROAD","PLESANT VALLEY","NY",12569,41.7794749610001,-73.792471851,166,"466 PINE HILL ROAD, PLESANT VALLEY, NY, 12569","Match","Non_Exact","466 PINE HILL RD, PLEASANT VALLEY, NY, 12569",648853415,"R"
654167,"466 PUGH RD","WAYNE","PA",19087,40.066899907,-75.416506539,167,"466 PUGH RD, WAYNE, PA, 19087","Match","Exact","466 PUGH RD, WAYNE, PA, 19087",179534625,"R"
654168,"466 RABBIT RIDGE RD","ELKTON","KY",42220,37.0017012610001,-87.1461565069999,168,"466 RABBIT RIDGE RD, ELKTON, KY, 42220","Match","Exact","466 RABBIT RIDGE RD, ELKTON, KY, 42220",40374276,"R"
654169,"466 RAPHAEL AVE","BUFFALO GROVE","IL",60089,42.1619934400001,-87.9410313829999,169,"466 RAPHAEL AVE, BUFFALO GROVE, IL, 60089","Match","Exact","466 RAPHAEL AVE, BUFFALO GROVE, IL, 60089",119649762,"R"
654170,"466 REINHARD AVE","COL","OH",43206,39.943388456,-82.984136528,170,"466 REINHARD AVE, COL, OH, 43206","Match","Non_Exact","466 REINHARD AVE, COLUMBUS, OH, 43206",135580329,"L"
654171,"466 REINHARD AVE","COLUMBUS","OH",43206,39.943388456,-82.984136528,171,"466 REINHARD AVE, COLUMBUS, OH, 43206","Match","Exact","466 REINHARD AVE, COLUMBUS, OH, 43206",135580329,"L"
654172,"466 RETREAT LANE","BURLINGTON","NC",27215,36.0700281850001,-79.5180490179999,172,"466 RETREAT LANE, BURLINGTON, NC, 27215","Match","Exact","466 RETREAT LN, BURLINGTON, NC, 27215",650311797,"L"
654173,"466 ROBESON STREET","SPRING LAKE","NC",28390,35.253809566,-78.948443546,173,"466 ROBESON STREET, SPRING LAKE, NC, 28390","Match","Exact","466 ROBESON ST, SPRING LAKE, NC, 28390",71994828,"R"
654174,"466 ROLLING HILLS DRIVE","WADSWORTH","OH",44281,41.014234828,-81.74577751,174,"466 ROLLING HILLS DRIVE, WADSWORTH, OH, 44281","Match","Exact","466 ROLLING HILLS DR, WADSWORTH, OH, 44281",58678826,"R"
654175,"466 S BALSAM ST","LAKEWOOD","CO",80226,NA,NA,175,"466 S BALSAM ST, LAKEWOOD, CO, 80226","Tie",NA,NA,NA,NA
654176,"466 S BANNA AVE","COVINA","CA",91724,34.081198145,-117.859930888,176,"466 S BANNA AVE, COVINA, CA, 91724","Match","Exact","466 BANNA AVE, COVINA, CA, 91724",141727514,"L"
654177,"466 S COURT STREET","CROWN POINT","IN",46307,41.410601736,-87.3660500509999,177,"466 S COURT STREET, CROWN POINT, IN, 46307","Match","Exact","466 S COURT ST, CROWN POINT, IN, 46307",98432866,"R"
654178,"466 S NORRIS ST APT 109","BURLINGTON","WA",98233,48.472639272,-122.341040847,178,"466 S NORRIS ST APT 109, BURLINGTON, WA, 98233","Match","Non_Exact","466 S NORRIS ST, BURLINGTON, WA, 98233",649625807,"R"
654179,"466 SE PRICE CREEK LOOP","LAKE CITY","FL",32025,30.1480919750001,-82.581449519,179,"466 SE PRICE CREEK LOOP, LAKE CITY, FL, 32025","Match","Exact","466 SE PRICE CREEK LOOP, LAKE CITY, FL, 32025",5151741,"L"
654180,"466 SHIRE WAY","MODESTO","CA",95356,37.723194941,-120.988723596,180,"466 SHIRE WAY, MODESTO, CA, 95356","Match","Exact","466 SHIRE WAY, MODESTO, CA, 95356",102600027,"R"
654181,"466 SOUTH PLEASANT STREET","AMHERST","MA",1002,42.3617484550001,-72.520753255,181,"466 SOUTH PLEASANT STREET, AMHERST, MA, 1002","Match","Exact","466 S PLEASANT ST, AMHERST, MA, 01002",39851788,"L"
654182,"466 STEUBEN AVE","FORKED RIVER","NJ",8731,39.8562359640001,-74.190349597,182,"466 STEUBEN AVE, FORKED RIVER, NJ, 8731","Match","Exact","466 STEUBEN AVE, FORKED RIVER, NJ, 08731",203699252,"R"
654183,"466 STEVENSVILLE AIRPORT RD","STEVENSVILLE","MT",59870,46.53011343,-114.052099901,183,"466 STEVENSVILLE AIRPORT RD, STEVENSVILLE, MT, 59870","Match","Exact","466 STEVENSVILLE AIRPORT RD, STEVENSVILLE, MT, 59870",640804717,"R"
654184,"466 TARRYTOWN ROAD APT 1106","WHITE PLAINS","NY",10603,41.043239095,-73.8003620549999,184,"466 TARRYTOWN ROAD APT 1106, WHITE PLAINS, NY, 10603","Match","Non_Exact","466 TARRYTOWN RD, WHITE PLAINS, NY, 10607",139850514,"R"
654185,"466 TERRYVILLE RD","PORT JEFFERSON STATI","NY",11776,40.9037872810001,-73.05029243,185,"466 TERRYVILLE RD, PORT JEFFERSON STATI, NY, 11776","Match","Non_Exact","466 TERRYVILLE RD, PORT JEFFERSON STATION, NY, 11776",114073914,"L"
654186,"466 TERRYVILLE ROAD","PORT JEFFERSON STATI","NY",11776,40.9037872810001,-73.05029243,186,"466 TERRYVILLE ROAD, PORT JEFFERSON STATI, NY, 11776","Match","Non_Exact","466 TERRYVILLE RD, PORT JEFFERSON STATION, NY, 11776",114073914,"L"
654187,"466 TOWNSHIP ROAD 1533","PROCTORVILLE","OH",45669,NA,NA,187,"466 TOWNSHIP ROAD 1533, PROCTORVILLE, OH, 45669","No_Match",NA,NA,NA,NA
654188,"466 UNION AVENUE","MT. VERNON","NY",10550,40.9012160190001,-73.8290502949999,188,"466 UNION AVENUE, MT. VERNON, NY, 10550","Match","Exact","466 UNION AVE, MOUNT VERNON, NY, 10550",139750458,"R"
654189,"466 VILLAGE GREEN RD","NAPERVILLE","IL",60540,41.7687910120001,-88.161881788,189,"466 VILLAGE GREEN RD, NAPERVILLE, IL, 60540","Match","Exact","466 VILLAGE GREEN RD, NAPERVILLE, IL, 60540",112535857,"R"
654190,"466 VILLAGE GREN RD","NAPERVILLE","IL",60540,41.7687910120001,-88.161881788,190,"466 VILLAGE GREN RD, NAPERVILLE, IL, 60540","Match","Non_Exact","466 VILLAGE GREEN RD, NAPERVILLE, IL, 60540",112535857,"R"
654191,"466 VISTA RAMBLA","WALNUT","CA",91789,34.0081301880001,-117.873029635,191,"466 VISTA RAMBLA, WALNUT, CA, 91789","Match","Exact","466 VIS RAMBLA, WALNUT, CA, 91789",141724984,"L"
654192,"466 W BARSTOW AVE","FRESNO","CA",93704,36.8156576800001,-119.800940194,192,"466 W BARSTOW AVE, FRESNO, CA, 93704","Match","Exact","466 W BARSTOW AVE, FRESNO, CA, 93704",197600478,"R"
654193,"466 WARREN STREET","DORCHESTER","MA",2121,42.315407136,-71.0832701739999,193,"466 WARREN STREET, DORCHESTER, MA, 2121","Match","Exact","466 WARREN ST, DORCHESTER, MA, 02121",85728814,"L"
654194,"466 WARREN WRIGHT ROAD","BELCHERTOWN","MA",1007,42.334766438,-72.466327925,194,"466 WARREN WRIGHT ROAD, BELCHERTOWN, MA, 1007","Match","Exact","466 WARREN WRIGHT RD, BELCHERTOWN, MA, 01007",39853510,"L"
654195,"466 WASHINGTON RD","RYE","NH",3870,43.0154941930001,-70.767324195,195,"466 WASHINGTON RD, RYE, NH, 3870","Match","Exact","466 WASHINGTON RD, RYE, NH, 03870",113714305,"R"
654196,"466 WASHINGTON ST","NEW YORK","NY",10013,40.7245761610001,-74.010157578,196,"466 WASHINGTON ST, NEW YORK, NY, 10013","Match","Exact","466 WASHINGTON ST, NEW YORK, NY, 10013",59659416,"L"
654197,"466 WAYNE ST","BETHANY","PA",18431,41.6167641370001,-75.288583839,197,"466 WAYNE ST, BETHANY, PA, 18431","Match","Exact","466 WAYNE ST, BETHANY, PA, 18431",140146526,"R"
654198,"466 WESTGLEN VILLAGE DR","BALLWIN","MO",63021,38.5727291370001,-90.560573099,198,"466 WESTGLEN VILLAGE DR, BALLWIN, MO, 63021","Match","Exact","466 WESTGLEN VILLAGE DR, BALLWIN, MO, 63021",100184317,"L"
654199,"466 ZOAR CHURCH RD","WRIGHT CITY","MO",63390,38.88975413,-91.0364900069999,199,"466 ZOAR CHURCH RD, WRIGHT CITY, MO, 63390","Match","Exact","466 ZOAR CHURCH RD, WRIGHT CITY, MO, 63390",44873201,"R"
654200,"466-330 ELYSIAN VALLEY RD","JANESVILLE","CA",96114,40.3203247010001,-120.563717867,200,"466-330 ELYSIAN VALLEY RD, JANESVILLE, CA, 96114","Match","Exact","466-330 ELYSIAN VALLEY RD, JANESVILLE, CA, 96114",126934542,"R"
654201,"466-925 BAXTER CREEK RD","SUSANVILLE","CA",96130,40.323914679,-120.605410485,201,"466-925 BAXTER CREEK RD, SUSANVILLE, CA, 96130","Match","Non_Exact","466-925 BAXTER RD, SUSANVILLE, CA, 96130",126934531,"L"
654202,"466-B JEAN STREET","OAKLAND","CA",94610,37.815479338,-122.249861304,202,"466-B JEAN STREET, OAKLAND, CA, 94610","Match","Exact","466 JEAN ST, OAKLAND, CA, 94610",617286284,"R"
654203,"4660 AGAPY RD","HELENA","MT",59602,NA,NA,203,"4660 AGAPY RD, HELENA, MT, 59602","No_Match",NA,NA,NA,NA
654204,"4660 BEECHNUT ST STE 210","HOUSTON","TX",77096,29.6891406820001,-95.4567861799999,204,"4660 BEECHNUT ST STE 210, HOUSTON, TX, 77096","Match","Exact","4660 BEECHNUT ST, HOUSTON, TX, 77096",96604394,"R"
654205,"4660 BENNETT VALLEY RD","SANTA ROSA","CA",95404,38.4179294260001,-122.664365256,205,"4660 BENNETT VALLEY RD, SANTA ROSA, CA, 95404","Match","Exact","4660 BENNETT VALLEY RD, SANTA ROSA, CA, 95404",604976406,"R"
654206,"4660 BIG HORN DR","REDDING","CA",96002,40.5390043310001,-122.318523225,206,"4660 BIG HORN DR, REDDING, CA, 96002","Match","Exact","4660 BIG HORN DR, REDDING, CA, 96002",126705901,"R"
654207,"4660 CHARDONNAY DRIVE","ROCKLEDGE","FL",32955,28.277104267,-80.734506703,207,"4660 CHARDONNAY DRIVE, ROCKLEDGE, FL, 32955","Match","Exact","4660 CHARDONNAY DR, ROCKLEDGE, FL, 32955",635822399,"R"
654208,"4660 CREEKSIDE COVE","ATLANTA","GA",30349,33.6305879170001,-84.541498411,208,"4660 CREEKSIDE COVE, ATLANTA, GA, 30349","Match","Exact","4660 CREEKSIDE COVE, ATLANTA, GA, 30349",629830511,"R"
654209,"4660 DALE STREET","NORTON","OH",44203,41.006755975,-81.6723942469999,209,"4660 DALE STREET, NORTON, OH, 44203","Match","Exact","4660 DALE ST, NORTON, OH, 44203",61390104,"R"
654210,"4660 DEERMEADOW WAY","ANTIOCH","CA",94531,37.9717301380001,-121.764000006,210,"4660 DEERMEADOW WAY, ANTIOCH, CA, 94531","Match","Exact","4660 DEERMEADOW WAY, ANTIOCH, CA, 94531",192080087,"R"
654211,"4660 FAY BLVD","COCOA","FL",32927,28.4686188700001,-80.797450601,211,"4660 FAY BLVD, COCOA, FL, 32927","Match","Exact","4660 FAY BLVD, COCOA, FL, 32927",93913133,"L"
654212,"4660 FLEDGLING DR","TALLAHASSEE","FL",32311,30.443757229,-84.205545144,212,"4660 FLEDGLING DR, TALLAHASSEE, FL, 32311","Match","Exact","4660 FLEDGLING DR, TALLAHASSEE, FL, 32311",82892904,"L"
654213,"4660 FM 2867 EAST","HENDERSON","TX",75654,32.118852614,-94.71502866,213,"4660 FM 2867 EAST, HENDERSON, TX, 75654","Match","Exact","4660 FM 2867 E, HENDERSON, TX, 75654",79650746,"L"
654214,"4660 FORMAN AVENUE","TOLUCA LAKE","CA",91602,34.155557393,-118.352745623,214,"4660 FORMAN AVENUE, TOLUCA LAKE, CA, 91602","Match","Exact","4660 FORMAN AVE, TOLUCA LAKE, CA, 91602",141592270,"R"
654215,"4660 HAGERMAN AVE","CASCADE","CO",80809,38.900125152,-104.970656591,215,"4660 HAGERMAN AVE, CASCADE, CO, 80809","Match","Non_Exact","4660 HAGERMAN RD, CASCADE, CO, 80809",105569847,"L"
654216,"4660 HARRIS DRIVE","HAMILTON","MI",49419,42.6841528090001,-86.004942483,216,"4660 HARRIS DRIVE, HAMILTON, MI, 49419","Match","Exact","4660 HARRIS DR, HAMILTON, MI, 49419",11448248,"R"
654217,"4660 KAUFFMAN RD","CARROLL","OH",43112,39.7988735690001,-82.717041438,217,"4660 KAUFFMAN RD, CARROLL, OH, 43112","Match","Non_Exact","4660 KAUFFMAN RD NW, CARROLL, OH, 43112",37217661,"R"
654218,"4660 KRISTON LANE","NORTH TONAWANDA","NY",14120,43.101865495,-78.790728228,218,"4660 KRISTON LANE, NORTH TONAWANDA, NY, 14120","Match","Exact","4660 KRISTON LN, N TONAWANDA, NY, 14120",48694485,"L"
654219,"4660 LA JOLLA VILLAGE DR SUITE 1080","SAN DIEGO","CA",92122,32.8741952130001,-117.206209546,219,"4660 LA JOLLA VILLAGE DR SUITE 1080, SAN DIEGO, CA, 92122","Match","Non_Exact","4660 LA JOLLA VILLAGE DR, SAN DIEGO, CA, 92122",195661148,"L"
654220,"4660 LA JOLLA VILLAGE DRIVE ST 100","SAN DIEGO","CA",92122,32.8741952130001,-117.206209546,220,"4660 LA JOLLA VILLAGE DRIVE ST 100, SAN DIEGO, CA, 92122","Match","Non_Exact","4660 LA JOLLA VILLAGE DR, SAN DIEGO, CA, 92122",195661148,"L"
654221,"4660 LASITER TRAIL","COLORADO SPRINGS",NA,NA,38.89927813,-104.701347188,221,"4660 LASITER TRAIL, COLORADO SPRINGS, , ","Match","Non_Exact","4660 LASATER TRL, COLO SPGS, CO, 80922",105561568,"R"
654222,"4660 LONG KEY LANE","COCONUT CREEK","FL",33073,26.290207992,-80.185711231,222,"4660 LONG KEY LANE, COCONUT CREEK, FL, 33073","Match","Exact","4660 LONG KEY LN, COCONUT CREEK, FL, 33073",114813743,"R"
654223,"4660 M L K JR AVE SW APT A902","WASHINGTON","DC",20032,NA,NA,223,"4660 M L K JR AVE SW APT A902, WASHINGTON, DC, 20032","No_Match",NA,NA,NA,NA
654224,"4660 MLK JR AVE SW A-1004","WASHINGTON","DC",20032,NA,NA,224,"4660 MLK JR AVE SW A-1004, WASHINGTON, DC, 20032","No_Match",NA,NA,NA,NA
654225,"4660 MLK JR AVE SW A-212","WASHINGTON","DC",20032,NA,NA,225,"4660 MLK JR AVE SW A-212, WASHINGTON, DC, 20032","No_Match",NA,NA,NA,NA
654226,"4660 MLK JR AVE SW APT B1004","DISTRICT OF COLUMBIA","DC",20032,NA,NA,226,"4660 MLK JR AVE SW APT B1004, DISTRICT OF COLUMBIA, DC, 20032","No_Match",NA,NA,NA,NA
654227,"4660 MLK JR AVE SW C-415","WASHINGTON","DC",20032,NA,NA,227,"4660 MLK JR AVE SW C-415, WASHINGTON, DC, 20032","No_Match",NA,NA,NA,NA
654228,"4660 MLK JR AVE SW C-601","WASHINGTON","DC",20032,38.822633528,-77.011467346,228,"4660 MLK JR AVE SW C-601, WASHINGTON, DC, 20032","Match","Exact","4660 MARTIN LUTHER KING JR AVE SW, WASHINGTON, DC, 20032",653126129,"L"
654229,"4660 MS 345","PONTOTOC","MS",38863,34.322787679,-88.985750745,229,"4660 MS 345, PONTOTOC, MS, 38863","Match","Non_Exact","4660 HWY 345, PONTOTOC, MS, 38863",610239957,"R"
654230,"4660 N CAREFREE CIRCLE","COLORADO SPRINGS","CO",80917,38.8861318830001,-104.740053358,230,"4660 N CAREFREE CIRCLE, COLORADO SPRINGS, CO, 80917","Match","Exact","4660 N CAREFREE CIR, COLORADO SPRINGS, CO, 80917",612526790,"L"
654231,"4660 N HIDDEN VALLEY RD","MARICOPA","AZ",85139,32.9217463480001,-112.151811075,231,"4660 N HIDDEN VALLEY RD, MARICOPA, AZ, 85139","Match","Exact","4660 N HIDDEN VALLEY RD, MARICOPA, AZ, 85139",129294067,"L"
654232,"4660 N OLIVE AVE","TURLOCK","CA",95381,37.5357951330001,-120.839654449,232,"4660 N OLIVE AVE, TURLOCK, CA, 95381","Match","Non_Exact","4660 N OLIVE AVE, TURLOCK, CA, 95382",102633215,"R"
654233,"4660 N RANCHO DR","LAS VEGAS","NV",89130,NA,NA,233,"4660 N RANCHO DR, LAS VEGAS, NV, 89130","No_Match",NA,NA,NA,NA
654234,"4660 N RD 725 WEST","BARGERSVILLE","IN",46106,39.542739413,-86.239396701,234,"4660 N RD 725 WEST, BARGERSVILLE, IN, 46106","Match","Exact","4660 N RD 725 W, BARGERSVILLE, IN, 46106",606980921,"L"
654235,"4660 N US HIGHWAY 1","MELBOURNE","FL",32935,28.1827249890001,-80.6524995469999,235,"4660 N US HIGHWAY 1, MELBOURNE, FL, 32935","Match","Exact","4660 US HWY 1, MELBOURNE, FL, 32935",647114253,"L"
654236,"4660 NC 213 HWY","MARSHALL","NC",28753,NA,NA,236,"4660 NC 213 HWY, MARSHALL, NC, 28753","No_Match",NA,NA,NA,NA
654237,"4660 ORR ROAD","CLINTON","WA",98236,47.9675469250001,-122.362249794,237,"4660 ORR ROAD, CLINTON, WA, 98236","Match","Exact","4660 ORR RD, CLINTON, WA, 98236",187588290,"L"
654238,"4660 PINE GROVE ROAD","TOWNVILLE","SC",29689,34.5436445920001,-82.9305148989999,238,"4660 PINE GROVE ROAD, TOWNVILLE, SC, 29689","Match","Non_Exact","4660 W PINE GROVE RD, TOWNVILLE, SC, 29689",652912317,"L"
654239,"4660 PINTO COURT","ELLIOTT CITY","MD",21043,39.2425877250001,-76.8174528229999,239,"4660 PINTO COURT, ELLIOTT CITY, MD, 21043","Match","Non_Exact","4660 PINTO CT, ELLICOTT CITY, MD, 21043",158924139,"R"
654240,"4660 RALEIGH DALTON ROAD","DALLAS","TX",75227,NA,NA,240,"4660 RALEIGH DALTON ROAD, DALLAS, TX, 75227","No_Match",NA,NA,NA,NA
654241,"4660 RIVERVIEW ROAD","ATLANTA","GA",30327,33.8945006000001,-84.4316684999999,241,"4660 RIVERVIEW ROAD, ATLANTA, GA, 30327","Match","Non_Exact","4660 RIVERVIEW RD NW, ATLANTA, GA, 30327",636051400,"L"
654242,"4660 RUSSER LOOP DRIVE","BESSEMER","AL",35022,NA,NA,242,"4660 RUSSER LOOP DRIVE, BESSEMER, AL, 35022","No_Match",NA,NA,NA,NA
654243,"4660 SAVONA PLACE","SAN DIEGO","CA",92130,32.9591513250001,-117.218109125,243,"4660 SAVONA PLACE, SAN DIEGO, CA, 92130","Match","Exact","4660 SAVONA PL, SAN DIEGO, CA, 92130",195384073,"L"
654244,"4660 SHANNON PL","PENSACOLA","FL",32504,30.4667983960001,-87.1662794539999,244,"4660 SHANNON PL, PENSACOLA, FL, 32504","Match","Exact","4660 SHANNON PL, PENSACOLA, FL, 32504",93307800,"L"
654245,"4660 SIR GILBERT LOOP","WILLIAMSBURG","VA",23185,37.238092657,-76.7768403109999,245,"4660 SIR GILBERT LOOP, WILLIAMSBURG, VA, 23185","Match","Exact","4660 SIR GILBERT LOOP, WILLIAMSBURG, VA, 23185",103776697,"L"
654246,"4660 STARLING CT","SAPULPA","OK",74066,35.9897796330001,-96.051389117,246,"4660 STARLING CT, SAPULPA, OK, 74066","Match","Exact","4660 STARLING CT, SAPULPA, OK, 74066",165921142,"R"
654247,"4660 SW 56TH STREET","TRENTON","FL",32693,29.655142395,-82.8833027749999,247,"4660 SW 56TH STREET, TRENTON, FL, 32693","Match","Exact","4660 SW 56TH ST, TRENTON, FL, 32693",624509998,"R"
654248,"4660 VICTORIA AVE APT 1701","RIVERSIDE","CA",92507,33.966171268,-117.368061682,248,"4660 VICTORIA AVE APT 1701, RIVERSIDE, CA, 92507","Match","Exact","4660 VICTORIA AVE, RIVERSIDE, CA, 92507",608991123,"L"
654249,"4660 VIOLA ST","NEW ORLEANS","LA",70126,30.018350486,-89.996009245,249,"4660 VIOLA ST, NEW ORLEANS, LA, 70126","Match","Exact","4660 VIOLA ST, NEW ORLEANS, LA, 70126",191721054,"R"
654250,"4660 W 101 PLACE","WESTMINSTER","CO",80031,39.877520971,-105.04545732,250,"4660 W 101 PLACE, WESTMINSTER, CO, 80031","Match","Exact","4660 101ST PL, WESTMINSTER, CO, 80031",177438489,"L"
654251,"4660 W CALIFORNIA AVE","FRESNO","CA",93706,36.7209757050001,-119.875519059,251,"4660 W CALIFORNIA AVE, FRESNO, CA, 93706","Match","Exact","4660 W CALIFORNIA AVE, FRESNO, CA, 93706",197569972,"R"
654252,"4660 W WEST END","CHICAGO","IL",60624,NA,NA,252,"4660 W WEST END, CHICAGO, IL, 60624","No_Match",NA,NA,NA,NA
654253,"4660 WEST 9TH COURT","HIALEAH","FL",33012,25.8645078230001,-80.302568631,253,"4660 WEST 9TH COURT, HIALEAH, FL, 33012","Match","Exact","4660 W 9TH CT, HIALEAH, FL, 33012",115956412,"L"
654254,"4660 WEST ELLSWORTH ROAD","ANN ARBOR","MI",48103,42.2273322940001,-83.82102479,254,"4660 WEST ELLSWORTH ROAD, ANN ARBOR, MI, 48103","Match","Exact","4660 W ELLSWORTH RD, ANN ARBOR, MI, 48103",26028887,"R"
654255,"4660","HIALEAH","FL",33012,NA,NA,255,"4660, HIALEAH, FL, 33012","No_Match",NA,NA,NA,NA
654256,"46600 STRATFORD COURT","NORTHVILLE","MI",48167,42.4271704970001,-83.502638604,256,"46600 STRATFORD COURT, NORTHVILLE, MI, 48167","Match","Exact","46600 STRATFORD CT, NORTHVILLE, MI, 48167",95490179,"R"
654257,"46600 WESTECH ROAD","SHAWNEE","OK",74804,35.391073921,-96.830967969,257,"46600 WESTECH ROAD, SHAWNEE, OK, 74804","Match","Exact","46600 WESTECH RD, SHAWNEE, OK, 74804",607092668,"R"
654258,"46604 SWANMERE DR","CANTON","MI",48187,42.333682803,-83.506504093,258,"46604 SWANMERE DR, CANTON, MI, 48187","Match","Exact","46604 SWANMERE DR, CANTON, MI, 48187",95688184,"R"
654259,"4661 13 MILE RD NE","ROCKFORD","MI",49341,43.161084466,-85.554251224,259,"4661 13 MILE RD NE, ROCKFORD, MI, 49341","Match","Exact","4661 13 MILE RD NE, ROCKFORD, MI, 49341",12447057,"L"
654260,"4661 ADALAINE LANE","MISSOULA","MT",59808,NA,NA,260,"4661 ADALAINE LANE, MISSOULA, MT, 59808","No_Match",NA,NA,NA,NA
654261,"4661 ALBANY CIRCLE APT 120","SAN JOSE","CA",95129,37.3228138110001,-121.985853244,261,"4661 ALBANY CIRCLE APT 120, SAN JOSE, CA, 95129","Match","Exact","4661 ALBANY CIR, SAN JOSE, CA, 95129",122984238,"L"
654262,"4661 ALMOND LANE","BOULDER","CO",80301,40.0588738860001,-105.209646133,262,"4661 ALMOND LANE, BOULDER, CO, 80301","Match","Exact","4661 ALMOND LN, BOULDER, CO, 80301",188171009,"R"
654263,"4661 ARABIAN WAY","ANTIOCH","CA",94531,37.97093621,-121.754056265,263,"4661 ARABIAN WAY, ANTIOCH, CA, 94531","Match","Exact","4661 ARABIAN WAY, ANTIOCH, CA, 94531",192100221,"L"
654264,"4661 BARKLEY ESTATES DR","COLLIERVILLE","TN",38017,35.0213132430001,-89.747531453,264,"4661 BARKLEY ESTATES DR, COLLIERVILLE, TN, 38017","Match","Non_Exact","4661 BARKLEY ESTATE DR, COLLIERVILLE, TN, 38017",619932416,"L"
654265,"4661 BARRINGTON DRIVE","SPRINGFIELD","IL",62711,39.7741549720001,-89.742803598,265,"4661 BARRINGTON DRIVE, SPRINGFIELD, IL, 62711","Match","Exact","4661 BARRINGTON DR, SPRINGFIELD, IL, 62711",97359585,"R"
654266,"4661 BAYWIND DR","SACRAMENTO","CA",95838,38.6520467230001,-121.454152483,266,"4661 BAYWIND DR, SACRAMENTO, CA, 95838","Match","Exact","4661 BAYWIND DR, SACRAMENTO, CA, 95838",133357469,"R"
654267,"4661 BEATTY PLACE","SAN DIEGO","CA",92124,32.818817956,-117.106744333,267,"4661 BEATTY PLACE, SAN DIEGO, CA, 92124","Match","Exact","4661 BEATTY PL, SAN DIEGO, CA, 92124",195321093,"R"
654268,"4661 BRIDLE WOOD DR","DALLAS","TX",75211,32.7181824840001,-96.898535209,268,"4661 BRIDLE WOOD DR, DALLAS, TX, 75211","Match","Exact","4661 BRIDLE WOOD DR, DALLAS, TX, 75211",102939856,"R"
654269,"4661 CEDAR KEYS","STONE MOUNTAIN","GA",30083,33.8183523770001,-84.1991586199999,269,"4661 CEDAR KEYS, STONE MOUNTAIN, GA, 30083","Match","Non_Exact","4661 CEDAR KEYS LN, STONE MOUNTAIN, GA, 30083",23364069,"R"
654270,"4661 CEDAR LAKE ROAD","ST. LOUIS PARK","MN",55416,NA,NA,270,"4661 CEDAR LAKE ROAD, ST. LOUIS PARK, MN, 55416","No_Match",NA,NA,NA,NA
654271,"4661 CHRISTYSHIRE DR","MEMPHIS","TN",38128,35.253270597,-89.933031429,271,"4661 CHRISTYSHIRE DR, MEMPHIS, TN, 38128","Match","Exact","4661 CHRISTYSHIRE DR, MEMPHIS, TN, 38128",624848648,"L"
654272,"4661 COBALT DRIVE","COLORADO SPRINGS","CO",80918,38.8990292170001,-104.747052749,272,"4661 COBALT DRIVE, COLORADO SPRINGS, CO, 80918","Match","Exact","4661 COBALT DR, COLORADO SPRINGS, CO, 80918",650531964,"R"
654273,"4661 CR 3411","LONE OAK","TX",75453,32.956003685,-95.954225868,273,"4661 CR 3411, LONE OAK, TX, 75453","Match","Exact","4661 CO RD 3411, LONE OAK, TX, 75453",42862346,"L"
654274,"4661 DALLAS PLACE APT 103","TEMPLE HILLS","MD",20748,38.8258296220001,-76.948276898,274,"4661 DALLAS PLACE APT 103, TEMPLE HILLS, MD, 20748","Match","Exact","4661 DALLAS PL, TEMPLE HILLS, MD, 20748",76411768,"L"
654275,"4661 DEER CREEK BLVD","SARASOTA","FL",34238,27.2313934150001,-82.474777796,275,"4661 DEER CREEK BLVD, SARASOTA, FL, 34238","Match","Exact","4661 DEER CREEK BLVD, SARASOTA, FL, 34238",16379349,"L"
654276,"4661 DOE HILL ROAD","MCDOWELL","VA",24458,38.395392584,-79.45814422,276,"4661 DOE HILL ROAD, MCDOWELL, VA, 24458","Match","Non_Exact","4661 DOE HILL RD, MC DOWELL, VA, 24458",172830244,"L"
654277,"4661 E MATT DILLON TRAIL","CAVE CREEK","AZ",85331,33.7892109570001,-111.981151012,277,"4661 E MATT DILLON TRAIL, CAVE CREEK, AZ, 85331","Match","Exact","4661 E MATT DILLON TRL, CAVE CREEK, AZ, 85331",128863764,"R"
654278,"4661 E RIDGEVIEW DRIVE","SUPERIOR","WA",54880,NA,NA,278,"4661 E RIDGEVIEW DRIVE, SUPERIOR, WA, 54880","No_Match",NA,NA,NA,NA
654279,"4661 E RIDGEVIEW DRIVE","SUPERIOR","WI",54880,46.5667145040001,-92.0615148969999,279,"4661 E RIDGEVIEW DRIVE, SUPERIOR, WI, 54880","Match","Exact","4661 RIDGEVIEW DR, SUPERIOR, WI, 54880",625149547,"L"
654280,"4661 ENGLEWOOD DRIVE","INDIANAPOLIS","IN",46226,39.841469063,-86.044829346,280,"4661 ENGLEWOOD DRIVE, INDIANAPOLIS, IN, 46226","Match","Exact","4661 ENGLEWOOD DR, INDIANAPOLIS, IN, 46226",107997685,"R"
654281,"4661 NOTTINGHAM STREET","BATTLEFIELD","MO",65619,37.121346481,-93.378874404,281,"4661 NOTTINGHAM STREET, BATTLEFIELD, MO, 65619","Match","Non_Exact","4661 W NOTTINGHAM ST, BATTLEFIELD, MO, 65619",76710560,"R"
654282,"4661 NW 10TH COURT E202","PLANTATION","FL",33313,26.136891529,-80.211989688,282,"4661 NW 10TH COURT E202, PLANTATION, FL, 33313","Match","Non_Exact","4661 NW 10TH CT, PLANTATION, FL, 33313",114708565,"R"
654283,"4661 ORCHARD CT SW","GRANDVILLE","MI",49418,42.8983959240001,-85.779306118,283,"4661 ORCHARD CT SW, GRANDVILLE, MI, 49418","Match","Non_Exact","4661 ORCHARD CT, GRANDVILLE, MI, 49418",12486362,"R"
654284,"4661 ROSSLER","PLACERVILLE","CA",95667,NA,NA,284,"4661 ROSSLER, PLACERVILLE, CA, 95667","No_Match",NA,NA,NA,NA
654285,"4661 S BROOKWOOD CIRCLE","SALT LAKE CITY","UT",84117,40.668854455,-111.858848882,285,"4661 S BROOKWOOD CIRCLE, SALT LAKE CITY, UT, 84117","Match","Exact","4661 BROOKWOOD CIR, SALT LAKE CITY, UT, 84117",176083212,"L"
654286,"4661 SOUTH FRASER CIRCLE UNIT A","AURORA","CO",80015,39.6321802780001,-104.812476866,286,"4661 SOUTH FRASER CIRCLE UNIT A, AURORA, CO, 80015","Match","Exact","4661 S FRASER CIR, AURORA, CO, 80015",177548055,"R"
654287,"4661 VIOLA  ST","NEW ORLEANS","LA",70126,30.018351534,-89.9959966389999,287,"4661 VIOLA  ST, NEW ORLEANS, LA, 70126","Match","Exact","4661 VIOLA ST, NEW ORLEANS, LA, 70126",191721054,"L"
654288,"4661 VIOLA ST","NEW ORLEAN","LA",70126,30.018351534,-89.9959966389999,288,"4661 VIOLA ST, NEW ORLEAN, LA, 70126","Match","Non_Exact","4661 VIOLA ST, NEW ORLEANS, LA, 70126",191721054,"L"
654289,"4661 WALES DRIVE","PLANO","TX",75024,33.0656557180001,-96.790238029,289,"4661 WALES DRIVE, PLANO, TX, 75024","Match","Exact","4661 WALES DR, PLANO, TX, 75024",123530587,"L"
654290,"4661 WEST AVENUE K10","LANCASTER","CA",93536,34.6657305000001,-118.213170546,290,"4661 WEST AVENUE K10, LANCASTER, CA, 93536","Match","Non_Exact","4661 W AVE K 10, LANCASTER, CA, 93536",141522457,"R"
654291,"46610 LYNNHAVEN SQUARE","STERLING","VA",20165,39.0514246050001,-77.386587861,291,"46610 LYNNHAVEN SQUARE, STERLING, VA, 20165","Match","Exact","46610 LYNNHAVEN SQ, STERLING, VA, 20165",62367401,"R"
654292,"46613 BENTLY","SHELBY TWP","MI",48315,42.640064378,-82.988882927,292,"46613 BENTLY, SHELBY TWP, MI, 48315","Match","Non_Exact","46613 BENTLY DR, SHELBY TOWNSHIP, MI, 48315",110709100,"L"
654293,"46616 VISTA DEL RIO","OAKHURST","CA",93644,37.3382491690001,-119.698754508,293,"46616 VISTA DEL RIO, OAKHURST, CA, 93644","Match","Non_Exact","46616 VISTA DEL RIO DR, OAKHURST, CA, 93644",612098711,"R"
654294,"46617 CARRIAGE CT","STERLING","VA",20164,39.0290645330001,-77.386950247,294,"46617 CARRIAGE CT, STERLING, VA, 20164","Match","Exact","46617 CARRIAGE CT, STERLING, VA, 20164",62340176,"L"
654295,"4662 13TH ST SW","CANTON","OH",44710,40.7890315710001,-81.4327768639999,295,"4662 13TH ST SW, CANTON, OH, 44710","Match","Exact","4662 13TH ST SW, CANTON, OH, 44710",64675493,"L"
654296,"4662 BEHLMANN FARMS BLVD","FLORISSANT","MO",63034,38.8147434050001,-90.260767713,296,"4662 BEHLMANN FARMS BLVD, FLORISSANT, MO, 63034","Match","Exact","4662 BEHLMANN FARMS BLVD, FLORISSANT, MO, 63034",604551055,"L"
654297,"4662 BRAZIL WOOD DRIVE","KENNESAW","GA",30144,34.069205991,-84.553510264,297,"4662 BRAZIL WOOD DRIVE, KENNESAW, GA, 30144","Match","Exact","4662 BRAZIL WOOD DR, KENNESAW, GA, 30144",17268172,"R"
654298,"4662 BRYSON TERRACE","SAN DIEGO","CA",92130,32.957293645,-117.217975705,298,"4662 BRYSON TERRACE, SAN DIEGO, CA, 92130","Match","Exact","4662 BRYSON TER, SAN DIEGO, CA, 92130",195391243,"L"
654299,"4662 DEVONSHIRE ROAD","DUNWOODY","GA",30338,33.9332002730001,-84.3282136189999,299,"4662 DEVONSHIRE ROAD, DUNWOODY, GA, 30338","Match","Exact","4662 DEVONSHIRE RD, DUNWOODY, GA, 30338",23356118,"L"
654300,"4662 E CANTON RD","SALEM","IN",47167,38.6233360210001,-86.023490282,300,"4662 E CANTON RD, SALEM, IN, 47167","Match","Exact","4662 E CANTON RD, SALEM, IN, 47167",77548606,"L"
654301,"4662 GENOA DR","FERNANDINA BEACH","FL",32034,30.595297261,-81.4487168489999,301,"4662 GENOA DR, FERNANDINA BEACH, FL, 32034","Match","Exact","4662 GENOA DR, FERNANDINA BCH, FL, 32034",84114367,"R"
654302,"4662 HANFORD STREET","DOUGLASTON","NY",11362,NA,NA,302,"4662 HANFORD STREET, DOUGLASTON, NY, 11362","No_Match",NA,NA,NA,NA
654303,"4662 HARPER RD","HOLT","MI",48842,42.6184437800001,-84.5303778809999,303,"4662 HARPER RD, HOLT, MI, 48842","Match","Exact","4662 HARPER RD, HOLT, MI, 48842",630766052,"R"
654304,"4662 MARINER DRIVE","FRISCO","TX",75034,33.1067604520001,-96.847639993,304,"4662 MARINER DRIVE, FRISCO, TX, 75034","Match","Exact","4662 MARINER DR, FRISCO, TX, 75034",103405269,"L"
654305,"4662 MARION AVE","CYPRESS","CA",90630,33.8124974130001,-118.051375219,305,"4662 MARION AVE, CYPRESS, CA, 90630","Match","Exact","4662 MARION AVE, CYPRESS, CA, 90630",143999358,"R"
654306,"4662 MCKINLEY","CHINA TOWNSHIP","MI",48054,42.764978253,-82.572042229,306,"4662 MCKINLEY, CHINA TOWNSHIP, MI, 48054","Match","Non_Exact","4662 MCKINLEY RD, CHINA, MI, 48054",110960388,"L"
654307,"4662 N BOSTON AVE","TULSA","OK",74126,36.221544044,-95.995102355,307,"4662 N BOSTON AVE, TULSA, OK, 74126","Match","Exact","4662 N BOSTON AVE, TULSA, OK, 74126",166512185,"L"
654308,"4662 PASOE DEL BARRANCO","TUCSON","AZ",85745,32.2888060880001,-111.083156547,308,"4662 PASOE DEL BARRANCO, TUCSON, AZ, 85745","Match","Non_Exact","4662 N PSO DEL BARRANCO, TUCSON, AZ, 85745",121191717,"L"
654309,"4662 RIVER VISTA TRAIL","ELLENWOOD","GA",30294,33.648920133,-84.194541573,309,"4662 RIVER VISTA TRAIL, ELLENWOOD, GA, 30294","Match","Non_Exact","4662 RIVER VISTA RD, ELLENWOOD, GA, 30294",640326929,"R"
654310,"4662 ST RT 274 W","HUNTSVILLE","OH",43324,40.4373806900001,-83.801547679,310,"4662 ST RT 274 W, HUNTSVILLE, OH, 43324","Match","Non_Exact","4662 STATE RTE 274, HUNTSVILLE, OH, 43324",52176268,"R"
654311,"4662 W AVENUE J1","LANCASTER","CA",93536,34.688157163,-118.214441701,311,"4662 W AVENUE J1, LANCASTER, CA, 93536","Match","Exact","4662 W AVE J1, LANCASTER, CA, 93536",627015491,"L"
654312,"4662 W WHITE BIRCH DR","MERIDIAN","ID",83646,43.6206102200001,-116.451654174,312,"4662 W WHITE BIRCH DR, MERIDIAN, ID, 83646","Match","Exact","4662 W WHITE BIRCH DR, MERIDIAN, ID, 83646",617931085,"R"
654313,"4662 WEBSTER WAY NW","ACWORTH","GA",30101,34.067129537,-84.624833564,313,"4662 WEBSTER WAY NW, ACWORTH, GA, 30101","Match","Exact","4662 WEBSTER WAY NW, ACWORTH, GA, 30101",17221766,"R"
654314,"4662 WILSON HWY","INDEPENDENCE","VA",24348,36.6246190950001,-81.228887109,314,"4662 WILSON HWY, INDEPENDENCE, VA, 24348","Match","Exact","4662 WILSON HWY, INDEPENDENCE, VA, 24348",153848248,"L"
654315,"46620 HAMPSHIRE STATION DR","STERLING","VA",20165,39.041638203,-77.386190465,315,"46620 HAMPSHIRE STATION DR, STERLING, VA, 20165","Match","Exact","46620 HAMPSHIRE STATION DR, STERLING, VA, 20165",62365965,"R"
654316,"46620 SENTINEL DRIVE","FREMONT","CA",94539,37.4967956690001,-121.908707958,316,"46620 SENTINEL DRIVE, FREMONT, CA, 94539","Match","Exact","46620 SENTINEL DR, FREMONT, CA, 94539",125080272,"L"
654317,"4663 BIG HILL RD","TODD","NC",28684,36.2976915770001,-81.597857574,317,"4663 BIG HILL RD, TODD, NC, 28684","Match","Exact","4663 BIG HILL RD, TODD, NC, 28684",649738815,"L"
654318,"4663 CARADOR LANE","LAFAYETTE","IN",47909,40.350278689,-86.853612036,318,"4663 CARADOR LANE, LAFAYETTE, IN, 47909","Match","Exact","4663 CARADOR LN, LAFAYETTE, IN, 47909",618728658,"L"
654319,"4663 CAYMAN CT","STOCKTON","CA",95210,37.9972742740001,-121.285290584,319,"4663 CAYMAN CT, STOCKTON, CA, 95210","Match","Exact","4663 CAYMAN CT, STOCKTON, CA, 95210",133878359,"R"
654320,"4663 CROWN HILL ROAD","MECHANICSVILLE","VA",23111,37.597539023,-77.2660718339999,320,"4663 CROWN HILL ROAD, MECHANICSVILLE, VA, 23111","Match","Exact","4663 CROWN HILL RD, MECHANICSVILLE, VA, 23111",84979421,"R"
654321,"4663 E OUTER DRIVE 302","DETROIT","MI",48234,42.441368444,-83.022605201,321,"4663 E OUTER DRIVE 302, DETROIT, MI, 48234","Match","Non_Exact","4663 E OUTER DR, DETROIT, MI, 48234",95720916,"L"
654322,"4663 EAGLE RD","CHUBBUCK","ID",83202,42.9180959970001,-112.458988823,322,"4663 EAGLE RD, CHUBBUCK, ID, 83202","Match","Non_Exact","4663 EAGLE DR, CHUBBUCK, ID, 83202",204350181,"L"
654323,"4663 EAST 153RD","CLEVELAND","OH",44128,41.4325958140001,-81.57480286,323,"4663 EAST 153RD, CLEVELAND, OH, 44128","Match","Non_Exact","4663 E 153RD ST, CLEVELAND, OH, 44128",61127730,"L"
654324,"4663 GLENWAY AVENUE","CINCINNATI","OH",45238,39.1154903360001,-84.592964685,324,"4663 GLENWAY AVENUE, CINCINNATI, OH, 45238","Match","Exact","4663 GLENWAY AVE, CINCINNATI, OH, 45238",103918902,"L"
654325,"4663 HANCOCK WAY","LILBURN","GA",30047,33.856403653,-84.107075809,325,"4663 HANCOCK WAY, LILBURN, GA, 30047","Match","Non_Exact","4663 HANCOCK WAY SW, LILBURN, GA, 30047",88931254,"L"
654326,"4663 LOTUS WAY","BOYNTON BEACH","FL",33436,26.5356158390001,-80.1168164279999,326,"4663 LOTUS WAY, BOYNTON BEACH, FL, 33436","Match","Exact","4663 LOTUS WAY, BOYNTON BEACH, FL, 33436",115577409,"R"
654327,"4663 MILES DR","HOLT","MI",48842,42.6347304600001,-84.5305654319999,327,"4663 MILES DR, HOLT, MI, 48842","Match","Exact","4663 MILES DR, HOLT, MI, 48842",17503566,"L"
654328,"4663 MOSELLE DR","LIBERTY TWP","OH",45011,39.39457207,-84.463580092,328,"4663 MOSELLE DR, LIBERTY TWP, OH, 45011","Match","Exact","4663 MOSELLE DR, LIBERTY TWP, OH, 45011",113815048,"R"
654329,"4663 PAGENTRY PL","WEST VALLEY CITY","UT",84120,40.668456963,-111.988715777,329,"4663 PAGENTRY PL, WEST VALLEY CITY, UT, 84120","Match","Exact","4663 PAGENTRY PL, WEST VALLEY CITY, UT, 84120",176146833,"R"
654330,"4663 RABUN DRIVE","DOUGLASVILLE","GA",30135,33.6513338190001,-84.7272025619999,330,"4663 RABUN DRIVE, DOUGLASVILLE, GA, 30135","Match","Exact","4663 RABUN DR, DOUGLASVILLE, GA, 30135",619859228,"R"
654331,"4663 SILVERTHORN DR","JACKSONVILLE","FL",32258,30.1531851280001,-81.587732166,331,"4663 SILVERTHORN DR, JACKSONVILLE, FL, 32258","Match","Exact","4663 SILVERTHORN DR, JACKSONVILLE, FL, 32258",645692113,"R"
654332,"4663 SNOW DRIVE","HARRISBURG","NC",28075,35.2843384710001,-80.652268108,332,"4663 SNOW DRIVE, HARRISBURG, NC, 28075","Match","Exact","4663 SNOW DR, HARRISBURG, NC, 28075",24912307,"R"
654333,"4663 SOCASTEE BLVD","MYRTLE BEACH","SC",29588,33.6838393960001,-78.9921166519999,333,"4663 SOCASTEE BLVD, MYRTLE BEACH, SC, 29588","Match","Exact","4663 SOCASTEE BLVD, MYRTLE BEACH, SC, 29588",635644694,"R"
654334,"4663 SPRUCEWOOD DR","MACON","GA",31210,32.893873071,-83.7100828709999,334,"4663 SPRUCEWOOD DR, MACON, GA, 31210","Match","Exact","4663 SPRUCEWOOD DR, MACON, GA, 31210",81056965,"R"
654335,"4663 STATE HIGHWAY A","MAYSVILLE","MO",64469,NA,NA,335,"4663 STATE HIGHWAY A, MAYSVILLE, MO, 64469","No_Match",NA,NA,NA,NA
654336,"4663 W HOME","FRESNO","CA",93722,36.7619410200001,-119.876996984,336,"4663 W HOME, FRESNO, CA, 93722","Match","Non_Exact","4663 W HOME AVE, FRESNO, CA, 93722",618731993,"R"
654337,"46636 SPINNING WHEEL DRIVE","CANTON","MI",48187,42.341022158,-83.499033631,337,"46636 SPINNING WHEEL DRIVE, CANTON, MI, 48187","Match","Exact","46636 SPINNING WHEEL DR, CANTON, MI, 48187",646687807,"L"
654338,"4664 5TH ST NW","CANTON","OH",44708,40.8048038380001,-81.43224932,338,"4664 5TH ST NW, CANTON, OH, 44708","Match","Exact","4664 5TH ST NW, CANTON, OH, 44708",64675039,"L"
654339,"4664 AUTUMN GLORY WAY","CHANTILLY","VA",20151,38.8730040770001,-77.4220207129999,339,"4664 AUTUMN GLORY WAY, CHANTILLY, VA, 20151","Match","Exact","4664 AUTUMN GLORY WAY, CHANTILLY, VA, 20151",637520253,"L"
654340,"4664 CHAPEL CREEK DR","PLANO","TX",75024,33.086473154,-96.790538334,340,"4664 CHAPEL CREEK DR, PLANO, TX, 75024","Match","Exact","4664 CHAPEL CREEK DR, PLANO, TX, 75024",123553500,"R"
654341,"4664 E MONTECITO AVE","FRESNO","CA",93702,36.7340599930001,-119.742466795,341,"4664 E MONTECITO AVE, FRESNO, CA, 93702","Match","Exact","4664 E MONTECITO AVE, FRESNO, CA, 93702",197582696,"R"
654342,"4664 EMPRESS WAY N","HUGO","MN",55038,45.1740116610001,-93.0121368219999,342,"4664 EMPRESS WAY N, HUGO, MN, 55038","Match","Exact","4664 EMPRESS WAY N, HUGO, MN, 55038",614159356,"L"
654343,"4664 KANE CREEK RD","CENTRAL POINT","OR",97502,42.384731248,-123.023898238,343,"4664 KANE CREEK RD, CENTRAL POINT, OR, 97502","Match","Exact","4664 KANE CREEK RD, CENTRAL POINT, OR, 97502",155578636,"R"
654344,"4664 KINGSBURY DRIVE","EAGAN","MN",55122,44.7874164020001,-93.1800149969999,344,"4664 KINGSBURY DRIVE, EAGAN, MN, 55122","Match","Exact","4664 KINGSBURY DR, EAGAN, MN, 55122",37909196,"R"
654345,"4664 LOS POBLANOS CIR NW","LOS RANCHOS DE ALBUQ","NM",87107,NA,NA,345,"4664 LOS POBLANOS CIR NW, LOS RANCHOS DE ALBUQ, NM, 87107","No_Match",NA,NA,NA,NA
654346,"4664 MCCURDY DRIVE","NEW ALBANY","OH",43054,40.0788734820001,-82.8192428839999,346,"4664 MCCURDY DRIVE, NEW ALBANY, OH, 43054","Match","Exact","4664 MCCURDY DR, NEW ALBANY, OH, 43054",218661382,"R"
654347,"4664 MELODY RD","N CHESTERFIELD","VA",23234,37.456358709,-77.482451667,347,"4664 MELODY RD, N CHESTERFIELD, VA, 23234","Match","Exact","4664 MELODY RD, NORTH CHESTERFIELD, VA, 23234",201571457,"R"
654348,"4664 N TALLAHASSEE RD","CRYSTAL RIVER","FL",34428,28.9285983180001,-82.621106911,348,"4664 N TALLAHASSEE RD, CRYSTAL RIVER, FL, 34428","Match","Exact","4664 N TALLAHASSEE RD, CRYSTAL RIVER, FL, 34428",636327350,"L"
654349,"4664 N WESTON","MERIDIAN","ID",83646,43.6472688970001,-116.388656777,349,"4664 N WESTON, MERIDIAN, ID, 83646","Match","Non_Exact","4664 N WESTON AVE, MERIDIAN, ID, 83646",641543154,"R"
654350,"4664 NORTH MAIN STREET","EMINENCE","KY",40019,38.372382003,-85.1795111599999,350,"4664 NORTH MAIN STREET, EMINENCE, KY, 40019","Match","Exact","4664 N MAIN ST, EMINENCE, KY, 40019",649788817,"R"
654351,"4664 NORTH MORRIS BLVD","WHITEFISH BAY","WI",53211,43.1012697240001,-87.8922986699999,351,"4664 NORTH MORRIS BLVD, WHITEFISH BAY, WI, 53211","Match","Exact","4664 N MORRIS BLVD, WHITEFISH BAY, WI, 53211",646191720,"R"
654352,"4664 NORTH PEACHTREE RD","4664 NORTH PEACHTREE","GA",30338,33.9306038600001,-84.294784046,352,"4664 NORTH PEACHTREE RD, 4664 NORTH PEACHTREE, GA, 30338","Match","Non_Exact","4664 N PEACHTREE RD, ATLANTA, GA, 30338",23357212,"L"
654353,"4664 NORTH PEACHTREE RD","DUNWOODY","GA",30338,33.9306038600001,-84.294784046,353,"4664 NORTH PEACHTREE RD, DUNWOODY, GA, 30338","Match","Exact","4664 N PEACHTREE RD, DUNWOODY, GA, 30338",23357212,"L"
654354,"4664 NW 59TH COURT","TAMARAC","FL",33319,26.1989634280001,-80.212800617,354,"4664 NW 59TH COURT, TAMARAC, FL, 33319","Match","Exact","4664 NW 59TH CT, TAMARAC, FL, 33319",114816091,"L"
654355,"4664 PERELLI DRIVE","NEW ORLEANS","LA",70127,30.020564521,-89.97160452,355,"4664 PERELLI DRIVE, NEW ORLEANS, LA, 70127","Match","Exact","4664 PERELLI DR, NEW ORLEANS, LA, 70127",191721724,"R"
654356,"4664 PLEASANT HILL RD","ATHENS","OH",45701,39.2636600970001,-82.093774197,356,"4664 PLEASANT HILL RD, ATHENS, OH, 45701","Match","Exact","4664 PLEASANT HILL RD, ATHENS, OH, 45701",641088564,"R"
654357,"4664 POSIEDON PLACE","LAKE WORTH","FL",33462,26.578196559,-80.1157989179999,357,"4664 POSIEDON PLACE, LAKE WORTH, FL, 33462","Match","Non_Exact","4664 POSEIDON PL, LAKE WORTH, FL, 33463",115578046,"L"
654358,"4664 RESERVOIR RD NW","WASHINGTON DC","DC",20007,38.913610664,-77.0880454369999,358,"4664 RESERVOIR RD NW, WASHINGTON DC, DC, 20007","Match","Exact","4664 RESERVOIR RD NW, WASHINGTON, DC, 20007",76220196,"L"
654359,"4664 RIVA RIDGE DR","OLIVE BRANCH","MS",38654,34.927992949,-89.8982554139999,359,"4664 RIVA RIDGE DR, OLIVE BRANCH, MS, 38654","Match","Exact","4664 RIVA RIDGE DR, OLIVE BRANCH, MS, 38654",641102510,"R"
654360,"4664 ROUSILLON AVE","FREMONT","CA",94555,37.568226485,-122.045932253,360,"4664 ROUSILLON AVE, FREMONT, CA, 94555","Match","Exact","4664 ROUSILLON AVE, FREMONT, CA, 94555",606841007,"L"
654361,"4664 SATURN RD APT 3005","GARLAND","TX",75041,32.861125589,-96.648362793,361,"4664 SATURN RD APT 3005, GARLAND, TX, 75041","Match","Exact","4664 SATURN RD, GARLAND, TX, 75041",647932897,"L"
654362,"4664 SE KING ROAD","MILWAUKIE","OR",97222,45.448022666,-122.614656613,362,"4664 SE KING ROAD, MILWAUKIE, OR, 97222","Match","Exact","4664 SE KING RD, MILWAUKIE, OR, 97222",157914663,"R"
654363,"4664 SW 32ND DR","HOLLYWOOD","FL",33023,25.982464038,-80.1894934219999,363,"4664 SW 32ND DR, HOLLYWOOD, FL, 33023","Match","Exact","4664 SW 32ND DR, HOLLYWOOD, FL, 33023",114735468,"L"
654364,"4664 TEATREE CT","VIERA","FL",32955,28.2764064040001,-80.7477015329999,364,"4664 TEATREE CT, VIERA, FL, 32955","Match","Non_Exact","4664 TEA TREE CT, VIERA, FL, 32955",651418559,"R"
654365,"4664 W CLINTON UNIT 101","FRESNO","CA",93722,NA,NA,365,"4664 W CLINTON UNIT 101, FRESNO, CA, 93722","No_Match",NA,NA,NA,NA
654366,"4664 WARNER RD","GARFIELD HEIGHT","OH",44125,41.432773916,-81.631626306,366,"4664 WARNER RD, GARFIELD HEIGHT, OH, 44125","Match","Non_Exact","4664 WARNER RD, GARFIELD HEIGHTS, OH, 44125",61119283,"R"
654367,"4664 WARNER RD","GARFIELD HEIGHTS","OH",44125,41.432773916,-81.631626306,367,"4664 WARNER RD, GARFIELD HEIGHTS, OH, 44125","Match","Exact","4664 WARNER RD, GARFIELD HEIGHTS, OH, 44125",61119283,"R"
654368,"4664 WILLIAMSTOWN BLVD","LAKELAND","FL",33810,28.102369965,-81.985906655,368,"4664 WILLIAMSTOWN BLVD, LAKELAND, FL, 33810","Match","Exact","4664 WILLIAMSTOWN BLVD, LAKELAND, FL, 33810",104885682,"L"
654369,"466402 HWY 101","SALLISAW","OK",74955,35.5070249350001,-94.720391045,369,"466402 HWY 101, SALLISAW, OK, 74955","Match","Non_Exact","466402 STATE HWY 101, SALLISAW, OK, 74955",53769577,"L"
654370,"46645 CROSSWICK","CANTON","MI",48187,42.317831477,-83.49963773,370,"46645 CROSSWICK, CANTON, MI, 48187","Match","Exact","46645 CROSSWICK, CANTON, MI, 48187",95688358,"R"
654371,"466492 E 931 RD","BUNCH","OK",74931,NA,NA,371,"466492 E 931 RD, BUNCH, OK, 74931","No_Match",NA,NA,NA,NA
654372,"4665 36TH AVE","VERO BEACH","FL",32967,27.677885281,-80.422088162,372,"4665 36TH AVE, VERO BEACH, FL, 32967","Match","Exact","4665 36TH AVE, VERO BEACH, FL, 32967",120303940,"L"
654373,"4665 CASTILLE WAY SOUTH","ST PETERSBRUG","FL",33712,27.7252037860001,-82.6689896079999,373,"4665 CASTILLE WAY SOUTH, ST PETERSBRUG, FL, 33712","Match","Non_Exact","4665 CASTILE WAY S, SAINT PETERSBURG, FL, 33712",124792860,"L"
654374,"4665 CATHAY CT","DENVER","CO",80249,NA,NA,374,"4665 CATHAY CT, DENVER, CO, 80249","No_Match",NA,NA,NA,NA
654375,"4665 COSNER DR","CORPUS CHRISTI","TX",78415,27.733708866,-97.405906185,375,"4665 COSNER DR, CORPUS CHRISTI, TX, 78415","Match","Exact","4665 COSNER DR, CORPUS CHRISTI, TX, 78415",178519175,"R"
654376,"4665 CR 118","WILDWOOD","FL",34785,28.899608168,-82.026071353,376,"4665 CR 118, WILDWOOD, FL, 34785","Match","Exact","4665 CO RD 118, WILDWOOD, FL, 34785",86518694,"L"
654377,"4665 DIXIE SCHOOL RD","NOCONA","TX",76255,33.7253406250001,-97.6763789889999,377,"4665 DIXIE SCHOOL RD, NOCONA, TX, 76255","Match","Exact","4665 DIXIE SCHOOL RD, NOCONA, TX, 76255",152112406,"R"
654378,"4665 E GRANT AVE","FRESNO","CA",93702,36.748645249,-119.742397145,378,"4665 E GRANT AVE, FRESNO, CA, 93702","Match","Exact","4665 E GRANT AVE, FRESNO, CA, 93702",197582331,"L"
654379,"4665 FRANKFORD AVE","PHILADELPHIA","PA",19124,40.016283356,-75.0841078989999,379,"4665 FRANKFORD AVE, PHILADELPHIA, PA, 19124","Match","Exact","4665 FRANKFORD AVE, PHILADELPHIA, PA, 19124",131428360,"R"
654380,"4665 GETTYSBURY DR","ROLLING MEADOWS","IL",60008,NA,NA,380,"4665 GETTYSBURY DR, ROLLING MEADOWS, IL, 60008","No_Match",NA,NA,NA,NA
654381,"4665 HAZELWOOD DR","JACKSON","MS",39211,32.358121066,-90.1252747039999,381,"4665 HAZELWOOD DR, JACKSON, MS, 39211","Match","Exact","4665 HAZELWOOD DR, JACKSON, MS, 39211",65361523,"L"
654382,"4665 HYATTS RD","DELAWARE","OH",43015,40.2176980140001,-83.128505613,382,"4665 HYATTS RD, DELAWARE, OH, 43015","Match","Exact","4665 HYATTS RD, DELAWARE, OH, 43015",24593980,"R"
654383,"4665 KENT RD","COLLEGE PARK","GA",30337,33.6297999780001,-84.481035354,383,"4665 KENT RD, COLLEGE PARK, GA, 30337","Match","Exact","4665 KENT RD, COLLEGE PARK, GA, 30337",647135079,"R"
654384,"4665 LAKE CALABAY DRIVE","ORLANDO","FL",32837,28.3571042290001,-81.43150589,384,"4665 LAKE CALABAY DRIVE, ORLANDO, FL, 32837","Match","Exact","4665 LAKE CALABAY DR, ORLANDO, FL, 32837",94338532,"R"
654385,"4665 LAMAR AVE","SUITLAND","MD",20746,38.8551400970001,-76.924873275,385,"4665 LAMAR AVE, SUITLAND, MD, 20746","Match","Exact","4665 LAMAR AVE, SUITLAND, MD, 20746",76314428,"R"
654386,"4665 LOUISIANA ST UNIT 2","SAN DIEGO","CA",92116,32.762158248,-117.140084277,386,"4665 LOUISIANA ST UNIT 2, SAN DIEGO, CA, 92116","Match","Exact","4665 LOUISIANA ST, SAN DIEGO, CA, 92116",195345145,"R"
654387,"4665 MABRY PARKWAY","ROCK HILL","SC",29732,34.9632554680001,-81.0882932809999,387,"4665 MABRY PARKWAY, ROCK HILL, SC, 29732","Match","Exact","4665 MABRY PKWY, ROCK HILL, SC, 29732",19815697,"L"
654388,"4665 MAUTE ROAD","GRASS LAKE","MI",49240,42.3024180350001,-84.175277869,388,"4665 MAUTE ROAD, GRASS LAKE, MI, 49240","Match","Exact","4665 MAUTE RD, GRASS LAKE, MI, 49240",17634129,"L"
654389,"4665 MILE HIGH DR","PROVO","UT",84604,40.2948432790001,-111.636839205,389,"4665 MILE HIGH DR, PROVO, UT, 84604","Match","Exact","4665 MILE HIGH DR, PROVO, UT, 84604",134207514,"R"
654390,"4665 MINNIER 52A","RIVERSIDE","CA",92503,NA,NA,390,"4665 MINNIER 52A, RIVERSIDE, CA, 92503","No_Match",NA,NA,NA,NA
654391,"4665 MIRANDA CIRCLE","ORLANDO","FL",32818,28.600709072,-81.472691475,391,"4665 MIRANDA CIRCLE, ORLANDO, FL, 32818","Match","Exact","4665 MIRANDA CIR, ORLANDO, FL, 32818",94303830,"R"
654392,"4665 OLD KENT ROAD","DEEPHAVEN","MN",55331,44.919314893,-93.536218457,392,"4665 OLD KENT ROAD, DEEPHAVEN, MN, 55331","Match","Non_Exact","4665 OLD KENT RD, GREENWOOD, MN, 55331",43843069,"R"
654393,"4665 PEBBLE BAY ST","VERO BEACH","FL",32963,27.676630151,-80.3657386309999,393,"4665 PEBBLE BAY ST, VERO BEACH, FL, 32963","Match","Non_Exact","4665 PEBBLE BAY CIR, VERO BEACH, FL, 32963",120307754,"L"
654394,"4665 SCARLET COURT","PALMDALE","CA",93551,34.6288616370001,-118.213690126,394,"4665 SCARLET COURT, PALMDALE, CA, 93551","Match","Exact","4665 SCARLET CT, PALMDALE, CA, 93551",141843332,"R"
654395,"4665 SCHIRRA COURT","SPARTANBURG","SC",29301,34.909524447,-81.9962833549999,395,"4665 SCHIRRA COURT, SPARTANBURG, SC, 29301","Match","Exact","4665 SCHIRRA CT, SPARTANBURG, SC, 29301",19487184,"L"
654396,"4665 SOUTH BLVD SUITE B","VIRGINIA BEACH","VA",23452,36.8322063270001,-76.135984338,396,"4665 SOUTH BLVD SUITE B, VIRGINIA BEACH, VA, 23452","Match","Exact","4665 SOUTH BLVD, VA BCH, VA, 23452",122285556,"R"
654397,"4665 ST JOHNS RD","GREENVILLE","IN",47124,38.341197073,-86.0235141209999,397,"4665 ST JOHNS RD, GREENVILLE, IN, 47124","Match","Exact","4665 SAINT JOHNS RD, GREENVILLE, IN, 47124",89555925,"L"
654398,"4665 TERRACEVIEW LANE","PLYMOUTH","MN",55447,NA,NA,398,"4665 TERRACEVIEW LANE, PLYMOUTH, MN, 55447","No_Match",NA,NA,NA,NA
654399,"4665 TONINO DRIVE","SAN JOSE","CA",95136,37.262710575,-121.872679529,399,"4665 TONINO DRIVE, SAN JOSE, CA, 95136","Match","Exact","4665 TONINO DR, SAN JOSE, CA, 95136",122922218,"R"
654400,"4665 TRABUE RD","COLUMBUS","OH",43228,39.9846649560001,-83.120991227,400,"4665 TRABUE RD, COLUMBUS, OH, 43228","Match","Exact","4665 TRABUE RD, COLUMBUS, OH, 43228",637621360,"L"
654401,"4665 TRAUBE","COLUMBUS","OH",43228,NA,NA,401,"4665 TRAUBE, COLUMBUS, OH, 43228","No_Match",NA,NA,NA,NA
654402,"4665 VICTOR PATH UNIT 10","HUGO","MN",55038,45.1615517990001,-93.0155487819999,402,"4665 VICTOR PATH UNIT 10, HUGO, MN, 55038","Match","Exact","4665 VICTOR PATH, HUGO, MN, 55038",97833962,"R"
654403,"4665 W BLACKFOOT DR","SPRINGFIELD","MO",65802,37.1873634630001,-93.375878922,403,"4665 W BLACKFOOT DR, SPRINGFIELD, MO, 65802","Match","Exact","4665 W BLACKFOOT DR, SPRINGFIELD, MO, 65802",605883608,"R"
654404,"4665 W PLACITA CASA SEVILLA","MARANA","AZ",85658,NA,NA,404,"4665 W PLACITA CASA SEVILLA, MARANA, AZ, 85658","No_Match",NA,NA,NA,NA
654405,"46654 CARNATION ST","INDIO","CA",92201,33.710201011,-116.231532945,405,"46654 CARNATION ST, INDIO, CA, 92201","Match","Non_Exact","46654 CARNATION CT, INDIO, CA, 92201",194773928,"L"
654406,"4666 E OLNEY AVE","GILBERT","AZ",85234,33.358262472,-111.690151654,406,"4666 E OLNEY AVE, GILBERT, AZ, 85234","Match","Exact","4666 E OLNEY AVE, GILBERT, AZ, 85234",640591501,"L"
654407,"4666 JULIUS BLVD","WESTLAND","MI",48186,42.274107191,-83.331347772,407,"4666 JULIUS BLVD, WESTLAND, MI, 48186","Match","Exact","4666 JULIUS BLVD, WESTLAND, MI, 48186",95434228,"R"
654408,"4666 MARSHALL AVE","EUGENE","OR",97402,44.0745939660001,-123.176629352,408,"4666 MARSHALL AVE, EUGENE, OR, 97402","Match","Exact","4666 MARSHALL AVE, EUGENE, OR, 97402",178163644,"L"
654409,"4666 N BRITTAIN PLACE","TUCSON","AZ",85705,32.291783572,-111.010761074,409,"4666 N BRITTAIN PLACE, TUCSON, AZ, 85705","Match","Exact","4666 N BRITTAIN PL, TUCSON, AZ, 85705",121160539,"L"
654410,"4666 POST ROAD","MANLIUS","NY",13104,42.99955721,-75.995962689,410,"4666 POST ROAD, MANLIUS, NY, 13104","Match","Exact","4666 POST RD, MANLIUS, NY, 13104",46578615,"R"
654411,"4666 SHELTON ROAD","BLACKSHEAR","GA",31516,31.310604111,-82.1952554109999,411,"4666 SHELTON ROAD, BLACKSHEAR, GA, 31516","Match","Exact","4666 SHELTON RD, BLACKSHEAR, GA, 31516",642906947,"R"
654412,"4666 SOUTH FM 1655","BRIDGEPORT","TX",76426,33.24000958,-97.7058482,412,"4666 SOUTH FM 1655, BRIDGEPORT, TX, 76426","Match","Non_Exact","4666 FM 1655, BRIDGEPORT, TX, 76426",103681163,"L"
654413,"4666 YORBA LANE","YORBA LINDA","CA",92886,33.893054084,-117.80538955,413,"4666 YORBA LANE, YORBA LINDA, CA, 92886","Match","Exact","4666 YORBA LN, YORBA LINDA, CA, 92886",144412768,"L"
654414,"46661 SYCAMORE DR","BANGOR","MI",49013,42.321113069,-86.0008121339999,414,"46661 SYCAMORE DR, BANGOR, MI, 49013","Match","Exact","46661 SYCAMORE DR, BANGOR, MI, 49013",34750429,"L"
654415,"46663 STATE ROUTE 303","WELLINGTON","OH",44090,41.2369894390001,-82.2305025589999,415,"46663 STATE ROUTE 303, WELLINGTON, OH, 44090","Match","Exact","46663 STATE RTE 303, WELLINGTON, OH, 44090",55432803,"R"
654416,"46664 BRUMFIELD RD","FRANKLINTON","LA",70438,30.8926619000001,-90.113743191,416,"46664 BRUMFIELD RD, FRANKLINTON, LA, 70438","Match","Exact","46664 BRUMFIELD RD, FRANKLINTON, LA, 70438",82473560,"L"
654417,"4667 BRIARWOOD TRACE","CARMEL","IN",46033,39.982586328,-86.0939177609999,417,"4667 BRIARWOOD TRACE, CARMEL, IN, 46033","Match","Exact","4667 BRIARWOOD TRCE, CARMEL, IN, 46033",29308985,"R"
654418,"4667 CLINTON TINNIN ROAD","CLINTON","MS",39056,32.4222705490001,-90.3445488099999,418,"4667 CLINTON TINNIN ROAD, CLINTON, MS, 39056","Match","Non_Exact","4667 CLINTON-TINNIN RD, CLINTON, MS, 39056",65358643,"L"
654419,"4667 DELLROSE DRIVE","DUNWOODY","GA",30338,33.9551798730001,-84.285858603,419,"4667 DELLROSE DRIVE, DUNWOODY, GA, 30338","Match","Exact","4667 DELLROSE DR, DUNWOODY, GA, 30338",23356588,"R"
654420,"4667 DISCOVERY POINT","DISCOVERY BAY","CA",94505,37.9153718760001,-121.604707886,420,"4667 DISCOVERY POINT, DISCOVERY BAY, CA, 94505","Match","Exact","4667 DISCOVERY PT, DISCOVERY BAY, CA, 94505",629633517,"R"
654421,"4667 GLENSHIRE PLACE","ATLANTA","GA",30338,33.9347274630001,-84.333107796,421,"4667 GLENSHIRE PLACE, ATLANTA, GA, 30338","Match","Exact","4667 GLENSHIRE PL, ATLANTA, GA, 30338",23392199,"R"
654422,"4667 HARTSFIELD PLACE","MANLIUS","NY",13104,42.987613809,-75.963954228,422,"4667 HARTSFIELD PLACE, MANLIUS, NY, 13104","Match","Exact","4667 HARTSFIELD PL, MANLIUS, NY, 13104",632405029,"L"
654423,"4667 HIGHLAND CT","GRANDVILLE","MI",49418,42.854362215,-85.793095931,423,"4667 HIGHLAND CT, GRANDVILLE, MI, 49418","Match","Exact","4667 HIGHLAND CT, GRANDVILLE, MI, 49418",624465546,"R"
654424,"4667 HWY 82A","TAHLEQUAH","OK",74464,36.1092389200001,-94.92245306,424,"4667 HWY 82A, TAHLEQUAH, OK, 74464","Match","Non_Exact","4667 STATE HWY 82A, TAHLEQUAH, OK, 74464",53626830,"L"
654425,"4667 LAVAQUE ROAD","HERMANTOWN","MN",55811,46.8486346450001,-92.217035332,425,"4667 LAVAQUE ROAD, HERMANTOWN, MN, 55811","Match","Exact","4667 LAVAQUE RD, HERMANTOWN, MN, 55811",163208024,"L"
654426,"4667 MISSION","DECATUR","IL",62526,39.9048686190001,-88.969972572,426,"4667 MISSION, DECATUR, IL, 62526","Match","Non_Exact","4667 MISSION DR, DECATUR, IL, 62526",20744374,"L"
654427,"4667 N MAIN ST","EMINENCE","KY",40019,38.3723205000001,-85.1795251459999,427,"4667 N MAIN ST, EMINENCE, KY, 40019","Match","Exact","4667 N MAIN ST, EMINENCE, KY, 40019",649788817,"L"
654428,"4667 NORTHWEST 103RD AVENUE","SUNRISE","FL",33351,26.186082318,-80.2874302669999,428,"4667 NORTHWEST 103RD AVENUE, SUNRISE, FL, 33351","Match","Exact","4667 NW 103RD AVE, SUNRISE, FL, 33351",114795154,"R"
654429,"4667 ROBINHOOD CIRCLE","STRAWBERRY PLAINS","TN",37871,36.0179671500001,-83.6536136399999,429,"4667 ROBINHOOD CIRCLE, STRAWBERRY PLAINS, TN, 37871","Match","Exact","4667 ROBINHOOD CIR, STRAWBERRY PLAINS, TN, 37871",107534299,"L"
654430,"4667 S MONACO ST","DENVER","CO",80237,39.628659821,-104.91134432,430,"4667 S MONACO ST, DENVER, CO, 80237","Match","Exact","4667 S MONACO ST, DENVER, CO, 80237",606048943,"R"
654431,"4667 STONE RIDGE TRAIL","SARASOTA","FL",34232,27.320002716,-82.471396224,431,"4667 STONE RIDGE TRAIL, SARASOTA, FL, 34232","Match","Exact","4667 STONE RIDGE TRL, SARASOTA, FL, 34232",16355819,"R"
654432,"4667 TELEGRAPH RD","VENTURA","CA",93003,34.275714147,-119.23020781,432,"4667 TELEGRAPH RD, VENTURA, CA, 93003","Match","Exact","4667 TELEGRAPH RD, VENTURA, CA, 93003",110040381,"L"
654433,"46672 SCHOOLHOUSE RD","HAINES","OR",97833,44.9231367610001,-117.993004925,433,"46672 SCHOOLHOUSE RD, HAINES, OR, 97833","Match","Exact","46672 SCHOOLHOUSE RD, HAINES, OR, 97833",137654623,"L"
654434,"4667B ORLEANS COURT","WEST PALM BEACH","FL",33415,26.68730272,-80.114841452,434,"4667B ORLEANS COURT, WEST PALM BEACH, FL, 33415","Match","Exact","4667 ORLEANS CT, WEST PALM BEACH, FL, 33415",115271446,"L"
654435,"4668 AIRWAY RD","RIVERSIDE","OH",45431,39.766727626,-84.129337753,435,"4668 AIRWAY RD, RIVERSIDE, OH, 45431","Match","Exact","4668 AIRWAY RD, RIVERSIDE, OH, 45431",143575790,"R"
654436,"4668 BRADLEY CT","DOYLESTOWN","PA",18902,40.325778346,-75.0650421249999,436,"4668 BRADLEY CT, DOYLESTOWN, PA, 18902","Match","Exact","4668 BRADLEY CT, DOYLESTOWN, PA, 18902",134749324,"L"
654437,"4668 CHESANING ROAD","CHESANING","MI",48616,43.2045940200001,-84.002537449,437,"4668 CHESANING ROAD, CHESANING, MI, 48616","Match","Exact","4668 CHESANING RD, CHESANING, MI, 48616",80206657,"R"
654438,"4668 FIELDSTON RD","BELLINGHAM","WA",98225,48.6947623120001,-122.509306409,438,"4668 FIELDSTON RD, BELLINGHAM, WA, 98225","Match","Exact","4668 FIELDSTON RD, BELLINGHAM, WA, 98225",183774058,"R"
654439,"4668 LAKES EDGE APT 7","WEST CHESTER","OH",45069,39.3533291960001,-84.4644254299999,439,"4668 LAKES EDGE APT 7, WEST CHESTER, OH, 45069","Match","Non_Exact","4668 LAKES EDGE DR, WEST CHESTER, OH, 45069",606401665,"L"
654440,"4668 LINCREST DR S","JACKSONVILLE","FL",32208,30.394016025,-81.7187459579999,440,"4668 LINCREST DR S, JACKSONVILLE, FL, 32208","Match","Exact","4668 LINCREST DR S, JACKSONVILLE, FL, 32208",83948543,"L"
654441,"4668 LOMBARDO ST","GROVE CITY","OH",43123,39.8681161700001,-83.063659682,441,"4668 LOMBARDO ST, GROVE CITY, OH, 43123","Match","Exact","4668 LOMBARDO ST, GROVE CITY, OH, 43123",218640212,"L"
654442,"4668 N LECLAIRE AVE","CHICAGO","IL",60630,41.9659507800001,-87.7550235689999,442,"4668 N LECLAIRE AVE, CHICAGO, IL, 60630","Match","Exact","4668 N LECLAIRE AVE, CHICAGO, IL, 60630",605161229,"L"
654443,"4668 N SPAULDING","CHICAGO","IL",60625,41.966334434,-87.71086065,443,"4668 N SPAULDING, CHICAGO, IL, 60625","Match","Non_Exact","4668 N SPAULDING AVE, CHICAGO, IL, 60625",641756741,"L"
654444,"4668 N WATERVIEW STREET","TACOMA","WA",98407,47.293059672,-122.497682793,444,"4668 N WATERVIEW STREET, TACOMA, WA, 98407","Match","Exact","4668 N WATERVIEW ST, TACOMA, WA, 98407",649512114,"L"
654445,"4668 NORTH DITTMAR ROAD","ARLINGTON","VA",22207,38.9144242350001,-77.131841105,445,"4668 NORTH DITTMAR ROAD, ARLINGTON, VA, 22207","Match","Exact","4668 N DITTMAR RD, ARLINGTON, VA, 22207",76466119,"L"
654446,"4668 PALMER POINTE ROAD","EXCELSIOR","MN",55331,44.892795635,-93.664145547,446,"4668 PALMER POINTE ROAD, EXCELSIOR, MN, 55331","Match","Non_Exact","4668 PALMER CT, EXCELSIOR, MN, 55331",624516424,"L"
654447,"4668 PEMBROOK PLACE","ORLANDO","FL",32811,28.4941999270001,-81.441506612,447,"4668 PEMBROOK PLACE, ORLANDO, FL, 32811","Match","Exact","4668 PEMBROOK PL, ORLANDO, FL, 32811",94274167,"L"
654448,"4668 RIMINI COURT","DUBLIN","CA",94568,37.710687292,-121.867774889,448,"4668 RIMINI COURT, DUBLIN, CA, 94568","Match","Exact","4668 RIMINI CT, DUBLIN, CA, 94568",637841351,"R"
654449,"4668 SEMINOLE CR","STOW","OH",44224,41.19375975,-81.4521833749999,449,"4668 SEMINOLE CR, STOW, OH, 44224","Match","Exact","4668 SEMINOLE CIR, STOW, OH, 44224",61346757,"L"
654450,"4668 SOUTH SHERIDAN","MUSKEGON","MI",49444,43.1670493730001,-86.185698606,450,"4668 SOUTH SHERIDAN, MUSKEGON, MI, 49444","Match","Non_Exact","4668 S SHERIDAN RD, MUSKEGON, MI, 49444",624854002,"L"
654451,"4668 TODD RD","FRANKLIN","OH",45005,39.4960647140001,-84.2919984179999,451,"4668 TODD RD, FRANKLIN, OH, 45005","Match","Exact","4668 TODD RD, FRANKLIN, OH, 45005",159021471,"R"
654452,"4668 VERMONT ROUTE 112","BRATTLEBORO","VT",5301,NA,NA,452,"4668 VERMONT ROUTE 112, BRATTLEBORO, VT, 5301","No_Match",NA,NA,NA,NA
654453,"4668 WILLIAMSPORT ROAD","MONONGAHELA","PA",15063,40.235685737,-79.8978928769999,453,"4668 WILLIAMSPORT ROAD, MONONGAHELA, PA, 15063","Match","Exact","4668 WILLIAMSPORT RD, MONONGAHELA, PA, 15063",51816084,"R"
654454,"4668 WOODSTOCK ST","CARLSBAD","CA",92010,33.1623535630001,-117.295984133,454,"4668 WOODSTOCK ST, CARLSBAD, CA, 92010","Match","Exact","4668 WOODSTOCK ST, CARLSBAD, CA, 92010",195291801,"L"
654455,"46681 STATE ROUTE 46","NEW WATERFORD","OH",44445,40.846548909,-80.616160936,455,"46681 STATE ROUTE 46, NEW WATERFORD, OH, 44445","Match","Exact","46681 STATE RTE 46, NEW WATERFORD, OH, 44445",63630914,"L"
654456,"46685 ORCHARD DRIVE","MIRAMONTE","CA",93641,36.686020908,-119.065275395,456,"46685 ORCHARD DRIVE, MIRAMONTE, CA, 93641","Match","Exact","46685 ORCHARD DR, MIRAMONTE, CA, 93641",197626091,"L"
654457,"46685 ORCHARD DRIVE","MIRAMONTE","CA",93685,36.686020908,-119.065275395,457,"46685 ORCHARD DRIVE, MIRAMONTE, CA, 93685","Match","Non_Exact","46685 ORCHARD DR, MIRAMONTE, CA, 93641",197626091,"L"
654458,"4669 7TH STREET","BOULDER","CO",80304,NA,NA,458,"4669 7TH STREET, BOULDER, CO, 80304","No_Match",NA,NA,NA,NA
654459,"4669 ALLISON ROAD","MECHANICSBURG","OH",43044,40.067926904,-83.583454423,459,"4669 ALLISON ROAD, MECHANICSBURG, OH, 43044","Match","Exact","4669 ALLISON RD, MECHANICSBURG, OH, 43044",606292578,"R"
654460,"4669 BIANCA DR","FREMONT","CA",94536,37.5593881680001,-122.031425244,460,"4669 BIANCA DR, FREMONT, CA, 94536","Match","Exact","4669 BIANCA DR, FREMONT, CA, 94536",125027750,"R"
654461,"4669 BROOKVIEW DRIVE","AUBURN","IL",62615,39.5785811220001,-89.733519331,461,"4669 BROOKVIEW DRIVE, AUBURN, IL, 62615","Match","Exact","4669 BROOKVIEW DR, AUBURN, IL, 62615",617541841,"L"
654462,"4669 BUTTE ROAD","FLORENCE","CO",81226,38.3756261070001,-105.106847861,462,"4669 BUTTE ROAD, FLORENCE, CO, 81226","Match","Exact","4669 BUTTE RD, FLORENCE, CO, 81226",108304856,"R"
654463,"4669 BUTTE ROAD","FLORENCE","CO",NA,38.3756261070001,-105.106847861,463,"4669 BUTTE ROAD, FLORENCE, CO, ","Match","Exact","4669 BUTTE RD, FLORENCE, CO, 81226",108304856,"R"
654464,"4669 GREEN ROAD","CASS CITY","MI",48726,43.603736751,-83.273059894,464,"4669 GREEN ROAD, CASS CITY, MI, 48726","Match","Exact","4669 GREEN RD, CASS CITY, MI, 48726",81242489,"L"
654465,"4669 GUY HILL ROAD","GOLDEN","CO",80403,39.779738073,-105.329550424,465,"4669 GUY HILL ROAD, GOLDEN, CO, 80403","Match","Exact","4669 GUY HILL RD, GOLDEN, CO, 80403",177764293,"R"
654466,"4669 HEMLOCK DRIVE","TAYLORSVILLE","UT",84123,40.6685686430001,-111.937361676,466,"4669 HEMLOCK DRIVE, TAYLORSVILLE, UT, 84123","Match","Exact","4669 HEMLOCK DR, TAYLORSVILLE, UT, 84123",176073450,"L"
654467,"4669 HOOK TREE RD","TWENTYNINE PALMS","CA",92277,34.1685786050001,-116.024741496,467,"4669 HOOK TREE RD, TWENTYNINE PALMS, CA, 92277","Match","Exact","4669 HOOK TREE RD, TWENTYNINE PALMS, CA, 92277",144624592,"R"
654468,"4669 LELAND PLACE","LAWRENCEVILLE","GA",30052,NA,NA,468,"4669 LELAND PLACE, LAWRENCEVILLE, GA, 30052","No_Match",NA,NA,NA,NA
654469,"4669 MONTAUK STREET","ORLANDO","FL",32808,28.590945892,-81.443293949,469,"4669 MONTAUK STREET, ORLANDO, FL, 32808","Match","Exact","4669 MONTAUK ST, ORLANDO, FL, 32808",94270218,"R"
654470,"4669 MT HILL COVE","ARLINGTON","TN",38002,35.2535920660001,-89.7719935119999,470,"4669 MT HILL COVE, ARLINGTON, TN, 38002","Match","Exact","4669 MOUNT HILL COVE, ARLINGTON, TN, 38002",618369014,"L"
654471,"4669 MURPHY CANYON ROAD SUITE 210","SAN DIEGO","CA",92123,32.8273453410001,-117.119479286,471,"4669 MURPHY CANYON ROAD SUITE 210, SAN DIEGO, CA, 92123","Match","Exact","4669 MURPHY CANYON RD, SAN DIEGO, CA, 92123",637240719,"R"
654472,"4669 ORANGE JUNGLE WAY","LILBURN","GA",30047,33.879407186,-84.122968671,472,"4669 ORANGE JUNGLE WAY, LILBURN, GA, 30047","Match","Exact","4669 ORANGE JUNGLE WAY, LILBURN, GA, 30047",629917941,"R"
654473,"4669 PURDUE DR","BOYNTON BEACH","FL",33436,26.546847658,-80.117254884,473,"4669 PURDUE DR, BOYNTON BEACH, FL, 33436","Match","Exact","4669 PURDUE DR, BOYNTON BEACH, FL, 33436",115487980,"R"
654474,"4669 SNAPDRAGON WAY","SAN LUIS OBISPO","CA",93401,35.2435572100001,-120.630435996,474,"4669 SNAPDRAGON WAY, SAN LUIS OBISPO, CA, 93401","Match","Exact","4669 SNAPDRAGON WAY, SAN LUIS OBISPO, CA, 93401",109771371,"R"
654475,"4669 STURBRIDGE COURT","ORLANDO","FL",32818,28.4872893310001,-81.323251021,475,"4669 STURBRIDGE COURT, ORLANDO, FL, 32818","Match","Non_Exact","4669 STURBRIDGE CT, ORLANDO, FL, 32812",94288226,"R"
654476,"4669 W CARSON CITY RD","GREENVILLE","MI",48838,43.1689363900001,-85.1663795549999,476,"4669 W CARSON CITY RD, GREENVILLE, MI, 48838","Match","Exact","4669 W CARSON CITY RD, GREENVILLE, MI, 48838",642506482,"R"
654477,"46692 STATE ROUTE 78","WOODSFIELD","OH",43793,39.754247777,-80.975902735,477,"46692 STATE ROUTE 78, WOODSFIELD, OH, 43793","Match","Exact","46692 STATE RTE 78, WOODSFIELD, OH, 43793",606313195,"L"
654478,"46695 ORCHARD DRIVE","MIRAMONTE","CA",93685,36.685992873,-119.065371179,478,"46695 ORCHARD DRIVE, MIRAMONTE, CA, 93685","Match","Non_Exact","46695 ORCHARD DR, MIRAMONTE, CA, 93641",197626091,"L"
654479,"46695","EAST LIVERPOOL","OH",43920,NA,NA,479,"46695, EAST LIVERPOOL, OH, 43920","No_Match",NA,NA,NA,NA
654480,"467 12TH ST NW","BYRON","MN",55920,44.0411979560001,-92.654094709,480,"467 12TH ST NW, BYRON, MN, 55920","Match","Exact","467 12TH ST NW, BYRON, MN, 55920",30564390,"R"
654481,"467 1ST AVE N","BIG SANDY","MT",59520,48.180140511,-110.11495126,481,"467 1ST AVE N, BIG SANDY, MT, 59520","Match","Exact","467 1ST AVE N, BIG SANDY, MT, 59520",162487248,"R"
654482,"467 26TH ROAD","SUMMERFIELD","KS",66541,39.9468332590001,-96.333747912,482,"467 26TH ROAD, SUMMERFIELD, KS, 66541","Match","Exact","467 26TH RD, SUMMERFIELD, KS, 66541",28422335,"L"
654483,"467 5TH AVE S","CARRINGTON","ND",58421,47.4448770500001,-99.1189680319999,483,"467 5TH AVE S, CARRINGTON, ND, 58421","Match","Exact","467 5TH AVE S, CARRINGTON, ND, 58421",173965504,"R"
654484,"467 ADRIAN ROAD","ADRIAN","PA",16210,40.8706919840001,-79.536638822,484,"467 ADRIAN ROAD, ADRIAN, PA, 16210","Match","Exact","467 ADRIAN RD, ADRIAN, PA, 16210",52463221,"L"
654485,"467 APPLE BLOSSOM RD SW","PATASKALA","OH",43062,40.020561914,-82.6641703779999,485,"467 APPLE BLOSSOM RD SW, PATASKALA, OH, 43062","Match","Exact","467 APPLE BLOSSOM RD SW, PATASKALA, OH, 43062",645077779,"R"
654486,"467 ARNAZ DRIVE","LOS ANGELES","CA",90048,34.070438789,-118.382703445,486,"467 ARNAZ DRIVE, LOS ANGELES, CA, 90048","Match","Exact","467 ARNAZ DR, LOS ANGELES, CA, 90048",142719271,"R"
654487,"467 BANK STREET","PAINESVILLE","OH",44077,41.7182708980001,-81.2319230369999,487,"467 BANK STREET, PAINESVILLE, OH, 44077","Match","Exact","467 BANK ST, PAINESVILLE, OH, 44077",631961297,"L"
654488,"467 BARBERTOWN POINT BREEZE ROAD","FRENCHTOWN","NJ",8825,NA,NA,488,"467 BARBERTOWN POINT BREEZE ROAD, FRENCHTOWN, NJ, 8825","No_Match",NA,NA,NA,NA
654489,"467 BARBIN ST","HORSHAM","PA",19044,40.1988341860001,-75.1769943479999,489,"467 BARBIN ST, HORSHAM, PA, 19044","Match","Exact","467 BARBIN ST, HORSHAM, PA, 19044",645867846,"L"
654490,"467 BARCLAY SQUARE EAST","COLUMBUS","OH",43209,39.980845333,-82.924204018,490,"467 BARCLAY SQUARE EAST, COLUMBUS, OH, 43209","Match","Exact","467 BARCLAY SQ E, COLUMBUS, OH, 43209",135590734,"L"
654491,"467 BEACON CIRCLE","SPRINGFIELD","MA",1119,42.1282704480001,-72.506273168,491,"467 BEACON CIRCLE, SPRINGFIELD, MA, 1119","Match","Exact","467 BEACON CIR, SPRINGFIELD, MA, 01119",4059380,"L"
654492,"467 BRANTWOOD ROAD","AMHERST","NY",14226,42.950978111,-78.7933264279999,492,"467 BRANTWOOD ROAD, AMHERST, NY, 14226","Match","Exact","467 BRANTWOOD RD, AMHERST, NY, 14226",48298713,"R"
654493,"467 BRENTWOOD COURT","GREEN COVE SPRINGS","FL",32043,29.9838766770001,-81.689947979,493,"467 BRENTWOOD COURT, GREEN COVE SPRINGS, FL, 32043","Match","Exact","467 BRENTWOOD CT, GREEN COVE SPRINGS, FL, 32043",83835018,"L"
654494,"467 BRISTOL WAY","CORONA","CA",92879,33.893084549,-117.510650651,494,"467 BRISTOL WAY, CORONA, CA, 92879","Match","Exact","467 BRISTOL WAY, CORONA, CA, 92879",194834337,"L"
654495,"467 BRUNSWICK ROAD","MIDDLETOWN","PA",17057,40.2166270010001,-76.777532316,495,"467 BRUNSWICK ROAD, MIDDLETOWN, PA, 17057","Match","Exact","467 BRUNSWICK RD, MIDDLETOWN, PA, 17057",70830524,"R"
654496,"467 CHESTERFIELD ROAD","OAKDALE","CT",6370,41.4501443140001,-72.195054963,496,"467 CHESTERFIELD ROAD, OAKDALE, CT, 6370","Match","Exact","467 CHESTERFIELD RD, OAKDALE, CT, 06370",56840355,"R"
654497,"467 CHESTNUT STREET","HARRODSBURG","KY",40330,37.7566244120001,-84.84529725,497,"467 CHESTNUT STREET, HARRODSBURG, KY, 40330","Match","Exact","467 CHESTNUT ST, HARRODSBURG, KY, 40330",32614976,"R"
654498,"467 COMMONWEALTH AVE","BRONX","NY",10473,40.814059699,-73.864119533,498,"467 COMMONWEALTH AVE, BRONX, NY, 10473","Match","Exact","467 COMMONWEALTH AVE, BRONX, NY, 10473",80305124,"L"
654499,"467 COUNTRY VIEW LANE","LE SUEUR","MN",56058,44.4940161390001,-93.882112333,499,"467 COUNTRY VIEW LANE, LE SUEUR, MN, 56058","Match","Exact","467 COUNTRY VIEW LN, LE SUEUR, MN, 56058",28658525,"R"
654500,"467 COUNTY ROAD 61","RICEVILLE","TN",37370,35.4038099090001,-84.76490961,500,"467 COUNTY ROAD 61, RICEVILLE, TN, 37370","Match","Exact","467 CO RD 61, RICEVILLE, TN, 37370",88532681,"R"
