"ID","Address","City","State","Zip","lat","long","id","input_address","match_indicator","match_type","matched_address","tiger_line_id","tiger_side"
881001,"815 N KILGORE STREET","KILGORE","TX",75662,32.3901015170001,-94.871333484,1,"815 N KILGORE STREET, KILGORE, TX, 75662","Match","Exact","815 N KILGORE ST, KILGORE, TX, 75662",641437252,"L"
881002,"815 N LA BREA AVE 497","INGLEWOOD","CA",90302,33.9732015540001,-118.357577873,2,"815 N LA BREA AVE 497, INGLEWOOD, CA, 90302","Match","Non_Exact","815 N LA BREA AVE, INGLEWOOD, CA, 90302",142749670,"L"
881003,"815 N LABREA APT 429","INGLEWOOD","CA",90302,NA,NA,3,"815 N LABREA APT 429, INGLEWOOD, CA, 90302","No_Match",NA,NA,NA,NA
881004,"815 N LABREA AVE 166","INGLEWOOD","CA",90302,33.9732015540001,-118.357577873,4,"815 N LABREA AVE 166, INGLEWOOD, CA, 90302","Match","Non_Exact","815 N LA BREA AVE, INGLEWOOD, CA, 90302",142749670,"L"
881005,"815 N LABREA AVE UNIT 262","INGLEWOOD","CA",90302,33.9732015540001,-118.357577873,5,"815 N LABREA AVE UNIT 262, INGLEWOOD, CA, 90302","Match","Non_Exact","815 N LA BREA AVE, INGLEWOOD, CA, 90302",142749670,"L"
881006,"815 N LABREA AVENUE APT 282","INGLEWOOD","CA",90302,33.9732015540001,-118.357577873,6,"815 N LABREA AVENUE APT 282, INGLEWOOD, CA, 90302","Match","Non_Exact","815 N LA BREA AVE, INGLEWOOD, CA, 90302",142749670,"L"
881007,"815 N LABREA AVENUE NO 83","INGLEWOOD","CA",90302,NA,NA,7,"815 N LABREA AVENUE NO 83, INGLEWOOD, CA, 90302","No_Match",NA,NA,NA,NA
881008,"815 N LAVINA","LUDINGTON","MI",49431,43.9657252820001,-86.442353281,8,"815 N LAVINA, LUDINGTON, MI, 49431","Match","Non_Exact","815 N LAVINIA ST, LUDINGTON, MI, 49431",148053747,"L"
881009,"815 N MAIN STREET","MARION","SC",29571,34.1856190880001,-79.399836029,9,"815 N MAIN STREET, MARION, SC, 29571","Match","Exact","815 N MAIN ST, MARION, SC, 29571",28773078,"L"
881010,"815 N MALCOLM AVE","LOS ANGELES","CA",90024,34.0656369600001,-118.438783162,10,"815 N MALCOLM AVE, LOS ANGELES, CA, 90024","Match","Exact","815 MALCOLM AVE, LOS ANGELES, CA, 90024",141567758,"R"
881011,"815 N PATRICK ST UNIT 209","ALEXANDRIA","VA",22314,38.8136716240001,-77.048526287,11,"815 N PATRICK ST UNIT 209, ALEXANDRIA, VA, 22314","Match","Non_Exact","815 N PATRICK ST, ALEXANDRIA, VA, 22314",75988462,"R"
881012,"815 N PATRICK ST UNIT 411","ALEXANDRIA","VA",22314,38.8136716240001,-77.048526287,12,"815 N PATRICK ST UNIT 411, ALEXANDRIA, VA, 22314","Match","Non_Exact","815 N PATRICK ST, ALEXANDRIA, VA, 22314",75988462,"R"
881013,"815 N RIVER RD","MCHENRY","IL",60051,42.3373927910001,-88.2507320299999,13,"815 N RIVER RD, MCHENRY, IL, 60051","Match","Exact","815 N RIVER RD, MCHENRY, IL, 60051",119822370,"R"
881014,"815 N SHAMOKIN ST","SHAMOKIN","PA",17872,40.7932656620001,-76.551083959,14,"815 N SHAMOKIN ST, SHAMOKIN, PA, 17872","Match","Exact","815 N SHAMOKIN ST, SHAMOKIN, PA, 17872",48060286,"R"
881015,"815 NANCEFORD RD","HARTSELLE","AL",35640,34.430282936,-86.9469080969999,15,"815 NANCEFORD RD, HARTSELLE, AL, 35640","Match","Non_Exact","815 NANCE FORD RD SW, HARTSELLE, AL, 35640",636433908,"L"
881016,"815 NATHAN HALE RD","WEST PALM BEACH","FL",33405,26.658974119,-80.0623677729999,16,"815 NATHAN HALE RD, WEST PALM BEACH, FL, 33405","Match","Exact","815 NATHAN HALE RD, WEST PALM BEACH, FL, 33405",115280250,"R"
881017,"815 NAUDAIN AVENUE","CLAYMONT","DE",19703,39.796761717,-75.478596427,17,"815 NAUDAIN AVENUE, CLAYMONT, DE, 19703","Match","Exact","815 NAUDAIN AVE, CLAYMONT, DE, 19703",187260971,"R"
881018,"815 NE 70TH STREET","MIAMI","FL",33138,25.8397730620001,-80.179408671,18,"815 NE 70TH STREET, MIAMI, FL, 33138","Match","Exact","815 NE 70TH ST, MIAMI, FL, 33138",116056350,"L"
881019,"815 NEW MORNING RD","CAMANO ISLAND","WA",98282,48.180781616,-122.497535297,19,"815 NEW MORNING RD, CAMANO ISLAND, WA, 98282","Match","Exact","815 NEW MORNING RD, CAMANO ISLAND, WA, 98282",187591305,"R"
881020,"815 NIAGARA PARKWAY","NORTH TONAWANDA","NY",14120,43.0440654020001,-78.872475617,20,"815 NIAGARA PARKWAY, NORTH TONAWANDA, NY, 14120","Match","Exact","815 NIAGARA PKWY, N TONAWANDA, NY, 14120",48689249,"R"
881021,"815 NIGHT HERON LN","MYRTLE BEACH","SC",29572,33.794782474,-78.753450264,21,"815 NIGHT HERON LN, MYRTLE BEACH, SC, 29572","Match","Exact","815 NIGHT HERON LN, MYRTLE BEACH, SC, 29572",29065481,"R"
881022,"815 NOONTIDE WY","OXNARD","CA",93035,34.193853226,-119.196022131,22,"815 NOONTIDE WY, OXNARD, CA, 93035","Match","Exact","815 NOONTIDE WAY, OXNARD, CA, 93035",640538118,"R"
881023,"815 NORTH 72ND","EAST SAINT LOUIS","IL",62203,38.602584253,-90.073803695,23,"815 NORTH 72ND, EAST SAINT LOUIS, IL, 62203","Match","Non_Exact","815 N 72ND ST, E SAINT LOUIS, IL, 62203",107836940,"L"
881024,"815 NORTH 84TH STREET","EAST ST. LOUIS","IL",62203,38.5943234920001,-90.062671735,24,"815 NORTH 84TH STREET, EAST ST. LOUIS, IL, 62203","Match","Exact","815 N 84TH ST, E SAINT LOUIS, IL, 62203",107837536,"L"
881025,"815 NORTH CHURCH ST","ROCKFORD","IL",61103,42.2786828050001,-89.0897422739999,25,"815 NORTH CHURCH ST, ROCKFORD, IL, 61103","Match","Exact","815 N CHURCH ST, ROCKFORD, IL, 61103",49253078,"R"
881026,"815 NORTH GEORGE ST STE 12","YORK","PA",17404,39.9741245490001,-76.732128197,26,"815 NORTH GEORGE ST STE 12, YORK, PA, 17404","Match","Exact","815 N GEORGE ST, YORK, PA, 17404",88730364,"R"
881027,"815 NORTH LA BREA AVE 418","INGLEWOOD","CA",90302,33.9731878690001,-118.3575771,27,"815 NORTH LA BREA AVE 418, INGLEWOOD, CA, 90302","Match","Exact","815 N LA BREA AVE, INGLEWOOD, CA, 90302",142749670,"L"
881028,"815 NORTH LA BREA AVENUE SUITE 143","INGLEWOOD","CA",90302,33.9731878690001,-118.3575771,28,"815 NORTH LA BREA AVENUE SUITE 143, INGLEWOOD, CA, 90302","Match","Exact","815 N LA BREA AVE, INGLEWOOD, CA, 90302",142749670,"L"
881029,"815 NORTH LA BREA AVENUE","INGLEWOOD","CA",90302,33.9731878690001,-118.3575771,29,"815 NORTH LA BREA AVENUE, INGLEWOOD, CA, 90302","Match","Exact","815 N LA BREA AVE, INGLEWOOD, CA, 90302",142749670,"L"
881030,"815 NORTH LA BREA","INGLEWOOD","CA",90305,NA,NA,30,"815 NORTH LA BREA, INGLEWOOD, CA, 90305","No_Match",NA,NA,NA,NA
881031,"815 NORTH MAIN","MONTICELLO","AR",NA,33.6351743160001,-91.79026964,31,"815 NORTH MAIN, MONTICELLO, AR, ","Match","Non_Exact","815 N MAIN ST, MONTICELLO, AR, 71655",635794883,"L"
881032,"815 NORTH STREET","BEAVER DAM","WI",53916,43.4648117830001,-88.846349969,32,"815 NORTH STREET, BEAVER DAM, WI, 53916","Match","Exact","815 NORTH ST, BEAVER DAM, WI, 53916",53527872,"L"
881033,"815 NORTH STREET","BOULDER","CO",80304,40.0245788240001,-105.286780003,33,"815 NORTH STREET, BOULDER, CO, 80304","Match","Exact","815 NORTH ST, BOULDER, CO, 80304",188215557,"L"
881034,"815 NORTHAMPTON DR","CARY","NC",27513,35.7966180060001,-78.7798415359999,34,"815 NORTHAMPTON DR, CARY, NC, 27513","Match","Exact","815 NORTHAMPTON DR, CARY, NC, 27513",208362336,"L"
881035,"815 NW 3RD AVE","GALVA","IL",61434,41.1736562780001,-90.045789755,35,"815 NW 3RD AVE, GALVA, IL, 61434","Match","Exact","815 NW 3RD AVE, GALVA, IL, 61434",8911397,"R"
881036,"815 NW 8TH ST","GAINESVILLE","FL",32601,NA,NA,36,"815 NW 8TH ST, GAINESVILLE, FL, 32601","Tie",NA,NA,NA,NA
881037,"815 OAK DRIVE","POTTSTOWN","PA",19464,40.249262548,-75.589476652,37,"815 OAK DRIVE, POTTSTOWN, PA, 19464","Match","Exact","815 OAK DR, POTTSTOWN, PA, 19464",135129788,"L"
881038,"815 OAK HARBOR DR","HOUSTON","TX",77062,29.574271627,-95.142734504,38,"815 OAK HARBOR DR, HOUSTON, TX, 77062","Match","Exact","815 OAK HARBOR DR, HOUSTON, TX, 77062",96129946,"R"
881039,"815 OAK STREET","TERRE HAUTE","IN",47807,39.4614119610001,-87.405436679,39,"815 OAK STREET, TERRE HAUTE, IN, 47807","Match","Exact","815 OAK ST, TERRE HAUTE, IN, 47807",27114405,"R"
881040,"815 OAKRIDGE DR","STILLWATER","OK",74074,36.1100338320001,-97.129869245,40,"815 OAKRIDGE DR, STILLWATER, OK, 74074","Match","Exact","815 OAKRIDGE DR, STILLWATER, OK, 74074",166376724,"R"
881041,"815 OAKSTONE TRL","ROSWELL","GA",30075,34.034670168,-84.380221666,41,"815 OAKSTONE TRL, ROSWELL, GA, 30075","Match","Exact","815 OAKSTONE TRL, ROSWELL, GA, 30075",17331953,"R"
881042,"815 OLD MILL ROAD","HIGH POINT","NC",27265,36.0254437450001,-80.0099909049999,42,"815 OLD MILL ROAD, HIGH POINT, NC, 27265","Match","Exact","815 OLD MILL RD, HIGH POINT, NC, 27265",131088428,"L"
881043,"815 OLD WILLIAMSTON ROAD","PIEDMONT","SC",29673,34.7272794020001,-82.4997282309999,43,"815 OLD WILLIAMSTON ROAD, PIEDMONT, SC, 29673","Match","Exact","815 OLD WILLIAMSTON RD, PIEDMONT, SC, 29673",635736149,"L"
881044,"815 OLDE PIONEER TRAIL","KNOXVILLE","TN",37923,35.89909592,-84.068514552,44,"815 OLDE PIONEER TRAIL, KNOXVILLE, TN, 37923","Match","Exact","815 OLDE PIONEER TRL, KNOXVILLE, TN, 37923",635224243,"L"
881045,"815 OLIVE STREET 200","ST LOUIS","MO",63102,38.6285921510001,-90.192594559,45,"815 OLIVE STREET 200, ST LOUIS, MO, 63102","Match","Non_Exact","815 OLIVE ST, SAINT LOUIS, MO, 63101",653883975,"R"
881046,"815 OLIVE STREET","SAINT LOUIS","MO",63101,38.6285921510001,-90.192594559,46,"815 OLIVE STREET, SAINT LOUIS, MO, 63101","Match","Exact","815 OLIVE ST, SAINT LOUIS, MO, 63101",653883975,"R"
881047,"815 PARK CHASE DR","EVANS","GA",30809,33.5498381850001,-82.113327872,47,"815 PARK CHASE DR, EVANS, GA, 30809","Match","Exact","815 PARK CHASE DR, EVANS, GA, 30809",648441538,"R"
881048,"815 PARK ST","ELIZABETH CITY","NC",27909,36.290382321,-76.2151071499999,48,"815 PARK ST, ELIZABETH CITY, NC, 27909","Match","Exact","815 PARK ST, ELIZABETH CITY, NC, 27909",18592900,"L"
881049,"815 PARMLEY AVENUE  112","YEADON","PA",19050,39.9323516630001,-75.2488481509999,49,"815 PARMLEY AVENUE  112, YEADON, PA, 19050","Match","Exact","815 PARMLEY AVE, YEADON, PA, 19050",134886723,"L"
881050,"815 PASEO GRANDE","CORONA","CA",92882,33.8755885730001,-117.60300316,50,"815 PASEO GRANDE, CORONA, CA, 92882","Match","Non_Exact","815 PSO GRANDE, CORONA, CA, 92882",194813987,"L"
881051,"815 PATTERSON DRIVE","CARLISLE","IA",50047,41.48534776,-93.495059397,51,"815 PATTERSON DRIVE, CARLISLE, IA, 50047","Match","Exact","815 PATTERSON DR, CARLISLE, IA, 50047",617094379,"R"
881052,"815 PEACH PLACE DRIVE","FORT MILLS","SC",29715,35.0195146200001,-80.962225146,52,"815 PEACH PLACE DRIVE, FORT MILLS, SC, 29715","Match","Non_Exact","815 PEACH PLACE DR, FORT MILL, SC, 29715",19810331,"L"
881053,"815 PERRY STREET APT 313","RICHMOND","VA",23224,37.525353468,-77.4437319589999,53,"815 PERRY STREET APT 313, RICHMOND, VA, 23224","Match","Exact","815 PERRY ST, RICHMOND, VA, 23224",636667638,"R"
881054,"815 PERSHING DR APT 517","SILVER SPRING","MD",20910,38.9977563420001,-77.023428392,54,"815 PERSHING DR APT 517, SILVER SPRING, MD, 20910","Match","Exact","815 PERSHING DR, SILVER SPRING, MD, 20910",62068192,"R"
881055,"815 PERSHING DRIVE APT 237","SILVER SPRING","MD",20910,38.9977563420001,-77.023428392,55,"815 PERSHING DRIVE APT 237, SILVER SPRING, MD, 20910","Match","Exact","815 PERSHING DR, SILVER SPRING, MD, 20910",62068192,"R"
881056,"815 PERSHING DRIVE UNIT 322","SILVER SPRING","MD",20910,38.9977563420001,-77.023428392,56,"815 PERSHING DRIVE UNIT 322, SILVER SPRING, MD, 20910","Match","Exact","815 PERSHING DR, SILVER SPRING, MD, 20910",62068192,"R"
881057,"815 PERSHING DRIVE","SILVER SPRINGS","MD",20910,38.9977563420001,-77.023428392,57,"815 PERSHING DRIVE, SILVER SPRINGS, MD, 20910","Match","Exact","815 PERSHING DR, SILVER SPRING, MD, 20910",62068192,"R"
881058,"815 PIPESTONE","BENTON HARBOR","MI",49022,42.103163142,-86.442094343,58,"815 PIPESTONE, BENTON HARBOR, MI, 49022","Match","Non_Exact","815 PIPESTONE ST, BENTON HARBOR, MI, 49022",119973334,"L"
881059,"815 PLATEAU AVE","LAKELAND","FL",33815,28.034747107,-81.987966961,59,"815 PLATEAU AVE, LAKELAND, FL, 33815","Match","Exact","815 PLATEAU AVE, LAKELAND, FL, 33815",104808996,"R"
881060,"815 PO BOX 2383","SANFORD","FL",32772,NA,NA,60,"815 PO BOX 2383, SANFORD, FL, 32772","No_Match",NA,NA,NA,NA
881061,"815 POSSUM HOLLOW","SILSBEE","TX",77656,NA,NA,61,"815 POSSUM HOLLOW, SILSBEE, TX, 77656","Tie",NA,NA,NA,NA
881062,"815 PRESTON WOODS TRAIL","SANDY SPRINGS","GA",30338,33.9380613640001,-84.3510982179999,62,"815 PRESTON WOODS TRAIL, SANDY SPRINGS, GA, 30338","Match","Exact","815 PRESTON WOODS TRL, SANDY SPRINGS, GA, 30338",650079784,"L"
881063,"815 RACHEL COURT","HATTSVILLE","MD",20785,38.90345526,-76.8703147539999,63,"815 RACHEL COURT, HATTSVILLE, MD, 20785","Match","Non_Exact","815 RACHEL CT, HYATTSVILLE, MD, 20785",76331807,"L"
881064,"815 RACHEL COURT","HYATTSVILLE","MD",20785,38.90345526,-76.8703147539999,64,"815 RACHEL COURT, HYATTSVILLE, MD, 20785","Match","Exact","815 RACHEL CT, HYATTSVILLE, MD, 20785",76331807,"L"
881065,"815 RAINIER AVE S","SEATTLE","WA",98144,47.5955500470001,-122.31128915,65,"815 RAINIER AVE S, SEATTLE, WA, 98144","Match","Exact","815 RAINIER AVE S, SEATTLE, WA, 98144",186592906,"R"
881066,"815 RAINTREE CT","WESTLAKE VILLAGE","CA",91361,34.156471272,-118.842672295,66,"815 RAINTREE CT, WESTLAKE VILLAGE, CA, 91361","Match","Exact","815 RAINTREE CT, WESTLAKE VILLAGE, CA, 91361",109977192,"R"
881067,"815 RANCH ROAD","FLORENCE","SC",29506,34.182933635,-79.744875871,67,"815 RANCH ROAD, FLORENCE, SC, 29506","Match","Exact","815 RANCH RD, FLORENCE, SC, 29506",28879201,"R"
881068,"815 RANDOLPH","GLASGOW","MO",65254,39.2294627420001,-92.833892264,68,"815 RANDOLPH, GLASGOW, MO, 65254","Match","Non_Exact","815 RANDOLPH ST, GLASGOW, MO, 65254",23121393,"R"
881069,"815 RED HILL DR","LORAIN","OH",44052,41.4351319150001,-82.1768511179999,69,"815 RED HILL DR, LORAIN, OH, 44052","Match","Exact","815 RED HILL DR, LORAIN, OH, 44052",55419272,"L"
881070,"815 REGENT CIR NORTH","BRANDON","FL",33511,27.912165111,-82.274740703,70,"815 REGENT CIR NORTH, BRANDON, FL, 33511","Match","Exact","815 REGENT CIR N, BRANDON, FL, 33511",104596928,"R"
881071,"815 RIDGE ROAD","RISING SUN","MD",21911,39.718991277,-76.0973701189999,71,"815 RIDGE ROAD, RISING SUN, MD, 21911","Match","Exact","815 RIDGE RD, RISING SUN, MD, 21911",207858536,"R"
881072,"815 RIVERBARK LANE","DURHAM","NC",27703,35.9742462610001,-78.836144006,72,"815 RIVERBARK LANE, DURHAM, NC, 27703","Match","Exact","815 RIVERBARK LN, DURHAM, NC, 27703",71763911,"R"
881073,"815 ROBINS WAY","STAFFORD","TX",77477,29.6112276170001,-95.572661701,73,"815 ROBINS WAY, STAFFORD, TX, 77477","Match","Exact","815 ROBINS WAY, STAFFORD, TX, 77477",78294423,"L"
881074,"815 ROCKDALE ST","ROCK HILL","SC",29730,34.9049975500001,-81.027018826,74,"815 ROCKDALE ST, ROCK HILL, SC, 29730","Match","Exact","815 ROCKDALE ST, ROCK HILL, SC, 29730",636586786,"L"
881075,"815 ROCKPORT ROAD","JANESVILLE","WI",53548,42.672186025,-89.0293505,75,"815 ROCKPORT ROAD, JANESVILLE, WI, 53548","Match","Exact","815 ROCKPORT RD, JANESVILLE, WI, 53548",49854211,"L"
881076,"815 ROCKSHIRE DRIVE","HERCULANEUM","MO",63048,38.261487022,-90.406853164,76,"815 ROCKSHIRE DRIVE, HERCULANEUM, MO, 63048","Match","Exact","815 ROCKSHIRE DR, HERCULANEUM, MO, 63048",624908068,"R"
881077,"815 ROUTE 82 APT 103","HOPEWELL JUNCTION","NY",12533,41.5817738980001,-73.80673949,77,"815 ROUTE 82 APT 103, HOPEWELL JUNCTION, NY, 12533","Match","Exact","815 RTE 82, HOPEWELL JCT, NY, 12533",4174399,"R"
881078,"815 ROUTE 82 UNIT 103","HOPEWELL JCT","NY",12533,41.5817738980001,-73.80673949,78,"815 ROUTE 82 UNIT 103, HOPEWELL JCT, NY, 12533","Match","Exact","815 RTE 82, HOPEWELL JCT, NY, 12533",4174399,"R"
881079,"815 S 2ND AVE","WINTERSET","IA",50273,NA,NA,79,"815 S 2ND AVE, WINTERSET, IA, 50273","No_Match",NA,NA,NA,NA
881080,"815 S 3RD STREET","MONMOUTH","IL",61462,40.9038943560001,-90.644891683,80,"815 S 3RD STREET, MONMOUTH, IL, 61462","Match","Exact","815 S 3RD ST, MONMOUTH, IL, 61462",5502297,"R"
881081,"815 S 7TH STREET SHERIDAN COURT 1","PHILADELPHIA","PA",19147,39.9387954380001,-75.154655487,81,"815 S 7TH STREET SHERIDAN COURT 1, PHILADELPHIA, PA, 19147","Match","Non_Exact","815 S 7TH ST, PHILADELPHIA, PA, 19147",636465885,"L"
881082,"815 S ADAMS","JUNCTION CITY","KS",66441,NA,NA,82,"815 S ADAMS, JUNCTION CITY, KS, 66441","No_Match",NA,NA,NA,NA
881083,"815 S CHATHAM AVE","ELMHURST","IL",60126,41.874634959,-87.9324089739999,83,"815 S CHATHAM AVE, ELMHURST, IL, 60126","Match","Non_Exact","815 CHATHAM AVE, ELMHURST, IL, 60126",112580830,"L"
881084,"815 S LAKE DRIVE","INDEPENDENCE","MO",64053,39.100084623,-94.454384117,84,"815 S LAKE DRIVE, INDEPENDENCE, MO, 64053","Match","Exact","815 LAKE DR, INDEPENDENCE, MO, 64053",91529600,"L"
881085,"815 S LEAVITT","CHICAGO","IL",60612,NA,NA,85,"815 S LEAVITT, CHICAGO, IL, 60612","No_Match",NA,NA,NA,NA
881086,"815 S MAGNOLIA","LULING","TX",78648,29.670315316,-97.648532566,86,"815 S MAGNOLIA, LULING, TX, 78648","Match","Non_Exact","815 S MAGNOLIA AVE, LULING, TX, 78648",45538003,"R"
881087,"815 S MAIN STREET","CHIPPEWA FALLS","WI",54729,44.9167914390001,-91.390203598,87,"815 S MAIN STREET, CHIPPEWA FALLS, WI, 54729","Match","Exact","815 S MAIN ST, CHIPPEWA FALLS, WI, 54729",78925386,"L"
881088,"815 S OAK STREET","BLUFFTON","IN",46714,40.7319312560001,-85.177744396,88,"815 S OAK STREET, BLUFFTON, IN, 46714","Match","Exact","815 S OAK ST, BLUFFTON, IN, 46714",6617150,"R"
881089,"815 S PARK DRIVE","RAYMORE","MO",64083,NA,NA,89,"815 S PARK DRIVE, RAYMORE, MO, 64083","Tie",NA,NA,NA,NA
881090,"815 S ROCHESTER","MESA","AZ",85206,33.400864547,-111.726708144,90,"815 S ROCHESTER, MESA, AZ, 85206","Match","Exact","815 S ROCHESTER, MESA, AZ, 85206",128250193,"L"
881091,"815 S SOUTHERN ST","SEATTLE","WA",98108,47.529801417,-122.322484474,91,"815 S SOUTHERN ST, SEATTLE, WA, 98108","Match","Exact","815 S SOUTHERN ST, SEATTLE, WA, 98108",186592430,"R"
881092,"815 S SPRING","SIOUX FALLS","SD",57104,43.538700051,-96.73271656,92,"815 S SPRING, SIOUX FALLS, SD, 57104","Match","Non_Exact","815 S SPRING AVE, SIOUX FALLS, SD, 57104",34972549,"R"
881093,"815 SAINT ROCH AVENUE","SHREVEPORT","LA",71115,32.390271474,-93.699836761,93,"815 SAINT ROCH AVENUE, SHREVEPORT, LA, 71115","Match","Exact","815 ST ROCH AVE, SHREVEPORT, LA, 71115",650880274,"R"
881094,"815 SALEM AVE","ELIZABETH","NJ",7208,40.6822217920001,-74.217821354,94,"815 SALEM AVE, ELIZABETH, NJ, 7208","Match","Exact","815 SALEM AVE, ELIZABETH, NJ, 07208",60577830,"R"
881095,"815 SANDHURST DR","SALT LAKE CITY","UT",84103,40.7883330130001,-111.891655286,95,"815 SANDHURST DR, SALT LAKE CITY, UT, 84103","Match","Exact","815 SANDHURST DR, SALT LAKE CITY, UT, 84103",176138617,"R"
881096,"815 SANTA FE AVENUE","GR","NM",87020,NA,NA,96,"815 SANTA FE AVENUE, GR, NM, 87020","Tie",NA,NA,NA,NA
881097,"815 SCENIC TERRACE PL","CHULA VISTA","CA",91914,32.6583940290001,-116.946964818,97,"815 SCENIC TERRACE PL, CHULA VISTA, CA, 91914","Match","Exact","815 SCENIC TERRACE PL, CHULA VISTA, CA, 91914",195765205,"R"
881098,"815 SE CR 0185","KERENS","TX",75144,32.128200672,-96.25149017,98,"815 SE CR 0185, KERENS, TX, 75144","Match","Exact","815 SE CO RD 0185, KERENS, TX, 75144",183904756,"R"
881099,"815 SE WACO PLACE","WAUKEE","IA",50263,41.604650936,-93.844153434,99,"815 SE WACO PLACE, WAUKEE, IA, 50263","Match","Exact","815 SE WACO PL, WAUKEE, IA, 50263",65646768,"R"
881100,"815 SELMA RD","QUINCY","FL",32351,NA,NA,100,"815 SELMA RD, QUINCY, FL, 32351","No_Match",NA,NA,NA,NA
881101,"815 SHADOWLAWN AVE","GREENCASTLE","IN",46135,39.6499435320001,-86.855330636,101,"815 SHADOWLAWN AVE, GREENCASTLE, IN, 46135","Match","Exact","815 SHADOWLAWN AVE, GREENCASTLE, IN, 46135",50103741,"R"
881102,"815 SHADY BROOK LN","RED OAK","TX",75154,32.5192699350001,-96.733486075,102,"815 SHADY BROOK LN, RED OAK, TX, 75154","Match","Exact","815 SHADY BROOK LN, RED OAK, TX, 75154",214485261,"L"
881103,"815 SHALLOW BROOK AVE","WINTER SPRINGS","FL",32708,28.6951446050001,-81.280232728,103,"815 SHALLOW BROOK AVE, WINTER SPRINGS, FL, 32708","Match","Non_Exact","815 SHALLOWBROOK AVE, WINTER SPRINGS, FL, 32708",627352059,"R"
881104,"815 SHELVEY SUMMIT ROAD","RIDGWAY","PA",15853,NA,NA,104,"815 SHELVEY SUMMIT ROAD, RIDGWAY, PA, 15853","No_Match",NA,NA,NA,NA
881105,"815 SHERMAN HOLLOW ROAD","HUNTINGTON","VT",5462,44.346653261,-72.9936881949999,105,"815 SHERMAN HOLLOW ROAD, HUNTINGTON, VT, 5462","Match","Exact","815 SHERMAN HOLLOW RD, HUNTINGTON, VT, 05462",653664123,"L"
881106,"815 SHOULDER STRAP LANE","VANLEER","TN",37181,NA,NA,106,"815 SHOULDER STRAP LANE, VANLEER, TN, 37181","No_Match",NA,NA,NA,NA
881107,"815 SIERRA VERDE DR","VISTA","CA",92084,33.1954663280001,-117.23155849,107,"815 SIERRA VERDE DR, VISTA, CA, 92084","Match","Non_Exact","815 SIERRA VERDE, VISTA, CA, 92084",612894290,"R"
881108,"815 SMOKE CREEK RD","KNOXVILLE","TN",37934,35.8760116770001,-84.1324237589999,108,"815 SMOKE CREEK RD, KNOXVILLE, TN, 37934","Match","Exact","815 SMOKE CREEK RD, KNOXVILLE, TN, 37934",42637385,"R"
881109,"815 SO 9TH ST APT 401","TACOMA","WA",98405,47.2544866160001,-122.448141814,109,"815 SO 9TH ST APT 401, TACOMA, WA, 98405","Match","Non_Exact","815 S 9TH ST, TACOMA, WA, 98405",184646859,"R"
881110,"815 SOPER AVE","ROCKFORD","IL",61101,42.2842490620001,-89.124491512,110,"815 SOPER AVE, ROCKFORD, IL, 61101","Match","Exact","815 SOPER AVE, ROCKFORD, IL, 61101",49251972,"R"
881111,"815 SOUTH 11TH STREET","PHILADELPHIA","PA",19147,39.9397129440001,-75.160829328,111,"815 SOUTH 11TH STREET, PHILADELPHIA, PA, 19147","Match","Exact","815 S 11TH ST, PHILADELPHIA, PA, 19147",131423902,"L"
881112,"815 SOUTH 13TH STREET","NEDERLAND","TX",77627,29.9698734950001,-93.984142345,112,"815 SOUTH 13TH STREET, NEDERLAND, TX, 77627","Match","Exact","815 S 13TH ST, NEDERLAND, TX, 77627",73860616,"L"
881113,"815 SOUTH 13TH STREET","WEST MEMPHIS","AR",72301,35.136345138,-90.168876365,113,"815 SOUTH 13TH STREET, WEST MEMPHIS, AR, 72301","Match","Exact","815 S 13TH ST, WEST MEMPHIS, AR, 72301",69373001,"R"
881114,"815 SOUTH 3RD STREET","NEDERLAND","TX",77627,29.9794242200001,-93.9752059,114,"815 SOUTH 3RD STREET, NEDERLAND, TX, 77627","Match","Exact","815 S 3RD ST, NEDERLAND, TX, 77627",73860934,"R"
881115,"815 SOUTH 9TH AVENUE","MAYWOOD","IL",60153,41.88050874,-87.843871999,115,"815 SOUTH 9TH AVENUE, MAYWOOD, IL, 60153","Match","Exact","815 S 9TH AVE, MAYWOOD, IL, 60153",111754395,"L"
881116,"815 SOUTH 9TH ST APT 401","TACOMA","WA",98405,47.2544866160001,-122.448141814,116,"815 SOUTH 9TH ST APT 401, TACOMA, WA, 98405","Match","Exact","815 S 9TH ST, TACOMA, WA, 98405",184646859,"R"
881117,"815 SOUTH 9TH STREET","TACOMA","WA",98402,47.2544866160001,-122.448141814,117,"815 SOUTH 9TH STREET, TACOMA, WA, 98402","Match","Non_Exact","815 S 9TH ST, TACOMA, WA, 98405",184646859,"R"
881118,"815 SOUTH BARTON STREET","ARLINGTON","VA",22204,38.8658534630001,-77.084865384,118,"815 SOUTH BARTON STREET, ARLINGTON, VA, 22204","Match","Exact","815 S BARTON ST, ARLINGTON, VA, 22204",76470638,"L"
881119,"815 SOUTH MAIN STREET","SUMTER","SC",29150,33.9036285620001,-80.342637342,119,"815 SOUTH MAIN STREET, SUMTER, SC, 29150","Match","Exact","815 S MAIN ST, SUMTER, SC, 29150",202687063,"R"
881120,"815 SOUTH PAT THOMAS PKWY","QUINCY","FL",32351,30.5737133170001,-84.5929462829999,120,"815 SOUTH PAT THOMAS PKWY, QUINCY, FL, 32351","Match","Exact","815 S PAT THOMAS PKWY, QUINCY, FL, 32351",610802627,"R"
881121,"815 SOUTH QUINCY STREET","ARLINGTON","VA",22204,38.862193319,-77.099880807,121,"815 SOUTH QUINCY STREET, ARLINGTON, VA, 22204","Match","Exact","815 S QUINCY ST, ARLINGTON, VA, 22204",76470212,"L"
881122,"815 SOUTH RHODE ISLAND AVE","WELLSTON","OH",45692,39.1160711840001,-82.525545252,122,"815 SOUTH RHODE ISLAND AVE, WELLSTON, OH, 45692","Match","Exact","815 S RHODE ISLAND AVE, WELLSTON, OH, 45692",54773058,"L"
881123,"815 SOUTH STATE STREET","ANN ARBOR","MI",48104,42.2717101760001,-83.740626638,123,"815 SOUTH STATE STREET, ANN ARBOR, MI, 48104","Match","Exact","815 S STATE ST, ANN ARBOR, MI, 48104",26014771,"L"
881124,"815 SPRING MIST CT","SUGAR LAND","TX",77479,29.5946494300001,-95.679442078,124,"815 SPRING MIST CT, SUGAR LAND, TX, 77479","Match","Exact","815 SPRING MIST CT, SUGAR LAND, TX, 77479",227754047,"L"
881125,"815 SPRUCE B","SALINA","KS",67401,38.835720511,-97.6189478539999,125,"815 SPRUCE B, SALINA, KS, 67401","Match","Non_Exact","815 SPRUCE ST, SALINA, KS, 67401",196685139,"L"
881126,"815 SPRUCE ST","LEADVILLE","CO",80461,39.2497478860001,-106.296243415,126,"815 SPRUCE ST, LEADVILLE, CO, 80461","Match","Exact","815 SPRUCE ST, LEADVILLE, CO, 80461",105936412,"L"
881127,"815 SPRUCE STREET","LEADVILLE","CO",80461,39.2497478860001,-106.296243415,127,"815 SPRUCE STREET, LEADVILLE, CO, 80461","Match","Exact","815 SPRUCE ST, LEADVILLE, CO, 80461",105936412,"L"
881128,"815 ST LUKE","TERRELL","TX",75160,32.7225959900001,-96.284929292,128,"815 ST LUKE, TERRELL, TX, 75160","Match","Non_Exact","815 SAINT LUKE ST, TERRELL, TX, 75160",123747130,"L"
881129,"815 STEELS POINT","MADISON","MS",39110,32.5052976740001,-90.0782075399999,129,"815 STEELS POINT, MADISON, MS, 39110","Match","Exact","815 STEELS PT, MADISON, MS, 39110",636493429,"R"
881130,"815 STEWART ROAD","YUBA CITY","CA",95991,39.0871946680001,-121.623670975,130,"815 STEWART ROAD, YUBA CITY, CA, 95991","Match","Exact","815 STEWART RD, YUBA CITY, CA, 95991",68584692,"R"
881131,"815 SUMMER PARK DR STE 400","STAFFORD","TX",77477,29.607230235,-95.569419776,131,"815 SUMMER PARK DR STE 400, STAFFORD, TX, 77477","Match","Exact","815 SUMMER PARK DR, STAFFORD, TX, 77477",641130734,"R"
881132,"815 SUMMIT LOOP","ROGERS","AR",72756,36.3421528600001,-94.101980034,132,"815 SUMMIT LOOP, ROGERS, AR, 72756","Match","Exact","815 SUMMIT LOOP, ROGERS, AR, 72756",47842171,"L"
881133,"815 SUNSET DR","LINDSBORG","KS",67456,38.5839711520001,-97.680164695,133,"815 SUNSET DR, LINDSBORG, KS, 67456","Match","Exact","815 SUNSET DR, LINDSBORG, KS, 67456",142885856,"R"
881134,"815 SUNSET DRIVE","JORDAN","MN",55352,44.660159988,-93.6390765309999,134,"815 SUNSET DRIVE, JORDAN, MN, 55352","Match","Exact","815 SUNSET DR, JORDAN, MN, 55352",38146078,"L"
881135,"815 SUNSET","LINDSBORG","KS",67456,38.5839711520001,-97.680164695,135,"815 SUNSET, LINDSBORG, KS, 67456","Match","Non_Exact","815 SUNSET DR, LINDSBORG, KS, 67456",142885856,"R"
881136,"815 SUPERIOR AVE EAST SUITE 1618","CLEVELAND","OH",44114,NA,NA,136,"815 SUPERIOR AVE EAST SUITE 1618, CLEVELAND, OH, 44114","No_Match",NA,NA,NA,NA
881137,"815 SURREY COURT","CAMP HILL","PA",17011,40.2068951300001,-76.895124398,137,"815 SURREY COURT, CAMP HILL, PA, 17011","Match","Exact","815 SURREY CT, CAMP HILL, PA, 17011",88770444,"R"
881138,"815 SW E AVE","LAWTON","OK",73501,34.6028897850001,-98.400318252,138,"815 SW E AVE, LAWTON, OK, 73501","Match","Exact","815 SW E AVE, LAWTON, OK, 73501",14995412,"R"
881139,"815 SW ST JULIEN CT","PORT ST LUCIE","FL",34986,27.2949060240001,-80.3944195719999,139,"815 SW ST JULIEN CT, PORT ST LUCIE, FL, 34986","Match","Exact","815 SW ST JULIEN CT, PORT ST LUCIE, FL, 34986",610716153,"R"
881140,"815 TENNESSEE ST UNIT 113","SAN FRANCISCO","CA",94107,37.7614581340001,-122.389574373,140,"815 TENNESSEE ST UNIT 113, SAN FRANCISCO, CA, 94107","Match","Exact","815 TENNESSEE ST, SAN FRANCISCO, CA, 94107",192289641,"L"
881141,"815 TENNEY MOUNTAIN HIGHWAY","PLYMOUTH","NH",3264,43.770830017,-71.7560843109999,141,"815 TENNEY MOUNTAIN HIGHWAY, PLYMOUTH, NH, 3264","Match","Exact","815 TENNEY MOUNTAIN HWY, PLYMOUTH, NH, 03264",145698577,"R"
881142,"815 TERREHAUTE DRIVE","MAYSVILLE","KY",45106,38.651765821,-83.790293207,142,"815 TERREHAUTE DRIVE, MAYSVILLE, KY, 45106","Match","Non_Exact","815 TERRE HAUTE DR, MAYSVILLE, KY, 41056",58608710,"R"
881143,"815 TEXAS ROAD","EASTON","PA",18042,40.630567678,-75.261538555,143,"815 TEXAS ROAD, EASTON, PA, 18042","Match","Exact","815 TEXAS RD, EASTON, PA, 18042",136901032,"L"
881144,"815 THAYER AVE APT 528","SILVER SPRING","MD",20910,38.993104428,-77.022424143,144,"815 THAYER AVE APT 528, SILVER SPRING, MD, 20910","Match","Exact","815 THAYER AVE, SILVER SPRING, MD, 20910",62068229,"R"
881145,"815 THIRD STREET","UNION BEACH","NJ",7735,40.450673728,-74.1724144619999,145,"815 THIRD STREET, UNION BEACH, NJ, 7735","Match","Exact","815 3RD ST, UNION BEACH, NJ, 07735",90472728,"L"
881146,"815 THOMAS CT APT 24","WINCHESTER","VA",22601,39.1989634080001,-78.161476282,146,"815 THOMAS CT APT 24, WINCHESTER, VA, 22601","Match","Exact","815 THOMAS CT, WINCHESTER, VA, 22601",55608996,"L"
881147,"815 TURNBERRY WAY","NICEVILLE","FL",32578,30.47831825,-86.422684577,147,"815 TURNBERRY WAY, NICEVILLE, FL, 32578","Match","Non_Exact","815 TURN BERRY WAY, NICEVILLE, FL, 32578",74400579,"L"
881148,"815 TURQUOISE TRAIL","MORGANVILLE","NJ",7751,40.3497643540001,-74.219383893,148,"815 TURQUOISE TRAIL, MORGANVILLE, NJ, 7751","Match","Exact","815 TURQUOISE TRL, MORGANVILLE, NJ, 07751",90500408,"R"
881149,"815 TUSCARORA TRAIL","JACKSONVILLE","NC",28546,34.741430934,-77.308020974,149,"815 TUSCARORA TRAIL, JACKSONVILLE, NC, 28546","Match","Exact","815 TUSCARORA TRL, JACKSONVILLE, NC, 28546",648064445,"L"
881150,"815 US HWY 59","BARRETT","MN",56311,45.906566721,-95.887583026,150,"815 US HWY 59, BARRETT, MN, 56311","Match","Exact","815 US HWY 59, BARRETT, MN, 56311",605854823,"R"
881151,"815 VALLEY VIEW DR","FULTON","IL",61252,41.8777314770001,-90.160653372,151,"815 VALLEY VIEW DR, FULTON, IL, 61252","Match","Exact","815 VALLEY VIEW DR, FULTON, IL, 61252",48981349,"R"
881152,"815 VAN SINDEREN AVENUE UNIT A","BROOKLYN","NY",11207,40.6563951270001,-73.898746908,152,"815 VAN SINDEREN AVENUE UNIT A, BROOKLYN, NY, 11207","Match","Exact","815 VAN SINDEREN AVE, BROOKLYN, NY, 11207",59084924,"L"
881153,"815 VIEWMONT DRIVE","ASHEBORO","NC",27205,35.7348597450001,-79.830779913,153,"815 VIEWMONT DRIVE, ASHEBORO, NC, 27205","Match","Exact","815 VIEWMONT DR, ASHEBORO, NC, 27205",20428346,"L"
881154,"815 VILLAGE GREEN DRIVE","ANGOLA","IN",46703,41.654504176,-84.9968991389999,154,"815 VILLAGE GREEN DRIVE, ANGOLA, IN, 46703","Match","Exact","815 VILLAGE GREEN DR, ANGOLA, IN, 46703",7720517,"L"
881155,"815 VILLAGE ROAD","CHARLOTTESVILLE","VA",22903,38.0187097400001,-78.5013726349999,155,"815 VILLAGE ROAD, CHARLOTTESVILLE, VA, 22903","Match","Exact","815 VILLAGE RD, CHARLOTTESVILLE, VA, 22903",83369573,"L"
881156,"815 VIRGINIA","LEWISTOWN","MT",59457,NA,NA,156,"815 VIRGINIA, LEWISTOWN, MT, 59457","No_Match",NA,NA,NA,NA
881157,"815 W 12TH AVENUE","EMPORIA","KS",66801,38.4122937120001,-96.191136478,157,"815 W 12TH AVENUE, EMPORIA, KS, 66801","Match","Exact","815 W 12TH AVE, EMPORIA, KS, 66801",10976373,"L"
881158,"815 W 1700 S","MARRIOTT-SLATERVILLE","UT",84404,NA,NA,158,"815 W 1700 S, MARRIOTT-SLATERVILLE, UT, 84404","No_Match",NA,NA,NA,NA
881159,"815 W 180TH STREET BSMT","NEW YORK","NY",10033,40.8502068660001,-73.939711626,159,"815 W 180TH STREET BSMT, NEW YORK, NY, 10033","Match","Non_Exact","815 W 180TH ST, NEW YORK, NY, 10033",59655495,"R"
881160,"815 W 180TH","NEW YORK","NY",10033,40.8502068660001,-73.939711626,160,"815 W 180TH, NEW YORK, NY, 10033","Match","Non_Exact","815 W 180TH ST, NEW YORK, NY, 10033",59655495,"R"
881161,"815 W 181ST ST APT 5F","NEW YORK","NY",10022,NA,NA,161,"815 W 181ST ST APT 5F, NEW YORK, NY, 10022","No_Match",NA,NA,NA,NA
881162,"815 W 3RD ST","CENTRALIA","WA",98531,46.7251125170001,-122.962095503,162,"815 W 3RD ST, CENTRALIA, WA, 98531","Match","Exact","815 W 3RD ST, CENTRALIA, WA, 98531",180708799,"R"
881163,"815 W 63RD ST 2ND FLOOR","CHICAGO","IL",60621,41.779735198,-87.645522569,163,"815 W 63RD ST 2ND FLOOR, CHICAGO, IL, 60621","Match","Non_Exact","815 W 63RD ST, CHICAGO, IL, 60621",642122999,"L"
881164,"815 W ADAMS","FALFURRIAS","TX",78355,27.2229664270001,-98.155129312,164,"815 W ADAMS, FALFURRIAS, TX, 78355","Match","Non_Exact","815 W ADAMS ST, FALFURRIAS, TX, 78355",21452310,"L"
881165,"815 W ARIZONA BLVD","TUBA CITY","AZ",86045,NA,NA,165,"815 W ARIZONA BLVD, TUBA CITY, AZ, 86045","No_Match",NA,NA,NA,NA
881166,"815 W AVE D","SAN ANGELO","TX",76903,31.4534707400001,-100.44644074,166,"815 W AVE D, SAN ANGELO, TX, 76903","Match","Exact","815 W AVE D, SAN ANGELO, TX, 76903",190693576,"L"
881167,"815 W BUCKINGHAM UNIT G","CHICAGO","IL",60657,NA,NA,167,"815 W BUCKINGHAM UNIT G, CHICAGO, IL, 60657","No_Match",NA,NA,NA,NA
881168,"815 W CENTRAL AVENUE","BISMARCK","ND",58501,46.8253712310001,-100.80289739,168,"815 W CENTRAL AVENUE, BISMARCK, ND, 58501","Match","Exact","815 W CENTRAL AVE, BISMARCK, ND, 58501",198847567,"L"
881169,"815 W CHESTNUT","THROCKMORTON","TX",76483,33.181107926,-99.192624973,169,"815 W CHESTNUT, THROCKMORTON, TX, 76483","Match","Non_Exact","815 W CHESTNUT ST, THROCKMORTON, TX, 76483",183088544,"L"
881170,"815 W DAPHNE RD","GLENDALE","WI",53217,43.138195642,-87.9188953619999,170,"815 W DAPHNE RD, GLENDALE, WI, 53217","Match","Exact","815 W DAPHNE RD, GLENDALE, WI, 53217",77735990,"L"
881171,"815 W DIVISION","MARINE","IL",62061,38.7865823160001,-89.786885709,171,"815 W DIVISION, MARINE, IL, 62061","Match","Non_Exact","815 W DIVISION ST, MARINE, IL, 62061",647137181,"R"
881172,"815 W DOUGLAS RD LOT 98","MISHWAKA","IN",46545,NA,NA,172,"815 W DOUGLAS RD LOT 98, MISHWAKA, IN, 46545","No_Match",NA,NA,NA,NA
881173,"815 W ERIE","LEWISTOWN","MT",59457,47.0665414710001,-109.438353714,173,"815 W ERIE, LEWISTOWN, MT, 59457","Match","Non_Exact","815 W ERIE ST, LEWISTOWN, MT, 59457",170591756,"L"
881174,"815 W FIR ST","SEQUIM","WA",98382,48.083314579,-123.12248711,174,"815 W FIR ST, SEQUIM, WA, 98382","Match","Exact","815 W FIR ST, SEQUIM, WA, 98382",647739011,"R"
881175,"815 W GERMANIA AVENUE","MURRAY","UT",84123,40.659968689,-111.913278587,175,"815 W GERMANIA AVENUE, MURRAY, UT, 84123","Match","Exact","815 GERMANIA AVE, MURRAY, UT, 84123",630251371,"R"
881176,"815 W GRAND CANYON AVE","FLAGSTAFF","AZ",86001,35.1990936710001,-111.658277399,176,"815 W GRAND CANYON AVE, FLAGSTAFF, AZ, 86001","Match","Exact","815 W GRAND CANYON AVE, FLAGSTAFF, AZ, 86001",188860948,"R"
881177,"815 W HIGHLAND ST","WHITEWATER","WI",53190,42.8326020580001,-88.742601828,177,"815 W HIGHLAND ST, WHITEWATER, WI, 53190","Match","Exact","815 W HIGHLAND ST, WHITEWATER, WI, 53190",53663480,"L"
881178,"815 W MAIN ST","COLDWATER","OH",45828,40.479765995,-84.6395306319999,178,"815 W MAIN ST, COLDWATER, OH, 45828","Match","Exact","815 W MAIN ST, COLDWATER, OH, 45828",43086609,"L"
881179,"815 W MAIN ST","MOUNT OLIVE","ID",62069,NA,NA,179,"815 W MAIN ST, MOUNT OLIVE, ID, 62069","No_Match",NA,NA,NA,NA
881180,"815 W MAIN ST","MOUNT OLIVE","IL",62069,39.072303338,-89.737077257,180,"815 W MAIN ST, MOUNT OLIVE, IL, 62069","Match","Exact","815 W MAIN ST, MOUNT OLIVE, IL, 62069",97923397,"L"
881181,"815 W MONROE CIR","PITTSBURGH","PA",15229,40.5311353270001,-80.031216539,181,"815 W MONROE CIR, PITTSBURGH, PA, 15229","Match","Exact","815 W MONROE CIR, PITTSBURGH, PA, 15229",51620005,"L"
881182,"815 W MONROE STREET","TOMAH","WI",54660,NA,NA,182,"815 W MONROE STREET, TOMAH, WI, 54660","No_Match",NA,NA,NA,NA
881183,"815 W NEWPORT AVE APT 2F","CHICAGO","IL",60657,41.944513865,-87.650164232,183,"815 W NEWPORT AVE APT 2F, CHICAGO, IL, 60657","Match","Non_Exact","815 W NEWPORT AVE, CHICAGO, IL, 60657",605209992,"L"
881184,"815 W SOUTH ST","AURORA","MO",65605,36.96947198,-93.733229458,184,"815 W SOUTH ST, AURORA, MO, 65605","Match","Exact","815 W SOUTH ST, AURORA, MO, 65605",640160825,"R"
881185,"815 WADSWORTH STREET","TRAVERSE CITY","MI",49684,44.7555487760001,-85.628274577,185,"815 WADSWORTH STREET, TRAVERSE CITY, MI, 49684","Match","Exact","815 WADSWORTH ST, TRAVERSE CITY, MI, 49684",145514358,"R"
881186,"815 WALNUT CREEK DRIVE","LILBURN","GA",30047,33.891125394,-84.169822174,186,"815 WALNUT CREEK DRIVE, LILBURN, GA, 30047","Match","Non_Exact","815 WALNUT CREEK DR NW, LILBURN, GA, 30047",88921568,"R"
881187,"815 WALNUT STREET","SUTHERLAND","NE",69165,41.16461803,-101.127137042,187,"815 WALNUT STREET, SUTHERLAND, NE, 69165","Match","Exact","815 WALNUT ST, SUTHERLAND, NE, 69165",151262653,"R"
881188,"815 WARE AVE NE","WINTER HAVEN","FL",33881,28.0478150970001,-81.713165209,188,"815 WARE AVE NE, WINTER HAVEN, FL, 33881","Match","Exact","815 WARE AVE NE, WINTER HAVEN, FL, 33881",647084272,"R"
881189,"815 WASHINGTON ST","OREGON CITY","OR",97045,45.357526545,-122.603903119,189,"815 WASHINGTON ST, OREGON CITY, OR, 97045","Match","Exact","815 WASHINGTON ST, OREGON CITY, OR, 97045",157976577,"L"
881190,"815 WERNSING ROAD","JASPER","IN",47546,38.3781538310001,-86.9423444239999,190,"815 WERNSING ROAD, JASPER, IN, 47546","Match","Exact","815 WERNSING RD, JASPER, IN, 47546",644937721,"L"
881191,"815 WEST 181 STREET 5C","NEW YORK","NY",10033,40.851096646,-73.938914923,191,"815 WEST 181 STREET 5C, NEW YORK, NY, 10033","Match","Exact","815 W 181ST ST, NEW YORK, NY, 10033",59655463,"R"
881192,"815 WEST 59TH PLACE","MERRILLVILLE","IN",46410,41.5097306000001,-87.346094313,192,"815 WEST 59TH PLACE, MERRILLVILLE, IN, 46410","Match","Exact","815 W 59TH PL, MERRILLVILLE, IN, 46410",98434831,"L"
881193,"815 WEST ABRAM APT 1139","ARLINGTON","TX",76013,32.735786009,-97.1170584129999,193,"815 WEST ABRAM APT 1139, ARLINGTON, TX, 76013","Match","Non_Exact","815 W ABRAM ST, ARLINGTON, TX, 76013",101907787,"R"
881194,"815 WEST AVENUE J","LANCASTER","CA",NA,34.689504492,-118.143754606,194,"815 WEST AVENUE J, LANCASTER, CA, ","Match","Exact","815 W AVE J, LANCASTER, CA, 93534",241135083,"R"
881195,"815 WEST CRESTVIEW STREET","CORONA","CA",92882,33.865612055,-117.577531237,195,"815 WEST CRESTVIEW STREET, CORONA, CA, 92882","Match","Non_Exact","815 W CRESTVIEW AVE, CORONA, CA, 92882",194777764,"R"
881196,"815 WEST GRAND","DAYTON","OH",45402,39.7673279520001,-84.2105024479999,196,"815 WEST GRAND, DAYTON, OH, 45402","Match","Non_Exact","815 W GRAND AVE, DAYTON, OH, 45402",143570074,"R"
881197,"815 WEST MARKET STREET NO 300","LOUISVILLE","KY",40202,38.2559986890001,-85.7637138979999,197,"815 WEST MARKET STREET NO 300, LOUISVILLE, KY, 40202","Match","Non_Exact","815 W MARKET ST, LOUISVILLE, KY, 40202",96842511,"R"
881198,"815 WEST MCPHERSON AVE","MEMPHIS","MO",63555,40.469572365,-92.179113269,198,"815 WEST MCPHERSON AVE, MEMPHIS, MO, 63555","Match","Non_Exact","815 MCPHERSON AVE, MEMPHIS, MO, 63555",13237266,"R"
881199,"815 WEST RANCH ROAD","BOISE","ID",83702,43.6478038670001,-116.196165207,199,"815 WEST RANCH ROAD, BOISE, ID, 83702","Match","Non_Exact","815 RANCH RD, BOISE, ID, 83702",117860108,"L"
881200,"815 WEST X STREET","WASHOUGAL","WA",98671,45.594362189,-122.3812425,200,"815 WEST X STREET, WASHOUGAL, WA, 98671","Match","Exact","815 W X ST, WASHOUGAL, WA, 98671",158369242,"L"
881201,"815 WESTGATE COURT","CHICO","CA",95926,39.7296093370001,-121.878766416,201,"815 WESTGATE COURT, CHICO, CA, 95926","Match","Exact","815 WESTGATE CT, CHICO, CA, 95926",68486340,"R"
881202,"815 WILCOX","COVINGTON","TN",38019,35.550394426,-89.6540243869999,202,"815 WILCOX, COVINGTON, TN, 38019","Match","Non_Exact","815 WILCOX AVE, COVINGTON, TN, 38019",73162701,"R"
881203,"815 WILLOW ST","HOBOKEN","NJ",7030,40.7468917890001,-74.031816767,203,"815 WILLOW ST, HOBOKEN, NJ, 7030","Match","Non_Exact","815 WILLOW AVE, HOBOKEN, NJ, 07030",59606882,"R"
881204,"815 WOODEN BLVD","ORLANDO","FL",32805,28.5317887210001,-81.42096928,204,"815 WOODEN BLVD, ORLANDO, FL, 32805","Match","Exact","815 WOODEN BLVD, ORLANDO, FL, 32805",94273587,"L"
881205,"815 WOODINGTON LN","CHARLOTTE","NC",28214,35.310006544,-80.986483283,205,"815 WOODINGTON LN, CHARLOTTE, NC, 28214","Match","Exact","815 WOODINGTON LN, CHARLOTTE, NC, 28214",70555887,"L"
881206,"815 WORDSWORTH DRIVE","BATON ROUGE","LA",70810,30.367664307,-91.0808325799999,206,"815 WORDSWORTH DRIVE, BATON ROUGE, LA, 70810","Match","Exact","815 WORDSWORTH DR, BATON ROUGE, LA, 70810",92206258,"R"
881207,"815 YORK ST","BROWNSVILLE","PA",15417,40.010103052,-79.895906871,207,"815 YORK ST, BROWNSVILLE, PA, 15417","Match","Exact","815 YORK ST, BROWNSVILLE, PA, 15417",51157480,"L"
881208,"815 YORK STREET","BROWNSVILLE","PA",15417,40.010103052,-79.895906871,208,"815 YORK STREET, BROWNSVILLE, PA, 15417","Match","Exact","815 YORK ST, BROWNSVILLE, PA, 15417",51157480,"L"
881209,"815-A BRAZOS STREET  SUITE 621","AUSTIN","TX",78701,30.2697206070001,-97.740700942,209,"815-A BRAZOS STREET  SUITE 621, AUSTIN, TX, 78701","Match","Exact","815 BRAZOS ST, AUSTIN, TX, 78701",63946472,"R"
881210,"815-A BRAZOS STREET 663","AUSTIN","TX",78701,30.2697206070001,-97.740700942,210,"815-A BRAZOS STREET 663, AUSTIN, TX, 78701","Match","Exact","815 BRAZOS ST, AUSTIN, TX, 78701",63946472,"R"
881211,"815-A BRAZOS STREET","AUSTIN","TX",78701,30.2697206070001,-97.740700942,211,"815-A BRAZOS STREET, AUSTIN, TX, 78701","Match","Exact","815 BRAZOS ST, AUSTIN, TX, 78701",63946472,"R"
881212,"815-B SPRUCE STREET","SALINA","KS",67401,38.835720511,-97.6189478539999,212,"815-B SPRUCE STREET, SALINA, KS, 67401","Match","Exact","815 SPRUCE ST, SALINA, KS, 67401",196685139,"L"
881213,"815","DURHAM","NC",27707,NA,NA,213,"815, DURHAM, NC, 27707","No_Match",NA,NA,NA,NA
881214,"8150 144TH AVE NW","RAMSEY","MN",55303,45.2315638160001,-93.474185312,214,"8150 144TH AVE NW, RAMSEY, MN, 55303","Match","Exact","8150 144TH AVE NW, RAMSEY, MN, 55303",635815734,"L"
881215,"8150 BAYTREE TOWNE CIRCLE EAST","JACKSONVILLE","FL",32256,30.222184972,-81.5567113279999,215,"8150 BAYTREE TOWNE CIRCLE EAST, JACKSONVILLE, FL, 32256","Match","Exact","8150 BAYTREE TOWNE CIR E, JACKSONVILLE, FL, 32256",83920889,"R"
881216,"8150 BEAUREGARD ROAD","WESSON","MS",39191,31.7471590320001,-90.28804423,216,"8150 BEAUREGARD ROAD, WESSON, MS, 39191","Match","Exact","8150 BEAUREGARD RD, WESSON, MS, 39191",612381837,"R"
881217,"8150 BOHEMIAN ROAD","CORNING","OH",43730,39.599094585,-82.150957375,217,"8150 BOHEMIAN ROAD, CORNING, OH, 43730","Match","Non_Exact","8150 BOHEMIAN RD SE, CORNING, OH, 43730",37374696,"R"
881218,"8150 BRISTOL BAY AVE","LAKELAND","FL",33810,28.1481749220001,-81.9840355869999,218,"8150 BRISTOL BAY AVE, LAKELAND, FL, 33810","Match","Exact","8150 BRISTOL BAY AVE, LAKELAND, FL, 33810",614456198,"R"
881219,"8150 BROOKSVILLE RD","LOUISVILLE","MS",39339,33.167546687,-88.911150998,219,"8150 BROOKSVILLE RD, LOUISVILLE, MS, 39339","Match","Exact","8150 BROOKSVILLE RD, LOUISVILLE, MS, 39339",649660705,"R"
881220,"8150 CLARK MILLS ROAD","WHITSBORO","NY",13492,43.102690943,-75.3517812059999,220,"8150 CLARK MILLS ROAD, WHITSBORO, NY, 13492","Match","Non_Exact","8150 CLARK MILLS RD, WHITESBORO, NY, 13492",171548095,"L"
881221,"8150 DERRY STREET SUITE D","HARRISBURG","PA",17111,40.2685463380001,-76.749858635,221,"8150 DERRY STREET SUITE D, HARRISBURG, PA, 17111","Match","Exact","8150 DERRY ST, HARRISBURG, PA, 17111",70846517,"L"
881222,"8150 EAST 100 SOUTH","ZIONSVILLE","IN",46077,40.0266874170001,-86.3148929229999,222,"8150 EAST 100 SOUTH, ZIONSVILLE, IN, 46077","Match","Exact","8150 E 100 S, ZIONSVILLE, IN, 46077",610982537,"R"
881223,"8150 EAST ROBINWOOD STREET","DETROIT","MI",48234,42.4317941310001,-83.0218787009999,223,"8150 EAST ROBINWOOD STREET, DETROIT, MI, 48234","Match","Exact","8150 E ROBINWOOD ST, DETROIT, MI, 48234",95465964,"R"
881224,"8150 HANSOM DRIVE","OAKLAND HILLS","CA",94605,37.771073347,-122.135823647,224,"8150 HANSOM DRIVE, OAKLAND HILLS, CA, 94605","Match","Non_Exact","8150 HANSOM DR, OAKLAND, CA, 94605",606843035,"L"
881225,"8150 HANSOM DRIVE","OAKLAND","CA",94605,37.771073347,-122.135823647,225,"8150 HANSOM DRIVE, OAKLAND, CA, 94605","Match","Exact","8150 HANSOM DR, OAKLAND, CA, 94605",606843035,"L"
881226,"8150 LAUREL DR","MEMPHIS","TN",38125,NA,NA,226,"8150 LAUREL DR, MEMPHIS, TN, 38125","No_Match",NA,NA,NA,NA
881227,"8150 LEON BRENDA LANE","OOLTEWAH","TN",37363,35.0650824750001,-85.103623284,227,"8150 LEON BRENDA LANE, OOLTEWAH, TN, 37363","Match","Exact","8150 LEON BRENDA LN, OOLTEWAH, TN, 37363",645243750,"L"
881228,"8150 MAPLE LN","EVANSVILLE","IN",47725,38.0507114120001,-87.5221921789999,228,"8150 MAPLE LN, EVANSVILLE, IN, 47725","Match","Exact","8150 MAPLE LN, EVANSVILLE, IN, 47725",39792204,"L"
881229,"8150 MILLINGTON ARLINGTON RD","MILLINGTON","TN",38053,35.3431585490001,-89.79222624,229,"8150 MILLINGTON ARLINGTON RD, MILLINGTON, TN, 38053","Match","Exact","8150 MILLINGTON ARLINGTON RD, MILLINGTON, TN, 38053",72900647,"L"
881230,"8150 MOORERION WAY","SHINGLETOWN","CA",96088,NA,NA,230,"8150 MOORERION WAY, SHINGLETOWN, CA, 96088","No_Match",NA,NA,NA,NA
881231,"8150 N STATE ROAD 39","LEBANON","IN",46052,40.157250289,-86.4851111949999,231,"8150 N STATE ROAD 39, LEBANON, IN, 46052","Match","Exact","8150 STATE RD 39, LEBANON, IN, 46052",610994176,"L"
881232,"8150 NASHVILLE AVE","BURBANK","IL",60459,41.743585818,-87.784926931,232,"8150 NASHVILLE AVE, BURBANK, IL, 60459","Match","Exact","8150 NASHVILLE AVE, BURBANK, IL, 60459",639816758,"R"
881233,"8150 NORTH DEARING AVE","FRESNO","CA",93720,36.8545563970001,-119.739468014,233,"8150 NORTH DEARING AVE, FRESNO, CA, 93720","Match","Exact","8150 N DEARING AVE, FRESNO, CA, 93720",197621827,"L"
881234,"8150 NORTH VASSAR ROAD","MT MORRIS","MI",48458,43.125423121,-83.578939286,234,"8150 NORTH VASSAR ROAD, MT MORRIS, MI, 48458","Match","Exact","8150 N VASSAR RD, MOUNT MORRIS, MI, 48458",69608072,"L"
881235,"8150 PERRY HIGHWAY SUITE 208","PITTSBURGH","PA",15237,40.5553085610001,-80.0388252829999,235,"8150 PERRY HIGHWAY SUITE 208, PITTSBURGH, PA, 15237","Match","Exact","8150 PERRY HWY, PITTSBURGH, PA, 15237",607661171,"L"
881236,"8150 PIGEON CREEK DRIVE","WEST OLIVE","MI",49460,42.9180618950001,-86.157781696,236,"8150 PIGEON CREEK DRIVE, WEST OLIVE, MI, 49460","Match","Exact","8150 PIGEON CREEK DR, WEST OLIVE, MI, 49460",71095573,"L"
881237,"8150 PIMLICO PLACE","WESLEY CHAPEL","FL",33544,28.2765055850001,-82.3559636639999,237,"8150 PIMLICO PLACE, WESLEY CHAPEL, FL, 33544","Match","Exact","8150 PIMLICO PL, WESLEY CHAPEL, FL, 33544",86398261,"R"
881238,"8150 POINT MEADOWS DR APT 1002","JACKSONVILLE","FL",32256,30.2191360140001,-81.5165420709999,238,"8150 POINT MEADOWS DR APT 1002, JACKSONVILLE, FL, 32256","Match","Exact","8150 POINT MEADOWS DR, JACKSONVILLE, FL, 32256",83962283,"R"
881239,"8150 REDFORD WY","SACRAMENTO","CA",95829,38.459124515,-121.35795257,239,"8150 REDFORD WY, SACRAMENTO, CA, 95829","Match","Exact","8150 REDFORD WAY, SACRAMENTO, CA, 95829",133406058,"L"
881240,"8150 RIVER RD APT 254","BROOKLYN PARK","MN",55444,NA,NA,240,"8150 RIVER RD APT 254, BROOKLYN PARK, MN, 55444","No_Match",NA,NA,NA,NA
881241,"8150 S MAYFIELD LN","MECHANICSVILLE","VA",23111,37.623350262,-77.377810284,241,"8150 S MAYFIELD LN, MECHANICSVILLE, VA, 23111","Match","Exact","8150 S MAYFIELD LN, MECHANICSVILLE, VA, 23111",84962184,"L"
881242,"8150 SCENIC TRAILS WAY","SACRAMENTO","CA",95829,38.462207861,-121.324398551,242,"8150 SCENIC TRAILS WAY, SACRAMENTO, CA, 95829","Match","Exact","8150 SCENIC TRAILS WAY, SACRAMENTO, CA, 95829",640908899,"R"
881243,"8150 SECLUDED VALLEY DRIVE","REDDING","CA",96003,40.5216932430001,-122.495392072,243,"8150 SECLUDED VALLEY DRIVE, REDDING, CA, 96003","Match","Non_Exact","8150 SECLUDED VALLEY DR, REDDING, CA, 96001",126681908,"L"
881244,"8150 SOUTH 12TH STREET","PORTAGE","MI",49024,42.1990010860001,-85.648124593,244,"8150 SOUTH 12TH STREET, PORTAGE, MI, 49024","Match","Exact","8150 S 12TH ST, PORTAGE, MI, 49024",12225299,"R"
881245,"8150 SOUTH PENN","GUTHRIE","OK",73044,NA,NA,245,"8150 SOUTH PENN, GUTHRIE, OK, 73044","No_Match",NA,NA,NA,NA
881246,"8150 SW 4TH CT","NORTH LAUDERDALE","FL",33068,26.225358009,-80.238153905,246,"8150 SW 4TH CT, NORTH LAUDERDALE, FL, 33068","Match","Exact","8150 SW 4TH CT, N LAUDERDALE, FL, 33068",114691913,"L"
881247,"8150 SW 4TH STREET","NORTH LAUDERDALE","FL",33068,26.225941511,-80.2381502379999,247,"8150 SW 4TH STREET, NORTH LAUDERDALE, FL, 33068","Match","Exact","8150 SW 4TH ST, N LAUDERDALE, FL, 33068",114691921,"L"
881248,"8150 SW 72ND AVE","MIAMI","FL",33143,25.694622872,-80.309308315,248,"8150 SW 72ND AVE, MIAMI, FL, 33143","Match","Non_Exact","8150 SW 72ND AVE, MIAMI, FL, 33143",650067198,"R"
881249,"8150 TOWN DRIVE APT 304","RALEIGH","NC",27616,35.8695997620001,-78.560625957,249,"8150 TOWN DRIVE APT 304, RALEIGH, NC, 27616","Match","Exact","8150 TOWN DR, RALEIGH, NC, 27616",641563231,"L"
881250,"8150 US RT 9","ELIZABETHTOWN","NY",12932,44.2488535350001,-73.567763153,250,"8150 US RT 9, ELIZABETHTOWN, NY, 12932","Match","Exact","8150 US RTE 9, ELIZABETHTOWN, NY, 12932",136249876,"R"
881251,"8150 W YOUNG EAGLE CT","TUCSON","AZ",85757,32.137334824,-111.139701991,251,"8150 W YOUNG EAGLE CT, TUCSON, AZ, 85757","Match","Exact","8150 W YOUNG EAGLE CT, TUCSON, AZ, 85757",606841406,"L"
881252,"8150 WEST RIVER ROAD","BROOKLYN PARK","MN",55444,45.1024271150001,-93.28715756,252,"8150 WEST RIVER ROAD, BROOKLYN PARK, MN, 55444","Match","Exact","8150 W RIVER RD, BROOKLYN PARK, MN, 55444",43616320,"R"
881253,"8150 WINDING WAY","FAIR OAKS","CA",95628,38.6448086600001,-121.262154434,253,"8150 WINDING WAY, FAIR OAKS, CA, 95628","Match","Exact","8150 WINDING WAY, FAIR OAKS, CA, 95628",133425396,"R"
881254,"81503 W ARLINGTON RD","ARLINGTON","KS",67514,NA,NA,254,"81503 W ARLINGTON RD, ARLINGTON, KS, 67514","No_Match",NA,NA,NA,NA
881255,"8151 33RD AVENUE SOUTH E303","BLOOMINGTON","MN",55425,44.8558132250001,-93.225271143,255,"8151 33RD AVENUE SOUTH E303, BLOOMINGTON, MN, 55425","Match","Exact","8151 33RD AVE S, BLOOMINGTON, MN, 55425",616711387,"R"
881256,"8151 4TH ST  APT H","BUENA PARK","CA",90621,33.8717445830001,-117.991447168,256,"8151 4TH ST  APT H, BUENA PARK, CA, 90621","Match","Exact","8151 4TH ST, BUENA PARK, CA, 90621",144010139,"L"
881257,"8151 ALDERMAN RD APT 1101","JACKSONVILLE","FL",32211,30.333891361,-81.5705151619999,257,"8151 ALDERMAN RD APT 1101, JACKSONVILLE, FL, 32211","Match","Exact","8151 ALDERMAN RD, JACKSONVILLE, FL, 32211",83904376,"L"
881258,"8151 ALDERMAN RD UNIT 306","JACKSONVILLE","FL",32211,30.333891361,-81.5705151619999,258,"8151 ALDERMAN RD UNIT 306, JACKSONVILLE, FL, 32211","Match","Exact","8151 ALDERMAN RD, JACKSONVILLE, FL, 32211",83904376,"L"
881259,"8151 E 123RD PL","CROWN POINT","IN",46307,41.3941516470001,-87.23740886,259,"8151 E 123RD PL, CROWN POINT, IN, 46307","Match","Exact","8151 123RD PL, CROWN POINT, IN, 46307",606280986,"L"
881260,"8151 E ECHO CANYON STREET","MESA","AZ",85207,33.483781735,-111.65534922,260,"8151 E ECHO CANYON STREET, MESA, AZ, 85207","Match","Exact","8151 E ECHO CANYON ST, MESA, AZ, 85207",128862347,"R"
881261,"8151 E MARBLEHEAD WAY","ANAHEIM","CA",92808,33.853297544,-117.736237363,261,"8151 E MARBLEHEAD WAY, ANAHEIM, CA, 92808","Match","Exact","8151 E MARBLEHEAD WAY, ANAHEIM, CA, 92808",144126079,"R"
881262,"8151 F ROSEMARY RD","MOBILE","AL",36613,30.815052753,-88.236626675,262,"8151 F ROSEMARY RD, MOBILE, AL, 36613","Match","Exact","8151 ROSEMARY RD, MOBILE, AL, 36613",61963507,"R"
881263,"8151 HERRINGTON AVE NE","BELMONT","MI",49306,43.1113132880001,-85.614476781,263,"8151 HERRINGTON AVE NE, BELMONT, MI, 49306","Match","Exact","8151 HERRINGTON AVE NE, BELMONT, MI, 49306",12510269,"R"
881264,"8151 HERRINGTON AVENUE NE","BELMONT","MI",49306,43.1113132880001,-85.614476781,264,"8151 HERRINGTON AVENUE NE, BELMONT, MI, 49306","Match","Exact","8151 HERRINGTON AVE NE, BELMONT, MI, 49306",12510269,"R"
881265,"8151 LAWSON BRIDGE","DELRAY BEACH","FL",33446,26.4268289,-80.17356509,265,"8151 LAWSON BRIDGE, DELRAY BEACH, FL, 33446","Match","Non_Exact","8151 LAWSON BRIDGE LN, DELRAY BEACH, FL, 33446",646605020,"R"
881266,"8151 LEWIS FORD ROAD","GLADYS","VA",24554,37.1164650280001,-79.000393569,266,"8151 LEWIS FORD ROAD, GLADYS, VA, 24554","Match","Exact","8151 LEWIS FORD RD, GLADYS, VA, 24554",647626888,"L"
881267,"8151 LISTER STREET","PHILADELPHIA","PA",19152,40.0561658500001,-75.039973322,267,"8151 LISTER STREET, PHILADELPHIA, PA, 19152","Match","Exact","8151 LISTER ST, PHILADELPHIA, PA, 19152",131441338,"R"
881268,"8151 MCCAULY CT","CINCINNATI","OH",45241,39.296932285,-84.35999377,268,"8151 MCCAULY CT, CINCINNATI, OH, 45241","Match","Exact","8151 MCCAULY CT, CINCINNATI, OH, 45241",113812152,"R"
881269,"8151 MONROE RD","LAMBERTVILLE","MI",48144,41.7627790930001,-83.631878463,269,"8151 MONROE RD, LAMBERTVILLE, MI, 48144","Match","Exact","8151 MONROE RD, LAMBERTVILLE, MI, 48144",640415902,"L"
881270,"8151 N DENVER AVE APT 3148","KANSAS CITY","MO",64119,39.2413535850001,-94.517051478,270,"8151 N DENVER AVE APT 3148, KANSAS CITY, MO, 64119","Match","Non_Exact","8151 N DENVER AVE, KANSAS CITY, MO, 64119",646697323,"R"
881271,"8151 OAK AVE","ROSEVILLE","CA",95747,38.749684861,-121.328798345,271,"8151 OAK AVE, ROSEVILLE, CA, 95747","Match","Exact","8151 OAK AVE, ROSEVILLE, CA, 95747",106800072,"L"
881272,"8151 REDFORD LANE","LA PALMA","CA",90623,33.843792206,-118.05177973,272,"8151 REDFORD LANE, LA PALMA, CA, 90623","Match","Exact","8151 REDFORD LN, LA PALMA, CA, 90623",143998157,"R"
881273,"8151 S 700 E","COLUMBIA CITY","IN",46725,41.0463861010001,-85.355234576,273,"8151 S 700 E, COLUMBIA CITY, IN, 46725","Match","Exact","8151 S 700 E, COLUMBIA CITY, IN, 46725",6648519,"L"
881274,"8151 S HARPER AVE","CHICAGO","IL",60619,41.746888519,-87.58707696,274,"8151 S HARPER AVE, CHICAGO, IL, 60619","Match","Exact","8151 S HARPER AVE, CHICAGO, IL, 60619",111775167,"L"
881275,"8151 S HARPER","CHICAGO","IL",60619,41.746888519,-87.58707696,275,"8151 S HARPER, CHICAGO, IL, 60619","Match","Non_Exact","8151 S HARPER AVE, CHICAGO, IL, 60619",111775167,"L"
881276,"8151 SOUTH TOMLIN HILL ROAD","COLUMBIA","MO",65201,38.856735423,-92.3117477,276,"8151 SOUTH TOMLIN HILL ROAD, COLUMBIA, MO, 65201","Match","Exact","8151 S TOMLIN HILL RD, COLUMBIA, MO, 65201",649860455,"L"
881277,"8151 STATE ROAD B","CEDAR HILL","MO",63016,NA,NA,277,"8151 STATE ROAD B, CEDAR HILL, MO, 63016","No_Match",NA,NA,NA,NA
881278,"8151 SW 11TH STREET","NORTH LAUDERDALE","FL",33068,26.21507869,-80.2375871419999,278,"8151 SW 11TH STREET, NORTH LAUDERDALE, FL, 33068","Match","Exact","8151 SW 11TH ST, N LAUDERDALE, FL, 33068",114691975,"R"
881279,"8151 VEGAS CT","MASON","OH",45069,39.355666522,-84.4700136439999,279,"8151 VEGAS CT, MASON, OH, 45069","Match","Non_Exact","8151 VEGAS CT, LIBERTY TOWNSHP, OH, 45069",625354750,"R"
881280,"8151 W WALKER DR","LITTLETON","CO",80123,39.6004194710001,-105.088509552,280,"8151 W WALKER DR, LITTLETON, CO, 80123","Match","Exact","8151 W WALKER DR, LITTLETON, CO, 80123",177324169,"R"
881281,"8151 WHITE OAK AVE","RESEDA","CA",91335,34.2186408700001,-118.518614268,281,"8151 WHITE OAK AVE, RESEDA, CA, 91335","Match","Non_Exact","8151 N WHITE OAK AVE, RESEDA, CA, 91335",642864090,"L"
881282,"8151 WINDSOR","MECHANICSVILLE","VA",23111,37.6139506490001,-77.381377749,282,"8151 WINDSOR, MECHANICSVILLE, VA, 23111","Match","Non_Exact","8151 WINDSOR DR, MECHANICSVILLE, VA, 23111",84968903,"R"
881283,"8151 WOODLAND CT","DUNN LURING","VA",22027,38.8922374090001,-77.227143691,283,"8151 WOODLAND CT, DUNN LURING, VA, 22027","Match","Non_Exact","8151 WOODLAND CT, DUNN LORING, VA, 22027",75971556,"L"
881284,"8151","NORTH LAUDERDALE","FL",33068,NA,NA,284,"8151, NORTH LAUDERDALE, FL, 33068","No_Match",NA,NA,NA,NA
881285,"81510 HWY 1083","BUSH","LA",70431,30.618911918,-89.986124757,285,"81510 HWY 1083, BUSH, LA, 70431","Match","Non_Exact","81510 STATE RTE 1083, BUSH, LA, 70431",111294430,"R"
881286,"8152 173RD ST W","LAKEVILLE","MN",55044,44.698803265,-93.230981792,286,"8152 173RD ST W, LAKEVILLE, MN, 55044","Match","Exact","8152 173RD ST W, LAKEVILLE, MN, 55044",37921423,"R"
881287,"8152 BIANCA PL","ALEXANDRIA","VA",22309,38.7364222570001,-77.0993262059999,287,"8152 BIANCA PL, ALEXANDRIA, VA, 22309","Match","Exact","8152 BIANCA PL, ALEXANDRIA, VA, 22309",619914378,"R"
881288,"8152 BLANSFORD DR","MANASSAS","VA",20111,38.7104409720001,-77.440873,288,"8152 BLANSFORD DR, MANASSAS, VA, 20111","Match","Non_Exact","8152 BLANDSFORD DR, MANASSAS, VA, 20111",635834117,"L"
881289,"8152 BONAVENTURE","LAS VEGAS","NV",89147,36.1020490780001,-115.26884165,289,"8152 BONAVENTURE, LAS VEGAS, NV, 89147","Match","Non_Exact","8152 BONAVENTURE DR, LAS VEGAS, NV, 89147",201900315,"R"
881290,"8152 CLOVERDALE AVE","FERNDALE","MI",48220,42.450897431,-83.1534746729999,290,"8152 CLOVERDALE AVE, FERNDALE, MI, 48220","Match","Exact","8152 CLOVERDALE AVE, FERNDALE, MI, 48220",69742454,"R"
881291,"8152 DIMMICK RD","WEST CHESTER","OH",45241,39.307720089,-84.358662464,291,"8152 DIMMICK RD, WEST CHESTER, OH, 45241","Match","Exact","8152 DIMMICK RD, WEST CHESTER, OH, 45241",113802207,"R"
881292,"8152 GLENMILL CT","CINCINNATI","OH",45249,39.2675563870001,-84.341813872,292,"8152 GLENMILL CT, CINCINNATI, OH, 45249","Match","Exact","8152 GLENMILL CT, CINCINNATI, OH, 45249",103957996,"L"
881293,"8152 LIN OAK WAY","CITRUS HEIGHTS","CA",95610,38.7050885150001,-121.258233372,293,"8152 LIN OAK WAY, CITRUS HEIGHTS, CA, 95610","Match","Exact","8152 LIN OAK WAY, CITRUS HEIGHTS, CA, 95610",133344986,"R"
881294,"8152 MCCAMIDGE DRIVE","CICERO","NY",13039,43.1614475630001,-76.103947309,294,"8152 MCCAMIDGE DRIVE, CICERO, NY, 13039","Match","Exact","8152 MCCAMIDGE DR, CICERO, NY, 13039",46567896,"R"
881295,"8152 N CHESTER AVE","NILES","IL",60714,42.0283519490001,-87.839448389,295,"8152 N CHESTER AVE, NILES, IL, 60714","Match","Exact","8152 N CHESTER AVE, NILES, IL, 60714",111732302,"R"
881296,"8152 S HOPE PL","HEREFORD","AZ",85615,31.4219426870001,-110.242871598,296,"8152 S HOPE PL, HEREFORD, AZ, 85615","Match","Exact","8152 S HOPE PL, HEREFORD, AZ, 85615",121041318,"R"
881297,"8152 SATIN CARNATION LANE","LAS VEGAS","NV",89166,36.3096699320001,-115.298426943,297,"8152 SATIN CARNATION LANE, LAS VEGAS, NV, 89166","Match","Exact","8152 SATIN CARNATION LN, LAS VEGAS, NV, 89166",641084952,"R"
881298,"8152 SHAHEED DR","PASADENA","MD",21122,39.1308606200001,-76.569007544,298,"8152 SHAHEED DR, PASADENA, MD, 21122","Match","Exact","8152 SHAHEED DR, PASADENA, MD, 21122",68204042,"R"
881299,"8152 SOUTH INGLESIDE","CHICAGO","IL",60619,41.7467063920001,-87.601421832,299,"8152 SOUTH INGLESIDE, CHICAGO, IL, 60619","Match","Non_Exact","8152 S INGLESIDE AVE, CHICAGO, IL, 60619",111774839,"R"
881300,"81529 HIDDEN LINKS DRIVE","LA QUINTA","CA",92253,33.667810095,-116.241419496,300,"81529 HIDDEN LINKS DRIVE, LA QUINTA, CA, 92253","Match","Exact","81529 HIDDEN LINKS DR, LA QUINTA, CA, 92253",651692150,"R"
881301,"8153 130TH STREET  PO BOX 66","COLOGNE","MN",55322,44.768560904,-93.7276431719999,301,"8153 130TH STREET  PO BOX 66, COLOGNE, MN, 55322","Match","Exact","8153 130TH ST, COLOGNE, MN, 55322",43492573,"R"
881302,"8153 B STREET","MILLINGTON","TN",38053,35.3486843840001,-89.891251306,302,"8153 B STREET, MILLINGTON, TN, 38053","Match","Exact","8153 B ST, MILLINGTON, TN, 38053",72899382,"L"
881303,"8153 DEAD STREAM RD","HONOR","MI",49640,44.6948160950001,-86.0753015619999,303,"8153 DEAD STREAM RD, HONOR, MI, 49640","Match","Non_Exact","8153 DEADSTREAM RD, HONOR, MI, 49640",647164974,"R"
881304,"8153 E MORNING SUN LANE","ANAHEIM HILLS","CA",92808,33.8461704750001,-117.731550896,304,"8153 E MORNING SUN LANE, ANAHEIM HILLS, CA, 92808","Match","Non_Exact","8153 E MORNING SUN LN, ANAHEIM, CA, 92808",144125848,"L"
881305,"8153 E MORNING SUN LN","ANAHEIM","CA",92808,33.8461688630001,-117.731538474,305,"8153 E MORNING SUN LN, ANAHEIM, CA, 92808","Match","Exact","8153 E MORNING SUN LN, ANAHEIM, CA, 92808",144125848,"L"
881306,"8153 ELK GROVE BLVD SUITE 20","ELK GROVE","CA",95758,NA,NA,306,"8153 ELK GROVE BLVD SUITE 20, ELK GROVE, CA, 95758","No_Match",NA,NA,NA,NA
881307,"8153 ELK GROVE BOULEVARD","ELK GROVE","CA",95758,38.4090742970001,-121.405993687,307,"8153 ELK GROVE BOULEVARD, ELK GROVE, CA, 95758","Match","Exact","8153 ELK GROVE BLVD, ELK GROVE, CA, 95758",629157860,"L"
881308,"8153 KANDIYOHI LANE","WILLOW RIVER","MN",55795,46.322310728,-92.8286326469999,308,"8153 KANDIYOHI LANE, WILLOW RIVER, MN, 55795","Match","Exact","8153 KANDIYOHI LN, WILLOW RIVER, MN, 55795",624482340,"R"
881309,"8153 PINE RUN","SPANISH FORT","AL",36527,30.6640508410001,-87.8764632739999,309,"8153 PINE RUN, SPANISH FORT, AL, 36527","Match","Exact","8153 PINE RUN, SPANISH FORT, AL, 36527",653330954,"L"
881310,"8153 QUAD SQAURE","BATON ROUGE","LA",70814,30.480355042,-91.104938524,310,"8153 QUAD SQAURE, BATON ROUGE, LA, 70814","Match","Non_Exact","8153 QUAD SQUARE DR, BATON ROUGE, LA, 70814",92197021,"L"
881311,"8153 SPENCER LAKE ROAD","MEDINA","OH",44256,41.112135698,-81.983615255,311,"8153 SPENCER LAKE ROAD, MEDINA, OH, 44256","Match","Exact","8153 SPENCER LAKE RD, MEDINA, OH, 44256",58673818,"L"
881312,"8153 STONEY CREEK LANE","NASHVILLE","NC",27856,36.081216403,-77.9234675019999,312,"8153 STONEY CREEK LANE, NASHVILLE, NC, 27856","Match","Non_Exact","8153 STONY CREEK LN, NASHVILLE, NC, 27856",630174534,"R"
881313,"8153 TOLLBRIDGE","WEST CHESTER","OH",45069,39.3533592910001,-84.451531254,313,"8153 TOLLBRIDGE, WEST CHESTER, OH, 45069","Match","Non_Exact","8153 TOLLBRIDGE DR, WEST CHESTER, OH, 45069",113810204,"L"
881314,"8153 WYNDWILLOW WAY","ELK GROVE","CA",95758,38.4292038400001,-121.405914365,314,"8153 WYNDWILLOW WAY, ELK GROVE, CA, 95758","Match","Exact","8153 WYNDWILLOW WAY, ELK GROVE, CA, 95758",133406912,"L"
881315,"8154 ATLANTIC RD","WALLOPS ISLAND","VA",23337,37.9254200070001,-75.484544209,315,"8154 ATLANTIC RD, WALLOPS ISLAND, VA, 23337","Match","Exact","8154 ATLANTIC RD, WALLOPS ISLAND, VA, 23337",114590076,"L"
881316,"8154 EMERALD WINDS CIRCLE","BOYNTON BEACH","FL",33473,26.5024119760001,-80.1778629,316,"8154 EMERALD WINDS CIRCLE, BOYNTON BEACH, FL, 33473","Match","Exact","8154 EMERALD WINDS CIR, BOYNTON BEACH, FL, 33473",640989777,"R"
881317,"8154 OAHU","FAIR OAKS","CA",95628,38.6610172430001,-121.259832545,317,"8154 OAHU, FAIR OAKS, CA, 95628","Match","Non_Exact","8154 OAHU DR, FAIR OAKS, CA, 95628",133345635,"R"
881318,"8154 REDFERN DR","HOUSTON","TX",77033,29.6648530320001,-95.347109722,318,"8154 REDFERN DR, HOUSTON, TX, 77033","Match","Exact","8154 REDFERN DR, HOUSTON, TX, 77033",96599637,"R"
881319,"8154 S ANTHONY","CHICAGO","IL",60617,41.7468437970001,-87.582399514,319,"8154 S ANTHONY, CHICAGO, IL, 60617","Match","Non_Exact","8154 S ANTHONY AVE, CHICAGO, IL, 60617",111775261,"R"
881320,"8154 S WABASH","CHICAGO","IL",60619,41.746321992,-87.6228768939999,320,"8154 S WABASH, CHICAGO, IL, 60619","Match","Non_Exact","8154 S WABASH AVE, CHICAGO, IL, 60619",111772699,"R"
881321,"8154 SILVER CIRCLE","VENTURA","CA",93004,34.273707315,-119.184253508,321,"8154 SILVER CIRCLE, VENTURA, CA, 93004","Match","Exact","8154 SILVER CIR, VENTURA, CA, 93004",624691047,"L"
881322,"8154 STANFORD PL","MONTGOMERY","AL",36117,32.3761237800001,-86.155729416,322,"8154 STANFORD PL, MONTGOMERY, AL, 36117","Match","Exact","8154 STANFORD PL, MONTGOMERY, AL, 36117",637764644,"R"
881323,"8154 VICTORIA DRIVE","VICTORIA","MN",55386,44.8563511790001,-93.661816519,323,"8154 VICTORIA DRIVE, VICTORIA, MN, 55386","Match","Exact","8154 VICTORIA DR, VICTORIA, MN, 55386",43491602,"R"
881324,"8154 WASHINGTON BLVD 409","JESSUP","MD",20794,39.1636389080001,-76.792490061,324,"8154 WASHINGTON BLVD 409, JESSUP, MD, 20794","Match","Exact","8154 WASHINGTON BLVD, JESSUP, MD, 20794",647297394,"R"
881325,"81545 AVENIDA CONTENTO","INDIO","CA",92203,33.750654469,-116.241661533,325,"81545 AVENIDA CONTENTO, INDIO, CA, 92203","Match","Exact","81545 AVE CONTENTO, INDIO, CA, 92203",638145694,"R"
881326,"8155 ANNSBURY DRIVE SUITE 110","SHELBY TWP","MI",48316,42.692166168,-83.0335361149999,326,"8155 ANNSBURY DRIVE SUITE 110, SHELBY TWP, MI, 48316","Match","Exact","8155 ANNSBURY DR, SHELBY TOWNSHIP, MI, 48316",110708103,"L"
881327,"8155 CARGILL AVE APT 42","SAN DIEGO","CA",92122,32.8651337960001,-117.21647706,327,"8155 CARGILL AVE APT 42, SAN DIEGO, CA, 92122","Match","Exact","8155 CARGILL AVE, SAN DIEGO, CA, 92122",195301930,"R"
881328,"8155 E FAIRMONT DRIVE","DENVER","CO",80230,NA,NA,328,"8155 E FAIRMONT DRIVE, DENVER, CO, 80230","Tie",NA,NA,NA,NA
881329,"8155 E FAIRMOUNT DRIVE","DENVER","CO",80230,NA,NA,329,"8155 E FAIRMOUNT DRIVE, DENVER, CO, 80230","Tie",NA,NA,NA,NA
881330,"8155 EAGLE CREEK AVE","PRIOR LAKE","MN",55372,44.6820948340001,-93.352598173,330,"8155 EAGLE CREEK AVE, PRIOR LAKE, MN, 55372","Match","Exact","8155 EAGLE CREEK AVE, PRIOR LAKE, MN, 55372",641426924,"L"
881331,"8155 FM 3237","DRIFTWOOD","TX",78619,30.0474703260001,-98.0017893199999,331,"8155 FM 3237, DRIFTWOOD, TX, 78619","Match","Exact","8155 FM 3237, DRIFTWOOD, TX, 78619",63841043,"R"
881332,"8155 GARDEN DRIVE","PICKERINGTON","OH",43147,39.924686792,-82.740371457,332,"8155 GARDEN DRIVE, PICKERINGTON, OH, 43147","Match","Exact","8155 GARDEN DR, PICKERINGTON, OH, 43147",624941248,"R"
881333,"8155 KINGFISHER PLACE","MISSOULA","MT",59804,46.851107905,-114.109335631,333,"8155 KINGFISHER PLACE, MISSOULA, MT, 59804","Match","Non_Exact","8155 KING FISHER PL, MISSOULA, MT, 59804",627259081,"L"
881334,"8155 N 600 W","MICHIGAN CITY","IN",46360,41.726558814,-86.81618409,334,"8155 N 600 W, MICHIGAN CITY, IN, 46360","Match","Exact","8155 N 600 W, MICHIGAN CITY, IN, 46360",15413756,"L"
881335,"8155 NW BEAMAN DRIVE","KANSAS CITY","MO",64151,39.2418979490001,-94.637328833,335,"8155 NW BEAMAN DRIVE, KANSAS CITY, MO, 64151","Match","Exact","8155 NW BEAMAN DR, KANSAS CITY, MO, 64151",39693323,"R"
881336,"8155 PASEO DEL OCASO","LA JOLLA","CA",92037,32.854849976,-117.254712517,336,"8155 PASEO DEL OCASO, LA JOLLA, CA, 92037","Match","Non_Exact","8155 PSO DEL OCASO, LA JOLLA, CA, 92037",195298678,"R"
881337,"8155 PRESERVATION TRAIL","MIDLAND","GA",31820,32.562443139,-84.8439772199999,337,"8155 PRESERVATION TRAIL, MIDLAND, GA, 31820","Match","Non_Exact","8155 PRESERVATION CT, MIDLAND, GA, 31820",624970976,"R"
881338,"8155 RED BUD COURT","NEWBURGH","IN",47630,37.986093769,-87.398191573,338,"8155 RED BUD COURT, NEWBURGH, IN, 47630","Match","Exact","8155 RED BUD CT, NEWBURGH, IN, 47630",32220023,"R"
881339,"8155 RESEDA BLVD APT 108","RESEDA","CA",91335,34.218413777,-118.536079686,339,"8155 RESEDA BLVD APT 108, RESEDA, CA, 91335","Match","Exact","8155 RESEDA BLVD, RESEDA, CA, 91335",141541592,"L"
881340,"8155 S CAMPBELL","CHICAGO","IL",60653,NA,NA,340,"8155 S CAMPBELL, CHICAGO, IL, 60653","No_Match",NA,NA,NA,NA
881341,"8155 S FAIRMOUNT DR","DENVER","CO",80230,NA,NA,341,"8155 S FAIRMOUNT DR, DENVER, CO, 80230","No_Match",NA,NA,NA,NA
881342,"8155 SANTA YNEZ AVE","ATASCADERO","CA",93422,35.472705074,-120.669993999,342,"8155 SANTA YNEZ AVE, ATASCADERO, CA, 93422","Match","Exact","8155 SANTA YNEZ AVE, ATASCADERO, CA, 93422",109725112,"R"
881343,"8155 SANTA YNEZ AVE","ATASCADERO","NV",93422,NA,NA,343,"8155 SANTA YNEZ AVE, ATASCADERO, NV, 93422","No_Match",NA,NA,NA,NA
881344,"8155 SR 119","MARIA STEIN","OH",45860,40.4076079220001,-84.487786711,344,"8155 SR 119, MARIA STEIN, OH, 45860","Match","Non_Exact","8155 STATE RTE 119, MARIA STEIN, OH, 45860",43098254,"R"
881345,"8155 STATE ROUTE 127 N","ALTO PASS","IL",62905,NA,NA,345,"8155 STATE ROUTE 127 N, ALTO PASS, IL, 62905","No_Match",NA,NA,NA,NA
881346,"8155 SURREY BROOK PLACE","WEST CHESTER","OH",45069,39.343137799,-84.3548689469999,346,"8155 SURREY BROOK PLACE, WEST CHESTER, OH, 45069","Match","Exact","8155 SURREY BROOK PL, WEST CHESTER, OH, 45069",113809762,"L"
881347,"8155 VICTORIA DRIVE","VICTORIA","MN",55386,44.8563546070001,-93.661801827,347,"8155 VICTORIA DRIVE, VICTORIA, MN, 55386","Match","Exact","8155 VICTORIA DR, VICTORIA, MN, 55386",43491602,"L"
881348,"8155 WEST CHARLESTON BLVD 96","LAS VEGAS","NV",89117,36.1590072280001,-115.269978359,348,"8155 WEST CHARLESTON BLVD 96, LAS VEGAS, NV, 89117","Match","Exact","8155 W CHARLESTON BLVD, LAS VEGAS, NV, 89117",639385372,"R"
881349,"8155 WEST MARIPOSA GRANDE LN","PEORIA","AZ",85383,33.7022779590001,-112.234633608,349,"8155 WEST MARIPOSA GRANDE LN, PEORIA, AZ, 85383","Match","Exact","8155 W MARIPOSA GRANDE LN, PEORIA, AZ, 85383",128416047,"L"
881350,"8155 WHITE TAIL","WOLVERINE","MI",49799,45.251720408,-84.654120543,350,"8155 WHITE TAIL, WOLVERINE, MI, 49799","Match","Non_Exact","8155 WHITETAIL DR, WOLVERINE, MI, 49799",624282584,"R"
881351,"8155 WILLIT STREET","OMAHA","NE",68122,41.337442336,-96.03979021,351,"8155 WILLIT STREET, OMAHA, NE, 68122","Match","Exact","8155 WILLIT ST, OMAHA, NE, 68122",116974478,"R"
881352,"8155 WOODSCAPE DRIVE APT L","CHARLOTTE","NC",28212,35.160178547,-80.748335213,352,"8155 WOODSCAPE DRIVE APT L, CHARLOTTE, NC, 28212","Match","Exact","8155 WOODSCAPE DR, CHARLOTTE, NC, 28212",650097576,"R"
881353,"81552 CAMINO EL TRIUNFO","INDIO","CA",92203,NA,NA,353,"81552 CAMINO EL TRIUNFO, INDIO, CA, 92203","No_Match",NA,NA,NA,NA
881354,"8156 AMBACH WAY","HYPOLUXO","FL",33462,26.5553825810001,-80.059776222,354,"8156 AMBACH WAY, HYPOLUXO, FL, 33462","Match","Exact","8156 AMBACH WAY, HYPOLUXO, FL, 33462",639476073,"R"
881355,"8156 ANDANSOL","NORTHRIDGE","CA",91325,NA,NA,355,"8156 ANDANSOL, NORTHRIDGE, CA, 91325","No_Match",NA,NA,NA,NA
881356,"8156 ANDASOL AVE","NORTHRIDGE","CA",91325,34.2186348920001,-118.510899314,356,"8156 ANDASOL AVE, NORTHRIDGE, CA, 91325","Match","Exact","8156 ANDASOL AVE, NORTHRIDGE, CA, 91325",141544126,"R"
881357,"8156 ANTWERP ST","LOS ANGELES","CA",90001,33.9646479190001,-118.24890861,357,"8156 ANTWERP ST, LOS ANGELES, CA, 90001","Match","Exact","8156 ANTWERP ST, LOS ANGELES, CA, 90001",141671267,"L"
881358,"8156 ANTWERP","LOS ANGELES","CA",90001,33.9646479190001,-118.24890861,358,"8156 ANTWERP, LOS ANGELES, CA, 90001","Match","Non_Exact","8156 ANTWERP AVE, LOS ANGELES, CA, 90001",141671267,"L"
881359,"8156 BUENA VISTA DR","WARRENTON","VA",20186,38.630156105,-77.844420857,359,"8156 BUENA VISTA DR, WARRENTON, VA, 20186","Match","Exact","8156 BUENA VISTA DR, WARRENTON, VA, 20186",146291571,"L"
881360,"8156 CAPITOLA AVE","FAIR OAKS","CA",95628,38.640060072,-121.260480161,360,"8156 CAPITOLA AVE, FAIR OAKS, CA, 95628","Match","Exact","8156 CAPITOLA AVE, FAIR OAKS, CA, 95628",133448994,"R"
881361,"8156 COUNTRY RD - 206","FORT MYERS","FL",33919,26.52176143,-81.890412923,361,"8156 COUNTRY RD - 206, FORT MYERS, FL, 33919","Match","Exact","8156 COUNTRY RD, FORT MYERS, FL, 33919",118129256,"R"
881362,"8156 FARRANT","COMMERCE","MI",48383,NA,NA,362,"8156 FARRANT, COMMERCE, MI, 48383","No_Match",NA,NA,NA,NA
881363,"8156 FM 928","TULIA","TX",79088,34.469083852,-101.663054821,363,"8156 FM 928, TULIA, TX, 79088","Match","Exact","8156 FM 928, TULIA, TX, 79088",182711877,"R"
881364,"8156 GOLF GREEN CIR","HOUSTON","TX",77036,29.7117452950001,-95.525685564,364,"8156 GOLF GREEN CIR, HOUSTON, TX, 77036","Match","Exact","8156 GOLF GREEN CIR, HOUSTON, TX, 77036",96295844,"R"
881365,"8156 GRANADA AVE S","COTTAGE GROVE","MN",55016,44.83106015,-92.974773382,365,"8156 GRANADA AVE S, COTTAGE GROVE, MN, 55016","Match","Exact","8156 GRANADA AVE S, COTTAGE GROVE, MN, 55016",97786517,"R"
881366,"8156 IMBER STREET","ORLANDO","FL",32812,28.526036016,-81.274270606,366,"8156 IMBER STREET, ORLANDO, FL, 32812","Match","Non_Exact","8156 IMBER ST, ORLANDO, FL, 32825",94294794,"R"
881367,"8156 LEMON GROVE WAY","LEMON GROVE","CA",91945,32.745529778,-117.02412637,367,"8156 LEMON GROVE WAY, LEMON GROVE, CA, 91945","Match","Exact","8156 LEMON GROVE WAY, LEMON GROVE, CA, 91945",195706698,"L"
881368,"8156 LYNN STREET","HOUSTON","TX",77017,29.686223467,-95.27441893,368,"8156 LYNN STREET, HOUSTON, TX, 77017","Match","Exact","8156 LYNN ST, HOUSTON, TX, 77017",96092747,"R"
881369,"8156 PEA RIDGE RD","BROOKVILLE","IN",47012,39.4737323940001,-84.958461343,369,"8156 PEA RIDGE RD, BROOKVILLE, IN, 47012","Match","Exact","8156 PEA RIDGE RD, BROOKVILLE, IN, 47012",33189830,"L"
881370,"8156 S 1000 E","SANDY","UT",84094,40.6029374600001,-111.862609009,370,"8156 S 1000 E, SANDY, UT, 84094","Match","Exact","8156 S 1000 E, SANDY, UT, 84094",176124446,"R"
881371,"8156 S HERMITAGE AVENUE","CHICAGO","IL",60620,41.7456290380001,-87.6669661509999,371,"8156 S HERMITAGE AVENUE, CHICAGO, IL, 60620","Match","Exact","8156 S HERMITAGE AVE, CHICAGO, IL, 60620",111821325,"R"
881372,"8156 SHOLAR DR","BATON ROUGE","LA",70809,30.416486965,-91.101868711,372,"8156 SHOLAR DR, BATON ROUGE, LA, 70809","Match","Exact","8156 SHOLAR DR, BATON ROUGE, LA, 70809",92189932,"R"
881373,"8156 SOUTH EAST END","CHICAGO","IL",60617,41.7463663360001,-87.582965648,373,"8156 SOUTH EAST END, CHICAGO, IL, 60617","Match","Non_Exact","8156 S EAST END AVE, CHICAGO, IL, 60617",605533581,"R"
881374,"8156 TOUR COURT","JONESBORO","GA",30236,33.5310082290001,-84.2907403679999,374,"8156 TOUR COURT, JONESBORO, GA, 30236","Match","Exact","8156 TOUR CT, JONESBORO, GA, 30236",23325922,"R"
881375,"8157 COURTYARD LOOP APT 1","PARK CITY","UT",84098,40.749262496,-111.573701868,375,"8157 COURTYARD LOOP APT 1, PARK CITY, UT, 84098","Match","Exact","8157 COURTYARD LOOP, PARK CITY, UT, 84098",625699359,"R"
881376,"8157 E 17TH RD","HILLSBORO","IL",62049,39.1204856030001,-89.381733479,376,"8157 E 17TH RD, HILLSBORO, IL, 62049","Match","Exact","8157 E 17TH RD, HILLSBORO, IL, 62049",653856875,"L"
881377,"8157 GALAXIE DR","JACKSONVILLE","FL",32244,30.242896649,-81.785289877,377,"8157 GALAXIE DR, JACKSONVILLE, FL, 32244","Match","Exact","8157 GALAXIE DR, JACKSONVILLE, FL, 32244",83909751,"R"
881378,"8157 HUNTERS TRAIL","ROANOKE","VA",24019,37.3470582370001,-79.9122746799999,378,"8157 HUNTERS TRAIL, ROANOKE, VA, 24019","Match","Exact","8157 HUNTERS TRL, ROANOKE, VA, 24019",62930504,"R"
881379,"8157 MAHOGANY LANE","LITHONIA","GA",30058,33.7253116360001,-84.057074813,379,"8157 MAHOGANY LANE, LITHONIA, GA, 30058","Match","Exact","8157 MAHOGANY LN, LITHONIA, GA, 30058",23753623,"R"
881380,"8157 N MATUS AVE","FRESNO","CA",93720,36.85486459,-119.738054959,380,"8157 N MATUS AVE, FRESNO, CA, 93720","Match","Exact","8157 N MATUS AVE, FRESNO, CA, 93720",617777079,"L"
881381,"8157 NW 199 TERRACE","MIAMI","FL",33015,25.954364248,-80.334086914,381,"8157 NW 199 TERRACE, MIAMI, FL, 33015","Match","Non_Exact","8157 NW 199TH TER, MIAMI GARDENS, FL, 33015",116258393,"R"
881382,"8157 ROBEA LANE","MILLINGTON","TN",38053,NA,NA,382,"8157 ROBEA LANE, MILLINGTON, TN, 38053","No_Match",NA,NA,NA,NA
881383,"8157 S ELIZABETH STREET","CHICAGO","IL",60602,NA,NA,383,"8157 S ELIZABETH STREET, CHICAGO, IL, 60602","No_Match",NA,NA,NA,NA
881384,"8157 SOUTH ELIZABETH","CHICAGO","IL",60620,41.745822563,-87.6548159449999,384,"8157 SOUTH ELIZABETH, CHICAGO, IL, 60620","Match","Non_Exact","8157 S ELIZABETH ST, CHICAGO, IL, 60620",111821428,"L"
881385,"81570 W 8TH RD","IRRIGON","OR",97844,45.8993855850001,-119.537271001,385,"81570 W 8TH RD, IRRIGON, OR, 97844","Match","Exact","81570 W 8TH RD, IRRIGON, OR, 97844",175442456,"L"
881386,"8158 BARBERRY HILL DRIVE","MENTOR","OH",44060,41.671803719,-81.3483510469999,386,"8158 BARBERRY HILL DRIVE, MENTOR, OH, 44060","Match","Exact","8158 BARBERRY HILL DR, MENTOR, OH, 44060",137472044,"R"
881387,"8158 BLOOMINGTON AVE S","BLOOMINGTON","MN",55425,44.8559056490001,-93.252975665,387,"8158 BLOOMINGTON AVE S, BLOOMINGTON, MN, 55425","Match","Exact","8158 BLOOMINGTON AVE S, BLOOMINGTON, MN, 55425",624845064,"R"
881388,"8158 C LINCOLN AVENUE","EVANSVILLE","IN",47715,37.969455854,-87.454738141,388,"8158 C LINCOLN AVENUE, EVANSVILLE, IN, 47715","Match","Exact","8158 LINCOLN AVE, EVANSVILLE, IN, 47715",39791607,"L"
881389,"8158 CTY RD NN","GREENLEAF","WI",54126,NA,NA,389,"8158 CTY RD NN, GREENLEAF, WI, 54126","No_Match",NA,NA,NA,NA
881390,"8158 FERNCLIFF DR","COLORADO SPRINGS","CO",80920,38.949995743,-104.729486356,390,"8158 FERNCLIFF DR, COLORADO SPRINGS, CO, 80920","Match","Exact","8158 FERNCLIFF DR, CO SPGS, CO, 80920",647970840,"R"
881391,"8158 FRISCO WAY","INDIANAPOLIS","IN",46240,39.904173685,-86.122197549,391,"8158 FRISCO WAY, INDIANAPOLIS, IN, 46240","Match","Exact","8158 FRISCO WAY, INDIANAPOLIS, IN, 46240",108054404,"R"
881392,"8158 HORIZON DR","COLORADO SPRINGS","CO",80920,38.945686374,-104.777263562,392,"8158 HORIZON DR, COLORADO SPRINGS, CO, 80920","Match","Exact","8158 HORIZON DR, CO SPGS, CO, 80920",105510244,"R"
881393,"8158 LIMA EAST DRIVE","INDIANAPOLIS","IN",46227,39.648096568,-86.1017120719999,393,"8158 LIMA EAST DRIVE, INDIANAPOLIS, IN, 46227","Match","Exact","8158 LIMA EAST DR, INDIANAPOLIS, IN, 46227",108036378,"R"
881394,"8158 MARSEILLE","CORPUS CHRISTI","TX",78414,27.649176504,-97.390787866,394,"8158 MARSEILLE, CORPUS CHRISTI, TX, 78414","Match","Non_Exact","8158 MARSEILLE DR, CORPUS CHRISTI, TX, 78414",647429774,"L"
881395,"8158 NW HIGHWAY 169","KING CITY","MO",64463,NA,NA,395,"8158 NW HIGHWAY 169, KING CITY, MO, 64463","No_Match",NA,NA,NA,NA
881396,"8158 ROCKBRIDGE RD","LITHONIA","GA",30058,33.7740028150001,-84.070061868,396,"8158 ROCKBRIDGE RD, LITHONIA, GA, 30058","Match","Exact","8158 ROCKBRIDGE RD, LITHONIA, GA, 30058",23375554,"L"
881397,"8158 S MUSKEGON AVE","CHICAGO","IL",60617,41.747177713,-87.555241828,397,"8158 S MUSKEGON AVE, CHICAGO, IL, 60617","Match","Exact","8158 S MUSKEGON AVE, CHICAGO, IL, 60617",111776314,"R"
881398,"8158 SIMONS ROAD","WILLIAMSFIELD","OH",44093,41.5263280090001,-80.532357571,398,"8158 SIMONS ROAD, WILLIAMSFIELD, OH, 44093","Match","Exact","8158 SIMONS RD, WILLIAMSFIELD, OH, 44093",117329797,"R"
881399,"8158 SOUTH 107TH EAST AVENUE","TULSA","OK",74133,36.045536047,-95.856535654,399,"8158 SOUTH 107TH EAST AVENUE, TULSA, OK, 74133","Match","Exact","8158 S 107TH EAST AVE, TULSA, OK, 74133",641704647,"R"
881400,"8158 SW 118TH PLACE","MIAMI","FL",33183,25.6922999780001,-80.3857522929999,400,"8158 SW 118TH PLACE, MIAMI, FL, 33183","Match","Exact","8158 SW 118TH PL, MIAMI, FL, 33183",624755933,"R"
881401,"8158 TATE ROAD","RUTHER GLEN","VA",22546,37.9399215890001,-77.506543021,401,"8158 TATE ROAD, RUTHER GLEN, VA, 22546","Match","Exact","8158 TATE RD, RUTHER GLEN, VA, 22546",21959297,"R"
881402,"8159 CARPENTER ST","NORWALK","IA",50211,41.48277768,-93.650318096,402,"8159 CARPENTER ST, NORWALK, IA, 50211","Match","Exact","8159 CARPENTER ST, NORWALK, IA, 50211",652047714,"L"
881403,"8159 CHARLOTTE PIKE","NASHVILLE","TN",37221,36.0952547460001,-86.9715329319999,403,"8159 CHARLOTTE PIKE, NASHVILLE, TN, 37221","Match","Exact","8159 CHARLOTTE PIKE, NASHVILLE, TN, 37221",97220608,"L"
881404,"8159 DELAND STREET","PORT CHARLOTTE","FL",33981,26.911104779,-82.217897792,404,"8159 DELAND STREET, PORT CHARLOTTE, FL, 33981","Match","Exact","8159 DELAND ST, PORT CHARLOTTE, FL, 33981",4300736,"L"
881405,"8159 HERSCHELWOOD STREET","HOUSTON","TX",77033,29.6645918190001,-95.345304765,405,"8159 HERSCHELWOOD STREET, HOUSTON, TX, 77033","Match","Exact","8159 HERSCHELWOOD ST, HOUSTON, TX, 77033",96599641,"L"
881406,"8159 JAILENE DR","WINDERMERE","FL",34786,28.4484885150001,-81.575423673,406,"8159 JAILENE DR, WINDERMERE, FL, 34786","Match","Exact","8159 JAILENE DR, WINDERMERE, FL, 34786",640861114,"L"
881407,"8159 S KING DRIVE","CHICAGO","IL",60619,NA,NA,407,"8159 S KING DRIVE, CHICAGO, IL, 60619","No_Match",NA,NA,NA,NA
881408,"8159 S MERRILL AVE","CHICAGO","IL",60617,41.7469503880001,-87.572235281,408,"8159 S MERRILL AVE, CHICAGO, IL, 60617","Match","Exact","8159 S MERRILL AVE, CHICAGO, IL, 60617",111775931,"L"
881409,"8159 SHORT GRASS COVE","MEMPHIS","TN",38002,35.267048759,-89.791564695,409,"8159 SHORT GRASS COVE, MEMPHIS, TN, 38002","Match","Non_Exact","8159 SHORT GRASS COVE, LAKELAND, TN, 38002",619330521,"L"
881410,"8159 SOUTH ALBANY AVENUE","CHICAGO","IL",60652,41.7451396000001,-87.699813747,410,"8159 SOUTH ALBANY AVENUE, CHICAGO, IL, 60652","Match","Exact","8159 S ALBANY AVE, CHICAGO, IL, 60652",111819949,"L"
881411,"8159 STOLL PLACE","DENVER","CO",80238,39.7890483200001,-104.893624149,411,"8159 STOLL PLACE, DENVER, CO, 80238","Match","Exact","8159 STOLL PL, DENVER, CO, 80238",641514826,"L"
881412,"8159 WAINWRIGHT ROAD","NORTH CHARLESTON","SC",29406,32.9537131380001,-80.0593981379999,412,"8159 WAINWRIGHT ROAD, NORTH CHARLESTON, SC, 29406","Match","Exact","8159 WAINWRIGHT RD, N CHARLESTON, SC, 29406",108797148,"R"
881413,"81594 RANCHO SANTANA DR","LA QUINTA","CA",92253,33.670473698,-116.240390027,413,"81594 RANCHO SANTANA DR, LA QUINTA, CA, 92253","Match","Exact","81594 RANCHO SANTANA DR, LA QUINTA, CA, 92253",633950711,"L"
881414,"815A 7TH AVENUE","HONOLULU","HI",96816,21.279627224,-157.808070728,414,"815A 7TH AVENUE, HONOLULU, HI, 96816","Match","Exact","815 7TH AVE, HONOLULU, HI, 96816",203242560,"R"
881415,"815B PALOMA ST","WAILUKU","HI",96793,20.9116922790001,-156.495549668,415,"815B PALOMA ST, WAILUKU, HI, 96793","Match","Exact","815 PALOMA ST, WAILUKU, HI, 96793",85082982,"L"
881416,"816  WALKER ST","LA MARQUE","TX",77568,29.3714052070001,-95.004616748,416,"816  WALKER ST, LA MARQUE, TX, 77568","Match","Non_Exact","816 WALKER, LA MARQUE, TX, 77568",96687320,"R"
881417,"816 1/2 MAIN STREET APT C","LEWISTON","ID",83501,46.4203085170001,-117.023443604,417,"816 1/2 MAIN STREET APT C, LEWISTON, ID, 83501","Match","Exact","816 MAIN ST, LEWISTON, ID, 83501",173130359,"L"
881418,"816 1/2 W 80TH ST","LOS ANGELES","CA",90044,33.9667115940001,-118.287739449,418,"816 1/2 W 80TH ST, LOS ANGELES, CA, 90044","Match","Exact","816 W 80TH ST, LOS ANGELES, CA, 90044",142753505,"L"
881419,"816 10TH AV NW","MINOT","ND",58703,48.246121384,-101.305423375,419,"816 10TH AV NW, MINOT, ND, 58703","Match","Exact","816 10TH AVE NW, MINOT, ND, 58703",639770992,"R"
881420,"816 16TH AVENUE","GRINNELL","IA",50112,41.760694465,-92.7249432519999,420,"816 16TH AVENUE, GRINNELL, IA, 50112","Match","Exact","816 16TH AVE, GRINNELL, IA, 50112",89584023,"L"
881421,"816 16TH ST W","WILLISTON","ND",58801,48.159684177,-103.635449262,421,"816 16TH ST W, WILLISTON, ND, 58801","Match","Exact","816 16TH ST W, WILLISTON, ND, 58801",167739113,"L"
881422,"816 17TH AVENUE","SEATLLE","WA",98122,47.609452435,-122.31021968,422,"816 17TH AVENUE, SEATLLE, WA, 98122","Match","Non_Exact","816 17TH AVE, SEATTLE, WA, 98122",186592672,"R"
881423,"816 17TH STREET","HUNTSVILLE","TX",77340,NA,NA,423,"816 17TH STREET, HUNTSVILLE, TX, 77340","No_Match",NA,NA,NA,NA
881424,"816 1ST AVENUE","MADISON","MN",56256,45.016730335,-96.186002473,424,"816 1ST AVENUE, MADISON, MN, 56256","Match","Exact","816 1ST AVE, MADISON, MN, 56256",639125125,"R"
881425,"816 21ST STREET","VIENNA","WV",26105,39.319119469,-81.5489262849999,425,"816 21ST STREET, VIENNA, WV, 26105","Match","Exact","816 21ST ST, VIENNA, WV, 26105",90869621,"R"
881426,"816 22ND ST","OAKLAND","CA",94607,37.8130827030001,-122.276946713,426,"816 22ND ST, OAKLAND, CA, 94607","Match","Exact","816 22ND ST, OAKLAND, CA, 94607",652204468,"R"
881427,"816 23RD STREET","ASHLAND","KY",41101,38.4690369680001,-82.634619965,427,"816 23RD STREET, ASHLAND, KY, 41101","Match","Exact","816 23RD ST, ASHLAND, KY, 41101",151057014,"L"
881428,"816 3RD AVENUE NE","ROSEAU","MN",56751,48.8564473870001,-95.76049782,428,"816 3RD AVENUE NE, ROSEAU, MN, 56751","Match","Exact","816 3RD AVE NE, ROSEAU, MN, 56751",650637270,"L"
881429,"816 3RD AVENUE","MONTGOMERY","WV",25136,38.1806275550001,-81.330151959,429,"816 3RD AVENUE, MONTGOMERY, WV, 25136","Match","Exact","816 3RD AVE, MONTGOMERY, WV, 25136",78633002,"L"
881430,"816 3RD ST NW","WASHINGTON","DC",20001,38.900496596,-77.015178208,430,"816 3RD ST NW, WASHINGTON, DC, 20001","Match","Exact","816 3RD ST NW, WASHINGTON, DC, 20001",76226538,"L"
881431,"816 43RD ST APT 7","BROOKLYN","NY",11232,40.6447438700001,-73.999154705,431,"816 43RD ST APT 7, BROOKLYN, NY, 11232","Match","Exact","816 43RD ST, BROOKLYN, NY, 11232",59079985,"R"
881432,"816 45TH ST","BROOKLYN","NY",11220,40.6436263420001,-74.0003204719999,432,"816 45TH ST, BROOKLYN, NY, 11220","Match","Exact","816 45TH ST, BROOKLYN, NY, 11220",59098019,"R"
881433,"816 45TH ST","BROOKLYN","NY",NA,40.6436263420001,-74.0003204719999,433,"816 45TH ST, BROOKLYN, NY, ","Match","Exact","816 45TH ST, BROOKLYN, NY, 11220",59098019,"R"
881434,"816 4TH AVE SE","ROCHESTER","MN",55904,44.0144129010001,-92.4574731769999,434,"816 4TH AVE SE, ROCHESTER, MN, 55904","Match","Exact","816 4TH AVE SE, ROCHESTER, MN, 55904",612124005,"L"
881435,"816 50TH AVE NW","ROCHESTER","MN",55901,44.036662232,-92.5383283689999,435,"816 50TH AVE NW, ROCHESTER, MN, 55901","Match","Exact","816 50TH AVE NW, ROCHESTER, MN, 55901",30569267,"R"
881436,"816 50TH ST REAR","NORFOLK","VA",23508,36.888646211,-76.2955195869999,436,"816 50TH ST REAR, NORFOLK, VA, 23508","Match","Non_Exact","816 W 50TH ST, NORFOLK, VA, 23508",122132009,"R"
881437,"816 5TH ST S","SAFETY HARBOR","FL",34695,27.987798093,-82.695591769,437,"816 5TH ST S, SAFETY HARBOR, FL, 34695","Match","Exact","816 5TH ST S, SAFETY HARBOR, FL, 34695",124684219,"L"
881438,"816 6TH AVE NW","DODGE CENTER","MN",55927,44.035856471,-92.864259761,438,"816 6TH AVE NW, DODGE CENTER, MN, 55927","Match","Exact","816 SIXTH AVE NW, DODGE CENTER, MN, 55927",630170387,"R"
881439,"816 8TH AVE NW","VALLEY CITY","ND",58072,46.9308466730001,-98.013527019,439,"816 8TH AVE NW, VALLEY CITY, ND, 58072","Match","Exact","816 8TH AVE NW, VALLEY CITY, ND, 58072",150685887,"R"
881440,"816 A1A NORTH SUITE 204","PONTE VEDRA BEACH","FL",32082,NA,NA,440,"816 A1A NORTH SUITE 204, PONTE VEDRA BEACH, FL, 32082","No_Match",NA,NA,NA,NA
881441,"816 ACOMA ST","DENVER","CO",80204,39.7293864430001,-104.988848584,441,"816 ACOMA ST, DENVER, CO, 80204","Match","Exact","816 ACOMA ST, DENVER, CO, 80204",177330667,"R"
881442,"816 ACOMA STREET","DENVER","CO",80204,39.7293864430001,-104.988848584,442,"816 ACOMA STREET, DENVER, CO, 80204","Match","Exact","816 ACOMA ST, DENVER, CO, 80204",177330667,"R"
881443,"816 ADAMS ST","EUGENE","OR",97402,44.0507291760001,-123.106439348,443,"816 ADAMS ST, EUGENE, OR, 97402","Match","Exact","816 ADAMS ST, EUGENE, OR, 97402",605386841,"R"
881444,"816 ASPEN DR","WASHINGTON COURT HOU","OH",43160,39.552593636,-83.440576359,444,"816 ASPEN DR, WASHINGTON COURT HOU, OH, 43160","Match","Non_Exact","816 ASPEN DR, WASHINGTON COURT HOUSE, OH, 43160",119067685,"L"
881445,"816 ATTICUS WAY","DURHAM","NC",27703,35.903651532,-78.8306563899999,445,"816 ATTICUS WAY, DURHAM, NC, 27703","Match","Exact","816 ATTICUS WAY, DURHAM, NC, 27703",648306554,"L"
881446,"816 AVENUE B","BILLINGS","MT",59102,45.7849639680001,-108.536456123,446,"816 AVENUE B, BILLINGS, MT, 59102","Match","Exact","816 AVE B, BILLINGS, MT, 59102",181476572,"L"
881447,"816 BAKKE AVE","WATERFORD","WI",53185,42.7551648360001,-88.224273169,447,"816 BAKKE AVE, WATERFORD, WI, 53185","Match","Exact","816 BAKKE AVE, WATERFORD, WI, 53185",77933622,"R"
881448,"816 BARNUM STREET","SHEFFIELD","MA",1257,42.0778657180001,-73.380259865,448,"816 BARNUM STREET, SHEFFIELD, MA, 1257","Match","Exact","816 BARNUM ST, SHEFFIELD, MA, 01257",3978458,"L"
881449,"816 BASORE RD","MATHIAS","WV",26812,38.861179549,-78.81605787,449,"816 BASORE RD, MATHIAS, WV, 26812","Match","Exact","816 BASORE RD, MATHIAS, WV, 26812",243819355,"L"
881450,"816 BAVARIAN CT","OSHKOSH","WI",54901,44.0462612150001,-88.527620581,450,"816 BAVARIAN CT, OSHKOSH, WI, 54901","Match","Exact","816 BAVARIAN CT, OSHKOSH, WI, 54901",638714445,"L"
881451,"816 BAXTER DRIVE","PLANO","TX",75025,33.0780223080001,-96.705474857,451,"816 BAXTER DRIVE, PLANO, TX, 75025","Match","Exact","816 BAXTER DR, PLANO, TX, 75025",123565934,"R"
881452,"816 BEDMINISTER LANE","WILMINGTON","NC",28504,34.247115992,-77.82114511,452,"816 BEDMINISTER LANE, WILMINGTON, NC, 28504","Match","Non_Exact","816 BEDMINISTER LN, WILMINGTON, NC, 28405",633248258,"R"
881453,"816 BELMERE LUXURY COURT","HOUMA","LA",70360,NA,NA,453,"816 BELMERE LUXURY COURT, HOUMA, LA, 70360","No_Match",NA,NA,NA,NA
881454,"816 BELMERE LUXURY CT","HOUMA","LA",70360,NA,NA,454,"816 BELMERE LUXURY CT, HOUMA, LA, 70360","No_Match",NA,NA,NA,NA
881455,"816 BELMERE LUXURY","HOUMA","LA",70360,NA,NA,455,"816 BELMERE LUXURY, HOUMA, LA, 70360","No_Match",NA,NA,NA,NA
881456,"816 BENT HICKORY RD","CHARLESTON","SC",29414,32.8392143400001,-80.093027677,456,"816 BENT HICKORY RD, CHARLESTON, SC, 29414","Match","Exact","816 BENT HICKORY RD, CHARLESTON, SC, 29414",635786576,"R"
881457,"816 BENTBURY WAY","CARY","NC",27518,35.750519518,-78.754187709,457,"816 BENTBURY WAY, CARY, NC, 27518","Match","Exact","816 BENTBURY WAY, CARY, NC, 27518",624197539,"L"
881458,"816 BENTON RD","BOSSIER","LA",71111,32.527627296,-93.718250981,458,"816 BENTON RD, BOSSIER, LA, 71111","Match","Non_Exact","816 BENTON RD, BOSSIER CITY, LA, 71111",636058039,"R"
881459,"816 BETH DR","NASHVILLE","TN",37206,36.1802791000001,-86.711257185,459,"816 BETH DR, NASHVILLE, TN, 37206","Match","Exact","816 BETH DR, NASHVILLE, TN, 37206",97194996,"L"
881460,"816 BLAKELY COURT 219","FREDERICK","MD",21702,39.4194828440001,-77.434775744,460,"816 BLAKELY COURT 219, FREDERICK, MD, 21702","Match","Exact","816 BLAKELY CT, FREDERICK, MD, 21702",60699915,"R"
881461,"816 BOND STREET","ARCADIA","FL",34266,27.2117369850001,-81.871663046,461,"816 BOND STREET, ARCADIA, FL, 34266","Match","Exact","816 BOND ST, ARCADIA, FL, 34266",16166159,"R"
881462,"816 BRANDY LANE","BIRMINGHAM","AL",35214,33.5630474320001,-86.880581132,462,"816 BRANDY LANE, BIRMINGHAM, AL, 35214","Match","Exact","816 BRANDY LN, BIRMINGHAM, AL, 35214",81553018,"L"
881463,"816 BRAWLEY SCHOOL ROAD SUITE D","MOORESVILLE","NC",28117,35.577394236,-80.8867708239999,463,"816 BRAWLEY SCHOOL ROAD SUITE D, MOORESVILLE, NC, 28117","Match","Exact","816 BRAWLEY SCHOOL RD, MOORESVILLE, NC, 28117",46013471,"L"
881464,"816 BREVARD CIRCLE","PICKERINGTON","OH",43147,39.8627291350001,-82.767758391,464,"816 BREVARD CIRCLE, PICKERINGTON, OH, 43147","Match","Exact","816 BREVARD CIR, PICKERINGTON, OH, 43147",37247994,"L"
881465,"816 BROADMOOR CIRCLE","LEXINGTON","KY",40509,37.9955921280001,-84.4058789219999,465,"816 BROADMOOR CIRCLE, LEXINGTON, KY, 40509","Match","Exact","816 BROADMOOR CIR, LEXINGTON, KY, 40509",31939991,"R"
881466,"816 BROADWAY","NEW YORK","NY",10003,40.7328325350001,-73.991187689,466,"816 BROADWAY, NEW YORK, NY, 10003","Match","Exact","816 BROADWAY, NEW YORK, NY, 10003",59653583,"R"
881467,"816 BROOKHOLLOW LANE","CHATTANOOGA","TN",37421,34.991304863,-85.123814564,467,"816 BROOKHOLLOW LANE, CHATTANOOGA, TN, 37421","Match","Exact","816 BROOKHOLLOW LN, CHATTANOOGA, TN, 37421",59319792,"R"
881468,"816 BROOKSHIRE BLVD","MARYVILLE","TN",37803,35.723744132,-83.985842229,468,"816 BROOKSHIRE BLVD, MARYVILLE, TN, 37803","Match","Exact","816 BROOKSHIRE BLVD, MARYVILLE, TN, 37803",617444614,"R"
881469,"816 BUCKNER BEND ROAD","WALKER","WV",26180,39.1708200960001,-81.450311864,469,"816 BUCKNER BEND ROAD, WALKER, WV, 26180","Match","Exact","816 BUCKNER BEND RD, WALKER, WV, 26180",90905179,"L"
881470,"816 CALIFORNIA AVENUE","SPARTANBURG","SC",29303,34.9743918790001,-81.958340683,470,"816 CALIFORNIA AVENUE, SPARTANBURG, SC, 29303","Match","Exact","816 CALIFORNIA AVE, SPARTANBURG, SC, 29303",19512769,"R"
881471,"816 CALLE AMOR SE","ALBUQUERQUE","NM",87123,35.056950348,-106.49897487,471,"816 CALLE AMOR SE, ALBUQUERQUE, NM, 87123","Match","Non_Exact","816 CLL AMOR SE, ALBUQUERQUE, NM, 87123",206756052,"L"
881472,"816 CANONGATE DR","FLOWER MOUND","TX",75022,32.997051479,-97.0727411029999,472,"816 CANONGATE DR, FLOWER MOUND, TX, 75022","Match","Exact","816 CANONGATE DR, FLOWER MOUND, TX, 75022",103385448,"R"
881473,"816 CANONGATE DRIVE","FLOWER MOUND","TX",75022,32.997051479,-97.0727411029999,473,"816 CANONGATE DRIVE, FLOWER MOUND, TX, 75022","Match","Exact","816 CANONGATE DR, FLOWER MOUND, TX, 75022",103385448,"R"
881474,"816 CAPITAN ST","NEWBURY PARK","CA",91320,34.1793357880001,-118.899581315,474,"816 CAPITAN ST, NEWBURY PARK, CA, 91320","Match","Exact","816 CAPITAN ST, NEWBURY PARK, CA, 91320",109969641,"R"
881475,"816 CARAWAY LANE","DESOTO","TX",75115,32.576882282,-96.8844886909999,475,"816 CARAWAY LANE, DESOTO, TX, 75115","Match","Exact","816 CARAWAY LN, DESOTO, TX, 75115",103277865,"L"
881476,"816 CEDAR BOUGH PLACE","NEW ALBANY","IN",47150,38.294531727,-85.814492447,476,"816 CEDAR BOUGH PLACE, NEW ALBANY, IN, 47150","Match","Exact","816 CEDAR BOUGH PL, NEW ALBANY, IN, 47150",89547037,"R"
881477,"816 CELESTINE CIRCLE","VACAVILLE","CA",95687,38.325520688,-121.956622321,477,"816 CELESTINE CIRCLE, VACAVILLE, CA, 95687","Match","Exact","816 CELESTINE CIR, VACAVILLE, CA, 95687",653163978,"L"
881478,"816 CHALET HILLS","MCDONOUGH","GA",30253,33.5078913150001,-84.204032539,478,"816 CHALET HILLS, MCDONOUGH, GA, 30253","Match","Exact","816 CHALET HILLS, MCDONOUGH, GA, 30253",635613268,"L"
881479,"816 CHALK LEVEL ROAD","DURHAM","NC",27704,36.0512153350001,-78.9113976679999,479,"816 CHALK LEVEL ROAD, DURHAM, NC, 27704","Match","Exact","816 CHALK LEVEL RD, DURHAM, NC, 27704",71755402,"R"
881480,"816 CHAMBERLAIN LOOP","LAKE WALES","FL",33853,27.911400476,-81.562553415,480,"816 CHAMBERLAIN LOOP, LAKE WALES, FL, 33853","Match","Exact","816 CHAMBERLAIN LOOP, LAKE WALES, FL, 33853",104895419,"L"
881481,"816 CHAMPION DRIVE","FRANKLIN","KY",42134,36.7086745460001,-86.588361353,481,"816 CHAMPION DRIVE, FRANKLIN, KY, 42134","Match","Exact","816 CHAMPION DR, FRANKLIN, KY, 42134",632436110,"L"
881482,"816 CHEROKEE AVE","SENECA","MO",64850,36.845226122,-94.6112133089999,482,"816 CHEROKEE AVE, SENECA, MO, 64850","Match","Non_Exact","816 CHEROKEE AVE, SENECA, MO, 64865",55973640,"L"
881483,"816 CHEROKEE AVE","SENECA","MO",64865,36.845226122,-94.6112133089999,483,"816 CHEROKEE AVE, SENECA, MO, 64865","Match","Exact","816 CHEROKEE AVE, SENECA, MO, 64865",55973640,"L"
881484,"816 CHERRY CT","STURGEON BAY","WI",54235,44.845139814,-87.370484956,484,"816 CHERRY CT, STURGEON BAY, WI, 54235","Match","Exact","816 CHERRY CT, STURGEON BAY, WI, 54235",167250891,"R"
881485,"816 CHERRY STREET","TOELDO","OH",43604,41.6589262430001,-83.533378386,485,"816 CHERRY STREET, TOELDO, OH, 43604","Match","Non_Exact","816 CHERRY ST, TOLEDO, OH, 43604",640305314,"L"
881486,"816 CITY PARK AVENUE","NEW ORLEANS","LA",70119,29.983777451,-90.1002037809999,486,"816 CITY PARK AVENUE, NEW ORLEANS, LA, 70119","Match","Exact","816 CITY PARK AVE, NEW ORLEANS, LA, 70119",191733739,"L"
881487,"816 CLAREMONT AVENUE","NORFOLK","VA",23507,36.865908452,-76.307221113,487,"816 CLAREMONT AVENUE, NORFOLK, VA, 23507","Match","Exact","816 CLAREMONT AVE, NORFOLK, VA, 23507",122140611,"R"
881488,"816 CLIFFEDGE RD","PIKESVILLE","MD",21208,39.364798018,-76.7389927949999,488,"816 CLIFFEDGE RD, PIKESVILLE, MD, 21208","Match","Exact","816 CLIFFEDGE RD, PIKESVILLE, MD, 21208",191468249,"L"
881489,"816 COLONY MANOR RD","CHESAPEAKE","VA",23321,36.7704832420001,-76.385370743,489,"816 COLONY MANOR RD, CHESAPEAKE, VA, 23321","Match","Exact","816 COLONY MANOR RD, CHESAPEAKE, VA, 23321",121777367,"L"
881490,"816 CONGRESS AVENUE SUITE 1200","AUSTIN","TX",78701,30.2701156630001,-97.7420406749999,490,"816 CONGRESS AVENUE SUITE 1200, AUSTIN, TX, 78701","Match","Exact","816 CONGRESS AVE, AUSTIN, TX, 78701",63943445,"L"
881491,"816 CONGRESS SUITE 1260","AUSTIN","TX",78701,30.2701156630001,-97.7420406749999,491,"816 CONGRESS SUITE 1260, AUSTIN, TX, 78701","Match","Non_Exact","816 CONGRESS AVE, AUSTIN, TX, 78701",63943445,"L"
881492,"816 CONSTANCE DRIVE APT C","NEWPORT NEWS","VA",23601,37.0840714930001,-76.455802767,492,"816 CONSTANCE DRIVE APT C, NEWPORT NEWS, VA, 23601","Match","Exact","816 CONSTANCE DR, NEWPORT NEWS, VA, 23601",103820313,"R"
881493,"816 CORDAY DR","NAPERVILLE","IL",60540,41.757368779,-88.1876843809999,493,"816 CORDAY DR, NAPERVILLE, IL, 60540","Match","Exact","816 CORDAY DR, NAPERVILLE, IL, 60540",112675972,"R"
881494,"816 CORINTHIAN AVE","PHILADELPHIA","PA",19130,39.969656662,-75.170926085,494,"816 CORINTHIAN AVE, PHILADELPHIA, PA, 19130","Match","Exact","816 CORINTHIAN AVE, PHILADELPHIA, PA, 19130",131406047,"L"
881495,"816 CORWIN DRIVE","CHARLOTTE","NC",28213,35.268718903,-80.778153663,495,"816 CORWIN DRIVE, CHARLOTTE, NC, 28213","Match","Exact","816 CORWIN DR, CHARLOTTE, NC, 28213",70581464,"L"
881496,"816 COURT AVE","LAKEWOOD","WA",98498,NA,NA,496,"816 COURT AVE, LAKEWOOD, WA, 98498","No_Match",NA,NA,NA,NA
881497,"816 COVE CREEK","BAKER","WV",26801,39.087030332,-78.771501716,497,"816 COVE CREEK, BAKER, WV, 26801","Match","Exact","816 COVE CREEK, BAKER, WV, 26801",243818508,"R"
881498,"816 COX AVE","HYATTSVILLE","MD",20783,38.9659228940001,-76.994109169,498,"816 COX AVE, HYATTSVILLE, MD, 20783","Match","Exact","816 COX AVE, HYATTSVILLE, MD, 20783",76303174,"L"
881499,"816 CREEK DR","CHATTANOOGA","TN",37415,35.134113783,-85.3009695539999,499,"816 CREEK DR, CHATTANOOGA, TN, 37415","Match","Exact","816 CREEK DR, CHATTANOOGA, TN, 37415",59333472,"L"
881500,"816 CYPRUS AVENUE","VENICE","FL",34285,27.0988286730001,-82.431043228,500,"816 CYPRUS AVENUE, VENICE, FL, 34285","Match","Non_Exact","816 CYPRESS AVE, VENICE, FL, 34285",16396855,"R"
