"ID","Address","City","State","Zip","lat","long","id","input_address","match_indicator","match_type","matched_address","tiger_line_id","tiger_side"
152501,"13365 CHERRYLAUREL AVE","MORENO VALLEY","CA",92553,33.9262661560001,-117.275341277,1,"13365 CHERRYLAUREL AVE, MORENO VALLEY, CA, 92553","Match","Exact","13365 CHERRYLAUREL AVE, MORENO VALLEY, CA, 92553",608992796,"R"
152502,"13365 CHESAPEAKE PL","SPRING HILL","FL",34609,28.442346813,-82.499773138,2,"13365 CHESAPEAKE PL, SPRING HILL, FL, 34609","Match","Exact","13365 CHESAPEAKE PL, SPRING HILL, FL, 34609",85468095,"L"
152503,"13365 FM 2484","SALADO","TX",76571,30.98163836,-97.649617789,3,"13365 FM 2484, SALADO, TX, 76571","Match","Exact","13365 FM 2484, SALADO, TX, 76571",146187886,"R"
152504,"13365 LITTLE JOE PLACE","BRYCEVILLE","FL",32009,30.465998949,-81.900495755,4,"13365 LITTLE JOE PLACE, BRYCEVILLE, FL, 32009","Match","Exact","13365 LITTLE JOE PL, BRYCEVILLE, FL, 32009",648426707,"R"
152505,"13365 WEST FOXFIRE DRIVE SUITE 4","SURPRISE","AZ",85378,33.642052096,-112.346793933,5,"13365 WEST FOXFIRE DRIVE SUITE 4, SURPRISE, AZ, 85378","Match","Exact","13365 W FOXFIRE DR, SURPRISE, AZ, 85378",128395443,"L"
152506,"13365 WEST FOXWOOD DRIVE","NEW BERLIN","WI",53151,42.9844927780001,-88.0810946239999,6,"13365 WEST FOXWOOD DRIVE, NEW BERLIN, WI, 53151","Match","Non_Exact","13365 FOXWOOD DR, NEW BERLIN, WI, 53151",53865437,"L"
152507,"13366 COUNTY ROAD 270","WEBB CITY","MO",64870,37.2494645800001,-94.543792093,7,"13366 COUNTY ROAD 270, WEBB CITY, MO, 64870","Match","Exact","13366 CO RD 270, WEBB CITY, MO, 64870",66170525,"R"
152508,"13366 OLD HIGHWAY 63","LAPLATA","MO",63549,39.9927362130001,-92.484839478,8,"13366 OLD HIGHWAY 63, LAPLATA, MO, 63549","Match","Non_Exact","13366 OLD HWY 63, LA PLATA, MO, 63549",24952229,"R"
152509,"13366 OLD MILITARY RD","POUSLBO","WA",98370,NA,NA,9,"13366 OLD MILITARY RD, POUSLBO, WA, 98370","No_Match",NA,NA,NA,NA
152510,"13366 W ELMSPRING DRIVE","BOISE","ID",83713,43.656128763,-116.348890309,10,"13366 W ELMSPRING DRIVE, BOISE, ID, 83713","Match","Exact","13366 W ELMSPRING DR, BOISE, ID, 83713",117895245,"L"
152511,"13367 BARLINGTON ST","SPRINGHILL","FL",34609,28.4638567590001,-82.5012768839999,11,"13367 BARLINGTON ST, SPRINGHILL, FL, 34609","Match","Non_Exact","13367 BARLINGTON ST, SPRING HILL, FL, 34609",85432019,"L"
152512,"13367 CAMPUS DRIVE","OAKLAND","CA",94605,37.7875811650001,-122.16801787,12,"13367 CAMPUS DRIVE, OAKLAND, CA, 94605","Match","Non_Exact","13367 CAMPUS DR, OAKLAND, CA, 94619",125067219,"R"
152513,"13367 FM 2501","APPLE SPRINGS","TX",75926,31.218774447,-94.909768636,13,"13367 FM 2501, APPLE SPRINGS, TX, 75926","Match","Exact","13367 FM 2501, APPLE SPRINGS, TX, 75926",24368986,"L"
152514,"13367 HONEYWAY","MADISON","AL",35757,NA,NA,14,"13367 HONEYWAY, MADISON, AL, 35757","No_Match",NA,NA,NA,NA
152515,"13369 MEADOWSWEET DR","FAIRFAX","VA",22033,38.9017303700001,-77.40798681,15,"13369 MEADOWSWEET DR, FAIRFAX, VA, 22033","Match","Exact","13369 MEADOWSWEET DR, FAIRFAX, VA, 22033",635444934,"R"
152516,"13369 PROVENCE DRIVE","PALM BEACH GARDENS","FL",33410,26.872133653,-80.0921011619999,16,"13369 PROVENCE DRIVE, PALM BEACH GARDENS, FL, 33410","Match","Exact","13369 PROVENCE DR, PALM BEACH GARDENS, FL, 33410",115508929,"L"
152517,"1336B MAGNOLIA AVE","SAINT HELENA","CA",94574,38.493515464,-122.458091839,17,"1336B MAGNOLIA AVE, SAINT HELENA, CA, 94574","Match","Exact","1336 MAGNOLIA AVE, SAINT HELENA, CA, 94574",67413316,"R"
152518,"1337    SOUTH SENECA RD","MIDDLE RIVER","MD",21220,39.3140525790001,-76.374918833,18,"1337    SOUTH SENECA RD, MIDDLE RIVER, MD, 21220","Match","Exact","1337 S SENECA RD, MIDDLE RIVER, MD, 21220",191492216,"R"
152519,"1337   W  48TH  PLACE","LOS  ANGELES","CA",90037,33.999627656,-118.298862383,19,"1337   W  48TH  PLACE, LOS  ANGELES, CA, 90037","Match","Non_Exact","1337 W 48TH ST, LOS ANGELES, CA, 90037",141607792,"R"
152520,"1337   W  48TH  PLACE","LOS ANGELES","CA",90037,33.999627656,-118.298862383,20,"1337   W  48TH  PLACE, LOS ANGELES, CA, 90037","Match","Non_Exact","1337 W 48TH ST, LOS ANGELES, CA, 90037",141607792,"R"
152521,"1337  W   48TH  PLACE","LOS ANGELE","CA",90037,33.999627682,-118.298876131,21,"1337  W   48TH  PLACE, LOS ANGELE, CA, 90037","Match","Non_Exact","1337 W 48TH ST, LOS ANGELES, CA, 90037",141607792,"R"
152522,"1337  W  48TH  PLACE","LOS ANGELES","CA",90037,33.999627656,-118.298862383,22,"1337  W  48TH  PLACE, LOS ANGELES, CA, 90037","Match","Non_Exact","1337 W 48TH ST, LOS ANGELES, CA, 90037",141607792,"R"
152523,"1337  W  48TH","LOS ANGELES","CA",90037,33.999627682,-118.298876131,23,"1337  W  48TH, LOS ANGELES, CA, 90037","Match","Non_Exact","1337 W 48TH ST, LOS ANGELES, CA, 90037",141607792,"R"
152524,"1337 27TH ST NW","WASHINGTON","DC",20007,38.9078343950001,-77.055814556,24,"1337 27TH ST NW, WASHINGTON, DC, 20007","Match","Exact","1337 27TH ST NW, WASHINGTON, DC, 20007",76225152,"R"
152525,"1337 31ST CIRCLE",NA,"CO",80904,NA,NA,25,"1337 31ST CIRCLE, , CO, 80904","No_Match",NA,NA,NA,NA
152526,"1337 8TH ST S","FARGO","ND",58103,46.86082029,-96.791932867,26,"1337 8TH ST S, FARGO, ND, 58103","Match","Exact","1337 8TH ST S, FARGO, ND, 58103",151448339,"R"
152527,"1337 ABRAMS ROAD SE","SILVER CREEK","GA",30173,34.144266223,-85.0773657089999,27,"1337 ABRAMS ROAD SE, SILVER CREEK, GA, 30173","Match","Exact","1337 ABRAMS RD SE, SILVER CREEK, GA, 30173",30717745,"L"
152528,"1337 AIRLINE STREET","GRAPEVINE","TX",76051,32.926549235,-97.079482521,28,"1337 AIRLINE STREET, GRAPEVINE, TX, 76051","Match","Exact","1337 AIRLINE ST, GRAPEVINE, TX, 76051",101868532,"L"
152529,"1337 ALEXANDER STREET","CHAMBERSBURG","PA",17201,39.949534,-77.6448135699999,29,"1337 ALEXANDER STREET, CHAMBERSBURG, PA, 17201","Match","Non_Exact","1337 ALEXANDER AVE, CHAMBERSBURG, PA, 17201",60081566,"L"
152530,"1337 AMERICAN DR","BIRMINGHAM","AL",35243,NA,NA,30,"1337 AMERICAN DR, BIRMINGHAM, AL, 35243","No_Match",NA,NA,NA,NA
152531,"1337 BAR HARBOR DR","DALLAS","TX",75232,32.6700103850001,-96.8413915469999,31,"1337 BAR HARBOR DR, DALLAS, TX, 75232","Match","Exact","1337 BAR HARBOR DR, DALLAS, TX, 75232",102948323,"R"
152532,"1337 BAYVILLE STREET","NORFOLK","VA",23503,36.96506672,-76.289586528,32,"1337 BAYVILLE STREET, NORFOLK, VA, 23503","Match","Exact","1337 BAYVILLE ST, NORFOLK, VA, 23503",122143831,"L"
152533,"1337 BLOSSOM CIRCLE","TALLAHASSEE","FL",32305,30.406455911,-84.305023811,33,"1337 BLOSSOM CIRCLE, TALLAHASSEE, FL, 32305","Match","Exact","1337 BLOSSOM CIR, TALLAHASSEE, FL, 32305",82851880,"L"
152534,"1337 BRUNSWICK AVENUE","FAR ROCKAWAY","NY",11691,NA,NA,34,"1337 BRUNSWICK AVENUE, FAR ROCKAWAY, NY, 11691","No_Match",NA,NA,NA,NA
152535,"1337 BRUSH HILL CIRCLE","NAPERVILLE","IL",60540,41.7763336960001,-88.179322309,35,"1337 BRUSH HILL CIRCLE, NAPERVILLE, IL, 60540","Match","Exact","1337 BRUSH HILL CIR, NAPERVILLE, IL, 60540",112535494,"R"
152536,"1337 BRUSH HILL","NAPERVILLE","IL",60540,41.7763336960001,-88.179322309,36,"1337 BRUSH HILL, NAPERVILLE, IL, 60540","Match","Non_Exact","1337 BRUSH HILL CIR, NAPERVILLE, IL, 60540",112535494,"R"
152537,"1337 CARMONA AVE","LOS ANGELES","CA",90019,34.0504533920001,-118.356911732,37,"1337 CARMONA AVE, LOS ANGELES, CA, 90019","Match","Exact","1337 CARMONA AVE, LOS ANGELES, CA, 90019",141599262,"R"
152538,"1337 CIRCLE STREET","DOLOMITE","AL",35061,33.4729451210001,-86.954025633,38,"1337 CIRCLE STREET, DOLOMITE, AL, 35061","Match","Exact","1337 CIRCLE ST, DOLOMITE, AL, 35061",81716006,"L"
152539,"1337 CORVIDAE ST","CARLSBAD","CA",92011,33.0971102400001,-117.294846895,39,"1337 CORVIDAE ST, CARLSBAD, CA, 92011","Match","Exact","1337 CORVIDAE ST, CARLSBAD, CA, 92011",195419167,"R"
152540,"1337 CRANDON DRIVE","CHARLOTTE","NC",28216,35.292678933,-80.8802749,40,"1337 CRANDON DRIVE, CHARLOTTE, NC, 28216","Match","Exact","1337 CRANDON DR, CHARLOTTE, NC, 28216",70627716,"R"
152541,"1337 DIXIE HWY APT 205","LOUISVILLE","KY",40210,38.233902464,-85.7881929069999,41,"1337 DIXIE HWY APT 205, LOUISVILLE, KY, 40210","Match","Exact","1337 DIXIE HWY, LOUISVILLE, KY, 40210",96843080,"L"
152542,"1337 DUPONT COMMONS CIR NW","ATLANTA","GA",30318,33.8088585720001,-84.451104523,42,"1337 DUPONT COMMONS CIR NW, ATLANTA, GA, 30318","Match","Exact","1337 DUPONT COMMONS CIR NW, ATLANTA, GA, 30318",634083893,"L"
152543,"1337 E 111PLACE 404","LOS ANGELES","CA",90059,NA,NA,43,"1337 E 111PLACE 404, LOS ANGELES, CA, 90059","No_Match",NA,NA,NA,NA
152544,"1337 E 154 TH ST","O","KS",66062,38.849316979,-94.796318709,44,"1337 E 154 TH ST, O, KS, 66062","Match","Non_Exact","1337 E 154TH ST, OLATHE, KS, 66062",91332583,"L"
152545,"1337 E 50TH ST","CHICAGO","IL",60615,41.8042103400001,-87.5936261849999,45,"1337 E 50TH ST, CHICAGO, IL, 60615","Match","Exact","1337 E 50TH ST, CHICAGO, IL, 60615",638712978,"R"
152546,"1337 E BUENA VISTA DR","PALM SPRINGS","CA",92262,33.8368891710001,-116.53113159,46,"1337 E BUENA VISTA DR, PALM SPRINGS, CA, 92262","Match","Exact","1337 E BUENA VISTA DR, PALM SPRINGS, CA, 92262",194763448,"R"
152547,"1337 E CAPITOL STREET SE","WASHINGTON","DC",20003,38.8898000510001,-76.987254526,47,"1337 E CAPITOL STREET SE, WASHINGTON, DC, 20003","Match","Exact","1337 E CAPITOL ST SE, WASHINGTON, DC, 20003",632575650,"R"
152548,"1337 EAST 22ND ST","BROOKLYN","NY",11210,40.619597609,-73.9532231319999,48,"1337 EAST 22ND ST, BROOKLYN, NY, 11210","Match","Exact","1337 E 22ND ST, BROOKLYN, NY, 11210",59089949,"L"
152549,"1337 FAIRHILLS DRIVE","OSSINING","NY",10562,41.20896012,-73.814737839,49,"1337 FAIRHILLS DRIVE, OSSINING, NY, 10562","Match","Exact","1337 FAIRHILLS DR, OSSINING, NY, 10562",617946802,"R"
152550,"1337 FOUNDERS BEND APT 305","RAPID CITY","SD",57701,44.091390715,-103.238897527,50,"1337 FOUNDERS BEND APT 305, RAPID CITY, SD, 57701","Match","Exact","1337 FOUNDERS BND, RAPID CITY, SD, 57701",646776051,"R"
152551,"1337 GETZELMAN DRIVE","ELGIN","IL",60123,42.0540394660001,-88.310198116,51,"1337 GETZELMAN DRIVE, ELGIN, IL, 60123","Match","Exact","1337 GETZELMAN DR, ELGIN, IL, 60123",636318535,"R"
152552,"1337 GITTINGS AVE","BALTIMORE","MD",21239,39.3699109080001,-76.587447786,52,"1337 GITTINGS AVE, BALTIMORE, MD, 21239","Match","Exact","1337 GITTINGS AVE, BALTIMORE, MD, 21239",206448951,"R"
152553,"1337 GREELEY RD","NORTONVILLE","KS",66060,39.4390129820001,-95.34750096,53,"1337 GREELEY RD, NORTONVILLE, KS, 66060","Match","Non_Exact","1337 GREELY RD, NORTONVILLE, KS, 66060",10064327,"R"
152554,"1337 GREENACRES BLVD","FORT WALTON BEACH","FL",32547,NA,NA,54,"1337 GREENACRES BLVD, FORT WALTON BEACH, FL, 32547","No_Match",NA,NA,NA,NA
152555,"1337 GREENHILL RD","WEST CHESTER","PA",19380,40.005469099,-75.5749338959999,55,"1337 GREENHILL RD, WEST CHESTER, PA, 19380","Match","Exact","1337 GREENHILL RD, WEST CHESTER, PA, 19380",179531586,"L"
152556,"1337 GUSDORF ROAD O","TAOS","NM",87571,36.371881994,-105.591521002,56,"1337 GUSDORF ROAD O, TAOS, NM, 87571","Match","Exact","1337 GUSDORF RD, TAOS, NM, 87571",639589363,"R"
152557,"1337 HILLCREST AVENUE","COLORADO SPRINGS","CO",80909,38.8514962,-104.795097906,57,"1337 HILLCREST AVENUE, COLORADO SPRINGS, CO, 80909","Match","Exact","1337 HILLCREST AVE, COLORADO SPRINGS, CO, 80909",105516550,"R"
152558,"1337 HILLSWICK PLACE","MAHTOMEDI","MN",55115,45.038742455,-92.970168093,58,"1337 HILLSWICK PLACE, MAHTOMEDI, MN, 55115","Match","Exact","1337 HILLSWICK PL, MAHTOMEDI, MN, 55115",97803123,"R"
152559,"1337 JEFFERS STREET","PITTSBURGH","PA",15204,40.453185815,-80.065396455,59,"1337 JEFFERS STREET, PITTSBURGH, PA, 15204","Match","Exact","1337 JEFFERS ST, PITTSBURGH, PA, 15204",51621613,"L"
152560,"1337 JEFFERS","PITTSBURGH","PA",15204,40.453185815,-80.065396455,60,"1337 JEFFERS, PITTSBURGH, PA, 15204","Match","Non_Exact","1337 JEFFERS ST, PITTSBURGH, PA, 15204",51621613,"L"
152561,"1337 LEBANON STREET","BLUEFIELD","WV",24701,37.248265663,-81.231331185,61,"1337 LEBANON STREET, BLUEFIELD, WV, 24701","Match","Exact","1337 LEBANON ST, BLUEFIELD, WV, 24701",47682216,"R"
152562,"1337 LILAC LANE","DOVER","NH",3820,43.1770408360001,-70.9031758959999,62,"1337 LILAC LANE, DOVER, NH, 3820","Match","Exact","1337 LILAC LN, DOVER, NH, 03820",638520795,"R"
152563,"1337 LINCOLN AVE","PALO ALTO","CA",94301,37.4557999040001,-122.146871244,63,"1337 LINCOLN AVE, PALO ALTO, CA, 94301","Match","Exact","1337 LINCOLN AVE, PALO ALTO, CA, 94301",122950220,"L"
152564,"1337 LINDEN CREEK DRIVE","MILFORD","OH",45150,39.1906564600001,-84.217000506,64,"1337 LINDEN CREEK DRIVE, MILFORD, OH, 45150","Match","Exact","1337 LINDEN CREEK DR, MILFORD, OH, 45150",118445381,"R"
152565,"1337 LINDEN ST","BETHLEHEM","PA",18018,40.63141281,-75.3698408399999,65,"1337 LINDEN ST, BETHLEHEM, PA, 18018","Match","Exact","1337 LINDEN ST, BETHLEHEM, PA, 18018",136921152,"L"
152566,"1337 LOGAN ST SE","GRAND RAPIDS","MI",49506,42.9537067590001,-85.636103194,66,"1337 LOGAN ST SE, GRAND RAPIDS, MI, 49506","Match","Exact","1337 LOGAN ST SE, GRAND RAPIDS, MI, 49506",12461658,"L"
152567,"1337 LYRA LN","ARLINGTON","TX",76013,32.723731463,-97.178399968,67,"1337 LYRA LN, ARLINGTON, TX, 76013","Match","Exact","1337 LYRA LN, ARLINGTON, TX, 76013",102122848,"L"
152568,"1337 MARIGOLD DR","INDEPENDENCE","OR",97351,44.859804712,-123.204494383,68,"1337 MARIGOLD DR, INDEPENDENCE, OR, 97351","Match","Exact","1337 MARIGOLD DR, INDEPENDENCE, OR, 97351",155788650,"L"
152569,"1337 MASSACHUSETTES AVE 118","ARLINGTON","MA",2476,42.424386493,-71.183603847,69,"1337 MASSACHUSETTES AVE 118, ARLINGTON, MA, 2476","Match","Non_Exact","1337 MASSACHUSETTS AVE, ARLINGTON, MA, 02476",87111385,"R"
152570,"1337 MCBRIDE","COMMERCE","CA",90040,NA,NA,70,"1337 MCBRIDE, COMMERCE, CA, 90040","No_Match",NA,NA,NA,NA
152571,"1337 MCCORMICK ST","GREEN BAY","WI",54301,44.491838876,-88.00752441,71,"1337 MCCORMICK ST, GREEN BAY, WI, 54301","Match","Exact","1337 MCCORMICK ST, GREEN BAY, WI, 54301",148103547,"L"
152572,"1337 MILL POND WAY","PALMYRA","PA",17078,40.2972342140001,-76.5793266539999,72,"1337 MILL POND WAY, PALMYRA, PA, 17078","Match","Exact","1337 MILL POND WAY, PALMYRA, PA, 17078",80682876,"R"
152573,"1337 MISSION STREET","SAN FRANCISCO","CA",94103,37.7757724320001,-122.415266611,73,"1337 MISSION STREET, SAN FRANCISCO, CA, 94103","Match","Exact","1337 MISSION ST, SAN FRANCISCO, CA, 94103",192287255,"L"
152574,"1337 MOORES CREEK DRIVE","KNIGHTDALE","NC",27545,35.7473085230001,-78.462943439,74,"1337 MOORES CREEK DRIVE, KNIGHTDALE, NC, 27545","Match","Exact","1337 MOORES CREEK DR, KNIGHTDALE, NC, 27545",642171366,"L"
152575,"1337 MORTON STREET","CAMDEN","NJ",8104,39.9266182960001,-75.1009450449999,75,"1337 MORTON STREET, CAMDEN, NJ, 8104","Match","Exact","1337 MORTON ST, CAMDEN, NJ, 08104",134347918,"L"
152576,"1337 N 19TH STREET","CLARKSBURG","WV",26301,39.294464691,-80.3481337109999,76,"1337 N 19TH STREET, CLARKSBURG, WV, 26301","Match","Exact","1337 N 19TH ST, CLARKSBURG, WV, 26301",53301676,"R"
152577,"1337 N 44TH ST","MILWAUKEE","WI",53208,43.047838928,-87.969143156,77,"1337 N 44TH ST, MILWAUKEE, WI, 53208","Match","Exact","1337 N 44TH ST, MILWAUKEE, WI, 53208",77734060,"L"
152578,"1337 NEW ROAD","NORTHFIELD","NJ",8225,39.374609069,-74.554099473,78,"1337 NEW ROAD, NORTHFIELD, NJ, 8225","Match","Exact","1337 NEW RD, NORTHFIELD, NJ, 08225",647612919,"R"
152579,"1337 NW 123 TER","PEMBROOK PINES","FL",33026,26.0193714210001,-80.3111264029999,79,"1337 NW 123 TER, PEMBROOK PINES, FL, 33026","Match","Non_Exact","1337 NW 123RD TER, PEMBROKE PINES, FL, 33026",114753765,"R"
152580,"1337 NW 75TH STREET","MIAMI","FL",33147,25.8430039630001,-80.2199505519999,80,"1337 NW 75TH STREET, MIAMI, FL, 33147","Match","Exact","1337 NW 75TH ST, MIAMI, FL, 33147",116004258,"R"
152581,"1337 OAK AVE SE","MASSILLON","OH",44646,40.794680385,-81.5079107449999,81,"1337 OAK AVE SE, MASSILLON, OH, 44646","Match","Exact","1337 OAK AVE SE, MASSILLON, OH, 44646",64673047,"R"
152582,"1337 OVERHILL ST","HOUSTON","TX",77018,29.8295909030001,-95.432888493,82,"1337 OVERHILL ST, HOUSTON, TX, 77018","Match","Exact","1337 OVERHILL ST, HOUSTON, TX, 77018",96054086,"L"
152583,"1337 PEREGRINE WAY","HAMILTON","OH",45013,39.429755293,-84.5807435149999,83,"1337 PEREGRINE WAY, HAMILTON, OH, 45013","Match","Exact","1337 PEREGRINE WAY, HAMILTON, OH, 45013",617977479,"L"
152584,"1337 PIGEON FORK RD","LAWRENCEBERG","KY",40342,38.1040340690001,-85.025483761,84,"1337 PIGEON FORK RD, LAWRENCEBERG, KY, 40342","Match","Non_Exact","1337 PIGEON FORK RD, LAWRENCEBURG, KY, 40342",43451409,"R"
152585,"1337 PINE STREET","PORT HURON","MI",48060,42.9732934400001,-82.438667515,85,"1337 PINE STREET, PORT HURON, MI, 48060","Match","Exact","1337 PINE ST, PORT HURON, MI, 48060",110957635,"L"
152586,"1337 PIOUS RIDGE RD","BERKELEY SPRINGS","WV",25411,39.641739757,-78.183121552,86,"1337 PIOUS RIDGE RD, BERKELEY SPRINGS, WV, 25411","Match","Exact","1337 PIOUS RIDGE RD, BERKELEY SPRINGS, WV, 25411",608036626,"L"
152587,"1337 PLYMOUTH AVE SE","GRAND RAPIDS","MI",49506,42.9388001250001,-85.624783489,87,"1337 PLYMOUTH AVE SE, GRAND RAPIDS, MI, 49506","Match","Exact","1337 PLYMOUTH AVE SE, GRAND RAPIDS, MI, 49506",12462558,"R"
152588,"1337 RECTOR RD","ALPHA","KY",42603,36.752222799,-84.977425242,88,"1337 RECTOR RD, ALPHA, KY, 42603","Match","Exact","1337 RECTOR RD, ALPHA, KY, 42603",636230097,"R"
152589,"1337 RIDGE RD","LANCASTAR","OH",43030,NA,NA,89,"1337 RIDGE RD, LANCASTAR, OH, 43030","No_Match",NA,NA,NA,NA
152590,"1337 RIGGS STREET NW","WASHINGTON","DC",20009,38.9133554960001,-77.0305246469999,90,"1337 RIGGS STREET NW, WASHINGTON, DC, 20009","Match","Exact","1337 RIGGS ST NW, WASHINGTON, DC, 20009",76223213,"R"
152591,"1337 S BURLINGTON ST","FLAGSTAFF","AZ",86001,35.193763071,-111.683380826,91,"1337 S BURLINGTON ST, FLAGSTAFF, AZ, 86001","Match","Exact","1337 S BURLINGTON ST, FLAGSTAFF, AZ, 86001",188981763,"L"
152592,"1337 SADDLEBROOK ROAD","BARTLETT","IL",60103,41.957581885,-88.21475259,92,"1337 SADDLEBROOK ROAD, BARTLETT, IL, 60103","Match","Exact","1337 SADDLEBROOK RD, BARTLETT, IL, 60103",112583215,"L"
152593,"1337 SAMPSON AVE","COLUMBUS","OH",43219,39.9939624180001,-82.96256948,93,"1337 SAMPSON AVE, COLUMBUS, OH, 43219","Match","Exact","1337 SAMPSON AVE, COLUMBUS, OH, 43219",135578689,"L"
152594,"1337 SHELL BEACH DRIVE","LITTLE ELM","TX",75068,33.15047715,-96.94929201,94,"1337 SHELL BEACH DRIVE, LITTLE ELM, TX, 75068","Match","Exact","1337 SHELL BEACH DR, LITTLE ELM, TX, 75068",103405556,"L"
152595,"1337 SHEPHERD STREET","SOUTH BOSTON","VA",24592,36.7021534410001,-78.8976802569999,95,"1337 SHEPHERD STREET, SOUTH BOSTON, VA, 24592","Match","Exact","1337 SHEPHERD ST, SOUTH BOSTON, VA, 24592",90310137,"R"
152596,"1337 SHERWOOD ST SE","HUTCHINSON","MN",55350,44.869553087,-94.365167293,96,"1337 SHERWOOD ST SE, HUTCHINSON, MN, 55350","Match","Exact","1337 SHERWOOD ST SE, HUTCHINSON, MN, 55350",624089521,"L"
152597,"1337 STEINBURG LANE","FORT WORTH","TX",76134,32.6451649480001,-97.338818359,97,"1337 STEINBURG LANE, FORT WORTH, TX, 76134","Match","Exact","1337 STEINBURG LN, FORT WORTH, TX, 76134",101894472,"R"
152598,"1337 STRATFORD AVE","BRONX","NY",10472,40.8323402660001,-73.87623695,98,"1337 STRATFORD AVE, BRONX, NY, 10472","Match","Exact","1337 STRATFORD AVE, BRONX, NY, 10472",80303068,"L"
152599,"1337 STUDER STREET","HOUSTON","TX",77007,29.77315279,-95.415444026,99,"1337 STUDER STREET, HOUSTON, TX, 77007","Match","Exact","1337 STUDER ST, HOUSTON, TX, 77007",96060267,"L"
152600,"1337 SUGAR MAPLE LANE","LEXINGTON","KY",40511,38.0837719890001,-84.480125233,100,"1337 SUGAR MAPLE LANE, LEXINGTON, KY, 40511","Match","Exact","1337 SUGAR MAPLE LN, LEXINGTON, KY, 40511",31937604,"L"
152601,"1337 SUTTER STREET","SAN FRANCISCO","CA",94109,37.7874565720001,-122.422438581,101,"1337 SUTTER STREET, SAN FRANCISCO, CA, 94109","Match","Exact","1337 SUTTER ST, SAN FRANCISCO, CA, 94109",192280165,"L"
152602,"1337 TORREYS PEAK DR","LONGMONT","CO",80504,40.182183067,-105.085031358,102,"1337 TORREYS PEAK DR, LONGMONT, CO, 80504","Match","Non_Exact","1337 TORREY'S PEAK DR, LONGMONT, CO, 80504",188156790,"L"
152603,"1337 TRAVOIS CIR","RESCUE","CA",95670,NA,NA,103,"1337 TRAVOIS CIR, RESCUE, CA, 95670","No_Match",NA,NA,NA,NA
152604,"1337 VERGNA CT","CARLSBAD","CA",92008,NA,NA,104,"1337 VERGNA CT, CARLSBAD, CA, 92008","No_Match",NA,NA,NA,NA
152605,"1337 W 12TH ST","ALMA","GA",31510,31.5434359560001,-82.493500308,105,"1337 W 12TH ST, ALMA, GA, 31510","Match","Exact","1337 W 12TH ST, ALMA, GA, 31510",4565412,"R"
152606,"1337 W 43RD STREET NO 170","HOUSTON","TX",77018,NA,NA,106,"1337 W 43RD STREET NO 170, HOUSTON, TX, 77018","No_Match",NA,NA,NA,NA
152607,"1337 W 94TH ST","LOS ANGELES","CA",90044,33.9509352920001,-118.299076698,107,"1337 W 94TH ST, LOS ANGELES, CA, 90044","Match","Exact","1337 W 94TH ST, LOS ANGELES, CA, 90044",142753354,"R"
152608,"1337 W FLETCHER ST UNIT 1F","CHICAGO","IL",60657,41.9388777780001,-87.6620012069999,108,"1337 W FLETCHER ST UNIT 1F, CHICAGO, IL, 60657","Match","Non_Exact","1337 W FLETCHER ST, CHICAGO, IL, 60657",605239284,"L"
152609,"1337 W FLOURNOY ST APT 1D","CHICAGO","IL",60607,41.873176426,-87.660463932,109,"1337 W FLOURNOY ST APT 1D, CHICAGO, IL, 60607","Match","Non_Exact","1337 W FLOURNOY ST, CHICAGO, IL, 60607",605105594,"L"
152610,"1337 W TURNER STREET","ALLENTOWN","PA",18102,NA,NA,110,"1337 W TURNER STREET, ALLENTOWN, PA, 18102","Tie",NA,NA,NA,NA
152611,"1337 WEATHERVANE LANE APT 2A","AKRON","OH",44313,41.137225105,-81.552975374,111,"1337 WEATHERVANE LANE APT 2A, AKRON, OH, 44313","Match","Exact","1337 WEATHERVANE LN, AKRON, OH, 44313",640189303,"R"
152612,"1337 WEST 54TH STREET","CLEVELAND","OH",44102,41.4874603980001,-81.723967656,112,"1337 WEST 54TH STREET, CLEVELAND, OH, 44102","Match","Exact","1337 W 54TH ST, CLEVELAND, OH, 44102",61101468,"L"
152613,"1337 WEST NORTH AVENUE","PITTSBURGH","PA",15233,40.4523787470001,-80.0247599209999,113,"1337 WEST NORTH AVENUE, PITTSBURGH, PA, 15233","Match","Exact","1337 W NORTH AVE, PITTSBURGH, PA, 15233",51625986,"L"
152614,"1337 WILLIAM WAY","CONCORD","CA",94520,37.961799124,-122.045303494,114,"1337 WILLIAM WAY, CONCORD, CA, 94520","Match","Exact","1337 WILLIAM WAY, CONCORD, CA, 94520",192089252,"L"
152615,"1337 WINDAGE CT SW","MARIETTA","GA",30008,33.8874769180001,-84.5906530459999,115,"1337 WINDAGE CT SW, MARIETTA, GA, 30008","Match","Exact","1337 WINDAGE CT SW, MARIETTA, GA, 30008",17216332,"R"
152616,"1337 WOLF STREET 2ND FLOOR","PHILADELPHIA","PA",19148,39.9217815820001,-75.1692942989999,116,"1337 WOLF STREET 2ND FLOOR, PHILADELPHIA, PA, 19148","Match","Exact","1337 WOLF ST, PHILADELPHIA, PA, 19148",131412205,"R"
152617,"1337 WYATT EARP ST","EL PASO","TX",79936,31.7235933630001,-106.281247052,117,"1337 WYATT EARP ST, EL PASO, TX, 79936","Match","Exact","1337 WYATT EARP ST, EL PASO, TX, 79936",189404730,"L"
152618,"1337","TALLAHASSEE","FL",32305,NA,NA,118,"1337, TALLAHASSEE, FL, 32305","No_Match",NA,NA,NA,NA
152619,"13370 BROADSTONE","APEX","NC",27502,35.7122261480001,-78.843683791,119,"13370 BROADSTONE, APEX, NC, 27502","Match","Non_Exact","13370 BROADSTONE WAY, APEX, NC, 27502",650639447,"L"
152620,"13370 GREEN VIEW AVENUE","BATON ROUGE","LA",70816,30.441609656,-91.031331291,120,"13370 GREEN VIEW AVENUE, BATON ROUGE, LA, 70816","Match","Non_Exact","13370 GREENVIEW AVE, BATON ROUGE, LA, 70816",92194410,"L"
152621,"13370 N 74TH LANE","PEORIA","AZ",85381,33.6065528350001,-112.219386021,121,"13370 N 74TH LANE, PEORIA, AZ, 85381","Match","Exact","13370 N 74TH LN, PEORIA, AZ, 85381",128391367,"L"
152622,"13370 ROSEMARY","DETROIT","MI",48213,42.4141008890001,-82.976665322,122,"13370 ROSEMARY, DETROIT, MI, 48213","Match","Non_Exact","13370 ROSEMARY AVE, DETROIT, MI, 48213",95468595,"R"
152623,"13370 STATE ROUTE 136","WINCHESTER","OH",45697,NA,NA,123,"13370 STATE ROUTE 136, WINCHESTER, OH, 45697","No_Match",NA,NA,NA,NA
152624,"13370 SUNBURST CT","NEW BERLIN","WI",53151,42.964586712,-88.081890433,124,"13370 SUNBURST CT, NEW BERLIN, WI, 53151","Match","Non_Exact","13370 W SUNBURST CT, NEW BERLIN, WI, 53151",53846114,"R"
152625,"13370 SW 89 TER UNIT G","MIAMI","FL",33186,NA,NA,125,"13370 SW 89 TER UNIT G, MIAMI, FL, 33186","No_Match",NA,NA,NA,NA
152626,"13370 TRAIL CREEK PASS","COOPERSVILLE","MI",49404,43.0112600210001,-85.9997387889999,126,"13370 TRAIL CREEK PASS, COOPERSVILLE, MI, 49404","Match","Exact","13370 TRAIL CREEK PASS, COOPERSVILLE, MI, 49404",627862546,"R"
152627,"13370 W FOXFIRE DR STE 204B","SURPRISE","AZ",85378,33.6429306430001,-112.350704747,127,"13370 W FOXFIRE DR STE 204B, SURPRISE, AZ, 85378","Match","Non_Exact","13370 W FOXFIRE DR, SURPRISE, AZ, 85378",243993537,"L"
152628,"13370 WEST 72ND CIRCLE","ARVADA","CO",80005,39.8276385200001,-105.148699931,128,"13370 WEST 72ND CIRCLE, ARVADA, CO, 80005","Match","Exact","13370 W 72ND CIR, ARVADA, CO, 80005",645527840,"L"
152629,"13370 WINDSONG WAY","CARROLLTON","VA",23314,36.952875292,-76.5400842879999,129,"13370 WINDSONG WAY, CARROLLTON, VA, 23314","Match","Exact","13370 WINDSONG WAY, CARROLLTON, VA, 23314",614120886,"L"
152630,"13371 ATWATER LANE","LAKE OSWEGO","OR",97034,45.4289758210001,-122.688737127,130,"13371 ATWATER LANE, LAKE OSWEGO, OR, 97034","Match","Exact","13371 ATWATER LN, LAKE OSWEGO, OR, 97034",157926993,"L"
152631,"13371 FARM TO MARKET 1960 RD W","HOUSTON","TX",77065,NA,NA,131,"13371 FARM TO MARKET 1960 RD W, HOUSTON, TX, 77065","No_Match",NA,NA,NA,NA
152632,"13371 HIDDEN OAKS DRIVE","NOVELTY","OH",44072,41.5025201350001,-81.295414331,132,"13371 HIDDEN OAKS DRIVE, NOVELTY, OH, 44072","Match","Exact","13371 HIDDEN OAKS DR, NOVELTY, OH, 44072",137434908,"L"
152633,"13371 HWY 126","OLLA","LA",71465,NA,NA,133,"13371 HWY 126, OLLA, LA, 71465","No_Match",NA,NA,NA,NA
152634,"13371 HWY 6","IREDELL","TX",76649,NA,NA,134,"13371 HWY 6, IREDELL, TX, 76649","No_Match",NA,NA,NA,NA
152635,"13371 LEE DR","WESTMINSTER","CA",92683,33.7680735000001,-118.02993758,135,"13371 LEE DR, WESTMINSTER, CA, 92683","Match","Exact","13371 LEE DR, WESTMINSTER, CA, 92683",144003520,"R"
152636,"13371 PINE STREET","LARGO","FL",33774,27.894577113,-82.8159667629999,136,"13371 PINE STREET, LARGO, FL, 33774","Match","Exact","13371 PINE ST, LARGO, FL, 33774",124673198,"R"
152637,"13371 QUITO RD","SARATOGA","CA",95070,37.2740453500001,-121.99413179,137,"13371 QUITO RD, SARATOGA, CA, 95070","Match","Exact","13371 QUITO RD, SARATOGA, CA, 95070",615536994,"R"
152638,"13371 TEABERRY CT","FAIRFAX","VA",22033,38.901059162,-77.407405105,138,"13371 TEABERRY CT, FAIRFAX, VA, 22033","Match","Exact","13371 TEABERRY CT, FAIRFAX, VA, 22033",76010386,"R"
152639,"13372 CORLISS AVE","CHICAGO","IL",60872,NA,NA,139,"13372 CORLISS AVE, CHICAGO, IL, 60872","No_Match",NA,NA,NA,NA
152640,"13372 E STATE HWY 22","CRANFILLS GAP","TX",76637,NA,NA,140,"13372 E STATE HWY 22, CRANFILLS GAP, TX, 76637","No_Match",NA,NA,NA,NA
152641,"13372 LYNDHURST DR","FRISCO","TX",75035,33.1460763950001,-96.761731782,141,"13372 LYNDHURST DR, FRISCO, TX, 75035","Match","Exact","13372 LYNDHURST DR, FRISCO, TX, 75035",615039429,"L"
152642,"13372 MOUNT EATON RD","DOYLESTOWN","OH",44230,40.963291746,-81.7383148439999,142,"13372 MOUNT EATON RD, DOYLESTOWN, OH, 44230","Match","Exact","13372 MOUNT EATON RD, DOYLESTOWN, OH, 44230",633563332,"R"
152643,"13372 S CORLISS AVE","CHICAGO","IL",60827,41.653414813,-87.602025851,143,"13372 S CORLISS AVE, CHICAGO, IL, 60827","Match","Exact","13372 S CORLISS AVE, CHICAGO, IL, 60827",111779017,"R"
152644,"13372 S CORLISS","CHICAGO","IL",60827,41.653414813,-87.602025851,144,"13372 S CORLISS, CHICAGO, IL, 60827","Match","Non_Exact","13372 S CORLISS AVE, CHICAGO, IL, 60827",111779017,"R"
152645,"13372 TIBURON WAY","TUSTIN","CA",92782,33.7344387700001,-117.799760049,145,"13372 TIBURON WAY, TUSTIN, CA, 92782","Match","Exact","13372 TIBURON WAY, TUSTIN, CA, 92782",144418878,"R"
152646,"13372 W 24TH PL","GOLDEN","CO",80401,39.75374492,-105.152888939,146,"13372 W 24TH PL, GOLDEN, CO, 80401","Match","Exact","13372 W 24TH PL, GOLDEN, CO, 80401",177285671,"L"
152647,"13372 WENDOVER TERRACE","SAN DIEGO","CA",92130,32.96078477,-117.210258009,147,"13372 WENDOVER TERRACE, SAN DIEGO, CA, 92130","Match","Exact","13372 WENDOVER TER, SAN DIEGO, CA, 92130",612897046,"L"
152648,"13373 OLIVE GROVE DRIVE","POWAY","CA",92064,32.964301182,-117.040928365,148,"13373 OLIVE GROVE DRIVE, POWAY, CA, 92064","Match","Exact","13373 OLIVE GROVE DR, POWAY, CA, 92064",195323922,"R"
152649,"13373 PERRIS BLVD UNIT B115","MORENO VALLE","CA",92553,33.9264069640001,-117.226281736,149,"13373 PERRIS BLVD UNIT B115, MORENO VALLE, CA, 92553","Match","Non_Exact","13373 PERRIS BLVD, MORENO VALLEY, CA, 92553",194749607,"R"
152650,"13373 SCOTSMORE WAY","HERNDON","VA",20171,38.9163976580001,-77.41130494,150,"13373 SCOTSMORE WAY, HERNDON, VA, 20171","Match","Exact","13373 SCOTSMORE WAY, HERNDON, VA, 20171",215921353,"L"
152651,"13373 W CHETLAIN LANE","GALENA","IL",61036,42.4329638630001,-90.495717452,151,"13373 W CHETLAIN LANE, GALENA, IL, 61036","Match","Exact","13373 W CHETLAIN LN, GALENA, IL, 61036",652585314,"L"
152652,"13374 BOOT JACK RD","RIDGWAY","PA",15853,41.362334156,-78.702400769,152,"13374 BOOT JACK RD, RIDGWAY, PA, 15853","Match","Exact","13374 BOOT JACK RD, RIDGWAY, PA, 15853",157859707,"R"
152653,"13374 N CR 23A","MACCLENNY","FL",32063,30.3192920750001,-82.137691826,153,"13374 N CR 23A, MACCLENNY, FL, 32063","Match","Exact","13374 N CO RD 23A, MACCLENNY, FL, 32063",646029368,"L"
152654,"13374 SW 46 TERRACE","MIAMI","FL",33175,25.7227344880001,-80.411340803,154,"13374 SW 46 TERRACE, MIAMI, FL, 33175","Match","Exact","13374 SW 46TH TER, MIAMI, FL, 33175",115964150,"L"
152655,"13375 260TH ST","BLANCHARD","OK",73010,35.087853619,-97.610430354,155,"13375 260TH ST, BLANCHARD, OK, 73010","Match","Exact","13375 260TH ST, BLANCHARD, OK, 73010",58378085,"L"
152656,"13375 CARDINAL RIDGE RD UNIT J","CHINO HILLS","CA",91709,34.0100029970001,-117.74477298,156,"13375 CARDINAL RIDGE RD UNIT J, CHINO HILLS, CA, 91709","Match","Exact","13375 CARDINAL RIDGE RD, CHINO HILLS, CA, 91709",144973868,"L"
152657,"13375 CLOVERLAWN DR","STERLING HEIGHTS","MI",48312,42.5765844100001,-82.992854764,157,"13375 CLOVERLAWN DR, STERLING HEIGHTS, MI, 48312","Match","Exact","13375 CLOVERLAWN DR, STERLING HEIGHTS, MI, 48312",110673506,"L"
152658,"13375 HARPER PLACE","FONTANA","CA",92336,34.1128817000001,-117.51347666,158,"13375 HARPER PLACE, FONTANA, CA, 92336","Match","Exact","13375 HARPER PL, FONTANA, CA, 92336",145000882,"R"
152659,"13375 HIGHWAY 84","ELBA","AL",36323,31.400888611,-86.0036341919999,159,"13375 HIGHWAY 84, ELBA, AL, 36323","Match","Non_Exact","13375 US HWY 84, ELBA, AL, 36323",99544029,"R"
152660,"13375 ISLETON AVENUE NORTH","HUGO","MN",55038,NA,NA,160,"13375 ISLETON AVENUE NORTH, HUGO, MN, 55038","No_Match",NA,NA,NA,NA
152661,"13375 KIMBERLY CIRCLE","OLATHE","KS",66061,38.8862453420001,-94.88801424,161,"13375 KIMBERLY CIRCLE, OLATHE, KS, 66061","Match","Exact","13375 KIMBERLY CIR, OLATHE, KS, 66061",91333781,"L"
152662,"13375 TIMBER PARK LANE","PLATTE CITY","MO",64079,39.335595546,-94.764970104,162,"13375 TIMBER PARK LANE, PLATTE CITY, MO, 64079","Match","Exact","13375 TIMBER PARK LN, PLATTE CITY, MO, 64079",39708126,"L"
152663,"13376 5TH AVE S","ZIMMERMAN","MN",55398,45.4387662880001,-93.607759731,163,"13376 5TH AVE S, ZIMMERMAN, MN, 55398","Match","Exact","13376 5TH AVE S, ZIMMERMAN, MN, 55398",97767308,"L"
152664,"13376 BUTTE FALLS HIGHWAY","EAGLE POINT","OR",97524,42.567795206,-122.621101403,164,"13376 BUTTE FALLS HIGHWAY, EAGLE POINT, OR, 97524","Match","Exact","13376 BUTTE FALLS HWY, EAGLE POINT, OR, 97524",649915131,"L"
152665,"13376 CHIP RIDGE ROAD","ABINGDON","VA",24210,36.75506331,-81.967348924,165,"13376 CHIP RIDGE ROAD, ABINGDON, VA, 24210","Match","Exact","13376 CHIP RIDGE RD, ABINGDON, VA, 24210",230638682,"L"
152666,"13376 NE 134 PL","KIRKLAND","WA",98034,47.720705057,-122.160264618,166,"13376 NE 134 PL, KIRKLAND, WA, 98034","Match","Exact","13376 NE 134TH PL, KIRKLAND, WA, 98034",650026540,"R"
152667,"13377 BRUNSWICK AVE SOUTH","SAVAGE","MN",55378,44.7603507210001,-93.357704693,167,"13377 BRUNSWICK AVE SOUTH, SAVAGE, MN, 55378","Match","Exact","13377 BRUNSWICK AVE S, SAVAGE, MN, 55378",645461019,"R"
152668,"13377 DELAVERN","GILBRALTAR","MI",48173,42.0858117880001,-83.189201136,168,"13377 DELAVERN, GILBRALTAR, MI, 48173","Match","Non_Exact","13377 DELAVERN ST, GIBRALTAR, MI, 48173",95460371,"L"
152669,"13377 MARLOWE","DETROIT","MI",48227,42.384988832,-83.189383546,169,"13377 MARLOWE, DETROIT, MI, 48227","Match","Non_Exact","13377 MARLOWE ST, DETROIT, MI, 48227",95441502,"L"
152670,"13377 NOEL LANE","GRASS VALLEY","CA",95945,39.195440983,-121.013247824,170,"13377 NOEL LANE, GRASS VALLEY, CA, 95945","Match","Exact","13377 NOEL LN, GRASS VALLEY, CA, 95945",106534486,"R"
152671,"13377 NORTH STATE ROAD 9","ALEXANDRIA","IN",46001,40.297373791,-85.671660806,171,"13377 NORTH STATE ROAD 9, ALEXANDRIA, IN, 46001","Match","Non_Exact","13377 STATE RD 9, ALEXANDRIA, IN, 46001",625323140,"L"
152672,"13378 ALKALI RD","STURGIS","SD",57785,44.423856189,-103.385601083,172,"13378 ALKALI RD, STURGIS, SD, 57785","Match","Exact","13378 ALKALI RD, STURGIS, SD, 57785",200908339,"L"
152673,"13378 CLOVER ST","TRONA","CA",93562,35.7643551690001,-117.373020186,173,"13378 CLOVER ST, TRONA, CA, 93562","Match","Exact","13378 CLOVER ST, TRONA, CA, 93562",144741905,"L"
152674,"13378 GLACIER NATIONAL DR APT 1502","ORLANDO","FL",32837,28.369384661,-81.422464632,174,"13378 GLACIER NATIONAL DR APT 1502, ORLANDO, FL, 32837","Match","Exact","13378 GLACIER NATIONAL DR, ORLANDO, FL, 32837",606133659,"R"
152675,"13378 OWEN STREET APT A","FONTANA","CA",92335,34.101901637,-117.512623601,175,"13378 OWEN STREET APT A, FONTANA, CA, 92335","Match","Exact","13378 OWEN ST, FONTANA, CA, 92335",144688072,"L"
152676,"13378 RUSHING WATER WAY","GERMANTOWN","MD",20874,39.159620213,-77.2736399249999,176,"13378 RUSHING WATER WAY, GERMANTOWN, MD, 20874","Match","Exact","13378 RUSHING WATER WAY, GERMANTOWN, MD, 20874",62104230,"R"
152677,"13378 SORREL COURT","GRANGER","IN",46530,41.756043542,-86.1271720839999,177,"13378 SORREL COURT, GRANGER, IN, 46530","Match","Exact","13378 SORREL CT, GRANGER, IN, 46530",8071071,"L"
152678,"13378 SW 144 TERRACE","MIAMI","FL",33186,25.6332372160001,-80.406997179,178,"13378 SW 144 TERRACE, MIAMI, FL, 33186","Match","Exact","13378 SW 144TH TER, MIAMI, FL, 33186",647866353,"R"
152679,"13379 BARBADOS WAY","DEL MAR","CA",92014,32.942589748,-117.244526694,179,"13379 BARBADOS WAY, DEL MAR, CA, 92014","Match","Exact","13379 BARBADOS WAY, DEL MAR, CA, 92014",195300079,"R"
152680,"13379 BAYLOR DR","VICTORVILLE","CA",92392,34.493942501,-117.376986632,180,"13379 BAYLOR DR, VICTORVILLE, CA, 92392","Match","Exact","13379 BAYLOR DR, VICTORVILLE, CA, 92392",614829086,"R"
152681,"13379 BELSAY RD","MILLINGTON","MI",48767,43.2284494140001,-83.6013445299999,181,"13379 BELSAY RD, MILLINGTON, MI, 48767","Match","Non_Exact","13379 BELSAY RD, MILLINGTON, MI, 48746",81250091,"R"
152682,"13379 FERRY LANDING LANE","WOODBRIDGE","VA",22191,38.663029769,-77.2428464339999,182,"13379 FERRY LANDING LANE, WOODBRIDGE, VA, 22191","Match","Exact","13379 FERRY LANDING LN, WOODBRIDGE, VA, 22191",76525905,"L"
152683,"13379 SOUTHEAST WOODLAND CIRCLE","HAPPY VALLEY","OR",97086,45.4317401760001,-122.527013109,183,"13379 SOUTHEAST WOODLAND CIRCLE, HAPPY VALLEY, OR, 97086","Match","Exact","13379 SE WOODLAND CIR, HAPPY VALLEY, OR, 97086",157949770,"L"
152684,"1337ELGIN","FOREST PARK","IL",60130,NA,NA,184,"1337ELGIN, FOREST PARK, IL, 60130","No_Match",NA,NA,NA,NA
152685,"1338 11TH ST","DES MOINES","IA",50314,41.603122141,-93.631794113,185,"1338 11TH ST, DES MOINES, IA, 50314","Match","Exact","1338 11TH ST, DES MOINES, IA, 50314",65782227,"L"
152686,"1338 11TH STREET","DES MOINES","IA",50314,41.603122141,-93.631794113,186,"1338 11TH STREET, DES MOINES, IA, 50314","Match","Exact","1338 11TH ST, DES MOINES, IA, 50314",65782227,"L"
152687,"1338 18TH ST","DES MOINES","IA",50314,41.6033217350001,-93.641433294,187,"1338 18TH ST, DES MOINES, IA, 50314","Match","Exact","1338 18TH ST, DES MOINES, IA, 50314",65781952,"L"
152688,"1338 36TH STREET SW","ROCHESTER","MN",55902,43.9704439650001,-92.4819617919999,188,"1338 36TH STREET SW, ROCHESTER, MN, 55902","Match","Exact","1338 36TH ST SW, ROCHESTER, MN, 55902",30562669,"L"
152689,"1338 3RD AVE NW LOT 33","FORT DODGE","IA",50501,42.515447914,-94.2173918679999,189,"1338 3RD AVE NW LOT 33, FORT DODGE, IA, 50501","Match","Exact","1338 3RD AVE NW, FORT DODGE, IA, 50501",66085549,"R"
152690,"1338 41ST ST","DES MOINES","IA",50311,41.6027787850001,-93.672935028,190,"1338 41ST ST, DES MOINES, IA, 50311","Match","Exact","1338 41ST ST, DES MOINES, IA, 50311",65779864,"L"
152691,"1338 ALEXANDER DR","BOILINGBROOK","GA",60490,NA,NA,191,"1338 ALEXANDER DR, BOILINGBROOK, GA, 60490","No_Match",NA,NA,NA,NA
152692,"1338 ALLERTON SE","GRAND RAPIDS","MI",49506,42.938964707,-85.632198411,192,"1338 ALLERTON SE, GRAND RAPIDS, MI, 49506","Match","Non_Exact","1338 ALLERTON AVE SE, GRAND RAPIDS, MI, 49506",12474008,"L"
152693,"1338 AVA LN","AMISSVILLE","VA",20106,38.682327683,-77.937483269,193,"1338 AVA LN, AMISSVILLE, VA, 20106","Match","Exact","1338 AVA LN, AMISSVILLE, VA, 20106",29841556,"R"
152694,"1338 BERLIN RD","HURON","OH",44839,41.373304589,-82.526512596,194,"1338 BERLIN RD, HURON, OH, 44839","Match","Exact","1338 BERLIN RD, HURON, OH, 44839",647375060,"R"
152695,"1338 BRANCH ST","TALLAHASSEE","FL",32303,30.4568375740001,-84.289218701,195,"1338 BRANCH ST, TALLAHASSEE, FL, 32303","Match","Exact","1338 BRANCH ST, TALLAHASSEE, FL, 32303",82881315,"L"
152696,"1338 BRAZOS BLVD","LEWISVILLE","TX",75077,33.0769013840001,-97.0312579759999,196,"1338 BRAZOS BLVD, LEWISVILLE, TX, 75077","Match","Exact","1338 BRAZOS BLVD, LEWISVILLE, TX, 75077",103347126,"R"
152697,"1338 BRIARHOLLOW LN","HIGHLANDS RANCH","CO",80129,39.532583307,-105.003560982,197,"1338 BRIARHOLLOW LN, HIGHLANDS RANCH, CO, 80129","Match","Non_Exact","1338 W BRIARHOLLOW LN, HIGHLANDS RANCH, CO, 80129",130816695,"R"
152698,"1338 CARDINAL AV","NASHVILLE","TN",37216,36.2183598510001,-86.71385107,198,"1338 CARDINAL AV, NASHVILLE, TN, 37216","Match","Exact","1338 CARDINAL AVE, NASHVILLE, TN, 37216",97228235,"R"
152699,"1338 CEDAR CREEK PKWY","GRAFTON","WI",53204,43.324406631,-87.982087926,199,"1338 CEDAR CREEK PKWY, GRAFTON, WI, 53204","Match","Non_Exact","1338 CEDAR CREEK PKWY, GRAFTON, WI, 53024",95899690,"R"
152700,"1338 CHABLIS CT N","ORANGE PARK","FL",32073,30.1630154430001,-81.721816577,200,"1338 CHABLIS CT N, ORANGE PARK, FL, 32073","Match","Exact","1338 CHABLIS CT N, ORANGE PARK, FL, 32073",83814531,"L"
152701,"1338 CHAMBERS ROAD","SAINT LOUIS","MO",63135,38.7494416640001,-90.284107464,201,"1338 CHAMBERS ROAD, SAINT LOUIS, MO, 63135","Match","Exact","1338 CHAMBERS RD, SAINT LOUIS, MO, 63135",100146898,"R"
152702,"1338 CHAPEL CENTRE DRIVE","GAMBRILLS","MD",21054,39.0355366800001,-76.684050296,202,"1338 CHAPEL CENTRE DRIVE, GAMBRILLS, MD, 21054","Match","Exact","1338 CHAPEL CENTRE DR, GAMBRILLS, MD, 21054",648206627,"R"
152703,"1338 CHESTNUT STREET","WESTERN SPRINGS","IL",60558,41.8122650990001,-87.907190054,203,"1338 CHESTNUT STREET, WESTERN SPRINGS, IL, 60558","Match","Exact","1338 CHESTNUT ST, WESTERN SPRINGS, IL, 60558",111789031,"R"
152704,"1338 CLARK  STREET","DES MOINES","IA",50314,41.605873118,-93.635192121,204,"1338 CLARK  STREET, DES MOINES, IA, 50314","Match","Exact","1338 CLARK ST, DES MOINES, IA, 50314",65782029,"L"
152705,"1338 CRESTWOOD RD","TOLEDO","OH",43612,41.7031218390001,-83.574340734,205,"1338 CRESTWOOD RD, TOLEDO, OH, 43612","Match","Exact","1338 CRESTWOOD RD, TOLEDO, OH, 43612",33933808,"R"
152706,"1338 DRIFTWOOD POINT RD","SANTA ROSA BEACH","FL",32459,30.4174036380001,-86.308831458,206,"1338 DRIFTWOOD POINT RD, SANTA ROSA BEACH, FL, 32459","Match","Exact","1338 DRIFTWOOD POINT RD, SANTA ROSA BEACH, FL, 32459",635163232,"R"
152707,"1338 E BROWNING AVE","SALT LAKE CITY","UT",84105,40.7390004900001,-111.852656285,207,"1338 E BROWNING AVE, SALT LAKE CITY, UT, 84105","Match","Exact","1338 BROWNING AVE, SALT LAKE CITY, UT, 84105",176080757,"R"
152708,"1338 E HUBBELL ST","PHOENIX","AZ",85006,33.4703268230001,-112.053297987,208,"1338 E HUBBELL ST, PHOENIX, AZ, 85006","Match","Exact","1338 E HUBBELL ST, PHOENIX, AZ, 85006",128213339,"L"
152709,"1338 E SUNBURST LN","TEMPE","AZ",85284,33.348596598,-111.918140093,209,"1338 E SUNBURST LN, TEMPE, AZ, 85284","Match","Exact","1338 E SUNBURST LN, TEMPE, AZ, 85284",128270418,"L"
152710,"1338 EAGLE COVE ROAD NORTH","JACKSONVILLE","FL",32218,30.4476084520001,-81.66889607,210,"1338 EAGLE COVE ROAD NORTH, JACKSONVILLE, FL, 32218","Match","Exact","1338 EAGLE COVE RD N, JACKSONVILLE, FL, 32218",83890439,"R"
152711,"1338 EAST 56TH STREET","BROOKLYN","NY",11234,40.6230280620001,-73.921503082,211,"1338 EAST 56TH STREET, BROOKLYN, NY, 11234","Match","Exact","1338 E 56TH ST, BROOKLYN, NY, 11234",59092396,"R"
152712,"1338 EAST 69TH STREET","BROOKLYN","NY",11234,40.6230118710001,-73.913442652,212,"1338 EAST 69TH STREET, BROOKLYN, NY, 11234","Match","Exact","1338 E 69TH ST, BROOKLYN, NY, 11234",59103439,"R"
152713,"1338 EAST 7TH","PELLA","AA",50219,NA,NA,213,"1338 EAST 7TH, PELLA, AA, 50219","No_Match",NA,NA,NA,NA
152714,"1338 EAST 7TH","PELLA","IA",50219,41.41624375,-92.905349063,214,"1338 EAST 7TH, PELLA, IA, 50219","Match","Non_Exact","1338 E 7TH ST, PELLA, IA, 50219",89487031,"R"
152715,"1338 EAST SHARPNACK STREET","PHILADELPHIA","PA",19150,40.0701908820001,-75.164544996,215,"1338 EAST SHARPNACK STREET, PHILADELPHIA, PA, 19150","Match","Exact","1338 E SHARPNACK ST, PHILADELPHIA, PA, 19150",131395079,"R"
152716,"1338 ELIZA STREET","FORT WAYNE","IN",46803,41.073116892,-85.1202957949999,216,"1338 ELIZA STREET, FORT WAYNE, IN, 46803","Match","Exact","1338 ELIZA ST, FORT WAYNE, IN, 46803",6380521,"R"
152717,"1338 EVANS ROAD","LANGSTON","AL",35755,34.548801881,-86.103590406,217,"1338 EVANS ROAD, LANGSTON, AL, 35755","Match","Exact","1338 EVANS RD, LANGSTON, AL, 35755",58039388,"L"
152718,"1338 F STREET","ANCHORAGE","AK",99501,61.209286133,-149.893495725,218,"1338 F STREET, ANCHORAGE, AK, 99501","Match","Exact","1338 F ST, ANCHORAGE, AK, 99501",190796764,"R"
152719,"1338 FOX HOLLOW STREET","SAN ANGELO","TX",76905,31.4873261320001,-100.395222864,219,"1338 FOX HOLLOW STREET, SAN ANGELO, TX, 76905","Match","Exact","1338 FOX HOLLOW ST, SAN ANGELO, TX, 76905",190684193,"R"
152720,"1338 GAMBEL DR NW","CONCORD","NC",28027,35.4310619880001,-80.733909479,220,"1338 GAMBEL DR NW, CONCORD, NC, 28027","Match","Exact","1338 GAMBEL DR NW, CONCORD, NC, 28027",632076184,"R"
152721,"1338 GAULT STREET","COLUMBUS","OH",43205,39.950690653,-82.9623257169999,221,"1338 GAULT STREET, COLUMBUS, OH, 43205","Match","Exact","1338 GAULT ST, COLUMBUS, OH, 43205",135620398,"L"
152722,"1338 GAUSE BLVD SUITE 201","SLIDELL","LA",70458,30.284795935,-89.7629144809999,222,"1338 GAUSE BLVD SUITE 201, SLIDELL, LA, 70458","Match","Exact","1338 GAUSE BLVD, SLIDELL, LA, 70458",640229564,"L"
152723,"1338 GREEN VALLEY ROAD","LEBANON","VA",24266,36.8665980000001,-82.092524618,223,"1338 GREEN VALLEY ROAD, LEBANON, VA, 24266","Match","Exact","1338 GREEN VALLEY RD, LEBANON, VA, 24266",649864704,"R"
152724,"1338 HANSON ST","REYONOLDSBURG","OH",43068,39.959176821,-82.779224942,224,"1338 HANSON ST, REYONOLDSBURG, OH, 43068","Match","Non_Exact","1338 HANSON ST, REYNOLDSBURG, OH, 43068",61509880,"R"
152725,"1338 HATCHER LOOP DRIVE","BRANDON","FL",33511,27.912662675,-82.305665812,225,"1338 HATCHER LOOP DRIVE, BRANDON, FL, 33511","Match","Exact","1338 HATCHER LOOP DR, BRANDON, FL, 33511",104594611,"R"
152726,"1338 HAYWORTH ST","DUNCANVILLE","TX",75137,NA,NA,226,"1338 HAYWORTH ST, DUNCANVILLE, TX, 75137","No_Match",NA,NA,NA,NA
152727,"1338 HIDEAWAY WOODS DR","WESTERVILLE","OH",43081,40.0914801770001,-82.9054927079999,227,"1338 HIDEAWAY WOODS DR, WESTERVILLE, OH, 43081","Match","Exact","1338 HIDEAWAY WOODS DR, WESTERVILLE, OH, 43081",218698853,"L"
152728,"1338 INVERNESS PKWY","TUSCALOOSA","AL",35405,33.128606796,-87.554755901,228,"1338 INVERNESS PKWY, TUSCALOOSA, AL, 35405","Match","Exact","1338 INVERNESS PKWY, TUSCALOOSA, AL, 35405",82194777,"R"
152729,"1338 IRVING STREET APT A","WASHINGTON","DC",20010,38.928632163,-77.030916767,229,"1338 IRVING STREET APT A, WASHINGTON, DC, 20010","Match","Non_Exact","1338 IRVING ST NW, WASHINGTON, DC, 20010",76223016,"L"
152730,"1338 JEFFERSON AVE","EAST POINT","GA",30344,33.684985759,-84.432721438,230,"1338 JEFFERSON AVE, EAST POINT, GA, 30344","Match","Exact","1338 JEFFERSON AVE, EAST POINT, GA, 30344",17348147,"L"
152731,"1338 JEFFERSON WAY","FOREST","VA",24551,NA,NA,231,"1338 JEFFERSON WAY, FOREST, VA, 24551","No_Match",NA,NA,NA,NA
152732,"1338 JO HARRY DRIVE","FAIRMONT","WV",26554,39.4686891370001,-80.1603688769999,232,"1338 JO HARRY DRIVE, FAIRMONT, WV, 26554","Match","Exact","1338 JO HARRY DR, FAIRMONT, WV, 26554",51431674,"L"
152733,"1338 KANE COURT","ROSENBERG","TX",77471,29.5275460980001,-95.824026696,233,"1338 KANE COURT, ROSENBERG, TX, 77471","Match","Exact","1338 KANE CT, ROSENBERG, TX, 77471",641162963,"L"
152734,"1338 KEENSBURG CT","INDIANAPOLIS","IN",46228,39.8616568750001,-86.18340729,234,"1338 KEENSBURG CT, INDIANAPOLIS, IN, 46228","Match","Exact","1338 KEENSBURG CT, INDIANAPOLIS, IN, 46228",108043717,"L"
152735,"1338 KELLER LANE","SEGUIN","TX",78155,29.582697212,-97.9381165409999,235,"1338 KELLER LANE, SEGUIN, TX, 78155","Match","Exact","1338 KELLER LN, SEGUIN, TX, 78155",640616095,"L"
152736,"1338 LA FLOR DRIVE","ROCKLEDGE","FL",32955,NA,NA,236,"1338 LA FLOR DRIVE, ROCKLEDGE, FL, 32955","No_Match",NA,NA,NA,NA
152737,"1338 LEWISTON RD","BASOM","NV",14103,NA,NA,237,"1338 LEWISTON RD, BASOM, NV, 14103","No_Match",NA,NA,NA,NA
152738,"1338 LIVSEY PLACE","WATERTOWN","WI",53094,43.186507696,-88.709503215,238,"1338 LIVSEY PLACE, WATERTOWN, WI, 53094","Match","Exact","1338 LIVSEY PL, WATERTOWN, WI, 53094",642923533,"R"
152739,"1338 MAIN STREET","TELL CITY","IN",47586,37.960459616,-86.769739683,239,"1338 MAIN STREET, TELL CITY, IN, 47586","Match","Exact","1338 MAIN ST, TELL CITY, IN, 47586",7682385,"R"
152740,"1338 MALLORY CT","NORFOLK","VA",23507,36.8691556950001,-76.30912418,240,"1338 MALLORY CT, NORFOLK, VA, 23507","Match","Exact","1338 MALLORY CT, NORFOLK, VA, 23507",122122534,"R"
152741,"1338 MAYNARD DR APT 474","ST PAUL","MN",55116,44.8998014370001,-93.168189083,241,"1338 MAYNARD DR APT 474, ST PAUL, MN, 55116","Match","Exact","1338 MAYNARD DR, SAINT PAUL, MN, 55116",97647406,"L"
152742,"1338 MCKEWEN DR","NACOGDOCHES","TX",75965,31.6359810590001,-94.6319403479999,242,"1338 MCKEWEN DR, NACOGDOCHES, TX, 75965","Match","Exact","1338 MCKEWEN DR, NACOGDOCHES, TX, 75965",72433144,"L"
152743,"1338 MILLDALE CT","HENDERSON","NV",89002,36.0008988720001,-114.933131454,243,"1338 MILLDALE CT, HENDERSON, NV, 89002","Match","Exact","1338 MILLDALE CT, HENDERSON, NV, 89002",201928181,"L"
152744,"1338 MILLER LANE","LAWRENCEBURG","TN",38464,35.259547415,-87.245892913,244,"1338 MILLER LANE, LAWRENCEBURG, TN, 38464","Match","Exact","1338 MILLER LN, LAWRENCEBURG, TN, 38464",26834759,"R"
152745,"1338 MINNOW DRIVE","MURRAY","KY",42071,36.7001317460001,-88.0997051259999,245,"1338 MINNOW DRIVE, MURRAY, KY, 42071","Match","Non_Exact","1338 MINNOW RD, MURRAY, KY, 42071",625123133,"R"
152746,"1338 MONUMENT ST","CODY","WY",82414,44.522860329,-109.076672399,246,"1338 MONUMENT ST, CODY, WY, 82414","Match","Exact","1338 MONUMENT ST, CODY, WY, 82414",612523074,"R"
152747,"1338 MOON FLOWER AVE","TIFFIN","IA",52301,41.704567309,-91.6793863199999,247,"1338 MOON FLOWER AVE, TIFFIN, IA, 52301","Match","Non_Exact","1338 MOON FLOWER AVE, TIFFIN, IA, 52340",651111718,"R"
152748,"1338 MOON FLOWER AVE","TIFFIN","IA",52340,41.704567309,-91.6793863199999,248,"1338 MOON FLOWER AVE, TIFFIN, IA, 52340","Match","Exact","1338 MOON FLOWER AVE, TIFFIN, IA, 52340",651111718,"R"
152749,"1338 MOXAHALA AVENUE","ZANESVILLE","OH",43701,39.9185986520001,-82.005217522,249,"1338 MOXAHALA AVENUE, ZANESVILLE, OH, 43701","Match","Exact","1338 MOXAHALA AVE, ZANESVILLE, OH, 43701",45595230,"R"
152750,"1338 MYRTLE AVENUE","LONG BEACH","CA",90813,33.7836398420001,-118.181746519,250,"1338 MYRTLE AVENUE, LONG BEACH, CA, 90813","Match","Non_Exact","1338 N MYRTLE AVE, LONG BEACH, CA, 90813",142691334,"R"
152751,"1338 N NC 11/903 HWY","KENANSVILLE","NC",28349,NA,NA,251,"1338 N NC 11/903 HWY, KENANSVILLE, NC, 28349","No_Match",NA,NA,NA,NA
152752,"1338 N VISTA APARTMENT 2","LOS ANGELES","CA",90046,NA,NA,252,"1338 N VISTA APARTMENT 2, LOS ANGELES, CA, 90046","No_Match",NA,NA,NA,NA
152753,"1338 NORTH CROSSING DRIVE","ATLANTA","GA",30329,33.8223746370001,-84.320593307,253,"1338 NORTH CROSSING DRIVE, ATLANTA, GA, 30329","Match","Exact","1338 N CROSSING DR, ATLANTA, GA, 30329",642366074,"R"
152754,"1338 NORTH OGDEN DRIVE","LOS ANGELES","CA",90046,34.095165867,-118.359250708,254,"1338 NORTH OGDEN DRIVE, LOS ANGELES, CA, 90046","Match","Exact","1338 N OGDEN DR, LOS ANGELES, CA, 90046",642861890,"R"
152755,"1338 NW 106TH TERRACE","PORTLAND","OR",97229,45.529035752,-122.785805751,255,"1338 NW 106TH TERRACE, PORTLAND, OR, 97229","Match","Exact","1338 NW 106TH TER, PORTLAND, OR, 97229",649032838,"R"
152756,"1338 PACIFIC TERRACE","KLAMATH FALLS","OR",97601,42.240454668,-121.774781524,256,"1338 PACIFIC TERRACE, KLAMATH FALLS, OR, 97601","Match","Exact","1338 PACIFIC TER, KLAMATH FALLS, OR, 97601",156656982,"L"
152757,"1338 PARIS LANE","LORIS","SC",29569,34.052543605,-78.8110245079999,257,"1338 PARIS LANE, LORIS, SC, 29569","Match","Exact","1338 PARIS LN, LORIS, SC, 29569",29085015,"R"
152758,"1338 PARMER DRIVE","FLORISSANT","MO",63031,38.826060141,-90.3309624409999,258,"1338 PARMER DRIVE, FLORISSANT, MO, 63031","Match","Exact","1338 PARMER DR, FLORISSANT, MO, 63031",100193678,"L"
152759,"1338 PAUL ALLMAN ROAD","ADGER","AL",35006,33.4753516850001,-87.206151376,259,"1338 PAUL ALLMAN ROAD, ADGER, AL, 35006","Match","Exact","1338 PAUL ALLMAN RD, ADGER, AL, 35006",81690536,"R"
152760,"1338 PENNINGTON RD","PHILADELPHIA","PA",19151,39.971542034,-75.265553075,260,"1338 PENNINGTON RD, PHILADELPHIA, PA, 19151","Match","Exact","1338 PENNINGTON RD, PHILADELPHIA, PA, 19151",131393054,"L"
152761,"1338 ROWLAND","WEST COVINA","CA",91790,NA,NA,261,"1338 ROWLAND, WEST COVINA, CA, 91790","No_Match",NA,NA,NA,NA
152762,"1338 S  WESTERN AVE","ANAHEIM","CA",92804,33.81401916,-118.002028443,262,"1338 S  WESTERN AVE, ANAHEIM, CA, 92804","Match","Exact","1338 S WESTERN AVE, ANAHEIM, CA, 92804",144002369,"L"
152763,"1338 S 31ST STREET","OMAHA","NE",68105,41.246543999,-95.958512774,263,"1338 S 31ST STREET, OMAHA, NE, 68105","Match","Exact","1338 S 31ST ST, OMAHA, NE, 68105",116984818,"R"
152764,"1338 S DUKANE WAY","INDIANAPOLIS","IN",46241,39.7473102060001,-86.271795356,264,"1338 S DUKANE WAY, INDIANAPOLIS, IN, 46241","Match","Exact","1338 S DUKANE WAY, INDIANAPOLIS, IN, 46241",107979670,"R"
152765,"1338 S FARRAGUT","SAN DIEGO","CA",93555,NA,NA,265,"1338 S FARRAGUT, SAN DIEGO, CA, 93555","No_Match",NA,NA,NA,NA
152766,"1338 S HANOVER ST","BALTIMORE","MD",21230,39.2742957790001,-76.615394712,266,"1338 S HANOVER ST, BALTIMORE, MD, 21230","Match","Exact","1338 S HANOVER ST, BALTIMORE, MD, 21230",206421052,"R"
152767,"1338 S LEWISTON WAY","AURORA","CO",80017,39.6923928310001,-104.79895598,267,"1338 S LEWISTON WAY, AURORA, CO, 80017","Match","Exact","1338 S LEWISTON WAY, AURORA, CO, 80017",643696661,"L"
152768,"1338 S PAXON STREET","PHILADELPHIA","PA",19143,39.9401539940001,-75.217386382,268,"1338 S PAXON STREET, PHILADELPHIA, PA, 19143","Match","Exact","1338 S PAXON ST, PHILADELPHIA, PA, 19143",131400060,"R"
152769,"1338 SALEM DRIVE","ALPHARETTA","GA",30004,34.0886104410001,-84.3137081959999,269,"1338 SALEM DRIVE, ALPHARETTA, GA, 30004","Match","Non_Exact","1338 SALEM DR, ALPHARETTA, GA, 30009",17387847,"L"
152770,"1338 SAN MIGUEL DR","DUNCANVILLE","TX",75137,32.6367737730001,-96.919208342,270,"1338 SAN MIGUEL DR, DUNCANVILLE, TX, 75137","Match","Exact","1338 SAN MIGUEL DR, DUNCANVILLE, TX, 75137",102972311,"R"
152771,"1338 SAND FLAT RD","ALPENA","AR",72611,36.3073736900001,-93.2521787109999,271,"1338 SAND FLAT RD, ALPENA, AR, 72611","Match","Exact","1338 SAND FLAT RD, ALPENA, AR, 72611",19994009,"R"
152772,"1338 SANTA CLARA PARKWAY","SANTA CLARA","UT",84765,37.1313266020001,-113.642262886,272,"1338 SANTA CLARA PARKWAY, SANTA CLARA, UT, 84765","Match","Exact","1338 SANTA CLARA PKWY, SANTA CLARA, UT, 84765",166162926,"R"
152773,"1338 SE 5TH ST","OCALA","FL",34471,29.1825250700001,-82.121250115,273,"1338 SE 5TH ST, OCALA, FL, 34471","Match","Exact","1338 SE 5TH ST, OCALA, FL, 34471",116729448,"R"
152774,"1338 SOUTH MINE STREET","NASHVILLE","AR",71852,33.9314119750001,-93.847090082,274,"1338 SOUTH MINE STREET, NASHVILLE, AR, 71852","Match","Non_Exact","1338 S MAIN ST, NASHVILLE, AR, 71852",73571170,"L"
152775,"1338 STONEY BATTERY ROAD","MARION","VA",24354,36.7432667840001,-81.553750689,275,"1338 STONEY BATTERY ROAD, MARION, VA, 24354","Match","Exact","1338 STONEY BATTERY RD, MARION, VA, 24354",47197727,"R"
152776,"1338 TAMMEN RD","WICHITA FALLS","TX",76305,33.919428479,-98.374010937,276,"1338 TAMMEN RD, WICHITA FALLS, TX, 76305","Match","Exact","1338 TAMMEN RD, WICHITA FALLS, TX, 76305",634510873,"R"
152777,"1338 VETERANS HIGHWAY APT D09","LEVITTOWN","PA",19056,NA,NA,277,"1338 VETERANS HIGHWAY APT D09, LEVITTOWN, PA, 19056","No_Match",NA,NA,NA,NA
152778,"1338 VETERANS HWY - APT P7","LEVITTOWN","PA",19056,NA,NA,278,"1338 VETERANS HWY - APT P7, LEVITTOWN, PA, 19056","No_Match",NA,NA,NA,NA
152779,"1338 VICTORY DRIVE","S EUCLID","OH",44121,41.522905237,-81.5207608269999,279,"1338 VICTORY DRIVE, S EUCLID, OH, 44121","Match","Exact","1338 VICTORY DR, SOUTH EUCLID, OH, 44121",61124832,"R"
152780,"1338 W 13TH STREET","JACKSONVILLE","FL",32209,30.3513792850001,-81.67650186,280,"1338 W 13TH STREET, JACKSONVILLE, FL, 32209","Match","Exact","1338 W 13TH ST, JACKSONVILLE, FL, 32209",83895793,"L"
152781,"1338 W CLEAR SPRING DR","GILBERT","AZ",85233,33.338723225,-111.819240558,281,"1338 W CLEAR SPRING DR, GILBERT, AZ, 85233","Match","Exact","1338 W CLEAR SPRING DR, GILBERT, AZ, 85233",128787636,"L"
152782,"1338 W MADISON ST APT 2E","CHICAGO","IL",60607,41.881580523,-87.661663446,282,"1338 W MADISON ST APT 2E, CHICAGO, IL, 60607","Match","Non_Exact","1338 W MADISON ST, CHICAGO, IL, 60607",111765606,"R"
152783,"1338 W MADISON STREET","CHICAGO","IL",60607,41.881580523,-87.661663446,283,"1338 W MADISON STREET, CHICAGO, IL, 60607","Match","Exact","1338 W MADISON ST, CHICAGO, IL, 60607",111765606,"R"
152784,"1338 W MADISON","CHICAGO","IL",60607,41.881580523,-87.661663446,284,"1338 W MADISON, CHICAGO, IL, 60607","Match","Non_Exact","1338 W MADISON ST, CHICAGO, IL, 60607",111765606,"R"
152785,"1338 WAYBRIDGE LN","WINSTON SALEM","NC",14150,36.0731449240001,-80.261022979,285,"1338 WAYBRIDGE LN, WINSTON SALEM, NC, 14150","Match","Non_Exact","1338 WAYBRIDGE LN, WINSTON SALEM, NC, 27103",84610348,"R"
152786,"1338 WEST 97TH PLACE","CHICAGO","IL",60643,41.716956096,-87.656200156,286,"1338 WEST 97TH PLACE, CHICAGO, IL, 60643","Match","Exact","1338 W 97TH PL, CHICAGO, IL, 60643",111823056,"R"
152787,"1338 WEST BERKWOOD AVE","CHICAGO","IL",60626,NA,NA,287,"1338 WEST BERKWOOD AVE, CHICAGO, IL, 60626","No_Match",NA,NA,NA,NA
152788,"1338 WEST CALLAWAY COURT","TAYLORSVILLE","UT",84123,40.638389768,-111.930034118,288,"1338 WEST CALLAWAY COURT, TAYLORSVILLE, UT, 84123","Match","Non_Exact","1338 CALLAWAY CT, TAYLORSVILLE, UT, 84123",176149998,"R"
152789,"1338 WEST PORPHYRY","BUTTE","MT",59701,46.0084711910001,-112.557603076,289,"1338 WEST PORPHYRY, BUTTE, MT, 59701","Match","Non_Exact","1338 W PORPHYRY ST, BUTTE, MT, 59701",153586660,"L"
152790,"1338 WILLINGHAM","SAINT LOUIS","MO",63121,38.727722514,-90.3069516799999,290,"1338 WILLINGHAM, SAINT LOUIS, MO, 63121","Match","Non_Exact","1338 WILLINGHAM DR, SAINT LOUIS, MO, 63121",100146418,"L"
152791,"13380 BLAZER LN","LOVETTSVILLE","VA",20180,NA,NA,291,"13380 BLAZER LN, LOVETTSVILLE, VA, 20180","No_Match",NA,NA,NA,NA
152792,"13380 CEDARWOOD AVE","CLIVE","IA",50323,41.6064455170001,-93.801908473,292,"13380 CEDARWOOD AVE, CLIVE, IA, 50323","Match","Non_Exact","13380 CEDARWOOD AVE, CLIVE, IA, 50325",65853711,"R"
152793,"13380 E REX MOLLY RD","VAIL","AZ",85641,32.0698038890001,-110.705411061,293,"13380 E REX MOLLY RD, VAIL, AZ, 85641","Match","Exact","13380 E REX MOLLY RD, VAIL, AZ, 85641",121386006,"L"
152794,"13380 HIGHWAY 27","LISBON","ND",58054,NA,NA,294,"13380 HIGHWAY 27, LISBON, ND, 58054","No_Match",NA,NA,NA,NA
152795,"13380 HWY 27","LISBON","ND",58054,NA,NA,295,"13380 HWY 27, LISBON, ND, 58054","No_Match",NA,NA,NA,NA
152796,"13380 LBJ DR","SANANTONIO","TX",78253,29.4749323840001,-98.758574246,296,"13380 LBJ DR, SANANTONIO, TX, 78253","Match","Non_Exact","13380 L B J, SAN ANTONIO, TX, 78253",101712125,"L"
152797,"13380 PROVIDENCE LAKE DRIVE","MILTON","GA",30004,34.1100143250001,-84.372663126,297,"13380 PROVIDENCE LAKE DRIVE, MILTON, GA, 30004","Match","Exact","13380 PROVIDENCE LAKE DR, MILTON, GA, 30004",17387887,"R"
152798,"13380 SW VIOLET CT","BEAVERTON","OR",97008,45.472441062,-122.814317032,298,"13380 SW VIOLET CT, BEAVERTON, OR, 97008","Match","Exact","13380 SW VIOLET CT, BEAVERTON, OR, 97008",158185948,"L"
152799,"13381 177TH ST N","MARINE","MN",55047,45.206538671,-92.832372994,299,"13381 177TH ST N, MARINE, MN, 55047","Match","Non_Exact","13381 177TH ST N, MARINE ON SAINT CROIX, MN, 55047",97819227,"R"
152800,"13381 SORREL CT","GRANGER","IN",46530,41.7560535280001,-86.127184641,300,"13381 SORREL CT, GRANGER, IN, 46530","Match","Exact","13381 SORREL CT, GRANGER, IN, 46530",8071071,"R"
152801,"13382 8TH PLACE N","WEST PALM BEACH","FL",33412,NA,NA,301,"13382 8TH PLACE N, WEST PALM BEACH, FL, 33412","No_Match",NA,NA,NA,NA
152802,"13382 BENCHLEY RD","SAN DIEGO","CA",92130,32.960994316,-117.229745579,302,"13382 BENCHLEY RD, SAN DIEGO, CA, 92130","Match","Exact","13382 BENCHLEY RD, SAN DIEGO, CA, 92130",195398280,"L"
152803,"13382 FRINKS CT","HERNDON","VA",20170,38.967326503,-77.4093588119999,303,"13382 FRINKS CT, HERNDON, VA, 20170","Match","Exact","13382 FRINKS CT, HERNDON, VA, 20170",75956263,"R"
152804,"13382 RUDI LOOP","SPRING HILL","FL",34609,28.4815533290001,-82.509311165,304,"13382 RUDI LOOP, SPRING HILL, FL, 34609","Match","Exact","13382 RUDI LOOP, SPRING HILL, FL, 34609",85447039,"L"
152805,"13383 GABILAN RAOD","SAN DIEGO","CA",92128,32.9612385790001,-117.087198215,305,"13383 GABILAN RAOD, SAN DIEGO, CA, 92128","Match","Non_Exact","13383 GABILAN RD, SAN DIEGO, CA, 92128",195390141,"R"
152806,"13384 COVENANT ROAD","NAPLES","FL",34114,26.0555839350001,-81.693327252,306,"13384 COVENANT ROAD, NAPLES, FL, 34114","Match","Exact","13384 COVENANT RD, NAPLES, FL, 34114",619124004,"R"
152807,"13384 HARDY RD","HARDY","VA",24101,37.2268561230001,-79.806649646,307,"13384 HARDY RD, HARDY, VA, 24101","Match","Exact","13384 HARDY RD, HARDY, VA, 24101",228440112,"R"
152808,"13384 HICKORY DR","NEOSHO","MO",64850,36.930856098,-94.4000323509999,308,"13384 HICKORY DR, NEOSHO, MO, 64850","Match","Exact","13384 HICKORY DR, NEOSHO, MO, 64850",648925699,"R"
152809,"13384 HIDDEN PRAIRIE DR","BURLINGTON","IA",52601,40.882749818,-91.115708158,309,"13384 HIDDEN PRAIRIE DR, BURLINGTON, IA, 52601","Match","Non_Exact","13384 HIDDEN PRAIRIE RD, BURLINGTON, IA, 52601",5548802,"R"
152810,"13384 HOWE ROAD","FISHERS","IN",46037,39.9829454310001,-85.980168861,310,"13384 HOWE ROAD, FISHERS, IN, 46037","Match","Non_Exact","13384 HOWE RD, FISHERS, IN, 46038",642777797,"L"
152811,"13384 HOWE ROAD","FISHERS","IN",46038,39.9829454310001,-85.980168861,311,"13384 HOWE ROAD, FISHERS, IN, 46038","Match","Exact","13384 HOWE RD, FISHERS, IN, 46038",642777797,"L"
152812,"13384 HWY NN","LOUISIANA","MO",63353,39.397331669,-91.07217625,312,"13384 HWY NN, LOUISIANA, MO, 63353","Match","Exact","13384 HWY NN, LOUISIANA, MO, 63353",44663123,"L"
152813,"13384 LAKE TURNBERRY CIR","ORLANDO","FL",32828,28.53224972,-81.1868523319999,313,"13384 LAKE TURNBERRY CIR, ORLANDO, FL, 32828","Match","Exact","13384 LAKE TURNBERRY CIR, ORLANDO, FL, 32828",635627461,"R"
152814,"13385 EARLEGATE ST","VICTORVILLE","CA",92392,34.497988703,-117.370800332,314,"13385 EARLEGATE ST, VICTORVILLE, CA, 92392","Match","Exact","13385 EARLEGATE ST, VICTORVILLE, CA, 92392",614824563,"R"
152815,"13385 HIGHLANDS PLACE APT 1130","SAN DIEGO","CA",92130,NA,NA,315,"13385 HIGHLANDS PLACE APT 1130, SAN DIEGO, CA, 92130","No_Match",NA,NA,NA,NA
152816,"13385 HOLLY SPRINGS ROAD","BYHALIA","MS",38611,34.7874040930001,-89.753038794,316,"13385 HOLLY SPRINGS ROAD, BYHALIA, MS, 38611","Match","Exact","13385 HOLLY SPRINGS RD, BYHALIA, MS, 38611",91831814,"L"
152817,"13385 NW PAYNE DR","PORTLAND","OR",97229,45.55026106,-122.815101337,317,"13385 NW PAYNE DR, PORTLAND, OR, 97229","Match","Exact","13385 NW PAYNE DR, PORTLAND, OR, 97229",617830424,"R"
152818,"13385 ROACHTON RD","PERRYSBURG","OH",43551,41.522181989,-83.652187226,318,"13385 ROACHTON RD, PERRYSBURG, OH, 43551","Match","Exact","13385 ROACHTON RD, PERRYSBURG, OH, 43551",38741785,"L"
152819,"13385 S 175TH DRIVE","GOODYEAR","AZ",85338,33.325884224,-112.426662981,319,"13385 S 175TH DRIVE, GOODYEAR, AZ, 85338","Match","Exact","13385 S 175TH DR, GOODYEAR, AZ, 85338",128850473,"L"
152820,"13385 WENDELL DR","FENTON","MI",48430,42.8328767460001,-83.70289409,320,"13385 WENDELL DR, FENTON, MI, 48430","Match","Non_Exact","13385 WENDELL ST, FENTON, MI, 48430",69579717,"L"
152821,"13388 MAVERICK ROAD","MARION","IL",62959,NA,NA,321,"13388 MAVERICK ROAD, MARION, IL, 62959","No_Match",NA,NA,NA,NA
152822,"13389 CHESTNUT LN","TAYLOR","MI",48180,42.2086660480001,-83.244196775,322,"13389 CHESTNUT LN, TAYLOR, MI, 48180","Match","Exact","13389 CHESTNUT LN, TAYLOR, MI, 48180",95692280,"L"
152823,"13389 FOLSOM BLVD 300-122","FOLSOM","CA",95630,38.644186989,-121.191106687,323,"13389 FOLSOM BLVD 300-122, FOLSOM, CA, 95630","Match","Exact","13389 FOLSOM BLVD, FOLSOM, CA, 95630",636424250,"R"
152824,"13389 HWY 742","POLKTON","NC",28135,35.1133720760001,-80.245694273,324,"13389 HWY 742, POLKTON, NC, 28135","Match","Non_Exact","13389 STATE HWY 742, POLKTON, NC, 28135",12790838,"L"
152825,"13389 JEWEL","MARSHALL","MO",65340,38.9839874090001,-93.2046826609999,325,"13389 JEWEL, MARSHALL, MO, 65340","Match","Non_Exact","13389 JEWEL AVE, MARSHALL, MO, 65340",21039306,"L"
152826,"13389 KY 344","WALLINGFORD","KY",41093,NA,NA,326,"13389 KY 344, WALLINGFORD, KY, 41093","No_Match",NA,NA,NA,NA
152827,"1339 73RD ST","BROOKLYN","NY",11228,40.6209305530001,-74.005320534,327,"1339 73RD ST, BROOKLYN, NY, 11228","Match","Exact","1339 73RD ST, BROOKLYN, NY, 11228",59087914,"L"
152828,"1339 ADARE RD","MARION","OH",43302,40.562889097,-83.0756164329999,328,"1339 ADARE RD, MARION, OH, 43302","Match","Exact","1339 ADARE RD, MARION, OH, 43302",12714733,"R"
152829,"1339 APPLING WAY","CORDOVA","TN",38016,35.1614915640001,-89.815654221,329,"1339 APPLING WAY, CORDOVA, TN, 38016","Match","Non_Exact","1339 APPLING RD, CORDOVA, TN, 38016",633805742,"R"
152830,"1339 ARBUCKLE DRIVE","FRISCO","TX",75033,33.1758463400001,-96.879760695,330,"1339 ARBUCKLE DRIVE, FRISCO, TX, 75033","Match","Exact","1339 ARBUCKLE DR, FRISCO, TX, 75033",619670887,"L"
152831,"1339 AUSTIN COURT","OTTAWA","KS",66067,38.587130335,-95.2843080489999,331,"1339 AUSTIN COURT, OTTAWA, KS, 66067","Match","Exact","1339 AUSTIN CT, OTTAWA, KS, 66067",10629816,"L"
152832,"1339 BAXTER ST STE 200","CHARLOTTE","NC",28204,35.210638025,-80.834497007,332,"1339 BAXTER ST STE 200, CHARLOTTE, NC, 28204","Match","Exact","1339 BAXTER ST, CHARLOTTE, NC, 28204",70487648,"L"
152833,"1339 BLACK OAK DR","SOUTH BEND","IN",46617,41.693459805,-86.223308375,333,"1339 BLACK OAK DR, SOUTH BEND, IN, 46617","Match","Exact","1339 BLACK OAK DR, SOUTH BEND, IN, 46617",8054826,"L"
152834,"1339 CAMPBELL WAY","TOBYHANNA","PA",18466,NA,NA,334,"1339 CAMPBELL WAY, TOBYHANNA, PA, 18466","No_Match",NA,NA,NA,NA
152835,"1339 CANYON EDGE","CANYON LAKE","TX",78133,29.88945032,-98.274175036,335,"1339 CANYON EDGE, CANYON LAKE, TX, 78133","Match","Exact","1339 CANYON EDGE, CANYON LAKE, TX, 78133",72237326,"L"
152836,"1339 CEDAR ROCK RD","WOODBURY","GA",30293,32.9668784090001,-84.688386156,336,"1339 CEDAR ROCK RD, WOODBURY, GA, 30293","Match","Exact","1339 CEDAR ROCK RD, WOODBURY, GA, 30293",9426157,"L"
152837,"1339 COOSA COUNTY RD 130","GOODWATER","AL",35072,NA,NA,337,"1339 COOSA COUNTY RD 130, GOODWATER, AL, 35072","No_Match",NA,NA,NA,NA
152838,"1339 COUNTRYSIDE MANOR PLACE","CHESTERFIELD","MO",63005,38.654462762,-90.620583841,338,"1339 COUNTRYSIDE MANOR PLACE, CHESTERFIELD, MO, 63005","Match","Exact","1339 COUNTRYSIDE MANOR PL, CHESTERFIELD, MO, 63005",100178803,"R"
152839,"1339 COUNTY ROAD 42","TORONTO","OH",43964,40.466402531,-80.6170690989999,339,"1339 COUNTY ROAD 42, TORONTO, OH, 43964","Match","Exact","1339 CO RD 42, TORONTO, OH, 43964",632753694,"R"
152840,"1339 CR 2461","ALVORD","TX",76225,33.3517068250001,-97.580970723,340,"1339 CR 2461, ALVORD, TX, 76225","Match","Exact","1339 CO RD 2461, ALVORD, TX, 76225",611198108,"R"
152841,"1339 DANHOF DRIVE","BOLINGBROOK","IL",60440,41.6493378850001,-88.169188811,341,"1339 DANHOF DRIVE, BOLINGBROOK, IL, 60440","Match","Non_Exact","1339 DANHOF DR, BOLINGBROOK, IL, 60490",111624088,"R"
152842,"1339 DEXTER TERRACE SE","WASHINGTON DC","DC",20020,38.8609186850001,-76.990470113,342,"1339 DEXTER TERRACE SE, WASHINGTON DC, DC, 20020","Match","Exact","1339 DEXTER TER SE, WASHINGTON, DC, 20020",76231095,"R"
152843,"1339 E ALMENDRA DR","FRESNO","CA",93710,36.818581367,-119.764818951,343,"1339 E ALMENDRA DR, FRESNO, CA, 93710","Match","Exact","1339 E ALMENDRA DR, FRESNO, CA, 93710",197645711,"R"
152844,"1339 E FRANCES LN","GILBERT","AZ",85295,33.294039856,-111.761446966,344,"1339 E FRANCES LN, GILBERT, AZ, 85295","Match","Exact","1339 E FRANCES LN, GILBERT, AZ, 85295",128878015,"R"
152845,"1339 E GRACE ST STE 3","SANTA ANA","CA",92701,33.7546778240001,-117.849209629,345,"1339 E GRACE ST STE 3, SANTA ANA, CA, 92701","Match","Exact","1339 GRACE ST, SANTA ANA, CA, 92701",144052132,"L"
152846,"1339 E JUNE DRIVE","MOSES LAKE","WA",98837,47.12058383,-119.25251717,346,"1339 E JUNE DRIVE, MOSES LAKE, WA, 98837","Match","Exact","1339 JUNE DR, MOSES LAKE, WA, 98837",627333758,"L"
152847,"1339 E RD","CENTRALIA","KS",66425,NA,NA,347,"1339 E RD, CENTRALIA, KS, 66425","No_Match",NA,NA,NA,NA
152848,"1339 EAST ST HWY 162","PORTAGEVILLE","MO",63873,36.4245793310001,-89.650726032,348,"1339 EAST ST HWY 162, PORTAGEVILLE, MO, 63873","Match","Non_Exact","1339 STATE HWY 162, PORTAGEVILLE, MO, 63873",647887145,"R"
152849,"1339 EDISON TREE RD","APOPKA","FL",32712,28.7166082250001,-81.535293455,349,"1339 EDISON TREE RD, APOPKA, FL, 32712","Match","Exact","1339 EDISON TREE RD, APOPKA, FL, 32712",625221378,"L"
152850,"1339 ENGEL ROAD","LAWRENCE","KS",66044,38.959452352,-95.257436716,350,"1339 ENGEL ROAD, LAWRENCE, KS, 66044","Match","Exact","1339 ENGEL RD, LAWRENCE, KS, 66044",17684537,"R"
152851,"1339 EUREKA AVE","LANSING","MI",48912,42.7323545100001,-84.5313779699999,351,"1339 EUREKA AVE, LANSING, MI, 48912","Match","Non_Exact","1339 EUREKA ST, LANSING, MI, 48912",17499652,"L"
152852,"1339 EVERETS ROAD","BIG COVE TANNERY","PA",17212,39.815193396,-78.124894706,352,"1339 EVERETS ROAD, BIG COVE TANNERY, PA, 17212","Match","Non_Exact","1339 EVERETTS RD, BIG COVE TANNERY, PA, 17212",61026480,"L"
152853,"1339 FINALE LANE","LAS VEGAS","NV",89119,36.0642063860001,-115.134531633,353,"1339 FINALE LANE, LAS VEGAS, NV, 89119","Match","Exact","1339 FINALE LN, LAS VEGAS, NV, 89119",201919030,"L"
152854,"1339 FLAT ROCK RD","STOCKBRIDGE","GA",30281,33.57161204,-84.203201538,354,"1339 FLAT ROCK RD, STOCKBRIDGE, GA, 30281","Match","Exact","1339 FLAT ROCK RD, STOCKBRIDGE, GA, 30281",23189100,"L"
152855,"1339 FOREST AVE","RIVER FOREST","IL",60305,41.905109499,-87.821897445,355,"1339 FOREST AVE, RIVER FOREST, IL, 60305","Match","Exact","1339 FOREST AVE, RIVER FOREST, IL, 60305",111748941,"R"
152856,"1339 FOX RUN DRIVE","WILLOUGHBY","OH",44094,41.691211792,-81.397029049,356,"1339 FOX RUN DRIVE, WILLOUGHBY, OH, 44094","Match","Non_Exact","1339 FOX RUN LN, WILLOUGHBY, OH, 44094",604777523,"L"
152857,"1339 GARDEN TERRACE AVE","GREENWOOD","IN",46143,39.5978344050001,-86.070540463,357,"1339 GARDEN TERRACE AVE, GREENWOOD, IN, 46143","Match","Exact","1339 GARDEN TERRACE AVE, GREENWOOD, IN, 46143",652074581,"L"
152858,"1339 GOLDENROD DR","NAPERVILLE","IL",60540,41.7623510290001,-88.17458543,358,"1339 GOLDENROD DR, NAPERVILLE, IL, 60540","Match","Exact","1339 GOLDENROD DR, NAPERVILLE, IL, 60540",112679240,"L"
152859,"1339 GREENSBURG PIKE","WEST NEWTON","PA",15089,NA,NA,359,"1339 GREENSBURG PIKE, WEST NEWTON, PA, 15089","Tie",NA,NA,NA,NA
152860,"1339 GROVE AVENUE","UPLAND","CA",91786,NA,NA,360,"1339 GROVE AVENUE, UPLAND, CA, 91786","No_Match",NA,NA,NA,NA
152861,"1339 HCR 1313","HILLSBORO","TX",76645,32.040103937,-97.2434722689999,361,"1339 HCR 1313, HILLSBORO, TX, 76645","Match","Exact","1339 CO RD 1313, HILLSBORO, TX, 76645",634088219,"L"
152862,"1339 HERITAGE MANOR DRIVE","JACKSONVILLE","FL",32207,30.2658828630001,-81.649225714,362,"1339 HERITAGE MANOR DRIVE, JACKSONVILLE, FL, 32207","Match","Exact","1339 HERITAGE MANOR DR, JACKSONVILLE, FL, 32207",646899952,"R"
152863,"1339 HICKORY GROVE RD","ABBEVILLE","AL",36310,NA,NA,363,"1339 HICKORY GROVE RD, ABBEVILLE, AL, 36310","No_Match",NA,NA,NA,NA
152864,"1339 HILL CROSS CT","OKLAHOMA CITY","OK",73159,35.3638351640001,-97.541125231,364,"1339 HILL CROSS CT, OKLAHOMA CITY, OK, 73159","Match","Exact","1339 HILL CROSS CT, OKLAHOMA CITY, OK, 73159",99904752,"R"
152865,"1339 JORDAN POND LANE","CHARLOTTE","NC",28214,35.29674734,-80.93146433,365,"1339 JORDAN POND LANE, CHARLOTTE, NC, 28214","Match","Non_Exact","1339 JORDANS POND LN, CHARLOTTE, NC, 28214",70555823,"L"
152866,"1339 KEENSBURG COURT","INDIANAPOLIS","IN",46228,39.861645337,-86.183472878,366,"1339 KEENSBURG COURT, INDIANAPOLIS, IN, 46228","Match","Exact","1339 KEENSBURG CT, INDIANAPOLIS, IN, 46228",108043717,"R"
152867,"1339 LAKNAR","DILLON","MT",59725,45.2506736830001,-112.621744358,367,"1339 LAKNAR, DILLON, MT, 59725","Match","Non_Exact","1339 LAKNAR LN, DILLON, MT, 59725",634527127,"L"
152868,"1339 LAMARQUE STREET","MANDEVILLE","LA",70448,30.367659711,-90.054215351,368,"1339 LAMARQUE STREET, MANDEVILLE, LA, 70448","Match","Exact","1339 LAMARQUE ST, MANDEVILLE, LA, 70448",111238353,"R"
152869,"1339 LIBERTY DR APT A","GEORGETOWN","KY",40324,38.1888068320001,-84.558167359,369,"1339 LIBERTY DR APT A, GEORGETOWN, KY, 40324","Match","Exact","1339 LIBERTY DR, GEORGETOWN, KY, 40324",41233016,"R"
152870,"1339 LONGSHORE AVENUE","PHILADELPHIA","PA",19111,40.0471926710001,-75.07421393,370,"1339 LONGSHORE AVENUE, PHILADELPHIA, PA, 19111","Match","Exact","1339 LONGSHORE AVE, PHILADELPHIA, PA, 19111",131416074,"L"
152871,"1339 MARENGO AVE","FOREST PARK","IL",60130,41.8624148280001,-87.806550005,371,"1339 MARENGO AVE, FOREST PARK, IL, 60130","Match","Exact","1339 MARENGO AVE, FOREST PARK, IL, 60130",642123193,"R"
152872,"1339 MARENGO","FOREST PARK","IL",60130,41.8624148280001,-87.806550005,372,"1339 MARENGO, FOREST PARK, IL, 60130","Match","Non_Exact","1339 MARENGO AVE, FOREST PARK, IL, 60130",642123193,"R"
152873,"1339 MARNGO AVE","FOREST PARK","IL",60130,41.8624148280001,-87.806550005,373,"1339 MARNGO AVE, FOREST PARK, IL, 60130","Match","Non_Exact","1339 MARENGO AVE, FOREST PARK, IL, 60130",642123193,"R"
152874,"1339 MEADOWGREEN CT SE","CALEDONIA","MI",49316,42.8386195910001,-85.631370335,374,"1339 MEADOWGREEN CT SE, CALEDONIA, MI, 49316","Match","Exact","1339 MEADOWGREEN CT SE, CALEDONIA, MI, 49316",12482058,"L"
152875,"1339 MOSCOW ROAD","HUBBARDSVILLE","NY",13355,NA,NA,375,"1339 MOSCOW ROAD, HUBBARDSVILLE, NY, 13355","No_Match",NA,NA,NA,NA
152876,"1339 N 28TH ST","PHILADELPHIA","PA",19121,39.976626799,-75.181349938,376,"1339 N 28TH ST, PHILADELPHIA, PA, 19121","Match","Exact","1339 N 28TH ST, PHILADELPHIA, PA, 19121",131448121,"R"
152877,"1339 N LEWIS AVE","FAYETTEVILE","AR",72703,36.0807215890001,-94.184204482,377,"1339 N LEWIS AVE, FAYETTEVILE, AR, 72703","Match","Non_Exact","1339 N LEWIS AVE, FAYETTEVILLE, AR, 72703",49044671,"L"
152878,"1339 N RAWHIDE DR","DERBY","KS",67037,37.5614076250001,-97.2518263219999,378,"1339 N RAWHIDE DR, DERBY, KS, 67037","Match","Exact","1339 RAWHIDE DR, DERBY, KS, 67037",115666768,"L"
152879,"1339 N WICKER PARK AVE","CHICAGO","IL",60622,41.906159684,-87.672657928,379,"1339 N WICKER PARK AVE, CHICAGO, IL, 60622","Match","Exact","1339 N WICKER PARK AVE, CHICAGO, IL, 60622",111764794,"R"
152880,"1339 NARRAGESETT","PHILADELPHIA","PA",19138,NA,NA,380,"1339 NARRAGESETT, PHILADELPHIA, PA, 19138","No_Match",NA,NA,NA,NA
152881,"1339 NEEDHAM DRIVE","VACAVILLE","CA",95687,38.3317926400001,-121.953881048,381,"1339 NEEDHAM DRIVE, VACAVILLE, CA, 95687","Match","Exact","1339 NEEDHAM DR, VACAVILLE, CA, 95687",192535926,"L"
152882,"1339 NORTH 44TH ST","BATON ROUGE","LA",70802,30.460707013,-91.145191526,382,"1339 NORTH 44TH ST, BATON ROUGE, LA, 70802","Match","Exact","1339 N 44TH ST, BATON ROUGE, LA, 70802",606172883,"L"
152883,"1339 NORTH CORONADO ST","LOS ANGELES","CA",90026,34.0818550920001,-118.267336188,383,"1339 NORTH CORONADO ST, LOS ANGELES, CA, 90026","Match","Exact","1339 N CORONADO ST, LOS ANGELES, CA, 90026",141615818,"L"
152884,"1339 PANNERS PLACE","BILLINGS","MT",59105,45.823363715,-108.495033922,384,"1339 PANNERS PLACE, BILLINGS, MT, 59105","Match","Exact","1339 PANNERS PL, BILLINGS, MT, 59105",181477123,"L"
152885,"1339 PARK STREET","CLEARWATER","FL",33756,27.9648368380001,-82.780685144,385,"1339 PARK STREET, CLEARWATER, FL, 33756","Match","Non_Exact","1339 PARK ST, CLEARWATER, FL, 33755",124668171,"R"
152886,"1339 PARKMEADOW DR NE","KEIZER","OR",97303,45.024890729,-123.015088055,386,"1339 PARKMEADOW DR NE, KEIZER, OR, 97303","Match","Exact","1339 PARKMEADOW DR NE, KEIZER, OR, 97303",156269214,"R"
152887,"1339 PARTRIDGE PL","VALDOSTA","GA",31601,30.8293000240001,-83.254135601,387,"1339 PARTRIDGE PL, VALDOSTA, GA, 31601","Match","Exact","1339 PARTRIDGE PL, VALDOSTA, GA, 31601",87718331,"L"
152888,"1339 PILGRIM RD","SPRING HILL","FL",34606,28.4542278590001,-82.602399249,388,"1339 PILGRIM RD, SPRING HILL, FL, 34606","Match","Exact","1339 PILGRIM RD, SPRING HILL, FL, 34606",85433526,"R"
152889,"1339 PILGRIM RD","SPRINGHILL","FL",34606,28.4542278590001,-82.602399249,389,"1339 PILGRIM RD, SPRINGHILL, FL, 34606","Match","Non_Exact","1339 PILGRIM RD, SPRING HILL, FL, 34606",85433526,"R"
152890,"1339 PILGRIM ROAD","SPRING HILL","FL",34606,28.4542278590001,-82.602399249,390,"1339 PILGRIM ROAD, SPRING HILL, FL, 34606","Match","Exact","1339 PILGRIM RD, SPRING HILL, FL, 34606",85433526,"R"
152891,"1339 PISGAH ROAD","TROY","PA",16947,NA,NA,391,"1339 PISGAH ROAD, TROY, PA, 16947","No_Match",NA,NA,NA,NA
152892,"1339 PLUM TREE DR","LAYTON","UT",84040,41.0794288610001,-111.948493954,392,"1339 PLUM TREE DR, LAYTON, UT, 84040","Match","Exact","1339 PLUM TREE DR, LAYTON, UT, 84040",155307135,"R"
152893,"1339 PLUMOSA WAY","WESTON","FL",33327,26.1207978750001,-80.4205959669999,393,"1339 PLUMOSA WAY, WESTON, FL, 33327","Match","Exact","1339 PLUMOSA WAY, WESTON, FL, 33327",114809324,"L"
152894,"1339 RAINBOW FALLS RD","NORTH AUGUSTA","SC",29860,33.623729392,-81.909017542,394,"1339 RAINBOW FALLS RD, NORTH AUGUSTA, SC, 29860","Match","Exact","1339 RAINBOW FALLS RD, NORTH AUGUSTA, SC, 29860",55848495,"L"
152895,"1339 RANSOM","LANCASTER","TX",75146,32.5960492900001,-96.782510112,395,"1339 RANSOM, LANCASTER, TX, 75146","Match","Non_Exact","1339 RANSOM DR, LANCASTER, TX, 75146",619588863,"L"
152896,"1339 RIDGEVIEW DR","CEDAR HILL","TX",76106,32.5965756640001,-96.913483017,396,"1339 RIDGEVIEW DR, CEDAR HILL, TX, 76106","Match","Non_Exact","1339 RIDGEVIEW DR, CEDAR HILL, TX, 75104",616749373,"R"
152897,"1339 ROSELLE AVENUE","NIAGARA FALLS","NY",14305,43.125553692,-79.046938423,397,"1339 ROSELLE AVENUE, NIAGARA FALLS, NY, 14305","Match","Exact","1339 ROSELLE AVE, NIAGARA FALLS, NY, 14305",48685127,"R"
152898,"1339 RUTLEDGE  STREET","EUGENE","OR",97402,44.0756453170001,-123.163876319,398,"1339 RUTLEDGE  STREET, EUGENE, OR, 97402","Match","Exact","1339 RUTLEDGE ST, EUGENE, OR, 97402",178163797,"R"
152899,"1339 RUTLEDGE STREET","EUGENE","OR",97402,44.0756453170001,-123.163876319,399,"1339 RUTLEDGE STREET, EUGENE, OR, 97402","Match","Exact","1339 RUTLEDGE ST, EUGENE, OR, 97402",178163797,"R"
152900,"1339 S PLEASANT HILL GATE","WAUKEGAN","IL",60085,42.338650032,-87.910385037,400,"1339 S PLEASANT HILL GATE, WAUKEGAN, IL, 60085","Match","Exact","1339 S PLEASANT HILL GATE, WAUKEGAN, IL, 60085",119698414,"R"
152901,"1339 S THROOP","CHICAGO","IL",60608,41.8641090420001,-87.659033517,401,"1339 S THROOP, CHICAGO, IL, 60608","Match","Non_Exact","1339 S THROOP ST, CHICAGO, IL, 60608",111802959,"L"
152902,"1339 S WOOD ST","CHICAGO","IL",60608,41.8639875650001,-87.6712609209999,402,"1339 S WOOD ST, CHICAGO, IL, 60608","Match","Exact","1339 S WOOD ST, CHICAGO, IL, 60608",605034980,"L"
152903,"1339 SARGENT AVE","SAINT PAUL","MN",55105,44.9350054070001,-93.156630332,403,"1339 SARGENT AVE, SAINT PAUL, MN, 55105","Match","Exact","1339 SARGENT AVE, SAINT PAUL, MN, 55105",97646474,"R"
152904,"1339 SCHWERNER COURT","PITTSBURGH","PA",15206,40.471697174,-79.899466795,404,"1339 SCHWERNER COURT, PITTSBURGH, PA, 15206","Match","Exact","1339 SCHWERNER CT, PITTSBURGH, PA, 15206",632118943,"L"
152905,"1339 SCONSETT WAY","NEW CUMBERLAND","PA",17070,40.221170579,-76.873284305,405,"1339 SCONSETT WAY, NEW CUMBERLAND, PA, 17070","Match","Exact","1339 SCONSETT WAY, NEW CUMBERLAND, PA, 17070",628861079,"R"
152906,"1339 SE 116TH CT","VANCOUVER","WA",98683,45.611834711,-122.550654357,406,"1339 SE 116TH CT, VANCOUVER, WA, 98683","Match","Exact","1339 SE 116TH CT, VANCOUVER, WA, 98683",158371309,"L"
152907,"1339 SHANNON LN","XENIA","OH",45385,39.6590024480001,-83.979657861,407,"1339 SHANNON LN, XENIA, OH, 45385","Match","Exact","1339 SHANNON LN, XENIA, OH, 45385",143420451,"R"
152908,"1339 SHERNURNE AVENEU","ST. PAUL","MN",55104,NA,NA,408,"1339 SHERNURNE AVENEU, ST. PAUL, MN, 55104","No_Match",NA,NA,NA,NA
152909,"1339 SMYTHE STREET","DANIEL ISLAND","SC",29492,32.8437803890001,-79.9051915049999,409,"1339 SMYTHE STREET, DANIEL ISLAND, SC, 29492","Match","Exact","1339 SMYTHE ST, DANIEL ISLAND, SC, 29492",617585052,"R"
152910,"1339 SOMERSET ROAD","TEANECK","NJ",7666,40.9044694200001,-74.021137675,410,"1339 SOMERSET ROAD, TEANECK, NJ, 7666","Match","Exact","1339 SOMERSET RD, TEANECK, NJ, 07666",64388749,"R"
152911,"1339 UNION ST","SCHENECTADY","NY",12308,42.8097854600001,-73.918123238,411,"1339 UNION ST, SCHENECTADY, NY, 12308","Match","Exact","1339 UNION ST, SCHENECTADY, NY, 12308",18029334,"L"
152912,"1339 VEACH STREET","KINGMAN","KS",67068,37.6554456380001,-98.110942514,412,"1339 VEACH STREET, KINGMAN, KS, 67068","Match","Non_Exact","1339 N VEACH ST, KINGMAN, KS, 67068",160947821,"L"
152913,"1339 W 35TH PLACE - UNIT 3","LOS ANGELES","CA",90007,34.0236913320001,-118.298439564,413,"1339 W 35TH PLACE - UNIT 3, LOS ANGELES, CA, 90007","Match","Non_Exact","1339 W 35TH PL, LOS ANGELES, CA, 90007",141606155,"R"
152914,"1339 W ALBION AVE APT 3W","CHICAGO","IL",60626,42.002425852,-87.665024703,414,"1339 W ALBION AVE APT 3W, CHICAGO, IL, 60626","Match","Non_Exact","1339 W ALBION AVE, CHICAGO, IL, 60626",605166116,"L"
152915,"1339 W WHEATLAND RAOD APT 238","DALLAS","TX",75232,NA,NA,415,"1339 W WHEATLAND RAOD APT 238, DALLAS, TX, 75232","No_Match",NA,NA,NA,NA
152916,"1339 WASHINGTON AVENUE","BRONX","NY",10458,40.8339837670001,-73.905399318,416,"1339 WASHINGTON AVENUE, BRONX, NY, 10458","Match","Non_Exact","1339 WASHINGTON AVE, BRONX, NY, 10456",80301284,"L"
152917,"1339 WATER STREET","BLUE ISLAND","IL",60406,NA,NA,417,"1339 WATER STREET, BLUE ISLAND, IL, 60406","No_Match",NA,NA,NA,NA
152918,"1339 WESLEYAN AVENUE","WALNUT","CA",91789,34.0413498230001,-117.858517898,418,"1339 WESLEYAN AVENUE, WALNUT, CA, 91789","Match","Exact","1339 WESLEYAN AVE, WALNUT, CA, 91789",141728314,"L"
152919,"1339 WEST 112TH STREET","CLEVELAND","OH",44102,41.4842763410001,-81.764360456,419,"1339 WEST 112TH STREET, CLEVELAND, OH, 44102","Match","Exact","1339 W 112TH ST, CLEVELAND, OH, 44102",61178411,"L"
152920,"1339 WILSHIRE DR","STAYTON","OR",97383,44.805534858,-122.807616056,420,"1339 WILSHIRE DR, STAYTON, OR, 97383","Match","Exact","1339 WILSHIRE DR, STAYTON, OR, 97383",613674354,"L"
152921,"1339 WINDSOR DR","KISSIMMEE","FL",34741,28.3235293990001,-81.4175855519999,421,"1339 WINDSOR DR, KISSIMMEE, FL, 34741","Match","Exact","1339 WINDSOR DR, KISSIMMEE, FL, 34741",176677650,"R"
152922,"1339","GRAND RAPIDS","MI",49503,NA,NA,422,"1339, GRAND RAPIDS, MI, 49503","No_Match",NA,NA,NA,NA
152923,"13390 SOUTHWIND COURT","CARROLLTON","VA",23314,36.9545979440001,-76.524155172,423,"13390 SOUTHWIND COURT, CARROLLTON, VA, 23314","Match","Exact","13390 SOUTHWIND CT, CARROLLTON, VA, 23314",614120856,"R"
152924,"13390 SUNSET","MESA","AZ",85086,NA,NA,424,"13390 SUNSET, MESA, AZ, 85086","No_Match",NA,NA,NA,NA
152925,"13391 47TH ST","CLEAR LAKE","MN",55319,45.5013902840001,-93.885382498,425,"13391 47TH ST, CLEAR LAKE, MN, 55319","Match","Exact","13391 47TH ST, CLEAR LAKE, MN, 55319",97762588,"L"
152926,"13391 CEDAR HAMMOCK WAY","JACKSONVILLE","FL",32226,30.4763454170001,-81.554562559,426,"13391 CEDAR HAMMOCK WAY, JACKSONVILLE, FL, 32226","Match","Exact","13391 CEDAR HAMMOCK WAY, JACKSONVILLE, FL, 32226",650044507,"R"
152927,"13391 SOUTH NORFOLK","DETROIT","MI",48235,42.442889075,-83.178928675,427,"13391 SOUTH NORFOLK, DETROIT, MI, 48235","Match","Non_Exact","13391 S NORFOLK CT, DETROIT, MI, 48235",95502331,"L"
152928,"13391 WENTWORTH ST","ARLETA","CA",91331,34.2273318360001,-118.424583476,428,"13391 WENTWORTH ST, ARLETA, CA, 91331","Match","Exact","13391 WENTWORTH ST, ARLETA, CA, 91331",640414068,"R"
152929,"13392 41ST LANE NORTH","WEST PALM BEACH","FL",33411,26.738274071,-80.251061764,429,"13392 41ST LANE NORTH, WEST PALM BEACH, FL, 33411","Match","Exact","13392 41ST LN N, WEST PALM BEACH, FL, 33411",115548035,"L"
152930,"13392 BIRKENHEAD ST","CARMEL","IN",46032,39.9815757150001,-86.197091068,430,"13392 BIRKENHEAD ST, CARMEL, IN, 46032","Match","Exact","13392 BIRKENHEAD ST, CARMEL, IN, 46032",231602064,"L"
152931,"13392 BRAINWOOD","WARREN","MI",48089,42.4845414530001,-82.9884077679999,431,"13392 BRAINWOOD, WARREN, MI, 48089","Match","Non_Exact","13392 BRAINWOOD AVE, WARREN, MI, 48089",110677902,"R"
152932,"13392 N 6TH AVENUE","BOISE","ID",83714,43.7253168670001,-116.254269283,432,"13392 N 6TH AVENUE, BOISE, ID, 83714","Match","Exact","13392 N 6TH AVE, BOISE, ID, 83714",633030474,"R"
152933,"13393 CLOVERLAWN","STERLING HEIGHTS","MI",48312,42.5766676000001,-82.99269391,433,"13393 CLOVERLAWN, STERLING HEIGHTS, MI, 48312","Match","Non_Exact","13393 CLOVERLAWN DR, STERLING HEIGHTS, MI, 48312",110673506,"L"
152934,"13393 ERSTCROFT","PICKERINGTON","OH",43147,NA,NA,434,"13393 ERSTCROFT, PICKERINGTON, OH, 43147","No_Match",NA,NA,NA,NA
152935,"13393 SOUTH NORFOLK","DETOIRT","MI",48235,42.442888855,-83.178939204,435,"13393 SOUTH NORFOLK, DETOIRT, MI, 48235","Match","Non_Exact","13393 S NORFOLK CT, DETROIT, MI, 48235",95502331,"L"
152936,"13393 TERRAZA PLAYA CANCUN","SAN DIEGO","CA",92124,32.838549329,-117.083389021,436,"13393 TERRAZA PLAYA CANCUN, SAN DIEGO, CA, 92124","Match","Exact","13393 TERRAZA PLAYA CANCUN, SAN DIEGO, CA, 92124",195662862,"L"
152937,"13393 THUNDERBIRD ST","SAN DIEGO","CA",92129,NA,NA,437,"13393 THUNDERBIRD ST, SAN DIEGO, CA, 92129","No_Match",NA,NA,NA,NA
152938,"13394 110TH ST","GLENCOE","MN",55336,44.7751900710001,-94.26390374,438,"13394 110TH ST, GLENCOE, MN, 55336","Match","Exact","13394 110TH ST, GLENCOE, MN, 55336",36813393,"L"
152939,"13394 ETIENNE RD","GONZALES","LA",70737,30.2659783440001,-90.896987977,439,"13394 ETIENNE RD, GONZALES, LA, 70737","Match","Exact","13394 ETIENNE RD, GONZALES, LA, 70737",115034845,"R"
152940,"13394 HARRYBERRY LANE","KING GEORGE","VA",22485,38.3560482130001,-77.110725112,440,"13394 HARRYBERRY LANE, KING GEORGE, VA, 22485","Match","Exact","13394 HARRYBERRY LN, KING GEORGE, VA, 22485",618236060,"R"
152941,"13394 SW 26TH STREET","MIRAMAR","FL",33027,25.984545122,-80.316725413,441,"13394 SW 26TH STREET, MIRAMAR, FL, 33027","Match","Exact","13394 SW 26TH ST, MIRAMAR, FL, 33027",114798076,"L"
152942,"13394 TELEGRAPH RD","WOODBRIDGE","VA",22192,38.660099513,-77.285989786,442,"13394 TELEGRAPH RD, WOODBRIDGE, VA, 22192","Match","Exact","13394 TELEGRAPH RD, WOODBRIDGE, VA, 22192",207163088,"R"
152943,"13394 WINTER PARK STREET","VICTORVILLE","CA",92394,34.5279462300001,-117.371772584,443,"13394 WINTER PARK STREET, VICTORVILLE, CA, 92394","Match","Exact","13394 WINTER PARK ST, VICTORVILLE, CA, 92394",144754209,"L"
152944,"13395 COPPERMINE RD APT 404","HERNDON","VA",20171,38.946598678,-77.409398398,444,"13395 COPPERMINE RD APT 404, HERNDON, VA, 20171","Match","Exact","13395 COPPERMINE RD, HERNDON, VA, 20171",76039037,"R"
152945,"13395 ROLLING HILLS DR","BEAUMONT","TX",77713,30.1573083700001,-94.266863173,445,"13395 ROLLING HILLS DR, BEAUMONT, TX, 77713","Match","Exact","13395 ROLLING HILLS DR, BEAUMONT, TX, 77713",73847236,"L"
152946,"13395 RUSHING WATER WAY","GERMAN TOWN","MD",20874,39.1595645420001,-77.274132946,446,"13395 RUSHING WATER WAY, GERMAN TOWN, MD, 20874","Match","Non_Exact","13395 RUSHING WATER WAY, GERMANTOWN, MD, 20874",62104230,"L"
152947,"13395 SAN MARCOS PLACE","CHINO","CA",91710,34.0099981440001,-117.711924247,447,"13395 SAN MARCOS PLACE, CHINO, CA, 91710","Match","Exact","13395 SAN MARCOS PL, CHINO, CA, 91710",144670857,"L"
152948,"13395 SW 200TH STREET","MIAMI","FL",33177,25.5807792320001,-80.409001038,448,"13395 SW 200TH STREET, MIAMI, FL, 33177","Match","Exact","13395 SW 200TH ST, MIAMI, FL, 33177",625248698,"R"
152949,"13395 VOYAGER PARKWAY SUITE 130","COLORADO SPRINGS","CO",80921,NA,NA,449,"13395 VOYAGER PARKWAY SUITE 130, COLORADO SPRINGS, CO, 80921","No_Match",NA,NA,NA,NA
152950,"13395 VOYAGER PARKWAY","COLORADO SPRINGS","CO",80921,NA,NA,450,"13395 VOYAGER PARKWAY, COLORADO SPRINGS, CO, 80921","No_Match",NA,NA,NA,NA
152951,"13395 VOYAGER PKWY STE130 PMB 2008","COLORADO SPRINGS","CO",80921,NA,NA,451,"13395 VOYAGER PKWY STE130 PMB 2008, COLORADO SPRINGS, CO, 80921","No_Match",NA,NA,NA,NA
152952,"13396 ANTLER DRIVE","MABEL","MN",55954,43.549624076,-91.734829151,452,"13396 ANTLER DRIVE, MABEL, MN, 55954","Match","Non_Exact","13396 ANTLER RD, MABEL, MN, 55954",608276305,"L"
152953,"13396 HARPER PL","FONTANA","CA",92336,34.112886991,-117.513400883,453,"13396 HARPER PL, FONTANA, CA, 92336","Match","Exact","13396 HARPER PL, FONTANA, CA, 92336",145000882,"L"
152954,"13397 MARCELLA BLVD","LOXAHATCHEE","FL",33470,26.6918811150001,-80.256367607,454,"13397 MARCELLA BLVD, LOXAHATCHEE, FL, 33470","Match","Exact","13397 MARCELLA BLVD, LOXAHATCHEE, FL, 33470",115354916,"R"
152955,"13397 PROSPECTOR RIDEGE RD","MONROE","WA",98272,47.87591379,-122.006473831,455,"13397 PROSPECTOR RIDEGE RD, MONROE, WA, 98272","Match","Non_Exact","13397 PROSPECTORS RIDGE RD, MONROE, WA, 98272",639687101,"R"
152956,"13397 SHADOW RIDGE LANE","PEARLAND","TX",77584,29.5569137430001,-95.4279964519999,456,"13397 SHADOW RIDGE LANE, PEARLAND, TX, 77584","Match","Exact","13397 SHADOW RIDGE LN, PEARLAND, TX, 77584",642944554,"L"
152957,"13398 BAVARIAN DRIVE","SAN DIEGO","CA",92129,32.961546545,-117.139280289,457,"13398 BAVARIAN DRIVE, SAN DIEGO, CA, 92129","Match","Exact","13398 BAVARIAN DR, SAN DIEGO, CA, 92129",195317923,"L"
152958,"13398 NEWCASTLE COMMONS DR APT 524","NEWCASTLE","WA",98059,47.5435916710001,-122.160936817,458,"13398 NEWCASTLE COMMONS DR APT 524, NEWCASTLE, WA, 98059","Match","Exact","13398 NEWCASTLE COMMONS DR, NEWCASTLE, WA, 98059",650889044,"L"
152959,"13398 NEWCASTLE COMMONS DRIVE","NEWCASTLE","WA",98059,47.5435916710001,-122.160936817,459,"13398 NEWCASTLE COMMONS DRIVE, NEWCASTLE, WA, 98059","Match","Exact","13398 NEWCASTLE COMMONS DR, NEWCASTLE, WA, 98059",650889044,"L"
152960,"13398 NEWCASTLE DR","NEWCASTLE","WA",98059,NA,NA,460,"13398 NEWCASTLE DR, NEWCASTLE, WA, 98059","No_Match",NA,NA,NA,NA
152961,"13399 FRIENDSHIP RD","CHILHOWIE","VA",24319,36.759528177,-81.714123649,461,"13399 FRIENDSHIP RD, CHILHOWIE, VA, 24319","Match","Exact","13399 FRIENDSHIP RD, CHILHOWIE, VA, 24319",154364364,"R"
152962,"13399 SPRING WATER DR","GULFPORT","MS",39503,30.475116476,-89.1992977199999,462,"13399 SPRING WATER DR, GULFPORT, MS, 39503","Match","Exact","13399 SPRING WATER DR, GULFPORT, MS, 39503",624767509,"L"
152963,"13399 W COAL MINE AVE","LITTLETON","CO",80127,39.607453074,-105.148500069,463,"13399 W COAL MINE AVE, LITTLETON, CO, 80127","Match","Exact","13399 W COAL MINE AVE, LITTLETON, CO, 80127",646886730,"L"
152964,"133A EAGLE CREEK DR","PORTSMOUTH","OH",45662,38.804904573,-82.977852506,464,"133A EAGLE CREEK DR, PORTSMOUTH, OH, 45662","Match","Exact","133 EAGLE CREEK DR, PORTSMOUTH, OH, 45662",55121443,"L"
152965,"133A EAGLE CREEK DRIVE","PORTSMOUTH","OH",45661,38.804904573,-82.977852506,465,"133A EAGLE CREEK DRIVE, PORTSMOUTH, OH, 45661","Match","Non_Exact","133 EAGLE CREEK DR, PORTSMOUTH, OH, 45662",55121443,"L"
152966,"133A EAGLE CREEK DRIVE","PORTSMOUTH","OH",45662,38.804904573,-82.977852506,466,"133A EAGLE CREEK DRIVE, PORTSMOUTH, OH, 45662","Match","Exact","133 EAGLE CREEK DR, PORTSMOUTH, OH, 45662",55121443,"L"
152967,"133A OAK RIDGE CIRCLE","OAK CREEK","CO",80467,40.2703992410001,-106.955936741,467,"133A OAK RIDGE CIRCLE, OAK CREEK, CO, 80467","Match","Exact","133 OAK RIDGE CIR, OAK CREEK, CO, 80467",640078421,"L"
152968,"133B EAST MAIN STREET","LAKE CITY","SC",29560,33.8724381010001,-79.7540354939999,468,"133B EAST MAIN STREET, LAKE CITY, SC, 29560","Match","Exact","133 E MAIN ST, LAKE CITY, SC, 29560",28871682,"L"
152969,"133Z BO SANTANA","ARECIBO","PR",612,NA,NA,469,"133Z BO SANTANA, ARECIBO, PR, 612","No_Match",NA,NA,NA,NA
152970,"134    S OAR LOOP SW","OCEAN SHORES","WA",98569,46.9832306960001,-124.160537794,470,"134    S OAR LOOP SW, OCEAN SHORES, WA, 98569","Match","Exact","134 S OAR LOOP SW, OCEAN SHORES, WA, 98569",180605999,"L"
152971,"134  15166 PLACE APT 12F","JAMACIA","NY",11434,NA,NA,471,"134  15166 PLACE APT 12F, JAMACIA, NY, 11434","No_Match",NA,NA,NA,NA
152972,"134  HANCOCK AVENUE 134A","ATHENS","GA",30605,33.885443518,-83.310185959,472,"134  HANCOCK AVENUE 134A, ATHENS, GA, 30605","Match","Non_Exact","134 HANCOCK LN, ATHENS, GA, 30605",4804898,"L"
152973,"134 -29 166 PLACE APT 1D","JAMAICA","NY",11434,NA,NA,473,"134 -29 166 PLACE APT 1D, JAMAICA, NY, 11434","Tie",NA,NA,NA,NA
152974,"134 1/2 NORTH FULTON STREET APT 3","WAUSEON","OH",43567,41.5485516460001,-84.141351567,474,"134 1/2 NORTH FULTON STREET APT 3, WAUSEON, OH, 43567","Match","Exact","134 N FULTON ST, WAUSEON, OH, 43567",32838524,"R"
152975,"134 1/2 TOPAZ AVENUE","NEWPORT BEACH","CA",92662,33.60517714,-117.896885651,475,"134 1/2 TOPAZ AVENUE, NEWPORT BEACH, CA, 92662","Match","Exact","134 TOPAZ AVE, NEWPORT BEACH, CA, 92662",144049977,"R"
152976,"134 1/2 WEST ATWOOD STREET","GALION","OH",44833,40.7310777930001,-82.790183704,476,"134 1/2 WEST ATWOOD STREET, GALION, OH, 44833","Match","Exact","134 W ATWOOD ST, GALION, OH, 44833",12076607,"R"
152977,"134 10TH ST","GREENFIELD","CA",93927,36.318741065,-121.244629761,477,"134 10TH ST, GREENFIELD, CA, 93927","Match","Exact","134 10TH ST, GREENFIELD, CA, 93927",196804018,"R"
152978,"134 113TH ST","OROFINO","ID",83544,46.4952871350001,-116.298160207,478,"134 113TH ST, OROFINO, ID, 83544","Match","Exact","134 113TH ST, OROFINO, ID, 83544",201686993,"R"
152979,"134 15 166TH PLACE APT 7-G","JAMAICA QUEENS","NY",11434,NA,NA,479,"134 15 166TH PLACE APT 7-G, JAMAICA QUEENS, NY, 11434","No_Match",NA,NA,NA,NA
152980,"134 1ST STREET M","SEAL BEACH","CA",90740,33.744064619,-118.11239667,480,"134 1ST STREET M, SEAL BEACH, CA, 90740","Match","Exact","134 1ST ST, SEAL BEACH, CA, 90740",609056973,"R"
152981,"134 3RD AVE","GALLIPOLIS","OH",45631,38.8053085280001,-82.2116287329999,481,"134 3RD AVE, GALLIPOLIS, OH, 45631","Match","Exact","134 3RD AVE, GALLIPOLIS, OH, 45631",54944218,"L"
152982,"134 5TH ST","GALT","CA",95632,38.254359289,-121.304882154,482,"134 5TH ST, GALT, CA, 95632","Match","Exact","134 5TH ST, GALT, CA, 95632",133316938,"R"
152983,"134 6TH STREET NW","PULASKI","VA",24301,37.052444408,-80.7829481159999,483,"134 6TH STREET NW, PULASKI, VA, 24301","Match","Exact","134 6TH ST NW, PULASKI, VA, 24301",47023825,"R"
152984,"134 8TH AVE SW","CHOTEAU","MT",59422,47.8071250770001,-112.190132799,484,"134 8TH AVE SW, CHOTEAU, MT, 59422","Match","Exact","134 8TH AVE SW, CHOTEAU, MT, 59422",202608059,"L"
152985,"134 ABBOTSFORD DR","SIMPSONVILLE","SC",29681,34.7523133990001,-82.254224372,485,"134 ABBOTSFORD DR, SIMPSONVILLE, SC, 29681","Match","Exact","134 ABBOTSFORD DR, SIMPSONVILLE, SC, 29681",38312632,"L"
152986,"134 ABE MYERS ROAD","HEDGESVILLE","WV",25427,NA,NA,486,"134 ABE MYERS ROAD, HEDGESVILLE, WV, 25427","No_Match",NA,NA,NA,NA
152987,"134 ADAMS RD","CANDIA","NH",3034,43.054166599,-71.3047243899999,487,"134 ADAMS RD, CANDIA, NH, 3034","Match","Exact","134 ADAMS RD, CANDIA, NH, 03034",113668957,"R"
152988,"134 ADAMS ROAD","DE QUEEN","AR",71832,34.048892418,-94.234292286,488,"134 ADAMS ROAD, DE QUEEN, AR, 71832","Match","Exact","134 ADAMS RD, DE QUEEN, AR, 71832",630197475,"R"
152989,"134 ADAMS","TROY","AL",36082,NA,NA,489,"134 ADAMS, TROY, AL, 36082","No_Match",NA,NA,NA,NA
152990,"134 ALAMEDA STREET","ROCHESTER","NY",14613,43.1871040140001,-77.634445683,490,"134 ALAMEDA STREET, ROCHESTER, NY, 14613","Match","Exact","134 ALAMEDA ST, ROCHESTER, NY, 14613",14531852,"R"
152991,"134 ALAN DRIVE","NEWPORT NEWS","VA",23602,37.1281341650001,-76.526803888,491,"134 ALAN DRIVE, NEWPORT NEWS, VA, 23602","Match","Exact","134 ALAN DR, NEWPORT NEWS, VA, 23602",103751073,"R"
152992,"134 AMMAD LN","ST STEPHEN","SC",29479,33.4360984890001,-79.953335877,492,"134 AMMAD LN, ST STEPHEN, SC, 29479","Match","Exact","134 AMMAD LN, SAINT STEPHEN, SC, 29479",100779750,"R"
152993,"134 APPLE ORCHARD RD","WOOTON","KY",41776,37.1333002120001,-83.3148265139999,493,"134 APPLE ORCHARD RD, WOOTON, KY, 41776","Match","Non_Exact","134 APPLE ORCHARD DR, WOOTON, KY, 41776",88013210,"L"
152994,"134 ARCHERY CLUB ROAD","NEW RINGGOLD","PA",17960,40.7201857430001,-75.947412696,494,"134 ARCHERY CLUB ROAD, NEW RINGGOLD, PA, 17960","Match","Exact","134 ARCHERY CLUB RD, NEW RINGGOLD, PA, 17960",70957655,"L"
152995,"134 ARGILLA ROAD","IPSWICH","MA",1938,42.666006112,-70.8013816719999,495,"134 ARGILLA ROAD, IPSWICH, MA, 1938","Match","Exact","134 ARGILLA RD, IPSWICH, MA, 01938",86663617,"R"
152996,"134 ASPEN DR","BEAEVR","PA",15009,40.684933265,-80.3678729489999,496,"134 ASPEN DR, BEAEVR, PA, 15009","Match","Non_Exact","134 ASPEN DR, BEAVER, PA, 15009",635781324,"R"
152997,"134 AVIS","WINNSBORO","LA",71295,32.159150271,-91.684374898,497,"134 AVIS, WINNSBORO, LA, 71295","Match","Non_Exact","134 AVIS ST, WINNSBORO, LA, 71295",160861724,"L"
152998,"134 B ENCLAVE CIRCLE","BOLINGBROOK","IL",60440,41.699452416,-88.064223144,498,"134 B ENCLAVE CIRCLE, BOLINGBROOK, IL, 60440","Match","Exact","134 ENCLAVE CIR, BOLINGBROOK, IL, 60440",111624005,"L"
152999,"134 BAKER ROAD","MCDONALD","PA",15057,40.3372632100001,-80.284163002,499,"134 BAKER ROAD, MCDONALD, PA, 15057","Match","Non_Exact","134 BAKER RD, MC DONALD, PA, 15057",52791678,"R"
153000,"134 BALBOA DR","SPRINGFIELD","MA",1119,42.1107829310001,-72.507301239,500,"134 BALBOA DR, SPRINGFIELD, MA, 1119","Match","Exact","134 BALBOA DR, SPRINGFIELD, MA, 01119",4037566,"L"
