"ID","Address","City","State","Zip","lat","long","id","input_address","match_indicator","match_type","matched_address","tiger_line_id","tiger_side"
892501,"837 TAMARACK COURT","VIRGINIA BEACH","VA",23462,36.812844082,-76.1171156029999,1,"837 TAMARACK COURT, VIRGINIA BEACH, VA, 23462","Match","Exact","837 TAMARACK CT, VA BCH, VA, 23462",122296671,"R"
892502,"837 TAMARIND CIRCLE","BARBERTON","OH",44203,41.00587204,-81.575383833,2,"837 TAMARIND CIRCLE, BARBERTON, OH, 44203","Match","Exact","837 TAMARIND CIR, BARBERTON, OH, 44203",61343718,"L"
892503,"837 TODD AVENUE","ELLWOOD CITY","PA",16117,40.865144555,-80.29448051,3,"837 TODD AVENUE, ELLWOOD CITY, PA, 16117","Match","Exact","837 TODD AVE, ELLWOOD CITY, PA, 16117",65198490,"R"
892504,"837 UINTA STREET","EVANSTON","WY",82930,41.2628837180001,-110.968867382,4,"837 UINTA STREET, EVANSTON, WY, 82930","Match","Exact","837 UINTA ST, EVANSTON, WY, 82930",160260051,"L"
892505,"837 US HIGHWAY 68 WEST","BENTON","KY",42025,36.9347740910001,-88.354989723,5,"837 US HIGHWAY 68 WEST, BENTON, KY, 42025","Match","Non_Exact","837 US HWY 68 W, BENTON, KY, 42025",99518109,"L"
892506,"837 VERA LN","WHEELING","IL",60090,42.1288162430001,-87.938060074,6,"837 VERA LN, WHEELING, IL, 60090","Match","Exact","837 VERA LN, WHEELING, IL, 60090",639821575,"L"
892507,"837 VISTA DEL SOL LANE","PANAMA CITY","FL",32404,30.1288668450001,-85.529370254,7,"837 VISTA DEL SOL LANE, PANAMA CITY, FL, 32404","Match","Exact","837 VISTA DEL SOL LN, PANAMA CITY, FL, 32404",614890909,"L"
892508,"837 W CUMBERLAND CT","ST JOHNS","FL",32259,30.109562474,-81.586120237,8,"837 W CUMBERLAND CT, ST JOHNS, FL, 32259","Match","Exact","837 W CUMBERLAND CT, SAINT JOHNS, FL, 32259",92609887,"L"
892509,"837 W KIOWA RD","PRAIRIE VIEW","KS",67664,39.857395367,-99.484733849,9,"837 W KIOWA RD, PRAIRIE VIEW, KS, 67664","Match","Exact","837 W KIOWA RD, PRAIRIE VIEW, KS, 67664",193908518,"R"
892510,"837 W MAUMEE ST","ADRIAN","MI",49221,41.8999386670001,-84.050297501,10,"837 W MAUMEE ST, ADRIAN, MI, 49221","Match","Exact","837 W MAUMEE ST, ADRIAN, MI, 49221",25942957,"R"
892511,"837 WALKER AVE","RENO","NV",89509,39.513784408,-119.819196545,11,"837 WALKER AVE, RENO, NV, 89509","Match","Exact","837 WALKER AVE, RENO, NV, 89509",107045103,"R"
892512,"837 WALLOWA DR","WALLA WALLA","WA",99362,46.04765861,-118.316379424,12,"837 WALLOWA DR, WALLA WALLA, WA, 99362","Match","Exact","837 WALLOWA DR, WALLA WALLA, WA, 99362",174687962,"R"
892513,"837 WASHINGTON AVENUE APT 6F","BRONX","NY",10451,40.8223638320001,-73.9116408679999,13,"837 WASHINGTON AVENUE APT 6F, BRONX, NY, 10451","Match","Exact","837 WASHINGTON AVE, BRONX, NY, 10451",80311199,"L"
892514,"837 WEST 109TH PLACE","LOS ANGELES","CA",90044,33.936456918,-118.290237738,14,"837 WEST 109TH PLACE, LOS ANGELES, CA, 90044","Match","Exact","837 W 109TH PL, LOS ANGELES, CA, 90044",141661534,"R"
892515,"837 WEST EUCLID","DETROIT","MI",48202,42.3748184660001,-83.084315235,15,"837 WEST EUCLID, DETROIT, MI, 48202","Match","Non_Exact","837 W EUCLID ST, DETROIT, MI, 48202",95475480,"L"
892516,"837 WEST MAIN STREET","SYCAMORE","SC",29846,NA,NA,16,"837 WEST MAIN STREET, SYCAMORE, SC, 29846","No_Match",NA,NA,NA,NA
892517,"837 WICKHAM LN","COLUMBIA","SC",29229,34.1677289740001,-80.944892707,17,"837 WICKHAM LN, COLUMBIA, SC, 29229","Match","Exact","837 WICKHAM LN, COLUMBIA, SC, 29229",632171975,"L"
892518,"837 WOOD TERRACE COURT","ATLANTA","GA",30340,33.9015953690001,-84.23390266,18,"837 WOOD TERRACE COURT, ATLANTA, GA, 30340","Match","Non_Exact","837 WOOD TERRACE CIR, ATLANTA, GA, 30340",23401233,"R"
892519,"837-A N KEENE RD","CLEARWATER","FL",33755,27.9736420690001,-82.763151814,19,"837-A N KEENE RD, CLEARWATER, FL, 33755","Match","Exact","837 N KEENE RD, CLEARWATER, FL, 33755",124780881,"R"
892520,"837","NEW PHILADELPHIA","OH",44663,NA,NA,20,"837, NEW PHILADELPHIA, OH, 44663","No_Match",NA,NA,NA,NA
892521,"837","STATEN ISLAND","NY",10314,NA,NA,21,"837, STATEN ISLAND, NY, 10314","No_Match",NA,NA,NA,NA
892522,"8370 BENHAM ST NE","CEDAR SPRINGS","MI",49319,43.197795844,-85.461357216,22,"8370 BENHAM ST NE, CEDAR SPRINGS, MI, 49319","Match","Exact","8370 BENHAM ST NE, CEDAR SPRINGS, MI, 49319",12447819,"R"
892523,"8370 BRADFORD RD NW","CONCORD","NC",28027,35.449675128,-80.718909885,23,"8370 BRADFORD RD NW, CONCORD, NC, 28027","Match","Non_Exact","8370 BRADFORD RD, CONCORD, NC, 28027",24931282,"L"
892524,"8370 BRODERICK CIRCLE","GAITHERSBURG","MD",20877,NA,NA,24,"8370 BRODERICK CIRCLE, GAITHERSBURG, MD, 20877","No_Match",NA,NA,NA,NA
892525,"8370 CARLINGTON LN","JONESBORO","GA",30236,33.5277236210001,-84.340980137,25,"8370 CARLINGTON LN, JONESBORO, GA, 30236","Match","Non_Exact","8370 CARLINGTON ST, JONESBORO, GA, 30236",624970620,"R"
892526,"8370 COLUMBIA RD","OLMSTED FALLS","OH",44138,41.3703635950001,-81.902184582,26,"8370 COLUMBIA RD, OLMSTED FALLS, OH, 44138","Match","Exact","8370 COLUMBIA RD, OLMSTED FALLS, OH, 44138",61139933,"R"
892527,"8370 DRAYTON HALL DR","COLORADO SPRINGS","CO",80920,38.955299,-104.760555056,27,"8370 DRAYTON HALL DR, COLORADO SPRINGS, CO, 80920","Match","Exact","8370 DRAYTON HALL DR, CO SPGS, CO, 80920",105561140,"L"
892528,"8370 EVERGREEN RD","BRIGHTON","MI",48116,42.4803340140001,-83.742126427,28,"8370 EVERGREEN RD, BRIGHTON, MI, 48116","Match","Exact","8370 EVERGREEN RD, BRIGHTON, MI, 48116",23559088,"R"
892529,"8370 HWY 129","MONTEREY","LA",71354,31.4295769940001,-91.782569273,29,"8370 HWY 129, MONTEREY, LA, 71354","Match","Non_Exact","8370 STATE RTE 129, MONTEREY, LA, 71354",84877494,"L"
892530,"8370 LUMLEY ROAD","BEAR LAKE","MI",49614,44.47408569,-86.132471193,30,"8370 LUMLEY ROAD, BEAR LAKE, MI, 49614","Match","Exact","8370 LUMLEY RD, BEAR LAKE, MI, 49614",146030489,"R"
892531,"8370 MALLARD CIRCLE","PLAIN CITY","OH",43064,40.140989989,-83.197589137,31,"8370 MALLARD CIRCLE, PLAIN CITY, OH, 43064","Match","Exact","8370 MALLARD CIR, PLAIN CITY, OH, 43064",618731197,"L"
892532,"8370 N PONDERSODA PINE PL","TUCSON","AZ",85743,NA,NA,32,"8370 N PONDERSODA PINE PL, TUCSON, AZ, 85743","No_Match",NA,NA,NA,NA
892533,"8370 NW 21 STREET","SUNRISE","FL",33322,26.151155354,-80.260517572,33,"8370 NW 21 STREET, SUNRISE, FL, 33322","Match","Exact","8370 NW 21ST ST, SUNRISE, FL, 33322",114703611,"L"
892534,"8370 SANDSPOINT BLVD APT 108","TAMARAC","FL",33321,26.205308474,-80.263232686,34,"8370 SANDSPOINT BLVD APT 108, TAMARAC, FL, 33321","Match","Non_Exact","8370 SANDS POINT BLVD, TAMARAC, FL, 33321",114701604,"L"
892535,"8370 SOLANO ST","VENTURA","CA",93004,34.2828384050001,-119.18421553,35,"8370 SOLANO ST, VENTURA, CA, 93004","Match","Exact","8370 SOLANO ST, VENTURA, CA, 93004",110026402,"R"
892536,"8370 US HWY 82","SHERMAN","TX",75090,33.6528780840001,-96.521701158,36,"8370 US HWY 82, SHERMAN, TX, 75090","Match","Exact","8370 US HWY 82, SHERMAN, TX, 75090",634112747,"R"
892537,"8370 W ABBEY LN","WILHOIT","AZ",86332,34.423692739,-112.6087764,37,"8370 W ABBEY LN, WILHOIT, AZ, 86332","Match","Non_Exact","8370 W ABBY LN, KIRKLAND, AZ, 86332",608180997,"L"
892538,"8370 W CHATFIELD AVE","LITTLETON","CO",80128,39.56620682,-105.09186882,38,"8370 W CHATFIELD AVE, LITTLETON, CO, 80128","Match","Exact","8370 W CHATFIELD AVE, LITTLETON, CO, 80128",177324935,"L"
892539,"8370 W FLAGLER ST STE 238","MIAMI","FL",33144,25.769704801,-80.331518918,39,"8370 W FLAGLER ST STE 238, MIAMI, FL, 33144","Match","Non_Exact","8370 W FLAGLER ST, MIAMI, FL, 33144",115974345,"L"
892540,"83709 WATERFORD LANE","INDIO","CA",92203,33.7451908950001,-116.205519288,40,"83709 WATERFORD LANE, INDIO, CA, 92203","Match","Exact","83709 WATERFORD LN, INDIO, CA, 92203",608980467,"R"
892541,"8371 CENTER DRIVE","LANARK","IL",61046,42.0564162250001,-89.802270477,41,"8371 CENTER DRIVE, LANARK, IL, 61046","Match","Exact","8371 CENTER DR, LANARK, IL, 61046",619390971,"R"
892542,"8371 E CR 300 N","MOORELAND","IN",47360,39.975266113,-85.225076163,42,"8371 E CR 300 N, MOORELAND, IN, 47360","Match","Exact","8371 E CO RD 300 N, MOORELAND, IN, 47360",635606439,"R"
892543,"8371 E DIXIE HWY","MIAMI","FL",33130,NA,NA,43,"8371 E DIXIE HWY, MIAMI, FL, 33130","No_Match",NA,NA,NA,NA
892544,"8371 E DIXIE HWY","MIAMI","FL",33138,25.8526748580001,-80.180599145,44,"8371 E DIXIE HWY, MIAMI, FL, 33138","Match","Non_Exact","8371 E DIXIE HWY, MIAMI, FL, 33138",116006821,"R"
892545,"8371 HERMITAGE ROAD","PAINESVILLE","OH",44077,41.6434360430001,-81.262482732,45,"8371 HERMITAGE ROAD, PAINESVILLE, OH, 44077","Match","Exact","8371 HERMITAGE RD, PAINESVILLE, OH, 44077",137472549,"L"
892546,"8371 KENT DRIVE","EL CERRITO","CA",94530,37.9238400190001,-122.29796184,46,"8371 KENT DRIVE, EL CERRITO, CA, 94530","Match","Exact","8371 KENT DR, EL CERRITO, CA, 94530",192043503,"L"
892547,"8371 LOWER LAKE ROAD","CRESCENT CITY","CA",95531,41.897030747,-124.175715085,47,"8371 LOWER LAKE ROAD, CRESCENT CITY, CA, 95531","Match","Exact","8371 LOWER LAKE RD, CRESCENT CITY, CA, 95531",113177084,"R"
892548,"8371 MIDLAND BLVD","SAINT LOU8S","MO",63114,38.6953458200001,-90.33819594,48,"8371 MIDLAND BLVD, SAINT LOU8S, MO, 63114","Match","Non_Exact","8371 MIDLAND BLVD, SAINT LOUIS, MO, 63114",629167222,"R"
892549,"8371 ROBINSONS RD","LAUREL HILL","FL",32564,NA,NA,49,"8371 ROBINSONS RD, LAUREL HILL, FL, 32564","No_Match",NA,NA,NA,NA
892550,"8371 ROBINSONS ROAD","LAUREL HILL","FL",32564,NA,NA,50,"8371 ROBINSONS ROAD, LAUREL HILL, FL, 32564","No_Match",NA,NA,NA,NA
892551,"8371 SE 57TH ST","MERCER ISLAND","WA",98040,47.551698281,-122.227577359,51,"8371 SE 57TH ST, MERCER ISLAND, WA, 98040","Match","Exact","8371 SE 57TH ST, MERCER ISLAND, WA, 98040",642836470,"R"
892552,"8371 SEA BREEZE COURT","BLAINE","WA",98230,48.9457949540001,-122.785112558,52,"8371 SEA BREEZE COURT, BLAINE, WA, 98230","Match","Exact","8371 SEA BREEZE CT, BLAINE, WA, 98230",183777352,"L"
892553,"8371 STATE ROUTE 94E","MURRAY","KY",42071,NA,NA,53,"8371 STATE ROUTE 94E, MURRAY, KY, 42071","No_Match",NA,NA,NA,NA
892554,"8371 SUMMERSET DRIVE","ANCHORAGE","AK",99518,61.145268204,-149.897666803,54,"8371 SUMMERSET DRIVE, ANCHORAGE, AK, 99518","Match","Exact","8371 SUMMERSET DR, ANCHORAGE, AK, 99518",605170738,"L"
892555,"8372 BLACKMAN WAY","ELK GROVE","CA",95624,38.435548066,-121.394551674,55,"8372 BLACKMAN WAY, ELK GROVE, CA, 95624","Match","Exact","8372 BLACKMAN WAY, ELK GROVE, CA, 95624",133404932,"L"
892556,"8372 MORRIS ROAD","HILLIARD","OH",43026,39.998721754,-83.22969051,56,"8372 MORRIS ROAD, HILLIARD, OH, 43026","Match","Exact","8372 MORRIS RD, HILLIARD, OH, 43026",218689681,"L"
892557,"8372 N CORAL CICLE","NORTH LAUDERDALE","FL",33068,NA,NA,57,"8372 N CORAL CICLE, NORTH LAUDERDALE, FL, 33068","No_Match",NA,NA,NA,NA
892558,"8372 N CORAL CIRCLE","NORTH LAUDERDALE","FL",33068,26.206685952,-80.242567766,58,"8372 N CORAL CIRCLE, NORTH LAUDERDALE, FL, 33068","Match","Exact","8372 N CORAL CIR, N LAUDERDALE, FL, 33068",114751803,"L"
892559,"8372 NW 37 PL","SUNRISE","FL",33351,26.1726342310001,-80.262294157,59,"8372 NW 37 PL, SUNRISE, FL, 33351","Match","Exact","8372 NW 37TH PL, SUNRISE, FL, 33351",114748141,"L"
892560,"8372 PARKRIDGE DR","DEXTER","MI",48130,42.3453729670001,-83.889163205,60,"8372 PARKRIDGE DR, DEXTER, MI, 48130","Match","Exact","8372 PARKRIDGE DR, DEXTER, MI, 48130",26041417,"L"
892561,"8372 TRIMMER WAY","SACRAMENTO","CA",95828,38.460486723,-121.395924404,61,"8372 TRIMMER WAY, SACRAMENTO, CA, 95828","Match","Exact","8372 TRIMMER WAY, SACRAMENTO, CA, 95828",133373912,"L"
892562,"8373 ASHMONT WAY","MASON","OH",45040,39.3185018770001,-84.322614253,62,"8373 ASHMONT WAY, MASON, OH, 45040","Match","Exact","8373 ASHMONT WAY, MASON, OH, 45040",617731643,"R"
892563,"8373 BOCA GLADES BLVD EAST","BOCA RATON","FL",33434,26.370094469,-80.176143553,63,"8373 BOCA GLADES BLVD EAST, BOCA RATON, FL, 33434","Match","Exact","8373 BOCA GLADES BLVD E, BOCA RATON, FL, 33434",115484375,"L"
892564,"8373 E COUNTY 6TH STREET","YUMA","AZ",85365,32.7428983880001,-114.489624226,64,"8373 E COUNTY 6TH STREET, YUMA, AZ, 85365","Match","Exact","8373 E COUNTY 6TH ST, YUMA, AZ, 85365",650743148,"R"
892565,"8373 EAST STATEN LANE","CAMBY","IN",46113,39.6135227780001,-86.272781531,65,"8373 EAST STATEN LANE, CAMBY, IN, 46113","Match","Exact","8373 E STATEN LN, CAMBY, IN, 46113",43553005,"R"
892566,"8373 GREENBRIER RD","TALBOTT","TN",37877,36.1642921910001,-83.462323937,66,"8373 GREENBRIER RD, TALBOTT, TN, 37877","Match","Non_Exact","8373 GREENBRIAR RD, TALBOTT, TN, 37877",42222512,"L"
892567,"8373 HUNTERS RIDGE TRAIL","TALLAHASSEE","FL",32312,30.592589698,-84.245688312,67,"8373 HUNTERS RIDGE TRAIL, TALLAHASSEE, FL, 32312","Match","Exact","8373 HUNTERS RIDGE TRL, TALLAHASSEE, FL, 32312",82845867,"L"
892568,"8373 JERSEY AVE N","BROOKLYN PARK","MN",55445,45.1073151350001,-93.3695990269999,68,"8373 JERSEY AVE N, BROOKLYN PARK, MN, 55445","Match","Exact","8373 JERSEY AVE N, BROOKLYN PARK, MN, 55445",43828327,"L"
892569,"8373 SAM BASS ROAD","SANGER","TX",76266,33.3588080280001,-97.217067931,69,"8373 SAM BASS ROAD, SANGER, TX, 76266","Match","Exact","8373 SAM BASS RD, SANGER, TX, 76266",218053377,"L"
892570,"8373 SOUTH 100TH STREET","FRANKLIN","WI",53132,42.893041129,-88.039420638,70,"8373 SOUTH 100TH STREET, FRANKLIN, WI, 53132","Match","Exact","8373 S 100TH ST, FRANKLIN, WI, 53132",612191122,"R"
892571,"8373 TOPSAIL PLACE","WINTER GARDEN","FL",34787,28.4238692870001,-81.632667871,71,"8373 TOPSAIL PLACE, WINTER GARDEN, FL, 34787","Match","Exact","8373 TOPSAIL PL, WINTER GARDEN, FL, 34787",649051985,"L"
892572,"8373 WEST KINSEL HIGHWAY","VERMONTVILLE","MI",49096,42.596725549,-85.003883769,72,"8373 WEST KINSEL HIGHWAY, VERMONTVILLE, MI, 49096","Match","Exact","8373 W KINSEL HWY, VERMONTVILLE, MI, 49096",12040028,"R"
892573,"8374 ASHLEY HALL CT","WEST CHESTER","OH",45069,39.3389864230001,-84.350495983,73,"8374 ASHLEY HALL CT, WEST CHESTER, OH, 45069","Match","Exact","8374 ASHLEY HALL CT, WEST CHESTER, OH, 45069",113809780,"R"
892574,"8374 BAYTES DR","BRIGHTON","MI",48116,42.4807567390001,-83.759124822,74,"8374 BAYTES DR, BRIGHTON, MI, 48116","Match","Exact","8374 BAYTES DR, BRIGHTON, MI, 48116",23554334,"R"
892575,"8374 GLENWOODS TERRACE","RIVERDALE","GA",30274,33.5261287600001,-84.3986817539999,75,"8374 GLENWOODS TERRACE, RIVERDALE, GA, 30274","Match","Exact","8374 GLENWOODS TER, RIVERDALE, GA, 30274",23330592,"L"
892576,"8374 HODGE RD","KINGSLEY","MI",49649,44.564449129,-85.434499667,76,"8374 HODGE RD, KINGSLEY, MI, 49649","Match","Exact","8374 HODGE RD, KINGSLEY, MI, 49649",649487215,"L"
892577,"8374 INDEPENDENCE DRIVE","STERLING HEIGHTS","MI",48313,42.5881714340001,-83.0254620589999,77,"8374 INDEPENDENCE DRIVE, STERLING HEIGHTS, MI, 48313","Match","Exact","8374 INDEPENDENCE DR, STERLING HEIGHTS, MI, 48313",649924333,"R"
892578,"8374 JACK PINE DR","YPSILANTI","MI",48197,NA,NA,78,"8374 JACK PINE DR, YPSILANTI, MI, 48197","Tie",NA,NA,NA,NA
892579,"8374 MAN O WAR ROAD","PALM BEACH GARDENS","FL",33418,26.8010004610001,-80.1299590409999,79,"8374 MAN O WAR ROAD, PALM BEACH GARDENS, FL, 33418","Match","Exact","8374 MAN O WAR RD, PALM BEACH GARDENS, FL, 33418",115580165,"R"
892580,"8374 MAYNARD AVE","WEST HILLS","CA",91304,34.2214711170001,-118.622440196,80,"8374 MAYNARD AVE, WEST HILLS, CA, 91304","Match","Exact","8374 MAYNARD AVE, WEST HILLS, CA, 91304",141532417,"R"
892581,"8374 N RUDE","HAYDEN","ID",83835,47.7477552190001,-116.78340509,81,"8374 N RUDE, HAYDEN, ID, 83835","Match","Non_Exact","8374 N RUDE ST, HAYDEN, ID, 83835",192924021,"L"
892582,"8374 NORTHLAKE PKWY","ORLANDO","FL",32827,28.4207151750001,-81.270070683,82,"8374 NORTHLAKE PKWY, ORLANDO, FL, 32827","Match","Exact","8374 NORTHLAKE PKWY, ORLANDO, FL, 32827",627201930,"R"
892583,"8374 PARKER","ORWELL","OH",44076,41.5209449170001,-80.884601184,83,"8374 PARKER, ORWELL, OH, 44076","Match","Non_Exact","8374 PARKER RD, ORWELL, OH, 44076",612536368,"R"
892584,"8374 SILVERTHORN COVE","GERMANTOWN","TN",38139,35.0876109490001,-89.783185803,84,"8374 SILVERTHORN COVE, GERMANTOWN, TN, 38139","Match","Exact","8374 SILVERTHORN COVE, GERMANTOWN, TN, 38139",72932184,"L"
892585,"8374 STRIKE SWIFTLY ST","FORT BENNING","GA",31905,32.4102149190001,-84.918290927,85,"8374 STRIKE SWIFTLY ST, FORT BENNING, GA, 31905","Match","Non_Exact","8374 STRIKE SWIFTLY LOOP, FORT BENNING, GA, 31905",651787672,"R"
892586,"8375 ASHFORD ST","CONCORD TWP","OH",44077,41.6429716270001,-81.208851007,86,"8375 ASHFORD ST, CONCORD TWP, OH, 44077","Match","Exact","8375 ASHFORD ST, CONCORD TWP, OH, 44077",137472434,"L"
892587,"8375 COBBLESTONE COURT","EDEN","NY",14057,42.658588089,-78.878703235,87,"8375 COBBLESTONE COURT, EDEN, NY, 14057","Match","Exact","8375 COBBLESTONE CT, EDEN, NY, 14057",48342412,"L"
892588,"8375 CURRAN BLVD","NEW ORLEANS","LA",70126,30.0389015740001,-89.9984377069999,88,"8375 CURRAN BLVD, NEW ORLEANS, LA, 70126","Match","Non_Exact","8375 CURRAN RD, NEW ORLEANS, LA, 70126",191720453,"L"
892589,"8375 FAIRWAY RIDGE COURT","RENO","NV",89523,39.5316709030001,-119.929718113,89,"8375 FAIRWAY RIDGE COURT, RENO, NV, 89523","Match","Exact","8375 FAIRWAY RIDGE CT, RENO, NV, 89523",614105213,"R"
892590,"8375 HAWK NEST DRIVE","RICHMOND","VA",23227,37.640083862,-77.42819976,90,"8375 HAWK NEST DRIVE, RICHMOND, VA, 23227","Match","Exact","8375 HAWK NEST DR, RICHMOND, VA, 23227",624415937,"L"
892591,"8375 HOLLIS STREET","DOUGLASVILLE","GA",30134,33.751852055,-84.750944467,91,"8375 HOLLIS STREET, DOUGLASVILLE, GA, 30134","Match","Exact","8375 HOLLIS ST, DOUGLASVILLE, GA, 30134",16647358,"R"
892592,"8375 JUMPERS HOLE RD SUITE 203","MILLERSVILLE","MD",21108,39.1106181930001,-76.585478969,92,"8375 JUMPERS HOLE RD SUITE 203, MILLERSVILLE, MD, 21108","Match","Exact","8375 JUMPERS HOLE RD, MILLERSVILLE, MD, 21108",68211458,"L"
892593,"8375 KINMONT DRIVE","HENDERSON","KY",42420,NA,NA,93,"8375 KINMONT DRIVE, HENDERSON, KY, 42420","No_Match",NA,NA,NA,NA
892594,"8375 LOWER TRAILHEAD AVE","LAS VEGAS","NV",89113,36.0214616910001,-115.275323645,94,"8375 LOWER TRAILHEAD AVE, LAS VEGAS, NV, 89113","Match","Exact","8375 LOWER TRAILHEAD AVE, LAS VEGAS, NV, 89113",627246864,"L"
892595,"8375 LOWERTRAILHEAD","LAS VEGAS","NV",89113,36.0214616910001,-115.275323645,95,"8375 LOWERTRAILHEAD, LAS VEGAS, NV, 89113","Match","Non_Exact","8375 LOWER TRAILHEAD AVE, LAS VEGAS, NV, 89113",627246864,"L"
892596,"8375 MACY LANE","CLEVES","OH",45002,39.1718466,-84.7271577399999,96,"8375 MACY LANE, CLEVES, OH, 45002","Match","Exact","8375 MACY LN, CLEVES, OH, 45002",628859416,"R"
892597,"8375 OLIVIA LANE","SOUTHAVEN","MS",38672,NA,NA,97,"8375 OLIVIA LANE, SOUTHAVEN, MS, 38672","No_Match",NA,NA,NA,NA
892598,"8375 SILVER TRUMPET DRIVE","COLUMBIA","MD",21045,39.20582563,-76.8026102919999,98,"8375 SILVER TRUMPET DRIVE, COLUMBIA, MD, 21045","Match","Exact","8375 SILVER TRUMPET DR, COLUMBIA, MD, 21045",158945607,"R"
892599,"8375 SOUTH 214 EAST","SANDY","UT",84070,NA,NA,99,"8375 SOUTH 214 EAST, SANDY, UT, 84070","No_Match",NA,NA,NA,NA
892600,"8375 VENETIAN WAY","CINCINNATI","OH",45052,NA,NA,100,"8375 VENETIAN WAY, CINCINNATI, OH, 45052","No_Match",NA,NA,NA,NA
892601,"8375 W LUKE AVE","GLENDALE","AZ",85305,33.517701878,-112.238292338,101,"8375 W LUKE AVE, GLENDALE, AZ, 85305","Match","Exact","8375 W LUKE AVE, GLENDALE, AZ, 85305",243993090,"R"
892602,"8376 AZIMUTH DRIVE","BALDWINSVILLE","NY",13027,43.1705383950001,-76.260530398,102,"8376 AZIMUTH DRIVE, BALDWINSVILLE, NY, 13027","Match","Exact","8376 AZIMUTH DR, BALDWINSVILLE, NY, 13027",46621765,"R"
892603,"8376 COBBLESTONE COURT","EDEN","NY",14057,42.65872001,-78.878718509,103,"8376 COBBLESTONE COURT, EDEN, NY, 14057","Match","Exact","8376 COBBLESTONE CT, EDEN, NY, 14057",48342412,"R"
892604,"8376 FM 753","ATHENS","TX",75751,32.1261983090001,-95.921787388,104,"8376 FM 753, ATHENS, TX, 75751","Match","Exact","8376 FM 753, ATHENS, TX, 75751",125814190,"R"
892605,"8376 LIBRARY ST","FRISCO","TX",75034,33.1471236580001,-96.833030335,105,"8376 LIBRARY ST, FRISCO, TX, 75034","Match","Exact","8376 LIBRARY ST, FRISCO, TX, 75034",210524971,"L"
892606,"8376 NORTHLAND DRIVE","STANWOOD","MI",49346,43.586259575,-85.46606869,106,"8376 NORTHLAND DRIVE, STANWOOD, MI, 49346","Match","Exact","8376 NORTHLAND DR, STANWOOD, MI, 49346",643887202,"R"
892607,"8376 UNIVERSITY POINT CIRCLE","BREMERTON","WA",98311,47.6341417520001,-122.593949305,107,"8376 UNIVERSITY POINT CIRCLE, BREMERTON, WA, 98311","Match","Non_Exact","8376 UNIVERSITY POINT CIR NE, BREMERTON, WA, 98311",187640836,"R"
892608,"8376","ARVADA","CO",80005,NA,NA,108,"8376, ARVADA, CO, 80005","No_Match",NA,NA,NA,NA
892609,"8377 CASON RD","GLADSTONE","OR",97027,45.396665582,-122.577591839,109,"8377 CASON RD, GLADSTONE, OR, 97027","Match","Non_Exact","8377 CASON LN, GLADSTONE, OR, 97027",157935506,"L"
892610,"8377 DRURY LANE","GERMANTOWN","TN",38139,35.0807509000001,-89.782822234,110,"8377 DRURY LANE, GERMANTOWN, TN, 38139","Match","Exact","8377 DRURY LN, GERMANTOWN, TN, 38139",72932264,"R"
892611,"8377 DRURY LN","GERMANTOWN","TN",38138,35.0807509000001,-89.782822234,111,"8377 DRURY LN, GERMANTOWN, TN, 38138","Match","Non_Exact","8377 DRURY LN, GERMANTOWN, TN, 38139",72932264,"R"
892612,"8377 EAST STATE ROUTE 571","NEW CARLISLE","OH",45344,39.9356620130001,-84.057328255,112,"8377 EAST STATE ROUTE 571, NEW CARLISLE, OH, 45344","Match","Non_Exact","8377 STATE RTE 571, NEW CARLISLE, OH, 45344",207645727,"L"
892613,"8377 ELMWAY DR","DAYTON","OH",45415,39.8437152560001,-84.2673314149999,113,"8377 ELMWAY DR, DAYTON, OH, 45415","Match","Exact","8377 ELMWAY DR, DAYTON, OH, 45415",143563384,"L"
892614,"8377 HARTMAN ROAD","WADSWORTH","OH",44281,41.0460732170001,-81.712589637,114,"8377 HARTMAN ROAD, WADSWORTH, OH, 44281","Match","Exact","8377 HARTMAN RD, WADSWORTH, OH, 44281",643401915,"L"
892615,"8377 INDEPENDENCE AVENUE","CANOGA PARK","CA",91304,34.221921416,-118.590701916,115,"8377 INDEPENDENCE AVENUE, CANOGA PARK, CA, 91304","Match","Exact","8377 INDEPENDENCE AVE, CANOGA PARK, CA, 91304",141533319,"L"
892616,"8377 KATHERINE CLAIRE LANE","SAN DIEGO","CA",92127,33.0144584070001,-117.14684514,116,"8377 KATHERINE CLAIRE LANE, SAN DIEGO, CA, 92127","Match","Exact","8377 KATHERINE CLAIRE LN, SAN DIEGO, CA, 92127",612883726,"L"
892617,"8377 ORANGE ST","RANCHO CUCAMONGA","CA",91701,34.138191079,-117.623497483,117,"8377 ORANGE ST, RANCHO CUCAMONGA, CA, 91701","Match","Exact","8377 ORANGE ST, RANCHO CUCAMONGA, CA, 91701",144633829,"R"
892618,"8377 OXBOW RD","WESTERVILLE","OH",43082,40.184813336,-82.892078904,118,"8377 OXBOW RD, WESTERVILLE, OH, 43082","Match","Exact","8377 OXBOW RD, WESTERVILLE, OH, 43082",615361837,"L"
892619,"8377 OXBOW ROAD","WESTERVILLE","OH",43082,40.184813336,-82.892078904,119,"8377 OXBOW ROAD, WESTERVILLE, OH, 43082","Match","Exact","8377 OXBOW RD, WESTERVILLE, OH, 43082",615361837,"L"
892620,"8377 TAMPICO COURT","FAIR OAKS","CA",95628,38.6560398500001,-121.251239557,120,"8377 TAMPICO COURT, FAIR OAKS, CA, 95628","Match","Exact","8377 TAMPICO CT, FAIR OAKS, CA, 95628",133345775,"L"
892621,"8377 W STATE RD 65","HAZLETON","IN",47640,38.4652219820001,-87.4341165069999,121,"8377 W STATE RD 65, HAZLETON, IN, 47640","Match","Non_Exact","8377 W STATE RD 65, HAZLETON, IN, 47640",32182812,"L"
892622,"8377 YALE DRIVE","JONESBORO","GA",30236,33.5260011720001,-84.306658419,122,"8377 YALE DRIVE, JONESBORO, GA, 30236","Match","Exact","8377 YALE DR, JONESBORO, GA, 30236",23318140,"R"
892623,"8378 ATLEE RD","MECHANICSVILLE","VA",23116,37.6352542720001,-77.387286671,123,"8378 ATLEE RD, MECHANICSVILLE, VA, 23116","Match","Exact","8378 ATLEE RD, MECHANICSVILLE, VA, 23116",84980902,"L"
892624,"8378 ATLEE ROAD","MECHANICSVILLE","VA",23116,37.6352542720001,-77.387286671,124,"8378 ATLEE ROAD, MECHANICSVILLE, VA, 23116","Match","Exact","8378 ATLEE RD, MECHANICSVILLE, VA, 23116",84980902,"L"
892625,"8378 BURGUNDY RIDGE DR","CHARLOTTE","NC",28075,35.296663176,-80.640943078,125,"8378 BURGUNDY RIDGE DR, CHARLOTTE, NC, 28075","Match","Non_Exact","8378 BURGUNDY RIDGE DR, HARRISBURG, NC, 28075",601190587,"L"
892626,"8378 CAROUSEL COURT","DAPHNE","AL",36526,30.622586192,-87.879253805,126,"8378 CAROUSEL COURT, DAPHNE, AL, 36526","Match","Exact","8378 CAROUSEL CT, DAPHNE, AL, 36526",131698615,"L"
892627,"8378 E COSTILLA AVE","CENTENNIAL","CO",80112,39.5919596210001,-104.891265855,127,"8378 E COSTILLA AVE, CENTENNIAL, CO, 80112","Match","Exact","8378 E COSTILLA AVE, CENTENNIAL, CO, 80112",177346855,"R"
892628,"8378 E GARDEN OAKS CIRCLE","PALM BEACH GARDENS","FL",33410,26.80029223,-80.102759361,128,"8378 E GARDEN OAKS CIRCLE, PALM BEACH GARDENS, FL, 33410","Match","Exact","8378 E GARDEN OAKS CIR, PALM BEACH GARDENS, FL, 33410",115581733,"R"
892629,"8378 GOLDENBOOK WAY","BLAINE","WA",98320,NA,NA,129,"8378 GOLDENBOOK WAY, BLAINE, WA, 98320","No_Match",NA,NA,NA,NA
892630,"8378 HEDGEWOOD DR","JACKSONVILLE","FL",32216,NA,NA,130,"8378 HEDGEWOOD DR, JACKSONVILLE, FL, 32216","No_Match",NA,NA,NA,NA
892631,"8378 HOLMAN MILL RD","SNOW CAMP","NC",27349,35.8559880560001,-79.390397578,131,"8378 HOLMAN MILL RD, SNOW CAMP, NC, 27349","Match","Exact","8378 HOLMAN MILL RD, SNOW CAMP, NC, 27349",71691311,"R"
892632,"8378 SHOSHONE STREET","DENVER","CO",80221,39.848602971,-105.00901402,132,"8378 SHOSHONE STREET, DENVER, CO, 80221","Match","Exact","8378 SHOSHONE ST, DENVER, CO, 80221",177436215,"R"
892633,"8378 SONORA DEL SOL ST","LAS VEGAS","NV",89113,36.036259527,-115.260261133,133,"8378 SONORA DEL SOL ST, LAS VEGAS, NV, 89113","Match","Exact","8378 SONORA DEL SOL ST, LAS VEGAS, NV, 89113",650680078,"L"
892634,"8379 3RD STREET","PITTSVILLE","WI",54466,44.447618789,-90.133550753,134,"8379 3RD STREET, PITTSVILLE, WI, 54466","Match","Exact","8379 3RD ST, PITTSVILLE, WI, 54466",605834594,"L"
892635,"8379 BLACK WALNUT DRIVE","EAST AMHERST","NY",14051,43.0186597260001,-78.687454886,135,"8379 BLACK WALNUT DRIVE, EAST AMHERST, NY, 14051","Match","Exact","8379 BLACK WALNUT DR, EAST AMHERST, NY, 14051",48331143,"R"
892636,"8379 E SAN SALVADOR","SCOTTSDALE","AZ",85258,33.5729110710001,-111.900438219,136,"8379 E SAN SALVADOR, SCOTTSDALE, AZ, 85258","Match","Non_Exact","8379 E SAN SALVADOR DR, SCOTTSDALE, AZ, 85258",128228049,"R"
892637,"8379 GRAND CRU DR","SACRAMENTON","CA",95829,38.4536009830001,-121.360605012,137,"8379 GRAND CRU DR, SACRAMENTON, CA, 95829","Match","Non_Exact","8379 GRAND CRU DR, SACRAMENTO, CA, 95829",133386937,"R"
892638,"8379 SUN LAKE DR","GIRARD","PA",16417,NA,NA,138,"8379 SUN LAKE DR, GIRARD, PA, 16417","No_Match",NA,NA,NA,NA
892639,"8379 TIMBERCREEK DR","CORDOVA","TN",38018,35.148570067,-89.7839649169999,139,"8379 TIMBERCREEK DR, CORDOVA, TN, 38018","Match","Non_Exact","8379 TIMBER CREEK DR, CORDOVA, TN, 38018",72945800,"R"
892640,"8379 VALLEJO STREET","DENVER","CO",80221,39.8485811910001,-105.013343967,140,"8379 VALLEJO STREET, DENVER, CO, 80221","Match","Exact","8379 VALLEJO ST, DENVER, CO, 80221",177436117,"L"
892641,"838 17TH STREET","ARCATA","CA",95521,40.875458936,-124.084817319,141,"838 17TH STREET, ARCATA, CA, 95521","Match","Exact","838 17TH ST, ARCATA, CA, 95521",112987274,"R"
892642,"838 30TH ST","WEST PALM BEACH","FL",33407,26.7409224830001,-80.0603505029999,142,"838 30TH ST, WEST PALM BEACH, FL, 33407","Match","Exact","838 30TH ST, WEST PALM BEACH, FL, 33407",115277348,"L"
892643,"838 30TH STREET","ROANOKE","VA",24017,37.287744715,-79.984466626,143,"838 30TH STREET, ROANOKE, VA, 24017","Match","Non_Exact","838 30TH ST NW, ROANOKE, VA, 24017",62940432,"L"
892644,"838 4TH ST","NEW ORLEANS","LA",70130,29.924497192,-90.0800112429999,144,"838 4TH ST, NEW ORLEANS, LA, 70130","Match","Exact","838 4TH ST, NEW ORLEANS, LA, 70130",635846256,"L"
892645,"838 5TH AVENUE","HAMMOND","OR",97121,46.2000537500001,-123.948201208,145,"838 5TH AVENUE, HAMMOND, OR, 97121","Match","Exact","838 5TH AVE, HAMMOND, OR, 97121",159219887,"L"
892646,"838 5TH STREET APT 3","SANTA MONICA","CA",90403,34.024755242,-118.503031533,146,"838 5TH STREET APT 3, SANTA MONICA, CA, 90403","Match","Exact","838 5TH ST, SANTA MONICA, CA, 90403",141558880,"R"
892647,"838 6TH ST N","ST PETERSBURG","FL",33701,27.780681875,-82.641612498,147,"838 6TH ST N, ST PETERSBURG, FL, 33701","Match","Exact","838 6TH ST N, SAINT PETERSBURG, FL, 33701",124707246,"L"
892648,"838 ACKLEN ST","SHREVEPORT","LA",71104,32.484236739,-93.715819838,148,"838 ACKLEN ST, SHREVEPORT, LA, 71104","Match","Exact","838 ACKLEN ST, SHREVEPORT, LA, 71104",57438781,"L"
892649,"838 ANDERSON ROAD","FLEMING","OH",45279,39.403994986,-81.6125609279999,149,"838 ANDERSON ROAD, FLEMING, OH, 45279","Match","Non_Exact","838 ANDERSON RD, FLEMING, OH, 45729",45697996,"R"
892650,"838 AVALON DR","PICKERINGTON","OH",43147,39.8867890860001,-82.779160213,150,"838 AVALON DR, PICKERINGTON, OH, 43147","Match","Exact","838 AVALON DR, PICKERINGTON, OH, 43147",37239066,"L"
892651,"838 BALLS BLUFF RD NE","LEESBURG","VA",20175,39.122731623,-77.539489056,151,"838 BALLS BLUFF RD NE, LEESBURG, VA, 20175","Match","Non_Exact","838 BALLS BLUFF RD NE, LEESBURG, VA, 20176",62331774,"L"
892652,"838 BALLS BLUFF RD","LEESBURG","VA",20176,39.122731623,-77.539489056,152,"838 BALLS BLUFF RD, LEESBURG, VA, 20176","Match","Non_Exact","838 BALLS BLUFF RD NE, LEESBURG, VA, 20176",62331774,"L"
892653,"838 BARRISTER DR","AUBURNDALE","FL",33823,28.1281478940001,-81.815985384,153,"838 BARRISTER DR, AUBURNDALE, FL, 33823","Match","Exact","838 BARRISTER DR, AUBURNDALE, FL, 33823",619992143,"L"
892654,"838 BECKLEY RD","BERLIN","CT",6037,41.6182484780001,-72.72672626,154,"838 BECKLEY RD, BERLIN, CT, 6037","Match","Exact","838 BECKLEY RD, BERLIN, CT, 06037",640577779,"R"
892655,"838 BLOSSOM STREET","ATLANTA","GA",30310,33.71161834,-84.4158747389999,155,"838 BLOSSOM STREET, ATLANTA, GA, 30310","Match","Non_Exact","838 BLOSSOM ST SW, ATLANTA, GA, 30310",17433549,"L"
892656,"838 BROADWAY SUITE 3R","BAYONNE","NJ",7002,40.675971981,-74.108071646,156,"838 BROADWAY SUITE 3R, BAYONNE, NJ, 7002","Match","Exact","838 BROADWAY, BAYONNE, NJ, 07002",59603495,"R"
892657,"838 BULLOCK AVENUE","YEADON","PA",19050,39.931137376,-75.249634462,157,"838 BULLOCK AVENUE, YEADON, PA, 19050","Match","Exact","838 BULLOCK AVE, YEADON, PA, 19050",134886720,"R"
892658,"838 BURTON STREET","MELVILLE","LA",71353,30.6962899650001,-91.74648388,158,"838 BURTON STREET, MELVILLE, LA, 71353","Match","Exact","838 BURTON ST, MELVILLE, LA, 71353",106428154,"L"
892659,"838 CENTRAL AVENUE","HIGHLAND PARK","IL",60035,42.1835962920001,-87.805156005,159,"838 CENTRAL AVENUE, HIGHLAND PARK, IL, 60035","Match","Exact","838 CENTRAL AVE, HIGHLAND PARK, IL, 60035",119651606,"L"
892660,"838 CHELSEA RD","COLUMBIANA","AL",35051,33.199183642,-86.61177881,160,"838 CHELSEA RD, COLUMBIANA, AL, 35051","Match","Exact","838 CHELSEA RD, COLUMBIANA, AL, 35051",82111087,"R"
892661,"838 CLEARVIEW CIRCLE","WADSWORTH","OH",44281,41.0197138130001,-81.702334325,161,"838 CLEARVIEW CIRCLE, WADSWORTH, OH, 44281","Match","Exact","838 CLEARVIEW CIR, WADSWORTH, OH, 44281",58693660,"R"
892662,"838 CLUB DRIVE","PALM BEACH GARDENS","FL",33418,26.8343079200001,-80.144713143,162,"838 CLUB DRIVE, PALM BEACH GARDENS, FL, 33418","Match","Exact","838 CLUB DR, PALM BEACH GARDENS, FL, 33418",115581979,"L"
892663,"838 COLLINGSWOOD DRIVE","POMONA","CA",91767,34.0844279180001,-117.734824076,163,"838 COLLINGSWOOD DRIVE, POMONA, CA, 91767","Match","Exact","838 COLLINGSWOOD DR, POMONA, CA, 91767",642868082,"R"
892664,"838 COUNTY ROAD 620","ASHLAND","OH",44805,40.970326711,-82.288535275,164,"838 COUNTY ROAD 620, ASHLAND, OH, 44805","Match","Exact","838 CO RD 620, ASHLAND, OH, 44805",30143775,"L"
892665,"838 CROWDEN DRIVE","CINCINNATI","OH",45224,39.2149462610001,-84.515360947,165,"838 CROWDEN DRIVE, CINCINNATI, OH, 45224","Match","Exact","838 CROWDEN DR, CINCINNATI, OH, 45224",103923365,"L"
892666,"838 DAMSON PLUM CT","SPARTANBURG","SC",29301,34.9083224990001,-82.060307048,166,"838 DAMSON PLUM CT, SPARTANBURG, SC, 29301","Match","Exact","838 DAMSON PLUM CT, SPARTANBURG, SC, 29301",619834930,"R"
892667,"838 DAYTON STREET","CINCINNATI","OH",45214,39.118216148,-84.527830898,167,"838 DAYTON STREET, CINCINNATI, OH, 45214","Match","Exact","838 DAYTON ST, CINCINNATI, OH, 45214",103924712,"R"
892668,"838 DEACON CIRLCLE","COLUMBUS","OH",43214,40.0589614830001,-83.04202487,168,"838 DEACON CIRLCLE, COLUMBUS, OH, 43214","Match","Non_Exact","838 DEACON CIR, COLUMBUS, OH, 43214",642841648,"L"
892669,"838 DEACON","COLUMBUS","OH",43214,40.0589614830001,-83.04202487,169,"838 DEACON, COLUMBUS, OH, 43214","Match","Non_Exact","838 DEACON CIR, COLUMBUS, OH, 43214",642841648,"L"
892670,"838 DUNLAP ORPHANAGE","BRIGHTON","TN",38011,35.4164698340001,-89.6716340689999,170,"838 DUNLAP ORPHANAGE, BRIGHTON, TN, 38011","Match","Non_Exact","838 DUNLAP ORPHANAGE RD, BRIGHTON, TN, 38011",73173342,"L"
892671,"838 E 155 ST","PHOENIX","IL",60426,41.608151299,-87.626683267,171,"838 E 155 ST, PHOENIX, IL, 60426","Match","Exact","838 E 155TH ST, PHOENIX, IL, 60426",624589278,"L"
892672,"838 E 46 ST","BROOKLYN","NY",11203,40.640947913,-73.933138153,172,"838 E 46 ST, BROOKLYN, NY, 11203","Match","Exact","838 E 46TH ST, BROOKLYN, NY, 11203",59081964,"R"
892673,"838 E 84 STREET","LOS ANGELES","CA",90001,33.962870294,-118.259854543,173,"838 E 84 STREET, LOS ANGELES, CA, 90001","Match","Exact","838 E 84TH ST, LOS ANGELES, CA, 90001",141671182,"R"
892674,"838 E 84TH ST","LOS ANGELES","CA",90001,33.962870294,-118.259854543,174,"838 E 84TH ST, LOS ANGELES, CA, 90001","Match","Exact","838 E 84TH ST, LOS ANGELES, CA, 90001",141671182,"R"
892675,"838 E HIGH STREET 298","LEXINGTON","KY",40502,38.03071541,-84.48984841,175,"838 E HIGH STREET 298, LEXINGTON, KY, 40502","Match","Non_Exact","838 E HIGH ST, LEXINGTON, KY, 40502",31948634,"R"
892676,"838 E RANDY ROAD","OAK CREEK","WI",53154,42.8472650240001,-87.902784488,176,"838 E RANDY ROAD, OAK CREEK, WI, 53154","Match","Exact","838 E RANDY RD, OAK CREEK, WI, 53154",77769305,"R"
892677,"838 EAST BURNETT AVENUE","LOUISVILLE","KY",40217,38.2241639750001,-85.741333076,177,"838 EAST BURNETT AVENUE, LOUISVILLE, KY, 40217","Match","Exact","838 E BURNETT AVE, LOUISVILLE, KY, 40217",618511026,"R"
892678,"838 EAST HIGH ST STE 263","LEXINGTON","KY",40502,38.0307316770001,-84.489856453,178,"838 EAST HIGH ST STE 263, LEXINGTON, KY, 40502","Match","Exact","838 E HIGH ST, LEXINGTON, KY, 40502",31948634,"R"
892679,"838 EAST HIGH STREET SUITE 148","LEXINGTON","KY",40502,38.0307316770001,-84.489856453,179,"838 EAST HIGH STREET SUITE 148, LEXINGTON, KY, 40502","Match","Exact","838 E HIGH ST, LEXINGTON, KY, 40502",31948634,"R"
892680,"838 EAST MAIN ST","POMEROY","OH",45769,39.030169195,-82.007133967,180,"838 EAST MAIN ST, POMEROY, OH, 45769","Match","Exact","838 E MAIN ST, POMEROY, OH, 45769",606100286,"R"
892681,"838 EAST SOUTH TEMPLE","SALT LAKE CITY","UT",84102,40.7693466200001,-111.866968672,181,"838 EAST SOUTH TEMPLE, SALT LAKE CITY, UT, 84102","Match","Exact","838 E SOUTH TEMPLE, SALT LAKE CITY, UT, 84102",176067989,"R"
892682,"838 EDISON AVENUE","LANSING","MI",48910,42.7076277630001,-84.541111206,182,"838 EDISON AVENUE, LANSING, MI, 48910","Match","Exact","838 EDISON AVE, LANSING, MI, 48910",17500285,"R"
892683,"838 EDISON AVENUE","LASNING","MI",48910,42.7076277630001,-84.541111206,183,"838 EDISON AVENUE, LASNING, MI, 48910","Match","Non_Exact","838 EDISON AVE, LANSING, MI, 48910",17500285,"R"
892684,"838 ESSEX FOREST DR","CARY","NC",27518,NA,NA,184,"838 ESSEX FOREST DR, CARY, NC, 27518","No_Match",NA,NA,NA,NA
892685,"838 FERNON STREET","PHILADELPHIA","PA",19148,39.9288288450001,-75.159124608,185,"838 FERNON STREET, PHILADELPHIA, PA, 19148","Match","Exact","838 FERNON ST, PHILADELPHIA, PA, 19148",131436138,"L"
892686,"838 FIRST AVENUE","GALLIPOLIS","OH",45631,38.8130287980001,-82.1953639879999,186,"838 FIRST AVENUE, GALLIPOLIS, OH, 45631","Match","Exact","838 1ST AVE, GALLIPOLIS, OH, 45631",54944157,"L"
892687,"838 FOREST OAKS DR","GRAND PRAIRIE","TX",75052,32.694627718,-97.016738443,187,"838 FOREST OAKS DR, GRAND PRAIRIE, TX, 75052","Match","Exact","838 FOREST OAKS DR, GRAND PRAIRIE, TX, 75052",103000362,"L"
892688,"838 GINGER WOOD CT","SAINT LOUIS","MO",63021,38.5533769290001,-90.517039511,188,"838 GINGER WOOD CT, SAINT LOUIS, MO, 63021","Match","Non_Exact","838 GINGER WOOD CT, WILDWOOD, MO, 63021",647338926,"R"
892689,"838 GRANDBERRY ST","JACKSON","MS",39213,32.3231197060001,-90.204101045,189,"838 GRANDBERRY ST, JACKSON, MS, 39213","Match","Exact","838 GRANDBERRY ST, JACKSON, MS, 39213",65369741,"R"
892690,"838 GREEENBRIAR DR","LAKEPARK","FL",33403,26.799666963,-80.069297257,190,"838 GREEENBRIAR DR, LAKEPARK, FL, 33403","Match","Non_Exact","838 GREENBRIAR DR, LAKE PARK, FL, 33403",115527985,"L"
892691,"838 GREENICH ST UNIT PHB","NEW YORK","NY",10014,NA,NA,191,"838 GREENICH ST UNIT PHB, NEW YORK, NY, 10014","No_Match",NA,NA,NA,NA
892692,"838 HALSEY ST","BROOKLYN","NY",11233,40.6850336840001,-73.9217362969999,192,"838 HALSEY ST, BROOKLYN, NY, 11233","Match","Exact","838 HALSEY ST, BROOKLYN, NY, 11233",59082861,"R"
892693,"838 HARDWOOD DRIVE","CHESAPEAKE","VA",23320,36.742136922,-76.272504198,193,"838 HARDWOOD DRIVE, CHESAPEAKE, VA, 23320","Match","Exact","838 HARDWOOD DR, CHESAPEAKE, VA, 23320",121779612,"L"
892694,"838 HIGHLAND OAKS","DALLAS","TX",75232,32.689853032,-96.836064864,194,"838 HIGHLAND OAKS, DALLAS, TX, 75232","Match","Non_Exact","838 HIGHLAND OAKS DR, DALLAS, TX, 75232",102948227,"L"
892695,"838 HINMAN AVE APT 1","EVANSTON","IL",60202,42.0328538860001,-87.677526058,195,"838 HINMAN AVE APT 1, EVANSTON, IL, 60202","Match","Exact","838 HINMAN AVE, EVANSTON, IL, 60202",111744992,"L"
892696,"838 HINMAN AVE","EVANSTON","IL",60202,42.0328538860001,-87.677526058,196,"838 HINMAN AVE, EVANSTON, IL, 60202","Match","Exact","838 HINMAN AVE, EVANSTON, IL, 60202",111744992,"L"
892697,"838 HONEYSUCKLE ROAD","BALD KNOB","AR",72010,35.3761156570001,-91.553760143,197,"838 HONEYSUCKLE ROAD, BALD KNOB, AR, 72010","Match","Exact","838 HONEYSUCKLE RD, BALD KNOB, AR, 72010",651297327,"L"
892698,"838 HOUSTON ROAD","WEBSTER","NY",14580,43.220633019,-77.490344089,198,"838 HOUSTON ROAD, WEBSTER, NY, 14580","Match","Exact","838 HOUSTON RD, WEBSTER, NY, 14580",14566252,"R"
892699,"838 HOWARD AVENUE","BILOXI","MS",39530,30.396773232,-88.890305477,199,"838 HOWARD AVENUE, BILOXI, MS, 39530","Match","Exact","838 HOWARD AVE, BILOXI, MS, 39530",639481943,"R"
892700,"838 INDIAN HILLS DRIVE","MOSCOW","ID",83843,46.7174517940001,-116.990953242,200,"838 INDIAN HILLS DRIVE, MOSCOW, ID, 83843","Match","Exact","838 INDIAN HILLS DR, MOSCOW, ID, 83843",193850676,"R"
892701,"838 JACKSON ST","ALBANY","CA",94706,37.89096663,-122.301994268,201,"838 JACKSON ST, ALBANY, CA, 94706","Match","Exact","838 JACKSON ST, ALBANY, CA, 94706",124991951,"R"
892702,"838 JANE DRIVE","JACKSONVILLE","AR",72076,34.8630055680001,-92.1005678559999,202,"838 JANE DRIVE, JACKSONVILLE, AR, 72076","Match","Exact","838 JANE DR, JACKSONVILLE, AR, 72076",83551072,"L"
892703,"838 JENNIFER","INCLINE VILLAGE","NV",89451,39.2660420760001,-119.95587007,203,"838 JENNIFER, INCLINE VILLAGE, NV, 89451","Match","Non_Exact","838 JENNIFER ST, INCLINE VILLAGE, NV, 89451",107056397,"L"
892704,"838 KEARNY ST","SAN FRANCISCO","CA",94108,37.795574829,-122.404998688,204,"838 KEARNY ST, SAN FRANCISCO, CA, 94108","Match","Exact","838 KEARNY ST, SAN FRANCISCO, CA, 94108",192281207,"R"
892705,"838 KIMSETH CIR","DEERFIELD","WI",53531,43.042946832,-89.074578574,205,"838 KIMSETH CIR, DEERFIELD, WI, 53531","Match","Exact","838 KIMSETH CIR, DEERFIELD, WI, 53531",49520263,"R"
892706,"838 LICK CREEK ROAD","LICK CREEK","KY",41540,37.3834196940001,-82.298635675,206,"838 LICK CREEK ROAD, LICK CREEK, KY, 41540","Match","Exact","838 LICK CREEK RD, LICK CREEK, KY, 41540",40428597,"R"
892707,"838 LILLYS BRIDGE ROAD","MT GILEAD","NE",27306,NA,NA,207,"838 LILLYS BRIDGE ROAD, MT GILEAD, NE, 27306","No_Match",NA,NA,NA,NA
892708,"838 LINDERO CANYON ROAD 256","OAK PARK","CA",91377,NA,NA,208,"838 LINDERO CANYON ROAD 256, OAK PARK, CA, 91377","No_Match",NA,NA,NA,NA
892709,"838 LINNEA AVE","SAN LORENZO","CA",94580,37.697116592,-122.1229522,209,"838 LINNEA AVE, SAN LORENZO, CA, 94580","Match","Exact","838 LINNEA AVE, SAN LORENZO, CA, 94580",125013971,"L"
892710,"838 LOIS AVENUE","SUNNYVALE","CA",94087,37.366795267,-122.052772638,210,"838 LOIS AVENUE, SUNNYVALE, CA, 94087","Match","Exact","838 LOIS AVE, SUNNYVALE, CA, 94087",122936914,"L"
892711,"838 MEADOWCREST DR","MAYSVILLE","KY",41056,38.613600503,-83.823013336,211,"838 MEADOWCREST DR, MAYSVILLE, KY, 41056","Match","Non_Exact","838 MEADOWCREST CIR, MAYSVILLE, KY, 41056",58608586,"L"
892712,"838 MIMOSA DR","WATONGA","OK",73772,NA,NA,212,"838 MIMOSA DR, WATONGA, OK, 73772","No_Match",NA,NA,NA,NA
892713,"838 MLK ST S","LIBERTY","TX",77575,30.036376805,-94.7438483879999,213,"838 MLK ST S, LIBERTY, TX, 77575","Match","Exact","838 MARTIN L KING ST S, LIBERTY, TX, 77575",24109656,"L"
892714,"838 MOUNTAIN BLVD","OAKLAND","CA",94611,37.842780824,-122.220905252,214,"838 MOUNTAIN BLVD, OAKLAND, CA, 94611","Match","Exact","838 MOUNTAIN BLVD, OAKLAND, CA, 94611",125000032,"L"
892715,"838 N 2400 W","PROVO","UT",84601,40.2444214440001,-111.700316279,215,"838 N 2400 W, PROVO, UT, 84601","Match","Exact","838 N 2400 W, PROVO, UT, 84601",134206312,"L"
892716,"838 N 3RD ST","HAMPTON","NE",68843,40.8850461930001,-97.886067272,216,"838 N 3RD ST, HAMPTON, NE, 68843","Match","Exact","838 N 3RD ST, HAMPTON, NE, 68843",159708737,"L"
892717,"838 N CLINTON","DALLAS","TX",75208,32.753369008,-96.841517728,217,"838 N CLINTON, DALLAS, TX, 75208","Match","Non_Exact","838 N CLINTON AVE, DALLAS, TX, 75208",102945822,"R"
892718,"838 N DOHENY DRIVE  APT 502","LOS ANGELES","CA",90069,NA,NA,218,"838 N DOHENY DRIVE  APT 502, LOS ANGELES, CA, 90069","No_Match",NA,NA,NA,NA
892719,"838 N HUDSON AVE APT 103","LOS ANGELES","CA",90038,34.0860419690001,-118.332058812,219,"838 N HUDSON AVE APT 103, LOS ANGELES, CA, 90038","Match","Non_Exact","838 N HUDSON AVE, LOS ANGELES, CA, 90038",141599792,"R"
892720,"838 N IRVING AVE","SCRANTON","PA",18510,41.4090723890001,-75.645065286,220,"838 N IRVING AVE, SCRANTON, PA, 18510","Match","Exact","838 N IRVING AVE, SCRANTON, PA, 18510",139328921,"R"
892721,"838 N MANSFIELD AVE APT 2","LOS ANGELES","CA",90038,34.0860202110001,-118.340613132,221,"838 N MANSFIELD AVE APT 2, LOS ANGELES, CA, 90038","Match","Non_Exact","838 N MANSFIELD AVE, LOS ANGELES, CA, 90038",141599515,"R"
892722,"838 N MARKET STREET","WILMINGTON","DE",19801,39.7439234390001,-75.548905357,222,"838 N MARKET STREET, WILMINGTON, DE, 19801","Match","Exact","838 N MARKET ST, WILMINGTON, DE, 19801",187257857,"R"
892723,"838 NANCY AVE","NILES","OH",44446,41.192395151,-80.755553698,223,"838 NANCY AVE, NILES, OH, 44446","Match","Non_Exact","838 NANCY AVE SE, NILES, OH, 44446",117408919,"L"
892724,"838 NATIONAL RD","CAMBRIDGE CITY","IN",47327,39.8123512810001,-85.187650049,224,"838 NATIONAL RD, CAMBRIDGE CITY, IN, 47327","Match","Non_Exact","838 W NATIONAL RD, CAMBRIDGE CITY, IN, 47327",31336342,"L"
892725,"838 NORTH ELMER STREET","SOUTH BEND","IN",46628,41.6862864350001,-86.282446588,225,"838 NORTH ELMER STREET, SOUTH BEND, IN, 46628","Match","Exact","838 N ELMER ST, SOUTH BEND, IN, 46628",8086896,"R"
892726,"838 NORTH FLETCHER AVE","FERNANDINA BEACH","FL",32034,30.677569292,-81.430173962,226,"838 NORTH FLETCHER AVE, FERNANDINA BEACH, FL, 32034","Match","Exact","838 N FLETCHER AVE, FERNANDINA BCH, FL, 32034",84105018,"R"
892727,"838 NORTH WOODROW STREET","ARLINGTON","VA",22203,38.879877719,-77.117024724,227,"838 NORTH WOODROW STREET, ARLINGTON, VA, 22203","Match","Exact","838 N WOODROW ST, ARLINGTON, VA, 22203",76468761,"L"
892728,"838 NW 14TH TERRACE","FT LAUDERDALE","FL",33311,26.1335690330001,-80.160685685,228,"838 NW 14TH TERRACE, FT LAUDERDALE, FL, 33311","Match","Exact","838 NW 14TH TER, FORT LAUDERDALE, FL, 33311",114721090,"R"
892729,"838 NW NEWPORT AVE","BEND","OR",97703,44.0623890030001,-121.323950495,229,"838 NW NEWPORT AVE, BEND, OR, 97703","Match","Exact","838 NW NEWPORT AVE, BEND, OR, 97703",152553682,"L"
892730,"838 OAK DRIVE","MARION","OH",43302,40.5323546700001,-83.089068663,230,"838 OAK DRIVE, MARION, OH, 43302","Match","Exact","838 OAK DR, MARION, OH, 43302",12713988,"R"
892731,"838 OLD BONHOMME RD","SAINT LOUIS","MO",63132,38.664236026,-90.350656946,231,"838 OLD BONHOMME RD, SAINT LOUIS, MO, 63132","Match","Exact","838 OLD BONHOMME RD, SAINT LOUIS, MO, 63132",100133205,"R"
892732,"838 OLIVIA ST","KEY WEST","FL",33040,24.554795869,-81.795464108,232,"838 OLIVIA ST, KEY WEST, FL, 33040","Match","Exact","838 OLIVIA ST, KEY WEST, FL, 33040",116474852,"R"
892733,"838 PEACHTREE ROAD","CHARLOTTE","NC",28216,35.2964621740001,-80.88522378,233,"838 PEACHTREE ROAD, CHARLOTTE, NC, 28216","Match","Exact","838 PEACHTREE RD, CHARLOTTE, NC, 28216",633892274,"R"
892734,"838 PELICAN LANE","COPPELL","TX",75019,32.9559417720001,-96.965512272,234,"838 PELICAN LANE, COPPELL, TX, 75019","Match","Exact","838 PELICAN LN, COPPELL, TX, 75019",102980041,"L"
892735,"838 PLEASANTVIEW","MADISONVILLE","KY",42431,37.31374937,-87.5454528349999,235,"838 PLEASANTVIEW, MADISONVILLE, KY, 42431","Match","Non_Exact","838 PLEASANT VIEW RD, MADISONVILLE, KY, 42431",11512893,"L"
892736,"838 PRINCEON-KINGSTON RD","PRINCETON","NJ",8540,40.3656760800001,-74.6273539219999,236,"838 PRINCEON-KINGSTON RD, PRINCETON, NJ, 8540","Match","Non_Exact","838 PRINCETON KINGSTON RD, PRINCETON, NJ, 08540",60171162,"L"
892737,"838 REBECCA PLACE","ELIZABETH","NJ",7201,40.6616246890001,-74.200769384,237,"838 REBECCA PLACE, ELIZABETH, NJ, 7201","Match","Exact","838 REBECCA PL, ELIZABETH, NJ, 07201",60579058,"L"
892738,"838 RESEVOIR AVENUE","NORFOLK","VA",23504,NA,NA,238,"838 RESEVOIR AVENUE, NORFOLK, VA, 23504","No_Match",NA,NA,NA,NA
892739,"838 ROBINSON ROAD","SEBASTOPOL","CA",95472,38.3928619750001,-122.831629789,239,"838 ROBINSON ROAD, SEBASTOPOL, CA, 95472","Match","Exact","838 ROBINSON RD, SEBASTOPOL, CA, 95472",67525318,"R"
892740,"838 ROOSEVELT PLACE","NEW ORLEANS","LA",70119,29.978598516,-90.092831313,240,"838 ROOSEVELT PLACE, NEW ORLEANS, LA, 70119","Match","Exact","838 ROOSEVELT PL, NEW ORLEANS, LA, 70119",191706421,"R"
892741,"838 ROSILEE LANE","RAPID CITY","SD",57701,44.164165752,-103.235426195,241,"838 ROSILEE LANE, RAPID CITY, SD, 57701","Match","Exact","838 ROSILEE LN, RAPID CITY, SD, 57701",200930581,"L"
892742,"838 S 3RD ST","COTTONWOOD","AZ",86326,34.7238378710001,-112.025943368,242,"838 S 3RD ST, COTTONWOOD, AZ, 86326","Match","Exact","838 S 3RD ST, COTTONWOOD, AZ, 86326",159524595,"L"
892743,"838 S MAIN STREET","INDEPENDENCE","OR",97351,44.846270249,-123.184645508,243,"838 S MAIN STREET, INDEPENDENCE, OR, 97351","Match","Exact","838 S MAIN ST, INDEPENDENCE, OR, 97351",155776070,"L"
892744,"838 SARATOGA STREET","NEWPORT","KY",41071,39.089624207,-84.489771828,244,"838 SARATOGA STREET, NEWPORT, KY, 41071","Match","Exact","838 SARATOGA ST, NEWPORT, KY, 41071",104447556,"R"
892745,"838 SE 4TH CT","DEERFIELD BEACH","FL",33441,26.3118856740001,-80.0928395769999,245,"838 SE 4TH CT, DEERFIELD BEACH, FL, 33441","Match","Exact","838 SE 4TH CT, DEERFIELD BEACH, FL, 33441",114765290,"R"
892746,"838 SE 58TH AVE","HILLSBORO","OR",97123,45.5127720420001,-122.923525754,246,"838 SE 58TH AVE, HILLSBORO, OR, 97123","Match","Exact","838 SE 58TH AVE, HILLSBORO, OR, 97123",158209986,"R"
892747,"838 SE MARINE DRIVE","COLLEGE PLACE","WA",99324,46.0392374030001,-118.377222255,247,"838 SE MARINE DRIVE, COLLEGE PLACE, WA, 99324","Match","Exact","838 SE MARINE DR, COLLEGE PLACE, WA, 99324",174688329,"R"
892748,"838 SEVENTH AVENUE","FORD CITY","PA",16226,40.767580594,-79.5293908739999,248,"838 SEVENTH AVENUE, FORD CITY, PA, 16226","Match","Exact","838 7TH AVE, FORD CITY, PA, 16226",52464404,"R"
892749,"838 SHERIDAN RD","EVANSTON","IL",60202,42.0335562920001,-87.670568277,249,"838 SHERIDAN RD, EVANSTON, IL, 60202","Match","Exact","838 SHERIDAN RD, EVANSTON, IL, 60202",111745067,"L"
892750,"838 SOUTH CAMPBELL AVE","SPRINGFIELD","MO",65806,37.1997153190001,-93.2944579959999,250,"838 SOUTH CAMPBELL AVE, SPRINGFIELD, MO, 65806","Match","Exact","838 S CAMPBELL AVE, SPRINGFIELD, MO, 65806",76709455,"L"
892751,"838 SPRING KNOLL DRIVE","HERNDON","VA",20170,38.97291383,-77.407131799,251,"838 SPRING KNOLL DRIVE, HERNDON, VA, 20170","Match","Exact","838 SPRING KNOLL DR, HERNDON, VA, 20170",76008202,"L"
892752,"838 STATE FARM RD","BOONE","NC",28607,36.2045410900001,-81.6592742779999,252,"838 STATE FARM RD, BOONE, NC, 28607","Match","Exact","838 STATE FARM RD, BOONE, NC, 28607",52032458,"L"
892753,"838 SUSSEX CIRCLE","THOUSAND OAKS","CA",91360,34.1939753350001,-118.862548799,253,"838 SUSSEX CIRCLE, THOUSAND OAKS, CA, 91360","Match","Exact","838 SUSSEX CIR, THOUSAND OAKS, CA, 91360",109976596,"R"
892754,"838 SW 1ST AVE SUITE 500","PORTLAND","OR",97204,45.516795497,-122.67410129,254,"838 SW 1ST AVE SUITE 500, PORTLAND, OR, 97204","Match","Non_Exact","838 SW 1ST AVE, PORTLAND, OR, 97204",157504683,"L"
892755,"838 THEATRE ROAD","WILLIAMS","CA",95987,39.14767636,-122.149464282,255,"838 THEATRE ROAD, WILLIAMS, CA, 95987","Match","Non_Exact","838 THEATER RD, WILLIAMS, CA, 95987",67126977,"L"
892756,"838 TUSKA AVENUE","MILLVILLE","NJ",8332,39.464771872,-75.101572436,256,"838 TUSKA AVENUE, MILLVILLE, NJ, 8332","Match","Exact","838 TUSKA AVE, MILLVILLE, NJ, 08332",174127043,"R"
892757,"838 US HIGHWAY 14","GREYBULL","WY",82426,44.5194229790001,-107.903166212,257,"838 US HIGHWAY 14, GREYBULL, WY, 82426","Match","Exact","838 US HWY 14, GREYBULL, WY, 82426",605618384,"R"
892758,"838 VALLEY DRIVE","DUNBAR","WV",25064,38.3696704700001,-81.741931015,258,"838 VALLEY DRIVE, DUNBAR, WV, 25064","Match","Exact","838 VALLEY DR, DUNBAR, WV, 25064",78632466,"R"
892759,"838 W 1560 N","OREM","UT",84057,40.3257230460001,-111.716225036,259,"838 W 1560 N, OREM, UT, 84057","Match","Exact","838 W 1560 N, OREM, UT, 84057",134204601,"R"
892760,"838 W BUFFINGTON ST","UPLAND","CA",91784,34.1310131870001,-117.661958361,260,"838 W BUFFINGTON ST, UPLAND, CA, 91784","Match","Exact","838 W BUFFINGTON ST, UPLAND, CA, 91784",144669560,"L"
892761,"838 W MINER ST","WEST CHESTER","PA",19382,39.9455470940001,-75.62039573,261,"838 W MINER ST, WEST CHESTER, PA, 19382","Match","Exact","838 W MINER ST, WEST CHESTER, PA, 19382",642921400,"L"
892762,"838 WELLMAN AVE","N. CHELMSFORD","MA",1863,42.6450922280001,-71.3903442169999,262,"838 WELLMAN AVE, N. CHELMSFORD, MA, 1863","Match","Exact","838 WELLMAN AVE, N CHELMSFORD, MA, 01863",86837716,"R"
892763,"838 WEST LONG LAKE STE 100","BLOOMFIELD HILLS","MI",48302,42.58139393,-83.278083662,263,"838 WEST LONG LAKE STE 100, BLOOMFIELD HILLS, MI, 48302","Match","Non_Exact","838 W LONG LAKE RD, BLOOMFIELD HILLS, MI, 48302",69728409,"R"
892764,"838 WEST MAIN","DOVER-FOXCROFT","ME",4426,45.1851630080001,-69.2336594179999,264,"838 WEST MAIN, DOVER-FOXCROFT, ME, 4426","Match","Non_Exact","838 W MAIN ST, DOVER FOXCROFT, ME, 04426",123970200,"L"
892765,"838 WESTWOOD DR","FENTON","MI",48430,42.8065906950001,-83.719503011,265,"838 WESTWOOD DR, FENTON, MI, 48430","Match","Exact","838 WESTWOOD DR, FENTON, MI, 48430",69579540,"R"
892766,"838 WHITE DOGWOOD RD","BIG SANDY","TX",75755,32.6885421220001,-95.1433472209999,266,"838 WHITE DOGWOOD RD, BIG SANDY, TX, 75755","Match","Exact","838 WHITE DOGWOOD RD, BIG SANDY, TX, 75755",147601402,"R"
892767,"8380 BOENIG RD","SEGUIN","TX",78155,29.6830017180001,-97.944810557,267,"8380 BOENIG RD, SEGUIN, TX, 78155","Match","Exact","8380 BOENIG RD, SEGUIN, TX, 78155",615497646,"R"
892768,"8380 CARNATION DRIVE","BUENA PARK","CA",90620,33.8519039330001,-117.986966166,268,"8380 CARNATION DRIVE, BUENA PARK, CA, 90620","Match","Exact","8380 CARNATION DR, BUENA PARK, CA, 90620",144259632,"R"
892769,"8380 CENTER ROAD","AUSTINBURG","OH",44010,41.81735245,-80.852613611,269,"8380 CENTER ROAD, AUSTINBURG, OH, 44010","Match","Exact","8380 CENTER RD, AUSTINBURG, OH, 44010",633545058,"R"
892770,"8380 CHIPITA PARK RD","CASCADE","CO",80809,38.909887543,-104.97648787,270,"8380 CHIPITA PARK RD, CASCADE, CO, 80809","Match","Exact","8380 CHIPITA PARK RD, CASCADE, CO, 80809",610705147,"R"
892771,"8380 COLUMBIA COURT","BATON ROUGE","LA",70817,30.3738535960001,-91.016654455,271,"8380 COLUMBIA COURT, BATON ROUGE, LA, 70817","Match","Exact","8380 COLUMBIA CT, BATON ROUGE, LA, 70817",648294744,"L"
892772,"8380 CORTINA CIRCLE","ROSEVILLE","CA",95678,NA,NA,272,"8380 CORTINA CIRCLE, ROSEVILLE, CA, 95678","Tie",NA,NA,NA,NA
892773,"8380 CR 13","BELLEFONTAINE","OH",43311,NA,NA,273,"8380 CR 13, BELLEFONTAINE, OH, 43311","No_Match",NA,NA,NA,NA
892774,"8380 EL MUNDO","HOUSTON","TX",77094,NA,NA,274,"8380 EL MUNDO, HOUSTON, TX, 77094","No_Match",NA,NA,NA,NA
892775,"8380 GALLBERRY CIRCLE","PORT ST LUCIE","FL",34952,27.3120095740001,-80.285279035,275,"8380 GALLBERRY CIRCLE, PORT ST LUCIE, FL, 34952","Match","Exact","8380 GALLBERRY CIR, PORT ST LUCIE, FL, 34952",120173274,"L"
892776,"8380 GREENSBORO DRIVE UNIT 708","MCLEAN","VA",22102,38.9279759980001,-77.235546055,276,"8380 GREENSBORO DRIVE UNIT 708, MCLEAN, VA, 22102","Match","Exact","8380 GREENSBORO DR, MCLEAN, VA, 22102",75961809,"R"
892777,"8380 HICKORY HOLLOW COURT","MANASSAS","VA",20112,38.680356655,-77.455169806,277,"8380 HICKORY HOLLOW COURT, MANASSAS, VA, 20112","Match","Exact","8380 HICKORY HOLLOW CT, MANASSAS, VA, 20112",619939750,"L"
892778,"8380 N FLEMING DR","FLAGSTAFF","AZ",86004,35.259545874,-111.548886202,278,"8380 N FLEMING DR, FLAGSTAFF, AZ, 86004","Match","Exact","8380 N FLEMING DR, FLAGSTAFF, AZ, 86004",189151199,"L"
892779,"8380 NE BECK RD","BAINBRIGE ISLAND","WA",98110,47.599612145,-122.538210697,279,"8380 NE BECK RD, BAINBRIGE ISLAND, WA, 98110","Match","Non_Exact","8380 NE BECK RD, BAINBRIDGE IS, WA, 98110",636488906,"L"
892780,"8380 OAKGROVE CHURCH RD","LIBERTY","NC",27298,NA,NA,280,"8380 OAKGROVE CHURCH RD, LIBERTY, NC, 27298","No_Match",NA,NA,NA,NA
892781,"8380 ROCHESTER","GERMANTOWN","TN",38139,35.101031682,-89.783027284,281,"8380 ROCHESTER, GERMANTOWN, TN, 38139","Match","Non_Exact","8380 ROCHESTER COVE, GERMANTOWN, TN, 38139",72937263,"R"
892782,"8380 SOUTH KYRENE ROAD","TEMPE","AZ",85284,33.338360795,-111.94569367,282,"8380 SOUTH KYRENE ROAD, TEMPE, AZ, 85284","Match","Exact","8380 S KYRENE RD, TEMPE, AZ, 85284",128838616,"R"
892783,"8380 SW 155 TERRACE","MIAMI","FL",33157,25.6263117550001,-80.328871012,283,"8380 SW 155 TERRACE, MIAMI, FL, 33157","Match","Exact","8380 SW 155TH TER, MIAMI, FL, 33157",115986430,"R"
892784,"8380 WARING AVE 207","LOS ANGELES","CA",90069,34.0853581330001,-118.372999775,284,"8380 WARING AVE 207, LOS ANGELES, CA, 90069","Match","Exact","8380 WARING AVE, LOS ANGELES, CA, 90069",142674672,"L"
892785,"8380 WARING AVE 208","LOS ANGELES","CA",90069,34.0853581330001,-118.372999775,285,"8380 WARING AVE 208, LOS ANGELES, CA, 90069","Match","Exact","8380 WARING AVE, LOS ANGELES, CA, 90069",142674672,"L"
892786,"8380 WARREN PKWY BLDG 7-703","FRISCO","TX",75034,33.1085141190001,-96.812790615,286,"8380 WARREN PKWY BLDG 7-703, FRISCO, TX, 75034","Match","Exact","8380 WARREN PKWY, FRISCO, TX, 75034",210507612,"L"
892787,"8380 WARREN PKWY","FRISCO","TX",75034,33.1085141190001,-96.812790615,287,"8380 WARREN PKWY, FRISCO, TX, 75034","Match","Exact","8380 WARREN PKWY, FRISCO, TX, 75034",210507612,"L"
892788,"8380 WILLOW OAK ROAD","GERMANTOWN","TN",38139,35.0885982,-89.783137158,288,"8380 WILLOW OAK ROAD, GERMANTOWN, TN, 38139","Match","Exact","8380 WILLOW OAK RD, GERMANTOWN, TN, 38139",72932175,"R"
892789,"8380 WOLF RD","BELLEVUE","MI",49021,42.4500490840001,-85.125976441,289,"8380 WOLF RD, BELLEVUE, MI, 49021","Match","Exact","8380 WOLF RD, BELLEVUE, MI, 49021",10518225,"R"
892790,"8380 WOODDY RD","PORT TOBACCO","MD",20677,38.4870596600001,-77.0410202049999,290,"8380 WOODDY RD, PORT TOBACCO, MD, 20677","Match","Exact","8380 WOODDY RD, PORT TOBACCO, MD, 20677",25420618,"R"
892791,"8380 WOODDY ROAD","PORT TOBACCO","MD",20677,38.4870596600001,-77.0410202049999,291,"8380 WOODDY ROAD, PORT TOBACCO, MD, 20677","Match","Exact","8380 WOODDY RD, PORT TOBACCO, MD, 20677",25420618,"R"
892792,"8381 11TH ST SW","DODGE","ND",58625,47.255841387,-102.263443456,292,"8381 11TH ST SW, DODGE, ND, 58625","Match","Exact","8381 11TH ST SW, DODGE, ND, 58625",200440152,"R"
892793,"8381 BAYMEADOWS RD APT A","JACKSONVILLE","FL",32256,30.2207769410001,-81.5835052689999,293,"8381 BAYMEADOWS RD APT A, JACKSONVILLE, FL, 32256","Match","Exact","8381 BAYMEADOWS RD, JACKSONVILLE, FL, 32256",83966531,"L"
892794,"8381 BUCK MOUNTAIN RD","DOVER","AR",72837,35.4135049830001,-93.065639576,294,"8381 BUCK MOUNTAIN RD, DOVER, AR, 72837","Match","Exact","8381 BUCK MOUNTAIN RD, DOVER, AR, 72837",606005557,"L"
892795,"8381 HAINS COURT","LEWIS CENTER","OH",43035,40.1587296880001,-82.9926555709999,295,"8381 HAINS COURT, LEWIS CENTER, OH, 43035","Match","Non_Exact","8381 HAINES CT, LEWIS CENTER, OH, 43035",24597115,"L"
892796,"8381 MISTWOOD CIR N","JACKSONVILLE","FL",32244,30.203138014,-81.793225687,296,"8381 MISTWOOD CIR N, JACKSONVILLE, FL, 32244","Match","Exact","8381 MISTWOOD CIR N, JACKSONVILLE, FL, 32244",83940010,"R"
892797,"8381 QUIGLEY STREET","WESTMINSTER","CO",80031,39.8506875790001,-105.045366357,297,"8381 QUIGLEY STREET, WESTMINSTER, CO, 80031","Match","Exact","8381 QUIGLEY ST, WESTMINSTER, CO, 80031",177421077,"L"
892798,"8381 RIVERWALK PARK STE 101","FORT MYERS","FL",33919,26.559101578,-81.8941391399999,298,"8381 RIVERWALK PARK STE 101, FORT MYERS, FL, 33919","Match","Non_Exact","8381 RIVERWALK PARK BLVD, FORT MYERS, FL, 33919",118112061,"L"
892799,"8381 S GUPTA DR","TUCSON","AZ",85747,32.099347924,-110.765459522,299,"8381 S GUPTA DR, TUCSON, AZ, 85747","Match","Exact","8381 S GUPTA DR, TUCSON, AZ, 85747",627416581,"R"
892800,"8381 SE 120TH PLACE","BELLEVIEW","FL",34420,29.047306013,-82.01376031,300,"8381 SE 120TH PLACE, BELLEVIEW, FL, 34420","Match","Exact","8381 SE 120TH PL, BELLEVIEW, FL, 34420",116748952,"R"
892801,"8381 SEALYHAM DR","REYNOLDSBURG","OH",43068,39.965823893,-82.7756518319999,301,"8381 SEALYHAM DR, REYNOLDSBURG, OH, 43068","Match","Exact","8381 SEALYHAM DR, REYNOLDSBURG, OH, 43068",61517861,"R"
892802,"8381 THATCHER RD","LANTANA","TX",76226,33.1026594260001,-97.1191423989999,302,"8381 THATCHER RD, LANTANA, TX, 76226","Match","Exact","8381 THATCHER RD, LANTANA, TX, 76226",636505966,"L"
892803,"8381 TOBAGO LANE","WELLINGTON","FL",33414,26.6336582210001,-80.179783131,303,"8381 TOBAGO LANE, WELLINGTON, FL, 33414","Match","Exact","8381 TOBAGO LN, WELLINGTON, FL, 33414",115583819,"R"
892804,"83817 MONZULA DR","CADIZ","OH",43907,40.3054523320001,-80.969212549,304,"83817 MONZULA DR, CADIZ, OH, 43907","Match","Exact","83817 MONZULA DR, CADIZ, OH, 43907",37721434,"R"
892805,"8382 COLLINS ROAD","NASHVILLE","TN",37221,36.04540387,-86.9693788559999,305,"8382 COLLINS ROAD, NASHVILLE, TN, 37221","Match","Exact","8382 COLLINS RD, NASHVILLE, TN, 37221",97217226,"R"
892806,"8382 E HIGHCROFT DR NE","LELAND","NC",28451,NA,NA,306,"8382 E HIGHCROFT DR NE, LELAND, NC, 28451","Tie",NA,NA,NA,NA
892807,"8382 NEW HAVEN ROAD","HARRISON","OH",45030,39.275535286,-84.716296283,307,"8382 NEW HAVEN ROAD, HARRISON, OH, 45030","Match","Exact","8382 NEW HAVEN RD, HARRISON, OH, 45030",103941826,"L"
892808,"8382 REMBRANDT DRIVE","HUNTINGTON BEACH","CA",92647,33.713870381,-117.981897243,308,"8382 REMBRANDT DRIVE, HUNTINGTON BEACH, CA, 92647","Match","Exact","8382 REMBRANDT DR, HUNTINGTON BEACH, CA, 92647",144018649,"R"
892809,"8382 SIX FORKS ROAD SUITE 102","RALEIGH","NC",27615,35.8930883790001,-78.648829146,309,"8382 SIX FORKS ROAD SUITE 102, RALEIGH, NC, 27615","Match","Exact","8382 SIX FORKS RD, RALEIGH, NC, 27615",208362297,"R"
892810,"8382 SYDNEY DRIVE","TRUSSVILLE","AL",35173,33.652731956,-86.539531771,310,"8382 SYDNEY DRIVE, TRUSSVILLE, AL, 35173","Match","Non_Exact","8382 SYDNEY CIR, TRUSSVILLE, AL, 35173",646716844,"R"
892811,"8383 AIRLINE HIGHWAY APARTMENT 29","BATON ROUGE","LA",70815,30.4588184830001,-91.099984127,311,"8383 AIRLINE HIGHWAY APARTMENT 29, BATON ROUGE, LA, 70815","Match","Exact","8383 AIRLINE HWY, BATON ROUGE, LA, 70815",623723262,"L"
892812,"8383 BERGEN DR","CORDOVA","TN",38018,35.1221650190001,-89.782920906,312,"8383 BERGEN DR, CORDOVA, TN, 38018","Match","Exact","8383 BERGEN DR, CORDOVA, TN, 38018",647252903,"R"
892813,"8383 EL MUNDO ST 720","HOUSTON","TX",77054,NA,NA,313,"8383 EL MUNDO ST 720, HOUSTON, TX, 77054","No_Match",NA,NA,NA,NA
892814,"8383 EL MUNDO ST","HOUSTON","TX",77054,29.6831647130001,-95.3864408319999,314,"8383 EL MUNDO ST, HOUSTON, TX, 77054","Match","Exact","8383 EL MUNDO ST, HOUSTON, TX, 77054",96605276,"R"
892815,"8383 EL MUNDO STREET APARTMENT 611","HOUSTON","TX",77054,NA,NA,315,"8383 EL MUNDO STREET APARTMENT 611, HOUSTON, TX, 77054","No_Match",NA,NA,NA,NA
892816,"8383 GREENWAY BLVD STE 600","MIDDLETON","WI",53562,43.0876803040001,-89.533218983,316,"8383 GREENWAY BLVD STE 600, MIDDLETON, WI, 53562","Match","Exact","8383 GREENWAY BLVD, MIDDLETON, WI, 53562",640867506,"R"
892817,"8383 GREENWAY BLVD SUITE 600","MIDDLETON","WI",53562,43.0876803040001,-89.533218983,317,"8383 GREENWAY BLVD SUITE 600, MIDDLETON, WI, 53562","Match","Exact","8383 GREENWAY BLVD, MIDDLETON, WI, 53562",640867506,"R"
892818,"8383 LAPRADA DR APT 705","DALLAS","TX",75228,32.808365323,-96.665345217,318,"8383 LAPRADA DR APT 705, DALLAS, TX, 75228","Match","Exact","8383 LAPRADA DR, DALLAS, TX, 75228",102931375,"L"
892819,"8383 LONESOME DOVE LANE","DUQUOIN","IL",62832,38.016848259,-89.211686861,319,"8383 LONESOME DOVE LANE, DUQUOIN, IL, 62832","Match","Non_Exact","8383 LONESOME DOVE LN, DU QUOIN, IL, 62832",633821078,"L"
892820,"8383 MILLICENT WAY","SHREVEPORT","LA",71115,NA,NA,320,"8383 MILLICENT WAY, SHREVEPORT, LA, 71115","No_Match",NA,NA,NA,NA
892821,"8383 NORTH DAVIS HWY","PENSACOLA","FL",32514,30.515544909,-87.2166860899999,321,"8383 NORTH DAVIS HWY, PENSACOLA, FL, 32514","Match","Exact","8383 N DAVIS HWY, PENSACOLA, FL, 32514",93217477,"L"
892822,"8383 W CANAL RD","BROCKPORT","NY",14420,43.2142274400001,-77.984884925,322,"8383 W CANAL RD, BROCKPORT, NY, 14420","Match","Exact","8383 W CANAL RD, BROCKPORT, NY, 14420",14523334,"L"
892823,"8383 WILSHIRE BLVD - SUITE 800","BEVERLY HILLS","CA",90211,34.064620899,-118.373844922,323,"8383 WILSHIRE BLVD - SUITE 800, BEVERLY HILLS, CA, 90211","Match","Exact","8383 WILSHIRE BLVD, BEVERLY HILLS, CA, 90211",141598706,"R"
892824,"8383 WILSHIRE BLVD STE 1034","BEVERLY HILLS","CA",90211,34.064620899,-118.373844922,324,"8383 WILSHIRE BLVD STE 1034, BEVERLY HILLS, CA, 90211","Match","Exact","8383 WILSHIRE BLVD, BEVERLY HILLS, CA, 90211",141598706,"R"
892825,"8383 WILSHIRE BLVD STE 240","BEVERLY HILLS","CA",90211,34.064620899,-118.373844922,325,"8383 WILSHIRE BLVD STE 240, BEVERLY HILLS, CA, 90211","Match","Exact","8383 WILSHIRE BLVD, BEVERLY HILLS, CA, 90211",141598706,"R"
892826,"8383 WILSHIRE BLVD STE 510","BEVERLY HILLS","CA",90211,34.064620899,-118.373844922,326,"8383 WILSHIRE BLVD STE 510, BEVERLY HILLS, CA, 90211","Match","Exact","8383 WILSHIRE BLVD, BEVERLY HILLS, CA, 90211",141598706,"R"
892827,"8383 WILSHIRE BLVD SUITE 660","BEVERLY HILLS","CA",90211,34.064620899,-118.373844922,327,"8383 WILSHIRE BLVD SUITE 660, BEVERLY HILLS, CA, 90211","Match","Exact","8383 WILSHIRE BLVD, BEVERLY HILLS, CA, 90211",141598706,"R"
892828,"8383 WILSHIRE BOULEVARD SUITE 660","BEVERLY HILLS","CA",90211,34.064620899,-118.373844922,328,"8383 WILSHIRE BOULEVARD SUITE 660, BEVERLY HILLS, CA, 90211","Match","Exact","8383 WILSHIRE BLVD, BEVERLY HILLS, CA, 90211",141598706,"R"
892829,"83831 CELESTIAL CIRCLE","LIBERTY","OH",45044,NA,NA,329,"83831 CELESTIAL CIRCLE, LIBERTY, OH, 45044","No_Match",NA,NA,NA,NA
892830,"83833 CORTE ESTIVO","COACHELLA","CA",92236,33.687583433,-116.201983883,330,"83833 CORTE ESTIVO, COACHELLA, CA, 92236","Match","Exact","83833 CORTE ESTIVO, COACHELLA, CA, 92236",624263514,"L"
892831,"83836 YOSEMITE DR","INDIO","CA",92203,33.731724656,-116.201949081,331,"83836 YOSEMITE DR, INDIO, CA, 92203","Match","Exact","83836 YOSEMITE DR, INDIO, CA, 92203",637199902,"R"
892832,"8384 ADRIAN DR","BROOKSVILLE","FL",34613,28.553578406,-82.471374102,332,"8384 ADRIAN DR, BROOKSVILLE, FL, 34613","Match","Exact","8384 ADRIAN DR, BROOKSVILLE, FL, 34613",85465489,"R"
892833,"8384 ASHMAN STEEET","THREE SPRINGS","PA",17264,40.1953353170001,-77.983669021,333,"8384 ASHMAN STEEET, THREE SPRINGS, PA, 17264","Match","Non_Exact","8384 ASHMAN ST, THREE SPRINGS, PA, 17264",50607061,"L"
892834,"8384 ASHMAN STREET","THREE SPRINGS","PA",17264,40.1953353170001,-77.983669021,334,"8384 ASHMAN STREET, THREE SPRINGS, PA, 17264","Match","Exact","8384 ASHMAN ST, THREE SPRINGS, PA, 17264",50607061,"L"
892835,"8384 BEACHWOOD PL","RIVERDALE","GA",30274,NA,NA,335,"8384 BEACHWOOD PL, RIVERDALE, GA, 30274","Tie",NA,NA,NA,NA
892836,"8384 BEECHWOOD TERRACE","RIVERDALE","GA",30274,NA,NA,336,"8384 BEECHWOOD TERRACE, RIVERDALE, GA, 30274","Tie",NA,NA,NA,NA
892837,"8384 BROCKHAM DRIVE STE C","ALEXANDRIA","VA",22309,38.731739356,-77.106958273,337,"8384 BROCKHAM DRIVE STE C, ALEXANDRIA, VA, 22309","Match","Exact","8384 BROCKHAM DR, ALEXANDRIA, VA, 22309",76027329,"R"
892838,"8384 COMPASS POINTE EAST WYND","LELAND","NC",28451,34.2738851440001,-78.083483555,338,"8384 COMPASS POINTE EAST WYND, LELAND, NC, 28451","Match","Non_Exact","8384 COMPASS POINTE EAST WYND NE, LELAND, NC, 28451",637987742,"R"
892839,"8384 EMERICK RD","WEST MILTON","OH",45383,39.9491081080001,-84.3573017049999,339,"8384 EMERICK RD, WEST MILTON, OH, 45383","Match","Exact","8384 EMERICK RD, WEST MILTON, OH, 45383",207641750,"R"
892840,"8384 HARDING","CENTERLINE","MI",48015,42.4816723100001,-83.021792223,340,"8384 HARDING, CENTERLINE, MI, 48015","Match","Non_Exact","8384 HARDING ST, CENTER LINE, MI, 48015",110677148,"R"
892841,"8384 MIDWAY ROAD","RAYMOND","MS",39154,32.2135447850001,-90.373756854,341,"8384 MIDWAY ROAD, RAYMOND, MS, 39154","Match","Exact","8384 MIDWAY RD, RAYMOND, MS, 39154",611225652,"L"
892842,"8384 RIVERWALK DRIVE","FENTON","MI",48430,42.7031103530001,-83.782357754,342,"8384 RIVERWALK DRIVE, FENTON, MI, 48430","Match","Non_Exact","8384 RIVERWALK WAY, FENTON, MI, 48430",23569431,"L"
892843,"8384 ROSWELL ROAD APT N","ATLANTA","GA",30350,33.9845200190001,-84.350502937,343,"8384 ROSWELL ROAD APT N, ATLANTA, GA, 30350","Match","Exact","8384 ROSWELL RD, ATLANTA, GA, 30350",648700632,"L"
892844,"8384 SILVER BIRCH WAY","LEHIGH ACRES","FL",33971,26.615784293,-81.763212197,344,"8384 SILVER BIRCH WAY, LEHIGH ACRES, FL, 33971","Match","Exact","8384 SILVER BIRCH WAY, LEHIGH ACRES, FL, 33971",618798864,"R"
892845,"8384 SILVERTHORN CV","GERMANTOWN","TN",38139,35.0876097350001,-89.783104443,345,"8384 SILVERTHORN CV, GERMANTOWN, TN, 38139","Match","Exact","8384 SILVERTHORN COVE, GERMANTOWN, TN, 38139",72932184,"L"
892846,"8384 WOODMAN LANE","NEWCASTLE","CA",95658,38.900891716,-121.146870372,346,"8384 WOODMAN LANE, NEWCASTLE, CA, 95658","Match","Exact","8384 WOODMAN LN, NEWCASTLE, CA, 95658",106790027,"L"
892847,"83844 573 AVE","PILGER","NE",68768,41.9796099390001,-97.078043683,347,"83844 573 AVE, PILGER, NE, 68768","Match","Exact","83844 573RD AVE, PILGER, NE, 68768",161860071,"R"
892848,"8385 BALSAM LANE N","MAPLE GROVE","MN",55369,45.10717399,-93.4249276419999,348,"8385 BALSAM LANE N, MAPLE GROVE, MN, 55369","Match","Non_Exact","8385 BALSAM LN, MAPLE GROVE, MN, 55369",641224281,"R"
892849,"8385 BARSTOW DRIVE","FISHERS","IN",46038,39.9895828350001,-86.019139789,349,"8385 BARSTOW DRIVE, FISHERS, IN, 46038","Match","Exact","8385 BARSTOW DR, FISHERS, IN, 46038",29307744,"L"
892850,"8385 INSPIRATION AVE","WALKERSVILLE","MD",21793,39.4625704540001,-77.3568466199999,350,"8385 INSPIRATION AVE, WALKERSVILLE, MD, 21793","Match","Exact","8385 INSPIRATION AVE, WALKERSVILLE, MD, 21793",60675397,"R"
892851,"8385 KELZER POND DR","VICTORIA","MN",55386,NA,NA,351,"8385 KELZER POND DR, VICTORIA, MN, 55386","No_Match",NA,NA,NA,NA
892852,"8385 LUCE CT","SPRINGFIELD","VA",22153,38.73137841,-77.210364608,352,"8385 LUCE CT, SPRINGFIELD, VA, 22153","Match","Exact","8385 LUCE CT, SPRINGFIELD, VA, 22153",75977550,"R"
892853,"8385 PINEY ORCHARD PARKWAY","ODENTON","MD",21113,39.0852588440001,-76.6996414609999,353,"8385 PINEY ORCHARD PARKWAY, ODENTON, MD, 21113","Match","Exact","8385 PINEY ORCHARD PKWY, ODENTON, MD, 21113",606961015,"L"
892854,"8385 ROUTE 16","FRANKLINVILLE","NY",14737,42.367556633,-78.458588261,354,"8385 ROUTE 16, FRANKLINVILLE, NY, 14737","Match","Non_Exact","8385 STATE RTE 16, FRANKLINVILLE, NY, 14737",122022797,"L"
892855,"8385 STATE ROUTE 821","WHIPPLE","OH",45788,39.535298793,-81.3937658849999,355,"8385 STATE ROUTE 821, WHIPPLE, OH, 45788","Match","Exact","8385 STATE RTE 821, WHIPPLE, OH, 45788",45702317,"L"
892856,"8385 SW 80TH ST","OCALA","FL",34481,29.105927362,-82.25343018,356,"8385 SW 80TH ST, OCALA, FL, 34481","Match","Exact","8385 SW 80TH ST, OCALA, FL, 34481",629956235,"L"
892857,"83850 PAINTED PONY LANE","LOSTINE","OR",97857,45.4766251030001,-117.423004768,357,"83850 PAINTED PONY LANE, LOSTINE, OR, 97857","Match","Exact","83850 PAINTED PONY LN, LOSTINE, OR, 97857",623843283,"R"
892858,"83851 844TH ROAD","MEADOW GROVE","NE",68752,NA,NA,358,"83851 844TH ROAD, MEADOW GROVE, NE, 68752","No_Match",NA,NA,NA,NA
892859,"8385C MONTGOMERY RUN ROAD","ELLICOTT CITY","MD",21043,39.2169683160001,-76.804638419,359,"8385C MONTGOMERY RUN ROAD, ELLICOTT CITY, MD, 21043","Match","Exact","8385 MONTGOMERY RUN RD, ELLICOTT CITY, MD, 21043",158941639,"R"
892860,"8386 AIRLINE HWY","BATON ROUGE","LA",70815,30.4594461520001,-91.100644818,360,"8386 AIRLINE HWY, BATON ROUGE, LA, 70815","Match","Exact","8386 AIRLINE HWY, BATON ROUGE, LA, 70815",606165404,"R"
892861,"8386 CANNONWOOD LANE","JACKSONVILLE","FL",32216,NA,NA,361,"8386 CANNONWOOD LANE, JACKSONVILLE, FL, 32216","No_Match",NA,NA,NA,NA
892862,"8386 GOLDEN PRAIRIE DR","TAMPA","FL",33647,28.1547502710001,-82.369083178,362,"8386 GOLDEN PRAIRIE DR, TAMPA, FL, 33647","Match","Exact","8386 GOLDEN PRAIRIE DR, TAMPA, FL, 33647",104642136,"L"
892863,"8386 LAKEVIEW DR","YPSILANTI","MI",48198,42.2681273800001,-83.597827716,363,"8386 LAKEVIEW DR, YPSILANTI, MI, 48198","Match","Exact","8386 LAKEVIEW DR, YPSILANTI, MI, 48198",26027458,"R"
892864,"8386 N STATE RD 135","VALLONIA","IN",47281,38.723850391,-86.095163599,364,"8386 N STATE RD 135, VALLONIA, IN, 47281","Match","Exact","8386 STATE RD 135, VALLONIA, IN, 47281",77534976,"L"
892865,"8386 SE BAYBERRY TERR","HOBE SOUND","FL",33455,27.081442426,-80.140147945,365,"8386 SE BAYBERRY TERR, HOBE SOUND, FL, 33455","Match","Exact","8386 SE BAYBERRY TER, HOBE SOUND, FL, 33455",120420273,"L"
892866,"8386 SHADOW POINT CT","CINCINNATI","OH",45242,39.2572907460001,-84.334435266,366,"8386 SHADOW POINT CT, CINCINNATI, OH, 45242","Match","Non_Exact","8386 SHADOWPOINT CT, CINCINNATI, OH, 45242",103945804,"L"
892867,"8386 SHADOW WOOD BLVD","POMPANO BEACH","FL",33071,26.243866143,-80.2373971979999,367,"8386 SHADOW WOOD BLVD, POMPANO BEACH, FL, 33071","Match","Exact","8386 SHADOW WOOD BLVD, POMPANO BEACH, FL, 33071",648164581,"L"
892868,"8386 SHADOWWOOD BLVD","POMPANO BEACH","FL",33071,26.243866143,-80.2373971979999,368,"8386 SHADOWWOOD BLVD, POMPANO BEACH, FL, 33071","Match","Non_Exact","8386 SHADOW WOOD BLVD, POMPANO BEACH, FL, 33071",648164581,"L"
892869,"8387 BAY STREET","SODUS POINT","NY",14555,43.270451559,-76.985123345,369,"8387 BAY STREET, SODUS POINT, NY, 14555","Match","Exact","8387 BAY ST, SODUS POINT, NY, 14555",14925793,"L"
892870,"8387 CLAUDINE CIR","OOLTEWAH","TN",37363,NA,NA,370,"8387 CLAUDINE CIR, OOLTEWAH, TN, 37363","No_Match",NA,NA,NA,NA
892871,"8387 COLDWATER RD","FLUSHING","MI",48433,43.0893858370001,-83.845562569,371,"8387 COLDWATER RD, FLUSHING, MI, 48433","Match","Exact","8387 COLDWATER RD, FLUSHING, MI, 48433",69560964,"L"
892872,"8387 N SUNBURST TRAIL","PARKER","CO",80134,NA,NA,372,"8387 N SUNBURST TRAIL, PARKER, CO, 80134","Tie",NA,NA,NA,NA
892873,"8387 OREGON RIDGE RD","MILLFIELD","OH",45761,39.4582464980001,-82.117698467,373,"8387 OREGON RIDGE RD, MILLFIELD, OH, 45761","Match","Exact","8387 OREGON RIDGE RD, MILLFIELD, OH, 45761",639106409,"L"
892874,"8387 SW HAYDEN DRIVE","BEAVERTON","OR",97007,45.4593064760001,-122.870151878,374,"8387 SW HAYDEN DRIVE, BEAVERTON, OR, 97007","Match","Exact","8387 SW HAYDEN DR, BEAVERTON, OR, 97007",645536386,"R"
892875,"8387 YALE AVE","RICHLAND","MI",49083,42.36999633,-85.4669831799999,375,"8387 YALE AVE, RICHLAND, MI, 49083","Match","Exact","8387 YALE AVE, RICHLAND, MI, 49083",644488954,"R"
892876,"83878 CORTE EL ALBA","COACHELLA","CA",92236,33.6868123580001,-116.20066653,376,"83878 CORTE EL ALBA, COACHELLA, CA, 92236","Match","Exact","83878 CORTE EL ALBA, COACHELLA, CA, 92236",636839172,"R"
892877,"8388 AUBERRY DR","SACRAMENTO","CA",95828,38.4583775730001,-121.399092696,377,"8388 AUBERRY DR, SACRAMENTO, CA, 95828","Match","Exact","8388 AUBERRY DR, SACRAMENTO, CA, 95828",133395932,"R"
892878,"8388 E HARTFORD","SCOTTSDALE","AZ",85255,NA,NA,378,"8388 E HARTFORD, SCOTTSDALE, AZ, 85255","No_Match",NA,NA,NA,NA
892879,"8388 EAST 116TH STREET","FISHERS","IN",46038,39.9568034420001,-86.02012318,379,"8388 EAST 116TH STREET, FISHERS, IN, 46038","Match","Exact","8388 E 116TH ST, FISHERS, IN, 46038",29328367,"L"
892880,"8388 GROUSE CRESCENT","BLAINE","WA",98230,NA,NA,380,"8388 GROUSE CRESCENT, BLAINE, WA, 98230","No_Match",NA,NA,NA,NA
892881,"8388 LAUREL LAKES BLVD","NAPLES","FL",34119,26.266352205,-81.698096264,381,"8388 LAUREL LAKES BLVD, NAPLES, FL, 34119","Match","Exact","8388 LAUREL LAKES BLVD, NAPLES, FL, 34119",115194572,"R"
892882,"8388 N SAPPHIRE DR","SAINT GEORGE","UT",84770,37.2587299840001,-113.614112022,382,"8388 N SAPPHIRE DR, SAINT GEORGE, UT, 84770","Match","Exact","8388 N SAPPHIRE DR, SAINT GEORGE, UT, 84770",166187785,"R"
892883,"8388 PINN TURN","WARRENTON","VA",20186,38.6653652460001,-77.8608162579999,383,"8388 PINN TURN, WARRENTON, VA, 20186","Match","Exact","8388 PINN TURN, WARRENTON, VA, 20186",146259506,"L"
892884,"8388 S FESTIVE WAY","WEST JORDAN","UT",84088,40.5991815100001,-111.999547864,384,"8388 S FESTIVE WAY, WEST JORDAN, UT, 84088","Match","Exact","8388 S FESTIVE WAY, WEST JORDAN, UT, 84088",621651982,"R"
892885,"8388 S GUPTA DR","TUCSON","AZ",85747,32.0992496550001,-110.765472465,385,"8388 S GUPTA DR, TUCSON, AZ, 85747","Match","Exact","8388 S GUPTA DR, TUCSON, AZ, 85747",627416581,"L"
892886,"8388 SOUTH GUPTA DRIVE","TUCSON","AZ",85747,32.099252162,-110.765472465,386,"8388 SOUTH GUPTA DRIVE, TUCSON, AZ, 85747","Match","Exact","8388 S GUPTA DR, TUCSON, AZ, 85747",627416581,"L"
892887,"8388 STEVENSON AVE","SACRAMENTO","CA",95828,38.4652829830001,-121.395918184,387,"8388 STEVENSON AVE, SACRAMENTO, CA, 95828","Match","Exact","8388 STEVENSON AVE, SACRAMENTO, CA, 95828",133373487,"R"
892888,"8388 WILMINGTON DRIVE","COLORADO SPRINGS","CO",80920,38.9531977120001,-104.733373203,388,"8388 WILMINGTON DRIVE, COLORADO SPRINGS, CO, 80920","Match","Exact","8388 WILMINGTON DR, CO SPGS, CO, 80920",630017657,"L"
892889,"8388","CENTER LINE","MI",48015,NA,NA,389,"8388, CENTER LINE, MI, 48015","No_Match",NA,NA,NA,NA
892890,"8389 DOGWOOD RD","GERMANTOWN","TN",38139,35.084479829,-89.78320115,390,"8389 DOGWOOD RD, GERMANTOWN, TN, 38139","Match","Exact","8389 DOGWOOD RD, GERMANTOWN, TN, 38139",72948798,"R"
892891,"8389 HERON AVENUE SOUTH","COTTAGE GROVE","MN",55016,44.8276924360001,-92.949147829,391,"8389 HERON AVENUE SOUTH, COTTAGE GROVE, MN, 55016","Match","Exact","8389 HERON AVE S, COTTAGE GROVE, MN, 55016",97786759,"L"
892892,"8389 HUNTER DR","RANCHO CUCAMONGA","CA",91701,34.135766151,-117.622905843,392,"8389 HUNTER DR, RANCHO CUCAMONGA, CA, 91701","Match","Exact","8389 HUNTER DR, RANCHO CUCAMONGA, CA, 91701",144987666,"L"
892893,"8389 KNAPP ROAD","WEST FALLS","NY",14170,42.6855486900001,-78.679362065,393,"8389 KNAPP ROAD, WEST FALLS, NY, 14170","Match","Exact","8389 KNAPP RD, WEST FALLS, NY, 14170",638552154,"L"
892894,"8389 UNTREINER AVENUE","PENSACOLA","FL",32534,30.516637362,-87.279944938,394,"8389 UNTREINER AVENUE, PENSACOLA, FL, 32534","Match","Exact","8389 UNTREINER AVE, PENSACOLA, FL, 32534",617456696,"L"
892895,"839 132ND AVE NE","BELLEVUE","WA",98005,47.6176969000001,-122.164333036,395,"839 132ND AVE NE, BELLEVUE, WA, 98005","Match","Exact","839 132ND AVE NE, BELLEVUE, WA, 98005",186611039,"L"
892896,"839 14TH AVENUE","MENLO PARK","CA",94025,37.4773121910001,-122.19068928,396,"839 14TH AVENUE, MENLO PARK, CA, 94025","Match","Exact","839 14TH AVE, MENLO PARK, CA, 94025",192364311,"L"
892897,"839 264TH STREET SOUTH","HAWLEY","MN",56549,46.865910781,-96.2504017429999,397,"839 264TH STREET SOUTH, HAWLEY, MN, 56549","Match","Exact","839 264TH ST S, HAWLEY, MN, 56549",640782213,"R"
892898,"839 5TH AVE SE","ROCHESTER","MN",55904,44.0139869970001,-92.45623004,398,"839 5TH AVE SE, ROCHESTER, MN, 55904","Match","Exact","839 5TH AVE SE, ROCHESTER, MN, 55904",30553621,"R"
892899,"839 AHOSKIE-COFIELD ROAD","AHOSKIE","NC",27910,36.3342055310001,-76.9380300079999,399,"839 AHOSKIE-COFIELD ROAD, AHOSKIE, NC, 27910","Match","Non_Exact","839 AHOSKIE COFIELD RD, AHOSKIE, NC, 27910",629597879,"L"
892900,"839 AIR WAYS CIRCLE","NASHVILLE","TN",37214,36.149619484,-86.681235063,400,"839 AIR WAYS CIRCLE, NASHVILLE, TN, 37214","Match","Non_Exact","839 AIRWAYS CIR, NASHVILLE, TN, 37214",97211953,"R"
892901,"839 ALDER CREEK DR","MEDFORD","OR",97504,42.3172528310001,-122.819452588,401,"839 ALDER CREEK DR, MEDFORD, OR, 97504","Match","Exact","839 ALDER CREEK DR, MEDFORD, OR, 97504",155577646,"L"
892902,"839 ALMORA DRIVE","CHARLOTTE","NC",28216,35.292488324,-80.901758045,402,"839 ALMORA DRIVE, CHARLOTTE, NC, 28216","Match","Exact","839 ALMORA DR, CHARLOTTE, NC, 28216",70616968,"L"
892903,"839 APPLECROSS CT","COPPELL","TX",75019,32.992364782,-96.994918404,403,"839 APPLECROSS CT, COPPELL, TX, 75019","Match","Exact","839 APPLECROSS CT, COPPELL, TX, 75019",103396764,"L"
892904,"839 BARKSDALE ST","PENSACOLA","FL",32514,30.556035137,-87.258924764,404,"839 BARKSDALE ST, PENSACOLA, FL, 32514","Match","Exact","839 BARKSDALE ST, PENSACOLA, FL, 32514",93211016,"L"
892905,"839 BELL SWAMP RD NE","WINNABOW","NC",28479,34.106351782,-78.138798201,405,"839 BELL SWAMP RD NE, WINNABOW, NC, 28479","Match","Exact","839 BELL SWAMP RD NE, WINNABOW, NC, 28479",153131716,"R"
892906,"839 BEULAH CHURCH RD","DE KALB","MS",39328,32.7472657330001,-88.6908924529999,406,"839 BEULAH CHURCH RD, DE KALB, MS, 39328","Match","Exact","839 BEULAH CHURCH RD, DE KALB, MS, 39328",607673588,"L"
892907,"839 BIRD AVE","SAN JOSE","CA",95125,37.3163922270001,-121.897817065,407,"839 BIRD AVE, SAN JOSE, CA, 95125","Match","Exact","839 BIRD AVE, SAN JOSE, CA, 95125",122909386,"R"
892908,"839 BOSTON POST RD","WESTON","MA",2493,NA,NA,408,"839 BOSTON POST RD, WESTON, MA, 2493","No_Match",NA,NA,NA,NA
892909,"839 BRANDON PRESCOTT LN APT 410","WEST PALM BEACH","FL",33401,26.7210536590001,-80.078671454,409,"839 BRANDON PRESCOTT LN APT 410, WEST PALM BEACH, FL, 33401","Match","Exact","839 BRANDON PRESCOTT LN, WEST PALM BEACH, FL, 33401",648333097,"R"
892910,"839 BRANDON PRESCOTT LN STE 310","WEST PALM BEACH","FL",33401,26.7210536590001,-80.078671454,410,"839 BRANDON PRESCOTT LN STE 310, WEST PALM BEACH, FL, 33401","Match","Exact","839 BRANDON PRESCOTT LN, WEST PALM BEACH, FL, 33401",648333097,"R"
892911,"839 BRIAR RIDGE RD","WESTON","FL",33327,26.12825811,-80.4085914679999,411,"839 BRIAR RIDGE RD, WESTON, FL, 33327","Match","Exact","839 BRIAR RIDGE RD, WESTON, FL, 33327",114784124,"R"
892912,"839 BRIDLE LANE","WEBSTER","NY",14580,43.225059163,-77.47269999,412,"839 BRIDLE LANE, WEBSTER, NY, 14580","Match","Exact","839 BRIDLE LN, WEBSTER, NY, 14580",14536959,"R"
892913,"839 BROADWAY","GARY","IN",46402,NA,NA,413,"839 BROADWAY, GARY, IN, 46402","No_Match",NA,NA,NA,NA
892914,"839 BURTON AVE","HIGHLAND PARK","IL",60035,42.168032194,-87.78645242,414,"839 BURTON AVE, HIGHLAND PARK, IL, 60035","Match","Exact","839 BURTON AVE, HIGHLAND PARK, IL, 60035",119651884,"R"
892915,"839 BYRON PLACE","EAST MEADOW","NY",11554,40.704539836,-73.552625889,415,"839 BYRON PLACE, EAST MEADOW, NY, 11554","Match","Exact","839 BYRON PL, EAST MEADOW, NY, 11554",147632947,"L"
892916,"839 CAMPBELL ST E","LEHIGH ACRES","FL",33974,26.580331519,-81.6002162999999,416,"839 CAMPBELL ST E, LEHIGH ACRES, FL, 33974","Match","Exact","839 CAMPBELL ST E, LEHIGH ACRES, FL, 33974",117993056,"L"
892917,"839 CAMPUS DR","ZAVALLA","TX",75980,31.1667869880001,-94.4132058929999,417,"839 CAMPUS DR, ZAVALLA, TX, 75980","Match","Exact","839 CAMPUS DR, ZAVALLA, TX, 75980",23869369,"L"
892918,"839 CANAL STREET","SALTSBURG","PA",15681,40.482237636,-79.448869949,418,"839 CANAL STREET, SALTSBURG, PA, 15681","Match","Exact","839 CANAL ST, SALTSBURG, PA, 15681",66307734,"L"
892919,"839 CARROLL STREET APT 1","BROOKLYN","NY",11215,40.671833775,-73.9728023709999,419,"839 CARROLL STREET APT 1, BROOKLYN, NY, 11215","Match","Exact","839 CARROLL ST, BROOKLYN, NY, 11215",59078222,"L"
892920,"839 CASAR BELWOOD ROAD","LAWNDALE","NC",28090,35.4846415230001,-81.58038827,420,"839 CASAR BELWOOD ROAD, LAWNDALE, NC, 28090","Match","Non_Exact","839 CASAR-BELWOOD RD, LAWNDALE, NC, 28090",630122546,"L"
892921,"839 CEDAR LANE","PLEASANTVILLE","NJ",8232,39.3918016370001,-74.543772036,421,"839 CEDAR LANE, PLEASANTVILLE, NJ, 8232","Match","Exact","839 CEDAR LN, PLEASANTVILLE, NJ, 08232",202485844,"R"
892922,"839 CHERRY STREET","CLARKSDALE","MS",38614,34.1985107790001,-90.594258134,422,"839 CHERRY STREET, CLARKSDALE, MS, 38614","Match","Exact","839 CHERRY ST, CLARKSDALE, MS, 38614",963042,"L"
892923,"839 CONNALY DRIVE","HOPE MILLS","NC",28348,34.9736724580001,-78.918467055,423,"839 CONNALY DRIVE, HOPE MILLS, NC, 28348","Match","Exact","839 CONNALY DR, HOPE MILLS, NC, 28348",64238372,"L"
892924,"839 CONTINENTAL BLVD","TOLEDO","OH",43607,41.6480575690001,-83.638174126,424,"839 CONTINENTAL BLVD, TOLEDO, OH, 43607","Match","Exact","839 CONTINENTAL BLVD, TOLEDO, OH, 43607",33934994,"L"
892925,"839 COUNTRY LANE DRIVE","MCGREGOR","TX",76657,31.483596037,-97.290540283,425,"839 COUNTRY LANE DRIVE, MCGREGOR, TX, 76657","Match","Non_Exact","839 COUNTRY LANE DR, MC GREGOR, TX, 76657",146770712,"R"
892926,"839 DON DIEGO AVENUE","SANTA FE","NM",87505,35.677131645,-105.948156683,426,"839 DON DIEGO AVENUE, SANTA FE, NM, 87505","Match","Exact","839 DON DIEGO AVE, SANTA FE, NM, 87505",169378626,"L"
892927,"839 DUNLEIGH MEADOWS LANE","HOUSTON","TX",77055,NA,NA,427,"839 DUNLEIGH MEADOWS LANE, HOUSTON, TX, 77055","No_Match",NA,NA,NA,NA
892928,"839 E 125TH TERR","OLATHE","KS",66061,38.9013998790001,-94.807586735,428,"839 E 125TH TERR, OLATHE, KS, 66061","Match","Exact","839 E 125TH TER, OLATHE, KS, 66061",91283004,"R"
892929,"839 E 153 CT","SOUTH HOLLAND","IL",60301,41.618314556,-87.596114138,429,"839 E 153 CT, SOUTH HOLLAND, IL, 60301","Match","Non_Exact","839 153RD CT, SOUTH HOLLAND, IL, 60473",112224786,"L"
892930,"839 E 156 STREET APT BASEMENT","BRONX","NY",10455,40.817549994,-73.9034033309999,430,"839 E 156 STREET APT BASEMENT, BRONX, NY, 10455","Match","Non_Exact","839 E 156TH ST, BRONX, NY, 10455",80302163,"L"
892931,"839 E 53RD ST","CHICAGO","IL",60615,NA,NA,431,"839 E 53RD ST, CHICAGO, IL, 60615","No_Match",NA,NA,NA,NA
892932,"839 E 98TH ST","LOS ANGELES","CA",90002,33.9475172080001,-118.259900827,432,"839 E 98TH ST, LOS ANGELES, CA, 90002","Match","Exact","839 E 98TH ST, LOS ANGELES, CA, 90002",141671379,"L"
892933,"839 E OAK ST","PHOENIX","AZ",85006,33.4730075250001,-112.063510654,433,"839 E OAK ST, PHOENIX, AZ, 85006","Match","Exact","839 E OAK ST, PHOENIX, AZ, 85006",128213141,"R"
892934,"839 E ROCKWELL DRIVE","CHANDLER","AZ",85224,33.330899905,-111.827954957,434,"839 E ROCKWELL DRIVE, CHANDLER, AZ, 85224","Match","Non_Exact","839 E ROCKWELL DR, CHANDLER, AZ, 85225",128243325,"L"
892935,"839 E SOUTH TEMPLE","SALT LAKE CITY","UT",84102,40.7693575850001,-111.866926914,435,"839 E SOUTH TEMPLE, SALT LAKE CITY, UT, 84102","Match","Exact","839 E SOUTH TEMPLE, SALT LAKE CITY, UT, 84102",176067989,"L"
892936,"839 EAST AVE","TALLMAGE","OH",44278,41.1008148770001,-81.4094894629999,436,"839 EAST AVE, TALLMAGE, OH, 44278","Match","Non_Exact","839 EAST AVE, TALLMADGE, OH, 44278",61356330,"L"
892937,"839 EAST CHERRYWOOD PLACE","CHANDLER","AZ",85249,33.2324460460001,-111.826697157,437,"839 EAST CHERRYWOOD PLACE, CHANDLER, AZ, 85249","Match","Exact","839 E CHERRYWOOD PL, CHANDLER, AZ, 85249",128854626,"R"
892938,"839 EAST MONONA DRIVE","PHOENIX","AZ",85024,33.675455433,-112.062042445,438,"839 EAST MONONA DRIVE, PHOENIX, AZ, 85024","Match","Exact","839 E MONONA DR, PHOENIX, AZ, 85024",128959667,"R"
892939,"839 EAST PHILADELPHIA STREET","YORK","PA",17403,39.9705026950001,-76.7115896179999,439,"839 EAST PHILADELPHIA STREET, YORK, PA, 17403","Match","Exact","839 E PHILADELPHIA ST, YORK, PA, 17403",617302582,"L"
892940,"839 EASTERN PARKWAY APT 3","BROOKLYN","NY",11213,40.6695269860001,-73.940498577,440,"839 EASTERN PARKWAY APT 3, BROOKLYN, NY, 11213","Match","Exact","839 EASTERN PKWY, BROOKLYN, NY, 11213",640852594,"R"
892941,"839 ELGIN AVENUE","SALT LAKE CITY","UT",84106,40.705811205,-111.867142259,441,"839 ELGIN AVENUE, SALT LAKE CITY, UT, 84106","Match","Exact","839 ELGIN AVE, SALT LAKE CITY, UT, 84106",176081077,"L"
892942,"839 ELMWOOD AVE","PROVIDENCE","RI",2907,41.789704387,-71.421662635,442,"839 ELMWOOD AVE, PROVIDENCE, RI, 2907","Match","Exact","839 ELMWOOD AVE, PROVIDENCE, RI, 02907",47512807,"R"
892943,"839 ENGLISH WALNUT WY","MORGAN HILL","CA",95037,37.1373275610001,-121.640673212,443,"839 ENGLISH WALNUT WY, MORGAN HILL, CA, 95037","Match","Exact","839 ENGLISH WALNUT WAY, MORGAN HILL, CA, 95037",123157631,"R"
892944,"839 EXCHANGE CIRCLE UNIT 223","BETHLEHEM","GA",30620,33.9413957100001,-83.7400165339999,444,"839 EXCHANGE CIRCLE UNIT 223, BETHLEHEM, GA, 30620","Match","Non_Exact","839 EXCHANGE BLVD, BETHLEHEM, GA, 30620",650526539,"L"
892945,"839 FIELD AV","HILLSBORO","WI",54634,43.6536858210001,-90.34297724,445,"839 FIELD AV, HILLSBORO, WI, 54634","Match","Exact","839 FIELD AVE, HILLSBORO, WI, 54634",48637543,"L"
892946,"839 FOREST ST","HINESVILLE","GA",31313,31.8337092300001,-81.574725869,446,"839 FOREST ST, HINESVILLE, GA, 31313","Match","Exact","839 FOREST ST, HINESVILLE, GA, 31313",619384018,"L"
892947,"839 FRANKLIN AVENUE APARTMENT 2","BROOKLYN","NY",11225,40.669626141,-73.958336103,447,"839 FRANKLIN AVENUE APARTMENT 2, BROOKLYN, NY, 11225","Match","Exact","839 FRANKLIN AVE, BROOKLYN, NY, 11225",59078493,"L"
892948,"839 FREEMAN ST APT 1A","BRONX","NY",10459,40.8304864070001,-73.896049922,448,"839 FREEMAN ST APT 1A, BRONX, NY, 10459","Match","Exact","839 FREEMAN ST, BRONX, NY, 10459",80302075,"L"
892949,"839 FREEMAN STREET APT1A","BRONX","NY",10458,40.8304864070001,-73.896049922,449,"839 FREEMAN STREET APT1A, BRONX, NY, 10458","Match","Non_Exact","839 FREEMAN ST, BRONX, NY, 10459",80302075,"L"
892950,"839 GARLAND AVE","SEBRING","FL",33875,27.4513868330001,-81.473546873,450,"839 GARLAND AVE, SEBRING, FL, 33875","Match","Exact","839 GARLAND AVE, SEBRING, FL, 33875",4634906,"R"
892951,"839 GEORGIAN POINT DR","LAWRENCE","GA",30045,33.952537455,-83.941054929,451,"839 GEORGIAN POINT DR, LAWRENCE, GA, 30045","Match","Non_Exact","839 GEORGIAN POINT DR, LAWRENCEVILLE, GA, 30045",88964201,"L"
892952,"839 GORDON DRIVE","CHARLESTON","WV",25303,38.3543876310001,-81.670902256,452,"839 GORDON DRIVE, CHARLESTON, WV, 25303","Match","Exact","839 GORDON DR, CHARLESTON, WV, 25303",78674670,"L"
892953,"839 HAMBURG ROAD","FREDONIA","PA",16124,41.3324510200001,-80.32461714,453,"839 HAMBURG ROAD, FREDONIA, PA, 16124","Match","Exact","839 HAMBURG RD, FREDONIA, PA, 16124",70643885,"L"
892954,"839 HARRISON STREET","WEST HEMSTEAD","NY",11552,40.6860188430001,-73.656444123,454,"839 HARRISON STREET, WEST HEMSTEAD, NY, 11552","Match","Non_Exact","839 HARRISON ST, W HEMPSTEAD, NY, 11552",147693166,"L"
892955,"839 HARVARD LANE","MATTESON","IL",60443,41.510692873,-87.749991619,455,"839 HARVARD LANE, MATTESON, IL, 60443","Match","Exact","839 HARVARD LN, MATTESON, IL, 60443",111707876,"L"
892956,"839 HAZELWOOD DRIVE","JACKSON","MI",49203,42.236972424,-84.452552429,456,"839 HAZELWOOD DRIVE, JACKSON, MI, 49203","Match","Non_Exact","839 HAZELWOOD BLVD, JACKSON, MI, 49203",17623199,"L"
892957,"839 HEBER AVE","CALEXICO","CA",92231,32.6741200290001,-115.493518573,457,"839 HEBER AVE, CALEXICO, CA, 92231","Match","Exact","839 HEBER AVE, CALEXICO, CA, 92231",194502252,"L"
892958,"839 HENDRIX STREET","PHILADELPHIA","PA",19116,40.1174320430001,-75.014245165,458,"839 HENDRIX STREET, PHILADELPHIA, PA, 19116","Match","Exact","839 HENDRIX ST, PHILADELPHIA, PA, 19116",131430869,"L"
892959,"839 HOLLINS ST","BALTIMORE","MD",21201,39.2879481030001,-76.6299486039999,459,"839 HOLLINS ST, BALTIMORE, MD, 21201","Match","Exact","839 HOLLINS ST, BALTIMORE, MD, 21201",206418227,"L"
892960,"839 HUNTS POINT AVENUE","BRONX","NY",10474,40.8178224710001,-73.888702994,460,"839 HUNTS POINT AVENUE, BRONX, NY, 10474","Match","Exact","839 HUNTS POINT AVE, BRONX, NY, 10474",80302583,"L"
892961,"839 ILLINOIS AVE","COLTON","CA",92324,34.072377461,-117.309011818,461,"839 ILLINOIS AVE, COLTON, CA, 92324","Match","Exact","839 ILLINOIS AVE, COLTON, CA, 92324",144970697,"L"
892962,"839 JEFFERSON AVE","CHARLES TOWN","WV",25414,39.2889303310001,-77.848367334,462,"839 JEFFERSON AVE, CHARLES TOWN, WV, 25414","Match","Exact","839 JEFFERSON AVE, CHARLES TOWN, WV, 25414",647538763,"L"
892963,"839 KAMEL DR","AUGUSTA","GA",30909,33.476091081,-82.0673635749999,463,"839 KAMEL DR, AUGUSTA, GA, 30909","Match","Exact","839 KAMEL DR, AUGUSTA, GA, 30909",55635264,"R"
892964,"839 KINGS ROAD","SCHENECTADY","NY",12303,42.7666821650001,-73.914831211,464,"839 KINGS ROAD, SCHENECTADY, NY, 12303","Match","Exact","839 KINGS RD, SCHENECTADY, NY, 12303",18036121,"R"
892965,"839 LARAMIE","CHICAGO","IL",60651,NA,NA,465,"839 LARAMIE, CHICAGO, IL, 60651","No_Match",NA,NA,NA,NA
892966,"839 LATHROP","FOREST PARK","IL",60130,41.870817157,-87.81414814,466,"839 LATHROP, FOREST PARK, IL, 60130","Match","Non_Exact","839 LATHROP AVE, FOREST PARK, IL, 60130",111791864,"R"
892967,"839 LAW LANE","MOUNT PLEASANT","SC",29464,32.8345776300001,-79.835956914,467,"839 LAW LANE, MOUNT PLEASANT, SC, 29464","Match","Exact","839 LAW LN, MOUNT PLEASANT, SC, 29464",108808951,"L"
892968,"839 LEMONTREE DRIVE","NORTH HUNTINGDON","PA",15642,40.3264673400001,-79.7531853949999,468,"839 LEMONTREE DRIVE, NORTH HUNTINGDON, PA, 15642","Match","Exact","839 LEMONTREE DR, N HUNTINGDON, PA, 15642",52966104,"L"
892969,"839 LINBARD LN","BIRMINGHAM","AL",35204,33.4180339220001,-86.824441448,469,"839 LINBARD LN, BIRMINGHAM, AL, 35204","Match","Non_Exact","839 LINBARD LN, BIRMINGHAM, AL, 35226",645261838,"R"
892970,"839 LINDEN BLVD","BROOKLYN","NY",11203,40.6540416890001,-73.926872553,470,"839 LINDEN BLVD, BROOKLYN, NY, 11203","Match","Exact","839 LINDEN BLVD, BROOKLYN, NY, 11203",59083591,"L"
892971,"839 LINDSEY ROAD","CARLISLE","PA",17015,40.169599841,-77.139944413,471,"839 LINDSEY ROAD, CARLISLE, PA, 17015","Match","Exact","839 LINDSEY RD, CARLISLE, PA, 17015",647960236,"L"
892972,"839 LITTLE DOGA RD","BURBANK","OK",74633,36.6518403260001,-96.813711788,472,"839 LITTLE DOGA RD, BURBANK, OK, 74633","Match","Exact","839 LITTLE DOGA RD, BURBANK, OK, 74633",82364721,"L"
892973,"839 LYTLE ST","WEST PALM BEACH","FL",33405,26.656038315,-80.062778952,473,"839 LYTLE ST, WEST PALM BEACH, FL, 33405","Match","Exact","839 LYTLE ST, WEST PALM BEACH, FL, 33405",115529689,"R"
892974,"839 MASTERS DRIVE","STONE MOUNTAIN","GA",30087,33.7702606670001,-84.1527762809999,474,"839 MASTERS DRIVE, STONE MOUNTAIN, GA, 30087","Match","Exact","839 MASTERS DR, STONE MOUNTAIN, GA, 30087",645263219,"L"
892975,"839 MAYFIELD RD","SHARPSVILLE","PA",16150,41.254447643,-80.483309289,475,"839 MAYFIELD RD, SHARPSVILLE, PA, 16150","Match","Exact","839 MAYFIELD RD, SHARPSVILLE, PA, 16150",70654037,"L"
892976,"839 MAYO COURT","BENICIA","CA",94510,38.0929671230001,-122.176052935,476,"839 MAYO COURT, BENICIA, CA, 94510","Match","Exact","839 MAYO CT, BENICIA, CA, 94510",192545721,"L"
892977,"839 MCKNIGHT ST","READING","PA",19601,40.348294416,-75.936519544,477,"839 MCKNIGHT ST, READING, PA, 19601","Match","Exact","839 MCKNIGHT ST, READING, PA, 19601",80444405,"R"
892978,"839 MERRILL STREET","HAMMOND","IN",46320,41.602800404,-87.508122465,478,"839 MERRILL STREET, HAMMOND, IN, 46320","Match","Exact","839 MERRILL ST, HAMMOND, IN, 46320",98417222,"L"
892979,"839 MILE SQUARE ROAD","YONKERS","NY",10704,40.9263291240001,-73.8588396379999,479,"839 MILE SQUARE ROAD, YONKERS, NY, 10704","Match","Exact","839 MILE SQUARE RD, YONKERS, NY, 10704",139745310,"R"
892980,"839 MISSISSPPI AVE","LAKELAND","FL",33801,28.034295667,-81.951178468,480,"839 MISSISSPPI AVE, LAKELAND, FL, 33801","Match","Non_Exact","839 MISSISSIPPI AVE, LAKELAND, FL, 33801",104810771,"R"
892981,"839 MOUNTAIN VIEW TER NW","MARIETTA","GA",30064,33.953795891,-84.5750988409999,481,"839 MOUNTAIN VIEW TER NW, MARIETTA, GA, 30064","Match","Exact","839 MOUNTAIN VIEW TER NW, MARIETTA, GA, 30064",643437480,"L"
892982,"839 N 10TH","POCATELLO","ID",83201,42.875325527,-112.444863751,482,"839 N 10TH, POCATELLO, ID, 83201","Match","Non_Exact","839 N 10TH AVE, POCATELLO, ID, 83201",204351692,"L"
892983,"839 N 27TH STREET","PHILADELPHIA","PA",19130,39.9713555270001,-75.181036499,483,"839 N 27TH STREET, PHILADELPHIA, PA, 19130","Match","Exact","839 N 27TH ST, PHILADELPHIA, PA, 19130",131405293,"R"
892984,"839 N 6TH STREET","LOUP CITY","NE",68853,41.2823199800001,-98.965788457,484,"839 N 6TH STREET, LOUP CITY, NE, 68853","Match","Exact","839 N 6TH ST, LOUP CITY, NE, 68853",198279804,"L"
892985,"839 N BROOKLYN STREET","PHILADELPHIA","PA",19104,39.967814547,-75.208347838,485,"839 N BROOKLYN STREET, PHILADELPHIA, PA, 19104","Match","Exact","839 N BROOKLYN ST, PHILADELPHIA, PA, 19104",131403140,"R"
892986,"839 N SAUNDERS","HASTINGS","NE",68901,40.592403109,-98.397016679,486,"839 N SAUNDERS, HASTINGS, NE, 68901","Match","Non_Exact","839 N SAUNDERS AVE, HASTINGS, NE, 68901",196204929,"L"
892987,"839 N TATNALL STREET","WILMINGTON","DE",19801,39.745261966,-75.5509131699999,487,"839 N TATNALL STREET, WILMINGTON, DE, 19801","Match","Exact","839 N TATNALL ST, WILMINGTON, DE, 19801",187257837,"L"
892988,"839 NORTH 23RD STREET","EAST SAINT LOUIS","IL",62205,38.621078196,-90.1272349449999,488,"839 NORTH 23RD STREET, EAST SAINT LOUIS, IL, 62205","Match","Exact","839 N 23RD ST, E SAINT LOUIS, IL, 62205",107830858,"L"
892989,"839 NW 206 ST","MIAMI","FL",33169,25.9636908300001,-80.216571533,489,"839 NW 206 ST, MIAMI, FL, 33169","Match","Exact","839 NW 206TH ST, MIAMI, FL, 33169",116313910,"R"
892990,"839 NW 64 PLACE","OCALA","FL",34475,29.253775278,-82.143481626,490,"839 NW 64 PLACE, OCALA, FL, 34475","Match","Exact","839 NW 64TH PL, OCALA, FL, 34475",116707406,"R"
892991,"839 NW EUBANKS","OKLAHOMA CITY","OK",73118,35.507287487,-97.526283415,491,"839 NW EUBANKS, OKLAHOMA CITY, OK, 73118","Match","Non_Exact","839 NW EUBANKS ST, OKLAHOMA CITY, OK, 73118",100399938,"R"
892992,"839 NW OHIO AVE","CHEHALIS","WA",98532,46.6694406560001,-122.977652948,492,"839 NW OHIO AVE, CHEHALIS, WA, 98532","Match","Exact","839 NW OHIO AVE, CHEHALIS, WA, 98532",180709446,"L"
892993,"839 NW OHIO","CHEHALIS","WA",98531,NA,NA,493,"839 NW OHIO, CHEHALIS, WA, 98531","No_Match",NA,NA,NA,NA
892994,"839 OAK ROAD","KRONENWETTER","WI",54455,44.7954575570001,-89.634318262,494,"839 OAK ROAD, KRONENWETTER, WI, 54455","Match","Exact","839 OAK RD, KRONENWETTER, WI, 54455",117159494,"L"
892995,"839 OLD STEVENS CREEK RD","MARTINEZ","GA",30907,NA,NA,495,"839 OLD STEVENS CREEK RD, MARTINEZ, GA, 30907","Tie",NA,NA,NA,NA
892996,"839 PARK PL NO 4","BROOKLYN","NY",11216,40.6734068420001,-73.949725311,496,"839 PARK PL NO 4, BROOKLYN, NY, 11216","Match","Non_Exact","839 PARK PL, BROOKLYN, NY, 11216",59079422,"L"
892997,"839 PENNSYLVANIA AVE","LEMOYNE","PA",17043,40.2452766870001,-76.9047079549999,497,"839 PENNSYLVANIA AVE, LEMOYNE, PA, 17043","Match","Exact","839 PENNSYLVANIA AVE, LEMOYNE, PA, 17043",60942736,"R"
892998,"839 PICCOLO","IRVINE","CA",92620,33.6888725520001,-117.76069043,498,"839 PICCOLO, IRVINE, CA, 92620","Match","Exact","839 PICCOLO, IRVINE, CA, 92620",642191493,"L"
892999,"839 PINE AVE","LONG BEACH","CA",90813,33.7772823710001,-118.192375264,499,"839 PINE AVE, LONG BEACH, CA, 90813","Match","Exact","839 PINE AVE, LONG BEACH, CA, 90813",141693914,"L"
893000,"839 PLAINFIELD LANE","VALLEY STREAM","NY",11581,40.6464685980001,-73.725462211,500,"839 PLAINFIELD LANE, VALLEY STREAM, NY, 11581","Match","Exact","839 PLAINFIELD LN, VALLEY STREAM, NY, 11581",147677038,"L"
