"ID","Address","City","State","Zip","lat","long","id","input_address","match_indicator","match_type","matched_address","tiger_line_id","tiger_side"
693501,"512 NORTH 29TH ST STE 106","BILLINGS","MT",59101,45.7850082090001,-108.510463703,1,"512 NORTH 29TH ST STE 106, BILLINGS, MT, 59101","Match","Exact","512 N 29TH ST, BILLINGS, MT, 59101",181477338,"L"
693502,"512 NORTH 7TH STREET","BURLINGTON","IA",52601,40.8130168430001,-91.106548694,2,"512 NORTH 7TH STREET, BURLINGTON, IA, 52601","Match","Exact","512 N 7TH ST, BURLINGTON, IA, 52601",5541993,"R"
693503,"512 NORTH BROADWAY","MCCOMB","MS",39648,31.2490197870001,-90.454920638,3,"512 NORTH BROADWAY, MCCOMB, MS, 39648","Match","Non_Exact","512 N BROADWAY ST, MCCOMB, MS, 39648",645481730,"L"
693504,"512 NORTH DULUTH AVENUE","THIEF RIVER FALLS","MN",56701,NA,NA,4,"512 NORTH DULUTH AVENUE, THIEF RIVER FALLS, MN, 56701","No_Match",NA,NA,NA,NA
693505,"512 NORTH HAMPTON ROAD 273","DESOTO","TX",75115,32.5968407720001,-96.857023909,5,"512 NORTH HAMPTON ROAD 273, DESOTO, TX, 75115","Match","Exact","512 N HAMPTON RD, DESOTO, TX, 75115",102953752,"R"
693506,"512 NORTH HOLLY ST","MEDFORD","PA",97501,NA,NA,6,"512 NORTH HOLLY ST, MEDFORD, PA, 97501","No_Match",NA,NA,NA,NA
693507,"512 NORTH HUFFMAN AVE 1","PORTAGEVILLE","MO",63873,36.4287303340001,-89.701975578,7,"512 NORTH HUFFMAN AVE 1, PORTAGEVILLE, MO, 63873","Match","Exact","512 N HUFFMAN AVE, PORTAGEVILLE, MO, 63873",647890505,"R"
693508,"512 NORTH MAIN ST STE 105","ROYAL OAK","MI",48067,42.493166214,-83.144432208,8,"512 NORTH MAIN ST STE 105, ROYAL OAK, MI, 48067","Match","Exact","512 N MAIN ST, ROYAL OAK, MI, 48067",69745683,"R"
693509,"512 NORTH MAIN STREET - STE 1","BURLINGTON","IA",52601,40.811579722,-91.100886794,9,"512 NORTH MAIN STREET - STE 1, BURLINGTON, IA, 52601","Match","Exact","512 N MAIN ST, BURLINGTON, IA, 52601",5542018,"R"
693510,"512 NORTH MAIN STREET","HIGHTSTOWN","NJ",8520,40.275294403,-74.520912557,10,"512 NORTH MAIN STREET, HIGHTSTOWN, NJ, 8520","Match","Exact","512 N MAIN ST, HIGHTSTOWN, NJ, 08520",60173982,"L"
693511,"512 NORTH MAIN STREET","TWIN BRIDGES","MT",59754,45.549012582,-112.330780331,11,"512 NORTH MAIN STREET, TWIN BRIDGES, MT, 59754","Match","Non_Exact","512 MAIN ST, TWIN BRIDGES, MT, 59754",611535960,"R"
693512,"512 NORTH MAIN","ROYAL OAK","MI",48067,42.493166214,-83.144432208,12,"512 NORTH MAIN, ROYAL OAK, MI, 48067","Match","Non_Exact","512 N MAIN ST, ROYAL OAK, MI, 48067",69745683,"R"
693513,"512 NORTH ROYAL TOWER DRIVE","IRMO","SC",29063,34.097853851,-81.198693052,13,"512 NORTH ROYAL TOWER DRIVE, IRMO, SC, 29063","Match","Exact","512 N ROYAL TOWER DR, IRMO, SC, 29063",635634866,"L"
693514,"512 NORTHAMPTON ST","EDWARDSVILLE","PA",18704,41.257751898,-75.898708685,14,"512 NORTHAMPTON ST, EDWARDSVILLE, PA, 18704","Match","Exact","512 NORTHAMPTON ST, EDWARDSVILLE, PA, 18704",80913725,"L"
693515,"512 NORTHEAST 3RD AVE","FORT LAUDERDALE","FL",33301,26.1282714610001,-80.140731317,15,"512 NORTHEAST 3RD AVE, FORT LAUDERDALE, FL, 33301","Match","Exact","512 NE 3RD AVE, FORT LAUDERDALE, FL, 33301",114722606,"R"
693516,"512 NORTHPARK AVE","AURORA","IL",60506,NA,NA,16,"512 NORTHPARK AVE, AURORA, IL, 60506","No_Match",NA,NA,NA,NA
693517,"512 NW 2ND AVENUE","CAPE CORAL","FL",33909,26.661042997,-81.969892214,17,"512 NW 2ND AVENUE, CAPE CORAL, FL, 33909","Match","Non_Exact","512 NE 2ND AVE, CAPE CORAL, FL, 33909",118008242,"R"
693518,"512 NW 7TH","STUART","IA",50250,NA,NA,18,"512 NW 7TH, STUART, IA, 50250","No_Match",NA,NA,NA,NA
693519,"512 NW KOUNS DR","ALBANY","OR",97321,44.643300271,-123.150438573,19,"512 NW KOUNS DR, ALBANY, OR, 97321","Match","Exact","512 NW KOUNS DR, ALBANY, OR, 97321",635463143,"L"
693520,"512 OAK LANE","LIBERTY HILL","TX",78642,30.69234277,-97.892071186,20,"512 OAK LANE, LIBERTY HILL, TX, 78642","Match","Exact","512 OAK LN, LIBERTY HILL, TX, 78642",126490121,"R"
693521,"512 OAK STREET","BARABOO","WI",53913,43.4701075580001,-89.7424862779999,21,"512 OAK STREET, BARABOO, WI, 53913","Match","Exact","512 OAK ST, BARABOO, WI, 53913",86534403,"R"
693522,"512 OAKLAND AVE","WAUKESHA","WI",53186,43.0080601780001,-88.216522977,22,"512 OAKLAND AVE, WAUKESHA, WI, 53186","Match","Exact","512 OAKLAND AVE, WAUKESHA, WI, 53186",638711544,"L"
693523,"512 OLD FARM LANE SOUTH E","PRATTVILLE","DC",36066,NA,NA,23,"512 OLD FARM LANE SOUTH E, PRATTVILLE, DC, 36066","No_Match",NA,NA,NA,NA
693524,"512 OLD HICKORY BLVD APT 1421","NASHVILLE","TN",37209,36.1002754570001,-86.923872284,24,"512 OLD HICKORY BLVD APT 1421, NASHVILLE, TN, 37209","Match","Non_Exact","512 OLD HICKORY BLVD, NASHVILLE, TN, 37209",606822098,"R"
693525,"512 OLD PASTURE LANE","SEVERNA PARK","MD",21146,39.0863057340001,-76.5911575979999,25,"512 OLD PASTURE LANE, SEVERNA PARK, MD, 21146","Match","Exact","512 OLD PASTURE LN, SEVERNA PARK, MD, 21146",68167070,"R"
693526,"512 ORKNEY ROAD","BALTIMORE","MD",21212,39.3629679490001,-76.609370011,26,"512 ORKNEY ROAD, BALTIMORE, MD, 21212","Match","Exact","512 ORKNEY RD, BALTIMORE, MD, 21212",206437909,"L"
693527,"512 PARK LAKE DRIVE","MONTGOMERY","AL",36117,32.3879861680001,-86.1838412449999,27,"512 PARK LAKE DRIVE, MONTGOMERY, AL, 36117","Match","Exact","512 PARK LAKE DR, MONTGOMERY, AL, 36117",638147676,"L"
693528,"512 PARK","WILLARD","OH",44890,41.0527769010001,-82.7288132419999,28,"512 PARK, WILLARD, OH, 44890","Match","Non_Exact","512 PARK ST, WILLARD, OH, 44890",12612682,"L"
693529,"512 PEACE STREET","DORSET","VT",5251,43.2650904120001,-73.096330987,29,"512 PEACE STREET, DORSET, VT, 5251","Match","Exact","512 PEACE ST, DORSET, VT, 05251",139209575,"R"
693530,"512 PEARSON CIRCLE","NEWPORT","NC",28570,34.714297779,-76.945562619,30,"512 PEARSON CIRCLE, NEWPORT, NC, 28570","Match","Exact","512 PEARSON CIR, NEWPORT, NC, 28570",642923178,"L"
693531,"512 PELICAN CT","DESTO","TX",75112,32.5701806100001,-96.8478464619999,31,"512 PELICAN CT, DESTO, TX, 75112","Match","Non_Exact","512 PELICAN CT, DESOTO, TX, 75115",103185028,"L"
693532,"512 PENNSYLVANIA AVE","LYNN HAVEN","FL",32444,30.250111142,-85.647401047,32,"512 PENNSYLVANIA AVE, LYNN HAVEN, FL, 32444","Match","Exact","512 PENNSYLVANIA AVE, LYNN HAVEN, FL, 32444",7042573,"L"
693533,"512 PILARCITOS AVENUE","HALF MOON BAY","CA",94019,37.474350026,-122.443835238,33,"512 PILARCITOS AVENUE, HALF MOON BAY, CA, 94019","Match","Exact","512 PILARCITOS AVE, HALF MOON BAY, CA, 94019",192382519,"L"
693534,"512 PINEBROOK CT","WEST HEMPSTEAD","NY",11552,40.6735085,-73.6566453889999,34,"512 PINEBROOK CT, WEST HEMPSTEAD, NY, 11552","Match","Exact","512 PINEBROOK CT, W HEMPSTEAD, NY, 11552",147675379,"R"
693535,"512 PORTLAND  DRIVE SW","WILLMAR","MN",56201,45.0962292620001,-95.045403369,35,"512 PORTLAND  DRIVE SW, WILLMAR, MN, 56201","Match","Exact","512 PORTLAND DR SW, WILLMAR, MN, 56201",36725883,"L"
693536,"512 PORTLAND DRIVE SW","WILLMAR","MN",56201,45.0962292620001,-95.045403369,36,"512 PORTLAND DRIVE SW, WILLMAR, MN, 56201","Match","Exact","512 PORTLAND DR SW, WILLMAR, MN, 56201",36725883,"L"
693537,"512 POST OAK DRIVE","NEWARK","TX",76071,33.013256362,-97.4890128009999,37,"512 POST OAK DRIVE, NEWARK, TX, 76071","Match","Exact","512 POST OAK DR, NEWARK, TX, 76071",639976506,"L"
693538,"512 POWDERHORN ROAD","KNG OF PRUSSA","PA",19406,40.0890914730001,-75.377798097,38,"512 POWDERHORN ROAD, KNG OF PRUSSA, PA, 19406","Match","Exact","512 POWDERHORN RD, KNG OF PRUSSA, PA, 19406",135071290,"R"
693539,"512 PRESSWICK LANE","ST.CHARLES","MO",63303,38.7698427730001,-90.518129479,39,"512 PRESSWICK LANE, ST.CHARLES, MO, 63303","Match","Exact","512 PRESSWICK LN, SAINT CHARLES, MO, 63303",100044257,"L"
693540,"512 PUTNAM AVE","BROOKLYN","NY",11221,40.6850890850001,-73.940825632,40,"512 PUTNAM AVE, BROOKLYN, NY, 11221","Match","Exact","512 PUTNAM AVE, BROOKLYN, NY, 11221",59079247,"R"
693541,"512 QUAILNEST LN","PENSACOLA","FL",32514,30.5423530410001,-87.2549629489999,41,"512 QUAILNEST LN, PENSACOLA, FL, 32514","Match","Non_Exact","512 QUAIL NEST LN, PENSACOLA, FL, 32514",93235658,"L"
693542,"512 QUARTZ DR","DURHAM","NC",27703,35.9889866340001,-78.820547249,42,"512 QUARTZ DR, DURHAM, NC, 27703","Match","Exact","512 QUARTZ DR, DURHAM, NC, 27703",71761436,"L"
693543,"512 RATON CT","CHESAPEAKE","VA",23323,36.726299226,-76.327098067,43,"512 RATON CT, CHESAPEAKE, VA, 23323","Match","Exact","512 RATON CT, CHESAPEAKE, VA, 23323",121780510,"L"
693544,"512 REDWOOD DRIVE","CEDARHURST","NY",11516,40.6328712430001,-73.730219357,44,"512 REDWOOD DRIVE, CEDARHURST, NY, 11516","Match","Exact","512 REDWOOD DR, CEDARHURST, NY, 11516",147656928,"L"
693545,"512 REED RIVER DR","PASO ROBLES","CA",93446,35.6224171960001,-120.651642214,45,"512 REED RIVER DR, PASO ROBLES, CA, 93446","Match","Non_Exact","512 RED RIVER DR, PASO ROBLES, CA, 93446",109884766,"R"
693546,"512 REID AVENUE","BROWNSVILLE","TN",38012,35.5981785640001,-89.25738947,46,"512 REID AVENUE, BROWNSVILLE, TN, 38012","Match","Non_Exact","512 REID ST, BROWNSVILLE, TN, 38012",63735310,"R"
693547,"512 REV WILSON AVE","NORTH LAS VEGAS","NV",89030,36.2114712540001,-115.147730609,47,"512 REV WILSON AVE, NORTH LAS VEGAS, NV, 89030","Match","Exact","512 REV WILSON AVE, N LAS VEGAS, NV, 89030",201944635,"R"
693548,"512 RIDGELEIGH DRIVE","MINERVA","OH",44657,40.7330163780001,-81.1055761329999,48,"512 RIDGELEIGH DRIVE, MINERVA, OH, 44657","Match","Exact","512 RIDGELEIGH DR, MINERVA, OH, 44657",647939538,"L"
693549,"512 RIDGEMONT AVE","SAN ANTONIO","TX",78209,29.48077031,-98.448853427,49,"512 RIDGEMONT AVE, SAN ANTONIO, TX, 78209","Match","Exact","512 RIDGEMONT AVE, SAN ANTONIO, TX, 78209",101529764,"R"
693550,"512 RIDGEVIEW DRIVE","PLEASANTON","TX",78064,29.041805777,-98.438428029,50,"512 RIDGEVIEW DRIVE, PLEASANTON, TX, 78064","Match","Exact","512 RIDGEVIEW DR, PLEASANTON, TX, 78064",24477584,"R"
693551,"512 RIVER TERRACE","KIEL","WI",53042,43.9100748700001,-88.0364378639999,51,"512 RIVER TERRACE, KIEL, WI, 53042","Match","Exact","512 RIVER TER, KIEL, WI, 53042",147952282,"L"
693552,"512 RIVERBED DR","CROWLEY","TX",76036,32.5636550900001,-97.36574716,52,"512 RIVERBED DR, CROWLEY, TX, 76036","Match","Exact","512 RIVERBED DR, CROWLEY, TX, 76036",627701765,"R"
693553,"512 ROBBINS STREET","PHILADELPHIA","PA",19111,40.04801902,-75.096235529,53,"512 ROBBINS STREET, PHILADELPHIA, PA, 19111","Match","Exact","512 ROBBINS ST, PHILADELPHIA, PA, 19111",131415160,"R"
693554,"512 ROBERT AND MARY ST APT 24","GRAYSON","KY",41143,NA,NA,54,"512 ROBERT AND MARY ST APT 24, GRAYSON, KY, 41143","No_Match",NA,NA,NA,NA
693555,"512 ROCK MILL COURT","LAWRENCEVILLE","GA",30044,33.912127949,-84.041013429,55,"512 ROCK MILL COURT, LAWRENCEVILLE, GA, 30044","Match","Non_Exact","512 ROCKMILL CT, LAWRENCEVILLE, GA, 30044",88903990,"L"
693556,"512 ROCKAWAY AVE APT 3F","BROOKLYN","NY",11212,40.6675398950001,-73.910196358,56,"512 ROCKAWAY AVE APT 3F, BROOKLYN, NY, 11212","Match","Exact","512 ROCKAWAY AVE, BROOKLYN, NY, 11212",59083920,"R"
693557,"512 RT 44-55","HIGHLAND","NY",12528,NA,NA,57,"512 RT 44-55, HIGHLAND, NY, 12528","No_Match",NA,NA,NA,NA
693558,"512 S 137TH STREET","BONNER SPRINGS","KS",66012,39.0897651010001,-94.897015596,58,"512 S 137TH STREET, BONNER SPRINGS, KS, 66012","Match","Exact","512 S 137TH ST, BONNER SPRINGS, KS, 66012",640025913,"L"
693559,"512 S 3RD ST","LANDER","WY",82520,42.828834273,-108.73279145,59,"512 S 3RD ST, LANDER, WY, 82520","Match","Exact","512 S 3RD ST, LANDER, WY, 82520",634493237,"R"
693560,"512 S 3RD STREET","ABERDEEN","SD",57401,45.4598926200001,-98.4923356419999,60,"512 S 3RD STREET, ABERDEEN, SD, 57401","Match","Exact","512 S 3RD ST, ABERDEEN, SD, 57401",200795746,"L"
693561,"512 S 5TH STREET","MENNO","SD",57045,43.236053902,-97.577965558,61,"512 S 5TH STREET, MENNO, SD, 57045","Match","Exact","512 S 5TH ST, MENNO, SD, 57045",172976045,"R"
693562,"512 S 9TH APT D","MCALLEN","TX",78501,NA,NA,62,"512 S 9TH APT D, MCALLEN, TX, 78501","No_Match",NA,NA,NA,NA
693563,"512 S ASH","CARLSBAD","NM",88220,32.4154716030001,-104.238210589,63,"512 S ASH, CARLSBAD, NM, 88220","Match","Non_Exact","512 S ASH ST, CARLSBAD, NM, 88220",131211274,"L"
693564,"512 S AVE W","MISSOULA","MT",59801,46.8488254430001,-114.004693774,64,"512 S AVE W, MISSOULA, MT, 59801","Match","Exact","512 SOUTH AVE W, MISSOULA, MT, 59801",205239071,"R"
693565,"512 S BEELINE HWY 34","PAYSON","AZ",85541,NA,NA,65,"512 S BEELINE HWY 34, PAYSON, AZ, 85541","Tie",NA,NA,NA,NA
693566,"512 S BREARLY ST","MADISON","WI",53703,43.0799763460001,-89.366858918,66,"512 S BREARLY ST, MADISON, WI, 53703","Match","Exact","512 S BREARLY ST, MADISON, WI, 53703",49473284,"R"
693567,"512 S BUCKINGHAM RD","YORKTOWN","IN",47396,40.188669584,-85.489689208,67,"512 S BUCKINGHAM RD, YORKTOWN, IN, 47396","Match","Exact","512 S BUCKINGHAM RD, YORKTOWN, IN, 47396",30848289,"R"
693568,"512 S CENTER ST","THOMASTON","GA",30286,32.8834486860001,-84.32615469,68,"512 S CENTER ST, THOMASTON, GA, 30286","Match","Exact","512 S CENTER ST, THOMASTON, GA, 30286",83683641,"L"
693569,"512 S CLEM STREET","WINCHESTER","IN",47394,40.167513958,-84.9891600829999,69,"512 S CLEM STREET, WINCHESTER, IN, 47394","Match","Non_Exact","512 S CLEM AVE, WINCHESTER, IN, 47394",31210544,"L"
693570,"512 S FIRST AVE","STROUD","OK",74079,35.742137347,-96.653915478,70,"512 S FIRST AVE, STROUD, OK, 74079","Match","Exact","512 S 1ST AVE, STROUD, OK, 74079",143031009,"L"
693571,"512 S GUNNISON","BURLINGTON","IA",52601,40.8049637600001,-91.117462072,71,"512 S GUNNISON, BURLINGTON, IA, 52601","Match","Non_Exact","512 S GUNNISON ST, BURLINGTON, IA, 52601",5543767,"R"
693572,"512 S HAMILTON ST","GEORGETOWN","KY",40324,38.205761318,-84.558427787,72,"512 S HAMILTON ST, GEORGETOWN, KY, 40324","Match","Exact","512 S HAMILTON ST, GEORGETOWN, KY, 40324",41232247,"R"
693573,"512 S IVY AVENUE","MONROVIA","CA",91016,34.146507555,-117.998745135,73,"512 S IVY AVENUE, MONROVIA, CA, 91016","Match","Exact","512 S IVY AVE, MONROVIA, CA, 91016",142743651,"L"
693574,"512 S KASPER DR","SANTA CLAUS","IN",47579,38.110644875,-86.94155811,74,"512 S KASPER DR, SANTA CLAUS, IN, 47579","Match","Exact","512 KASPER DR, SANTA CLAUS, IN, 47579",7981133,"R"
693575,"512 S KENT ST","WINCHESTER","VA",22601,39.178422514,-78.164594327,75,"512 S KENT ST, WINCHESTER, VA, 22601","Match","Exact","512 S KENT ST, WINCHESTER, VA, 22601",55578614,"R"
693576,"512 S MAIN STREET","WESTFIELD","WI",53964,43.88225528,-89.493352159,76,"512 S MAIN STREET, WESTFIELD, WI, 53964","Match","Exact","512 S MAIN ST, WESTFIELD, WI, 53964",611908406,"R"
693577,"512 S MARIPOSA ST","BURBANK","CA",91506,34.163466697,-118.316425019,77,"512 S MARIPOSA ST, BURBANK, CA, 91506","Match","Exact","512 S MARIPOSA ST, BURBANK, CA, 91506",142727147,"L"
693578,"512 S MATHIS AVE","MORTON","IL",61550,40.6066988700001,-89.466291164,78,"512 S MATHIS AVE, MORTON, IL, 61550","Match","Exact","512 S MATHIS AVE, MORTON, IL, 61550",22503377,"L"
693579,"512 S MEYERS ST UNIT 7","OCEANSIDE","CA",92054,NA,NA,79,"512 S MEYERS ST UNIT 7, OCEANSIDE, CA, 92054","Tie",NA,NA,NA,NA
693580,"512 S OAKLEY BLVD","CHICAGO","IL",60612,41.874637525,-87.683797791,80,"512 S OAKLEY BLVD, CHICAGO, IL, 60612","Match","Exact","512 S OAKLEY BLVD, CHICAGO, IL, 60612",605086769,"R"
693581,"512 S SANTA FE","WOLFE CITY","TX",75496,NA,NA,81,"512 S SANTA FE, WOLFE CITY, TX, 75496","Tie",NA,NA,NA,NA
693582,"512 S STATE STREET","ALPENA","MI",49707,45.05529654,-83.4386512679999,82,"512 S STATE STREET, ALPENA, MI, 49707","Match","Non_Exact","512 S STATE AVE, ALPENA, MI, 49707",135791384,"R"
693583,"512 S TOLLGATE ROAD","BEL AIR","MD",21014,39.519095212,-76.3518292429999,83,"512 S TOLLGATE ROAD, BEL AIR, MD, 21014","Match","Exact","512 S TOLLGATE RD, BEL AIR, MD, 21014",191685798,"R"
693584,"512 S TRILLIUM WAY","MOSES LAKE","WA",98837,47.0961356810001,-119.315583771,84,"512 S TRILLIUM WAY, MOSES LAKE, WA, 98837","Match","Exact","512 TRILLIUM WAY, MOSES LAKE, WA, 98837",635353002,"L"
693585,"512 S VALLEY RD","WEST ORANGE","NJ",7052,40.770595417,-74.244874782,85,"512 S VALLEY RD, WEST ORANGE, NJ, 7052","Match","Exact","512 VALLEY RD, WEST ORANGE, NJ, 07052",647609273,"L"
693586,"512 SADDLE BACK TRAIL","CIBOLO","TX",78108,29.5850324530001,-98.2166145689999,86,"512 SADDLE BACK TRAIL, CIBOLO, TX, 78108","Match","Exact","512 SADDLE BACK TRL, CIBOLO, TX, 78108",641467338,"L"
693587,"512 SADDLE RD","GRANTSVILLE","UT",84029,40.5841642980001,-112.42759772,87,"512 SADDLE RD, GRANTSVILLE, UT, 84029","Match","Exact","512 SADDLE RD, GRANTSVILLE, UT, 84029",645532981,"L"
693588,"512 SAINT CLAIR DRIVE","CONYERS","GA",30094,NA,NA,88,"512 SAINT CLAIR DRIVE, CONYERS, GA, 30094","No_Match",NA,NA,NA,NA
693589,"512 SAINT MARYS STREET STE 107","RALEIGH","NC",27605,35.786854958,-78.65081911,89,"512 SAINT MARYS STREET STE 107, RALEIGH, NC, 27605","Match","Exact","512 SAINT MARYS ST, RALEIGH, NC, 27605",72503438,"R"
693590,"512 SAY BROOKE LN","DOWNINGTOWN","PA",19335,40.0936611220001,-75.707817559,90,"512 SAY BROOKE LN, DOWNINGTOWN, PA, 19335","Match","Non_Exact","512 SAYBROOKE LN, DOWNINGTOWN, PA, 19335",179511527,"R"
693591,"512 SCHOLAR CT","EDGEWOOD","MD",21040,39.426374722,-76.285311298,91,"512 SCHOLAR CT, EDGEWOOD, MD, 21040","Match","Exact","512 SCHOLAR CT, EDGEWOOD, MD, 21040",191644965,"L"
693592,"512 SCOTT DRIVE","SILVER SPRING","MD",20904,39.076366292,-77.0216352849999,92,"512 SCOTT DRIVE, SILVER SPRING, MD, 20904","Match","Exact","512 SCOTT DR, SILVER SPRING, MD, 20904",62107510,"L"
693593,"512 SE BASELINE ST","HILLSBORO","OR",97123,45.520041829,-122.982275409,93,"512 SE BASELINE ST, HILLSBORO, OR, 97123","Match","Exact","512 SE BASELINE ST, HILLSBORO, OR, 97123",158178813,"R"
693594,"512 SE CR 1070","CORSICANA","TX",45109,31.96342838,-96.418324264,94,"512 SE CR 1070, CORSICANA, TX, 45109","Match","Non_Exact","512 SE CO RD 1070, CORSICANA, TX, 75109",183898330,"R"
693595,"512 SE THIRD STREET","OCALA","FL",34471,29.1840034860001,-82.13256173,95,"512 SE THIRD STREET, OCALA, FL, 34471","Match","Exact","512 SE 3RD ST, OCALA, FL, 34471",116726744,"R"
693596,"512 SEAN FRANCIS WAY","DURHAM","NC",27713,35.9035119430001,-78.903210412,96,"512 SEAN FRANCIS WAY, DURHAM, NC, 27713","Match","Exact","512 SEAN FRANCIS WAY, DURHAM, NC, 27713",71768634,"R"
693597,"512 SHAGBARK TRAIL","RICHMOND","KY",40475,37.8791934480001,-84.346459474,97,"512 SHAGBARK TRAIL, RICHMOND, KY, 40475","Match","Exact","512 SHAGBARK TRL, RICHMOND, KY, 40475",614171911,"R"
693598,"512 SOPHIE LANE","COLLEYVILLE","TX",76034,32.8809255300001,-97.174527771,98,"512 SOPHIE LANE, COLLEYVILLE, TX, 76034","Match","Exact","512 SOPHIE LN, COLLEYVILLE, TX, 76034",102187004,"L"
693599,"512 SOUTH 11TH AVENUE","MT. VERNON","NY",10550,40.897650872,-73.838850749,99,"512 SOUTH 11TH AVENUE, MT. VERNON, NY, 10550","Match","Exact","512 S 11TH AVE, MOUNT VERNON, NY, 10550",139747514,"R"
693600,"512 SOUTH B LINE HIGHWAY 5A","PAYSON","AZ",85541,NA,NA,100,"512 SOUTH B LINE HIGHWAY 5A, PAYSON, AZ, 85541","No_Match",NA,NA,NA,NA
693601,"512 SOUTH HOBART BLVD UNIT 402","LOS ANGELES","CA",90020,34.0650223050001,-118.305348289,101,"512 SOUTH HOBART BLVD UNIT 402, LOS ANGELES, CA, 90020","Match","Exact","512 S HOBART BLVD, LOS ANGELES, CA, 90020",141603830,"L"
693602,"512 SOUTH LINCOLN ST","BENSON","NC",27504,35.381544252,-78.557468311,102,"512 SOUTH LINCOLN ST, BENSON, NC, 27504","Match","Exact","512 S LINCOLN ST, BENSON, NC, 27504",26528521,"R"
693603,"512 SOUTH MADISON AVE","INDIANAPOLIS","IN",46143,NA,NA,103,"512 SOUTH MADISON AVE, INDIANAPOLIS, IN, 46143","No_Match",NA,NA,NA,NA
693604,"512 SOUTH ST","BEDFORD","VA",24523,37.330151173,-79.521328887,104,"512 SOUTH ST, BEDFORD, VA, 24523","Match","Exact","512 SOUTH ST, BEDFORD, VA, 24523",62708663,"L"
693605,"512 SOUTH ST","PHILADELPHIA","PA",19147,39.9418888910001,-75.151321255,105,"512 SOUTH ST, PHILADELPHIA, PA, 19147","Match","Exact","512 SOUTH ST, PHILADELPHIA, PA, 19147",131440211,"L"
693606,"512 SOUTHFIELD DRIVE","FRIENDSWOOD","TX",77546,29.5448855240001,-95.208375221,106,"512 SOUTHFIELD DRIVE, FRIENDSWOOD, TX, 77546","Match","Exact","512 SOUTHFIELD DR, FRIENDSWOOD, TX, 77546",635234520,"L"
693607,"512 SOUTHH 800 EAST","SALT LAKE CITY","UT",84102,NA,NA,107,"512 SOUTHH 800 EAST, SALT LAKE CITY, UT, 84102","No_Match",NA,NA,NA,NA
693608,"512 SOUTHSIDE ROAD","ARLEY","AL",35541,34.0681379050001,-87.202908037,108,"512 SOUTHSIDE ROAD, ARLEY, AL, 35541","Match","Exact","512 SOUTHSIDE RD, ARLEY, AL, 35541",625109175,"R"
693609,"512 SPOTSWOOD GRAVEL HILL ROAD","MONROE TOWNSHIP","NJ",8831,40.3742485060001,-74.399823559,109,"512 SPOTSWOOD GRAVEL HILL ROAD, MONROE TOWNSHIP, NJ, 8831","Match","Exact","512 SPOTSWOOD GRAVEL HILL RD, MONROE TOWNSHIP, NJ, 08831",636498798,"L"
693610,"512 SPRING MEDOW CROSSING","WENTZVILLE","MO",63385,38.818391256,-90.861290663,110,"512 SPRING MEDOW CROSSING, WENTZVILLE, MO, 63385","Match","Non_Exact","512 SPRING MEADOW CROSSING, WENTZVILLE, MO, 63385",635858454,"L"
693611,"512 SPRING STREET","MANCHESTER","CT",6040,41.7603665300001,-72.497314035,111,"512 SPRING STREET, MANCHESTER, CT, 6040","Match","Exact","512 SPRING ST, MANCHESTER, CT, 06040",3499917,"R"
693612,"512 STANLEY AVE","CLARKSBURG","WV",26301,39.275692529,-80.3249097949999,112,"512 STANLEY AVE, CLARKSBURG, WV, 26301","Match","Exact","512 STANLEY AVE, CLARKSBURG, WV, 26301",53302550,"R"
693613,"512 STARSTONE DRIVE","LAKE MARY","FL",32746,28.7407976650001,-81.344476744,113,"512 STARSTONE DRIVE, LAKE MARY, FL, 32746","Match","Exact","512 STARSTONE DR, LAKE MARY, FL, 32746",93771499,"R"
693614,"512 STONE DRIVE APT 3307","MANHATTAN","KS",66503,39.185718245,-96.64411316,114,"512 STONE DRIVE APT 3307, MANHATTAN, KS, 66503","Match","Exact","512 STONE DR, MANHATTAN, KS, 66503",27810342,"R"
693615,"512 STONEBRIDGE CIR","SAVANNAH","GA",31419,32.037315839,-81.226870617,115,"512 STONEBRIDGE CIR, SAVANNAH, GA, 31419","Match","Exact","512 STONEBRIDGE CIR, SAVANNAH, GA, 31419",636352739,"L"
693616,"512 SUMMIT DRIVE","DECATUR","GA",30032,33.7387448960001,-84.306581308,116,"512 SUMMIT DRIVE, DECATUR, GA, 30032","Match","Exact","512 SUMMIT DR, DECATUR, GA, 30032",23367918,"L"
693617,"512 SUMMIT STREET","ENGLEWOOD CLIFFS","NJ",7632,40.883909074,-73.9551206309999,117,"512 SUMMIT STREET, ENGLEWOOD CLIFFS, NJ, 7632","Match","Exact","512 SUMMIT ST, ENGLEWOOD CLIFFS, NJ, 07632",635482190,"L"
693618,"512 SUNNYSLOPE AVE","PETALUMA","CA",94952,38.222675774,-122.637534628,118,"512 SUNNYSLOPE AVE, PETALUMA, CA, 94952","Match","Exact","512 SUNNYSLOPE AVE, PETALUMA, CA, 94952",67478061,"R"
693619,"512 SW 1ST CT  UNIT 108","POMPANO BEACH","FL",33060,NA,NA,119,"512 SW 1ST CT  UNIT 108, POMPANO BEACH, FL, 33060","No_Match",NA,NA,NA,NA
693620,"512 SW 9TH AVE","JASPER","FL",32052,30.5150625220001,-82.954460146,120,"512 SW 9TH AVE, JASPER, FL, 32052","Match","Non_Exact","512 9TH AVE SW, JASPER, FL, 32052",41012168,"L"
693621,"512 SW GLENDANA DR","LEES SUMMIT","MO",64081,38.895020087,-94.383897997,121,"512 SW GLENDANA DR, LEES SUMMIT, MO, 64081","Match","Exact","512 SW GLENDANA DR, LEES SUMMIT, MO, 64081",91531311,"R"
693622,"512 SWEET BAY DRIVE","MILPITAS","CA",95035,37.45149287,-121.919480747,122,"512 SWEET BAY DRIVE, MILPITAS, CA, 95035","Match","Exact","512 SWEET BAY DR, MILPITAS, CA, 95035",648602165,"R"
693623,"512 TANGLEWOOD DR","NORTH LITTLE ROCK","AR",72118,34.8081833110001,-92.2600630649999,123,"512 TANGLEWOOD DR, NORTH LITTLE ROCK, AR, 72118","Match","Exact","512 TANGLEWOOD DR, N LITTLE ROCK, AR, 72118",83528168,"R"
693624,"512 TANGLEWOOD DR","NORTH LITTLE ROCK","AR",NA,34.8081833110001,-92.2600630649999,124,"512 TANGLEWOOD DR, NORTH LITTLE ROCK, AR, ","Match","Exact","512 TANGLEWOOD DR, N LITTLE ROCK, AR, 72118",83528168,"R"
693625,"512 TENDERFOOT ST APT 114","DILLON","CO",80435,39.6293015000001,-106.038383982,125,"512 TENDERFOOT ST APT 114, DILLON, CO, 80435","Match","Exact","512 TENDERFOOT ST, DILLON, CO, 80435",651760096,"L"
693626,"512 TIMPSON AVE","DURHAM","NC",27703,35.948591633,-78.813966363,126,"512 TIMPSON AVE, DURHAM, NC, 27703","Match","Exact","512 TIMPSON AVE, DURHAM, NC, 27703",648117670,"R"
693627,"512 TOWNSHIP LINE","BLUE BELL","PA",19422,NA,NA,127,"512 TOWNSHIP LINE, BLUE BELL, PA, 19422","No_Match",NA,NA,NA,NA
693628,"512 TROLLEY CAR WAY","MORRISVILLE","NC",27560,35.8335580250001,-78.840874831,128,"512 TROLLEY CAR WAY, MORRISVILLE, NC, 27560","Match","Exact","512 TROLLEY CAR WAY, MORRISVILLE, NC, 27560",612815628,"R"
693629,"512 TRUAX DRIVE","IRVING","TX",75063,32.9469841600001,-96.950347597,129,"512 TRUAX DRIVE, IRVING, TX, 75063","Match","Exact","512 TRUAX DR, IRVING, TX, 75063",102993818,"L"
693630,"512 TUCKER ST","ROGERS","TX",76569,30.9298785120001,-97.234501488,130,"512 TUCKER ST, ROGERS, TX, 76569","Match","Exact","512 TUCKER ST, ROGERS, TX, 76569",146132842,"L"
693631,"512 TUXEDO BLVD","WEBSTER GROVES","MO",63119,38.6020976390001,-90.346181687,131,"512 TUXEDO BLVD, WEBSTER GROVES, MO, 63119","Match","Exact","512 TUXEDO BLVD, WEBSTER GROVES, MO, 63119",100140330,"R"
693632,"512 U ST NW STE 8","WASHINGTON","DC",20001,38.916603826,-77.018956026,132,"512 U ST NW STE 8, WASHINGTON, DC, 20001","Match","Exact","512 U ST NW, WASHINGTON, DC, 20001",76224444,"L"
693633,"512 VENTURA LANE","WHITEWATER","WI",53190,42.827949936,-88.761750532,133,"512 VENTURA LANE, WHITEWATER, WI, 53190","Match","Exact","512 VENTURA LN, WHITEWATER, WI, 53190",53682732,"R"
693634,"512 VILLANOVA COURT","FORT COLLINS","CO",80525,40.559711957,-105.069608565,134,"512 VILLANOVA COURT, FORT COLLINS, CO, 80525","Match","Exact","512 VILLANOVA CT, FORT COLLINS, CO, 80525",188491623,"L"
693635,"512 VINCENT ROAD","HUNTSVILLE","AL",35802,34.6706132480001,-86.56234032,135,"512 VINCENT ROAD, HUNTSVILLE, AL, 35802","Match","Non_Exact","512 VINCENT RD SE, HUNTSVILLE, AL, 35802",58216925,"R"
693636,"512 VINELAND DR","JACKSON","MS",39212,32.215151142,-90.252120996,136,"512 VINELAND DR, JACKSON, MS, 39212","Match","Exact","512 VINELAND DR, JACKSON, MS, 39212",65382103,"R"
693637,"512 VIRGINIA DRIVE","ROUND ROCK","TX",78664,30.523128898,-97.677334235,137,"512 VIRGINIA DRIVE, ROUND ROCK, TX, 78664","Match","Exact","512 VIRGINIA DR, ROUND ROCK, TX, 78664",126423309,"R"
693638,"512 W   PRINCETON","YOUNGSTOWN","OH",44511,41.0733948370001,-80.6706258729999,138,"512 W   PRINCETON, YOUNGSTOWN, OH, 44511","Match","Non_Exact","512 W PRINCETON AVE, YOUNGSTOWN, OH, 44511",64595043,"R"
693639,"512 W 134TH ST APT 42","NEW YORK","NY",10031,40.8184056870001,-73.9531367279999,139,"512 W 134TH ST APT 42, NEW YORK, NY, 10031","Match","Non_Exact","512 W 134TH ST, NEW YORK, NY, 10031",634257330,"L"
693640,"512 W 156TH ST 22","NEW YORK","NY",10032,40.8324593230001,-73.943025728,140,"512 W 156TH ST 22, NEW YORK, NY, 10032","Match","Non_Exact","512 W 156TH ST, NEW YORK, NY, 10032",59655448,"L"
693641,"512 W 156TH STREET SUITE 54","NEW YORK","NY",10032,40.8324593230001,-73.943025728,141,"512 W 156TH STREET SUITE 54, NEW YORK, NY, 10032","Match","Non_Exact","512 W 156TH ST, NEW YORK, NY, 10032",59655448,"L"
693642,"512 W 1ST AVENUE","HUTCHINSON","KS",67501,38.0534212330001,-97.94170416,142,"512 W 1ST AVENUE, HUTCHINSON, KS, 67501","Match","Exact","512 W 1ST AVE, HUTCHINSON, KS, 67501",142934878,"L"
693643,"512 W 40TH ST","WILMINGTON","DE",19802,39.7652272490001,-75.526934662,143,"512 W 40TH ST, WILMINGTON, DE, 19802","Match","Exact","512 W 40TH ST, WILMINGTON, DE, 19802",187258597,"L"
693644,"512 W 48TH PLACE","CHICAGO","IL",60609,NA,NA,144,"512 W 48TH PLACE, CHICAGO, IL, 60609","No_Match",NA,NA,NA,NA
693645,"512 W 64TH PLACE","INGLEWOOD","CA",90302,33.980499077,-118.366730841,145,"512 W 64TH PLACE, INGLEWOOD, CA, 90302","Match","Exact","512 W 64TH PL, INGLEWOOD, CA, 90302",141653627,"L"
693646,"512 W ATLANTA ST","BROKEN ARROW","OK",74008,36.030072712,-95.795998873,146,"512 W ATLANTA ST, BROKEN ARROW, OK, 74008","Match","Non_Exact","512 W ATLANTA ST, BROKEN ARROW, OK, 74012",166464295,"L"
693647,"512 W BARAGA AVE","HOUGHTON","MI",49931,47.1168602070001,-88.578776541,147,"512 W BARAGA AVE, HOUGHTON, MI, 49931","Match","Exact","512 W BARAGA AVE, HOUGHTON, MI, 49931",184112522,"R"
693648,"512 W CLIFTON","SIOUX CITY","IA",51104,42.5266242960001,-96.421088265,148,"512 W CLIFTON, SIOUX CITY, IA, 51104","Match","Non_Exact","512 W CLIFTON AVE, SIOUX CITY, IA, 51104",93444836,"L"
693649,"512 W CRANE","NORTON","KS",67654,39.8395243460001,-99.894481894,149,"512 W CRANE, NORTON, KS, 67654","Match","Non_Exact","512 W CRANE ST, NORTON, KS, 67654",196461160,"L"
693650,"512 W EL PASO ST","BROKEN ARROW","OK",74012,36.049406058,-95.7960654,150,"512 W EL PASO ST, BROKEN ARROW, OK, 74012","Match","Exact","512 W EL PASO ST, BROKEN ARROW, OK, 74012",166458588,"L"
693651,"512 W GORGAS ST","LOUISVILLE","OH",44641,40.8364694700001,-81.262883431,151,"512 W GORGAS ST, LOUISVILLE, OH, 44641","Match","Exact","512 W GORGAS ST, LOUISVILLE, OH, 44641",64688233,"L"
693652,"512 W GREEN ST  APT 104","CHAMPAIGN","IL",61820,NA,NA,152,"512 W GREEN ST  APT 104, CHAMPAIGN, IL, 61820","Tie",NA,NA,NA,NA
693653,"512 W HICKORY STE  112","DENTON","TX",76201,NA,NA,153,"512 W HICKORY STE  112, DENTON, TX, 76201","No_Match",NA,NA,NA,NA
693654,"512 W HYNES","ONEILL","NE",68763,42.464961041,-98.659833378,154,"512 W HYNES, ONEILL, NE, 68763","Match","Non_Exact","512 W HYNES AVE, ONEILL, NE, 68763",167123142,"R"
693655,"512 W INWOOD DR","ARLINGTON","TX",76010,32.7153790030001,-97.111886136,155,"512 W INWOOD DR, ARLINGTON, TX, 76010","Match","Exact","512 W INWOOD DR, ARLINGTON, TX, 76010",101909134,"L"
693656,"512 W MAIN ST","FELICITY","OH",45120,38.8403307390001,-84.0972092489999,156,"512 W MAIN ST, FELICITY, OH, 45120","Match","Exact","512 MAIN ST, FELICITY, OH, 45120",118442897,"R"
693657,"512 W MARTIN LUTHER KING BLVD 369","AUSTIN","TX",78701,NA,NA,157,"512 W MARTIN LUTHER KING BLVD 369, AUSTIN, TX, 78701","No_Match",NA,NA,NA,NA
693658,"512 W MLK BLVD SUITE 350","AUSTIN","TX",78701,NA,NA,158,"512 W MLK BLVD SUITE 350, AUSTIN, TX, 78701","No_Match",NA,NA,NA,NA
693659,"512 W MONROE ST","SANTA MARIA","CA",93458,34.972089119,-120.440881627,159,"512 W MONROE ST, SANTA MARIA, CA, 93458","Match","Exact","512 W MONROE ST, SANTA MARIA, CA, 93458",108594456,"R"
693660,"512 W NORTH STREET","BOONVILLE","IN",47601,38.0586972730001,-87.280477261,160,"512 W NORTH STREET, BOONVILLE, IN, 47601","Match","Exact","512 W NORTH ST, BOONVILLE, IN, 47601",635636882,"L"
693661,"512 W PARK ST","MORRISON","IL",61270,41.8081502380001,-89.974927108,161,"512 W PARK ST, MORRISON, IL, 61270","Match","Exact","512 W PARK ST, MORRISON, IL, 61270",48965592,"R"
693662,"512 W PINE ST","ABBOTT","TX",76621,31.8846482980001,-97.076794083,162,"512 W PINE ST, ABBOTT, TX, 76621","Match","Exact","512 PINE ST, ABBOTT, TX, 76621",160520435,"R"
693663,"512 W PRAIRIE STREET","ROANOKE","IL",61561,40.8003549360001,-89.2024329669999,163,"512 W PRAIRIE STREET, ROANOKE, IL, 61561","Match","Exact","512 W PRAIRIE ST, ROANOKE, IL, 61561",8994530,"R"
693664,"512 W ROBB STREET","SUMMIT","MS",39666,31.2839825040001,-90.472070834,164,"512 W ROBB STREET, SUMMIT, MS, 39666","Match","Exact","512 ROBB ST, SUMMIT, MS, 39666",612752085,"R"
693665,"512 W WISHART","MONETT","MO",65708,36.924240464,-93.93762036,165,"512 W WISHART, MONETT, MO, 65708","Match","Non_Exact","512 W WISHART ST, MONETT, MO, 65708",49356129,"R"
693666,"512 WALLINGFORD RD","CHESHIRE","CT",6410,41.4903967390001,-72.884435171,166,"512 WALLINGFORD RD, CHESHIRE, CT, 6410","Match","Exact","512 WALLINGFORD RD, CHESHIRE, CT, 06410",3712816,"L"
693667,"512 WALLINGFORD ROAD","CHESHIRE","CT",6410,41.4903967390001,-72.884435171,167,"512 WALLINGFORD ROAD, CHESHIRE, CT, 6410","Match","Exact","512 WALLINGFORD RD, CHESHIRE, CT, 06410",3712816,"L"
693668,"512 WARDER AVE","UNIVERSITY CITY","MO",63130,38.657689974,-90.340073713,168,"512 WARDER AVE, UNIVERSITY CITY, MO, 63130","Match","Exact","512 WARDER AVE, UNIVERSITY CITY, MO, 63130",640053081,"R"
693669,"512 WASHINGTON AVE","WATERFORD WORKS","NJ",8089,39.7358531300001,-74.882865898,169,"512 WASHINGTON AVE, WATERFORD WORKS, NJ, 8089","Match","Exact","512 WASHINGTON AVE, WATERFORD WORKS, NJ, 08089",647268243,"L"
693670,"512 WASHINGTON","ROSE HILL","IA",52586,41.32194264,-92.4617907259999,170,"512 WASHINGTON, ROSE HILL, IA, 52586","Match","Non_Exact","512 WASHINGTON ST, ROSE HILL, IA, 52586",89379991,"L"
693671,"512 WATCH HILL ROAD","VILLANOVA","PA",19085,40.0262907360001,-75.37172993,171,"512 WATCH HILL ROAD, VILLANOVA, PA, 19085","Match","Exact","512 WATCH HILL RD, VILLANOVA, PA, 19085",134867137,"R"
693672,"512 WATTS ST","DURHAM","NC",27701,36.006149297,-78.911148275,172,"512 WATTS ST, DURHAM, NC, 27701","Match","Exact","512 WATTS ST, DURHAM, NC, 27701",71774720,"R"
693673,"512 WEST 14TH STREET","LAKELAND","FL",33805,28.0653649660001,-81.961792924,173,"512 WEST 14TH STREET, LAKELAND, FL, 33805","Match","Exact","512 W 14TH ST, LAKELAND, FL, 33805",104808217,"L"
693674,"512 WEST 156TH STREET 22","NEW YORK","NY",10032,40.832456764,-73.9430196549999,174,"512 WEST 156TH STREET 22, NEW YORK, NY, 10032","Match","Exact","512 W 156TH ST, NEW YORK, NY, 10032",59655448,"L"
693675,"512 WEST 5TH AVENUE","TALLAHASSEE","FL",32303,30.4546488550001,-84.28819149,175,"512 WEST 5TH AVENUE, TALLAHASSEE, FL, 32303","Match","Exact","512 W 5TH AVE, TALLAHASSEE, FL, 32303",82850254,"R"
693676,"512 WEST 5TH ST","OGALLALA","NE",69153,41.1277476450001,-101.724588808,176,"512 WEST 5TH ST, OGALLALA, NE, 69153","Match","Exact","512 W 5TH ST, OGALLALA, NE, 69153",150951999,"R"
693677,"512 WEST 7TH STREET","SILVER CITY","NM",88061,32.773431106,-108.279149032,177,"512 WEST 7TH STREET, SILVER CITY, NM, 88061","Match","Exact","512 W 7TH ST, SILVER CITY, NM, 88061",192654316,"R"
693678,"512 WEST BOIS D ARC","EDNA","TX",77957,28.979553277,-96.653713448,178,"512 WEST BOIS D ARC, EDNA, TX, 77957","Match","Non_Exact","512 W BOIS DARC ST, EDNA, TX, 77957",42116261,"L"
693679,"512 WEST GREEN STREET APT 204","CHAMPAIGN","IL",61820,40.1101468470001,-88.2503695939999,179,"512 WEST GREEN STREET APT 204, CHAMPAIGN, IL, 61820","Match","Exact","512 W GREEN ST, CHAMPAIGN, IL, 61820",8810753,"R"
693680,"512 WEST IDAHO","BOISE","ID",83702,43.6147135200001,-116.199423829,180,"512 WEST IDAHO, BOISE, ID, 83702","Match","Non_Exact","512 W IDAHO ST, BOISE, ID, 83702",117864802,"R"
693681,"512 WEST LINN ST","MARSHALLTOWN","IA",50158,42.046683375,-92.9212180499999,181,"512 WEST LINN ST, MARSHALLTOWN, IA, 50158","Match","Exact","512 W LINN ST, MARSHALLTOWN, IA, 50158",90920851,"L"
693682,"512 WEST MOSELEY ST","FREEPORT","IL",61032,42.289271978,-89.6246341309999,182,"512 WEST MOSELEY ST, FREEPORT, IL, 61032","Match","Exact","512 W MOSELEY ST, FREEPORT, IL, 61032",32695574,"R"
693683,"512 WEST ORMSBY AVE APT 619","LOUISVILLE","KY",40203,38.2330750130001,-85.763167648,183,"512 WEST ORMSBY AVE APT 619, LOUISVILLE, KY, 40203","Match","Exact","512 W ORMSBY AVE, LOUISVILLE, KY, 40203",96844038,"L"
693684,"512 WEST PEARL STREET","STAUNTON","IL",62088,39.011236646,-89.791568797,184,"512 WEST PEARL STREET, STAUNTON, IL, 62088","Match","Exact","512 W PEARL ST, STAUNTON, IL, 62088",97921110,"R"
693685,"512 WEST SPRUCE STREET","LEXINGTON","NE",68850,40.7739961610001,-99.747415475,185,"512 WEST SPRUCE STREET, LEXINGTON, NE, 68850","Match","Exact","512 W SPRUCE ST, LEXINGTON, NE, 68850",137914614,"L"
693686,"512 WEST ST","MADISON","IN",47250,38.737940495,-85.3802436409999,186,"512 WEST ST, MADISON, IN, 47250","Match","Exact","512 WEST ST, MADISON, IN, 47250",31385744,"R"
693687,"512 WESTVIEW AVE","CLINTON","WI",53525,42.561989952,-88.869409995,187,"512 WESTVIEW AVE, CLINTON, WI, 53525","Match","Exact","512 WESTVIEW AVE, CLINTON, WI, 53525",49850957,"L"
693688,"512 WHISPERING WILLOW LN","SOLON","IA",52333,41.806233363,-91.4879971079999,188,"512 WHISPERING WILLOW LN, SOLON, IA, 52333","Match","Exact","512 WHISPERING WILLOW LN, SOLON, IA, 52333",635829514,"L"
693689,"512 WHITE CREEK RD","SANDY HOOK","KY",41171,38.1036668610001,-82.9881866379999,189,"512 WHITE CREEK RD, SANDY HOOK, KY, 41171","Match","Exact","512 WHITE CREEK RD, SANDY HOOK, KY, 41171",39521308,"L"
693690,"512 WILD CHERRY LANE","BREAUX BRIDGE","LA",70517,30.265951611,-91.897614553,190,"512 WILD CHERRY LANE, BREAUX BRIDGE, LA, 70517","Match","Exact","512 WILD CHERRY LN, BREAUX BRIDGE, LA, 70517",636244059,"L"
693691,"512 WINCHESTER AVE","MARTINSBURG","WV",25401,39.45397117,-77.973877481,191,"512 WINCHESTER AVE, MARTINSBURG, WV, 25401","Match","Exact","512 WINCHESTER AVE, MARTINSBURG, WV, 25401",123379017,"R"
693692,"512 WINNEPEG DR","COLORADO SPRINGS","CO",80910,38.824035871,-104.788003211,192,"512 WINNEPEG DR, COLORADO SPRINGS, CO, 80910","Match","Exact","512 WINNEPEG DR, COLORADO SPRINGS, CO, 80910",105517157,"R"
693693,"512 WOODBERRY WAY","CHESTER SPRINGS","PA",19425,40.0860391140001,-75.6416423539999,193,"512 WOODBERRY WAY, CHESTER SPRINGS, PA, 19425","Match","Exact","512 WOODBERRY WAY, CHESTER SPRINGS, PA, 19425",179556750,"L"
693694,"512 WOODLAND OAKS DR","SCHERTZ","TX",78154,29.5724408040001,-98.2796876039999,194,"512 WOODLAND OAKS DR, SCHERTZ, TX, 78154","Match","Exact","512 WOODLAND OAKS DR, SCHERTZ, TX, 78154",54842550,"R"
693695,"512 WOODLAWN AVE","GREENSBORO","NC",27401,36.079593608,-79.803337857,195,"512 WOODLAWN AVE, GREENSBORO, NC, 27401","Match","Exact","512 WOODLAWN AVE, GREENSBORO, NC, 27401",131031836,"R"
693696,"512 WORTHINGTON DR APT A","BRIDGEPORT","WV",26330,39.2907413830001,-80.2527570189999,196,"512 WORTHINGTON DR APT A, BRIDGEPORT, WV, 26330","Match","Exact","512 WORTHINGTON DR, BRIDGEPORT, WV, 26330",616266264,"R"
693697,"512 WYCOMBE CT","SAN RAMON","CA",94583,37.747651762,-121.987789171,197,"512 WYCOMBE CT, SAN RAMON, CA, 94583","Match","Exact","512 WYCOMBE CT, SAN RAMON, CA, 94583",638569345,"R"
693698,"512 YORKSHIRE","GLEN HEIGHTS","TX",75154,NA,NA,198,"512 YORKSHIRE, GLEN HEIGHTS, TX, 75154","No_Match",NA,NA,NA,NA
693699,"512 YORKTOWN LANE","AVON","IN",46123,39.772653049,-86.341538805,199,"512 YORKTOWN LANE, AVON, IN, 46123","Match","Exact","512 YORKTOWN LN, AVON, IN, 46123",89216165,"L"
693700,"512 YOUNG AVE","CHATTANOOGA","TN",37405,35.063896626,-85.295462514,200,"512 YOUNG AVE, CHATTANOOGA, TN, 37405","Match","Exact","512 YOUNG AVE, CHATTANOOGA, TN, 37405",59307444,"R"
693701,"512 ZANARK DRIVE","COLUMBIA","SC",29212,34.0777406030001,-81.1893325349999,201,"512 ZANARK DRIVE, COLUMBIA, SC, 29212","Match","Exact","512 ZANARK DR, COLUMBIA, SC, 29212",70048749,"R"
693702,"512 ZENON WY B","ARROYO GRANDE","CA",93420,35.0701375680001,-120.558487741,202,"512 ZENON WY B, ARROYO GRANDE, CA, 93420","Match","Exact","512 ZENON WAY, ARROYO GRANDE, CA, 93420",109759062,"L"
693703,"512","MEDIA","PA",19063,NA,NA,203,"512, MEDIA, PA, 19063","No_Match",NA,NA,NA,NA
693704,"5120 215TH ST SE","WOODINVILLE","WA",98072,47.802658104,-122.164278137,204,"5120 215TH ST SE, WOODINVILLE, WA, 98072","Match","Exact","5120 215TH ST SE, WOODINVILLE, WA, 98072",187777690,"R"
693705,"5120 51ST AVE SE","MINOT","ND",58701,48.183360635,-101.217752645,205,"5120 51ST AVE SE, MINOT, ND, 58701","Match","Exact","5120 51ST AVE SE, MINOT, ND, 58701",646615193,"R"
693706,"5120 ALYSHEBA DRIVE","INDIAN TRAIL","NC",28079,35.090678279,-80.603252764,206,"5120 ALYSHEBA DRIVE, INDIAN TRAIL, NC, 28079","Match","Exact","5120 ALYSHEBA DR, INDIAN TRAIL, NC, 28079",614176751,"R"
693707,"5120 AROMATIC COURT","SPRING HILL","FL",34607,28.504997358,-82.5969931229999,207,"5120 AROMATIC COURT, SPRING HILL, FL, 34607","Match","Exact","5120 AROMATIC CT, SPRING HILL, FL, 34607",85451510,"L"
693708,"5120 ARROWIND RD","LILBURN","GA",30047,33.8952016330001,-84.1593750819999,208,"5120 ARROWIND RD, LILBURN, GA, 30047","Match","Non_Exact","5120 ARROWIND RD NW, LILBURN, GA, 30047",88914833,"R"
693709,"5120 AUDREYSTONE DRIVE","CARY","NC",27518,35.698604742,-78.794081112,209,"5120 AUDREYSTONE DRIVE, CARY, NC, 27518","Match","Exact","5120 AUDREYSTONE DR, CARY, NC, 27518",624255696,"L"
693710,"5120 AUTUMNCREST DR","GREENSBORO","NC",27407,36.0183535850001,-79.902537606,210,"5120 AUTUMNCREST DR, GREENSBORO, NC, 27407","Match","Exact","5120 AUTUMNCREST DR, GREENSBORO, NC, 27407",131063955,"L"
693711,"5120 BEACON ROAD","PALMETTO","FL",34221,27.5601884450001,-82.571736824,211,"5120 BEACON ROAD, PALMETTO, FL, 34221","Match","Exact","5120 BEACON RD, PALMETTO, FL, 34221",16241925,"R"
693712,"5120 BRIDLE LN","MT PLEASANT","MI",48858,43.5620907910001,-84.785518639,212,"5120 BRIDLE LN, MT PLEASANT, MI, 48858","Match","Exact","5120 BRIDLE LN, MOUNT PLEASANT, MI, 48858",617491385,"L"
693713,"5120 BROOKCREST CT","ANTIOCH","CA",94531,37.966163583,-121.755436127,213,"5120 BROOKCREST CT, ANTIOCH, CA, 94531","Match","Exact","5120 BROOKCREST CT, ANTIOCH, CA, 94531",192100627,"R"
693714,"5120 BURNT OAK TERRACE APT 302","NORTH CHESTERFIELD","VA",23234,37.4531266750001,-77.490178328,214,"5120 BURNT OAK TERRACE APT 302, NORTH CHESTERFIELD, VA, 23234","Match","Exact","5120 BURNT OAK TER, NORTH CHESTERFIELD, VA, 23234",223167472,"L"
693715,"5120 BUTTERFIELD DRIVE","WINSTON SALEM","NC",27105,36.1432032860001,-80.202058106,215,"5120 BUTTERFIELD DRIVE, WINSTON SALEM, NC, 27105","Match","Exact","5120 BUTTERFIELD DR, WINSTON SALEM, NC, 27105",84624157,"L"
693716,"5120 CAMPINO CT","SIERRA VISTA","AZ",85650,NA,NA,216,"5120 CAMPINO CT, SIERRA VISTA, AZ, 85650","No_Match",NA,NA,NA,NA
693717,"5120 CEDAR LANE UNIT 112","COLUMBIA","MD",21044,39.2312626390001,-76.890039891,217,"5120 CEDAR LANE UNIT 112, COLUMBIA, MD, 21044","Match","Exact","5120 CEDAR LN, COLUMBIA, MD, 21044",158940090,"R"
693718,"5120 CHESTNUT ST","NEW ORLEANS","LA",70115,29.9224073010001,-90.110156025,218,"5120 CHESTNUT ST, NEW ORLEANS, LA, 70115","Match","Exact","5120 CHESTNUT ST, NEW ORLEANS, LA, 70115",191712807,"L"
693719,"5120 CHEVY CHASE DR","HOUSTON","TX",77056,29.7460827290001,-95.465107583,219,"5120 CHEVY CHASE DR, HOUSTON, TX, 77056","Match","Exact","5120 CHEVY CHASE DR, HOUSTON, TX, 77056",650079864,"R"
693720,"5120 CIRCLE DOWN","GOLDEN VALLEY","MN",55416,44.97246676,-93.3455633889999,220,"5120 CIRCLE DOWN, GOLDEN VALLEY, MN, 55416","Match","Exact","5120 CIRCLE DOWN, GOLDEN VALLEY, MN, 55416",43843074,"R"
693721,"5120 CLAYVALE ST","ACTON","CA",93510,NA,NA,221,"5120 CLAYVALE ST, ACTON, CA, 93510","No_Match",NA,NA,NA,NA
693722,"5120 CLIFF OAKS DRIVE","FORT WORTH","TX",76179,32.8364998800001,-97.3788670979999,222,"5120 CLIFF OAKS DRIVE, FORT WORTH, TX, 76179","Match","Exact","5120 CLIFF OAKS DR, FORT WORTH, TX, 76179",619874772,"R"
693723,"5120 COLONIAL DRIVE","GOLDEN VALLEY","MN",55416,44.975411894,-93.344272088,223,"5120 COLONIAL DRIVE, GOLDEN VALLEY, MN, 55416","Match","Exact","5120 COLONIAL DR, GOLDEN VALLEY, MN, 55416",43832134,"R"
693724,"5120 COLUMBUS AVE","JACKSONVILLE","FL",32250,30.3348333770001,-81.733644081,224,"5120 COLUMBUS AVE, JACKSONVILLE, FL, 32250","Match","Non_Exact","5120 COLUMBUS AVE, JACKSONVILLE, FL, 32254",83925504,"L"
693725,"5120 CR 7910","NEW HOME","TX",79424,NA,NA,225,"5120 CR 7910, NEW HOME, TX, 79424","No_Match",NA,NA,NA,NA
693726,"5120 DEBUT AVE","HOPE MILLS","NC",28348,34.92515081,-78.897902223,226,"5120 DEBUT AVE, HOPE MILLS, NC, 28348","Match","Exact","5120 DEBUT AVE, HOPE MILLS, NC, 28348",646702284,"R"
693727,"5120 DREW AVE N","BROOKLYN CENTER","MN",55429,45.048204259,-93.327110555,227,"5120 DREW AVE N, BROOKLYN CENTER, MN, 55429","Match","Exact","5120 DREW AVE N, BROOKLYN CENTER, MN, 55429",43620408,"R"
693728,"5120 E KELTON LANE","SCOTTSDALE","AZ",85254,33.637370896,-111.970241851,228,"5120 E KELTON LANE, SCOTTSDALE, AZ, 85254","Match","Exact","5120 E KELTON LN, SCOTTSDALE, AZ, 85254",128587670,"R"
693729,"5120 EAGLE CREEK DRIVE","CHARLOTTE","NC",28269,35.3615780390001,-80.790768973,229,"5120 EAGLE CREEK DRIVE, CHARLOTTE, NC, 28269","Match","Exact","5120 EAGLE CREEK DR, CHARLOTTE, NC, 28269",70543670,"L"
693730,"5120 FACTORY ROAD","AL","OH",45710,39.2322253570001,-82.206661732,230,"5120 FACTORY ROAD, AL, OH, 45710","Match","Non_Exact","5120 FACTORY RD, ALBANY, OH, 45710",37100138,"R"
693731,"5120 FAIRGLEN LANE","CHEVY CHASE","MD",20815,38.9768019040001,-77.101886972,231,"5120 FAIRGLEN LANE, CHEVY CHASE, MD, 20815","Match","Exact","5120 FAIRGLEN LN, CHEVY CHASE, MD, 20815",62065819,"L"
693732,"5120 FOXHALL DR S","WEST PALM BEACH","FL",33417,26.742205137,-80.121329004,232,"5120 FOXHALL DR S, WEST PALM BEACH, FL, 33417","Match","Exact","5120 FOXHALL DR S, WEST PALM BEACH, FL, 33417",115579941,"L"
693733,"5120 GA HWY 63","CARNESVILLE","GA",30521,34.4211001,-83.386834262,233,"5120 GA HWY 63, CARNESVILLE, GA, 30521","Match","Non_Exact","5120 STATE RTE 63, CARNESVILLE, GA, 30521",649779084,"R"
693734,"5120 GLANCY DR","CARMICHAEL","CA",95608,38.599589495,-121.345695498,234,"5120 GLANCY DR, CARMICHAEL, CA, 95608","Match","Exact","5120 GLANCY DR, CARMICHAEL, CA, 95608",133347232,"R"
693735,"5120 GLOBE AVE","CINCINNATI","OH",45212,39.1681716360001,-84.456138144,235,"5120 GLOBE AVE, CINCINNATI, OH, 45212","Match","Exact","5120 GLOBE AVE, CINCINNATI, OH, 45212",103928897,"R"
693736,"5120 GODLELAF CIRCLE SUITE 180","LOS ANGELES","CA",90056,NA,NA,236,"5120 GODLELAF CIRCLE SUITE 180, LOS ANGELES, CA, 90056","No_Match",NA,NA,NA,NA
693737,"5120 GOLDLEAF CICLE SUITE 180","LOS ANGELES","CA",90056,33.9892586440001,-118.367634653,237,"5120 GOLDLEAF CICLE SUITE 180, LOS ANGELES, CA, 90056","Match","Non_Exact","5120 GOLDLEAF CIR, LOS ANGELES, CA, 90056",142444785,"L"
693738,"5120 GOLDLEAF CIRCLE SUIT 180","LOS ANGELES","CA",90056,33.9892586440001,-118.367634653,238,"5120 GOLDLEAF CIRCLE SUIT 180, LOS ANGELES, CA, 90056","Match","Exact","5120 GOLDLEAF CIR, LOS ANGELES, CA, 90056",142444785,"L"
693739,"5120 GOLDLEAF CIRCLE SUITE 180","LOS ANGELES","CA",90056,33.9892586440001,-118.367634653,239,"5120 GOLDLEAF CIRCLE SUITE 180, LOS ANGELES, CA, 90056","Match","Exact","5120 GOLDLEAF CIR, LOS ANGELES, CA, 90056",142444785,"L"
693740,"5120 GOLDLEAF CIRCLE SUITE 380","LOS ANGELES","CA",90056,33.9892586440001,-118.367634653,240,"5120 GOLDLEAF CIRCLE SUITE 380, LOS ANGELES, CA, 90056","Match","Exact","5120 GOLDLEAF CIR, LOS ANGELES, CA, 90056",142444785,"L"
693741,"5120 GRANDVIEW DR","FORT MILL","SC",29707,34.9369079040001,-80.844623031,241,"5120 GRANDVIEW DR, FORT MILL, SC, 29707","Match","Exact","5120 GRANDVIEW DR, FORT MILL, SC, 29707",627725468,"R"
693742,"5120 HICKAM","LAS VEGAS","NV",89130,36.236103261,-115.212696987,242,"5120 HICKAM, LAS VEGAS, NV, 89130","Match","Non_Exact","5120 HICKAM AVE, LAS VEGAS, NV, 89130",201907934,"R"
693743,"5120 HILLCREST DRIVE","LOS ANGELES","CA",90043,33.996070294,-118.3366499,243,"5120 HILLCREST DRIVE, LOS ANGELES, CA, 90043","Match","Exact","5120 HILLCREST DR, LOS ANGELES, CA, 90043",142750393,"L"
693744,"5120 HUNTSHIRE LANE","LILBURN","GA",30047,33.8786431870001,-84.143963395,244,"5120 HUNTSHIRE LANE, LILBURN, GA, 30047","Match","Exact","5120 HUNTSHIRE LN, LILBURN, GA, 30047",88939984,"L"
693745,"5120 IRISH ROAD","SCHUYLER","VA",22969,37.811197344,-78.671959101,245,"5120 IRISH ROAD, SCHUYLER, VA, 22969","Match","Exact","5120 IRISH RD, SCHUYLER, VA, 22969",647817137,"L"
693746,"5120 JAYCEE AVENUE APT A-4","ASHTABULA","OH",44004,41.858671638,-80.775972688,246,"5120 JAYCEE AVENUE APT A-4, ASHTABULA, OH, 44004","Match","Exact","5120 JAYCEE AVE, ASHTABULA, OH, 44004",642175844,"R"
693747,"5120 KIRKWOOD TRAIL","TITUSVILLE","FL",32780,28.5476596170001,-80.832913049,247,"5120 KIRKWOOD TRAIL, TITUSVILLE, FL, 32780","Match","Exact","5120 KIRKWOOD TRL, TITUSVILLE, FL, 32780",93958782,"R"
693748,"5120 KRAFT ROAD","FREEBURG","IL",62243,38.4069886400001,-89.95986004,248,"5120 KRAFT ROAD, FREEBURG, IL, 62243","Match","Exact","5120 KRAFT RD, FREEBURG, IL, 62243",107931373,"R"
693749,"5120 KYLOCK ROAD","MECHANICSBURG","PA",17055,40.1980979860001,-76.958012506,249,"5120 KYLOCK ROAD, MECHANICSBURG, PA, 17055","Match","Exact","5120 KYLOCK RD, MECHANICSBURG, PA, 17055",647961980,"L"
693750,"5120 LAUREL BRIDGE CT SE","SMYRNA","GA",30082,33.841767066,-84.511650305,250,"5120 LAUREL BRIDGE CT SE, SMYRNA, GA, 30082","Match","Exact","5120 LAUREL BRIDGE CT SE, SMYRNA, GA, 30082",17197422,"R"
693751,"5120 LINCOLN AVE APT 218","CYPRESS","CA",90630,33.831660422,-118.044656293,251,"5120 LINCOLN AVE APT 218, CYPRESS, CA, 90630","Match","Exact","5120 LINCOLN AVE, CYPRESS, CA, 90630",609053371,"R"
693752,"5120 MAKO DRIVE","WILMINGTON","NC",28409,34.151167677,-77.8733359949999,252,"5120 MAKO DRIVE, WILMINGTON, NC, 28409","Match","Exact","5120 MAKO DR, WILMINGTON, NC, 28409",152748933,"L"
693753,"5120 MATTHEW MEADOW COURT","ALPHARETTA","GA",30004,34.1643178480001,-84.2287755309999,253,"5120 MATTHEW MEADOW COURT, ALPHARETTA, GA, 30004","Match","Exact","5120 MATTHEW MEADOW CT, ALPHARETTA, GA, 30004",618445328,"R"
693754,"5120 MAYFIELD ROAD UNIT 155","LYNDHURST","OH",44124,41.519903807,-81.4920272479999,254,"5120 MAYFIELD ROAD UNIT 155, LYNDHURST, OH, 44124","Match","Exact","5120 MAYFIELD RD, LYNDHURST, OH, 44124",613732491,"R"
693755,"5120 MEADOWLAKE DRIVE","BRENTWOOD","TN",37027,36.0259684860001,-86.804253605,255,"5120 MEADOWLAKE DRIVE, BRENTWOOD, TN, 37027","Match","Non_Exact","5120 MEADOWLAKE RD, BRENTWOOD, TN, 37027",73111380,"L"
693756,"5120 N ASSEMBLY ST","SPOKANE","WA",99205,47.704616806,-117.475538229,256,"5120 N ASSEMBLY ST, SPOKANE, WA, 99205","Match","Exact","5120 N ASSEMBLY ST, SPOKANE, WA, 99205",637874786,"R"
693757,"5120 N IDAHO RD","APACHE JUNCTION","AZ",85119,33.4614970270001,-111.546126114,257,"5120 N IDAHO RD, APACHE JUNCTION, AZ, 85119","Match","Exact","5120 N IDAHO RD, APACHE JUNCTION, AZ, 85119",129309589,"R"
693758,"5120 N PALAFOX ST","PENSACOLA","FL",32505,NA,NA,258,"5120 N PALAFOX ST, PENSACOLA, FL, 32505","No_Match",NA,NA,NA,NA
693759,"5120 N PALAFOX STREET","PENSACOLA","FL",32505,NA,NA,259,"5120 N PALAFOX STREET, PENSACOLA, FL, 32505","No_Match",NA,NA,NA,NA
693760,"5120 N PECONGA DR","MARION","IN",46952,40.6274812300001,-85.727173334,260,"5120 N PECONGA DR, MARION, IN, 46952","Match","Exact","5120 N PECONGA DR, MARION, IN, 46952",95015832,"L"
693761,"5120 NE 18TH AVE SUITE 2","FT LAUDERDALE","FL",33334,26.190230425,-80.122635182,261,"5120 NE 18TH AVE SUITE 2, FT LAUDERDALE, FL, 33334","Match","Non_Exact","5120 NE 18TH AVE, FORT LAUDERDALE, FL, 33334",114723685,"R"
693762,"5120 NEBRASKA AVE","HUBER HEIGHTS","OH",45424,39.830452806,-84.117508989,262,"5120 NEBRASKA AVE, HUBER HEIGHTS, OH, 45424","Match","Exact","5120 NEBRASKA AVE, HUBER HEIGHTS, OH, 45424",143587267,"R"
693763,"5120 NEWPORT AVENUE","BETHESDA","MD",20816,38.9574684780001,-77.097264469,263,"5120 NEWPORT AVENUE, BETHESDA, MD, 20816","Match","Exact","5120 NEWPORT AVE, BETHESDA, MD, 20816",62067184,"L"
693764,"5120 NOLAN DR","MINNETONKA","MN",55343,44.9106268900001,-93.423782752,264,"5120 NOLAN DR, MINNETONKA, MN, 55343","Match","Exact","5120 NOLAN DR, MINNETONKA, MN, 55343",641440070,"L"
693765,"5120 NOLAN DRIVE","MINNETONKA","MN",55343,44.9106268900001,-93.423782752,265,"5120 NOLAN DRIVE, MINNETONKA, MN, 55343","Match","Exact","5120 NOLAN DR, MINNETONKA, MN, 55343",641440070,"L"
693766,"5120 NORMANDY LANE","MEMPHIS","TN",38117,35.1337809500001,-89.891005712,266,"5120 NORMANDY LANE, MEMPHIS, TN, 38117","Match","Non_Exact","5120 NORMANDY AVE, MEMPHIS, TN, 38117",72925210,"L"
693767,"5120 NW 24 AVE","MIAMI","FL",33142,25.821500406,-80.236639687,267,"5120 NW 24 AVE, MIAMI, FL, 33142","Match","Exact","5120 NW 24TH AVE, MIAMI, FL, 33142",116002241,"L"
693768,"5120 NW 82ND TERRACE","LAUDERHILL","FL",33351,26.187640362,-80.260914558,268,"5120 NW 82ND TERRACE, LAUDERHILL, FL, 33351","Match","Exact","5120 NW 82ND TER, LAUDERHILL, FL, 33351",114702190,"R"
693769,"5120 OLD CT","WEST BLOOMFIELD","MI",48322,42.5350825240001,-83.3322067029999,269,"5120 OLD CT, WEST BLOOMFIELD, MI, 48322","Match","Exact","5120 OLD CT, W BLOOMFIELD, MI, 48322",69776482,"R"
693770,"5120 OLIVER STATION LN   APT 103","WINSTON SALEM","NC",27127,NA,NA,270,"5120 OLIVER STATION LN   APT 103, WINSTON SALEM, NC, 27127","No_Match",NA,NA,NA,NA
693771,"5120 PERSIMMON DRIVE","DUBLIN","CA",94568,37.7100252540001,-121.88024968,271,"5120 PERSIMMON DRIVE, DUBLIN, CA, 94568","Match","Exact","5120 PERSIMMON DR, DUBLIN, CA, 94568",125077527,"R"
693772,"5120 POLK LANE","OLIVE BRANCH","MS",38654,34.9339489700001,-89.777326153,272,"5120 POLK LANE, OLIVE BRANCH, MS, 38654","Match","Exact","5120 POLK LN, OLIVE BRANCH, MS, 38654",91839975,"R"
693773,"5120 POLK LN","OLIVE BRANCH","MS",38654,34.9339489700001,-89.777326153,273,"5120 POLK LN, OLIVE BRANCH, MS, 38654","Match","Exact","5120 POLK LN, OLIVE BRANCH, MS, 38654",91839975,"R"
693774,"5120 REA RD","CHARLOTTE","NC",28226,35.0946756910001,-80.810211035,274,"5120 REA RD, CHARLOTTE, NC, 28226","Match","Exact","5120 REA RD, CHARLOTTE, NC, 28226",70505808,"R"
693775,"5120 REGENT STREET APT C","PHILADELPHIA","PA",19143,39.9416551350001,-75.2186772809999,275,"5120 REGENT STREET APT C, PHILADELPHIA, PA, 19143","Match","Exact","5120 REGENT ST, PHILADELPHIA, PA, 19143",131400053,"L"
693776,"5120 ROCK QUARRY RD","RALEIGH","NC",27610,35.73585086,-78.564011863,276,"5120 ROCK QUARRY RD, RALEIGH, NC, 27610","Match","Exact","5120 ROCK QUARRY RD, RALEIGH, NC, 27610",653868077,"R"
693777,"5120 RR 1888","BLANCO","TX",78606,30.10384443,-98.5811362489999,277,"5120 RR 1888, BLANCO, TX, 78606","Match","Non_Exact","5120 FM 1888, BLANCO, TX, 78606",649828389,"L"
693778,"5120 S 98TH CT APT1","OMAHA","NE",68127,NA,NA,278,"5120 S 98TH CT APT1, OMAHA, NE, 68127","No_Match",NA,NA,NA,NA
693779,"5120 S HARPER AVE NO B11","CHICAGO","IL",60615,NA,NA,279,"5120 S HARPER AVE NO B11, CHICAGO, IL, 60615","No_Match",NA,NA,NA,NA
693780,"5120 S HYDE PARK BLVD","CHICAGO","IL",60615,41.801761405,-87.58487643,280,"5120 S HYDE PARK BLVD, CHICAGO, IL, 60615","Match","Exact","5120 S HYDE PARK BLVD, CHICAGO, IL, 60615",647602069,"R"
693781,"5120 SAINT ANDREWS CV","OLIVE BRANCH","MS",38654,34.9556876190001,-89.899186367,281,"5120 SAINT ANDREWS CV, OLIVE BRANCH, MS, 38654","Match","Exact","5120 SAINT ANDREWS COVE, OLIVE BRANCH, MS, 38654",91831470,"L"
693782,"5120 SALT TRAIL CANYON PASS","FORT WAYNE","IN",46808,41.0906796790001,-85.2089374989999,282,"5120 SALT TRAIL CANYON PASS, FORT WAYNE, IN, 46808","Match","Exact","5120 SALT TRAIL CANYON PASS, FORT WAYNE, IN, 46808",606518933,"R"
693783,"5120 SARGENT ROAD NE APT 112","WASHINGTON","DC",20017,38.9534692460001,-76.988175445,283,"5120 SARGENT ROAD NE APT 112, WASHINGTON, DC, 20017","Match","Exact","5120 SARGENT RD NE, WASHINGTON, DC, 20017",76228242,"L"
693784,"5120 SHADOW HILL DR","LAS VEGAS","NV",89120,36.096405798,-115.092203079,284,"5120 SHADOW HILL DR, LAS VEGAS, NV, 89120","Match","Exact","5120 SHADOW HILL DR, LAS VEGAS, NV, 89120",201877871,"L"
693785,"5120 SHADYWOOD CT","SYLVANIA","OH",43560,41.705453516,-83.72514174,285,"5120 SHADYWOOD CT, SYLVANIA, OH, 43560","Match","Exact","5120 SHADYWOOD CT, SYLVANIA, OH, 43560",33953677,"L"
693786,"5120 SHOWDOWN LN","GRAND PRAIRIE","TX",75052,32.6488191710001,-97.009192614,286,"5120 SHOWDOWN LN, GRAND PRAIRIE, TX, 75052","Match","Exact","5120 SHOWDOWN LN, GRAND PRAIRIE, TX, 75052",627305110,"L"
693787,"5120 SOUTHLAKE DR","ALPHARETTA","GA",30005,34.073994401,-84.2105729369999,287,"5120 SOUTHLAKE DR, ALPHARETTA, GA, 30005","Match","Exact","5120 SOUTHLAKE DR, ALPHARETTA, GA, 30005",17378590,"L"
693788,"5120 STONE PARK DRIVE","CHARLOTTE","NC",28269,35.359601523,-80.7837671409999,288,"5120 STONE PARK DRIVE, CHARLOTTE, NC, 28269","Match","Exact","5120 STONE PARK DR, CHARLOTTE, NC, 28269",616469560,"R"
693789,"5120 SUNSAIL DR","ANTIOCH","TN",37013,36.0651898790001,-86.5849864909999,289,"5120 SUNSAIL DR, ANTIOCH, TN, 37013","Match","Exact","5120 SUNSAIL DR, ANTIOCH, TN, 37013",624808028,"L"
693790,"5120 SW 158TH AVE","MIRAMAR","FL",33027,25.9620253100001,-80.357393853,290,"5120 SW 158TH AVE, MIRAMAR, FL, 33027","Match","Exact","5120 SW 158TH AVE, MIRAMAR, FL, 33027",114806757,"L"
693791,"5120 SW 21ST STREET","HOLLYWOOD","FL",33023,25.991598196,-80.194268624,291,"5120 SW 21ST STREET, HOLLYWOOD, FL, 33023","Match","Non_Exact","5120 SW 21ST ST, HOLLYWOOD, FL, 33023",114735149,"L"
693792,"5120 TIDEWATER PLACE","SYLVANIA","OH",43560,41.703948188,-83.7758999549999,292,"5120 TIDEWATER PLACE, SYLVANIA, OH, 43560","Match","Exact","5120 TIDEWATER PL, SYLVANIA, OH, 43560",33955705,"R"
693793,"5120 TIFTON DRIVE","EDINA","MN",55439,44.8773240940001,-93.3539122449999,293,"5120 TIFTON DRIVE, EDINA, MN, 55439","Match","Exact","5120 TIFTON DR, EDINA, MN, 55439",43834657,"R"
693794,"5120 TIMBERLAND PKWY","FLOWER MOUND","TX",75028,33.055479667,-97.070645364,294,"5120 TIMBERLAND PKWY, FLOWER MOUND, TX, 75028","Match","Exact","5120 TIMBERLAND PKWY, FLOWER MOUND, TX, 75028",103388116,"R"
693795,"5120 TURNSTONE DRIVE","AUSTIN","TX",78744,30.186110221,-97.744321659,295,"5120 TURNSTONE DRIVE, AUSTIN, TX, 78744","Match","Exact","5120 TURNSTONE DR, AUSTIN, TX, 78744",63950193,"L"
693796,"5120 TWILIGHT CANYON RD UNIT H","YORBA LINDA","CA",92887,33.8864858650001,-117.733472157,296,"5120 TWILIGHT CANYON RD UNIT H, YORBA LINDA, CA, 92887","Match","Exact","5120 TWILIGHT CANYON RD, YORBA LINDA, CA, 92887",144126768,"L"
693797,"5120 TYLER CT","PASCO","WA",99301,46.2740071000001,-119.15986084,297,"5120 TYLER CT, PASCO, WA, 99301","Match","Exact","5120 TYLER CT, PASCO, WA, 99301",627463059,"R"
693798,"5120 VECCHIO WAY","SALIDA","CA",95368,37.72034646,-121.090136835,298,"5120 VECCHIO WAY, SALIDA, CA, 95368","Match","Exact","5120 VECCHIO WAY, SALIDA, CA, 95368",102626279,"L"
693799,"5120 W MAIN ST","LOWELL","IN",46356,NA,NA,299,"5120 W MAIN ST, LOWELL, IN, 46356","No_Match",NA,NA,NA,NA
693800,"5120 W NORTH AVE","CHICAGO","IL",60639,41.9095383330001,-87.753420652,300,"5120 W NORTH AVE, CHICAGO, IL, 60639","Match","Exact","5120 W NORTH AVE, CHICAGO, IL, 60639",111757598,"R"
693801,"5120 W SLAUSON AVE","LOS ANGELES","CA",90056,NA,NA,301,"5120 W SLAUSON AVE, LOS ANGELES, CA, 90056","Tie",NA,NA,NA,NA
693802,"5120 WEISS FARM ROAD","EAST STROUDSBURG","PA",18301,41.0067802680001,-75.2346345239999,302,"5120 WEISS FARM ROAD, EAST STROUDSBURG, PA, 18301","Match","Exact","5120 WEISS FARM RD, E STROUDSBURG, PA, 18301",136775344,"L"
693803,"5120 WEST HURON","CHICAGO","IL",60644,41.8930206160001,-87.753816273,303,"5120 WEST HURON, CHICAGO, IL, 60644","Match","Non_Exact","5120 W HURON ST, CHICAGO, IL, 60644",616787369,"R"
693804,"5120 WHITEOAK TERR","SMYRNA","GA",30080,NA,NA,304,"5120 WHITEOAK TERR, SMYRNA, GA, 30080","Tie",NA,NA,NA,NA
693805,"5120 WILLOW RD","MCHENRY","IL",60050,42.352897861,-88.297966552,305,"5120 WILLOW RD, MCHENRY, IL, 60050","Match","Non_Exact","5120 WILLOW LN, MCHENRY, IL, 60050",119818865,"L"
693806,"5120 WIND POINT ROAD","RACINE","WI",53402,42.786505408,-87.764394465,306,"5120 WIND POINT ROAD, RACINE, WI, 53402","Match","Exact","5120 WIND POINT RD, RACINE, WI, 53402",77906486,"L"
693807,"5120 WOODSDALE DRIVE","LAKE PARK","GA",31636,30.6902098370001,-83.212986456,307,"5120 WOODSDALE DRIVE, LAKE PARK, GA, 31636","Match","Exact","5120 WOODSDALE DR, LAKE PARK, GA, 31636",87723056,"L"
693808,"5120 WYFFELS RD","CANANDAIGUA","NY",14424,42.840602114,-77.2948210599999,308,"5120 WYFFELS RD, CANANDAIGUA, NY, 14424","Match","Exact","5120 WYFFELS RD, CANANDAIGUA, NY, 14424",627000174,"R"
693809,"5120","PENSACOLA","FL",32505,NA,NA,309,"5120, PENSACOLA, FL, 32505","No_Match",NA,NA,NA,NA
693810,"5121 12TH STREET","WASHINGTON","DC",20011,38.9538516540001,-76.9893057469999,310,"5121 12TH STREET, WASHINGTON, DC, 20011","Match","Non_Exact","5121 12TH ST NE, WASHINGTON, DC, 20011",76228233,"R"
693811,"5121 22ND STREET COURT EAST","BRADENTON","FL",34203,27.450056239,-82.5362074719999,311,"5121 22ND STREET COURT EAST, BRADENTON, FL, 34203","Match","Exact","5121 22ND STREET CT E, BRADENTON, FL, 34203",16237630,"L"
693812,"5121 ALBERNEY COURT","ROSENBERG","TX",77471,29.555263745,-95.77556636,312,"5121 ALBERNEY COURT, ROSENBERG, TX, 77471","Match","Non_Exact","5121 ALDERNEY CT, ROSENBERG, TX, 77471",78329653,"L"
693813,"5121 ALLEN RD E","CHARLOTTE","NC",28269,35.2898146140001,-80.811394654,313,"5121 ALLEN RD E, CHARLOTTE, NC, 28269","Match","Exact","5121 ALLEN RD E, CHARLOTTE, NC, 28269",70478443,"L"
693814,"5121 ALLEN ROAD E","CHARLOTTE","NC",28269,35.2898146140001,-80.811394654,314,"5121 ALLEN ROAD E, CHARLOTTE, NC, 28269","Match","Exact","5121 ALLEN RD E, CHARLOTTE, NC, 28269",70478443,"L"
693815,"5121 ANNESWAY DRIVE","NASHVILLE","TN",37205,36.1171872090001,-86.86535143,315,"5121 ANNESWAY DRIVE, NASHVILLE, TN, 37205","Match","Exact","5121 ANNESWAY DR, NASHVILLE, TN, 37205",97212482,"L"
693816,"5121 ANNUNCIATION","NEW ORLEANS","LA",70115,29.9175199790001,-90.110414535,316,"5121 ANNUNCIATION, NEW ORLEANS, LA, 70115","Match","Non_Exact","5121 ANNUNCIATION ST, NEW ORLEANS, LA, 70115",191712880,"R"
693817,"5121 BAKMAN","NORTH HOLLYWOOD","CA",91601,34.1634598950001,-118.377398649,317,"5121 BAKMAN, NORTH HOLLYWOOD, CA, 91601","Match","Non_Exact","5121 BAKMAN AVE, N HOLLYWOOD, CA, 91601",141564977,"L"
693818,"5121 BAYONNE DR","GREENWELL SPRINGS","LA",70739,30.500306246,-91.013841505,318,"5121 BAYONNE DR, GREENWELL SPRINGS, LA, 70739","Match","Exact","5121 BAYONNE DR, GREENWELL SPRINGS, LA, 70739",92194095,"L"
693819,"5121 BEDELL ST APT 201","RALEIGH","NC",27616,35.846804493,-78.563491297,319,"5121 BEDELL ST APT 201, RALEIGH, NC, 27616","Match","Exact","5121 BEDELL ST, RALEIGH, NC, 27616",208364900,"L"
693820,"5121 BONITO DR","NEW PORT RICHEY","FL",34652,28.2328061470001,-82.7414787769999,320,"5121 BONITO DR, NEW PORT RICHEY, FL, 34652","Match","Exact","5121 BONITO DR, NEW PORT RICHEY, FL, 34652",86348751,"L"
693821,"5121 BROCKIE STREET","VIRGINIA BEACH","VA",23464,36.7784059850001,-76.1738499479999,321,"5121 BROCKIE STREET, VIRGINIA BEACH, VA, 23464","Match","Exact","5121 BROCKIE ST, VA BCH, VA, 23464",122264789,"L"
693822,"5121 BURKE AVE","COLUMBIA","SC",29203,34.0496457900001,-81.025153308,322,"5121 BURKE AVE, COLUMBIA, SC, 29203","Match","Exact","5121 BURKE AVE, COLUMBIA, SC, 29203",71819007,"L"
693823,"5121 CABRILLO WAY","SACRAMENTO","CA",95820,38.528560047,-121.435367579,323,"5121 CABRILLO WAY, SACRAMENTO, CA, 95820","Match","Exact","5121 CABRILLO WAY, SACRAMENTO, CA, 95820",133336407,"L"
693824,"5121 CARNEGIE ST APT 2","PITTSBURGH","PA",15201,40.4783055710001,-79.9545346739999,324,"5121 CARNEGIE ST APT 2, PITTSBURGH, PA, 15201","Match","Exact","5121 CARNEGIE ST, PITTSBURGH, PA, 15201",51642111,"L"
693825,"5121 CATALINA RD","KNOXVILLE","TN",37918,36.059124786,-83.90333857,325,"5121 CATALINA RD, KNOXVILLE, TN, 37918","Match","Exact","5121 CATALINA RD, KNOXVILLE, TN, 37918",42655149,"L"
693826,"5121 CEDAR HAVEN ROAD","RICHMOND","VA",23223,37.557663931,-77.361047852,326,"5121 CEDAR HAVEN ROAD, RICHMOND, VA, 23223","Match","Exact","5121 CEDAR HAVEN RD, RICHMOND, VA, 23223",639604663,"L"
693827,"5121 CLARIDGE DR","NEW ALBANY","OH",43054,40.087057062,-82.831186141,327,"5121 CLARIDGE DR, NEW ALBANY, OH, 43054","Match","Exact","5121 CLARIDGE DR, NEW ALBANY, OH, 43054",642843101,"R"
693828,"5121 CLIFFORD ROAD","PERRY HALL","MD",21128,39.3821091460001,-76.449265856,328,"5121 CLIFFORD ROAD, PERRY HALL, MD, 21128","Match","Exact","5121 CLIFFORD RD, PERRY HALL, MD, 21128",191498104,"R"
693829,"5121 COPPER RIDGE DRIVE","DURHAM","NC",27707,35.915710489,-78.964651488,329,"5121 COPPER RIDGE DRIVE, DURHAM, NC, 27707","Match","Exact","5121 COPPER RIDGE DR, DURHAM, NC, 27707",71778623,"L"
693830,"5121 CORPORAL WELCH ROAD","SYRACUSE","NY",13215,43.018442442,-76.284315814,330,"5121 CORPORAL WELCH ROAD, SYRACUSE, NY, 13215","Match","Exact","5121 CORPORAL WELCH RD, SYRACUSE, NY, 13215",652646860,"L"
693831,"5121 DEL MAR MESA RD","SAN DIEGO","CA",92130,32.9418474710001,-117.208609701,331,"5121 DEL MAR MESA RD, SAN DIEGO, CA, 92130","Match","Exact","5121 DEL MAR MESA RD, SAN DIEGO, CA, 92130",653188480,"R"
693832,"5121 DONOVAN DR","ALEXANDRIA","VA",22304,38.8097029580001,-77.1202630669999,332,"5121 DONOVAN DR, ALEXANDRIA, VA, 22304","Match","Exact","5121 DONOVAN DR, ALEXANDRIA, VA, 22304",76065552,"L"
693833,"5121 E BURNNETT ST","LONG BEACH","CA",90815,33.800278722,-118.133453293,333,"5121 E BURNNETT ST, LONG BEACH, CA, 90815","Match","Non_Exact","5121 E BURNETT ST, LONG BEACH, CA, 90815",141700972,"L"
693834,"5121 E CREEK DR","HARRISBURG","PA",17112,40.3179180990001,-76.8069192999999,334,"5121 E CREEK DR, HARRISBURG, PA, 17112","Match","Exact","5121 CREEK DR, HARRISBURG, PA, 17112",637713413,"R"
693835,"5121 E MCKENNA RD","WARSAW","IN",46580,NA,NA,335,"5121 E MCKENNA RD, WARSAW, IN, 46580","Tie",NA,NA,NA,NA
693836,"5121 EXPLORATION LN","FORT COLLINS","CO",80528,40.5152025240001,-105.00813674,336,"5121 EXPLORATION LN, FORT COLLINS, CO, 80528","Match","Exact","5121 EXPLORATION LN, FORT COLLINS, CO, 80528",641498545,"L"
693837,"5121 FEATHER CREST DRIVE","MCKINNEY","TX",75070,33.1951076450001,-96.683732993,337,"5121 FEATHER CREST DRIVE, MCKINNEY, TX, 75070","Match","Non_Exact","5121 FEATHER CRST, MCKINNEY, TX, 75072",123526693,"R"
693838,"5121 FOSTER","GROVES","TX",77619,29.9419829280001,-93.938019687,338,"5121 FOSTER, GROVES, TX, 77619","Match","Non_Exact","5121 FOSTER AVE, GROVES, TX, 77619",73862825,"L"
693839,"5121 FRINGETREE DR","MCKINNEY","TX",75071,33.2446843050001,-96.6840308229999,339,"5121 FRINGETREE DR, MCKINNEY, TX, 75071","Match","Exact","5121 FRINGETREE DR, MCKINNEY, TX, 75071",642935357,"L"
693840,"5121 GLEN MEADOW CT","CENTREVILLE","VA",20120,38.8692240130001,-77.455637558,340,"5121 GLEN MEADOW CT, CENTREVILLE, VA, 20120","Match","Exact","5121 GLEN MEADOW CT, CENTREVILLE, VA, 20120",645572464,"L"
693841,"5121 HECKEL ROAD","EVANSVILLE","IN",47725,38.034991641,-87.488099633,341,"5121 HECKEL ROAD, EVANSVILLE, IN, 47725","Match","Exact","5121 HECKEL RD, EVANSVILLE, IN, 47725",640440235,"R"
693842,"5121 HIDDEN VIEW DR","HILLIARD","OH",43026,40.0067225930001,-83.1446823329999,342,"5121 HIDDEN VIEW DR, HILLIARD, OH, 43026","Match","Exact","5121 HIDDEN VIEW DR, HILLIARD, OH, 43026",218652080,"R"
693843,"5121 HOFFMAN RD","ROME","OH",44085,NA,NA,343,"5121 HOFFMAN RD, ROME, OH, 44085","No_Match",NA,NA,NA,NA
693844,"5121 HWY 90 W","SCHULENBURG","TX",78956,NA,NA,344,"5121 HWY 90 W, SCHULENBURG, TX, 78956","No_Match",NA,NA,NA,NA
693845,"5121 INDIAN VALLEY DR","FORT WORTH","TX",76123,32.6334260240001,-97.40218971,345,"5121 INDIAN VALLEY DR, FORT WORTH, TX, 76123","Match","Exact","5121 INDIAN VALLEY DR, FORT WORTH, TX, 76123",102190090,"R"
693846,"5121 IRENE DRIVE","HARRISBURG","PA",17112,40.3230246520001,-76.80866392,346,"5121 IRENE DRIVE, HARRISBURG, PA, 17112","Match","Exact","5121 IRENE DR, HARRISBURG, PA, 17112",70820352,"R"
693847,"5121 KIAMICHI LANE","GUTHRIE","OK",73044,35.82449073,-97.395588295,347,"5121 KIAMICHI LANE, GUTHRIE, OK, 73044","Match","Exact","5121 KIAMICHI LN, GUTHRIE, OK, 73044",606641371,"R"
693848,"5121 MAHONING AVE","YOUNGSTOWN","OH",44515,41.099592425,-80.753801015,348,"5121 MAHONING AVE, YOUNGSTOWN, OH, 44515","Match","Exact","5121 MAHONING AVE, YOUNGSTOWN, OH, 44515",64591407,"L"
693849,"5121 MEDING STREET","SAVANNAH","GA",31405,32.0353456180001,-81.115560874,349,"5121 MEDING STREET, SAVANNAH, GA, 31405","Match","Exact","5121 MEDING ST, SAVANNAH, GA, 31405",6172794,"R"
693850,"5121 MIDDLE URBANA ROAD","SPRINGFIELD","OH",45502,39.996238842,-83.762597289,350,"5121 MIDDLE URBANA ROAD, SPRINGFIELD, OH, 45502","Match","Exact","5121 MIDDLE URBANA RD, SPRINGFIELD, OH, 45502",652706051,"L"
693851,"5121 N CAMINO SUMO","TUCSON","AZ",85718,NA,NA,351,"5121 N CAMINO SUMO, TUCSON, AZ, 85718","No_Match",NA,NA,NA,NA
693852,"5121 N JASMINE CT","MCALLEN","TX",78501,26.217753912,-98.275607077,352,"5121 N JASMINE CT, MCALLEN, TX, 78501","Match","Exact","5121 JASMINE CT, MCALLEN, TX, 78501",71560334,"R"
693853,"5121 NE 17TH TER","FORT LAUDERDALE","FL",33334,26.1913004100001,-80.1234854099999,353,"5121 NE 17TH TER, FORT LAUDERDALE, FL, 33334","Match","Exact","5121 NE 17TH TER, FORT LAUDERDALE, FL, 33334",114723665,"L"
693854,"5121 OAK AVENUE","MORAINE","OH",45439,39.6878202510001,-84.2132586709999,354,"5121 OAK AVENUE, MORAINE, OH, 45439","Match","Exact","5121 OAK AVE, MORAINE, OH, 45439",647945382,"R"
693855,"5121 OAK MEADOW DR","SANTA ROSA","CA",95401,38.435680792,-122.801793432,355,"5121 OAK MEADOW DR, SANTA ROSA, CA, 95401","Match","Exact","5121 OAK MEADOW DR, SANTA ROSA, CA, 95401",67465239,"R"
693856,"5121 OWLS CT","LAKE WORTH","FL",33463,26.559130372,-80.124520619,356,"5121 OWLS CT, LAKE WORTH, FL, 33463","Match","Exact","5121 OWLS CT, LAKE WORTH, FL, 33463",115547365,"R"
693857,"5121 PASCADERO DR","PUEBLO","CO",81005,38.2111984150001,-104.676967586,357,"5121 PASCADERO DR, PUEBLO, CO, 81005","Match","Exact","5121 PASCADERO DR, PUEBLO, CO, 81005",640613308,"R"
693858,"5121 PLEASANT GROVE ROAD","PLEASANT GROVE","CA",95668,38.8342873350001,-121.488161422,358,"5121 PLEASANT GROVE ROAD, PLEASANT GROVE, CA, 95668","Match","Exact","5121 PLEASANT GROVE RD, PLEASANT GROVE, CA, 95668",646602774,"R"
693859,"5121 S PRAIRIE","CHICAGO","IL",60615,41.8014490640001,-87.619380817,359,"5121 S PRAIRIE, CHICAGO, IL, 60615","Match","Non_Exact","5121 S PRAIRIE AVE, CHICAGO, IL, 60615",111771019,"L"
693860,"5121 SALEM RIDGE RD","HOLLY SPRINGS","NC",27540,35.646067745,-78.8022026209999,360,"5121 SALEM RIDGE RD, HOLLY SPRINGS, NC, 27540","Match","Exact","5121 SALEM RIDGE RD, HOLLY SPRINGS, NC, 27540",72580026,"L"
693861,"5121 SCENIC DRIVE","PERRY HALL","MD",21128,39.399970389,-76.439393013,361,"5121 SCENIC DRIVE, PERRY HALL, MD, 21128","Match","Exact","5121 SCENIC DR, PERRY HALL, MD, 21128",628308918,"L"
693862,"5121 SE 140TH PLACE","PORTLAND","OR",97267,45.4853436590001,-122.518832507,362,"5121 SE 140TH PLACE, PORTLAND, OR, 97267","Match","Non_Exact","5121 SE 140TH PL, PORTLAND, OR, 97236",157586493,"R"
693863,"5121 SEVILLE LN","FLOWER MOUND","TX",75028,33.054970589,-97.091962025,363,"5121 SEVILLE LN, FLOWER MOUND, TX, 75028","Match","Exact","5121 SEVILLE LN, FLOWER MOUND, TX, 75028",103408574,"L"
693864,"5121 SHADY LANE","JEFFERSON CITY","MO",65109,38.5605470340001,-92.2894047629999,364,"5121 SHADY LANE, JEFFERSON CITY, MO, 65109","Match","Exact","5121 SHADY LN, JEFFERSON CITY, MO, 65109",34414104,"R"
693865,"5121 SMITH STREET","FORT WAYNE","IN",46806,41.037408122,-85.121481267,365,"5121 SMITH STREET, FORT WAYNE, IN, 46806","Match","Exact","5121 SMITH ST, FORT WAYNE, IN, 46806",6382925,"L"
693866,"5121 STATE ROUTE 45","BRISTOLVILLE","OH",44402,41.35796336,-80.862142197,366,"5121 STATE ROUTE 45, BRISTOLVILLE, OH, 44402","Match","Exact","5121 STATE RTE 45, BRISTOLVILLE, OH, 44402",117402974,"L"
693867,"5121 STOCKWHIP DRIVE","CROWLEY","TX",76036,32.605781565,-97.402796361,367,"5121 STOCKWHIP DRIVE, CROWLEY, TX, 76036","Match","Exact","5121 STOCKWHIP DR, CROWLEY, TX, 76036",652014643,"L"
693868,"5121 SUMMERTREE CT","GARLAND","TX",75043,32.8553194,-96.580425398,368,"5121 SUMMERTREE CT, GARLAND, TX, 75043","Match","Exact","5121 SUMMERTREE CT, GARLAND, TX, 75043",103277110,"R"
693869,"5121 THOMPSON TER","COLEYVILLE","TX",76034,32.883563531,-97.152682262,369,"5121 THOMPSON TER, COLEYVILLE, TX, 76034","Match","Non_Exact","5121 THOMPSON TER, COLLEYVILLE, TX, 76034",101867361,"R"
693870,"5121 TRAVIS EDWARD WAY APT G","CENTREVILLE","VA",20120,38.84931326,-77.411214623,370,"5121 TRAVIS EDWARD WAY APT G, CENTREVILLE, VA, 20120","Match","Exact","5121 TRAVIS EDWARD WAY, CENTREVILLE, VA, 20120",618785025,"L"
693871,"5121 TYME RD","NORTH CHESTERFIELD","VA",23234,37.4530073180001,-77.463054754,371,"5121 TYME RD, NORTH CHESTERFIELD, VA, 23234","Match","Exact","5121 TYME RD, NORTH CHESTERFIELD, VA, 23234",201546546,"L"
693872,"5121 W HYDE PARK CT","FORT MEYERS","FL",33907,26.5371137000001,-81.86842394,372,"5121 W HYDE PARK CT, FORT MEYERS, FL, 33907","Match","Non_Exact","5121 W HYDE PARK CT, FORT MYERS, FL, 33912",118133396,"R"
693873,"5121 W ROYAL PALM","GLENDALE","AZ",85302,33.5568732,-112.169676478,373,"5121 W ROYAL PALM, GLENDALE, AZ, 85302","Match","Non_Exact","5121 W ROYAL PALM RD, GLENDALE, AZ, 85302",128195977,"L"
693874,"5121 WEATHER ROCK LANE","FORT WORTH","TX",76179,32.837384854,-97.379036647,374,"5121 WEATHER ROCK LANE, FORT WORTH, TX, 76179","Match","Exact","5121 WEATHER ROCK LN, FORT WORTH, TX, 76179",619874768,"L"
693875,"5121 WEBB STREET","MOREHEAD CITY","NC",28557,34.7292418330001,-76.796920187,375,"5121 WEBB STREET, MOREHEAD CITY, NC, 28557","Match","Exact","5121 WEBB ST, MOREHEAD CITY, NC, 28557",640638819,"R"
693876,"5121 WHISTLERS BEND WAY","EL DORADO HILLS","CA",95762,38.668687054,-121.01288141,376,"5121 WHISTLERS BEND WAY, EL DORADO HILLS, CA, 95762","Match","Exact","5121 WHISTLERS BEND WAY, EL DORADO HILLS, CA, 95762",619526142,"L"
693877,"5121 WOODLAND WAY","ANNANDALE","VA",22003,38.812676025,-77.250205955,377,"5121 WOODLAND WAY, ANNANDALE, VA, 22003","Match","Exact","5121 WOODLAND WAY, ANNANDALE, VA, 22003",76022536,"L"
693878,"5121-B NORTH DAMEN AVE","CHICAGO","IL",60625,41.97516827,-87.679367011,378,"5121-B NORTH DAMEN AVE, CHICAGO, IL, 60625","Match","Exact","5121 N DAMEN AVE, CHICAGO, IL, 60625",111891685,"R"
693879,"5121BONITO DR","NEW PORT RICHEY","FL",34652,NA,NA,379,"5121BONITO DR, NEW PORT RICHEY, FL, 34652","No_Match",NA,NA,NA,NA
693880,"5121TIMBERCREEK DR","TYLER","TX",75703,NA,NA,380,"5121TIMBERCREEK DR, TYLER, TX, 75703","No_Match",NA,NA,NA,NA
693881,"5122 ABERDEAN TRAIL","GRAND PRAIRIE","TX",75052,32.648979411,-97.03061218,381,"5122 ABERDEAN TRAIL, GRAND PRAIRIE, TX, 75052","Match","Exact","5122 ABERDEAN TRL, GRAND PRAIRIE, TX, 75052",102938109,"L"
693882,"5122 ALMAR DRIVE","PUNTA GORDA","FL",33950,26.891971385,-82.054745032,382,"5122 ALMAR DRIVE, PUNTA GORDA, FL, 33950","Match","Exact","5122 ALMAR DR, PUNTA GORDA, FL, 33950",647562707,"R"
693883,"5122 ASHLEY AVE","PEARL CITY","HI",96782,21.3780147890001,-157.972889203,383,"5122 ASHLEY AVE, PEARL CITY, HI, 96782","Match","Exact","5122 ASHLEY AVE, PEARL CITY, HI, 96782",203229517,"R"
693884,"5122 BOLICK RD","CLAREMONT","NC",28610,35.775193196,-81.124106639,384,"5122 BOLICK RD, CLAREMONT, NC, 28610","Match","Exact","5122 BOLICK RD, CLAREMONT, NC, 28610",45932519,"R"
693885,"5122 BROOK HOLLOW PKWY","NORCROSS","GA",30071,33.9301831600001,-84.1780690149999,385,"5122 BROOK HOLLOW PKWY, NORCROSS, GA, 30071","Match","Exact","5122 BROOK HOLLOW PKWY, NORCROSS, GA, 30071",88966583,"L"
693886,"5122 CHESTER SPRINGS LN","KATY","TX",77449,29.852195566,-95.729919883,386,"5122 CHESTER SPRINGS LN, KATY, TX, 77449","Match","Exact","5122 CHESTER SPRINGS LN, KATY, TX, 77449",651992326,"L"
693887,"5122 DUCK CREEK ROAD","LOST CREEK","WV",26385,39.1404792480001,-80.3823842639999,387,"5122 DUCK CREEK ROAD, LOST CREEK, WV, 26385","Match","Exact","5122 DUCK CREEK RD, LOST CREEK, WV, 26385",605650498,"L"
693888,"5122 E WALLACE","SCOTTSDALE","AZ",85254,33.639934269,-111.970182349,388,"5122 E WALLACE, SCOTTSDALE, AZ, 85254","Match","Non_Exact","5122 E WALLACE AVE, SCOTTSDALE, AZ, 85254",128587658,"R"
693889,"5122 GARFIELD AVE","PENNSAUKEN","NJ",8109,39.939685065,-75.062821114,389,"5122 GARFIELD AVE, PENNSAUKEN, NJ, 8109","Match","Exact","5122 GARFIELD AVE, PENNSAUKEN, NJ, 08109",134343606,"R"
693890,"5122 HAMEL ST","DAVIS","CA",95618,38.550456038,-121.686589282,390,"5122 HAMEL ST, DAVIS, CA, 95618","Match","Exact","5122 HAMEL ST, DAVIS, CA, 95618",67701872,"R"
693891,"5122 HAMEL STREET","DAVIS","CA",95618,38.550456038,-121.686589282,391,"5122 HAMEL STREET, DAVIS, CA, 95618","Match","Exact","5122 HAMEL ST, DAVIS, CA, 95618",67701872,"R"
693892,"5122 HAWKSTONE DRIVE","SANFORD","FL",32771,28.815299157,-81.339617501,392,"5122 HAWKSTONE DRIVE, SANFORD, FL, 32771","Match","Exact","5122 HAWKSTONE DR, SANFORD, FL, 32771",624584525,"R"
693893,"5122 HUNTERS LUCK","STONE MOUNTAIN","GA",30088,33.7534631130001,-84.1814787659999,393,"5122 HUNTERS LUCK, STONE MOUNTAIN, GA, 30088","Match","Exact","5122 HUNTERS LUCK, STONE MOUNTAIN, GA, 30088",23372513,"L"
693894,"5122 HWY 136 W","DAWSONVILLE","GA",30534,34.481218923,-84.16277887,394,"5122 HWY 136 W, DAWSONVILLE, GA, 30534","Match","Exact","5122 HWY 136 W, DAWSONVILLE, GA, 30534",648902109,"R"
693895,"5122 JEWEL FLOWER","CHARLOTTE","NC",28227,35.20620231,-80.6970519979999,395,"5122 JEWEL FLOWER, CHARLOTTE, NC, 28227","Match","Non_Exact","5122 JEWELFLOWER RD, CHARLOTTE, NC, 28227",614166372,"L"
693896,"5122 JOHNSON CREEK DR","JACKSONVILLE","FL",32218,30.4471339520001,-81.727861274,396,"5122 JOHNSON CREEK DR, JACKSONVILLE, FL, 32218","Match","Exact","5122 JOHNSON CREEK DR, JACKSONVILLE, FL, 32218",627942017,"L"
693897,"5122 KATELLA AVENUE SUITE 310","LOS ALAMITOS","CA",90720,NA,NA,397,"5122 KATELLA AVENUE SUITE 310, LOS ALAMITOS, CA, 90720","No_Match",NA,NA,NA,NA
693898,"5122 KATELLA VANUE SUITE 310","LOS ALAMITOS","CA",90720,NA,NA,398,"5122 KATELLA VANUE SUITE 310, LOS ALAMITOS, CA, 90720","No_Match",NA,NA,NA,NA
693899,"5122 KENNETH AVENUE","CARMICHAEL","CA",95608,38.6137135390001,-121.345330892,399,"5122 KENNETH AVENUE, CARMICHAEL, CA, 95608","Match","Exact","5122 KENNETH AVE, CARMICHAEL, CA, 95608",133449111,"R"
693900,"5122 KODIAK COURT","CHARLOTTE","NC",28215,35.2855129280001,-80.68783031,400,"5122 KODIAK COURT, CHARLOTTE, NC, 28215","Match","Exact","5122 KODIAK CT, CHARLOTTE, NC, 28215",70597445,"R"
693901,"5122 LAGO VISTA LANE","FRISCO","TX",75034,33.1221195570001,-96.8433558419999,401,"5122 LAGO VISTA LANE, FRISCO, TX, 75034","Match","Exact","5122 LAGO VISTA LN, FRISCO, TX, 75034",614120388,"R"
693902,"5122 LAKERIDGE CT","GARLAND","TX",75043,32.8547461260001,-96.550861579,402,"5122 LAKERIDGE CT, GARLAND, TX, 75043","Match","Exact","5122 LAKERIDGE CT, GARLAND, TX, 75043",102934883,"L"
693903,"5122 LIDO LANE","HOUSTON","TX",77092,29.83327898,-95.4670988939999,403,"5122 LIDO LANE, HOUSTON, TX, 77092","Match","Exact","5122 LIDO LN, HOUSTON, TX, 77092",96028203,"R"
693904,"5122 MONROVIA ST","SHAWNEE","KS",66216,39.0351924830001,-94.728538477,404,"5122 MONROVIA ST, SHAWNEE, KS, 66216","Match","Exact","5122 MONROVIA ST, SHAWNEE, KS, 66216",91307592,"R"
693905,"5122 N CENTRAL PARK AVE","CHICAGO","IL",60625,41.974191239,-87.718418336,405,"5122 N CENTRAL PARK AVE, CHICAGO, IL, 60625","Match","Exact","5122 N CENTRAL PARK AVE, CHICAGO, IL, 60625",616789051,"L"
693906,"5122 N DIVISION ST","SPOKANE","WA",99207,47.7046125850001,-117.411107475,406,"5122 N DIVISION ST, SPOKANE, WA, 99207","Match","Exact","5122 N DIVISION ST, SPOKANE, WA, 99207",636107696,"R"
693907,"5122 N NEW ENGLAND AVE","CHICAGO","IL",60656,41.9741220220001,-87.7988115219999,407,"5122 N NEW ENGLAND AVE, CHICAGO, IL, 60656","Match","Exact","5122 N NEW ENGLAND AVE, CHICAGO, IL, 60656",605178891,"L"
693908,"5122 NE 13TH AVE","PORTLAND","OR",97211,45.560166506,-122.652632728,408,"5122 NE 13TH AVE, PORTLAND, OR, 97211","Match","Exact","5122 NE 13TH AVE, PORTLAND, OR, 97211",157504023,"R"
693909,"5122 NORTHRIDGE ROAD APT 205","SARASOTA","FL",34238,27.2635855230001,-82.473295094,409,"5122 NORTHRIDGE ROAD APT 205, SARASOTA, FL, 34238","Match","Exact","5122 NORTHRIDGE RD, SARASOTA, FL, 34238",16380957,"R"
693910,"5122 NW 30TH TERRACE","FORT LAUDERDALE","FL",33309,26.1880810160001,-80.186903287,410,"5122 NW 30TH TERRACE, FORT LAUDERDALE, FL, 33309","Match","Non_Exact","5122 NW 30 LN, FORT LAUDERDALE, FL, 33309",631896981,"L"
693911,"5122 NW 74TH CT","COCONUT CREEK","FL",33073,26.321859424,-80.1954309939999,411,"5122 NW 74TH CT, COCONUT CREEK, FL, 33073","Match","Exact","5122 NW 74TH CT, COCONUT CREEK, FL, 33073",114813792,"R"
693912,"5122 PERRY AVENUE","ANDERSON","IN",46013,NA,NA,412,"5122 PERRY AVENUE, ANDERSON, IN, 46013","No_Match",NA,NA,NA,NA
693913,"5122 PHILLIPS DRIVE","FOREST PARK","GA",30297,33.614605189,-84.357758006,413,"5122 PHILLIPS DRIVE, FOREST PARK, GA, 30297","Match","Exact","5122 PHILLIPS DR, FOREST PARK, GA, 30297",23314673,"L"
693914,"5122 RAPAHOE TRAIL","ATLANTA","GA",30349,NA,NA,414,"5122 RAPAHOE TRAIL, ATLANTA, GA, 30349","No_Match",NA,NA,NA,NA
693915,"5122 ROOSEVELT BLVD","PHILADELPHIA","PA",19124,40.0289532640001,-75.090539174,415,"5122 ROOSEVELT BLVD, PHILADELPHIA, PA, 19124","Match","Exact","5122 ROOSEVELT BLVD, PHILADELPHIA, PA, 19124",131457255,"L"
693916,"5122 S DEERFIELD AVE","MECHANICSBURG","PA",17050,NA,NA,416,"5122 S DEERFIELD AVE, MECHANICSBURG, PA, 17050","Tie",NA,NA,NA,NA
693917,"5122 S MOBILE","CHICAGO","IL",60638,41.7992204990001,-87.7795807369999,417,"5122 S MOBILE, CHICAGO, IL, 60638","Match","Non_Exact","5122 S MOBILE AVE, CHICAGO, IL, 60638",111796998,"R"
693918,"5122 SADDLERIDGE CT","GARLAND","TX",75043,32.855236774,-96.581806353,418,"5122 SADDLERIDGE CT, GARLAND, TX, 75043","Match","Exact","5122 SADDLERIDGE CT, GARLAND, TX, 75043",103277125,"L"
693919,"5122 SE JERRY DRIVE","PRINEVILLE","OR",97754,44.2556319280001,-120.818206394,419,"5122 SE JERRY DRIVE, PRINEVILLE, OR, 97754","Match","Exact","5122 SE JERRY DR, PRINEVILLE, OR, 97754",152400772,"R"
693920,"5122 SHETLAND TRAIL","ARLINGTON","TN",38002,35.2661584050001,-89.691015428,420,"5122 SHETLAND TRAIL, ARLINGTON, TN, 38002","Match","Exact","5122 SHETLAND TRL, ARLINGTON, TN, 38002",613179870,"L"
693921,"5122 SILVER LAKE SHORES RD","TRAVERSE CITY","MI",49685,44.686721747,-85.678749591,421,"5122 SILVER LAKE SHORES RD, TRAVERSE CITY, MI, 49685","Match","Exact","5122 SILVER LAKE SHORES RD, TRAVERSE CITY, MI, 49685",145529713,"L"
693922,"5122 THORNTON KNOLL WAY","RALEIGH","NC",27616,35.8990403940001,-78.551181932,422,"5122 THORNTON KNOLL WAY, RALEIGH, NC, 27616","Match","Exact","5122 THORNTON KNOLL WAY, RALEIGH, NC, 27616",612813485,"R"
693923,"5122 VERNON AVENUE","SAINT LOUIS","MO",63113,38.6583794000001,-90.266983854,423,"5122 VERNON AVENUE, SAINT LOUIS, MO, 63113","Match","Exact","5122 VERNON AVE, SAINT LOUIS, MO, 63113",107593180,"L"
693924,"5122 W 140TH ST","HAWTHORNE","CA",90250,33.904429312,-118.367818944,424,"5122 W 140TH ST, HAWTHORNE, CA, 90250","Match","Exact","5122 W 140TH ST, HAWTHORNE, CA, 90250",141656429,"L"
693925,"5122 W LAXITA DRIVE","LAPORTE","IL",46350,NA,NA,425,"5122 W LAXITA DRIVE, LAPORTE, IL, 46350","No_Match",NA,NA,NA,NA
693926,"5122 W LAXITA DRIVE","LAPORTE","IN",46350,41.6845134690001,-86.8008930349999,426,"5122 W LAXITA DRIVE, LAPORTE, IN, 46350","Match","Exact","5122 W LAXITA DR, LAPORTE, IN, 46350",15414032,"L"
693927,"5122 W NELSON ST","CHICAGO","IL",60641,41.9359947950001,-87.754803769,427,"5122 W NELSON ST, CHICAGO, IL, 60641","Match","Exact","5122 W NELSON ST, CHICAGO, IL, 60641",111755697,"R"
693928,"5122 W ROSCOE ST","CHICAGO","IL",60641,41.94237887,-87.755020762,428,"5122 W ROSCOE ST, CHICAGO, IL, 60641","Match","Exact","5122 W ROSCOE ST, CHICAGO, IL, 60641",111755656,"R"
693929,"5122 W ROSCOE","CHICAGO","IL",60641,41.94237887,-87.755020762,429,"5122 W ROSCOE, CHICAGO, IL, 60641","Match","Non_Exact","5122 W ROSCOE ST, CHICAGO, IL, 60641",111755656,"R"
693930,"5122 WILLOW STREET","NEW ORLEANS","LA",70115,29.938782174,-90.109265614,430,"5122 WILLOW STREET, NEW ORLEANS, LA, 70115","Match","Exact","5122 WILLOW ST, NEW ORLEANS, LA, 70115",191734532,"L"
693931,"5122 XANADU ST","DENVER","CO",80239,39.7900559400001,-104.830543024,431,"5122 XANADU ST, DENVER, CO, 80239","Match","Exact","5122 XANADU ST, DENVER, CO, 80239",177350108,"R"
693932,"51220 OAKLINED DR","GRANGER","IN",46530,41.750441618,-86.09393349,432,"51220 OAKLINED DR, GRANGER, IN, 46530","Match","Non_Exact","51220 OAK LINED DR, GRANGER, IN, 46530",8071467,"L"
693933,"51222 SHANNON BROOK CT","GRANGER","IN",46530,41.7491971420001,-86.2045234409999,433,"51222 SHANNON BROOK CT, GRANGER, IN, 46530","Match","Exact","51222 SHANNON BROOK CT, GRANGER, IN, 46530",8070359,"R"
693934,"5123  N NC  HWY","MEBANE","NC",27302,NA,NA,434,"5123  N NC  HWY, MEBANE, NC, 27302","No_Match",NA,NA,NA,NA
693935,"5123 24TH AVE","SEATTLE","WA",98105,47.666039482,-122.301940875,435,"5123 24TH AVE, SEATTLE, WA, 98105","Match","Non_Exact","5123 24TH AVE NE, SEATTLE, WA, 98105",186585681,"L"
693936,"5123 5TH AVE","LOS ANGELES","CA",90043,33.996230989,-118.322513335,436,"5123 5TH AVE, LOS ANGELES, CA, 90043","Match","Exact","5123 5TH AVE, LOS ANGELES, CA, 90043",141606388,"R"
693937,"5123 AMBERGATE LN","DALLAS","TX",75287,32.999752265,-96.82074188,437,"5123 AMBERGATE LN, DALLAS, TX, 75287","Match","Exact","5123 AMBERGATE LN, DALLAS, TX, 75287",123534499,"R"
693938,"5123 AVENUE R","GALVESTON","TX",77551,29.2801756530001,-94.820480862,438,"5123 AVENUE R, GALVESTON, TX, 77551","Match","Exact","5123 AVE R, GALVESTON, TX, 77551",96680882,"L"
693939,"5123 BELLAR ST","SHREVEPORT","LA",71109,32.46330728,-93.800857677,439,"5123 BELLAR ST, SHREVEPORT, LA, 71109","Match","Exact","5123 BELLAR ST, SHREVEPORT, LA, 71109",57453047,"R"
693940,"5123 BELLAR STREET","SHREVEPORT","LA",71108,32.46330728,-93.800857677,440,"5123 BELLAR STREET, SHREVEPORT, LA, 71108","Match","Non_Exact","5123 BELLAR ST, SHREVEPORT, LA, 71109",57453047,"R"
693941,"5123 BLAIR LN","BATON ROUGE","LA",70810,30.398100965,-91.099345343,441,"5123 BLAIR LN, BATON ROUGE, LA, 70810","Match","Non_Exact","5123 BLAIR LN, BATON ROUGE, LA, 70809",92192654,"L"
693942,"5123 CAROLINE","HOUSTON","TX",77004,29.7274086960001,-95.384488351,442,"5123 CAROLINE, HOUSTON, TX, 77004","Match","Non_Exact","5123 CAROLINE ST, HOUSTON, TX, 77004",96071186,"L"
693943,"5123 CEDAR ST","GULF BREEZE","FL",32563,30.4068864770001,-87.0041767,443,"5123 CEDAR ST, GULF BREEZE, FL, 32563","Match","Exact","5123 CEDAR ST, GULF BREEZE, FL, 32563",74593008,"R"
693944,"5123 CHIMNEYLAKE DRIVE","LAFAYETTE","IN",47905,40.416818859,-86.806460901,444,"5123 CHIMNEYLAKE DRIVE, LAFAYETTE, IN, 47905","Match","Exact","5123 CHIMNEYLAKE DR, LAFAYETTE, IN, 47905",27317914,"L"
693945,"5123 COUNTRY RD 838 NW","HAVRE","MT",59501,NA,NA,445,"5123 COUNTRY RD 838 NW, HAVRE, MT, 59501","No_Match",NA,NA,NA,NA
693946,"5123 D ST SE","WASHINGTON","DC",20019,38.8835970220001,-76.928306557,446,"5123 D ST SE, WASHINGTON, DC, 20019","Match","Exact","5123 D ST SE, WASHINGTON, DC, 20019",76233891,"R"
693947,"5123 FIVE LAKES RD","NORTH BRANCH","MI",48461,43.179970403,-83.233185323,447,"5123 FIVE LAKES RD, NORTH BRANCH, MI, 48461","Match","Exact","5123 FIVE LAKES RD, NORTH BRANCH, MI, 48461",618066067,"L"
693948,"5123 FLYING PIG LANE","BEDIAS","TX",77831,NA,NA,448,"5123 FLYING PIG LANE, BEDIAS, TX, 77831","No_Match",NA,NA,NA,NA
693949,"5123 FRANCES AVE NE","TACOMA","WA",98422,47.3038784940001,-122.425734344,449,"5123 FRANCES AVE NE, TACOMA, WA, 98422","Match","Exact","5123 FRANCES AVE NE, TACOMA, WA, 98422",184646513,"R"
693950,"5123 GREEN MEADOW RD SE","OSAKIS","MN",56360,45.8446573370001,-95.259392697,450,"5123 GREEN MEADOW RD SE, OSAKIS, MN, 56360","Match","Exact","5123 GREEN MEADOW RD SE, OSAKIS, MN, 56360",629874245,"R"
693951,"5123 IROQUOIS ST","TOBYHANNA","PA",18466,41.1630950700001,-75.366100757,451,"5123 IROQUOIS ST, TOBYHANNA, PA, 18466","Match","Exact","5123 IROQUOIS ST, TOBYHANNA, PA, 18466",136778263,"R"
693952,"5123 IZARD ST","OMAHA","NE",68132,41.268702907,-95.9933245999999,452,"5123 IZARD ST, OMAHA, NE, 68132","Match","Exact","5123 IZARD ST, OMAHA, NE, 68132",116978581,"L"
693953,"5123 JOHN BARBER RD","STRAWBERRY PLAINS","TN",37871,NA,NA,453,"5123 JOHN BARBER RD, STRAWBERRY PLAINS, TN, 37871","No_Match",NA,NA,NA,NA
693954,"5123 KIEV DRIVE","CHARLOTTE","NC",28216,35.3066265260001,-80.867010364,454,"5123 KIEV DRIVE, CHARLOTTE, NC, 28216","Match","Exact","5123 KIEV DR, CHARLOTTE, NC, 28216",70582400,"R"
693955,"5123 LAKE TERRAPIN DR","WOODBRIDGE","VA",22193,38.625071722,-77.3617907079999,455,"5123 LAKE TERRAPIN DR, WOODBRIDGE, VA, 22193","Match","Exact","5123 LAKE TERRAPIN DR, WOODBRIDGE, VA, 22193",635412010,"R"
693956,"5123 LAMPPOST HILL CT","KATY","TX",77449,29.8443938030001,-95.724308176,456,"5123 LAMPPOST HILL CT, KATY, TX, 77449","Match","Exact","5123 LAMPPOST HILL CT, KATY, TX, 77449",645164147,"L"
693957,"5123 MADDEN LANE","HOUSTON","TX",77048,29.632664645,-95.347679967,457,"5123 MADDEN LANE, HOUSTON, TX, 77048","Match","Exact","5123 MADDEN LN, HOUSTON, TX, 77048",96090528,"L"
693958,"5123 MCCRAY ST","INDIANAPOLIS","IN",46224,39.8010119830001,-86.2476432459999,458,"5123 MCCRAY ST, INDIANAPOLIS, IN, 46224","Match","Exact","5123 MCCRAY ST, INDIANAPOLIS, IN, 46224",107978512,"L"
693959,"5123 MILAM STREET","DALLAS","TX",75206,32.8182733530001,-96.7854102059999,459,"5123 MILAM STREET, DALLAS, TX, 75206","Match","Exact","5123 MILAM ST, DALLAS, TX, 75206",102908018,"L"
693960,"5123 N 11TH ST","PHILADELPHIA","PA",19141,40.030375672,-75.141120109,460,"5123 N 11TH ST, PHILADELPHIA, PA, 19141","Match","Exact","5123 N 11TH ST, PHILADELPHIA, PA, 19141",131417368,"R"
693961,"5123 N NC HWY 119","MEBANE","NC",27302,36.2179655,-79.29168959,461,"5123 N NC HWY 119, MEBANE, NC, 27302","Match","Exact","5123 STATE HWY 119, MEBANE, NC, 27302",640211682,"R"
693962,"5123 NATHAN LOOP SE","AUBURN","WA",98092,47.262881469,-122.21267001,462,"5123 NATHAN LOOP SE, AUBURN, WA, 98092","Match","Exact","5123 NATHAN LOOP SE, AUBURN, WA, 98092",239775956,"R"
693963,"5123 NELSON AVENUE","BALTIMORE","MD",21215,39.3441816270001,-76.6809945099999,463,"5123 NELSON AVENUE, BALTIMORE, MD, 21215","Match","Exact","5123 NELSON AVE, BALTIMORE, MD, 21215",206443670,"R"
693964,"5123 NW 195TH LANE","MIAMI GARDENS","FL",33055,25.951111729,-80.285583709,464,"5123 NW 195TH LANE, MIAMI GARDENS, FL, 33055","Match","Exact","5123 NW 195TH LN, MIAMI GARDENS, FL, 33055",116023391,"L"
693965,"5123 NW 22ND STREET","GAINESVILLE","FL",32605,29.701755367,-82.354199987,465,"5123 NW 22ND STREET, GAINESVILLE, FL, 32605","Match","Exact","5123 NW 22ND ST, GAINESVILLE, FL, 32605",649202325,"L"
693966,"5123 OBION COURT","RALEIGH","NC",27616,35.8887842140001,-78.5547591069999,466,"5123 OBION COURT, RALEIGH, NC, 27616","Match","Exact","5123 OBION CT, RALEIGH, NC, 27616",612819931,"L"
693967,"5123 OLIVIA WAY","DUMFRIES","VA",22026,38.610735999,-77.360903912,467,"5123 OLIVIA WAY, DUMFRIES, VA, 22026","Match","Non_Exact","5123 OLIVIA WAY, DUMFRIES, VA, 22025",207142438,"L"
693968,"5123 PROSPERITY","HOUSTON","TX",77091,NA,NA,468,"5123 PROSPERITY, HOUSTON, TX, 77091","No_Match",NA,NA,NA,NA
693969,"5123 RAINTREE DR","PARKER","CO",80134,39.4369456040001,-104.792656291,469,"5123 RAINTREE DR, PARKER, CO, 80134","Match","Exact","5123 RAINTREE DR, PARKER, CO, 80134",627316000,"R"
693970,"5123 RAYMOND AVENUE","ST. LOUIS","MO",63113,38.6574964970001,-90.2671405309999,470,"5123 RAYMOND AVENUE, ST. LOUIS, MO, 63113","Match","Exact","5123 RAYMOND AVE, SAINT LOUIS, MO, 63113",107593178,"R"
693971,"5123 RYAN RD APT 45","TOLEDO","OH",43614,41.601895934,-83.6630259739999,471,"5123 RYAN RD APT 45, TOLEDO, OH, 43614","Match","Exact","5123 RYAN RD, TOLEDO, OH, 43614",640305539,"L"
693972,"5123 S 3RD ST","MEMPHIS","TN",38109,35.0086541920001,-90.100295057,472,"5123 S 3RD ST, MEMPHIS, TN, 38109","Match","Exact","5123 S 3RD ST, MEMPHIS, TN, 38109",72922013,"R"
693973,"5123 S WOODBRIDGE TRAIL","STONE MOUNTAIN","GA",30088,33.778805601,-84.1807763639999,473,"5123 S WOODBRIDGE TRAIL, STONE MOUNTAIN, GA, 30088","Match","Exact","5123 S WOODBRIDGE TRL, STONE MOUNTAIN, GA, 30088",23372249,"L"
693974,"5123 VERNON AVENUE","SAINT LOUIS","MO",63113,38.6583902770001,-90.2669820839999,474,"5123 VERNON AVENUE, SAINT LOUIS, MO, 63113","Match","Exact","5123 VERNON AVE, SAINT LOUIS, MO, 63113",107593180,"R"
693975,"5123 WEST 85TH ST","TULSA","OK",74131,36.0410602860001,-96.049699058,475,"5123 WEST 85TH ST, TULSA, OK, 74131","Match","Non_Exact","5123 W 85TH ST S, TULSA, OK, 74131",165886418,"L"
693976,"5124 105TH STREET NE","MARYSVILLE","WA",98270,48.0897542110001,-122.160259711,476,"5124 105TH STREET NE, MARYSVILLE, WA, 98270","Match","Exact","5124 105TH ST NE, MARYSVILLE, WA, 98270",187769620,"R"
693977,"5124 68TH STREET","URBANDALE","IA",50322,41.656570587,-93.712146075,477,"5124 68TH STREET, URBANDALE, IA, 50322","Match","Exact","5124 68TH ST, URBANDALE, IA, 50322",65808989,"R"
693978,"5124 ALBERTA AVE","NOTTINGHAM","MD",21236,39.357645211,-76.512119975,478,"5124 ALBERTA AVE, NOTTINGHAM, MD, 21236","Match","Exact","5124 ALBERTA AVE, NOTTINGHAM, MD, 21236",191478256,"L"
693979,"5124 ALYSIA STREET","MT. VERNON","IN",47620,37.9617612230001,-87.7233040579999,479,"5124 ALYSIA STREET, MT. VERNON, IN, 47620","Match","Exact","5124 ALYSIA ST, MOUNT VERNON, IN, 47620",613189747,"R"
693980,"5124 BAY OVERLOOK DRIVE","HERMITAGE","TN",37076,36.1519888490001,-86.5926302889999,480,"5124 BAY OVERLOOK DRIVE, HERMITAGE, TN, 37076","Match","Exact","5124 BAY OVERLOOK DR, HERMITAGE, TN, 37076",97221781,"R"
693981,"5124 BEGONIA DRIVE","CHARLOTTE","NC",28215,35.282128136,-80.685483658,481,"5124 BEGONIA DRIVE, CHARLOTTE, NC, 28215","Match","Exact","5124 BEGONIA DR, CHARLOTTE, NC, 28215",70482820,"R"
693982,"5124 BOB DRIVE","N RICHLAND HILLS","TX",76180,32.8405546760001,-97.208454951,482,"5124 BOB DRIVE, N RICHLAND HILLS, TX, 76180","Match","Exact","5124 BOB DR, NORTH RICHLAND HILLS, TX, 76180",101865188,"R"
693983,"5124 BULRUSH CT","FORT COLLINS","CO",80525,40.5160827890001,-105.063867831,483,"5124 BULRUSH CT, FORT COLLINS, CO, 80525","Match","Exact","5124 BULRUSH CT, FORT COLLINS, CO, 80525",188519173,"R"
693984,"5124 BUR OAK LN","PARKER","CO",80134,39.4365559340001,-104.74975119,484,"5124 BUR OAK LN, PARKER, CO, 80134","Match","Exact","5124 BUR OAK LN, PARKER, CO, 80134",130795019,"R"
693985,"5124 CANDLE BROOK TERRACE","BESSEMER","AL",35022,33.3529047070001,-86.976151123,485,"5124 CANDLE BROOK TERRACE, BESSEMER, AL, 35022","Match","Exact","5124 CANDLE BROOK TER, BESSEMER, AL, 35022",647575484,"R"
693986,"5124 CHAD DR","TYLER","TX",75703,32.293581981,-95.286216655,486,"5124 CHAD DR, TYLER, TX, 75703","Match","Exact","5124 CHAD DR, TYLER, TX, 75703",141272972,"L"
693987,"5124 CHERRY LN","MEDFORD","OR",97504,42.3283453270001,-122.783797114,487,"5124 CHERRY LN, MEDFORD, OR, 97504","Match","Exact","5124 CHERRY LN, MEDFORD, OR, 97504",642567738,"R"
693988,"5124 CHESTNUT STREET","BELLAIRE","TX",77401,29.7097286530001,-95.468655384,488,"5124 CHESTNUT STREET, BELLAIRE, TX, 77401","Match","Exact","5124 CHESTNUT ST, BELLAIRE, TX, 77401",96033503,"R"
693989,"5124 CHEVIOT RD","CHARLOTTE","NC",28269,35.290961818,-80.8136365619999,489,"5124 CHEVIOT RD, CHARLOTTE, NC, 28269","Match","Exact","5124 CHEVIOT RD, CHARLOTTE, NC, 28269",70478417,"R"
693990,"5124 CREST KNOLL CT","BLOOMFIELD HILLS","MI",48302,42.5649939470001,-83.304883473,490,"5124 CREST KNOLL CT, BLOOMFIELD HILLS, MI, 48302","Match","Non_Exact","5124 CREST KNOLLS CT, BLOOMFIELD HILLS, MI, 48302",69822793,"L"
693991,"5124 DEERPATH LANE","BAINBRIDGE ISLAND","WA",98110,47.6087641060001,-122.563600086,491,"5124 DEERPATH LANE, BAINBRIDGE ISLAND, WA, 98110","Match","Non_Exact","5124 DEERPATH LN NE, BAINBRIDGE ISLAND, WA, 98110",639425851,"R"
693992,"5124 DRAPER ST","FORT WORTH","TX",76105,32.7199602480001,-97.244473737,492,"5124 DRAPER ST, FORT WORTH, TX, 76105","Match","Exact","5124 DRAPER ST, FORT WORTH, TX, 76105",101897940,"R"
693993,"5124 DYEMEADOW CT","FLINT","MI",48532,43.0247797000001,-83.7792294449999,493,"5124 DYEMEADOW CT, FLINT, MI, 48532","Match","Exact","5124 DYEMEADOW CT, FLINT, MI, 48532",69561973,"R"
693994,"5124 E EDGEWOOD AVE","MESA","AZ",85206,33.4000688130001,-111.722106085,494,"5124 E EDGEWOOD AVE, MESA, AZ, 85206","Match","Exact","5124 E EDGEWOOD AVE, MESA, AZ, 85206",128250229,"R"
693995,"5124 E FORT LOWELL","TUCSON","AZ",85712,32.2615231340001,-110.883546675,495,"5124 E FORT LOWELL, TUCSON, AZ, 85712","Match","Non_Exact","5124 E FORT LOWELL RD, TUCSON, AZ, 85712",624282520,"R"
693996,"5124 E ORIOLE DR","MONTICELLO","IN",47960,NA,NA,496,"5124 E ORIOLE DR, MONTICELLO, IN, 47960","Tie",NA,NA,NA,NA
693997,"5124 E ORIOLE DRIVE","MONTICELLO","IN",47960,NA,NA,497,"5124 E ORIOLE DRIVE, MONTICELLO, IN, 47960","Tie",NA,NA,NA,NA
693998,"5124 EAST 114TH STREET","CLEVELAND","OH",44125,41.421530379,-81.604550912,498,"5124 EAST 114TH STREET, CLEVELAND, OH, 44125","Match","Exact","5124 E 114TH ST, CLEVELAND, OH, 44125",61126892,"R"
693999,"5124 EAST LAKE RD","MILTON","FL",32583,30.618773156,-86.8889608869999,499,"5124 EAST LAKE RD, MILTON, FL, 32583","Match","Exact","5124 E LAKE RD, MILTON, FL, 32583",74579416,"L"
694000,"5124 EVAN CT SE","AUBURN","WA",98092,47.2621329850001,-122.222397036,500,"5124 EVAN CT SE, AUBURN, WA, 98092","Match","Exact","5124 EVAN CT SE, AUBURN, WA, 98092",624869078,"L"
