"ID","Address","City","State","Zip","lat","long","id","input_address","match_indicator","match_type","matched_address","tiger_line_id","tiger_side"
47001,"10750 CERMAK RD","WESTCHESTER","IL",60154,41.84842453,-87.8905739689999,1,"10750 CERMAK RD, WESTCHESTER, IL, 60154","Match","Exact","10750 CERMAK RD, WESTCHESTER, IL, 60154",111787980,"R"
47002,"10750 EAST 122ND COURT NORTH","COLLINSVILLE","OK",74021,36.3324740260001,-95.850914422,2,"10750 EAST 122ND COURT NORTH, COLLINSVILLE, OK, 74021","Match","Exact","10750 E 122ND CT N, COLLINSVILLE, OK, 74021",640452494,"R"
47003,"10750 EST 258TH STREET SOUTH","PORUM","OK",74455,NA,NA,3,"10750 EST 258TH STREET SOUTH, PORUM, OK, 74455","No_Match",NA,NA,NA,NA
47004,"10750 FM 1082","MERKEL","TX",79536,NA,NA,4,"10750 FM 1082, MERKEL, TX, 79536","No_Match",NA,NA,NA,NA
47005,"10750 GARLAND ROAD","DENTON","MD",21629,38.902578018,-75.793638104,5,"10750 GARLAND ROAD, DENTON, MD, 21629","Match","Exact","10750 GARLAND RD, DENTON, MD, 21629",68311462,"L"
47006,"10750 HIGHWAY 73","CONIFER","CO",80433,39.5224803,-105.306999269,6,"10750 HIGHWAY 73, CONIFER, CO, 80433","Match","Non_Exact","10750 STATE HWY 73, CONIFER, CO, 80433",177769304,"L"
47007,"10750 HILLROSE AVE","BATON ROUGE","LA",70810,30.3445067650001,-91.10697129,7,"10750 HILLROSE AVE, BATON ROUGE, LA, 70810","Match","Exact","10750 HILLROSE AVE, BATON ROUGE, LA, 70810",92211951,"R"
47008,"10750 MOUNTAIN RUN LAKE ROAD","CULPEPER","VA",22701,38.463623184,-78.055826025,8,"10750 MOUNTAIN RUN LAKE ROAD, CULPEPER, VA, 22701","Match","Exact","10750 MOUNTAIN RUN LAKE RD, CULPEPER, VA, 22701",624730735,"L"
47009,"10750 NW 107TH COURT","REDDICK","FL",32686,29.303389113,-82.2968766019999,9,"10750 NW 107TH COURT, REDDICK, FL, 32686","Match","Exact","10750 NW 107TH CT, REDDICK, FL, 32686",116706051,"L"
47010,"10750 NW 68TH LN","DORAL","FL",33178,25.836055749,-80.37116886,10,"10750 NW 68TH LN, DORAL, FL, 33178","Match","Exact","10750 NW 68TH LN, DORAL, FL, 33178",116259233,"L"
47011,"10750 OLD HALLS FERRY ROAD","SAINT LOUIS","MO",63136,38.767298881,-90.259821702,11,"10750 OLD HALLS FERRY ROAD, SAINT LOUIS, MO, 63136","Match","Exact","10750 OLD HALLS FERRY RD, SAINT LOUIS, MO, 63136",100148160,"R"
47012,"10750 ROCKFORD ROAD APT 109","PLYMOUTH","MN",55442,45.0330422490001,-93.417753116,12,"10750 ROCKFORD ROAD APT 109, PLYMOUTH, MN, 55442","Match","Exact","10750 ROCKFORD RD, PLYMOUTH, MN, 55442",640007755,"R"
47013,"10750 S EGGLESTON","CHICAGO","IL",60628,41.6985813210001,-87.634134423,13,"10750 S EGGLESTON, CHICAGO, IL, 60628","Match","Non_Exact","10750 S EGGLESTON AVE, CHICAGO, IL, 60628",605581070,"R"
47014,"10750 SW 146 TERRACE","MIAMI","FL",33176,25.633139004,-80.3677014089999,14,"10750 SW 146 TERRACE, MIAMI, FL, 33176","Match","Exact","10750 SW 146TH TER, MIAMI, FL, 33176",115981990,"L"
47015,"10750 SW 67 DRIVE","MIAMI","FL",33173,25.7062827730001,-80.368927688,15,"10750 SW 67 DRIVE, MIAMI, FL, 33173","Match","Exact","10750 SW 67TH DR, MIAMI, FL, 33173",116074326,"L"
47016,"10750 WASHINGTON STREET","PEMBROKE PINES","FL",33025,26.000588916,-80.292102225,16,"10750 WASHINGTON STREET, PEMBROKE PINES, FL, 33025","Match","Exact","10750 WASHINGTON ST, PEMBROKE PINES, FL, 33025",646617805,"R"
47017,"10750 WESTBRAE PARKWAY  2601","HOUSTON","TX",77031,29.663288643,-95.532346868,17,"10750 WESTBRAE PARKWAY  2601, HOUSTON, TX, 77031","Match","Exact","10750 WESTBRAE PKWY, HOUSTON, TX, 77031",96037218,"L"
47018,"10750 WHITE TRILLIUM ROAD APT 201A","PERRY HALL","MD",21128,39.3856829170001,-76.4372694639999,18,"10750 WHITE TRILLIUM ROAD APT 201A, PERRY HALL, MD, 21128","Match","Exact","10750 WHITE TRILLIUM RD, PERRY HALL, MD, 21128",651704974,"R"
47019,"10750NW 48TH LN","DORAL","FL",33178,25.8174208410001,-80.371048112,19,"10750NW 48TH LN, DORAL, FL, 33178","Match","Non_Exact","10750 NW 48TH LN, DORAL, FL, 33178",116259110,"R"
47020,"10751 49TH AVE SW","PILLAGER","MN",56473,46.416412891,-94.539362093,20,"10751 49TH AVE SW, PILLAGER, MN, 56473","Match","Exact","10751 49TH AVE SW, PILLAGER, MN, 56473",162726548,"L"
47021,"10751 BRIDLEREIN CT","SPOTSYLVANIA","VA",22553,38.329319663,-77.708398157,21,"10751 BRIDLEREIN CT, SPOTSYLVANIA, VA, 22553","Match","Exact","10751 BRIDLEREIN CT, SPOTSYLVANIA, VA, 22553",618667391,"L"
47022,"10751 CENTERVILLE BAY STREET","LAS VEGAS","NV",89179,35.994068203,-115.256944064,22,"10751 CENTERVILLE BAY STREET, LAS VEGAS, NV, 89179","Match","Exact","10751 CENTERVILLE BAY ST, LAS VEGAS, NV, 89179",650704070,"R"
47023,"10751 FRANK DANIELS WAY","SAN DIEGO","CA",2131,NA,NA,23,"10751 FRANK DANIELS WAY, SAN DIEGO, CA, 2131","No_Match",NA,NA,NA,NA
47024,"10751 FRANK DANIELS WAY","SAN DIEGO","CA",92131,32.921350277,-117.079794835,24,"10751 FRANK DANIELS WAY, SAN DIEGO, CA, 92131","Match","Exact","10751 FRANK DANIELS WAY, SAN DIEGO, CA, 92131",195660676,"R"
47025,"10751 HOLLY DRIVE","GARDEN GROVE","CA",92840,33.7836616660001,-117.944911041,25,"10751 HOLLY DRIVE, GARDEN GROVE, CA, 92840","Match","Exact","10751 HOLLY DR, GARDEN GROVE, CA, 92840",144035202,"L"
47026,"10751 OWENSMOUTH AVE","CHATSWORTH","CA",91311,34.265797483,-118.601698356,26,"10751 OWENSMOUTH AVE, CHATSWORTH, CA, 91311","Match","Exact","10751 OWENSMOUTH AVE, CHATSWORTH, CA, 91311",141531863,"L"
47027,"10751 PALACE CT","MANASSAS","NV",20111,NA,NA,27,"10751 PALACE CT, MANASSAS, NV, 20111","No_Match",NA,NA,NA,NA
47028,"10751 PALACE CT","MANASSAS","VA",20111,38.7217894840001,-77.4356531719999,28,"10751 PALACE CT, MANASSAS, VA, 20111","Match","Exact","10751 PALACE CT, MANASSAS, VA, 20111",207162824,"R"
47029,"10751 RAMSEY ROAD EXT","GRAND BAY","AL",36541,30.46675715,-88.309587812,29,"10751 RAMSEY ROAD EXT, GRAND BAY, AL, 36541","Match","Non_Exact","10751 RAMSEY RD EXD, GRAND BAY, AL, 36541",61949317,"R"
47030,"10751 SAN JACINTO DR","LA PORTE","TX",77571,29.6912528390001,-95.0653801889999,30,"10751 SAN JACINTO DR, LA PORTE, TX, 77571","Match","Exact","10751 SAN JACINTO DR, LA PORTE, TX, 77571",96107105,"L"
47031,"10751 SE EASTMONT DR","DAMASCUS","OR",97089,45.4449305150001,-122.391013475,31,"10751 SE EASTMONT DR, DAMASCUS, OR, 97089","Match","Exact","10751 SE EASTMONT DR, DAMASCUS, OR, 97089",157961742,"L"
47032,"10751 SHAVANO PEAK COURT","PEYTON","CO",80831,38.9891263650001,-104.589427003,32,"10751 SHAVANO PEAK COURT, PEYTON, CO, 80831","Match","Exact","10751 SHAVANO PEAK CT, PEYTON, CO, 80831",649706828,"L"
47033,"10751 STONEY POINT DR","SOUTH LYON","MI",48178,42.4758866490001,-83.741155486,33,"10751 STONEY POINT DR, SOUTH LYON, MI, 48178","Match","Exact","10751 STONEY POINT DR, SOUTH LYON, MI, 48178",619582939,"L"
47034,"10751 SW 244 TERR","HOMESTEAD","FL",33032,25.5404305210001,-80.365348551,34,"10751 SW 244 TERR, HOMESTEAD, FL, 33032","Match","Exact","10751 SW 244TH TER, HOMESTEAD, FL, 33032",638638803,"L"
47035,"10751 TOWNSHIP ROAD 135","KENTON","OH",43326,NA,NA,35,"10751 TOWNSHIP ROAD 135, KENTON, OH, 43326","No_Match",NA,NA,NA,NA
47036,"10751 W 77TH PLACE","ARVADA","CO",80005,39.8379878040001,-105.118845344,36,"10751 W 77TH PLACE, ARVADA, CO, 80005","Match","Exact","10751 W 77TH PL, ARVADA, CO, 80005",177281312,"R"
47037,"10752 118TH STREET","S.RICHMOND HILL","NY",11419,NA,NA,37,"10752 118TH STREET, S.RICHMOND HILL, NY, 11419","No_Match",NA,NA,NA,NA
47038,"10752 31ST STREET","WESTCHESTER","IL",60154,41.833859886,-87.890097307,38,"10752 31ST STREET, WESTCHESTER, IL, 60154","Match","Exact","10752 31ST ST, WESTCHESTER, IL, 60154",111788101,"R"
47039,"10752 ALLEN ROAD","WASHINGTON CH","OH",43160,39.609031298,-83.612941345,39,"10752 ALLEN ROAD, WASHINGTON CH, OH, 43160","Match","Non_Exact","10752 ALLEN RD, WASHINGTON COURT HOUSE, OH, 43160",647877094,"R"
47040,"10752 HIGHWAY 52","CHATSWORTH","GA",30705,34.779296645,-84.646121941,40,"10752 HIGHWAY 52, CHATSWORTH, GA, 30705","Match","Non_Exact","10752 STATE RTE 52, CHATSWORTH, GA, 30705",57105966,"R"
47041,"10752 LITER RD","BLACKBURN","MO",65321,39.053649507,-93.4951990659999,41,"10752 LITER RD, BLACKBURN, MO, 65321","Match","Exact","10752 LITER RD, BLACKBURN, MO, 65321",20922264,"L"
47042,"10752 OAKWOOD AVENUE","HESPERIA","CA",92345,34.445705161,-117.342691736,42,"10752 OAKWOOD AVENUE, HESPERIA, CA, 92345","Match","Exact","10752 OAKWOOD AVE, HESPERIA, CA, 92345",144588960,"L"
47043,"10752 SUGARLAND","EL PASO","TX",79924,31.9250650540001,-106.429279952,43,"10752 SUGARLAND, EL PASO, TX, 79924","Match","Non_Exact","10752 SUGARLAND DR, EL PASO, TX, 79924",189396075,"R"
47044,"10752 SW 165 TERR","MIAMI","FL",33157,25.6158326680001,-80.367397561,44,"10752 SW 165 TERR, MIAMI, FL, 33157","Match","Exact","10752 SW 165TH TER, MIAMI, FL, 33157",115982538,"L"
47045,"10753 118TH STREET","RICHMOND HILL","NY",11419,NA,NA,45,"10753 118TH STREET, RICHMOND HILL, NY, 11419","No_Match",NA,NA,NA,NA
47046,"10753 BLIX ST","TOLUCA LAKE","CA",91602,34.1566670130001,-118.365883723,46,"10753 BLIX ST, TOLUCA LAKE, CA, 91602","Match","Exact","10753 BLIX ST, TOLUCA LAKE, CA, 91602",642863974,"R"
47047,"10753 CHERRY CT","THORNTON","CO",80233,39.8907039170001,-104.930855302,47,"10753 CHERRY CT, THORNTON, CO, 80233","Match","Exact","10753 CHERRY CT, THORNTON, CO, 80233",177307294,"L"
47048,"10753 COOK STREET","NORTHGLENN","CO",80233,39.891390131,-104.947148693,48,"10753 COOK STREET, NORTHGLENN, CO, 80233","Match","Exact","10753 COOK ST, NORTHGLENN, CO, 80233",177409701,"R"
47049,"10753 JOEGER RD","AUBURN","CA",95602,38.951591514,-121.121811003,49,"10753 JOEGER RD, AUBURN, CA, 95602","Match","Exact","10753 JOEGER RD, AUBURN, CA, 95602",106776057,"L"
47050,"10753 ORBAN ROAD","GRASS LAKE","MI",49240,42.196760404,-84.215406722,50,"10753 ORBAN ROAD, GRASS LAKE, MI, 49240","Match","Exact","10753 ORBAN RD, GRASS LAKE, MI, 49240",647392834,"R"
47051,"10753 S WALLACE ST","CHICAGO","IL",60628,41.698513415,-87.637712752,51,"10753 S WALLACE ST, CHICAGO, IL, 60628","Match","Exact","10753 S WALLACE ST, CHICAGO, IL, 60628",605581010,"L"
47052,"10753 SPRING STREET","OMAHA","NE",68124,41.230568395,-96.0804524179999,52,"10753 SPRING STREET, OMAHA, NE, 68124","Match","Exact","10753 SPRING ST, OMAHA, NE, 68124",652352989,"L"
47053,"10753 THISTLE RIDGE","FISHERS","IN",46038,39.945697082,-86.024715979,53,"10753 THISTLE RIDGE, FISHERS, IN, 46038","Match","Exact","10753 THISTLE RIDGE, FISHERS, IN, 46038",29306141,"L"
47054,"10753 TULLAMORE COURT","MANASSAS","VA",20111,38.7210394790001,-77.4508302249999,54,"10753 TULLAMORE COURT, MANASSAS, VA, 20111","Match","Exact","10753 TULLAMORE CT, MANASSAS, VA, 20111",635833730,"L"
47055,"10753 WHITE ASPEN LANE","BOCA RATON","FL",33428,26.36044365,-80.215796773,55,"10753 WHITE ASPEN LANE, BOCA RATON, FL, 33428","Match","Exact","10753 WHITE ASPEN LN, BOCA RATON, FL, 33428",639489852,"R"
47056,"10754 BOWLING GREEN RD","MORGANTOWN","KY",42261,37.0962862710001,-86.6394517799999,56,"10754 BOWLING GREEN RD, MORGANTOWN, KY, 42261","Match","Exact","10754 BOWLING GREEN RD, MORGANTOWN, KY, 42261",651422724,"L"
47057,"10754 COUNTY RD 29","BLAIR","NE",68007,41.536285515,-96.167132215,57,"10754 COUNTY RD 29, BLAIR, NE, 68007","Match","Non_Exact","10754 CO RD 29, BLAIR, NE, 68008",176773249,"R"
47058,"10754 N PRESTON HWY","BRUCETON MILLS","WV",26525,39.601983766,-79.6406742789999,58,"10754 N PRESTON HWY, BRUCETON MILLS, WV, 26525","Match","Exact","10754 N PRESTON HWY, BRUCETON MILLS, WV, 26525",611589032,"R"
47059,"10754 VENETIA MILL CIRCLE APT 3A","SILVER SPRING","MD",20901,39.0306238910001,-77.0021007679999,59,"10754 VENETIA MILL CIRCLE APT 3A, SILVER SPRING, MD, 20901","Match","Exact","10754 VENETIA MILL CIR, SILVER SPRING, MD, 20901",62105732,"L"
47060,"10754 W 85TH PL","ARVADA","CO",80005,39.851090308,-105.120407694,60,"10754 W 85TH PL, ARVADA, CO, 80005","Match","Exact","10754 W 85TH PL, ARVADA, CO, 80005",177281141,"L"
47061,"10754 W PASO TRL","PEORIA","AZ",85383,33.720006562,-112.287278395,61,"10754 W PASO TRL, PEORIA, AZ, 85383","Match","Exact","10754 W PASO TRL, PEORIA, AZ, 85383",639805075,"R"
47062,"10755  55TH PLACE NORTH","PLYMOUTH","MN",55442,45.0541065840001,-93.4167015199999,62,"10755  55TH PLACE NORTH, PLYMOUTH, MN, 55442","Match","Exact","10755 55TH PL N, PLYMOUTH, MN, 55442",43608271,"R"
47063,"10755 7TH LANE","ATHENS","WI",54411,NA,NA,63,"10755 7TH LANE, ATHENS, WI, 54411","No_Match",NA,NA,NA,NA
47064,"10755 BLACK ROCK RD","POTOSI","MO",63664,38.0511336380001,-90.871814893,64,"10755 BLACK ROCK RD, POTOSI, MO, 63664","Match","Non_Exact","10755 BLACKROCK RD, POTOSI, MO, 63664",605484858,"L"
47065,"10755 E HWY 84","AXTELL","TX",76624,31.635230403,-96.973241779,65,"10755 E HWY 84, AXTELL, TX, 76624","Match","Non_Exact","10755 US HWY 84, AXTELL, TX, 76624",146763179,"L"
47066,"10755 HIGHWAY 72","WOODVILLE","AL",35776,NA,NA,66,"10755 HIGHWAY 72, WOODVILLE, AL, 35776","No_Match",NA,NA,NA,NA
47067,"10755 KONNEAYAUT TRAIL EXT","CONNEAUT LAKE","PA",16316,NA,NA,67,"10755 KONNEAYAUT TRAIL EXT, CONNEAUT LAKE, PA, 16316","No_Match",NA,NA,NA,NA
47068,"10755 MEADOWGLEN LANE","HOUSTON","TX",77042,29.73152221,-95.564460848,68,"10755 MEADOWGLEN LANE, HOUSTON, TX, 77042","Match","Exact","10755 MEADOWGLEN LN, HOUSTON, TX, 77042",644421711,"R"
47069,"10755 SCRIPPS POWAY PARKWAY STE 437","SAN DIEGO","CA",92131,32.936926102,-117.097444256,69,"10755 SCRIPPS POWAY PARKWAY STE 437, SAN DIEGO, CA, 92131","Match","Exact","10755 SCRIPPS POWAY PKWY, SAN DIEGO, CA, 92131",195653488,"R"
47070,"10755 SCRIPPS POWAY PARKWAY","SAN DIEGO","CA",92131,32.936926102,-117.097444256,70,"10755 SCRIPPS POWAY PARKWAY, SAN DIEGO, CA, 92131","Match","Exact","10755 SCRIPPS POWAY PKWY, SAN DIEGO, CA, 92131",195653488,"R"
47071,"10755 SCRIPPS POWAY PKWY  381","SAN DIEGO","CA",92131,32.936926102,-117.097444256,71,"10755 SCRIPPS POWAY PKWY  381, SAN DIEGO, CA, 92131","Match","Exact","10755 SCRIPPS POWAY PKWY, SAN DIEGO, CA, 92131",195653488,"R"
47072,"10755 SCRIPPS POWAY PKWY 381","SAN DIEGO","CA",92131,32.936926102,-117.097444256,72,"10755 SCRIPPS POWAY PKWY 381, SAN DIEGO, CA, 92131","Match","Exact","10755 SCRIPPS POWAY PKWY, SAN DIEGO, CA, 92131",195653488,"R"
47073,"10755 SW 243 TER","HOMESTEAD","FL",33032,25.541469213,-80.3647595039999,73,"10755 SW 243 TER, HOMESTEAD, FL, 33032","Match","Exact","10755 SW 243RD TER, HOMESTEAD, FL, 33032",624581790,"L"
47074,"10755 W 3RD ST","AVONDALE","AZ",85323,33.4325808840001,-112.290975229,74,"10755 W 3RD ST, AVONDALE, AZ, 85323","Match","Exact","10755 W 3RD ST, AVONDALE, AZ, 85323",244015520,"R"
47075,"10755 WILLIAMSBURGH DR","NEWBURGH","IN",47630,NA,NA,75,"10755 WILLIAMSBURGH DR, NEWBURGH, IN, 47630","No_Match",NA,NA,NA,NA
47076,"10756 BALLARD DR","BROWNSBURG","IN",46112,39.8638377600001,-86.33797509,76,"10756 BALLARD DR, BROWNSBURG, IN, 46112","Match","Exact","10756 BALLARD DR, BROWNSBURG, IN, 46112",625082511,"L"
47077,"10756 CONCORD RD","SEAFORD","DE",19973,38.6388913480001,-75.5532717679999,77,"10756 CONCORD RD, SEAFORD, DE, 19973","Match","Exact","10756 CONCORD RD, SEAFORD, DE, 19973",106129249,"L"
47078,"10756 JEANES STREET","PHILADELPHIA","PA",19116,40.1119750300001,-75.027503934,78,"10756 JEANES STREET, PHILADELPHIA, PA, 19116","Match","Exact","10756 JEANES ST, PHILADELPHIA, PA, 19116",131430955,"L"
47079,"10756 LARSEN STREET","OVERLAND PARK","KS",66210,38.9301801670001,-94.708992333,79,"10756 LARSEN STREET, OVERLAND PARK, KS, 66210","Match","Exact","10756 LARSEN ST, OVERLAND PARK, KS, 66210",91276676,"L"
47080,"10756 LITTLEFIELD DR","TYLER","TX",75708,32.4222492150001,-95.2309568109999,80,"10756 LITTLEFIELD DR, TYLER, TX, 75708","Match","Exact","10756 LITTLEFIELD DR, TYLER, TX, 75708",141297357,"R"
47081,"10756 PAESANO POINT","ST FRANCISVILLE","LA",70775,NA,NA,81,"10756 PAESANO POINT, ST FRANCISVILLE, LA, 70775","No_Match",NA,NA,NA,NA
47082,"10756 PREDDY AVE","KLAMATH FALLS","OR",97603,42.127845081,-121.75158113,82,"10756 PREDDY AVE, KLAMATH FALLS, OR, 97603","Match","Exact","10756 PREDDY AVE, KLAMATH FALLS, OR, 97603",156658105,"L"
47083,"10756 PREDDY AVENUE","KLAMATH FALLS","OR",97603,42.127845081,-121.75158113,83,"10756 PREDDY AVENUE, KLAMATH FALLS, OR, 97603","Match","Exact","10756 PREDDY AVE, KLAMATH FALLS, OR, 97603",156658105,"L"
47084,"10756 REDMONT AVENUE","TUJUNGA","CA",91042,34.264804268,-118.292729831,84,"10756 REDMONT AVENUE, TUJUNGA, CA, 91042","Match","Exact","10756 REDMONT AVE, TUJUNGA, CA, 91042",141587978,"R"
47085,"10756 RHODE ISLAND AVE","BELTSVILLE","MD",20705,39.0325225780001,-76.913967804,85,"10756 RHODE ISLAND AVE, BELTSVILLE, MD, 20705","Match","Exact","10756 RHODE ISLAND AVE, BELTSVILLE, MD, 20705",76402834,"L"
47086,"10756 S CHARLESTON PIKE","S. CHARLESTON","OH",45368,39.83530933,-83.63682427,86,"10756 S CHARLESTON PIKE, S. CHARLESTON, OH, 45368","Match","Exact","10756 S CHARLESTON PIKE, S CHARLESTON, OH, 45368",135022169,"L"
47087,"10757 154 ST","JAMAICA","NY",11433,NA,NA,87,"10757 154 ST, JAMAICA, NY, 11433","No_Match",NA,NA,NA,NA
47088,"10757 154TH ST FL1","JAMAICA","NY",11433,NA,NA,88,"10757 154TH ST FL1, JAMAICA, NY, 11433","No_Match",NA,NA,NA,NA
47089,"10757 154TH ST","JAMAICA","NY",11433,NA,NA,89,"10757 154TH ST, JAMAICA, NY, 11433","No_Match",NA,NA,NA,NA
47090,"10757 ALTON CT","ADELANTO","CA",92301,34.5278926450001,-117.429803434,90,"10757 ALTON CT, ADELANTO, CA, 92301","Match","Exact","10757 ALTON CT, ADELANTO, CA, 92301",144738526,"R"
47091,"10757 LEMON AVE UNIT 838","RANCHO CUCAMONGA","CA",91737,34.139708801,-117.570320489,91,"10757 LEMON AVE UNIT 838, RANCHO CUCAMONGA, CA, 91737","Match","Exact","10757 LEMON AVE, RANCHO CUCAMONGA, CA, 91737",647992139,"R"
47092,"10757 OLD NUMBER SIX HWY","EUTAWVILLE","SC",29048,NA,NA,92,"10757 OLD NUMBER SIX HWY, EUTAWVILLE, SC, 29048","No_Match",NA,NA,NA,NA
47093,"10757 RIVER ROAD","AMA","LA",70031,29.9500153270001,-90.298702025,93,"10757 RIVER ROAD, AMA, LA, 70031","Match","Exact","10757 RIVER RD, AMA, LA, 70031",93625836,"R"
47094,"10757 SAGE CREEK DR","GALENA","OH",43021,40.2044548000001,-82.858981947,94,"10757 SAGE CREEK DR, GALENA, OH, 43021","Match","Exact","10757 SAGE CREEK DR, GALENA, OH, 43021",24604079,"L"
47095,"10757 SUMTER AVE N","BROOKLYN PARK","MN",55445,45.149767067,-93.3802937249999,95,"10757 SUMTER AVE N, BROOKLYN PARK, MN, 55445","Match","Exact","10757 SUMTER AVE N, BROOKLYN PARK, MN, 55445",650111649,"L"
47096,"10757 TORREY PINES CIRCLE","CARMEL","IN",46032,39.9434443150001,-86.2007257179999,96,"10757 TORREY PINES CIRCLE, CARMEL, IN, 46032","Match","Exact","10757 TORREY PINES CIR, CARMEL, IN, 46032",29293689,"R"
47097,"10758 BELLE MAISONS DRIVE","ORLANDO","FL",32832,28.431850578,-81.2221461949999,97,"10758 BELLE MAISONS DRIVE, ORLANDO, FL, 32832","Match","Exact","10758 BELLE MAISONS DR, ORLANDO, FL, 32832",649052187,"R"
47098,"10758 BRIAR STONE LN","FISHERS","IN",46038,39.9459828020001,-86.027149815,98,"10758 BRIAR STONE LN, FISHERS, IN, 46038","Match","Exact","10758 BRIAR STONE LN, FISHERS, IN, 46038",29308411,"L"
47099,"10758 DULCIMER ST","HOUSTON","TX",77051,29.6409342470001,-95.3766310249999,99,"10758 DULCIMER ST, HOUSTON, TX, 77051","Match","Exact","10758 DULCIMER ST, HOUSTON, TX, 77051",96090149,"R"
47100,"10758 GRANDE PALLADIUM WAY","BOYNTON BEACH","FL",33436,26.5154074970001,-80.104988662,100,"10758 GRANDE PALLADIUM WAY, BOYNTON BEACH, FL, 33436","Match","Exact","10758 GRANDE PALLADIUM WAY, BOYNTON BEACH, FL, 33436",115503654,"L"
47101,"10758 HUNTWICK STREET","HIGHLANDS RANCH","CO",80124,39.520243281,-104.93174066,101,"10758 HUNTWICK STREET, HIGHLANDS RANCH, CO, 80124","Match","Non_Exact","10758 HUNTWICK ST, HIGHLANDS RANCH, CO, 80130",130853230,"R"
47102,"10758 IILEX STREET","MINNEAPOLIS","MN",55448,NA,NA,102,"10758 IILEX STREET, MINNEAPOLIS, MN, 55448","No_Match",NA,NA,NA,NA
47103,"10758 ILEX ST NW","COON RAPIDS","MN",55448,45.165449359,-93.278185843,103,"10758 ILEX ST NW, COON RAPIDS, MN, 55448","Match","Exact","10758 ILEX ST NW, COON RAPIDS, MN, 55448",97497192,"L"
47104,"10758 SACO DRIVE","COLORADO SPRINGS","CO",80925,NA,NA,104,"10758 SACO DRIVE, COLORADO SPRINGS, CO, 80925","No_Match",NA,NA,NA,NA
47105,"10758 SOUTH EDBROOKE AVE","CHICAGO","IL",60628,41.698665368,-87.619651187,105,"10758 SOUTH EDBROOKE AVE, CHICAGO, IL, 60628","Match","Exact","10758 S EDBROOKE AVE, CHICAGO, IL, 60628",616794185,"R"
47106,"10758 VICTORIA LANE","WALTON","KY",41094,NA,NA,106,"10758 VICTORIA LANE, WALTON, KY, 41094","No_Match",NA,NA,NA,NA
47107,"10758 WHEELING DR","COMMERCE CITY","CO",80022,39.891803354,-104.830284808,107,"10758 WHEELING DR, COMMERCE CITY, CO, 80022","Match","Exact","10758 WHEELING DR, COMMERCE CITY, CO, 80022",177425038,"R"
47108,"10758 WHEELING WAY","COMMERCE CITY","CO",80022,NA,NA,108,"10758 WHEELING WAY, COMMERCE CITY, CO, 80022","Tie",NA,NA,NA,NA
47109,"10759 AKRON STREET","HENDERSON","CO",80640,39.894161082,-104.880242298,109,"10759 AKRON STREET, HENDERSON, CO, 80640","Match","Exact","10759 AKRON ST, HENDERSON, CO, 80640",647720097,"L"
47110,"10759 CAMELLIA DR","DALLAS","TX",75230,32.8939748290001,-96.80106232,110,"10759 CAMELLIA DR, DALLAS, TX, 75230","Match","Exact","10759 CAMELLIA DR, DALLAS, TX, 75230",103206788,"L"
47111,"10759 COUNTY ROAD 370","WAYNOKA","OK",73860,36.5562993670001,-98.7823011849999,111,"10759 COUNTY ROAD 370, WAYNOKA, OK, 73860","Match","Exact","10759 CO RD 370, WAYNOKA, OK, 73860",161165478,"L"
47112,"10759 FRANKFORT RD","WADDY","KY",40076,38.164932288,-85.022185377,112,"10759 FRANKFORT RD, WADDY, KY, 40076","Match","Exact","10759 FRANKFORT RD, WADDY, KY, 40076",652749216,"R"
47113,"10759 NW 70TH LANE","MIAMI","FL",33178,25.83865983,-80.3712416289999,113,"10759 NW 70TH LANE, MIAMI, FL, 33178","Match","Exact","10759 NW 70TH LN, MIAMI, FL, 33178",116259158,"R"
47114,"10759 S CHURCH ST","CHICAGO","IL",60643,41.6978332150001,-87.661022003,114,"10759 S CHURCH ST, CHICAGO, IL, 60643","Match","Exact","10759 S CHURCH ST, CHICAGO, IL, 60643",604992491,"L"
47115,"10759 SW 226TH STREET","GOULDS","FL",33170,25.5570310000001,-80.365921553,115,"10759 SW 226TH STREET, GOULDS, FL, 33170","Match","Exact","10759 SW 226TH ST, GOULDS, FL, 33170",116094202,"R"
47116,"10759 W PRICKLY PEAR LANE","PEORIA","AZ",85383,33.719366377,-112.288145931,116,"10759 W PRICKLY PEAR LANE, PEORIA, AZ, 85383","Match","Non_Exact","10759 W PRICKLY PEAR TRL, PEORIA, AZ, 85383",639805143,"L"
47117,"1076 42ND STREET","DES MOINES","IA",50311,41.5981579150001,-93.67440369,117,"1076 42ND STREET, DES MOINES, IA, 50311","Match","Exact","1076 42ND ST, DES MOINES, IA, 50311",65780057,"L"
47118,"1076 ABERDEEN RD","INVERNESS","IL",60067,42.12257585,-88.07348925,118,"1076 ABERDEEN RD, INVERNESS, IL, 60067","Match","Exact","1076 ABERDEEN RD, INVERNESS, IL, 60067",111872763,"R"
47119,"1076 AILEEN ST","EMERYVILLE","CA",94608,37.839779386,-122.281559361,119,"1076 AILEEN ST, EMERYVILLE, CA, 94608","Match","Exact","1076 AILEEN ST, EMERYVILLE, CA, 94608",124994547,"R"
47120,"1076 ASPENWALD RD","SOUTH LAKE TAHOE","CA",96150,38.948475161,-119.949383798,120,"1076 ASPENWALD RD, SOUTH LAKE TAHOE, CA, 96150","Match","Exact","1076 ASPENWALD RD, SOUTH LAKE TAHOE, CA, 96150",133037630,"L"
47121,"1076 BETHANY PLACE","GREEN BAY","WI",54304,44.4978311720001,-88.069391384,121,"1076 BETHANY PLACE, GREEN BAY, WI, 54304","Match","Exact","1076 BETHANY PL, GREEN BAY, WI, 54304",148130555,"R"
47122,"1076 BINNING ROAD","MANSFIELD","LA",71052,NA,NA,122,"1076 BINNING ROAD, MANSFIELD, LA, 71052","No_Match",NA,NA,NA,NA
47123,"1076 BROWNSTONE DR","MARIETTA","GA",30008,33.9297771540001,-84.5604568959999,123,"1076 BROWNSTONE DR, MARIETTA, GA, 30008","Match","Exact","1076 BROWNSTONE DR, MARIETTA, GA, 30008",643455988,"R"
47124,"1076 CARLL DRIVE","BAY SHORE","NY",11706,40.7233071970001,-73.2816839019999,124,"1076 CARLL DRIVE, BAY SHORE, NY, 11706","Match","Exact","1076 CARLL DR, BAY SHORE, NY, 11706",113994599,"R"
47125,"1076 CAROL LANE APT 144","LAFAYETTE","CA",94549,37.894987461,-122.102696452,125,"1076 CAROL LANE APT 144, LAFAYETTE, CA, 94549","Match","Exact","1076 CAROL LN, LAFAYETTE, CA, 94549",607834717,"R"
47126,"1076 CAROL LANE","LAFAYETTE","CA",94549,37.894987461,-122.102696452,126,"1076 CAROL LANE, LAFAYETTE, CA, 94549","Match","Exact","1076 CAROL LN, LAFAYETTE, CA, 94549",607834717,"R"
47127,"1076 CAROL LN APT 141","LAFAYETTE","CA",94549,37.894987461,-122.102696452,127,"1076 CAROL LN APT 141, LAFAYETTE, CA, 94549","Match","Exact","1076 CAROL LN, LAFAYETTE, CA, 94549",607834717,"R"
47128,"1076 CHESS BROUSSARD ROAD","BREAUX BRIDGE","LA",70517,30.2733729550001,-91.951142271,128,"1076 CHESS BROUSSARD ROAD, BREAUX BRIDGE, LA, 70517","Match","Exact","1076 CHESS BROUSSARD RD, BREAUX BRIDGE, LA, 70517",85816477,"L"
47129,"1076 COVE HOLLOW DR","CEDAR HILL","TX",75104,32.5998919200001,-96.917730252,129,"1076 COVE HOLLOW DR, CEDAR HILL, TX, 75104","Match","Exact","1076 COVE HOLLOW DR, CEDAR HILL, TX, 75104",103264596,"L"
47130,"1076 CUMBERLAND VALLEY ROAD","GAINESVILLE","GA",30501,34.31904805,-83.822051652,130,"1076 CUMBERLAND VALLEY ROAD, GAINESVILLE, GA, 30501","Match","Exact","1076 CUMBERLAND VALLEY RD, GAINESVILLE, GA, 30501",98248787,"R"
47131,"1076 DEER TRAIL RD","DURANGO","CO",81303,37.269410657,-107.947374549,131,"1076 DEER TRAIL RD, DURANGO, CO, 81303","Match","Exact","1076 DEER TRAIL RD, DURANGO, CO, 81303",624754422,"R"
47132,"1076 DOUBLE SHOVEL ROAD","HERNANDO","MS",38632,34.8446127020001,-89.965212821,132,"1076 DOUBLE SHOVEL ROAD, HERNANDO, MS, 38632","Match","Non_Exact","1076 DOUBLE SHOVEL DR, HERNANDO, MS, 38632",91822035,"L"
47133,"1076 E KENTUCKY ST","LOUISVILLE","KY",40204,38.2355576740001,-85.73308979,133,"1076 E KENTUCKY ST, LOUISVILLE, KY, 40204","Match","Exact","1076 E KENTUCKY ST, LOUISVILLE, KY, 40204",618511694,"R"
47134,"1076 E WASHINGTON STREET","LOUISVILLE","KY",40206,38.255823886,-85.7311749949999,134,"1076 E WASHINGTON STREET, LOUISVILLE, KY, 40206","Match","Exact","1076 E WASHINGTON ST, LOUISVILLE, KY, 40206",636515194,"R"
47135,"1076 E WOODBURY ROAD","PASADENA","CA",91104,34.17715392,-118.128341863,135,"1076 E WOODBURY ROAD, PASADENA, CA, 91104","Match","Exact","1076 E WOODBURY RD, PASADENA, CA, 91104",141628445,"R"
47136,"1076 EAST 169TH STREET","CLEVELAND","OH",44110,41.578559064,-81.562008113,136,"1076 EAST 169TH STREET, CLEVELAND, OH, 44110","Match","Exact","1076 E 169TH ST, CLEVELAND, OH, 44110",61107743,"R"
47137,"1076 ELNO AVENUE","KENT","OH",44240,41.145628462,-81.382157303,137,"1076 ELNO AVENUE, KENT, OH, 44240","Match","Exact","1076 ELNO AVE, KENT, OH, 44240",137515537,"L"
47138,"1076 FRANKLIN AVE","ASTORIA","OR",97103,46.186972736,-123.832081584,138,"1076 FRANKLIN AVE, ASTORIA, OR, 97103","Match","Exact","1076 FRANKLIN AVE, ASTORIA, OR, 97103",159221559,"R"
47139,"1076 GRACE CT","NORTHVILLE","MI",48167,42.4439515980001,-83.482342748,139,"1076 GRACE CT, NORTHVILLE, MI, 48167","Match","Exact","1076 GRACE CT, NORTHVILLE, MI, 48167",69720018,"R"
47140,"1076 GRANDVIEW GARDENS COURT","ST LOUIS","MO",63033,38.7729884730001,-90.298295823,140,"1076 GRANDVIEW GARDENS COURT, ST LOUIS, MO, 63033","Match","Non_Exact","1076 GRANDVIEW GARDENS CT, FLORISSANT, MO, 63033",100145072,"R"
47141,"1076 HANCOCK MILL LANE","HEPHZIBAH","GA",30815,33.2678205650001,-82.015144062,141,"1076 HANCOCK MILL LANE, HEPHZIBAH, GA, 30815","Match","Exact","1076 HANCOCK MILL LN, HEPHZIBAH, GA, 30815",55656938,"L"
47142,"1076 HIGHWAY 107","QUITMAN","AR",72131,35.324129461,-92.227139651,142,"1076 HIGHWAY 107, QUITMAN, AR, 72131","Match","Non_Exact","1076 STATE HWY 107, QUITMAN, AR, 72131",141039463,"R"
47143,"1076 HOMESTEAD","YORKVILLE","IL",60560,41.6536170680001,-88.4268130849999,143,"1076 HOMESTEAD, YORKVILLE, IL, 60560","Match","Non_Exact","1076 HOMESTEAD DR, YORKVILLE, IL, 60560",54496711,"R"
47144,"1076 KAMEHAME DRIVE","HONOLULU","HI",96825,21.2978686970001,-157.68026608,144,"1076 KAMEHAME DRIVE, HONOLULU, HI, 96825","Match","Exact","1076 KAMEHAME DR, HONOLULU, HI, 96825",203333996,"L"
47145,"1076 KANAWHA LANE","LYNCHBURG","VA",24503,37.497859728,-79.247986172,145,"1076 KANAWHA LANE, LYNCHBURG, VA, 24503","Match","Exact","1076 KANAWHA LN, LYNCHBURG, VA, 24503",62674814,"L"
47146,"1076 LAKE VIEW LANE","EAGLE LAKE","TX",77434,29.580020914,-96.3457813379999,146,"1076 LAKE VIEW LANE, EAGLE LAKE, TX, 77434","Match","Non_Exact","1076 LAKEVIEW LN, EAGLE LAKE, TX, 77434",41199277,"R"
47147,"1076 LUXBORUGH","HENERSONVILLE","TN",37075,36.3789618970001,-86.600650425,147,"1076 LUXBORUGH, HENERSONVILLE, TN, 37075","Match","Non_Exact","1076 LUXBOROUGH DR, HENDERSONVILLE, TN, 37075",651843165,"R"
47148,"1076 MADISON ST","SHAKOPEE","MN",55379,44.7867397310001,-93.544270823,148,"1076 MADISON ST, SHAKOPEE, MN, 55379","Match","Non_Exact","1076 MADISON ST S, SHAKOPEE, MN, 55379",38140150,"R"
47149,"1076 MERRICK DRIVE  NO 2","RICHMOND","KY",40475,37.7533111750001,-84.277398822,149,"1076 MERRICK DRIVE  NO 2, RICHMOND, KY, 40475","Match","Non_Exact","1076 MERRICK DR, RICHMOND, KY, 40475",31998065,"L"
47150,"1076 MIDLAND RD","BAY CITY","MI",48706,43.6031424020001,-84.007890776,150,"1076 MIDLAND RD, BAY CITY, MI, 48706","Match","Exact","1076 MIDLAND RD, BAY CITY, MI, 48706",81151221,"R"
47151,"1076 N HEDGEROW DRIVE","ALLENTOWN","PA",18103,NA,NA,151,"1076 N HEDGEROW DRIVE, ALLENTOWN, PA, 18103","Tie",NA,NA,NA,NA
47152,"1076 NORTH ROAD","PARSONFIELD","ME",4047,43.7468818410001,-70.8928958559999,152,"1076 NORTH ROAD, PARSONFIELD, ME, 4047","Match","Non_Exact","1076 NORTH RD, PARSONSFIELD, ME, 04047",626998564,"R"
47153,"1076 PARKWOOD PLACE","JACKSON","MS",39206,32.35258079,-90.159296304,153,"1076 PARKWOOD PLACE, JACKSON, MS, 39206","Match","Exact","1076 PARKWOOD PL, JACKSON, MS, 39206",65373103,"L"
47154,"1076 PURDYTOWN TURNPIKE","LAKEVILLE","PA",18438,41.4488881730001,-75.2218606609999,154,"1076 PURDYTOWN TURNPIKE, LAKEVILLE, PA, 18438","Match","Exact","1076 PURDYTOWN TPKE, LAKEVILLE, PA, 18438",625320088,"L"
47155,"1076 RED BUD CIRCLE","ROCKLEDGE","FL",32955,28.304989747,-80.725453605,155,"1076 RED BUD CIRCLE, ROCKLEDGE, FL, 32955","Match","Exact","1076 RED BUD CIR, ROCKLEDGE, FL, 32955",93931480,"R"
47156,"1076 ROCK REST ROAD","PITTSBORO","NC",27312,35.808320613,-79.198761561,156,"1076 ROCK REST ROAD, PITTSBORO, NC, 27312","Match","Exact","1076 ROCK REST RD, PITTSBORO, NC, 27312",652104678,"R"
47157,"1076 ROSECRANS ST","SAN DIEGO","CA",92106,32.7211838420001,-117.232055156,157,"1076 ROSECRANS ST, SAN DIEGO, CA, 92106","Match","Exact","1076 ROSECRANS ST, SAN DIEGO, CA, 92106",195340420,"L"
47158,"1076 RUBICON","BOISE","ID",83716,NA,NA,158,"1076 RUBICON, BOISE, ID, 83716","No_Match",NA,NA,NA,NA
47159,"1076 S 600 W","WINAMAC","IN",46996,41.039576471,-86.7190124649999,159,"1076 S 600 W, WINAMAC, IN, 46996","Match","Exact","1076 S 600 W, WINAMAC, IN, 46996",15488263,"R"
47160,"1076 S STATE RD 19","PALATKA","FL",32177,NA,NA,160,"1076 S STATE RD 19, PALATKA, FL, 32177","No_Match",NA,NA,NA,NA
47161,"1076 SE 7TH AVE","HILLSBORO","OR",97123,45.5124994190001,-122.979200787,161,"1076 SE 7TH AVE, HILLSBORO, OR, 97123","Match","Exact","1076 SE 7TH AVE, HILLSBORO, OR, 97123",158179466,"L"
47162,"1076 SE CAMILLIA ST","DALLAS","OR",97338,44.9181029310001,-123.294312604,162,"1076 SE CAMILLIA ST, DALLAS, OR, 97338","Match","Non_Exact","1076 SE CAMELLIA ST, DALLAS, OR, 97338",155771731,"R"
47163,"1076 SYLVAN ADVENUE","CLEVELAND","OH",44107,41.4942766450001,-81.8038090869999,163,"1076 SYLVAN ADVENUE, CLEVELAND, OH, 44107","Match","Non_Exact","1076 SYLVAN AVE, CLEVELAND, OH, 44107",61100127,"R"
47164,"1076 THREE SPRINGS ROAD","MCGAHEYSVILE","VA",22840,38.357645744,-78.766701102,164,"1076 THREE SPRINGS ROAD, MCGAHEYSVILE, VA, 22840","Match","Non_Exact","1076 THREE SPRINGS RD, MCGAHEYSVILLE, VA, 22840",55747145,"L"
47165,"1076 UPCHURCH FARM LANE","CARY","NC",27519,35.7772453370001,-78.8559738119999,165,"1076 UPCHURCH FARM LANE, CARY, NC, 27519","Match","Exact","1076 UPCHURCH FARM LN, CARY, NC, 27519",634097200,"R"
47166,"1076 VT ROUTE 113","WEST FAIRLEE","VT",5083,43.9126784530001,-72.263128434,166,"1076 VT ROUTE 113, WEST FAIRLEE, VT, 5083","Match","Non_Exact","1076 STATE RTE 113, WEST FAIRLEE, VT, 05083",181135878,"R"
47167,"1076 VT RT 113","WEST FAIRLEE","VT",5083,43.9126784530001,-72.263128434,167,"1076 VT RT 113, WEST FAIRLEE, VT, 5083","Match","Non_Exact","1076 STATE RTE 113, WEST FAIRLEE, VT, 05083",181135878,"R"
47168,"1076 WAHL STREET","MILAN","TN",38358,NA,NA,168,"1076 WAHL STREET, MILAN, TN, 38358","No_Match",NA,NA,NA,NA
47169,"1076 WALBURK AVE","LAYTON","UT",84040,41.0752304760001,-111.944302795,169,"1076 WALBURK AVE, LAYTON, UT, 84040","Match","Exact","1076 WALBURK AVE, LAYTON, UT, 84040",155307161,"R"
47170,"1076 WEDDINGTON WOODS ST NW","CONCORD","NC",28027,35.400150658,-80.636203573,170,"1076 WEDDINGTON WOODS ST NW, CONCORD, NC, 28027","Match","Exact","1076 WEDDINGTON WOODS ST NW, CONCORD, NC, 28027",24912021,"R"
47171,"1076 WEST MARKET ST","SCHUYLKILL HAVEN","PA",17972,40.647632925,-76.135227054,171,"1076 WEST MARKET ST, SCHUYLKILL HAVEN, PA, 17972","Match","Exact","1076 W MARKET ST, SCHUYLKILL HAVEN, PA, 17972",645048429,"L"
47172,"1076 WINDSOR STREET","SAN JOSE","CA",95129,37.307529091,-122.027617021,172,"1076 WINDSOR STREET, SAN JOSE, CA, 95129","Match","Exact","1076 WINDSOR ST, SAN JOSE, CA, 95129",122940470,"L"
47173,"1076","LAKEVILLE","PA",18438,NA,NA,173,"1076, LAKEVILLE, PA, 18438","No_Match",NA,NA,NA,NA
47174,"10760 258TH AVENUE NW","ZIMMERMAN","MN",55398,45.439149102,-93.538990531,174,"10760 258TH AVENUE NW, ZIMMERMAN, MN, 55398","Match","Exact","10760 258TH AVE NW, ZIMMERMAN, MN, 55398",97775523,"R"
47175,"10760 AVEINDA SANTA ANNA","BOCA RATON","FL",33498,NA,NA,175,"10760 AVEINDA SANTA ANNA, BOCA RATON, FL, 33498","No_Match",NA,NA,NA,NA
47176,"10760 E LAKE JOY DR NE","CARNATION","WA",98014,47.6928297370001,-121.866586471,176,"10760 E LAKE JOY DR NE, CARNATION, WA, 98014","Match","Exact","10760 E LAKE JOY DR NE, CARNATION, WA, 98014",239777782,"R"
47177,"10760 E MERCER LANE","SCOTTSDALE","AZ",85259,33.585613876,-111.849060641,177,"10760 E MERCER LANE, SCOTTSDALE, AZ, 85259","Match","Exact","10760 E MERCER LN, SCOTTSDALE, AZ, 85259",128230497,"R"
47178,"10760 EUREKA ROAD","SPRING VALLEY","CA",91978,32.737694784,-116.962913782,178,"10760 EUREKA ROAD, SPRING VALLEY, CA, 91978","Match","Exact","10760 EUREKA RD, SPRING VALLEY, CA, 91978",629820319,"L"
47179,"10760 FREDERICK ROAD","ELLICOTT CITY","MD",21042,39.284769849,-76.88689017,179,"10760 FREDERICK ROAD, ELLICOTT CITY, MD, 21042","Match","Exact","10760 FREDERICK RD, ELLICOTT CITY, MD, 21042",158948267,"R"
47180,"10760 GETTYSBURG PLACE","CARMEL","IN",46032,39.9437828810001,-86.231919212,180,"10760 GETTYSBURG PLACE, CARMEL, IN, 46032","Match","Exact","10760 GETTYSBURG PL, CARMEL, IN, 46032",29316548,"R"
47181,"10760 HEAVENLY PLACE","NANJEMOY","MD",20662,38.4168555860001,-77.1853230529999,181,"10760 HEAVENLY PLACE, NANJEMOY, MD, 20662","Match","Exact","10760 HEAVENLY PL, NANJEMOY, MD, 20662",25411732,"R"
47182,"10760 LAWSONIA LINKS DR","JACKSONVILLE","FL",32222,30.23649685,-81.842091142,182,"10760 LAWSONIA LINKS DR, JACKSONVILLE, FL, 32222","Match","Exact","10760 LAWSONIA LINKS DR, JACKSONVILLE, FL, 32222",83961675,"R"
47183,"10760 NW 82ND AVENUE 10","DORAL","FL",33178,NA,NA,183,"10760 NW 82ND AVENUE 10, DORAL, FL, 33178","No_Match",NA,NA,NA,NA
47184,"10760 PICTORIAL PARK DR","TAMPA","FL",33647,28.163137428,-82.276733505,184,"10760 PICTORIAL PARK DR, TAMPA, FL, 33647","Match","Exact","10760 PICTORIAL PARK DR, TAMPA, FL, 33647",653185208,"R"
47185,"10760 SKIPWITH RD","CHASE CITY","VA",23924,36.7540782460001,-78.474256521,185,"10760 SKIPWITH RD, CHASE CITY, VA, 23924","Match","Exact","10760 SKIPWITH RD, CHASE CITY, VA, 23924",54297328,"R"
47186,"10760 THORNMINT ROAD","SAN DIEGO","CA",92127,33.017627465,-117.103364312,186,"10760 THORNMINT ROAD, SAN DIEGO, CA, 92127","Match","Exact","10760 THORNMINT RD, SAN DIEGO, CA, 92127",195666532,"L"
47187,"10760 WILLIAM","TAYLOR","MI",48180,42.228917734,-83.245640147,187,"10760 WILLIAM, TAYLOR, MI, 48180","Match","Non_Exact","10760 WILLIAM ST, TAYLOR, MI, 48180",95447348,"R"
47188,"10761 100TH AVE N","MAPLE GROVE","MN",55369,45.1357134190001,-93.417889816,188,"10761 100TH AVE N, MAPLE GROVE, MN, 55369","Match","Exact","10761 100TH AVE N, MAPLE GROVE, MN, 55369",43815880,"L"
47189,"10761 BLIX ST APT 106","TOLUCA LAKE","CA",91602,34.1566670130001,-118.365993409,189,"10761 BLIX ST APT 106, TOLUCA LAKE, CA, 91602","Match","Exact","10761 BLIX ST, TOLUCA LAKE, CA, 91602",642863974,"R"
47190,"10761 CHESTNUT C","LOS ALAMITOS","CA",90720,33.8063316510001,-118.073137607,190,"10761 CHESTNUT C, LOS ALAMITOS, CA, 90720","Match","Non_Exact","10761 CHESTNUT ST, LOS ALAMITOS, CA, 90720",143997462,"R"
47191,"10761 CHESTNUT STREET UNIT C","LOS ALAMITOS","CA",90720,33.8063316510001,-118.073137607,191,"10761 CHESTNUT STREET UNIT C, LOS ALAMITOS, CA, 90720","Match","Exact","10761 CHESTNUT ST, LOS ALAMITOS, CA, 90720",143997462,"R"
47192,"10761 GLENGATE CIRCLE","HIGHLANDS RANCH","CO",80130,39.519057651,-104.932823019,192,"10761 GLENGATE CIRCLE, HIGHLANDS RANCH, CO, 80130","Match","Exact","10761 GLENGATE CIR, HIGHLANDS RANCH, CO, 80130",631032248,"R"
47193,"10761 LANDSEER DR","ST LOUIS","MO",63136,38.7677102870001,-90.25774076,193,"10761 LANDSEER DR, ST LOUIS, MO, 63136","Match","Exact","10761 LANDSEER DR, SAINT LOUIS, MO, 63136",100148201,"L"
47194,"10761 PERKINS RD STE D","BATON ROUGE","LA",70810,30.3758978400001,-91.091484819,194,"10761 PERKINS RD STE D, BATON ROUGE, LA, 70810","Match","Exact","10761 PERKINS RD, BATON ROUGE, LA, 70810",92192894,"L"
47195,"10761 SW 28 ST","MIAMI","FL",33165,25.74316588,-80.368925018,195,"10761 SW 28 ST, MIAMI, FL, 33165","Match","Exact","10761 SW 28TH ST, MIAMI, FL, 33165",115971614,"R"
47196,"10762 BECKVILLE ROAD","NEVADA CITY","CA",95959,NA,NA,196,"10762 BECKVILLE ROAD, NEVADA CITY, CA, 95959","No_Match",NA,NA,NA,NA
47197,"10762 BENTBROOK DRIVE","VANCE","AL",35490,33.1657243980001,-87.228266404,197,"10762 BENTBROOK DRIVE, VANCE, AL, 35490","Match","Non_Exact","10762 BENT BROOK DR, VANCE, AL, 35490",82233884,"L"
47198,"10762 MCGREGOR DRIVE","COLUMBIA","MD",21044,39.198265344,-76.886410914,198,"10762 MCGREGOR DRIVE, COLUMBIA, MD, 21044","Match","Exact","10762 MCGREGOR DR, COLUMBIA, MD, 21044",619697766,"L"
47199,"10762 PICTORIAL PARK DR","TAMPA","FL",33647,28.163050614,-82.276767562,199,"10762 PICTORIAL PARK DR, TAMPA, FL, 33647","Match","Exact","10762 PICTORIAL PARK DR, TAMPA, FL, 33647",653185208,"R"
47200,"10762 THORNDALE ST","ADELANTO","CA",92301,34.515389557,-117.429036456,200,"10762 THORNDALE ST, ADELANTO, CA, 92301","Match","Exact","10762 THORNDALE ST, ADELANTO, CA, 92301",614831503,"L"
47201,"10762 TRINITY CHURCH RD","LISBON","OH",44432,40.7446063530001,-80.8459727919999,201,"10762 TRINITY CHURCH RD, LISBON, OH, 44432","Match","Exact","10762 TRINITY CHURCH RD, LISBON, OH, 44432",605074295,"R"
47202,"10763 GILKEY CREEK RD","OLA","AR",72853,34.989937926,-93.36046368,202,"10763 GILKEY CREEK RD, OLA, AR, 72853","Match","Exact","10763 GILKEY CREEK RD, OLA, AR, 72853",24322439,"L"
47203,"10763 W 2ND ST","AVONDALE","AZ",85323,33.4333205930001,-112.291057588,203,"10763 W 2ND ST, AVONDALE, AZ, 85323","Match","Exact","10763 W 2ND ST, AVONDALE, AZ, 85323",244018296,"R"
47204,"10764 BEAS DR","CONIFER","CO",80433,39.5217609920001,-105.359281589,204,"10764 BEAS DR, CONIFER, CO, 80433","Match","Exact","10764 BEAS DR, CONIFER, CO, 80433",177277588,"L"
47205,"10765 BANNER MINE WAY","NEVADA CITY","CA",95959,39.23333281,-121.010900613,205,"10765 BANNER MINE WAY, NEVADA CITY, CA, 95959","Match","Exact","10765 BANNER MINE WAY, NEVADA CITY, CA, 95959",106551299,"L"
47206,"10765 CLEARY BLVD APT 303","PLANTATION","FL",33324,26.1329261010001,-80.292690357,206,"10765 CLEARY BLVD APT 303, PLANTATION, FL, 33324","Match","Exact","10765 CLEARY BLVD, PLANTATION, FL, 33324",114795952,"R"
47207,"10765 COUNTY ROAD 34","LAMOURE","ND",58458,46.4422901570001,-98.172324972,207,"10765 COUNTY ROAD 34, LAMOURE, ND, 58458","Match","Exact","10765 CO RD 34, LAMOURE, ND, 58458",151623790,"L"
47208,"10765 MATTHEW DR","CHISAGO CITY","MN",55013,45.379660335,-92.886838263,208,"10765 MATTHEW DR, CHISAGO CITY, MN, 55013","Match","Exact","10765 MATTHEW DR, CHISAGO CITY, MN, 55013",97576615,"R"
47209,"10765 SCOTT AVE N","BROOKLYN PARK","MN",55443,45.149571071,-93.346564603,209,"10765 SCOTT AVE N, BROOKLYN PARK, MN, 55443","Match","Non_Exact","10765 SCOTT AVE, BROOKLYN PARK, MN, 55443",642906261,"R"
47210,"10765 SW PACINI WAY","PORT ST LUCIE","FL",34987,NA,NA,210,"10765 SW PACINI WAY, PORT ST LUCIE, FL, 34987","No_Match",NA,NA,NA,NA
47211,"10765 TU AVENUE","LAWTON","MI",49065,42.152810898,-85.7560984519999,211,"10765 TU AVENUE, LAWTON, MI, 49065","Match","Non_Exact","10765 W TU AVE, LAWTON, MI, 49065",653385571,"R"
47212,"10766 ANGELA DR","KIRTLAND","OH",44094,41.580082804,-81.3583390319999,212,"10766 ANGELA DR, KIRTLAND, OH, 44094","Match","Exact","10766 ANGELA DR, KIRTLAND, OH, 44094",137473984,"R"
47213,"10766 BIRCH DRIVE","JOPLIN","MO",64804,37.018464325,-94.44607045,213,"10766 BIRCH DRIVE, JOPLIN, MO, 64804","Match","Exact","10766 BIRCH DR, JOPLIN, MO, 64804",56006672,"L"
47214,"10766 COOK CT","NORTHGLENN","CO",80233,39.8916440840001,-104.94626992,214,"10766 COOK CT, NORTHGLENN, CO, 80233","Match","Exact","10766 COOK CT, NORTHGLENN, CO, 80233",177409696,"L"
47215,"10766 PREDDY AVE","KLAMATH FALLS","OR",97603,42.1276414450001,-121.751582267,215,"10766 PREDDY AVE, KLAMATH FALLS, OR, 97603","Match","Exact","10766 PREDDY AVE, KLAMATH FALLS, OR, 97603",156658105,"L"
47216,"10766 SAVANNAH WOOD COURT","ORLANDO","FL",32832,28.412858971,-81.223433351,216,"10766 SAVANNAH WOOD COURT, ORLANDO, FL, 32832","Match","Exact","10766 SAVANNAH WOOD CT, ORLANDO, FL, 32832",627984224,"L"
47217,"10766 SUNSET RIDGE LN","ORLANDO","FL",32832,NA,NA,217,"10766 SUNSET RIDGE LN, ORLANDO, FL, 32832","No_Match",NA,NA,NA,NA
47218,"10767 BRETTRIDGE RD","POWELL","OH",43065,40.1397764480001,-83.0829418759999,218,"10767 BRETTRIDGE RD, POWELL, OH, 43065","Match","Non_Exact","10767 BRETTRIDGE DR, POWELL, OH, 43065",24601274,"L"
47219,"10767 GRAVEL RD","BRANDY STATION","VA",22714,38.5544740510001,-77.943329886,219,"10767 GRAVEL RD, BRANDY STATION, VA, 22714","Match","Exact","10767 GRAVEL RD, BRANDY STATION, VA, 22714",29846560,"R"
47220,"10767 JAMACHA BLVD 140","SPRING VALLEY","CA",91978,NA,NA,220,"10767 JAMACHA BLVD 140, SPRING VALLEY, CA, 91978","No_Match",NA,NA,NA,NA
47221,"10767 MOUNTSHIRE CIRCLE","HIGHLANDS RANCH","CO",80126,39.5198218790001,-104.955184338,221,"10767 MOUNTSHIRE CIRCLE, HIGHLANDS RANCH, CO, 80126","Match","Exact","10767 MOUNTSHIRE CIR, HIGHLANDS RANCH, CO, 80126",130841840,"R"
47222,"10767 ND 40","NOONAN","ND",58765,NA,NA,222,"10767 ND 40, NOONAN, ND, 58765","No_Match",NA,NA,NA,NA
47223,"10767 OREGON AVENUE","CULVER CITY","CA",90232,34.0151959740001,-118.406047732,223,"10767 OREGON AVENUE, CULVER CITY, CA, 90232","Match","Exact","10767 OREGON AVE, CULVER CITY, CA, 90232",141574241,"R"
47224,"10767 OTTER DR","ST HELEN","MI",48656,44.371123772,-84.395539177,224,"10767 OTTER DR, ST HELEN, MI, 48656","Match","Exact","10767 OTTER DR, SAINT HELEN, MI, 48656",648995168,"R"
47225,"10767 S PEORIA STREET","CHICAGO","IL",60643,41.698190406,-87.644995991,225,"10767 S PEORIA STREET, CHICAGO, IL, 60643","Match","Exact","10767 S PEORIA ST, CHICAGO, IL, 60643",639818769,"L"
47226,"10767 SE OREGOLD CT","HAPPY VALLEY","OR",97086,45.444874111,-122.525178654,226,"10767 SE OREGOLD CT, HAPPY VALLEY, OR, 97086","Match","Exact","10767 SE OREGOLD CT, HAPPY VALLEY, OR, 97086",157947650,"R"
47227,"10767 WOODBINE ST NUM 328","LOS ANGELES","CA",90034,34.0252113650001,-118.414097943,227,"10767 WOODBINE ST NUM 328, LOS ANGELES, CA, 90034","Match","Exact","10767 WOODBINE ST, LOS ANGELES, CA, 90034",141573620,"R"
47228,"107676 ST HWY 11","DEER CREEK","OK",74636,36.8107274380001,-97.523709708,228,"107676 ST HWY 11, DEER CREEK, OK, 74636","Match","Non_Exact","107676 STATE HWY 11, DEER CREEK, OK, 74636",653409907,"R"
47229,"10768 106TH AVENUE NORTH","HANOVER","MN",55341,45.1495032970001,-93.6709862119999,229,"10768 106TH AVENUE NORTH, HANOVER, MN, 55341","Match","Exact","10768 106TH AVE N, HANOVER, MN, 55341",43676643,"L"
47230,"10768 251ST STREET","TULSA","OK",74421,35.7987063240001,-96.002179374,230,"10768 251ST STREET, TULSA, OK, 74421","Match","Non_Exact","10768 251ST ST, BEGGS, OK, 74421",639828999,"R"
47231,"10768 CROSBY RD","WOODBURN","OR",97071,45.165069352,-122.841433228,231,"10768 CROSBY RD, WOODBURN, OR, 97071","Match","Non_Exact","10768 CROSBY RD NE, WOODBURN, OR, 97071",649942924,"L"
47232,"10768 E GREENVILLE HWY","WELLFORD","SC",29385,34.938432053,-82.071369213,232,"10768 E GREENVILLE HWY, WELLFORD, SC, 29385","Match","Exact","10768 GREENVILLE HWY, WELLFORD, SC, 29385",19524353,"R"
47233,"10768 MCGREGOR","COLUMBIA","MD",21044,39.198257116,-76.8862993769999,233,"10768 MCGREGOR, COLUMBIA, MD, 21044","Match","Non_Exact","10768 MCGREGOR DR, COLUMBIA, MD, 21044",619697766,"L"
47234,"10768 PLUMMER CIRCLE","GULFPORT","MS",39503,30.4601488180001,-89.0221261299999,234,"10768 PLUMMER CIRCLE, GULFPORT, MS, 39503","Match","Exact","10768 PLUMMER CIR, GULFPORT, MS, 39503",111402559,"L"
47235,"10769 ALLENTOWN BLVD","JONESTOWN","PA",17038,40.413556876,-76.50952893,235,"10769 ALLENTOWN BLVD, JONESTOWN, PA, 17038","Match","Exact","10769 ALLENTOWN BLVD, JONESTOWN, PA, 17038",80666511,"R"
47236,"10769 GALAXIA PARK DR NW","ALBUQUERQUE","NM",87114,35.21093926,-106.664220113,236,"10769 GALAXIA PARK DR NW, ALBUQUERQUE, NM, 87114","Match","Exact","10769 GALAXIA PARK DR NW, ALBUQUERQUE, NM, 87114",206755600,"L"
47237,"10769 GLENGATE CIRCLE","HIGHLANDS RANCH","CO",80130,39.5189032700001,-104.932882341,237,"10769 GLENGATE CIRCLE, HIGHLANDS RANCH, CO, 80130","Match","Exact","10769 GLENGATE CIR, HIGHLANDS RANCH, CO, 80130",631032248,"R"
47238,"10769 N 1500W ROAD","MANTENO","IL",60950,41.2762459530001,-87.9068030239999,238,"10769 N 1500W ROAD, MANTENO, IL, 60950","Match","Exact","10769 N 1500W RD, MANTENO, IL, 60950",98347737,"R"
47239,"10769 N LONG LAKE ROAD","TRAVERSE CITY","MI",49685,44.7320844070001,-85.7946366959999,239,"10769 N LONG LAKE ROAD, TRAVERSE CITY, MI, 49685","Match","Exact","10769 N LONG LAKE RD, TRAVERSE CITY, MI, 49685",145543135,"R"
47240,"10769 N RIVINIA BLVD","MONTICELLO","IN",47960,40.7054263200001,-86.7503653059999,240,"10769 N RIVINIA BLVD, MONTICELLO, IN, 47960","Match","Non_Exact","10769 RAVINIA BLVD, MONTICELLO, IN, 47960",27046431,"L"
47241,"10769 N RIVINIA BLVE","MONTICELLO","IN",47960,40.7054355760001,-86.750365468,241,"10769 N RIVINIA BLVE, MONTICELLO, IN, 47960","Match","Non_Exact","10769 RAVINIA BLVD, MONTICELLO, IN, 47960",27046431,"L"
47242,"10769 TALLOW WOOD LANE","INDIANAPOLIS","IN",46236,39.881379714,-85.9775788759999,242,"10769 TALLOW WOOD LANE, INDIANAPOLIS, IN, 46236","Match","Exact","10769 TALLOW WOOD LN, INDIANAPOLIS, IN, 46236",624687387,"L"
47243,"10769 TALLOWOOD LANE","INDIANAPOLIS","IN",46236,NA,NA,243,"10769 TALLOWOOD LANE, INDIANAPOLIS, IN, 46236","No_Match",NA,NA,NA,NA
47244,"1077 15TH ST","SMITHSHIRE","IL",61478,40.7897576560001,-90.759657239,244,"1077 15TH ST, SMITHSHIRE, IL, 61478","Match","Exact","1077 15TH ST, SMITHSHIRE, IL, 61478",5504193,"R"
47245,"1077 18TH AVENUE","NEWARK","NJ",7108,NA,NA,245,"1077 18TH AVENUE, NEWARK, NJ, 7108","No_Match",NA,NA,NA,NA
47246,"1077 23RD STREET","DES MOINES","IA",50311,41.5975647550001,-93.648201323,246,"1077 23RD STREET, DES MOINES, IA, 50311","Match","Exact","1077 23RD ST, DES MOINES, IA, 50311",65780963,"R"
47247,"1077 30TH STREET NORTHWEST","WASHINGTON","DC",20007,38.903680557,-77.059120018,247,"1077 30TH STREET NORTHWEST, WASHINGTON, DC, 20007","Match","Exact","1077 30TH ST NW, WASHINGTON, DC, 20007",76225035,"R"
47248,"1077 30TH STREET NW","WASHINGTON","DC",20007,38.903680557,-77.059120018,248,"1077 30TH STREET NW, WASHINGTON, DC, 20007","Match","Exact","1077 30TH ST NW, WASHINGTON, DC, 20007",76225035,"R"
47249,"1077 ALASKA AVE","FAIRFIELD","CA",94533,38.272761852,-122.046548646,249,"1077 ALASKA AVE, FAIRFIELD, CA, 94533","Match","Exact","1077 ALASKA AVE, FAIRFIELD, CA, 94533",192579717,"L"
47250,"1077 ARBOR GROVE CT","CHESTERFIELD","MO",63005,NA,NA,250,"1077 ARBOR GROVE CT, CHESTERFIELD, MO, 63005","No_Match",NA,NA,NA,NA
47251,"1077 ARLINGTON AVE APT 2","PLAINFIELD","NJ",7060,40.6084176310001,-74.409641628,251,"1077 ARLINGTON AVE APT 2, PLAINFIELD, NJ, 7060","Match","Exact","1077 ARLINGTON AVE, PLAINFIELD, NJ, 07060",647624424,"L"
47252,"1077 ATLAMONT RD","GREENVILLE","SC",29609,NA,NA,252,"1077 ATLAMONT RD, GREENVILLE, SC, 29609","No_Match",NA,NA,NA,NA
47253,"1077 BAILEY CREEK ROAD","MILLERTON","PA",16936,41.89172288,-76.9946358609999,253,"1077 BAILEY CREEK ROAD, MILLERTON, PA, 16936","Match","Exact","1077 BAILEY CREEK RD, MILLERTON, PA, 16936",189675208,"L"
47254,"1077 BEACH BURR COURT","HENDERSON","NV",89002,35.994986904,-114.990371648,254,"1077 BEACH BURR COURT, HENDERSON, NV, 89002","Match","Exact","1077 BEACH BURR CT, HENDERSON, NV, 89002",612687067,"R"
47255,"1077 BEECH FOREST RD","KENBRIDGE","VA",23944,36.9331753370001,-78.1987976349999,255,"1077 BEECH FOREST RD, KENBRIDGE, VA, 23944","Match","Exact","1077 BEECH FOREST RD, KENBRIDGE, VA, 23944",54271112,"R"
47256,"1077 BELLE AVENUE","TEANECK","NJ",7666,40.8956931930001,-74.0159540449999,256,"1077 BELLE AVENUE, TEANECK, NJ, 7666","Match","Exact","1077 BELLE AVE, TEANECK, NJ, 07666",64388899,"R"
47257,"1077 BLAIR ROAD","SHIRLEY","AR",72153,35.701852178,-92.353921419,257,"1077 BLAIR ROAD, SHIRLEY, AR, 72153","Match","Exact","1077 BLAIR RD, SHIRLEY, AR, 72153",43404301,"L"
47258,"1077 BRITTANIA ROAD","STONE MOUNTAIN","GA",30083,33.763724702,-84.22717868,258,"1077 BRITTANIA ROAD, STONE MOUNTAIN, GA, 30083","Match","Exact","1077 BRITTANIA RD, STONE MOUNTAIN, GA, 30083",642434581,"L"
47259,"1077 CAROL RD","BOWLING GREEN","OH",43402,41.3685036050001,-83.669418773,259,"1077 CAROL RD, BOWLING GREEN, OH, 43402","Match","Exact","1077 CAROL RD, BOWLING GREEN, OH, 43402",38749651,"R"
47260,"1077 CASTLETON AVE","STATEN ISLAND","NY",10301,40.6344473930001,-74.118568381,260,"1077 CASTLETON AVE, STATEN ISLAND, NY, 10301","Match","Non_Exact","1077 CASTLETON AVE, STATEN ISLAND, NY, 10310",59878015,"R"
47261,"1077 COUNTY ROAD L","PANHANDLE","TX",79068,NA,NA,261,"1077 COUNTY ROAD L, PANHANDLE, TX, 79068","No_Match",NA,NA,NA,NA
47262,"1077 COURT AVE","HIGHLAND PARK","IL",60035,42.17839336,-87.807857912,262,"1077 COURT AVE, HIGHLAND PARK, IL, 60035","Match","Exact","1077 COURT AVE, HIGHLAND PARK, IL, 60035",119651622,"R"
47263,"1077 DEER RUN ROAD","CENTERVILLE","OH",45459,39.6375668750001,-84.137041498,263,"1077 DEER RUN ROAD, CENTERVILLE, OH, 45459","Match","Exact","1077 DEER RUN RD, CENTERVILLE, OH, 45459",143584427,"L"
47264,"1077 E 9TH AVE 201","BROOMFIELD","CO",80020,NA,NA,264,"1077 E 9TH AVE 201, BROOMFIELD, CO, 80020","No_Match",NA,NA,NA,NA
47265,"1077 E CREEK STREET","COVINGTON","LA",70435,30.5044584440001,-90.160078766,265,"1077 E CREEK STREET, COVINGTON, LA, 70435","Match","Non_Exact","1077 E CREEK CT, COVINGTON, LA, 70435",651181749,"L"
47266,"1077 E HOFFER ST","BANNING","CA",92220,33.934427541,-116.865017422,266,"1077 E HOFFER ST, BANNING, CA, 92220","Match","Exact","1077 E HOFFER ST, BANNING, CA, 92220",194688625,"L"
47267,"1077 EAST 59TH STREET 1ST FLOOR","BROOKLYN","NY",11234,40.6269964350001,-73.919057385,267,"1077 EAST 59TH STREET 1ST FLOOR, BROOKLYN, NY, 11234","Match","Exact","1077 E 59TH ST, BROOKLYN, NY, 11234",59086428,"L"
47268,"1077 EASTWAY DRIVE","YOUNGSTOWN","OH",44505,41.1173527720001,-80.582180551,268,"1077 EASTWAY DRIVE, YOUNGSTOWN, OH, 44505","Match","Exact","1077 EASTWAY DR, YOUNGSTOWN, OH, 44505",64600779,"L"
47269,"1077 GLEN REILLY DRIVE","FAYETTEVILLE","NC",28314,35.072489826,-79.01719072,269,"1077 GLEN REILLY DRIVE, FAYETTEVILLE, NC, 28314","Match","Non_Exact","1077 GLEN REILLY RD, FAYETTEVILLE, NC, 28314",64227779,"L"
47270,"1077 GREENLEAF BLVD 113","ELKHART","IN",46514,41.6946531240001,-85.959987984,270,"1077 GREENLEAF BLVD 113, ELKHART, IN, 46514","Match","Exact","1077 GREENLEAF BLVD, ELKHART, IN, 46514",620512031,"R"
47271,"1077 HARMONY WAY","NORMAL","IL",61761,NA,NA,271,"1077 HARMONY WAY, NORMAL, IL, 61761","No_Match",NA,NA,NA,NA
47272,"1077 HAWKSBILL LANE","SUGARLOAF KEY","FL",33042,24.672759899,-81.5347064489999,272,"1077 HAWKSBILL LANE, SUGARLOAF KEY, FL, 33042","Match","Exact","1077 HAWKSBILL LN, SUGARLOAF KEY, FL, 33042",116485925,"L"
47273,"1077 HUBBARD ST","DETROIT","MI",48209,42.316720036,-83.088340358,273,"1077 HUBBARD ST, DETROIT, MI, 48209","Match","Exact","1077 HUBBARD ST, DETROIT, MI, 48209",652801835,"L"
47274,"1077 LANA STREET","PASO ROBLES","CA",93446,35.620792769,-120.664041086,274,"1077 LANA STREET, PASO ROBLES, CA, 93446","Match","Exact","1077 LANA ST, PASO ROBLES, CA, 93446",109719155,"R"
47275,"1077 LARSON RD","MOSCOW","ID",83843,46.723557145,-116.863631708,275,"1077 LARSON RD, MOSCOW, ID, 83843","Match","Exact","1077 LARSON RD, MOSCOW, ID, 83843",193871328,"L"
47276,"1077 LAXTON STREET","ORLANDO","FL",32824,NA,NA,276,"1077 LAXTON STREET, ORLANDO, FL, 32824","No_Match",NA,NA,NA,NA
47277,"1077 LEXINGTON STREET","WALTHAM","MA",2452,42.411571484,-71.233572651,277,"1077 LEXINGTON STREET, WALTHAM, MA, 2452","Match","Exact","1077 LEXINGTON ST, WALTHAM, MA, 02452",86882603,"R"
47278,"1077 MAIL AVE","DEPTFORD","NJ",8096,39.8057218600001,-75.14408094,278,"1077 MAIL AVE, DEPTFORD, NJ, 8096","Match","Exact","1077 MAIL AVE, DEPTFORD, NJ, 08096",639690159,"R"
47279,"1077 MANHATTAN AVE  APT 6","BROOKLYN","NY",11222,40.7354890180001,-73.9551331339999,279,"1077 MANHATTAN AVE  APT 6, BROOKLYN, NY, 11222","Match","Exact","1077 MANHATTAN AVE, BROOKLYN, NY, 11222",59076244,"L"
47280,"1077 MARION AVE NW","MASSILLON","OH",44646,40.809578737,-81.47077459,280,"1077 MARION AVE NW, MASSILLON, OH, 44646","Match","Exact","1077 MARION AVE NW, MASSILLON, OH, 44646",64672920,"L"
47281,"1077 MEADOWCREST  ST","NEWBURY PARK","CA",91320,34.1593746660001,-118.951418933,281,"1077 MEADOWCREST  ST, NEWBURY PARK, CA, 91320","Match","Exact","1077 MEADOWCREST ST, NEWBURY PARK, CA, 91320",645457886,"R"
47282,"1077 MEMORY LANE","HARRISBURG","PA",17111,40.244281405,-76.829378573,282,"1077 MEMORY LANE, HARRISBURG, PA, 17111","Match","Exact","1077 MEMORY LN, HARRISBURG, PA, 17111",70845028,"R"
47283,"1077 NICHOLAS AVENUE","UNION","NJ",7083,40.706911092,-74.294257866,283,"1077 NICHOLAS AVENUE, UNION, NJ, 7083","Match","Exact","1077 NICHOLAS AVE, UNION, NJ, 07083",60569061,"R"
47284,"1077 NORTH AVE STE 210","ELIZABETH","NJ",7201,40.6792099510001,-74.2014642139999,284,"1077 NORTH AVE STE 210, ELIZABETH, NJ, 7201","Match","Exact","1077 NORTH AVE, ELIZABETH, NJ, 07201",60578643,"R"
47285,"1077 NORTH MANCHESTER ST","ARLINGTON","VA",22205,38.8801794880001,-77.1437522149999,285,"1077 NORTH MANCHESTER ST, ARLINGTON, VA, 22205","Match","Exact","1077 N MANCHESTER ST, ARLINGTON, VA, 22205",76467405,"R"
47286,"1077 OVERLOOK ROAD","MENDOTA HEIGHTS","MN",55118,44.8921663200001,-93.145246212,286,"1077 OVERLOOK ROAD, MENDOTA HEIGHTS, MN, 55118","Match","Exact","1077 OVERLOOK RD, MENDOTA HEIGHTS, MN, 55118",37924209,"R"
47287,"1077 PACIFIC COAST HWY","SEAL BEACH","CA",90740,NA,NA,287,"1077 PACIFIC COAST HWY, SEAL BEACH, CA, 90740","No_Match",NA,NA,NA,NA
47288,"1077 PARADISE DR","LEMOORE","CA",93245,36.2796033180001,-119.782365737,288,"1077 PARADISE DR, LEMOORE, CA, 93245","Match","Exact","1077 PARADISE DR, LEMOORE, CA, 93245",627867589,"R"
47289,"1077 RAILROAD STREET NW","CONYERS","GA",30012,33.6700116480001,-84.023109585,289,"1077 RAILROAD STREET NW, CONYERS, GA, 30012","Match","Exact","1077 RAILROAD ST NW, CONYERS, GA, 30012",23740655,"R"
47290,"1077 RUSSWIN STREET","CLARKSDALE","MS",38614,34.1956924880001,-90.6011014539999,290,"1077 RUSSWIN STREET, CLARKSDALE, MS, 38614","Match","Exact","1077 RUSSWIN ST, CLARKSDALE, MS, 38614",963088,"R"
47291,"1077 S GIRAFFE RD","PRESTON","ID",83263,42.079342395,-111.783233439,291,"1077 S GIRAFFE RD, PRESTON, ID, 83263","Match","Exact","1077 S GIRAFFE RD, PRESTON, ID, 83263",167520617,"R"
47292,"1077 SANDY SPRING RD","HUNTSVILLE","AL",35806,34.74555193,-86.6666646049999,292,"1077 SANDY SPRING RD, HUNTSVILLE, AL, 35806","Match","Non_Exact","1077 SANDY SPRINGS RD NW, HUNTSVILLE, AL, 35806",58153135,"R"
47293,"1077 SE BAYWOOD","BEND","OR",97702,44.039656716,-121.276182506,293,"1077 SE BAYWOOD, BEND, OR, 97702","Match","Non_Exact","1077 SE BAYWOOD CT, BEND, OR, 97702",152556703,"L"
47294,"1077 SHADY COVE LANE","SPRING BRANCH","TX",78070,29.855264531,-98.449316836,294,"1077 SHADY COVE LANE, SPRING BRANCH, TX, 78070","Match","Exact","1077 SHADY COVE LN, SPRING BRANCH, TX, 78070",72281872,"R"
47295,"1077 SHERWOOD ST SE","HUTCHINSON","MN",55350,44.876331485,-94.367335198,295,"1077 SHERWOOD ST SE, HUTCHINSON, MN, 55350","Match","Exact","1077 SHERWOOD ST SE, HUTCHINSON, MN, 55350",36810904,"R"
47296,"1077 SILAS DEANE HIGHWAY PMB 131","WETHERSFIELD","CT",6109,41.6915615240001,-72.656062762,296,"1077 SILAS DEANE HIGHWAY PMB 131, WETHERSFIELD, CT, 6109","Match","Exact","1077 SILAS DEANE HWY, WETHERSFIELD, CT, 06109",3517408,"R"
47297,"1077 SIMS RIDGE RD","KINGS MOUNTAIN","KY",40442,37.324243933,-84.705881537,297,"1077 SIMS RIDGE RD, KINGS MOUNTAIN, KY, 40442","Match","Exact","1077 SIMS RIDGE RD, KINGS MOUNTAIN, KY, 40442",637683439,"R"
47298,"1077 SW 1ST STREET","PAOLI","IN",47454,38.542125825,-86.466446983,298,"1077 SW 1ST STREET, PAOLI, IN, 47454","Match","Exact","1077 SW 1ST ST, PAOLI, IN, 47454",32142900,"L"
47299,"1077 TAHOE TRL","FLINT","MI",48532,43.0185652710001,-83.767509778,299,"1077 TAHOE TRL, FLINT, MI, 48532","Match","Exact","1077 TAHOE TRL, FLINT, MI, 48532",69612410,"L"
47300,"1077 TOMMY MUNRO DRIVE","BILOXI","MS",39532,NA,NA,300,"1077 TOMMY MUNRO DRIVE, BILOXI, MS, 39532","No_Match",NA,NA,NA,NA
47301,"1077 UNITY CHURCH RD","SUMMERVILLE","GA",30747,34.446083163,-85.264594996,301,"1077 UNITY CHURCH RD, SUMMERVILLE, GA, 30747","Match","Exact","1077 UNITY CHURCH RD, SUMMERVILLE, GA, 30747",82030655,"R"
47302,"1077 VERMONT","CANON CITY","CO",81212,38.471403373,-105.239512745,302,"1077 VERMONT, CANON CITY, CO, 81212","Match","Non_Exact","1077 VERMONT AVE, CANON CITY, CO, 81212",612603869,"L"
47303,"1077 VIA DELLA COSTRELLA","HENDERSON","NV",89011,36.0817444460001,-114.975480699,303,"1077 VIA DELLA COSTRELLA, HENDERSON, NV, 89011","Match","Exact","1077 VIA DELLA COSTRELLA, HENDERSON, NV, 89011",650632289,"R"
47304,"1077 WALKER ROAD","SALTSBURG","PA",15681,40.4967368960001,-79.526669426,304,"1077 WALKER ROAD, SALTSBURG, PA, 15681","Match","Exact","1077 WALKER RD, SALTSBURG, PA, 15681",52971413,"L"
47305,"1077 WEATHERSFIELD DRIVE","DUNEDIN","FL",34698,28.01515347,-82.758663981,305,"1077 WEATHERSFIELD DRIVE, DUNEDIN, FL, 34698","Match","Exact","1077 WEATHERSFIELD DR, DUNEDIN, FL, 34698",636393104,"L"
47306,"1077 WEST 125 NORTH","SPRINGVILLE","UT",84663,40.1686716300001,-111.629634773,306,"1077 WEST 125 NORTH, SPRINGVILLE, UT, 84663","Match","Exact","1077 W 125 N, SPRINGVILLE, UT, 84663",617493535,"L"
47307,"1077 WILSHIRE BLVD","STEVENS POINT","WI",54481,44.525478563,-89.549987186,307,"1077 WILSHIRE BLVD, STEVENS POINT, WI, 54481","Match","Exact","1077 WILSHIRE BLVD, STEVENS POINT, WI, 54481",126796565,"R"
47308,"10770 ANDERS BLVD APT 302","JACKSONVILLE","FL",32246,30.2781869620001,-81.538773818,308,"10770 ANDERS BLVD APT 302, JACKSONVILLE, FL, 32246","Match","Exact","10770 ANDERS BLVD, JACKSONVILLE, FL, 32246",635619994,"R"
47309,"10770 BARELY LANE STE 1301","HOUSTON","TX",77070,29.9415215130001,-95.580961816,309,"10770 BARELY LANE STE 1301, HOUSTON, TX, 77070","Match","Exact","10770 BARELY LN, HOUSTON, TX, 77070",233451293,"L"
47310,"10770 BARELY LN APT 120","HOUSTON","TX",77070,29.9415215130001,-95.580961816,310,"10770 BARELY LN APT 120, HOUSTON, TX, 77070","Match","Exact","10770 BARELY LN, HOUSTON, TX, 77070",233451293,"L"
47311,"10770 BIRCH RANCH DR","SACRAMENTO","CA",95830,38.4821292830001,-121.295892173,311,"10770 BIRCH RANCH DR, SACRAMENTO, CA, 95830","Match","Exact","10770 BIRCH RANCH DR, SACRAMENTO, CA, 95830",133390666,"R"
47312,"10770 BUECHE RD","BUECHE","LA",70729,NA,NA,312,"10770 BUECHE RD, BUECHE, LA, 70729","No_Match",NA,NA,NA,NA
47313,"10770 COLUMBIA PIKE STE 400","SILVER SPRING","MD",20901,39.0327251960001,-77.003504574,313,"10770 COLUMBIA PIKE STE 400, SILVER SPRING, MD, 20901","Match","Exact","10770 COLUMBIA PIKE, SILVER SPRING, MD, 20901",642722739,"L"
47314,"10770 COLUMBIA PIKE SUITE 300-W-4","SILVER SPRING","MD",20901,39.0327251960001,-77.003504574,314,"10770 COLUMBIA PIKE SUITE 300-W-4, SILVER SPRING, MD, 20901","Match","Exact","10770 COLUMBIA PIKE, SILVER SPRING, MD, 20901",642722739,"L"
47315,"10770 E BILBY RD","TUCSON","AZ",85747,32.140899835,-110.762033625,315,"10770 E BILBY RD, TUCSON, AZ, 85747","Match","Exact","10770 E BILBY RD, TUCSON, AZ, 85747",646392113,"L"
47316,"10770 FALL CT NW","BEMIDJI","MN",56601,47.5736899460001,-94.905229501,316,"10770 FALL CT NW, BEMIDJI, MN, 56601","Match","Exact","10770 FALL CT NW, BEMIDJI, MN, 56601",624488843,"L"
47317,"10770 FREDERICK ROAD","ELLICOTT CITY","MD",21042,39.284812919,-76.887061762,317,"10770 FREDERICK ROAD, ELLICOTT CITY, MD, 21042","Match","Exact","10770 FREDERICK RD, ELLICOTT CITY, MD, 21042",158948267,"R"
47318,"10770 HIGH RD","HERNANDO","MS",38632,34.8068306640001,-90.1805428,318,"10770 HIGH RD, HERNANDO, MS, 38632","Match","Exact","10770 HIGH RD, HERNANDO, MS, 38632",91819269,"L"
47319,"10770 JAMANCHA BLVD  67","SPRING VALLEY","CA",91978,NA,NA,319,"10770 JAMANCHA BLVD  67, SPRING VALLEY, CA, 91978","No_Match",NA,NA,NA,NA
47320,"10770 NW 66TH STREET  APT 109","DORAL","FL",33178,25.8332736690001,-80.3821282339999,320,"10770 NW 66TH STREET  APT 109, DORAL, FL, 33178","Match","Non_Exact","10770 NW 66TH ST, DORAL, FL, 33178",116087904,"L"
47321,"10770 OXLEY RD","ATHENS","OH",45701,39.2785881980001,-82.096936187,321,"10770 OXLEY RD, ATHENS, OH, 45701","Match","Exact","10770 OXLEY RD, ATHENS, OH, 45701",636786455,"L"
47322,"10770 S BIRD LAKE RD","OSSEO","MI",49266,41.770963943,-84.534212987,322,"10770 S BIRD LAKE RD, OSSEO, MI, 49266","Match","Non_Exact","10770 BIRD LAKE RD S, OSSEO, MI, 49266",8295265,"L"
47323,"10770 SATINWOOD","ORLANDO","FL",32825,28.5225631170001,-81.228271729,323,"10770 SATINWOOD, ORLANDO, FL, 32825","Match","Non_Exact","10770 SATINWOOD CIR, ORLANDO, FL, 32825",647518523,"L"
47324,"10770 WEST OLD CUTLER RD","MIAMI","FL",33170,25.559955594,-80.365828629,324,"10770 WEST OLD CUTLER RD, MIAMI, FL, 33170","Match","Exact","10770 W OLD CUTLER RD, MIAMI, FL, 33170",115995184,"L"
47325,"10771 CARMEL GLEN TRAIL UNIT 49","SAN DIEGO","CA",92130,32.930247181,-117.199355247,325,"10771 CARMEL GLEN TRAIL UNIT 49, SAN DIEGO, CA, 92130","Match","Exact","10771 CARMEL GLN, SAN DIEGO, CA, 92130",645308626,"L"
47326,"10771 KEATHLY DR","FRISCO","TX",75035,33.1869631000001,-96.786872981,326,"10771 KEATHLY DR, FRISCO, TX, 75035","Match","Non_Exact","10771 KEATHLEY DR, FRISCO, TX, 75035",615050339,"R"
47327,"10771 KITCHENER COURT","BOWIE","MD",20721,38.903075325,-76.822326339,327,"10771 KITCHENER COURT, BOWIE, MD, 20721","Match","Exact","10771 KITCHENER CT, BOWIE, MD, 20721",76342302,"L"
47328,"10771 OLD COX PIKE","BON AQUA","TN",37025,35.942016279,-87.210546483,328,"10771 OLD COX PIKE, BON AQUA, TN, 37025","Match","Exact","10771 OLD COX PIKE, BON AQUA, TN, 37025",607070991,"L"
47329,"10771 ORCHID CACTUS LN","TUCSON","AZ",85747,32.143333168,-110.762759526,329,"10771 ORCHID CACTUS LN, TUCSON, AZ, 85747","Match","Non_Exact","10771 E ORCHID CACTUS LN, TUCSON, AZ, 85747",624581209,"L"
47330,"10771 RD 7 NE","MOSES LAKE","WA",98837,47.189670542,-119.261302726,330,"10771 RD 7 NE, MOSES LAKE, WA, 98837","Match","Exact","10771 RD 7 NE, MOSES LAKE, WA, 98837",157089480,"L"
47331,"10771 ROCK POINT DR","JENNER","CA",95450,38.452100182,-123.119440857,331,"10771 ROCK POINT DR, JENNER, CA, 95450","Match","Exact","10771 ROCK POINT DR, JENNER, CA, 95450",67522006,"L"
47332,"10771 SHEDDEN","LOMA LINDA","CA",92354,34.0581518020001,-117.248948883,332,"10771 SHEDDEN, LOMA LINDA, CA, 92354","Match","Non_Exact","10771 SHEDDEN ST, LOMA LINDA, CA, 92354",650277878,"L"
47333,"10771 SW 173RD STREET","MIAMI","FL",33157,25.608743175,-80.366787473,333,"10771 SW 173RD STREET, MIAMI, FL, 33157","Match","Non_Exact","10771 SW 173RD ST, MIAMI, FL, 33157",115982720,"R"
47334,"107716 SOUTH 4540 ROAD","VIAN","OK",74962,35.4619338960001,-94.938001631,334,"107716 SOUTH 4540 ROAD, VIAN, OK, 74962","Match","Exact","107716 S 4540 RD, VIAN, OK, 74962",650851489,"L"
47335,"10771A ROSE STREET","STANTON","CA",90680,33.805809519,-117.995410948,335,"10771A ROSE STREET, STANTON, CA, 90680","Match","Exact","10771 ROSE ST, STANTON, CA, 90680",144011234,"R"
47336,"10772 9TH AVE","HANFORD","CA",93230,36.3168827470001,-119.618946894,336,"10772 9TH AVE, HANFORD, CA, 93230","Match","Exact","10772 9TH AVE, HANFORD, CA, 93230",197982467,"L"
47337,"10772 BRIAR STONE LANE","FISHERS","IN",46038,39.946409342,-86.026874446,337,"10772 BRIAR STONE LANE, FISHERS, IN, 46038","Match","Exact","10772 BRIAR STONE LN, FISHERS, IN, 46038",29306130,"L"
47338,"10772 CARIUTO CT","SAN DIEGO","CA",92124,32.824336707,-117.097511113,338,"10772 CARIUTO CT, SAN DIEGO, CA, 92124","Match","Exact","10772 CARIUTO CT, SAN DIEGO, CA, 92124",612875283,"L"
47339,"10772 COURTNEY LN","POULSBO","WA",98370,47.661011,-122.62599941,339,"10772 COURTNEY LN, POULSBO, WA, 98370","Match","Non_Exact","10772 COURTNEY LN NE, POULSBO, WA, 98370",187671561,"L"
47340,"10772 KING ROAD","PLYMOUTH","IN",46563,41.320967395,-86.2610769139999,340,"10772 KING ROAD, PLYMOUTH, IN, 46563","Match","Exact","10772 KING RD, PLYMOUTH, IN, 46563",7649805,"R"
47341,"10772 MANCHESTER PARK","LAS VEGAS","NV",89141,35.9937671060001,-115.190360408,341,"10772 MANCHESTER PARK, LAS VEGAS, NV, 89141","Match","Non_Exact","10772 MANCHESTER PARK DR, LAS VEGAS, NV, 89141",201998124,"L"
47342,"10772 NORTH JACKSON HWY","MAGNOLIA","KY",42757,37.3968339900001,-85.7633275589999,342,"10772 NORTH JACKSON HWY, MAGNOLIA, KY, 42757","Match","Exact","10772 N JACKSON HWY, MAGNOLIA, KY, 42757",635468872,"R"
47343,"10772 NORTHERN DANCER DRIVE","INDIANAPOLIS","IN",46234,39.799327734,-86.331109091,343,"10772 NORTHERN DANCER DRIVE, INDIANAPOLIS, IN, 46234","Match","Exact","10772 NORTHERN DANCER DR, INDIANAPOLIS, IN, 46234",89225674,"L"
47344,"10772 PINE ROAD","CONNEAUT LAKE","PA",16316,41.6118708810001,-80.2515155729999,344,"10772 PINE ROAD, CONNEAUT LAKE, PA, 16316","Match","Exact","10772 PINE RD, CONNEAUT LAKE, PA, 16316",98588615,"R"
47345,"10772 RHODE ISLAND AVE","BELTSVILLE","MD",20705,39.032695135,-76.9138867629999,345,"10772 RHODE ISLAND AVE, BELTSVILLE, MD, 20705","Match","Exact","10772 RHODE ISLAND AVE, BELTSVILLE, MD, 20705",76402834,"L"
47346,"10773 BARBERRY DRIVE","HAMPTON","GA",30228,33.4676855380001,-84.347048665,346,"10773 BARBERRY DRIVE, HAMPTON, GA, 30228","Match","Exact","10773 BARBERRY DR, HAMPTON, GA, 30228",23328125,"R"
47347,"10773 CLEARY BLVD","PLANTATION","FL",33324,26.132927087,-80.292826826,347,"10773 CLEARY BLVD, PLANTATION, FL, 33324","Match","Exact","10773 CLEARY BLVD, PLANTATION, FL, 33324",114795952,"R"
47348,"10773 CR 701","KIRBYVILLE","TX",75956,30.5485889390001,-94.030004766,348,"10773 CR 701, KIRBYVILLE, TX, 75956","Match","Exact","10773 CO RD 701, KIRBYVILLE, TX, 75956",32400638,"R"
47349,"10773 LOOP DRIVE","SODDY DAISY","TN",37379,35.26944496,-85.172118685,349,"10773 LOOP DRIVE, SODDY DAISY, TN, 37379","Match","Non_Exact","10773 LOOP RD, SODDY DAISY, TN, 37379",59342213,"L"
47350,"10773 LOOP RD","SODDY DAISY","TN",37379,35.26944496,-85.172118685,350,"10773 LOOP RD, SODDY DAISY, TN, 37379","Match","Exact","10773 LOOP RD, SODDY DAISY, TN, 37379",59342213,"L"
47351,"10773 NW 58TH STREET SUITE 139","MIAMI","FL",33178,25.826192571,-80.367634241,351,"10773 NW 58TH STREET SUITE 139, MIAMI, FL, 33178","Match","Non_Exact","10773 NW 58TH ST, MIAMI, FL, 33178",648148242,"R"
47352,"10773 PASADENA ROAD","CARBONDALE","IL",62901,37.7501545860001,-89.148580688,352,"10773 PASADENA ROAD, CARBONDALE, IL, 62901","Match","Exact","10773 PASADENA RD, CARBONDALE, IL, 62901",6006182,"L"
47353,"10773 STONERIDGE DRIVE","SHERWOOD","AR",72120,34.8516874750001,-92.230736862,353,"10773 STONERIDGE DRIVE, SHERWOOD, AR, 72120","Match","Exact","10773 STONERIDGE DR, SHERWOOD, AR, 72120",83546729,"L"
47354,"10773 WHISPER WOODS COVE","COLLIERVILLE","TN",38017,35.024634565,-89.703414585,354,"10773 WHISPER WOODS COVE, COLLIERVILLE, TN, 38017","Match","Non_Exact","10773 WHISPERWOODS COVE, COLLIERVILLE, TN, 38017",607503839,"L"
47355,"10773 WHISPERWOODS COVE","COLLIERVILLE","TN",38017,35.024634565,-89.703414585,355,"10773 WHISPERWOODS COVE, COLLIERVILLE, TN, 38017","Match","Exact","10773 WHISPERWOODS COVE, COLLIERVILLE, TN, 38017",607503839,"L"
47356,"107736 US HWY 89","ETNA","WY",83118,43.0300149400001,-111.012177569,356,"107736 US HWY 89, ETNA, WY, 83118","Match","Exact","107736 US HWY 89, ETNA, WY, 83118",625209984,"R"
47357,"10774 E MAPLE AVENUE","CLAREMORE","OK",74019,36.2766185890001,-95.63588872,357,"10774 E MAPLE AVENUE, CLAREMORE, OK, 74019","Match","Non_Exact","10774 MAPLE, CLAREMORE, OK, 74019",20682036,"L"
47358,"10774 ESSEX HALL DR","CHARLOTTE","NC",28277,35.0255976490001,-80.834268332,358,"10774 ESSEX HALL DR, CHARLOTTE, NC, 28277","Match","Exact","10774 ESSEX HALL DR, CHARLOTTE, NC, 28277",70552677,"L"
47359,"10774 MUSCARI WAY","LAS VEGAS","NV",89141,35.9943626730001,-115.195923003,359,"10774 MUSCARI WAY, LAS VEGAS, NV, 89141","Match","Exact","10774 MUSCARI WAY, LAS VEGAS, NV, 89141",201998553,"L"
47360,"10774 S HWY 261","FALLS OF ROUGH","KY",40119,37.6899243140001,-86.5889058929999,360,"10774 S HWY 261, FALLS OF ROUGH, KY, 40119","Match","Non_Exact","10774 STATE HWY 261, FALLS OF ROUGH, KY, 40119",8025219,"L"
47361,"10774 SOURWOOD AVENUE","WALDORF","MD",20603,NA,NA,361,"10774 SOURWOOD AVENUE, WALDORF, MD, 20603","No_Match",NA,NA,NA,NA
47362,"10775 AVIAN DRIVE","ALPHARETTA","GA",30022,34.0389063320001,-84.225757987,362,"10775 AVIAN DRIVE, ALPHARETTA, GA, 30022","Match","Exact","10775 AVIAN DR, ALPHARETTA, GA, 30022",17419491,"L"
47363,"10775 BABCOCK BLVD","GIBSONIA","PA",15044,40.624856558,-80.001157184,363,"10775 BABCOCK BLVD, GIBSONIA, PA, 15044","Match","Exact","10775 BABCOCK BLVD, GIBSONIA, PA, 15044",636374631,"L"
47364,"10775 E MONUMENT DRIVE","SCOTTSDALE","AZ",85262,NA,NA,364,"10775 E MONUMENT DRIVE, SCOTTSDALE, AZ, 85262","Tie",NA,NA,NA,NA
47365,"10775 E VIRGINIA AVE APT 75R","AURORA","CO",80012,39.70745391,-104.862689438,365,"10775 E VIRGINIA AVE APT 75R, AURORA, CO, 80012","Match","Non_Exact","10775 E VIRGINIA AVE, AURORA, CO, 80012",611399300,"L"
47366,"10775 FOLKESTONE WAY","WOODSTOCK","MD",21163,39.3108939680001,-76.880391426,366,"10775 FOLKESTONE WAY, WOODSTOCK, MD, 21163","Match","Exact","10775 FOLKESTONE WAY, WOODSTOCK, MD, 21163",158942963,"L"
47367,"10775 KELLI DR","TYLER","TX",75703,32.293365904,-95.3457605689999,367,"10775 KELLI DR, TYLER, TX, 75703","Match","Exact","10775 KELLI DR, TYLER, TX, 75703",141269024,"L"
47368,"10775 KIMBRO AVE CT NO","STILLWATER","MN",55082,45.1051408370001,-92.892571093,368,"10775 KIMBRO AVE CT NO, STILLWATER, MN, 55082","Match","Exact","10775 KIMBRO AVENUE CT N, STILLWATER, MN, 55082",638114591,"R"
47369,"10775 KNOB RD","MERCERSBURG","PA",17236,39.72946266,-77.900366268,369,"10775 KNOB RD, MERCERSBURG, PA, 17236","Match","Exact","10775 KNOB RD, MERCERSBURG, PA, 17236",605534180,"L"
47370,"10775 LONGFELLOW TRACE","SHREVEPORT","LA",71106,32.3464753270001,-93.7209031949999,370,"10775 LONGFELLOW TRACE, SHREVEPORT, LA, 71106","Match","Exact","10775 LONGFELLOW TRCE, SHREVEPORT, LA, 71106",57468888,"R"
47371,"10775 MENTZER GAP ROAD","WAYNESBORO","PA",17268,39.7659718100001,-77.5252805699999,371,"10775 MENTZER GAP ROAD, WAYNESBORO, PA, 17268","Match","Exact","10775 MENTZER GAP RD, WAYNESBORO, PA, 17268",60090475,"R"
47372,"10775 N ST HELEN RD","ROSCOMMON","MI",48653,44.4958749530001,-84.410828623,372,"10775 N ST HELEN RD, ROSCOMMON, MI, 48653","Match","Exact","10775 ST HELEN RD, ROSCOMMON, MI, 48653",179440238,"L"
47373,"10775 N ST HELEN ROAD","ROSCOMMON","MI",48653,44.4958749530001,-84.410828623,373,"10775 N ST HELEN ROAD, ROSCOMMON, MI, 48653","Match","Exact","10775 ST HELEN RD, ROSCOMMON, MI, 48653",179440238,"L"
47374,"10775 RIDGE RIM TRL SE","PORT ORCHARD","WA",98367,47.452469534,-122.644940975,374,"10775 RIDGE RIM TRL SE, PORT ORCHARD, WA, 98367","Match","Exact","10775 RIDGE RIM TRL SE, PORT ORCHARD, WA, 98367",187672123,"R"
47375,"10775 ROOSEVELT HWY","LYNDONVILLE","NY",14098,43.3471657970001,-78.4247214439999,375,"10775 ROOSEVELT HWY, LYNDONVILLE, NY, 14098","Match","Exact","10775 ROOSEVELT HWY, LYNDONVILLE, NY, 14098",48807955,"L"
47376,"10775 SCRIPPS POWAY PKWY 155","SAN DIEGO","CA",92131,32.936837343,-117.097075179,376,"10775 SCRIPPS POWAY PKWY 155, SAN DIEGO, CA, 92131","Match","Exact","10775 SCRIPPS POWAY PKWY, SAN DIEGO, CA, 92131",195653488,"R"
47377,"10775 TR 700 N","WYOMING","IL",61491,NA,NA,377,"10775 TR 700 N, WYOMING, IL, 61491","No_Match",NA,NA,NA,NA
47378,"10775 W ONTARIO PL","LITTLETON","CO",80127,39.5922202620001,-105.11901447,378,"10775 W ONTARIO PL, LITTLETON, CO, 80127","Match","Exact","10775 W ONTARIO PL, LITTLETON, CO, 80127",177322765,"R"
47379,"10775 W QUARLES AVE","LITTLETON","CO",80127,39.5899647090001,-105.119481742,379,"10775 W QUARLES AVE, LITTLETON, CO, 80127","Match","Exact","10775 W QUARLES AVE, LITTLETON, CO, 80127",177322761,"R"
47380,"10776 BELL RD","CLARKSVILLE","MI",48815,42.8315555030001,-85.271869699,380,"10776 BELL RD, CLARKSVILLE, MI, 48815","Match","Exact","10776 BELL RD, CLARKSVILLE, MI, 48815",627818514,"L"
47381,"10776 CARMEL GLEN TRAIL UNIT 56","SAN DIEGO","CA",92130,32.9302813840001,-117.199385342,381,"10776 CARMEL GLEN TRAIL UNIT 56, SAN DIEGO, CA, 92130","Match","Exact","10776 CARMEL GLN, SAN DIEGO, CA, 92130",645308626,"R"
47382,"10776 LIMA CENTER ROAD","MANCHESTER","MI",48158,42.126222399,-83.950352817,382,"10776 LIMA CENTER ROAD, MANCHESTER, MI, 48158","Match","Exact","10776 LIMA CENTER RD, MANCHESTER, MI, 48158",26029959,"R"
47383,"10777  W SAMPLE RD APT 607","CORAL SPRINGS","FL",33065,26.272713519,-80.269452353,383,"10777  W SAMPLE RD APT 607, CORAL SPRINGS, FL, 33065","Match","Non_Exact","10777 W SAMPLE RD, CORAL SPRINGS, FL, 33065",648155417,"R"
47384,"10777 110TH ST N","STILLWATER","MN",55082,45.108304827,-92.8885945379999,384,"10777 110TH ST N, STILLWATER, MN, 55082","Match","Exact","10777 110TH ST N, STILLWATER, MN, 55082",97831959,"R"
47385,"10777 CAINSVILLE ROAD","WATERTOWN",NA,NA,NA,NA,385,"10777 CAINSVILLE ROAD, WATERTOWN, , ","No_Match",NA,NA,NA,NA
47386,"10777 CAULEY CREEK DRIVE","DULUTH","GA",30091,34.04280276,-84.1516886749999,386,"10777 CAULEY CREEK DRIVE, DULUTH, GA, 30091","Match","Non_Exact","10777 CAULEY CREEK DR, DULUTH, GA, 30097",17434211,"R"
47387,"10777 CHARLESTON PLACE","COOPER CITY","FL",33026,26.042872436,-80.290313375,387,"10777 CHARLESTON PLACE, COOPER CITY, FL, 33026","Match","Non_Exact","10777 CHARLESTON PL, HOLLYWOOD, FL, 33026",114764560,"L"
47388,"10777 NORTHWEST FRWY STE 700","HOUSTON","TX",77092,NA,NA,388,"10777 NORTHWEST FRWY STE 700, HOUSTON, TX, 77092","No_Match",NA,NA,NA,NA
47389,"10777 POPULAR STREET 305","LOMA LINDA","CA",92354,34.057860378,-117.254604346,389,"10777 POPULAR STREET 305, LOMA LINDA, CA, 92354","Match","Non_Exact","10777 POPLAR ST, LOMA LINDA, CA, 92354",144660104,"L"
47390,"10777 THORNBERRY WAY","ZEELAND","MI",49464,42.827981993,-86.051031908,390,"10777 THORNBERRY WAY, ZEELAND, MI, 49464","Match","Exact","10777 THORNBERRY WAY, ZEELAND, MI, 49464",71094765,"R"
47391,"10778 ABLE ST NE","BLAINE","MN",55434,45.1658988080001,-93.248685614,391,"10778 ABLE ST NE, BLAINE, MN, 55434","Match","Exact","10778 ABLE ST NE, BLAINE, MN, 55434",97541716,"R"
47392,"10778 CASTLETON TURN","UPPER MARLBORO","MD",20774,38.891383633,-76.8192854709999,392,"10778 CASTLETON TURN, UPPER MARLBORO, MD, 20774","Match","Exact","10778 CASTLETON TURN, UPPER MARLBORO, MD, 20774",635445913,"L"
47393,"10778 DERRINGER DRIVE","ORLANDO","FL",32829,28.495190458,-81.234397504,393,"10778 DERRINGER DRIVE, ORLANDO, FL, 32829","Match","Exact","10778 DERRINGER DR, ORLANDO, FL, 32829",94416107,"R"
47394,"10778 RIDGEBROOK DR","RENO","NV",89521,39.4137960960001,-119.725467051,394,"10778 RIDGEBROOK DR, RENO, NV, 89521","Match","Exact","10778 RIDGEBROOK DR, RENO, NV, 89521",646845905,"R"
47395,"10778 S HWY 261","FALLS OF ROUGH","KY",40119,37.6898453370001,-86.5890916119999,395,"10778 S HWY 261, FALLS OF ROUGH, KY, 40119","Match","Non_Exact","10778 STATE HWY 261, FALLS OF ROUGH, KY, 40119",8025219,"L"
47396,"10778 W YEARLING ROAD","PEORIA","AZ",85383,33.717803851,-112.289521112,396,"10778 W YEARLING ROAD, PEORIA, AZ, 85383","Match","Exact","10778 YEARLING RD, PEORIA, AZ, 85383",619140315,"R"
47397,"10779 BROOKWELL DRIVE","CUPERTINO","CA",95014,37.3110591760001,-122.019143503,397,"10779 BROOKWELL DRIVE, CUPERTINO, CA, 95014","Match","Exact","10779 BROOKWELL DR, CUPERTINO, CA, 95014",122940624,"R"
47398,"10779 CANYON RD","FORESTVILLE","CA",95436,38.4998366890001,-122.923737644,398,"10779 CANYON RD, FORESTVILLE, CA, 95436","Match","Exact","10779 CANYON RD, FORESTVILLE, CA, 95436",638565801,"L"
47399,"10779 PUTNAM PL","CARMEL","IN",46032,39.944376999,-86.230804276,399,"10779 PUTNAM PL, CARMEL, IN, 46032","Match","Exact","10779 PUTNAM PL, CARMEL, IN, 46032",29316546,"L"
47400,"10779 SPRING BROOK LN","ORLANDO","FL",32825,28.5205090150001,-81.223359558,400,"10779 SPRING BROOK LN, ORLANDO, FL, 32825","Match","Exact","10779 SPRING BROOK LN, ORLANDO, FL, 32825",94340759,"R"
47401,"1078 230TH STREET","GOLDFIELD","IA",50542,NA,NA,401,"1078 230TH STREET, GOLDFIELD, IA, 50542","No_Match",NA,NA,NA,NA
47402,"1078 8TH FAIRWAY LANE","HUDDLESTON","VA",24104,37.0927159730001,-79.569158715,402,"1078 8TH FAIRWAY LANE, HUDDLESTON, VA, 24104","Match","Exact","1078 8TH FAIRWAY LN, HUDDLESTON, VA, 24104",635878160,"L"
47403,"1078 90TH AVE NW","MOORHEAD","MN",56560,46.9769511690001,-96.799527966,403,"1078 90TH AVE NW, MOORHEAD, MN, 56560","Match","Exact","1078 90TH AVE NW, MOORHEAD, MN, 56560",168028738,"L"
47404,"1078 AVERY TRACE CIRCLE","HENDERSONVILLE","TN",37075,36.35479415,-86.587778615,404,"1078 AVERY TRACE CIRCLE, HENDERSONVILLE, TN, 37075","Match","Exact","1078 AVERY TRACE CIR, HENDERSONVILLE, TN, 37075",617295125,"L"
47405,"1078 AZALEA LANE","CONCORD","CA",94520,37.9488554600001,-122.048239321,405,"1078 AZALEA LANE, CONCORD, CA, 94520","Match","Exact","1078 AZALEA LN, CONCORD, CA, 94520",634219570,"L"
47406,"1078 BELLOWS WAY","VOLO","IL",60073,42.3250536850001,-88.1391854299999,406,"1078 BELLOWS WAY, VOLO, IL, 60073","Match","Exact","1078 BELLOWS WAY, VOLO, IL, 60073",601202540,"L"
47407,"1078 BERGAN STREET UNIT 1A","BROOKLYN","NY",11216,40.6761225380001,-73.950459821,407,"1078 BERGAN STREET UNIT 1A, BROOKLYN, NY, 11216","Match","Non_Exact","1078 BERGEN ST, BROOKLYN, NY, 11216",59079358,"R"
47408,"1078 BLUEWOOD TERRACE","WESTON","FL",33327,26.117149458,-80.411893119,408,"1078 BLUEWOOD TERRACE, WESTON, FL, 33327","Match","Exact","1078 BLUEWOOD TER, WESTON, FL, 33327",114814290,"L"
47409,"1078 BON AIR DR","URBANA","OH",43078,40.0996299880001,-83.7272179509999,409,"1078 BON AIR DR, URBANA, OH, 43078","Match","Exact","1078 BON AIR DR, URBANA, OH, 43078",134665609,"L"
47410,"1078 BURGESS STREET","ST PAUL","MN",55104,44.968398597,-93.1447744179999,410,"1078 BURGESS STREET, ST PAUL, MN, 55104","Match","Non_Exact","1078 BURGESS ST, SAINT PAUL, MN, 55103",97642078,"L"
47411,"1078 CARRIAGE TRACE CIRCLE STONE","STONE MOUNTAIN","GA",30087,33.765305276,-84.129527745,411,"1078 CARRIAGE TRACE CIRCLE STONE, STONE MOUNTAIN, GA, 30087","Match","Exact","1078 CARRIAGE TRACE CIR, STONE MOUNTAIN, GA, 30087",640580857,"L"
47412,"1078 CITIZENS PKWY UNIT A","MORROW","GA",30260,33.5598091680001,-84.348631653,412,"1078 CITIZENS PKWY UNIT A, MORROW, GA, 30260","Match","Exact","1078 CITIZENS PKWY, MORROW, GA, 30260",638122402,"L"
47413,"1078 COVENTRY WAY","MAHWAH","NJ",7430,41.103105182,-74.144639055,413,"1078 COVENTRY WAY, MAHWAH, NJ, 7430","Match","Exact","1078 COVENTRY WAY, MAHWAH, NJ, 07430",64418963,"L"
47414,"1078 CR 1035","GREENVILLE","TX",75401,33.227826549,-96.140566921,414,"1078 CR 1035, GREENVILLE, TX, 75401","Match","Exact","1078 CO RD 1035, GREENVILLE, TX, 75401",42868768,"L"
47415,"1078 CR 302","PT LAVACA","TX",77979,28.7035025800001,-96.4313832989999,415,"1078 CR 302, PT LAVACA, TX, 77979","Match","Non_Exact","1078 CO RD 302, PORT LAVACA, TX, 77979",42122848,"L"
47416,"1078 EAST 43RD ST","BROOKLYN","NY",11210,40.628552433,-73.9347074729999,416,"1078 EAST 43RD ST, BROOKLYN, NY, 11210","Match","Exact","1078 E 43RD ST, BROOKLYN, NY, 11210",59082153,"R"
47417,"1078 ELLIE LANE","CAMANO ISLAND","WA",98282,48.172314784,-122.519874058,417,"1078 ELLIE LANE, CAMANO ISLAND, WA, 98282","Match","Exact","1078 ELLIE LN, CAMANO ISLAND, WA, 98282",187593773,"R"
47418,"1078 GARNETTE ST","SALT LAKE CITY","UT",84116,40.793873472,-111.935354541,418,"1078 GARNETTE ST, SALT LAKE CITY, UT, 84116","Match","Non_Exact","1078 GARNETTE CIR, SALT LAKE CITY, UT, 84116",176065699,"R"
47419,"1078 GIBSON WAY","GREENBACK","TN",37742,35.6284375430001,-84.1888758109999,419,"1078 GIBSON WAY, GREENBACK, TN, 37742","Match","Exact","1078 GIBSON WAY, GREENBACK, TN, 37742",610248583,"R"
47420,"1078 HIGHWAY 314","FAYETTEVILLE","GA",30214,33.5315273210001,-84.449479761,420,"1078 HIGHWAY 314, FAYETTEVILLE, GA, 30214","Match","Non_Exact","1078 STATE RTE 314, FAYETTEVILLE, GA, 30214",75954296,"R"
47421,"1078 HOSKINS LANE","SAN RAMON","CA",94582,37.74970519,-121.893226914,421,"1078 HOSKINS LANE, SAN RAMON, CA, 94582","Match","Exact","1078 HOSKINS LN, SAN RAMON, CA, 94582",624637708,"R"
47422,"1078 JACKSON STREET","PATTISON","MS",39144,31.8899580180001,-90.887449367,422,"1078 JACKSON STREET, PATTISON, MS, 39144","Match","Exact","1078 JACKSON ST, PATTISON, MS, 39144",65136570,"L"
47423,"1078 JOFFRE ST","ELLWOOD CITY","PA",16117,40.872417064,-80.265536939,423,"1078 JOFFRE ST, ELLWOOD CITY, PA, 16117","Match","Exact","1078 JOFFRE ST, ELLWOOD CITY, PA, 16117",647826187,"L"
47424,"1078 KLASKANINE AVE","ASTORIA","OR",97103,46.1795910920001,-123.832480505,424,"1078 KLASKANINE AVE, ASTORIA, OR, 97103","Match","Exact","1078 KLASKANINE AVE, ASTORIA, OR, 97103",159221877,"R"
47425,"1078 MAGOTHY VIEW","CAPE ST. CLAIRE","MD",21404,NA,NA,425,"1078 MAGOTHY VIEW, CAPE ST. CLAIRE, MD, 21404","No_Match",NA,NA,NA,NA
47426,"1078 MAIN STREET UNIT 4","BRANFORD","CT",6437,NA,NA,426,"1078 MAIN STREET UNIT 4, BRANFORD, CT, 6437","No_Match",NA,NA,NA,NA
47427,"1078 MAIN STREET","DALTON","MA",1226,42.473820404,-73.146943893,427,"1078 MAIN STREET, DALTON, MA, 1226","Match","Exact","1078 MAIN ST, DALTON, MA, 01226",3933852,"R"
47428,"1078 MERIDEN ROAD","WATERBURY","CT",6705,41.5522695780001,-72.984052864,428,"1078 MERIDEN ROAD, WATERBURY, CT, 6705","Match","Exact","1078 MERIDEN RD, WATERBURY, CT, 06705",3736389,"R"
47429,"1078 N GARNETTE STREET","SALT LAKE CITY","UT",84116,40.793873449,-111.935355735,429,"1078 N GARNETTE STREET, SALT LAKE CITY, UT, 84116","Match","Non_Exact","1078 GARNETTE CIR, SALT LAKE CITY, UT, 84116",176065699,"R"
47430,"1078 NE 94TH ST","MIAMI SHORES","FL",33138,25.8622301560001,-80.175738633,430,"1078 NE 94TH ST, MIAMI SHORES, FL, 33138","Match","Exact","1078 NE 94TH ST, MIAMI SHORES, FL, 33138",116008180,"R"
47431,"1078 NORTH CENTER ROAD","SAGINAW","MI",48638,43.4236558960001,-84.014765757,431,"1078 NORTH CENTER ROAD, SAGINAW, MI, 48638","Match","Exact","1078 N CENTER RD, SAGINAW, MI, 48638",80208798,"R"
47432,"1078 NORTH ROBERTA WAY","PORTERVILLE","CA",93257,36.085053628,-119.074309782,432,"1078 NORTH ROBERTA WAY, PORTERVILLE, CA, 93257","Match","Exact","1078 N ROBERTA WAY, PORTERVILLE, CA, 93257",627310509,"L"
47433,"1078 NORTWEST BAKER CREST CT","MCMINNVILLE","OR",97128,NA,NA,433,"1078 NORTWEST BAKER CREST CT, MCMINNVILLE, OR, 97128","No_Match",NA,NA,NA,NA
47434,"1078 OLD OAK LN","HAYWARD","CA",94541,37.663852982,-122.097679995,434,"1078 OLD OAK LN, HAYWARD, CA, 94541","Match","Exact","1078 OLD OAK LN, HAYWARD, CA, 94541",624046185,"L"
47435,"1078 OYSTERBAY DR","CINCINNATI","OH",45255,39.068675037,-84.323307192,435,"1078 OYSTERBAY DR, CINCINNATI, OH, 45255","Match","Exact","1078 OYSTERBAY DR, CINCINNATI, OH, 45255",103948559,"L"
47436,"1078 PALM HILL ROAD","PALM","PA",18070,40.4194739500001,-75.5401830709999,436,"1078 PALM HILL ROAD, PALM, PA, 18070","Match","Exact","1078 PALM HILL RD, PALM, PA, 18070",135131154,"L"
47437,"1078 PEACH ORCHARD RD","RAYMOND","MS",39154,32.1481934990001,-90.5399146729999,437,"1078 PEACH ORCHARD RD, RAYMOND, MS, 39154","Match","Exact","1078 PEACH ORCHARD RD, RAYMOND, MS, 39154",649420733,"R"
47438,"1078 PEAK CREEK CHURCH ROAD","LAUREL SPRINGS","NC",28644,36.389947595,-81.302046193,438,"1078 PEAK CREEK CHURCH ROAD, LAUREL SPRINGS, NC, 28644","Match","Exact","1078 PEAK CREEK CHURCH RD, LAUREL SPGS, NC, 28644",642897732,"L"
47439,"1078 POPULAR STREET","GRENADA","MS",38901,33.7735877150001,-89.807049373,439,"1078 POPULAR STREET, GRENADA, MS, 38901","Match","Non_Exact","1078 POPLAR ST, GRENADA, MS, 38901",607942414,"R"
47440,"1078 RALEIGH WAY","LAWRENCEVILLE","GA",30043,33.970571272,-84.0439808089999,440,"1078 RALEIGH WAY, LAWRENCEVILLE, GA, 30043","Match","Non_Exact","1078 RALEIGH WAY NW, LAWRENCEVILLE, GA, 30043",88905709,"L"
47441,"1078 RICE STREET","SAINT PAUL","MN",55117,44.97363612,-93.105933486,441,"1078 RICE STREET, SAINT PAUL, MN, 55117","Match","Exact","1078 RICE ST, SAINT PAUL, MN, 55117",97644630,"R"
47442,"1078 RIVERSIDE ROAD","SUGARHILL","GA",30518,34.1269384830001,-84.0531716899999,442,"1078 RIVERSIDE ROAD, SUGARHILL, GA, 30518","Match","Non_Exact","1078 RIVERSIDE RD, SUGAR HILL, GA, 30518",632615329,"L"
47443,"1078 S SHADOWS DRIVE","MT. PLEASANT","SC",29464,NA,NA,443,"1078 S SHADOWS DRIVE, MT. PLEASANT, SC, 29464","No_Match",NA,NA,NA,NA
47444,"1078 SAN RAFAEL RD","PALM BAY","FL",32908,27.992693956,-80.699915161,444,"1078 SAN RAFAEL RD, PALM BAY, FL, 32908","Match","Non_Exact","1078 SAN RAFAEL RD SW, PALM BAY, FL, 32908",93897371,"R"
47445,"1078 SHIELDS LANE","SOUTH JORDAN","UT",84095,40.572451442,-111.922273916,445,"1078 SHIELDS LANE, SOUTH JORDAN, UT, 84095","Match","Exact","1078 SHIELDS LN, SOUTH JORDAN, UT, 84095",651919435,"L"
47446,"1078 TIERRA LANE UNIT 202","FORT COLLINS","CO",80521,40.5739857940001,-105.132443673,446,"1078 TIERRA LANE UNIT 202, FORT COLLINS, CO, 80521","Match","Exact","1078 TIERRA LN, FORT COLLINS, CO, 80521",188505482,"L"
47447,"1078 TIMBERWOOD DRIVE","FRANKLINTON","NC",27525,36.1226036190001,-78.5538341279999,447,"1078 TIMBERWOOD DRIVE, FRANKLINTON, NC, 27525","Match","Exact","1078 TIMBERWOOD DR, FRANKLINTON, NC, 27525",77111376,"L"
47448,"1078 W DESERT SAGE DR","PUEBLO WEST","CO",81007,38.3374884770001,-104.79159419,448,"1078 W DESERT SAGE DR, PUEBLO WEST, CO, 81007","Match","Exact","1078 W DESERT SAGE DR, PUEBLO WEST, CO, 81007",105034133,"L"
47449,"1078 W GLENN AVE","OPELIKA","AL",36832,32.608504898,-85.50289234,449,"1078 W GLENN AVE, OPELIKA, AL, 36832","Match","Non_Exact","1078 W GLENN AVE, AUBURN, AL, 36832",1569526,"R"
47450,"1078 WEST LAKE AVE","GUILFORD","CT",6437,41.33492504,-72.738455523,450,"1078 WEST LAKE AVE, GUILFORD, CT, 6437","Match","Exact","1078 W LAKE AVE, GUILFORD, CT, 06437",653866553,"L"
47451,"1078 WILLMOHR ST APT 2B","BROOKLYN","NY",11212,40.656586287,-73.9184165789999,451,"1078 WILLMOHR ST APT 2B, BROOKLYN, NY, 11212","Match","Exact","1078 WILLMOHR ST, BROOKLYN, NY, 11212",59084006,"R"
47452,"1078 YORK STREET","PLYMOUTH","MI",48170,42.3824903830001,-83.458491225,452,"1078 YORK STREET, PLYMOUTH, MI, 48170","Match","Exact","1078 YORK ST, PLYMOUTH, MI, 48170",95408122,"R"
47453,"10780 GLEN ELLEN DR","TAMPA","FL",33624,28.048102482,-82.529008775,453,"10780 GLEN ELLEN DR, TAMPA, FL, 33624","Match","Exact","10780 GLEN ELLEN DR, TAMPA, FL, 33624",104513710,"R"
47454,"10780 MOUNTSHIRE CIRCLE","HIGHLANDS RANCH","CO",80126,39.5196741600001,-104.955248728,454,"10780 MOUNTSHIRE CIRCLE, HIGHLANDS RANCH, CO, 80126","Match","Exact","10780 MOUNTSHIRE CIR, HIGHLANDS RANCH, CO, 80126",130841840,"L"
47455,"10780 MOUNTSHIRE WAY","HIGHLANDS RANCH","CO",80126,39.5196741600001,-104.955248728,455,"10780 MOUNTSHIRE WAY, HIGHLANDS RANCH, CO, 80126","Match","Non_Exact","10780 MOUNTSHIRE CIR, HIGHLANDS RANCH, CO, 80126",130841840,"L"
47456,"107800 S 4240 RD","CHECOTAH","OK",74426,NA,NA,456,"107800 S 4240 RD, CHECOTAH, OK, 74426","No_Match",NA,NA,NA,NA
47457,"10781 176TH STREET","MCALPIN","FL",32062,30.1301669480001,-82.969198712,457,"10781 176TH STREET, MCALPIN, FL, 32062","Match","Non_Exact","10781 176TH ST, MC ALPIN, FL, 32062",610553429,"L"
47458,"10781 75TH STREET NORTH","STILLWATER","MN",55082,45.057746781,-92.886942833,458,"10781 75TH STREET NORTH, STILLWATER, MN, 55082","Match","Exact","10781 75TH ST N, STILLWATER, MN, 55082",97818927,"L"
47459,"10781 CHAPELWOOD DRIVE","GULFPORT","MS",39503,30.4430347520001,-89.124790546,459,"10781 CHAPELWOOD DRIVE, GULFPORT, MS, 39503","Match","Exact","10781 CHAPELWOOD DR, GULFPORT, MS, 39503",649363021,"R"
47460,"10781 REDMONT AVE","TUJUNGA","CA",91042,34.2650536410001,-118.292861022,460,"10781 REDMONT AVE, TUJUNGA, CA, 91042","Match","Exact","10781 REDMONT AVE, TUJUNGA, CA, 91042",141587978,"L"
47461,"10782 E ALAMEDA ST","AURORA","CO",80012,NA,NA,461,"10782 E ALAMEDA ST, AURORA, CO, 80012","No_Match",NA,NA,NA,NA
47462,"10782 ETTER AVE","MERCERSBURG","PA",17236,39.8644294260001,-77.8751059689999,462,"10782 ETTER AVE, MERCERSBURG, PA, 17236","Match","Exact","10782 ETTER AVE, MERCERSBURG, PA, 17236",605684746,"L"
47463,"10782 GRIMES STREET","INDIANOLA","IA",50125,41.409891337,-93.5983626349999,463,"10782 GRIMES STREET, INDIANOLA, IA, 50125","Match","Exact","10782 GRIMES ST, INDIANOLA, IA, 50125",624524742,"L"
47464,"10782 LAMPSON AVE","GARDEN GROVE","CA",92840,33.781416612,-117.944681127,464,"10782 LAMPSON AVE, GARDEN GROVE, CA, 92840","Match","Exact","10782 LAMPSON AVE, GARDEN GROVE, CA, 92840",144035222,"R"
47465,"10782 S JACOB SMART BOULEVARD","RIDGELAND","SC",29936,32.4794302610001,-80.9809295059999,465,"10782 S JACOB SMART BOULEVARD, RIDGELAND, SC, 29936","Match","Exact","10782 S JACOB SMART BLVD, RIDGELAND, SC, 29936",33149140,"R"
47466,"10782 WEYBURN AVENUE","LOS ANGELES","CA",90024,34.061982641,-118.439604187,466,"10782 WEYBURN AVENUE, LOS ANGELES, CA, 90024","Match","Exact","10782 WEYBURN AVE, LOS ANGELES, CA, 90024",141567765,"L"
47467,"10783 ANDREA TERRACE UNIT C","SANTEE","CA",92071,32.8395373120001,-116.963495754,467,"10783 ANDREA TERRACE UNIT C, SANTEE, CA, 92071","Match","Exact","10783 ANDREA TER, SANTEE, CA, 92071",195374916,"L"
47468,"10783 TRUNNELL CT","WILDER","ID",83676,NA,NA,468,"10783 TRUNNELL CT, WILDER, ID, 83676","No_Match",NA,NA,NA,NA
47469,"10784 6TH ST","ROSCOE","IL",61073,42.4170323550001,-89.000315144,469,"10784 6TH ST, ROSCOE, IL, 61073","Match","Exact","10784 6TH ST, ROSCOE, IL, 61073",49290348,"R"
47470,"10784 LOCUST AVE","HESPERIA","CA",92345,34.44589984,-117.334007124,470,"10784 LOCUST AVE, HESPERIA, CA, 92345","Match","Exact","10784 LOCUST AVE, HESPERIA, CA, 92345",144588937,"L"
47471,"10784 ROGUE RIVER BEND","TUSTIN","CA",92782,NA,NA,471,"10784 ROGUE RIVER BEND, TUSTIN, CA, 92782","No_Match",NA,NA,NA,NA
47472,"10784 W 63RD PL APT 308","ARVADA","CO",80004,39.811839976,-105.118675459,472,"10784 W 63RD PL APT 308, ARVADA, CO, 80004","Match","Non_Exact","10784 W 63RD PL, ARVADA, CO, 80004",177734210,"R"
47473,"10785 BIRCH BLUFF AVE","SAN DIEGO","CA",92131,32.915402498,-117.060770679,473,"10785 BIRCH BLUFF AVE, SAN DIEGO, CA, 92131","Match","Exact","10785 BIRCH BLUFF AVE, SAN DIEGO, CA, 92131",195320424,"R"
47474,"10785 CORSICAN STREET","ORLANDO","FL",32824,28.39477063,-81.3716615129999,474,"10785 CORSICAN STREET, ORLANDO, FL, 32824","Match","Exact","10785 CORSICAN ST, ORLANDO, FL, 32824",640875434,"L"
47475,"10785 CROW HASSAN PARK RD","HANOVER","MN",55341,NA,NA,475,"10785 CROW HASSAN PARK RD, HANOVER, MN, 55341","No_Match",NA,NA,NA,NA
47476,"10785 GUIBAL AVE","GILROY","CA",95020,37.0641361400001,-121.559462378,476,"10785 GUIBAL AVE, GILROY, CA, 95020","Match","Exact","10785 GUIBAL AVE, GILROY, CA, 95020",614048005,"L"
47477,"10785 MORTONS CIRCLE","JOHNS CREEK","GA",30022,34.0433558020001,-84.214092998,477,"10785 MORTONS CIRCLE, JOHNS CREEK, GA, 30022","Match","Exact","10785 MORTONS CIR, JOHNS CREEK, GA, 30022",17366970,"L"
47478,"10785 S CONNOR WAY","OAK CREEK","WI",53154,42.8485455850001,-87.907998118,478,"10785 S CONNOR WAY, OAK CREEK, WI, 53154","Match","Non_Exact","10785 S CONNER WAY, OAK CREEK, WI, 53154",612193029,"R"
47479,"10785 SOUTH RIDGE DR","SEMMES","AL",36575,30.7718294040001,-88.2981039159999,479,"10785 SOUTH RIDGE DR, SEMMES, AL, 36575","Match","Exact","10785 S RIDGE DR, SEMMES, AL, 36575",61938245,"R"
47480,"10785 TALISMAN DRIVE","NOBLESVILLE","IN",46060,40.0681176630001,-85.977427117,480,"10785 TALISMAN DRIVE, NOBLESVILLE, IN, 46060","Match","Exact","10785 TALISMAN DR, NOBLESVILLE, IN, 46060",29331519,"L"
47481,"10785 TAYLOR FARM ROAD","WOODSTOCK","MD",21163,39.3149883080001,-76.88872638,481,"10785 TAYLOR FARM ROAD, WOODSTOCK, MD, 21163","Match","Exact","10785 TAYLOR FARM RD, WOODSTOCK, MD, 21163",619739140,"L"
47482,"10785 THE STRAND","TRUCKEE","CA",96161,39.3409830940001,-120.098715402,482,"10785 THE STRAND, TRUCKEE, CA, 96161","Match","Exact","10785 THE STRAND, TRUCKEE, CA, 96161",106547955,"R"
47483,"10785 W TWAIN AVE SUITE 200","LAS VEGAS","NV",89135,36.123979681,-115.326239747,483,"10785 W TWAIN AVE SUITE 200, LAS VEGAS, NV, 89135","Match","Non_Exact","10785 W TWAIN AVE, LAS VEGAS, NV, 89135",641511867,"L"
47484,"10785 WAYNE TRACE ROAD","SOMERVILLE","OH",45064,39.592676714,-84.5920244659999,484,"10785 WAYNE TRACE ROAD, SOMERVILLE, OH, 45064","Match","Exact","10785 WAYNE TRACE RD, SOMERVILLE, OH, 45064",54607745,"R"
47485,"10786 ALBERTON WAY","INVER GROVE HEIGHTS","MN",55077,44.7933012990001,-93.102407882,485,"10786 ALBERTON WAY, INVER GROVE HEIGHTS, MN, 55077","Match","Exact","10786 ALBERTON WAY, INVER GROVE HEIGHTS, MN, 55077",37930099,"R"
47486,"10786 GRINDSTONE HILL ROAD","GREENCASTLE","PA",17225,39.788147414,-77.7031009579999,486,"10786 GRINDSTONE HILL ROAD, GREENCASTLE, PA, 17225","Match","Exact","10786 GRINDSTONE HILL RD, GREENCASTLE, PA, 17225",605524846,"R"
47487,"10786 HAPPY VALE ROAD","JACKSONVILLE","FL",32246,30.3131059040001,-81.520654395,487,"10786 HAPPY VALE ROAD, JACKSONVILLE, FL, 32246","Match","Exact","10786 HAPPY VALE RD, JACKSONVILLE, FL, 32246",83905570,"R"
47488,"10786 KEYS BRANCH","CADET","MO",63630,37.9543566770001,-90.760489213,488,"10786 KEYS BRANCH, CADET, MO, 63630","Match","Non_Exact","10786 KEYES BRANCH DR, CADET, MO, 63630",604839272,"R"
47489,"10786 MEMORY ROAD","HARRINGTON","DE",19952,38.834751951,-75.532773118,489,"10786 MEMORY ROAD, HARRINGTON, DE, 19952","Match","Exact","10786 MEMORY RD, HARRINGTON, DE, 19952",637314961,"R"
47490,"10786 PERRY HIGHWAY","MEADVILLE","PA",16335,41.613963315,-80.199205127,490,"10786 PERRY HIGHWAY, MEADVILLE, PA, 16335","Match","Exact","10786 PERRY HWY, MEADVILLE, PA, 16335",635541703,"R"
47491,"10786 S MORLOS DRIVE","YUMA","AZ",85367,32.6722235300001,-114.43792586,491,"10786 S MORLOS DRIVE, YUMA, AZ, 85367","Match","Non_Exact","10786 S MORELOS DR, YUMA, AZ, 85367",625185305,"R"
47492,"10786 W CANNONSVILLE RD","TRUFANT","MI",49347,43.337867524,-85.3024244169999,492,"10786 W CANNONSVILLE RD, TRUFANT, MI, 49347","Match","Exact","10786 W CANNONSVILLE RD, TRUFANT, MI, 49347",110575543,"R"
47493,"10787 LITTLE HOLLAND DRIVE","MANHATTAN","MT",59741,45.686124202,-111.309684661,493,"10787 LITTLE HOLLAND DRIVE, MANHATTAN, MT, 59741","Match","Non_Exact","10787 LITTLE HOLLAND RD, MANHATTAN, MT, 59741",163510998,"R"
47494,"10787 N WHITETAIL COURT","MEQUON","WI",53092,43.2141586910001,-87.981509209,494,"10787 N WHITETAIL COURT, MEQUON, WI, 53092","Match","Exact","10787 N WHITETAIL CT, MEQUON, WI, 53092",652108239,"R"
47495,"10787 SANTA TOMASA AVENUE","SAN DIEGO","CA",92127,33.008926382,-117.105776683,495,"10787 SANTA TOMASA AVENUE, SAN DIEGO, CA, 92127","Match","Exact","10787 SANTA TOMASA AVE, SAN DIEGO, CA, 92127",195675941,"L"
47496,"10787 SPARKLING WATERS COURT","SOUTH LYON","MI",48178,42.4801512180001,-83.7304288239999,496,"10787 SPARKLING WATERS COURT, SOUTH LYON, MI, 48178","Match","Exact","10787 SPARKLING WATERS CT, SOUTH LYON, MI, 48178",619591597,"L"
47497,"10788 BISHOPVILLE RD","BISHOPVILLE","MD",21813,38.4480737980001,-75.1900522239999,497,"10788 BISHOPVILLE RD, BISHOPVILLE, MD, 21813","Match","Exact","10788 BISHOPVILLE RD, BISHOPVILLE, MD, 21813",114550296,"R"
47498,"10788 CAROLINA TRACE","HARRISON","OH",45030,39.2785270200001,-84.794956181,498,"10788 CAROLINA TRACE, HARRISON, OH, 45030","Match","Non_Exact","10788 CAROLINA TRACE RD, HARRISON, OH, 45030",103952625,"R"
47499,"10788 KINGLET CIR","CINCINNATI","OH",45249,39.257383357,-84.3189169299999,499,"10788 KINGLET CIR, CINCINNATI, OH, 45249","Match","Exact","10788 KINGLET CIR, CINCINNATI, OH, 45249",103946089,"L"
47500,"10788 NEPTUNE WAY","NEHALEM","OR",97131,NA,NA,500,"10788 NEPTUNE WAY, NEHALEM, OR, 97131","No_Match",NA,NA,NA,NA
