"ID","Address","City","State","Zip","lat","long","id","input_address","match_indicator","match_type","matched_address","tiger_line_id","tiger_side"
437501,"272 S PERKINS","MEMPHIS","TN",38117,NA,NA,1,"272 S PERKINS, MEMPHIS, TN, 38117","No_Match",NA,NA,NA,NA
437502,"272 SALEM RD","UNION","NJ",7083,40.6772177060001,-74.264371107,2,"272 SALEM RD, UNION, NJ, 7083","Match","Exact","272 SALEM RD, UNION, NJ, 07083",60573260,"L"
437503,"272 SCARBORO DRIVE","BUNKER HILL","VA",25413,NA,NA,3,"272 SCARBORO DRIVE, BUNKER HILL, VA, 25413","No_Match",NA,NA,NA,NA
437504,"272 SE BROWN STREET","LAKE CITY","FL",32025,30.183978256,-82.634300668,4,"272 SE BROWN STREET, LAKE CITY, FL, 32025","Match","Exact","272 SE BROWN ST, LAKE CITY, FL, 32025",5136373,"R"
437505,"272 SKYVIEW DRIVE","CROMWELL","CT",6067,41.6368725340001,-72.6967796329999,5,"272 SKYVIEW DRIVE, CROMWELL, CT, 6067","Match","Non_Exact","272 SKY VIEW DR, ROCKY HILL, CT, 06067",631765370,"L"
437506,"272 SLEEPY HALLOW RD","CAMDEN","NC",27921,36.3495766200001,-76.181025974,6,"272 SLEEPY HALLOW RD, CAMDEN, NC, 27921","Match","Non_Exact","272 SLEEPY HOLLOW RD, CAMDEN, NC, 27921",120630881,"R"
437507,"272 SOMERSET LOOP","SAVANNAH","TN",38372,35.2090928040001,-88.197494064,7,"272 SOMERSET LOOP, SAVANNAH, TN, 38372","Match","Exact","272 SOMERSET LOOP, SAVANNAH, TN, 38372",21184615,"L"
437508,"272 SOUTH MAIN STREET APT 408","MEMPHIS","TN",38103,35.138647355,-90.055959285,8,"272 SOUTH MAIN STREET APT 408, MEMPHIS, TN, 38103","Match","Exact","272 S MAIN ST, MEMPHIS, TN, 38103",72903222,"L"
437509,"272 SOUTH PARLIAMENT WAY","CLAYTON","NC",27520,NA,NA,9,"272 SOUTH PARLIAMENT WAY, CLAYTON, NC, 27520","No_Match",NA,NA,NA,NA
437510,"272 ST JOSEPH CT","WEST LAFAYETTE","IN",47906,40.4682135530001,-86.902013572,10,"272 ST JOSEPH CT, WEST LAFAYETTE, IN, 47906","Match","Exact","272 SAINT JOSEPH CT, W LAFAYETTE, IN, 47906",604830831,"R"
437511,"272 STATION DRIVE","WOOD DALE","IL",60191,41.9620683310001,-87.994230353,11,"272 STATION DRIVE, WOOD DALE, IL, 60191","Match","Exact","272 STATION DR, WOOD DALE, IL, 60191",112540992,"L"
437512,"272 STEIN ROAD","CHICORA","PA",16025,40.9383252480001,-79.806962869,12,"272 STEIN ROAD, CHICORA, PA, 16025","Match","Exact","272 STEIN RD, CHICORA, PA, 16025",635586964,"L"
437513,"272 STEWART AVENUE","PITTSBURGH","PA",15227,40.3805687710001,-79.985739273,13,"272 STEWART AVENUE, PITTSBURGH, PA, 15227","Match","Exact","272 STEWART AVE, PITTSBURGH, PA, 15227",51639454,"L"
437514,"272 SW 179 AVENUE","PEMBROKE PINES","FL",33029,26.0041832640001,-80.385953555,14,"272 SW 179 AVENUE, PEMBROKE PINES, FL, 33029","Match","Exact","272 SW 179TH AVE, PEMBROKE PINES, FL, 33029",114771077,"L"
437515,"272 SW QUICK CIR","PORT ST LUCIE","FL",34935,NA,NA,15,"272 SW QUICK CIR, PORT ST LUCIE, FL, 34935","No_Match",NA,NA,NA,NA
437516,"272 SWEET ACRES DRIVE","ROCHESTER","NY",14612,NA,NA,16,"272 SWEET ACRES DRIVE, ROCHESTER, NY, 14612","No_Match",NA,NA,NA,NA
437517,"272 TABERNACLE ROAD","FRIES","VA",24330,36.7269519490001,-80.98307427,17,"272 TABERNACLE ROAD, FRIES, VA, 24330","Match","Exact","272 TABERNACLE RD, FRIES, VA, 24330",153804828,"R"
437518,"272 TAMERISK LANE","NEW WINDSOR","NY",12553,41.4673883360001,-74.016404014,18,"272 TAMERISK LANE, NEW WINDSOR, NY, 12553","Match","Exact","272 TAMERISK LN, NEW WINDSOR, NY, 12553",124477475,"R"
437519,"272 TAMERISK LANE","NEW WINDSOW","NY",12553,41.4673883360001,-74.016404014,19,"272 TAMERISK LANE, NEW WINDSOW, NY, 12553","Match","Non_Exact","272 TAMERISK LN, NEW WINDSOR, NY, 12553",124477475,"R"
437520,"272 TRAM ROAD","COLUMBIA","SC",29210,34.049753653,-81.1402187309999,20,"272 TRAM ROAD, COLUMBIA, SC, 29210","Match","Exact","272 TRAM RD, COLUMBIA, SC, 29210",70049960,"R"
437521,"272 VAN BUREN","BROOKLYN","NY",11221,40.690880652,-73.9360670309999,21,"272 VAN BUREN, BROOKLYN, NY, 11221","Match","Non_Exact","272 VAN BUREN ST, BROOKLYN, NY, 11221",59079257,"R"
437522,"272 VARNUM DRIVE","EAST GREENWICH","RI",2818,41.666226491,-71.471885008,22,"272 VARNUM DRIVE, EAST GREENWICH, RI, 2818","Match","Exact","272 VARNUM DR, EAST GREENWICH, RI, 02818",159155854,"L"
437523,"272 VASSER DRIVE","PISCATAWAY","NJ",8854,40.5646717760001,-74.49313631,23,"272 VASSER DRIVE, PISCATAWAY, NJ, 8854","Match","Exact","272 VASSER DR, PISCATAWAY, NJ, 08854",60303603,"L"
437524,"272 VIOLET DR","ROMEOVILLE","IL",60446,41.6144114370001,-88.133592966,24,"272 VIOLET DR, ROMEOVILLE, IL, 60446","Match","Exact","272 VIOLET DR, ROMEOVILLE, IL, 60446",111617622,"R"
437525,"272 VISALIA RD","ALEXANDRIA","KY",41001,38.90804273,-84.432715791,25,"272 VISALIA RD, ALEXANDRIA, KY, 41001","Match","Exact","272 VISALIA RD, ALEXANDRIA, KY, 41001",625608818,"R"
437526,"272 VISALIA ROAD","ALEXANDRIA","KY",41001,38.90804273,-84.432715791,26,"272 VISALIA ROAD, ALEXANDRIA, KY, 41001","Match","Exact","272 VISALIA RD, ALEXANDRIA, KY, 41001",625608818,"R"
437527,"272 W 107 STREET","NEW YORK","NY",10025,40.8019435530001,-73.967190014,27,"272 W 107 STREET, NEW YORK, NY, 10025","Match","Exact","272 W 107TH ST, NEW YORK, NY, 10025",650153661,"L"
437528,"272 W 1350 N","CENTERVILLE","UT",84014,40.934111118,-111.883604589,28,"272 W 1350 N, CENTERVILLE, UT, 84014","Match","Exact","272 W 1350 N, CENTERVILLE, UT, 84014",155325871,"R"
437529,"272 W 139TH STREET APT 2A","NEW YORK","NY",10030,40.818696619,-73.943864065,29,"272 W 139TH STREET APT 2A, NEW YORK, NY, 10030","Match","Non_Exact","272 W 139TH ST, NEW YORK, NY, 10030",59656393,"L"
437530,"272 W LAWSON RD TRLR 67","DALLAS","TX",75253,NA,NA,30,"272 W LAWSON RD TRLR 67, DALLAS, TX, 75253","Tie",NA,NA,NA,NA
437531,"272 W SMITH STREET","SUMMERVILLE","SC",29485,33.000409351,-80.160151325,31,"272 W SMITH STREET, SUMMERVILLE, SC, 29485","Match","Exact","272 W SMITH ST, SUMMERVILLE, SC, 29485",108838541,"L"
437532,"272 WASHINGTON AVE","MARIETTA","GA",30060,33.952184479,-84.544295849,32,"272 WASHINGTON AVE, MARIETTA, GA, 30060","Match","Non_Exact","272 WASHINGTON AVE NE, MARIETTA, GA, 30060",17176262,"R"
437533,"272 WEEKS ROAD","LUCEDALE","MS",33761,30.874796057,-88.542824159,33,"272 WEEKS ROAD, LUCEDALE, MS, 33761","Match","Non_Exact","272 WEEKS RD, LUCEDALE, MS, 39452",62289762,"R"
437534,"272 WHALEY DRIVE B","HOLLY SPRINGS","MS",38635,NA,NA,34,"272 WHALEY DRIVE B, HOLLY SPRINGS, MS, 38635","No_Match",NA,NA,NA,NA
437535,"272 WILDWOOD RD","LENOIR","NC",28645,35.9441735140001,-81.485175268,35,"272 WILDWOOD RD, LENOIR, NC, 28645","Match","Exact","272 WILDWOOD RD, LENOIR, NC, 28645",616761379,"R"
437536,"272 WINDRIDGE DRIVE","BRUNSWICK","GA",31520,31.2051570400001,-81.495630325,36,"272 WINDRIDGE DRIVE, BRUNSWICK, GA, 31520","Match","Exact","272 WINDRIDGE DR, BRUNSWICK, GA, 31520",636127363,"R"
437537,"272 WOODCREEK PLACE","BLAIRS","VA",24540,36.711181545,-79.3854264459999,37,"272 WOODCREEK PLACE, BLAIRS, VA, 24540","Match","Non_Exact","272 WOODCREEK PL, BLAIRS, VA, 24527",56603326,"R"
437538,"272 WOODCREEK TERRACE","FREEMONT","CA",94539,37.49409209,-121.92683343,38,"272 WOODCREEK TERRACE, FREEMONT, CA, 94539","Match","Non_Exact","272 WOODCREEK TER, FREMONT, CA, 94539",124989821,"R"
437539,"272 WOODLAND RD","MADISON","NJ",7940,40.751697435,-74.4224720409999,39,"272 WOODLAND RD, MADISON, NJ, 7940","Match","Exact","272 WOODLAND RD, MADISON, NJ, 07940",60449876,"L"
437540,"272 WOODSIDE","TALLMADGE","OH",44278,41.0796838910001,-81.403729804,40,"272 WOODSIDE, TALLMADGE, OH, 44278","Match","Non_Exact","272 WOODSIDE LN, TALLMADGE, OH, 44278",648267843,"R"
437541,"272 WOZNIAK ROAD","MERCER","PA",16137,41.192770007,-80.339669495,41,"272 WOZNIAK ROAD, MERCER, PA, 16137","Match","Exact","272 WOZNIAK RD, MERCER, PA, 16137",605380869,"L"
437542,"272 WYCKOFF STREET","BROOKLYN","NY",11217,40.683422433,-73.984077379,42,"272 WYCKOFF STREET, BROOKLYN, NY, 11217","Match","Exact","272 WYCKOFF ST, BROOKLYN, NY, 11217",59075423,"R"
437543,"272 WYCKOFF STREET","BRROKLYN","NY",11217,40.683422433,-73.984077379,43,"272 WYCKOFF STREET, BRROKLYN, NY, 11217","Match","Non_Exact","272 WYCKOFF ST, BROOKLYN, NY, 11217",59075423,"R"
437544,"272 WYKOFF STREET APT 15E","BROOKLYN","NY",11217,NA,NA,44,"272 WYKOFF STREET APT 15E, BROOKLYN, NY, 11217","No_Match",NA,NA,NA,NA
437545,"272 WYKOFF STREET","BROOKLYN","NY",11217,NA,NA,45,"272 WYKOFF STREET, BROOKLYN, NY, 11217","No_Match",NA,NA,NA,NA
437546,"272 WYNDCLIFFE ROAD","SCARSDALE","NY",10583,40.984037277,-73.820288147,46,"272 WYNDCLIFFE ROAD, SCARSDALE, NY, 10583","Match","Non_Exact","272 WYNDCLIFF RD, SCARSDALE, NY, 10583",139777339,"R"
437547,"272","DAVENPORT","IA",52807,NA,NA,47,"272, DAVENPORT, IA, 52807","No_Match",NA,NA,NA,NA
437548,"2720 106TH AVENUE","OAKLAND","CA",94605,37.743658397,-122.151192542,48,"2720 106TH AVENUE, OAKLAND, CA, 94605","Match","Exact","2720 106TH AVE, OAKLAND, CA, 94605",606080343,"R"
437549,"2720 12TH AVENUE S","SAINT PETERSBURG","FL",33712,27.758355098,-82.670423323,49,"2720 12TH AVENUE S, SAINT PETERSBURG, FL, 33712","Match","Exact","2720 12TH AVE S, SAINT PETERSBURG, FL, 33712",124706125,"L"
437550,"2720 152ND AVENUE NE 793","REDMOND","WA",98052,47.6342264040001,-122.137678972,50,"2720 152ND AVENUE NE 793, REDMOND, WA, 98052","Match","Exact","2720 152ND AVE NE, REDMOND, WA, 98052",187053315,"R"
437551,"2720 28TH AVENUE SW","TUMWATER","WA",98512,47.02293152,-122.936709458,51,"2720 28TH AVENUE SW, TUMWATER, WA, 98512","Match","Exact","2720 28TH AVE SW, TUMWATER, WA, 98512",180967754,"L"
437552,"2720 ABBEY GROVE DRIVE","VALRICO","FL",33594,27.9219982440001,-82.2416167219999,52,"2720 ABBEY GROVE DRIVE, VALRICO, FL, 33594","Match","Exact","2720 ABBEY GROVE DR, VALRICO, FL, 33594",629904436,"R"
437553,"2720 ALEXANDER CLUB DRIVE","PALM SPRINGS","CA",92262,33.8566953590001,-116.517732506,53,"2720 ALEXANDER CLUB DRIVE, PALM SPRINGS, CA, 92262","Match","Exact","2720 ALEXANDER CLUB DR, PALM SPRINGS, CA, 92262",618340958,"L"
437554,"2720 ALPINE ROAD","MENLO PARK","CA",94028,37.406643838,-122.194314817,54,"2720 ALPINE ROAD, MENLO PARK, CA, 94028","Match","Exact","2720 ALPINE RD, MENLO PARK, CA, 94028",640956417,"R"
437555,"2720 ANCHOR RD","MIDDLEBURG","FL",32068,30.052658922,-81.8828778,55,"2720 ANCHOR RD, MIDDLEBURG, FL, 32068","Match","Exact","2720 ANCHOR RD, MIDDLEBURG, FL, 32068",83835504,"R"
437556,"2720 ARTHUR ST","ROSEVILLE","MN",55113,45.02282626,-93.180391094,56,"2720 ARTHUR ST, ROSEVILLE, MN, 55113","Match","Exact","2720 ARTHUR ST, ROSEVILLE, MN, 55113",97664415,"R"
437557,"2720 ARTHUR","OREGON","OH",43616,41.647634763,-83.4839774009999,57,"2720 ARTHUR, OREGON, OH, 43616","Match","Non_Exact","2720 ARTHUR ST, OREGON, OH, 43616",33946593,"R"
437558,"2720 AURTH STREET","OREGON","OH",43616,NA,NA,58,"2720 AURTH STREET, OREGON, OH, 43616","No_Match",NA,NA,NA,NA
437559,"2720 BANQUOS TRAIL","PENSACOLA","FL",32503,30.4423004990001,-87.18465938,59,"2720 BANQUOS TRAIL, PENSACOLA, FL, 32503","Match","Exact","2720 BANQUOS TRL, PENSACOLA, FL, 32503",93279090,"L"
437560,"2720 BERNARDO AVE","ESCONDIDO","CA",92029,33.0843306130001,-117.090922789,60,"2720 BERNARDO AVE, ESCONDIDO, CA, 92029","Match","Exact","2720 BERNARDO AVE, ESCONDIDO, CA, 92029",195709694,"L"
437561,"2720 BINFORD AVE","STATE CENTER","IA",50247,41.961225563,-93.213032907,61,"2720 BINFORD AVE, STATE CENTER, IA, 50247","Match","Exact","2720 BINFORD AVE, STATE CENTER, IA, 50247",90928748,"R"
437562,"2720 BLACKSHEAR AVENUE","PENSACOLA","FL",32503,30.444774351,-87.191271812,62,"2720 BLACKSHEAR AVENUE, PENSACOLA, FL, 32503","Match","Exact","2720 BLACKSHEAR AVE, PENSACOLA, FL, 32503",93223223,"R"
437563,"2720 BLAIR AVENUE","ST LOUIS","MO",63106,38.6503181460001,-90.198529277,63,"2720 BLAIR AVENUE, ST LOUIS, MO, 63106","Match","Exact","2720 BLAIR AVE, SAINT LOUIS, MO, 63106",107604587,"R"
437564,"2720 BOLTON ABBEY DRIVE SW","MARIETTA","GA",30064,33.9363061940001,-84.632634643,64,"2720 BOLTON ABBEY DRIVE SW, MARIETTA, GA, 30064","Match","Exact","2720 BOLTON ABBEY DR SW, MARIETTA, GA, 30064",625073064,"L"
437565,"2720 BRAEBURN LANE","CHESAPEAKE BEACH","MD",20732,38.705696478,-76.556635001,65,"2720 BRAEBURN LANE, CHESAPEAKE BEACH, MD, 20732","Match","Exact","2720 BRAEBURN LN, CHESAPEAKE BEACH, MD, 20732",78166711,"R"
437566,"2720 BRETTON WOOD DR","FORT WORTH","TX",76244,32.9493995760001,-97.303086943,66,"2720 BRETTON WOOD DR, FORT WORTH, TX, 76244","Match","Exact","2720 BRETTON WOOD DR, FORT WORTH, TX, 76244",638655515,"R"
437567,"2720 BRETTON WWOD DR","FORT WORTH","TX",76244,NA,NA,67,"2720 BRETTON WWOD DR, FORT WORTH, TX, 76244","No_Match",NA,NA,NA,NA
437568,"2720 CALIFORNIA ROAD","ELKHART","IN",46514,41.695372821,-86.013813034,68,"2720 CALIFORNIA ROAD, ELKHART, IN, 46514","Match","Exact","2720 CALIFORNIA RD, ELKHART, IN, 46514",617481474,"L"
437569,"2720 CAMELOT DR APT 111","LAREDO","TX",78041,27.579228926,-99.4548627089999,69,"2720 CAMELOT DR APT 111, LAREDO, TX, 78041","Match","Exact","2720 CAMELOT DR, LAREDO, TX, 78041",617847431,"L"
437570,"2720 CARRICK CT","POWDER SPRINGS","GA",30127,33.888309259,-84.680081461,70,"2720 CARRICK CT, POWDER SPRINGS, GA, 30127","Match","Non_Exact","2720 CARRICK CT SW, POWDER SPGS, GA, 30127",653446062,"R"
437571,"2720 CARROLL STREET","NORTH LAS VEGAS","NV",89030,36.2089426110001,-115.115949167,71,"2720 CARROLL STREET, NORTH LAS VEGAS, NV, 89030","Match","Exact","2720 CARROLL ST, N LAS VEGAS, NV, 89030",201980022,"R"
437572,"2720 CASTILIGIONE STREET","NEW ORLEANS","LA",70119,NA,NA,72,"2720 CASTILIGIONE STREET, NEW ORLEANS, LA, 70119","No_Match",NA,NA,NA,NA
437573,"2720 CEDAR STREET","FREMONT","NE",68025,41.455735045,-96.469510585,73,"2720 CEDAR STREET, FREMONT, NE, 68025","Match","Exact","2720 CEDAR ST, FREMONT, NE, 68025",136328880,"L"
437574,"2720 CENTER RD","NOVATO","CA",94947,38.1115216480001,-122.627881084,74,"2720 CENTER RD, NOVATO, CA, 94947","Match","Exact","2720 CENTER RD, NOVATO, CA, 94947",192756746,"R"
437575,"2720 CLEMENT","SAN FRANCISCO","CA",94121,37.7818696860001,-122.488353854,75,"2720 CLEMENT, SAN FRANCISCO, CA, 94121","Match","Non_Exact","2720 CLEMENT ST, SAN FRANCISCO, CA, 94121",192277275,"R"
437576,"2720 COLUMBUS AVENUE","COLUMBUS","OH",43209,39.979204818,-82.929836864,76,"2720 COLUMBUS AVENUE, COLUMBUS, OH, 43209","Match","Exact","2720 COLUMBUS AVE, COLUMBUS, OH, 43209",135590487,"L"
437577,"2720 COUNCIL TREE AVE STE 242","FORT COLLINS","CO",80525,NA,NA,77,"2720 COUNCIL TREE AVE STE 242, FORT COLLINS, CO, 80525","No_Match",NA,NA,NA,NA
437578,"2720 COUNTRY CLUB PRADO","CORAL GABLES","FL",33134,25.7455032730001,-80.2862061119999,78,"2720 COUNTRY CLUB PRADO, CORAL GABLES, FL, 33134","Match","Exact","2720 COUNTRY CLUB PRADO, CORAL GABLES, FL, 33134",115977969,"R"
437579,"2720 CRAFTON PARK","COLUMBUS","OH",43221,40.0092296930001,-83.083335623,79,"2720 CRAFTON PARK, COLUMBUS, OH, 43221","Match","Exact","2720 CRAFTON PARK, COLUMBUS, OH, 43221",642841452,"L"
437580,"2720 CYPRESS TRACE CIRCLE UNIT 2935","NAPLES","FL",34119,26.2780048010001,-81.7402221099999,80,"2720 CYPRESS TRACE CIRCLE UNIT 2935, NAPLES, FL, 34119","Match","Exact","2720 CYPRESS TRACE CIR, NAPLES, FL, 34119",645541139,"R"
437581,"2720 DAVIS AVE","LAREDO","TX",78040,27.523879085,-99.511108066,81,"2720 DAVIS AVE, LAREDO, TX, 78040","Match","Exact","2720 DAVIS AVE, LAREDO, TX, 78040",21669630,"L"
437582,"2720 DECATUR AVE","BRONX","NY",10458,40.8653596180001,-73.88821567,82,"2720 DECATUR AVE, BRONX, NY, 10458","Match","Exact","2720 DECATUR AVE, BRONX, NY, 10458",80312803,"R"
437583,"2720 DEERPARK DR","SAN DIEGO","CA",92110,32.7911309900001,-117.191573388,83,"2720 DEERPARK DR, SAN DIEGO, CA, 92110","Match","Exact","2720 DEERPARK DR, SAN DIEGO, CA, 92110",195305700,"L"
437584,"2720 DULUTH ST","HIGHLAND","IN",46322,41.5646422890001,-87.463049943,84,"2720 DULUTH ST, HIGHLAND, IN, 46322","Match","Exact","2720 DULUTH ST, HIGHLAND, IN, 46322",98421939,"R"
437585,"2720 E 22ND STREET","MINNEAPOLIS","MN",55406,44.960979567,-93.232610848,85,"2720 E 22ND STREET, MINNEAPOLIS, MN, 55406","Match","Exact","2720 E 22ND ST, MINNEAPOLIS, MN, 55406",43638435,"L"
437586,"2720 E 8TH ST","NATIONAL CITY","CA",91950,32.68362733,-117.079132511,86,"2720 E 8TH ST, NATIONAL CITY, CA, 91950","Match","Exact","2720 E 8TH ST, NATIONAL CITY, CA, 91950",195352699,"R"
437587,"2720 E 8TH STREET","PUEBLO","CO",81001,38.275600696,-104.56240969,87,"2720 E 8TH STREET, PUEBLO, CO, 81001","Match","Exact","2720 E 8TH ST, PUEBLO, CO, 81001",105054975,"R"
437588,"2720 E LIBERTY LANE","Phoenix","AZ",85048,33.2922967550001,-112.024765403,88,"2720 E LIBERTY LANE, Phoenix, AZ, 85048","Match","Exact","2720 E LIBERTY LN, PHOENIX, AZ, 85048",128971530,"R"
437589,"2720 E LIBERTY LANE","PHOENIX","AZ",85048,33.2922967550001,-112.024765403,89,"2720 E LIBERTY LANE, PHOENIX, AZ, 85048","Match","Exact","2720 E LIBERTY LN, PHOENIX, AZ, 85048",128971530,"R"
437590,"2720 EASTMORELAND","OREGON","OH",43616,41.641732631,-83.483774225,90,"2720 EASTMORELAND, OREGON, OH, 43616","Match","Non_Exact","2720 EASTMORELAND DR, OREGON, OH, 43616",33946633,"R"
437591,"2720 EDMONDS STREET","BEAUMONT","TX",77705,30.0492459970001,-94.113370473,91,"2720 EDMONDS STREET, BEAUMONT, TX, 77705","Match","Exact","2720 EDMONDS ST, BEAUMONT, TX, 77705",73855481,"L"
437592,"2720 EDWIN PLACE","LOS ANGELES","CA",90046,34.121834993,-118.389754722,92,"2720 EDWIN PLACE, LOS ANGELES, CA, 90046","Match","Exact","2720 EDWIN PL, LOS ANGELES, CA, 90046",141566205,"R"
437593,"2720 FLINTLOCK PLACE","AUSTELL","GA",30106,33.831934146,-84.633483067,93,"2720 FLINTLOCK PLACE, AUSTELL, GA, 30106","Match","Exact","2720 FLINTLOCK PL, AUSTELL, GA, 30106",627687791,"L"
437594,"2720 FOSTER AVE APT 1G","BROOKLYN","NY",11210,40.6384391,-73.950906486,94,"2720 FOSTER AVE APT 1G, BROOKLYN, NY, 11210","Match","Exact","2720 FOSTER AVE, BROOKLYN, NY, 11210",59081707,"R"
437595,"2720 FOSTER AVE APT 2E","BROOKLYN","NY",11210,40.6384391,-73.950906486,95,"2720 FOSTER AVE APT 2E, BROOKLYN, NY, 11210","Match","Exact","2720 FOSTER AVE, BROOKLYN, NY, 11210",59081707,"R"
437596,"2720 FOSTER AVE APT 6E","BROOKLYN","NY",11210,40.6384391,-73.950906486,96,"2720 FOSTER AVE APT 6E, BROOKLYN, NY, 11210","Match","Exact","2720 FOSTER AVE, BROOKLYN, NY, 11210",59081707,"R"
437597,"2720 FOXWOOD DRIVE","AKRON","OH",44333,41.14291832,-81.607657514,97,"2720 FOXWOOD DRIVE, AKRON, OH, 44333","Match","Exact","2720 FOXWOOD DR, AKRON, OH, 44333",61336811,"L"
437598,"2720 FURRS ST","ARLINGTON","TX",76006,32.7803346000001,-97.0934443959999,98,"2720 FURRS ST, ARLINGTON, TX, 76006","Match","Exact","2720 FURRS ST, ARLINGTON, TX, 76006",101873754,"L"
437599,"2720 GEORGE ST","ANDERSON","IN",46016,40.0889581500001,-85.669418294,99,"2720 GEORGE ST, ANDERSON, IN, 46016","Match","Exact","2720 GEORGE ST, ANDERSON, IN, 46016",31115538,"L"
437600,"2720 GOLFVIEW DRIVE","MCKINNEY","TX",75069,33.174249838,-96.62950188,100,"2720 GOLFVIEW DRIVE, MCKINNEY, TX, 75069","Match","Exact","2720 GOLFVIEW DR, MCKINNEY, TX, 75069",616490548,"R"
437601,"2720 GOOSEBERRY DRIVE","PLANO","TX",75074,33.0706771000001,-96.6764748429999,101,"2720 GOOSEBERRY DRIVE, PLANO, TX, 75074","Match","Exact","2720 GOOSEBERRY DR, PLANO, TX, 75074",210513482,"L"
437602,"2720 GRAND CONCOURSE SUITE 401","BRONX","NY",10458,40.867453239,-73.893088726,102,"2720 GRAND CONCOURSE SUITE 401, BRONX, NY, 10458","Match","Exact","2720 GRAND CONCOURSE, BRONX, NY, 10458",640811226,"R"
437603,"2720 HALL ST","ENDWELL","NY",13760,42.110780952,-76.0326974939999,103,"2720 HALL ST, ENDWELL, NY, 13760","Match","Exact","2720 HALL ST, ENDWELL, NY, 13760",46338083,"R"
437604,"2720 HALLON DR","IDAHO FALLS","ID",83402,43.4832848500001,-112.085074848,104,"2720 HALLON DR, IDAHO FALLS, ID, 83402","Match","Non_Exact","2720 HALLON ST, IDAHO FALLS, ID, 83402",119120150,"L"
437605,"2720 HARDSCRABBLE RD","COLUMBIA","SC",29223,34.11641938,-80.9399418789999,105,"2720 HARDSCRABBLE RD, COLUMBIA, SC, 29223","Match","Non_Exact","2720 HARD SCRABBLE RD, COLUMBIA, SC, 29223",71822361,"R"
437606,"2720 HOYT AVE APT 208","EVERETT","WA",98201,47.981653211,-122.209962861,106,"2720 HOYT AVE APT 208, EVERETT, WA, 98201","Match","Exact","2720 HOYT AVE, EVERETT, WA, 98201",187745097,"R"
437607,"2720 HUNTINGTON RD","CHARLOTTESVILLE","VA",22901,38.080431133,-78.455004451,107,"2720 HUNTINGTON RD, CHARLOTTESVILLE, VA, 22901","Match","Exact","2720 HUNTINGTON RD, CHARLOTTESVILLE, VA, 22901",83370386,"R"
437608,"2720 JAMES EDMOND CT","MURFREESBORO","TN",37129,NA,NA,108,"2720 JAMES EDMOND CT, MURFREESBORO, TN, 37129","No_Match",NA,NA,NA,NA
437609,"2720 JOHNSON LANE","TEXARKANA","TX",75501,33.394724776,-94.074194674,109,"2720 JOHNSON LANE, TEXARKANA, TX, 75501","Match","Exact","2720 JOHNSON LN, TEXARKANA, TX, 75501",57670224,"L"
437610,"2720 KINGSLEY DRIVE","PEARLAND","TX",77584,29.56169799,-95.4176999329999,110,"2720 KINGSLEY DRIVE, PEARLAND, TX, 77584","Match","Exact","2720 KINGSLEY DR, PEARLAND, TX, 77584",648005358,"L"
437611,"2720 LAKE COUNTRY DRIVE","GRAND PRAIRIE","TX",75052,32.6232762980001,-97.055331651,111,"2720 LAKE COUNTRY DRIVE, GRAND PRAIRIE, TX, 75052","Match","Exact","2720 LAKE COUNTRY DR, GRAND PRAIRIE, TX, 75052",102187807,"L"
437612,"2720 LAKE PINE PATH APT 111","SAINT JOSEPH","MI",49085,NA,NA,112,"2720 LAKE PINE PATH APT 111, SAINT JOSEPH, MI, 49085","No_Match",NA,NA,NA,NA
437613,"2720 LIPPARDS CREEK LANE","LINCOLNTON","NC",28092,35.519483726,-81.148600115,113,"2720 LIPPARDS CREEK LANE, LINCOLNTON, NC, 28092","Match","Exact","2720 LIPPARDS CREEK LN, LINCOLNTON, NC, 28092",69546645,"R"
437614,"2720 LISBURN ROAD","CAMP HILL","PA",17011,40.209608648,-76.9326982279999,114,"2720 LISBURN ROAD, CAMP HILL, PA, 17011","Match","Exact","2720 LISBURN RD, CAMP HILL, PA, 17011",221244835,"L"
437615,"2720 MAC ST NW","CLEVELAND","TN",37312,35.1818535740001,-84.867645296,115,"2720 MAC ST NW, CLEVELAND, TN, 37312","Match","Exact","2720 MAC ST NW, CLEVELAND, TN, 37312",57574006,"R"
437616,"2720 MALCORE DR","GREEN BAY","WI",54302,44.491306217,-87.946835901,116,"2720 MALCORE DR, GREEN BAY, WI, 54302","Match","Exact","2720 MALCORE DR, GREEN BAY, WI, 54302",148104768,"R"
437617,"2720 MAPLE AVENUE","ZANESVILLE","OH",43701,39.972873796,-82.01138002,117,"2720 MAPLE AVENUE, ZANESVILLE, OH, 43701","Match","Exact","2720 MAPLE AVE, ZANESVILLE, OH, 43701",45593989,"R"
437618,"2720 MAPLECREST LANE","SEVIERVILLE","TN",37876,35.8629620140001,-83.420043294,118,"2720 MAPLECREST LANE, SEVIERVILLE, TN, 37876","Match","Exact","2720 MAPLECREST LN, SEVIERVILLE, TN, 37876",107549683,"R"
437619,"2720 MATHESON WAY","SACRAMENTO","CA",95864,38.586939048,-121.398792963,119,"2720 MATHESON WAY, SACRAMENTO, CA, 95864","Match","Exact","2720 MATHESON WAY, SACRAMENTO, CA, 95864",133335657,"R"
437620,"2720 MEADOWVIEW DR","CORINTH","TX",76210,NA,NA,120,"2720 MEADOWVIEW DR, CORINTH, TX, 76210","No_Match",NA,NA,NA,NA
437621,"2720 MILLERSWAY DR","ELLICOTT CITY","MD",21043,39.303055821,-76.808927179,121,"2720 MILLERSWAY DR, ELLICOTT CITY, MD, 21043","Match","Non_Exact","2720 MILLERS WAY DR, ELLICOTT CITY, MD, 21043",635795791,"R"
437622,"2720 MIMOSO CT","BEDFORD","TX",76021,32.8491784080001,-97.120717858,122,"2720 MIMOSO CT, BEDFORD, TX, 76021","Match","Non_Exact","2720 MIMOSA CT, BEDFORD, TX, 76021",102091209,"L"
437623,"2720 MISHAWAKA AVE","SOUTH BEND","IN",46615,41.665710152,-86.208487885,123,"2720 MISHAWAKA AVE, SOUTH BEND, IN, 46615","Match","Non_Exact","2720 W MISHAWAKA AVE, SOUTH BEND, IN, 46615",8085120,"R"
437624,"2720 N 24TH AVENUE","HOLLYWOOD","FL",33020,26.035654729,-80.155529343,124,"2720 N 24TH AVENUE, HOLLYWOOD, FL, 33020","Match","Exact","2720 N 24TH AVE, HOLLYWOOD, FL, 33020",648316467,"L"
437625,"2720 N FRITZ DRIVE","TUCSON","AZ",85705,32.2565801600001,-110.973554115,125,"2720 N FRITZ DRIVE, TUCSON, AZ, 85705","Match","Exact","2720 N FRITZ DR, TUCSON, AZ, 85705",121167109,"R"
437626,"2720 N GEORGE MASON DRIVE","ARLINGTON","VA",22207,38.9018030510001,-77.13602453,126,"2720 N GEORGE MASON DRIVE, ARLINGTON, VA, 22207","Match","Exact","2720 N GEORGE MASON DR, ARLINGTON, VA, 22207",76466934,"L"
437627,"2720 N KEENE WAY DR","CENTRAL POINT","OR",97502,NA,NA,127,"2720 N KEENE WAY DR, CENTRAL POINT, OR, 97502","No_Match",NA,NA,NA,NA
437628,"2720 N RED ROBIN CT","LEHI","UT",84043,40.4499326550001,-111.892859266,128,"2720 N RED ROBIN CT, LEHI, UT, 84043","Match","Non_Exact","2720 RED ROBIN, LEHI, UT, 84043",601625186,"R"
437629,"2720 NE 1ST TER","POMPANO BEACH","FL",33064,26.264903815,-80.121201589,129,"2720 NE 1ST TER, POMPANO BEACH, FL, 33064","Match","Exact","2720 NE 1ST TER, POMPANO BEACH, FL, 33064",114744345,"R"
437630,"2720 NE 85TH CIRCLE","VANCOUVER","WA",98665,45.6837992660001,-122.642084799,130,"2720 NE 85TH CIRCLE, VANCOUVER, WA, 98665","Match","Exact","2720 NE 85TH CIR, VANCOUVER, WA, 98665",158369813,"R"
437631,"2720 NEILSON WAY UNIT 5313","SANTA MONICA","CA",90409,34.0003338770001,-118.482864971,131,"2720 NEILSON WAY UNIT 5313, SANTA MONICA, CA, 90409","Match","Non_Exact","2720 NEILSON WAY, SANTA MONICA, CA, 90405",650077525,"R"
437632,"2720 NILE ROAD","CHATTANOOGA","TN",37421,35.038473363,-85.1031215799999,132,"2720 NILE ROAD, CHATTANOOGA, TN, 37421","Match","Exact","2720 NILE RD, CHATTANOOGA, TN, 37421",59318135,"L"
437633,"2720 NORTH ST PAUL ST","DENVER","CO",80205,39.756022698,-104.951182237,133,"2720 NORTH ST PAUL ST, DENVER, CO, 80205","Match","Non_Exact","2720 SAINT PAUL ST, DENVER, CO, 80205",177310538,"R"
437634,"2720 NORTH UNIVERSITY BOULEVARD","SUNRISE","FL",33322,26.1594628030001,-80.257197702,134,"2720 NORTH UNIVERSITY BOULEVARD, SUNRISE, FL, 33322","Match","Non_Exact","2720 N UNIVERSITY DR, SUNRISE, FL, 33322",114703585,"R"
437635,"2720 NORTH WATERFORD","FLORISSANT","MO",63033,38.7987638810001,-90.302992004,135,"2720 NORTH WATERFORD, FLORISSANT, MO, 63033","Match","Non_Exact","2720 N WATERFORD DR, FLORISSANT, MO, 63033",100144562,"R"
437636,"2720 NORTH WAYNE","CHICAGO","IL",60614,41.9313644430001,-87.66231702,136,"2720 NORTH WAYNE, CHICAGO, IL, 60614","Match","Non_Exact","2720 N WAYNE AVE, CHICAGO, IL, 60614",605234708,"L"
437637,"2720 NW 13TH ST","OKLAHOMA CITY","OK",73107,35.4827824160001,-97.5619597739999,137,"2720 NW 13TH ST, OKLAHOMA CITY, OK, 73107","Match","Exact","2720 NW 13TH ST, OKLAHOMA CITY, OK, 73107",606084782,"L"
437638,"2720 NW 23RD ST","FORT LAUDERDALE","FL",33311,26.1552926590001,-80.1793233509999,138,"2720 NW 23RD ST, FORT LAUDERDALE, FL, 33311","Match","Exact","2720 NW 23RD ST, FORT LAUDERDALE, FL, 33311",114709341,"L"
437639,"2720 NW 57TH STREET","MIAMI","FL",33142,25.8266589560001,-80.2412677249999,139,"2720 NW 57TH STREET, MIAMI, FL, 33142","Match","Exact","2720 NW 57TH ST, MIAMI, FL, 33142",116287611,"L"
437640,"2720 NW 9TH PL","FORT LAUDERDALE","FL",33311,26.135653023,-80.17921649,140,"2720 NW 9TH PL, FORT LAUDERDALE, FL, 33311","Match","Exact","2720 NW 9TH PL, FORT LAUDERDALE, FL, 33311",114720641,"L"
437641,"2720 OAK RD APT 130","WALNUT CREEK","CA",94597,37.92318148,-122.058009919,141,"2720 OAK RD APT 130, WALNUT CREEK, CA, 94597","Match","Exact","2720 OAK RD, WALNUT CREEK, CA, 94597",616775663,"R"
437642,"2720 PARKHOUSE CT","SANDY HOOK","VA",NA,37.75428226,-77.895331775,142,"2720 PARKHOUSE CT, SANDY HOOK, VA, ","Match","Exact","2720 PARKHOUSE CT, SANDY HOOK, VA, 23153",73810499,"R"
437643,"2720 PAXTON PLACE","SPENCER","OK",73084,35.4972406050001,-97.373304011,143,"2720 PAXTON PLACE, SPENCER, OK, 73084","Match","Exact","2720 PAXTON PL, SPENCER, OK, 73084",100415762,"L"
437644,"2720 PEABODY AVE","DALLAS","TX",75215,32.7675267120001,-96.768350641,144,"2720 PEABODY AVE, DALLAS, TX, 75215","Match","Exact","2720 PEABODY AVE, DALLAS, TX, 75215",102920633,"R"
437645,"2720 PINEWOOD DRIVE","MADERA","CA",93637,36.9655905820001,-120.093792574,145,"2720 PINEWOOD DRIVE, MADERA, CA, 93637","Match","Exact","2720 PINEWOOD DR, MADERA, CA, 93637",102340268,"L"
437646,"2720 PORTLAND AVENUE","LOUISVILLE","KY",40212,38.2721658990001,-85.793055655,146,"2720 PORTLAND AVENUE, LOUISVILLE, KY, 40212","Match","Exact","2720 PORTLAND AVE, LOUISVILLE, KY, 40212",96840959,"L"
437647,"2720 PRADERA COURT","SANTA FE","NM",87505,35.641280785,-105.949448781,147,"2720 PRADERA COURT, SANTA FE, NM, 87505","Match","Non_Exact","2720 PRADERA, SANTA FE, NM, 87505",627309317,"R"
437648,"2720 QUEENSLAND LANE N","PLYMOUTH","MN",55447,45.0090260590001,-93.508002388,148,"2720 QUEENSLAND LANE N, PLYMOUTH, MN, 55447","Match","Non_Exact","2720 QUEENSLAND LN, PLYMOUTH, MN, 55447",43819099,"R"
437649,"2720 RANGER PLACE","DOUGLASVILLE","GA",30135,33.6870648510001,-84.665295446,149,"2720 RANGER PLACE, DOUGLASVILLE, GA, 30135","Match","Exact","2720 RANGER PL, DOUGLASVILLE, GA, 30135",618478487,"R"
437650,"2720 RD V","MOSCOW","KS",67952,37.271462668,-101.081226696,150,"2720 RD V, MOSCOW, KS, 67952","Match","Exact","2720 RD V, MOSCOW, KS, 67952",167104384,"L"
437651,"2720 RED LEAF DRIVE","LEXINGTON","KY",40509,38.016157811,-84.427246399,151,"2720 RED LEAF DRIVE, LEXINGTON, KY, 40509","Match","Exact","2720 RED LEAF DR, LEXINGTON, KY, 40509",31944907,"L"
437652,"2720 ROSA PARKS BLVD","DETROIT","MI",48216,42.3353701240001,-83.0742753389999,152,"2720 ROSA PARKS BLVD, DETROIT, MI, 48216","Match","Exact","2720 ROSA PARKS BLVD, DETROIT, MI, 48216",95478606,"R"
437653,"2720 RUE DE JARDIN SUITE 400","LAKE CHARLES","LA",70605,NA,NA,153,"2720 RUE DE JARDIN SUITE 400, LAKE CHARLES, LA, 70605","No_Match",NA,NA,NA,NA
437654,"2720 S 129TH AVE","TULSA","OK",74134,NA,NA,154,"2720 S 129TH AVE, TULSA, OK, 74134","No_Match",NA,NA,NA,NA
437655,"2720 S 52ND CT","KANSAS CITY","KS",66106,39.0519156060001,-94.6994396059999,155,"2720 S 52ND CT, KANSAS CITY, KS, 66106","Match","Exact","2720 S 52ND CT, KANSAS CITY, KS, 66106",91139278,"R"
437656,"2720 S ARLINGTON MILL DR 701","ARLINGTON","VA",22206,38.843358962,-77.091344378,156,"2720 S ARLINGTON MILL DR 701, ARLINGTON, VA, 22206","Match","Non_Exact","2720 S ARLINGTON MILL DR, ARLINGTON, VA, 22206",76471751,"R"
437657,"2720 S BALBOA DR","GILBERT","AZ",85295,33.301396713,-111.721987348,157,"2720 S BALBOA DR, GILBERT, AZ, 85295","Match","Exact","2720 S BALBOA DR, GILBERT, AZ, 85295",128852488,"R"
437658,"2720 S BLUE RIDGE TURNPIKE","ROCHELLE","VA",22738,NA,NA,158,"2720 S BLUE RIDGE TURNPIKE, ROCHELLE, VA, 22738","No_Match",NA,NA,NA,NA
437659,"2720 S BLVD APT 477","CHARLOTTE","NC",28209,35.200958631,-80.866286314,159,"2720 S BLVD APT 477, CHARLOTTE, NC, 28209","Match","Non_Exact","2720 SOUTH BLVD, CHARLOTTE, NC, 28209",70485354,"R"
437660,"2720 S CLINTON AVE","HAMILTON","NJ",8620,NA,NA,160,"2720 S CLINTON AVE, HAMILTON, NJ, 8620","No_Match",NA,NA,NA,NA
437661,"2720 S HIGHLAND AVE APT 324","LOMBARD","ID",60148,NA,NA,161,"2720 S HIGHLAND AVE APT 324, LOMBARD, ID, 60148","No_Match",NA,NA,NA,NA
437662,"2720 S HIGHLAND AVE","LOMBARD","IL",60148,41.83935516,-88.011245222,162,"2720 S HIGHLAND AVE, LOMBARD, IL, 60148","Match","Exact","2720 S HIGHLAND AVE, LOMBARD, IL, 60148",112534173,"R"
437663,"2720 S HOWELL AVE","MILWAUKEE","WI",53207,42.9949336490001,-87.904261445,163,"2720 S HOWELL AVE, MILWAUKEE, WI, 53207","Match","Exact","2720 S HOWELL AVE, MILWAUKEE, WI, 53207",77753486,"L"
437664,"2720 S STATE ST","SPRING","IL",62704,39.7700809950001,-89.6668840949999,164,"2720 S STATE ST, SPRING, IL, 62704","Match","Non_Exact","2720 S STATE ST, SPRINGFIELD, IL, 62704",640037922,"L"
437665,"2720 SAGE BLUFF COURT","RENO","NV",89523,39.5471700320001,-119.890883427,165,"2720 SAGE BLUFF COURT, RENO, NV, 89523","Match","Exact","2720 SAGE BLUFF CT, RENO, NV, 89523",614105326,"R"
437666,"2720 SHANANDOAH CT","MOBILE","AL",36695,30.6336742890001,-88.2206401299999,166,"2720 SHANANDOAH CT, MOBILE, AL, 36695","Match","Exact","2720 SHANANDOAH CT, MOBILE, AL, 36695",61898115,"R"
437667,"2720 SILVERTONE WAY","CONROE","TX",77304,30.295536466,-95.492018692,167,"2720 SILVERTONE WAY, CONROE, TX, 77304","Match","Non_Exact","2720 SILVERSTONE WAY, CONROE, TX, 77304",636292379,"L"
437668,"2720 SOUTH BLVD APT 160","CHARLOTTE","NC",28209,35.2009638380001,-80.8662827379999,168,"2720 SOUTH BLVD APT 160, CHARLOTTE, NC, 28209","Match","Exact","2720 SOUTH BLVD, CHARLOTTE, NC, 28209",70485354,"R"
437669,"2720 SOUTH STREET","TITUSVILLE","FL",32780,28.597656167,-80.8424030909999,169,"2720 SOUTH STREET, TITUSVILLE, FL, 32780","Match","Exact","2720 SOUTH ST, TITUSVILLE, FL, 32780",93924571,"R"
437670,"2720 SOUTHWIND DRIVE","NEW LENOX","IL",60451,41.4988037410001,-87.913323265,170,"2720 SOUTHWIND DRIVE, NEW LENOX, IL, 60451","Match","Exact","2720 SOUTHWIND DR, NEW LENOX, IL, 60451",111604593,"R"
437671,"2720 SW 123RD STREET","MOORE","OK",73170,35.344031091,-97.5607536209999,171,"2720 SW 123RD STREET, MOORE, OK, 73170","Match","Exact","2720 SW 123RD ST, MOORE, OK, 73170",99926971,"R"
437672,"2720 SW 123RD STREET","OKLAHOMA CITY","OK",73170,35.344031091,-97.5607536209999,172,"2720 SW 123RD STREET, OKLAHOMA CITY, OK, 73170","Match","Exact","2720 SW 123RD ST, OKLAHOMA CITY, OK, 73170",99926971,"R"
437673,"2720 TENNYSON ST","DENVER","CO",80212,39.7568600000001,-105.04401015,173,"2720 TENNYSON ST, DENVER, CO, 80212","Match","Exact","2720 TENNYSON ST, DENVER, CO, 80212",177299839,"R"
437674,"2720 TIDESWELL LANE","VIRGINIA BEACH","VA",23456,36.7419969200001,-76.0250215039999,174,"2720 TIDESWELL LANE, VIRGINIA BEACH, VA, 23456","Match","Exact","2720 TIDESWELL LN, VA BCH, VA, 23456",641525861,"R"
437675,"2720 TOLL GATE ROAD","PETERSBURG","TN",37144,35.314854419,-86.670179054,175,"2720 TOLL GATE ROAD, PETERSBURG, TN, 37144","Match","Exact","2720 TOLL GATE RD, PETERSBURG, TN, 37144",58974147,"L"
437676,"2720 TOM MILLER","AUSTIN","TX",78723,30.290010669,-97.70086023,176,"2720 TOM MILLER, AUSTIN, TX, 78723","Match","Non_Exact","2720 TOM MILLER ST, AUSTIN, TX, 78723",640827216,"R"
437677,"2720 TOPLEY AVE","LAS CRUCES","NM",88005,32.3378338210001,-106.779679648,177,"2720 TOPLEY AVE, LAS CRUCES, NM, 88005","Match","Exact","2720 TOPLEY AVE, LAS CRUCES, NM, 88005",189543241,"R"
437678,"2720 VANCE AVENUE","FORT WAYNE","IN",46805,41.104437234,-85.104821589,178,"2720 VANCE AVENUE, FORT WAYNE, IN, 46805","Match","Exact","2720 VANCE AVE, FORT WAYNE, IN, 46805",6380246,"R"
437679,"2720 W DILL DR","BOISE","ID",83705,43.5801702620001,-116.21559367,179,"2720 W DILL DR, BOISE, ID, 83705","Match","Exact","2720 DILL DR, BOISE, ID, 83705",647582264,"R"
437680,"2720 W HALLETT RD","HILLSDALE","MI",49242,41.912673888,-84.664425593,180,"2720 W HALLETT RD, HILLSDALE, MI, 49242","Match","Exact","2720 W HALLETT RD, HILLSDALE, MI, 49242",624888309,"L"
437681,"2720 W KEWANEE ST","TUCSON","AZ",85742,32.3741785600001,-111.026357941,181,"2720 W KEWANEE ST, TUCSON, AZ, 85742","Match","Exact","2720 W KEWANEE ST, TUCSON, AZ, 85742",121194607,"L"
437682,"2720 W MISSISSIPPI AVE","DENVER","CO",80219,39.6967361580001,-105.021290817,182,"2720 W MISSISSIPPI AVE, DENVER, CO, 80219","Match","Exact","2720 W MISSISSIPPI AVE, DENVER, CO, 80219",177328224,"L"
437683,"2720 W NATAL CIR","MESA","AZ",85202,33.3663081760001,-111.892289238,183,"2720 W NATAL CIR, MESA, AZ, 85202","Match","Exact","2720 W NATAL CIR, MESA, AZ, 85202",128239533,"R"
437684,"2720 W SERENE AVE APT 2035","LAS VEGAS","NV",89123,36.0210385080001,-115.178994561,184,"2720 W SERENE AVE APT 2035, LAS VEGAS, NV, 89123","Match","Non_Exact","2720 W SERENE AVE, LAS VEGAS, NV, 89123",201948631,"R"
437685,"2720 W SUMMERDALE 2W","CHICAGO","IL",60625,NA,NA,185,"2720 W SUMMERDALE 2W, CHICAGO, IL, 60625","No_Match",NA,NA,NA,NA
437686,"2720 W TICHENOR ST","RANCHO DOMINGUEZ","CA",90220,33.8833067300001,-118.256655907,186,"2720 W TICHENOR ST, RANCHO DOMINGUEZ, CA, 90220","Match","Exact","2720 W TICHENOR ST, RANCHO DOMINGUEZ, CA, 90220",141680202,"L"
437687,"2720 WAKEFIELD DR APT A","JONESBORO","AR",72401,35.7757940590001,-90.674070081,187,"2720 WAKEFIELD DR APT A, JONESBORO, AR, 72401","Match","Non_Exact","2720 WAKEFIELD DR, JONESBORO, AR, 72404",46928855,"R"
437688,"2720 WASHINGTON AVE APT D","PLOVER","WI",54467,44.4568225740001,-89.5399244339999,188,"2720 WASHINGTON AVE APT D, PLOVER, WI, 54467","Match","Exact","2720 WASHINGTON AVE, PLOVER, WI, 54467",126798852,"R"
437689,"2720 WASHINGTON DRIVE SUITE 110","NORMAN","OK",73069,NA,NA,189,"2720 WASHINGTON DRIVE SUITE 110, NORMAN, OK, 73069","No_Match",NA,NA,NA,NA
437690,"2720 WEST PARK ROW BLVD","CORSICANA","TX",75110,32.075748576,-96.489719726,190,"2720 WEST PARK ROW BLVD, CORSICANA, TX, 75110","Match","Exact","2720 W PARK ROW BLVD, CORSICANA, TX, 75110",647810364,"L"
437691,"2720 WEST PULLMAN ROAD","MOSCOW","ID",83843,46.7324228860001,-117.038652244,191,"2720 WEST PULLMAN ROAD, MOSCOW, ID, 83843","Match","Exact","2720 W PULLMAN RD, MOSCOW, ID, 83843",193863847,"L"
437692,"2720 WEST RED ROBIN COURT","LEHI","UT",84043,NA,NA,192,"2720 WEST RED ROBIN COURT, LEHI, UT, 84043","No_Match",NA,NA,NA,NA
437693,"2720 WEST SERENE AVE STE 2059","LV","NV",89123,36.0210385080001,-115.178989694,193,"2720 WEST SERENE AVE STE 2059, LV, NV, 89123","Match","Exact","2720 W SERENE AVE, LAS VEGAS, NV, 89123",201948631,"R"
437694,"2720 WESTWOOD PARKWAY","FLINT","MI",48503,42.99551387,-83.7203410989999,194,"2720 WESTWOOD PARKWAY, FLINT, MI, 48503","Match","Exact","2720 WESTWOOD PKWY, FLINT, MI, 48503",69573892,"R"
437695,"2720 WINDEMERE DRIVE","VALDOSTA","GA",31602,30.8675343360001,-83.2934807,195,"2720 WINDEMERE DRIVE, VALDOSTA, GA, 31602","Match","Non_Exact","2720 WINDERMERE DR, VALDOSTA, GA, 31602",87731358,"L"
437696,"2720 WOOD ST","SARASOTA","FL",34237,27.3286613080001,-82.515685783,196,"2720 WOOD ST, SARASOTA, FL, 34237","Match","Exact","2720 WOOD ST, SARASOTA, FL, 34237",16427035,"R"
437697,"2720 WOODLAWN DR","WINTER HAVEN","FL",33881,28.05596769,-81.75237708,197,"2720 WOODLAWN DR, WINTER HAVEN, FL, 33881","Match","Exact","2720 WOODLAWN DR, WINTER HAVEN, FL, 33881",104822814,"L"
437698,"2720 WYOMING STREET","SAINT LOUIS","MO",63118,38.5972182900001,-90.227696828,198,"2720 WYOMING STREET, SAINT LOUIS, MO, 63118","Match","Exact","2720 WYOMING ST, SAINT LOUIS, MO, 63118",107602322,"L"
437699,"2720","PORT ARTHUR","TX",77640,NA,NA,199,"2720, PORT ARTHUR, TX, 77640","No_Match",NA,NA,NA,NA
437700,"27200 FRANKLIN ROAD A120","SOUTHFIELD","MI",48034,42.4885885460001,-83.293515538,200,"27200 FRANKLIN ROAD A120, SOUTHFIELD, MI, 48034","Match","Exact","27200 FRANKLIN RD, SOUTHFIELD, MI, 48034",69815187,"R"
437701,"27200 PARKVIEW BLVD UNIT 610","WARREN","MI",48092,42.493012159,-83.0826544929999,201,"27200 PARKVIEW BLVD UNIT 610, WARREN, MI, 48092","Match","Exact","27200 PARKVIEW BLVD, WARREN, MI, 48092",647588568,"R"
437702,"27200 S FAMULINER RD","HARRISONVILLE","MO",64701,38.619623975,-94.228263084,202,"27200 S FAMULINER RD, HARRISONVILLE, MO, 64701","Match","Exact","27200 S FAMULINER RD, HARRISONVILLE, MO, 64701",100905780,"L"
437703,"27200 TREMAINE DRIVE APT 20707","EUCLID","OH",44032,41.5917215630001,-81.493358287,203,"27200 TREMAINE DRIVE APT 20707, EUCLID, OH, 44032","Match","Non_Exact","27200 TREMAINE DR, EUCLID, OH, 44132",61148948,"R"
437704,"27200 TUNGSTEN","EUCLID","OH",44132,41.5953513790001,-81.497056038,204,"27200 TUNGSTEN, EUCLID, OH, 44132","Match","Non_Exact","27200 TUNGSTEN RD, EUCLID, OH, 44132",61133326,"R"
437705,"27200 WASHINGTON STREET","LACOMBE","LA",70445,30.320898308,-89.952852572,205,"27200 WASHINGTON STREET, LACOMBE, LA, 70445","Match","Exact","27200 WASHINGTON ST, LACOMBE, LA, 70445",111245469,"L"
437706,"27201 FIREBUSH DR","WESLEY CHAPEL","FL",33544,28.20216472,-82.3667948409999,206,"27201 FIREBUSH DR, WESLEY CHAPEL, FL, 33544","Match","Exact","27201 FIREBUSH DR, WESLEY CHAPEL, FL, 33544",634072909,"L"
437707,"27201 IBIS COVE COURT","BONITA SPRINGS","FL",34134,26.344879303,-81.8277548,207,"27201 IBIS COVE COURT, BONITA SPRINGS, FL, 34134","Match","Exact","27201 IBIS COVE CT, BONITA SPGS, FL, 34134",118051770,"L"
437708,"27201 PAULA LN","CONROE","TX",77385,30.160944806,-95.446798787,208,"27201 PAULA LN, CONROE, TX, 77385","Match","Exact","27201 PAULA LN, CONROE, TX, 77385",79283150,"L"
437709,"27201 PICO CANYON ROAD","STEVENSON RANCH","CA",91381,34.381157532,-118.617537448,209,"27201 PICO CANYON ROAD, STEVENSON RANCH, CA, 91381","Match","Non_Exact","27201 W PICO CANYON RD, STEVENSON RANCH, CA, 91381",142810879,"L"
437710,"27201 RYAN ROAD","WARREN","MI",48092,42.4926863330001,-83.06699603,210,"27201 RYAN ROAD, WARREN, MI, 48092","Match","Exact","27201 RYAN RD, WARREN, MI, 48092",110669935,"L"
437711,"27201 TOURNEY RD  201 G","VALENCIA","CA",91355,34.416962803,-118.576534586,211,"27201 TOURNEY RD  201 G, VALENCIA, CA, 91355","Match","Exact","27201 TOURNEY RD, VALENCIA, CA, 91355",643515456,"R"
437712,"27201 TOURNEY ROAD SUITE 201G","VALENCIA","CA",91355,34.416962803,-118.576534586,212,"27201 TOURNEY ROAD SUITE 201G, VALENCIA, CA, 91355","Match","Exact","27201 TOURNEY RD, VALENCIA, CA, 91355",643515456,"R"
437713,"27201PUEBLO NUEVO","MISSION VIEJO","CA",92691,NA,NA,213,"27201PUEBLO NUEVO, MISSION VIEJO, CA, 92691","No_Match",NA,NA,NA,NA
437714,"27202 EAST 1650 STREET","GENESEO","IL",61254,NA,NA,214,"27202 EAST 1650 STREET, GENESEO, IL, 61254","No_Match",NA,NA,NA,NA
437715,"27202 HITCHING POST LANE","SALISBURY","MD",21801,38.3593483440001,-75.6714989549999,215,"27202 HITCHING POST LANE, SALISBURY, MD, 21801","Match","Exact","27202 HITCHING POST LN, SALISBURY, MD, 21801",114464684,"R"
437716,"27202 THOMAS EDWARD DRIVE","ATHENS","AL",35613,34.832681043,-86.835637936,216,"27202 THOMAS EDWARD DRIVE, ATHENS, AL, 35613","Match","Exact","27202 THOMAS EDWARD DR, ATHENS, AL, 35613",95272935,"L"
437717,"27203 FORDHAM DRIVE","WESLEY CHAPEL","FL",33544,28.195347392,-82.3654771339999,217,"27203 FORDHAM DRIVE, WESLEY CHAPEL, FL, 33544","Match","Exact","27203 FORDHAM DR, WESLEY CHAPEL, FL, 33544",624648479,"L"
437718,"27203 SABLE OAKS LN","CYPRESS","TX",77433,29.944276931,-95.7156116739999,218,"27203 SABLE OAKS LN, CYPRESS, TX, 77433","Match","Exact","27203 SABLE OAKS LN, CYPRESS, TX, 77433",628044905,"L"
437719,"27204 CANYON CREST COURT","ARLINGTON","TX",76006,NA,NA,219,"27204 CANYON CREST COURT, ARLINGTON, TX, 76006","No_Match",NA,NA,NA,NA
437720,"27204 PASEO LOMITA","SAN JUAN CAPISTRANO","CA",92675,33.489681967,-117.654635068,220,"27204 PASEO LOMITA, SAN JUAN CAPISTRANO, CA, 92675","Match","Non_Exact","27204 PSO LOMITA, SAN JUAN CAPISTRANO, CA, 92675",144391341,"L"
437721,"27204 S HWY 125 UNIT 8","AFTON","OK",74331,36.621570569,-94.873406785,221,"27204 S HWY 125 UNIT 8, AFTON, OK, 74331","Match","Non_Exact","27204 STATE HWY 125, AFTON, OK, 74331",613660330,"R"
437722,"27205 LA JOLLA WAY","WESLEY CHAPEL","FL",33544,28.178950935,-82.36673301,222,"27205 LA JOLLA WAY, WESLEY CHAPEL, FL, 33544","Match","Exact","27205 LA JOLLA WAY, WESLEY CHAPEL, FL, 33544",86401796,"R"
437723,"27206 SAXON MEADOW LANE","CYPRESS","TX",77433,29.9489567300001,-95.715859956,223,"27206 SAXON MEADOW LANE, CYPRESS, TX, 77433","Match","Exact","27206 SAXON MEADOW LN, CYPRESS, TX, 77433",637898621,"L"
437724,"27207 LAHSER RD 250","SOUTHFIELD","MI",48034,42.4883426310001,-83.261423146,224,"27207 LAHSER RD 250, SOUTHFIELD, MI, 48034","Match","Exact","27207 LAHSER RD, SOUTHFIELD, MI, 48034",641240845,"L"
437725,"27208 NW 10TH AVENUE","VANCOUVER","OR",98642,NA,NA,225,"27208 NW 10TH AVENUE, VANCOUVER, OR, 98642","No_Match",NA,NA,NA,NA
437726,"27208 NW 10TH AVENUE","VANCOUVER","WA",98642,NA,NA,226,"27208 NW 10TH AVENUE, VANCOUVER, WA, 98642","No_Match",NA,NA,NA,NA
437727,"27209 PERKINS RD","MADERA","CA",93637,36.9364836510001,-120.052809513,227,"27209 PERKINS RD, MADERA, CA, 93637","Match","Exact","27209 PERKINS RD, MADERA, CA, 93637",102339036,"R"
437728,"2721 10TH AVE EAST","SEATTLE","WA",98102,47.6447690630001,-122.319598157,228,"2721 10TH AVE EAST, SEATTLE, WA, 98102","Match","Exact","2721 10TH AVE E, SEATTLE, WA, 98102",186583577,"L"
437729,"2721 ADAMS MILL RD NW - 104","WASHINGTON","DC",20009,38.92468825,-77.044720102,229,"2721 ADAMS MILL RD NW - 104, WASHINGTON, DC, 20009","Match","Exact","2721 ADAMS MILL RD NW, WASHINGTON, DC, 20009",76222711,"R"
437730,"2721 ALIDA STREET","OAKLAND","CA",94602,37.8054757080001,-122.202443042,230,"2721 ALIDA STREET, OAKLAND, CA, 94602","Match","Exact","2721 ALIDA ST, OAKLAND, CA, 94602",125003972,"R"
437731,"2721 ARBOR DRIVE","MCHENRY","IL",60050,42.357083199,-88.2531423139999,231,"2721 ARBOR DRIVE, MCHENRY, IL, 60050","Match","Exact","2721 ARBOR DR, MCHENRY, IL, 60050",119869421,"R"
437732,"2721 ARMFIELD RD","HILLSBOROUGH","NC",27278,36.0720046540001,-79.0547076989999,232,"2721 ARMFIELD RD, HILLSBOROUGH, NC, 27278","Match","Exact","2721 ARMFIELD RD, HILLSBOROUGH, NC, 27278",72377298,"R"
437733,"2721 ASHWOOD CT","ASHLAND","OH",44805,40.837112555,-82.330818747,233,"2721 ASHWOOD CT, ASHLAND, OH, 44805","Match","Exact","2721 ASHWOOD CT, ASHLAND, OH, 44805",613633927,"R"
437734,"2721 B HIGHLAND AVENUE","NATIONAL CITY","CA",91950,NA,NA,234,"2721 B HIGHLAND AVENUE, NATIONAL CITY, CA, 91950","Tie",NA,NA,NA,NA
437735,"2721 BASINGSTOKE LANE","BRYANS ROAD","MD",20616,38.6381778040001,-77.076318193,235,"2721 BASINGSTOKE LANE, BRYANS ROAD, MD, 20616","Match","Exact","2721 BASINGSTOKE LN, BRYANS ROAD, MD, 20616",635832270,"R"
437736,"2721 BEDDARD ROAD","GRIMESLAND","NC",27837,35.5566362980001,-77.282559441,236,"2721 BEDDARD ROAD, GRIMESLAND, NC, 27837","Match","Exact","2721 BEDDARD RD, GRIMESLAND, NC, 27837",633690139,"L"
437737,"2721 BENT BROOK DRIVE","MESQUITE","TX",75181,32.7379235070001,-96.540787073,237,"2721 BENT BROOK DRIVE, MESQUITE, TX, 75181","Match","Exact","2721 BENT BROOK DR, MESQUITE, TX, 75181",103166344,"R"
437738,"2721 BIRD VIEW ROAD","WESTMINSTER","MD",21157,39.4976332260001,-76.949874924,238,"2721 BIRD VIEW ROAD, WESTMINSTER, MD, 21157","Match","Exact","2721 BIRD VIEW RD, WESTMINSTER, MD, 21157",61782609,"L"
437739,"2721 BRADBURY ST","MERAUX","LA",70075,29.938726816,-89.9203296599999,239,"2721 BRADBURY ST, MERAUX, LA, 70075","Match","Exact","2721 BRADBURY ST, MERAUX, LA, 70075",111188034,"R"
437740,"2721 BRAEBURN WAY","WOODSTOCK","IL",60098,42.2870668950001,-88.446423895,240,"2721 BRAEBURN WAY, WOODSTOCK, IL, 60098","Match","Exact","2721 BRAEBURN WAY, WOODSTOCK, IL, 60098",612929875,"L"
437741,"2721 CANTON LANE","SANDY","UT",84094,NA,NA,241,"2721 CANTON LANE, SANDY, UT, 84094","No_Match",NA,NA,NA,NA
437742,"2721 CANYON CREEK DR","STOCKTON","CA",95207,37.998371166,-121.345923832,242,"2721 CANYON CREEK DR, STOCKTON, CA, 95207","Match","Exact","2721 CANYON CREEK DR, STOCKTON, CA, 95207",133842991,"R"
437743,"2721 CASA VERDE DR","CERES","CA",95307,37.593966391,-120.944103038,243,"2721 CASA VERDE DR, CERES, CA, 95307","Match","Exact","2721 CASA VERDE DR, CERES, CA, 95307",102645493,"L"
437744,"2721 CATHERINE LANE","SPRINGFIELD","IL",62703,39.7667548960001,-89.615885737,244,"2721 CATHERINE LANE, SPRINGFIELD, IL, 62703","Match","Exact","2721 CATHERINE LN, SPRINGFIELD, IL, 62703",97350424,"R"
437745,"2721 CHARIOT LANE","OLYMPIA FIELDS","IL",60461,41.514839749,-87.6825153359999,245,"2721 CHARIOT LANE, OLYMPIA FIELDS, IL, 60461","Match","Exact","2721 CHARIOT LN, OLYMPIA FIELDS, IL, 60461",111710371,"R"
437746,"2721 CHARLES MARTIN HALL RD","ROCKDALE","TX",76567,NA,NA,246,"2721 CHARLES MARTIN HALL RD, ROCKDALE, TX, 76567","No_Match",NA,NA,NA,NA
437747,"2721 CHILI AVE","ROCHESTER","NY",14624,43.122201412,-77.7105271569999,247,"2721 CHILI AVE, ROCHESTER, NY, 14624","Match","Exact","2721 CHILI AVE, ROCHESTER, NY, 14624",14530516,"L"
437748,"2721 CIRCLE VIEW DRIVE","KINGSPORT","TN",37664,36.5370068240001,-82.512158246,248,"2721 CIRCLE VIEW DRIVE, KINGSPORT, TN, 37664","Match","Exact","2721 CIRCLE VW, KINGSPORT, TN, 37664",127870857,"L"
437749,"2721 COLUMBUS AVE S","MINNEAPOLIS","MN",55407,44.9532875290001,-93.2638587069999,249,"2721 COLUMBUS AVE S, MINNEAPOLIS, MN, 55407","Match","Exact","2721 COLUMBUS AVE S, MINNEAPOLIS, MN, 55407",43632752,"L"
437750,"2721 CUSTER AVENUE","BILLINGS","MT",59102,45.776130956,-108.584629828,250,"2721 CUSTER AVENUE, BILLINGS, MT, 59102","Match","Exact","2721 CUSTER AVE, BILLINGS, MT, 59102",181474293,"R"
437751,"2721 DALE ST","SAN DIEGO","CA",92104,32.7341555030001,-117.13038831,251,"2721 DALE ST, SAN DIEGO, CA, 92104","Match","Exact","2721 DALE ST, SAN DIEGO, CA, 92104",195749466,"R"
437752,"2721 DARLING HILL ROAD","NEWPORT","VT",5855,44.9790873110001,-72.173670054,252,"2721 DARLING HILL ROAD, NEWPORT, VT, 5855","Match","Exact","2721 DARLING HILL RD, NEWPORT, VT, 05855",196778150,"R"
437753,"2721 DEERWOOD LANE","ATLANTA","GA",30331,33.6729723180001,-84.5154423989999,253,"2721 DEERWOOD LANE, ATLANTA, GA, 30331","Match","Non_Exact","2721 DEERWOOD LN SW, ATLANTA, GA, 30331",643342137,"R"
437754,"2721 DUVALL RIDGE ROAD","HYATTSVILLE","MD",20785,NA,NA,254,"2721 DUVALL RIDGE ROAD, HYATTSVILLE, MD, 20785","No_Match",NA,NA,NA,NA
437755,"2721 E BEVERLY LN","PHOENIX","AZ",85032,33.633889798,-112.023312059,255,"2721 E BEVERLY LN, PHOENIX, AZ, 85032","Match","Exact","2721 E BEVERLY LN, PHOENIX, AZ, 85032",128185065,"R"
437756,"2721 E MARSHALL ST","TULSA","OK",74110,36.172526937,-95.951608487,256,"2721 E MARSHALL ST, TULSA, OK, 74110","Match","Exact","2721 E MARSHALL ST, TULSA, OK, 74110",166439476,"L"
437757,"2721 E PLEASANT","DAVENPORT","IA",52803,41.539446066,-90.5364298919999,257,"2721 E PLEASANT, DAVENPORT, IA, 52803","Match","Non_Exact","2721 E PLEASANT ST, DAVENPORT, IA, 52803",122727618,"R"
437758,"2721 E PURDUE AVE","PHOENIX","AZ",85028,33.574533167,-112.023264435,258,"2721 E PURDUE AVE, PHOENIX, AZ, 85028","Match","Exact","2721 E PURDUE AVE, PHOENIX, AZ, 85028",128218310,"R"
437759,"2721 E SLEEPY HOLLOW DRIVE","WASILLA","AK",99654,61.653558795,-149.381225116,259,"2721 E SLEEPY HOLLOW DRIVE, WASILLA, AK, 99654","Match","Non_Exact","2721 E SLEEPY HOLLOW CIR, WASILLA, AK, 99654",191063274,"L"
437760,"2721 EAST 16TH STREET","DES MOINES","IA",50316,41.619822006,-93.5944642859999,260,"2721 EAST 16TH STREET, DES MOINES, IA, 50316","Match","Exact","2721 E 16TH ST, DES MOINES, IA, 50316",632930953,"R"
437761,"2721 EAST PLEASANT","DAVENPORT","IA",52803,41.539446211,-90.536431491,261,"2721 EAST PLEASANT, DAVENPORT, IA, 52803","Match","Non_Exact","2721 E PLEASANT ST, DAVENPORT, IA, 52803",122727618,"R"
437762,"2721 EAST TOWNSHIP ROAD 148","TIFFIN","OH",44883,NA,NA,262,"2721 EAST TOWNSHIP ROAD 148, TIFFIN, OH, 44883","No_Match",NA,NA,NA,NA
437763,"2721 EL OESTE DR","HERMOSA BEACH","CA",90254,33.8736261620001,-118.397156479,263,"2721 EL OESTE DR, HERMOSA BEACH, CA, 90254","Match","Exact","2721 EL OESTE DR, HERMOSA BEACH, CA, 90254",141582598,"L"
437764,"2721 ERIE AVENUE","CINCINNATI","OH",45208,39.13967669,-84.443091156,264,"2721 ERIE AVENUE, CINCINNATI, OH, 45208","Match","Exact","2721 ERIE AVE, CINCINNATI, OH, 45208",103931121,"R"
437765,"2721 FLORAL VALLEY DRIVE","DACULA","GA",30019,34.0566720570001,-83.8971407889999,265,"2721 FLORAL VALLEY DRIVE, DACULA, GA, 30019","Match","Exact","2721 FLORAL VALLEY DR, DACULA, GA, 30019",630009865,"L"
437766,"2721 FOREST CLUB DRIVE","PLANT CITY","FL",33566,27.985937065,-82.158732409,266,"2721 FOREST CLUB DRIVE, PLANT CITY, FL, 33566","Match","Exact","2721 FOREST CLUB DR, PLANT CITY, FL, 33566",104700940,"L"
437767,"2721 FORSYTH RD NO 353","WINTER PARK","FL",32792,28.587653892,-81.2946521439999,267,"2721 FORSYTH RD NO 353, WINTER PARK, FL, 32792","Match","Non_Exact","2721 FORSYTH RD, WINTER PARK, FL, 32792",94292681,"R"
437768,"2721 FOUNDERS DR / CAMPUS BOX 7609","RALEIGH","NC",27695,NA,NA,268,"2721 FOUNDERS DR / CAMPUS BOX 7609, RALEIGH, NC, 27695","No_Match",NA,NA,NA,NA
437769,"2721 FOUNDERS DRIVE","RALEIGH","NC",27695,NA,NA,269,"2721 FOUNDERS DRIVE, RALEIGH, NC, 27695","No_Match",NA,NA,NA,NA
437770,"2721 FOUNTAIN PLAZA BLVD STE D","EDINBURG","TX",78539,26.2777185730001,-98.197655297,270,"2721 FOUNTAIN PLAZA BLVD STE D, EDINBURG, TX, 78539","Match","Exact","2721 FOUNTAIN PLAZA BLVD, EDINBURG, TX, 78539",632512072,"L"
437771,"2721 FRANKLIN AVE NE","CEDAR RAPIDS","IA",52402,42.004858776,-91.641050462,271,"2721 FRANKLIN AVE NE, CEDAR RAPIDS, IA, 52402","Match","Exact","2721 FRANKLIN AVE NE, CEDAR RAPIDS, IA, 52402",17022057,"R"
437772,"2721 GA HWY 96","FORT VALLEY","GA",31030,32.5584170920001,-83.9237208499999,272,"2721 GA HWY 96, FORT VALLEY, GA, 31030","Match","Non_Exact","2721 STATE RTE 96, FORT VALLEY, GA, 31030",93719480,"L"
437773,"2721 GARDENS DRIVE APT 302","LAKE WORTH","FL",33461,NA,NA,273,"2721 GARDENS DRIVE APT 302, LAKE WORTH, FL, 33461","No_Match",NA,NA,NA,NA
437774,"2721 GEORGE WHITE CIRCLE","GREENWOOD","MS",38930,33.493967223,-90.147878297,274,"2721 GEORGE WHITE CIRCLE, GREENWOOD, MS, 38930","Match","Exact","2721 GEORGE WHITE CIR, GREENWOOD, MS, 38930",1039913,"L"
437775,"2721 HAMPSHIRE","ANN ARBOR","MI",48104,42.2482969500001,-83.702967746,275,"2721 HAMPSHIRE, ANN ARBOR, MI, 48104","Match","Non_Exact","2721 HAMPSHIRE RD, ANN ARBOR, MI, 48104",26016584,"L"
437776,"2721 HANNAH BLVD APT 9123","EAST LANSING","MI",48823,42.7188754850001,-84.452072559,276,"2721 HANNAH BLVD APT 9123, EAST LANSING, MI, 48823","Match","Exact","2721 HANNAH BLVD, EAST LANSING, MI, 48823",17522048,"R"
437777,"2721 HANOVER CIRCLE APT 3","BIRMINGHAM","AL",35205,33.505799176,-86.78583408,277,"2721 HANOVER CIRCLE APT 3, BIRMINGHAM, AL, 35205","Match","Non_Exact","2721 HANOVER CIR S, BIRMINGHAM, AL, 35205",81720954,"L"
437778,"2721 HANOVER CIRCLE","BILLINGS","MT",59106,45.7971788670001,-108.649402692,278,"2721 HANOVER CIRCLE, BILLINGS, MT, 59106","Match","Exact","2721 HANOVER CIR, BILLINGS, MT, 59106",645329012,"R"
437779,"2721 HIBISCUS STREET","SARASOTA","FL",34239,27.3117761560001,-82.515227236,279,"2721 HIBISCUS STREET, SARASOTA, FL, 34239","Match","Exact","2721 HIBISCUS ST, SARASOTA, FL, 34239",640384480,"L"
437780,"2721 HIGHLAWN TERRACE","FORT WORTH","TX",76133,32.6401696250001,-97.3608980819999,280,"2721 HIGHLAWN TERRACE, FORT WORTH, TX, 76133","Match","Exact","2721 HIGHLAWN TER, FORT WORTH, TX, 76133",640620271,"R"
437781,"2721 HOLLYVIEW CT","LOS ANGELES","CA",90068,34.1185615050001,-118.342282383,281,"2721 HOLLYVIEW CT, LOS ANGELES, CA, 90068","Match","Non_Exact","2721 N HOLLYVIEW CT, LOS ANGELES, CA, 90068",241141031,"L"
437782,"2721 JIMMIE DEAN DR","MARRERO","LA",70072,29.8303663470001,-90.106715406,282,"2721 JIMMIE DEAN DR, MARRERO, LA, 70072","Match","Exact","2721 JIMMIE DEAN DR, MARRERO, LA, 70072",93510046,"L"
437783,"2721 JUSTIN PL","SPENCER","OK",73084,35.4972801050001,-97.371490259,283,"2721 JUSTIN PL, SPENCER, OK, 73084","Match","Exact","2721 JUSTIN PL, SPENCER, OK, 73084",100415773,"L"
437784,"2721 KANANI","LIHUE","HI",96766,21.967880069,-159.373636681,284,"2721 KANANI, LIHUE, HI, 96766","Match","Non_Exact","2721 KANANI ST, LIHUE, HI, 96766",203390576,"L"
437785,"2721 KENDRIDGE LN","AURORA","IL",60504,41.765308399,-88.249327544,285,"2721 KENDRIDGE LN, AURORA, IL, 60504","Match","Non_Exact","2721 KENDRIDGE LN, AURORA, IL, 60502",112668375,"L"
437786,"2721 LANDINGS POINT LOOP UNIT 104","WOODBRIDGE","VA",22191,38.6121919550001,-77.295941765,286,"2721 LANDINGS POINT LOOP UNIT 104, WOODBRIDGE, VA, 22191","Match","Exact","2721 LANDINGS PT LP, WOODBRIDGE, VA, 22191",207143967,"R"
437787,"2721 LAWNDALE DR","TUPELO","MS",38801,34.218921563,-88.728715173,287,"2721 LAWNDALE DR, TUPELO, MS, 38801","Match","Exact","2721 LAWNDALE DR, TUPELO, MS, 38801",611045395,"L"
437788,"2721 LINCOLN WAY A202","LYNNWOOD","WA",98087,47.872606637,-122.270672196,288,"2721 LINCOLN WAY A202, LYNNWOOD, WA, 98087","Match","Exact","2721 LINCOLN WAY, LYNNWOOD, WA, 98087",187753182,"R"
437789,"2721 LINCOLN WAY D305","LYNNWOOD","WA",98087,47.872606637,-122.270672196,289,"2721 LINCOLN WAY D305, LYNNWOOD, WA, 98087","Match","Exact","2721 LINCOLN WAY, LYNNWOOD, WA, 98087",187753182,"R"
437790,"2721 LOCKRIDGE DR","LAWRENCE","KS",66047,38.933965905,-95.271228666,290,"2721 LOCKRIDGE DR, LAWRENCE, KS, 66047","Match","Exact","2721 LOCKRIDGE DR, LAWRENCE, KS, 66047",17684433,"R"
437791,"2721 MARSH DRIVE","SAN RAMON","CA",94583,37.7681426020001,-121.981193184,291,"2721 MARSH DRIVE, SAN RAMON, CA, 94583","Match","Exact","2721 MARSH DR, SAN RAMON, CA, 94583",192065772,"R"
437792,"2721 MCMURRAY","MEMPHIS","TN",38118,35.0742702050001,-89.9461221079999,292,"2721 MCMURRAY, MEMPHIS, TN, 38118","Match","Non_Exact","2721 MCMURRAY ST, MEMPHIS, TN, 38118",72920125,"R"
437793,"2721 MERIDIAN LANE","BELLEVILLE","MO",62221,NA,NA,293,"2721 MERIDIAN LANE, BELLEVILLE, MO, 62221","No_Match",NA,NA,NA,NA
437794,"2721 MILLERS WAY DRIVE","ELLICOTT CITY","MD",21043,39.303157024,-76.809004757,294,"2721 MILLERS WAY DRIVE, ELLICOTT CITY, MD, 21043","Match","Exact","2721 MILLERS WAY DR, ELLICOTT CITY, MD, 21043",635795791,"L"
437795,"2721 MILLERS WAY DRIVE","ELLICOTT CITY","MD",21207,39.303157024,-76.809004757,295,"2721 MILLERS WAY DRIVE, ELLICOTT CITY, MD, 21207","Match","Non_Exact","2721 MILLERS WAY DR, ELLICOTT CITY, MD, 21043",635795791,"L"
437796,"2721 MISTY BROOK LANE","CORDOVA","TN",38016,35.1997785660001,-89.743732788,296,"2721 MISTY BROOK LANE, CORDOVA, TN, 38016","Match","Exact","2721 MISTY BROOK LN, CORDOVA, TN, 38016",72954755,"L"
437797,"2721 MOORGATE RD","DUNDALK","MD",21222,39.2634354350001,-76.505591096,297,"2721 MOORGATE RD, DUNDALK, MD, 21222","Match","Exact","2721 MOORGATE RD, DUNDALK, MD, 21222",191488667,"R"
437798,"2721 N 7TH AVE","PHOENIX","AZ",85007,33.477912965,-112.082942427,298,"2721 N 7TH AVE, PHOENIX, AZ, 85007","Match","Exact","2721 N 7TH AVE, PHOENIX, AZ, 85007",128211255,"R"
437799,"2721 NATALIA DR","COLUMBUS","OH",43232,39.917749072,-82.888396701,299,"2721 NATALIA DR, COLUMBUS, OH, 43232","Match","Exact","2721 NATALIA DR, COLUMBUS, OH, 43232",632016348,"R"
437800,"2721 NORTH MOCKINGBIRD LN","MIDLOTHIAN","TX",76065,32.5117623680001,-96.9252572999999,300,"2721 NORTH MOCKINGBIRD LN, MIDLOTHIAN, TX, 76065","Match","Exact","2721 N MOCKINGBIRD LN, MIDLOTHIAN, TX, 76065",627662669,"R"
437801,"2721 NW 164TH TER","EDMOND","OK",73013,35.6380075610001,-97.563199501,301,"2721 NW 164TH TER, EDMOND, OK, 73013","Match","Exact","2721 NW 164TH TER, EDMOND, OK, 73013",100446211,"R"
437802,"2721 OCEAN VALLEY RD","ATLANTA","GA",30349,33.589397154,-84.478362557,302,"2721 OCEAN VALLEY RD, ATLANTA, GA, 30349","Match","Exact","2721 OCEAN VALLEY RD, ATLANTA, GA, 30349",17349014,"R"
437803,"2721 OHIO ST","MELBOURNE","FL",32904,28.0635508870001,-80.6994954309999,303,"2721 OHIO ST, MELBOURNE, FL, 32904","Match","Exact","2721 OHIO ST, MELBOURNE, FL, 32904",93895958,"R"
437804,"2721 PARKWAY TRAIL","LITHONIA","GA",30058,33.7149266650001,-84.1186320209999,304,"2721 PARKWAY TRAIL, LITHONIA, GA, 30058","Match","Exact","2721 PARKWAY TRL, LITHONIA, GA, 30058",632500233,"L"
437805,"2721 PASTEL AVE","HENDERSON","NV",89074,36.0463566450001,-115.104700569,305,"2721 PASTEL AVE, HENDERSON, NV, 89074","Match","Exact","2721 PASTEL AVE, HENDERSON, NV, 89074",201910720,"L"
437806,"2721 PEARTREE RD","ELIZABETH CITY","NC",27907,36.2129991510001,-76.185881024,306,"2721 PEARTREE RD, ELIZABETH CITY, NC, 27907","Match","Non_Exact","2721 PEARTREE RD, ELIZABETH CITY, NC, 27909",18599259,"L"
437807,"2721 PINEBROOK ROAD","HYATTSVILLE","MD",20785,NA,NA,307,"2721 PINEBROOK ROAD, HYATTSVILLE, MD, 20785","No_Match",NA,NA,NA,NA
437808,"2721 PISCATAWAY RUN DRIVE","ODENTON","MD",21113,39.0579198940001,-76.71599213,308,"2721 PISCATAWAY RUN DRIVE, ODENTON, MD, 21113","Match","Exact","2721 PISCATAWAY RUN DR, ODENTON, MD, 21113",68214766,"L"
437809,"2721 PLAZA DE VIOLA","SIERRA VISTA","AZ",85640,31.4992691150001,-110.270076776,309,"2721 PLAZA DE VIOLA, SIERRA VISTA, AZ, 85640","Match","Non_Exact","2721 PLZ DE VIOLA, SIERRA VISTA, AZ, 85650",120989143,"R"
437810,"2721 PRADERA","SANTA FE","NM",87505,35.6412748930001,-105.949437403,310,"2721 PRADERA, SANTA FE, NM, 87505","Match","Exact","2721 PRADERA, SANTA FE, NM, 87505",627309317,"L"
437811,"2721 PRIMROSE LANE NORTH","YORK","PA",17402,39.9385342800001,-76.662698243,311,"2721 PRIMROSE LANE NORTH, YORK, PA, 17402","Match","Non_Exact","2721 PRIMROSE LN, YORK, PA, 17402",88753117,"R"
437812,"2721 QUAIL RUN DR","ALBANY","GA",31721,31.6202426990001,-84.291515181,312,"2721 QUAIL RUN DR, ALBANY, GA, 31721","Match","Exact","2721 QUAIL RUN DR, ALBANY, GA, 31721",84332330,"L"
437813,"2721 RAINFORD CT","RALEIGH","NC",27603,35.7462815330001,-78.684003686,313,"2721 RAINFORD CT, RALEIGH, NC, 27603","Match","Exact","2721 RAINFORD CT, RALEIGH, NC, 27603",208348521,"L"
437814,"2721 RICE CREEK RD","SAINT PAUL","MN",55112,45.082416879,-93.222531007,314,"2721 RICE CREEK RD, SAINT PAUL, MN, 55112","Match","Exact","2721 RICE CREEK RD, SAINT PAUL, MN, 55112",97633749,"L"
437815,"2721 ROSEBAY LANE","HELENA","AL",35022,33.3032899410001,-86.926390662,315,"2721 ROSEBAY LANE, HELENA, AL, 35022","Match","Exact","2721 ROSEBAY LN, HELENA, AL, 35022",618048679,"R"
437816,"2721 RUTGERS AVE","LONG BEACH","CA",90815,33.8054327850001,-118.130076125,316,"2721 RUTGERS AVE, LONG BEACH, CA, 90815","Match","Non_Exact","2721 N RUTGERS AVE, LONG BEACH, CA, 90815",141700945,"L"
437817,"2721 S 269TH ST","KENT","WA",98032,47.360391985,-122.298449737,317,"2721 S 269TH ST, KENT, WA, 98032","Match","Exact","2721 S 269TH ST, KENT, WA, 98032",186715157,"R"
437818,"2721 S 269TH ST","KENT","WA",98033,47.360391985,-122.298449737,318,"2721 S 269TH ST, KENT, WA, 98033","Match","Non_Exact","2721 S 269TH ST, KENT, WA, 98032",186715157,"R"
437819,"2721 S 900 E","HAGERMAN","ID",83332,42.809527594,-114.907901841,319,"2721 S 900 E, HAGERMAN, ID, 83332","Match","Exact","2721 S 900 E, HAGERMAN, ID, 83332",118501839,"L"
437820,"2721 SAFARI CIRCLE","PLANO","TX",75025,33.0739435470001,-96.7462280409999,320,"2721 SAFARI CIRCLE, PLANO, TX, 75025","Match","Exact","2721 SAFARI CIR, PLANO, TX, 75025",123486120,"R"
437821,"2721 SAWYERS ARCH","CHESAPEAKE","VA",23323,36.727496563,-76.342316234,321,"2721 SAWYERS ARCH, CHESAPEAKE, VA, 23323","Match","Exact","2721 SAWYERS ARCH, CHESAPEAKE, VA, 23323",121787006,"L"
437822,"2721 SEASHORE COVE","VIRGINIA BEACH","VA",23454,36.8541243920001,-76.059833805,322,"2721 SEASHORE COVE, VIRGINIA BEACH, VA, 23454","Match","Exact","2721 SEASHORE COVE, VIRGINIA BCH, VA, 23454",122275777,"L"
437823,"2721 SHATTUCK AVE  NO- 323","BERKELEY","CA",94705,37.8599249550001,-122.267016586,323,"2721 SHATTUCK AVE  NO- 323, BERKELEY, CA, 94705","Match","Non_Exact","2721 SHATTUCK AVE, BERKELEY, CA, 94705",617285940,"L"
437824,"2721 SHATTUCK AVE NUM 274","BERKELEY","CA",94704,37.8599249550001,-122.267016586,324,"2721 SHATTUCK AVE NUM 274, BERKELEY, CA, 94704","Match","Non_Exact","2721 SHATTUCK AVE, BERKELEY, CA, 94705",617285940,"L"
437825,"2721 SHEARWATER STREET","CLERMONT","FL",34711,28.53297982,-81.723960468,325,"2721 SHEARWATER STREET, CLERMONT, FL, 34711","Match","Exact","2721 SHEARWATER ST, CLERMONT, FL, 34711",617504811,"L"
437826,"2721 SLATE DRIVE SW","HUNTSVILLE","AL",35803,34.6139898260001,-86.583789897,326,"2721 SLATE DRIVE SW, HUNTSVILLE, AL, 35803","Match","Exact","2721 SLATE DR SW, HUNTSVILLE, AL, 35803",649998810,"R"
437827,"2721 SOUNDVIEW DRIVE W","UNIVERSITY PLACE","WA",98466,47.2344488080001,-122.562089771,327,"2721 SOUNDVIEW DRIVE W, UNIVERSITY PLACE, WA, 98466","Match","Exact","2721 SOUNDVIEW DR W, UNIVERSITY PLACE, WA, 98466",184618388,"R"
437828,"2721 STAPLES AVE","KEY WEST","FL",33040,24.5601925350001,-81.771410305,328,"2721 STAPLES AVE, KEY WEST, FL, 33040","Match","Exact","2721 STAPLES AVE, KEY WEST, FL, 33040",116475555,"L"
437829,"2721 STATE ROUTE 72 SOUTH","JAMESTOWN","OH",45335,39.594566763,-83.7234964529999,329,"2721 STATE ROUTE 72 SOUTH, JAMESTOWN, OH, 45335","Match","Non_Exact","2721 STATE RTE 72, JAMESTOWN, OH, 45335",143418259,"L"
437830,"2721 SUMMER RIDGE","CORPUS CHRISTI","TX",78414,27.6755099420001,-97.3565606239999,330,"2721 SUMMER RIDGE, CORPUS CHRISTI, TX, 78414","Match","Non_Exact","2721 SUMMER RIDGE DR, CORPUS CHRISTI, TX, 78414",178522533,"L"
437831,"2721 SUNLINE","RENO","NV",89523,39.54476936,-119.905906149,331,"2721 SUNLINE, RENO, NV, 89523","Match","Non_Exact","2721 SUNLINE DR, RENO, NV, 89523",107115948,"R"
437832,"2721 SUNNYSIDE COURT","SIOUX CITY","IA",51106,42.4614519680001,-96.338266561,332,"2721 SUNNYSIDE COURT, SIOUX CITY, IA, 51106","Match","Exact","2721 SUNNYSIDE CT, SIOUX CITY, IA, 51106",93426049,"R"
437833,"2721 SW 53RD AVE","WEST PARK","FL",33023,25.985768733,-80.1960491679999,333,"2721 SW 53RD AVE, WEST PARK, FL, 33023","Match","Exact","2721 SW 53RD AVE, WEST PARK, FL, 33023",114735199,"L"
437834,"2721 SW 54 AVENE","WEST PARK","FL",33023,NA,NA,334,"2721 SW 54 AVENE, WEST PARK, FL, 33023","No_Match",NA,NA,NA,NA
437835,"2721 TALASK ST","ROSENBERG","TX",77471,29.539301557,-95.801724312,335,"2721 TALASK ST, ROSENBERG, TX, 77471","Match","Non_Exact","2721 TALASEK ST, ROSENBERG, TX, 77471",78263271,"R"
437836,"2721 TANGLEWOOD DRIVE","LANCASTER","TX",75134,32.6198514710001,-96.7735446679999,336,"2721 TANGLEWOOD DRIVE, LANCASTER, TX, 75134","Match","Exact","2721 TANGLEWOOD DR, LANCASTER, TX, 75134",102954940,"L"
437837,"2721 THEATRE ROAD","WILLIAMS BAY","WI",53191,42.5909614770001,-88.560547307,337,"2721 THEATRE ROAD, WILLIAMS BAY, WI, 53191","Match","Exact","2721 THEATRE RD, WILLIAMS BAY, WI, 53191",652118203,"L"
437838,"2721 US HIGHWAY 101","HOQUIAM","WA",98550,47.1937353260001,-123.942421753,338,"2721 US HIGHWAY 101, HOQUIAM, WA, 98550","Match","Exact","2721 US HWY 101, HOQUIAM, WA, 98550",180630070,"L"
437839,"2721 VIA ELEVADO","PALOS VERDES ESTATES","CA",90274,33.796974,-118.385243415,339,"2721 VIA ELEVADO, PALOS VERDES ESTATES, CA, 90274","Match","Exact","2721 VIA ELEVADO, PALOS VERDES ESTATES, CA, 90274",638620690,"L"
437840,"2721 VWESAILLES AVE","MCKEESPORT","PA",15132,NA,NA,340,"2721 VWESAILLES AVE, MCKEESPORT, PA, 15132","No_Match",NA,NA,NA,NA
437841,"2721 W 182ND STREET","TORRANCE","CA",90504,33.865609595,-118.323430241,341,"2721 W 182ND STREET, TORRANCE, CA, 90504","Match","Exact","2721 W 182ND ST, TORRANCE, CA, 90504",142756167,"R"
437842,"2721 W 6TH ST SUITE E","LAWRENCE","KS",66049,38.971537921,-95.2684191129999,342,"2721 W 6TH ST SUITE E, LAWRENCE, KS, 66049","Match","Non_Exact","2721 W 6TH ST, LAWRENCE, KS, 66049",17693325,"L"
437843,"2721 W LONGFELLOW AVE","SPOKANE","WA",99208,47.697219391,-117.451369926,343,"2721 W LONGFELLOW AVE, SPOKANE, WA, 99208","Match","Non_Exact","2721 W LONGFELLOW AVE, SPOKANE, WA, 99205",189870980,"L"
437844,"2721 W MELROSE ST FLT 2","CHICAGO","IL",60618,41.9402482630001,-87.696130744,344,"2721 W MELROSE ST FLT 2, CHICAGO, IL, 60618","Match","Non_Exact","2721 W MELROSE ST, CHICAGO, IL, 60618",605229859,"L"
437845,"2721 W OLD STATE ROAD 45","ROCKPORT","IN",47635,37.858504016,-87.1054694109999,345,"2721 W OLD STATE ROAD 45, ROCKPORT, IN, 47635","Match","Exact","2721 W OLD STATE RD 45, ROCKPORT, IN, 47635",7996314,"L"
437846,"2721 W UINTAH STREET","COLORADO SPRINGS","CO",80904,38.852867717,-104.863040706,346,"2721 W UINTAH STREET, COLORADO SPRINGS, CO, 80904","Match","Exact","2721 W UINTAH ST, COLORADO SPRINGS, CO, 80904",105507019,"L"
437847,"2721 WABASH CIR","SPARKS","NV",89434,39.5450514500001,-119.712252195,347,"2721 WABASH CIR, SPARKS, NV, 89434","Match","Exact","2721 WABASH CIR, SPARKS, NV, 89434",107061052,"L"
437848,"2721 WALKALOOSA WAY","FORT COLLINS","CO",80525,40.553774966,-105.027817497,348,"2721 WALKALOOSA WAY, FORT COLLINS, CO, 80525","Match","Exact","2721 WALKALOOSA WAY, FORT COLLINS, CO, 80525",645455622,"R"
437849,"2721 WAR ADMIRAL","SCHERTZ","TX",78108,29.618347514,-98.24746692,349,"2721 WAR ADMIRAL, SCHERTZ, TX, 78108","Match","Exact","2721 WAR ADMIRAL, SCHERTZ, TX, 78108",617375090,"L"
437850,"2721 WEST 15TH STREET","GREELEY","CO",80634,40.415561257,-104.723533635,350,"2721 WEST 15TH STREET, GREELEY, CO, 80634","Match","Exact","2721 W 15TH ST, GREELEY, CO, 80634",188676072,"R"
437851,"2721 WEST PARK DRIVE","PADUCAH","KY",42001,NA,NA,351,"2721 WEST PARK DRIVE, PADUCAH, KY, 42001","No_Match",NA,NA,NA,NA
437852,"2721 WET STONE WAY UNIT 306","CHARLOTTE","NC",28208,NA,NA,352,"2721 WET STONE WAY UNIT 306, CHARLOTTE, NC, 28208","No_Match",NA,NA,NA,NA
437853,"2721 WILD CHERRY CT","CHULA VISTA","CA",91915,32.630543769,-116.94082651,353,"2721 WILD CHERRY CT, CHULA VISTA, CA, 91915","Match","Exact","2721 WILD CHERRY CT, CHULA VISTA, CA, 91915",195766587,"R"
437854,"2721 WILD PLUM STREET","WOODRIDGE","IL",60517,41.758850959,-88.0499146019999,354,"2721 WILD PLUM STREET, WOODRIDGE, IL, 60517","Match","Exact","2721 WILD PLUM ST, WOODRIDGE, IL, 60517",112538761,"L"
437855,"2721 WOOSTER DR","ALLISON PARK","PA",15101,40.5401047830001,-79.956756813,355,"2721 WOOSTER DR, ALLISON PARK, PA, 15101","Match","Exact","2721 WOOSTER DR, ALLISON PARK, PA, 15101",51640322,"L"
437856,"27210 N 81ST AVE","PEORIA","AZ",85383,33.73051538,-112.23481495,356,"27210 N 81ST AVE, PEORIA, AZ, 85383","Match","Exact","27210 81ST AVE, PEORIA, AZ, 85383",636935485,"L"
437857,"27210 OAKLAND CLIFF COURT","KATY","TX",77494,29.743737514,-95.838779694,357,"27210 OAKLAND CLIFF COURT, KATY, TX, 77494","Match","Exact","27210 OAKLAND CLIFF CT, KATY, TX, 77494",648705425,"R"
437858,"27211 JAYDEN CT","SPRING","TX",77386,30.0791728040001,-95.342819912,358,"27211 JAYDEN CT, SPRING, TX, 77386","Match","Non_Exact","27211 JADEN CT, SPRING, TX, 77386",614123754,"R"
437859,"27211 LAHSER ROAD SUITE 203","SOUTHFIELD","MI",48034,42.488365657,-83.261424252,359,"27211 LAHSER ROAD SUITE 203, SOUTHFIELD, MI, 48034","Match","Exact","27211 LAHSER RD, SOUTHFIELD, MI, 48034",641240845,"L"
437860,"27211 MARLEWOOD POINT COURT","SANTA CLARITA","CA",91387,34.408445037,-118.44276771,360,"27211 MARLEWOOD POINT COURT, SANTA CLARITA, CA, 91387","Match","Exact","27211 MARLEWOOD POINT CT, SANTA CLARITA, CA, 91387",635419820,"L"
437861,"27212 HEDGE ROAD","ALBEMARLE","NC",28001,35.3335185600001,-80.236402487,361,"27212 HEDGE ROAD, ALBEMARLE, NC, 28001","Match","Exact","27212 HEDGE RD, ALBEMARLE, NC, 28001",14080617,"R"
437862,"27214 TRENTON PL","VALENCIA","CA",91354,34.4408204280001,-118.540958279,362,"27214 TRENTON PL, VALENCIA, CA, 91354","Match","Exact","27214 TRENTON PL, VALENCIA, CA, 91354",141846535,"R"
437863,"27215 AVENIDA DEL DIABLO","TEMECULA","CA",92591,33.4907756380001,-117.187949623,363,"27215 AVENIDA DEL DIABLO, TEMECULA, CA, 92591","Match","Non_Exact","27215 AVE DEL DIABLO, TEMECULA, CA, 92590",194782083,"R"
437864,"27215 CROSBY RD","MYAKKA CITY","FL",34251,27.401229374,-82.263619225,364,"27215 CROSBY RD, MYAKKA CITY, FL, 34251","Match","Exact","27215 CROSBY RD, MYAKKA CITY, FL, 34251",647457887,"L"
437865,"27215 FORDHAM DRIVE","WESLEY CHAPEL","FL",33544,28.195330262,-82.365269117,365,"27215 FORDHAM DRIVE, WESLEY CHAPEL, FL, 33544","Match","Exact","27215 FORDHAM DR, WESLEY CHAPEL, FL, 33544",624648479,"L"
437866,"27215 S GRIBBLE ROAD","CANBY","OR",97013,NA,NA,366,"27215 S GRIBBLE ROAD, CANBY, OR, 97013","No_Match",NA,NA,NA,NA
437867,"27216 MIDWAY","DEARBORN","MI",48127,42.3294364280001,-83.309121052,367,"27216 MIDWAY, DEARBORN, MI, 48127","Match","Non_Exact","27216 MIDWAY ST, DEARBORN HEIGHTS, MI, 48127",95429448,"R"
437868,"27216 SEA BREEZE WAY","WESLEY CHAPEL","FL",33544,28.175293459,-82.366769972,368,"27216 SEA BREEZE WAY, WESLEY CHAPEL, FL, 33544","Match","Exact","27216 SEA BREEZE WAY, WESLEY CHAPEL, FL, 33544",86387602,"L"
437869,"27218 WALNUT SPRINGS","CANYON COUNTRY","CA",91351,34.416577375,-118.470730713,369,"27218 WALNUT SPRINGS, CANYON COUNTRY, CA, 91351","Match","Non_Exact","27218 WALNUT SPRINGS AVE, CANYON COUNTRY, CA, 91351",141520282,"R"
437870,"27218 WOODLAND RD","STANWOOD","WA",98292,48.243491487,-122.322609533,370,"27218 WOODLAND RD, STANWOOD, WA, 98292","Match","Exact","27218 WOODLAND RD, STANWOOD, WA, 98292",647659747,"L"
437871,"27219 212TH AVE SE","MAPLE VALLEY","WA",98038,47.357196625,-122.058497797,371,"27219 212TH AVE SE, MAPLE VALLEY, WA, 98038","Match","Exact","27219 212TH AVE SE, MAPLE VALLEY, WA, 98038",636734074,"L"
437872,"27219 CAMP COMFORT HTS","ABINGDON","VA",24211,36.7305488900001,-81.888077412,372,"27219 CAMP COMFORT HTS, ABINGDON, VA, 24211","Match","Exact","27219 CAMP COMFORT HTS, ABINGDON, VA, 24211",154352036,"L"
437873,"27219 FLORENCE ROAD","SMITHTON","MO",65350,38.6773600610001,-93.070142599,373,"27219 FLORENCE ROAD, SMITHTON, MO, 65350","Match","Exact","27219 FLORENCE RD, SMITHTON, MO, 65350",54735008,"L"
437874,"27219 RANCH ROAD","ASHLAND","NE",68003,41.0304737930001,-96.335346376,374,"27219 RANCH ROAD, ASHLAND, NE, 68003","Match","Exact","27219 RANCH RD, ASHLAND, NE, 68003",10370442,"R"
437875,"2722  SANIBEL LANE","SMYRNA","GA",30082,33.88688518,-84.5501182089999,375,"2722  SANIBEL LANE, SMYRNA, GA, 30082","Match","Exact","2722 SANIBEL LN, SMYRNA, GA, 30082",17219157,"L"
437876,"2722 63RD ST","KENOSHA","WI",53140,42.5776119170001,-87.842058881,376,"2722 63RD ST, KENOSHA, WI, 53140","Match","Non_Exact","2722 63RD ST, KENOSHA, WI, 53143",79799637,"R"
437877,"2722 BARR AVE","MARSEILLES","IL",61341,41.2970879970001,-88.639884006,377,"2722 BARR AVE, MARSEILLES, IL, 61341","Match","Exact","2722 BARR AVE, MARSEILLES, IL, 61341",647576410,"L"
437878,"2722 BAYBERRY WAY","FULLERTON","CA",92833,33.881227607,-117.974363367,378,"2722 BAYBERRY WAY, FULLERTON, CA, 92833","Match","Exact","2722 BAYBERRY WAY, FULLERTON, CA, 92833",144001529,"L"
437879,"2722 BAYVIEW DR","EUSTIS","FL",32726,28.877971304,-81.710818382,379,"2722 BAYVIEW DR, EUSTIS, FL, 32726","Match","Exact","2722 BAYVIEW DR, EUSTIS, FL, 32726",94148651,"R"
437880,"2722 CACTUS","FRISCO","TX",75033,33.159904114,-96.866782964,380,"2722 CACTUS, FRISCO, TX, 75033","Match","Non_Exact","2722 CACTUS TRL, FRISCO, TX, 75033",103412330,"R"
437881,"2722 CARRIAGE HOLLOW LANE","KATY","TX",77494,29.745539314,-95.849172783,381,"2722 CARRIAGE HOLLOW LANE, KATY, TX, 77494","Match","Exact","2722 CARRIAGE HOLLOW LN, KATY, TX, 77494",642953516,"L"
437882,"2722 CHAPEL COVE CT","FLORISSANT","MO",63031,38.826276675,-90.3330366119999,382,"2722 CHAPEL COVE CT, FLORISSANT, MO, 63031","Match","Exact","2722 CHAPEL COVE CT, FLORISSANT, MO, 63031",604551187,"R"
437883,"2722 CHERRYDALE DR","LEBONNON","TN",37087,36.243972807,-86.383451513,383,"2722 CHERRYDALE DR, LEBONNON, TN, 37087","Match","Non_Exact","2722 CHERRYDALE DR, LEBANON, TN, 37087",627720852,"R"
437884,"2722 CINCINNATI STREET","LOS ANGELES","CA",90033,34.045777979,-118.203093391,384,"2722 CINCINNATI STREET, LOS ANGELES, CA, 90033","Match","Exact","2722 CINCINNATI ST, LOS ANGELES, CA, 90033",141624597,"R"
437885,"2722 CONNECTICUT AVE NW APT 23","WASHINGTON","DC",20008,38.925813272,-77.0528457139999,385,"2722 CONNECTICUT AVE NW APT 23, WASHINGTON, DC, 20008","Match","Exact","2722 CONNECTICUT AVE NW, WASHINGTON, DC, 20008",76222543,"L"
437886,"2722 CORBIN COURT","WOODBRIDGE","VA",22191,38.591346507,-77.294891386,386,"2722 CORBIN COURT, WOODBRIDGE, VA, 22191","Match","Exact","2722 CORBIN CT, WOODBRIDGE, VA, 22191",76529713,"R"
437887,"2722 COVENTRY LANE","OCOEE","FL",34761,28.5816266690001,-81.5045136259999,387,"2722 COVENTRY LANE, OCOEE, FL, 34761","Match","Exact","2722 COVENTRY LN, OCOEE, FL, 34761",94405894,"L"
437888,"2722 CRESCENT OAK DR","STERLING HEIGHTS","MI",48314,42.6000791660001,-83.0814073069999,388,"2722 CRESCENT OAK DR, STERLING HEIGHTS, MI, 48314","Match","Exact","2722 CRESCENT OAK DR, STERLING HEIGHTS, MI, 48314",110714631,"L"
437889,"2722 DARBY BROOK DR","FRESNO","TX",77545,29.545109117,-95.489522098,389,"2722 DARBY BROOK DR, FRESNO, TX, 77545","Match","Exact","2722 DARBY BROOK DR, FRESNO, TX, 77545",624576739,"R"
437890,"2722 DAYBREAK DR","ORLANDO","FL",32825,28.5112234530001,-81.2180061459999,390,"2722 DAYBREAK DR, ORLANDO, FL, 32825","Match","Exact","2722 DAYBREAK DR, ORLANDO, FL, 32825",94407772,"R"
437891,"2722 DE KOVEN DR","FAYETTEVILLE","NC",28306,35.015546311,-79.028087022,391,"2722 DE KOVEN DR, FAYETTEVILLE, NC, 28306","Match","Exact","2722 DE KOVEN DR, FAYETTEVILLE, NC, 28306",637577867,"R"
437892,"2722 E 53RD ST APT 2","DAVENPORT","IA",52807,41.5748206800001,-90.5362413349999,392,"2722 E 53RD ST APT 2, DAVENPORT, IA, 52807","Match","Non_Exact","2722 E 53RD ST, DAVENPORT, IA, 52807",122704126,"L"
437893,"2722 E 8TH ST","PANAMA CITY","FL",32401,30.16192829,-85.624447158,393,"2722 E 8TH ST, PANAMA CITY, FL, 32401","Match","Exact","2722 E 8TH ST, PANAMA CITY, FL, 32401",7061592,"R"
437894,"2722 E BIGHORN AVE","PHOENIX","AZ",85048,33.3065165040001,-112.023892373,394,"2722 E BIGHORN AVE, PHOENIX, AZ, 85048","Match","Exact","2722 E BIGHORN AVE, PHOENIX, AZ, 85048",128777024,"L"
437895,"2722 EAST 75TH STREET","CHICAGO","IL",60649,41.7603007170001,-87.5577647379999,395,"2722 EAST 75TH STREET, CHICAGO, IL, 60649","Match","Exact","2722 E 75TH ST, CHICAGO, IL, 60649",647631707,"L"
437896,"2722 EASTLAWN","YPSILANTI","MI",48197,42.2472048500001,-83.654469514,396,"2722 EASTLAWN, YPSILANTI, MI, 48197","Match","Non_Exact","2722 EASTLAWN AVE, YPSILANTI, MI, 48197",26027990,"R"
437897,"2722 ECKLESON STREET","LAKEWOOD","CA",90712,33.848647338,-118.159221867,397,"2722 ECKLESON STREET, LAKEWOOD, CA, 90712","Match","Exact","2722 ECKLESON ST, LAKEWOOD, CA, 90712",642861222,"R"
437898,"2722 EDISON ST","PITTSBURGH","PA",15212,40.4756170540001,-79.985252496,398,"2722 EDISON ST, PITTSBURGH, PA, 15212","Match","Exact","2722 EDISON ST, PITTSBURGH, PA, 15212",51627283,"R"
437899,"2722 FACET CREEK DR","FRESNO","TX",77545,29.5232046790001,-95.495198067,399,"2722 FACET CREEK DR, FRESNO, TX, 77545","Match","Exact","2722 FACET CREEK DR, FRESNO, TX, 77545",635221292,"R"
437900,"2722 FAIRGREEN AVE","ARCADIA","CA",91006,34.115363646,-118.007686354,400,"2722 FAIRGREEN AVE, ARCADIA, CA, 91006","Match","Non_Exact","2722 S FAIRGREEN AVE, ARCADIA, CA, 91006",141646946,"L"
437901,"2722 FOLSOM ST","SAN FRANCISCO","CA",94110,37.7536739240001,-122.414198207,401,"2722 FOLSOM ST, SAN FRANCISCO, CA, 94110","Match","Exact","2722 FOLSOM ST, SAN FRANCISCO, CA, 94110",192288338,"R"
437902,"2722 FORT BRAGG ROAD","FAYETTEVILLE","NC",28303,35.070000282,-78.922299973,402,"2722 FORT BRAGG ROAD, FAYETTEVILLE, NC, 28303","Match","Exact","2722 FORT BRAGG RD, FAYETTEVILLE, NC, 28303",64199723,"R"
437903,"2722 GARDNER DRIVE","SALEM","VA",24153,37.2879197890001,-80.113714239,403,"2722 GARDNER DRIVE, SALEM, VA, 24153","Match","Exact","2722 GARDNER DR, SALEM, VA, 24153",62900193,"L"
437904,"2722 GENEVA PL","LONGMONT","CO",80503,40.187323398,-105.13759417,404,"2722 GENEVA PL, LONGMONT, CO, 80503","Match","Exact","2722 GENEVA PL, LONGMONT, CO, 80503",188154825,"R"
437905,"2722 GREEN ST","SAN FRANCISCO","CA",94123,37.7950590820001,-122.444016142,405,"2722 GREEN ST, SAN FRANCISCO, CA, 94123","Match","Exact","2722 GREEN ST, SAN FRANCISCO, CA, 94123",192279553,"R"
437906,"2722 HIGH PLAINS COURT","FORT COLLINS","CO",80526,40.522725517,-105.126934915,406,"2722 HIGH PLAINS COURT, FORT COLLINS, CO, 80526","Match","Exact","2722 HIGH PLAINS CT, FORT COLLINS, CO, 80526",188548491,"L"
437907,"2722 HOFFMAN DRIVE","ORLANDO","FL",32837,28.378128444,-81.4201533039999,407,"2722 HOFFMAN DRIVE, ORLANDO, FL, 32837","Match","Exact","2722 HOFFMAN DR, ORLANDO, FL, 32837",94339397,"R"
437908,"2722 HONOLULU AVE","MONTROSE","CA",91020,34.2106340710001,-118.23866226,408,"2722 HONOLULU AVE, MONTROSE, CA, 91020","Match","Exact","2722 HONOLULU AVE, MONTROSE, CA, 91020",141590039,"L"
437909,"2722 LA PORTE COURT","HENDERSON","NV",89052,35.9942665350001,-115.106564929,409,"2722 LA PORTE COURT, HENDERSON, NV, 89052","Match","Exact","2722 LA PORTE CT, HENDERSON, NV, 89052",201953303,"L"
437910,"2722 LAKESIDE AV NW","CANTON","OH",44708,40.8280688990001,-81.408977077,410,"2722 LAKESIDE AV NW, CANTON, OH, 44708","Match","Exact","2722 LAKESIDE AVE NW, CANTON, OH, 44708",64674661,"R"
437911,"2722 LINMAR AVE","NASHVILLE","TN",37215,36.1263115940001,-86.815519368,411,"2722 LINMAR AVE, NASHVILLE, TN, 37215","Match","Exact","2722 LINMAR AVE, NASHVILLE, TN, 37215",97189983,"R"
437912,"2722 LINN FERY RD","TEXARKANA","AR",71854,33.3968116140001,-94.009042103,412,"2722 LINN FERY RD, TEXARKANA, AR, 71854","Match","Non_Exact","2722 LINN FERRY RD, TEXARKANA, AR, 71854",57290791,"L"
437913,"2722 MAIN STREET","PITTSBURGH","PA",15235,40.474240455,-79.787419525,413,"2722 MAIN STREET, PITTSBURGH, PA, 15235","Match","Exact","2722 MAIN ST, PITTSBURGH, PA, 15235",51668716,"R"
437914,"2722 MALLORY LANE","EUGENE","OR",97401,44.074186309,-123.06904156,414,"2722 MALLORY LANE, EUGENE, OR, 97401","Match","Exact","2722 MALLORY LN, EUGENE, OR, 97401",618377643,"R"
437915,"2722 MANATEE AVE W","BRADENTON","FL",34205,27.4956123960001,-82.58889414,415,"2722 MANATEE AVE W, BRADENTON, FL, 34205","Match","Exact","2722 MANATEE AVE W, BRADENTON, FL, 34205",16232672,"R"
437916,"2722 MCKENZIE LANE","FREDERICKSBURG","VA",22408,38.2576098850001,-77.4289433499999,416,"2722 MCKENZIE LANE, FREDERICKSBURG, VA, 22408","Match","Exact","2722 MCKENZIE LN, FREDERICKSBURG, VA, 22408",640910566,"L"
437917,"2722 MOUNTAIN ROAD","BRISTOL","VT",5443,44.2173171530001,-73.102182232,417,"2722 MOUNTAIN ROAD, BRISTOL, VT, 5443","Match","Exact","2722 MOUNTAIN RD, BRISTOL, VT, 05443",647712288,"L"
437918,"2722 N BROMPTON DR","PEARLAND","TX",77584,29.5748230570001,-95.380419643,418,"2722 N BROMPTON DR, PEARLAND, TX, 77584","Match","Exact","2722 N BROMPTON DR, PEARLAND, TX, 77584",649887652,"L"
437919,"2722 N CAMINO VISTA DEL CIELO","NOGALES","AZ",85621,NA,NA,419,"2722 N CAMINO VISTA DEL CIELO, NOGALES, AZ, 85621","No_Match",NA,NA,NA,NA
437920,"2722 N DENVER","TULSA","OK",74130,NA,NA,420,"2722 N DENVER, TULSA, OK, 74130","No_Match",NA,NA,NA,NA
437921,"2722 N HOOVER RD","BUCKNER","MO",64016,39.1475737420001,-94.25275177,421,"2722 N HOOVER RD, BUCKNER, MO, 64016","Match","Exact","2722 N HOOVER RD, BUCKNER, MO, 64016",642924986,"L"
437922,"2722 N MAIN ST","POPLAR BLUFF","MO",63901,36.78469747,-90.400534192,422,"2722 N MAIN ST, POPLAR BLUFF, MO, 63901","Match","Exact","2722 N MAIN ST, POPLAR BLUFF, MO, 63901",47416038,"R"
437923,"2722 NE 109TH  ST","VANCOUVER","WA",98686,45.700351584,-122.642395793,423,"2722 NE 109TH  ST, VANCOUVER, WA, 98686","Match","Exact","2722 NE 109TH ST, VANCOUVER, WA, 98686",158323143,"L"
437924,"2722 NE 109TH ST","VANCOUVER","WA",98686,45.700351584,-122.642395793,424,"2722 NE 109TH ST, VANCOUVER, WA, 98686","Match","Exact","2722 NE 109TH ST, VANCOUVER, WA, 98686",158323143,"L"
437925,"2722 OLDE MILL ROAD","FLORENCE","SC",29505,34.144990256,-79.7544094789999,425,"2722 OLDE MILL ROAD, FLORENCE, SC, 29505","Match","Exact","2722 OLDE MILL RD, FLORENCE, SC, 29505",28911494,"R"
437926,"2722 ORLANDO PLACE","PITTSBURGH","PA",15235,40.451631751,-79.8491020389999,426,"2722 ORLANDO PLACE, PITTSBURGH, PA, 15235","Match","Exact","2722 ORLANDO PL, PITTSBURGH, PA, 15235",647555033,"R"
437927,"2722 PACIFIC AVENUE","HOQUIAM","WA",98550,NA,NA,427,"2722 PACIFIC AVENUE, HOQUIAM, WA, 98550","No_Match",NA,NA,NA,NA
437928,"2722 PARK AVE S SUITE 100A","MINNEAPOLIS","MN",55407,44.953257578,-93.265155792,428,"2722 PARK AVE S SUITE 100A, MINNEAPOLIS, MN, 55407","Match","Exact","2722 PARK AVE S, MINNEAPOLIS, MN, 55407",43632734,"R"
437929,"2722 PRINCE DRIVE","LINCOLNTON","NC",28092,35.495501102,-81.183181753,429,"2722 PRINCE DRIVE, LINCOLNTON, NC, 28092","Match","Exact","2722 PRINCE DR, LINCOLNTON, NC, 28092",69538686,"L"
437930,"2722 RIDGEWOOD AVE","CINCINNATI","OH",45213,39.1896960190001,-84.4378689169999,430,"2722 RIDGEWOOD AVE, CINCINNATI, OH, 45213","Match","Exact","2722 RIDGEWOOD AVE, CINCINNATI, OH, 45213",103929316,"L"
437931,"2722 RIDGEWOOD AVENUE","CINCINNATI","OH",45213,39.1896960190001,-84.4378689169999,431,"2722 RIDGEWOOD AVENUE, CINCINNATI, OH, 45213","Match","Exact","2722 RIDGEWOOD AVE, CINCINNATI, OH, 45213",103929316,"L"
437932,"2722 S  BELGRAVIA DR","PEARLAND","TX",77584,29.5718485520001,-95.380431632,432,"2722 S  BELGRAVIA DR, PEARLAND, TX, 77584","Match","Exact","2722 S BELGRAVIA DR, PEARLAND, TX, 77584",649885158,"R"
437933,"2722 S ALTA VISTA","MESA","AZ",85202,33.3657522190001,-111.882331722,433,"2722 S ALTA VISTA, MESA, AZ, 85202","Match","Exact","2722 S ALTA VIS, MESA, AZ, 85202",128239830,"R"
437934,"2722 S BUCKNER BLVD STE 120","DALLAS","TX",75227,32.7581014890001,-96.6827573589999,434,"2722 S BUCKNER BLVD STE 120, DALLAS, TX, 75227","Match","Exact","2722 BUCKNER BLVD, DALLAS, TX, 75227",102957996,"R"
437935,"2722 SALEM SCHOOL ROAD","DECATUR","IL",62521,39.8073246640001,-88.859104437,435,"2722 SALEM SCHOOL ROAD, DECATUR, IL, 62521","Match","Exact","2722 SALEM SCHOOL RD, DECATUR, IL, 62521",20755054,"L"
437936,"2722 SANIBEL LN","SMYRNA","GA",30082,33.88688518,-84.5501182089999,436,"2722 SANIBEL LN, SMYRNA, GA, 30082","Match","Exact","2722 SANIBEL LN, SMYRNA, GA, 30082",17219157,"L"
437937,"2722 SE 27TH AVENUE","PORTLAND","OR",97202,45.503265341,-122.638634324,437,"2722 SE 27TH AVENUE, PORTLAND, OR, 97202","Match","Exact","2722 SE 27TH AVE, PORTLAND, OR, 97202",157509590,"L"
437938,"2722 SKYVIEW CREST CT","HOUSTON","TX",77047,29.6227534170001,-95.381434986,438,"2722 SKYVIEW CREST CT, HOUSTON, TX, 77047","Match","Exact","2722 SKYVIEW CREST CT, HOUSTON, TX, 77047",635039706,"R"
437939,"2722 SKYVIEW MOON DR","HOUSTON","TX",77047,29.6250958680001,-95.381172841,439,"2722 SKYVIEW MOON DR, HOUSTON, TX, 77047","Match","Exact","2722 SKYVIEW MOON DR, HOUSTON, TX, 77047",645167252,"R"
437940,"2722 SOUTHRIDGE DRIVE","SACHSE","TX",75048,32.967338113,-96.5959640299999,440,"2722 SOUTHRIDGE DRIVE, SACHSE, TX, 75048","Match","Exact","2722 SOUTHRIDGE DR, SACHSE, TX, 75048",103170637,"R"
437941,"2722 SWEET MAGNOLIA PLACE","OVIEDO","FL",32765,28.6236233720001,-81.261604488,441,"2722 SWEET MAGNOLIA PLACE, OVIEDO, FL, 32765","Match","Exact","2722 SWEET MAGNOLIA PL, OVIEDO, FL, 32765",641659323,"L"
437942,"2722 TRINITY GLEN","HOUSTON","TX",77047,29.6056274160001,-95.3775581849999,442,"2722 TRINITY GLEN, HOUSTON, TX, 77047","Match","Non_Exact","2722 TRINITY GLEN LN, HOUSTON, TX, 77047",641634561,"L"
437943,"2722 TUCKER DR","SOUTH BEND","IN",46619,41.660451859,-86.288356639,443,"2722 TUCKER DR, SOUTH BEND, IN, 46619","Match","Exact","2722 TUCKER DR, SOUTH BEND, IN, 46619",8055524,"L"
437944,"2722 VIEW MEADOW","SOUTHLAKE","TX",76092,NA,NA,444,"2722 VIEW MEADOW, SOUTHLAKE, TX, 76092","No_Match",NA,NA,NA,NA
437945,"2722 VINE ST APT 3","CINCINNATI","OH",45219,39.13065391,-84.508585207,445,"2722 VINE ST APT 3, CINCINNATI, OH, 45219","Match","Non_Exact","2722 VAN ST, CINCINNATI, OH, 45219",103925027,"R"
437946,"2722 W 6165TH STREET","MARKHAM","IL",20428,NA,NA,446,"2722 W 6165TH STREET, MARKHAM, IL, 20428","No_Match",NA,NA,NA,NA
437947,"2722 W BITTERS RD STE 122","SAN ANTONIO","TX",78248,29.5302553540001,-98.444765514,447,"2722 W BITTERS RD STE 122, SAN ANTONIO, TX, 78248","Match","Non_Exact","2722 BITTERS RD, SAN ANTONIO, TX, 78217",101542277,"L"
437948,"2722 W MAIN STREET","LOUISVILLE","KY",40212,38.2609799690001,-85.79583086,448,"2722 W MAIN STREET, LOUISVILLE, KY, 40212","Match","Exact","2722 W MAIN ST, LOUISVILLE, KY, 40212",96841435,"L"
437949,"2722 W POTOMAC","CHICAGO","IL",60622,41.9047744440001,-87.695334053,449,"2722 W POTOMAC, CHICAGO, IL, 60622","Match","Non_Exact","2722 W POTOMAC AVE, CHICAGO, IL, 60622",605065801,"R"
437950,"2722 W STATE STREET","MILWAUIKEE","WI",53208,43.043251083,-87.9481953599999,450,"2722 W STATE STREET, MILWAUIKEE, WI, 53208","Match","Non_Exact","2722 W STATE ST, MILWAUKEE, WI, 53208",77740018,"R"
437951,"2722 W STATE STREET","MILWAUKEE","WI",53208,43.043251083,-87.94819812,451,"2722 W STATE STREET, MILWAUKEE, WI, 53208","Match","Exact","2722 W STATE ST, MILWAUKEE, WI, 53208",77740018,"R"
437952,"2722 WEST FM 544","WYLIE","TX",75098,NA,NA,452,"2722 WEST FM 544, WYLIE, TX, 75098","No_Match",NA,NA,NA,NA
437953,"2722 WEST STATE STREET","MILWAUKEE","WI",53208,43.043251083,-87.9481953599999,453,"2722 WEST STATE STREET, MILWAUKEE, WI, 53208","Match","Exact","2722 W STATE ST, MILWAUKEE, WI, 53208",77740018,"R"
437954,"2722 WINSLOW LANE","WINSTON SALEM","NC",27103,36.0569385900001,-80.2898552139999,454,"2722 WINSLOW LANE, WINSTON SALEM, NC, 27103","Match","Exact","2722 WINSLOW LN, WINSTON SALEM, NC, 27103",84605578,"L"
437955,"2722 WRENHAVEN DRIVE","NILES","MI",49120,41.774110342,-86.265470352,455,"2722 WRENHAVEN DRIVE, NILES, MI, 49120","Match","Non_Exact","2722 WREN HAVEN DR, NILES, MI, 49120",119980259,"R"
437956,"2722 WYNTERHALL ROAD","HUNTSVILLE","AL",35803,34.6099230460001,-86.559255825,456,"2722 WYNTERHALL ROAD, HUNTSVILLE, AL, 35803","Match","Non_Exact","2722 WYNTERHALL RD SE, HUNTSVILLE, AL, 35803",639979718,"L"
437957,"27220 14 MILE","FRANKLIN","MI",48025,NA,NA,457,"27220 14 MILE, FRANKLIN, MI, 48025","No_Match",NA,NA,NA,NA
437958,"27220 BIG SUR DR","WESLEY CHAPEL","FL",33544,28.1776900290001,-82.366788007,458,"27220 BIG SUR DR, WESLEY CHAPEL, FL, 33544","Match","Exact","27220 BIG SUR DR, WESLEY CHAPEL, FL, 33544",86401797,"R"
437959,"27220 PINE RIDGE RD","MELFA","VA",23410,37.6691241140001,-75.762433083,459,"27220 PINE RIDGE RD, MELFA, VA, 23410","Match","Non_Exact","27220 PINE RIDGE DR, MELFA, VA, 23410",640903389,"R"
437960,"27221 STATE ROAD 56 SUITE 187","WESLEY CHAPEL","FL",33544,NA,NA,460,"27221 STATE ROAD 56 SUITE 187, WESLEY CHAPEL, FL, 33544","No_Match",NA,NA,NA,NA
437961,"27222 10TH AVE S","DES MOINES","WA",98198,47.357667081,-122.32129474,461,"27222 10TH AVE S, DES MOINES, WA, 98198","Match","Exact","27222 10TH AVE S, DES MOINES, WA, 98198",186710516,"L"
437962,"27222 OLIVER DR","BONITA SPGS","FL",34135,26.3433729860001,-81.75728171,462,"27222 OLIVER DR, BONITA SPGS, FL, 34135","Match","Exact","27222 OLIVER DR, BONITA SPGS, FL, 34135",118004265,"L"
437963,"27222 REGAL ST","SIOUX FALLS","SD",57108,43.442966622,-96.7761475469999,463,"27222 REGAL ST, SIOUX FALLS, SD, 57108","Match","Non_Exact","27222 REGAL DR, SIOUX FALLS, SD, 57108",643025621,"R"
437964,"27222 RIO COVE","BOERNE","TX",78015,29.703780495,-98.634976038,464,"27222 RIO COVE, BOERNE, TX, 78015","Match","Exact","27222 RIO COVE, BOERNE, TX, 78015",642213894,"L"
437965,"27223 HELTEMES LANE","LACOMBE","LA",70445,30.3267162380001,-89.950229569,465,"27223 HELTEMES LANE, LACOMBE, LA, 70445","Match","Exact","27223 HELTEMES LN, LACOMBE, LA, 70445",111245393,"R"
437966,"27224 WINTERSET CIRCLE","FARMINGTON HILLS","MI",48334,42.4943562670001,-83.336174878,466,"27224 WINTERSET CIRCLE, FARMINGTON HILLS, MI, 48334","Match","Exact","27224 WINTERSET CIR, FARMINGTON HILLS, MI, 48334",69784533,"R"
437967,"27225 BUFFALO TRAIL","CORONA","CA",92883,33.723891403,-117.418722849,467,"27225 BUFFALO TRAIL, CORONA, CA, 92883","Match","Exact","27225 BUFFALO TRL, CORONA, CA, 92883",608995870,"R"
437968,"27225 HRVARD","SOUTHFIELD","MI",48076,42.4892710920001,-83.248324727,468,"27225 HRVARD, SOUTHFIELD, MI, 48076","Match","Non_Exact","27225 HARVARD RD, SOUTHFIELD, MI, 48076",641241137,"L"
437969,"27225 S DRYLAND RD","CANBY","OR",97013,45.213101517,-122.661264492,469,"27225 S DRYLAND RD, CANBY, OR, 97013","Match","Exact","27225 S DRYLAND RD, CANBY, OR, 97013",157900850,"L"
437970,"27226 WHITE ALDER CT","MURRIETA","CA",92562,33.605645533,-117.187513115,470,"27226 WHITE ALDER CT, MURRIETA, CA, 92562","Match","Exact","27226 WHITE ALDER CT, MURRIETA, CA, 92562",627740784,"L"
437971,"27227 WELLINGTON PLACE","FARMINGTON HILLS","MI",48334,NA,NA,471,"27227 WELLINGTON PLACE, FARMINGTON HILLS, MI, 48334","No_Match",NA,NA,NA,NA
437972,"27228 LAKEFRONT DRIVE","DENHAM SPRINGS","LA",70726,30.4625845470001,-90.9154060019999,472,"27228 LAKEFRONT DRIVE, DENHAM SPRINGS, LA, 70726","Match","Exact","27228 LAKEFRONT DR, DENHAM SPRINGS, LA, 70726",648785226,"L"
437973,"2723 19TH AVE N","NORTH ST PAUL","MN",55109,45.0232023780001,-92.98576618,473,"2723 19TH AVE N, NORTH ST PAUL, MN, 55109","Match","Non_Exact","2723 19TH AVE, N SAINT PAUL, MN, 55109",97652851,"L"
437974,"2723 27TH AVE W 112","WILLISTON","AZ",58801,NA,NA,474,"2723 27TH AVE W 112, WILLISTON, AZ, 58801","No_Match",NA,NA,NA,NA
437975,"2723 29TH AVE SOUTH","MOORHEAD","MN",56560,46.84128113,-96.73858437,475,"2723 29TH AVE SOUTH, MOORHEAD, MN, 56560","Match","Exact","2723 29TH AVE S, MOORHEAD, MN, 56560",168030743,"L"
437976,"2723 99TH AVENUE","OAKLAND","CA",94605,37.7484757770001,-122.153123078,476,"2723 99TH AVENUE, OAKLAND, CA, 94605","Match","Exact","2723 99TH AVE, OAKLAND, CA, 94605",125011199,"L"
437977,"2723 ALLISON COURT","BOZEMAN","MT",59718,45.692509602,-111.073672735,477,"2723 ALLISON COURT, BOZEMAN, MT, 59718","Match","Exact","2723 ALLISON CT, BOZEMAN, MT, 59718",163569301,"R"
437978,"2723 AMERICAN HORSE TRL","MURFREESBORO","TN",37127,35.7881478460001,-86.3878981939999,478,"2723 AMERICAN HORSE TRL, MURFREESBORO, TN, 37127","Match","Exact","2723 AMERICAN HORSE TRL, MURFREESBORO, TN, 37127",59033133,"L"
437979,"2723 ARCHER PARKWAY E","CAPE CORAL","FL",33904,26.600601521,-81.9536001719999,479,"2723 ARCHER PARKWAY E, CAPE CORAL, FL, 33904","Match","Exact","2723 ARCHER PKWY E, CAPE CORAL, FL, 33904",118071007,"L"
437980,"2723 ARTHUR AVENUE","CAMDEN","NJ",8105,39.9536920200001,-75.091786488,480,"2723 ARTHUR AVENUE, CAMDEN, NJ, 8105","Match","Exact","2723 ARTHUR AVE, CAMDEN, NJ, 08105",134342095,"L"
437981,"2723 ATLANTA DRIVE","MOUNT PLEASANT","SC",29466,32.842126396,-79.785150441,481,"2723 ATLANTA DRIVE, MOUNT PLEASANT, SC, 29466","Match","Exact","2723 ATLANTA DR, MOUNT PLEASANT, SC, 29466",108863441,"L"
437982,"2723 AUDREY TERRACE","UNION","NJ",7083,40.709946899,-74.291642924,482,"2723 AUDREY TERRACE, UNION, NJ, 7083","Match","Exact","2723 AUDREY TER, UNION, NJ, 07083",60603959,"R"
437983,"2723 BREWER ROAD","HOWELL","MI",48855,42.6397225630001,-83.954590931,483,"2723 BREWER ROAD, HOWELL, MI, 48855","Match","Exact","2723 BREWER RD, HOWELL, MI, 48855",23558101,"L"
437984,"2723 BRIGHTON AVENUE","LOS ANGELES","CA",90018,34.0305880240001,-118.301497055,484,"2723 BRIGHTON AVENUE, LOS ANGELES, CA, 90018","Match","Exact","2723 BRIGHTON AVE, LOS ANGELES, CA, 90018",141606116,"R"
437985,"2723 CALIFORNIA STREET","EUREKA","CA",95501,40.7833981320001,-124.171900427,485,"2723 CALIFORNIA STREET, EUREKA, CA, 95501","Match","Exact","2723 CALIFORNIA ST, EUREKA, CA, 95501",112990172,"R"
437986,"2723 CARDWELL WAY","SARASOTA","FL",34231,27.249712023,-82.5038706829999,486,"2723 CARDWELL WAY, SARASOTA, FL, 34231","Match","Exact","2723 CARDWELL WAY, SARASOTA, FL, 34231",16355438,"L"
437987,"2723 CECILE DRIVE","YORKTOWN HEIGHTS","NY",10598,41.299615654,-73.805552255,487,"2723 CECILE DRIVE, YORKTOWN HEIGHTS, NY, 10598","Match","Exact","2723 CECILE DR, YORKTOWN HEIGHTS, NY, 10598",139727610,"L"
437988,"2723 CHATFORD HOLLOW LANE","HOUSTON","TX",77014,29.977007943,-95.464299768,488,"2723 CHATFORD HOLLOW LANE, HOUSTON, TX, 77014","Match","Exact","2723 CHATFORD HOLLOW LN, HOUSTON, TX, 77014",630275095,"L"
437989,"2723 CHERRY","HOQUIAM","WA",98550,46.9770318480001,-123.862215593,489,"2723 CHERRY, HOQUIAM, WA, 98550","Match","Non_Exact","2723 CHERRY ST, HOQUIAM, WA, 98550",180581859,"R"
437990,"2723 CHERYL COURT","MISSOURI CITY","TX",77459,29.5833994380001,-95.574847795,490,"2723 CHERYL COURT, MISSOURI CITY, TX, 77459","Match","Exact","2723 CHERYL CT, MISSOURI CITY, TX, 77459",78290712,"R"
437991,"2723 CHRYSLER DRIVE","ROSWELL","NM",88201,33.428355767,-104.532434626,491,"2723 CHRYSLER DRIVE, ROSWELL, NM, 88201","Match","Exact","2723 CHRYSLER DR, ROSWELL, NM, 88201",131813334,"R"
437992,"2723 CO RD 24","GIBSONBURG","OH",43431,41.4186233030001,-83.386681647,492,"2723 CO RD 24, GIBSONBURG, OH, 43431","Match","Non_Exact","2723 CO HWY 24, GIBSONBURG, OH, 43431",38663763,"R"
437993,"2723 COFFEY AVE","BELLEVUE","NE",68123,41.13318266,-95.9526516289999,493,"2723 COFFEY AVE, BELLEVUE, NE, 68123","Match","Exact","2723 COFFEY AVE, BELLEVUE, NE, 68123",647805646,"R"
437994,"2723 COLONIAL LAKES DR STE 100","MISSOURI CITY","TX",77459,29.5839679430001,-95.576507705,494,"2723 COLONIAL LAKES DR STE 100, MISSOURI CITY, TX, 77459","Match","Exact","2723 COLONIAL LAKES DR, MISSOURI CITY, TX, 77459",78330196,"L"
437995,"2723 COLONIAL LAKES DR","MISSOURI CITY","TX",77459,29.5839679430001,-95.576507705,495,"2723 COLONIAL LAKES DR, MISSOURI CITY, TX, 77459","Match","Exact","2723 COLONIAL LAKES DR, MISSOURI CITY, TX, 77459",78330196,"L"
437996,"2723 DURANT TRAILS BLVD","DOVER","FL",33527,27.9078616090001,-82.2109581449999,496,"2723 DURANT TRAILS BLVD, DOVER, FL, 33527","Match","Exact","2723 DURANT TRAILS BLVD, DOVER, FL, 33527",631891016,"R"
437997,"2723 E 14TH PL","TULSA","OK",74104,36.141465931,-95.950924793,497,"2723 E 14TH PL, TULSA, OK, 74104","Match","Exact","2723 E 14TH PL, TULSA, OK, 74104",166443026,"L"
437998,"2723 E MARYLAND AVENUE","NAMPA","ID",83686,43.550104764,-116.53684938,498,"2723 E MARYLAND AVENUE, NAMPA, ID, 83686","Match","Exact","2723 E MARYLAND AVE, NAMPA, ID, 83686",122804200,"R"
437999,"2723 E NOLAN PLACE","CHANDLER","AZ",85249,33.2318173690001,-111.793856926,499,"2723 E NOLAN PLACE, CHANDLER, AZ, 85249","Match","Exact","2723 E NOLAN PL, CHANDLER, AZ, 85249",128855004,"R"
438000,"2723 EAST 3710 SOUTH","ST GEORGE","UT",84790,37.045492649,-113.528546086,500,"2723 EAST 3710 SOUTH, ST GEORGE, UT, 84790","Match","Non_Exact","2723 3710 S, SAINT GEORGE, UT, 84790",641621453,"L"
