"ID","Address","City","State","Zip","lat","long","id","input_address","match_indicator","match_type","matched_address","tiger_line_id","tiger_side"
992001,"PO BOX 6","DELAPLANE","VA",20144,NA,NA,1,"PO BOX 6, DELAPLANE, VA, 20144","No_Match",NA,NA,NA,NA
992002,"PO BOX 6","DIME BOX","TX",77853,NA,NA,2,"PO BOX 6, DIME BOX, TX, 77853","No_Match",NA,NA,NA,NA
992003,"PO BOX 6","DORCHESTER","NJ",8316,NA,NA,3,"PO BOX 6, DORCHESTER, NJ, 8316","No_Match",NA,NA,NA,NA
992004,"PO BOX 6","ELMO","TX",75118,NA,NA,4,"PO BOX 6, ELMO, TX, 75118","No_Match",NA,NA,NA,NA
992005,"PO BOX 6","ENCAMPMENT","WY",82325,NA,NA,5,"PO BOX 6, ENCAMPMENT, WY, 82325","No_Match",NA,NA,NA,NA
992006,"PO BOX 6","GRASS RANGE","MT",59032,NA,NA,6,"PO BOX 6, GRASS RANGE, MT, 59032","No_Match",NA,NA,NA,NA
992007,"PO BOX 6","GUILFORD","ME",4443,NA,NA,7,"PO BOX 6, GUILFORD, ME, 4443","No_Match",NA,NA,NA,NA
992008,"PO BOX 6","HAGERMAN","NM",88232,NA,NA,8,"PO BOX 6, HAGERMAN, NM, 88232","No_Match",NA,NA,NA,NA
992009,"PO BOX 6","HUNTLAND","TN",37345,NA,NA,9,"PO BOX 6, HUNTLAND, TN, 37345","No_Match",NA,NA,NA,NA
992010,"PO BOX 6","HURTSBORO","AL",36860,NA,NA,10,"PO BOX 6, HURTSBORO, AL, 36860","No_Match",NA,NA,NA,NA
992011,"PO BOX 6","INTERVALE","NH",3845,NA,NA,11,"PO BOX 6, INTERVALE, NH, 3845","No_Match",NA,NA,NA,NA
992012,"PO BOX 6","LEMONT","PA",16851,NA,NA,12,"PO BOX 6, LEMONT, PA, 16851","No_Match",NA,NA,NA,NA
992013,"PO BOX 6","LONG BARN","CA",95335,NA,NA,13,"PO BOX 6, LONG BARN, CA, 95335","No_Match",NA,NA,NA,NA
992014,"PO BOX 6","MARIETTA","SC",29661,NA,NA,14,"PO BOX 6, MARIETTA, SC, 29661","No_Match",NA,NA,NA,NA
992015,"PO BOX 6","MCDERMITT","NV",89421,NA,NA,15,"PO BOX 6, MCDERMITT, NV, 89421","No_Match",NA,NA,NA,NA
992016,"PO BOX 6","MILLS","WY",82644,NA,NA,16,"PO BOX 6, MILLS, WY, 82644","No_Match",NA,NA,NA,NA
992017,"PO BOX 6","MOUNTAINAIR","NM",87036,NA,NA,17,"PO BOX 6, MOUNTAINAIR, NM, 87036","No_Match",NA,NA,NA,NA
992018,"PO BOX 6","NASH","TX",75569,NA,NA,18,"PO BOX 6, NASH, TX, 75569","No_Match",NA,NA,NA,NA
992019,"PO BOX 6","NEW CASTLE","IN",47362,NA,NA,19,"PO BOX 6, NEW CASTLE, IN, 47362","No_Match",NA,NA,NA,NA
992020,"PO BOX 6","NEW LONDON","NC",28127,NA,NA,20,"PO BOX 6, NEW LONDON, NC, 28127","No_Match",NA,NA,NA,NA
992021,"PO BOX 6","NEW SUMMERFIELD","TX",75780,NA,NA,21,"PO BOX 6, NEW SUMMERFIELD, TX, 75780","No_Match",NA,NA,NA,NA
992022,"PO BOX 6","NEWBURGH","IN",47629,NA,NA,22,"PO BOX 6, NEWBURGH, IN, 47629","No_Match",NA,NA,NA,NA
992023,"PO BOX 6","OOKALA","HI",96774,NA,NA,23,"PO BOX 6, OOKALA, HI, 96774","No_Match",NA,NA,NA,NA
992024,"PO BOX 6","PAINTER","VA",23420,NA,NA,24,"PO BOX 6, PAINTER, VA, 23420","No_Match",NA,NA,NA,NA
992025,"PO BOX 6","PERU","KS",67360,NA,NA,25,"PO BOX 6, PERU, KS, 67360","No_Match",NA,NA,NA,NA
992026,"PO BOX 6","PILOT","VA",24138,NA,NA,26,"PO BOX 6, PILOT, VA, 24138","No_Match",NA,NA,NA,NA
992027,"PO BOX 6","PLACIDA","FL",33946,NA,NA,27,"PO BOX 6, PLACIDA, FL, 33946","No_Match",NA,NA,NA,NA
992028,"PO BOX 6","PLANKINTON","SD",57368,NA,NA,28,"PO BOX 6, PLANKINTON, SD, 57368","No_Match",NA,NA,NA,NA
992029,"PO BOX 6","RANCHESTER","WY",82839,NA,NA,29,"PO BOX 6, RANCHESTER, WY, 82839","No_Match",NA,NA,NA,NA
992030,"PO BOX 6","RAWLINS","WY",82301,NA,NA,30,"PO BOX 6, RAWLINS, WY, 82301","No_Match",NA,NA,NA,NA
992031,"PO BOX 6","ROLLINSVILLE","CO",80474,NA,NA,31,"PO BOX 6, ROLLINSVILLE, CO, 80474","No_Match",NA,NA,NA,NA
992032,"PO BOX 6","SAUSALITO","CA",94966,NA,NA,32,"PO BOX 6, SAUSALITO, CA, 94966","No_Match",NA,NA,NA,NA
992033,"PO BOX 6","THOMASTON","TX",77989,NA,NA,33,"PO BOX 6, THOMASTON, TX, 77989","No_Match",NA,NA,NA,NA
992034,"PO BOX 6","TREGO","MT",59934,NA,NA,34,"PO BOX 6, TREGO, MT, 59934","No_Match",NA,NA,NA,NA
992035,"PO BOX 6","WALHALLA","SC",29691,NA,NA,35,"PO BOX 6, WALHALLA, SC, 29691","No_Match",NA,NA,NA,NA
992036,"PO BOX 6","WEST BLOOMFIELD","NY",14585,NA,NA,36,"PO BOX 6, WEST BLOOMFIELD, NY, 14585","No_Match",NA,NA,NA,NA
992037,"PO BOX 6","WIERSDALE","FL",32195,NA,NA,37,"PO BOX 6, WIERSDALE, FL, 32195","No_Match",NA,NA,NA,NA
992038,"PO BOX 60","A","TX",75926,NA,NA,38,"PO BOX 60, A, TX, 75926","No_Match",NA,NA,NA,NA
992039,"PO BOX 60","ARNAUDVILLE","LA",70512,NA,NA,39,"PO BOX 60, ARNAUDVILLE, LA, 70512","No_Match",NA,NA,NA,NA
992040,"PO BOX 60","BRISTOL","VT",5443,NA,NA,40,"PO BOX 60, BRISTOL, VT, 5443","No_Match",NA,NA,NA,NA
992041,"PO BOX 60","BUFORD","GA",30515,NA,NA,41,"PO BOX 60, BUFORD, GA, 30515","No_Match",NA,NA,NA,NA
992042,"PO BOX 60","CLINTON","AR",72031,NA,NA,42,"PO BOX 60, CLINTON, AR, 72031","No_Match",NA,NA,NA,NA
992043,"PO BOX 60","COLD SPRING","NY",10516,NA,NA,43,"PO BOX 60, COLD SPRING, NY, 10516","No_Match",NA,NA,NA,NA
992044,"PO BOX 60","DENMARK","ME",4022,NA,NA,44,"PO BOX 60, DENMARK, ME, 4022","No_Match",NA,NA,NA,NA
992045,"PO BOX 60","GILBERT","SC",29054,NA,NA,45,"PO BOX 60, GILBERT, SC, 29054","No_Match",NA,NA,NA,NA
992046,"PO BOX 60","GUSTAVUS","AK",99826,NA,NA,46,"PO BOX 60, GUSTAVUS, AK, 99826","No_Match",NA,NA,NA,NA
992047,"PO BOX 60","GUY","AR",72061,NA,NA,47,"PO BOX 60, GUY, AR, 72061","No_Match",NA,NA,NA,NA
992048,"PO BOX 60","KIHEI","HI",96753,NA,NA,48,"PO BOX 60, KIHEI, HI, 96753","No_Match",NA,NA,NA,NA
992049,"PO BOX 60","LOACHAPOKA","AL",36865,NA,NA,49,"PO BOX 60, LOACHAPOKA, AL, 36865","No_Match",NA,NA,NA,NA
992050,"PO BOX 60","SAN SEBASTIAN","PR",685,NA,NA,50,"PO BOX 60, SAN SEBASTIAN, PR, 685","No_Match",NA,NA,NA,NA
992051,"PO BOX 60","WINTERVILLE","NC",28590,NA,NA,51,"PO BOX 60, WINTERVILLE, NC, 28590","No_Match",NA,NA,NA,NA
992052,"PO BOX 600","BOLIVAR","TN",38008,NA,NA,52,"PO BOX 600, BOLIVAR, TN, 38008","No_Match",NA,NA,NA,NA
992053,"PO BOX 600","CHESAPEAKE BEACH","MD",20732,NA,NA,53,"PO BOX 600, CHESAPEAKE BEACH, MD, 20732","No_Match",NA,NA,NA,NA
992054,"PO BOX 600","CHEWELAH","WA",99109,NA,NA,54,"PO BOX 600, CHEWELAH, WA, 99109","No_Match",NA,NA,NA,NA
992055,"PO BOX 600","EAST WINDSOR","CT",6088,NA,NA,55,"PO BOX 600, EAST WINDSOR, CT, 6088","No_Match",NA,NA,NA,NA
992056,"PO BOX 600","HUMBOLDT","AZ",86329,NA,NA,56,"PO BOX 600, HUMBOLDT, AZ, 86329","No_Match",NA,NA,NA,NA
992057,"PO BOX 600","KOOSKIA","ID",83539,NA,NA,57,"PO BOX 600, KOOSKIA, ID, 83539","No_Match",NA,NA,NA,NA
992058,"PO BOX 600","LEWISTON","ID",83539,NA,NA,58,"PO BOX 600, LEWISTON, ID, 83539","No_Match",NA,NA,NA,NA
992059,"PO BOX 600","NINE MILE FALLS","WA",99026,NA,NA,59,"PO BOX 600, NINE MILE FALLS, WA, 99026","No_Match",NA,NA,NA,NA
992060,"PO BOX 600","PENNGROVE","CA",94951,NA,NA,60,"PO BOX 600, PENNGROVE, CA, 94951","No_Match",NA,NA,NA,NA
992061,"PO BOX 6000","BINGHAMTON","NY",13902,NA,NA,61,"PO BOX 6000, BINGHAMTON, NY, 13902","No_Match",NA,NA,NA,NA
992062,"PO BOX 600063","PARAGONAH","UT",84760,NA,NA,62,"PO BOX 600063, PARAGONAH, UT, 84760","No_Match",NA,NA,NA,NA
992063,"PO BOX 6001","SYRACUSE","NY",13217,NA,NA,63,"PO BOX 6001, SYRACUSE, NY, 13217","No_Match",NA,NA,NA,NA
992064,"PO BOX 600101","DALLAS","TX",75360,NA,NA,64,"PO BOX 600101, DALLAS, TX, 75360","No_Match",NA,NA,NA,NA
992065,"PO BOX 600179","ST. THOMAS","VI",801,NA,NA,65,"PO BOX 600179, ST. THOMAS, VI, 801","No_Match",NA,NA,NA,NA
992066,"PO BOX 600183","DALLAS","TX",75360,NA,NA,66,"PO BOX 600183, DALLAS, TX, 75360","No_Match",NA,NA,NA,NA
992067,"PO BOX 600204","ST. PAUL","MN",55106,NA,NA,67,"PO BOX 600204, ST. PAUL, MN, 55106","No_Match",NA,NA,NA,NA
992068,"PO BOX 600246","ST PAUL","MN",55106,NA,NA,68,"PO BOX 600246, ST PAUL, MN, 55106","No_Match",NA,NA,NA,NA
992069,"PO BOX 6003","MOORE","OK",73170,NA,NA,69,"PO BOX 6003, MOORE, OK, 73170","No_Match",NA,NA,NA,NA
992070,"PO BOX 600414","SAN DIEGO","CA",92160,NA,NA,70,"PO BOX 600414, SAN DIEGO, CA, 92160","No_Match",NA,NA,NA,NA
992071,"PO BOX 600414","ST JOHNS","FL",32260,NA,NA,71,"PO BOX 600414, ST JOHNS, FL, 32260","No_Match",NA,NA,NA,NA
992072,"PO BOX 600505","SAN DIEGO","CA",92160,NA,NA,72,"PO BOX 600505, SAN DIEGO, CA, 92160","No_Match",NA,NA,NA,NA
992073,"PO BOX 60058","LAFAYETTE","LA",70596,NA,NA,73,"PO BOX 60058, LAFAYETTE, LA, 70596","No_Match",NA,NA,NA,NA
992074,"PO BOX 6006","PINE RIDGE","SD",57770,NA,NA,74,"PO BOX 6006, PINE RIDGE, SD, 57770","No_Match",NA,NA,NA,NA
992075,"PO BOX 600664","JACKSONVILLE","FL",32260,NA,NA,75,"PO BOX 600664, JACKSONVILLE, FL, 32260","No_Match",NA,NA,NA,NA
992076,"PO BOX 600702","SAINT PAUL","MN",55106,NA,NA,76,"PO BOX 600702, SAINT PAUL, MN, 55106","No_Match",NA,NA,NA,NA
992077,"PO BOX 6008","PAGO PAGO","AS",96799,NA,NA,77,"PO BOX 6008, PAGO PAGO, AS, 96799","No_Match",NA,NA,NA,NA
992078,"PO BOX 600904","SAN DIEGO","CA",92160,NA,NA,78,"PO BOX 600904, SAN DIEGO, CA, 92160","No_Match",NA,NA,NA,NA
992079,"PO BOX 60098","BROOKLYN","NY",11206,NA,NA,79,"PO BOX 60098, BROOKLYN, NY, 11206","No_Match",NA,NA,NA,NA
992080,"PO BOX 601","AMARILLO","TX",79105,NA,NA,80,"PO BOX 601, AMARILLO, TX, 79105","No_Match",NA,NA,NA,NA
992081,"PO BOX 601","ANDERSON","CA",96007,NA,NA,81,"PO BOX 601, ANDERSON, CA, 96007","No_Match",NA,NA,NA,NA
992082,"PO BOX 601","ARLINGTON","NE",68002,NA,NA,82,"PO BOX 601, ARLINGTON, NE, 68002","No_Match",NA,NA,NA,NA
992083,"PO BOX 601","BOOKER","TX",79005,NA,NA,83,"PO BOX 601, BOOKER, TX, 79005","No_Match",NA,NA,NA,NA
992084,"PO BOX 601","BOONVILLE","NC",27011,NA,NA,84,"PO BOX 601, BOONVILLE, NC, 27011","No_Match",NA,NA,NA,NA
992085,"PO BOX 601","BROWNSVILLE","CA",95919,NA,NA,85,"PO BOX 601, BROWNSVILLE, CA, 95919","No_Match",NA,NA,NA,NA
992086,"PO BOX 601","CARDIFF","CA",92007,NA,NA,86,"PO BOX 601, CARDIFF, CA, 92007","No_Match",NA,NA,NA,NA
992087,"PO BOX 601","CHELAN","WA",98816,NA,NA,87,"PO BOX 601, CHELAN, WA, 98816","No_Match",NA,NA,NA,NA
992088,"PO BOX 601","LELAND","MI",49654,NA,NA,88,"PO BOX 601, LELAND, MI, 49654","No_Match",NA,NA,NA,NA
992089,"PO BOX 601","MONROE","IA",50170,NA,NA,89,"PO BOX 601, MONROE, IA, 50170","No_Match",NA,NA,NA,NA
992090,"PO BOX 601","MOUNT HERMAN","CA",95041,NA,NA,90,"PO BOX 601, MOUNT HERMAN, CA, 95041","No_Match",NA,NA,NA,NA
992091,"PO BOX 601","ONALASKA","WI",54650,NA,NA,91,"PO BOX 601, ONALASKA, WI, 54650","No_Match",NA,NA,NA,NA
992092,"PO BOX 601","RED OAK","GA",30272,NA,NA,92,"PO BOX 601, RED OAK, GA, 30272","No_Match",NA,NA,NA,NA
992093,"PO BOX 601","SIDNEY","NE",69162,NA,NA,93,"PO BOX 601, SIDNEY, NE, 69162","No_Match",NA,NA,NA,NA
992094,"PO BOX 601","SKAGWAY","AK",99840,NA,NA,94,"PO BOX 601, SKAGWAY, AK, 99840","No_Match",NA,NA,NA,NA
992095,"PO BOX 601","WILLIAMSON","GA",30292,NA,NA,95,"PO BOX 601, WILLIAMSON, GA, 30292","No_Match",NA,NA,NA,NA
992096,"PO BOX 601","WILLOW","AK",99688,NA,NA,96,"PO BOX 601, WILLOW, AK, 99688","No_Match",NA,NA,NA,NA
992097,"PO BOX 601","WINTHROP","WA",98862,NA,NA,97,"PO BOX 601, WINTHROP, WA, 98862","No_Match",NA,NA,NA,NA
992098,"PO BOX 6010","LOS OSOS","CA",93402,NA,NA,98,"PO BOX 6010, LOS OSOS, CA, 93402","No_Match",NA,NA,NA,NA
992099,"PO BOX 60112","HARRISBURG","PA",17106,NA,NA,99,"PO BOX 60112, HARRISBURG, PA, 17106","No_Match",NA,NA,NA,NA
992100,"PO BOX 60128","NASHVILLE","TN",37206,NA,NA,100,"PO BOX 60128, NASHVILLE, TN, 37206","No_Match",NA,NA,NA,NA
992101,"PO BOX 60128","RENO","NV",89506,NA,NA,101,"PO BOX 60128, RENO, NV, 89506","No_Match",NA,NA,NA,NA
992102,"PO BOX 6013","OLYMPIA","WA",98507,NA,NA,102,"PO BOX 6013, OLYMPIA, WA, 98507","No_Match",NA,NA,NA,NA
992103,"PO BOX 60132","WASHINGTON","DC",20039,NA,NA,103,"PO BOX 60132, WASHINGTON, DC, 20039","No_Match",NA,NA,NA,NA
992104,"PO BOX 6014","HENRICO","VA",23508,NA,NA,104,"PO BOX 6014, HENRICO, VA, 23508","No_Match",NA,NA,NA,NA
992105,"PO BOX 6015","COLUMBIA","MO",65205,NA,NA,105,"PO BOX 6015, COLUMBIA, MO, 65205","No_Match",NA,NA,NA,NA
992106,"PO BOX 601581","KURTISTOWN","HI",96760,NA,NA,106,"PO BOX 601581, KURTISTOWN, HI, 96760","No_Match",NA,NA,NA,NA
992107,"PO BOX 6017","AMERICUS","GA",31709,NA,NA,107,"PO BOX 6017, AMERICUS, GA, 31709","No_Match",NA,NA,NA,NA
992108,"PO BOX 60171","DALLAS","TX",75360,NA,NA,108,"PO BOX 60171, DALLAS, TX, 75360","No_Match",NA,NA,NA,NA
992109,"PO BOX 601742","DALLAS","TX",75360,NA,NA,109,"PO BOX 601742, DALLAS, TX, 75360","No_Match",NA,NA,NA,NA
992110,"PO BOX 601832","MIAMI","FL",33160,NA,NA,110,"PO BOX 601832, MIAMI, FL, 33160","No_Match",NA,NA,NA,NA
992111,"PO BOX 601864","SAN DIEGO","CA",92160,NA,NA,111,"PO BOX 601864, SAN DIEGO, CA, 92160","No_Match",NA,NA,NA,NA
992112,"PO BOX 6019","OCEANSIDE","CA",92052,NA,NA,112,"PO BOX 6019, OCEANSIDE, CA, 92052","No_Match",NA,NA,NA,NA
992113,"PO BOX 601914","SACRAMENTO","CA",95860,NA,NA,113,"PO BOX 601914, SACRAMENTO, CA, 95860","No_Match",NA,NA,NA,NA
992114,"PO BOX 602","CALEDONIA","MI",49316,NA,NA,114,"PO BOX 602, CALEDONIA, MI, 49316","No_Match",NA,NA,NA,NA
992115,"PO BOX 602","CHESTERFIELD","VA",23832,NA,NA,115,"PO BOX 602, CHESTERFIELD, VA, 23832","No_Match",NA,NA,NA,NA
992116,"PO BOX 602","COMFORT","TX",78013,NA,NA,116,"PO BOX 602, COMFORT, TX, 78013","No_Match",NA,NA,NA,NA
992117,"PO BOX 602","CONNEAUT LAKE","PA",16316,NA,NA,117,"PO BOX 602, CONNEAUT LAKE, PA, 16316","No_Match",NA,NA,NA,NA
992118,"PO BOX 602","EASTON","WA",98925,NA,NA,118,"PO BOX 602, EASTON, WA, 98925","No_Match",NA,NA,NA,NA
992119,"PO BOX 602","ELSA","TX",78543,NA,NA,119,"PO BOX 602, ELSA, TX, 78543","No_Match",NA,NA,NA,NA
992120,"PO BOX 602","GENOA","NV",89411,NA,NA,120,"PO BOX 602, GENOA, NV, 89411","No_Match",NA,NA,NA,NA
992121,"PO BOX 602","GOULDSBORO","PA",18424,NA,NA,121,"PO BOX 602, GOULDSBORO, PA, 18424","No_Match",NA,NA,NA,NA
992122,"PO BOX 602","GRAND JUNCTION","CO",81502,NA,NA,122,"PO BOX 602, GRAND JUNCTION, CO, 81502","No_Match",NA,NA,NA,NA
992123,"PO BOX 602","GREAT FALLS","MT",59403,NA,NA,123,"PO BOX 602, GREAT FALLS, MT, 59403","No_Match",NA,NA,NA,NA
992124,"PO BOX 602","GREENVILLE","PA",16125,NA,NA,124,"PO BOX 602, GREENVILLE, PA, 16125","No_Match",NA,NA,NA,NA
992125,"PO BOX 602","HIGH POINT","NC",27261,NA,NA,125,"PO BOX 602, HIGH POINT, NC, 27261","No_Match",NA,NA,NA,NA
992126,"PO BOX 602","KINSTON","AL",36453,NA,NA,126,"PO BOX 602, KINSTON, AL, 36453","No_Match",NA,NA,NA,NA
992127,"PO BOX 602","LONE TREE","IA",52755,NA,NA,127,"PO BOX 602, LONE TREE, IA, 52755","No_Match",NA,NA,NA,NA
992128,"PO BOX 602","MISSION","SD",57555,NA,NA,128,"PO BOX 602, MISSION, SD, 57555","No_Match",NA,NA,NA,NA
992129,"PO BOX 602","PLAINSBORO","NJ",8536,NA,NA,129,"PO BOX 602, PLAINSBORO, NJ, 8536","No_Match",NA,NA,NA,NA
992130,"PO BOX 602","TERLINGUA","TX",79852,NA,NA,130,"PO BOX 602, TERLINGUA, TX, 79852","No_Match",NA,NA,NA,NA
992131,"PO BOX 602","TROY","KS",66087,NA,NA,131,"PO BOX 602, TROY, KS, 66087","No_Match",NA,NA,NA,NA
992132,"PO BOX 602","WESTWOOD","CA",96137,NA,NA,132,"PO BOX 602, WESTWOOD, CA, 96137","No_Match",NA,NA,NA,NA
992133,"PO BOX 602","YELLOW SPRINGS","OH",45387,NA,NA,133,"PO BOX 602, YELLOW SPRINGS, OH, 45387","No_Match",NA,NA,NA,NA
992134,"PO BOX 6020","NAPA","CA",94581,NA,NA,134,"PO BOX 6020, NAPA, CA, 94581","No_Match",NA,NA,NA,NA
992135,"PO BOX 6020","RIDGELAND","MS",39158,NA,NA,135,"PO BOX 6020, RIDGELAND, MS, 39158","No_Match",NA,NA,NA,NA
992136,"PO BOX 602034","SAN DIEGO","CA",92160,NA,NA,136,"PO BOX 602034, SAN DIEGO, CA, 92160","No_Match",NA,NA,NA,NA
992137,"PO BOX 6022","CHESAPEAKE","VA",23323,NA,NA,137,"PO BOX 6022, CHESAPEAKE, VA, 23323","No_Match",NA,NA,NA,NA
992138,"PO BOX 6022","VANCLEAVE","MS",39565,NA,NA,138,"PO BOX 6022, VANCLEAVE, MS, 39565","No_Match",NA,NA,NA,NA
992139,"PO BOX 60226","FORT WORTH","TX",76115,NA,NA,139,"PO BOX 60226, FORT WORTH, TX, 76115","No_Match",NA,NA,NA,NA
992140,"PO BOX 60233","FORT WORTH","TX",76115,NA,NA,140,"PO BOX 60233, FORT WORTH, TX, 76115","No_Match",NA,NA,NA,NA
992141,"PO BOX 6024","FORT WORTH","TX",76115,NA,NA,141,"PO BOX 6024, FORT WORTH, TX, 76115","No_Match",NA,NA,NA,NA
992142,"PO BOX 6025","MORGANTOWN","WV",26505,NA,NA,142,"PO BOX 6025, MORGANTOWN, WV, 26505","No_Match",NA,NA,NA,NA
992143,"PO BOX 6025","MORGANTOWN","WV",26506,NA,NA,143,"PO BOX 6025, MORGANTOWN, WV, 26506","No_Match",NA,NA,NA,NA
992144,"PO BOX 60254","FAIRBANKS","AK",99706,NA,NA,144,"PO BOX 60254, FAIRBANKS, AK, 99706","No_Match",NA,NA,NA,NA
992145,"PO BOX 6026","KINGWOOD","TX",77325,NA,NA,145,"PO BOX 6026, KINGWOOD, TX, 77325","No_Match",NA,NA,NA,NA
992146,"PO BOX 6029","FRISCO","CO",80443,NA,NA,146,"PO BOX 6029, FRISCO, CO, 80443","No_Match",NA,NA,NA,NA
992147,"PO BOX 603","CARROLLTON","MS",38917,NA,NA,147,"PO BOX 603, CARROLLTON, MS, 38917","No_Match",NA,NA,NA,NA
992148,"PO BOX 603","DRIPPING SPRINGS","TX",78620,NA,NA,148,"PO BOX 603, DRIPPING SPRINGS, TX, 78620","No_Match",NA,NA,NA,NA
992149,"PO BOX 603","FRANKLIN","NJ",7416,NA,NA,149,"PO BOX 603, FRANKLIN, NJ, 7416","No_Match",NA,NA,NA,NA
992150,"PO BOX 603","HASKELL","OK",74436,NA,NA,150,"PO BOX 603, HASKELL, OK, 74436","No_Match",NA,NA,NA,NA
992151,"PO BOX 603","HAYDEN","CO",81639,NA,NA,151,"PO BOX 603, HAYDEN, CO, 81639","No_Match",NA,NA,NA,NA
992152,"PO BOX 603","HAYFORK","CA",96041,NA,NA,152,"PO BOX 603, HAYFORK, CA, 96041","No_Match",NA,NA,NA,NA
992153,"PO BOX 603","LITTLEROCK","CA",93543,NA,NA,153,"PO BOX 603, LITTLEROCK, CA, 93543","No_Match",NA,NA,NA,NA
992154,"PO BOX 603","MANDERSON","SD",57756,NA,NA,154,"PO BOX 603, MANDERSON, SD, 57756","No_Match",NA,NA,NA,NA
992155,"PO BOX 603","MCCLEARY","WA",98557,NA,NA,155,"PO BOX 603, MCCLEARY, WA, 98557","No_Match",NA,NA,NA,NA
992156,"PO BOX 603","NASHVILLE","NC",27856,NA,NA,156,"PO BOX 603, NASHVILLE, NC, 27856","No_Match",NA,NA,NA,NA
992157,"PO BOX 603","PACIFIC CITY","OR",97135,NA,NA,157,"PO BOX 603, PACIFIC CITY, OR, 97135","No_Match",NA,NA,NA,NA
992158,"PO BOX 603","RIVERTON","IL",62561,NA,NA,158,"PO BOX 603, RIVERTON, IL, 62561","No_Match",NA,NA,NA,NA
992159,"PO BOX 603","ST HELENA","CA",94574,NA,NA,159,"PO BOX 603, ST HELENA, CA, 94574","No_Match",NA,NA,NA,NA
992160,"PO BOX 603","TRENTON","GA",30752,NA,NA,160,"PO BOX 603, TRENTON, GA, 30752","No_Match",NA,NA,NA,NA
992161,"PO BOX 603","WARFIELD","KY",41267,NA,NA,161,"PO BOX 603, WARFIELD, KY, 41267","No_Match",NA,NA,NA,NA
992162,"PO BOX 603","WESTBROOK","ME",4098,NA,NA,162,"PO BOX 603, WESTBROOK, ME, 4098","No_Match",NA,NA,NA,NA
992163,"PO BOX 603","WHITE SALMON","WA",98672,NA,NA,163,"PO BOX 603, WHITE SALMON, WA, 98672","No_Match",NA,NA,NA,NA
992164,"PO BOX 603091","DALLAS","TX",75360,NA,NA,164,"PO BOX 603091, DALLAS, TX, 75360","No_Match",NA,NA,NA,NA
992165,"PO BOX 603116","CLEVELAND","OH",44103,NA,NA,165,"PO BOX 603116, CLEVELAND, OH, 44103","No_Match",NA,NA,NA,NA
992166,"PO BOX 603156 1650 EAST 55TH STREET","CLEVELAND","OH",44103,41.5137198200001,-81.6518693099999,166,"PO BOX 603156 1650 EAST 55TH STREET, CLEVELAND, OH, 44103","Match","Exact","1650 E 55TH ST, CLEVELAND, OH, 44103",61112659,"R"
992167,"PO BOX 6032","CRESTLINE","CA",92325,NA,NA,167,"PO BOX 6032, CRESTLINE, CA, 92325","No_Match",NA,NA,NA,NA
992168,"PO BOX 6032","OROVILLE","CA",95965,NA,NA,168,"PO BOX 6032, OROVILLE, CA, 95965","No_Match",NA,NA,NA,NA
992169,"PO BOX 60334","RENO","NV",89506,NA,NA,169,"PO BOX 60334, RENO, NV, 89506","No_Match",NA,NA,NA,NA
992170,"PO BOX 60341","LAFAYETTE","LA",70596,NA,NA,170,"PO BOX 60341, LAFAYETTE, LA, 70596","No_Match",NA,NA,NA,NA
992171,"PO BOX 6035","OMAHA","NE",60106,NA,NA,171,"PO BOX 6035, OMAHA, NE, 60106","No_Match",NA,NA,NA,NA
992172,"PO BOX 6035","OMAHA","NE",68106,NA,NA,172,"PO BOX 6035, OMAHA, NE, 68106","No_Match",NA,NA,NA,NA
992173,"PO BOX 6036","CONCORD","NC",28027,NA,NA,173,"PO BOX 6036, CONCORD, NC, 28027","No_Match",NA,NA,NA,NA
992174,"PO BOX 6037","MIDLAND","TX",79704,NA,NA,174,"PO BOX 6037, MIDLAND, TX, 79704","No_Match",NA,NA,NA,NA
992175,"PO BOX 60371","PALO ALTO","CA",94306,NA,NA,175,"PO BOX 60371, PALO ALTO, CA, 94306","No_Match",NA,NA,NA,NA
992176,"PO BOX 604","BENTON","IL",62812,NA,NA,176,"PO BOX 604, BENTON, IL, 62812","No_Match",NA,NA,NA,NA
992177,"PO BOX 604","CHATSWORTH","NJ",8019,NA,NA,177,"PO BOX 604, CHATSWORTH, NJ, 8019","No_Match",NA,NA,NA,NA
992178,"PO BOX 604","CROWHEART","WY",82512,NA,NA,178,"PO BOX 604, CROWHEART, WY, 82512","No_Match",NA,NA,NA,NA
992179,"PO BOX 604","CUERO","TX",77954,NA,NA,179,"PO BOX 604, CUERO, TX, 77954","No_Match",NA,NA,NA,NA
992180,"PO BOX 604","ELLICOTTVILLE","NY",14731,NA,NA,180,"PO BOX 604, ELLICOTTVILLE, NY, 14731","No_Match",NA,NA,NA,NA
992181,"PO BOX 604","HARTSEL","CO",80449,NA,NA,181,"PO BOX 604, HARTSEL, CO, 80449","No_Match",NA,NA,NA,NA
992182,"PO BOX 604","HOUGHTON LAKE","MI",48629,NA,NA,182,"PO BOX 604, HOUGHTON LAKE, MI, 48629","No_Match",NA,NA,NA,NA
992183,"PO BOX 604","INDIAN TRAIL","NC",28079,NA,NA,183,"PO BOX 604, INDIAN TRAIL, NC, 28079","No_Match",NA,NA,NA,NA
992184,"PO BOX 604","MANSFIELD","OH",44901,NA,NA,184,"PO BOX 604, MANSFIELD, OH, 44901","No_Match",NA,NA,NA,NA
992185,"PO BOX 604","MCCAMEY","TX",79752,NA,NA,185,"PO BOX 604, MCCAMEY, TX, 79752","No_Match",NA,NA,NA,NA
992186,"PO BOX 604","MONTPELIER","VT",5601,NA,NA,186,"PO BOX 604, MONTPELIER, VT, 5601","No_Match",NA,NA,NA,NA
992187,"PO BOX 604","NAPLES","TX",75568,NA,NA,187,"PO BOX 604, NAPLES, TX, 75568","No_Match",NA,NA,NA,NA
992188,"PO BOX 604","NOME","AK",99762,NA,NA,188,"PO BOX 604, NOME, AK, 99762","No_Match",NA,NA,NA,NA
992189,"PO BOX 604","PICKERINGTON","OH",43147,NA,NA,189,"PO BOX 604, PICKERINGTON, OH, 43147","No_Match",NA,NA,NA,NA
992190,"PO BOX 604","PORT OCONNOR","TX",77982,NA,NA,190,"PO BOX 604, PORT OCONNOR, TX, 77982","No_Match",NA,NA,NA,NA
992191,"PO BOX 604","SABANA GRANDE","PR",637,NA,NA,191,"PO BOX 604, SABANA GRANDE, PR, 637","No_Match",NA,NA,NA,NA
992192,"PO BOX 604","SPRING CITY","TN",37381,NA,NA,192,"PO BOX 604, SPRING CITY, TN, 37381","No_Match",NA,NA,NA,NA
992193,"PO BOX 604","VAUGHN","WA",98394,NA,NA,193,"PO BOX 604, VAUGHN, WA, 98394","No_Match",NA,NA,NA,NA
992194,"PO BOX 60403","IRVINE","CA",92602,NA,NA,194,"PO BOX 60403, IRVINE, CA, 92602","No_Match",NA,NA,NA,NA
992195,"PO BOX 60406","DAYTON","OH",45406,NA,NA,195,"PO BOX 60406, DAYTON, OH, 45406","No_Match",NA,NA,NA,NA
992196,"PO BOX 604190","BAY TERRACE","NY",11360,NA,NA,196,"PO BOX 604190, BAY TERRACE, NY, 11360","No_Match",NA,NA,NA,NA
992197,"PO BOX 604224","BAYSIDE","NY",11360,NA,NA,197,"PO BOX 604224, BAYSIDE, NY, 11360","No_Match",NA,NA,NA,NA
992198,"PO BOX 6045","GRAND RAPIDS","MI",49516,NA,NA,198,"PO BOX 6045, GRAND RAPIDS, MI, 49516","No_Match",NA,NA,NA,NA
992199,"PO BOX 60475","SAVANNAH","GA",31420,NA,NA,199,"PO BOX 60475, SAVANNAH, GA, 31420","No_Match",NA,NA,NA,NA
992200,"PO BOX 60494","SACRAMENTO","CA",95860,NA,NA,200,"PO BOX 60494, SACRAMENTO, CA, 95860","No_Match",NA,NA,NA,NA
992201,"PO BOX 60494","SACRAMENTOQ","CA",95860,NA,NA,201,"PO BOX 60494, SACRAMENTOQ, CA, 95860","No_Match",NA,NA,NA,NA
992202,"PO BOX 605 2031 DOBSON RD","WEST BRANCH","MI",48661,44.2738101570001,-84.326948036,202,"PO BOX 605 2031 DOBSON RD, WEST BRANCH, MI, 48661","Match","Exact","2031 DOBSON RD, WEST BRANCH, MI, 48661",642475552,"R"
992203,"PO BOX 605","AUGUSTA","WV",26704,NA,NA,203,"PO BOX 605, AUGUSTA, WV, 26704","No_Match",NA,NA,NA,NA
992204,"PO BOX 605","BRIDGTON","ME",4009,NA,NA,204,"PO BOX 605, BRIDGTON, ME, 4009","No_Match",NA,NA,NA,NA
992205,"PO BOX 605","CAVENDISH","VT",5142,NA,NA,205,"PO BOX 605, CAVENDISH, VT, 5142","No_Match",NA,NA,NA,NA
992206,"PO BOX 605","CHAPEL HILL","TN",37034,NA,NA,206,"PO BOX 605, CHAPEL HILL, TN, 37034","No_Match",NA,NA,NA,NA
992207,"PO BOX 605","CROWHEART","WY",82512,NA,NA,207,"PO BOX 605, CROWHEART, WY, 82512","No_Match",NA,NA,NA,NA
992208,"PO BOX 605","ELKTON","KY",42220,NA,NA,208,"PO BOX 605, ELKTON, KY, 42220","No_Match",NA,NA,NA,NA
992209,"PO BOX 605","EVANSVILLE","WY",82636,NA,NA,209,"PO BOX 605, EVANSVILLE, WY, 82636","No_Match",NA,NA,NA,NA
992210,"PO BOX 605","FLOYD","VA",24091,NA,NA,210,"PO BOX 605, FLOYD, VA, 24091","No_Match",NA,NA,NA,NA
992211,"PO BOX 605","FOLSOM","LA",70437,NA,NA,211,"PO BOX 605, FOLSOM, LA, 70437","No_Match",NA,NA,NA,NA
992212,"PO BOX 605","IONE","CA",95640,NA,NA,212,"PO BOX 605, IONE, CA, 95640","No_Match",NA,NA,NA,NA
992213,"PO BOX 605","MIDWAY","FL",32343,NA,NA,213,"PO BOX 605, MIDWAY, FL, 32343","No_Match",NA,NA,NA,NA
992214,"PO BOX 605","MILFORD","ME",4461,NA,NA,214,"PO BOX 605, MILFORD, ME, 4461","No_Match",NA,NA,NA,NA
992215,"PO BOX 605","PRINCETON","NC",27569,NA,NA,215,"PO BOX 605, PRINCETON, NC, 27569","No_Match",NA,NA,NA,NA
992216,"PO BOX 605","SOUTH HILL","VA",23970,NA,NA,216,"PO BOX 605, SOUTH HILL, VA, 23970","No_Match",NA,NA,NA,NA
992217,"PO BOX 605","VALLEY CENTER","CA",92082,NA,NA,217,"PO BOX 605, VALLEY CENTER, CA, 92082","No_Match",NA,NA,NA,NA
992218,"PO BOX 605","VANCOUVER","WA",98666,NA,NA,218,"PO BOX 605, VANCOUVER, WA, 98666","No_Match",NA,NA,NA,NA
992219,"PO BOX 605","WASHINGTON","WV",26181,NA,NA,219,"PO BOX 605, WASHINGTON, WV, 26181","No_Match",NA,NA,NA,NA
992220,"PO BOX 6052","BEND","OR",97708,NA,NA,220,"PO BOX 6052, BEND, OR, 97708","No_Match",NA,NA,NA,NA
992221,"PO BOX 6052","KENT","WA",98064,NA,NA,221,"PO BOX 6052, KENT, WA, 98064","No_Match",NA,NA,NA,NA
992222,"PO BOX 6052","ST THOMAS","VI",804,NA,NA,222,"PO BOX 6052, ST THOMAS, VI, 804","No_Match",NA,NA,NA,NA
992223,"PO BOX 60522","HOUSTON","TX",77205,NA,NA,223,"PO BOX 60522, HOUSTON, TX, 77205","No_Match",NA,NA,NA,NA
992224,"PO BOX 6054","CHICO","CA",95927,NA,NA,224,"PO BOX 6054, CHICO, CA, 95927","No_Match",NA,NA,NA,NA
992225,"PO BOX 60546","SAVANNAH","GA",31420,NA,NA,225,"PO BOX 60546, SAVANNAH, GA, 31420","No_Match",NA,NA,NA,NA
992226,"PO BOX 6055","FISHERS","IN",46038,NA,NA,226,"PO BOX 6055, FISHERS, IN, 46038","No_Match",NA,NA,NA,NA
992227,"PO BOX 6055","ST. LOUIS","MO",63139,NA,NA,227,"PO BOX 6055, ST. LOUIS, MO, 63139","No_Match",NA,NA,NA,NA
992228,"PO BOX 60554","POWAY","CA",92064,NA,NA,228,"PO BOX 60554, POWAY, CA, 92064","No_Match",NA,NA,NA,NA
992229,"PO BOX 6056","BAKERSFIELD","CA",93386,NA,NA,229,"PO BOX 6056, BAKERSFIELD, CA, 93386","No_Match",NA,NA,NA,NA
992230,"PO BOX 6056","JBER","AK",99506,NA,NA,230,"PO BOX 6056, JBER, AK, 99506","No_Match",NA,NA,NA,NA
992231,"PO BOX 6056","ROCHESTER","MN",55903,NA,NA,231,"PO BOX 6056, ROCHESTER, MN, 55903","No_Match",NA,NA,NA,NA
992232,"PO BOX 6056","WILSON","NC",27894,NA,NA,232,"PO BOX 6056, WILSON, NC, 27894","No_Match",NA,NA,NA,NA
992233,"PO BOX 60564","SAVANNAH","GA",31420,NA,NA,233,"PO BOX 60564, SAVANNAH, GA, 31420","No_Match",NA,NA,NA,NA
992234,"PO BOX 60568","WASHINGTON","DC",20039,NA,NA,234,"PO BOX 60568, WASHINGTON, DC, 20039","No_Match",NA,NA,NA,NA
992235,"PO BOX 6058","COLUMBUS","GA",31917,NA,NA,235,"PO BOX 6058, COLUMBUS, GA, 31917","No_Match",NA,NA,NA,NA
992236,"PO BOX 60580","MIDLAND","TX",79711,NA,NA,236,"PO BOX 60580, MIDLAND, TX, 79711","No_Match",NA,NA,NA,NA
992237,"PO BOX 606","ARMUCHEE","GA",30105,NA,NA,237,"PO BOX 606, ARMUCHEE, GA, 30105","No_Match",NA,NA,NA,NA
992238,"PO BOX 606","BERRYVILLE","AR",72616,NA,NA,238,"PO BOX 606, BERRYVILLE, AR, 72616","No_Match",NA,NA,NA,NA
992239,"PO BOX 606","BOYD","TX",76023,NA,NA,239,"PO BOX 606, BOYD, TX, 76023","No_Match",NA,NA,NA,NA
992240,"PO BOX 606","CANTONMENT","FL",32533,NA,NA,240,"PO BOX 606, CANTONMENT, FL, 32533","No_Match",NA,NA,NA,NA
992241,"PO BOX 606","CANYONVILLE","OR",97417,NA,NA,241,"PO BOX 606, CANYONVILLE, OR, 97417","No_Match",NA,NA,NA,NA
992242,"PO BOX 606","CARLSBAD","CA",92018,NA,NA,242,"PO BOX 606, CARLSBAD, CA, 92018","No_Match",NA,NA,NA,NA
992243,"PO BOX 606","CORNELL","WI",54732,NA,NA,243,"PO BOX 606, CORNELL, WI, 54732","No_Match",NA,NA,NA,NA
992244,"PO BOX 606","CROWHEARD","WY",82512,NA,NA,244,"PO BOX 606, CROWHEARD, WY, 82512","No_Match",NA,NA,NA,NA
992245,"PO BOX 606","GUIN","AL",35563,NA,NA,245,"PO BOX 606, GUIN, AL, 35563","No_Match",NA,NA,NA,NA
992246,"PO BOX 606","HERMISTON","OR",97838,NA,NA,246,"PO BOX 606, HERMISTON, OR, 97838","No_Match",NA,NA,NA,NA
992247,"PO BOX 606","INDEPENDENCE","OR",97351,NA,NA,247,"PO BOX 606, INDEPENDENCE, OR, 97351","No_Match",NA,NA,NA,NA
992248,"PO BOX 606","LAPLACE","LA",70069,NA,NA,248,"PO BOX 606, LAPLACE, LA, 70069","No_Match",NA,NA,NA,NA
992249,"PO BOX 606","MIDDLEBURG","FL",32050,NA,NA,249,"PO BOX 606, MIDDLEBURG, FL, 32050","No_Match",NA,NA,NA,NA
992250,"PO BOX 606","MOUNT KISCO","NY",10549,NA,NA,250,"PO BOX 606, MOUNT KISCO, NY, 10549","No_Match",NA,NA,NA,NA
992251,"PO BOX 606","RICHLAND","MO",65556,NA,NA,251,"PO BOX 606, RICHLAND, MO, 65556","No_Match",NA,NA,NA,NA
992252,"PO BOX 606","SOLEDAD","CA",93960,NA,NA,252,"PO BOX 606, SOLEDAD, CA, 93960","No_Match",NA,NA,NA,NA
992253,"PO BOX 6060","CLEVELAND","OH",37320,NA,NA,253,"PO BOX 6060, CLEVELAND, OH, 37320","No_Match",NA,NA,NA,NA
992254,"PO BOX 6061","LARGO","MD",20792,NA,NA,254,"PO BOX 6061, LARGO, MD, 20792","No_Match",NA,NA,NA,NA
992255,"PO BOX 6062","ALHAMBRA","CA",91802,NA,NA,255,"PO BOX 6062, ALHAMBRA, CA, 91802","No_Match",NA,NA,NA,NA
992256,"PO BOX 6062","MARIETTA","GA",30065,NA,NA,256,"PO BOX 6062, MARIETTA, GA, 30065","No_Match",NA,NA,NA,NA
992257,"PO BOX 6062","MCALLEN","TX",78502,NA,NA,257,"PO BOX 6062, MCALLEN, TX, 78502","No_Match",NA,NA,NA,NA
992258,"PO BOX 60621","HOUSTON","TX",77205,NA,NA,258,"PO BOX 60621, HOUSTON, TX, 77205","No_Match",NA,NA,NA,NA
992259,"PO BOX 60662","POTOMAC","MD",20859,NA,NA,259,"PO BOX 60662, POTOMAC, MD, 20859","No_Match",NA,NA,NA,NA
992260,"PO BOX 60684","BAKERSFIELD","CA",93386,NA,NA,260,"PO BOX 60684, BAKERSFIELD, CA, 93386","No_Match",NA,NA,NA,NA
992261,"PO BOX 60685","FORT MYERS","FL",33906,NA,NA,261,"PO BOX 60685, FORT MYERS, FL, 33906","No_Match",NA,NA,NA,NA
992262,"PO BOX 607","ABSECON","NJ",8201,NA,NA,262,"PO BOX 607, ABSECON, NJ, 8201","No_Match",NA,NA,NA,NA
992263,"PO BOX 607","AMA","LA",70031,NA,NA,263,"PO BOX 607, AMA, LA, 70031","No_Match",NA,NA,NA,NA
992264,"PO BOX 607","AMITY","OR",97101,NA,NA,264,"PO BOX 607, AMITY, OR, 97101","No_Match",NA,NA,NA,NA
992265,"PO BOX 607","BRIGHTWATERS","NY",11718,NA,NA,265,"PO BOX 607, BRIGHTWATERS, NY, 11718","No_Match",NA,NA,NA,NA
992266,"PO BOX 607","CHOTEAU","MT",59422,NA,NA,266,"PO BOX 607, CHOTEAU, MT, 59422","No_Match",NA,NA,NA,NA
992267,"PO BOX 607","GRAND MARAIS","MN",55604,NA,NA,267,"PO BOX 607, GRAND MARAIS, MN, 55604","No_Match",NA,NA,NA,NA
992268,"PO BOX 607","HUMBOLDT","AZ",86329,NA,NA,268,"PO BOX 607, HUMBOLDT, AZ, 86329","No_Match",NA,NA,NA,NA
992269,"PO BOX 607","LEWISTON","ID",83501,NA,NA,269,"PO BOX 607, LEWISTON, ID, 83501","No_Match",NA,NA,NA,NA
992270,"PO BOX 607","LIBERTY HILL","TX",78640,NA,NA,270,"PO BOX 607, LIBERTY HILL, TX, 78640","No_Match",NA,NA,NA,NA
992271,"PO BOX 607","LIBERTY HILL","TX",78642,NA,NA,271,"PO BOX 607, LIBERTY HILL, TX, 78642","No_Match",NA,NA,NA,NA
992272,"PO BOX 607","MANSFIELD","MO",65704,NA,NA,272,"PO BOX 607, MANSFIELD, MO, 65704","No_Match",NA,NA,NA,NA
992273,"PO BOX 607","NEW MARKET","TN",37820,NA,NA,273,"PO BOX 607, NEW MARKET, TN, 37820","No_Match",NA,NA,NA,NA
992274,"PO BOX 607","NEWTOWN","PA",18940,NA,NA,274,"PO BOX 607, NEWTOWN, PA, 18940","No_Match",NA,NA,NA,NA
992275,"PO BOX 607","ROCKWALL","TX",75087,NA,NA,275,"PO BOX 607, ROCKWALL, TX, 75087","No_Match",NA,NA,NA,NA
992276,"PO BOX 607","RUSSELLVILLE","KY",42276,NA,NA,276,"PO BOX 607, RUSSELLVILLE, KY, 42276","No_Match",NA,NA,NA,NA
992277,"PO BOX 607","SAINT JAMES","MO",65559,NA,NA,277,"PO BOX 607, SAINT JAMES, MO, 65559","No_Match",NA,NA,NA,NA
992278,"PO BOX 607","SAXTONS RIVER","VT",5154,NA,NA,278,"PO BOX 607, SAXTONS RIVER, VT, 5154","No_Match",NA,NA,NA,NA
992279,"PO BOX 607","VANCOUVER","WA",98666,NA,NA,279,"PO BOX 607, VANCOUVER, WA, 98666","No_Match",NA,NA,NA,NA
992280,"PO BOX 6070","NORTH BABYLON","NY",11703,NA,NA,280,"PO BOX 6070, NORTH BABYLON, NY, 11703","No_Match",NA,NA,NA,NA
992281,"PO BOX 6070","RIVERTON","WY",82501,NA,NA,281,"PO BOX 6070, RIVERTON, WY, 82501","No_Match",NA,NA,NA,NA
992282,"PO BOX 60702","FORT MYERS","FL",33906,NA,NA,282,"PO BOX 60702, FORT MYERS, FL, 33906","No_Match",NA,NA,NA,NA
992283,"PO BOX 607147","ORLANDO","FL",32860,NA,NA,283,"PO BOX 607147, ORLANDO, FL, 32860","No_Match",NA,NA,NA,NA
992284,"PO BOX 6073","OAKLAND","CA",94603,NA,NA,284,"PO BOX 6073, OAKLAND, CA, 94603","No_Match",NA,NA,NA,NA
992285,"PO BOX 60743","FAIRBANKS","AK",99706,NA,NA,285,"PO BOX 60743, FAIRBANKS, AK, 99706","No_Match",NA,NA,NA,NA
992286,"PO BOX 60752","JACKSONVILLE","FL",32236,NA,NA,286,"PO BOX 60752, JACKSONVILLE, FL, 32236","No_Match",NA,NA,NA,NA
992287,"PO BOX 60777","LAS VEGAS","NV",98160,NA,NA,287,"PO BOX 60777, LAS VEGAS, NV, 98160","No_Match",NA,NA,NA,NA
992288,"PO BOX 6078","CAPITAL HEIGHTS","MD",20791,NA,NA,288,"PO BOX 6078, CAPITAL HEIGHTS, MD, 20791","No_Match",NA,NA,NA,NA
992289,"PO BOX 60782","LAFAYETTE","LA",70596,NA,NA,289,"PO BOX 60782, LAFAYETTE, LA, 70596","No_Match",NA,NA,NA,NA
992290,"PO BOX 6079","FALL RIVER","MA",2724,NA,NA,290,"PO BOX 6079, FALL RIVER, MA, 2724","No_Match",NA,NA,NA,NA
992291,"PO BOX 60790","RENO","NV",89506,NA,NA,291,"PO BOX 60790, RENO, NV, 89506","No_Match",NA,NA,NA,NA
992292,"PO BOX 608","ANCHOR POINT","AK",99556,NA,NA,292,"PO BOX 608, ANCHOR POINT, AK, 99556","No_Match",NA,NA,NA,NA
992293,"PO BOX 608","ASHLAND","KS",67831,NA,NA,293,"PO BOX 608, ASHLAND, KS, 67831","No_Match",NA,NA,NA,NA
992294,"PO BOX 608","BOCA GRANDE","FL",33921,NA,NA,294,"PO BOX 608, BOCA GRANDE, FL, 33921","No_Match",NA,NA,NA,NA
992295,"PO BOX 608","CAPTAIN COOK","HI",96745,NA,NA,295,"PO BOX 608, CAPTAIN COOK, HI, 96745","No_Match",NA,NA,NA,NA
992296,"PO BOX 608","CONGRESS","AZ",85332,NA,NA,296,"PO BOX 608, CONGRESS, AZ, 85332","No_Match",NA,NA,NA,NA
992297,"PO BOX 608","ESTACADA","OR",97023,NA,NA,297,"PO BOX 608, ESTACADA, OR, 97023","No_Match",NA,NA,NA,NA
992298,"PO BOX 608","FLORISSANT","CO",80816,NA,NA,298,"PO BOX 608, FLORISSANT, CO, 80816","No_Match",NA,NA,NA,NA
992299,"PO BOX 608","FLOSSMOOR","IL",60422,NA,NA,299,"PO BOX 608, FLOSSMOOR, IL, 60422","No_Match",NA,NA,NA,NA
992300,"PO BOX 608","MOUND","MN",55364,NA,NA,300,"PO BOX 608, MOUND, MN, 55364","No_Match",NA,NA,NA,NA
992301,"PO BOX 608","POCONO PINES","PA",18350,NA,NA,301,"PO BOX 608, POCONO PINES, PA, 18350","No_Match",NA,NA,NA,NA
992302,"PO BOX 608","SHALLOTTE","NC",28459,NA,NA,302,"PO BOX 608, SHALLOTTE, NC, 28459","No_Match",NA,NA,NA,NA
992303,"PO BOX 608","VALDOSTA","GA",31603,NA,NA,303,"PO BOX 608, VALDOSTA, GA, 31603","No_Match",NA,NA,NA,NA
992304,"PO BOX 60801","SAVANNAH","GA",31420,NA,NA,304,"PO BOX 60801, SAVANNAH, GA, 31420","No_Match",NA,NA,NA,NA
992305,"PO BOX 6081","FORT WAYNE","IN",46896,NA,NA,305,"PO BOX 6081, FORT WAYNE, IN, 46896","No_Match",NA,NA,NA,NA
992306,"PO BOX 6081","GLEN ALLEN","VA",23058,NA,NA,306,"PO BOX 6081, GLEN ALLEN, VA, 23058","No_Match",NA,NA,NA,NA
992307,"PO BOX 6081","LINCOLN","NE",68506,NA,NA,307,"PO BOX 6081, LINCOLN, NE, 68506","No_Match",NA,NA,NA,NA
992308,"PO BOX 60816","MIDLAND","TX",79711,NA,NA,308,"PO BOX 60816, MIDLAND, TX, 79711","No_Match",NA,NA,NA,NA
992309,"PO BOX 608174","ORLANDO","FL",32860,NA,NA,309,"PO BOX 608174, ORLANDO, FL, 32860","No_Match",NA,NA,NA,NA
992310,"PO BOX 6082","EAST ST. LOUIS","IL",62205,NA,NA,310,"PO BOX 6082, EAST ST. LOUIS, IL, 62205","No_Match",NA,NA,NA,NA
992311,"PO BOX 6083","EDMONDS","WA",98026,NA,NA,311,"PO BOX 6083, EDMONDS, WA, 98026","No_Match",NA,NA,NA,NA
992312,"PO BOX 608418","ORLANDO","FL",32860,NA,NA,312,"PO BOX 608418, ORLANDO, FL, 32860","No_Match",NA,NA,NA,NA
992313,"PO BOX 6085","FLORENCE","KY",41022,NA,NA,313,"PO BOX 6085, FLORENCE, KY, 41022","No_Match",NA,NA,NA,NA
992314,"PO BOX 608526","ORLANDO","FL",32860,NA,NA,314,"PO BOX 608526, ORLANDO, FL, 32860","No_Match",NA,NA,NA,NA
992315,"PO BOX 608582","CLEVELAND","OH",44108,NA,NA,315,"PO BOX 608582, CLEVELAND, OH, 44108","No_Match",NA,NA,NA,NA
992316,"PO BOX 608628","CLEVELAND","OH",44108,NA,NA,316,"PO BOX 608628, CLEVELAND, OH, 44108","No_Match",NA,NA,NA,NA
992317,"PO BOX 6089","MCKINNEY","TX",75071,NA,NA,317,"PO BOX 6089, MCKINNEY, TX, 75071","No_Match",NA,NA,NA,NA
992318,"PO BOX 609","DREW","MS",38737,NA,NA,318,"PO BOX 609, DREW, MS, 38737","No_Match",NA,NA,NA,NA
992319,"PO BOX 609","EAGLE","CO",81631,NA,NA,319,"PO BOX 609, EAGLE, CO, 81631","No_Match",NA,NA,NA,NA
992320,"PO BOX 609","HAMILTON","MA",1936,NA,NA,320,"PO BOX 609, HAMILTON, MA, 1936","No_Match",NA,NA,NA,NA
992321,"PO BOX 609","KREBS","OK",74554,NA,NA,321,"PO BOX 609, KREBS, OK, 74554","No_Match",NA,NA,NA,NA
992322,"PO BOX 609","OWINGS HILLS","MD",21117,NA,NA,322,"PO BOX 609, OWINGS HILLS, MD, 21117","No_Match",NA,NA,NA,NA
992323,"PO BOX 609","PORT ORFORD","OR",97465,NA,NA,323,"PO BOX 609, PORT ORFORD, OR, 97465","No_Match",NA,NA,NA,NA
992324,"PO BOX 609","RESERVE","NM",87830,NA,NA,324,"PO BOX 609, RESERVE, NM, 87830","No_Match",NA,NA,NA,NA
992325,"PO BOX 609","RUSSELL SPRINGS","KY",42642,NA,NA,325,"PO BOX 609, RUSSELL SPRINGS, KY, 42642","No_Match",NA,NA,NA,NA
992326,"PO BOX 609","STEVENSVILLE","MT",59870,NA,NA,326,"PO BOX 609, STEVENSVILLE, MT, 59870","No_Match",NA,NA,NA,NA
992327,"PO BOX 609","TEHACHAPI","CA",93581,NA,NA,327,"PO BOX 609, TEHACHAPI, CA, 93581","No_Match",NA,NA,NA,NA
992328,"PO BOX 609","TURNER","OR",97392,NA,NA,328,"PO BOX 609, TURNER, OR, 97392","No_Match",NA,NA,NA,NA
992329,"PO BOX 609","WAVERLY","PA",18471,NA,NA,329,"PO BOX 609, WAVERLY, PA, 18471","No_Match",NA,NA,NA,NA
992330,"PO BOX 609","WORLAND","WY",82401,NA,NA,330,"PO BOX 609, WORLAND, WY, 82401","No_Match",NA,NA,NA,NA
992331,"PO BOX 6091","SPARTANBURG","SC",29301,NA,NA,331,"PO BOX 6091, SPARTANBURG, SC, 29301","No_Match",NA,NA,NA,NA
992332,"PO BOX 6091","TAMPA","FL",33608,NA,NA,332,"PO BOX 6091, TAMPA, FL, 33608","No_Match",NA,NA,NA,NA
992333,"PO BOX 6092","PARIS","TX",75461,NA,NA,333,"PO BOX 6092, PARIS, TX, 75461","No_Match",NA,NA,NA,NA
992334,"PO BOX 60946","SAN ANGELO","TX",76904,NA,NA,334,"PO BOX 60946, SAN ANGELO, TX, 76904","No_Match",NA,NA,NA,NA
992335,"PO BOX 6095","TAMPA","FL",33608,NA,NA,335,"PO BOX 6095, TAMPA, FL, 33608","No_Match",NA,NA,NA,NA
992336,"PO BOX 6096","KAMUELA","HI",96743,NA,NA,336,"PO BOX 6096, KAMUELA, HI, 96743","No_Match",NA,NA,NA,NA
992337,"PO BOX 6096","UPPER MARLBORO","MD",20792,NA,NA,337,"PO BOX 6096, UPPER MARLBORO, MD, 20792","No_Match",NA,NA,NA,NA
992338,"PO BOX 60963","PASADENA","CA",91116,NA,NA,338,"PO BOX 60963, PASADENA, CA, 91116","No_Match",NA,NA,NA,NA
992339,"PO BOX 6097","ST THOMAS","VI",804,NA,NA,339,"PO BOX 6097, ST THOMAS, VI, 804","No_Match",NA,NA,NA,NA
992340,"PO BOX 61  326 HIGH ST","BROOKLYN","IA",52211,41.7309097840001,-92.4482906009999,340,"PO BOX 61  326 HIGH ST, BROOKLYN, IA, 52211","Match","Exact","326 HIGH ST, BROOKLYN, IA, 52211",647850522,"L"
992341,"PO BOX 61-2941","NORTH MIAMI","FL",33161,NA,NA,341,"PO BOX 61-2941, NORTH MIAMI, FL, 33161","No_Match",NA,NA,NA,NA
992342,"PO BOX 61","AGUAS BUENAS","PR",703,NA,NA,342,"PO BOX 61, AGUAS BUENAS, PR, 703","No_Match",NA,NA,NA,NA
992343,"PO BOX 61","AMBOY","WA",98601,NA,NA,343,"PO BOX 61, AMBOY, WA, 98601","No_Match",NA,NA,NA,NA
992344,"PO BOX 61","ARMA","KS",66712,NA,NA,344,"PO BOX 61, ARMA, KS, 66712","No_Match",NA,NA,NA,NA
992345,"PO BOX 61","ASSUMPTION","IL",62510,NA,NA,345,"PO BOX 61, ASSUMPTION, IL, 62510","No_Match",NA,NA,NA,NA
992346,"PO BOX 61","BATON ROUGE","LA",70821,NA,NA,346,"PO BOX 61, BATON ROUGE, LA, 70821","No_Match",NA,NA,NA,NA
992347,"PO BOX 61","CHESANING","MI",48616,NA,NA,347,"PO BOX 61, CHESANING, MI, 48616","No_Match",NA,NA,NA,NA
992348,"PO BOX 61","CLIFTY","KY",42216,NA,NA,348,"PO BOX 61, CLIFTY, KY, 42216","No_Match",NA,NA,NA,NA
992349,"PO BOX 61","CLIFTY","KY",42220,NA,NA,349,"PO BOX 61, CLIFTY, KY, 42220","No_Match",NA,NA,NA,NA
992350,"PO BOX 61","CORDOVA","NM",87523,NA,NA,350,"PO BOX 61, CORDOVA, NM, 87523","No_Match",NA,NA,NA,NA
992351,"PO BOX 61","CRISFIELD","MD",21817,NA,NA,351,"PO BOX 61, CRISFIELD, MD, 21817","No_Match",NA,NA,NA,NA
992352,"PO BOX 61","DIXON","KY",42409,NA,NA,352,"PO BOX 61, DIXON, KY, 42409","No_Match",NA,NA,NA,NA
992353,"PO BOX 61","EDINBURG","VA",22824,NA,NA,353,"PO BOX 61, EDINBURG, VA, 22824","No_Match",NA,NA,NA,NA
992354,"PO BOX 61","ELMA","WA",99004,NA,NA,354,"PO BOX 61, ELMA, WA, 99004","No_Match",NA,NA,NA,NA
992355,"PO BOX 61","GRAND HAVEN","MI",49417,NA,NA,355,"PO BOX 61, GRAND HAVEN, MI, 49417","No_Match",NA,NA,NA,NA
992356,"PO BOX 61","HAMPTON","VA",23669,NA,NA,356,"PO BOX 61, HAMPTON, VA, 23669","No_Match",NA,NA,NA,NA
992357,"PO BOX 61","HILLSDALE","WY",82060,NA,NA,357,"PO BOX 61, HILLSDALE, WY, 82060","No_Match",NA,NA,NA,NA
992358,"PO BOX 61","HORN LAKE","MS",38637,NA,NA,358,"PO BOX 61, HORN LAKE, MS, 38637","No_Match",NA,NA,NA,NA
992359,"PO BOX 61","KALAHEO","HI",96741,NA,NA,359,"PO BOX 61, KALAHEO, HI, 96741","No_Match",NA,NA,NA,NA
992360,"PO BOX 61","KLAWOCK","AK",99925,NA,NA,360,"PO BOX 61, KLAWOCK, AK, 99925","No_Match",NA,NA,NA,NA
992361,"PO BOX 61","LANCASTER","CA",93534,NA,NA,361,"PO BOX 61, LANCASTER, CA, 93534","No_Match",NA,NA,NA,NA
992362,"PO BOX 61","LINDEN","IN",47955,NA,NA,362,"PO BOX 61, LINDEN, IN, 47955","No_Match",NA,NA,NA,NA
992363,"PO BOX 61","MARSHALL","NC",28753,NA,NA,363,"PO BOX 61, MARSHALL, NC, 28753","No_Match",NA,NA,NA,NA
992364,"PO BOX 61","MCDOWELL","KY",41647,NA,NA,364,"PO BOX 61, MCDOWELL, KY, 41647","No_Match",NA,NA,NA,NA
992365,"PO BOX 61","NAPOLEON","ND",58561,NA,NA,365,"PO BOX 61, NAPOLEON, ND, 58561","No_Match",NA,NA,NA,NA
992366,"PO BOX 61","PHILIPPI","WV",26416,NA,NA,366,"PO BOX 61, PHILIPPI, WV, 26416","No_Match",NA,NA,NA,NA
992367,"PO BOX 61","PIPESTEM","WV",25979,NA,NA,367,"PO BOX 61, PIPESTEM, WV, 25979","No_Match",NA,NA,NA,NA
992368,"PO BOX 61","PRINCETON","TX",75407,NA,NA,368,"PO BOX 61, PRINCETON, TX, 75407","No_Match",NA,NA,NA,NA
992369,"PO BOX 61","RADIUM SPRINGS","NM",88054,NA,NA,369,"PO BOX 61, RADIUM SPRINGS, NM, 88054","No_Match",NA,NA,NA,NA
992370,"PO BOX 61","SALAMANCA","NY",14779,NA,NA,370,"PO BOX 61, SALAMANCA, NY, 14779","No_Match",NA,NA,NA,NA
992371,"PO BOX 61","SIGEL","IL",62462,NA,NA,371,"PO BOX 61, SIGEL, IL, 62462","No_Match",NA,NA,NA,NA
992372,"PO BOX 61","SIMSBURY","CT",6070,NA,NA,372,"PO BOX 61, SIMSBURY, CT, 6070","No_Match",NA,NA,NA,NA
992373,"PO BOX 61","SPRINGERVILLE","AZ",85938,NA,NA,373,"PO BOX 61, SPRINGERVILLE, AZ, 85938","No_Match",NA,NA,NA,NA
992374,"PO BOX 61","WATERFORD","NY",12188,NA,NA,374,"PO BOX 61, WATERFORD, NY, 12188","No_Match",NA,NA,NA,NA
992375,"PO BOX 610","CAMP HILL","AL",36850,NA,NA,375,"PO BOX 610, CAMP HILL, AL, 36850","No_Match",NA,NA,NA,NA
992376,"PO BOX 610","EAST HELENA","MT",59635,NA,NA,376,"PO BOX 610, EAST HELENA, MT, 59635","No_Match",NA,NA,NA,NA
992377,"PO BOX 610","FAIRVIEW","OR",97024,NA,NA,377,"PO BOX 610, FAIRVIEW, OR, 97024","No_Match",NA,NA,NA,NA
992378,"PO BOX 610","HAIKU","HI",96708,NA,NA,378,"PO BOX 610, HAIKU, HI, 96708","No_Match",NA,NA,NA,NA
992379,"PO BOX 610","MT PLEASANT","TX",75456,NA,NA,379,"PO BOX 610, MT PLEASANT, TX, 75456","No_Match",NA,NA,NA,NA
992380,"PO BOX 610","STOCKHOLM","WI",54769,NA,NA,380,"PO BOX 610, STOCKHOLM, WI, 54769","No_Match",NA,NA,NA,NA
992381,"PO BOX 610","WELLS","NV",89835,NA,NA,381,"PO BOX 610, WELLS, NV, 89835","No_Match",NA,NA,NA,NA
992382,"PO BOX 610","WOLCOTT","CO",81655,NA,NA,382,"PO BOX 610, WOLCOTT, CO, 81655","No_Match",NA,NA,NA,NA
992383,"PO BOX 6101","LONGMONT","CO",80501,NA,NA,383,"PO BOX 6101, LONGMONT, CO, 80501","No_Match",NA,NA,NA,NA
992384,"PO BOX 610251","BAYSIDE","NY",11361,NA,NA,384,"PO BOX 610251, BAYSIDE, NY, 11361","No_Match",NA,NA,NA,NA
992385,"PO BOX 61028","SUNNYVALE","CA",94088,NA,NA,385,"PO BOX 61028, SUNNYVALE, CA, 94088","No_Match",NA,NA,NA,NA
992386,"PO BOX 6103","PARIS","TX",75461,NA,NA,386,"PO BOX 6103, PARIS, TX, 75461","No_Match",NA,NA,NA,NA
992387,"PO BOX 610306","BAYSIDE","NY",11361,NA,NA,387,"PO BOX 610306, BAYSIDE, NY, 11361","No_Match",NA,NA,NA,NA
992388,"PO BOX 61042","SANTA BARBARA","CA",93160,NA,NA,388,"PO BOX 61042, SANTA BARBARA, CA, 93160","No_Match",NA,NA,NA,NA
992389,"PO BOX 61062","NORTH CHARLESTON","SC",29419,NA,NA,389,"PO BOX 61062, NORTH CHARLESTON, SC, 29419","No_Match",NA,NA,NA,NA
992390,"PO BOX 6107","HUNTSVILLE","TX",77342,NA,NA,390,"PO BOX 6107, HUNTSVILLE, TX, 77342","No_Match",NA,NA,NA,NA
992391,"PO BOX 6108","CHINA VILLAGE","ME",4926,NA,NA,391,"PO BOX 6108, CHINA VILLAGE, ME, 4926","No_Match",NA,NA,NA,NA
992392,"PO BOX 6109","HAMDEN","CT",6517,NA,NA,392,"PO BOX 6109, HAMDEN, CT, 6517","No_Match",NA,NA,NA,NA
992393,"PO BOX 6109","PAGO PAGO","AS",96799,NA,NA,393,"PO BOX 6109, PAGO PAGO, AS, 96799","No_Match",NA,NA,NA,NA
992394,"PO BOX 611","AGUANGA","CA",92536,NA,NA,394,"PO BOX 611, AGUANGA, CA, 92536","No_Match",NA,NA,NA,NA
992395,"PO BOX 611","BANDERA","TX",78003,NA,NA,395,"PO BOX 611, BANDERA, TX, 78003","No_Match",NA,NA,NA,NA
992396,"PO BOX 611","CALVERT","TX",77837,NA,NA,396,"PO BOX 611, CALVERT, TX, 77837","No_Match",NA,NA,NA,NA
992397,"PO BOX 611","CENTERTON","AR",72719,NA,NA,397,"PO BOX 611, CENTERTON, AR, 72719","No_Match",NA,NA,NA,NA
992398,"PO BOX 611","CIALES","PR",638,NA,NA,398,"PO BOX 611, CIALES, PR, 638","No_Match",NA,NA,NA,NA
992399,"PO BOX 611","CLEMSON","SC",29633,NA,NA,399,"PO BOX 611, CLEMSON, SC, 29633","No_Match",NA,NA,NA,NA
992400,"PO BOX 611","EMMETT","ID",83617,NA,NA,400,"PO BOX 611, EMMETT, ID, 83617","No_Match",NA,NA,NA,NA
992401,"PO BOX 611","FARIBAULT","MN",55021,NA,NA,401,"PO BOX 611, FARIBAULT, MN, 55021","No_Match",NA,NA,NA,NA
992402,"PO BOX 611","FAYETTEVILLE","NC",28302,NA,NA,402,"PO BOX 611, FAYETTEVILLE, NC, 28302","No_Match",NA,NA,NA,NA
992403,"PO BOX 611","HENDERSONVILLE","TN",37077,NA,NA,403,"PO BOX 611, HENDERSONVILLE, TN, 37077","No_Match",NA,NA,NA,NA
992404,"PO BOX 611","LAKEMORE","OH",44250,NA,NA,404,"PO BOX 611, LAKEMORE, OH, 44250","No_Match",NA,NA,NA,NA
992405,"PO BOX 611","LITTLE ROCK","AR",72203,NA,NA,405,"PO BOX 611, LITTLE ROCK, AR, 72203","No_Match",NA,NA,NA,NA
992406,"PO BOX 611","MEBANE","NC",27302,NA,NA,406,"PO BOX 611, MEBANE, NC, 27302","No_Match",NA,NA,NA,NA
992407,"PO BOX 611","ROCKSPRINGS","TX",78880,NA,NA,407,"PO BOX 611, ROCKSPRINGS, TX, 78880","No_Match",NA,NA,NA,NA
992408,"PO BOX 611","ROY","WA",98580,NA,NA,408,"PO BOX 611, ROY, WA, 98580","No_Match",NA,NA,NA,NA
992409,"PO BOX 611","SALIDA","CO",81201,NA,NA,409,"PO BOX 611, SALIDA, CO, 81201","No_Match",NA,NA,NA,NA
992410,"PO BOX 611","WALLINGFORD","CT",6492,NA,NA,410,"PO BOX 611, WALLINGFORD, CT, 6492","No_Match",NA,NA,NA,NA
992411,"PO BOX 611","WHITLEY CITY","KY",42653,NA,NA,411,"PO BOX 611, WHITLEY CITY, KY, 42653","No_Match",NA,NA,NA,NA
992412,"PO BOX 611","WINNSBORO","SC",29180,NA,NA,412,"PO BOX 611, WINNSBORO, SC, 29180","No_Match",NA,NA,NA,NA
992413,"PO BOX 61101","HARRISBURG","PA",17106,NA,NA,413,"PO BOX 61101, HARRISBURG, PA, 17106","No_Match",NA,NA,NA,NA
992414,"PO BOX 6111","KAMUELA","HI",96743,NA,NA,414,"PO BOX 6111, KAMUELA, HI, 96743","No_Match",NA,NA,NA,NA
992415,"PO BOX 61114","CHICAGO","IL",60606,NA,NA,415,"PO BOX 61114, CHICAGO, IL, 60606","No_Match",NA,NA,NA,NA
992416,"PO BOX 61122","DURHAM","NC",27715,NA,NA,416,"PO BOX 61122, DURHAM, NC, 27715","No_Match",NA,NA,NA,NA
992417,"PO BOX 611258","LOS ANGELES","CA",90061,NA,NA,417,"PO BOX 611258, LOS ANGELES, CA, 90061","No_Match",NA,NA,NA,NA
992418,"PO BOX 6113","BROOKINGS","OR",97415,NA,NA,418,"PO BOX 6113, BROOKINGS, OR, 97415","No_Match",NA,NA,NA,NA
992419,"PO BOX 61131","PALM BAY","FL",32906,NA,NA,419,"PO BOX 61131, PALM BAY, FL, 32906","No_Match",NA,NA,NA,NA
992420,"PO BOX 611353","MIAMI","FL",33261,NA,NA,420,"PO BOX 611353, MIAMI, FL, 33261","No_Match",NA,NA,NA,NA
992421,"PO BOX 6114","AVON","CO",81620,NA,NA,421,"PO BOX 6114, AVON, CO, 81620","No_Match",NA,NA,NA,NA
992422,"PO BOX 6115","VAIL","CO",81658,NA,NA,422,"PO BOX 6115, VAIL, CO, 81658","No_Match",NA,NA,NA,NA
992423,"PO BOX 6116 375 BIRCH STREET","MORGANTOWN","WV",26505,39.650031074,-79.9699812439999,423,"PO BOX 6116 375 BIRCH STREET, MORGANTOWN, WV, 26505","Match","Exact","375 BIRCH ST, MORGANTOWN, WV, 26505",649854454,"R"
992424,"PO BOX 6116 375 BIRCH STREET","MORGANTOWN","WV",26506,39.650031074,-79.9699812439999,424,"PO BOX 6116 375 BIRCH STREET, MORGANTOWN, WV, 26506","Match","Non_Exact","375 BIRCH ST, MORGANTOWN, WV, 26505",649854454,"R"
992425,"PO BOX 6116","MCKINNEY","TX",75071,NA,NA,425,"PO BOX 6116, MCKINNEY, TX, 75071","No_Match",NA,NA,NA,NA
992426,"PO BOX 61164","NEW BEDFORD","MA",2746,NA,NA,426,"PO BOX 61164, NEW BEDFORD, MA, 2746","No_Match",NA,NA,NA,NA
992427,"PO BOX 6117","OAKLAND","CA",94603,NA,NA,427,"PO BOX 6117, OAKLAND, CA, 94603","No_Match",NA,NA,NA,NA
992428,"PO BOX 61177","RALEIGH","NC",27661,NA,NA,428,"PO BOX 61177, RALEIGH, NC, 27661","No_Match",NA,NA,NA,NA
992429,"PO BOX 61182","POTOMAC","MD",20854,NA,NA,429,"PO BOX 61182, POTOMAC, MD, 20854","No_Match",NA,NA,NA,NA
992430,"PO BOX 612","CASS LAKE","MN",56633,NA,NA,430,"PO BOX 612, CASS LAKE, MN, 56633","No_Match",NA,NA,NA,NA
992431,"PO BOX 612","GLENNALLEN","AK",99588,NA,NA,431,"PO BOX 612, GLENNALLEN, AK, 99588","No_Match",NA,NA,NA,NA
992432,"PO BOX 612","HOLDEN","ME",4429,NA,NA,432,"PO BOX 612, HOLDEN, ME, 4429","No_Match",NA,NA,NA,NA
992433,"PO BOX 612","PAYNE","OH",45880,NA,NA,433,"PO BOX 612, PAYNE, OH, 45880","No_Match",NA,NA,NA,NA
992434,"PO BOX 612","RICHTON PARK","IL",60471,NA,NA,434,"PO BOX 612, RICHTON PARK, IL, 60471","No_Match",NA,NA,NA,NA
992435,"PO BOX 612","TULIA","TX",79088,NA,NA,435,"PO BOX 612, TULIA, TX, 79088","No_Match",NA,NA,NA,NA
992436,"PO BOX 612","WAYNESBORO","VA",22980,NA,NA,436,"PO BOX 612, WAYNESBORO, VA, 22980","No_Match",NA,NA,NA,NA
992437,"PO BOX 612","WOODBURY","CT",6798,NA,NA,437,"PO BOX 612, WOODBURY, CT, 6798","No_Match",NA,NA,NA,NA
992438,"PO BOX 612","WRANGELL","AK",99929,NA,NA,438,"PO BOX 612, WRANGELL, AK, 99929","No_Match",NA,NA,NA,NA
992439,"PO BOX 6120","STATELINE","NV",89449,NA,NA,439,"PO BOX 6120, STATELINE, NV, 89449","No_Match",NA,NA,NA,NA
992440,"PO BOX 61202","HOUSTON","TX",77208,NA,NA,440,"PO BOX 61202, HOUSTON, TX, 77208","No_Match",NA,NA,NA,NA
992441,"PO BOX 612062","SAN JOSE","CA",95161,NA,NA,441,"PO BOX 612062, SAN JOSE, CA, 95161","No_Match",NA,NA,NA,NA
992442,"PO BOX 6122","FORT WORTH","TX",76115,NA,NA,442,"PO BOX 6122, FORT WORTH, TX, 76115","No_Match",NA,NA,NA,NA
992443,"PO BOX 6122","MONCKS CORNER","SC",29461,NA,NA,443,"PO BOX 6122, MONCKS CORNER, SC, 29461","No_Match",NA,NA,NA,NA
992444,"PO BOX 61228","CORPUS CHRISTI","TX",78466,NA,NA,444,"PO BOX 61228, CORPUS CHRISTI, TX, 78466","No_Match",NA,NA,NA,NA
992445,"PO BOX 61264","FAIRBANKS","AK",99706,NA,NA,445,"PO BOX 61264, FAIRBANKS, AK, 99706","No_Match",NA,NA,NA,NA
992446,"PO BOX 6127","MONTGOMERY","AL",36106,NA,NA,446,"PO BOX 6127, MONTGOMERY, AL, 36106","No_Match",NA,NA,NA,NA
992447,"PO BOX 61282","PHOENIX","AZ",85082,NA,NA,447,"PO BOX 61282, PHOENIX, AZ, 85082","No_Match",NA,NA,NA,NA
992448,"PO BOX 61293","PALM BAY","FL",32901,NA,NA,448,"PO BOX 61293, PALM BAY, FL, 32901","No_Match",NA,NA,NA,NA
992449,"PO BOX 612965","MIAMI","FL",33261,NA,NA,449,"PO BOX 612965, MIAMI, FL, 33261","No_Match",NA,NA,NA,NA
992450,"PO BOX 613","ABSAROKEE","MT",59001,NA,NA,450,"PO BOX 613, ABSAROKEE, MT, 59001","No_Match",NA,NA,NA,NA
992451,"PO BOX 613","CLAYTON","OK",74536,NA,NA,451,"PO BOX 613, CLAYTON, OK, 74536","No_Match",NA,NA,NA,NA
992452,"PO BOX 613","CRESTED BUTTE","CO",81224,NA,NA,452,"PO BOX 613, CRESTED BUTTE, CO, 81224","No_Match",NA,NA,NA,NA
992453,"PO BOX 613","FRIENDSHIP","WI",53934,NA,NA,453,"PO BOX 613, FRIENDSHIP, WI, 53934","No_Match",NA,NA,NA,NA
992454,"PO BOX 613","HARVARD","MA",1451,NA,NA,454,"PO BOX 613, HARVARD, MA, 1451","No_Match",NA,NA,NA,NA
992455,"PO BOX 613","KEARNY","AZ",85137,NA,NA,455,"PO BOX 613, KEARNY, AZ, 85137","No_Match",NA,NA,NA,NA
992456,"PO BOX 613","KYKOTSMOVI","AZ",86039,NA,NA,456,"PO BOX 613, KYKOTSMOVI, AZ, 86039","No_Match",NA,NA,NA,NA
992457,"PO BOX 613","LAHAINA","HI",96767,NA,NA,457,"PO BOX 613, LAHAINA, HI, 96767","No_Match",NA,NA,NA,NA
992458,"PO BOX 613","LYONS","CO",80540,NA,NA,458,"PO BOX 613, LYONS, CO, 80540","No_Match",NA,NA,NA,NA
992459,"PO BOX 613","MENDOCINO","CA",95460,NA,NA,459,"PO BOX 613, MENDOCINO, CA, 95460","No_Match",NA,NA,NA,NA
992460,"PO BOX 613","NORWAY","ME",4268,NA,NA,460,"PO BOX 613, NORWAY, ME, 4268","No_Match",NA,NA,NA,NA
992461,"PO BOX 613","SUGUAMISH","WA",98392,NA,NA,461,"PO BOX 613, SUGUAMISH, WA, 98392","No_Match",NA,NA,NA,NA
992462,"PO BOX 613","UTUADO","PR",641,NA,NA,462,"PO BOX 613, UTUADO, PR, 641","No_Match",NA,NA,NA,NA
992463,"PO BOX 613","WHEATLEY HEIGHTS","NY",11798,NA,NA,463,"PO BOX 613, WHEATLEY HEIGHTS, NY, 11798","No_Match",NA,NA,NA,NA
992464,"PO BOX 613","WINLOCK","WA",98596,NA,NA,464,"PO BOX 613, WINLOCK, WA, 98596","No_Match",NA,NA,NA,NA
992465,"PO BOX 613","WORTHINGTON","OH",43085,NA,NA,465,"PO BOX 613, WORTHINGTON, OH, 43085","No_Match",NA,NA,NA,NA
992466,"PO BOX 6130 101 LAW SCHOOL DRIVE","MORGANTOWN","WV",26505,39.64959564,-79.9410868859999,466,"PO BOX 6130 101 LAW SCHOOL DRIVE, MORGANTOWN, WV, 26505","Match","Non_Exact","101 SCHOOL ST, MORGANTOWN, WV, 26505",50765900,"R"
992467,"PO BOX 6131","NORFOLK","VA",23508,NA,NA,467,"PO BOX 6131, NORFOLK, VA, 23508","No_Match",NA,NA,NA,NA
992468,"PO BOX 613105","SAN JOSE","CA",95161,NA,NA,468,"PO BOX 613105, SAN JOSE, CA, 95161","No_Match",NA,NA,NA,NA
992469,"PO BOX 61311","DAYTON","OH",45406,NA,NA,469,"PO BOX 61311, DAYTON, OH, 45406","No_Match",NA,NA,NA,NA
992470,"PO BOX 613116","MEMPHIS","TN",38101,NA,NA,470,"PO BOX 613116, MEMPHIS, TN, 38101","No_Match",NA,NA,NA,NA
992471,"PO BOX 6132","ST THOMAS","VI",804,NA,NA,471,"PO BOX 6132, ST THOMAS, VI, 804","No_Match",NA,NA,NA,NA
992472,"PO BOX 61322","IRVINE","CA",92620,NA,NA,472,"PO BOX 61322, IRVINE, CA, 92620","No_Match",NA,NA,NA,NA
992473,"PO BOX 6134","NORTH BABYLON","NY",11703,NA,NA,473,"PO BOX 6134, NORTH BABYLON, NY, 11703","No_Match",NA,NA,NA,NA
992474,"PO BOX 6135","CHANDLER","AZ",85246,NA,NA,474,"PO BOX 6135, CHANDLER, AZ, 85246","No_Match",NA,NA,NA,NA
992475,"PO BOX 61382","MIDLAND","TX",79711,NA,NA,475,"PO BOX 61382, MIDLAND, TX, 79711","No_Match",NA,NA,NA,NA
992476,"PO BOX 614","ARIVACA","AZ",85601,NA,NA,476,"PO BOX 614, ARIVACA, AZ, 85601","No_Match",NA,NA,NA,NA
992477,"PO BOX 614","BATTLEBORO","NC",27809,NA,NA,477,"PO BOX 614, BATTLEBORO, NC, 27809","No_Match",NA,NA,NA,NA
992478,"PO BOX 614","BOWMANSVILLE","PA",17507,NA,NA,478,"PO BOX 614, BOWMANSVILLE, PA, 17507","No_Match",NA,NA,NA,NA
992479,"PO BOX 614","CUYAHIGA FALLS","OH",44222,NA,NA,479,"PO BOX 614, CUYAHIGA FALLS, OH, 44222","No_Match",NA,NA,NA,NA
992480,"PO BOX 614","CUYAHOGA FALLS","OH",44222,NA,NA,480,"PO BOX 614, CUYAHOGA FALLS, OH, 44222","No_Match",NA,NA,NA,NA
992481,"PO BOX 614","DIBOLL","TX",75941,NA,NA,481,"PO BOX 614, DIBOLL, TX, 75941","No_Match",NA,NA,NA,NA
992482,"PO BOX 614","FORSYTH","MO",65653,NA,NA,482,"PO BOX 614, FORSYTH, MO, 65653","No_Match",NA,NA,NA,NA
992483,"PO BOX 614","FRISCO","CO",80443,NA,NA,483,"PO BOX 614, FRISCO, CO, 80443","No_Match",NA,NA,NA,NA
992484,"PO BOX 614","HEBRON","IN",46341,NA,NA,484,"PO BOX 614, HEBRON, IN, 46341","No_Match",NA,NA,NA,NA
992485,"PO BOX 614","MORTON","WA",98356,NA,NA,485,"PO BOX 614, MORTON, WA, 98356","No_Match",NA,NA,NA,NA
992486,"PO BOX 614","PORT GIBSON","MS",39150,NA,NA,486,"PO BOX 614, PORT GIBSON, MS, 39150","No_Match",NA,NA,NA,NA
992487,"PO BOX 614","SARATOGA SPRINGS","NY",12866,NA,NA,487,"PO BOX 614, SARATOGA SPRINGS, NY, 12866","No_Match",NA,NA,NA,NA
992488,"PO BOX 614","SHADY","NY",12409,NA,NA,488,"PO BOX 614, SHADY, NY, 12409","No_Match",NA,NA,NA,NA
992489,"PO BOX 614","SHELTER ISLAND","NY",11964,NA,NA,489,"PO BOX 614, SHELTER ISLAND, NY, 11964","No_Match",NA,NA,NA,NA
992490,"PO BOX 614","SOUTH WEBSTER","OH",45682,NA,NA,490,"PO BOX 614, SOUTH WEBSTER, OH, 45682","No_Match",NA,NA,NA,NA
992491,"PO BOX 614","STERLING","AK",99672,NA,NA,491,"PO BOX 614, STERLING, AK, 99672","No_Match",NA,NA,NA,NA
992492,"PO BOX 614","UPPER MARLBORO","MD",20773,NA,NA,492,"PO BOX 614, UPPER MARLBORO, MD, 20773","No_Match",NA,NA,NA,NA
992493,"PO BOX 614053","NORTH MIAMI","FL",33261,NA,NA,493,"PO BOX 614053, NORTH MIAMI, FL, 33261","No_Match",NA,NA,NA,NA
992494,"PO BOX 6141","CLEVELAND","OH",44101,NA,NA,494,"PO BOX 6141, CLEVELAND, OH, 44101","No_Match",NA,NA,NA,NA
992495,"PO BOX 6141","THOUSAND OAKS","CA",91359,NA,NA,495,"PO BOX 6141, THOUSAND OAKS, CA, 91359","No_Match",NA,NA,NA,NA
992496,"PO BOX 61429","HONOLULU","HI",96819,NA,NA,496,"PO BOX 61429, HONOLULU, HI, 96819","No_Match",NA,NA,NA,NA
992497,"PO BOX 61446","JACKSONVILLE","FL",32236,NA,NA,497,"PO BOX 61446, JACKSONVILLE, FL, 32236","No_Match",NA,NA,NA,NA
992498,"PO BOX 61446","PO BOX 61446","FL",32236,NA,NA,498,"PO BOX 61446, PO BOX 61446, FL, 32236","No_Match",NA,NA,NA,NA
992499,"PO BOX 6145","MARBLE CANYON","AZ",86036,NA,NA,499,"PO BOX 6145, MARBLE CANYON, AZ, 86036","No_Match",NA,NA,NA,NA
992500,"PO BOX 6146","AMHERST","NH",3031,NA,NA,500,"PO BOX 6146, AMHERST, NH, 3031","No_Match",NA,NA,NA,NA
