"ID","Address","City","State","Zip","lat","long","id","input_address","match_indicator","match_type","matched_address","tiger_line_id","tiger_side"
686501,"506 LEONA DRIVE","DENVER","CO",80221,39.8433377040001,-104.992343624,1,"506 LEONA DRIVE, DENVER, CO, 80221","Match","Exact","506 LEONA DR, DENVER, CO, 80221",636168443,"R"
686502,"506 LIBERTY PKWY","STILLWATER","MN",55082,45.0508395260001,-92.858282216,2,"506 LIBERTY PKWY, STILLWATER, MN, 55082","Match","Exact","506 LIBERTY PKWY, STILLWATER, MN, 55082",97810236,"L"
686503,"506 LOCKHART ST","PITTSBURGH","PA",15212,40.4524454400001,-79.999798445,3,"506 LOCKHART ST, PITTSBURGH, PA, 15212","Match","Exact","506 LOCKHART ST, PITTSBURGH, PA, 15212",51627881,"L"
686504,"506 LOCKHEED AVE","READING","PA",19601,40.3671181,-75.9570752559999,4,"506 LOCKHEED AVE, READING, PA, 19601","Match","Exact","506 LOCKHEED AVE, READING, PA, 19601",80375289,"R"
686505,"506 LOGAN STREET","MCCAMMON","ID",83250,42.6509794240001,-112.195744473,5,"506 LOGAN STREET, MCCAMMON, ID, 83250","Match","Exact","506 LOGAN ST, MCCAMMON, ID, 83250",204344151,"L"
686506,"506 LYNN AVENUE","ATHENS","TN",37303,35.4491407940001,-84.5876803789999,6,"506 LYNN AVENUE, ATHENS, TN, 37303","Match","Exact","506 LYNN AVE, ATHENS, TN, 37303",88534357,"L"
686507,"506 MADISON AVE","TYRONE","PA",16686,40.6696637900001,-78.2541601739999,7,"506 MADISON AVE, TYRONE, PA, 16686","Match","Exact","506 MADISON AVE, TYRONE, PA, 16686",49720411,"R"
686508,"506 MADISON","RAWLINS","WY",82301,41.7829552310001,-107.229129981,8,"506 MADISON, RAWLINS, WY, 82301","Match","Non_Exact","506 MADISON AVE, RAWLINS, WY, 82301",611196609,"L"
686509,"506 MAJOR RD","DAYTON","NJ",8810,40.3845675910001,-74.526648616,9,"506 MAJOR RD, DAYTON, NJ, 8810","Match","Exact","506 MAJOR RD, DAYTON, NJ, 08810",60360400,"R"
686510,"506 MANDEVILLE STREET","UTICA","NY",13502,43.0998702540001,-75.2404709749999,10,"506 MANDEVILLE STREET, UTICA, NY, 13502","Match","Exact","506 MANDEVILLE ST, UTICA, NY, 13502",171530689,"R"
686511,"506 MANSARD WALK","ALPHARETTA","GA",30022,33.992130027,-84.280794328,11,"506 MANSARD WALK, ALPHARETTA, GA, 30022","Match","Exact","506 MANSARD WALK, ALPHARETTA, GA, 30022",17376957,"R"
686512,"506 MAPLE DRIVE","DENHAM SPRINGS","LA",70726,30.495526425,-90.950700361,12,"506 MAPLE DRIVE, DENHAM SPRINGS, LA, 70726","Match","Non_Exact","506 MAPLE ST, DENHAM SPRINGS, LA, 70726",115085161,"L"
686513,"506 MAPLE","PERRY","OK",73077,36.2981054690001,-97.2841264849999,13,"506 MAPLE, PERRY, OK, 73077","Match","Non_Exact","506 MAPLE ST, PERRY, OK, 73077",154996960,"R"
686514,"506 MARINER AVENUE","BARRIGADA","GU",96913,NA,NA,14,"506 MARINER AVENUE, BARRIGADA, GU, 96913","No_Match",NA,NA,NA,NA
686515,"506 MARQUISE DRIVE","FINCASTLE","VA",24090,37.468456286,-79.8019596409999,15,"506 MARQUISE DRIVE, FINCASTLE, VA, 24090","Match","Exact","506 MARQUISE DR, FINCASTLE, VA, 24090",214944622,"L"
686516,"506 MASON COURT","MURFREESBORO","TN",37130,35.838888001,-86.379509528,16,"506 MASON COURT, MURFREESBORO, TN, 37130","Match","Exact","506 MASON CT, MURFREESBORO, TN, 37130",59015315,"L"
686517,"506 MAURREN DR","BAKER","LA",70714,30.5789633850001,-91.144600537,17,"506 MAURREN DR, BAKER, LA, 70714","Match","Non_Exact","506 MAUREEN DR, BAKER, LA, 70714",92178350,"R"
686518,"506 MCBRIDE RD","FAYETTEVILLE","GA",30215,33.3880180030001,-84.4556969829999,18,"506 MCBRIDE RD, FAYETTEVILLE, GA, 30215","Match","Exact","506 MCBRIDE RD, FAYETTEVILLE, GA, 30215",75933366,"L"
686519,"506 MCDONALD DR","NASHVILLE","TN",37217,36.1156631480001,-86.7067418249999,19,"506 MCDONALD DR, NASHVILLE, TN, 37217","Match","Exact","506 MCDONALD DR, NASHVILLE, TN, 37217",97197007,"L"
686520,"506 MCGOWAN STREET","LIGONIER","PA",15658,40.245753554,-79.2321620669999,20,"506 MCGOWAN STREET, LIGONIER, PA, 15658","Match","Exact","506 MCGOWAN ST, LIGONIER, PA, 15658",613064005,"R"
686521,"506 MCGREFOR AVE","CINCINNATI","OH",45206,NA,NA,21,"506 MCGREFOR AVE, CINCINNATI, OH, 45206","No_Match",NA,NA,NA,NA
686522,"506 MCGREW LOOP","AIEA","HI",96701,21.376958367,-157.940860733,22,"506 MCGREW LOOP, AIEA, HI, 96701","Match","Exact","506 MCGREW LOOP, AIEA, HI, 96701",203230524,"L"
686523,"506 MEADOW VIEW DRIVE","SUSANVILLE","CA",96130,40.4326661530001,-120.667041904,23,"506 MEADOW VIEW DRIVE, SUSANVILLE, CA, 96130","Match","Exact","506 MEADOW VIEW DR, SUSANVILLE, CA, 96130",126951735,"L"
686524,"506 MELROSE AVENUE","VICKSBURG","MS",39180,32.291146107,-90.874809442,24,"506 MELROSE AVENUE, VICKSBURG, MS, 39180","Match","Exact","506 MELROSE AVE, VICKSBURG, MS, 39180",638603972,"L"
686525,"506 MELROSE DRIVE","NORTH SYRACUSE","NY",13212,43.1255377850001,-76.12971211,25,"506 MELROSE DRIVE, NORTH SYRACUSE, NY, 13212","Match","Exact","506 MELROSE DR, N SYRACUSE, NY, 13212",46603136,"R"
686526,"506 MILDRED PL","ORADELL","NJ",7649,40.9616052640001,-74.049025958,26,"506 MILDRED PL, ORADELL, NJ, 7649","Match","Exact","506 MILDRED PL, ORADELL, NJ, 07649",64427191,"R"
686527,"506 MOLINO RD LOT 4","FAYETTEVILLE","TN",37334,35.115605831,-86.6474163239999,27,"506 MOLINO RD LOT 4, FAYETTEVILLE, TN, 37334","Match","Exact","506 MOLINO RD, FAYETTEVILLE, TN, 37334",639201035,"R"
686528,"506 MOONLIGHT CIRCLE","NEW BRAUNFELS","TX",78132,29.805367055,-98.111001328,28,"506 MOONLIGHT CIRCLE, NEW BRAUNFELS, TX, 78132","Match","Exact","506 MOONLIGHT CIR, NEW BRAUNFELS, TX, 78132",625336914,"L"
686529,"506 MOONSTONE BLVD","HORSESHOE BEND","AR",72512,36.222315613,-91.740555128,29,"506 MOONSTONE BLVD, HORSESHOE BEND, AR, 72512","Match","Exact","506 MOONSTONE BLVD, HORSESHOE BND, AR, 72512",2103566,"L"
686530,"506 MORRISSETT COURT SE","LEESBURG","VA",20175,39.0952402030001,-77.5595639059999,30,"506 MORRISSETT COURT SE, LEESBURG, VA, 20175","Match","Exact","506 MORRISSETT CT SE, LEESBURG, VA, 20175",218936758,"R"
686531,"506 MOUNT VERNON ST","LAWRENCE","MA",1843,42.677208406,-71.1834136429999,31,"506 MOUNT VERNON ST, LAWRENCE, MA, 1843","Match","Exact","506 MOUNT VERNON ST, LAWRENCE, MA, 01843",86626026,"L"
686532,"506 MT CARMEL RD","FRONTENAC","KS",66763,37.450373261,-94.695771166,32,"506 MT CARMEL RD, FRONTENAC, KS, 66763","Match","Non_Exact","506 S MOUNT CARMEL RD, FRONTENAC, KS, 66763",33422560,"L"
686533,"506 N 4TH STREET","BELLWOOD","PA",16617,40.602821953,-78.3372956859999,33,"506 N 4TH STREET, BELLWOOD, PA, 16617","Match","Exact","506 N 4TH ST, BELLWOOD, PA, 16617",49707895,"L"
686534,"506 N 600 W","OREM","UT",84057,40.30664663,-111.710147975,34,"506 N 600 W, OREM, UT, 84057","Match","Exact","506 N 600 W, OREM, UT, 84057",134204946,"R"
686535,"506 N ABBOTT AVE","MILPITAS","CA",95035,37.437356197,-121.915259836,35,"506 N ABBOTT AVE, MILPITAS, CA, 95035","Match","Exact","506 N ABBOTT AVE, MILPITAS, CA, 95035",122958885,"R"
686536,"506 N ALBANY AVE","TAMPA","FL",33606,NA,NA,36,"506 N ALBANY AVE, TAMPA, FL, 33606","Tie",NA,NA,NA,NA
686537,"506 N ALBANY AVENUE","TAMPA","FL",33606,NA,NA,37,"506 N ALBANY AVENUE, TAMPA, FL, 33606","Tie",NA,NA,NA,NA
686538,"506 N BRANDYWINE AVE","SCHENECTADY","NY",12308,42.805456103,-73.9191148419999,38,"506 N BRANDYWINE AVE, SCHENECTADY, NY, 12308","Match","Exact","506 N BRANDYWINE AVE, SCHENECTADY, NY, 12308",18029372,"R"
686539,"506 N CALVIN PARK BLVD","ROCKFORD","IL",61107,42.2717573360001,-89.052239442,39,"506 N CALVIN PARK BLVD, ROCKFORD, IL, 61107","Match","Non_Exact","506 CALVIN PARK BLVD N, ROCKFORD, IL, 61107",49259972,"L"
686540,"506 N FILMORE STREET","PAPILLION","NE",68046,NA,NA,40,"506 N FILMORE STREET, PAPILLION, NE, 68046","Tie",NA,NA,NA,NA
686541,"506 N GIBBONS AVE","ARLINGTON HEIGHTS","IL",60004,42.0873375460001,-87.961057163,41,"506 N GIBBONS AVE, ARLINGTON HEIGHTS, IL, 60004","Match","Exact","506 N GIBBONS AVE, ARLINGTON HEIGHTS, IL, 60004",648389453,"R"
686542,"506 N GREENE RD","GOSHEN","IN",46526,41.5923676950001,-85.867601166,42,"506 N GREENE RD, GOSHEN, IN, 46526","Match","Exact","506 N GREENE RD, GOSHEN, IN, 46526",604679391,"R"
686543,"506 N GREENSBORO ST 19","CARRBORO","NC",27510,NA,NA,43,"506 N GREENSBORO ST 19, CARRBORO, NC, 27510","Tie",NA,NA,NA,NA
686544,"506 N GWINN ST","LOYAL","WI",54446,44.740122269,-90.501085955,44,"506 N GWINN ST, LOYAL, WI, 54446","Match","Exact","506 N GWINN ST, LOYAL, WI, 54446",50861551,"R"
686545,"506 N HANOVER ST","ANAHEIM","CA",92801,33.837743351,-117.974646223,45,"506 N HANOVER ST, ANAHEIM, CA, 92801","Match","Exact","506 HANOVER ST, ANAHEIM, CA, 92801",144011743,"R"
686546,"506 N JACKSON STREET","QUINCY","FL",32351,30.59443351,-84.579295042,46,"506 N JACKSON STREET, QUINCY, FL, 32351","Match","Exact","506 N JACKSON ST, QUINCY, FL, 32351",87816127,"L"
686547,"506 N KAWEAH AVENUE SUITE A","EXETER","CA",93221,NA,NA,47,"506 N KAWEAH AVENUE SUITE A, EXETER, CA, 93221","Tie",NA,NA,NA,NA
686548,"506 N LESLIE ST","CARROLLTON","MO",64633,39.3636711610001,-93.492564051,48,"506 N LESLIE ST, CARROLLTON, MO, 64633","Match","Exact","506 LESLIE ST, CARROLLTON, MO, 64633",20822984,"R"
686549,"506 N MAIN STREET","FORT BRANCH","IN",47648,38.252006431,-87.578251598,49,"506 N MAIN STREET, FORT BRANCH, IN, 47648","Match","Exact","506 N MAIN ST, FORT BRANCH, IN, 47648",36372876,"R"
686550,"506 N MAIN STREET","FRANKLIN","VA",23851,36.679656143,-76.924280871,50,"506 N MAIN STREET, FRANKLIN, VA, 23851","Match","Exact","506 N MAIN ST, FRANKLIN, VA, 23851",82706919,"R"
686551,"506 N MENDENHALL ST","GREENSBORO","NC",27401,36.0777952970001,-79.8022743499999,51,"506 N MENDENHALL ST, GREENSBORO, NC, 27401","Match","Exact","506 N MENDENHALL ST, GREENSBORO, NC, 27401",131031865,"R"
686552,"506 N MORGAN ST","ELMWOOD","IL",61529,40.7817980670001,-89.9709751729999,52,"506 N MORGAN ST, ELMWOOD, IL, 61529","Match","Exact","506 N MORGAN ST, ELMWOOD, IL, 61529",8706233,"L"
686553,"506 N PERSHING AVE","INDIANAPOLIS","IN",46222,39.774884489,-86.199681088,53,"506 N PERSHING AVE, INDIANAPOLIS, IN, 46222","Match","Exact","506 N PERSHING AVE, INDIANAPOLIS, IN, 46222",107987309,"L"
686554,"506 N PRAIRIE AVE","OKMULGEE","OK",74447,35.626514252,-95.945701642,54,"506 N PRAIRIE AVE, OKMULGEE, OK, 74447","Match","Exact","506 N PRAIRIE AVE, OKMULGEE, OK, 74447",166246161,"L"
686555,"506 N PRAIRIE","OKMULGEE","OK",74447,35.626514252,-95.945701642,55,"506 N PRAIRIE, OKMULGEE, OK, 74447","Match","Non_Exact","506 N PRAIRIE AVE, OKMULGEE, OK, 74447",166246161,"L"
686556,"506 N PUTNAM","BENNINGTON","KS",67422,39.0353868970001,-97.596060238,56,"506 N PUTNAM, BENNINGTON, KS, 67422","Match","Non_Exact","506 N PUTNAM ST, BENNINGTON, KS, 67422",148347549,"R"
686557,"506 N STANLEY AVE","LOS ANGELES","CA",90036,34.080426801,-118.356333786,57,"506 N STANLEY AVE, LOS ANGELES, CA, 90036","Match","Exact","506 N STANLEY AVE, LOS ANGELES, CA, 90036",141598552,"R"
686558,"506 N THOMAS AVE","POLO","IL",61064,41.990928551,-89.5824234789999,58,"506 N THOMAS AVE, POLO, IL, 61064","Match","Exact","506 N THOMAS AVE, POLO, IL, 61064",52312615,"R"
686559,"506 NE 68TH STREET APT 53","KANSAS CITY","MO",64118,NA,NA,59,"506 NE 68TH STREET APT 53, KANSAS CITY, MO, 64118","Tie",NA,NA,NA,NA
686560,"506 NE 6TH AVE","DEERFIELD BEACH","FL",33441,26.3235441080001,-80.095130847,60,"506 NE 6TH AVE, DEERFIELD BEACH, FL, 33441","Match","Exact","506 NE 6TH AVE, DEERFIELD BEACH, FL, 33441",114739962,"R"
686561,"506 NE APPLEWOOD ST","LEES SUMMIT","MO",64063,38.9216252530001,-94.374656418,61,"506 NE APPLEWOOD ST, LEES SUMMIT, MO, 64063","Match","Exact","506 NE APPLEWOOD ST, LEES SUMMIT, MO, 64063",91492024,"L"
686562,"506 NEWTON AVE SE","WATERTOWN","MN",55388,44.9568732490001,-93.843746905,62,"506 NEWTON AVE SE, WATERTOWN, MN, 55388","Match","Exact","506 NEWTON AVE SE, WATERTOWN, MN, 55388",43508372,"R"
686563,"506 NIXON WAY","LAVERGNE","TN",37086,36.031834571,-86.549302595,63,"506 NIXON WAY, LAVERGNE, TN, 37086","Match","Non_Exact","506 NIXON WAY, LA VERGNE, TN, 37086",634013588,"R"
686564,"506 NORMANDY DRIVE","MANTOLOKING","NJ",9838,NA,NA,64,"506 NORMANDY DRIVE, MANTOLOKING, NJ, 9838","No_Match",NA,NA,NA,NA
686565,"506 NORTH CEDAR STREET","GREENSBORO","NC",27401,36.0787044360001,-79.798061925,65,"506 NORTH CEDAR STREET, GREENSBORO, NC, 27401","Match","Exact","506 N CEDAR ST, GREENSBORO, NC, 27401",640601642,"R"
686566,"506 NORTH COUNTRY CLUB","OXFORD","NC",27565,36.314684297,-78.6070638699999,66,"506 NORTH COUNTRY CLUB, OXFORD, NC, 27565","Match","Non_Exact","506 N COUNTRY CLUB DR, OXFORD, NC, 27565",77109020,"R"
686567,"506 NORTH FIRST STREET","DENNISON","OH",44621,40.397047485,-81.336181165,67,"506 NORTH FIRST STREET, DENNISON, OH, 44621","Match","Exact","506 N 1ST ST, DENNISON, OH, 44621",44228355,"R"
686568,"506 NORTH FRANCISCA AVE - UNIT A","REDONDO BEACH","PA",90277,NA,NA,68,"506 NORTH FRANCISCA AVE - UNIT A, REDONDO BEACH, PA, 90277","No_Match",NA,NA,NA,NA
686569,"506 NORTH HILLCREST STREET","HUTSONVILLE","IL",62433,NA,NA,69,"506 NORTH HILLCREST STREET, HUTSONVILLE, IL, 62433","No_Match",NA,NA,NA,NA
686570,"506 NORTH LOCUST","SESSER","IL",62884,38.095735382,-89.0515355489999,70,"506 NORTH LOCUST, SESSER, IL, 62884","Match","Non_Exact","506 N LOCUST ST, SESSER, IL, 62884",92944517,"R"
686571,"506 NORTH MYERS STREET","OCEANSIDE","CA",92054,33.1964582780001,-117.38408686,71,"506 NORTH MYERS STREET, OCEANSIDE, CA, 92054","Match","Exact","506 N MYERS ST, OCEANSIDE, CA, 92054",195280171,"R"
686572,"506 NORTH POWERS STREET","PORT WASHINGTON","WI",53074,43.3930027800001,-87.8688826489999,72,"506 NORTH POWERS STREET, PORT WASHINGTON, WI, 53074","Match","Exact","506 N POWERS ST, PORT WASHINGTON, WI, 53074",95902341,"L"
686573,"506 NORTH STREET","ELGIN","NE",68636,41.9874839490001,-98.077905749,73,"506 NORTH STREET, ELGIN, NE, 68636","Match","Exact","506 NORTH ST, ELGIN, NE, 68636",161687302,"L"
686574,"506 NORTHERN DANCER DRIVE","COPPERAS COVE","TX",76522,31.1049766240001,-97.895949463,74,"506 NORTHERN DANCER DRIVE, COPPERAS COVE, TX, 76522","Match","Exact","506 NORTHERN DANCER DR, COPPERAS COVE, TX, 76522",146570901,"R"
686575,"506 NOTRE DAME AVENUE","MANCHESTER","NH",3102,42.994225419,-71.4756549959999,75,"506 NOTRE DAME AVENUE, MANCHESTER, NH, 3102","Match","Exact","506 NOTRE DAME AVE, MANCHESTER, NH, 03102",113580023,"L"
686576,"506 NUGGET DR","FOLSOM","CA",95630,38.708130608,-121.174271415,76,"506 NUGGET DR, FOLSOM, CA, 95630","Match","Exact","506 NUGGET DR, FOLSOM, CA, 95630",640619740,"L"
686577,"506 NW 34TH ST","CORVALLIS","OR",97330,44.5728344980001,-123.288845825,77,"506 NW 34TH ST, CORVALLIS, OR, 97330","Match","Exact","506 NW 34TH ST, CORVALLIS, OR, 97330",155846884,"L"
686578,"506 NW 4TH","COUPEVILLE","WA",98239,48.2167090020001,-122.693274899,78,"506 NW 4TH, COUPEVILLE, WA, 98239","Match","Non_Exact","506 NW 4TH ST, COUPEVILLE, WA, 98239",187591040,"R"
686579,"506 NW RAILROAD AVE","SAINT GEORGE","SC",29477,33.185055839,-80.580824514,79,"506 NW RAILROAD AVE, SAINT GEORGE, SC, 29477","Match","Exact","506 NW RAILROAD AVE, SAINT GEORGE, SC, 29477",178469999,"R"
686580,"506 OAK BLVD","PARK RAPIDS","MN",56470,46.9172766500001,-95.0390911809999,80,"506 OAK BLVD, PARK RAPIDS, MN, 56470","Match","Exact","506 OAK BLVD, PARK RAPIDS, MN, 56470",647316187,"R"
686581,"506 OAK BRANCH RD","LOUISVILLE","KY",40245,38.247301937,-85.490751205,81,"506 OAK BRANCH RD, LOUISVILLE, KY, 40245","Match","Exact","506 OAK BRANCH RD, LOUISVILLE, KY, 40245",96883433,"L"
686582,"506 OAK CHASE DR","CONROE","TX",77304,30.280005352,-95.487930367,82,"506 OAK CHASE DR, CONROE, TX, 77304","Match","Exact","506 OAK CHASE DR, CONROE, TX, 77304",647678431,"R"
686583,"506 OAK GROVE DR","LANCASTER","PA",17601,40.053694115,-76.2624488389999,83,"506 OAK GROVE DR, LANCASTER, PA, 17601","Match","Exact","506 OAK GROVE DR, LANCASTER, PA, 17601",179665931,"L"
686584,"506 OAK HARBOR","HOUSTON","TX",77062,29.5718126530001,-95.1456215489999,84,"506 OAK HARBOR, HOUSTON, TX, 77062","Match","Non_Exact","506 OAK HARBOR DR, HOUSTON, TX, 77062",96130303,"R"
686585,"506 OAK MEADOW","GRAND PRAIRIE","TX",75052,32.680985161,-97.0088074719999,85,"506 OAK MEADOW, GRAND PRAIRIE, TX, 75052","Match","Non_Exact","506 OAK MEADOW DR, GRAND PRAIRIE, TX, 75052",103174229,"L"
686586,"506 OAK PARK AVENUE","WATERTOWN","WI",53098,43.207604659,-88.712024841,86,"506 OAK PARK AVENUE, WATERTOWN, WI, 53098","Match","Exact","506 OAK PARK AVE, WATERTOWN, WI, 53098",53559209,"L"
686587,"506 OAKDALE DRIVE","OKLAHOMA CITY","OK",73127,35.4718960480001,-97.6233340059999,87,"506 OAKDALE DRIVE, OKLAHOMA CITY, OK, 73127","Match","Exact","506 OAKDALE DR, OKLAHOMA CITY, OK, 73127",100391804,"R"
686588,"506 OLD BRIDGE CT","MT PLEASANT","SC",29464,32.7783614210001,-79.864063699,88,"506 OLD BRIDGE CT, MT PLEASANT, SC, 29464","Match","Exact","506 OLD BRIDGE CT, MOUNT PLEASANT, SC, 29464",108809660,"L"
686589,"506 OLD STONE PLACE","BEL AIR","MD",21015,39.5442277600001,-76.3013461,89,"506 OLD STONE PLACE, BEL AIR, MD, 21015","Match","Exact","506 OLD STONE PL, BEL AIR, MD, 21015",191655376,"R"
686590,"506 ONDERDONK AVE","RIDGEWOOD","NY",11383,40.7062588360001,-73.911070885,90,"506 ONDERDONK AVE, RIDGEWOOD, NY, 11383","Match","Non_Exact","506 ONDERDONK AVE, RIDGEWOOD, NY, 11385",59693262,"R"
686591,"506 ORCHARD AVENUE","BRIDGEPORT","WV",26330,39.280372501,-80.253107337,91,"506 ORCHARD AVENUE, BRIDGEPORT, WV, 26330","Match","Exact","506 ORCHARD AVE, BRIDGEPORT, WV, 26330",53302292,"R"
686592,"506 PALACE DRIVE","ALTAMONTE SPRINGS","FL",32714,28.6654062370001,-81.403181702,92,"506 PALACE DRIVE, ALTAMONTE SPRINGS, FL, 32714","Match","Exact","506 PALACE DR, ALTAMONTE SPRINGS, FL, 32714",637534514,"L"
686593,"506 PALM AVENUE","SAN FRANCISCO","CA",94080,37.6607236950001,-122.4173585,93,"506 PALM AVENUE, SAN FRANCISCO, CA, 94080","Match","Non_Exact","506 PALM AVE, S SAN FRAN, CA, 94080",192373050,"R"
686594,"506 PANTHER BRANCH ROAD","BRYSON CITY","NC",28713,NA,NA,94,"506 PANTHER BRANCH ROAD, BRYSON CITY, NC, 28713","No_Match",NA,NA,NA,NA
686595,"506 PAR TEE DRIVE","HARTFORD","SD",57033,43.633327926,-96.939247542,95,"506 PAR TEE DRIVE, HARTFORD, SD, 57033","Match","Non_Exact","506 PAR-TEE DR, HARTFORD, SD, 57033",34983472,"R"
686596,"506 PARK HILLS DRIVE","EFFINGHAM","IL",62401,39.131094987,-88.5371855069999,96,"506 PARK HILLS DRIVE, EFFINGHAM, IL, 62401","Match","Exact","506 PARK HILLS DR, EFFINGHAM, IL, 62401",94765442,"R"
686597,"506 PARK LAKE LANE","NORCROSS","GA",30092,33.962521199,-84.252239873,97,"506 PARK LAKE LANE, NORCROSS, GA, 30092","Match","Exact","506 PARK LAKE LN, NORCROSS, GA, 30092",88900355,"L"
686598,"506 PARK MEADOWS DRIVE","NEWPORT","NC",28570,34.7954463470001,-76.9279521889999,98,"506 PARK MEADOWS DRIVE, NEWPORT, NC, 28570","Match","Exact","506 PARK MEADOWS DR, NEWPORT, NC, 28570",632114531,"R"
686599,"506 PARK","LAGRANGE PARK","IL",60526,NA,NA,99,"506 PARK, LAGRANGE PARK, IL, 60526","No_Match",NA,NA,NA,NA
686600,"506 PARKVIEW DRIVE","BERRYVILLE","AR",72616,36.385863004,-93.570994286,100,"506 PARKVIEW DRIVE, BERRYVILLE, AR, 72616","Match","Exact","506 PARKVIEW DR, BERRYVILLE, AR, 72616",20080892,"R"
686601,"506 PARKWOOD DR","CLARKSVILLE","IN",47129,38.3246274000001,-85.781633407,101,"506 PARKWOOD DR, CLARKSVILLE, IN, 47129","Match","Exact","506 PARKWOOD DR, CLARKSVILLE, IN, 47129",64876960,"R"
686602,"506 PASCO STREET","RIO GRANDE CITY","TX",78582,26.301208322,-98.635956033,102,"506 PASCO STREET, RIO GRANDE CITY, TX, 78582","Match","Exact","506 PASCO ST, RIO GRANDE CITY, TX, 78582",72187677,"L"
686603,"506 PASTURE LANE","YORKTOWN","VA",23693,37.1103890700001,-76.4087103959999,103,"506 PASTURE LANE, YORKTOWN, VA, 23693","Match","Exact","506 PASTURE LN, YORKTOWN, VA, 23693",618475924,"R"
686604,"506 PEARL STREET","CHARLOTTE","NC",28262,35.30501185,-80.759045516,104,"506 PEARL STREET, CHARLOTTE, NC, 28262","Match","Exact","506 PEARL ST, CHARLOTTE, NC, 28262",641615023,"R"
686605,"506 PETERSON ROAD","ONTARIO","OR",97914,44.053754923,-117.009544303,105,"506 PETERSON ROAD, ONTARIO, OR, 97914","Match","Exact","506 PETERSON RD, ONTARIO, OR, 97914",635438228,"L"
686606,"506 PHEASANT RIDGE DRIVE","WARNER ROBINS","GA",31088,32.6013037550001,-83.690539432,106,"506 PHEASANT RIDGE DRIVE, WARNER ROBINS, GA, 31088","Match","Exact","506 PHEASANT RIDGE DR, WARNER ROBINS, GA, 31088",639588414,"L"
686607,"506 PICKEREL CT","LYNN HAVEN","FL",32444,30.216205901,-85.653092024,107,"506 PICKEREL CT, LYNN HAVEN, FL, 32444","Match","Exact","506 PICKEREL CT, LYNN HAVEN, FL, 32444",7090806,"R"
686608,"506 PICTURE RIDGE DR","CHATTANOOGA","TN",37421,35.0134349480001,-85.106002538,108,"506 PICTURE RIDGE DR, CHATTANOOGA, TN, 37421","Match","Exact","506 PICTURE RIDGE DR, CHATTANOOGA, TN, 37421",59319895,"L"
686609,"506 PITTSBURGH RD","SAINT HELENS","OR",97051,NA,NA,109,"506 PITTSBURGH RD, SAINT HELENS, OR, 97051","No_Match",NA,NA,NA,NA
686610,"506 PLANO DRIVE","DURHAM","NC",27703,35.9552921550001,-78.818345962,110,"506 PLANO DRIVE, DURHAM, NC, 27703","Match","Exact","506 PLANO DR, DURHAM, NC, 27703",641639632,"R"
686611,"506 PLAYERS COURT","NASHVILLE","TN",37211,36.0541637040001,-86.747453047,111,"506 PLAYERS COURT, NASHVILLE, TN, 37211","Match","Exact","506 PLAYERS CT, NASHVILLE, TN, 37211",97231957,"R"
686612,"506 PLENTYWOOD LANE","GAINESVILLE","MO",65655,NA,NA,112,"506 PLENTYWOOD LANE, GAINESVILLE, MO, 65655","No_Match",NA,NA,NA,NA
686613,"506 PONDVIEW DRIVE","KILLEEN","TX",76542,31.0894394160001,-97.740296782,113,"506 PONDVIEW DRIVE, KILLEEN, TX, 76542","Match","Exact","506 PONDVIEW DR, KILLEEN, TX, 76542",146164575,"L"
686614,"506 PRAIRIE STREET","GUTHRIE CENTER","IA",50115,41.676285465,-94.502232104,114,"506 PRAIRIE STREET, GUTHRIE CENTER, IA, 50115","Match","Exact","506 PRAIRIE ST, GUTHRIE CENTER, IA, 50115",68672251,"L"
686615,"506 PRESIDENT ST","ANNAPOLIS","MD",21403,38.965943683,-76.4923491439999,115,"506 PRESIDENT ST, ANNAPOLIS, MD, 21403","Match","Exact","506 PRESIDENT ST, ANNAPOLIS, MD, 21403",68173204,"L"
686616,"506 PRINSBURG","PRINSBURG","MN",56281,44.940565276,-95.1887518349999,116,"506 PRINSBURG, PRINSBURG, MN, 56281","Match","Non_Exact","506 PRINSBURG AVE, PRINSBURG, MN, 56281",36702736,"L"
686617,"506 PROSPECT PLACE","CINCINNATI","OH",45229,39.1432541630001,-84.4975059069999,117,"506 PROSPECT PLACE, CINCINNATI, OH, 45229","Match","Exact","506 PROSPECT PL, CINCINNATI, OH, 45229",103925486,"L"
686618,"506 PROSPECT STREET","MAPLEWOOD","NJ",7040,40.7348730190001,-74.262816658,118,"506 PROSPECT STREET, MAPLEWOOD, NJ, 7040","Match","Exact","506 PROSPECT ST, MAPLEWOOD, NJ, 07040",63495838,"L"
686619,"506 RAILWAY AVE APT 324","CAMPBELL","CA",95008,37.2833774910001,-121.944576018,119,"506 RAILWAY AVE APT 324, CAMPBELL, CA, 95008","Match","Exact","506 RAILWAY AVE, CAMPBELL, CA, 95008",123180358,"L"
686620,"506 RAMSEUR STREET SUITE 1","DURHAM","NC",27701,35.990481878,-78.896069188,120,"506 RAMSEUR STREET SUITE 1, DURHAM, NC, 27701","Match","Exact","506 RAMSEUR ST, DURHAM, NC, 27701",71742422,"R"
686621,"506 RAVENELLE RD","N GROSVENORDALE","CT",6255,41.950918589,-71.912537732,121,"506 RAVENELLE RD, N GROSVENORDALE, CT, 6255","Match","Exact","506 RAVENELLE RD, NORTH GROSVENORDALE, CT, 06255",56444070,"L"
686622,"506 RAVENNA WAY","HAYWARD","CA",94545,37.645797476,-122.115762002,122,"506 RAVENNA WAY, HAYWARD, CA, 94545","Match","Exact","506 RAVENNA WAY, HAYWARD, CA, 94545",617284316,"R"
686623,"506 RED COAT LANE","PHOENIXVILLE","PA",19460,40.119065973,-75.483080409,123,"506 RED COAT LANE, PHOENIXVILLE, PA, 19460","Match","Exact","506 RED COAT LN, PHOENIXVILLE, PA, 19460",179529196,"R"
686624,"506 RED FOX CIRCLE NORTH","MIDDLETOWN","DE",19709,39.512700383,-75.654316911,124,"506 RED FOX CIRCLE NORTH, MIDDLETOWN, DE, 19709","Match","Exact","506 RED FOX CIR N, MIDDLETOWN, DE, 19709",187282193,"R"
686625,"506 RICHLAND AVE","URBANA","IA",52345,42.220759507,-91.882801542,125,"506 RICHLAND AVE, URBANA, IA, 52345","Match","Exact","506 RICHLAND AVE, URBANA, IA, 52345",94719098,"R"
686626,"506 RICHWOOD RD","ARKADELPHIA","AR",71923,NA,NA,126,"506 RICHWOOD RD, ARKADELPHIA, AR, 71923","No_Match",NA,NA,NA,NA
686627,"506 RIDGECREST","DENTON","TX",76205,33.187319717,-97.113398223,127,"506 RIDGECREST, DENTON, TX, 76205","Match","Non_Exact","506 RIDGECREST CIR, DENTON, TX, 76205",103340653,"L"
686628,"506 RIDGEWOOD RD","MAPLEWOOD","NJ",7040,40.736593075,-74.2778139389999,128,"506 RIDGEWOOD RD, MAPLEWOOD, NJ, 7040","Match","Exact","506 RIDGEWOOD RD, MAPLEWOOD, NJ, 07040",63495749,"L"
686629,"506 RIFLE RIDGE DRIVE","OFALLON","MO",63366,NA,NA,129,"506 RIFLE RIDGE DRIVE, OFALLON, MO, 63366","No_Match",NA,NA,NA,NA
686630,"506 RIO DEL MAR","AMERICAN CANYON","CA",94503,38.174420422,-122.267926677,130,"506 RIO DEL MAR, AMERICAN CANYON, CA, 94503","Match","Exact","506 RIO DEL MAR, AMERICAN CANYON, CA, 94503",67429910,"R"
686631,"506 RIVERSIDE AVENUE","STEVENSVILLE","MT",59870,46.506176414,-114.099601123,131,"506 RIVERSIDE AVENUE, STEVENSVILLE, MT, 59870","Match","Exact","506 RIVERSIDE AVE, STEVENSVILLE, MT, 59870",153522156,"R"
686632,"506 RIVERVIEW DR SE","MARIETTA","GA",30067,33.9246299870001,-84.438319822,132,"506 RIVERVIEW DR SE, MARIETTA, GA, 30067","Match","Exact","506 RIVERVIEW DR SE, MARIETTA, GA, 30067",17254026,"L"
686633,"506 RIVERWOOD RD","CHARLOTTE","NC",28270,35.1453358410001,-80.753975514,133,"506 RIVERWOOD RD, CHARLOTTE, NC, 28270","Match","Exact","506 RIVERWOOD RD, CHARLOTTE, NC, 28270",70493551,"R"
686634,"506 ROMNEY DRIVE","BEAULAVILLE","NC",28518,34.9097180790001,-77.631665916,134,"506 ROMNEY DRIVE, BEAULAVILLE, NC, 28518","Match","Non_Exact","506 ROMNEY DR, BEULAVILLE, NC, 28518",636129955,"R"
686635,"506 ROSEWOOD AVENUE","FINDLAY","OH",45840,41.0691798070001,-83.657639022,135,"506 ROSEWOOD AVENUE, FINDLAY, OH, 45840","Match","Exact","506 ROSEWOOD AVE, FINDLAY, OH, 45840",36467276,"L"
686636,"506 ROSIE MAE CT","MURFREESBORO","TN",37127,35.773109006,-86.39067313,136,"506 ROSIE MAE CT, MURFREESBORO, TN, 37127","Match","Exact","506 ROSIE MAE CT, MURFREESBORO, TN, 37127",606768578,"R"
686637,"506 ROSSTON RD","PRESCOTT","AR",71857,33.789611542,-93.3853993499999,137,"506 ROSSTON RD, PRESCOTT, AR, 71857","Match","Exact","506 ROSSTON RD, PRESCOTT, AR, 71857",627240798,"L"
686638,"506 RUTH AVE","SCOTT CITY","MO",63780,37.2221460530001,-89.521891968,138,"506 RUTH AVE, SCOTT CITY, MO, 63780","Match","Exact","506 RUTH AVE, SCOTT CITY, MO, 63780",38942771,"R"
686639,"506 S  TOWNLINE RD","LAGRANGE","IN",46761,41.6403455390001,-85.4248427859999,139,"506 S  TOWNLINE RD, LAGRANGE, IN, 46761","Match","Exact","506 S TOWNLINE RD, LAGRANGE, IN, 46761",8196361,"L"
686640,"506 S 2ND AVENUE","WINTERSET","IA",50273,41.3308999660001,-94.015796021,140,"506 S 2ND AVENUE, WINTERSET, IA, 50273","Match","Exact","506 S 2ND AVE, WINTERSET, IA, 50273",75196942,"L"
686641,"506 S 41ST STREET APT 4H","PHILADELPHIA","PA",19104,NA,NA,141,"506 S 41ST STREET APT 4H, PHILADELPHIA, PA, 19104","Tie",NA,NA,NA,NA
686642,"506 S 4TH STREET","ROCKPORT","IN",47635,NA,NA,142,"506 S 4TH STREET, ROCKPORT, IN, 47635","Tie",NA,NA,NA,NA
686643,"506 S ALMANSOR","ALHAMBRA","CA",91801,34.092626544,-118.117297622,143,"506 S ALMANSOR, ALHAMBRA, CA, 91801","Match","Non_Exact","506 S ALMANSOR ST, ALHAMBRA, CA, 91801",142738847,"L"
686644,"506 S CENTER ST","FORT BRANCH","IN",47648,38.243839171,-87.576115752,144,"506 S CENTER ST, FORT BRANCH, IN, 47648","Match","Exact","506 S CENTER ST, FORT BRANCH, IN, 47648",36376653,"R"
686645,"506 S DAVIS","GIRARD","OH",44420,NA,NA,145,"506 S DAVIS, GIRARD, OH, 44420","No_Match",NA,NA,NA,NA
686646,"506 S GENTRY ST","FRANKFORT","IN",46041,40.2845559900001,-86.514517869,146,"506 S GENTRY ST, FRANKFORT, IN, 46041","Match","Exact","506 GENTRY ST, FRANKFORT, IN, 46041",27226733,"L"
686647,"506 S HALLADAY ST","SANTA ANA","CA",92701,33.741342667,-117.859607596,147,"506 S HALLADAY ST, SANTA ANA, CA, 92701","Match","Exact","506 HALLADAY ST, SANTA ANA, CA, 92701",144051951,"R"
686648,"506 S MAIN ST","SCOTTVILLE","MI",49454,43.9497361890001,-86.279394494,148,"506 S MAIN ST, SCOTTVILLE, MI, 49454","Match","Exact","506 S MAIN ST, SCOTTVILLE, MI, 49454",148054525,"L"
686649,"506 S MELTON","DERMOTT","AR",71638,33.5209933850001,-91.434997869,149,"506 S MELTON, DERMOTT, AR, 71638","Match","Non_Exact","506 S MELTON ST, DERMOTT, AR, 71638",69037664,"L"
686650,"506 S PARK BLVD","SAN ANTONIO","TX",78204,29.3988577850001,-98.522211204,150,"506 S PARK BLVD, SAN ANTONIO, TX, 78204","Match","Exact","506 S PARK BLVD, SAN ANTONIO, TX, 78204",101518340,"L"
686651,"506 S RIALTO DR","PUEBLO WEST","CO",81007,38.3248322540001,-104.788532907,151,"506 S RIALTO DR, PUEBLO WEST, CO, 81007","Match","Exact","506 S RIALTO DR, PUEBLO WEST, CO, 81007",105051065,"R"
686652,"506 S ROCHESTER ST UNIT E","MUKWONAGO","WI",53149,42.8584571700001,-88.329311431,152,"506 S ROCHESTER ST UNIT E, MUKWONAGO, WI, 53149","Match","Non_Exact","506 S ROCHESTER ST, MUKWONAGO, WI, 53149",53862396,"L"
686653,"506 S ROYAL PALM WAY","TAMPA","FL",33609,27.938575169,-82.5210739079999,153,"506 S ROYAL PALM WAY, TAMPA, FL, 33609","Match","Exact","506 ROYAL PALM WAY, TAMPA, FL, 33609",104524700,"L"
686654,"506 S SPRING ST 13308 SMB 12027","LOS ANGELES","CA",90013,34.0471994500001,-118.249796056,154,"506 S SPRING ST 13308 SMB 12027, LOS ANGELES, CA, 90013","Match","Non_Exact","506 S SPRING ST, LOS ANGELES, CA, 90013",141619345,"L"
686655,"506 S SPRING ST 13308 SMB 1510","LOS ANGELES","CA",90013,34.0471994500001,-118.249796056,155,"506 S SPRING ST 13308 SMB 1510, LOS ANGELES, CA, 90013","Match","Non_Exact","506 S SPRING ST, LOS ANGELES, CA, 90013",141619345,"L"
686656,"506 S SPRING ST 13308 SMB 1947","LOS ANGELES","CA",90013,34.0471994500001,-118.249796056,156,"506 S SPRING ST 13308 SMB 1947, LOS ANGELES, CA, 90013","Match","Non_Exact","506 S SPRING ST, LOS ANGELES, CA, 90013",141619345,"L"
686657,"506 S SPRING ST 13308 SMB 5198","LOS ANGELES","CA",90013,34.0471994500001,-118.249796056,157,"506 S SPRING ST 13308 SMB 5198, LOS ANGELES, CA, 90013","Match","Non_Exact","506 S SPRING ST, LOS ANGELES, CA, 90013",141619345,"L"
686658,"506 S SPRING ST 13308 SMB 7014","LOS ANGELES","CA",90013,34.0471994500001,-118.249796056,158,"506 S SPRING ST 13308 SMB 7014, LOS ANGELES, CA, 90013","Match","Non_Exact","506 S SPRING ST, LOS ANGELES, CA, 90013",141619345,"L"
686659,"506 S SPRING ST 13308 SMB 7247","LOS ANGELES","CA",90013,34.0471994500001,-118.249796056,159,"506 S SPRING ST 13308 SMB 7247, LOS ANGELES, CA, 90013","Match","Non_Exact","506 S SPRING ST, LOS ANGELES, CA, 90013",141619345,"L"
686660,"506 S SPRING ST 13308","LOS ANGELES","CA",90013,34.0471994500001,-118.249796056,160,"506 S SPRING ST 13308, LOS ANGELES, CA, 90013","Match","Non_Exact","506 S SPRING ST, LOS ANGELES, CA, 90013",141619345,"L"
686661,"506 S STACY AVE","MILES CITY","MT",59301,46.403520029,-105.831753821,161,"506 S STACY AVE, MILES CITY, MT, 59301","Match","Exact","506 S STACY AVE, MILES CITY, MT, 59301",150380091,"R"
686662,"506 S STATE ST","DOVER","DE",19901,39.154615537,-75.523111204,162,"506 S STATE ST, DOVER, DE, 19901","Match","Exact","506 S STATE ST, DOVER, DE, 19901",68088523,"L"
686663,"506 S WABASH","HOWARD","KS",67349,37.46488917,-96.263585752,163,"506 S WABASH, HOWARD, KS, 67349","Match","Non_Exact","506 S WABASH AVE, HOWARD, KS, 67349",18264810,"L"
686664,"506 S WASHINGTON","THORP","WI",54771,44.9554239490001,-90.800345447,164,"506 S WASHINGTON, THORP, WI, 54771","Match","Non_Exact","506 S WASHINGTON ST, THORP, WI, 54771",50855623,"L"
686665,"506 S WILLIAMS","HAMILTON","TX",76531,31.6934938700001,-98.1108203859999,165,"506 S WILLIAMS, HAMILTON, TX, 76531","Match","Non_Exact","506 S WILLIAMS ST, HAMILTON, TX, 76531",639806131,"L"
686666,"506 SAGE COURTH","HIGHLAND VILLAGE","TX",75077,33.077717131,-97.083688127,166,"506 SAGE COURTH, HIGHLAND VILLAGE, TX, 75077","Match","Non_Exact","506 SAGE CT, HIGHLAND VILLAGE, TX, 75077",103413176,"R"
686667,"506 SAINT MARTINS LANE","SEVERNA PARK","MD",21146,39.082758707,-76.566812972,167,"506 SAINT MARTINS LANE, SEVERNA PARK, MD, 21146","Match","Exact","506 ST MARTINS LN, SEVERNA PARK, MD, 21146",650570612,"R"
686668,"506 SAMPSON ROAD","DAHLGREN","VA",22448,38.321289388,-77.039440172,168,"506 SAMPSON ROAD, DAHLGREN, VA, 22448","Match","Exact","506 SAMPSON RD, DAHLGREN, VA, 22448",22059463,"R"
686669,"506 SANDY CROSS RD","LEXINGTON","GA",30648,33.93115155,-83.04247764,169,"506 SANDY CROSS RD, LEXINGTON, GA, 30648","Match","Exact","506 SANDY CROSS RD, LEXINGTON, GA, 30648",5063679,"R"
686670,"506 SANDY CROSS ROAD","LEXINGTON","GA",30648,33.93115155,-83.04247764,170,"506 SANDY CROSS ROAD, LEXINGTON, GA, 30648","Match","Exact","506 SANDY CROSS RD, LEXINGTON, GA, 30648",5063679,"R"
686671,"506 SANTA MONICA BLVD  STE 317","SANTA MONICA","CA",90401,34.017226803,-118.494121833,171,"506 SANTA MONICA BLVD  STE 317, SANTA MONICA, CA, 90401","Match","Exact","506 SANTA MONICA BLVD, SANTA MONICA, CA, 90401",142715931,"R"
686672,"506 SAUK PATH","OAK BROOK","IL",60523,41.8285499470001,-87.948718227,172,"506 SAUK PATH, OAK BROOK, IL, 60523","Match","Exact","506 SAUK PATH, OAK BROOK, IL, 60523",112549186,"R"
686673,"506 SCHMIDT AVENUE","ROTHSCHILD","WI",54474,44.8837366540001,-89.61906758,173,"506 SCHMIDT AVENUE, ROTHSCHILD, WI, 54474","Match","Exact","506 SCHMIDT AVE, ROTHSCHILD, WI, 54474",117164460,"L"
686674,"506 SE 2ND ST","CASEY","IL",62420,39.2936757160001,-87.990454534,174,"506 SE 2ND ST, CASEY, IL, 62420","Match","Exact","506 SE 2ND ST, CASEY, IL, 62420",5645406,"R"
686675,"506 SE ACCESS ROAD","MT VERNON","TX",75457,33.159037229,-95.1986149699999,175,"506 SE ACCESS ROAD, MT VERNON, TX, 75457","Match","Exact","506 SE ACCESS RD, MOUNT VERNON, TX, 75457",70355757,"L"
686676,"506 SEABREEZE BLVD","DAYTONA BEACH","FL",32118,29.234857091,-81.0143971969999,176,"506 SEABREEZE BLVD, DAYTONA BEACH, FL, 32118","Match","Exact","506 SEABREEZE BLVD, DAYTONA BEACH, FL, 32118",94525058,"R"
686677,"506 SECOND AVE","SEATTLE","WA",98104,47.6017934430001,-122.332047682,177,"506 SECOND AVE, SEATTLE, WA, 98104","Match","Exact","506 2ND AVE, SEATTLE, WA, 98104",186589674,"R"
686678,"506 SETTERS RUN APT 107","COOPERSVILLE","MI",49404,43.057593551,-85.9387044119999,178,"506 SETTERS RUN APT 107, COOPERSVILLE, MI, 49404","Match","Exact","506 SETTERS RUN, COOPERSVILLE, MI, 49404",71115925,"L"
686679,"506 SHADY WOOD WAY","MADISON","WI",53714,43.0912378850001,-89.2941792939999,179,"506 SHADY WOOD WAY, MADISON, WI, 53714","Match","Exact","506 SHADY WOOD WAY, MADISON, WI, 53714",49494074,"R"
686680,"506 SHANNON DR","GREENVILLE","IL",62246,38.8954428550001,-89.4005569569999,180,"506 SHANNON DR, GREENVILLE, IL, 62246","Match","Exact","506 SHANNON DR, GREENVILLE, IL, 62246",101033796,"R"
686681,"506 SHANNON LANE","SHERIDAN","AR",72150,34.294776094,-92.406613578,181,"506 SHANNON LANE, SHERIDAN, AR, 72150","Match","Exact","506 SHANNON LN, SHERIDAN, AR, 72150",2492948,"R"
686682,"506 SHINNECOCK COURT","NEW BERN","NC",28562,35.1087693360001,-77.11261806,182,"506 SHINNECOCK COURT, NEW BERN, NC, 28562","Match","Exact","506 SHINNECOCK CT, NEW BERN, NC, 28562",34128385,"R"
686683,"506 SHORECREST DRIVE","CLEMSON","SC",29631,34.6883432750001,-82.840624889,183,"506 SHORECREST DRIVE, CLEMSON, SC, 29631","Match","Exact","506 SHORECREST DR, CLEMSON, SC, 29631",648318720,"L"
686684,"506 SHOREHAVEN DRIVE","GARLAND","TX",75040,32.917502359,-96.624518522,184,"506 SHOREHAVEN DRIVE, GARLAND, TX, 75040","Match","Exact","506 SHOREHAVEN DR, GARLAND, TX, 75040",102927917,"R"
686685,"506 SILVER CHARM DRIVE","OSWEGO","IL",60543,41.696542584,-88.2920491529999,185,"506 SILVER CHARM DRIVE, OSWEGO, IL, 60543","Match","Exact","506 SILVER CHARM DR, OSWEGO, IL, 60543",54501172,"L"
686686,"506 SILVER RIDGE DR","GREER","SC",29651,34.962398525,-82.288723933,186,"506 SILVER RIDGE DR, GREER, SC, 29651","Match","Exact","506 SILVER RIDGE DR, GREER, SC, 29651",38327957,"R"
686687,"506 SILVERRIDGE DR","RIO VISTA","CA",94571,38.177827925,-121.700544461,187,"506 SILVERRIDGE DR, RIO VISTA, CA, 94571","Match","Non_Exact","506 SILVER RIDGE DR, RIO VISTA, CA, 94571",646561507,"R"
686688,"506 SOMERSET DR","SUGARLAND","TX",77479,29.60400595,-95.645198915,188,"506 SOMERSET DR, SUGARLAND, TX, 77479","Match","Non_Exact","506 SOMERSET DR, SUGAR LAND, TX, 77479",637956776,"L"
686689,"506 SOUGHGATE DRIVE","BLACKSBURG","VA",24060,NA,NA,189,"506 SOUGHGATE DRIVE, BLACKSBURG, VA, 24060","No_Match",NA,NA,NA,NA
686690,"506 SOUTH 48TH STREET","PHILADELPHIA","PA",19143,39.950875002,-75.218715866,190,"506 SOUTH 48TH STREET, PHILADELPHIA, PA, 19143","Match","Exact","506 S 48TH ST, PHILADELPHIA, PA, 19143",131399782,"R"
686691,"506 SOUTH BOYER AVE","SANDPOINT","ID",83864,48.267399018,-116.557034471,191,"506 SOUTH BOYER AVE, SANDPOINT, ID, 83864","Match","Exact","506 S BOYER AVE, SANDPOINT, ID, 83864",169476508,"L"
686692,"506 SOUTH FIRST AVENUE","NEW HAMPTON","IA",50659,43.055025125,-92.306891518,192,"506 SOUTH FIRST AVENUE, NEW HAMPTON, IA, 50659","Match","Exact","506 S 1ST AVE, NEW HAMPTON, IA, 50659",9745191,"R"
686693,"506 SOUTH HILL BLVD","DALY CITY","CA",94014,37.706070191,-122.437649763,193,"506 SOUTH HILL BLVD, DALY CITY, CA, 94014","Match","Non_Exact","506 SOUTHHILL BLVD, DALY CITY, CA, 94014",636423640,"R"
686694,"506 SOUTH OAK","COLVILLE","WA",99114,48.540115004,-117.90427436,194,"506 SOUTH OAK, COLVILLE, WA, 99114","Match","Non_Exact","506 S OAK ST, COLVILLE, WA, 99114",174839661,"L"
686695,"506 SOUTH PARDUE","VIVIAN","LA",71082,32.8660171670001,-93.982593218,195,"506 SOUTH PARDUE, VIVIAN, LA, 71082","Match","Non_Exact","506 S PARDUE ST, VIVIAN, LA, 71082",57444681,"R"
686696,"506 SOUTH SCHOOL ST","TUSKEGEE","AL",36083,32.4214514190001,-85.6857391039999,196,"506 SOUTH SCHOOL ST, TUSKEGEE, AL, 36083","Match","Exact","506 S SCHOOL ST, TUSKEGEE, AL, 36083",69127663,"L"
686697,"506 SOUTH SECOND STREET","WARNER ROBINS","GA",31093,32.6127492110001,-83.599607786,197,"506 SOUTH SECOND STREET, WARNER ROBINS, GA, 31093","Match","Non_Exact","506 S 2ND ST, WARNER ROBINS, GA, 31088",91220292,"R"
686698,"506 SOUTH WEST AVE","LINCOLN","AR",72744,35.946126205,-94.4258675739999,198,"506 SOUTH WEST AVE, LINCOLN, AR, 72744","Match","Exact","506 S WEST AVE, LINCOLN, AR, 72744",49035882,"R"
686699,"506 SOUTH WILLIAM STREET","VICTORIA","TX",77901,28.794932122,-97.0056002009999,199,"506 SOUTH WILLIAM STREET, VICTORIA, TX, 77901","Match","Exact","506 S WILLIAM ST, VICTORIA, TX, 77901",44559490,"L"
686700,"506 SPRING ARBOR LANE","CEDAR PARK","TX",78613,30.4915171760001,-97.821256654,200,"506 SPRING ARBOR LANE, CEDAR PARK, TX, 78613","Match","Exact","506 SPRING ARBOR LN, CEDAR PARK, TX, 78613",617957056,"L"
686701,"506 SPRINGWOOD","JOLIET","IL",60431,41.512067673,-88.17029898,201,"506 SPRINGWOOD, JOLIET, IL, 60431","Match","Non_Exact","506 SPRINGWOOD DR, JOLIET, IL, 60431",653212645,"L"
686702,"506 ST TERESA TERRACE NW","MARIETTA","GA",30064,33.965873457,-84.568089615,202,"506 ST TERESA TERRACE NW, MARIETTA, GA, 30064","Match","Exact","506 SAINT TERESA TER NW, MARIETTA, GA, 30064",17175365,"R"
686703,"506 STATION STREET","PENN HILLS","PA",15235,40.490351591,-79.7845917349999,203,"506 STATION STREET, PENN HILLS, PA, 15235","Match","Exact","506 STATION ST, PENN HILLS, PA, 15235",648769945,"R"
686704,"506 STEVENS CT NW","RENTON","WA",98057,47.490445005,-122.224103637,204,"506 STEVENS CT NW, RENTON, WA, 98057","Match","Exact","506 STEVENS CT NW, RENTON, WA, 98057",186929552,"R"
686705,"506 STOCKTON COVE","FLOWOOD","MS",39232,32.3534151050001,-90.062207766,205,"506 STOCKTON COVE, FLOWOOD, MS, 39232","Match","Exact","506 STOCKTON COVE, FLOWOOD, MS, 39232",116913291,"R"
686706,"506 STOVER STREET","FORT COLLINS","CO",80524,40.5812646580001,-105.066512397,206,"506 STOVER STREET, FORT COLLINS, CO, 80524","Match","Exact","506 STOVER ST, FORT COLLINS, CO, 80524",188491255,"L"
686707,"506 STRANGFORD ROAD","BLAIRSVILLE","PA",15717,40.434178391,-79.229861608,207,"506 STRANGFORD ROAD, BLAIRSVILLE, PA, 15717","Match","Exact","506 STRANGFORD RD, BLAIRSVILLE, PA, 15717",66319899,"L"
686708,"506 STUCKER LN","ENERGY","IL",62933,37.7669283700001,-89.021481689,208,"506 STUCKER LN, ENERGY, IL, 62933","Match","Exact","506 STUCKER LN, ENERGY, IL, 62933",6029149,"L"
686709,"506 SUNSET DRIVE","LOUISVILLE","CO",80027,39.9856486200001,-105.136614963,209,"506 SUNSET DRIVE, LOUISVILLE, CO, 80027","Match","Exact","506 SUNSET DR, LOUISVILLE, CO, 80027",188204260,"L"
686710,"506 SUNSET TERRACE","ENDICOTT","NY",13760,42.089773333,-76.073840272,210,"506 SUNSET TERRACE, ENDICOTT, NY, 13760","Match","Exact","506 SUNSET TER, ENDICOTT, NY, 13760",46337122,"L"
686711,"506 SUPERIOR RD","EGG HARBOR TWP","NJ",8234,39.38048236,-74.5969594159999,211,"506 SUPERIOR RD, EGG HARBOR TWP, NJ, 8234","Match","Exact","506 SUPERIOR RD, EGG HARBOR TOWNSHIP, NJ, 08234",202518645,"L"
686712,"506 TARA COURT","CANBERRY TOWNSHIP","PA",16066,40.739365155,-80.076857895,212,"506 TARA COURT, CANBERRY TOWNSHIP, PA, 16066","Match","Non_Exact","506 TARA CT, CRANBERRY TOWNSHIP, PA, 16066",52697501,"R"
686713,"506 TEXAS AVE","SOUTH HOUSTON","TX",77587,29.6569400590001,-95.226722561,213,"506 TEXAS AVE, SOUTH HOUSTON, TX, 77587","Match","Exact","506 TEXAS AVE, SOUTH HOUSTON, TX, 77587",96103441,"R"
686714,"506 THIRD STREET WEST UNIT B","WHITEFISH","MT",59937,48.4097032120001,-114.352039006,214,"506 THIRD STREET WEST UNIT B, WHITEFISH, MT, 59937","Match","Exact","506 3RD ST W, WHITEFISH, MT, 59937",204161624,"R"
686715,"506 TOULOUSE COURT","BOSSIER CITY","LA",71111,32.627695348,-93.723812863,215,"506 TOULOUSE COURT, BOSSIER CITY, LA, 71111","Match","Exact","506 TOULOUSE CT, BOSSIER CITY, LA, 71111",648747771,"L"
686716,"506 TUNBRIDGE AVENUE","BALTIMORE","MD",21212,39.35652671,-76.609651822,216,"506 TUNBRIDGE AVENUE, BALTIMORE, MD, 21212","Match","Non_Exact","506 TUNBRIDGE RD, BALTIMORE, MD, 21212",206461288,"L"
686717,"506 TURKEY CREEK","ALACHUA","FL",32615,29.7650808710001,-82.411413204,217,"506 TURKEY CREEK, ALACHUA, FL, 32615","Match","Non_Exact","506 TURKEY CREEK BLVD, ALACHUA, FL, 32615",6802115,"R"
686718,"506 VALENTI CT","RIVERDALE","GA",30274,33.5285240490001,-84.406693989,218,"506 VALENTI CT, RIVERDALE, GA, 30274","Match","Exact","506 VALENTI CT, RIVERDALE, GA, 30274",23313505,"L"
686719,"506 VANESSA CIRCLE","HARLINGEN","TX",78550,26.167546067,-97.68668495,219,"506 VANESSA CIRCLE, HARLINGEN, TX, 78550","Match","Exact","506 VANESSA CIR, HARLINGEN, TX, 78550",90029974,"L"
686720,"506 VAUGH AVE","GREENSBORO","MD",21639,NA,NA,220,"506 VAUGH AVE, GREENSBORO, MD, 21639","No_Match",NA,NA,NA,NA
686721,"506 VEGAS DR","LAS VEGAS","NM",87701,35.6151155690001,-105.217681056,221,"506 VEGAS DR, LAS VEGAS, NM, 87701","Match","Exact","506 VEGAS DR, LAS VEGAS, NM, 87701",636536669,"L"
686722,"506 VENEZIA WAY","CLOVERDALE","CA",95425,38.8130780070001,-123.025636485,222,"506 VENEZIA WAY, CLOVERDALE, CA, 95425","Match","Exact","506 VENEZIA WAY, CLOVERDALE, CA, 95425",604972751,"L"
686723,"506 VIRGINIA ST","PIQUA","OH",45356,40.150705336,-84.25194371,223,"506 VIRGINIA ST, PIQUA, OH, 45356","Match","Exact","506 VIRGINIA ST, PIQUA, OH, 45356",135294480,"R"
686724,"506 W 105TH","MANHATTAN","NY",10031,NA,NA,224,"506 W 105TH, MANHATTAN, NY, 10031","No_Match",NA,NA,NA,NA
686725,"506 W 11TH ST","NELIGH","NE",68756,42.135659144,-98.034619621,225,"506 W 11TH ST, NELIGH, NE, 68756","Match","Exact","506 W 11TH ST, NELIGH, NE, 68756",161671141,"R"
686726,"506 W 150TH ST APT 3A","NEW YORK","NY",10031,40.8285581820001,-73.945672359,226,"506 W 150TH ST APT 3A, NEW YORK, NY, 10031","Match","Non_Exact","506 W 150TH ST, NEW YORK, NY, 10031",59655932,"L"
686727,"506 W 32ND ST UNIT D","CHICAGO","IL",60616,NA,NA,227,"506 W 32ND ST UNIT D, CHICAGO, IL, 60616","Tie",NA,NA,NA,NA
686728,"506 W 5TH ST","ERIE","PA",16507,42.126328422,-80.0971018559999,228,"506 W 5TH ST, ERIE, PA, 16507","Match","Exact","506 W 5TH ST, ERIE, PA, 16507",117493963,"R"
686729,"506 W 6TH ST","KAUKAUNA","WI",54130,44.2756257280001,-88.282259832,229,"506 W 6TH ST, KAUKAUNA, WI, 54130","Match","Exact","506 W 6TH ST, KAUKAUNA, WI, 54130",74889451,"R"
686730,"506 W ARLINGTON AVE","GREER","SC",29650,34.943538457,-82.2324410259999,230,"506 W ARLINGTON AVE, GREER, SC, 29650","Match","Exact","506 W ARLINGTON AVE, GREER, SC, 29650",38308517,"L"
686731,"506 W BELDEN AVE UNIT 2","CHICAGO","IL",60614,41.923739638,-87.641688909,231,"506 W BELDEN AVE UNIT 2, CHICAGO, IL, 60614","Match","Non_Exact","506 W BELDEN AVE, CHICAGO, IL, 60614",605242754,"R"
686732,"506 W BURR OAK DRIVE","ARLINGTON HEIGHTS","IL",60004,42.1295869670001,-87.989440649,232,"506 W BURR OAK DRIVE, ARLINGTON HEIGHTS, IL, 60004","Match","Exact","506 W BURR OAK DR, ARLINGTON HEIGHTS, IL, 60004",111837375,"R"
686733,"506 W CLEVELAND STREET","DELPHOS","OH",45833,40.839671106,-84.345170138,233,"506 W CLEVELAND STREET, DELPHOS, OH, 45833","Match","Exact","506 W CLEVELAND ST, DELPHOS, OH, 45833",6771378,"R"
686734,"506 W HARVEY STREET","PHILADELPHIA","PA",19144,40.0331160970001,-75.183881684,234,"506 W HARVEY STREET, PHILADELPHIA, PA, 19144","Match","Exact","506 W HARVEY ST, PHILADELPHIA, PA, 19144",131401014,"L"
686735,"506 W LEICESTER ST","WINCHESTER","VA",22601,39.181551428,-78.1749151879999,235,"506 W LEICESTER ST, WINCHESTER, VA, 22601","Match","Exact","506 W LEICESTER ST, WINCHESTER, VA, 22601",55610503,"L"
686736,"506 W MAIN AVE","ROCKFORD","IA",50468,43.052326061,-92.953322085,236,"506 W MAIN AVE, ROCKFORD, IA, 50468","Match","Exact","506 W MAIN AVE, ROCKFORD, IA, 50468",7341134,"R"
686737,"506 W PEELER ST","SALISBURY","NC",28146,35.6102932310001,-80.453539911,237,"506 W PEELER ST, SALISBURY, NC, 28146","Match","Exact","506 W PEELER ST, SALISBURY, NC, 28146",652849327,"L"
686738,"506 W RIVER ST","OZARK","AR",72949,35.4856539830001,-93.829660586,238,"506 W RIVER ST, OZARK, AR, 72949","Match","Exact","506 W RIVER ST, OZARK, AR, 72949",55881104,"R"
686739,"506 W SANTA CATALINA RD","PALM SPRINGS","CA",92262,33.8581651910001,-116.553559518,239,"506 W SANTA CATALINA RD, PALM SPRINGS, CA, 92262","Match","Exact","506 W SANTA CATALINA RD, PALM SPRINGS, CA, 92262",194760859,"L"
686740,"506 W UNION ST","WEST CHESTER","PA",19382,39.9534697380001,-75.610372833,240,"506 W UNION ST, WEST CHESTER, PA, 19382","Match","Exact","506 W UNION ST, WEST CHESTER, PA, 19382",179490534,"L"
686741,"506 W WASHINGTON","ALEXANDRIA","IN",46001,40.2630862880001,-85.679673171,241,"506 W WASHINGTON, ALEXANDRIA, IN, 46001","Match","Non_Exact","506 W WASHINGTON ST, ALEXANDRIA, IN, 46001",31107392,"R"
686742,"506 WARE","SAN ANTONIO","TX",78221,NA,NA,242,"506 WARE, SAN ANTONIO, TX, 78221","No_Match",NA,NA,NA,NA
686743,"506 WATER STREET","EAU CLAIRE","WI",54703,44.802168872,-91.51003496,243,"506 WATER STREET, EAU CLAIRE, WI, 54703","Match","Exact","506 WATER ST, EAU CLAIRE, WI, 54703",46066496,"R"
686744,"506 WATSON DR","NATCHITOCHES","LA",71457,31.7469478030001,-93.0790891949999,244,"506 WATSON DR, NATCHITOCHES, LA, 71457","Match","Exact","506 WATSON DR, NATCHITOCHES, LA, 71457",13375469,"R"
686745,"506 WEST 12TH STREET","AUSTIN","TX",78701,30.2751615060001,-97.7453541529999,245,"506 WEST 12TH STREET, AUSTIN, TX, 78701","Match","Exact","506 W 12TH ST, AUSTIN, TX, 78701",63943263,"R"
686746,"506 WEST 145TH STREET APT 3A","NEW YORK","NY",10031,40.8253886950001,-73.947980736,246,"506 WEST 145TH STREET APT 3A, NEW YORK, NY, 10031","Match","Exact","506 W 145TH ST, NEW YORK, NY, 10031",59655918,"L"
686747,"506 WEST 16TH ST","AUSTIN","TX",78701,30.2792299760001,-97.7438640239999,247,"506 WEST 16TH ST, AUSTIN, TX, 78701","Match","Exact","506 W 16TH ST, AUSTIN, TX, 78701",63943219,"R"
686748,"506 WEST CHURCH STREET","BENSON","NC",27504,35.3860384050001,-78.553814878,248,"506 WEST CHURCH STREET, BENSON, NC, 27504","Match","Exact","506 W CHURCH ST, BENSON, NC, 27504",26527761,"R"
686749,"506 WEST COURT STREET","PARAGOULD","AR",72450,36.056220244,-90.491432246,249,"506 WEST COURT STREET, PARAGOULD, AR, 72450","Match","Exact","506 W COURT ST, PARAGOULD, AR, 72450",47054842,"L"
686750,"506 WEST ENGELWOOD AVE","CHICAGO","IL",60621,41.7808042010001,-87.637831075,250,"506 WEST ENGELWOOD AVE, CHICAGO, IL, 60621","Match","Non_Exact","506 W ENGLEWOOD AVE, CHICAGO, IL, 60621",111830310,"R"
686751,"506 WEST GREEN","FORRESTON","IL",61030,42.1285355810001,-89.5849475159999,251,"506 WEST GREEN, FORRESTON, IL, 61030","Match","Non_Exact","506 W GREEN ST, FORRESTON, IL, 61030",52327075,"R"
686752,"506 WEST JONES STREET","SAVANNAH","GA",31401,32.0742214970001,-81.100111601,252,"506 WEST JONES STREET, SAVANNAH, GA, 31401","Match","Exact","506 W JONES ST, SAVANNAH, GA, 31401",6175279,"R"
686753,"506 WEST MAIN ST","STARKVILLE","MS",39759,33.4638685130001,-88.82486439,253,"506 WEST MAIN ST, STARKVILLE, MS, 39759","Match","Exact","506 W MAIN ST, STARKVILLE, MS, 39759",624284555,"R"
686754,"506 WEST MAIN","BUCKHOLTS","TX",76518,30.876257896,-97.128866548,254,"506 WEST MAIN, BUCKHOLTS, TX, 76518","Match","Non_Exact","506 W MAIN ST, BUCKHOLTS, TX, 76518",25208191,"R"
686755,"506 WEST NORTH ST","SWEETWATER","TN",37874,35.6030161030001,-84.4636634139999,255,"506 WEST NORTH ST, SWEETWATER, TN, 37874","Match","Exact","506 W NORTH ST, SWEETWATER, TN, 37874",85298006,"R"
686756,"506 WEST OAK ST","HIGHLANDS","TX",77562,29.821332307,-95.056404367,256,"506 WEST OAK ST, HIGHLANDS, TX, 77562","Match","Exact","506 W OAK ST, HIGHLANDS, TX, 77562",96100970,"L"
686757,"506 WEST ST","GENOA","OH",43430,41.51698716,-83.360076221,257,"506 WEST ST, GENOA, OH, 43430","Match","Exact","506 WEST ST, GENOA, OH, 43430",44067272,"L"
686758,"506 WEST STREET","NEW VIRGINIA","IA",50210,41.181938818,-93.73027895,258,"506 WEST STREET, NEW VIRGINIA, IA, 50210","Match","Exact","506 WEST ST, NEW VIRGINIA, IA, 50210",83765995,"L"
686759,"506 WEST SUNFLOWER STREET","RULEVILLE","MS",38771,33.721623874,-90.559133393,259,"506 WEST SUNFLOWER STREET, RULEVILLE, MS, 38771","Match","Exact","506 W SUNFLOWER ST, RULEVILLE, MS, 38771",2741378,"L"
686760,"506 WEST THIRD STREET","GILMAN","IL",60938,40.76976818,-87.9982227,260,"506 WEST THIRD STREET, GILMAN, IL, 60938","Match","Exact","506 W 3RD ST, GILMAN, IL, 60938",90767139,"L"
686761,"506 WEST WASHINGTON AVE","MADISON","WI",53703,43.0699345420001,-89.3909004499999,261,"506 WEST WASHINGTON AVE, MADISON, WI, 53703","Match","Exact","506 W WASHINGTON AVE, MADISON, WI, 53703",49472358,"R"
686762,"506 WESTGLOW RD","STATESVILLE","NC",28625,36.0204853220001,-80.947779026,262,"506 WESTGLOW RD, STATESVILLE, NC, 28625","Match","Exact","506 WESTGLOW RD, STATESVILLE, NC, 28625",651685215,"R"
686763,"506 WHARTON BLVD","EXTON","PA",19341,40.0577926820001,-75.679995941,263,"506 WHARTON BLVD, EXTON, PA, 19341","Match","Exact","506 WHARTON BLVD, EXTON, PA, 19341",179552895,"L"
686764,"506 WHISTLEWOOD ROAD","MONTGOMERY","AL",36117,32.393745881,-86.1569894099999,264,"506 WHISTLEWOOD ROAD, MONTGOMERY, AL, 36117","Match","Exact","506 WHISTLEWOOD RD, MONTGOMERY, AL, 36117",1546545,"L"
686765,"506 WHITETAIL CIR","HAMPSHIRE","IL",60140,42.0927325580001,-88.5373117729999,265,"506 WHITETAIL CIR, HAMPSHIRE, IL, 60140","Match","Exact","506 WHITETAIL CIR, HAMPSHIRE, IL, 60140",119543302,"L"
686766,"506 WHITING ST","EL SEGUNDO","CA",90245,33.922390342,-118.420623853,266,"506 WHITING ST, EL SEGUNDO, CA, 90245","Match","Exact","506 WHITING ST, EL SEGUNDO, CA, 90245",141579813,"R"
686767,"506 WINDING BROOK CT","LAKE ST LOUIS","MO",63367,38.7784797890001,-90.7596485729999,267,"506 WINDING BROOK CT, LAKE ST LOUIS, MO, 63367","Match","Exact","506 WINDING BROOK CT, LAKE SAINT LOUIS, MO, 63367",100090794,"R"
686768,"506 WINDING WOODS TRAIL","MOUNT WASHINGTON","KY",40047,38.0189361610001,-85.565822822,268,"506 WINDING WOODS TRAIL, MOUNT WASHINGTON, KY, 40047","Match","Exact","506 WINDING WOODS TRL, MOUNT WASHINGTON, KY, 40047",647739483,"R"
686769,"506 WITCHDUCK LANE","HENRICO","VA",23223,37.54220989,-77.346304957,269,"506 WITCHDUCK LANE, HENRICO, VA, 23223","Match","Non_Exact","506 WITCHDUCK LN, RICHMOND, VA, 23223",106651182,"R"
686770,"506 WOOD FOREST TRAIL","APPLING","GA",30802,33.569097449,-82.2367211069999,270,"506 WOOD FOREST TRAIL, APPLING, GA, 30802","Match","Exact","506 WOOD FOREST TRL, APPLING, GA, 30802",648063019,"R"
686771,"506 WOOD STREET","CHICAGO HEIGHTS","IL",60411,41.5221601390001,-87.659854287,271,"506 WOOD STREET, CHICAGO HEIGHTS, IL, 60411","Match","Exact","506 WOOD ST, CHICAGO HEIGHTS, IL, 60411",111711095,"R"
686772,"506 WOODCLIFF ROAD","CHARLESTON","WV",25314,38.335850529,-81.6307973099999,272,"506 WOODCLIFF ROAD, CHARLESTON, WV, 25314","Match","Exact","506 WOODCLIFF RD, CHARLESTON, WV, 25314",78593682,"R"
686773,"506 WOODLAND AVENUE","WOODLAND","NC",27897,36.3276447470001,-77.214643796,273,"506 WOODLAND AVENUE, WOODLAND, NC, 27897","Match","Non_Exact","506 W WOODLAND AVE, WOODLAND, NC, 27897",54073981,"R"
686774,"506 WOODLAND DR","PHARR","TX",78577,26.191960468,-98.1943570559999,274,"506 WOODLAND DR, PHARR, TX, 78577","Match","Exact","506 WOODLAND DR, PHARR, TX, 78577",71532390,"R"
686775,"506 WOODRIDGE DRIVE","HALLSVILE","TX",75650,32.5107125550001,-94.570929254,275,"506 WOODRIDGE DRIVE, HALLSVILE, TX, 75650","Match","Non_Exact","506 WOODRIDGE, HALLSVILLE, TX, 75650",141170916,"R"
686776,"506 WOODSIDE DRIVE","SHELBY","NC",28150,35.285906288,-81.557208743,276,"506 WOODSIDE DRIVE, SHELBY, NC, 28150","Match","Exact","506 WOODSIDE DR, SHELBY, NC, 28150",19318401,"L"
686777,"506 WYOMING AVENUE","DOVER","DE",19904,39.144047383,-75.529577847,277,"506 WYOMING AVENUE, DOVER, DE, 19904","Match","Exact","506 WYOMING AVE, DOVER, DE, 19904",638536543,"L"
686778,"506 YELLOW HAMMER RD","CHATTANOOGA","TN",37421,34.989849828,-85.165468441,278,"506 YELLOW HAMMER RD, CHATTANOOGA, TN, 37421","Match","Exact","506 YELLOW HAMMER RD, CHATTANOOGA, TN, 37421",59330990,"R"
686779,"506-A  CENTER STREET","ELKINS","WV",26241,38.9194330070001,-79.843842353,279,"506-A  CENTER STREET, ELKINS, WV, 26241","Match","Exact","506 CENTER ST, ELKINS, WV, 26241",604498595,"L"
686780,"506-A CALLE JUAN J JIMENEZ","SAN JUAN","PR",918,18.4143821280001,-66.069560312,280,"506-A CALLE JUAN J JIMENEZ, SAN JUAN, PR, 918","Match","Non_Exact","506 CLL JUAN J JIMENEZ, SAN JUAN, PR, 00918",206607964,"R"
686781,"506-B HIGHWAY 181","KEISER","AR",72351,35.6708950080001,-90.0985142329999,281,"506-B HIGHWAY 181, KEISER, AR, 72351","Match","Non_Exact","506 STATE HWY 181, KEISER, AR, 72351",47227090,"R"
686782,"5060 ALONE VISTA LINDA","YORBA LINDA","CA",92887,NA,NA,282,"5060 ALONE VISTA LINDA, YORBA LINDA, CA, 92887","No_Match",NA,NA,NA,NA
686783,"5060 ARAN CIRCLE NW","NORTH CANTON","OH",44720,40.856388345,-81.4436444839999,283,"5060 ARAN CIRCLE NW, NORTH CANTON, OH, 44720","Match","Exact","5060 ARAN CIR NW, NORTH CANTON, OH, 44720",64673961,"L"
686784,"5060 AVILA ROAD","CONCORD","CA",94520,38.017064727,-121.986869482,284,"5060 AVILA ROAD, CONCORD, CA, 94520","Match","Exact","5060 AVILA RD, CONCORD, CA, 94520",629640547,"L"
686785,"5060 BLACKBERRY LANE","BUFORD","GA",30518,34.1627679040001,-83.972656844,285,"5060 BLACKBERRY LANE, BUFORD, GA, 30518","Match","Exact","5060 BLACKBERRY LN, BUFORD, GA, 30518",642532811,"L"
686786,"5060 BLUEBERRY LANE","JUNEAU","AK",99801,58.4053777240001,-134.596303537,286,"5060 BLUEBERRY LANE, JUNEAU, AK, 99801","Match","Exact","5060 BLUEBERRY LN, JUNEAU, AK, 99801",190962566,"R"
686787,"5060 BLUESTEM DR","COLORADO SPRINGS","CO",80917,38.8994627170001,-104.733590032,287,"5060 BLUESTEM DR, COLORADO SPRINGS, CO, 80917","Match","Exact","5060 BLUESTEM DR, COLORADO SPRINGS, CO, 80917",610706979,"L"
686788,"5060 BROADWAY","NEW YORK","NY",10034,40.8698908010001,-73.915814498,288,"5060 BROADWAY, NEW YORK, NY, 10034","Match","Exact","5060 BROADWAY, NEW YORK, NY, 10034",59658931,"R"
686789,"5060 BUTTERFIELD DR","WINSTON SALEM","NC",27105,36.1420830430001,-80.20635824,289,"5060 BUTTERFIELD DR, WINSTON SALEM, NC, 27105","Match","Exact","5060 BUTTERFIELD DR, WINSTON SALEM, NC, 27105",84612111,"R"
686790,"5060 BUTTERFIELD DRIVE","WINSTON SALEM","NC",27105,36.1420830430001,-80.20635824,290,"5060 BUTTERFIELD DRIVE, WINSTON SALEM, NC, 27105","Match","Exact","5060 BUTTERFIELD DR, WINSTON SALEM, NC, 27105",84612111,"R"
686791,"5060 CHESTNUT HILLS ROAD","NEWARK","OH",43055,40.1267307430001,-82.444349662,291,"5060 CHESTNUT HILLS ROAD, NEWARK, OH, 43055","Match","Exact","5060 CHESTNUT HILLS RD, NEWARK, OH, 43055",61554856,"L"
686792,"5060 DOGWOOD TRAIL","EIGHT MILE","AL",36613,30.797333865,-88.1587316979999,292,"5060 DOGWOOD TRAIL, EIGHT MILE, AL, 36613","Match","Exact","5060 DOGWOOD TRL, EIGHT MILE, AL, 36613",61925627,"R"
686793,"5060 DUPONT PARKWAY","SMYRNA","DE",19977,39.3436234920001,-75.636397002,293,"5060 DUPONT PARKWAY, SMYRNA, DE, 19977","Match","Non_Exact","5060 S DUPONT PKWY, SMYRNA, DE, 19977",187250123,"R"
686794,"5060 E 62ND STREET SUITE 148","INDIANAPOLIS","IN",46220,39.8686913710001,-86.0837974089999,294,"5060 E 62ND STREET SUITE 148, INDIANAPOLIS, IN, 46220","Match","Non_Exact","5060 E 62ND ST, INDIANAPOLIS, IN, 46220",108052361,"L"
686795,"5060 FIELDS POND COVE","MARIETTA","NE",68164,NA,NA,295,"5060 FIELDS POND COVE, MARIETTA, NE, 68164","No_Match",NA,NA,NA,NA
686796,"5060 GRIFFIN LANE","MEDFORD","OR",97501,42.261835686,-122.923770529,296,"5060 GRIFFIN LANE, MEDFORD, OR, 97501","Match","Exact","5060 GRIFFIN LN, MEDFORD, OR, 97501",155574001,"L"
686797,"5060 HILLS AND DALES ROAD NW","CANTON","OH",44708,40.833563795,-81.4421123929999,297,"5060 HILLS AND DALES ROAD NW, CANTON, OH, 44708","Match","Exact","5060 HILLS AND DALES RD NW, CANTON, OH, 44708",64698029,"L"
686798,"5060 HWY 62 WEST","EUREKA SPRINGS","AP",72632,NA,NA,298,"5060 HWY 62 WEST, EUREKA SPRINGS, AP, 72632","No_Match",NA,NA,NA,NA
686799,"5060 JENKINS ROAD","VERNON","NY",13476,43.1056465930001,-75.481921577,299,"5060 JENKINS ROAD, VERNON, NY, 13476","Match","Exact","5060 JENKINS RD, VERNON, NY, 13476",171523244,"R"
686800,"5060 MEMORIAL DRIVE STE A","STONE MOUNTAIN","GA",30083,33.7934272420001,-84.2276592059999,300,"5060 MEMORIAL DRIVE STE A, STONE MOUNTAIN, GA, 30083","Match","Exact","5060 MEMORIAL DR, STONE MOUNTAIN, GA, 30083",642648726,"L"
686801,"5060 MT VIEW AVE","SAN BERNARDINO","CA",92407,34.1752621580001,-117.28728944,301,"5060 MT VIEW AVE, SAN BERNARDINO, CA, 92407","Match","Non_Exact","5060 N MOUNTAIN VIEW AVE, SAN BERNARDINO, CA, 92407",144653578,"L"
686802,"5060 N 64TH STREET","MILWAUKEE","WI",53218,43.1095699310001,-87.9912878329999,302,"5060 N 64TH STREET, MILWAUKEE, WI, 53218","Match","Exact","5060 N 64TH ST, MILWAUKEE, WI, 53218",77730476,"R"
686803,"5060 N LAURALWOOD ST","HEBER CITY","UT",84032,NA,NA,303,"5060 N LAURALWOOD ST, HEBER CITY, UT, 84032","No_Match",NA,NA,NA,NA
686804,"5060 N MARINE DR E-7","CHICAGO","IL",60640,NA,NA,304,"5060 N MARINE DR E-7, CHICAGO, IL, 60640","No_Match",NA,NA,NA,NA
686805,"5060 N MARINE DR E7","CHICAGO","IL",60640,41.974720807,-87.651515483,305,"5060 N MARINE DR E7, CHICAGO, IL, 60640","Match","Non_Exact","5060 N MARINE DR, CHICAGO, IL, 60640",111766423,"L"
686806,"5060 NW 112TH CT","MIAMI","FL",33178,25.8198201820001,-80.378300773,306,"5060 NW 112TH CT, MIAMI, FL, 33178","Match","Exact","5060 NW 112TH CT, MIAMI, FL, 33178",116078816,"L"
686807,"5060 OLD OAK TRCE","ROSWELL","GA",30075,34.0280612110001,-84.375609332,307,"5060 OLD OAK TRCE, ROSWELL, GA, 30075","Match","Exact","5060 OLD OAK TRCE, ROSWELL, GA, 30075",17384280,"R"
686808,"5060 PATRICK CIR","EAST LANSING","MI",48842,42.632605567,-84.5451621399999,308,"5060 PATRICK CIR, EAST LANSING, MI, 48842","Match","Non_Exact","5060 PATRICK CIR, HOLT, MI, 48842",17515406,"L"
686809,"5060 POPLAR VIEW LANE APT 2","GRANITE FALLS","NC",28630,35.816474451,-81.384962652,309,"5060 POPLAR VIEW LANE APT 2, GRANITE FALLS, NC, 28630","Match","Exact","5060 POPLAR VIEW LN, GRANITE FALLS, NC, 28630",45875378,"L"
686810,"5060 QUITMAN","DENVER","CO",80212,39.7885133710001,-105.040411673,310,"5060 QUITMAN, DENVER, CO, 80212","Match","Non_Exact","5060 QUITMAN ST, DENVER, CO, 80212",177298385,"R"
686811,"5060 REFUGEE ROAD","COLUMBUS","OH",43232,39.9214570400001,-82.855652112,311,"5060 REFUGEE ROAD, COLUMBUS, OH, 43232","Match","Exact","5060 REFUGEE RD, COLUMBUS, OH, 43232",135613677,"L"
686812,"5060 RHINE WINE DR","SPARKS","NV",89436,39.5842062190001,-119.721290093,312,"5060 RHINE WINE DR, SPARKS, NV, 89436","Match","Exact","5060 RHINE WINE DR, SPARKS, NV, 89436",640022743,"R"
686813,"5060 S CONWAY ROAD","BELLE ISLE","FL",32812,28.481855468,-81.330887783,313,"5060 S CONWAY ROAD, BELLE ISLE, FL, 32812","Match","Exact","5060 S CONWAY RD, BELLE ISLE, FL, 32812",647504911,"R"
686814,"5060 S HILLCREST LANE","VERADALE","WA",99037,47.607998905,-117.20413003,314,"5060 S HILLCREST LANE, VERADALE, WA, 99037","Match","Exact","5060 S HILLCREST LN, VERADALE, WA, 99037",635492046,"L"
686815,"5060 SAGEWOOD DRIVE","RANCHO CUCAMONGA","CA",91739,NA,NA,315,"5060 SAGEWOOD DRIVE, RANCHO CUCAMONGA, CA, 91739","No_Match",NA,NA,NA,NA
686816,"5060 SANDBURG DRIVE","SACRAMENTO","CA",95819,NA,NA,316,"5060 SANDBURG DRIVE, SACRAMENTO, CA, 95819","No_Match",NA,NA,NA,NA
686817,"5060 SAPHIRE COURT","DOUGLASVILLE","GA",30135,33.7284776760001,-84.703978916,317,"5060 SAPHIRE COURT, DOUGLASVILLE, GA, 30135","Match","Exact","5060 SAPHIRE CT, DOUGLASVILLE, GA, 30135",618477298,"L"
686818,"5060 SMOKEY RD","ATHENS","GA",30601,34.0268982650001,-83.3558381939999,318,"5060 SMOKEY RD, ATHENS, GA, 30601","Match","Exact","5060 SMOKEY RD, ATHENS, GA, 30601",4800010,"R"
686819,"5060 ST RT 729 N","SABINA","OH",45169,39.4373616770001,-83.6204828159999,319,"5060 ST RT 729 N, SABINA, OH, 45169","Match","Non_Exact","5060 STATE RTE 729, SABINA, OH, 45169",146841297,"L"
686820,"5060 STRAWBRIDGE TERRACE","PERRY HALL","MD",21128,39.4065687120001,-76.4434245749999,320,"5060 STRAWBRIDGE TERRACE, PERRY HALL, MD, 21128","Match","Exact","5060 STRAWBRIDGE TER, PERRY HALL, MD, 21128",628165843,"L"
686821,"5060 SW 8 STREET","MARGATE","FL",33068,26.21977731,-80.1960854179999,321,"5060 SW 8 STREET, MARGATE, FL, 33068","Match","Exact","5060 SW 8TH ST, MARGATE, FL, 33068",114803452,"R"
686822,"5060 THALIA DR","EL DORADO HILLS","CA",95762,38.6938438290001,-121.104029987,322,"5060 THALIA DR, EL DORADO HILLS, CA, 95762","Match","Exact","5060 THALIA DR, EL DORADO HILLS, CA, 95762",607157819,"R"
686823,"5060 THOROUGHBRED LANE","SOUTHWEST RANCHES","FL",33330,26.0559541390001,-80.3418123499999,323,"5060 THOROUGHBRED LANE, SOUTHWEST RANCHES, FL, 33330","Match","Exact","5060 THOROUGHBRED LN, SOUTHWEST RANCHES, FL, 33330",114699118,"L"
686824,"5060 TURNBERRY LANE","COLUMBUS","GA",31909,32.5716250880001,-84.9217120289999,324,"5060 TURNBERRY LANE, COLUMBUS, GA, 31909","Match","Exact","5060 TURNBERRY LN, COLUMBUS, GA, 31909",627636352,"L"
686825,"5060 W PORT","EUGENE","OR",97402,44.0835494510001,-123.185359685,325,"5060 W PORT, EUGENE, OR, 97402","Match","Non_Exact","5060 W PORT ST, EUGENE, OR, 97402",178163602,"R"
686826,"5060 WHISTLING WIND AVE","KISSIMMEE","FL",34758,28.232488415,-81.4851783459999,326,"5060 WHISTLING WIND AVE, KISSIMMEE, FL, 34758","Match","Exact","5060 WHISTLING WIND AVE, KISSIMMEE, FL, 34758",650144284,"R"
686827,"5060 WHYTEHOUSE LANE","NEW ALBANY","OH",43054,40.0591809520001,-82.8342385289999,327,"5060 WHYTEHOUSE LANE, NEW ALBANY, OH, 43054","Match","Non_Exact","5060 WHYTE HOUSE LN, NEW ALBANY, OH, 43054",218659725,"R"
686828,"50600 E 110 ROAD","MIAMI","OK",74354,36.859207901,-94.972582384,328,"50600 E 110 ROAD, MIAMI, OK, 74354","Match","Exact","50600 E 110 RD, MIAMI, OK, 74354",612018769,"R"
686829,"50600 KOSS DR","MACOMB","MI",48044,42.671526359,-82.923433126,329,"50600 KOSS DR, MACOMB, MI, 48044","Match","Exact","50600 KOSS DR, MACOMB, MI, 48044",617098179,"L"
686830,"50604 COUNTY ROAD S","BURLINGTON","CO",80807,NA,NA,330,"50604 COUNTY ROAD S, BURLINGTON, CO, 80807","No_Match",NA,NA,NA,NA
686831,"50608 BROOK ROAD","ATHENA","OR",97813,NA,NA,331,"50608 BROOK ROAD, ATHENA, OR, 97813","No_Match",NA,NA,NA,NA
686832,"5061 BERKELEY AVE","WESTMINSTER","CA",92683,33.7648566330001,-118.041231297,332,"5061 BERKELEY AVE, WESTMINSTER, CA, 92683","Match","Exact","5061 BERKELEY AVE, WESTMINSTER, CA, 92683",144003827,"L"
686833,"5061 DODSON LANE","SACRAMENTO","CA",95835,38.6649633150001,-121.543174712,333,"5061 DODSON LANE, SACRAMENTO, CA, 95835","Match","Exact","5061 DODSON LN, SACRAMENTO, CA, 95835",133408469,"L"
686834,"5061 E 1000 S","LYNN","IN",47355,40.020984453,-84.8850250249999,334,"5061 E 1000 S, LYNN, IN, 47355","Match","Exact","5061 E 1000 S, LYNN, IN, 47355",31221039,"L"
686835,"5061 EAGLETON WY","GRANITE BAY","CA",95746,38.7265954710001,-121.223932273,335,"5061 EAGLETON WY, GRANITE BAY, CA, 95746","Match","Exact","5061 EAGLETON WAY, GRANITE BAY, CA, 95746",608088521,"L"
686836,"5061 HIDDEN BRANCHES DR","DUNWOODY","GA",30338,33.94532272,-84.343315342,336,"5061 HIDDEN BRANCHES DR, DUNWOODY, GA, 30338","Match","Exact","5061 HIDDEN BRANCHES DR, DUNWOODY, GA, 30338",23355845,"R"
686837,"5061 INDIGO BAY BLVD APT 202","ESTERO","FL",33928,26.432848058,-81.8393133929999,337,"5061 INDIGO BAY BLVD APT 202, ESTERO, FL, 33928","Match","Exact","5061 INDIGO BAY BLVD, ESTERO, FL, 33928",118084780,"R"
686838,"5061 IRVINE DRIVE","DOUGLASVILLE","GA",30135,33.72772998,-84.704704292,338,"5061 IRVINE DRIVE, DOUGLASVILLE, GA, 30135","Match","Exact","5061 IRVINE DR, DOUGLASVILLE, GA, 30135",618477294,"R"
686839,"5061 JOHNSTON ROAD","MCDONALD","NV",37353,NA,NA,339,"5061 JOHNSTON ROAD, MCDONALD, NV, 37353","No_Match",NA,NA,NA,NA
686840,"5061 KESTER AVE APT 114","SHERMAN OAKS","CA",91403,34.1625419540001,-118.457434606,340,"5061 KESTER AVE APT 114, SHERMAN OAKS, CA, 91403","Match","Exact","5061 KESTER AVE, SHERMAN OAKS, CA, 91403",141560864,"L"
686841,"5061 KING RUSTY LANE","WINSTON-SALEM","NC",27106,36.1180153710001,-80.3625575889999,341,"5061 KING RUSTY LANE, WINSTON-SALEM, NC, 27106","Match","Exact","5061 KING RUSTY LN, WINSTON SALEM, NC, 27106",650210002,"R"
686842,"5061 KNOLLWOOD PL","TAMPA","FL",33617,28.011643414,-82.4011781629999,342,"5061 KNOLLWOOD PL, TAMPA, FL, 33617","Match","Exact","5061 KNOLLWOOD PL, TAMPA, FL, 33617",104555543,"R"
686843,"5061 LINDLEY AVE","TARZANA","CA",91356,34.161197976,-118.527226259,343,"5061 LINDLEY AVE, TARZANA, CA, 91356","Match","Exact","5061 LINDLEY AVE, TARZANA, CA, 91356",141555920,"L"
686844,"5061 MILTON ST","SAN DIEGO","CA",92110,32.7828106470001,-117.189896158,344,"5061 MILTON ST, SAN DIEGO, CA, 92110","Match","Exact","5061 MILTON ST, SAN DIEGO, CA, 92110",195734506,"R"
686845,"5061 MYERDALE DRIVE","CINCINNATI","OH",45242,39.2429831910001,-84.3741146629999,345,"5061 MYERDALE DRIVE, CINCINNATI, OH, 45242","Match","Exact","5061 MYERDALE DR, CINCINNATI, OH, 45242",103938284,"R"
686846,"5061 N 30TH STREET","COLORADO SPRINGS","CO",80919,38.90326744,-104.866088204,346,"5061 N 30TH STREET, COLORADO SPRINGS, CO, 80919","Match","Exact","5061 N 30TH ST, COLORADO SPRINGS, CO, 80919",105528854,"R"
686847,"5061 N BERNARD ST","CHICAGO","IL",60625,41.9735180170001,-87.714719795,347,"5061 N BERNARD ST, CHICAGO, IL, 60625","Match","Exact","5061 N BERNARD ST, CHICAGO, IL, 60625",605184203,"R"
686848,"5061 NORTH CLAREMONT","CHICAGO","IL",60625,41.973866796,-87.687866551,348,"5061 NORTH CLAREMONT, CHICAGO, IL, 60625","Match","Non_Exact","5061 N CLAREMONT AVE, CHICAGO, IL, 60625",605185279,"R"
686849,"5061 NW 13TH AVE STE H","POMPANO BEACH","FL",33064,26.294279509,-80.1421268989999,349,"5061 NW 13TH AVE STE H, POMPANO BEACH, FL, 33064","Match","Non_Exact","5061 NW 13 AVE, POMPANO BEACH, FL, 33064",652718791,"L"
686850,"5061 NW HEMLOCK AVENUE","REDMOND","OR",97756,44.2838606770001,-121.228668039,350,"5061 NW HEMLOCK AVENUE, REDMOND, OR, 97756","Match","Exact","5061 NW HEMLOCK AVE, REDMOND, OR, 97756",639946559,"L"
686851,"5061 RIDGE RD","LOCKPORT","NY",14094,43.2138837740001,-78.767735804,351,"5061 RIDGE RD, LOCKPORT, NY, 14094","Match","Exact","5061 RIDGE RD, LOCKPORT, NY, 14094",48695331,"L"
686852,"5061 S 135TH STREET - 5409","OMAHA","NE",68137,41.2066253620001,-96.121249096,352,"5061 S 135TH STREET - 5409, OMAHA, NE, 68137","Match","Non_Exact","5061 S 135TH ST, OMAHA, NE, 68137",116971588,"L"
686853,"5061 S RED PADGETT RD","PERRY","FL",32348,30.054629216,-83.5158489679999,353,"5061 S RED PADGETT RD, PERRY, FL, 32348","Match","Exact","5061 S RED PADGETT RD, PERRY, FL, 32348",610765300,"L"
686854,"5061 SANDALWOOD DRIVE","FALLON","NV",89406,39.477565527,-118.858359581,354,"5061 SANDALWOOD DRIVE, FALLON, NV, 89406","Match","Exact","5061 SANDALWOOD DR, FALLON, NV, 89406",139979178,"R"
686855,"5061 SAPHIRE CT","DOUGLASVILLE","GA",30135,33.7284667120001,-84.70397904,355,"5061 SAPHIRE CT, DOUGLASVILLE, GA, 30135","Match","Exact","5061 SAPHIRE CT, DOUGLASVILLE, GA, 30135",618477298,"R"
686856,"5061 SW 153 TERRACE","DAVIE","FL",33331,26.057882953,-80.3518982049999,356,"5061 SW 153 TERRACE, DAVIE, FL, 33331","Match","Exact","5061 SW 153RD TER, DAVIE, FL, 33331",114777348,"R"
686857,"5061 TREMONT AVENUE","EGG HARBOR TOWNSHIP","NJ",8234,39.392379546,-74.6164284239999,357,"5061 TREMONT AVENUE, EGG HARBOR TOWNSHIP, NJ, 8234","Match","Exact","5061 TREMONT AVE, EGG HARBOR TOWNSHIP, NJ, 08234",202539724,"R"
686858,"5061 WELLFLEET DRIVE","TROTWOOD","OH",45426,39.8286728100001,-84.289339693,358,"5061 WELLFLEET DRIVE, TROTWOOD, OH, 45426","Match","Exact","5061 WELLFLEET DR, TROTWOOD, OH, 45426",143562517,"R"
686859,"5061 WHATLEY ST","BIRMINGHAM","AL",35228,33.448641476,-86.917828272,359,"5061 WHATLEY ST, BIRMINGHAM, AL, 35228","Match","Exact","5061 WHATLEY ST, BIRMINGHAM, AL, 35228",81556619,"L"
686860,"5061 WRANGLER DRIVE","WINSTON-SALEM","NC",27101,36.136390733,-80.14222539,360,"5061 WRANGLER DRIVE, WINSTON-SALEM, NC, 27101","Match","Exact","5061 WRANGLER DR, WINSTON SALEM, NC, 27101",84616223,"R"
686861,"50612 SR 145","MALAGA","OH",43757,NA,NA,361,"50612 SR 145, MALAGA, OH, 43757","No_Match",NA,NA,NA,NA
686862,"50614 JACOBSBURG KEY RD","JACOBSBURG","OH",43933,39.9742265360001,-80.8822569279999,362,"50614 JACOBSBURG KEY RD, JACOBSBURG, OH, 43933","Match","Exact","50614 JACOBSBURG KEY RD, JACOBSBURG, OH, 43933",641788142,"R"
686863,"50616 SIX MILE RD","SEARS","MI",49346,NA,NA,363,"50616 SIX MILE RD, SEARS, MI, 49346","No_Match",NA,NA,NA,NA
686864,"5062 AMESTOY AVENUE","ENCINO","CA",91316,34.1620276620001,-118.505434889,364,"5062 AMESTOY AVENUE, ENCINO, CA, 91316","Match","Exact","5062 AMESTOY AVE, ENCINO, CA, 91316",141556176,"R"
686865,"5062 BEAR PAW DRIVE","CASTLE ROCK","CO",80109,39.4016680410001,-104.916017977,365,"5062 BEAR PAW DRIVE, CASTLE ROCK, CO, 80109","Match","Exact","5062 BEAR PAW DR, CASTLE ROCK, CO, 80109",130821580,"L"
686866,"5062 CONSTITUTION LANE","LIVERPOOL","NY",13088,43.1064687640001,-76.163463438,366,"5062 CONSTITUTION LANE, LIVERPOOL, NY, 13088","Match","Exact","5062 CONSTITUTION LN, LIVERPOOL, NY, 13088",637613561,"L"
686867,"5062 DOVER","SPRINGDALE","AR",72764,36.13951552,-94.1489472659999,367,"5062 DOVER, SPRINGDALE, AR, 72764","Match","Non_Exact","5062 DOVER ST, SPRINGDALE, AR, 72764",49068042,"R"
686868,"5062 DUESSEL LANE APT C","SAINT LOUIS","MO",63128,38.484560835,-90.383690148,368,"5062 DUESSEL LANE APT C, SAINT LOUIS, MO, 63128","Match","Exact","5062 DUESSEL LN, SAINT LOUIS, MO, 63128",100169550,"R"
686869,"5062 FALLING SPRINGS ROAD","VALDOSTA","GA",31602,30.9241256330001,-83.363611787,369,"5062 FALLING SPRINGS ROAD, VALDOSTA, GA, 31602","Match","Exact","5062 FALLING SPRINGS RD, VALDOSTA, GA, 31602",628067767,"L"
686870,"5062 FOUNTAIN LANE N","PLYMOUTH","MN",55446,45.046205537,-93.495336406,370,"5062 FOUNTAIN LANE N, PLYMOUTH, MN, 55446","Match","Exact","5062 FOUNTAIN LN N, PLYMOUTH, MN, 55446",631740340,"R"
686871,"5062 G STREET","WASHINGTON","DC",20019,38.880579438,-76.930442337,371,"5062 G STREET, WASHINGTON, DC, 20019","Match","Non_Exact","5062 G ST SE, WASHINGTON, DC, 20019",635724075,"L"
686872,"5062 LA LUNA","LA PALMA","CA",90623,33.8432971870001,-118.044744472,372,"5062 LA LUNA, LA PALMA, CA, 90623","Match","Non_Exact","5062 LA LUNA DR, LA PALMA, CA, 90623",143998255,"R"
686873,"5062 LACROSSE LN","MADISON","WI",53705,NA,NA,373,"5062 LACROSSE LN, MADISON, WI, 53705","No_Match",NA,NA,NA,NA
686874,"5062 LANKERSHIM BLVD 2042","NORTH HOLLYWOOD","CA",91601,34.1624484170001,-118.373140648,374,"5062 LANKERSHIM BLVD 2042, NORTH HOLLYWOOD, CA, 91601","Match","Exact","5062 LANKERSHIM BLVD, N HOLLYWOOD, CA, 91601",141591766,"R"
686875,"5062 LANKERSHIM BLVD STE 204","NORTH HOLLYWOOD","CA",91601,34.1624484170001,-118.373140648,375,"5062 LANKERSHIM BLVD STE 204, NORTH HOLLYWOOD, CA, 91601","Match","Exact","5062 LANKERSHIM BLVD, N HOLLYWOOD, CA, 91601",141591766,"R"
686876,"5062 LANKERSHIM BLVD","NORTH HOLLYWOOD","CA",91601,34.1624484170001,-118.373140648,376,"5062 LANKERSHIM BLVD, NORTH HOLLYWOOD, CA, 91601","Match","Exact","5062 LANKERSHIM BLVD, N HOLLYWOOD, CA, 91601",141591766,"R"
686877,"5062 LAUREL BRIDGE DRIVE","SMYRNA","GA",30082,33.8417244570001,-84.512080064,377,"5062 LAUREL BRIDGE DRIVE, SMYRNA, GA, 30082","Match","Non_Exact","5062 LAUREL BRIDGE DR SE, SMYRNA, GA, 30082",17267494,"R"
686878,"5062 LINCOLN AVE","PORTAGE","IN",46368,41.5987433770001,-87.220028424,378,"5062 LINCOLN AVE, PORTAGE, IN, 46368","Match","Exact","5062 LINCOLN AVE, PORTAGE, IN, 46368",119907849,"R"
686879,"5062 MACADAMIA LANE","HONOLULU","HI",96818,21.359823007,-157.920795968,379,"5062 MACADAMIA LANE, HONOLULU, HI, 96818","Match","Non_Exact","5062 MACADAMIA PL, HONOLULU, HI, 96818",203231687,"R"
686880,"5062 MANCHESTER DR","OMAHA","NE",68152,41.3600805730001,-95.991003327,380,"5062 MANCHESTER DR, OMAHA, NE, 68152","Match","Exact","5062 MANCHESTER DR, OMAHA, NE, 68152",116976631,"R"
686881,"5062 MEADOWVIEW LANE","OCONTO FALLS","WI",54154,44.8568337390001,-88.1506285409999,381,"5062 MEADOWVIEW LANE, OCONTO FALLS, WI, 54154","Match","Exact","5062 MEADOWVIEW LN, OCONTO FALLS, WI, 54154",170331764,"L"
686882,"5062 N 51ST BLVD","MILWAUKEE","WI",53218,43.1095856650001,-87.9763404,382,"5062 N 51ST BLVD, MILWAUKEE, WI, 53218","Match","Exact","5062 N 51ST BLVD, MILWAUKEE, WI, 53218",77726825,"R"
686883,"5062 N BEAR CT","APACHE JUNCTION","AZ",85120,33.4609111570001,-111.551545819,383,"5062 N BEAR CT, APACHE JUNCTION, AZ, 85120","Match","Exact","5062 BEAR CT, APACHE JUNCTION, AZ, 85120",129241488,"L"
686884,"5062 RIDGE AVE","EGG HARBOR TWP","NJ",8234,NA,NA,384,"5062 RIDGE AVE, EGG HARBOR TWP, NJ, 8234","No_Match",NA,NA,NA,NA
686885,"5062 ROCKROSE COURT - STE 4","ROSCOE","IL",61073,42.4308647650001,-89.017730504,385,"5062 ROCKROSE COURT - STE 4, ROSCOE, IL, 61073","Match","Exact","5062 ROCKROSE CT, ROSCOE, IL, 61073",49287681,"L"
686886,"5062 ROCKROSE COURT SUITE 61","ROSCOE","IL",61073,42.4308647650001,-89.017730504,386,"5062 ROCKROSE COURT SUITE 61, ROSCOE, IL, 61073","Match","Exact","5062 ROCKROSE CT, ROSCOE, IL, 61073",49287681,"L"
686887,"5062 S 2200 W","TAYLORSVILLE","UT",84129,NA,NA,387,"5062 S 2200 W, TAYLORSVILLE, UT, 84129","Tie",NA,NA,NA,NA
686888,"5062 SAFFORD ROAD","ROCKFORD","IL",61101,42.302725509,-89.137353549,388,"5062 SAFFORD ROAD, ROCKFORD, IL, 61101","Match","Exact","5062 SAFFORD RD, ROCKFORD, IL, 61101",640471443,"L"
686889,"5062 SURFSIDE CIRCLE","BRADENTON","FL",34211,NA,NA,389,"5062 SURFSIDE CIRCLE, BRADENTON, FL, 34211","No_Match",NA,NA,NA,NA
686890,"5062 TABITHA ST","MURFREESBORO","TN",37129,35.891892033,-86.476670688,390,"5062 TABITHA ST, MURFREESBORO, TN, 37129","Match","Exact","5062 TABITHA ST, MURFREESBORO, TN, 37129",606764611,"R"
686891,"5062 UPTON COURT","AURORA","CO",80239,39.7893274040001,-104.83699215,391,"5062 UPTON COURT, AURORA, CO, 80239","Match","Non_Exact","5062 UPTON CT, DENVER, CO, 80239",177349979,"R"
686892,"5062 W TENAYA AVE","FRESNO","CA",93722,36.829172541,-119.882027085,392,"5062 W TENAYA AVE, FRESNO, CA, 93722","Match","Exact","5062 W TENAYA AVE, FRESNO, CA, 93722",197615476,"R"
686893,"5062 WEST ELM CT","GRAND FORKS","ND",58203,47.9194990550001,-97.100329576,393,"5062 WEST ELM CT, GRAND FORKS, ND, 58203","Match","Exact","5062 W ELM CT, GRAND FORKS, ND, 58203",171289882,"R"
686894,"5062 WESTMINSTER PL","SAINT LOUIS","MO",63108,38.6496046780001,-90.265980079,394,"5062 WESTMINSTER PL, SAINT LOUIS, MO, 63108","Match","Exact","5062 WESTMINSTER PL, SAINT LOUIS, MO, 63108",107594209,"L"
686895,"5062 WINONA AVE","ST LOUIS","MO",63109,38.590679073,-90.277864832,395,"5062 WINONA AVE, ST LOUIS, MO, 63109","Match","Exact","5062 WINONA AVE, SAINT LOUIS, MO, 63109",107599761,"L"
686896,"5062 WOODCREST DR","YORBA LINDA","CA",92886,33.887597617,-117.822751634,396,"5062 WOODCREST DR, YORBA LINDA, CA, 92886","Match","Exact","5062 WOODCREST DR, YORBA LINDA, CA, 92886",609051011,"L"
686897,"5063 BROUGHTON","DAYTON","OH",45431,39.7803568680001,-84.1234762509999,397,"5063 BROUGHTON, DAYTON, OH, 45431","Match","Non_Exact","5063 BROUGHTON PL, DAYTON, OH, 45431",143587213,"L"
686898,"5063 CANTEBURY COURT","CENTER POINT","AL",35215,33.6510532980001,-86.6678717029999,398,"5063 CANTEBURY COURT, CENTER POINT, AL, 35215","Match","Exact","5063 CANTEBURY CT, CENTER POINT, AL, 35215",81703880,"R"
686899,"5063 CONSEAR RD","OTTAWA LAKE","MI",49267,41.7700756740001,-83.6656399679999,399,"5063 CONSEAR RD, OTTAWA LAKE, MI, 49267","Match","Exact","5063 CONSEAR RD, OTTAWA LAKE, MI, 49267",40483421,"R"
686900,"5063 E OUTER DR APT F 108","DETROIT","MI",48234,42.4388703870001,-83.0162380479999,400,"5063 E OUTER DR APT F 108, DETROIT, MI, 48234","Match","Non_Exact","5063 E OUTER DR, DETROIT, MI, 48234",95720923,"L"
686901,"5063 EAST AVENUE R11","PAL","CA",93552,NA,NA,401,"5063 EAST AVENUE R11, PAL, CA, 93552","No_Match",NA,NA,NA,NA
686902,"5063 EAST AVENUE R11","PALMDALE","CA",93552,NA,NA,402,"5063 EAST AVENUE R11, PALMDALE, CA, 93552","No_Match",NA,NA,NA,NA
686903,"5063 ELMHURST AVE","ROYAL OAK","MI",48073,42.5365335010001,-83.1721268649999,403,"5063 ELMHURST AVE, ROYAL OAK, MI, 48073","Match","Exact","5063 ELMHURST AVE, ROYAL OAK, MI, 48073",69778457,"L"
686904,"5063 ELMHURST","ROYAL OAK","MI",48073,42.5365335010001,-83.1721268649999,404,"5063 ELMHURST, ROYAL OAK, MI, 48073","Match","Non_Exact","5063 ELMHURST AVE, ROYAL OAK, MI, 48073",69778457,"L"
686905,"5063 FOX FOREST CIRCLE SW","LIBBURN","GA",30047,33.8424210430001,-84.113876879,405,"5063 FOX FOREST CIRCLE SW, LIBBURN, GA, 30047","Match","Non_Exact","5063 FOX FOREST CIR SW, LILBURN, GA, 30047",88887840,"R"
686906,"5063 GULL ROAD","MEMHIS","TN",38109,35.010258908,-90.123488451,406,"5063 GULL ROAD, MEMHIS, TN, 38109","Match","Non_Exact","5063 GULL RD, MEMPHIS, TN, 38109",72896806,"R"
686907,"5063 HAMPTON RIDGE AVENUE","TALLAHASSEE","FL",32311,30.42439283,-84.181867503,407,"5063 HAMPTON RIDGE AVENUE, TALLAHASSEE, FL, 32311","Match","Exact","5063 HAMPTON RIDGE AVE, TALLAHASSEE, FL, 32311",618816696,"R"
686908,"5063 KIMI GRAY CT SE","WASHINGTON","DC",20019,38.88245026,-76.930121146,408,"5063 KIMI GRAY CT SE, WASHINGTON, DC, 20019","Match","Exact","5063 KIMI GRAY CT SE, WASHINGTON, DC, 20019",76233892,"R"
686909,"5063 LAKE FOREST DR SE","CONYERS","GA",30094,33.553745195,-84.028139283,409,"5063 LAKE FOREST DR SE, CONYERS, GA, 30094","Match","Exact","5063 LAKE FOREST DR SE, CONYERS, GA, 30094",23738681,"L"
686910,"5063 MARTIN ST","MIRA LOMA","CA",91752,33.9950844050001,-117.520034308,410,"5063 MARTIN ST, MIRA LOMA, CA, 91752","Match","Exact","5063 MARTIN ST, MIRA LOMA, CA, 91752",194735020,"R"
686911,"5063 MILLWOOD LANE NW","WASHINGTON","DC",20016,38.93374615,-77.101541974,411,"5063 MILLWOOD LANE NW, WASHINGTON, DC, 20016","Match","Exact","5063 MILLWOOD LN NW, WASHINGTON, DC, 20016",76219900,"R"
686912,"5063 N 19 STREET","MILWAUKEE","WI",53209,43.109425968,-87.9340020769999,412,"5063 N 19 STREET, MILWAUKEE, WI, 53209","Match","Exact","5063 N 19TH ST, MILWAUKEE, WI, 53209",77736160,"L"
686913,"5063 NOOR PARK CIR","DUBLIN","OH",43016,40.0642441100001,-83.1519012489999,413,"5063 NOOR PARK CIR, DUBLIN, OH, 43016","Match","Exact","5063 NOOR PARK CIR, DUBLIN, OH, 43016",218688157,"R"
686914,"5063 NW 61ST COURT","OCALA","FL",34482,29.2407341410001,-82.2210512,414,"5063 NW 61ST COURT, OCALA, FL, 34482","Match","Exact","5063 NW 61ST CT, OCALA, FL, 34482",116798502,"R"
686915,"5063 PEAR BUTTE DR","YAKIMA","WA",98901,46.609177763,-120.429833131,415,"5063 PEAR BUTTE DR, YAKIMA, WA, 98901","Match","Exact","5063 PEAR BUTTE DR, YAKIMA, WA, 98901",184959838,"L"
686916,"5063 S PINNACLE PLACE","CHANLDER","AZ",85249,33.232503454,-111.780629785,416,"5063 S PINNACLE PLACE, CHANLDER, AZ, 85249","Match","Non_Exact","5063 S PINNACLE PL, CHANDLER, AZ, 85249",244001473,"R"
686917,"5063 SOUTH ELKHART WAY UNIT B","AURORA","CO",80015,39.6249931900001,-104.816802026,417,"5063 SOUTH ELKHART WAY UNIT B, AURORA, CO, 80015","Match","Exact","5063 S ELKHART WAY, AURORA, CO, 80015",177522574,"L"
686918,"5063 VAN DYKE","DETROIT","MI",48213,42.37675318,-83.0131928449999,418,"5063 VAN DYKE, DETROIT, MI, 48213","Match","Exact","5063 VAN DYKE, DETROIT, MI, 48213",95483300,"L"
686919,"5063 YESTEROAKS PL","PENSACOLA","FL",32504,30.4793538500001,-87.183096958,419,"5063 YESTEROAKS PL, PENSACOLA, FL, 32504","Match","Exact","5063 YESTEROAKS PL, PENSACOLA, FL, 32504",93234584,"L"
686920,"50631 ELK TRAIL","GRANGER","IN",46530,41.7585385620001,-86.076827868,420,"50631 ELK TRAIL, GRANGER, IN, 46530","Match","Exact","50631 ELK TRL, GRANGER, IN, 46530",8071407,"L"
686921,"50638 CO 36","BEMIDJI","MN",56601,NA,NA,421,"50638 CO 36, BEMIDJI, MN, 56601","No_Match",NA,NA,NA,NA
686922,"5064 ALPEN LN","EGG HARBOR","WI",54209,45.0388871740001,-87.3086826689999,422,"5064 ALPEN LN, EGG HARBOR, WI, 54209","Match","Exact","5064 ALPEN LN, EGG HARBOR, WI, 54209",167268508,"L"
686923,"5064 BLAIR ROAD","SUMMERVILLE","NC",28205,NA,NA,423,"5064 BLAIR ROAD, SUMMERVILLE, NC, 28205","No_Match",NA,NA,NA,NA
686924,"5064 BRENNAN PLACE","IDAHO FALLS","ID",83406,43.4758994380001,-111.930133624,424,"5064 BRENNAN PLACE, IDAHO FALLS, ID, 83406","Match","Non_Exact","5064 BRENNAN PL, IDAHO FALLS, ID, 83401",119152330,"R"
686925,"5064 BROXBURN CT","DUBLIN","OH",43017,40.124821008,-83.126636661,425,"5064 BROXBURN CT, DUBLIN, OH, 43017","Match","Exact","5064 BROXBURN CT, DUBLIN, OH, 43017",135625659,"R"
686926,"5064 CUMBERLAND DRIVE","BATON ROUGE","LA",70817,NA,NA,426,"5064 CUMBERLAND DRIVE, BATON ROUGE, LA, 70817","No_Match",NA,NA,NA,NA
686927,"5064 GAYNOR AVE","ENCINO","CA",91436,34.1622622130001,-118.480340145,427,"5064 GAYNOR AVE, ENCINO, CA, 91436","Match","Exact","5064 GAYNOR AVE, ENCINO, CA, 91436",141556614,"R"
686928,"5064 INDIA LAKES DR","ACWORTH","GA",30102,34.0766794520001,-84.5590863039999,428,"5064 INDIA LAKES DR, ACWORTH, GA, 30102","Match","Non_Exact","5064 INDIA LAKE DR, ACWORTH, GA, 30102",68845188,"R"
686929,"5064 INDIAN HILLS","EDWARDSVILLE","IL",62025,38.8431105920001,-90.011624981,429,"5064 INDIAN HILLS, EDWARDSVILLE, IL, 62025","Match","Non_Exact","5064 INDIAN HILLS DR, EDWARDSVILLE, IL, 62025",107761028,"R"
686930,"5064 NW 66TH DR","CORAL SPRINGS","FL",33067,26.290905529,-80.217587486,430,"5064 NW 66TH DR, CORAL SPRINGS, FL, 33067","Match","Exact","5064 NW 66TH DR, CORAL SPRINGS, FL, 33067",114780514,"L"
686931,"5064 NW SCENIC DRIVE","ALBANY","OR",97321,44.6873790010001,-123.145339748,431,"5064 NW SCENIC DRIVE, ALBANY, OR, 97321","Match","Exact","5064 NW SCENIC DR, ALBANY, OR, 97321",155859475,"L"
686932,"5064 PONDSEDGE LANE","PRIOR LAKE","MN",55372,44.7001267690001,-93.418478941,432,"5064 PONDSEDGE LANE, PRIOR LAKE, MN, 55372","Match","Non_Exact","5064 PONDS EDGE LN, PRIOR LAKE, MN, 55372",38156838,"R"
686933,"5064 ROSWELL ROAD C300","ATLANTA","GA",30342,33.8932895660001,-84.381202604,433,"5064 ROSWELL ROAD C300, ATLANTA, GA, 30342","Match","Exact","5064 ROSWELL RD, ATLANTA, GA, 30342",17334538,"L"
686934,"5064 S LINKS CIR","SUFFOLK","VA",23435,36.8708715230001,-76.4458200299999,434,"5064 S LINKS CIR, SUFFOLK, VA, 23435","Match","Exact","5064 S LINKS CIR, SUFFOLK, VA, 23435",122233314,"R"
686935,"5064 STEVENS FOREST ROAD","COLUMBIA","MD",21045,NA,NA,435,"5064 STEVENS FOREST ROAD, COLUMBIA, MD, 21045","No_Match",NA,NA,NA,NA
686936,"5064 TWINBROOK RUN DRIVE","FAIRFAX","VA",22032,38.8139200370001,-77.276919847,436,"5064 TWINBROOK RUN DRIVE, FAIRFAX, VA, 22032","Match","Exact","5064 TWINBROOK RUN DR, FAIRFAX, VA, 22032",619069045,"L"
686937,"5065  QUINCY ST","HUDSONVILLE","MI",49426,42.8404571510001,-85.906729748,437,"5065  QUINCY ST, HUDSONVILLE, MI, 49426","Match","Exact","5065 QUINCY ST, HUDSONVILLE, MI, 49426",71103572,"L"
686938,"5065 125TH AVE NE","DAHLEN","ND",58224,48.1453923610001,-97.937124572,438,"5065 125TH AVE NE, DAHLEN, ND, 58224","Match","Exact","5065 125TH AVE NE, DAHLEN, ND, 58224",171706946,"L"
686939,"5065 25TH AVE SW","SEATTLE","WA",98106,47.556706138,-122.3642726,439,"5065 25TH AVE SW, SEATTLE, WA, 98106","Match","Exact","5065 25TH AVE SW, SEATTLE, WA, 98106",186590890,"R"
686940,"5065 37TH ST N","ARLINGTON","VA",22207,38.9118602890001,-77.1434541469999,440,"5065 37TH ST N, ARLINGTON, VA, 22207","Match","Exact","5065 37TH ST N, ARLINGTON, VA, 22207",76479126,"R"
686941,"5065 BARBARA LN","MILTON","FL",32570,30.618891509,-87.065609726,441,"5065 BARBARA LN, MILTON, FL, 32570","Match","Exact","5065 BARBARA LN, MILTON, FL, 32570",74559796,"L"
686942,"5065 BOSUNS WAY UNIT A2","YPSILANTI","MI",48197,42.214549424,-83.5901106869999,442,"5065 BOSUNS WAY UNIT A2, YPSILANTI, MI, 48197","Match","Exact","5065 BOSUNS WAY, YPSILANTI, MI, 48197",26022037,"L"
686943,"5065 CAMINO DE ARENA","SIERRA VISTA","AZ",85635,NA,NA,443,"5065 CAMINO DE ARENA, SIERRA VISTA, AZ, 85635","No_Match",NA,NA,NA,NA
686944,"5065 CASCADE HILLS CIRCLE","ATLANTA","GA",30331,33.724578057,-84.561013325,444,"5065 CASCADE HILLS CIRCLE, ATLANTA, GA, 30331","Match","Non_Exact","5065 CASCADE HILLS CIR SW, ATLANTA, GA, 30331",643353184,"L"
686945,"5065 CLARICE DR","HAMBURG","NY",14075,42.7487009280001,-78.8282969369999,445,"5065 CLARICE DR, HAMBURG, NY, 14075","Match","Exact","5065 CLARICE DR, HAMBURG, NY, 14075",48309736,"L"
686946,"5065 CROFTON DRIVE","FORT MILL","SC",29715,34.952925755,-80.8943029119999,446,"5065 CROFTON DRIVE, FORT MILL, SC, 29715","Match","Exact","5065 CROFTON DR, FORT MILL, SC, 29715",19838500,"L"
686947,"5065 DARLINGTON","MEMPHIS","TN",38118,35.072659274,-89.894410562,447,"5065 DARLINGTON, MEMPHIS, TN, 38118","Match","Non_Exact","5065 DARLINGTON DR, MEMPHIS, TN, 38118",72927101,"R"
686948,"5065 E PASEO WAY","PHOENIX","AZ",85044,33.3632154430001,-111.972662695,448,"5065 E PASEO WAY, PHOENIX, AZ, 85044","Match","Exact","5065 E PASEO WAY, PHOENIX, AZ, 85044",642857880,"L"
686949,"5065 FAIRINGTON DR","EVANS","GA",30809,33.5205731670001,-82.1947402979999,449,"5065 FAIRINGTON DR, EVANS, GA, 30809","Match","Exact","5065 FAIRINGTON DR, EVANS, GA, 30809",653440749,"L"
686950,"5065 FRANKLIN CHURCH ROAD","SHILOH","OH",44878,40.8948331710001,-82.474480113,450,"5065 FRANKLIN CHURCH ROAD, SHILOH, OH, 44878","Match","Exact","5065 FRANKLIN CHURCH RD, SHILOH, OH, 44878",633561320,"L"
686951,"5065 HEKILI ROAD","KAPAA","HI",96746,22.091571624,-159.319572022,451,"5065 HEKILI ROAD, KAPAA, HI, 96746","Match","Exact","5065 HEKILI RD, KAPAA, HI, 96746",203401256,"R"
686952,"5065 HIGH POINT RD NE","ATLANTA","GA",30342,33.894210333,-84.367662083,452,"5065 HIGH POINT RD NE, ATLANTA, GA, 30342","Match","Exact","5065 HIGH POINT RD NE, ATLANTA, GA, 30342",17354864,"R"
686953,"5065 HUTCHINS STREET","WINSTON-SALEM","NC",27106,36.1666334980001,-80.3070867869999,453,"5065 HUTCHINS STREET, WINSTON-SALEM, NC, 27106","Match","Exact","5065 HUTCHINS ST, WINSTON SALEM, NC, 27106",84601527,"R"
686954,"5065 LOCKBOURNE RD","COLUMBUS","OH",43207,39.855033,-82.970723014,454,"5065 LOCKBOURNE RD, COLUMBUS, OH, 43207","Match","Exact","5065 LOCKBOURNE RD, COLUMBUS, OH, 43207",218640374,"R"
686955,"5065 PADDOCK ROAD","CINCINNATI","OH",45237,39.1803917840001,-84.477341451,455,"5065 PADDOCK ROAD, CINCINNATI, OH, 45237","Match","Exact","5065 PADDOCK RD, CINCINNATI, OH, 45237",103928566,"L"
686956,"5065 SILVER DRIVE","COLORADO SPRINGS","SC",80918,NA,NA,456,"5065 SILVER DRIVE, COLORADO SPRINGS, SC, 80918","No_Match",NA,NA,NA,NA
686957,"5065 SPRINGHOUSE CIRCLE","BALTIMORE","MD",21237,39.3642904480001,-76.478971311,457,"5065 SPRINGHOUSE CIRCLE, BALTIMORE, MD, 21237","Match","Exact","5065 SPRINGHOUSE CIR, BALTIMORE, MD, 21237",191506449,"L"
686958,"5065 STATE RTE 49","GREENVILLE","OH",45331,40.0647769990001,-84.61683541,458,"5065 STATE RTE 49, GREENVILLE, OH, 45331","Match","Exact","5065 STATE RTE 49, GREENVILLE, OH, 45331",54556841,"R"
686959,"5065 W VIEW PLACE","MERIDIAN","ID",83642,43.592407574,-116.456321939,459,"5065 W VIEW PLACE, MERIDIAN, ID, 83642","Match","Non_Exact","5065 W VIEW DR, MERIDIAN, ID, 83642",117854394,"R"
686960,"5065 WAYCROFT COURT","HILLIARD","OH",43026,40.0569853050001,-83.140539982,460,"5065 WAYCROFT COURT, HILLIARD, OH, 43026","Match","Exact","5065 WAYCROFT CT, HILLIARD, OH, 43026",135626556,"R"
686961,"5065 WESTHEIMER STE 1130","HOUSTON","TX",77056,29.7406722640001,-95.463133189,461,"5065 WESTHEIMER STE 1130, HOUSTON, TX, 77056","Match","Non_Exact","5065 WESTHEIMER RD, HOUSTON, TX, 77056",649110418,"L"
686962,"5065 WILL FALL LANE","ARLINGTON","TN",38002,35.2640614920001,-89.791361049,462,"5065 WILL FALL LANE, ARLINGTON, TN, 38002","Match","Exact","5065 WILL FALL LN, ARLINGTON, TN, 38002",635747157,"R"
686963,"5065 WILL FALL","ARLINGTON","TN",38002,35.2640614920001,-89.791361049,463,"5065 WILL FALL, ARLINGTON, TN, 38002","Match","Non_Exact","5065 WILL FALL LN, ARLINGTON, TN, 38002",635747157,"R"
686964,"5066 AREA 3 DANGAMVURA","HARARE",NA,NA,NA,NA,464,"5066 AREA 3 DANGAMVURA, HARARE, , ","No_Match",NA,NA,NA,NA
686965,"5066 BARRINGTON CIRCLE","SARASOTA","FL",34234,27.3768444740001,-82.551386295,465,"5066 BARRINGTON CIRCLE, SARASOTA, FL, 34234","Match","Exact","5066 BARRINGTON CIR, SARASOTA, FL, 34234",16428258,"R"
686966,"5066 BLACKHAWK DRIVE","BLACKHAWK","CA",94506,37.812255613,-121.913844225,466,"5066 BLACKHAWK DRIVE, BLACKHAWK, CA, 94506","Match","Exact","5066 BLACKHAWK DR, BLACKHAWK, CA, 94506",192066311,"R"
686967,"5066 BOONE TRAIL","HILLSBORO","MO",63050,38.2587443630001,-90.550507266,467,"5066 BOONE TRAIL, HILLSBORO, MO, 63050","Match","Exact","5066 BOONE TRL, HILLSBORO, MO, 63050",62795745,"L"
686968,"5066 DEERVIEW WOODS DRIVE","CLEVES","OH",45002,39.1868012580001,-84.7106969119999,468,"5066 DEERVIEW WOODS DRIVE, CLEVES, OH, 45002","Match","Exact","5066 DEERVIEW WOODS DR, CLEVES, OH, 45002",103957358,"L"
686969,"5066 EAST BUTLER ROAD","AVON PARK","FL",33825,27.624863571,-81.414061192,469,"5066 EAST BUTLER ROAD, AVON PARK, FL, 33825","Match","Exact","5066 E BUTLER RD, AVON PARK, FL, 33825",4629508,"L"
686970,"5066 FINCHBROOK DRIVE","COLUMBUS","IN",47201,39.151595188,-85.939999579,470,"5066 FINCHBROOK DRIVE, COLUMBUS, IN, 47201","Match","Exact","5066 FINCHBROOK DR, COLUMBUS, IN, 47201",30982555,"R"
686971,"5066 GAGE AVE","BELL","CA",90201,33.976725183,-118.174955971,471,"5066 GAGE AVE, BELL, CA, 90201","Match","Non_Exact","5066 E GAGE AVE, BELL, CA, 90201",141677066,"R"
686972,"5066 HUMBOLT COURT","RIVERSIDE","CA",92307,NA,NA,472,"5066 HUMBOLT COURT, RIVERSIDE, CA, 92307","No_Match",NA,NA,NA,NA
686973,"5066 JACOBS PILLAR RD","SMITHVILLE","TN",37166,35.88374944,-85.864732911,473,"5066 JACOBS PILLAR RD, SMITHVILLE, TN, 37166","Match","Exact","5066 JACOBS PILLAR RD, SMITHVILLE, TN, 37166",34196859,"L"
686974,"5066 LIBERTY HALL CIRCLE","WINSTON SALEM","NC",27106,36.1669209980001,-80.303039798,474,"5066 LIBERTY HALL CIRCLE, WINSTON SALEM, NC, 27106","Match","Exact","5066 LIBERTY HALL CIR, WINSTON SALEM, NC, 27106",634077044,"L"
686975,"5066 N 49TH STREET","MILAUKEE","WI",53210,43.1096038410001,-87.9738549369999,475,"5066 N 49TH STREET, MILAUKEE, WI, 53210","Match","Non_Exact","5066 N 49TH ST, MILWAUKEE, WI, 53218",77726926,"R"
686976,"5066 NW PICADILLY CIRCLE","ALBANY","OR",97321,44.687382674,-123.131146923,476,"5066 NW PICADILLY CIRCLE, ALBANY, OR, 97321","Match","Exact","5066 NW PICADILLY CIR, ALBANY, OR, 97321",155843189,"L"
686977,"5066 OWEN RD","LINDEN","MI",48451,42.7891903290001,-83.768425962,477,"5066 OWEN RD, LINDEN, MI, 48451","Match","Exact","5066 OWEN RD, LINDEN, MI, 48451",69558183,"R"
686978,"5066 PARK RIDGE PLACE","SEDRO WOOLLEY","WA",98284,48.571444178,-122.317058915,478,"5066 PARK RIDGE PLACE, SEDRO WOOLLEY, WA, 98284","Match","Exact","5066 PARK RIDGE PL, SEDRO WOOLLEY, WA, 98284",183672424,"L"
686979,"5066 RADNOR ST","DETROIT","MI",48224,42.410812219,-82.918965843,479,"5066 RADNOR ST, DETROIT, MI, 48224","Match","Exact","5066 RADNOR ST, DETROIT, MI, 48224",95487422,"R"
686980,"5066 ROLLING MEADOWS ROAD","ROLLING HILLS ESTATE","CA",90274,33.7936101120001,-118.367046336,480,"5066 ROLLING MEADOWS ROAD, ROLLING HILLS ESTATE, CA, 90274","Match","Non_Exact","5066 ROLLING MEADOWS RD, ROLLING HILLS, CA, 90274",624216949,"R"
686981,"5066 S CHARLESTON AVE","SPRINGFIELD","MO",65804,37.121637563,-93.264240377,481,"5066 S CHARLESTON AVE, SPRINGFIELD, MO, 65804","Match","Exact","5066 S CHARLESTON AVE, SPRINGFIELD, MO, 65804",76681188,"L"
686982,"5066 SE 44TH STREET","OKEECHOBEE","FL",34974,27.2048358110001,-80.7757427239999,482,"5066 SE 44TH STREET, OKEECHOBEE, FL, 34974","Match","Exact","5066 SE 44TH ST, OKEECHOBEE, FL, 34974",627441106,"L"
686983,"5066 SIGNAL HILL LANE","CINCINNATI","OH",45244,39.1093272740001,-84.3968189019999,483,"5066 SIGNAL HILL LANE, CINCINNATI, OH, 45244","Match","Exact","5066 SIGNAL HILL LN, CINCINNATI, OH, 45244",103937613,"L"
686984,"5066 SIMPSON POINT ROAD","GRANT","AL",35747,34.495962036,-86.318798009,484,"5066 SIMPSON POINT ROAD, GRANT, AL, 35747","Match","Exact","5066 SIMPSON PT RD, GRANT, AL, 35747",99223835,"R"
686985,"5066 WELLS DRIVE","AUGUSTA","GA",30909,NA,NA,485,"5066 WELLS DRIVE, AUGUSTA, GA, 30909","No_Match",NA,NA,NA,NA
686986,"5066 WEST 35TH TERRACE - APT A","INDIANAPOLIS","IN",46224,NA,NA,486,"5066 WEST 35TH TERRACE - APT A, INDIANAPOLIS, IN, 46224","No_Match",NA,NA,NA,NA
686987,"5066","BELL","CA",90201,NA,NA,487,"5066, BELL, CA, 90201","No_Match",NA,NA,NA,NA
686988,"5066A RIDGE AVENUE","EGG HARBOR TOWNSHIP","NJ",8234,39.3862013020001,-74.6063134079999,488,"5066A RIDGE AVENUE, EGG HARBOR TOWNSHIP, NJ, 8234","Match","Exact","5066 RIDGE AVE, EGG HARBOR TOWNSHIP, NJ, 08234",619153431,"R"
686989,"5067 ALICANTE WAY","OCEANSIDE","CA",92056,33.160476633,-117.260273523,489,"5067 ALICANTE WAY, OCEANSIDE, CA, 92056","Match","Exact","5067 ALICANTE WAY, OCEANSIDE, CA, 92056",195396602,"L"
686990,"5067 BLUESTEM DRIVE","COLORADO SPRINGS","CO",80917,38.8994497840001,-104.733478012,490,"5067 BLUESTEM DRIVE, COLORADO SPRINGS, CO, 80917","Match","Exact","5067 BLUESTEM DR, COLORADO SPRINGS, CO, 80917",610706979,"R"
686991,"5067 BOULDER DRIVE","HERMANTOWN","MN",55811,46.831896477,-92.215274726,491,"5067 BOULDER DRIVE, HERMANTOWN, MN, 55811","Match","Exact","5067 BOULDER DR, HERMANTOWN, MN, 55811",163239006,"L"
686992,"5067 CAPE MAY AVE","SAN DIEGO","CA",92107,32.7500701120001,-117.250006823,492,"5067 CAPE MAY AVE, SAN DIEGO, CA, 92107","Match","Exact","5067 CAPE MAY AVE, SAN DIEGO, CA, 92107",195339056,"L"
686993,"5067 COUNTY HIGHWAY 9","HAYDEN","AL",35079,33.97839293,-86.747281661,493,"5067 COUNTY HIGHWAY 9, HAYDEN, AL, 35079","Match","Non_Exact","5067 CO RD 9, HAYDEN, AL, 35079",99083926,"L"
686994,"5067 DEL MONACO","SANTA BARBARA","CA",93111,34.4319146560001,-119.800501094,494,"5067 DEL MONACO, SANTA BARBARA, CA, 93111","Match","Non_Exact","5067 DEL MONACO DR, SANTA BARBARA, CA, 93111",108623167,"L"
686995,"5067 GOODHOPE RD","DECATUR","MS",39327,32.456532155,-89.039437659,495,"5067 GOODHOPE RD, DECATUR, MS, 39327","Match","Non_Exact","5067 GOOD HOPE RD, DECATUR, MS, 39327",628689139,"R"
686996,"5067 HILLCREST ROAD","ARNOLD","MO",63010,38.4405694110001,-90.4516854519999,496,"5067 HILLCREST ROAD, ARNOLD, MO, 63010","Match","Exact","5067 HILLCREST RD, ARNOLD, MO, 63010",62795916,"R"
686997,"5067 JAY ST NE","WASHINGTON","DC",20019,38.901831574,-76.9274875839999,497,"5067 JAY ST NE, WASHINGTON, DC, 20019","Match","Exact","5067 JAY ST NE, WASHINGTON, DC, 20019",76233969,"R"
686998,"5067 LA CUENTA","SAN DIEGO","CA",92124,32.8231266770001,-117.096162832,498,"5067 LA CUENTA, SAN DIEGO, CA, 92124","Match","Non_Exact","5067 LA CUENTA DR, SAN DIEGO, CA, 92124",195321147,"R"
686999,"5067 LYNDALE AVENUE SOUTH","MINNEAPOLIS","MN",55419,44.9104056100001,-93.288258339,499,"5067 LYNDALE AVENUE SOUTH, MINNEAPOLIS, MN, 55419","Match","Exact","5067 LYNDALE AVE S, MINNEAPOLIS, MN, 55419",43629202,"L"
687000,"5067 MADRE MESA DR APT 2017","LAS VEGAS","NV",89108,36.2082899750001,-115.209884063,500,"5067 MADRE MESA DR APT 2017, LAS VEGAS, NV, 89108","Match","Exact","5067 MADRE MESA DR, LAS VEGAS, NV, 89108",201973948,"L"
