"ID","Address","City","State","Zip","lat","long","id","input_address","match_indicator","match_type","matched_address","tiger_line_id","tiger_side"
549501,"36 LOCUST AVE","SCARSDALE","NY",10583,40.9762894610001,-73.801215628,1,"36 LOCUST AVE, SCARSDALE, NY, 10583","Match","Exact","36 LOCUST AVE, SCARSDALE, NY, 10583",139740433,"R"
549502,"36 LONDON LANE","MEBANE","NC",27302,36.0783567610001,-79.280932961,2,"36 LONDON LANE, MEBANE, NC, 27302","Match","Exact","36 LONDON LN, MEBANE, NC, 27302",71657897,"R"
549503,"36 LONG COVE RD","ST GEORGE","ME",4860,43.9903462020001,-69.201973736,3,"36 LONG COVE RD, ST GEORGE, ME, 4860","Match","Exact","36 LONG COVE RD, SAINT GEORGE, ME, 04860",75552162,"R"
549504,"36 LONG GROVE DRIVE","MONTICELLO","IL",61856,40.0205713060001,-88.630050914,4,"36 LONG GROVE DRIVE, MONTICELLO, IL, 61856","Match","Exact","36 LONG GROVE DR, MONTICELLO, IL, 61856",604868416,"L"
549505,"36 LONG HILL ROAD","HOPEWELL JUNCTION","NY",12533,41.5017335210001,-73.8225697999999,5,"36 LONG HILL ROAD, HOPEWELL JUNCTION, NY, 12533","Match","Exact","36 LONG HILL RD, HOPEWELL JCT, NY, 12533",4228279,"L"
549506,"36 LORDS LANE","LYMAN","ME",4002,43.48963681,-70.626622063,6,"36 LORDS LANE, LYMAN, ME, 4002","Match","Exact","36 LORDS LN, LYMAN, ME, 04002",92739980,"L"
549507,"36 LORING STREET","BELMONT","MA",2478,42.3830070590001,-71.186687803,7,"36 LORING STREET, BELMONT, MA, 2478","Match","Exact","36 LORING ST, BELMONT, MA, 02478",86891179,"L"
549508,"36 LOTT PLACE","BROOKLYN","NY",11234,40.622190114,-73.935681754,8,"36 LOTT PLACE, BROOKLYN, NY, 11234","Match","Exact","36 LOTT PL, BROOKLYN, NY, 11234",59090349,"R"
549509,"36 LUCY RUN RD APT 2","AMELIA","OH",45102,39.041302461,-84.224955854,9,"36 LUCY RUN RD APT 2, AMELIA, OH, 45102","Match","Exact","36 LUCY RUN RD, AMELIA, OH, 45102",118459862,"L"
549510,"36 LUSCOMBE LANE","SANDWICH","MA",2563,41.696828773,-70.46611512,10,"36 LUSCOMBE LANE, SANDWICH, MA, 2563","Match","Exact","36 LUSCOMBE LN, SANDWICH, MA, 02563",121555261,"R"
549511,"36 MADISON AVE CMB 685","MADISON","NJ",7940,40.765441466,-74.427493463,11,"36 MADISON AVE CMB 685, MADISON, NJ, 7940","Match","Exact","36 MADISON AVE, MADISON, NJ, 07940",60447718,"L"
549512,"36 MADISON AVE CMB 92","MADISON","NJ",7940,40.765441466,-74.427493463,12,"36 MADISON AVE CMB 92, MADISON, NJ, 7940","Match","Exact","36 MADISON AVE, MADISON, NJ, 07940",60447718,"L"
549513,"36 MAGNOLIA DRIVE","NORTH ATTLEBORO","MA",2760,41.9653079350001,-71.316291168,13,"36 MAGNOLIA DRIVE, NORTH ATTLEBORO, MA, 2760","Match","Exact","36 MAGNOLIA DR, NORTH ATTLEBORO, MA, 02760",624893322,"L"
549514,"36 MAGNOLIA RIDGE LANE","ELGIN","SC",29054,34.163686381,-80.784198991,14,"36 MAGNOLIA RIDGE LANE, ELGIN, SC, 29054","Match","Non_Exact","36 MAGNOLIA RIDGE LN, ELGIN, SC, 29045",78487469,"L"
549515,"36 MAIN ST","COLD SPRING HBR","NY",11724,40.8703716250001,-73.459138174,15,"36 MAIN ST, COLD SPRING HBR, NY, 11724","Match","Non_Exact","36 W MAIN ST, COLD SPRING HARBOR, NY, 11724",113962496,"L"
549516,"36 MAIN STREET HASTINGS","HUDSON","NY",10706,40.9941903660001,-73.8810013839999,16,"36 MAIN STREET HASTINGS, HUDSON, NY, 10706","Match","Non_Exact","36 MAIN ST, HASTINGS ON HUDSON, NY, 10706",640547340,"R"
549517,"36 MAIN STREET","MARIETTA","PA",17547,40.0641130490001,-76.6130565409999,17,"36 MAIN STREET, MARIETTA, PA, 17547","Match","Exact","36 MAIN ST, MARIETTA, PA, 17547",179651415,"L"
549518,"36 MANASSAS DRIVE","MIDDLETOWN","DE",19709,39.528933877,-75.7571791729999,18,"36 MANASSAS DRIVE, MIDDLETOWN, DE, 19709","Match","Exact","36 MANASSAS DR, MIDDLETOWN, DE, 19709",187301811,"L"
549519,"36 MANDALAY RD","BRICK","NJ",8723,40.0241617670001,-74.098973526,19,"36 MANDALAY RD, BRICK, NJ, 8723","Match","Exact","36 MANDALAY RD, BRICK, NJ, 08723",203745088,"R"
549520,"36 MANNING BLVD","KEANSBURG","NJ",7734,40.4431540510001,-74.1315245819999,20,"36 MANNING BLVD, KEANSBURG, NJ, 7734","Match","Non_Exact","36 MANNING PL, KEANSBURG, NJ, 07734",90476764,"L"
549521,"36 MANNING PLACE","KEANSBURG","NJ",7734,40.4431540510001,-74.1315245819999,21,"36 MANNING PLACE, KEANSBURG, NJ, 7734","Match","Exact","36 MANNING PL, KEANSBURG, NJ, 07734",90476764,"L"
549522,"36 MAPLE AVE","LEOMINSTER","MA",1453,42.5414755240001,-71.778444941,22,"36 MAPLE AVE, LEOMINSTER, MA, 1453","Match","Exact","36 MAPLE AVE, LEOMINSTER, MA, 01453",647976877,"L"
549523,"36 MAPLE AVENUE","HEMPSTEAD","NY",11550,40.6998586290001,-73.625336035,23,"36 MAPLE AVENUE, HEMPSTEAD, NY, 11550","Match","Exact","36 MAPLE AVE, HEMPSTEAD, NY, 11550",147692144,"L"
549524,"36 MAPLE CT","MIDLAND","GA",31820,32.599058907,-84.794339889,24,"36 MAPLE CT, MIDLAND, GA, 31820","Match","Exact","36 MAPLE CT, MIDLAND, GA, 31820",614168740,"R"
549525,"36 MAPLE STREET","NORTON","MA",2766,41.9409555990001,-71.220432902,25,"36 MAPLE STREET, NORTON, MA, 2766","Match","Exact","36 MAPLE ST, NORTON, MA, 02766",46758675,"R"
549526,"36 MAPLEVALE DRIVE","WOODBRIDGE","CT",6525,41.3764954550001,-73.0124556439999,26,"36 MAPLEVALE DRIVE, WOODBRIDGE, CT, 6525","Match","Exact","36 MAPLEVALE DR, WOODBRIDGE, CT, 06525",3716795,"L"
549527,"36 MAPLEWOOD DRIVE","BRICK","NJ",8723,40.063273699,-74.1526292459999,27,"36 MAPLEWOOD DRIVE, BRICK, NJ, 8723","Match","Exact","36 MAPLEWOOD DR, BRICK, NJ, 08723",203725076,"R"
549528,"36 MAPLEWOOD ROAD","NEW HAVEN","CT",6515,41.3270279400001,-72.976427578,28,"36 MAPLEWOOD ROAD, NEW HAVEN, CT, 6515","Match","Exact","36 MAPLEWOOD RD, NEW HAVEN, CT, 06515",3697219,"L"
549529,"36 MAPLEWOOD ROAD","SOUTHINGTON","CT",6489,41.6054283230001,-72.8886158289999,29,"36 MAPLEWOOD ROAD, SOUTHINGTON, CT, 6489","Match","Exact","36 MAPLEWOOD RD, SOUTHINGTON, CT, 06489",650741501,"L"
549530,"36 MARCY LANE","MIDDLETOWN","NY",10941,41.4764553380001,-74.384314461,30,"36 MARCY LANE, MIDDLETOWN, NY, 10941","Match","Exact","36 MARCY LN, MIDDLETOWN, NY, 10941",124387985,"R"
549531,"36 MARGARET DRIVE","LOUDONVILLE","NY",12211,42.724753693,-73.786293058,31,"36 MARGARET DRIVE, LOUDONVILLE, NY, 12211","Match","Exact","36 MARGARET DR, LOUDONVILLE, NY, 12211",18305895,"L"
549532,"36 MARKET DR","SYOSSET","NY",11791,40.787436132,-73.5009009079999,32,"36 MARKET DR, SYOSSET, NY, 11791","Match","Exact","36 MARKET DR, SYOSSET, NY, 11791",147641021,"R"
549533,"36 MARKET DRIVE","SYOSSET","NY",11791,40.787436132,-73.5009009079999,33,"36 MARKET DRIVE, SYOSSET, NY, 11791","Match","Exact","36 MARKET DR, SYOSSET, NY, 11791",147641021,"R"
549534,"36 MARSAC PLACE","NEWARK","NJ",7106,40.732543951,-74.2401367849999,34,"36 MARSAC PLACE, NEWARK, NJ, 7106","Match","Exact","36 MARSAC PL, NEWARK, NJ, 07106",63463523,"L"
549535,"36 MARYLAND AVE","SEWELL","NJ",8080,39.786707581,-75.1605017799999,35,"36 MARYLAND AVE, SEWELL, NJ, 8080","Match","Exact","36 MARYLAND AVE, SEWELL, NJ, 08080",134584897,"L"
549536,"36 MASCONOMO ST","MANCHESTER","MA",1944,42.566463825,-70.766268554,36,"36 MASCONOMO ST, MANCHESTER, MA, 1944","Match","Exact","36 MASCONOMO ST, MANCHESTER, MA, 01944",86696134,"L"
549537,"36 MASHAPAUG RD","STURBRIDGE","MA",1566,42.074663591,-72.086514794,37,"36 MASHAPAUG RD, STURBRIDGE, MA, 1566","Match","Exact","36 MASHAPAUG RD, STURBRIDGE, MA, 01566",40082082,"L"
549538,"36 MASTHEAD DR","PLACIDA","FL",33946,26.875200149,-82.243547314,38,"36 MASTHEAD DR, PLACIDA, FL, 33946","Match","Exact","36 MASTHEAD DR, PLACIDA, FL, 33946",4302842,"R"
549539,"36 MCCRACKEN ROAD","MILLBURY","MA",1527,42.203233181,-71.787814437,39,"36 MCCRACKEN ROAD, MILLBURY, MA, 1527","Match","Exact","36 MCCRACKEN RD, MILLBURY, MA, 01527",40102787,"R"
549540,"36 MEADOW SPRINGS LN","GREER","SC",29650,34.9205194570001,-82.2530676599999,40,"36 MEADOW SPRINGS LN, GREER, SC, 29650","Match","Exact","36 MEADOW SPRINGS LN, GREER, SC, 29650",38327633,"R"
549541,"36 MEADOWBROOK LANE","TROPHY CLUB","TX",76262,32.996547623,-97.174707989,41,"36 MEADOWBROOK LANE, TROPHY CLUB, TX, 76262","Match","Exact","36 MEADOWBROOK LN, TROPHY CLUB, TX, 76262",103415077,"L"
549542,"36 MEANDER RESERVE CIR","CANFIELD","OH",44406,NA,NA,42,"36 MEANDER RESERVE CIR, CANFIELD, OH, 44406","No_Match",NA,NA,NA,NA
549543,"36 MELLON STREET","NEWPORT NEWS","VA",23606,37.080853749,-76.493096962,43,"36 MELLON STREET, NEWPORT NEWS, VA, 23606","Match","Exact","36 MELLON ST, NEWPORT NEWS, VA, 23606",103816219,"L"
549544,"36 MERRIAM PARKWAY","LEOMINSTER","MA",1453,42.535935125,-71.7717048979999,44,"36 MERRIAM PARKWAY, LEOMINSTER, MA, 1453","Match","Exact","36 MERRIAM PKWY, LEOMINSTER, MA, 01453",40029923,"L"
549545,"36 MERRILL STREET","EAST PROVIDENCE","RI",2914,41.829496885,-71.367060517,45,"36 MERRILL STREET, EAST PROVIDENCE, RI, 2914","Match","Exact","36 MERRILL ST, E PROVIDENCE, RI, 02914",47474342,"L"
549546,"36 MESSENGER LN","WILLINGBORO","NJ",8048,NA,NA,46,"36 MESSENGER LN, WILLINGBORO, NJ, 8048","No_Match",NA,NA,NA,NA
549547,"36 METROPOLITAN OVAL APT 5C","BRONX","NY",10462,40.8377684820001,-73.859710008,47,"36 METROPOLITAN OVAL APT 5C, BRONX, NY, 10462","Match","Exact","36 METROPOLITAN OVAL, BRONX, NY, 10462",609089855,"L"
549548,"36 MEYER HILL DRIVE","ACTON","MA",1720,42.505741318,-71.4193163859999,48,"36 MEYER HILL DRIVE, ACTON, MA, 1720","Match","Exact","36 MEYER HILL DR, ACTON, MA, 01720",87135921,"R"
549549,"36 MICHAELS DR","BENNINGTON","VT",5201,42.9158351250001,-73.2029059719999,49,"36 MICHAELS DR, BENNINGTON, VT, 5201","Match","Exact","36 MICHAELS DR, BENNINGTON, VT, 05201",139209244,"L"
549550,"36 MIDDLE CREEK RD","SIGNAL MOUNTAIN","TN",37377,35.1527686840001,-85.344935624,50,"36 MIDDLE CREEK RD, SIGNAL MOUNTAIN, TN, 37377","Match","Exact","36 MIDDLE CREEK RD, SIGNAL MOUNTAIN, TN, 37377",59329574,"L"
549551,"36 MIDDLE ROAD","KENNEBUNK","ME",4043,43.426604614,-70.628218582,51,"36 MIDDLE ROAD, KENNEBUNK, ME, 4043","Match","Exact","36 MIDDLE RD, KENNEBUNK, ME, 04043",642120474,"L"
549552,"36 MIDLAND AVE","ROCHESTER","NY",14620,43.1307827840001,-77.5927713519999,52,"36 MIDLAND AVE, ROCHESTER, NY, 14620","Match","Exact","36 MIDLAND AVE, ROCHESTER, NY, 14620",624525476,"L"
549553,"36 MIDLAND LANE","WHEATLEY HEIGHTS","NY",11798,40.7621861120001,-73.361141392,53,"36 MIDLAND LANE, WHEATLEY HEIGHTS, NY, 11798","Match","Exact","36 MIDLAND LN, WHEATLEY HEIGHTS, NY, 11798",113969209,"L"
549554,"36 MILL AVE","WHITEFISH","MT",59937,48.4122015790001,-114.326478446,54,"36 MILL AVE, WHITEFISH, MT, 59937","Match","Exact","36 MILL AVE, WHITEFISH, MT, 59937",204077933,"R"
549555,"36 MILL PLAIN ROAD SUITE 208","DANBURY","CT",6811,41.38896651,-73.4977707469999,55,"36 MILL PLAIN ROAD SUITE 208, DANBURY, CT, 6811","Match","Exact","36 MILL PLAIN RD, DANBURY, CT, 06811",3274672,"L"
549556,"36 MILL STREET","HOULTON","ME",4730,46.1278570320001,-67.845274627,56,"36 MILL STREET, HOULTON, ME, 4730","Match","Exact","36 MILL ST, HOULTON, ME, 04730",646652370,"R"
549557,"36 MILTON ROAD APT 1","BROOKLINE","MA",2445,42.329257575,-71.1275823139999,57,"36 MILTON ROAD APT 1, BROOKLINE, MA, 2445","Match","Exact","36 MILTON RD, BROOKLINE, MA, 02445",87289211,"L"
549558,"36 MIRA MESA","RANCHO SANTA MARGARI","CA",92688,33.657190353,-117.612421792,58,"36 MIRA MESA, RANCHO SANTA MARGARI, CA, 92688","Match","Non_Exact","36 MIRA MESA, RANCHO SANTA MARGARITA, CA, 92688",144380196,"R"
549559,"36 MOHONK RD","HIGH FALLS","NY",12440,41.8251910380001,-74.1270680649999,59,"36 MOHONK RD, HIGH FALLS, NY, 12440","Match","Exact","36 MOHONK RD, HIGH FALLS, NY, 12440",41869475,"L"
549560,"36 MONARCH LN","OKEMOS","MI",48864,42.69193634,-84.35565144,60,"36 MONARCH LN, OKEMOS, MI, 48864","Match","Exact","36 MONARCH LN, OKEMOS, MI, 48864",17514692,"R"
549561,"36 MONHEGAN ST","CLIFTON","NJ",7013,40.8636384000001,-74.151677123,61,"36 MONHEGAN ST, CLIFTON, NJ, 7013","Match","Exact","36 MONHEGAN ST, CLIFTON, NJ, 07013",65250757,"R"
549562,"36 MONROE AVE","CLARKSBURG","WV",26301,39.2699806970001,-80.349592442,62,"36 MONROE AVE, CLARKSBURG, WV, 26301","Match","Exact","36 MONROE AVE, CLARKSBURG, WV, 26301",53302739,"R"
549563,"36 MONSON STREET","BROCKTON","MA",2301,42.0871017590001,-71.0441426639999,63,"36 MONSON STREET, BROCKTON, MA, 2301","Match","Exact","36 MONSON ST, BROCKTON, MA, 02301",87441647,"L"
549564,"36 MONTCLAIR AVENUE","EDISON","NJ",8820,40.5767132140001,-74.366087393,64,"36 MONTCLAIR AVENUE, EDISON, NJ, 8820","Match","Exact","36 MONTCLAIR AVE, EDISON, NJ, 08820",60271557,"R"
549565,"36 MONTEREY ROAD","TONAWANDA","NY",14150,43.00558697,-78.833761406,65,"36 MONTEREY ROAD, TONAWANDA, NY, 14150","Match","Exact","36 MONTEREY RD, TONAWANDA, NY, 14150",48284690,"L"
549566,"36 MONTICELLO DRIVE","PIEDMONT","SC",29673,NA,NA,66,"36 MONTICELLO DRIVE, PIEDMONT, SC, 29673","No_Match",NA,NA,NA,NA
549567,"36 MORNINGSIDE DRIVE","LIVINGSTON","NJ",7039,40.8042730860001,-74.331835858,67,"36 MORNINGSIDE DRIVE, LIVINGSTON, NJ, 7039","Match","Exact","36 MORNINGSIDE DR, LIVINGSTON, NJ, 07039",63495147,"R"
549568,"36 MORNINGSIDE RD","NEEDHAM","MA",2492,42.283679018,-71.216778206,68,"36 MORNINGSIDE RD, NEEDHAM, MA, 2492","Match","Exact","36 MORNINGSIDE RD, NEEDHAM, MA, 02492",647368619,"R"
549569,"36 MORNINGSIDE RD","VERONA","NJ",7044,40.8263109640001,-74.25231431,69,"36 MORNINGSIDE RD, VERONA, NJ, 7044","Match","Exact","36 MORNINGSIDE RD, VERONA, NJ, 07044",63483272,"R"
549570,"36 MOSS BRANCH RD","LOUISA","KY",41230,38.1480086,-82.7111062389999,70,"36 MOSS BRANCH RD, LOUISA, KY, 41230","Match","Exact","36 MOSS BRANCH RD, LOUISA, KY, 41230",34841360,"R"
549571,"36 MOUNT DRIVE","NORTH BRUNSWICK","NH",8902,NA,NA,71,"36 MOUNT DRIVE, NORTH BRUNSWICK, NH, 8902","No_Match",NA,NA,NA,NA
549572,"36 MOUNTAIN HOME RD","LONDONDERRY","NH",3053,42.8845400770001,-71.390059112,72,"36 MOUNTAIN HOME RD, LONDONDERRY, NH, 3053","Match","Exact","36 MOUNTAIN HOME RD, LONDONDERRY, NH, 03053",623848124,"L"
549573,"36 MOUNTAIN ROAD","BROOKLINE","NH",3033,42.7677722920001,-71.650164011,73,"36 MOUNTAIN ROAD, BROOKLINE, NH, 3033","Match","Exact","36 MOUNTAIN RD, BROOKLINE, NH, 03033",113577207,"L"
549574,"36 MOUNTAIN SHADOWS PLACE","PHILLIPS RANCH","CA",91766,34.021338073,-117.768156948,74,"36 MOUNTAIN SHADOWS PLACE, PHILLIPS RANCH, CA, 91766","Match","Exact","36 MOUNTAIN SHADOWS PL, PHILLIPS RANCH, CA, 91766",627427292,"R"
549575,"36 MOUNTAIN TRAIL","CONWAY","AR",72034,35.0249648860001,-92.428418436,75,"36 MOUNTAIN TRAIL, CONWAY, AR, 72034","Match","Exact","36 MOUNTAIN TRL, CONWAY, AR, 72034",141059929,"R"
549576,"36 MOUNTAIN VIEW RD","PLAINVILLE","CT",6062,41.6537566750001,-72.860410525,76,"36 MOUNTAIN VIEW RD, PLAINVILLE, CT, 6062","Match","Non_Exact","36 MOUNTAIN VIEW DR, PLAINVILLE, CT, 06062",3508298,"L"
549577,"36 MOUNTAINSIDE DRIVE","RANDOLPH","NJ",7869,40.8672649370001,-74.544601165,77,"36 MOUNTAINSIDE DRIVE, RANDOLPH, NJ, 7869","Match","Exact","36 MOUNTAINSIDE DR, RANDOLPH, NJ, 07869",60439133,"L"
549578,"36 MT ROCK RD","NEWVILLE","PA",17241,40.1745977840001,-77.386177307,78,"36 MT ROCK RD, NEWVILLE, PA, 17241","Match","Exact","36 MOUNT ROCK RD, NEWVILLE, PA, 17241",60981339,"L"
549579,"36 MT ROCK ROAD","NEWVILLE","PA",17241,40.1745977840001,-77.386177307,79,"36 MT ROCK ROAD, NEWVILLE, PA, 17241","Match","Exact","36 MOUNT ROCK RD, NEWVILLE, PA, 17241",60981339,"L"
549580,"36 MULBERRY DRIVE","TUXEDO PARK","NY",10987,41.1592343560001,-74.239858941,80,"36 MULBERRY DRIVE, TUXEDO PARK, NY, 10987","Match","Exact","36 MULBERRY DR, TUXEDO PARK, NY, 10987",124433438,"R"
549581,"36 MURDOCK ST","FRANKLIN","PA",16323,41.410868861,-79.832267217,81,"36 MURDOCK ST, FRANKLIN, PA, 16323","Match","Exact","36 MURDOCK ST, FRANKLIN, PA, 16323",70758114,"L"
549582,"36 MYERS CIRCLE","WEST POINT","MS",39773,33.597575572,-88.630723533,82,"36 MYERS CIRCLE, WEST POINT, MS, 39773","Match","Exact","36 MYERS CIR, WEST POINT, MS, 39773",164177962,"R"
549583,"36 MYRNA DRIVE","MARLBOROUGH","CT",6447,41.649879851,-72.4644092249999,83,"36 MYRNA DRIVE, MARLBOROUGH, CT, 6447","Match","Exact","36 MYRNA DR, MARLBOROUGH, CT, 06447",3500317,"R"
549584,"36 N 2ND ST APT 2","ALLEGANY","NY",14706,42.094282004,-78.497917957,84,"36 N 2ND ST APT 2, ALLEGANY, NY, 14706","Match","Non_Exact","36 N 2ND ST, ALLEGANY, NY, 14706",122031238,"R"
549585,"36 N 5TH AVE","IRON RIVER","MI",49935,46.0877594460001,-88.6443102219999,85,"36 N 5TH AVE, IRON RIVER, MI, 49935","Match","Exact","36 N 5TH AVE, IRON RIVER, MI, 49935",165180637,"R"
549586,"36 N CENTER ST","MARSHALLTOWN","IA",50158,42.0496357120001,-92.9129602259999,86,"36 N CENTER ST, MARSHALLTOWN, IA, 50158","Match","Exact","36 N CENTER ST, MARSHALLTOWN, IA, 50158",90930475,"L"
549587,"36 N FRONT STREET UNIT 1","PHILADELPHIA","PA",19106,NA,NA,87,"36 N FRONT STREET UNIT 1, PHILADELPHIA, PA, 19106","Tie",NA,NA,NA,NA
549588,"36 N HILLSIDE RD","S DEERFIELD","MA",1373,42.4900469410001,-72.598725488,88,"36 N HILLSIDE RD, S DEERFIELD, MA, 1373","Match","Exact","36 HILLSIDE RD, S DEERFIELD, MA, 01373",39940887,"R"
549589,"36 N KALAHEO AVE","KAILUA","HI",96734,21.4002509370001,-157.736966651,89,"36 N KALAHEO AVE, KAILUA, HI, 96734","Match","Exact","36 N KALAHEO AVE, KAILUA, HI, 96734",203239429,"R"
549590,"36 N3240","CONCHO","AZ",85924,NA,NA,90,"36 N3240, CONCHO, AZ, 85924","No_Match",NA,NA,NA,NA
549591,"36 NANCY CIRCLE","READING","PA",19660,40.312605105,-75.856551985,91,"36 NANCY CIRCLE, READING, PA, 19660","Match","Non_Exact","36 NANCY CIR, READING, PA, 19606",617449015,"L"
549592,"36 NARROWS RD","WINTHROP","ME",4364,NA,NA,92,"36 NARROWS RD, WINTHROP, ME, 4364","No_Match",NA,NA,NA,NA
549593,"36 NE 60TH ST","MIAMI","FL",33137,25.830887336,-80.195715566,93,"36 NE 60TH ST, MIAMI, FL, 33137","Match","Exact","36 NE 60TH ST, MIAMI, FL, 33137",116006535,"R"
549594,"36 NEWBURGH ROAD","PATTERSON","NY",12563,41.473628143,-73.5509227859999,94,"36 NEWBURGH ROAD, PATTERSON, NY, 12563","Match","Exact","36 NEWBURGH RD, PATTERSON, NY, 12563",636454112,"L"
549595,"36 NEWHALL AVE APT 202","SAUGUS","MA",1906,42.465303814,-71.0162532859999,95,"36 NEWHALL AVE APT 202, SAUGUS, MA, 1906","Match","Exact","36 NEWHALL AVE, SAUGUS, MA, 01906",86636084,"L"
549596,"36 NICHOLS ROAD","LEMPSTER","NH",3605,43.2246415060001,-72.169192299,96,"36 NICHOLS ROAD, LEMPSTER, NH, 3605","Match","Exact","36 NICHOLS RD, LEMPSTER, NH, 03605",124334062,"R"
549597,"36 NICHOLS","LEMPSTER","NH",3605,43.2246415060001,-72.169192299,97,"36 NICHOLS, LEMPSTER, NH, 3605","Match","Non_Exact","36 NICHOLS RD, LEMPSTER, NH, 03605",124334062,"R"
549598,"36 NORTH 12 ST","LEBANON","PA",17042,40.3400116380001,-76.431188982,98,"36 NORTH 12 ST, LEBANON, PA, 17042","Match","Non_Exact","36 N 12TH ST, LEBANON, PA, 17046",619809253,"R"
549599,"36 NORTH 12TH ST","LEBANON","PA",17042,40.3400116380001,-76.431188982,99,"36 NORTH 12TH ST, LEBANON, PA, 17042","Match","Non_Exact","36 N 12TH ST, LEBANON, PA, 17046",619809253,"R"
549600,"36 NORTH GRAHAM","MEMPHIS","TN",38117,35.1329994860001,-89.928566893,100,"36 NORTH GRAHAM, MEMPHIS, TN, 38117","Match","Non_Exact","36 N GRAHAM ST, MEMPHIS, TN, 38117",72916538,"R"
549601,"36 NORTH MITCHELL DRIVE","LIVINGSTON","NJ",7039,40.797125227,-74.318312259,101,"36 NORTH MITCHELL DRIVE, LIVINGSTON, NJ, 7039","Match","Non_Exact","36 N MITCHELL AVE, LIVINGSTON, NJ, 07039",63458058,"R"
549602,"36 NORTH PRESTON STREET APT 1","PHILADELPHIA","PA",19104,39.9582090010001,-75.2035049099999,102,"36 NORTH PRESTON STREET APT 1, PHILADELPHIA, PA, 19104","Match","Exact","36 N PRESTON ST, PHILADELPHIA, PA, 19104",131403908,"L"
549603,"36 NORTH SAND PALM ROAD","FREEPORT","FL",32439,NA,NA,103,"36 NORTH SAND PALM ROAD, FREEPORT, FL, 32439","Tie",NA,NA,NA,NA
549604,"36 NORTH WOODWARD AVENUE","WILMINGTON","DE",19805,39.739500761,-75.6167353549999,104,"36 NORTH WOODWARD AVENUE, WILMINGTON, DE, 19805","Match","Exact","36 N WOODWARD AVE, WILMINGTON, DE, 19805",187254131,"R"
549605,"36 NW 17 CT APT 1","MIAMI","FL",33125,25.7735455650001,-80.2233113089999,105,"36 NW 17 CT APT 1, MIAMI, FL, 33125","Match","Non_Exact","36 NW 17TH CT, MIAMI, FL, 33125",116016419,"L"
549606,"36 NW 6TH AVE APTO 509","MIAMI","FL",33128,25.77421073,-80.20441078,106,"36 NW 6TH AVE APTO 509, MIAMI, FL, 33128","Match","Non_Exact","36 NW 6TH AVE, MIAMI, FL, 33128",116018180,"L"
549607,"36 OAK RIDGE DR","STANDISH","ME",4084,43.747146726,-70.55713272,107,"36 OAK RIDGE DR, STANDISH, ME, 4084","Match","Exact","36 OAK RIDGE DR, STANDISH, ME, 04084",624998031,"L"
549608,"36 OAKLAND AVENUE","PULASKI","VA",24301,37.057884141,-80.7799673869999,108,"36 OAKLAND AVENUE, PULASKI, VA, 24301","Match","Non_Exact","36 OAKLAND DR, PULASKI, VA, 24301",47007128,"L"
549609,"36 OAKWOOD DR","KANKAKEE","IL",60901,41.0912500640001,-87.826315951,109,"36 OAKWOOD DR, KANKAKEE, IL, 60901","Match","Exact","36 OAKWOOD DR, KANKAKEE, IL, 60901",615572716,"R"
549610,"36 OAKWOOD TERR","EAST BRIDGEWATER","MA",2333,42.0680079680001,-70.976017326,110,"36 OAKWOOD TERR, EAST BRIDGEWATER, MA, 2333","Match","Exact","36 OAKWOOD TER, E BRIDGEWATER, MA, 02333",87445437,"R"
549611,"36 OAKWOOD WAY","WEST WINDSOR","NJ",8550,40.2804490280001,-74.619016167,111,"36 OAKWOOD WAY, WEST WINDSOR, NJ, 8550","Match","Exact","36 OAKWOOD WAY, WEST WINDSOR, NJ, 08550",60188568,"L"
549612,"36 OBERLIN ST","MAPLEWOOD","NJ",7040,40.722741849,-74.267399547,112,"36 OBERLIN ST, MAPLEWOOD, NJ, 7040","Match","Exact","36 OBERLIN ST, MAPLEWOOD, NJ, 07040",63462672,"L"
549613,"36 OBRIEN GLENWAY","OSWEGO","NY",13126,43.4320305270001,-76.497350459,113,"36 OBRIEN GLENWAY, OSWEGO, NY, 13126","Match","Non_Exact","36 O'BRIEN GLENWAY, OSWEGO, NY, 13126",57840991,"L"
549614,"36 OBRION STREET","PORTLAND","ME",4101,43.665724374,-70.2434730209999,114,"36 OBRION STREET, PORTLAND, ME, 4101","Match","Exact","36 OBRION ST, PORTLAND, ME, 04101",78032293,"L"
549615,"36 OCEAN AVENUE","NORTHPORT","NY",11768,40.9026985340001,-73.343187335,115,"36 OCEAN AVENUE, NORTHPORT, NY, 11768","Match","Exact","36 OCEAN AVE, NORTHPORT, NY, 11768",647272765,"R"
549616,"36 OCEAN AVENUE","NOTHPORT","NY",11768,40.9026985340001,-73.343187335,116,"36 OCEAN AVENUE, NOTHPORT, NY, 11768","Match","Non_Exact","36 OCEAN AVE, NORTHPORT, NY, 11768",647272765,"R"
549617,"36 OCEANVIEW AVE","KEANSBURG","NJ",7734,40.4531116640001,-74.132000042,117,"36 OCEANVIEW AVE, KEANSBURG, NJ, 7734","Match","Exact","36 OCEANVIEW AVE, KEANSBURG, NJ, 07734",90476552,"L"
549618,"36 OCEANVIEW DR","BAY POINT","CA",94565,38.038613968,-121.971799102,118,"36 OCEANVIEW DR, BAY POINT, CA, 94565","Match","Exact","36 OCEANVIEW DR, BAY POINT, CA, 94565",192053328,"L"
549619,"36 OLD PIKE RD","CORNISH","ME",4020,43.800629095,-70.821128905,119,"36 OLD PIKE RD, CORNISH, ME, 4020","Match","Exact","36 OLD PIKE RD, CORNISH, ME, 04020",92764027,"L"
549620,"36 OLD YELLOW SPRINGS RD  APT 16","FAIRBORD","OH",45324,39.7844878510001,-84.022708995,120,"36 OLD YELLOW SPRINGS RD  APT 16, FAIRBORD, OH, 45324","Match","Non_Exact","36 OLD YELLOW SPRINGS RD, FAIRBORN, OH, 45324",143404416,"L"
549621,"36 OLYMPIC OAKS DR","LAFAYETTE","CA",94549,37.885460031,-122.094134379,121,"36 OLYMPIC OAKS DR, LAFAYETTE, CA, 94549","Match","Exact","36 OLYMPIC OAKS DR, LAFAYETTE, CA, 94549",192113722,"L"
549622,"36 OMIOPI LANE","WYALUSING","PA",18853,NA,NA,122,"36 OMIOPI LANE, WYALUSING, PA, 18853","No_Match",NA,NA,NA,NA
549623,"36 ONEILL COURT","RIDGEFIELD","CT",6877,41.3270855860001,-73.541155417,123,"36 ONEILL COURT, RIDGEFIELD, CT, 6877","Match","Exact","36 ONEILL CT, RIDGEFIELD, CT, 06877",3278627,"R"
549624,"36 ORCHARD DRIVE","MARTINS FERRY","OH",43935,40.1019071750001,-80.7390882459999,124,"36 ORCHARD DRIVE, MARTINS FERRY, OH, 43935","Match","Exact","36 ORCHARD DR, MARTINS FERRY, OH, 43935",36231590,"R"
549625,"36 ORCHARD WAY","NOVATO","CA",94947,38.1040566820001,-122.58177115,125,"36 ORCHARD WAY, NOVATO, CA, 94947","Match","Exact","36 ORCHARD WAY, NOVATO, CA, 94947",192777438,"R"
549626,"36 OSSIPEE TRAIL WEST","STANDISH","ME",4084,43.7357439400001,-70.554273023,126,"36 OSSIPEE TRAIL WEST, STANDISH, ME, 4084","Match","Exact","36 OSSIPEE TRL W, STANDISH, ME, 04084",78015624,"R"
549627,"36 OVATION","IRVINE","CA",92620,33.7070065980001,-117.745288748,127,"36 OVATION, IRVINE, CA, 92620","Match","Exact","36 OVATION, IRVINE, CA, 92620",641617514,"L"
549628,"36 OVERLOOK CT","HUDSON","NY",12534,42.244006976,-73.6423296089999,128,"36 OVERLOOK CT, HUDSON, NY, 12534","Match","Non_Exact","36 OVERLOOK, HUDSON, NY, 12534",41517825,"L"
549629,"36 OVERMEYER RD","RAYMOND","WA",98577,46.697145198,-123.702642306,129,"36 OVERMEYER RD, RAYMOND, WA, 98577","Match","Exact","36 OVERMEYER RD, RAYMOND, WA, 98577",175997933,"R"
549630,"36 OWL CT","WHEELING","WV",26003,40.0834131980001,-80.710152407,130,"36 OWL CT, WHEELING, WV, 26003","Match","Exact","36 OWL CT, WHEELING, WV, 26003",38089263,"R"
549631,"36 OXFORD PARK","REVERE","MA",2151,42.4171292340001,-71.005589559,131,"36 OXFORD PARK, REVERE, MA, 2151","Match","Exact","36 OXFORD PARK, REVERE, MA, 02151",85707967,"R"
549632,"36 OXFORD STREET","FRYEBURG","ME",4037,44.0146227920001,-70.978621488,132,"36 OXFORD STREET, FRYEBURG, ME, 4037","Match","Exact","36 OXFORD ST, FRYEBURG, ME, 04037",618226213,"R"
549633,"36 PAA ST","KAHULUI","HI",96732,20.8671273730001,-156.496809805,133,"36 PAA ST, KAHULUI, HI, 96732","Match","Exact","36 PAA ST, KAHULUI, HI, 96732",642232427,"R"
549634,"36 PACK LANE","ARDMORE","TN",38499,35.023321894,-86.780866782,134,"36 PACK LANE, ARDMORE, TN, 38499","Match","Non_Exact","36 PACK LN, ARDMORE, TN, 38449",58315143,"L"
549635,"36 PAGE HILL ROAD","FAR HILLS","NJ",7931,40.69731864,-74.6134229259999,135,"36 PAGE HILL ROAD, FAR HILLS, NJ, 7931","Match","Exact","36 PAGE HILL RD, FAR HILLS, NJ, 07931",635868445,"L"
549636,"36 PALCHAM DR","ROCHESTER","NY",14618,43.1168157280001,-77.5686153569999,136,"36 PALCHAM DR, ROCHESTER, NY, 14618","Match","Exact","36 PALCHAM DR, ROCHESTER, NY, 14618",14541484,"L"
549637,"36 PALISADES BLVD","ELMIRA","NY",14903,42.093904454,-76.9040051649999,137,"36 PALISADES BLVD, ELMIRA, NY, 14903","Match","Exact","36 PALISADES BLVD, ELMIRA, NY, 14903",18564481,"L"
549638,"36 PALOMA","BOISE","ID",83716,NA,NA,138,"36 PALOMA, BOISE, ID, 83716","Tie",NA,NA,NA,NA
549639,"36 PALOMINO DR","PITTSFIELD","MA",1201,42.4192235100001,-73.24266102,139,"36 PALOMINO DR, PITTSFIELD, MA, 1201","Match","Exact","36 PALOMINO DR, PITTSFIELD, MA, 01201",3921836,"R"
549640,"36 PARKER AVENUE","ATHERTON","CA",94027,37.448944023,-122.219944045,140,"36 PARKER AVENUE, ATHERTON, CA, 94027","Match","Exact","36 PARKER AVE, ATHERTON, CA, 94027",192363454,"R"
549641,"36 PARKER ROAD","CHELMSFORD","MA",NA,42.583190702,-71.348385396,141,"36 PARKER ROAD, CHELMSFORD, MA, ","Match","Exact","36 PARKER RD, CHELMSFORD, MA, 01824",86895938,"L"
549642,"36 PARTRIDGE CIRCLE","CARLISLE","PA",17013,40.241832485,-77.176006526,142,"36 PARTRIDGE CIRCLE, CARLISLE, PA, 17013","Match","Exact","36 PARTRIDGE CIR, CARLISLE, PA, 17013",60958220,"R"
549643,"36 PAULA AVENUE","YONKERS","NY",10704,40.9263430660001,-73.848360777,143,"36 PAULA AVENUE, YONKERS, NY, 10704","Match","Exact","36 PAULA AVE, YONKERS, NY, 10704",139746411,"R"
549644,"36 PAULISON AVENUE","RIDGEFIELD PARK","NJ",7660,40.859012663,-74.027915293,144,"36 PAULISON AVENUE, RIDGEFIELD PARK, NJ, 7660","Match","Exact","36 PAULISON AVE, RIDGEFIELD PARK, NJ, 07660",64397664,"L"
549645,"36 PAYNE AVENUE","BUFFALO","NY",14220,42.8491898660001,-78.83130933,145,"36 PAYNE AVENUE, BUFFALO, NY, 14220","Match","Exact","36 PAYNE AVE, BUFFALO, NY, 14220",48302147,"L"
549646,"36 PEARL STREET PLACE","STOUGHTON","MA",2072,42.1270612640001,-71.10478166,146,"36 PEARL STREET PLACE, STOUGHTON, MA, 2072","Match","Exact","36 PEARL STREET PL, STOUGHTON, MA, 02072",87267215,"L"
549647,"36 PEARL STREET","PLYMOUTH","MA",2360,41.924902225,-70.5523772289999,147,"36 PEARL STREET, PLYMOUTH, MA, 2360","Match","Exact","36 PEARL ST, PLYMOUTH, MA, 02360",87440702,"R"
549648,"36 PELHAM PL","BERGENFIELD","NJ",7621,40.932174063,-73.99995877,148,"36 PELHAM PL, BERGENFIELD, NJ, 7621","Match","Exact","36 PELHAM PL, BERGENFIELD, NJ, 07621",64412750,"L"
549649,"36 PELICAN BAY DR","SANTA ROSA BEACH","FL",32459,30.3960374810001,-86.299504514,149,"36 PELICAN BAY DR, SANTA ROSA BEACH, FL, 32459","Match","Exact","36 PELICAN BAY DR, SANTA ROSA BEACH, FL, 32459",32985073,"R"
549650,"36 PELL TERRANCE","GARDEN CITY","NY",11530,40.738304198,-73.620501062,150,"36 PELL TERRANCE, GARDEN CITY, NY, 11530","Match","Non_Exact","36 PELL TER, GARDEN CITY, NY, 11530",147626736,"L"
549651,"36 PEMBERTON CV","JACKSON","TN",38305,35.7086530620001,-88.8976014849999,151,"36 PEMBERTON CV, JACKSON, TN, 38305","Match","Exact","36 PEMBERTON COVE, JACKSON, TN, 38305",612615861,"R"
549652,"36 PENN AVENUE","EXETER","PA",18643,41.321374054,-75.811841955,152,"36 PENN AVENUE, EXETER, PA, 18643","Match","Exact","36 PENN AVE, EXETER, PA, 18643",634559771,"L"
549653,"36 PENTON STREET","STATEN ISLAND","NY",10309,40.522390177,-74.214896346,153,"36 PENTON STREET, STATEN ISLAND, NY, 10309","Match","Exact","36 PENTON ST, STATEN ISLAND, NY, 10309",59873819,"L"
549654,"36 PEONY ROAD","LEVITTOWN","NY",11756,40.73527604,-73.520775332,154,"36 PEONY ROAD, LEVITTOWN, NY, 11756","Match","Exact","36 PEONY RD, LEVITTOWN, NY, 11756",147644163,"L"
549655,"36 PEPPER RD","FITCHBURG","MA",1420,42.554291897,-71.8299642439999,155,"36 PEPPER RD, FITCHBURG, MA, 1420","Match","Exact","36 PEPPER RD, FITCHBURG, MA, 01420",40027733,"L"
549656,"36 PERSIMMON RIDGE DRIVE","GREENBRIER","AR",72058,35.279969663,-92.318634242,156,"36 PERSIMMON RIDGE DRIVE, GREENBRIER, AR, 72058","Match","Exact","36 PERSIMMON RIDGE DR, GREENBRIER, AR, 72058",641777907,"L"
549657,"36 PERTHSHIRE ROAD","BRIGHTON","MA",2135,42.353727142,-71.167300449,157,"36 PERTHSHIRE ROAD, BRIGHTON, MA, 2135","Match","Exact","36 PERTHSHIRE RD, BRIGHTON, MA, 02135",636133413,"L"
549658,"36 PETTY DRIVE","HAMILTON","OH",45013,39.40119065,-84.6031824199999,158,"36 PETTY DRIVE, HAMILTON, OH, 45013","Match","Exact","36 PETTY DR, HAMILTON, OH, 45013",113787653,"R"
549659,"36 PETUNIA LN","MONTICELLO","NY",12701,NA,NA,159,"36 PETUNIA LN, MONTICELLO, NY, 12701","No_Match",NA,NA,NA,NA
549660,"36 PHOENIX DRIVE","MENDHAM","NJ",7945,40.7844247410001,-74.6025608689999,160,"36 PHOENIX DRIVE, MENDHAM, NJ, 7945","Match","Exact","36 PHOENIX DR, MENDHAM, NJ, 07945",60437270,"R"
549661,"36 PIE RIDGE ROAD","PROSPERITY","PA",15329,40.0307990380001,-80.254965505,161,"36 PIE RIDGE ROAD, PROSPERITY, PA, 15329","Match","Exact","36 PIE RIDGE RD, PROSPERITY, PA, 15329",636461552,"R"
549662,"36 PILGRAM ROAD","BELMONT","MA",2478,42.403253125,-71.163418393,162,"36 PILGRAM ROAD, BELMONT, MA, 2478","Match","Non_Exact","36 PILGRIM RD, BELMONT, MA, 02478",86888382,"L"
549663,"36 PILGRIM ROAD","MARSHFIELD","MA",2050,42.1221592150001,-70.691955144,163,"36 PILGRIM ROAD, MARSHFIELD, MA, 2050","Match","Exact","36 PILGRIM RD, MARSHFIELD, MA, 02050",87434796,"R"
549664,"36 PINE HOUSE 197 TOWNMEAD ROAD","LONDON",NA,NA,35.3293767050001,-93.253869224,164,"36 PINE HOUSE 197 TOWNMEAD ROAD, LONDON, , ","Match","Non_Exact","36 PINE ST, LONDON, AR, 72847",606094527,"L"
549665,"36 PINE KNOLL TERRACE","LISBON","NH",3585,44.2169128690001,-71.9022962449999,165,"36 PINE KNOLL TERRACE, LISBON, NH, 3585","Match","Exact","36 PINE KNOLL TER, LISBON, NH, 03585",145698863,"L"
549666,"36 PINE MOUNTAIN DRIVE","CONWAY","AR",72034,34.99038627,-92.4258204069999,166,"36 PINE MOUNTAIN DRIVE, CONWAY, AR, 72034","Match","Exact","36 PINE MOUNTAIN DR, CONWAY, AR, 72034",141059939,"R"
549667,"36 PINE ST","BATH","ME",4530,43.9014012480001,-69.817726218,167,"36 PINE ST, BATH, ME, 4530","Match","Exact","36 PINE ST, BATH, ME, 04530",75600429,"R"
549668,"36 PINE ST","HUDSON","MA",1749,42.3895397090001,-71.5797476779999,168,"36 PINE ST, HUDSON, MA, 1749","Match","Exact","36 PINE ST, HUDSON, MA, 01749",86898631,"R"
549669,"36 PINE STREET 203","POUGHKEEPSIE","NY",12601,41.6977612200001,-73.935792641,169,"36 PINE STREET 203, POUGHKEEPSIE, NY, 12601","Match","Exact","36 PINE ST, POUGHKEEPSIE, NY, 12601",4226734,"L"
549670,"36 PINEBROOK LN","EASTON","MA",2375,42.014640286,-71.1558354209999,170,"36 PINEBROOK LN, EASTON, MA, 2375","Match","Non_Exact","36 PINEBROOK LN, SOUTH EASTON, MA, 02375",46765571,"R"
549671,"36 PINHURST LANE","MISSOURI CITY","TX",77459,29.584058514,-95.561715357,171,"36 PINHURST LANE, MISSOURI CITY, TX, 77459","Match","Non_Exact","36 PINEHURST CT, MISSOURI CITY, TX, 77459",78269238,"L"
549672,"36 PLAZA STREET EAST APT 6F","BROOKLYN","NY",11238,40.675081564,-73.969277275,172,"36 PLAZA STREET EAST APT 6F, BROOKLYN, NY, 11238","Match","Exact","36 PLAZA ST E, BROOKLYN, NY, 11238",59078393,"L"
549673,"36 PLAZA STREET EAST","BROOKLYN","NY",11238,40.675081564,-73.969277275,173,"36 PLAZA STREET EAST, BROOKLYN, NY, 11238","Match","Exact","36 PLAZA ST E, BROOKLYN, NY, 11238",59078393,"L"
549674,"36 PLUM VALLEY ROAD","MANCELONA","MI",49659,44.8445500880001,-85.1712476609999,174,"36 PLUM VALLEY ROAD, MANCELONA, MI, 49659","Match","Non_Exact","36 PLUM VALLEY RD NE, MANCELONA, MI, 49659",145928413,"L"
549675,"36 POCAHONTAS LANE","STAFFORD","VA",22554,38.380381748,-77.318294394,175,"36 POCAHONTAS LANE, STAFFORD, VA, 22554","Match","Non_Exact","36 POCOHONTAS LN, STAFFORD, VA, 22554",25582376,"R"
549676,"36 POCHARDS CT","MARTINSBURG","WV",25403,39.5324899510001,-77.9842563399999,176,"36 POCHARDS CT, MARTINSBURG, WV, 25403","Match","Exact","36 POCHARDS CT, MARTINSBURG, WV, 25403",641521132,"L"
549677,"36 POLARIS CT","PARKVILLE","MD",21234,39.376239191,-76.570180282,177,"36 POLARIS CT, PARKVILLE, MD, 21234","Match","Exact","36 POLARIS CT, PARKVILLE, MD, 21234",191475727,"L"
549678,"36 POND ST 2ND FLOOR","NEW HAVEN","CT",6511,41.3343599770001,-72.936573685,178,"36 POND ST 2ND FLOOR, NEW HAVEN, CT, 6511","Match","Exact","36 POND ST, NEW HAVEN, CT, 06511",3699018,"L"
549679,"36 PONDEROSA ROAD","SEDONA","AZ",86351,34.7893101710001,-111.758221203,179,"36 PONDEROSA ROAD, SEDONA, AZ, 86351","Match","Exact","36 PONDEROSA RD, SEDONA, AZ, 86351",159493549,"L"
549680,"36 PORTLAND STREET","NORTH BERWICK","ME",3906,43.30587375,-70.730332215,180,"36 PORTLAND STREET, NORTH BERWICK, ME, 3906","Match","Exact","36 PORTLAND ST, NORTH BERWICK, ME, 03906",92773577,"R"
549681,"36 POTTS AVE","JEFFERSONVILLE","PA",19403,40.139616308,-75.3831947739999,181,"36 POTTS AVE, JEFFERSONVILLE, PA, 19403","Match","Exact","36 POTTS AVE, JEFFERSONVILLE, PA, 19403",135069328,"R"
549682,"36 PRIMROSE LANE","FREEPORT","ME",4032,43.830610339,-70.116305529,182,"36 PRIMROSE LANE, FREEPORT, ME, 4032","Match","Exact","36 PRIMROSE LN, FREEPORT, ME, 04032",627187736,"L"
549683,"36 PRINCETON AVENUE","STATEN ISLAND","NY",10306,40.56930412,-74.12044894,183,"36 PRINCETON AVENUE, STATEN ISLAND, NY, 10306","Match","Exact","36 PRINCETON AVE, STATEN ISLAND, NY, 10306",59867688,"R"
549684,"36 PROCTOR ST","HOPKINTON","MA",1748,42.230478276,-71.543795549,184,"36 PROCTOR ST, HOPKINTON, MA, 1748","Match","Exact","36 PROCTOR ST, HOPKINTON, MA, 01748",87118685,"L"
549685,"36 PROSPECT AVENUE","SWAMPSCOTT","MA",1907,42.4702602840001,-70.9021264049999,185,"36 PROSPECT AVENUE, SWAMPSCOTT, MA, 1907","Match","Exact","36 PROSPECT AVE, SWAMPSCOTT, MA, 01907",86647445,"L"
549686,"36 PROVIDENCE ROAD","MORTON","PA",19070,39.9152515310001,-75.324579896,186,"36 PROVIDENCE ROAD, MORTON, PA, 19070","Match","Exact","36 PROVIDENCE RD, MORTON, PA, 19070",134906170,"R"
549687,"36 PURDUE ST","PUEBLO","CO",81005,38.2489134640001,-104.648243763,187,"36 PURDUE ST, PUEBLO, CO, 81005","Match","Exact","36 PURDUE ST, PUEBLO, CO, 81005",105024589,"L"
549688,"36 PUTNAM AVE","WEST BABYLON","NY",11704,40.7370480910001,-73.3499400969999,188,"36 PUTNAM AVE, WEST BABYLON, NY, 11704","Match","Exact","36 PUTNAM AVE, WEST BABYLON, NY, 11704",113975189,"L"
549689,"36 QUAIL DR","RIDGELAND","SC",29936,32.4903608930001,-81.0167174969999,189,"36 QUAIL DR, RIDGELAND, SC, 29936","Match","Exact","36 QUAIL DR, RIDGELAND, SC, 29936",635051887,"R"
549690,"36 QUAKER HILL ROAD","PAWLING","NY",12564,41.5547360100001,-73.587543371,190,"36 QUAKER HILL ROAD, PAWLING, NY, 12564","Match","Exact","36 QUAKER HILL RD, PAWLING, NY, 12564",4189253,"R"
549691,"36 QUAKER ROAD","SPRING VALLEY","NY",10977,NA,NA,191,"36 QUAKER ROAD, SPRING VALLEY, NY, 10977","No_Match",NA,NA,NA,NA
549692,"36 QUINCY ROAD","CHESNUT HILL","MA",2467,42.335005568,-71.173336916,192,"36 QUINCY ROAD, CHESNUT HILL, MA, 2467","Match","Non_Exact","36 QUINCY RD, CHESTNUT HILL, MA, 02467",636997984,"L"
549693,"36 RACHEL RD","PLEASANT VALLEY","PA",12569,NA,NA,193,"36 RACHEL RD, PLEASANT VALLEY, PA, 12569","No_Match",NA,NA,NA,NA
549694,"36 RAINBOW LANE","HARTWELL","GA",30643,34.368600337,-82.9427665869999,194,"36 RAINBOW LANE, HARTWELL, GA, 30643","Match","Exact","36 RAINBOW LN, HARTWELL, GA, 30643",610578638,"L"
549695,"36 RAINBOW ROAD","SPRINGFIELD","IL",62712,39.7027298240001,-89.5893259219999,195,"36 RAINBOW ROAD, SPRINGFIELD, IL, 62712","Match","Exact","36 RAINBOW RD, SPRINGFIELD, IL, 62712",97331247,"R"
549696,"36 RAKEVILLE CIRCLE","BELLINGHAM","MA",2019,42.026863566,-71.470124335,196,"36 RAKEVILLE CIRCLE, BELLINGHAM, MA, 2019","Match","Exact","36 RAKEVILLE CIR, BELLINGHAM, MA, 02019",87273578,"R"
549697,"36 RANCHO DR","SAN JOSE","CA",95111,37.282123821,-121.838086595,197,"36 RANCHO DR, SAN JOSE, CA, 95111","Match","Exact","36 RANCHO DR, SAN JOSE, CA, 95111",636106886,"R"
549698,"36 RANDALL ROAD","LEBANON","CT",6249,41.5931729760001,-72.233324965,198,"36 RANDALL ROAD, LEBANON, CT, 6249","Match","Exact","36 RANDALL RD, LEBANON, CT, 06249",56837171,"L"
549699,"36 RANDOLPH PLACE","WEST ORANGE","NJ",7052,40.778980276,-74.24675475,199,"36 RANDOLPH PLACE, WEST ORANGE, NJ, 7052","Match","Exact","36 RANDOLPH PL, WEST ORANGE, NJ, 07052",635758095,"L"
549700,"36 RASPBERRY PATH","EAST FALMOUTH","MA",2536,41.627522635,-70.5761697839999,200,"36 RASPBERRY PATH, EAST FALMOUTH, MA, 2536","Match","Exact","36 RASPBERRY PATH, EAST FALMOUTH, MA, 02536",121589013,"L"
549701,"36 RAVENSCROFT","HAMPTON","VA",23669,37.0208001820001,-76.376412473,201,"36 RAVENSCROFT, HAMPTON, VA, 23669","Match","Non_Exact","36 RAVENSCROFT LN, HAMPTON, VA, 23669",640285609,"L"
549702,"36 RAYMOND STREET - UNIT 36B","ALLSTON","MA",2134,42.3615787950001,-71.13376815,202,"36 RAYMOND STREET - UNIT 36B, ALLSTON, MA, 2134","Match","Exact","36 RAYMOND ST, ALLSTON, MA, 02134",85695416,"L"
549703,"36 RAYMOND WAY","ASHLAND","MA",1721,42.2358856920001,-71.4443563259999,203,"36 RAYMOND WAY, ASHLAND, MA, 1721","Match","Exact","36 RAYMOND WAY, ASHLAND, MA, 01721",87174409,"L"
549704,"36 RD 3632","AZTEC","NM",87410,36.7808930140001,-108.08736427,204,"36 RD 3632, AZTEC, NM, 87410","Match","Exact","36 RD 3632, AZTEC, NM, 87410",127469681,"L"
549705,"36 RED STONE ROAD","SUFFIELD","CT",6078,41.958393286,-72.633851098,205,"36 RED STONE ROAD, SUFFIELD, CT, 6078","Match","Non_Exact","36 REDSTONE RD, SUFFIELD, CT, 06078",650939693,"L"
549706,"36 REDHAWK","IRVINE","CA",92604,33.6901581990001,-117.796821141,206,"36 REDHAWK, IRVINE, CA, 92604","Match","Exact","36 REDHAWK, IRVINE, CA, 92604",144057325,"R"
549707,"36 REDWOOD CIRCLE","PEMBROKE","MA",2359,42.0352453260001,-70.772281157,207,"36 REDWOOD CIRCLE, PEMBROKE, MA, 2359","Match","Exact","36 REDWOOD CIR, PEMBROKE, MA, 02359",625402466,"L"
549708,"36 RETFORD DR","BELLA VISTA","AR",72712,36.438154465,-94.278862889,208,"36 RETFORD DR, BELLA VISTA, AR, 72712","Match","Non_Exact","36 RETFORD DR, BELLA VISTA, AR, 72715",47842588,"R"
549709,"36 RHODES PL","LUTHERVILLE TIMONIUM","MD",21093,39.434412637,-76.645846228,209,"36 RHODES PL, LUTHERVILLE TIMONIUM, MD, 21093","Match","Exact","36 RHODES PL, LUTHERVILLE TIMONIUM, MD, 21093",191495033,"R"
549710,"36 RICEMAN ROAD","BERKELEY HEIGHTS","NJ",7922,40.671525462,-74.450727754,210,"36 RICEMAN ROAD, BERKELEY HEIGHTS, NJ, 7922","Match","Exact","36 RICEMAN RD, BERKELEY HEIGHTS, NJ, 07922",60602663,"L"
549711,"36 RICHDALE ROAD","NEEDHAM","MA",2494,42.2935000300001,-71.2243565809999,211,"36 RICHDALE ROAD, NEEDHAM, MA, 2494","Match","Exact","36 RICHDALE RD, NEEDHAM, MA, 02494",87240863,"L"
549712,"36 RICHMOND DR","SKILLMAN","NJ",8558,40.4286843740001,-74.650595153,212,"36 RICHMOND DR, SKILLMAN, NJ, 8558","Match","Exact","36 RICHMOND DR, SKILLMAN, NJ, 08558",59955203,"L"
549713,"36 RICHMOND DRIVE","SKILLMAN","NJ",8558,40.4286843740001,-74.650595153,213,"36 RICHMOND DRIVE, SKILLMAN, NJ, 8558","Match","Exact","36 RICHMOND DR, SKILLMAN, NJ, 08558",59955203,"L"
549714,"36 RICO WAY","SAN FRANCISCO","CA",94123,37.804873564,-122.439047167,214,"36 RICO WAY, SAN FRANCISCO, CA, 94123","Match","Exact","36 RICO WAY, SAN FRANCISCO, CA, 94123",192279460,"R"
549715,"36 RIDGE RD","PLEASANT RIDGE","MI",48069,NA,NA,215,"36 RIDGE RD, PLEASANT RIDGE, MI, 48069","No_Match",NA,NA,NA,NA
549716,"36 RIDGE STREET","CAMPOBELLO","SC",29322,35.1376979120001,-82.0565898689999,216,"36 RIDGE STREET, CAMPOBELLO, SC, 29322","Match","Non_Exact","36 RIDGE RD, CAMPOBELLO, SC, 29322",19529580,"R"
549717,"36 RIPLEY 21N-12","DONIPHAN","MO",63935,NA,NA,217,"36 RIPLEY 21N-12, DONIPHAN, MO, 63935","No_Match",NA,NA,NA,NA
549718,"36 RITA ROAD","BRAINTREE","MA",2184,42.2169391190001,-71.0152468749999,218,"36 RITA ROAD, BRAINTREE, MA, 2184","Match","Exact","36 RITA RD, BRAINTREE, MA, 02184",623689767,"L"
549719,"36 RITTERS RIDGE COURT","OWINGSMILLS","MD",21117,39.418797198,-76.7866444269999,219,"36 RITTERS RIDGE COURT, OWINGSMILLS, MD, 21117","Match","Non_Exact","36 RITTERS RIDGE CT, OWINGS MILLS, MD, 21117",191466022,"L"
549720,"36 RIVER RD","HILLSBORO","MO",63050,38.2697436390001,-90.6543738139999,220,"36 RIVER RD, HILLSBORO, MO, 63050","Match","Exact","36 RIVER RD, HILLSBORO, MO, 63050",62809587,"R"
549721,"36 RIVER RIDGE LANE","ROSIE","AR",72571,35.6713583480001,-91.5120706009999,221,"36 RIVER RIDGE LANE, ROSIE, AR, 72571","Match","Exact","36 RIVER RIDGE LN, ROSIE, AR, 72571",606555500,"R"
549722,"36 RIVER ST APT 202","WALTHAM","MA",2453,42.3682847100001,-71.217110159,222,"36 RIVER ST APT 202, WALTHAM, MA, 2453","Match","Exact","36 RIVER ST, WALTHAM, MA, 02453",86863669,"L"
549723,"36 RIVERDALE AVE","MONMOUTH BCH","NJ",7750,40.32757302,-73.980141693,223,"36 RIVERDALE AVE, MONMOUTH BCH, NJ, 7750","Match","Exact","36 RIVERDALE AVE, MONMOUTH BCH, NJ, 07750",90462396,"L"
549724,"36 RIVERE DRIVE","BEDMINSTER","NJ",7921,40.651098754,-74.6261802339999,224,"36 RIVERE DRIVE, BEDMINSTER, NJ, 7921","Match","Non_Exact","36 REVERE DR, BEDMINSTER, NJ, 07921",59968116,"L"
549725,"36 RIVERHILL AVE","PENACOOK","NH",3303,43.2532213800001,-71.6210826929999,225,"36 RIVERHILL AVE, PENACOOK, NH, 3303","Match","Exact","36 RIVERHILL AVE, PENACOOK, NH, 03303",117742022,"R"
549726,"36 RIVERS ROAD","SMITH","NV",89430,38.7855301320001,-119.346961938,226,"36 RIVERS ROAD, SMITH, NV, 89430","Match","Exact","36 RIVERS RD, SMITH, NV, 89430",140357598,"R"
549727,"36 RIVERVIEW TERRACE","MAHWAH","NJ",7430,41.0938506700001,-74.170246565,227,"36 RIVERVIEW TERRACE, MAHWAH, NJ, 7430","Match","Exact","36 RIVERVIEW TER, MAHWAH, NJ, 07430",64399950,"L"
549728,"36 ROBBINS ROAD","WATERTOWN","MA",2472,42.371737076,-71.177578158,228,"36 ROBBINS ROAD, WATERTOWN, MA, 2472","Match","Exact","36 ROBBINS RD, WATERTOWN, MA, 02472",86864756,"L"
549729,"36 ROBERTS RD","NEW CITY","NY",10956,41.180839141,-74.0011963699999,229,"36 ROBERTS RD, NEW CITY, NY, 10956","Match","Exact","36 ROBERTS RD, NEW CITY, NY, 10956",124591225,"R"
549730,"36 ROBERTS ROAD","CAMBRIDGE","MA",2138,42.376905934,-71.10828529,230,"36 ROBERTS ROAD, CAMBRIDGE, MA, 2138","Match","Exact","36 ROBERTS RD, CAMBRIDGE, MA, 02138",650196789,"R"
549731,"36 ROBIN ROAD","WESTON","MA",2493,42.359065333,-71.275219212,231,"36 ROBIN ROAD, WESTON, MA, 2493","Match","Exact","36 ROBIN RD, WESTON, MA, 02493",86853206,"L"
549732,"36 ROCK MAPLE AVE","HAMILTON","MA",1982,42.62775026,-70.8539033329999,232,"36 ROCK MAPLE AVE, HAMILTON, MA, 1982","Match","Non_Exact","36 ROCKMAPLE AVE, SOUTH HAMILTON, MA, 01982",86654645,"L"
549733,"36 ROCKAWAY STREET","LYNN","MA",1902,42.4689334110001,-70.944150356,233,"36 ROCKAWAY STREET, LYNN, MA, 1902","Match","Exact","36 ROCKAWAY ST, LYNN, MA, 01902",86645724,"L"
549734,"36 ROMNEY PL","SAVANNAH","GA",31406,31.978680028,-81.060304473,234,"36 ROMNEY PL, SAVANNAH, GA, 31406","Match","Exact","36 ROMNEY PL, SAVANNAH, GA, 31406",6180478,"R"
549735,"36 ROOSEVELT BLVD","COHOES","NY",12047,42.7715852910001,-73.71806749,235,"36 ROOSEVELT BLVD, COHOES, NY, 12047","Match","Exact","36 ROOSEVELT BLVD, COHOES, NY, 12047",18312291,"R"
549736,"36 ROSA ROSALES CT","NORTH LAS VEGAS","NV",89031,NA,NA,236,"36 ROSA ROSALES CT, NORTH LAS VEGAS, NV, 89031","No_Match",NA,NA,NA,NA
549737,"36 ROSE CIRCLE","MURRAY","UT",84107,40.651206619,-111.891619762,237,"36 ROSE CIRCLE, MURRAY, UT, 84107","Match","Exact","36 ROSE CIR, MURRAY, UT, 84107",176084884,"R"
549738,"36 ROSE COURT","CHARLESTOWN","RI",2813,41.4465708640001,-71.653671824,238,"36 ROSE COURT, CHARLESTOWN, RI, 2813","Match","Exact","36 ROSE CT, CHARLESTOWN, RI, 02813",58923523,"L"
549739,"36 ROSE TERRACE","CHATHAM","NJ",7928,40.73988861,-74.397467274,239,"36 ROSE TERRACE, CHATHAM, NJ, 7928","Match","Exact","36 ROSE TER, CHATHAM, NJ, 07928",653252533,"R"
549740,"36 ROSS LANE","NORTH HALEDON","NJ",7508,40.954997183,-74.179493034,240,"36 ROSS LANE, NORTH HALEDON, NJ, 7508","Match","Exact","36 ROSS LN, NORTH HALEDON, NJ, 07508",65262082,"R"
549741,"36 ROWELAND AVE","DELMAR","NY",12054,42.6163415300001,-73.8369075159999,241,"36 ROWELAND AVE, DELMAR, NY, 12054","Match","Exact","36 ROWELAND AVE, DELMAR, NY, 12054",18304991,"L"
549742,"36 ROWENA PL","LAFAYETTE","CO",80026,NA,NA,242,"36 ROWENA PL, LAFAYETTE, CO, 80026","No_Match",NA,NA,NA,NA
549743,"36 RYDEERG TERRACE","AUBURN","MA",1501,NA,NA,243,"36 RYDEERG TERRACE, AUBURN, MA, 1501","No_Match",NA,NA,NA,NA
549744,"36 S 18TH AVE STE A","BRIGHTON","CO",80601,NA,NA,244,"36 S 18TH AVE STE A, BRIGHTON, CO, 80601","Tie",NA,NA,NA,NA
549745,"36 S CANAL STREET","GREENE","NY",13778,42.3258738310001,-75.77515708,245,"36 S CANAL STREET, GREENE, NY, 13778","Match","Exact","36 S CANAL ST, GREENE, NY, 13778",46450947,"L"
549746,"36 S FLORIDALE DR","SAINT LOUIS","MO",63136,38.748063347,-90.281866587,246,"36 S FLORIDALE DR, SAINT LOUIS, MO, 63136","Match","Non_Exact","36 S FLORIDALE DR, SAINT LOUIS, MO, 63135",100175044,"L"
549747,"36 S LAFAYETTE SQ","LAGRANGE","GA",30240,33.03872791,-85.0309500129999,247,"36 S LAFAYETTE SQ, LAGRANGE, GA, 30240","Match","Non_Exact","36 LAFAYETTE PKWY, LAGRANGE, GA, 30240",636352664,"R"
549748,"36 S MAIN ST","BELLBROOK","OH",45305,39.635125938,-84.0708313599999,248,"36 S MAIN ST, BELLBROOK, OH, 45305","Match","Exact","36 S MAIN ST, BELLBROOK, OH, 45305",143377772,"R"
549749,"36 S PACA STREET APT 504","BALTIMORE","MD",21201,NA,NA,249,"36 S PACA STREET APT 504, BALTIMORE, MD, 21201","Tie",NA,NA,NA,NA
549750,"36 S PARK PL","AMITYVILLE","NY",11701,NA,NA,250,"36 S PARK PL, AMITYVILLE, NY, 11701","Tie",NA,NA,NA,NA
549751,"36 S STATE ST STE 1400","SALT LAKE CITY","UT",84111,40.768323976,-111.888235809,251,"36 S STATE ST STE 1400, SALT LAKE CITY, UT, 84111","Match","Exact","36 STATE ST, SALT LAKE CITY, UT, 84111",176067323,"R"
549752,"36 S STATE STREET  SUITE 1400","SALT LAKE CITY","UT",84111,40.768323976,-111.888235809,252,"36 S STATE STREET  SUITE 1400, SALT LAKE CITY, UT, 84111","Match","Exact","36 STATE ST, SALT LAKE CITY, UT, 84111",176067323,"R"
549753,"36 SADDLEBROOK DR","SEWELL","NJ",8080,39.770606693,-75.090986575,253,"36 SADDLEBROOK DR, SEWELL, NJ, 8080","Match","Exact","36 SADDLEBROOK DR, SEWELL, NJ, 08080",134606223,"R"
549754,"36 SADYE WEIR STREET","STARKVILLE","MS",39759,33.4743591820001,-88.831851528,254,"36 SADYE WEIR STREET, STARKVILLE, MS, 39759","Match","Exact","36 SADYE WEIR ST, STARKVILLE, MS, 39759",796594,"R"
549755,"36 SAGAMORE ROAD","SHELTON","CT",6484,41.3425458990001,-73.13425821,255,"36 SAGAMORE ROAD, SHELTON, CT, 6484","Match","Exact","36 SAGAMORE RD, SHELTON, CT, 06484",615376493,"L"
549756,"36 SAINT JOHN STREET","GOSHEN","NY",10924,41.4037660180001,-74.323828684,256,"36 SAINT JOHN STREET, GOSHEN, NY, 10924","Match","Exact","36 ST JOHN ST, GOSHEN, NY, 10924",124392741,"R"
549757,"36 SALEM STREET","MALDEN","MA",2148,42.427556586,-71.0651783179999,257,"36 SALEM STREET, MALDEN, MA, 2148","Match","Exact","36 SALEM ST, MALDEN, MA, 02148",86872413,"L"
549758,"36 SAN MIGUEL ROAD","PASADENA","CA",91105,34.140748353,-118.175011646,258,"36 SAN MIGUEL ROAD, PASADENA, CA, 91105","Match","Exact","36 SAN MIGUEL RD, PASADENA, CA, 91105",141614665,"L"
549759,"36 SANDBORN DRIVE","NEWFIELDS","NH",3856,NA,NA,259,"36 SANDBORN DRIVE, NEWFIELDS, NH, 3856","No_Match",NA,NA,NA,NA
549760,"36 SANDER STREET","NEW LONDON","CT",6320,41.335830324,-72.107580168,260,"36 SANDER STREET, NEW LONDON, CT, 6320","Match","Exact","36 SANDER ST, NEW LONDON, CT, 06320",56851278,"L"
549761,"36 SANDY GLEN DRIVE","HOLDEN","MA",1520,42.3192489,-71.830693302,261,"36 SANDY GLEN DRIVE, HOLDEN, MA, 1520","Match","Exact","36 SANDY GLEN DR, HOLDEN, MA, 01520",40005573,"L"
549762,"36 SANDY LANE","MCVEYTOWN","PA",17051,40.5536951490001,-77.6990432489999,262,"36 SANDY LANE, MCVEYTOWN, PA, 17051","Match","Non_Exact","36 SANDY LN, MC VEYTOWN, PA, 17051",48015234,"L"
549763,"36 SANKEYS PATH","LAKE GROVE","NY",11755,40.851820687,-73.110370415,263,"36 SANKEYS PATH, LAKE GROVE, NY, 11755","Match","Exact","36 SANKEYS PATH, LAKE GROVE, NY, 11755",114258893,"L"
549764,"36 SANLEE DRIVE","WILTON","NY",12831,NA,NA,264,"36 SANLEE DRIVE, WILTON, NY, 12831","No_Match",NA,NA,NA,NA
549765,"36 SAW MILL HILL RD","STERLING","CT",6377,NA,NA,265,"36 SAW MILL HILL RD, STERLING, CT, 6377","No_Match",NA,NA,NA,NA
549766,"36 SAYER RD","BLOOMING GROVE","NY",10914,41.41194762,-74.217065942,266,"36 SAYER RD, BLOOMING GROVE, NY, 10914","Match","Exact","36 SAYER RD, BLOOMING GROVE, NY, 10914",124499252,"L"
549767,"36 SCENIC DRIVE","DAYTON","NJ",8810,40.3852637420001,-74.509979087,267,"36 SCENIC DRIVE, DAYTON, NJ, 8810","Match","Exact","36 SCENIC DR, DAYTON, NJ, 08810",626867630,"R"
549768,"36 SCHAPPET TERRACE","LANSDOWNE","PA",19050,39.9374316620001,-75.266858441,268,"36 SCHAPPET TERRACE, LANSDOWNE, PA, 19050","Match","Exact","36 SCHAPPET TER, LANSDOWNE, PA, 19050",134878049,"R"
549769,"36 SCHOOLHOUSE ROAD","ALBANY","NY",12203,42.681422581,-73.843440049,269,"36 SCHOOLHOUSE ROAD, ALBANY, NY, 12203","Match","Exact","36 SCHOOLHOUSE RD, ALBANY, NY, 12203",18347373,"R"
549770,"36 SE 951 RD","KNOB NOSTER","MO",65336,38.7498508100001,-93.569258328,270,"36 SE 951 RD, KNOB NOSTER, MO, 65336","Match","Non_Exact","36 SE 951, KNOB NOSTER, MO, 65336",222835256,"R"
549771,"36 SECURITY STREET","HYANNIS","MA",2601,41.6428372300001,-70.310186356,271,"36 SECURITY STREET, HYANNIS, MA, 2601","Match","Exact","36 SECURITY ST, HYANNIS, MA, 02601",121557036,"R"
549772,"36 SELDEN STREET APT 1","DORCHESTER","MA",2124,42.281477555,-71.0775643539999,272,"36 SELDEN STREET APT 1, DORCHESTER, MA, 2124","Match","Exact","36 SELDEN ST, DORCHESTER, MA, 02124",85705975,"L"
549773,"36 SERVICE ROAD","WEST WARWICK","RI",2893,41.668584072,-71.532821149,273,"36 SERVICE ROAD, WEST WARWICK, RI, 2893","Match","Exact","36 SERVICE RD, WEST WARWICK, RI, 02893",637744951,"L"
549774,"36 SHABARK LANE","HOPEWELL JUNCTION","NY",12533,NA,NA,274,"36 SHABARK LANE, HOPEWELL JUNCTION, NY, 12533","No_Match",NA,NA,NA,NA
549775,"36 SHADOWS END LANE","MILFORD","CT",6460,41.2298619490001,-73.012425279,275,"36 SHADOWS END LANE, MILFORD, CT, 6460","Match","Exact","36 SHADOWS END LN, MILFORD, CT, 06460",3753459,"R"
549776,"36 SHAMROCK DRIVE","ERIN","NY",14838,42.1760608270001,-76.7134551409999,276,"36 SHAMROCK DRIVE, ERIN, NY, 14838","Match","Exact","36 SHAMROCK DR, ERIN, NY, 14838",18562647,"R"
549777,"36 SHEFFIELD ROAD","NORTH HAVEN","CT",6473,41.390128362,-72.824387493,277,"36 SHEFFIELD ROAD, NORTH HAVEN, CT, 6473","Match","Exact","36 SHEFFIELD RD, NORTH HAVEN, CT, 06473",3749193,"R"
549778,"36 SHERBROOKE DRIVE","SMITHTOWN","NY",11787,40.8339942540001,-73.191564494,278,"36 SHERBROOKE DRIVE, SMITHTOWN, NY, 11787","Match","Exact","36 SHERBROOKE DR, SMITHTOWN, NY, 11787",113988676,"R"
549779,"36 SHERWOOD DR","MASTIC BEACH","NY",11951,40.7638473820001,-72.8592333399999,279,"36 SHERWOOD DR, MASTIC BEACH, NY, 11951","Match","Exact","36 SHERWOOD DR, MASTIC BEACH, NY, 11951",114020723,"L"
549780,"36 SHETLAND CIRCLE","ROCHESTER","NY",14624,43.1028185340001,-77.722015234,280,"36 SHETLAND CIRCLE, ROCHESTER, NY, 14624","Match","Exact","36 SHETLAND CIR, ROCHESTER, NY, 14624",14558691,"L"
549781,"36 SHOOTERS HILL LN","TEMPLE","NH",3084,42.8534517030001,-71.832263332,281,"36 SHOOTERS HILL LN, TEMPLE, NH, 3084","Match","Exact","36 SHOOTERS HILL LN, TEMPLE, NH, 03084",624915356,"R"
549782,"36 SHOREWOOD RD","MARBLEHEAD","MA",1945,42.499876564,-70.875915107,282,"36 SHOREWOOD RD, MARBLEHEAD, MA, 1945","Match","Exact","36 SHOREWOOD RD, MARBLEHEAD, MA, 01945",86644391,"L"
549783,"36 SIMONTON COURT","TUCKER","GA",30084,33.870085132,-84.173366636,283,"36 SIMONTON COURT, TUCKER, GA, 30084","Match","Exact","36 SIMONTON CT, TUCKER, GA, 30084",88947656,"L"
549784,"36 SLATER STREET","REHOBOTH","MA",2769,41.908590948,-71.221876649,284,"36 SLATER STREET, REHOBOTH, MA, 2769","Match","Exact","36 SLATER ST, REHOBOTH, MA, 02769",46758761,"R"
549785,"36 SMITH ROAD","WARWICK","MA",1378,42.7187339320001,-72.3145591539999,285,"36 SMITH ROAD, WARWICK, MA, 1378","Match","Exact","36 SMITH RD, WARWICK, MA, 01378",39934748,"L"
549786,"36 SNIPATUIT ROAD","ROCHESTER","MA",2770,41.744091579,-70.8523289839999,286,"36 SNIPATUIT ROAD, ROCHESTER, MA, 2770","Match","Exact","36 SNIPATUIT RD, ROCHESTER, MA, 02770",87476656,"R"
549787,"36 SO FOWLES LANE","WHITEFIELD","ME",4353,44.1454837320001,-69.60503127,287,"36 SO FOWLES LANE, WHITEFIELD, ME, 4353","Match","Exact","36 S FOWLES LN, WHITEFIELD, ME, 04353",610466977,"L"
549788,"36 SOMERSET STREET APT 1A","NEWARK","NJ",7103,40.728781407,-74.1857047839999,288,"36 SOMERSET STREET APT 1A, NEWARK, NJ, 7103","Match","Exact","36 SOMERSET ST, NEWARK, NJ, 07103",63467130,"L"
549789,"36 SOUTH 15TH AVENUE","MOUNT VERNON","NY",10550,40.9078985850001,-73.846866485,289,"36 SOUTH 15TH AVENUE, MOUNT VERNON, NY, 10550","Match","Exact","36 S 15TH AVE, MOUNT VERNON, NY, 10550",139747426,"R"
549790,"36 SOUTH 18TH AVE SUITE A","BRIGHTON","CO",80601,39.9860857800001,-104.800555219,290,"36 SOUTH 18TH AVE SUITE A, BRIGHTON, CO, 80601","Match","Exact","36 S 18TH AVE, BRIGHTON, CO, 80601",177348836,"L"
549791,"36 SOUTH AVE","SALAMANCA","NY",14779,42.1515662130001,-78.7176053919999,291,"36 SOUTH AVE, SALAMANCA, NY, 14779","Match","Exact","36 SOUTH AVE, SALAMANCA, NY, 14779",638551859,"R"
549792,"36 SOUTH DOVER AVE","SOMERSET","NJ",8873,40.488509369,-74.469118422,292,"36 SOUTH DOVER AVE, SOMERSET, NJ, 8873","Match","Exact","36 S DOVER AVE, SOMERSET, NJ, 08873",59942763,"L"
549793,"36 SOUTH FERNWOOD AVE","PITMAN","NJ",8071,39.7348264600001,-75.124482363,293,"36 SOUTH FERNWOOD AVE, PITMAN, NJ, 8071","Match","Exact","36 S FERNWOOD AVE, PITMAN, NJ, 08071",134585983,"R"
549794,"36 SOUTH HAARDT DRIVE","MONTGOMERY","AL",36105,32.343341868,-86.3096907839999,294,"36 SOUTH HAARDT DRIVE, MONTGOMERY, AL, 36105","Match","Exact","36 S HAARDT DR, MONTGOMERY, AL, 36105",1503198,"R"
549795,"36 SOUTH LINCOLN STREET","KEENE","NH",3431,42.935299732,-72.2674298749999,295,"36 SOUTH LINCOLN STREET, KEENE, NH, 3431","Match","Exact","36 S LINCOLN ST, KEENE, NH, 03431",124051197,"R"
549796,"36 SOUTH RD","MT. MARION","NY",12456,42.0349376500001,-73.996705022,296,"36 SOUTH RD, MT. MARION, NY, 12456","Match","Exact","36 SOUTH RD, MOUNT MARION, NY, 12456",41886924,"L"
549797,"36 SOUTH SPRING STREET","MADISONVILLE","KY",42431,37.3286216560001,-87.507886024,297,"36 SOUTH SPRING STREET, MADISONVILLE, KY, 42431","Match","Exact","36 S SPRING ST, MADISONVILLE, KY, 42431",11502358,"R"
549798,"36 SOUTH ST","EDMESTON","NY",13335,42.6946822140001,-75.243624124,298,"36 SOUTH ST, EDMESTON, NY, 13335","Match","Exact","36 SOUTH ST, EDMESTON, NY, 13335",638551453,"L"
549799,"36 SOUTH STATE STREET 8TH FLOOR","SALT LAKE CITY","UT",84111,40.7683761270001,-111.888235809,299,"36 SOUTH STATE STREET 8TH FLOOR, SALT LAKE CITY, UT, 84111","Match","Exact","36 S STATE ST, SALT LAKE CITY, UT, 84111",176067323,"R"
549800,"36 SOUTH STRAWBERRY ST - APT 43","PHILADELPHIA","PA",19106,39.9489991830001,-75.144557692,300,"36 SOUTH STRAWBERRY ST - APT 43, PHILADELPHIA, PA, 19106","Match","Exact","36 S STRAWBERRY ST, PHILADELPHIA, PA, 19106",131424589,"R"
549801,"36 SOUTH STREET","CONCORD","MA",1742,42.448356414,-71.403780376,301,"36 SOUTH STREET, CONCORD, MA, 1742","Match","Exact","36 SOUTH ST, CONCORD, MA, 01742",86843990,"L"
549802,"36 SOUTH STREET","EDMESTON","NY",13335,42.6946822140001,-75.243624124,302,"36 SOUTH STREET, EDMESTON, NY, 13335","Match","Exact","36 SOUTH ST, EDMESTON, NY, 13335",638551453,"L"
549803,"36 SOUTH WABASH - SUITE 1310","CHICAGO","IL",60603,41.8816757550001,-87.626205253,303,"36 SOUTH WABASH - SUITE 1310, CHICAGO, IL, 60603","Match","Non_Exact","36 S WABASH AVE, CHICAGO, IL, 60603",637919080,"R"
549804,"36 SOUTH WABASH 1201","CHICAGO","IL",60603,41.8816757550001,-87.626205253,304,"36 SOUTH WABASH 1201, CHICAGO, IL, 60603","Match","Non_Exact","36 S WABASH AVE, CHICAGO, IL, 60603",637919080,"R"
549805,"36 SPANISH FORT BLVD","NEW ORLEANS","LA",70124,30.020727101,-90.090158767,305,"36 SPANISH FORT BLVD, NEW ORLEANS, LA, 70124","Match","Exact","36 SPANISH FORT BLVD, NEW ORLEANS, LA, 70124",191753188,"R"
549806,"36 SPOONER ST","PORTLAND","ME",4103,NA,NA,306,"36 SPOONER ST, PORTLAND, ME, 4103","No_Match",NA,NA,NA,NA
549807,"36 SPRING ROAD","POUGHKEEPSIE","NY",12601,41.6277498090001,-73.911193708,307,"36 SPRING ROAD, POUGHKEEPSIE, NY, 12601","Match","Exact","36 SPRING RD, POUGHKEEPSIE, NY, 12601",4204559,"R"
549808,"36 SPRING STREET","BRIDGEPORT","CT",6608,41.1960504190001,-73.184439536,308,"36 SPRING STREET, BRIDGEPORT, CT, 6608","Match","Exact","36 SPRING ST, BRIDGEPORT, CT, 06608",3224690,"R"
549809,"36 SPRINGDALE ROAD","SCARSDALE","CA",10583,NA,NA,309,"36 SPRINGDALE ROAD, SCARSDALE, CA, 10583","No_Match",NA,NA,NA,NA
549810,"36 SPRUCE DRIVE","ASHBURNHAM","MA",1430,42.6863485630001,-71.9699971909999,310,"36 SPRUCE DRIVE, ASHBURNHAM, MA, 1430","Match","Exact","36 SPRUCE DR, ASHBURNHAM, MA, 01430",39986144,"R"
549811,"36 ST ANDREWS COURT","WESTAMPTON","NJ",8060,40.013063177,-74.789462731,311,"36 ST ANDREWS COURT, WESTAMPTON, NJ, 8060","Match","Exact","36 ST ANDREWS CT, WESTAMPTON, NJ, 08060",617131340,"R"
549812,"36 ST MARKS PLACE","BROOKLYN","NY",11217,40.682302835,-73.981198413,312,"36 ST MARKS PLACE, BROOKLYN, NY, 11217","Match","Exact","36 ST MARKS PL, BROOKLYN, NY, 11217",59077602,"R"
549813,"36 STANDISH AVE","BRAINTREE","MA",2184,42.1808368280001,-71.012350382,313,"36 STANDISH AVE, BRAINTREE, MA, 2184","Match","Exact","36 STANDISH AVE, BRAINTREE, MA, 02184",87269151,"L"
549814,"36 STANLEY DR","NEW OXFORD","PA",17350,39.8720128860001,-77.0211152269999,314,"36 STANLEY DR, NEW OXFORD, PA, 17350","Match","Exact","36 STANLEY DR, NEW OXFORD, PA, 17350",60883171,"R"
549815,"36 STATE STREET SUITE 1400","SALT LAKE CITY","UT",84111,40.7683761270001,-111.888235809,315,"36 STATE STREET SUITE 1400, SALT LAKE CITY, UT, 84111","Match","Exact","36 STATE ST, SALT LAKE CITY, UT, 84111",176067323,"R"
549816,"36 STATION ST","HOMER CITY","PA",15748,40.5454071450001,-79.1597107169999,316,"36 STATION ST, HOMER CITY, PA, 15748","Match","Exact","36 STATION ST, HOMER CITY, PA, 15748",66290833,"R"
549817,"36 STATION STREET","SCITUATE","MA",2666,NA,NA,317,"36 STATION STREET, SCITUATE, MA, 2666","No_Match",NA,NA,NA,NA
549818,"36 STERLING PLACE","HEMPSTEAD","NY",11550,40.6945504940001,-73.620951522,318,"36 STERLING PLACE, HEMPSTEAD, NY, 11550","Match","Exact","36 STERLING PL, HEMPSTEAD, NY, 11550",147628774,"R"
549819,"36 STONEBRIDGE ROAD","QUEENSBURY","NY",12804,43.290902363,-73.7276905269999,319,"36 STONEBRIDGE ROAD, QUEENSBURY, NY, 12804","Match","Exact","36 STONEBRIDGE RD, QUEENSBURY, NY, 12804",636800885,"L"
549820,"36 STONERIDGE DRIVE","PINE BLUFF","AR",71603,34.173110627,-92.069783188,320,"36 STONERIDGE DRIVE, PINE BLUFF, AR, 71603","Match","Non_Exact","36 STONE RIDGE DR, PINE BLUFF, AR, 71603",627867735,"L"
549821,"36 STONEWALL CIRCLE","WHITE PLAINS","NY",10607,41.0396899190001,-73.808167114,321,"36 STONEWALL CIRCLE, WHITE PLAINS, NY, 10607","Match","Exact","36 STONEWALL CIR, WHITE PLAINS, NY, 10607",139737953,"R"
549822,"36 STONEY POINTE DR","CHAPIN","SC",29036,34.131378914,-81.342347941,322,"36 STONEY POINTE DR, CHAPIN, SC, 29036","Match","Exact","36 STONEY POINTE DR, CHAPIN, SC, 29036",632058401,"L"
549823,"36 STOUGHTON STREET","MEDFORD","MA",2155,42.415108236,-71.1279753049999,323,"36 STOUGHTON STREET, MEDFORD, MA, 2155","Match","Exact","36 STOUGHTON ST, MEDFORD, MA, 02155",86889867,"L"
549824,"36 STRONG ST UNIT 1","BURLINGTON","VT",5401,44.486101596,-73.2220977649999,324,"36 STRONG ST UNIT 1, BURLINGTON, VT, 5401","Match","Exact","36 STRONG ST, BURLINGTON, VT, 05401",135827192,"L"
549825,"36 STURBRIDGE DRIVE","PISCATAWAY","NJ",8854,40.53600737,-74.445075565,325,"36 STURBRIDGE DRIVE, PISCATAWAY, NJ, 8854","Match","Exact","36 STURBRIDGE DR, PISCATAWAY, NJ, 08854",60265169,"L"
549826,"36 STURM LN","JACKSON","NJ",8527,40.135674511,-74.267559475,326,"36 STURM LN, JACKSON, NJ, 8527","Match","Exact","36 STURM LN, JACKSON, NJ, 08527",203719460,"R"
549827,"36 STUYVESANT AVENUE APT 2","BROOKLYN","NY",11221,40.695232307,-73.9344998609999,327,"36 STUYVESANT AVENUE APT 2, BROOKLYN, NY, 11221","Match","Exact","36 STUYVESANT AVE, BROOKLYN, NY, 11221",59079136,"R"
549828,"36 STYMUS AVENUE","BETHPAGE","NY",11714,40.7391377920001,-73.471589002,328,"36 STYMUS AVENUE, BETHPAGE, NY, 11714","Match","Exact","36 STYMUS AVE, BETHPAGE, NY, 11714",147649451,"R"
549829,"36 SUBURBAN BLVD","DELRAN","NJ",8075,40.0078467880001,-74.958755103,329,"36 SUBURBAN BLVD, DELRAN, NJ, 8075","Match","Exact","36 SUBURBAN BLVD, DELRAN, NJ, 08075",134026618,"L"
549830,"36 SULLIVAN STREET","LEXINGTON","MA",2420,42.4823258850001,-71.2516189359999,330,"36 SULLIVAN STREET, LEXINGTON, MA, 2420","Match","Exact","36 SULLIVAN ST, LEXINGTON, MA, 02420",87105130,"L"
549831,"36 SUMAC DR","FELTON","DE",19943,39.04032606,-75.553848542,331,"36 SUMAC DR, FELTON, DE, 19943","Match","Exact","36 SUMAC DR, FELTON, DE, 19943",68092370,"R"
549832,"36 SUMMER STREET","ABINGTON","MA",2351,42.102829302,-70.9478207339999,332,"36 SUMMER STREET, ABINGTON, MA, 2351","Match","Exact","36 SUMMER ST, ABINGTON, MA, 02351",87448447,"L"
549833,"36 SUMMER STREET","EVERETT","MA",NA,42.4085279920001,-71.0522909709999,333,"36 SUMMER STREET, EVERETT, MA, ","Match","Exact","36 SUMMER ST, EVERETT, MA, 02149",86873524,"L"
549834,"36 SUMMIT LAKE DRIVE","DIVIDE","CO",80814,38.9625530600001,-105.215348989,334,"36 SUMMIT LAKE DRIVE, DIVIDE, CO, 80814","Match","Exact","36 SUMMIT LAKE DR, DIVIDE, CO, 80814",130954888,"L"
549835,"36 SUNRISE MESA","CANON CITY","CO",81212,NA,NA,335,"36 SUNRISE MESA, CANON CITY, CO, 81212","Tie",NA,NA,NA,NA
549836,"36 SUNSET DRIVE","GREENCASTLE","IN",46135,39.631766951,-86.86701468,336,"36 SUNSET DRIVE, GREENCASTLE, IN, 46135","Match","Exact","36 SUNSET DR, GREENCASTLE, IN, 46135",50104188,"R"
549837,"36 SUSAN DRIVE","NEWBURGH","NY",12550,41.5314055260001,-74.0057285669999,337,"36 SUSAN DRIVE, NEWBURGH, NY, 12550","Match","Exact","36 SUSAN DR, NEWBURGH, NY, 12550",124466459,"R"
549838,"36 SUSSEX DR","LEWES","DE",19958,38.7698936950001,-75.15198552,338,"36 SUSSEX DR, LEWES, DE, 19958","Match","Exact","36 SUSSEX DR, LEWES, DE, 19958",106081686,"R"
549839,"36 SWEET ARROW DRIVE","HUMMELSTOWN","PA",17036,40.2702880420001,-76.721026377,339,"36 SWEET ARROW DRIVE, HUMMELSTOWN, PA, 17036","Match","Exact","36 SWEET ARROW DR, HUMMELSTOWN, PA, 17036",70846773,"R"
549840,"36 SWEET BIRCH","ROSSVILLE","GA",30741,34.9762645700001,-85.2290808,340,"36 SWEET BIRCH, ROSSVILLE, GA, 30741","Match","Non_Exact","36 SWEET BIRCH DR, ROSSVILLE, GA, 30741",639805398,"L"
549841,"36 SWEETSER DRIVE","BELFAST","ME",4915,44.4193556050001,-69.0354920359999,341,"36 SWEETSER DRIVE, BELFAST, ME, 4915","Match","Exact","36 SWEETSER DR, BELFAST, ME, 04915",75642160,"R"
549842,"36 T ST NE 302","WASHINGTON","DC",20002,NA,NA,342,"36 T ST NE 302, WASHINGTON, DC, 20002","No_Match",NA,NA,NA,NA
549843,"36 TACOMA ST","ROCHESTER","NY",14613,43.1777485010001,-77.634809181,343,"36 TACOMA ST, ROCHESTER, NY, 14613","Match","Exact","36 TACOMA ST, ROCHESTER, NY, 14613",14532107,"R"
549844,"36 TACOMA STREET","ROCHESTER","NY",14613,43.1777485010001,-77.634809181,344,"36 TACOMA STREET, ROCHESTER, NY, 14613","Match","Exact","36 TACOMA ST, ROCHESTER, NY, 14613",14532107,"R"
549845,"36 TAFT HILL TERRACE","ROSLINDALE","MA",2131,42.2879884060001,-71.127860234,345,"36 TAFT HILL TERRACE, ROSLINDALE, MA, 2131","Match","Non_Exact","36 TAFTHILL TER, ROSLINDALE, MA, 02131",85703694,"L"
549846,"36 TALEGA","RANCHO SANTA MARGARI","CA",92688,33.6237778010001,-117.61886963,346,"36 TALEGA, RANCHO SANTA MARGARI, CA, 92688","Match","Non_Exact","36 TALEGA, RANCHO SANTA MARGARITA, CA, 92688",144379111,"R"
549847,"36 TARWALLET ROAD","CUMBERLAND","VA",23040,NA,NA,347,"36 TARWALLET ROAD, CUMBERLAND, VA, 23040","No_Match",NA,NA,NA,NA
549848,"36 TATRO RD","GRISWOLD","CT",6351,41.63110426,-71.887439816,348,"36 TATRO RD, GRISWOLD, CT, 6351","Match","Exact","36 TATRO RD, GRISWOLD, CT, 06351",56866894,"L"
549849,"36 TAYLOR AVE","NORWALK","CT",6854,41.0988724100001,-73.42782525,349,"36 TAYLOR AVE, NORWALK, CT, 6854","Match","Exact","36 TAYLOR AVE, NORWALK, CT, 06854",3250005,"L"
549850,"36 TERESA PLACE","LACKAWANNA","NY",14218,42.8174194970001,-78.8131433619999,350,"36 TERESA PLACE, LACKAWANNA, NY, 14218","Match","Non_Exact","36 TERESA DR, LACKAWANNA, NY, 14218",48303295,"L"
549851,"36 TERRACE RD","PLYMOUTH MEETING","PA",19462,40.1182260940001,-75.316623594,351,"36 TERRACE RD, PLYMOUTH MEETING, PA, 19462","Match","Exact","36 TERRACE RD, PLYMOUTH MEETING, PA, 19462",135105545,"R"
549852,"36 TEXIAN TRL S","ANGLETON","TX",77515,29.1825179910001,-95.411165334,352,"36 TEXIAN TRL S, ANGLETON, TX, 77515","Match","Non_Exact","36 TEXIAN TRL N, ANGLETON, TX, 77515",642833392,"L"
549853,"36 THAMES STREET","SPRINGFIELD","MA",1104,42.1227371370001,-72.593949128,353,"36 THAMES STREET, SPRINGFIELD, MA, 1104","Match","Exact","36 THAMES ST, SPRINGFIELD, MA, 01104",4034520,"L"
549854,"36 THANET WAY","EAST HAMPTON","NY",11937,41.043091664,-72.173511904,354,"36 THANET WAY, EAST HAMPTON, NY, 11937","Match","Exact","36 THANET WAY, EAST HAMPTON, NY, 11937",113960989,"L"
549855,"36 THOROUGHBRED DRIVE","SARATOGA SPRINGS","NY",12866,43.067210802,-73.7871012259999,355,"36 THOROUGHBRED DRIVE, SARATOGA SPRINGS, NY, 12866","Match","Exact","36 THOROUGHBRED DR, SARATOGA SPGS, NY, 12866",18815538,"R"
549856,"36 THREE POINT GARDEN RD","EAST STROUDSBURG","PA",18301,41.0139506940001,-75.1609753819999,356,"36 THREE POINT GARDEN RD, EAST STROUDSBURG, PA, 18301","Match","Exact","36 THREE POINT GARDEN RD, E STROUDSBURG, PA, 18301",648512745,"R"
549857,"36 THURLAND AVE","ASHEVILLE","NC",28803,35.579541545,-82.543366124,357,"36 THURLAND AVE, ASHEVILLE, NC, 28803","Match","Exact","36 THURLAND AVE, ASHEVILLE, NC, 28803",36846622,"L"
549858,"36 THURLES PLACE","ALAMEDA","CA",94502,37.74308425,-122.253350104,358,"36 THURLES PLACE, ALAMEDA, CA, 94502","Match","Exact","36 THURLES PL, ALAMEDA, CA, 94502",125005638,"L"
549859,"36 TIMBER MEADOWS","EDWARDSVILLE","IL",62025,NA,NA,359,"36 TIMBER MEADOWS, EDWARDSVILLE, IL, 62025","Tie",NA,NA,NA,NA
549860,"36 TOBEY RD UNIT 28","DRACUT","MA",1826,42.667218844,-71.314363049,360,"36 TOBEY RD UNIT 28, DRACUT, MA, 1826","Match","Exact","36 TOBEY RD, DRACUT, MA, 01826",86877139,"L"
549861,"36 TOURNAMENT DRIVE S","HAUTHORNE WOODS","CA",60030,NA,NA,361,"36 TOURNAMENT DRIVE S, HAUTHORNE WOODS, CA, 60030","No_Match",NA,NA,NA,NA
549862,"36 TOWNSEND PLACE","ST AUGUSTINE","FL",32092,29.9187427200001,-81.5040552679999,362,"36 TOWNSEND PLACE, ST AUGUSTINE, FL, 32092","Match","Exact","36 TOWNSEND PL, SAINT AUGUSTINE, FL, 32092",639503720,"R"
549863,"36 TOWNSHIP RD","SOUTH POINT","OH",45680,NA,NA,363,"36 TOWNSHIP RD, SOUTH POINT, OH, 45680","No_Match",NA,NA,NA,NA
549864,"36 TRAIL RIDERS LANE","GOSHEN","VA",24429,NA,NA,364,"36 TRAIL RIDERS LANE, GOSHEN, VA, 24429","No_Match",NA,NA,NA,NA
549865,"36 TRAIL RIDERS LANE","GOSHEN","VA",24439,37.9532907290001,-79.551133122,365,"36 TRAIL RIDERS LANE, GOSHEN, VA, 24439","Match","Non_Exact","36 TRL RIDERS, GOSHEN, VA, 24439",63106131,"L"
549866,"36 TRAVIS DRIVE","NEWTON","MA",2467,42.3401562000001,-71.1755887269999,366,"36 TRAVIS DRIVE, NEWTON, MA, 2467","Match","Non_Exact","36 TRAVIS DR, BOSTON COLLEGE, MA, 02467",86866868,"L"
549867,"36 TRENT STREET","WOONSOCKET","RI",2895,42.0133332120001,-71.518934582,367,"36 TRENT STREET, WOONSOCKET, RI, 2895","Match","Exact","36 TRENT ST, WOONSOCKET, RI, 02895",47477258,"L"
549868,"36 TRICKUM BRANCH","MOREHEAD","KY",40351,38.2102108500001,-83.3129074349999,368,"36 TRICKUM BRANCH, MOREHEAD, KY, 40351","Match","Exact","36 TRICKUM BRANCH, MOREHEAD, KY, 40351",39629728,"R"
549869,"36 TURKEY HOP RD","HOLLY POND","AL",35083,34.181586467,-86.61628092,369,"36 TURKEY HOP RD, HOLLY POND, AL, 35083","Match","Non_Exact","36 TURKEY HOP RD W, HOLLY POND, AL, 35083",130249556,"R"
549870,"36 TYLER STREET","LACONIA","NH",3246,43.5257212320001,-71.4646329139999,370,"36 TYLER STREET, LACONIA, NH, 3246","Match","Exact","36 TYLER ST, LACONIA, NH, 03246",145501546,"L"
549871,"36 UNION STREET","WADESBORO","NC",28170,34.992509441,-80.088228638,371,"36 UNION STREET, WADESBORO, NC, 28170","Match","Exact","36 UNION ST, WADESBORO, NC, 28170",12782362,"R"
549872,"36 UNIVERSITY AVENUE","BUFFALO","NY",14214,42.9540371480001,-78.823384806,372,"36 UNIVERSITY AVENUE, BUFFALO, NY, 14214","Match","Exact","36 UNIVERSITY AVE, BUFFALO, NY, 14214",48296187,"L"
549873,"36 UNIVERSITY CIRCLE","TUSCALOOSA","AL",35401,33.204932436,-87.553652719,373,"36 UNIVERSITY CIRCLE, TUSCALOOSA, AL, 35401","Match","Exact","36 UNIVERSITY CIR, TUSCALOOSA, AL, 35401",82148000,"L"
549874,"36 UPPER LADUE ROAD","ST LOUIS","MO",63124,38.6475733610001,-90.387779017,374,"36 UPPER LADUE ROAD, ST LOUIS, MO, 63124","Match","Exact","36 UPPER LADUE RD, SAINT LOUIS, MO, 63124",100192188,"L"
549875,"36 VALLEY AVE APT 1","IOWA CITY","IA",52246,41.6642007140001,-91.5522955759999,375,"36 VALLEY AVE APT 1, IOWA CITY, IA, 52246","Match","Exact","36 VALLEY AVE, IOWA CITY, IA, 52246",84503545,"R"
549876,"36 VALLEY VIEW DR","MOUNTAIN TOP","PA",18707,41.1633126150001,-75.878583755,376,"36 VALLEY VIEW DR, MOUNTAIN TOP, PA, 18707","Match","Exact","36 VALLEY VIEW DR, MOUNTAIN TOP, PA, 18707",80940521,"L"
549877,"36 VALLEYVIEW DRIVE","FORT SALONGA","NY",11768,40.9033946490001,-73.3012054499999,377,"36 VALLEYVIEW DRIVE, FORT SALONGA, NY, 11768","Match","Exact","36 VALLEYVIEW DR, FORT SALONGA, NY, 11768",114056634,"R"
549878,"36 VAN NOSTRAND AVENUE","ROSLYN HEIGHTS","NY",11577,40.7877471130001,-73.6519026729999,378,"36 VAN NOSTRAND AVENUE, ROSLYN HEIGHTS, NY, 11577","Match","Exact","36 VAN NOSTRAND AVE, ROSLYN HEIGHTS, NY, 11577",147662838,"L"
549879,"36 VAN REYPEN","JERSEY CITY","NJ",7306,40.728845839,-74.068721416,379,"36 VAN REYPEN, JERSEY CITY, NJ, 7306","Match","Non_Exact","36 VAN REYPEN ST, JERSEY CITY, NJ, 07306",59604491,"R"
549880,"36 VAN ZANDT ROAD","SKILLMAN","NJ",8558,40.408884067,-74.70802589,380,"36 VAN ZANDT ROAD, SKILLMAN, NJ, 8558","Match","Exact","36 VAN ZANDT RD, SKILLMAN, NJ, 08558",59967554,"L"
549881,"36 VENTURA DRIVE","OAKDALE","CT",6370,41.5032768340001,-72.1623683349999,381,"36 VENTURA DRIVE, OAKDALE, CT, 6370","Match","Exact","36 VENTURA DR, OAKDALE, CT, 06370",56839098,"R"
549882,"36 VIA FELICIA","RANCHO STA MARGARITA","CA",92688,33.653330984,-117.577341732,382,"36 VIA FELICIA, RANCHO STA MARGARITA, CA, 92688","Match","Exact","36 VIA FELICIA, RANCHO SANTA MARGARITA, CA, 92688",144097392,"L"
549883,"36 VICTORIA WAY","ALBANY","NY",12209,42.6461199720001,-73.8048069979999,383,"36 VICTORIA WAY, ALBANY, NY, 12209","Match","Exact","36 VICTORIA WAY, ALBANY, NY, 12209",18346432,"L"
549884,"36 VIENNA","NEWPORT BEACH","CA",92660,33.6132570070001,-117.843658821,384,"36 VIENNA, NEWPORT BEACH, CA, 92660","Match","Exact","36 VIENNA, NEWPORT BEACH, CA, 92660",144416940,"L"
549885,"36 VILLAS CIRCLE","MELVILLE","NY",11747,40.772219369,-73.430047483,385,"36 VILLAS CIRCLE, MELVILLE, NY, 11747","Match","Exact","36 VILLAS CIR, MELVILLE, NY, 11747",114040675,"L"
549886,"36 VIRGINIA AVENUE","WEST ORANGE","NJ",7052,40.7964061330001,-74.230176805,386,"36 VIRGINIA AVENUE, WEST ORANGE, NJ, 7052","Match","Exact","36 VIRGINIA AVE, WEST ORANGE, NJ, 07052",63449448,"L"
549887,"36 VT ROUTE 15 W","JOHNSON","VT",5656,44.635867025,-72.692297614,387,"36 VT ROUTE 15 W, JOHNSON, VT, 5656","Match","Non_Exact","36 STATE RTE 15, JOHNSON, VT, 05656",136616807,"R"
549888,"36 W 18TH ST","JACKSONVILLE","FL",32206,30.354967575,-81.65446717,388,"36 W 18TH ST, JACKSONVILLE, FL, 32206","Match","Exact","36 W 18TH ST, JACKSONVILLE, FL, 32206",83898764,"L"
549889,"36 W 700 N 103","PROVO","UT",84601,40.243031257,-111.659324535,389,"36 W 700 N 103, PROVO, UT, 84601","Match","Non_Exact","36 W 700 N, PROVO, UT, 84601",134209309,"R"
549890,"36 W 9TH ST","BROOKLYN","NY",11231,40.6768080250001,-74.005120523,390,"36 W 9TH ST, BROOKLYN, NY, 11231","Match","Exact","36 W 9TH ST, BROOKLYN, NY, 11231",59093812,"R"
549891,"36 W ALLIGATOR DRIVE","FLETCHER","NC",28732,35.401374316,-82.5237903349999,391,"36 W ALLIGATOR DRIVE, FLETCHER, NC, 28732","Match","Exact","36 ALLIGATOR DR, FLETCHER, NC, 28732",638953816,"R"
549892,"36 W CHANNEL ST","NEWARK","OH",43055,40.0775488200001,-82.413472444,392,"36 W CHANNEL ST, NEWARK, OH, 43055","Match","Exact","36 W CHANNEL ST, NEWARK, OH, 43055",61552233,"R"
549893,"36 W COLORADO BOULEVARD 205","PASADENA","CA",91105,NA,NA,393,"36 W COLORADO BOULEVARD 205, PASADENA, CA, 91105","Tie",NA,NA,NA,NA
549894,"36 W FREEMAN ROAD","FREEMAN TWP","ME",4947,NA,NA,394,"36 W FREEMAN ROAD, FREEMAN TWP, ME, 4947","No_Match",NA,NA,NA,NA
549895,"36 W HILLCREST DR LOT  3","BLOOMSBURG","PA",17815,40.983965933,-76.422880833,395,"36 W HILLCREST DR LOT  3, BLOOMSBURG, PA, 17815","Match","Non_Exact","36 W HILLCREST DR, BLOOMSBURG, PA, 17815",59246696,"R"
549896,"36 W LINCOLN AVENUE","HARTFORD","WI",53027,43.311065279,-88.3794711309999,396,"36 W LINCOLN AVENUE, HARTFORD, WI, 53027","Match","Exact","36 W LINCOLN AVE, HARTFORD, WI, 53027",612735956,"L"
549897,"36 W PALISADES AVENUE","NANUET","NY",10954,41.081550602,-74.016401375,397,"36 W PALISADES AVENUE, NANUET, NY, 10954","Match","Exact","36 W PALISADES AVE, NANUET, NY, 10954",124596539,"R"
549898,"36 W SAN JUAN AVE","PHOENIX","AZ",85013,33.5188707040001,-112.074365449,398,"36 W SAN JUAN AVE, PHOENIX, AZ, 85013","Match","Exact","36 W SAN JUAN AVE, PHOENIX, AZ, 85013",128376564,"R"
549899,"36 WAGNER STREET","BELLEVILLE","PA",17004,40.6102554440001,-77.7225030069999,399,"36 WAGNER STREET, BELLEVILLE, PA, 17004","Match","Exact","36 WAGNER ST, BELLEVILLE, PA, 17004",48016115,"L"
549900,"36 WALDEN RD","CARMEL","NY",10512,41.4679084910001,-73.653203579,400,"36 WALDEN RD, CARMEL, NY, 10512","Match","Exact","36 WALDEN RD, CARMEL, NY, 10512",139679675,"L"
549901,"36 WALKER ROAD","TROY","MO",63379,39.00525536,-90.912087533,401,"36 WALKER ROAD, TROY, MO, 63379","Match","Exact","36 WALKER RD, TROY, MO, 63379",649166527,"R"
549902,"36 WALLI ROAD","SAGLE","ID",83864,48.1861799260001,-116.441294828,402,"36 WALLI ROAD, SAGLE, ID, 83864","Match","Non_Exact","36 WALLI RD, SAGLE, ID, 83860",634620652,"R"
549903,"36 WARFIELD ST","MONTCLAIR","NJ",7043,40.8489141260001,-74.209707958,403,"36 WARFIELD ST, MONTCLAIR, NJ, 7043","Match","Exact","36 WARFIELD ST, MONTCLAIR, NJ, 07043",648869656,"L"
549904,"36 WASHINGTON ST","NOVATO","CA",94947,38.088617405,-122.575979441,404,"36 WASHINGTON ST, NOVATO, CA, 94947","Match","Exact","36 WASHINGTON ST, NOVATO, CA, 94947",192759535,"R"
549905,"36 WATER STREET","NEWBURYPORT","MA",1950,42.8116116590001,-70.8675487419999,405,"36 WATER STREET, NEWBURYPORT, MA, 1950","Match","Exact","36 WATER ST, NEWBURYPORT, MA, 01950",86621189,"R"
549906,"36 WATERFORD DRIVE","WEYMOUTH","MA",2188,42.1885264000001,-70.9660308969999,406,"36 WATERFORD DRIVE, WEYMOUTH, MA, 2188","Match","Exact","36 WATERFORD DR, WEYMOUTH, MA, 02188",87251781,"L"
549907,"36 WATKINS DRIVE","SANDY HOOK","CT",6482,41.4129132950001,-73.278458485,407,"36 WATKINS DRIVE, SANDY HOOK, CT, 6482","Match","Exact","36 WATKINS DR, SANDY HOOK, CT, 06482",627017136,"R"
549908,"36 WAVECREST DR","MASTIC BEACH","NY",11951,40.7762123680001,-72.81853634,408,"36 WAVECREST DR, MASTIC BEACH, NY, 11951","Match","Exact","36 WAVECREST DR, MASTIC BEACH, NY, 11951",114021516,"R"
549909,"36 WAYNE STREET","WORCESTER","MA",10603,42.247553785,-71.839335255,409,"36 WAYNE STREET, WORCESTER, MA, 10603","Match","Non_Exact","36 WAYNE ST, WORCESTER, MA, 01603",40007890,"R"
549910,"36 WEBSTER LANE","ROCKY HILL","CT",6067,41.66091634,-72.657137543,410,"36 WEBSTER LANE, ROCKY HILL, CT, 6067","Match","Exact","36 WEBSTER LN, ROCKY HILL, CT, 06067",624941063,"L"
549911,"36 WELD STREET","LOCKPORT","NY",14094,43.1590161820001,-78.6994947749999,411,"36 WELD STREET, LOCKPORT, NY, 14094","Match","Exact","36 WELD ST, LOCKPORT, NY, 14094",48691286,"L"
549912,"36 WELLESLEY","PLEASANT RIDGE","MI",48069,42.4726694760001,-83.139387561,412,"36 WELLESLEY, PLEASANT RIDGE, MI, 48069","Match","Non_Exact","36 WELLESLEY DR, PLEASANT RDG, MI, 48069",69810784,"R"
549913,"36 WENTWORTH LN","BRYN MAWR","PA",19010,40.0240887510001,-75.337929225,413,"36 WENTWORTH LN, BRYN MAWR, PA, 19010","Match","Exact","36 WENTWORTH LN, BRYN MAWR, PA, 19010",134872774,"R"
549914,"36 WEST 138TH STREET APT 2","NEW YORK","NY",10037,40.815372999,-73.9379074509999,414,"36 WEST 138TH STREET APT 2, NEW YORK, NY, 10037","Match","Exact","36 W 138TH ST, NEW YORK, NY, 10037",611226016,"L"
549915,"36 WEST 18TH STREET","JACKSONVILLE","FL",32206,30.354967652,-81.6544575519999,415,"36 WEST 18TH STREET, JACKSONVILLE, FL, 32206","Match","Exact","36 W 18TH ST, JACKSONVILLE, FL, 32206",83898764,"L"
549916,"36 WEST 22ND STREET","NEW YORK","NY",10010,40.7413883460001,-73.9912882849999,416,"36 WEST 22ND STREET, NEW YORK, NY, 10010","Match","Exact","36 W 22ND ST, NEW YORK, NY, 10010",59653500,"L"
549917,"36 WEST 74TH 5A","NEW YORK","NY",10023,40.778127585,-73.976410549,417,"36 WEST 74TH 5A, NEW YORK, NY, 10023","Match","Non_Exact","36 W 74TH ST, NEW YORK, NY, 10023",650156419,"L"
549918,"36 WEST BABBITT ST","DAYTON","OH",45405,39.768210095,-84.195562971,418,"36 WEST BABBITT ST, DAYTON, OH, 45405","Match","Exact","36 W BABBITT ST, DAYTON, OH, 45405",143591470,"L"
549919,"36 WEST FOX TRAIL RD","MANCHESTER","KY",40962,37.1912859350001,-83.790810225,419,"36 WEST FOX TRAIL RD, MANCHESTER, KY, 40962","Match","Exact","36 W FOX TRAIL RD, MANCHESTER, KY, 40962",623812546,"L"
549920,"36 WEST LANCASTER AVENUE","DOWNINGTOWN","PA",19335,40.0047524350001,-75.706828187,420,"36 WEST LANCASTER AVENUE, DOWNINGTOWN, PA, 19335","Match","Exact","36 W LANCASTER AVE, DOWNINGTOWN, PA, 19335",179485925,"L"
549921,"36 WEST MAIN STREET PO BOX 53","LUDLOW","PA",16333,41.72867882,-78.9445331859999,421,"36 WEST MAIN STREET PO BOX 53, LUDLOW, PA, 16333","Match","Exact","36 W MAIN ST, LUDLOW, PA, 16333",122634659,"R"
549922,"36 WEST MAIN STREET","SHIREMANSTOWN","PA",17011,40.222934208,-76.9556244729999,422,"36 WEST MAIN STREET, SHIREMANSTOWN, PA, 17011","Match","Exact","36 W MAIN ST, SHIREMANSTOWN, PA, 17011",60986207,"L"
549923,"36 WEST RAILROAD AVE","EASTAMPTON","NJ",8060,39.9819632900001,-74.757309069,423,"36 WEST RAILROAD AVE, EASTAMPTON, NJ, 8060","Match","Exact","36 W RAILROAD AVE, EASTAMPTON, NJ, 08060",617128578,"L"
549924,"36 WEST RIDGE DRIVE","ROCKY HILL","CT",6067,41.6469624600001,-72.71076934,424,"36 WEST RIDGE DRIVE, ROCKY HILL, CT, 6067","Match","Exact","36 W RIDGE DR, ROCKY HILL, CT, 06067",604950694,"R"
549925,"36 WESTBOURNE ROAD","CONCORD","NH",3301,43.2039079250001,-71.5525206139999,425,"36 WESTBOURNE ROAD, CONCORD, NH, 3301","Match","Exact","36 WESTBOURNE RD, CONCORD, NH, 03301",117716547,"R"
549926,"36 WESTERLY DRIVE","NEW CITY","NY",10956,41.134178891,-73.97290087,426,"36 WESTERLY DRIVE, NEW CITY, NY, 10956","Match","Exact","36 WESTERLY DR, NEW CITY, NY, 10956",640624779,"R"
549927,"36 WESTMINSTER COURT APT A","ROXBURY","MA",2119,42.3162260760001,-71.0935730639999,427,"36 WESTMINSTER COURT APT A, ROXBURY, MA, 2119","Match","Exact","36 WESTMINSTER CT, ROXBURY, MA, 02119",85718176,"L"
549928,"36 WESTMINSTER COURT APT H","ROXBURY","MA",2119,42.3162260760001,-71.0935730639999,428,"36 WESTMINSTER COURT APT H, ROXBURY, MA, 2119","Match","Exact","36 WESTMINSTER CT, ROXBURY, MA, 02119",85718176,"L"
549929,"36 WESTMORELAND","ROCHESTER","NY",14620,43.1144607200001,-77.623694816,429,"36 WESTMORELAND, ROCHESTER, NY, 14620","Match","Non_Exact","36 WESTMORELAND DR, ROCHESTER, NY, 14620",14534508,"R"
549930,"36 WETHERSFIELD ROAD","NATICK","MA",1760,42.3055393860001,-71.3526164739999,430,"36 WETHERSFIELD ROAD, NATICK, MA, 1760","Match","Exact","36 WETHERSFIELD RD, NATICK, MA, 01760",86852169,"L"
549931,"36 WHEELER RD","ENFIELD","CT",6082,42.024075581,-72.538778281,431,"36 WHEELER RD, ENFIELD, CT, 6082","Match","Non_Exact","36 WHEELER DR, ENFIELD, CT, 06082",3480705,"L"
549932,"36 WHISPERING WINDS WAY","MARBLE","NC",28905,35.17076088,-83.914178728,432,"36 WHISPERING WINDS WAY, MARBLE, NC, 28905","Match","Exact","36 WHISPERING WINDS WAY, MARBLE, NC, 28905",35843381,"L"
549933,"36 WHITMAN RD","WORCESTER","MA",1609,42.2822979590001,-71.810920164,433,"36 WHITMAN RD, WORCESTER, MA, 1609","Match","Exact","36 WHITMAN RD, WORCESTER, MA, 01609",40009081,"R"
549934,"36 WILDEOAK CT","COLUMBIA","SC",29223,34.091666461,-80.879719358,434,"36 WILDEOAK CT, COLUMBIA, SC, 29223","Match","Exact","36 WILDEOAK CT, COLUMBIA, SC, 29223",71864713,"L"
549935,"36 WILDERNESS LANE","INEZ","KY",41224,37.8956058000001,-82.554381013,435,"36 WILDERNESS LANE, INEZ, KY, 41224","Match","Exact","36 WILDERNESS LN, INEZ, KY, 41224",34881257,"R"
549936,"36 WILDEWOOD LN","DOVER","NH",3820,NA,NA,436,"36 WILDEWOOD LN, DOVER, NH, 3820","Tie",NA,NA,NA,NA
549937,"36 WILLIAM PRICE PARKWAY","BUFFALO","NY",14214,42.945816295,-78.829646876,437,"36 WILLIAM PRICE PARKWAY, BUFFALO, NY, 14214","Match","Exact","36 WILLIAM PRICE PKWY, BUFFALO, NY, 14214",631619008,"R"
549938,"36 WILLIS DRIVE","EWING","NJ",8628,40.2722682400001,-74.841467903,438,"36 WILLIS DRIVE, EWING, NJ, 8628","Match","Exact","36 WILLIS DR, EWING, NJ, 08628",60198586,"L"
549939,"36 WILLOW RD","GREENVILLE","RI",2828,41.8745462800001,-71.540181418,439,"36 WILLOW RD, GREENVILLE, RI, 2828","Match","Exact","36 WILLOW RD, GREENVILLE, RI, 02828",47449753,"L"
549940,"36 WILLOW STREET","ADAMS","MA",1220,42.6137130700001,-73.128143713,440,"36 WILLOW STREET, ADAMS, MA, 1220","Match","Exact","36 WILLOW ST, ADAMS, MA, 01220",3918888,"L"
549941,"36 WILLOWCREST DRIVE","WINDSOR","CT",6095,41.8217318800001,-72.681715447,441,"36 WILLOWCREST DRIVE, WINDSOR, CT, 6095","Match","Exact","36 WILLOWCREST DR, WINDSOR, CT, 06095",647245207,"R"
549942,"36 WILMA STREET","PROVIDENCE","RI",2904,41.8578763790001,-71.414000798,442,"36 WILMA STREET, PROVIDENCE, RI, 2904","Match","Non_Exact","36 WILNA ST, PROVIDENCE, RI, 02904",47518114,"R"
549943,"36 WINDERSAL LANE","PARKVILLE","MD",21234,39.4063783140001,-76.538907049,443,"36 WINDERSAL LANE, PARKVILLE, MD, 21234","Match","Exact","36 WINDERSAL LN, PARKVILLE, MD, 21234",191476518,"L"
549944,"36 WINDSOR PLACE","BROOKLYN","NY",11215,40.66144203,-73.98428703,444,"36 WINDSOR PLACE, BROOKLYN, NY, 11215","Match","Exact","36 WINDSOR PL, BROOKLYN, NY, 11215",59075825,"R"
549945,"36 WINNER AVE","COLUMBUS","OH",43203,39.967058464,-82.9661505299999,445,"36 WINNER AVE, COLUMBUS, OH, 43203","Match","Exact","36 WINNER AVE, COLUMBUS, OH, 43203",652711880,"R"
549946,"36 WINONA AVE","LINCOLN PARK","NJ",7035,40.9216925170001,-74.3092445569999,446,"36 WINONA AVE, LINCOLN PARK, NJ, 7035","Match","Exact","36 WINONA AVE, LINCOLN PARK, NJ, 07035",60429053,"R"
549947,"36 WOODCREST CIRCLE","FAIRPORT","NY",14450,43.08658344,-77.459717793,447,"36 WOODCREST CIRCLE, FAIRPORT, NY, 14450","Match","Exact","36 WOODCREST CIR, FAIRPORT, NY, 14450",14547753,"R"
549948,"36 WOODGATE COURT","MIDDLETOWN","OH",45044,39.4481019940001,-84.4125072699999,448,"36 WOODGATE COURT, MIDDLETOWN, OH, 45044","Match","Exact","36 WOODGATE CT, MIDDLETOWN, OH, 45044",113818243,"R"
549949,"36 WOODHOLLOW ROAD","PRINCETON JUNCTION","NJ",8550,40.285176463,-74.6425081249999,449,"36 WOODHOLLOW ROAD, PRINCETON JUNCTION, NJ, 8550","Match","Exact","36 WOODHOLLOW RD, PRINCETON JCT, NJ, 08550",60226501,"L"
549950,"36 WOODLAND DR","NEW ULM","MN",56073,44.3014293910001,-94.4689138159999,450,"36 WOODLAND DR, NEW ULM, MN, 56073","Match","Exact","36 WOODLAND DR, NEW ULM, MN, 56073",28569145,"L"
549951,"36 WOODLAND DRIVE","BRIDGETON","NJ",8302,39.421061174,-75.2378220849999,451,"36 WOODLAND DRIVE, BRIDGETON, NJ, 8302","Match","Exact","36 WOODLAND DR, BRIDGETON, NJ, 08302",174108830,"L"
549952,"36 WOODLAND ROAD","RINGWOOD","NJ",7456,41.1115267530001,-74.247166197,452,"36 WOODLAND ROAD, RINGWOOD, NJ, 7456","Match","Exact","36 WOODLAND RD, RINGWOOD, NJ, 07456",65279051,"L"
549953,"36 WOODLAWN AVENUE","HAMPTON","GA",30228,33.3835926040001,-84.288537678,453,"36 WOODLAWN AVENUE, HAMPTON, GA, 30228","Match","Exact","36 WOODLAWN AVE, HAMPTON, GA, 30228",23186793,"L"
549954,"36 WOODSIDE AVE","WINTHROP","MA",2152,42.3750492980001,-70.987029273,454,"36 WOODSIDE AVE, WINTHROP, MA, 2152","Match","Exact","36 WOODSIDE AVE, WINTHROP, MA, 02152",85714721,"L"
549955,"36 WOODWARD LN","PALM COAST","FL",32164,29.5441965160001,-81.260503662,455,"36 WOODWARD LN, PALM COAST, FL, 32164","Match","Exact","36 WOODWARD LN, PALM COAST, FL, 32164",94956291,"R"
549956,"36 WORRALL RD","PLYMOUTH","MA",2360,41.9335455,-70.7208127819999,456,"36 WORRALL RD, PLYMOUTH, MA, 2360","Match","Exact","36 WORRALL RD, PLYMOUTH, MA, 02360",87437461,"R"
549957,"36 WRIGHT CIRCLE","ATTLEBORO","MA",2703,41.903310291,-71.33331786,457,"36 WRIGHT CIRCLE, ATTLEBORO, MA, 2703","Match","Exact","36 WRIGHT CIR, ATTLEBORO, MA, 02703",46845979,"R"
549958,"36 YELLOWSTONE DRIVE","NEW ORLEANS","LA",70131,29.916227599,-90.0094942549999,458,"36 YELLOWSTONE DRIVE, NEW ORLEANS, LA, 70131","Match","Exact","36 YELLOWSTONE DR, NEW ORLEANS, LA, 70131",191730391,"L"
549959,"36 YORK AVENUE","PAWTUCKET","RI",2861,NA,NA,459,"36 YORK AVENUE, PAWTUCKET, RI, 2861","No_Match",NA,NA,NA,NA
549960,"36 YORK RD","WAYLAND","MA",1778,42.4039240050001,-71.353083176,460,"36 YORK RD, WAYLAND, MA, 1778","Match","Exact","36 YORK RD, WAYLAND, MA, 01778",87134229,"L"
549961,"36 ZAITZ FARM ROAD","WEST WINDSOR","NJ",8550,40.277856672,-74.5865616959999,461,"36 ZAITZ FARM ROAD, WEST WINDSOR, NJ, 8550","Match","Exact","36 ZAITZ FARM RD, WEST WINDSOR, NJ, 08550",60227892,"L"
549962,"36-01 10TH STREET","ASTORIA","NY",11106,40.7612836160001,-73.940853502,462,"36-01 10TH STREET, ASTORIA, NY, 11106","Match","Exact","36-01 10TH ST, ASTORIA, NY, 11106",59696185,"L"
549963,"36-01 20 ROAD","ASTORIA","NY",11105,40.7769130500001,-73.9049643289999,463,"36-01 20 ROAD, ASTORIA, NY, 11105","Match","Exact","36-01 20TH RD, ASTORIA, NY, 11105",59697316,"L"
549964,"36-01 36TH AVE","ASTORIA","NY",11106,40.75468643,-73.9256832629999,464,"36-01 36TH AVE, ASTORIA, NY, 11106","Match","Non_Exact","36 36TH AVE, ASTORIA, NY, 11101",59698076,"L"
549965,"36-05 29TH STREET APT E15","ASTORIA","NY",11106,40.757161049,-73.931484718,465,"36-05 29TH STREET APT E15, ASTORIA, NY, 11106","Match","Exact","36-5 29TH ST, ASTORIA, NY, 11106",59696770,"L"
549966,"36-06 9TH STREET","ASTORIA","NY",11106,40.7615131040001,-73.9417289209999,466,"36-06 9TH STREET, ASTORIA, NY, 11106","Match","Exact","36-6 9TH ST, ASTORIA, NY, 11106",59696183,"R"
549967,"36-08 192ND STREET","FLUSHING","NY",11358,40.7634858960001,-73.7902392619999,467,"36-08 192ND STREET, FLUSHING, NY, 11358","Match","Exact","36-8 192ND ST, FLUSHING, NY, 11358",59702678,"R"
549968,"36-08 BEACH CHANNEL DRIVE 10A","FAR ROCKAWAY","NY",11691,NA,NA,468,"36-08 BEACH CHANNEL DRIVE 10A, FAR ROCKAWAY, NY, 11691","No_Match",NA,NA,NA,NA
549969,"36-102 SHANDONG RD GARDEN RIZHAO","CHINA",NA,NA,NA,NA,469,"36-102 SHANDONG RD GARDEN RIZHAO, CHINA, , ","No_Match",NA,NA,NA,NA
549970,"36-16 193RD STREET APT 2","FLUSHING","NY",11358,40.763578378,-73.789313883,470,"36-16 193RD STREET APT 2, FLUSHING, NY, 11358","Match","Exact","36-16 193RD ST, FLUSHING, NY, 11358",59702685,"R"
549971,"36-19 193 STREET","FLUSHING","NY",11358,40.763558888,-73.789296528,471,"36-19 193 STREET, FLUSHING, NY, 11358","Match","Exact","36-19 193RD ST, FLUSHING, NY, 11358",59702685,"L"
549972,"36-20 52 STREET UNIT GE","WOODSIDE","NY",11377,NA,NA,472,"36-20 52 STREET UNIT GE, WOODSIDE, NY, 11377","No_Match",NA,NA,NA,NA
549973,"36-28 UNION STREET 3RD FL","FLUSHING","NY",11354,40.7633547500001,-73.827984525,473,"36-28 UNION STREET 3RD FL, FLUSHING, NY, 11354","Match","Exact","36-28 UNION ST, FLUSHING, NY, 11354",640871047,"R"
549974,"36-2884 LOYOLA ROAD","OOKALA","HI",96774,NA,NA,474,"36-2884 LOYOLA ROAD, OOKALA, HI, 96774","No_Match",NA,NA,NA,NA
549975,"36-29 172ND ST APT 60","FLUSHING","NY",11358,40.7625349310001,-73.7942465909999,475,"36-29 172ND ST APT 60, FLUSHING, NY, 11358","Match","Exact","36-29 172ND ST, FLUSHING, NY, 11358",59702386,"L"
549976,"36-33 169TH STREET APT 2R","FLUSHING","NY",11358,40.7622870110001,-73.7971086589999,476,"36-33 169TH STREET APT 2R, FLUSHING, NY, 11358","Match","Exact","36-33 169TH ST, FLUSHING, NY, 11358",59702366,"L"
549977,"36-33 169TH STREET","FLUSHING","NE",11358,NA,NA,477,"36-33 169TH STREET, FLUSHING, NE, 11358","No_Match",NA,NA,NA,NA
549978,"36-33 169TH STRET","FLUSHING","NY",11358,40.7622870110001,-73.7971086589999,478,"36-33 169TH STRET, FLUSHING, NY, 11358","Match","Non_Exact","36-33 169TH ST, FLUSHING, NY, 11358",59702366,"L"
549979,"36-36 PRICE ST ROOM 304","FLUSHING","NY",11354,NA,NA,479,"36-36 PRICE ST ROOM 304, FLUSHING, NY, 11354","No_Match",NA,NA,NA,NA
549980,"36-36 PRINCE STREET SUITE 308","FLUSHING","NY",11354,40.7613891730001,-73.832888398,480,"36-36 PRINCE STREET SUITE 308, FLUSHING, NY, 11354","Match","Exact","36-36 PRINCE ST, FLUSHING, NY, 11354",59700234,"R"
549981,"36-39 THORNBROOK DRIVE","GREENVILLE","NC",27834,NA,NA,481,"36-39 THORNBROOK DRIVE, GREENVILLE, NC, 27834","No_Match",NA,NA,NA,NA
549982,"36-57 MAIN ST UNIT 207","FLUSHING","NY",11354,40.7621532490001,-73.831474707,482,"36-57 MAIN ST UNIT 207, FLUSHING, NY, 11354","Match","Exact","36-57 MAIN ST, FLUSHING, NY, 11354",640871044,"L"
549983,"36-A CALLE ROBERTO CLEMENTE EXT","SAN AGUSTIN SAN JUAN","PR",926,NA,NA,483,"36-A CALLE ROBERTO CLEMENTE EXT, SAN AGUSTIN SAN JUAN, PR, 926","No_Match",NA,NA,NA,NA
549984,"36-C BURROUGHS STREET","BOSTON","MA",2130,42.313047012,-71.1164815989999,484,"36-C BURROUGHS STREET, BOSTON, MA, 2130","Match","Exact","36 BURROUGHS ST, BOSTON, MA, 02130",647323809,"L"
549985,"36","AMELIA","OH",45102,NA,NA,485,"36, AMELIA, OH, 45102","No_Match",NA,NA,NA,NA
549986,"36","CLARKSTON","GA",30021,NA,NA,486,"36, CLARKSTON, GA, 30021","No_Match",NA,NA,NA,NA
549987,"36","DECATUR","GA",30034,NA,NA,487,"36, DECATUR, GA, 30034","No_Match",NA,NA,NA,NA
549988,"36","DULUTH","GA",30095,NA,NA,488,"36, DULUTH, GA, 30095","No_Match",NA,NA,NA,NA
549989,"36","LAGUNA NIGUEL","CA",92677,NA,NA,489,"36, LAGUNA NIGUEL, CA, 92677","No_Match",NA,NA,NA,NA
549990,"36","WEBSTER","FL",33597,NA,NA,490,"36, WEBSTER, FL, 33597","No_Match",NA,NA,NA,NA
549991,"36/38 JEFFERSON AVENUE","SALEM","MA",1970,42.513488194,-70.9001294129999,491,"36/38 JEFFERSON AVENUE, SALEM, MA, 1970","Match","Exact","36 JEFFERSON AVE, SALEM, MA, 01970",86643587,"R"
549992,"360 1/2 N RAILROAD AVE","PAXTON","IL",60957,NA,NA,492,"360 1/2 N RAILROAD AVE, PAXTON, IL, 60957","No_Match",NA,NA,NA,NA
549993,"360 12TH STREET","MANISTEE","MI",49660,44.2349586240001,-86.3218139809999,493,"360 12TH STREET, MANISTEE, MI, 49660","Match","Exact","360 12TH ST, MANISTEE, MI, 49660",146023327,"R"
549994,"360 1ST AVENUE NUMBER 105","SAN MATEO","CA",94401,37.5674618890001,-122.323472592,494,"360 1ST AVENUE NUMBER 105, SAN MATEO, CA, 94401","Match","Exact","360 1ST AVE, SAN MATEO, CA, 94401",192377937,"R"
549995,"360 2ND AVENUE NORTH APARTMENT C","SAFETY HARBOR","FL",34695,27.993234445,-82.689125024,495,"360 2ND AVENUE NORTH APARTMENT C, SAFETY HARBOR, FL, 34695","Match","Exact","360 2ND AVE N, SAFETY HARBOR, FL, 34695",124684324,"R"
549996,"360 4TH AVENUE","PELHAM","NY",10803,40.91665469,-73.807977766,496,"360 4TH AVENUE, PELHAM, NY, 10803","Match","Exact","360 4TH AVE, PELHAM, NY, 10803",139749169,"R"
549997,"360 5TH ST","MARYSVILLE","MI",48040,42.924489431,-82.483421557,497,"360 5TH ST, MARYSVILLE, MI, 48040","Match","Exact","360 5TH ST, MARYSVILLE, MI, 48040",110958484,"R"
549998,"360 6TH ST SE","MEDFORD","MN",55049,44.170051098,-93.237356348,498,"360 6TH ST SE, MEDFORD, MN, 55049","Match","Exact","360 6TH ST SE, MEDFORD, MN, 55049",648008037,"R"
549999,"360 6TH STREET SOUTH","SAINT PETERSBURG","FL",33701,27.767650034,-82.641721839,499,"360 6TH STREET SOUTH, SAINT PETERSBURG, FL, 33701","Match","Exact","360 6TH ST S, SAINT PETERSBURG, FL, 33701",124708228,"L"
550000,"360 74TH AVE NE","FRIDLEY","MN",55432,45.103150993,-93.262373457,500,"360 74TH AVE NE, FRIDLEY, MN, 55432","Match","Exact","360 74TH AVE NE, FRIDLEY, MN, 55432",97487198,"R"
