"ID","Address","City","State","Zip","lat","long","id","input_address","match_indicator","match_type","matched_address","tiger_line_id","tiger_side"
438501,"2727 NELSON RD APT 208","LONGMONT","CO",80503,NA,NA,1,"2727 NELSON RD APT 208, LONGMONT, CO, 80503","No_Match",NA,NA,NA,NA
438502,"2727 NELSON RD APT C106","LONGMONT","CO",80503,NA,NA,2,"2727 NELSON RD APT C106, LONGMONT, CO, 80503","No_Match",NA,NA,NA,NA
438503,"2727 NICOLLET AVENUE SUITE 207","MINNEAPOLIS","MN",55408,44.953194716,-93.27789039,3,"2727 NICOLLET AVENUE SUITE 207, MINNEAPOLIS, MN, 55408","Match","Exact","2727 NICOLLET AVE, MINNEAPOLIS, MN, 55408",43632303,"L"
438504,"2727 NORTH PENNSYLVANIA STREET","INDIANAPOLIS","IN",46205,39.805837941,-86.155440875,4,"2727 NORTH PENNSYLVANIA STREET, INDIANAPOLIS, IN, 46205","Match","Exact","2727 N PENNSYLVANIA ST, INDIANAPOLIS, IN, 46205",107989636,"R"
438505,"2727 NORTH WINNIFRED","TACOMA","WA",98407,47.2720949280001,-122.511745065,5,"2727 NORTH WINNIFRED, TACOMA, WA, 98407","Match","Non_Exact","2727 N WINNIFRED ST, TACOMA, WA, 98407",184643989,"R"
438506,"2727 NW 17TH TERRACE 205","MIAMI","FL",33125,25.791033321,-80.240941966,6,"2727 NW 17TH TERRACE 205, MIAMI, FL, 33125","Match","Non_Exact","2727 NW 17TH TER, MIAMI, FL, 33125",116011359,"R"
438507,"2727 NW FLORIDA AVENUE","STUART","FL",34994,27.242625618,-80.286048197,7,"2727 NW FLORIDA AVENUE, STUART, FL, 34994","Match","Exact","2727 FLORIDA AVE, STUART, FL, 34994",120169779,"R"
438508,"2727 OCEOLA STREET","BATON ROUGE","LA",70805,NA,NA,8,"2727 OCEOLA STREET, BATON ROUGE, LA, 70805","No_Match",NA,NA,NA,NA
438509,"2727 PACES FERRY RD SE 1-240","ATLANTA","GA",30339,33.8654173630001,-84.473509684,9,"2727 PACES FERRY RD SE 1-240, ATLANTA, GA, 30339","Match","Exact","2727 PACES FERRY RD SE, ATLANTA, GA, 30339",17251410,"L"
438510,"2727 PACES FERRY RD SE 1-240","ATLANTA,","GA",30093,33.8654173630001,-84.473509684,10,"2727 PACES FERRY RD SE 1-240, ATLANTA,, GA, 30093","Match","Non_Exact","2727 PACES FERRY RD SE, ATLANTA, GA, 30339",17251410,"L"
438511,"2727 PACES FERRY RD SE STE 1-240","ATLANTA","GA",30339,33.8654173630001,-84.473509684,11,"2727 PACES FERRY RD SE STE 1-240, ATLANTA, GA, 30339","Match","Exact","2727 PACES FERRY RD SE, ATLANTA, GA, 30339",17251410,"L"
438512,"2727 PACES FERRY RD STE 1-240","ATLANTA","GA",30339,33.8654173630001,-84.473509684,12,"2727 PACES FERRY RD STE 1-240, ATLANTA, GA, 30339","Match","Non_Exact","2727 PACES FERRY RD SE, ATLANTA, GA, 30339",17251410,"L"
438513,"2727 PACES FERRY RD SUITE 750","ATLANTA","GA",30339,33.8654173630001,-84.473509684,13,"2727 PACES FERRY RD SUITE 750, ATLANTA, GA, 30339","Match","Non_Exact","2727 PACES FERRY RD SE, ATLANTA, GA, 30339",17251410,"L"
438514,"2727 PACES FERRY SE BLDG 1 STE 750","ATLANTA","GA",30339,33.8654173630001,-84.473509684,14,"2727 PACES FERRY SE BLDG 1 STE 750, ATLANTA, GA, 30339","Match","Non_Exact","2727 PACES FERRY RD SE, ATLANTA, GA, 30339",17251410,"L"
438515,"2727 PALISADE AVENUE  APT 10-J","BRONX","NY",10463,40.8830049420001,-73.9201350239999,15,"2727 PALISADE AVENUE  APT 10-J, BRONX, NY, 10463","Match","Exact","2727 PALISADE AVE, BRONX, NY, 10463",80311136,"L"
438516,"2727 PALISADES AVENUE APT 10J","BRONX","NY",10463,NA,NA,16,"2727 PALISADES AVENUE APT 10J, BRONX, NY, 10463","No_Match",NA,NA,NA,NA
438517,"2727 PIERCE STREET","SAN FRANCISCO","CA",94123,37.795091122,-122.438462872,17,"2727 PIERCE STREET, SAN FRANCISCO, CA, 94123","Match","Exact","2727 PIERCE ST, SAN FRANCISCO, CA, 94123",192279654,"L"
438518,"2727 QUAIL LN","NORTHBROOK","IL",60062,42.103575687,-87.844765337,18,"2727 QUAIL LN, NORTHBROOK, IL, 60062","Match","Exact","2727 QUAIL LN, NORTHBROOK, IL, 60062",111728580,"L"
438519,"2727 RAPIDS WAY","AKRON","OH",44312,40.9897247270001,-81.4706540989999,19,"2727 RAPIDS WAY, AKRON, OH, 44312","Match","Exact","2727 RAPIDS WAY, AKRON, OH, 44312",650443244,"L"
438520,"2727 RAYNES PARK LN","GRAND PRAIRIE","TX",75050,32.786323279,-97.034905494,20,"2727 RAYNES PARK LN, GRAND PRAIRIE, TX, 75050","Match","Non_Exact","2727 RAYNES PARK DR, GRAND PRAIRIE, TX, 75050",617667009,"L"
438521,"2727 REAGAN ST APT A","DALLAS","TX",75219,32.8078114250001,-96.813482702,21,"2727 REAGAN ST APT A, DALLAS, TX, 75219","Match","Exact","2727 REAGAN ST, DALLAS, TX, 75219",102908518,"L"
438522,"2727 REED","FORT WAYNE","IN",46802,NA,NA,22,"2727 REED, FORT WAYNE, IN, 46802","No_Match",NA,NA,NA,NA
438523,"2727 RENEGADE RD APT 3","ORLANDO","FL",32818,28.5808997300001,-81.4799690259999,23,"2727 RENEGADE RD APT 3, ORLANDO, FL, 32818","Match","Exact","2727 RENEGADE RD, ORLANDO, FL, 32818",612563320,"R"
438524,"2727 S 104TH E AVE","TULSA","OK",74129,36.1225444880001,-95.8605541909999,24,"2727 S 104TH E AVE, TULSA, OK, 74129","Match","Exact","2727 S 104TH EAST AVE, TULSA, OK, 74129",166453794,"L"
438525,"2727 S 625 W APT H101","BOUNTIFUL","UT",84010,NA,NA,25,"2727 S 625 W APT H101, BOUNTIFUL, UT, 84010","No_Match",NA,NA,NA,NA
438526,"2727 S LAMAR BLVD","AUSTIN","TX",78704,30.244586874,-97.780923521,26,"2727 S LAMAR BLVD, AUSTIN, TX, 78704","Match","Exact","2727 S LAMAR BLVD, AUSTIN, TX, 78704",63943676,"L"
438527,"2727 S LAVENDAR LANE","SARATOGA SPRINGS","UT",84045,40.312809653,-111.894724408,27,"2727 S LAVENDAR LANE, SARATOGA SPRINGS, UT, 84045","Match","Non_Exact","2727 S LAVENDER LN, SARATOGA SPRINGS, UT, 84045",601265212,"R"
438528,"2727 S QUINCY ST APT 601","ARLINGTON","VA",22206,38.841976532,-77.0866497819999,28,"2727 S QUINCY ST APT 601, ARLINGTON, VA, 22206","Match","Non_Exact","2727 S QUINCY ST, ARLINGTON, VA, 22206",76471805,"L"
438529,"2727 SAN PEDRO NE","ALBUQUERQUE","NM",87110,35.111466353,-106.577526282,29,"2727 SAN PEDRO NE, ALBUQUERQUE, NM, 87110","Match","Non_Exact","2727 SAN PEDRO DR NE, ALBUQUERQUE, NM, 87110",206715959,"L"
438530,"2727 SAND ROAD","PORT AUSTIN","MI",48467,44.00289453,-83.046407387,30,"2727 SAND ROAD, PORT AUSTIN, MI, 48467","Match","Exact","2727 SAND RD, PORT AUSTIN, MI, 48467",161244116,"R"
438531,"2727 SANDY LEVEL ROAD","GOODVIEW","VA",24095,37.233788281,-79.69232677,31,"2727 SANDY LEVEL ROAD, GOODVIEW, VA, 24095","Match","Exact","2727 SANDY LEVEL RD, GOODVIEW, VA, 24095",228434075,"L"
438532,"2727 SE ALDER STREET","PORTLAND","OR",97214,45.517865596,-122.637795987,32,"2727 SE ALDER STREET, PORTLAND, OR, 97214","Match","Exact","2727 SE ALDER ST, PORTLAND, OR, 97214",157507484,"L"
438533,"2727 SECOND AVE STE 126","DETROIT","MI",48201,42.3402340540001,-83.059405645,33,"2727 SECOND AVE STE 126, DETROIT, MI, 48201","Match","Exact","2727 2ND AVE, DETROIT, MI, 48201",95479391,"L"
438534,"2727 SECOND AVENU SUITE 266","DETROIT","MI",48201,42.3402340540001,-83.059405645,34,"2727 SECOND AVENU SUITE 266, DETROIT, MI, 48201","Match","Exact","2727 2ND AVE, DETROIT, MI, 48201",95479391,"L"
438535,"2727 SECOND SUITE 266","DETROIT","MI",48201,42.3402340540001,-83.059405645,35,"2727 SECOND SUITE 266, DETROIT, MI, 48201","Match","Non_Exact","2727 2ND AVE, DETROIT, MI, 48201",95479391,"L"
438536,"2727 SHANNESY DRIVE","MEDFORD","OR",97504,42.351175217,-122.842059083,36,"2727 SHANNESY DRIVE, MEDFORD, OR, 97504","Match","Exact","2727 SHANNESY DR, MEDFORD, OR, 97504",155548973,"R"
438537,"2727 SHANNESY DRIVE","MEDFORRD","OR",97504,42.351175217,-122.842059083,37,"2727 SHANNESY DRIVE, MEDFORRD, OR, 97504","Match","Non_Exact","2727 SHANNESY DR, MEDFORD, OR, 97504",155548973,"R"
438538,"2727 SHARE ST","SPRINGFIELD","OH",45505,39.913163878,-83.766649737,38,"2727 SHARE ST, SPRINGFIELD, OH, 45505","Match","Exact","2727 SHARE ST, SPRINGFIELD, OH, 45505",135010822,"R"
438539,"2727 SHELBY AVE","DALLAS","TX",75219,32.8071011230001,-96.812653521,39,"2727 SHELBY AVE, DALLAS, TX, 75219","Match","Exact","2727 SHELBY AVE, DALLAS, TX, 75219",102908520,"L"
438540,"2727 SHEPHERD ROAD","LAKELAND","FL",33811,27.9384827970001,-82.0031520379999,40,"2727 SHEPHERD ROAD, LAKELAND, FL, 33811","Match","Exact","2727 SHEPHERD RD, LAKELAND, FL, 33811",104838832,"R"
438541,"2727 SKYVIEW DRIVE","LITHIA SPRINGS","GA",30122,33.784030005,-84.64278644,41,"2727 SKYVIEW DRIVE, LITHIA SPRINGS, GA, 30122","Match","Exact","2727 SKYVIEW DR, LITHIA SPGS, GA, 30122",646145308,"R"
438542,"2727 SOUTH BROAD STREET","NEW ORLEANS","LA",70125,29.9512853420001,-90.099992491,42,"2727 SOUTH BROAD STREET, NEW ORLEANS, LA, 70125","Match","Exact","2727 S BROAD ST, NEW ORLEANS, LA, 70125",191711376,"R"
438543,"2727 SOUTH JEFFERSON AVENUE","SAINT LOUIS","MO",63118,38.604361451,-90.2231445319999,43,"2727 SOUTH JEFFERSON AVENUE, SAINT LOUIS, MO, 63118","Match","Exact","2727 S JEFFERSON AVE, SAINT LOUIS, MO, 63118",107598716,"R"
438544,"2727 SUSIE DR","PORT ARTHUR","TX",77640,29.908331193,-94.029775074,44,"2727 SUSIE DR, PORT ARTHUR, TX, 77640","Match","Non_Exact","2727 SUSIE ST, PORT ARTHUR, TX, 77640",73859687,"R"
438545,"2727 SW SNYDER BLVD","ANKENY","IA",50023,41.6999698440001,-93.606919168,45,"2727 SW SNYDER BLVD, ANKENY, IA, 50023","Match","Exact","2727 SW SNYDER BLVD, ANKENY, IA, 50023",627548069,"L"
438546,"2727 SYNOTT RD APT 2705","HOUSTON","TX",77082,29.730662631,-95.6196220589999,46,"2727 SYNOTT RD APT 2705, HOUSTON, TX, 77082","Match","Exact","2727 SYNOTT RD, HOUSTON, TX, 77082",96553031,"R"
438547,"2727 SYNOTT RD","HOUSTON","TX",77082,29.730662631,-95.6196220589999,47,"2727 SYNOTT RD, HOUSTON, TX, 77082","Match","Exact","2727 SYNOTT RD, HOUSTON, TX, 77082",96553031,"R"
438548,"2727 SYNOTT ROAD APT 1906","HOUSTON","TX",77082,29.730662631,-95.6196220589999,48,"2727 SYNOTT ROAD APT 1906, HOUSTON, TX, 77082","Match","Exact","2727 SYNOTT RD, HOUSTON, TX, 77082",96553031,"R"
438549,"2727 TALLOKAS RD","QUITMAN","GA",31643,30.8910517190001,-83.639885162,49,"2727 TALLOKAS RD, QUITMAN, GA, 31643","Match","Exact","2727 TALLOKAS RD, QUITMAN, GA, 31643",635765481,"L"
438550,"2727 TERRACE ROAD SE","WASHINGTON","DC",20020,38.856375154,-76.963239358,50,"2727 TERRACE ROAD SE, WASHINGTON, DC, 20020","Match","Exact","2727 TERRACE RD SE, WASHINGTON, DC, 20020",76232909,"R"
438551,"2727 THROCKMORTON STREET APT 125","DALLAS","TX",75219,32.8085204600001,-96.8143409259999,51,"2727 THROCKMORTON STREET APT 125, DALLAS, TX, 75219","Match","Exact","2727 THROCKMORTON ST, DALLAS, TX, 75219",102908450,"L"
438552,"2727 TREBLE CREEK APT 935","SAN ANTONIO","TX",78258,29.605345297,-98.5360251069999,52,"2727 TREBLE CREEK APT 935, SAN ANTONIO, TX, 78258","Match","Exact","2727 TREBLE CREEK, SAN ANTONIO, TX, 78258",101710993,"L"
438553,"2727 TROY DR","MISSOURI CITY","TX",77459,29.549579604,-95.509303336,53,"2727 TROY DR, MISSOURI CITY, TX, 77459","Match","Exact","2727 TROY DR, MISSOURI CITY, TX, 77459",641147337,"R"
438554,"2727 TURNER VALLEY CIRCLE SW","CONYERS","GA",30094,33.6703360600001,-84.0764261739999,54,"2727 TURNER VALLEY CIRCLE SW, CONYERS, GA, 30094","Match","Exact","2727 TURNER VALLEY CIR SW, CONYERS, GA, 30094",23739592,"R"
438555,"2727 VANDERBURG","COLUMBUS","OH",43204,39.937265768,-83.070584562,55,"2727 VANDERBURG, COLUMBUS, OH, 43204","Match","Non_Exact","2727 VANDERBERG AVE, COLUMBUS, OH, 43204",218678073,"L"
438556,"2727 W 127TH ST","CHICAGO","IL",60655,NA,NA,56,"2727 W 127TH ST, CHICAGO, IL, 60655","No_Match",NA,NA,NA,NA
438557,"2727 W 154TH ST","COMPTON","CA",90220,33.8923409270001,-118.258828505,57,"2727 W 154TH ST, COMPTON, CA, 90220","Match","Exact","2727 W 154TH ST, COMPTON, CA, 90220",141680139,"R"
438558,"2727 W 18TH ST APT 348","HOUSTON","TX",77008,29.8015733170001,-95.4465561379999,58,"2727 W 18TH ST APT 348, HOUSTON, TX, 77008","Match","Non_Exact","2727 W 18TH ST, HOUSTON, TX, 77008",96636354,"R"
438559,"2727 W 620 N","PROVO","UT",84601,40.2424788490001,-111.706822927,59,"2727 W 620 N, PROVO, UT, 84601","Match","Exact","2727 W 620 N, PROVO, UT, 84601",635352976,"L"
438560,"2727 W BLUFF AVE APT 128","FRESNO","CA",93711,NA,NA,60,"2727 W BLUFF AVE APT 128, FRESNO, CA, 93711","Tie",NA,NA,NA,NA
438561,"2727 W BROOKLYN AVE","DALLAS","TX",75211,32.739182376,-96.86430233,61,"2727 W BROOKLYN AVE, DALLAS, TX, 75211","Match","Exact","2727 W BROOKLYN AVE, DALLAS, TX, 75211",102945072,"R"
438562,"2727 W HWY 52","EMMETT","ID",83617,43.8612228760001,-116.557900594,62,"2727 W HWY 52, EMMETT, ID, 83617","Match","Non_Exact","2727 STATE HWY 52, EMMETT, ID, 83617",626787830,"L"
438563,"2727 WALNUT AVE APT 19","CARMICHAEL","CA",95601,38.61396146,-121.346029569,63,"2727 WALNUT AVE APT 19, CARMICHAEL, CA, 95601","Match","Non_Exact","2727 WALNUT AVE, CARMICHAEL, CA, 95608",648183450,"L"
438564,"2727 WARWICK DRIVE","BLOOMFIELD HILLS","MI",48304,42.6001742030001,-83.244767601,64,"2727 WARWICK DRIVE, BLOOMFIELD HILLS, MI, 48304","Match","Exact","2727 WARWICK DR, BLOOMFIELD HILLS, MI, 48304",69709541,"L"
438565,"2727 WEST 18TH ST APT164","HOUSTON","TX",77008,29.8015733170001,-95.446548483,65,"2727 WEST 18TH ST APT164, HOUSTON, TX, 77008","Match","Exact","2727 W 18TH ST, HOUSTON, TX, 77008",96636354,"R"
438566,"2727 WEST 7 MILE RD","DETROIT","MI",48221,42.4317823430001,-83.1300393779999,66,"2727 WEST 7 MILE RD, DETROIT, MI, 48221","Match","Exact","2727 W 7 MILE RD, DETROIT, MI, 48221",633516822,"L"
438567,"2727 WEST WINNEMAC AVENUE","CHICAGO","IL",60625,41.9730942510001,-87.6972915379999,67,"2727 WEST WINNEMAC AVENUE, CHICAGO, IL, 60625","Match","Exact","2727 W WINNEMAC AVE, CHICAGO, IL, 60625",605182983,"L"
438568,"2727 WESTERN AVE","DAVENPORT","IA",52803,41.5470492380001,-90.580984372,68,"2727 WESTERN AVE, DAVENPORT, IA, 52803","Match","Exact","2727 WESTERN AVE, DAVENPORT, IA, 52803",122707264,"R"
438569,"2727 WESTWOOD BLVD","COLORADO SPRINGS","CO",80918,38.899861049,-104.775897095,69,"2727 WESTWOOD BLVD, COLORADO SPRINGS, CO, 80918","Match","Exact","2727 WESTWOOD BLVD, COLORADO SPRINGS, CO, 80918",105515838,"R"
438570,"2727 WILD OAK PARK DR","CONROE","TX",77385,30.150551797,-95.401733592,70,"2727 WILD OAK PARK DR, CONROE, TX, 77385","Match","Exact","2727 WILD OAK PARK DR, CONROE, TX, 77385",630554382,"R"
438571,"2727 WOLF TRAIL","ATLANTA","GA",30349,33.672305715,-84.581428119,71,"2727 WOLF TRAIL, ATLANTA, GA, 30349","Match","Exact","2727 WOLF TRL, ATLANTA, GA, 30349",644724953,"R"
438572,"27270 LAKEFRONT DRIVE","DENHAM SPRINGS","LA",70726,30.463627737,-90.915202877,72,"27270 LAKEFRONT DRIVE, DENHAM SPRINGS, LA, 70726","Match","Exact","27270 LAKEFRONT DR, DENHAM SPRINGS, LA, 70726",648785226,"L"
438573,"27270 MATHESON AVE","BONITA SPRINGS","FL",34135,26.3420026970001,-81.7709643439999,73,"27270 MATHESON AVE, BONITA SPRINGS, FL, 34135","Match","Exact","27270 MATHESON AVE, BONITA SPGS, FL, 34135",118004100,"L"
438574,"27271 MAIN ST PO BOX 101","NORTH GEORGETOWN","OH",44665,NA,NA,74,"27271 MAIN ST PO BOX 101, NORTH GEORGETOWN, OH, 44665","No_Match",NA,NA,NA,NA
438575,"27272 HARNESS DRIVE","TEHACHAPI","CA",93561,35.125125768,-118.617094175,75,"27272 HARNESS DRIVE, TEHACHAPI, CA, 93561","Match","Exact","27272 HARNESS DR, TEHACHAPI, CA, 93561",109566063,"R"
438576,"27272 US HWY 65","PRINCETON","MO",64673,NA,NA,76,"27272 US HWY 65, PRINCETON, MO, 64673","No_Match",NA,NA,NA,NA
438577,"27273 355TH STREET","BARNARD","MO",64423,40.2076952410001,-94.8747167069999,77,"27273 355TH STREET, BARNARD, MO, 64423","Match","Exact","27273 355TH ST, BARNARD, MO, 64423",38562845,"R"
438578,"27274 BIXBY ROAD","LA FERIA","TX",78589,26.164820972,-97.853905218,78,"27274 BIXBY ROAD, LA FERIA, TX, 78589","Match","Non_Exact","27274 BIXBY RD, LA FERIA, TX, 78559",90019697,"R"
438579,"27275 479TH AVE","HARRISBURG","SD",57032,NA,NA,79,"27275 479TH AVE, HARRISBURG, SD, 57032","No_Match",NA,NA,NA,NA
438580,"27276 BELGRAVE ROAD","PEPPER PIKE","OH",44124,NA,NA,80,"27276 BELGRAVE ROAD, PEPPER PIKE, OH, 44124","No_Match",NA,NA,NA,NA
438581,"27279 BURMASTER RD","SEDRO WOOLLEY","WA",98284,48.5145703860001,-122.156313434,81,"27279 BURMASTER RD, SEDRO WOOLLEY, WA, 98284","Match","Exact","27279 BURMASTER RD, SEDRO WOOLLEY, WA, 98284",183644190,"L"
438582,"27279 LA 22","SPRINGFIELD","LA",70462,30.3334807910001,-90.5857813709999,82,"27279 LA 22, SPRINGFIELD, LA, 70462","Match","Exact","27279 LA 22, SPRINGFIELD, LA, 70462",115089896,"L"
438583,"2727A N 56TH ST","MILWAUKEE","WI",53210,43.0685584770001,-87.98331724,83,"2727A N 56TH ST, MILWAUKEE, WI, 53210","Match","Exact","2727 N 56TH ST, MILWAUKEE, WI, 53210",77731919,"L"
438584,"2728 13TH STREET N","ST PETERSBURG","FL",33704,27.7968310430001,-82.651345828,84,"2728 13TH STREET N, ST PETERSBURG, FL, 33704","Match","Exact","2728 13TH ST N, SAINT PETERSBURG, FL, 33704",124706530,"L"
438585,"2728 140 AVE","MORLEY","MI",49336,43.508093796,-85.363204969,85,"2728 140 AVE, MORLEY, MI, 49336","Match","Exact","2728 140TH AVE, MORLEY, MI, 49336",110526703,"L"
438586,"2728 221ST STREET","DEWITT","IA",52742,41.841714198,-90.5612737609999,86,"2728 221ST STREET, DEWITT, IA, 52742","Match","Non_Exact","2728 221ST ST, DE WITT, IA, 52742",16813127,"L"
438587,"2728 280TH ST","HORNICK","IA",51026,42.2996129640001,-96.067960972,87,"2728 280TH ST, HORNICK, IA, 51026","Match","Exact","2728 280TH ST, HORNICK, IA, 51026",93437336,"L"
438588,"2728 6TH STREET","TUSCALOOSA","AL",35401,33.2076038810001,-87.572388046,88,"2728 6TH STREET, TUSCALOOSA, AL, 35401","Match","Exact","2728 6TH ST, TUSCALOOSA, AL, 35401",82147631,"R"
438589,"2728 AMANDA KAY WAY","KISSIMMEE","FL",34744,28.286622111,-81.334962635,89,"2728 AMANDA KAY WAY, KISSIMMEE, FL, 34744","Match","Exact","2728 AMANDA KAY WAY, KISSIMMEE, FL, 34744",176699063,"R"
438590,"2728 BAKER ST","BALTIMORE","MD",21216,39.3061254570001,-76.661729227,90,"2728 BAKER ST, BALTIMORE, MD, 21216","Match","Exact","2728 BAKER ST, BALTIMORE, MD, 21216",206414180,"R"
438591,"2728 BARNES AVE","BRONX","NY",10467,40.8659711760001,-73.8634967529999,91,"2728 BARNES AVE, BRONX, NY, 10467","Match","Exact","2728 BARNES AVE, BRONX, NY, 10467",80303430,"R"
438592,"2728 BEDDINGTON WAY","SUWANEE","GA",30024,34.0145889120001,-84.0495302959999,92,"2728 BEDDINGTON WAY, SUWANEE, GA, 30024","Match","Exact","2728 BEDDINGTON WAY, SUWANEE, GA, 30024",88920424,"L"
438593,"2728 BRANDEIS DR","ROCKFORD","IL",61109,42.2354032760001,-89.030946431,93,"2728 BRANDEIS DR, ROCKFORD, IL, 61109","Match","Exact","2728 BRANDEIS DR, ROCKFORD, IL, 61109",49287858,"L"
438594,"2728 BRIDGEMARKER DRIVE","GRAND PRAIRIE","TX",75054,32.6045939860001,-97.049672035,94,"2728 BRIDGEMARKER DRIVE, GRAND PRAIRIE, TX, 75054","Match","Exact","2728 BRIDGEMARKER DR, GRAND PRAIRIE, TX, 75054",617671788,"L"
438595,"2728 BROOKFIELD RD","LANCASTER","PA",17601,40.0974444510001,-76.2921676889999,95,"2728 BROOKFIELD RD, LANCASTER, PA, 17601","Match","Exact","2728 BROOKFIELD RD, LANCASTER, PA, 17601",179661457,"L"
438596,"2728 CASTLECOVE DR","GRAND PRAIRIE","TX",75052,32.6581686070001,-97.049424647,96,"2728 CASTLECOVE DR, GRAND PRAIRIE, TX, 75052","Match","Exact","2728 CASTLECOVE DR, GRAND PRAIRIE, TX, 75052",101962313,"R"
438597,"2728 CEDAR SPRINGS RD UNIT 726","DALLAS","TX",75201,32.801262923,-96.8056158969999,97,"2728 CEDAR SPRINGS RD UNIT 726, DALLAS, TX, 75201","Match","Exact","2728 CEDAR SPRINGS RD, DALLAS, TX, 75201",103230976,"L"
438598,"2728 COLCHESTER CRES","NORFOLK","VA",23504,36.848493697,-76.255943566,98,"2728 COLCHESTER CRES, NORFOLK, VA, 23504","Match","Exact","2728 COLCHESTER CRES, NORFOLK, VA, 23504",122137814,"L"
438599,"2728 COLLEGE AVE","DES MOINES","IA",50311,41.608141732,-93.6542993319999,99,"2728 COLLEGE AVE, DES MOINES, IA, 50311","Match","Exact","2728 COLLEGE AVE, DES MOINES, IA, 50311",638756543,"L"
438600,"2728 CRAWFORD","PARSONS","KS",67357,37.3425145370001,-95.277586951,100,"2728 CRAWFORD, PARSONS, KS, 67357","Match","Non_Exact","2728 CRAWFORD AVE, PARSONS, KS, 67357",13719408,"R"
438601,"2728 CRYSTAL LAKE ROAD","CARY","IL",60013,42.2379382560001,-88.250230839,101,"2728 CRYSTAL LAKE ROAD, CARY, IL, 60013","Match","Exact","2728 CRYSTAL LAKE RD, CARY, IL, 60013",119858170,"L"
438602,"2728 DELMAR","OKEMOS","MI",48864,NA,NA,102,"2728 DELMAR, OKEMOS, MI, 48864","No_Match",NA,NA,NA,NA
438603,"2728 DURANT AVENUE","BERKELEY","CA",94704,37.8685183860001,-122.253166067,103,"2728 DURANT AVENUE, BERKELEY, CA, 94704","Match","Exact","2728 DURANT AVE, BERKELEY, CA, 94704",606213756,"R"
438604,"2728 E MAIN ST","MILLVILLE","NJ",8332,39.38476573,-74.983529366,104,"2728 E MAIN ST, MILLVILLE, NJ, 8332","Match","Exact","2728 E MAIN ST, MILLVILLE, NJ, 08332",643717764,"L"
438605,"2728 E SULELY DR","GILBERT","AZ",85925,NA,NA,105,"2728 E SULELY DR, GILBERT, AZ, 85925","No_Match",NA,NA,NA,NA
438606,"2728 E WENTWOOD DRIVE","CARROLLTON","TX",75007,32.9879274680001,-96.858975476,106,"2728 E WENTWOOD DRIVE, CARROLLTON, TX, 75007","Match","Exact","2728 E WENTWOOD DR, CARROLLTON, TX, 75007",218072067,"R"
438607,"2728 EAST 1835 S","CLINTON","IN",47842,NA,NA,107,"2728 EAST 1835 S, CLINTON, IN, 47842","No_Match",NA,NA,NA,NA
438608,"2728 EAST PARK LANE","ERIE","PA",16506,42.0725069040001,-80.177462116,108,"2728 EAST PARK LANE, ERIE, PA, 16506","Match","Exact","2728 E PARK LN, ERIE, PA, 16506",117495148,"R"
438609,"2728 ELAINE COURT","LITHIA SPRINGS","GA",30122,33.7517744720001,-84.665269477,109,"2728 ELAINE COURT, LITHIA SPRINGS, GA, 30122","Match","Exact","2728 ELAINE CT, LITHIA SPGS, GA, 30122",16652428,"L"
438610,"2728 ELBRIDGE STREET","PHILADELPHIA","PA",19149,40.033708432,-75.0654052309999,110,"2728 ELBRIDGE STREET, PHILADELPHIA, PA, 19149","Match","Exact","2728 ELBRIDGE ST, PHILADELPHIA, PA, 19149",131428621,"R"
438611,"2728 ELNOBLE AVE","OROVILLE","CA",95966,39.503373567,-121.54516971,111,"2728 ELNOBLE AVE, OROVILLE, CA, 95966","Match","Non_Exact","2728 EL NOBLE AVE, OROVILLE, CA, 95966",68421878,"L"
438612,"2728 EMERALD RIDGE DR","COLORADO SPRINGS","CO",80920,38.9750338040001,-104.7782392,112,"2728 EMERALD RIDGE DR, COLORADO SPRINGS, CO, 80920","Match","Exact","2728 EMERALD RIDGE DR, CO SPGS, CO, 80920",105566189,"L"
438613,"2728 ESAW","MINDEN","NV",89423,39.0367502350001,-119.70999357,113,"2728 ESAW, MINDEN, NV, 89423","Match","Non_Exact","2728 ESAW ST, MINDEN, NV, 89423",173758462,"R"
438614,"2728 EWING AVE SOUTH","MINNEAPOLIS","MN",55416,44.952881683,-93.3274703009999,114,"2728 EWING AVE SOUTH, MINNEAPOLIS, MN, 55416","Match","Exact","2728 EWING AVE S, MINNEAPOLIS, MN, 55416",43623185,"R"
438615,"2728 FAIRLANE AVE","WATERLOO","IA",50702,42.4625520700001,-92.3521990409999,115,"2728 FAIRLANE AVE, WATERLOO, IA, 50702","Match","Exact","2728 FAIRLANE AVE, WATERLOO, IA, 50702",77254223,"R"
438616,"2728 GASTON GATE","MOUNT PLEASANT","SC",29466,32.8604983000001,-79.808145184,116,"2728 GASTON GATE, MOUNT PLEASANT, SC, 29466","Match","Exact","2728 GASTON GATE, MOUNT PLEASANT, SC, 29466",605898043,"L"
438617,"2728 GEORGIA AVE S","ST LOUIS PARK","MN",55425,44.9543734690001,-93.364538164,117,"2728 GEORGIA AVE S, ST LOUIS PARK, MN, 55425","Match","Non_Exact","2728 GEORGIA AVE S, SAINT LOUIS PARK, MN, 55426",43619605,"R"
438618,"2728 GLENWOOD RD","COLUMBIA","SC",29204,34.0277680510001,-80.998153257,118,"2728 GLENWOOD RD, COLUMBIA, SC, 29204","Match","Exact","2728 GLENWOOD RD, COLUMBIA, SC, 29204",71823866,"R"
438619,"2728 HENRY HUDSON PKWY 21B","RIVERDALE","NY",10468,NA,NA,119,"2728 HENRY HUDSON PKWY 21B, RIVERDALE, NY, 10468","No_Match",NA,NA,NA,NA
438620,"2728 HENRY HUDSON PKWY APT 63C","BRONX","NY",10463,40.881474268,-73.916837738,120,"2728 HENRY HUDSON PKWY APT 63C, BRONX, NY, 10463","Match","Non_Exact","2728 HENRY HUDSON PKWY E, BRONX, NY, 10463",80296093,"R"
438621,"2728 HENRYHUDSON PKWY NUM 21B","RIVERDALE","NY",10468,NA,NA,121,"2728 HENRYHUDSON PKWY NUM 21B, RIVERDALE, NY, 10468","No_Match",NA,NA,NA,NA
438622,"2728 HOLYOKE LANE","ANN ARBOR","MI",48103,42.3139545000001,-83.765444959,122,"2728 HOLYOKE LANE, ANN ARBOR, MI, 48103","Match","Exact","2728 HOLYOKE LN, ANN ARBOR, MI, 48103",26011636,"R"
438623,"2728 HOOD ST","DALLAS","TX",75219,32.8049116920001,-96.809912343,123,"2728 HOOD ST, DALLAS, TX, 75219","Match","Exact","2728 HOOD ST, DALLAS, TX, 75219",102908731,"R"
438624,"2728 HOOD STREET STE 929","DALLAS","TX",75219,32.8049116920001,-96.809912343,124,"2728 HOOD STREET STE 929, DALLAS, TX, 75219","Match","Exact","2728 HOOD ST, DALLAS, TX, 75219",102908731,"R"
438625,"2728 HOWSLEY ROAD","PLEASANT GROVE","CA",95668,38.82363644,-121.516359971,125,"2728 HOWSLEY ROAD, PLEASANT GROVE, CA, 95668","Match","Exact","2728 HOWSLEY RD, PLEASANT GROVE, CA, 95668",636410992,"L"
438626,"2728 JEROME DR","DALTON","GA",30721,34.761688244,-84.9219087979999,126,"2728 JEROME DR, DALTON, GA, 30721","Match","Exact","2728 JEROME DR, DALTON, GA, 30721",57391238,"R"
438627,"2728 LAGUNA SECA","HENDERSON","NV",89052,35.987374742,-115.107082137,127,"2728 LAGUNA SECA, HENDERSON, NV, 89052","Match","Non_Exact","2728 LAGUNA SECA AVE, HENDERSON, NV, 89052",613018952,"R"
438628,"2728 LANFRANCO STREET","LOS ANGELES","CA",90033,34.036490799,-118.208462595,128,"2728 LANFRANCO STREET, LOS ANGELES, CA, 90033","Match","Exact","2728 LANFRANCO ST, LOS ANGELES, CA, 90033",141624261,"R"
438629,"2728 LOS GATOS LN","FORT WORTH","TX",76131,32.870587738,-97.321659825,129,"2728 LOS GATOS LN, FORT WORTH, TX, 76131","Match","Exact","2728 LOS GATOS LN, FORT WORTH, TX, 76131",619871604,"R"
438630,"2728 MCKINNON APT 816","DALLAS","TX",75201,32.7937892940001,-96.806677737,130,"2728 MCKINNON APT 816, DALLAS, TX, 75201","Match","Non_Exact","2728 MCKINNON ST, DALLAS, TX, 75201",102908815,"R"
438631,"2728 MCKINNON ST APT 1506","DALLAS","TX",75201,32.7937892940001,-96.806677737,131,"2728 MCKINNON ST APT 1506, DALLAS, TX, 75201","Match","Exact","2728 MCKINNON ST, DALLAS, TX, 75201",102908815,"R"
438632,"2728 MCKINNON ST","DALLAS","TX",75201,32.7937892940001,-96.806677737,132,"2728 MCKINNON ST, DALLAS, TX, 75201","Match","Exact","2728 MCKINNON ST, DALLAS, TX, 75201",102908815,"R"
438633,"2728 MILE HILL RD","SUNBURY","PA",17801,40.891403262,-76.722985288,133,"2728 MILE HILL RD, SUNBURY, PA, 17801","Match","Exact","2728 MILE HILL RD, SUNBURY, PA, 17801",48055933,"R"
438634,"2728 MIRANDA DR","MURFREESBORO","TN",37128,35.853730399,-86.45855567,134,"2728 MIRANDA DR, MURFREESBORO, TN, 37128","Match","Exact","2728 MIRANDA DR, MURFREESBORO, TN, 37128",606780021,"R"
438635,"2728 N 133RD DR","GOODYEAR","AZ",85395,33.4769083960001,-112.346441265,135,"2728 N 133RD DR, GOODYEAR, AZ, 85395","Match","Exact","2728 133RD DR, GOODYEAR, AZ, 85395",128410439,"L"
438636,"2728 N 24TH","OZARK","MO",65721,37.045848311,-93.236058773,136,"2728 N 24TH, OZARK, MO, 65721","Match","Non_Exact","2728 N 24TH ST, OZARK, MO, 65721",99838545,"R"
438637,"2728 N 73RD PL","KANSAS CITY","KS",66109,39.1365151970001,-94.748813593,137,"2728 N 73RD PL, KANSAS CITY, KS, 66109","Match","Exact","2728 N 73RD PL, KANSAS CITY, KS, 66109",91145482,"L"
438638,"2728 N FRATNEY ST","MILWAUKEE","WI",53212,43.068065157,-87.901551564,138,"2728 N FRATNEY ST, MILWAUKEE, WI, 53212","Match","Exact","2728 N FRATNEY ST, MILWAUKEE, WI, 53212",77743561,"R"
438639,"2728 N HARWOOD STREET","DALLAS","TX",75201,32.793218145,-96.807398754,139,"2728 N HARWOOD STREET, DALLAS, TX, 75201","Match","Exact","2728 N HARWOOD ST, DALLAS, TX, 75201",102908809,"R"
438640,"2728 N JAMISON BLVD","FLAGSTAFF","AZ",86004,35.213249165,-111.607712028,140,"2728 N JAMISON BLVD, FLAGSTAFF, AZ, 86004","Match","Exact","2728 N JAMISON BLVD, FLAGSTAFF, AZ, 86004",188863394,"R"
438641,"2728 N JAMSISON","FLAGSTAFF","AZ",86004,NA,NA,141,"2728 N JAMSISON, FLAGSTAFF, AZ, 86004","No_Match",NA,NA,NA,NA
438642,"2728 N PATTERSON BLVD","FLAGSTAFF","AZ",86004,35.2130498830001,-111.608597397,142,"2728 N PATTERSON BLVD, FLAGSTAFF, AZ, 86004","Match","Exact","2728 N PATTERSON BLVD, FLAGSTAFF, AZ, 86004",188936792,"R"
438643,"2728 N TERRACE DR","WICHITA","KS",67220,37.7326017620001,-97.284702515,143,"2728 N TERRACE DR, WICHITA, KS, 67220","Match","Exact","2728 N TERRACE DR, WICHITA, KS, 67220",115672827,"R"
438644,"2728 NATURE TRAIL ROAD","GLEN ALLEN","VA",23060,37.6612721930001,-77.496246159,144,"2728 NATURE TRAIL ROAD, GLEN ALLEN, VA, 23060","Match","Exact","2728 NATURE TRAIL RD, GLEN ALLEN, VA, 23060",106667415,"R"
438645,"2728 NORTH ANTHONY BLVD","FORT WAYNE","IN",46805,41.1009001670001,-85.115650967,145,"2728 NORTH ANTHONY BLVD, FORT WAYNE, IN, 46805","Match","Exact","2728 N ANTHONY BLVD, FORT WAYNE, IN, 46805",6379982,"R"
438646,"2728 NORTH MALLARD LANE","ROUND LAKE BEACH","IL",60073,42.397367095,-88.084801883,146,"2728 NORTH MALLARD LANE, ROUND LAKE BEACH, IL, 60073","Match","Exact","2728 N MALLARD LN, ROUND LAKE BEACH, IL, 60073",119705312,"R"
438647,"2728 NW 39TH WAY","LAUDERDALE LAKES","FL",33311,26.159928032,-80.201851033,147,"2728 NW 39TH WAY, LAUDERDALE LAKES, FL, 33311","Match","Exact","2728 NW 39TH WAY, LAUDERDALE LAKES, FL, 33311",114787263,"R"
438648,"2728 OAK HAMMOCK DR","SPRINGFIELD","FL",32401,30.1663163700001,-85.6245544079999,148,"2728 OAK HAMMOCK DR, SPRINGFIELD, FL, 32401","Match","Non_Exact","2728 OAK HAMMOCK DR, PANAMA CITY BEACH, FL, 32401",7045169,"R"
438649,"2728 PASEO POTRIL","BONITA","CA",91902,32.68529211,-117.022655883,149,"2728 PASEO POTRIL, BONITA, CA, 91902","Match","Non_Exact","2728 PSO POTRIL, BONITA, CA, 91902",195361647,"R"
438650,"2728 PEABODY AVE","COLUMBUS","GA",31904,32.4881483240001,-84.977521521,150,"2728 PEABODY AVE, COLUMBUS, GA, 31904","Match","Exact","2728 PEABODY AVE, COLUMBUS, GA, 31904",98937428,"R"
438651,"2728 QUANCE ROAD","MCKEAN","PA",16426,41.9687055090001,-80.075913653,151,"2728 QUANCE ROAD, MCKEAN, PA, 16426","Match","Exact","2728 QUANCE RD, MCKEAN, PA, 16426",117489719,"R"
438652,"2728 REAGAN STREET UNIT 201","DALLAS","TX",75219,32.8078199760001,-96.81345394,152,"2728 REAGAN STREET UNIT 201, DALLAS, TX, 75219","Match","Exact","2728 REAGAN ST, DALLAS, TX, 75219",102908518,"R"
438653,"2728 REED CREEK DRIVE","DRAPER","VA",24324,36.929436138,-80.8112448689999,153,"2728 REED CREEK DRIVE, DRAPER, VA, 24324","Match","Exact","2728 REED CREEK DR, DRAPER, VA, 24324",47645405,"L"
438654,"2728 RENO DRIVE","SAN JOSE","CA",95148,37.3367430500001,-121.789233846,154,"2728 RENO DRIVE, SAN JOSE, CA, 95148","Match","Exact","2728 RENO DR, SAN JOSE, CA, 95148",122917088,"R"
438655,"2728 RIVER OAK DR","EGLIN AFB","FL",32542,30.450906134,-86.5542782539999,155,"2728 RIVER OAK DR, EGLIN AFB, FL, 32542","Match","Exact","2728 RIVER OAK DR, EGLIN AFB, FL, 32542",650828133,"R"
438656,"2728 ROCHELL CANNON RD","BELLS","TX",75414,33.576789896,-96.4661645259999,156,"2728 ROCHELL CANNON RD, BELLS, TX, 75414","Match","Exact","2728 ROCHELL CANNON RD, BELLS, TX, 75414",63383597,"R"
438657,"2728 S FERN DR","YUMA","AZ",85634,32.6780768240001,-114.630685563,157,"2728 S FERN DR, YUMA, AZ, 85634","Match","Non_Exact","2728 S FERN DR, YUMA, AZ, 85364",129668699,"R"
438658,"2728 S PARTRIDGE CIRCLE","HOPKINS","SC",29061,NA,NA,158,"2728 S PARTRIDGE CIRCLE, HOPKINS, SC, 29061","No_Match",NA,NA,NA,NA
438659,"2728 S SULLEY DRIVE UNIT 103","GILBERT","AZ",85295,33.300588492,-111.748089156,159,"2728 S SULLEY DRIVE UNIT 103, GILBERT, AZ, 85295","Match","Non_Exact","2728 S SULLEY DR, GILBERT, AZ, 85295",647125691,"R"
438660,"2728 S XANADU WAY","AURORA","CO",80014,39.664651292,-104.833365124,160,"2728 S XANADU WAY, AURORA, CO, 80014","Match","Exact","2728 S XANADU WAY, AURORA, CO, 80014",177549089,"L"
438661,"2728 SANDPIPER ROAD","LAMBERTVILLE","MI",48144,41.7357739180001,-83.610780357,161,"2728 SANDPIPER ROAD, LAMBERTVILLE, MI, 48144","Match","Exact","2728 SANDPIPER RD, LAMBERTVILLE, MI, 48144",40496978,"R"
438662,"2728 SE MAIN STREET APT 3","PORTLAND","OR",97214,45.513580205,-122.637809538,162,"2728 SE MAIN STREET APT 3, PORTLAND, OR, 97214","Match","Non_Exact","2728 SE MAIN ST, PORTLAND, OR, 97214",157509664,"R"
438663,"2728 SHAMROCK DRIVE","ALLISON PARK","PA",15101,40.5667440240001,-79.952839126,163,"2728 SHAMROCK DRIVE, ALLISON PARK, PA, 15101","Match","Exact","2728 SHAMROCK DR, ALLISON PARK, PA, 15101",51707344,"R"
438664,"2728 SHEILA DR","APOPKA","FL",32712,28.7245490180001,-81.51653354,164,"2728 SHEILA DR, APOPKA, FL, 32712","Match","Exact","2728 SHEILA DR, APOPKA, FL, 32712",94415802,"L"
438665,"2728 SKINNER DRIVE","FLOWER MOUND","TX",75028,33.0220838020001,-97.049143126,165,"2728 SKINNER DRIVE, FLOWER MOUND, TX, 75028","Match","Exact","2728 SKINNER DR, FLOWER MOUND, TX, 75028",103377277,"L"
438666,"2728 SMITH STREET","FORT WAYNE","IN",46806,41.0603543940001,-85.1227951659999,166,"2728 SMITH STREET, FORT WAYNE, IN, 46806","Match","Exact","2728 SMITH ST, FORT WAYNE, IN, 46806",6382685,"R"
438667,"2728 SPIRIT CREEK ROAD","HEPHZIBAH","GA",30815,33.3613012910001,-82.093265845,167,"2728 SPIRIT CREEK ROAD, HEPHZIBAH, GA, 30815","Match","Exact","2728 SPIRIT CREEK RD, HEPHZIBAH, GA, 30815",604932182,"R"
438668,"2728 STONEBROOK CIRCLE","PASO ROBLES","CA",93446,35.6484984210001,-120.673530076,168,"2728 STONEBROOK CIRCLE, PASO ROBLES, CA, 93446","Match","Exact","2728 STONEBROOK CIR, PASO ROBLES, CA, 93446",645472801,"L"
438669,"2728 SW 149TH PL","BURIEN","WA",98166,47.469171326,-122.367025381,169,"2728 SW 149TH PL, BURIEN, WA, 98166","Match","Exact","2728 SW 149TH PL, BURIEN, WA, 98166",239765388,"R"
438670,"2728 THOMPSON DRIVE","AMES","IA",50010,42.0487681910001,-93.6156164079999,170,"2728 THOMPSON DRIVE, AMES, IA, 50010","Match","Exact","2728 THOMPSON DR, AMES, IA, 50010",65963708,"R"
438671,"2728 THOMSON AVE","LONG ISLAND CITY","NY",11101,NA,NA,171,"2728 THOMSON AVE, LONG ISLAND CITY, NY, 11101","No_Match",NA,NA,NA,NA
438672,"2728 W 111TH STREET","INGLEWOOD","CA",90303,33.933314597,-118.323124289,172,"2728 W 111TH STREET, INGLEWOOD, CA, 90303","Match","Exact","2728 W 111TH ST, INGLEWOOD, CA, 90303",141660513,"L"
438673,"2728 W DOLPHIN DR","OAK ISLAND","NC",28465,33.915270854,-78.189186467,173,"2728 W DOLPHIN DR, OAK ISLAND, NC, 28465","Match","Exact","2728 W DOLPHIN DR, OAK ISLAND, NC, 28465",153165225,"L"
438674,"2728 W POLK ST","CHICAGO","IL",60612,41.8710871170001,-87.694171645,174,"2728 W POLK ST, CHICAGO, IL, 60612","Match","Exact","2728 W POLK ST, CHICAGO, IL, 60612",605026300,"R"
438675,"2728 WASHINGTON BLVD","BALTIMORE","MD",21230,39.2636436130001,-76.655870622,175,"2728 WASHINGTON BLVD, BALTIMORE, MD, 21230","Match","Exact","2728 WASHINGTON BLVD, BALTIMORE, MD, 21230",206415840,"R"
438676,"2728 WILMOT","COLUMBIA","SC",29205,33.994238938,-81.0052144169999,176,"2728 WILMOT, COLUMBIA, SC, 29205","Match","Non_Exact","2728 WILMOT AVE, COLUMBIA, SC, 29205",71828226,"R"
438677,"27280 PATRICIA COURT","FEDERALSBURG","MD",21632,38.6973995920001,-75.759590617,177,"27280 PATRICIA COURT, FEDERALSBURG, MD, 21632","Match","Exact","27280 PATRICIA CT, FEDERALSBURG, MD, 21632",68315871,"L"
438678,"27280 TUNGSTEN","EUCLID","OH",44132,41.5956336690001,-81.4965728879999,178,"27280 TUNGSTEN, EUCLID, OH, 44132","Match","Non_Exact","27280 TUNGSTEN RD, EUCLID, OH, 44132",61133326,"R"
438679,"27280 WILDWOOD DR","ADEL","IA",50003,41.565658967,-93.948643433,179,"27280 WILDWOOD DR, ADEL, IA, 50003","Match","Exact","27280 WILDWOOD DR, ADEL, IA, 50003",640609544,"R"
438680,"27284 NE NEOSHO RD","GARNETT","KS",66032,38.2920770200001,-95.231096549,180,"27284 NE NEOSHO RD, GARNETT, KS, 66032","Match","Exact","27284 NE NEOSHO RD, GARNETT, KS, 66032",10474090,"R"
438681,"27285 US 119 N","BELFRY","KY",41514,NA,NA,181,"27285 US 119 N, BELFRY, KY, 41514","No_Match",NA,NA,NA,NA
438682,"27286 DEL MONTE LANE","MENIFEE","CA",92586,33.713179344,-117.182879535,182,"27286 DEL MONTE LANE, MENIFEE, CA, 92586","Match","Exact","27286 DEL MONTE LN, MENIFEE, CA, 92586",194830245,"L"
438683,"27288 S 1625 RD","SHELDON","MO",64784,37.6883237490001,-94.345641214,183,"27288 S 1625 RD, SHELDON, MO, 64784","Match","Exact","27288 1625 RD, SHELDON, MO, 64784",45005895,"L"
438684,"27289 HIGH SEAS LANE","BONITA SPRINGS","FL",34135,26.3396399850001,-81.799205518,184,"27289 HIGH SEAS LANE, BONITA SPRINGS, FL, 34135","Match","Exact","27289 HIGH SEAS LN, BONITA SPGS, FL, 34135",118003388,"L"
438685,"27289 LOUISVILLE ROAD","CAVE CITY","KY",42127,37.1049002830001,-86.000927766,185,"27289 LOUISVILLE ROAD, CAVE CITY, KY, 42127","Match","Exact","27289 LOUISVILLE RD, CAVE CITY, KY, 42127",29512913,"L"
438686,"27289 SLEEPY HOLLOW AVE APT 204","HAYWARD","CA",94545,37.6328123980001,-122.093857631,186,"27289 SLEEPY HOLLOW AVE APT 204, HAYWARD, CA, 94545","Match","Non_Exact","27289 SLEEPY HOLLOW AVE S, HAYWARD, CA, 94545",125021042,"L"
438687,"2729 10TH AVE SE","MANDAN","ND",58554,46.8009986600001,-100.874656786,187,"2729 10TH AVE SE, MANDAN, ND, 58554","Match","Exact","2729 10TH AVE SE, MANDAN, ND, 58554",199025109,"R"
438688,"2729 18TH STREET","SAN PABLO","CA",94806,37.969893003,-122.347361155,188,"2729 18TH STREET, SAN PABLO, CA, 94806","Match","Exact","2729 18TH ST, SAN PABLO, CA, 94806",192038204,"L"
438689,"2729 230TH AVE","WAUBUN","MN",56589,NA,NA,189,"2729 230TH AVE, WAUBUN, MN, 56589","No_Match",NA,NA,NA,NA
438690,"2729 2ND ST","MONTGOMERY","AL",36108,32.3353835610001,-86.342303108,190,"2729 2ND ST, MONTGOMERY, AL, 36108","Match","Exact","2729 2ND ST, MONTGOMERY, AL, 36108",1474124,"L"
438691,"2729 82ND PLACE UNIT 130","URBANDALE","IA",50322,41.617940693,-93.733459109,191,"2729 82ND PLACE UNIT 130, URBANDALE, IA, 50322","Match","Exact","2729 82ND PL, URBANDALE, IA, 50322",65854995,"R"
438692,"2729 82ND PLACE UNIT 234","URBANDALE","IA",50322,41.617940693,-93.733459109,192,"2729 82ND PLACE UNIT 234, URBANDALE, IA, 50322","Match","Exact","2729 82ND PL, URBANDALE, IA, 50322",65854995,"R"
438693,"2729 ALPINA COURT","PLEASANTON","CA",94588,37.692260349,-121.857861638,193,"2729 ALPINA COURT, PLEASANTON, CA, 94588","Match","Exact","2729 ALPINA CT, PLEASANTON, CA, 94588",125072531,"R"
438694,"2729 ANZIO CT APT 307","PALM BEACH GARDENS","FL",33410,26.849013859,-80.077726819,194,"2729 ANZIO CT APT 307, PALM BEACH GARDENS, FL, 33410","Match","Exact","2729 ANZIO CT, PALM BEACH GARDENS, FL, 33410",618462795,"R"
438695,"2729 ASHGATE DR","BOWLING GREEN","KY",42104,36.9338409280001,-86.43957994,195,"2729 ASHGATE DR, BOWLING GREEN, KY, 42104","Match","Exact","2729 ASHGATE DR, BOWLING GREEN, KY, 42104",638675509,"R"
438696,"2729 BAILEY PLACE NE","CONYERS","GA",30013,33.6452463580001,-83.953054822,196,"2729 BAILEY PLACE NE, CONYERS, GA, 30013","Match","Non_Exact","2729 BAILEY PL, CONYERS, GA, 30013",614154657,"L"
438697,"2729 BAYOU LN","MONROE","LA",71201,32.5483649980001,-92.100954896,197,"2729 BAYOU LN, MONROE, LA, 71201","Match","Exact","2729 BAYOU LN, MONROE, LA, 71201",612389075,"L"
438698,"2729 BEAUTY CREEK RUN","VALPARAISO","IN",46385,NA,NA,198,"2729 BEAUTY CREEK RUN, VALPARAISO, IN, 46385","Tie",NA,NA,NA,NA
438699,"2729 BELLBROOK STREET","TEMPLE HILLS","MD",20748,38.846594166,-76.95976309,199,"2729 BELLBROOK STREET, TEMPLE HILLS, MD, 20748","Match","Exact","2729 BELLBROOK ST, TEMPLE HILLS, MD, 20748",76312293,"R"
438700,"2729 BM MONTGOMERY STREET","BIRMINGHAM","AL",35209,33.4816431730001,-86.795562573,200,"2729 BM MONTGOMERY STREET, BIRMINGHAM, AL, 35209","Match","Non_Exact","2729 B M MONTGOMERY ST, BIRMINGHAM, AL, 35209",81581663,"L"
438701,"2729 BREEZY MEADOW ROAD","KITCHENS","FL",32712,28.71849912,-81.55451343,201,"2729 BREEZY MEADOW ROAD, KITCHENS, FL, 32712","Match","Non_Exact","2729 BREEZY MEADOW RD, APOPKA, FL, 32712",640588303,"R"
438702,"2729 BRENTWOOD BLVD","GRAND ISLAND","NE",68801,40.8926312130001,-98.373983905,202,"2729 BRENTWOOD BLVD, GRAND ISLAND, NE, 68801","Match","Exact","2729 BRENTWOOD BLVD, GRAND ISLAND, NE, 68801",196252068,"R"
438703,"2729 BROADWAY","FORT MEYERS","FL",33901,26.6272302130001,-81.868229562,203,"2729 BROADWAY, FORT MEYERS, FL, 33901","Match","Non_Exact","2729 BROADWAY, FORT MYERS, FL, 33901",118021571,"L"
438704,"2729 BROWNSBURO RD 7","LOUISVILLE","KY",40206,38.2591877580001,-85.695304974,204,"2729 BROWNSBURO RD 7, LOUISVILLE, KY, 40206","Match","Non_Exact","2729 BROWNSBORO RD, LOUISVILLE, KY, 40206",613514074,"L"
438705,"2729 BUTTERNUT CT","PORT HURON","MI",48060,43.0210874520001,-82.449920143,205,"2729 BUTTERNUT CT, PORT HURON, MI, 48060","Match","Exact","2729 BUTTERNUT CT, PORT HURON, MI, 48060",110996667,"L"
438706,"2729 CANNON AVE APT B","CHATTANOOGA","TN",37404,35.018265887,-85.29768123,206,"2729 CANNON AVE APT B, CHATTANOOGA, TN, 37404","Match","Exact","2729 CANNON AVE, CHATTANOOGA, TN, 37404",605450380,"R"
438707,"2729 CASHLIN DR","RALEIGH","NC",27616,35.898965413,-78.513328476,207,"2729 CASHLIN DR, RALEIGH, NC, 27616","Match","Exact","2729 CASHLIN DR, RALEIGH, NC, 27616",612827421,"L"
438708,"2729 CHESTER CT","MARION","SC",29571,34.095349126,-79.379418921,208,"2729 CHESTER CT, MARION, SC, 29571","Match","Exact","2729 CHESTER CT, MARION, SC, 29571",28785863,"R"
438709,"2729 CLEVELAND AVE","KANSAS CITY","MO",64128,39.076055851,-94.538724096,209,"2729 CLEVELAND AVE, KANSAS CITY, MO, 64128","Match","Exact","2729 CLEVELAND AVE, KANSAS CITY, MO, 64128",91451174,"L"
438710,"2729 CONGRESS  ST","NILES","MI",49120,41.7739200510001,-86.2607915299999,210,"2729 CONGRESS  ST, NILES, MI, 49120","Match","Exact","2729 CONGRESS ST, NILES, MI, 49120",647553817,"L"
438711,"2729 COTTAGE PL","GREENSBORO","NC",27455,36.1393849470001,-79.828142756,211,"2729 COTTAGE PL, GREENSBORO, NC, 27455","Match","Exact","2729 COTTAGE PL, GREENSBORO, NC, 27455",131110461,"L"
438712,"2729 DARK RIDGE ROAD","SYLVA","NC",28779,35.41964318,-83.098155602,212,"2729 DARK RIDGE ROAD, SYLVA, NC, 28779","Match","Exact","2729 DARK RIDGE RD, SYLVA, NC, 28779",649190971,"L"
438713,"2729 E 6TH STREET","DULUTH","MN",55812,46.8170412260001,-92.070705512,213,"2729 E 6TH STREET, DULUTH, MN, 55812","Match","Exact","2729 E 6TH ST, DULUTH, MN, 55812",163212593,"L"
438714,"2729 E 6TH STREET","DULUTH","MN",88512,46.8170412260001,-92.070705512,214,"2729 E 6TH STREET, DULUTH, MN, 88512","Match","Non_Exact","2729 E 6TH ST, DULUTH, MN, 55812",163212593,"L"
438715,"2729 E COLGATE","LUBBOCK","TX",79403,33.6024411240001,-101.807380891,215,"2729 E COLGATE, LUBBOCK, TX, 79403","Match","Non_Exact","2729 E COLGATE ST, LUBBOCK, TX, 79403",185248510,"L"
438716,"2729 E LEHIGH AVE","PHILADELPHIA","PA",19125,39.977351492,-75.113680742,216,"2729 E LEHIGH AVE, PHILADELPHIA, PA, 19125","Match","Exact","2729 E LEHIGH AVE, PHILADELPHIA, PA, 19125",131426277,"L"
438717,"2729 ELKMONT RIDGE","ATLANTA","GA",30331,33.6805505520001,-84.6211225229999,217,"2729 ELKMONT RIDGE, ATLANTA, GA, 30331","Match","Non_Exact","2729 ELKMONT RIDGE SW, ATLANTA, GA, 30331",625655714,"L"
438718,"2729 ENOCH AVENUE","ZION","IL",60099,42.4455545530001,-87.829981641,218,"2729 ENOCH AVENUE, ZION, IL, 60099","Match","Exact","2729 ENOCH AVE, ZION, IL, 60099",119628239,"L"
438719,"2729 FORT SCOTT DRIVE","ARLINGTON","VA",22202,38.8490393340001,-77.060998876,219,"2729 FORT SCOTT DRIVE, ARLINGTON, VA, 22202","Match","Non_Exact","2729 S FORT SCOTT DR, ARLINGTON, VA, 22202",76472213,"L"
438720,"2729 GARNET CT","REDDING","CA",96001,40.507804149,-122.369691096,220,"2729 GARNET CT, REDDING, CA, 96001","Match","Exact","2729 GARNET CT, REDDING, CA, 96001",126703163,"R"
438721,"2729 JEFFERSON AVENUE","KNOXVILLE","TN",37914,35.99096167,-83.8945469669999,221,"2729 JEFFERSON AVENUE, KNOXVILLE, TN, 37914","Match","Exact","2729 JEFFERSON AVE, KNOXVILLE, TN, 37914",636701050,"L"
438722,"2729 LIM ROAD","MARIETTA","GA",28362,NA,NA,222,"2729 LIM ROAD, MARIETTA, GA, 28362","No_Match",NA,NA,NA,NA
438723,"2729 MAX DRIVE","HARVEY","LA",70058,29.8652735910001,-90.075162327,223,"2729 MAX DRIVE, HARVEY, LA, 70058","Match","Exact","2729 MAX DR, HARVEY, LA, 70058",93509713,"R"
438724,"2729 MERRILEE DRIVE APT 110","FAIRFAX","VA",22301,38.878693889,-77.230855718,224,"2729 MERRILEE DRIVE APT 110, FAIRFAX, VA, 22301","Match","Non_Exact","2729 MERRILEE DR, FAIRFAX, VA, 22031",650121215,"L"
438725,"2729 MOIR AVE","SANGER","CA",93657,36.6935351400001,-119.576320426,225,"2729 MOIR AVE, SANGER, CA, 93657","Match","Exact","2729 MOIR AVE, SANGER, CA, 93657",619135940,"R"
438726,"2729 MORAINE CIRCLE","SALT LAKE CITY","UT",84109,40.689757469,-111.814743299,226,"2729 MORAINE CIRCLE, SALT LAKE CITY, UT, 84109","Match","Exact","2729 MORAINE CIR, SALT LAKE CITY, UT, 84109",176102257,"L"
438727,"2729 MOUNTAIN BLVD","SEVIERVILLE","TN",37876,35.8047980710001,-83.489546388,227,"2729 MOUNTAIN BLVD, SEVIERVILLE, TN, 37876","Match","Exact","2729 MOUNTAIN BLVD, SEVIERVILLE, TN, 37876",608145945,"R"
438728,"2729 MUSKEGON WAY","W PALM BEACH","FL",33411,26.7197006540001,-80.1623104779999,228,"2729 MUSKEGON WAY, W PALM BEACH, FL, 33411","Match","Exact","2729 MUSKEGON WAY, WEST PALM BEACH, FL, 33411",115348671,"R"
438729,"2729 N MONT CLARE AVE","CHICAGO","IL",60707,41.9295583800001,-87.803999113,229,"2729 N MONT CLARE AVE, CHICAGO, IL, 60707","Match","Exact","2729 N MONT CLARE AVE, CHICAGO, IL, 60707",111752061,"R"
438730,"2729 N TOUCHTON RD","AVON PARK","FL",33825,27.635576003,-81.535843407,230,"2729 N TOUCHTON RD, AVON PARK, FL, 33825","Match","Exact","2729 N TOUCHTON RD, AVON PARK, FL, 33825",4645747,"R"
438731,"2729 N WOZNIAK RD","MICHIGAN CITY","IN",46360,41.6467095460001,-86.850698585,231,"2729 N WOZNIAK RD, MICHIGAN CITY, IN, 46360","Match","Non_Exact","2729 WOZNIAK RD, MICHIGAN CITY, IN, 46360",15413353,"R"
438732,"2729 NE 24TH AVE","PORTLAND","OR",97212,45.542365879,-122.641136788,232,"2729 NE 24TH AVE, PORTLAND, OR, 97212","Match","Exact","2729 NE 24TH AVE, PORTLAND, OR, 97212",157506063,"L"
438733,"2729 NEW PORT ROYAL ROAD","THOMPSONS STATION","TN",37179,35.7782530050001,-86.8990586959999,233,"2729 NEW PORT ROYAL ROAD, THOMPSONS STATION, TN, 37179","Match","Exact","2729 NEW PORT ROYAL RD, THOMPSONS STATION, TN, 37179",73122870,"R"
438734,"2729 NORDLUND WAY","SACRAMENTO","CA",95833,38.6139289330001,-121.481870669,234,"2729 NORDLUND WAY, SACRAMENTO, CA, 95833","Match","Exact","2729 NORDLUND WAY, SACRAMENTO, CA, 95833",133320528,"L"
438735,"2729 NORTH 850 EAST","NORTH OGDEN","UT",84414,41.3086150560001,-111.953152366,235,"2729 NORTH 850 EAST, NORTH OGDEN, UT, 84414","Match","Exact","2729 N 850 E, NORTH OGDEN, UT, 84414",650428298,"L"
438736,"2729 NW 6 STREET","POMPANO BEACH","FL",33069,26.2368393690001,-80.160086506,236,"2729 NW 6 STREET, POMPANO BEACH, FL, 33069","Match","Exact","2729 NW 6TH ST, POMPANO BEACH, FL, 33069",114694041,"R"
438737,"2729 OAKLEAF AVE","CINCINNATI","OH",45212,39.178164339,-84.439236647,237,"2729 OAKLEAF AVE, CINCINNATI, OH, 45212","Match","Exact","2729 OAKLEAF AVE, CINCINNATI, OH, 45212",103929409,"L"
438738,"2729 OAKLEIGH COURT","TALLAHASSEE","FL",32312,30.584894503,-84.2289475869999,238,"2729 OAKLEIGH COURT, TALLAHASSEE, FL, 32312","Match","Exact","2729 OAKLEIGH CT, TALLAHASSEE, FL, 32312",82870439,"L"
438739,"2729 OLDE MILL ROAD","FLORENCE","SC",29505,34.14476798,-79.754416507,239,"2729 OLDE MILL ROAD, FLORENCE, SC, 29505","Match","Exact","2729 OLDE MILL RD, FLORENCE, SC, 29505",28911494,"L"
438740,"2729 PARKWOOD","TOLEDO","OH",43610,41.6747371330001,-83.5574440729999,240,"2729 PARKWOOD, TOLEDO, OH, 43610","Match","Non_Exact","2729 PARKWOOD AVE, TOLEDO, OH, 43610",33943130,"L"
438741,"2729 PORTER AVE STE 254","EL PASO","TX",79930,31.804930998,-106.46390646,241,"2729 PORTER AVE STE 254, EL PASO, TX, 79930","Match","Exact","2729 PORTER AVE, EL PASO, TX, 79930",189340406,"L"
438742,"2729 PORTER AVE STE C","EL PASO","TX",79930,31.804930998,-106.46390646,242,"2729 PORTER AVE STE C, EL PASO, TX, 79930","Match","Exact","2729 PORTER AVE, EL PASO, TX, 79930",189340406,"L"
438743,"2729 PORTER AVENUE","EL PASO","TX",79930,31.804930998,-106.46390646,243,"2729 PORTER AVENUE, EL PASO, TX, 79930","Match","Exact","2729 PORTER AVE, EL PASO, TX, 79930",189340406,"L"
438744,"2729 RIVERLEA DR SE","OLYMPIA","WA",98502,46.975943638,-122.860540117,244,"2729 RIVERLEA DR SE, OLYMPIA, WA, 98502","Match","Non_Exact","2729 RIVERLEA DR SE, OLYMPIA, WA, 98501",180974007,"L"
438745,"2729 RUTLEDGE WAY","STOCKTON","CA",95207,38.0033910860001,-121.346535708,245,"2729 RUTLEDGE WAY, STOCKTON, CA, 95207","Match","Non_Exact","2729 W RUTLEDGE WAY, STOCKTON, CA, 95207",133842843,"R"
438746,"2729 S 78TH STREET","PHILADELPHIA","PA",19153,39.904650551,-75.244568337,246,"2729 S 78TH STREET, PHILADELPHIA, PA, 19153","Match","Exact","2729 S 78TH ST, PHILADELPHIA, PA, 19153",131408763,"L"
438747,"2729 SALEM CH RD","SNEADS","FL",32460,NA,NA,247,"2729 SALEM CH RD, SNEADS, FL, 32460","No_Match",NA,NA,NA,NA
438748,"2729 SAN ANTONIO ST","SAN ANGELO","TX",76901,31.4506437100001,-100.473957503,248,"2729 SAN ANTONIO ST, SAN ANGELO, TX, 76901","Match","Exact","2729 SAN ANTONIO ST, SAN ANGELO, TX, 76901",190679278,"L"
438749,"2729 SHIELD STREET","NORTH LAS VEGAS","NV",89030,36.2091079210001,-115.148968601,249,"2729 SHIELD STREET, NORTH LAS VEGAS, NV, 89030","Match","Exact","2729 SHIELD ST, N LAS VEGAS, NV, 89030",201865940,"L"
438750,"2729 SOUTH EUCLID","BERWYN","IL",60402,NA,NA,250,"2729 SOUTH EUCLID, BERWYN, IL, 60402","No_Match",NA,NA,NA,NA
438751,"2729 SPRINGFIELD DR","ELON","NC",27244,36.1512820930001,-79.513041256,251,"2729 SPRINGFIELD DR, ELON, NC, 27244","Match","Exact","2729 SPRINGFIELD DR, ELON, NC, 27244",71653605,"R"
438752,"2729 SPRINGHILL DR","GRAPEVINE","TX",76051,32.908345637,-97.108268563,252,"2729 SPRINGHILL DR, GRAPEVINE, TX, 76051","Match","Exact","2729 SPRINGHILL DR, GRAPEVINE, TX, 76051",102091778,"R"
438753,"2729 SPYGLASS DR","CARROLLTON","TX",75007,32.9887405200001,-96.896305765,253,"2729 SPYGLASS DR, CARROLLTON, TX, 75007","Match","Exact","2729 SPYGLASS DR, CARROLLTON, TX, 75007",103415543,"R"
438754,"2729 STATE RD 580","CLEARWATER","FL",33761,NA,NA,254,"2729 STATE RD 580, CLEARWATER, FL, 33761","No_Match",NA,NA,NA,NA
438755,"2729 STATE ROUTE 10","SUMMIT","NY",12175,42.5702780680001,-74.596445076,255,"2729 STATE ROUTE 10, SUMMIT, NY, 12175","Match","Exact","2729 STATE RTE 10, SUMMIT, NY, 12175",639228992,"L"
438756,"2729 SUNSET DR","GRANITE CITY","IL",62040,38.710252418,-90.116079166,256,"2729 SUNSET DR, GRANITE CITY, IL, 62040","Match","Exact","2729 SUNSET DR, GRANITE CITY, IL, 62040",107682411,"R"
438757,"2729 TAFT STREET","SACRAMENTO","CA",95815,38.615755463,-121.438089556,257,"2729 TAFT STREET, SACRAMENTO, CA, 95815","Match","Exact","2729 TAFT ST, SACRAMENTO, CA, 95815",133330184,"L"
438758,"2729 TEN MILE RD","PACE","FL",32571,30.721670348,-87.210687526,258,"2729 TEN MILE RD, PACE, FL, 32571","Match","Exact","2729 TEN MILE RD, PACE, FL, 32571",74554960,"L"
438759,"2729 TERRACE ROAD SE APT 342","WASHINGTON","DC",20020,38.856366789,-76.96327788,259,"2729 TERRACE ROAD SE APT 342, WASHINGTON, DC, 20020","Match","Exact","2729 TERRACE RD SE, WASHINGTON, DC, 20020",76232909,"R"
438760,"2729 TRAILWOOD DRIVE","LEXINGTON","KY",40504,38.0806056340001,-84.5521413,260,"2729 TRAILWOOD DRIVE, LEXINGTON, KY, 40504","Match","Non_Exact","2729 TRAILWOOD DR, LEXINGTON, KY, 40511",31946462,"L"
438761,"2729 US ROUTE 11","PARISH","NY",13131,43.426247592,-76.157147844,261,"2729 US ROUTE 11, PARISH, NY, 13131","Match","Non_Exact","2729 US HWY 11, PARISH, NY, 13131",57827139,"L"
438762,"2729 VERMONT AVENUE","JOPLIN","MO",64804,37.0601418680001,-94.4979859439999,262,"2729 VERMONT AVENUE, JOPLIN, MO, 64804","Match","Exact","2729 VERMONT AVE, JOPLIN, MO, 64804",66151491,"L"
438763,"2729 VIA MURANO APT 426","CLEARWATER","FL",33764,27.9373330810001,-82.727144075,263,"2729 VIA MURANO APT 426, CLEARWATER, FL, 33764","Match","Exact","2729 VIA MURANO, CLEARWATER, FL, 33764",647863379,"R"
438764,"2729 W GRIFFITH","FRESNO","CA",93705,36.7900565630001,-119.842713319,264,"2729 W GRIFFITH, FRESNO, CA, 93705","Match","Non_Exact","2729 W GRIFFITH WAY, FRESNO, CA, 93705",197568094,"L"
438765,"2729 W JARVIS AVE UNIT 1","CHICAGO","IL",60645,42.0157198750001,-87.698517683,265,"2729 W JARVIS AVE UNIT 1, CHICAGO, IL, 60645","Match","Non_Exact","2729 W JARVIS AVE, CHICAGO, IL, 60645",605264985,"L"
438766,"2729 WEDGEWOOD DR","JACKSON","MO",63755,37.391706023,-89.632480747,266,"2729 WEDGEWOOD DR, JACKSON, MO, 63755","Match","Exact","2729 WEDGEWOOD DR, JACKSON, MO, 63755",35191527,"L"
438767,"2729-D YANCEYVILLE STREET","GREENSBORO","NC",27405,36.110910774,-79.775112431,267,"2729-D YANCEYVILLE STREET, GREENSBORO, NC, 27405","Match","Exact","2729 YANCEYVILLE ST, GREENSBORO, NC, 27405",131031178,"L"
438768,"27290 MARKBERRY","EUCLID","OH",44132,41.6153776790001,-81.492342228,268,"27290 MARKBERRY, EUCLID, OH, 44132","Match","Non_Exact","27290 MARKBARRY AVE, EUCLID, OH, 44132",61133087,"R"
438769,"27290 TOUTANT BLVD","BOERNE","TX",78006,NA,NA,269,"27290 TOUTANT BLVD, BOERNE, TX, 78006","No_Match",NA,NA,NA,NA
438770,"27291 CALLE DE LA ROSA","SAN JUAN CAPISTRANO","CA",92675,33.5070967550001,-117.655635022,270,"27291 CALLE DE LA ROSA, SAN JUAN CAPISTRANO, CA, 92675","Match","Non_Exact","27291 CLL DE LA ROSA, SAN JUAN CAPISTRANO, CA, 92675",609046606,"R"
438771,"27293 BASS ROAD","VOLGA CITY","IA",52077,NA,NA,271,"27293 BASS ROAD, VOLGA CITY, IA, 52077","No_Match",NA,NA,NA,NA
438772,"27294  COUNTY ROAD  2240 NORTH","TOPEKA","IL",61567,40.382950636,-89.8603004999999,272,"27294  COUNTY ROAD  2240 NORTH, TOPEKA, IL, 61567","Match","Exact","27294 CO RD 2240 N, TOPEKA, IL, 61567",37763075,"R"
438773,"27294 COUNTY ROAD  2240 NORTH","TOPEKA","IL",61567,40.382950636,-89.8603004999999,273,"27294 COUNTY ROAD  2240 NORTH, TOPEKA, IL, 61567","Match","Exact","27294 CO RD 2240 N, TOPEKA, IL, 61567",37763075,"R"
438774,"27295 CASTVALE ROAD","PALOS VERDES PENINSU","CA",90274,NA,NA,274,"27295 CASTVALE ROAD, PALOS VERDES PENINSU, CA, 90274","No_Match",NA,NA,NA,NA
438775,"27295 ZACHARY AVE","ELKO","MN",55020,44.554481368,-93.420342424,275,"27295 ZACHARY AVE, ELKO, MN, 55020","Match","Exact","27295 ZACHARY AVE, ELKO, MN, 55020",648567582,"R"
438776,"27295 ZACHARY AVENUE","ELKO","MN",55020,44.554481368,-93.420342424,276,"27295 ZACHARY AVENUE, ELKO, MN, 55020","Match","Exact","27295 ZACHARY AVE, ELKO, MN, 55020",648567582,"R"
438777,"27298 EAST JAMISON PLACE","AURORA","CO",80016,39.577853254,-104.670454193,277,"27298 EAST JAMISON PLACE, AURORA, CO, 80016","Match","Exact","27298 E JAMISON PL, AURORA, CO, 80016",177563426,"R"
438778,"27299 FORD REED ROAD","RICHWOOD","OH",43344,40.398604871,-83.365203924,278,"27299 FORD REED ROAD, RICHWOOD, OH, 43344","Match","Exact","27299 FORD REED RD, RICHWOOD, OH, 43344",135331975,"L"
438779,"273 16TH ST STE 204","JERSEY CITY","NJ",7310,40.7333580640001,-74.044348176,279,"273 16TH ST STE 204, JERSEY CITY, NJ, 7310","Match","Exact","273 16TH ST, JERSEY CITY, NJ, 07310",59605499,"L"
438780,"273 ABBOTT AVENUE","ELMSFORD","NY",10523,41.063502983,-73.8100798579999,280,"273 ABBOTT AVENUE, ELMSFORD, NY, 10523","Match","Exact","273 ABBOTT AVE, ELMSFORD, NY, 10523",139764414,"L"
438781,"273 ALEX DR","COPPELL","TX",75019,32.9770075800001,-96.983769593,281,"273 ALEX DR, COPPELL, TX, 75019","Match","Exact","273 ALEX DR, COPPELL, TX, 75019",640541475,"R"
438782,"273 ALEXANDRA DRIVE UNIT 7","CHARLESTON","SC",29412,NA,NA,282,"273 ALEXANDRA DRIVE UNIT 7, CHARLESTON, SC, 29412","No_Match",NA,NA,NA,NA
438783,"273 ANTLERS DRIVE","ROCHESTER, NY","NY",14618,43.126807967,-77.5708771339999,283,"273 ANTLERS DRIVE, ROCHESTER, NY, NY, 14618","Match","Non_Exact","273 ANTLERS DR, ROCHESTER, NY, 14618",14541415,"R"
438784,"273 APPLEWOOD CENTER PL POB 237","SENECA","SC",29678,34.6897511550001,-82.991701454,284,"273 APPLEWOOD CENTER PL POB 237, SENECA, SC, 29678","Match","Exact","273 APPLEWOOD CENTER PL, SENECA, SC, 29678",646636691,"L"
438785,"273 APPLEWOOD CTR PLACE STE 218","SENECA","SC",29678,34.6897511550001,-82.991701454,285,"273 APPLEWOOD CTR PLACE STE 218, SENECA, SC, 29678","Match","Exact","273 APPLEWOOD CENTER PL, SENECA, SC, 29678",646636691,"L"
438786,"273 ARBORWOOD LANE","ROCHESTER","NY",14607,43.1880575590001,-77.6513548789999,286,"273 ARBORWOOD LANE, ROCHESTER, NY, 14607","Match","Non_Exact","273 ARBORWOOD LN, ROCHESTER, NY, 14615",14557400,"L"
438787,"273 ARTESIAN FIELDS LANE","COLUMBUS","MS",39701,33.4422843020001,-88.540057473,287,"273 ARTESIAN FIELDS LANE, COLUMBUS, MS, 39701","Match","Exact","273 ARTESIAN FIELDS LN, COLUMBUS, MS, 39701",649459259,"R"
438788,"273 ASHLEY CT","BEAVERCREEEK","OH",45434,39.6971669420001,-84.0554456099999,288,"273 ASHLEY CT, BEAVERCREEEK, OH, 45434","Match","Non_Exact","273 ASHLEY CT, BEAVERCREEK, OH, 45434",143378076,"L"
438789,"273 ATLANTIS  ROAD","CHILLICOTHE","OH",45601,39.3770214130001,-83.048008614,289,"273 ATLANTIS  ROAD, CHILLICOTHE, OH, 45601","Match","Exact","273 ATLANTIS RD, CHILLICOTHE, OH, 45601",37497917,"R"
438790,"273 AYLESBURY BLVD","MCDONOUGH","GA",30252,33.445737496,-84.1104790589999,290,"273 AYLESBURY BLVD, MCDONOUGH, GA, 30252","Match","Exact","273 AYLESBURY BV, MCDONOUGH, GA, 30252",650989520,"L"
438791,"273 BAHAMA LANE","PALM BEACH","FL",33480,26.7461909400001,-80.038282259,291,"273 BAHAMA LANE, PALM BEACH, FL, 33480","Match","Exact","273 BAHAMA LN, PALM BEACH, FL, 33480",115277998,"R"
438792,"273 BARTLETT DRIVE","MADISON","CT",6443,41.332516551,-72.649394652,292,"273 BARTLETT DRIVE, MADISON, CT, 6443","Match","Exact","273 BARTLETT DR, MADISON, CT, 06443",653164430,"R"
438793,"273 BISHOPS HIGHWAY","KINGSTON","MA",2364,41.9524634110001,-70.7377522259999,293,"273 BISHOPS HIGHWAY, KINGSTON, MA, 2364","Match","Exact","273 BISHOPS HWY, KINGSTON, MA, 02364",87490209,"L"
438794,"273 BIXBY RD","SCHOHARIE","NY",12157,42.6497775500001,-74.415066789,294,"273 BIXBY RD, SCHOHARIE, NY, 12157","Match","Exact","273 BIXBY RD, SCHOHARIE, NY, 12157",18920110,"R"
438795,"273 BLACKHAWK TRACE","GALENA","IL",61036,42.391947213,-90.316013012,295,"273 BLACKHAWK TRACE, GALENA, IL, 61036","Match","Exact","273 BLACKHAWK TRCE, GALENA, IL, 61036",27730032,"R"
438796,"273 BLACKSMITH ROAD","OLEY","PA",19547,40.3406616120001,-75.768614825,296,"273 BLACKSMITH ROAD, OLEY, PA, 19547","Match","Exact","273 BLACKSMITH RD, OLEY, PA, 19547",80387590,"R"
438797,"273 BOWEN STREET","BILOXI","MS",39530,NA,NA,297,"273 BOWEN STREET, BILOXI, MS, 39530","No_Match",NA,NA,NA,NA
438798,"273 BRENTWOOD DRIVE","HOUMA","LA",70360,29.569168136,-90.759062679,298,"273 BRENTWOOD DRIVE, HOUMA, LA, 70360","Match","Exact","273 BRENTWOOD DR, HOUMA, LA, 70360",627291889,"L"
438799,"273 BRETHERN RD","BECKLEY","WV",25801,NA,NA,299,"273 BRETHERN RD, BECKLEY, WV, 25801","No_Match",NA,NA,NA,NA
438800,"273 BRISAGE BLVD","MADISON","MS",39110,32.460525494,-90.10258823,300,"273 BRISAGE BLVD, MADISON, MS, 39110","Match","Exact","273 BRISAGE BLVD, MADISON, MS, 39110",635161318,"L"
438801,"273 BROOKDALE LOOP","CLERMONT","FL",34711,28.560334529,-81.746598928,301,"273 BROOKDALE LOOP, CLERMONT, FL, 34711","Match","Exact","273 BROOKDALE LOOP, CLERMONT, FL, 34711",617503030,"L"
438802,"273 BUCKTAIL DR","MIDDLETOWN","DE",19709,39.454598968,-75.6961022139999,302,"273 BUCKTAIL DR, MIDDLETOWN, DE, 19709","Match","Exact","273 BUCKTAIL DR, MIDDLETOWN, DE, 19709",640738669,"R"
438803,"273 BUFFALO AVE APT 3B","BROOKLYN","NY",11213,40.669583731,-73.925468622,303,"273 BUFFALO AVE APT 3B, BROOKLYN, NY, 11213","Match","Exact","273 BUFFALO AVE, BROOKLYN, NY, 11213",59083422,"L"
438804,"273 BUTTERFLY DRIVE","RANGER","GA",30734,34.5484823190001,-84.80266268,304,"273 BUTTERFLY DRIVE, RANGER, GA, 30734","Match","Exact","273 BUTTERFLY DR, RANGER, GA, 30734",636187509,"R"
438805,"273 CABOT MAIL CENTER","CAMBRIDGE","MA",2138,NA,NA,305,"273 CABOT MAIL CENTER, CAMBRIDGE, MA, 2138","No_Match",NA,NA,NA,NA
438806,"273 CADDO LAKE DR","GEORGETOWN","TX",78628,30.572823251,-97.775216391,306,"273 CADDO LAKE DR, GEORGETOWN, TX, 78628","Match","Exact","273 CADDO LAKE DR, GEORGETOWN, TX, 78628",641086983,"L"
438807,"273 CANYON ST","HELPER","UT",84526,39.6883917800001,-110.858770545,307,"273 CANYON ST, HELPER, UT, 84526","Match","Exact","273 CANYON ST, HELPER, UT, 84526",132819528,"L"
438808,"273 CASCADING ST","HENDERSON","NV",89074,36.0468471460001,-115.050556112,308,"273 CASCADING ST, HENDERSON, NV, 89074","Match","Exact","273 CASCADING ST, HENDERSON, NV, 89074",201976678,"L"
438809,"273 CENTRAL AVE","ALBANY","NY",12206,42.663445331,-73.7709341029999,309,"273 CENTRAL AVE, ALBANY, NY, 12206","Match","Exact","273 CENTRAL AVE, ALBANY, NY, 12206",18310061,"R"
438810,"273 CERAMIC DRIVE","COLUMBUS","OH",43214,40.0451125000001,-83.0270432199999,310,"273 CERAMIC DRIVE, COLUMBUS, OH, 43214","Match","Exact","273 CERAMIC DR, COLUMBUS, OH, 43214",218693453,"L"
438811,"273 CHAPEL TERRACE APT 5","BURLINGTON","WI",53105,42.675457254,-88.264797129,311,"273 CHAPEL TERRACE APT 5, BURLINGTON, WI, 53105","Match","Exact","273 CHAPEL TER, BURLINGTON, WI, 53105",77933555,"L"
438812,"273 CHELF RIDGE RD","HUSTONVILLE","KY",40437,37.3724240170001,-84.9303059869999,312,"273 CHELF RIDGE RD, HUSTONVILLE, KY, 40437","Match","Exact","273 CHELF RIDGE RD, HUSTONVILLE, KY, 40437",652743009,"L"
438813,"273 CHIMES VIEW DR","OGDEN","UT",84403,41.1918334760001,-111.97459839,313,"273 CHIMES VIEW DR, OGDEN, UT, 84403","Match","Non_Exact","273 CHIMES VIEW DR, OGDEN, UT, 84405",615189058,"R"
438814,"273 CIDER HILL RD","YORK","ME",3909,43.1666413500001,-70.711001207,314,"273 CIDER HILL RD, YORK, ME, 3909","Match","Exact","273 CIDER HILL RD, YORK, ME, 03909",92747482,"R"
438815,"273 CIRCLE HILLS DR","GRAND FORKS","ND",58201,47.877312719,-97.0263280349999,315,"273 CIRCLE HILLS DR, GRAND FORKS, ND, 58201","Match","Exact","273 CIRCLE HILLS DR, GRAND FORKS, ND, 58201",171277362,"R"
438816,"273 CLERMONT AVE","BROOKLYN","NY",11205,40.689211281,-73.970064012,316,"273 CLERMONT AVE, BROOKLYN, NY, 11205","Match","Exact","273 CLERMONT AVE, BROOKLYN, NY, 11205",59077926,"L"
438817,"273 CLIFTON PLACE UNIT 2B","BROOKLYN","NY",11216,40.689002626,-73.952507719,317,"273 CLIFTON PLACE UNIT 2B, BROOKLYN, NY, 11216","Match","Exact","273 CLIFTON PL, BROOKLYN, NY, 11216",634254963,"L"
438818,"273 COBBLESTONE PLACE DRIVE","GOODLETTSVILLE","TN",37072,NA,NA,318,"273 COBBLESTONE PLACE DRIVE, GOODLETTSVILLE, TN, 37072","No_Match",NA,NA,NA,NA
438819,"273 COGBURN ROAD","COLUMBIA","SC",29229,34.157583747,-80.94889363,319,"273 COGBURN ROAD, COLUMBIA, SC, 29229","Match","Exact","273 COGBURN RD, COLUMBIA, SC, 29229",641133448,"L"
438820,"273 COMMONWEALTH AVE","ATTLEBORO FALLS","MA",2763,41.969064872,-71.30527992,320,"273 COMMONWEALTH AVE, ATTLEBORO FALLS, MA, 2763","Match","Exact","273 COMMONWEALTH AVE, ATTLEBORO FALLS, MA, 02763",46747091,"L"
438821,"273 CONGERS RD","NEW CITY","NY",10956,NA,NA,321,"273 CONGERS RD, NEW CITY, NY, 10956","Tie",NA,NA,NA,NA
438822,"273 CR 114","HICKORY RIDGE","AR",72347,35.3672120570001,-90.946278465,322,"273 CR 114, HICKORY RIDGE, AR, 72347","Match","Exact","273 CO RD 114, HICKORY RIDGE, AR, 72347",69173698,"R"
438823,"273 CR 2236","CLEVELAND","TX",77327,30.3296296450001,-94.986548281,323,"273 CR 2236, CLEVELAND, TX, 77327","Match","Exact","273 CO RD 2236, CLEVELAND, TX, 77327",24130124,"L"
438824,"273 CR 2546","MERIDIAN","TX",76665,32.0004775200001,-97.6945188449999,324,"273 CR 2546, MERIDIAN, TX, 76665","Match","Exact","273 CO RD 2546, MERIDIAN, TX, 76665",158594206,"L"
438825,"273 CRYSTAL COURT","HOWELL","MI",48843,42.5947837800001,-83.953320447,325,"273 CRYSTAL COURT, HOWELL, MI, 48843","Match","Exact","273 CRYSTAL CT, HOWELL, MI, 48843",619591384,"L"
438826,"273 DAVIDS TRACE","PISGAH FOREST","NC",28768,35.302449745,-82.6774567959999,326,"273 DAVIDS TRACE, PISGAH FOREST, NC, 28768","Match","Non_Exact","273 DAVID'S TRCE, PISGAH FOREST, NC, 28768",611220927,"L"
438827,"273 DEER RUN ROAD","KUTZTOWN","PA",19530,40.574886948,-75.7537318459999,327,"273 DEER RUN ROAD, KUTZTOWN, PA, 19530","Match","Exact","273 DEER RUN RD, KUTZTOWN, PA, 19530",642115159,"R"
438828,"273 DEERWOOD CIRCLE","BANDERA","TX",78003,29.706906373,-99.0427547629999,328,"273 DEERWOOD CIRCLE, BANDERA, TX, 78003","Match","Exact","273 DEERWOOD CIR, BANDERA, TX, 78003",102707179,"R"
438829,"273 DOGWOOD DR","ANNANDALE","MN",55302,45.266672489,-94.098155826,329,"273 DOGWOOD DR, ANNANDALE, MN, 55302","Match","Exact","273 DOGWOOD DR, ANNANDALE, MN, 55302",44014713,"R"
438830,"273 DOGWOOD DRIVE","ANNANDALE","MN",55302,45.266672489,-94.098155826,330,"273 DOGWOOD DRIVE, ANNANDALE, MN, 55302","Match","Exact","273 DOGWOOD DR, ANNANDALE, MN, 55302",44014713,"R"
438831,"273 DRAKE AVE","MARIN CITY","CA",94965,37.8695788570001,-122.508855076,331,"273 DRAKE AVE, MARIN CITY, CA, 94965","Match","Non_Exact","273 DRAKE AVE, MUIR BEACH, CA, 94965",636413260,"R"
438832,"273 E 38 STREET","BROOKLYN","NY",11203,40.6507877130001,-73.9418419849999,332,"273 E 38 STREET, BROOKLYN, NY, 11203","Match","Exact","273 E 38TH ST, BROOKLYN, NY, 11203",59081825,"L"
438833,"273 E BROADWAY ST","LOVELAND","OH",45140,NA,NA,333,"273 E BROADWAY ST, LOVELAND, OH, 45140","Tie",NA,NA,NA,NA
438834,"273 E CITY ROAD","SMYRNA","NC",28579,34.76013242,-76.5143946479999,334,"273 E CITY ROAD, SMYRNA, NC, 28579","Match","Exact","273 E CITY RD, SMYRNA, NC, 28579",223878769,"R"
438835,"273 E ERIE ST","MILWAUKEE","WI",53202,43.0309484300001,-87.907305332,335,"273 E ERIE ST, MILWAUKEE, WI, 53202","Match","Exact","273 E ERIE ST, MILWAUKEE, WI, 53202",77744934,"R"
438836,"273 E JACKSON AVE","PRIEST RIVER","ID",83856,48.1820581210001,-116.90974191,336,"273 E JACKSON AVE, PRIEST RIVER, ID, 83856","Match","Exact","273 JACKSON AVE, PRIEST RIVER, ID, 83856",169478547,"R"
438837,"273 E PAINTED TRAIL WAY","KINGMAN","AZ",86409,35.24135427,-114.053329819,337,"273 E PAINTED TRAIL WAY, KINGMAN, AZ, 86409","Match","Exact","273 PAINTED TRAIL WAY, KINGMAN, AZ, 86409",634330695,"R"
438838,"273 E VINE","FARMINGTON","IL",61531,40.691899511,-90.002399387,338,"273 E VINE, FARMINGTON, IL, 61531","Match","Non_Exact","273 E VINE ST, FARMINGTON, IL, 61531",15552180,"R"
438839,"273 EAST 151ST","CLEVELAND","OH",44110,41.5754814110001,-81.5764239219999,339,"273 EAST 151ST, CLEVELAND, OH, 44110","Match","Non_Exact","273 E 151ST ST, CLEVELAND, OH, 44110",61107608,"L"
438840,"273 EAST 175TH STREET APT 7","BRONX","NY",10457,40.8466809190001,-73.905273307,340,"273 EAST 175TH STREET APT 7, BRONX, NY, 10457","Match","Exact","273 E 175TH ST, BRONX, NY, 10457",80301029,"L"
438841,"273 EAST 68TH AVE","MERRILLVILLE","IN",46410,41.494413701,-87.332321069,341,"273 EAST 68TH AVE, MERRILLVILLE, IN, 46410","Match","Exact","273 E 68TH AVE, MERRILLVILLE, IN, 46410",98435155,"R"
438842,"273 EAST ROCKAWAY ROAD","HEWLETT","NY",11557,NA,NA,342,"273 EAST ROCKAWAY ROAD, HEWLETT, NY, 11557","No_Match",NA,NA,NA,NA
438843,"273 EAST WASHINGTON AVENYE","CHICO","CA",95926,39.7374512380001,-121.841711447,343,"273 EAST WASHINGTON AVENYE, CHICO, CA, 95926","Match","Non_Exact","273 E WASHINGTON AVE, CHICO, CA, 95926",68427218,"R"
438844,"273 FENWICK AVENUE","SALEM","NJ",8079,39.570119721,-75.460137765,344,"273 FENWICK AVENUE, SALEM, NJ, 8079","Match","Exact","273 FENWICK AVE, SALEM, NJ, 08079",649893506,"R"
438845,"273 FIRESIDE TRAIL","DOUGLASVILLE","GA",30134,33.808504355,-84.7742024249999,345,"273 FIRESIDE TRAIL, DOUGLASVILLE, GA, 30134","Match","Exact","273 FIRESIDE TRL, DOUGLASVILLE, GA, 30134",207991371,"L"
438846,"273 FIRST STREET","JONESVILLE","VA",24263,36.6892887110001,-83.1186660559999,346,"273 FIRST STREET, JONESVILLE, VA, 24263","Match","Exact","273 1ST ST, JONESVILLE, VA, 24263",79108789,"L"
438847,"273 FORT MOTT ROAD","PENNSVILLE","NJ",8070,39.6224570950001,-75.5319353099999,347,"273 FORT MOTT ROAD, PENNSVILLE, NJ, 8070","Match","Exact","273 FORT MOTT RD, PENNSVILLE, NJ, 08070",174412270,"L"
438848,"273 FOSS ST APT 23","SALT LAKE CITY","UT",84104,40.7634595580001,-111.934820558,348,"273 FOSS ST APT 23, SALT LAKE CITY, UT, 84104","Match","Non_Exact","273 S FOSS ST, SALT LAKE CITY, UT, 84104",176066142,"L"
438849,"273 FOUNTAINE LANE","LAWRENCEVILLE","NJ",8648,40.279367064,-74.6828177519999,349,"273 FOUNTAINE LANE, LAWRENCEVILLE, NJ, 8648","Match","Non_Exact","273 FOUNTAYNE LN, LAWRENCEVILLE, NJ, 08648",653265395,"L"
438850,"273 FOUNTAYNE LANE","LAWRENCEVILLE","NJ",8648,40.279367064,-74.6828177519999,350,"273 FOUNTAYNE LANE, LAWRENCEVILLE, NJ, 8648","Match","Exact","273 FOUNTAYNE LN, LAWRENCEVILLE, NJ, 08648",653265395,"L"
438851,"273 FREEDOM LANE","WIRTZ","VA",24184,37.083764323,-79.827588974,351,"273 FREEDOM LANE, WIRTZ, VA, 24184","Match","Exact","273 FREEDOM LN, WIRTZ, VA, 24184",617445034,"L"
438852,"273 GEORGE CLYDE LANE","HIGH POINT","NC",27262,35.95117708,-80.0881421459999,352,"273 GEORGE CLYDE LANE, HIGH POINT, NC, 27262","Match","Exact","273 GEORGE CLYDE LN, HIGH POINT, NC, 27262",604806465,"R"
438853,"273 GRAND AVENUE","BELGIUM","WI",53004,43.503563952,-87.8393026859999,353,"273 GRAND AVENUE, BELGIUM, WI, 53004","Match","Exact","273 GRAND AVE, BELGIUM, WI, 53004",649743679,"L"
438854,"273 GREENFIELDS DRIVE","WESTMINSTER","MD",21158,39.71092636,-77.002355225,354,"273 GREENFIELDS DRIVE, WESTMINSTER, MD, 21158","Match","Exact","273 GREENFIELDS DR, WESTMINSTER, MD, 21158",61787237,"R"
438855,"273 GROVE ST APT 4A","JERSEY CITY","NJ",7302,40.7175575700001,-74.0441054199999,355,"273 GROVE ST APT 4A, JERSEY CITY, NJ, 7302","Match","Exact","273 GROVE ST, JERSEY CITY, NJ, 07302",59606245,"L"
438856,"273 HARDERS CROSSING BLVD","SHREVEPORT","LA",71106,32.351540017,-93.718172754,356,"273 HARDERS CROSSING BLVD, SHREVEPORT, LA, 71106","Match","Exact","273 HARDERS CROSSING BLVD, SHREVEPORT, LA, 71106",639249226,"R"
438857,"273 HARLAND STREET","EXETER","PA",18643,41.3141804810001,-75.8268528039999,357,"273 HARLAND STREET, EXETER, PA, 18643","Match","Exact","273 HARLAND ST, EXETER, PA, 18643",80916473,"L"
438858,"273 HATCH SCHOOL ROAD","BRATTLEBORO","VT",5301,42.821534758,-72.7652677579999,358,"273 HATCH SCHOOL ROAD, BRATTLEBORO, VT, 5301","Match","Exact","273 HATCH SCHOOL RD, BRATTLEBORO, VT, 05301",171079060,"L"
438859,"273 HAWTHORNE AVE","HADDONFIELD","NJ",8033,39.9063389740001,-75.034520097,359,"273 HAWTHORNE AVE, HADDONFIELD, NJ, 8033","Match","Exact","273 HAWTHORNE AVE, HADDONFIELD, NJ, 08033",134354200,"L"
438860,"273 HAWTHORNE AVE","HADDONFIELD","PA",8033,NA,NA,360,"273 HAWTHORNE AVE, HADDONFIELD, PA, 8033","No_Match",NA,NA,NA,NA
438861,"273 HIBISCUS ST","SAN JACINTO","CA",92582,33.784714229,-117.017041054,361,"273 HIBISCUS ST, SAN JACINTO, CA, 92582","Match","Non_Exact","273 HIBISCUS AVE, SAN JACINTO, CA, 92582",609003245,"R"
438862,"273 HIGHMEADOW DR","GAHANNA","OH",43230,40.054634154,-82.869242001,362,"273 HIGHMEADOW DR, GAHANNA, OH, 43230","Match","Non_Exact","273 HIGHMEADOW CT, GAHANNA, OH, 43230",135761346,"L"
438863,"273 HILDAGO RD","ST AUGUSTINE","FL",32080,29.7808904010001,-81.26142172,363,"273 HILDAGO RD, ST AUGUSTINE, FL, 32080","Match","Exact","273 HILDAGO RD, SAINT AUGUSTINE, FL, 32080",92586459,"R"
438864,"273 HILL N DALE ROAD","LEXINGTON","KY",40503,38.009249964,-84.5310184049999,364,"273 HILL N DALE ROAD, LEXINGTON, KY, 40503","Match","Exact","273 HILL N DALE RD, LEXINGTON, KY, 40503",31920282,"R"
438865,"273 IL RTE 2","DIXON","IL",61021,41.8229139540001,-89.57550528,365,"273 IL RTE 2, DIXON, IL, 61021","Match","Non_Exact","273 STATE RTE 2, DIXON, IL, 61021",646519098,"L"
438866,"273 JAMES DR","WEWAHITCHKA","FL",32465,30.0959054510001,-85.214613696,366,"273 JAMES DR, WEWAHITCHKA, FL, 32465","Match","Exact","273 JAMES DR, WEWAHITCHKA, FL, 32465",7145393,"R"
438867,"273 JAY BIRD LANE","HEDGESVILLE","WV",25427,39.586055039,-78.066862471,367,"273 JAY BIRD LANE, HEDGESVILLE, WV, 25427","Match","Non_Exact","273 JAYBIRD LN, HEDGESVILLE, WV, 25427",123395421,"L"
438868,"273 JAY JAY COURT","GLEN BURNIE","MD",21061,39.141344523,-76.624285099,368,"273 JAY JAY COURT, GLEN BURNIE, MD, 21061","Match","Exact","273 JAY JAY CT, GLEN BURNIE, MD, 21061",68158453,"R"
438869,"273 JAYBIRD LANE","HEDGESVILLE","WV",25427,39.586055039,-78.066862471,369,"273 JAYBIRD LANE, HEDGESVILLE, WV, 25427","Match","Exact","273 JAYBIRD LN, HEDGESVILLE, WV, 25427",123395421,"L"
438870,"273 JEWELER STREET","TWIN FALLS","ID",83301,NA,NA,370,"273 JEWELER STREET, TWIN FALLS, ID, 83301","No_Match",NA,NA,NA,NA
438871,"273 KEHAULANI STREET","HILO","HI",96720,19.6871111900001,-155.073661152,371,"273 KEHAULANI STREET, HILO, HI, 96720","Match","Exact","273 KEHAULANI ST, HILO, HI, 96720",616628507,"R"
438872,"273 KEYSTONE DR APT 5","RANTOUL","IL",61866,40.308728677,-88.135235982,372,"273 KEYSTONE DR APT 5, RANTOUL, IL, 61866","Match","Exact","273 KEYSTONE DR, RANTOUL, IL, 61866",8807036,"L"
438873,"273 KIPP ST 2ND FLOOR","HACKENSACK","NJ",7601,40.873595102,-74.062236153,373,"273 KIPP ST 2ND FLOOR, HACKENSACK, NJ, 7601","Match","Exact","273 KIPP ST, HACKENSACK, NJ, 07601",64393359,"R"
438874,"273 KITE LAKE ROAD","FAYETTEVILLE","GA",30214,33.5219124540001,-84.481852091,374,"273 KITE LAKE ROAD, FAYETTEVILLE, GA, 30214","Match","Exact","273 KITE LAKE RD, FAYETTEVILLE, GA, 30214",75929612,"R"
438875,"273 LA CUENTA CIRCLE","HENDERSON","NV",89074,36.048936817,-115.097988857,375,"273 LA CUENTA CIRCLE, HENDERSON, NV, 89074","Match","Exact","273 LA CUENTA CIR, HENDERSON, NV, 89074",201910712,"L"
438876,"273 LA VALLE STRADA","POCATELLO","ID",83201,42.8795218990001,-112.41886865,376,"273 LA VALLE STRADA, POCATELLO, ID, 83201","Match","Exact","273 LA VALLE STRADA, POCATELLO, ID, 83201",639771617,"L"
438877,"273 LAKE VALLEY DRIVE","MAUMELLE","AK",72113,NA,NA,377,"273 LAKE VALLEY DRIVE, MAUMELLE, AK, 72113","No_Match",NA,NA,NA,NA
438878,"273 LAKE VALLEY DRIVE","MAUMELLE","AR",72113,34.861942926,-92.4302837769999,378,"273 LAKE VALLEY DRIVE, MAUMELLE, AR, 72113","Match","Exact","273 LAKE VALLEY DR, MAUMELLE, AR, 72113",618996907,"L"
438879,"273 LAKE VALLEY DRIVE","MAUMELLLE","AR",72113,34.861942926,-92.4302837769999,379,"273 LAKE VALLEY DRIVE, MAUMELLLE, AR, 72113","Match","Non_Exact","273 LAKE VALLEY DR, MAUMELLE, AR, 72113",618996907,"L"
438880,"273 LAKESIDE LANE","SANFORD","NC",27332,35.2872146460001,-79.0379854999999,380,"273 LAKESIDE LANE, SANFORD, NC, 27332","Match","Exact","273 LAKESIDE LN, SANFORD, NC, 27332",71988706,"L"
438881,"273 LISBON AVE","BUFFALO","NY",14215,42.9473551730001,-78.818772598,381,"273 LISBON AVE, BUFFALO, NY, 14215","Match","Exact","273 LISBON AVE, BUFFALO, NY, 14215",48296846,"R"
438882,"273 LOCUST AVE","OAK PARK","CA",94377,34.173538906,-118.760783615,382,"273 LOCUST AVE, OAK PARK, CA, 94377","Match","Non_Exact","273 LOCUST AVE, OAK PARK, CA, 91377",110118455,"R"
438883,"273 LYNDSIE DRIVE","COPPELL","TX",75019,32.983468191,-96.986841018,383,"273 LYNDSIE DRIVE, COPPELL, TX, 75019","Match","Exact","273 LYNDSIE DR, COPPELL, TX, 75019",103175280,"L"
438884,"273 MAIN ST","VARNVILLE","SC",29944,32.8529102840001,-81.077739077,384,"273 MAIN ST, VARNVILLE, SC, 29944","Match","Exact","273 MAIN ST, VARNVILLE, SC, 29944",33118952,"L"
438885,"273 MAIN STREET","SOUTH AMBOY","NJ",8879,40.4844044160001,-74.285523401,385,"273 MAIN STREET, SOUTH AMBOY, NJ, 8879","Match","Exact","273 MAIN ST, SOUTH AMBOY, NJ, 08879",60284150,"L"
438886,"273 MAPLE AVE","BARRINGTON","RI",2806,41.7389184730001,-71.31697074,386,"273 MAPLE AVE, BARRINGTON, RI, 2806","Match","Exact","273 MAPLE AVE, BARRINGTON, RI, 02806",625122520,"R"
438887,"273 MARILYN","GLENDALE HEIGHTS","IL",60139,41.9160760950001,-88.0785659329999,387,"273 MARILYN, GLENDALE HEIGHTS, IL, 60139","Match","Non_Exact","273 MARILYN AVE, GLENDALE HEIGHTS, IL, 60139",112579577,"R"
438888,"273 MARKS ROAD","ESKO","MN",55733,46.745701409,-92.333245323,388,"273 MARKS ROAD, ESKO, MN, 55733","Match","Exact","273 MARKS RD, ESKO, MN, 55733",612106967,"R"
438889,"273 MARTIN LUTHER KING JR DR","FORSYTH","GA",31029,33.0271737470001,-83.9492930389999,389,"273 MARTIN LUTHER KING JR DR, FORSYTH, GA, 31029","Match","Exact","273 MARTIN LUTHER KING JR DR, FORSYTH, GA, 31029",66668459,"L"
438890,"273 MELON LANE","RINGGOLD","GA",30736,34.876544505,-85.139432741,390,"273 MELON LANE, RINGGOLD, GA, 30736","Match","Exact","273 MELON LN, RINGGOLD, GA, 30736",66698474,"L"
438891,"273 MILBURN AVE","CRETE","IL",60417,41.4478821650001,-87.621959641,391,"273 MILBURN AVE, CRETE, IL, 60417","Match","Exact","273 MILBURN AVE, CRETE, IL, 60417",111553477,"L"
438892,"273 MIRTH DR","VALLEY COTTAGE","NY",10989,41.1255383180001,-73.934725344,392,"273 MIRTH DR, VALLEY COTTAGE, NY, 10989","Match","Exact","273 MIRTH DR, VALLEY COTTAGE, NY, 10989",124604267,"L"
438893,"273 MOLLY RIDGE RD","NEWTON","MS",39345,32.341304698,-89.1728635159999,393,"273 MOLLY RIDGE RD, NEWTON, MS, 39345","Match","Exact","273 MOLLY RIDGE RD, NEWTON, MS, 39345",4886600,"L"
438894,"273 MOORE AVE","FREEPORT","NY",11520,40.668377714,-73.60030354,394,"273 MOORE AVE, FREEPORT, NY, 11520","Match","Exact","273 MOORE AVE, FREEPORT, NY, 11520",147630044,"L"
438895,"273 MUHAMMAD ALI AVENUE","NEWARK","NJ",7108,40.729806425,-74.197998094,395,"273 MUHAMMAD ALI AVENUE, NEWARK, NJ, 7108","Match","Exact","273 MUHAMMAD ALI AVE, NEWARK, NJ, 07108",63465809,"R"
438896,"273 N 2ND ST","RALSTON","OK",74650,36.5050814100001,-96.7358914979999,396,"273 N 2ND ST, RALSTON, OK, 74650","Match","Exact","273 N 2ND ST, RALSTON, OK, 74650",166308405,"L"
438897,"273 N STARK HWY","WEARE","NH",3281,43.108301006,-71.747962232,397,"273 N STARK HWY, WEARE, NH, 3281","Match","Exact","273 N STARK HWY, WEARE, NH, 03281",113527199,"L"
438898,"273 NAUTICAL WAY","ELGIN","IL",60123,42.026491568,-88.3346760599999,398,"273 NAUTICAL WAY, ELGIN, IL, 60123","Match","Exact","273 NAUTICAL WAY, ELGIN, IL, 60123",119543812,"R"
438899,"273 NEWPORT STREET","BROOKLYN","NY",11212,40.659998059,-73.904674891,399,"273 NEWPORT STREET, BROOKLYN, NY, 11212","Match","Exact","273 NEWPORT ST, BROOKLYN, NY, 11212",59084771,"L"
438900,"273 NORTH ADRIAN AVE","FRESNO","CA",93727,36.7462007300001,-119.717129199,400,"273 NORTH ADRIAN AVE, FRESNO, CA, 93727","Match","Exact","273 N ADRIAN AVE, FRESNO, CA, 93727",197616388,"L"
438901,"273 NORTH HOLMES AVE","INDIANAPOLIS","IN",46222,39.769635679,-86.205330729,401,"273 NORTH HOLMES AVE, INDIANAPOLIS, IN, 46222","Match","Exact","273 N HOLMES AVE, INDIANAPOLIS, IN, 46222",107987271,"R"
438902,"273 NORTH PEACHTREE STREET","NORCROSS","GA",30071,NA,NA,402,"273 NORTH PEACHTREE STREET, NORCROSS, GA, 30071","Tie",NA,NA,NA,NA
438903,"273 NW 106 TERR","PEMBROKE PINES","FL",33026,26.0091494110001,-80.287329035,403,"273 NW 106 TERR, PEMBROKE PINES, FL, 33026","Match","Non_Exact","273 NW 106TH AVE, PEMBROKE PINES, FL, 33026",114753690,"R"
438904,"273 OCEAN PALM DRIVE","FLAGLER BEACH","FL",32136,29.429405654,-81.10769334,404,"273 OCEAN PALM DRIVE, FLAGLER BEACH, FL, 32136","Match","Exact","273 OCEAN PALM DR, FLAGLER BEACH, FL, 32136",631757882,"L"
438905,"273 OLANI PL","KIHEI","HI",96753,20.7766692600001,-156.457002098,405,"273 OLANI PL, KIHEI, HI, 96753","Match","Exact","273 OLANI PL, KIHEI, HI, 96753",604582328,"R"
438906,"273 OLD LAURINBURG ROAD","HAMLET","NC",28345,34.880265535,-79.660460514,406,"273 OLD LAURINBURG ROAD, HAMLET, NC, 28345","Match","Exact","273 OLD LAURINBURG RD, HAMLET, NC, 28345",639944286,"R"
438907,"273 OLD RIDGE RD","MILLERS CREEK","NC",28651,36.19521064,-81.2352994029999,407,"273 OLD RIDGE RD, MILLERS CREEK, NC, 28651","Match","Exact","273 OLD RIDGE RD, MILLERS CREEK, NC, 28651",46131793,"L"
438908,"273 OLD STAGE ROAD","LATTA","SC",29565,34.332608931,-79.543445822,408,"273 OLD STAGE ROAD, LATTA, SC, 29565","Match","Exact","273 OLD STAGE RD, LATTA, SC, 29565",636605569,"L"
438909,"273 PACIFIC AVE","PACIFICA","CA",94044,37.632084741,-122.488189576,409,"273 PACIFIC AVE, PACIFICA, CA, 94044","Match","Exact","273 PACIFIC AVE, PACIFICA, CA, 94044",192369639,"L"
438910,"273 PATRICIA AVENUE","WEIRTON","WV",26062,40.4372518060001,-80.5784693909999,410,"273 PATRICIA AVENUE, WEIRTON, WV, 26062","Match","Exact","273 PATRICIA AVE, WEIRTON, WV, 26062",65507889,"R"
438911,"273 PLEASANT STREET","ELIOT","ME",3903,43.1051822360001,-70.7812392659999,411,"273 PLEASANT STREET, ELIOT, ME, 3903","Match","Exact","273 PLEASANT ST, ELIOT, ME, 03903",92759890,"L"
438912,"273 PRAIRIE MEADOW DRIVE","BLUE GRASS","IA",52726,41.5139490610001,-90.783927873,412,"273 PRAIRIE MEADOW DRIVE, BLUE GRASS, IA, 52726","Match","Exact","273 PRAIRIE MEADOW DR, BLUE GRASS, IA, 52726",608241197,"R"
438913,"273 PRENTICE TRAIL","CARBONDALE","CO",81623,39.399555911,-107.086959989,413,"273 PRENTICE TRAIL, CARBONDALE, CO, 81623","Match","Non_Exact","273 PRENTICE, CARBONDALE, CO, 81623",105739176,"L"
438914,"273 PROSPECT PL","BROOKLYN","NY",11238,40.6773703050001,-73.967411252,414,"273 PROSPECT PL, BROOKLYN, NY, 11238","Match","Exact","273 PROSPECT PL, BROOKLYN, NY, 11238",59078397,"L"
438915,"273 QUEENS WAY","CANTON","MI",48188,42.3069040280001,-83.461534561,415,"273 QUEENS WAY, CANTON, MI, 48188","Match","Exact","273 QUEENS WAY, CANTON, MI, 48188",95409509,"L"
438916,"273 RALPH EDWARDS ROAD","ERWIN","TN",37650,36.0435123240001,-82.519049847,416,"273 RALPH EDWARDS ROAD, ERWIN, TN, 37650","Match","Exact","273 RALPH EDWARDS RD, ERWIN, TN, 37650",41150243,"L"
438917,"273 RANDELL RD","COURTLAND","MS",38620,NA,NA,417,"273 RANDELL RD, COURTLAND, MS, 38620","No_Match",NA,NA,NA,NA
438918,"273 REDSTONE CIRCLE","SUISUN","CA",94585,38.2470430880001,-122.023306366,418,"273 REDSTONE CIRCLE, SUISUN, CA, 94585","Match","Non_Exact","273 REDSTONE CIR, SUISUN CITY, CA, 94585",192554145,"L"
438919,"273 RICHMOND AVENUE APT 5","BUFFALO","NY",14222,42.909926409,-78.881993571,419,"273 RICHMOND AVENUE APT 5, BUFFALO, NY, 14222","Match","Exact","273 RICHMOND AVE, BUFFALO, NY, 14222",48289245,"R"
438920,"273 RILEY WAY","ELIZABETHTOWN","KY",42701,37.6820054550001,-85.8667843599999,420,"273 RILEY WAY, ELIZABETHTOWN, KY, 42701","Match","Exact","273 RILEY WAY, ELIZABETHTOWN, KY, 42701",649059843,"L"
438921,"273 RIVER STREET","WALTHAM","MA",2453,42.372495745,-71.226436738,421,"273 RIVER STREET, WALTHAM, MA, 2453","Match","Exact","273 RIVER ST, WALTHAM, MA, 02453",646708188,"R"
438922,"273 ROOSEVELT ST","PORT ALLEN","LA",70767,30.4542853830001,-91.202831872,422,"273 ROOSEVELT ST, PORT ALLEN, LA, 70767","Match","Exact","273 ROOSEVELT ST, PORT ALLEN, LA, 70767",92291978,"L"
438923,"273 S 5TH ST","BYESVILLE","OH",43723,39.963403827,-81.542136168,423,"273 S 5TH ST, BYESVILLE, OH, 43723","Match","Exact","273 S 5TH ST, BYESVILLE, OH, 43723",612392524,"L"
438924,"273 S RANCHO SANTA FE RD","SAN MARCOS","CA",92078,33.1439164280001,-117.201412516,424,"273 S RANCHO SANTA FE RD, SAN MARCOS, CA, 92078","Match","Exact","273 S RANCHO SANTA FE RD, SAN MARCOS, CA, 92078",195295041,"L"
438925,"273 S REYNOLDS","DUBOIS","ID",83423,44.1723290210001,-112.226894892,425,"273 S REYNOLDS, DUBOIS, ID, 83423","Match","Non_Exact","273 S REYNOLDS ST, DUBOIS, ID, 83423",135434573,"L"
438926,"273 SCENECA TRAIL","DULUTH","GA",30096,NA,NA,426,"273 SCENECA TRAIL, DULUTH, GA, 30096","No_Match",NA,NA,NA,NA
438927,"273 SE 71  STREET","STARKE","FL",32091,29.820924185,-82.049332023,427,"273 SE 71  STREET, STARKE, FL, 32091","Match","Exact","273 SE 71ST ST, STARKE, FL, 32091",6901046,"L"
438928,"273 SEAGRAMS CT","RALEIGH","NC",27610,35.7391823660001,-78.634154983,428,"273 SEAGRAMS CT, RALEIGH, NC, 27610","Match","Exact","273 SEAGRAMS CT, RALEIGH, NC, 27610",72605799,"L"
438929,"273 SETTLEMENT DRIVE","BURLINGTON","WI",53105,42.7387627370001,-88.219928754,429,"273 SETTLEMENT DRIVE, BURLINGTON, WI, 53105","Match","Exact","273 SETTLEMENT DR, BURLINGTON, WI, 53105",77920218,"R"
438930,"273 SHADY CREEK LANE","PORT ANGELES","WA",98362,48.068340499,-123.375608515,430,"273 SHADY CREEK LANE, PORT ANGELES, WA, 98362","Match","Exact","273 SHADY CREEK LN, PORT ANGELES, WA, 98362",150873816,"L"
438931,"273 SIEGEL ST","WESTBURY","NY",11590,40.7607721740001,-73.57200841,431,"273 SIEGEL ST, WESTBURY, NY, 11590","Match","Exact","273 SIEGEL ST, WESTBURY, NY, 11590",147625048,"L"
438932,"273 SLEEPY HOLLOW DR","PROCTOR","WV",26055,NA,NA,432,"273 SLEEPY HOLLOW DR, PROCTOR, WV, 26055","No_Match",NA,NA,NA,NA
438933,"273 SOUTH ASHLAND AVENUE","LEXINGTON","KY",40502,38.0320528980001,-84.4889391199999,433,"273 SOUTH ASHLAND AVENUE, LEXINGTON, KY, 40502","Match","Exact","273 S ASHLAND AVE, LEXINGTON, KY, 40502",31923595,"R"
438934,"273 SOUTH DELWOOD DR","FERGUSON","MO",63135,38.741698833,-90.282556117,434,"273 SOUTH DELWOOD DR, FERGUSON, MO, 63135","Match","Non_Exact","273 S DELLWOOD DR, FERGUSON, MO, 63135",100146962,"R"
438935,"273 SOUTH PARK AVENUE","POMONA","CA",91766,34.0570973540001,-117.75447981,435,"273 SOUTH PARK AVENUE, POMONA, CA, 91766","Match","Exact","273 S PARK AVE, POMONA, CA, 91766",141733787,"R"
438936,"273 SOUTH PARKWEST STREET","PORTERVILLE","CA",93257,36.0619940350001,-119.059431488,436,"273 SOUTH PARKWEST STREET, PORTERVILLE, CA, 93257","Match","Exact","273 S PARKWEST ST, PORTERVILLE, CA, 93257",633910323,"R"
438937,"273 SOUTH PIXLEY STREET","ORANGE","CA",92868,33.784592891,-117.858792506,437,"273 SOUTH PIXLEY STREET, ORANGE, CA, 92868","Match","Exact","273 S PIXLEY ST, ORANGE, CA, 92868",144051064,"L"
438938,"273 SPRINGS COLONY CIR APT 134","ALTAMONTE SPRINGS","FL",32714,28.6579910880001,-81.394147984,438,"273 SPRINGS COLONY CIR APT 134, ALTAMONTE SPRINGS, FL, 32714","Match","Exact","273 SPRINGS COLONY CIR, ALTAMONTE SPRINGS, FL, 32714",639253702,"L"
438939,"273 STANCIL STREET","VIRGINIA BEACH","VA",23452,36.831184991,-76.0867821429999,439,"273 STANCIL STREET, VIRGINIA BEACH, VA, 23452","Match","Exact","273 STANCIL ST, VA BCH, VA, 23452",122267415,"R"
438940,"273 STATE STREET","SPRINGFIELD","MA",1103,42.1046149590001,-72.5826977679999,440,"273 STATE STREET, SPRINGFIELD, MA, 1103","Match","Exact","273 STATE ST, SPRINGFIELD, MA, 01103",4035164,"R"
438941,"273 STONER ROAD","CLINTON","OH",44216,40.9199956960001,-81.5260561709999,441,"273 STONER ROAD, CLINTON, OH, 44216","Match","Exact","273 STONER RD, CLINTON, OH, 44216",625712471,"L"
438942,"273 SUGARLOAF AVE","ABILENE","TX",79602,32.381538113,-99.7205923559999,442,"273 SUGARLOAF AVE, ABILENE, TX, 79602","Match","Exact","273 SUGARLOAF AVE, ABILENE, TX, 79602",623925329,"R"
438943,"273 SUMNER ST","OBERLIN","OH",44074,41.285298207,-82.2079777659999,443,"273 SUMNER ST, OBERLIN, OH, 44074","Match","Exact","273 SUMNER ST, OBERLIN, OH, 44074",650917124,"R"
438944,"273 SW BECKER ROAD","PORT ST. LUCIE","FL",34953,27.2095378940001,-80.3573953819999,444,"273 SW BECKER ROAD, PORT ST. LUCIE, FL, 34953","Match","Exact","273 SW BECKER RD, PORT ST LUCIE, FL, 34953",120170436,"L"
438945,"273 SYBIL AVE","SAN LEANDRA","CA",94577,37.720776126,-122.148739444,445,"273 SYBIL AVE, SAN LEANDRA, CA, 94577","Match","Non_Exact","273 SYBIL AVE, SAN LEANDRO, CA, 94577",125012476,"R"
438946,"273 TANGIER AVENUE","PALM BEACH","FL",33480,26.7327094670001,-80.039225045,446,"273 TANGIER AVENUE, PALM BEACH, FL, 33480","Match","Exact","273 TANGIER AVE, PALM BEACH, FL, 33480",115278066,"R"
438947,"273 TANYARD CIR","ADAMSVILLE","TN",38310,35.220376565,-88.3868237189999,447,"273 TANYARD CIR, ADAMSVILLE, TN, 38310","Match","Exact","273 TANYARD CIR, ADAMSVILLE, TN, 38310",21277694,"L"
438948,"273 TOWN LINE ROAD","EAST NORTHPORT","NY",11731,40.863826341,-73.29045747,448,"273 TOWN LINE ROAD, EAST NORTHPORT, NY, 11731","Match","Non_Exact","273 TOWNLINE RD, E NORTHPORT, NY, 11731",113979790,"R"
438949,"273 TUFTS COURT","FAYETTEVILLE","GA",30215,33.4283001360001,-84.399129543,449,"273 TUFTS COURT, FAYETTEVILLE, GA, 30215","Match","Exact","273 TUFTS CT, FAYETTEVILLE, GA, 30215",23327206,"R"
438950,"273 TWILIGHT AVE","MIDDLETOWN","NJ",7748,40.4413499,-74.122772603,450,"273 TWILIGHT AVE, MIDDLETOWN, NJ, 7748","Match","Exact","273 TWILIGHT AVE, MIDDLETOWN, NJ, 07748",90576679,"R"
438951,"273 UPLAND ROAD","CAMBRIDGE","MA",2140,42.385225658,-71.128153195,451,"273 UPLAND ROAD, CAMBRIDGE, MA, 2140","Match","Exact","273 UPLAND RD, CAMBRIDGE, MA, 02140",86912748,"R"
438952,"273 VAN CORTLANDT AVE EAST","BRONX","NY",10467,40.8768077660001,-73.880040964,452,"273 VAN CORTLANDT AVE EAST, BRONX, NY, 10467","Match","Exact","273 VAN CORTLANDT AVE E, BRONX, NY, 10467",80297168,"L"
438953,"273 VILLAGE MEAD DRIVE","BALLWIN","MO",63021,38.5805244750001,-90.56367543,453,"273 VILLAGE MEAD DRIVE, BALLWIN, MO, 63021","Match","Exact","273 VILLAGE MEAD DR, BALLWIN, MO, 63021",100112909,"R"
438954,"273 W 15TH PLACE","CHICAGO HEIGHTS","IL",60411,41.503329868,-87.6528247429999,454,"273 W 15TH PLACE, CHICAGO HEIGHTS, IL, 60411","Match","Exact","273 W 15TH PL, CHICAGO HEIGHTS, IL, 60411",111713531,"R"
438955,"273 W 200S","BURLEY","ID",83318,NA,NA,455,"273 W 200S, BURLEY, ID, 83318","No_Match",NA,NA,NA,NA
438956,"273 W 290 S","IVINS","UT",84738,37.1630951380001,-113.685406597,456,"273 W 290 S, IVINS, UT, 84738","Match","Non_Exact","273 W 290 ST S, IVINS, UT, 84738",635849620,"L"
438957,"273 W LAFAYETTE AVE","ST PAUL","MN",55107,NA,NA,457,"273 W LAFAYETTE AVE, ST PAUL, MN, 55107","No_Match",NA,NA,NA,NA
438958,"273 W MAIN ST","WAUKESHA","WI",53186,43.0117841730001,-88.230788225,458,"273 W MAIN ST, WAUKESHA, WI, 53186","Match","Exact","273 W MAIN ST, WAUKESHA, WI, 53186",649598926,"L"
438959,"273 W PALMER ST","RAEFORD","NC",28376,34.9781534150001,-79.246206539,459,"273 W PALMER ST, RAEFORD, NC, 28376","Match","Exact","273 W PALMER ST, RAEFORD, NC, 28376",653451682,"R"
438960,"273 W WALLED LAKE DRIVE","WALLED LAKE","MI",48390,42.5314265110001,-83.488249136,460,"273 W WALLED LAKE DRIVE, WALLED LAKE, MI, 48390","Match","Exact","273 W WALLED LAKE DR, WALLED LAKE, MI, 48390",69718888,"L"
438961,"273 WALT WHITMAN ROAD    NO 137","HUNTINGTON STATION","NY",11746,40.8229578200001,-73.412507642,461,"273 WALT WHITMAN ROAD    NO 137, HUNTINGTON STATION, NY, 11746","Match","Non_Exact","273 WALT WHITMAN RD, HUNTINGTON STATION, NY, 11746",643029075,"L"
438962,"273 WAYWARD WIND DR","DIVIDE","CO",80814,38.9698279140001,-105.20640328,462,"273 WAYWARD WIND DR, DIVIDE, CO, 80814","Match","Non_Exact","273 WAYWARD WIND RD, DIVIDE, CO, 80814",643625868,"R"
438963,"273 WEST 150TH STREET 2C","NEW YORK","NY",10039,40.8255759310001,-73.9385700669999,463,"273 WEST 150TH STREET 2C, NEW YORK, NY, 10039","Match","Exact","273 W 150TH ST, NEW YORK, NY, 10039",59656271,"R"
438964,"273 WEST 3RD ST 3","BOSTON","MA",2127,42.3381010360001,-71.047657355,464,"273 WEST 3RD ST 3, BOSTON, MA, 2127","Match","Exact","273 W 3RD ST, BOSTON, MA, 02127",85712750,"R"
438965,"273 WEST MONTANA ST","DETROIT","MI",48203,42.4233974260001,-83.106454491,465,"273 WEST MONTANA ST, DETROIT, MI, 48203","Match","Exact","273 W MONTANA ST, DETROIT, MI, 48203",95506307,"L"
438966,"273 WEST PALMER STREET","RAEFORD","OH",28376,NA,NA,466,"273 WEST PALMER STREET, RAEFORD, OH, 28376","No_Match",NA,NA,NA,NA
438967,"273 WESTERN DRIVE","KAYSVILLE","UT",84037,41.0151245050001,-111.947016419,467,"273 WESTERN DRIVE, KAYSVILLE, UT, 84037","Match","Exact","273 WESTERN DR, KAYSVILLE, UT, 84037",619892806,"R"
438968,"273 WESTON ROAD","WELLESLEY","MA",2482,42.3028223910001,-71.310273692,468,"273 WESTON ROAD, WELLESLEY, MA, 2482","Match","Exact","273 WESTON RD, WELLESLEY, MA, 02482",87236538,"R"
438969,"273 WESTWOOD AVE","EAST LONGMEADOW","MA",1028,42.0635951950001,-72.5289034589999,469,"273 WESTWOOD AVE, EAST LONGMEADOW, MA, 1028","Match","Exact","273 WESTWOOD AVE, E LONGMEADOW, MA, 01028",624318362,"R"
438970,"273 WILLIAMSON AVE","HILLSIDE","NJ",7205,40.7060806370001,-74.22271108,470,"273 WILLIAMSON AVE, HILLSIDE, NJ, 7205","Match","Exact","273 WILLIAMSON AVE, HILLSIDE, NJ, 07205",60577262,"R"
438971,"273 WILLOW STREET","BREMERTON","WA",98310,47.5855560950001,-122.636511305,471,"273 WILLOW STREET, BREMERTON, WA, 98310","Match","Exact","273 WILLOW ST, BREMERTON, WA, 98310",187641865,"R"
438972,"273 WILLOWICK WAY","VENICE","FL",34293,27.0586123460001,-82.385288563,472,"273 WILLOWICK WAY, VENICE, FL, 34293","Match","Exact","273 WILLOWICK WAY, VENICE, FL, 34293",16402124,"L"
438973,"273 WINTERLOCHEN DRIVE","DUNN","NC",28344,35.2928895250001,-78.599986289,473,"273 WINTERLOCHEN DRIVE, DUNN, NC, 28344","Match","Non_Exact","273 WINTERLOCHEN DR, DUNN, NC, 28334",71984448,"L"
438974,"273 WOODSIDE LANE","TALLMADGE","OH",44278,41.0796834970001,-81.403715268,474,"273 WOODSIDE LANE, TALLMADGE, OH, 44278","Match","Exact","273 WOODSIDE LN, TALLMADGE, OH, 44278",648267843,"L"
438975,"273","SHARON CENTER","OH",44274,NA,NA,475,"273, SHARON CENTER, OH, 44274","No_Match",NA,NA,NA,NA
438976,"2730 15 AVE SOUTH","SAINT PETERSBURG","FL",33712,27.755632646,-82.670454261,476,"2730 15 AVE SOUTH, SAINT PETERSBURG, FL, 33712","Match","Exact","2730 15TH AVE S, SAINT PETERSBURG, FL, 33712",124706167,"L"
438977,"2730 56TH TERRACE S UNIT 172","ST PETE","FL",33712,27.717154238,-82.6706795429999,477,"2730 56TH TERRACE S UNIT 172, ST PETE, FL, 33712","Match","Exact","2730 56TH TER S, SAINT PETERSBURG, FL, 33712",124710397,"L"
438978,"2730 59TH ST SW","EVERETT","WA",98203,47.9443539490001,-122.269789489,478,"2730 59TH ST SW, EVERETT, WA, 98203","Match","Exact","2730 59TH ST SW, EVERETT, WA, 98203",187796800,"L"
438979,"2730 AKALANI LOOP","PUKALANI","HI",96768,20.827467697,-156.357083829,479,"2730 AKALANI LOOP, PUKALANI, HI, 96768","Match","Non_Exact","2730 AKALANI LOOP, MAKAWAO, HI, 96768",85069368,"R"
438980,"2730 ARDEN WAY STE 235","SACRAMENTO","CA",95825,38.595908835,-121.397082497,480,"2730 ARDEN WAY STE 235, SACRAMENTO, CA, 95825","Match","Exact","2730 ARDEN WAY, SACRAMENTO, CA, 95825",133338002,"R"
438981,"2730 ARNOLD STREET","COLUMBUS","IN",47203,39.2538636240001,-85.8914462719999,481,"2730 ARNOLD STREET, COLUMBUS, IN, 47203","Match","Exact","2730 ARNOLD ST, COLUMBUS, IN, 47203",30978394,"R"
438982,"2730 BACK MOUNTAIN RD","WINCHESTER","VA",22602,39.1730871930001,-78.346856535,482,"2730 BACK MOUNTAIN RD, WINCHESTER, VA, 22602","Match","Exact","2730 BACK MOUNTAIN RD, WINCHESTER, VA, 22602",55608137,"L"
438983,"2730 BIENVILLE BOULEVARD","OCEAN SPRINGS","MS",39564,30.414379212,-88.7946463499999,483,"2730 BIENVILLE BOULEVARD, OCEAN SPRINGS, MS, 39564","Match","Exact","2730 BIENVILLE BLVD, OCEAN SPRINGS, MS, 39564",89273881,"R"
438984,"2730 BLACK EAGLE RIDGE","HOWELL","MI",48843,42.5433546580001,-83.963685906,484,"2730 BLACK EAGLE RIDGE, HOWELL, MI, 48843","Match","Exact","2730 BLACK EAGLE RIDGE, HOWELL, MI, 48843",614123105,"L"
438985,"2730 BRENTWOOD BLVD","GRAND ISLAND","NE",68801,40.893806252,-98.374016406,485,"2730 BRENTWOOD BLVD, GRAND ISLAND, NE, 68801","Match","Exact","2730 BRENTWOOD BLVD, GRAND ISLAND, NE, 68801",196264938,"L"
438986,"2730 BRESSI RANCH WAY","CARLSBAD","CA",92009,33.1245087,-117.254056446,486,"2730 BRESSI RANCH WAY, CARLSBAD, CA, 92009","Match","Exact","2730 BRESSI RANCH WAY, CARLSBAD, CA, 92009",195768238,"L"
438987,"2730 BRITTANY TRCE","MURFREESBORO","TN",37127,35.80165858,-86.3582372939999,487,"2730 BRITTANY TRCE, MURFREESBORO, TN, 37127","Match","Exact","2730 BRITTANY TRCE, MURFREESBORO, TN, 37127",59033104,"R"
438988,"2730 BROADWAY","SAN LEON","TX",77529,NA,NA,488,"2730 BROADWAY, SAN LEON, TX, 77529","No_Match",NA,NA,NA,NA
438989,"2730 BROADWAY","SAN LEON","TX",77539,29.4967769250001,-94.958289414,489,"2730 BROADWAY, SAN LEON, TX, 77539","Match","Non_Exact","2730 BROADWAY ST, SAN LEON, TX, 77539",96724748,"R"
438990,"2730 BROWNSBORO RD 135","LOUISVILLE","KY",40206,38.2591473480001,-85.695503386,490,"2730 BROWNSBORO RD 135, LOUISVILLE, KY, 40206","Match","Exact","2730 BROWNSBORO RD, LOUISVILLE, KY, 40206",613514074,"R"
438991,"2730 BUTTONWOOD AVE","MIRAMAR","FL",33025,25.984812758,-80.265453561,491,"2730 BUTTONWOOD AVE, MIRAMAR, FL, 33025","Match","Exact","2730 BUTTONWOOD AVE, MIRAMAR, FL, 33025",114780669,"L"
438992,"2730 C S 17TH ST","WILMINGTON","NC",28412,34.1920526860001,-77.9192561469999,492,"2730 C S 17TH ST, WILMINGTON, NC, 28412","Match","Exact","2730 S 17TH ST, WILMINGTON, NC, 28412",152760781,"R"
438993,"2730 C S 17TH STREET","WILMINGTON","NC",28412,34.1920526860001,-77.9192561469999,493,"2730 C S 17TH STREET, WILMINGTON, NC, 28412","Match","Exact","2730 S 17TH ST, WILMINGTON, NC, 28412",152760781,"R"
438994,"2730 CASA GRANDE CT","MORGAN HILL","CA",95037,37.135869664,-121.602978629,494,"2730 CASA GRANDE CT, MORGAN HILL, CA, 95037","Match","Exact","2730 CASA GRANDE CT, MORGAN HILL, CA, 95037",122930112,"R"
438995,"2730 CENTENNIAL ROAD","TOLEDO","OH",43617,41.668829508,-83.7417755869999,495,"2730 CENTENNIAL ROAD, TOLEDO, OH, 43617","Match","Exact","2730 CENTENNIAL RD, TOLEDO, OH, 43617",33928355,"R"
438996,"2730 CENTER STREET","OROVILLE","CA",95966,39.5163202910001,-121.546715484,496,"2730 CENTER STREET, OROVILLE, CA, 95966","Match","Exact","2730 CENTER ST, OROVILLE, CA, 95966",68423002,"R"
438997,"2730 CHARLES CT NW","ROCHESTER","MN",55901,44.045955437,-92.5026456699999,497,"2730 CHARLES CT NW, ROCHESTER, MN, 55901","Match","Exact","2730 CHARLES CT NW, ROCHESTER, MN, 55901",30550409,"R"
438998,"2730 COLUMBUS","CHARLOTTE","NC",28208,35.230800415,-80.8806573319999,498,"2730 COLUMBUS, CHARLOTTE, NC, 28208","Match","Non_Exact","2730 COLUMBUS CIR, CHARLOTTE, NC, 28208",70476910,"R"
438999,"2730 CONOWOODS DRIVE","SPRINGFIELD","OH",45503,39.959761644,-83.7619967219999,499,"2730 CONOWOODS DRIVE, SPRINGFIELD, OH, 45503","Match","Exact","2730 CONOWOODS DR, SPRINGFIELD, OH, 45503",135018388,"R"
439000,"2730 CREEKSIDE MANOR DR","POWDER SPRINGS","GA",30127,33.887135153,-84.67095462,500,"2730 CREEKSIDE MANOR DR, POWDER SPRINGS, GA, 30127","Match","Exact","2730 CREEKSIDE MANOR DR, POWDER SPGS, GA, 30127",618320099,"L"
