"ID","Address","City","State","Zip","lat","long","id","input_address","match_indicator","match_type","matched_address","tiger_line_id","tiger_side"
421001,"260 LONGWOOD AVENUE","BOSTON","MA",2115,42.336303813,-71.101317002,1,"260 LONGWOOD AVENUE, BOSTON, MA, 2115","Match","Exact","260 LONGWOOD AVE, BOSTON, MA, 02115",85728351,"L"
421002,"260 LONSDALE AVENUE","PAWTUCKET","RI",2860,41.875429555,-71.399233795,2,"260 LONSDALE AVENUE, PAWTUCKET, RI, 2860","Match","Exact","260 LONSDALE AVE, PAWTUCKET, RI, 02860",47462858,"L"
421003,"260 LOS PINOS ROAD","SANTA FE","NM",87507,35.582728139,-106.104837427,3,"260 LOS PINOS ROAD, SANTA FE, NM, 87507","Match","Exact","260 LOS PINOS RD, SANTA FE, NM, 87507",169399265,"R"
421004,"260 LOWE CIRCLE","RICHLAND","MS",39218,32.228355107,-90.156153097,4,"260 LOWE CIRCLE, RICHLAND, MS, 39218","Match","Exact","260 LOWE CIR, RICHLAND, MS, 39218",614935290,"R"
421005,"260 MADISON AVENUE","NEW YORK","NY",10016,40.7507307980001,-73.9808076739999,5,"260 MADISON AVENUE, NEW YORK, NY, 10016","Match","Exact","260 MADISON AVE, NEW YORK, NY, 10016",59661972,"L"
421006,"260 MAGNOLIA STREET","SLIDELL","LA",70458,30.29844682,-89.783956485,6,"260 MAGNOLIA STREET, SLIDELL, LA, 70458","Match","Non_Exact","260 MAGNOLIA ST, SLIDELL, LA, 70460",111247748,"R"
421007,"260 MAGNOLIA","SLIDELL","LA",70458,NA,NA,7,"260 MAGNOLIA, SLIDELL, LA, 70458","No_Match",NA,NA,NA,NA
421008,"260 MAGSAYSAY STREET","DEDEDO","GU",96932,13.559378469,144.846779396,8,"260 MAGSAYSAY STREET, DEDEDO, GU, 96932","Match","Non_Exact","260 MAGSAYSAY ST, DEDEDO, GU, 96929",204575553,"R"
421009,"260 MAIN STREET","BIDDEFORD","ME",4005,43.4941392910001,-70.4579810819999,9,"260 MAIN STREET, BIDDEFORD, ME, 4005","Match","Exact","260 MAIN ST, BIDDEFORD, ME, 04005",92741625,"R"
421010,"260 MALDEN TPK","SAUGERTIES","NY",12477,42.1079005140001,-73.951287422,10,"260 MALDEN TPK, SAUGERTIES, NY, 12477","Match","Exact","260 MALDEN TPKE, SAUGERTIES, NY, 12477",41878088,"L"
421011,"260 MANLEY RD","GRIFFIN","GA",30223,NA,NA,11,"260 MANLEY RD, GRIFFIN, GA, 30223","Tie",NA,NA,NA,NA
421012,"260 MANNING RD SW - 117","MARIETTA","GA",30064,33.9448304850001,-84.577519764,12,"260 MANNING RD SW - 117, MARIETTA, GA, 30064","Match","Exact","260 MANNING RD SW, MARIETTA, GA, 30064",652422916,"R"
421013,"260 MAPLE TERRACE","FAIRBORN","OH",45324,39.7916764730001,-84.020046732,13,"260 MAPLE TERRACE, FAIRBORN, OH, 45324","Match","Exact","260 MAPLE TER, FAIRBORN, OH, 45324",143384617,"R"
421014,"260 MARCELLA RD 917","HAMPTON","VA",23666,37.0501099310001,-76.396197838,14,"260 MARCELLA RD 917, HAMPTON, VA, 23666","Match","Exact","260 MARCELLA RD, HAMPTON, VA, 23666",103806967,"L"
421015,"260 MARCOTT ROAD","KINGSTON","NY",12401,41.87027864,-74.1083870959999,15,"260 MARCOTT ROAD, KINGSTON, NY, 12401","Match","Exact","260 MARCOTT RD, KINGSTON, NY, 12401",634295821,"L"
421016,"260 MARION OAKS GOLF RD","OCALA","FL",34473,28.97903137,-82.195746156,16,"260 MARION OAKS GOLF RD, OCALA, FL, 34473","Match","Exact","260 MARION OAKS GOLF RD, OCALA, FL, 34473",636401552,"R"
421017,"260 MARKET STREET STE F","NEW ALBANY","OH",43054,40.080886956,-82.815280996,17,"260 MARKET STREET STE F, NEW ALBANY, OH, 43054","Match","Exact","260 MARKET ST, NEW ALBANY, OH, 43054",218570273,"L"
421018,"260 MARRYDALE RD","SAN RAFAEL","CA",94903,NA,NA,18,"260 MARRYDALE RD, SAN RAFAEL, CA, 94903","No_Match",NA,NA,NA,NA
421019,"260 MARTIN ST","BIRMINGHAM","MI",48009,42.545896284,-83.2167231729999,19,"260 MARTIN ST, BIRMINGHAM, MI, 48009","Match","Exact","260 MARTIN ST, BIRMINGHAM, MI, 48009",69735337,"R"
421020,"260 MAUDEHELEN STREET","APOPKA","FL",32703,28.675352092,-81.543033399,20,"260 MAUDEHELEN STREET, APOPKA, FL, 32703","Match","Exact","260 MAUDEHELEN ST, APOPKA, FL, 32703",624350826,"L"
421021,"260 MCCRARY ROAD","MOORESVILLE","NC",28117,35.5947408420001,-80.910149916,21,"260 MCCRARY ROAD, MOORESVILLE, NC, 28117","Match","Exact","260 MCCRARY RD, MOORESVILLE, NC, 28117",46009647,"L"
421022,"260 MCKINLEY ST","BRISTOL","PA",19007,40.1103740190001,-74.8420274279999,22,"260 MCKINLEY ST, BRISTOL, PA, 19007","Match","Exact","260 MCKINLEY ST, BRISTOL, PA, 19007",134717916,"L"
421023,"260 MEADE LANE","BATESVILLE","AR",72501,35.790827311,-91.698145597,23,"260 MEADE LANE, BATESVILLE, AR, 72501","Match","Exact","260 MEADE LN, BATESVILLE, AR, 72501",41640962,"L"
421024,"260 MEADOW LAKE DR","MARTINEZ","GA",30907,33.494511109,-82.150058116,24,"260 MEADOW LAKE DR, MARTINEZ, GA, 30907","Match","Non_Exact","260 MEADOWLAKE DR, MARTINEZ, GA, 30907",55381128,"L"
421025,"260 MEADOWLARK LANE","EUREKA SPRINGS","AR",72631,36.4665133180001,-93.6971071849999,25,"260 MEADOWLARK LANE, EUREKA SPRINGS, AR, 72631","Match","Non_Exact","260 MEADOW LARK LN, EUREKA SPGS, AR, 72631",640825990,"R"
421026,"260 MEED CT","FAYETTEVILLE","NC",28314,35.088989751,-79.009474253,26,"260 MEED CT, FAYETTEVILLE, NC, 28314","Match","Non_Exact","260 MEED CT, FAYETTEVILLE, NC, 28303",64260931,"R"
421027,"260 MELODY AVE","LAYTON","UT",84041,41.056470264,-111.972202116,27,"260 MELODY AVE, LAYTON, UT, 84041","Match","Non_Exact","260 MELODY ST, LAYTON, UT, 84041",229351716,"R"
421028,"260 MESA COURT","SALIDA","CO",81201,38.537413218,-106.012665846,28,"260 MESA COURT, SALIDA, CO, 81201","Match","Exact","260 MESA CT, SALIDA, CO, 81201",108253909,"R"
421029,"260 MICHELE CIR","MILLERSVILLE","MD",21108,39.1231717050001,-76.614083389,29,"260 MICHELE CIR, MILLERSVILLE, MD, 21108","Match","Exact","260 MICHELE CIR, MILLERSVILLE, MD, 21108",636770442,"R"
421030,"260 MILL RUN DRIVE /APT 28","INDIANAPOLIS","IN",46168,39.7059626110001,-86.405915502,30,"260 MILL RUN DRIVE /APT 28, INDIANAPOLIS, IN, 46168","Match","Non_Exact","260 MILL RUN DR, PLAINFIELD, IN, 46168",633746935,"R"
421031,"260 MORTON STREET","MORGANTOWN","IN",46160,39.369170576,-86.264324969,31,"260 MORTON STREET, MORGANTOWN, IN, 46160","Match","Exact","260 MORTON ST, MORGANTOWN, IN, 46160",43566927,"L"
421032,"260 MOUNTAIN DR","LENOIR CITY","TN",37772,35.852761205,-84.2597996709999,32,"260 MOUNTAIN DR, LENOIR CITY, TN, 37772","Match","Exact","260 MOUNTAIN DR, LENOIR CITY, TN, 37772",99977216,"R"
421033,"260 MOUNTAIND DRIVE","PITTSFIELD","MA",1201,NA,NA,33,"260 MOUNTAIND DRIVE, PITTSFIELD, MA, 1201","No_Match",NA,NA,NA,NA
421034,"260 MUNSEY LANE","NEW TAZEWELL","TN",37825,36.370236321,-83.6414506369999,34,"260 MUNSEY LANE, NEW TAZEWELL, TN, 37825","Match","Exact","260 MUNSEY LN, NEW TAZEWELL, TN, 37825",639312645,"R"
421035,"260 MYERS RD","BROOKSVILLE","FL",34602,28.441134904,-82.269820226,35,"260 MYERS RD, BROOKSVILLE, FL, 34602","Match","Exact","260 MYERS RD, BROOKSVILLE, FL, 34602",85461742,"R"
421036,"260 N CHICAGO ST","JOLIET","IL",60432,41.5290294180001,-88.081692206,36,"260 N CHICAGO ST, JOLIET, IL, 60432","Match","Exact","260 N CHICAGO ST, JOLIET, IL, 60432",111541577,"R"
421037,"260 N INDUSTRIAL AVE","ORANGE CITY","FL",32763,28.937069498,-81.296400696,37,"260 N INDUSTRIAL AVE, ORANGE CITY, FL, 32763","Match","Non_Exact","260 N INDUSTRIAL DR, ORANGE CITY, FL, 32763",636388902,"R"
421038,"260 N LAUREL","GENESEE","ID",83832,46.5522658400001,-116.92374258,38,"260 N LAUREL, GENESEE, ID, 83832","Match","Non_Exact","260 N LAUREL ST, GENESEE, ID, 83832",193872531,"R"
421039,"260 N LOCUST ST","INGLEWOOD","CA",90301,33.965789409,-118.350403181,39,"260 N LOCUST ST, INGLEWOOD, CA, 90301","Match","Exact","260 N LOCUST ST, INGLEWOOD, CA, 90301",142750093,"R"
421040,"260 N MAIN STREET","SUNDERLAND","MA",1375,42.476448168,-72.572771003,40,"260 N MAIN STREET, SUNDERLAND, MA, 1375","Match","Exact","260 N MAIN ST, SUNDERLAND, MA, 01375",39924246,"R"
421041,"260 N MAINE ST","FALLON","NV",89406,39.4781594940001,-118.776900423,41,"260 N MAINE ST, FALLON, NV, 89406","Match","Exact","260 N MAINE ST, FALLON, NV, 89406",139958769,"R"
421042,"260 N MANOR AVE","ALBANY","IN",47320,40.301659375,-85.232532076,42,"260 N MANOR AVE, ALBANY, IN, 47320","Match","Exact","260 N MANOR AVE, ALBANY, IN, 47320",30831655,"L"
421043,"260 N MOUNTAIN RD","DALTON","MA",1226,42.4902490850001,-73.1527177259999,43,"260 N MOUNTAIN RD, DALTON, MA, 1226","Match","Exact","260 N MOUNTAIN RD, DALTON, MA, 01226",3961585,"R"
421044,"260 N OAK AVENUE  NUMBER 14","PASADENA","CA",91107,NA,NA,44,"260 N OAK AVENUE  NUMBER 14, PASADENA, CA, 91107","Tie",NA,NA,NA,NA
421045,"260 N OAKLAND AVE APT6","PASADENA","CA",91101,NA,NA,45,"260 N OAKLAND AVE APT6, PASADENA, CA, 91101","Tie",NA,NA,NA,NA
421046,"260 N OAKLAND NO 8","PASADENA","CA",91101,NA,NA,46,"260 N OAKLAND NO 8, PASADENA, CA, 91101","No_Match",NA,NA,NA,NA
421047,"260 N VAN BUREN STREET","MONROE","IN",46772,40.749064698,-84.937353409,47,"260 N VAN BUREN STREET, MONROE, IN, 46772","Match","Exact","260 N VAN BUREN ST, MONROE, IN, 46772",639801953,"R"
421048,"260 NAPIER ST","LIBERTY","KY",42539,37.329553047,-84.9315953289999,48,"260 NAPIER ST, LIBERTY, KY, 42539","Match","Exact","260 NAPIER ST, LIBERTY, KY, 42539",636794973,"R"
421049,"260 NE 30TH COURT","POMPANO BEACH","FL",33064,26.2682745700001,-80.119960452,49,"260 NE 30TH COURT, POMPANO BEACH, FL, 33064","Match","Exact","260 NE 30TH CT, POMPANO BEACH, FL, 33064",114742493,"R"
421050,"260 NE 38TH STREET","FORT LAUDERDALE","FL",33334,26.174021429,-80.1434123239999,50,"260 NE 38TH STREET, FORT LAUDERDALE, FL, 33334","Match","Exact","260 NE 38TH ST, FORT LAUDERDALE, FL, 33334",114719506,"R"
421051,"260 NEWFIELD DR","TYRONE","GA",30290,33.4641603170001,-84.583219093,51,"260 NEWFIELD DR, TYRONE, GA, 30290","Match","Exact","260 NEWFIELD DR, TYRONE, GA, 30290",635758138,"L"
421052,"260 NH RTE 3A","HILL","NH",3243,43.5279516190001,-71.7112411419999,52,"260 NH RTE 3A, HILL, NH, 3243","Match","Non_Exact","260 STATE RTE 3A, HILL, NH, 03243",117722427,"R"
421053,"260 NORTH BURGESS AVENUE","COLUMBUS","OH",43204,39.9603653200001,-83.0701223359999,53,"260 NORTH BURGESS AVENUE, COLUMBUS, OH, 43204","Match","Exact","260 N BURGESS AVE, COLUMBUS, OH, 43204",218679749,"R"
421054,"260 NORTH FRANKLIN ST","DELAWARE","OH",43015,40.307006555,-83.06885038,54,"260 NORTH FRANKLIN ST, DELAWARE, OH, 43015","Match","Exact","260 N FRANKLIN ST, DELAWARE, OH, 43015",24585158,"L"
421055,"260 NORTHERN AVE APT 14C","AVONDALE ESTATES","GA",30002,33.7800649760001,-84.244855539,55,"260 NORTHERN AVE APT 14C, AVONDALE ESTATES, GA, 30002","Match","Exact","260 NORTHERN AVE, AVONDALE EST, GA, 30002",23369942,"L"
421056,"260 NORTHGATE DRIVE","LOXLEY","AL",36551,30.63150345,-87.747246825,56,"260 NORTHGATE DRIVE, LOXLEY, AL, 36551","Match","Exact","260 NORTHGATE DR, LOXLEY, AL, 36551",649138267,"R"
421057,"260 NORTHLAND BLVD","SPRINGDALE","OH",45246,39.2825125270001,-84.4833729219999,57,"260 NORTHLAND BLVD, SPRINGDALE, OH, 45246","Match","Exact","260 NORTHLAND BLVD, SPRINGDALE, OH, 45246",635839141,"R"
421058,"260 NOTTINGHAM ROAD","WILLIAMSBURG","VA",23185,37.290325889,-76.660175099,58,"260 NOTTINGHAM ROAD, WILLIAMSBURG, VA, 23185","Match","Exact","260 NOTTINGHAM RD, WILLIAMSBURG, VA, 23185",103747572,"R"
421059,"260 NW 109TH AVE","MIAMI","FL",33172,25.770923983,-80.373203045,59,"260 NW 109TH AVE, MIAMI, FL, 33172","Match","Exact","260 NW 109TH AVE, MIAMI, FL, 33172",116256177,"L"
421060,"260 NW PRESCOTT PLACE","BEAVERTON","OR",97006,45.5216922880001,-122.88850933,60,"260 NW PRESCOTT PLACE, BEAVERTON, OR, 97006","Match","Exact","260 NW PRESCOTT PL, BEAVERTON, OR, 97006",605214290,"R"
421061,"260 OAK STREET","DAYTON","OH",45410,39.74723314,-84.181280805,61,"260 OAK STREET, DAYTON, OH, 45410","Match","Exact","260 OAK ST, DAYTON, OH, 45410",143572282,"R"
421062,"260 OCEAN PARKWAY","BROOKLYN","NY",11218,40.6430340520001,-73.974334905,62,"260 OCEAN PARKWAY, BROOKLYN, NY, 11218","Match","Exact","260 OCEAN PKWY, BROOKLYN, NY, 11218",59074675,"R"
421063,"260 OLD ELM AVENUE PO BOX 521","DELAWARE CITY","DE",19706,NA,NA,63,"260 OLD ELM AVENUE PO BOX 521, DELAWARE CITY, DE, 19706","No_Match",NA,NA,NA,NA
421064,"260 OLEANDER AVE","PALM BEACH","FL",33480,26.7214510910001,-80.0397250349999,64,"260 OLEANDER AVE, PALM BEACH, FL, 33480","Match","Exact","260 OLEANDER AVE, PALM BEACH, FL, 33480",115279671,"L"
421065,"260 OXFORD LANE","KING WILLIAM","VA",23086,37.7301794890001,-77.144034119,65,"260 OXFORD LANE, KING WILLIAM, VA, 23086","Match","Exact","260 OXFORD LN, KING WILLIAM, VA, 23086",106713946,"R"
421066,"260 PAKAUWILI DRIVE","WAHIAWA","HI",96786,21.4978393970001,-158.031603748,66,"260 PAKAUWILI DRIVE, WAHIAWA, HI, 96786","Match","Exact","260 PAKAUWILI DR, WAHIAWA, HI, 96786",203224503,"R"
421067,"260 PALMER LANE","WOODBURY","TN",37190,35.8065380520001,-86.085085925,67,"260 PALMER LANE, WOODBURY, TN, 37190","Match","Exact","260 PALMER LN, WOODBURY, TN, 37190",87948442,"L"
421068,"260 PANIZZI ROAD","DERRY","PA",15627,40.3460789960001,-79.343307174,68,"260 PANIZZI ROAD, DERRY, PA, 15627","Match","Exact","260 PANIZZI RD, DERRY, PA, 15627",53025283,"R"
421069,"260 PARK AVENUE  APT 307","POOLER","GA",31419,32.133804454,-81.251043409,69,"260 PARK AVENUE  APT 307, POOLER, GA, 31419","Match","Non_Exact","260 PARK AVE, POOLER, GA, 31322",641733100,"R"
421070,"260 PARK HILL AVENUE APT 5T","STATEN ISLAND","MD",10304,NA,NA,70,"260 PARK HILL AVENUE APT 5T, STATEN ISLAND, MD, 10304","No_Match",NA,NA,NA,NA
421071,"260 PARKSIDE GLEN","ESCONDIDO","CA",92026,33.15816268,-117.096065181,71,"260 PARKSIDE GLEN, ESCONDIDO, CA, 92026","Match","Exact","260 PARKSIDE GLEN, ESCONDIDO, CA, 92026",636683428,"R"
421072,"260 PATTERSON ROAD","FANWOOD","NJ",7023,40.6443448040001,-74.38928493,72,"260 PATTERSON ROAD, FANWOOD, NJ, 7023","Match","Non_Exact","260 PATERSON RD, FANWOOD, NJ, 07023",60567511,"R"
421073,"260 PEACHTREE ST NW STE 1901","ATLANTA","GA",30303,33.7603882340001,-84.387576172,73,"260 PEACHTREE ST NW STE 1901, ATLANTA, GA, 30303","Match","Exact","260 PEACHTREE ST NW, ATLANTA, GA, 30303",17344484,"L"
421074,"260 PEACHTREE ST NW SUITE 2200","ATLANTA","GA",30303,33.7603882340001,-84.387576172,74,"260 PEACHTREE ST NW SUITE 2200, ATLANTA, GA, 30303","Match","Exact","260 PEACHTREE ST NW, ATLANTA, GA, 30303",17344484,"L"
421075,"260 PEACHTREE ST","ATLANTA","GA",30303,33.7603882340001,-84.387576172,75,"260 PEACHTREE ST, ATLANTA, GA, 30303","Match","Exact","260 PEACHTREE ST, ATLANTA, GA, 30303",17344484,"L"
421076,"260 PEACHTREE ST","ATLATNA","GA",30303,33.7603882340001,-84.387576172,76,"260 PEACHTREE ST, ATLATNA, GA, 30303","Match","Non_Exact","260 PEACHTREE ST, ATLANTA, GA, 30303",17344484,"L"
421077,"260 PEACHTREE STREET NW SUITE 2200","ATLANTA","GA",30303,33.7603882340001,-84.387576172,77,"260 PEACHTREE STREET NW SUITE 2200, ATLANTA, GA, 30303","Match","Exact","260 PEACHTREE ST NW, ATLANTA, GA, 30303",17344484,"L"
421078,"260 PEACHTREE STREET NW SUITE 2200","ATLATNA","GA",30303,33.7603882340001,-84.387576172,78,"260 PEACHTREE STREET NW SUITE 2200, ATLATNA, GA, 30303","Match","Non_Exact","260 PEACHTREE ST NW, ATLANTA, GA, 30303",17344484,"L"
421079,"260 PEACHTREE STREET SUITE 2200","ATLANTA","GA",30303,33.7603882340001,-84.387576172,79,"260 PEACHTREE STREET SUITE 2200, ATLANTA, GA, 30303","Match","Exact","260 PEACHTREE ST, ATLANTA, GA, 30303",17344484,"L"
421080,"260 PELHAM RD","GREENVILLE","SC",29615,34.8662203280001,-82.34795127,80,"260 PELHAM RD, GREENVILLE, SC, 29615","Match","Exact","260 PELHAM RD, GREENVILLE, SC, 29615",636713047,"R"
421081,"260 PENDERGRAST DR","LAWRENCEVILLE","GA",30044,33.904852315,-84.067584153,81,"260 PENDERGRAST DR, LAWRENCEVILLE, GA, 30044","Match","Exact","260 PENDERGRAST DR, LAWRENCEVILLE, GA, 30044",645863014,"L"
421082,"260 PEPPERDINE WAY","FAYETTEVILLE","GA",30214,33.492719143,-84.5205676369999,82,"260 PEPPERDINE WAY, FAYETTEVILLE, GA, 30214","Match","Exact","260 PEPPERDINE WAY, FAYETTEVILLE, GA, 30214",75949770,"L"
421083,"260 PHILLIPS LANE","FLEMING","GA",31309,31.84196395,-81.419122551,83,"260 PHILLIPS LANE, FLEMING, GA, 31309","Match","Exact","260 PHILLIPS LN, FLEMING, GA, 31309",6329948,"R"
421084,"260 PINOAK RD","NEWTONSVILLE","OH",45158,39.179833924,-84.093784448,84,"260 PINOAK RD, NEWTONSVILLE, OH, 45158","Match","Non_Exact","260 PIN OAK ST, NEWTONSVILLE, OH, 45158",118449318,"L"
421085,"260 PLAINS COURT","GALT","CA",95632,38.24978021,-121.316271453,85,"260 PLAINS COURT, GALT, CA, 95632","Match","Exact","260 PLAINS CT, GALT, CA, 95632",133367816,"R"
421086,"260 PLEASANT ST NO 104","BERLIN","MA",1503,42.3608623760001,-71.628575053,86,"260 PLEASANT ST NO 104, BERLIN, MA, 1503","Match","Non_Exact","260 PLEASANT ST, BERLIN, MA, 01503",40092877,"L"
421087,"260 PLUM LN","WINSTON","OR",97496,43.123699618,-123.421976161,87,"260 PLUM LN, WINSTON, OR, 97496","Match","Non_Exact","260 PLUM LN NW, WINSTON, OR, 97496",632552921,"R"
421088,"260 POMONA AVE","LONG BEACH","CA",90803,33.7617625680001,-118.129832339,88,"260 POMONA AVE, LONG BEACH, CA, 90803","Match","Exact","260 POMONA AVE, LONG BEACH, CA, 90803",141702766,"R"
421089,"260 POWDER MILL DR","DALLAS","GA",30157,33.9258250940001,-84.7335321629999,89,"260 POWDER MILL DR, DALLAS, GA, 30157","Match","Exact","260 POWDER MILL DR, DALLAS, GA, 30157",639291585,"L"
421090,"260 PRAYER SPRING ROAD","STRATFORD","CT",6614,41.2531738170001,-73.103868572,90,"260 PRAYER SPRING ROAD, STRATFORD, CT, 6614","Match","Exact","260 PRAYER SPRING RD, STRATFORD, CT, 06614",3284885,"R"
421091,"260 PROSPECT AVENUE  260","HACKENSACK","NJ",7601,NA,NA,91,"260 PROSPECT AVENUE  260, HACKENSACK, NJ, 7601","No_Match",NA,NA,NA,NA
421092,"260 PUTNAM AVE","HAMDEN","CT",6517,41.3441741500001,-72.923277414,92,"260 PUTNAM AVE, HAMDEN, CT, 6517","Match","Exact","260 PUTNAM AVE, HAMDEN, CT, 06517",3699367,"L"
421093,"260 QUARRY RD","HUMMELSTOWN","PA",17036,40.2616162940001,-76.70149071,93,"260 QUARRY RD, HUMMELSTOWN, PA, 17036","Match","Exact","260 QUARRY RD, HUMMELSTOWN, PA, 17036",70825533,"R"
421094,"260 RAINBOW TERRACE","BLACK MOUNTAIN","NC",28711,NA,NA,94,"260 RAINBOW TERRACE, BLACK MOUNTAIN, NC, 28711","No_Match",NA,NA,NA,NA
421095,"260 RANDOLPH STREET","MAHOMET","IL",61853,40.2060449940001,-88.360994218,95,"260 RANDOLPH STREET, MAHOMET, IL, 61853","Match","Exact","260 RANDOLPH ST, MAHOMET, IL, 61853",8804866,"R"
421096,"260 RED CEDAR CT","CHESAPEAKE","VA",23320,36.7673955980001,-76.2547056229999,96,"260 RED CEDAR CT, CHESAPEAKE, VA, 23320","Match","Exact","260 RED CEDAR CT, CHESAPEAKE, VA, 23320",121793297,"L"
421097,"260 REDWOOD ROAD","BOULDER CREEK","CA",95006,37.153325307,-122.136968311,97,"260 REDWOOD ROAD, BOULDER CREEK, CA, 95006","Match","Exact","260 REDWOOD RD, BOULDER CREEK, CA, 95006",125535719,"L"
421098,"260 RICHEY RD","BOWIE","TX",76230,33.5518991180001,-97.803245797,98,"260 RICHEY RD, BOWIE, TX, 76230","Match","Exact","260 RICHEY RD, BOWIE, TX, 76230",649850959,"L"
421099,"260 RIDGE RD","SHIPPENSBURG","PA",17257,40.131451821,-77.477931019,99,"260 RIDGE RD, SHIPPENSBURG, PA, 17257","Match","Exact","260 RIDGE RD, SHIPPENSBURG, PA, 17257",60973989,"R"
421100,"260 RIDGEPOINTE DRIVE","COLD SPRING","KY",41076,39.0046028470001,-84.4536856349999,100,"260 RIDGEPOINTE DRIVE, COLD SPRING, KY, 41076","Match","Exact","260 RIDGEPOINTE DR, COLD SPRING, KY, 41076",210236263,"R"
421101,"260 RIVER VALLEY ROAD","STRATFORD","CT",6614,41.234123421,-73.117386949,101,"260 RIVER VALLEY ROAD, STRATFORD, CT, 6614","Match","Exact","260 RIVER VALLEY RD, STRATFORD, CT, 06614",628089928,"R"
421102,"260 RIVERSIDE DRIVE 2F","NEW YORK","NY",10025,40.797207755,-73.973625792,102,"260 RIVERSIDE DRIVE 2F, NEW YORK, NY, 10025","Match","Exact","260 RIVERSIDE DR, NEW YORK, NY, 10025",59656569,"R"
421103,"260 RIVERSIDE DRIVE APARTMENT 3C","NEW YORK","NY",10025,40.797207755,-73.973625792,103,"260 RIVERSIDE DRIVE APARTMENT 3C, NEW YORK, NY, 10025","Match","Exact","260 RIVERSIDE DR, NEW YORK, NY, 10025",59656569,"R"
421104,"260 ROLLING HILLS DRIVE","MARION","VA",24354,36.804151378,-81.580540906,104,"260 ROLLING HILLS DRIVE, MARION, VA, 24354","Match","Exact","260 ROLLING HILLS DR, MARION, VA, 24354",47195978,"L"
421105,"260 ROLLINGWOOD TRAIL","ALTAMONTE SPRINGS","FL",32714,28.6477674010001,-81.391174689,105,"260 ROLLINGWOOD TRAIL, ALTAMONTE SPRINGS, FL, 32714","Match","Exact","260 ROLLINGWOOD TRL, ALTAMONTE SPRINGS, FL, 32714",93742337,"R"
421106,"260 ROMA AVE","SAN MARCOS","CA",92069,33.1456013010001,-117.166075182,106,"260 ROMA AVE, SAN MARCOS, CA, 92069","Match","Exact","260 ROMA AVE, SAN MARCOS, CA, 92069",195296004,"R"
421107,"260 ROUND SWAMP ROAD","MELVILLE","NY",11747,40.799463599,-73.4412286689999,107,"260 ROUND SWAMP ROAD, MELVILLE, NY, 11747","Match","Exact","260 ROUND SWAMP RD, MELVILLE, NY, 11747",114045972,"R"
421108,"260 ROYALLTRAIL LANE","OFALLON","MO",63368,38.765838123,-90.708401108,108,"260 ROYALLTRAIL LANE, OFALLON, MO, 63368","Match","Non_Exact","260 ROYALLTRAIL LN, O FALLON, MO, 63368",100049282,"R"
421109,"260 RUGGLES ST","ROXBURY","MA",2120,42.3362166800001,-71.0917644789999,109,"260 RUGGLES ST, ROXBURY, MA, 2120","Match","Exact","260 RUGGLES ST, ROXBURY, MA, 02120",85698938,"L"
421110,"260 S 2500 W STE 102","PLEASANT GROVE","UT",84062,NA,NA,110,"260 S 2500 W STE 102, PLEASANT GROVE, UT, 84062","No_Match",NA,NA,NA,NA
421111,"260 S 80 E","MIDWAY","UT",84049,40.5082561340001,-111.470805394,111,"260 S 80 E, MIDWAY, UT, 84049","Match","Exact","260 S 80 E, MIDWAY, UT, 84049",611488716,"R"
421112,"260 S CLINTON ST","EAST ORANGE","NJ",7018,40.756771631,-74.221392524,112,"260 S CLINTON ST, EAST ORANGE, NJ, 7018","Match","Exact","260 S CLINTON ST, EAST ORANGE, NJ, 07018",63450519,"L"
421113,"260 S FLORIDA STREET","GREENVILLE","MS",39703,33.404595409,-91.026806756,113,"260 S FLORIDA STREET, GREENVILLE, MS, 39703","Match","Non_Exact","260 S FLORIDA ST, GREENVILLE, MS, 38703",1153878,"R"
421114,"260 S FRANKLIN ST","DENVER","CO",80209,39.7118523020001,-104.96869689,114,"260 S FRANKLIN ST, DENVER, CO, 80209","Match","Exact","260 S FRANKLIN ST, DENVER, CO, 80209",177331968,"L"
421115,"260 S JUTEWOOD STREET","ANAHEIM","CA",92808,33.866699032,-117.735507991,115,"260 S JUTEWOOD STREET, ANAHEIM, CA, 92808","Match","Exact","260 S JUTEWOOD ST, ANAHEIM, CA, 92808",144415713,"R"
421116,"260 S OLD MANOR ROAD","WICHITA","KS",67218,37.6836142940001,-97.27475965,116,"260 S OLD MANOR ROAD, WICHITA, KS, 67218","Match","Exact","260 S OLD MANOR RD, WICHITA, KS, 67218",115639661,"L"
421117,"260 S OSCEOLA AVE APT 1001","ORLANDO","FL",32801,28.539421143,-81.371361233,117,"260 S OSCEOLA AVE APT 1001, ORLANDO, FL, 32801","Match","Non_Exact","260 S OSCEOLA AVE, ORLANDO, FL, 32801",94282581,"R"
421118,"260 S OSCEOLA AVE STE 1004","ORLANDO","FL",32801,28.539421143,-81.371361233,118,"260 S OSCEOLA AVE STE 1004, ORLANDO, FL, 32801","Match","Non_Exact","260 S OSCEOLA AVE, ORLANDO, FL, 32801",94282581,"R"
421119,"260 S OSCEOLA AVE","ORLANDO","FL",32801,28.539421143,-81.371361233,119,"260 S OSCEOLA AVE, ORLANDO, FL, 32801","Match","Exact","260 S OSCEOLA AVE, ORLANDO, FL, 32801",94282581,"R"
421120,"260 S OSCEOLA DRIVE   APT 802","ORLANDO","FL",32801,NA,NA,120,"260 S OSCEOLA DRIVE   APT 802, ORLANDO, FL, 32801","No_Match",NA,NA,NA,NA
421121,"260 S REYNOLDS ST","ALEXANDRIA","VA",22304,38.810190064,-77.12845327,121,"260 S REYNOLDS ST, ALEXANDRIA, VA, 22304","Match","Exact","260 S REYNOLDS ST, ALEXANDRIA, VA, 22304",653460353,"L"
421122,"260 S TEXAS BLVD STE 400","WESLACO","TX",78596,NA,NA,122,"260 S TEXAS BLVD STE 400, WESLACO, TX, 78596","Tie",NA,NA,NA,NA
421123,"260 SANGER AVE","WATERVILLE","NY",13480,42.924531404,-75.3832655149999,123,"260 SANGER AVE, WATERVILLE, NY, 13480","Match","Exact","260 SANGER AVE, WATERVILLE, NY, 13480",171519006,"L"
421124,"260 SCHAEFFER HALL","IOWA CITY","IA",52242,NA,NA,124,"260 SCHAEFFER HALL, IOWA CITY, IA, 52242","No_Match",NA,NA,NA,NA
421125,"260 SEALE LANE","ALPHARETTA","GA",30022,34.047519445,-84.270515866,125,"260 SEALE LANE, ALPHARETTA, GA, 30022","Match","Exact","260 SEALE LN, ALPHARETTA, GA, 30022",17389326,"L"
421126,"260 SEMINOLE DR","ORANGEBURG","SC",29115,NA,NA,126,"260 SEMINOLE DR, ORANGEBURG, SC, 29115","No_Match",NA,NA,NA,NA
421127,"260 SHADES CREST ROAD","HOOVER","AL",35226,33.383792811,-86.852122917,127,"260 SHADES CREST ROAD, HOOVER, AL, 35226","Match","Exact","260 SHADES CREST RD, HOOVER, AL, 35226",81615957,"L"
421128,"260 SHANKS ROAD","BLOUNTVILLE","TN",37617,36.502377301,-82.370453772,128,"260 SHANKS ROAD, BLOUNTVILLE, TN, 37617","Match","Exact","260 SHANKS RD, BLOUNTVILLE, TN, 37617",127863131,"L"
421129,"260 SHARP ROAD APT 19","BATON ROUGE","LA",70815,30.454152284,-91.072102918,129,"260 SHARP ROAD APT 19, BATON ROUGE, LA, 70815","Match","Exact","260 SHARP RD, BATON ROUGE, LA, 70815",92191060,"R"
421130,"260 SHEHAWKEN RD","PRESTON","PA",18455,41.879368056,-75.374442814,130,"260 SHEHAWKEN RD, PRESTON, PA, 18455","Match","Non_Exact","260 SHEHAWKEN RD, PRESTON PARK, PA, 18455",140179891,"L"
421131,"260 SHUTTER DR","DECATUR","IL",62526,39.903118605,-88.953386746,131,"260 SHUTTER DR, DECATUR, IL, 62526","Match","Exact","260 SHUTTER DR, DECATUR, IL, 62526",20744855,"L"
421132,"260 SICKLES AVENUE","NEW ROCHELLE","NY",10801,40.913529554,-73.796512015,132,"260 SICKLES AVENUE, NEW ROCHELLE, NY, 10801","Match","Exact","260 SICKLES AVE, NEW ROCHELLE, NY, 10801",640547240,"L"
421133,"260 SILVER LANE","OLD BRIDGE","NJ",8857,40.3791258590001,-74.317141821,133,"260 SILVER LANE, OLD BRIDGE, NJ, 8857","Match","Exact","260 SILVER LN, OLD BRIDGE, NJ, 08857",60291200,"R"
421134,"260 SO 20TH STREET","NEWARK","NJ",7103,40.7480104590001,-74.2069290169999,134,"260 SO 20TH STREET, NEWARK, NJ, 7103","Match","Exact","260 S 20TH ST, NEWARK, NJ, 07103",63496003,"L"
421135,"260 SO CENTRAL APT A","UMATILLA","FL",32784,NA,NA,135,"260 SO CENTRAL APT A, UMATILLA, FL, 32784","No_Match",NA,NA,NA,NA
421136,"260 SO DOHENY DRIVE NO 7","BEVERLY HILLS","CA",90211,NA,NA,136,"260 SO DOHENY DRIVE NO 7, BEVERLY HILLS, CA, 90211","No_Match",NA,NA,NA,NA
421137,"260 SOLE RD","SELAH","WA",98942,46.691328486,-120.541335797,137,"260 SOLE RD, SELAH, WA, 98942","Match","Exact","260 SOLE RD, SELAH, WA, 98942",184951700,"L"
421138,"260 SOMERSET STREET","NEW BRUNSWICK","NJ",8901,40.4935877880001,-74.454856499,138,"260 SOMERSET STREET, NEW BRUNSWICK, NJ, 8901","Match","Exact","260 SOMERSET ST, NEW BRUNSWICK, NJ, 08901",60360813,"L"
421139,"260 SOUTH 13TH STREET","SAN JOSE","CA",95112,37.337978177,-121.875009875,139,"260 SOUTH 13TH STREET, SAN JOSE, CA, 95112","Match","Exact","260 S 13TH ST, SAN JOSE, CA, 95112",122908700,"L"
421140,"260 SOUTH 2ND AVE","MOUNT VERNON","NY",10550,40.905726928,-73.832806041,140,"260 SOUTH 2ND AVE, MOUNT VERNON, NY, 10550","Match","Exact","260 S 2ND AVE, MOUNT VERNON, NY, 10550",139747526,"R"
421141,"260 SOUTH 3RD EAST","COWLEY","WY",82420,NA,NA,141,"260 SOUTH 3RD EAST, COWLEY, WY, 82420","No_Match",NA,NA,NA,NA
421142,"260 SOUTH BROAD ST","MOBILE","AL",36603,30.682199144,-88.0533418589999,142,"260 SOUTH BROAD ST, MOBILE, AL, 36603","Match","Exact","260 S BROAD ST, MOBILE, AL, 36603",61867659,"R"
421143,"260 SOUTH BROADWAY 6N","YONKERS","NY",10705,40.924254433,-73.8954934349999,143,"260 SOUTH BROADWAY 6N, YONKERS, NY, 10705","Match","Exact","260 S BROADWAY, YONKERS, NY, 10705",139743607,"L"
421144,"260 SOUTH CLINTON STREET","EAST ORANGE","NJ",7018,40.7567960260001,-74.221380465,144,"260 SOUTH CLINTON STREET, EAST ORANGE, NJ, 7018","Match","Exact","260 S CLINTON ST, EAST ORANGE, NJ, 07018",63450519,"L"
421145,"260 SOUTH LOCUST","ASHDOWN","AR",71822,33.6698519940001,-94.119299987,145,"260 SOUTH LOCUST, ASHDOWN, AR, 71822","Match","Non_Exact","260 S LOCUST ST, ASHDOWN, AR, 71822",84778066,"R"
421146,"260 SOUTH PARK ST 524","MANHATTAN","IL",60442,41.4230385600001,-87.983295533,146,"260 SOUTH PARK ST 524, MANHATTAN, IL, 60442","Match","Exact","260 S PARK ST, MANHATTAN, IL, 60442",111548720,"L"
421147,"260 SOUTHBERRY LANE","LEXINGTON","SC",29072,33.955228495,-81.274923745,147,"260 SOUTHBERRY LANE, LEXINGTON, SC, 29072","Match","Exact","260 SOUTHBERRY LN, LEXINGTON, SC, 29072",632114368,"R"
421148,"260 SPRINGS HILL CIRCLE","SEGUIN","TX",78155,29.6258929640001,-98.039208103,148,"260 SPRINGS HILL CIRCLE, SEGUIN, TX, 78155","Match","Exact","260 SPRINGS HILL CIR, SEGUIN, TX, 78155",234718751,"R"
421149,"260 ST HWY JJ","LILBOURN","MO",63862,NA,NA,149,"260 ST HWY JJ, LILBOURN, MO, 63862","No_Match",NA,NA,NA,NA
421150,"260 STATE HIGHWAY 3","BAR HARBOR","ME",4609,44.415980974,-68.2536341969999,150,"260 STATE HIGHWAY 3, BAR HARBOR, ME, 4609","Match","Exact","260 STATE HWY 3, BAR HARBOR, ME, 04609",608801689,"R"
421151,"260 State Street",NA,NA,NA,NA,NA,151,"260 State Street, , , ","No_Match",NA,NA,NA,NA
421152,"260 STEWARD LANE","PALMETTO","LA",71358,30.7124461940001,-91.916343624,152,"260 STEWARD LANE, PALMETTO, LA, 71358","Match","Non_Exact","260 STEWART LN, PALMETTO, LA, 71358",106447246,"L"
421153,"260 STONEGATE COURT","NAPLES","FL",34119,26.220399845,-81.7233461449999,153,"260 STONEGATE COURT, NAPLES, FL, 34119","Match","Exact","260 STONEGATE CT, NAPLES, FL, 34119",115152432,"R"
421154,"260 STORYTELLER RD","SAINT HELENA ISLAND","SC",29920,32.3601567700001,-80.622962855,154,"260 STORYTELLER RD, SAINT HELENA ISLAND, SC, 29920","Match","Exact","260 STORYTELLER RD, SAINT HELENA ISLAND, SC, 29920",612415368,"L"
421155,"260 STRESE LN","APPLE VALLEY","MN",55124,44.734799342,-93.241192002,155,"260 STRESE LN, APPLE VALLEY, MN, 55124","Match","Exact","260 STRESE LN, APPLE VALLEY, MN, 55124",37906592,"R"
421156,"260 SUMMER LANE","VICTORIA","TX",77905,28.8227695510001,-97.105758802,156,"260 SUMMER LANE, VICTORIA, TX, 77905","Match","Exact","260 SUMMER LN, VICTORIA, TX, 77905",44557180,"R"
421157,"260 SUNNYBROOKE","TROY","IL",62294,38.710777912,-89.877885973,157,"260 SUNNYBROOKE, TROY, IL, 62294","Match","Exact","260 SUNNYBROOKE, TROY, IL, 62294",107741244,"R"
421158,"260 SUNSET BLVD","HAYWARD","CA",94541,37.6728064070001,-122.101032254,158,"260 SUNSET BLVD, HAYWARD, CA, 94541","Match","Exact","260 SUNSET BLVD, HAYWARD, CA, 94541",606171163,"L"
421159,"260 SW CENTRAL AVE","GRANTS PASS","OR",97526,42.432385551,-123.335344368,159,"260 SW CENTRAL AVE, GRANTS PASS, OR, 97526","Match","Exact","260 SW CENTRAL AVE, GRANTS PASS, OR, 97526",647509422,"R"
421160,"260 SW CENTRAL AVENUE","GRANTS PASS","OR",97526,42.432385551,-123.335344368,160,"260 SW CENTRAL AVENUE, GRANTS PASS, OR, 97526","Match","Exact","260 SW CENTRAL AVE, GRANTS PASS, OR, 97526",647509422,"R"
421161,"260 SWISS COLONY LN","LONDON","KY",40741,37.157583221,-84.198092464,161,"260 SWISS COLONY LN, LONDON, KY, 40741","Match","Exact","260 SWISS COLONY LN, LONDON, KY, 40741",98737882,"L"
421162,"260 TALL TREE LANE","WALTERBORO","SC",29488,32.795055662,-80.6241781969999,162,"260 TALL TREE LANE, WALTERBORO, SC, 29488","Match","Exact","260 TALL TREE LN, WALTERBORO, SC, 29488",19160171,"L"
421163,"260 TAM OSHANTER RD","MOUNT LAUREL","NJ",8054,39.922148357,-74.941892466,163,"260 TAM OSHANTER RD, MOUNT LAUREL, NJ, 8054","Match","Exact","260 TAM OSHANTER RD, MOUNT LAUREL, NJ, 08054",134036236,"L"
421164,"260 TELFORD PIKE","TELFORD","PA",18969,40.315999704,-75.3458990409999,164,"260 TELFORD PIKE, TELFORD, PA, 18969","Match","Exact","260 TELFORD PIKE, TELFORD, PA, 18969",135103428,"R"
421165,"260 TERRACE VIEW WAY","SENECA","SC",29678,34.6846338180001,-82.9083427419999,165,"260 TERRACE VIEW WAY, SENECA, SC, 29678","Match","Exact","260 TERRACE VIEW WAY, SENECA, SC, 29678",617667101,"R"
421166,"260 THRASHER RD","PLAINS","GA",31780,32.0138067250001,-84.3849369499999,166,"260 THRASHER RD, PLAINS, GA, 31780","Match","Exact","260 THRASHER RD, PLAINS, GA, 31780",30738098,"L"
421167,"260 TILLICUM DR","SILVERTON","OR",97381,45.004228481,-122.770761706,167,"260 TILLICUM DR, SILVERTON, OR, 97381","Match","Exact","260 TILLICUM DR, SILVERTON, OR, 97381",156271898,"L"
421168,"260 TORREY PINES COURT","VALLEJO","CA",94591,38.1177753590001,-122.198462171,168,"260 TORREY PINES COURT, VALLEJO, CA, 94591","Match","Exact","260 TORREY PINES CT, VALLEJO, CA, 94591",192529115,"L"
421169,"260 TRENOL HEIGHTS","MILTON","WV",25541,38.434056868,-82.117201761,169,"260 TRENOL HEIGHTS, MILTON, WV, 25541","Match","Non_Exact","260 TRENOL RD, MILTON, WV, 25541",101333039,"L"
421170,"260 TUSCANY CHASE DR","DAYTONA BEACH","FL",32117,29.240315163,-81.079079942,170,"260 TUSCANY CHASE DR, DAYTONA BEACH, FL, 32117","Match","Exact","260 TUSCANY CHASE DR, DAYTONA BEACH, FL, 32117",612318902,"L"
421171,"260 TWIN CREEKS DRIVE","SENECA","SC",29678,34.6477554780001,-82.92562307,171,"260 TWIN CREEKS DRIVE, SENECA, SC, 29678","Match","Exact","260 TWIN CREEKS DR, SENECA, SC, 29678",25668612,"R"
421172,"260 TWINVIEW DRIVE","PLEASANT HILL","CA",94523,37.94467001,-122.087867758,172,"260 TWINVIEW DRIVE, PLEASANT HILL, CA, 94523","Match","Non_Exact","260 TWIN VIEW DR, PLEASANT HILL, CA, 94523",192047418,"R"
421173,"260 VAUGHN ROAD","SUMMERSVILLE","KY",42782,37.3874231670001,-85.5981547229999,173,"260 VAUGHN ROAD, SUMMERSVILLE, KY, 42782","Match","Exact","260 VAUGHN RD, SUMMERSVILLE, KY, 42782",69317732,"R"
421174,"260 VICTORIA STREET","SALISBURY","NC",28147,35.7091671160001,-80.52272948,174,"260 VICTORIA STREET, SALISBURY, NC, 28147","Match","Exact","260 VICTORIA ST, SALISBURY, NC, 28147",25280774,"L"
421175,"260 VIKING DR","EL PASO","TX",79912,31.8350796720001,-106.532508156,175,"260 VIKING DR, EL PASO, TX, 79912","Match","Exact","260 VIKING DR, EL PASO, TX, 79912",189336026,"R"
421176,"260 VIRGINIA STREET","URBANNA","VA",23175,NA,NA,176,"260 VIRGINIA STREET, URBANNA, VA, 23175","No_Match",NA,NA,NA,NA
421177,"260 VISTA WOOD DR","DADEVILLE","AL",36853,32.7575710130001,-85.804073579,177,"260 VISTA WOOD DR, DADEVILLE, AL, 36853","Match","Exact","260 VISTA WOOD DR, DADEVILLE, AL, 36853",627556530,"R"
421178,"260 VZ CR 2115","CANTON","TX",75103,NA,NA,178,"260 VZ CR 2115, CANTON, TX, 75103","No_Match",NA,NA,NA,NA
421179,"260 W 36TH ST 201","NEW YORK","NY",10018,40.753001183,-73.9914094869999,179,"260 W 36TH ST 201, NEW YORK, NY, 10018","Match","Non_Exact","260 W 36TH ST, NEW YORK, NY, 10018",59658580,"L"
421180,"260 W 3RD STREET","MOORESTOWN","NJ",8057,39.9636245340001,-74.9538010099999,180,"260 W 3RD STREET, MOORESTOWN, NJ, 8057","Match","Exact","260 W 3RD ST, MOORESTOWN, NJ, 08057",134030663,"L"
421181,"260 W 400 S","PROVO","UT",84601,40.228391716,-111.66328737,181,"260 W 400 S, PROVO, UT, 84601","Match","Exact","260 W 400 S, PROVO, UT, 84601",134209386,"R"
421182,"260 W 52 STREET APT 3C","NEW YORK","NY",10019,40.7632027000001,-73.9843981609999,182,"260 W 52 STREET APT 3C, NEW YORK, NY, 10019","Match","Non_Exact","260 W 52ND ST, NEW YORK, NY, 10019",59655266,"L"
421183,"260 W 52ND ST - APT 20A","NEW YORK","NY",10019,40.7632027000001,-73.9843981609999,183,"260 W 52ND ST - APT 20A, NEW YORK, NY, 10019","Match","Non_Exact","260 W 52ND ST, NEW YORK, NY, 10019",59655266,"L"
421184,"260 W 54TH STREET UNIT 22A","NEW YORK","NY",10019,40.7643798650001,-73.9833084159999,184,"260 W 54TH STREET UNIT 22A, NEW YORK, NY, 10019","Match","Non_Exact","260 W 54TH ST, NEW YORK, NY, 10019",59655264,"L"
421185,"260 W CLAPIER STREET","PHILADELPHIA","PA",19144,40.0241032170001,-75.1678859259999,185,"260 W CLAPIER STREET, PHILADELPHIA, PA, 19144","Match","Exact","260 W CLAPIER ST, PHILADELPHIA, PA, 19144",131401566,"L"
421186,"260 W MASHTA DR","KEY BISCAYNE","FL",33149,25.6864588400001,-80.168456727,186,"260 W MASHTA DR, KEY BISCAYNE, FL, 33149","Match","Exact","260 W MASHTA DR, KEY BISCAYNE, FL, 33149",116021205,"L"
421187,"260 W PACIFIC","BUTTE","MT",59701,46.0233663280001,-112.542263038,187,"260 W PACIFIC, BUTTE, MT, 59701","Match","Exact","260 W PACIFIC, BUTTE, MT, 59701",625019967,"R"
421188,"260 W RIO ROAD","LINCOLN","NE",68505,40.8157090540001,-96.623853851,188,"260 W RIO ROAD, LINCOLN, NE, 68505","Match","Exact","260 W RIO RD, LINCOLN, NE, 68505",28259899,"R"
421189,"260 W SAN REMO ST","GILBERT","AZ",85233,33.3684625940001,-111.795438426,189,"260 W SAN REMO ST, GILBERT, AZ, 85233","Match","Exact","260 W SAN REMO ST, GILBERT, AZ, 85233",128969554,"R"
421190,"260 W TENTH STREET","NEOGA","IL",62447,39.3255073300001,-88.454305101,190,"260 W TENTH STREET, NEOGA, IL, 62447","Match","Exact","260 W 10TH ST, NEOGA, IL, 62447",5710258,"L"
421191,"260 WALNUT CREEK DR APT D12","BOWLING GREEN","KY",42101,36.991387128,-86.493862687,191,"260 WALNUT CREEK DR APT D12, BOWLING GREEN, KY, 42101","Match","Exact","260 WALNUT CREEK DR, BOWLING GREEN, KY, 42101",650384845,"R"
421192,"260 WALNUT CREEK DRIVE A 18","BOWLING GREEN","KY",42101,36.991387128,-86.493862687,192,"260 WALNUT CREEK DRIVE A 18, BOWLING GREEN, KY, 42101","Match","Exact","260 WALNUT CREEK DR, BOWLING GREEN, KY, 42101",650384845,"R"
421193,"260 WALNUT ST APT 2","WESTFIELD","NJ",7090,40.655019811,-74.350827123,193,"260 WALNUT ST APT 2, WESTFIELD, NJ, 7090","Match","Exact","260 WALNUT ST, WESTFIELD, NJ, 07090",60566925,"R"
421194,"260 WARD KOEBEL RD","OREGONIA","OH",45054,39.423511616,-84.039432091,194,"260 WARD KOEBEL RD, OREGONIA, OH, 45054","Match","Exact","260 WARD KOEBEL RD, OREGONIA, OH, 45054",640613799,"R"
421195,"260 WARD KOEBEL RD","OREGONIA","OH",45385,39.423511616,-84.039432091,195,"260 WARD KOEBEL RD, OREGONIA, OH, 45385","Match","Non_Exact","260 WARD KOEBEL RD, OREGONIA, OH, 45054",640613799,"R"
421196,"260 WASHINGTON AVE","NORTH LIBERTY","IA",52317,41.7475388710001,-91.614295108,196,"260 WASHINGTON AVE, NORTH LIBERTY, IA, 52317","Match","Exact","260 WASHINGTON AVE, NORTH LIBERTY, IA, 52317",627104576,"R"
421197,"260 WASHINGTON AVENUE APT C3","BROOKLYN","NY",11205,40.690859979,-73.966387163,197,"260 WASHINGTON AVENUE APT C3, BROOKLYN, NY, 11205","Match","Exact","260 WASHINGTON AVE, BROOKLYN, NY, 11205",59077802,"R"
421198,"260 WASHINGTON STREET","WOBURN","MA",1801,42.491461461,-71.1228354959999,198,"260 WASHINGTON STREET, WOBURN, MA, 1801","Match","Exact","260 WASHINGTON ST, WOBURN, MA, 01801",87086744,"L"
421199,"260 WATER STREET","BROOKLYN","NY",11201,40.7029934330001,-73.983674245,199,"260 WATER STREET, BROOKLYN, NY, 11201","Match","Exact","260 WATER ST, BROOKLYN, NY, 11201",59075115,"R"
421200,"260 WELDON STREET","REDDING","CA",96001,40.5656447270001,-122.378623891,200,"260 WELDON STREET, REDDING, CA, 96001","Match","Exact","260 WELDON ST, REDDING, CA, 96001",126627964,"R"
421201,"260 WELLS STREET","MANCHESTER","NH",3104,42.9982455470001,-71.4070194129999,201,"260 WELLS STREET, MANCHESTER, NH, 3104","Match","Exact","260 WELLS ST, MANCHESTER, NH, 03104",113534038,"L"
421202,"260 WELLVILLE RD","BLACKSTONE","VA",23824,37.130597772,-77.918631642,202,"260 WELLVILLE RD, BLACKSTONE, VA, 23824","Match","Exact","260 WELLVILLE RD, BLACKSTONE, VA, 23824",54375122,"L"
421203,"260 WES ASHLEY DRIVE","MERIDIANVILLE","AL",35759,34.8575268650001,-86.5521384099999,203,"260 WES ASHLEY DRIVE, MERIDIANVILLE, AL, 35759","Match","Exact","260 WES ASHLEY DR, MERIDIANVILLE, AL, 35759",616759657,"L"
421204,"260 WEST 153RD STREET","NEW YORK","NV",10039,NA,NA,204,"260 WEST 153RD STREET, NEW YORK, NV, 10039","No_Match",NA,NA,NA,NA
421205,"260 WEST 54TH STREET SUITE 16I","NEW YORK","NY",10019,40.764371333,-73.983288057,205,"260 WEST 54TH STREET SUITE 16I, NEW YORK, NY, 10019","Match","Exact","260 W 54TH ST, NEW YORK, NY, 10019",59655264,"L"
421206,"260 WEST EXCHANGE STREET  SUITE 101","PROVIDENCE","RI",2903,41.825347935,-71.421992116,206,"260 WEST EXCHANGE STREET  SUITE 101, PROVIDENCE, RI, 2903","Match","Exact","260 W EXCHANGE ST, PROVIDENCE, RI, 02903",47461022,"L"
421207,"260 WEST HICKORY STREET","CHICAGO HEIGHTS","IL",60411,41.4996017600001,-87.652646182,207,"260 WEST HICKORY STREET, CHICAGO HEIGHTS, IL, 60411","Match","Exact","260 W HICKORY ST, CHICAGO HEIGHTS, IL, 60411",111713543,"L"
421208,"260 WEST RD","CAMPOBELLO","SC",29322,35.0858280090001,-82.1733665209999,208,"260 WEST RD, CAMPOBELLO, SC, 29322","Match","Exact","260 WEST RD, CAMPOBELLO, SC, 29322",649329478,"R"
421209,"260 WEST ST","MANDEVILLE","LA",70448,30.3619000090001,-90.08081062,209,"260 WEST ST, MANDEVILLE, LA, 70448","Match","Exact","260 WEST ST, MANDEVILLE, LA, 70448",111238833,"L"
421210,"260 WICKSON WAY","BRENTWOOD","CA",94513,37.9205478370001,-121.730745743,210,"260 WICKSON WAY, BRENTWOOD, CA, 94513","Match","Exact","260 WICKSON WAY, BRENTWOOD, CA, 94513",192104390,"R"
421211,"260 WILLOW STREET","NEW HAVEN","CT",6511,41.3224418570001,-72.912620905,211,"260 WILLOW STREET, NEW HAVEN, CT, 6511","Match","Exact","260 WILLOW ST, NEW HAVEN, CT, 06511",3700041,"L"
421212,"260 WILLOWWOOD","OSWEGO","IL",60543,41.6890221670001,-88.375346866,212,"260 WILLOWWOOD, OSWEGO, IL, 60543","Match","Non_Exact","260 WILLOWWOOD DR, OSWEGO, IL, 60543",640152607,"R"
421213,"260 WINDSOR DRIVE","SAN CARLOS","CA",94070,37.4957073940001,-122.278489114,213,"260 WINDSOR DRIVE, SAN CARLOS, CA, 94070","Match","Exact","260 WINDSOR DR, SAN CARLOS, CA, 94070",192413194,"R"
421214,"260 WJ BECK ROAD","MINDEN","LA",71055,32.5995315220001,-93.2622697629999,214,"260 WJ BECK ROAD, MINDEN, LA, 71055","Match","Exact","260 WJ BECK RD, MINDEN, LA, 71055",73417845,"L"
421215,"260 WOODLANDS ROAD","HARRISON","NY",10528,40.9845600290001,-73.724742078,215,"260 WOODLANDS ROAD, HARRISON, NY, 10528","Match","Exact","260 WOODLANDS RD, HARRISON, NY, 10528",139755728,"R"
421216,"260 WRANGLEWOOD DR","WELLINGTON","FL",33414,26.673167918,-80.238209275,216,"260 WRANGLEWOOD DR, WELLINGTON, FL, 33414","Match","Exact","260 WRANGLEWOOD DR, WELLINGTON, FL, 33414",115579573,"R"
421217,"260 YORK STREET","DUBUQUE","IA",52003,42.4891233910001,-90.681367714,217,"260 YORK STREET, DUBUQUE, IA, 52003","Match","Exact","260 YORK ST, DUBUQUE, IA, 52003",16921491,"L"
421218,"260-03 PEMBROKE AVENUE","GREAT NECK","NY",11020,NA,NA,218,"260-03 PEMBROKE AVENUE, GREAT NECK, NY, 11020","No_Match",NA,NA,NA,NA
421219,"260-59 ANNAS RETREAT","ST THOMAS","VI",802,NA,NA,219,"260-59 ANNAS RETREAT, ST THOMAS, VI, 802","No_Match",NA,NA,NA,NA
421220,"260","FAIRFIELD","CT",6824,NA,NA,220,"260, FAIRFIELD, CT, 6824","No_Match",NA,NA,NA,NA
421221,"260","MODESTO","CA",95355,NA,NA,221,"260, MODESTO, CA, 95355","No_Match",NA,NA,NA,NA
421222,"2600  PARK  TOWER  DR SUITE  101","FAIRFAX","VA",22180,38.882131568,-77.226190133,222,"2600  PARK  TOWER  DR SUITE  101, FAIRFAX, VA, 22180","Match","Non_Exact","2600 PARK TOWER DR, VIENNA, VA, 22180",619934339,"L"
421223,"2600 10TH STREET","BERKELEY","CA",94710,37.859002676,-122.290172894,223,"2600 10TH STREET, BERKELEY, CA, 94710","Match","Exact","2600 10TH ST, BERKELEY, CA, 94710",635729357,"R"
421224,"2600 12TH SQ SW","VERO BEACH","FL",32968,27.580361979,-80.411171773,224,"2600 12TH SQ SW, VERO BEACH, FL, 32968","Match","Exact","2600 12TH SQ SW, VERO BEACH, FL, 32968",651753701,"L"
421225,"2600 16TH ST S UNIT 702","ARLINGTON","VA",22204,38.8576845060001,-77.082881824,225,"2600 16TH ST S UNIT 702, ARLINGTON, VA, 22204","Match","Exact","2600 16TH ST S, ARLINGTON, VA, 22204",76479514,"L"
421226,"2600 18TH STREET NW","JASPER","AL",35503,33.869593837,-87.304202536,226,"2600 18TH STREET NW, JASPER, AL, 35503","Match","Exact","2600 18TH ST NW, JASPER, AL, 35503",120582106,"L"
421227,"2600 21ST AVE SOUTH","ST PETERSBURG","FL",33712,NA,NA,227,"2600 21ST AVE SOUTH, ST PETERSBURG, FL, 33712","No_Match",NA,NA,NA,NA
421228,"2600 23RD RD NORTH","ARLINGTON","VA",22207,38.8999276420001,-77.091268225,228,"2600 23RD RD NORTH, ARLINGTON, VA, 22207","Match","Exact","2600 23RD RD N, ARLINGTON, VA, 22207",76469618,"L"
421229,"2600 2ND AVE STE 615","SEATTLE","WA",98121,NA,NA,229,"2600 2ND AVE STE 615, SEATTLE, WA, 98121","No_Match",NA,NA,NA,NA
421230,"2600 46TH AVE SE","MANDAN","ND",58554,46.7993891840001,-100.829786789,230,"2600 46TH AVE SE, MANDAN, ND, 58554","Match","Exact","2600 46TH AVE SE, MANDAN, ND, 58554",199020358,"R"
421231,"2600 6TH AVENUE","TROY","NY",12180,42.741703322,-73.682921971,231,"2600 6TH AVENUE, TROY, NY, 12180","Match","Exact","2600 6TH AVE, TROY, NY, 12180",640446485,"R"
421232,"2600 6TH ST NW","WASHINGTON","DC",20059,38.925195984,-77.0213707999999,232,"2600 6TH ST NW, WASHINGTON, DC, 20059","Match","Non_Exact","2600 6TH ST NW, WASHINGTON, DC, 20001",651111500,"L"
421233,"2600 6TH ST NW","WASHINGTON","DC",21117,38.925195984,-77.0213707999999,233,"2600 6TH ST NW, WASHINGTON, DC, 21117","Match","Non_Exact","2600 6TH ST NW, WASHINGTON, DC, 20001",651111500,"L"
421234,"2600 7TH STREET SOUTH","LACROSSE","WI",54601,43.783268863,-91.243069872,234,"2600 7TH STREET SOUTH, LACROSSE, WI, 54601","Match","Non_Exact","2600 7TH ST S, LA CROSSE, WI, 54601",51031871,"L"
421235,"2600 8TH ST","CUMBERLAND","WI",54829,45.582374605,-91.9920770209999,235,"2600 8TH ST, CUMBERLAND, WI, 54829","Match","Exact","2600 8TH ST, CUMBERLAND, WI, 54829",126299515,"L"
421236,"2600 A EAST SELTICE WAY NMBR 214","POST FALLS","ID",83854,47.710856897,-116.908293428,236,"2600 A EAST SELTICE WAY NMBR 214, POST FALLS, ID, 83854","Match","Exact","2600 E SELTICE WAY, POST FALLS, ID, 83854",652484206,"L"
421237,"2600 A EAST SELTICEWAY NMBR 214","POST FALLS","ID",83854,NA,NA,237,"2600 A EAST SELTICEWAY NMBR 214, POST FALLS, ID, 83854","No_Match",NA,NA,NA,NA
421238,"2600 A TOWNHOUSE LANE","CHESAPEAKE","VA",23323,36.7752472350001,-76.3408465589999,238,"2600 A TOWNHOUSE LANE, CHESAPEAKE, VA, 23323","Match","Exact","2600 TOWNHOUSE LN, CHESAPEAKE, VA, 23323",121789563,"R"
421239,"2600 ADAMS STREET APT 2","GREAT BEND","KS",67530,38.3765382770001,-98.775771129,239,"2600 ADAMS STREET APT 2, GREAT BEND, KS, 67530","Match","Exact","2600 ADAMS ST, GREAT BEND, KS, 67530",132571001,"R"
421240,"2600 ALBANY","MESQUITE","TX",75051,NA,NA,240,"2600 ALBANY, MESQUITE, TX, 75051","No_Match",NA,NA,NA,NA
421241,"2600 ALPINE LAKE APARTMENT A","JACKSON","MI",49203,NA,NA,241,"2600 ALPINE LAKE APARTMENT A, JACKSON, MI, 49203","No_Match",NA,NA,NA,NA
421242,"2600 ASBURY AVE","NEPTUNE","NJ",7753,40.231639891,-74.064779754,242,"2600 ASBURY AVE, NEPTUNE, NJ, 7753","Match","Exact","2600 ASBURY AVE, NEPTUNE, NJ, 07753",90527122,"L"
421243,"2600 ASHLEY RD","CHARLOTTE","NC",28208,35.228359289,-80.892289491,243,"2600 ASHLEY RD, CHARLOTTE, NC, 28208","Match","Exact","2600 ASHLEY RD, CHARLOTTE, NC, 28208",70476729,"R"
421244,"2600 ATHENS WAY H2","BREMERTON","WA",98312,NA,NA,244,"2600 ATHENS WAY H2, BREMERTON, WA, 98312","No_Match",NA,NA,NA,NA
421245,"2600 AUGUSTA LANE","HAYS","KS",67601,38.88330875,-99.339366741,245,"2600 AUGUSTA LANE, HAYS, KS, 67601","Match","Exact","2600 AUGUSTA LN, HAYS, KS, 67601",645474542,"L"
421246,"2600 AVE K","PLANO","TX",75074,33.033011785,-96.699032496,246,"2600 AVE K, PLANO, TX, 75074","Match","Non_Exact","2600 K AVE, PLANO, TX, 75074",210489827,"L"
421247,"2600 AVOLA ST","REDDING","CA",96002,40.5691955820001,-122.323457982,247,"2600 AVOLA ST, REDDING, CA, 96002","Match","Exact","2600 AVOLA ST, REDDING, CA, 96002",126629843,"R"
421248,"2600 BASELINE RD","SHILOH","OH",44878,NA,NA,248,"2600 BASELINE RD, SHILOH, OH, 44878","Tie",NA,NA,NA,NA
421249,"2600 BAYFIELD RD","MUSCATINE","IA",52761,41.4646734500001,-91.060585986,249,"2600 BAYFIELD RD, MUSCATINE, IA, 52761","Match","Exact","2600 BAYFIELD RD, MUSCATINE, IA, 52761",99010066,"L"
421250,"2600 BAYSIDE DRIVE","CORONA DEL MAR","CA",92625,33.5993675030001,-117.876728941,250,"2600 BAYSIDE DRIVE, CORONA DEL MAR, CA, 92625","Match","Exact","2600 BAYSIDE DR, CORONA DEL MAR, CA, 92625",144050640,"L"
421251,"2600 BAYWOOD COURT","SILVER SPRING","MD",20906,39.0805212700001,-77.055176875,251,"2600 BAYWOOD COURT, SILVER SPRING, MD, 20906","Match","Exact","2600 BAYWOOD CT, SILVER SPRING, MD, 20906",62062983,"L"
421252,"2600 BEACH ROAD","PORT HURON","MI",48060,42.984358602,-82.488416737,252,"2600 BEACH ROAD, PORT HURON, MI, 48060","Match","Exact","2600 BEACH RD, PORT HURON, MI, 48060",110986188,"R"
421253,"2600 BELLS FERRY ROAD NE","MARIETTA","GA",30066,34.014643784,-84.548391268,253,"2600 BELLS FERRY ROAD NE, MARIETTA, GA, 30066","Match","Non_Exact","2600 BELLS FERRY RD, MARIETTA, GA, 30066",17168132,"R"
421254,"2600 BENNET RD","OKEMOS","MI",48864,42.697375606,-84.4472574599999,254,"2600 BENNET RD, OKEMOS, MI, 48864","Match","Non_Exact","2600 BENNETT RD, OKEMOS, MI, 48864",17517947,"R"
421255,"2600 BENNETT RD","OKEMOS","MI",48864,42.697375606,-84.4472574599999,255,"2600 BENNETT RD, OKEMOS, MI, 48864","Match","Exact","2600 BENNETT RD, OKEMOS, MI, 48864",17517947,"R"
421256,"2600 BENTLEY DR","DELTONA","FL",32738,28.962901919,-81.194867463,256,"2600 BENTLEY DR, DELTONA, FL, 32738","Match","Exact","2600 BENTLEY DR, DELTONA, FL, 32738",94500879,"R"
421257,"2600 BENTLEY RD","MARIETTA","GA",30067,33.919290978,-84.476047178,257,"2600 BENTLEY RD, MARIETTA, GA, 30067","Match","Non_Exact","2600 BENTLEY RD SE, MARIETTA, GA, 30067",17253767,"R"
421258,"2600 BENTLEY ROAD APT 2006","MARIETTA","GA",30067,33.919290978,-84.476047178,258,"2600 BENTLEY ROAD APT 2006, MARIETTA, GA, 30067","Match","Non_Exact","2600 BENTLEY RD SE, MARIETTA, GA, 30067",17253767,"R"
421259,"2600 BERKLEY AVE","CHESAPEAKE","VA",23325,36.8189896870001,-76.254436004,259,"2600 BERKLEY AVE, CHESAPEAKE, VA, 23325","Match","Exact","2600 BERKLEY AVE, CHESAPEAKE, VA, 23325",632544273,"R"
421260,"2600 BEULAH CUTTINO RD","SUMTER","SC",29150,33.819549168,-80.3510824529999,260,"2600 BEULAH CUTTINO RD, SUMTER, SC, 29150","Match","Exact","2600 BEULAH CUTTINO RD, SUMTER, SC, 29150",202676574,"R"
421261,"2600 BLACK ROCK RD","HANOVER","PA",17331,39.754097675,-76.9055457759999,261,"2600 BLACK ROCK RD, HANOVER, PA, 17331","Match","Exact","2600 BLACK ROCK RD, HANOVER, PA, 17331",611411599,"R"
421262,"2600 BLUE COVE","AUSTIN","TX",78745,30.2043697440001,-97.814032766,262,"2600 BLUE COVE, AUSTIN, TX, 78745","Match","Exact","2600 BLUE COVE, AUSTIN, TX, 78745",63940275,"R"
421263,"2600 BOLTON BOONE  917","DESOTO","TX",75115,32.6417554490001,-96.878455045,263,"2600 BOLTON BOONE  917, DESOTO, TX, 75115","Match","Non_Exact","2600 BOLTON BOONE DR, DESOTO, TX, 75115",649821395,"R"
421264,"2600 BOLTON BOONE APT 1006","DESOTO","TX",75114,NA,NA,264,"2600 BOLTON BOONE APT 1006, DESOTO, TX, 75114","No_Match",NA,NA,NA,NA
421265,"2600 BOLTON BOONE STE 216","DESOTO","TX",75115,32.6417554490001,-96.878455045,265,"2600 BOLTON BOONE STE 216, DESOTO, TX, 75115","Match","Non_Exact","2600 BOLTON BOONE DR, DESOTO, TX, 75115",649821395,"R"
421266,"2600 BONNY LANE","LAFAYETTE","IN",47904,40.4307021750001,-86.867098373,266,"2600 BONNY LANE, LAFAYETTE, IN, 47904","Match","Exact","2600 BONNY LN, LAFAYETTE, IN, 47904",27307422,"L"
421267,"2600 BRADSHAW TERRACE","SILVER SPRING","MD",20905,39.092015023,-76.9594860349999,267,"2600 BRADSHAW TERRACE, SILVER SPRING, MD, 20905","Match","Exact","2600 BRADSHAW TER, SILVER SPRING, MD, 20905",62072929,"L"
421268,"2600 BRALORNE CT","BAKERSFIELD","CA",93309,35.331143669,-119.086159738,268,"2600 BRALORNE CT, BAKERSFIELD, CA, 93309","Match","Exact","2600 BRALORNE CT, BAKERSFIELD, CA, 93309",109084973,"R"
421269,"2600 BRIAR ST","JONESBORO","AR",72401,35.81381995,-90.666373832,269,"2600 BRIAR ST, JONESBORO, AR, 72401","Match","Non_Exact","2600 BRIAR LN, JONESBORO, AR, 72401",46910361,"R"
421270,"2600 BRINKLEY ROAD APT 1055","OXON HILL","MD",20744,38.8057256600001,-76.963425891,270,"2600 BRINKLEY ROAD APT 1055, OXON HILL, MD, 20744","Match","Non_Exact","2600 BRINKLEY RD, FORT WASHINGTON, MD, 20744",76347407,"L"
421271,"2600 BRINKLEY ROAD SUITE 507","FORT WASHINGTON","MD",20744,38.8057256600001,-76.963425891,271,"2600 BRINKLEY ROAD SUITE 507, FORT WASHINGTON, MD, 20744","Match","Exact","2600 BRINKLEY RD, FT WASHINGTON, MD, 20744",76347407,"L"
421272,"2600 BROOKSIDE DR UNIT 146","BAKERSFIELD","CA",93311,35.3326344130001,-119.094065719,272,"2600 BROOKSIDE DR UNIT 146, BAKERSFIELD, CA, 93311","Match","Exact","2600 BROOKSIDE DR, BAKERSFIELD, CA, 93311",637364574,"R"
421273,"2600 BROOKSIDE DRIVE","IRVING","TX",75063,32.91194161,-96.980023124,273,"2600 BROOKSIDE DRIVE, IRVING, TX, 75063","Match","Exact","2600 BROOKSIDE DR, IRVING, TX, 75063",102885319,"L"
421274,"2600 BULL STREET","COLUMBIA","SC",29201,34.022514205,-81.0374579739999,274,"2600 BULL STREET, COLUMBIA, SC, 29201","Match","Non_Exact","2600 BULL ST, COLUMBIA, SC, 29202",604769161,"R"
421275,"2600 BURD AVE","ST. LOUIS","MO",63112,38.6740509050001,-90.271110095,275,"2600 BURD AVE, ST. LOUIS, MO, 63112","Match","Exact","2600 BURD AVE, SAINT LOUIS, MO, 63112",107593046,"R"
421276,"2600 BUSHNELL ST APT 18","CINCINNATI","OH",45204,39.1044073570001,-84.5572638419999,276,"2600 BUSHNELL ST APT 18, CINCINNATI, OH, 45204","Match","Exact","2600 BUSHNELL ST, CINCINNATI, OH, 45204",103934563,"R"
421277,"2600 CAMILLE DRIVE","WINTERVILLE","NC",28590,35.5608015930001,-77.4339156779999,277,"2600 CAMILLE DRIVE, WINTERVILLE, NC, 28590","Match","Exact","2600 CAMILLE DR, WINTERVILLE, NC, 28590",651948461,"L"
421278,"2600 CARLISLE ROAD","CARROLLTON","KY",41008,38.658687473,-85.22180746,278,"2600 CARLISLE ROAD, CARROLLTON, KY, 41008","Match","Exact","2600 CARLISLE RD, CARROLLTON, KY, 41008",65120290,"L"
421279,"2600 CASCADE FALLS","AUSTIN","TX",78738,30.3121309320001,-97.91782563,279,"2600 CASCADE FALLS, AUSTIN, TX, 78738","Match","Non_Exact","2600 CASCADE FALLS DR, AUSTIN, TX, 78738",63992107,"R"
421280,"2600 CATFISH CT","LAKE WALES","FL",33898,27.967338533,-81.544342319,280,"2600 CATFISH CT, LAKE WALES, FL, 33898","Match","Exact","2600 CATFISH CT, LAKE WALES, FL, 33898",104888447,"R"
421281,"2600 CEDAR DR","BURLINGTON","WI",53105,NA,NA,281,"2600 CEDAR DR, BURLINGTON, WI, 53105","No_Match",NA,NA,NA,NA
421282,"2600 CELEBRATION COVE 1004","SHREVEPORT","LA",71105,NA,NA,282,"2600 CELEBRATION COVE 1004, SHREVEPORT, LA, 71105","Tie",NA,NA,NA,NA
421283,"2600 CHAN DR 9207","FORT WORTH","TX",76140,NA,NA,283,"2600 CHAN DR 9207, FORT WORTH, TX, 76140","No_Match",NA,NA,NA,NA
421284,"2600 CHANDLER DR","BOWLING GREEN","KY",42104,36.9460312640001,-86.432659819,284,"2600 CHANDLER DR, BOWLING GREEN, KY, 42104","Match","Exact","2600 CHANDLER DR, BOWLING GREEN, KY, 42104",636068326,"R"
421285,"2600 CHENOWETH CREEK RD","ELKINS","WV",26241,38.8801371800001,-79.8069823129999,285,"2600 CHENOWETH CREEK RD, ELKINS, WV, 26241","Match","Exact","2600 CHENOWETH CREEK RD, ELKINS, WV, 26241",604499593,"L"
421286,"2600 CHESTER KIMM RD","WENATCHEE","WA",98801,47.465001122,-120.334020203,286,"2600 CHESTER KIMM RD, WENATCHEE, WA, 98801","Match","Exact","2600 CHESTER KIMM RD, WENATCHEE, WA, 98801",156991794,"L"
421287,"2600 CINDY DR","NEWARK","DE",19702,39.621514532,-75.676127449,287,"2600 CINDY DR, NEWARK, DE, 19702","Match","Exact","2600 CINDY DR, NEWARK, DE, 19702",606239235,"L"
421288,"2600 CLEARLAKE RD APT 12 D","COCOA","FL",32922,28.3923314990001,-80.75497467,288,"2600 CLEARLAKE RD APT 12 D, COCOA, FL, 32922","Match","Exact","2600 CLEARLAKE RD, COCOA, FL, 32922",93915272,"R"
421289,"2600 COBWORTH COURT","RALEIGH","NC",27613,35.8798279050001,-78.683704684,289,"2600 COBWORTH COURT, RALEIGH, NC, 27613","Match","Exact","2600 COBWORTH CT, RALEIGH, NC, 27613",72563157,"L"
421290,"2600 COLE AVE APT 104","DALLAS","TX",75204,32.799463707,-96.805233588,290,"2600 COLE AVE APT 104, DALLAS, TX, 75204","Match","Exact","2600 COLE AVE, DALLAS, TX, 75204",634282242,"R"
421291,"2600 CONNECTICUT CT","UNIONTOWN","OH",44685,40.999060812,-81.4298842919999,291,"2600 CONNECTICUT CT, UNIONTOWN, OH, 44685","Match","Exact","2600 CONNECTICUT CT, UNIONTOWN, OH, 44685",61373069,"R"
421292,"2600 COUNTY ROAD 240","COLUMBIA","MO",65202,38.9717077710001,-92.083974451,292,"2600 COUNTY ROAD 240, COLUMBIA, MO, 65202","Match","Exact","2600 CO RD 240, COLUMBIA, MO, 65202",34382511,"L"
421293,"2600 CR 258","LIBERTY HILL","TX",78642,30.6823964880001,-97.8508292179999,293,"2600 CR 258, LIBERTY HILL, TX, 78642","Match","Exact","2600 CO RD 258, LIBERTY HILL, TX, 78642",126414606,"R"
421294,"2600 CRANBROOK DRIVE","HEPHZIBAH","GA",30815,33.394728065,-82.075231344,294,"2600 CRANBROOK DRIVE, HEPHZIBAH, GA, 30815","Match","Exact","2600 CRANBROOK DR, HEPHZIBAH, GA, 30815",55635189,"L"
421295,"2600 CREEK CROSSING DRIVE","MESQUITE","TX",75154,NA,NA,295,"2600 CREEK CROSSING DRIVE, MESQUITE, TX, 75154","No_Match",NA,NA,NA,NA
421296,"2600 CREST LANE APT 202","WAUKESHA","WI",53188,43.0438029100001,-88.2687655249999,296,"2600 CREST LANE APT 202, WAUKESHA, WI, 53188","Match","Exact","2600 CREST LN, WAUKESHA, WI, 53188",632526792,"L"
421297,"2600 CROOKED MILE ROAD","BLACKLICK","OH",43004,NA,NA,297,"2600 CROOKED MILE ROAD, BLACKLICK, OH, 43004","No_Match",NA,NA,NA,NA
421298,"2600 CROOKED STICK LN","MOUNT PLEASANT","SC",29466,32.8825946470001,-79.827728393,298,"2600 CROOKED STICK LN, MOUNT PLEASANT, SC, 29466","Match","Exact","2600 CROOKED STICK LN, MOUNT PLEASANT, SC, 29466",108907458,"R"
421299,"2600 CRYSTAL DRIVE APT 508","ARLINGTON","VA",22202,38.8498976490001,-77.0506718459999,299,"2600 CRYSTAL DRIVE APT 508, ARLINGTON, VA, 22202","Match","Exact","2600 CRYSTAL DR, ARLINGTON, VA, 22202",648226965,"L"
421300,"2600 CUMBERLAND DR","FRANKLIN","IN",46131,NA,NA,300,"2600 CUMBERLAND DR, FRANKLIN, IN, 46131","No_Match",NA,NA,NA,NA
421301,"2600 DADE AVE","PANAMA CITY","FL",32408,30.157888687,-85.746996299,301,"2600 DADE AVE, PANAMA CITY, FL, 32408","Match","Exact","2600 DADE AVE, PANAMA CITY, FL, 32408",7039879,"L"
421302,"2600 DADE AVE","PANAMA CITYBEACH","FL",32408,30.157888687,-85.746996299,302,"2600 DADE AVE, PANAMA CITYBEACH, FL, 32408","Match","Non_Exact","2600 DADE AVE, PANAMA CITY BEACH, FL, 32408",7039879,"L"
421303,"2600 DARK OAK CT","OVIEDO","FL",32766,28.6335910390001,-81.15151127,303,"2600 DARK OAK CT, OVIEDO, FL, 32766","Match","Exact","2600 DARK OAK CT, OVIEDO, FL, 32766",627426901,"R"
421304,"2600 DEACONN ST","PHILA","PA",19129,40.0156285640001,-75.170257565,304,"2600 DEACONN ST, PHILA, PA, 19129","Match","Non_Exact","2600 DEACON ST, PHILA, PA, 19129",131401555,"L"
421305,"2600 DECATUR ST UNIT 24B","RICHMOND","VA",23224,37.512508451,-77.45516492,305,"2600 DECATUR ST UNIT 24B, RICHMOND, VA, 23224","Match","Exact","2600 DECATUR ST, RICHMOND, VA, 23224",201541663,"L"
421306,"2600 DODGE RD","EAST AMHERST","NY",14051,43.0372108340001,-78.70591819,306,"2600 DODGE RD, EAST AMHERST, NY, 14051","Match","Exact","2600 DODGE RD, EAST AMHERST, NY, 14051",637968094,"L"
421307,"2600 DODSON STREET SUITE 3","PORT HUENEME","CA",93043,NA,NA,307,"2600 DODSON STREET SUITE 3, PORT HUENEME, CA, 93043","No_Match",NA,NA,NA,NA
421308,"2600 DOGWOOD COURT","MAYS LANDING","NJ",8330,39.455865412,-74.651600467,308,"2600 DOGWOOD COURT, MAYS LANDING, NJ, 8330","Match","Exact","2600 DOGWOOD CT, MAYS LANDING, NJ, 08330",202520585,"L"
421309,"2600 DONA ANA ROAD   16","LAS CRUCES","NM",88007,32.3352079950001,-106.795677361,309,"2600 DONA ANA ROAD   16, LAS CRUCES, NM, 88007","Match","Exact","2600 DONA ANA RD, LAS CRUCES, NM, 88007",189563644,"R"
421310,"2600 DONBIGH CT","RALEIGH","NC",27604,NA,NA,310,"2600 DONBIGH CT, RALEIGH, NC, 27604","No_Match",NA,NA,NA,NA
421311,"2600 DOUGLAS ROAD SUITE 800","CORAL GABLES","FL",33134,25.7480007090001,-80.254540918,311,"2600 DOUGLAS ROAD SUITE 800, CORAL GABLES, FL, 33134","Match","Non_Exact","2600 S DOUGLAS RD, CORAL GABLES, FL, 33134",116014201,"R"
421312,"2600 DOVEHILL WAY","OVIEDO","FL",32766,28.633780938,-81.1468324859999,312,"2600 DOVEHILL WAY, OVIEDO, FL, 32766","Match","Exact","2600 DOVEHILL WAY, OVIEDO, FL, 32766",93801657,"R"
421313,"2600 DOW RD","PIFFARD","NY",14533,42.8456248100001,-77.900645035,313,"2600 DOW RD, PIFFARD, NY, 14533","Match","Exact","2600 DOW RD, PIFFARD, NY, 14533",14460952,"L"
421314,"2600 E 17TH ST","AUSTIN","TX",78702,30.2787640450001,-97.7137718879999,314,"2600 E 17TH ST, AUSTIN, TX, 78702","Match","Exact","2600 E 17TH ST, AUSTIN, TX, 78702",63947640,"L"
421315,"2600 E 26TH STREET","MINNEAPOLIS","MN",55406,44.9555684170001,-93.234549667,315,"2600 E 26TH STREET, MINNEAPOLIS, MN, 55406","Match","Exact","2600 E 26TH ST, MINNEAPOLIS, MN, 55406",43638452,"L"
421316,"2600 E 26TH STREET","MINNEPOLIS","MN",55406,44.9555684170001,-93.234549667,316,"2600 E 26TH STREET, MINNEPOLIS, MN, 55406","Match","Non_Exact","2600 E 26TH ST, MINNEAPOLIS, MN, 55406",43638452,"L"
421317,"2600 E 8TH STREET","SIOUX FALLS","SD",57103,43.5484736080001,-96.693152724,317,"2600 E 8TH STREET, SIOUX FALLS, SD, 57103","Match","Exact","2600 E 8TH ST, SIOUX FALLS, SD, 57103",635589255,"L"
421318,"2600 E ALRED AVE LOT B22","MESA","AZ",85204,33.4126907030001,-111.776013748,318,"2600 E ALRED AVE LOT B22, MESA, AZ, 85204","Match","Non_Exact","2600 E ALLRED AVE, MESA, AZ, 85204",128815239,"L"
421319,"2600 E CARY ST APT 3121","RICHMOND","VA",23223,37.5275726080001,-77.4210725889999,319,"2600 E CARY ST APT 3121, RICHMOND, VA, 23223","Match","Non_Exact","2600 E CARY ST, RICHMOND, VA, 23223",201542981,"L"
421320,"2600 E FENWAY DRIVE","OAK CREEK","WI",53154,42.8878255440001,-87.879625539,320,"2600 E FENWAY DRIVE, OAK CREEK, WI, 53154","Match","Exact","2600 E FENWAY DR, OAK CREEK, WI, 53154",77765354,"L"
421321,"2600 E GONZALEZ STREET","PENSACOLA","FL",32503,30.428645642,-87.187413089,321,"2600 E GONZALEZ STREET, PENSACOLA, FL, 32503","Match","Exact","2600 E GONZALEZ ST, PENSACOLA, FL, 32503",93223576,"L"
421322,"2600 E HALLANDALE BEACH BLVD UNIT 2","HALLANDALE BEACH","FL",33009,25.9862112490001,-80.1236466619999,322,"2600 E HALLANDALE BEACH BLVD UNIT 2, HALLANDALE BEACH, FL, 33009","Match","Non_Exact","2600 E HALLANDALE BEACH BLVD, HALLANDALE BEACH, FL, 33009",637823840,"R"
421323,"2600 E LONGHILLS RD APT 305","BENTON","AR",72019,34.599958504,-92.554933992,323,"2600 E LONGHILLS RD APT 305, BENTON, AR, 72019","Match","Non_Exact","2600 LONG HILLS RD, BENTON, AR, 72019",650051883,"R"
421324,"2600 E LONGHILLS RD APT 816","BENTON","AR",72019,34.599958504,-92.554933992,324,"2600 E LONGHILLS RD APT 816, BENTON, AR, 72019","Match","Non_Exact","2600 LONG HILLS RD, BENTON, AR, 72019",650051883,"R"
421325,"2600 E OVERHOLSER DRIVE","OKLAHOMA CITY","OK",73127,35.4953361020001,-97.665914414,325,"2600 E OVERHOLSER DRIVE, OKLAHOMA CITY, OK, 73127","Match","Exact","2600 E OVERHOLSER DR, OKLAHOMA CITY, OK, 73127",100389046,"R"
421326,"2600 E RENNER RD APT 128","RICHARDSON","TX",75082,32.997018724,-96.6742093409999,326,"2600 E RENNER RD APT 128, RICHARDSON, TX, 75082","Match","Non_Exact","2600 E RENNER RD, RICHARDSON, TX, 75082",210478758,"R"
421327,"2600 E SOUTHLAKE BLVD STE 120 PB101","SOUTHLAKE","TX",76092,NA,NA,327,"2600 E SOUTHLAKE BLVD STE 120 PB101, SOUTHLAKE, TX, 76092","Tie",NA,NA,NA,NA
421328,"2600 E SOUTHLAKE BLVD SUITE 120","SOUTHLAKE","TX",76092,NA,NA,328,"2600 E SOUTHLAKE BLVD SUITE 120, SOUTHLAKE, TX, 76092","Tie",NA,NA,NA,NA
421329,"2600 E SPRINGFIELD PLACE UNIT 40","CHANDLER","AZ",85286,33.2898286400001,-111.796437657,329,"2600 E SPRINGFIELD PLACE UNIT 40, CHANDLER, AZ, 85286","Match","Non_Exact","2600 E SPRINGFIELD PL, CHANDLER, AZ, 85286",243998132,"L"
421330,"2600 E TACOMA ST","SIERRA VISTA","AZ",85635,31.5659869200001,-110.271794701,330,"2600 E TACOMA ST, SIERRA VISTA, AZ, 85635","Match","Exact","2600 TACOMA ST, SIERRA VISTA, AZ, 85635",121089612,"R"
421331,"2600 EAGAN WOODS DRIVE SUITE 200","EAGAN","MN",55121,NA,NA,331,"2600 EAGAN WOODS DRIVE SUITE 200, EAGAN, MN, 55121","No_Match",NA,NA,NA,NA
421332,"2600 EAST CARY STREET APT 3103","RICHMOND","VA",23223,NA,NA,332,"2600 EAST CARY STREET APT 3103, RICHMOND, VA, 23223","No_Match",NA,NA,NA,NA
421333,"2600 EAST LONGHILLS RD APT 2813","BENTON","AR",72019,34.599958079,-92.554941073,333,"2600 EAST LONGHILLS RD APT 2813, BENTON, AR, 72019","Match","Non_Exact","2600 LONG HILLS RD, BENTON, AR, 72019",650051883,"R"
421334,"2600 EASTON ST NE","CANTON","OH",44721,40.8738211290001,-81.333324669,334,"2600 EASTON ST NE, CANTON, OH, 44721","Match","Exact","2600 EASTON ST NE, CANTON, OH, 44721",64699978,"R"
421335,"2600 ELMWOOD SE","GRAND RAPIDS","MI",49506,42.937910953,-85.604719516,335,"2600 ELMWOOD SE, GRAND RAPIDS, MI, 49506","Match","Non_Exact","2600 ELMWOOD DR SE, GRAND RAPIDS, MI, 49506",12462825,"R"
421336,"2600 ESPERANZA XING","AUSTIN","TX",78758,30.396641801,-97.71734589,336,"2600 ESPERANZA XING, AUSTIN, TX, 78758","Match","Exact","2600 ESPERANZA CROSSING, AUSTIN, TX, 78758",648234525,"L"
421337,"2600 FENIMORE ROAD","SILVER SPRING","DC",20902,NA,NA,337,"2600 FENIMORE ROAD, SILVER SPRING, DC, 20902","No_Match",NA,NA,NA,NA
421338,"2600 FLATROCK TRAIL","JONESBORO","AR",72404,35.7908426910001,-90.745069385,338,"2600 FLATROCK TRAIL, JONESBORO, AR, 72404","Match","Exact","2600 FLATROCK TRL, JONESBORO, AR, 72404",626999259,"R"
421339,"2600 FOREST AVE","EXCELSIOR","MN",55331,44.888362887,-93.586444676,339,"2600 FOREST AVE, EXCELSIOR, MN, 55331","Match","Exact","2600 FOREST AVE, EXCELSIOR, MN, 55331",43514637,"L"
421340,"2600 FOREST GLEN TRAIL","RIVERWOODS","IL",60015,42.169534931,-87.891411739,340,"2600 FOREST GLEN TRAIL, RIVERWOODS, IL, 60015","Match","Exact","2600 FOREST GLEN TRL, RIVERWOODS, IL, 60015",119650129,"R"
421341,"2600 FOREST RUN DRIVE","MELBOURNE","FL",32935,28.1804411860001,-80.6638764589999,341,"2600 FOREST RUN DRIVE, MELBOURNE, FL, 32935","Match","Exact","2600 FOREST RUN DR, MELBOURNE, FL, 32935",93930637,"L"
421342,"2600 FORMAN RD","AUSTINBURG","OH",44010,41.790605988,-80.834547863,342,"2600 FORMAN RD, AUSTINBURG, OH, 44010","Match","Exact","2600 FORMAN RD, AUSTINBURG, OH, 44010",652726755,"R"
421343,"2600 FORUM BVE SUITE B1A","COLUMBIA","MO",65203,38.9287395810001,-92.3637309809999,343,"2600 FORUM BVE SUITE B1A, COLUMBIA, MO, 65203","Match","Non_Exact","2600 FORUM BLVD, COLUMBIA, MO, 65203",23494659,"R"
421344,"2600 FRANKLIN WAY","WEST SACRAMENTO","CA",95691,38.5818152900001,-121.544709682,344,"2600 FRANKLIN WAY, WEST SACRAMENTO, CA, 95691","Match","Exact","2600 FRANKLIN WAY, WEST SACRAMENTO, CA, 95691",67692713,"R"
421345,"2600 FUZZY HOLLOW DR","PLEASANT GARDEN","NC",27313,35.9184531760001,-79.736810718,345,"2600 FUZZY HOLLOW DR, PLEASANT GARDEN, NC, 27313","Match","Exact","2600 FUZZY HOLLOW DR, PLEASANT GARDEN, NC, 27313",131022281,"R"
421346,"2600 GARNETT  WOODS WAY","KNOXVILLE","TN",37922,35.807243887,-84.153142343,346,"2600 GARNETT  WOODS WAY, KNOXVILLE, TN, 37922","Match","Exact","2600 GARNETT WOODS WAY, KNOXVILLE, TN, 37922",632180933,"R"
421347,"2600 GARNETT WOODS WAY","KNOXVILLE","TN",37922,35.807243887,-84.153142343,347,"2600 GARNETT WOODS WAY, KNOXVILLE, TN, 37922","Match","Exact","2600 GARNETT WOODS WAY, KNOXVILLE, TN, 37922",632180933,"R"
421348,"2600 GENERAL MEYER AVE","NEW ORLEANS","LA",70114,29.943408302,-90.0294681949999,348,"2600 GENERAL MEYER AVE, NEW ORLEANS, LA, 70114","Match","Exact","2600 GENERAL MEYER AVE, NEW ORLEANS, LA, 70114",613299469,"L"
421349,"2600 GESSNER RD STE 190","HOUSTON","TX",77080,29.8185477120001,-95.545213776,349,"2600 GESSNER RD STE 190, HOUSTON, TX, 77080","Match","Exact","2600 GESSNER RD, HOUSTON, TX, 77080",96638986,"R"
421350,"2600 GLADES CIRCLE STE 700","WESTON","FL",33327,NA,NA,350,"2600 GLADES CIRCLE STE 700, WESTON, FL, 33327","No_Match",NA,NA,NA,NA
421351,"2600 GLENCOE ST","DENVER","CO",80207,39.7548421980001,-104.925772529,351,"2600 GLENCOE ST, DENVER, CO, 80207","Match","Exact","2600 GLENCOE ST, DENVER, CO, 80207",177311652,"R"
421352,"2600 GORDON AVENUE","LA HABRA","CA",90631,33.943147772,-117.975773313,352,"2600 GORDON AVENUE, LA HABRA, CA, 90631","Match","Exact","2600 GORDON AVE, LA HABRA, CA, 90631",143997626,"L"
421353,"2600 GRAMERCY STREET 227","HOUSTON","TX",77030,29.704403557,-95.4184825679999,353,"2600 GRAMERCY STREET 227, HOUSTON, TX, 77030","Match","Exact","2600 GRAMERCY ST, HOUSTON, TX, 77030",642471373,"R"
421354,"2600 GRAND AVE","GRANITE CITY","IL",62040,38.7099808680001,-90.135039249,354,"2600 GRAND AVE, GRANITE CITY, IL, 62040","Match","Exact","2600 GRAND AVE, GRANITE CITY, IL, 62040",107682131,"R"
421355,"2600 GRAND BLVD SUITE 440","KANSAS CITY","MO",64108,39.079452722,-94.583148493,355,"2600 GRAND BLVD SUITE 440, KANSAS CITY, MO, 64108","Match","Exact","2600 GRAND BLVD, KANSAS CITY, MO, 64108",91445943,"R"
421356,"2600 GRAND BOULEVARD SUITE 1100","KANSAS CITY","MO",64108,39.079452722,-94.583148493,356,"2600 GRAND BOULEVARD SUITE 1100, KANSAS CITY, MO, 64108","Match","Exact","2600 GRAND BLVD, KANSAS CITY, MO, 64108",91445943,"R"
421357,"2600 GREENWOOD TERR G213","BOCA RATON","FL",33431,26.3745450820001,-80.0881107819999,357,"2600 GREENWOOD TERR G213, BOCA RATON, FL, 33431","Match","Exact","2600 GREENWOOD TER, BOCA RATON, FL, 33431",115312067,"L"
421358,"2600 GRIMMERSBOROUGH LANE","CHARLOTTE","NC",28270,35.0952378600001,-80.751163794,358,"2600 GRIMMERSBOROUGH LANE, CHARLOTTE, NC, 28270","Match","Exact","2600 GRIMMERSBOROUGH LN, CHARLOTTE, NC, 28270",70536647,"L"
421359,"2600 HASTYE HILL","LOGANSPORT","IN",46947,40.766883491,-86.33571855,359,"2600 HASTYE HILL, LOGANSPORT, IN, 46947","Match","Exact","2600 HASTYE HILL, LOGANSPORT, IN, 46947",27198338,"L"
421360,"2600 HAVE A TAMPA DRIVE","HAVANA","FL",32333,30.615118119,-84.428319713,360,"2600 HAVE A TAMPA DRIVE, HAVANA, FL, 32333","Match","Non_Exact","2600 HAV-A-TAMPA DR, HAVANA, FL, 32333",87829006,"L"
421361,"2600 HENKLE DRIVE","LEBANON","OH",45036,39.400070267,-84.220010776,361,"2600 HENKLE DRIVE, LEBANON, OH, 45036","Match","Exact","2600 HENKLE DR, LEBANON, OH, 45036",159039581,"R"
421362,"2600 HF SHEPHERD DRIVE","ATLANTA","GA",30034,NA,NA,362,"2600 HF SHEPHERD DRIVE, ATLANTA, GA, 30034","No_Match",NA,NA,NA,NA
421363,"2600 HICKORY LANE","PEPPER PIKE","OH",44124,41.4941298570001,-81.445555225,363,"2600 HICKORY LANE, PEPPER PIKE, OH, 44124","Match","Exact","2600 HICKORY LN, PEPPER PIKE, OH, 44124",629674134,"R"
421364,"2600 HIGH ST","CONYERS","GA",30094,33.629549668,-84.056055724,364,"2600 HIGH ST, CONYERS, GA, 30094","Match","Non_Exact","2600 HIGH ST SW, CONYERS, GA, 30094",23745282,"L"
421365,"2600 HIGHLAND RD","DALLAS","TX",75228,32.796259954,-96.707553325,365,"2600 HIGHLAND RD, DALLAS, TX, 75228","Match","Exact","2600 HIGHLAND RD, DALLAS, TX, 75228",102923870,"R"
421366,"2600 HILLSBORO PIKE - STE 153","NASHVILLE","TN",37212,36.1241949020001,-86.806347923,366,"2600 HILLSBORO PIKE - STE 153, NASHVILLE, TN, 37212","Match","Exact","2600 HILLSBORO PIKE, NASHVILLE, TN, 37212",97230386,"L"
421367,"2600 HILLSBORO PIKE UNIT 403","NASHVILLE","TN",37212,36.1241949020001,-86.806347923,367,"2600 HILLSBORO PIKE UNIT 403, NASHVILLE, TN, 37212","Match","Exact","2600 HILLSBORO PIKE, NASHVILLE, TN, 37212",97230386,"L"
421368,"2600 HOFFMAN ROAD","MANKATO","MN",56001,44.1559967260001,-93.95906187,368,"2600 HOFFMAN ROAD, MANKATO, MN, 56001","Match","Exact","2600 HOFFMAN RD, MANKATO, MN, 56001",653869959,"R"
421369,"2600 HOLLYWOOD BLVD","HOLLYWOOD","FL",33020,26.010022625,-80.159269178,369,"2600 HOLLYWOOD BLVD, HOLLYWOOD, FL, 33020","Match","Exact","2600 HOLLYWOOD BLVD, HOLLYWOOD, FL, 33020",637758855,"R"
421370,"2600 HOWARD CASTLE DR","DYER","IN",46311,41.484706944,-87.4909696839999,370,"2600 HOWARD CASTLE DR, DYER, IN, 46311","Match","Exact","2600 HOWARD CASTLE DR, DYER, IN, 46311",98456434,"L"
421371,"2600 HOWARD ST SUITE 1300","BALTIMORE","MD",21218,39.3193357100001,-76.6198466019999,371,"2600 HOWARD ST SUITE 1300, BALTIMORE, MD, 21218","Match","Non_Exact","2600 N HOWARD ST, BALTIMORE, MD, 21218",206418772,"L"
421372,"2600 HUNTER RD APT 4212","SAN MARCOS","TX",78666,29.854643921,-97.9723838849999,372,"2600 HUNTER RD APT 4212, SAN MARCOS, TX, 78666","Match","Exact","2600 HUNTER RD, SAN MARCOS, TX, 78666",63844857,"L"
421373,"2600 HUNTER ROAD APT 3106","SAN MARCOS","TX",78666,29.854643921,-97.9723838849999,373,"2600 HUNTER ROAD APT 3106, SAN MARCOS, TX, 78666","Match","Exact","2600 HUNTER RD, SAN MARCOS, TX, 78666",63844857,"L"
421374,"2600 HUNTER ROAD APT 3111","SAN MARCOS","TX",78666,29.854643921,-97.9723838849999,374,"2600 HUNTER ROAD APT 3111, SAN MARCOS, TX, 78666","Match","Exact","2600 HUNTER RD, SAN MARCOS, TX, 78666",63844857,"L"
421375,"2600 INDIAN LAKE DRIVE","MARIETTA","GA",30062,33.9854848150001,-84.475823442,375,"2600 INDIAN LAKE DRIVE, MARIETTA, GA, 30062","Match","Exact","2600 INDIAN LAKE DR, MARIETTA, GA, 30062",17255592,"R"
421376,"2600 INDIAN WELLS COURT","SANFORD","NC",27332,35.44846634,-79.1525926099999,376,"2600 INDIAN WELLS COURT, SANFORD, NC, 27332","Match","Exact","2600 INDIAN WELLS CT, SANFORD, NC, 27332",72059807,"L"
421377,"2600 IRIS ST","WEST RICHLAND","WA",99353,46.2768988020001,-119.348377442,377,"2600 IRIS ST, WEST RICHLAND, WA, 99353","Match","Exact","2600 IRIS ST, WEST RICHLAND, WA, 99353",175008219,"R"
421378,"2600 IVANHOE LN APT 105","ABILENE","TX",79605,32.418772215,-99.765716514,378,"2600 IVANHOE LN APT 105, ABILENE, TX, 79605","Match","Exact","2600 IVANHOE LN, ABILENE, TX, 79605",129959226,"R"
421379,"2600 JAPONICA DRIVE","COLUMBUS","GA",31907,32.489908375,-84.921519922,379,"2600 JAPONICA DRIVE, COLUMBUS, GA, 31907","Match","Exact","2600 JAPONICA DR, COLUMBUS, GA, 31907",98940566,"R"
421380,"2600 JERIHCO PARK DRIVE","BOWIE","MD",20715,NA,NA,380,"2600 JERIHCO PARK DRIVE, BOWIE, MD, 20715","No_Match",NA,NA,NA,NA
421381,"2600 JFK BLVD UNIT 3K","JERSEY CITY","NJ",7306,40.7252792150001,-74.073241604,381,"2600 JFK BLVD UNIT 3K, JERSEY CITY, NJ, 7306","Match","Exact","2600 JOHN F KENNEDY BLVD, JERSEY CITY, NJ, 07306",59616558,"R"
421382,"2600 JOHNNY CAKE HILL RD","HAMILTON","NY",13346,NA,NA,382,"2600 JOHNNY CAKE HILL RD, HAMILTON, NY, 13346","No_Match",NA,NA,NA,NA
421383,"2600 JONES RD SUITE 13","WALNUT CREEK","CA",94597,NA,NA,383,"2600 JONES RD SUITE 13, WALNUT CREEK, CA, 94597","No_Match",NA,NA,NA,NA
421384,"2600 JONESBORO ROAD","FAIRBURN","GA",30213,33.548887861,-84.477631297,384,"2600 JONESBORO ROAD, FAIRBURN, GA, 30213","Match","Non_Exact","2600 OLD JONESBORO RD, FAIRBURN, GA, 30213",17351622,"L"
421385,"2600 JUPITER ST","HARVEY","LA",70058,29.8680418330001,-90.055440701,385,"2600 JUPITER ST, HARVEY, LA, 70058","Match","Exact","2600 JUPITER ST, HARVEY, LA, 70058",93510634,"R"
421386,"2600 KAREN DR","PLANT CITY","FL",33563,28.0335727670001,-82.0979891709999,386,"2600 KAREN DR, PLANT CITY, FL, 33563","Match","Exact","2600 KAREN DR, PLANT CITY, FL, 33563",647470480,"L"
421387,"2600 KENNEDY BLVD APT 2K","JERSEY CITY","NJ",7306,NA,NA,387,"2600 KENNEDY BLVD APT 2K, JERSEY CITY, NJ, 7306","No_Match",NA,NA,NA,NA
421388,"2600 LAGUNA DR","HARKER HEIGHTS","TX",76548,31.0470687100001,-97.659833001,388,"2600 LAGUNA DR, HARKER HEIGHTS, TX, 76548","Match","Exact","2600 LAGUNA DR, HARKER HEIGHTS, TX, 76548",624788186,"L"
421389,"2600 LAKE AUSTIN BLVD APT 10206","AUSTIN","TX",78703,30.2800260180001,-97.774553957,389,"2600 LAKE AUSTIN BLVD APT 10206, AUSTIN, TX, 78703","Match","Exact","2600 LAKE AUSTIN BLVD, AUSTIN, TX, 78703",648444783,"R"
421390,"2600 LAKE AUSTIN BLVD APT 5205","AUSTIN","TX",78703,30.2800260180001,-97.774553957,390,"2600 LAKE AUSTIN BLVD APT 5205, AUSTIN, TX, 78703","Match","Exact","2600 LAKE AUSTIN BLVD, AUSTIN, TX, 78703",648444783,"R"
421391,"2600 LAKE RIDGE RD 4311","LEWISVILLE","TX",75056,33.0644960750001,-96.9101244889999,391,"2600 LAKE RIDGE RD 4311, LEWISVILLE, TX, 75056","Match","Exact","2600 LAKE RIDGE RD, LEWISVILLE, TX, 75056",650730506,"L"
421392,"2600 LAKE RIDGE RD APT 5210","LEWISVILLE","TX",75056,33.0644960750001,-96.9101244889999,392,"2600 LAKE RIDGE RD APT 5210, LEWISVILLE, TX, 75056","Match","Exact","2600 LAKE RIDGE RD, LEWISVILLE, TX, 75056",650730506,"L"
421393,"2600 LAKE RIDGE RD","LEWISVILLE","TX",75056,33.0644960750001,-96.9101244889999,393,"2600 LAKE RIDGE RD, LEWISVILLE, TX, 75056","Match","Exact","2600 LAKE RIDGE RD, LEWISVILLE, TX, 75056",650730506,"L"
421394,"2600 LAKE RIDGE ROAD  3119","LEWISVILLE","TX",75056,33.0644960750001,-96.9101244889999,394,"2600 LAKE RIDGE ROAD  3119, LEWISVILLE, TX, 75056","Match","Exact","2600 LAKE RIDGE RD, LEWISVILLE, TX, 75056",650730506,"L"
421395,"2600 LAKE RIDGE ROAD","LEWISVILLE","TX",75056,33.0644960750001,-96.9101244889999,395,"2600 LAKE RIDGE ROAD, LEWISVILLE, TX, 75056","Match","Exact","2600 LAKE RIDGE RD, LEWISVILLE, TX, 75056",650730506,"L"
421396,"2600 LAKE VIEW COURT","CHURCHVILLE","MD",21028,39.561764021,-76.271208924,396,"2600 LAKE VIEW COURT, CHURCHVILLE, MD, 21028","Match","Non_Exact","2600 LAKEVIEW CT, CHURCHVILLE, MD, 21028",191650388,"R"
421397,"2600 LAKEVIEW DRIVE","FERGUS FALLS","MN",56537,46.296118473,-96.031441152,397,"2600 LAKEVIEW DRIVE, FERGUS FALLS, MN, 56537","Match","Exact","2600 LAKEVIEW DR, FERGUS FALLS, MN, 56537",636243770,"R"
421398,"2600 LATICANA","CAMDEN","AR",71701,33.6045852660001,-92.882076076,398,"2600 LATICANA, CAMDEN, AR, 71701","Match","Non_Exact","2600 LATICANA DR, CAMDEN, AR, 71701",610627157,"R"
421399,"2600 LESA LN","KNOXVILLE","TN",37912,35.994594744,-84.007405487,399,"2600 LESA LN, KNOXVILLE, TN, 37912","Match","Exact","2600 LESA LN, KNOXVILLE, TN, 37912",42662096,"L"
421400,"2600 LOCH WAY","SNELLVILLE","GA",30039,33.8342927420001,-84.043935118,400,"2600 LOCH WAY, SNELLVILLE, GA, 30039","Match","Exact","2600 LOCH WAY, SNELLVILLE, GA, 30039",88922163,"L"
421401,"2600 LONE OAK","HOUSTON","TX",77093,29.8735171210001,-95.3454064269999,401,"2600 LONE OAK, HOUSTON, TX, 77093","Match","Non_Exact","2600 LONE OAK RD, HOUSTON, TX, 77093",96056926,"R"
421402,"2600 LONGLEAF DR SW","PINEHURST","NC",28374,35.2130770250001,-79.476199615,402,"2600 LONGLEAF DR SW, PINEHURST, NC, 28374","Match","Exact","2600 LONGLEAF DR SW, PINEHURST, NC, 28374",20308188,"L"
421403,"2600 LYNNBROOK CT","LOUISVILLE","KY",40220,38.2309087400001,-85.6277437159999,403,"2600 LYNNBROOK CT, LOUISVILLE, KY, 40220","Match","Exact","2600 LYNNBROOK CT, LOUISVILLE, KY, 40220",96857001,"R"
421404,"2600 MARTIN LUTHER KING BLVD","POMPANO BEACH","FL",33069,NA,NA,404,"2600 MARTIN LUTHER KING BLVD, POMPANO BEACH, FL, 33069","No_Match",NA,NA,NA,NA
421405,"2600 MARY WASHINGTON BLVD","FREDERICKSBURG","VA",22401,38.3106352450001,-77.4781420049999,405,"2600 MARY WASHINGTON BLVD, FREDERICKSBURG, VA, 22401","Match","Exact","2600 MARY WASHINGTON BLVD, FREDERICKSBURG, VA, 22401",638320949,"R"
421406,"2600 MAYPORT RD","ATLANTIC BEACH","FL",32233,30.363431797,-81.422334801,406,"2600 MAYPORT RD, ATLANTIC BEACH, FL, 32233","Match","Exact","2600 MAYPORT RD, ATLANTIC BCH, FL, 32233",651714378,"L"
421407,"2600 MCCULLOUGH AVENUE","SAN ANTONIO","TX",78212,29.453924439,-98.491798944,407,"2600 MCCULLOUGH AVENUE, SAN ANTONIO, TX, 78212","Match","Exact","2600 MCCULLOUGH AVE, SAN ANTONIO, TX, 78212",101523930,"R"
421408,"2600 MICHIGAN AVENUE","KISSIMMEE","FL",34744,28.322711161,-81.391218721,408,"2600 MICHIGAN AVENUE, KISSIMMEE, FL, 34744","Match","Exact","2600 MICHIGAN AVE, KISSIMMEE, FL, 34744",640685683,"L"
421409,"2600 MILSCOTT DRIVE APARTMENT 2204","DECATUR","GA",30033,33.7954612730001,-84.2792260109999,409,"2600 MILSCOTT DRIVE APARTMENT 2204, DECATUR, GA, 30033","Match","Exact","2600 MILSCOTT DR, DECATUR, GA, 30033",23400055,"L"
421410,"2600 MISSION BELL DRIVE","SAN PABLO","CA",94806,37.968621494,-122.342465275,410,"2600 MISSION BELL DRIVE, SAN PABLO, CA, 94806","Match","Exact","2600 MISSION BELL DR, SAN PABLO, CA, 94806",192039268,"R"
421411,"2600 MISSION STREET SUITE 200","SAN MARINO","CA",91108,NA,NA,411,"2600 MISSION STREET SUITE 200, SAN MARINO, CA, 91108","No_Match",NA,NA,NA,NA
421412,"2600 N DALLAS PARKWAY SUITE 250","FRISCO","TX",75034,NA,NA,412,"2600 N DALLAS PARKWAY SUITE 250, FRISCO, TX, 75034","No_Match",NA,NA,NA,NA
421413,"2600 N HILLFIELD RD","LAYTON","UT",84041,41.098804171,-111.973414446,413,"2600 N HILLFIELD RD, LAYTON, UT, 84041","Match","Non_Exact","2600 HILL FIELD RD, LAYTON, UT, 84041",155345981,"R"
421414,"2600 N MILITARY TRAIL 1204","WEST PALM BEACH","FL",33409,26.7142265900001,-80.1107147019999,414,"2600 N MILITARY TRAIL 1204, WEST PALM BEACH, FL, 33409","Match","Non_Exact","2600 N MILITARY TRL, WEST PALM BEACH, FL, 33409",646911841,"L"
421415,"2600 N NOTTINGHAM ST","ARLINGTON","VA",22207,38.896520948,-77.147211613,415,"2600 N NOTTINGHAM ST, ARLINGTON, VA, 22207","Match","Exact","2600 N NOTTINGHAM ST, ARLINGTON, VA, 22207",76476985,"L"
421416,"2600 N NOTTINGHAM STREET","ARLINGTON","VA",22207,38.896520948,-77.147211613,416,"2600 N NOTTINGHAM STREET, ARLINGTON, VA, 22207","Match","Exact","2600 N NOTTINGHAM ST, ARLINGTON, VA, 22207",76476985,"L"
421417,"2600 N SAWYER AVE APT 1","CHICAGO","IL",60647,41.928395434,-87.709399332,417,"2600 N SAWYER AVE APT 1, CHICAGO, IL, 60647","Match","Non_Exact","2600 N SAWYER AVE, CHICAGO, IL, 60647",605223967,"L"
421418,"2600 N SHADOW CREST DRIVE","FAYETTEVILLE","AR",72704,36.100235248,-94.2199160229999,418,"2600 N SHADOW CREST DRIVE, FAYETTEVILLE, AR, 72704","Match","Exact","2600 N SHADOW CREST DR, FAYETTEVILLE, AR, 72704",635395704,"L"
421419,"2600 NATALIE DRIVE","YORK","PA",17402,39.9082496550001,-76.692249627,419,"2600 NATALIE DRIVE, YORK, PA, 17402","Match","Exact","2600 NATALIE DR, YORK, PA, 17402",88771149,"R"
421420,"2600 NE 14TH STREET CAUSEWAY","POMPANO BEACH","FL",33062,26.2501965920001,-80.0973463459999,420,"2600 NE 14TH STREET CAUSEWAY, POMPANO BEACH, FL, 33062","Match","Exact","2600 NE 14TH STREET CSWY, POMPANO BEACH, FL, 33062",114695797,"R"
421421,"2600 NE 205TH AVE 10","FAIRVIEW","OR",97024,45.541372052,-122.451540118,421,"2600 NE 205TH AVE 10, FAIRVIEW, OR, 97024","Match","Non_Exact","2600 NE 205TH AVE, FAIRVIEW, OR, 97024",157578640,"R"
421422,"2600 NE 205TH AVE UNIT 27","FAIRVIEW","OR",97024,45.541372052,-122.451540118,422,"2600 NE 205TH AVE UNIT 27, FAIRVIEW, OR, 97024","Match","Non_Exact","2600 NE 205TH AVE, FAIRVIEW, OR, 97024",157578640,"R"
421423,"2600 NE 78TH ST","MERIDEN","KS",66512,39.1872484730001,-95.5900483139999,423,"2600 NE 78TH ST, MERIDEN, KS, 66512","Match","Exact","2600 NE 78TH ST, MERIDEN, KS, 66512",17902228,"R"
421424,"2600 NE CECILIA LN","BREMERTON","WA",98310,47.600859696,-122.616508918,424,"2600 NE CECILIA LN, BREMERTON, WA, 98310","Match","Exact","2600 NE CECILIA LN, BREMERTON, WA, 98310",187662479,"L"
421425,"2600 NETHERLAND 1914","BRONX","NY",10463,40.8785434390001,-73.916034859,425,"2600 NETHERLAND 1914, BRONX, NY, 10463","Match","Non_Exact","2600 NETHERLAND AVE, BRONX, NY, 10463",80311957,"R"
421426,"2600 NETHERLAND AVE APT 2121","BRONX","NY",10463,40.8785434390001,-73.916034859,426,"2600 NETHERLAND AVE APT 2121, BRONX, NY, 10463","Match","Exact","2600 NETHERLAND AVE, BRONX, NY, 10463",80311957,"R"
421427,"2600 NETHERLAND AVE APT 2711","BRONX","NY",10463,40.8785434390001,-73.916034859,427,"2600 NETHERLAND AVE APT 2711, BRONX, NY, 10463","Match","Exact","2600 NETHERLAND AVE, BRONX, NY, 10463",80311957,"R"
421428,"2600 NETHERLAND AVENUE 325","RIVERDALE","NY",10463,40.8785434390001,-73.916034859,428,"2600 NETHERLAND AVENUE 325, RIVERDALE, NY, 10463","Match","Non_Exact","2600 NETHERLAND AVE, BRONX, NY, 10463",80311957,"R"
421429,"2600 NETHERLAND AVENUE APT 1616","BRONX","NY",10463,40.8785434390001,-73.916034859,429,"2600 NETHERLAND AVENUE APT 1616, BRONX, NY, 10463","Match","Exact","2600 NETHERLAND AVE, BRONX, NY, 10463",80311957,"R"
421430,"2600 NETHERLAND AVENUE APT 1715","BRONX","NY",10463,40.8785434390001,-73.916034859,430,"2600 NETHERLAND AVENUE APT 1715, BRONX, NY, 10463","Match","Exact","2600 NETHERLAND AVE, BRONX, NY, 10463",80311957,"R"
421431,"2600 NETHERLAND AVENUE APT 611","BRONX","NY",10463,40.8785434390001,-73.916034859,431,"2600 NETHERLAND AVENUE APT 611, BRONX, NY, 10463","Match","Exact","2600 NETHERLAND AVE, BRONX, NY, 10463",80311957,"R"
421432,"2600 NETHERLAND AVENUE","BRONX","NY",10463,40.8785434390001,-73.916034859,432,"2600 NETHERLAND AVENUE, BRONX, NY, 10463","Match","Exact","2600 NETHERLAND AVE, BRONX, NY, 10463",80311957,"R"
421433,"2600 NICASIO VALLEY ROAD","NICASIO","CA",94946,38.0470305010001,-122.690607824,433,"2600 NICASIO VALLEY ROAD, NICASIO, CA, 94946","Match","Exact","2600 NICASIO VALLEY RD, NICASIO, CA, 94946",634703665,"L"
421434,"2600 NORBERT WAY","SACRAMENTO","CA",95833,38.6128590710001,-121.481163828,434,"2600 NORBERT WAY, SACRAMENTO, CA, 95833","Match","Exact","2600 NORBERT WAY, SACRAMENTO, CA, 95833",133320538,"R"
421435,"2600 NORTH 14TH STREET","SAINT LOUIS","MO",63106,38.6497897340001,-90.196915946,435,"2600 NORTH 14TH STREET, SAINT LOUIS, MO, 63106","Match","Exact","2600 N 14TH ST, SAINT LOUIS, MO, 63106",107604616,"R"
421436,"2600 NORTH 20TH AVENUE","PASCO","WA",99301,46.251449725,-119.116902764,436,"2600 NORTH 20TH AVENUE, PASCO, WA, 99301","Match","Exact","2600 N 20TH AVE, PASCO, WA, 99301",175254032,"L"
421437,"2600 NORTH 70TH STREET","LINCOLN","NE",68507,40.8383711650001,-96.624926859,437,"2600 NORTH 70TH STREET, LINCOLN, NE, 68507","Match","Exact","2600 N 70TH ST, LINCOLN, NE, 68507",636292265,"R"
421438,"2600 NORTH ALBATROSS RD","DELRAY BEACH","FL",33444,NA,NA,438,"2600 NORTH ALBATROSS RD, DELRAY BEACH, FL, 33444","No_Match",NA,NA,NA,NA
421439,"2600 NORTH HASKELL AVE APT 5109","DALLAS","TX",75204,32.8058198480001,-96.790690476,439,"2600 NORTH HASKELL AVE APT 5109, DALLAS, TX, 75204","Match","Exact","2600 N HASKELL AVE, DALLAS, TX, 75204",640535889,"R"
421440,"2600 NORTH WOOSTER AVE","DOVER","OH",44622,40.546201984,-81.492649736,440,"2600 NORTH WOOSTER AVE, DOVER, OH, 44622","Match","Exact","2600 N WOOSTER AVE, DOVER, OH, 44622",44246634,"L"
421441,"2600 NORTHCOAST ST  APT 13D","SANTA ROSA","CA",95401,38.4572008110001,-122.741120724,441,"2600 NORTHCOAST ST  APT 13D, SANTA ROSA, CA, 95401","Match","Non_Exact","2600 NORTHCOAST ST, SANTA ROSA, CA, 95403",67467126,"R"
421442,"2600 NORTHLAKE DRIVE UNIT D","SUWANEE","GA",30024,NA,NA,442,"2600 NORTHLAKE DRIVE UNIT D, SUWANEE, GA, 30024","No_Match",NA,NA,NA,NA
421443,"2600 NORWOOD COURT","RICHMOND","VA",23222,37.566500982,-77.4298754609999,443,"2600 NORWOOD COURT, RICHMOND, VA, 23222","Match","Exact","2600 NORWOOD CT, RICHMOND, VA, 23222",201539808,"L"
421444,"2600 NOTTINGHAM DRIVE","VALPARAISO","IN",46383,41.50829822,-87.029401045,444,"2600 NOTTINGHAM DRIVE, VALPARAISO, IN, 46383","Match","Exact","2600 NOTTINGHAM DR, VALPARAISO, IN, 46383",606977468,"R"
421445,"2600 NW 5TH ST","NEWCASTLE","OK",73065,35.251649652,-97.640815225,445,"2600 NW 5TH ST, NEWCASTLE, OK, 73065","Match","Non_Exact","2600 NW 5TH, NEWCASTLE, OK, 73065",617909985,"L"
421446,"2600 NW CENTURY DRIVE APT 207","CORVALLIS","OR",97330,44.5936436530001,-123.277553663,446,"2600 NW CENTURY DRIVE APT 207, CORVALLIS, OR, 97330","Match","Non_Exact","2600 NW CENTURY DR, CORVALLIS, OR, 97330",629384885,"L"
421447,"2600 OAK SPRINGS DR","CHULA VISTA","CA",91915,32.6372258700001,-116.947504755,447,"2600 OAK SPRINGS DR, CHULA VISTA, CA, 91915","Match","Exact","2600 OAK SPRINGS DR, CHULA VISTA, CA, 91915",195766652,"L"
421448,"2600 OAK ST STE 589","ST CHARLES","IL",60175,41.9110757990001,-88.3466451469999,448,"2600 OAK ST STE 589, ST CHARLES, IL, 60175","Match","Exact","2600 OAK ST, SAINT CHARLES, IL, 60175",119591884,"L"
421449,"2600 OAK STREET UNIT 462","SAINT CHARLES","IL",60174,41.9110757990001,-88.3466451469999,449,"2600 OAK STREET UNIT 462, SAINT CHARLES, IL, 60174","Match","Non_Exact","2600 OAK ST, SAINT CHARLES, IL, 60175",119591884,"L"
421450,"2600 OLD FAIRHAVEN PARKWAY","BELLINGHAM","WA",98225,48.714684769,-122.482965544,450,"2600 OLD FAIRHAVEN PARKWAY, BELLINGHAM, WA, 98225","Match","Exact","2600 OLD FAIRHAVEN PKWY, BELLINGHAM, WA, 98225",648543545,"R"
421451,"2600 OMAR STREET","CHESAPEAKE","VA",23324,36.7932827710001,-76.259612082,451,"2600 OMAR STREET, CHESAPEAKE, VA, 23324","Match","Exact","2600 OMAR ST, CHESAPEAKE, VA, 23324",121772066,"R"
421452,"2600 ORANGE CENTER BLVD","ORLANDO","FL",32805,28.531959511,-81.411848267,452,"2600 ORANGE CENTER BLVD, ORLANDO, FL, 32805","Match","Exact","2600 ORANGE CENTER BLVD, ORLANDO, FL, 32805",94273899,"L"
421453,"2600 ORCHARD SUMMITT COURT","HYATTSVILLE","MD",20785,38.9250149270001,-76.879545948,453,"2600 ORCHARD SUMMITT COURT, HYATTSVILLE, MD, 20785","Match","Non_Exact","2600 ORCHARD SUMMIT CT, HYATTSVILLE, MD, 20785",635445868,"L"
421454,"2600 PANORAMA DRIVE UNIT 303","SIGNAL HILL","CA",90755,33.799964496,-118.16104296,454,"2600 PANORAMA DRIVE UNIT 303, SIGNAL HILL, CA, 90755","Match","Exact","2600 PANORAMA DR, SIGNAL HILL, CA, 90755",142851286,"L"
421455,"2600 PARK AVENUE","BRIDGEPORT","CT",6604,41.193212169,-73.215257814,455,"2600 PARK AVENUE, BRIDGEPORT, CT, 6604","Match","Exact","2600 PARK AVE, BRIDGEPORT, CT, 06604",611252371,"R"
421456,"2600 PARK MEADOWS DR APT F107","BAKERSFIELD","CA",93308,35.430480587,-119.036534907,456,"2600 PARK MEADOWS DR APT F107, BAKERSFIELD, CA, 93308","Match","Exact","2600 PARK MEADOWS DR, BAKERSFIELD, CA, 93308",109427199,"R"
421457,"2600 PARKSIDE DR","GRAND PRAIRIE","TX",75052,32.70925042,-97.041632802,457,"2600 PARKSIDE DR, GRAND PRAIRIE, TX, 75052","Match","Exact","2600 PARKSIDE DR, GRAND PRAIRIE, TX, 75052",101914161,"L"
421458,"2600 PARKWOOD DRIVE","BURNSVILLE","MN",55337,NA,NA,458,"2600 PARKWOOD DRIVE, BURNSVILLE, MN, 55337","No_Match",NA,NA,NA,NA
421459,"2600 PARTRIDGE DR","ALBANY","GA",31701,NA,NA,459,"2600 PARTRIDGE DR, ALBANY, GA, 31701","No_Match",NA,NA,NA,NA
421460,"2600 PAULANI WAY APT 401","HONOLULU","HI",96815,21.274285579,-157.819665863,460,"2600 PAULANI WAY APT 401, HONOLULU, HI, 96815","Match","Non_Exact","2600 PUALANI WAY, HONOLULU, HI, 96815",203242216,"L"
421461,"2600 PEACHTREE RD NE","ATLANTA","FL",30305,NA,NA,461,"2600 PEACHTREE RD NE, ATLANTA, FL, 30305","No_Match",NA,NA,NA,NA
421462,"2600 PLANK ROAD","DUNDEE","MI",48131,41.9916115340001,-83.604788006,462,"2600 PLANK ROAD, DUNDEE, MI, 48131","Match","Exact","2600 PLANK RD, DUNDEE, MI, 48131",40476556,"R"
421463,"2600 POPLAR POST ROAD","BIRMINGHAM","AL",35216,33.4283884980001,-86.7630100439999,463,"2600 POPLAR POST ROAD, BIRMINGHAM, AL, 35216","Match","Non_Exact","2600 POPLAR POST RD, BIRMINGHAM, AL, 35243",81621265,"L"
421464,"2600 POPLAR TENT RD","CONCORD","NC",28027,35.4123343910001,-80.620566092,464,"2600 POPLAR TENT RD, CONCORD, NC, 28027","Match","Exact","2600 POPLAR TENT RD, CONCORD, NC, 28027",24898718,"R"
421465,"2600 POST OAK BLVD","HOUSTON","TX",77024,29.740554054,-95.4608220759999,465,"2600 POST OAK BLVD, HOUSTON, TX, 77024","Match","Non_Exact","2600 POST OAK BLVD, HOUSTON, TX, 77056",96033760,"R"
421466,"2600 PUALANI WAY 3601","HONOLULU","HI",96815,21.274285579,-157.819665863,466,"2600 PUALANI WAY 3601, HONOLULU, HI, 96815","Match","Exact","2600 PUALANI WAY, HONOLULU, HI, 96815",203242216,"L"
421467,"2600 PUALANI WAY UNIT 3503","HONOLULU","HI",96815,21.274285579,-157.819665863,467,"2600 PUALANI WAY UNIT 3503, HONOLULU, HI, 96815","Match","Exact","2600 PUALANI WAY, HONOLULU, HI, 96815",203242216,"L"
421468,"2600 PUALANI WAY","HONOLULU","HI",96815,21.274285579,-157.819665863,468,"2600 PUALANI WAY, HONOLULU, HI, 96815","Match","Exact","2600 PUALANI WAY, HONOLULU, HI, 96815",203242216,"L"
421469,"2600 QUARRY ST","PITTSBURG","PA",15210,40.4207171080001,-79.9846692039999,469,"2600 QUARRY ST, PITTSBURG, PA, 15210","Match","Non_Exact","2600 QUARRY ST, PITTSBURGH, PA, 15210",51929506,"R"
421470,"2600 RACINE STREET","BELLINGHAM","WA",98226,48.7640930370001,-122.453308286,470,"2600 RACINE STREET, BELLINGHAM, WA, 98226","Match","Exact","2600 RACINE ST, BELLINGHAM, WA, 98226",648541194,"R"
421471,"2600 RED HAWK RIDGE DR","AURORA","IL",60503,41.705509029,-88.255013897,471,"2600 RED HAWK RIDGE DR, AURORA, IL, 60503","Match","Exact","2600 RED HAWK RIDGE DR, AURORA, IL, 60503",111626315,"R"
421472,"2600 RIVER","CARTHAGE","MO",64836,NA,NA,472,"2600 RIVER, CARTHAGE, MO, 64836","No_Match",NA,NA,NA,NA
421473,"2600 RIVERWOOD SPRING","ELLENWOOD","GA",30294,33.671207118,-84.2843451749999,473,"2600 RIVERWOOD SPRING, ELLENWOOD, GA, 30294","Match","Exact","2600 RIVERWOOD SPRING, ELLENWOOD, GA, 30294",23393525,"L"
421474,"2600 ROCK QUARRY RD","RALEIGH","NC",27610,35.7474675780001,-78.6038803069999,474,"2600 ROCK QUARRY RD, RALEIGH, NC, 27610","Match","Exact","2600 ROCK QUARRY RD, RALEIGH, NC, 27610",639844715,"R"
421475,"2600 ROCKFORD LANE","KOKOMO","IN",46902,40.455295542,-86.151338381,475,"2600 ROCKFORD LANE, KOKOMO, IN, 46902","Match","Exact","2600 ROCKFORD LN, KOKOMO, IN, 46902",27263274,"L"
421476,"2600 ROLLINGWOOD DRIVE","AUSTIN","TX",78746,30.2709490390001,-97.782908902,476,"2600 ROLLINGWOOD DRIVE, AUSTIN, TX, 78746","Match","Exact","2600 ROLLINGWOOD DR, AUSTIN, TX, 78746",63941595,"L"
421477,"2600 ROOSEVELT AVE","ASHLAND","KY",41102,38.460488753,-82.657463344,477,"2600 ROOSEVELT AVE, ASHLAND, KY, 41102","Match","Exact","2600 ROOSEVELT AVE, ASHLAND, KY, 41102",151046845,"L"
421478,"2600 ROOSEVELT DR","DAL","TX",76016,32.70251668,-97.155335351,478,"2600 ROOSEVELT DR, DAL, TX, 76016","Match","Non_Exact","2600 ROOSEVELT DR, DWG, TX, 76016",101906141,"R"
421479,"2600 ROOSEVELT DR","DALWORTHINGTON GARDE","TX",76016,32.70251668,-97.155335351,479,"2600 ROOSEVELT DR, DALWORTHINGTON GARDE, TX, 76016","Match","Non_Exact","2600 ROOSEVELT DR, DALWORTHINGTON GARDENS, TX, 76016",101906141,"R"
421480,"2600 S 80TH STREET","CHICAGO","IL",60652,41.7482182410001,-87.6875397319999,480,"2600 S 80TH STREET, CHICAGO, IL, 60652","Match","Non_Exact","2600 W 80TH ST, CHICAGO, IL, 60652",605313444,"R"
421481,"2600 S BATTERY","LITTLE ROCK","AR",72206,34.72408934,-92.294525924,481,"2600 S BATTERY, LITTLE ROCK, AR, 72206","Match","Non_Exact","2600 S BATTERY ST, LITTLE ROCK, AR, 72206",83509849,"R"
421482,"2600 S CALIFORNIA AVE ROOM 203","CHICAGO","IL",60608,41.8422597640001,-87.6951494689999,482,"2600 S CALIFORNIA AVE ROOM 203, CHICAGO, IL, 60608","Match","Non_Exact","2600 S CALIFORNIA AVE, CHICAGO, IL, 60608",642123073,"R"
421483,"2600 S DAWSON ST","SEATTLE","WA",98108,47.5560949640001,-122.299111668,483,"2600 S DAWSON ST, SEATTLE, WA, 98108","Match","Exact","2600 S DAWSON ST, SEATTLE, WA, 98108",186595479,"L"
421484,"2600 S GESSNER RD SUITE 504","HOUSTON","TX",77063,29.8185477120001,-95.545213776,484,"2600 S GESSNER RD SUITE 504, HOUSTON, TX, 77063","Match","Non_Exact","2600 GESSNER RD, HOUSTON, TX, 77080",96638986,"R"
421485,"2600 S GESSNER RD","HOUSTON","TX",77063,29.738344291,-95.538721224,485,"2600 S GESSNER RD, HOUSTON, TX, 77063","Match","Exact","2600 S GESSNER RD, HOUSTON, TX, 77063",96619770,"R"
421486,"2600 S HUB DR APT 112","INDEPENDENCE","MO",64055,NA,NA,486,"2600 S HUB DR APT 112, INDEPENDENCE, MO, 64055","Tie",NA,NA,NA,NA
421487,"2600 S HUB DR APT 114","INDEPENDENCE","MO",64055,NA,NA,487,"2600 S HUB DR APT 114, INDEPENDENCE, MO, 64055","Tie",NA,NA,NA,NA
421488,"2600 S KERNAN AVENUE","APPLETON","WI",54915,44.2382589100001,-88.383307405,488,"2600 S KERNAN AVENUE, APPLETON, WI, 54915","Match","Exact","2600 S KERNAN AVE, APPLETON, WI, 54915",74784732,"L"
421489,"2600 S LABREA AVE","LOS ANGELES","CA",90016,34.0323627830001,-118.350989003,489,"2600 S LABREA AVE, LOS ANGELES, CA, 90016","Match","Non_Exact","2600 S LA BREA AVE, LOS ANGELES, CA, 90016",141601253,"L"
421490,"2600 S LABREA AVE","LOS ANGELES",NA,NA,34.0323627830001,-118.350989003,490,"2600 S LABREA AVE, LOS ANGELES, , ","Match","Non_Exact","2600 S LA BREA AVE, LOS ANGELES, CA, 90016",141601253,"L"
421491,"2600 S LOOP W - SUITE 100","HOUSTON","TX",77054,NA,NA,491,"2600 S LOOP W - SUITE 100, HOUSTON, TX, 77054","No_Match",NA,NA,NA,NA
421492,"2600 S NEAL STREET - BOX 3011","COMMERCE","TX",75428,NA,NA,492,"2600 S NEAL STREET - BOX 3011, COMMERCE, TX, 75428","Tie",NA,NA,NA,NA
421493,"2600 S PALM CANYON DRIVE 61","PALM SPRINGS","CA",92264,NA,NA,493,"2600 S PALM CANYON DRIVE 61, PALM SPRINGS, CA, 92264","Tie",NA,NA,NA,NA
421494,"2600 S PARKER RD  BLDG 170","AURORA","CO",80014,39.668812357,-104.863523079,494,"2600 S PARKER RD  BLDG 170, AURORA, CO, 80014","Match","Non_Exact","2600 S PARKER RD, AURORA, CO, 80014",636077164,"L"
421495,"2600 S RIVER ST","CARTHAGE","MO",64836,NA,NA,495,"2600 S RIVER ST, CARTHAGE, MO, 64836","No_Match",NA,NA,NA,NA
421496,"2600 SABLEWOOD DR APT N270","BAKERSFIELD","CA",93314,35.385770388,-119.149943329,496,"2600 SABLEWOOD DR APT N270, BAKERSFIELD, CA, 93314","Match","Exact","2600 SABLEWOOD DR, BAKERSFIELD, CA, 93314",645289888,"L"
421497,"2600 SANDY CREEK CIRCLE","LOGANVILLE","GA",30052,33.7787159490001,-83.937124132,497,"2600 SANDY CREEK CIRCLE, LOGANVILLE, GA, 30052","Match","Exact","2600 SANDY CREEK CIR, LOGANVILLE, GA, 30052",77626907,"L"
421498,"2600 SANTA ANA","MISSION","TX",78572,26.175591808,-98.2880079939999,498,"2600 SANTA ANA, MISSION, TX, 78572","Match","Exact","2600 SANTA ANA, MISSION, TX, 78572",624819773,"L"
421499,"2600 SE 96TH ST","OKLAHOMA CITY","OK",73160,35.3715896580001,-97.466596377,499,"2600 SE 96TH ST, OKLAHOMA CITY, OK, 73160","Match","Exact","2600 SE 96TH ST, OKLAHOMA CITY, OK, 73160",629187804,"L"
421500,"2600 SE OCEAN BLVD APT KK4","STUART","FL",34996,NA,NA,500,"2600 SE OCEAN BLVD APT KK4, STUART, FL, 34996","Tie",NA,NA,NA,NA
