"ID","Address","City","State","Zip","lat","long","id","input_address","match_indicator","match_type","matched_address","tiger_line_id","tiger_side"
307501,"200 MORE AVE","SENATOBIA","MS",38668,34.6327934930001,-89.969136055,1,"200 MORE AVE, SENATOBIA, MS, 38668","Match","Non_Exact","200 MOORE AVE, SENATOBIA, MS, 38668",608130207,"L"
307502,"200 MORGAN HATFIELD LANE","NEW TAZEWELL","TN",37825,NA,NA,2,"200 MORGAN HATFIELD LANE, NEW TAZEWELL, TN, 37825","No_Match",NA,NA,NA,NA
307503,"200 MORNING GLOW WAY","PRESCOTT","AZ",86307,34.540782807,-112.414730904,3,"200 MORNING GLOW WAY, PRESCOTT, AZ, 86307","Match","Non_Exact","200 MORNING GLOW WAY, PRESCOTT, AZ, 86303",159508279,"L"
307504,"200 MORRILL DRIVE","STARKVILLE","MS",39759,33.448800068,-88.7848462859999,4,"200 MORRILL DRIVE, STARKVILLE, MS, 39759","Match","Non_Exact","200 MORRILL RD, STARKVILLE, MS, 39759",639945752,"R"
307505,"200 MOSSY POINTE","CANTON","GA",30114,34.1793538590001,-84.573458375,5,"200 MOSSY POINTE, CANTON, GA, 30114","Match","Exact","200 MOSSY POINTE, CANTON, GA, 30114",625712511,"R"
307506,"200 MOUNT KEMBLE AVE","MORRISTOWN","NH",7960,NA,NA,6,"200 MOUNT KEMBLE AVE, MORRISTOWN, NH, 7960","No_Match",NA,NA,NA,NA
307507,"200 MOUNT PLEASANT AVENUE","WEST ORANGE","NJ",7601,NA,NA,7,"200 MOUNT PLEASANT AVENUE, WEST ORANGE, NJ, 7601","No_Match",NA,NA,NA,NA
307508,"200 MOUNTAIN AVE APT 57","MALDEN","MA",2148,42.4310456490001,-71.065670542,8,"200 MOUNTAIN AVE APT 57, MALDEN, MA, 2148","Match","Exact","200 MOUNTAIN AVE, MALDEN, MA, 02148",86872386,"L"
307509,"200 MOUNTAIN DRIVE","TRUSSVILLE","AL",35173,33.634831508,-86.609304955,9,"200 MOUNTAIN DRIVE, TRUSSVILLE, AL, 35173","Match","Exact","200 MOUNTAIN DR, TRUSSVILLE, AL, 35173",81570734,"R"
307510,"200 MOUNTAIN ROAD","PERRYVILLE","MD",21905,NA,NA,10,"200 MOUNTAIN ROAD, PERRYVILLE, MD, 21905","No_Match",NA,NA,NA,NA
307511,"200 MOUNTAIN SPRING ROAD","FARMINGTON","CT",6032,41.7402727,-72.8125247959999,11,"200 MOUNTAIN SPRING ROAD, FARMINGTON, CT, 6032","Match","Exact","200 MOUNTAIN SPRING RD, FARMINGTON, CT, 06032",604948534,"R"
307512,"200 MOUNTAIN WAY","CHANHASSEN","MN",55317,44.8883787770001,-93.5258650659999,12,"200 MOUNTAIN WAY, CHANHASSEN, MN, 55317","Match","Exact","200 MOUNTAIN WAY, CHANHASSEN, MN, 55317",43497879,"R"
307513,"200 MT OLIVE ROAD","ELIZABETHTOWN","NC",28337,34.589917122,-78.584760016,13,"200 MT OLIVE ROAD, ELIZABETHTOWN, NC, 28337","Match","Exact","200 MOUNT OLIVE RD, ELIZABETHTOWN, NC, 28337",63875052,"R"
307514,"200 MT PLEASANT AVE","W ORANGE","NJ",7052,40.783390593,-74.250394463,14,"200 MT PLEASANT AVE, W ORANGE, NJ, 7052","Match","Exact","200 MOUNT PLEASANT AVE, WEST ORANGE, NJ, 07052",63460756,"L"
307515,"200 MUNICIPAL DRIVE","THORNDALE","PA",19372,39.995031263,-75.753695971,15,"200 MUNICIPAL DRIVE, THORNDALE, PA, 19372","Match","Exact","200 MUNICIPAL DR, THORNDALE, PA, 19372",179522141,"L"
307516,"200 MURPHY CREEK ROAD","GRANTS PASS","OR",97527,NA,NA,16,"200 MURPHY CREEK ROAD, GRANTS PASS, OR, 97527","No_Match",NA,NA,NA,NA
307517,"200 MURRAY AVENUE APT 2","YONKERS","NY",10704,40.9333961400001,-73.858630354,17,"200 MURRAY AVENUE APT 2, YONKERS, NY, 10704","Match","Exact","200 MURRAY AVE, YONKERS, NY, 10704",139744813,"L"
307518,"200 MUSIC VALE RD","SALEM","CT",6420,41.4847960820001,-72.256279589,18,"200 MUSIC VALE RD, SALEM, CT, 6420","Match","Exact","200 MUSIC VALE RD, SALEM, CT, 06420",651683203,"R"
307519,"200 MYRTIS APT 13B","JASPER","TX",75951,30.9198935360001,-93.9813715619999,19,"200 MYRTIS APT 13B, JASPER, TX, 75951","Match","Exact","200 MYRTIS, JASPER, TX, 75951",32393159,"L"
307520,"200 N 100 W","MORGAN","UT",84050,41.038439768,-111.680498438,20,"200 N 100 W, MORGAN, UT, 84050","Match","Non_Exact","200 N 100 WEST ST, MORGAN, UT, 84050",175973390,"R"
307521,"200 N 160 E","HENRIEVILLE","UT",84736,NA,NA,21,"200 N 160 E, HENRIEVILLE, UT, 84736","No_Match",NA,NA,NA,NA
307522,"200 N 16TH ST APT 2118","PHILADELPHIA","PA",19102,39.949705742,-75.16753073,22,"200 N 16TH ST APT 2118, PHILADELPHIA, PA, 19102","Match","Non_Exact","200 S 16TH ST, PHILADELPHIA, PA, 19102",131407657,"R"
307523,"200 N 16TH ST","PHILADELPHIA","PA",19102,39.949705742,-75.16753073,23,"200 N 16TH ST, PHILADELPHIA, PA, 19102","Match","Non_Exact","200 S 16TH ST, PHILADELPHIA, PA, 19102",131407657,"R"
307524,"200 N 16TH STREET APT 811","PHILADELPHIA","PA",19102,39.949705742,-75.16753073,24,"200 N 16TH STREET APT 811, PHILADELPHIA, PA, 19102","Match","Non_Exact","200 S 16TH ST, PHILADELPHIA, PA, 19102",131407657,"R"
307525,"200 N 3RD STREET","NEBRASKA CITY","NE",68410,40.677140932,-95.848653328,25,"200 N 3RD STREET, NEBRASKA CITY, NE, 68410","Match","Exact","200 N 3RD ST, NEBRASKA CITY, NE, 68410",10411533,"R"
307526,"200 N 51ST AVE","GREELEY","CO",80634,NA,NA,26,"200 N 51ST AVE, GREELEY, CO, 80634","Tie",NA,NA,NA,NA
307527,"200 N 52ND","PHILADELPHIA","PA",19139,39.9632311840001,-75.2242555449999,27,"200 N 52ND, PHILADELPHIA, PA, 19139","Match","Non_Exact","200 N 52ND ST, PHILADELPHIA, PA, 19139",131398735,"L"
307528,"200 N 60TH STREET","CUMMING","IA",50061,41.484545874,-93.7905828089999,28,"200 N 60TH STREET, CUMMING, IA, 50061","Match","Exact","200 N 60TH ST, CUMMING, IA, 50061",75199404,"L"
307529,"200 N 6TH ST","GRAND JUNCTION","CO",81501,39.068381898,-108.562731109,29,"200 N 6TH ST, GRAND JUNCTION, CO, 81501","Match","Exact","200 N 6TH ST, GRAND JCT, CO, 81501",122432438,"R"
307530,"200 N 6TH STREET - SUITE 103","GRAND JUNCTION","CO",81501,NA,NA,30,"200 N 6TH STREET - SUITE 103, GRAND JUNCTION, CO, 81501","Tie",NA,NA,NA,NA
307531,"200 N 6TH STREET","GADSDEN","AL",35901,34.0211436500001,-86.00617245,31,"200 N 6TH STREET, GADSDEN, AL, 35901","Match","Exact","200 N 6TH ST, GADSDEN, AL, 35901",66771432,"L"
307532,"200 N 7TH ST","BEATRICE","NE",68310,40.2674158950001,-96.745329651,32,"200 N 7TH ST, BEATRICE, NE, 68310","Match","Exact","200 N 7TH ST, BEATRICE, NE, 68310",11614429,"R"
307533,"200 N 80TH ST","MILWAUKEE","WI",53213,43.032969586,-88.0122969509999,33,"200 N 80TH ST, MILWAUKEE, WI, 53213","Match","Exact","200 N 80TH ST, MILWAUKEE, WI, 53213",77732639,"R"
307534,"200 N ADDISON","ELMHURST","IL",60126,41.903398424,-87.941563246,34,"200 N ADDISON, ELMHURST, IL, 60126","Match","Non_Exact","200 N ADDISON AVE, ELMHURST, IL, 60126",112545040,"L"
307535,"200 N ARGONNE ROAD","SPOKANE VALLEY","WA",99212,47.6594475420001,-117.282828856,35,"200 N ARGONNE ROAD, SPOKANE VALLEY, WA, 99212","Match","Non_Exact","200 N ARGONNE RD, SPOKANE VALLEY, WA, 99212",189886878,"R"
307536,"200 N BALTIC 104","MERIDIAN","ID",83642,NA,NA,36,"200 N BALTIC 104, MERIDIAN, ID, 83642","No_Match",NA,NA,NA,NA
307537,"200 N BEACH ST","DAYTONA BEACH","FL",32114,29.21424304,-81.020348983,37,"200 N BEACH ST, DAYTONA BEACH, FL, 32114","Match","Exact","200 N BEACH ST, DAYTONA BEACH, FL, 32114",636389425,"L"
307538,"200 N BENTALOU STREET","BALTIMORE","MD",21223,39.284791754,-76.652686026,38,"200 N BENTALOU STREET, BALTIMORE, MD, 21223","Match","Non_Exact","200 S BENTALOU ST, BALTIMORE, MD, 21223",206415197,"R"
307539,"200 N BERNARD","SPOKANE","WA",99201,47.6596527190001,-117.415987625,39,"200 N BERNARD, SPOKANE, WA, 99201","Match","Non_Exact","200 N BERNARD ST, SPOKANE, WA, 99201",605661316,"R"
307540,"200 N BI STATE BLVD","DELMAR","DE",19940,38.458241414,-75.5741875909999,40,"200 N BI STATE BLVD, DELMAR, DE, 19940","Match","Exact","200 N BI STATE BLVD, DELMAR, DE, 19940",106074215,"R"
307541,"200 N BOOTH CALLOWAY RD APT 102E","HURST","TX",76053,32.8117708250001,-97.212311507,41,"200 N BOOTH CALLOWAY RD APT 102E, HURST, TX, 76053","Match","Non_Exact","200 N BOOTH CALLOWAY RD, HURST, TX, 76053",642930149,"R"
307542,"200 N BROADWAY  NO 26","DE PERE","WI",54302,NA,NA,42,"200 N BROADWAY  NO 26, DE PERE, WI, 54302","No_Match",NA,NA,NA,NA
307543,"200 N BROWN RD","CANYON","TX",79015,NA,NA,43,"200 N BROWN RD, CANYON, TX, 79015","No_Match",NA,NA,NA,NA
307544,"200 N CAMPBELL RD","OSHKOSH","WI",54903,44.0197390180001,-88.556126293,44,"200 N CAMPBELL RD, OSHKOSH, WI, 54903","Match","Non_Exact","200 N CAMPBELL RD, OSHKOSH, WI, 54902",74507914,"R"
307545,"200 N CATE ST","HAMMOND","LA",70401,30.5052186660001,-90.4609730129999,45,"200 N CATE ST, HAMMOND, LA, 70401","Match","Exact","200 N CATE ST, HAMMOND, LA, 70401",75751665,"R"
307546,"200 N CEDAR ST","BORGER","TX",79007,35.665857057,-101.397932154,46,"200 N CEDAR ST, BORGER, TX, 79007","Match","Exact","200 CEDAR ST, BORGER, TX, 79007",185367956,"R"
307547,"200 N CENTER STREET SUITE 205","CASPER","WY",82601,NA,NA,47,"200 N CENTER STREET SUITE 205, CASPER, WY, 82601","Tie",NA,NA,NA,NA
307548,"200 N CHURCH ST","PACKWOOD","IA",52580,41.133042586,-92.08256627,48,"200 N CHURCH ST, PACKWOOD, IA, 52580","Match","Exact","200 CHURCH ST, PACKWOOD, IA, 52580",84420260,"R"
307549,"200 N COLUMBUS ST","ALEXANDRIA","VA",22314,38.8040072200001,-77.048358201,49,"200 N COLUMBUS ST, ALEXANDRIA, VA, 22314","Match","Non_Exact","200 S COLUMBUS ST, ALEXANDRIA, VA, 22314",638930691,"L"
307550,"200 N DAVIE ST BOX 2","GREENSBORO","NC",27401,NA,NA,50,"200 N DAVIE ST BOX 2, GREENSBORO, NC, 27401","Tie",NA,NA,NA,NA
307551,"200 N EDGEWOOD AVENUE","WILLIAMSTON","NC",27892,35.8460164960001,-77.074554302,51,"200 N EDGEWOOD AVENUE, WILLIAMSTON, NC, 27892","Match","Exact","200 N EDGEWOOD AVE, WILLIAMSTON, NC, 27892",56805968,"R"
307552,"200 N EUCLID BLVD / 778","LA HABRA","CA",90631,NA,NA,52,"200 N EUCLID BLVD / 778, LA HABRA, CA, 90631","No_Match",NA,NA,NA,NA
307553,"200 N EVERGREEN ST","MEMPHIS","TN",38112,35.1438077330001,-90.003357444,53,"200 N EVERGREEN ST, MEMPHIS, TN, 38112","Match","Exact","200 N EVERGREEN ST, MEMPHIS, TN, 38112",72912282,"R"
307554,"200 N FAIRVIEW APT B","KEENE","TX",76059,NA,NA,54,"200 N FAIRVIEW APT B, KEENE, TX, 76059","No_Match",NA,NA,NA,NA
307555,"200 N FESTIVAL DR APT 902","EL PASO","TX",79912,NA,NA,55,"200 N FESTIVAL DR APT 902, EL PASO, TX, 79912","Tie",NA,NA,NA,NA
307556,"200 N FIFTH ST","CROCKETT","TX",75835,31.319188684,-95.4570153939999,56,"200 N FIFTH ST, CROCKETT, TX, 75835","Match","Exact","200 N 5TH ST, CROCKETT, TX, 75835",21990004,"R"
307557,"200 N FIR STREET","JEROME","ID",83338,42.724290432,-114.528287431,57,"200 N FIR STREET, JEROME, ID, 83338","Match","Exact","200 N FIR ST, JEROME, ID, 83338",105458168,"R"
307558,"200 N FORSYTH","SAINT LOUIS","MO",63105,38.6542018980001,-90.343224704,58,"200 N FORSYTH, SAINT LOUIS, MO, 63105","Match","Non_Exact","200 N FORSYTH BLVD, SAINT LOUIS, MO, 63105",100134645,"R"
307559,"200 N FRANKLIN ST","SIBLEY","IL",61773,NA,NA,59,"200 N FRANKLIN ST, SIBLEY, IL, 61773","No_Match",NA,NA,NA,NA
307560,"200 N GLEBE ROAD NO 914","ARLINGTON","VA",22203,NA,NA,60,"200 N GLEBE ROAD NO 914, ARLINGTON, VA, 22203","No_Match",NA,NA,NA,NA
307561,"200 N GRAND AVE UNIT 161","WEST COVINA","CA",91791,34.0729632580001,-117.872357471,61,"200 N GRAND AVE UNIT 161, WEST COVINA, CA, 91791","Match","Non_Exact","200 N GRAND AVE, WEST COVINA, CA, 91791",142856163,"R"
307562,"200 N GROESBECK","200 N GROESBECK","MI",48043,NA,NA,62,"200 N GROESBECK, 200 N GROESBECK, MI, 48043","No_Match",NA,NA,NA,NA
307563,"200 N HARVEY APT 1104","OKLAHOMA CITY","OK",73102,NA,NA,63,"200 N HARVEY APT 1104, OKLAHOMA CITY, OK, 73102","No_Match",NA,NA,NA,NA
307564,"200 N HARVEY APT 208","OKLAHOMA CITY","OK",73102,NA,NA,64,"200 N HARVEY APT 208, OKLAHOMA CITY, OK, 73102","No_Match",NA,NA,NA,NA
307565,"200 N ISLAND AVE","BATAVIA","IL",60510,41.852708362,-88.309010809,65,"200 N ISLAND AVE, BATAVIA, IL, 60510","Match","Exact","200 N ISLAND AVE, BATAVIA, IL, 60510",119542940,"R"
307566,"200 N J W HARRIS RD","RUSSELL SPRINGS","KY",42642,37.09070989,-84.971281115,66,"200 N J W HARRIS RD, RUSSELL SPRINGS, KY, 42642","Match","Non_Exact","202 N JW HARRIS RD, RUSSELL SPRINGS, KY, 42642",38438356,"R"
307567,"200 N JEFFERSON ST APT 903","CHICAGO","IL",60661,NA,NA,67,"200 N JEFFERSON ST APT 903, CHICAGO, IL, 60661","Tie",NA,NA,NA,NA
307568,"200 N JEFFERSON ST UNIT 802","CHICAGO","IL",60661,NA,NA,68,"200 N JEFFERSON ST UNIT 802, CHICAGO, IL, 60661","Tie",NA,NA,NA,NA
307569,"200 N JEFFERSON STREET APT 1109","CHICAGO","IL",60661,NA,NA,69,"200 N JEFFERSON STREET APT 1109, CHICAGO, IL, 60661","Tie",NA,NA,NA,NA
307570,"200 N JEFFERSON STREET UNIT 1408","CHICAGO","IL",60661,NA,NA,70,"200 N JEFFERSON STREET UNIT 1408, CHICAGO, IL, 60661","Tie",NA,NA,NA,NA
307571,"200 N JEFFERSON","GREEN BAY","WI",54301,44.5143458750001,-88.012561921,71,"200 N JEFFERSON, GREEN BAY, WI, 54301","Match","Non_Exact","200 N JEFFERSON ST, GREEN BAY, WI, 54301",148102376,"R"
307572,"200 N KAUFMAN","MOUNT VERNON","TX",75457,33.189459808,-95.221564695,72,"200 N KAUFMAN, MOUNT VERNON, TX, 75457","Match","Non_Exact","200 KAUFMAN ST, MOUNT VERNON, TX, 75457",70353283,"R"
307573,"200 N LAKE DRIVE","ORCHARD PARK","NY",14127,42.7575787380001,-78.748405502,73,"200 N LAKE DRIVE, ORCHARD PARK, NY, 14127","Match","Exact","200 N LAKE DR, ORCHARD PARK, NY, 14127",48331591,"R"
307574,"200 N LASALLE STE 2650","CHICAGO","IL",60601,NA,NA,74,"200 N LASALLE STE 2650, CHICAGO, IL, 60601","No_Match",NA,NA,NA,NA
307575,"200 N LAUREL AVE","SANFORD","FL",32771,28.812551254,-81.2721657659999,75,"200 N LAUREL AVE, SANFORD, FL, 32771","Match","Exact","200 N LAUREL AVE, SANFORD, FL, 32771",93749607,"L"
307576,"200 N MAIN ST 2ND FL","SANTA ANA","CA",92701,33.744327791,-117.867654394,76,"200 N MAIN ST 2ND FL, SANTA ANA, CA, 92701","Match","Non_Exact","200 S MAIN ST, SANTA ANA, CA, 92701",144042143,"R"
307577,"200 N MAIN ST","FAIRFIELD","IA",52556,41.0086854960001,-91.963755514,77,"200 N MAIN ST, FAIRFIELD, IA, 52556","Match","Exact","200 N MAIN ST, FAIRFIELD, IA, 52556",84418305,"L"
307578,"200 N MAIN ST","GRAHAM","NC",27253,36.070828143,-79.4003219959999,78,"200 N MAIN ST, GRAHAM, NC, 27253","Match","Exact","200 N MAIN ST, GRAHAM, NC, 27253",71665357,"L"
307579,"200 N MAIN STREET","LEON","IA",50144,40.7403815690001,-93.7469562049999,79,"200 N MAIN STREET, LEON, IA, 50144","Match","Exact","200 N MAIN ST, LEON, IA, 50144",75265823,"R"
307580,"200 N MAIN","CIBOLO","TX",78108,29.5623248960001,-98.227550754,80,"200 N MAIN, CIBOLO, TX, 78108","Match","Non_Exact","200 N MAIN ST, CIBOLO, TX, 78108",54824538,"L"
307581,"200 N MAPLE ST","ADDISON","IL",60101,41.9320445320001,-87.971445338,81,"200 N MAPLE ST, ADDISON, IL, 60101","Match","Exact","200 MAPLE ST, ADDISON, IL, 60101",112541848,"L"
307582,"200 N MARKET PLACE DR","CENTREVILLE","UT",84014,NA,NA,82,"200 N MARKET PLACE DR, CENTREVILLE, UT, 84014","No_Match",NA,NA,NA,NA
307583,"200 N MARTINGALE SUITE 1000","SCHAUMBURG","IL",60173,NA,NA,83,"200 N MARTINGALE SUITE 1000, SCHAUMBURG, IL, 60173","No_Match",NA,NA,NA,NA
307584,"200 N MESA HILLS DRIVE APT 1708","EL PASO","TX",79912,NA,NA,84,"200 N MESA HILLS DRIVE APT 1708, EL PASO, TX, 79912","Tie",NA,NA,NA,NA
307585,"200 N MESQUITE STREET SUITE 205","ARLINGTON","TX",76011,32.737838702,-97.105750797,85,"200 N MESQUITE STREET SUITE 205, ARLINGTON, TX, 76011","Match","Non_Exact","200 N MESQUITE ST, ARLINGTON, TX, 76011",101908052,"L"
307586,"200 N MONROE AVENUE","COLUMBUS","OH",43203,39.9690576040001,-82.97838332,86,"200 N MONROE AVENUE, COLUMBUS, OH, 43203","Match","Exact","200 N MONROE AVE, COLUMBUS, OH, 43203",218680159,"R"
307587,"200 N PARKER AVE","ALBANY","IN",47320,40.301069795,-85.230187818,87,"200 N PARKER AVE, ALBANY, IN, 47320","Match","Exact","200 N PARKER AVE, ALBANY, IN, 47320",30831650,"L"
307588,"200 N PENNSYLVANIA AVE","ABINGDON","IL",61410,40.8034250260001,-90.404393435,88,"200 N PENNSYLVANIA AVE, ABINGDON, IL, 61410","Match","Exact","200 N PENNSYLVANIA AVE, ABINGDON, IL, 61410",9043729,"L"
307589,"200 N PICKETT ST 304","ALEXANDRIA","VA",22304,NA,NA,89,"200 N PICKETT ST 304, ALEXANDRIA, VA, 22304","Tie",NA,NA,NA,NA
307590,"200 N PICKETT ST APT 704","ALEXANDRIA","VA",22304,NA,NA,90,"200 N PICKETT ST APT 704, ALEXANDRIA, VA, 22304","Tie",NA,NA,NA,NA
307591,"200 N PINE AVENUE","CHICAGO","IL",60644,41.884378385,-87.76333548,91,"200 N PINE AVENUE, CHICAGO, IL, 60644","Match","Exact","200 N PINE AVE, CHICAGO, IL, 60644",111754221,"L"
307592,"200 N PINE ST","BREWTON","AL",36426,NA,NA,92,"200 N PINE ST, BREWTON, AL, 36426","Tie",NA,NA,NA,NA
307593,"200 N POPLAR AVE","MONTEBELLO","CA",90640,34.0104024140001,-118.099054239,93,"200 N POPLAR AVE, MONTEBELLO, CA, 90640","Match","Exact","200 N POPLAR AVE, MONTEBELLO, CA, 90640",141642442,"R"
307594,"200 N RAVEN RD","SHOREWOOD","IL",60404,NA,NA,94,"200 N RAVEN RD, SHOREWOOD, IL, 60404","Tie",NA,NA,NA,NA
307595,"200 N SAGINAW  STREET","DURAND","MI",48429,42.912086189,-83.984651285,95,"200 N SAGINAW  STREET, DURAND, MI, 48429","Match","Exact","200 N SAGINAW ST, DURAND, MI, 48429",23652835,"L"
307596,"200 N SAN PEDRO ROAD","SAN RAFAEL","CA",94903,38.001001946,-122.523044904,96,"200 N SAN PEDRO ROAD, SAN RAFAEL, CA, 94903","Match","Exact","200 N SAN PEDRO RD, SAN RAFAEL, CA, 94903",639722835,"R"
307597,"200 N SPRING ST","LOS ANGELES","CA",90012,34.0515878160001,-118.245705885,97,"200 N SPRING ST, LOS ANGELES, CA, 90012","Match","Non_Exact","200 S SPRING ST, LOS ANGELES, CA, 90012",141618119,"L"
307598,"200 N STARCREST DR","CLEARWATER","FL",33765,27.9635643290001,-82.749549003,98,"200 N STARCREST DR, CLEARWATER, FL, 33765","Match","Non_Exact","200 S STARCREST DR, CLEARWATER, FL, 33765",124669865,"L"
307599,"200 N SWALL DR PENTHOUSE 2","BEVERLY HILLS","CA",90211,NA,NA,99,"200 N SWALL DR PENTHOUSE 2, BEVERLY HILLS, CA, 90211","Tie",NA,NA,NA,NA
307600,"200 N SYCAMORE STREET APT 705","PETERSBURG","VA",23803,37.2303805110001,-77.404321635,100,"200 N SYCAMORE STREET APT 705, PETERSBURG, VA, 23803","Match","Non_Exact","200 N SYCAMORE ST, PETERSBURG, VA, 23803",54213253,"L"
307601,"200 N TIMBERLANE DR","EL DORADO","AR",71730,33.213707169,-92.687363684,101,"200 N TIMBERLANE DR, EL DORADO, AR, 71730","Match","Exact","200 N TIMBERLANE DR, EL DORADO, AR, 71730",28160058,"L"
307602,"200 N UNIVERSITY DR","PLANTATION","FL",33324,26.122615151,-80.253276219,102,"200 N UNIVERSITY DR, PLANTATION, FL, 33324","Match","Exact","200 N UNIVERSITY DR, PLANTATION, FL, 33324",114785171,"L"
307603,"200 N WOLF ST RM 2077","BALTIMORE","MD",21287,39.2941845940001,-76.590631053,103,"200 N WOLF ST RM 2077, BALTIMORE, MD, 21287","Match","Non_Exact","200 N WOLFE ST, BALTIMORE, MD, 21287",206465569,"L"
307604,"200 NAPOLEAN PLACE","MEMPHIS","TN",38106,35.1226945970001,-90.0695718539999,104,"200 NAPOLEAN PLACE, MEMPHIS, TN, 38106","Match","Non_Exact","200 NAPOLEON PL, MEMPHIS, TN, 38106",72905678,"R"
307605,"200 NAPOLEON PL","MEMPIS","TN",38106,35.1226945970001,-90.0695718539999,105,"200 NAPOLEON PL, MEMPIS, TN, 38106","Match","Non_Exact","200 NAPOLEON PL, MEMPHIS, TN, 38106",72905678,"R"
307606,"200 NARRAGANSETT AVE","RIVERSIDE","RI",2915,41.763823062,-71.363212871,106,"200 NARRAGANSETT AVE, RIVERSIDE, RI, 2915","Match","Exact","200 NARRAGANSETT AVE, RIVERSIDE, RI, 02915",47476125,"R"
307607,"200 NARRAGANSETT","RIVERSIDE","RI",2915,41.763823062,-71.363212871,107,"200 NARRAGANSETT, RIVERSIDE, RI, 2915","Match","Non_Exact","200 NARRAGANSETT AVE, RIVERSIDE, RI, 02915",47476125,"R"
307608,"200 NASH ST NE","WILSON","NC",27893,35.726814119,-77.912076879,108,"200 NASH ST NE, WILSON, NC, 27893","Match","Exact","200 NASH ST NE, WILSON, NC, 27893",26705149,"R"
307609,"200 NATHAN DR","HOLLISTER","MO",65672,36.547419721,-93.234300548,109,"200 NATHAN DR, HOLLISTER, MO, 65672","Match","Exact","200 NATHAN DR, HOLLISTER, MO, 65672",20171378,"R"
307610,"200 NATHAN LN N","MINNEAPOLIS","MN",55441,44.980716526,-93.406159088,110,"200 NATHAN LN N, MINNEAPOLIS, MN, 55441","Match","Exact","200 NATHAN LN N, MINNEAPOLIS, MN, 55441",43824676,"L"
307611,"200 NATHAN LN NORTH APT 239","PLYMOUTH","MN",55441,44.980716526,-93.406159088,111,"200 NATHAN LN NORTH APT 239, PLYMOUTH, MN, 55441","Match","Exact","200 NATHAN LN N, PLYMOUTH, MN, 55441",43824676,"L"
307612,"200 NATURE LANE","EDMOND","OK",73034,35.6568513830001,-97.416588062,112,"200 NATURE LANE, EDMOND, OK, 73034","Match","Exact","200 NATURE LN, EDMOND, OK, 73034",626308799,"R"
307613,"200 NE 11TH STREET","GAINESVILLE","FL",32601,29.6533926450001,-82.3117287169999,113,"200 NE 11TH STREET, GAINESVILLE, FL, 32601","Match","Exact","200 NE 11TH ST, GAINESVILLE, FL, 32601",6809240,"L"
307614,"200 NE 12TH STREET","CARRABELLE","FL",32322,29.8535428180001,-84.653623733,114,"200 NE 12TH STREET, CARRABELLE, FL, 32322","Match","Non_Exact","200 12TH ST E, CARRABELLE, FL, 32322",74337305,"R"
307615,"200 NE 28TH CT","WILTON MANORS","FL",33334,26.1625395510001,-80.143044028,115,"200 NE 28TH CT, WILTON MANORS, FL, 33334","Match","Exact","200 NE 28TH CT, WILTON MANORS, FL, 33334",114721671,"R"
307616,"200 NE 2ND AVE  SUITE 311","DELRAY BEACH","FL",33444,NA,NA,116,"200 NE 2ND AVE  SUITE 311, DELRAY BEACH, FL, 33444","Tie",NA,NA,NA,NA
307617,"200 NE 460 LN","SPAVINAW","OK",74366,NA,NA,117,"200 NE 460 LN, SPAVINAW, OK, 74366","No_Match",NA,NA,NA,NA
307618,"200 NE 5TH ST","SEMINOLE","TX",79360,NA,NA,118,"200 NE 5TH ST, SEMINOLE, TX, 79360","Tie",NA,NA,NA,NA
307619,"200 NE 5TH","SEMINOLE","TX",79360,32.720190324,-102.640121475,119,"200 NE 5TH, SEMINOLE, TX, 79360","Match","Exact","200 NE 5TH, SEMINOLE, TX, 79360",139492961,"R"
307620,"200 NE COMMERCIAL CIR","KEYSTONE HEIGHTS","FL",32656,29.786144768,-82.0280885019999,120,"200 NE COMMERCIAL CIR, KEYSTONE HEIGHTS, FL, 32656","Match","Exact","200 NE COMMERCIAL CIR, KEYSTONE HEIGHTS, FL, 32656",606133138,"L"
307621,"200 NEFF HALL","COLUMBIA","MO",65211,NA,NA,121,"200 NEFF HALL, COLUMBIA, MO, 65211","No_Match",NA,NA,NA,NA
307622,"200 NELSON AVENUE","ELAINE","AR",72333,34.311019474,-90.853331832,122,"200 NELSON AVENUE, ELAINE, AR, 72333","Match","Exact","200 NELSON AVE, ELAINE, AR, 72333",12311030,"L"
307623,"200 NEVADA AVENUE","STATEN ISLAND","NY",10306,40.584146694,-74.125454801,123,"200 NEVADA AVENUE, STATEN ISLAND, NY, 10306","Match","Exact","200 NEVADA AVE, STATEN ISLAND, NY, 10306",59887022,"L"
307624,"200 NEWPORT ROAD","DUNCANNON","PA",17020,40.4158379940001,-77.0282901799999,124,"200 NEWPORT ROAD, DUNCANNON, PA, 17020","Match","Exact","200 NEWPORT RD, DUNCANNON, PA, 17020",61051666,"R"
307625,"200 NEWPORT STREET","BROOKLYN","NY",11212,40.659486418,-73.908051223,125,"200 NEWPORT STREET, BROOKLYN, NY, 11212","Match","Exact","200 NEWPORT ST, BROOKLYN, NY, 11212",59084106,"R"
307626,"200 NEWSOM LANE","KALISPELL","MT",59901,48.1585144840001,-114.376708347,126,"200 NEWSOM LANE, KALISPELL, MT, 59901","Match","Exact","200 NEWSOM LN, KALISPELL, MT, 59901",204086385,"L"
307627,"200 NIANTIC RIVER RD","WATERFORD","CT",6385,41.348298943,-72.1761441209999,127,"200 NIANTIC RIVER RD, WATERFORD, CT, 6385","Match","Exact","200 NIANTIC RIVER RD, WATERFORD, CT, 06385",611691284,"L"
307628,"200 NICHOLS DR","GREENVILLE","NC",27858,35.5926372370001,-77.338716663,128,"200 NICHOLS DR, GREENVILLE, NC, 27858","Match","Exact","200 NICHOLS DR, GREENVILLE, NC, 27858",80011914,"L"
307629,"200 NICKAJACK ROAD","MABLETON","GA",30126,33.8383684620001,-84.542393518,129,"200 NICKAJACK ROAD, MABLETON, GA, 30126","Match","Exact","200 NICKAJACK RD, MABLETON, GA, 30126",17243394,"R"
307630,"200 NOB HILL APT 2","LOUISVILLE","KY",40206,NA,NA,130,"200 NOB HILL APT 2, LOUISVILLE, KY, 40206","No_Match",NA,NA,NA,NA
307631,"200 NONAVILLE RD","MOUNT JULIET","TN",37122,36.233097496,-86.530318743,131,"200 NONAVILLE RD, MOUNT JULIET, TN, 37122","Match","Exact","200 NONAVILLE RD, MOUNT JULIET, TN, 37122",645004543,"R"
307632,"200 NORDICK DRIVE","LANCASTER","PA",17602,NA,NA,132,"200 NORDICK DRIVE, LANCASTER, PA, 17602","No_Match",NA,NA,NA,NA
307633,"200 NORTH 12TH STREET","GRIMES","IA",50111,NA,NA,133,"200 NORTH 12TH STREET, GRIMES, IA, 50111","No_Match",NA,NA,NA,NA
307634,"200 NORTH 15TH ST","LAS VEGAS","NV",89117,36.1658420030001,-115.128245265,134,"200 NORTH 15TH ST, LAS VEGAS, NV, 89117","Match","Non_Exact","200 N 15TH ST, LAS VEGAS, NV, 89101",201867928,"R"
307635,"200 NORTH 5TH STREET","GUTHRIE CENTER","IA",50115,41.6782176340001,-94.502385638,135,"200 NORTH 5TH STREET, GUTHRIE CENTER, IA, 50115","Match","Exact","200 N 5TH ST, GUTHRIE CENTER, IA, 50115",68681374,"R"
307636,"200 NORTH 5TH","CROCKETT","TX",75835,31.319188684,-95.4570153939999,136,"200 NORTH 5TH, CROCKETT, TX, 75835","Match","Non_Exact","200 N 5TH ST, CROCKETT, TX, 75835",21990004,"R"
307637,"200 NORTH 7TH STREET","TERRE HAUTE","IN",47809,39.4684330220001,-87.4070558019999,137,"200 NORTH 7TH STREET, TERRE HAUTE, IN, 47809","Match","Exact","200 N 7TH ST, TERRE HAUTE, IN, 47809",637590825,"L"
307638,"200 NORTH ANITA STREET","LAFAYETTE","LA",70501,30.2444608650001,-91.9844374579999,138,"200 NORTH ANITA STREET, LAFAYETTE, LA, 70501","Match","Exact","200 N ANITA ST, LAFAYETTE, LA, 70501",85626257,"R"
307639,"200 NORTH AVE","SIERRA VISTA","AZ",85635,31.556947413,-110.301735342,139,"200 NORTH AVE, SIERRA VISTA, AZ, 85635","Match","Exact","200 NORTH AVE, SIERRA VISTA, AZ, 85635",120925690,"L"
307640,"200 NORTH AVENUE WEST","BROOKSVILLE","FL",34601,28.563388403,-82.389738741,140,"200 NORTH AVENUE WEST, BROOKSVILLE, FL, 34601","Match","Exact","200 NORTH AVE W, BROOKSVILLE, FL, 34601",85427444,"R"
307641,"200 NORTH AVENUE","SPARTA","MO",65753,37.002594958,-93.0838695469999,141,"200 NORTH AVENUE, SPARTA, MO, 65753","Match","Exact","200 NORTH AVE, SPARTA, MO, 65753",99810948,"R"
307642,"200 NORTH CAROL ST","LOCKPORT","LA",70374,29.6509161110001,-90.544540822,142,"200 NORTH CAROL ST, LOCKPORT, LA, 70374","Match","Exact","200 N CAROL ST, LOCKPORT, LA, 70374",92333088,"L"
307643,"200 NORTH CHERRY STREET","FREEMAN","SD",57029,43.3554815110001,-97.4345934739999,143,"200 NORTH CHERRY STREET, FREEMAN, SD, 57029","Match","Exact","200 N CHERRY ST, FREEMAN, SD, 57029",172979548,"R"
307644,"200 NORTH CLEVELAND AVENUE","BELTON","MO",64012,38.8176407870001,-94.5487665479999,144,"200 NORTH CLEVELAND AVENUE, BELTON, MO, 64012","Match","Exact","200 N CLEVELAND AVE, BELTON, MO, 64012",100906646,"L"
307645,"200 NORTH COBB PKWY","MARIETTA","GA",30062,33.9550582160001,-84.5227897299999,145,"200 NORTH COBB PKWY, MARIETTA, GA, 30062","Match","Non_Exact","200 COBB PKWY, MARIETTA, GA, 30062",17254918,"R"
307646,"200 NORTH COMMERCE STREET","GENEVA","AL",36340,31.037776998,-85.865755728,146,"200 NORTH COMMERCE STREET, GENEVA, AL, 36340","Match","Non_Exact","200 S COMMERCE ST, GENEVA, AL, 36340",32921992,"L"
307647,"200 NORTH DAVID STREET","CASPER","WY",82601,42.8512364010001,-106.326605161,147,"200 NORTH DAVID STREET, CASPER, WY, 82601","Match","Exact","200 N DAVID ST, CASPER, WY, 82601",637237765,"R"
307648,"200 NORTH DEARBORN UNIT 1007","CHICAGO","IL",60601,41.885792973,-87.6295061609999,148,"200 NORTH DEARBORN UNIT 1007, CHICAGO, IL, 60601","Match","Non_Exact","200 N DEARBORN ST, CHICAGO, IL, 60601",111768753,"L"
307649,"200 NORTH DEARBORN UNIT 1007","CHICAGO","IL",60626,NA,NA,149,"200 NORTH DEARBORN UNIT 1007, CHICAGO, IL, 60626","No_Match",NA,NA,NA,NA
307650,"200 NORTH DITHRIDGE STREET","PITTSBURGH","PA",15213,40.449193317,-79.951957906,150,"200 NORTH DITHRIDGE STREET, PITTSBURGH, PA, 15213","Match","Exact","200 N DITHRIDGE ST, PITTSBURGH, PA, 15213",51643281,"R"
307651,"200 NORTH END AVE","MANHATTEN","NY",10007,NA,NA,151,"200 NORTH END AVE, MANHATTEN, NY, 10007","No_Match",NA,NA,NA,NA
307652,"200 NORTH GRAND AVENUE","SUN PRAIRIE","WI",53590,NA,NA,152,"200 NORTH GRAND AVENUE, SUN PRAIRIE, WI, 53590","No_Match",NA,NA,NA,NA
307653,"200 NORTH LASALLE STREET SUITE 2390","CHICAGO","IL",60601,41.8857823320001,-87.6324531339999,153,"200 NORTH LASALLE STREET SUITE 2390, CHICAGO, IL, 60601","Match","Non_Exact","200 N LA SALLE ST, CHICAGO, IL, 60601",111768708,"L"
307654,"200 NORTH MAIN STREET","GLOVERSVILLE","NY",12078,43.0560082480001,-74.341995104,154,"200 NORTH MAIN STREET, GLOVERSVILLE, NY, 12078","Match","Exact","200 N MAIN ST, GLOVERSVILLE, NY, 12078",153637286,"R"
307655,"200 NORTH MAIN STREET","SUFFOLK","VA",23434,36.7254199610001,-76.5848042869999,155,"200 NORTH MAIN STREET, SUFFOLK, VA, 23434","Match","Non_Exact","200 S MAIN ST, SUFFOLK, VA, 23434",635390098,"R"
307656,"200 NORTH MANOA RD","HAVERTOWN","PA",19083,39.9728658240001,-75.311426304,156,"200 NORTH MANOA RD, HAVERTOWN, PA, 19083","Match","Exact","200 N MANOA RD, HAVERTOWN, PA, 19083",134875407,"L"
307657,"200 NORTH PARK AVENUE","HERRIN","IL",62948,37.804482738,-89.0275319959999,157,"200 NORTH PARK AVENUE, HERRIN, IL, 62948","Match","Exact","200 N PARK AVE, HERRIN, IL, 62948",6003371,"R"
307658,"200 NORTH PICKETT STREET APT 613","ALEXANDRIA","VA",22304,38.812592109,-77.119635312,158,"200 NORTH PICKETT STREET APT 613, ALEXANDRIA, VA, 22304","Match","Exact","200 N PICKETT ST, ALEXANDRIA, VA, 22304",639075403,"R"
307659,"200 NORTH RENO STREET","LOS ANGELES","CA",90026,34.072962815,-118.280280653,159,"200 NORTH RENO STREET, LOS ANGELES, CA, 90026","Match","Exact","200 N RENO ST, LOS ANGELES, CA, 90026",141604779,"R"
307660,"200 NORTH ROGERS STREET SUITE A","WAXAHACHIE","TX",75165,32.3876568640001,-96.847122718,160,"200 NORTH ROGERS STREET SUITE A, WAXAHACHIE, TX, 75165","Match","Exact","200 N ROGERS ST, WAXAHACHIE, TX, 75165",103450646,"L"
307661,"200 NORTH SCOTT","ELMO","MO",64445,40.5195627190001,-95.115144137,161,"200 NORTH SCOTT, ELMO, MO, 64445","Match","Non_Exact","200 N SCOTT ST, ELMO, MO, 64445",38554567,"R"
307662,"200 NORTH SECOND STREET","JEANNETTE","PA",15644,40.3295629680001,-79.612661964,162,"200 NORTH SECOND STREET, JEANNETTE, PA, 15644","Match","Exact","200 N 2ND ST, JEANNETTE, PA, 15644",636646172,"L"
307663,"200 NORTH SHORE DR 728","MYRTLE BEACH","SC",29579,33.7619627710001,-78.855517931,163,"200 NORTH SHORE DR 728, MYRTLE BEACH, SC, 29579","Match","Exact","200 N SHORE DR, MYRTLE BEACH, SC, 29579",630414338,"R"
307664,"200 NORTH ST","VOLGA","IA",52077,42.804626211,-91.544467773,164,"200 NORTH ST, VOLGA, IA, 52077","Match","Exact","200 NORTH ST, VOLGA, IA, 52077",48476176,"L"
307665,"200 NORTH STREET","HARVEY","ND",58341,NA,NA,165,"200 NORTH STREET, HARVEY, ND, 58341","Tie",NA,NA,NA,NA
307666,"200 NORTH STREET","VIBORG","SD",57070,43.1727251610001,-97.0802634469999,166,"200 NORTH STREET, VIBORG, SD, 57070","Match","Exact","200 NORTH ST, VIBORG, SD, 57070",648340595,"R"
307667,"200 NORTH THIRD STREET","BURBANK","CA",91502,34.182824812,-118.308531623,167,"200 NORTH THIRD STREET, BURBANK, CA, 91502","Match","Non_Exact","200 N 3RD ST, BURBANK, CA, 91501",142726939,"R"
307668,"200 NORTH UMBERLAND DRIVE","STEPHENSON","VA",22656,39.2244329910001,-78.0954136619999,168,"200 NORTH UMBERLAND DRIVE, STEPHENSON, VA, 22656","Match","Non_Exact","200 NORTHUMBERLAND DR, STEPHENSON, VA, 22656",648068203,"R"
307669,"200 NORTHERN TRAIL","SALEM","VA",24153,37.316892571,-80.0468979239999,169,"200 NORTHERN TRAIL, SALEM, VA, 24153","Match","Exact","200 NORTHERN TRL, SALEM, VA, 24153",617115271,"R"
307670,"200 NORTHPINES DR APT 433","KINGWOOD","TX",77339,30.0654056820001,-95.244035137,170,"200 NORTHPINES DR APT 433, KINGWOOD, TX, 77339","Match","Exact","200 NORTHPINES DR, KINGWOOD, TX, 77339",650118273,"L"
307671,"200 NORTHPINES DR APT 933","KINGWOOD","TX",77339,30.0654056820001,-95.244035137,171,"200 NORTHPINES DR APT 933, KINGWOOD, TX, 77339","Match","Exact","200 NORTHPINES DR, KINGWOOD, TX, 77339",650118273,"L"
307672,"200 NORTHRIDGE RD","BOLINGBROOK","IL",60440,41.7018765720001,-88.062997507,172,"200 NORTHRIDGE RD, BOLINGBROOK, IL, 60440","Match","Non_Exact","200 NORTHRIDGE AVE, BOLINGBROOK, IL, 60440",111544081,"L"
307673,"200 NORTHWIND DRIVE","MARION","AR",72364,35.1887540860001,-90.181684509,173,"200 NORTHWIND DRIVE, MARION, AR, 72364","Match","Exact","200 NORTHWIND DR, MARION, AR, 72364",69377705,"R"
307674,"200 NORWEGIAN AVENUE","MODESTO","CA",95350,37.671124853,-120.991255987,174,"200 NORWEGIAN AVENUE, MODESTO, CA, 95350","Match","Exact","200 NORWEGIAN AVE, MODESTO, CA, 95350",102603981,"R"
307675,"200 NOTRH RINGGOLD STREET","KELLERTON","IA",50133,NA,NA,175,"200 NOTRH RINGGOLD STREET, KELLERTON, IA, 50133","No_Match",NA,NA,NA,NA
307676,"200 NW 16TH 412","PORTLAND","OR",97209,NA,NA,176,"200 NW 16TH 412, PORTLAND, OR, 97209","No_Match",NA,NA,NA,NA
307677,"200 NW 24TH ST APT 2","OKLAHOMA CITY","OK",73103,35.494241405,-97.516207686,177,"200 NW 24TH ST APT 2, OKLAHOMA CITY, OK, 73103","Match","Non_Exact","200 NW 24TH ST, OKLAHOMA CITY, OK, 73103",100400748,"L"
307678,"200 NW 4TH ST","BRYANT","AR",72022,34.5980016020001,-92.4914742939999,178,"200 NW 4TH ST, BRYANT, AR, 72022","Match","Exact","200 NW 4TH ST, BRYANT, AR, 72022",24195994,"R"
307679,"200 NW 4TH STREET","OKLAHOMA CITY","OK",73102,35.4719382600001,-97.516418851,179,"200 NW 4TH STREET, OKLAHOMA CITY, OK, 73102","Match","Exact","200 NW 4TH ST, OKLAHOMA CITY, OK, 73102",100402344,"L"
307680,"200 NW 70TH AVENUE","PLANTATION","FL",33317,26.123794768,-80.2412969229999,180,"200 NW 70TH AVENUE, PLANTATION, FL, 33317","Match","Exact","200 NW 70TH AVE, PLANTATION, FL, 33317",114811652,"R"
307681,"200 NW 87TH AVE APT J223","MIAMI","FL",33172,25.772273431,-80.336511407,181,"200 NW 87TH AVE APT J223, MIAMI, FL, 33172","Match","Non_Exact","200 NW 87TH AVE, MIAMI, FL, 33172",116064775,"L"
307682,"200 NW AVENUE APT 217","ANDREWS","TX",79714,NA,NA,182,"200 NW AVENUE APT 217, ANDREWS, TX, 79714","No_Match",NA,NA,NA,NA
307683,"200 NW HEMLOCK ST","LEES SUMMIT","MO",64064,38.991815968,-94.3829737299999,183,"200 NW HEMLOCK ST, LEES SUMMIT, MO, 64064","Match","Exact","200 NW HEMLOCK ST, LEES SUMMIT, MO, 64064",91471812,"R"
307684,"200 NW PACIFIC AVE","CHEHALIS","WA",98532,46.6627415390001,-122.968958728,184,"200 NW PACIFIC AVE, CHEHALIS, WA, 98532","Match","Exact","200 NW PACIFIC AVE, CHEHALIS, WA, 98532",180709544,"R"
307685,"200 OAK HOLLOW WAY","ARAGON","GA",30104,34.039883521,-85.048088494,185,"200 OAK HOLLOW WAY, ARAGON, GA, 30104","Match","Exact","200 OAK HOLLOW WAY, ARAGON, GA, 30104",627633034,"R"
307686,"200 OAK KNOLL CIRCLE APT 1731","LEWISVILLE","TX",75067,NA,NA,186,"200 OAK KNOLL CIRCLE APT 1731, LEWISVILLE, TX, 75067","No_Match",NA,NA,NA,NA
307687,"200 OAK KNOLL CR","LEWISVILLE","TX",75067,33.021257792,-96.991419981,187,"200 OAK KNOLL CR, LEWISVILLE, TX, 75067","Match","Exact","200 OAK KNOLL CIR, LEWISVILLE, TX, 75067",614160239,"R"
307688,"200 OAK PARK PLACE","PITTSBURGH","PA",15243,40.3865569120001,-80.060121524,188,"200 OAK PARK PLACE, PITTSBURGH, PA, 15243","Match","Exact","200 OAK PARK PL, PITTSBURGH, PA, 15243",51631525,"R"
307689,"200 OAK ST APT 114","WEST HAVEN","CT",6516,41.257582853,-72.95150996,189,"200 OAK ST APT 114, WEST HAVEN, CT, 6516","Match","Exact","200 OAK ST, W HAVEN, CT, 06516",3702174,"R"
307690,"200 OAK ST RM 280","MINNEAPOLIS","MN",55455,44.97510076,-93.226930404,190,"200 OAK ST RM 280, MINNEAPOLIS, MN, 55455","Match","Non_Exact","200 OAK ST SE, MINNEAPOLIS, MN, 55455",43638314,"R"
307691,"200 OAK STREET","HECTOR","AR",72843,35.4682238820001,-92.978436559,191,"200 OAK STREET, HECTOR, AR, 72843","Match","Exact","200 OAK ST, HECTOR, AR, 72843",81896134,"R"
307692,"200 OAK VALLEY","MURRAY","KY",42071,36.6843994430001,-88.095411408,192,"200 OAK VALLEY, MURRAY, KY, 42071","Match","Non_Exact","200 OAK VALLEY LN, MURRAY, KY, 42071",31715231,"L"
307693,"200 OAKMONT DRIVE","BOILING SPRINGS","SC",29316,35.0141508950001,-81.9999299689999,193,"200 OAKMONT DRIVE, BOILING SPRINGS, SC, 29316","Match","Exact","200 OAKMONT DR, BOILING SPRINGS, SC, 29316",19464658,"L"
307694,"200 OAKWOOD LANE","SEVILLE","OH",44273,41.015485605,-81.864727536,194,"200 OAKWOOD LANE, SEVILLE, OH, 44273","Match","Exact","200 OAKWOOD LN, SEVILLE, OH, 44273",58677055,"L"
307695,"200 OAKWOOD LN","HOLLYWOOD","FL",33020,26.0362986100001,-80.1622224339999,195,"200 OAKWOOD LN, HOLLYWOOD, FL, 33020","Match","Exact","200 OAKWOOD LN, HOLLYWOOD, FL, 33020",114766758,"R"
307696,"200 OCEAN AVENUE","WOODMERE","NY",11598,40.627060396,-73.697368398,196,"200 OCEAN AVENUE, WOODMERE, NY, 11598","Match","Exact","200 OCEAN AVE, WOODMERE, NY, 11598",147678615,"L"
307697,"200 OCEAN DRIVE 5A","MIAMI BEACH","FL",33139,25.7709185950001,-80.132777925,197,"200 OCEAN DRIVE 5A, MIAMI BEACH, FL, 33139","Match","Exact","200 OCEAN DR, MIAMI BEACH, FL, 33139",116020875,"L"
307698,"200 OLD BOILING SPRINGS RD APT 105","GREER","SC",29650,34.8900392410001,-82.285116606,198,"200 OLD BOILING SPRINGS RD APT 105, GREER, SC, 29650","Match","Exact","200 BOILING SPRINGS RD, GREER, SC, 29650",636733155,"R"
307699,"200 OLD COLONY ROAD","SELINSGROVE","PA",17870,40.822963047,-76.881551711,199,"200 OLD COLONY ROAD, SELINSGROVE, PA, 17870","Match","Exact","200 OLD COLONY RD, SELINSGROVE, PA, 17870",47778640,"R"
307700,"200 OLD DEWBERRY LANE","SOUTHERN PINES","NC",28387,35.1677209690001,-79.3694507439999,200,"200 OLD DEWBERRY LANE, SOUTHERN PINES, NC, 28387","Match","Exact","200 OLD DEWBERRY LN, SOUTHERN PINES, NC, 28387",20339348,"L"
307701,"200 OLD MARINA LANE","NEWPORT NEWS","VA",23602,37.085706746,-76.5246618039999,201,"200 OLD MARINA LANE, NEWPORT NEWS, VA, 23602","Match","Exact","200 OLD MARINA LN, NEWPORT NEWS, VA, 23602",103818864,"R"
307702,"200 OLD SILER CITY RD","PITTSBORO","NC",27312,35.725249648,-79.2143642029999,202,"200 OLD SILER CITY RD, PITTSBORO, NC, 27312","Match","Exact","200 OLD SILER CITY RD, PITTSBORO, NC, 27312",638510190,"R"
307703,"200 OLD STATE ROAD 132","PENDLETON","IN",46064,40.0057622420001,-85.74809326,203,"200 OLD STATE ROAD 132, PENDLETON, IN, 46064","Match","Exact","200 STATE RD 132, PENDLETON, IN, 46064",31125453,"R"
307704,"200 OLD WAGON ROAD","LEXINGTON","NC",27295,35.92166365,-80.3199698609999,204,"200 OLD WAGON ROAD, LEXINGTON, NC, 27295","Match","Exact","200 OLD WAGON RD, LEXINGTON, NC, 27295",20221035,"R"
307705,"200 OLDE KESWICK LANE","PETERSBURG","VA",23805,37.1231951710001,-77.397347136,205,"200 OLDE KESWICK LANE, PETERSBURG, VA, 23805","Match","Non_Exact","200 OLD KESWICK LN, PETERSBURG, VA, 23805",647897629,"L"
307706,"200 OLEANDER AVE","BAKERSFIELD","CA",93304,35.357088133,-119.025474916,206,"200 OLEANDER AVE, BAKERSFIELD, CA, 93304","Match","Exact","200 OLEANDER AVE, BAKERSFIELD, CA, 93304",109089063,"R"
307707,"200 OOLOGILA  PLACE","LOUDON","TN",37774,35.650744419,-84.263875442,207,"200 OOLOGILA  PLACE, LOUDON, TN, 37774","Match","Exact","200 OOLOGILA PL, LOUDON, TN, 37774",99977003,"L"
307708,"200 ORCHARD HILLS DR","ANN ARBOR","MI",48104,42.278924681,-83.715682616,208,"200 ORCHARD HILLS DR, ANN ARBOR, MI, 48104","Match","Exact","200 ORCHARD HILLS DR, ANN ARBOR, MI, 48104",26015291,"R"
307709,"200 ORCHARD HILLS DRIVE","ANN ARBOR","MI",48104,42.278924681,-83.715682616,209,"200 ORCHARD HILLS DRIVE, ANN ARBOR, MI, 48104","Match","Exact","200 ORCHARD HILLS DR, ANN ARBOR, MI, 48104",26015291,"R"
307710,"200 ORLEANS BLVD","COLDWATER","MI",49036,41.940527634,-84.98042958,210,"200 ORLEANS BLVD, COLDWATER, MI, 49036","Match","Exact","200 ORLEANS BLVD, COLDWATER, MI, 49036",8223268,"R"
307711,"200 OTTAWA AVENUE NW SUITE 500","GRAND RAPIDS","MI",49503,NA,NA,211,"200 OTTAWA AVENUE NW SUITE 500, GRAND RAPIDS, MI, 49503","No_Match",NA,NA,NA,NA
307712,"200 OTTAWA AVENUE SUITE 500","GRAND RAPIDS","MI",49503,NA,NA,212,"200 OTTAWA AVENUE SUITE 500, GRAND RAPIDS, MI, 49503","No_Match",NA,NA,NA,NA
307713,"200 OUTER PARK DR","SPRINGFIELD","IL",62704,39.775443303,-89.6557170309999,213,"200 OUTER PARK DR, SPRINGFIELD, IL, 62704","Match","Exact","200 OUTER PARK DR, SPRINGFIELD, IL, 62704",97324240,"L"
307714,"200 OVSERVATORY ST 587","ANN ARBOR","MI",48109,42.2803547460001,-83.7310527349999,214,"200 OVSERVATORY ST 587, ANN ARBOR, MI, 48109","Match","Non_Exact","200 OBSERVATORY ST, ANN ARBOR, MI, 48109",638743997,"R"
307715,"200 OWENS TRAIL SUITE 8","BRANSON","MO",65616,36.64290075,-93.237566187,215,"200 OWENS TRAIL SUITE 8, BRANSON, MO, 65616","Match","Exact","200 OWENS TRL, BRANSON, MO, 65616",20166783,"R"
307716,"200 OXFORD LANE","EXTON","PA",19341,40.056335269,-75.635225796,216,"200 OXFORD LANE, EXTON, PA, 19341","Match","Exact","200 OXFORD LN, EXTON, PA, 19341",179510855,"R"
307717,"200 OXFORD STREET","BROOKLYN","NY",11217,40.683876024,-73.972978814,217,"200 OXFORD STREET, BROOKLYN, NY, 11217","Match","Non_Exact","200 S OXFORD ST, BROOKLYN, NY, 11217",59099021,"R"
307718,"200 OYSTER LN","NORTH TOPSAIL BEACH","NC",28460,34.5248837140001,-77.347761346,218,"200 OYSTER LN, NORTH TOPSAIL BEACH, NC, 28460","Match","Exact","200 OYSTER LN, N TOPSAIL BEACH, NC, 28460",14009782,"R"
307719,"200 P ST E22","SACRAMENTO","CA",95814,38.5763179630001,-121.506286021,219,"200 P ST E22, SACRAMENTO, CA, 95814","Match","Exact","200 P ST, SACRAMENTO, CA, 95814",133321725,"R"
307720,"200 PACKARD STREET","ANN ARBOR","MI",48104,42.27612693,-83.747423945,220,"200 PACKARD STREET, ANN ARBOR, MI, 48104","Match","Exact","200 PACKARD ST, ANN ARBOR, MI, 48104",26014662,"R"
307721,"200 PAGE ST","WILLIAMSBURG","IA",52361,41.663417554,-92.025857695,221,"200 PAGE ST, WILLIAMSBURG, IA, 52361","Match","Exact","200 PAGE ST, WILLIAMSBURG, IA, 52361",84391622,"L"
307722,"200 PALMER DR","VALDOSTA","GA",31603,30.8775709670001,-83.277578833,222,"200 PALMER DR, VALDOSTA, GA, 31603","Match","Non_Exact","200 PALMER DR, VALDOSTA, GA, 31602",87731053,"R"
307723,"200 PALMETTO HALL COURT","LEXINGTON","SC",29072,34.0033185090001,-81.232135349,223,"200 PALMETTO HALL COURT, LEXINGTON, SC, 29072","Match","Exact","200 PALMETTO HALL CT, LEXINGTON, SC, 29072",70078406,"R"
307724,"200 PALMETTO HALL CT","LEXINGTON","SC",29072,34.0033185090001,-81.232135349,224,"200 PALMETTO HALL CT, LEXINGTON, SC, 29072","Match","Exact","200 PALMETTO HALL CT, LEXINGTON, SC, 29072",70078406,"R"
307725,"200 PALOMINO COURT","PINEHURST","ID",83839,47.5353610400001,-116.21378839,225,"200 PALOMINO COURT, PINEHURST, ID, 83839","Match","Non_Exact","200 PALOMINO CT, PINEHURST, ID, 83850",203569736,"R"
307726,"200 PARAGON MILLS RD B20","NASHVILLE","TN",37211,36.086489994,-86.701686394,226,"200 PARAGON MILLS RD B20, NASHVILLE, TN, 37211","Match","Exact","200 PARAGON MILLS RD, NASHVILLE, TN, 37211",649593591,"L"
307727,"200 PARAGON MILLS ROAD C1","NASHVILLE","TN",37211,36.086489994,-86.701686394,227,"200 PARAGON MILLS ROAD C1, NASHVILLE, TN, 37211","Match","Exact","200 PARAGON MILLS RD, NASHVILLE, TN, 37211",649593591,"L"
307728,"200 PARK AVE APT 226","CALUMET CITY","IL",60409,NA,NA,228,"200 PARK AVE APT 226, CALUMET CITY, IL, 60409","No_Match",NA,NA,NA,NA
307729,"200 PARK AVE SUITE 1700","NEW YORK","NY",10166,40.754108999,-73.97624568,229,"200 PARK AVE SUITE 1700, NEW YORK, NY, 10166","Match","Exact","200 PARK AVE, NEW YORK, NY, 10166",59662668,"L"
307730,"200 PARK AVE UNIT 304","MINNEAPOLIS","MN",55415,44.9786223730001,-93.257870359,230,"200 PARK AVE UNIT 304, MINNEAPOLIS, MN, 55415","Match","Non_Exact","200 PARK AVE N, MINNEAPOLIS, MN, 55415",636268117,"L"
307731,"200 PARK AVE","CALUMET CITY","IL",60429,NA,NA,231,"200 PARK AVE, CALUMET CITY, IL, 60429","No_Match",NA,NA,NA,NA
307732,"200 PARK AVENUE    UNIT 621","CALUMET CITY","IL",60409,NA,NA,232,"200 PARK AVENUE    UNIT 621, CALUMET CITY, IL, 60409","No_Match",NA,NA,NA,NA
307733,"200 PARK AVENUE 52ND FLOOR","NEW YORK","NY",10166,40.754108999,-73.97624568,233,"200 PARK AVENUE 52ND FLOOR, NEW YORK, NY, 10166","Match","Exact","200 PARK AVE, NEW YORK, NY, 10166",59662668,"L"
307734,"200 PARK AVENUE APARTMENT 316","BRECKENRIDGE","ND",56520,NA,NA,234,"200 PARK AVENUE APARTMENT 316, BRECKENRIDGE, ND, 56520","No_Match",NA,NA,NA,NA
307735,"200 PARK AVENUE SOUTH 8TH FL","NEW YORK","NY",10003,40.7366115140001,-73.988983606,235,"200 PARK AVENUE SOUTH 8TH FL, NEW YORK, NY, 10003","Match","Exact","200 PARK AVE S, NEW YORK, NY, 10003",59653630,"L"
307736,"200 PARK AVENUE SOUTH","NEW YORK CITY","NY",10003,40.7366115140001,-73.988983606,236,"200 PARK AVENUE SOUTH, NEW YORK CITY, NY, 10003","Match","Exact","200 PARK AVE S, NEW YORK, NY, 10003",59653630,"L"
307737,"200 PARK AVENUE","BETTENDORF","IA",52722,41.554951525,-90.4528328069999,237,"200 PARK AVENUE, BETTENDORF, IA, 52722","Match","Exact","200 PARK AVE, BETTENDORF, IA, 52722",122729722,"L"
307738,"200 PARK DR","PHILLIPSBURG","OH",45354,39.9029261790001,-84.4032248239999,238,"200 PARK DR, PHILLIPSBURG, OH, 45354","Match","Exact","200 PARK DR, PHILLIPSBURG, OH, 45354",143559223,"R"
307739,"200 PARK DRIVE","MANNINGTON","WV",26582,39.5299726920001,-80.351405171,239,"200 PARK DRIVE, MANNINGTON, WV, 26582","Match","Exact","200 PARK DR, MANNINGTON, WV, 26582",51423938,"L"
307740,"200 PARK PLACE SUITE 410","ORANGE VILLAGE","OH",44122,NA,NA,240,"200 PARK PLACE SUITE 410, ORANGE VILLAGE, OH, 44122","No_Match",NA,NA,NA,NA
307741,"200 PARK TERRACE DRIVE APT 202","STONEHAM","MA",2180,42.456050906,-71.08130399,241,"200 PARK TERRACE DRIVE APT 202, STONEHAM, MA, 2180","Match","Exact","200 PARK TERRACE DR, STONEHAM, MA, 02180",619678405,"L"
307742,"200 PARK VIEW CT","LIZELLA","GA",31052,32.8215519240001,-83.7766119619999,242,"200 PARK VIEW CT, LIZELLA, GA, 31052","Match","Exact","200 PARK VIEW CT, LIZELLA, GA, 31052",81075903,"L"
307743,"200 PARKER ROAD","ROSEDALE","MS",38769,33.8608317010001,-91.0303286769999,243,"200 PARKER ROAD, ROSEDALE, MS, 38769","Match","Non_Exact","200 PARKER ST, ROSEDALE, MS, 38769",833787,"L"
307744,"200 PARKSIDE AVE","TRENTON","NJ",8618,40.2346914660001,-74.7888693089999,244,"200 PARKSIDE AVE, TRENTON, NJ, 8618","Match","Exact","200 PARKSIDE AVE, TRENTON, NJ, 08618",60225700,"R"
307745,"200 PARKVIEW DRIVE APT B","TAZEWELL","VA",24651,NA,NA,245,"200 PARKVIEW DRIVE APT B, TAZEWELL, VA, 24651","No_Match",NA,NA,NA,NA
307746,"200 PARKWAY 575","WOODSTOCK","GA",30188,34.088054852,-84.53122028,246,"200 PARKWAY 575, WOODSTOCK, GA, 30188","Match","Exact","200 PARKWAY 575, WOODSTOCK, GA, 30188",68840562,"L"
307747,"200 PARKWEST CIR","DOTHAN","AL",36303,31.233624907,-85.447094396,247,"200 PARKWEST CIR, DOTHAN, AL, 36303","Match","Non_Exact","200 PARK WEST CIR, DOTHAN, AL, 36303",101227063,"R"
307748,"200 PATEWOOD DR SUITE C-100","GREENVILLE","SC",29615,34.8538777800001,-82.3263130829999,248,"200 PATEWOOD DR SUITE C-100, GREENVILLE, SC, 29615","Match","Exact","200 PATEWOOD DR, GREENVILLE, SC, 29615",38336116,"L"
307749,"200 PATTON AVENUE","NEW BERLIN","IL",62670,39.7257843420001,-89.921225427,249,"200 PATTON AVENUE, NEW BERLIN, IL, 62670","Match","Exact","200 PATTON AVE, NEW BERLIN, IL, 62670",640036031,"L"
307750,"200 PAWNEE PL","FREMONT","CA",94539,37.5115337620001,-121.92101331,250,"200 PAWNEE PL, FREMONT, CA, 94539","Match","Exact","200 PAWNEE PL, FREMONT, CA, 94539",125034419,"L"
307751,"200 PEARSON ROAD","DOUGLAS","WY",82633,42.7585508870001,-105.397574789,251,"200 PEARSON ROAD, DOUGLAS, WY, 82633","Match","Exact","200 PEARSON RD, DOUGLAS, WY, 82633",147015630,"R"
307752,"200 PECAN DRIVE","SUMMERVILLE","SC",29483,33.026026202,-80.232734718,252,"200 PECAN DRIVE, SUMMERVILLE, SC, 29483","Match","Exact","200 PECAN DR, SUMMERVILLE, SC, 29483",178469889,"R"
307753,"200 PEEBLE CREEK","RED OAK","TX",75154,32.534578121,-96.807509679,253,"200 PEEBLE CREEK, RED OAK, TX, 75154","Match","Non_Exact","200 PEBBLE CREEK, RED OAK, TX, 75154",103460811,"R"
307754,"200 PENDULUM RIDGE","GRANITEVILLE","SC",29829,33.590238404,-81.828617009,254,"200 PENDULUM RIDGE, GRANITEVILLE, SC, 29829","Match","Exact","200 PENDULUM RIDGE, GRANITEVILLE, SC, 29829",644924379,"L"
307755,"200 PENSACOLA BEACH RD APR E6","GULF BREEZE","FL",32561,30.356014686,-87.1589042749999,255,"200 PENSACOLA BEACH RD APR E6, GULF BREEZE, FL, 32561","Match","Exact","200 PENSACOLA BEACH RD, GULF BREEZE, FL, 32561",642566189,"R"
307756,"200 PENSACOLA BEACH RD APT E6","GULF BREEZE","FL",32561,30.356014686,-87.1589042749999,256,"200 PENSACOLA BEACH RD APT E6, GULF BREEZE, FL, 32561","Match","Exact","200 PENSACOLA BEACH RD, GULF BREEZE, FL, 32561",642566189,"R"
307757,"200 PEPPER STREET","HAMPTON","SC",29924,32.8670441090001,-81.100519229,257,"200 PEPPER STREET, HAMPTON, SC, 29924","Match","Exact","200 PEPPER ST, HAMPTON, SC, 29924",33116179,"R"
307758,"200 PERKINS ST","PENNINGTON GAP","VA",24277,36.761923514,-83.028653089,258,"200 PERKINS ST, PENNINGTON GAP, VA, 24277","Match","Exact","200 PERKINS ST, PENNINGTON GAP, VA, 24277",79132493,"R"
307759,"200 PEYTON PLACE APT 12102","ATLANTA","GA",30311,33.7494069900001,-84.47491609,259,"200 PEYTON PLACE APT 12102, ATLANTA, GA, 30311","Match","Non_Exact","200 PEYTON PL SW, ATLANTA, GA, 30311",609038768,"L"
307760,"200 PHEASANT RUN","HENDERSONVILLE","NC",28739,35.271531242,-82.4707606379999,260,"200 PHEASANT RUN, HENDERSONVILLE, NC, 28739","Match","Exact","200 PHEASANT RUN, HENDERSONVILLE, NC, 28739",152273628,"L"
307761,"200 PINE AVE","ALBANY","GA",31701,31.5784064740001,-84.151499776,261,"200 PINE AVE, ALBANY, GA, 31701","Match","Exact","200 PINE AVE, ALBANY, GA, 31701",647401507,"L"
307762,"200 PINE GROVE DRIVE","BROCKTON","MA",2301,42.1029601000001,-71.059901812,262,"200 PINE GROVE DRIVE, BROCKTON, MA, 2301","Match","Exact","200 PINE GROVE DR, BROCKTON, MA, 02301",87489629,"R"
307763,"200 PINE LANE","DOUGLASSVILLE","PA",19518,40.2851988910001,-75.717783179,263,"200 PINE LANE, DOUGLASSVILLE, PA, 19518","Match","Exact","200 PINE LN, DOUGLASSVILLE, PA, 19518",80401214,"L"
307764,"200 PINE STREET","MELROSE","FL",32666,29.711475582,-82.049279677,264,"200 PINE STREET, MELROSE, FL, 32666","Match","Exact","200 PINE ST, MELROSE, FL, 32666",86060087,"L"
307765,"200 PINE STREET","ROSELLE","NJ",7203,40.6573980420001,-74.269211908,265,"200 PINE STREET, ROSELLE, NJ, 7203","Match","Exact","200 PINE ST, ROSELLE, NJ, 07203",60572830,"R"
307766,"200 PINE TREE RIDGE - UNIT 3","WATERFORD TWP","MI",48327,42.646248745,-83.442434347,266,"200 PINE TREE RIDGE - UNIT 3, WATERFORD TWP, MI, 48327","Match","Non_Exact","200 PINE TREE RIDGE, WATERFORD, MI, 48327",69795183,"L"
307767,"200 PINEHURST ST","KINGSFORD","MI",49802,45.795080366,-88.075612209,267,"200 PINEHURST ST, KINGSFORD, MI, 49802","Match","Exact","200 PINEHURST ST, KINGSFORD, MI, 49802",170159447,"L"
307768,"200 PINERO AVE APT 19 P","SAN JUAN","PR",918,NA,NA,268,"200 PINERO AVE APT 19 P, SAN JUAN, PR, 918","No_Match",NA,NA,NA,NA
307769,"200 PINNACLE DRIVE","ARKADELPHIA","AR",71923,34.1336632100001,-93.0753629,269,"200 PINNACLE DRIVE, ARKADELPHIA, AR, 71923","Match","Exact","200 PINNACLE DR, ARKADELPHIA, AR, 71923",10556281,"R"
307770,"200 PIPER DRIVE","PITTSBURGH","PA",15234,40.3522575700001,-80.047193394,270,"200 PIPER DRIVE, PITTSBURGH, PA, 15234","Match","Exact","200 PIPER DR, PITTSBURGH, PA, 15234",648736839,"R"
307771,"200 PLAINFIELD WAY","BOWLING GREEN","KY",42104,36.8885909250001,-86.416147186,271,"200 PLAINFIELD WAY, BOWLING GREEN, KY, 42104","Match","Exact","200 PLAINFIELD WAY, BOWLING GREEN, KY, 42104",28015161,"L"
307772,"200 PLANTATION CIRCLE","COLUMBIA","SC",29203,NA,NA,272,"200 PLANTATION CIRCLE, COLUMBIA, SC, 29203","No_Match",NA,NA,NA,NA
307773,"200 PLEASANT DRIVE","CARRBORO","NC",27510,NA,NA,273,"200 PLEASANT DRIVE, CARRBORO, NC, 27510","No_Match",NA,NA,NA,NA
307774,"200 PLEASANT HOME ROAD","AUGUSTA","GA",30458,33.5131675270001,-82.070972204,274,"200 PLEASANT HOME ROAD, AUGUSTA, GA, 30458","Match","Non_Exact","200 PLEASANT HOME RD, AUGUSTA, GA, 30907",55633374,"L"
307775,"200 POCOHONTAS DR","INWOOD","WV",25428,39.3552906800001,-78.055254801,275,"200 POCOHONTAS DR, INWOOD, WV, 25428","Match","Exact","200 POCOHONTAS DR, INWOOD, WV, 25428",123394803,"R"
307776,"200 POMEROY MEADOW RD","SOUTHAMPTON","MA",1073,42.2623629020001,-72.703700021,276,"200 POMEROY MEADOW RD, SOUTHAMPTON, MA, 1073","Match","Exact","200 POMEROY MEADOW RD, SOUTHAMPTON, MA, 01073",635560942,"R"
307777,"200 POMONA DRIVE  SUITE F","GREENSBORO","NC",27407,36.0679060480001,-79.861631862,277,"200 POMONA DRIVE  SUITE F, GREENSBORO, NC, 27407","Match","Exact","200 POMONA DR, GREENSBORO, NC, 27407",131028723,"R"
307778,"200 POMONA DRIVE SUITE F","GREENSBORO","NC",27407,36.0679060480001,-79.861631862,278,"200 POMONA DRIVE SUITE F, GREENSBORO, NC, 27407","Match","Exact","200 POMONA DR, GREENSBORO, NC, 27407",131028723,"R"
307779,"200 POPLAR FOREST DR APT H","FARMVILLE","VA",23901,37.261926816,-78.395651519,279,"200 POPLAR FOREST DR APT H, FARMVILLE, VA, 23901","Match","Non_Exact","200 POPLAR FOREST RD, FARMVILLE, VA, 23901",653494037,"L"
307780,"200 POPLAR FOREST RD APT K","FARMVILLE","VA",23901,37.261926816,-78.395651519,280,"200 POPLAR FOREST RD APT K, FARMVILLE, VA, 23901","Match","Exact","200 POPLAR FOREST RD, FARMVILLE, VA, 23901",653494037,"L"
307781,"200 PORTLAND ST","BOSTON","MA",2114,42.364165687,-71.061571215,281,"200 PORTLAND ST, BOSTON, MA, 2114","Match","Exact","200 PORTLAND ST, BOSTON, MA, 02114",85709706,"L"
307782,"200 PORTLAND STREET  SUITE 500","BOSTON","MA",2114,42.364165687,-71.061571215,282,"200 PORTLAND STREET  SUITE 500, BOSTON, MA, 2114","Match","Exact","200 PORTLAND ST, BOSTON, MA, 02114",85709706,"L"
307783,"200 PORTOLA DRIVE","SAN FRANCISCO","CA",94131,37.748059056,-122.444229872,283,"200 PORTOLA DRIVE, SAN FRANCISCO, CA, 94131","Match","Exact","200 PORTOLA DR, SAN FRANCISCO, CA, 94131",641009763,"R"
307784,"200 POST ROAD UNIT 327","WARWICK","RI",2888,41.7624554610001,-71.39674135,284,"200 POST ROAD UNIT 327, WARWICK, RI, 2888","Match","Exact","200 POST RD, WARWICK, RI, 02888",159162859,"L"
307785,"200 PRAIRIE COURT  SUITE 3072","VACAVILLE","CA",95687,NA,NA,285,"200 PRAIRIE COURT  SUITE 3072, VACAVILLE, CA, 95687","No_Match",NA,NA,NA,NA
307786,"200 PRAIRIE COURT SUITE 3072","VACAVILLE","CA",95687,NA,NA,286,"200 PRAIRIE COURT SUITE 3072, VACAVILLE, CA, 95687","No_Match",NA,NA,NA,NA
307787,"200 PRAIRIE LANE","JANESVILLE","MN",56048,44.125988029,-93.713809797,287,"200 PRAIRIE LANE, JANESVILLE, MN, 56048","Match","Exact","200 PRAIRIE LN, JANESVILLE, MN, 56048",28725752,"L"
307788,"200 PRAIRIE STREET","ROCKFORD","IL",61107,42.2729970560001,-89.087769748,288,"200 PRAIRIE STREET, ROCKFORD, IL, 61107","Match","Exact","200 PRAIRIE ST, ROCKFORD, IL, 61107",651331337,"L"
307789,"200 PRESERVE PARK PLACE","O'FALLON","MO",63366,NA,NA,289,"200 PRESERVE PARK PLACE, O'FALLON, MO, 63366","No_Match",NA,NA,NA,NA
307790,"200 PRESTON DRIVE","OKMULGEE","OK",74447,NA,NA,290,"200 PRESTON DRIVE, OKMULGEE, OK, 74447","No_Match",NA,NA,NA,NA
307791,"200 PRIVATE ROAD 470","CASTROVILLE","TX",78009,NA,NA,291,"200 PRIVATE ROAD 470, CASTROVILLE, TX, 78009","No_Match",NA,NA,NA,NA
307792,"200 PRIVATE ROAD 4703","CASTROVILLE","TX",78009,NA,NA,292,"200 PRIVATE ROAD 4703, CASTROVILLE, TX, 78009","No_Match",NA,NA,NA,NA
307793,"200 PROFESSIONAL DRIVE","GAITHERSBURG","MD",20879,NA,NA,293,"200 PROFESSIONAL DRIVE, GAITHERSBURG, MD, 20879","No_Match",NA,NA,NA,NA
307794,"200 PROSPECT AVE","JASPER","MN",56144,43.849198255,-96.406559805,294,"200 PROSPECT AVE, JASPER, MN, 56144","Match","Exact","200 PROSPECT AVE, JASPER, MN, 56144",30492572,"L"
307795,"200 PROSPECT ST","HOUGHTON","MI",49931,47.1208413350001,-88.560941753,295,"200 PROSPECT ST, HOUGHTON, MI, 49931","Match","Exact","200 PROSPECT ST, HOUGHTON, MI, 49931",184112323,"L"
307796,"200 PROSPECT STREET","EAST STROUDSBURG","PA",18301,40.9968033260001,-75.17751003,296,"200 PROSPECT STREET, EAST STROUDSBURG, PA, 18301","Match","Exact","200 PROSPECT ST, E STROUDSBURG, PA, 18301",136768493,"R"
307797,"200 PUBLIC SQUARE SUITE 2300","CLEVELAND","OH",44114,NA,NA,297,"200 PUBLIC SQUARE SUITE 2300, CLEVELAND, OH, 44114","No_Match",NA,NA,NA,NA
307798,"200 PUEBLO AVE UNIT 106","Bay Point","CA",94565,38.0227998830001,-121.950244401,298,"200 PUEBLO AVE UNIT 106, Bay Point, CA, 94565","Match","Exact","200 PUEBLO AVE, BAY POINT, CA, 94565",647649166,"R"
307799,"200 PURPLE LEAF PLACE","CARRBORO","NC",27510,35.9052284520001,-79.070991433,299,"200 PURPLE LEAF PLACE, CARRBORO, NC, 27510","Match","Exact","200 PURPLE LEAF PL, CARRBORO, NC, 27510",72401084,"R"
307800,"200 PURSLEY DR","ANGLETON","TX",77515,29.1931148790001,-95.393979399,300,"200 PURSLEY DR, ANGLETON, TX, 77515","Match","Exact","200 PURSLEY DR, ANGLETON, TX, 77515",116596039,"R"
307801,"200 PUTNEY ROAD","FITZWILLIAM","NH",3447,NA,NA,301,"200 PUTNEY ROAD, FITZWILLIAM, NH, 3447","No_Match",NA,NA,NA,NA
307802,"200 PUTTING GREEN RD","TRUMBULL","CT",6611,41.2679755450001,-73.207755735,302,"200 PUTTING GREEN RD, TRUMBULL, CT, 6611","Match","Exact","200 PUTTING GREEN RD, TRUMBULL, CT, 06611",3274501,"R"
307803,"200 Q ST NE APT 2321","WASHINGTON","DC",20002,NA,NA,303,"200 Q ST NE APT 2321, WASHINGTON, DC, 20002","No_Match",NA,NA,NA,NA
307804,"200 QUAIL CREEK ROAD","SEMINOLE","OK",74868,35.193094208,-96.595126549,304,"200 QUAIL CREEK ROAD, SEMINOLE, OK, 74868","Match","Exact","200 QUAIL CREEK RD, SEMINOLE, OK, 74868",607545911,"L"
307805,"200 QUEEN ST","KITTANNING","PA",16201,40.820171481,-79.520260325,305,"200 QUEEN ST, KITTANNING, PA, 16201","Match","Exact","200 QUEEN ST, KITTANNING, PA, 16201",52489538,"R"
307806,"200 R-R HIDEAWAY HOLLOW","FLAG POND","TN",37657,NA,NA,306,"200 R-R HIDEAWAY HOLLOW, FLAG POND, TN, 37657","No_Match",NA,NA,NA,NA
307807,"200 RABUN RUN","COLUMBUS","NC",28722,35.223699529,-82.113961309,307,"200 RABUN RUN, COLUMBUS, NC, 28722","Match","Exact","200 RABUN RUN, COLUMBUS, NC, 28722",635946804,"R"
307808,"200 RACETRACK ROAD","ABBEVILLE","AL",36310,31.5619824840001,-85.248708113,308,"200 RACETRACK ROAD, ABBEVILLE, AL, 36310","Match","Non_Exact","200 RACE TRACK RD, ABBEVILLE, AL, 36310",101181366,"R"
307809,"200 RACHEL CT","CLARKSVILLE","TN",37043,36.549566988,-87.3227195649999,309,"200 RACHEL CT, CLARKSVILLE, TN, 37043","Match","Exact","200 RACHEL CT, CLARKSVILLE, TN, 37043",31828014,"L"
307810,"200 RACHEL CT","WHITE HOUSE","TN",37188,36.4544702430001,-86.674210285,310,"200 RACHEL CT, WHITE HOUSE, TN, 37188","Match","Exact","200 RACHEL CT, WHITE HOUSE, TN, 37188",97448003,"R"
307811,"200 RAILROAD AVENUE 207","DANVILLE","CA",94526,37.8205728770001,-121.999655517,311,"200 RAILROAD AVENUE 207, DANVILLE, CA, 94526","Match","Exact","200 RAILROAD AVE, DANVILLE, CA, 94526",647694564,"L"
307812,"200 RAILROAD STREET","WILLIAMSTON","NC",27892,35.8528259080001,-77.056204056,312,"200 RAILROAD STREET, WILLIAMSTON, NC, 27892","Match","Exact","200 RAILROAD ST, WILLIAMSTON, NC, 27892",56811682,"R"
307813,"200 RAINBOW DRIVE NO 10065","LIVINGSTON","TX",77399,30.64636469,-94.873955361,313,"200 RAINBOW DRIVE NO 10065, LIVINGSTON, TX, 77399","Match","Non_Exact","200 RAINBOW DR, LIVINGSTON, TX, 77399",650457019,"R"
307814,"200 RAMPART WAY APT 353","DENVER","CO",80230,39.7209017960001,-104.899036648,314,"200 RAMPART WAY APT 353, DENVER, CO, 80230","Match","Exact","200 RAMPART WAY, DENVER, CO, 80230",177629714,"L"
307815,"200 RAMPART WAY","DENVER","CO",80230,39.7209017960001,-104.899036648,315,"200 RAMPART WAY, DENVER, CO, 80230","Match","Exact","200 RAMPART WAY, DENVER, CO, 80230",177629714,"L"
307816,"200 RANEY ROAD","BENTON","AR",72019,34.644101677,-92.5793879509999,316,"200 RANEY ROAD, BENTON, AR, 72019","Match","Exact","200 RANEY RD, BENTON, AR, 72019",24214364,"R"
307817,"200 RANGEVIEW DR","ATHOL","ID",83801,NA,NA,317,"200 RANGEVIEW DR, ATHOL, ID, 83801","No_Match",NA,NA,NA,NA
307818,"200 RANIER CT","CANTON","GA",30114,34.215616025,-84.5148111239999,318,"200 RANIER CT, CANTON, GA, 30114","Match","Non_Exact","200 RAINIER CT, CANTON, GA, 30114",640592231,"R"
307819,"200 RAVENNA ST","HUDSON","OH",44236,41.2348622150001,-81.431805695,319,"200 RAVENNA ST, HUDSON, OH, 44236","Match","Exact","200 RAVENNA ST, HUDSON, OH, 44236",61387996,"R"
307820,"200 RAVENWOOD DR","GREENVILLE","NC",27834,35.561472597,-77.40247128,320,"200 RAVENWOOD DR, GREENVILLE, NC, 27834","Match","Exact","200 RAVENWOOD DR, GREENVILLE, NC, 27834",80010818,"L"
307821,"200 REBECCA ROAD","BENTONVILLE","AR",72712,36.3718709770001,-94.175873902,321,"200 REBECCA ROAD, BENTONVILLE, AR, 72712","Match","Exact","200 REBECCA RD, BENTONVILLE, AR, 72712",47849206,"L"
307822,"200 RECTOR PLACE   APT 24D","NEW YORK","NY",10280,40.7090361140001,-74.0168921539999,322,"200 RECTOR PLACE   APT 24D, NEW YORK, NY, 10280","Match","Exact","200 RECTOR PL, NEW YORK, NY, 10280",610200385,"R"
307823,"200 RECTOR PLACE APT 27D","NEW YORK","NY",10280,40.7090361140001,-74.0168921539999,323,"200 RECTOR PLACE APT 27D, NEW YORK, NY, 10280","Match","Exact","200 RECTOR PL, NEW YORK, NY, 10280",610200385,"R"
307824,"200 RED BUD LANE","CHAPEL HILL","NC",27514,35.954777989,-79.030720757,324,"200 RED BUD LANE, CHAPEL HILL, NC, 27514","Match","Exact","200 RED BUD LN, CHAPEL HILL, NC, 27514",72390120,"R"
307825,"200 RED STELL CT","SILVER SPRING","MD",20905,NA,NA,325,"200 RED STELL CT, SILVER SPRING, MD, 20905","No_Match",NA,NA,NA,NA
307826,"200 REDBUD STREET APT 414","SELMER","TN",38375,35.1690823010001,-88.606181652,326,"200 REDBUD STREET APT 414, SELMER, TN, 38375","Match","Exact","200 REDBUD ST, SELMER, TN, 38375",652143530,"L"
307827,"200 REDLAND ROAD","SHORTER","AL",36075,32.401111208,-85.9208187409999,327,"200 REDLAND ROAD, SHORTER, AL, 36075","Match","Exact","200 REDLAND RD, SHORTER, AL, 36075",651405607,"R"
307828,"200 REDMAN LANE","LEXINGTON","MS",39095,NA,NA,328,"200 REDMAN LANE, LEXINGTON, MS, 39095","No_Match",NA,NA,NA,NA
307829,"200 RELLER","ROXANA","IL",62084,38.848811374,-90.080132393,329,"200 RELLER, ROXANA, IL, 62084","Match","Non_Exact","200 RELLER ST, ROXANA, IL, 62084",107686272,"L"
307830,"200 RENAISSANCE PARKWAY NE APT 106","ATLANTA","GA",30308,NA,NA,330,"200 RENAISSANCE PARKWAY NE APT 106, ATLANTA, GA, 30308","No_Match",NA,NA,NA,NA
307831,"200 RENAISSANCE PKWY N","ATLANTA","GA",30308,NA,NA,331,"200 RENAISSANCE PKWY N, ATLANTA, GA, 30308","No_Match",NA,NA,NA,NA
307832,"200 RENAISSANCE PKWY NE 303","ATLANTA","GA",30308,NA,NA,332,"200 RENAISSANCE PKWY NE 303, ATLANTA, GA, 30308","No_Match",NA,NA,NA,NA
307833,"200 RENEGADE DR","FREDERICKSBURG","VA",22406,NA,NA,333,"200 RENEGADE DR, FREDERICKSBURG, VA, 22406","No_Match",NA,NA,NA,NA
307834,"200 REYNOLDS STREET","BRUNDIDGE","AL",36010,31.7185162960001,-85.8208638569999,334,"200 REYNOLDS STREET, BRUNDIDGE, AL, 36010","Match","Exact","200 REYNOLDS ST, BRUNDIDGE, AL, 36010",69217637,"L"
307835,"200 RHODE ISLAND AVE NE APT 227","WASHINGTON","DC",20002,38.9187751060001,-77.00339402,335,"200 RHODE ISLAND AVE NE APT 227, WASHINGTON, DC, 20002","Match","Exact","200 RHODE ISLAND AVE NE, WASHINGTON, DC, 20002",76228577,"L"
307836,"200 RHODE ISLAND AVE NE","WASHINGTON","DC",20002,38.9187751060001,-77.00339402,336,"200 RHODE ISLAND AVE NE, WASHINGTON, DC, 20002","Match","Exact","200 RHODE ISLAND AVE NE, WASHINGTON, DC, 20002",76228577,"L"
307837,"200 RICHARD ROAD","LAGRANGE","TX",78945,29.886451692,-96.875150773,337,"200 RICHARD ROAD, LAGRANGE, TX, 78945","Match","Non_Exact","200 RICHARD RD, LA GRANGE, TX, 78945",42014754,"L"
307838,"200 RICHARDSON RD","N CHELMSFORD","MA",1863,42.6247904250001,-71.379742455,338,"200 RICHARDSON RD, N CHELMSFORD, MA, 1863","Match","Exact","200 RICHARDSON RD, N CHELMSFORD, MA, 01863",87120736,"L"
307839,"200 RIDGE RUN COURT","GEORGETOWN","TX",78626,30.614658053,-97.708621529,339,"200 RIDGE RUN COURT, GEORGETOWN, TX, 78626","Match","Non_Exact","200 RIDGE RUN CT, GEORGETOWN, TX, 78628",126444793,"R"
307840,"200 RIDGE WAY","BURLESON","TX",76028,NA,NA,340,"200 RIDGE WAY, BURLESON, TX, 76028","No_Match",NA,NA,NA,NA
307841,"200 RIDGEWOOD RD","AUSTIN","TX",78746,30.2832110840001,-97.786564057,341,"200 RIDGEWOOD RD, AUSTIN, TX, 78746","Match","Exact","200 RIDGEWOOD RD, AUSTIN, TX, 78746",63941519,"R"
307842,"200 RINDERER ROAD","TRENTON","IL",62293,38.670018891,-89.6420402799999,342,"200 RINDERER ROAD, TRENTON, IL, 62293","Match","Exact","200 RINDERER RD, TRENTON, IL, 62293",107703950,"R"
307843,"200 RIO GRANDE DRIVE","MISSION","TX",78572,26.188769248,-98.295963362,343,"200 RIO GRANDE DRIVE, MISSION, TX, 78572","Match","Exact","200 RIO GRANDE DR, MISSION, TX, 78572",71500192,"L"
307844,"200 RIVER MARKET AVE SUITE 400","LITTLE ROCK","AR",72201,NA,NA,344,"200 RIVER MARKET AVE SUITE 400, LITTLE ROCK, AR, 72201","No_Match",NA,NA,NA,NA
307845,"200 RIVER OAKS CV 1723","GEORGETOWN","TX",78626,30.6388763,-97.6886823149999,345,"200 RIVER OAKS CV 1723, GEORGETOWN, TX, 78626","Match","Exact","200 RIVER OAKS COVE, GEORGETOWN, TX, 78626",126488889,"L"
307846,"200 RIVER PLACE DRIVE SUITE 35","DETROIT","MI",48207,42.335852796,-83.0173196009999,346,"200 RIVER PLACE DRIVE SUITE 35, DETROIT, MI, 48207","Match","Exact","200 RIVER PLACE DR, DETROIT, MI, 48207",95511213,"R"
307847,"200 RIVER ROAD","STEPHENVILLE","TX",76401,NA,NA,347,"200 RIVER ROAD, STEPHENVILLE, TX, 76401","No_Match",NA,NA,NA,NA
307848,"200 RIVER VISTA DRIVE","ATLANTA","GA",30339,NA,NA,348,"200 RIVER VISTA DRIVE, ATLANTA, GA, 30339","No_Match",NA,NA,NA,NA
307849,"200 RIVER WAY CT APT 202","OWINGSMILLS","MD",21117,39.4313445810001,-76.784907561,349,"200 RIVER WAY CT APT 202, OWINGSMILLS, MD, 21117","Match","Non_Exact","200 RIVER WAY CT, OWINGS MILLS, MD, 21117",191501313,"L"
307850,"200 RIVERBEND ROAD","FORT WASHINGTON","MD",20744,38.778416414,-77.0110040769999,350,"200 RIVERBEND ROAD, FORT WASHINGTON, MD, 20744","Match","Non_Exact","200 RIVER BEND RD, FT WASHINGTON, MD, 20744",76302095,"L"
307851,"200 RIVERFRONT APT41","DETROIT","MI",48226,42.324240021,-83.056417785,351,"200 RIVERFRONT APT41, DETROIT, MI, 48226","Match","Non_Exact","200 RIVERFRONT DR, DETROIT, MI, 48226",650157601,"L"
307852,"200 RIVERFRONT DR 15K","DETROIT","MI",48226,42.324240021,-83.056417785,352,"200 RIVERFRONT DR 15K, DETROIT, MI, 48226","Match","Exact","200 RIVERFRONT DR, DETROIT, MI, 48226",650157601,"L"
307853,"200 RIVERFRONT DR APT 5J","DETROIT","MI",48226,42.324240021,-83.056417785,353,"200 RIVERFRONT DR APT 5J, DETROIT, MI, 48226","Match","Exact","200 RIVERFRONT DR, DETROIT, MI, 48226",650157601,"L"
307854,"200 RIVERFRONT DRIVE","DETROIT","MI",48226,42.324240021,-83.056417785,354,"200 RIVERFRONT DRIVE, DETROIT, MI, 48226","Match","Exact","200 RIVERFRONT DR, DETROIT, MI, 48226",650157601,"L"
307855,"200 RIVERFRONT PARKWAY","MOUNT HOLLY","NC",28120,35.2745318460001,-81.016763081,355,"200 RIVERFRONT PARKWAY, MOUNT HOLLY, NC, 28120","Match","Exact","200 RIVERFRONT PKWY, MOUNT HOLLY, NC, 28120",70412002,"R"
307856,"200 RIVERSIDE AVENUE UNIT 138","NEW BEDFORD","MA",2746,41.667284024,-70.9204456529999,356,"200 RIVERSIDE AVENUE UNIT 138, NEW BEDFORD, MA, 2746","Match","Exact","200 RIVERSIDE AVE, NEW BEDFORD, MA, 02746",647379736,"R"
307857,"200 RIVERSIDE AVENUE","NEW BEDFORD","MA",2746,41.667284024,-70.9204456529999,357,"200 RIVERSIDE AVENUE, NEW BEDFORD, MA, 2746","Match","Exact","200 RIVERSIDE AVE, NEW BEDFORD, MA, 02746",647379736,"R"
307858,"200 RIVERSIDE BLVD - APT 7H","NYC","NY",10069,40.7790765820001,-73.9882096489999,358,"200 RIVERSIDE BLVD - APT 7H, NYC, NY, 10069","Match","Exact","200 RIVERSIDE BLVD, NEW YORK, NY, 10069",59665044,"R"
307859,"200 RIVERSIDE BLVD APT 16-IJ","NEW YORK","NY",10069,40.7790765820001,-73.9882096489999,359,"200 RIVERSIDE BLVD APT 16-IJ, NEW YORK, NY, 10069","Match","Exact","200 RIVERSIDE BLVD, NEW YORK, NY, 10069",59665044,"R"
307860,"200 RIVERSIDE BLVD APT 7D","NEW YORK","NY",10009,40.7790765820001,-73.9882096489999,360,"200 RIVERSIDE BLVD APT 7D, NEW YORK, NY, 10009","Match","Non_Exact","200 RIVERSIDE BLVD, NEW YORK, NY, 10069",59665044,"R"
307861,"200 RIVERSIDE DR","PORT REPUBLIC","NJ",8241,39.51451274,-74.496919895,361,"200 RIVERSIDE DR, PORT REPUBLIC, NJ, 8241","Match","Exact","200 RIVERSIDE DR, PORT REPUBLIC, NJ, 08241",647102892,"L"
307862,"200 RIVERSIDE DRIVE APT 31A","NEW YORK","NY",10069,40.7933801820001,-73.976526687,362,"200 RIVERSIDE DRIVE APT 31A, NEW YORK, NY, 10069","Match","Non_Exact","200 RIVERSIDE DR, NEW YORK, NY, 10025",59656557,"R"
307863,"200 RIVERVIEW COURT","BIRCHWOOD","TN",32308,35.380071806,-85.019548392,363,"200 RIVERVIEW COURT, BIRCHWOOD, TN, 32308","Match","Non_Exact","200 RIVERVIEW CT, BIRCHWOOD, TN, 37308",79421207,"L"
307864,"200 RIVERVIEW COURT","BIRCHWOOD","TN",37308,35.380071806,-85.019548392,364,"200 RIVERVIEW COURT, BIRCHWOOD, TN, 37308","Match","Exact","200 RIVERVIEW CT, BIRCHWOOD, TN, 37308",79421207,"L"
307865,"200 RIVERVIEW PARKWAY","SANTEE","CA",92071,32.8421214680001,-116.977722477,365,"200 RIVERVIEW PARKWAY, SANTEE, CA, 92071","Match","Exact","200 RIVERVIEW PKWY, SANTEE, CA, 92071",648949716,"L"
307866,"200 RIVERWAY CT APT 201","OWINGS MILL","MD",21117,39.4313445810001,-76.784907561,366,"200 RIVERWAY CT APT 201, OWINGS MILL, MD, 21117","Match","Non_Exact","200 RIVER WAY CT, OWINGS MILLS, MD, 21117",191501313,"L"
307867,"200 ROBINSON TRACT","LIVINGSTON","TX",77351,30.7585914520001,-94.961381876,367,"200 ROBINSON TRACT, LIVINGSTON, TX, 77351","Match","Exact","200 ROBINSON TRACT, LIVINGSTON, TX, 77351",23218879,"L"
307868,"200 ROCK AVE","PLAINFIELD","NJ",7063,40.6048815840001,-74.459515467,368,"200 ROCK AVE, PLAINFIELD, NJ, 7063","Match","Exact","200 ROCK AVE, PLAINFIELD, NJ, 07063",642916399,"R"
307869,"200 ROCK ST","CHASEBURG","WI",54621,43.6576793360001,-91.0971890819999,369,"200 ROCK ST, CHASEBURG, WI, 54621","Match","Exact","200 ROCK ST, CHASEBURG, WI, 54621",48622728,"L"
307870,"200 ROCK STREET","ROCKLAND","WI",54653,43.906555908,-90.916318089,370,"200 ROCK STREET, ROCKLAND, WI, 54653","Match","Exact","200 ROCK ST, ROCKLAND, WI, 54653",51031594,"R"
307871,"200 ROCKET DRIVE","WELLSTON","OH",45692,NA,NA,371,"200 ROCKET DRIVE, WELLSTON, OH, 45692","No_Match",NA,NA,NA,NA
307872,"200 ROCKFORD ROAD","KERNERSVILLE","NC",27284,36.1441153050001,-80.073904319,372,"200 ROCKFORD ROAD, KERNERSVILLE, NC, 27284","Match","Exact","200 ROCKFORD RD, KERNERSVILLE, NC, 27284",622835820,"R"
307873,"200 ROCKINGSTONE AVENUE","LARCHMONT","NY",10538,40.939584182,-73.76732071,373,"200 ROCKINGSTONE AVENUE, LARCHMONT, NY, 10538","Match","Exact","200 ROCKINGSTONE AVE, LARCHMONT, NY, 10538",139751740,"R"
307874,"200 ROGERS AVE","WAKA","TX",79093,NA,NA,374,"200 ROGERS AVE, WAKA, TX, 79093","No_Match",NA,NA,NA,NA
307875,"200 ROGERS AVE","WAKA","UM",79093,NA,NA,375,"200 ROGERS AVE, WAKA, UM, 79093","No_Match",NA,NA,NA,NA
307876,"200 ROOSTER DRIVE","BALSAM","NC",28707,NA,NA,376,"200 ROOSTER DRIVE, BALSAM, NC, 28707","No_Match",NA,NA,NA,NA
307877,"200 ROSEWOOD DR","ORMOND BEACH","FL",32174,29.28988867,-81.06457648,377,"200 ROSEWOOD DR, ORMOND BEACH, FL, 32174","Match","Non_Exact","200 ROSEWOOD AVE, ORMOND BEACH, FL, 32174",94520647,"L"
307878,"200 ROSS LANE","FOSTER CITY","CA",94404,37.53653755,-122.268345108,378,"200 ROSS LANE, FOSTER CITY, CA, 94404","Match","Exact","200 ROSS LN, FOSTER CITY, CA, 94404",192411447,"L"
307879,"200 ROUNDUP AVENUE","NEWCASTLE","WY",82701,43.846733795,-104.207004623,379,"200 ROUNDUP AVENUE, NEWCASTLE, WY, 82701","Match","Exact","200 ROUNDUP AVE, NEWCASTLE, WY, 82701",147492515,"R"
307880,"200 ROYAL ARBOR COURT","WARNER ROBINS","GA",31008,32.622958195,-83.716170178,380,"200 ROYAL ARBOR COURT, WARNER ROBINS, GA, 31008","Match","Non_Exact","200 ROYAL ARBOR CT, BYRON, GA, 31008",637820196,"R"
307881,"200 ROYAL ARBOR COURT","WARNER ROBINS","GA",31088,NA,NA,381,"200 ROYAL ARBOR COURT, WARNER ROBINS, GA, 31088","No_Match",NA,NA,NA,NA
307882,"200 ROYAL CREST DRIVE","RICE LAKE","WI",54868,45.4988281710001,-91.757004884,382,"200 ROYAL CREST DRIVE, RICE LAKE, WI, 54868","Match","Exact","200 ROYAL CREST DR, RICE LAKE, WI, 54868",611611074,"R"
307883,"200 ROYAL PALM AVE","HALF MOON BAY","CA",94019,37.51325322,-122.486092443,383,"200 ROYAL PALM AVE, HALF MOON BAY, CA, 94019","Match","Exact","200 ROYAL PALM AVE, HALF MOON BAY, CA, 94019",192370682,"R"
307884,"200 RTE 25A","KINGS PARK","NY",11754,40.884219891,-73.2502266929999,384,"200 RTE 25A, KINGS PARK, NY, 11754","Match","Non_Exact","200 STATE RTE 25A, KINGS PARK, NY, 11754",113980218,"R"
307885,"200 RUE DE LA MOSAIQUE","BROUSSARD","LA",70518,30.1428791170001,-91.9833442839999,385,"200 RUE DE LA MOSAIQUE, BROUSSARD, LA, 70518","Match","Exact","200 RUE DE LA MOSAIQUE, BROUSSARD, LA, 70518",643213542,"R"
307886,"200 RUE DE LEFLORE DR","MOBILE","AL",36617,NA,NA,386,"200 RUE DE LEFLORE DR, MOBILE, AL, 36617","No_Match",NA,NA,NA,NA
307887,"200 RUEBEN SR  CIRCLE APT 9B","CLEVELAND","MS",38732,NA,NA,387,"200 RUEBEN SR  CIRCLE APT 9B, CLEVELAND, MS, 38732","No_Match",NA,NA,NA,NA
307888,"200 RUTLEDGE AVENUE","RUTLEDGE","PA",19070,39.8989393150001,-75.327863285,388,"200 RUTLEDGE AVENUE, RUTLEDGE, PA, 19070","Match","Exact","200 RUTLEDGE AVE, RUTLEDGE, PA, 19070",134880180,"L"
307889,"200 S 10TH  STREET STE 1500","MCALLEN","TX",78501,NA,NA,389,"200 S 10TH  STREET STE 1500, MCALLEN, TX, 78501","Tie",NA,NA,NA,NA
307890,"200 S 11TH STREET","HIAWATHA","KS",66434,39.851747248,-95.544215826,390,"200 S 11TH STREET, HIAWATHA, KS, 66434","Match","Exact","200 S 11TH ST, HIAWATHA, KS, 66434",9768704,"L"
307891,"200 S 13TH ST STE 110","SANTA MARIA","CA",93433,35.1200965740001,-120.615451553,391,"200 S 13TH ST STE 110, SANTA MARIA, CA, 93433","Match","Non_Exact","200 13TH ST, GROVER BEACH, CA, 93433",109853323,"L"
307892,"200 S 15TH AVE APARTMENT NO 17","BOZEMAN","MT",59715,NA,NA,392,"200 S 15TH AVE APARTMENT NO 17, BOZEMAN, MT, 59715","Tie",NA,NA,NA,NA
307893,"200 S 20TH PLACE","RENTON","WA",98055,47.461634378,-122.21430112,393,"200 S 20TH PLACE, RENTON, WA, 98055","Match","Exact","200 S 20TH PL, RENTON, WA, 98055",186934522,"R"
307894,"200 S 31ST 4706","OMAHA","NE",68131,NA,NA,394,"200 S 31ST 4706, OMAHA, NE, 68131","No_Match",NA,NA,NA,NA
307895,"200 S 31ST AVE UNIT 4709","OMAHA","NE",68131,NA,NA,395,"200 S 31ST AVE UNIT 4709, OMAHA, NE, 68131","No_Match",NA,NA,NA,NA
307896,"200 S 3RD ST UNIT 720121","SAN JOSE","CA",95172,NA,NA,396,"200 S 3RD ST UNIT 720121, SAN JOSE, CA, 95172","No_Match",NA,NA,NA,NA
307897,"200 S 4TH ST","MORRIS","OK",74445,35.6085836570001,-95.857778851,397,"200 S 4TH ST, MORRIS, OK, 74445","Match","Exact","200 S 4TH ST, MORRIS, OK, 74445",166249375,"L"
307898,"200 S 5TH AVENUE","DILLON","SC",29536,34.418004502,-79.376398385,398,"200 S 5TH AVENUE, DILLON, SC, 29536","Match","Exact","200 S 5TH AVE, DILLON, SC, 29536",28817771,"L"
307899,"200 S 5TH ST","NILAND","CA",92257,33.236905049,-115.514721411,399,"200 S 5TH ST, NILAND, CA, 92257","Match","Exact","200 5TH ST, NILAND, CA, 92257",194511792,"R"
307900,"200 S ALTHEA ST APT 1D","ELMWOOD","IL",61529,NA,NA,400,"200 S ALTHEA ST APT 1D, ELMWOOD, IL, 61529","Tie",NA,NA,NA,NA
307901,"200 S ANDREWS AVENUE SUITE 900","FORT LAUDERDALE","FL",33301,NA,NA,401,"200 S ANDREWS AVENUE SUITE 900, FORT LAUDERDALE, FL, 33301","Tie",NA,NA,NA,NA
307902,"200 S BANANA RIVER DRIVE","MERRITT ISLAND","FL",32952,28.3593454420001,-80.6648987199999,402,"200 S BANANA RIVER DRIVE, MERRITT ISLAND, FL, 32952","Match","Non_Exact","200 N BANANA RIVER DR, MERRITT ISLAND, FL, 32952",639071915,"R"
307903,"200 S BARRINGTON AVE 49684","LOS ANGELES","CA",90049,34.0644037480001,-118.468955334,403,"200 S BARRINGTON AVE 49684, LOS ANGELES, CA, 90049","Match","Non_Exact","200 S BARRINGTON AVE, LOS ANGELES, CA, 90049",141566845,"L"
307904,"200 S BARRINGTON AVE NUMBER 49521","LOS ANGELES","CA",90049,34.0644037480001,-118.468955334,404,"200 S BARRINGTON AVE NUMBER 49521, LOS ANGELES, CA, 90049","Match","Non_Exact","200 S BARRINGTON AVE, LOS ANGELES, CA, 90049",141566845,"L"
307905,"200 S BARTON AVE","FAYETTEVILLE","AR",72701,36.0592145520001,-94.1528687749999,405,"200 S BARTON AVE, FAYETTEVILLE, AR, 72701","Match","Exact","200 S BARTON AVE, FAYETTEVILLE, AR, 72701",49046812,"L"
307906,"200 S BEACH BLVD","LA HABRA","CA",90631,33.931254643,-117.967831047,406,"200 S BEACH BLVD, LA HABRA, CA, 90631","Match","Exact","200 S BEACH BLVD, LA HABRA, CA, 90631",631750717,"L"
307907,"200 S BISCAYNE BLVD 3100","MIAMI","FL",33131,25.7709471950001,-80.188132213,407,"200 S BISCAYNE BLVD 3100, MIAMI, FL, 33131","Match","Non_Exact","200 BISCAYNE BLVD WAY, MIAMI, FL, 33131",650146922,"R"
307908,"200 S BISCAYNE BLVD STE 2500","MIAMI","FL",33131,25.7709471950001,-80.188132213,408,"200 S BISCAYNE BLVD STE 2500, MIAMI, FL, 33131","Match","Non_Exact","200 BISCAYNE BLVD WAY, MIAMI, FL, 33131",650146922,"R"
307909,"200 S BISCAYNE BLVD SUITE 3200","MIAMI","FL",33131,25.7709471950001,-80.188132213,409,"200 S BISCAYNE BLVD SUITE 3200, MIAMI, FL, 33131","Match","Non_Exact","200 BISCAYNE BLVD WAY, MIAMI, FL, 33131",650146922,"R"
307910,"200 S BRENTWOOD BLVD","ST LOUIS","MO",63105,38.647731508,-90.34180718,410,"200 S BRENTWOOD BLVD, ST LOUIS, MO, 63105","Match","Exact","200 S BRENTWOOD BLVD, SAINT LOUIS, MO, 63105",100135499,"L"
307911,"200 S BROOKWOOD DRIVE","DERBY","KS",67037,37.542982269,-97.255081914,411,"200 S BROOKWOOD DRIVE, DERBY, KS, 67037","Match","Non_Exact","200 S BROOKWOOD, DERBY, KS, 67037",115653744,"L"
307912,"200 S BURRIS AVE","COMPTON","CA",90221,33.895097922,-118.211457548,412,"200 S BURRIS AVE, COMPTON, CA, 90221","Match","Exact","200 S BURRIS AVE, COMPTON, CA, 90221",141678442,"L"
307913,"200 S CALIFORNIA ST","LAKE ELSINORE","CA",92530,33.688531917,-117.389005394,413,"200 S CALIFORNIA ST, LAKE ELSINORE, CA, 92530","Match","Exact","200 S CALIFORNIA ST, LAKE ELSINORE, CA, 92530",194849780,"R"
307914,"200 S CAMPBELL ST","DURAND","MI",48429,42.9097081130001,-83.990024891,414,"200 S CAMPBELL ST, DURAND, MI, 48429","Match","Exact","200 CAMPBELL ST, DURAND, MI, 48429",23652776,"R"
307915,"200 S CHAMBERY DR","OLATHE","KS",66061,38.8800147090001,-94.846766515,415,"200 S CHAMBERY DR, OLATHE, KS, 66061","Match","Exact","200 S CHAMBERY DR, OLATHE, KS, 66061",91333842,"L"
307916,"200 S CHERRY ST","GALESBURG","IL",61401,40.945013182,-90.369703997,416,"200 S CHERRY ST, GALESBURG, IL, 61401","Match","Exact","200 S CHERRY ST, GALESBURG, IL, 61401",637874466,"L"
307917,"200 S CHURCH ST","CLIFTON HEIGHTS","PA",19018,39.925837975,-75.297854462,417,"200 S CHURCH ST, CLIFTON HEIGHTS, PA, 19018","Match","Exact","200 S CHURCH ST, CLIFTON HEIGHTS, PA, 19018",134883210,"R"
307918,"200 S CIVIC CENTER DRIVE SUITE 800","COLUMBUS","OH",NA,39.957357227,-83.003583228,418,"200 S CIVIC CENTER DRIVE SUITE 800, COLUMBUS, OH, ","Match","Non_Exact","200 S CIVIC CENTER DR, COLUMBUS, OH, 43215",218649097,"L"
307919,"200 S CLARKSON STREET","DENVER","CO",80209,39.7127649110001,-104.978075288,419,"200 S CLARKSON STREET, DENVER, CO, 80209","Match","Exact","200 S CLARKSON ST, DENVER, CO, 80209",177331699,"L"
307920,"200 S COCKRELL HILL RD","RED OAK","TX",75154,32.5296847710001,-96.888939982,420,"200 S COCKRELL HILL RD, RED OAK, TX, 75154","Match","Exact","200 COCKRELL HILL RD, RED OAK, TX, 75154",103448645,"L"
307921,"200 S COPPER STREET","DEMING","NM",88030,32.2673547380001,-107.759817233,421,"200 S COPPER STREET, DEMING, NM, 88030","Match","Exact","200 S COPPER ST, DEMING, NM, 88030",201327082,"L"
307922,"200 S CREEK ST APT 3","IROQUOIS","SD",57353,44.3669541190001,-97.854891096,422,"200 S CREEK ST APT 3, IROQUOIS, SD, 57353","Match","Non_Exact","200 S CREEK ST, IROQUOIS, SD, 57353",201052230,"R"
307923,"200 S CREEK ST","IROQUOIS","SD",57353,44.3669541190001,-97.854891096,423,"200 S CREEK ST, IROQUOIS, SD, 57353","Match","Exact","200 S CREEK ST, IROQUOIS, SD, 57353",201052230,"R"
307924,"200 S CURRY","TEHACHAPI","CA",93561,35.1311097330001,-118.449353972,424,"200 S CURRY, TEHACHAPI, CA, 93561","Match","Non_Exact","200 S CURRY ST, TEHACHAPI, CA, 93561",108983180,"R"
307925,"200 S DAWSON ST UNIT 303","CHARLOTTE","NC",28206,NA,NA,425,"200 S DAWSON ST UNIT 303, CHARLOTTE, NC, 28206","No_Match",NA,NA,NA,NA
307926,"200 S ELLIOTT AVE","AURORA","MO",65605,36.9739020220001,-93.7179444609999,426,"200 S ELLIOTT AVE, AURORA, MO, 65605","Match","Exact","200 S ELLIOTT AVE, AURORA, MO, 65605",99851824,"R"
307927,"200 S ELLIOTT","AURORA","MO",65605,36.9739020220001,-93.7179444609999,427,"200 S ELLIOTT, AURORA, MO, 65605","Match","Non_Exact","200 S ELLIOTT AVE, AURORA, MO, 65605",99851824,"R"
307928,"200 S EUCALYPTUS AVE","INGLEWOOD","CA",90301,33.961589421,-118.359496914,428,"200 S EUCALYPTUS AVE, INGLEWOOD, CA, 90301","Match","Exact","200 S EUCALYPTUS AVE, INGLEWOOD, CA, 90301",142750037,"L"
307929,"200 S FENTON ST","LAKEWOOD","CO",80226,39.7129630910001,-105.060302927,429,"200 S FENTON ST, LAKEWOOD, CO, 80226","Match","Exact","200 S FENTON ST, LAKEWOOD, CO, 80226",647327928,"L"
307930,"200 S FRANKLIN DR","FLORENCE","SC",29501,34.193945006,-79.7851430159999,430,"200 S FRANKLIN DR, FLORENCE, SC, 29501","Match","Exact","200 S FRANKLIN DR, FLORENCE, SC, 29501",28878020,"L"
307931,"200 S FULS ROAD","NEW LEBANON","OH",45345,39.7422853730001,-84.404901074,431,"200 S FULS ROAD, NEW LEBANON, OH, 45345","Match","Exact","200 S FULS RD, NEW LEBANON, OH, 45345",143630344,"L"
307932,"200 S GARFIELD AVE STE 203","ALHAMBRA","CA",91801,NA,NA,432,"200 S GARFIELD AVE STE 203, ALHAMBRA, CA, 91801","Tie",NA,NA,NA,NA
307933,"200 S GRAND AVE","LANSING","MI",48933,42.732523782,-84.550663444,433,"200 S GRAND AVE, LANSING, MI, 48933","Match","Exact","200 S GRAND AVE, LANSING, MI, 48933",17499279,"R"
307934,"200 S HAMILTON RD","GAHANNA","OH",43230,40.014261338,-82.8669072609999,434,"200 S HAMILTON RD, GAHANNA, OH, 43230","Match","Exact","200 S HAMILTON RD, GAHANNA, OH, 43230",135592654,"R"
307935,"200 S HAMPTON PLACE","CLARKSVILLE","TN",37040,36.590777158,-87.294510809,435,"200 S HAMPTON PLACE, CLARKSVILLE, TN, 37040","Match","Exact","200 S HAMPTON PL, CLARKSVILLE, TN, 37040",604724499,"L"
307936,"200 S HAWKINS","WAXAHACHIE","TX",75165,32.388077928,-96.854238145,436,"200 S HAWKINS, WAXAHACHIE, TX, 75165","Match","Non_Exact","200 S HAWKINS ST, WAXAHACHIE, TX, 75165",103462210,"L"
307937,"200 S JACKSON ST","STRASBURG","PA",17579,39.9789928930001,-76.1828412799999,437,"200 S JACKSON ST, STRASBURG, PA, 17579","Match","Exact","200 S JACKSON ST, STRASBURG, PA, 17579",640641933,"L"
307938,"200 S JOYNT","LATHAM","IL",62543,39.9664963810001,-89.160181071,438,"200 S JOYNT, LATHAM, IL, 62543","Match","Non_Exact","200 JOYNT ST, LATHAM, IL, 62543",22441848,"R"
307939,"200 S LAKE AVENUE SUITE 2","PAHOKEE","FL",33476,26.821952551,-80.665598663,439,"200 S LAKE AVENUE SUITE 2, PAHOKEE, FL, 33476","Match","Non_Exact","200 S LAKE AVE, PAHOKEE, FL, 33476",115325918,"R"
307940,"200 S LESTER ST","CAPAC","MI",48014,43.0110474030001,-82.924020331,440,"200 S LESTER ST, CAPAC, MI, 48014","Match","Exact","200 S LESTER ST, CAPAC, MI, 48014",110965383,"R"
307941,"200 S LEXINGTON DR APT 316","FOLSOM","CA",95630,38.6668532090001,-121.136653969,441,"200 S LEXINGTON DR APT 316, FOLSOM, CA, 95630","Match","Non_Exact","200 S LEXINGTON DR, FOLSOM, CA, 95630",133396835,"L"
307942,"200 S LIDO ST","HENDERSON","NV",89015,36.0298164330001,-114.964682829,442,"200 S LIDO ST, HENDERSON, NV, 89015","Match","Non_Exact","200 LIDO DR, HENDERSON, NV, 89015",201883382,"R"
307943,"200 S LINDEN AVE","RIALTO","CA",92376,NA,NA,443,"200 S LINDEN AVE, RIALTO, CA, 92376","Tie",NA,NA,NA,NA
307944,"200 S LOS ANGELES ST 8621","LOS ANGELES","CA",90012,NA,NA,444,"200 S LOS ANGELES ST 8621, LOS ANGELES, CA, 90012","Tie",NA,NA,NA,NA
307945,"200 S MACDILL AVENUE SUITE 200","TAMPA","FL",33609,NA,NA,445,"200 S MACDILL AVENUE SUITE 200, TAMPA, FL, 33609","Tie",NA,NA,NA,NA
307946,"200 S MAIN ST SUITE 130","CORONA","CA",92882,NA,NA,446,"200 S MAIN ST SUITE 130, CORONA, CA, 92882","Tie",NA,NA,NA,NA
307947,"200 S MAIN ST","LE SUEUR","MN",56058,44.4599908390001,-93.916588243,447,"200 S MAIN ST, LE SUEUR, MN, 56058","Match","Exact","200 S MAIN ST, LE SUEUR, MN, 56058",608320137,"L"
307948,"200 S MAIN STREET STE 130","CORONA","CA",92882,NA,NA,448,"200 S MAIN STREET STE 130, CORONA, CA, 92882","Tie",NA,NA,NA,NA
307949,"200 S MAIN STREET SUITE 130","CORONA","CA",92882,NA,NA,449,"200 S MAIN STREET SUITE 130, CORONA, CA, 92882","Tie",NA,NA,NA,NA
307950,"200 S MAIN STREET","PUEBLO","CO",81003,38.2635281990001,-104.612778651,450,"200 S MAIN STREET, PUEBLO, CO, 81003","Match","Exact","200 S MAIN ST, PUEBLO, CO, 81003",105026115,"L"
307951,"200 S MAIN","FAIRFIELD","IA",52556,41.005553639,-91.963796451,451,"200 S MAIN, FAIRFIELD, IA, 52556","Match","Non_Exact","200 S MAIN ST, FAIRFIELD, IA, 52556",84418461,"L"
307952,"200 S MALL STREET","LAFAYETTE","LA",70503,30.206095739,-92.01018891,452,"200 S MALL STREET, LAFAYETTE, LA, 70503","Match","Exact","200 S MALL ST, LAFAYETTE, LA, 70503",85634518,"R"
307953,"200 S MAPLETON","LOS ANGELES","CA",90024,34.080181306,-118.432558663,453,"200 S MAPLETON, LOS ANGELES, CA, 90024","Match","Non_Exact","200 S MAPLETON DR, LOS ANGELES, CA, 90024",141567426,"L"
307954,"200 S MERIDIAN STREET SUITE 420","INDIANAPOLIS","IN",46225,39.764202563,-86.1582006249999,454,"200 S MERIDIAN STREET SUITE 420, INDIANAPOLIS, IN, 46225","Match","Non_Exact","200 S MERIDIAN ST, INDIANAPOLIS, IN, 46225",108051714,"R"
307955,"200 S MICHIGAN AVE SUITE 1100","CHICAGO","IL",60604,NA,NA,455,"200 S MICHIGAN AVE SUITE 1100, CHICAGO, IL, 60604","No_Match",NA,NA,NA,NA
307956,"200 S MYRTLE ST","KIMBALL","NE",69145,41.2369307110001,-103.657468609,456,"200 S MYRTLE ST, KIMBALL, NE, 69145","Match","Exact","200 S MYRTLE ST, KIMBALL, NE, 69145",136636566,"L"
307957,"200 S OAKRIDGE DR SUITE 101-114","HUDSON OAKS","TX",76087,32.753524801,-97.712447067,457,"200 S OAKRIDGE DR SUITE 101-114, HUDSON OAKS, TX, 76087","Match","Non_Exact","200 S OAKRIDGE DR, HUDSON OAKS, TX, 76087",617965847,"R"
307958,"200 S OAKRIDGE DR SUITE 101-230","HUDSON OAKS","TX",76087,32.753524801,-97.712447067,458,"200 S OAKRIDGE DR SUITE 101-230, HUDSON OAKS, TX, 76087","Match","Non_Exact","200 S OAKRIDGE DR, HUDSON OAKS, TX, 76087",617965847,"R"
307959,"200 S ORCHARD RD","SYRACUISE","NY",13219,43.0454765470001,-76.204469778,459,"200 S ORCHARD RD, SYRACUISE, NY, 13219","Match","Non_Exact","200 S ORCHARD RD, SYRACUSE, NY, 13219",46565364,"R"
307960,"200 S OREGON ST","DORRIS","CA",96023,41.965658983,-121.92068456,460,"200 S OREGON ST, DORRIS, CA, 96023","Match","Exact","200 S OREGON ST, DORRIS, CA, 96023",113278382,"R"
307961,"200 S PARK STREET","REEDSBURG","WI",53959,43.531443471,-90.0065972369999,461,"200 S PARK STREET, REEDSBURG, WI, 53959","Match","Exact","200 S PARK ST, REEDSBURG, WI, 53959",86541476,"L"
307962,"200 S PECK","LAGRANGE","IL",60525,NA,NA,462,"200 S PECK, LAGRANGE, IL, 60525","Tie",NA,NA,NA,NA
307963,"200 S QUINCE AVE","EXETER","CA",93221,36.29323577,-119.146552011,463,"200 S QUINCE AVE, EXETER, CA, 93221","Match","Exact","200 S QUINCE AVE, EXETER, CA, 93221",202764534,"L"
307964,"200 S RENO ST 208","LOS ANGELES","CA",90057,34.0697004350001,-118.282366331,464,"200 S RENO ST 208, LOS ANGELES, CA, 90057","Match","Non_Exact","200 S RENO ST, LOS ANGELES, CA, 90057",141605202,"L"
307965,"200 S REX ALLEN JR DR","WILLCOX","AZ",85643,32.2480675730001,-109.824758537,465,"200 S REX ALLEN JR DR, WILLCOX, AZ, 85643","Match","Exact","200 S REX ALLEN JR DR, WILLCOX, AZ, 85643",636551331,"R"
307966,"200 S RIDGE RD E","GENEVA","OH",44041,41.7900725820001,-80.9432770929999,466,"200 S RIDGE RD E, GENEVA, OH, 44041","Match","Non_Exact","200 S RIDGE RD W, GENEVA, OH, 44041",117312715,"R"
307967,"200 S RYAN DR APT 13207","RED OAK","TX",75154,32.531641741,-96.817366355,467,"200 S RYAN DR APT 13207, RED OAK, TX, 75154","Match","Exact","200 RYAN DR, RED OAK, TX, 75154",646243049,"L"
307968,"200 S RYAN DRIVE APT 2208","RED OAK","TX",75154,32.531641741,-96.817366355,468,"200 S RYAN DRIVE APT 2208, RED OAK, TX, 75154","Match","Exact","200 RYAN DR, RED OAK, TX, 75154",646243049,"L"
307969,"200 S RYAN DRIVE APT 7206","RED OAK","TX",75154,32.531641741,-96.817366355,469,"200 S RYAN DRIVE APT 7206, RED OAK, TX, 75154","Match","Exact","200 RYAN DR, RED OAK, TX, 75154",646243049,"L"
307970,"200 S SAMPSON ST","ELLENSBURG","WA",98926,46.9913876300001,-120.540214226,470,"200 S SAMPSON ST, ELLENSBURG, WA, 98926","Match","Exact","200 S SAMPSON ST, ELLENSBURG, WA, 98926",157211576,"R"
307971,"200 S SHORE CT","CHANHASSEN","MN",55317,44.8649021460001,-93.524378794,471,"200 S SHORE CT, CHANHASSEN, MN, 55317","Match","Exact","200 S SHORE CT, CHANHASSEN, MN, 55317",43507988,"L"
307972,"200 S STONE STREET AVE","ROCKVILLE","MD",20850,39.085218276,-77.145086119,472,"200 S STONE STREET AVE, ROCKVILLE, MD, 20850","Match","Non_Exact","200 S STONESTREET AVE, ROCKVILLE, MD, 20850",62110196,"L"
307973,"200 S UNION ST","KENNETT SQUARE","PA",19348,39.845669007,-75.7113947889999,473,"200 S UNION ST, KENNETT SQUARE, PA, 19348","Match","Exact","200 UNION ST, KENNETT SQUARE, PA, 19348",179502775,"R"
307974,"200 S VAN DORN ST","ALEXANDRIA","VA",22304,38.811166906,-77.131792261,474,"200 S VAN DORN ST, ALEXANDRIA, VA, 22304","Match","Exact","200 S VAN DORN ST, ALEXANDRIA, VA, 22304",638905749,"L"
307975,"200 S WASHINGTON APT 21","COOKEVILLE","TN",38501,NA,NA,475,"200 S WASHINGTON APT 21, COOKEVILLE, TN, 38501","No_Match",NA,NA,NA,NA
307976,"200 S WASHINGTON AVE APT 21","COOKEVILLE","TN",38501,NA,NA,476,"200 S WASHINGTON AVE APT 21, COOKEVILLE, TN, 38501","Tie",NA,NA,NA,NA
307977,"200 S WEST AVE APT 3","EATONVILLE","FL",32789,NA,NA,477,"200 S WEST AVE APT 3, EATONVILLE, FL, 32789","No_Match",NA,NA,NA,NA
307978,"200 S WILLOW","JACKSON","WY",83001,43.4774313250001,-110.758882337,478,"200 S WILLOW, JACKSON, WY, 83001","Match","Non_Exact","200 S WILLOW ST, JACKSON, WY, 83001",130421878,"R"
307979,"200 S WINDSOR BLVD","LOS ANGELES","CA",90004,34.0711519430001,-118.320515166,479,"200 S WINDSOR BLVD, LOS ANGELES, CA, 90004","Match","Exact","200 S WINDSOR BLVD, LOS ANGELES, CA, 90004",141603510,"L"
307980,"200 S WOLCOTT ST SUITE 422","CASTLE ROCK","CO",80104,NA,NA,480,"200 S WOLCOTT ST SUITE 422, CASTLE ROCK, CO, 80104","No_Match",NA,NA,NA,NA
307981,"200 S WOODALE AVE","DECATUR","IL",62522,39.840826953,-88.993171323,481,"200 S WOODALE AVE, DECATUR, IL, 62522","Match","Non_Exact","200 S WOODDALE AVE, DECATUR, IL, 62522",20743549,"L"
307982,"200 S WYMAN ST UNIT 400","ROCKFORD","IL",61101,42.271443666,-89.093426431,482,"200 S WYMAN ST UNIT 400, ROCKFORD, IL, 61101","Match","Non_Exact","200 N WYMAN ST, ROCKFORD, IL, 61101",49253272,"L"
307983,"200 SABIN DR","JONESBOROUGH","TN",37659,36.2955246510001,-82.471822574,483,"200 SABIN DR, JONESBOROUGH, TN, 37659","Match","Exact","200 SABIN DR, JONESBOROUGH, TN, 37659",639914041,"R"
307984,"200 SACRA VIA STREET","MARIETTA","OH",45750,39.423159979,-81.462532798,484,"200 SACRA VIA STREET, MARIETTA, OH, 45750","Match","Exact","200 SACRA VIA ST, MARIETTA, OH, 45750",623948154,"R"
307985,"200 SAINT ANN SUITE 1231","MANDEVILLE","LA",70471,30.3876824650001,-90.081520457,485,"200 SAINT ANN SUITE 1231, MANDEVILLE, LA, 70471","Match","Non_Exact","200 ST ANN DR, MANDEVILLE, LA, 70471",111309666,"R"
307986,"200 SAINT LOUIS AVE","EGG HARBOR","NJ",8215,39.5272651660001,-74.641641224,486,"200 SAINT LOUIS AVE, EGG HARBOR, NJ, 8215","Match","Non_Exact","200 SAINT LOUIS AVE, EGG HARBOR CY, NJ, 08215",202497923,"R"
307987,"200 SAMUEL ROSS CT","RICHMOND","KY",40475,37.7675334350001,-84.2898336549999,487,"200 SAMUEL ROSS CT, RICHMOND, KY, 40475","Match","Exact","200 SAMUEL ROSS CT, RICHMOND, KY, 40475",231864565,"R"
307988,"200 SAN PEDRO CIR","SAN JOSE","CA",95110,37.344586738,-121.901189114,488,"200 SAN PEDRO CIR, SAN JOSE, CA, 95110","Match","Exact","200 SAN PEDRO CIR, SAN JOSE, CA, 95110",618194466,"L"
307989,"200 SAN SABA","GEORGETOWN","TX",78633,30.7275640070001,-97.7053303339999,489,"200 SAN SABA, GEORGETOWN, TX, 78633","Match","Non_Exact","200 SAN SABA DR, GEORGETOWN, TX, 78633",126533968,"L"
307990,"200 SANFORD ROAD","WELLS","ME",4090,43.322020186,-70.590273177,490,"200 SANFORD ROAD, WELLS, ME, 4090","Match","Exact","200 SANFORD RD, WELLS, ME, 04090",92788937,"R"
307991,"200 SANFORD STREET","COLUMBIA","SC",29203,NA,NA,491,"200 SANFORD STREET, COLUMBIA, SC, 29203","No_Match",NA,NA,NA,NA
307992,"200 SANGIOVESE ST","LEANDER","TX",78641,30.570868596,-97.873831631,492,"200 SANGIOVESE ST, LEANDER, TX, 78641","Match","Exact","200 SANGIOVESE ST, LEANDER, TX, 78641",648536294,"L"
307993,"200 SAPPHIRE DRIVE","WHITE HOUSE","TN",37188,36.451024938,-86.657550514,493,"200 SAPPHIRE DRIVE, WHITE HOUSE, TN, 37188","Match","Exact","200 SAPPHIRE DR, WHITE HOUSE, TN, 37188",632118936,"R"
307994,"200 SARANAC DR","ELGIN","TX",78621,30.344090856,-97.395238997,494,"200 SARANAC DR, ELGIN, TX, 78621","Match","Exact","200 SARANAC DR, ELGIN, TX, 78621",651815918,"R"
307995,"200 SARANAC DRIVE","ELGIN","TX",78621,30.344090856,-97.395238997,495,"200 SARANAC DRIVE, ELGIN, TX, 78621","Match","Exact","200 SARANAC DR, ELGIN, TX, 78621",651815918,"R"
307996,"200 SARTIN LANE","JONESBORO","AR",72404,35.79682218,-90.715933074,496,"200 SARTIN LANE, JONESBORO, AR, 72404","Match","Exact","200 SARTIN LN, JONESBORO, AR, 72404",46939972,"R"
307997,"200 SATTERFILED RD","SPARTANBURG","SC",29301,NA,NA,497,"200 SATTERFILED RD, SPARTANBURG, SC, 29301","No_Match",NA,NA,NA,NA
307998,"200 SAVANNAH DRIVE","ENTERPRISE","AL",36330,31.3191386390001,-85.800661484,498,"200 SAVANNAH DRIVE, ENTERPRISE, AL, 36330","Match","Exact","200 SAVANNAH DR, ENTERPRISE, AL, 36330",627321749,"L"
307999,"200 SAXON DRIVE","LAFAYETTE","LA",70508,30.1803073340001,-92.0294682749999,499,"200 SAXON DRIVE, LAFAYETTE, LA, 70508","Match","Exact","200 SAXON DR, LAFAYETTE, LA, 70508",85618874,"R"
308000,"200 SCHERMERHORN ST APT 324","BROOKLYN","NY",11201,40.6886307460001,-73.985168242,500,"200 SCHERMERHORN ST APT 324, BROOKLYN, NY, 11201","Match","Exact","200 SCHERMERHORN ST, BROOKLYN, NY, 11201",650146506,"R"
