"ID","Address","City","State","Zip","lat","long","id","input_address","match_indicator","match_type","matched_address","tiger_line_id","tiger_side"
471501,"300 SOUTHWEST DR","JACKSONVILLE","NC",28540,34.726592908,-77.523233482,1,"300 SOUTHWEST DR, JACKSONVILLE, NC, 28540","Match","Exact","300 SOUTHWEST DR, JACKSONVILLE, NC, 28540",14034922,"L"
471502,"300 SOUTHWIND RD","EASTOVER","SC",29044,33.92262916,-80.71276893,2,"300 SOUTHWIND RD, EASTOVER, SC, 29044","Match","Exact","300 SOUTHWIND RD, EASTOVER, SC, 29044",71813234,"L"
471503,"300 SOUTHWOOD COURT","WENDELL","NC",27591,35.7795513290001,-78.366324837,3,"300 SOUTHWOOD COURT, WENDELL, NC, 27591","Match","Exact","300 SOUTHWOOD CT, WENDELL, NC, 27591",72488227,"L"
471504,"300 SOWER BLVD   OCTE - 5TH FLOOR","FRANKFORT","KY",40601,NA,NA,4,"300 SOWER BLVD   OCTE - 5TH FLOOR, FRANKFORT, KY, 40601","No_Match",NA,NA,NA,NA
471505,"300 SOWER BLVD","FRANKFORT","KY",40601,NA,NA,5,"300 SOWER BLVD, FRANKFORT, KY, 40601","No_Match",NA,NA,NA,NA
471506,"300 SOWER BOULEVARD 4TH FLOOR","FRANKFORT","KY",40601,NA,NA,6,"300 SOWER BOULEVARD 4TH FLOOR, FRANKFORT, KY, 40601","No_Match",NA,NA,NA,NA
471507,"300 SPARTAN DRIVE","SLIDELL","LA",70458,30.24532967,-89.787200818,7,"300 SPARTAN DRIVE, SLIDELL, LA, 70458","Match","Exact","300 SPARTAN DR, SLIDELL, LA, 70458",649113155,"L"
471508,"300 SPECTRUM CENTER DR SUITE 1110","IRVINE","CA",92618,NA,NA,8,"300 SPECTRUM CENTER DR SUITE 1110, IRVINE, CA, 92618","No_Match",NA,NA,NA,NA
471509,"300 SPRING MOUNTAIN ROAD","CROSS ROADS","TX",76227,33.241351324,-97.002872778,9,"300 SPRING MOUNTAIN ROAD, CROSS ROADS, TX, 76227","Match","Exact","300 SPRING MOUNTAIN RD, CROSSROADS, TX, 76227",103385927,"R"
471510,"300 SPRING STREET","JASPER","AR",72641,36.0084636810001,-93.186725359,10,"300 SPRING STREET, JASPER, AR, 72641","Match","Exact","300 SPRING ST, JASPER, AR, 72641",20132121,"L"
471511,"300 SPRING STREET","NEW YORK","NY",10013,40.725841513,-74.007620033,11,"300 SPRING STREET, NEW YORK, NY, 10013","Match","Exact","300 SPRING ST, NEW YORK, NY, 10013",59660065,"L"
471512,"300 ST JOSEPH PKWY  UNIT 122","HOUSTON","TX",77002,NA,NA,12,"300 ST JOSEPH PKWY  UNIT 122, HOUSTON, TX, 77002","No_Match",NA,NA,NA,NA
471513,"300 ST JOSEPH PKWY 118","HOUSTON","TX",77002,NA,NA,13,"300 ST JOSEPH PKWY 118, HOUSTON, TX, 77002","No_Match",NA,NA,NA,NA
471514,"300 ST JUDE AVE","JOLIET","IL",60436,41.5170186890001,-88.1329482359999,14,"300 ST JUDE AVE, JOLIET, IL, 60436","Match","Exact","300 SAINT JUDE AVE, JOLIET, IL, 60436",111539972,"L"
471515,"300 ST PATRICK LANE","ST LOUIS","MO",63031,38.782514416,-90.3268724019999,15,"300 ST PATRICK LANE, ST LOUIS, MO, 63031","Match","Non_Exact","300 SAINT PATRICK LN, FLORISSANT, MO, 63031",100173025,"R"
471516,"300 STADIUM DRIVE","CAMILLA","GA",31730,31.216678044,-84.2139749359999,16,"300 STADIUM DRIVE, CAMILLA, GA, 31730","Match","Exact","300 STADIUM DR, CAMILLA, GA, 31730",84151149,"L"
471517,"300 STAPLES RD","OSCEOLA","WI",54020,45.3139134420001,-92.678372668,17,"300 STAPLES RD, OSCEOLA, WI, 54020","Match","Exact","300 STAPLES RD, OSCEOLA, WI, 54020",110857825,"L"
471518,"300 STATE ST - SUITE 401","ERIE","PA",16507,42.132269798,-80.0871295489999,18,"300 STATE ST - SUITE 401, ERIE, PA, 16507","Match","Exact","300 STATE ST, ERIE, PA, 16507",117494192,"R"
471519,"300 STATE ST 92206","SOUTHLAKE","TX",76092,NA,NA,19,"300 STATE ST 92206, SOUTHLAKE, TX, 76092","No_Match",NA,NA,NA,NA
471520,"300 STATE ST 92206","SOUTHLALE","TX",76092,NA,NA,20,"300 STATE ST 92206, SOUTHLALE, TX, 76092","No_Match",NA,NA,NA,NA
471521,"300 STATE STREET SUITE 201","NEW LONDON","CT",6320,41.355053227,-72.0986602569999,21,"300 STATE STREET SUITE 201, NEW LONDON, CT, 6320","Match","Exact","300 STATE ST, NEW LONDON, CT, 06320",56851074,"L"
471522,"300 STATE STREET UNIT 93341","SOUTHLAKE","TX",76092,NA,NA,22,"300 STATE STREET UNIT 93341, SOUTHLAKE, TX, 76092","No_Match",NA,NA,NA,NA
471523,"300 STATE STREET","LAFAYETTE","LA",70506,30.2199499720001,-92.036663259,23,"300 STATE STREET, LAFAYETTE, LA, 70506","Match","Exact","300 STATE ST, LAFAYETTE, LA, 70506",85624771,"R"
471524,"300 STATE STREET","SOUTHLAKE","TX",76092,NA,NA,24,"300 STATE STREET, SOUTHLAKE, TX, 76092","No_Match",NA,NA,NA,NA
471525,"300 STEAMBOAT RD QTRS L","KINGS POINT","NY",11024,40.812223918,-73.7585607469999,25,"300 STEAMBOAT RD QTRS L, KINGS POINT, NY, 11024","Match","Exact","300 STEAMBOAT RD, KINGS POINT, NY, 11024",645749038,"R"
471526,"300 STEED COURT","WINSTON SALEM","NC",27104,36.0985442580001,-80.3188169159999,26,"300 STEED COURT, WINSTON SALEM, NC, 27104","Match","Exact","300 STEED CT, WINSTON SALEM, NC, 27104",84603616,"L"
471527,"300 STEPHENS STREET","PADEN CITY","WV",26159,NA,NA,27,"300 STEPHENS STREET, PADEN CITY, WV, 26159","No_Match",NA,NA,NA,NA
471528,"300 STEPSTONE HILL ROAD","GUILFORD","CT",6437,41.321877472,-72.689932066,28,"300 STEPSTONE HILL ROAD, GUILFORD, CT, 6437","Match","Exact","300 STEPSTONE HILL RD, GUILFORD, CT, 06437",618697781,"L"
471529,"300 STERLING PKWY SUITE 100","MECHANICSBURG","PA",17050,NA,NA,29,"300 STERLING PKWY SUITE 100, MECHANICSBURG, PA, 17050","No_Match",NA,NA,NA,NA
471530,"300 STONEY RIDGE TRAIL","STOUGHTON","WI",53589,42.9201979370001,-89.199934174,30,"300 STONEY RIDGE TRAIL, STOUGHTON, WI, 53589","Match","Exact","300 STONEY RIDGE TRL, STOUGHTON, WI, 53589",49514581,"L"
471531,"300 STONY BATTERY ROAD","LANDISVILLE","PA",17538,40.0939297850001,-76.423368347,31,"300 STONY BATTERY ROAD, LANDISVILLE, PA, 17538","Match","Non_Exact","300 STONEY BATTERY RD, LANDISVILLE, PA, 17538",179658443,"R"
471532,"300 STONY POINT ROAD 96","SANTA ROSA","CA",95407,38.4355455990001,-122.742603557,32,"300 STONY POINT ROAD 96, SANTA ROSA, CA, 95407","Match","Non_Exact","300 STONY POINT RD, SANTA ROSA, CA, 95401",67467943,"L"
471533,"300 SULLIVAN PLACE","BROOKLYN","NY",11225,40.664589242,-73.952512443,33,"300 SULLIVAN PLACE, BROOKLYN, NY, 11225","Match","Exact","300 SULLIVAN PL, BROOKLYN, NY, 11225",59079543,"R"
471534,"300 SUMMER BEND ROAD","COLUMBIA","SC",29223,34.113671735,-80.939696283,34,"300 SUMMER BEND ROAD, COLUMBIA, SC, 29223","Match","Exact","300 SUMMER BEND RD, COLUMBIA, SC, 29223",632404878,"L"
471535,"300 SUNFLOWER ROAD 20","ITTA BENA","MS",38941,33.4975319910001,-90.32395467,35,"300 SUNFLOWER ROAD 20, ITTA BENA, MS, 38941","Match","Exact","300 SUNFLOWER RD, ITTA BENA, MS, 38941",1051874,"R"
471536,"300 SUNFLOWER ST","SAVOY","IL",61874,40.0592223410001,-88.246363489,36,"300 SUNFLOWER ST, SAVOY, IL, 61874","Match","Exact","300 SUNFLOWER ST, SAVOY, IL, 61874",638702345,"L"
471537,"300 SUNRISE CENTER DRIVE","ZANESVILLE","OH",43701,39.9452455730001,-81.98038465,37,"300 SUNRISE CENTER DRIVE, ZANESVILLE, OH, 43701","Match","Exact","300 SUNRISE CENTER DR, ZANESVILLE, OH, 43701",45606975,"R"
471538,"300 SUNSET BLVD","HEWETT","TX",76643,31.4645063720001,-97.19414856,38,"300 SUNSET BLVD, HEWETT, TX, 76643","Match","Non_Exact","300 SUNSET BLVD, HEWITT, TX, 76643",146743237,"L"
471539,"300 SUPERCHARGE RD","THIBODAUX","LA",70301,29.759584261,-90.768302649,39,"300 SUPERCHARGE RD, THIBODAUX, LA, 70301","Match","Non_Exact","300 SUPERCHARGE DR, THIBODAUX, LA, 70301",92346595,"L"
471540,"300 SW 17TH STREET","PENDLETON","OR",97801,45.6667740140001,-118.802736248,40,"300 SW 17TH STREET, PENDLETON, OR, 97801","Match","Exact","300 SW 17TH ST, PENDLETON, OR, 97801",637846749,"R"
471541,"300 SW 1ST STREET APT 3","POMPANO BEACH","FL",33060,NA,NA,41,"300 SW 1ST STREET APT 3, POMPANO BEACH, FL, 33060","Tie",NA,NA,NA,NA
471542,"300 SW 29TH TERRACE","FT LAUDERDALE","FL",33312,26.1179883190001,-80.183755236,42,"300 SW 29TH TERRACE, FT LAUDERDALE, FL, 33312","Match","Non_Exact","300 SW 29TH TER, FORT LAUDERDALE, FL, 33312",114710249,"L"
471543,"300 SW HORSEPLAY DR","OAK GROVE","MO",64075,39.0137546020001,-94.151501743,43,"300 SW HORSEPLAY DR, OAK GROVE, MO, 64075","Match","Non_Exact","300 SW HORSEPLAY ST, OAK GROVE, MO, 64075",91520460,"R"
471544,"300 SW LONGVIEW BLVD","LEE'S SUMMIT","MO",64081,38.9130168820001,-94.4506297839999,44,"300 SW LONGVIEW BLVD, LEE'S SUMMIT, MO, 64081","Match","Non_Exact","300 SW LONGVIEW BLVD, LEES SUMMIT, MO, 64081",617929708,"R"
471545,"300 SW RAILROAD AVE","HAMMOND","LA",70403,30.502003684,-90.4607862239999,45,"300 SW RAILROAD AVE, HAMMOND, LA, 70403","Match","Exact","300 SW RAILROAD AVE, HAMMOND, LA, 70403",75751860,"L"
471546,"300 SYCAMORE LANE","WOODSTOCK","GA",30188,34.08575218,-84.4851913109999,46,"300 SYCAMORE LANE, WOODSTOCK, GA, 30188","Match","Exact","300 SYCAMORE LN, WOODSTOCK, GA, 30188",617674449,"L"
471547,"300 TAIT CT","TROPHY CLUB","TX",76262,33.0073978090001,-97.1736427499999,47,"300 TAIT CT, TROPHY CLUB, TX, 76262","Match","Exact","300 TAIT CT, TROPHY CLUB, TX, 76262",641491706,"L"
471548,"300 TALL TREES RD","WARREN","PA",16365,41.862414239,-79.1405824249999,48,"300 TALL TREES RD, WARREN, PA, 16365","Match","Exact","300 TALL TREES RD, WARREN, PA, 16365",98678317,"R"
471549,"300 TAMI ROAD","RED FEATHER LAKES","CO",80545,40.8476690270001,-105.635656403,49,"300 TAMI ROAD, RED FEATHER LAKES, CO, 80545","Match","Exact","300 TAMI RD, RED FEATHER LAKES, CO, 80545",188545051,"R"
471550,"300 TAMI ROAD","RED FEATHER LAKES","OH",80545,NA,NA,50,"300 TAMI ROAD, RED FEATHER LAKES, OH, 80545","No_Match",NA,NA,NA,NA
471551,"300 TARNEYWOOD COURT","CHESAPEAKE","VA",23320,36.7399849700001,-76.280180828,51,"300 TARNEYWOOD COURT, CHESAPEAKE, VA, 23320","Match","Exact","300 TARNEYWOOD CT, CHESAPEAKE, VA, 23320",121781638,"L"
471552,"300 TAYSIDE WAY","HYATTSVILLE","MD",20785,38.8942224890001,-76.860344942,52,"300 TAYSIDE WAY, HYATTSVILLE, MD, 20785","Match","Exact","300 TAYSIDE WAY, HYATTSVILLE, MD, 20785",76353034,"L"
471553,"300 TEAL COURT","NEWBURGH","NY",12550,41.5244630760001,-74.0944991439999,53,"300 TEAL COURT, NEWBURGH, NY, 12550","Match","Exact","300 TEAL CT, NEWBURGH, NY, 12550",124496931,"R"
471554,"300 TEDSEN LANE","CRESCENT CITY","CA",95531,41.812941187,-124.165862044,54,"300 TEDSEN LANE, CRESCENT CITY, CA, 95531","Match","Exact","300 TEDSEN LN, CRESCENT CITY, CA, 95531",113162326,"L"
471555,"300 TENNESSEE AVENUE","MILL VALLEY","CA",94941,37.8791254860001,-122.530422469,55,"300 TENNESSEE AVENUE, MILL VALLEY, CA, 94941","Match","Exact","300 TENNESSEE AVE, MILL VALLEY, CA, 94941",192769502,"R"
471556,"300 TERRA NOVA CT","FRIENDSWOOD","TX",77546,29.5281105240001,-95.207171594,56,"300 TERRA NOVA CT, FRIENDSWOOD, TX, 77546","Match","Exact","300 TERRA NOVA CT, FRIENDSWOOD, TX, 77546",630406091,"L"
471557,"300 THE FENWAY","BOSTON","MA",2115,42.3391262660001,-71.0990582759999,57,"300 THE FENWAY, BOSTON, MA, 2115","Match","Exact","300 FENWAY, BOSTON, MA, 02115",85698768,"L"
471558,"300 THIRD ST","SPRINGFIELD","OH",45503,39.941796384,-83.802977443,58,"300 THIRD ST, SPRINGFIELD, OH, 45503","Match","Non_Exact","300 E 3RD ST, SPRINGFIELD, OH, 45503",135006729,"L"
471559,"300 THOMPSON PARK DRIVE","CRANBERRY","PA",16066,40.6977753840001,-80.113621661,59,"300 THOMPSON PARK DRIVE, CRANBERRY, PA, 16066","Match","Non_Exact","300 THOMPSON PARK DR, CRANBERRY TOWNSHIP, PA, 16066",52695459,"L"
471560,"300 THOMSON","MILES","TX",76861,31.6002195610001,-100.181062114,60,"300 THOMSON, MILES, TX, 76861","Match","Non_Exact","300 THOMSON ST, MILES, TX, 76861",129896331,"R"
471561,"300 THREE CROSSES","LAS CRUCES","NM",88005,32.3302305450001,-106.789078925,61,"300 THREE CROSSES, LAS CRUCES, NM, 88005","Match","Non_Exact","300 THREE CROSSES AVE, LAS CRUCES, NM, 88005",640129647,"R"
471562,"300 TIMBERDELL ROAD","NORMAN","OK",73019,NA,NA,62,"300 TIMBERDELL ROAD, NORMAN, OK, 73019","No_Match",NA,NA,NA,NA
471563,"300 TINGEY STREET SE","WASHINGTON","DC",20003,38.8749080060001,-77.001917335,63,"300 TINGEY STREET SE, WASHINGTON, DC, 20003","Match","Exact","300 TINGEY ST SE, WASHINGTON, DC, 20003",76239629,"L"
471564,"300 TOBEY RD","APALACHIN","NY",13732,42.061130114,-76.1125177449999,64,"300 TOBEY RD, APALACHIN, NY, 13732","Match","Exact","300 TOBEY RD, APALACHIN, NY, 13732",46710976,"R"
471565,"300 TR TRAIL","HOLLAND","MI",49424,42.807068074,-86.191540464,65,"300 TR TRAIL, HOLLAND, MI, 49424","Match","Exact","300 TR TRL, HOLLAND, MI, 49424",71094352,"R"
471566,"300 TRAIL RIDGE DRIVE","PARK HILLS","MO",63601,37.8555329260001,-90.544606808,66,"300 TRAIL RIDGE DRIVE, PARK HILLS, MO, 63601","Match","Exact","300 TRAIL RIDGE DR, PARK HILLS, MO, 63601",624188693,"L"
471567,"300 TRAILHOUSE LN 1113","FORNEY","TX",75126,32.7521532120001,-96.449046801,67,"300 TRAILHOUSE LN 1113, FORNEY, TX, 75126","Match","Exact","300 TRAILHOUSE LN, FORNEY, TX, 75126",614179243,"R"
471568,"300 TRAVIS ST","ROANOAKE","TX",76262,33.0009812160001,-97.226483119,68,"300 TRAVIS ST, ROANOAKE, TX, 76262","Match","Non_Exact","300 TRAVIS ST, ROANOKE, TX, 76262",103342180,"R"
471569,"300 TREGO AVE","COATESVILLE","PA",19320,39.9772845270001,-75.890189133,69,"300 TREGO AVE, COATESVILLE, PA, 19320","Match","Exact","300 TREGO AVE, COATESVILLE, PA, 19320",641735168,"L"
471570,"300 TREME STREET APT N","NEW ORLEANS","LA",70112,29.9586211390001,-90.072875218,70,"300 TREME STREET APT N, NEW ORLEANS, LA, 70112","Match","Exact","300 TREME ST, NEW ORLEANS, LA, 70112",650042785,"L"
471571,"300 TREMONT STREET","BARRE","VT",5641,44.1971867130001,-72.490303242,71,"300 TREMONT STREET, BARRE, VT, 5641","Match","Exact","300 TREMONT ST, BARRE, VT, 05641",136670528,"R"
471572,"300 TROIS LN","FREDERICKSBURG","TX",78624,NA,NA,72,"300 TROIS LN, FREDERICKSBURG, TX, 78624","No_Match",NA,NA,NA,NA
471573,"300 TURKEY CREEK ROAD","ATHENS","GA",30606,33.979180623,-83.457246783,73,"300 TURKEY CREEK ROAD, ATHENS, GA, 30606","Match","Exact","300 TURKEY CREEK RD, ATHENS, GA, 30606",4810583,"R"
471574,"300 TWIN OAKS","LAKEWOOD","NJ",8701,40.108144247,-74.199071093,74,"300 TWIN OAKS, LAKEWOOD, NJ, 8701","Match","Non_Exact","300 TWIN OAKS DR, LAKEWOOD, NJ, 08701",634225921,"L"
471575,"300 TWO LOGAN SQUARE","PHILADELPHIA","PA",19103,NA,NA,75,"300 TWO LOGAN SQUARE, PHILADELPHIA, PA, 19103","No_Match",NA,NA,NA,NA
471576,"300 UNION STREET SUITE A","SPARTANBURG","SC",29306,34.9470305290001,-81.9217725399999,76,"300 UNION STREET SUITE A, SPARTANBURG, SC, 29306","Match","Exact","300 UNION ST, SPARTANBURG, SC, 29306",19487155,"R"
471577,"300 UNIVERSITY AVE - APT 203","SYRACUSE","NY",13210,43.0476526570001,-76.134311039,77,"300 UNIVERSITY AVE - APT 203, SYRACUSE, NY, 13210","Match","Exact","300 UNIVERSITY AVE, SYRACUSE, NY, 13210",46571370,"R"
471578,"300 UNIVERSITY LANE APT 102","BATAVIA","OH",45103,39.080666287,-84.196231874,78,"300 UNIVERSITY LANE APT 102, BATAVIA, OH, 45103","Match","Exact","300 UNIVERSITY LN, BATAVIA, OH, 45103",638430342,"R"
471579,"300 UPHAM ST","80226","CO",80226,39.7210973410001,-105.078014278,79,"300 UPHAM ST, 80226, CO, 80226","Match","Non_Exact","300 UPHAM ST, LAKEWOOD, CO, 80226",177379288,"R"
471580,"300 US 24 HWY","TONGANOXIE","KS",66086,NA,NA,80,"300 US 24 HWY, TONGANOXIE, KS, 66086","No_Match",NA,NA,NA,NA
471581,"300 US 6","TRURO","MA",2666,42.0146188040001,-70.071104724,81,"300 US 6, TRURO, MA, 2666","Match","Non_Exact","300 US HWY 6, TRURO, MA, 02666",638469037,"L"
471582,"300 VALENCIA DRIVE","EXETER","CA",93221,36.3009951540001,-119.132194572,82,"300 VALENCIA DRIVE, EXETER, CA, 93221","Match","Exact","300 VALENCIA DR, EXETER, CA, 93221",202764252,"L"
471583,"300 VALLEY VIEW DR","SCHLESWIG","IA",51461,42.1592915910001,-95.434084107,83,"300 VALLEY VIEW DR, SCHLESWIG, IA, 51461","Match","Exact","300 VALLEY VIEW DR, SCHLESWIG, IA, 51461",82270840,"L"
471584,"300 VAN BUREN AVE NORTH","LAKEWOOD","NJ",8701,40.096086294,-74.248265434,84,"300 VAN BUREN AVE NORTH, LAKEWOOD, NJ, 8701","Match","Non_Exact","300 VAN BUREN AVE, LAKEWOOD, NJ, 08701",203719932,"L"
471585,"300 VAUGHN ROAD","TEMPLE","GA",30179,33.7066292110001,-85.061079922,85,"300 VAUGHN ROAD, TEMPLE, GA, 30179","Match","Exact","300 VAUGHN RD, TEMPLE, GA, 30179",17111319,"L"
471586,"300 VAUGHT ROAD","WINCHESTER","KY",40391,37.975943435,-84.1916305029999,86,"300 VAUGHT ROAD, WINCHESTER, KY, 40391","Match","Exact","300 VAUGHT RD, WINCHESTER, KY, 40391",31792643,"L"
471587,"300 VENETIAN WAY","DANVILLE","KY",40422,37.6583688950001,-84.804550849,87,"300 VENETIAN WAY, DANVILLE, KY, 40422","Match","Exact","300 VENETIAN WAY, DANVILLE, KY, 40422",32479143,"R"
471588,"300 VENUE WAY APT 3203","ALPHARETTA","GA",30005,34.1101770160001,-84.228407997,88,"300 VENUE WAY APT 3203, ALPHARETTA, GA, 30005","Match","Exact","300 VENUE WAY, ALPHARETTA, GA, 30005",646213407,"R"
471589,"300 VESTAVIA PARKWAY SUITE 2300","BIRMINGHAM","AL",35216,33.419348239,-86.800168529,89,"300 VESTAVIA PARKWAY SUITE 2300, BIRMINGHAM, AL, 35216","Match","Exact","300 VESTAVIA PKWY, BIRMINGHAM, AL, 35216",651801068,"L"
471590,"300 VIA CARISMA","BAKERSFIELD","CA",93309,35.352718258,-119.088325879,90,"300 VIA CARISMA, BAKERSFIELD, CA, 93309","Match","Exact","300 VIA CARISMA, BAKERSFIELD, CA, 93309",109084774,"L"
471591,"300 VIA ROYALE APT 302","JUPITER","FL",33458,26.911450555,-80.106349753,91,"300 VIA ROYALE APT 302, JUPITER, FL, 33458","Match","Exact","300 VIA ROYALE, JUPITER, FL, 33458",640256576,"L"
471592,"300 VILLAGE DRIVE UNIT 562","KING OF PRUSSIA","PA",19406,NA,NA,92,"300 VILLAGE DRIVE UNIT 562, KING OF PRUSSIA, PA, 19406","No_Match",NA,NA,NA,NA
471593,"300 VIVIAN DRIVE","LAFAYETTE","LA",70508,30.136703836,-92.009383849,93,"300 VIVIAN DRIVE, LAFAYETTE, LA, 70508","Match","Exact","300 VIVIAN DR, LAFAYETTE, LA, 70508",642025665,"R"
471594,"300 VUEMONT PL NE  / NUMBER D201","RENTON","WA",98056,47.486870466,-122.191698518,94,"300 VUEMONT PL NE  / NUMBER D201, RENTON, WA, 98056","Match","Exact","300 VUEMONT PL NE, RENTON, WA, 98056",239773678,"R"
471595,"300 VUEMONT PL NE/D201","RENTON","WA",98056,47.486870466,-122.191698518,95,"300 VUEMONT PL NE/D201, RENTON, WA, 98056","Match","Exact","300 VUEMONT PL NE, RENTON, WA, 98056",239773678,"R"
471596,"300 W 10TH STREET","TILDEN","NE",68781,42.0377719780001,-97.8367459519999,96,"300 W 10TH STREET, TILDEN, NE, 68781","Match","Exact","300 10TH ST, TILDEN, NE, 68781",161681468,"R"
471597,"300 W 111TH STREET SOUTH","JENKS","OK",74037,36.0028756400001,-95.992172376,97,"300 W 111TH STREET SOUTH, JENKS, OK, 74037","Match","Exact","300 W 111TH ST S, JENKS, OK, 74037",166474597,"R"
471598,"300 W 12TH ST APT 3H","NEW YORK","NY",10014,40.7375440490001,-74.0045293429999,98,"300 W 12TH ST APT 3H, NEW YORK, NY, 10014","Match","Non_Exact","300 W 12TH ST, NEW YORK, NY, 10014",59659827,"L"
471599,"300 W 145TH STREET","NEW YORK","NY",10039,40.822869697,-73.94199894,99,"300 W 145TH STREET, NEW YORK, NY, 10039","Match","Exact","300 W 145TH ST, NEW YORK, NY, 10039",59656283,"L"
471600,"300 W 21 ST","AUSTIN","TX",78712,30.283751238,-97.7408637079999,100,"300 W 21 ST, AUSTIN, TX, 78712","Match","Exact","300 W 21ST ST, AUSTIN, TX, 78712",63943229,"R"
471601,"300 W 22ND ST","YUMA","AZ",85364,NA,NA,101,"300 W 22ND ST, YUMA, AZ, 85364","Tie",NA,NA,NA,NA
471602,"300 W 23RD STREET","BALTIMORE","MD",21211,39.315131009,-76.620720551,102,"300 W 23RD STREET, BALTIMORE, MD, 21211","Match","Exact","300 W 23RD ST, BALTIMORE, MD, 21211",206416967,"R"
471603,"300 W 26TH STREET","MERCED","CA",95340,37.3093458280001,-120.475281668,103,"300 W 26TH STREET, MERCED, CA, 95340","Match","Exact","300 W 26TH ST, MERCED, CA, 95340",125281965,"L"
471604,"300 W 2ND AVENUE","CHEYENNE","WY",82001,41.147827582,-104.825420739,104,"300 W 2ND AVENUE, CHEYENNE, WY, 82001","Match","Exact","300 W 2ND AVE, CHEYENNE, WY, 82001",160149052,"R"
471605,"300 W 32ND ST APT 204","DURANGO","CO",81301,NA,NA,105,"300 W 32ND ST APT 204, DURANGO, CO, 81301","Tie",NA,NA,NA,NA
471606,"300 W 49TH ST APT 306","NEW YORK","NY",10019,40.7616897510001,-73.9866402819999,106,"300 W 49TH ST APT 306, NEW YORK, NY, 10019","Match","Non_Exact","300 W 49TH ST, NEW YORK, NY, 10019",650076113,"L"
471607,"300 W 53 6E","NY","NY",10019,NA,NA,107,"300 W 53 6E, NY, NY, 10019","No_Match",NA,NA,NA,NA
471608,"300 W 53RD AVE","GARY","IN",46410,41.522267728,-87.339259553,108,"300 W 53RD AVE, GARY, IN, 46410","Match","Exact","300 W 53RD AVE, GARY, IN, 46410",641169779,"R"
471609,"300 W 6TH STREET","SHEFFIELD","AL",35660,NA,NA,109,"300 W 6TH STREET, SHEFFIELD, AL, 35660","Tie",NA,NA,NA,NA
471610,"300 W ANDERSON STREET","MODALE","IA",51556,41.6217162720001,-96.0152688429999,110,"300 W ANDERSON STREET, MODALE, IA, 51556","Match","Exact","300 W ANDERSON ST, MODALE, IA, 51556",130984155,"L"
471611,"300 W APSLEY STREET 3RD FL","PHILADELPHIA","PA",19144,40.0216159510001,-75.165155231,111,"300 W APSLEY STREET 3RD FL, PHILADELPHIA, PA, 19144","Match","Non_Exact","300 W APSLEY ST, PHILADELPHIA, PA, 19144",131401585,"L"
471612,"300 W ARMOUR  APT 309","KANSAS","MO",64141,NA,NA,112,"300 W ARMOUR  APT 309, KANSAS, MO, 64141","No_Match",NA,NA,NA,NA
471613,"300 W AVE 26 UNIT 120","LOS ANGELES","CA",90031,NA,NA,113,"300 W AVE 26 UNIT 120, LOS ANGELES, CA, 90031","Tie",NA,NA,NA,NA
471614,"300 W BEECH ST","SAN DIEGO","CA",92101,NA,NA,114,"300 W BEECH ST, SAN DIEGO, CA, 92101","Tie",NA,NA,NA,NA
471615,"300 W BOWIE ST","MEXIA","TX",76667,31.678958274,-96.4879649969999,115,"300 W BOWIE ST, MEXIA, TX, 76667","Match","Exact","300 W BOWIE ST, MEXIA, TX, 76667",25049368,"L"
471616,"300 W BRENTWOOD","MARIETTA","OK",73448,NA,NA,116,"300 W BRENTWOOD, MARIETTA, OK, 73448","No_Match",NA,NA,NA,NA
471617,"300 W BROADWAY      STE 267","COUNCIL BLUFFS","IA",51503,NA,NA,117,"300 W BROADWAY      STE 267, COUNCIL BLUFFS, IA, 51503","Tie",NA,NA,NA,NA
471618,"300 W CINCINNATI ST","GREENUP","IL",62428,39.2445456390001,-88.165878484,118,"300 W CINCINNATI ST, GREENUP, IL, 62428","Match","Exact","300 W CINCINNATI ST, GREENUP, IL, 62428",5714310,"L"
471619,"300 W CLARENDON AVE STE 240","PHOENIX","AZ",85008,NA,NA,119,"300 W CLARENDON AVE STE 240, PHOENIX, AZ, 85008","No_Match",NA,NA,NA,NA
471620,"300 W CLARENDON AVE STE 240","PHOENIX","AZ",85013,33.4914724550001,-112.078247318,120,"300 W CLARENDON AVE STE 240, PHOENIX, AZ, 85013","Match","Non_Exact","300 W CLARENDON AVE, PHOENIX, AZ, 85013",128206337,"R"
471621,"300 W CROWELL ST","MONROE","NC",28112,34.983898363,-80.551368743,121,"300 W CROWELL ST, MONROE, NC, 28112","Match","Exact","300 W CROWELL ST, MONROE, NC, 28112",14173982,"L"
471622,"300 W DOUGLAS","WICHITA","KS",67202,37.68599476,-97.3406630489999,122,"300 W DOUGLAS, WICHITA, KS, 67202","Match","Non_Exact","300 W DOUGLAS AVE, WICHITA, KS, 67202",115635213,"R"
471623,"300 W DRAKE","FORT COLLINS","CO",80523,NA,NA,123,"300 W DRAKE, FORT COLLINS, CO, 80523","No_Match",NA,NA,NA,NA
471624,"300 W ELM ST STE 2119","CONSHOHOCKEN","PA",19428,NA,NA,124,"300 W ELM ST STE 2119, CONSHOHOCKEN, PA, 19428","Tie",NA,NA,NA,NA
471625,"300 W END AVE","NEPTUNE","NJ",7753,40.2163742770001,-74.057309607,125,"300 W END AVE, NEPTUNE, NJ, 7753","Match","Exact","300 W END AVE, NEPTUNE, NJ, 07753",90457595,"R"
471626,"300 W FAIRGROUND AVE","HILLSBORO","IL",62049,39.151576762,-89.494879022,126,"300 W FAIRGROUND AVE, HILLSBORO, IL, 62049","Match","Exact","300 W FAIRGROUND AVE, HILLSBORO, IL, 62049",99442135,"L"
471627,"300 W FRANKLIN ST    APT 1505W","RICHMOND","VA",23220,37.545527801,-77.446245096,127,"300 W FRANKLIN ST    APT 1505W, RICHMOND, VA, 23220","Match","Non_Exact","300 W FRANKLIN ST, RICHMOND, VA, 23220",201539113,"R"
471628,"300 W GLENOAKS BLVD","GLENDALE","CA",91202,34.159336082,-118.258261339,128,"300 W GLENOAKS BLVD, GLENDALE, CA, 91202","Match","Exact","300 W GLENOAKS BLVD, GLENDALE, CA, 91202",141608573,"L"
471629,"300 W GURLEY STREET","PRESCOTT","AZ",86301,34.5419306270001,-112.471580088,129,"300 W GURLEY STREET, PRESCOTT, AZ, 86301","Match","Exact","300 W GURLEY ST, PRESCOTT, AZ, 86301",159457092,"R"
471630,"300 W HARBORVIEW ROAD","SANTA ROSA BEACH","FL",32459,30.40529646,-86.31263761,130,"300 W HARBORVIEW ROAD, SANTA ROSA BEACH, FL, 32459","Match","Exact","300 W HARBORVIEW RD, SANTA ROSA BEACH, FL, 32459",650115032,"R"
471631,"300 W HARGETT STREET UNIT 615","RALEIGH","NC",27601,NA,NA,131,"300 W HARGETT STREET UNIT 615, RALEIGH, NC, 27601","Tie",NA,NA,NA,NA
471632,"300 W HARRIET STREET","ALTADENA","CA",91001,34.1922094290001,-118.155241455,132,"300 W HARRIET STREET, ALTADENA, CA, 91001","Match","Exact","300 W HARRIET ST, ALTADENA, CA, 91001",141627234,"L"
471633,"300 W HAWTHORNE RD","SPOKANE","WA",99251,47.7509772560001,-117.415158968,133,"300 W HAWTHORNE RD, SPOKANE, WA, 99251","Match","Exact","300 W HAWTHORNE RD, SPOKANE, WA, 99251",189868307,"R"
471634,"300 W HAWTHORNE ROAD","SPOKANE","WA",99251,47.7509772560001,-117.415158968,134,"300 W HAWTHORNE ROAD, SPOKANE, WA, 99251","Match","Exact","300 W HAWTHORNE RD, SPOKANE, WA, 99251",189868307,"R"
471635,"300 W HUNTINGTON ST","MONTPELIER","IN",47359,40.5533580200001,-85.2742749459999,135,"300 W HUNTINGTON ST, MONTPELIER, IN, 47359","Match","Non_Exact","300 E HUNTINGTON ST, MONTPELIER, IN, 47359",94930972,"L"
471636,"300 W HUTCHINSON","BEEVILLE","TX",78102,28.411904985,-97.756423099,136,"300 W HUTCHINSON, BEEVILLE, TX, 78102","Match","Non_Exact","300 W HUTCHINSON ST, BEEVILLE, TX, 78102",35612953,"L"
471637,"300 W IRVING AVE","ASTORIA","OR",97103,46.1845102440001,-123.850894769,137,"300 W IRVING AVE, ASTORIA, OR, 97103","Match","Exact","300 W IRVING AVE, ASTORIA, OR, 97103",159221693,"R"
471638,"300 W LAKE DR","KILL DEVIL HILLS","NC",27948,35.995724911,-75.650731628,138,"300 W LAKE DR, KILL DEVIL HILLS, NC, 27948","Match","Exact","300 W LAKE DR, KILL DEVIL HILLS, NC, 27948",81302461,"L"
471639,"300 W LINDEN","EDWARDSVILLE","IL",62025,38.806161096,-89.955863881,139,"300 W LINDEN, EDWARDSVILLE, IL, 62025","Match","Non_Exact","300 W LINDEN ST, EDWARDSVILLE, IL, 62025",107691359,"L"
471640,"300 W LOMBARD","BALTIMORE","MD",21201,NA,NA,140,"300 W LOMBARD, BALTIMORE, MD, 21201","No_Match",NA,NA,NA,NA
471641,"300 W MADISON ST","MOUNT AYR","IA",50854,40.7147993520001,-94.2401156189999,141,"300 W MADISON ST, MOUNT AYR, IA, 50854","Match","Exact","300 W MADISON ST, MOUNT AYR, IA, 50854",81402658,"R"
471642,"300 W MAIN","ALICE","TX",78332,NA,NA,142,"300 W MAIN, ALICE, TX, 78332","No_Match",NA,NA,NA,NA
471643,"300 W MERCURY","BUTTE","MT",59701,46.0109142540001,-112.540625564,143,"300 W MERCURY, BUTTE, MT, 59701","Match","Non_Exact","300 W MERCURY ST, BUTTE, MT, 59701",153586576,"R"
471644,"300 W NORRIS","LAA MONTE","MO",65337,38.767345934,-93.427206984,144,"300 W NORRIS, LAA MONTE, MO, 65337","Match","Non_Exact","300 W NORRIS AVE, LA MONTE, MO, 65337",54721632,"R"
471645,"300 W OCEAN BLVD APT 6910","LONG BEACH","CA",90802,NA,NA,145,"300 W OCEAN BLVD APT 6910, LONG BEACH, CA, 90802","Tie",NA,NA,NA,NA
471646,"300 W PALMS DR","MYRTLE BEACH","SC",29579,33.738115823,-78.877531881,146,"300 W PALMS DR, MYRTLE BEACH, SC, 29579","Match","Exact","300 W PALMS DR, MYRTLE BEACH, SC, 29579",628080400,"R"
471647,"300 W PERSHING BLVD 1561","NORTH LITTLE ROCK","AR",72114,34.7792622370001,-92.270708508,147,"300 W PERSHING BLVD 1561, NORTH LITTLE ROCK, AR, 72114","Match","Non_Exact","300 W PERSHING BLVD, N LITTLE ROCK, AR, 72114",83508298,"L"
471648,"300 W PINE STREET","MARENGO","IA",52301,41.7941684640001,-92.072977376,148,"300 W PINE STREET, MARENGO, IA, 52301","Match","Exact","300 W PINE ST, MARENGO, IA, 52301",84383667,"R"
471649,"300 W PLAZA DR SUITE 200","HIGHLANDS RANCH","CO",80129,39.5586185230001,-104.994745582,149,"300 W PLAZA DR SUITE 200, HIGHLANDS RANCH, CO, 80129","Match","Exact","300 PLAZA DR, HIGHLANDS RANCH, CO, 80129",130800015,"L"
471650,"300 W PRATT STREET","BALTIMORE","MD",21201,39.286317726,-76.619442722,150,"300 W PRATT STREET, BALTIMORE, MD, 21201","Match","Exact","300 W PRATT ST, BALTIMORE, MD, 21201",206465625,"R"
471651,"300 W REAGAN PKWY","MEDINA","OH",44256,41.1562782290001,-81.868560993,151,"300 W REAGAN PKWY, MEDINA, OH, 44256","Match","Exact","300 W REAGAN PKWY, MEDINA, OH, 44256",636550221,"L"
471652,"300 W SCENIC DR","THE DALLES","OR",97058,45.5928901400001,-121.197339801,152,"300 W SCENIC DR, THE DALLES, OR, 97058","Match","Exact","300 W SCENIC DR, THE DALLES, OR, 97058",653552442,"R"
471653,"300 W SEYMOUR AVE","CINCINNATI","OH",45216,39.195878641,-84.485529433,153,"300 W SEYMOUR AVE, CINCINNATI, OH, 45216","Match","Exact","300 W SEYMOUR AVE, CINCINNATI, OH, 45216",103972496,"R"
471654,"300 W SHERIDAN CIRCLE","WASILLA","AK",99654,NA,NA,154,"300 W SHERIDAN CIRCLE, WASILLA, AK, 99654","Tie",NA,NA,NA,NA
471655,"300 W SOUTH AVE  UNIT 248","WOODLAND PARK","CO",80863,38.9958926990001,-105.055838763,155,"300 W SOUTH AVE  UNIT 248, WOODLAND PARK, CO, 80863","Match","Non_Exact","300 W SOUTH AVE, WOODLAND PARK, CO, 80863",605749336,"L"
471656,"300 W SOUTH AVE PO BOX 803","WOODLAND PARK","CO",80866,38.996078443,-105.049362212,156,"300 W SOUTH AVE PO BOX 803, WOODLAND PARK, CO, 80866","Match","Non_Exact","300 E SOUTH AVE, WOODLAND PARK, CO, 80866",649804382,"L"
471657,"300 W SOUTH AVENUE 765","WOODLAND PARK","CO",80866,38.996078443,-105.049362212,157,"300 W SOUTH AVENUE 765, WOODLAND PARK, CO, 80866","Match","Non_Exact","300 E SOUTH AVE, WOODLAND PARK, CO, 80866",649804382,"L"
471658,"300 W SPRING ST- UNIT 1301","COLUMBUS","OH",43215,NA,NA,158,"300 W SPRING ST- UNIT 1301, COLUMBUS, OH, 43215","No_Match",NA,NA,NA,NA
471659,"300 W SPRING ST","WEATHERFORD","TX",76086,32.7605778160001,-97.8004988499999,159,"300 W SPRING ST, WEATHERFORD, TX, 76086","Match","Exact","300 W SPRING ST, WEATHERFORD, TX, 76086",103575871,"R"
471660,"300 W VALLEY BLVD F59","ALHAMBRA","CA",91803,34.078419566,-118.125641317,160,"300 W VALLEY BLVD F59, ALHAMBRA, CA, 91803","Match","Non_Exact","300 W VALLEY BLVD, ALHAMBRA, CA, 91803",141636696,"L"
471661,"300 W WALNUT ST","CLINTON","SC",29325,34.461905749,-81.882228971,161,"300 W WALNUT ST, CLINTON, SC, 29325","Match","Exact","300 W WALNUT ST, CLINTON, SC, 29325",44433388,"L"
471662,"300 W WINTERGREEN RD APT 218","DESOTO","TX",75115,NA,NA,162,"300 W WINTERGREEN RD APT 218, DESOTO, TX, 75115","Tie",NA,NA,NA,NA
471663,"300 W WINTON AVE","HAYWARD","CA",94544,37.6620996670001,-122.086708779,163,"300 W WINTON AVE, HAYWARD, CA, 94544","Match","Exact","300 WINTON AVE, HAYWARD, CA, 94544",125021287,"L"
471664,"300 WA NA PA STREET","CASCADE LOCKS","OR",97014,NA,NA,164,"300 WA NA PA STREET, CASCADE LOCKS, OR, 97014","No_Match",NA,NA,NA,NA
471665,"300 WALL BLVD APT 21D","GRETNA","LA",70056,29.882957124,-90.031678574,165,"300 WALL BLVD APT 21D, GRETNA, LA, 70056","Match","Exact","300 WALL BLVD, GRETNA, LA, 70056",93510989,"R"
471666,"300 WALL STREET UNIT 601","SAINT PAUL","MN",55101,44.948350276,-93.084364512,166,"300 WALL STREET UNIT 601, SAINT PAUL, MN, 55101","Match","Exact","300 WALL ST, SAINT PAUL, MN, 55101",97648746,"R"
471667,"300 WALNUT ST UNIT 56","DES MOINES","IA",50309,41.5866454040001,-93.621027607,167,"300 WALNUT ST UNIT 56, DES MOINES, IA, 50309","Match","Exact","300 WALNUT ST, DES MOINES, IA, 50309",65783056,"L"
471668,"300 WALNUT STREET","WINSLOW","IN",47598,38.381748003,-87.215244845,168,"300 WALNUT STREET, WINSLOW, IN, 47598","Match","Exact","300 WALNUT ST, WINSLOW, IN, 47598",32173341,"R"
471669,"300 WASHINGTON AVE SE - ROOM 126","MINNEAPOLIS","MN",55369,44.9736937540001,-93.235772716,169,"300 WASHINGTON AVE SE - ROOM 126, MINNEAPOLIS, MN, 55369","Match","Non_Exact","300 WASHINGTON AVE SE, MINNEAPOLIS, MN, 55455",43638269,"L"
471670,"300 WASHINGTON AVE SE - ROOM 126","MINNEAPOLIS","MN",55455,44.9736937540001,-93.235772716,170,"300 WASHINGTON AVE SE - ROOM 126, MINNEAPOLIS, MN, 55455","Match","Exact","300 WASHINGTON AVE SE, MINNEAPOLIS, MN, 55455",43638269,"L"
471671,"300 WASHINGTON AVE SE STE 126","MINNEAPOLIS","MN",55455,44.9736937540001,-93.235772716,171,"300 WASHINGTON AVE SE STE 126, MINNEAPOLIS, MN, 55455","Match","Exact","300 WASHINGTON AVE SE, MINNEAPOLIS, MN, 55455",43638269,"L"
471672,"300 Washington Ave SE","MINNEAPOLIS","MN",55455,44.9736937540001,-93.235772716,172,"300 Washington Ave SE, MINNEAPOLIS, MN, 55455","Match","Exact","300 WASHINGTON AVE SE, MINNEAPOLIS, MN, 55455",43638269,"L"
471673,"300 WASHINGTON AVE SE","MINNEAPOLIS","MN",55455,44.9736937540001,-93.235772716,173,"300 WASHINGTON AVE SE, MINNEAPOLIS, MN, 55455","Match","Exact","300 WASHINGTON AVE SE, MINNEAPOLIS, MN, 55455",43638269,"L"
471674,"300 WASHINGTON AVE","CHESTERTOWN","MD",21620,NA,NA,174,"300 WASHINGTON AVE, CHESTERTOWN, MD, 21620","No_Match",NA,NA,NA,NA
471675,"300 WASHINGTON AVE","MINNEAPOLIS","MN",55455,44.9736937540001,-93.235772716,175,"300 WASHINGTON AVE, MINNEAPOLIS, MN, 55455","Match","Non_Exact","300 WASHINGTON AVE SE, MINNEAPOLIS, MN, 55455",43638269,"L"
471676,"300 WASHINGTON STREET SUITE 308","MONROE","LA",71201,32.504282129,-92.117047042,176,"300 WASHINGTON STREET SUITE 308, MONROE, LA, 71201","Match","Exact","300 WASHINGTON ST, MONROE, LA, 71201",161084881,"R"
471677,"300 WASHINGTON STREET","MARION","AL",36756,NA,NA,177,"300 WASHINGTON STREET, MARION, AL, 36756","No_Match",NA,NA,NA,NA
471678,"300 WATERS EDGE DR","LANCASTER","PA",17602,40.004564831,-76.2914936069999,178,"300 WATERS EDGE DR, LANCASTER, PA, 17602","Match","Exact","300 WATERS EDGE DR, LANCASTER, PA, 17602",179696069,"R"
471679,"300 WEBB RD","SEQUIM","WA",98382,48.0732578650001,-123.231522977,179,"300 WEBB RD, SEQUIM, WA, 98382","Match","Exact","300 WEBB RD, SEQUIM, WA, 98382",150878160,"L"
471680,"300 WEDGEWOOD DRIVE","LINCOLN","NE",68510,40.8111121630001,-96.620902658,180,"300 WEDGEWOOD DRIVE, LINCOLN, NE, 68510","Match","Exact","300 WEDGEWOOD DR, LINCOLN, NE, 68510",28259906,"L"
471681,"300 WEGSTROM ST","HUTTO","TX",78634,30.5642222270001,-97.550831747,181,"300 WEGSTROM ST, HUTTO, TX, 78634","Match","Exact","300 WEGSTROM ST, HUTTO, TX, 78634",619974031,"R"
471682,"300 WESLEY AVE","VENTURA","CA",93003,34.2701069070001,-119.243887481,182,"300 WESLEY AVE, VENTURA, CA, 93003","Match","Exact","300 WESLEY AVE, VENTURA, CA, 93003",109952696,"L"
471683,"300 WEST 130TH STREET","BRUNSWICK","OH",44212,41.268440131,-81.785030553,183,"300 WEST 130TH STREET, BRUNSWICK, OH, 44212","Match","Exact","300 W 130TH ST, BRUNSWICK, OH, 44212",58686731,"R"
471684,"300 WEST 135TH STREET","NEW YORK","NY",10030,40.8165468890001,-73.946660384,184,"300 WEST 135TH STREET, NEW YORK, NY, 10030","Match","Exact","300 W 135TH ST, NEW YORK, NY, 10030",59656145,"L"
471685,"300 WEST 145TH STREET- APT 7C","NEW YORK","NY",10039,40.822869697,-73.94199894,185,"300 WEST 145TH STREET- APT 7C, NEW YORK, NY, 10039","Match","Non_Exact","300 W 145TH ST, NEW YORK, NY, 10039",59656283,"L"
471686,"300 WEST 145TH STREET","NEW YORK","NY",10039,40.822869697,-73.94199894,186,"300 WEST 145TH STREET, NEW YORK, NY, 10039","Match","Exact","300 W 145TH ST, NEW YORK, NY, 10039",59656283,"L"
471687,"300 WEST 27TH STREET","RIVERA BEACH","FL",33404,26.784364877,-80.059655522,187,"300 WEST 27TH STREET, RIVERA BEACH, FL, 33404","Match","Non_Exact","300 W 27TH ST, RIVIERA BEACH, FL, 33404",115522294,"R"
471688,"300 WEST 2ND NORTH STREET","SUMMERVILLE","SC",29483,33.0244481460001,-80.175955328,188,"300 WEST 2ND NORTH STREET, SUMMERVILLE, SC, 29483","Match","Exact","300 W 2ND NORTH ST, SUMMERVILLE, SC, 29483",178459803,"R"
471689,"300 WEST 2ND STREET NORTH","WRIGHT CITY","MO",63390,38.828614784,-91.022846348,189,"300 WEST 2ND STREET NORTH, WRIGHT CITY, MO, 63390","Match","Exact","300 W 2ND ST N, WRIGHT CITY, MO, 63390",90090643,"R"
471690,"300 WEST 3RD STREET","NORBORNE","MO",64668,39.300848654,-93.680276984,190,"300 WEST 3RD STREET, NORBORNE, MO, 64668","Match","Exact","300 W 3RD ST, NORBORNE, MO, 64668",645482398,"R"
471691,"300 WEST 49TH STREET SUITE 509","NEW YORK","NY",10019,40.7616897510001,-73.9866402819999,191,"300 WEST 49TH STREET SUITE 509, NEW YORK, NY, 10019","Match","Exact","300 W 49TH ST, NEW YORK, NY, 10019",650076113,"L"
471692,"300 WEST 53RD STREET 6E","NEW YORK","NY",10019,40.7642611860001,-73.984961722,192,"300 WEST 53RD STREET 6E, NEW YORK, NY, 10019","Match","Exact","300 W 53RD ST, NEW YORK, NY, 10019",59655238,"L"
471693,"300 WEST 55TH STREET APARTMENT 19B","NEW YORK","NY",10019,40.7654296690001,-73.983855246,193,"300 WEST 55TH STREET APARTMENT 19B, NEW YORK, NY, 10019","Match","Exact","300 W 55TH ST, NEW YORK, NY, 10019",650082066,"L"
471694,"300 WEST 72 STREET","NEW YORK","NY",10023,40.7798472490001,-73.984573228,194,"300 WEST 72 STREET, NEW YORK, NY, 10023","Match","Exact","300 W 72ND ST, NEW YORK, NY, 10023",59655099,"L"
471695,"300 WEST AHONEN ROAD PO BOX 878","PAULDEN","AZ",86334,34.924323126,-112.476269999,195,"300 WEST AHONEN ROAD PO BOX 878, PAULDEN, AZ, 86334","Match","Exact","300 W AHONEN RD, PAULDEN, AZ, 86334",636478886,"R"
471696,"300 WEST ALEXANDER STREET","LAFAYETTE","LA",70501,30.255674099,-92.0074761929999,196,"300 WEST ALEXANDER STREET, LAFAYETTE, LA, 70501","Match","Exact","300 W ALEXANDER ST, LAFAYETTE, LA, 70501",85615184,"R"
471697,"300 WEST AVENUE 37 APT 215","LOS ANGELES","CA",90065,34.0904747820001,-118.212893012,197,"300 WEST AVENUE 37 APT 215, LOS ANGELES, CA, 90065","Match","Exact","300 W AVE 37, LOS ANGELES, CA, 90065",641521845,"L"
471698,"300 WEST BEACON HILL","LAYFAYETTE","CO",80026,40.0097813250001,-105.095633004,198,"300 WEST BEACON HILL, LAYFAYETTE, CO, 80026","Match","Non_Exact","300 W BEACON HILL DR, LAFAYETTE, CO, 80026",188166832,"R"
471699,"300 WEST BRAODWAY SUITE 240","COUNCIL BLUFFS","IA",51503,41.2615577660001,-95.847231941,199,"300 WEST BRAODWAY SUITE 240, COUNCIL BLUFFS, IA, 51503","Match","Non_Exact","300 W BROADWAY, COUNCIL BLUFFS, IA, 51503",43901231,"R"
471700,"300 WEST COLEMAN BOULEVARD STE 106","MT PLEASANT","SC",29464,32.7975003550001,-79.890869746,200,"300 WEST COLEMAN BOULEVARD STE 106, MT PLEASANT, SC, 29464","Match","Exact","300 W COLEMAN BLVD, MOUNT PLEASANT, SC, 29464",108808330,"L"
471701,"300 WEST CONAN STREET","ELY","MN",55731,47.9005578360001,-91.872169475,201,"300 WEST CONAN STREET, ELY, MN, 55731","Match","Exact","300 W CONAN ST, ELY, MN, 55731",163228384,"L"
471702,"300 WEST DOUGLAS AVENUE","WICHITA","KS",67202,37.68599476,-97.3406630489999,202,"300 WEST DOUGLAS AVENUE, WICHITA, KS, 67202","Match","Exact","300 W DOUGLAS AVE, WICHITA, KS, 67202",115635213,"R"
471703,"300 WEST DRAKE ROAD","FORT COLLINS","CO",80525,40.552605579,-105.080047377,203,"300 WEST DRAKE ROAD, FORT COLLINS, CO, 80525","Match","Non_Exact","300 W DRAKE RD, FORT COLLINS, CO, 80526",188491411,"R"
471704,"300 WEST ELM STREET SUITE 2432","CONSHOHOCKEN","PA",19428,40.074347706,-75.309790044,204,"300 WEST ELM STREET SUITE 2432, CONSHOHOCKEN, PA, 19428","Match","Exact","300 W ELM ST, CONSHOHOCKEN, PA, 19428",639286209,"L"
471705,"300 WEST FRANKLIN ST","HAGERSTOWN","MD",21740,39.645775085,-77.7243787789999,205,"300 WEST FRANKLIN ST, HAGERSTOWN, MD, 21740","Match","Exact","300 W FRANKLIN ST, HAGERSTOWN, MD, 21740",635756463,"R"
471706,"300 WEST GLENOAKS BLVD 100","GLENDALE","CA",91202,34.159336082,-118.258261339,206,"300 WEST GLENOAKS BLVD 100, GLENDALE, CA, 91202","Match","Exact","300 W GLENOAKS BLVD, GLENDALE, CA, 91202",141608573,"L"
471707,"300 WEST GLENOAKS BLVD SUITE 100","GLENDALE","CA",91202,34.159336082,-118.258261339,207,"300 WEST GLENOAKS BLVD SUITE 100, GLENDALE, CA, 91202","Match","Exact","300 W GLENOAKS BLVD, GLENDALE, CA, 91202",141608573,"L"
471708,"300 WEST HARBORVIEW","SANTA ROSA BEACH","FL",32459,30.4052963950001,-86.312637605,208,"300 WEST HARBORVIEW, SANTA ROSA BEACH, FL, 32459","Match","Non_Exact","300 W HARBORVIEW RD, SANTA ROSA BEACH, FL, 32459",650115032,"R"
471709,"300 WEST LIBERTY STREET","SALISBURY","NC",28144,35.6710180800001,-80.469867375,209,"300 WEST LIBERTY STREET, SALISBURY, NC, 28144","Match","Exact","300 W LIBERTY ST, SALISBURY, NC, 28144",25268984,"R"
471710,"300 WEST MAIN STREET","ENTERPRISE","OR",97828,45.4255121620001,-117.280263588,210,"300 WEST MAIN STREET, ENTERPRISE, OR, 97828","Match","Exact","300 W MAIN ST, ENTERPRISE, OR, 97828",139009269,"R"
471711,"300 WEST MAIN STREET","HAGERSTOWN","IN",47346,39.910821593,-85.165238003,211,"300 WEST MAIN STREET, HAGERSTOWN, IN, 47346","Match","Exact","300 W MAIN ST, HAGERSTOWN, IN, 47346",31328857,"L"
471712,"300 WEST MIDVALE AVE APT 8","CHATTANOOGA","TN",37405,NA,NA,212,"300 WEST MIDVALE AVE APT 8, CHATTANOOGA, TN, 37405","No_Match",NA,NA,NA,NA
471713,"300 WEST MOCKINGBIRD LANE","AUSTIN","TX",78745,30.208577125,-97.775641548,213,"300 WEST MOCKINGBIRD LANE, AUSTIN, TX, 78745","Match","Exact","300 W MOCKINGBIRD LN, AUSTIN, TX, 78745",63944408,"R"
471714,"300 WEST NORRIS","LA MONTE","MO",65337,38.767345934,-93.427206984,214,"300 WEST NORRIS, LA MONTE, MO, 65337","Match","Non_Exact","300 W NORRIS AVE, LA MONTE, MO, 65337",54721632,"R"
471715,"300 WEST NORTH AVE 102","LOMPOC","CA",93436,34.653418292,-120.46055228,215,"300 WEST NORTH AVE 102, LOMPOC, CA, 93436","Match","Exact","300 W NORTH AVE, LOMPOC, CA, 93436",108598677,"R"
471716,"300 WEST OSCAR GONZALEZ","ELSA","TX",78543,26.299795068,-97.995496155,216,"300 WEST OSCAR GONZALEZ, ELSA, TX, 78543","Match","Exact","300 W OSCAR GONZALEZ, ELSA, TX, 78543",71479983,"R"
471717,"300 WEST PIER DRIVE","SAULT STE MARIE","MI",49783,46.5004503540001,-84.3656818109999,217,"300 WEST PIER DRIVE, SAULT STE MARIE, MI, 49783","Match","Non_Exact","300 W PIER DR, SAULT SAINTE MARIE, MI, 49783",646642464,"R"
471718,"300 WEST SHERMAN","CASEY","IA",50048,NA,NA,218,"300 WEST SHERMAN, CASEY, IA, 50048","No_Match",NA,NA,NA,NA
471719,"300 WEST STREET","HARRISON","NY",10528,40.9658557600001,-73.72863231,219,"300 WEST STREET, HARRISON, NY, 10528","Match","Exact","300 WEST ST, HARRISON, NY, 10528",139848165,"L"
471720,"300 WEST TEXAS","BAYTOWN","TX",77520,29.733077612,-94.9707463509999,220,"300 WEST TEXAS, BAYTOWN, TX, 77520","Match","Non_Exact","300 W TEXAS AVE, BAYTOWN, TX, 77520",96110678,"L"
471721,"300 WEST THIRTEEN MILE ROAD","MADISON HEIGHTS","MI",48071,42.519969342,-83.109908603,221,"300 WEST THIRTEEN MILE ROAD, MADISON HEIGHTS, MI, 48071","Match","Exact","300 W 13 MILE RD, MADISON HEIGHTS, MI, 48071",69744913,"R"
471722,"300 WEST VALLEY BLVD 442","ALHAMBRA","CA",91030,34.078419566,-118.125641317,222,"300 WEST VALLEY BLVD 442, ALHAMBRA, CA, 91030","Match","Non_Exact","300 W VALLEY BLVD, ALHAMBRA, CA, 91803",141636696,"L"
471723,"300 WEST WALNUT","BLYTHEVILLE","AR",72315,35.9285241650001,-89.9054266479999,223,"300 WEST WALNUT, BLYTHEVILLE, AR, 72315","Match","Non_Exact","300 W WALNUT ST, BLYTHEVILLE, AR, 72315",47218764,"R"
471724,"300 WEST WASHINGTON STREET","WINNSBORO","SC",29180,34.379605935,-81.08971772,224,"300 WEST WASHINGTON STREET, WINNSBORO, SC, 29180","Match","Exact","300 W WASHINGTON ST, WINNSBORO, SC, 29180",40608826,"L"
471725,"300 WESTBROOK DR","ARLINGTON","TX",76002,32.6206546980001,-97.111866242,225,"300 WESTBROOK DR, ARLINGTON, TX, 76002","Match","Exact","300 WESTBROOK DR, ARLINGTON, TX, 76002",101957005,"R"
471726,"300 WESTERN APT A9","LANSING","MI",48910,NA,NA,226,"300 WESTERN APT A9, LANSING, MI, 48910","No_Match",NA,NA,NA,NA
471727,"300 WESTERN AVE H714","LANSING","MI",48917,NA,NA,227,"300 WESTERN AVE H714, LANSING, MI, 48917","No_Match",NA,NA,NA,NA
471728,"300 WESTERN AVENUE APT J814","LANSING","MI",48917,NA,NA,228,"300 WESTERN AVENUE APT J814, LANSING, MI, 48917","No_Match",NA,NA,NA,NA
471729,"300 WESTGATE CENTER DRIVE","HADLEY","MA",1035,42.360287805,-72.542337474,229,"300 WESTGATE CENTER DRIVE, HADLEY, MA, 1035","Match","Exact","300 WESTGATE CENTER DR, HADLEY, MA, 01035",39870856,"R"
471730,"300 WESTGATE DR","PARK FOREST","IL",60466,41.4862071270001,-87.6937487759999,230,"300 WESTGATE DR, PARK FOREST, IL, 60466","Match","Exact","300 WESTGATE DR, PARK FOREST, IL, 60466",112217109,"R"
471731,"300 WESTLANE CIR","WACO","TX",76712,31.490604708,-97.23958638,231,"300 WESTLANE CIR, WACO, TX, 76712","Match","Exact","300 WESTLANE CIR, WACO, TX, 76712",146741498,"R"
471732,"300 WESTMINSTER STREET","PROVIDENCE","RI",2903,41.821871677,-71.414023764,232,"300 WESTMINSTER STREET, PROVIDENCE, RI, 2903","Match","Exact","300 WESTMINSTER ST, PROVIDENCE, RI, 02903",47465837,"L"
471733,"300 WESTMINSTER-CANTERBURY DR","WINCHESTER","VA",22603,39.202507778,-78.175042766,233,"300 WESTMINSTER-CANTERBURY DR, WINCHESTER, VA, 22603","Match","Non_Exact","300 WESTMINSTER CANTERBURY DR, WINCHESTER, VA, 22603",55607058,"R"
471734,"300 WESTRIDGE DR","PORTOLA VALLEY","CA",94028,37.3916906310001,-122.197003644,234,"300 WESTRIDGE DR, PORTOLA VALLEY, CA, 94028","Match","Exact","300 WESTRIDGE DR, PORTOLA VALLEY, CA, 94028",192365959,"R"
471735,"300 WETZEL ROAD","GLENSHAW","PA",15116,40.523901326,-79.968876687,235,"300 WETZEL ROAD, GLENSHAW, PA, 15116","Match","Exact","300 WETZEL RD, GLENSHAW, PA, 15116",51715306,"R"
471736,"300 WHEATFIELD CIRCLE","BRENTWOOD","TN",37027,36.005788341,-86.787224457,236,"300 WHEATFIELD CIRCLE, BRENTWOOD, TN, 37027","Match","Exact","300 WHEATFIELD CIR, BRENTWOOD, TN, 37027",643555770,"R"
471737,"300 WHISPERING LANE","HASTINGS","MN",55033,44.7441193550001,-92.8820008339999,237,"300 WHISPERING LANE, HASTINGS, MN, 55033","Match","Exact","300 WHISPERING LN, HASTINGS, MN, 55033",37918320,"L"
471738,"300 WHITE BASS DR","LAKEHILLS","TX",78063,29.5764432490001,-98.921977573,238,"300 WHITE BASS DR, LAKEHILLS, TX, 78063","Match","Exact","300 WHITE BASS DR, LAKEHILLS, TX, 78063",102710581,"L"
471739,"300 WHITE BASS DRIVE","LAKEHILLS","TX",78063,29.5764432490001,-98.921977573,239,"300 WHITE BASS DRIVE, LAKEHILLS, TX, 78063","Match","Exact","300 WHITE BASS DR, LAKEHILLS, TX, 78063",102710581,"L"
471740,"300 WILKES ROAD","COLUMBIA","SC",29203,34.0614850270001,-80.9964630599999,240,"300 WILKES ROAD, COLUMBIA, SC, 29203","Match","Exact","300 WILKES RD, COLUMBIA, SC, 29203",71822800,"L"
471741,"300 WILLIAMS STREET","BOONEVILLE","MS",38829,34.663180863,-88.562616668,241,"300 WILLIAMS STREET, BOONEVILLE, MS, 38829","Match","Exact","300 WILLIAMS ST, BOONEVILLE, MS, 38829",91014753,"L"
471742,"300 WILLOW LAKE DRIVE","PADUCAH","KY",42003,37.0022335200001,-88.517900787,242,"300 WILLOW LAKE DRIVE, PADUCAH, KY, 42003","Match","Exact","300 WILLOW LAKE DR, PADUCAH, KY, 42003",617948245,"R"
471743,"300 WILLOW WOOD LN","DESOTO","TX",75115,32.587834436,-96.851774473,243,"300 WILLOW WOOD LN, DESOTO, TX, 75115","Match","Exact","300 WILLOW WOOD LN, DESOTO, TX, 75115",102953993,"R"
471744,"300 WILSON AVENUE","GLASSBORO","NJ",8028,39.7128813480001,-75.1164526319999,244,"300 WILSON AVENUE, GLASSBORO, NJ, 8028","Match","Exact","300 WILSON AVE, GLASSBORO, NJ, 08028",134588541,"L"
471745,"300 WILSON RD BLD 800","GRIFFIN","GA",30224,NA,NA,245,"300 WILSON RD BLD 800, GRIFFIN, GA, 30224","No_Match",NA,NA,NA,NA
471746,"300 WILSON RD BLDG 800","GRIFFIN","GA",30224,NA,NA,246,"300 WILSON RD BLDG 800, GRIFFIN, GA, 30224","No_Match",NA,NA,NA,NA
471747,"300 WINCHESTER ROAD","SHADY VALLEY","TN",37688,36.5293661170001,-81.935559445,247,"300 WINCHESTER ROAD, SHADY VALLEY, TN, 37688","Match","Exact","300 WINCHESTER RD, SHADY VALLEY, TN, 37688",612561355,"R"
471748,"300 WINDSTONE LANE","CHELSEA","AL",28269,33.319434657,-86.6668155409999,248,"300 WINDSTONE LANE, CHELSEA, AL, 28269","Match","Non_Exact","300 WINDSTONE LN, CHELSEA, AL, 35043",82108962,"R"
471749,"300 WINDSTONE LANE","CHELSEA","AL",35043,33.319434657,-86.6668155409999,249,"300 WINDSTONE LANE, CHELSEA, AL, 35043","Match","Exact","300 WINDSTONE LN, CHELSEA, AL, 35043",82108962,"R"
471750,"300 WINSTON DRIVE - APT 1621","CLIFFSIDE PARK","NJ",7010,40.8281658600001,-73.980498601,250,"300 WINSTON DRIVE - APT 1621, CLIFFSIDE PARK, NJ, 7010","Match","Exact","300 WINSTON DR, CLIFFSIDE PARK, NJ, 07010",612223313,"R"
471751,"300 WINSTON DRIVE APT 1122","CLIFFSIDE PARK","NJ",7010,40.8281658600001,-73.980498601,251,"300 WINSTON DRIVE APT 1122, CLIFFSIDE PARK, NJ, 7010","Match","Exact","300 WINSTON DR, CLIFFSIDE PARK, NJ, 07010",612223313,"R"
471752,"300 WINSTON DRIVE NUMBER 712","CLIFFSIDE PARK","NJ",7010,40.8281658600001,-73.980498601,252,"300 WINSTON DRIVE NUMBER 712, CLIFFSIDE PARK, NJ, 7010","Match","Exact","300 WINSTON DR, CLIFFSIDE PARK, NJ, 07010",612223313,"R"
471753,"300 WINSTON DRIVE STE 2906","CLIFFSIDE","NM",7010,NA,NA,253,"300 WINSTON DRIVE STE 2906, CLIFFSIDE, NM, 7010","No_Match",NA,NA,NA,NA
471754,"300 WOERNER RD   APT 2165","HOUSTON","TX",77090,30.0237870190001,-95.4723710499999,254,"300 WOERNER RD   APT 2165, HOUSTON, TX, 77090","Match","Exact","300 WOERNER RD, HOUSTON, TX, 77090",649126169,"R"
471755,"300 WOOD ST","NEWFIELD","NJ",8344,39.5526943890001,-75.017992368,255,"300 WOOD ST, NEWFIELD, NJ, 8344","Match","Exact","300 WOOD ST, NEWFIELD, NJ, 08344",134578728,"R"
471756,"300 WOODCREST LANE UNIT 308","MOUNT KISCO","NY",10549,41.197791055,-73.721205552,256,"300 WOODCREST LANE UNIT 308, MOUNT KISCO, NY, 10549","Match","Exact","300 WOODCREST LN, MOUNT KISCO, NY, 10549",633944834,"L"
471757,"300 WOODHAVEN DRIVE","POLK CITY","IA",50226,NA,NA,257,"300 WOODHAVEN DRIVE, POLK CITY, IA, 50226","No_Match",NA,NA,NA,NA
471758,"300 WOODLAND ROAD","ROCKVILLE","MD",20850,39.087475146,-77.144693392,258,"300 WOODLAND ROAD, ROCKVILLE, MD, 20850","Match","Exact","300 WOODLAND RD, ROCKVILLE, MD, 20850",62054951,"L"
471759,"300 WOODLAWN DRIVE","LEADINGTON","MO",63601,37.839223191,-90.488968834,259,"300 WOODLAWN DRIVE, LEADINGTON, MO, 63601","Match","Exact","300 WOODLAWN DR, LEADINGTON, MO, 63601",638294516,"L"
471760,"300 WOODLAWN","PARK HILLS","MO",63601,37.839223191,-90.488968834,260,"300 WOODLAWN, PARK HILLS, MO, 63601","Match","Non_Exact","300 WOODLAWN DR, PARK HILLS, MO, 63601",638294516,"L"
471761,"300 WOODSEDGE LN","FELTON","DE",NA,39.0123595840001,-75.5819818849999,261,"300 WOODSEDGE LN, FELTON, DE, ","Match","Exact","300 WOODSEDGE LN, FELTON, DE, 19943",636202891,"R"
471762,"300 WOODSIDE DR","HAMPTON","VA",23669,37.0466521320001,-76.328719249,262,"300 WOODSIDE DR, HAMPTON, VA, 23669","Match","Exact","300 WOODSIDE DR, HAMPTON, VA, 23669",103759736,"R"
471763,"300 WOODSIDE DRIVE","HAMPTON","VA",23669,37.0466521320001,-76.328719249,263,"300 WOODSIDE DRIVE, HAMPTON, VA, 23669","Match","Exact","300 WOODSIDE DR, HAMPTON, VA, 23669",103759736,"R"
471764,"300 WOODVIEW COURT","TOMS RIVER","NJ",8755,40.015831823,-74.2109713089999,264,"300 WOODVIEW COURT, TOMS RIVER, NJ, 8755","Match","Exact","300 WOODVIEW CT, TOMS RIVER, NJ, 08755",203725840,"L"
471765,"300 WOODVIEW WAY NO 321","WATERTOWN","MA",2472,42.3702614900001,-71.2090059989999,265,"300 WOODVIEW WAY NO 321, WATERTOWN, MA, 2472","Match","Non_Exact","300 WOODVIEW WAY, WATERTOWN, MA, 02472",646837133,"R"
471766,"300 WYE POINT FARM","QUEENSTOWN","MD",21658,NA,NA,266,"300 WYE POINT FARM, QUEENSTOWN, MD, 21658","No_Match",NA,NA,NA,NA
471767,"300 WYNDHAM CIRCLE APT G","OWINGS MILLS","MD",21117,39.423010429,-76.7903154689999,267,"300 WYNDHAM CIRCLE APT G, OWINGS MILLS, MD, 21117","Match","Exact","300 WYNDHAM CIR, OWINGS MILLS, MD, 21117",632189030,"R"
471768,"300 WYNLAKE DR","ALABASTER","AL",35007,33.185453044,-86.833347734,268,"300 WYNLAKE DR, ALABASTER, AL, 35007","Match","Exact","300 WYNLAKE DR, ALABASTER, AL, 35007",82114113,"R"
471769,"300 YEAGER BLVD","EDWARDS","CA",93523,NA,NA,269,"300 YEAGER BLVD, EDWARDS, CA, 93523","No_Match",NA,NA,NA,NA
471770,"300 YOAKUM","ALEXANDRIA","VA",22304,38.81045398,-77.139323406,270,"300 YOAKUM, ALEXANDRIA, VA, 22304","Match","Non_Exact","300 YOAKUM PKWY, ALEXANDRIA, VA, 22304",650108158,"L"
471771,"300 YORK ST APT 8","PAWTUCKET","RI",2860,41.867927642,-71.3648468549999,271,"300 YORK ST APT 8, PAWTUCKET, RI, 2860","Match","Non_Exact","300 YORK AVE, PAWTUCKET, RI, 02860",47504999,"L"
471772,"300 YORKTOWN PLAZA","ELKINS PARK","PA",19027,NA,NA,272,"300 YORKTOWN PLAZA, ELKINS PARK, PA, 19027","No_Match",NA,NA,NA,NA
471773,"300-108 CARLSBAD VILLAGE DR 165","CARLSBAD","CA",92008,33.15829992,-117.350897005,273,"300-108 CARLSBAD VILLAGE DR 165, CARLSBAD, CA, 92008","Match","Exact","300 CARLSBAD VILLAGE DR, CARLSBAD, CA, 92008",195290336,"L"
471774,"300-2 MAIN ST","MT AIRY","MD",21771,NA,NA,274,"300-2 MAIN ST, MT AIRY, MD, 21771","Tie",NA,NA,NA,NA
471775,"300-2 MCCOMBS RD PMB 206","CHAPARRAL","NM",88081,32.0167073040001,-106.409104458,275,"300-2 MCCOMBS RD PMB 206, CHAPARRAL, NM, 88081","Match","Exact","300 MCCOMBS RD, CHAPARRAL, NM, 88081",612739325,"L"
471776,"300-A HARRIS ST","BRECKENRIDGE","CO",80424,39.479843487,-106.042249194,276,"300-A HARRIS ST, BRECKENRIDGE, CO, 80424","Match","Non_Exact","300 S HARRIS ST, BRECKENRIDGE, CO, 80424",106060386,"L"
471777,"300-A LEE DRIVE","ATLANTIC BEACH","NC",28512,34.7007360210001,-76.77755201,277,"300-A LEE DRIVE, ATLANTIC BEACH, NC, 28512","Match","Exact","300 LEE DR, ATLANTIC BCH, NC, 28512",33860694,"R"
471778,"300-B ACADEMY DRIVE","AUSTIN","TX",78704,30.251979733,-97.745068719,278,"300-B ACADEMY DRIVE, AUSTIN, TX, 78704","Match","Exact","300 ACADEMY DR, AUSTIN, TX, 78704",63944911,"L"
471779,"300","BOISE","ID",83705,NA,NA,279,"300, BOISE, ID, 83705","No_Match",NA,NA,NA,NA
471780,"300","HOLLY","MI",48442,NA,NA,280,"300, HOLLY, MI, 48442","No_Match",NA,NA,NA,NA
471781,"300","MIAMI","FL",33169,NA,NA,281,"300, MIAMI, FL, 33169","No_Match",NA,NA,NA,NA
471782,"300","MOUNT DORA","FL",32757,NA,NA,282,"300, MOUNT DORA, FL, 32757","No_Match",NA,NA,NA,NA
471783,"300","VALLEJO","CA",94591,NA,NA,283,"300, VALLEJO, CA, 94591","No_Match",NA,NA,NA,NA
471784,"3000 1ST AVENUE","RICHMOND","VA",23222,37.571085318,-77.41877734,284,"3000 1ST AVENUE, RICHMOND, VA, 23222","Match","Exact","3000 1ST AVE, RICHMOND, VA, 23222",201540090,"L"
471785,"3000 1ST STREET APT 1A","BAY CITY","TX",77414,28.9770517100001,-95.953857822,285,"3000 1ST STREET APT 1A, BAY CITY, TX, 77414","Match","Exact","3000 1ST ST, BAY CITY, TX, 77414",83279267,"L"
471786,"3000 1ST STREET","FORT-WORTH","TX",76127,NA,NA,286,"3000 1ST STREET, FORT-WORTH, TX, 76127","No_Match",NA,NA,NA,NA
471787,"3000 1ST-STREET","FORT-WORTH","TX",76127,NA,NA,287,"3000 1ST-STREET, FORT-WORTH, TX, 76127","No_Match",NA,NA,NA,NA
471788,"3000 49TH TERRACE SO","ST. PETERSBURG","FL",33712,27.723415233,-82.673074033,288,"3000 49TH TERRACE SO, ST. PETERSBURG, FL, 33712","Match","Exact","3000 49TH TER S, SAINT PETERSBURG, FL, 33712",645848192,"R"
471789,"3000 4TH STREET","VERO BEACH","FL",32968,27.609106657,-80.4177061249999,289,"3000 4TH STREET, VERO BEACH, FL, 32968","Match","Exact","3000 4TH ST, VERO BEACH, FL, 32968",120310916,"R"
471790,"3000 6TH AVENUE","FORT WORTH","TX",76110,32.7076708480001,-97.340526454,290,"3000 6TH AVENUE, FORT WORTH, TX, 76110","Match","Exact","3000 6TH AVE, FORT WORTH, TX, 76110",101887457,"R"
471791,"3000 70TH LANE N APT 101","ST PETERSBURG","FL",33710,27.7991708530001,-82.7358844839999,291,"3000 70TH LANE N APT 101, ST PETERSBURG, FL, 33710","Match","Exact","3000 70TH LN N, SAINT PETERSBURG, FL, 33710",124697922,"L"
471792,"3000 7TH STREET NE APT 324","WASHINGTON","DC",20017,38.9275027240001,-76.9961807299999,292,"3000 7TH STREET NE APT 324, WASHINGTON, DC, 20017","Match","Exact","3000 7TH ST NE, WASHINGTON, DC, 20017",76228513,"L"
471793,"3000 7TH STREET NUMBER 104","WASHINGTON","DC",20017,38.9275027240001,-76.9961807299999,293,"3000 7TH STREET NUMBER 104, WASHINGTON, DC, 20017","Match","Non_Exact","3000 7TH ST NE, WASHINGTON, DC, 20017",76228513,"L"
471794,"3000 ABITARE BLVD","VOORHEES","NJ",8043,39.8526345120001,-75.000648079,294,"3000 ABITARE BLVD, VOORHEES, NJ, 8043","Match","Exact","3000 ABITARE BLVD, VOORHEES, NJ, 08043",651392715,"L"
471795,"3000 ADAMS BLVD APT9","GREENVILLE","NC",27858,35.592546014,-77.3428504509999,295,"3000 ADAMS BLVD APT9, GREENVILLE, NC, 27858","Match","Exact","3000 ADAMS BLVD, GREENVILLE, NC, 27858",80016756,"L"
471796,"3000 ALLEN ROAD","EFFINGHAM","SC",29541,34.041307196,-79.6960735009999,296,"3000 ALLEN ROAD, EFFINGHAM, SC, 29541","Match","Exact","3000 ALLEN RD, EFFINGHAM, SC, 29541",28895030,"L"
471797,"3000 AMES CROSSING ROAD","EAGAN","MN",55121,44.8498636950001,-93.1091626639999,297,"3000 AMES CROSSING ROAD, EAGAN, MN, 55121","Match","Exact","3000 AMES CROSSING RD, EAGAN, MN, 55121",635581736,"L"
471798,"3000 APACHE DRIVE","Columbus","GA",31906,32.528105431,-84.942182639,298,"3000 APACHE DRIVE, Columbus, GA, 31906","Match","Non_Exact","3000 APACHE DR, COLUMBUS, GA, 31909",98936669,"R"
471799,"3000 APPALOOSA BLVD","MELBOURNE","FL",32934,28.1557423020001,-80.71494567,299,"3000 APPALOOSA BLVD, MELBOURNE, FL, 32934","Match","Exact","3000 APPALOOSA BLVD, MELBOURNE, FL, 32934",93895560,"R"
471800,"3000 ARLINGTON AVENUE","TOLEDO","OH",43614,41.6193108570001,-83.6210819189999,300,"3000 ARLINGTON AVENUE, TOLEDO, OH, 43614","Match","Exact","3000 ARLINGTON AVE, TOLEDO, OH, 43614",33960517,"R"
471801,"3000 ARTESSA CIRCLE APT 3414","FRANKLIIN","TN",37067,35.9382138920001,-86.8343470039999,301,"3000 ARTESSA CIRCLE APT 3414, FRANKLIIN, TN, 37067","Match","Non_Exact","3000 ARTESSA CIR, FRANKLIN, TN, 37067",649144281,"R"
471802,"3000 ATRIUM WAY","MT LAUREL","NJ",8054,39.918661801,-74.948817102,302,"3000 ATRIUM WAY, MT LAUREL, NJ, 8054","Match","Exact","3000 ATRIUM WAY, MOUNT LAUREL, NJ, 08054",134061570,"R"
471803,"3000 BADGER TRAIL ROAD","ODESSA","TX",79762,NA,NA,303,"3000 BADGER TRAIL ROAD, ODESSA, TX, 79762","No_Match",NA,NA,NA,NA
471804,"3000 BADGER TRAIL ROAD","ODESSA","TX",79766,NA,NA,304,"3000 BADGER TRAIL ROAD, ODESSA, TX, 79766","No_Match",NA,NA,NA,NA
471805,"3000 BARKWOOD DRIVE","MCKINNEY","TX",75071,33.2406212590001,-96.6841073159999,305,"3000 BARKWOOD DRIVE, MCKINNEY, TX, 75071","Match","Exact","3000 BARKWOOD DR, MCKINNEY, TX, 75071",625047888,"L"
471806,"3000 BARNACK ROAD","MIDLOTHIAN","VA",23112,37.4532300700001,-77.608222427,306,"3000 BARNACK ROAD, MIDLOTHIAN, VA, 23112","Match","Exact","3000 BARNACK RD, MIDLOTHIAN, VA, 23112",626966502,"L"
471807,"3000 BARRON AVE","MEMPHIS","TN",38114,35.100613733,-89.963571052,307,"3000 BARRON AVE, MEMPHIS, TN, 38114","Match","Exact","3000 BARRON AVE, MEMPHIS, TN, 38114",72918283,"L"
471808,"3000 BAYSIDE APT 204","PALATINE","IL",60074,NA,NA,308,"3000 BAYSIDE APT 204, PALATINE, IL, 60074","No_Match",NA,NA,NA,NA
471809,"3000 BAYSIDE DR UNIT 211","PALATINE","IL",60074,NA,NA,309,"3000 BAYSIDE DR UNIT 211, PALATINE, IL, 60074","No_Match",NA,NA,NA,NA
471810,"3000 BEDFORD DRIVE","MERCED","CA",95348,37.3161140030001,-120.447155595,310,"3000 BEDFORD DRIVE, MERCED, CA, 95348","Match","Non_Exact","3000 BEDFORD DR, MERCED, CA, 95340",125310014,"R"
471811,"3000 BELLMORE AVE","BELLMORE","NY",11710,40.648803087,-73.521870587,311,"3000 BELLMORE AVE, BELLMORE, NY, 11710","Match","Exact","3000 BELLMORE AVE, BELLMORE, NY, 11710",147653507,"R"
471812,"3000 BELLMORE AVENUE","BELLMORE","NY",11710,40.648803087,-73.521870587,312,"3000 BELLMORE AVENUE, BELLMORE, NY, 11710","Match","Exact","3000 BELLMORE AVE, BELLMORE, NY, 11710",147653507,"R"
471813,"3000 BLACKBURN ST 606","DALLAS","TX",75204,32.8080146660001,-96.7948910549999,313,"3000 BLACKBURN ST 606, DALLAS, TX, 75204","Match","Exact","3000 BLACKBURN ST, DALLAS, TX, 75204",648443516,"R"
471814,"3000 BLACKBURN ST 703","DALLAS","TX",75204,32.8080146660001,-96.7948910549999,314,"3000 BLACKBURN ST 703, DALLAS, TX, 75204","Match","Exact","3000 BLACKBURN ST, DALLAS, TX, 75204",648443516,"R"
471815,"3000 BLACKBURN STREET APT 2406","DALLAS","TX",75204,32.8080146660001,-96.7948910549999,315,"3000 BLACKBURN STREET APT 2406, DALLAS, TX, 75204","Match","Exact","3000 BLACKBURN ST, DALLAS, TX, 75204",648443516,"R"
471816,"3000 BLACKBURN STREET SUITE 1701","DALLAS","TX",75204,32.8080146660001,-96.7948910549999,316,"3000 BLACKBURN STREET SUITE 1701, DALLAS, TX, 75204","Match","Exact","3000 BLACKBURN ST, DALLAS, TX, 75204",648443516,"R"
471817,"3000 BLACKBURN STREET SUITE 2318","DALLAS","TX",75204,32.8080146660001,-96.7948910549999,317,"3000 BLACKBURN STREET SUITE 2318, DALLAS, TX, 75204","Match","Exact","3000 BLACKBURN ST, DALLAS, TX, 75204",648443516,"R"
471818,"3000 BLACKBURN STREET","DALLAS","TX",75204,32.8080146660001,-96.7948910549999,318,"3000 BLACKBURN STREET, DALLAS, TX, 75204","Match","Exact","3000 BLACKBURN ST, DALLAS, TX, 75204",648443516,"R"
471819,"3000 BLACKBURN","FORT SMITH","AR",72903,35.3799903870001,-94.39930606,319,"3000 BLACKBURN, FORT SMITH, AR, 72903","Match","Non_Exact","3000 BLACKBURN ST, FORT SMITH, AR, 72903",56163196,"R"
471820,"3000 BRUESK ROAD","DUBUQUE","IA",52001,42.528004954,-90.715297795,320,"3000 BRUESK ROAD, DUBUQUE, IA, 52001","Match","Non_Exact","3000 BRUECK RD, DUBUQUE, IA, 52001",16906899,"R"
471821,"3000 CACTUS DRIVE","EDMOND","OK",73013,35.6277328420001,-97.431769397,321,"3000 CACTUS DRIVE, EDMOND, OK, 73013","Match","Exact","3000 CACTUS DR, EDMOND, OK, 73013",100411212,"L"
471822,"3000 CAIN HARVEST COVE","AUSTIN","TX",78754,30.3627545620001,-97.6436316959999,322,"3000 CAIN HARVEST COVE, AUSTIN, TX, 78754","Match","Exact","3000 CAIN HARVEST COVE, AUSTIN, TX, 78754",614178964,"L"
471823,"3000 CALIFORNIA AVE SW","SEATTLE","WA",98116,47.577018658,-122.386702,323,"3000 CALIFORNIA AVE SW, SEATTLE, WA, 98116","Match","Exact","3000 CALIFORNIA AVE SW, SEATTLE, WA, 98116",187017381,"L"
471824,"3000 CAMPUS HILL DRIVE","LIVERMORE","CA",94551,37.710730659,-121.796207838,324,"3000 CAMPUS HILL DRIVE, LIVERMORE, CA, 94551","Match","Exact","3000 CAMPUS HILL DR, LIVERMORE, CA, 94551",635919037,"R"
471825,"3000 CARMEL ROAD","MILLVILLE","NJ",8332,39.4259392660001,-75.10712297,325,"3000 CARMEL ROAD, MILLVILLE, NJ, 8332","Match","Exact","3000 CARMEL RD, MILLVILLE, NJ, 08332",623996383,"L"
471826,"3000 CATAMARAN CV","VILLA RICA","GA",30180,33.740270045,-84.89795242,326,"3000 CATAMARAN CV, VILLA RICA, GA, 30180","Match","Exact","3000 CATAMARAN COVE, VILLA RICA, GA, 30180",16661441,"L"
471827,"3000 CATNIP","EL PASO","TX",79936,NA,NA,327,"3000 CATNIP, EL PASO, TX, 79936","No_Match",NA,NA,NA,NA
471828,"3000 CENTRAL BLVD SUITE 1","BROWNSVILLE","TX",78520,NA,NA,328,"3000 CENTRAL BLVD SUITE 1, BROWNSVILLE, TX, 78520","No_Match",NA,NA,NA,NA
471829,"3000 CHESTNUT 42083","PHILADELPHIA COUNTY","PA",19101,NA,NA,329,"3000 CHESTNUT 42083, PHILADELPHIA COUNTY, PA, 19101","No_Match",NA,NA,NA,NA
471830,"3000 CHESTNUT STREET UNIT 7895","PHILADELPHIA","PA",19101,39.953305739,-75.183540443,330,"3000 CHESTNUT STREET UNIT 7895, PHILADELPHIA, PA, 19101","Match","Non_Exact","3000 CHESTNUT ST, PHILADELPHIA, PA, 19104",131452483,"L"
471831,"3000 CHIPENDALE AVE","GREENSBORO","NC",27406,NA,NA,331,"3000 CHIPENDALE AVE, GREENSBORO, NC, 27406","No_Match",NA,NA,NA,NA
471832,"3000 CICERO PARKWAY","CHESTER","VA",23831,37.3412585880001,-77.417895991,332,"3000 CICERO PARKWAY, CHESTER, VA, 23831","Match","Exact","3000 CICERO PKWY, CHESTER, VA, 23831",201551219,"R"
471833,"3000 CLARCONA RD LOT 472","APOPKA","FL",32703,28.636649698,-81.500499162,333,"3000 CLARCONA RD LOT 472, APOPKA, FL, 32703","Match","Exact","3000 CLARCONA RD, APOPKA, FL, 32703",647059870,"R"
471834,"3000 CLARK STREET","COLUMBIA","SC",29201,34.0223893580001,-81.050087406,334,"3000 CLARK STREET, COLUMBIA, SC, 29201","Match","Exact","3000 CLARK ST, COLUMBIA, SC, 29201",71818260,"R"
471835,"3000 CLAYMILLE BLVD","NASHVILLE","TN",37207,36.2277360790001,-86.80109579,335,"3000 CLAYMILLE BLVD, NASHVILLE, TN, 37207","Match","Exact","3000 CLAYMILLE BLVD, NASHVILLE, TN, 37207",97204852,"R"
471836,"3000 COLLEGE AVE","TERRE HAUTE","IN",47803,39.4556905580001,-87.3723626789999,336,"3000 COLLEGE AVE, TERRE HAUTE, IN, 47803","Match","Exact","3000 COLLEGE AVE, TERRE HAUTE, IN, 47803",27118208,"L"
471837,"3000 CONRAD ROAD","BURLINGTON","KY",41005,39.037399544,-84.72259902,337,"3000 CONRAD ROAD, BURLINGTON, KY, 41005","Match","Non_Exact","3000 CONRAD LN, BURLINGTON, KY, 41005",639632326,"R"
471838,"3000 CONTINENTAL COLONY PARKWAY APT","ATLANTA","GA",30331,33.68514635,-84.492242816,338,"3000 CONTINENTAL COLONY PARKWAY APT, ATLANTA, GA, 30331","Match","Non_Exact","3000 CONTINENTAL COLONY PKWY SW, ATLANTA, GA, 30331",17412316,"L"
471839,"3000 CONTINENTAL COLONY PARKWAY","ATLANTA","GA",30331,33.68514635,-84.492242816,339,"3000 CONTINENTAL COLONY PARKWAY, ATLANTA, GA, 30331","Match","Non_Exact","3000 CONTINENTAL COLONY PKWY SW, ATLANTA, GA, 30331",17412316,"L"
471840,"3000 CONTINENTAL COLONY PKWY APT F","ATLANTA","GA",30331,33.68514635,-84.492242816,340,"3000 CONTINENTAL COLONY PKWY APT F, ATLANTA, GA, 30331","Match","Non_Exact","3000 CONTINENTAL COLONY PKWY SW, ATLANTA, GA, 30331",17412316,"L"
471841,"3000 CONTINENTAL COLONY PKWY SW","ATLANTA","GA",30331,33.68514635,-84.492242816,341,"3000 CONTINENTAL COLONY PKWY SW, ATLANTA, GA, 30331","Match","Exact","3000 CONTINENTAL COLONY PKWY SW, ATLANTA, GA, 30331",17412316,"L"
471842,"3000 CORAL WAY 1114","MIAMI","FL",33145,NA,NA,342,"3000 CORAL WAY 1114, MIAMI, FL, 33145","No_Match",NA,NA,NA,NA
471843,"3000 CORAL WAY APT 1205","MIAMI","FL",33145,NA,NA,343,"3000 CORAL WAY APT 1205, MIAMI, FL, 33145","No_Match",NA,NA,NA,NA
471844,"3000 CORPORATE EXCHANGE DRIVE","COLUMBUS","OH",43231,40.1014829920001,-82.940943046,344,"3000 CORPORATE EXCHANGE DRIVE, COLUMBUS, OH, 43231","Match","Exact","3000 CORPORATE EXCHANGE DR, COLUMBUS, OH, 43231",218662430,"L"
471845,"3000 CORRY CIRCLE","WINSTON SALEM","NC",27107,36.0724970310001,-80.1794808339999,345,"3000 CORRY CIRCLE, WINSTON SALEM, NC, 27107","Match","Exact","3000 CORRY CIR, WINSTON SALEM, NC, 27107",640631395,"R"
471846,"3000 COUNTY ROAD 200","DUNDEE","OH",44624,40.653364004,-81.7229902509999,346,"3000 COUNTY ROAD 200, DUNDEE, OH, 44624","Match","Exact","3000 CO RD 200, DUNDEE, OH, 44624",647697275,"L"
471847,"3000 CRAVEY COVE NE","ATLANTA","GA",30345,33.856500284,-84.2655401649999,347,"3000 CRAVEY COVE NE, ATLANTA, GA, 30345","Match","Exact","3000 CRAVEY COVE NE, ATLANTA, GA, 30345",23390509,"L"
471848,"3000 CRESTHILL AVE APT 52","ANNISTON","AL",36201,33.6835764750001,-85.841138374,348,"3000 CRESTHILL AVE APT 52, ANNISTON, AL, 36201","Match","Exact","3000 CRESTHILL AVE, ANNISTON, AL, 36201",66570383,"L"
471849,"3000 CRESTHILL AVENUE APT 15","ANNISTON","AL",36201,33.6835764750001,-85.841138374,349,"3000 CRESTHILL AVENUE APT 15, ANNISTON, AL, 36201","Match","Exact","3000 CRESTHILL AVE, ANNISTON, AL, 36201",66570383,"L"
471850,"3000 CURTIS DRIVE","TEMPLE HILLS","MD",20748,38.8454624880001,-76.954577227,350,"3000 CURTIS DRIVE, TEMPLE HILLS, MD, 20748","Match","Exact","3000 CURTIS DR, TEMPLE HILLS, MD, 20748",76332476,"L"
471851,"3000 CUSTER RD SUITE 270 7060","PLANO","TX",75075,33.0381677170001,-96.733329111,351,"3000 CUSTER RD SUITE 270 7060, PLANO, TX, 75075","Match","Exact","3000 CUSTER RD, PLANO, TX, 75075",210470091,"R"
471852,"3000 CUSTER RD SUITE 270-374","PLANO","TX",75075,33.0381677170001,-96.733329111,352,"3000 CUSTER RD SUITE 270-374, PLANO, TX, 75075","Match","Exact","3000 CUSTER RD, PLANO, TX, 75075",210470091,"R"
471853,"3000 CUSTER ROAD SUITE 270-387","PLANO","TX",75075,33.0381677170001,-96.733329111,353,"3000 CUSTER ROAD SUITE 270-387, PLANO, TX, 75075","Match","Exact","3000 CUSTER RD, PLANO, TX, 75075",210470091,"R"
471854,"3000 CUSTER ROAD SUITE 270-463","PLANO","TX",75075,33.0381677170001,-96.733329111,354,"3000 CUSTER ROAD SUITE 270-463, PLANO, TX, 75075","Match","Exact","3000 CUSTER RD, PLANO, TX, 75075",210470091,"R"
471855,"3000 DANRETT LN","RICHMOND","VA",23231,37.4538222520001,-77.337045916,355,"3000 DANRETT LN, RICHMOND, VA, 23231","Match","Exact","3000 DANRETT LN, RICHMOND, VA, 23231",106688999,"L"
471856,"3000 DAYTONA AVE","LAKE HAVASU CITY","AZ",86403,34.4836911830001,-114.299472889,356,"3000 DAYTONA AVE, LAKE HAVASU CITY, AZ, 86403","Match","Exact","3000 DAYTONA AVE, LAKE HAVASU CITY, AZ, 86403",190281681,"R"
471857,"3000 DEERWOOD DRIVE","UKIAH","CA",95482,39.184281056,-123.166853098,357,"3000 DEERWOOD DRIVE, UKIAH, CA, 95482","Match","Exact","3000 DEERWOOD DR, UKIAH, CA, 95482",67266735,"L"
471858,"3000 DEL SUR","ALAMOGORDO","NM",88310,32.905028015,-105.924241132,358,"3000 DEL SUR, ALAMOGORDO, NM, 88310","Match","Exact","3000 DEL SUR, ALAMOGORDO, NM, 88310",638624969,"R"
471859,"3000 DOGWOOD AVE","NEWBERG","OR",97132,45.3141002240001,-122.948767949,359,"3000 DOGWOOD AVE, NEWBERG, OR, 97132","Match","Exact","3000 DOGWOOD AVE, NEWBERG, OR, 97132",156501127,"R"
471860,"3000 DRAPER CT","WINSTON SALEM","NC",27105,36.138398948,-80.2166081669999,360,"3000 DRAPER CT, WINSTON SALEM, NC, 27105","Match","Exact","3000 DRAPER CT, WINSTON SALEM, NC, 27105",84612072,"L"
471861,"3000 DUNDAS ROAD","NORTH CHESTERFIELD","VA",23237,37.4368012790001,-77.4486618719999,361,"3000 DUNDAS ROAD, NORTH CHESTERFIELD, VA, 23237","Match","Exact","3000 DUNDAS RD, NORTH CHESTERFIELD, VA, 23237",201547099,"R"
471862,"3000 E 112TH AVE 47","NORTHGLENN","CO",80233,39.899432119,-104.953576475,362,"3000 E 112TH AVE 47, NORTHGLENN, CO, 80233","Match","Non_Exact","3000 E 112TH AVE, NORTHGLENN, CO, 80233",639762102,"R"
471863,"3000 E 33RD STREET","SIOUX FALLS","SD",57103,43.522512997,-96.688806574,363,"3000 E 33RD STREET, SIOUX FALLS, SD, 57103","Match","Exact","3000 E 33RD ST, SIOUX FALLS, SD, 57103",34981825,"L"
471864,"3000 E APPLE HILL BLVD","APPLETON","WI",54913,44.334905786,-88.363054178,364,"3000 E APPLE HILL BLVD, APPLETON, WI, 54913","Match","Exact","3000 E APPLE HILL BLVD, APPLETON, WI, 54913",653864389,"R"
471865,"3000 E CLIFF RD 202","BURNSVILLE","MN",55337,44.7902882970001,-93.2344593669999,365,"3000 E CLIFF RD 202, BURNSVILLE, MN, 55337","Match","Non_Exact","3000 CLIFF RD E, BURNSVILLE, MN, 55337",37905325,"L"
471866,"3000 E FOREST","APPLETON","WI",54915,44.255506633,-88.363782642,366,"3000 E FOREST, APPLETON, WI, 54915","Match","Non_Exact","3000 E FOREST ST, APPLETON, WI, 54915",74921274,"L"
471867,"3000 E JOHNS PRAIRIE RD","SHELTON","WA",98584,47.2473782800001,-123.067565716,367,"3000 E JOHNS PRAIRIE RD, SHELTON, WA, 98584","Match","Exact","3000 E JOHNS PRAIRIE RD, SHELTON, WA, 98584",639983781,"L"
471868,"3000 E VILLA MARIA","BRYAN","TX",77803,30.673258726,-96.349231558,368,"3000 E VILLA MARIA, BRYAN, TX, 77803","Match","Non_Exact","3000 E VILLA MARIA RD, BRYAN, TX, 77803",21815202,"L"
471869,"3000 EAST GRAND BLVD","DETROIT","MI",48202,42.3713989890001,-83.0705097969999,369,"3000 EAST GRAND BLVD, DETROIT, MI, 48202","Match","Exact","3000 E GRAND BLVD, DETROIT, MI, 48202",95732708,"L"
471870,"3000 EAST GRAND BOULEVARD","DETROIT","MI",48202,42.3713989890001,-83.0705097969999,370,"3000 EAST GRAND BOULEVARD, DETROIT, MI, 48202","Match","Exact","3000 E GRAND BLVD, DETROIT, MI, 48202",95732708,"L"
471871,"3000 EAST NEW YORK STREET","INDIANAPOLIS","IN",46201,39.771892484,-86.113000612,371,"3000 EAST NEW YORK STREET, INDIANAPOLIS, IN, 46201","Match","Exact","3000 E NEW YORK ST, INDIANAPOLIS, IN, 46201",108000308,"L"
471872,"3000 EASTPOINT PARKWAY","LOUISVILLE","KY",40223,38.2812953440001,-85.511300411,372,"3000 EASTPOINT PARKWAY, LOUISVILLE, KY, 40223","Match","Exact","3000 EASTPOINT PKWY, LOUISVILLE, KY, 40223",96934685,"R"
471873,"3000 EDGEMERE DRIVE","APPLETON","WI",54915,44.268287275,-88.363865921,373,"3000 EDGEMERE DRIVE, APPLETON, WI, 54915","Match","Non_Exact","3000 E EDGEMERE DR, APPLETON, WI, 54915",74921040,"L"
471874,"3000 ELM DRIVE NE","CLEVELAND","TN",37312,35.182133596,-84.857237083,374,"3000 ELM DRIVE NE, CLEVELAND, TN, 37312","Match","Exact","3000 ELM DR NE, CLEVELAND, TN, 37312",57574065,"R"
471875,"3000 ELMSTEAD CT","APEX","NC",27502,35.736652695,-78.835674877,375,"3000 ELMSTEAD CT, APEX, NC, 27502","Match","Exact","3000 ELMSTEAD CT, APEX, NC, 27502",72597018,"R"
471876,"3000 EVANGELINE ST","MONROE","LA",71201,32.533257092,-92.088697407,376,"3000 EVANGELINE ST, MONROE, LA, 71201","Match","Exact","3000 EVANGELINE ST, MONROE, LA, 71201",612362189,"R"
471877,"3000 FAIRFOREST DRIVE","MATTHEWS","NC",28104,35.066918876,-80.716970604,377,"3000 FAIRFOREST DRIVE, MATTHEWS, NC, 28104","Match","Exact","3000 FAIRFOREST DR, MATTHEWS, NC, 28104",642589828,"R"
471878,"3000 FALLS ROAD APT 210","BALTIMORE","MD",21211,NA,NA,378,"3000 FALLS ROAD APT 210, BALTIMORE, MD, 21211","No_Match",NA,NA,NA,NA
471879,"3000 FARNAM ST STE 4G","OMAHA","NE",68131,41.25770154,-95.956696246,379,"3000 FARNAM ST STE 4G, OMAHA, NE, 68131","Match","Exact","3000 FARNAM ST, OMAHA, NE, 68131",117017955,"R"
471880,"3000 FISHERVILLE RD","COATESVILLE","PA",19320,40.0130771600001,-75.767039508,380,"3000 FISHERVILLE RD, COATESVILLE, PA, 19320","Match","Exact","3000 FISHERVILLE RD, COATESVILLE, PA, 19320",179567154,"R"
471881,"3000 FLAGLER AVE UNIT B","KEY WEST","FL",33040,NA,NA,381,"3000 FLAGLER AVE UNIT B, KEY WEST, FL, 33040","No_Match",NA,NA,NA,NA
471882,"3000 FLORENCE","STEGER","IL",60475,41.4769317080001,-87.6293453179999,382,"3000 FLORENCE, STEGER, IL, 60475","Match","Non_Exact","3000 FLORENCE AVE, STEGER, IL, 60475",111714274,"R"
471883,"3000 FORD AVE APT A28","BRISTOL","PA",19067,NA,NA,383,"3000 FORD AVE APT A28, BRISTOL, PA, 19067","No_Match",NA,NA,NA,NA
471884,"3000 FORD ROAD H44","BRISTOL","PA",19007,40.121103197,-74.886810527,384,"3000 FORD ROAD H44, BRISTOL, PA, 19007","Match","Exact","3000 FORD RD, BRISTOL, PA, 19007",134716297,"L"
471885,"3000 FRENCH PLACE","AUSTIN","TX",78228,30.286273722,-97.7196285379999,385,"3000 FRENCH PLACE, AUSTIN, TX, 78228","Match","Non_Exact","3000 FRENCH PL, AUSTIN, TX, 78722",63946274,"L"
471886,"3000 FRONTIER AVE NE","ALBUQUERQUE","NM",87106,35.089579445,-106.612074647,386,"3000 FRONTIER AVE NE, ALBUQUERQUE, NM, 87106","Match","Exact","3000 FRONTIER AVE NE, ALBUQUERQUE, NM, 87106",206709959,"R"
471887,"3000 GA HWY 5 BLDG 600 APT 604","DOUGLASVILLE","GA",30135,33.7193116440001,-84.764479735,387,"3000 GA HWY 5 BLDG 600 APT 604, DOUGLASVILLE, GA, 30135","Match","Non_Exact","3000 STATE RTE 5, DOUGLASVILLE, GA, 30135",647286817,"L"
471888,"3000 GALENA WAY","BOULDER","CO",80305,39.9653165600001,-105.255698711,388,"3000 GALENA WAY, BOULDER, CO, 80305","Match","Exact","3000 GALENA WAY, BOULDER, CO, 80305",188176519,"L"
471889,"3000 GALLERY PL APT 38","WALDORF","MD",20602,38.6061299190001,-76.895361124,389,"3000 GALLERY PL APT 38, WALDORF, MD, 20602","Match","Exact","3000 GALLERY PL, WALDORF, MD, 20602",25381547,"R"
471890,"3000 GALLOWAY RIDGE APT E211","PITTSBORO","NC",27312,35.794881381,-79.0936922079999,390,"3000 GALLOWAY RIDGE APT E211, PITTSBORO, NC, 27312","Match","Exact","3000 GALLOWAY RIDGE, PITTSBORO, NC, 27312",600318549,"R"
471891,"3000 GALLOWAY RIDGE C208","CHAPEL HILL","NC",27312,35.794881381,-79.0936922079999,391,"3000 GALLOWAY RIDGE C208, CHAPEL HILL, NC, 27312","Match","Non_Exact","3000 GALLOWAY RIDGE, FEARRINGTON, NC, 27312",600318549,"R"
471892,"3000 GARRISON AVENUE SW","BIRMINGHAM","AL",35211,33.477898257,-86.8810593759999,392,"3000 GARRISON AVENUE SW, BIRMINGHAM, AL, 35211","Match","Exact","3000 GARRISON AVE SW, BIRMINGHAM, AL, 35211",81716723,"R"
471893,"3000 GIBBS DRIVE","KNOXVILLE","TN",37918,36.035636767,-83.926120757,393,"3000 GIBBS DRIVE, KNOXVILLE, TN, 37918","Match","Non_Exact","3000 GIBBS DR NE, KNOXVILLE, TN, 37918",42617234,"R"
471894,"3000 GLENGARRY DR","KETTERING","OH",45420,39.695107056,-84.113134083,394,"3000 GLENGARRY DR, KETTERING, OH, 45420","Match","Exact","3000 GLENGARRY DR, KETTERING, OH, 45420",143584716,"R"
471895,"3000 GLENVIEW PARK WAY","LOUISVILLE","KY",40222,38.2921338420001,-85.643758536,395,"3000 GLENVIEW PARK WAY, LOUISVILLE, KY, 40222","Match","Exact","3000 GLENVIEW PARK WAY, LOUISVILLE, KY, 40222",641779133,"L"
471896,"3000 GRAND AVE 707","DES MOINES","IA",50312,41.584423067,-93.6581441179999,396,"3000 GRAND AVE 707, DES MOINES, IA, 50312","Match","Exact","3000 GRAND AVE, DES MOINES, IA, 50312",65780837,"L"
471897,"3000 GRANNY WHITE PIKE","NASHVILLE","TN",37204,36.119717204,-86.790856329,397,"3000 GRANNY WHITE PIKE, NASHVILLE, TN, 37204","Match","Exact","3000 GRANNY WHITE PIKE, NASHVILLE, TN, 37204",606821110,"L"
471898,"3000 GRANTHAM DRIVE","RICHARDSON","TX",75082,32.9920240100001,-96.6142096839999,398,"3000 GRANTHAM DRIVE, RICHARDSON, TX, 75082","Match","Exact","3000 GRANTHAM DR, RICHARDSON, TX, 75082",123559168,"L"
471899,"3000 GRATIOT AVE","DETROIT","MI",48207,42.3563010510001,-83.029543394,399,"3000 GRATIOT AVE, DETROIT, MI, 48207","Match","Exact","3000 GRATIOT AVE, DETROIT, MI, 48207",95482773,"R"
471900,"3000 GREENRIDGE DR APT 604","HOUSTON","TX",77057,29.7343336910001,-95.4898199789999,400,"3000 GREENRIDGE DR APT 604, HOUSTON, TX, 77057","Match","Exact","3000 GREENRIDGE DR, HOUSTON, TX, 77057",96620206,"R"
471901,"3000 GROVE AVE","RICHMOND","VA",23221,37.55589854,-77.477038885,401,"3000 GROVE AVE, RICHMOND, VA, 23221","Match","Exact","3000 GROVE AVE, RICHMOND, VA, 23221",201535369,"R"
471902,"3000 GULF BLVD APT 1007","SOUTH PADRE ISLAND","TX",78597,26.1056372,-97.1651382589999,402,"3000 GULF BLVD APT 1007, SOUTH PADRE ISLAND, TX, 78597","Match","Exact","3000 GULF BLVD, SOUTH PADRE ISLAND, TX, 78597",89947843,"R"
471903,"3000 GUSTAFSON CIR","IDAHO FALLS","ID",83402,43.4708179770001,-112.039145553,403,"3000 GUSTAFSON CIR, IDAHO FALLS, ID, 83402","Match","Exact","3000 GUSTAFSON CIR, IDAHO FALLS, ID, 83402",119119382,"L"
471904,"3000 HAMILTON STREET","WEST LAFAYETTE","IN",47906,40.460951118,-86.903549276,404,"3000 HAMILTON STREET, WEST LAFAYETTE, IN, 47906","Match","Exact","3000 HAMILTON ST, W LAFAYETTE, IN, 47906",27304415,"L"
471905,"3000 HARLANWOOD DR","FORT WORTH","TX",76109,32.708001919,-97.3747597029999,405,"3000 HARLANWOOD DR, FORT WORTH, TX, 76109","Match","Exact","3000 HARLANWOOD DR, FORT WORTH, TX, 76109",101886114,"R"
471906,"3000 HIDDEN LAKE DR","BROOKFIELD","WI",53005,43.0736563940001,-88.080191422,406,"3000 HIDDEN LAKE DR, BROOKFIELD, WI, 53005","Match","Exact","3000 HIDDEN LAKE DR, BROOKFIELD, WI, 53005",53905953,"L"
471907,"3000 HIGH VIEW DRIVE 2612","HENDERSON","NV",89014,36.0670059190001,-115.081644441,407,"3000 HIGH VIEW DRIVE 2612, HENDERSON, NV, 89014","Match","Exact","3000 HIGH VIEW DR, HENDERSON, NV, 89014",201879504,"R"
471908,"3000 HIGH VIEW DRIVE APT 215","HENDERSON","NV",89014,36.0670059190001,-115.081644441,408,"3000 HIGH VIEW DRIVE APT 215, HENDERSON, NV, 89014","Match","Exact","3000 HIGH VIEW DR, HENDERSON, NV, 89014",201879504,"R"
471909,"3000 HILL ST","WILMETTE","IL",60091,42.0710525740001,-87.749791746,409,"3000 HILL ST, WILMETTE, IL, 60091","Match","Exact","3000 HILL ST, WILMETTE, IL, 60091",111738558,"R"
471910,"3000 HOLLY STREET","DENVER","CO",80207,39.760302171,-104.922279246,410,"3000 HOLLY STREET, DENVER, CO, 80207","Match","Exact","3000 HOLLY ST, DENVER, CO, 80207",606077719,"R"
471911,"3000 HWY 5 NUMBER 1301","DOUGLASVILLE","GA",30135,33.7193116440001,-84.764479735,411,"3000 HWY 5 NUMBER 1301, DOUGLASVILLE, GA, 30135","Match","Non_Exact","3000 STATE RTE 5, DOUGLASVILLE, GA, 30135",647286817,"L"
471912,"3000 HWY 6 SOUTH","HOUSTON","TX",77082,NA,NA,412,"3000 HWY 6 SOUTH, HOUSTON, TX, 77082","No_Match",NA,NA,NA,NA
471913,"3000 HYDE ST","OAKLAND","CA",94601,37.7891219410001,-122.222538923,413,"3000 HYDE ST, OAKLAND, CA, 94601","Match","Exact","3000 HYDE ST, OAKLAND, CA, 94601",606075468,"L"
471914,"3000 HYDRANGEA AVE","KILLEEN","TX",76549,31.106355251,-97.796128656,414,"3000 HYDRANGEA AVE, KILLEEN, TX, 76549","Match","Exact","3000 HYDRANGEA AVE, KILLEEN, TX, 76549",146228898,"L"
471915,"3000 INCUBATOR ROAD SUITE 102","HAMPTON","VA",23661,NA,NA,415,"3000 INCUBATOR ROAD SUITE 102, HAMPTON, VA, 23661","No_Match",NA,NA,NA,NA
471916,"3000 INDUSTRY ROAD","BLEIBLERVILLE","TX",78931,29.9962570910001,-96.461806033,416,"3000 INDUSTRY ROAD, BLEIBLERVILLE, TX, 78931","Match","Exact","3000 INDUSTRY RD, BLEIBLERVILLE, TX, 78931",634619329,"R"
471917,"3000 INVERNESS COURT","CONYERS","GA",30094,33.630871132,-84.0616939609999,417,"3000 INVERNESS COURT, CONYERS, GA, 30094","Match","Exact","3000 INVERNESS CT, CONYERS, GA, 30094",23752940,"L"
471918,"3000 INWOOD DRIVE","LIMA","OH",45806,40.689293488,-84.1703701339999,418,"3000 INWOOD DRIVE, LIMA, OH, 45806","Match","Exact","3000 INWOOD DR, LIMA, OH, 45806",35566433,"L"
471919,"3000 IROQUOIS DRIVE","THOMPSONS STATION","TN",37179,35.7889070210001,-86.8812457349999,419,"3000 IROQUOIS DRIVE, THOMPSONS STATION, TN, 37179","Match","Exact","3000 IROQUOIS DR, THOMPSONS STATION, TN, 37179",73123041,"L"
471920,"3000 J ST SW","CEDAR RAPIDS","IA",52404,41.9471087630001,-91.6671824219999,420,"3000 J ST SW, CEDAR RAPIDS, IA, 52404","Match","Exact","3000 J ST SW, CEDAR RAPIDS, IA, 52404",17026562,"R"
471921,"3000 JACKSON AVE","KANSAS CITY","MO",64128,39.0709748140001,-94.53440879,421,"3000 JACKSON AVE, KANSAS CITY, MO, 64128","Match","Exact","3000 JACKSON AVE, KANSAS CITY, MO, 64128",91451318,"R"
471922,"3000 JACKSON","KANSAS CITY","MO",64128,39.0709748140001,-94.53440879,422,"3000 JACKSON, KANSAS CITY, MO, 64128","Match","Non_Exact","3000 JACKSON AVE, KANSAS CITY, MO, 64128",91451318,"R"
471923,"3000 JIB COURT","SUFFOLK","VA",23435,36.8586938780001,-76.458756302,423,"3000 JIB COURT, SUFFOLK, VA, 23435","Match","Non_Exact","3000 JIB LN, SUFFOLK, VA, 23435",640864256,"R"
471924,"3000 JULY ST APT 2118","BATON ROUGE","LA",70808,30.422927084,-91.1713817849999,424,"3000 JULY ST APT 2118, BATON ROUGE, LA, 70808","Match","Exact","3000 JULY ST, BATON ROUGE, LA, 70808",632762308,"R"
471925,"3000 K ST NW","WASHINGTON","DC",20007,38.9025199390001,-77.059270668,425,"3000 K ST NW, WASHINGTON, DC, 20007","Match","Exact","3000 K ST NW, WASHINGTON, DC, 20007",638320048,"L"
471926,"3000 KAREN DRIVE","CHALMETTE","LA",70043,29.9424991650001,-89.951488513,426,"3000 KAREN DRIVE, CHALMETTE, LA, 70043","Match","Exact","3000 KAREN DR, CHALMETTE, LA, 70043",111194831,"L"
471927,"3000 KENRIDGE PWY","DECATUR","GA",30032,33.7657681800001,-84.2379588169999,427,"3000 KENRIDGE PWY, DECATUR, GA, 30032","Match","Exact","3000 KENRIDGE PKWY, DECATUR, GA, 30032",650097555,"L"
471928,"3000 KESWICKRD","CLEVELAND","OH",44120,NA,NA,428,"3000 KESWICKRD, CLEVELAND, OH, 44120","No_Match",NA,NA,NA,NA
471929,"3000 KILPATRICK BLVD","MONROE","LA",71201,32.5263852260001,-92.091368491,429,"3000 KILPATRICK BLVD, MONROE, LA, 71201","Match","Exact","3000 KILPATRICK BLVD, MONROE, LA, 71201",161096882,"R"
471930,"3000 KRAMER LN APT 1542","AUSTIN","TX",78758,30.3962779340001,-97.7234169069999,430,"3000 KRAMER LN APT 1542, AUSTIN, TX, 78758","Match","Exact","3000 KRAMER LN, AUSTIN, TX, 78758",648258401,"L"
471931,"3000 KREIDERSVILLE ROAD","NORTHAMPTON","PA",18069,40.7064046040001,-75.4992198429999,431,"3000 KREIDERSVILLE ROAD, NORTHAMPTON, PA, 18069","Match","Non_Exact","3000 KREIDERSVILLE RD, NORTHAMPTON, PA, 18067",136912613,"R"
471932,"3000 LAKE CREEK DR","HIGHLAND VILLAGE","TX",75077,33.091848188,-97.06319856,432,"3000 LAKE CREEK DR, HIGHLAND VILLAGE, TX, 75077","Match","Exact","3000 LAKE CREEK DR, HIGHLAND VILLAGE, TX, 75077",103391805,"R"
471933,"3000 LAWNDALE LANE NORTH","PLYMOUTH","MN",55447,45.0128729790001,-93.502970434,433,"3000 LAWNDALE LANE NORTH, PLYMOUTH, MN, 55447","Match","Exact","3000 LAWNDALE LN N, PLYMOUTH, MN, 55447",43849787,"R"
471934,"3000 LEE ROAD 10 LOT 252","AUBURN","AL",36832,32.5360033640001,-85.4857613779999,434,"3000 LEE ROAD 10 LOT 252, AUBURN, AL, 36832","Match","Exact","3000 LEE ROAD 10, AUBURN, AL, 36832",1608606,"L"
471935,"3000 LEGACY LN","KILLEEN","TX",76549,31.080814952,-97.7827174,435,"3000 LEGACY LN, KILLEEN, TX, 76549","Match","Exact","3000 LEGACY LN, KILLEEN, TX, 76549",642060332,"R"
471936,"3000 LEGACY VILLAS DR","MAITLAND","FL",32751,28.626303598,-81.4000339199999,436,"3000 LEGACY VILLAS DR, MAITLAND, FL, 32751","Match","Exact","3000 LEGACY VILLAS DR, MAITLAND, FL, 32751",94406066,"L"
471937,"3000 LEMOINE AVE RM 130","FORT LEE","NJ",7024,40.865037058,-73.961188638,437,"3000 LEMOINE AVE RM 130, FORT LEE, NJ, 7024","Match","Exact","3000 LEMOINE AVE, FORT LEE, NJ, 07024",64390435,"R"
471938,"3000 LEPRECHAUN LANE","PALM HARBOR","FL",34683,28.09543746,-82.75190258,438,"3000 LEPRECHAUN LANE, PALM HARBOR, FL, 34683","Match","Exact","3000 LEPRECHAUN LN, PALM HARBOR, FL, 34683",639739562,"L"
471939,"3000 LONDON ROAD","DULUTH","MN",55804,46.8131238340001,-92.055644668,439,"3000 LONDON ROAD, DULUTH, MN, 55804","Match","Exact","3000 LONDON RD, DULUTH, MN, 55804",636813542,"R"
471940,"3000 LONGWOOD CIRCLE","PANAMA CITY","FL",32405,30.202146724,-85.670169473,440,"3000 LONGWOOD CIRCLE, PANAMA CITY, FL, 32405","Match","Exact","3000 LONGWOOD CIR, PANAMA CITY, FL, 32405",7028820,"R"
471941,"3000 LOS RIOS BLVD","PLANO","TX",75074,33.0371253660001,-96.647680404,441,"3000 LOS RIOS BLVD, PLANO, TX, 75074","Match","Exact","3000 LOS RIOS BLVD, PLANO, TX, 75074",210489429,"L"
471942,"3000 LUNADA LANE","ALAMO","CA",94507,37.855211985,-122.041235528,442,"3000 LUNADA LANE, ALAMO, CA, 94507","Match","Exact","3000 LUNADA LN, ALAMO, CA, 94507",192097115,"L"
471943,"3000 MAKALEI PLACE","HONOLULU","HI",96815,21.2582127900001,-157.815694656,443,"3000 MAKALEI PLACE, HONOLULU, HI, 96815","Match","Exact","3000 MAKALEI PL, HONOLULU, HI, 96815",203242832,"L"
471944,"3000 MARCUS AVE 1W5","LAKE SUCCESS","NY",11042,40.7578512910001,-73.694390098,444,"3000 MARCUS AVE 1W5, LAKE SUCCESS, NY, 11042","Match","Non_Exact","3000 MARCUS AVE, NEW HYDE PARK, NY, 11042",647172360,"R"
471945,"3000 MARCUS AVE SUITE 1W5","LAKE SUCCESS","NY",11042,40.7578512910001,-73.694390098,445,"3000 MARCUS AVE SUITE 1W5, LAKE SUCCESS, NY, 11042","Match","Non_Exact","3000 MARCUS AVE, NEW HYDE PARK, NY, 11042",647172360,"R"
471946,"3000 MARCUS AVENUE SUITE 1W5","LAKE SUCCESS","NY",11042,40.7578512910001,-73.694390098,446,"3000 MARCUS AVENUE SUITE 1W5, LAKE SUCCESS, NY, 11042","Match","Non_Exact","3000 MARCUS AVE, NEW HYDE PARK, NY, 11042",647172360,"R"
471947,"3000 MARCUS AVENUE","LAKE SUCCESS","NY",10042,NA,NA,447,"3000 MARCUS AVENUE, LAKE SUCCESS, NY, 10042","No_Match",NA,NA,NA,NA
471948,"3000 MARCUS AVENUE","LAKE SUCCESS","NY",11042,40.7578512910001,-73.694390098,448,"3000 MARCUS AVENUE, LAKE SUCCESS, NY, 11042","Match","Non_Exact","3000 MARCUS AVE, NEW HYDE PARK, NY, 11042",647172360,"R"
471949,"3000 MARCUSE AVE SUITE 1W5","LAKE SUCCESS","NY",11042,40.7578512910001,-73.694390098,449,"3000 MARCUSE AVE SUITE 1W5, LAKE SUCCESS, NY, 11042","Match","Non_Exact","3000 MARCUS AVE, NEW HYDE PARK, NY, 11042",647172360,"R"
471950,"3000 MAXEY ROAD","CEDAR HILL","TN",37032,36.45586181,-87.0961330229999,450,"3000 MAXEY ROAD, CEDAR HILL, TN, 37032","Match","Exact","3000 MAXEY RD, CEDAR HILL, TN, 37032",97440024,"L"
471951,"3000 MEDICAL PARK DRIVE SUITE 400","TAMPA","FL",33613,28.0713228330001,-82.425969047,451,"3000 MEDICAL PARK DRIVE SUITE 400, TAMPA, FL, 33613","Match","Exact","3000 MEDICAL PARK DR, TAMPA, FL, 33613",638635363,"L"
471952,"3000 MICHIGAN CREEK RD","JEFFERSON","CO",80456,NA,NA,452,"3000 MICHIGAN CREEK RD, JEFFERSON, CO, 80456","No_Match",NA,NA,NA,NA
471953,"3000 MIDWOOD LN","ROUND ROCK","TX",78681,30.5073388050001,-97.7206084759999,453,"3000 MIDWOOD LN, ROUND ROCK, TX, 78681","Match","Exact","3000 MIDWOOD LN, ROUND ROCK, TX, 78681",637148476,"L"
471954,"3000 MOON LAKE DRIVE","WEST BLOOMFIELD","MI",48323,42.582007129,-83.342832626,454,"3000 MOON LAKE DRIVE, WEST BLOOMFIELD, MI, 48323","Match","Exact","3000 MOON LAKE DR, W BLOOMFIELD, MI, 48323",69816664,"L"
471955,"3000 MORRIS PLACE","REEDSPORT","OR",97467,43.6892903780001,-124.130758102,455,"3000 MORRIS PLACE, REEDSPORT, OR, 97467","Match","Exact","3000 MORRIS PL, REEDSPORT, OR, 97467",137247608,"L"
471956,"3000 MOUNTAIN CREEK PKWY 1427","DALLAS","TX",75211,NA,NA,456,"3000 MOUNTAIN CREEK PKWY 1427, DALLAS, TX, 75211","No_Match",NA,NA,NA,NA
471957,"3000 MURWORTH DR STE 1012","HOUSTON","TX",77025,29.6853877980001,-95.423623682,457,"3000 MURWORTH DR STE 1012, HOUSTON, TX, 77025","Match","Exact","3000 MURWORTH DR, HOUSTON, TX, 77025",630685032,"R"
471958,"3000 N BUS 45","CORSICANA","TX",75110,32.1246237450001,-96.465894667,458,"3000 N BUS 45, CORSICANA, TX, 75110","Match","Exact","3000 N BUSINESS 45, CORSICANA, TX, 75110",183896492,"L"
471959,"3000 N CALLE LADERA","TUCSON","AZ",85715,32.261163432,-110.846950906,459,"3000 N CALLE LADERA, TUCSON, AZ, 85715","Match","Non_Exact","3000 N CLL LADERA, TUCSON, AZ, 85715",121221217,"R"
471960,"3000 N HILTON ST","BALTIMORE","MD",21216,39.3203477170001,-76.673042923,460,"3000 N HILTON ST, BALTIMORE, MD, 21216","Match","Exact","3000 N HILTON ST, BALTIMORE, MD, 21216",206413185,"L"
471961,"3000 N HILTON STREET","BALTIMORE","MD",21216,39.3203477170001,-76.673042923,461,"3000 N HILTON STREET, BALTIMORE, MD, 21216","Match","Exact","3000 N HILTON ST, BALTIMORE, MD, 21216",206413185,"L"
471962,"3000 N LEWIS RUN ROAD","CLAIRTON","PA",15025,NA,NA,462,"3000 N LEWIS RUN ROAD, CLAIRTON, PA, 15025","No_Match",NA,NA,NA,NA
471963,"3000 N MAIN ST NW","KENNESAW","GA",30144,34.0253835230001,-84.617974605,463,"3000 N MAIN ST NW, KENNESAW, GA, 30144","Match","Exact","3000 N MAIN ST NW, KENNESAW, GA, 30144",17242366,"R"
471964,"3000 N MAIN ST","KENNESAW","GA",30144,NA,NA,464,"3000 N MAIN ST, KENNESAW, GA, 30144","No_Match",NA,NA,NA,NA
471965,"3000 N SHERIDAN ROAD UNIT 12 C","CHICAGO","IL",60657,41.936635906,-87.639440925,465,"3000 N SHERIDAN ROAD UNIT 12 C, CHICAGO, IL, 60657","Match","Non_Exact","3000 N SHERIDAN RD, CHICAGO, IL, 60657",605201731,"L"
471966,"3000 N STILES RD","SCOTTVILLE","MI",49454,44.00979184,-86.340129744,466,"3000 N STILES RD, SCOTTVILLE, MI, 49454","Match","Exact","3000 N STILES RD, SCOTTVILLE, MI, 49454",148058426,"R"
471967,"3000 N VAN BUREN ST","WILMINGTON","DE",19802,39.762674895,-75.536609282,467,"3000 N VAN BUREN ST, WILMINGTON, DE, 19802","Match","Exact","3000 N VAN BUREN ST, WILMINGTON, DE, 19802",187258395,"R"
471968,"3000 N VETERANS DRIVE","ALTUS","OK",73521,34.670487635,-99.298910806,468,"3000 N VETERANS DRIVE, ALTUS, OK, 73521","Match","Exact","3000 N VETERANS DR, ALTUS, OK, 73521",648279530,"R"
471969,"3000 NARCISSUS TER","NORTH PORT","FL",34286,27.1023989760001,-82.1790084639999,469,"3000 NARCISSUS TER, NORTH PORT, FL, 34286","Match","Exact","3000 NARCISSUS TER, NORTH PORT, FL, 34286",16430530,"R"
471970,"3000 NARCISSUS TERRACE","NORTH PORT","FL",34286,27.1023989760001,-82.1790084639999,470,"3000 NARCISSUS TERRACE, NORTH PORT, FL, 34286","Match","Exact","3000 NARCISSUS TER, NORTH PORT, FL, 34286",16430530,"R"
471971,"3000 NE 188TH STREET APT 711","AVENTURA","FL",33180,25.9493842300001,-80.138627602,471,"3000 NE 188TH STREET APT 711, AVENTURA, FL, 33180","Match","Non_Exact","3000 NE 188TH ST, AVENTURA, FL, 33180",633328908,"R"
471972,"3000 NE 30TH PL SUITE 206","FORT LAUDERDALE","FL",33306,26.166695127,-80.106527353,472,"3000 NE 30TH PL SUITE 206, FORT LAUDERDALE, FL, 33306","Match","Non_Exact","3000 NE 30TH PL, FORT LAUDERDALE, FL, 33306",114724840,"R"
471973,"3000 NE 30TH PLACE SUITE 206","FORT LAUDERDALE","FL",33306,26.166695127,-80.106527353,473,"3000 NE 30TH PLACE SUITE 206, FORT LAUDERDALE, FL, 33306","Match","Non_Exact","3000 NE 30TH PL, FORT LAUDERDALE, FL, 33306",114724840,"R"
471974,"3000 NE 5TH TERRACE APT 315A","WILTON MANORS","FL",33334,26.1648482900001,-80.139968728,474,"3000 NE 5TH TERRACE APT 315A, WILTON MANORS, FL, 33334","Match","Non_Exact","3000 NE 5TH TER, WILTON MANORS, FL, 33334",637131708,"R"
471975,"3000 NE BENJAMIN STREET","MINNEAPOLIS","MN",55418,45.0224170290001,-93.2294390869999,475,"3000 NE BENJAMIN STREET, MINNEAPOLIS, MN, 55418","Match","Exact","3000 NE BENJAMIN ST, MINNEAPOLIS, MN, 55418",43637377,"L"
471976,"3000 NE MINNEHAHA ST","VANCOUVER","WA",98663,45.6684179050001,-122.641672456,476,"3000 NE MINNEHAHA ST, VANCOUVER, WA, 98663","Match","Exact","3000 NE MINNEHAHA ST, VANCOUVER, WA, 98663",158367168,"L"
471977,"3000 NEWELL DR - ACHS GOPACK","AMERICAN CANYON","CA",94503,NA,NA,477,"3000 NEWELL DR - ACHS GOPACK, AMERICAN CANYON, CA, 94503","No_Match",NA,NA,NA,NA
471978,"3000 NORFOLK DR","AUSTIN","TX",78745,30.199821549,-97.8266274709999,478,"3000 NORFOLK DR, AUSTIN, TX, 78745","Match","Exact","3000 NORFOLK DR, AUSTIN, TX, 78745",63939883,"R"
471979,"3000 NORTH 34TH STREET","TAMPA","FL",33605,27.970518955,-82.4223760839999,479,"3000 NORTH 34TH STREET, TAMPA, FL, 33605","Match","Exact","3000 N 34TH ST, TAMPA, FL, 33605",104534336,"L"
471980,"3000 NORTH BROAD STREET","SELMA","AL",36701,32.4412766500001,-87.024503016,480,"3000 NORTH BROAD STREET, SELMA, AL, 36701","Match","Exact","3000 N BROAD ST, SELMA, AL, 36701",1282833,"R"
471981,"3000 NORTH BROAD STREET","SELMA","AL",36703,32.4412766500001,-87.024503016,481,"3000 NORTH BROAD STREET, SELMA, AL, 36703","Match","Non_Exact","3000 N BROAD ST, SELMA, AL, 36701",1282833,"R"
471982,"3000 NORTH BROOK CIR","YORK","PA",17403,39.933106482,-76.704705573,482,"3000 NORTH BROOK CIR, YORK, PA, 17403","Match","Exact","3000 N BROOK CIR, YORK, PA, 17403",88751030,"R"
471983,"3000 NORTH KENTUCKY","ROSWELL","NM",88201,33.434512215,-104.527492729,483,"3000 NORTH KENTUCKY, ROSWELL, NM, 88201","Match","Non_Exact","3000 N KENTUCKY AVE, ROSWELL, NM, 88201",131810253,"R"
471984,"3000 NORTH OCEAN DR","RIVIERA BEACH","FL",33404,26.7855454830001,-80.034940009,484,"3000 NORTH OCEAN DR, RIVIERA BEACH, FL, 33404","Match","Exact","3000 N OCEAN DR, RIVIERA BEACH, FL, 33404",115276504,"R"
471985,"3000 NORTH POINTE DR APT E","JACKSON","MI",49202,42.276654852,-84.450382315,485,"3000 NORTH POINTE DR APT E, JACKSON, MI, 49202","Match","Exact","3000 N POINTE DR, JACKSON, MI, 49202",17625660,"L"
471986,"3000 NORTHSIDE BLVD APT 2 316","RICHARDSON","TX",75080,32.9932461270001,-96.749442207,486,"3000 NORTHSIDE BLVD APT 2 316, RICHARDSON, TX, 75080","Match","Exact","3000 NORTHSIDE BLVD, RICHARDSON, TX, 75080",650411855,"R"
471987,"3000 NORWOOD AVE","PITTSBURGH","PA",15212,40.4761142350001,-80.0139038849999,487,"3000 NORWOOD AVE, PITTSBURGH, PA, 15212","Match","Non_Exact","3000 NORWOOD AVE, PITTSBURGH, PA, 15214",51625338,"R"
471988,"3000 NW 199TH STREET","MIAMI","FL",33169,NA,NA,488,"3000 NW 199TH STREET, MIAMI, FL, 33169","No_Match",NA,NA,NA,NA
471989,"3000 NW 42ND AVE","POMPANO BEACH","FL",33066,26.2723988600001,-80.182074675,489,"3000 NW 42ND AVE, POMPANO BEACH, FL, 33066","Match","Exact","3000 NW 42ND AVE, POMPANO BEACH, FL, 33066",645578249,"R"
471990,"3000 NW 49 ST","MIAMI","FL",33142,25.8193387760001,-80.2447718019999,490,"3000 NW 49 ST, MIAMI, FL, 33142","Match","Exact","3000 NW 49TH ST, MIAMI, FL, 33142",116001801,"L"
471991,"3000 NW 4TH STREET","POMPANO BEACH","FL",33069,26.2346849470001,-80.1636548559999,491,"3000 NW 4TH STREET, POMPANO BEACH, FL, 33069","Match","Exact","3000 NW 4TH ST, POMPANO BEACH, FL, 33069",114693998,"L"
471992,"3000 NW OVERLOOK DR NO 1715","HILLSBORO","OR",97124,NA,NA,492,"3000 NW OVERLOOK DR NO 1715, HILLSBORO, OR, 97124","No_Match",NA,NA,NA,NA
471993,"3000 OAKLEAF DRIVE","CAMERON PARK","CA",95682,38.6868517940001,-121.000854578,493,"3000 OAKLEAF DRIVE, CAMERON PARK, CA, 95682","Match","Exact","3000 OAKLEAF DR, CAMERON PARK, CA, 95682",133053013,"L"
471994,"3000 OBENCHAIN ROAD","LAPORTE","CO",80535,40.7278671920001,-105.19782792,494,"3000 OBENCHAIN ROAD, LAPORTE, CO, 80535","Match","Exact","3000 OBENCHAIN RD, LAPORTE, CO, 80535",188621915,"L"
471995,"3000 OCEAN PKWY APT 13J","BROOKLYN","NY",11235,40.577929726,-73.9684514589999,495,"3000 OCEAN PKWY APT 13J, BROOKLYN, NY, 11235","Match","Exact","3000 OCEAN PKWY, BROOKLYN, NY, 11235",650074073,"R"
471996,"3000 OCEAN PKWY APT 15T","BROOKLYN","NY",11235,40.577929726,-73.9684514589999,496,"3000 OCEAN PKWY APT 15T, BROOKLYN, NY, 11235","Match","Exact","3000 OCEAN PKWY, BROOKLYN, NY, 11235",650074073,"R"
471997,"3000 OLD ALABAMA RD STE 119-138","JOHNS CREEK","GA",30022,34.0217969500001,-84.271782871,497,"3000 OLD ALABAMA RD STE 119-138, JOHNS CREEK, GA, 30022","Match","Non_Exact","3000 OLD ALABAMA RD, JOHNS CREEK, GA, 30022",642626256,"L"
471998,"3000 OLD ALABAMA ROAD SUITE 119277","ALPHARETTA","GA",30022,34.0217969500001,-84.271782871,498,"3000 OLD ALABAMA ROAD SUITE 119277, ALPHARETTA, GA, 30022","Match","Non_Exact","3000 OLD ALABAMA RD, ALPHARETTA, GA, 30022",642626256,"L"
471999,"3000 OLD ALABAMA ROAD","JOHNS CREEK","GA",30022,34.0217969500001,-84.271782871,499,"3000 OLD ALABAMA ROAD, JOHNS CREEK, GA, 30022","Match","Exact","3000 OLD ALABAMA RD, JOHNS CREEK, GA, 30022",642626256,"L"
472000,"3000 OLD CHANNEL ROAD","LAUREL","MD",20724,39.11654429,-76.805651137,500,"3000 OLD CHANNEL ROAD, LAUREL, MD, 20724","Match","Exact","3000 OLD CHANNEL RD, LAUREL, MD, 20724",68196378,"L"
