"ID","Address","City","State","Zip","lat","long","id","input_address","match_indicator","match_type","matched_address","tiger_line_id","tiger_side"
887001,"825 SEAL ST NO 410","ST PAUL","MN",55114,44.9654978980001,-93.196158106,1,"825 SEAL ST NO 410, ST PAUL, MN, 55114","Match","Non_Exact","825 SEAL ST, SAINT PAUL, MN, 55114",97639024,"L"
887002,"825 SECOND STREET","BOWLING GREEN","KY",42101,NA,NA,2,"825 SECOND STREET, BOWLING GREEN, KY, 42101","No_Match",NA,NA,NA,NA
887003,"825 SHERRILL DRIVE","COOKEVILLE","TN",38501,36.1620454280001,-85.5517209,3,"825 SHERRILL DRIVE, COOKEVILLE, TN, 38501","Match","Exact","825 SHERRILL DR, COOKEVILLE, TN, 38501",25151664,"R"
887004,"825 SMALL TRACTS RD","HAINES","AK",99827,59.21432729,-135.444270662,4,"825 SMALL TRACTS RD, HAINES, AK, 99827","Match","Non_Exact","825 SMALL TRACT RD, HAINES, AK, 99827",632999562,"R"
887005,"825 SOMERSET PL NW","WASHINGTON","DC",20020,38.966718352,-77.024709803,5,"825 SOMERSET PL NW, WASHINGTON, DC, 20020","Match","Non_Exact","825 SOMERSET PL NW, WASHINGTON, DC, 20011",76221883,"R"
887006,"825 SOUTH DICKERSON ROAD","GOODLETTSVILLE","TN",37072,36.304014567,-86.7265843279999,6,"825 SOUTH DICKERSON ROAD, GOODLETTSVILLE, TN, 37072","Match","Non_Exact","825 OLD DICKERSON RD, GOODLETTSVILLE, TN, 37072",97182258,"R"
887007,"825 SOUTH HILL STREET APT 4902","LOS ANGELES","CA",90014,34.044060362,-118.256171248,7,"825 SOUTH HILL STREET APT 4902, LOS ANGELES, CA, 90014","Match","Exact","825 S HILL ST, LOS ANGELES, CA, 90014",141619265,"R"
887008,"825 SOUTH KANSAS AVENUE SUITE500","TOPEKA","KS",66612,39.0484021660001,-95.674701296,8,"825 SOUTH KANSAS AVENUE SUITE500, TOPEKA, KS, 66612","Match","Exact","825 S KANSAS AVE, TOPEKA, KS, 66612",17889267,"R"
887009,"825 SOUTH MYRTLE AVE APT 421","MONROVIA","CA",91016,34.14356467,-118.000937919,9,"825 SOUTH MYRTLE AVE APT 421, MONROVIA, CA, 91016","Match","Exact","825 S MYRTLE AVE, MONROVIA, CA, 91016",142743683,"R"
887010,"825 SOUTH RACE STREET","PRINCETON","IN",47670,38.347730099,-87.562750963,10,"825 SOUTH RACE STREET, PRINCETON, IN, 47670","Match","Exact","825 S RACE ST, PRINCETON, IN, 47670",36372562,"L"
887011,"825 SOUTH SAGINAW STREET","OWOSSO","MI",48867,42.9898177680001,-84.168275837,11,"825 SOUTH SAGINAW STREET, OWOSSO, MI, 48867","Match","Exact","825 S SAGINAW ST, OWOSSO, MI, 48867",23647931,"R"
887012,"825 SOUTH STEWART STREET","CREVE COEUR","IL",61610,40.6416466640001,-89.588792718,12,"825 SOUTH STEWART STREET, CREVE COEUR, IL, 61610","Match","Non_Exact","825 S STEWART AVE, CREVE COEUR, IL, 61610",22500859,"R"
887013,"825 SOUTH WEST ST","JACKSON","MS",39201,32.2942021850001,-90.185237781,13,"825 SOUTH WEST ST, JACKSON, MS, 39201","Match","Exact","825 S WEST ST, JACKSON, MS, 39201",616296169,"R"
887014,"825 STONE STREET RM 123","CAMP LEJEUNE","NC",28547,NA,NA,14,"825 STONE STREET RM 123, CAMP LEJEUNE, NC, 28547","No_Match",NA,NA,NA,NA
887015,"825 STUYVESANT AVE","IRVINGTON","NJ",7011,NA,NA,15,"825 STUYVESANT AVE, IRVINGTON, NJ, 7011","No_Match",NA,NA,NA,NA
887016,"825 SUNCREEK COURT","CINCINNATI","OH",45238,39.108719238,-84.6113940179999,16,"825 SUNCREEK COURT, CINCINNATI, OH, 45238","Match","Exact","825 SUNCREEK CT, CINCINNATI, OH, 45238",103918537,"L"
887017,"825 SUNSET DR","ENGLEWOOD","OH",45322,39.860735054,-84.312763602,17,"825 SUNSET DR, ENGLEWOOD, OH, 45322","Match","Exact","825 SUNSET DR, ENGLEWOOD, OH, 45322",143628322,"R"
887018,"825 SYLVIA STREET","LOUISVILLE","KY",40217,38.22328657,-85.742008616,18,"825 SYLVIA STREET, LOUISVILLE, KY, 40217","Match","Exact","825 SYLVIA ST, LOUISVILLE, KY, 40217",618511034,"L"
887019,"825 TAYLOR STREET","LYNCHBURG","VA",24504,37.4103508260001,-79.151964735,19,"825 TAYLOR STREET, LYNCHBURG, VA, 24504","Match","Exact","825 TAYLOR ST, LYNCHBURG, VA, 24504",62626765,"R"
887020,"825 TEAL LANE","LAVON","TX",75116,NA,NA,20,"825 TEAL LANE, LAVON, TX, 75116","No_Match",NA,NA,NA,NA
887021,"825 TELLER STREET","LAKEWOOD","CO",80214,39.729990371,-105.076784302,21,"825 TELLER STREET, LAKEWOOD, CO, 80214","Match","Exact","825 TELLER ST, LAKEWOOD, CO, 80214",177743692,"L"
887022,"825 TERRACE ST","HONESDALE","PA",18431,41.5534405220001,-75.264654755,22,"825 TERRACE ST, HONESDALE, PA, 18431","Match","Exact","825 TERRACE ST, HONESDALE, PA, 18431",140147346,"R"
887023,"825 THIRD AVENUE    16TH FLOOR","NEW YORK","NY",10022,40.75608514,-73.970565715,23,"825 THIRD AVENUE    16TH FLOOR, NEW YORK, NY, 10022","Match","Exact","825 3RD AVE, NEW YORK, NY, 10022",59657501,"R"
887024,"825 TOLMAN DRIVE","STANFORD","CA",94305,37.411525194,-122.155694636,24,"825 TOLMAN DRIVE, STANFORD, CA, 94305","Match","Exact","825 TOLMAN DR, STANFORD, CA, 94305",122951799,"L"
887025,"825 TOPAZ DR","MCKINNEY","TX",75071,33.206200519,-96.64960438,25,"825 TOPAZ DR, MCKINNEY, TX, 75071","Match","Exact","825 TOPAZ DR, MCKINNEY, TX, 75071",210481596,"L"
887026,"825 TORRENCE LN","MELBOURNE","FL",32935,28.1211782070001,-80.6315233399999,26,"825 TORRENCE LN, MELBOURNE, FL, 32935","Match","Non_Exact","825 TORRENCE ST, MELBOURNE, FL, 32935",93903724,"L"
887027,"825 TORRENCE ST","MELBOURNE","FL",32935,28.1211782070001,-80.6315233399999,27,"825 TORRENCE ST, MELBOURNE, FL, 32935","Match","Exact","825 TORRENCE ST, MELBOURNE, FL, 32935",93903724,"L"
887028,"825 TOWNSEND RD","GROTON","MA",1450,42.641490606,-71.651804694,28,"825 TOWNSEND RD, GROTON, MA, 1450","Match","Exact","825 TOWNSEND RD, GROTON, MA, 01450",86924429,"R"
887029,"825 TRADING POST TRAIL SE","ALBUQUERQUE","NM",87123,35.061448569,-106.514468157,29,"825 TRADING POST TRAIL SE, ALBUQUERQUE, NM, 87123","Match","Exact","825 TRADING POST TRL SE, ALBUQUERQUE, NM, 87123",206747423,"R"
887030,"825 TUPELO BAY DRIVE","MOUNT PLEASANT","SC",29464,32.849695335,-79.863960345,30,"825 TUPELO BAY DRIVE, MOUNT PLEASANT, SC, 29464","Match","Exact","825 TUPELO BAY DR, MOUNT PLEASANT, SC, 29464",635601658,"R"
887031,"825 TYLERTON CIRCLE","GRAYSLAKE","IL",60030,42.359029778,-88.040829687,31,"825 TYLERTON CIRCLE, GRAYSLAKE, IL, 60030","Match","Exact","825 TYLERTON CIR, GRAYSLAKE, IL, 60030",119741179,"L"
887032,"825 URBANDALE AVENUE","DE PERE","WI",54115,44.4540665170001,-88.05008699,32,"825 URBANDALE AVENUE, DE PERE, WI, 54115","Match","Exact","825 URBANDALE AVE, DE PERE, WI, 54115",148101464,"L"
887033,"825 USENER ST 946","HOUSTON","TX",77009,29.780621651,-95.3815797839999,33,"825 USENER ST 946, HOUSTON, TX, 77009","Match","Exact","825 USENER ST, HOUSTON, TX, 77009",96631995,"R"
887034,"825 USENER ST","HOUSTON","TX",77009,29.780621651,-95.3815797839999,34,"825 USENER ST, HOUSTON, TX, 77009","Match","Exact","825 USENER ST, HOUSTON, TX, 77009",96631995,"R"
887035,"825 VALLEY FORGE ROAD","WEST PALM BEACH","FL",33405,26.660463774,-80.062520637,35,"825 VALLEY FORGE ROAD, WEST PALM BEACH, FL, 33405","Match","Exact","825 VALLEY FORGE RD, WEST PALM BEACH, FL, 33405",115525033,"R"
887036,"825 VALLEY OAK DRIVE","GREENSBORO","NC",27406,36.0066237130001,-79.8130465309999,36,"825 VALLEY OAK DRIVE, GREENSBORO, NC, 27406","Match","Exact","825 VALLEY OAK DR, GREENSBORO, NC, 27406",131071399,"L"
887037,"825 VENANGO AVE","PITTSBURGH","PA",15209,40.5061462260001,-79.982243322,37,"825 VENANGO AVE, PITTSBURGH, PA, 15209","Match","Exact","825 VENANGO AVE, PITTSBURGH, PA, 15209",51624989,"L"
887038,"825 VIOLET STREET","BATON ROUGE","LA",70802,30.4202988070001,-91.186182275,38,"825 VIOLET STREET, BATON ROUGE, LA, 70802","Match","Exact","825 VIOLET ST, BATON ROUGE, LA, 70802",92179727,"L"
887039,"825 W 118TH STREET APT","CHICAGO","IL",60643,41.679610966,-87.643085548,39,"825 W 118TH STREET APT, CHICAGO, IL, 60643","Match","Non_Exact","825 W 118TH ST, CHICAGO, IL, 60643",616792858,"L"
887040,"825 W 180TH STREET  APT 5","NYC","NY",10033,40.850224161,-73.9398108679999,40,"825 W 180TH STREET  APT 5, NYC, NY, 10033","Match","Non_Exact","825 W 180TH ST, NEW YORK, NY, 10033",59655495,"R"
887041,"825 W 27 STREET SOUTH","INDEPENDENCE","MO",64052,39.071538891,-94.425717976,41,"825 W 27 STREET SOUTH, INDEPENDENCE, MO, 64052","Match","Non_Exact","825 W 27TH ST, INDEPENDENCE, MO, 64052",91462790,"L"
887042,"825 W 3RD AVE","PIERRE","SD",57501,44.3775663120001,-100.360617503,42,"825 W 3RD AVE, PIERRE, SD, 57501","Match","Non_Exact","825 W 3RD ST, PIERRE, SD, 57501",200328107,"L"
887043,"825 W 8TH ST","MERIDIAN","ID",83642,43.6112264810001,-116.404141412,43,"825 W 8TH ST, MERIDIAN, ID, 83642","Match","Exact","825 W 8TH ST, MERIDIAN, ID, 83642",117886669,"L"
887044,"825 W CENTRAL","HARRISON","AR",72601,36.2287671880001,-93.116935422,44,"825 W CENTRAL, HARRISON, AR, 72601","Match","Non_Exact","825 W CENTRAL AVE, HARRISON, AR, 72601",19982631,"R"
887045,"825 W FULTON","WAUPACA","WI",54981,44.3574611720001,-89.1012729509999,45,"825 W FULTON, WAUPACA, WI, 54981","Match","Non_Exact","825 W FULTON ST, WAUPACA, WI, 54981",649567271,"R"
887046,"825 W GARFIELD AVE","AURORA","IL",60506,41.759525291,-88.335828932,46,"825 W GARFIELD AVE, AURORA, IL, 60506","Match","Exact","825 GARFIELD AVE, AURORA, IL, 60506",119514600,"R"
887047,"825 W HIGHWAY 12","BOULDER","UT",84716,NA,NA,47,"825 W HIGHWAY 12, BOULDER, UT, 84716","No_Match",NA,NA,NA,NA
887048,"825 W LEBANON STREET","MOUNT AIRY","NC",27030,36.5190825820001,-80.619259439,48,"825 W LEBANON STREET, MOUNT AIRY, NC, 27030","Match","Exact","825 W LEBANON ST, MOUNT AIRY, NC, 27030",154156071,"L"
887049,"825 W MEDINA AVE","MESA","AZ",85210,33.3714945850001,-111.853394401,49,"825 W MEDINA AVE, MESA, AZ, 85210","Match","Exact","825 W MEDINA AVE, MESA, AZ, 85210",128241478,"L"
887050,"825 W PARKHURST COURT","COEUR D ALENE","ID",83833,47.7291426840001,-116.799115346,50,"825 W PARKHURST COURT, COEUR D ALENE, ID, 83833","Match","Non_Exact","825 W PARKHURST CT, COEUR D ALENE, ID, 83815",192915591,"L"
887051,"825 W QUEEN CREEK RD A2097","CHANDLER","AZ",85248,33.2618736760001,-111.855277076,51,"825 W QUEEN CREEK RD A2097, CHANDLER, AZ, 85248","Match","Non_Exact","825 W QUEEN CREEK RD, CHANDLER, AZ, 85248",128805537,"R"
887052,"825 WALTON AVE ABT B","BRONX","NY",10451,40.825799191,-73.924970579,52,"825 WALTON AVE ABT B, BRONX, NY, 10451","Match","Exact","825 WALTON AVE, BRONX, NY, 10451",80300111,"L"
887053,"825 WASHINGTON ST","WILMINGTON","DE",19801,39.7454029,-75.553014693,53,"825 WASHINGTON ST, WILMINGTON, DE, 19801","Match","Non_Exact","825 N WASHINGTON ST, WILMINGTON, DE, 19801",187257726,"L"
887054,"825 WATTERS CREEK BLVD 250","ALLEN","TX",75013,33.086468998,-96.6840884009999,54,"825 WATTERS CREEK BLVD 250, ALLEN, TX, 75013","Match","Exact","825 WATTERS CREEK BLVD, ALLEN, TX, 75013",646683359,"R"
887055,"825 WATTERS CREEK BLVD BLDG M-250","ALLEN","TX",75013,33.086468998,-96.6840884009999,55,"825 WATTERS CREEK BLVD BLDG M-250, ALLEN, TX, 75013","Match","Exact","825 WATTERS CREEK BLVD, ALLEN, TX, 75013",646683359,"R"
887056,"825 WATTERS CREEK BLVD STE 250-129","ALLEN","TX",75013,33.086468998,-96.6840884009999,56,"825 WATTERS CREEK BLVD STE 250-129, ALLEN, TX, 75013","Match","Exact","825 WATTERS CREEK BLVD, ALLEN, TX, 75013",646683359,"R"
887057,"825 WEDGEWOOD COURT","LINDENHURST","IL",60046,42.437854938,-88.043573737,57,"825 WEDGEWOOD COURT, LINDENHURST, IL, 60046","Match","Exact","825 WEDGEWOOD CT, LINDENHURST, IL, 60046",629486263,"L"
887058,"825 WEST 180TH STREET APT 5","NEW YORK","NY",10033,40.8502237500001,-73.939808505,58,"825 WEST 180TH STREET APT 5, NEW YORK, NY, 10033","Match","Exact","825 W 180TH ST, NEW YORK, NY, 10033",59655495,"R"
887059,"825 WEST 65TH STREET BOX 23338","RICHFIELD","MN",55423,44.884035107,-93.289180029,59,"825 WEST 65TH STREET BOX 23338, RICHFIELD, MN, 55423","Match","Exact","825 W 65TH ST, RICHFIELD, MN, 55423",43858447,"L"
887060,"825 WEST AVE","LENOIR","NC",28645,35.9147583160001,-81.54000689,60,"825 WEST AVE, LENOIR, NC, 28645","Match","Non_Exact","825 WEST AVE NW, LENOIR, NC, 28645",45843583,"R"
887061,"825 WEST END AVE --  STE 11C","NEW YORK","NY",10025,40.797986806,-73.971220714,61,"825 WEST END AVE --  STE 11C, NEW YORK, NY, 10025","Match","Exact","825 W END AVE, NEW YORK, NY, 10025",59656575,"L"
887062,"825 WEST HENDERSON STREET","SALISBURY","NC",28144,35.679398495,-80.469239497,62,"825 WEST HENDERSON STREET, SALISBURY, NC, 28144","Match","Exact","825 W HENDERSON ST, SALISBURY, NC, 28144",639516130,"L"
887063,"825 WEST HORAH ST","SALISBURY","NC",28144,35.6712033970001,-80.480809888,63,"825 WEST HORAH ST, SALISBURY, NC, 28144","Match","Exact","825 W HORAH ST, SALISBURY, NC, 28144",25268694,"L"
887064,"825 WEST KENSINGTON DR","PEORIA","IL",61614,40.7609005580001,-89.606127403,64,"825 WEST KENSINGTON DR, PEORIA, IL, 61614","Match","Exact","825 W KENSINGTON DR, PEORIA, IL, 61614",8721126,"R"
887065,"825 WEST POSADA AVE","MESA","AZ",85210,33.3587049540001,-111.852420993,65,"825 WEST POSADA AVE, MESA, AZ, 85210","Match","Exact","825 W POSADA AVE, MESA, AZ, 85210",128785999,"R"
887066,"825 WEST WELLINGTON AVENUE","CHICAGO","IL",60657,41.936343182,-87.650156811,66,"825 WEST WELLINGTON AVENUE, CHICAGO, IL, 60657","Match","Exact","825 W WELLINGTON AVE, CHICAGO, IL, 60657",605239844,"L"
887067,"825 WEYBURN TERRACE APT 64","SANTA ANA","CA",92799,NA,NA,67,"825 WEYBURN TERRACE APT 64, SANTA ANA, CA, 92799","No_Match",NA,NA,NA,NA
887068,"825 WHITE PINE CIRCLE","CEDAR RAPIDS","IA",52328,42.0780629610001,-91.678443962,68,"825 WHITE PINE CIRCLE, CEDAR RAPIDS, IA, 52328","Match","Non_Exact","825 WHITE PINE CIR, ROBINS, IA, 52328",633307168,"R"
887069,"825 WILCREST COURT","YORK","SC",29745,34.9922833730001,-81.2195129679999,69,"825 WILCREST COURT, YORK, SC, 29745","Match","Exact","825 WILCREST CT, YORK, SC, 29745",19838604,"L"
887070,"825 WILLIAMSON ST","MADISON","WI",53703,43.078582786,-89.37095185,70,"825 WILLIAMSON ST, MADISON, WI, 53703","Match","Exact","825 WILLIAMSON ST, MADISON, WI, 53703",49473277,"R"
887071,"825 WILLOW CREEK RD","CAMDENTON","MO",65020,38.000749371,-92.708545193,71,"825 WILLOW CREEK RD, CAMDENTON, MO, 65020","Match","Exact","825 WILLOW CREEK RD, CAMDENTON, MO, 65020",22863673,"L"
887072,"825 WILLOW DRIVE","SHREVEPORT","LA",71118,32.387933263,-93.7756182479999,72,"825 WILLOW DRIVE, SHREVEPORT, LA, 71118","Match","Exact","825 WILLOW DR, SHREVEPORT, LA, 71118",57483684,"L"
887073,"825 WILLOW VIEW DRIVE","ORONO","MN",55356,44.993978456,-93.585009022,73,"825 WILLOW VIEW DRIVE, ORONO, MN, 55356","Match","Exact","825 WILLOW VIEW DR, ORONO, MN, 55356",43859172,"L"
887074,"825 WILSHIRE BLVD 333","SANTA MONICA","CA",90401,34.022472179,-118.494164937,74,"825 WILSHIRE BLVD 333, SANTA MONICA, CA, 90401","Match","Exact","825 WILSHIRE BLVD, SANTA MONICA, CA, 90401",141559129,"L"
887075,"825 WILSON AVE","NOVATO","CA",94947,38.1091919180001,-122.592733634,75,"825 WILSON AVE, NOVATO, CA, 94947","Match","Exact","825 WILSON AVE, NOVATO, CA, 94947",192757338,"L"
887076,"825 WIMBLEDON COURT","SACRAMENTO","CA",95864,38.5822105080001,-121.354522912,76,"825 WIMBLEDON COURT, SACRAMENTO, CA, 95864","Match","Exact","825 WIMBLEDON CT, SACRAMENTO, CA, 95864",133339334,"R"
887077,"825 WINSLOW WAY","COLUMBIA","SC",29229,34.149099633,-80.923232442,77,"825 WINSLOW WAY, COLUMBIA, SC, 29229","Match","Exact","825 WINSLOW WAY, COLUMBIA, SC, 29229",71851392,"L"
887078,"825 WINTHER BLVD","NAMPA","ID",83651,43.5864519690001,-116.591290316,78,"825 WINTHER BLVD, NAMPA, ID, 83651","Match","Exact","825 WINTHER BLVD, NAMPA, ID, 83651",649887213,"L"
887079,"825 WOOD HOLLOW DR","CRANBERRY","PA",16066,40.692989074,-80.1332670469999,79,"825 WOOD HOLLOW DR, CRANBERRY, PA, 16066","Match","Non_Exact","825 WOOD HOLLOW DR, CRANBERRY TOWNSHIP, PA, 16066",52670731,"R"
887080,"825 WOODFIELD CT","PORT BYRON","IL",61275,41.6169469210001,-90.3163072899999,80,"825 WOODFIELD CT, PORT BYRON, IL, 61275","Match","Exact","825 WOODFIELD CT, PORT BYRON, IL, 61275",628822113,"R"
887081,"825 WYMORE ROAD APARTMENT 6C","ALTAMONTE SPRINGS","FL",32714,28.646098792,-81.390309811,81,"825 WYMORE ROAD APARTMENT 6C, ALTAMONTE SPRINGS, FL, 32714","Match","Exact","825 WYMORE RD, ALTAMONTE SPRINGS, FL, 32714",606887243,"L"
887082,"825 YALE STREET UNIT 101","HARRISBURG","PA",17111,NA,NA,82,"825 YALE STREET UNIT 101, HARRISBURG, PA, 17111","No_Match",NA,NA,NA,NA
887083,"825 YELLOW WOOD CT SE","PALM BAY","FL",32909,27.9462357640001,-80.6498132529999,83,"825 YELLOW WOOD CT SE, PALM BAY, FL, 32909","Match","Exact","825 YELLOW WOOD CT SE, PALM BAY, FL, 32909",601722190,"L"
887084,"825 YOUNG AVE","PETERSBURG","VA",23803,37.213238674,-77.4115670849999,84,"825 YOUNG AVE, PETERSBURG, VA, 23803","Match","Exact","825 YOUNG AVE, PETERSBURG, VA, 23803",54151527,"R"
887085,"825 YOUNG ST","JESUP","IA",50648,42.4753816940001,-92.060139006,85,"825 YOUNG ST, JESUP, IA, 50648","Match","Exact","825 YOUNG ST, JESUP, IA, 50648",101135651,"L"
887086,"825 YUMA ST","WASHINGTON","DC",20032,38.831982011,-76.993626333,86,"825 YUMA ST, WASHINGTON, DC, 20032","Match","Non_Exact","825 YUMA ST SE, WASHINGTON, DC, 20032",76232640,"R"
887087,"825-C ROCKVILLE PIKE","ROCKVILLE","MD",20852,39.0763208320001,-77.138450292,87,"825-C ROCKVILLE PIKE, ROCKVILLE, MD, 20852","Match","Exact","825 ROCKVILLE PIKE, ROCKVILLE, MD, 20852",62055117,"R"
887088,"825","HOUSTON","TX",77009,NA,NA,88,"825, HOUSTON, TX, 77009","No_Match",NA,NA,NA,NA
887089,"8250 265TH STREET","FLORAL PARK","NY",11004,NA,NA,89,"8250 265TH STREET, FLORAL PARK, NY, 11004","No_Match",NA,NA,NA,NA
887090,"8250 BASH ST","INDIANAPOLIS","IN",46250,39.906900857,-86.0497657769999,90,"8250 BASH ST, INDIANAPOLIS, IN, 46250","Match","Exact","8250 BASH ST, INDIANAPOLIS, IN, 46250",108068707,"L"
887091,"8250 BROADSTONE WAY","APEX","NC",27502,35.7116151440001,-78.844992206,91,"8250 BROADSTONE WAY, APEX, NC, 27502","Match","Exact","8250 BROADSTONE WAY, APEX, NC, 27502",650639446,"R"
887092,"8250 CALVINE RD STE C PMB 378","SACRAMENTO","CA",95828,38.455561554,-121.401902378,92,"8250 CALVINE RD STE C PMB 378, SACRAMENTO, CA, 95828","Match","Exact","8250 CALVINE RD, SACRAMENTO, CA, 95828",133381365,"L"
887093,"8250 CALVINE RD SUITE C248","SACRAMENTO","CA",95828,38.455561554,-121.401902378,93,"8250 CALVINE RD SUITE C248, SACRAMENTO, CA, 95828","Match","Exact","8250 CALVINE RD, SACRAMENTO, CA, 95828",133381365,"L"
887094,"8250 CALVINE ROAD  SUITE  C-167","SACRAMENTO","CA",92828,38.455561554,-121.401902378,94,"8250 CALVINE ROAD  SUITE  C-167, SACRAMENTO, CA, 92828","Match","Non_Exact","8250 CALVINE RD, SACRAMENTO, CA, 95828",133381365,"L"
887095,"8250 CALVINE ROAD  SUITE  C-167","SACRAMENTO","CA",95828,38.455561554,-121.401902378,95,"8250 CALVINE ROAD  SUITE  C-167, SACRAMENTO, CA, 95828","Match","Exact","8250 CALVINE RD, SACRAMENTO, CA, 95828",133381365,"L"
887096,"8250 COUNTRY WIND COURT","HOUSTON","TX",77040,29.891283093,-95.5393989029999,96,"8250 COUNTRY WIND COURT, HOUSTON, TX, 77040","Match","Exact","8250 COUNTRY WIND CT, HOUSTON, TX, 77040",637124241,"L"
887097,"8250 CREEK HOLLOW COURT","JACKSONVILLE","FL",32244,30.232562409,-81.787475039,97,"8250 CREEK HOLLOW COURT, JACKSONVILLE, FL, 32244","Match","Exact","8250 CREEK HOLLOW CT, JACKSONVILLE, FL, 32244",83950720,"R"
887098,"8250 DIXON RD","RIVES JUNCTION","MI",49277,42.3584328840001,-84.49243919,98,"8250 DIXON RD, RIVES JUNCTION, MI, 49277","Match","Exact","8250 DIXON RD, RIVES JUNCTION, MI, 49277",17614018,"R"
887099,"8250 DR ML KING JR STREET NORTH","ST PETERSBURG","FL",33702,NA,NA,99,"8250 DR ML KING JR STREET NORTH, ST PETERSBURG, FL, 33702","No_Match",NA,NA,NA,NA
887100,"8250 DUCK RD","MEARS","MI",49436,43.656978597,-86.48357366,100,"8250 DUCK RD, MEARS, MI, 49436","Match","Non_Exact","8250 W DUCK RD, MEARS, MI, 49436",643775604,"R"
887101,"8250 E GOLF LINKS ROAD APT 60","TUCSON","AZ",85730,32.191873447,-110.81610232,101,"8250 E GOLF LINKS ROAD APT 60, TUCSON, AZ, 85730","Match","Non_Exact","8250 E GOLF LINKS RD, TUCSON, AZ, 85730",121184792,"R"
887102,"8250 EAST HARVARD AV APT 6309","DENVER","CO",80231,39.6712142150001,-104.893163361,102,"8250 EAST HARVARD AV APT 6309, DENVER, CO, 80231","Match","Exact","8250 E HARVARD AVE, DENVER, CO, 80231",613181062,"R"
887103,"8250 GEORGIA AVE APT 1306","SILVER SPRING","MD",20910,38.9930521060001,-77.0267998479999,103,"8250 GEORGIA AVE APT 1306, SILVER SPRING, MD, 20910","Match","Exact","8250 GEORGIA AVE, SILVER SPRING, MD, 20910",642722804,"R"
887104,"8250 GEORGIA AVE","SILVER SPRING","MD",20910,38.9930521060001,-77.0267998479999,104,"8250 GEORGIA AVE, SILVER SPRING, MD, 20910","Match","Exact","8250 GEORGIA AVE, SILVER SPRING, MD, 20910",642722804,"R"
887105,"8250 GILES STREET","LAS VEGAS","NV",89123,36.039767845,-115.170107593,105,"8250 GILES STREET, LAS VEGAS, NV, 89123","Match","Exact","8250 GILES ST, LAS VEGAS, NV, 89123",627348179,"L"
887106,"8250 HARRIS ROAD","DENHAM SPRINGS","LA",70726,30.422380882,-90.9499843039999,106,"8250 HARRIS ROAD, DENHAM SPRINGS, LA, 70726","Match","Exact","8250 HARRIS RD, DENHAM SPRINGS, LA, 70726",115085343,"L"
887107,"8250 HIGHWAY 64","BARTLETT","TN",38133,35.204529123,-89.79049589,107,"8250 HIGHWAY 64, BARTLETT, TN, 38133","Match","Non_Exact","8250 US HWY 64, BARTLETT, TN, 38133",607403815,"L"
887108,"8250 KILBOURN AVE","SKOKIE","IL",60076,42.03125085,-87.740121188,108,"8250 KILBOURN AVE, SKOKIE, IL, 60076","Match","Exact","8250 KILBOURN AVE, SKOKIE, IL, 60076",111740899,"L"
887109,"8250 LAKEWOOD RANCH BLVD UNIT 110","LAKEWOOD RANCH","FL",34202,27.3932537270001,-82.437007126,109,"8250 LAKEWOOD RANCH BLVD UNIT 110, LAKEWOOD RANCH, FL, 34202","Match","Exact","8250 LAKEWOOD RANCH BLVD, LAKEWOOD RCH, FL, 34202",16268226,"L"
887110,"8250 LAZY H TRL","MISSOULA","MT",59808,46.8869114070001,-114.111932964,110,"8250 LAZY H TRL, MISSOULA, MT, 59808","Match","Exact","8250 LAZY H TRL, MISSOULA, MT, 59808",205263429,"R"
887111,"8250 LINDEN AV","MUNSTER","IN",46321,41.5632041810001,-87.498875864,111,"8250 LINDEN AV, MUNSTER, IN, 46321","Match","Exact","8250 LINDEN AVE, MUNSTER, IN, 46321",98421135,"R"
887112,"8250 LINDEN","MUNSTER","IN",46321,41.5632041810001,-87.498875864,112,"8250 LINDEN, MUNSTER, IN, 46321","Match","Non_Exact","8250 LINDEN AVE, MUNSTER, IN, 46321",98421135,"R"
887113,"8250 LOUISIANA AVE","GULFPORT","MS",39501,30.405160698,-89.089952549,113,"8250 LOUISIANA AVE, GULFPORT, MS, 39501","Match","Exact","8250 LOUISIANA AVE, GULFPORT, MS, 39501",111377646,"R"
887114,"8250 MONET WAY 2201","CHAMPIONS GATE","FL",33896,28.2605810210001,-81.617479337,114,"8250 MONET WAY 2201, CHAMPIONS GATE, FL, 33896","Match","Exact","8250 MONET WAY, CHAMPIONS GATE, FL, 33896",650553872,"L"
887115,"8250 MONET WAY","CHAMPIONS GATE","FL",33896,28.2605810210001,-81.617479337,115,"8250 MONET WAY, CHAMPIONS GATE, FL, 33896","Match","Exact","8250 MONET WAY, CHAMPIONS GATE, FL, 33896",650553872,"L"
887116,"8250 N 100","BEGGS","OK",74421,NA,NA,116,"8250 N 100, BEGGS, OK, 74421","No_Match",NA,NA,NA,NA
887117,"8250 N 46TH STREET 118","BROWN DEER","WI",53223,43.168366882,-87.96903958,117,"8250 N 46TH STREET 118, BROWN DEER, WI, 53223","Match","Non_Exact","8250 N 46TH ST, BROWN DEER, WI, 53223",77725746,"R"
887118,"8250 N GRAND CANYON DR    UNIT 1147","LAS VEGAS","NV",89166,36.3064075290001,-115.308546939,118,"8250 N GRAND CANYON DR    UNIT 1147, LAS VEGAS, NV, 89166","Match","Exact","8250 GRAND CANYON DR, LAS VEGAS, NV, 89166",641542327,"L"
887119,"8250 N GRAND CANYON DR 1150","LAS VEGAS","NV",89166,36.3064075290001,-115.308546939,119,"8250 N GRAND CANYON DR 1150, LAS VEGAS, NV, 89166","Match","Exact","8250 GRAND CANYON DR, LAS VEGAS, NV, 89166",641542327,"L"
887120,"8250 N HARRISON ST","DAVENPORT","IA",52806,NA,NA,120,"8250 N HARRISON ST, DAVENPORT, IA, 52806","No_Match",NA,NA,NA,NA
887121,"8250 NE 4TH PLACE UNIT 128","MIAMI","FL",33138,25.8504430830001,-80.187595974,121,"8250 NE 4TH PLACE UNIT 128, MIAMI, FL, 33138","Match","Non_Exact","8250 NE 4TH PL, MIAMI, FL, 33138",116006690,"L"
887122,"8250 NORTH GRAND CANYON","LAS VEGAS","NV",89166,36.3109645860001,-115.305860379,122,"8250 NORTH GRAND CANYON, LAS VEGAS, NV, 89166","Match","Non_Exact","8250 N GRAND CANYON DR, LAS VEGAS, NV, 89166",648385278,"R"
887123,"8250 NW 11TH STREET","PEMBROKE PINES","FL",33024,26.0177583500001,-80.2517566779999,123,"8250 NW 11TH STREET, PEMBROKE PINES, FL, 33024","Match","Exact","8250 NW 11TH ST, PEMBROKE PINES, FL, 33024",114712841,"L"
887124,"8250 NW 150TH AVE","WILLISTON","FL",32696,29.4514694330001,-82.523557534,124,"8250 NW 150TH AVE, WILLISTON, FL, 32696","Match","Non_Exact","8250 NE 150TH AVE, WILLISTON, FL, 32696",43324059,"L"
887125,"8250 NW 94 AVE","TAMARAC","FL",33321,26.2273994450001,-80.277368327,125,"8250 NW 94 AVE, TAMARAC, FL, 33321","Match","Exact","8250 NW 94TH AVE, TAMARAC, FL, 33321",114690834,"L"
887126,"8250 NW SOUTH RIVER DRIVE","MEDLEY","FL",33166,25.849100811,-80.316919164,126,"8250 NW SOUTH RIVER DRIVE, MEDLEY, FL, 33166","Match","Exact","8250 NW SOUTH RIVER DR, MEDLEY, FL, 33166",116288022,"L"
887127,"8250 OHIO ST","DETROIT","MI",48204,42.354756158,-83.15280395,127,"8250 OHIO ST, DETROIT, MI, 48204","Match","Exact","8250 OHIO ST, DETROIT, MI, 48204",95443452,"R"
887128,"8250 OLD PEARSALL ROAD","SAN ANTONIO","TX",78252,29.3079299560001,-98.660460085,128,"8250 OLD PEARSALL ROAD, SAN ANTONIO, TX, 78252","Match","Exact","8250 OLD PEARSALL RD, SAN ANTONIO, TX, 78252",101508626,"R"
887129,"8250 PAWNEE ROAD","OMAHA","NE",68122,41.3791730630001,-96.040696057,129,"8250 PAWNEE ROAD, OMAHA, NE, 68122","Match","Exact","8250 PAWNEE RD, OMAHA, NE, 68122",116963219,"L"
887130,"8250 PETERS ROAD","PLANTATION","FL",33324,26.106390409,-80.258796268,130,"8250 PETERS ROAD, PLANTATION, FL, 33324","Match","Non_Exact","8250 PETERS RD, PLANTATION, FL, 33317",114780312,"L"
887131,"8250 PINON HEIGHTS DR","PINON HILLS","CA",92372,34.4013879600001,-117.635748667,131,"8250 PINON HEIGHTS DR, PINON HILLS, CA, 92372","Match","Exact","8250 PINON HTS DR, PINON HILLS, CA, 92372",627413756,"L"
887132,"8250 PORCHE DR 911","FORT WORTH","TX",76116,32.735250444,-97.458193049,132,"8250 PORCHE DR 911, FORT WORTH, TX, 76116","Match","Exact","8250 PORCHE DR, FORT WORTH, TX, 76116",101877812,"L"
887133,"8250 SKY VISTA DRIVE","AMITY","OR",97101,45.0821026790001,-123.153153705,133,"8250 SKY VISTA DRIVE, AMITY, OR, 97101","Match","Non_Exact","8250 SE SKY VISTA DR, AMITY, OR, 97101",156508756,"R"
887134,"8250 SOUTH KEDZIE","CHICAGO","IL",60652,41.7433972490001,-87.7022206519999,134,"8250 SOUTH KEDZIE, CHICAGO, IL, 60652","Match","Non_Exact","8250 S KEDZIE AVE, CHICAGO, IL, 60652",111819945,"R"
887135,"8250 STATE ROUTE 753 S","GREENFIELD","OH",45123,NA,NA,135,"8250 STATE ROUTE 753 S, GREENFIELD, OH, 45123","No_Match",NA,NA,NA,NA
887136,"8250 STREAMWOOD DRIVE","PIKESVILLE","MD",21208,39.3742117240001,-76.755769684,136,"8250 STREAMWOOD DRIVE, PIKESVILLE, MD, 21208","Match","Exact","8250 STREAMWOOD DR, PIKESVILLE, MD, 21208",191466563,"R"
887137,"8250 SW 8TH ST","N LAUDERDALE","FL",33068,26.220404381,-80.239079144,137,"8250 SW 8TH ST, N LAUDERDALE, FL, 33068","Match","Exact","8250 SW 8TH ST, N LAUDERDALE, FL, 33068",114692025,"L"
887138,"8250 SW FISH CREEK LN","MCMINNVILLE","OR",97128,45.2002778620001,-123.318250101,138,"8250 SW FISH CREEK LN, MCMINNVILLE, OR, 97128","Match","Exact","8250 SW FISH CREEK LN, MCMINNVILLE, OR, 97128",156508552,"R"
887139,"8250 WARREN BLVD","CENTER LINE","MI",48015,42.478832637,-83.022972612,139,"8250 WARREN BLVD, CENTER LINE, MI, 48015","Match","Exact","8250 WARREN BLVD, CENTER LINE, MI, 48015",110735773,"R"
887140,"8250 WESTPARK DR APT 819","MCLEAN","VA",22102,38.9278994530001,-77.229301774,140,"8250 WESTPARK DR APT 819, MCLEAN, VA, 22102","Match","Exact","8250 WESTPARK DR, MCLEAN, VA, 22102",76042394,"R"
887141,"8250 WHITE ANTELOPE DR","COLORADO SPRINGS","CO",80908,39.1110861120001,-104.671614307,141,"8250 WHITE ANTELOPE DR, COLORADO SPRINGS, CO, 80908","Match","Exact","8250 WHITE ANTELOPE DR, COLORADO SPRINGS, CO, 80908",647967269,"L"
887142,"8250 WINDCOMBE BLVD","INDIANAPOLIS","IN",46240,39.907078594,-86.144457216,142,"8250 WINDCOMBE BLVD, INDIANAPOLIS, IN, 46240","Match","Exact","8250 WINDCOMBE BLVD, INDIANAPOLIS, IN, 46240",107983067,"L"
887143,"8250 WINDSOR CREST COURT","LAS VEGAS","NV",89123,36.039407693,-115.156046563,143,"8250 WINDSOR CREST COURT, LAS VEGAS, NV, 89123","Match","Exact","8250 WINDSOR CREST CT, LAS VEGAS, NV, 89123",201976598,"L"
887144,"8250 WOOSTER PIKE","CINCINNATI","OH",45227,39.1429942940001,-84.338816149,144,"8250 WOOSTER PIKE, CINCINNATI, OH, 45227","Match","Exact","8250 WOOSTER PIKE, CINCINNATI, OH, 45227",103939828,"L"
887145,"8250 XAVIER ROAD","ST. PAUL","KS",66771,37.487354339,-95.105999717,145,"8250 XAVIER ROAD, ST. PAUL, KS, 66771","Match","Exact","8250 XAVIER RD, SAINT PAUL, KS, 66771",18419532,"R"
887146,"8250 XAVIER","ST PAUL","KS",66771,37.487354339,-95.105999717,146,"8250 XAVIER, ST PAUL, KS, 66771","Match","Non_Exact","8250 XAVIER RD, SAINT PAUL, KS, 66771",18419532,"R"
887147,"82504 LINCOLN DR","INDIO","CA",92201,33.6866589100001,-116.227483426,147,"82504 LINCOLN DR, INDIO, CA, 92201","Match","Exact","82504 LINCOLN DR, INDIO, CA, 92201",195073312,"R"
887148,"8250A FOUR WORLD DRIVE APT 3","CINCINNATI","OH",45231,39.2172150850001,-84.533092745,148,"8250A FOUR WORLD DRIVE APT 3, CINCINNATI, OH, 45231","Match","Non_Exact","8250 FOUR WORLDS DR, CINCINNATI, OH, 45231",103919984,"R"
887149,"8251 BALLARD ROAD","COLFAX","NC",27235,36.135950634,-79.988484317,149,"8251 BALLARD ROAD, COLFAX, NC, 27235","Match","Exact","8251 BALLARD RD, COLFAX, NC, 27235",131110424,"R"
887150,"8251 BEACON LN","NORTHVILLE","MI",NA,42.39359699,-83.600135795,150,"8251 BEACON LN, NORTHVILLE, MI, ","Match","Exact","8251 BEACON LN, NORTHVILLE, MI, 48168",26047348,"R"
887151,"8251 DALE STREET","DEARBORN HEIGHTS","MI",48127,42.352019381,-83.272616693,151,"8251 DALE STREET, DEARBORN HEIGHTS, MI, 48127","Match","Exact","8251 DALE ST, DEARBORN HEIGHTS, MI, 48127",95431632,"L"
887152,"8251 E MCDOWELL RD UNIT 260","SCOTTSDALE","AZ",85257,33.4658171940001,-111.905119783,152,"8251 E MCDOWELL RD UNIT 260, SCOTTSDALE, AZ, 85257","Match","Non_Exact","8251 E MCDOWELL RD, SCOTTSDALE, AZ, 85257",128231166,"R"
887153,"8251 EAST SHORE DR","UNION CITY","GA",30291,33.6023216230001,-84.559938776,153,"8251 EAST SHORE DR, UNION CITY, GA, 30291","Match","Non_Exact","8251 EASTSHORE DR, UNION CITY, GA, 30291",17405548,"L"
887154,"8251 EAST SHORE DRIVE","UNION CITY","GA",30291,33.6023216230001,-84.559938776,154,"8251 EAST SHORE DRIVE, UNION CITY, GA, 30291","Match","Non_Exact","8251 EASTSHORE DR, UNION CITY, GA, 30291",17405548,"L"
887155,"8251 GROUSE CT","HELENA","MT",59602,46.7323544170001,-112.027692608,155,"8251 GROUSE CT, HELENA, MT, 59602","Match","Exact","8251 GROUSE CT, HELENA, MT, 59602",617979359,"R"
887156,"8251 HWY 182","FRANKLIN","LA",70538,29.7569263940001,-91.407163199,156,"8251 HWY 182, FRANKLIN, LA, 70538","Match","Non_Exact","8251 STATE RTE 182, FRANKLIN, LA, 70538",85902274,"L"
887157,"8251 LA PALMA AVE UNIT 234","BUENA PARK","CA",90620,NA,NA,157,"8251 LA PALMA AVE UNIT 234, BUENA PARK, CA, 90620","No_Match",NA,NA,NA,NA
887158,"8251 LUTIENTON ROAD","CONCORD","MI",49237,42.1405180520001,-84.613718233,158,"8251 LUTIENTON ROAD, CONCORD, MI, 49237","Match","Non_Exact","8251 LUTTENTON RD, CONCORD, MI, 49237",17618837,"R"
887159,"8251 MONRING GROVE","CONVERSE","TX",78109,NA,NA,159,"8251 MONRING GROVE, CONVERSE, TX, 78109","No_Match",NA,NA,NA,NA
887160,"8251 N 107TH ST","MILWAUKEE","WI",53224,43.1677263110001,-88.044370047,160,"8251 N 107TH ST, MILWAUKEE, WI, 53224","Match","Exact","8251 N 107TH ST, MILWAUKEE, WI, 53224",650137188,"L"
887161,"8251 NE 54TH STREET","LAUDERHILL","FL",33351,26.1915932540001,-80.261460762,161,"8251 NE 54TH STREET, LAUDERHILL, FL, 33351","Match","Non_Exact","8251 NW 54TH ST, LAUDERHILL, FL, 33351",114701746,"R"
887162,"8251 NW 54TH STREET","LAUDERHILL","FL",33351,26.1915932540001,-80.261460762,162,"8251 NW 54TH STREET, LAUDERHILL, FL, 33351","Match","Exact","8251 NW 54TH ST, LAUDERHILL, FL, 33351",114701746,"R"
887163,"8251 PARK CIRCLE","INGLEWOOD","CA",90305,33.963371786,-118.322560689,163,"8251 PARK CIRCLE, INGLEWOOD, CA, 90305","Match","Exact","8251 PARK CIR, INGLEWOOD, CA, 90305",141658540,"R"
887164,"8251 SOUTH LUELLA AVENUE","CHICAGO","IL",60617,41.7447749040001,-87.56976795,164,"8251 SOUTH LUELLA AVENUE, CHICAGO, IL, 60617","Match","Exact","8251 S LUELLA AVE, CHICAGO, IL, 60617",605558537,"L"
887165,"8251 STATE ROUTE 13","BLOSSVALE","NY",13308,43.262082085,-75.698646047,165,"8251 STATE ROUTE 13, BLOSSVALE, NY, 13308","Match","Exact","8251 STATE RTE 13, BLOSSVALE, NY, 13308",171536214,"L"
887166,"8251 SW 9TH CT","NORTH LAUDERDALE","FL",33068,26.2183508690001,-80.2384778799999,166,"8251 SW 9TH CT, NORTH LAUDERDALE, FL, 33068","Match","Exact","8251 SW 9TH CT, N LAUDERDALE, FL, 33068",114691958,"R"
887167,"8251 TAUNTON PLACE","SPRINGFIELD","VA",22152,38.775434971,-77.2304346559999,167,"8251 TAUNTON PLACE, SPRINGFIELD, VA, 22152","Match","Exact","8251 TAUNTON PL, SPRINGFIELD, VA, 22152",75976393,"L"
887168,"8251 VIA ROSA","ORLANDDO","FL",32836,28.446288828,-81.492571433,168,"8251 VIA ROSA, ORLANDDO, FL, 32836","Match","Non_Exact","8251 VIA ROSA, ORLANDO, FL, 32836",94422533,"L"
887169,"8251 W 145TH PLACE","ORLAND PARK","IL",60462,NA,NA,169,"8251 W 145TH PLACE, ORLAND PARK, IL, 60462","Tie",NA,NA,NA,NA
887170,"82511 525TH AVE","JACKSON","MN",56143,43.682144554,-95.024282112,170,"82511 525TH AVE, JACKSON, MN, 56143","Match","Exact","82511 525TH AVE, JACKSON, MN, 56143",9939784,"L"
887171,"82518 HOWE LN PO BOX 572","CRESWELL","OR",97426,43.9034792730001,-123.049836713,171,"82518 HOWE LN PO BOX 572, CRESWELL, OR, 97426","Match","Exact","82518 HOWE LN, CRESWELL, OR, 97426",178176638,"L"
887172,"8252 43RD AVENUE NE","SEATTLE","WA",98115,47.6897570470001,-122.282356644,172,"8252 43RD AVENUE NE, SEATTLE, WA, 98115","Match","Exact","8252 43RD AVE NE, SEATTLE, WA, 98115",186586311,"L"
887173,"8252 BERNARD DR S","MILLERSVILLE","MD",21108,39.115255334,-76.6122887939999,173,"8252 BERNARD DR S, MILLERSVILLE, MD, 21108","Match","Exact","8252 BERNARD DR S, MILLERSVILLE, MD, 21108",68161754,"R"
887174,"8252 FALL CREEK DR","EASTVALE","CA",92880,33.937857496,-117.601553701,174,"8252 FALL CREEK DR, EASTVALE, CA, 92880","Match","Exact","8252 FALL CREEK DR, EASTVALE, CA, 92880",629826070,"L"
887175,"8252 FULLERTON AVE","RIVER GROVE","IL",60171,41.9230442730001,-87.8329810019999,175,"8252 FULLERTON AVE, RIVER GROVE, IL, 60171","Match","Non_Exact","8252 W FULLERTON AVE, RIVER GROVE, IL, 60171",639801070,"R"
887176,"8252 IMPERIAL DRIVE","LAUREL","MD",20708,39.067616786,-76.8580165939999,176,"8252 IMPERIAL DRIVE, LAUREL, MD, 20708","Match","Exact","8252 IMPERIAL DR, LAUREL, MD, 20708",624680186,"L"
887177,"8252 JUSTIN DRIVE","CLAY","NY",13041,43.1716586000001,-76.16553476,177,"8252 JUSTIN DRIVE, CLAY, NY, 13041","Match","Exact","8252 JUSTIN DR, CLAY, NY, 13041",636805598,"L"
887178,"8252 LIABLE ROAD","HIGHLAND","IN",46322,41.5635362780001,-87.442203492,178,"8252 LIABLE ROAD, HIGHLAND, IN, 46322","Match","Exact","8252 LIABLE RD, HIGHLAND, IN, 46322",98428366,"R"
887179,"8252 N LOOKOUT VIEW TRAIL","FLAGSTAFF","AZ",86004,35.2590013000001,-111.510567805,179,"8252 N LOOKOUT VIEW TRAIL, FLAGSTAFF, AZ, 86004","Match","Exact","8252 LOOKOUT VIEW TRL, FLAGSTAFF, AZ, 86004",189136960,"R"
887180,"8252 NW 198TH STREET","HIALEAH","FL",33015,25.953340914,-80.336174259,180,"8252 NW 198TH STREET, HIALEAH, FL, 33015","Match","Exact","8252 NW 198TH ST, HIALEAH, FL, 33015",116059606,"L"
887181,"8252 PITKIN ROAD","FRISCO","TX",75036,33.147079203,-96.8879261449999,181,"8252 PITKIN ROAD, FRISCO, TX, 75036","Match","Exact","8252 PITKIN RD, FRISCO, TX, 75036",648089925,"L"
887182,"8252 SOUTH PARADISE TRAIL","GOLD CANYON","AZ",85118,NA,NA,182,"8252 SOUTH PARADISE TRAIL, GOLD CANYON, AZ, 85118","No_Match",NA,NA,NA,NA
887183,"8253 266TH STREET","FLORAL PARK","NY",11004,NA,NA,183,"8253 266TH STREET, FLORAL PARK, NY, 11004","No_Match",NA,NA,NA,NA
887184,"8253 CHERRY BLOSSOM DRIVE","WINDSOR","CO",80550,40.4510297350001,-104.955310272,184,"8253 CHERRY BLOSSOM DRIVE, WINDSOR, CO, 80550","Match","Exact","8253 CHERRY BLOSSOM DR, WINDSOR, CO, 80550",630343523,"L"
887185,"8253 E MONTERREY AVE","MESA","AZ",85209,33.3690912430001,-111.656125161,185,"8253 E MONTERREY AVE, MESA, AZ, 85209","Match","Non_Exact","8253 E MONTEREY AVE, MESA, AZ, 85209",128367450,"R"
887186,"8253 LEGATE COURT","CHARLOTTE","NC",28210,NA,NA,186,"8253 LEGATE COURT, CHARLOTTE, NC, 28210","No_Match",NA,NA,NA,NA
887187,"8253 MYERS ROAD","MIDDLETOWN","OH",45042,39.5727829320001,-84.3876971999999,187,"8253 MYERS ROAD, MIDDLETOWN, OH, 45042","Match","Exact","8253 MYERS RD, MIDDLETOWN, OH, 45042",113817907,"L"
887188,"8253 SIERRA AVE SUITE 101","FONTANA","CA",92335,34.103833971,-117.435781224,188,"8253 SIERRA AVE SUITE 101, FONTANA, CA, 92335","Match","Exact","8253 SIERRA AVE, FONTANA, CA, 92335",144642508,"L"
887189,"8253 SIERRA AVENUE SUITE 101","FONTANA","CA",92335,34.103833971,-117.435781224,189,"8253 SIERRA AVENUE SUITE 101, FONTANA, CA, 92335","Match","Exact","8253 SIERRA AVE, FONTANA, CA, 92335",144642508,"L"
887190,"8253 SUGAR HILL RD","HOLLYWOOD","SC",29494,32.706313585,-80.355602726,190,"8253 SUGAR HILL RD, HOLLYWOOD, SC, 29494","Match","Non_Exact","8253 SUGAR HILL RD, HOLLYWOOD, SC, 29449",108879500,"L"
887191,"8253 W THUNDERBIRD RD SUITE 105","PEORIA","AZ",85381,33.6099958470001,-112.236471926,191,"8253 W THUNDERBIRD RD SUITE 105, PEORIA, AZ, 85381","Match","Non_Exact","8253 W THUNDERBIRD RD, PEORIA, AZ, 85381",640591665,"L"
887192,"8254 187TH AVE NE","NEW LONDON","MN",56273,45.3033388110001,-94.9320173149999,192,"8254 187TH AVE NE, NEW LONDON, MN, 56273","Match","Exact","8254 187TH AVE NE, NEW LONDON, MN, 56273",617613611,"R"
887193,"8254 24TH AVE N","ST PETERSBURG","FL",33710,27.7934155670001,-82.754732792,193,"8254 24TH AVE N, ST PETERSBURG, FL, 33710","Match","Exact","8254 24TH AVE N, SAINT PETERSBURG, FL, 33710",124693739,"L"
887194,"8254 31ST AVE NORTH","GLYNDON","MN",56547,46.911574521,-96.6267020829999,194,"8254 31ST AVE NORTH, GLYNDON, MN, 56547","Match","Exact","8254 31ST AVE N, GLYNDON, MN, 56547",635577610,"L"
887195,"8254 BOSECK DR UNIT 139","LAS VEGAS","NV",89154,36.162746977,-115.272913862,195,"8254 BOSECK DR UNIT 139, LAS VEGAS, NV, 89154","Match","Non_Exact","8254 BOSECK DR, LAS VEGAS, NV, 89145",201918830,"L"
887196,"8254 CONCORD CHURCH RD","LEWISVILLE","NC",27023,36.0820521040001,-80.429914029,196,"8254 CONCORD CHURCH RD, LEWISVILLE, NC, 27023","Match","Exact","8254 CONCORD CHURCH RD, LEWISVILLE, NC, 27023",84678990,"L"
887197,"8254 ELIOT AVENUE","MIDDLE VILLAGE","NY",11379,NA,NA,197,"8254 ELIOT AVENUE, MIDDLE VILLAGE, NY, 11379","No_Match",NA,NA,NA,NA
887198,"8254 FOXBOUGH LN","ARLINGTON","TN",38002,35.246020366,-89.786923267,198,"8254 FOXBOUGH LN, ARLINGTON, TN, 38002","Match","Exact","8254 FOXBOUGH LN, ARLINGTON, TN, 38002",631791626,"R"
887199,"8254 S BISHOP ST","CHICAGO","IL",60620,41.743942191,-87.659638763,199,"8254 S BISHOP ST, CHICAGO, IL, 60620","Match","Exact","8254 S BISHOP ST, CHICAGO, IL, 60620",111821404,"R"
887200,"8254 SEVERN DRIVE UNIT A","BOCA RATON","FL",33433,26.3386307260001,-80.1751468539999,200,"8254 SEVERN DRIVE UNIT A, BOCA RATON, FL, 33433","Match","Exact","8254 SEVERN DR, BOCA RATON, FL, 33433",640835019,"L"
887201,"8254 TEAL LN","LAVON","TX",75166,33.0431637410001,-96.4319959429999,201,"8254 TEAL LN, LAVON, TX, 75166","Match","Exact","8254 TEAL LN, LAVON, TX, 75166",123530182,"R"
887202,"82540 RIVER DRIVE","CRESWELL","OR",97426,43.914955848,-122.996892017,202,"82540 RIVER DRIVE, CRESWELL, OR, 97426","Match","Exact","82540 RIVER DR, CRESWELL, OR, 97426",641092580,"L"
887203,"8255 BENTWOOD CIRCLE DRIVE","INDIANAPOLIS","IN",46268,NA,NA,203,"8255 BENTWOOD CIRCLE DRIVE, INDIANAPOLIS, IN, 46268","No_Match",NA,NA,NA,NA
887204,"8255 CADILLAC LANE","SAINT LOUIS","MO",63134,38.7561398730001,-90.327431501,204,"8255 CADILLAC LANE, SAINT LOUIS, MO, 63134","Match","Exact","8255 CADILLAC LN, SAINT LOUIS, MO, 63134",100121449,"R"
887205,"8255 COLLEGE PKWY SUITE 200","FT MYERS","FL",33919,26.556818671,-81.8923500499999,205,"8255 COLLEGE PKWY SUITE 200, FT MYERS, FL, 33919","Match","Exact","8255 COLLEGE PKWY, FORT MYERS, FL, 33919",647908826,"L"
887206,"8255 COUNTY RD SS","LAMAR","CO",81052,NA,NA,206,"8255 COUNTY RD SS, LAMAR, CO, 81052","No_Match",NA,NA,NA,NA
887207,"8255 COUNTY ROAD 208","SAINT AUGUSTINE","FL",32092,29.9157933170001,-81.5876854919999,207,"8255 COUNTY ROAD 208, SAINT AUGUSTINE, FL, 32092","Match","Exact","8255 CO RD 208, SAINT AUGUSTINE, FL, 32092",92615283,"R"
887208,"8255 COUNTY ROAD SS","LAMAR","CO",81052,NA,NA,208,"8255 COUNTY ROAD SS, LAMAR, CO, 81052","No_Match",NA,NA,NA,NA
887209,"8255 FORDHAM DRIVE","PENSACOLA","FL",32514,30.5129107170001,-87.1865895619999,209,"8255 FORDHAM DRIVE, PENSACOLA, FL, 32514","Match","Exact","8255 FORDHAM DR, PENSACOLA, FL, 32514",93222226,"L"
887210,"8255 FOREST CREEK DRIVE","COLUMBIA","MO",65201,38.8538212600001,-92.307066949,210,"8255 FOREST CREEK DRIVE, COLUMBIA, MO, 65201","Match","Exact","8255 FOREST CREEK DR, COLUMBIA, MO, 65201",648151477,"L"
887211,"8255 GORDON PLACE","WELCOME","MD",20603,38.485071401,-77.1184667379999,211,"8255 GORDON PLACE, WELCOME, MD, 20603","Match","Non_Exact","8255 GORDON PL, WELCOME, MD, 20693",25368876,"R"
887212,"8255 HARDWOOD COVE","CORDOVA","TN",38016,35.1643772240001,-89.7866307909999,212,"8255 HARDWOOD COVE, CORDOVA, TN, 38016","Match","Exact","8255 HARDWOOD COVE, CORDOVA, TN, 38016",72931380,"R"
887213,"8255 HWY 4","WINNSBORO","LA",71295,32.1211278060001,-91.7402856259999,213,"8255 HWY 4, WINNSBORO, LA, 71295","Match","Non_Exact","8255 HWY 4, WINNSBORO, LA, 71295",160865319,"R"
887214,"8255 MACON RD 2401","CORDOVA","TN",38018,35.1538022290001,-89.787681564,214,"8255 MACON RD 2401, CORDOVA, TN, 38018","Match","Exact","8255 MACON RD, CORDOVA, TN, 38018",72973013,"R"
887215,"8255 MACON ROAD 2401","CORDOVA","TN",38018,35.1538022290001,-89.787681564,215,"8255 MACON ROAD 2401, CORDOVA, TN, 38018","Match","Exact","8255 MACON RD, CORDOVA, TN, 38018",72973013,"R"
887216,"8255 MACON ROAD BOX 1103","CARDOVA","TN",38018,35.1538022290001,-89.787681564,216,"8255 MACON ROAD BOX 1103, CARDOVA, TN, 38018","Match","Non_Exact","8255 MACON RD, CORDOVA, TN, 38018",72973013,"R"
887217,"8255 MACON SUITE 1471","CORDOVA","TN",38018,NA,NA,217,"8255 MACON SUITE 1471, CORDOVA, TN, 38018","Tie",NA,NA,NA,NA
887218,"8255 MACON UNIT 2401","CORDOVA","TN",38018,NA,NA,218,"8255 MACON UNIT 2401, CORDOVA, TN, 38018","Tie",NA,NA,NA,NA
887219,"8255 N E THOMSON ST","PORTLAND","OR",97220,NA,NA,219,"8255 N E THOMSON ST, PORTLAND, OR, 97220","No_Match",NA,NA,NA,NA
887220,"8255 S CHAMPLAIN","CHICAGO","IL",60619,NA,NA,220,"8255 S CHAMPLAIN, CHICAGO, IL, 60619","No_Match",NA,NA,NA,NA
887221,"8255 S HOUSTON AVENUE","CHICAGO","IL",60617,41.745490364,-87.550340153,221,"8255 S HOUSTON AVENUE, CHICAGO, IL, 60617","Match","Exact","8255 S HOUSTON AVE, CHICAGO, IL, 60617",111781586,"L"
887222,"8255 SARDINA SHORE DR","CYPRESS","TX",77433,29.8983343310001,-95.693257123,222,"8255 SARDINA SHORE DR, CYPRESS, TX, 77433","Match","Exact","8255 SARDINA SHORE DR, CYPRESS, TX, 77433",628065369,"L"
887223,"8255 ST JOHNS DRIVE","WESTLAND","MI",48185,42.347955277,-83.427666575,223,"8255 ST JOHNS DRIVE, WESTLAND, MI, 48185","Match","Exact","8255 ST JOHNS DR, WESTLAND, MI, 48185",95693078,"L"
887224,"8255 STATE ROUTE 227","TRUMANSBURG","NY",14886,42.5316950750001,-76.677629602,224,"8255 STATE ROUTE 227, TRUMANSBURG, NY, 14886","Match","Exact","8255 STATE RTE 227, TRUMANSBURG, NY, 14886",639120987,"L"
887225,"8255 STREAMWOOD DR","PIKESVILLE","MD",21208,39.3743097170001,-76.7564682409999,225,"8255 STREAMWOOD DR, PIKESVILLE, MD, 21208","Match","Exact","8255 STREAMWOOD DR, PIKESVILLE, MD, 21208",191466563,"L"
887226,"8255 SUNBURY LANE APT 805","HOUSTON","TX",77095,29.8969025100001,-95.629263938,226,"8255 SUNBURY LANE APT 805, HOUSTON, TX, 77095","Match","Exact","8255 SUNBURY LN, HOUSTON, TX, 77095",96650982,"L"
887227,"8255 SW 92ND STREET","MIAMI","FL",33156,25.684634042,-80.3280131669999,227,"8255 SW 92ND STREET, MIAMI, FL, 33156","Match","Exact","8255 SW 92ND ST, MIAMI, FL, 33156",115984327,"R"
887228,"8255 SW COUNTY ROAD 6007","RICH HILL","MO",64779,NA,NA,228,"8255 SW COUNTY ROAD 6007, RICH HILL, MO, 64779","No_Match",NA,NA,NA,NA
887229,"8255 WEST SUNRISE BLVD NO 122","PLANTATION","FL",33322,26.1471029310001,-80.266244995,229,"8255 WEST SUNRISE BLVD NO 122, PLANTATION, FL, 33322","Match","Non_Exact","8255 W SUNRISE BLVD, PLANTATION, FL, 33322",637266009,"L"
887230,"8256 BROAD BRANCH WAY","LAS VEGAS","NV",89113,36.0379160700001,-115.278329469,230,"8256 BROAD BRANCH WAY, LAS VEGAS, NV, 89113","Match","Exact","8256 BROAD BRANCH WAY, LAS VEGAS, NV, 89113",650679937,"L"
887231,"8256 CHANTICLEER RD","STANTON","CA",90680,33.812367153,-117.988426497,231,"8256 CHANTICLEER RD, STANTON, CA, 90680","Match","Exact","8256 CHANTICLEER RD, STANTON, CA, 90680",144011995,"R"
887232,"8256 FOXBERRY DRIVE","SAVAGE","MN",55378,44.7558746060001,-93.383975657,232,"8256 FOXBERRY DRIVE, SAVAGE, MN, 55378","Match","Exact","8256 FOXBERRY DR, SAVAGE, MN, 55378",38154702,"R"
887233,"8256 HAMPSHIRE AVE N","BROOKLYN PARK","MN",55445,45.1046150620001,-93.3672433099999,233,"8256 HAMPSHIRE AVE N, BROOKLYN PARK, MN, 55445","Match","Exact","8256 HAMPSHIRE AVE N, BROOKLYN PARK, MN, 55445",43613862,"R"
887234,"8256 HARRINGTON LN NE","MOSES LAKE","WA",98837,47.144943002,-119.316736273,234,"8256 HARRINGTON LN NE, MOSES LAKE, WA, 98837","Match","Exact","8256 HARRINGTON LN NE, MOSES LAKE, WA, 98837",157089941,"L"
887235,"8256 KINGMERE CT","CINCINNATI","OH",45231,NA,NA,235,"8256 KINGMERE CT, CINCINNATI, OH, 45231","No_Match",NA,NA,NA,NA
887236,"8256 LENOX LANE","INDIANAPOLIS","IN",46268,39.905948978,-86.2070130829999,236,"8256 LENOX LANE, INDIANAPOLIS, IN, 46268","Match","Exact","8256 LENOX LN, INDIANAPOLIS, IN, 46268",107981055,"R"
887237,"8256 MARITIME FLAG ST UNIT 1729","WINDEMERE","FL",34786,28.447898885,-81.556557062,237,"8256 MARITIME FLAG ST UNIT 1729, WINDEMERE, FL, 34786","Match","Non_Exact","8256 MARITIME FLAG ST, WINDERMERE, FL, 34786",626957923,"R"
887238,"8256 N BASE RD","SEYMOUR","IN",47274,38.9960335380001,-86.0423659959999,238,"8256 N BASE RD, SEYMOUR, IN, 47274","Match","Exact","8256 N BASE RD, SEYMOUR, IN, 47274",646541014,"L"
887239,"8256 OLD HECKER RD","IOWA","LA",70647,30.372943779,-93.033133607,239,"8256 OLD HECKER RD, IOWA, LA, 70647","Match","Exact","8256 OLD HECKER RD, IOWA, LA, 70647",88447280,"L"
887240,"8256 S KENWOOD AVE","CHICAGO","IL",60619,41.7449134980001,-87.5916897399999,240,"8256 S KENWOOD AVE, CHICAGO, IL, 60619","Match","Exact","8256 S KENWOOD AVE, CHICAGO, IL, 60619",111774965,"R"
887241,"8256 S POPLAR WAY U101","CENTENNIAL","CO",80112,39.567272958,-104.908619885,241,"8256 S POPLAR WAY U101, CENTENNIAL, CO, 80112","Match","Non_Exact","8256 S POPLAR WAY, CENTENNIAL, CO, 80112",636169192,"R"
887242,"8256 S TRENTON WAY","CENTENNIAL","CO",80112,39.567635991,-104.898670078,242,"8256 S TRENTON WAY, CENTENNIAL, CO, 80112","Match","Exact","8256 S TRENTON WAY, CENTENNIAL, CO, 80112",177347626,"L"
887243,"8256 STOUT","DETROIT","MI",48228,42.3526488410001,-83.239418228,243,"8256 STOUT, DETROIT, MI, 48228","Match","Non_Exact","8256 STOUT ST, DETROIT, MI, 48228",95439041,"R"
887244,"8256 WALLINGFORD HILL LANE","JACKSONVILLE","FL",32256,30.183339414,-81.524497705,244,"8256 WALLINGFORD HILL LANE, JACKSONVILLE, FL, 32256","Match","Non_Exact","8256 WALLINGFORD HILLS LN, JACKSONVILLE, FL, 32256",83943191,"L"
887245,"8256 WEST WILLOW AVENUE","PEORIA","AZ",85381,33.605964714,-112.236288324,245,"8256 WEST WILLOW AVENUE, PEORIA, AZ, 85381","Match","Exact","8256 W WILLOW AVE, PEORIA, AZ, 85381",128419625,"R"
887246,"8256 WHEELER AVE","FONTANA","CA",92335,34.103649449,-117.43440945,246,"8256 WHEELER AVE, FONTANA, CA, 92335","Match","Exact","8256 WHEELER AVE, FONTANA, CA, 92335",144642509,"R"
887247,"8257 COLLING RIDGE CT","ALEXANDRIA","VA",22308,38.734269694,-77.0574891329999,247,"8257 COLLING RIDGE CT, ALEXANDRIA, VA, 22308","Match","Exact","8257 COLLING RIDGE CT, ALEXANDRIA, VA, 22308",76016499,"R"
887248,"8257 JADEITE AVE","RANCHO CUCAMONGA","CA",91730,34.1034305910001,-117.594465818,248,"8257 JADEITE AVE, RANCHO CUCAMONGA, CA, 91730","Match","Exact","8257 JADEITE AVE, RANCHO CUCAMONGA, CA, 91730",144635622,"L"
887249,"8257 JENNIFER LANE","SEMINOLE","FL",33777,27.847509964,-82.768883064,249,"8257 JENNIFER LANE, SEMINOLE, FL, 33777","Match","Exact","8257 JENNIFER LN, SEMINOLE, FL, 33777",124822891,"L"
887250,"8257 N PORCUPINE LAKE","LENA","WI",54139,44.971572441,-88.14373303,250,"8257 N PORCUPINE LAKE, LENA, WI, 54139","Match","Non_Exact","8257 N PORCUPINE LAKE RD, LENA, WI, 54139",170322469,"L"
887251,"8257 OLD FEDERAL RD","MONTGOMERY","AL",36117,32.3417452750001,-86.169435985,251,"8257 OLD FEDERAL RD, MONTGOMERY, AL, 36117","Match","Exact","8257 OLD FEDERAL RD, MONTGOMERY, AL, 36117",1551235,"R"
887252,"8257 RANCHVIEW DRIVE","IRVING","TX",75063,32.9224274200001,-96.964227067,252,"8257 RANCHVIEW DRIVE, IRVING, TX, 75063","Match","Exact","8257 RANCHVIEW DR, IRVING, TX, 75063",617054463,"R"
887253,"8257 RYAN RIDGE LOOP","MONTGOMERY","AL",36117,32.351492556,-86.131811666,253,"8257 RYAN RIDGE LOOP, MONTGOMERY, AL, 36117","Match","Exact","8257 RYAN RIDGE LOOP, MONTGOMERY, AL, 36117",642149583,"L"
887254,"8257 TIMBER TRAIL","CHAGRIN FALLS","OH",44023,41.3539540570001,-81.348398721,254,"8257 TIMBER TRAIL, CHAGRIN FALLS, OH, 44023","Match","Exact","8257 TIMBER TRL, CHAGRIN FALLS, OH, 44023",137431986,"R"
887255,"8257 W MAPLE AVENUE","NORRIDGE","IL",60706,NA,NA,255,"8257 W MAPLE AVENUE, NORRIDGE, IL, 60706","Tie",NA,NA,NA,NA
887256,"82578 C STREET","HERMISTON","OR",97838,45.8299700110001,-119.308908631,256,"82578 C STREET, HERMISTON, OR, 97838","Match","Exact","82578 C ST, HERMISTON, OR, 97838",170391034,"R"
887257,"8258 BALSAM WAY","ARVADA","CO",80005,39.847048391,-105.089381474,257,"8258 BALSAM WAY, ARVADA, CO, 80005","Match","Exact","8258 BALSAM WAY, ARVADA, CO, 80005",177800260,"R"
887258,"8258 BIGHORN TRAIL","TUCSON","AZ",85750,32.299728181,-110.816341627,258,"8258 BIGHORN TRAIL, TUCSON, AZ, 85750","Match","Non_Exact","8258 E BIG HORN TRL, TUCSON, AZ, 85750",121178968,"R"
887259,"8258 BUFFIN RD","HENRICO","VA",23231,37.438735498,-77.3448723399999,259,"8258 BUFFIN RD, HENRICO, VA, 23231","Match","Exact","8258 BUFFIN RD, HENRICO, VA, 23231",106680132,"R"
887260,"8258 DELHI RD N","CHARLESTON","SC",29406,32.9552244010001,-80.063976509,260,"8258 DELHI RD N, CHARLESTON, SC, 29406","Match","Non_Exact","8258 DELHI RD, CHARLESTON, SC, 29406",108837409,"R"
887261,"8258 GREENBRIAR RD","TALBOTT","IN",37877,NA,NA,261,"8258 GREENBRIAR RD, TALBOTT, IN, 37877","No_Match",NA,NA,NA,NA
887262,"8258 HEDGEWOOD DRIVE","JACKSONVILLE","FL",32216,NA,NA,262,"8258 HEDGEWOOD DRIVE, JACKSONVILLE, FL, 32216","No_Match",NA,NA,NA,NA
887263,"8258 HENSLOWE AVE S","COTTAGE GROVE","MN",55016,44.830303981,-92.94876785,263,"8258 HENSLOWE AVE S, COTTAGE GROVE, MN, 55016","Match","Exact","8258 HENSLOWE AVE S, COTTAGE GROVE, MN, 55016",97815550,"R"
887264,"8258 IRIS DR","BROWNSBURG","IN",46112,39.8838904890001,-86.382423756,264,"8258 IRIS DR, BROWNSBURG, IN, 46112","Match","Exact","8258 IRIS DR, BROWNSBURG, IN, 46112",625194353,"R"
887265,"8258 N RAPID CREEK RD","INKOM","ID",83245,NA,NA,265,"8258 N RAPID CREEK RD, INKOM, ID, 83245","No_Match",NA,NA,NA,NA
887266,"8258 PARKHILL CIRCLE","LENEXA","KS",66215,38.9790746640001,-94.736079049,266,"8258 PARKHILL CIRCLE, LENEXA, KS, 66215","Match","Exact","8258 PARKHILL CIR, LENEXA, KS, 66215",91270608,"R"
887267,"8258 PRAIRIE DELL","SHIPMAN","IL",62685,39.10148043,-90.000695191,267,"8258 PRAIRIE DELL, SHIPMAN, IL, 62685","Match","Non_Exact","8258 PRAIRIE DELL RD, SHIPMAN, IL, 62685",97919189,"R"
887268,"8258 SW LORI WAY","BEAVERTON","OR",97007,45.4602341610001,-122.844226799,268,"8258 SW LORI WAY, BEAVERTON, OR, 97007","Match","Exact","8258 SW LORI WAY, BEAVERTON, OR, 97007",158195522,"L"
887269,"8258 TOLL HOUSE ROAD","ANNANDALE","VA",22003,38.824581105,-77.226933727,269,"8258 TOLL HOUSE ROAD, ANNANDALE, VA, 22003","Match","Exact","8258 TOLL HOUSE RD, ANNANDALE, VA, 22003",75973244,"R"
887270,"8258 TURKEY RUN DR","COLORADO SPRINGS","CO",80920,38.951617932,-104.734789387,270,"8258 TURKEY RUN DR, COLORADO SPRINGS, CO, 80920","Match","Exact","8258 TURKEY RUN DR, CO SPGS, CO, 80920",635610575,"L"
887271,"8258 W CHARTER OAK ROAD","PEORIA","AZ",85381,33.596874261,-112.236083766,271,"8258 W CHARTER OAK ROAD, PEORIA, AZ, 85381","Match","Exact","8258 W CHARTER OAK RD, PEORIA, AZ, 85381",128882737,"L"
887272,"8258A FOUR WORLDS DRIVE","CINCINNATTTI","OH",45231,39.2172816300001,-84.533085004,272,"8258A FOUR WORLDS DRIVE, CINCINNATTTI, OH, 45231","Match","Non_Exact","8258 FOUR WORLDS DR, CINCINNATI, OH, 45231",103919984,"R"
887273,"8259 E CARRIAGE CIRCLE","PARKER","CO",80134,39.4566403330001,-104.732090435,273,"8259 E CARRIAGE CIRCLE, PARKER, CO, 80134","Match","Exact","8259 E CARRIAGE CIR, PARKER, CO, 80134",130795704,"R"
887274,"8259 HIGHLAND ST","MANASSAS","VA",20110,38.77700371,-77.4873034189999,274,"8259 HIGHLAND ST, MANASSAS, VA, 20110","Match","Exact","8259 HIGHLAND ST, MANASSAS, VA, 20110",207141213,"L"
887275,"8259 HULSEY ROAD","ORLINDA","TN",37141,36.598360767,-86.66409192,275,"8259 HULSEY ROAD, ORLINDA, TN, 37141","Match","Exact","8259 HULSEY RD, ORLINDA, TN, 37141",97443394,"R"
887276,"8259 HWY 16","DE LEON","TX",76444,NA,NA,276,"8259 HWY 16, DE LEON, TX, 76444","No_Match",NA,NA,NA,NA
887277,"8259 LOON LN","GRAND BLANC","MI",48439,42.908237656,-83.701797486,277,"8259 LOON LN, GRAND BLANC, MI, 48439","Match","Exact","8259 LOON LN, GRAND BLANC, MI, 48439",618399474,"L"
887278,"8259 MEYERS","DETROIT","MI",48228,42.354458762,-83.167533796,278,"8259 MEYERS, DETROIT, MI, 48228","Match","Non_Exact","8259 MEYERS RD, DETROIT, MI, 48228",652798643,"L"
887279,"8259 PALM GATE DR","BOYNTON BEACH","FL",33436,26.5544054470001,-80.117232272,279,"8259 PALM GATE DR, BOYNTON BEACH, FL, 33436","Match","Exact","8259 PALM GATE DR, BOYNTON BEACH, FL, 33436",115557481,"L"
887280,"8259 PARK CIRCLE","INGLEWOOD","CA",90305,33.963371786,-118.322560689,280,"8259 PARK CIRCLE, INGLEWOOD, CA, 90305","Match","Exact","8259 PARK CIR, INGLEWOOD, CA, 90305",141658540,"R"
887281,"8259 SO MORGAN STREET","CHICAGO","IL",60620,41.744058877,-87.648698867,281,"8259 SO MORGAN STREET, CHICAGO, IL, 60620","Match","Exact","8259 S MORGAN ST, CHICAGO, IL, 60620",111831494,"L"
887282,"8259 W WINFIELD AVE APT 3","MILWAUKEE","WI",53218,43.132951962,-88.0141232779999,282,"8259 W WINFIELD AVE APT 3, MILWAUKEE, WI, 53218","Match","Non_Exact","8259 W WINFIELD AVE, MILWAUKEE, WI, 53218",77725058,"L"
887283,"8259 WEST AVE E8","LANCASTER","CA",93536,34.754663898,-118.278525205,283,"8259 WEST AVE E8, LANCASTER, CA, 93536","Match","Exact","8259 W AVE E8, LANCASTER, CA, 93536",649826325,"R"
887284,"82595 BARI LN","INDIO","CA",92203,33.745332965,-116.224067254,284,"82595 BARI LN, INDIO, CA, 92203","Match","Exact","82595 BARI LN, INDIO, CA, 92203",608980490,"L"
887285,"825B WORTHINGTON ST","SPRINGFIELD","MA",1105,42.1117730940001,-72.583181598,285,"825B WORTHINGTON ST, SPRINGFIELD, MA, 1105","Match","Exact","825 WORTHINGTON ST, SPRINGFIELD, MA, 01105",4035119,"R"
887286,"825W 187TH STREET 2H","NEW YORK","NY",10033,40.855617136,-73.9380297559999,286,"825W 187TH STREET 2H, NEW YORK, NY, 10033","Match","Non_Exact","825 W 187TH ST, NEW YORK, NY, 10033",59655532,"R"
887287,"826 1/2 OSCEOLA STREET","LAKELAND","FL",33801,28.037720204,-81.947472225,287,"826 1/2 OSCEOLA STREET, LAKELAND, FL, 33801","Match","Exact","826 OSCEOLA ST, LAKELAND, FL, 33801",104810791,"L"
887288,"826 17TH AVE S","ST PETERSBURG","FL",33701,27.7534499550001,-82.6450658319999,288,"826 17TH AVE S, ST PETERSBURG, FL, 33701","Match","Exact","826 17TH AVE S, SAINT PETERSBURG, FL, 33701",124718575,"L"
887289,"826 17TH STREET APT 1","SACRAMENTO","CA",95811,38.5792951540001,-121.483219687,289,"826 17TH STREET APT 1, SACRAMENTO, CA, 95811","Match","Non_Exact","826 17TH ST, SACRAMENTO, CA, 95814",133421791,"R"
887290,"826 18TH AVE NE","ABERDEEN","SD",57401,45.4834862650001,-98.4759174179999,290,"826 18TH AVE NE, ABERDEEN, SD, 57401","Match","Exact","826 18TH AVE NE, ABERDEEN, SD, 57401",200794937,"L"
887291,"826 195TH AVE","PELLA","IA",50219,41.4056195310001,-92.976800775,291,"826 195TH AVE, PELLA, IA, 50219","Match","Exact","826 195TH AVE, PELLA, IA, 50219",89473150,"L"
887292,"826 32ND ST SE","ALBANY","OR",97322,44.611800611,-123.092749617,292,"826 32ND ST SE, ALBANY, OR, 97322","Match","Non_Exact","826 32ND AVE SE, ALBANY, OR, 97322",156073601,"R"
887293,"826 40 AVE SOUTH","ST PETERSBURG","FL",33705,27.7321488320001,-82.644742842,293,"826 40 AVE SOUTH, ST PETERSBURG, FL, 33705","Match","Exact","826 40TH AVE S, SAINT PETERSBURG, FL, 33705",124711072,"L"
887294,"826 6TH AVENUE NORTH","JACKSONVILLE BEACH","FL",32250,30.2937636230001,-81.398836167,294,"826 6TH AVENUE NORTH, JACKSONVILLE BEACH, FL, 32250","Match","Exact","826 6TH AVE N, JACKSONVILLE BEACH, FL, 32250",83960754,"L"
887295,"826 AIRPORT DRIVE","MANNING","IA",51455,NA,NA,295,"826 AIRPORT DRIVE, MANNING, IA, 51455","No_Match",NA,NA,NA,NA
887296,"826 ANCHOR DRIVE","FORKED RIVER","NJ",8731,39.8407795110001,-74.155110453,296,"826 ANCHOR DRIVE, FORKED RIVER, NJ, 8731","Match","Exact","826 ANCHOR DR, FORKED RIVER, NJ, 08731",203842453,"R"
887297,"826 ARBORMOOR PL","LAKE MARY","FL",32746,28.7803613580001,-81.324594437,297,"826 ARBORMOOR PL, LAKE MARY, FL, 32746","Match","Exact","826 ARBORMOOR PL, LAKE MARY, FL, 32746",93790552,"L"
887298,"826 ATTICUS WAY","DURHAM","NC",27703,35.903592674,-78.830452034,298,"826 ATTICUS WAY, DURHAM, NC, 27703","Match","Exact","826 ATTICUS WAY, DURHAM, NC, 27703",648306554,"L"
887299,"826 BALLARD ST","ALTAMONTE SPRINGS","FL",32701,28.6533448810001,-81.3619833559999,299,"826 BALLARD ST, ALTAMONTE SPRINGS, FL, 32701","Match","Exact","826 BALLARD ST, ALTAMONTE SPRINGS, FL, 32701",93742998,"R"
887300,"826 BARKER TEN MILE ROAD","LUMBERTON","NC",28358,34.691181753,-78.988704433,300,"826 BARKER TEN MILE ROAD, LUMBERTON, NC, 28358","Match","Exact","826 BARKER TEN MILE RD, LUMBERTON, NC, 28358",49144835,"R"
887301,"826 BASSWOOD AVE","VERONA","WI",53593,42.996598926,-89.5493250549999,301,"826 BASSWOOD AVE, VERONA, WI, 53593","Match","Exact","826 BASSWOOD AVE, VERONA, WI, 53593",49495853,"R"
887302,"826 BAY COURT","BARTLETT","IL",60103,41.983204475,-88.166250651,302,"826 BAY COURT, BARTLETT, IL, 60103","Match","Exact","826 BAY CT, BARTLETT, IL, 60103",112516775,"L"
887303,"826 BAY POINT DRIVE","MACON","GA",31220,NA,NA,303,"826 BAY POINT DRIVE, MACON, GA, 31220","No_Match",NA,NA,NA,NA
887304,"826 BEASLEY LANE","SOMERSET","KY",42503,NA,NA,304,"826 BEASLEY LANE, SOMERSET, KY, 42503","No_Match",NA,NA,NA,NA
887305,"826 BELLERIVE","SAINT LOUIS","MO",63141,NA,NA,305,"826 BELLERIVE, SAINT LOUIS, MO, 63141","No_Match",NA,NA,NA,NA
887306,"826 BILTMORE DRIVE","VIRGINIA BEACH","VA",23454,36.8540088560001,-76.041308911,306,"826 BILTMORE DRIVE, VIRGINIA BEACH, VA, 23454","Match","Exact","826 BILTMORE DR, VIRGINIA BCH, VA, 23454",122297486,"R"
887307,"826 BOND AVENUE","COLLINSVILLE","IL",62234,38.6625839870001,-89.996990635,307,"826 BOND AVENUE, COLLINSVILLE, IL, 62234","Match","Exact","826 BOND AVE, COLLINSVILLE, IL, 62234",640579789,"L"
887308,"826 BOREN ROAD","MCMINNVILLE","TN",37110,NA,NA,308,"826 BOREN ROAD, MCMINNVILLE, TN, 37110","No_Match",NA,NA,NA,NA
887309,"826 BROADVIEW DRIVE","GREEN BAY","WI",54301,44.462651179,-88.0185812299999,309,"826 BROADVIEW DRIVE, GREEN BAY, WI, 54301","Match","Exact","826 BROADVIEW DR, GREEN BAY, WI, 54301",646232346,"R"
887310,"826 BUFORD ROAD","MOUNTAIN HOME","AR",72653,36.2969613750001,-92.4320792299999,310,"826 BUFORD ROAD, MOUNTAIN HOME, AR, 72653","Match","Exact","826 BUFORD RD, MOUNTAIN HOME, AR, 72653",610881791,"R"
887311,"826 BUTTONWOOD","TEXAS CITY","TX",77591,29.391699944,-95.012048724,311,"826 BUTTONWOOD, TEXAS CITY, TX, 77591","Match","Non_Exact","826 BUTTONWOOD DR, TEXAS CITY, TX, 77591",96711874,"R"
887312,"826 CAMARGO WAY UNIT 109","ALTAMONTE SPRINGS","FL",32714,28.6586175300001,-81.416382125,312,"826 CAMARGO WAY UNIT 109, ALTAMONTE SPRINGS, FL, 32714","Match","Exact","826 CAMARGO WAY, ALTAMONTE SPRINGS, FL, 32714",93777719,"L"
887313,"826 CAMBRIDGE PLACE","GRAND PRAIRIE","TX",75051,32.7186700280001,-97.0157366769999,313,"826 CAMBRIDGE PLACE, GRAND PRAIRIE, TX, 75051","Match","Exact","826 CAMBRIDGE PL, GRAND PRAIRIE, TX, 75051",103192842,"R"
887314,"826 CAMINO REAL  UNIT 103","REDONDO BEACH","CA",90277,NA,NA,314,"826 CAMINO REAL  UNIT 103, REDONDO BEACH, CA, 90277","No_Match",NA,NA,NA,NA
887315,"826 CANYON HILL LANE","ROSENBERG","TX",77471,29.5258746010001,-95.8203881919999,315,"826 CANYON HILL LANE, ROSENBERG, TX, 77471","Match","Exact","826 CANYON HILL LN, ROSENBERG, TX, 77471",648709279,"R"
887316,"826 CAROLINE STREET","BILLINGS","MT",59105,45.840096841,-108.465086088,316,"826 CAROLINE STREET, BILLINGS, MT, 59105","Match","Exact","826 CAROLINE ST, BILLINGS, MT, 59105",181478252,"R"
887317,"826 CARTERET AVENUE","TRENTON","NJ",8618,40.2311958540001,-74.786368121,317,"826 CARTERET AVENUE, TRENTON, NJ, 8618","Match","Exact","826 CARTERET AVE, TRENTON, NJ, 08618",60177854,"R"
887318,"826 CENTRAL COURT","HIGH POINT","NC",27260,35.9578513430001,-79.962802746,318,"826 CENTRAL COURT, HIGH POINT, NC, 27260","Match","Exact","826 CENTRAL CT, HIGH POINT, NC, 27260",131098044,"R"
887319,"826 CHAMBERLIN TRAIL","ST CLOUD","FL",34772,28.221556085,-81.283458373,319,"826 CHAMBERLIN TRAIL, ST CLOUD, FL, 34772","Match","Exact","826 CHAMBERLIN TRL, SAINT CLOUD, FL, 34772",640009142,"L"
887320,"826 CHASE AVENUE","SALT LAKE CITY","UT",84102,40.7505496270001,-111.867838805,320,"826 CHASE AVENUE, SALT LAKE CITY, UT, 84102","Match","Exact","826 CHASE AVE, SALT LAKE CITY, UT, 84102",176119479,"R"
887321,"826 CHASE AVENUE","SALT LAKE CITY","UT",84106,40.7505496270001,-111.867838805,321,"826 CHASE AVENUE, SALT LAKE CITY, UT, 84106","Match","Non_Exact","826 CHASE AVE, SLC, UT, 84102",176119479,"R"
887322,"826 CHERRY ST","DENVER","CO",80220,39.7297453090001,-104.933968313,322,"826 CHERRY ST, DENVER, CO, 80220","Match","Exact","826 CHERRY ST, DENVER, CO, 80220",177339362,"R"
887323,"826 CLEARWATER DR","PAPILLION","NE",68046,41.135879796,-96.0559161959999,323,"826 CLEARWATER DR, PAPILLION, NE, 68046","Match","Exact","826 CLEARWATER DR, PAPILLION, NE, 68046",624439445,"L"
887324,"826 CLUB PLACE","DULUTH","GA",30096,33.9529700520001,-84.1481415379999,324,"826 CLUB PLACE, DULUTH, GA, 30096","Match","Exact","826 CLUB PL, DULUTH, GA, 30096",88899341,"R"
887325,"826 COAL CREEK CIRCLE","LOUISVILLE","CO",80027,39.958158477,-105.157479388,325,"826 COAL CREEK CIRCLE, LOUISVILLE, CO, 80027","Match","Exact","826 COAL CREEK CIR, LOUISVILLE, CO, 80027",188228614,"L"
887326,"826 COOLIDGE STREET","PLAINFIELD","NJ",7062,40.629362024,-74.392786966,326,"826 COOLIDGE STREET, PLAINFIELD, NJ, 7062","Match","Exact","826 COOLIDGE ST, PLAINFIELD, NJ, 07062",60567408,"R"
887327,"826 COUNTRY CLUB LANE","ANDERSON","IN",46011,40.1308430030001,-85.6895733649999,327,"826 COUNTRY CLUB LANE, ANDERSON, IN, 46011","Match","Exact","826 COUNTRY CLUB LN, ANDERSON, IN, 46011",31112958,"R"
887328,"826 COYNER SPRINGS RD","ROANOKE","VA",24012,37.3472576340001,-79.860801671,328,"826 COYNER SPRINGS RD, ROANOKE, VA, 24012","Match","Exact","826 COYNER SPRINGS RD, ROANOKE, VA, 24012",62467015,"R"
887329,"826 CROWN ST","BROOKLYN","NY",11213,40.665186148,-73.9306157239999,329,"826 CROWN ST, BROOKLYN, NY, 11213","Match","Exact","826 CROWN ST, BROOKLYN, NY, 11213",59083473,"R"
887330,"826 DARTMOOR STREET N","ST PETERSBURG","FL",33701,27.780584468,-82.639596291,330,"826 DARTMOOR STREET N, ST PETERSBURG, FL, 33701","Match","Exact","826 DARTMOOR ST N, SAINT PETERSBURG, FL, 33701",124707289,"L"
887331,"826 DARTSHIRE WAY","SUNNYVALE","CA",94087,37.3467403400001,-122.017766515,331,"826 DARTSHIRE WAY, SUNNYVALE, CA, 94087","Match","Exact","826 DARTSHIRE WAY, SUNNYVALE, CA, 94087",122992225,"R"
887332,"826 DEMPSTER ST","FORT ATKINSON","WI",53538,42.9275745200001,-88.847574672,332,"826 DEMPSTER ST, FORT ATKINSON, WI, 53538","Match","Exact","826 DEMPSTER ST, FORT ATKINSON, WI, 53538",53216360,"L"
887333,"826 DOLPHIN DRIVE","FORT WAYNE","IN",46816,NA,NA,333,"826 DOLPHIN DRIVE, FORT WAYNE, IN, 46816","No_Match",NA,NA,NA,NA
887334,"826 E AVE NW","CEDAR RAPIDS","IA",52405,41.9780579540001,-91.684438071,334,"826 E AVE NW, CEDAR RAPIDS, IA, 52405","Match","Exact","826 E AVE NW, CEDAR RAPIDS, IA, 52405",17025020,"R"
887335,"826 E BENTON ST","MORRIS","IL",60450,41.363092425,-88.413752971,335,"826 E BENTON ST, MORRIS, IL, 60450","Match","Exact","826 E BENTON ST, MORRIS, IL, 60450",54441653,"L"
887336,"826 E DECORAH RD","WEST BEND","WI",53095,NA,NA,336,"826 E DECORAH RD, WEST BEND, WI, 53095","Tie",NA,NA,NA,NA
887337,"826 E DECORAH","WEST BEND","WI",53095,NA,NA,337,"826 E DECORAH, WEST BEND, WI, 53095","Tie",NA,NA,NA,NA
887338,"826 E IOWA ST","RAPID CITY","SD",57701,44.062656899,-103.203635958,338,"826 E IOWA ST, RAPID CITY, SD, 57701","Match","Exact","826 IOWA ST, RAPID CITY, SD, 57701",205510151,"L"
887339,"826 E MITCHELL AVE","CINCINNATI","OH",45229,39.156521809,-84.485139599,339,"826 E MITCHELL AVE, CINCINNATI, OH, 45229","Match","Exact","826 E MITCHELL AVE, CINCINNATI, OH, 45229",103925585,"L"
887340,"826 EAST 7TH STREET","BOGALUSA","LA",70427,30.772312792,-89.849176933,340,"826 EAST 7TH STREET, BOGALUSA, LA, 70427","Match","Exact","826 E 7TH ST, BOGALUSA, LA, 70427",82462318,"R"
887341,"826 EAST KINGSBURY STREET","SPRINGFIELD","MO",65807,37.1848705830001,-93.284406804,341,"826 EAST KINGSBURY STREET, SPRINGFIELD, MO, 65807","Match","Exact","826 E KINGSBURY ST, SPRINGFIELD, MO, 65807",76678768,"R"
887342,"826 EAST STREET APT 5","LUDLOW","MA",1056,42.166611457,-72.4560993809999,342,"826 EAST STREET APT 5, LUDLOW, MA, 1056","Match","Exact","826 EAST ST, LUDLOW, MA, 01056",4026516,"R"
887343,"826 FARRAGUT ST","PITTSBURGH","PA",15206,40.470119916,-79.91941559,343,"826 FARRAGUT ST, PITTSBURGH, PA, 15206","Match","Exact","826 FARRAGUT ST, PITTSBURGH, PA, 15206",51683496,"R"
887344,"826 FOUNDRY ROAD","LOUISVILLE","KY",40245,38.231626454,-85.500993759,344,"826 FOUNDRY ROAD, LOUISVILLE, KY, 40245","Match","Exact","826 FOUNDRY RD, LOUISVILLE, KY, 40245",649827865,"L"
887345,"826 GARDEN PLAZA","ORLANDO","FL",32803,28.5558573980001,-81.354103333,345,"826 GARDEN PLAZA, ORLANDO, FL, 32803","Match","Exact","826 GARDEN PLZ, ORLANDO, FL, 32803",94285182,"L"
887346,"826 GEORGIA AVENUE","NORTH AUGUSTA","SC",29841,33.498268296,-81.968295805,346,"826 GEORGIA AVENUE, NORTH AUGUSTA, SC, 29841","Match","Exact","826 GEORGIA AVE, NORTH AUGUSTA, SC, 29841",64985194,"L"
887347,"826 GIBSON STREET","TITUSVILLE","FL",32780,28.598398957,-80.810601966,347,"826 GIBSON STREET, TITUSVILLE, FL, 32780","Match","Exact","826 GIBSON ST, TITUSVILLE, FL, 32780",93891491,"R"
887348,"826 GLEND COVE","BROWNSTOWN","IN",47220,38.8595694790001,-86.0627061719999,348,"826 GLEND COVE, BROWNSTOWN, IN, 47220","Match","Exact","826 GLEND COVE, BROWNSTOWN, IN, 47220",635498089,"L"
887349,"826 GRANT 82","SHERIDAN","AR",72150,34.3210021400001,-92.3779236089999,349,"826 GRANT 82, SHERIDAN, AR, 72150","Match","Exact","826 GRANT 82, SHERIDAN, AR, 72150",2486846,"R"
887350,"826 GREENE AVENUE","BROOKLYN","NY",11221,40.6902425060001,-73.935113325,350,"826 GREENE AVENUE, BROOKLYN, NY, 11221","Match","Exact","826 GREENE AVE, BROOKLYN, NY, 11221",59079259,"R"
887351,"826 HARBOR VIEW RD","HUDSON","WI",54016,44.9820039460001,-92.697079501,351,"826 HARBOR VIEW RD, HUDSON, WI, 54016","Match","Exact","826 HARBOR VIEW RD, HUDSON, WI, 54016",110916982,"L"
887352,"826 HARMONT DR","PHOENIX","AZ",85020,33.5552998640001,-112.063152347,352,"826 HARMONT DR, PHOENIX, AZ, 85020","Match","Non_Exact","826 E HARMONT DR, PHOENIX, AZ, 85020",128207201,"L"
887353,"826 HASTINGS","TRAVERSE CITY","MI",49686,44.752488075,-85.5927772759999,353,"826 HASTINGS, TRAVERSE CITY, MI, 49686","Match","Non_Exact","826 HASTINGS ST, TRAVERSE CITY, MI, 49686",145544214,"L"
887354,"826 HEIGHTS BLVD","HOUSTON","TX",77007,29.7857200030001,-95.3975832089999,354,"826 HEIGHTS BLVD, HOUSTON, TX, 77007","Match","Exact","826 HEIGHTS BLVD, HOUSTON, TX, 77007",96061342,"R"
887355,"826 HOUSTON","SHERMAN","TX",75090,33.638466189,-96.6000999089999,355,"826 HOUSTON, SHERMAN, TX, 75090","Match","Non_Exact","826 HOUSTON ST, SHERMAN, TX, 75090",63355379,"R"
887356,"826 HUNTERSVILLE RD","MARLINTON","WV",24954,38.2197730770001,-80.083901697,356,"826 HUNTERSVILLE RD, MARLINTON, WV, 24954","Match","Exact","826 HUNTERSVILLE RD, MARLINTON, WV, 24954",75130542,"R"
887357,"826 HWY 314","FAYETTEVILLE","GA",30214,33.513655354,-84.448568021,357,"826 HWY 314, FAYETTEVILLE, GA, 30214","Match","Non_Exact","826 STATE RTE 314, FAYETTEVILLE, GA, 30214",75950241,"R"
887358,"826 ILIFF STREET","PACIFIC PALISADES","CA",90272,34.04424657,-118.518352764,358,"826 ILIFF STREET, PACIFIC PALISADES, CA, 90272","Match","Exact","826 ILIFF ST, PACIFIC PALISADES, CA, 90272",141558588,"R"
887359,"826 INANAO CT","COPPELL","TX",75019,NA,NA,359,"826 INANAO CT, COPPELL, TX, 75019","No_Match",NA,NA,NA,NA
887360,"826 INLET SQUARE DR 1A","MURRELLS INLT","SC",29576,33.581834692,-79.02201235,360,"826 INLET SQUARE DR 1A, MURRELLS INLT, SC, 29576","Match","Exact","826 INLET SQUARE DR, MURRELLS INLET, SC, 29576",635645880,"R"
887361,"826 INLET SQUARE DR","MURRELLS INLET","SC",29576,33.581834692,-79.02201235,361,"826 INLET SQUARE DR, MURRELLS INLET, SC, 29576","Match","Exact","826 INLET SQUARE DR, MURRELLS INLET, SC, 29576",635645880,"R"
887362,"826 IVYWOOD DRIVE","DALLAS","TX",75232,32.6555456940001,-96.83614849,362,"826 IVYWOOD DRIVE, DALLAS, TX, 75232","Match","Exact","826 IVYWOOD DR, DALLAS, TX, 75232",102952970,"L"
887363,"826 JACKSON ST APT 306","SAN FRANCISCO","CA",94133,37.7957669210001,-122.408767911,363,"826 JACKSON ST APT 306, SAN FRANCISCO, CA, 94133","Match","Exact","826 JACKSON ST, SAN FRANCISCO, CA, 94133",192280811,"R"
887364,"826 JEFFERSON HILL ROAD","NASSAU","NY",12123,42.4964831300001,-73.558510075,364,"826 JEFFERSON HILL ROAD, NASSAU, NY, 12123","Match","Exact","826 JEFFERSON HILL RD, NASSAU, NY, 12123",35743553,"R"
887365,"826 JORALEMON STREET","BELLEVILLE","NJ",7109,40.8071701420001,-74.174691375,365,"826 JORALEMON STREET, BELLEVILLE, NJ, 7109","Match","Exact","826 JORALEMON ST, BELLEVILLE, NJ, 07109",645474396,"R"
887366,"826 JUNIPER WAY","MAHWAH","NJ",7430,41.073703016,-74.162060471,366,"826 JUNIPER WAY, MAHWAH, NJ, 7430","Match","Exact","826 JUNIPER WAY, MAHWAH, NJ, 07430",64418948,"R"
887367,"826 KENDRICK LANE","GRAHAM","TX",76450,33.136231482,-98.626832435,367,"826 KENDRICK LANE, GRAHAM, TX, 76450","Match","Exact","826 KENDRICK LN, GRAHAM, TX, 76450",183296754,"R"
887368,"826 KENDRICK LN","GRAHAM","TX",76450,33.136231482,-98.626832435,368,"826 KENDRICK LN, GRAHAM, TX, 76450","Match","Exact","826 KENDRICK LN, GRAHAM, TX, 76450",183296754,"R"
887369,"826 KHYBER PASS ROAD","LINDEN","VA",22642,38.929794223,-78.093367561,369,"826 KHYBER PASS ROAD, LINDEN, VA, 22642","Match","Exact","826 KHYBER PASS RD, LINDEN, VA, 22642",159076545,"R"
887370,"826 KINGSWAY LN","BYRON","IL",61010,42.1350343780001,-89.274508883,370,"826 KINGSWAY LN, BYRON, IL, 61010","Match","Exact","826 KINGSWAY LN, BYRON, IL, 61010",52329765,"L"
887371,"826 KIRKWOOD AVE","ATLANTA","GA",30316,33.7501741950001,-84.3601523139999,371,"826 KIRKWOOD AVE, ATLANTA, GA, 30316","Match","Non_Exact","826 KIRKWOOD AVE SE, ATLANTA, GA, 30316",17357768,"L"
887372,"826 LAKE SHORE TERRANCE","INTERLACHEN","FL",32148,29.66849225,-81.883308759,372,"826 LAKE SHORE TERRANCE, INTERLACHEN, FL, 32148","Match","Non_Exact","826 LAKE SHORE TER, INTERLACHEN, FL, 32148",86067626,"R"
887373,"826 LAKE TERRACE DR","AUGUSTA","GA",30904,33.5012289210001,-81.999792553,373,"826 LAKE TERRACE DR, AUGUSTA, GA, 30904","Match","Exact","826 LAKE TERRACE DR, AUGUSTA, GA, 30904",55637990,"L"
887374,"826 LAKEVIEW BLVD","WEST POINT","MS",39773,NA,NA,374,"826 LAKEVIEW BLVD, WEST POINT, MS, 39773","No_Match",NA,NA,NA,NA
887375,"826 LASALLE BLVD","MARQUETTE HEIGHTS","IL",61554,40.622565331,-89.5935515369999,375,"826 LASALLE BLVD, MARQUETTE HEIGHTS, IL, 61554","Match","Exact","826 LASALLE BLVD, MARQUETTE HEIGHTS, IL, 61554",608211412,"R"
887376,"826 LATHROP AVENUE FOREST PARK","FOREST PARK","IL",60130,41.871072645,-87.814141811,376,"826 LATHROP AVENUE FOREST PARK, FOREST PARK, IL, 60130","Match","Exact","826 LATHROP AVE, FOREST PARK, IL, 60130",605144622,"L"
887377,"826 LATHROP AVENUE","FOREST PARK","IL",60130,41.871072645,-87.814141811,377,"826 LATHROP AVENUE, FOREST PARK, IL, 60130","Match","Exact","826 LATHROP AVE, FOREST PARK, IL, 60130",605144622,"L"
887378,"826 LAVIGNE HILL ROAD","HINESBURG","VT",5461,44.3278030160001,-73.0933025419999,378,"826 LAVIGNE HILL ROAD, HINESBURG, VT, 5461","Match","Exact","826 LAVIGNE HILL RD, HINESBURG, VT, 05461",651807167,"L"
887379,"826 LAWRENCE STREET","MONONGAHELA","PA",15063,40.2021897500001,-79.937924674,379,"826 LAWRENCE STREET, MONONGAHELA, PA, 15063","Match","Exact","826 LAWRENCE ST, MONONGAHELA, PA, 15063",52808516,"L"
887380,"826 LOCUST ST","HERNDON","VA",20170,38.9686453320001,-77.38954484,380,"826 LOCUST ST, HERNDON, VA, 20170","Match","Exact","826 LOCUST ST, HERNDON, VA, 20170",618102057,"R"
887381,"826 LOIS LANE","BOWLING GREEN","KY",42104,36.935976263,-86.4625793719999,381,"826 LOIS LANE, BOWLING GREEN, KY, 42104","Match","Exact","826 LOIS LN, BOWLING GREEN, KY, 42104",28012203,"R"
887382,"826 LONGFELLOW ST NW","WASHINGTON","DC",20011,38.95737705,-77.02460798,382,"826 LONGFELLOW ST NW, WASHINGTON, DC, 20011","Match","Exact","826 LONGFELLOW ST NW, WASHINGTON, DC, 20011",76223265,"L"
887383,"826 LUCILE AVE","LOS ANGELES","CA",90026,34.0842675660001,-118.283302743,383,"826 LUCILE AVE, LOS ANGELES, CA, 90026","Match","Exact","826 LUCILE AVE, LOS ANGELES, CA, 90026",141604561,"R"
887384,"826 MAIN ST APT K","BELLEVILLE","NJ",7109,40.804691174,-74.140908627,384,"826 MAIN ST APT K, BELLEVILLE, NJ, 7109","Match","Exact","826 MAIN ST, BELLEVILLE, NJ, 07109",63481280,"L"
887385,"826 MAIN STREET","MARINETTE","WI",54143,45.0921459080001,-87.613699877,385,"826 MAIN STREET, MARINETTE, WI, 54143","Match","Exact","826 MAIN ST, MARINETTE, WI, 54143",169996527,"R"
887386,"826 MASON ROAD","VISTA","CA",92084,33.241368849,-117.23088987,386,"826 MASON ROAD, VISTA, CA, 92084","Match","Exact","826 MASON RD, VISTA, CA, 92084",651638450,"L"
887387,"826 MEADOWLAWN CT","SARTELL","MN",56377,45.635282712,-94.220543323,387,"826 MEADOWLAWN CT, SARTELL, MN, 56377","Match","Exact","826 MEADOWLAWN CT, SARTELL, MN, 56377",107438300,"R"
887388,"826 MERCURY CIR","LONE TREE","CO",80124,39.552084983,-104.903297871,388,"826 MERCURY CIR, LONE TREE, CO, 80124","Match","Exact","826 MERCURY CIR, LONE TREE, CO, 80124",130820591,"L"
887389,"826 MILLER AVE","ROCHESTER","MI",48307,42.686905304,-83.124031725,389,"826 MILLER AVE, ROCHESTER, MI, 48307","Match","Exact","826 MILLER AVE, ROCHESTER, MI, 48307",69713442,"R"
887390,"826 MISSIONARY DRIVE","PITTSBURGH","PA",15236,40.3496313220001,-79.96747376,390,"826 MISSIONARY DRIVE, PITTSBURGH, PA, 15236","Match","Exact","826 MISSIONARY DR, PITTSBURGH, PA, 15236",652183164,"L"
887391,"826 N 370 W","LA VERKIN","UT",84745,37.215832473,-113.275915205,391,"826 N 370 W, LA VERKIN, UT, 84745","Match","Exact","826 N 370 W, LA VERKIN, UT, 84745",641010723,"R"
887392,"826 N 3700 W","LAYTON","UT",84041,NA,NA,392,"826 N 3700 W, LAYTON, UT, 84041","No_Match",NA,NA,NA,NA
887393,"826 N AUGUSTA ST","STAUNTON","VA",24401,38.1570541360001,-79.071693351,393,"826 N AUGUSTA ST, STAUNTON, VA, 24401","Match","Exact","826 N AUGUSTA ST, STAUNTON, VA, 24401",98813892,"L"
887394,"826 N BROADWAY STREET","INDIANAPOLIS","IN",46202,39.77872168,-86.146453526,394,"826 N BROADWAY STREET, INDIANAPOLIS, IN, 46202","Match","Exact","826 BROADWAY ST, INDIANAPOLIS, IN, 46202",107991920,"L"
887395,"826 N JOHN STREET STE 103","ORLANDO","FL",32808,28.553370414,-81.462516921,395,"826 N JOHN STREET STE 103, ORLANDO, FL, 32808","Match","Non_Exact","826 N JOHN ST, ORLANDO, FL, 32808",94313844,"L"
887396,"826 N LATROBE","CHICAGO","IL",60651,41.8958169480001,-87.7568540509999,396,"826 N LATROBE, CHICAGO, IL, 60651","Match","Non_Exact","826 N LATROBE AVE, CHICAGO, IL, 60651",605050276,"L"
887397,"826 N LINDA VISTA DR","NOGALES","AZ",85621,31.346961654,-110.959210433,397,"826 N LINDA VISTA DR, NOGALES, AZ, 85621","Match","Exact","826 N LINDA VISTA DR, NOGALES, AZ, 85621",120861709,"R"
887398,"826 N MARQUIS WAY","MOUNTAIN HOUSE","CA",95391,37.7900875490001,-121.547396776,398,"826 N MARQUIS WAY, MOUNTAIN HOUSE, CA, 95391","Match","Exact","826 N MARQUIS WAY, MOUNTAIN HOUSE, CA, 95391",624719027,"R"
887399,"826 N STEWART AVE","NORMAN","OK",73071,35.231442472,-97.435924297,399,"826 N STEWART AVE, NORMAN, OK, 73071","Match","Exact","826 N STEWART AVE, NORMAN, OK, 73071",99935485,"L"
887400,"826 N SUMMIT DR","ROGERS","AR",72756,36.340230073,-94.1041596009999,400,"826 N SUMMIT DR, ROGERS, AR, 72756","Match","Exact","826 SUMMIT DR, ROGERS, AR, 72756",47850225,"R"
887401,"826 NORTH RED ROBIN STREET","ORANGE","CA",92869,33.800856659,-117.801959786,401,"826 NORTH RED ROBIN STREET, ORANGE, CA, 92869","Match","Exact","826 N RED ROBIN ST, ORANGE, CA, 92869",144034148,"L"
887402,"826 NORTHAMTON STREET","EASTON","NJ",18042,NA,NA,402,"826 NORTHAMTON STREET, EASTON, NJ, 18042","No_Match",NA,NA,NA,NA
887403,"826 NORTON AVENUE","GLENDALE","CA",91202,34.160559877,-118.279301997,403,"826 NORTON AVENUE, GLENDALE, CA, 91202","Match","Exact","826 NORTON AVE, GLENDALE, CA, 91202",142728059,"R"
887404,"826 NW 116 TER","MIAMI","FL",33168,25.881441351,-80.212893881,404,"826 NW 116 TER, MIAMI, FL, 33168","Match","Exact","826 NW 116TH TER, MIAMI, FL, 33168",116033791,"L"
887405,"826 NW 14TH TERRACE","FORT LAUDERDALE","FL",33311,26.1333887600001,-80.16068018,405,"826 NW 14TH TERRACE, FORT LAUDERDALE, FL, 33311","Match","Exact","826 NW 14TH TER, FORT LAUDERDALE, FL, 33311",114721090,"R"
887406,"826 NW 165TH PLACE","SHORELINE","WA",98177,47.7488690220001,-122.368023958,406,"826 NW 165TH PLACE, SHORELINE, WA, 98177","Match","Exact","826 NW 165TH PL, SHORELINE, WA, 98177",186573612,"R"
887407,"826 NW 193RD ST","SHORELINE","WA",98177,47.769265234,-122.367364696,407,"826 NW 193RD ST, SHORELINE, WA, 98177","Match","Exact","826 NW 193RD ST, SHORELINE, WA, 98177",186573472,"R"
887408,"826 OHIO STREET","COLUMBIA","SC",29201,33.9772645530001,-81.030951796,408,"826 OHIO STREET, COLUMBIA, SC, 29201","Match","Exact","826 OHIO ST, COLUMBIA, SC, 29201",71827883,"L"
887409,"826 OLNEY ROAD","VINTON","VA",24179,37.2867949270001,-79.880861586,409,"826 OLNEY ROAD, VINTON, VA, 24179","Match","Exact","826 OLNEY RD, VINTON, VA, 24179",62906744,"L"
887410,"826 ORANGE AVE 549","CORONADO","CA",92118,32.688323956,-117.178443974,410,"826 ORANGE AVE 549, CORONADO, CA, 92118","Match","Exact","826 ORANGE AVE, CORONADO, CA, 92118",195344225,"R"
887411,"826 ORANGE AVENUE 551","CORONADO","CA",92118,32.688323956,-117.178443974,411,"826 ORANGE AVENUE 551, CORONADO, CA, 92118","Match","Exact","826 ORANGE AVE, CORONADO, CA, 92118",195344225,"R"
887412,"826 ORANGE AVENUE SUITE 508","CORONADO","CA",92118,32.688323956,-117.178443974,412,"826 ORANGE AVENUE SUITE 508, CORONADO, CA, 92118","Match","Exact","826 ORANGE AVE, CORONADO, CA, 92118",195344225,"R"
887413,"826 ORANGE AVENUE SUITE 635","CORONADO","CA",92118,32.688323956,-117.178443974,413,"826 ORANGE AVENUE SUITE 635, CORONADO, CA, 92118","Match","Exact","826 ORANGE AVE, CORONADO, CA, 92118",195344225,"R"
887414,"826 OURLANE CIRCLE","HOUSTON","TX",77024,29.7758764110001,-95.525360749,414,"826 OURLANE CIRCLE, HOUSTON, TX, 77024","Match","Exact","826 OURLANE CIR, HOUSTON, TX, 77024",96290422,"R"
887415,"826 OXFORD CT","YUBA CITY","CA",95991,39.16594658,-121.625553427,415,"826 OXFORD CT, YUBA CITY, CA, 95991","Match","Exact","826 OXFORD CT, YUBA CITY, CA, 95991",618821805,"R"
887416,"826 PAINTED OAK DRIVE","MEMPHIS","TN",38116,35.0194095480001,-90.036343025,416,"826 PAINTED OAK DRIVE, MEMPHIS, TN, 38116","Match","Exact","826 PAINTED OAK DR, MEMPHIS, TN, 38116",72977428,"R"
887417,"826 PISTACHIO AVE","CLOVIS","CA",93611,36.8206608240001,-119.667955566,417,"826 PISTACHIO AVE, CLOVIS, CA, 93611","Match","Exact","826 PISTACHIO AVE, CLOVIS, CA, 93611",197619905,"L"
887418,"826 POINT ROAD","HANCOCK","ME",4640,44.4765172520001,-68.2373741709999,418,"826 POINT ROAD, HANCOCK, ME, 4640","Match","Exact","826 POINT RD, HANCOCK, ME, 04640",110301882,"R"
887419,"826 PRALINE STREET","MARION","AR",72364,35.199184357,-90.2103533,419,"826 PRALINE STREET, MARION, AR, 72364","Match","Exact","826 PRALINE ST, MARION, AR, 72364",645633341,"L"
887420,"826 PRALINE","MARION","AR",72364,35.199184357,-90.2103533,420,"826 PRALINE, MARION, AR, 72364","Match","Non_Exact","826 PRALINE ST, MARION, AR, 72364",645633341,"L"
887421,"826 PRESTON PARK DR","DULUTH","GA",30096,NA,NA,421,"826 PRESTON PARK DR, DULUTH, GA, 30096","No_Match",NA,NA,NA,NA
887422,"826 RAY RD","HYATTSVILLE","MD",20783,38.9706389850001,-76.993751373,422,"826 RAY RD, HYATTSVILLE, MD, 20783","Match","Exact","826 RAY RD, HYATTSVILLE, MD, 20783",624430870,"L"
887423,"826 REBA PLACE","EVANSTON","IL",60202,42.0298319120001,-87.682810766,423,"826 REBA PLACE, EVANSTON, IL, 60202","Match","Exact","826 REBA PL, EVANSTON, IL, 60202",111744242,"L"
887424,"826 RED MOUNTAIN DR","GLENWOOD SPRINGS","CO",81601,39.546356428,-107.333206062,424,"826 RED MOUNTAIN DR, GLENWOOD SPRINGS, CO, 81601","Match","Exact","826 RED MOUNTAIN DR, GLENWOOD SPGS, CO, 81601",626935804,"R"
887425,"826 RIDGEWAY CIRCLE","MEDFORD","OR",97504,42.3363579300001,-122.837334867,425,"826 RIDGEWAY CIRCLE, MEDFORD, OR, 97504","Match","Exact","826 RIDGEWAY CIR, MEDFORD, OR, 97504",155549020,"R"
887426,"826 RIVERSIDE DRIVE","METHUEN","MA",1844,42.699900455,-71.192324334,426,"826 RIVERSIDE DRIVE, METHUEN, MA, 1844","Match","Exact","826 RIVERSIDE DR, METHUEN, MA, 01844",86625870,"L"
887427,"826 ROCK OAK","NACOGDOCHES","TX",75964,31.5716266260001,-94.6838132779999,427,"826 ROCK OAK, NACOGDOCHES, TX, 75964","Match","Non_Exact","826 ROCK OAK ST, NACOGDOCHES, TX, 75964",72436447,"R"
887428,"826 ROLWES AVE","ST LOUIS","MO",63135,38.749095337,-90.315889435,428,"826 ROLWES AVE, ST LOUIS, MO, 63135","Match","Exact","826 ROLWES AVE, SAINT LOUIS, MO, 63135",100121549,"L"
887429,"826 ROUTE 68","NEW BRIGHTON","PA",15066,40.731571123,-80.242057707,429,"826 ROUTE 68, NEW BRIGHTON, PA, 15066","Match","Non_Exact","826 STATE RTE 68, NEW BRIGHTON, PA, 15066",52586948,"R"
887430,"826 S 13TH ST","PALATKA","FL",32177,29.6417726820001,-81.6433095199999,430,"826 S 13TH ST, PALATKA, FL, 32177","Match","Exact","826 S 13TH ST, PALATKA, FL, 32177",86091329,"L"
887431,"826 S 15TH ST","NEWARK","NJ",7108,40.725516627,-74.211208615,431,"826 S 15TH ST, NEWARK, NJ, 7108","Match","Exact","826 S 15TH ST, NEWARK, NJ, 07108",63465943,"L"
887432,"826 S PHILADELPHIA ST","ANAHEIM","CA",92805,33.8261270150001,-117.908094043,432,"826 S PHILADELPHIA ST, ANAHEIM, CA, 92805","Match","Exact","826 S PHILADELPHIA ST, ANAHEIM, CA, 92805",609067933,"L"
887433,"826 S WEST TEMPLE B","SALT LAKE CITY","UT",84101,NA,NA,433,"826 S WEST TEMPLE B, SALT LAKE CITY, UT, 84101","No_Match",NA,NA,NA,NA
887434,"826 SANDRA WAY","KODAK","TN",37764,35.9656575000001,-83.5594914169999,434,"826 SANDRA WAY, KODAK, TN, 37764","Match","Exact","826 SANDRA WAY, KODAK, TN, 37764",107548204,"R"
887435,"826 SANTA RITA AVE","LOS ALTOS","CA",94022,37.397291878,-122.12234688,435,"826 SANTA RITA AVE, LOS ALTOS, CA, 94022","Match","Exact","826 SANTA RITA AVE, LOS ALTOS, CA, 94022",122952961,"L"
887436,"826 SEDONA PINES DR","BATON ROUGE","LA",70816,30.458086231,-91.0094854769999,436,"826 SEDONA PINES DR, BATON ROUGE, LA, 70816","Match","Exact","826 SEDONA PINES DR, BATON ROUGE, LA, 70816",646663082,"R"
887437,"826 SHADOW LAKE DR","LITHONIA","GA",30058,33.765689481,-84.140814769,437,"826 SHADOW LAKE DR, LITHONIA, GA, 30058","Match","Exact","826 SHADOW LAKE DR, LITHONIA, GA, 30058",627673226,"R"
887438,"826 SHELBURNE HINESBURG","SHELBURNE","VT",5482,44.3642748980001,-73.164246797,438,"826 SHELBURNE HINESBURG, SHELBURNE, VT, 5482","Match","Non_Exact","826 SHELBURNE HINESBURG RD, SHELBURNE, VT, 05482",636935492,"L"
887439,"826 SHELLEY RD","PAVO","GA",31778,30.9982327480001,-83.725321392,439,"826 SHELLEY RD, PAVO, GA, 31778","Match","Exact","826 SHELLEY RD, PAVO, GA, 31778",83062226,"L"
887440,"826 SILVA STREET","LONG BEACH","CA",90807,33.8468059260001,-118.181976161,440,"826 SILVA STREET, LONG BEACH, CA, 90807","Match","Non_Exact","826 E SILVA ST, LONG BEACH, CA, 90807",141684483,"R"
887441,"826 SOLANO AVENUE","VALLEJO","CA",94590,38.097434504,-122.246058957,441,"826 SOLANO AVENUE, VALLEJO, CA, 94590","Match","Exact","826 SOLANO AVE, VALLEJO, CA, 94590",192565987,"L"
887442,"826 SOUTH CASCADE AVENUE","COLORADO SPRINGS","CO",80903,38.82274169,-104.826035417,442,"826 SOUTH CASCADE AVENUE, COLORADO SPRINGS, CO, 80903","Match","Exact","826 S CASCADE AVE, COLORADO SPRINGS, CO, 80903",105514700,"R"
887443,"826 STONEBRIDGE CRESCENT","LITHONIA","GA",30058,33.7746552150001,-84.087332471,443,"826 STONEBRIDGE CRESCENT, LITHONIA, GA, 30058","Match","Exact","826 STONEBRIDGE CRES, LITHONIA, GA, 30058",23394918,"L"
887444,"826 STUDIO LANE","EDINBURG","TX",78542,26.286199352,-98.104136986,444,"826 STUDIO LANE, EDINBURG, TX, 78542","Match","Exact","826 STUDIO LN, EDINBURG, TX, 78542",625296369,"R"
887445,"826 SUNDANCE","EUGENE","OR",97405,44.0127329220001,-123.105736393,445,"826 SUNDANCE, EUGENE, OR, 97405","Match","Non_Exact","826 SUNDANCE ST, EUGENE, OR, 97405",605397118,"L"
887446,"826 SUNRISE BLVD","WATERLOO","IA",50701,42.4625916620001,-92.369793375,446,"826 SUNRISE BLVD, WATERLOO, IA, 50701","Match","Exact","826 SUNRISE BLVD, WATERLOO, IA, 50701",77251522,"R"
887447,"826 TERRACE ST","ROSSVILLE","GA",30741,34.974735207,-85.273805518,447,"826 TERRACE ST, ROSSVILLE, GA, 30741","Match","Exact","826 TERRACE ST, ROSSVILLE, GA, 30741",66731561,"R"
887448,"826 TEXAS PARKWAY","STAFFORD","TX",77477,29.613964153,-95.5324924829999,448,"826 TEXAS PARKWAY, STAFFORD, TX, 77477","Match","Exact","826 TEXAS PKWY, STAFFORD, TX, 77477",78269921,"L"
887449,"826 THORNBRANCH DR","HOUSTON","TX",77079,29.776484281,-95.613389529,449,"826 THORNBRANCH DR, HOUSTON, TX, 77079","Match","Exact","826 THORNBRANCH DR, HOUSTON, TX, 77079",96020430,"R"
887450,"826 THORNVINE LN","HOUSTON","TX",77079,29.776937423,-95.614302043,450,"826 THORNVINE LN, HOUSTON, TX, 77079","Match","Exact","826 THORNVINE LN, HOUSTON, TX, 77079",96020429,"R"
887451,"826 THUNDERBIRD TRAIL","CAROL STREAM","IL",60188,41.911339142,-88.1491523349999,451,"826 THUNDERBIRD TRAIL, CAROL STREAM, IL, 60188","Match","Exact","826 THUNDERBIRD TRL, CAROL STREAM, IL, 60188",112683617,"R"
887452,"826 TREEHAVEN CT","PLEASANT HILL","CA",94523,37.957815779,-122.054866914,452,"826 TREEHAVEN CT, PLEASANT HILL, CA, 94523","Match","Exact","826 TREEHAVEN CT, PLEASANT HILL, CA, 94523",192109037,"L"
887453,"826 UNION RD","AMBOY","IL",61310,NA,NA,453,"826 UNION RD, AMBOY, IL, 61310","No_Match",NA,NA,NA,NA
887454,"826 W DRAKE RD NO 1","FORT COLLINS","CO",80526,NA,NA,454,"826 W DRAKE RD NO 1, FORT COLLINS, CO, 80526","No_Match",NA,NA,NA,NA
887455,"826 W HILLSBORO ST","EL DORADO","AR",71730,33.207440374,-92.673346367,455,"826 W HILLSBORO ST, EL DORADO, AR, 71730","Match","Exact","826 W HILLSBORO ST, EL DORADO, AR, 71730",28160346,"R"
887456,"826 W ROSCOE ST APT 2","CHICAGO","IL",60657,41.943606758,-87.650471218,456,"826 W ROSCOE ST APT 2, CHICAGO, IL, 60657","Match","Non_Exact","826 W ROSCOE ST, CHICAGO, IL, 60657",605210032,"R"
887457,"826 W ROSCOE","CHICAGO","IL",60657,NA,NA,457,"826 W ROSCOE, CHICAGO, IL, 60657","No_Match",NA,NA,NA,NA
887458,"826 W SPRAGUE AVE","SPOKANE","WA",99201,47.6571966670001,-117.423965436,458,"826 W SPRAGUE AVE, SPOKANE, WA, 99201","Match","Non_Exact","826 W SPRAGUE AVE, SPOKANE, WA, 99201",189876568,"R"
887459,"826 W WRIGHT ST","HARLINGEN","TX",78550,26.1880202,-97.7041636879999,459,"826 W WRIGHT ST, HARLINGEN, TX, 78550","Match","Exact","826 W WRIGHT ST, HARLINGEN, TX, 78550",89955489,"R"
887460,"826 WALNUT STREET","BELPRE","OH",45714,39.2812264080001,-81.57028396,460,"826 WALNUT STREET, BELPRE, OH, 45714","Match","Exact","826 WALNUT ST, BELPRE, OH, 45714",45684017,"R"
887461,"826 WELCH ST","BELLEVILLE","WI",53508,42.873190854,-89.536233527,461,"826 WELCH ST, BELLEVILLE, WI, 53508","Match","Exact","826 WELCH ST, BELLEVILLE, WI, 53508",49497096,"R"
887462,"826 WEST 10TH PLACE","MESA","AZ",85201,33.433989094,-111.849284568,462,"826 WEST 10TH PLACE, MESA, AZ, 85201","Match","Exact","826 W 10TH PL, MESA, AZ, 85201",128233623,"R"
887463,"826 WEST KING","OWOSSO","MI",48867,43.0050413160001,-84.180506414,463,"826 WEST KING, OWOSSO, MI, 48867","Match","Non_Exact","826 W KING ST, OWOSSO, MI, 48867",23645635,"R"
887464,"826 WEST LAKE DRIVE","FREMONT","MI",49412,43.4599196880001,-85.9615144429999,464,"826 WEST LAKE DRIVE, FREMONT, MI, 49412","Match","Exact","826 W LAKE DR, FREMONT, MI, 49412",150237056,"L"
887465,"826 WEST RIVERVIEW","SUFFOLK","VA",23434,36.7427846570001,-76.590479519,465,"826 WEST RIVERVIEW, SUFFOLK, VA, 23434","Match","Non_Exact","826 W RIVERVIEW DR, SUFFOLK, VA, 23434",122232826,"R"
887466,"826 WEST ST","DUXBURY","MA",2332,42.0652006070001,-70.726319715,466,"826 WEST ST, DUXBURY, MA, 2332","Match","Exact","826 WEST ST, DUXBURY, MA, 02332",87474291,"R"
887467,"826 WEST WESTWOOD DRIVE","GLENWOOD","IL",60425,41.5504813900001,-87.6323460689999,467,"826 WEST WESTWOOD DRIVE, GLENWOOD, IL, 60425","Match","Non_Exact","826 WESTWOOD DR, GLENWOOD, IL, 60425",111712880,"L"
887468,"826 WEYMOUTH DR","NEWPORT NEWS","VA",23602,37.1214621030001,-76.4914550729999,468,"826 WEYMOUTH DR, NEWPORT NEWS, VA, 23602","Match","Non_Exact","826 WYEMOUTH DR, NEWPORT NEWS, VA, 23602",103816941,"R"
887469,"826 WILLOWMERE DR","ZUMBROTA","MN",55992,44.28862586,-92.658966683,469,"826 WILLOWMERE DR, ZUMBROTA, MN, 55992","Match","Exact","826 WILLOWMERE DR, ZUMBROTA, MN, 55992",31560949,"R"
887470,"826 WINSLOW COURT","MUSKEGON","MI",49441,43.1846031000001,-86.263938481,470,"826 WINSLOW COURT, MUSKEGON, MI, 49441","Match","Exact","826 WINSLOW CT, MUSKEGON, MI, 49441",77672404,"R"
887471,"826 WISMAR COURT","CHARLOTTE","NC",28270,35.107095718,-80.769622095,471,"826 WISMAR COURT, CHARLOTTE, NC, 28270","Match","Exact","826 WISMAR CT, CHARLOTTE, NC, 28270",70536556,"R"
887472,"826 WRIGHT DRIVE","LAKE WORTH","FL",33461,26.606335872,-80.071759685,472,"826 WRIGHT DRIVE, LAKE WORTH, FL, 33461","Match","Exact","826 WRIGHT DR, LAKE WORTH, FL, 33461",115527206,"L"
887473,"826","GREENSBORO","NC",27406,NA,NA,473,"826, GREENSBORO, NC, 27406","No_Match",NA,NA,NA,NA
887474,"8260 ADRINA SHORES WAY","BOYNTON BEACH","FL",33028,26.5176207870001,-80.175150687,474,"8260 ADRINA SHORES WAY, BOYNTON BEACH, FL, 33028","Match","Non_Exact","8260 ADRIAN SHORES WAY, BOYNTON BEACH, FL, 33473",645909954,"R"
887475,"8260 CANNING TERRACE","GREENBELT","MD",20770,38.9906182880001,-76.8633157369999,475,"8260 CANNING TERRACE, GREENBELT, MD, 20770","Match","Exact","8260 CANNING TER, GREENBELT, MD, 20770",647276560,"L"
887476,"8260 E CHESHIRE RD","ORANGE","CA",92867,33.830285652,-117.76565569,476,"8260 E CHESHIRE RD, ORANGE, CA, 92867","Match","Exact","8260 CHESHIRE RD, ORANGE, CA, 92867",609074797,"L"
887477,"8260 E CHESHIRE ROAD","ORANGE","CA",92867,33.830285652,-117.76565569,477,"8260 E CHESHIRE ROAD, ORANGE, CA, 92867","Match","Exact","8260 CHESHIRE RD, ORANGE, CA, 92867",609074797,"L"
887478,"8260 E EDEN RD","EDEN","NY",14057,42.6617649230001,-78.827536703,478,"8260 E EDEN RD, EDEN, NY, 14057","Match","Exact","8260 E EDEN RD, EDEN, NY, 14057",48342432,"R"
887479,"8260 E GEDDES AVE","CENTENNIAL","CO",80112,39.5833087350001,-104.892442371,479,"8260 E GEDDES AVE, CENTENNIAL, CO, 80112","Match","Non_Exact","8260 E GEDDES AVE, CENTENNIAL, CO, 80112",177346952,"R"
887480,"8260 E POSADA AVE","MESA","AZ",85212,33.3597434320001,-111.655930975,480,"8260 E POSADA AVE, MESA, AZ, 85212","Match","Exact","8260 E POSADA AVE, MESA, AZ, 85212",128799544,"L"
887481,"8260 GRISWOLD","NEW ALBANY","OH",43054,40.0876911140001,-82.8028768189999,481,"8260 GRISWOLD, NEW ALBANY, OH, 43054","Match","Non_Exact","8260 GRISWOLD DR, NEW ALBANY, OH, 43054",645578009,"R"
887482,"8260 HEWLETT RD","SANDY SPRINGS","GA",30350,33.9799627680001,-84.3284389089999,482,"8260 HEWLETT RD, SANDY SPRINGS, GA, 30350","Match","Exact","8260 HEWLETT RD, SANDY SPRINGS, GA, 30350",17354532,"L"
887483,"8260 IRVING STREET","WESTMINSTER","CO",80031,39.846160114,-105.029589372,483,"8260 IRVING STREET, WESTMINSTER, CO, 80031","Match","Exact","8260 IRVING ST, WESTMINSTER, CO, 80031",177415568,"R"
887484,"8260 JELLISOM STREET","ORLANDO","FL",32825,28.5251640710001,-81.2718189509999,484,"8260 JELLISOM STREET, ORLANDO, FL, 32825","Match","Non_Exact","8260 JELLISON ST, ORLANDO, FL, 32825",94294807,"R"
887485,"8260 LINSCOMB","ORANGE","TX",77632,30.168978501,-93.881795515,485,"8260 LINSCOMB, ORANGE, TX, 77632","Match","Non_Exact","8260 LINSCOMB RD, ORANGE, TX, 77632",74019682,"R"
887486,"8260 MAJORS GLEN COURT","CUMMING","GA",30041,34.1418875050001,-84.182178897,486,"8260 MAJORS GLEN COURT, CUMMING, GA, 30041","Match","Exact","8260 MAJORS GLEN CT, CUMMING, GA, 30041",627231236,"R"
887487,"8260 NE 2 AVENUE","MIAMI","FL",33138,25.8509429850001,-80.192928717,487,"8260 NE 2 AVENUE, MIAMI, FL, 33138","Match","Exact","8260 NE 2ND AVE, MIAMI, FL, 33138",116006202,"L"
887488,"8260 NW 27TH ST STE 410","DORAL","FL",33122,25.7997088180001,-80.335728527,488,"8260 NW 27TH ST STE 410, DORAL, FL, 33122","Match","Non_Exact","8260 NW 27TH ST, DORAL, FL, 33122",116256764,"R"
887489,"8260 NW 94TH AVE","TAMARAC","FL",33321,26.2275276140001,-80.2773717599999,489,"8260 NW 94TH AVE, TAMARAC, FL, 33321","Match","Exact","8260 NW 94TH AVE, TAMARAC, FL, 33321",114690834,"L"
887490,"8260 OWENSMOUTH AVENUE APT 15","CANOGA PARK","CA",91304,34.2190555390001,-118.601604136,490,"8260 OWENSMOUTH AVENUE APT 15, CANOGA PARK, CA, 91304","Match","Exact","8260 OWENSMOUTH AVE, CANOGA PARK, CA, 91304",648884263,"R"
887491,"8260 POST ROAD","ALLISON PARK","PA",15101,40.560538196,-79.99524174,491,"8260 POST ROAD, ALLISON PARK, PA, 15101","Match","Exact","8260 POST RD, ALLISON PARK, PA, 15101",639671570,"L"
887492,"8260 ROSELAND DRIVE","FAIRFAX STATION","VA",22039,38.727757727,-77.2846328209999,492,"8260 ROSELAND DRIVE, FAIRFAX STATION, VA, 22039","Match","Exact","8260 ROSELAND DR, FAIRFAX STATION, VA, 22039",638082637,"L"
887493,"8260 SUE AVE","CARLISLE","OH",45005,39.5734758940001,-84.344250551,493,"8260 SUE AVE, CARLISLE, OH, 45005","Match","Exact","8260 SUE AVE, CARLISLE, OH, 45005",159017152,"L"
887494,"8260 SW 185 TE","CUTLER BAY","FL",33157,25.5958897990001,-80.32473965,494,"8260 SW 185 TE, CUTLER BAY, FL, 33157","Match","Non_Exact","8260 SW 185TH TER, CUTLER BAY, FL, 33157",115996657,"R"
887495,"8260 SW 210TH STREET APT 214","CUTLER BAY","FL",33189,25.5723473780001,-80.323853792,495,"8260 SW 210TH STREET APT 214, CUTLER BAY, FL, 33189","Match","Non_Exact","8260 SW 210TH ST, CUTLER BAY, FL, 33189",116298048,"L"
887496,"8260 SW 91 STREET","MIAMI","FL",33156,25.685578311,-80.328618991,496,"8260 SW 91 STREET, MIAMI, FL, 33156","Match","Non_Exact","8260 SW 91ST ST, MIAMI, FL, 33156",115984350,"L"
887497,"8260 W 400 S","SAN PIERRE","IN",46374,41.243923287,-86.857950554,497,"8260 W 400 S, SAN PIERRE, IN, 46374","Match","Non_Exact","8260 W 400 S, SAN PIERRE, IN, 46374",604873104,"R"
887498,"8260 WEST RIVER ROAD 112","BROOKLYN PARK","MN",55444,NA,NA,498,"8260 WEST RIVER ROAD 112, BROOKLYN PARK, MN, 55444","No_Match",NA,NA,NA,NA
887499,"8260 YAHLEY MILL ROAD","HENRICO","VA",23231,37.437327699,-77.288059298,499,"8260 YAHLEY MILL ROAD, HENRICO, VA, 23231","Match","Exact","8260 YAHLEY MILL RD, HENRICO, VA, 23231",106680431,"R"
887500,"82606 GRASS FLAT LANE","INDIO","CA",92203,33.7548591730001,-116.223924105,500,"82606 GRASS FLAT LANE, INDIO, CA, 92203","Match","Exact","82606 GRASS FLAT LN, INDIO, CA, 92203",627855902,"R"
