"ID","Address","City","State","Zip","lat","long","id","input_address","match_indicator","match_type","matched_address","tiger_line_id","tiger_side"
787001,"6436 ERIN DRIVE","CLARKSVILLE","MD",21029,39.1973451440001,-76.9349487269999,1,"6436 ERIN DRIVE, CLARKSVILLE, MD, 21029","Match","Exact","6436 ERIN DR, CLARKSVILLE, MD, 21029",158936751,"R"
787002,"6436 GRAHAM CIRCLE","KEITHVILLE","LA",71047,32.35704853,-93.875101532,2,"6436 GRAHAM CIRCLE, KEITHVILLE, LA, 71047","Match","Exact","6436 GRAHAM CIR, KEITHVILLE, LA, 71047",57475908,"R"
787003,"6436 HEATHSVILLE ROAD","ENFIELD","NC",27823,36.2504913510001,-77.743430043,3,"6436 HEATHSVILLE ROAD, ENFIELD, NC, 27823","Match","Exact","6436 HEATHSVILLE RD, ENFIELD, NC, 27823",56732842,"L"
787004,"6436 KIMBALL AVE","KANSAS CITY","KS",66104,39.1385922420001,-94.7290849569999,4,"6436 KIMBALL AVE, KANSAS CITY, KS, 66104","Match","Exact","6436 KIMBALL AVE, KANSAS CITY, KS, 66104",91133515,"R"
787005,"6436 MARQUETTE AVE","SAINT LOUIS","MO",63139,38.5998780680001,-90.298243814,5,"6436 MARQUETTE AVE, SAINT LOUIS, MO, 63139","Match","Exact","6436 MARQUETTE AVE, SAINT LOUIS, MO, 63139",605127671,"L"
787006,"6436 MAYWOOD LN","THREE LAKES","WI",54562,45.774530983,-89.1273691229999,6,"6436 MAYWOOD LN, THREE LAKES, WI, 54562","Match","Exact","6436 MAYWOOD LN, THREE LAKES, WI, 54562",625847623,"L"
787007,"6436 MCCORMICK ST","WEST MILGROVE","OH",43467,41.2448441130001,-83.488786869,7,"6436 MCCORMICK ST, WEST MILGROVE, OH, 43467","Match","Non_Exact","6436 MCCORMICK ST, W MILLGROVE, OH, 43467",38725648,"R"
787008,"6436 METCALF AVE","OVERLAND PARK","KS",66202,39.0126565570001,-94.667743158,8,"6436 METCALF AVE, OVERLAND PARK, KS, 66202","Match","Exact","6436 METCALF AVE, OVERLAND PARK, KS, 66202",91345966,"R"
787009,"6436 NORTH LEHIGH 1S","CHICAGO","IL",60646,41.99829407,-87.766266679,9,"6436 NORTH LEHIGH 1S, CHICAGO, IL, 60646","Match","Non_Exact","6436 N LEHIGH AVE, CHICAGO, IL, 60646",111737200,"L"
787010,"6436 PENDLEY ST","ATLANTA","GA",30340,33.920401827,-84.242407365,10,"6436 PENDLEY ST, ATLANTA, GA, 30340","Match","Non_Exact","6436 PENDLEY ST NW, ATLANTA, GA, 30340",88883574,"L"
787011,"6436 RUXTON LANE","AUSTIN","TX",78749,30.207840763,-97.886102662,11,"6436 RUXTON LANE, AUSTIN, TX, 78749","Match","Exact","6436 RUXTON LN, AUSTIN, TX, 78749",63988343,"R"
787012,"6436 S PIERSON ST","LITTLETON","CO",80127,39.6006417500001,-105.122640629,12,"6436 S PIERSON ST, LITTLETON, CO, 80127","Match","Exact","6436 S PIERSON ST, LITTLETON, CO, 80127",177737436,"R"
787013,"6436 SUNSET BAY CIRCLE","APOLLO BEACH","FL",33572,27.7772010520001,-82.419166768,13,"6436 SUNSET BAY CIRCLE, APOLLO BEACH, FL, 33572","Match","Exact","6436 SUNSET BAY CIR, APOLLO BEACH, FL, 33572",648510204,"L"
787014,"6436 ZIMMER RD","HASLETT","MI",48840,42.7737826740001,-84.3209710949999,14,"6436 ZIMMER RD, HASLETT, MI, 48840","Match","Exact","6436 ZIMMER RD, HASLETT, MI, 48840",17507005,"R"
787015,"6436- 38 CENTRAL AVENUE","CAPITOL HEIGHTS","MD",20743,38.886987344,-76.897500414,15,"6436- 38 CENTRAL AVENUE, CAPITOL HEIGHTS, MD, 20743","Match","Exact","6436 CENTRAL AVE, CAPITOL HEIGHTS, MD, 20743",639359410,"L"
787016,"6437 ARNO ROAD","COLLEGE GROVE","TN",37046,35.832696954,-86.7406214809999,16,"6437 ARNO ROAD, COLLEGE GROVE, TN, 37046","Match","Exact","6437 ARNO RD, COLLEGE GROVE, TN, 37046",640828103,"L"
787017,"6437 BISLAND DR","RALEIGH","NC",27610,35.7381569300001,-78.53217441,17,"6437 BISLAND DR, RALEIGH, NC, 27610","Match","Exact","6437 BISLAND DR, RALEIGH, NC, 27610",619535086,"L"
787018,"6437 COLLAMER ROAD SUITE 2","EAST SYRACUSE","NY",13057,43.099714229,-76.0771822469999,18,"6437 COLLAMER ROAD SUITE 2, EAST SYRACUSE, NY, 13057","Match","Exact","6437 COLLAMER RD, EAST SYRACUSE, NY, 13057",46584651,"L"
787019,"6437 COOPER POINT RD NW","OLYMPIA","WA",98502,47.124700992,-122.933181675,19,"6437 COOPER POINT RD NW, OLYMPIA, WA, 98502","Match","Exact","6437 COOPER POINT RD NW, OLYMPIA, WA, 98502",647772741,"L"
787020,"6437 COOPER POINT","OLYMPIA","WA",98502,NA,NA,20,"6437 COOPER POINT, OLYMPIA, WA, 98502","No_Match",NA,NA,NA,NA
787021,"6437 COUNTY ROAD 20","MOUNT GILEAD","OH",43338,40.5882784550001,-82.728849595,21,"6437 COUNTY ROAD 20, MOUNT GILEAD, OH, 43338","Match","Exact","6437 CO RD 20, MOUNT GILEAD, OH, 43338",12749123,"R"
787022,"6437 E CARON DRIVE","PARADISE VALLEY","AZ",85253,33.5742065310001,-111.94238022,22,"6437 E CARON DRIVE, PARADISE VALLEY, AZ, 85253","Match","Exact","6437 E CARON DR, PARADISE VALLEY, AZ, 85253",128828399,"L"
787023,"6437 E SARAZEN ST SE","OLYMPIA","WA",98513,46.990196923,-122.81841097,23,"6437 E SARAZEN ST SE, OLYMPIA, WA, 98513","Match","Exact","6437 SARAZEN ST SE, OLYMPIA, WA, 98513",180948661,"R"
787024,"6437 E SARAZEN STREET SE","OLYMPIA","WA",98513,46.990196923,-122.81841097,24,"6437 E SARAZEN STREET SE, OLYMPIA, WA, 98513","Match","Exact","6437 SARAZEN ST SE, OLYMPIA, WA, 98513",180948661,"R"
787025,"6437 E STATE ROAD 14","COLUMBIA CITY","IN",46725,41.078530277,-85.3664301049999,25,"6437 E STATE ROAD 14, COLUMBIA CITY, IN, 46725","Match","Non_Exact","6437 E STATE RD 14, COLUMBIA CITY, IN, 46725",6649272,"L"
787026,"6437 EARTH ROAD","MEADOWVIEW","VI",24361,NA,NA,26,"6437 EARTH ROAD, MEADOWVIEW, VI, 24361","No_Match",NA,NA,NA,NA
787027,"6437 EAST ODESSA","MESA","AZ",85215,33.4686895830001,-111.691767327,27,"6437 EAST ODESSA, MESA, AZ, 85215","Match","Non_Exact","6437 E ODESSA ST, MESA, AZ, 85215",243956418,"R"
787028,"6437 FURMAN BLVD","FORT MYERS","FL",33919,26.5497293710001,-81.900384152,28,"6437 FURMAN BLVD, FORT MYERS, FL, 33919","Match","Exact","6437 FURMAN BLVD, FORT MYERS, FL, 33919",118025599,"L"
787029,"6437 GRAVES AVE","LAKE BALBOA","CA",91406,34.187764298,-118.508837433,29,"6437 GRAVES AVE, LAKE BALBOA, CA, 91406","Match","Exact","6437 GRAVES AVE, LAKE BALBOA, CA, 91406",141555788,"L"
787030,"6437 HARRISON AVENUE","HAMMOND","IN",46324,41.596830696,-87.516103145,30,"6437 HARRISON AVENUE, HAMMOND, IN, 46324","Match","Exact","6437 HARRISON AVE, HAMMOND, IN, 46324",606334247,"L"
787031,"6437 HOLYOKE DR","ANNANDALE","VA",22003,38.833170436,-77.157731653,31,"6437 HOLYOKE DR, ANNANDALE, VA, 22003","Match","Exact","6437 HOLYOKE DR, ANNANDALE, VA, 22003",76015562,"L"
787032,"6437 HUNTING HILL LANE","OKLAHOMA CITY","OK",73116,35.5372122910001,-97.570087517,32,"6437 HUNTING HILL LANE, OKLAHOMA CITY, OK, 73116","Match","Exact","6437 HUNTING HILL LN, OKLAHOMA CITY, OK, 73116",100436807,"L"
787033,"6437 KEVIN AVE","CHEYENNE","WY",82001,41.176980428,-104.822361803,33,"6437 KEVIN AVE, CHEYENNE, WY, 82001","Match","Non_Exact","6437 KEVIN AVE, CHEYENNE, WY, 82009",160147569,"R"
787034,"6437 LEMON STREET","EAST PETERSBURG","PA",17520,40.1056373920001,-76.357798606,34,"6437 LEMON STREET, EAST PETERSBURG, PA, 17520","Match","Exact","6437 LEMON ST, E PETERSBURG, PA, 17520",179699598,"R"
787035,"6437 N DAMEN AVE APT 1W","CHICAGO","IL",60645,41.9993245370001,-87.680173258,35,"6437 N DAMEN AVE APT 1W, CHICAGO, IL, 60645","Match","Non_Exact","6437 N DAMEN AVE, CHICAGO, IL, 60645",605169383,"R"
787036,"6437 PANGOLIN COURT","WALDORF","MD",20603,38.6244251640001,-76.951314576,36,"6437 PANGOLIN COURT, WALDORF, MD, 20603","Match","Exact","6437 PANGOLIN CT, WALDORF, MD, 20603",627042736,"R"
787037,"6437 PINE RIDGE WAY","STONE MOUNTAIN","GA",30087,33.769240955,-84.1252612219999,37,"6437 PINE RIDGE WAY, STONE MOUNTAIN, GA, 30087","Match","Exact","6437 PINE RIDGE WAY, STONE MOUNTAIN, GA, 30087",23381603,"L"
787038,"6437 ROBERT DRIVE","SOUTH EASTON","MA",2375,NA,NA,38,"6437 ROBERT DRIVE, SOUTH EASTON, MA, 2375","No_Match",NA,NA,NA,NA
787039,"6437 W 153 AVE","LOWELL","IN",46356,41.340827459,-87.4142208439999,39,"6437 W 153 AVE, LOWELL, IN, 46356","Match","Exact","6437 153RD AVE, LOWELL, IN, 46356",623789703,"L"
787040,"6437 WANDA AVENUE","SAINT LOUIS","MO",63116,38.570013702,-90.276958704,40,"6437 WANDA AVENUE, SAINT LOUIS, MO, 63116","Match","Exact","6437 WANDA AVE, SAINT LOUIS, MO, 63116",605138766,"R"
787041,"6437 WINDER OAKS BLVD","ORLANDO","FL",32819,28.491560367,-81.469586916,41,"6437 WINDER OAKS BLVD, ORLANDO, FL, 32819","Match","Exact","6437 WINDER OAKS BLVD, ORLANDO, FL, 32819",94384438,"R"
787042,"6437 WINDING GREENS DRIVE","JACKSOVILLE","FL",32244,30.2082923940001,-81.751132801,42,"6437 WINDING GREENS DRIVE, JACKSOVILLE, FL, 32244","Match","Non_Exact","6437 WINDING GREENS DR, JACKSONVILLE, FL, 32244",83966118,"R"
787043,"6437","COLLEGE GROVE","TN",37046,NA,NA,43,"6437, COLLEGE GROVE, TN, 37046","No_Match",NA,NA,NA,NA
787044,"64374","GARY","IN",46401,NA,NA,44,"64374, GARY, IN, 46401","No_Match",NA,NA,NA,NA
787045,"6438 13TH AVE S","RICHFIELD","MN",55423,44.886379355,-93.256724111,45,"6438 13TH AVE S, RICHFIELD, MN, 55423","Match","Exact","6438 13TH AVE S, RICHFIELD, MN, 55423",43635825,"R"
787046,"6438 APPLE AVENUE","PITTSBURGH","PA",15206,40.4681214350001,-79.905792016,46,"6438 APPLE AVENUE, PITTSBURGH, PA, 15206","Match","Exact","6438 APPLE AVE, PITTSBURGH, PA, 15206",51646843,"R"
787047,"6438 BURGESS HEIGHTS LN","KATY","TX",77494,29.7007246910001,-95.799199008,47,"6438 BURGESS HEIGHTS LN, KATY, TX, 77494","Match","Exact","6438 BURGESS HEIGHTS LN, KATY, TX, 77494",638048785,"R"
787048,"6438 CAPITAL DRIVE","SACRAMENTO","CA",95828,38.508538957,-121.429126883,48,"6438 CAPITAL DRIVE, SACRAMENTO, CA, 95828","Match","Exact","6438 CAPITAL DR, SACRAMENTO, CA, 95828",133413210,"R"
787049,"6438 CAPRIDGE DRIVE","HOUSTON","TX",77048,29.604429065,-95.309597089,49,"6438 CAPRIDGE DRIVE, HOUSTON, TX, 77048","Match","Exact","6438 CAPRIDGE DR, HOUSTON, TX, 77048",645213637,"R"
787050,"6438 CHARTWELL DRIVE","VIRGINIA BEACH","VA",23464,36.8107476280001,-76.212388962,50,"6438 CHARTWELL DRIVE, VIRGINIA BEACH, VA, 23464","Match","Exact","6438 CHARTWELL DR, VA BCH, VA, 23464",122303187,"R"
787051,"6438 DALE LANE","ANDERSON","CA",96007,NA,NA,51,"6438 DALE LANE, ANDERSON, CA, 96007","No_Match",NA,NA,NA,NA
787052,"6438 E SHERIDAN ST","SCOTTSDALE","AZ",85257,33.475119819,-111.942462089,52,"6438 E SHERIDAN ST, SCOTTSDALE, AZ, 85257","Match","Exact","6438 E SHERIDAN ST, SCOTTSDALE, AZ, 85257",128889195,"L"
787053,"6438 HATCHIES DRIVE","RALEIGH","NC",27610,35.738985101,-78.5326717419999,53,"6438 HATCHIES DRIVE, RALEIGH, NC, 27610","Match","Exact","6438 HATCHIES DR, RALEIGH, NC, 27610",641564877,"R"
787054,"6438 HIGHLANDS IN THE WOODS STREET","LAKELAND","FL",33813,27.949748986,-81.929440637,54,"6438 HIGHLANDS IN THE WOODS STREET, LAKELAND, FL, 33813","Match","Exact","6438 HIGHLANDS IN THE WOODS ST, LAKELAND, FL, 33813",618496077,"L"
787055,"6438 JEFFERSON AVE","HAMMOND","IL",46324,NA,NA,55,"6438 JEFFERSON AVE, HAMMOND, IL, 46324","No_Match",NA,NA,NA,NA
787056,"6438 JEFFERSON AVE","HAMMOND","IN",46324,41.596552585,-87.5101664699999,56,"6438 JEFFERSON AVE, HAMMOND, IN, 46324","Match","Exact","6438 JEFFERSON AVE, HAMMOND, IN, 46324",98417532,"R"
787057,"6438 NE 1 PL","MIAMI","FL",33138,25.835229187,-80.193377547,57,"6438 NE 1 PL, MIAMI, FL, 33138","Match","Exact","6438 NE 1ST PL, MIAMI, FL, 33138",116006577,"L"
787058,"6438 PRUE ROAD  TRAILER 54","SAN ANTONIO","TX",78249,29.5446513520001,-98.61372658,58,"6438 PRUE ROAD  TRAILER 54, SAN ANTONIO, TX, 78249","Match","Non_Exact","6438 PRUE RD, SAN ANTONIO, TX, 78240",101489319,"L"
787059,"6438 S 21ST PLACE","PHOENIX","AZ",85042,33.3885916680001,-112.035478383,59,"6438 S 21ST PLACE, PHOENIX, AZ, 85042","Match","Exact","6438 S 21ST PL, PHOENIX, AZ, 85042",128216322,"R"
787060,"6438 TARLTON RD","AMANDA","OH",43102,39.5549133850001,-82.7391867489999,60,"6438 TARLTON RD, AMANDA, OH, 43102","Match","Exact","6438 TARLTON RD, AMANDA, OH, 43102",635508943,"R"
787061,"6438 TAYLOR DRIVE","CLOQUET","MN",55720,46.7978868530001,-92.359934647,61,"6438 TAYLOR DRIVE, CLOQUET, MN, 55720","Match","Exact","6438 TAYLOR DR, CLOQUET, MN, 55720",624958994,"L"
787062,"6438 TURNING STONE LOOP","CANAL WINCHESTER","OH",43110,NA,NA,62,"6438 TURNING STONE LOOP, CANAL WINCHESTER, OH, 43110","No_Match",NA,NA,NA,NA
787063,"6438 W 81ST PL","BURBANK","IL",60459,NA,NA,63,"6438 W 81ST PL, BURBANK, IL, 60459","Tie",NA,NA,NA,NA
787064,"6438 W MILLBROOK RD","REMUS","MI",49340,43.5529921290001,-84.9756332439999,64,"6438 W MILLBROOK RD, REMUS, MI, 49340","Match","Exact","6438 W MILLBROOK RD, REMUS, MI, 49340",110217134,"R"
787065,"6438 WIND PATH","SAN ANTONIO","FL",34990,NA,NA,65,"6438 WIND PATH, SAN ANTONIO, FL, 34990","No_Match",NA,NA,NA,NA
787066,"6438","ST. PETERSBURG","FL",33710,NA,NA,66,"6438, ST. PETERSBURG, FL, 33710","No_Match",NA,NA,NA,NA
787067,"64384 SHIMMEL ROAD","STURGIS","MI",49091,41.862228116,-85.50658864,67,"64384 SHIMMEL ROAD, STURGIS, MI, 49091","Match","Exact","64384 SHIMMEL RD, STURGIS, MI, 49091",617269585,"L"
787068,"6439 AMBERVIEW COVE","MEMPHIS","TN",38141,35.01074278,-89.847513427,68,"6439 AMBERVIEW COVE, MEMPHIS, TN, 38141","Match","Exact","6439 AMBERVIEW COVE, MEMPHIS, TN, 38141",72960732,"L"
787069,"6439 CRYSTAL RIDGE CIRCLE","INDIANAPOLIS","IN",46259,39.674739446,-86.042846372,69,"6439 CRYSTAL RIDGE CIRCLE, INDIANAPOLIS, IN, 46259","Match","Exact","6439 CRYSTAL RIDGE CIR, INDIANAPOLIS, IN, 46259",108065667,"L"
787070,"6439 CYPRESSDALE DRIVE","RIVERVIEW","FL",33578,27.889288632,-82.347557781,70,"6439 CYPRESSDALE DRIVE, RIVERVIEW, FL, 33578","Match","Exact","6439 CYPRESSDALE DR, RIVERVIEW, FL, 33578",653177660,"R"
787071,"6439 EAST SKYLINE DRIVE","SPRINGFIELD","MO",65809,37.173814484,-93.15656031,71,"6439 EAST SKYLINE DRIVE, SPRINGFIELD, MO, 65809","Match","Exact","6439 E SKYLINE DR, SPRINGFIELD, MO, 65809",76682985,"L"
787072,"6439 ELECTRIC RAILWAY","CICERO","NY",13039,43.169408134,-76.0830766409999,72,"6439 ELECTRIC RAILWAY, CICERO, NY, 13039","Match","Exact","6439 ELECTRIC RAILWAY, CICERO, NY, 13039",46625886,"R"
787073,"6439 JOHN ALDEN WAY","ORLANDO","FL",32818,28.5560864080001,-81.4742807009999,73,"6439 JOHN ALDEN WAY, ORLANDO, FL, 32818","Match","Exact","6439 JOHN ALDEN WAY, ORLANDO, FL, 32818",94332048,"R"
787074,"6439 LOUISE PL NE","ALBUQUERQUE","NM",87109,35.1490965680001,-106.577636103,74,"6439 LOUISE PL NE, ALBUQUERQUE, NM, 87109","Match","Exact","6439 LOUISE PL NE, ALBUQUERQUE, NM, 87109",206712338,"L"
787075,"6439 MCABEE ROAD","SAN JOSE","CA",95120,37.2230670390001,-121.876494047,75,"6439 MCABEE ROAD, SAN JOSE, CA, 95120","Match","Exact","6439 MCABEE RD, SAN JOSE, CA, 95120",122947514,"R"
787076,"6439 OAKBROOK DRIVE","WHITEHOUSE","OH",43571,41.5225893840001,-83.812048056,76,"6439 OAKBROOK DRIVE, WHITEHOUSE, OH, 43571","Match","Non_Exact","6439 OAK BROOK DR, WHITEHOUSE, OH, 43571",33926089,"R"
787077,"6439 PASCHALL AVENUE","PHILADELPHIA","PA",19143,39.9250855500001,-75.232383176,77,"6439 PASCHALL AVENUE, PHILADELPHIA, PA, 19143","Match","Non_Exact","6439 PASCHALL AVE, PHILADELPHIA, PA, 19142",131409061,"R"
787078,"6439 PLYMOUTH AVE","ST LOUIS","MO",63133,38.6689461070001,-90.2993985749999,78,"6439 PLYMOUTH AVE, ST LOUIS, MO, 63133","Match","Exact","6439 PLYMOUTH AVE, SAINT LOUIS, MO, 63133",100152226,"R"
787079,"6439 PRAIRIE FLOWER","ROSCOE","IL",61073,42.3953836410001,-88.991328691,79,"6439 PRAIRIE FLOWER, ROSCOE, IL, 61073","Match","Exact","6439 PRAIRIE FLOWER, ROSCOE, IL, 61073",49278939,"R"
787080,"6439 QUEENS COURT TRCE","MABLETON","GA",30126,33.7992363060001,-84.5256414579999,80,"6439 QUEENS COURT TRCE, MABLETON, GA, 30126","Match","Exact","6439 QUEENS COURT TRCE, MABLETON, GA, 30126",618320698,"L"
787081,"6439 S RACINE","CHICAGO","IL",60636,41.7771432120001,-87.654423411,81,"6439 S RACINE, CHICAGO, IL, 60636","Match","Non_Exact","6439 S RACINE AVE, CHICAGO, IL, 60636",652589834,"L"
787082,"6439 S VINEWOOD ST APT 308","LITTLETON","CO",80120,39.6001804250001,-105.021158616,82,"6439 S VINEWOOD ST APT 308, LITTLETON, CO, 80120","Match","Non_Exact","6439 S VINEWOOD ST, LITTLETON, CO, 80120",617955904,"R"
787083,"6439 SEDGWICK ST","ELKRIDGE","MD",21075,39.1959515510001,-76.773370956,83,"6439 SEDGWICK ST, ELKRIDGE, MD, 21075","Match","Exact","6439 SEDGWICK ST, ELKRIDGE, MD, 21075",158933675,"R"
787084,"6439 STARLETTE LANE","TRINITY","NC",27370,35.8391791190001,-80.021082182,84,"6439 STARLETTE LANE, TRINITY, NC, 27370","Match","Exact","6439 STARLETTE LN, TRINITY, NC, 27370",20429637,"R"
787085,"6439 STATE HIGHWAY 28","FLY CREEK","NY",13337,NA,NA,85,"6439 STATE HIGHWAY 28, FLY CREEK, NY, 13337","No_Match",NA,NA,NA,NA
787086,"6439 SW 96TH LANE","LAKE BUTLER","FL",32054,29.96878252,-82.461246006,86,"6439 SW 96TH LANE, LAKE BUTLER, FL, 32054","Match","Exact","6439 SW 96TH LN, LAKE BUTLER, FL, 32054",635216979,"R"
787087,"6439 TWIN DEER RUN","ROSCOE","IL",61073,NA,NA,87,"6439 TWIN DEER RUN, ROSCOE, IL, 61073","No_Match",NA,NA,NA,NA
787088,"6439 W PURDUE AVE","GLENDALE","AZ",85302,33.573759142,-112.197963577,88,"6439 W PURDUE AVE, GLENDALE, AZ, 85302","Match","Exact","6439 W PURDUE AVE, GLENDALE, AZ, 85302",128192397,"L"
787089,"6439 WAYWIND DRIVE","DAYTON","OH",45426,39.828058594,-84.301846844,89,"6439 WAYWIND DRIVE, DAYTON, OH, 45426","Match","Exact","6439 WAYWIND DR, DAYTON, OH, 45426",143630202,"R"
787090,"6439 WILLIAMS BOULEVARD","CEDAR RAPIDS","IA",52402,41.9401579730001,-91.752816824,90,"6439 WILLIAMS BOULEVARD, CEDAR RAPIDS, IA, 52402","Match","Non_Exact","6439 WILLIAMS BLVD, CEDAR RAPIDS, IA, 52404",17052697,"L"
787091,"64399 COUNTY ROAD 3","WAKARUSA","IN",46573,41.5611898430001,-86.021370288,91,"64399 COUNTY ROAD 3, WAKARUSA, IN, 46573","Match","Exact","64399 CO RD 3, WAKARUSA, IN, 46573",617164714,"R"
787092,"643A MINNA ST","SAN FRANCISCO","CA",94103,37.7783615050001,-122.410923581,92,"643A MINNA ST, SAN FRANCISCO, CA, 94103","Match","Exact","643 MINNA ST, SAN FRANCISCO, CA, 94103",192287397,"L"
787093,"644 1/2 WEST 43RD STREET","LOS ANGELES","CA",90037,34.0053961840001,-118.284885947,93,"644 1/2 WEST 43RD STREET, LOS ANGELES, CA, 90037","Match","Exact","644 W 43RD ST, LOS ANGELES, CA, 90037",141608127,"L"
787094,"644 158TH AVE NW","ANDOVER","MN",55304,45.256479047,-93.279205704,94,"644 158TH AVE NW, ANDOVER, MN, 55304","Match","Exact","644 158TH AVE NW, ANDOVER, MN, 55304",97517117,"L"
787095,"644 2ND LN","VERO BEACH","FL",32962,27.6062887160001,-80.386651886,95,"644 2ND LN, VERO BEACH, FL, 32962","Match","Exact","644 2ND LN, VERO BEACH, FL, 32962",120315343,"L"
787096,"644 38TH ST","LOUISVILLE","KY",40212,NA,NA,96,"644 38TH ST, LOUISVILLE, KY, 40212","No_Match",NA,NA,NA,NA
787097,"644 39TH AVENUE NE","ST PETERSBURG","FL",33703,27.8076354020001,-82.6269903479999,97,"644 39TH AVENUE NE, ST PETERSBURG, FL, 33703","Match","Exact","644 39TH AVE NE, SAINT PETERSBURG, FL, 33703",124712505,"R"
787098,"644 4TH AVE W","KALISPELL","MT",59901,48.1915723910001,-114.316902587,98,"644 4TH AVE W, KALISPELL, MT, 59901","Match","Exact","644 4TH AVE W, KALISPELL, MT, 59901",204087491,"L"
787099,"644 4TH AVE WEST","KALISPELL","MT",59901,48.1915723910001,-114.316902587,99,"644 4TH AVE WEST, KALISPELL, MT, 59901","Match","Exact","644 4TH AVE W, KALISPELL, MT, 59901",204087491,"L"
787100,"644 4TH AVENUE WEST","KALISPELL","MT",59901,48.1915723910001,-114.316902587,100,"644 4TH AVENUE WEST, KALISPELL, MT, 59901","Match","Exact","644 4TH AVE W, KALISPELL, MT, 59901",204087491,"L"
787101,"644 4TH ST WEST","KALISPELL","MT",59901,48.193289104,-114.321873696,101,"644 4TH ST WEST, KALISPELL, MT, 59901","Match","Exact","644 4TH ST W, KALISPELL, MT, 59901",204087402,"R"
787102,"644 75TH STREET","NIAGARA FALLS","NY",14304,43.0864415280001,-78.9782974189999,102,"644 75TH STREET, NIAGARA FALLS, NY, 14304","Match","Exact","644 75TH ST, NIAGARA FALLS, NY, 14304",48687100,"L"
787103,"644 ANN CARSON COURT","ROCK HILL","SC",29732,34.963137019,-81.043670801,103,"644 ANN CARSON COURT, ROCK HILL, SC, 29732","Match","Exact","644 ANN CARSON CT, ROCK HILL, SC, 29732",625255391,"R"
787104,"644 ANTELOPE LOOP","PRESCOTT","AZ",86301,34.5550288960001,-112.389505778,104,"644 ANTELOPE LOOP, PRESCOTT, AZ, 86301","Match","Exact","644 ANTELOPE LOOP, PRESCOTT, AZ, 86301",159535866,"R"
787105,"644 BANFF DRIVE","NEWMAN","CA",95360,37.323030053,-121.018222012,105,"644 BANFF DRIVE, NEWMAN, CA, 95360","Match","Exact","644 BANFF DR, NEWMAN, CA, 95360",629548855,"R"
787106,"644 BIG STONE TRAIL","MIDDLETON","WI",53562,43.0734381840001,-89.557461546,106,"644 BIG STONE TRAIL, MIDDLETON, WI, 53562","Match","Exact","644 BIG STONE TRL, MIDDLETON, WI, 53562",647030587,"R"
787107,"644 BOLINAS ROAD","FAIRFAX","CA",94930,37.9739121160001,-122.59935336,107,"644 BOLINAS ROAD, FAIRFAX, CA, 94930","Match","Exact","644 BOLINAS RD, FAIRFAX, CA, 94930",192760495,"R"
787108,"644 BOND STREET","THOMASVILLE","GA",31792,30.840096142,-83.9253882849999,108,"644 BOND STREET, THOMASVILLE, GA, 31792","Match","Non_Exact","644 BOND ST, THOMASVILLE, GA, 31757",83110819,"L"
787109,"644 BRICK ROW","RICHARDSON","TX",75080,NA,NA,109,"644 BRICK ROW, RICHARDSON, TX, 75080","No_Match",NA,NA,NA,NA
787110,"644 BURR AVE","ST PAUL","MN",55130,44.9623303450001,-93.07975012,110,"644 BURR AVE, ST PAUL, MN, 55130","Match","Non_Exact","644 BURR ST, SAINT PAUL, MN, 55130",97650548,"R"
787111,"644 CABLE AVENUE","BEACHWOOD","NJ",8722,39.931077085,-74.1952089549999,111,"644 CABLE AVENUE, BEACHWOOD, NJ, 8722","Match","Exact","644 CABLE AVE, BEACHWOOD, NJ, 08722",203730574,"R"
787112,"644 CENTRAL ST E","LEHIGH ACRES","FL",33974,26.5767104070001,-81.6165325119999,112,"644 CENTRAL ST E, LEHIGH ACRES, FL, 33974","Match","Exact","644 CENTRAL ST E, LEHIGH ACRES, FL, 33974",118122348,"L"
787113,"644 CESERY BLVD - SUITE 310","JACKSONVILLE","FL",32211,30.3246031040001,-81.596943685,113,"644 CESERY BLVD - SUITE 310, JACKSONVILLE, FL, 32211","Match","Exact","644 CESERY BLVD, JACKSONVILLE, FL, 32211",83903433,"L"
787114,"644 CHESTERTOWN STREET","GAITHERSBURG","MD",20878,39.1238909200001,-77.242706192,114,"644 CHESTERTOWN STREET, GAITHERSBURG, MD, 20878","Match","Exact","644 CHESTERTOWN ST, GAITHERSBURG, MD, 20878",62098648,"L"
787115,"644 CLINTON ST","BUFFALO","NV",14210,NA,NA,115,"644 CLINTON ST, BUFFALO, NV, 14210","No_Match",NA,NA,NA,NA
787116,"644 CLINTON STREET","BUFFALO","NY",14210,42.881240737,-78.850424199,116,"644 CLINTON STREET, BUFFALO, NY, 14210","Match","Exact","644 CLINTON ST, BUFFALO, NY, 14210",48291478,"L"
787117,"644 CLINTON","BUFFALO","NY",14215,NA,NA,117,"644 CLINTON, BUFFALO, NY, 14215","No_Match",NA,NA,NA,NA
787118,"644 CRABAPPLE LANE","ELLWOOD CITY","PA",16117,40.878439128,-80.272050797,118,"644 CRABAPPLE LANE, ELLWOOD CITY, PA, 16117","Match","Exact","644 CRABAPPLE LN, ELLWOOD CITY, PA, 16117",65192489,"L"
787119,"644 CRESTWYCK DRIVE","KING OF PRUSSIA","PA",19406,40.1043256250001,-75.391513744,119,"644 CRESTWYCK DRIVE, KING OF PRUSSIA, PA, 19406","Match","Exact","644 CRESTWYCK DR, KING OF PRUSSIA, PA, 19406",135070372,"R"
787120,"644 CUMBERLAND RIDGE CT","LEAGUE CITY","TX",77573,29.4696248590001,-95.164848983,120,"644 CUMBERLAND RIDGE CT, LEAGUE CITY, TX, 77573","Match","Exact","644 CUMBERLAND RIDGE CT, LEAGUE CITY, TX, 77573",646506877,"R"
787121,"644 CUMMINGS LN","ST. SIMONS ISLAND","GA",31522,31.141048749,-81.3875996309999,121,"644 CUMMINGS LN, ST. SIMONS ISLAND, GA, 31522","Match","Exact","644 CUMMINGS LN, ST SIMONS ISLAND, GA, 31522",9135100,"L"
787122,"644 DIVOT COURT","GRAND PRAIRIE","TX",75052,32.6811940360001,-96.999023247,122,"644 DIVOT COURT, GRAND PRAIRIE, TX, 75052","Match","Exact","644 DIVOT CT, GRAND PRAIRIE, TX, 75052",617667444,"L"
787123,"644 E 100 S","PAYSON","UT",84651,40.042492564,-111.722494751,123,"644 E 100 S, PAYSON, UT, 84651","Match","Exact","644 E 100 S, PAYSON, UT, 84651",134199887,"L"
787124,"644 E BENNETT AVE","GLENDORA","CA",91741,34.1396704270001,-117.855558368,124,"644 E BENNETT AVE, GLENDORA, CA, 91741","Match","Exact","644 E BENNETT AVE, GLENDORA, CA, 91741",141717574,"R"
787125,"644 E BIRCH ST","BREA","CA",92823,33.917721326,-117.892172316,125,"644 E BIRCH ST, BREA, CA, 92823","Match","Non_Exact","644 E BIRCH ST, BREA, CA, 92821",144415012,"R"
787126,"644 E FERRY","DETROIT","MI",48202,42.3641142230001,-83.0593364269999,126,"644 E FERRY, DETROIT, MI, 48202","Match","Non_Exact","644 E FERRY AVE, DETROIT, MI, 48202",95477673,"R"
787127,"644 E OAKWOOD BLVD","CHICAGO","IL",60653,41.8227041390001,-87.610882229,127,"644 E OAKWOOD BLVD, CHICAGO, IL, 60653","Match","Exact","644 E OAKWOOD BLVD, CHICAGO, IL, 60653",111770735,"L"
787128,"644 E PGH - MCKEESPORT BLVD","NORTH VERSAILLES","PA",15137,NA,NA,128,"644 E PGH - MCKEESPORT BLVD, NORTH VERSAILLES, PA, 15137","No_Match",NA,NA,NA,NA
787129,"644 EAST 3RD AVENUE","ROSELLE","NJ",7203,40.6597659980001,-74.2469242559999,129,"644 EAST 3RD AVENUE, ROSELLE, NJ, 7203","Match","Exact","644 E 3RD AVE, ROSELLE, NJ, 07203",60576807,"R"
787130,"644 EAST MADISON STREET","OCONOMOWOC","WI",53066,43.117882959,-88.488829277,130,"644 EAST MADISON STREET, OCONOMOWOC, WI, 53066","Match","Exact","644 E MADISON ST, OCONOMOWOC, WI, 53066",53805188,"L"
787131,"644 EAST RANCHO VISTA BOULEVARD","PALMDALE","CA",93550,34.601831019,-118.119245932,131,"644 EAST RANCHO VISTA BOULEVARD, PALMDALE, CA, 93550","Match","Exact","644 E RANCHO VISTA BLVD, PALMDALE, CA, 93550",141528826,"L"
787132,"644 EDWARDIAN LANE","WAYNESBORO","VA",22980,38.0776379530001,-78.908291359,132,"644 EDWARDIAN LANE, WAYNESBORO, VA, 22980","Match","Exact","644 EDWARDIAN LN, WAYNESBORO, VA, 22980",638656789,"L"
787133,"644 ELMWOOD CIRCLE","JACKSON","MS",39206,32.3681011050001,-90.185896107,133,"644 ELMWOOD CIRCLE, JACKSON, MS, 39206","Match","Exact","644 ELMWOOD CIR, JACKSON, MS, 39206",65360190,"L"
787134,"644 EMERALD AVE","SEYMOUR","TN",37865,35.8653780720001,-83.789034906,134,"644 EMERALD AVE, SEYMOUR, TN, 37865","Match","Exact","644 EMERALD AVE, SEYMOUR, TN, 37865",89850072,"L"
787135,"644 EUREKA AVENUE","RENO","NV",89512,39.5350104570001,-119.804898827,135,"644 EUREKA AVENUE, RENO, NV, 89512","Match","Exact","644 EUREKA AVE, RENO, NV, 89512",107047710,"R"
787136,"644 FIELD ST","NAUGATUCK","CT",6770,41.497944943,-73.077348251,136,"644 FIELD ST, NAUGATUCK, CT, 6770","Match","Exact","644 FIELD ST, NAUGATUCK, CT, 06770",3717024,"L"
787137,"644 FLATBUSH AVENUE","WEST HARTFORD","CT",6110,41.742440301,-72.7181485579999,137,"644 FLATBUSH AVENUE, WEST HARTFORD, CT, 6110","Match","Exact","644 FLATBUSH AVE, WEST HARTFORD, CT, 06110",3513919,"R"
787138,"644 FRESNO STREET","FRESNO","CA",93706,36.726235468,-119.805847557,138,"644 FRESNO STREET, FRESNO, CA, 93706","Match","Exact","644 FRESNO ST, FRESNO, CA, 93706",197579371,"R"
787139,"644 GOLDEN WEST","REDLANDS","CA",92373,34.241699496,-116.889295438,139,"644 GOLDEN WEST, REDLANDS, CA, 92373","Match","Non_Exact","644 GOLDEN WEST DR, REDLANDS, CA, 92373",144612468,"L"
787140,"644 GREEN STREET","ATLANTIC CITY","NJ",8401,39.368447508,-74.436288922,140,"644 GREEN STREET, ATLANTIC CITY, NJ, 8401","Match","Exact","644 GREEN ST, ATLANTIC CITY, NJ, 08401",202490444,"L"
787141,"644 GREENWICH LANE","FOSTER CITY","CA",94404,37.543455496,-122.267799109,141,"644 GREENWICH LANE, FOSTER CITY, CA, 94404","Match","Exact","644 GREENWICH LN, FOSTER CITY, CA, 94404",192380869,"R"
787142,"644 HIGHLANDER","PLACENTIA","CA",92870,33.8879759660001,-117.853670814,142,"644 HIGHLANDER, PLACENTIA, CA, 92870","Match","Non_Exact","644 HIGHLANDER AVE, PLACENTIA, CA, 92870",143995414,"R"
787143,"644 HILLARY FARM ROAD","HUDSON","WI",54016,44.958372158,-92.62745768,143,"644 HILLARY FARM ROAD, HUDSON, WI, 54016","Match","Exact","644 HILLARY FARM RD, HUDSON, WI, 54016",110919009,"L"
787144,"644 HILLSIDE LANE","CEDARBURG","WI",53012,43.2991406290001,-88.015431157,144,"644 HILLSIDE LANE, CEDARBURG, WI, 53012","Match","Exact","644 HILLSIDE LN, CEDARBURG, WI, 53012",95899821,"L"
787145,"644 HOLLY ROAD","CADILLAC","MI",49601,44.2417225790001,-85.40539052,145,"644 HOLLY ROAD, CADILLAC, MI, 49601","Match","Exact","644 HOLLY RD, CADILLAC, MI, 49601",624282787,"L"
787146,"644 HUCKABEE MILL ROAD","SWANSEA","SC",29160,33.747455674,-81.091026515,146,"644 HUCKABEE MILL ROAD, SWANSEA, SC, 29160","Match","Exact","644 HUCKABEE MILL RD, SWANSEA, SC, 29160",640548273,"R"
787147,"644 HYDE PARK AVENUE - UNIT 3R","BOSTON","MA",2131,42.2783476700001,-71.1192221009999,147,"644 HYDE PARK AVENUE - UNIT 3R, BOSTON, MA, 2131","Match","Exact","644 HYDE PARK AVE, BOSTON, MA, 02131",85703942,"L"
787148,"644 INVERNESS STREET","OREGON","WI",53575,42.9196711880001,-89.4173411039999,148,"644 INVERNESS STREET, OREGON, WI, 53575","Match","Exact","644 INVERNESS ST, OREGON, WI, 53575",49521305,"L"
787149,"644 JANETTE AVE SW","ROANOKE","VA",24016,37.2592335420001,-79.953954955,149,"644 JANETTE AVE SW, ROANOKE, VA, 24016","Match","Exact","644 JANETTE AVE SW, ROANOKE, VA, 24016",640734750,"L"
787150,"644 JOHNNY CUT ROAD","GRIFFIN","GA",30223,33.2996196080001,-84.151176492,150,"644 JOHNNY CUT ROAD, GRIFFIN, GA, 30223","Match","Exact","644 JOHNNY CUT RD, GRIFFIN, GA, 30223",624933640,"R"
787151,"644 KENWICK CIR APT 104","CASSELBERRY","FL",32707,28.659188968,-81.333187482,151,"644 KENWICK CIR APT 104, CASSELBERRY, FL, 32707","Match","Exact","644 KENWICK CIR, CASSELBERRY, FL, 32707",605414308,"L"
787152,"644 KEOUGH RD","COLLIERVILLE","TN",38017,35.0353208670001,-89.646243855,152,"644 KEOUGH RD, COLLIERVILLE, TN, 38017","Match","Exact","644 KEOUGH RD, COLLIERVILLE, TN, 38017",636704624,"L"
787153,"644 KING SWORD COURT","MABLETON","GA",30126,33.7883711760001,-84.535434924,153,"644 KING SWORD COURT, MABLETON, GA, 30126","Match","Exact","644 KING SWORD CT, MABLETON, GA, 30126",614183135,"R"
787154,"644 KOTAKE COURT","SAN JOSE","CA",95127,37.3820559700001,-121.840456542,154,"644 KOTAKE COURT, SAN JOSE, CA, 95127","Match","Exact","644 KOTAKE CT, SAN JOSE, CA, 95127",122991178,"L"
787155,"644 LAKE HENRY DRIVE","WINTER HAVEN","FL",33881,28.083371378,-81.669964598,155,"644 LAKE HENRY DRIVE, WINTER HAVEN, FL, 33881","Match","Exact","644 LAKE HENRY DR, WINTER HAVEN, FL, 33881",104848588,"R"
787156,"644 LAKE VALLEY DR","LA VERNIA","TX",78121,29.3512506490001,-98.0386313879999,156,"644 LAKE VALLEY DR, LA VERNIA, TX, 78121","Match","Exact","644 LAKE VALLEY DR, LA VERNIA, TX, 78121",636327784,"L"
787157,"644 LAKEVIEW DRIVE","CHINA","ME",4358,44.4318886950001,-69.532892869,157,"644 LAKEVIEW DRIVE, CHINA, ME, 4358","Match","Exact","644 LAKEVIEW DR, CHINA, ME, 04358",75488959,"L"
787158,"644 LEIGHTON WAY","STONE MOUNTAIN","GA",30088,33.7777107630001,-84.174124419,158,"644 LEIGHTON WAY, STONE MOUNTAIN, GA, 30088","Match","Exact","644 LEIGHTON WAY, STONE MOUNTAIN, GA, 30088",23385108,"R"
787159,"644 LIMERICK WAY","HYATTSVILLE","FL",20785,NA,NA,159,"644 LIMERICK WAY, HYATTSVILLE, FL, 20785","No_Match",NA,NA,NA,NA
787160,"644 LOCK RD","DEERFIELD BEACH","FL",33442,26.3253574340001,-80.1237343189999,160,"644 LOCK RD, DEERFIELD BEACH, FL, 33442","Match","Exact","644 LOCK RD, DEERFIELD BEACH, FL, 33442",608969714,"L"
787161,"644 LOUDEN AVENUE","DUNEDIN","FL",34698,28.009709716,-82.784728732,161,"644 LOUDEN AVENUE, DUNEDIN, FL, 34698","Match","Exact","644 LOUDEN AVE, DUNEDIN, FL, 34698",124665406,"L"
787162,"644 MARC DR","NORTH BRUNSWICK","NJ",8902,NA,NA,162,"644 MARC DR, NORTH BRUNSWICK, NJ, 8902","No_Match",NA,NA,NA,NA
787163,"644 MARINA WAY SOUTH","RICHMOND","CA",94804,37.923332132,-122.355875279,163,"644 MARINA WAY SOUTH, RICHMOND, CA, 94804","Match","Exact","644 MARINA WAY S, RICHMOND, CA, 94804",192040882,"L"
787164,"644 MCCRARY RD","BURGAW","NC",28425,34.4664564180001,-77.89718405,164,"644 MCCRARY RD, BURGAW, NC, 28425","Match","Exact","644 MCCRARY RD, BURGAW, NC, 28425",647177915,"L"
787165,"644 MCMAHAN CHAPEL RD","SAN AUGUSTINE","TX",75972,31.471212269,-93.972472591,165,"644 MCMAHAN CHAPEL RD, SAN AUGUSTINE, TX, 75972","Match","Non_Exact","644 MCMAHANS CHAPEL RD, SAN AUGUSTINE, TX, 75972",79198393,"L"
787166,"644 MCNALL RD","SANDPOINT","ID",83864,48.4181243990001,-116.427966695,166,"644 MCNALL RD, SANDPOINT, ID, 83864","Match","Exact","644 MCNALL RD, SANDPOINT, ID, 83864",169506726,"L"
787167,"644 MILFORD DAIRY ROAD","ABBEVILLE","SC",29620,34.275097724,-82.396155881,167,"644 MILFORD DAIRY ROAD, ABBEVILLE, SC, 29620","Match","Exact","644 MILFORD DAIRY RD, ABBEVILLE, SC, 29620",38276433,"R"
787168,"644 MILO TERRACE","LOS ANGELES","CA",90042,34.113020368,-118.206940094,168,"644 MILO TERRACE, LOS ANGELES, CA, 90042","Match","Exact","644 MILO TER, LOS ANGELES, CA, 90042",141613963,"R"
787169,"644 MISSISSIPPI STREET","LAWRENCE","KS",66044,38.972284318,-95.244062861,169,"644 MISSISSIPPI STREET, LAWRENCE, KS, 66044","Match","Exact","644 MISSISSIPPI ST, LAWRENCE, KS, 66044",17683910,"L"
787170,"644 N CHRISTIANA","CHICAGO","IL",60624,41.8927096950001,-87.710139208,170,"644 N CHRISTIANA, CHICAGO, IL, 60624","Match","Non_Exact","644 N CHRISTIANA AVE, CHICAGO, IL, 60624",111759822,"L"
787171,"644 N ELMWOOD","OAK PARK","IL",60302,41.8972164910001,-87.786584582,171,"644 N ELMWOOD, OAK PARK, IL, 60302","Match","Non_Exact","644 N ELMWOOD AVE, OAK PARK, IL, 60302",111752939,"R"
787172,"644 N TEMPLE","SALT LAKE CITY","UT",84116,40.7715484230001,-111.909196514,172,"644 N TEMPLE, SALT LAKE CITY, UT, 84116","Match","Non_Exact","644 W NORTH TEMPLE, SALT LAKE CITY, UT, 84116",176138367,"R"
787173,"644 NORTH LIME STONE","LEXINGTON","KY",40508,38.0547840040001,-84.485088237,173,"644 NORTH LIME STONE, LEXINGTON, KY, 40508","Match","Non_Exact","644 N LIMESTONE ST, LEXINGTON, KY, 40508",31945456,"R"
787174,"644 NORTH PINE ST","LANCASTER","PA",17603,40.047103056,-76.3172914369999,174,"644 NORTH PINE ST, LANCASTER, PA, 17603","Match","Exact","644 N PINE ST, LANCASTER, PA, 17603",179662045,"L"
787175,"644 NORTH STONE STREET","DELAND","FL",32720,29.0382668240001,-81.3162164669999,175,"644 NORTH STONE STREET, DELAND, FL, 32720","Match","Exact","644 N STONE ST, DELAND, FL, 32720",94510246,"L"
787176,"644 OAK RIDGE DRIVE","INDIALANTIC","FL",32903,28.0981460520001,-80.579327501,176,"644 OAK RIDGE DRIVE, INDIALANTIC, FL, 32903","Match","Exact","644 OAK RIDGE DR, INDIALANTIC, FL, 32903",93906097,"R"
787177,"644 OCEAN PKWY APT D5","BROOKLYN","NY",11230,40.6322124210001,-73.972284553,177,"644 OCEAN PKWY APT D5, BROOKLYN, NY, 11230","Match","Exact","644 OCEAN PKWY, BROOKLYN, NY, 11230",59080816,"R"
787178,"644 ORCHID DR","BAKERSFIELD","CA",93308,35.431297661,-119.033100894,178,"644 ORCHID DR, BAKERSFIELD, CA, 93308","Match","Exact","644 ORCHID DR, BAKERSFIELD, CA, 93308",109422724,"L"
787179,"644 OVERTON STREET","NEWPORT","KY",41071,39.0930797880001,-84.4892263249999,179,"644 OVERTON STREET, NEWPORT, KY, 41071","Match","Exact","644 OVERTON ST, NEWPORT, KY, 41071",104447133,"R"
787180,"644 PARK AVE","BROOKLYN","NY",11206,40.6975489390001,-73.9499070859999,180,"644 PARK AVE, BROOKLYN, NY, 11206","Match","Exact","644 PARK AVE, BROOKLYN, NY, 11206",650071853,"R"
787181,"644 RADCLIFFE AVENUE","PACIFIC PALISADES","CA",90272,34.0418432500001,-118.53081765,181,"644 RADCLIFFE AVENUE, PACIFIC PALISADES, CA, 90272","Match","Exact","644 RADCLIFFE AVE, PACIFIC PALISADES, CA, 90272",141557750,"R"
787182,"644 RAYMOND DR","LEWISTON","NY",14092,43.1816174100001,-79.025148956,182,"644 RAYMOND DR, LEWISTON, NY, 14092","Match","Exact","644 RAYMOND DR, LEWISTON, NY, 14092",48698314,"R"
787183,"644 ROGERS AVE APT 1","BROOKLYN","NY",11226,40.655685632,-73.9530110329999,183,"644 ROGERS AVE APT 1, BROOKLYN, NY, 11226","Match","Exact","644 ROGERS AVE, BROOKLYN, NY, 11226",59079537,"R"
787184,"644 RUTLEDGE DRIVE","HENDERSONVILLE","NC",28739,35.283290451,-82.445491638,184,"644 RUTLEDGE DRIVE, HENDERSONVILLE, NC, 28739","Match","Exact","644 RUTLEDGE DR, HENDERSONVILLE, NC, 28739",152324233,"L"
787185,"644 S DIXIE RD","WAGENER","SC",29164,33.603310648,-81.3461952119999,185,"644 S DIXIE RD, WAGENER, SC, 29164","Match","Exact","644 S DIXIE RD, WAGENER, SC, 29164",64983073,"L"
787186,"644 S FRONTAGE RD","COLUMBUS","MS",39701,NA,NA,186,"644 S FRONTAGE RD, COLUMBUS, MS, 39701","No_Match",NA,NA,NA,NA
787187,"644 S WEBSTER AVE STE 202","ANAHEIM","CA",92804,33.8231730420001,-117.97087635,187,"644 S WEBSTER AVE STE 202, ANAHEIM, CA, 92804","Match","Exact","644 WEBSTER AVE, ANAHEIM, CA, 92804",144011948,"L"
787188,"644 S WILLOW RD","EVANSVILLE","IN",47714,37.969093479,-87.5392216549999,188,"644 S WILLOW RD, EVANSVILLE, IN, 47714","Match","Exact","644 S WILLOW RD, EVANSVILLE, IN, 47714",39785554,"L"
787189,"644 SANANTONIO DR APT 105","PALOALTO","CA",94306,NA,NA,189,"644 SANANTONIO DR APT 105, PALOALTO, CA, 94306","Tie",NA,NA,NA,NA
787190,"644 SANTA CRUZ AVE","MENLO PARK","CA",94025,37.4527942710001,-122.183557022,190,"644 SANTA CRUZ AVE, MENLO PARK, CA, 94025","Match","Exact","644 SANTA CRUZ AVE, MENLO PARK, CA, 94025",192365131,"R"
787191,"644 SE TECUMSEH ROAD","TECUMSEH","KS",66542,39.0431532590001,-95.5821478989999,191,"644 SE TECUMSEH ROAD, TECUMSEH, KS, 66542","Match","Exact","644 SE TECUMSEH RD, TECUMSEH, KS, 66542",17906778,"L"
787192,"644 SEDGLEY DRIVE","KNOWVILLE","TN",37922,35.900194658,-84.079122076,192,"644 SEDGLEY DRIVE, KNOWVILLE, TN, 37922","Match","Non_Exact","644 SEDGLEY DR, KNOXVILLE, TN, 37922",42636884,"R"
787193,"644 SHEPHERD ROAD","LAWSON","MO",64062,39.4458495480001,-94.196874705,193,"644 SHEPHERD ROAD, LAWSON, MO, 64062","Match","Exact","644 SHEPHERD RD, LAWSON, MO, 64062",20985883,"R"
787194,"644 SNOW ROAD","SEBASTOPOL","CA",95472,38.373715384,-122.817921757,194,"644 SNOW ROAD, SEBASTOPOL, CA, 95472","Match","Exact","644 SNOW RD, SEBASTOPOL, CA, 95472",67520902,"R"
787195,"644 SNOWS LAKE RD","FENWICK","MI",48834,43.133947285,-85.058731512,195,"644 SNOWS LAKE RD, FENWICK, MI, 48834","Match","Exact","644 SNOWS LAKE RD, FENWICK, MI, 48834",110564197,"L"
787196,"644 SOUTH 2ND STREET W","MISSOULA","MT",59801,46.8679648620001,-114.005718359,196,"644 SOUTH 2ND STREET W, MISSOULA, MT, 59801","Match","Exact","644 S 2ND ST W, MISSOULA, MT, 59801",205238839,"R"
787197,"644 SOUTHLAKE DRIVE","ORMOND BEACH","FL",32174,29.376684115,-81.167947111,197,"644 SOUTHLAKE DRIVE, ORMOND BEACH, FL, 32174","Match","Exact","644 SOUTHLAKE DR, ORMOND BEACH, FL, 32174",648117085,"L"
787198,"644 SOUTHOVER ROAD","TOLEDO","OH",43612,41.7093812310001,-83.559728503,198,"644 SOUTHOVER ROAD, TOLEDO, OH, 43612","Match","Exact","644 SOUTHOVER RD, TOLEDO, OH, 43612",33933993,"R"
787199,"644 SPITZ FARM ROAD","QUINCY","FL",32352,30.6602250830001,-84.673719191,199,"644 SPITZ FARM ROAD, QUINCY, FL, 32352","Match","Exact","644 SPITZ FARM RD, QUINCY, FL, 32352",610798286,"R"
787200,"644 SPRINGBROOK NORTH","IRVINE","CA",92614,33.6706993980001,-117.800176112,200,"644 SPRINGBROOK NORTH, IRVINE, CA, 92614","Match","Exact","644 SPRINGBROOK N, IRVINE, CA, 92614",144409859,"R"
787201,"644 STILLMEADOW","RICHARDSON","TX",75081,32.9275975850001,-96.719135458,201,"644 STILLMEADOW, RICHARDSON, TX, 75081","Match","Non_Exact","644 STILLMEADOW DR, RICHARDSON, TX, 75081",102914126,"R"
787202,"644 STONEYBROOK","WYLIE","TX",75098,33.001773477,-96.549360083,202,"644 STONEYBROOK, WYLIE, TX, 75098","Match","Non_Exact","644 STONEYBROOK DR, WYLIE, TX, 75098",123559033,"R"
787203,"644 SW 150TH ST","SEATTLE","WA",98166,47.4686067760001,-122.343142236,203,"644 SW 150TH ST, SEATTLE, WA, 98166","Match","Exact","644 SW 150TH ST, SEATTLE, WA, 98166",186624498,"R"
787204,"644 SW 4TH STREET APT1","BELLE GLADE","FL",33430,NA,NA,204,"644 SW 4TH STREET APT1, BELLE GLADE, FL, 33430","Tie",NA,NA,NA,NA
787205,"644 SW 5TH STREET","CORVALLIS","OR",97333,44.5595243080001,-123.26580608,205,"644 SW 5TH STREET, CORVALLIS, OR, 97333","Match","Exact","644 SW 5TH ST, CORVALLIS, OR, 97333",155847419,"L"
787206,"644 SW 7TH STREET","DELRAY BEACH","FL",33444,26.4506916990001,-80.079137985,206,"644 SW 7TH STREET, DELRAY BEACH, FL, 33444","Match","Exact","644 SW 7TH ST, DELRAY BEACH, FL, 33444",115511981,"R"
787207,"644 TACO AVE","WESTWOOD","NJ",NA,40.9778206460001,-74.0419492349999,207,"644 TACO AVE, WESTWOOD, NJ, ","Match","Exact","644 TACO AVE, WESTWOOD, NJ, 07675",64378683,"R"
787208,"644 THORNGATE LANE","RIVERWOODS","IL",60015,42.1648577080001,-87.891260495,208,"644 THORNGATE LANE, RIVERWOODS, IL, 60015","Match","Exact","644 THORNGATE LN, RIVERWOODS, IL, 60015",119733504,"R"
787209,"644 TIMBER BAY CIRCLE EAST","OLDSMAR","FL",34677,28.0148125210001,-82.662061901,209,"644 TIMBER BAY CIRCLE EAST, OLDSMAR, FL, 34677","Match","Exact","644 TIMBER BAY CIR E, OLDSMAR, FL, 34677",124685158,"R"
787210,"644 TURQUOISE DR","HERCULES","CA",94547,37.996761748,-122.273681334,210,"644 TURQUOISE DR, HERCULES, CA, 94547","Match","Exact","644 TURQUOISE DR, HERCULES, CA, 94547",651666913,"R"
787211,"644 VANDERBUILT STREET","BROOKLYN","NY",11218,40.653804671,-73.9754314319999,211,"644 VANDERBUILT STREET, BROOKLYN, NY, 11218","Match","Non_Exact","644 VANDERBILT ST, BROOKLYN, NY, 11218",59078385,"R"
787212,"644 VASSAR","UNIVERSITY CY","MO",63130,38.658749793,-90.317031385,212,"644 VASSAR, UNIVERSITY CY, MO, 63130","Match","Non_Exact","644 VASSAR AVE, UNIVERSITY CY, MO, 63130",100152084,"R"
787213,"644 VENUE DRIVE","DOVER","DE",19901,39.17745246,-75.527515067,213,"644 VENUE DRIVE, DOVER, DE, 19901","Match","Exact","644 VENUE DR, DOVER, DE, 19901",68107787,"R"
787214,"644 VISCAYA COURT","SOMERSET","NJ",8873,40.520105528,-74.5314070109999,214,"644 VISCAYA COURT, SOMERSET, NJ, 8873","Match","Exact","644 VISCAYA CT, SOMERSET, NJ, 08873",628676864,"R"
787215,"644 W 111TH ST","CHICAGO","IL",60628,41.6924029800001,-87.6390541009999,215,"644 W 111TH ST, CHICAGO, IL, 60628","Match","Exact","644 W 111TH ST, CHICAGO, IL, 60628",111833558,"R"
787216,"644 W 1875 S","LEHI","UT",84043,40.3663074150001,-111.85957023,216,"644 W 1875 S, LEHI, UT, 84043","Match","Exact","644 W 1875 S, LEHI, UT, 84043",629797370,"L"
787217,"644 W BARTLETT WAY","CHANDLER","AZ",85248,33.2337058520001,-111.851145749,217,"644 W BARTLETT WAY, CHANDLER, AZ, 85248","Match","Exact","644 W BARTLETT WAY, CHANDLER, AZ, 85248",625684342,"L"
787218,"644 W EVANSTON RD","TIPP CITY","OH",45371,39.9445425970001,-84.2092343049999,218,"644 W EVANSTON RD, TIPP CITY, OH, 45371","Match","Non_Exact","646 W EVANSTON RD, TIPP CITY, OH, 45371",207645070,"R"
787219,"644 W LAKESHORE DR","BENTON","LA",71106,32.661796187,-93.67993919,219,"644 W LAKESHORE DR, BENTON, LA, 71106","Match","Non_Exact","644 W LAKESHORE DR, BENTON, LA, 71006",618228073,"R"
787220,"644 W OAKDALE APT 2F","CHICAGO","IL",60657,NA,NA,220,"644 W OAKDALE APT 2F, CHICAGO, IL, 60657","No_Match",NA,NA,NA,NA
787221,"644 W WRIGHTWOOD AVE","CHICAGO","IL",60614,41.9292604340001,-87.644653456,221,"644 W WRIGHTWOOD AVE, CHICAGO, IL, 60614","Match","Exact","644 W WRIGHTWOOD AVE, CHICAGO, IL, 60614",605242421,"R"
787222,"644 WARWICK DRIVE","MCDONOUGH","GA",30253,33.445965078,-84.205201575,222,"644 WARWICK DRIVE, MCDONOUGH, GA, 30253","Match","Exact","644 WARWICK DR, MCDONOUGH, GA, 30253",619943185,"R"
787223,"644 WEST 185TH STREET APT 5F","NEW YORK","NY",10033,40.8522507590001,-73.9333240889999,223,"644 WEST 185TH STREET APT 5F, NEW YORK, NY, 10033","Match","Exact","644 W 185TH ST, NEW YORK, NY, 10033",59655574,"L"
787224,"644 WEST 43RD STREET","LOS ANGELES","CA",90037,34.005396294,-118.28487372,224,"644 WEST 43RD STREET, LOS ANGELES, CA, 90037","Match","Exact","644 W 43RD ST, LOS ANGELES, CA, 90037",141608127,"L"
787225,"644 WEST MAIN STREET","ALGOOD","TN",38506,36.183207684,-85.458683895,225,"644 WEST MAIN STREET, ALGOOD, TN, 38506","Match","Non_Exact","644 W MAIN ST, COOKEVILLE, TN, 38506",605281742,"R"
787226,"644 WEST NORTH TEMPLE APART 214","SALT LAKE CITY","UT",84116,40.7715484230001,-111.909196514,226,"644 WEST NORTH TEMPLE APART 214, SALT LAKE CITY, UT, 84116","Match","Exact","644 W NORTH TEMPLE, SALT LAKE CITY, UT, 84116",176138367,"R"
787227,"644 WEST SIDE AVE","JERSEY CITY","NJ",7304,40.722709186,-74.079826243,227,"644 WEST SIDE AVE, JERSEY CITY, NJ, 7304","Match","Exact","644 W SIDE AVE, JERSEY CITY, NJ, 07304",59604221,"R"
787228,"644 WHITEROCK","MEMPHIS","TN",38109,35.0277065220001,-90.042456678,228,"644 WHITEROCK, MEMPHIS, TN, 38109","Match","Non_Exact","644 WHITEROCK AVE, MEMPHIS, TN, 38109",72909842,"L"
787229,"644 WHITETHORNE DRIVE","SAN JOSE","CA",95128,37.300504215,-121.938157286,229,"644 WHITETHORNE DRIVE, SAN JOSE, CA, 95128","Match","Exact","644 WHITETHORNE DR, SAN JOSE, CA, 95128",122988563,"R"
787230,"644 WINTER WHEAT CT","MATTHEWS","NC",28104,35.022770769,-80.752068331,230,"644 WINTER WHEAT CT, MATTHEWS, NC, 28104","Match","Exact","644 WINTER WHEAT CT, MATTHEWS, NC, 28104",650599713,"R"
787231,"644","LONG BEACH","CA",90814,NA,NA,231,"644, LONG BEACH, CA, 90814","No_Match",NA,NA,NA,NA
787232,"6440 AFTON DR","DAYTON","OH",45415,39.839294491,-84.2851545889999,232,"6440 AFTON DR, DAYTON, OH, 45415","Match","Exact","6440 AFTON DR, DAYTON, OH, 45415",143561919,"R"
787233,"6440 AVONDALE DR STE 201","NICHOLS HILLS","OK",73116,35.538442752,-97.531430907,233,"6440 AVONDALE DR STE 201, NICHOLS HILLS, OK, 73116","Match","Exact","6440 AVONDALE DR, NICHOLS HILLS, OK, 73116",606147552,"R"
787234,"6440 AYLWORTH DR","FRISCO","TX",75035,33.131251938,-96.749832769,234,"6440 AYLWORTH DR, FRISCO, TX, 75035","Match","Exact","6440 AYLWORTH DR, FRISCO, TX, 75035",634134427,"R"
787235,"6440 BARWICK LANE","JOHNS CREEK","GA",30097,34.0422587200001,-84.174697483,235,"6440 BARWICK LANE, JOHNS CREEK, GA, 30097","Match","Exact","6440 BARWICK LN, JOHNS CREEK, GA, 30097",17380553,"L"
787236,"6440 BUENA VENTURA AVE","OAKLAND","CA",94605,37.776413473,-122.17533129,236,"6440 BUENA VENTURA AVE, OAKLAND, CA, 94605","Match","Exact","6440 BUENA VENTURA AVE, OAKLAND, CA, 94605",125008832,"L"
787237,"6440 CAROLOT LANE","BARTLETT","TN",38135,35.2501914960001,-89.848119289,237,"6440 CAROLOT LANE, BARTLETT, TN, 38135","Match","Exact","6440 CAROLOT LN, BARTLETT, TN, 38135",72977492,"R"
787238,"6440 CELIA AVENUE","BATON ROUGE","LA",70811,30.5541131370001,-91.125130805,238,"6440 CELIA AVENUE, BATON ROUGE, LA, 70811","Match","Exact","6440 CELIA AVE, BATON ROUGE, LA, 70811",92186366,"R"
787239,"6440 CHELWYNDE AVENUE","PHILADELPHIA","PA",19142,39.920754867,-75.2273041029999,239,"6440 CHELWYNDE AVENUE, PHILADELPHIA, PA, 19142","Match","Exact","6440 CHELWYNDE AVE, PHILADELPHIA, PA, 19142",131409400,"L"
787240,"6440 CR 1202","CLEBURNE","TX",76031,32.25610134,-97.332018814,240,"6440 CR 1202, CLEBURNE, TX, 76031","Match","Exact","6440 CO RD 1202, CLEBURNE, TX, 76031",640011844,"L"
787241,"6440 E OAKVIEW LANE","ANAHEIM","CA",92807,33.8355392930001,-117.767799623,241,"6440 E OAKVIEW LANE, ANAHEIM, CA, 92807","Match","Exact","6440 E OAKVIEW LN, ANAHEIM, CA, 92807",144034478,"R"
787242,"6440 E TC JESTER BLVD  519","HOUSTON","TX",77018,29.857313811,-95.458751574,242,"6440 E TC JESTER BLVD  519, HOUSTON, TX, 77018","Match","Non_Exact","6440 T C JESTER BLVD, HOUSTON, TX, 77091",96027551,"R"
787243,"6440 EASTERN RANGE ROAD","INDIANAPOLIS","IN",46234,39.857515623,-86.343510281,243,"6440 EASTERN RANGE ROAD, INDIANAPOLIS, IN, 46234","Match","Exact","6440 EASTERN RANGE RD, INDIANAPOLIS, IN, 46234",627093952,"L"
787244,"6440 FAIRFIELD AVENUE 208","FORT WAYNE","IN",46807,41.0258608600001,-85.141685668,244,"6440 FAIRFIELD AVENUE 208, FORT WAYNE, IN, 46807","Match","Exact","6440 FAIRFIELD AVE, FORT WAYNE, IN, 46807",6382972,"R"
787245,"6440 JOHNSON RD","SPRINGFIELD","OH",45502,39.9749565880001,-83.924505794,245,"6440 JOHNSON RD, SPRINGFIELD, OH, 45502","Match","Exact","6440 JOHNSON RD, SPRINGFIELD, OH, 45502",135005267,"R"
787246,"6440 KETTLER ROAD","NEW BREMEN","OH",45869,40.449196413,-84.358086035,246,"6440 KETTLER ROAD, NEW BREMEN, OH, 45869","Match","Exact","6440 KETTLER RD, NEW BREMEN, OH, 45869",649019654,"R"
787247,"6440 MARIANA DRIVE","PENSACOLA","FL",32504,30.4925722240001,-87.1648638619999,247,"6440 MARIANA DRIVE, PENSACOLA, FL, 32504","Match","Exact","6440 MARIANA DR, PENSACOLA, FL, 32504",93238713,"R"
787248,"6440 METROWEST BLVD 420","ORLANDO","FL",32835,28.5177317660001,-81.471573662,248,"6440 METROWEST BLVD 420, ORLANDO, FL, 32835","Match","Exact","6440 METROWEST BLVD, ORLANDO, FL, 32835",94314695,"R"
787249,"6440 MOTHERLODE DRIVE","PLACERVILLE","CA",95667,38.7004913910001,-120.848352598,249,"6440 MOTHERLODE DRIVE, PLACERVILLE, CA, 95667","Match","Non_Exact","6440 MOTHER LODE DR, PLACERVILLE, CA, 95667",133026233,"R"
787250,"6440 MYSTON LANE","HUNTERSVILLE","NC",28078,35.4141170190001,-80.903544569,250,"6440 MYSTON LANE, HUNTERSVILLE, NC, 28078","Match","Exact","6440 MYSTON LN, HUNTERSVILLE, NC, 28078",641594526,"R"
787251,"6440 N BELT LINE RD STE 150","IRVING","TX",75063,32.895444866,-96.9909453829999,251,"6440 N BELT LINE RD STE 150, IRVING, TX, 75063","Match","Non_Exact","6440 N BELT LINE RD, IRVING, TX, 75063",103270985,"R"
787252,"6440 N CENTRAL EXPRESSWAY STE 610","DALLAS","TX",75206,32.8451063000001,-96.7733869209999,252,"6440 N CENTRAL EXPRESSWAY STE 610, DALLAS, TX, 75206","Match","Non_Exact","6440 N CENTRAL EXPY, DALLAS, TX, 75206",102907596,"R"
787253,"6440 N JAMESTOWN RD","PEORIA","IL",61615,40.765031892,-89.644458328,253,"6440 N JAMESTOWN RD, PEORIA, IL, 61615","Match","Exact","6440 N JAMESTOWN RD, PEORIA, IL, 61615",8733293,"L"
787254,"6440 PETERS LONDON ROAD","REED","KY",42452,37.8483615310001,-87.3909614459999,254,"6440 PETERS LONDON ROAD, REED, KY, 42452","Match","Non_Exact","6440 PETERS LONDON RD, REED, KY, 42451",57919711,"R"
787255,"6440 RICH RD","OLYMPIA","WA",98501,46.990198423,-122.855078714,255,"6440 RICH RD, OLYMPIA, WA, 98501","Match","Non_Exact","6440 RICH RD SE, OLYMPIA, WA, 98501",180978730,"R"
787256,"6440 S 7ST","PHOENIX","AZ",85040,NA,NA,256,"6440 S 7ST, PHOENIX, AZ, 85040","No_Match",NA,NA,NA,NA
787257,"6440 SANDS POINT DRIVE","HOUSTON","TX",77074,29.712003564,-95.495843351,257,"6440 SANDS POINT DRIVE, HOUSTON, TX, 77074","Match","Exact","6440 SANDS POINT DR, HOUSTON, TX, 77074",96614701,"R"
787258,"6440 SOUTHPOINT PARKWAY SUITE 300","JACKSONVILLE","FL",32216,30.2607292970001,-81.6027745389999,258,"6440 SOUTHPOINT PARKWAY SUITE 300, JACKSONVILLE, FL, 32216","Match","Exact","6440 SOUTHPOINT PKWY, JACKSONVILLE, FL, 32216",83959566,"L"
787259,"6440 SPRINGFLOWER DR APT15","NEW PORT RICHEY","FL",34653,NA,NA,259,"6440 SPRINGFLOWER DR APT15, NEW PORT RICHEY, FL, 34653","No_Match",NA,NA,NA,NA
787260,"6440 STERRETANIA ROAD","FAIRVIEW","PA",16415,NA,NA,260,"6440 STERRETANIA ROAD, FAIRVIEW, PA, 16415","No_Match",NA,NA,NA,NA
787261,"6440 STONEY RIDGE DR","AUSTINTOWN","OH",44515,41.0787263820001,-80.7838171509999,261,"6440 STONEY RIDGE DR, AUSTINTOWN, OH, 44515","Match","Exact","6440 STONEY RIDGE DR, AUSTINTOWN, OH, 44515",64607456,"L"
787262,"6440 SW 22ND ST","MIRAMAR","FL",33023,25.9910200620001,-80.216087333,262,"6440 SW 22ND ST, MIRAMAR, FL, 33023","Match","Exact","6440 SW 22ND ST, MIRAMAR, FL, 33023",114734508,"L"
787263,"6440 SW 23RD ST","MIRAMAR","FL",33023,25.989588903,-80.216038184,263,"6440 SW 23RD ST, MIRAMAR, FL, 33023","Match","Exact","6440 SW 23RD ST, MIRAMAR, FL, 33023",114734541,"L"
787264,"6440 VIA ESCONDIDO DRIVE","MALIBU","CA",90265,34.0273891430001,-118.764508099,264,"6440 VIA ESCONDIDO DRIVE, MALIBU, CA, 90265","Match","Exact","6440 VIA ESCONDIDO DR, MALIBU, CA, 90265",142837394,"L"
787265,"6440 W 62ND PL","ARVADA","CO",80003,39.8100829470001,-105.067805351,265,"6440 W 62ND PL, ARVADA, CO, 80003","Match","Exact","6440 W 62ND PL, ARVADA, CO, 80003",177737546,"L"
787266,"6440 W PARADISE LN","GLENDALE","AZ",85306,33.6323161990001,-112.197918703,266,"6440 W PARADISE LN, GLENDALE, AZ, 85306","Match","Exact","6440 W PARADISE LN, GLENDALE, AZ, 85306",128174188,"L"
787267,"6440 WELLSTON DRIVE","BLOMINGTON","IN",47408,39.223063752,-86.456422235,267,"6440 WELLSTON DRIVE, BLOMINGTON, IN, 47408","Match","Non_Exact","6440 WELLSTON DR, BLOOMINGTON, IN, 47408",42336598,"L"
787268,"6440 WEST 89TH AVENUE","ST. JOHN","IN",46307,41.4569311770001,-87.4127286629999,268,"6440 WEST 89TH AVENUE, ST. JOHN, IN, 46307","Match","Non_Exact","6440 W 89TH AVE, WINFIELD, IN, 46307",98455451,"L"
787269,"6441 ALAMO AVE 1E","SAINT LOUIS","MO",63105,38.6349749550001,-90.310402298,269,"6441 ALAMO AVE 1E, SAINT LOUIS, MO, 63105","Match","Exact","6441 ALAMO AVE, SAINT LOUIS, MO, 63105",100153363,"R"
787270,"6441 AZALEA STREET","PANAMA CITY","FL",32404,30.2516037250001,-85.544466842,270,"6441 AZALEA STREET, PANAMA CITY, FL, 32404","Match","Exact","6441 AZALEA ST, PANAMA CITY, FL, 32404",7017652,"L"
787271,"6441 BONNY OAKS DR  - STE E","CHATTANOOGA","TN",37416,35.0746029200001,-85.167025882,271,"6441 BONNY OAKS DR  - STE E, CHATTANOOGA, TN, 37416","Match","Exact","6441 BONNY OAKS DR, CHATTANOOGA, TN, 37416",59345125,"L"
787272,"6441 BONNY OAKS DR - STE E","CHATTANOOGA","TN",37416,35.0746029200001,-85.167025882,272,"6441 BONNY OAKS DR - STE E, CHATTANOOGA, TN, 37416","Match","Exact","6441 BONNY OAKS DR, CHATTANOOGA, TN, 37416",59345125,"L"
787273,"6441 CHURCH ST","CLARKSTON","MI",48436,42.7352882260001,-83.4064157669999,273,"6441 CHURCH ST, CLARKSTON, MI, 48436","Match","Non_Exact","6441 CHURCH ST, CLARKSTON, MI, 48346",69692827,"L"
787274,"6441 CITADEL DR","HUNTINGTON BEACH","CA",92647,33.738681996,-118.016377628,274,"6441 CITADEL DR, HUNTINGTON BEACH, CA, 92647","Match","Exact","6441 CITADEL DR, HUNTINGTON BEACH, CA, 92647",144016826,"L"
787275,"6441 CRESCENT WAY APT 106","NORFOLK","VA",23513,36.89896536,-76.228675461,275,"6441 CRESCENT WAY APT 106, NORFOLK, VA, 23513","Match","Exact","6441 CRESCENT WAY, NORFOLK, VA, 23513",122146474,"R"
787276,"6441 DIVINE ST","MCLEAN","VA",22101,38.9201891700001,-77.163206234,276,"6441 DIVINE ST, MCLEAN, VA, 22101","Match","Exact","6441 DIVINE ST, MCLEAN, VA, 22101",75963786,"L"
787277,"6441 E MCDONALD DR","PARADISE VALLEY","AZ",85253,33.523858891,-111.941801596,277,"6441 E MCDONALD DR, PARADISE VALLEY, AZ, 85253","Match","Exact","6441 E MCDONALD DR, PARADISE VALLEY, AZ, 85253",128222141,"R"
787278,"6441 EAGLEVIEW DRIVE","MASON","OH",45049,39.344602062,-84.2850853859999,278,"6441 EAGLEVIEW DRIVE, MASON, OH, 45049","Match","Non_Exact","6441 EAGLEVIEW DR, MASON, OH, 45040",159031603,"R"
787279,"6441 FAIRFIELD AVE","BERWYN","IL",60402,41.8333444720001,-87.7840817599999,279,"6441 FAIRFIELD AVE, BERWYN, IL, 60402","Match","Exact","6441 FAIRFIELD AVE, BERWYN, IL, 60402",111794829,"R"
787280,"6441 FOREST PARK DRIVE","DEFOREST","WI",53532,43.2009481270001,-89.305727578,280,"6441 FOREST PARK DRIVE, DEFOREST, WI, 53532","Match","Exact","6441 FOREST PARK DR, DEFOREST, WI, 53532",649023358,"R"
787281,"6441 FORWARD AVE","PITTSBURGH","PA",15217,40.428059697,-79.916949078,281,"6441 FORWARD AVE, PITTSBURGH, PA, 15217","Match","Exact","6441 FORWARD AVE, PITTSBURGH, PA, 15217",607635073,"L"
787282,"6441 HANNA LAKE","CALEDONIA","MI",49316,NA,NA,282,"6441 HANNA LAKE, CALEDONIA, MI, 49316","No_Match",NA,NA,NA,NA
787283,"6441 HERMOSA AVE","YUCCA VALLEY","CA",92284,34.136605703,-116.379905723,283,"6441 HERMOSA AVE, YUCCA VALLEY, CA, 92284","Match","Exact","6441 HERMOSA AVE, YUCCA VALLEY, CA, 92284",614800755,"R"
787284,"6441 INKSTER RD STE 160","BLOOMFIELD HILLS","MI",48301,42.5463231890001,-83.321511081,284,"6441 INKSTER RD STE 160, BLOOMFIELD HILLS, MI, 48301","Match","Exact","6441 INKSTER RD, BLOOMFIELD HILLS, MI, 48301",69726850,"L"
787285,"6441 KING LOUIS DR","ALEXANDRIA","VA",22312,38.8207932620001,-77.147877826,285,"6441 KING LOUIS DR, ALEXANDRIA, VA, 22312","Match","Exact","6441 KING LOUIS DR, ALEXANDRIA, VA, 22312",76015553,"L"
787286,"6441 LAKE ROAD WEST","MADISON","OH",44057,41.832484557,-81.057298633,286,"6441 LAKE ROAD WEST, MADISON, OH, 44057","Match","Exact","6441 LAKE RD W, MADISON, OH, 44057",137467994,"L"
787287,"6441 MEADOWLARK DR","DUNKIRK","MD",20754,38.7468347540001,-76.601732322,287,"6441 MEADOWLARK DR, DUNKIRK, MD, 20754","Match","Exact","6441 MEADOWLARK DR, DUNKIRK, MD, 20754",627565541,"L"
787288,"6441 N WISHON AVE 103","FRESNO","CA",93704,36.830887278,-119.80159533,288,"6441 N WISHON AVE 103, FRESNO, CA, 93704","Match","Non_Exact","6441 N WISHON AVE, FRESNO, CA, 93704",197572317,"L"
787289,"6441 NW 28TH STREET","SUNRISE","FL",33313,26.161146568,-80.23575726,289,"6441 NW 28TH STREET, SUNRISE, FL, 33313","Match","Exact","6441 NW 28TH ST, SUNRISE, FL, 33313",114785324,"R"
787290,"6441 RICHARDSON FARM LANE","CLARKSVILLE","MD",21029,NA,NA,290,"6441 RICHARDSON FARM LANE, CLARKSVILLE, MD, 21029","No_Match",NA,NA,NA,NA
787291,"6441 RIVER PARK DR","RIVERDALE","GA",30274,33.577916148,-84.399604273,291,"6441 RIVER PARK DR, RIVERDALE, GA, 30274","Match","Exact","6441 RIVER PARK DR, RIVERDALE, GA, 30274",23323134,"L"
787292,"6441 S CHICKASAW TRAIL STE 189","ORLANDO","FL",32829,28.4703977,-81.268972054,292,"6441 S CHICKASAW TRAIL STE 189, ORLANDO, FL, 32829","Match","Non_Exact","6441 S CHICKASAW TRL, ORLANDO, FL, 32829",94395713,"L"
787293,"6441 SKYLARK DRIVE","JACKSON","MI",49201,42.174858027,-84.2764738659999,293,"6441 SKYLARK DRIVE, JACKSON, MI, 49201","Match","Exact","6441 SKYLARK DR, JACKSON, MI, 49201",17621297,"R"
787294,"6441 SOUTH 82ND EAST AVENUE","TULSA","OK",74133,NA,NA,294,"6441 SOUTH 82ND EAST AVENUE, TULSA, OK, 74133","Tie",NA,NA,NA,NA
787295,"6441 STANWIN DRIVE","APOPKA","FL",32712,28.7690462510001,-81.5218927769999,295,"6441 STANWIN DRIVE, APOPKA, FL, 32712","Match","Exact","6441 STANWIN DR, APOPKA, FL, 32712",647994934,"R"
787296,"6441 THUNDER MOUNTAIN AVENUE","RANCHO CUCAMONGA","CA",91739,34.137681553,-117.543490453,296,"6441 THUNDER MOUNTAIN AVENUE, RANCHO CUCAMONGA, CA, 91739","Match","Exact","6441 THUNDER MOUNTAIN AVE, ETIWANDA, CA, 91739",144979916,"L"
787297,"6441 VIA COLINITA","RCH PALOS VRD","CA",90275,33.7437641430001,-118.322113145,297,"6441 VIA COLINITA, RCH PALOS VRD, CA, 90275","Match","Exact","6441 VIA COLINITA, RCH PALOS VRD, CA, 90275",142816999,"R"
787298,"6441 VOOSCANE AVE","COCHITI LAKE","NM",87083,NA,NA,298,"6441 VOOSCANE AVE, COCHITI LAKE, NM, 87083","No_Match",NA,NA,NA,NA
787299,"6441 W 29TH ST","ODESSA","TX",79764,31.854370208,-102.453456813,299,"6441 W 29TH ST, ODESSA, TX, 79764","Match","Exact","6441 W 29TH ST, ODESSA, TX, 79764",139434504,"R"
787300,"6441 WALTER WRIGHT RD","PLEASANT GARDEN","NC",27313,35.9390957640001,-79.773542229,300,"6441 WALTER WRIGHT RD, PLEASANT GARDEN, NC, 27313","Match","Exact","6441 WALTER WRIGHT RD, PLEASANT GARDEN, NC, 27313",131047025,"L"
787301,"6441 WILLOW CREEK ROAD","MOUNTAIN GREEN","UT",84050,41.1534125760001,-111.758355984,301,"6441 WILLOW CREEK ROAD, MOUNTAIN GREEN, UT, 84050","Match","Exact","6441 WILLOW CREEK RD, MOUNTAIN GREEN, UT, 84050",653295500,"L"
787302,"6441 WINGATE ROAD","WILLOWBROOK","IL",60527,41.7711924810001,-87.9331200409999,302,"6441 WINGATE ROAD, WILLOWBROOK, IL, 60527","Match","Exact","6441 WINGATE RD, WILLOWBROOK, IL, 60527",112552576,"L"
787303,"6441 WRIGHT ROAD","SANDY SPRINGS","GA",30328,33.9312985550001,-84.38566473,303,"6441 WRIGHT ROAD, SANDY SPRINGS, GA, 30328","Match","Non_Exact","6441 WRIGHT RD NE, SANDY SPRINGS, GA, 30328",17333199,"R"
787304,"64412 PIKE STREET","ANGIE","LA",70426,30.9598717210001,-89.813473033,304,"64412 PIKE STREET, ANGIE, LA, 70426","Match","Exact","64412 PIKE ST, ANGIE, LA, 70426",82471845,"R"
787305,"64418 PIKE ST","ANGIE","LA",70426,30.9598703300001,-89.813466158,305,"64418 PIKE ST, ANGIE, LA, 70426","Match","Exact","64418 PIKE ST, ANGIE, LA, 70426",82471845,"R"
787306,"6442 ALBANY GARDENS DRIVE","NEW ALBANY","OH",43054,40.0779056310001,-82.846213615,306,"6442 ALBANY GARDENS DRIVE, NEW ALBANY, OH, 43054","Match","Exact","6442 ALBANY GARDENS DR, NEW ALBANY, OH, 43054",135752922,"L"
787307,"6442 CEDAR CREEK CT","MASON","OH",45040,39.385251026,-84.332266472,307,"6442 CEDAR CREEK CT, MASON, OH, 45040","Match","Exact","6442 CEDAR CREEK CT, MASON, OH, 45040",617731042,"L"
787308,"6442 COUNTY ROAD 40","FORT CALHOUN","NE",68023,41.4076955960001,-96.029811181,308,"6442 COUNTY ROAD 40, FORT CALHOUN, NE, 68023","Match","Exact","6442 CO RD 40, FORT CALHOUN, NE, 68023",176769815,"R"
787309,"6442 DIETZ DRIVE","CANAL WINCHESTER","OH",43110,39.8371431210001,-82.8250687789999,309,"6442 DIETZ DRIVE, CANAL WINCHESTER, OH, 43110","Match","Exact","6442 DIETZ DR, CANAL WINCHESTER, OH, 43110",642843279,"L"
787310,"6442 FAIR OAKS BOULEVARD","CARMICHAEL","CA",95608,38.6184900860001,-121.328550245,310,"6442 FAIR OAKS BOULEVARD, CARMICHAEL, CA, 95608","Match","Exact","6442 FAIR OAKS BLVD, CARMICHAEL, CA, 95608",133343271,"R"
787311,"6442 HIGH COUNTRY CIRCLE","EASTVALE","CA",92880,33.97030576,-117.580906996,311,"6442 HIGH COUNTRY CIRCLE, EASTVALE, CA, 92880","Match","Exact","6442 HIGH COUNTRY CIR, EASTVALE, CA, 92880",608989079,"L"
787312,"6442 INDIANA AVE","KANSAS CITY","MO",64132,39.009647241,-94.546996351,312,"6442 INDIANA AVE, KANSAS CITY, MO, 64132","Match","Exact","6442 INDIANA AVE, KANSAS CITY, MO, 64132",91456829,"R"
787313,"6442 KINLOCKE DRIVE","JACKSONVILLE","FL",32209,30.375920804,-81.729122412,313,"6442 KINLOCKE DRIVE, JACKSONVILLE, FL, 32209","Match","Non_Exact","6442 KINLOCK DR, JACKSONVILLE, FL, 32219",83887940,"L"
787314,"6442 KYLE AVENUE NORTH","BROOKLYN CENTER","MN",55429,45.0718790350001,-93.3362966289999,314,"6442 KYLE AVENUE NORTH, BROOKLYN CENTER, MN, 55429","Match","Exact","6442 KYLE AVE N, BROOKLYN CENTER, MN, 55429",43615698,"R"
787315,"6442 LIBERTY VALLEY DR","HOUSTON","TX",77449,29.87091142,-95.73235936,315,"6442 LIBERTY VALLEY DR, HOUSTON, TX, 77449","Match","Non_Exact","6442 LIBERTY VALLEY DR, KATY, TX, 77449",96552541,"R"
787316,"6442 MARLIN FLATS","SAN ANTONIO","TX",78244,29.476355234,-98.363013504,316,"6442 MARLIN FLATS, SAN ANTONIO, TX, 78244","Match","Exact","6442 MARLIN FLATS, SAN ANTONIO, TX, 78244",101703869,"R"
787317,"6442 N 16TH STREET","PHILADELPHIA","PA",19126,40.0516581630001,-75.145281441,317,"6442 N 16TH STREET, PHILADELPHIA, PA, 19126","Match","Exact","6442 N 16TH ST, PHILADELPHIA, PA, 19126",131413743,"L"
787318,"6442 NE ALBERTA ST","PORTLAND","OR",97218,45.5590845410001,-122.596733671,318,"6442 NE ALBERTA ST, PORTLAND, OR, 97218","Match","Exact","6442 NE ALBERTA ST, PORTLAND, OR, 97218",157512567,"R"
787319,"6442 NEVADA ROAD","MACON","IL",62544,39.7598612290001,-89.06606518,319,"6442 NEVADA ROAD, MACON, IL, 62544","Match","Exact","6442 NEVADA RD, MACON, IL, 62544",653193169,"L"
787320,"6442 RALSTON AVE","INDIANAPOLIS","IN",46220,39.8752363770001,-86.130932135,320,"6442 RALSTON AVE, INDIANAPOLIS, IN, 46220","Match","Exact","6442 RALSTON AVE, INDIANAPOLIS, IN, 46220",639129209,"R"
787321,"6442 RIVER PKWY","WAUWATOSA","WI",53213,43.043748464,-87.993453196,321,"6442 RIVER PKWY, WAUWATOSA, WI, 53213","Match","Exact","6442 RIVER PKWY, WAUWATOSA, WI, 53213",77732940,"R"
787322,"6442 S DORCHESTER AVE","CHICAGO","IL",60637,41.7775284410001,-87.5915694029999,322,"6442 S DORCHESTER AVE, CHICAGO, IL, 60637","Match","Exact","6442 S DORCHESTER AVE, CHICAGO, IL, 60637",111774219,"R"
787323,"6442 SWEET  GUM TRAIL","MYRTLE   BEACH","SC",29588,33.647426465,-79.046454728,323,"6442 SWEET  GUM TRAIL, MYRTLE   BEACH, SC, 29588","Match","Exact","6442 SWEET GUM TRL, MYRTLE BEACH, SC, 29588",29072419,"R"
787324,"6442 TERNES","DEARBORN","MI",48126,42.337347299,-83.188618277,324,"6442 TERNES, DEARBORN, MI, 48126","Match","Non_Exact","6442 TERNES ST, DEARBORN, MI, 48126",95443676,"R"
787325,"6442 WEST FLORENCE AVE","PHOENIX","AZ",85043,33.420254062,-112.198804166,325,"6442 WEST FLORENCE AVE, PHOENIX, AZ, 85043","Match","Exact","6442 W FLORENCE AVE, PHOENIX, AZ, 85043",128844334,"R"
787326,"6442 YELLOW JASMINE AVENUE","MYRTLE BEACH","SC",29588,33.666634705,-78.998122795,326,"6442 YELLOW JASMINE AVENUE, MYRTLE BEACH, SC, 29588","Match","Exact","6442 YELLOW JASMINE AVE, MYRTLE BEACH, SC, 29588",29057889,"L"
787327,"6443 BAREBACK TERRACE","RICHMOND","VA",23234,37.4361652540001,-77.513005833,327,"6443 BAREBACK TERRACE, RICHMOND, VA, 23234","Match","Exact","6443 BAREBACK TER, RICHMOND, VA, 23234",616564000,"R"
787328,"6443 BURNS ALLEN AVE UNIT 103","LAS VEGAS","NV",89122,36.136746853,-115.03250335,328,"6443 BURNS ALLEN AVE UNIT 103, LAS VEGAS, NV, 89122","Match","Exact","6443 BURNS ALLEN AVE, LAS VEGAS, NV, 89122",641513154,"L"
787329,"6443 CIRCLE DRIVE","NINE MILE FALLS","WA",99026,47.8571187150001,-117.646857117,329,"6443 CIRCLE DRIVE, NINE MILE FALLS, WA, 99026","Match","Exact","6443 CIRCLE DR, NINE MILE FALLS, WA, 99026",174852330,"L"
787330,"6443 COONPATH RD NW","CARROLL","OH",43112,39.774543791,-82.7190523369999,330,"6443 COONPATH RD NW, CARROLL, OH, 43112","Match","Exact","6443 COONPATH RD NW, CARROLL, OH, 43112",37217509,"L"
787331,"6443 EARLY FALL DR","HUMBLE","TX",77338,30.019039408,-95.3265454629999,331,"6443 EARLY FALL DR, HUMBLE, TX, 77338","Match","Exact","6443 EARLY FALL DR, HUMBLE, TX, 77338",635219006,"R"
787332,"6443 EARTHGOLD DR","WINDERMERE","FL",34786,28.4717982290001,-81.5902675729999,332,"6443 EARTHGOLD DR, WINDERMERE, FL, 34786","Match","Exact","6443 EARTHGOLD DR, WINDERMERE, FL, 34786",94408556,"R"
787333,"6443 MADISON STREET","RIDGEWOOD","NY",11385,NA,NA,333,"6443 MADISON STREET, RIDGEWOOD, NY, 11385","No_Match",NA,NA,NA,NA
787334,"6443 OAKSHORE DR","PANAMA CITY","FL",32404,30.1085037830001,-85.6026448919999,334,"6443 OAKSHORE DR, PANAMA CITY, FL, 32404","Match","Exact","6443 OAKSHORE DR, PANAMA CITY, FL, 32404",7085571,"R"
787335,"6443 RIVERVIEW LN","DALLAS","TX",75248,32.9742920940001,-96.799640397,335,"6443 RIVERVIEW LN, DALLAS, TX, 75248","Match","Exact","6443 RIVERVIEW LN, DALLAS, TX, 75248",102896043,"R"
787336,"6443 S BEECH CIR APT 727","LITTLETON","CO",80127,39.6008319380001,-105.150158858,336,"6443 S BEECH CIR APT 727, LITTLETON, CO, 80127","Match","Non_Exact","6443 S BEECH CIR, LITTLETON, CO, 80127",177748836,"R"
787337,"6443 S BEECH CIRCLE 738","LITTLETON","CO",80127,39.6008319380001,-105.150158858,337,"6443 S BEECH CIRCLE 738, LITTLETON, CO, 80127","Match","Non_Exact","6443 S BEECH CIR, LITTLETON, CO, 80127",177748836,"R"
787338,"6443 SAGEWOOD DR","ORLANDO","FL",32818,28.5626633090001,-81.471778628,338,"6443 SAGEWOOD DR, ORLANDO, FL, 32818","Match","Exact","6443 SAGEWOOD DR, ORLANDO, FL, 32818",94271292,"R"
787339,"6443 ST ANDREWS DR","STOCKTON","CA",95219,37.978525576,-121.36176957,339,"6443 ST ANDREWS DR, STOCKTON, CA, 95219","Match","Exact","6443 SAINT ANDREWS DR, STOCKTON, CA, 95219",133878657,"L"
787340,"6443 SUMMERS NOOK DR","NEW ALBANY","OH",43054,40.0695146830001,-82.8458226119999,340,"6443 SUMMERS NOOK DR, NEW ALBANY, OH, 43054","Match","Exact","6443 SUMMERS NOOK DR, NEW ALBANY, OH, 43054",218576747,"R"
787341,"6443 SUNDANCE LOOP","CHEYENNE","WY",82009,41.197245476,-104.73028546,341,"6443 SUNDANCE LOOP, CHEYENNE, WY, 82009","Match","Exact","6443 SUNDANCE LOOP, CHEYENNE, WY, 82009",604965771,"R"
787342,"6444 BLACKWELLS HOLLOW ROAD","CROZET","VA",22932,38.2119421880001,-78.6516532699999,342,"6444 BLACKWELLS HOLLOW ROAD, CROZET, VA, 22932","Match","Exact","6444 BLACKWELLS HOLLOW RD, CROZET, VA, 22932",221719444,"L"
787343,"6444 BLARNEY STONE CT","SPRINGFIELD","VA",22152,38.776994175,-77.251862827,343,"6444 BLARNEY STONE CT, SPRINGFIELD, VA, 22152","Match","Exact","6444 BLARNEY STONE CT, SPRINGFIELD, VA, 22152",76007758,"L"
787344,"6444 BROOKSHIRE ST","FAYETTEVILLE","NC",28314,35.074378713,-79.052878318,344,"6444 BROOKSHIRE ST, FAYETTEVILLE, NC, 28314","Match","Exact","6444 BROOKSHIRE ST, FAYETTEVILLE, NC, 28314",64227019,"L"
787345,"6444 E PARKVIEW DR","SCOTTSDALE","AZ",85257,33.4714328520001,-111.942217729,345,"6444 E PARKVIEW DR, SCOTTSDALE, AZ, 85257","Match","Exact","6444 E PARKVIEW DR, SCOTTSDALE, AZ, 85257",128889199,"L"
787346,"6444 E SPRING ST STE 513","LONG BEACH","CA",90815,33.81047727,-118.107089008,346,"6444 E SPRING ST STE 513, LONG BEACH, CA, 90815","Match","Non_Exact","6444 E SPRING ST, LONG BEACH, CA, 90815",142796121,"R"
787347,"6444 E SPRING STREET 203","LONG BEACH","CA",90815,33.81047727,-118.107089008,347,"6444 E SPRING STREET 203, LONG BEACH, CA, 90815","Match","Non_Exact","6444 E SPRING ST, LONG BEACH, CA, 90815",142796121,"R"
787348,"6444 E SPRING STREET","LONG BEACH","CA",90815,33.81047727,-118.107089008,348,"6444 E SPRING STREET, LONG BEACH, CA, 90815","Match","Exact","6444 E SPRING ST, LONG BEACH, CA, 90815",142796121,"R"
787349,"6444 EAST SPRING STREET  SUITE 237","LONG BEACH","CA",90815,33.810477286,-118.107094552,349,"6444 EAST SPRING STREET  SUITE 237, LONG BEACH, CA, 90815","Match","Exact","6444 E SPRING ST, LONG BEACH, CA, 90815",142796121,"R"
787350,"6444 EAST SPRING STREET SUITE 237","LONG BEACH","CA",90815,33.810477286,-118.107094552,350,"6444 EAST SPRING STREET SUITE 237, LONG BEACH, CA, 90815","Match","Exact","6444 E SPRING ST, LONG BEACH, CA, 90815",142796121,"R"
787351,"6444 FAYE ST","PORT ST LUCIE","FL",34986,27.3472503630001,-80.399975759,351,"6444 FAYE ST, PORT ST LUCIE, FL, 34986","Match","Non_Exact","6444 NW FAYE ST, PORT ST LUCIE, FL, 34986",120179800,"R"
787352,"6444 GRANDVILLE STREET","DETROIT","MI",48238,NA,NA,352,"6444 GRANDVILLE STREET, DETROIT, MI, 48238","No_Match",NA,NA,NA,NA
787353,"6444 GRANDVILLE","DETROIT","MI",48238,NA,NA,353,"6444 GRANDVILLE, DETROIT, MI, 48238","No_Match",NA,NA,NA,NA
787354,"6444 HICKORY AVE","ORANGEVALE","CA",95662,38.6830006230001,-121.234914713,354,"6444 HICKORY AVE, ORANGEVALE, CA, 95662","Match","Exact","6444 HICKORY AVE, ORANGEVALE, CA, 95662",133427298,"R"
787355,"6444 JADE MOUNTAIN COURT","LAS VEGAS","NV",89139,36.0376787640001,-115.233513647,355,"6444 JADE MOUNTAIN COURT, LAS VEGAS, NV, 89139","Match","Exact","6444 JADE MOUNTAIN CT, LAS VEGAS, NV, 89139",641500600,"L"
787356,"6444 JAMES E BILLIE DR","HOLLYWOOD","FL",33024,26.0352201750001,-80.218242328,356,"6444 JAMES E BILLIE DR, HOLLYWOOD, FL, 33024","Match","Exact","6444 JAMES E BILLIE DR, HOLLYWOOD, FL, 33024",114767915,"L"
787357,"6444 JONES CREEK APT 1301","BATON ROUGE","LA",70817,30.3934723460001,-91.0182168809999,357,"6444 JONES CREEK APT 1301, BATON ROUGE, LA, 70817","Match","Non_Exact","6444 JONES CREEK RD, BATON ROUGE, LA, 70817",92195076,"R"
787358,"6444 JONES CREEK RD","BATON ROUGE","LA",70817,30.3934723460001,-91.0182168809999,358,"6444 JONES CREEK RD, BATON ROUGE, LA, 70817","Match","Exact","6444 JONES CREEK RD, BATON ROUGE, LA, 70817",92195076,"R"
787359,"6444 KENDALL STREET","ARVADA","CO",80003,39.8141301490001,-105.066316169,359,"6444 KENDALL STREET, ARVADA, CO, 80003","Match","Exact","6444 KENDALL ST, ARVADA, CO, 80003",177288648,"R"
787360,"6444 N WASHTENAW","CHICAGO","IL",60645,41.9986961210001,-87.6972445119999,360,"6444 N WASHTENAW, CHICAGO, IL, 60645","Match","Non_Exact","6444 N WASHTENAW AVE, CHICAGO, IL, 60645",605168535,"L"
787361,"6444 N WILLAMETTE LANE","PORTLAND","OR",97203,45.5782760700001,-122.735028696,361,"6444 N WILLAMETTE LANE, PORTLAND, OR, 97203","Match","Exact","6444 N WILLAMETTE LN, PORTLAND, OR, 97203",157494086,"L"
787362,"6444 NW FAYE ST","PORT ST LUCIE","FL",34986,27.3472503630001,-80.399975759,362,"6444 NW FAYE ST, PORT ST LUCIE, FL, 34986","Match","Exact","6444 NW FAYE ST, PORT ST LUCIE, FL, 34986",120179800,"R"
787363,"6444 PARADISE COVE","WEST PALM BEACH","FL",33411,26.7244853880001,-80.142210937,363,"6444 PARADISE COVE, WEST PALM BEACH, FL, 33411","Match","Exact","6444 PARADISE COVE, WEST PALM BEACH, FL, 33411",115572281,"L"
787364,"6444 RENWOOD LOOP","ARLINGTON","TN",38002,35.300121711,-89.648009412,364,"6444 RENWOOD LOOP, ARLINGTON, TN, 38002","Match","Exact","6444 RENWOOD LOOP, ARLINGTON, TN, 38002",613295467,"R"
787365,"6444 S ALBANY","CHICAGO","IL",60629,41.7763374410001,-87.700635915,365,"6444 S ALBANY, CHICAGO, IL, 60629","Match","Non_Exact","6444 S ALBANY AVE, CHICAGO, IL, 60629",111819437,"R"
787366,"6444 SAN FERNANDO RD UNIT 21172","GLENDALE","CA",91221,NA,NA,366,"6444 SAN FERNANDO RD UNIT 21172, GLENDALE, CA, 91221","No_Match",NA,NA,NA,NA
787367,"6444 SIERRA COURT","DUBLIN","CA",94568,37.7068876710001,-121.915140703,367,"6444 SIERRA COURT, DUBLIN, CA, 94568","Match","Exact","6444 SIERRA CT, DUBLIN, CA, 94568",125080903,"L"
787368,"6444 STONEVIEW AVE","BAKER","LA",70714,30.5641430970001,-91.126857613,368,"6444 STONEVIEW AVE, BAKER, LA, 70714","Match","Exact","6444 STONEVIEW AVE, BAKER, LA, 70714",92186317,"R"
787369,"6444 SUNCREST CT","NORTH RICHLAND HILLS","TX",76180,32.828950408,-97.247369417,369,"6444 SUNCREST CT, NORTH RICHLAND HILLS, TX, 76180","Match","Exact","6444 SUNCREST CT, NORTH RICHLAND HILLS, TX, 76180",635829077,"R"
787370,"6444 YANKEE RD","LIBERTY TWP","OH",45044,39.388980406,-84.383748608,370,"6444 YANKEE RD, LIBERTY TWP, OH, 45044","Match","Exact","6444 YANKEE RD, LIBERTY TOWNSHIP, OH, 45044",113808927,"L"
787371,"6445 14TH AVENUE SOUTH","RICHFIELD","MN",55423,44.8862887130001,-93.255457899,371,"6445 14TH AVENUE SOUTH, RICHFIELD, MN, 55423","Match","Exact","6445 14TH AVE S, RICHFIELD, MN, 55423",43635829,"L"
787372,"6445 AMERICA BLVD","HYATTSVILLE","MD",20782,NA,NA,372,"6445 AMERICA BLVD, HYATTSVILLE, MD, 20782","No_Match",NA,NA,NA,NA
787373,"6445 BIRCH MILL COVE","BARTLETT","TN",38135,35.232561774,-89.84778205,373,"6445 BIRCH MILL COVE, BARTLETT, TN, 38135","Match","Exact","6445 BIRCH MILL COVE, BARTLETT, TN, 38135",72941330,"R"
787374,"6445 CAMDEN AVE","SAN JOSE","CA",95120,37.222143927,-121.870068481,374,"6445 CAMDEN AVE, SAN JOSE, CA, 95120","Match","Exact","6445 CAMDEN AVE, SAN JOSE, CA, 95120",122922960,"R"
787375,"6445 CAYMUS DRIVE","CHARLOTTE","NC",28269,35.308937675,-80.795750573,375,"6445 CAYMUS DRIVE, CHARLOTTE, NC, 28269","Match","Exact","6445 CAYMUS DR, CHARLOTTE, NC, 28269",70553211,"R"
787376,"6445 CITATION DR SUITE F","CLARKSTON","MI",48346,42.7231031110001,-83.416565835,376,"6445 CITATION DR SUITE F, CLARKSTON, MI, 48346","Match","Exact","6445 CITATION DR, CLARKSTON, MI, 48346",69802253,"R"
787377,"6445 E OHIO AVE 100","DENVER","CO",80224,39.7020573940001,-104.913547873,377,"6445 E OHIO AVE 100, DENVER, CO, 80224","Match","Non_Exact","6445 E OHIO AVE, DENVER, CO, 80224",606042922,"L"
787378,"6445 GREENE ST APT A 401","PHILADELPHIA","PA",19119,40.0418989940001,-75.188828827,378,"6445 GREENE ST APT A 401, PHILADELPHIA, PA, 19119","Match","Exact","6445 GREENE ST, PHILADELPHIA, PA, 19119",131394637,"R"
787379,"6445 GREENOCK DRIVE","STONE MOUNTAIN","GA",30087,33.7705565570001,-84.134262663,379,"6445 GREENOCK DRIVE, STONE MOUNTAIN, GA, 30087","Match","Exact","6445 GREENOCK DR, STONE MOUNTAIN, GA, 30087",627673726,"R"
787380,"6445 HIDDEN RIDGE DRIVE","TROY","MI",48083,NA,NA,380,"6445 HIDDEN RIDGE DRIVE, TROY, MI, 48083","No_Match",NA,NA,NA,NA
787381,"6445 JUNEBUG LANE","MORRIS","IL",60450,41.3420736090001,-88.297747444,381,"6445 JUNEBUG LANE, MORRIS, IL, 60450","Match","Exact","6445 JUNEBUG LN, MORRIS, IL, 60450",54465116,"R"
787382,"6445 JUNIPER RD","PORT RICHEY","FL",34668,28.282986216,-82.707713445,382,"6445 JUNIPER RD, PORT RICHEY, FL, 34668","Match","Exact","6445 JUNIPER RD, PORT RICHEY, FL, 34668",86373416,"L"
787383,"6445 LA GORCE COURT","LAKE WORTH","FL",33463,26.579919225,-80.1344364079999,383,"6445 LA GORCE COURT, LAKE WORTH, FL, 33463","Match","Exact","6445 LA GORCE CT, LAKE WORTH, FL, 33463",115495325,"L"
787384,"6445 LEHNERT STREET","GWYNN OAK","MD",21207,39.318571062,-76.7314926339999,384,"6445 LEHNERT STREET, GWYNN OAK, MD, 21207","Match","Exact","6445 LEHNERT ST, GWYNN OAK, MD, 21207",191483712,"L"
787385,"6445 LOVEDRIVE 3042","IRVING","TX",75039,NA,NA,385,"6445 LOVEDRIVE 3042, IRVING, TX, 75039","No_Match",NA,NA,NA,NA
787386,"6445 LUZON AVE NW STE 112","WASHINGTON","DC",20012,38.968256206,-77.034908934,386,"6445 LUZON AVE NW STE 112, WASHINGTON, DC, 20012","Match","Exact","6445 LUZON AVE NW, WASHINGTON, DC, 20012",641969421,"R"
787387,"6445 LUZON AVE NW","WASHINGTON","DC",20012,38.968256206,-77.034908934,387,"6445 LUZON AVE NW, WASHINGTON, DC, 20012","Match","Exact","6445 LUZON AVE NW, WASHINGTON, DC, 20012",641969421,"R"
787388,"6445 MILANO","BURTON","MI",48519,42.997509963,-83.5773628589999,388,"6445 MILANO, BURTON, MI, 48519","Match","Non_Exact","6445 MILANO ST, BURTON, MI, 48519",69591776,"L"
787389,"6445 MUIRFIELD WAY","INDIANAPOLIS","IN",46237,39.655987274,-86.0549616919999,389,"6445 MUIRFIELD WAY, INDIANAPOLIS, IN, 46237","Match","Exact","6445 MUIRFIELD WAY, INDIANAPOLIS, IN, 46237",108032702,"L"
787390,"6445 N STERLING","OKLAHOMA CITY","OK",73106,NA,NA,390,"6445 N STERLING, OKLAHOMA CITY, OK, 73106","No_Match",NA,NA,NA,NA
787391,"6445 N WILLARD AVE","SAN GABRIEL","CA",91775,34.116146407,-118.086192595,391,"6445 N WILLARD AVE, SAN GABRIEL, CA, 91775","Match","Exact","6445 N WILLARD AVE, SAN GABRIEL, CA, 91775",142736437,"L"
787392,"6445 NE 50TH RD","OSCEOLA","MO",64776,38.026776711,-93.672835918,392,"6445 NE 50TH RD, OSCEOLA, MO, 64776","Match","Non_Exact","6445 NE 50 RD, OSCEOLA, MO, 64776",642136541,"R"
787393,"6445 NORTH LAKE DR","MILWAUKEE","WI",53217,43.1341897730001,-87.90356313,393,"6445 NORTH LAKE DR, MILWAUKEE, WI, 53217","Match","Exact","6445 N LAKE DR, MILWAUKEE, WI, 53217",77737090,"L"
787394,"6445 NORTH LAKE DRIVE","MILWAUKEE","WI",53217,43.1341897730001,-87.90356313,394,"6445 NORTH LAKE DRIVE, MILWAUKEE, WI, 53217","Match","Exact","6445 N LAKE DR, MILWAUKEE, WI, 53217",77737090,"L"
787395,"6445 NW HACIENDA CT","PORT ST. LUCIE","FL",34986,27.347684331,-80.409637741,395,"6445 NW HACIENDA CT, PORT ST. LUCIE, FL, 34986","Match","Exact","6445 HACIENDA CT, PORT ST LUCIE, FL, 34986",120179921,"R"
787396,"6445 OVERBROOK STREET","FALLS CHURCH","VA",22043,38.903009335,-77.163014969,396,"6445 OVERBROOK STREET, FALLS CHURCH, VA, 22043","Match","Exact","6445 OVERBROOK ST, FALLS CHURCH, VA, 22043",75979325,"L"
787397,"6445 POTRERO DR","NEWARK","CA",94560,37.517961896,-121.995992944,397,"6445 POTRERO DR, NEWARK, CA, 94560","Match","Exact","6445 POTRERO DR, NEWARK, CA, 94560",606343914,"L"
787398,"6445 RIVERVIEW CIRCLE","GILROY","CA",95020,36.9915072590001,-121.576812259,398,"6445 RIVERVIEW CIRCLE, GILROY, CA, 95020","Match","Exact","6445 RIVERVIEW CIR, GILROY, CA, 95020",636158117,"R"
787399,"6445 S RACINE AVE","CHICAGO","IL",60636,41.77706048,-87.6544212809999,399,"6445 S RACINE AVE, CHICAGO, IL, 60636","Match","Exact","6445 S RACINE AVE, CHICAGO, IL, 60636",652589834,"L"
787400,"6445 S VALLEY BROOK CT","SPRINGFIELD","MO",65810,37.0973650510001,-93.3482234539999,400,"6445 S VALLEY BROOK CT, SPRINGFIELD, MO, 65810","Match","Exact","6445 S VALLEY BROOK CT, SPRINGFIELD, MO, 65810",605908967,"R"
787401,"6445 SHILOH ROAD SUITE B","ALPHARETTA","GA",30005,34.10623187,-84.215286756,401,"6445 SHILOH ROAD SUITE B, ALPHARETTA, GA, 30005","Match","Exact","6445 SHILOH RD, ALPHARETTA, GA, 30005",631741992,"R"
787402,"6445 SW 111TH LOOP","OCALA","FL",34476,29.0608015280001,-82.231995677,402,"6445 SW 111TH LOOP, OCALA, FL, 34476","Match","Exact","6445 SW 111TH LOOP, OCALA, FL, 34476",116796061,"L"
787403,"6445 SW 133 DRIVE","MIAMI","FL",33156,25.647845655,-80.2987588349999,403,"6445 SW 133 DRIVE, MIAMI, FL, 33156","Match","Exact","6445 SW 133RD DR, MIAMI, FL, 33156",116057133,"R"
787404,"6445 SW FALLBROOK PL STE 100","BEAVERTON","OR",97008,45.4730220490001,-122.777084731,404,"6445 SW FALLBROOK PL STE 100, BEAVERTON, OR, 97008","Match","Non_Exact","6445 SW FALLBROOK PL, BEAVERTON, OR, 97008",158187736,"R"
787405,"6445 W CLEARVIEW DRIVE","MCCORDSVILLE","IN",46055,39.904534901,-85.927587541,405,"6445 W CLEARVIEW DRIVE, MCCORDSVILLE, IN, 46055","Match","Exact","6445 W CLEARVIEW DR, MCCORDSVILLE, IN, 46055",641168360,"R"
787406,"6445 WARD WAY","BUENA PARK","CA",90620,33.852679112,-118.020321394,406,"6445 WARD WAY, BUENA PARK, CA, 90620","Match","Exact","6445 WARD WAY, BUENA PARK, CA, 90620",143998691,"L"
787407,"6445 WATERSCAPE RIDGE","GAINSVILLE","GA",30506,34.3707730900001,-83.97522975,407,"6445 WATERSCAPE RIDGE, GAINSVILLE, GA, 30506","Match","Non_Exact","6445 WATERSCAPE RIDGE, GAINESVILLE, GA, 30506",98270314,"L"
787408,"6445 WILSON ROAD","COLORADO SPRINGS","CO",80919,38.9203980070001,-104.882043007,408,"6445 WILSON ROAD, COLORADO SPRINGS, CO, 80919","Match","Exact","6445 WILSON RD, COLORADO SPRINGS, CO, 80919",105549416,"R"
787409,"6445 WINDSOR TRACE DRIVE","PEACHTREE CORNERS","GA",30092,33.9592206990001,-84.240602596,409,"6445 WINDSOR TRACE DRIVE, PEACHTREE CORNERS, GA, 30092","Match","Exact","6445 WINDSOR TRACE DR, PEACHTREE CORNERS, GA, 30092",88897514,"R"
787410,"6445 WOODLEIGH OAKS DRIVE","CHARLOTTE","NC",28226,35.086394259,-80.829814159,410,"6445 WOODLEIGH OAKS DRIVE, CHARLOTTE, NC, 28226","Match","Exact","6445 WOODLEIGH OAKS DR, CHARLOTTE, NC, 28226",70557720,"L"
787411,"64451 BRAE BURN AVE","DESERT HOT SPRINGS","CA",92240,33.976600035,-116.53680541,411,"64451 BRAE BURN AVE, DESERT HOT SPRINGS, CA, 92240","Match","Exact","64451 BRAE BURN AVE, DESERT HOT SPRINGS, CA, 92240",194722794,"L"
787412,"6446 BROOKLYN BAY ROAD","KEYSTONE HEIGHTS","FL",32656,29.797494396,-82.019557356,412,"6446 BROOKLYN BAY ROAD, KEYSTONE HEIGHTS, FL, 32656","Match","Exact","6446 BROOKLYN BAY RD, KEYSTONE HEIGHTS, FL, 32656",635782318,"R"
787413,"6446 DREXEL RD","PHILADELPHIA","PA",19151,39.9839574760001,-75.25414657,413,"6446 DREXEL RD, PHILADELPHIA, PA, 19151","Match","Exact","6446 DREXEL RD, PHILADELPHIA, PA, 19151",131396926,"L"
787414,"6446 GROSS AVE","WEST HILLS","CA",91307,34.1885343650001,-118.640441892,414,"6446 GROSS AVE, WEST HILLS, CA, 91307","Match","Exact","6446 GROSS AVE, WEST HILLS, CA, 91307",141723030,"R"
787415,"6446 HAMMEL AVE","CINCINNATI","OH",45237,39.1894283440001,-84.44593406,415,"6446 HAMMEL AVE, CINCINNATI, OH, 45237","Match","Exact","6446 HAMMEL AVE, CINCINNATI, OH, 45237",103929147,"R"
787416,"6446 HARBOR DRIVE","MECHANICSVILLE","VA",23111,37.5950859800001,-77.3318128829999,416,"6446 HARBOR DRIVE, MECHANICSVILLE, VA, 23111","Match","Exact","6446 HARBOR DR, MECHANICSVILLE, VA, 23111",84975691,"L"
787417,"6446 HOOVER ROAD APT D","INDIANAPOLIS","IN",46260,39.8750221610001,-86.1745028449999,417,"6446 HOOVER ROAD APT D, INDIANAPOLIS, IN, 46260","Match","Exact","6446 HOOVER RD, INDIANAPOLIS, IN, 46260",649769214,"L"
787418,"6446 HOPE COURT","PORT ST LUCIE","FL",34986,27.347617825,-80.410680155,418,"6446 HOPE COURT, PORT ST LUCIE, FL, 34986","Match","Non_Exact","6446 NW HOPE CT, PORT ST LUCIE, FL, 34986",120179924,"L"
787419,"6446 LUPINE TERRACE","INDIANAPOLIS","IN",46224,39.815290464,-86.272982115,419,"6446 LUPINE TERRACE, INDIANAPOLIS, IN, 46224","Match","Exact","6446 LUPINE TER, INDIANAPOLIS, IN, 46224",107976785,"L"
787420,"6446 MELODY LANE","NEWCASTLE","CA",95658,38.904030452,-121.18388805,420,"6446 MELODY LANE, NEWCASTLE, CA, 95658","Match","Exact","6446 MELODY LN, NEWCASTLE, CA, 95658",106768809,"L"
787421,"6446 N NOKOMIS","CHICAGO","IL",60646,41.9985314620001,-87.758333303,421,"6446 N NOKOMIS, CHICAGO, IL, 60646","Match","Non_Exact","6446 N NOKOMIS AVE, CHICAGO, IL, 60646",111737322,"L"
787422,"6446 N WHIPPLE","CHICAGO","IL",60645,41.998570285,-87.705783399,422,"6446 N WHIPPLE, CHICAGO, IL, 60645","Match","Non_Exact","6446 N WHIPPLE ST, CHICAGO, IL, 60645",605168371,"R"
787423,"6446 NORTH 47TH STREET","MILWAUKEE","WI",53223,43.1345749130001,-87.971862109,423,"6446 NORTH 47TH STREET, MILWAUKEE, WI, 53223","Match","Exact","6446 N 47TH ST, MILWAUKEE, WI, 53223",77726831,"R"
787424,"6446 RIDGE","PENTWATER","MI",49449,43.7646237220001,-86.440411034,424,"6446 RIDGE, PENTWATER, MI, 49449","Match","Non_Exact","6446 RIDGE RD, PENTWATER, MI, 49449",647212148,"R"
787425,"6446 ROCK HOLLOW LANE","CLIFTON","VA",20124,38.8168444360001,-77.4203623399999,425,"6446 ROCK HOLLOW LANE, CLIFTON, VA, 20124","Match","Exact","6446 ROCK HOLLOW LN, CLIFTON, VA, 20124",635866979,"R"
787426,"6446 SHORTCUT RD","COTTRELVILLE","MI",48039,42.6964934370001,-82.564690437,426,"6446 SHORTCUT RD, COTTRELVILLE, MI, 48039","Match","Non_Exact","6446 SHORT CUT RD, COTTRELLVILLE, MI, 48039",110993339,"L"
787427,"6446 SOUTH DREXEL AVE","CHICAGO","IL",60636,41.7777674100001,-87.602831206,427,"6446 SOUTH DREXEL AVE, CHICAGO, IL, 60636","Match","Non_Exact","6446 S DREXEL AVE, CHICAGO, IL, 60637",111774167,"R"
787428,"6446 SW HUNTOON STREET","TOPEKA","KS",66615,39.0434916300001,-95.7714544409999,428,"6446 SW HUNTOON STREET, TOPEKA, KS, 66615","Match","Exact","6446 SW HUNTOON ST, TOPEKA, KS, 66615",651390236,"R"
787429,"6446 TERRACE VIEW COURT","CHARLOTTE","NC",28269,35.3896403460001,-80.7580662089999,429,"6446 TERRACE VIEW COURT, CHARLOTTE, NC, 28269","Match","Exact","6446 TERRACE VIEW CT, CHARLOTTE, NC, 28269",618151797,"R"
787430,"6446 W SADDLEHORN DR","PHOENIX","AZ",85083,33.7154921870001,-112.199307021,430,"6446 W SADDLEHORN DR, PHOENIX, AZ, 85083","Match","Non_Exact","6446 W SADDLEHORN RD, PHOENIX, AZ, 85083",128954300,"L"
787431,"64466 E SUGAR LANE","TUCSON","AZ",85739,32.5378146360001,-110.878273283,431,"64466 E SUGAR LANE, TUCSON, AZ, 85739","Match","Exact","64466 E SUGAR LN, TUCSON, AZ, 85739",129230434,"L"
787432,"64466 JOSEPHINE ST","PEARL RIVER","LA",70452,30.370932199,-89.754801917,432,"64466 JOSEPHINE ST, PEARL RIVER, LA, 70452","Match","Exact","64466 JOSEPHINE ST, PEARL RIVER, LA, 70452",645598776,"R"
787433,"6447 APPLEWHITE RD","FAYETTEVILLE","NC",28304,35.0193201450001,-79.0128065609999,433,"6447 APPLEWHITE RD, FAYETTEVILLE, NC, 28304","Match","Exact","6447 APPLEWHITE RD, FAYETTEVILLE, NC, 28304",64238213,"R"
787434,"6447 FM 726 N","DIANA","TX",75640,32.741105594,-94.734346807,434,"6447 FM 726 N, DIANA, TX, 75640","Match","Exact","6447 FM 726 N, DIANA, TX, 75640",648200686,"R"
787435,"6447 LAKEFRONT","SAN ANTONIO","TX",78222,NA,NA,435,"6447 LAKEFRONT, SAN ANTONIO, TX, 78222","No_Match",NA,NA,NA,NA
787436,"6447 MARLIN FLATS","SAN ANTONIO","TX",78244,29.4763663370001,-98.362933453,436,"6447 MARLIN FLATS, SAN ANTONIO, TX, 78244","Match","Exact","6447 MARLIN FLATS, SAN ANTONIO, TX, 78244",101703869,"L"
787437,"6447 MURPHY LAKE ROAD","BRIMSON","MN",55602,47.3973901520001,-91.75665422,437,"6447 MURPHY LAKE ROAD, BRIMSON, MN, 55602","Match","Exact","6447 MURPHY LAKE RD, BRIMSON, MN, 55602",194226432,"R"
787438,"6447 NE 182ND ST","KENMORE","WA",98028,47.7603520260001,-122.254959389,438,"6447 NE 182ND ST, KENMORE, WA, 98028","Match","Exact","6447 NE 182ND ST, KENMORE, WA, 98028",186597492,"R"
787439,"6447 NW HALIBUT","PORT ST. LUCIE","FL",34986,27.3469999970001,-80.406229479,439,"6447 NW HALIBUT, PORT ST. LUCIE, FL, 34986","Match","Non_Exact","6447 NW HALIBUT ST, PORT ST LUCIE, FL, 34986",120179908,"R"
787440,"6447 ORIOLE DRIVE","DALLAS","TX",75209,32.836063908,-96.824407954,440,"6447 ORIOLE DRIVE, DALLAS, TX, 75209","Match","Exact","6447 ORIOLE DR, DALLAS, TX, 75209",619141895,"L"
787441,"6447 SPRINGDALE HUNTERS RD","HUNTERS","WA",99137,48.1284916050001,-118.128132902,441,"6447 SPRINGDALE HUNTERS RD, HUNTERS, WA, 99137","Match","Exact","6447 SPRINGDALE HUNTERS RD, HUNTERS, WA, 99137",174846818,"R"
787442,"6447 TERRACE COURT","HARRISBURG","PA",17111,40.3028644830001,-76.767300538,442,"6447 TERRACE COURT, HARRISBURG, PA, 17111","Match","Exact","6447 TERRACE CT, HARRISBURG, PA, 17111",70843677,"L"
787443,"6447 TULIP LANE","DALLAS","TX",75230,32.8936949920001,-96.794864654,443,"6447 TULIP LANE, DALLAS, TX, 75230","Match","Exact","6447 TULIP LN, DALLAS, TX, 75230",102902133,"L"
787444,"6447 WHISPERING CT APT 107","MEMPHIS","TN",38115,35.0651453850001,-89.8484123819999,444,"6447 WHISPERING CT APT 107, MEMPHIS, TN, 38115","Match","Exact","6447 WHISPERING CT, MEMPHIS, TN, 38115",72953891,"L"
787445,"6447 WOODS RIDGE RD","DILLSBORO","IN",47018,38.965580684,-84.9819980999999,445,"6447 WOODS RIDGE RD, DILLSBORO, IN, 47018","Match","Exact","6447 WOODS RIDGE RD, DILLSBORO, IN, 47018",76884634,"L"
787446,"6448 ANGUS VALLEY DRIVE","WESLEY CHAPEL","FL",33544,28.250659275,-82.370342377,446,"6448 ANGUS VALLEY DRIVE, WESLEY CHAPEL, FL, 33544","Match","Exact","6448 ANGUS VALLEY DR, WESLEY CHAPEL, FL, 33544",86353986,"R"
787447,"6448 BEVERLY PIKE","FAIRMONT","WV",26554,39.388762652,-80.1604620479999,447,"6448 BEVERLY PIKE, FAIRMONT, WV, 26554","Match","Exact","6448 BEVERLY PIKE, FAIRMONT, WV, 26554",652011099,"R"
787448,"6448 CHAFFIN STREET","MILTON","FL",32570,NA,NA,448,"6448 CHAFFIN STREET, MILTON, FL, 32570","No_Match",NA,NA,NA,NA
787449,"6448 CHAPPARAL DRIVE","MOSES LAKE","WA",98837,47.182900139,-119.265352728,449,"6448 CHAPPARAL DRIVE, MOSES LAKE, WA, 98837","Match","Non_Exact","6448 CHAPPARAL DR NE, MOSES LAKE, WA, 98837",157102449,"R"
787450,"6448 CRABTREE STREET","SAN DIEGO","CA",92114,32.6920678290001,-117.058186808,450,"6448 CRABTREE STREET, SAN DIEGO, CA, 92114","Match","Exact","6448 CRABTREE ST, SAN DIEGO, CA, 92114",195353214,"L"
787451,"6448 CRESTVIEW","CINCINNATI","OH",45213,39.193006897,-84.4192899929999,451,"6448 CRESTVIEW, CINCINNATI, OH, 45213","Match","Non_Exact","6448 CRESTVIEW AVE, CINCINNATI, OH, 45213",103931731,"R"
787452,"6448 ELMCREST DRIVE","HUDSON","OH",44236,41.235014327,-81.4189977569999,452,"6448 ELMCREST DRIVE, HUDSON, OH, 44236","Match","Exact","6448 ELMCREST DR, HUDSON, OH, 44236",61346703,"L"
787453,"6448 HEARTHSTONE AVE S","COTTAGE GROVE","MN",55016,44.85695216,-92.952688143,453,"6448 HEARTHSTONE AVE S, COTTAGE GROVE, MN, 55016","Match","Exact","6448 HEARTHSTONE AVE S, COTTAGE GROVE, MN, 55016",635883735,"L"
787454,"6448 HONEY GROVE APT 307","COLORADO SPRINGS","CO",80923,38.9245228790001,-104.737639986,454,"6448 HONEY GROVE APT 307, COLORADO SPRINGS, CO, 80923","Match","Exact","6448 HONEY GROVE, COLORADO SPRINGS, CO, 80923",636092086,"L"
787455,"6448 JEFFERSON PLACE","MCLEAN","VA",22101,38.9304159640001,-77.163310068,455,"6448 JEFFERSON PLACE, MCLEAN, VA, 22101","Match","Exact","6448 JEFFERSON PL, MCLEAN, VA, 22101",76050365,"R"
787456,"6448 LONGPOINT ROAD","BREWERTON","NY",13029,43.214485601,-76.076032159,456,"6448 LONGPOINT ROAD, BREWERTON, NY, 13029","Match","Non_Exact","6448 LONG POINT RD, BREWERTON, NY, 13029",46622333,"R"
787457,"6448 MANOR DRIVE","BURR RIDGE","IL",60527,41.7721559830001,-87.9089733279999,457,"6448 MANOR DRIVE, BURR RIDGE, IL, 60527","Match","Exact","6448 MANOR DR, BURR RIDGE, IL, 60527",111882616,"L"
787458,"6448 MOUNT LIBERTY RD","CENTERBURG","OH",43011,40.3537034460001,-82.636018785,458,"6448 MOUNT LIBERTY RD, CENTERBURG, OH, 43011","Match","Exact","6448 MOUNT LIBERTY RD, CENTERBURG, OH, 43011",24659180,"L"
787459,"6448 N 11TH STREET","PHILADELPHIA","PA",19126,40.0505247740001,-75.137229567,459,"6448 N 11TH STREET, PHILADELPHIA, PA, 19126","Match","Exact","6448 N 11TH ST, PHILADELPHIA, PA, 19126",131413840,"L"
787460,"6448 N NEWARK AVE","CHICAGO","IL",60631,41.9983093010001,-87.799143902,460,"6448 N NEWARK AVE, CHICAGO, IL, 60631","Match","Exact","6448 N NEWARK AVE, CHICAGO, IL, 60631",111736079,"L"
787461,"6448 N THORNE AVE","FRESNO","CA",93711,36.8312030920001,-119.813560278,461,"6448 N THORNE AVE, FRESNO, CA, 93711","Match","Exact","6448 N THORNE AVE, FRESNO, CA, 93711",197567535,"R"
787462,"6448 PEARCREST RD","LAS VEGAS","NV",89108,36.231974069,-115.235606886,462,"6448 PEARCREST RD, LAS VEGAS, NV, 89108","Match","Exact","6448 PEARCREST RD, LAS VEGAS, NV, 89108",201858683,"R"
787463,"6448 RED OAK DR","AVON","IN",46123,39.783806256,-86.41134133,463,"6448 RED OAK DR, AVON, IN, 46123","Match","Exact","6448 RED OAK DR, AVON, IN, 46123",89207726,"R"
787464,"6448 S HERITAGE PLACE WEST","CENTENNIAL","CO",80111,39.599391375,-104.912924023,464,"6448 S HERITAGE PLACE WEST, CENTENNIAL, CO, 80111","Match","Exact","6448 S HERITAGE PL W, CENTENNIAL, CO, 80111",177345869,"L"
787465,"6448 SANDERS STREET","MILTON","FL",32570,30.6382411980001,-87.0536185779999,465,"6448 SANDERS STREET, MILTON, FL, 32570","Match","Exact","6448 SANDERS ST, MILTON, FL, 32570",74592719,"R"
787466,"6448 SPEIGHTS","INDIANAPOLIS","IN",46278,39.872900471,-86.275091526,466,"6448 SPEIGHTS, INDIANAPOLIS, IN, 46278","Match","Non_Exact","6448 SPEIGHTS DR, INDIANAPOLIS, IN, 46278",107975241,"R"
787467,"6448 STERNER ROAD","DANSVILLE","NY",14437,42.5681645170001,-77.667673131,467,"6448 STERNER ROAD, DANSVILLE, NY, 14437","Match","Exact","6448 STERNER RD, DANSVILLE, NY, 14437",14474589,"L"
787468,"6448 VINEYARD DRIVE","BATON ROUGE","LA",70812,30.505527726,-91.1272187169999,468,"6448 VINEYARD DRIVE, BATON ROUGE, LA, 70812","Match","Exact","6448 VINEYARD DR, BATON ROUGE, LA, 70812",92188220,"R"
787469,"6449 28TH AVE","HUDSONVILLE","MI",49426,42.8871341780001,-85.8518152679999,469,"6449 28TH AVE, HUDSONVILLE, MI, 49426","Match","Exact","6449 28TH AVE, HUDSONVILLE, MI, 49426",71092648,"L"
787470,"6449 BALSAM ROAD","RICHMOND","VA",23225,37.4889523780001,-77.514672676,470,"6449 BALSAM ROAD, RICHMOND, VA, 23225","Match","Exact","6449 BALSAM RD, RICHMOND, VA, 23225",201536925,"R"
787471,"6449 CAMINITO SINNECOCK","LA JOLLA","CA",92037,NA,NA,471,"6449 CAMINITO SINNECOCK, LA JOLLA, CA, 92037","No_Match",NA,NA,NA,NA
787472,"6449 DAY SPRING DR","THE COLONY","TX",75056,33.0886683640001,-96.867300711,472,"6449 DAY SPRING DR, THE COLONY, TX, 75056","Match","Exact","6449 DAY SPRING DR, THE COLONY, TX, 75056",103401012,"R"
787473,"6449 DIAMOND","PORT ARTHUR","TX",77640,29.9058194450001,-94.0472799,473,"6449 DIAMOND, PORT ARTHUR, TX, 77640","Match","Non_Exact","6449 DIAMOND AVE, PORT ARTHUR, TX, 77640",73881820,"L"
787474,"6449 FINISH LINE TRL","CICERO","NY",13039,NA,NA,474,"6449 FINISH LINE TRL, CICERO, NY, 13039","No_Match",NA,NA,NA,NA
787475,"6449 FREEDOM WAY","SALISBURY","MD",21801,38.370509183,-75.666209502,475,"6449 FREEDOM WAY, SALISBURY, MD, 21801","Match","Exact","6449 FREEDOM WAY, SALISBURY, MD, 21801",635738321,"R"
787476,"6449 HODGSON RD","LINO LAKES","MN",55014,45.1405373790001,-93.126603858,476,"6449 HODGSON RD, LINO LAKES, MN, 55014","Match","Exact","6449 HODGSON RD, LINO LAKES, MN, 55014",635815682,"R"
787477,"6449 MOSSY OAK LANDING","BRASELTON","GA",30517,34.1216831770001,-83.821405698,477,"6449 MOSSY OAK LANDING, BRASELTON, GA, 30517","Match","Exact","6449 MOSSY OAK LNDG, BRASELTON, GA, 30517",627671534,"R"
787478,"6449 N  WASHTENAW","CHICAGO","IL",60645,41.9987442940001,-87.697230912,478,"6449 N  WASHTENAW, CHICAGO, IL, 60645","Match","Non_Exact","6449 N WASHTENAW AVE, CHICAGO, IL, 60645",605168535,"R"
787479,"6449 N WASHTENAW AVE","CHICAGO","IL",60645,41.9987442940001,-87.697230912,479,"6449 N WASHTENAW AVE, CHICAGO, IL, 60645","Match","Exact","6449 N WASHTENAW AVE, CHICAGO, IL, 60645",605168535,"R"
787480,"6449 OLD BUCKINGHAM ROAD","POWHATAN","VA",23139,37.4805023420001,-78.104647497,480,"6449 OLD BUCKINGHAM ROAD, POWHATAN, VA, 23139","Match","Exact","6449 OLD BUCKINGHAM RD, POWHATAN, VA, 23139",73833852,"R"
787481,"6449 PEBBLE COURT","MEDINA","OH",44256,41.097552782,-81.8487706349999,481,"6449 PEBBLE COURT, MEDINA, OH, 44256","Match","Exact","6449 PEBBLE CT, MEDINA, OH, 44256",614146505,"R"
787482,"6449 REYNOLDS MILL RD","SEVEN VALLEYS","PA",17360,39.888785947,-76.740266226,482,"6449 REYNOLDS MILL RD, SEVEN VALLEYS, PA, 17360","Match","Exact","6449 REYNOLDS MILL RD, SEVEN VALLEYS, PA, 17360",611428221,"L"
787483,"6449 RIVER RUN","COLUMBIA","MD",21044,39.196699461,-76.912974578,483,"6449 RIVER RUN, COLUMBIA, MD, 21044","Match","Exact","6449 RIVER RUN, COLUMBIA, MD, 21044",158936700,"L"
787484,"6449 ROYALTON DR","DALLAS","MA",75230,NA,NA,484,"6449 ROYALTON DR, DALLAS, MA, 75230","No_Match",NA,NA,NA,NA
787485,"6449 ROYALTON DR","DALLAS","TX",75230,32.8973251560001,-96.7949531519999,485,"6449 ROYALTON DR, DALLAS, TX, 75230","Match","Exact","6449 ROYALTON DR, DALLAS, TX, 75230",102901467,"L"
787486,"6449 RYEWORTH DR","FRISCO","TX",75035,33.1315830890001,-96.744887143,486,"6449 RYEWORTH DR, FRISCO, TX, 75035","Match","Exact","6449 RYEWORTH DR, FRISCO, TX, 75035",647653877,"R"
787487,"6449 SOUTH VERNON AVE","CHICAGO","IL",60637,41.7775535870001,-87.61433686,487,"6449 SOUTH VERNON AVE, CHICAGO, IL, 60637","Match","Exact","6449 S VERNON AVE, CHICAGO, IL, 60637",111772356,"L"
787488,"6449 SOUTH VERNON","CHICAGO","IL",60620,NA,NA,488,"6449 SOUTH VERNON, CHICAGO, IL, 60620","No_Match",NA,NA,NA,NA
787489,"6449 SWEET GUM TRAIL","MYRTLE BEACH","SC",29588,33.647548273,-79.046563523,489,"6449 SWEET GUM TRAIL, MYRTLE BEACH, SC, 29588","Match","Exact","6449 SWEET GUM TRL, MYRTLE BEACH, SC, 29588",29072419,"L"
787490,"6449 SYCAMORE STREET","KATY","TX",77493,29.8149807360001,-95.832637308,490,"6449 SYCAMORE STREET, KATY, TX, 77493","Match","Exact","6449 SYCAMORE ST, KATY, TX, 77493",96012369,"R"
787491,"6449 TRITON DRIVE","PICO RIVERA","CA",90660,33.990893699,-118.100922064,491,"6449 TRITON DRIVE, PICO RIVERA, CA, 90660","Match","Exact","6449 TRITON DR, PICO RIVERA, CA, 90660",141737684,"R"
787492,"6449 W 8TH LANE","HIALEAH","FL",33012,25.881281932,-80.300967585,492,"6449 W 8TH LANE, HIALEAH, FL, 33012","Match","Exact","6449 W 8TH LN, HIALEAH, FL, 33012",116025317,"R"
787493,"644B NUTLEY DRIVE","MONROE TOWNSHIP","NJ",8831,40.3048760240001,-74.4611936649999,493,"644B NUTLEY DRIVE, MONROE TOWNSHIP, NJ, 8831","Match","Exact","644 NUTLEY DR, MONROE TOWNSHIP, NJ, 08831",60289697,"R"
787494,"644B TAYLOR STREET","RIVERSIDE","NJ",8075,40.035541917,-74.947738024,494,"644B TAYLOR STREET, RIVERSIDE, NJ, 8075","Match","Exact","644 TAYLOR ST, RIVERSIDE, NJ, 08075",134030124,"R"
787495,"645 - 46TH STREET","ASTORIA","OR",97103,NA,NA,495,"645 - 46TH STREET, ASTORIA, OR, 97103","No_Match",NA,NA,NA,NA
787496,"645 17 AVE E","WEST FARGO","ND",58078,46.8547315050001,-96.893178356,496,"645 17 AVE E, WEST FARGO, ND, 58078","Match","Exact","645 17TH AVE E, WEST FARGO, ND, 58078",151468473,"R"
787497,"645 17TH AVE","WEST FARGO","ND",58078,46.8547315050001,-96.893178356,497,"645 17TH AVE, WEST FARGO, ND, 58078","Match","Non_Exact","645 17TH AVE E, WEST FARGO, ND, 58078",151468473,"R"
787498,"645 20TH AVENUE","PATERSON","NJ",7504,40.906613776,-74.141189643,498,"645 20TH AVENUE, PATERSON, NJ, 7504","Match","Exact","645 20TH AVE, PATERSON, NJ, 07504",65266266,"L"
787499,"645 25TH PLACE NORTH","BIRMINGHAM","AL",35217,33.523712033,-86.8019489609999,499,"645 25TH PLACE NORTH, BIRMINGHAM, AL, 35217","Match","Non_Exact","645 25TH PL N, BIRMINGHAM, AL, 35203",623854921,"R"
787500,"645 54TH STREET","SACRAMENTO","CA",95819,38.569801312,-121.435331949,500,"645 54TH STREET, SACRAMENTO, CA, 95819","Match","Exact","645 54TH ST, SACRAMENTO, CA, 95819",133334918,"L"
