"ID","Address","City","State","Zip","lat","long","id","input_address","match_indicator","match_type","matched_address","tiger_line_id","tiger_side"
21501,"102 E FELBER","HARTINGTON","NE",68739,42.6246268780001,-97.26441224,1,"102 E FELBER, HARTINGTON, NE, 68739","Match","Non_Exact","102 E FELBER ST, HARTINGTON, NE, 68739",172878361,"L"
21502,"102 E FIRST STREET","PORT ANGELES","WA",98362,48.118921975,-123.433303783,2,"102 E FIRST STREET, PORT ANGELES, WA, 98362","Match","Exact","102 E 1ST ST, PORT ANGELES, WA, 98362",150848534,"L"
21503,"102 E FOREST ST SW","ROME","GA",30161,34.247219339,-85.177742456,3,"102 E FOREST ST SW, ROME, GA, 30161","Match","Non_Exact","102 E FOREST ST, ROME, GA, 30161",30676673,"L"
21504,"102 E FOURTH STREET","AUGUSTA","KY",41002,38.7710978110001,-84.0064978079999,4,"102 E FOURTH STREET, AUGUSTA, KY, 41002","Match","Exact","102 E 4TH ST, AUGUSTA, KY, 41002",146720908,"R"
21505,"102 E GARFIELD ST","SHIPPENSBURG","PA",17257,40.048692386,-77.516763166,5,"102 E GARFIELD ST, SHIPPENSBURG, PA, 17257","Match","Exact","102 E GARFIELD ST, SHIPPENSBURG, PA, 17257",642477352,"R"
21506,"102 E HARRISON","HARLINGEN","TX",78550,26.190666381,-97.695495625,6,"102 E HARRISON, HARLINGEN, TX, 78550","Match","Non_Exact","102 E HARRISON AVE, HARLINGEN, TX, 78550",89955360,"R"
21507,"102 E HILL BLVD","CHARLESTON AFB","SC",29404,NA,NA,7,"102 E HILL BLVD, CHARLESTON AFB, SC, 29404","Tie",NA,NA,NA,NA
21508,"102 E HOLME ST","NORTON","KS",67654,39.8385448160001,-99.888624377,8,"102 E HOLME ST, NORTON, KS, 67654","Match","Exact","102 E HOLME ST, NORTON, KS, 67654",196461175,"L"
21509,"102 E IRON AVE","DOVER","OH",44622,40.5157776830001,-81.466326604,9,"102 E IRON AVE, DOVER, OH, 44622","Match","Exact","102 E IRON AVE, DOVER, OH, 44622",612292852,"L"
21510,"102 E LAKE VICTORIA CIRCLE","DELAND","FL",32724,28.98096546,-81.261427279,10,"102 E LAKE VICTORIA CIRCLE, DELAND, FL, 32724","Match","Exact","102 E LAKE VICTORIA CIR, DELAND, FL, 32724",612318384,"L"
21511,"102 E LINCOLN ST","MOUNT HOREB","WI",53572,43.0069465820001,-89.7396100999999,11,"102 E LINCOLN ST, MOUNT HOREB, WI, 53572","Match","Exact","102 E LINCOLN ST, MOUNT HOREB, WI, 53572",49528755,"L"
21512,"102 E LINCOLN","EUFAULA","OK",74432,NA,NA,12,"102 E LINCOLN, EUFAULA, OK, 74432","No_Match",NA,NA,NA,NA
21513,"102 E LOCUST","MORROWVILLE","KS",66958,NA,NA,13,"102 E LOCUST, MORROWVILLE, KS, 66958","No_Match",NA,NA,NA,NA
21514,"102 E LYNN DR","EAST BERLIN","PA",17316,39.9397417010001,-76.9759833219999,14,"102 E LYNN DR, EAST BERLIN, PA, 17316","Match","Exact","102 E LYNN DR, EAST BERLIN, PA, 17316",60874208,"R"
21515,"102 E LYNN ST","PIONEER","OH",43554,41.67776789,-84.553349361,15,"102 E LYNN ST, PIONEER, OH, 43554","Match","Exact","102 E LYNN ST, PIONEER, OH, 43554",8327015,"L"
21516,"102 E MAIN ST","BUCKHANNON","WV",26201,38.993323865,-80.2237602279999,16,"102 E MAIN ST, BUCKHANNON, WV, 26201","Match","Non_Exact","104 E MAIN ST, BUCKHANNON, WV, 26201",53448885,"R"
21517,"102 E MAIN ST","LA PRAIRIE","IL",62346,40.147500596,-91.001098067,17,"102 E MAIN ST, LA PRAIRIE, IL, 62346","Match","Exact","102 E MAIN ST, LA PRAIRIE, IL, 62346",35076142,"L"
21518,"102 E MAIN ST","NEW BOSTON","TX",75570,33.4611272930001,-94.416941041,18,"102 E MAIN ST, NEW BOSTON, TX, 75570","Match","Exact","102 E MAIN ST, NEW BOSTON, TX, 75570",57660780,"L"
21519,"102 E MAUMEE ST","ADRIAN","MI",49221,41.8988070080001,-84.036245611,19,"102 E MAUMEE ST, ADRIAN, MI, 49221","Match","Exact","102 E MAUMEE ST, ADRIAN, MI, 49221",25943032,"L"
21520,"102 E MIDDLE ST","CHELSEA","MI",48118,42.3181909560001,-84.020285147,20,"102 E MIDDLE ST, CHELSEA, MI, 48118","Match","Exact","102 E MIDDLE ST, CHELSEA, MI, 48118",26008951,"R"
21521,"102 E MILGEO AVENUE","RIPON","CA",95366,NA,NA,21,"102 E MILGEO AVENUE, RIPON, CA, 95366","Tie",NA,NA,NA,NA
21522,"102 E MURIEL DR","PHOENIX","AZ",85022,33.6456706770001,-112.072936215,22,"102 E MURIEL DR, PHOENIX, AZ, 85022","Match","Exact","102 E MURIEL DR, PHOENIX, AZ, 85022",128182354,"R"
21523,"102 E ROCK FALLS RD","ROCK FALLS","IL",61071,41.765352111,-89.689256434,23,"102 E ROCK FALLS RD, ROCK FALLS, IL, 61071","Match","Exact","102 E ROCK FALLS RD, ROCK FALLS, IL, 61071",636382985,"L"
21524,"102 E ROUTE 30 STE 1","ROCK FALLS","IL",61071,NA,NA,24,"102 E ROUTE 30 STE 1, ROCK FALLS, IL, 61071","No_Match",NA,NA,NA,NA
21525,"102 E TRACE CREEK DRIVE","THE WOODLANDS","TX",77381,30.157785098,-95.510558767,25,"102 E TRACE CREEK DRIVE, THE WOODLANDS, TX, 77381","Match","Exact","102 E TRACE CREEK DR, THE WOODLANDS, TX, 77381",79305920,"R"
21526,"102 E WASHINGTON STREET","SHELBYVILLE","IN",46176,39.524442691,-85.7747283429999,26,"102 E WASHINGTON STREET, SHELBYVILLE, IN, 46176","Match","Exact","102 E WASHINGTON ST, SHELBYVILLE, IN, 46176",33228636,"L"
21527,"102 E WILDWOOD AVENUE","CAPE MAY COURT HOUSE","NJ",8210,NA,NA,27,"102 E WILDWOOD AVENUE, CAPE MAY COURT HOUSE, NJ, 8210","Tie",NA,NA,NA,NA
21528,"102 E WRIGHT STREET","MILWAUKEE","WI",53211,43.0639012440001,-87.910966192,28,"102 E WRIGHT STREET, MILWAUKEE, WI, 53211","Match","Non_Exact","102 E WRIGHT ST, MILWAUKEE, WI, 53212",77739694,"L"
21529,"102 EAGLES NEST LANE","AIKEN","SC",29803,33.5041406570001,-81.7212941399999,29,"102 EAGLES NEST LANE, AIKEN, SC, 29803","Match","Exact","102 EAGLES NEST LN, AIKEN, SC, 29803",65007426,"R"
21530,"102 EAST 103RD ST 12","NEW YORK","NY",10029,40.790914781,-73.949114792,30,"102 EAST 103RD ST 12, NEW YORK, NY, 10029","Match","Exact","102 E 103RD ST, NEW YORK, NY, 10029",59657895,"R"
21531,"102 EAST 19TH STREET","CONCORIDA","KS",66901,39.5584773240001,-97.6589791809999,31,"102 EAST 19TH STREET, CONCORIDA, KS, 66901","Match","Non_Exact","102 E 19TH ST, CONCORDIA, KS, 66901",148207482,"L"
21532,"102 EAST 3RD AVENUE PO BOX 985","SCOBEY","MT",59222,NA,NA,32,"102 EAST 3RD AVENUE PO BOX 985, SCOBEY, MT, 59222","No_Match",NA,NA,NA,NA
21533,"102 EAST 3RD STREET","ANGUILLA","MS",38721,32.9725978320001,-90.82788485,33,"102 EAST 3RD STREET, ANGUILLA, MS, 38721","Match","Exact","102 E 3RD ST, ANGUILLA, MS, 38721",89661720,"L"
21534,"102 EAST 4TH STREET 4TH FLOOR","NEW YORK","NY",10003,40.7258524210001,-73.988625445,34,"102 EAST 4TH STREET 4TH FLOOR, NEW YORK, NY, 10003","Match","Exact","102 E 4TH ST, NEW YORK, NY, 10003",59654052,"R"
21535,"102 EAST AVENUE","BALTIMORE","MD",21222,39.2425227140001,-76.510534101,35,"102 EAST AVENUE, BALTIMORE, MD, 21222","Match","Exact","102 EAST AVE, BALTIMORE, MD, 21222",191512844,"R"
21536,"102 EAST BOWEN ST","BRANDON","WI",53919,43.734036879,-88.7825901369999,36,"102 EAST BOWEN ST, BRANDON, WI, 53919","Match","Exact","102 E BOWEN ST, BRANDON, WI, 53919",74817095,"L"
21537,"102 EAST CALVERT","TROUP","TX",75789,32.1435334240001,-95.120669205,37,"102 EAST CALVERT, TROUP, TX, 75789","Match","Non_Exact","102 E CALVERT ST, TROUP, TX, 75789",141263362,"L"
21538,"102 EAST ELIZABETH AVE - 109","LINDEN","NJ",7036,40.6316215520001,-74.2513791809999,38,"102 EAST ELIZABETH AVE - 109, LINDEN, NJ, 7036","Match","Exact","102 E ELIZABETH AVE, LINDEN, NJ, 07036",60576204,"R"
21539,"102 EAST FIRST STREET","SOUTH HILL","VA",23970,36.721162237,-78.130840135,39,"102 EAST FIRST STREET, SOUTH HILL, VA, 23970","Match","Exact","102 E 1ST ST, SOUTH HILL, VA, 23970",54302784,"L"
21540,"102 EAST FRONT STREET","PLAINFIELD","NJ",7060,40.6188931390001,-74.423545756,40,"102 EAST FRONT STREET, PLAINFIELD, NJ, 7060","Match","Exact","102 E FRONT ST, PLAINFIELD, NJ, 07060",60560299,"R"
21541,"102 EAST GRANITE ST","LLANO","TX",78643,30.739466389,-98.6753113889999,41,"102 EAST GRANITE ST, LLANO, TX, 78643","Match","Exact","102 E GRANITE ST, LLANO, TX, 78643",182244294,"R"
21542,"102 EAST GRANVILLE STREET","WINDSOR","NC",27983,35.9977895430001,-76.947741723,42,"102 EAST GRANVILLE STREET, WINDSOR, NC, 27983","Match","Exact","102 E GRANVILLE ST, WINDSOR, NC, 27983",56516374,"L"
21543,"102 EAST HILL BLVD","JB CHARLESTON","SC",29404,32.8971145090001,-80.0557743969999,43,"102 EAST HILL BLVD, JB CHARLESTON, SC, 29404","Match","Non_Exact","102 E HILL BLVD, CHARLESTON, SC, 29404",604837819,"L"
21544,"102 EAST HILL STREET","PAYNESVILLE","MO",63336,NA,NA,44,"102 EAST HILL STREET, PAYNESVILLE, MO, 63336","No_Match",NA,NA,NA,NA
21545,"102 EAST INTERLAKEN ROAD","FAIRMONT","MN",56031,43.612183546,-94.461998477,45,"102 EAST INTERLAKEN ROAD, FAIRMONT, MN, 56031","Match","Exact","102 E INTERLAKEN RD, FAIRMONT, MN, 56031",9979094,"R"
21546,"102 EAST KLEB STREET","CALDWELL","TX",77836,30.528577071,-96.68798911,46,"102 EAST KLEB STREET, CALDWELL, TX, 77836","Match","Exact","102 E KLEB ST, CALDWELL, TX, 77836",24805486,"R"
21547,"102 EAST MAIN STREET","GLEASON","TN",38229,36.2142129330001,-88.611795426,47,"102 EAST MAIN STREET, GLEASON, TN, 38229","Match","Exact","102 E MAIN ST, GLEASON, TN, 38229",40885167,"R"
21548,"102 EAST MARTINDALE ST","KENNARD","IN",47351,39.9009950550001,-85.519501334,48,"102 EAST MARTINDALE ST, KENNARD, IN, 47351","Match","Non_Exact","102 MARTINDALE ST, KENNARD, IN, 47351",29981754,"R"
21549,"102 EAST MEADOW DRIVE","CORTLAND","IL",60112,41.9300046970001,-88.68519116,49,"102 EAST MEADOW DRIVE, CORTLAND, IL, 60112","Match","Exact","102 E MEADOW DR, CORTLAND, IL, 60112",52278295,"R"
21550,"102 EAST MURPHY STREET APT A","Madison","NC",27025,36.387524693,-79.959508566,50,"102 EAST MURPHY STREET APT A, Madison, NC, 27025","Match","Exact","102 E MURPHY ST, MADISON, NC, 27025",56225166,"R"
21551,"102 EAST NASSAU AVENUE","SOUTH PLAINFIELD","NJ",7080,40.5831017620001,-74.393614728,51,"102 EAST NASSAU AVENUE, SOUTH PLAINFIELD, NJ, 7080","Match","Exact","102 E NASSAU AVE, S PLAINFIELD, NJ, 07080",60261903,"R"
21552,"102 EAST OAK RIDGE PLACE","BREWTON","AL",36426,31.148626603,-87.053403015,52,"102 EAST OAK RIDGE PLACE, BREWTON, AL, 36426","Match","Exact","102 E OAK RIDGE PL, BREWTON, AL, 36426",1937933,"R"
21553,"102 EAST PATTERSON STREET","TAMPA","FL",33604,28.0171320910001,-82.459353204,53,"102 EAST PATTERSON STREET, TAMPA, FL, 33604","Match","Exact","102 E PATTERSON ST, TAMPA, FL, 33604",104698374,"L"
21554,"102 EAST ROSS STREET","DANVILLE","OH",43014,40.444109327,-82.259452916,54,"102 EAST ROSS STREET, DANVILLE, OH, 43014","Match","Exact","102 E ROSS ST, DANVILLE, OH, 43014",24618280,"L"
21555,"102 EAST SIXTH AVENUE","JOHNSTOWN","NY",12095,42.9953131620001,-74.363577355,55,"102 EAST SIXTH AVENUE, JOHNSTOWN, NY, 12095","Match","Exact","102 E 6TH AVE, JOHNSTOWN, NY, 12095",153640863,"R"
21556,"102 EAST ST CLAIR AVENUE","LONGMONT","CO",80504,40.1696337280001,-105.09034902,56,"102 EAST ST CLAIR AVENUE, LONGMONT, CO, 80504","Match","Exact","102 E SAINT CLAIR AVE, LONGMONT, CO, 80504",188156872,"L"
21557,"102 EASTRIDGE COURT","WYLIE","TX",75098,33.0144906510001,-96.518580727,57,"102 EASTRIDGE COURT, WYLIE, TX, 75098","Match","Exact","102 EASTRIDGE CT, WYLIE, TX, 75098",123516217,"R"
21558,"102 EDGEWATER DRIVE","VICKSBURG","MS",39180,32.413334117,-90.7707026429999,58,"102 EDGEWATER DRIVE, VICKSBURG, MS, 39180","Match","Non_Exact","102 EDGEWATER DR, VICKSBURG, MS, 39183",71305613,"R"
21559,"102 EDINBURGH PL","MOORE","SC",29369,34.8870322220001,-82.0042626599999,59,"102 EDINBURGH PL, MOORE, SC, 29369","Match","Exact","102 EDINBURGH PL, MOORE, SC, 29369",19479281,"L"
21560,"102 EDWARDS AVE","GREER","SC",29650,34.945542581,-82.2341336229999,60,"102 EDWARDS AVE, GREER, SC, 29650","Match","Exact","102 EDWARDS AVE, GREER, SC, 29650",38359090,"R"
21561,"102 EISENHOWER DRIVE","ASHLAND CITY","TN",37015,36.224157285,-87.003658824,61,"102 EISENHOWER DRIVE, ASHLAND CITY, TN, 37015","Match","Exact","102 EISENHOWER DR, ASHLAND CITY, TN, 37015",645463376,"R"
21562,"102 EL MORO ST","LOS ALAMOS","NM",87544,NA,NA,62,"102 EL MORO ST, LOS ALAMOS, NM, 87544","No_Match",NA,NA,NA,NA
21563,"102 ELK PASS","CEDAR HILL","TX",75104,32.618770963,-96.946849177,63,"102 ELK PASS, CEDAR HILL, TX, 75104","Match","Exact","102 ELK PASS, CEDAR HILL, TX, 75104",103277641,"L"
21564,"102 ELLSWORTH ST","NEWINGTON","CT",6111,41.699889898,-72.719338963,64,"102 ELLSWORTH ST, NEWINGTON, CT, 6111","Match","Exact","102 ELLSWORTH ST, NEWINGTON, CT, 06111",3515042,"L"
21565,"102 ELM AVENUE","SOUTH PITTSBURG","TN",37380,35.0154029920001,-85.704401973,65,"102 ELM AVENUE, SOUTH PITTSBURG, TN, 37380","Match","Exact","102 ELM AVE, S PITTSBURG, TN, 37380",58400005,"L"
21566,"102 ELM DRIVE NORTH","LEVITTOWN","NY",11756,40.7189912220001,-73.4951839999999,66,"102 ELM DRIVE NORTH, LEVITTOWN, NY, 11756","Match","Exact","102 ELM DR N, LEVITTOWN, NY, 11756",147646047,"R"
21567,"102 ELM ST","WALBRIDGE","OH",43465,41.594559088,-83.493225506,67,"102 ELM ST, WALBRIDGE, OH, 43465","Match","Exact","102 ELM ST, WALBRIDGE, OH, 43465",38730418,"R"
21568,"102 ELM STREET","MT STERLING","IA",52573,40.6177490260001,-91.932039216,68,"102 ELM STREET, MT STERLING, IA, 52573","Match","Exact","102 ELM ST, MT STERLING, IA, 52573",12931282,"R"
21569,"102 ELMFIELD STREET","WEST HARFORD","CT",6110,41.727463142,-72.738023067,69,"102 ELMFIELD STREET, WEST HARFORD, CT, 6110","Match","Non_Exact","102 ELMFIELD ST, WEST HARTFORD, CT, 06110",3514375,"R"
21570,"102 ELMINGTON WAY","SUFFOLK","VA",23434,36.770999282,-76.579815829,70,"102 ELMINGTON WAY, SUFFOLK, VA, 23434","Match","Exact","102 ELMINGTON WAY, SUFFOLK, VA, 23434",122230791,"R"
21571,"102 EMILY LANE","THOMASVILLE","GA",31792,30.8653989630001,-83.991706806,71,"102 EMILY LANE, THOMASVILLE, GA, 31792","Match","Exact","102 EMILY LN, THOMASVILLE, GA, 31792",617527563,"R"
21572,"102 EMMA DR","HAMPTON","VA",23664,37.066630796,-76.298568589,72,"102 EMMA DR, HAMPTON, VA, 23664","Match","Exact","102 EMMA DR, HAMPTON, VA, 23664",103760441,"R"
21573,"102 ENGLISH STREET","SPRUCE PINE","NC",28777,35.9129229870001,-82.071855306,73,"102 ENGLISH STREET, SPRUCE PINE, NC, 28777","Match","Exact","102 ENGLISH ST, SPRUCE PINE, NC, 28777",608043235,"L"
21574,"102 ENO AVE","TORRINGTON","CT",6790,41.804452928,-73.108250078,74,"102 ENO AVE, TORRINGTON, CT, 6790","Match","Exact","102 ENO AVE, TORRINGTON, CT, 06790",3103091,"L"
21575,"102 ERVIN DRIVE","GOLDSBORO","NC",27534,35.385131492,-77.9012813049999,75,"102 ERVIN DRIVE, GOLDSBORO, NC, 27534","Match","Exact","102 ERVIN DR, GOLDSBORO, NC, 27534",14406219,"R"
21576,"102 ESSEX AVENUE","MONTCLAIR","NJ",7042,40.82638461,-74.2044465389999,76,"102 ESSEX AVENUE, MONTCLAIR, NJ, 7042","Match","Exact","102 ESSEX AVE, MONTCLAIR, NJ, 07042",63448826,"L"
21577,"102 ETHEL CT","YORKVILLE","IL",60560,41.601436757,-88.455791515,77,"102 ETHEL CT, YORKVILLE, IL, 60560","Match","Exact","102 ETHEL CT, YORKVILLE, IL, 60560",54490689,"L"
21578,"102 EUBANK","HENDERSONVILLE","NC",28791,NA,NA,78,"102 EUBANK, HENDERSONVILLE, NC, 28791","No_Match",NA,NA,NA,NA
21579,"102 EVANS LN","OAK RIDGE","TN",37830,36.0503988130001,-84.226493179,79,"102 EVANS LN, OAK RIDGE, TN, 37830","Match","Exact","102 EVANS LN, OAK RIDGE, TN, 37830",90130306,"L"
21580,"102 EVERGREEN DR","CLEMSON","SC",29631,34.677784441,-82.7996499659999,80,"102 EVERGREEN DR, CLEMSON, SC, 29631","Match","Exact","102 EVERGREEN DR, CLEMSON, SC, 29631",26164098,"L"
21581,"102 EWELL STREET","MINDEN","LA",71055,32.6080334920001,-93.271383928,81,"102 EWELL STREET, MINDEN, LA, 71055","Match","Exact","102 EWELL ST, MINDEN, LA, 71055",73411309,"R"
21582,"102 F ST APT A","SAN RAFAEL","CA",94901,37.9740648550001,-122.536403723,82,"102 F ST APT A, SAN RAFAEL, CA, 94901","Match","Exact","102 F ST, SAN RAFAEL, CA, 94901",192764374,"R"
21583,"102 FAIR STREET","GUILFORD","CT",6437,41.28738493,-72.685491371,83,"102 FAIR STREET, GUILFORD, CT, 6437","Match","Exact","102 FAIR ST, GUILFORD, CT, 06437",3708865,"L"
21584,"102 FAIRCHILD DRIVE","PETAL","MS",39465,31.3551752990001,-89.250450593,84,"102 FAIRCHILD DRIVE, PETAL, MS, 39465","Match","Exact","102 FAIRCHILD DR, PETAL, MS, 39465",326263,"R"
21585,"102 FAIRHAVEN BLVD","WOODBURY","NY",11797,40.8151251900001,-73.489174245,85,"102 FAIRHAVEN BLVD, WOODBURY, NY, 11797","Match","Exact","102 FAIRHAVEN BLVD, WOODBURY, NY, 11797",624241196,"R"
21586,"102 FAIRHAVEN CT","STOCKBRIDGE","GA",30281,33.5398097620001,-84.243757166,86,"102 FAIRHAVEN CT, STOCKBRIDGE, GA, 30281","Match","Exact","102 FAIRHAVEN CT, STOCKBRIDGE, GA, 30281",23195725,"L"
21587,"102 FAIRVIEW AVENUE","BELMONT","MA",2478,42.379040118,-71.1628713009999,87,"102 FAIRVIEW AVENUE, BELMONT, MA, 2478","Match","Exact","102 FAIRVIEW AVE, BELMONT, MA, 02478",86891860,"L"
21588,"102 FAIRWAY COURT","CROSS JUNCTION","VA",22625,39.3199170300001,-78.316598698,88,"102 FAIRWAY COURT, CROSS JUNCTION, VA, 22625","Match","Non_Exact","102 FAIRWAY CIR, CROSS JCT, VA, 22625",55573684,"R"
21589,"102 FAIRWAY STREET","COMBINED LOCKS","WI",54113,44.2692480470001,-88.2962294009999,89,"102 FAIRWAY STREET, COMBINED LOCKS, WI, 54113","Match","Exact","102 FAIRWAY ST, COMBINED LOCKS, WI, 54113",635656485,"R"
21590,"102 FAISON ROAD","CHAPEL HILL","NC",27514,35.9131772050001,-79.014755349,90,"102 FAISON ROAD, CHAPEL HILL, NC, 27514","Match","Non_Exact","102 FAISON RD, CHAPEL HILL, NC, 27517",624448871,"R"
21591,"102 FARMINGTON COURT","STERLING","VA",20164,39.034186543,-77.379389658,91,"102 FARMINGTON COURT, STERLING, VA, 20164","Match","Exact","102 FARMINGTON CT, STERLING, VA, 20164",62327766,"R"
21592,"102 FARMINGTON PLACE","CLINTON","TN",37716,36.072101656,-84.20198507,92,"102 FARMINGTON PLACE, CLINTON, TN, 37716","Match","Exact","102 FARMINGTON PL, CLINTON, TN, 37716",90136994,"L"
21593,"102 FATIMA DRIVE","CAMPBELL","OH",44405,41.0686100520001,-80.578523939,93,"102 FATIMA DRIVE, CAMPBELL, OH, 44405","Match","Exact","102 FATIMA DR, CAMPBELL, OH, 44405",64601121,"L"
21594,"102 FERGUSON LANE","BAKERSVILLE","NC",28705,36.0218979850001,-82.11492716,94,"102 FERGUSON LANE, BAKERSVILLE, NC, 28705","Match","Exact","102 FERGUSON LN, BAKERSVILLE, NC, 28705",37290651,"R"
21595,"102 FERN PARK DR","CAMILLUS","NY",13031,43.0370363740001,-76.255064923,95,"102 FERN PARK DR, CAMILLUS, NY, 13031","Match","Non_Exact","102 FERNPARK DR, CAMILLUS, NY, 13031",46625596,"R"
21596,"102 FERN ST","THOMASVILLE","GA",31792,30.827658808,-83.984097415,96,"102 FERN ST, THOMASVILLE, GA, 31792","Match","Exact","102 FERN ST, THOMASVILLE, GA, 31792",83115805,"L"
21597,"102 FERNWOOD CT","CHAPEL HILL","NC",27516,35.858042256,-79.112725457,97,"102 FERNWOOD CT, CHAPEL HILL, NC, 27516","Match","Exact","102 FERNWOOD CT, CHAPEL HILL, NC, 27516",71355776,"R"
21598,"102 FIELDSTONE DRIVE","RINGWOOD","NJ",7456,41.08635178,-74.253084719,98,"102 FIELDSTONE DRIVE, RINGWOOD, NJ, 7456","Match","Exact","102 FIELDSTONE DR, RINGWOOD, NJ, 07456",65269642,"L"
21599,"102 FIRETOWN ROAD","SIMSBURY","CT",6070,41.878336625,-72.816539914,99,"102 FIRETOWN ROAD, SIMSBURY, CT, 6070","Match","Exact","102 FIRETOWN RD, SIMSBURY, CT, 06070",604949476,"R"
21600,"102 FLETCHER ST-2","ROSLINDALE","MA",2131,42.2909794190001,-71.13926163,100,"102 FLETCHER ST-2, ROSLINDALE, MA, 2131","Match","Non_Exact","102 FLETCHER ST, ROSLINDALE, MA, 02131",85696394,"L"
21601,"102 FLORAL AVE","DAYTON","OH",45405,39.7670861170001,-84.1969679489999,101,"102 FLORAL AVE, DAYTON, OH, 45405","Match","Exact","102 FLORAL AVE, DAYTON, OH, 45405",143571277,"R"
21602,"102 FLORENCE DRIVE","GREENWOOD","IN",46143,39.6045658850001,-86.103852031,102,"102 FLORENCE DRIVE, GREENWOOD, IN, 46143","Match","Exact","102 FLORENCE DR, GREENWOOD, IN, 46143",114643326,"R"
21603,"102 FLORIDA DR","JACKSONVILLE","AR",72076,34.8941832140001,-92.156937865,103,"102 FLORIDA DR, JACKSONVILLE, AR, 72076","Match","Exact","102 FLORIDA DR, JACKSONVILLE, AR, 72076",83518534,"R"
21604,"102 FOLEY AVENUE","CANTON","MS",39046,32.6162571850001,-90.0541793099999,104,"102 FOLEY AVENUE, CANTON, MS, 39046","Match","Exact","102 FOLEY AVE, CANTON, MS, 39046",623856211,"L"
21605,"102 FORD AVENUE","ALTAMONTE SPRINGS","FL",32701,28.6744286210001,-81.356877733,105,"102 FORD AVENUE, ALTAMONTE SPRINGS, FL, 32701","Match","Exact","102 FORD AVE, ALTAMONTE SPRINGS, FL, 32701",93778513,"R"
21606,"102 FOREST RD","DUMONT","NJ",7628,40.9482122490001,-73.998784023,106,"102 FOREST RD, DUMONT, NJ, 7628","Match","Exact","102 FOREST RD, DUMONT, NJ, 07628",64412722,"R"
21607,"102 FORREST DRIVE","LIVINGSTON","AL",35470,32.5672157870001,-88.212751737,107,"102 FORREST DRIVE, LIVINGSTON, AL, 35470","Match","Exact","102 FORREST DR, LIVINGSTON, AL, 35470",663837,"R"
21608,"102 FORREST DRIVE","TURNERSVILLE","NJ",9012,NA,NA,108,"102 FORREST DRIVE, TURNERSVILLE, NJ, 9012","No_Match",NA,NA,NA,NA
21609,"102 FOSTER AVENUE","UPPER DARBY","PA",19082,39.968952616,-75.28983988,109,"102 FOSTER AVENUE, UPPER DARBY, PA, 19082","Match","Exact","102 FOSTER AVE, UPPER DARBY, PA, 19082",134875891,"L"
21610,"102 FOSTER CENTER ROAD","FOSTER","RI",2825,NA,NA,110,"102 FOSTER CENTER ROAD, FOSTER, RI, 2825","No_Match",NA,NA,NA,NA
21611,"102 FOUNDERS POINTE BLVD","FRANKLIN","TN",37064,35.9302572190001,-86.895812395,111,"102 FOUNDERS POINTE BLVD, FRANKLIN, TN, 37064","Match","Exact","102 FOUNDERS POINTE BLVD, FRANKLIN, TN, 37064",607919220,"R"
21612,"102 FOUNTAIN AVE","BURLINGTON","NJ",8016,40.061087677,-74.849008532,112,"102 FOUNTAIN AVE, BURLINGTON, NJ, 8016","Match","Exact","102 FOUNTAIN AVE, BURLINGTON, NJ, 08016",134033580,"R"
21613,"102 FOX CREEK LANE","CHATHAM","IL",62629,39.6695061710001,-89.648463896,113,"102 FOX CREEK LANE, CHATHAM, IL, 62629","Match","Exact","102 FOX CREEK LN, CHATHAM, IL, 62629",652236145,"L"
21614,"102 FOX HILL CT","FRANKLIN","TN",37069,35.978994346,-86.946804691,114,"102 FOX HILL CT, FRANKLIN, TN, 37069","Match","Exact","102 FOX HILL CT, FRANKLIN, TN, 37069",73110311,"L"
21615,"102 FOX RUN ROAD","STEWARTSVILLE","NJ",8886,40.6758840100001,-75.092160629,115,"102 FOX RUN ROAD, STEWARTSVILLE, NJ, 8886","Match","Exact","102 FOX RUN RD, STEWARTSVILLE, NJ, 08886",98099796,"R"
21616,"102 FOXCROFT DRIVE","FRANKLNVILLE","NJ",8322,39.649131611,-75.035452452,116,"102 FOXCROFT DRIVE, FRANKLNVILLE, NJ, 8322","Match","Non_Exact","102 FOXCROFT DR, FRANKLINVILLE, NJ, 08322",625279128,"R"
21617,"102 FOXCROFT LANE","MT OLIVE","NC",28365,35.236929957,-78.061759874,117,"102 FOXCROFT LANE, MT OLIVE, NC, 28365","Match","Exact","102 FOXCROFT LN, MOUNT OLIVE, NC, 28365",14419390,"R"
21618,"102 FRANCES DRIVE","FRANKFORT","KY",40601,38.223763089,-84.8316715129999,118,"102 FRANCES DRIVE, FRANKFORT, KY, 40601","Match","Exact","102 FRANCES DR, FRANKFORT, KY, 40601",97053191,"R"
21619,"102 FRANKWOOD DRIVE","MIDLAND CITY","AL",36350,31.2597705220001,-85.489432633,119,"102 FRANKWOOD DRIVE, MIDLAND CITY, AL, 36350","Match","Exact","102 FRANKWOOD DR, MIDLAND CITY, AL, 36350",99620958,"R"
21620,"102 FRATERNITY DRIVE","LAFAYETTE","LA",70506,30.1968766640001,-92.0629139339999,120,"102 FRATERNITY DRIVE, LAFAYETTE, LA, 70506","Match","Exact","102 FRATERNITY DR, LAFAYETTE, LA, 70506",85612515,"R"
21621,"102 FREDERICK ROAD","GREENSBORO","NC",27455,36.126244613,-79.82654679,121,"102 FREDERICK ROAD, GREENSBORO, NC, 27455","Match","Exact","102 FREDERICK RD, GREENSBORO, NC, 27455",131027952,"R"
21622,"102 FREEDOM PLACE","BARDSTOWN","KY",40004,37.813840573,-85.3855733889999,122,"102 FREEDOM PLACE, BARDSTOWN, KY, 40004","Match","Exact","102 FREEDOM PL, BARDSTOWN, KY, 40004",35148630,"L"
21623,"102 FULL MOON LANE","SAVANNAH","GA",31406,31.9487363960001,-81.104071338,123,"102 FULL MOON LANE, SAVANNAH, GA, 31406","Match","Exact","102 FULL MOON LN, SAVANNAH, GA, 31406",6193478,"L"
21624,"102 FULTON STREET PHW","NEW YORK","NY",10038,40.7096335000001,-74.0065917639999,124,"102 FULTON STREET PHW, NEW YORK, NY, 10038","Match","Exact","102 FULTON ST, NEW YORK, NY, 10038",59660467,"L"
21625,"102 FURNLEA DR","GLEN BURNIE","MD",21060,39.1762187140001,-76.6039377879999,125,"102 FURNLEA DR, GLEN BURNIE, MD, 21060","Match","Exact","102 FURNLEA DR, GLEN BURNIE, MD, 21060",636149425,"R"
21626,"102 G STREET","SAN ANTONIO","TX",78210,29.4074288680001,-98.4490801869999,126,"102 G STREET, SAN ANTONIO, TX, 78210","Match","Exact","102 G ST, SAN ANTONIO, TX, 78210",101531449,"R"
21627,"102 GALWAY STREET","SMITHVILLE","KS",64089,NA,NA,127,"102 GALWAY STREET, SMITHVILLE, KS, 64089","No_Match",NA,NA,NA,NA
21628,"102 GAMBARDELLI CT","CARY","NC",27519,35.8124023340001,-78.859898179,128,"102 GAMBARDELLI CT, CARY, NC, 27519","Match","Exact","102 GAMBARDELLI CT, CARY, NC, 27519",72587887,"R"
21629,"102 GANN AVENUE","MADISON","AL",35758,34.700679812,-86.734109374,129,"102 GANN AVENUE, MADISON, AL, 35758","Match","Exact","102 GANN AVE, MADISON, AL, 35758",58166089,"L"
21630,"102 GARDEN OF EDEN RD","WILMINGTON","DE",19802,39.809535327,-75.553364605,130,"102 GARDEN OF EDEN RD, WILMINGTON, DE, 19802","Match","Non_Exact","102 GARDEN OF EDEN RD, WILMINGTON, DE, 19803",187255613,"L"
21631,"102 GARDEN STREET APT 4","MOUNT HOLLY","NJ",8060,39.996344655,-74.785589487,131,"102 GARDEN STREET APT 4, MOUNT HOLLY, NJ, 8060","Match","Exact","102 GARDEN ST, MOUNT HOLLY, NJ, 08060",134035479,"R"
21632,"102 GARDEN STREET","WEST NEWBURY","MA",1985,42.7979816480001,-70.9439014169999,132,"102 GARDEN STREET, WEST NEWBURY, MA, 1985","Match","Exact","102 GARDEN ST, WEST NEWBURY, MA, 01985",86622192,"L"
21633,"102 GARRETT DRIVE","HAMMOND","LA",70403,30.4927100150001,-90.469750617,133,"102 GARRETT DRIVE, HAMMOND, LA, 70403","Match","Exact","102 GARRETT DR, HAMMOND, LA, 70403",624423009,"R"
21634,"102 GARRETT DRIVE","HAMPTON","VA",23669,37.0191410640001,-76.392773835,134,"102 GARRETT DRIVE, HAMPTON, VA, 23669","Match","Exact","102 GARRETT DR, HAMPTON, VA, 23669",103756171,"R"
21635,"102 GASLIGHT DRIVE LOT 35","VERSAILLES","IN",47042,NA,NA,135,"102 GASLIGHT DRIVE LOT 35, VERSAILLES, IN, 47042","Tie",NA,NA,NA,NA
21636,"102 GATESTONE CT","CARY","NC",27511,35.740380653,-78.7510172779999,136,"102 GATESTONE CT, CARY, NC, 27511","Match","Non_Exact","102 GATESTONE CT, CARY, NC, 27518",72590946,"R"
21637,"102 GILCHRIST HALL  1227 W 27TH ST","CEDAR FALLS","IA",50614,NA,NA,137,"102 GILCHRIST HALL  1227 W 27TH ST, CEDAR FALLS, IA, 50614","No_Match",NA,NA,NA,NA
21638,"102 GLEN MEADOW","HOT SPRINGS","AR",71901,34.473932312,-93.010587933,138,"102 GLEN MEADOW, HOT SPRINGS, AR, 71901","Match","Non_Exact","102 GLEN MEADOW ST, HOT SPRINGS, AR, 71901",22735579,"L"
21639,"102 GLENBROOK DRIVE","OTTAWA","OH",45875,41.0224826050001,-84.020590774,139,"102 GLENBROOK DRIVE, OTTAWA, OH, 45875","Match","Exact","102 GLENBROOK DR, OTTAWA, OH, 45875",36569785,"L"
21640,"102 GLENDALE DRIVE","MOON TWP","PA",15108,NA,NA,140,"102 GLENDALE DRIVE, MOON TWP, PA, 15108","No_Match",NA,NA,NA,NA
21641,"102 GLOVER STREET","FULTON","MO",65251,38.8809640910001,-91.946164653,141,"102 GLOVER STREET, FULTON, MO, 65251","Match","Exact","102 GLOVER ST, FULTON, MO, 65251",34345257,"L"
21642,"102 GOLDEN ROD DR","SEYMOUR","TN",37865,35.894343185,-83.7180179809999,142,"102 GOLDEN ROD DR, SEYMOUR, TN, 37865","Match","Non_Exact","102 GOLDENROD DR, SEYMOUR, TN, 37865",107545679,"L"
21643,"102 GOLF CIR","BERNVILLE","PA",19506,40.422607569,-76.117858365,143,"102 GOLF CIR, BERNVILLE, PA, 19506","Match","Exact","102 GOLF CIR, BERNVILLE, PA, 19506",80410604,"L"
21644,"102 GOLFVIEW DR","JACKSON","AL",36545,31.507624686,-87.890682119,144,"102 GOLFVIEW DR, JACKSON, AL, 36545","Match","Non_Exact","102 GOLF VIEW DR, JACKSON, AL, 36545",34576115,"L"
21645,"102 GOPHER BLVD","GRAND PRAIRIE","TX",75050,NA,NA,145,"102 GOPHER BLVD, GRAND PRAIRIE, TX, 75050","No_Match",NA,NA,NA,NA
21646,"102 GORTON ROAD","MOSHANNON","PA",16859,41.0319431400001,-78.0050343139999,146,"102 GORTON ROAD, MOSHANNON, PA, 16859","Match","Exact","102 GORTON RD, MOSHANNON, PA, 16859",50389975,"R"
21647,"102 GRAND HASKELL DR","BENTON","AR",72015,NA,NA,147,"102 GRAND HASKELL DR, BENTON, AR, 72015","No_Match",NA,NA,NA,NA
21648,"102 GRANGER ST","BLOSSBURG","PA",16912,41.6769559640001,-77.062064307,148,"102 GRANGER ST, BLOSSBURG, PA, 16912","Match","Exact","102 GRANGER ST, BLOSSBURG, PA, 16912",189664293,"R"
21649,"102 GRANT CHAMBERLAIN DR APT 1H","BOZEMAN","MT",59715,45.6708547700001,-111.059492727,149,"102 GRANT CHAMBERLAIN DR APT 1H, BOZEMAN, MT, 59715","Match","Exact","102 GRANT CHAMBERLAIN DR, BOZEMAN, MT, 59715",163537026,"L"
21650,"102 GRASSY RIDGE CT","APEX","NC",27502,35.7311309670001,-78.9027001749999,150,"102 GRASSY RIDGE CT, APEX, NC, 27502","Match","Exact","102 GRASSY RIDGE CT, APEX, NC, 27502",72662091,"L"
21651,"102 GREAT PINE LN","POOLER","GA",31322,32.1020769580001,-81.285402596,151,"102 GREAT PINE LN, POOLER, GA, 31322","Match","Exact","102 GREAT PINE LN, POOLER, GA, 31322",641580454,"R"
21652,"102 GREEN ACRES DR","BURLINGTON","VT",5408,44.512229882,-73.257405034,152,"102 GREEN ACRES DR, BURLINGTON, VT, 5408","Match","Exact","102 GREEN ACRES DR, BURLINGTON, VT, 05408",135826907,"R"
21653,"102 GREEN ACRES","OSCEOLA","AR",72370,35.711112126,-89.973874268,153,"102 GREEN ACRES, OSCEOLA, AR, 72370","Match","Non_Exact","102 GREEN ACRES DR, OSCEOLA, AR, 72370",650021960,"R"
21654,"102 GREEN ARBOR LANE","GREEVILLE","SC",29615,34.829126924,-82.256544358,154,"102 GREEN ARBOR LANE, GREEVILLE, SC, 29615","Match","Non_Exact","102 GREEN ARBOR LN, GREENVILLE, SC, 29615",38337390,"R"
21655,"102 GREEN ST APT1","SOMERSWORTH","NH",3878,43.2559349000001,-70.8635895639999,155,"102 GREEN ST APT1, SOMERSWORTH, NH, 3878","Match","Exact","102 GREEN ST, SOMERSWORTH, NH, 03878",117805144,"L"
21656,"102 GREENCREST DR","LITTLE ROCK","AR",72204,34.715944887,-92.355080908,156,"102 GREENCREST DR, LITTLE ROCK, AR, 72204","Match","Exact","102 GREENCREST DR, LITTLE ROCK, AR, 72204",83561008,"R"
21657,"102 GREENTOP STREET","HARTSVILLE","TN",37074,36.389856137,-86.1672537869999,157,"102 GREENTOP STREET, HARTSVILLE, TN, 37074","Match","Exact","102 GREENTOP ST, HARTSVILLE, TN, 37074",44623563,"L"
21658,"102 GRIFFIN CIRCLE","LIBERTY","SC",29657,34.7781305280001,-82.70737144,158,"102 GRIFFIN CIRCLE, LIBERTY, SC, 29657","Match","Exact","102 GRIFFIN CIR, LIBERTY, SC, 29657",26161763,"R"
21659,"102 GUADALUPE DRIVE","ATHENS","TX",75731,32.1822305100001,-95.854440744,159,"102 GUADALUPE DRIVE, ATHENS, TX, 75731","Match","Non_Exact","102 GUADALUPE DR, ATHENS, TX, 75751",125803867,"R"
21660,"102 GULFVIEW DR","ISLAMORADA","FL",33036,24.856647729,-80.730562557,160,"102 GULFVIEW DR, ISLAMORADA, FL, 33036","Match","Exact","102 GULFVIEW DR, ISLAMORADA, FL, 33036",116468460,"R"
21661,"102 GUY LANE","BARNESVILLE","GA",30204,33.058710198,-84.161990577,161,"102 GUY LANE, BARNESVILLE, GA, 30204","Match","Exact","102 GUY LN, BARNESVILLE, GA, 30204",66658433,"L"
21662,"102 GWYNMONT CIR","NORTH WALES","PA",19454,40.226098569,-75.2475692249999,162,"102 GWYNMONT CIR, NORTH WALES, PA, 19454","Match","Exact","102 GWYNMONT CIR, NORTH WALES, PA, 19454",135107235,"R"
21663,"102 H ST NE","QUINCY","WA",98848,47.2442183920001,-119.851010251,163,"102 H ST NE, QUINCY, WA, 98848","Match","Exact","102 H ST NE, QUINCY, WA, 98848",623835493,"R"
21664,"102 HAGGERTY RD","CHARLTON","MA",1507,42.094496415,-71.955604031,164,"102 HAGGERTY RD, CHARLTON, MA, 1507","Match","Exact","102 HAGGERTY RD, CHARLTON, MA, 01507",40149905,"R"
21665,"102 HALL BLDV SUITE 304","SAN ANTONIO","TX",78243,NA,NA,165,"102 HALL BLDV SUITE 304, SAN ANTONIO, TX, 78243","No_Match",NA,NA,NA,NA
21666,"102 HALL BLVD STE 243","JBSA LACKLAND AFB","TX",78236,NA,NA,166,"102 HALL BLVD STE 243, JBSA LACKLAND AFB, TX, 78236","No_Match",NA,NA,NA,NA
21667,"102 HALL BLVD STE 310","SAN ANTONIO","TX",78243,NA,NA,167,"102 HALL BLVD STE 310, SAN ANTONIO, TX, 78243","No_Match",NA,NA,NA,NA
21668,"102 HALL BLVD SUITE 305","SAN ANTONIO","TX",78243,NA,NA,168,"102 HALL BLVD SUITE 305, SAN ANTONIO, TX, 78243","No_Match",NA,NA,NA,NA
21669,"102 HAMPTON HALL DRIVE","BEREA","KY",40403,NA,NA,169,"102 HAMPTON HALL DRIVE, BEREA, KY, 40403","No_Match",NA,NA,NA,NA
21670,"102 HAMPTON RD","LIBERTY","SC",29657,34.829416413,-82.6942151599999,170,"102 HAMPTON RD, LIBERTY, SC, 29657","Match","Exact","102 HAMPTON RD, LIBERTY, SC, 29657",26208818,"L"
21671,"102 HANCOCK STREET","LAWRENCE","MA",1841,42.697617241,-71.1760268789999,171,"102 HANCOCK STREET, LAWRENCE, MA, 1841","Match","Exact","102 HANCOCK ST, LAWRENCE, MA, 01841",86626080,"L"
21672,"102 HANSON ROAD","NEWTON","MA",2459,42.294592494,-71.1870949189999,172,"102 HANSON ROAD, NEWTON, MA, 2459","Match","Exact","102 HANSON RD, NEWTON, MA, 02459",86867150,"L"
21673,"102 HARDENBURGH ROAD","PINE BUSH","NY",12566,41.619437948,-74.294117285,173,"102 HARDENBURGH ROAD, PINE BUSH, NY, 12566","Match","Exact","102 HARDENBURGH RD, PINE BUSH, NY, 12566",624067438,"R"
21674,"102 HARDING STREET","LAKE PROVIDENCE","LA",71254,32.8064030310001,-91.18551265,174,"102 HARDING STREET, LAKE PROVIDENCE, LA, 71254","Match","Exact","102 HARDING ST, LAKE PROVIDENCE, LA, 71254",71147493,"R"
21675,"102 HARDING STREET","WETHERSFILD","CT",6109,41.714200745,-72.687556306,175,"102 HARDING STREET, WETHERSFILD, CT, 6109","Match","Non_Exact","102 HARDING ST, WETHERSFIELD, CT, 06109",3516526,"L"
21676,"102 HARKER STREET","MANSFIELD","OH",44903,40.7716888300001,-82.518247882,176,"102 HARKER STREET, MANSFIELD, OH, 44903","Match","Exact","102 HARKER ST, MANSFIELD, OH, 44903",207220202,"R"
21677,"102 HARMON STREET","JERSEY","NJ",7304,40.7154879500001,-74.069810691,177,"102 HARMON STREET, JERSEY, NJ, 7304","Match","Non_Exact","102 HARMON ST, JERSEY CITY, NJ, 07304",648110847,"R"
21678,"102 HARRINGTON ST","RED SPRINGS","NC",28377,34.8169692750001,-79.1878717829999,178,"102 HARRINGTON ST, RED SPRINGS, NC, 28377","Match","Exact","102 HARRINGTON ST, RED SPRINGS, NC, 28377",49131571,"R"
21679,"102 HARRIS AVE","FREEPORT","NY",11250,40.6651558080001,-73.58152116,179,"102 HARRIS AVE, FREEPORT, NY, 11250","Match","Non_Exact","102 HARRIS AVE, FREEPORT, NY, 11520",147631691,"R"
21680,"102 HARRISON AVENUE","BURLINGTON","IA",52601,40.7891268860001,-91.095349332,180,"102 HARRISON AVENUE, BURLINGTON, IA, 52601","Match","Exact","102 HARRISON AVE, BURLINGTON, IA, 52601",5542801,"R"
21681,"102 HASTING COURT","LYNCHBURG","VA",24503,NA,NA,181,"102 HASTING COURT, LYNCHBURG, VA, 24503","No_Match",NA,NA,NA,NA
21682,"102 HEARTHSTONE DR","PORTLAND","TN",37148,36.562403933,-86.501365671,182,"102 HEARTHSTONE DR, PORTLAND, TN, 37148","Match","Exact","102 HEARTHSTONE DR, PORTLAND, TN, 37148",29785273,"L"
21683,"102 HEAVENLY","IRVINE","CA",92602,33.741392567,-117.755605554,183,"102 HEAVENLY, IRVINE, CA, 92602","Match","Exact","102 HEAVENLY, IRVINE, CA, 92602",649290349,"R"
21684,"102 HENRIETTA CT","O FALLON","MO",63368,38.7438960220001,-90.714767001,184,"102 HENRIETTA CT, O FALLON, MO, 63368","Match","Exact","102 HENRIETTA CT, O FALLON, MO, 63368",605590845,"L"
21685,"102 HERMAN BUCK LN","CHICKAMAUGA","GA",30707,34.8590756190001,-85.3447519279999,185,"102 HERMAN BUCK LN, CHICKAMAUGA, GA, 30707","Match","Exact","102 HERMAN BUCK LN, CHICKAMAUGA, GA, 30707",66727991,"L"
21686,"102 HERSEY STREET","HINGHAM","MA",2043,42.2343728930001,-70.892795139,186,"102 HERSEY STREET, HINGHAM, MA, 2043","Match","Exact","102 HERSEY ST, HINGHAM, MA, 02043",87478836,"L"
21687,"102 HIAWATHA AVENUE","OCEANPORT","NJ",7750,NA,NA,187,"102 HIAWATHA AVENUE, OCEANPORT, NJ, 7750","No_Match",NA,NA,NA,NA
21688,"102 HICKORY PLACE","BRANDON","MS",39042,32.3095893650001,-89.9551559349999,188,"102 HICKORY PLACE, BRANDON, MS, 39042","Match","Non_Exact","102 HICKORY ST, BRANDON, MS, 39042",605687623,"R"
21689,"102 HIDDEN LANE","MANOR","PA",15665,40.3302979750001,-79.665183126,189,"102 HIDDEN LANE, MANOR, PA, 15665","Match","Exact","102 HIDDEN LN, MANOR, PA, 15665",617624880,"R"
21690,"102 HIGH BLUE AVENUE","HAWLEY","PA",18428,41.4572832380001,-75.180282913,190,"102 HIGH BLUE AVENUE, HAWLEY, PA, 18428","Match","Exact","102 HIGH BLUE AVE, HAWLEY, PA, 18428",191394363,"R"
21691,"102 HIGH SAIL CT","MOORESVILLE","NC",28117,35.549598987,-80.9074460209999,191,"102 HIGH SAIL CT, MOORESVILLE, NC, 28117","Match","Exact","102 HIGH SAIL CT, MOORESVILLE, NC, 28117",46011305,"R"
21692,"102 HIGHVEIW TERRACE","DOVER","NJ",7801,40.895330357,-74.536817892,192,"102 HIGHVEIW TERRACE, DOVER, NJ, 7801","Match","Non_Exact","102 HIGHVIEW TER, DOVER, NJ, 07801",60438714,"R"
21693,"102 HIGHVIEW COVE","PELHAM","AL",35124,33.2668447880001,-86.806345597,193,"102 HIGHVIEW COVE, PELHAM, AL, 35124","Match","Exact","102 HIGHVIEW COVE, PELHAM, AL, 35124",631758461,"R"
21694,"102 HIGHVIEW","ROCKWALL","TX",75087,32.929973079,-96.472003914,194,"102 HIGHVIEW, ROCKWALL, TX, 75087","Match","Non_Exact","102 HIGHVIEW LN, ROCKWALL, TX, 75087",123789297,"L"
21695,"102 HIGHWOOD AVE","HIGHWOOD","IL",60040,42.2019580800001,-87.810696131,195,"102 HIGHWOOD AVE, HIGHWOOD, IL, 60040","Match","Exact","102 HIGHWOOD AVE, HIGHWOOD, IL, 60040",119648216,"R"
21696,"102 HIGHWOOD AVENUE","HIGHWOOD","IL",60040,42.2019580800001,-87.810696131,196,"102 HIGHWOOD AVENUE, HIGHWOOD, IL, 60040","Match","Exact","102 HIGHWOOD AVE, HIGHWOOD, IL, 60040",119648216,"R"
21697,"102 HILL AND DALE DRIVE","GREENWOOD","SC",29646,34.169587607,-82.164421939,197,"102 HILL AND DALE DRIVE, GREENWOOD, SC, 29646","Match","Exact","102 HILL AND DALE DR, GREENWOOD, SC, 29646",653315452,"R"
21698,"102 HILL RD","DALTON","GA",30721,34.758513108,-84.926787497,198,"102 HILL RD, DALTON, GA, 30721","Match","Exact","102 HILL RD, DALTON, GA, 30721",648143994,"L"
21699,"102 HILLCREST COURT","BRUNDIDGE","AL",36010,31.7319579160001,-85.824925374,199,"102 HILLCREST COURT, BRUNDIDGE, AL, 36010","Match","Exact","102 HILLCREST CT, BRUNDIDGE, AL, 36010",69217634,"L"
21700,"102 HILLCREST DR BOX 248","JOHNSON CITY","TX",78636,30.2795965170001,-98.402507434,200,"102 HILLCREST DR BOX 248, JOHNSON CITY, TX, 78636","Match","Exact","102 HILLCREST DR, JOHNSON CITY, TX, 78636",72139757,"R"
21701,"102 HILLSIDE AVE","ENGLEWOOD","NJ",7631,40.8950018900001,-73.9691873359999,201,"102 HILLSIDE AVE, ENGLEWOOD, NJ, 7631","Match","Exact","102 HILLSIDE AVE, ENGLEWOOD, NJ, 07631",64375438,"L"
21702,"102 HILLSIDE CT","STAFFORD","VA",22554,38.507647047,-77.375617564,202,"102 HILLSIDE CT, STAFFORD, VA, 22554","Match","Exact","102 HILLSIDE CT, STAFFORD, VA, 22554",638899920,"R"
21703,"102 HILLSMAN LANE","SUGAR LAND","TX",77498,29.660704202,-95.658482127,203,"102 HILLSMAN LANE, SUGAR LAND, TX, 77498","Match","Exact","102 HILLSMAN LN, SUGAR LAND, TX, 77498",641086052,"R"
21704,"102 HILLWOOD LANE","MCMINNVILLE","TN",38581,35.696009734,-85.794696071,204,"102 HILLWOOD LANE, MCMINNVILLE, TN, 38581","Match","Non_Exact","102 HILLWOOD LN, MCMINNVILLE, TN, 37110",81346300,"L"
21705,"102 HINGHAM SQUARE","FOLSOM","CA",95630,38.66492011,-121.115206506,205,"102 HINGHAM SQUARE, FOLSOM, CA, 95630","Match","Exact","102 HINGHAM SQ, FOLSOM, CA, 95630",133371887,"L"
21706,"102 HOBART AVENUE","SYRACUSE","NY",13205,43.0127003640001,-76.1415495699999,206,"102 HOBART AVENUE, SYRACUSE, NY, 13205","Match","Exact","102 HOBART AVE, SYRACUSE, NY, 13205",46572057,"R"
21707,"102 HODIL TERRACE","PITTSBURGH","PA",15238,40.5479805430001,-79.900676891,207,"102 HODIL TERRACE, PITTSBURGH, PA, 15238","Match","Exact","102 HODIL TER, PITTSBURGH, PA, 15238",51713066,"R"
21708,"102 HOLBORN LANE","SAVANNAH","GA",31410,32.002108955,-80.976549501,208,"102 HOLBORN LANE, SAVANNAH, GA, 31410","Match","Exact","102 HOLBORN LN, SAVANNAH, GA, 31410",634003871,"L"
21709,"102 HOLBROOK LN","GOOSE CREEK","SC",29445,33.000781456,-80.081001612,209,"102 HOLBROOK LN, GOOSE CREEK, SC, 29445","Match","Exact","102 HOLBROOK LN, GOOSE CREEK, SC, 29445",100774055,"R"
21710,"102 HOLLEY LANE","DAYTON","NV",89403,39.248401431,-119.582496653,210,"102 HOLLEY LANE, DAYTON, NV, 89403","Match","Non_Exact","102 HOLLY LN, DAYTON, NV, 89403",140356246,"L"
21711,"102 HOLLY DRIVE","MEDFORD","NJ",8055,39.8701070870001,-74.84237912,211,"102 HOLLY DRIVE, MEDFORD, NJ, 8055","Match","Exact","102 HOLLY DR, MEDFORD, NJ, 08055",134038633,"R"
21712,"102 HOOKER PLACE","STATEN ISLAND","NY",10302,40.6312248900001,-74.1426491289999,212,"102 HOOKER PLACE, STATEN ISLAND, NY, 10302","Match","Exact","102 HOOKER PL, STATEN ISLAND, NY, 10302",59877506,"L"
21713,"102 HOPE AVE APT 77","SANTA BARBARA","CA",93110,34.4410918,-119.746703892,213,"102 HOPE AVE APT 77, SANTA BARBARA, CA, 93110","Match","Non_Exact","102 N HOPE AVE, SANTA BARBARA, CA, 93110",108603332,"R"
21714,"102 HOPE DRIVE PO BOX 409","LOCKHART","SC",29364,34.7928040140001,-81.462988647,214,"102 HOPE DRIVE PO BOX 409, LOCKHART, SC, 29364","Match","Exact","102 HOPE DR, LOCKHART, SC, 29364",639102272,"R"
21715,"102 HOTCHKISS ST","FREDERICKSBURG","VA",22408,38.270372679,-77.4850279079999,215,"102 HOTCHKISS ST, FREDERICKSBURG, VA, 22408","Match","Exact","102 HOTCHKISS ST, FREDERICKSBURG, VA, 22408",85005786,"L"
21716,"102 HOWARD STREET APT 3","PEMBROKE","NC",28372,34.685089991,-79.208058705,216,"102 HOWARD STREET APT 3, PEMBROKE, NC, 28372","Match","Exact","102 HOWARD ST, PEMBROKE, NC, 28372",639253953,"L"
21717,"102 HUGH CIRCLE","BIRMINGHAM","AL",35209,33.467740099,-86.7817112819999,217,"102 HUGH CIRCLE, BIRMINGHAM, AL, 35209","Match","Exact","102 HUGH CIR, BIRMINGHAM, AL, 35209",81584256,"L"
21718,"102 HUNTER RIDGE DRIVE","BOILING SPRINGS","SC",29316,35.024360539,-82.00521384,218,"102 HUNTER RIDGE DRIVE, BOILING SPRINGS, SC, 29316","Match","Exact","102 HUNTER RIDGE DR, BOILING SPRINGS, SC, 29316",19479050,"R"
21719,"102 HUNTINGTON DRIVE","ANDERSON","SC",29625,34.558020883,-82.7002383889999,219,"102 HUNTINGTON DRIVE, ANDERSON, SC, 29625","Match","Exact","102 HUNTINGTON DR, ANDERSON, SC, 29625",25449806,"R"
21720,"102 HUNTINGTON PARK DR","MORRISVILLE","NC",27560,35.8132492620001,-78.845735874,220,"102 HUNTINGTON PARK DR, MORRISVILLE, NC, 27560","Match","Exact","102 HUNTINGTON PARK DR, MORRISVILLE, NC, 27560",642442845,"R"
21721,"102 HUNTLEIGHT COURT","WINDER","SC",30680,NA,NA,221,"102 HUNTLEIGHT COURT, WINDER, SC, 30680","No_Match",NA,NA,NA,NA
21722,"102 HWY 49 N","BENTONIA","MS",39040,NA,NA,222,"102 HWY 49 N, BENTONIA, MS, 39040","No_Match",NA,NA,NA,NA
21723,"102 HYDE DR","MCMINNVILLE","TN",37110,35.6947281160001,-85.790883363,223,"102 HYDE DR, MCMINNVILLE, TN, 37110","Match","Exact","102 HYDE DR, MCMINNVILLE, TN, 37110",81346298,"L"
21724,"102 INDEPENDENCE WAY","CHALFONT","PA",18914,40.2903579260001,-75.2081673019999,224,"102 INDEPENDENCE WAY, CHALFONT, PA, 18914","Match","Exact","102 INDEPENDENCE WAY, CHALFONT, PA, 18914",134749772,"L"
21725,"102 INDIAN HILLS DRIVE","WESTMINSTER","SC",29693,34.537727986,-83.083009292,225,"102 INDIAN HILLS DRIVE, WESTMINSTER, SC, 29693","Match","Exact","102 INDIAN HILLS DR, WESTMINSTER, SC, 29693",25665007,"L"
21726,"102 INDIANA AVE","ROCHESTER","IN",46975,41.072916112,-86.2091959049999,226,"102 INDIANA AVE, ROCHESTER, IN, 46975","Match","Exact","102 INDIANA AVE, ROCHESTER, IN, 46975",7843449,"L"
21727,"102 INDUSTRIAL DRIVE","BATESVILLE","AR",72501,NA,NA,227,"102 INDUSTRIAL DRIVE, BATESVILLE, AR, 72501","No_Match",NA,NA,NA,NA
21728,"102 INVERNESS COVE","BENTON","AR",72015,34.5249365660001,-92.663465948,228,"102 INVERNESS COVE, BENTON, AR, 72015","Match","Exact","102 INVERNESS COVE, BENTON, AR, 72015",631680027,"R"
21729,"102 IRON FURNACE ROAD","FRANCONIA","NH",3580,NA,NA,229,"102 IRON FURNACE ROAD, FRANCONIA, NH, 3580","No_Match",NA,NA,NA,NA
21730,"102 ISLAND PALMS DRIVE","CAROLINA BEACH","NC",28428,34.0412958640001,-77.901232754,230,"102 ISLAND PALMS DRIVE, CAROLINA BEACH, NC, 28428","Match","Exact","102 ISLAND PALMS DR, CAROLINA BCH, NC, 28428",634102897,"R"
21731,"102 IVY CREST DR","DALLAS","GA",30157,33.900597292,-84.8374851469999,231,"102 IVY CREST DR, DALLAS, GA, 30157","Match","Exact","102 IVY CREST DR, DALLAS, GA, 30157",207978927,"R"
21732,"102 IVYWOOD LANE","CARY","NC",27518,35.7253630010001,-78.761377062,232,"102 IVYWOOD LANE, CARY, NC, 27518","Match","Exact","102 IVYWOOD LN, CARY, NC, 27518",72554605,"R"
21733,"102 JACKSON DRIVE","JACKSON","NJ",8527,NA,NA,233,"102 JACKSON DRIVE, JACKSON, NJ, 8527","No_Match",NA,NA,NA,NA
21734,"102 JACKSON ST","RADCLIFF","KY",40160,37.8032287090001,-85.912017842,234,"102 JACKSON ST, RADCLIFF, KY, 40160","Match","Exact","102 JACKSON ST, RADCLIFF, KY, 40160",619895643,"R"
21735,"102 JACOBY DR","EPWORTH","IA",52045,42.4408656160001,-90.932286711,235,"102 JACOBY DR, EPWORTH, IA, 52045","Match","Non_Exact","102 JACOBY DR W, EPWORTH, IA, 52045",638300100,"L"
21736,"102 JADE DRIVE","OAKDALE","PA",15071,40.40354827,-80.186070321,236,"102 JADE DRIVE, OAKDALE, PA, 15071","Match","Exact","102 JADE DR, OAKDALE, PA, 15071",51935382,"R"
21737,"102 JAMES ST","BENTLEYVILLE","PA",15314,NA,NA,237,"102 JAMES ST, BENTLEYVILLE, PA, 15314","No_Match",NA,NA,NA,NA
21738,"102 JANET LANE","COATESVILLE","PA",19320,39.9970778050001,-75.8863218499999,238,"102 JANET LANE, COATESVILLE, PA, 19320","Match","Exact","102 JANET LN, COATESVILLE, PA, 19320",179556828,"L"
21739,"102 JARDINES DEL CARIBE 7","PONCE","PR",728,NA,NA,239,"102 JARDINES DEL CARIBE 7, PONCE, PR, 728","No_Match",NA,NA,NA,NA
21740,"102 JEFFERSON CT","EAST PEORIA","IL",61611,40.65746448,-89.5821036839999,240,"102 JEFFERSON CT, EAST PEORIA, IL, 61611","Match","Exact","102 JEFFERSON CT, EAST PEORIA, IL, 61611",22499415,"L"
21741,"102 JEFFERSON","WATERLOO","IL",62298,38.342557576,-90.1394002439999,241,"102 JEFFERSON, WATERLOO, IL, 62298","Match","Non_Exact","102 JEFFERSON DR, WATERLOO, IL, 62298",636384919,"L"
21742,"102 JOALENE","HUDSON OAKS","TX",76087,32.7490556820001,-97.706671448,242,"102 JOALENE, HUDSON OAKS, TX, 76087","Match","Non_Exact","102 JOALENE DR, HUDSON OAKS, TX, 76087",103581221,"R"
21743,"102 JOE DAN CT","WEATHERFORD","TX",76087,32.72006736,-97.8457924209999,243,"102 JOE DAN CT, WEATHERFORD, TX, 76087","Match","Non_Exact","102 DEAN RD, WEATHERFORD, TX, 76087",103590075,"L"
21744,"102 JOE MEYER ROAD","GARFIELD","WA",99130,NA,NA,244,"102 JOE MEYER ROAD, GARFIELD, WA, 99130","No_Match",NA,NA,NA,NA
21745,"102 JOHNSON AVE","PISCATAWAY","NJ",8854,40.5761138720001,-74.479474366,245,"102 JOHNSON AVE, PISCATAWAY, NJ, 8854","Match","Exact","102 JOHNSON AVE, PISCATAWAY, NJ, 08854",60259275,"R"
21746,"102 JOHNSON CT","DECATUR","GA",30030,33.7709999080001,-84.303257295,246,"102 JOHNSON CT, DECATUR, GA, 30030","Match","Exact","102 JOHNSON CT, DECATUR, GA, 30030",23388134,"L"
21747,"102 JOHNSON STREET SW","SHELLSBURG","IA",52332,42.090515216,-91.869127646,247,"102 JOHNSON STREET SW, SHELLSBURG, IA, 52332","Match","Exact","102 JOHNSON ST SW, SHELLSBURG, IA, 52332",94718542,"R"
21748,"102 JOHNSTON STREET","JEANNETTE","PA",15644,40.3289757050001,-79.600487368,248,"102 JOHNSTON STREET, JEANNETTE, PA, 15644","Match","Exact","102 JOHNSTON ST, JEANNETTE, PA, 15644",52973310,"R"
21749,"102 JUDSON ST","RAYNHAM","MA",2767,41.9089371530001,-71.036426864,249,"102 JUDSON ST, RAYNHAM, MA, 2767","Match","Exact","102 JUDSON ST, RAYNHAM, MA, 02767",46761538,"L"
21750,"102 JUDY DRIVE","MARTINSVILLE","IN",46151,39.4361989340001,-86.390893143,250,"102 JUDY DRIVE, MARTINSVILLE, IN, 46151","Match","Exact","102 JUDY DR, MARTINSVILLE, IN, 46151",641785970,"R"
21751,"102 JUNE ST","WORCESTER","MA",1602,42.265048146,-71.83233695,251,"102 JUNE ST, WORCESTER, MA, 1602","Match","Exact","102 JUNE ST, WORCESTER, MA, 01602",40008914,"L"
21752,"102 KANSAS ST","FRANKFORT, IL","IL",60423,41.4984628330001,-87.8512991329999,252,"102 KANSAS ST, FRANKFORT, IL, IL, 60423","Match","Non_Exact","102 KANSAS ST, FRANKFORT, IL, 60423",111550910,"R"
21753,"102 KANSAS STREET","FRANKFORT, IL","IL",60423,41.4984628330001,-87.8512991329999,253,"102 KANSAS STREET, FRANKFORT, IL, IL, 60423","Match","Non_Exact","102 KANSAS ST, FRANKFORT, IL, 60423",111550910,"R"
21754,"102 KAREN CT","ELIZABETH CITY","NC",27909,36.3344381250001,-76.253684704,254,"102 KAREN CT, ELIZABETH CITY, NC, 27909","Match","Exact","102 KAREN CT, ELIZABETH CITY, NC, 27909",651384866,"R"
21755,"102 KE","MADISON","MS",39110,NA,NA,255,"102 KE, MADISON, MS, 39110","No_Match",NA,NA,NA,NA
21756,"102 KEELER AVE","NORWALK","CT",6854,41.0990849570001,-73.44662691,256,"102 KEELER AVE, NORWALK, CT, 6854","Match","Exact","102 KEELER AVE, NORWALK, CT, 06854",3249615,"R"
21757,"102 KEENE MANOR CIRCLE","NICHOLASVILLE","KY",40356,37.961254185,-84.602168222,257,"102 KEENE MANOR CIRCLE, NICHOLASVILLE, KY, 40356","Match","Exact","102 KEENE MANOR CIR, NICHOLASVILLE, KY, 40356",619619047,"R"
21758,"102 KELSEE COURT","BONDUEL","WI",54107,44.743707295,-88.457489337,258,"102 KELSEE COURT, BONDUEL, WI, 54107","Match","Exact","102 KELSEE CT, BONDUEL, WI, 54107",126878876,"L"
21759,"102 KENILWORTH DRIVE 3C","TOWSON","MD",21204,39.4060489400001,-76.6083692669999,259,"102 KENILWORTH DRIVE 3C, TOWSON, MD, 21204","Match","Exact","102 KENILWORTH DR, TOWSON, MD, 21204",191539293,"R"
21760,"102 KENNY LANE","MAYNARDVILLE","TN",37807,36.272185049,-83.745789709,260,"102 KENNY LANE, MAYNARDVILLE, TN, 37807","Match","Exact","102 KENNY LN, MAYNARDVILLE, TN, 37807",633799554,"R"
21761,"102 KENSWICK COURT","STARKVILLE","MS",39759,33.422709292,-88.8148547389999,261,"102 KENSWICK COURT, STARKVILLE, MS, 39759","Match","Exact","102 KENSWICK CT, STARKVILLE, MS, 39759",607238558,"R"
21762,"102 KENT ROAD SW","HUNTSVILLE","AL",35801,34.7069381690001,-86.571256116,262,"102 KENT ROAD SW, HUNTSVILLE, AL, 35801","Match","Exact","102 KENT RD SW, HUNTSVILLE, AL, 35801",648025974,"R"
21763,"102 KILMAR ST","ROCHESTER","NY",14621,43.1891319150001,-77.596426089,263,"102 KILMAR ST, ROCHESTER, NY, 14621","Match","Exact","102 KILMAR ST, ROCHESTER, NY, 14621",14537761,"R"
21764,"102 KIMBALL AVENUE","SOUTH BURLINGTON","VT",5403,44.4594045800001,-73.1533354279999,264,"102 KIMBALL AVENUE, SOUTH BURLINGTON, VT, 5403","Match","Exact","102 KIMBALL AVE, S BURLINGTON, VT, 05403",135859096,"L"
21765,"102 KIMBERLY CT","HENDERSONVILLE","TN",37075,36.296920915,-86.577342675,265,"102 KIMBERLY CT, HENDERSONVILLE, TN, 37075","Match","Exact","102 KIMBERLY CT, HENDERSONVILLE, TN, 37075",29793840,"R"
21766,"102 KIMBROUGH AVE","ATOKA","TN",38004,35.441619921,-89.7890170219999,266,"102 KIMBROUGH AVE, ATOKA, TN, 38004","Match","Non_Exact","102 KIMBROUGH DR, ATOKA, TN, 38004",73166794,"R"
21767,"102 KING ARTHUR DRIVE","ANDERSON","SC",29621,34.478426771,-82.598727377,267,"102 KING ARTHUR DRIVE, ANDERSON, SC, 29621","Match","Exact","102 KING ARTHUR DR, ANDERSON, SC, 29621",25455110,"R"
21768,"102 KING FARM BLVD APT B105","ROCKVILLE","MD",20850,39.1163502090001,-77.169761203,268,"102 KING FARM BLVD APT B105, ROCKVILLE, MD, 20850","Match","Exact","102 KING FARM BLVD, ROCKVILLE, MD, 20850",62125168,"L"
21769,"102 KINGHORN DRIVE","WILMORE","KY",40390,NA,NA,269,"102 KINGHORN DRIVE, WILMORE, KY, 40390","No_Match",NA,NA,NA,NA
21770,"102 KINGS ARMS AT WATERFORD","YORK","PA",17404,39.9497247210001,-76.651922966,270,"102 KINGS ARMS AT WATERFORD, YORK, PA, 17404","Match","Non_Exact","102 KINGS ARMS AT WATERFORD, YORK, PA, 17402",88775401,"R"
21771,"102 KINGSWOOD COURT","SANFORD","FL",32773,28.7764417440001,-81.318142134,271,"102 KINGSWOOD COURT, SANFORD, FL, 32773","Match","Exact","102 KINGSWOOD CT, SANFORD, FL, 32773",93748281,"R"
21772,"102 KINSEY COURT","VALPARAISO","FL",32580,30.4878357970001,-86.486933703,272,"102 KINSEY COURT, VALPARAISO, FL, 32580","Match","Exact","102 KINSEY CT, VALPARAISO, FL, 32580",74418953,"R"
21773,"102 KINVARA ROAD","PITTSBURGH","PA",15237,40.538274352,-80.003530771,273,"102 KINVARA ROAD, PITTSBURGH, PA, 15237","Match","Non_Exact","102 KINVARA CT, PITTSBURGH, PA, 15237",639084453,"R"
21774,"102 KIWI CT","LINCOLN","CA",95648,38.840296026,-121.268848289,274,"102 KIWI CT, LINCOLN, CA, 95648","Match","Exact","102 KIWI CT, LINCOLN, CA, 95648",629581667,"R"
21775,"102 KNIGHT CT","GEORGETOWN","KY",40324,38.1858854120001,-84.620677943,275,"102 KNIGHT CT, GEORGETOWN, KY, 40324","Match","Exact","102 KNIGHT CT, GEORGETOWN, KY, 40324",41231421,"L"
21776,"102 KNIGHTS BRIDGE DR N","PICKERINGTON","OH",43147,39.887662606,-82.780024533,276,"102 KNIGHTS BRIDGE DR N, PICKERINGTON, OH, 43147","Match","Exact","102 KNIGHTS BRIDGE DR N, PICKERINGTON, OH, 43147",37239077,"R"
21777,"102 KNIGHTWOOD POINT","ACWORTH","GA",30101,34.039399706,-84.7866304199999,277,"102 KNIGHTWOOD POINT, ACWORTH, GA, 30101","Match","Exact","102 KNIGHTWOOD PT, ACWORTH, GA, 30101",207993638,"R"
21778,"102 KNOLL CREST DR","CALIMESA","CA",92320,33.9880090680001,-117.044958733,278,"102 KNOLL CREST DR, CALIMESA, CA, 92320","Match","Exact","102 KNOLL CREST DR, CALIMESA, CA, 92320",646172575,"R"
21779,"102 KOSTER","AMHERST","NY",14226,42.967136188,-78.797823362,279,"102 KOSTER, AMHERST, NY, 14226","Match","Non_Exact","102 KOSTER ROW, AMHERST, NY, 14226",48328679,"R"
21780,"102 KRISTINE STEET","OSWEGO","IL",60543,41.700352837,-88.362503254,280,"102 KRISTINE STEET, OSWEGO, IL, 60543","Match","Exact","102 KRISTINE ST, OSWEGO, IL, 60543",54483999,"L"
21781,"102 KUNZE DR","STCHRLES","MO",63303,38.7511854370001,-90.531483613,281,"102 KUNZE DR, STCHRLES, MO, 63303","Match","Non_Exact","102 KUNZE DR, SAINT CHARLES, MO, 63303",601043087,"R"
21782,"102 LA MESA DR","BAKERSFIELD","CA",93305,35.393164907,-119.000211937,282,"102 LA MESA DR, BAKERSFIELD, CA, 93305","Match","Exact","102 LA MESA DR, BAKERSFIELD, CA, 93305",109088064,"L"
21783,"102 LA VILLA CIRCLE","YOUNGSVILLE","LA",70592,30.131067224,-91.999545481,283,"102 LA VILLA CIRCLE, YOUNGSVILLE, LA, 70592","Match","Exact","102 LA VILLA CIR, YOUNGSVILLE, LA, 70592",643275563,"R"
21784,"102 LAFOURCHE AVENUE","LAROSE","LA",70373,NA,NA,284,"102 LAFOURCHE AVENUE, LAROSE, LA, 70373","No_Match",NA,NA,NA,NA
21785,"102 LAKE DRIVE EAST","WAYNE","NJ",7470,40.9408508700001,-74.251069028,285,"102 LAKE DRIVE EAST, WAYNE, NJ, 7470","Match","Exact","102 LAKE DR E, WAYNE, NJ, 07470",65258553,"L"
21786,"102 LAKE MINNIE DRIVE","SANFORD","FL",32772,28.755030194,-81.295209354,286,"102 LAKE MINNIE DRIVE, SANFORD, FL, 32772","Match","Non_Exact","102 LAKE MINNIE DR, SANFORD, FL, 32773",605420765,"R"
21787,"102 LAKE RIDGE DR","HENDERSONVILLE","PA",37075,NA,NA,287,"102 LAKE RIDGE DR, HENDERSONVILLE, PA, 37075","No_Match",NA,NA,NA,NA
21788,"102 LAKE ST","FLORENCE","MA",1062,42.3418467990001,-72.673456584,288,"102 LAKE ST, FLORENCE, MA, 1062","Match","Exact","102 LAKE ST, FLORENCE, MA, 01062",39848661,"L"
21789,"102 LAKESHORE DRIVE","LAKE CITY","MN",55041,NA,NA,289,"102 LAKESHORE DRIVE, LAKE CITY, MN, 55041","Tie",NA,NA,NA,NA
21790,"102 LAKESHORE DRIVE","RUSSELLVILLE","AR",72802,35.3026594880001,-93.185936714,290,"102 LAKESHORE DRIVE, RUSSELLVILLE, AR, 72802","Match","Non_Exact","102 LAKE SHORE DR, RUSSELLVILLE, AR, 72802",81882813,"R"
21791,"102 LAKESIDE DRIVE","STEPHENS CITY","VA",22655,39.0998591060001,-78.191519805,291,"102 LAKESIDE DRIVE, STEPHENS CITY, VA, 22655","Match","Exact","102 LAKESIDE DR, STEPHENS CITY, VA, 22655",55603661,"R"
21792,"102 LAKEVIEW HTS","ALEXANDRIA","NH",3222,43.585594024,-71.802658976,292,"102 LAKEVIEW HTS, ALEXANDRIA, NH, 3222","Match","Exact","102 LAKEVIEW HTS, ALEXANDRIA, NH, 03222",145692258,"R"
21793,"102 LAKEVILLA AVENUE","SPRINGFIELD","MA",1109,42.1118679800001,-72.5314390949999,293,"102 LAKEVILLA AVENUE, SPRINGFIELD, MA, 1109","Match","Exact","102 LAKEVILLA AVE, SPRINGFIELD, MA, 01109",4036924,"R"
21794,"102 LAKEWOOD DRIVE","CONGERS","NY",10920,41.154141833,-73.931942286,294,"102 LAKEWOOD DRIVE, CONGERS, NY, 10920","Match","Exact","102 LAKEWOOD DR, CONGERS, NY, 10920",124608600,"R"
21795,"102 LAKEWOOD DRIVE","STATESBORO","GA",30458,32.4407474330001,-81.8075648889999,295,"102 LAKEWOOD DRIVE, STATESBORO, GA, 30458","Match","Exact","102 LAKEWOOD DR, STATESBORO, GA, 30458",6139786,"R"
21796,"102 LANDS END","PONTE VERRA","FL",32082,30.170750497,-81.378825822,296,"102 LANDS END, PONTE VERRA, FL, 32082","Match","Non_Exact","102 LANDS END, PONTE VEDRA, FL, 32082",92596993,"R"
21797,"102 LARCH AVENUE SUITE 101F","NEWPORT","DE",19804,39.7149277520001,-75.602263577,297,"102 LARCH AVENUE SUITE 101F, NEWPORT, DE, 19804","Match","Exact","102 LARCH AVE, NEWPORT, DE, 19804",651257124,"R"
21798,"102 LATHROP AVE","FOREST PARK","IL",60130,41.8847974820001,-87.814634617,298,"102 LATHROP AVE, FOREST PARK, IL, 60130","Match","Exact","102 LATHROP AVE, FOREST PARK, IL, 60130",111749617,"R"
21799,"102 LATHROP LANE","GRANTS PASS","OR",97526,42.4526267790001,-123.388260036,299,"102 LATHROP LANE, GRANTS PASS, OR, 97526","Match","Exact","102 LATHROP LN, GRANTS PASS, OR, 97526",156571739,"L"
21800,"102 LAUREL AVENUE","HEMPSTEAD","NY",11550,40.6982899000001,-73.625304161,300,"102 LAUREL AVENUE, HEMPSTEAD, NY, 11550","Match","Exact","102 LAUREL AVE, HEMPSTEAD, NY, 11550",147692146,"L"
21801,"102 LAUREL ST EAST","BEAUFORT","SC",29906,32.4489979200001,-80.766766391,301,"102 LAUREL ST EAST, BEAUFORT, SC, 29906","Match","Exact","102 LAUREL ST E, BEAUFORT, SC, 29906",87605113,"R"
21802,"102 LAURELTON STREET","LAKE BLUFF","IL",60044,42.296239982,-87.8880384399999,302,"102 LAURELTON STREET, LAKE BLUFF, IL, 60044","Match","Non_Exact","102 LAURALTON ST, LAKE BLUFF, IL, 60044",119691662,"R"
21803,"102 LEA DR","BUTLER","PA",16001,40.850943903,-79.966383048,303,"102 LEA DR, BUTLER, PA, 16001","Match","Exact","102 LEA DR, BUTLER, PA, 16001",52688173,"R"
21804,"102 LEE DRIVE","RICHMOND","KY",40475,37.8238424410001,-84.3154542999999,304,"102 LEE DRIVE, RICHMOND, KY, 40475","Match","Exact","102 LEE DR, RICHMOND, KY, 40475",31991921,"R"
21805,"102 LEE LANE","BELLVILLE","TX",77418,29.9365792830001,-96.263649927,305,"102 LEE LANE, BELLVILLE, TX, 77418","Match","Exact","102 LEE LN, BELLVILLE, TX, 77418",41825002,"L"
21806,"102 LEONARD AVE","NEWTON","NC",28658,35.6444863070001,-81.184624459,306,"102 LEONARD AVE, NEWTON, NC, 28658","Match","Exact","102 LEONARD AVE, NEWTON, NC, 28658",45950746,"L"
21807,"102 LEONDA","BEAUFORT","NC",28516,34.7117877860001,-76.6438887589999,307,"102 LEONDA, BEAUFORT, NC, 28516","Match","Non_Exact","102 LEONDA DR, BEAUFORT, NC, 28516",33862169,"R"
21808,"102 LEVITCH RD","NEWPORT","WA",99156,48.2321965180001,-117.160688129,308,"102 LEVITCH RD, NEWPORT, WA, 99156","Match","Exact","102 LEVITCH RD, NEWPORT, WA, 99156",638455494,"R"
21809,"102 LEWISTON CT","FAYETTEVILLE","NC",28314,35.0797967890001,-79.0085998979999,309,"102 LEWISTON CT, FAYETTEVILLE, NC, 28314","Match","Exact","102 LEWISTON CT, FAYETTEVILLE, NC, 28314",64193926,"L"
21810,"102 LEXINGTON DRIVE","ATHENS","AL",35613,34.777076041,-86.935053852,310,"102 LEXINGTON DRIVE, ATHENS, AL, 35613","Match","Exact","102 LEXINGTON DR, ATHENS, AL, 35613",95260316,"L"
21811,"102 LEXINGTON STREET","BRISTOL","CT",6010,41.6900858970001,-72.940632149,311,"102 LEXINGTON STREET, BRISTOL, CT, 6010","Match","Exact","102 LEXINGTON ST, BRISTOL, CT, 06010",3504829,"R"
21812,"102 LIBERTY WAY","AMITYVILLE","NY",11701,40.7091438590001,-73.4045052009999,312,"102 LIBERTY WAY, AMITYVILLE, NY, 11701","Match","Exact","102 LIBERTY WAY, AMITYVILLE, NY, 11701",648212002,"L"
21813,"102 LIBHART ST","LYONS","MI",48851,42.9817825420001,-84.956183992,313,"102 LIBHART ST, LYONS, MI, 48851","Match","Exact","102 LIBHART ST, LYONS, MI, 48851",12142380,"R"
21814,"102 LIGHTHOUSE WAY N","MANISTEE","MI",49660,44.2457342370001,-86.3377222,314,"102 LIGHTHOUSE WAY N, MANISTEE, MI, 49660","Match","Non_Exact","102 LIGHT HOUSE WAY S, MANISTEE, MI, 49660",628677275,"L"
21815,"102 LIGHTNING SPRINGS ROAD","PROTEM","MO",65733,36.538325408,-92.784820742,315,"102 LIGHTNING SPRINGS ROAD, PROTEM, MO, 65733","Match","Non_Exact","102 LIGHTENING SPRINGS RD, PROTEM, MO, 65733",20160416,"R"
21816,"102 LINDA CIRCLE","DOWNINGTOWN","PA",19335,40.0457814430001,-75.704390758,316,"102 LINDA CIRCLE, DOWNINGTOWN, PA, 19335","Match","Exact","102 LINDA CIR, DOWNINGTOWN, PA, 19335",179514365,"R"
21817,"102 LINDEN RIDGE ROAD","LAUREL","MD",20724,39.108929963,-76.806928018,317,"102 LINDEN RIDGE ROAD, LAUREL, MD, 20724","Match","Exact","102 LINDEN RIDGE RD, LAUREL, MD, 20724",617603829,"L"
21818,"102 LINDLEY AVE","SUMTER","SC",29150,33.9312720020001,-80.3731917009999,318,"102 LINDLEY AVE, SUMTER, SC, 29150","Match","Exact","102 LINDLEY AVE, SUMTER, SC, 29150",202669292,"L"
21819,"102 LITTLE ACRES DR","PALATKA","FL",32177,29.648608143,-81.663848098,319,"102 LITTLE ACRES DR, PALATKA, FL, 32177","Match","Exact","102 LITTLE ACRES DR, PALATKA, FL, 32177",647548886,"L"
21820,"102 LITTLE REDE COURT","EIGHTY FOUR","PA",15330,40.244302362,-80.077267945,320,"102 LITTLE REDE COURT, EIGHTY FOUR, PA, 15330","Match","Exact","102 LITTLE REDE CT, EIGHTY FOUR, PA, 15330",612037396,"L"
21821,"102 LIVERPOOL LANE","MARTINSBURG","WV",25405,39.4245454300001,-77.910619002,321,"102 LIVERPOOL LANE, MARTINSBURG, WV, 25405","Match","Exact","102 LIVERPOOL LN, MARTINSBURG, WV, 25405",641533157,"R"
21822,"102 LOMITA DRIVE","MILL VALLEY","CA",94941,37.906336965,-122.52455519,322,"102 LOMITA DRIVE, MILL VALLEY, CA, 94941","Match","Exact","102 LOMITA DR, MILL VALLEY, CA, 94941",192780804,"R"
21823,"102 LONGDALE ROAD","LUTHERVILLE-TIMONIUM","MD",21093,39.442621629,-76.617895672,323,"102 LONGDALE ROAD, LUTHERVILLE-TIMONIUM, MD, 21093","Match","Exact","102 LONGDALE RD, LUTHERVILLE TIMONIUM, MD, 21093",191471420,"L"
21824,"102 LONGFELLOW STREET NW","WASHINGTON","DC",20011,38.957655749,-77.0117637119999,324,"102 LONGFELLOW STREET NW, WASHINGTON, DC, 20011","Match","Exact","102 LONGFELLOW ST NW, WASHINGTON, DC, 20011",76223743,"L"
21825,"102 LONGLEAF CT","ANDALUSIA","AL",36421,31.3424282920001,-86.435648472,325,"102 LONGLEAF CT, ANDALUSIA, AL, 36421","Match","Non_Exact","102 LONG LEAF DR, ANDALUSIA, AL, 36421",1867165,"R"
21826,"102 LONGVIEW DR","WALDWICK","NJ",7463,41.015328921,-74.146281765,326,"102 LONGVIEW DR, WALDWICK, NJ, 7463","Match","Exact","102 LONGVIEW DR, WALDWICK, NJ, 07463",64402597,"R"
21827,"102 LONGVIEW WAY N","PALM COAST","FL",32137,29.589138845,-81.1977760949999,327,"102 LONGVIEW WAY N, PALM COAST, FL, 32137","Match","Exact","102 LONGVIEW WAY N, PALM COAST, FL, 32137",610658564,"L"
21828,"102 LOOKING GLASS AVE SUITE 32","OFFUTT AFB","NE",68113,NA,NA,328,"102 LOOKING GLASS AVE SUITE 32, OFFUTT AFB, NE, 68113","No_Match",NA,NA,NA,NA
21829,"102 LOOKOUT LN","GEORGETOWN","KY",40324,38.239291872,-84.5814007829999,329,"102 LOOKOUT LN, GEORGETOWN, KY, 40324","Match","Exact","102 LOOKOUT LN, GEORGETOWN, KY, 40324",41250618,"L"
21830,"102 LORETTA ST","HOPELAWN","NJ",8861,40.525042704,-74.293875844,330,"102 LORETTA ST, HOPELAWN, NJ, 8861","Match","Exact","102 LORETTA ST, HOPELAWN, NJ, 08861",60319273,"R"
21831,"102 LORI DR","NISKAYUNA","NY",12309,42.774663848,-73.842440863,331,"102 LORI DR, NISKAYUNA, NY, 12309","Match","Exact","102 LORI DR, NISKAYUNA, NY, 12309",18035871,"L"
21832,"102 LOUIS STREET","WARNER ROBINS","GA",31093,32.6250828550001,-83.646273959,332,"102 LOUIS STREET, WARNER ROBINS, GA, 31093","Match","Exact","102 LOUIS ST, WARNER ROBINS, GA, 31093",91234372,"R"
21833,"102 LOUNSBURY DRIVE","RAYNHAM","MA",2767,41.9469107800001,-71.0511793329999,333,"102 LOUNSBURY DRIVE, RAYNHAM, MA, 2767","Match","Exact","102 LOUNSBURY DR, RAYNHAM, MA, 02767",46782561,"L"
21834,"102 LUSK STREET","LIBERTY","SC",29657,NA,NA,334,"102 LUSK STREET, LIBERTY, SC, 29657","No_Match",NA,NA,NA,NA
21835,"102 LYON STREET","NEW HAVEN","CT",6511,41.3085151550001,-72.917361469,335,"102 LYON STREET, NEW HAVEN, CT, 6511","Match","Exact","102 LYON ST, NEW HAVEN, CT, 06511",3701494,"L"
21836,"102 MABE RD","PLUM BRANCH","SC",29845,33.8144026620001,-82.267133429,336,"102 MABE RD, PLUM BRANCH, SC, 29845","Match","Exact","102 MABE RD, PLUM BRANCH, SC, 29845",50925490,"R"
21837,"102 MADISON 6003","ELKINS","AR",72727,36.0197771520001,-93.9457058579999,337,"102 MADISON 6003, ELKINS, AR, 72727","Match","Exact","102 MADISON 6003, ELKINS, AR, 72727",48938568,"R"
21838,"102 MADISON RIDGE ROAD","PIEDMONT","SC",29673,34.7298472520001,-82.4727865089999,338,"102 MADISON RIDGE ROAD, PIEDMONT, SC, 29673","Match","Exact","102 MADISON RIDGE RD, PIEDMONT, SC, 29673",25472454,"R"
21839,"102 MAGNOLIA AVENUE","CRESSKILL","NJ",7626,40.9397572140001,-73.968923861,339,"102 MAGNOLIA AVENUE, CRESSKILL, NJ, 7626","Match","Exact","102 MAGNOLIA AVE, CRESSKILL, NJ, 07626",64373738,"L"
21840,"102 MAGNOLIA LANE","DANIELS","WV",25832,37.7175179590001,-81.064622379,340,"102 MAGNOLIA LANE, DANIELS, WV, 25832","Match","Exact","102 MAGNOLIA LN, DANIELS, WV, 25832",78829939,"R"
21841,"102 MAGNOLIA LANE","EAST STROUDSBURG","PA",18301,NA,NA,341,"102 MAGNOLIA LANE, EAST STROUDSBURG, PA, 18301","No_Match",NA,NA,NA,NA
21842,"102 MAGNOLIA STREET","NEPTUNE BEACH","FL",32266,30.316064258,-81.394477405,342,"102 MAGNOLIA STREET, NEPTUNE BEACH, FL, 32266","Match","Exact","102 MAGNOLIA ST, NEPTUNE BEACH, FL, 32266",642491393,"R"
21843,"102 MAGOWAN AVE","HAMILTON","NJ",8619,40.2391156580001,-74.712510004,343,"102 MAGOWAN AVE, HAMILTON, NJ, 8619","Match","Exact","102 MAGOWAN AVE, HAMILTON, NJ, 08619",60182766,"R"
21844,"102 MAHOGANY DRIVE","RICHMOND","KY",40475,37.7165284710001,-84.353897149,344,"102 MAHOGANY DRIVE, RICHMOND, KY, 40475","Match","Exact","102 MAHOGANY DR, RICHMOND, KY, 40475",32010126,"L"
21845,"102 MAIN ST SUITE 1","CEDAR FALLS","IA",50613,42.5377442500001,-92.4454538589999,345,"102 MAIN ST SUITE 1, CEDAR FALLS, IA, 50613","Match","Exact","102 MAIN ST, CEDAR FALLS, IA, 50613",77248330,"L"
21846,"102 MAIN ST SUITE 225","LAGRANGE","GA",30240,33.039442293,-85.031099266,346,"102 MAIN ST SUITE 225, LAGRANGE, GA, 30240","Match","Exact","102 MAIN ST, LAGRANGE, GA, 30240",1760541,"R"
21847,"102 MAIN ST","EXETER","NH",3833,42.983012747,-70.9600475249999,347,"102 MAIN ST, EXETER, NH, 3833","Match","Exact","102 MAIN ST, EXETER, NH, 03833",113673599,"L"
21848,"102 MAIN ST","GREENVILLE","SC",29601,NA,NA,348,"102 MAIN ST, GREENVILLE, SC, 29601","Tie",NA,NA,NA,NA
21849,"102 MAIN ST","POINT PLEASANT","WV",25550,38.8397625810001,-82.139980913,349,"102 MAIN ST, POINT PLEASANT, WV, 25550","Match","Exact","102 MAIN ST, POINT PLEASANT, WV, 25550",101821765,"R"
21850,"102 MAIN STREET 3F","IRVINGTON","NY",10533,41.0391157770001,-73.867291404,350,"102 MAIN STREET 3F, IRVINGTON, NY, 10533","Match","Exact","102 MAIN ST, IRVINGTON, NY, 10533",139840328,"R"
21851,"102 MAIN STREET PO BOX 215","WALDORF","MN",56091,43.9338409120001,-93.697599726,351,"102 MAIN STREET PO BOX 215, WALDORF, MN, 56091","Match","Exact","102 MAIN ST, WALDORF, MN, 56091",28718695,"L"
21852,"102 MAIN STREET","ABSARAKA","ND",58002,46.977836369,-97.389008116,352,"102 MAIN STREET, ABSARAKA, ND, 58002","Match","Exact","102 MAIN ST, ABSARAKA, ND, 58002",649713654,"L"
21853,"102 MAIN STREET","BALTIC","CT",6330,41.6156565490001,-72.081866917,353,"102 MAIN STREET, BALTIC, CT, 6330","Match","Exact","102 MAIN ST, BALTIC, CT, 06330",56845194,"R"
21854,"102 MAIN STREET","INDIANOLA","OK",74442,NA,NA,354,"102 MAIN STREET, INDIANOLA, OK, 74442","No_Match",NA,NA,NA,NA
21855,"102 MAIN STREET","RINDGE","NH",3461,42.7542389050001,-72.013939046,355,"102 MAIN STREET, RINDGE, NH, 3461","Match","Exact","102 MAIN ST, RINDGE, NH, 03461",124081907,"L"
21856,"102 MAIN STREET","WARRENTON","VA",20186,38.712387554,-77.792720265,356,"102 MAIN STREET, WARRENTON, VA, 20186","Match","Exact","102 MAIN ST, WARRENTON, VA, 20186",146258472,"L"
21857,"102 MAIN STREET","WAYLAND","KY",41666,NA,NA,357,"102 MAIN STREET, WAYLAND, KY, 41666","No_Match",NA,NA,NA,NA
21858,"102 MALAPARDIS ROAD","CEDAR KNOLLS","NJ",7929,NA,NA,358,"102 MALAPARDIS ROAD, CEDAR KNOLLS, NJ, 7929","No_Match",NA,NA,NA,NA
21859,"102 MALI DR","NORTH PLAINFIELD","NJ",7060,NA,NA,359,"102 MALI DR, NORTH PLAINFIELD, NJ, 7060","No_Match",NA,NA,NA,NA
21860,"102 MANDARIN DR","PIKEVILLE","NC",27863,35.482278321,-78.023397481,360,"102 MANDARIN DR, PIKEVILLE, NC, 27863","Match","Exact","102 MANDARIN DR, PIKEVILLE, NC, 27863",636104265,"R"
21861,"102 MAPLE AVENUE","CORTLAND","NY",13045,42.602817111,-76.1880351729999,361,"102 MAPLE AVENUE, CORTLAND, NY, 13045","Match","Exact","102 MAPLE AVE, CORTLAND, NY, 13045",45803940,"L"
21862,"102 MAPLE ST","WADESBORO","NC",28170,34.9567112350001,-80.031510892,362,"102 MAPLE ST, WADESBORO, NC, 28170","Match","Exact","102 MAPLE ST, WADESBORO, NC, 28170",12781726,"R"
21863,"102 MAPLE STREET","ELGIN","OK",73538,34.775560394,-98.286573556,363,"102 MAPLE STREET, ELGIN, OK, 73538","Match","Non_Exact","102 MAPLE AVE, ELGIN, OK, 73538",14981793,"R"
21864,"102 MARGARET DRIVE","CREEDMOOR","NC",27522,36.1244750660001,-78.6996106719999,364,"102 MARGARET DRIVE, CREEDMOOR, NC, 27522","Match","Exact","102 MARGARET DR, CREEDMOOR, NC, 27522",611856684,"R"
21865,"102 MARKHAM DR","CHAPEL HILL","NC",27514,35.941606458,-79.0282577579999,365,"102 MARKHAM DR, CHAPEL HILL, NC, 27514","Match","Exact","102 MARKHAM DR, CHAPEL HILL, NC, 27514",637647238,"R"
21866,"102 MARKLEY LANE","COATESVILLE","PA",19320,40.053618203,-75.850248553,366,"102 MARKLEY LANE, COATESVILLE, PA, 19320","Match","Exact","102 MARKLEY LN, COATESVILLE, PA, 19320",179525618,"L"
21867,"102 MARLBOROUGH ST","PORTLAND","CT",6480,41.571491844,-72.636491453,367,"102 MARLBOROUGH ST, PORTLAND, CT, 6480","Match","Exact","102 MARLBOROUGH ST, PORTLAND, CT, 06480",113887673,"L"
21868,"102 MARSALA COURT","FLORISSANT","MO",63031,38.8073987940001,-90.3796430419999,368,"102 MARSALA COURT, FLORISSANT, MO, 63031","Match","Exact","102 MARSALA CT, FLORISSANT, MO, 63031",100162240,"L"
21869,"102 MARTHAS LP","CUSSETA","GA",31805,32.2919859570001,-84.718338498,369,"102 MARTHAS LP, CUSSETA, GA, 31805","Match","Non_Exact","102 MARTHA'S LOOP, CUSSETA, GA, 31805",627539787,"R"
21870,"102 MARTIN DRIVE","HENDERSONVILLE","TN",37075,36.301750086,-86.604141172,370,"102 MARTIN DRIVE, HENDERSONVILLE, TN, 37075","Match","Exact","102 MARTIN DR, HENDERSONVILLE, TN, 37075",29783018,"R"
21871,"102 MARTIN","JUNCTION","TX",76849,30.4924127130001,-99.774671406,371,"102 MARTIN, JUNCTION, TX, 76849","Match","Non_Exact","102 MARTIN DR, JUNCTION, TX, 76849",173453585,"R"
21872,"102 MARTINSBURG RD","MOUNT VERNON","OH",43050,40.3808390040001,-82.482285254,372,"102 MARTINSBURG RD, MOUNT VERNON, OH, 43050","Match","Exact","102 MARTINSBURG RD, MOUNT VERNON, OH, 43050",647918751,"R"
21873,"102 MARY BETH AVENUE","HOUMA","LA",70364,29.667036938,-90.7107535219999,373,"102 MARY BETH AVENUE, HOUMA, LA, 70364","Match","Exact","102 MARY BETH AVE, HOUMA, LA, 70364",647360111,"L"
21874,"102 MARY DIANE","SAN ANTONIO","TX",78223,NA,NA,374,"102 MARY DIANE, SAN ANTONIO, TX, 78223","No_Match",NA,NA,NA,NA
21875,"102 MARYS LANE","WEATHERFORD","TX",76086,32.741919395,-97.821795196,375,"102 MARYS LANE, WEATHERFORD, TX, 76086","Match","Exact","102 MARYS LN, WEATHERFORD, TX, 76086",103595966,"R"
21876,"102 MASONIC ST","MONROE","LA",71203,32.5233784100001,-92.078099444,376,"102 MASONIC ST, MONROE, LA, 71203","Match","Exact","102 MASONIC ST, MONROE, LA, 71203",161086706,"R"
21877,"102 MATHER SMITH DR BOX 1112","OAKLAND","FL",34760,28.557996598,-81.626408015,377,"102 MATHER SMITH DR BOX 1112, OAKLAND, FL, 34760","Match","Exact","102 MATHER SMITH DR, OAKLAND, FL, 34760",94326095,"L"
21878,"102 MATHER SMITH DR BOX 342","OAKLAND","FL",34760,28.557996598,-81.626408015,378,"102 MATHER SMITH DR BOX 342, OAKLAND, FL, 34760","Match","Exact","102 MATHER SMITH DR, OAKLAND, FL, 34760",94326095,"L"
21879,"102 MAVERICK DR","HARVEST","AL",35749,34.849840768,-86.721993797,379,"102 MAVERICK DR, HARVEST, AL, 35749","Match","Exact","102 MAVERICK DR, HARVEST, AL, 35749",58194014,"L"
21880,"102 MAXWELL COURT","VINE GROVE","KY",40175,37.8470536230001,-85.974506187,380,"102 MAXWELL COURT, VINE GROVE, KY, 40175","Match","Exact","102 MAXWELL CT, VINE GROVE, KY, 40175",646623269,"R"
21881,"102 MAYFAIR AVENUE","VALLEJO","CA",94591,38.1109059560001,-122.226676562,381,"102 MAYFAIR AVENUE, VALLEJO, CA, 94591","Match","Exact","102 MAYFAIR AVE, VALLEJO, CA, 94591",192528504,"L"
21882,"102 MAYFAIR ST","OCEANSIDE","CA",92058,33.2230149700001,-117.335877795,382,"102 MAYFAIR ST, OCEANSIDE, CA, 92058","Match","Exact","102 MAYFAIR ST, OCEANSIDE, CA, 92058",195284356,"L"
21883,"102 MAYFLOWER COURT","ROANOKE RAPIDS","NC",27870,36.45846147,-77.640096737,383,"102 MAYFLOWER COURT, ROANOKE RAPIDS, NC, 27870","Match","Exact","102 MAYFLOWER CT, ROANOKE RAPIDS, NC, 27870",56726779,"L"
21884,"102 MAYWEED DR","DURHAM","NC",27705,35.9842986850001,-78.9622513639999,384,"102 MAYWEED DR, DURHAM, NC, 27705","Match","Exact","102 MAYWEED DR, DURHAM, NC, 27705",651422518,"R"
21885,"102 MCCANTS DRIVE","MONCKS CORNER","SC",29461,33.2050992600001,-80.028442188,385,"102 MCCANTS DRIVE, MONCKS CORNER, SC, 29461","Match","Exact","102 MCCANTS DR, MONCKS CORNER, SC, 29461",100737996,"R"
21886,"102 MCCLAY RD","WINFIELD","MO",63388,39.032577933,-90.7908819689999,386,"102 MCCLAY RD, WINFIELD, MO, 63388","Match","Non_Exact","102 MCCLAY RD, WINFIELD, MO, 63389",649177263,"R"
21887,"102 MCCLAY VILLAGE DRIVE","SAINT PETERS","MO",63376,38.7565242320001,-90.573721959,387,"102 MCCLAY VILLAGE DRIVE, SAINT PETERS, MO, 63376","Match","Exact","102 MCCLAY VILLAGE DR, SAINT PETERS, MO, 63376",100056315,"R"
21888,"102 MCCOY LANE","BATTLE MOUNTAIN","NV",89820,40.6362658900001,-116.95425716,388,"102 MCCOY LANE, BATTLE MOUNTAIN, NV, 89820","Match","Exact","102 MCCOY LN, BATTLE MOUNTAIN, NV, 89820",140247241,"L"
21889,"102 MEADE AVE","LINCOLN","AR",72744,35.949536998,-94.4162677319999,389,"102 MEADE AVE, LINCOLN, AR, 72744","Match","Exact","102 MEADE AVE, LINCOLN, AR, 72744",49036360,"R"
21890,"102 MEADOW BROOK DR","BROUSSARD","LA",70518,30.1463474290001,-91.9764010439999,390,"102 MEADOW BROOK DR, BROUSSARD, LA, 70518","Match","Non_Exact","102 MEADOWBROOK DR, BROUSSARD, LA, 70518",642936248,"R"
21891,"102 MEADOW PLACE","LESTER","WV",25865,37.7737311590001,-81.372702009,391,"102 MEADOW PLACE, LESTER, WV, 25865","Match","Exact","102 MEADOW PL, LESTER, WV, 25865",78828239,"R"
21892,"102 MEADOWCREST LANE","THAXTON","VA",24174,37.32870117,-79.685343727,392,"102 MEADOWCREST LANE, THAXTON, VA, 24174","Match","Exact","102 MEADOWCREST LN, THAXTON, VA, 24174",62649869,"R"
21893,"102 MEADOWGATE DRIVE","FOREST","VA",24551,37.411149112,-79.3214198109999,393,"102 MEADOWGATE DRIVE, FOREST, VA, 24551","Match","Exact","102 MEADOWGATE DR, FOREST, VA, 24551",62667617,"R"
21894,"102 MEADOWS DR","BIRMINGHAM","AL",35215,33.5992832920001,-86.646694667,394,"102 MEADOWS DR, BIRMINGHAM, AL, 35215","Match","Non_Exact","102 MEADOWS DR, BIRMINGHAM, AL, 35235",631941280,"L"
21895,"102 MECHANIC ST PO BOX 589","ANTWERP","NY",13608,44.1978423560001,-75.6129850689999,395,"102 MECHANIC ST PO BOX 589, ANTWERP, NY, 13608","Match","Exact","102 MECHANIC ST, ANTWERP, NY, 13608",640583142,"L"
21896,"102 MEDFORD RD","RIDGE","NY",11961,40.8837232770001,-72.9011645579999,396,"102 MEDFORD RD, RIDGE, NY, 11961","Match","Exact","102 MEDFORD RD, RIDGE, NY, 11961",114017314,"R"
21897,"102 MELODY LANE","BAY ST. LOUIS","MS",39520,30.3294608950001,-89.339214372,397,"102 MELODY LANE, BAY ST. LOUIS, MS, 39520","Match","Exact","102 MELODY LN, BAY SAINT LOUIS, MS, 39520",111150469,"R"
21898,"102 MEMORY LANE","MADISON","MS",39110,32.531777429,-90.1497271969999,398,"102 MEMORY LANE, MADISON, MS, 39110","Match","Exact","102 MEMORY LN, MADISON, MS, 39110",627556279,"L"
21899,"102 MERCURY DRIVE","ROCHESTER","NY",14624,43.134485281,-77.7429366499999,399,"102 MERCURY DRIVE, ROCHESTER, NY, 14624","Match","Exact","102 MERCURY DR, ROCHESTER, NY, 14624",14575620,"R"
21900,"102 METACOMET DR","MERIDEN","CT",6450,41.5405060750001,-72.762459941,400,"102 METACOMET DR, MERIDEN, CT, 6450","Match","Exact","102 METACOMET DR, MERIDEN, CT, 06450",3724739,"R"
21901,"102 MIDLAND ST","LOWELL","MA",1851,42.6233098800001,-71.327636403,401,"102 MIDLAND ST, LOWELL, MA, 1851","Match","Exact","102 MIDLAND ST, LOWELL, MA, 01851",86893877,"L"
21902,"102 MIDLAND STREET","LOWELL","MA",1851,42.6233098800001,-71.327636403,402,"102 MIDLAND STREET, LOWELL, MA, 1851","Match","Exact","102 MIDLAND ST, LOWELL, MA, 01851",86893877,"L"
21903,"102 MIDYETTE AVE","NEW BERN","NC",28560,35.132660817,-77.1041701789999,403,"102 MIDYETTE AVE, NEW BERN, NC, 28560","Match","Exact","102 MIDYETTE AVE, NEW BERN, NC, 28560",630205524,"L"
21904,"102 MILDRED WAY","MADISON","AL",35756,34.702529358,-86.78960218,404,"102 MILDRED WAY, MADISON, AL, 35756","Match","Exact","102 MILDRED WAY, MADISON, AL, 35756",624843548,"R"
21905,"102 MILL ROAD","STONE RIDGE","NY",12484,41.883055557,-74.2093475839999,405,"102 MILL ROAD, STONE RIDGE, NY, 12484","Match","Exact","102 MILL RD, STONE RIDGE, NY, 12484",648151140,"L"
21906,"102 MILLSTONE ROAD","MILLSTONE TOWNSHIP","NJ",8535,40.24844539,-74.4212467139999,406,"102 MILLSTONE ROAD, MILLSTONE TOWNSHIP, NJ, 8535","Match","Exact","102 MILLSTONE RD, MILLSTONE TOWNSHIP, NJ, 08535",90481699,"R"
21907,"102 MILTON RD","FARMINGTON","NH",3835,43.407055019,-71.058338867,407,"102 MILTON RD, FARMINGTON, NH, 3835","Match","Exact","102 MILTON RD, FARMINGTON, NH, 03835",117814110,"L"
21908,"102 MISTY MESA TRAIL","MANSFIELD","TX",76063,32.6082229300001,-97.138947824,408,"102 MISTY MESA TRAIL, MANSFIELD, TX, 76063","Match","Exact","102 MISTY MESA TRL, MANSFIELD, TX, 76063",641344240,"L"
21909,"102 MITCHELLS CT","MAHTOMEDI","MN",55115,45.0529452550001,-92.983969675,409,"102 MITCHELLS CT, MAHTOMEDI, MN, 55115","Match","Non_Exact","102 MITCHEL'S CT, MAHTOMEDI, MN, 55115",97803173,"R"
21910,"102 MONTERREY BEND","MONTGOMERY","TX",77316,30.275706459,-95.555768754,410,"102 MONTERREY BEND, MONTGOMERY, TX, 77316","Match","Exact","102 MONTERREY BEND, MONTGOMERY, TX, 77316",641129017,"R"
21911,"102 MONTGOMERY ST APT 3B","HIGHLAND PARK","NJ",8904,40.499556999,-74.433295072,411,"102 MONTGOMERY ST APT 3B, HIGHLAND PARK, NJ, 8904","Match","Exact","102 MONTGOMERY ST, HIGHLAND PARK, NJ, 08904",60265498,"R"
21912,"102 MONTICELLO LANE","MADISON HEIGHTS","VA",24572,37.45393749,-79.07966576,412,"102 MONTICELLO LANE, MADISON HEIGHTS, VA, 24572","Match","Exact","102 MONTICELLO LN, MADISON HEIGHTS, VA, 24572",159108927,"R"
21913,"102 MOOREFIELD PLACE","SCOTT DEPOT","WV",25560,38.447489746,-81.9174803939999,413,"102 MOOREFIELD PLACE, SCOTT DEPOT, WV, 25560","Match","Exact","102 MOOREFIELD PL, SCOTT DEPOT, WV, 25560",130516405,"L"
21914,"102 MORGAN BAY ROAD","SURRY","ME",4684,44.487343803,-68.5039145979999,414,"102 MORGAN BAY ROAD, SURRY, ME, 4684","Match","Exact","102 MORGAN BAY RD, SURRY, ME, 04684",110284940,"R"
21915,"102 MORGAN ROAD","GREENVILLE","MS",38701,33.3007972770001,-91.0773834569999,415,"102 MORGAN ROAD, GREENVILLE, MS, 38701","Match","Exact","102 MORGAN RD, GREENVILLE, MS, 38701",649578656,"R"
21916,"102 MORPHY AVE","FAIRHOPE","AL",36532,30.5207337410001,-87.909135513,416,"102 MORPHY AVE, FAIRHOPE, AL, 36532","Match","Exact","102 MORPHY AVE, FAIRHOPE, AL, 36532",131649522,"R"
21917,"102 MORRIS CIRCLE","HOUSTON","MS",38851,33.890165262,-88.990354442,417,"102 MORRIS CIRCLE, HOUSTON, MS, 38851","Match","Exact","102 MORRIS CIR, HOUSTON, MS, 38851",76935050,"R"
21918,"102 MORRIS DRIVE APT303","LAUREL","MD",20707,39.0943551350001,-76.845093596,418,"102 MORRIS DRIVE APT303, LAUREL, MD, 20707","Match","Exact","102 MORRIS DR, LAUREL, MD, 20707",76326331,"R"
21919,"102 MOSELLE DRIVE","CLINTON","MS",39056,32.3199146810001,-90.346330229,419,"102 MOSELLE DRIVE, CLINTON, MS, 39056","Match","Exact","102 MOSELLE DR, CLINTON, MS, 39056",65383309,"R"
21920,"102 MOUNTAIN DR","STONE MOUNTAIN","GA",30083,33.80509219,-84.090770387,420,"102 MOUNTAIN DR, STONE MOUNTAIN, GA, 30083","Match","Non_Exact","102 MOUNTAIN DR, STONE MOUNTAIN, GA, 30087",88888180,"L"
21921,"102 MOUNTAIN VIEW HEIGHTS","STUART","VA",24171,36.6449959350001,-80.2767771759999,421,"102 MOUNTAIN VIEW HEIGHTS, STUART, VA, 24171","Match","Exact","102 MOUNTAIN VIEW HTS, STUART, VA, 24171",56549797,"R"
21922,"102 MOUNTAIN WALK  61","BROOKLYN","NY",11205,NA,NA,422,"102 MOUNTAIN WALK  61, BROOKLYN, NY, 11205","No_Match",NA,NA,NA,NA
21923,"102 MOUNTAINSIDE WAY","GREENVILLE","SC",29609,34.904979757,-82.39449425,423,"102 MOUNTAINSIDE WAY, GREENVILLE, SC, 29609","Match","Exact","102 MOUNTAINSIDE WAY, GREENVILLE, SC, 29609",38336842,"R"
21924,"102 MUIRWOOD VILLAGE DRIVE","DELAWARE","OH",43015,40.311910105,-83.0980246399999,424,"102 MUIRWOOD VILLAGE DRIVE, DELAWARE, OH, 43015","Match","Exact","102 MUIRWOOD VILLAGE DR, DELAWARE, OH, 43015",24594010,"L"
21925,"102 MURANO AVE","MARLBORO","NJ",8831,NA,NA,425,"102 MURANO AVE, MARLBORO, NJ, 8831","No_Match",NA,NA,NA,NA
21926,"102 MURRAY AVE","HONEA PATH","SC",29654,34.4402903100001,-82.404883964,426,"102 MURRAY AVE, HONEA PATH, SC, 29654","Match","Exact","102 MURRAY AVE, HONEA PATH, SC, 29654",25437305,"R"
21927,"102 MUSKET LANE","DURHAM","NC",27705,36.0246914580001,-78.975757372,427,"102 MUSKET LANE, DURHAM, NC, 27705","Match","Exact","102 MUSKET LN, DURHAM, NC, 27705",618108142,"L"
21928,"102 MYERS DRIVE","COLUMBIA","KY",42728,37.0990807950001,-85.298060982,428,"102 MYERS DRIVE, COLUMBIA, KY, 42728","Match","Exact","102 MYERS DR, COLUMBIA, KY, 42728",39044477,"L"
21929,"102 N 21ST ST","WHEELING","WV",26003,40.1213571690001,-80.700156954,429,"102 N 21ST ST, WHEELING, WV, 26003","Match","Exact","102 N 21ST ST, WHEELING, WV, 26003",38088027,"L"
21930,"102 N 29TH","GATESVILLE","TX",76528,31.4349698870001,-97.718324167,430,"102 N 29TH, GATESVILLE, TX, 76528","Match","Non_Exact","102 N 29TH ST, GATESVILLE, TX, 76528",146557720,"R"
21931,"102 N 2ND ST","OZARK","MO",65721,37.020066232,-93.205727731,431,"102 N 2ND ST, OZARK, MO, 65721","Match","Exact","102 N 2ND ST, OZARK, MO, 65721",99813706,"L"
21932,"102 N 3RD STREET","LAFAYETTE","IN",47901,40.418320443,-86.894236442,432,"102 N 3RD STREET, LAFAYETTE, IN, 47901","Match","Exact","102 N 3RD ST, LAFAYETTE, IN, 47901",27306020,"L"
21933,"102 N 7TH STREE","SANTA ROSA BEACH","FL",32459,30.4021568800001,-86.2263314849999,433,"102 N 7TH STREE, SANTA ROSA BEACH, FL, 32459","Match","Non_Exact","102 7TH ST, SANTA ROSA BEACH, FL, 32459",32993436,"L"
21934,"102 N 85 PKWY STE D","FAYETTEVILLE","GA",30214,33.484838246,-84.4337400169999,434,"102 N 85 PKWY STE D, FAYETTEVILLE, GA, 30214","Match","Non_Exact","102 N 85TH PKWY, FAYETTEVILLE, GA, 30214",638400352,"L"
21935,"102 N 86TH AVE","YAKIMA","WA",98908,46.598627976,-120.621962436,435,"102 N 86TH AVE, YAKIMA, WA, 98908","Match","Exact","102 N 86TH AVE, YAKIMA, WA, 98908",184966674,"L"
21936,"102 N AVENUE","LUBBOCK","TX",79415,NA,NA,436,"102 N AVENUE, LUBBOCK, TX, 79415","Tie",NA,NA,NA,NA
21937,"102 N AVERY RD NW","ROME","GA",30165,34.266344981,-85.287967344,437,"102 N AVERY RD NW, ROME, GA, 30165","Match","Exact","102 N AVERY RD NW, ROME, GA, 30165",30715632,"R"
21938,"102 N BLAKELY ST NUM 212","DUNMORE","PA",18512,41.42192205,-75.6303689439999,438,"102 N BLAKELY ST NUM 212, DUNMORE, PA, 18512","Match","Exact","102 BLAKELY ST, DUNMORE, PA, 18512",139326761,"R"
21939,"102 N CHELSEA AVE","ATLANTIC CITY","NJ",8401,39.355306408,-74.4500407369999,439,"102 N CHELSEA AVE, ATLANTIC CITY, NJ, 8401","Match","Exact","102 N CHELSEA AVE, ATLANTIC CITY, NJ, 08401",202503346,"L"
21940,"102 N CHELSEA AVENUE","ATLANTIC CITY","NJ",8401,39.355306408,-74.4500407369999,440,"102 N CHELSEA AVENUE, ATLANTIC CITY, NJ, 8401","Match","Exact","102 N CHELSEA AVE, ATLANTIC CITY, NJ, 08401",202503346,"L"
21941,"102 N CHESTNUT STREET","ATLANTIC","IA",50022,NA,NA,441,"102 N CHESTNUT STREET, ATLANTIC, IA, 50022","Tie",NA,NA,NA,NA
21942,"102 N CIRCLE DRIVE","HUXLEY","IA",50124,41.892562679,-93.6035103409999,442,"102 N CIRCLE DRIVE, HUXLEY, IA, 50124","Match","Exact","102 N CIRCLE DR, HUXLEY, IA, 50124",65948610,"R"
21943,"102 N COCKRELL STREET","ALPINE","TX",79830,30.359686073,-103.654731414,443,"102 N COCKRELL STREET, ALPINE, TX, 79830","Match","Exact","102 N COCKRELL ST, ALPINE, TX, 79830",183977038,"R"
21944,"102 N EAST ST","WINCHESTER","IN",47394,40.172673053,-84.979773047,444,"102 N EAST ST, WINCHESTER, IN, 47394","Match","Exact","102 N EAST ST, WINCHESTER, IN, 47394",31225660,"R"
21945,"102 N EISENHOWER DR","MIDLAND","TX",79703,31.983842956,-102.137089147,445,"102 N EISENHOWER DR, MIDLAND, TX, 79703","Match","Exact","102 N EISENHOWER DR, MIDLAND, TX, 79703",139580014,"R"
21946,"102 N ELIZABETH STREET","SUMMERVILLE","GA",30747,NA,NA,446,"102 N ELIZABETH STREET, SUMMERVILLE, GA, 30747","Tie",NA,NA,NA,NA
21947,"102 N EMERSON","MT PROSPECT","IL",60056,42.068253972,-87.935423629,447,"102 N EMERSON, MT PROSPECT, IL, 60056","Match","Non_Exact","102 N EMERSON ST, MOUNT PROSPECT, IL, 60056",111720406,"L"
21948,"102 N FREEMAN ST","OCEANSIDE","CA",92054,33.1959596240001,-117.378393303,448,"102 N FREEMAN ST, OCEANSIDE, CA, 92054","Match","Exact","102 N FREEMAN ST, OCEANSIDE, CA, 92054",612852451,"R"
21949,"102 N G ST UNIT 607","TACOMA","WA",98403,47.263724085,-122.449238062,449,"102 N G ST UNIT 607, TACOMA, WA, 98403","Match","Non_Exact","102 N G ST, TACOMA, WA, 98403",184646345,"L"
21950,"102 N GLENDALE AVE APT 203","GLENDALE","CA",91206,34.146523503,-118.247087944,450,"102 N GLENDALE AVE APT 203, GLENDALE, CA, 91206","Match","Non_Exact","102 N GLENDALE AVE, GLENDALE, CA, 91206",241240500,"R"
21951,"102 N GRIMM RD","GOODFIELD","IL",61742,NA,NA,451,"102 N GRIMM RD, GOODFIELD, IL, 61742","No_Match",NA,NA,NA,NA
21952,"102 N HOLLY STREET","HAMMOND","LA",70401,30.5049287140001,-90.457469265,452,"102 N HOLLY STREET, HAMMOND, LA, 70401","Match","Exact","102 N HOLLY ST, HAMMOND, LA, 70401",75751668,"R"
21953,"102 N HOPE AVE 140","SANTA BARBARA","CA",92110,NA,NA,453,"102 N HOPE AVE 140, SANTA BARBARA, CA, 92110","No_Match",NA,NA,NA,NA
21954,"102 N JEFFERSON","KEARNEY","MO",64060,39.3730278260001,-94.362345959,454,"102 N JEFFERSON, KEARNEY, MO, 64060","Match","Non_Exact","102 N JEFFERSON ST, KEARNEY, MO, 64060",89775757,"R"
21955,"102 N JOHNSON AVE","OTTUMWA","IA",52501,41.0021406910001,-92.4407893699999,455,"102 N JOHNSON AVE, OTTUMWA, IA, 52501","Match","Exact","102 N JOHNSON AVE, OTTUMWA, IA, 52501",89615925,"R"
21956,"102 N JONES","ENTERPRISE","AL",36330,31.309744086,-85.861892306,456,"102 N JONES, ENTERPRISE, AL, 36330","Match","Non_Exact","102 N JONES ST, ENTERPRISE, AL, 36330",99549456,"R"
21957,"102 N KAREN AVE","CLOVIS","CA",93612,NA,NA,457,"102 N KAREN AVE, CLOVIS, CA, 93612","Tie",NA,NA,NA,NA
21958,"102 N KELLY DR","BIRDSBORO","PA",19508,40.257539278,-75.821451854,458,"102 N KELLY DR, BIRDSBORO, PA, 19508","Match","Exact","102 N KELLY DR, BIRDSBORO, PA, 19508",80408372,"L"
21959,"102 N KROHN PLACE","SIOUX FALLS","SD",57103,43.547504765,-96.703492903,459,"102 N KROHN PLACE, SIOUX FALLS, SD, 57103","Match","Exact","102 N KROHN PL, SIOUX FALLS, SD, 57103",34983015,"L"
21960,"102 N KROHN STE 102","SIOUX FALLS","SD",57103,NA,NA,460,"102 N KROHN STE 102, SIOUX FALLS, SD, 57103","No_Match",NA,NA,NA,NA
21961,"102 N LAKEWOOD AVE","BALTIMORE","MD",21224,39.293387926,-76.57911752,461,"102 N LAKEWOOD AVE, BALTIMORE, MD, 21224","Match","Exact","102 N LAKEWOOD AVE, BALTIMORE, MD, 21224",206425049,"L"
21962,"102 N LIBERTY ST","ALBION","IN",46701,41.395740554,-85.422682757,462,"102 N LIBERTY ST, ALBION, IN, 46701","Match","Exact","102 N LIBERTY ST, ALBION, IN, 46701",6579755,"R"
21963,"102 N MAGNOLIA POND","SPRING","TX",77381,NA,NA,463,"102 N MAGNOLIA POND, SPRING, TX, 77381","No_Match",NA,NA,NA,NA
21964,"102 N MAIN STREET SUITE 4","HALFWAY","OR",97834,NA,NA,464,"102 N MAIN STREET SUITE 4, HALFWAY, OR, 97834","Tie",NA,NA,NA,NA
21965,"102 N MAIN STREET","CENTER","MO",63436,39.5096787100001,-91.528041779,465,"102 N MAIN STREET, CENTER, MO, 63436","Match","Exact","102 N MAIN ST, CENTER, MO, 63436",37987290,"L"
21966,"102 N MAIN STREET","EUFAULA","OK",74432,35.237127667,-95.47226388,466,"102 N MAIN STREET, EUFAULA, OK, 74432","Match","Exact","102 MAIN ST, EUFAULA, OK, 74432",106286715,"L"
21967,"102 N MAIN STREET","GROTON","SD",57445,45.446748648,-98.098714387,467,"102 N MAIN STREET, GROTON, SD, 57445","Match","Exact","102 N MAIN ST, GROTON, SD, 57445",200798014,"L"
21968,"102 N MAIN","DEFOREST","WI",53532,43.247736522,-89.3438457079999,468,"102 N MAIN, DEFOREST, WI, 53532","Match","Non_Exact","102 N MAIN ST, DEFOREST, WI, 53532",649023748,"L"
21969,"102 N MARIE DR","PANAMA CITY","FL",32401,30.1462057460001,-85.6392333859999,469,"102 N MARIE DR, PANAMA CITY, FL, 32401","Match","Exact","102 MARIE DR, PANAMA CITY, FL, 32401",7030950,"R"
21970,"102 N MARSHALL ST","GLEN ELDER","KS",67446,39.499182315,-98.3015810859999,470,"102 N MARSHALL ST, GLEN ELDER, KS, 67446","Match","Exact","102 N MARSHALL ST, GLEN ELDER, KS, 67446",636638450,"L"
21971,"102 N MILL ST APT 1107","JACKSON","MS",39201,32.3008139290001,-90.1907714769999,471,"102 N MILL ST APT 1107, JACKSON, MS, 39201","Match","Non_Exact","102 N MILL ST, JACKSON, MS, 39201",65371991,"R"
21972,"102 N NEIL ST","CHAMPAIGN","IL",61820,40.1167194940001,-88.243505623,472,"102 N NEIL ST, CHAMPAIGN, IL, 61820","Match","Exact","102 N NEIL ST, CHAMPAIGN, IL, 61820",8810400,"R"
21973,"102 N PEPPERELL RD","HOLLIS","NH",3049,NA,NA,473,"102 N PEPPERELL RD, HOLLIS, NH, 3049","Tie",NA,NA,NA,NA
21974,"102 N POPLAR ST","DESOTO","IL",62924,37.8165370300001,-89.223913478,474,"102 N POPLAR ST, DESOTO, IL, 62924","Match","Non_Exact","102 N POPLAR ST, DE SOTO, IL, 62924",95083479,"L"
21975,"102 N PRAIRIE AVE","MILES CITY","MT",59301,46.4096716660001,-105.842188438,475,"102 N PRAIRIE AVE, MILES CITY, MT, 59301","Match","Exact","102 N PRAIRIE AVE, MILES CITY, MT, 59301",150379777,"R"
21976,"102 N ROSS ST","SWEENY","TX",77480,29.0455594480001,-95.6903002399999,476,"102 N ROSS ST, SWEENY, TX, 77480","Match","Exact","102 N ROSS ST, SWEENY, TX, 77480",116573030,"R"
21977,"102 N SANDY LANE","SINKING SPRING","PA",19608,40.310972028,-76.056943866,477,"102 N SANDY LANE, SINKING SPRING, PA, 19608","Match","Exact","102 N SANDY LN, SINKING SPRING, PA, 19608",617599281,"L"
21978,"102 N SECOND STREET","CLINTON","MO",64735,38.370825509,-93.7739982579999,478,"102 N SECOND STREET, CLINTON, MO, 64735","Match","Exact","102 N 2ND ST, CLINTON, MO, 64735",44935896,"R"
21979,"102 N SUMMIT ST","EDON","OH",43518,41.5564473800001,-84.771452454,479,"102 N SUMMIT ST, EDON, OH, 43518","Match","Exact","102 N SUMMIT ST, EDON, OH, 43518",8327965,"R"
21980,"102 N SUMMIT","EDON","OH",43518,41.5564473800001,-84.771452454,480,"102 N SUMMIT, EDON, OH, 43518","Match","Non_Exact","102 N SUMMIT ST, EDON, OH, 43518",8327965,"R"
21981,"102 N SWINTON AVE","DELRAY BEACH","FL",33444,26.4636388590001,-80.073149712,481,"102 N SWINTON AVE, DELRAY BEACH, FL, 33444","Match","Exact","102 N SWINTON AVE, DELRAY BEACH, FL, 33444",115298063,"L"
21982,"102 N WALNUT ST","DAVIDSVILLE","PA",15928,40.2277990520001,-78.937444286,482,"102 N WALNUT ST, DAVIDSVILLE, PA, 15928","Match","Exact","102 N WALNUT ST, DAVIDSVILLE, PA, 15928",70235929,"L"
21983,"102 N WASHINGTON AVE","SPRING VALLEY","MN",55975,43.6867400130001,-92.392128148,483,"102 N WASHINGTON AVE, SPRING VALLEY, MN, 55975","Match","Non_Exact","102 S WASHINGTON AVE, SPRING VALLEY, MN, 55975",636239863,"L"
21984,"102 N WASHINGTON ST","KOKOMO","IN",46901,40.4868815680001,-86.1336670649999,484,"102 N WASHINGTON ST, KOKOMO, IN, 46901","Match","Exact","102 N WASHINGTON ST, KOKOMO, IN, 46901",27276806,"R"
21985,"102 N YATES ST","GASTONIA","NC",28052,35.2615562500001,-81.2097580239999,485,"102 N YATES ST, GASTONIA, NC, 28052","Match","Exact","102 N YATES ST, GASTONIA, NC, 28052",70377501,"R"
21986,"102 NANNEY ST","GLEASON","TN",38229,36.21514082,-88.618891003,486,"102 NANNEY ST, GLEASON, TN, 38229","Match","Exact","102 NANNEY ST, GLEASON, TN, 38229",40885194,"L"
21987,"102 NARROWS LOOP","WALESKA","GA",30183,34.310142265,-84.599581853,487,"102 NARROWS LOOP, WALESKA, GA, 30183","Match","Exact","102 NARROWS LOOP, WALESKA, GA, 30183",68846507,"R"
21988,"102 NATURES VIEW WAY","BOYLSTON","MA",1505,42.3202191600001,-71.738000357,488,"102 NATURES VIEW WAY, BOYLSTON, MA, 1505","Match","Non_Exact","102 NATURE'S VIEW WAY, BOYLSTON, MA, 01505",40113757,"R"
21989,"102 NE 10TH AVENUE","GAINESVILLE","FL",32601,29.661054246,-82.324267057,489,"102 NE 10TH AVENUE, GAINESVILLE, FL, 32601","Match","Exact","102 NE 10TH AVE, GAINESVILLE, FL, 32601",6808487,"L"
21990,"102 NE 179TH ST","RIDGEFIELD","WA",98642,45.7506823260001,-122.667536381,490,"102 NE 179TH ST, RIDGEFIELD, WA, 98642","Match","Exact","102 NE 179TH ST, RIDGEFIELD, WA, 98642",158314527,"R"
21991,"102 NE 2ND STREET - APT 124","BOCA RATON","FL",33432,NA,NA,491,"102 NE 2ND STREET - APT 124, BOCA RATON, FL, 33432","Tie",NA,NA,NA,NA
21992,"102 NE 2ND STREET SUITE 387","BOCA RATON","FL",33432,NA,NA,492,"102 NE 2ND STREET SUITE 387, BOCA RATON, FL, 33432","Tie",NA,NA,NA,NA
21993,"102 NE 91ST STREET","MIAMI SHORES","FL",33138,25.858612798,-80.195079559,493,"102 NE 91ST STREET, MIAMI SHORES, FL, 33138","Match","Exact","102 NE 91ST ST, MIAMI SHORES, FL, 33138",116003480,"R"
21994,"102 NE EVANS CT","MICANOPY","FL",32667,NA,NA,494,"102 NE EVANS CT, MICANOPY, FL, 32667","No_Match",NA,NA,NA,NA
21995,"102 NEMAN CT","CHERRYVILLE","NC",28021,NA,NA,495,"102 NEMAN CT, CHERRYVILLE, NC, 28021","No_Match",NA,NA,NA,NA
21996,"102 NEW HOPE ROAD N","KENNEDALE","TX",76060,32.6448048840001,-97.221371956,496,"102 NEW HOPE ROAD N, KENNEDALE, TX, 76060","Match","Exact","102 NEW HOPE RD N, KENNEDALE, TX, 76060",101903822,"R"
21997,"102 NEWPORT TRAIL","MCHENRY","IL",60050,42.327982724,-88.311989779,497,"102 NEWPORT TRAIL, MCHENRY, IL, 60050","Match","Exact","102 NEWPORT TRL, MCHENRY, IL, 60050",119855819,"L"
21998,"102 NIBLICK CIRCLE","SUFFOLK","VA",23434,36.7800745230001,-76.5665108429999,498,"102 NIBLICK CIRCLE, SUFFOLK, VA, 23434","Match","Exact","102 NIBLICK CIR, SUFFOLK, VA, 23434",122245066,"R"
21999,"102 NIGHTINGALE AVE","STEPHENS CITY","VA",22655,39.094917192,-78.19582867,499,"102 NIGHTINGALE AVE, STEPHENS CITY, VA, 22655","Match","Exact","102 NIGHTINGALE AVE, STEPHENS CITY, VA, 22655",55588410,"R"
22000,"102 NIMS SPRING DRIVE","FORT MILL","SC",29715,34.9904779560001,-80.928395563,500,"102 NIMS SPRING DRIVE, FORT MILL, SC, 29715","Match","Exact","102 NIMS SPRING DR, FORT MILL, SC, 29715",19811662,"L"
