"ID","Address","City","State","Zip","lat","long","id","input_address","match_indicator","match_type","matched_address","tiger_line_id","tiger_side"
808001,"6888 E BENDER RD","BLOOMINGTON","IN",47401,39.161186205,-86.426078044,1,"6888 E BENDER RD, BLOOMINGTON, IN, 47401","Match","Exact","6888 E BENDER RD, BLOOMINGTON, IN, 47401",42336625,"R"
808002,"6888 GRENOBLE ST","TUJUNGA","CA",91402,34.2610818520001,-118.281976312,2,"6888 GRENOBLE ST, TUJUNGA, CA, 91402","Match","Non_Exact","6888 GRENOBLE ST, TUJUNGA, CA, 91042",141588182,"L"
808003,"6888 HIGHWAY 6 SOUTH","HOUSTON","TX",77083,NA,NA,3,"6888 HIGHWAY 6 SOUTH, HOUSTON, TX, 77083","No_Match",NA,NA,NA,NA
808004,"6888 HWY 165 W","COLORADO CITY","CO",81019,NA,NA,4,"6888 HWY 165 W, COLORADO CITY, CO, 81019","No_Match",NA,NA,NA,NA
808005,"6888 HWY 6 SOUTH","HOUSTON","TX",77083,NA,NA,5,"6888 HWY 6 SOUTH, HOUSTON, TX, 77083","No_Match",NA,NA,NA,NA
808006,"6888 HWY 6","HOUSTON","TX",77083,29.7017474140001,-95.643906613,6,"6888 HWY 6, HOUSTON, TX, 77083","Match","Non_Exact","6888 STATE HWY 6, HOUSTON, TX, 77083",96607986,"L"
808007,"6888 JENNIFER ANN DR","LEWIS CENTER","OH",43035,40.1738233460001,-82.9718705289999,7,"6888 JENNIFER ANN DR, LEWIS CENTER, OH, 43035","Match","Exact","6888 JENNIFER ANN DR, LEWIS CENTER, OH, 43035",213002109,"R"
808008,"6888 LISMORE AVENUE","BOYNTON BEACH","FL",33437,26.5033906400001,-80.153807173,8,"6888 LISMORE AVENUE, BOYNTON BEACH, FL, 33437","Match","Exact","6888 LISMORE AVE, BOYNTON BEACH, FL, 33437",115498231,"R"
808009,"6888 N WILDWOOD","CHICAGO","IL",60646,42.006521821,-87.773670726,9,"6888 N WILDWOOD, CHICAGO, IL, 60646","Match","Non_Exact","6888 N WILDWOOD AVE, CHICAGO, IL, 60646",111736953,"L"
808010,"6888 NORTHLAND DR NE","ROCKFORD","MI",49341,43.0876748310001,-85.5558722069999,10,"6888 NORTHLAND DR NE, ROCKFORD, MI, 49341","Match","Exact","6888 NORTHLAND DR NE, ROCKFORD, MI, 49341",640432731,"R"
808011,"6888 STATE HWY 148","MULKEYTOWN","IL",62865,NA,NA,11,"6888 STATE HWY 148, MULKEYTOWN, IL, 62865","No_Match",NA,NA,NA,NA
808012,"6888 SWEETCLOVER DR","OCEAN SPRINGS","MS",39564,30.360730882,-88.730058201,12,"6888 SWEETCLOVER DR, OCEAN SPRINGS, MS, 39564","Match","Exact","6888 SWEETCLOVER DR, OCEAN SPRINGS, MS, 39564",632758586,"R"
808013,"6888 YANKEETOWN RD","NEWBURGH","IN",47630,37.93389633,-87.294662648,13,"6888 YANKEETOWN RD, NEWBURGH, IN, 47630","Match","Exact","6888 YANKEETOWN RD, NEWBURGH, IN, 47630",32212159,"R"
808014,"6889 ASHBURY PARK","DETROIT","MI",48228,NA,NA,14,"6889 ASHBURY PARK, DETROIT, MI, 48228","No_Match",NA,NA,NA,NA
808015,"6889 CLEARWATER RD APT 114","BAXTER","MN",56425,46.362617904,-94.2573039979999,15,"6889 CLEARWATER RD APT 114, BAXTER, MN, 56425","Match","Exact","6889 CLEARWATER RD, BAXTER, MN, 56425",611811988,"R"
808016,"6889 DORY DRIVE","FRANKLIN","WI",53132,42.920186804,-87.9607151289999,16,"6889 DORY DRIVE, FRANKLIN, WI, 53132","Match","Non_Exact","6889 S DORY DR, FRANKLIN, WI, 53132",77766066,"L"
808017,"6889 FM 111","CALDWELL","TX",77836,NA,NA,17,"6889 FM 111, CALDWELL, TX, 77836","No_Match",NA,NA,NA,NA
808018,"6889 GOLDENROD AVENUE NE","ROCKFORD","MI",49341,43.0875491370001,-85.4540160029999,18,"6889 GOLDENROD AVENUE NE, ROCKFORD, MI, 49341","Match","Non_Exact","6889 GOLDENROD DR NE, ROCKFORD, MI, 49341",12510144,"L"
808019,"6889 HIGHTOWER DR","NORTH RICHLAND HILLS","TX",76182,32.874955379,-97.233180862,19,"6889 HIGHTOWER DR, NORTH RICHLAND HILLS, TX, 76182","Match","Exact","6889 HIGHTOWER DR, NORTH RICHLAND HILLS, TX, 76182",642927884,"L"
808020,"6889 HIGHTOWER DRIVE APT1926","N RICHLAND HILLS","TX",76182,32.874955379,-97.233180862,20,"6889 HIGHTOWER DRIVE APT1926, N RICHLAND HILLS, TX, 76182","Match","Exact","6889 HIGHTOWER DR, NORTH RICHLAND HILLS, TX, 76182",642927884,"L"
808021,"6889 LIBERTY FARMS CT","LIBERTY TOWNSHIP","OH",45011,39.381563585,-84.434881683,21,"6889 LIBERTY FARMS CT, LIBERTY TOWNSHIP, OH, 45011","Match","Non_Exact","6889 LIBERTY FARMS, LIBERTY TWP, OH, 45011",634033175,"R"
808022,"6889 VAN LEUVEN LANE","HIGHLAND","CA",92346,34.1291799580001,-117.161614904,22,"6889 VAN LEUVEN LANE, HIGHLAND, CA, 92346","Match","Exact","6889 VAN LEUVEN LN, HIGHLAND, CA, 92346",629800916,"R"
808023,"6889 W REMUDA DR","PEORIA","AZ",85383,NA,NA,23,"6889 W REMUDA DR, PEORIA, AZ, 85383","Tie",NA,NA,NA,NA
808024,"6889 W VIRGINIA AVENUE","JACKSONVILLE","FL",32209,30.3819022260001,-81.7245775809999,24,"6889 W VIRGINIA AVENUE, JACKSONVILLE, FL, 32209","Match","Exact","6889 WEST VIRGINIA AVE, JACKSONVILLE, FL, 32209",83888047,"R"
808025,"6889 WALNUT HILLS DR","BRENTWOOD","TN",37027,35.998930634,-86.7087569669999,25,"6889 WALNUT HILLS DR, BRENTWOOD, TN, 37027","Match","Exact","6889 WALNUT HILLS DR, BRENTWOOD, TN, 37027",636649529,"L"
808026,"6889 WEST 20TH","JOPLIN","MO",64804,37.0710807660001,-94.6048395779999,26,"6889 WEST 20TH, JOPLIN, MO, 64804","Match","Non_Exact","6889 W 20TH ST, JOPLIN, MO, 64804",642650024,"L"
808027,"68895 MINERVA RD","CATHEDRAL CITY","CA",92234,33.8361391990001,-116.460851972,27,"68895 MINERVA RD, CATHEDRAL CITY, CA, 92234","Match","Exact","68895 MINERVA RD, CATHEDRAL CITY, CA, 92234",194765221,"R"
808028,"689 A BRYANT STREET","SAN FRANCISCO","CA",94107,37.778061613,-122.399954122,28,"689 A BRYANT STREET, SAN FRANCISCO, CA, 94107","Match","Exact","689 BRYANT ST, SAN FRANCISCO, CA, 94107",192287905,"L"
808029,"689 B DR MARTIN LUTHER KING JR ST","ST PETERSBURG","FL",33701,NA,NA,29,"689 B DR MARTIN LUTHER KING JR ST, ST PETERSBURG, FL, 33701","Tie",NA,NA,NA,NA
808030,"689 BLOOMINGDALE ROAD","BASOM","NY",14013,43.0605499480001,-78.43172098,30,"689 BLOOMINGDALE ROAD, BASOM, NY, 14013","Match","Exact","689 BLOOMINGDALE RD, BASOM, NY, 14013",48146018,"R"
808031,"689 CEDAR RUN DRIVE","BALLWIN","MO",63021,38.572680549,-90.55564514,31,"689 CEDAR RUN DRIVE, BALLWIN, MO, 63021","Match","Exact","689 CEDAR RUN DR, BALLWIN, MO, 63021",100173583,"L"
808032,"689 CHANDON DRIVE","MERCED","CA",95348,37.346073776,-120.479554591,32,"689 CHANDON DRIVE, MERCED, CA, 95348","Match","Exact","689 CHANDON DR, MERCED, CA, 95348",616505084,"L"
808033,"689 CHERRY TREE ROAD","ASTON","PA",19014,39.853289363,-75.4421095339999,33,"689 CHERRY TREE ROAD, ASTON, PA, 19014","Match","Exact","689 CHERRY TREE RD, ASTON, PA, 19014",652541179,"R"
808034,"689 CHRISTINE CAMARGO CT","BRAWLEY","CA",92227,NA,NA,34,"689 CHRISTINE CAMARGO CT, BRAWLEY, CA, 92227","No_Match",NA,NA,NA,NA
808035,"689 CLEMATIS STREET","WPB","FL",33407,NA,NA,35,"689 CLEMATIS STREET, WPB, FL, 33407","No_Match",NA,NA,NA,NA
808036,"689 COCKLEY RD","HARRISBURG","PA",17111,40.250494825,-76.777266137,36,"689 COCKLEY RD, HARRISBURG, PA, 17111","Match","Exact","689 COCKLEY RD, HARRISBURG, PA, 17111",629020181,"R"
808037,"689 COLONIAL DRIVE","YOUNGSTOWN","OH",44505,41.1380769800001,-80.650493206,37,"689 COLONIAL DRIVE, YOUNGSTOWN, OH, 44505","Match","Exact","689 COLONIAL DR, YOUNGSTOWN, OH, 44505",117416721,"L"
808038,"689 DENISE COURT","YORKVILLE","IL",60560,41.670324104,-88.4576356279999,38,"689 DENISE COURT, YORKVILLE, IL, 60560","Match","Exact","689 DENISE CT, YORKVILLE, IL, 60560",54495139,"L"
808039,"689 E PLEASANT HOME ROAD","WOOSTER","OH",44691,NA,NA,39,"689 E PLEASANT HOME ROAD, WOOSTER, OH, 44691","Tie",NA,NA,NA,NA
808040,"689 E WHITEHALL CT","ROUND LAKE BEACH","IL",NA,42.3902422370001,-88.065974191,40,"689 E WHITEHALL CT, ROUND LAKE BEACH, IL, ","Match","Exact","689 WHITEHALL CT, ROUND LK BCH, IL, 60073",119688709,"L"
808041,"689 EAST FOOTHILL BLVD","POMONA","CA",91767,34.1071167960001,-117.738031285,41,"689 EAST FOOTHILL BLVD, POMONA, CA, 91767","Match","Exact","689 E FOOTHILL BLVD, POMONA, CA, 91767",642869714,"L"
808042,"689 EDGEWOOD AVE","ATLANTA","GA",30307,33.754402489,-84.365046247,42,"689 EDGEWOOD AVE, ATLANTA, GA, 30307","Match","Non_Exact","689 EDGEWOOD AVE NE, ATLANTA, GA, 30307",640546190,"R"
808043,"689 FARMINGHTO AVE","WEST HARTFORD","CT",6119,NA,NA,43,"689 FARMINGHTO AVE, WEST HARTFORD, CT, 6119","No_Match",NA,NA,NA,NA
808044,"689 FARMINGTON AVE","WEST HARTFORD","CA",6119,NA,NA,44,"689 FARMINGTON AVE, WEST HARTFORD, CA, 6119","No_Match",NA,NA,NA,NA
808045,"689 FENELON PL","DUBUQUE","IA",52001,42.4955154830001,-90.67200517,45,"689 FENELON PL, DUBUQUE, IA, 52001","Match","Exact","689 FENELON PL, DUBUQUE, IA, 52001",16915544,"R"
808046,"689 FOXHOUND DR","CLARKSVILLE","TN",37040,36.6382768600001,-87.279724701,46,"689 FOXHOUND DR, CLARKSVILLE, TN, 37040","Match","Non_Exact","689 FOX HOUND DR, CLARKSVILLE, TN, 37040",642255590,"R"
808047,"689 GATES TERRACE","UNION","NJ",7083,40.6721053750001,-74.254690981,47,"689 GATES TERRACE, UNION, NJ, 7083","Match","Exact","689 GATES TER, UNION, NJ, 07083",60573371,"R"
808048,"689 GLENOLA STREET","FAYETTEVILLE","NC",28311,35.105575415,-78.8669261599999,48,"689 GLENOLA STREET, FAYETTEVILLE, NC, 28311","Match","Exact","689 GLENOLA ST, FAYETTEVILLE, NC, 28311",64216757,"L"
808049,"689 GOSHEN TURNPIKE","CIRCLEVILLE","NY",10919,41.5221036940001,-74.392877685,49,"689 GOSHEN TURNPIKE, CIRCLEVILLE, NY, 10919","Match","Exact","689 GOSHEN TPKE, CIRCLEVILLE, NY, 10919",124406593,"L"
808050,"689 GRAND RAPIDS BLVD","NAPLES","FL",34120,26.301286202,-81.582984508,50,"689 GRAND RAPIDS BLVD, NAPLES, FL, 34120","Match","Exact","689 GRAND RAPIDS BLVD, NAPLES, FL, 34120",115196624,"R"
808051,"689 GREGORY AVE","CLIFTON","NJ",7011,40.8679133480001,-74.145545275,51,"689 GREGORY AVE, CLIFTON, NJ, 7011","Match","Exact","689 GREGORY AVE, CLIFTON, NJ, 07011",65250920,"R"
808052,"689 HANOVER STREET APT 1","MANCHESTER","NH",3104,42.9892042340001,-71.4353246859999,52,"689 HANOVER STREET APT 1, MANCHESTER, NH, 3104","Match","Exact","689 HANOVER ST, MANCHESTER, NH, 03104",113532679,"R"
808053,"689 HARLAN ST","CLIFTON HILL","MO",65244,39.4441972120001,-92.665801663,53,"689 HARLAN ST, CLIFTON HILL, MO, 65244","Match","Exact","689 HARLAN ST, CLIFTON HILL, MO, 65244",607771393,"L"
808054,"689 HAROLD TUCKER ROAD","HATTIESBURG","MS",39401,31.1981258180001,-89.326958466,54,"689 HAROLD TUCKER ROAD, HATTIESBURG, MS, 39401","Match","Exact","689 HAROLD TUCKER RD, HATTIESBURG, MS, 39401",607649258,"R"
808055,"689 HAYES AVE","HAGERSTOWN","MD",21740,39.6282214010001,-77.7176493869999,55,"689 HAYES AVE, HAGERSTOWN, MD, 21740","Match","Exact","689 HAYES AVE, HAGERSTOWN, MD, 21740",612177522,"R"
808056,"689 HERITAGE PASS","RIVER FALLS","WI",54022,44.8940046930001,-92.661304479,56,"689 HERITAGE PASS, RIVER FALLS, WI, 54022","Match","Exact","689 HERITAGE PASS, RIVER FALLS, WI, 54022",612040578,"R"
808057,"689 HIGHWAY 31","MANDERSON","WY",82432,44.2537618640001,-107.833759432,57,"689 HIGHWAY 31, MANDERSON, WY, 82432","Match","Non_Exact","689 STATE HWY 31, MANDERSON, WY, 82432",180498597,"R"
808058,"689 HOLCOMB BRIDGE ROAD","NORCROSS","GA",30071,33.9454616800001,-84.2243756029999,58,"689 HOLCOMB BRIDGE ROAD, NORCROSS, GA, 30071","Match","Exact","689 HOLCOMB BRIDGE RD, NORCROSS, GA, 30071",88883645,"L"
808059,"689 IVY AVENUE EAST","SAINT PAUL","MN",55106,NA,NA,59,"689 IVY AVENUE EAST, SAINT PAUL, MN, 55106","No_Match",NA,NA,NA,NA
808060,"689 JOHN TYLER CIRCLE APT 102","HARRISONBURG","VA",22801,38.4185549530001,-78.881708412,60,"689 JOHN TYLER CIRCLE APT 102, HARRISONBURG, VA, 22801","Match","Exact","689 JOHN TYLER CIR, HARRISONBURG, VA, 22801",645221374,"R"
808061,"689 KISSIMMEE PL","WINTER SPRINGS","FL",32708,28.6533566310001,-81.27934886,61,"689 KISSIMMEE PL, WINTER SPRINGS, FL, 32708","Match","Exact","689 KISSIMMEE PL, WINTER SPRINGS, FL, 32708",93769562,"R"
808062,"689 LAFAYETTE RD APT 5-2","SEABROOK","NH",3874,NA,NA,62,"689 LAFAYETTE RD APT 5-2, SEABROOK, NH, 3874","No_Match",NA,NA,NA,NA
808063,"689 LAKE DR","WESTMINSTER","MD",21158,39.704164726,-76.9726606959999,63,"689 LAKE DR, WESTMINSTER, MD, 21158","Match","Exact","689 LAKE DR, WESTMINSTER, MD, 21158",61787689,"R"
808064,"689 LAKE HOWARD DRIVE UNIT 3E","WINTER HAVEN","FL",33880,28.0148789520001,-81.7480641229999,64,"689 LAKE HOWARD DRIVE UNIT 3E, WINTER HAVEN, FL, 33880","Match","Exact","689 LAKE HOWARD DR, WINTER HAVEN, FL, 33880",104823192,"R"
808065,"689 LAPLAND ROAD","EAST FAIRFIELD","VT",5448,44.771949933,-72.8762817049999,65,"689 LAPLAND ROAD, EAST FAIRFIELD, VT, 5448","Match","Exact","689 LAPLAND RD, E FAIRFIELD, VT, 05448",136518601,"R"
808066,"689 LAVINGTON COURT","FREDERICKSBURG","VA",22407,38.281476578,-77.550374667,66,"689 LAVINGTON COURT, FREDERICKSBURG, VA, 22407","Match","Exact","689 LAVINGTON CT, FREDERICKSBURG, VA, 22407",85018484,"L"
808067,"689 LYNVILLE LN","ROCK HILL","SC",29730,34.8830893800001,-80.957022234,67,"689 LYNVILLE LN, ROCK HILL, SC, 29730","Match","Exact","689 LYNVILLE LN, ROCK HILL, SC, 29730",618914115,"L"
808068,"689 MAIN STREET SUITE A","STONE MOUNTAIN","GA",30083,33.798724115,-84.168875613,68,"689 MAIN STREET SUITE A, STONE MOUNTAIN, GA, 30083","Match","Exact","689 MAIN ST, STONE MOUNTAIN, GA, 30083",23374257,"R"
808069,"689 MAIN STREET","WESTON","VT",5161,43.292486458,-72.7918173739999,69,"689 MAIN STREET, WESTON, VT, 5161","Match","Exact","689 MAIN ST, WESTON, VT, 05161",139245218,"R"
808070,"689 MILCREST DR","MARYVILLE","OH",43040,40.2263232450001,-83.3724377029999,70,"689 MILCREST DR, MARYVILLE, OH, 43040","Match","Non_Exact","689 MILCREST DR, MARYSVILLE, OH, 43040",210636249,"L"
808071,"689 MORNING GLORY DRIVE","INDEPENDENCE","OR",97351,44.860841249,-123.201162799,71,"689 MORNING GLORY DRIVE, INDEPENDENCE, OR, 97351","Match","Non_Exact","689 MORNING GLORY CT, INDEPENDENCE, OR, 97351",645506605,"R"
808072,"689 MYRTLE AVE APT 2I","BROOKLYN","NY",11205,40.6946368210001,-73.955714239,72,"689 MYRTLE AVE APT 2I, BROOKLYN, NY, 11205","Match","Exact","689 MYRTLE AVE, BROOKLYN, NY, 11205",59078631,"L"
808073,"689 N PLUMAS DR","MOUNTAIN HOUSE","CA",95391,37.7910348680001,-121.554252295,73,"689 N PLUMAS DR, MOUNTAIN HOUSE, CA, 95391","Match","Exact","689 N PLUMAS DR, MOUNTAIN HOUSE, CA, 95391",624719163,"R"
808074,"689 NAUTICAL LN","BLUFFTON","SC",29909,32.3089043530001,-80.9502875649999,74,"689 NAUTICAL LN, BLUFFTON, SC, 29909","Match","Exact","689 NAUTICAL LN, BLUFFTON, SC, 29909",641617133,"L"
808075,"689 NW 21ST AVENUE","POMPANO","FL",33069,26.236911536,-80.151337632,75,"689 NW 21ST AVENUE, POMPANO, FL, 33069","Match","Non_Exact","689 NW 21ST AVE, POMPANO BEACH, FL, 33069",614089775,"L"
808076,"689 OUTLOOK WAY","ATLANTA","GA",30349,33.6268147220001,-84.546946018,76,"689 OUTLOOK WAY, ATLANTA, GA, 30349","Match","Exact","689 OUTLOOK WAY, ATLANTA, GA, 30349",628073375,"R"
808077,"689 P AVE","BOONE","IA",50036,42.1073790900001,-93.8740273349999,77,"689 P AVE, BOONE, IA, 50036","Match","Exact","689 P AVE, BOONE, IA, 50036",64946611,"L"
808078,"689 PARKWAY DRIVE","NORTH SALT LAKE","UT",84054,40.8284397790001,-111.902804618,78,"689 PARKWAY DRIVE, NORTH SALT LAKE, UT, 84054","Match","Exact","689 PARKWAY DR, N SALT LAKE, UT, 84054",645485543,"L"
808079,"689 PEACH CROSSING DRIVE","DALLAS","GA",30132,33.9924959090001,-84.7760324179999,79,"689 PEACH CROSSING DRIVE, DALLAS, GA, 30132","Match","Exact","689 PEACH CROSSING DR, DALLAS, GA, 30132",207984028,"L"
808080,"689 PENNYBROOK LANE","STONE MOUNTAIN","GA",30087,33.7930842820001,-84.153656982,80,"689 PENNYBROOK LANE, STONE MOUNTAIN, GA, 30087","Match","Exact","689 PENNYBROOK LN, STONE MOUNTAIN, GA, 30087",23389821,"L"
808081,"689 PHOEBE STREET","NIPOMO","CA",93444,35.0265293150001,-120.483502882,81,"689 PHOEBE STREET, NIPOMO, CA, 93444","Match","Exact","689 PHOEBE ST, NIPOMO, CA, 93444",109770711,"R"
808082,"689 PLEASANT HILL ROAD","SEBASTOPOL","CA",95472,38.392321748,-122.837006911,82,"689 PLEASANT HILL ROAD, SEBASTOPOL, CA, 95472","Match","Exact","689 PLEASANT HILL RD, SEBASTOPOL, CA, 95472",606657806,"L"
808083,"689 PRO MED LANE","CARMEL","IN",46032,39.984140079,-86.138152862,83,"689 PRO MED LANE, CARMEL, IN, 46032","Match","Non_Exact","689 PRO-MED LN, CARMEL, IN, 46032",29327829,"L"
808084,"689 PUMPKIN HILL RD","POTSDAM","NY",13676,44.618891509,-74.894203179,84,"689 PUMPKIN HILL RD, POTSDAM, NY, 13676","Match","Exact","689 PUMPKIN HILL RD, POTSDAM, NY, 13676",155230210,"L"
808085,"689 REUNION LANE","GREENWOOD","IN",46143,39.604959411,-86.052337118,85,"689 REUNION LANE, GREENWOOD, IN, 46143","Match","Exact","689 REUNION LN, GREENWOOD, IN, 46143",648369137,"L"
808086,"689 RHODY CREEK LOOP","STUART","VA",24171,36.6440259180001,-80.2476664659999,86,"689 RHODY CREEK LOOP, STUART, VA, 24171","Match","Exact","689 RHODY CREEK LOOP, STUART, VA, 24171",56568333,"R"
808087,"689 RIVER ROAD","NEWBURGH","NY",12550,NA,NA,87,"689 RIVER ROAD, NEWBURGH, NY, 12550","No_Match",NA,NA,NA,NA
808088,"689 ROCKAWAY PKWY","BROOKLYN","NY",11236,40.6524990950001,-73.9105069189999,88,"689 ROCKAWAY PKWY, BROOKLYN, NY, 11236","Match","Exact","689 ROCKAWAY PKWY, BROOKLYN, NY, 11236",59084138,"L"
808089,"689 ROSALIA","SE ATLANTA","GA",30312,NA,NA,89,"689 ROSALIA, SE ATLANTA, GA, 30312","No_Match",NA,NA,NA,NA
808090,"689 RUTHERFORD RD","TUPELO","MS",38801,NA,NA,90,"689 RUTHERFORD RD, TUPELO, MS, 38801","No_Match",NA,NA,NA,NA
808091,"689 S CHANTILLY ROAD","MOSCOW MILLS","MO",63362,38.9683335020001,-90.8422882149999,91,"689 S CHANTILLY ROAD, MOSCOW MILLS, MO, 63362","Match","Exact","689 S CHANTILLY RD, MOSCOW MILLS, MO, 63362",44874926,"L"
808092,"689 S COLLIER BLVD","MARCO ISLAND","FL",34145,25.918769535,-81.726269971,92,"689 S COLLIER BLVD, MARCO ISLAND, FL, 34145","Match","Exact","689 S COLLIER BLVD, MARCO ISLAND, FL, 34145",640832771,"R"
808093,"689 SALTSDALE RD","UMATILLA","FL",32784,28.9317143540001,-81.6436456819999,93,"689 SALTSDALE RD, UMATILLA, FL, 32784","Match","Exact","689 SALTSDALE RD, UMATILLA, FL, 32784",640588573,"L"
808094,"689 SCOTT TROY ROAD","LEBANON","IL",62254,38.6107801900001,-89.874082272,94,"689 SCOTT TROY ROAD, LEBANON, IL, 62254","Match","Exact","689 SCOTT TROY RD, LEBANON, IL, 62254",638436280,"R"
808095,"689 SHORE VIEW","LITHONIA","GA",30058,33.7754457280001,-84.098414411,95,"689 SHORE VIEW, LITHONIA, GA, 30058","Match","Exact","689 SHORE VW, LITHONIA, GA, 30058",23385410,"L"
808096,"689 SOUTHERN OAKS DR","FLORENCE","MS",39073,32.1584199770001,-90.1111725969999,96,"689 SOUTHERN OAKS DR, FLORENCE, MS, 39073","Match","Exact","689 SOUTHERN OAKS DR, FLORENCE, MS, 39073",632788795,"R"
808097,"689 SPRINGFIELD AVE","VENTURA","CA",93004,34.2744696,-119.180763684,97,"689 SPRINGFIELD AVE, VENTURA, CA, 93004","Match","Exact","689 SPRINGFIELD AVE, VENTURA, CA, 93004",109956971,"R"
808098,"689 SUE PLACE","ST PAUL","MN",55116,44.9209102080001,-93.180264135,98,"689 SUE PLACE, ST PAUL, MN, 55116","Match","Non_Exact","689 S SUE PL, SAINT PAUL, MN, 55116",97645942,"R"
808099,"689 TELEGRAPH ROAD","COATESVILLE","PA",19320,40.0487346410001,-75.8472973569999,99,"689 TELEGRAPH ROAD, COATESVILLE, PA, 19320","Match","Exact","689 TELEGRAPH RD, COATESVILLE, PA, 19320",179585779,"L"
808100,"689 VERNON ROAD","COLUMBUS","OH",43209,39.955628474,-82.9287308579999,100,"689 VERNON ROAD, COLUMBUS, OH, 43209","Match","Exact","689 VERNON RD, COLUMBUS, OH, 43209",218649637,"R"
808101,"689 VININGS ESTATES DR","MABLETON","GA",30126,33.8333686240001,-84.533792002,101,"689 VININGS ESTATES DR, MABLETON, GA, 30126","Match","Non_Exact","689 VININGS ESTATES DR SE, MABLETON, GA, 30126",17250607,"L"
808102,"689 W 1000 N","MAPLETON","UT",84664,40.139406153,-111.586920305,102,"689 W 1000 N, MAPLETON, UT, 84664","Match","Exact","689 W 1000 N, MAPLETON, UT, 84664",652040009,"R"
808103,"689 W HURON HILLS TR","ROUND LAKE HEIGHTS","IL",60073,42.3892146540001,-88.0989501349999,103,"689 W HURON HILLS TR, ROUND LAKE HEIGHTS, IL, 60073","Match","Exact","689 W HURON HILLS TRL, ROUND LAKE HEIGHTS, IL, 60073",119706729,"R"
808104,"689 W SQUAWBUCK RD","COLUMBIA CITY","IN",46725,41.1597760270001,-85.5016562549999,104,"689 W SQUAWBUCK RD, COLUMBIA CITY, IN, 46725","Match","Exact","689 W SQUAWBUCK RD, COLUMBIA CITY, IN, 46725",640190704,"R"
808105,"689 WATERFORD RD","WATERFORD","ME",4088,44.1815744900001,-70.715462153,105,"689 WATERFORD RD, WATERFORD, ME, 4088","Match","Exact","689 WATERFORD RD, WATERFORD, ME, 04088",92682649,"R"
808106,"689 WINDSOR LANE","KAYSVILLE","UT",84037,41.054476806,-111.923541898,106,"689 WINDSOR LANE, KAYSVILLE, UT, 84037","Match","Exact","689 WINDSOR LN, KAYSVILLE, UT, 84037",155326667,"L"
808107,"689","ROCKFORD","IL",61102,NA,NA,107,"689, ROCKFORD, IL, 61102","No_Match",NA,NA,NA,NA
808108,"6890 BEREFERD AV","PARMA HEIGHTS","OH",44130,NA,NA,108,"6890 BEREFERD AV, PARMA HEIGHTS, OH, 44130","No_Match",NA,NA,NA,NA
808109,"6890 BLACK HAWK COURT","DUBLIN","OH",40317,40.1096222990001,-83.153016712,109,"6890 BLACK HAWK COURT, DUBLIN, OH, 40317","Match","Non_Exact","6890 BLACK HAWK CT, DUBLIN, OH, 43017",218686603,"R"
808110,"6890 BLACK HAWK COURT","DUBLIN","OH",43017,40.1096222990001,-83.153016712,110,"6890 BLACK HAWK COURT, DUBLIN, OH, 43017","Match","Exact","6890 BLACK HAWK CT, DUBLIN, OH, 43017",218686603,"R"
808111,"6890 BURLWOOD DR","ANCHORAGE","AK",99507,61.157921107,-149.848184903,111,"6890 BURLWOOD DR, ANCHORAGE, AK, 99507","Match","Exact","6890 BURLWOOD DR, ANCHORAGE, AK, 99507",190799904,"L"
808112,"6890 EDINBURGH RD","EASTVALE","CA",92880,33.9630277460001,-117.558956448,112,"6890 EDINBURGH RD, EASTVALE, CA, 92880","Match","Exact","6890 EDINBURGH RD, EASTVALE, CA, 92880",647501392,"R"
808113,"6890 FM 1818","DIBOLL","TX",75941,NA,NA,113,"6890 FM 1818, DIBOLL, TX, 75941","No_Match",NA,NA,NA,NA
808114,"6890 HWY 570","SUMMIT","MS",39666,31.3013794660001,-90.621058211,114,"6890 HWY 570, SUMMIT, MS, 39666","Match","Non_Exact","6890 STATE HWY 570, SUMMIT, MS, 39666",612195683,"L"
808115,"6890 LODGEPOLE COURT","MANASSAS","VA",20111,38.7338590140001,-77.410132445,115,"6890 LODGEPOLE COURT, MANASSAS, VA, 20111","Match","Exact","6890 LODGEPOLE CT, MANASSAS, VA, 20111",207156520,"L"
808116,"6890 N MONTANA AVENUE","HELENA","MT",59602,46.6831189740001,-112.021205418,116,"6890 N MONTANA AVENUE, HELENA, MT, 59602","Match","Exact","6890 N MONTANA AVE, HELENA, MT, 59602",649876467,"L"
808117,"6890 NW 9TH ST","MARGATE","FL",33063,26.241311109,-80.2168774259999,117,"6890 NW 9TH ST, MARGATE, FL, 33063","Match","Exact","6890 NW 9TH ST, MARGATE, FL, 33063",114692269,"L"
808118,"6890 RANCHGROVE RD","RIVERSIDE","CA",92506,33.928519458,-117.338821883,118,"6890 RANCHGROVE RD, RIVERSIDE, CA, 92506","Match","Exact","6890 RANCHGROVE RD, RIVERSIDE, CA, 92506",194789911,"L"
808119,"6890 SW 103RD TERR","CEDAR KEY","FL",32625,29.2280139540001,-82.9441018959999,119,"6890 SW 103RD TERR, CEDAR KEY, FL, 32625","Match","Exact","6890 SW 103RD TER, CEDAR KEY, FL, 32625",612304900,"R"
808120,"6890 SW 161ST PL","MIAMI","FL",33193,25.701288011,-80.4542310749999,120,"6890 SW 161ST PL, MIAMI, FL, 33193","Match","Exact","6890 SW 161ST PL, MIAMI, FL, 33193",116090537,"R"
808121,"6890 SW 36TH ST","MIRAMAR","FL",33023,25.9767621620001,-80.225555105,121,"6890 SW 36TH ST, MIRAMAR, FL, 33023","Match","Exact","6890 SW 36TH ST, MIRAMAR, FL, 33023",114734732,"R"
808122,"6890 TOWN HARBOUR BLVD APT 2924","BOCA RATON","FL",33433,26.3481219600001,-80.151502799,122,"6890 TOWN HARBOUR BLVD APT 2924, BOCA RATON, FL, 33433","Match","Exact","6890 TOWN HARBOUR BLVD, BOCA RATON, FL, 33433",115574602,"L"
808123,"6890 TYLER STREET","HOLLYWOOD","FL",33024,26.0102355340001,-80.2253359869999,123,"6890 TYLER STREET, HOLLYWOOD, FL, 33024","Match","Exact","6890 TYLER ST, HOLLYWOOD, FL, 33024",114716123,"L"
808124,"6890 W HIGHWAY 316","REDDICK","FL",32686,29.366729121,-82.232947146,124,"6890 W HIGHWAY 316, REDDICK, FL, 32686","Match","Exact","6890 W HWY 316, REDDICK, FL, 32686",116842327,"R"
808125,"6891 AIRPORT RD","EUREKA","MT",59917,48.9938685590001,-115.070602669,125,"6891 AIRPORT RD, EUREKA, MT, 59917","Match","Exact","6891 AIRPORT RD, EUREKA, MT, 59917",634644172,"R"
808126,"6891 ATLANTA ST","BONNERS FERRY","ID",83805,48.6892954100001,-116.322244725,126,"6891 ATLANTA ST, BONNERS FERRY, ID, 83805","Match","Exact","6891 ATLANTA ST, BONNERS FERRY, ID, 83805",169223382,"R"
808127,"6891 BARTOW WAY","MIDLAND","GA",31820,32.544899323,-84.858815636,127,"6891 BARTOW WAY, MIDLAND, GA, 31820","Match","Exact","6891 BARTOW WAY, MIDLAND, GA, 31820",98946407,"L"
808128,"6891 FAWN RD","PLATTEVILLE","WI",53818,42.7554981660001,-90.472704247,128,"6891 FAWN RD, PLATTEVILLE, WI, 53818","Match","Exact","6891 FAWN RD, PLATTEVILLE, WI, 53818",624319229,"L"
808129,"6891 FILLY CIRCLE","PRESCOTT VALLEY","AZ",86314,34.622364018,-112.3437985,129,"6891 FILLY CIRCLE, PRESCOTT VALLEY, AZ, 86314","Match","Exact","6891 FILLY CIR, PRESCOTT VALLEY, AZ, 86314",159537512,"L"
808130,"6891 GRANGE AVE","CINCINNATI","OH",45239,39.209195697,-84.575722001,130,"6891 GRANGE AVE, CINCINNATI, OH, 45239","Match","Non_Exact","6891 GRANGE CT, CINCINNATI, OH, 45239",103920517,"R"
808131,"6891 GYPSY LAKE ROAD","LAKE TOMAHAWK","WI",54329,45.8013833470001,-89.497112392,131,"6891 GYPSY LAKE ROAD, LAKE TOMAHAWK, WI, 54329","Match","Non_Exact","6891 GYPSY LAKE RD, LAKE TOMAHAWK, WI, 54539",196582192,"L"
808132,"6891 HARBOR TOWN WAY","STONE MOUNTAIN","GA",30087,33.800548254,-84.102943809,132,"6891 HARBOR TOWN WAY, STONE MOUNTAIN, GA, 30087","Match","Exact","6891 HARBOR TOWN WAY, STONE MOUNTAIN, GA, 30087",23393775,"L"
808133,"6891 HAVILAND MILL ROAD","CLARKSVILLE","MD",21029,39.1814248090001,-76.9958240559999,133,"6891 HAVILAND MILL ROAD, CLARKSVILLE, MD, 21029","Match","Exact","6891 HAVILAND MILL RD, CLARKSVILLE, MD, 21029",158944124,"L"
808134,"6891 PERRYSVILLE AVE","BEN AVON","PA",15202,40.509754038,-80.07868285,134,"6891 PERRYSVILLE AVE, BEN AVON, PA, 15202","Match","Exact","6891 PERRYSVILLE AVE, BEN AVON, PA, 15202",622459833,"L"
808135,"6891 THOMAS DR","LIVERPOOL","NY",13088,43.1037101150001,-76.17093539,135,"6891 THOMAS DR, LIVERPOOL, NY, 13088","Match","Exact","6891 THOMAS DR, LIVERPOOL, NY, 13088",46603297,"L"
808136,"6891 WEST CHESTER RD","WEST CHESTER","OH",45069,39.323815251,-84.396146696,136,"6891 WEST CHESTER RD, WEST CHESTER, OH, 45069","Match","Exact","6891 W CHESTER RD, WEST CHESTER, OH, 45069",113799455,"R"
808137,"68912 30TH AVENUE","CATHEDRAL CITY","CA",92234,33.8305121430001,-116.460305747,137,"68912 30TH AVENUE, CATHEDRAL CITY, CA, 92234","Match","Exact","68912 30TH AVE, CATHEDRAL CITY, CA, 92234",194765272,"L"
808138,"6892 AIRPORT ROAD","THREE LAKES","WI",54501,45.793359794,-89.121033508,138,"6892 AIRPORT ROAD, THREE LAKES, WI, 54501","Match","Non_Exact","6892 AIRPORT RD, THREE LAKES, WI, 54562",639669177,"R"
808139,"6892 AIRPORT ROAD","THREE LAKES","WI",54521,45.793359794,-89.121033508,139,"6892 AIRPORT ROAD, THREE LAKES, WI, 54521","Match","Non_Exact","6892 AIRPORT RD, THREE LAKES, WI, 54562",639669177,"R"
808140,"6892 AIRPORT ROAD","THREE LAKES","WI",54562,45.793359794,-89.121033508,140,"6892 AIRPORT ROAD, THREE LAKES, WI, 54562","Match","Exact","6892 AIRPORT RD, THREE LAKES, WI, 54562",639669177,"R"
808141,"6892 BUCKTHORNE STREET","PHELAN","CA",92371,34.4393917410001,-117.512677201,141,"6892 BUCKTHORNE STREET, PHELAN, CA, 92371","Match","Exact","6892 BUCKTHORNE ST, PHELAN, CA, 92371",634889160,"L"
808142,"6892 FOX GAP","MEMPHIS","TN",38141,35.028504201,-89.833039565,142,"6892 FOX GAP, MEMPHIS, TN, 38141","Match","Exact","6892 FOX GAP, MEMPHIS, TN, 38141",72930732,"L"
808143,"6892 GRIFFIN DLVD","FORT MYERS","FL",33908,26.529785405,-81.9319369299999,143,"6892 GRIFFIN DLVD, FORT MYERS, FL, 33908","Match","Non_Exact","6892 GRIFFIN BLVD, FORT MYERS, FL, 33908",118044969,"L"
808144,"6892 KANGAROO DRIVE","WALDORF","MD",20603,38.624146017,-76.9570493369999,144,"6892 KANGAROO DRIVE, WALDORF, MD, 20603","Match","Exact","6892 KANGAROO DR, WALDORF, MD, 20603",25384753,"R"
808145,"6892 WILDROSE LN","BONNERS FERRY","DC",83805,NA,NA,145,"6892 WILDROSE LN, BONNERS FERRY, DC, 83805","No_Match",NA,NA,NA,NA
808146,"6893 BLANK RD","WHITEHALL","MI",49461,43.382482827,-86.326294553,146,"6893 BLANK RD, WHITEHALL, MI, 49461","Match","Exact","6893 BLANK RD, WHITEHALL, MI, 49461",77675325,"L"
808147,"6893 HAMPTON DR","SAN JOSE","CA",95120,37.2064856900001,-121.85938689,147,"6893 HAMPTON DR, SAN JOSE, CA, 95120","Match","Exact","6893 HAMPTON DR, SAN JOSE, CA, 95120",122999503,"R"
808148,"6893 N DE CHELLY LOOP","TUCSON","AZ",85741,32.331603778,-111.036677518,148,"6893 N DE CHELLY LOOP, TUCSON, AZ, 85741","Match","Exact","6893 N DE CHELLY LOOP, TUCSON, AZ, 85741",121384478,"L"
808149,"6893 NORTH DECHELLY LOOP","TUCSON","AZ",85741,32.3316081840001,-111.036538704,149,"6893 NORTH DECHELLY LOOP, TUCSON, AZ, 85741","Match","Non_Exact","6893 N DE CHELLY LOOP, TUCSON, AZ, 85741",121384478,"L"
808150,"6893 NW 116TH AVANUE","PARKLAND","FL",33076,NA,NA,150,"6893 NW 116TH AVANUE, PARKLAND, FL, 33076","No_Match",NA,NA,NA,NA
808151,"6893 NW 179TH ST APT 301","HIALEAH","FL",33015,25.9350077710001,-80.3138688989999,151,"6893 NW 179TH ST APT 301, HIALEAH, FL, 33015","Match","Non_Exact","6893 NW 179TH ST, HIALEAH, FL, 33015",624566252,"L"
808152,"6893 NW 179TH STREET APT 301","HIALEAH","FL",33015,25.9350077710001,-80.3138688989999,152,"6893 NW 179TH STREET APT 301, HIALEAH, FL, 33015","Match","Non_Exact","6893 NW 179TH ST, HIALEAH, FL, 33015",624566252,"L"
808153,"6893 ST MICHAELS","OLIVE BRANCH","MS",38654,34.968412001,-89.8684647749999,153,"6893 ST MICHAELS, OLIVE BRANCH, MS, 38654","Match","Non_Exact","6893 SAINT MICHEALS ST, OLIVE BRANCH, MS, 38654",91841263,"L"
808154,"6893 SW 7TH ST","MARGATE","FL",33068,26.222525078,-80.218561603,154,"6893 SW 7TH ST, MARGATE, FL, 33068","Match","Exact","6893 SW 7TH ST, MARGATE, FL, 33068",114803391,"R"
808155,"6894 BOULDER LAKE AVENUE","SAN DIEGO","CA",92119,32.80814285,-117.019696629,155,"6894 BOULDER LAKE AVENUE, SAN DIEGO, CA, 92119","Match","Exact","6894 BOULDER LAKE AVE, SAN DIEGO, CA, 92119",195325345,"L"
808156,"6894 E CLINTON AVE","FRESNO","CA",93727,36.7721393900001,-119.66572011,156,"6894 E CLINTON AVE, FRESNO, CA, 93727","Match","Exact","6894 E CLINTON AVE, FRESNO, CA, 93727",601281087,"L"
808157,"6894 KASSONTA DRIVE","JAMESVILLE","NY",13078,42.9862851940001,-76.0493605619999,157,"6894 KASSONTA DRIVE, JAMESVILLE, NY, 13078","Match","Exact","6894 KASSONTA DR, JAMESVILLE, NY, 13078",46595903,"L"
808158,"6894 N HUNTINGTON DRIVE","SAN BERNARDINO","CA",92407,NA,NA,158,"6894 N HUNTINGTON DRIVE, SAN BERNARDINO, CA, 92407","No_Match",NA,NA,NA,NA
808159,"6894 S NYE DRIVE","SALT LAKE CITY","UT",84121,40.6266407270001,-111.830157107,159,"6894 S NYE DRIVE, SALT LAKE CITY, UT, 84121","Match","Exact","6894 NYE DR, SALT LAKE CITY, UT, 84121",176088285,"R"
808160,"6894 SETTLERS LOOP","ATHENS","TX",75751,32.1455180040001,-95.89646886,160,"6894 SETTLERS LOOP, ATHENS, TX, 75751","Match","Exact","6894 SETTLERS LOOP, ATHENS, TX, 75751",125813630,"R"
808161,"6895 118TH AVE NW","CROSBY","ND",58730,NA,NA,161,"6895 118TH AVE NW, CROSBY, ND, 58730","No_Match",NA,NA,NA,NA
808162,"6895 BACK ROAD","MAURERTOWN","VA",29681,38.9334751700001,-78.530833569,162,"6895 BACK ROAD, MAURERTOWN, VA, 29681","Match","Non_Exact","6895 BACK RD, MAURERTOWN, VA, 22644",55926432,"L"
808163,"6895 BACKWATER COVE","YOUNGSTOWN","OH",44515,41.1074129520001,-80.796815415,163,"6895 BACKWATER COVE, YOUNGSTOWN, OH, 44515","Match","Exact","6895 BACKWATER COVE, YOUNGSTOWN, OH, 44515",64627151,"L"
808164,"6895 CAMELLIA DR","ATWATER","CA",95301,37.3712914810001,-120.611990575,164,"6895 CAMELLIA DR, ATWATER, CA, 95301","Match","Exact","6895 CAMELLIA DR, ATWATER, CA, 95301",125317674,"L"
808165,"6895 COLDSTREAM COURT","BRYANS ROAD","MD",20616,38.639917976,-77.0769787469999,165,"6895 COLDSTREAM COURT, BRYANS ROAD, MD, 20616","Match","Exact","6895 COLDSTREAM CT, BRYANS ROAD, MD, 20616",627061399,"L"
808166,"6895 CONTES STREET","PALMDALE","CA",93552,34.5759091050001,-118.006274168,166,"6895 CONTES STREET, PALMDALE, CA, 93552","Match","Exact","6895 CONTES ST, PALMDALE, CA, 93552",625725840,"R"
808167,"6895 DERBY AVENUE","FAIRBURN","GA",30213,33.6260757100001,-84.6068564569999,167,"6895 DERBY AVENUE, FAIRBURN, GA, 30213","Match","Exact","6895 DERBY AVE, FAIRBURN, GA, 30213",625747501,"R"
808168,"6895 E CAVE CREEK ROAD","CAVE CREEK","AZ",85331,33.829886403,-111.931627277,168,"6895 E CAVE CREEK ROAD, CAVE CREEK, AZ, 85331","Match","Exact","6895 E CAVE CREEK RD, CAVE CREEK, AZ, 85331",649793572,"L"
808169,"6895 FOXBORO CIR","PACE","FL",32571,30.687313182,-87.19553949,169,"6895 FOXBORO CIR, PACE, FL, 32571","Match","Exact","6895 FOXBORO CIR, PACE, FL, 32571",653175171,"L"
808170,"6895 HAYDEN","DEARBORN HEIGHTS","MI",48127,42.340929085,-83.2377682379999,170,"6895 HAYDEN, DEARBORN HEIGHTS, MI, 48127","Match","Non_Exact","6895 HEYDEN, DEARBORN HEIGHTS, MI, 48127",95682385,"L"
808171,"6895 HEYDEN STREET","DEARBORN HEIGHTS","MI",48127,42.340929085,-83.2377682379999,171,"6895 HEYDEN STREET, DEARBORN HEIGHTS, MI, 48127","Match","Exact","6895 HEYDEN ST, DEARBORN HEIGHTS, MI, 48127",95682385,"L"
808172,"6895 HEYDEN","SOUTHFIELD","MI",48127,42.340929085,-83.2377682379999,172,"6895 HEYDEN, SOUTHFIELD, MI, 48127","Match","Non_Exact","6895 HEYDEN, DEARBORN HEIGHTS, MI, 48127",95682385,"L"
808173,"6895 HUNTING LANE","INDEPENDENCE","OH",44131,41.3735250510001,-81.641299838,173,"6895 HUNTING LANE, INDEPENDENCE, OH, 44131","Match","Exact","6895 HUNTING LN, INDEPENDENCE, OH, 44131",61150145,"L"
808174,"6895 IRONWOOD CIR","GREENSBORO","NC",27410,36.138645529,-79.939040424,174,"6895 IRONWOOD CIR, GREENSBORO, NC, 27410","Match","Exact","6895 IRONWOOD CIR, GREENSBORO, NC, 27410",640602731,"R"
808175,"6895 LAKE HARRISON CIRCLE","CHANHASSEN","MN",55317,44.879590309,-93.578414487,175,"6895 LAKE HARRISON CIRCLE, CHANHASSEN, MN, 55317","Match","Exact","6895 LAKE HARRISON CIR, CHANHASSEN, MN, 55317",649194619,"L"
808176,"6895 LEEDS MANOR ROAD","ORLEAN","VA",20128,NA,NA,176,"6895 LEEDS MANOR ROAD, ORLEAN, VA, 20128","No_Match",NA,NA,NA,NA
808177,"6895 MILANI STREET","LAKE WORTH","FL",33467,26.575038131,-80.178964116,177,"6895 MILANI STREET, LAKE WORTH, FL, 33467","Match","Exact","6895 MILANI ST, LAKE WORTH, FL, 33467",624565261,"R"
808178,"6895 NW 14TH AVENUE P O BOX 531311","MIAMI SHOES","FL",33153,NA,NA,178,"6895 NW 14TH AVENUE P O BOX 531311, MIAMI SHOES, FL, 33153","No_Match",NA,NA,NA,NA
808179,"6895 NW 14TH AVENUE P O BOX 531311","MIAMI SHOES","FL",NA,NA,NA,179,"6895 NW 14TH AVENUE P O BOX 531311, MIAMI SHOES, FL, ","No_Match",NA,NA,NA,NA
808180,"6895 RANCH CLUB RD","TALLAHASSEE","FL",32305,30.2865130980001,-84.188622864,180,"6895 RANCH CLUB RD, TALLAHASSEE, FL, 32305","Match","Exact","6895 RANCH CLUB RD, TALLAHASSEE, FL, 32305",618808139,"R"
808181,"6895 SANDY POINT RD","ELIDA","OH",45807,40.8361871930001,-84.166511338,181,"6895 SANDY POINT RD, ELIDA, OH, 45807","Match","Exact","6895 SANDY POINT RD, ELIDA, OH, 45807",209549878,"R"
808182,"6895 SUNKIST DR","SPARKS","NV",89436,39.5909995920001,-119.737696857,182,"6895 SUNKIST DR, SPARKS, NV, 89436","Match","Exact","6895 SUNKIST DR, SPARKS, NV, 89436",107100843,"R"
808183,"6895 TELEGRAPH ROAD","BLOOMFIELD HILLS","MI",48301,42.537231466,-83.2845704119999,183,"6895 TELEGRAPH ROAD, BLOOMFIELD HILLS, MI, 48301","Match","Exact","6895 TELEGRAPH RD, BLOOMFIELD HILLS, MI, 48301",69729574,"L"
808184,"6895 WATERS EDGE DR","STONE MOUNTAIN","GA",30087,33.797785311,-84.101544769,184,"6895 WATERS EDGE DR, STONE MOUNTAIN, GA, 30087","Match","Exact","6895 WATERS EDGE DR, STONE MOUNTAIN, GA, 30087",642648666,"L"
808185,"6895","GREENSBORO","NC",27410,NA,NA,185,"6895, GREENSBORO, NC, 27410","No_Match",NA,NA,NA,NA
808186,"68950 E HIGHWAY 60","WYANDOTTE","OK",74370,NA,NA,186,"68950 E HIGHWAY 60, WYANDOTTE, OK, 74370","No_Match",NA,NA,NA,NA
808187,"68952 BENHAM BEACH","STURGIS","MI",49091,41.795771775,-85.5451652089999,187,"68952 BENHAM BEACH, STURGIS, MI, 49091","Match","Non_Exact","68952 BENHAM BEACH RD, STURGIS, MI, 49091",15317663,"L"
808188,"6896 CHERRY LAUREL LANE","FISHERS","IN",46038,39.9541364900001,-86.047365143,188,"6896 CHERRY LAUREL LANE, FISHERS, IN, 46038","Match","Exact","6896 CHERRY LAUREL LN, FISHERS, IN, 46038",29305948,"R"
808189,"6896 COUNTY ROAD 8","BOLIVAR","NY",14715,42.098012252,-78.126739027,189,"6896 COUNTY ROAD 8, BOLIVAR, NY, 14715","Match","Exact","6896 CO RD 8, BOLIVAR, NY, 14715",652642620,"L"
808190,"6896 FARBWOOD RD","ROCKFORD","IL",61102,42.2275556760001,-89.170554021,190,"6896 FARBWOOD RD, ROCKFORD, IL, 61102","Match","Exact","6896 FARBWOOD RD, ROCKFORD, IL, 61102",49282207,"R"
808191,"6896 HAMILTON-MIDDLETOWN RD","FRANKLIN","OH",45005,39.5471915050001,-84.3306124699999,191,"6896 HAMILTON-MIDDLETOWN RD, FRANKLIN, OH, 45005","Match","Non_Exact","6896 HAMILTON MIDDLETOWN RD, FRANKLIN, OH, 45005",642868889,"R"
808192,"6896 HWY 3","BENTON","LA",71006,32.7199926650001,-93.7374580489999,192,"6896 HWY 3, BENTON, LA, 71006","Match","Exact","6896 HWY 3, BENTON, LA, 71006",618225543,"R"
808193,"6896 HWY 69","LONE OAK","TX",75453,33.0099065910001,-95.955456563,193,"6896 HWY 69, LONE OAK, TX, 75453","Match","Non_Exact","6896 US HWY 69, LONE OAK, TX, 75453",42863221,"L"
808194,"6896 Laurel Street NW","WASHINGTON","DC",20012,38.9733597380001,-77.013307356,194,"6896 Laurel Street NW, WASHINGTON, DC, 20012","Match","Exact","6896 LAUREL ST NW, WASHINGTON, DC, 20012",76222041,"L"
808195,"6896 SHANGRILA WAY","RIVERDALE","GA",30296,33.5668778890001,-84.4298829799999,195,"6896 SHANGRILA WAY, RIVERDALE, GA, 30296","Match","Exact","6896 SHANGRILA WAY, RIVERDALE, GA, 30296",23312425,"L"
808196,"6897 ATLANTA HIGHWAY","MONTGOMERY","AL",36117,32.3824897310001,-86.175930019,196,"6897 ATLANTA HIGHWAY, MONTGOMERY, AL, 36117","Match","Exact","6897 ATLANTA HWY, MONTGOMERY, AL, 36117",1489146,"L"
808197,"6897 GREENBRIAR CURVE","SHAKOPEE","MN",55379,44.781455544,-93.431660608,197,"6897 GREENBRIAR CURVE, SHAKOPEE, MN, 55379","Match","Exact","6897 GREENBRIAR CURVE, SHAKOPEE, MN, 55379",38152965,"R"
808198,"6897 NW WILLOWSPRINGS DR","LAWTON","OK",73505,34.6177209910001,-98.475836936,198,"6897 NW WILLOWSPRINGS DR, LAWTON, OK, 73505","Match","Non_Exact","6897 NW WILLOW SPRINGS DR, LAWTON, OK, 73505",15008076,"R"
808199,"6897 REFUGE ROAD","GREENLEAF","WI",54126,44.308133888,-88.050276675,199,"6897 REFUGE ROAD, GREENLEAF, WI, 54126","Match","Exact","6897 REFUGE RD, GREENLEAF, WI, 54126",148090290,"R"
808200,"6897 S STAR DR","GILBERT","AZ",85298,33.2251762230001,-111.693535981,200,"6897 S STAR DR, GILBERT, AZ, 85298","Match","Exact","6897 STAR DR, GILBERT, AZ, 85298",243928674,"R"
808201,"6897 SELF CREEK ROAD","STARKVILLE","MS",39759,33.477577276,-88.94997674,201,"6897 SELF CREEK ROAD, STARKVILLE, MS, 39759","Match","Exact","6897 SELF CREEK RD, STARKVILLE, MS, 39759",607232857,"R"
808202,"6897 SOUTH 4000 WEST","SPANISH FORK","UT",84660,40.104922323,-111.749580773,202,"6897 SOUTH 4000 WEST, SPANISH FORK, UT, 84660","Match","Exact","6897 S 4000 W, SPANISH FORK, UT, 84660",134199270,"R"
808203,"6897 SW GREENWICH DRIVE","PORTLAND","OR",97225,45.511565526,-122.749539629,203,"6897 SW GREENWICH DRIVE, PORTLAND, OR, 97225","Match","Exact","6897 SW GREENWICH DR, PORTLAND, OR, 97225",158213244,"L"
808204,"6897 TRIGO RD","GOLETA","CA",93117,34.411269326,-119.869403174,204,"6897 TRIGO RD, GOLETA, CA, 93117","Match","Exact","6897 TRIGO RD, GOLETA, CA, 93117",108600709,"L"
808205,"6897 VANTAGE COURT","FLORENCE","KY",41042,39.0007175580001,-84.6920646629999,205,"6897 VANTAGE COURT, FLORENCE, KY, 41042","Match","Exact","6897 VANTAGE CT, FLORENCE, KY, 41042",646821327,"R"
808206,"6897 W CHARLESTON BLVD","LAS VEGAS","NV",89117,36.1590443790001,-115.245069818,206,"6897 W CHARLESTON BLVD, LAS VEGAS, NV, 89117","Match","Exact","6897 W CHARLESTON BLVD, LAS VEGAS, NV, 89117",639385339,"R"
808207,"6898 A C SKINNER PKWY UNIT 313","JACKSONVILLE","FL",32256,NA,NA,207,"6898 A C SKINNER PKWY UNIT 313, JACKSONVILLE, FL, 32256","No_Match",NA,NA,NA,NA
808208,"6898 CRYSTALWOOD DR","LIVERPOOL","NY",13088,43.105077878,-76.166398253,208,"6898 CRYSTALWOOD DR, LIVERPOOL, NY, 13088","Match","Exact","6898 CRYSTALWOOD DR, LIVERPOOL, NY, 13088",46568301,"L"
808209,"6898 DEER RUN DR SE","COPPER HILL","VA",24079,37.029307719,-80.117937328,209,"6898 DEER RUN DR SE, COPPER HILL, VA, 24079","Match","Exact","6898 DEER RUN DR SE, COPPER HILL, VA, 24079",79786131,"R"
808210,"6898 DEER RUN RD SE","COPPER HILL","VA",24079,37.029307719,-80.117937328,210,"6898 DEER RUN RD SE, COPPER HILL, VA, 24079","Match","Non_Exact","6898 DEER RUN DR SE, COPPER HILL, VA, 24079",79786131,"R"
808211,"6898 E STEVENS ROAD","CAVE CREEK","AZ",85331,33.8339361270001,-111.93172156,211,"6898 E STEVENS ROAD, CAVE CREEK, AZ, 85331","Match","Exact","6898 E STEVENS RD, CAVE CREEK, AZ, 85331",627433233,"R"
808212,"6898 KEEFERS LANE","BLOOMSBURG","PA",17815,41.033853417,-76.361731285,212,"6898 KEEFERS LANE, BLOOMSBURG, PA, 17815","Match","Exact","6898 KEEFERS LN, BLOOMSBURG, PA, 17815",59236530,"R"
808213,"6898 MACFARLANE ROAD","GLEN ARBOR","MI",49636,44.8567997710001,-85.9947708289999,213,"6898 MACFARLANE ROAD, GLEN ARBOR, MI, 49636","Match","Non_Exact","6898 MCFARLANE RD, GLEN ARBOR, MI, 49636",649724344,"R"
808214,"6898 S FRANKLIN CIR","CENTENNIAL","CO",80122,39.5909497970001,-104.969376082,214,"6898 S FRANKLIN CIR, CENTENNIAL, CO, 80122","Match","Exact","6898 S FRANKLIN CIR, CENTENNIAL, CO, 80122",177337707,"L"
808215,"6898 WATER POINT COVE","MEMPHIS","TN",38141,NA,NA,215,"6898 WATER POINT COVE, MEMPHIS, TN, 38141","Tie",NA,NA,NA,NA
808216,"6899 ADAINVILLE DR","PALMDALE","CA",93552,34.577398886,-118.006505274,216,"6899 ADAINVILLE DR, PALMDALE, CA, 93552","Match","Exact","6899 ADAINVILLE DR, PALMDALE, CA, 93552",625725602,"L"
808217,"6899 BAULEY DRIVE","HUDSON","OH",44236,41.250672046,-81.421742474,217,"6899 BAULEY DRIVE, HUDSON, OH, 44236","Match","Exact","6899 BAULEY DR, HUDSON, OH, 44236",61364537,"R"
808218,"6899 BISHOPS CROSSING CIRCLE","DUBLIN","OH",43016,40.126374248,-83.176681426,218,"6899 BISHOPS CROSSING CIRCLE, DUBLIN, OH, 43016","Match","Exact","6899 BISHOPS CROSSING CIR, DUBLIN, OH, 43016",634053886,"R"
808219,"6899 BROADVIEW RD","SEVEN HILLS","OH",44131,41.378206833,-81.684727412,219,"6899 BROADVIEW RD, SEVEN HILLS, OH, 44131","Match","Exact","6899 BROADVIEW RD, SEVEN HILLS, OH, 44131",61165988,"L"
808220,"6899 CHILLINGSWORTH CIRCLE NW","CANTON","OH",44718,40.8551588130001,-81.4761840749999,220,"6899 CHILLINGSWORTH CIRCLE NW, CANTON, OH, 44718","Match","Exact","6899 CHILLINGSWORTH CIR NW, CANTON, OH, 44718",64706459,"R"
808221,"6899 CO RD 73","NEWVILLE","AL",36353,31.4067301430001,-85.4069836899999,221,"6899 CO RD 73, NEWVILLE, AL, 36353","Match","Exact","6899 CO RD 73, NEWVILLE, AL, 36353",101182511,"R"
808222,"6899 COLLINS AVE UNIT 2707","MIAMI BEACH","FL",33141,25.854044231,-80.120408732,222,"6899 COLLINS AVE UNIT 2707, MIAMI BEACH, FL, 33141","Match","Exact","6899 COLLINS AVE, MIAMI BEACH, FL, 33141",651226116,"R"
808223,"6899 N CRYSTAL RD","VESTABURG","MI",48891,43.3921649590001,-84.905143664,223,"6899 N CRYSTAL RD, VESTABURG, MI, 48891","Match","Exact","6899 CRYSTAL RD, VESTABURG, MI, 48891",110552972,"L"
808224,"6899 OLD FOX TRAIL","STONE MOUNTAIN","CA",30087,NA,NA,224,"6899 OLD FOX TRAIL, STONE MOUNTAIN, CA, 30087","No_Match",NA,NA,NA,NA
808225,"6899 OLD FOX TRAIL","STONE MOUNTAIN","GA",30087,33.780275003,-84.106325182,225,"6899 OLD FOX TRAIL, STONE MOUNTAIN, GA, 30087","Match","Exact","6899 OLD FOX TRL, STONE MOUNTAIN, GA, 30087",23385294,"L"
808226,"6899 PENTLAND WAY 113","FORT MYERS","FL",33966,26.550816608,-81.840606249,226,"6899 PENTLAND WAY 113, FORT MYERS, FL, 33966","Match","Exact","6899 PENTLAND WAY, FORT MYERS, FL, 33966",118064686,"R"
808227,"6899 S 300 E","MARKLEVILLE","IN",46056,40.0065997830001,-85.614712197,227,"6899 S 300 E, MARKLEVILLE, IN, 46056","Match","Exact","6899 S 300 E, MARKLEVILLE, IN, 46056",31117658,"R"
808228,"6899 SR 150","DILLONVALE","OH",43917,40.203467813,-80.769361808,228,"6899 SR 150, DILLONVALE, OH, 43917","Match","Non_Exact","6899 STATE RTE 150, DILLONVALE, OH, 43917",621483106,"L"
808229,"6899 TORRINGTON","FRANKLIN","OH",45055,NA,NA,229,"6899 TORRINGTON, FRANKLIN, OH, 45055","No_Match",NA,NA,NA,NA
808230,"6899 TYLER DR","WALLS","MS",38680,34.9760417470001,-90.112170061,230,"6899 TYLER DR, WALLS, MS, 38680","Match","Exact","6899 TYLER DR, WALLS, MS, 38680",91854635,"R"
808231,"68A HEALD ST","PEPPERELL","MA",1463,42.670775705,-71.6161659589999,231,"68A HEALD ST, PEPPERELL, MA, 1463","Match","Exact","68 HEALD ST, PEPPERELL, MA, 01463",87097943,"R"
808232,"68A STILES ROAD","SALEM","MA",3079,NA,NA,232,"68A STILES ROAD, SALEM, MA, 3079","No_Match",NA,NA,NA,NA
808233,"68B 432 PARK AVENUE E 56TH STREET","NEW YORK","NY",10022,NA,NA,233,"68B 432 PARK AVENUE E 56TH STREET, NEW YORK, NY, 10022","No_Match",NA,NA,NA,NA
808234,"68C WEST FRONT STREET","RED BANK","NJ",7701,40.3513971310001,-74.0683180729999,234,"68C WEST FRONT STREET, RED BANK, NJ, 7701","Match","Exact","68 W FRONT ST, RED BANK, NJ, 07701",639003471,"R"
808235,"68R BALDWIN RD","BILLERICA","MA",1821,42.5572414700001,-71.235878299,235,"68R BALDWIN RD, BILLERICA, MA, 1821","Match","Exact","68 BALDWIN RD, BILLERICA, MA, 01821",613245468,"L"
808236,"68TH AVE","SACRAMENTO","CA",95822,NA,NA,236,"68TH AVE, SACRAMENTO, CA, 95822","No_Match",NA,NA,NA,NA
808237,"69  19TH ST","BUFFALO","NY",14213,42.914097488,-78.8861340239999,237,"69  19TH ST, BUFFALO, NY, 14213","Match","Exact","69 19TH ST, BUFFALO, NY, 14213",48288984,"R"
808238,"69  IROQUOIS AVENUE","LAKE HIAWATHA","NJ",7034,40.8837345860001,-74.3826024099999,238,"69  IROQUOIS AVENUE, LAKE HIAWATHA, NJ, 7034","Match","Exact","69 IROQUOIS AVE, LAKE HIAWATHA, NJ, 07034",60446013,"L"
808239,"69  JACKSON STREET","STEILACOOM","WA",98388,47.1651202640001,-122.612234988,239,"69  JACKSON STREET, STEILACOOM, WA, 98388","Match","Exact","69 JACKSON ST, STEILACOOM, WA, 98388",184617697,"L"
808240,"69  MAIN STREET","WOODSTOWN","NJ",8098,39.6577741740001,-75.368158904,240,"69  MAIN STREET, WOODSTOWN, NJ, 8098","Match","Exact","69 MAIN ST, WOODSTOWN, NJ, 08098",174417254,"R"
808241,"69  RIDGEWOOD ROAD","CONCORD","CO",1742,NA,NA,241,"69  RIDGEWOOD ROAD, CONCORD, CO, 1742","No_Match",NA,NA,NA,NA
808242,"69  S NOME","AURORA","CO",80012,NA,NA,242,"69  S NOME, AURORA, CO, 80012","Tie",NA,NA,NA,NA
808243,"69 01 NORTHERN BLVD APT 4H","WOODSIDE","NY",11377,NA,NA,243,"69 01 NORTHERN BLVD APT 4H, WOODSIDE, NY, 11377","No_Match",NA,NA,NA,NA
808244,"69 10  GROTON ST FOREST HILLS","NEW YORK","NY",11375,NA,NA,244,"69 10  GROTON ST FOREST HILLS, NEW YORK, NY, 11375","No_Match",NA,NA,NA,NA
808245,"69 14TH ST","WHEATLAND","WY",82201,42.04576602,-104.960143243,245,"69 14TH ST, WHEATLAND, WY, 82201","Match","Exact","69 14TH ST, WHEATLAND, WY, 82201",160434335,"L"
808246,"69 15TH AVENUE","SEA CLIFF","NY",11579,40.847684386,-73.646394781,246,"69 15TH AVENUE, SEA CLIFF, NY, 11579","Match","Exact","69 15TH AVE, SEA CLIFF, NY, 11579",147661571,"L"
808247,"69 32 APT F MYRTLE AVE","GLENDALE","NY",11385,NA,NA,247,"69 32 APT F MYRTLE AVE, GLENDALE, NY, 11385","No_Match",NA,NA,NA,NA
808248,"69 ADAMS POINT ROAD","BARRINGTON","RI",2806,41.723237135,-71.294215106,248,"69 ADAMS POINT ROAD, BARRINGTON, RI, 2806","Match","Exact","69 ADAMS POINT RD, BARRINGTON, RI, 02806",653282359,"R"
808249,"69 ALLEN AVE","LYNN","MA",1902,42.4731448310001,-70.94762623,249,"69 ALLEN AVE, LYNN, MA, 1902","Match","Exact","69 ALLEN AVE, LYNN, MA, 01902",86645190,"R"
808250,"69 ALTAIR DRIVE","TURNERSVILLE","NJ",8012,39.7336580510001,-75.071583904,250,"69 ALTAIR DRIVE, TURNERSVILLE, NJ, 8012","Match","Exact","69 ALTAIR DR, TURNERSVILLE, NJ, 08012",134587044,"L"
808251,"69 ANGLIN RD","GRIFFIN","GA",30223,33.274951457,-84.155467323,251,"69 ANGLIN RD, GRIFFIN, GA, 30223","Match","Exact","69 ANGLIN RD, GRIFFIN, GA, 30223",23759913,"R"
808252,"69 ANNE MARIE DRIVE","HOLLISTON","MA",1746,42.2244557070001,-71.441762313,252,"69 ANNE MARIE DRIVE, HOLLISTON, MA, 1746","Match","Non_Exact","69 ANN MARIE DR, HOLLISTON, MA, 01746",86849826,"R"
808253,"69 APPALOOSA LANE","ORMOND BEACH","FL",32174,29.2574546920001,-81.203871524,253,"69 APPALOOSA LANE, ORMOND BEACH, FL, 32174","Match","Exact","69 APPALOOSA LN, ORMOND BEACH, FL, 32174",640727825,"R"
808254,"69 ARDEN AVE","BUFFALO","NY",14215,42.925931645,-78.8111352459999,254,"69 ARDEN AVE, BUFFALO, NY, 14215","Match","Exact","69 ARDEN AVE, BUFFALO, NY, 14215",48297389,"R"
808255,"69 AUCKLAND DR","NEWARK","DE",19702,39.6273183010001,-75.6858097589999,255,"69 AUCKLAND DR, NEWARK, DE, 19702","Match","Exact","69 AUCKLAND DR, NEWARK, DE, 19702",187292142,"L"
808256,"69 AULDWOOD RD","STAMFORD","CT",6902,41.0354261900001,-73.5247768569999,256,"69 AULDWOOD RD, STAMFORD, CT, 6902","Match","Exact","69 AULDWOOD RD, STAMFORD, CT, 06902",3246073,"R"
808257,"69 AVENIDA DE LAS NACIONES","RIO RICO","AZ",85648,31.576413646,-111.030227707,257,"69 AVENIDA DE LAS NACIONES, RIO RICO, AZ, 85648","Match","Exact","69 AVE DE LAS NACIONES, RIO RICO, AZ, 85648",120896173,"R"
808258,"69 B PARK STREET","ADAMS","MA",1220,42.6230020460001,-73.120055298,258,"69 B PARK STREET, ADAMS, MA, 1220","Match","Exact","69 PARK ST, ADAMS, MA, 01220",638991954,"R"
808259,"69 B RAFT ISLAND DRIVE NW","GIG HARBOUR","WA",98335,47.3297423240001,-122.674973404,259,"69 B RAFT ISLAND DRIVE NW, GIG HARBOUR, WA, 98335","Match","Exact","69 RAFT ISLAND DR NW, GIG HARBOR, WA, 98335",184706619,"L"
808260,"69 BAEZA LANE","LAS VEGAS","NM",87701,35.4495819750001,-105.284177336,260,"69 BAEZA LANE, LAS VEGAS, NM, 87701","Match","Non_Exact","69 BAEZ LN, LAS VEGAS, NM, 87701",169015396,"R"
808261,"69 BAHAMA CIRCLE","TAMPA","FL",33606,27.928227285,-82.460573783,261,"69 BAHAMA CIRCLE, TAMPA, FL, 33606","Match","Exact","69 BAHAMA CIR, TAMPA, FL, 33606",104530376,"R"
808262,"69 BARBARA LEE DR","HAMILTON","NJ",8619,40.2355730290001,-74.6743841959999,262,"69 BARBARA LEE DR, HAMILTON, NJ, 8619","Match","Exact","69 BARBARA LEE DR, HAMILTON, NJ, 08619",60184151,"R"
808263,"69 BARBARA PLACE","CHEEKTOWAGA","NY",14225,42.9201402240001,-78.7980347389999,263,"69 BARBARA PLACE, CHEEKTOWAGA, NY, 14225","Match","Exact","69 BARBARA PL, CHEEKTOWAGA, NY, 14225",48316064,"R"
808264,"69 BARNWELL LANE","WILLINGBORO","NJ",8046,40.033676674,-74.8821078089999,264,"69 BARNWELL LANE, WILLINGBORO, NJ, 8046","Match","Exact","69 BARNWELL LN, WILLINGBORO, NJ, 08046",134031576,"L"
808265,"69 BARNWELL LN","WILLINGBORO","NJ",8046,40.033676674,-74.8821078089999,265,"69 BARNWELL LN, WILLINGBORO, NJ, 8046","Match","Exact","69 BARNWELL LN, WILLINGBORO, NJ, 08046",134031576,"L"
808266,"69 BARRE ROAD","HUBBARDSTON","MA",1452,42.4546236320001,-72.0165136479999,266,"69 BARRE ROAD, HUBBARDSTON, MA, 1452","Match","Exact","69 BARRE RD, HUBBARDSTON, MA, 01452",40104827,"R"
808267,"69 BEACON BAY","NEWPORT BEACH","CA",92660,33.6101351890001,-117.89728739,267,"69 BEACON BAY, NEWPORT BEACH, CA, 92660","Match","Exact","69 BEACON BAY, NEWPORT BEACH, CA, 92660",609072319,"L"
808268,"69 BELL BUOY ROAD","POCASSET","MA",2559,41.6829217980001,-70.618553095,268,"69 BELL BUOY ROAD, POCASSET, MA, 2559","Match","Exact","69 BELL BUOY RD, POCASSET, MA, 02559",121581564,"R"
808269,"69 BEN LOMOND","HERCULES","CA",94547,38.007092039,-122.278764627,269,"69 BEN LOMOND, HERCULES, CA, 94547","Match","Exact","69 BEN LOMOND, HERCULES, CA, 94547",192093159,"L"
808270,"69 BENNETT AVE APT 208","NEW YORK","NY",10033,40.852632886,-73.9355558729999,270,"69 BENNETT AVE APT 208, NEW YORK, NY, 10033","Match","Exact","69 BENNETT AVE, NEW YORK, NY, 10033",59655571,"R"
808271,"69 BENNETT AVE APT 210","NEW YORK","NY",10033,40.852632886,-73.9355558729999,271,"69 BENNETT AVE APT 210, NEW YORK, NY, 10033","Match","Exact","69 BENNETT AVE, NEW YORK, NY, 10033",59655571,"R"
808272,"69 BENNETT AVE APT208","NEW YORK","NY",10033,40.852632886,-73.9355558729999,272,"69 BENNETT AVE APT208, NEW YORK, NY, 10033","Match","Exact","69 BENNETT AVE, NEW YORK, NY, 10033",59655571,"R"
808273,"69 BERNICE DRIVE","CHEEKTOWAGA","NY",14225,42.9161892990001,-78.740396608,273,"69 BERNICE DRIVE, CHEEKTOWAGA, NY, 14225","Match","Exact","69 BERNICE DR, CHEEKTOWAGA, NY, 14225",48305860,"R"
808274,"69 BEYNE STREET","MOUNT CLEMENS","MI",48043,42.589951754,-82.879062021,274,"69 BEYNE STREET, MOUNT CLEMENS, MI, 48043","Match","Exact","69 BEYNE ST, MOUNT CLEMENS, MI, 48043",110682786,"L"
808275,"69 BIG RIDGE COURT","BURNSVILLE","NC",28714,35.7645163440001,-82.2000153549999,275,"69 BIG RIDGE COURT, BURNSVILLE, NC, 28714","Match","Exact","69 BIG RIDGE CT, BURNSVILLE, NC, 28714",610911862,"L"
808276,"69 BIRCH LANE","VALLEY STREAM","NY",11581,40.6527204760001,-73.7060152669999,276,"69 BIRCH LANE, VALLEY STREAM, NY, 11581","Match","Exact","69 BIRCH LN, VALLEY STREAM, NY, 11581",147677554,"L"
808277,"69 BITTERSWEET CIRCLE","GUILFORD","CT",6437,41.347221705,-72.7320879059999,277,"69 BITTERSWEET CIRCLE, GUILFORD, CT, 6437","Match","Exact","69 BITTERSWEET CIR, GUILFORD, CT, 06437",3707559,"R"
808278,"69 BIXBY HILL ROAD","ESSEX JUNCTION","VT",5452,44.515809613,-73.055478391,278,"69 BIXBY HILL ROAD, ESSEX JUNCTION, VT, 5452","Match","Exact","69 BIXBY HILL RD, ESSEX JCT, VT, 05452",135845848,"L"
808279,"69 BLAKE RD","PLATTSBURGH","NY",12901,44.621708224,-73.5390525139999,279,"69 BLAKE RD, PLATTSBURGH, NY, 12901","Match","Exact","69 BLAKE RD, PLATTSBURGH, NY, 12901",136097747,"R"
808280,"69 BLUE RIDGE DRIVE","SIMSBURY","CT",6070,41.822084482,-72.842962665,280,"69 BLUE RIDGE DRIVE, SIMSBURY, CT, 6070","Match","Exact","69 BLUE RIDGE DR, SIMSBURY, CT, 06070",3484000,"L"
808281,"69 BLUE SKY DR","WRIGHTSVILLE","PA",17368,NA,NA,281,"69 BLUE SKY DR, WRIGHTSVILLE, PA, 17368","No_Match",NA,NA,NA,NA
808282,"69 BLUE SKY DRIVE","WRIGHTSVILLE","PA",17368,NA,NA,282,"69 BLUE SKY DRIVE, WRIGHTSVILLE, PA, 17368","No_Match",NA,NA,NA,NA
808283,"69 BOULEVARD PARKWAY","ROCHESTER","NY",14612,43.223990218,-77.628982933,283,"69 BOULEVARD PARKWAY, ROCHESTER, NY, 14612","Match","Exact","69 BOULEVARD PKWY, ROCHESTER, NY, 14612",14527779,"L"
808284,"69 BRIAR CLIFF DRIVE","NEW CASTLE","DE",19720,39.707935691,-75.560231745,284,"69 BRIAR CLIFF DRIVE, NEW CASTLE, DE, 19720","Match","Non_Exact","69 BRIARCLIFF DR, NEW CASTLE, DE, 19720",187269687,"R"
808285,"69 BRICE WARD RD","WHITEVILLE","NC",28472,NA,NA,285,"69 BRICE WARD RD, WHITEVILLE, NC, 28472","No_Match",NA,NA,NA,NA
808286,"69 BRICKYARD ROAD EXT","SOUTHAMPTON","MA",1073,42.217840085,-72.7288215849999,286,"69 BRICKYARD ROAD EXT, SOUTHAMPTON, MA, 1073","Match","Non_Exact","69 BRICKYARD RD EXD, SOUTHAMPTON, MA, 01073",640074999,"R"
808287,"69 BROAD STREET","KEYPORT","NJ",7735,40.4370394090001,-74.20173655,287,"69 BROAD STREET, KEYPORT, NJ, 7735","Match","Exact","69 BROAD ST, KEYPORT, NJ, 07735",90473769,"L"
808288,"69 BROADSHIP ROAD","DUNDALK","MD",21222,39.2655895180001,-76.524880351,288,"69 BROADSHIP ROAD, DUNDALK, MD, 21222","Match","Exact","69 BROADSHIP RD, DUNDALK, MD, 21222",191522026,"R"
808289,"69 BROADWAY APT 2","METHUEN","MA",1844,42.719566607,-71.180216108,289,"69 BROADWAY APT 2, METHUEN, MA, 1844","Match","Exact","69 BROADWAY, METHUEN, MA, 01844",86624993,"R"
808290,"69 BROWN ST BOX  4739","PROVIDENCE","RI",2912,41.8249561380001,-71.4027209189999,290,"69 BROWN ST BOX  4739, PROVIDENCE, RI, 2912","Match","Exact","69 BROWN ST, PROVIDENCE, RI, 02912",47466503,"R"
808291,"69 BROWN ST BOX 2457","PROVIDENCE","RI",2912,41.8249561380001,-71.4027209189999,291,"69 BROWN ST BOX 2457, PROVIDENCE, RI, 2912","Match","Exact","69 BROWN ST, PROVIDENCE, RI, 02912",47466503,"R"
808292,"69 BROWN ST","PROVIDENCE","RI",2912,41.8249561380001,-71.4027209189999,292,"69 BROWN ST, PROVIDENCE, RI, 2912","Match","Exact","69 BROWN ST, PROVIDENCE, RI, 02912",47466503,"R"
808293,"69 BROWN STREET - MAIL NO 6911","PROVIDENCE","RI",2912,41.8249561380001,-71.4027209189999,293,"69 BROWN STREET - MAIL NO 6911, PROVIDENCE, RI, 2912","Match","Exact","69 BROWN ST, PROVIDENCE, RI, 02912",47466503,"R"
808294,"69 BROWN STREET 3542","PROVIDENCE","RI",2912,41.8249561380001,-71.4027209189999,294,"69 BROWN STREET 3542, PROVIDENCE, RI, 2912","Match","Exact","69 BROWN ST, PROVIDENCE, RI, 02912",47466503,"R"
808295,"69 BROWN STREET BOX 2290","PROVIDENCE","RI",2912,41.8249561380001,-71.4027209189999,295,"69 BROWN STREET BOX 2290, PROVIDENCE, RI, 2912","Match","Exact","69 BROWN ST, PROVIDENCE, RI, 02912",47466503,"R"
808296,"69 BROWN STREET","PROVIDENCE","RI",2906,NA,NA,296,"69 BROWN STREET, PROVIDENCE, RI, 2906","No_Match",NA,NA,NA,NA
808297,"69 BROWN STREET","PROVIDENCE","RI",2912,41.8249561380001,-71.4027209189999,297,"69 BROWN STREET, PROVIDENCE, RI, 2912","Match","Exact","69 BROWN ST, PROVIDENCE, RI, 02912",47466503,"R"
808298,"69 BUCKBERG MOUNTAIN ROAD","TOMKINS COVE","NY",10986,41.256817233,-73.991583577,298,"69 BUCKBERG MOUNTAIN ROAD, TOMKINS COVE, NY, 10986","Match","Exact","69 BUCKBERG MOUNTAIN RD, TOMKINS COVE, NY, 10986",124607756,"L"
808299,"69 BUDD AVE","BROCKTON","MA",2302,42.089056111,-70.994681204,299,"69 BUDD AVE, BROCKTON, MA, 2302","Match","Exact","69 BUDD AVE, BROCKTON, MA, 02302",87442961,"R"
808300,"69 BULLRUSH LANDING","ELIZABETHTOWN","PA",17022,40.1279662160001,-76.608357682,300,"69 BULLRUSH LANDING, ELIZABETHTOWN, PA, 17022","Match","Non_Exact","69 BULLRUSH LDG, ELIZABETHTOWN, PA, 17022",179688325,"R"
808301,"69 BURNSIDE AVE","CRANSTON","RI",2910,41.782222899,-71.4354988649999,301,"69 BURNSIDE AVE, CRANSTON, RI, 2910","Match","Non_Exact","69 BURNSIDE ST, CRANSTON, RI, 02910",47462098,"R"
808302,"69 CABIN VILLAGE LN","HILLSVILLE","VA",24343,NA,NA,302,"69 CABIN VILLAGE LN, HILLSVILLE, VA, 24343","No_Match",NA,NA,NA,NA
808303,"69 CABIN VILLAGE","HILLSVILLE","VA",24343,NA,NA,303,"69 CABIN VILLAGE, HILLSVILLE, VA, 24343","No_Match",NA,NA,NA,NA
808304,"69 CABOT AVENUE","ELMSFORD","NY",10523,41.0614911580001,-73.810802681,304,"69 CABOT AVENUE, ELMSFORD, NY, 10523","Match","Exact","69 CABOT AVE, ELMSFORD, NY, 10523",139846811,"L"
808305,"69 CADMUS AVE","ELMWOOD PARK","NJ",7407,40.895053682,-74.109219981,305,"69 CADMUS AVE, ELMWOOD PARK, NJ, 7407","Match","Exact","69 CADMUS AVE, ELMWOOD PARK, NJ, 07407",64416408,"L"
808306,"69 CALAVERAS","GOLETA","CA",93117,34.4357554590001,-119.87812016,306,"69 CALAVERAS, GOLETA, CA, 93117","Match","Non_Exact","69 CALAVERAS AVE, GOLETA, CA, 93117",108600494,"L"
808307,"69 CAMBRIDGE DRIVE","GLENMONT","NY",12077,42.609177645,-73.8143531169999,307,"69 CAMBRIDGE DRIVE, GLENMONT, NY, 12077","Match","Non_Exact","69 CAMBRIDGE RD, GLENMONT, NY, 12077",18309325,"L"
808308,"69 CAMERON CT W","PEMBROKE","GA",31321,32.129004278,-81.621330024,308,"69 CAMERON CT W, PEMBROKE, GA, 31321","Match","Exact","69 CAMERON CT W, PEMBROKE, GA, 31321",619995861,"L"
808309,"69 CAREY AVENUE","BUTLER","NJ",7405,40.998854254,-74.3353983649999,309,"69 CAREY AVENUE, BUTLER, NJ, 7405","Match","Exact","69 CAREY AVE, BUTLER, NJ, 07405",60427366,"R"
808310,"69 CEDAR DR W","PLAINVIEW","NY",11803,40.782699301,-73.485304374,310,"69 CEDAR DR W, PLAINVIEW, NY, 11803","Match","Non_Exact","69 CEDAR DR, PLAINVIEW, NY, 11803",147642093,"R"
808311,"69 CHARLES STREET","NEW YORK","NY",10014,40.7347844400001,-74.003951324,311,"69 CHARLES STREET, NEW YORK, NY, 10014","Match","Exact","69 CHARLES ST, NEW YORK, NY, 10014",59659913,"R"
808312,"69 CHARLOTTE ST","MULLIKEN","MI",48861,42.765630001,-84.896373926,312,"69 CHARLOTTE ST, MULLIKEN, MI, 48861","Match","Exact","69 CHARLOTTE ST, MULLIKEN, MI, 48861",12029024,"R"
808313,"69 CHEROKEE LANE","LAKE SANTEETLAH","NC",28771,35.361980486,-83.8691349599999,313,"69 CHEROKEE LANE, LAKE SANTEETLAH, NC, 28771","Match","Exact","69 CHEROKEE LN, LAKE SANTEETLAH, NC, 28771",630161291,"R"
808314,"69 CHERRY BROOK ROAD","WESTON","MA",2493,42.3893842620001,-71.311617053,314,"69 CHERRY BROOK ROAD, WESTON, MA, 2493","Match","Exact","69 CHERRY BROOK RD, WESTON, MA, 02493",86852778,"R"
808315,"69 CHERRY ST UNIT 1","GLEN'S FALLS","NY",12801,43.316313146,-73.6408607769999,315,"69 CHERRY ST UNIT 1, GLEN'S FALLS, NY, 12801","Match","Non_Exact","69 CHERRY ST, GLENS FALLS, NY, 12801",173897507,"R"
808316,"69 CHESTNUT ST","PEPPERELL","MA",1463,42.6857969960001,-71.635051838,316,"69 CHESTNUT ST, PEPPERELL, MA, 1463","Match","Exact","69 CHESTNUT ST, PEPPERELL, MA, 01463",86839258,"L"
808317,"69 CHOUTEAU AVENUE","FRAMINGHAM","MA",1701,42.318272795,-71.38586871,317,"69 CHOUTEAU AVENUE, FRAMINGHAM, MA, 1701","Match","Exact","69 CHOUTEAU AVE, FRAMINGHAM, MA, 01701",86848658,"R"
808318,"69 CIRCLE DRIVE","GALESBURG","IL",61401,40.9707838080001,-90.3651461269999,318,"69 CIRCLE DRIVE, GALESBURG, IL, 61401","Match","Exact","69 CIRCLE DR, GALESBURG, IL, 61401",9039312,"R"
808319,"69 CISLAK DRIVE","LUDLOW","MA",1056,42.178957983,-72.443768542,319,"69 CISLAK DRIVE, LUDLOW, MA, 1056","Match","Exact","69 CISLAK DR, LUDLOW, MA, 01056",625276635,"R"
808320,"69 CLARENCE AVENUE","BUFFALO","NY",14215,42.9362479800001,-78.822670076,320,"69 CLARENCE AVENUE, BUFFALO, NY, 14215","Match","Exact","69 CLARENCE AVE, BUFFALO, NY, 14215",48296297,"R"
808321,"69 CLIFTON LN","CENTERVILLE","MA",2632,41.642644509,-70.3270253479999,321,"69 CLIFTON LN, CENTERVILLE, MA, 2632","Match","Exact","69 CLIFTON LN, CENTERVILLE, MA, 02632",121587177,"R"
808322,"69 CLOUDCREST","ALISO VIEJO","CA",92656,33.584209549,-117.715949126,322,"69 CLOUDCREST, ALISO VIEJO, CA, 92656","Match","Exact","69 CLOUDCREST, ALISO VIEJO, CA, 92656",616891765,"R"
808323,"69 COLIE EDWARDS ROAD","RUBY","SC",29741,34.720439298,-80.234120269,323,"69 COLIE EDWARDS ROAD, RUBY, SC, 29741","Match","Exact","69 COLIE EDWARDS RD, RUBY, SC, 29741",14342996,"R"
808324,"69 COLLEGE STREET","BURLINGTON","VT",5401,44.4769106700001,-73.217310963,324,"69 COLLEGE STREET, BURLINGTON, VT, 5401","Match","Exact","69 COLLEGE ST, BURLINGTON, VT, 05401",135827255,"R"
808325,"69 COLLINS DR","GLENWOOD","AR",71943,34.372080408,-93.548659967,325,"69 COLLINS DR, GLENWOOD, AR, 71943","Match","Exact","69 COLLINS DR, GLENWOOD, AR, 71943",24037109,"R"
808326,"69 COLUMBIA AVE","LYNN","MA",1902,42.471751447,-70.927389456,326,"69 COLUMBIA AVE, LYNN, MA, 1902","Match","Exact","69 COLUMBIA AVE, LYNN, MA, 01902",86646364,"R"
808327,"69 COMMON STREET","QUINCY","MA",2169,42.2506664050001,-71.025470943,327,"69 COMMON STREET, QUINCY, MA, 2169","Match","Exact","69 COMMON ST, QUINCY, MA, 02169",616415562,"R"
808328,"69 COMP ROAD","LANDISBURG","PA",17040,40.3451695430001,-77.2409295269999,328,"69 COMP ROAD, LANDISBURG, PA, 17040","Match","Exact","69 COMP RD, LANDISBURG, PA, 17040",640211840,"L"
808329,"69 COOLIDGE AVE","GLENS FALLS","NY",12801,43.3149775090001,-73.6631399729999,329,"69 COOLIDGE AVE, GLENS FALLS, NY, 12801","Match","Exact","69 COOLIDGE AVE, GLENS FALLS, NY, 12801",173897219,"R"
808330,"69 CORAL AVENUE","BRIDGERON","NJ",8302,39.427882175,-75.2165474669999,330,"69 CORAL AVENUE, BRIDGERON, NJ, 8302","Match","Non_Exact","69 CORAL AVE, BRIDGETON, NJ, 08302",174108298,"R"
808331,"69 CORNWALL AVE","CHESHIRE","CT",6410,41.496574051,-72.904012425,331,"69 CORNWALL AVE, CHESHIRE, CT, 6410","Match","Exact","69 CORNWALL AVE, CHESHIRE, CT, 06410",3712702,"R"
808332,"69 CORTE MADERA AVE UNIT A","CORTE MADERA","CA",94925,NA,NA,332,"69 CORTE MADERA AVE UNIT A, CORTE MADERA, CA, 94925","No_Match",NA,NA,NA,NA
808333,"69 CR 1900 EAST","CARLOCK","IL",61725,40.59705153,-89.174245363,333,"69 CR 1900 EAST, CARLOCK, IL, 61725","Match","Exact","69 CO RD 1900 E, CARLOCK, IL, 61725",605105065,"L"
808334,"69 CRAWFORD ST","WATERTOWN","MA",2472,42.3685065970001,-71.1548428249999,334,"69 CRAWFORD ST, WATERTOWN, MA, 2472","Match","Exact","69 CRAWFORD ST, WATERTOWN, MA, 02472",86867548,"R"
808335,"69 CREIGHTON AVENUE","NASHVILLE","TN",37206,36.1912309090001,-86.729980134,335,"69 CREIGHTON AVENUE, NASHVILLE, TN, 37206","Match","Exact","69 CREIGHTON AVE, NASHVILLE, TN, 37206",97189061,"L"
808336,"69 CRESCENT PLACE 1","YONKERS","NY",10704,40.91763597,-73.849894492,336,"69 CRESCENT PLACE 1, YONKERS, NY, 10704","Match","Exact","69 CRESCENT PL, YONKERS, NY, 10704",139746508,"L"
808337,"69 CREST DRIVE","SOUTH ORANGE","NJ",7079,40.751650076,-74.275277956,337,"69 CREST DRIVE, SOUTH ORANGE, NJ, 7079","Match","Exact","69 CREST DR, SOUTH ORANGE, NJ, 07079",63462205,"L"
808338,"69 CROOKS AVENUE","PATERSON","NJ",7503,40.8892593470001,-74.156504721,338,"69 CROOKS AVENUE, PATERSON, NJ, 7503","Match","Exact","69 CROOKS AVE, PATERSON, NJ, 07503",65266100,"L"
808339,"69 CROSBY DRIVE","GRENADA","MS",38901,33.7428552440001,-89.796790302,339,"69 CROSBY DRIVE, GRENADA, MS, 38901","Match","Exact","69 CROSBY DR, GRENADA, MS, 38901",7558966,"R"
808340,"69 CROSS HIGHWAY","WESTPORT","CT",6880,41.159891046,-73.34678557,340,"69 CROSS HIGHWAY, WESTPORT, CT, 6880","Match","Exact","69 CROSS HWY, WESTPORT, CT, 06880",3238348,"L"
808341,"69 CROSS ST","ROWLEY","MA",1969,42.7250336650001,-70.874610858,341,"69 CROSS ST, ROWLEY, MA, 1969","Match","Exact","69 CROSS ST, ROWLEY, MA, 01969",86702349,"L"
808342,"69 CRYSTAL SPRINGS CT","EAST AMHERST","NY",14051,43.0295783010001,-78.712611088,342,"69 CRYSTAL SPRINGS CT, EAST AMHERST, NY, 14051","Match","Exact","69 CRYSTAL SPRINGS CT, EAST AMHERST, NY, 14051",48335985,"L"
808343,"69 CURTIS STREET","BARRE","VT",5641,44.216038095,-72.438472539,343,"69 CURTIS STREET, BARRE, VT, 5641","Match","Non_Exact","69 CURTIS RD, BARRE, VT, 05641",136684505,"L"
808344,"69 CURVE ST","WELLESLEY",NA,NA,42.2992569360001,-71.30119288,344,"69 CURVE ST, WELLESLEY, , ","Match","Exact","69 CURVE ST, WELLESLEY, MA, 02482",87236695,"R"
808345,"69 CUTLERS GREEN","ASHEVILLE","NC",28805,35.6008257130001,-82.461437731,345,"69 CUTLERS GREEN, ASHEVILLE, NC, 28805","Match","Exact","69 CUTLERS GREEN, ASHEVILLE, NC, 28805",36879585,"L"
808346,"69 D RAILROAD AVE","HILO","HI",96720,19.7076501380001,-155.06130038,346,"69 D RAILROAD AVE, HILO, HI, 96720","Match","Exact","69 RAILROAD AVE, HILO, HI, 96720",635779773,"R"
808347,"69 DANVILLE DR","PRINCETON JCT","NJ",8550,40.269932424,-74.6046299879999,347,"69 DANVILLE DR, PRINCETON JCT, NJ, 8550","Match","Exact","69 DANVILLE DR, PRINCETON JCT, NJ, 08550",60189147,"L"
808348,"69 DARCEY AVENUE APT 2A","STATEN ISLAND","NY",10314,40.608231404,-74.1505063389999,348,"69 DARCEY AVENUE APT 2A, STATEN ISLAND, NY, 10314","Match","Exact","69 DARCEY AVE, STATEN ISLAND, NY, 10314",59871256,"L"
808349,"69 DAREIN ROAD","MESA","AZ",85203,NA,NA,349,"69 DAREIN ROAD, MESA, AZ, 85203","No_Match",NA,NA,NA,NA
808350,"69 DAVONSHIRE DRIVE","ALPHARETTA","GA",30022,NA,NA,350,"69 DAVONSHIRE DRIVE, ALPHARETTA, GA, 30022","No_Match",NA,NA,NA,NA
808351,"69 DEAN STREET","NICHOLS","NY",13812,42.017520377,-76.363885231,351,"69 DEAN STREET, NICHOLS, NY, 13812","Match","Exact","69 DEAN ST, NICHOLS, NY, 13812",46713251,"R"
808352,"69 DEER HILL ROAD","REDDING","CT",6896,41.2950275600001,-73.3808019539999,352,"69 DEER HILL ROAD, REDDING, CT, 6896","Match","Exact","69 DEER HILL RD, REDDING, CT, 06896",3284787,"R"
808353,"69 DEERFIELD DRIVE","DECATUR","AL",35603,34.533995566,-86.9172100599999,353,"69 DEERFIELD DRIVE, DECATUR, AL, 35603","Match","Exact","69 DEERFIELD DR, DECATUR, AL, 35603",97145713,"R"
808354,"69 DEERFIELD LANE","SOUTH WINDSOR","CT",6074,41.8286007940001,-72.5430885009999,354,"69 DEERFIELD LANE, SOUTH WINDSOR, CT, 6074","Match","Exact","69 DEERFIELD LN, SOUTH WINDSOR, CT, 06074",3491595,"L"
808355,"69 DELAWARE AVE","BUFFALO","NY",14202,42.8855900630001,-78.8784029669999,355,"69 DELAWARE AVE, BUFFALO, NY, 14202","Match","Exact","69 DELAWARE AVE, BUFFALO, NY, 14202",48290623,"R"
808356,"69 DELICADO DRIVE","WHITE ROCK","NM",87574,35.828100663,-106.203709779,356,"69 DELICADO DRIVE, WHITE ROCK, NM, 87574","Match","Non_Exact","69 DELICADO DR, WHITE ROCK, NM, 87547",143756040,"L"
808357,"69 DEMONT AVENUE","LITTLE CANADA","MN",55117,NA,NA,357,"69 DEMONT AVENUE, LITTLE CANADA, MN, 55117","No_Match",NA,NA,NA,NA
808358,"69 DEREK DRIVE","TOLLAND","CT",6084,41.8946413910001,-72.3302165869999,358,"69 DEREK DRIVE, TOLLAND, CT, 6084","Match","Exact","69 DEREK DR, TOLLAND, CT, 06084",624024372,"R"
808359,"69 DIANA DRIVE","SOUTH PLAINFIELD","NJ",7080,40.5773447390001,-74.405162463,359,"69 DIANA DRIVE, SOUTH PLAINFIELD, NJ, 7080","Match","Exact","69 DIANA DR, S PLAINFIELD, NJ, 07080",60290323,"L"
808360,"69 DOGWOOD PL","LYNCHBURG","VA",24502,37.321051438,-79.246455429,360,"69 DOGWOOD PL, LYNCHBURG, VA, 24502","Match","Exact","69 DOGWOOD PL, LYNCHBURG, VA, 24502",224269752,"R"
808361,"69 DONNA DRIVE","PLYMOUTH","MA",2360,41.894898573,-70.5512818679999,361,"69 DONNA DRIVE, PLYMOUTH, MA, 2360","Match","Exact","69 DONNA DR, PLYMOUTH, MA, 02360",640122466,"L"
808362,"69 DRAPER ST 3","DORCHESTER","MA",2122,42.303669445,-71.064406584,362,"69 DRAPER ST 3, DORCHESTER, MA, 2122","Match","Exact","69 DRAPER ST, DORCHESTER, MA, 02122",85713350,"R"
808363,"69 DREAM LAKE DRIVE","MADISON",NA,NA,41.3564582990001,-72.6745568279999,363,"69 DREAM LAKE DRIVE, MADISON, , ","Match","Exact","69 DREAM LAKE DR, MADISON, CT, 06443",651701009,"L"
808364,"69 E 119TH ST FL 2","NEW YORK","NY",10035,40.801620579,-73.942706277,364,"69 E 119TH ST FL 2, NEW YORK, NY, 10035","Match","Non_Exact","69 E 119TH ST, NEW YORK, NY, 10035",59658002,"L"
808365,"69 E 125TH ST 8F","NEW YORK","NY",10035,40.805452787,-73.939948069,365,"69 E 125TH ST 8F, NEW YORK, NY, 10035","Match","Non_Exact","69 E 125TH ST, NEW YORK, NY, 10035",59658010,"L"
808366,"69 E 4TH AVENUE","COLUMBUS","OH",43201,39.9858011200001,-83.0032299929999,366,"69 E 4TH AVENUE, COLUMBUS, OH, 43201","Match","Exact","69 E 4TH AVE, COLUMBUS, OH, 43201",135575560,"R"
808367,"69 E PARK AVE","PORT TOWNSEND","WA",98368,NA,NA,367,"69 E PARK AVE, PORT TOWNSEND, WA, 98368","No_Match",NA,NA,NA,NA
808368,"69 E UTAH AVE","MEMPHIS","TN",38106,35.1131394990001,-90.060039933,368,"69 E UTAH AVE, MEMPHIS, TN, 38106","Match","Exact","69 E UTAH AVE, MEMPHIS, TN, 38106",72905841,"R"
808369,"69 E WOODRIDGE DRIVE","RIVER FALLS","WI",54022,44.871970565,-92.633817041,369,"69 E WOODRIDGE DRIVE, RIVER FALLS, WI, 54022","Match","Non_Exact","69 E WOOD RIDGE DR, RIVER FALLS, WI, 54022",646246464,"L"
808370,"69 EAST 167 ST","BRONX","NY",10452,40.8355438880001,-73.9207206849999,370,"69 EAST 167 ST, BRONX, NY, 10452","Match","Exact","69 E 167TH ST, BRONX, NY, 10452",80299482,"L"
808371,"69 EAST HILL RD","MONSON","MA",1057,42.1039044440001,-72.283625195,371,"69 EAST HILL RD, MONSON, MA, 1057","Match","Exact","69 E HILL RD, MONSON, MA, 01057",4056165,"L"
808372,"69 EASTLAND AVE","ROCHESTER","NY",14618,43.1310757730001,-77.576288515,372,"69 EASTLAND AVE, ROCHESTER, NY, 14618","Match","Exact","69 EASTLAND AVE, ROCHESTER, NY, 14618",14541359,"R"
808373,"69 EDGEMOUNT LANE","WILLINGBORO","NJ",8046,40.0274867370001,-74.8761870979999,373,"69 EDGEMOUNT LANE, WILLINGBORO, NJ, 8046","Match","Non_Exact","69 EDGEMONT LN, WILLINGBORO, NJ, 08046",134058374,"R"
808374,"69 EDGEWOOD STREET","POTTSTOWN","PA",19464,40.2451557260001,-75.62886774,374,"69 EDGEWOOD STREET, POTTSTOWN, PA, 19464","Match","Exact","69 EDGEWOOD ST, POTTSTOWN, PA, 19464",135062383,"L"
808375,"69 EDWIN DRIVE","NORTH HUNTINGDON","PA",15642,40.3560319810001,-79.771089468,375,"69 EDWIN DRIVE, NORTH HUNTINGDON, PA, 15642","Match","Exact","69 EDWIN DR, N HUNTINGDON, PA, 15642",52997622,"R"
808376,"69 EL VIENTO","PISMO BEACH","CA",93449,35.143275616,-120.622306696,376,"69 EL VIENTO, PISMO BEACH, CA, 93449","Match","Exact","69 EL VIENTO, PISMO BEACH, CA, 93449",645354378,"L"
808377,"69 ELM ST","COHASSETT","MA",2025,42.2405369530001,-70.796872724,377,"69 ELM ST, COHASSETT, MA, 2025","Match","Non_Exact","69 ELM ST, COHASSET, MA, 02025",87298740,"R"
808378,"69 ELVIS PRESLEY DR","BAISDEN","WV",25708,NA,NA,378,"69 ELVIS PRESLEY DR, BAISDEN, WV, 25708","No_Match",NA,NA,NA,NA
808379,"69 ENTRANCE ROAD","EAST HILLS","NY",11577,40.7925894790001,-73.637304867,379,"69 ENTRANCE ROAD, EAST HILLS, NY, 11577","Match","Non_Exact","69 ENTRANCE RD, ROSLYN HEIGHTS, NY, 11577",147663774,"R"
808380,"69 EQUESTRIAN ESTATES","BURLINGTON","CT",6013,NA,NA,380,"69 EQUESTRIAN ESTATES, BURLINGTON, CT, 6013","No_Match",NA,NA,NA,NA
808381,"69 ESTATE HUMBUG","CHRISTIANSTED","VI",820,NA,NA,381,"69 ESTATE HUMBUG, CHRISTIANSTED, VI, 820","No_Match",NA,NA,NA,NA
808382,"69 EVERETT PARK","NEW LONDON","NH",3257,43.4201069860001,-71.994597283,382,"69 EVERETT PARK, NEW LONDON, NH, 3257","Match","Non_Exact","69 EVERETT PARK RD, NEW LONDON, NH, 03257",627351992,"R"
808383,"69 EVERGREEN ST","MIDLAND PARK","NJ",7432,41.0060766490001,-74.133329536,383,"69 EVERGREEN ST, MIDLAND PARK, NJ, 7432","Match","Exact","69 EVERGREEN ST, MIDLAND PARK, NJ, 07432",64403587,"R"
808384,"69 FAIRWAY LANE","JACKSONVILLE BEACH","FL",32224,30.2717086800001,-81.4033090619999,384,"69 FAIRWAY LANE, JACKSONVILLE BEACH, FL, 32224","Match","Non_Exact","69 FAIRWAY LN, JACKSONVILLE BEACH, FL, 32250",83923727,"L"
808385,"69 FAIRWOOD ROAD","MADISON","NJ",7940,40.7700754430001,-74.429425303,385,"69 FAIRWOOD ROAD, MADISON, NJ, 7940","Match","Exact","69 FAIRWOOD RD, MADISON, NJ, 07940",60447666,"R"
808386,"69 FALMOUTH STREET","SHORT HILLS","NJ",7078,40.7342645150001,-74.341104689,386,"69 FALMOUTH STREET, SHORT HILLS, NJ, 7078","Match","Exact","69 FALMOUTH ST, SHORT HILLS, NJ, 07078",63461181,"L"
808387,"69 FENN RD","NORTHFIELD","CT",6778,41.710551084,-73.095585211,387,"69 FENN RD, NORTHFIELD, CT, 6778","Match","Exact","69 FENN RD, NORTHFIELD, CT, 06778",3124525,"R"
808388,"69 FINLAY PLACE","NEWARK","NJ",7106,40.7500815770001,-74.234213079,388,"69 FINLAY PLACE, NEWARK, NJ, 7106","Match","Exact","69 FINLAY PL, NEWARK, NJ, 07106",618560370,"R"
808389,"69 FITZRANDOLPH AVE","HAMILTON","NJ",8610,40.1986426140001,-74.742535273,389,"69 FITZRANDOLPH AVE, HAMILTON, NJ, 8610","Match","Exact","69 FITZRANDOLPH AVE, HAMILTON, NJ, 08610",60224659,"R"
808390,"69 FOOTHILL BLVD","POCATELLO","ID",83204,42.8666244280001,-112.468811766,390,"69 FOOTHILL BLVD, POCATELLO, ID, 83204","Match","Exact","69 FOOTHILL BLVD, POCATELLO, ID, 83204",647654974,"L"
808391,"69 FORT HILL AVE","PITTSFIELD","MA",1201,42.4521014850001,-73.29882459,391,"69 FORT HILL AVE, PITTSFIELD, MA, 1201","Match","Exact","69 FORT HILL AVE, PITTSFIELD, MA, 01201",3919903,"L"
808392,"69 FOX HOLLOW","IRVINE","CA",92614,33.674826393,-117.81594331,392,"69 FOX HOLLOW, IRVINE, CA, 92614","Match","Exact","69 FOX HOLLOW, IRVINE, CA, 92614",144058533,"R"
808393,"69 FOX PLACE","HICKSVILLE","NY",11801,40.7488676670001,-73.528827823,393,"69 FOX PLACE, HICKSVILLE, NY, 11801","Match","Exact","69 FOX PL, HICKSVILLE, NY, 11801",147633354,"R"
808394,"69 FRANKLIN RD","TEANECK","NJ",7666,40.8969414110001,-73.999176,394,"69 FRANKLIN RD, TEANECK, NJ, 7666","Match","Exact","69 FRANKLIN RD, TEANECK, NJ, 07666",64412775,"L"
808395,"69 FRASIER RD","ACTON","ME",4001,NA,NA,395,"69 FRASIER RD, ACTON, ME, 4001","No_Match",NA,NA,NA,NA
808396,"69 FRONT STREET","ADDISON","NY",14801,42.1089256880001,-77.2258838289999,396,"69 FRONT STREET, ADDISON, NY, 14801","Match","Exact","69 FRONT ST, ADDISON, NY, 14801",14761205,"L"
808397,"69 FRONT STREET","WEYMOUTH","MA",2188,42.216649289,-70.9684662399999,397,"69 FRONT STREET, WEYMOUTH, MA, 2188","Match","Exact","69 FRONT ST, WEYMOUTH, MA, 02188",87251549,"R"
808398,"69 GAIL ST","WINOOSKI","VT",5404,44.496905568,-73.1713662349999,398,"69 GAIL ST, WINOOSKI, VT, 5404","Match","Exact","69 GAIL ST, WINOOSKI, VT, 05404",135843396,"R"
808399,"69 GARDEN DR","ALBERTSON","NY",11507,40.774520131,-73.6523307739999,399,"69 GARDEN DR, ALBERTSON, NY, 11507","Match","Exact","69 GARDEN DR, ALBERTSON, NY, 11507",147663211,"L"
808400,"69 GARDINER ST","LYNN","MA",1905,42.4661303410001,-70.9774256319999,400,"69 GARDINER ST, LYNN, MA, 1905","Match","Exact","69 GARDINER ST, LYNN, MA, 01905",86638027,"R"
808401,"69 GARFORD ROAD","IRONDEQUOIT","NY",14622,43.21248087,-77.557552301,401,"69 GARFORD ROAD, IRONDEQUOIT, NY, 14622","Match","Exact","69 GARFORD RD, IRONDEQUOIT, NY, 14622",647596232,"R"
808402,"69 GEORGE ST BEATTY CENTER 330","CHARLESTON","SC",29424,32.7837261010001,-79.9361536339999,402,"69 GEORGE ST BEATTY CENTER 330, CHARLESTON, SC, 29424","Match","Non_Exact","69 GEORGE ST, CHARLESTON, SC, 29401",639341269,"L"
808403,"69 GEORGE ST","STAMFORD","CT",6902,41.0465154450001,-73.512049625,403,"69 GEORGE ST, STAMFORD, CT, 6902","Match","Exact","69 GEORGE ST, STAMFORD, CT, 06902",3247104,"R"
808404,"69 GILES ROAD","EAST KINGSTON","NH",3827,42.9498091470001,-70.994282767,404,"69 GILES ROAD, EAST KINGSTON, NH, 3827","Match","Exact","69 GILES RD, EAST KINGSTON, NH, 03827",113710554,"R"
808405,"69 GIOTTO","ALISO VIEJO","NC",92656,NA,NA,405,"69 GIOTTO, ALISO VIEJO, NC, 92656","No_Match",NA,NA,NA,NA
808406,"69 GLEN ECHO SHORE RD","CHARLTON","MA",1507,42.1667826660001,-71.9933214929999,406,"69 GLEN ECHO SHORE RD, CHARLTON, MA, 1507","Match","Exact","69 GLEN ECHO SHORE RD, CHARLTON, MA, 01507",40016991,"L"
808407,"69 GLEN RIDDLE ROAD","MEDIA","PA",19963,39.9016448040001,-75.419352438,407,"69 GLEN RIDDLE ROAD, MEDIA, PA, 19963","Match","Non_Exact","69 GLEN RIDDLE RD, MEDIA, PA, 19063",134869635,"R"
808408,"69 GLEN ROAD","BROOKLINE","MA",2445,42.326968289,-71.117105936,408,"69 GLEN ROAD, BROOKLINE, MA, 2445","Match","Exact","69 GLEN RD, BROOKLINE, MA, 02445",87275538,"R"
808409,"69 GORDON BLVD 219","WOODBRIDGE","VA",22192,38.679615276,-77.2580259389999,409,"69 GORDON BLVD 219, WOODBRIDGE, VA, 22192","Match","Exact","69 GORDON BLVD, WOODBRIDGE, VA, 22192",601527620,"L"
808410,"69 GOSS RD","ELMIRA HEIGHTS","NY",14903,42.134134583,-76.926497851,410,"69 GOSS RD, ELMIRA HEIGHTS, NY, 14903","Match","Exact","69 GOSS RD, ELMIRA HEIGHTS, NY, 14903",18562165,"R"
808411,"69 GOVERNEURS LANE","ENDICOTT","NY",13760,NA,NA,411,"69 GOVERNEURS LANE, ENDICOTT, NY, 13760","No_Match",NA,NA,NA,NA
808412,"69 GRANBURG CIRCLE","SAN ANTONIO","TX",78218,29.5067882920001,-98.428879023,412,"69 GRANBURG CIRCLE, SAN ANTONIO, TX, 78218","Match","Exact","69 GRANBURG CIR, SAN ANTONIO, TX, 78218",101499858,"L"
808413,"69 GRAND STREET SUITE 2","NEWBURG","NY",12550,41.5011998730001,-74.0096092209999,413,"69 GRAND STREET SUITE 2, NEWBURG, NY, 12550","Match","Non_Exact","69 GRAND ST, NEWBURGH, NY, 12550",124413720,"L"
808414,"69 GRANDVIEW AVENUE","SOUTH PORTLAND","ME",4106,43.620902378,-70.3002251299999,414,"69 GRANDVIEW AVENUE, SOUTH PORTLAND, ME, 4106","Match","Exact","69 GRANDVIEW AVE, SOUTH PORTLAND, ME, 04106",78030002,"R"
808415,"69 GRANT ST APT 2","MARLBOROUGH","MA",1752,42.3440006070001,-71.561545103,415,"69 GRANT ST APT 2, MARLBOROUGH, MA, 1752","Match","Exact","69 GRANT ST, MARLBOROUGH, MA, 01752",86899319,"L"
808416,"69 GREENTREE ROAD","CLIFTON","NJ",7013,40.870601353,-74.1647889229999,416,"69 GREENTREE ROAD, CLIFTON, NJ, 7013","Match","Exact","69 GREENTREE RD, CLIFTON, NJ, 07013",65250388,"R"
808417,"69 GREENTREE STREET","HOMOSASSA","FL",34446,28.7295410310001,-82.5378358149999,417,"69 GREENTREE STREET, HOMOSASSA, FL, 34446","Match","Exact","69 GREENTREE ST, HOMOSASSA, FL, 34446",86208623,"R"
808418,"69 GRISTMILL LANE","MANHASSET","NY",11030,40.8138455430001,-73.69793311,418,"69 GRISTMILL LANE, MANHASSET, NY, 11030","Match","Exact","69 GRISTMILL LN, MANHASSET, NY, 11030",147659210,"R"
808419,"69 GROVE ST","NORTH ATTLEBORO","MA",2760,41.9856114410001,-71.334746434,419,"69 GROVE ST, NORTH ATTLEBORO, MA, 2760","Match","Exact","69 GROVE ST, NORTH ATTLEBORO, MA, 02760",46744966,"L"
808420,"69 GROVE STREET","CLAREMONT","NH",3743,43.372591034,-72.3516576819999,420,"69 GROVE STREET, CLAREMONT, NH, 3743","Match","Exact","69 GROVE ST, CLAREMONT, NH, 03743",124343890,"L"
808421,"69 GROVE STREET","MONTCLAIR","NJ",7042,40.8126509730001,-74.210534733,421,"69 GROVE STREET, MONTCLAIR, NJ, 7042","Match","Exact","69 GROVE ST, MONTCLAIR, NJ, 07042",63448906,"R"
808422,"69 GROVE STREET","NORFOLK","MA",2056,42.1104648,-71.343671124,422,"69 GROVE STREET, NORFOLK, MA, 2056","Match","Exact","69 GROVE ST, NORFOLK, MA, 02056",642912256,"R"
808423,"69 GROVE STREET","OBERLIN","OH",44074,NA,NA,423,"69 GROVE STREET, OBERLIN, OH, 44074","No_Match",NA,NA,NA,NA
808424,"69 GROVELAND","BATTLE CREEK","MI",49017,42.3258796540001,-85.177591294,424,"69 GROVELAND, BATTLE CREEK, MI, 49017","Match","Non_Exact","69 GROVELAND ST, BATTLE CREEK, MI, 49017",11714025,"L"
808425,"69 GUERNSEYTOWN ROAD","WATERTOWN","CT",6795,41.6053316300001,-73.129875746,425,"69 GUERNSEYTOWN ROAD, WATERTOWN, CT, 6795","Match","Exact","69 GUERNSEYTOWN RD, WATERTOWN, CT, 06795",611470456,"L"
808426,"69 GUS POPE ROAD","DENMARK","TN",38391,35.47903509,-89.020063855,426,"69 GUS POPE ROAD, DENMARK, TN, 38391","Match","Exact","69 GUS POPE RD, DENMARK, TN, 38391",651904602,"L"
808427,"69 GUY PARK AVE","AMSTERDAM","NY",12010,42.941750379,-74.195147326,427,"69 GUY PARK AVE, AMSTERDAM, NY, 12010","Match","Exact","69 GUY PARK AVE, AMSTERDAM, NY, 12010",638547574,"R"
808428,"69 HALLISTER STREET","STATEN ISLAND","NY",10309,40.5255158320001,-74.2185563739999,428,"69 HALLISTER STREET, STATEN ISLAND, NY, 10309","Match","Exact","69 HALLISTER ST, STATEN ISLAND, NY, 10309",59883526,"R"
808429,"69 HARBOUR CLOSE","NEW HAVEN","CT",6519,41.2818106240001,-72.9317133869999,429,"69 HARBOUR CLOSE, NEW HAVEN, CT, 6519","Match","Non_Exact","69 HARBOR CLOSE, NEW HAVEN, CT, 06519",633259787,"R"
808430,"69 HARLAN ST","MANCHESTER","CT",6042,41.789913665,-72.519785871,430,"69 HARLAN ST, MANCHESTER, CT, 6042","Match","Exact","69 HARLAN ST, MANCHESTER, CT, 06042",638521534,"L"
808431,"69 HARLAN STREET","MANCHESTER","CT",6042,41.789913665,-72.519785871,431,"69 HARLAN STREET, MANCHESTER, CT, 6042","Match","Exact","69 HARLAN ST, MANCHESTER, CT, 06042",638521534,"L"
808432,"69 HARVEY STREET APT 5","CAMBRIDGE","MA",2140,42.397296775,-71.1325144319999,432,"69 HARVEY STREET APT 5, CAMBRIDGE, MA, 2140","Match","Exact","69 HARVEY ST, CAMBRIDGE, MA, 02140",86889775,"R"
808433,"69 HAYES STREET","STAFFORD","VA",22556,38.4838077140001,-77.486606595,433,"69 HAYES STREET, STAFFORD, VA, 22556","Match","Exact","69 HAYES ST, STAFFORD, VA, 22556",25584216,"L"
808434,"69 HEMLOCK HILLS ESTATE DRIVE","MARION","NC",28752,35.6834532170001,-82.0566938979999,434,"69 HEMLOCK HILLS ESTATE DRIVE, MARION, NC, 28752","Match","Non_Exact","69 HEMLOCK HILLS ESTATES DR, MARION, NC, 28752",35909663,"L"
808435,"69 HIDEAWAY NORTH","UNITY","ME",4988,44.633292698,-69.320502786,435,"69 HIDEAWAY NORTH, UNITY, ME, 4988","Match","Non_Exact","69 HIDEAWAY NORTH LN, UNITY, ME, 04988",75647444,"R"
808436,"69 HIGH LEDGE AVE","WELLESLEY","MA",2482,42.311996536,-71.3275354319999,436,"69 HIGH LEDGE AVE, WELLESLEY, MA, 2482","Match","Exact","69 HIGH LEDGE AVE, WELLESLEY, MA, 02482",87236184,"R"
808437,"69 HIGH ST","HAMPTON","NH",3842,42.9409874460001,-70.835389886,437,"69 HIGH ST, HAMPTON, NH, 3842","Match","Exact","69 HIGH ST, HAMPTON, NH, 03842",113675897,"R"
808438,"69 HIGH STREET","LUDLOW","VT",5149,43.399645821,-72.703245915,438,"69 HIGH STREET, LUDLOW, VT, 5149","Match","Exact","69 HIGH ST, LUDLOW, VT, 05149",139242113,"R"
808439,"69 HIGHCREST TER","ROSLINDALE","MA",2131,42.2739333330001,-71.1372551599999,439,"69 HIGHCREST TER, ROSLINDALE, MA, 2131","Match","Exact","69 HIGHCREST TER, ROSLINDALE, MA, 02131",85741921,"R"
808440,"69 HIGHLAND AVENUE","ARLINGTON","MA",2476,42.415423473,-71.16804626,440,"69 HIGHLAND AVENUE, ARLINGTON, MA, 2476","Match","Exact","69 HIGHLAND AVE, ARLINGTON, MA, 02476",86885600,"R"
808441,"69 HILLCREST DR","UPPER SADDLE RIVER","NJ",7458,41.0540775850001,-74.104771974,441,"69 HILLCREST DR, UPPER SADDLE RIVER, NJ, 7458","Match","Exact","69 HILLCREST DR, UPPER SADDLE RIVER, NJ, 07458",64407713,"L"
808442,"69 HITCHING POST LANE","GLEN COVE","NY",11542,40.876943145,-73.62039645,442,"69 HITCHING POST LANE, GLEN COVE, NY, 11542","Match","Exact","69 HITCHING POST LN, GLEN COVE, NY, 11542",147692666,"L"
808443,"69 HOLLY CIRCLE","GULFPORT","MS",39501,30.413355021,-89.101879325,443,"69 HOLLY CIRCLE, GULFPORT, MS, 39501","Match","Exact","69 HOLLY CIR, GULFPORT, MS, 39501",111375925,"R"
808444,"69 HOMER SPIERS ROAD","PICAYUNE","MS",39466,30.581655405,-89.705984214,444,"69 HOMER SPIERS ROAD, PICAYUNE, MS, 39466","Match","Exact","69 HOMER SPIERS RD, PICAYUNE, MS, 39466",111489217,"L"
808445,"69 HOMER ST","WASHINGTON","PA",15301,40.1860806990001,-80.2476832089999,445,"69 HOMER ST, WASHINGTON, PA, 15301","Match","Exact","69 HOMER ST, WASHINGTON, PA, 15301",52802771,"L"
808446,"69 HUBER VILLAGE BLVD","WESTERVILLE","OH",43081,40.1054915710001,-82.9235182479999,446,"69 HUBER VILLAGE BLVD, WESTERVILLE, OH, 43081","Match","Exact","69 HUBER VILLAGE BLVD, WESTERVILLE, OH, 43081",635282429,"R"
808447,"69 HUNT ROAD","CHELMSFORD","MA",1824,42.585611643,-71.3780394729999,447,"69 HUNT ROAD, CHELMSFORD, MA, 1824","Match","Exact","69 HUNT RD, CHELMSFORD, MA, 01824",86927454,"R"
808448,"69 HUNTER LANE","WOODBRIDGE","NJ",7095,40.554162397,-74.289968286,448,"69 HUNTER LANE, WOODBRIDGE, NJ, 7095","Match","Exact","69 HUNTER LN, WOODBRIDGE, NJ, 07095",60275259,"L"
808449,"69 INTERVALE TERRACE","READING","NH",1867,NA,NA,449,"69 INTERVALE TERRACE, READING, NH, 1867","No_Match",NA,NA,NA,NA
808450,"69 JADWIN AVE APT 49","RICHLAND","WA",99352,46.2615099070001,-119.275101096,450,"69 JADWIN AVE APT 49, RICHLAND, WA, 99352","Match","Exact","69 JADWIN AVE, RICHLAND, WA, 99352",638572849,"L"
808451,"69 JAMES LANDING ROAD","NEWPORT NEWS","VA",23606,37.0595450320001,-76.5149904319999,451,"69 JAMES LANDING ROAD, NEWPORT NEWS, VA, 23606","Match","Exact","69 JAMES LANDING RD, NEWPORT NEWS, VA, 23606",103817163,"L"
808452,"69 JAMESTOWN ROAD","SHIPPENSBURG","PA",17257,40.0754335550001,-77.570954478,452,"69 JAMESTOWN ROAD, SHIPPENSBURG, PA, 17257","Match","Exact","69 JAMESTOWN RD, SHIPPENSBURG, PA, 17257",647518503,"L"
808453,"69 JUNIPER DRIVE","GOFFSTOWN","NH",3045,43.026301749,-71.547301384,453,"69 JUNIPER DRIVE, GOFFSTOWN, NH, 3045","Match","Exact","69 JUNIPER DR, GOFFSTOWN, NH, 03045",113573016,"L"
808454,"69 KAUNAS CIRCLE","MANCHESTER","NH",3102,43.0105680610001,-71.496611586,454,"69 KAUNAS CIRCLE, MANCHESTER, NH, 3102","Match","Exact","69 KAUNAS CIR, MANCHESTER, NH, 03102",113586209,"L"
808455,"69 KEEPAWAY LANE","WEST NEWFIELD","ME",4095,43.664051182,-70.915413168,455,"69 KEEPAWAY LANE, WEST NEWFIELD, ME, 4095","Match","Non_Exact","69 KEEPAWAY, WEST NEWFIELD, ME, 04095",92782252,"R"
808456,"69 KELSEY DRIVE","SCHUYLKILL HAVEN","PA",17972,40.645207973,-76.1600401159999,456,"69 KELSEY DRIVE, SCHUYLKILL HAVEN, PA, 17972","Match","Exact","69 KELSEY DR, SCHUYLKILL HAVEN, PA, 17972",627949812,"R"
808457,"69 KENSINGTON ST","FEEDING HILLS","MA",1030,42.0733027310001,-72.655800353,457,"69 KENSINGTON ST, FEEDING HILLS, MA, 1030","Match","Exact","69 KENSINGTON ST, FEEDING HILLS, MA, 01030",4033711,"L"
808458,"69 KENWOOD DRIVE","BOHEMIA","NY",11716,40.784055618,-73.134734645,458,"69 KENWOOD DRIVE, BOHEMIA, NY, 11716","Match","Exact","69 KENWOOD DR, BOHEMIA, NY, 11716",113992689,"R"
808459,"69 KETCHAMTOWN ROAD","WAPPINGERS FALLS","NY",12590,41.5745521370001,-73.925222983,459,"69 KETCHAMTOWN ROAD, WAPPINGERS FALLS, NY, 12590","Match","Exact","69 KETCHAMTOWN RD, WAPPINGERS FALLS, NY, 12590",619924849,"L"
808460,"69 KINGSLEY DR","EGG HARBOR","NJ",8234,39.426260158,-74.588562397,460,"69 KINGSLEY DR, EGG HARBOR, NJ, 8234","Match","Non_Exact","69 KINGSLEY DR, EGG HARBOR TOWNSHIP, NJ, 08234",202507181,"L"
808461,"69 KINGSTON PLACE","HOSCHTON","GA",30548,34.0894344060001,-83.7203343259999,461,"69 KINGSTON PLACE, HOSCHTON, GA, 30548","Match","Exact","69 KINGSTON PL, HOSCHTON, GA, 30548",619843032,"L"
808462,"69 LAKE END ROAD GREEN POND","NEWFOUNDLAND","NJ",7435,41.0039561360001,-74.490060318,462,"69 LAKE END ROAD GREEN POND, NEWFOUNDLAND, NJ, 7435","Match","Exact","69 LAKE END RD, NEWFOUNDLAND, NJ, 07435",640034636,"L"
808463,"69 LAKE ST","PULASKI","NY",13142,43.569327598,-76.1329470869999,463,"69 LAKE ST, PULASKI, NY, 13142","Match","Exact","69 LAKE ST, PULASKI, NY, 13142",57800990,"R"
808464,"69 LAKE VIEW DRIVE EAST","OCALA","FL",34482,29.2074844850001,-82.353513698,464,"69 LAKE VIEW DRIVE EAST, OCALA, FL, 34482","Match","Exact","69 LAKE VIEW DR E, OCALA, FL, 34482",116713978,"R"
808465,"69 LAKESHORE DRIVE","OAKLAND","NJ",7436,41.0332949190001,-74.239275388,465,"69 LAKESHORE DRIVE, OAKLAND, NJ, 7436","Match","Exact","69 LAKESHORE DR, OAKLAND, NJ, 07436",64400814,"L"
808466,"69 LAKESIDE DRIVE","GRAND RAPIDS","MI",49506,42.960693443,-85.616657759,466,"69 LAKESIDE DRIVE, GRAND RAPIDS, MI, 49506","Match","Non_Exact","69 LAKESIDE DR SE, GRAND RAPIDS, MI, 49506",12461212,"R"
808467,"69 LAKEVIEW DRIVE","HOLMES","NY",12531,41.551827761,-73.668246199,467,"69 LAKEVIEW DRIVE, HOLMES, NY, 12531","Match","Exact","69 LAKEVIEW DR, HOLMES, NY, 12531",4229656,"R"
808468,"69 LAMB AVE","SAUGERTIES","NC",12477,NA,NA,468,"69 LAMB AVE, SAUGERTIES, NC, 12477","No_Match",NA,NA,NA,NA
808469,"69 LANCASTER COUNTY RD","HARVARD","MA",1451,42.526220999,-71.588825292,469,"69 LANCASTER COUNTY RD, HARVARD, MA, 1451","Match","Exact","69 LANCASTER COUNTY RD, HARVARD, MA, 01451",39987405,"L"
808470,"69 LANGFORD LAKE APT A1","FT IRWIN","CA",92310,NA,NA,470,"69 LANGFORD LAKE APT A1, FT IRWIN, CA, 92310","No_Match",NA,NA,NA,NA
808471,"69 LAWTON FOSTER SOUTH","HOPKINTON","RI",2833,41.4782766430001,-71.7642354819999,471,"69 LAWTON FOSTER SOUTH, HOPKINTON, RI, 2833","Match","Non_Exact","69 LAWTON FOSTER RD S, HOPKINTON, RI, 02833",58913304,"L"
808472,"69 LAZY LANE","SOUTHINGTON","CT",6489,41.621481895,-72.8762061639999,472,"69 LAZY LANE, SOUTHINGTON, CT, 6489","Match","Exact","69 LAZY LN, SOUTHINGTON, CT, 06489",3508860,"R"
808473,"69 LEE RD","ROCKTON","PA",15856,41.078500541,-78.6683497879999,473,"69 LEE RD, ROCKTON, PA, 15856","Match","Exact","69 LEE RD, ROCKTON, PA, 15856",50494022,"R"
808474,"69 LESCHI DR","STEILACOOM","WA",98388,NA,NA,474,"69 LESCHI DR, STEILACOOM, WA, 98388","No_Match",NA,NA,NA,NA
808475,"69 LIMINGTON RD","BUXTON","ME",4093,43.6824406150001,-70.584043772,475,"69 LIMINGTON RD, BUXTON, ME, 4093","Match","Exact","69 LIMINGTON RD, BUXTON, ME, 04093",92752513,"R"
808476,"69 LINCOLN LANE","CATAULA","GA",31804,32.6697142740001,-84.864760905,476,"69 LINCOLN LANE, CATAULA, GA, 31804","Match","Exact","69 LINCOLN LN, CATAULA, GA, 31804",624900557,"L"
808477,"69 LINCOLN ROAD","SHARON","MA",2067,42.119892624,-71.150404862,477,"69 LINCOLN ROAD, SHARON, MA, 2067","Match","Exact","69 LINCOLN RD, SHARON, MA, 02067",87263104,"L"
808478,"69 LINDEN ST","DOUGLAS","MA",1516,42.0329999690001,-71.688449533,478,"69 LINDEN ST, DOUGLAS, MA, 1516","Match","Exact","69 LINDEN ST, DOUGLAS, MA, 01516",40058542,"L"
808479,"69 LINWOOD AVE","BUFFALO","NY",14209,42.9039542520001,-78.870449434,479,"69 LINWOOD AVE, BUFFALO, NY, 14209","Match","Exact","69 LINWOOD AVE, BUFFALO, NY, 14209",48290846,"R"
808480,"69 LISA ANN LANE","WEST SENECA","NY",14224,42.822505419,-78.738091009,480,"69 LISA ANN LANE, WEST SENECA, NY, 14224","Match","Exact","69 LISA ANN LN, WEST SENECA, NY, 14224",48336113,"L"
808481,"69 LLOYD COURT","EAST MEADOW","NY",11554,40.721478274,-73.576019988,481,"69 LLOYD COURT, EAST MEADOW, NY, 11554","Match","Non_Exact","69 LLOYD, EAST MEADOW, NY, 11554",147825342,"L"
808482,"69 LLOYDEN DRIVE","ATHERTON","CA",94027,37.4657337690001,-122.200532731,482,"69 LLOYDEN DRIVE, ATHERTON, CA, 94027","Match","Exact","69 LLOYDEN DR, ATHERTON, CA, 94027",650315855,"L"
808483,"69 LOBO SOLITARIO","GRANTS","NM",87020,NA,NA,483,"69 LOBO SOLITARIO, GRANTS, NM, 87020","No_Match",NA,NA,NA,NA
808484,"69 LOCUST STREET","MONTROSE","PA",18801,41.8347036660001,-75.8711943659999,484,"69 LOCUST STREET, MONTROSE, PA, 18801","Match","Exact","69 LOCUST ST, MONTROSE, PA, 18801",140082268,"L"
808485,"69 LONE OAK DR","MEDINA","TN",38355,35.8292012920001,-88.79302803,485,"69 LONE OAK DR, MEDINA, TN, 38355","Match","Exact","69 LONE OAK DR, MEDINA, TN, 38355",612837347,"L"
808486,"69 LONG STREET","MCCLELLANDTOWN","PA",15458,39.882493353,-79.883267135,486,"69 LONG STREET, MCCLELLANDTOWN, PA, 15458","Match","Non_Exact","69 LONG ST, MC CLELLANDTOWN, PA, 15458",51158312,"L"
808487,"69 LONGFELLOW DR","LONGMEADOW","MA",1106,42.047581752,-72.5801691949999,487,"69 LONGFELLOW DR, LONGMEADOW, MA, 1106","Match","Exact","69 LONGFELLOW DR, LONGMEADOW, MA, 01106",4063617,"R"
808488,"69 LYNN CT","PITTSBORO","IN",46167,39.8624912280001,-86.45644584,488,"69 LYNN CT, PITTSBORO, IN, 46167","Match","Exact","69 LYNN CT, PITTSBORO, IN, 46167",629576451,"R"
808489,"69 LYNN DR","GARDEN CITY","GA",31408,32.11843566,-81.15538197,489,"69 LYNN DR, GARDEN CITY, GA, 31408","Match","Exact","69 LYNN DR, GARDEN CITY, GA, 31408",6168666,"L"
808490,"69 MAIN ROAD","LEE","MA",1238,42.2554486830001,-73.215813004,490,"69 MAIN ROAD, LEE, MA, 1238","Match","Exact","69 MAIN RD, LEE, MA, 01238",3940615,"R"
808491,"69 MAIN ST","NORTH SPRINGFIELD","VT",5150,43.3328304280001,-72.5272968949999,491,"69 MAIN ST, NORTH SPRINGFIELD, VT, 5150","Match","Exact","69 MAIN ST, N SPRINGFIELD, VT, 05150",139275706,"R"
808492,"69 MANSFIELD ST","HARTFORD","CT",6112,41.7859010340001,-72.686774611,492,"69 MANSFIELD ST, HARTFORD, CT, 6112","Match","Exact","69 MANSFIELD ST, HARTFORD, CT, 06112",3489047,"L"
808493,"69 MARBLE ST UNIT E255","EDWARDS","CO",81632,39.6418677080001,-106.576878321,493,"69 MARBLE ST UNIT E255, EDWARDS, CO, 81632","Match","Exact","69 MARBLE ST, EDWARDS, CO, 81632",619893681,"R"
808494,"69 MARIMAR DRIVE","OLD FORGE","PA",18518,NA,NA,494,"69 MARIMAR DRIVE, OLD FORGE, PA, 18518","No_Match",NA,NA,NA,NA
808495,"69 MARSTON RD","WHITINSVILLE","MA",1588,NA,NA,495,"69 MARSTON RD, WHITINSVILLE, MA, 1588","No_Match",NA,NA,NA,NA
808496,"69 MARTIN LANE","HAMILTON","NJ",8690,NA,NA,496,"69 MARTIN LANE, HAMILTON, NJ, 8690","No_Match",NA,NA,NA,NA
808497,"69 MCKINLEY DRIVE","NEW BRITAIN","CT",6053,41.690832566,-72.794382237,497,"69 MCKINLEY DRIVE, NEW BRITAIN, CT, 6053","Match","Exact","69 MCKINLEY DR, NEW BRITAIN, CT, 06053",3509690,"R"
808498,"69 MEADOW BROOK AVE","BROOKVILLE","OH",45309,NA,NA,498,"69 MEADOW BROOK AVE, BROOKVILLE, OH, 45309","No_Match",NA,NA,NA,NA
808499,"69 MEADOW POND ROAD","SOUTH BERWICK","ME",3908,43.2697925620001,-70.756927041,499,"69 MEADOW POND ROAD, SOUTH BERWICK, ME, 3908","Match","Exact","69 MEADOW POND RD, SOUTH BERWICK, ME, 03908",625491440,"L"
808500,"69 MECHANIC STREET APT 3","FREEHOLD","NJ",7728,40.2589314430001,-74.2711825819999,500,"69 MECHANIC STREET APT 3, FREEHOLD, NJ, 7728","Match","Exact","69 MECHANIC ST, FREEHOLD, NJ, 07728",90445899,"L"
