"ID","Address","City","State","Zip","lat","long","id","input_address","match_indicator","match_type","matched_address","tiger_line_id","tiger_side"
800001,"6700 W MEMORIAL APT 522","OKLAHOMA CITY","OK",73142,NA,NA,1,"6700 W MEMORIAL APT 522, OKLAHOMA CITY, OK, 73142","No_Match",NA,NA,NA,NA
800002,"6700 W USTICK RD","BOISE","ID",83704,43.6338327990001,-116.264924675,2,"6700 W USTICK RD, BOISE, ID, 83704","Match","Exact","6700 USTICK RD, BOISE, ID, 83704",117916856,"R"
800003,"6700 WALL STREET APT 110","MOBILE","AL",36695,30.6701644940001,-88.197207382,3,"6700 WALL STREET APT 110, MOBILE, AL, 36695","Match","Exact","6700 WALL ST, MOBILE, AL, 36695",648320435,"R"
800004,"6700 WANDT DR","DALLAS","TX",75236,32.663087203,-96.9295800259999,4,"6700 WANDT DR, DALLAS, TX, 75236","Match","Non_Exact","6700 WANDT, DALLAS, TX, 75236",638654388,"R"
800005,"6700 WEST 11 STREET","SIOUX FALLS","SD",57107,43.5451536520001,-96.8063085479999,5,"6700 WEST 11 STREET, SIOUX FALLS, SD, 57107","Match","Exact","6700 W 11TH ST, SIOUX FALLS, SD, 57107",34980601,"L"
800006,"6700 WEST DORADO DRIVE UNIT 23","LITTLETON","CO",80123,39.615521223,-105.071908009,6,"6700 WEST DORADO DRIVE UNIT 23, LITTLETON, CO, 80123","Match","Exact","6700 W DORADO DR, LITTLETON, CO, 80123",177630753,"R"
800007,"6700 WILCOX APT D","BELL","CA",90201,33.9738521630001,-118.177080551,7,"6700 WILCOX APT D, BELL, CA, 90201","Match","Non_Exact","6700 WILCOX AVE, BELL, CA, 90201",141677003,"L"
800008,"6700 WILCOX AVE APT D","BELL","CA",90201,33.9738521630001,-118.177080551,8,"6700 WILCOX AVE APT D, BELL, CA, 90201","Match","Exact","6700 WILCOX AVE, BELL, CA, 90201",141677003,"L"
800009,"6700 WOODLANDS PARKWAY STE 230-132","THE WOODLANDS","TX",77382,30.181801239,-95.542487821,9,"6700 WOODLANDS PARKWAY STE 230-132, THE WOODLANDS, TX, 77382","Match","Exact","6700 WOODLANDS PKWY, THE WOODLANDS, TX, 77382",79342768,"R"
800010,"6700 WOODLANDS PKWY SUITE 230-191","THE WOODLANDS","TX",77382,30.181801239,-95.542487821,10,"6700 WOODLANDS PKWY SUITE 230-191, THE WOODLANDS, TX, 77382","Match","Exact","6700 WOODLANDS PKWY, THE WOODLANDS, TX, 77382",79342768,"R"
800011,"6700 WOODLEY AVENUE APT 206","VAN NUYS","CA",91406,34.1921082060001,-118.483641085,11,"6700 WOODLEY AVENUE APT 206, VAN NUYS, CA, 91406","Match","Exact","6700 WOODLEY AVE, VAN NUYS, CA, 91406",141556389,"R"
800012,"6700","CHICAGO","IL",60649,NA,NA,12,"6700, CHICAGO, IL, 60649","No_Match",NA,NA,NA,NA
800013,"6700","THE WOODLANDS","TX",77382,NA,NA,13,"6700, THE WOODLANDS, TX, 77382","No_Match",NA,NA,NA,NA
800014,"67000 FRYREAR ROAD","BEND","OR",97703,44.2254551500001,-121.422580769,14,"67000 FRYREAR ROAD, BEND, OR, 97703","Match","Exact","67000 FRYREAR RD, BEND, OR, 97703",644423888,"R"
800015,"67005 E 261 RD","GROVE","OK",74344,NA,NA,15,"67005 E 261 RD, GROVE, OK, 74344","No_Match",NA,NA,NA,NA
800016,"6701 139TH PL SW","EDMONDS","WA",98026,47.872197084,-122.324357025,16,"6701 139TH PL SW, EDMONDS, WA, 98026","Match","Exact","6701 139TH PL SW, EDMONDS, WA, 98026",187751908,"L"
800017,"6701 155TH ST NW","GIG HARBOR","WA",98332,NA,NA,17,"6701 155TH ST NW, GIG HARBOR, WA, 98332","No_Match",NA,NA,NA,NA
800018,"6701 A PUUPILO PL","KAPAA","HI",96746,22.061885951,-159.382077677,18,"6701 A PUUPILO PL, KAPAA, HI, 96746","Match","Exact","6701 PUUPILO PL, KAPAA, HI, 96746",614439500,"R"
800019,"6701 AIRPORT BLVD STE A-107","MOBILE","AL",36608,30.6823093520001,-88.199655701,19,"6701 AIRPORT BLVD STE A-107, MOBILE, AL, 36608","Match","Exact","6701 AIRPORT BLVD, MOBILE, AL, 36608",61963859,"L"
800020,"6701 AIRPORT BLVD STE B-135","MOBILE","AL",36608,30.6823093520001,-88.199655701,20,"6701 AIRPORT BLVD STE B-135, MOBILE, AL, 36608","Match","Exact","6701 AIRPORT BLVD, MOBILE, AL, 36608",61963859,"L"
800021,"6701 AMBASSADOR AVE APT 411","GRAND LEDGE","MI",48837,42.738815845,-84.7082373599999,21,"6701 AMBASSADOR AVE APT 411, GRAND LEDGE, MI, 48837","Match","Exact","6701 AMBASSADOR AVE, GRAND LEDGE, MI, 48837",617450982,"L"
800022,"6701 AMBER","ODESSA","TX",79762,NA,NA,22,"6701 AMBER, ODESSA, TX, 79762","No_Match",NA,NA,NA,NA
800023,"6701 ANTIRE RD","HIGH RIDGE","MO",63049,38.475584586,-90.559733275,23,"6701 ANTIRE RD, HIGH RIDGE, MO, 63049","Match","Exact","6701 ANTIRE RD, HIGH RIDGE, MO, 63049",613807350,"L"
800024,"6701 ARBOR LAKE DRIVE APT 301","CHESTER","VA",23831,37.3567371550001,-77.492357058,24,"6701 ARBOR LAKE DRIVE APT 301, CHESTER, VA, 23831","Match","Exact","6701 ARBOR LAKE DR, CHESTER, VA, 23831",201578911,"L"
800025,"6701 ARBOR LAKE DRIVE","CHESTER","VA",23831,37.3567371550001,-77.492357058,25,"6701 ARBOR LAKE DRIVE, CHESTER, VA, 23831","Match","Exact","6701 ARBOR LAKE DR, CHESTER, VA, 23831",201578911,"L"
800026,"6701 AUBURN STREET","BAKERSFIELD","CA",93306,NA,NA,26,"6701 AUBURN STREET, BAKERSFIELD, CA, 93306","No_Match",NA,NA,NA,NA
800027,"6701 BLUE CREEK E","WHITEHOUSE","OH",43571,41.5186901980001,-83.784181938,27,"6701 BLUE CREEK E, WHITEHOUSE, OH, 43571","Match","Exact","6701 BLUE CREEK E, WHITEHOUSE, OH, 43571",648400643,"L"
800028,"6701 BRIAN DAIRY ROAD APT 105","LARGO","FL",33777,27.8722929520001,-82.730907219,28,"6701 BRIAN DAIRY ROAD APT 105, LARGO, FL, 33777","Match","Non_Exact","6701 BRYAN DAIRY RD, LARGO, FL, 33777",641848819,"L"
800029,"6701 BROADWAY EXT SUITE 204","OKLAHOMA CITY","OK",73116,NA,NA,29,"6701 BROADWAY EXT SUITE 204, OKLAHOMA CITY, OK, 73116","No_Match",NA,NA,NA,NA
800030,"6701 BROOKWOOD BLVD","TAMARAC","FL",33309,26.2065166620001,-80.249409801,30,"6701 BROOKWOOD BLVD, TAMARAC, FL, 33309","Match","Non_Exact","6701 BROOKWOOD BLVD, TAMARAC, FL, 33321",114702417,"L"
800031,"6701 BROOKWOOD BLVD","TAMARAC","FL",33321,26.2065166620001,-80.249409801,31,"6701 BROOKWOOD BLVD, TAMARAC, FL, 33321","Match","Exact","6701 BROOKWOOD BLVD, TAMARAC, FL, 33321",114702417,"L"
800032,"6701 CANAL ST","AUSTIN","TX",78741,30.227087527,-97.697466078,32,"6701 CANAL ST, AUSTIN, TX, 78741","Match","Exact","6701 CANAL ST, AUSTIN, TX, 78741",63949304,"R"
800033,"6701 CHALET CT","AMARILLO","TX",79124,35.2267430470001,-101.911457913,33,"6701 CHALET CT, AMARILLO, TX, 79124","Match","Exact","6701 CHALET CT, AMARILLO, TX, 79124",182476443,"L"
800034,"6701 COLORADO DR SW","CEDAR RAPIDS","IA",52404,41.913753215,-91.6642244289999,34,"6701 COLORADO DR SW, CEDAR RAPIDS, IA, 52404","Match","Exact","6701 COLORADO DR SW, CEDAR RAPIDS, IA, 52404",619382805,"L"
800035,"6701 COLORADO DRIVE SW","CEDAR RAPIDS","IA",52404,41.913753215,-91.6642244289999,35,"6701 COLORADO DRIVE SW, CEDAR RAPIDS, IA, 52404","Match","Exact","6701 COLORADO DR SW, CEDAR RAPIDS, IA, 52404",619382805,"L"
800036,"6701 CONCORD HILL RD","LOUISVILLE","KY",40228,38.1566040180001,-85.634997719,36,"6701 CONCORD HILL RD, LOUISVILLE, KY, 40228","Match","Exact","6701 CONCORD HILL RD, LOUISVILLE, KY, 40228",96860006,"L"
800037,"6701 COUNTY ROAD 8200","WEST PLAINS","MO",65775,36.7265927220001,-91.8122817509999,37,"6701 COUNTY ROAD 8200, WEST PLAINS, MO, 65775","Match","Exact","6701 CO RD 8200, WEST PLAINS, MO, 65775",33314912,"R"
800038,"6701 CYPRESS POINT DR","MONROE","LA",71203,32.539935739,-92.035469798,38,"6701 CYPRESS POINT DR, MONROE, LA, 71203","Match","Exact","6701 CYPRESS POINT DR, MONROE, LA, 71203",648070032,"R"
800039,"6701 CYPRESS RD  APT 305","PLANTATION","FL",33317,26.1234146030001,-80.237229814,39,"6701 CYPRESS RD  APT 305, PLANTATION, FL, 33317","Match","Exact","6701 CYPRESS RD, PLANTATION, FL, 33317",114705154,"R"
800040,"6701 DEL REY AVE 129","LAS VEGAS","NV",89146,36.1554027270001,-115.239212567,40,"6701 DEL REY AVE 129, LAS VEGAS, NV, 89146","Match","Non_Exact","6701 DEL REY AVE, LAS VEGAS, NV, 89146",201921994,"L"
800041,"6701 DORSEY LANE","WOODBINE","MD",21797,39.389962548,-77.040287884,41,"6701 DORSEY LANE, WOODBINE, MD, 21797","Match","Exact","6701 DORSEY LN, WOODBINE, MD, 21797",61785240,"L"
800042,"6701 DURHAM COURT","MENTOR","OH",44060,41.6895472320001,-81.358064977,42,"6701 DURHAM COURT, MENTOR, OH, 44060","Match","Non_Exact","6701 S DURHAM CT, MENTOR, OH, 44060",137461914,"R"
800043,"6701 E BATTLE RD","CLARE","MI",48617,43.7426512390001,-84.713145077,43,"6701 E BATTLE RD, CLARE, MI, 48617","Match","Exact","6701 E BATTLE RD, CLARE, MI, 48617",110216712,"L"
800044,"6701 E CLINTON","SCOTTSDALE","AR",85254,NA,NA,44,"6701 E CLINTON, SCOTTSDALE, AR, 85254","No_Match",NA,NA,NA,NA
800045,"6701 E MICHIGAN AVENUE","FRESNO","CA",93727,36.776810584,-119.667850846,45,"6701 E MICHIGAN AVENUE, FRESNO, CA, 93727","Match","Exact","6701 E MICHIGAN AVE, FRESNO, CA, 93727",624337254,"R"
800046,"6701 E ZAYANTE ROAD","FELTON","CA",95018,37.054156608,-122.061515639,46,"6701 E ZAYANTE ROAD, FELTON, CA, 95018","Match","Exact","6701 E ZAYANTE RD, FELTON, CA, 95018",635482510,"L"
800047,"6701 E ZAYANTE ROAD","FETON","CA",95018,37.054151948,-122.0615206,47,"6701 E ZAYANTE ROAD, FETON, CA, 95018","Match","Non_Exact","6701 E ZAYANTE RD, FELTON, CA, 95018",635482510,"L"
800048,"6701 EAST BATTLE RD","CLARE","MI",48617,43.7426512000001,-84.7131587269999,48,"6701 EAST BATTLE RD, CLARE, MI, 48617","Match","Exact","6701 E BATTLE RD, CLARE, MI, 48617",110216712,"L"
800049,"6701 EASTON PL","CHARLOTTE","NC",28212,35.1901185840001,-80.7537755279999,49,"6701 EASTON PL, CHARLOTTE, NC, 28212","Match","Exact","6701 EASTON PL, CHARLOTTE, NC, 28212",70492492,"L"
800050,"6701 ETON AVE APT 216","CANOGA PARK","CA",91303,34.1926829440001,-118.595443388,50,"6701 ETON AVE APT 216, CANOGA PARK, CA, 91303","Match","Exact","6701 ETON AVE, CANOGA PARK, CA, 91303",650085393,"L"
800051,"6701 ETON AVENUE  NO 332","CANOGA PARK","CA",91303,34.1926829440001,-118.595443388,51,"6701 ETON AVENUE  NO 332, CANOGA PARK, CA, 91303","Match","Non_Exact","6701 ETON AVE, CANOGA PARK, CA, 91303",650085393,"L"
800052,"6701 ETON AVENUE APT 330","WOODLAND HILLS","CA",91303,34.1926829440001,-118.595443388,52,"6701 ETON AVENUE APT 330, WOODLAND HILLS, CA, 91303","Match","Exact","6701 ETON AVE, WOODLAND HILLS, CA, 91303",650085393,"L"
800053,"6701 ETON AVENUE NO 332","CANOGA PARK","CA",91303,34.1926829440001,-118.595443388,53,"6701 ETON AVENUE NO 332, CANOGA PARK, CA, 91303","Match","Non_Exact","6701 ETON AVE, CANOGA PARK, CA, 91303",650085393,"L"
800054,"6701 EXETER AVE","BIRMINGHAM","AL",35212,33.5444831670001,-86.731607178,54,"6701 EXETER AVE, BIRMINGHAM, AL, 35212","Match","Exact","6701 EXETER AVE, BIRMINGHAM, AL, 35212",647591186,"R"
800055,"6701 FAIRHAVEN ROAD APT 301","MADISON","WI",53719,43.0034845850001,-89.4992379239999,55,"6701 FAIRHAVEN ROAD APT 301, MADISON, WI, 53719","Match","Non_Exact","6701 FAIRHAVEN DR, MADISON, WI, 53719",627374692,"R"
800056,"6701 FM 3194","CORSICANA","TX",75110,NA,NA,56,"6701 FM 3194, CORSICANA, TX, 75110","No_Match",NA,NA,NA,NA
800057,"6701 GREEN VALLEY ROAD","PLACERVILLE","CA",95667,38.7203527980001,-120.866309743,57,"6701 GREEN VALLEY ROAD, PLACERVILLE, CA, 95667","Match","Exact","6701 GREEN VALLEY RD, PLACERVILLE, CA, 95667",133059501,"L"
800058,"6701 HIGH RIDGE ROAD","LAKE WORTH","FL",33462,26.577114286,-80.074630016,58,"6701 HIGH RIDGE ROAD, LAKE WORTH, FL, 33462","Match","Exact","6701 HIGH RIDGE RD, LAKE WORTH, FL, 33462",115294664,"R"
800059,"6701 HILLSIDE LANE","EDIN","MN",55439,44.8815877110001,-93.365592936,59,"6701 HILLSIDE LANE, EDIN, MN, 55439","Match","Non_Exact","6701 HILLSIDE LN, EDINA, MN, 55439",43834443,"L"
800060,"6701 HILLSIDE LN","EDINA","MN",55439,44.8815877110001,-93.365592936,60,"6701 HILLSIDE LN, EDINA, MN, 55439","Match","Exact","6701 HILLSIDE LN, EDINA, MN, 55439",43834443,"L"
800061,"6701 INDIAN TRAIL","SUFFOLK","VA",23437,36.7147415920001,-76.7725081,61,"6701 INDIAN TRAIL, SUFFOLK, VA, 23437","Match","Exact","6701 INDIAN TRL, SUFFOLK, VA, 23437",122223580,"R"
800062,"6701 JOHNSON STREET","HOLLYWOOD","FL",33024,26.017272803,-80.222172276,62,"6701 JOHNSON STREET, HOLLYWOOD, FL, 33024","Match","Exact","6701 JOHNSON ST, HOLLYWOOD, FL, 33024",114820161,"R"
800063,"6701 KINGSWOOD COURT","SIOUX CITY","IA",51106,42.459044668,-96.306700995,63,"6701 KINGSWOOD COURT, SIOUX CITY, IA, 51106","Match","Exact","6701 KINGSWOOD CT, SIOUX CITY, IA, 51106",93455367,"R"
800064,"6701 LA CADENA","EL PASO","TX",79912,31.846173978,-106.539327031,64,"6701 LA CADENA, EL PASO, TX, 79912","Match","Non_Exact","6701 LA CADENA DR, EL PASO, TX, 79912",189334919,"R"
800065,"6701 LANGWORTH RD","OAKDALE","CA",95361,37.7362317810001,-120.894585128,65,"6701 LANGWORTH RD, OAKDALE, CA, 95361","Match","Exact","6701 LANGWORTH RD, OAKDALE, CA, 95361",102601755,"L"
800066,"6701 LATIGO LANE","WENDELL","NC",27591,35.767078966,-78.4030605899999,66,"6701 LATIGO LANE, WENDELL, NC, 27591","Match","Exact","6701 LATIGO LN, WENDELL, NC, 27591",612817250,"L"
800067,"6701 LEYTE DR","OXON HILL","MD",20745,38.7985172040001,-76.991723393,67,"6701 LEYTE DR, OXON HILL, MD, 20745","Match","Exact","6701 LEYTE DR, OXON HILL, MD, 20745",76391287,"R"
800068,"6701 LIGGETT DRIVE","OAKLAND","CA",94611,37.822349887,-122.21087002,68,"6701 LIGGETT DRIVE, OAKLAND, CA, 94611","Match","Exact","6701 LIGGETT DR, OAKLAND, CA, 94611",125003530,"R"
800069,"6701 MADER DRIVE UNIT 115","MADISON","WI",53719,43.01414952,-89.501835375,69,"6701 MADER DRIVE UNIT 115, MADISON, WI, 53719","Match","Exact","6701 MADER DR, MADISON, WI, 53719",649023652,"R"
800070,"6701 MALLARDS COVE RD  APT 44B","JUPITER","FL",33458,26.9269831780001,-80.138086126,70,"6701 MALLARDS COVE RD  APT 44B, JUPITER, FL, 33458","Match","Exact","6701 MALLARDS COVE RD, JUPITER, FL, 33458",115571068,"R"
800071,"6701 MANLIUS CENTER ROAD","EAST SYRACUSE","NY",13057,43.0631291510001,-76.051751547,71,"6701 MANLIUS CENTER ROAD, EAST SYRACUSE, NY, 13057","Match","Exact","6701 MANLIUS CENTER RD, EAST SYRACUSE, NY, 13057",46623289,"L"
800072,"6701 MERLIN CT","ORLANDO","FL",32810,28.6207593520001,-81.4715879519999,72,"6701 MERLIN CT, ORLANDO, FL, 32810","Match","Exact","6701 MERLIN CT, ORLANDO, FL, 32810",94341174,"L"
800073,"6701 MESA COURT","YOUNTVILLE","CA",94599,38.408379016,-122.363915921,73,"6701 MESA COURT, YOUNTVILLE, CA, 94599","Match","Exact","6701 MESA CT, YOUNTVILLE, CA, 94599",67413640,"R"
800074,"6701 MUNCASTER MILL ROAD","DERWOOD","MD",20855,39.140365661,-77.135278781,74,"6701 MUNCASTER MILL ROAD, DERWOOD, MD, 20855","Match","Exact","6701 MUNCASTER MILL RD, DERWOOD, MD, 20855",62052301,"R"
800075,"6701 N BRITTON RD","SOLSBERRY","IN",47459,NA,NA,75,"6701 N BRITTON RD, SOLSBERRY, IN, 47459","No_Match",NA,NA,NA,NA
800076,"6701 N CHARLES ST","TOWNSON","MD",21207,NA,NA,76,"6701 N CHARLES ST, TOWNSON, MD, 21207","No_Match",NA,NA,NA,NA
800077,"6701 N ROCKWELL ST","CHICAGO","IL",60645,42.0032130380001,-87.6949013179999,77,"6701 N ROCKWELL ST, CHICAGO, IL, 60645","Match","Non_Exact","6701 N ROCKWELL ST, CHICAGO, IL, 60645",605168947,"R"
800078,"6701 N TRYON ST SUITE C","CHARLOTTE","NC",28213,35.2790337600001,-80.765955371,78,"6701 N TRYON ST SUITE C, CHARLOTTE, NC, 28213","Match","Non_Exact","6701 N TRYON ST, CHARLOTTE, NC, 28213",616653652,"L"
800079,"6701 NE PRESCOTT ST","PORTLAND","OR",97218,45.5554495160001,-122.594227129,79,"6701 NE PRESCOTT ST, PORTLAND, OR, 97218","Match","Exact","6701 NE PRESCOTT ST, PORTLAND, OR, 97218",157512594,"L"
800080,"6701 NORTH JEAN NICOLET ROAD","GLENDALE","WI",53217,43.1384907950001,-87.9142385769999,80,"6701 NORTH JEAN NICOLET ROAD, GLENDALE, WI, 53217","Match","Exact","6701 N JEAN NICOLET RD, GLENDALE, WI, 53217",648289226,"L"
800081,"6701 NW 5TH CT","MIAMI","FL",33150,25.8362366160001,-80.205625187,81,"6701 NW 5TH CT, MIAMI, FL, 33150","Match","Exact","6701 NW 5TH CT, MIAMI, FL, 33150",647891333,"R"
800082,"6701 NW 70TH STREET","TAMARAC","FL",33321,26.2097581350001,-80.24170551,82,"6701 NW 70TH STREET, TAMARAC, FL, 33321","Match","Exact","6701 NW 70TH ST, TAMARAC, FL, 33321",114702506,"R"
800083,"6701 NW 93RD AVE","TAMARAC","FL",33321,26.205231617,-80.275717565,83,"6701 NW 93RD AVE, TAMARAC, FL, 33321","Match","Exact","6701 NW 93RD AVE, TAMARAC, FL, 33321",114701449,"L"
800084,"6701 NW 93RD ST","JOHNSTON","IA",50131,41.681406817,-93.74678719,84,"6701 NW 93RD ST, JOHNSTON, IA, 50131","Match","Exact","6701 NW 93RD ST, JOHNSTON, IA, 50131",647809687,"R"
800085,"6701 NW 93RD","JOHNSTON","IA",50131,NA,NA,85,"6701 NW 93RD, JOHNSTON, IA, 50131","Tie",NA,NA,NA,NA
800086,"6701 OLD 28TH ST SE STE B","GRAND RAPIDS","MI",49546,42.9133246600001,-85.503025257,86,"6701 OLD 28TH ST SE STE B, GRAND RAPIDS, MI, 49546","Match","Non_Exact","6701 OLD 28TH ST SE, GRAND RAPIDS, MI, 49546",650625601,"R"
800087,"6701 OPAL LAKE RD","GAYLORD","MI",49735,44.9328026060001,-84.6137766049999,87,"6701 OPAL LAKE RD, GAYLORD, MI, 49735","Match","Exact","6701 OPAL LAKE RD, GAYLORD, MI, 49735",171770361,"L"
800088,"6701 PARK HEIGHTS AVENUE UNIT 2B","BALTIMORE","MD",21215,39.3624095770001,-76.699841223,88,"6701 PARK HEIGHTS AVENUE UNIT 2B, BALTIMORE, MD, 21215","Match","Exact","6701 PARK HEIGHTS AVE, BALTIMORE, MD, 21215",206465044,"R"
800089,"6701 PEPPERGRASS DR","SPARKS","NV",89436,NA,NA,89,"6701 PEPPERGRASS DR, SPARKS, NV, 89436","No_Match",NA,NA,NA,NA
800090,"6701 PINE SPRINGS DR","WESLEY CHAPEL","FL",33545,28.255001829,-82.248330134,90,"6701 PINE SPRINGS DR, WESLEY CHAPEL, FL, 33545","Match","Exact","6701 PINE SPRINGS DR, WESLEY CHAPEL, FL, 33545",618494106,"R"
800091,"6701 PINETUCKY RD S","MOBILE","AL",36618,30.7495653730001,-88.198818981,91,"6701 PINETUCKY RD S, MOBILE, AL, 36618","Match","Exact","6701 PINETUCKY RD S, MOBILE, AL, 36618",61846596,"R"
800092,"6701 POPLAR GROVE WAY","STONE MOUNTAIN","GA",30083,33.7805299710001,-84.1123902259999,92,"6701 POPLAR GROVE WAY, STONE MOUNTAIN, GA, 30083","Match","Non_Exact","6701 POPLAR GROVE WAY, STONE MOUNTAIN, GA, 30087",23394822,"L"
800093,"6701 POST ROAD","SALEM","IL",62881,NA,NA,93,"6701 POST ROAD, SALEM, IL, 62881","No_Match",NA,NA,NA,NA
800094,"6701 RANGER DRIVE","TAMPA","FL",33615,NA,NA,94,"6701 RANGER DRIVE, TAMPA, FL, 33615","No_Match",NA,NA,NA,NA
800095,"6701 RESTON HEIGHTS DRIVE 3","MADISON","WI",53718,43.098369522,-89.2636475199999,95,"6701 RESTON HEIGHTS DRIVE 3, MADISON, WI, 53718","Match","Exact","6701 RESTON HEIGHTS DR, MADISON, WI, 53718",49553881,"R"
800096,"6701 ROCKSIDE RD","INDEPENDENCE","OH",44131,41.3948538540001,-81.644402546,96,"6701 ROCKSIDE RD, INDEPENDENCE, OH, 44131","Match","Exact","6701 ROCKSIDE RD, INDEPENDENCE, OH, 44131",632000315,"L"
800097,"6701 ROCKWELL","CHICAGO","IL",60645,NA,NA,97,"6701 ROCKWELL, CHICAGO, IL, 60645","No_Match",NA,NA,NA,NA
800098,"6701 ROYAL THOMAS WAY","ALEXANDRIA","VA",22315,38.7533796160001,-77.172174984,98,"6701 ROYAL THOMAS WAY, ALEXANDRIA, VA, 22315","Match","Exact","6701 ROYAL THOMAS WAY, ALEXANDRIA, VA, 22315",76037281,"L"
800099,"6701 S HILL CREEK RD","COLUMBIA","MO",65203,38.8737983410001,-92.3494323529999,99,"6701 S HILL CREEK RD, COLUMBIA, MO, 65203","Match","Exact","6701 HILL CREEK RD, COLUMBIA, MO, 65203",632691843,"L"
800100,"6701 SANDS POINT 12","HOUSTON","TX",77074,29.711109998,-95.500119781,100,"6701 SANDS POINT 12, HOUSTON, TX, 77074","Match","Non_Exact","6701 SANDS POINT DR, HOUSTON, TX, 77074",96614536,"L"
800101,"6701 SANDSPOINT DR 8","HOUSTON","TX",77074,29.711109998,-95.500119781,101,"6701 SANDSPOINT DR 8, HOUSTON, TX, 77074","Match","Non_Exact","6701 SANDS POINT DR, HOUSTON, TX, 77074",96614536,"L"
800102,"6701 SANDSPOINT DR APT 82","HOUSTON","TX",77074,29.711109998,-95.500119781,102,"6701 SANDSPOINT DR APT 82, HOUSTON, TX, 77074","Match","Non_Exact","6701 SANDS POINT DR, HOUSTON, TX, 77074",96614536,"L"
800103,"6701 SCHOOL HOUSE LN","SHOALS","IN",47581,38.617252443,-86.797560528,103,"6701 SCHOOL HOUSE LN, SHOALS, IN, 47581","Match","Exact","6701 SCHOOL HOUSE LN, SHOALS, IN, 47581",32112952,"R"
800104,"6701 SEXTON COURT","FAYETTEVILLE","NC",28314,35.0491841480001,-79.07022585,104,"6701 SEXTON COURT, FAYETTEVILLE, NC, 28314","Match","Exact","6701 SEXTON CT, FAYETTEVILLE, NC, 28314",64225820,"R"
800105,"6701 SEXTON CT","FAYETTEVILLE","NC",28314,35.0491841480001,-79.07022585,105,"6701 SEXTON CT, FAYETTEVILLE, NC, 28314","Match","Exact","6701 SEXTON CT, FAYETTEVILLE, NC, 28314",64225820,"R"
800106,"6701 ST MORITZ PKWY","COLLEYVILLE","TX",76034,32.9047462680001,-97.178055722,106,"6701 ST MORITZ PKWY, COLLEYVILLE, TX, 76034","Match","Exact","6701 ST MORITZ PKWY, COLLEYVILLE, TX, 76034",102116255,"L"
800107,"6701 STAR VIEW ST","DES MOINES","IA",50320,41.52454405,-93.567261645,107,"6701 STAR VIEW ST, DES MOINES, IA, 50320","Match","Exact","6701 STAR VIEW ST, DES MOINES, IA, 50320",65851543,"L"
800108,"6701 STONEBRIDGE CT","W BLOOMFIELD","MI",48322,42.538736332,-83.386968509,108,"6701 STONEBRIDGE CT, W BLOOMFIELD, MI, 48322","Match","Exact","6701 STONEBRIDGE CT, W BLOOMFIELD, MI, 48322",69761555,"L"
800109,"6701 SUITLAND ROAD","MORNINGSIDE","MD",20746,38.8282193310001,-76.894196893,109,"6701 SUITLAND ROAD, MORNINGSIDE, MD, 20746","Match","Exact","6701 SUITLAND RD, MORNINGSIDE, MD, 20746",76318968,"R"
800110,"6701 SUSAN DR","CASTALIA","OH",44824,41.372180029,-82.799167214,110,"6701 SUSAN DR, CASTALIA, OH, 44824","Match","Exact","6701 SUSAN DR, CASTALIA, OH, 44824",55336220,"R"
800111,"6701 SW 166TH AVE","SOUTHWEST RANCHES","FL",33331,26.037366395,-80.369419509,111,"6701 SW 166TH AVE, SOUTHWEST RANCHES, FL, 33331","Match","Exact","6701 SW 166TH AVE, SOUTHWEST RANCHES, FL, 33331",114758305,"R"
800112,"6701 SW 33RD ST","TOPEKA","KS",66614,39.0072262580001,-95.777346318,112,"6701 SW 33RD ST, TOPEKA, KS, 66614","Match","Exact","6701 SW 33RD ST, TOPEKA, KS, 66614",649199534,"L"
800113,"6701 SW 80 ST","MIAMI","FL",33143,25.6964341080001,-80.3012039659999,113,"6701 SW 80 ST, MIAMI, FL, 33143","Match","Exact","6701 SW 80TH ST, MIAMI, FL, 33143",115985344,"R"
800114,"6701 SW CANYON CREST DRIVE","PORTLAND","OR",97225,45.5035579170001,-122.746624749,114,"6701 SW CANYON CREST DRIVE, PORTLAND, OR, 97225","Match","Exact","6701 SW CANYON CREST DR, PORTLAND, OR, 97225",158188145,"R"
800115,"6701 SW33RD ST","TOPEKA","KS",66614,NA,NA,115,"6701 SW33RD ST, TOPEKA, KS, 66614","No_Match",NA,NA,NA,NA
800116,"6701 VIRGINIA AVE","SAINT LOUIS","MO",63111,38.5562519790001,-90.25459478,116,"6701 VIRGINIA AVE, SAINT LOUIS, MO, 63111","Match","Exact","6701 VIRGINIA AVE, SAINT LOUIS, MO, 63111",107601743,"R"
800117,"6701 W HIGGINS AVENUE","CHICAGO","IL",60656,41.978569228,-87.795120599,117,"6701 W HIGGINS AVENUE, CHICAGO, IL, 60656","Match","Exact","6701 W HIGGINS AVE, CHICAGO, IL, 60656",111749821,"L"
800118,"6701 WARRIOR RIVER RD","HUEYTOWN","AL",35023,33.480582639,-87.0659933869999,118,"6701 WARRIOR RIVER RD, HUEYTOWN, AL, 35023","Match","Exact","6701 WARRIOR RIVER RD, HUEYTOWN, AL, 35023",81543538,"L"
800119,"6701 WASHINGTON BLVD UNIT H","ARLINGTON","VA",22213,38.887722781,-77.15991432,119,"6701 WASHINGTON BLVD UNIT H, ARLINGTON, VA, 22213","Match","Exact","6701 WASHINGTON BLVD, ARLINGTON, VA, 22213",652313426,"R"
800120,"6701 WESTOWN PARKWAY STE 100","WEST DES MOINES","IA",50266,41.5943066410001,-93.800710072,120,"6701 WESTOWN PARKWAY STE 100, WEST DES MOINES, IA, 50266","Match","Exact","6701 WESTOWN PKWY, WEST DES MOINES, IA, 50266",640260147,"R"
800121,"6701 WESTOWN PARKWAY","WEST DES MOINES","IA",50266,41.5943066410001,-93.800710072,121,"6701 WESTOWN PARKWAY, WEST DES MOINES, IA, 50266","Match","Exact","6701 WESTOWN PKWY, WEST DES MOINES, IA, 50266",640260147,"R"
800122,"6701 WHITAKER STREET","DAYTON","OH",45417,NA,NA,122,"6701 WHITAKER STREET, DAYTON, OH, 45417","No_Match",NA,NA,NA,NA
800123,"6701 WHITEWING","CORPUS CHRISTI","TX",78413,27.682927351,-97.391622892,123,"6701 WHITEWING, CORPUS CHRISTI, TX, 78413","Match","Non_Exact","6701 WHITE WING DR, CORPUS CHRISTI, TX, 78413",178539315,"R"
800124,"6701 WILD CHERRY LN","CLINTON","MD",20735,NA,NA,124,"6701 WILD CHERRY LN, CLINTON, MD, 20735","No_Match",NA,NA,NA,NA
800125,"6701 WILLAMETTE DR","AUSTIN","TX",78723,30.3149990060001,-97.677369759,125,"6701 WILLAMETTE DR, AUSTIN, TX, 78723","Match","Exact","6701 WILLAMETTE DR, AUSTIN, TX, 78723",64020455,"R"
800126,"6701 WILLOW POND LANE","SARASOTA","FL",34240,27.3128869700001,-82.437407421,126,"6701 WILLOW POND LANE, SARASOTA, FL, 34240","Match","Exact","6701 WILLOW POND LN, SARASOTA, FL, 34240",16385596,"L"
800127,"6701 WINTON BLOUNT BLVD BOX 240454","MONTGOMERY","AL",36124,32.3779276700001,-86.179659148,127,"6701 WINTON BLOUNT BLVD BOX 240454, MONTGOMERY, AL, 36124","Match","Non_Exact","6701 WINTON BLOUNT BLVD, MONTGOMERY, AL, 36119",1501536,"L"
800128,"6702 139TH AVE NE APT 752","REDMOND","WA",98052,47.664523939,-122.153798729,128,"6702 139TH AVE NE APT 752, REDMOND, WA, 98052","Match","Exact","6702 139TH AVE NE, REDMOND, WA, 98052",186610726,"R"
800129,"6702 21ST ST NE","TACOMA","WA",98422,47.2757071510001,-122.357676274,129,"6702 21ST ST NE, TACOMA, WA, 98422","Match","Exact","6702 21ST ST NE, TACOMA, WA, 98422",184647723,"L"
800130,"6702 55TH ST CT W","UNIVERSITY PLACE","WA",98467,47.206923482,-122.526716224,130,"6702 55TH ST CT W, UNIVERSITY PLACE, WA, 98467","Match","Exact","6702 55TH STREET CT W, UNIVERSITY PLACE, WA, 98467",184760769,"L"
800131,"6702 77TH STREET WEST","LAKEWOOD","WA",98499,47.187343927,-122.525629621,131,"6702 77TH STREET WEST, LAKEWOOD, WA, 98499","Match","Exact","6702 77TH ST W, LAKEWOOD, WA, 98499",639253720,"L"
800132,"6702 AEGEAN TRAIL","SUGAR LAND","TX",77479,29.5808682100001,-95.65885185,132,"6702 AEGEAN TRAIL, SUGAR LAND, TX, 77479","Match","Exact","6702 AEGEAN TRL, SUGAR LAND, TX, 77479",617959801,"R"
800133,"6702 AEGEAN TRAIL","SUGARLAND","TX",77479,29.5808682100001,-95.65885185,133,"6702 AEGEAN TRAIL, SUGARLAND, TX, 77479","Match","Non_Exact","6702 AEGEAN TRL, SUGAR LAND, TX, 77479",617959801,"R"
800134,"6702 ANTIGUA DR UNIT 49","FORT COLLINS","CO",80528,40.4910459000001,-105.056980542,134,"6702 ANTIGUA DR UNIT 49, FORT COLLINS, CO, 80528","Match","Non_Exact","6702 ANTIGUA DR, FORT COLLINS, CO, 80525",188548783,"R"
800135,"6702 BAXLEY CT","SUGARLAND","TX",77479,29.588684345,-95.6592514009999,135,"6702 BAXLEY CT, SUGARLAND, TX, 77479","Match","Non_Exact","6702 BAXLEY CT, SUGAR LAND, TX, 77479",617958341,"R"
800136,"6702 BERGENLINE AVENUE 2ND FLOOR","WEST NEW YORK","NJ",7093,40.794510098,-74.012079419,136,"6702 BERGENLINE AVENUE 2ND FLOOR, WEST NEW YORK, NJ, 7093","Match","Exact","6702 BERGENLINE AVE, WEST NEW YORK, NJ, 07093",59598682,"R"
800137,"6702 BUGLE RUN DR","OAK RIDGE","NC",27310,36.1795008780001,-79.963207106,137,"6702 BUGLE RUN DR, OAK RIDGE, NC, 27310","Match","Exact","6702 BUGLE RUN DR, OAK RIDGE, NC, 27310",131080052,"R"
800138,"6702 BURNSIDE CT","RIVERSIDE","CA",92504,33.951577398,-117.413356129,138,"6702 BURNSIDE CT, RIVERSIDE, CA, 92504","Match","Exact","6702 BURNSIDE CT, RIVERSIDE, CA, 92504",194739607,"L"
800139,"6702 CARVER","HITCHOCK","TX",77563,29.3461051360001,-95.004265985,139,"6702 CARVER, HITCHOCK, TX, 77563","Match","Non_Exact","6702 CARVER AVE, HITCHCOCK, TX, 77563",96687592,"R"
800140,"6702 CHELWOOD CT","WILMINGOTN","NC",28412,34.0950857390001,-77.899864666,140,"6702 CHELWOOD CT, WILMINGOTN, NC, 28412","Match","Non_Exact","6702 CHELWOOD CT, WILMINGTON, NC, 28412",152749228,"R"
800141,"6702 CORINTH","PASADENA","TX",77505,29.6521411300001,-95.138021883,141,"6702 CORINTH, PASADENA, TX, 77505","Match","Non_Exact","6702 CORINTH DR, PASADENA, TX, 77505",642864768,"R"
800142,"6702 CRESTRIDGE ST","HOUSTON","TX",77033,29.682045939,-95.334618602,142,"6702 CRESTRIDGE ST, HOUSTON, TX, 77033","Match","Exact","6702 CRESTRIDGE ST, HOUSTON, TX, 77033",96090992,"R"
800143,"6702 DOREN STREET","PHILADELPHIA","PA",19142,NA,NA,143,"6702 DOREN STREET, PHILADELPHIA, PA, 19142","No_Match",NA,NA,NA,NA
800144,"6702 E 100TH PL","T","OK",74133,36.017910569,-95.901481776,144,"6702 E 100TH PL, T, OK, 74133","Match","Non_Exact","6702 E 100TH PL, TULSA, OK, 74133",166461778,"R"
800145,"6702 E BLACKJACK RD","ATOKA","OK",74525,34.273026063,-96.0598237199999,145,"6702 E BLACKJACK RD, ATOKA, OK, 74525","Match","Exact","6702 E BLACKJACK RD, ATOKA, OK, 74525",63069832,"R"
800146,"6702 E CALLE DENED","TUCSON","AZ",85710,32.1960404110001,-110.849939833,146,"6702 E CALLE DENED, TUCSON, AZ, 85710","Match","Non_Exact","6702 E CLL DENED, TUCSON, AZ, 85710",121183790,"R"
800147,"6702 E CHEERY LYNN RD","SCOTTSDALE","AZ",85251,33.484549744,-111.936695433,147,"6702 E CHEERY LYNN RD, SCOTTSDALE, AZ, 85251","Match","Exact","6702 E CHEERY LYNN RD, SCOTTSDALE, AZ, 85251",243932412,"L"
800148,"6702 ELK TRAIL","ARLINGTON","TX",76002,32.633020205,-97.087633613,148,"6702 ELK TRAIL, ARLINGTON, TX, 76002","Match","Exact","6702 ELK TRL, ARLINGTON, TX, 76002",102175075,"L"
800149,"6702 ELWOOD ROAD","SAN JOSE","CA",95120,37.213637792,-121.857944243,149,"6702 ELWOOD ROAD, SAN JOSE, CA, 95120","Match","Exact","6702 ELWOOD RD, SAN JOSE, CA, 95120",122923252,"L"
800150,"6702 ESPANITA ST","LONG BEACH","CA",90815,33.7857334780001,-118.102565067,150,"6702 ESPANITA ST, LONG BEACH, CA, 90815","Match","Non_Exact","6702 E ESPANITA ST, LONG BEACH, CA, 90815",141755497,"R"
800151,"6702 FOWLER AVENUE SUITE 161","TAMPA","FL",33617,28.0543480900001,-82.378805585,151,"6702 FOWLER AVENUE SUITE 161, TAMPA, FL, 33617","Match","Non_Exact","6702 E FOWLER AVE, TAMPA, FL, 33617",104535649,"L"
800152,"6702 GREEN RIVER DR UNIT E","HIGHLANDS RANCH","CO",80130,39.5622148580001,-104.920054266,152,"6702 GREEN RIVER DR UNIT E, HIGHLANDS RANCH, CO, 80130","Match","Exact","6702 GREEN RIVER DR, HIGHLANDS RANCH, CO, 80130",627313630,"R"
800153,"6702 GREEN RIVER DR UNIT E","HIGHLANDS RANCH","CO",NA,39.5622148580001,-104.920054266,153,"6702 GREEN RIVER DR UNIT E, HIGHLANDS RANCH, CO, ","Match","Exact","6702 GREEN RIVER DR, HIGHLANDS RANCH, CO, 80130",627313630,"R"
800154,"6702 HELIOTROE AVE","BELL","CA",90201,33.9742817690001,-118.179986283,154,"6702 HELIOTROE AVE, BELL, CA, 90201","Match","Non_Exact","6702 HELIOTROPE AVE, BELL, CA, 90201",142763709,"L"
800155,"6702 HOMAN STREET","CHINO","CA",91710,34.0053020670001,-117.658330024,155,"6702 HOMAN STREET, CHINO, CA, 91710","Match","Exact","6702 HOMAN ST, CHINO, CA, 91710",144999683,"L"
800156,"6702 JOSIE DRIVE","SEFFNER","FL",33584,28.029074225,-82.31488968,156,"6702 JOSIE DRIVE, SEFFNER, FL, 33584","Match","Exact","6702 JOSIE DR, SEFFNER, FL, 33584",104614781,"L"
800157,"6702 LANGDON LANE","HOUSTON","TX",77074,29.693073788,-95.501266374,157,"6702 LANGDON LANE, HOUSTON, TX, 77074","Match","Exact","6702 LANGDON LN, HOUSTON, TX, 77074",96037530,"R"
800158,"6702 MURPHY FARM","SAN ANTONIO","TX",78239,29.497971858,-98.3570311829999,158,"6702 MURPHY FARM, SAN ANTONIO, TX, 78239","Match","Exact","6702 MURPHY FARM, SAN ANTONIO, TX, 78239",101741968,"R"
800159,"6702 N 12TH ST","PHILADELPHIA","PA",19126,40.054998357,-75.137371405,159,"6702 N 12TH ST, PHILADELPHIA, PA, 19126","Match","Exact","6702 N 12TH ST, PHILADELPHIA, PA, 19126",131413827,"L"
800160,"6702 NORTH SHERIDAN RD APARTMENT 3N","CHICAGO","IL",60626,42.003795417,-87.660828843,160,"6702 NORTH SHERIDAN RD APARTMENT 3N, CHICAGO, IL, 60626","Match","Exact","6702 N SHERIDAN RD, CHICAGO, IL, 60626",111745690,"L"
800161,"6702 OAKLANDON ROAD","INDIANAPOLIS","IN",46236,39.879347851,-85.957132911,161,"6702 OAKLANDON ROAD, INDIANAPOLIS, IN, 46236","Match","Exact","6702 OAKLANDON RD, INDIANAPOLIS, IN, 46236",636516366,"L"
800162,"6702 PATHWAY COURT DR","KATY","TX",77449,29.869337414,-95.693488451,162,"6702 PATHWAY COURT DR, KATY, TX, 77449","Match","Non_Exact","6702 PATH WAY CT, KATY, TX, 77449",624621669,"L"
800163,"6702 PROFESSOR ST","RALEIGH","NC",27616,35.870378644,-78.541912139,163,"6702 PROFESSOR ST, RALEIGH, NC, 27616","Match","Exact","6702 PROFESSOR ST, RALEIGH, NC, 27616",72649330,"R"
800164,"6702 S 48TH LANE","LAVEEN","AZ",85339,33.385714498,-112.163395646,164,"6702 S 48TH LANE, LAVEEN, AZ, 85339","Match","Exact","6702 S 48TH LN, LAVEEN, AZ, 85339",244010921,"L"
800165,"6702 S 48TH LN","LAVEEN","AZ",85339,33.385714498,-112.163395646,165,"6702 S 48TH LN, LAVEEN, AZ, 85339","Match","Exact","6702 S 48TH LN, LAVEEN, AZ, 85339",244010921,"L"
800166,"6702 SANDSHOF CIRCLE","AUSTIN","TX",78724,30.3002241360001,-97.645289668,166,"6702 SANDSHOF CIRCLE, AUSTIN, TX, 78724","Match","Exact","6702 SANDSHOF CIR, AUSTIN, TX, 78724",63951864,"R"
800167,"6702 SO WATERWAY DRIVE","MIAMI","FL",33155,25.736028952,-80.3031664489999,167,"6702 SO WATERWAY DRIVE, MIAMI, FL, 33155","Match","Exact","6702 S WATERWAY DR, MIAMI, FL, 33155",115977584,"L"
800168,"6702 STONEFIELD ROAD STE 100","MIDDLETON","WI",53562,43.0833828130001,-89.5003739049999,168,"6702 STONEFIELD ROAD STE 100, MIDDLETON, WI, 53562","Match","Exact","6702 STONEFIELD RD, MIDDLETON, WI, 53562",642076476,"R"
800169,"6702 THORNWOOD ST NW","CANTON","OH",44718,40.8745534490001,-81.4743838749999,169,"6702 THORNWOOD ST NW, CANTON, OH, 44718","Match","Exact","6702 THORNWOOD ST NW, CANTON, OH, 44718",64707496,"R"
800170,"6702 TROWBRIDGE PL","FT. WASHINGTON","MD",20744,38.7983115980001,-76.969937644,170,"6702 TROWBRIDGE PL, FT. WASHINGTON, MD, 20744","Match","Exact","6702 TROWBRIDGE PL, FT WASHINGTON, MD, 20744",76315517,"L"
800171,"6702 TRUMPET DR","ROWLETT","TX",75089,32.92421784,-96.574089972,171,"6702 TRUMPET DR, ROWLETT, TX, 75089","Match","Exact","6702 TRUMPET DR, ROWLETT, TX, 75089",102989245,"L"
800172,"6702 VINING CREEK CV E","MEMPHIS","TN",38119,35.0810022640001,-89.8386874,172,"6702 VINING CREEK CV E, MEMPHIS, TN, 38119","Match","Non_Exact","6702 VININGS CREEK COVE E, MEMPHIS, TN, 38119",619968396,"L"
800173,"6702 W HAVEN BROOK WAY","TUCSON","NY",85757,NA,NA,173,"6702 W HAVEN BROOK WAY, TUCSON, NY, 85757","No_Match",NA,NA,NA,NA
800174,"6702 W NUEVA VISTA DR","TUCSON","AZ",85743,32.356500984,-111.108031648,174,"6702 W NUEVA VISTA DR, TUCSON, AZ, 85743","Match","Exact","6702 W NUEVA VISTA DR, TUCSON, AZ, 85743",121222604,"L"
800175,"6702 WEST PARK DRIVE","HYATTSVILLE","MD",20782,38.9694309020001,-76.9684011969999,175,"6702 WEST PARK DRIVE, HYATTSVILLE, MD, 20782","Match","Exact","6702 W PARK DR, HYATTSVILLE, MD, 20782",76303864,"L"
800176,"6702 WEST PERSHING","PEORIA","AZ",85381,33.606316255,-112.203472737,176,"6702 WEST PERSHING, PEORIA, AZ, 85381","Match","Non_Exact","6702 W PERSHING AVE, PEORIA, AZ, 85381",653305548,"R"
800177,"6702 WOLFCREEK PASS","AUSTIN","TX",78749,30.23124166,-97.8730666279999,177,"6702 WOLFCREEK PASS, AUSTIN, TX, 78749","Match","Exact","6702 WOLFCREEK PASS, AUSTIN, TX, 78749",64015545,"R"
800178,"67024 COUNTY ROAD 372","HARTFORD","MI",49057,42.2330932420001,-86.1941977819999,178,"67024 COUNTY ROAD 372, HARTFORD, MI, 49057","Match","Exact","67024 CO RD 372, HARTFORD, MI, 49057",34764822,"R"
800179,"67029 LOCKE ST","MANDEVILLE","LA",70471,30.4029388330001,-90.077343086,179,"67029 LOCKE ST, MANDEVILLE, LA, 70471","Match","Exact","67029 LOCKE ST, MANDEVILLE, LA, 70471",635840186,"L"
800180,"6702C  188TH STREET  2B","FRESH MEADOW","NY",11365,NA,NA,180,"6702C  188TH STREET  2B, FRESH MEADOW, NY, 11365","No_Match",NA,NA,NA,NA
800181,"6703 13TH STREET CT NORTH","OAKDALE","MN",55125,44.9676214510001,-92.970951694,181,"6703 13TH STREET CT NORTH, OAKDALE, MN, 55125","Match","Non_Exact","6703 13TH STREET CT N, OAKDALE, MN, 55128",97804244,"R"
800182,"6703 291ST ST S","ROY","WA",98580,46.993144154,-122.520122469,182,"6703 291ST ST S, ROY, WA, 98580","Match","Exact","6703 291ST ST S, ROY, WA, 98580",647951489,"L"
800183,"6703 82ND STREET APT 1115","LUBBOCK","TX",79424,33.519700878,-101.961032452,183,"6703 82ND STREET APT 1115, LUBBOCK, TX, 79424","Match","Exact","6703 82ND ST, LUBBOCK, TX, 79424",624407676,"R"
800184,"6703 91ST ST","LUBBOCK","TX",79424,33.5116128650001,-101.962358241,184,"6703 91ST ST, LUBBOCK, TX, 79424","Match","Exact","6703 91ST ST, LUBBOCK, TX, 79424",185273167,"R"
800185,"6703 CRANE","DETROIT","MI",48213,42.391878585,-83.014090472,185,"6703 CRANE, DETROIT, MI, 48213","Match","Non_Exact","6703 CRANE ST, DETROIT, MI, 48213",95483012,"L"
800186,"6703 CRESHEIM RD","PHILADELPHIA","PA",19119,40.0517311670001,-75.186609607,186,"6703 CRESHEIM RD, PHILADELPHIA, PA, 19119","Match","Exact","6703 CRESHEIM RD, PHILADELPHIA, PA, 19119",131394499,"R"
800187,"6703 DEERBERRY CT","BURLINGTON","KY",41005,39.0179303310001,-84.737509506,187,"6703 DEERBERRY CT, BURLINGTON, KY, 41005","Match","Exact","6703 DEERBERRY CT, BURLINGTON, KY, 41005",81962151,"R"
800188,"6703 E 28TH PL","TULSA","OK",74129,36.1219461410001,-95.899891328,188,"6703 E 28TH PL, TULSA, OK, 74129","Match","Exact","6703 E 28TH PL, TULSA, OK, 74129",166452953,"L"
800189,"6703 GA HWY 118","PINE MOUNTAIN","GA",31822,NA,NA,189,"6703 GA HWY 118, PINE MOUNTAIN, GA, 31822","No_Match",NA,NA,NA,NA
800190,"6703 GERMANTOWN AVENUE","PHILADELPHIA","PA",19119,40.052516316,-75.1857183229999,190,"6703 GERMANTOWN AVENUE, PHILADELPHIA, PA, 19119","Match","Exact","6703 GERMANTOWN AVE, PHILADELPHIA, PA, 19119",131395215,"R"
800191,"6703 HARBOR AVENUE","LONG BEACH","CA",90805,33.8760541180001,-118.207172476,191,"6703 HARBOR AVENUE, LONG BEACH, CA, 90805","Match","Exact","6703 HARBOR AVE, LONG BEACH, CA, 90805",142767681,"L"
800192,"6703 HEATHERBROOK","SAN ANTONIO","TX",78238,29.4789680210001,-98.6235974419999,192,"6703 HEATHERBROOK, SAN ANTONIO, TX, 78238","Match","Exact","6703 HEATHERBROOK, SAN ANTONIO, TX, 78238",101506396,"R"
800193,"6703 JEFFERSON PL APT A3","MYRTLE BEACH","SC",29572,33.743704919,-78.8314496799999,193,"6703 JEFFERSON PL APT A3, MYRTLE BEACH, SC, 29572","Match","Exact","6703 JEFFERSON PL, MYRTLE BEACH, SC, 29572",607097056,"L"
800194,"6703 KIPLING STREET","ARVADA","CO",80004,39.8183385360001,-105.110116875,194,"6703 KIPLING STREET, ARVADA, CO, 80004","Match","Exact","6703 KIPLING ST, ARVADA, CO, 80004",177398910,"L"
800195,"6703 MADISON HEIGHTS CT","KATY","TX",77449,NA,NA,195,"6703 MADISON HEIGHTS CT, KATY, TX, 77449","No_Match",NA,NA,NA,NA
800196,"6703 MARTINDALE COURT","BOWIE","MD",20720,38.9815722760001,-76.789963598,196,"6703 MARTINDALE COURT, BOWIE, MD, 20720","Match","Exact","6703 MARTINDALE CT, BOWIE, MD, 20720",76332220,"L"
800197,"6703 MT VERNON CT","ARLINGTON","TX",76017,32.6630702320001,-97.215122298,197,"6703 MT VERNON CT, ARLINGTON, TX, 76017","Match","Exact","6703 MOUNT VERNON CT, ARLINGTON, TX, 76017",101925747,"L"
800198,"6703 N 15TH AVENUE","PHOENIX","AZ",85015,33.5350638740001,-112.091121787,198,"6703 N 15TH AVENUE, PHOENIX, AZ, 85015","Match","Exact","6703 N 15TH AVE, PHOENIX, AZ, 85015",128205378,"R"
800199,"6703 N BAY CREST CIR","HUMBLE","TX",77346,29.985294938,-95.176311594,199,"6703 N BAY CREST CIR, HUMBLE, TX, 77346","Match","Exact","6703 N BAY CREST CIR, HUMBLE, TX, 77346",625720807,"R"
800200,"6703 NW 21 ST SJO-96991","MIAMI","FL",33126,NA,NA,200,"6703 NW 21 ST SJO-96991, MIAMI, FL, 33126","No_Match",NA,NA,NA,NA
800201,"6703 OLD WACO LANE","TEMPLE","TX",76502,31.108685429,-97.416231199,201,"6703 OLD WACO LANE, TEMPLE, TX, 76502","Match","Exact","6703 OLD WACO LN, TEMPLE, TX, 76502",146176393,"R"
800202,"6703 OVERLOOK ROAD","MOBILE","AL",36618,30.719606377,-88.198443291,202,"6703 OVERLOOK ROAD, MOBILE, AL, 36618","Match","Exact","6703 OVERLOOK RD, MOBILE, AL, 36618",61928302,"L"
800203,"6703 PERUZZI WAY","LAKE WORTH","FL",33467,26.573552254,-80.1982015999999,203,"6703 PERUZZI WAY, LAKE WORTH, FL, 33467","Match","Exact","6703 PERUZZI WAY, LAKE WORTH, FL, 33467",636182903,"R"
800204,"6703 RADLOCK AVENUE","LOS ANGELES","CA",90056,33.978561943,-118.377363847,204,"6703 RADLOCK AVENUE, LOS ANGELES, CA, 90056","Match","Exact","6703 RADLOCK AVE, LOS ANGELES, CA, 90056",142688129,"R"
800205,"6703 RIDGE TOP DRIVE","NEW PORT RICHEY","FL",34655,28.179385299,-82.7035275539999,205,"6703 RIDGE TOP DRIVE, NEW PORT RICHEY, FL, 34655","Match","Exact","6703 RIDGE TOP DR, NEW PORT RICHEY, FL, 34655",86358454,"R"
800206,"6703 ROLLING MILL DR","HOUSTON","TX",77088,29.8897499290001,-95.489436386,206,"6703 ROLLING MILL DR, HOUSTON, TX, 77088","Match","Exact","6703 ROLLING MILL DR, HOUSTON, TX, 77088",96024995,"R"
800207,"6703 SANDY VIEW COURT","LAUREL","MD",20707,39.1017206820001,-76.891412367,207,"6703 SANDY VIEW COURT, LAUREL, MD, 20707","Match","Exact","6703 SANDY VIEW CT, LAUREL, MD, 20707",641801840,"R"
800208,"6703 SIX MILE LANE","LOUISVILLE","KY",40218,38.197638157,-85.628577196,208,"6703 SIX MILE LANE, LOUISVILLE, KY, 40218","Match","Exact","6703 SIX MILE LN, LOUISVILLE, KY, 40218",652748874,"L"
800209,"6703 SOUTH ZUNIS PL APT 710","TULSA","OK",74136,36.065613345,-95.960070585,209,"6703 SOUTH ZUNIS PL APT 710, TULSA, OK, 74136","Match","Exact","6703 S ZUNIS PL, TULSA, OK, 74136",166468389,"L"
800210,"6703 SOUTHRIDGE DR","DALLAS","TX",75214,32.829167554,-96.744685588,210,"6703 SOUTHRIDGE DR, DALLAS, TX, 75214","Match","Exact","6703 SOUTHRIDGE DR, DALLAS, TX, 75214",102919416,"L"
800211,"6703 STH 57","STURGEON BAY","WI",54235,NA,NA,211,"6703 STH 57, STURGEON BAY, WI, 54235","No_Match",NA,NA,NA,NA
800212,"6703 STRAWBERRY LN APT 320","LOUISVILLE","KY",40214,38.1594129700001,-85.762864634,212,"6703 STRAWBERRY LN APT 320, LOUISVILLE, KY, 40214","Match","Exact","6703 STRAWBERRY LN, LOUISVILLE, KY, 40214",96849250,"L"
800213,"6703 SWEET SHRUB COURT","CLINTON","MD",20735,38.738950507,-76.8917288659999,213,"6703 SWEET SHRUB COURT, CLINTON, MD, 20735","Match","Exact","6703 SWEET SHRUB CT, CLINTON, MD, 20735",624427996,"L"
800214,"6703 THOMAS CREEK DRIVE","SEDRO-WOOLLEY","WA",98284,NA,NA,214,"6703 THOMAS CREEK DRIVE, SEDRO-WOOLLEY, WA, 98284","No_Match",NA,NA,NA,NA
800215,"6703 TOWER DR APT 8","ALEXANDRIA","VA",22306,38.7729958640001,-77.086212393,215,"6703 TOWER DR APT 8, ALEXANDRIA, VA, 22306","Match","Exact","6703 TOWER DR, ALEXANDRIA, VA, 22306",75989115,"L"
800216,"6703 W COUNTY ROAD 400 N","RICHLAND","IN",47634,37.9454039020001,-87.1809970579999,216,"6703 W COUNTY ROAD 400 N, RICHLAND, IN, 47634","Match","Exact","6703 W CO RD 400 N, RICHLAND, IN, 47634",7977403,"L"
800217,"6703 WIMBLEDON DR","ZIONSVILLE","IN",46077,39.941091455,-86.345172933,217,"6703 WIMBLEDON DR, ZIONSVILLE, IN, 46077","Match","Exact","6703 WIMBLEDON DR, ZIONSVILLE, IN, 46077",29260898,"R"
800218,"6703 WOODBURY ROAD","BALTIMORE","MD",21209,39.3759913490001,-76.6726587639999,218,"6703 WOODBURY ROAD, BALTIMORE, MD, 21209","Match","Exact","6703 WOODBURY RD, BALTIMORE, MD, 21209",632433294,"R"
800219,"6703","TAMARAC","FL",21234,NA,NA,219,"6703, TAMARAC, FL, 21234","No_Match",NA,NA,NA,NA
800220,"67036 RASMUSSEN RD","MELLEN","WI",54546,46.3187589520001,-90.7735314459999,220,"67036 RASMUSSEN RD, MELLEN, WI, 54546","Match","Exact","67036 RASMUSSEN RD, MELLEN, WI, 54546",635057311,"R"
800221,"6704 86TH AVE NE","MARYSVILLE","WA",98270,48.0565081450001,-122.116585977,221,"6704 86TH AVE NE, MARYSVILLE, WA, 98270","Match","Exact","6704 86TH AVE NE, MARYSVILLE, WA, 98270",606940597,"R"
800222,"6704 APPLERIDGE CIRCLE","BOARDMAN","OH",44512,41.0262777200001,-80.644203357,222,"6704 APPLERIDGE CIRCLE, BOARDMAN, OH, 44512","Match","Exact","6704 APPLERIDGE CIR, BOARDMAN, OH, 44512",64599117,"R"
800223,"6704 BENJAMIN ROAD SUITE 500","TAMPA","FL",33634,28.0148932500001,-82.541902706,223,"6704 BENJAMIN ROAD SUITE 500, TAMPA, FL, 33634","Match","Exact","6704 BENJAMIN RD, TAMPA, FL, 33634",104508286,"L"
800224,"6704 BRET HARTE DRIVE","SAN JOSE","CA",NA,37.2171819260001,-121.849800579,224,"6704 BRET HARTE DRIVE, SAN JOSE, CA, ","Match","Exact","6704 BRET HARTE DR, SAN JOSE, CA, 95120",122925767,"L"
800225,"6704 BRITTON AVENUE","CINCINNATI","OH",45227,39.152481116,-84.382552937,225,"6704 BRITTON AVENUE, CINCINNATI, OH, 45227","Match","Exact","6704 BRITTON AVE, CINCINNATI, OH, 45227",103971886,"L"
800226,"6704 BRYNHURST AVENUE","LOS ANGELES","CA",90043,33.9779250510001,-118.33377811,226,"6704 BRYNHURST AVENUE, LOS ANGELES, CA, 90043","Match","Exact","6704 BRYNHURST AVE, LOS ANGELES, CA, 90043",141655111,"L"
800227,"6704 BUGLECALL PLACE","GAINESVILLE","VA",20155,38.811207,-77.5989664809999,227,"6704 BUGLECALL PLACE, GAINESVILLE, VA, 20155","Match","Exact","6704 BUGLECALL PL, GAINESVILLE, VA, 20155",76528199,"L"
800228,"6704 CAMINO ROJO","SANTA FE","NM",87507,NA,NA,228,"6704 CAMINO ROJO, SANTA FE, NM, 87507","No_Match",NA,NA,NA,NA
800229,"6704 CEDARWOOD DRIVE","PINE BLUFF","AR",71603,34.1585959710001,-92.094442691,229,"6704 CEDARWOOD DRIVE, PINE BLUFF, AR, 71603","Match","Exact","6704 CEDARWOOD DR, PINE BLUFF, AR, 71603",2564392,"L"
800230,"6704 CR 435","SAINT JO","TX",76265,33.871741779,-97.46293516,230,"6704 CR 435, SAINT JO, TX, 76265","Match","Exact","6704 CO RD 435, SAINT JO, TX, 76265",604740710,"R"
800231,"6704 CROOKED LANE","FLOWER MOUND","TX",75022,33.017382384,-97.1358608,231,"6704 CROOKED LANE, FLOWER MOUND, TX, 75022","Match","Exact","6704 CROOKED LN, FLOWER MOUND, TX, 75022",640566624,"R"
800232,"6704 E 60TH STREET","ODESSA","TX",79762,31.9175540800001,-102.312807764,232,"6704 E 60TH STREET, ODESSA, TX, 79762","Match","Exact","6704 E 60TH ST, ODESSA, TX, 79762",139430945,"L"
800233,"6704 FALLOW HILL COURT","FREDERICK","MD",21703,39.3893460530001,-77.433210012,233,"6704 FALLOW HILL COURT, FREDERICK, MD, 21703","Match","Exact","6704 FALLOW HILL CT, FREDERICK, MD, 21703",60707043,"R"
800234,"6704 GOOD LUCK ROAD","LANHAM","MD",20706,38.9727167950001,-76.890562244,234,"6704 GOOD LUCK ROAD, LANHAM, MD, 20706","Match","Exact","6704 GOOD LUCK RD, LANHAM, MD, 20706",76308030,"L"
800235,"6704 HAVENBROOK CV","AUSTIN","TX",78759,30.4021748000001,-97.776042941,235,"6704 HAVENBROOK CV, AUSTIN, TX, 78759","Match","Exact","6704 HAVENBROOK COVE, AUSTIN, TX, 78759",64005260,"L"
800236,"6704 HIDDEN FOREST DRIVE","CHARLOTTE","NC",28213,35.2787739510001,-80.7792009349999,236,"6704 HIDDEN FOREST DRIVE, CHARLOTTE, NC, 28213","Match","Exact","6704 HIDDEN FOREST DR, CHARLOTTE, NC, 28213",70562854,"R"
800237,"6704 JO ANN COURT","DISTRICT HEIGHTS","MD",20748,38.8383183540001,-76.8931925369999,237,"6704 JO ANN COURT, DISTRICT HEIGHTS, MD, 20748","Match","Non_Exact","6704 JO ANN CT, DISTRICT HEIGHTS, MD, 20747",76318655,"L"
800238,"6704 KENORA STREET","RIO LINDA","CA",95673,38.68919541,-121.462519633,238,"6704 KENORA STREET, RIO LINDA, CA, 95673","Match","Exact","6704 KENORA ST, RIO LINDA, CA, 95673",133319638,"R"
800239,"6704 MINK RD","MACUNGIE","PA",18062,40.54894467,-75.587123731,239,"6704 MINK RD, MACUNGIE, PA, 18062","Match","Exact","6704 MINK RD, MACUNGIE, PA, 18062",625030677,"L"
800240,"6704 N BRINDALE","MUNCIE","IN",47304,40.24996837,-85.44535013,240,"6704 N BRINDALE, MUNCIE, IN, 47304","Match","Non_Exact","6704 N BRINDALE DR, MUNCIE, IN, 47304",30832561,"R"
800241,"6704 N FAWNDALE","PEORIA","IL",61615,40.770032664,-89.661872503,241,"6704 N FAWNDALE, PEORIA, IL, 61615","Match","Non_Exact","6704 N FAWNDALE DR, PEORIA, IL, 61615",8725732,"L"
800242,"6704 N HARVARD AVE","OKLAHOMA CITY","OK",73132,35.540773899,-97.6040719379999,242,"6704 N HARVARD AVE, OKLAHOMA CITY, OK, 73132","Match","Exact","6704 N HARVARD AVE, OKLAHOMA CITY, OK, 73132",100388857,"R"
800243,"6704 N PITTSBURGH","PORTLAND","OR",97203,NA,NA,243,"6704 N PITTSBURGH, PORTLAND, OR, 97203","No_Match",NA,NA,NA,NA
800244,"6704 N WINERY","FRESNO","CA",93710,36.8333419860001,-119.732038463,244,"6704 N WINERY, FRESNO, CA, 93710","Match","Non_Exact","6704 N WINERY AVE, FRESNO, CA, 93710",197613038,"R"
800245,"6704 OVERLOOK RIDGE","ATLANTA","GA",30349,33.6379074280001,-84.605668472,245,"6704 OVERLOOK RIDGE, ATLANTA, GA, 30349","Match","Exact","6704 OVERLOOK RIDGE, ATLANTA, GA, 30349",628099618,"R"
800246,"6704 PAR 4 LN","WASHINGTON","MI",48095,42.801519752,-83.0529363859999,246,"6704 PAR 4 LN, WASHINGTON, MI, 48095","Match","Non_Exact","6704 PAR 4 DR, WASHINGTON, MI, 48095",110728944,"R"
800247,"6704 PARSONS BLVD 6B","FRESH MEADOW","NY",11365,NA,NA,247,"6704 PARSONS BLVD 6B, FRESH MEADOW, NY, 11365","No_Match",NA,NA,NA,NA
800248,"6704 PRAIRIE VIEW DRIVE","SUN PRAIRIE","WI",53590,43.2157122150001,-89.212781891,248,"6704 PRAIRIE VIEW DRIVE, SUN PRAIRIE, WI, 53590","Match","Exact","6704 PRAIRIE VIEW DR, SUN PRAIRIE, WI, 53590",49478269,"L"
800249,"6704 PRESTON ST","ERIE","MI",48133,41.740343554,-83.518905818,249,"6704 PRESTON ST, ERIE, MI, 48133","Match","Exact","6704 PRESTON ST, ERIE, MI, 48133",40486109,"R"
800250,"6704 RANER COVE","ARLINGTON","TN",38002,35.2664039790001,-89.840647089,250,"6704 RANER COVE, ARLINGTON, TN, 38002","Match","Exact","6704 RANER COVE, ARLINGTON, TN, 38002",72963648,"L"
800251,"6704 RIDGE RD","SYKESVILLE","MD",21784,39.3902541910001,-76.92896753,251,"6704 RIDGE RD, SYKESVILLE, MD, 21784","Match","Exact","6704 RIDGE RD, SYKESVILLE, MD, 21784",633260858,"R"
800252,"6704 RUTH DR","PASCO","WA",99301,46.2756000620001,-119.177492374,252,"6704 RUTH DR, PASCO, WA, 99301","Match","Exact","6704 RUTH DR, PASCO, WA, 99301",175255599,"L"
800253,"6704 S 20TH PLACE","BROKEN ARROW","OK",74011,35.9863439920001,-95.7646189119999,253,"6704 S 20TH PLACE, BROKEN ARROW, OK, 74011","Match","Exact","6704 S 20TH PL, BROKEN ARROW, OK, 74011",650545968,"R"
800254,"6704 S PARNELL","CHICAGO","IL",60636,NA,NA,254,"6704 S PARNELL, CHICAGO, IL, 60636","No_Match",NA,NA,NA,NA
800255,"6704 SPRING ST","SPRINGFIELD","VA",22150,38.7724341110001,-77.189669464,255,"6704 SPRING ST, SPRINGFIELD, VA, 22150","Match","Non_Exact","6704 SPRING RD, SPRINGFIELD, VA, 22150",75983601,"R"
800256,"6704 STAHL ROAD","GREENVILLE","OH",45331,40.1124069570001,-84.560765928,256,"6704 STAHL ROAD, GREENVILLE, OH, 45331","Match","Exact","6704 STAHL RD, GREENVILLE, OH, 45331",54538170,"L"
800257,"6704 SUNSET HILLS BLVD","REX","GA",30073,33.57163245,-84.2642021349999,257,"6704 SUNSET HILLS BLVD, REX, GA, 30073","Match","Non_Exact","6704 SUNSET HILLS BLVD, REX, GA, 30273",23332681,"R"
800258,"6704 SWEETWATER DR","PLANO","TX",75023,33.0677706650001,-96.722706493,258,"6704 SWEETWATER DR, PLANO, TX, 75023","Match","Exact","6704 SWEETWATER DR, PLANO, TX, 75023",123501482,"R"
800259,"6704 WALNUT HILLS DRIVE","BRENTWOOD","TN",37027,36.0088112070001,-86.720158043,259,"6704 WALNUT HILLS DRIVE, BRENTWOOD, TN, 37027","Match","Exact","6704 WALNUT HILLS DR, BRENTWOOD, TN, 37027",652883057,"R"
800260,"6704 WEIMER DRIVE","RALEIGH","NC",27617,35.911494831,-78.747628129,260,"6704 WEIMER DRIVE, RALEIGH, NC, 27617","Match","Exact","6704 WEIMER DR, RALEIGH, NC, 27617",72646333,"L"
800261,"6704 WEST HILL ROAD","DEANSBORO","NY",13328,42.9952444260001,-75.441264635,261,"6704 WEST HILL ROAD, DEANSBORO, NY, 13328","Match","Exact","6704 W HILL RD, DEANSBORO, NY, 13328",171561237,"R"
800262,"6704 WILBURN DR","CAPITOL HEIGHTS","MD",20743,38.879712189,-76.890898794,262,"6704 WILBURN DR, CAPITOL HEIGHTS, MD, 20743","Match","Exact","6704 WILBURN DR, CAPITOL HEIGHTS, MD, 20743",76317990,"L"
800263,"6704 WILBURN DRIVE","CAPITOL HEIGHTS","MD",20743,38.879712189,-76.890898794,263,"6704 WILBURN DRIVE, CAPITOL HEIGHTS, MD, 20743","Match","Exact","6704 WILBURN DR, CAPITOL HEIGHTS, MD, 20743",76317990,"L"
800264,"6704 WILLIE LOU AVENUE","HOUMA","LA",70364,29.6179021090001,-90.737555253,264,"6704 WILLIE LOU AVENUE, HOUMA, LA, 70364","Match","Exact","6704 WILLIE LOU AVE, HOUMA, LA, 70364",92071541,"L"
800265,"6704 WINDSONG DRIVE","MCKINNEY","TX",75071,33.214328558,-96.704689128,265,"6704 WINDSONG DRIVE, MCKINNEY, TX, 75071","Match","Non_Exact","6704 WIND SONG DR, MCKINNEY, TX, 75071",616532326,"R"
800266,"6704 YELLOW BELL ROAD","WILMINGTON","NC",28411,34.302021672,-77.840797553,266,"6704 YELLOW BELL ROAD, WILMINGTON, NC, 28411","Match","Exact","6704 YELLOW BELL RD, WILMINGTON, NC, 28411",628679584,"R"
800267,"6704-A MAGNOLIA COURT","RALEIGH","NC",27612,35.872326034,-78.658033614,267,"6704-A MAGNOLIA COURT, RALEIGH, NC, 27612","Match","Exact","6704 MAGNOLIA CT, RALEIGH, NC, 27612",72653643,"R"
800268,"6705 128TH ST SW","EDMONDS","WA",98026,47.8823970020001,-122.323592932,268,"6705 128TH ST SW, EDMONDS, WA, 98026","Match","Exact","6705 128TH ST SW, EDMONDS, WA, 98026",627400277,"R"
800269,"6705 16TH PLACE NORTH APT 328","ST PETERSBURG","FL",33710,27.7878371190001,-82.731455019,269,"6705 16TH PLACE NORTH APT 328, ST PETERSBURG, FL, 33710","Match","Exact","6705 16TH PL N, SAINT PETERSBURG, FL, 33710",124698135,"R"
800270,"6705 23RD AVE W","BRADENTON","FL",34209,27.479048807,-82.629179215,270,"6705 23RD AVE W, BRADENTON, FL, 34209","Match","Exact","6705 23RD AVE W, BRADENTON, FL, 34209",16246659,"L"
800271,"6705 5TH STREET","LUBBOCK","TX",79416,33.5906800290001,-101.961006212,271,"6705 5TH STREET, LUBBOCK, TX, 79416","Match","Exact","6705 5TH ST, LUBBOCK, TX, 79416",185274583,"L"
800272,"6705 85TH STREET","LUBBOCK","TX",79424,33.51653652,-101.961184402,272,"6705 85TH STREET, LUBBOCK, TX, 79424","Match","Exact","6705 85TH ST, LUBBOCK, TX, 79424",624629807,"L"
800273,"6705 ALBERLY LANE","CINCINNATI","OH",45243,39.1827497680001,-84.31745969,273,"6705 ALBERLY LANE, CINCINNATI, OH, 45243","Match","Exact","6705 ALBERLY LN, CINCINNATI, OH, 45243",103964686,"L"
800274,"6705 ALVIN DR","KILLINE","TX",76542,31.058636719,-97.747590589,274,"6705 ALVIN DR, KILLINE, TX, 76542","Match","Non_Exact","6705 ALVIN DR, KILLEEN, TX, 76542",640171904,"L"
800275,"6705 BAUX MOUNTAIN ROAD","GERMANTON","NC",27019,36.2075397720001,-80.211244494,275,"6705 BAUX MOUNTAIN ROAD, GERMANTON, NC, 27019","Match","Exact","6705 BAUX MOUNTAIN RD, GERMANTON, NC, 27019",652169623,"L"
800276,"6705 BRADLEY AVE APT 5","ST LOUIS","MO",63139,38.604517474,-90.3040341079999,276,"6705 BRADLEY AVE APT 5, ST LOUIS, MO, 63139","Match","Exact","6705 BRADLEY AVE, SAINT LOUIS, MO, 63139",605124593,"R"
800277,"6705 BRAEBURN DRIVE","DALLAS","TX",75214,32.840694311,-96.745168918,277,"6705 BRAEBURN DRIVE, DALLAS, TX, 75214","Match","Exact","6705 BRAEBURN DR, DALLAS, TX, 75214",102918766,"L"
800278,"6705 CARO ST","PARAMOUNT","CA",90723,33.888198398,-118.180193144,278,"6705 CARO ST, PARAMOUNT, CA, 90723","Match","Exact","6705 CARO ST, PARAMOUNT, CA, 90723",142768111,"L"
800279,"6705 CHEWACAN DR","BAKERSFIELD","CA",93309,35.3278904270001,-119.076186039,279,"6705 CHEWACAN DR, BAKERSFIELD, CA, 93309","Match","Exact","6705 CHEWACAN DR, BAKERSFIELD, CA, 93309",109091217,"R"
800280,"6705 CHEWACAN DRIVE","BAKERSFIELD","CA",93309,35.3278904270001,-119.076186039,280,"6705 CHEWACAN DRIVE, BAKERSFIELD, CA, 93309","Match","Exact","6705 CHEWACAN DR, BAKERSFIELD, CA, 93309",109091217,"R"
800281,"6705 CHINAPIN CT","BEDFORD","OH",44146,NA,NA,281,"6705 CHINAPIN CT, BEDFORD, OH, 44146","No_Match",NA,NA,NA,NA
800282,"6705 CHINKAPIN CT","BEDFORD","OH",44146,41.373988909,-81.492953442,282,"6705 CHINKAPIN CT, BEDFORD, OH, 44146","Match","Exact","6705 CHINKAPIN CT, BEDFORD, OH, 44146",61158717,"R"
800283,"6705 CRANBROOK","BAKERSFIELD","CA",93308,35.4220884470001,-119.077107648,283,"6705 CRANBROOK, BAKERSFIELD, CA, 93308","Match","Non_Exact","6705 CRANBROOK AVE, BAKERSFIELD, CA, 93308",109083832,"L"
800284,"6705 CROSSMOOR LANE","LOUISVILLE","KY",40222,38.275511389,-85.628797385,284,"6705 CROSSMOOR LANE, LOUISVILLE, KY, 40222","Match","Exact","6705 CROSSMOOR LN, LOUISVILLE, KY, 40222",96855264,"R"
800285,"6705 DEAN RD SW","CEDAR RAPIDS","IA",52404,41.946105453,-91.7585107049999,285,"6705 DEAN RD SW, CEDAR RAPIDS, IA, 52404","Match","Exact","6705 DEAN RD SW, CEDAR RAPIDS, IA, 52404",17043063,"R"
800286,"6705 DRYLOG STREET","SEAT PLEASANT","MD",20743,38.8979572710001,-76.8904660969999,286,"6705 DRYLOG STREET, SEAT PLEASANT, MD, 20743","Match","Exact","6705 DRYLOG ST, SEAT PLEASANT, MD, 20743",76317802,"R"
800287,"6705 E 126TH ST","GRANDVIEW","MO",64030,38.8950422410001,-94.514531239,287,"6705 E 126TH ST, GRANDVIEW, MO, 64030","Match","Exact","6705 E 126TH ST, GRANDVIEW, MO, 64030",91477551,"R"
800288,"6705 E 81ST ST SUITE 150","TULSA","OK",74133,36.046352788,-95.90376907,288,"6705 E 81ST ST SUITE 150, TULSA, OK, 74133","Match","Non_Exact","6705 E 81ST ST, TULSA, OK, 74133",642917908,"L"
800289,"6705 E PARADISE LANE","SCOTTSDALE","AZ",85254,33.633124251,-111.936980383,289,"6705 E PARADISE LANE, SCOTTSDALE, AZ, 85254","Match","Non_Exact","6705 E PARADISE LN, SCOTTSDALE, AZ, 85254",128915612,"R"
800290,"6705 EVERETT ROAD","FOREST","VA",24551,37.3499514220001,-79.2930105189999,290,"6705 EVERETT ROAD, FOREST, VA, 24551","Match","Exact","6705 EVERETT RD, FOREST, VA, 24551",228437161,"R"
800291,"6705 GLADE DR","ARLINGTON","TX",76001,32.6357936210001,-97.146298901,291,"6705 GLADE DR, ARLINGTON, TX, 76001","Match","Exact","6705 GLADE DR, ARLINGTON, TX, 76001",641424297,"L"
800292,"6705 GLENALLEN AVENUE","SOLON","OH",44139,41.3769432870001,-81.448516736,292,"6705 GLENALLEN AVENUE, SOLON, OH, 44139","Match","Exact","6705 GLENALLEN AVE, SOLON, OH, 44139",61148661,"L"
800293,"6705 GREAT WATER DRIVE","FLOWERY BRANCH","GA",30542,34.182357514,-83.98447662,293,"6705 GREAT WATER DRIVE, FLOWERY BRANCH, GA, 30542","Match","Exact","6705 GREAT WATER DR, FLOWERY BR, GA, 30542",618457593,"L"
800294,"6705 GREENWOOD ROAD","CAMMACK VILLAGE","AR",72207,34.7805566000001,-92.348030259,294,"6705 GREENWOOD ROAD, CAMMACK VILLAGE, AR, 72207","Match","Exact","6705 GREENWOOD RD, CAMMACK VILLAGE, AR, 72207",83503664,"L"
800295,"6705 GREGORY LANE","SOBIESKI","WI",54171,44.6829177640001,-88.105377044,295,"6705 GREGORY LANE, SOBIESKI, WI, 54171","Match","Exact","6705 GREGORY LN, SOBIESKI, WI, 54171",170326224,"L"
800296,"6705 HAVERFORD AVE","PHILADELPHIA","PA",19151,39.9724716420001,-75.253500694,296,"6705 HAVERFORD AVE, PHILADELPHIA, PA, 19151","Match","Exact","6705 HAVERFORD AVE, PHILADELPHIA, PA, 19151",131397045,"R"
800297,"6705 HOMESTAKE DR","BOWIE","MD",20720,38.9814576960001,-76.783950238,297,"6705 HOMESTAKE DR, BOWIE, MD, 20720","Match","Exact","6705 HOMESTAKE DR, BOWIE, MD, 20720",76311319,"L"
800298,"6705 HOUSMAN ST","HOUSTON","TX",77055,29.79950417,-95.468523505,298,"6705 HOUSMAN ST, HOUSTON, TX, 77055","Match","Exact","6705 HOUSMAN ST, HOUSTON, TX, 77055",96028500,"L"
800299,"6705 HUCKLEBERRY LANE","KESWICK","VA",22947,NA,NA,299,"6705 HUCKLEBERRY LANE, KESWICK, VA, 22947","No_Match",NA,NA,NA,NA
800300,"6705 JAYCROSS ROAD","FREMONT","NC",27830,35.5926659890001,-77.904146209,300,"6705 JAYCROSS ROAD, FREMONT, NC, 27830","Match","Exact","6705 JAYCROSS RD, FREMONT, NC, 27830",26729498,"L"
800301,"6705 KANSAS AVE","OMAHA","NE",68104,41.3135710290001,-96.015503933,301,"6705 KANSAS AVE, OMAHA, NE, 68104","Match","Exact","6705 KANSAS AVE, OMAHA, NE, 68104",116975656,"L"
800302,"6705 KENSLOW DRIVE","STILLWATER","OK",74074,36.09519801,-97.146984007,302,"6705 KENSLOW DRIVE, STILLWATER, OK, 74074","Match","Exact","6705 KENSLOW DR, STILLWATER, OK, 74074",623897026,"R"
800303,"6705 KINGS POINT WEST","AUSTIN","TX",78723,30.3115089090001,-97.6685183229999,303,"6705 KINGS POINT WEST, AUSTIN, TX, 78723","Match","Exact","6705 KINGS PT W, AUSTIN, TX, 78723",63935191,"R"
800304,"6705 LEONARD DRIVE","DARIEN","IL",60561,41.7663275410001,-87.963490513,304,"6705 LEONARD DRIVE, DARIEN, IL, 60561","Match","Exact","6705 LEONARD DR, DARIEN, IL, 60561",112551222,"L"
800305,"6705 LURAIS DR","LAKE WORTH","FL",33463,26.576168282,-80.1241013109999,305,"6705 LURAIS DR, LAKE WORTH, FL, 33463","Match","Exact","6705 LURAIS DR, LAKE WORTH, FL, 33463",647641896,"L"
800306,"6705 NE 53RD CIRCLE","VANCOUVER","WA",98661,45.6605630130001,-122.603379075,306,"6705 NE 53RD CIRCLE, VANCOUVER, WA, 98661","Match","Exact","6705 NE 53RD CIR, VANCOUVER, WA, 98661",158351160,"L"
800307,"6705 OAK GROVE PARKWAY SUITE 1405","BROOKLYN PARK","MN",55445,45.132264015,-93.3638844989999,307,"6705 OAK GROVE PARKWAY SUITE 1405, BROOKLYN PARK, MN, 55445","Match","Exact","6705 OAK GROVE PKWY, BROOKLYN PARK, MN, 55445",638531498,"L"
800308,"6705 PEBBLE BROOKE RD","BALTIMORE","MD",21209,39.3771925190001,-76.67047094,308,"6705 PEBBLE BROOKE RD, BALTIMORE, MD, 21209","Match","Exact","6705 PEBBLE BROOKE RD, BALTIMORE, MD, 21209",645108486,"R"
800309,"6705 RIVERTON AVE","NORTH HOLLYWOOD","CA",91606,34.192209931,-118.365954032,309,"6705 RIVERTON AVE, NORTH HOLLYWOOD, CA, 91606","Match","Exact","6705 RIVERTON AVE, N HOLLYWOOD, CA, 91606",141591275,"L"
800310,"6705 S FIELD STREET 824","LITTLETON","CO",80128,39.594509057,-105.098506572,310,"6705 S FIELD STREET 824, LITTLETON, CO, 80128","Match","Non_Exact","6705 S FIELD ST, LITTLETON, CO, 80128",177323879,"R"
800311,"6705 S GRANITE AVE","TULSA","OK",74136,36.066058664,-95.9112829429999,311,"6705 S GRANITE AVE, TULSA, OK, 74136","Match","Exact","6705 S GRANITE AVE, TULSA, OK, 74136",641648931,"R"
800312,"6705 S GRANITE MOUNTAIN LN","SPOKANE","WA",99223,NA,NA,312,"6705 S GRANITE MOUNTAIN LN, SPOKANE, WA, 99223","No_Match",NA,NA,NA,NA
800313,"6705 S MICHIGAN","CHICAGO","IL",60637,41.772643859,-87.621874837,313,"6705 S MICHIGAN, CHICAGO, IL, 60637","Match","Non_Exact","6705 S MICHIGAN AVE, CHICAGO, IL, 60637",111772205,"L"
800314,"6705 SALTSBURG ROAD APT  303","PITTSBURGH","PA",15235,40.481010106,-79.802342885,314,"6705 SALTSBURG ROAD APT  303, PITTSBURGH, PA, 15235","Match","Exact","6705 SALTSBURG RD, PITTSBURGH, PA, 15235",51815807,"L"
800315,"6705 SALTSBURG ROAD APT 303","PITTSBURGH","PA",15235,40.481010106,-79.802342885,315,"6705 SALTSBURG ROAD APT 303, PITTSBURGH, PA, 15235","Match","Exact","6705 SALTSBURG RD, PITTSBURGH, PA, 15235",51815807,"L"
800316,"6705 SE DAVIS LOOP","PRINEVILLE","OR",97754,44.24747361,-120.82757963,316,"6705 SE DAVIS LOOP, PRINEVILLE, OR, 97754","Match","Exact","6705 SE DAVIS LOOP, PRINEVILLE, OR, 97754",152400470,"L"
800317,"6705 SMITHFIELD BOULEVARD","INDIANAPOLIS","IN",46237,39.6429012020001,-86.050454267,317,"6705 SMITHFIELD BOULEVARD, INDIANAPOLIS, IN, 46237","Match","Exact","6705 SMITHFIELD BLVD, INDIANAPOLIS, IN, 46237",108068256,"L"
800318,"6705 SOMERKNOLL ROAD","DURHAM","NC",27713,35.904334012,-78.931698882,318,"6705 SOMERKNOLL ROAD, DURHAM, NC, 27713","Match","Non_Exact","6705 SOMERKNOLL DR, DURHAM, NC, 27713",71761134,"L"
800319,"6705 SOUTH ROBERT STREET","SAINT PAUL","MN",55107,NA,NA,319,"6705 SOUTH ROBERT STREET, SAINT PAUL, MN, 55107","No_Match",NA,NA,NA,NA
800320,"6705 SOUTHSIDE DRIVE","BLACKSHEAR","GA",31516,31.2451752430001,-82.248979962,320,"6705 SOUTHSIDE DRIVE, BLACKSHEAR, GA, 31516","Match","Exact","6705 SOUTHSIDE DR, BLACKSHEAR, GA, 31516",4608029,"L"
800321,"6705 SPRING WOOD CT","TEMPLE","TX",76502,31.0370070330001,-97.3868664779999,321,"6705 SPRING WOOD CT, TEMPLE, TX, 76502","Match","Non_Exact","6705 SPRINGWOOD CT, TEMPLE, TX, 76502",146179217,"R"
800322,"6705 STARBUCK DRIVE","DALLAS","TX",75252,32.9889842970001,-96.7866239859999,322,"6705 STARBUCK DRIVE, DALLAS, TX, 75252","Match","Exact","6705 STARBUCK DR, DALLAS, TX, 75252",210476066,"L"
800323,"6705 SUMMERS DRIVE WEST APT 204","FORT WORTH","TX",76137,32.8645171790001,-97.309932492,323,"6705 SUMMERS DRIVE WEST APT 204, FORT WORTH, TX, 76137","Match","Exact","6705 SUMMERS DR W, FORT WORTH, TX, 76137",640623996,"L"
800324,"6705 SW WALNUT TERRACE","PORTLAND","OR",97223,45.452493336,-122.745692635,324,"6705 SW WALNUT TERRACE, PORTLAND, OR, 97223","Match","Exact","6705 SW WALNUT TER, PORTLAND, OR, 97223",624489137,"L"
800325,"6705 TABOR ST","NORTH RICHLAND HILLS","TX",76180,32.828017866,-97.2383783829999,325,"6705 TABOR ST, NORTH RICHLAND HILLS, TX, 76180","Match","Exact","6705 TABOR ST, NORTH RICHLAND HILLS, TX, 76180",101863184,"L"
800326,"6705 TEMPLEHURST PL","ENGLEWOOD","OH",45322,39.8441498560001,-84.2933015629999,326,"6705 TEMPLEHURST PL, ENGLEWOOD, OH, 45322","Match","Non_Exact","6705 TEMPLEHURST DR, ENGLEWOOD, OH, 45322",143561785,"L"
800327,"6705 TICE COURT","CINCINNATI","OH",45227,39.158099635,-84.382310559,327,"6705 TICE COURT, CINCINNATI, OH, 45227","Match","Exact","6705 TICE CT, CINCINNATI, OH, 45227",103933944,"L"
800328,"6705 TREERIDGE","CINCINNATI","OH",45244,39.112588955,-84.366053387,328,"6705 TREERIDGE, CINCINNATI, OH, 45244","Match","Non_Exact","6705 TREERIDGE DR, CINCINNATI, OH, 45244",103965828,"L"
800329,"6705 VICTORIAN CT","GRANBURY","TX",76049,32.423432441,-97.667454356,329,"6705 VICTORIAN CT, GRANBURY, TX, 76049","Match","Exact","6705 VICTORIAN CT, GRANBURY, TX, 76049",158810157,"R"
800330,"6705 W CREEK ROAD","OZARK","AR",72949,35.471687327,-93.78580679,330,"6705 W CREEK ROAD, OZARK, AR, 72949","Match","Exact","6705 W CREEK RD, OZARK, AR, 72949",55881151,"L"
800331,"6705 WALKER BRANCH DR","LAUREL","MD",20707,39.104138198,-76.890526694,331,"6705 WALKER BRANCH DR, LAUREL, MD, 20707","Match","Exact","6705 WALKER BRANCH DR, LAUREL, MD, 20707",76325249,"R"
800332,"6705 WEST 51 STREET","SIOUS FALLS","SD",57106,43.5063358260001,-96.808360157,332,"6705 WEST 51 STREET, SIOUS FALLS, SD, 57106","Match","Non_Exact","6705 W 51ST ST, SIOUX FALLS, SD, 57106",34970495,"R"
800333,"6706 380TH CIRCLE","NORTH BRANCH","MN",55058,45.4988830030001,-92.971893044,333,"6706 380TH CIRCLE, NORTH BRANCH, MN, 55058","Match","Non_Exact","6706 380TH CIR, NORTH BRANCH, MN, 55056",97579125,"R"
800334,"6706 BAYOU CREST DRIVE","HOUSTON","TX",77088,29.896623092,-95.489650254,334,"6706 BAYOU CREST DRIVE, HOUSTON, TX, 77088","Match","Exact","6706 BAYOU CREST DR, HOUSTON, TX, 77088",96225445,"L"
800335,"6706 BUGLE RUN DR","OAK RIDGE","NC",27310,36.17958881,-79.963206417,335,"6706 BUGLE RUN DR, OAK RIDGE, NC, 27310","Match","Exact","6706 BUGLE RUN DR, OAK RIDGE, NC, 27310",131080052,"R"
800336,"6706 CHERRYLEAF DR","SAN ANTONIO","TX",78238,29.500659242,-98.6197259209999,336,"6706 CHERRYLEAF DR, SAN ANTONIO, TX, 78238","Match","Non_Exact","6706 CHERRYLEAF ST, SAN ANTONIO, TX, 78238",101490058,"L"
800337,"6706 CLEON AVENUE APT 14","NORTH HOLLYWOOD","CA",91606,34.1923713030001,-118.368112043,337,"6706 CLEON AVENUE APT 14, NORTH HOLLYWOOD, CA, 91606","Match","Exact","6706 CLEON AVE, N HOLLYWOOD, CA, 91606",141591269,"R"
800338,"6706 CLOVER COURT","CARLSBAD","CA",92011,33.1130406450001,-117.310034,338,"6706 CLOVER COURT, CARLSBAD, CA, 92011","Match","Exact","6706 CLOVER CT, CARLSBAD, CA, 92011",195291469,"L"
800339,"6706 DAVY CROCKETT DR","MANVEL","TX",77578,29.481844568,-95.363682951,339,"6706 DAVY CROCKETT DR, MANVEL, TX, 77578","Match","Exact","6706 DAVY CROCKETT DR, MANVEL, TX, 77578",651870392,"L"
800340,"6706 E 250 S","GREENFIELD","IN",46140,39.7495921030001,-85.6767706529999,340,"6706 E 250 S, GREENFIELD, IN, 46140","Match","Non_Exact","6706 E 250 S, GREENFIELD, IN, 46140",31083534,"R"
800341,"6706 EGRET PL","PHILADELPHIA","PA",19142,39.914826842,-75.227185665,341,"6706 EGRET PL, PHILADELPHIA, PA, 19142","Match","Exact","6706 EGRET PL, PHILADELPHIA, PA, 19142",131440882,"L"
800342,"6706 ELMHURST STREET","DISTRICT HEIGHTS","MD",20747,38.8592693370001,-76.8913520199999,342,"6706 ELMHURST STREET, DISTRICT HEIGHTS, MD, 20747","Match","Exact","6706 ELMHURST ST, DISTRICT HEIGHTS, MD, 20747",76318533,"L"
800343,"6706 FERNSHAW","DALLAS","TX",75248,32.9853560010001,-96.792728272,343,"6706 FERNSHAW, DALLAS, TX, 75248","Match","Non_Exact","6706 FERNSHAW DR, DALLAS, TX, 75248",102896075,"R"
800344,"6706 GIFFORD CT","ALEXANDRIA","VA",22315,NA,NA,344,"6706 GIFFORD CT, ALEXANDRIA, VA, 22315","No_Match",NA,NA,NA,NA
800345,"6706 HAYCOCK ROAD","FALLS CHURCH","VA",22043,38.902702737,-77.176602626,345,"6706 HAYCOCK ROAD, FALLS CHURCH, VA, 22043","Match","Exact","6706 HAYCOCK RD, FALLS CHURCH, VA, 22043",75979059,"R"
800346,"6706 HILL PARK COURT","GREENDALE","WI",53129,42.923257474,-88.008110935,346,"6706 HILL PARK COURT, GREENDALE, WI, 53129","Match","Exact","6706 HILL PARK CT, GREENDALE, WI, 53129",77749686,"R"
800347,"6706 HOLT ROAD","NASHVILLE","TN",37211,36.0148117570001,-86.727068414,347,"6706 HOLT ROAD, NASHVILLE, TN, 37211","Match","Exact","6706 HOLT RD, NASHVILLE, TN, 37211",97222701,"L"
800348,"6706 JEFFERSON STREET","MERRILLVILLE","IN",46410,41.4962483460001,-87.3394504239999,348,"6706 JEFFERSON STREET, MERRILLVILLE, IN, 46410","Match","Exact","6706 JEFFERSON ST, MERRILLVILLE, IN, 46410",98435067,"R"
800349,"6706 LOMA SECCA","SAN ANTONIO","TX",78233,29.5618748810001,-98.3551372379999,349,"6706 LOMA SECCA, SAN ANTONIO, TX, 78233","Match","Exact","6706 LOMA SECCA, SAN ANTONIO, TX, 78233",629606871,"R"
800350,"6706 MACZALI DR","MISSOURI CITY","TX",77489,29.5939399010001,-95.485957566,350,"6706 MACZALI DR, MISSOURI CITY, TX, 77489","Match","Exact","6706 MACZALI DR, MISSOURI CITY, TX, 77489",78271628,"L"
800351,"6706 MAGOUN AVE","HAMMOND","IN",46324,41.5918798710001,-87.4822639239999,351,"6706 MAGOUN AVE, HAMMOND, IN, 46324","Match","Exact","6706 MAGOUN AVE, HAMMOND, IN, 46324",606329839,"R"
800352,"6706 N BROAD ST","PHILADELPHIA","PA",19126,40.0553492450001,-75.141170007,352,"6706 N BROAD ST, PHILADELPHIA, PA, 19126","Match","Exact","6706 N BROAD ST, PHILADELPHIA, PA, 19126",131413791,"L"
800353,"6706 N HI-WOOD CT","PEORIA","IL",61614,40.769436463,-89.616089148,353,"6706 N HI-WOOD CT, PEORIA, IL, 61614","Match","Non_Exact","6706 N HI WOOD CT, PEORIA, IL, 61614",8712206,"R"
800354,"6706 N NAVIN AVE","TAMPA","FL",33604,28.0086272890001,-82.4562359189999,354,"6706 N NAVIN AVE, TAMPA, FL, 33604","Match","Exact","6706 NAVIN AVE, TAMPA, FL, 33604",104519704,"L"
800355,"6706 N RAILROAD","HITCHCOCK","TX",77563,NA,NA,355,"6706 N RAILROAD, HITCHCOCK, TX, 77563","No_Match",NA,NA,NA,NA
800356,"6706 N SHARON AVENUE","FRESNO","CA",93710,36.8358718490001,-119.756205705,356,"6706 N SHARON AVENUE, FRESNO, CA, 93710","Match","Exact","6706 N SHARON AVE, FRESNO, CA, 93710",197576311,"R"
800357,"6706 NE 25TH AVENEUE","PORTLAND","OR",97211,NA,NA,357,"6706 NE 25TH AVENEUE, PORTLAND, OR, 97211","No_Match",NA,NA,NA,NA
800358,"6706 NORWAY ROAD","DALLAS","TX",75230,32.8883107080001,-96.789649841,358,"6706 NORWAY ROAD, DALLAS, TX, 75230","Match","Exact","6706 NORWAY RD, DALLAS, TX, 75230",103205448,"R"
800359,"6706 NW 104TH TERRACE","KANSAS CITY","MO",64154,39.282713361,-94.655944211,359,"6706 NW 104TH TERRACE, KANSAS CITY, MO, 64154","Match","Exact","6706 NW 104TH TER, KANSAS CITY, MO, 64154",651387935,"L"
800360,"6706 NW 209TH ST","RIDGEFIELD WA","WA",98642,45.7719447520001,-122.741040796,360,"6706 NW 209TH ST, RIDGEFIELD WA, WA, 98642","Match","Non_Exact","6706 NW 209TH ST, RIDGEFIELD, WA, 98642",158342473,"R"
800361,"6706 NW 209TH ST","RIDGEFIELD","WA",98642,45.7719447520001,-122.741040796,361,"6706 NW 209TH ST, RIDGEFIELD, WA, 98642","Match","Exact","6706 NW 209TH ST, RIDGEFIELD, WA, 98642",158342473,"R"
800362,"6706 REVERE AVE","WAUWATOSA","WI",53213,43.0560139130001,-87.9959068209999,362,"6706 REVERE AVE, WAUWATOSA, WI, 53213","Match","Exact","6706 REVERE AVE, WAUWATOSA, WI, 53213",77732830,"R"
800363,"6706 ROXBURY RD","HOUSTON","TX",77089,29.6723130710001,-95.309578516,363,"6706 ROXBURY RD, HOUSTON, TX, 77089","Match","Non_Exact","6706 ROXBURY RD, HOUSTON, TX, 77087",96091318,"R"
800364,"6706 S 3075 W","WELLSVILLE","UT",84339,41.608764588,-111.907284096,364,"6706 S 3075 W, WELLSVILLE, UT, 84339","Match","Exact","6706 S 3075 W, WELLSVILLE, UT, 84339",652051601,"R"
800365,"6706 S COURT DRIVE","TAMPA","FL",33611,27.8705164400001,-82.49998368,365,"6706 S COURT DRIVE, TAMPA, FL, 33611","Match","Exact","6706 S COURT DR, TAMPA, FL, 33611",104555470,"L"
800366,"6706 S DIXIE HWY","FRANKLIN","OH",45005,39.5417447730001,-84.3163588799999,366,"6706 S DIXIE HWY, FRANKLIN, OH, 45005","Match","Exact","6706 S DIXIE HWY, FRANKLIN, OH, 45005",159025502,"L"
800367,"6706 S HOLLAND WAY","LITTLETON","CO",80128,39.5950526880001,-105.103743609,367,"6706 S HOLLAND WAY, LITTLETON, CO, 80128","Match","Exact","6706 S HOLLAND WAY, LITTLETON, CO, 80128",177323714,"L"
800368,"6706 SAM HILL DR","SUN PRAIRIE","WI",53590,43.215376049,-89.22202792,368,"6706 SAM HILL DR, SUN PRAIRIE, WI, 53590","Match","Exact","6706 SAM HILL DR, SUN PRAIRIE, WI, 53590",49542544,"L"
800369,"6706 SAMBA DR","CORPUS CHRISTI","TX",78414,27.6447369380001,-97.3852851,369,"6706 SAMBA DR, CORPUS CHRISTI, TX, 78414","Match","Exact","6706 SAMBA DR, CORPUS CHRISTI, TX, 78414",624645744,"L"
800370,"6706 SANDY CREEK LANE","ZACHARY","LA",70791,30.6700460010001,-91.176993919,370,"6706 SANDY CREEK LANE, ZACHARY, LA, 70791","Match","Exact","6706 SANDY CREEK LN, ZACHARY, LA, 70791",632762498,"R"
800371,"6706 ST JOHNS PKWY","VICTOR","NY",14564,42.9819088840001,-77.394899972,371,"6706 ST JOHNS PKWY, VICTOR, NY, 14564","Match","Exact","6706 SAINT JOHNS PKWY, VICTOR, NY, 14564",627350648,"L"
800372,"6706 SURFSIDE BLVD","APOLLO BEACH","FL",33572,27.788692547,-82.4210968909999,372,"6706 SURFSIDE BLVD, APOLLO BEACH, FL, 33572","Match","Exact","6706 SURFSIDE BLVD, APOLLO BEACH, FL, 33572",104644057,"L"
800373,"6706 TAM O SHANTER DR SP 34","STOCKTON","CA",95210,38.0136393510001,-121.298015081,373,"6706 TAM O SHANTER DR SP 34, STOCKTON, CA, 95210","Match","Exact","6706 TAM O SHANTER DR, STOCKTON, CA, 95210",637053878,"R"
800374,"6706 TAYLOR CIRCLE","MONTGOMERY","AL",36117,32.3479801070001,-86.1759833799999,374,"6706 TAYLOR CIRCLE, MONTGOMERY, AL, 36117","Match","Exact","6706 TAYLOR CIR, MONTGOMERY, AL, 36117",642672418,"R"
800375,"6706 THEOTA","PARMA","OH",44129,41.413201089,-81.730851421,375,"6706 THEOTA, PARMA, OH, 44129","Match","Non_Exact","6706 THEOTA AVE, PARMA, OH, 44129",61107046,"R"
800376,"6706 TIMBERWOLF TRAIL","LINO LAKES","MN",55014,NA,NA,376,"6706 TIMBERWOLF TRAIL, LINO LAKES, MN, 55014","No_Match",NA,NA,NA,NA
800377,"6706 W AIRPORT","HOUSTON","TX",77071,29.6442385940001,-95.508393779,377,"6706 W AIRPORT, HOUSTON, TX, 77071","Match","Non_Exact","6706 W AIRPORT BLVD, HOUSTON, TX, 77071",96595289,"L"
800378,"6706 WAGONWHEEL LANE","HOUSTON","TX",77088,29.868831948,-95.480991682,378,"6706 WAGONWHEEL LANE, HOUSTON, TX, 77088","Match","Exact","6706 WAGONWHEEL LN, HOUSTON, TX, 77088",96646996,"R"
800379,"6706 WALDEN CIRCLE","TALLAHASSEE","FL",32317,30.471381013,-84.1639562129999,379,"6706 WALDEN CIRCLE, TALLAHASSEE, FL, 32317","Match","Exact","6706 WALDEN CIR, TALLAHASSEE, FL, 32317",640426344,"L"
800380,"67060 COUNTY HWY C","MARENGO","WI",54855,NA,NA,380,"67060 COUNTY HWY C, MARENGO, WI, 54855","No_Match",NA,NA,NA,NA
800381,"67066 JOELLA DR","SAINT CLAIRSVILLE","OH",43950,40.0584492400001,-80.902753644,381,"67066 JOELLA DR, SAINT CLAIRSVILLE, OH, 43950","Match","Exact","67066 JOELLA DR, SAINT CLAIRSVILLE, OH, 43950",36206193,"L"
800382,"6706A 107TH ST","EWA BEACH","HI",96706,21.325709854,-157.978610434,382,"6706A 107TH ST, EWA BEACH, HI, 96706","Match","Exact","6706 107TH ST, EWA BEACH, HI, 96706",203230003,"L"
800383,"6707 134TH ST E","PUYALLUP","WA",98373,47.1351853950001,-122.340335189,383,"6707 134TH ST E, PUYALLUP, WA, 98373","Match","Exact","6707 134TH ST E, PUYALLUP, WA, 98373",184717206,"L"
800384,"6707 15TH AVE","KENOSHA","WI",53143,42.572896477,-87.827863491,384,"6707 15TH AVE, KENOSHA, WI, 53143","Match","Exact","6707 15TH AVE, KENOSHA, WI, 53143",79810626,"L"
800385,"6707 36TH AVE SOUTH","TAMPA","FL",33619,27.9154773810001,-82.3800810819999,385,"6707 36TH AVE SOUTH, TAMPA, FL, 33619","Match","Exact","6707 36TH AVE S, TAMPA, FL, 33619",104538298,"R"
800386,"6707 40TH AVE","UNIVERSITY PARK","MD",20782,38.972221462,-76.948408902,386,"6707 40TH AVE, UNIVERSITY PARK, MD, 20782","Match","Exact","6707 40TH AVE, UNIVERSITY PARK, MD, 20782",76304941,"R"
800387,"6707 BURCH HILL RD","BRANDYWINE","MD",20613,38.7235327430001,-76.88877185,387,"6707 BURCH HILL RD, BRANDYWINE, MD, 20613","Match","Exact","6707 BURCH HILL RD, BRANDYWINE, MD, 20613",76375845,"R"
800388,"6707 CAMDEN BAY DRIVE","TAMPA","FL",33635,NA,NA,388,"6707 CAMDEN BAY DRIVE, TAMPA, FL, 33635","No_Match",NA,NA,NA,NA
800389,"6707 CARMEL VALLEY DRIVE","FRISCO","TX",75035,33.1347869270001,-96.798507939,389,"6707 CARMEL VALLEY DRIVE, FRISCO, TX, 75035","Match","Exact","6707 CARMEL VALLEY DR, FRISCO, TX, 75035",123557521,"R"
800390,"6707 CHAPPARAL DRIVE","LITHONIA","GA",30038,33.6877106170001,-84.1162927569999,390,"6707 CHAPPARAL DRIVE, LITHONIA, GA, 30038","Match","Non_Exact","6707 CHAPARRAL DR, LITHONIA, GA, 30038",23376296,"R"
800391,"6707 CHEROKEE DRIVE","FAIRFFIELD","AL",35064,33.4663320230001,-86.927626355,391,"6707 CHEROKEE DRIVE, FAIRFFIELD, AL, 35064","Match","Non_Exact","6707 CHEROKEE DR, FAIRFIELD, AL, 35064",81556038,"L"
800392,"6707 CHOKEBERRY ROAD","BALTIMORE","MD",21209,39.3773277660001,-76.694951905,392,"6707 CHOKEBERRY ROAD, BALTIMORE, MD, 21209","Match","Exact","6707 CHOKEBERRY RD, BALTIMORE, MD, 21209",191471844,"R"
800393,"6707 CIMARRO ST","SPRINGFIELD","VA",22150,NA,NA,393,"6707 CIMARRO ST, SPRINGFIELD, VA, 22150","No_Match",NA,NA,NA,NA
800394,"6707 DEMOCRACY BLVD STE 504","BETHESDA","MD",20817,39.0220141080001,-77.135393254,394,"6707 DEMOCRACY BLVD STE 504, BETHESDA, MD, 20817","Match","Exact","6707 DEMOCRACY BLVD, BETHESDA, MD, 20817",640588454,"R"
800395,"6707 DURANGO CREEK DR","MAGNOLIA","TX",77354,30.2306823010001,-95.5696308729999,395,"6707 DURANGO CREEK DR, MAGNOLIA, TX, 77354","Match","Exact","6707 DURANGO CREEK DR, MAGNOLIA, TX, 77354",614135614,"L"
800396,"6707 E HIGHWAY 252","GREENWOOD","AR",72936,35.1571916720001,-94.146680881,396,"6707 E HIGHWAY 252, GREENWOOD, AR, 72936","Match","Non_Exact","6707 STATE HWY 252, GREENWOOD, AR, 72936",56160017,"R"
800397,"6707 FM 1464","RICHMOMD","TX",77407,NA,NA,397,"6707 FM 1464, RICHMOMD, TX, 77407","No_Match",NA,NA,NA,NA
800398,"6707 FM 1464","RICHMOND","TX",77407,NA,NA,398,"6707 FM 1464, RICHMOND, TX, 77407","No_Match",NA,NA,NA,NA
800399,"6707 GLEN FOREST DRIVE","CHAPEL HILL","NC",27517,35.9014571490001,-78.9858479979999,399,"6707 GLEN FOREST DRIVE, CHAPEL HILL, NC, 27517","Match","Exact","6707 GLEN FOREST DR, CHAPEL HILL, NC, 27517",71737642,"R"
800400,"6707 GUNPOWDER LN","PROSPECT","KY",40059,38.3418806560001,-85.613333793,400,"6707 GUNPOWDER LN, PROSPECT, KY, 40059","Match","Exact","6707 GUNPOWDER LN, PROSPECT, KY, 40059",96840576,"R"
800401,"6707 HAAG ST","W RICHLAND","WA",99353,46.300982757,-119.375307227,401,"6707 HAAG ST, W RICHLAND, WA, 99353","Match","Exact","6707 HAAG ST, WEST RICHLAND, WA, 99353",175007922,"L"
800402,"6707 HIMES AVENUE","TAMPA","FL",33614,28.0080352250001,-82.500829262,402,"6707 HIMES AVENUE, TAMPA, FL, 33614","Match","Non_Exact","6707 N HIMES AVE, TAMPA, FL, 33614",104515032,"R"
800403,"6707 HOLLYBROOK DR","SACRAMENTO","CA",95823,38.4419467280001,-121.424490609,403,"6707 HOLLYBROOK DR, SACRAMENTO, CA, 95823","Match","Exact","6707 HOLLYBROOK DR, SACRAMENTO, CA, 95823",133380283,"R"
800404,"6707 JANET LANE","FT.WASHINGTON","MD",20742,38.7973034820001,-76.9298344159999,404,"6707 JANET LANE, FT.WASHINGTON, MD, 20742","Match","Non_Exact","6707 JANET LN, FT WASHINGTON, MD, 20744",76316574,"R"
800405,"6707 LEYLAND DRIVE","SAN ANTONIO","TX",78239,29.516213142,-98.3522330759999,405,"6707 LEYLAND DRIVE, SAN ANTONIO, TX, 78239","Match","Exact","6707 LEYLAND DR, SAN ANTONIO, TX, 78239",101503016,"L"
800406,"6707 LOBLOLLY CIRCLE","WAXHAW","NC",28173,34.892103832,-80.711311091,406,"6707 LOBLOLLY CIRCLE, WAXHAW, NC, 28173","Match","Exact","6707 LOBLOLLY CIR, WAXHAW, NC, 28173",216853866,"L"
800407,"6707 LONFLEAF TRACE","BALL","LA",71405,NA,NA,407,"6707 LONFLEAF TRACE, BALL, LA, 71405","No_Match",NA,NA,NA,NA
800408,"6707 MARBROOKE SADDLE COURT","SUGARLAND","TX",77479,29.5309120790001,-95.564133601,408,"6707 MARBROOKE SADDLE COURT, SUGARLAND, TX, 77479","Match","Non_Exact","6707 MARBROOK SADDLE CT, SUGAR LAND, TX, 77479",648707050,"L"
800409,"6707 MELVILLE DRIVE","CHESTERFIELD","VA",23832,37.4624712460001,-77.5215102079999,409,"6707 MELVILLE DRIVE, CHESTERFIELD, VA, 23832","Match","Exact","6707 MELVILLE DR, CHESTERFIELD, VA, 23832",201557044,"L"
800410,"6707 METROPOLITAN BLVD","BARNHART","MO",63012,38.3502443240001,-90.3961254439999,410,"6707 METROPOLITAN BLVD, BARNHART, MO, 63012","Match","Exact","6707 METROPOLITAN BLVD, BARNHART, MO, 63012",62765392,"L"
800411,"6707 N WEST ARROWHEAD DR","URBANA","IL",61802,40.189453423,-88.191866632,411,"6707 N WEST ARROWHEAD DR, URBANA, IL, 61802","Match","Exact","6707 N WEST ARROWHEAD DR, URBANA, IL, 61802",8806164,"R"
800412,"6707 NATHAN CT","WESLEY CHAPEL","FL",33544,28.254815138,-82.382090475,412,"6707 NATHAN CT, WESLEY CHAPEL, FL, 33544","Match","Exact","6707 NATHAN CT, WESLEY CHAPEL, FL, 33544",86343515,"R"
800413,"6707 NE 117TH AVE STE 100D","VANCOUVER","WA",98662,45.669581486,-122.552541264,413,"6707 NE 117TH AVE STE 100D, VANCOUVER, WA, 98662","Match","Non_Exact","6707 NE 117TH AVE, VANCOUVER, WA, 98662",158359944,"R"
800414,"6707 NW 7TH STREET EIS 7008","MIAMI","FL",33126,NA,NA,414,"6707 NW 7TH STREET EIS 7008, MIAMI, FL, 33126","No_Match",NA,NA,NA,NA
800415,"6707 PANTHER WAY","INDIANAPOLIS","IN",46237,39.6643200720001,-86.05032804,415,"6707 PANTHER WAY, INDIANAPOLIS, IN, 46237","Match","Exact","6707 PANTHER WAY, INDIANAPOLIS, IN, 46237",637361779,"R"
800416,"6707 RANSON ST","ZEELAND","MI",49464,42.848198031,-85.948018458,416,"6707 RANSON ST, ZEELAND, MI, 49464","Match","Non_Exact","6707 RANSOM ST, ZEELAND, MI, 49464",71081879,"L"
800417,"6707 RENATE ROAD","LOUISVILLE","KY",40291,38.1509473850001,-85.60310147,417,"6707 RENATE ROAD, LOUISVILLE, KY, 40291","Match","Exact","6707 RENATE RD, LOUISVILLE, KY, 40291",611116684,"L"
800418,"6707 ROPER","DALLAS","TX",75217,NA,NA,418,"6707 ROPER, DALLAS, TX, 75217","No_Match",NA,NA,NA,NA
800419,"6707 SHEPHERDSTOWN ROAD","WARRENTON","VA",20187,38.7524885610001,-77.6882762549999,419,"6707 SHEPHERDSTOWN ROAD, WARRENTON, VA, 20187","Match","Exact","6707 SHEPHERDSTOWN RD, WARRENTON, VA, 20187",146276460,"L"
800420,"6707 SHERRIE JEAN LN","PEORIA","AZ",85382,33.630635688,-112.202903129,420,"6707 SHERRIE JEAN LN, PEORIA, AZ, 85382","Match","Non_Exact","6707 W SHERRI JEAN LN, PEORIA, AZ, 85382",128174154,"L"
800421,"6707 SPRINGPARK AVE APT 6","LOS ANGELES","CA",90056,33.979221142,-118.374813128,421,"6707 SPRINGPARK AVE APT 6, LOS ANGELES, CA, 90056","Match","Non_Exact","6707 S SPRINGPARK AVE, LOS ANGELES, CA, 90056",241242475,"R"
800422,"6707 SUNSET TERRACE","LANHAM","MD",20706,38.970859884,-76.889407539,422,"6707 SUNSET TERRACE, LANHAM, MD, 20706","Match","Exact","6707 SUNSET TER, LANHAM, MD, 20706",76333125,"R"
800423,"6707 THORNWOOD ST UNIT 6","SAN DIEGO","CA",92111,32.8111453610001,-117.171178863,423,"6707 THORNWOOD ST UNIT 6, SAN DIEGO, CA, 92111","Match","Exact","6707 THORNWOOD ST, SAN DIEGO, CA, 92111",195306147,"R"
800424,"6707 VALLEY MILLS AVE","INDIANAPOLIS","IN",46241,39.692078617,-86.2772193449999,424,"6707 VALLEY MILLS AVE, INDIANAPOLIS, IN, 46241","Match","Exact","6707 VALLEY MILLS AVE, INDIANAPOLIS, IN, 46241",108004238,"L"
800425,"6707 VERMONT AVENU","HYATTSVILLE","MD",20785,38.9214680010001,-76.8915529669999,425,"6707 VERMONT AVENU, HYATTSVILLE, MD, 20785","Match","Non_Exact","6707 VERMONT CT, HYATTSVILLE, MD, 20785",76309223,"R"
800426,"6707 VICTORIA COURT","EDISON","NJ",8817,40.5351278100001,-74.409780252,426,"6707 VICTORIA COURT, EDISON, NJ, 8817","Match","Exact","6707 VICTORIA CT, EDISON, NJ, 08817",60328069,"R"
800427,"6707 VIENNA WAY","BELLAIRE","MI",49615,44.934607951,-85.140131804,427,"6707 VIENNA WAY, BELLAIRE, MI, 49615","Match","Exact","6707 VIENNA WAY, BELLAIRE, MI, 49615",145821353,"L"
800428,"6707 WEST DUPONT RD","FORT WAYNE","IN",46818,41.1778879330001,-85.2314526929999,428,"6707 WEST DUPONT RD, FORT WAYNE, IN, 46818","Match","Exact","6707 W DUPONT RD, FORT WAYNE, IN, 46818",6372351,"L"
800429,"6707 WESTMORELAND AVE","TAKOMA PARK","MD",20912,38.9715744320001,-77.008023112,429,"6707 WESTMORELAND AVE, TAKOMA PARK, MD, 20912","Match","Exact","6707 WESTMORELAND AVE, TAKOMA PARK, MD, 20912",62068895,"R"
800430,"6707 WINTON ROAD","HOUSTON","TX",77021,29.6981838730001,-95.3667096569999,430,"6707 WINTON ROAD, HOUSTON, TX, 77021","Match","Non_Exact","6707 WINTON ST, HOUSTON, TX, 77021",96072640,"L"
800431,"6707-5 MCCELLAN LOOP","FORT RILEY","KS",66442,39.0880926470001,-96.823606277,431,"6707-5 MCCELLAN LOOP, FORT RILEY, KS, 66442","Match","Non_Exact","6707 MCCLELLAN LOOP, FORT RILEY, KS, 66442",28386767,"R"
800432,"6707-A BURCH HILL ROAD","BRANDYWINE","MD",20613,38.7235327430001,-76.88877185,432,"6707-A BURCH HILL ROAD, BRANDYWINE, MD, 20613","Match","Exact","6707 BURCH HILL RD, BRANDYWINE, MD, 20613",76375845,"R"
800433,"67075 BURRIS ROAD","VERNONIA","OR",97064,45.969004775,-123.19125164,433,"67075 BURRIS ROAD, VERNONIA, OR, 97064","Match","Exact","67075 BURRIS RD, VERNONIA, OR, 97064",158089931,"L"
800434,"6708 237TH ST E","GRAHAM","WA",98338,47.0414998480001,-122.341887543,434,"6708 237TH ST E, GRAHAM, WA, 98338","Match","Exact","6708 237TH ST E, GRAHAM, WA, 98338",184638695,"L"
800435,"6708 83RD AVE SE","SNOHOMISH","WA",98290,47.935484376,-122.120086239,435,"6708 83RD AVE SE, SNOHOMISH, WA, 98290","Match","Exact","6708 83RD AVE SE, SNOHOMISH, WA, 98290",627238307,"L"
800436,"6708 92ND AVE W","TAYLOR RIDGE","MO",61284,NA,NA,436,"6708 92ND AVE W, TAYLOR RIDGE, MO, 61284","No_Match",NA,NA,NA,NA
800437,"6708 ARLENE DRIVE","CAPITOL HEIGHTS","MD",20743,38.8915386200001,-76.891518359,437,"6708 ARLENE DRIVE, CAPITOL HEIGHTS, MD, 20743","Match","Exact","6708 ARLENE DR, CAPITOL HEIGHTS, MD, 20743",76317831,"L"
800438,"6708 BROOKFIELD WAY","DOUGLASVILLE","GA",30134,33.7254024330001,-84.786462967,438,"6708 BROOKFIELD WAY, DOUGLASVILLE, GA, 30134","Match","Exact","6708 BROOKFIELD WAY, DOUGLASVILLE, GA, 30134",618476965,"L"
800439,"6708 CALLE SANTIAGO NE","ALBUQUERQUE","NM",87113,35.155855328,-106.611672346,439,"6708 CALLE SANTIAGO NE, ALBUQUERQUE, NM, 87113","Match","Non_Exact","6708 CLL SANTIAGO NE, ALBUQUERQUE, NM, 87113",206770467,"R"
800440,"6708 CARLSEN AVE","INDIANAPOLIS","IN",46214,39.7875394910001,-86.278401791,440,"6708 CARLSEN AVE, INDIANAPOLIS, IN, 46214","Match","Exact","6708 CARLSEN AVE, INDIANAPOLIS, IN, 46214",107976941,"R"
800441,"6708 ELMWOOD RD","SAN BERNARDINO","CA",92404,34.131856987,-117.251267404,441,"6708 ELMWOOD RD, SAN BERNARDINO, CA, 92404","Match","Exact","6708 ELMWOOD RD, SAN BERNARDINO, CA, 92404",144656169,"R"
800442,"6708 FRANKLIN AVE","MIDDLETON","WI",53562,43.0983236980001,-89.498208409,442,"6708 FRANKLIN AVE, MIDDLETON, WI, 53562","Match","Exact","6708 FRANKLIN AVE, MIDDLETON, WI, 53562",49464611,"R"
800443,"6708 GREEN PLANTATION RD","HARLEM","GA",30814,33.433340872,-82.3310428789999,443,"6708 GREEN PLANTATION RD, HARLEM, GA, 30814","Match","Exact","6708 GREEN PLANTATION RD, HARLEM, GA, 30814",55372783,"L"
800444,"6708 HADDONFIELD PLACE","CHARLOTTE","NC",28277,35.0425610460001,-80.79565244,444,"6708 HADDONFIELD PLACE, CHARLOTTE, NC, 28277","Match","Exact","6708 HADDONFIELD PL, CHARLOTTE, NC, 28277",70552813,"R"
800445,"6708 HANOVER RD","FORT WORTH","TX",76116,32.7203150710001,-97.4309565789999,445,"6708 HANOVER RD, FORT WORTH, TX, 76116","Match","Exact","6708 HANOVER RD, FORT WORTH, TX, 76116",101879981,"R"
800446,"6708 HILLCREST DR","WAUWATOSA","WI",53213,43.0551479000001,-87.996534535,446,"6708 HILLCREST DR, WAUWATOSA, WI, 53213","Match","Exact","6708 HILLCREST DR, WAUWATOSA, WI, 53213",77732781,"R"
800447,"6708 HONESTY DRIVE","BETHESDA","MD",20817,38.9835150010001,-77.1346691969999,447,"6708 HONESTY DRIVE, BETHESDA, MD, 20817","Match","Exact","6708 HONESTY DR, BETHESDA, MD, 20817",62057810,"L"
800448,"6708 KELLY CT","ZEBULON","NC",27597,35.7901492290001,-78.23616853,448,"6708 KELLY CT, ZEBULON, NC, 27597","Match","Exact","6708 KELLY CT, ZEBULON, NC, 27597",90399232,"L"
800449,"6708 KINGS MILLS CT","FREDERICK","MD",21702,39.462170536,-77.434444604,449,"6708 KINGS MILLS CT, FREDERICK, MD, 21702","Match","Non_Exact","6708 KINGS MILL CT, FREDERICK, MD, 21702",60700333,"R"
800450,"6708 LEESA DAWN COURT","MANASSAS","VA",20112,38.6783188740001,-77.405581798,450,"6708 LEESA DAWN COURT, MANASSAS, VA, 20112","Match","Exact","6708 LEESA DAWN CT, MANASSAS, VA, 20112",207159214,"R"
800451,"6708 LEPRECHAUN DRIVE","AUSTIN","TX",78746,30.336989944,-97.815727333,451,"6708 LEPRECHAUN DRIVE, AUSTIN, TX, 78746","Match","Exact","6708 LEPRECHAUN DR, AUSTIN, TX, 78746",63925443,"R"
800452,"6708 METROPOLITAN CENTER DR APT 202","SPRINGFIELD","VA",22150,38.7676009190001,-77.1761005829999,452,"6708 METROPOLITAN CENTER DR APT 202, SPRINGFIELD, VA, 22150","Match","Exact","6708 METROPOLITAN CENTER DR, SPRINGFIELD, VA, 22150",624433410,"R"
800453,"6708 N BUCKEYE CT","EDWARDS","IL",61528,40.770539344,-89.692396431,453,"6708 N BUCKEYE CT, EDWARDS, IL, 61528","Match","Non_Exact","6708 BUCKEYE DR, EDWARDS, IL, 61528",8734190,"R"
800454,"6708 N OLYMPIA AVE","CHICAGO","IL",60631,42.0028732110001,-87.8128644879999,454,"6708 N OLYMPIA AVE, CHICAGO, IL, 60631","Match","Exact","6708 N OLYMPIA AVE, CHICAGO, IL, 60631",111733783,"L"
800455,"6708 NAVAJO DR","N. LITTLE ROCK","AR",72116,34.816257175,-92.238271778,455,"6708 NAVAJO DR, N. LITTLE ROCK, AR, 72116","Match","Non_Exact","6708 NAVAJO TRL, N LITTLE ROCK, AR, 72116",83497495,"R"
800456,"6708 NEWPORT ROAD","HYATTSVILLE","MD",20784,38.9479246450001,-76.905241707,456,"6708 NEWPORT ROAD, HYATTSVILLE, MD, 20784","Match","Exact","6708 NEWPORT RD, HYATTSVILLE, MD, 20784",76307350,"L"
800457,"6708 NORTH 24TH STREET","TAMPA","FL",33610,28.008991403,-82.432661248,457,"6708 NORTH 24TH STREET, TAMPA, FL, 33610","Match","Exact","6708 N 24TH ST, TAMPA, FL, 33610",104520276,"L"
800458,"6708 NW 110 WAY","PARKLAND","FL",33076,26.3139981460001,-80.2738285579999,458,"6708 NW 110 WAY, PARKLAND, FL, 33076","Match","Exact","6708 NW 110TH WAY, PARKLAND, FL, 33076",114798838,"R"
800459,"6708 NW GRAND BLVD","OKLAHOMA CITY","OK",73116,NA,NA,459,"6708 NW GRAND BLVD, OKLAHOMA CITY, OK, 73116","Tie",NA,NA,NA,NA
800460,"6708 OAKVIEW","EDMOND","OK",73025,NA,NA,460,"6708 OAKVIEW, EDMOND, OK, 73025","No_Match",NA,NA,NA,NA
800461,"6708 PEACEFUL PINES RD","BLACK HAWK","SD",57718,44.1551103480001,-103.329588081,461,"6708 PEACEFUL PINES RD, BLACK HAWK, SD, 57718","Match","Exact","6708 PEACEFUL PINES RD, BLACK HAWK, SD, 57718",651100546,"L"
800462,"6708 PINE ST","OMAHA","NE",68106,41.2437649460001,-96.0151176209999,462,"6708 PINE ST, OMAHA, NE, 68106","Match","Non_Exact","6708 PINE ST, OMAHA, NE, 68182",117008578,"R"
800463,"6708 PORTERFIELD RD","CHARLOTTE","NC",28226,35.080013922,-80.843094967,463,"6708 PORTERFIELD RD, CHARLOTTE, NC, 28226","Match","Exact","6708 PORTERFIELD RD, CHARLOTTE, NC, 28226",70491022,"R"
800464,"6708 RICKY CRT","VALLEY SPRINGS","CA",95252,38.118938497,-120.873049568,464,"6708 RICKY CRT, VALLEY SPRINGS, CA, 95252","Match","Exact","6708 RICKY CT, VALLEY SPRINGS, CA, 95252",102276080,"R"
800465,"6708 SAO TIAGO WAY","ELK GROVE","CA",95757,38.384461355,-121.424981267,465,"6708 SAO TIAGO WAY, ELK GROVE, CA, 95757","Match","Exact","6708 SAO TIAGO WAY, ELK GROVE, CA, 95757",133441178,"R"
800466,"6708 SOUDER STREET","PHILADELPHIA","PA",19149,40.04157043,-75.070465879,466,"6708 SOUDER STREET, PHILADELPHIA, PA, 19149","Match","Exact","6708 SOUDER ST, PHILADELPHIA, PA, 19149",131416464,"L"
800467,"6708 SUMMERTIME DRIVE","MURFREESBORO","TN",37129,35.93861566,-86.491346891,467,"6708 SUMMERTIME DRIVE, MURFREESBORO, TN, 37129","Match","Exact","6708 SUMMERTIME DR, MURFREESBORO, TN, 37129",59030993,"R"
800468,"6708 TUDOR LANE","WESTMONT","IL",60559,41.766063176,-87.975855245,468,"6708 TUDOR LANE, WESTMONT, IL, 60559","Match","Exact","6708 TUDOR LN, WESTMONT, IL, 60559",112551029,"R"
800469,"6708 VAN HAVEN DRIVE","RALEIGH","NC",27615,35.8726221100001,-78.6355565,469,"6708 VAN HAVEN DRIVE, RALEIGH, NC, 27615","Match","Exact","6708 VAN HAVEN DR, RALEIGH, NC, 27615",72652877,"R"
800470,"6708 W 3120 S","WEST VALLEY CITY","UT",84128,NA,NA,470,"6708 W 3120 S, WEST VALLEY CITY, UT, 84128","No_Match",NA,NA,NA,NA
800471,"6708 WEST MAGNOLIA BLVD","HARAHAN","LA",70123,29.9338930330001,-90.194168285,471,"6708 WEST MAGNOLIA BLVD, HARAHAN, LA, 70123","Match","Exact","6708 W MAGNOLIA BLVD, HARAHAN, LA, 70123",93501925,"L"
800472,"6708 WOODMERE DRIVE","RALEIGH","NC",27612,35.8724559870001,-78.66947246,472,"6708 WOODMERE DRIVE, RALEIGH, NC, 27612","Match","Exact","6708 WOODMERE DR, RALEIGH, NC, 27612",72495678,"R"
800473,"6708 YOLANDA DRIVE","FORT WORTH","TX",76112,32.7519321520001,-97.214573321,473,"6708 YOLANDA DRIVE, FORT WORTH, TX, 76112","Match","Exact","6708 YOLANDA DR, FORT WORTH, TX, 76112",101900341,"R"
800474,"6709 10TH AVE APT 1","LOS ANGELES","CA",90043,33.9778658070001,-118.327947427,474,"6709 10TH AVE APT 1, LOS ANGELES, CA, 90043","Match","Exact","6709 10TH AVE, LOS ANGELES, CA, 90043",141655189,"R"
800475,"6709 10TH AVE","LOS ANGELES","CA",90043,33.9778658070001,-118.327947427,475,"6709 10TH AVE, LOS ANGELES, CA, 90043","Match","Exact","6709 10TH AVE, LOS ANGELES, CA, 90043",141655189,"R"
800476,"6709 35TH AVE SW","SEATTLE","WA",98126,47.5425878070001,-122.376503205,476,"6709 35TH AVE SW, SEATTLE, WA, 98126","Match","Exact","6709 35TH AVE SW, SEATTLE, WA, 98126",186578063,"R"
800477,"6709 81ST AVENUE NORTH","BROOKLYN PARK","MN",55445,45.101533669,-93.366671453,477,"6709 81ST AVENUE NORTH, BROOKLYN PARK, MN, 55445","Match","Exact","6709 81ST AVE N, BROOKLYN PARK, MN, 55445",43858402,"L"
800478,"6709 ACORN DRIVE","EMDOND","OK",73025,35.7234040930001,-97.488230103,478,"6709 ACORN DRIVE, EMDOND, OK, 73025","Match","Non_Exact","6709 ACORN DR, EDMOND, OK, 73025",626308804,"R"
800479,"6709 BACK BAY LN","AUSTIN","TX",78739,30.1897625730001,-97.898233493,479,"6709 BACK BAY LN, AUSTIN, TX, 78739","Match","Exact","6709 BACK BAY LN, AUSTIN, TX, 78739",63990019,"L"
800480,"6709 BEECH AVENUE","BALTMORE","MD",21206,39.3535778900001,-76.5267970359999,480,"6709 BEECH AVENUE, BALTMORE, MD, 21206","Match","Non_Exact","6709 BEECH AVE, BALTIMORE, MD, 21206",191477793,"R"
800481,"6709 BOBOLINK CR","IOWA","LA",70647,30.225636348,-93.1110427309999,481,"6709 BOBOLINK CR, IOWA, LA, 70647","Match","Exact","6709 BOBOLINK CIR, IOWA, LA, 70647",88452600,"R"
800482,"6709 BRIARCLIFF DRIVE","CLINTON","MD",20735,38.7375239180001,-76.893422281,482,"6709 BRIARCLIFF DRIVE, CLINTON, MD, 20735","Match","Exact","6709 BRIARCLIFF DR, CLINTON, MD, 20735",76321060,"R"
800483,"6709 BROOKWOOD CIRCLE","JONESBORO","GA",30236,33.571821136,-84.376449311,483,"6709 BROOKWOOD CIRCLE, JONESBORO, GA, 30236","Match","Exact","6709 BROOKWOOD CIR, JONESBORO, GA, 30236",23316152,"R"
800484,"6709 CACTUS COURT","ORLANDO","FL",32819,28.464004177,-81.4923709889999,484,"6709 CACTUS COURT, ORLANDO, FL, 32819","Match","Exact","6709 CACTUS CT, ORLANDO, FL, 32819",94288633,"R"
800485,"6709 CANNON FARMS DRIVE NE","ROCKFORD","MI",49341,43.0971899310001,-85.502344038,485,"6709 CANNON FARMS DRIVE NE, ROCKFORD, MI, 49341","Match","Exact","6709 CANNON FARMS DR NE, ROCKFORD, MI, 49341",12492947,"L"
800486,"6709 CHESEPEAKE TR","ATLANTA","GA",30311,NA,NA,486,"6709 CHESEPEAKE TR, ATLANTA, GA, 30311","No_Match",NA,NA,NA,NA
800487,"6709 CINDY DR","LOUISVILLE","KY",40258,38.1357223900001,-85.8750869899999,487,"6709 CINDY DR, LOUISVILLE, KY, 40258","Match","Exact","6709 CINDY DR, LOUISVILLE, KY, 40258",96837676,"R"
800488,"6709 CINDY DRIVE","LOUISVILLE","KY",40258,38.1357223900001,-85.8750869899999,488,"6709 CINDY DRIVE, LOUISVILLE, KY, 40258","Match","Exact","6709 CINDY DR, LOUISVILLE, KY, 40258",96837676,"R"
800489,"6709 COUNTRY LANE","ROCKFORD","IL",61108,42.219635532,-88.985256826,489,"6709 COUNTRY LANE, ROCKFORD, IL, 61108","Match","Non_Exact","6709 COUNTRY LN, ROCKFORD, IL, 61109",49264434,"R"
800490,"6709 DEL PRADO AVENUE","FORT WORTH","TX",76133,32.6489110300001,-97.388500199,490,"6709 DEL PRADO AVENUE, FORT WORTH, TX, 76133","Match","Exact","6709 DEL PRADO AVE, FORT WORTH, TX, 76133",101883129,"L"
800491,"6709 EAST BAYOU DR","HITCHCOCK","TX",77563,NA,NA,491,"6709 EAST BAYOU DR, HITCHCOCK, TX, 77563","No_Match",NA,NA,NA,NA
800492,"6709 EAST E STREET","TACOMA","WA",98404,47.1961385270001,-122.424280928,492,"6709 EAST E STREET, TACOMA, WA, 98404","Match","Exact","6709 E E ST, TACOMA, WA, 98404",624989749,"L"
800493,"6709 EAST J STREET","TACOMA","WA",98407,47.1962349830001,-122.417576677,493,"6709 EAST J STREET, TACOMA, WA, 98407","Match","Non_Exact","6709 E J ST, TACOMA, WA, 98404",184630455,"L"
800494,"6709 EASTLAND DRIVE","BROWNSBURG","IN",46112,39.8622795300001,-86.337578681,494,"6709 EASTLAND DRIVE, BROWNSBURG, IN, 46112","Match","Exact","6709 EASTLAND DR, BROWNSBURG, IN, 46112",625082524,"L"
800495,"6709 EL PASO ST","LANDOVER","MD",20785,38.9193105000001,-76.8912801869999,495,"6709 EL PASO ST, LANDOVER, MD, 20785","Match","Exact","6709 EL PASO ST, LANDOVER, MD, 20785",76338088,"R"
800496,"6709 FINAMORE CIRCLE","LAKE WORTH","FL",33467,26.5819616580001,-80.151495193,496,"6709 FINAMORE CIRCLE, LAKE WORTH, FL, 33467","Match","Exact","6709 FINAMORE CIR, LAKE WORTH, FL, 33467",115503845,"R"
800497,"6709 FISHERS FARM LANE E2","CHARLOTTE","NC",28277,35.081844512,-80.832309418,497,"6709 FISHERS FARM LANE E2, CHARLOTTE, NC, 28277","Match","Exact","6709 FISHERS FARM LN, CHARLOTTE, NC, 28277",70534031,"R"
800498,"6709 GILLS GATE COURT","CHESTERFIELD","VA",23832,37.44649603,-77.5193171189999,498,"6709 GILLS GATE COURT, CHESTERFIELD, VA, 23832","Match","Exact","6709 GILLS GATE CT, CHESTERFIELD, VA, 23832",223171232,"R"
800499,"6709 GREEN FOREST LANE","PFAFFTOWN","NC",27040,36.1572102310001,-80.4031787439999,499,"6709 GREEN FOREST LANE, PFAFFTOWN, NC, 27040","Match","Exact","6709 GREEN FOREST LN, PFAFFTOWN, NC, 27040",84632161,"L"
800500,"6709 GROVERS AVE","PHILADELPHIA","PA",19142,39.916703371,-75.2289211949999,500,"6709 GROVERS AVE, PHILADELPHIA, PA, 19142","Match","Exact","6709 GROVERS AVE, PHILADELPHIA, PA, 19142",131409441,"R"
