"ID","Address","City","State","Zip","lat","long","id","input_address","match_indicator","match_type","matched_address","tiger_line_id","tiger_side"
600001,"409 SW A STREET","BENTONVILLE","AR",72712,36.368010171,-94.2102981579999,1,"409 SW A STREET, BENTONVILLE, AR, 72712","Match","Exact","409 SW A ST, BENTONVILLE, AR, 72712",47832196,"L"
600002,"409 SW STACY DR","LEE SUMMIT","MO",64082,38.8460241550001,-94.386146555,2,"409 SW STACY DR, LEE SUMMIT, MO, 64082","Match","Non_Exact","409 SW STACEY DR, LEES SUMMIT, MO, 64082",617931114,"R"
600003,"409 SWANSON RD","SYCAMORE","IL",60178,42.0062849280001,-88.667667996,3,"409 SWANSON RD, SYCAMORE, IL, 60178","Match","Exact","409 SWANSON RD, SYCAMORE, IL, 60178",642647084,"R"
600004,"409 TANGERINE DRIVE","OLDSMAR","FL",34677,28.0466640990001,-82.6930042939999,4,"409 TANGERINE DRIVE, OLDSMAR, FL, 34677","Match","Exact","409 TANGERINE DR, OLDSMAR, FL, 34677",636393285,"R"
600005,"409 TAPESTRY PARK DRIVE APT 816","CHESAPEAKE","VA",23320,36.7440906910001,-76.2504717529999,5,"409 TAPESTRY PARK DRIVE APT 816, CHESAPEAKE, VA, 23320","Match","Exact","409 TAPESTRY PARK DR, CHESAPEAKE, VA, 23320",641904394,"L"
600006,"409 TAPESTRY PARK DRIVE APT 817","CHESAPEAKE","VA",23320,36.7440906910001,-76.2504717529999,6,"409 TAPESTRY PARK DRIVE APT 817, CHESAPEAKE, VA, 23320","Match","Exact","409 TAPESTRY PARK DR, CHESAPEAKE, VA, 23320",641904394,"L"
600007,"409 TAYLOR DR","FORSYTH","GA",31029,33.0240321520001,-83.926731277,7,"409 TAYLOR DR, FORSYTH, GA, 31029","Match","Exact","409 TAYLOR DR, FORSYTH, GA, 31029",66668249,"R"
600008,"409 TENNANT STA 340","MORGAN HILL","CA",95037,37.1153318280001,-121.63688274,8,"409 TENNANT STA 340, MORGAN HILL, CA, 95037","Match","Non_Exact","409 TENNANT AVE, MORGAN HILL, CA, 95037",639653191,"L"
600009,"409 TENNANT STATION NUM 504","MORGAN HILL","CA",95037,37.1153318280001,-121.63688274,9,"409 TENNANT STATION NUM 504, MORGAN HILL, CA, 95037","Match","Non_Exact","409 TENNANT AVE, MORGAN HILL, CA, 95037",639653191,"L"
600010,"409 THOMAS RD","ITHACA","NY",14850,42.420344277,-76.3856451249999,10,"409 THOMAS RD, ITHACA, NY, 14850","Match","Exact","409 THOMAS RD, ITHACA, NY, 14850",18873223,"R"
600011,"409 TILTON PARK DRIVE","DEKALB","IL",60115,41.947521657,-88.7472087039999,11,"409 TILTON PARK DRIVE, DEKALB, IL, 60115","Match","Exact","409 TILTON PARK DR, DEKALB, IL, 60115",52259094,"R"
600012,"409 TIMBER LANE","NEWTOWN SQUARE","PA",19073,40.00906159,-75.403043853,12,"409 TIMBER LANE, NEWTOWN SQUARE, PA, 19073","Match","Exact","409 TIMBER LN, NEWTOWN SQUARE, PA, 19073",134897885,"R"
600013,"409 TOBY ROAD","KERSEY","PA",15846,41.320831507,-78.638262755,13,"409 TOBY ROAD, KERSEY, PA, 15846","Match","Exact","409 TOBY RD, KERSEY, PA, 15846",157847517,"R"
600014,"409 TOM SHOOK ROAD","BANNER ELK","NC",28604,36.1895579390001,-81.798997715,14,"409 TOM SHOOK ROAD, BANNER ELK, NC, 28604","Match","Exact","409 TOM SHOOK RD, BANNER ELK, NC, 28604",649257453,"R"
600015,"409 TOWNE VALLEY DRIVE","WOODSTOCK","GA",30188,34.111245114,-84.522679249,15,"409 TOWNE VALLEY DRIVE, WOODSTOCK, GA, 30188","Match","Exact","409 TOWNE VALLEY DR, WOODSTOCK, GA, 30188",68845349,"R"
600016,"409 TRAVIS ST APT 1506","HOUSTON","TX",77002,29.7619094140001,-95.362281508,16,"409 TRAVIS ST APT 1506, HOUSTON, TX, 77002","Match","Exact","409 TRAVIS ST, HOUSTON, TX, 77002",96067494,"L"
600017,"409 TYGER RIDGE LANE","LYMAN","SC",29365,34.976125596,-82.184886788,17,"409 TYGER RIDGE LANE, LYMAN, SC, 29365","Match","Exact","409 TYGER RIDGE LN, LYMAN, SC, 29365",19496303,"L"
600018,"409 UPPER HAW DR","MARS HILL","NC",28754,35.9575671960001,-82.497936793,18,"409 UPPER HAW DR, MARS HILL, NC, 28754","Match","Exact","409 UPPER HAW DR, MARS HILL, NC, 28754",40929200,"L"
600019,"409 UPSTEARM","RIVER RIDGE","LA",70123,NA,NA,19,"409 UPSTEARM, RIVER RIDGE, LA, 70123","No_Match",NA,NA,NA,NA
600020,"409 US HWY 1 UNIT 202C","NORTH PALM BEACH","FL",33409,NA,NA,20,"409 US HWY 1 UNIT 202C, NORTH PALM BEACH, FL, 33409","No_Match",NA,NA,NA,NA
600021,"409 US HWY 98","APALACHICOLA","FL",32320,29.7139614700001,-85.0102828829999,21,"409 US HWY 98, APALACHICOLA, FL, 32320","Match","Exact","409 US HWY 98, APALACHICOLA, FL, 32320",610428487,"R"
600022,"409 VATICA DRIVE","DONALDSONVILLE","LA",70346,NA,NA,22,"409 VATICA DRIVE, DONALDSONVILLE, LA, 70346","No_Match",NA,NA,NA,NA
600023,"409 VENICE WAY","VENICE","CA",30291,33.987422182,-118.468338346,23,"409 VENICE WAY, VENICE, CA, 30291","Match","Non_Exact","409 VENICE WAY, VENICE, CA, 90291",141576206,"L"
600024,"409 VIENNA CT","FRANKLIN","TN",37067,35.9325235860001,-86.8258886419999,24,"409 VIENNA CT, FRANKLIN, TN, 37067","Match","Exact","409 VIENNA CT, FRANKLIN, TN, 37067",73128654,"L"
600025,"409 VIRGINIA AVENUE","HARRISONBURG","VA",22802,38.454156889,-78.8715206319999,25,"409 VIRGINIA AVENUE, HARRISONBURG, VA, 22802","Match","Exact","409 VIRGINIA AVE, HARRISONBURG, VA, 22802",55712822,"L"
600026,"409 VISTA RIDGE RD","RADFORD","VA",24141,37.1350694060001,-80.523773132,26,"409 VISTA RIDGE RD, RADFORD, VA, 24141","Match","Non_Exact","409 VISTA RD, RADFORD, VA, 24141",73651754,"R"
600027,"409 VIVALDI DRIVE","DURHAM","NC",27712,36.0899956010001,-78.918281474,27,"409 VIVALDI DRIVE, DURHAM, NC, 27712","Match","Exact","409 VIVALDI DR, DURHAM, NC, 27712",71758314,"R"
600028,"409 W 10TH ST","ANTIOCH","CA",94509,38.011184729,-121.811469401,28,"409 W 10TH ST, ANTIOCH, CA, 94509","Match","Exact","409 W 10TH ST, ANTIOCH, CA, 94509",192032362,"L"
600029,"409 W 119TH TERR","KANSAS CITY","MO",64145,38.911057548,-94.596992165,29,"409 W 119TH TERR, KANSAS CITY, MO, 64145","Match","Exact","409 W 119TH TER, KANSAS CITY, MO, 64145",91524775,"L"
600030,"409 W 119TH TERRACE","KANAS CITY","MO",64145,38.911057548,-94.596992165,30,"409 W 119TH TERRACE, KANAS CITY, MO, 64145","Match","Non_Exact","409 W 119TH TER, KANSAS CITY, MO, 64145",91524775,"L"
600031,"409 W 1ST STREET","SUMNER","IA",50674,NA,NA,31,"409 W 1ST STREET, SUMNER, IA, 50674","Tie",NA,NA,NA,NA
600032,"409 W 223RD STREET","CARSON","CA",90745,33.8244206030001,-118.283295683,32,"409 W 223RD STREET, CARSON, CA, 90745","Match","Exact","409 W 223RD ST, CARSON, CA, 90745",241243685,"R"
600033,"409 W 35TH ST","HOLLAND","MI",49423,42.7655888260001,-86.1256299349999,33,"409 W 35TH ST, HOLLAND, MI, 49423","Match","Exact","409 W 35TH ST, HOLLAND, MI, 49423",11421144,"L"
600034,"409 W 3RD AVENUE","RITZVILLE","WA",99169,47.1232481060001,-118.378618095,34,"409 W 3RD AVENUE, RITZVILLE, WA, 99169","Match","Exact","409 W 3RD AVE, RITZVILLE, WA, 99169",181843149,"R"
600035,"409 W 3RD ST","WACONIA","MN",55387,44.847199597,-93.792346932,35,"409 W 3RD ST, WACONIA, MN, 55387","Match","Exact","409 W 3RD ST, WACONIA, MN, 55387",43491856,"L"
600036,"409 W 3RD STREET","WASHBURN","WI",54891,46.6724938200001,-90.898885857,36,"409 W 3RD STREET, WASHBURN, WI, 54891","Match","Exact","409 W 3RD ST, WASHBURN, WI, 54891",194282261,"R"
600037,"409 W 53RD ST SOUTH","WICHITA","KS",67217,37.5973399860001,-97.339448883,37,"409 W 53RD ST SOUTH, WICHITA, KS, 67217","Match","Exact","409 W 53RD ST S, WICHITA, KS, 67217",115683878,"R"
600038,"409 W 5TH STREET","WILIMINGTON","DE",19801,39.7426280500001,-75.554378072,38,"409 W 5TH STREET, WILIMINGTON, DE, 19801","Match","Non_Exact","409 W 5TH ST, WILMINGTON, DE, 19801",187257918,"R"
600039,"409 W 5TH STREET","WILMINGTON","DE",19801,39.7426280500001,-75.554378072,39,"409 W 5TH STREET, WILMINGTON, DE, 19801","Match","Exact","409 W 5TH ST, WILMINGTON, DE, 19801",187257918,"R"
600040,"409 W 6TH STREET","WASHBURN","WA",54891,NA,NA,40,"409 W 6TH STREET, WASHBURN, WA, 54891","No_Match",NA,NA,NA,NA
600041,"409 W AVE G","ROBSTOWN","TX",78380,27.796853873,-97.672947898,41,"409 W AVE G, ROBSTOWN, TX, 78380","Match","Exact","409 W AVE G, ROBSTOWN, TX, 78380",178510482,"L"
600042,"409 W BEDDELL STREET","FORT WORTH","TX",76115,32.682386482,-97.328845972,42,"409 W BEDDELL STREET, FORT WORTH, TX, 76115","Match","Exact","409 W BEDDELL ST, FORT WORTH, TX, 76115",101892575,"L"
600043,"409 W BOUNDARY AVE","PLENTYWOOD","MT",59254,48.776652164,-104.563259844,43,"409 W BOUNDARY AVE, PLENTYWOOD, MT, 59254","Match","Exact","409 W BOUNDARY AVE, PLENTYWOOD, MT, 59254",611065388,"L"
600044,"409 W CALIFORNIA","URBANA","IL",61801,NA,NA,44,"409 W CALIFORNIA, URBANA, IL, 61801","Tie",NA,NA,NA,NA
600045,"409 W CRAYMER AVE","PALACIOS","TX",77465,28.719149397,-96.215267239,45,"409 W CRAYMER AVE, PALACIOS, TX, 77465","Match","Exact","409 W CRAYMER AVE, PALACIOS, TX, 77465",83288091,"L"
600046,"409 W DRYDEN ST B","GLENDALE","CA",91202,34.161133453,-118.262111269,46,"409 W DRYDEN ST B, GLENDALE, CA, 91202","Match","Non_Exact","409 W DRYDEN ST, GLENDALE, CA, 91202",141608587,"R"
600047,"409 W ELLS AV","CHAMPAIGN","IL",61820,40.1040966690001,-88.248606117,47,"409 W ELLS AV, CHAMPAIGN, IL, 61820","Match","Exact","409 W ELLS AVE, CHAMPAIGN, IL, 61820",8810800,"L"
600048,"409 W FRONT STREET STE 100-282","HUTTO","TX",78634,30.5421304870001,-97.548433943,48,"409 W FRONT STREET STE 100-282, HUTTO, TX, 78634","Match","Non_Exact","409 W FRONT ST, HUTTO, TX, 78634",636385369,"R"
600049,"409 W GAULBERT AVE APT 10","LOUISVILLE","KY",40208,38.2247591440001,-85.762666396,49,"409 W GAULBERT AVE APT 10, LOUISVILLE, KY, 40208","Match","Non_Exact","409 W GAULBERT AVE, LOUISVILLE, KY, 40208",96844088,"R"
600050,"409 W GORHAM APT 710","MADISON","WI",53703,NA,NA,50,"409 W GORHAM APT 710, MADISON, WI, 53703","No_Match",NA,NA,NA,NA
600051,"409 W HALLANDALE BEACH BLVD STE209","HALLANDALE","FL",33009,NA,NA,51,"409 W HALLANDALE BEACH BLVD STE209, HALLANDALE, FL, 33009","Tie",NA,NA,NA,NA
600052,"409 W HARRISON","BOZEMAN","MT",59715,45.6701401350001,-111.042648425,52,"409 W HARRISON, BOZEMAN, MT, 59715","Match","Non_Exact","409 W HARRISON ST, BOZEMAN, MT, 59715",163498431,"R"
600053,"409 W LAFAYETTE ST","STURGIS","MI",49091,41.8104682090001,-85.421569532,53,"409 W LAFAYETTE ST, STURGIS, MI, 49091","Match","Exact","409 W LAFAYETTE ST, STURGIS, MI, 49091",15325326,"L"
600054,"409 W LEE ST","FLORENCE","AL",35630,NA,NA,54,"409 W LEE ST, FLORENCE, AL, 35630","Tie",NA,NA,NA,NA
600055,"409 W LOMITA AVE APT 114","GLENDALE","CA",91204,34.1399483070001,-118.26104066,55,"409 W LOMITA AVE APT 114, GLENDALE, CA, 91204","Match","Non_Exact","409 W LOMITA AVE, GLENDALE, CA, 91204",141609917,"R"
600056,"409 W LOULA ST","OLATHE","KS",66061,38.88056235,-94.823245995,56,"409 W LOULA ST, OLATHE, KS, 66061","Match","Exact","409 W LOULA ST, OLATHE, KS, 66061",91282337,"L"
600057,"409 W MAIN ST","SMITHVILLE","TN",37166,35.9609145210001,-85.819495608,57,"409 W MAIN ST, SMITHVILLE, TN, 37166","Match","Exact","409 W MAIN ST, SMITHVILLE, TN, 37166",34196526,"R"
600058,"409 W MARTIN LUTHER KING JR","BRYAN","TX",77802,NA,NA,58,"409 W MARTIN LUTHER KING JR, BRYAN, TX, 77802","No_Match",NA,NA,NA,NA
600059,"409 W MELBOURNE","PEORIA","IL",61604,40.7240333550001,-89.599153325,59,"409 W MELBOURNE, PEORIA, IL, 61604","Match","Non_Exact","409 W MELBOURNE AVE, PEORIA, IL, 61604",8715586,"R"
600060,"409 W NEW YORK","JERSEY CITY","NJ",7307,40.7497060900001,-74.0417032999999,60,"409 W NEW YORK, JERSEY CITY, NJ, 7307","Match","Non_Exact","409 NEW YORK AVE, JERSEY CITY, NJ, 07307",59608281,"L"
600061,"409 W NOLANA AVE","MCALLEN","TX",78504,26.238438838,-98.217541077,61,"409 W NOLANA AVE, MCALLEN, TX, 78504","Match","Exact","409 W NOLANA AVE, MCALLEN, TX, 78504",71494911,"L"
600062,"409 W NOLANA AVENUE","MCALLEN","TX",78504,26.238438838,-98.217541077,62,"409 W NOLANA AVENUE, MCALLEN, TX, 78504","Match","Exact","409 W NOLANA AVE, MCALLEN, TX, 78504",71494911,"L"
600063,"409 W NOLANA","MCALLEN","TX",78504,26.238438838,-98.217541077,63,"409 W NOLANA, MCALLEN, TX, 78504","Match","Non_Exact","409 W NOLANA AVE, MCALLEN, TX, 78504",71494911,"L"
600064,"409 W PLUM ST","COLDWATER","OH",45828,40.4825366160001,-84.632292639,64,"409 W PLUM ST, COLDWATER, OH, 45828","Match","Exact","409 W PLUM ST, COLDWATER, OH, 45828",43086557,"L"
600065,"409 W RITTER STREET","ELLETTSVILLE","IN",47429,39.2313101450001,-86.626248934,65,"409 W RITTER STREET, ELLETTSVILLE, IN, 47429","Match","Exact","409 W RITTER ST, ELLETTSVILLE, IN, 47429",42319737,"L"
600066,"409 W SCHOOL","HAMILTON","MO",64644,39.741315614,-94.0022442109999,66,"409 W SCHOOL, HAMILTON, MO, 64644","Match","Exact","409 W SCHOOL, HAMILTON, MO, 64644",17771707,"L"
600067,"409 W WIGHTMAN","MOBERLY","MO",65270,39.416628873,-92.440572424,67,"409 W WIGHTMAN, MOBERLY, MO, 65270","Match","Exact","409 WIGHTMAN, MOBERLY, MO, 65270",23795342,"R"
600068,"409 WALDEN CT","ROMEOVILLE","IL",60446,41.6646309990001,-88.079558329,68,"409 WALDEN CT, ROMEOVILLE, IL, 60446","Match","Exact","409 WALDEN CT, ROMEOVILLE, IL, 60446",648118304,"R"
600069,"409 WALKER AVE","KANSAS CITY","KS",66101,39.12330265,-94.619566865,69,"409 WALKER AVE, KANSAS CITY, KS, 66101","Match","Exact","409 WALKER AVE, KANSAS CITY, KS, 66101",91151876,"L"
600070,"409 WALNUT CREEK DRIVE","AZLE","TX",76020,32.9130150030001,-97.5479798119999,70,"409 WALNUT CREEK DRIVE, AZLE, TX, 76020","Match","Exact","409 WALNUT CREEK DR, AZLE, TX, 76020",103584947,"L"
600071,"409 WALNUT STREET APT 1","READING","PA",19601,40.3384829010001,-75.929269617,71,"409 WALNUT STREET APT 1, READING, PA, 19601","Match","Exact","409 WALNUT ST, READING, PA, 19601",80445035,"L"
600072,"409 WASHINGTON ST","SANTA CRUZ","CA",95060,36.9691641110001,-122.028397086,72,"409 WASHINGTON ST, SANTA CRUZ, CA, 95060","Match","Exact","409 WASHINGTON ST, SANTA CRUZ, CA, 95060",125506163,"L"
600073,"409 WEAVER","CEDAR HILL","TX",75104,32.58110944,-96.9393588299999,73,"409 WEAVER, CEDAR HILL, TX, 75104","Match","Non_Exact","409 WEAVER ST, CEDAR HILL, TX, 75104",103185844,"R"
600074,"409 WEIR COLE RD","PROSPERITY","PA",15329,40.051792248,-80.249044582,74,"409 WEIR COLE RD, PROSPERITY, PA, 15329","Match","Exact","409 WEIR COLE RD, PROSPERITY, PA, 15329",52824719,"L"
600075,"409 WELLINGTON","FARMINGTON","MO",63640,37.798667788,-90.4259102079999,75,"409 WELLINGTON, FARMINGTON, MO, 63640","Match","Non_Exact","409 WELLINGTON PL, FARMINGTON, MO, 63640",642005603,"L"
600076,"409 WEST 2ND STREET","BROWNSVILLE","TX",78520,25.910140998,-97.508896453,76,"409 WEST 2ND STREET, BROWNSVILLE, TX, 78520","Match","Exact","409 W 2ND ST, BROWNSVILLE, TX, 78520",89964850,"L"
600077,"409 WEST 30TH AVE","COVINGTON","LA",70433,30.484880979,-90.0977788609999,77,"409 WEST 30TH AVE, COVINGTON, LA, 70433","Match","Exact","409 W 30TH AVE, COVINGTON, LA, 70433",111234066,"L"
600078,"409 WEST 65TH STREET","INDIANAPOLIS","IN",46260,39.874937764,-86.1673404379999,78,"409 WEST 65TH STREET, INDIANAPOLIS, IN, 46260","Match","Exact","409 W 65TH ST, INDIANAPOLIS, IN, 46260",107982449,"L"
600079,"409 WEST AVENUE D","COPPERAS COVE","TX",76522,31.125110222,-97.906044504,79,"409 WEST AVENUE D, COPPERAS COVE, TX, 76522","Match","Exact","409 W AVE D, COPPERAS COVE, TX, 76522",146565002,"L"
600080,"409 WEST CORONA AVENUE","PUEBLO","CO",81003,38.2646017870001,-104.623118194,80,"409 WEST CORONA AVENUE, PUEBLO, CO, 81003","Match","Non_Exact","409 W CORONA AVE, PUEBLO, CO, 81004",105025741,"R"
600081,"409 WEST FORNACE STREET","NORRISTOWN","PA",19401,NA,NA,81,"409 WEST FORNACE STREET, NORRISTOWN, PA, 19401","No_Match",NA,NA,NA,NA
600082,"409 WEST GAMBIER STREET","MOUNT VERNON","OH",43050,40.391995165,-82.49044736,82,"409 WEST GAMBIER STREET, MOUNT VERNON, OH, 43050","Match","Exact","409 W GAMBIER ST, MOUNT VERNON, OH, 43050",639969300,"R"
600083,"409 WEST JEFFERSON AVE","GREENWOOD","MS",38930,33.525127061,-90.190902764,83,"409 WEST JEFFERSON AVE, GREENWOOD, MS, 38930","Match","Exact","409 W JEFFERSON AVE, GREENWOOD, MS, 38930",1048218,"R"
600084,"409 WEST LOULA STREET","OLATHE","KS",66061,38.88056235,-94.82324433,84,"409 WEST LOULA STREET, OLATHE, KS, 66061","Match","Exact","409 W LOULA ST, OLATHE, KS, 66061",91282337,"L"
600085,"409 WEST MAIN ST","REMINGTON","VA",22734,38.535082742,-77.812789234,85,"409 WEST MAIN ST, REMINGTON, VA, 22734","Match","Exact","409 W MAIN ST, REMINGTON, VA, 22734",146296198,"R"
600086,"409 WEST MAIN STREET SUITE 101","WASHINGTON","NC",27889,35.544271796,-77.059790407,86,"409 WEST MAIN STREET SUITE 101, WASHINGTON, NC, 27889","Match","Exact","409 W MAIN ST, WASHINGTON, NC, 27889",67953462,"L"
600087,"409 WEST MAIN STREET","WILMOT","OH",44689,40.656776628,-81.6339146289999,87,"409 WEST MAIN STREET, WILMOT, OH, 44689","Match","Exact","409 W MAIN ST, WILMOT, OH, 44689",64670390,"R"
600088,"409 WEST MONTCASTLE DRIVE","GREENSBORO","NC",27405,36.0175977540001,-79.797767541,88,"409 WEST MONTCASTLE DRIVE, GREENSBORO, NC, 27405","Match","Non_Exact","409 W MONTCASTLE DR, GREENSBORO, NC, 27406",131046282,"L"
600089,"409 WEST PINE AVE","FLAGSTAFF","AZ",86001,35.21551348,-111.647292448,89,"409 WEST PINE AVE, FLAGSTAFF, AZ, 86001","Match","Exact","409 W PINE AVE, FLAGSTAFF, AZ, 86001",188860615,"L"
600090,"409 WEST SOUTH ST","BLUFFTON","IN",46714,40.7366449360001,-85.175456878,90,"409 WEST SOUTH ST, BLUFFTON, IN, 46714","Match","Exact","409 W SOUTH ST, BLUFFTON, IN, 46714",6616943,"R"
600091,"409 WEST TENTH AVE","RITZVILLE","WA",99169,47.1197307310001,-118.372905334,91,"409 WEST TENTH AVE, RITZVILLE, WA, 99169","Match","Exact","409 W 10TH AVE, RITZVILLE, WA, 99169",181846179,"R"
600092,"409 WEST VASA AVENUE","FERGUS FALLS","MN",56537,46.277238894,-96.079886082,92,"409 WEST VASA AVENUE, FERGUS FALLS, MN, 56537","Match","Exact","409 W VASA AVE, FERGUS FALLS, MN, 56537",168288942,"R"
600093,"409 WEST WALNUT ST","HILLSBORO","OH",45133,39.2019271460001,-83.619067364,93,"409 WEST WALNUT ST, HILLSBORO, OH, 45133","Match","Exact","409 W WALNUT ST, HILLSBORO, OH, 45133",101062866,"L"
600094,"409 WESTMERE CT","FORT WORTH","TX",76108,32.764212603,-97.489389731,94,"409 WESTMERE CT, FORT WORTH, TX, 76108","Match","Exact","409 WESTMERE CT, FORT WORTH, TX, 76108",102190936,"R"
600095,"409 WESTMERE","FORT WORTH","TX",76108,32.764212603,-97.489389731,95,"409 WESTMERE, FORT WORTH, TX, 76108","Match","Non_Exact","409 WESTMERE CT, FORT WORTH, TX, 76108",102190936,"R"
600096,"409 WESTWOOD","WADSWORTH","OH",44281,41.0180844330001,-81.7436231839999,96,"409 WESTWOOD, WADSWORTH, OH, 44281","Match","Non_Exact","409 WESTWOOD AVE, WADSWORTH, OH, 44281",58678822,"R"
600097,"409 WHEATON PL APT 2A","CATONSVILLE","MD",21228,39.279291422,-76.7321359599999,97,"409 WHEATON PL APT 2A, CATONSVILLE, MD, 21228","Match","Exact","409 WHEATON PL, CATONSVILLE, MD, 21228",191484374,"R"
600098,"409 WHISPERFIELD","MURPHY","TX",75094,33.0371024940001,-96.620601004,98,"409 WHISPERFIELD, MURPHY, TX, 75094","Match","Non_Exact","409 WHISPERFIELD DR, MURPHY, TX, 75094",614183267,"R"
600099,"409 WHITNEY AVENUE","PITTSBURGH","PA",15221,40.4373209980001,-79.889704098,99,"409 WHITNEY AVENUE, PITTSBURGH, PA, 15221","Match","Exact","409 WHITNEY AVE, PITTSBURGH, PA, 15221",51653378,"L"
600100,"409 WILLOW ST","LAKEHURST","NJ",8733,40.0170924760001,-74.3199918669999,100,"409 WILLOW ST, LAKEHURST, NJ, 8733","Match","Exact","409 WILLOW ST, LAKEHURST, NJ, 08733",203720436,"R"
600101,"409 WILSHIRE DR E","WILMETTE","IL",60091,42.070576611,-87.7381611329999,101,"409 WILSHIRE DR E, WILMETTE, IL, 60091","Match","Exact","409 WILSHIRE DR E, WILMETTE, IL, 60091",111738818,"L"
600102,"409 WILSON CT","JASPER","TN",37347,35.0753304840001,-85.63277483,102,"409 WILSON CT, JASPER, TN, 37347","Match","Exact","409 WILSON CT, JASPER, TN, 37347",643358296,"L"
600103,"409 WINDEMERE ROAD","CLARKSVILLE","IN",47129,38.3048153070001,-85.765459987,103,"409 WINDEMERE ROAD, CLARKSVILLE, IN, 47129","Match","Exact","409 WINDEMERE RD, CLARKSVILLE, IN, 47129",64877554,"L"
600104,"409 WINDSONG LANE","WEST","TX",76691,31.7663665920001,-97.127841739,104,"409 WINDSONG LANE, WEST, TX, 76691","Match","Exact","409 WINDSONG LN, WEST, TX, 76691",146766677,"L"
600105,"409 WINDY KNOLL DR","MURPHY","TX",75094,33.0298121910001,-96.604236782,105,"409 WINDY KNOLL DR, MURPHY, TX, 75094","Match","Exact","409 WINDY KNOLL DR, MURPHY, TX, 75094",642951782,"L"
600106,"409 WISCONSIN AVE","RICE LAKE","WI",54868,45.4957651340001,-91.745382346,106,"409 WISCONSIN AVE, RICE LAKE, WI, 54868","Match","Non_Exact","409 S WISCONSIN AVE, RICE LAKE, WI, 54868",126283189,"R"
600107,"409 WISE FERRY ROAD","LEXINGTON","SC",29072,33.9986710860001,-81.2889623999999,107,"409 WISE FERRY ROAD, LEXINGTON, SC, 29072","Match","Exact","409 WISE FERRY RD, LEXINGTON, SC, 29072",635590914,"L"
600108,"409 WOOD ST","ODIN","IL",62870,NA,NA,108,"409 WOOD ST, ODIN, IL, 62870","Tie",NA,NA,NA,NA
600109,"409 WOODBINE CIRCLE","NORMAN","OK",73072,35.223074388,-97.497151071,109,"409 WOODBINE CIRCLE, NORMAN, OK, 73072","Match","Exact","409 WOODBINE CIR, NORMAN, OK, 73072",99907261,"R"
600110,"409 WOODLAWN","GLENCOE","IL",60022,42.1220537390001,-87.751993188,110,"409 WOODLAWN, GLENCOE, IL, 60022","Match","Non_Exact","409 WOODLAWN AVE, GLENCOE, IL, 60022",111737426,"R"
600111,"409 WYANDANCH AVENUE UNIT 34","WEST BABYLON","NY",11704,40.7417037810001,-73.351718284,111,"409 WYANDANCH AVENUE UNIT 34, WEST BABYLON, NY, 11704","Match","Exact","409 WYANDANCH AVE, WEST BABYLON, NY, 11704",642662448,"L"
600112,"409 YORKTOWN DRIVE","PERRY","GA",31069,32.4824435100001,-83.716988702,112,"409 YORKTOWN DRIVE, PERRY, GA, 31069","Match","Exact","409 YORKTOWN DR, PERRY, GA, 31069",629433093,"L"
600113,"409 YOUNG STREET","HENDERSON","NC",27536,36.3303516400001,-78.404508811,113,"409 YOUNG STREET, HENDERSON, NC, 27536","Match","Exact","409 YOUNG ST, HENDERSON, NC, 27536",90270973,"L"
600114,"409-15 E 95TH STREET","BROOKLYN","NY",11203,NA,NA,114,"409-15 E 95TH STREET, BROOKLYN, NY, 11203","Tie",NA,NA,NA,NA
600115,"4090 APRICOT ROAD","SIMI VALLEY","CA",93063,34.2807586690001,-118.714940456,115,"4090 APRICOT ROAD, SIMI VALLEY, CA, 93063","Match","Exact","4090 APRICOT RD, SIMI VALLEY, CA, 93063",109979331,"R"
600116,"4090 CARMEN RD","MIDDLE PORT","NY",14105,43.210965888,-78.490337699,116,"4090 CARMEN RD, MIDDLE PORT, NY, 14105","Match","Non_Exact","4090 S CARMEN RD, MIDDLEPORT, NY, 14105",48683231,"L"
600117,"4090 CEDAR RIDGE RD","POWDER SPRINGS","GA",30127,33.869369724,-84.674108412,117,"4090 CEDAR RIDGE RD, POWDER SPRINGS, GA, 30127","Match","Exact","4090 CEDAR RIDGE RD, POWDER SPGS, GA, 30127",17172536,"R"
600118,"4090 FOREST HILL ROAD","OLIVE BRANCH","MS",38654,34.919559732,-89.7640064669999,118,"4090 FOREST HILL ROAD, OLIVE BRANCH, MS, 38654","Match","Non_Exact","4090 FOREST HILL RD S, OLIVE BRANCH, MS, 38654",91853944,"R"
600119,"4090 GEDDES RD","ANN ARBOR","MI",48105,42.274576734,-83.6805376149999,119,"4090 GEDDES RD, ANN ARBOR, MI, 48105","Match","Exact","4090 GEDDES RD, ANN ARBOR, MI, 48105",26016843,"R"
600120,"4090 GREENWOOD RD","PETOSKEY","MI",49770,45.348344539,-84.892018456,120,"4090 GREENWOOD RD, PETOSKEY, MI, 49770","Match","Exact","4090 GREENWOOD RD, PETOSKEY, MI, 49770",133996429,"R"
600121,"4090 HIGHWAY 566","MAGNOLIA","KY",42757,37.3800309120001,-85.6538962119999,121,"4090 HIGHWAY 566, MAGNOLIA, KY, 42757","Match","Non_Exact","4090 STATE HWY 566, MAGNOLIA, KY, 42757",69317512,"L"
600122,"4090 HODGES BLVD 2814","JACKSONVILLE","FL",32224,30.268514645,-81.46431947,122,"4090 HODGES BLVD 2814, JACKSONVILLE, FL, 32224","Match","Exact","4090 HODGES BLVD, JACKSONVILLE, FL, 32224",614096513,"L"
600123,"4090 KALEIGH CT","MISSOULA","MT",59801,46.807729883,-114.053525312,123,"4090 KALEIGH CT, MISSOULA, MT, 59801","Match","Non_Exact","4090 KALEIGH CT, MISSOULA, MT, 59803",205271659,"L"
600124,"4090 LITTLE RD","CASS CITY","MI",48726,43.548215951,-83.266712281,124,"4090 LITTLE RD, CASS CITY, MI, 48726","Match","Exact","4090 LITTLE RD, CASS CITY, MI, 48726",81259080,"R"
600125,"4090 LIVSEY RD","TUCKER","GA",30084,33.8692029870001,-84.221440029,125,"4090 LIVSEY RD, TUCKER, GA, 30084","Match","Exact","4090 LIVSEY RD, TUCKER, GA, 30084",23389022,"L"
600126,"4090 LIVSEY ROAD","TUCKER","GA",30084,33.8692029870001,-84.221440029,126,"4090 LIVSEY ROAD, TUCKER, GA, 30084","Match","Exact","4090 LIVSEY RD, TUCKER, GA, 30084",23389022,"L"
600127,"4090 LONGRIDGE DRIVE","MARIETTA","GA",30066,NA,NA,127,"4090 LONGRIDGE DRIVE, MARIETTA, GA, 30066","No_Match",NA,NA,NA,NA
600128,"4090 NW 91ST TERRACE","SUNRISE","FL",33351,26.174914959,-80.272152831,128,"4090 NW 91ST TERRACE, SUNRISE, FL, 33351","Match","Exact","4090 NW 91ST TER, SUNRISE, FL, 33351",114784613,"R"
600129,"4090 OAKBROOKE ALCOVE","EAGAN","MN",55122,44.808495813,-93.178103205,129,"4090 OAKBROOKE ALCOVE, EAGAN, MN, 55122","Match","Exact","4090 OAKBROOKE ALCOVE, EAGAN, MN, 55122",631765554,"R"
600130,"4090 OTTERVILLE ROAD","BEDFORD","VA",24523,37.418605949,-79.4402629969999,130,"4090 OTTERVILLE ROAD, BEDFORD, VA, 24523","Match","Exact","4090 OTTERVILLE RD, BEDFORD, VA, 24523",228430888,"R"
600131,"4090 PONDEROSA","TRENTON","MI",48183,42.1313596780001,-83.205442368,131,"4090 PONDEROSA, TRENTON, MI, 48183","Match","Non_Exact","4090 PONDEROSA ST, TRENTON, MI, 48183",95505695,"R"
600132,"4090 S JEFFERSON PT","HOMOSASSA","FL",34448,28.802060463,-82.597804465,132,"4090 S JEFFERSON PT, HOMOSASSA, FL, 34448","Match","Exact","4090 S JEFFERSON PT, HOMOSASSA, FL, 34448",86198899,"L"
600133,"4090 SAGEBRUSH FLATS RD NW","EPHRATA","WA",98823,47.350856003,-119.636257336,133,"4090 SAGEBRUSH FLATS RD NW, EPHRATA, WA, 98823","Match","Non_Exact","4090 SAGEBRUSH FLATS RD, EPHRATA, WA, 98823",636509776,"L"
600134,"4090 SAGEBRUSH FLATS RD","EPHRATA","WA",98823,47.350856003,-119.636257336,134,"4090 SAGEBRUSH FLATS RD, EPHRATA, WA, 98823","Match","Exact","4090 SAGEBRUSH FLATS RD, EPHRATA, WA, 98823",636509776,"L"
600135,"4090 SNAFFLE BIT RD","LEBANON","IN",46052,39.979414703,-86.4055094139999,135,"4090 SNAFFLE BIT RD, LEBANON, IN, 46052","Match","Exact","4090 SNAFFLE BIT RD, LEBANON, IN, 46052",29260527,"R"
600136,"4090 SPENCER ROAD","ROCKY RIVER","OH",44116,41.4505873370001,-81.8640636969999,136,"4090 SPENCER ROAD, ROCKY RIVER, OH, 44116","Match","Exact","4090 SPENCER RD, ROCKY RIVER, OH, 44116",61098252,"R"
600137,"4090 SW 177TH AVENUE UNIT 77","BEAVERTON","OR",97028,NA,NA,137,"4090 SW 177TH AVENUE UNIT 77, BEAVERTON, OR, 97028","No_Match",NA,NA,NA,NA
600138,"4090 W COUNTY ROAD 700 S","MUNCIE","IN",47302,NA,NA,138,"4090 W COUNTY ROAD 700 S, MUNCIE, IN, 47302","No_Match",NA,NA,NA,NA
600139,"4090 W LAS POSITAS","PLEASANTON","CA",94588,37.6922206180001,-121.872257682,139,"4090 W LAS POSITAS, PLEASANTON, CA, 94588","Match","Non_Exact","4090 W LAS POSITAS BLVD, PLEASANTON, CA, 94588",605995443,"R"
600140,"4090 W OUTER DRIVE","DETROIT","MI",48221,42.434918651,-83.164084055,140,"4090 W OUTER DRIVE, DETROIT, MI, 48221","Match","Exact","4090 W OUTER DR, DETROIT, MI, 48221",95425193,"R"
600141,"4090 WASHINGTON DRIVE","MARTINSVILLE","IN",46151,39.40591772,-86.504130388,141,"4090 WASHINGTON DRIVE, MARTINSVILLE, IN, 46151","Match","Exact","4090 WASHINGTON DR, MARTINSVILLE, IN, 46151",43544993,"L"
600142,"4090 WILD SONNET TRAIL","NORCROSS","GA",30092,33.986004947,-84.227498813,142,"4090 WILD SONNET TRAIL, NORCROSS, GA, 30092","Match","Non_Exact","4090 WILD SONNET TRL NW, NORCROSS, GA, 30092",88915980,"L"
600143,"40900 SKYLINE DRIVE","SWEET HOME","OR",97386,44.434875162,-122.762204714,143,"40900 SKYLINE DRIVE, SWEET HOME, OR, 97386","Match","Exact","40900 SKYLINE DR, SWEET HOME, OR, 97386",156044724,"R"
600144,"40901 ARRON CT","MURRIETA","CA",92562,33.5878574880001,-117.226909914,144,"40901 ARRON CT, MURRIETA, CA, 92562","Match","Exact","40901 ARRON CT, MURRIETA, CA, 92562",195079860,"L"
600145,"40902 N 94TH STREET","SCOTTSDALE","AZ",85262,33.8579214420001,-111.877573519,145,"40902 N 94TH STREET, SCOTTSDALE, AZ, 85262","Match","Exact","40902 N 94TH ST, SCOTTSDALE, AZ, 85262",243983222,"L"
600146,"40902 WEST OSBORN ROAD-1","TONOPAH","AZ",85354,33.4864344630001,-112.931730679,146,"40902 WEST OSBORN ROAD-1, TONOPAH, AZ, 85354","Match","Non_Exact","40902 W OSBORN RD, TONOPAH, AZ, 85354",128118932,"L"
600147,"40903 NE CEDAR RIDGE RD","AMBOY","WA",98601,45.917651978,-122.476271371,147,"40903 NE CEDAR RIDGE RD, AMBOY, WA, 98601","Match","Exact","40903 NE CEDAR RIDGE RD, AMBOY, WA, 98601",158365315,"L"
600148,"4091 17TH ST NW","GARRISON","ND",58540,47.6612110550001,-101.418445776,148,"4091 17TH ST NW, GARRISON, ND, 58540","Match","Exact","4091 17TH ST NW, GARRISON, ND, 58540",198942531,"R"
600149,"4091 39TH STREET UNIT 341","SAN DIEGO","CA",92105,32.751243968,-117.110606444,149,"4091 39TH STREET UNIT 341, SAN DIEGO, CA, 92105","Match","Exact","4091 39TH ST, SAN DIEGO, CA, 92105",195346761,"R"
600150,"4091 AMBERFIELD CIRCLE","PEACHTREE CORNERS","GA",30092,33.9827983550001,-84.221806171,150,"4091 AMBERFIELD CIRCLE, PEACHTREE CORNERS, GA, 30092","Match","Non_Exact","4091 AMBERFIELD CIR NW, PEACHTREE CORNERS, GA, 30092",88915984,"R"
600151,"4091 BARBERS POINTE","NEW HAVEN","IN",46774,41.04891759,-85.024539541,151,"4091 BARBERS POINTE, NEW HAVEN, IN, 46774","Match","Exact","4091 BARBERS POINTE, NEW HAVEN, IN, 46774",606527647,"L"
600152,"4091 BONITA VIEW DR","BONITA","CA",91902,32.6664377340001,-117.018827405,152,"4091 BONITA VIEW DR, BONITA, CA, 91902","Match","Exact","4091 BONITA VIEW DR, BONITA, CA, 91902",195361735,"L"
600153,"4091 C-L SCHOOL ROAD","STRATTANVILLE","PA",16258,41.184830011,-79.2756675109999,153,"4091 C-L SCHOOL ROAD, STRATTANVILLE, PA, 16258","Match","Non_Exact","4091 C L SCHOOL RD, STRATTANVILLE, PA, 16258",66232493,"L"
600154,"4091 CD BANKS 207","SAINT LOUIS","MO",63113,NA,NA,154,"4091 CD BANKS 207, SAINT LOUIS, MO, 63113","No_Match",NA,NA,NA,NA
600155,"4091 CD BANKS APT 207","ST LOUIS","MO",63113,38.6480862290001,-90.239824066,155,"4091 CD BANKS APT 207, ST LOUIS, MO, 63113","Match","Non_Exact","4091 C D BANKS AVE, SAINT LOUIS, MO, 63113",107596881,"R"
600156,"4091 CLOUD SPRINGS RD","RINGGOLD","GA",30736,NA,NA,156,"4091 CLOUD SPRINGS RD, RINGGOLD, GA, 30736","No_Match",NA,NA,NA,NA
600157,"4091 CLYDE COURT","SACRAMENTO","CA",95819,38.5825703890001,-121.444853754,157,"4091 CLYDE COURT, SACRAMENTO, CA, 95819","Match","Exact","4091 CLYDE CT, SACRAMENTO, CA, 95819",133334620,"L"
600158,"4091 COCONUT BLVD","WEST PALM BEACH","FL",33414,26.737310096,-80.239966825,158,"4091 COCONUT BLVD, WEST PALM BEACH, FL, 33414","Match","Non_Exact","4091 COCONUT BLVD, WEST PALM BEACH, FL, 33411",115535468,"L"
600159,"4091 CORTONA COURT","SAN JOSE","CA",95135,37.311020651,-121.768075186,159,"4091 CORTONA COURT, SAN JOSE, CA, 95135","Match","Exact","4091 CORTONA CT, SAN JOSE, CA, 95135",123171190,"R"
600160,"4091 DYE ROAD","EDGEMOOR","SC",29712,34.817317325,-80.994552117,160,"4091 DYE ROAD, EDGEMOOR, SC, 29712","Match","Exact","4091 DYE RD, EDGEMOOR, SC, 29712",40558319,"R"
600161,"4091 E 106TH STREET","CLEVELAND","OH",44105,41.447144822,-81.610971594,161,"4091 E 106TH STREET, CLEVELAND, OH, 44105","Match","Exact","4091 E 106TH ST, CLEVELAND, OH, 44105",61126341,"L"
600162,"4091 FAIRWAY DRIVE","LEWISTON","ID",83501,46.3695545890001,-117.041699429,162,"4091 FAIRWAY DRIVE, LEWISTON, ID, 83501","Match","Exact","4091 FAIRWAY DR, LEWISTON, ID, 83501",173150696,"R"
600163,"4091 LAUREL RIDGE TRAIL","SMYRNA","GA",30080,33.8540737590001,-84.502425686,163,"4091 LAUREL RIDGE TRAIL, SMYRNA, GA, 30080","Match","Exact","4091 LAUREL RIDGE TRL, SMYRNA, GA, 30080",17181979,"L"
600164,"4091 MARION JOHNSON","ALBANY","OH",45710,39.2589316630001,-82.172431481,164,"4091 MARION JOHNSON, ALBANY, OH, 45710","Match","Non_Exact","4091 MARION JOHNSON RD, ALBANY, OH, 45710",635532698,"L"
600165,"4091 MILLWOOD LANE","MILLBROOK","AL",36054,32.4893898660001,-86.3766173989999,165,"4091 MILLWOOD LANE, MILLBROOK, AL, 36054","Match","Exact","4091 MILLWOOD LN, MILLBROOK, AL, 36054",635633908,"R"
600166,"4091 N FOXCLIFF DR E","MARTINSVILLE","IN",46151,39.4869269710001,-86.3880197519999,166,"4091 N FOXCLIFF DR E, MARTINSVILLE, IN, 46151","Match","Exact","4091 N FOXCLIFF DR E, MARTINSVILLE, IN, 46151",43545617,"R"
600167,"4091 OLD LIGHT CIRCLE","ARLINGTON","TN",37014,NA,NA,167,"4091 OLD LIGHT CIRCLE, ARLINGTON, TN, 37014","No_Match",NA,NA,NA,NA
600168,"4091 PRESERVE TRAIL","SNELLVILLE","GA",30039,33.7838260940001,-84.0301375939999,168,"4091 PRESERVE TRAIL, SNELLVILLE, GA, 30039","Match","Exact","4091 PRESERVE TRL, SNELLVILLE, GA, 30039",628098922,"L"
600169,"4091 REEMELIN R0AD","CINCINNATI","OH",45211,39.1733620960001,-84.616499215,169,"4091 REEMELIN R0AD, CINCINNATI, OH, 45211","Match","Non_Exact","4091 REEMELIN RD, CINCINNATI, OH, 45211",103916321,"L"
600170,"4091 RUSTY PINE LANE","LIVERPOOL","NY",13090,43.1733526020001,-76.229459334,170,"4091 RUSTY PINE LANE, LIVERPOOL, NY, 13090","Match","Exact","4091 RUSTY PINE LN, LIVERPOOL, NY, 13090",653449304,"R"
600171,"4091 S SPLENDOR WAY","SALT LAKE CITY","UT",84124,40.683212675,-111.798794927,171,"4091 S SPLENDOR WAY, SALT LAKE CITY, UT, 84124","Match","Exact","4091 SPLENDOR WAY, SALT LAKE CITY, UT, 84124",176102276,"L"
600172,"4091 SUNSET DRIVE","MEDINA","OH",44256,41.162857139,-81.833163831,172,"4091 SUNSET DRIVE, MEDINA, OH, 44256","Match","Exact","4091 SUNSET DR, MEDINA, OH, 44256",58689931,"R"
600173,"4091 W 3800 S","WEST VALLEY CITY","UT",84120,40.6893006280001,-111.989061472,173,"4091 W 3800 S, WEST VALLEY CITY, UT, 84120","Match","Exact","4091 W 3800 S, WEST VALLEY CITY, UT, 84120",176118732,"L"
600174,"4091 W 93RD AVENUE UNIT 1633","WESTMINSTER","CO",80031,NA,NA,174,"4091 W 93RD AVENUE UNIT 1633, WESTMINSTER, CO, 80031","No_Match",NA,NA,NA,NA
600175,"4091 W 93RD AVEUNE UNIT 1633","WESTMINSTER","CO",80031,NA,NA,175,"4091 W 93RD AVEUNE UNIT 1633, WESTMINSTER, CO, 80031","No_Match",NA,NA,NA,NA
600176,"4091 W LAKE ECHO RD","TUCSON","AZ",85742,32.381365524,-111.05300423,176,"4091 W LAKE ECHO RD, TUCSON, AZ, 85742","Match","Exact","4091 W LAKE ECHO RD, TUCSON, AZ, 85742",121384465,"R"
600177,"4091 WILSHIRE DRIVE","YORK","PA",17402,39.9765071630001,-76.6319026689999,177,"4091 WILSHIRE DRIVE, YORK, PA, 17402","Match","Exact","4091 WILSHIRE DR, YORK, PA, 17402",88734246,"L"
600178,"40910 NORTH PERRY ROAD","DEER PARK","WA",99006,48.0265592750001,-117.392969255,178,"40910 NORTH PERRY ROAD, DEER PARK, WA, 99006","Match","Exact","40910 N PERRY RD, DEER PARK, WA, 99006",189847356,"R"
600179,"40911 N CONGRESSIONAL DR","ANTHEM","AZ",85086,33.8560941920001,-112.104136183,179,"40911 N CONGRESSIONAL DR, ANTHEM, AZ, 85086","Match","Exact","40911 N CONGRESSIONAL DR, ANTHEM, AZ, 85086",243983217,"R"
600180,"40916 179TH ST","LANCASTER","CA",93535,34.6255340550001,-117.810522124,180,"40916 179TH ST, LANCASTER, CA, 93535","Match","Non_Exact","40916 179TH ST E, LANCASTER, CA, 93535",141819055,"L"
600181,"40917 OAKGROVE COURT","LANCASTER","CA",93551,34.6259674460001,-118.21948947,181,"40917 OAKGROVE COURT, LANCASTER, CA, 93551","Match","Non_Exact","40917 OAKGROVE CT, CITY RANCH, CA, 93551",241213245,"L"
600182,"4092 38TH WAY SOUTH","ST PETERSBURG","FL",33711,27.7314784500001,-82.6854700229999,182,"4092 38TH WAY SOUTH, ST PETERSBURG, FL, 33711","Match","Exact","4092 38TH WAY S, SAINT PETERSBURG, FL, 33711",124709928,"L"
600183,"4092 AGUA FRIA","SANTA FE","NM",87507,35.6543183910001,-106.024367981,183,"4092 AGUA FRIA, SANTA FE, NM, 87507","Match","Non_Exact","4092 AGUA FRIA ST, SANTA FE, NM, 87507",637549062,"R"
600184,"4092 BAYSHORE ROAD","OCEAN CITY","NJ",8204,38.9499724180001,-74.9376190259999,184,"4092 BAYSHORE ROAD, OCEAN CITY, NJ, 8204","Match","Non_Exact","4092 BAYSHORE RD, CAPE MAY, NJ, 08204",174330424,"L"
600185,"4092 BINGHAM ST","DEARBORN","MI",48126,42.317726142,-83.173442305,185,"4092 BINGHAM ST, DEARBORN, MI, 48126","Match","Exact","4092 BINGHAM ST, DEARBORN, MI, 48126",95444597,"R"
600186,"4092 CAMERON LANE","CHAPEL HILL","TN",37034,NA,NA,186,"4092 CAMERON LANE, CHAPEL HILL, TN, 37034","No_Match",NA,NA,NA,NA
600187,"4092 CREEK RUN CIRCLE","BUFURD","GA",30519,34.1114810650001,-83.959126595,187,"4092 CREEK RUN CIRCLE, BUFURD, GA, 30519","Match","Non_Exact","4092 CREEKRUN CIR NE, BUFORD, GA, 30519",623813761,"L"
600188,"4092 FREW MILL ROAD","PORTERSVILLE","PA",16051,40.996781174,-80.182044842,188,"4092 FREW MILL ROAD, PORTERSVILLE, PA, 16051","Match","Exact","4092 FREW MILL RD, PORTERSVILLE, PA, 16051",65189895,"R"
600189,"4092 HARGIS STREET","LOS ANGELES","CA",90034,NA,NA,189,"4092 HARGIS STREET, LOS ANGELES, CA, 90034","No_Match",NA,NA,NA,NA
600190,"4092 II ROAD","GARDEN","MI",49835,45.6926725750001,-86.66761743,190,"4092 II ROAD, GARDEN, MI, 49835","Match","Exact","4092 II RD, GARDEN, MI, 49835",607233529,"R"
600191,"4092 INDIAN CAMP TRAIL","HOWELL","MI",48855,42.661490498,-83.9746592499999,191,"4092 INDIAN CAMP TRAIL, HOWELL, MI, 48855","Match","Exact","4092 INDIAN CAMP TRL, HOWELL, MI, 48855",23540185,"R"
600192,"4092 KENESAW DR","LEXINGTON","KY",40515,37.9546517850001,-84.486966126,192,"4092 KENESAW DR, LEXINGTON, KY, 40515","Match","Exact","4092 KENESAW DR, LEXINGTON, KY, 40515",31943395,"L"
600193,"4092 LOCERBIE CIRCLE","SPRING HILL","TN",37174,35.75492953,-86.8727255919999,193,"4092 LOCERBIE CIRCLE, SPRING HILL, TN, 37174","Match","Exact","4092 LOCERBIE CIR, SPRING HILL, TN, 37174",625628867,"R"
600194,"4092 LONG POINT BLVD","PORTSMOUTH","VA",23703,36.888666243,-76.403471203,194,"4092 LONG POINT BLVD, PORTSMOUTH, VA, 23703","Match","Exact","4092 LONG POINT BLVD, PORTSMOUTH, VA, 23703",122197706,"L"
600195,"4092 MAIN ST","CHINCOTEAGUE","VA",23336,37.9342258550001,-75.376605306,195,"4092 MAIN ST, CHINCOTEAGUE, VA, 23336","Match","Exact","4092 MAIN ST, CHINCOTEAGUE, VA, 23336",114571465,"R"
600196,"4092 N 6TH STREET","MILWAUKEE","WI",53212,43.0913237130001,-87.918352923,196,"4092 N 6TH STREET, MILWAUKEE, WI, 53212","Match","Exact","4092 N 6TH ST, MILWAUKEE, WI, 53212",77738906,"R"
600197,"4092 RANGER DR","NORTHWOOD","OH",43619,41.603368457,-83.4528770909999,197,"4092 RANGER DR, NORTHWOOD, OH, 43619","Match","Exact","4092 RANGER DR, NORTHWOOD, OH, 43619",38738294,"R"
600198,"4092 SHADYWOOD LANE","WARRENSVILLE HTS","OH",44128,41.4482272970001,-81.5450766929999,198,"4092 SHADYWOOD LANE, WARRENSVILLE HTS, OH, 44128","Match","Non_Exact","4092 SHADYWOOD LN, WARRENSVILLE HEIGHTS, OH, 44122",61129065,"R"
600199,"4092 TREAT BLVD","CONCORD","CA",94518,37.952527751,-122.004792602,199,"4092 TREAT BLVD, CONCORD, CA, 94518","Match","Exact","4092 TREAT BLVD, CONCORD, CA, 94518",635935952,"R"
600200,"4092 W CARPENTER ROAD","FLINT","MI",48504,43.075331836,-83.757422148,200,"4092 W CARPENTER ROAD, FLINT, MI, 48504","Match","Exact","4092 W CARPENTER RD, FLINT, MI, 48504",628727931,"R"
600201,"4092 WEDGE DRIVE","PFAFFTOWN","NC",27040,36.169611956,-80.34679665,201,"4092 WEDGE DRIVE, PFAFFTOWN, NC, 27040","Match","Exact","4092 WEDGE DR, PFAFFTOWN, NC, 27040",84645692,"L"
600202,"40920 255 AVE","CHARITON","IA",50049,40.909817047,-93.259651407,202,"40920 255 AVE, CHARITON, IA, 50049","Match","Exact","40920 255TH AVE, CHARITON, IA, 50049",83733093,"L"
600203,"40920 FOREST GLEN DRIVE","LEESBURG","VA",20175,39.0053600460001,-77.591039768,203,"40920 FOREST GLEN DRIVE, LEESBURG, VA, 20175","Match","Exact","40920 FOREST GLEN DR, LEESBURG, VA, 20175",62339012,"R"
600204,"40924 FIELDSPRING ST","LAKE LOS ANGELES","CA",93535,34.6264379030001,-117.834668409,204,"40924 FIELDSPRING ST, LAKE LOS ANGELES, CA, 93535","Match","Exact","40924 FIELDSPRING ST, LAKE LOS ANGELES, CA, 93535",141843969,"L"
600205,"40925 LAKESHORE RD","ELK","WA",99009,48.0281140060001,-117.373871188,205,"40925 LAKESHORE RD, ELK, WA, 99009","Match","Non_Exact","40925 N LAKE SHORE RD, ELK, WA, 99009",189847511,"L"
600206,"40928 COUNTY RD 27","AULT","CO",80610,40.595344051,-104.811410356,206,"40928 COUNTY RD 27, AULT, CO, 80610","Match","Exact","40928 CO RD 27, AULT, CO, 80610",647465841,"R"
600207,"40928 N MAJESTY WAY","ANTHEM","AZ",85086,33.856226113,-112.121148967,207,"40928 N MAJESTY WAY, ANTHEM, AZ, 85086","Match","Exact","40928 N MAJESTY WAY, ANTHEM, AZ, 85086",128856474,"L"
600208,"4093 BAYCHESTER AVENUE","BRONX","NY",10466,40.892545522,-73.843522503,208,"4093 BAYCHESTER AVENUE, BRONX, NY, 10466","Match","Exact","4093 BAYCHESTER AVE, BRONX, NY, 10466",80297703,"L"
600209,"4093 BEDFORD AVE","BROOKLYN","NY",11229,40.601985353,-73.947015226,209,"4093 BEDFORD AVE, BROOKLYN, NY, 11229","Match","Exact","4093 BEDFORD AVE, BROOKLYN, NY, 11229",59090225,"L"
600210,"4093 BIG HILL ROAD","LIBERTY","TN",37095,35.898122432,-85.961853918,210,"4093 BIG HILL ROAD, LIBERTY, TN, 37095","Match","Exact","4093 BIG HILL RD, LIBERTY, TN, 37095",612058363,"R"
600211,"4093 COMMERCIAL ST SE STE 130","SALEM","OR",97302,44.8976311700001,-123.037934688,211,"4093 COMMERCIAL ST SE STE 130, SALEM, OR, 97302","Match","Exact","4093 COMMERCIAL ST SE, SALEM, OR, 97302",649947323,"R"
600212,"4093 DEL LAGO","FLORISSANT","MO",63034,38.832773477,-90.306666591,212,"4093 DEL LAGO, FLORISSANT, MO, 63034","Match","Non_Exact","4093 DEL LAGO DR, FLORISSANT, MO, 63034",100180378,"L"
600213,"4093 DOLLY TOM DRIVE","MILAN","TN",38358,35.90509272,-88.7665660069999,213,"4093 DOLLY TOM DRIVE, MILAN, TN, 38358","Match","Exact","4093 DOLLY TOM DR, MILAN, TN, 38358",40813081,"L"
600214,"4093 EAST 154 STREET","CLEVELAND","OH",44128,41.4483546450001,-81.5732930039999,214,"4093 EAST 154 STREET, CLEVELAND, OH, 44128","Match","Exact","4093 E 154TH ST, CLEVELAND, OH, 44128",61127461,"L"
600215,"4093 ELAINE PARK DR","COLUMBUS","OH",43227,39.9379849700001,-82.885135519,215,"4093 ELAINE PARK DR, COLUMBUS, OH, 43227","Match","Exact","4093 ELAINE PARK DR, COLUMBUS, OH, 43227",218636909,"R"
600216,"4093 LANDON COURT","HOWELL","MI",48843,42.6173000950001,-83.8716353409999,216,"4093 LANDON COURT, HOWELL, MI, 48843","Match","Exact","4093 LANDON CT, HOWELL, MI, 48843",619586072,"L"
600217,"4093 MARTY STREET","MEMPHIS","TN",38109,35.036385141,-90.05965973,217,"4093 MARTY STREET, MEMPHIS, TN, 38109","Match","Exact","4093 MARTY ST, MEMPHIS, TN, 38109",72909514,"R"
600218,"4093 NATIONAL PIKE","GRANTSVILLE","MD",21536,39.6946611720001,-79.2460485519999,218,"4093 NATIONAL PIKE, GRANTSVILLE, MD, 21536","Match","Exact","4093 NATIONAL PIKE, GRANTSVILLE, MD, 21536",74195117,"L"
600219,"4093 OPOSSUM RD","GERMANTOWN","KY",41044,NA,NA,219,"4093 OPOSSUM RD, GERMANTOWN, KY, 41044","No_Match",NA,NA,NA,NA
600220,"4093 PR 1195","BAIRD","TX",79504,NA,NA,220,"4093 PR 1195, BAIRD, TX, 79504","No_Match",NA,NA,NA,NA
600221,"4093 WEST BELLE PLACE","SAINT LOUIS","MO",63108,38.6472635650001,-90.240460313,221,"4093 WEST BELLE PLACE, SAINT LOUIS, MO, 63108","Match","Exact","4093 W BELLE PL, SAINT LOUIS, MO, 63108",107596883,"R"
600222,"40930 RIOJA CT","FREMONT","CA",94539,37.5411187930001,-121.952047899,222,"40930 RIOJA CT, FREMONT, CA, 94539","Match","Exact","40930 RIOJA CT, FREMONT, CA, 94539",125042429,"L"
600223,"40932 CANTO PL","FREMONT","CA",94539,37.545789373,-121.947697969,223,"40932 CANTO PL, FREMONT, CA, 94539","Match","Exact","40932 CANTO PL, FREMONT, CA, 94539",125033258,"L"
600224,"40938 W CHAMBERS DR","MARICOPA","AZ",85138,NA,NA,224,"40938 W CHAMBERS DR, MARICOPA, AZ, 85138","Tie",NA,NA,NA,NA
600225,"40939 16TH STREET WEST","PALMDALE","CA",93551,34.626240318,-118.158745525,225,"40939 16TH STREET WEST, PALMDALE, CA, 93551","Match","Exact","40939 16TH ST W, PALMDALE, CA, 93551",141527158,"R"
600226,"4094 290TH AVENUE","LANCASTER","MN",56735,48.9915600210001,-96.824255314,226,"4094 290TH AVENUE, LANCASTER, MN, 56735","Match","Exact","4094 290TH AVE, LANCASTER, MN, 56735",196042855,"L"
600227,"4094 BANBURY PLACE","SWANSEA","IL",62226,38.557556951,-89.971925789,227,"4094 BANBURY PLACE, SWANSEA, IL, 62226","Match","Exact","4094 BANBURY PL, SWANSEA, IL, 62226",107881936,"L"
600228,"4094 CENTERVILLE-NEWMANS RD","PROSPECT","OH",43342,40.4948857460001,-83.237949677,228,"4094 CENTERVILLE-NEWMANS RD, PROSPECT, OH, 43342","Match","Non_Exact","4094 CENTERVILLE NEWMAN RD, PROSPECT, OH, 43342",12704531,"R"
600229,"4094 COUNTY HOME ROAD","DELAWARE","OH",43015,40.330955875,-82.9801633289999,229,"4094 COUNTY HOME ROAD, DELAWARE, OH, 43015","Match","Exact","4094 COUNTY HOME RD, DELAWARE, OH, 43015",24586522,"R"
600230,"4094 COUNTY RD 510","WILDWOOD","FL",34785,28.807111438,-82.035367563,230,"4094 COUNTY RD 510, WILDWOOD, FL, 34785","Match","Exact","4094 CO RD 510, WILDWOOD, FL, 34785",86494692,"R"
600231,"4094 DAMASCUS ROAD","BREWTON","AL",36426,31.1819575010001,-86.852964481,231,"4094 DAMASCUS ROAD, BREWTON, AL, 36426","Match","Exact","4094 DAMASCUS RD, BREWTON, AL, 36426",635529790,"R"
600232,"4094 GRACES LN","DECATUR","IL",62521,39.899018647,-88.869685126,232,"4094 GRACES LN, DECATUR, IL, 62521","Match","Exact","4094 GRACES LN, DECATUR, IL, 62521",20762932,"L"
600233,"4094 HIDDEN ENCLAVE LANE NW -8","KENNESAW","GA",30152,33.9942447240001,-84.670642237,233,"4094 HIDDEN ENCLAVE LANE NW -8, KENNESAW, GA, 30152","Match","Non_Exact","4094 HIDDEN ENCLAVE LN, KENNESAW, GA, 30152",642999309,"R"
600234,"4094 LINDITO LANE","SANTA BARBARA","CA",93110,34.4528503880001,-119.758983035,234,"4094 LINDITO LANE, SANTA BARBARA, CA, 93110","Match","Exact","4094 LINDITO LN, SANTA BARBARA, CA, 93110",108602799,"R"
600235,"4094 LOWDEN RD","SOUTH EUCLID","OH",44121,41.5413185080001,-81.5343283239999,235,"4094 LOWDEN RD, SOUTH EUCLID, OH, 44121","Match","Exact","4094 LOWDEN RD, SOUTH EUCLID, OH, 44121",61124618,"R"
600236,"4094 N 1000 W","THORNTOWN","IN",46071,40.0986901140001,-86.657476459,236,"4094 N 1000 W, THORNTOWN, IN, 46071","Match","Exact","4094 N 1000 W, THORNTOWN, IN, 46071",610991298,"L"
600237,"4094 N HOLLISTER RD","ELSIE","MI",48831,43.046848395,-84.386982022,237,"4094 N HOLLISTER RD, ELSIE, MI, 48831","Match","Exact","4094 N HOLLISTER RD, ELSIE, MI, 48831",647603953,"R"
600238,"4094 NW 89TH WAY","COOPER CITY","FL",33024,26.044044211,-80.267519684,238,"4094 NW 89TH WAY, COOPER CITY, FL, 33024","Match","Non_Exact","4094 NW 89TH WAY, HOLLYWOOD, FL, 33024",114778804,"L"
600239,"4094 SHELLMAN ST","ORLANDO","FL",32811,28.5245067450001,-81.427996733,239,"4094 SHELLMAN ST, ORLANDO, FL, 32811","Match","Exact","4094 SHELLMAN ST, ORLANDO, FL, 32811",94273663,"L"
600240,"4094 W LAKE SAMMAMISH PKWY SE","BELLEVUE","WA",98008,47.5714742930001,-122.105785716,240,"4094 W LAKE SAMMAMISH PKWY SE, BELLEVUE, WA, 98008","Match","Exact","4094 W LAKE SAMMAMISH PKWY SE, BELLEVUE, WA, 98008",647833570,"L"
600241,"4094 WINTERGREEN RD","GREENWOOD","FL",32443,30.861989393,-85.077498646,241,"4094 WINTERGREEN RD, GREENWOOD, FL, 32443","Match","Exact","4094 WINTERGREEN RD, GREENWOOD, FL, 32443",610781400,"R"
600242,"40940 CANTO PL","FREMONT","CA",94539,37.5457290850001,-121.947631652,242,"40940 CANTO PL, FREMONT, CA, 94539","Match","Exact","40940 CANTO PL, FREMONT, CA, 94539",125033258,"L"
600243,"40941 S CR 4500","MCCURTAIN","OK",74944,35.1250727600001,-95.016026756,243,"40941 S CR 4500, MCCURTAIN, OK, 74944","Match","Exact","40941 S CR 4500, MCCURTAIN, OK, 74944",80572594,"L"
600244,"40943 ABUELO WAY","FREMONT","CA",94539,37.55230593,-121.940869948,244,"40943 ABUELO WAY, FREMONT, CA, 94539","Match","Exact","40943 ABUELO WAY, FREMONT, CA, 94539",125033453,"R"
600245,"40946 CROSSBOW CIR 101","CANTON","MI",48188,42.2998308530001,-83.4447745579999,245,"40946 CROSSBOW CIR 101, CANTON, MI, 48188","Match","Exact","40946 CROSSBOW CIR, CANTON, MI, 48188",95706037,"R"
600246,"4095 BALSAM LANE","JACKSON","WY",83001,43.415286694,-110.786216555,246,"4095 BALSAM LANE, JACKSON, WY, 83001","Match","Exact","4095 BALSAM LN, JACKSON, WY, 83001",130425201,"R"
600247,"4095 BLUEBIRD ROAD","MARIETTA","OK",73448,34.0111915470001,-97.116532843,247,"4095 BLUEBIRD ROAD, MARIETTA, OK, 73448","Match","Non_Exact","4095 BLUEBIRD LN, MARIETTA, OK, 73448",633129089,"R"
600248,"4095 BOLD MEADOW","OAKLAND TWP","MI",48306,42.7373986480001,-83.211859478,248,"4095 BOLD MEADOW, OAKLAND TWP, MI, 48306","Match","Non_Exact","4095 BOLD MEADOWS, OAKLAND TOWNSHIP, MI, 48306",69791389,"R"
600249,"4095 CAROLWOOD DRIVE","MELBOURNE","FL",32934,28.139135099,-80.691566048,249,"4095 CAROLWOOD DRIVE, MELBOURNE, FL, 32934","Match","Exact","4095 CAROLWOOD DR, MELBOURNE, FL, 32934",93933490,"L"
600250,"4095 CENTER RD","BRUNSWICK","OH",44212,41.238282461,-81.8332483189999,250,"4095 CENTER RD, BRUNSWICK, OH, 44212","Match","Exact","4095 CENTER RD, BRUNSWICK, OH, 44212",638640652,"R"
600251,"4095 CONTINENTAL DRIVE","HARRISBURG","PA",17112,40.349338452,-76.8422079599999,251,"4095 CONTINENTAL DRIVE, HARRISBURG, PA, 17112","Match","Exact","4095 CONTINENTAL DR, HARRISBURG, PA, 17112",648395749,"R"
600252,"4095 COONTIE COURT","LAKE WORTH","FL",33462,26.573234115,-80.106744202,252,"4095 COONTIE COURT, LAKE WORTH, FL, 33462","Match","Exact","4095 COONTIE CT, LAKE WORTH, FL, 33462",115568331,"L"
600253,"4095 DIAMOND ST","PACE","FL",32571,30.589640893,-87.153310163,253,"4095 DIAMOND ST, PACE, FL, 32571","Match","Exact","4095 DIAMOND ST, PACE, FL, 32571",74567752,"R"
600254,"4095 DOMINION BLVD","BRIGHTON","MI",48114,42.5416941240001,-83.765616186,254,"4095 DOMINION BLVD, BRIGHTON, MI, 48114","Match","Exact","4095 DOMINION BLVD, BRIGHTON, MI, 48114",23574855,"L"
600255,"4095 EAST RD","TURIN","NY",13473,NA,NA,255,"4095 EAST RD, TURIN, NY, 13473","No_Match",NA,NA,NA,NA
600256,"4095 HEATHER VIEW LANE","WINSTON-SALEM","NC",27127,36.039757045,-80.295551264,256,"4095 HEATHER VIEW LANE, WINSTON-SALEM, NC, 27127","Match","Non_Exact","4095 HEATHER VIEW LN SW, WINSTON SALEM, NC, 27127",627148110,"L"
600257,"4095 HOWARD DRIVE","NICEVILLE","FL",32578,30.531214391,-86.451783231,257,"4095 HOWARD DRIVE, NICEVILLE, FL, 32578","Match","Exact","4095 HOWARD DR, NICEVILLE, FL, 32578",74409138,"R"
600258,"4095 LAUREL FALLS DRIVE","SNELLVILLE","GA",30039,33.7991646400001,-84.035754877,258,"4095 LAUREL FALLS DRIVE, SNELLVILLE, GA, 30039","Match","Exact","4095 LAUREL FALLS DR, SNELLVILLE, GA, 30039",645866489,"L"
600259,"4095 LEMON STREET 2ND FLOOR","RIVERSIDE","CA",92501,33.9780703800001,-117.373989825,259,"4095 LEMON STREET 2ND FLOOR, RIVERSIDE, CA, 92501","Match","Exact","4095 LEMON ST, RIVERSIDE, CA, 92501",637765124,"R"
600260,"4095 NAVAJO AVENUE","HUBER HEIGHTS","OH",45424,39.847830263,-84.170461979,260,"4095 NAVAJO AVENUE, HUBER HEIGHTS, OH, 45424","Match","Exact","4095 NAVAJO AVE, HUBER HEIGHTS, OH, 45424",143564496,"L"
600261,"4095 NORTH HIGHWAY DRIVE","TUCSON","AZ",85705,32.2808676760001,-111.015900124,261,"4095 NORTH HIGHWAY DRIVE, TUCSON, AZ, 85705","Match","Exact","4095 N HIGHWAY DR, TUCSON, AZ, 85705",121229140,"L"
600262,"4095 OAK VALLEY AVE SW","WYOMING","MI",49519,42.8900952860001,-85.708797412,262,"4095 OAK VALLEY AVE SW, WYOMING, MI, 49519","Match","Exact","4095 OAK VALLEY AVE SW, WYOMING, MI, 49519",12483096,"L"
600263,"4095 OCEANSIDE BLVD SUITE G","OCEANSIDE","CA",92056,33.206373145,-117.287914247,263,"4095 OCEANSIDE BLVD SUITE G, OCEANSIDE, CA, 92056","Match","Exact","4095 OCEANSIDE BLVD, OCEANSIDE, CA, 92056",195750707,"R"
600264,"4095 RIVERCREST DR N","SALEM","OR",97303,44.9850008780001,-123.034673197,264,"4095 RIVERCREST DR N, SALEM, OR, 97303","Match","Exact","4095 RIVERCREST DR N, SALEM, OR, 97303",156246176,"L"
600265,"4095 S INCA ST","ENGLEWOOD","CO",80110,39.6425009010001,-104.998298679,265,"4095 S INCA ST, ENGLEWOOD, CO, 80110","Match","Exact","4095 S INCA ST, ENGLEWOOD, CO, 80110",177333422,"R"
600266,"4095 SOUTH AVE W","MISSOULA","MT",59801,46.8487448230001,-114.080928158,266,"4095 SOUTH AVE W, MISSOULA, MT, 59801","Match","Non_Exact","4095 SOUTH AVE W, MISSOULA, MT, 59804",636326009,"L"
600267,"4095 SOUTH AVE W","MISSOULA","MT",59804,46.8487448230001,-114.080928158,267,"4095 SOUTH AVE W, MISSOULA, MT, 59804","Match","Exact","4095 SOUTH AVE W, MISSOULA, MT, 59804",636326009,"L"
600268,"4095 SOUTH AVENUE WEST","MISSOULA","MT",59804,46.8487448230001,-114.080928158,268,"4095 SOUTH AVENUE WEST, MISSOULA, MT, 59804","Match","Exact","4095 SOUTH AVE W, MISSOULA, MT, 59804",636326009,"L"
600269,"4095 ST RT 122 W","EATON","OH",45320,39.7435576990001,-84.718863218,269,"4095 ST RT 122 W, EATON, OH, 45320","Match","Non_Exact","4095 STATE RTE 122, EATON, OH, 45320",54601757,"R"
600270,"4095 STATE ROAD 7 SUITE L-125","WELLINGTON","FL",33449,NA,NA,270,"4095 STATE ROAD 7 SUITE L-125, WELLINGTON, FL, 33449","No_Match",NA,NA,NA,NA
600271,"4095 TRINITY RD","FRANKLIN","TN",37067,35.8710721350001,-86.753461188,271,"4095 TRINITY RD, FRANKLIN, TN, 37067","Match","Exact","4095 TRINITY RD, FRANKLIN, TN, 37067",73106618,"L"
600272,"4095 W 500 N","VERNAL","UT",84078,40.4626332350001,-109.606254745,272,"4095 W 500 N, VERNAL, UT, 84078","Match","Exact","4095 W 500 N, VERNAL, UT, 84078",625702390,"R"
600273,"4095 WEATHERWOOD","TRAVERSE CITY","MI",49685,44.747101382,-85.772982059,273,"4095 WEATHERWOOD, TRAVERSE CITY, MI, 49685","Match","Non_Exact","4095 WEATHERWOOD DR, TRAVERSE CITY, MI, 49685",614095860,"L"
600274,"4095 WEST 145TH STREET","SAVAGE","MN",55378,44.7414966480001,-93.330579111,274,"4095 WEST 145TH STREET, SAVAGE, MN, 55378","Match","Exact","4095 W 145TH ST, SAVAGE, MN, 55378",38148750,"L"
600275,"4095 WEST STUBBS ROAD","COLLEGE PARK","GA",30349,NA,NA,275,"4095 WEST STUBBS ROAD, COLLEGE PARK, GA, 30349","No_Match",NA,NA,NA,NA
600276,"4095 WHITE STREET","GRANDVILLE","MI",49418,42.911753972,-85.764570734,276,"4095 WHITE STREET, GRANDVILLE, MI, 49418","Match","Non_Exact","4095 WHITE ST SW, GRANDVILLE, MI, 49418",12452844,"R"
600277,"4095 WOODCROFT","WHITE LAKE","MI",48383,42.6638503710001,-83.557921231,277,"4095 WOODCROFT, WHITE LAKE, MI, 48383","Match","Exact","4095 WOODCROFT, WHITE LAKE, MI, 48383",636250698,"L"
600278,"40950 WOODWARD AV SUITE 360","BLOOMFIELD HILLS","MI",48304,42.5880725470001,-83.248372494,278,"40950 WOODWARD AV SUITE 360, BLOOMFIELD HILLS, MI, 48304","Match","Exact","40950 WOODWARD AVE, BLOOMFIELD HILLS, MI, 48304",647549234,"R"
600279,"40950 WOODWARD AVE SUITE 303","BLOOMFIELD HILLS","MI",48304,42.5880725470001,-83.248372494,279,"40950 WOODWARD AVE SUITE 303, BLOOMFIELD HILLS, MI, 48304","Match","Exact","40950 WOODWARD AVE, BLOOMFIELD HILLS, MI, 48304",647549234,"R"
600280,"40950 WOODWARD AVE SUITE 360","BLOOMFIELD HILLS","MI",48304,42.5880725470001,-83.248372494,280,"40950 WOODWARD AVE SUITE 360, BLOOMFIELD HILLS, MI, 48304","Match","Exact","40950 WOODWARD AVE, BLOOMFIELD HILLS, MI, 48304",647549234,"R"
600281,"40952 GRIFFIN DR","OAKHURST","CA",93644,37.3433106470001,-119.71218842,281,"40952 GRIFFIN DR, OAKHURST, CA, 93644","Match","Exact","40952 GRIFFIN DR, OAKHURST, CA, 93644",102328183,"L"
600282,"40953 SYCAMORE CREEK LANE","LOVETTSVILLE","VA",20180,39.2724922950001,-77.5825578659999,282,"40953 SYCAMORE CREEK LANE, LOVETTSVILLE, VA, 20180","Match","Exact","40953 SYCAMORE CREEK LN, LOVETTSVILLE, VA, 20180",218927937,"R"
600283,"40954 PACER LANE","PAEONIAN SPRINGS","VA",20129,39.1652431580001,-77.584545742,283,"40954 PACER LANE, PAEONIAN SPRINGS, VA, 20129","Match","Exact","40954 PACER LN, PAEONIAN SPGS, VA, 20129",62372004,"L"
600284,"40955 N SPUR CROSS ROAD","Cave Creek","AZ",85331,33.8556009970001,-111.958085348,284,"40955 N SPUR CROSS ROAD, Cave Creek, AZ, 85331","Match","Exact","40955 N SPUR CROSS RD, CAVE CREEK, AZ, 85331",128144060,"R"
600285,"40957 490TH AVENUE","MALLARD","IA",50562,NA,NA,285,"40957 490TH AVENUE, MALLARD, IA, 50562","No_Match",NA,NA,NA,NA
600286,"40957 ELLIOTT DRIVE","OAKHURST","CA",93644,37.3284946410001,-119.642674168,286,"40957 ELLIOTT DRIVE, OAKHURST, CA, 93644","Match","Exact","40957 ELLIOTT DR, OAKHURST, CA, 93644",102328060,"R"
600287,"40957 S MAPLE AVE","LE CENTER","MN",56057,44.3575048770001,-93.7588743109999,287,"40957 S MAPLE AVE, LE CENTER, MN, 56057","Match","Exact","40957 S MAPLE AVE, LE CENTER, MN, 56057",608321141,"R"
600288,"4096 BATH EDIE ROAD","BLYTHE","GA",30805,NA,NA,288,"4096 BATH EDIE ROAD, BLYTHE, GA, 30805","No_Match",NA,NA,NA,NA
600289,"4096 GREENVALE DR","SOUTH EUCLID","OH",44121,41.5389259020001,-81.532354826,289,"4096 GREENVALE DR, SOUTH EUCLID, OH, 44121","Match","Non_Exact","4096 GREENVALE RD, SOUTH EUCLID, OH, 44121",61124612,"R"
600290,"4096 HERRON TRL SW","ATLANTA","GA",30349,33.6466666850001,-84.5590345969999,290,"4096 HERRON TRL SW, ATLANTA, GA, 30349","Match","Non_Exact","4096 HERRON TRL, ATLANTA, GA, 30349",628095154,"R"
600291,"4096 HWY 218","OWATONNA","MN",55060,44.0336819030001,-93.168730201,291,"4096 HWY 218, OWATONNA, MN, 55060","Match","Non_Exact","4096 US HWY 218, OWATONNA, MN, 55060",38172274,"L"
600292,"4096 IRELAND RD","ROME","OH",44085,41.637731913,-80.992267517,292,"4096 IRELAND RD, ROME, OH, 44085","Match","Exact","4096 IRELAND RD, ROME, OH, 44085",117316875,"R"
600293,"4096 ONI PL","KALAHEO","HI",96714,21.9197156600001,-159.519012475,293,"4096 ONI PL, KALAHEO, HI, 96714","Match","Non_Exact","4096 ONI PL, KALAHEO, HI, 96741",203414883,"L"
600294,"4096 PEMBROKE CT","DECATUR","GA",30034,33.6756511070001,-84.2216534629999,294,"4096 PEMBROKE CT, DECATUR, GA, 30034","Match","Exact","4096 PEMBROKE CT, DECATUR, GA, 30034",23373575,"L"
600295,"4096 PIEDMONT AVE SUITE 332","OAKLAND","CA",94611,37.8266217140001,-122.252107185,295,"4096 PIEDMONT AVE SUITE 332, OAKLAND, CA, 94611","Match","Non_Exact","4096 PIEDMONT, OAKLAND, CA, 94611",606210595,"R"
600296,"4096 PIEDMONT AVE UNIT 173","OAKLAND","CA",94611,37.8266217140001,-122.252107185,296,"4096 PIEDMONT AVE UNIT 173, OAKLAND, CA, 94611","Match","Non_Exact","4096 PIEDMONT, OAKLAND, CA, 94611",606210595,"R"
600297,"4096 PIEDMONT AVENUE 163","OAKLAND","CA",94611,37.8266217140001,-122.252107185,297,"4096 PIEDMONT AVENUE 163, OAKLAND, CA, 94611","Match","Non_Exact","4096 PIEDMONT, OAKLAND, CA, 94611",606210595,"R"
600298,"4096 ROUNDABOUT ROAD","CRESTON","NC",28615,36.4559157300001,-81.710149825,298,"4096 ROUNDABOUT ROAD, CRESTON, NC, 28615","Match","Exact","4096 ROUNDABOUT RD, CRESTON, NC, 28615",627834028,"L"
600299,"4096 SO MARS WAY","SALT LAKE CITY","UT",84124,40.682123125,-111.793343645,299,"4096 SO MARS WAY, SALT LAKE CITY, UT, 84124","Match","Exact","4096 S MARS WAY, SALT LAKE CITY, UT, 84124",176095109,"R"
600300,"4096 SOUTH BAILEY ROAD","NORTH JACKSON","OH",44451,41.060791845,-80.886730534,300,"4096 SOUTH BAILEY ROAD, NORTH JACKSON, OH, 44451","Match","Exact","4096 S BAILEY RD, NORTH JACKSON, OH, 44451",64616895,"R"
600301,"4096 SW 158TH AVE APT 65","MIRAMAR","FL",33027,25.972024639,-80.358288828,301,"4096 SW 158TH AVE APT 65, MIRAMAR, FL, 33027","Match","Non_Exact","4096 SW 158TH AVE, MIRAMAR, FL, 33027",635435074,"R"
600302,"4096 WILLOW CANYON COURT","AMMON","ID",83406,43.4809018030001,-111.952355075,302,"4096 WILLOW CANYON COURT, AMMON, ID, 83406","Match","Exact","4096 WILLOW CANYON CT, AMMON, ID, 83406",119149817,"R"
600303,"40960 CALIFORNIA OAKS RD 222","MURRIETA","CA",92562,33.567659528,-117.205889607,303,"40960 CALIFORNIA OAKS RD 222, MURRIETA, CA, 92562","Match","Exact","40960 CALIFORNIA OAKS RD, MURRIETA, CA, 92562",652186576,"R"
600304,"40963 237TH AVE","LE CENTER","MN",56057,NA,NA,304,"40963 237TH AVE, LE CENTER, MN, 56057","No_Match",NA,NA,NA,NA
600305,"40969 FERREIRA PL","FREMONT","CA",94539,37.5503059930001,-121.941761907,305,"40969 FERREIRA PL, FREMONT, CA, 94539","Match","Exact","40969 FERREIRA PL, FREMONT, CA, 94539",125033457,"R"
600306,"4097 11TH ST NW","ALBUQUERQUE","NM",87107,35.126513227,-106.651676059,306,"4097 11TH ST NW, ALBUQUERQUE, NM, 87107","Match","Exact","4097 11TH ST NW, ALBUQUERQUE, NM, 87107",206702563,"L"
600307,"4097 BETHLEHEM CHURCH RD NE","PILOT","VA",24138,NA,NA,307,"4097 BETHLEHEM CHURCH RD NE, PILOT, VA, 24138","No_Match",NA,NA,NA,NA
600308,"4097 CARDINAL STREET","BAY ST. LOUIS","MS",39520,30.328480799,-89.4017810779999,308,"4097 CARDINAL STREET, BAY ST. LOUIS, MS, 39520","Match","Exact","4097 CARDINAL ST, BAY SAINT LOUIS, MS, 39520",111134786,"R"
600309,"4097 CRAWFORD DR","SAN JOSE","CA",95124,NA,NA,309,"4097 CRAWFORD DR, SAN JOSE, CA, 95124","No_Match",NA,NA,NA,NA
600310,"4097 CREEK WAY APT A","INDIANAPOLIS","IN",46227,39.7062981930001,-86.111152116,310,"4097 CREEK WAY APT A, INDIANAPOLIS, IN, 46227","Match","Exact","4097 CREEK WAY, INDIANAPOLIS, IN, 46227",108065007,"L"
600311,"4097 DARTFORD ROAD","SOUTH EUCLID","OH",44121,41.542170163,-81.533243802,311,"4097 DARTFORD ROAD, SOUTH EUCLID, OH, 44121","Match","Exact","4097 DARTFORD RD, SOUTH EUCLID, OH, 44121",61124608,"L"
600312,"4097 DEVONSHIRE CIRCLE","PROVO","UT",84604,NA,NA,312,"4097 DEVONSHIRE CIRCLE, PROVO, UT, 84604","Tie",NA,NA,NA,NA
600313,"4097 EDGEHILL DRIVE","OGDEN","UT",84401,41.1884171030001,-111.941915518,313,"4097 EDGEHILL DRIVE, OGDEN, UT, 84401","Match","Non_Exact","4097 EDGEHILL DR, OGDEN, UT, 84403",155715315,"R"
600314,"4097 GOODWICK DRIVE","MEMPHIS","TN",38125,35.0357450970001,-89.816031478,314,"4097 GOODWICK DRIVE, MEMPHIS, TN, 38125","Match","Exact","4097 GOODWICK DR, MEMPHIS, TN, 38125",618981467,"R"
600315,"4097 HAYDENS WAY","VALDOSTA","GA",31605,30.930903035,-83.241664026,315,"4097 HAYDENS WAY, VALDOSTA, GA, 31605","Match","Exact","4097 HAYDENS WAY, VALDOSTA, GA, 31605",645989344,"L"
600316,"4097 HORD RD","MURFREESBORO","TN",37219,35.8880406150001,-86.459416262,316,"4097 HORD RD, MURFREESBORO, TN, 37219","Match","Non_Exact","4097 HORD RD, MURFREESBORO, TN, 37129",636471503,"R"
600317,"4097 HWY 90","WAVELAND","MS",39576,30.2986538580001,-89.409714374,317,"4097 HWY 90, WAVELAND, MS, 39576","Match","Exact","4097 HWY 90, WAVELAND, MS, 39576",111150293,"L"
600318,"4097 ISOLA DRIVE","FREMONT","CA",94555,37.5809651650001,-122.056734913,318,"4097 ISOLA DRIVE, FREMONT, CA, 94555","Match","Exact","4097 ISOLA DR, FREMONT, CA, 94555",125025074,"R"
600319,"4097 STANBERRY AVENUE","MARSHALL","VA",20115,38.8701632460001,-77.857983599,319,"4097 STANBERRY AVENUE, MARSHALL, VA, 20115","Match","Exact","4097 STANBERRY AVE, MARSHALL, VA, 20115",146268169,"R"
600320,"4097 STATE ROUTE 275","FRIENDSHIP","NY",14739,42.1773113260001,-78.142871925,320,"4097 STATE ROUTE 275, FRIENDSHIP, NY, 14739","Match","Exact","4097 STATE RTE 275, FRIENDSHIP, NY, 14739",82598302,"L"
600321,"4097 TRAIL CREEK RD","RIVERSIDE","CA",92503,NA,NA,321,"4097 TRAIL CREEK RD, RIVERSIDE, CA, 92503","No_Match",NA,NA,NA,NA
600322,"4097 TRAIL CREEK RD","RIVERSIDE","CA",92505,NA,NA,322,"4097 TRAIL CREEK RD, RIVERSIDE, CA, 92505","No_Match",NA,NA,NA,NA
600323,"40972 FARM ROAD","POLSON","MT",59860,47.6171855050001,-114.091752317,323,"40972 FARM ROAD, POLSON, MT, 59860","Match","Exact","40972 FARM RD, POLSON, MT, 59860",206930055,"R"
600324,"40975 230TH AVE","MAZEPPA","MN",55956,NA,NA,324,"40975 230TH AVE, MAZEPPA, MN, 55956","No_Match",NA,NA,NA,NA
600325,"40975 COPELAND STREET","CHILOQUIN","OR",97624,NA,NA,325,"40975 COPELAND STREET, CHILOQUIN, OR, 97624","No_Match",NA,NA,NA,NA
600326,"40975 SNICKERSVILLE TPK","ALDIE","VA",20105,38.9850105800001,-77.653659883,326,"40975 SNICKERSVILLE TPK, ALDIE, VA, 20105","Match","Exact","40975 SNICKERSVILLE TPKE, ALDIE, VA, 20105",649919651,"L"
600327,"40977 PIPIT LANE","LEONARDTOWN","MD",20650,NA,NA,327,"40977 PIPIT LANE, LEONARDTOWN, MD, 20650","No_Match",NA,NA,NA,NA
600328,"40978 BLOSSOM DRIVE","THREE RIVERS","CA",93271,36.4216763000001,-118.908737568,328,"40978 BLOSSOM DRIVE, THREE RIVERS, CA, 93271","Match","Exact","40978 BLOSSOM DR, THREE RIVERS, CA, 93271",202752736,"R"
600329,"40978 CALIFORNIA OAKS RD","MURRIETA","CA",92562,33.5675337380001,-117.205932247,329,"40978 CALIFORNIA OAKS RD, MURRIETA, CA, 92562","Match","Exact","40978 CALIFORNIA OAKS RD, MURRIETA, CA, 92562",652186576,"R"
600330,"4098 BOTTIGLIA AVE","LAS VEGAS","NV",89141,35.9975823440001,-115.193928375,330,"4098 BOTTIGLIA AVE, LAS VEGAS, NV, 89141","Match","Exact","4098 BOTTIGLIA AVE, LAS VEGAS, NV, 89141",201998308,"R"
600331,"4098 DERRY STREET","HARRISBURG","PA",17111,40.2577537180001,-76.81308188,331,"4098 DERRY STREET, HARRISBURG, PA, 17111","Match","Exact","4098 DERRY ST, HARRISBURG, PA, 17111",70822554,"L"
600332,"4098 DUNES PARKWAY","MUSKEGON","MI",49441,43.1791160720001,-86.301987971,332,"4098 DUNES PARKWAY, MUSKEGON, MI, 49441","Match","Exact","4098 DUNES PKWY, MUSKEGON, MI, 49441",77685705,"L"
600333,"4098 GEORGE BUCHANAN","LA VERGNE","TN",37086,36.020275613,-86.56375209,333,"4098 GEORGE BUCHANAN, LA VERGNE, TN, 37086","Match","Non_Exact","4098 GEORGE BUCHANAN DR, LA VERGNE, TN, 37086",651816975,"R"
600334,"4098 LAKESHORE DRIVE","LITTLE RIVER","SC",29566,33.8664722290001,-78.64707666,334,"4098 LAKESHORE DRIVE, LITTLE RIVER, SC, 29566","Match","Non_Exact","4098 LAKE SHORE DR, LITTLE RIVER, SC, 29566",29105552,"L"
600335,"4098 N COUNTY RD 950 W","MULBERRY","IN",46058,40.3470452240001,-86.684037803,335,"4098 N COUNTY RD 950 W, MULBERRY, IN, 46058","Match","Exact","4098 N CO RD 950 W, MULBERRY, IN, 46058",27225739,"L"
600336,"4098 N HAWK RD","LINCOLN","MI",48742,44.7741440990001,-83.4330881929999,336,"4098 N HAWK RD, LINCOLN, MI, 48742","Match","Non_Exact","4098 HAWK RD, LINCOLN, MI, 48742",607230698,"R"
600337,"4098 ROLLING RIVER ROAD","CAIRO","WV",26337,NA,NA,337,"4098 ROLLING RIVER ROAD, CAIRO, WV, 26337","No_Match",NA,NA,NA,NA
600338,"4098 SCHNEIDERS CROSSING ROAD","DOVER","OH",44622,40.547753281,-81.535413735,338,"4098 SCHNEIDERS CROSSING ROAD, DOVER, OH, 44622","Match","Non_Exact","4098 SCHNEIDERS CROSSING RD NW, DOVER, OH, 44622",612295602,"L"
600339,"4098 WILLEY DRIVE","TOWNSEND","DE",19734,39.391105435,-75.662997167,339,"4098 WILLEY DRIVE, TOWNSEND, DE, 19734","Match","Exact","4098 WILLEY DR, TOWNSEND, DE, 19734",187300802,"L"
600340,"4098 WINTERGREEN ROAD","GREENWOOD","FL",32443,30.8622811230001,-85.077493497,340,"4098 WINTERGREEN ROAD, GREENWOOD, FL, 32443","Match","Exact","4098 WINTERGREEN RD, GREENWOOD, FL, 32443",610781400,"R"
600341,"40984 LAKE AND BRETON VIEW DR","LEONARDTOWN","MD",20650,NA,NA,341,"40984 LAKE AND BRETON VIEW DR, LEONARDTOWN, MD, 20650","No_Match",NA,NA,NA,NA
600342,"40985 425TH AVENUE","SAUK CENTRE","MN",56378,45.7158548420001,-94.995186439,342,"40985 425TH AVENUE, SAUK CENTRE, MN, 56378","Match","Exact","40985 425TH AVE, SAUK CENTRE, MN, 56378",611970877,"L"
600343,"40986 PINE DR","FOREST FALLS","CA",92339,34.0853000110001,-116.909958058,343,"40986 PINE DR, FOREST FALLS, CA, 92339","Match","Exact","40986 PINE DR, FOREST FALLS, CA, 92339",144627044,"R"
600344,"40988 174TH STREET EAST","LANCASTER","CA",93535,34.627111132,-117.819366835,344,"40988 174TH STREET EAST, LANCASTER, CA, 93535","Match","Exact","40988 174TH ST E, LANCASTER, CA, 93535",141816418,"L"
600345,"40988 REDWING SONG LANE","LOVETTSVILLE","VA",20180,39.266597699,-77.580211702,345,"40988 REDWING SONG LANE, LOVETTSVILLE, VA, 20180","Match","Exact","40988 REDWING SONG LN, LOVETTSVILLE, VA, 20180",62373591,"L"
600346,"4099 108TH ST SW","BYRON CENTER","MI",94315,42.768252256,-85.766784158,346,"4099 108TH ST SW, BYRON CENTER, MI, 94315","Match","Non_Exact","4099 108TH ST SW, BYRON CENTER, MI, 49315",652789294,"L"
600347,"4099 BENSMAN ROAD","MINSTER","OH",45865,40.4079109940001,-84.3549489609999,347,"4099 BENSMAN ROAD, MINSTER, OH, 45865","Match","Exact","4099 BENSMAN RD, MINSTER, OH, 45865",209201884,"L"
600348,"4099 BRAMSHAW ROAD NW","CANTON","OH",44718,40.8405878340001,-81.4509131839999,348,"4099 BRAMSHAW ROAD NW, CANTON, OH, 44718","Match","Exact","4099 BRAMSHAW RD NW, CANTON, OH, 44718",64673945,"R"
600349,"4099 BURNAGE HALL ROAD","HARRISBURG","NC",28075,35.298299619,-80.640915464,349,"4099 BURNAGE HALL ROAD, HARRISBURG, NC, 28075","Match","Exact","4099 BURNAGE HALL RD, HARRISBURG, NC, 28075",640213207,"L"
600350,"4099 CHIMMENY RIDGE WAY","ELLENWOOD","GA",30294,33.661085998,-84.2284672329999,350,"4099 CHIMMENY RIDGE WAY, ELLENWOOD, GA, 30294","Match","Non_Exact","4099 CHIMNEY RIDGE WAY, ELLENWOOD, GA, 30294",23373457,"R"
600351,"4099 FIR HILL DRIVE","LAKELAND","TN",38002,NA,NA,351,"4099 FIR HILL DRIVE, LAKELAND, TN, 38002","Tie",NA,NA,NA,NA
600352,"4099 HUERFANO APT 223","SAN DIEGO","CA",92117,32.8162712070001,-117.216935883,352,"4099 HUERFANO APT 223, SAN DIEGO, CA, 92117","Match","Non_Exact","4099 HUERFANO AVE, SAN DIEGO, CA, 92117",629817563,"R"
600353,"4099 MAIN STREET","AMHERST","OK",14226,NA,NA,353,"4099 MAIN STREET, AMHERST, OK, 14226","No_Match",NA,NA,NA,NA
600354,"4099 RANDOLPH","SUMMER SHADE","KY",42166,NA,NA,354,"4099 RANDOLPH, SUMMER SHADE, KY, 42166","No_Match",NA,NA,NA,NA
600355,"4099 S 570 E 15B","SALT LAKE CITY","UT",84107,NA,NA,355,"4099 S 570 E 15B, SALT LAKE CITY, UT, 84107","No_Match",NA,NA,NA,NA
600356,"4099 W CAMP WISDOM","DALLLAS","TX",75237,NA,NA,356,"4099 W CAMP WISDOM, DALLLAS, TX, 75237","No_Match",NA,NA,NA,NA
600357,"4099 WILLIAM PENN HIGHWAY","MIFFLINTOWN","PA",17059,40.5595706490001,-77.3877920859999,357,"4099 WILLIAM PENN HIGHWAY, MIFFLINTOWN, PA, 17059","Match","Exact","4099 WILLIAM PENN HWY, MIFFLINTOWN, PA, 17059",637682231,"R"
600358,"40998 HAYSTACK LN","POLSON","MT",59860,NA,NA,358,"40998 HAYSTACK LN, POLSON, MT, 59860","No_Match",NA,NA,NA,NA
600359,"409A ARCH STREET","MORGANTOWN","WV",26501,39.6251423150001,-79.951462572,359,"409A ARCH STREET, MORGANTOWN, WV, 26501","Match","Exact","409 ARCH ST, MORGANTOWN, WV, 26501",50743047,"L"
600360,"40A CRYSTAL BROOK WAY","MARLBORO","MA",1752,NA,NA,360,"40A CRYSTAL BROOK WAY, MARLBORO, MA, 1752","No_Match",NA,NA,NA,NA
600361,"40A IRON COUNTY RD 1","STEELVILLE","MO",65565,NA,NA,361,"40A IRON COUNTY RD 1, STEELVILLE, MO, 65565","No_Match",NA,NA,NA,NA
600362,"40A LOCUST HILL AVENUE APT 3G","YONKERS","NY",10701,40.936040882,-73.8959809199999,362,"40A LOCUST HILL AVENUE APT 3G, YONKERS, NY, 10701","Match","Exact","40 LOCUST HILL AVE, YONKERS, NY, 10701",139743009,"R"
600363,"40A MARBLE LOOP","STATEN ISLAND","NY",10309,40.537273069,-74.238770083,363,"40A MARBLE LOOP, STATEN ISLAND, NY, 10309","Match","Exact","40 MARBLE LOOP, STATEN ISLAND, NY, 10309",649232928,"L"
600364,"40A MORELAND STREET","SOMERVILLE","MA",2145,42.3974668600001,-71.097474448,364,"40A MORELAND STREET, SOMERVILLE, MA, 2145","Match","Exact","40 MORELAND ST, SOMERVILLE, MA, 02145",86859424,"L"
600365,"40A NORTON STREET","SOUTH BERWICK","ME",3908,43.237026599,-70.8084641089999,365,"40A NORTON STREET, SOUTH BERWICK, ME, 3908","Match","Exact","40 NORTON ST, SOUTH BERWICK, ME, 03908",92759267,"R"
600366,"40A SATURN LANE","STATEN ISLAND","NY",10314,40.5830464530001,-74.158227036,366,"40A SATURN LANE, STATEN ISLAND, NY, 10314","Match","Exact","40 SATURN LN, STATEN ISLAND, NY, 10314",644781794,"R"
600367,"40B CARET BAY","CHARLOTTE AMALIE","VI",802,NA,NA,367,"40B CARET BAY, CHARLOTTE AMALIE, VI, 802","No_Match",NA,NA,NA,NA
600368,"40B NAOMI WAY","JACKSON","NJ",8527,40.133227742,-74.2786116519999,368,"40B NAOMI WAY, JACKSON, NJ, 8527","Match","Exact","40 NAOMI WAY, JACKSON, NJ, 08527",627067079,"R"
600369,"40B POMEROY CT","AMHERST","MA",1002,42.3417224200001,-72.513476463,369,"40B POMEROY CT, AMHERST, MA, 1002","Match","Exact","40 POMEROY CT, AMHERST, MA, 01002",39858206,"R"
600370,"40B WASHINGTON STREET","NORTH PLAINFIELD","NJ",7060,40.6178186930001,-74.431101954,370,"40B WASHINGTON STREET, NORTH PLAINFIELD, NJ, 7060","Match","Non_Exact","40 WASHINGTON AVE, N PLAINFIELD, NJ, 07060",59941566,"R"
600371,"40H RUTLAND LANE","MONROE TOWNSHIP","NJ",8831,40.3233921230001,-74.441227681,371,"40H RUTLAND LANE, MONROE TOWNSHIP, NJ, 8831","Match","Exact","40 RUTLAND LN, MONROE TOWNSHIP, NJ, 08831",636498538,"L"
600372,"40TH NORTH HWY 93","ELY","NV",89301,39.278625269,-114.848626832,372,"40TH NORTH HWY 93, ELY, NV, 89301","Match","Non_Exact","40 HW 93, ELY, NV, 89301",616147988,"R"
600373,"40TUPELO ROAD","RAYVILLE","LA",71269,NA,NA,373,"40TUPELO ROAD, RAYVILLE, LA, 71269","No_Match",NA,NA,NA,NA
600374,"40W040CARL SANDBURG ROAD","SAINT CHARLES","IL",60175,NA,NA,374,"40W040CARL SANDBURG ROAD, SAINT CHARLES, IL, 60175","No_Match",NA,NA,NA,NA
600375,"40W250NAPLETON COURT","GENEVA","IL",60134,NA,NA,375,"40W250NAPLETON COURT, GENEVA, IL, 60134","No_Match",NA,NA,NA,NA
600376,"40W40CARL SANDBURG ROAD","SAINT CHARLES","IL",60175,NA,NA,376,"40W40CARL SANDBURG ROAD, SAINT CHARLES, IL, 60175","No_Match",NA,NA,NA,NA
600377,"40W574 BLUE LAKE CIRCLE N","ST CHARLES","IL",60175,41.93673282,-88.407550401,377,"40W574 BLUE LAKE CIRCLE N, ST CHARLES, IL, 60175","Match","Non_Exact","40 BLUE LAKE CIR, SAINT CHARLES, IL, 60175",635448256,"R"
600378,"40W644 STONECREST DR","ELGIN","IL",60124,42.0327650450001,-88.408226959,378,"40W644 STONECREST DR, ELGIN, IL, 60124","Match","Exact","40W644 STONECREST DR, ELGIN, IL, 60124",119582352,"L"
600379,"40W694 BLUE LAKE CIRCLE","SAINT CHARLES","IL",60175,41.93618946,-88.405964083,379,"40W694 BLUE LAKE CIRCLE, SAINT CHARLES, IL, 60175","Match","Exact","40W694 BLUE LAKE CIR, SAINT CHARLES, IL, 60175",635448256,"R"
600380,"40W714 FOX CREEK DRIVE","ST. CHARLES","IL",60175,41.934514983,-88.408803289,380,"40W714 FOX CREEK DRIVE, ST. CHARLES, IL, 60175","Match","Exact","40W714 FOX CREEK DR, SAINT CHARLES, IL, 60175",608944082,"R"
600381,"40W735 TIMBERGATE LANE","SAINT CHARLES","IL",60175,41.9229315050001,-88.408928744,381,"40W735 TIMBERGATE LANE, SAINT CHARLES, IL, 60175","Match","Non_Exact","40 TIMBERGATE DR, SAINT CHARLES, IL, 60175",119546341,"R"
600382,"40W782 FOX CREEK DR","ST. CHARLES","IL",60175,41.9346300300001,-88.410029768,382,"40W782 FOX CREEK DR, ST. CHARLES, IL, 60175","Match","Exact","40W782 FOX CREEK DR, SAINT CHARLES, IL, 60175",608944082,"R"
600383,"41  2ND ST","HIGHLANDS","NJ",7732,40.401360583,-73.987797458,383,"41  2ND ST, HIGHLANDS, NJ, 7732","Match","Exact","41 2ND ST, HIGHLANDS, NJ, 07732",90517449,"R"
600384,"41 1/2 KERNWOOD AVE","HAVERHILL","MA",1830,42.805705033,-71.0916392359999,384,"41 1/2 KERNWOOD AVE, HAVERHILL, MA, 1830","Match","Exact","41 KERNWOOD AVE, HAVERHILL, MA, 01830",86666041,"R"
600385,"41 1/2 KERNWOOD","HAVERHILL","MA",1830,42.8057065450001,-71.091641588,385,"41 1/2 KERNWOOD, HAVERHILL, MA, 1830","Match","Non_Exact","41 KERNWOOD AVE, HAVERHILL, MA, 01830",86666041,"R"
600386,"41 1/2 SOUTH STREET","RIDGWAY","PA",15853,NA,NA,386,"41 1/2 SOUTH STREET, RIDGWAY, PA, 15853","Tie",NA,NA,NA,NA
600387,"41 25 77 ST","ELMHURST","NY",11373,NA,NA,387,"41 25 77 ST, ELMHURST, NY, 11373","No_Match",NA,NA,NA,NA
600388,"41 25TH AVENUE","ISLE OF PALMS","SC",29451,32.7957169150001,-79.781204045,388,"41 25TH AVENUE, ISLE OF PALMS, SC, 29451","Match","Exact","41 25TH AVE, ISLE OF PALMS, SC, 29451",108810207,"L"
600389,"41 25TH STREET APT 1","ATLANTA","GA",30309,33.8010453210001,-84.394717907,389,"41 25TH STREET APT 1, ATLANTA, GA, 30309","Match","Non_Exact","41 25TH ST NW, ATLANTA, GA, 30309",612217991,"R"
600390,"41 37TH AVE S","JACKSONVILLE BEACH","FL",32250,30.2602689030001,-81.3838000279999,390,"41 37TH AVE S, JACKSONVILLE BEACH, FL, 32250","Match","Exact","41 37TH AVE S, JACKSONVILLE BEACH, FL, 32250",83924211,"R"
600391,"41 3RD STREET WEST","KALISPELL","MT",59901,48.1957573620001,-114.313385706,391,"41 3RD STREET WEST, KALISPELL, MT, 59901","Match","Exact","41 3RD ST W, KALISPELL, MT, 59901",204087291,"L"
600392,"41 42 RYS TERRACE","FAIR LAWN","NJ",7410,NA,NA,392,"41 42 RYS TERRACE, FAIR LAWN, NJ, 7410","No_Match",NA,NA,NA,NA
600393,"41 4TH AVENUE","GREENVILLE","SC",29611,34.8317946290001,-82.432447102,393,"41 4TH AVENUE, GREENVILLE, SC, 29611","Match","Exact","41 4TH AVE, GREENVILLE, SC, 29611",38296810,"L"
600394,"41 4TH LN NW","FAIRFIELD","MT",59436,NA,NA,394,"41 4TH LN NW, FAIRFIELD, MT, 59436","Tie",NA,NA,NA,NA
600395,"41 5TH AVE NW","SAINT JOSEPH","MN",56374,45.5642997480001,-94.326509503,395,"41 5TH AVE NW, SAINT JOSEPH, MN, 56374","Match","Exact","41 5TH AVE NW, SAINT JOSEPH, MN, 56374",107425302,"L"
600396,"41 76 RD","BROOKTONDALE","NY",14817,42.369400469,-76.3495456799999,396,"41 76 RD, BROOKTONDALE, NY, 14817","Match","Non_Exact","41 OLD 76 RD, BROOKTONDALE, NY, 14817",18861635,"L"
600397,"41 7TH AVE SOUTH G/F","NEW YORK","NY",10014,40.731052957,-74.0042565109999,397,"41 7TH AVE SOUTH G/F, NEW YORK, NY, 10014","Match","Exact","41 7TH AVE S, NEW YORK, NY, 10014",59663803,"R"
600398,"41 7TH AVENUE SOUTH APT PH","NEW YORK","NY",10014,40.731052957,-74.0042565109999,398,"41 7TH AVENUE SOUTH APT PH, NEW YORK, NY, 10014","Match","Exact","41 7TH AVE S, NEW YORK, NY, 10014",59663803,"R"
600399,"41 9TH AVENUE","HUNTINGTON STA","NY",11746,40.839995161,-73.421663092,399,"41 9TH AVENUE, HUNTINGTON STA, NY, 11746","Match","Exact","41 9TH AVE, HUNTINGTON STATION, NY, 11746",113963123,"R"
600400,"41 ABERDEEN STREET","STAMFORD","CT",6902,41.0471073730001,-73.5593429959999,400,"41 ABERDEEN STREET, STAMFORD, CT, 6902","Match","Exact","41 ABERDEEN ST, STAMFORD, CT, 06902",3244860,"R"
600401,"41 ACACIA PL","DOVER","DE",19901,39.1688096240001,-75.500731854,401,"41 ACACIA PL, DOVER, DE, 19901","Match","Exact","41 ACACIA PL, DOVER, DE, 19901",68108933,"L"
600402,"41 ACORDI DRIVE","CASEYVILLE","IL",62232,38.6383683120001,-90.036861877,402,"41 ACORDI DRIVE, CASEYVILLE, IL, 62232","Match","Exact","41 ACORDI DR, CASEYVILLE, IL, 62232",107880729,"R"
600403,"41 ACORN DR","WINDSOR LOCKS","CT",6096,41.943702031,-72.654653207,403,"41 ACORN DR, WINDSOR LOCKS, CT, 6096","Match","Exact","41 ACORN DR, WINDSOR LOCKS, CT, 06096",616357472,"L"
600404,"41 ACRES DR","RIDLEY PARK","PA",19078,39.8764531470001,-75.316067114,404,"41 ACRES DR, RIDLEY PARK, PA, 19078","Match","Exact","41 ACRES DR, RIDLEY PARK, PA, 19078",134898973,"R"
600405,"41 ADAM STREET","HARTFORD","CT",6114,NA,NA,405,"41 ADAM STREET, HARTFORD, CT, 6114","No_Match",NA,NA,NA,NA
600406,"41 ADAMS DRIVE","WHIPPANY","NJ",7981,40.8087477810001,-74.422904293,406,"41 ADAMS DRIVE, WHIPPANY, NJ, 7981","Match","Exact","41 ADAMS DR, WHIPPANY, NJ, 07981",60447141,"L"
600407,"41 AGAWAM LANE","ALTAMONT","NY",12209,42.7008169380001,-74.040386989,407,"41 AGAWAM LANE, ALTAMONT, NY, 12209","Match","Non_Exact","41 AGAWAM LN, ALTAMONT, NY, 12009",18323227,"L"
600408,"41 ALBERT AVENUE","ALDAN","PA",19018,39.9195608250001,-75.2903539879999,408,"41 ALBERT AVENUE, ALDAN, PA, 19018","Match","Exact","41 ALBERT AVE, ALDAN, PA, 19018",134883436,"L"
600409,"41 ALDER LN","BASKING RIDGE","NJ",7920,40.660462346,-74.6278541469999,409,"41 ALDER LN, BASKING RIDGE, NJ, 7920","Match","Exact","41 ALDER LN, BASKING RIDGE, NJ, 07920",59958001,"R"
600410,"41 ALDERWOOD","STRATHAM","NH",3833,NA,NA,410,"41 ALDERWOOD, STRATHAM, NH, 3833","No_Match",NA,NA,NA,NA
600411,"41 ALLENSON AVE","SOUTH ATTLEBORO","MA",2703,41.8987192270001,-71.371928351,411,"41 ALLENSON AVE, SOUTH ATTLEBORO, MA, 2703","Match","Non_Exact","41 ALLENSON ST, SOUTH ATTLEBORO, MA, 02703",46845944,"R"
600412,"41 ALPINE DR","ESTES PARK","CO",80517,40.36101975,-105.449899372,412,"41 ALPINE DR, ESTES PARK, CO, 80517","Match","Exact","41 ALPINE DR, ESTES PARK, CO, 80517",188532005,"L"
600413,"41 AMANDAS TEAL","BRIDGEVILLE","DE",19933,38.7143966830001,-75.600365354,413,"41 AMANDAS TEAL, BRIDGEVILLE, DE, 19933","Match","Non_Exact","41 AMANDA'S TEAL DR, BRIDGEVILLE, DE, 19933",624068437,"R"
600414,"41 ANDES PLACE","STATEN ISLAND","NY",10319,40.6060587950001,-74.116690236,414,"41 ANDES PLACE, STATEN ISLAND, NY, 10319","Match","Non_Exact","41 ANDES PL, STATEN ISLAND, NY, 10314",59866848,"L"
600415,"41 ANDOVER DR","KENDALL PARK","NJ",8824,40.402522634,-74.580594511,415,"41 ANDOVER DR, KENDALL PARK, NJ, 8824","Match","Exact","41 ANDOVER DR, KENDALL PARK, NJ, 08824",628753722,"L"
600416,"41 ANIL","RANCHO STA MARGARITA","CA",92688,33.6460702260001,-117.593020238,416,"41 ANIL, RANCHO STA MARGARITA, CA, 92688","Match","Exact","41 ANIL, RANCHO SANTA MARGARITA, CA, 92688",144379319,"L"
600417,"41 APT 31 PARKVIEW TERRACE","ENGLEWOOD","NJ",7631,40.8935882370001,-73.987409285,417,"41 APT 31 PARKVIEW TERRACE, ENGLEWOOD, NJ, 7631","Match","Exact","31 PARKVIEW TER, ENGLEWOOD, NJ, 07631",64414208,"L"
600418,"41 ARBOR HILL TRACE","JASPER","GA",30143,NA,NA,418,"41 ARBOR HILL TRACE, JASPER, GA, 30143","No_Match",NA,NA,NA,NA
600419,"41 ARBOR LANE","BARDONIA","NY",10954,41.1047076510001,-73.989549219,419,"41 ARBOR LANE, BARDONIA, NY, 10954","Match","Exact","41 ARBOR LN, BARDONIA, NY, 10954",124607259,"L"
600420,"41 ARDMORE ROAD","HO HO KUS","NJ",7423,41.007937612,-74.112854822,420,"41 ARDMORE ROAD, HO HO KUS, NJ, 7423","Match","Exact","41 ARDMORE RD, HO HO KUS, NJ, 07423",64366540,"L"
600421,"41 ARGYLE ST","EVERETT","MA",2149,42.4078520840001,-71.0517449609999,421,"41 ARGYLE ST, EVERETT, MA, 2149","Match","Exact","41 ARGYLE ST, EVERETT, MA, 02149",86873870,"R"
600422,"41 ARGYLE STREET","HARRISBURG","PA",17104,40.258561634,-76.8645822079999,422,"41 ARGYLE STREET, HARRISBURG, PA, 17104","Match","Exact","41 ARGYLE ST, HARRISBURG, PA, 17104",70818947,"L"
600423,"41 ARLINGTON AVE APT 310","SAINT PAUL","MN",55117,NA,NA,423,"41 ARLINGTON AVE APT 310, SAINT PAUL, MN, 55117","Tie",NA,NA,NA,NA
600424,"41 ARMOUR ROAD","PRINCETON","NJ",8540,40.3450233550001,-74.671299952,424,"41 ARMOUR ROAD, PRINCETON, NJ, 8540","Match","Exact","41 ARMOUR RD, PRINCETON, NJ, 08540",60172303,"R"
600425,"41 ARTHUR ROAD","NORTH BRANFORD","CT",6472,NA,NA,425,"41 ARTHUR ROAD, NORTH BRANFORD, CT, 6472","No_Match",NA,NA,NA,NA
600426,"41 ASHEL LN APT 7","MONSEY","NY",10952,41.121269155,-74.0660407239999,426,"41 ASHEL LN APT 7, MONSEY, NY, 10952","Match","Exact","41 ASHEL LN, MONSEY, NY, 10952",636442690,"R"
600427,"41 ASHLEY STREET","ASHLEY","PA",18706,41.2159993970001,-75.9005813489999,427,"41 ASHLEY STREET, ASHLEY, PA, 18706","Match","Exact","41 ASHLEY ST, ASHLEY, PA, 18706",80915157,"L"
600428,"41 ASSAY HILL COURT","SNOWMASS","CO",81615,39.211203142,-106.941158886,428,"41 ASSAY HILL COURT, SNOWMASS, CO, 81615","Match","Non_Exact","41 ASSAY HILL CT, SNOWMASS VILLAGE, CO, 81615",617343336,"R"
600429,"41 ATHERTON CIRCLE","PITTSBURG","CA",94565,38.014647875,-121.903833005,429,"41 ATHERTON CIRCLE, PITTSBURG, CA, 94565","Match","Exact","41 ATHERTON CIR, PITTSBURG, CA, 94565",639042533,"R"
600430,"41 AVENUE LOUIS PASTEUR AH 120","BOSTON","MA",2115,NA,NA,430,"41 AVENUE LOUIS PASTEUR AH 120, BOSTON, MA, 2115","No_Match",NA,NA,NA,NA
600431,"41 AVENUE N PACOT","PORT AU PRINCE",NA,NA,NA,NA,431,"41 AVENUE N PACOT, PORT AU PRINCE, , ","No_Match",NA,NA,NA,NA
600432,"41 AVERY SPENCE ROAD","FUQUAY VARINA","NC",27526,35.525829388,-78.860618989,432,"41 AVERY SPENCE ROAD, FUQUAY VARINA, NC, 27526","Match","Exact","41 AVERY SPENCE RD, FUQUAY VARINA, NC, 27526",71955592,"L"
600433,"41 AVIGNON CT","LITTLE ROCK","AR",72223,34.7750013090001,-92.465698316,433,"41 AVIGNON CT, LITTLE ROCK, AR, 72223","Match","Exact","41 AVIGNON CT, LITTLE ROCK, AR, 72223",83567825,"R"
600434,"41 AZURE LANE","ELKLAND","MO",65644,37.5974116990001,-93.037857819,434,"41 AZURE LANE, ELKLAND, MO, 65644","Match","Exact","41 AZURE LN, ELKLAND, MO, 65644",22925763,"R"
600435,"41 B NEW YORK AVENUE NW","WASHINGTON","DC",20001,38.9066632330001,-77.011045533,435,"41 B NEW YORK AVENUE NW, WASHINGTON, DC, 20001","Match","Exact","41 NEW YORK AVE NW, WASHINGTON, DC, 20001",76243037,"R"
600436,"41 BABCOCK HILL ROAD","S. WINDHAM","CT",6266,41.6763852220001,-72.170284948,436,"41 BABCOCK HILL ROAD, S. WINDHAM, CT, 6266","Match","Exact","41 BABCOCK HILL RD, SOUTH WINDHAM, CT, 06266",56441920,"L"
600437,"41 BALDY VIEW LANE","TOWNSEND","MT",59644,46.334912031,-111.485390402,437,"41 BALDY VIEW LANE, TOWNSEND, MT, 59644","Match","Non_Exact","41 BALDYVIEW LN, TOWNSEND, MT, 59644",641199252,"L"
600438,"41 BALSAM LANDING","GLASTONBURY","CT",6033,41.6928142620001,-72.568379551,438,"41 BALSAM LANDING, GLASTONBURY, CT, 6033","Match","Exact","41 BALSAM LNDG, GLASTONBURY, CT, 06033",636082199,"L"
600439,"41 BARBARA DRIVE","COVENTRY","CT",6238,41.820062949,-72.360918982,439,"41 BARBARA DRIVE, COVENTRY, CT, 6238","Match","Exact","41 BARBARA DR, COVENTRY, CT, 06238",624024765,"L"
600440,"41 BARD DR","SHIPPENSBURG","PA",17257,40.0608096600001,-77.528192802,440,"41 BARD DR, SHIPPENSBURG, PA, 17257","Match","Exact","41 BARD DR, SHIPPENSBURG, PA, 17257",624706254,"L"
600441,"41 BARTLETT DR","SCHWENKSVILLE","PA",19473,40.235177428,-75.480382063,441,"41 BARTLETT DR, SCHWENKSVILLE, PA, 19473","Match","Exact","41 BARTLETT DR, SCHWENKSVILLE, PA, 19473",135125524,"R"
600442,"41 BASS POND DRIVE","FRISCO","TX",75034,33.116304283,-96.814487424,442,"41 BASS POND DRIVE, FRISCO, TX, 75034","Match","Exact","41 BASS POND DR, FRISCO, TX, 75034",615052180,"L"
600443,"41 BAYHILL DRIVE","ST PETERS","MO",63366,38.799738522,-90.671640075,443,"41 BAYHILL DRIVE, ST PETERS, MO, 63366","Match","Non_Exact","41 BAY HILL DR, SAINT PETERS, MO, 63366",605547339,"R"
600444,"41 BEACH LN","CORAM","NY",11727,40.8687705340001,-72.97805253,444,"41 BEACH LN, CORAM, NY, 11727","Match","Exact","41 BEACH LN, CORAM, NY, 11727",114011200,"L"
600445,"41 BEACH PLUM CIRCLE","EAST HARWICH","MA",2645,41.704087353,-70.044511041,445,"41 BEACH PLUM CIRCLE, EAST HARWICH, MA, 2645","Match","Exact","41 BEACH PLUM CIR, EAST HARWICH, MA, 02645",121567485,"L"
600446,"41 BEACON DRIVE","NORTH KINGSTOWN","RI",2852,41.571246226,-71.514827496,446,"41 BEACON DRIVE, NORTH KINGSTOWN, RI, 2852","Match","Exact","41 BEACON DR, NORTH KINGSTOWN, RI, 02852",58908734,"L"
600447,"41 BEACON STREET APT 5","BOSTON","MA",2108,42.3569082990001,-71.066251987,447,"41 BEACON STREET APT 5, BOSTON, MA, 2108","Match","Exact","41 BEACON ST, BOSTON, MA, 02108",639000385,"R"
600448,"41 BECKY BLVD","RUSSELLVILLE","AR",72802,35.2907667970001,-93.037981852,448,"41 BECKY BLVD, RUSSELLVILLE, AR, 72802","Match","Exact","41 BECKY BLVD, RUSSELLVILLE, AR, 72802",81896608,"L"
600449,"41 BEDTICK RD","DOUGLAS","WY",82633,42.7079924780001,-105.402304206,449,"41 BEDTICK RD, DOUGLAS, WY, 82633","Match","Exact","41 BEDTICK RD, DOUGLAS, WY, 82633",606568784,"R"
600450,"41 BEECH AVENUE","FANWOOD","NJ",7023,40.6411138510001,-74.378177695,450,"41 BEECH AVENUE, FANWOOD, NJ, 7023","Match","Exact","41 BEECH AVE, FANWOOD, NJ, 07023",60567754,"L"
600451,"41 BEECH ROAD","ENFIELD","CT",6082,41.9814978480001,-72.566030059,451,"41 BEECH ROAD, ENFIELD, CT, 6082","Match","Exact","41 BEECH RD, ENFIELD, CT, 06082",3480591,"L"
600452,"41 BELL GROVE DR","DESTREHAN","LA",70047,29.980969241,-90.369637359,452,"41 BELL GROVE DR, DESTREHAN, LA, 70047","Match","Non_Exact","41 BELLE GROVE DR, DESTREHAN, LA, 70047",93617650,"L"
600453,"41 BEN NEVIS RD","BREVARD","NC",28712,35.1125082500001,-82.8346656479999,453,"41 BEN NEVIS RD, BREVARD, NC, 28712","Match","Exact","41 BEN NEVIS RD, BREVARD, NC, 28712",611217750,"L"
600454,"41 BERGEN AVE","SEWELL","NJ",8080,39.7749735530001,-75.146733393,454,"41 BERGEN AVE, SEWELL, NJ, 8080","Match","Exact","41 BERGEN AVE, SEWELL, NJ, 08080",134585553,"R"
600455,"41 BERKSHIRE DR","SEWELL","NJ",8080,39.772577792,-75.083066678,455,"41 BERKSHIRE DR, SEWELL, NJ, 8080","Match","Exact","41 BERKSHIRE DR, SEWELL, NJ, 08080",134598490,"L"
600456,"41 BERRY HILL ROAD","OYSTER BAY COVE","NY",11771,NA,NA,456,"41 BERRY HILL ROAD, OYSTER BAY COVE, NY, 11771","No_Match",NA,NA,NA,NA
600457,"41 BETHANY RD","SELBYVILLE","DE",19975,38.4599561630001,-75.216685967,457,"41 BETHANY RD, SELBYVILLE, DE, 19975","Match","Exact","41 BETHANY RD, SELBYVILLE, DE, 19975",106075541,"L"
600458,"41 BEVERLY RD","NEW HAVEN","CT",6515,41.3310146690001,-72.9796032369999,458,"41 BEVERLY RD, NEW HAVEN, CT, 6515","Match","Exact","41 BEVERLY RD, NEW HAVEN, CT, 06515",3697180,"R"
600459,"41 BIRCH AVENUE","PLAINFIELD","NJ",7062,40.642150171,-74.408267327,459,"41 BIRCH AVENUE, PLAINFIELD, NJ, 7062","Match","Exact","41 BIRCH AVE, PLAINFIELD, NJ, 07062",60567040,"L"
600460,"41 BIRCH STREET","WALNUT CREEK","CA",94594,NA,NA,460,"41 BIRCH STREET, WALNUT CREEK, CA, 94594","No_Match",NA,NA,NA,NA
600461,"41 BISHOP STREET","NEW HAVEN","CT",6511,41.315672985,-72.912304749,461,"41 BISHOP STREET, NEW HAVEN, CT, 6511","Match","Exact","41 BISHOP ST, NEW HAVEN, CT, 06511",651698819,"R"
600462,"41 BLACK DIAMOND RD","EPHRATA","PA",17522,40.1735740550001,-76.1595533559999,462,"41 BLACK DIAMOND RD, EPHRATA, PA, 17522","Match","Exact","41 BLACK DIAMOND RD, EPHRATA, PA, 17522",627069960,"L"
600463,"41 BLACKBERRY LANE","HYDE PARK","VT",5655,NA,NA,463,"41 BLACKBERRY LANE, HYDE PARK, VT, 5655","No_Match",NA,NA,NA,NA
600464,"41 BLAIR DRIVE","NORTH AUGUSTA","SC",29860,33.550335327,-81.981381976,464,"41 BLAIR DRIVE, NORTH AUGUSTA, SC, 29860","Match","Exact","41 BLAIR DR, NORTH AUGUSTA, SC, 29860",640729389,"R"
600465,"41 BLUE HERON CT","OAKLEY","CA",94561,37.9911455340001,-121.687966995,465,"41 BLUE HERON CT, OAKLEY, CA, 94561","Match","Exact","41 BLUE HERON CT, OAKLEY, CA, 94561",624619273,"R"
600466,"41 BLUE JAY DRIVE","CONCORD","MA",1742,42.458158548,-71.410552019,466,"41 BLUE JAY DRIVE, CONCORD, MA, 1742","Match","Exact","41 BLUE JAY DR, CONCORD, MA, 01742",87172204,"L"
600467,"41 BOEHM WAY","HILLSBOROUGH","NJ",8844,40.471390193,-74.672026279,467,"41 BOEHM WAY, HILLSBOROUGH, NJ, 8844","Match","Exact","41 BOEHM WAY, HILLSBOROUGH, NJ, 08844",627510561,"L"
600468,"41 BOEHMWAY","HILLLSBOROUGH","NJ",8844,NA,NA,468,"41 BOEHMWAY, HILLLSBOROUGH, NJ, 8844","No_Match",NA,NA,NA,NA
600469,"41 BOEHMWAY","HILLSBOROUGH","NJ",8844,NA,NA,469,"41 BOEHMWAY, HILLSBOROUGH, NJ, 8844","No_Match",NA,NA,NA,NA
600470,"41 BOMBAUGH RD","HALIFAX","PA",17032,40.489585004,-76.867787058,470,"41 BOMBAUGH RD, HALIFAX, PA, 17032","Match","Exact","41 BOMBAUGH RD, HALIFAX, PA, 17032",70813495,"R"
600471,"41 BONHEIM STREET","ALBANY","NY",12204,42.67650064,-73.737977776,471,"41 BONHEIM STREET, ALBANY, NY, 12204","Match","Exact","41 BONHEIM ST, ALBANY, NY, 12204",18310670,"R"
600472,"41 BONNYBROOK RD","NEWTON","MA",2468,42.334911391,-71.225028718,472,"41 BONNYBROOK RD, NEWTON, MA, 2468","Match","Non_Exact","41 BONNYBROOK RD, WABAN, MA, 02468",86863316,"R"
600473,"41 BOOKER FOWLER RD","FOREST HILL","LA",71430,31.0960467940001,-92.49211134,473,"41 BOOKER FOWLER RD, FOREST HILL, LA, 71430","Match","Exact","41 BOOKER FOWLER RD, FOREST HILL, LA, 71430",11799286,"R"
600474,"41 BOSTON RD","BILLERICA","MA",1862,42.598240209,-71.2989809169999,474,"41 BOSTON RD, BILLERICA, MA, 1862","Match","Non_Exact","41 BOSTON RD, N BILLERICA, MA, 01862",86894415,"R"
600475,"41 BOSTON ROAD - UNIT 473","NORTH BILLERICA","MA",1862,NA,NA,475,"41 BOSTON ROAD - UNIT 473, NORTH BILLERICA, MA, 1862","No_Match",NA,NA,NA,NA
600476,"41 BRADFORD STREET","PROVINCETOWN","MA",2657,42.0474887330001,-70.192341859,476,"41 BRADFORD STREET, PROVINCETOWN, MA, 2657","Match","Exact","41 BRADFORD ST, PROVINCETOWN, MA, 02657",121623673,"R"
600477,"41 BRANDT STREET","LITTLE FERRY","NJ",7643,40.852576754,-74.039804411,477,"41 BRANDT STREET, LITTLE FERRY, NJ, 7643","Match","Exact","41 BRANDT ST, LITTLE FERRY, NJ, 07643",64451557,"L"
600478,"41 BRENA","IRVINE","CA",92620,33.723202572,-117.767565293,478,"41 BRENA, IRVINE, CA, 92620","Match","Exact","41 BRENA, IRVINE, CA, 92620",144057531,"L"
600479,"41 BREWSTER DRIVE","MIDDLETOWN","NY",10940,41.457832131,-74.4445983259999,479,"41 BREWSTER DRIVE, MIDDLETOWN, NY, 10940","Match","Exact","41 BREWSTER DR, MIDDLETOWN, NY, 10940",124388220,"L"
600480,"41 BREWSTER","MIDDLETOWN","NY",10940,41.457832131,-74.4445983259999,480,"41 BREWSTER, MIDDLETOWN, NY, 10940","Match","Non_Exact","41 BREWSTER DR, MIDDLETOWN, NY, 10940",124388220,"L"
600481,"41 BRIARWOOD DRIVE","LANCASTER","NY",14086,42.889038924,-78.6783797149999,481,"41 BRIARWOOD DRIVE, LANCASTER, NY, 14086","Match","Exact","41 BRIARWOOD DR, LANCASTER, NY, 14086",48308461,"R"
600482,"41 BRIARWOOD LANE","SILVER CITY","NM",88061,32.817907684,-108.273424956,482,"41 BRIARWOOD LANE, SILVER CITY, NM, 88061","Match","Exact","41 BRIARWOOD LN, SILVER CITY, NM, 88061",649982700,"R"
600483,"41 BRIDGE VIEW","DOUGLASVILLE","GA",30134,33.7931152350001,-84.816409245,483,"41 BRIDGE VIEW, DOUGLASVILLE, GA, 30134","Match","Non_Exact","41 BRIDGEVIEW, DOUGLASVILLE, GA, 30134",17746775,"L"
600484,"41 BRIDLE PATH RD","LYNN","MA",1904,42.5023844890001,-70.9901478789999,484,"41 BRIDLE PATH RD, LYNN, MA, 1904","Match","Exact","41 BRIDLE PATH RD, LYNN, MA, 01904",624039080,"R"
600485,"41 BRIDLE ROAD","BILLERICA","MA",1821,42.5617604,-71.2855383799999,485,"41 BRIDLE ROAD, BILLERICA, MA, 1821","Match","Exact","41 BRIDLE RD, BILLERICA, MA, 01821",86896927,"R"
600486,"41 BROADVIEW AVENUE","MAPLEWOOD","NJ",7040,40.7216352120001,-74.276290632,486,"41 BROADVIEW AVENUE, MAPLEWOOD, NJ, 7040","Match","Exact","41 BROADVIEW AVE, MAPLEWOOD, NJ, 07040",63495803,"L"
600487,"41 BROADWAY ST","LOWELL","MA",1854,42.643972257,-71.31571739,487,"41 BROADWAY ST, LOWELL, MA, 1854","Match","Exact","41 BROADWAY ST, LOWELL, MA, 01854",86878203,"R"
600488,"41 BROOKE ANN COURT","TAYLORS","SC",29687,35.0109601460001,-82.31783226,488,"41 BROOKE ANN COURT, TAYLORS, SC, 29687","Match","Exact","41 BROOKE ANN CT, TAYLORS, SC, 29687",38348159,"L"
600489,"41 BROOKER DRIVE","NEWBURGH","NY",12550,41.552107762,-74.016238618,489,"41 BROOKER DRIVE, NEWBURGH, NY, 12550","Match","Exact","41 BROOKER DR, NEWBURGH, NY, 12550",124405820,"L"
600490,"41 BROOKSITE DRIVE","SMITHTOWN","NY",11787,40.8518757210001,-73.207135399,490,"41 BROOKSITE DRIVE, SMITHTOWN, NY, 11787","Match","Exact","41 BROOKSITE DR, SMITHTOWN, NY, 11787",113988387,"R"
600491,"41 BROWNS AVE APT 4","SCOTTSVILLE","NY",14546,43.026319277,-77.750547403,491,"41 BROWNS AVE APT 4, SCOTTSVILLE, NY, 14546","Match","Exact","41 BROWNS AVE, SCOTTSVILLE, NY, 14546",14529361,"L"
600492,"41 BROWNSTONE WAY APT 414","ENGLEWOOD","NJ",7631,NA,NA,492,"41 BROWNSTONE WAY APT 414, ENGLEWOOD, NJ, 7631","No_Match",NA,NA,NA,NA
600493,"41 BRUNSWICK ST","ROCHESTER","NY",14607,43.1489712640001,-77.5734506379999,493,"41 BRUNSWICK ST, ROCHESTER, NY, 14607","Match","Exact","41 BRUNSWICK ST, ROCHESTER, NY, 14607",14541138,"R"
600494,"41 BRUNSWICK STREET APT 2","ROCHESTER","NY",14607,43.1489712640001,-77.5734506379999,494,"41 BRUNSWICK STREET APT 2, ROCHESTER, NY, 14607","Match","Exact","41 BRUNSWICK ST, ROCHESTER, NY, 14607",14541138,"R"
600495,"41 BUCKLIN STREET","PAWTUCKET","RI",2861,41.888610935,-71.361697588,495,"41 BUCKLIN STREET, PAWTUCKET, RI, 2861","Match","Exact","41 BUCKLIN ST, PAWTUCKET, RI, 02861",47468586,"R"
600496,"41 BUCKNELL DRIVE","HAZLET","NJ",7730,40.4239340140001,-74.169446409,496,"41 BUCKNELL DRIVE, HAZLET, NJ, 7730","Match","Exact","41 BUCKNELL DR, HAZLET, NJ, 07730",90475441,"R"
600497,"41 BUNNY ROAD","PRESTON","CT",6365,41.5203937970001,-71.9724837219999,497,"41 BUNNY ROAD, PRESTON, CT, 6365","Match","Exact","41 BUNNY RD, PRESTON, CT, 06365",56863424,"R"
600498,"41 BURROUGHS 306","DETROIT","MI",48202,42.3656096280001,-83.0705879879999,498,"41 BURROUGHS 306, DETROIT, MI, 48202","Match","Non_Exact","41 BURROUGHS ST, DETROIT, MI, 48202",95477313,"L"
600499,"41 BUTTERFIELD DRIVE","GREENLAWN","NY",11740,40.8566493170001,-73.373117469,499,"41 BUTTERFIELD DRIVE, GREENLAWN, NY, 11740","Match","Exact","41 BUTTERFIELD DR, GREENLAWN, NY, 11740",113966897,"L"
600500,"41 BUTTERMILL PIKE","LAKESIDE PARK","KY",41017,NA,NA,500,"41 BUTTERMILL PIKE, LAKESIDE PARK, KY, 41017","No_Match",NA,NA,NA,NA
