"ID","Address","City","State","Zip","lat","long","id","input_address","match_indicator","match_type","matched_address","tiger_line_id","tiger_side"
734501,"570 HOLBROOK DR","YORK","PA",17402,NA,NA,1,"570 HOLBROOK DR, YORK, PA, 17402","No_Match",NA,NA,NA,NA
734502,"570 HONDIUS CIRCLE","ESTES PARK","CO",80517,40.3618927790001,-105.530767735,2,"570 HONDIUS CIRCLE, ESTES PARK, CO, 80517","Match","Exact","570 HONDIUS CIR, ESTES PARK, CO, 80517",188497805,"R"
734503,"570 IRON MINE HILL RD","NORTH SMITHFIELD","RI",2896,41.9551286020001,-71.5108040009999,3,"570 IRON MINE HILL RD, NORTH SMITHFIELD, RI, 2896","Match","Exact","570 IRON MINE HILL RD, NORTH SMITHFIELD, RI, 02896",623958191,"R"
734504,"570 JACKSON AVE","ELIZABETH","NJ",7201,40.673195897,-74.202733439,4,"570 JACKSON AVE, ELIZABETH, NJ, 7201","Match","Exact","570 JACKSON AVE, ELIZABETH, NJ, 07201",60578847,"L"
734505,"570 JEPTHA KNOB ROAD","SHELBYVILLE","KY",40065,38.1824117,-85.1092809519999,5,"570 JEPTHA KNOB ROAD, SHELBYVILLE, KY, 40065","Match","Exact","570 JEPTHA KNOB RD, SHELBYVILLE, KY, 40065",651600805,"R"
734506,"570 JERSEY AVENUE","JERSEY CITY","NJ",7302,40.722956765,-74.0457857279999,6,"570 JERSEY AVENUE, JERSEY CITY, NJ, 7302","Match","Exact","570 JERSEY AVE, JERSEY CITY, NJ, 07302",59606142,"R"
734507,"570 JONES","ROYSE CITY","TX",75189,32.8877454120001,-96.34250293,7,"570 JONES, ROYSE CITY, TX, 75189","Match","Non_Exact","570 JONES RD, ROYSE CITY, TX, 75189",653213498,"R"
734508,"570 LAKE KNOLL CT","GAHANNA","OH",43230,40.0355364390001,-82.8935275429999,8,"570 LAKE KNOLL CT, GAHANNA, OH, 43230","Match","Exact","570 LAKE KNOLL CT, GAHANNA, OH, 43230",135746789,"R"
734509,"570 LEESBURG ROAD","JONESBOROUGH","TN",37659,NA,NA,9,"570 LEESBURG ROAD, JONESBOROUGH, TN, 37659","No_Match",NA,NA,NA,NA
734510,"570 LEFFERTS AVE APT 1B","BROOKLYN","NY",11203,40.6629047110001,-73.941818149,10,"570 LEFFERTS AVE APT 1B, BROOKLYN, NY, 11203","Match","Exact","570 LEFFERTS AVE, BROOKLYN, NY, 11203",642653715,"R"
734511,"570 LEFFERTS AVENUE","BROOKLYN","NY",11203,40.6629047110001,-73.941818149,11,"570 LEFFERTS AVENUE, BROOKLYN, NY, 11203","Match","Exact","570 LEFFERTS AVE, BROOKLYN, NY, 11203",642653715,"R"
734512,"570 LIBERTY ST SE   SUITE 200","SALEM","OR",97301,44.9353087440001,-123.041169325,12,"570 LIBERTY ST SE   SUITE 200, SALEM, OR, 97301","Match","Exact","570 LIBERTY ST SE, SALEM, OR, 97301",156277926,"L"
734513,"570 LIBERTY ST SE  SUITE 200","SALEM","OR",97301,44.9353087440001,-123.041169325,13,"570 LIBERTY ST SE  SUITE 200, SALEM, OR, 97301","Match","Exact","570 LIBERTY ST SE, SALEM, OR, 97301",156277926,"L"
734514,"570 LIBERTY ST SE SUITE 200","SALEM","OR",97301,44.9353087440001,-123.041169325,14,"570 LIBERTY ST SE SUITE 200, SALEM, OR, 97301","Match","Exact","570 LIBERTY ST SE, SALEM, OR, 97301",156277926,"L"
734515,"570 LILAC RD","CASSELBERRY","FL",32707,28.655519799,-81.323363673,15,"570 LILAC RD, CASSELBERRY, FL, 32707","Match","Exact","570 LILAC RD, CASSELBERRY, FL, 32707",93744069,"R"
734516,"570 LOWE RD","MADISON","NC",27025,36.345730551,-79.904904082,16,"570 LOWE RD, MADISON, NC, 27025","Match","Exact","570 LOWE RD, MADISON, NC, 27025",56233041,"R"
734517,"570 LOWER GLADE CREEK ROAD","SUMMERSVILLE","WV",26651,38.311717393,-80.8020651739999,17,"570 LOWER GLADE CREEK ROAD, SUMMERSVILLE, WV, 26651","Match","Exact","570 LOWER GLADE CREEK RD, SUMMERSVILLE, WV, 26651",50060716,"L"
734518,"570 LYNHURST DR SW","ATLANTA","GA",30311,33.739849249,-84.4907133139999,18,"570 LYNHURST DR SW, ATLANTA, GA, 30311","Match","Exact","570 LYNHURST DR SW, ATLANTA, GA, 30311",17337098,"L"
734519,"570 MAIN ST","FAIRVIEW","IL",61432,40.6321945540001,-90.165098499,19,"570 MAIN ST, FAIRVIEW, IL, 61432","Match","Non_Exact","570 W MAIN ST, FAIRVIEW, IL, 61432",15551186,"L"
734520,"570 MAPLE AVE","HITCHCOCK","SD",57348,44.6260947580001,-98.4126865869999,20,"570 MAPLE AVE, HITCHCOCK, SD, 57348","Match","Exact","570 MAPLE AVE, HITCHCOCK, SD, 57348",201034786,"R"
734521,"570 MARTINEZ DR","LA HABRA","CA",90631,33.9266030850001,-117.972403501,21,"570 MARTINEZ DR, LA HABRA, CA, 90631","Match","Exact","570 MARTINEZ DR, LA HABRA, CA, 90631",143997835,"L"
734522,"570 MCMINN ROAD","PORT TOWNSEND","WA",98368,48.1153614770001,-122.864407734,22,"570 MCMINN ROAD, PORT TOWNSEND, WA, 98368","Match","Exact","570 MCMINN RD, PORT TOWNSEND, WA, 98368",151991964,"L"
734523,"570 MEADOW WOOD DR","BRANDENBURG","KY",40108,37.948015728,-86.1793226079999,23,"570 MEADOW WOOD DR, BRANDENBURG, KY, 40108","Match","Non_Exact","570 MEADOW WOOD EST, BRANDENBURG, KY, 40108",635426023,"R"
734524,"570 MERCER ST","SEATTLE","WA",98109,47.624556985,-122.345333551,24,"570 MERCER ST, SEATTLE, WA, 98109","Match","Exact","570 MERCER ST, SEATTLE, WA, 98109",652722765,"L"
734525,"570 MERRITT AVE","OAKLAND","CA",94610,37.807805467,-122.24652754,25,"570 MERRITT AVE, OAKLAND, CA, 94610","Match","Exact","570 MERRITT AVE, OAKLAND, CA, 94610",606279022,"R"
734526,"570 MILLER AVENUE","COLUMBUS","OH",43205,39.9548088920001,-82.960925112,26,"570 MILLER AVENUE, COLUMBUS, OH, 43205","Match","Exact","570 MILLER AVE, COLUMBUS, OH, 43205",135581737,"L"
734527,"570 MOUNT HOPE ROAD","LINCOLN UNIVERSITY","PA",19352,39.78717686,-75.906993026,27,"570 MOUNT HOPE ROAD, LINCOLN UNIVERSITY, PA, 19352","Match","Exact","570 MOUNT HOPE RD, LINCOLN UNIV, PA, 19352",179550770,"L"
734528,"570 MOUTH OF CYPRESS ROAD","WEST MONROE","LA",71292,32.3057476660001,-92.150508863,28,"570 MOUTH OF CYPRESS ROAD, WEST MONROE, LA, 71292","Match","Exact","570 MOUTH OF CYPRESS RD, WEST MONROE, LA, 71292",612388083,"L"
734529,"570 N COVE COLONY WAY","EAGLE","ID",83616,43.7006818290001,-116.392569731,29,"570 N COVE COLONY WAY, EAGLE, ID, 83616","Match","Non_Exact","570 N COVE COLONY, EAGLE, ID, 83616",117899930,"R"
734530,"570 N FAIRFIELD ST","SUSANVILLE","CA",96130,40.4207333890001,-120.639056737,30,"570 N FAIRFIELD ST, SUSANVILLE, CA, 96130","Match","Non_Exact","570 N FAIRFIELD AVE, SUSANVILLE, CA, 96130",126951798,"L"
734531,"570 N MATHEW","PORTERVILLE","CA",93257,NA,NA,31,"570 N MATHEW, PORTERVILLE, CA, 93257","Tie",NA,NA,NA,NA
734532,"570 N ROSSMORE AVENUE APT 411","LOS ANGELES","CA",90004,34.0808311000001,-118.327160326,32,"570 N ROSSMORE AVENUE APT 411, LOS ANGELES, CA, 90004","Match","Non_Exact","570 N ROSSMORE AVE, LOS ANGELES, CA, 90004",141599979,"R"
734533,"570 N ROSSMORE AVENUE SUITE 105","LOS ANGELES","CA",90004,34.0808311000001,-118.327160326,33,"570 N ROSSMORE AVENUE SUITE 105, LOS ANGELES, CA, 90004","Match","Non_Exact","570 N ROSSMORE AVE, LOS ANGELES, CA, 90004",141599979,"R"
734534,"570 NATHAN DR","COPPERAS COVE","TX",76522,31.108513594,-97.8856237049999,34,"570 NATHAN DR, COPPERAS COVE, TX, 76522","Match","Exact","570 NATHAN DR, COPPERAS COVE, TX, 76522",146570935,"R"
734535,"570 NEW WAVERLY PL STE 220","CARY","NC",27518,35.7388016680001,-78.7758252789999,35,"570 NEW WAVERLY PL STE 220, CARY, NC, 27518","Match","Non_Exact","570 NEW WAVERLY PL, CARY, NC, 27518",72568306,"R"
734536,"570 NORTH HARRISON AVENUE","KANKAKEE","IL",60901,41.1258891270001,-87.858553555,36,"570 NORTH HARRISON AVENUE, KANKAKEE, IL, 60901","Match","Exact","570 N HARRISON AVE, KANKAKEE, IL, 60901",98357950,"R"
734537,"570 NORTH MAIN STREET","RANDOLPH","MA",2368,42.1762242770001,-71.049282993,37,"570 NORTH MAIN STREET, RANDOLPH, MA, 2368","Match","Exact","570 N MAIN ST, RANDOLPH, MA, 02368",87268106,"R"
734538,"570 NORTH PARK","DETROIT","MI",48215,42.366612263,-82.9478235889999,38,"570 NORTH PARK, DETROIT, MI, 48215","Match","Non_Exact","570 N PARK ST, DETROIT, MI, 48215",95510785,"R"
734539,"570 NW 26TH STREET","MIAMI","FL",33127,25.800897143,-80.204520443,39,"570 NW 26TH STREET, MIAMI, FL, 33127","Match","Exact","570 NW 26TH ST, MIAMI, FL, 33127",116017244,"L"
734540,"570 NW 33RD AVE","LAUDERHILL","FL",33311,26.128696996,-80.188878156,40,"570 NW 33RD AVE, LAUDERHILL, FL, 33311","Match","Exact","570 NW 33RD AVE, LAUDERHILL, FL, 33311",114709960,"R"
734541,"570 O FARRELL NO 119","SAN FRANCISCO","CA",94102,NA,NA,41,"570 O FARRELL NO 119, SAN FRANCISCO, CA, 94102","No_Match",NA,NA,NA,NA
734542,"570 OAK ST","ASHDOWN","AR",71822,33.678156486,-94.129172737,42,"570 OAK ST, ASHDOWN, AR, 71822","Match","Exact","570 OAK ST, ASHDOWN, AR, 71822",84776445,"R"
734543,"570 OAKLAND AVENUE","OAKLAND","CA",94611,37.8201758770001,-122.252028394,43,"570 OAKLAND AVENUE, OAKLAND, CA, 94611","Match","Exact","570 OAKLAND AVE, OAKLAND, CA, 94611",125000686,"R"
734544,"570 OCEAN AVENUE - APT 6G","BROOKLYN","NY",11226,40.649002077,-73.960810087,44,"570 OCEAN AVENUE - APT 6G, BROOKLYN, NY, 11226","Match","Exact","570 OCEAN AVE, BROOKLYN, NY, 11226",59080978,"R"
734545,"570 ONTARIO STREET","BUFFALO","NY",14207,42.9586611500001,-78.895440928,45,"570 ONTARIO STREET, BUFFALO, NY, 14207","Match","Exact","570 ONTARIO ST, BUFFALO, NY, 14207",48287265,"L"
734546,"570 ORCHARD ROW","CRYSTAL LAKE","IL",60014,42.2467481790001,-88.341771684,46,"570 ORCHARD ROW, CRYSTAL LAKE, IL, 60014","Match","Exact","570 ORCHARD ROW, CRYSTAL LAKE, IL, 60014",119819765,"L"
734547,"570 OXBO ROAD","ROSWELL","GA",30075,34.01814381,-84.349837,47,"570 OXBO ROAD, ROSWELL, GA, 30075","Match","Exact","570 OXBO RD, ROSWELL, GA, 30075",17368014,"L"
734548,"570 PIEDMONT AVE NE  STE 54915","ATLANTA","GA",30308,33.7567237430001,-84.382239012,48,"570 PIEDMONT AVE NE  STE 54915, ATLANTA, GA, 30308","Match","Non_Exact","570 PIEDMONT AVE NE, ATLANTA, GA, 30303",17344653,"L"
734549,"570 PIEDMONT AVE NE UNIT 54990","ATLANTA","GA",30308,33.7567237430001,-84.382239012,49,"570 PIEDMONT AVE NE UNIT 54990, ATLANTA, GA, 30308","Match","Non_Exact","570 PIEDMONT AVE NE, ATLANTA, GA, 30303",17344653,"L"
734550,"570 PIEDMONT AVE PO BOX 54874","ATLANTA","GA",30308,NA,NA,50,"570 PIEDMONT AVE PO BOX 54874, ATLANTA, GA, 30308","No_Match",NA,NA,NA,NA
734551,"570 PINNACLE RIDGE ROAD","WATERBURY","VT",5676,44.3566367170001,-72.7650479599999,51,"570 PINNACLE RIDGE ROAD, WATERBURY, VT, 5676","Match","Non_Exact","570 S PINNACLE RIDGE RD, WATERBURY, VT, 05676",136693451,"R"
734552,"570 PLANTATION DRIVE","NORTH AUGUSTA","SC",29841,33.5313370310001,-81.990795855,52,"570 PLANTATION DRIVE, NORTH AUGUSTA, SC, 29841","Match","Exact","570 PLANTATION DR, NORTH AUGUSTA, SC, 29841",653520751,"R"
734553,"570 PLUG ROAD","LEAKESVILLE","MS",39451,NA,NA,53,"570 PLUG ROAD, LEAKESVILLE, MS, 39451","No_Match",NA,NA,NA,NA
734554,"570 POND ST","WEYMOUTH","MA",2190,42.1509550650001,-70.953856817,54,"570 POND ST, WEYMOUTH, MA, 2190","Match","Exact","570 POND ST, WEYMOUTH, MA, 02190",87280199,"L"
734555,"570 POTTER DR","BEAUMONT","TX",77707,30.070174659,-94.179286476,55,"570 POTTER DR, BEAUMONT, TX, 77707","Match","Exact","570 POTTER DR, BEAUMONT, TX, 77707",73852058,"R"
734556,"570 PR 2518","DECATUR","TX",76234,33.3003546750001,-97.444293074,56,"570 PR 2518, DECATUR, TX, 76234","Match","Non_Exact","570 CO RD 2518, DECATUR, TX, 76234",611201954,"R"
734557,"570 PROSPECT STREET","TROY","PA",16947,41.782896614,-76.794584577,57,"570 PROSPECT STREET, TROY, PA, 16947","Match","Exact","570 PROSPECT ST, TROY, PA, 16947",176959207,"R"
734558,"570 RAGAN DR","MIAMI","FL",33166,25.8107162000001,-80.2686959069999,58,"570 RAGAN DR, MIAMI, FL, 33166","Match","Exact","570 RAGAN DR, MIAMI, FL, 33166",116000041,"R"
734559,"570 RICHARDSON LOOP","DRY PRONG","LA",71423,31.6050431620001,-92.613920014,59,"570 RICHARDSON LOOP, DRY PRONG, LA, 71423","Match","Exact","570 RICHARDSON LOOP, DRY PRONG, LA, 71423",13271980,"L"
734560,"570 RICHLAND AVE","POCATELLO","ID",83201,42.8853341130001,-112.458795859,60,"570 RICHLAND AVE, POCATELLO, ID, 83201","Match","Exact","570 RICHLAND AVE, POCATELLO, ID, 83201",204350989,"R"
734561,"570 RIVERBEND DRIVE","PEARISBURG","VA",24134,37.3127982770001,-80.683798934,61,"570 RIVERBEND DRIVE, PEARISBURG, VA, 24134","Match","Exact","570 RIVERBEND DR, PEARISBURG, VA, 24134",46997767,"R"
734562,"570 ROCK CREEK DRIVE","WASHINGTON","MO",63090,38.4788409970001,-91.044040874,62,"570 ROCK CREEK DRIVE, WASHINGTON, MO, 63090","Match","Exact","570 ROCK CREEK DR, WASHINGTON, MO, 63090",605163074,"L"
734563,"570 ROOSEVELT AVE","TOMS RIVER","NJ",8753,39.9556506050001,-74.135952486,63,"570 ROOSEVELT AVE, TOMS RIVER, NJ, 8753","Match","Exact","570 ROOSEVELT AVE, TOMS RIVER, NJ, 08753",203737344,"L"
734564,"570 S GRIFFITH CREEK ROAD","MECHANICSBURG","IL",62545,39.794961368,-89.420913695,64,"570 S GRIFFITH CREEK ROAD, MECHANICSBURG, IL, 62545","Match","Exact","570 S GRIFFITH CREEK RD, MECHANICSBURG, IL, 62545",616172177,"R"
734565,"570 S MAYSS ST","GLOBE","AZ",85501,33.395636498,-110.792814503,65,"570 S MAYSS ST, GLOBE, AZ, 85501","Match","Exact","570 MAYSS ST, GLOBE, AZ, 85501",630115802,"R"
734566,"570 S MOLLISON APT 5","EL CAJON","CA",92020,NA,NA,66,"570 S MOLLISON APT 5, EL CAJON, CA, 92020","No_Match",NA,NA,NA,NA
734567,"570 SANDHURST DR W APT 301","ROSEVILLE","MN",55113,45.0080949310001,-93.121665007,67,"570 SANDHURST DR W APT 301, ROSEVILLE, MN, 55113","Match","Non_Exact","570 SANDHURST DR, ROSEVILLE, MN, 55113",97666819,"L"
734568,"570 SE 13TH ST","HOMESTEAD","FL",33030,NA,NA,68,"570 SE 13TH ST, HOMESTEAD, FL, 33030","Tie",NA,NA,NA,NA
734569,"570 SE WESTGATE DR","WAUKEE","IA",50263,41.6094541370001,-93.861970904,69,"570 SE WESTGATE DR, WAUKEE, IA, 50263","Match","Exact","570 WESTGATE DR, WAUKEE, IA, 50263",65643850,"R"
734570,"570 SECOND SOUTH STREET","WOODVILLE","MS",39669,31.101236151,-91.2980482949999,70,"570 SECOND SOUTH STREET, WOODVILLE, MS, 39669","Match","Exact","570 SECOND SOUTH ST, WOODVILLE, MS, 39669",75904005,"R"
734571,"570 SEMINOLE ROAD","MUSKEGON","MI",49444,43.186997418,-86.258308288,71,"570 SEMINOLE ROAD, MUSKEGON, MI, 49444","Match","Exact","570 SEMINOLE RD, MUSKEGON, MI, 49444",77653568,"R"
734572,"570 SHAFOR BLVD","OAKWOOD","OH",45419,39.726631948,-84.167482175,72,"570 SHAFOR BLVD, OAKWOOD, OH, 45419","Match","Exact","570 SHAFOR BLVD, OAKWOOD, OH, 45419",143581350,"L"
734573,"570 SKOKIE AVENUE","HIGHLAND PARK","IL",60035,42.1947248010001,-87.8063171049999,73,"570 SKOKIE AVENUE, HIGHLAND PARK, IL, 60035","Match","Exact","570 SKOKIE AVE, HIGHLAND PARK, IL, 60035",637289423,"L"
734574,"570 SNAVELY RD","STAMPING GROUND","KY",40379,38.2812865450001,-84.7302291569999,74,"570 SNAVELY RD, STAMPING GROUND, KY, 40379","Match","Exact","570 SNAVELY RD, STAMPING GROUND, KY, 40379",41229936,"R"
734575,"570 SOUTH SQAURE DRIVE","WINTERVILLE","NC",28590,35.5563723400001,-77.403852147,75,"570 SOUTH SQAURE DRIVE, WINTERVILLE, NC, 28590","Match","Non_Exact","570 S SQUARE DR, WINTERVILLE, NC, 28590",80049842,"R"
734576,"570 SOUTH WEST 14TH STREET","DEERFIELD BEACH","FL",33441,NA,NA,76,"570 SOUTH WEST 14TH STREET, DEERFIELD BEACH, FL, 33441","No_Match",NA,NA,NA,NA
734577,"570 STERLING POINTE COURT","LAWRENCEVILLE","GA",30043,33.993795833,-84.03170963,77,"570 STERLING POINTE COURT, LAWRENCEVILLE, GA, 30043","Match","Exact","570 STERLING POINTE CT, LAWRENCEVILLE, GA, 30043",636765535,"R"
734578,"570 STONEBRIDGE 105","PLEASANTON","CA",94588,NA,NA,78,"570 STONEBRIDGE 105, PLEASANTON, CA, 94588","No_Match",NA,NA,NA,NA
734579,"570 STOVALL ROAD","WALLA WALLA","WA",99362,46.03179577,-118.461606626,79,"570 STOVALL ROAD, WALLA WALLA, WA, 99362","Match","Exact","570 STOVALL RD, WALLA WALLA, WA, 99362",174687183,"R"
734580,"570 STUART STREET","CHRISTIANSBURG","VA",24073,37.13273565,-80.4085563049999,80,"570 STUART STREET, CHRISTIANSBURG, VA, 24073","Match","Exact","570 STUART ST, CHRISTIANSBURG, VA, 24073",73617235,"R"
734581,"570 SUNNYSIDE ROAD","SWEETWATER","TN",37874,35.6334099420001,-84.397823191,81,"570 SUNNYSIDE ROAD, SWEETWATER, TN, 37874","Match","Exact","570 SUNNYSIDE RD, SWEETWATER, TN, 37874",85311130,"R"
734582,"570 SUNSET AVE N","KEIZER","OR",97303,44.98417676,-123.032825887,82,"570 SUNSET AVE N, KEIZER, OR, 97303","Match","Exact","570 SUNSET AVE N, KEIZER, OR, 97303",156246179,"L"
734583,"570 SW 14TH STREET","DEERFIELD BEACH","FL",33441,26.299482927,-80.1111294419999,83,"570 SW 14TH STREET, DEERFIELD BEACH, FL, 33441","Match","Exact","570 SW 14TH ST, DEERFIELD BEACH, FL, 33441",114741967,"L"
734584,"570 SW 46TH AVE","MIAMI","FL",33143,25.7659253520001,-80.270727269,84,"570 SW 46TH AVE, MIAMI, FL, 33143","Match","Non_Exact","570 SW 46TH AVE, MIAMI, FL, 33134",116284494,"R"
734585,"570 SW 7TH ST","DUNDEE","OR",97115,45.279594892,-123.014790392,85,"570 SW 7TH ST, DUNDEE, OR, 97115","Match","Exact","570 SW 7TH ST, DUNDEE, OR, 97115",635771108,"R"
734586,"570 SW MANOR DRIVE","STUART","FL",34994,27.18471635,-80.2588487149999,86,"570 SW MANOR DRIVE, STUART, FL, 34994","Match","Exact","570 SW MANOR DR, STUART, FL, 34994",120413474,"R"
734587,"570 SWEARD ST","ROCHESTER","NY",14608,NA,NA,87,"570 SWEARD ST, ROCHESTER, NY, 14608","No_Match",NA,NA,NA,NA
734588,"570 TAYLOR ST","ASHLAND","OR",97520,42.1850268490001,-122.708628559,88,"570 TAYLOR ST, ASHLAND, OR, 97520","Match","Exact","570 TAYLOR ST, ASHLAND, OR, 97520",155523261,"L"
734589,"570 TOWER AVENUE","BLOOMFIELD","CT",6002,41.800507,-72.688075607,89,"570 TOWER AVENUE, BLOOMFIELD, CT, 6002","Match","Exact","570 TOWER AVE, BLOOMFIELD, CT, 06002",3488986,"R"
734590,"570 TRUMAN ST SW","PALM BAY","FL",32908,27.984781567,-80.6844411879999,90,"570 TRUMAN ST SW, PALM BAY, FL, 32908","Match","Exact","570 TRUMAN ST SW, PALM BAY, FL, 32908",93907671,"R"
734591,"570 TUSCAN COVE","FAIRBURN","GA",30213,33.6050667540001,-84.647091517,91,"570 TUSCAN COVE, FAIRBURN, GA, 30213","Match","Exact","570 TUSCAN COVE, FAIRBURN, GA, 30213",636196890,"R"
734592,"570 UNIVERSITY PL","GROSSE POINTE","MI",48230,42.3922243120001,-82.911535976,92,"570 UNIVERSITY PL, GROSSE POINTE, MI, 48230","Match","Exact","570 UNIVERSITY PL, GROSSE POINTE, MI, 48230",95488159,"R"
734593,"570 VISTA RIDGE DR","RUSKIN","FL",33570,27.725507194,-82.459652982,93,"570 VISTA RIDGE DR, RUSKIN, FL, 33570","Match","Exact","570 VISTA RIDGE DR, RUSKIN, FL, 33570",628032339,"L"
734594,"570 W 200 N","PROVO","UT",84601,40.236464002,-111.668711817,94,"570 W 200 N, PROVO, UT, 84601","Match","Exact","570 W 200 N, PROVO, UT, 84601",134209261,"R"
734595,"570 W 5TH ST","PERU","IN",46970,40.7477782,-86.086544384,95,"570 W 5TH ST, PERU, IN, 46970","Match","Exact","570 W 5TH ST, PERU, IN, 46970",106392638,"L"
734596,"570 W COUNTY ROAD 300 S","LOGANSPORT","IN",46947,40.721645863,-86.3836178779999,96,"570 W COUNTY ROAD 300 S, LOGANSPORT, IN, 46947","Match","Exact","570 W CO RD 300 S, LOGANSPORT, IN, 46947",27187945,"L"
734597,"570 WALDEN COURT","DUNEDIN","FL",34698,28.0436419160001,-82.7839483989999,97,"570 WALDEN COURT, DUNEDIN, FL, 34698","Match","Exact","570 WALDEN CT, DUNEDIN, FL, 34698",124727974,"R"
734598,"570 WELLINGSBURG CIRCLE","MEDFORD","OR",97501,NA,NA,98,"570 WELLINGSBURG CIRCLE, MEDFORD, OR, 97501","No_Match",NA,NA,NA,NA
734599,"570 WEST 156TH STREET APT 34","NEW YORK","NY",10032,40.8330503060001,-73.944428569,99,"570 WEST 156TH STREET APT 34, NEW YORK, NY, 10032","Match","Exact","570 W 156TH ST, NEW YORK, NY, 10032",59655448,"L"
734600,"570 WEST 183RD STREET","NEW YORK","NY",10033,40.8501702890001,-73.9320712479999,100,"570 WEST 183RD STREET, NEW YORK, NY, 10033","Match","Exact","570 W 183RD ST, NEW YORK, NY, 10033",59655643,"L"
734601,"570 WEST 193RD STREET APT 2F","NEW YORK","NY",10040,40.8566200010001,-73.9278179999999,101,"570 WEST 193RD STREET APT 2F, NEW YORK, NY, 10040","Match","Exact","570 W 193RD ST, NEW YORK, NY, 10040",59659073,"L"
734602,"570 WEST 26TH STREET","UPLAND","CA",91784,34.160044462,-117.658403377,102,"570 WEST 26TH STREET, UPLAND, CA, 91784","Match","Exact","570 W 26TH ST, UPLAND, CA, 91784",644206164,"R"
734603,"570 WEST 35TH STREET","RIVIERA BEACH","FL",33404,26.7905074350001,-80.06417514,103,"570 WEST 35TH STREET, RIVIERA BEACH, FL, 33404","Match","Exact","570 W 35TH ST, RIVIERA BEACH, FL, 33404",115275857,"R"
734604,"570 WEST LAKE SAMISH DRIVE","BELLINGHAM","WA",98229,48.6626947670001,-122.389809304,104,"570 WEST LAKE SAMISH DRIVE, BELLINGHAM, WA, 98229","Match","Exact","570 W LAKE SAMISH DR, BELLINGHAM, WA, 98229",636500466,"R"
734605,"570 WESTMINSTER ROAD APT B2","BROOKLYN","NY",11230,40.6349475580001,-73.966085399,105,"570 WESTMINSTER ROAD APT B2, BROOKLYN, NY, 11230","Match","Exact","570 WESTMINSTER RD, BROOKLYN, NY, 11230",652212515,"R"
734606,"570 WHITE HEART RD","LAS VEGAS","NV",89148,36.037969849,-115.294147327,106,"570 WHITE HEART RD, LAS VEGAS, NV, 89148","Match","Exact","570 WHITE HEART RD, LAS VEGAS, NV, 89148",641458733,"L"
734607,"570 WINDING WATERS DRIVE","MONETA","VA",24121,37.0910403830001,-79.640345192,107,"570 WINDING WATERS DRIVE, MONETA, VA, 24121","Match","Exact","570 WINDING WATERS DR, MONETA, VA, 24121",56407686,"R"
734608,"570 WINDING WATERS WAY","DE PERE","WI",54115,44.432115045,-88.027260289,108,"570 WINDING WATERS WAY, DE PERE, WI, 54115","Match","Exact","570 WINDING WATERS WAY, DE PERE, WI, 54115",148122868,"L"
734609,"570 WINDSOR PKWY","ATLANTA","GA",30342,33.8843615750001,-84.368771666,109,"570 WINDSOR PKWY, ATLANTA, GA, 30342","Match","Non_Exact","570 WINDSOR PKWY NE, ATLANTA, GA, 30342",17416857,"L"
734610,"570 WOODED RIDGE RD","SULPHUR","KY",40070,38.4858189340001,-85.2978936919999,110,"570 WOODED RIDGE RD, SULPHUR, KY, 40070","Match","Exact","570 WOODED RIDGE RD, SULPHUR, KY, 40070",95304765,"L"
734611,"570 WOODINGHAM PL","COLUMBUS","OH",43213,39.9684758980001,-82.8333388359999,111,"570 WOODINGHAM PL, COLUMBUS, OH, 43213","Match","Exact","570 WOODINGHAM PL, COLUMBUS, OH, 43213",218489271,"L"
734612,"570 WYTHE AVE APT 5C","BROOKLYN","NY",11249,40.7058186960001,-73.9668470029999,112,"570 WYTHE AVE APT 5C, BROOKLYN, NY, 11249","Match","Exact","570 WYTHE AVE, BROOKLYN, NY, 11249",59096595,"R"
734613,"570 YONKERS AVENUE GROUND FLR","YONKERS","NY",10704,40.9283998720001,-73.870628132,113,"570 YONKERS AVENUE GROUND FLR, YONKERS, NY, 10704","Match","Exact","570 YONKERS AVE, YONKERS, NY, 10704",139744949,"R"
734614,"570 YONKERS AVENUE","YONKERS","NY",10704,40.9283998720001,-73.870628132,114,"570 YONKERS AVENUE, YONKERS, NY, 10704","Match","Exact","570 YONKERS AVE, YONKERS, NY, 10704",139744949,"R"
734615,"5700 102ND AVE N","BROOKLYN PARK","MN",55443,45.138190851,-93.355097388,115,"5700 102ND AVE N, BROOKLYN PARK, MN, 55443","Match","Non_Exact","5700 102ND AVE, BROOKLYN PARK, MN, 55443",626693098,"R"
734616,"5700 102ND ST N","BROOKLYN PARK","MN",55443,NA,NA,116,"5700 102ND ST N, BROOKLYN PARK, MN, 55443","No_Match",NA,NA,NA,NA
734617,"5700 26TH AVE S","MINNEAPOLIS","MN",55417,44.8997211230001,-93.2349157639999,117,"5700 26TH AVE S, MINNEAPOLIS, MN, 55417","Match","Exact","5700 26TH AVE S, MINNEAPOLIS, MN, 55417",43641176,"R"
734618,"5700 328TH NE 60TH PLACE","CARNATION","WA",98014,47.6566198520001,-121.899783913,118,"5700 328TH NE 60TH PLACE, CARNATION, WA, 98014","Match","Non_Exact","5700 328TH AVE NE, CARNATION, WA, 98014",187054159,"L"
734619,"5700 73RD AVENUE NORTH APT 108","BROOKLYN PARK","MN",55429,45.087259283,-93.353127123,119,"5700 73RD AVENUE NORTH APT 108, BROOKLYN PARK, MN, 55429","Match","Exact","5700 73RD AVE N, BROOKLYN PARK, MN, 55429",611885802,"R"
734620,"5700 98TH STREET","LUBBOCK","TX",79424,33.505160416,-101.936908774,120,"5700 98TH STREET, LUBBOCK, TX, 79424","Match","Exact","5700 98TH ST, LUBBOCK, TX, 79424",185265344,"L"
734621,"5700 ARLINGTON AVE APT 11J","BRONX","NY",10471,40.90647585,-73.906781666,121,"5700 ARLINGTON AVE APT 11J, BRONX, NY, 10471","Match","Exact","5700 ARLINGTON AVE, BRONX, NY, 10471",609059293,"R"
734622,"5700 ARLINGTON AVENUE  APT 11R","BRONX","NY",10471,40.90647585,-73.906781666,122,"5700 ARLINGTON AVENUE  APT 11R, BRONX, NY, 10471","Match","Exact","5700 ARLINGTON AVE, BRONX, NY, 10471",609059293,"R"
734623,"5700 ARLINGTON AVENUE APT 21S","BRONX","NY",10471,40.90647585,-73.906781666,123,"5700 ARLINGTON AVENUE APT 21S, BRONX, NY, 10471","Match","Exact","5700 ARLINGTON AVE, BRONX, NY, 10471",609059293,"R"
734624,"5700 BALTIMORE DR UNIT 11","LA MESA","CA",91942,32.782904278,-117.033286371,124,"5700 BALTIMORE DR UNIT 11, LA MESA, CA, 91942","Match","Exact","5700 BALTIMORE DR, LA MESA, CA, 91942",195717715,"L"
734625,"5700 BERWYN ROAD","BERWYN HEIGHTS","MD",20740,38.992160545,-76.91740311,125,"5700 BERWYN ROAD, BERWYN HEIGHTS, MD, 20740","Match","Exact","5700 BERWYN RD, BERWYN HEIGHTS, MD, 20740",76305440,"L"
734626,"5700 BRANN STREET","OAKLAND","CA",94605,37.7760548580001,-122.188167529,126,"5700 BRANN STREET, OAKLAND, CA, 94605","Match","Exact","5700 BRANN ST, OAKLAND, CA, 94605",125008474,"L"
734627,"5700 BRIGHTON PL","NEW ORLEANS","LA",70131,29.923905575,-89.995456028,127,"5700 BRIGHTON PL, NEW ORLEANS, LA, 70131","Match","Exact","5700 BRIGHTON PL, NEW ORLEANS, LA, 70131",191723396,"L"
734628,"5700 CABOT DRIVE","OAKLAND","CA",94611,37.8323545810001,-122.212722034,128,"5700 CABOT DRIVE, OAKLAND, CA, 94611","Match","Exact","5700 CABOT DR, OAKLAND, CA, 94611",125003408,"R"
734629,"5700 CAPISTRANO WAY","FREDERICK","CO",80504,40.131960679,-104.946049757,129,"5700 CAPISTRANO WAY, FREDERICK, CO, 80504","Match","Exact","5700 CAPISTRANO WAY, FREDERICK, CO, 80504",188737673,"R"
734630,"5700 CARNOUSTIE PLACE","IJAMSVILLE","MD",21754,39.3902529550001,-77.320183087,130,"5700 CARNOUSTIE PLACE, IJAMSVILLE, MD, 21754","Match","Exact","5700 CARNOUSTIE PL, IJAMSVILLE, MD, 21754",60705809,"R"
734631,"5700 CASTLEBRIDGE RD APT 201","FREDERICKSBURG","VA",22407,38.279384829,-77.530314586,131,"5700 CASTLEBRIDGE RD APT 201, FREDERICKSBURG, VA, 22407","Match","Exact","5700 CASTLEBRIDGE RD, FREDERICKSBURG, VA, 22407",641114659,"R"
734632,"5700 CENTRE AVE APT 502","PITTSBURGH","PA",15206,NA,NA,132,"5700 CENTRE AVE APT 502, PITTSBURGH, PA, 15206","No_Match",NA,NA,NA,NA
734633,"5700 CHARLESVILLE LN","BAKERSFIELD","CA",93312,NA,NA,133,"5700 CHARLESVILLE LN, BAKERSFIELD, CA, 93312","No_Match",NA,NA,NA,NA
734634,"5700 CHATAM CIRCLE  NW","NORCROSS","GA",30071,NA,NA,134,"5700 CHATAM CIRCLE  NW, NORCROSS, GA, 30071","No_Match",NA,NA,NA,NA
734635,"5700 COLLEGE BLVD","FARMINGTON","NM",87402,36.7809291090001,-108.161355967,135,"5700 COLLEGE BLVD, FARMINGTON, NM, 87402","Match","Exact","5700 COLLEGE BLVD, FARMINGTON, NM, 87402",611553256,"R"
734636,"5700 COLLEGE ROAD","LISLE","IL",60532,41.7775571550001,-88.0940361039999,136,"5700 COLLEGE ROAD, LISLE, IL, 60532","Match","Exact","5700 COLLEGE RD, LISLE, IL, 60532",112537834,"R"
734637,"5700 COLLINS AVE","MIAMI BEACH","FL",33139,25.836627257,-80.120788161,137,"5700 COLLINS AVE, MIAMI BEACH, FL, 33139","Match","Non_Exact","5700 COLLINS AVE, MIAMI BEACH, FL, 33140",650070351,"L"
734638,"5700 COOPER POINT RD NW","OLYMPIA","WA",98502,47.1132290990001,-122.93119596,138,"5700 COOPER POINT RD NW, OLYMPIA, WA, 98502","Match","Exact","5700 COOPER PT RD NW, OLYMPIA, WA, 98502",180980602,"R"
734639,"5700 CORPORATE DR NO 455","PITTSBURGH","PA",15237,40.5623241800001,-80.024127089,139,"5700 CORPORATE DR NO 455, PITTSBURGH, PA, 15237","Match","Non_Exact","5700 CORPORATE DR, PITTSBURGH, PA, 15237",617243261,"L"
734640,"5700 COURTNEY AVE","TUSCALOOSA","FL",35406,NA,NA,140,"5700 COURTNEY AVE, TUSCALOOSA, FL, 35406","No_Match",NA,NA,NA,NA
734641,"5700 COWLES MTN BLVD E128","LA MESA","CA",91942,32.783254497,-117.030012246,141,"5700 COWLES MTN BLVD E128, LA MESA, CA, 91942","Match","Exact","5700 COWLES MOUNTAIN BLVD, LA MESA, CA, 91942",647634367,"L"
734642,"5700 CR 319 APT 4","ALVARADO","TX",76009,32.402581361,-97.262148522,142,"5700 CR 319 APT 4, ALVARADO, TX, 76009","Match","Non_Exact","5700 CO RD 319, ALVARADO, TX, 76009",103554855,"R"
734643,"5700 CR 608","BURLESON","TX",76028,32.5092598520001,-97.217750829,143,"5700 CR 608, BURLESON, TX, 76028","Match","Exact","5700 CO RD 608, BURLESON, TX, 76028",103519071,"L"
734644,"5700 CRESTHAVEN LN","TOLEDO","OH",43614,41.603368731,-83.672698708,144,"5700 CRESTHAVEN LN, TOLEDO, OH, 43614","Match","Exact","5700 CRESTHAVEN LN, TOLEDO, OH, 43614",33952547,"L"
734645,"5700 CROOKS RD SUITE 102","TROY","MI",48098,NA,NA,145,"5700 CROOKS RD SUITE 102, TROY, MI, 48098","No_Match",NA,NA,NA,NA
734646,"5700 CROOKS ROAD SUITE 112","TROY","MI",48098,NA,NA,146,"5700 CROOKS ROAD SUITE 112, TROY, MI, 48098","No_Match",NA,NA,NA,NA
734647,"5700 CROSS COUNTRY BLVD","BALTIMORE","MD",21209,39.3622016750001,-76.6644548959999,147,"5700 CROSS COUNTRY BLVD, BALTIMORE, MD, 21209","Match","Exact","5700 CROSS COUNTRY BLVD, BALTIMORE, MD, 21209",206445273,"L"
734648,"5700 CRYSTAL BAY W DRIVE","PLAINFIELD","IN",46168,39.6786149050001,-86.393726334,148,"5700 CRYSTAL BAY W DRIVE, PLAINFIELD, IN, 46168","Match","Exact","5700 CRYSTAL BAY WEST DR, PLAINFIELD, IN, 46168",89205478,"L"
734649,"5700 DARROW ROAD SUITE 106","HUDSON","OH",44236,41.2207928030001,-81.440397005,149,"5700 DARROW ROAD SUITE 106, HUDSON, OH, 44236","Match","Exact","5700 DARROW RD, HUDSON, OH, 44236",61346554,"L"
734650,"5700 DEERFIELD RD","ORLANDO","FL",32808,28.585708993,-81.457905873,150,"5700 DEERFIELD RD, ORLANDO, FL, 32808","Match","Exact","5700 DEERFIELD RD, ORLANDO, FL, 32808",94269977,"L"
734651,"5700 DEWEY HILL RD","EDINA","MN",55439,44.869189293,-93.369219304,151,"5700 DEWEY HILL RD, EDINA, MN, 55439","Match","Exact","5700 DEWEY HILL RD, EDINA, MN, 55439",43839110,"R"
734652,"5700 DIAMOND VALLEY DR","FORT WORTH","TX",76179,32.8462823420001,-97.406606391,152,"5700 DIAMOND VALLEY DR, FORT WORTH, TX, 76179","Match","Exact","5700 DIAMOND VALLEY DR, FORT WORTH, TX, 76179",627700872,"R"
734653,"5700 DOGWOOD BLVD","LOUISVILLE","KY",40299,38.1631753240001,-85.5589616299999,153,"5700 DOGWOOD BLVD, LOUISVILLE, KY, 40299","Match","Exact","5700 DOGWOOD BLVD, LOUISVILLE, KY, 40299",96867040,"R"
734654,"5700 DUNBARTON OAKS BLVD","MIDLAND","TN",79705,NA,NA,154,"5700 DUNBARTON OAKS BLVD, MIDLAND, TN, 79705","No_Match",NA,NA,NA,NA
734655,"5700 DUNCAN COVE COURT","CALEDONIA","MI",49316,42.7779355930001,-85.52417723,155,"5700 DUNCAN COVE COURT, CALEDONIA, MI, 49316","Match","Non_Exact","5700 DUNCAN COVE CT SE, CALEDONIA, MI, 49316",627506597,"R"
734656,"5700 DURENE CIR","PRESCOTT","AZ",86305,34.725895608,-112.56876526,156,"5700 DURENE CIR, PRESCOTT, AZ, 86305","Match","Exact","5700 DURENE CR, PRESCOTT, AZ, 86305",608172157,"L"
734657,"5700 E STATE ROUTE 106","UNION","WA",98592,47.3562448060001,-123.089190216,157,"5700 E STATE ROUTE 106, UNION, WA, 98592","Match","Exact","5700 STATE RTE 106, UNION, WA, 98592",635520109,"L"
734658,"5700 E TANGELO LANE","INVERNESS","FL",34453,28.8615337150001,-82.339917008,158,"5700 E TANGELO LANE, INVERNESS, FL, 34453","Match","Exact","5700 E TANGELO LN, INVERNESS, FL, 34453",86202891,"L"
734659,"5700 EAST MACDONALD","SCOTTSDALE","AZ",85253,33.523799867,-111.957934693,159,"5700 EAST MACDONALD, SCOTTSDALE, AZ, 85253","Match","Non_Exact","5700 E MCDONALD DR, SCOTTSDALE, AZ, 85253",128221626,"L"
734660,"5700 ENGLISH OAK DRIVE","FORT WORTH","TX",76244,32.9490066380001,-97.258349777,160,"5700 ENGLISH OAK DRIVE, FORT WORTH, TX, 76244","Match","Exact","5700 ENGLISH OAK DR, FORT WORTH, TX, 76244",102117119,"R"
734661,"5700 EXECUTIVE CENTER DRIVE/STE 10","CHARLOTTE","NC",28212,35.200672502,-80.744044522,161,"5700 EXECUTIVE CENTER DRIVE/STE 10, CHARLOTTE, NC, 28212","Match","Non_Exact","5700 EXECUTIVE CENTER DR, CHARLOTTE, NC, 28212",70492297,"R"
734662,"5700 EXECUTIVE DRIVE SUITE 101","CHARLOTTE","NC",28212,NA,NA,162,"5700 EXECUTIVE DRIVE SUITE 101, CHARLOTTE, NC, 28212","No_Match",NA,NA,NA,NA
734663,"5700 FLORIDA BLVD  SUITE 701","BATON ROUGE","LA",70806,30.45105628,-91.1297596699999,163,"5700 FLORIDA BLVD  SUITE 701, BATON ROUGE, LA, 70806","Match","Exact","5700 FLORIDA BLVD, BATON ROUGE, LA, 70806",636234621,"R"
734664,"5700 FLORIDA BLVD SUITE 714","BATON ROUGE","LA",70806,30.45105628,-91.1297596699999,164,"5700 FLORIDA BLVD SUITE 714, BATON ROUGE, LA, 70806","Match","Exact","5700 FLORIDA BLVD, BATON ROUGE, LA, 70806",636234621,"R"
734665,"5700 GLENKIRK RD","CHARLOTTE","NC",28210,35.1490836090001,-80.845559072,165,"5700 GLENKIRK RD, CHARLOTTE, NC, 28210","Match","Exact","5700 GLENKIRK RD, CHARLOTTE, NC, 28210",70573351,"L"
734666,"5700 GREENWITCH RD","VIRGINIA BEACH","VA",23462,NA,NA,166,"5700 GREENWITCH RD, VIRGINIA BEACH, VA, 23462","No_Match",NA,NA,NA,NA
734667,"5700 HATCHERY WAY","POWDER SPRINGS","GA",30127,33.925653208,-84.7142920589999,167,"5700 HATCHERY WAY, POWDER SPRINGS, GA, 30127","Match","Non_Exact","5700 HATCHERY WAY NW, POWDER SPGS, GA, 30127",614172513,"L"
734668,"5700 HAYCOCK COURT","FREDERICK","MD",21074,39.391029422,-77.338272145,168,"5700 HAYCOCK COURT, FREDERICK, MD, 21074","Match","Non_Exact","5700 HAYCOCK CT, FREDERICK, MD, 21704",60707243,"R"
734669,"5700 HEATHERFIELD WAY","ELK GROVE","CA",95757,38.402426264,-121.438421846,169,"5700 HEATHERFIELD WAY, ELK GROVE, CA, 95757","Match","Non_Exact","5700 HEATHER FIELD WAY, ELK GROVE, CA, 95757",133435047,"R"
734670,"5700 HEATHWOOD COURT","COVINGTON","KY",41015,38.985968331,-84.508882235,170,"5700 HEATHWOOD COURT, COVINGTON, KY, 41015","Match","Exact","5700 HEATHWOOD CT, COVINGTON, KY, 41015",103889296,"R"
734671,"5700 HEMLOCK RD","GALIVANTS FERRY","SC",29544,33.9132259950001,-79.19035708,171,"5700 HEMLOCK RD, GALIVANTS FERRY, SC, 29544","Match","Exact","5700 HEMLOCK RD, GALIVANTS FRY, SC, 29544",29037576,"R"
734672,"5700 HENRY COOK BLVD APT 5239","PLANO","TX",75024,33.074396892,-96.818843852,172,"5700 HENRY COOK BLVD APT 5239, PLANO, TX, 75024","Match","Exact","5700 HENRY COOK BLVD, PLANO, TX, 75024",123561519,"R"
734673,"5700 HENRY COOK BLVD STE 5143","PLANO","TX",75024,33.074396892,-96.818843852,173,"5700 HENRY COOK BLVD STE 5143, PLANO, TX, 75024","Match","Exact","5700 HENRY COOK BLVD, PLANO, TX, 75024",123561519,"R"
734674,"5700 HOLLOMAN ROAD","POWDER SPRINGS","GA",30127,NA,NA,174,"5700 HOLLOMAN ROAD, POWDER SPRINGS, GA, 30127","No_Match",NA,NA,NA,NA
734675,"5700 HOWARD ROAD","PANAMA CITY","FL",32404,30.1209894840001,-85.589712068,175,"5700 HOWARD ROAD, PANAMA CITY, FL, 32404","Match","Exact","5700 HOWARD RD, PANAMA CITY, FL, 32404",7085609,"L"
734676,"5700 INDIAN HILL DR","ARLINGTON","TX",76018,32.6533173920001,-97.0821688629999,176,"5700 INDIAN HILL DR, ARLINGTON, TX, 76018","Match","Exact","5700 INDIAN HILL DR, ARLINGTON, TX, 76018",101954799,"L"
734677,"5700 KINSLEY CIRCLE","PLANO","TX",75093,33.039969866,-96.817110556,177,"5700 KINSLEY CIRCLE, PLANO, TX, 75093","Match","Exact","5700 KINSLEY CIR, PLANO, TX, 75093",627269755,"R"
734678,"5700 KIRKWOOD HWY","WILMINGTON","DE",19808,39.714612306,-75.674468781,178,"5700 KIRKWOOD HWY, WILMINGTON, DE, 19808","Match","Exact","5700 KIRKWOOD HWY, WILMINGTON, DE, 19808",640701346,"L"
734679,"5700 KOWETA RD","COLLEGE PARK","GA",30349,33.611443352,-84.5737075279999,179,"5700 KOWETA RD, COLLEGE PARK, GA, 30349","Match","Exact","5700 KOWETA RD, COLLEGE PARK, GA, 30349",642626809,"L"
734680,"5700 KROGER DRIVE","KELLER","TX",76244,NA,NA,180,"5700 KROGER DRIVE, KELLER, TX, 76244","No_Match",NA,NA,NA,NA
734681,"5700 LAKE DISTRICT DR","THE COLONY","TX",75056,33.057397495,-96.865827973,181,"5700 LAKE DISTRICT DR, THE COLONY, TX, 75056","Match","Exact","5700 LAKE DISTRICT DR, THE COLONY, TX, 75056",647045405,"L"
734682,"5700 LAKEVIEW","ENNIS","TX",75119,32.270005068,-96.635482718,182,"5700 LAKEVIEW, ENNIS, TX, 75119","Match","Non_Exact","5700 LAKEVIEW DR, ENNIS, TX, 75119",103482932,"R"
734683,"5700 LANCASHIER COURT","FITCHBERG","WI",53711,43.009437953,-89.437663616,183,"5700 LANCASHIER COURT, FITCHBERG, WI, 53711","Match","Non_Exact","5700 LANCASHIER CT, FITCHBURG, WI, 53711",49500809,"R"
734684,"5700 LINDA ROAD","SANDSTON","VA",23150,37.5228258670001,-77.333458,184,"5700 LINDA ROAD, SANDSTON, VA, 23150","Match","Exact","5700 LINDA RD, SANDSTON, VA, 23150",106664737,"L"
734685,"5700 LOMBARDIA CIRCLE","MYRTLE BEACH","SC",29579,33.736662998,-78.951971554,185,"5700 LOMBARDIA CIRCLE, MYRTLE BEACH, SC, 29579","Match","Exact","5700 LOMBARDIA CIR, MYRTLE BEACH, SC, 29579",648911000,"R"
734686,"5700 LUBER ROAD","MOUNTAIN VIEW","AR",72560,35.825111377,-92.117364165,186,"5700 LUBER ROAD, MOUNTAIN VIEW, AR, 72560","Match","Exact","5700 LUBER RD, MOUNTAIN VIEW, AR, 72560",627605877,"R"
734687,"5700 MACK RD 280","SACRAMENTO","CA",95823,38.4742435530001,-121.43462317,187,"5700 MACK RD 280, SACRAMENTO, CA, 95823","Match","Exact","5700 MACK RD, SACRAMENTO, CA, 95823",133417532,"R"
734688,"5700 MAPLE LN","NEWBURGH","IN",47630,37.9521718410001,-87.418944756,188,"5700 MAPLE LN, NEWBURGH, IN, 47630","Match","Exact","5700 MAPLE LN, NEWBURGH, IN, 47630",627648995,"L"
734689,"5700 MARK LANE","ROWLETT","TX",75089,32.910913018,-96.53514696,189,"5700 MARK LANE, ROWLETT, TX, 75089","Match","Exact","5700 MARK LN, ROWLETT, TX, 75089",102934529,"L"
734690,"5700 MCCHESNEY DRIVE","CHARLOTTE","NC",28269,35.386196951,-80.759807423,190,"5700 MCCHESNEY DRIVE, CHARLOTTE, NC, 28269","Match","Exact","5700 MCCHESNEY DR, CHARLOTTE, NC, 28269",70531437,"R"
734691,"5700 MEXICO GRAVEL RD","COLUMBIA","MO",65202,38.98511496,-92.2480658169999,191,"5700 MEXICO GRAVEL RD, COLUMBIA, MO, 65202","Match","Non_Exact","5700 E MEXICO GRAVEL RD, COLUMBIA, MO, 65202",604847735,"R"
734692,"5700 MT GILEAD RD","REISTERSTOWN","MD",21136,39.5247293030001,-76.846723958,192,"5700 MT GILEAD RD, REISTERSTOWN, MD, 21136","Match","Exact","5700 MOUNT GILEAD RD, REISTERSTOWN, MD, 21136",647293773,"R"
734693,"5700 MULDO","DUBLIN","OH",43016,NA,NA,193,"5700 MULDO, DUBLIN, OH, 43016","No_Match",NA,NA,NA,NA
734694,"5700 N EVEREST","OKLAHOMA CITY","OK",73111,35.528450277,-97.488828187,194,"5700 N EVEREST, OKLAHOMA CITY, OK, 73111","Match","Non_Exact","5700 N EVEREST AVE, OKLAHOMA CITY, OK, 73111",100401066,"R"
734695,"5700 N KNOLL 2312","SAN ANTONIO","TX",78240,29.514017627,-98.5975064369999,195,"5700 N KNOLL 2312, SAN ANTONIO, TX, 78240","Match","Non_Exact","5700 N KNOLL, SAN ANTONIO, TX, 78240",642149442,"L"
734696,"5700 N NATOMA AVE","CHCAGO","IL",60631,41.9851415690001,-87.7935588299999,196,"5700 N NATOMA AVE, CHCAGO, IL, 60631","Match","Non_Exact","5700 N NATOMA AVE, CHICAGO, IL, 60631",111736352,"L"
734697,"5700 N PROSPECT ROAD","PEORIA","IL",61614,40.756010513,-89.586507914,197,"5700 N PROSPECT ROAD, PEORIA, IL, 61614","Match","Exact","5700 N PROSPECT RD, PEORIA, IL, 61614",8731777,"R"
734698,"5700 N SNAKE RIVER RIANCH ROAD","WILSON","WY",83014,43.5652542240001,-110.80175573,198,"5700 N SNAKE RIVER RIANCH ROAD, WILSON, WY, 83014","Match","Non_Exact","5700 SNAKE RIVER RANCH RD, WILSON, WY, 83014",130421154,"R"
734699,"5700 NE 1ST STREET","DES MOINES","IA",50313,41.663008066,-93.617113977,199,"5700 NE 1ST STREET, DES MOINES, IA, 50313","Match","Exact","5700 NE 1ST ST, DES MOINES, IA, 50313",65781432,"L"
734700,"5700 NE BREYMAN ORCHARDS RD","DAYTON","OR",97114,45.256748003,-123.059799498,200,"5700 NE BREYMAN ORCHARDS RD, DAYTON, OR, 97114","Match","Exact","5700 NE BREYMAN ORCHARDS RD, DAYTON, OR, 97114",156490586,"R"
734701,"5700 NIGHT SERGEANT CT","WALDORF","MD",20603,38.611276375,-76.9403577109999,201,"5700 NIGHT SERGEANT CT, WALDORF, MD, 20603","Match","Exact","5700 NIGHT SERGEANT CT, WALDORF, MD, 20603",25385276,"L"
734702,"5700 NORTH HILLS BLVD","NORTH LITTLE ROCK","AR",72116,34.807053152,-92.237272015,202,"5700 NORTH HILLS BLVD, NORTH LITTLE ROCK, AR, 72116","Match","Exact","5700 N HILLS BLVD, N LITTLE ROCK, AR, 72116",83570450,"L"
734703,"5700 NW 144 PLACE","REDDICK","FL",33686,29.3488531150001,-82.215056756,203,"5700 NW 144 PLACE, REDDICK, FL, 33686","Match","Non_Exact","5700 NW 144TH PL, REDDICK, FL, 32686",608598279,"R"
734704,"5700 NW 62ND MANOR","PARKLAND","FL",33067,26.308125891,-80.202814328,204,"5700 NW 62ND MANOR, PARKLAND, FL, 33067","Match","Exact","5700 NW 62ND MANOR, PARKLAND, FL, 33067",114768214,"R"
734705,"5700 NW CENTRAL DR STE 210","HOUSTON","TX",77092,29.8490099740001,-95.494841236,205,"5700 NW CENTRAL DR STE 210, HOUSTON, TX, 77092","Match","Non_Exact","5700 NW CENTRAL DR, HOUSTON, TX, 77092",96225324,"L"
734706,"5700 NW GAINESVILLE ROAD","OCALA","FL",34475,29.2469982210001,-82.167101985,206,"5700 NW GAINESVILLE ROAD, OCALA, FL, 34475","Match","Exact","5700 NW GAINESVILLE RD, OCALA, FL, 34475",116821180,"L"
734707,"5700 NW RAINTREE DRIVE","PARKVILLE","MO",64152,39.1983250660001,-94.7059073839999,207,"5700 NW RAINTREE DRIVE, PARKVILLE, MO, 64152","Match","Exact","5700 NW RAINTREE DR, PARKVILLE, MO, 64152",639202045,"L"
734708,"5700 NW RAINTREE","PARKVILLE","MO",64156,NA,NA,208,"5700 NW RAINTREE, PARKVILLE, MO, 64156","No_Match",NA,NA,NA,NA
734709,"5700 NW TOKETEE DR","PORTLAND","OR",97229,45.5613603520001,-122.892510865,209,"5700 NW TOKETEE DR, PORTLAND, OR, 97229","Match","Exact","5700 NW TOKETEE DR, PORTLAND, OR, 97229",158180324,"L"
734710,"5700 OAK HILL RD","SUMTER","SC",29154,33.966606815,-80.501733542,210,"5700 OAK HILL RD, SUMTER, SC, 29154","Match","Exact","5700 OAK HILL RD, SUMTER, SC, 29154",202707420,"R"
734711,"5700 OAK TREE RD","EDMOND","OK",73034,35.7135577560001,-97.5047417919999,211,"5700 OAK TREE RD, EDMOND, OK, 73034","Match","Non_Exact","5700 OAK TREE RD, EDMOND, OK, 73025",100431400,"L"
734712,"5700 OLD BOYCE ROAD","BOYCE","LA",71409,NA,NA,212,"5700 OLD BOYCE ROAD, BOYCE, LA, 71409","Tie",NA,NA,NA,NA
734713,"5700 OLD SEWARD HWY STE 101","EAGLE RIVER","AK",99518,NA,NA,213,"5700 OLD SEWARD HWY STE 101, EAGLE RIVER, AK, 99518","No_Match",NA,NA,NA,NA
734714,"5700 OLDE MILL CT UNIT 154","ALEXANDRIA","VA",22309,38.7230029400001,-77.1331122349999,214,"5700 OLDE MILL CT UNIT 154, ALEXANDRIA, VA, 22309","Match","Exact","5700 OLDE MILL CT, ALEXANDRIA, VA, 22309",635444928,"L"
734715,"5700 PEARL ROAD","PARMA","OH",44129,41.406803349,-81.741835652,215,"5700 PEARL ROAD, PARMA, OH, 44129","Match","Exact","5700 PEARL RD, PARMA, OH, 44129",61106708,"R"
734716,"5700 PINE AIRE DR","GRAWN","MI",49637,44.6494700050001,-85.690320444,216,"5700 PINE AIRE DR, GRAWN, MI, 49637","Match","Exact","5700 PINE AIRE DR, GRAWN, MI, 49637",145526075,"L"
734717,"5700 PRINCE LANE","NEW ORLEANS","LA",70126,30.027414069,-90.026236553,217,"5700 PRINCE LANE, NEW ORLEANS, LA, 70126","Match","Exact","5700 PRINCE LN, NEW ORLEANS, LA, 70126",191705135,"R"
734718,"5700 PROVIDENCE CRV","INDEPENDENCE","MN",55359,45.02665118,-93.668332839,218,"5700 PROVIDENCE CRV, INDEPENDENCE, MN, 55359","Match","Non_Exact","5700 PROVIDENCE CURVE, INDEPENDENCE, MN, 55359",43862095,"R"
734719,"5700 RADDINGTON STREET","RALEIGH","NC",27613,35.9328722390001,-78.748839258,219,"5700 RADDINGTON STREET, RALEIGH, NC, 27613","Match","Exact","5700 RADDINGTON ST, RALEIGH, NC, 27613",71779324,"R"
734720,"5700 RALSTON STREET SUITE 102","VENTURA","CA",93003,NA,NA,220,"5700 RALSTON STREET SUITE 102, VENTURA, CA, 93003","No_Match",NA,NA,NA,NA
734721,"5700 RANDOLPH DRIVE","NAMPA","ID",83686,43.455108054,-116.576212521,221,"5700 RANDOLPH DRIVE, NAMPA, ID, 83686","Match","Exact","5700 RANDOLPH DR, NAMPA, ID, 83686",122797388,"L"
734722,"5700 RICKSHAW LN","PLANTO","TX",75094,33.0081632930001,-96.6238432389999,222,"5700 RICKSHAW LN, PLANTO, TX, 75094","Match","Non_Exact","5700 RICKSHAW LN, PLANO, TX, 75094",123561898,"R"
734723,"5700 ROELAND DR","ROELAND PARK","KS",66205,39.026036875,-94.64593318,223,"5700 ROELAND DR, ROELAND PARK, KS, 66205","Match","Exact","5700 ROELAND DR, ROELAND PARK, KS, 66205",91273734,"R"
734724,"5700 ROY AVE","DALLAS","TX",75248,NA,NA,224,"5700 ROY AVE, DALLAS, TX, 75248","No_Match",NA,NA,NA,NA
734725,"5700 S 129TH ST APT B103","SEATTLE","WA",98178,47.4879921950001,-122.260985698,225,"5700 S 129TH ST APT B103, SEATTLE, WA, 98178","Match","Non_Exact","5700 S 129TH ST, SEATTLE, WA, 98178",186629585,"L"
734726,"5700 S 24TH ST","QUINCY","IL",62305,39.8636525140001,-91.3783888629999,226,"5700 S 24TH ST, QUINCY, IL, 62305","Match","Exact","5700 S 24TH ST, QUINCY, IL, 62305",651661635,"L"
734727,"5700 S LEE CT","LITTLETON","CO",80127,39.613526404,-105.113544556,227,"5700 S LEE CT, LITTLETON, CO, 80127","Match","Exact","5700 S LEE CT, LITTLETON, CO, 80127",177322642,"R"
734728,"5700 S RACINE AVE APT 1","CHICAGO","IL",60636,41.7903786110001,-87.654782374,228,"5700 S RACINE AVE APT 1, CHICAGO, IL, 60636","Match","Non_Exact","5700 S RACINE AVE, CHICAGO, IL, 60636",111805975,"R"
734729,"5700 S WABASH","CHICAGO","IL",60637,41.7909883730001,-87.623997624,229,"5700 S WABASH, CHICAGO, IL, 60637","Match","Non_Exact","5700 S WABASH AVE, CHICAGO, IL, 60637",605540500,"R"
734730,"5700 S129TH ST UNIT F303","SEATTLE","WA",98178,NA,NA,230,"5700 S129TH ST UNIT F303, SEATTLE, WA, 98178","No_Match",NA,NA,NA,NA
734731,"5700 SAN MIGUEL AVE","MIDLAND","TX",79705,32.064450729,-102.076767473,231,"5700 SAN MIGUEL AVE, MIDLAND, TX, 79705","Match","Exact","5700 SAN MIGUEL AVE, MIDLAND, TX, 79705",643483830,"L"
734732,"5700 SANDY HOOK LANE","ARLINGTON","TX",76018,32.650673026,-97.098379715,232,"5700 SANDY HOOK LANE, ARLINGTON, TX, 76018","Match","Exact","5700 SANDY HOOK LN, ARLINGTON, TX, 76018",101933531,"L"
734733,"5700 SANFORD DRIVE","SALT LAKE CITY","UT",84123,40.647847524,-111.904750268,233,"5700 SANFORD DRIVE, SALT LAKE CITY, UT, 84123","Match","Exact","5700 SANFORD DR, SALT LAKE CITY, UT, 84123",176084402,"R"
734734,"5700 SCOTLAND STREET","INDIANAPOLIS","IN",46234,39.8475483240001,-86.335723625,234,"5700 SCOTLAND STREET, INDIANAPOLIS, IN, 46234","Match","Exact","5700 SCOTLAND ST, INDIANAPOLIS, IN, 46234",625032718,"R"
734735,"5700 SE 148TH ST","OKLAHOMA CITY","OK",73165,NA,NA,235,"5700 SE 148TH ST, OKLAHOMA CITY, OK, 73165","No_Match",NA,NA,NA,NA
734736,"5700 SE INDIGO AVE","STUART","FL",34997,27.1354227150001,-80.210755843,236,"5700 SE INDIGO AVE, STUART, FL, 34997","Match","Exact","5700 INDIGO AVE, STUART, FL, 34997",120402364,"L"
734737,"5700 SEPULVEDA BLVD NUM 609","VAN NUYS","CA",91411,34.173938315,-118.466158596,237,"5700 SEPULVEDA BLVD NUM 609, VAN NUYS, CA, 91411","Match","Exact","5700 SEPULVEDA BLVD, VAN NUYS, CA, 91411",141560413,"R"
734738,"5700 SHADOW RIDGE","SIOUX FALLS","SD",57108,NA,NA,238,"5700 SHADOW RIDGE, SIOUX FALLS, SD, 57108","No_Match",NA,NA,NA,NA
734739,"5700 SIMMS STREET","HOLLYWOOD","FL",33021,26.0351486590001,-80.202235339,239,"5700 SIMMS STREET, HOLLYWOOD, FL, 33021","Match","Exact","5700 SIMMS ST, HOLLYWOOD, FL, 33021",114717012,"L"
734740,"5700 SOUTH 24TH ST","QUINCY","IL",62305,39.86365935,-91.378388751,240,"5700 SOUTH 24TH ST, QUINCY, IL, 62305","Match","Exact","5700 S 24TH ST, QUINCY, IL, 62305",651661635,"L"
734741,"5700 STAGE LINE DR","ARLINGTON","TX",76017,32.6709189480001,-97.192976704,241,"5700 STAGE LINE DR, ARLINGTON, TX, 76017","Match","Exact","5700 STAGE LINE DR, ARLINGTON, TX, 76017",102111678,"L"
734742,"5700 STONEGATE LANE","MUSTANG","OK",73064,35.4085980150001,-97.750170414,242,"5700 STONEGATE LANE, MUSTANG, OK, 73064","Match","Exact","5700 STONEGATE LN, MUSTANG, OK, 73064",92561592,"L"
734743,"5700 STONERIDGE MALL RD STE 325","PLEASANTON","CA",94588,37.6921455410001,-121.929212389,243,"5700 STONERIDGE MALL RD STE 325, PLEASANTON, CA, 94588","Match","Exact","5700 STONERIDGE MALL RD, PLEASANTON, CA, 94588",606335703,"R"
734744,"5700 STOPE WAY","EL DORADO","CA",95623,38.6459389980001,-120.860964592,244,"5700 STOPE WAY, EL DORADO, CA, 95623","Match","Exact","5700 STOPE WAY, EL DORADO, CA, 95623",133026936,"L"
734745,"5700 SUMTER 74","EMELLE","AL",35459,NA,NA,245,"5700 SUMTER 74, EMELLE, AL, 35459","No_Match",NA,NA,NA,NA
734746,"5700 SUTHERLIN RD","TRAVIS","TX",78723,30.308441815,-97.685831164,246,"5700 SUTHERLIN RD, TRAVIS, TX, 78723","Match","Non_Exact","5700 SUTHERLIN RD, AUSTIN, TX, 78723",63951154,"L"
734747,"5700 SW 127 AVE APT1414","MIAMI","FL",33183,25.7139463620001,-80.399042798,247,"5700 SW 127 AVE APT1414, MIAMI, FL, 33183","Match","Non_Exact","5700 SW 127TH AVE, MIAMI, FL, 33183",115965303,"R"
734748,"5700 SW VERMONT STREET","PORTLAND","OR",97219,45.476354343,-122.735608103,248,"5700 SW VERMONT STREET, PORTLAND, OR, 97219","Match","Exact","5700 SW VERMONT ST, PORTLAND, OR, 97219",157603921,"L"
734749,"5700 TUDOR WAY","LOOMIS","CA",95650,38.8148907790001,-121.197858814,249,"5700 TUDOR WAY, LOOMIS, CA, 95650","Match","Exact","5700 TUDOR WAY, LOOMIS, CA, 95650",106768800,"R"
734750,"5700 TYLER STREET","CONWAY","AR",72034,35.100729518,-92.527294017,250,"5700 TYLER STREET, CONWAY, AR, 72034","Match","Non_Exact","5700 W TYLER ST, CONWAY, AR, 72034",639705518,"R"
734751,"5700 URSA LANE APT 12107","FORT WORTH","TX",76137,NA,NA,251,"5700 URSA LANE APT 12107, FORT WORTH, TX, 76137","No_Match",NA,NA,NA,NA
734752,"5700 VAL VERDE ROAD","LOOMIS","CA",95650,38.786704249,-121.164180337,252,"5700 VAL VERDE ROAD, LOOMIS, CA, 95650","Match","Exact","5700 VAL VERDE RD, LOOMIS, CA, 95650",106770425,"L"
734753,"5700 VIA REAL UNIT 15","CARPINTERIA","CA",93013,34.3918550870001,-119.507074988,253,"5700 VIA REAL UNIT 15, CARPINTERIA, CA, 93013","Match","Exact","5700 VIA REAL, CARPINTERIA, CA, 93013",108638100,"R"
734754,"5700 VILLAGE OAKS DRIVE UNIT 3217","SAN JOSE","CA",95123,37.2467379190001,-121.802248118,254,"5700 VILLAGE OAKS DRIVE UNIT 3217, SAN JOSE, CA, 95123","Match","Exact","5700 VILLAGE OAKS DR, SAN JOSE, CA, 95123",646584966,"R"
734755,"5700 VOLSER AVE UNIT A","JBER","AK",99506,NA,NA,255,"5700 VOLSER AVE UNIT A, JBER, AK, 99506","No_Match",NA,NA,NA,NA
734756,"5700 W 26TH ST APT 6","CICERO","IL",60804,41.84366283,-87.766265174,256,"5700 W 26TH ST APT 6, CICERO, IL, 60804","Match","Non_Exact","5700 W 26TH ST, CICERO, IL, 60804",111795616,"R"
734757,"5700 W 70TH STREET","EDINA","MN",55439,44.876426241,-93.3688709199999,257,"5700 W 70TH STREET, EDINA, MN, 55439","Match","Exact","5700 W 70TH ST, EDINA, MN, 55439",43626941,"R"
734758,"5700 W 8TH","STILLWATER","OK",74074,36.112555263,-97.13704387,258,"5700 W 8TH, STILLWATER, OK, 74074","Match","Non_Exact","5700 W 8TH CT, STILLWATER, OK, 74074",166376188,"R"
734759,"5700 W 98TH TERRACE","OVERLAND PARK","KS",66207,38.950927891,-94.651312062,259,"5700 W 98TH TERRACE, OVERLAND PARK, KS, 66207","Match","Exact","5700 W 98TH TER, OVERLAND PARK, KS, 66207",91279854,"R"
734760,"5700 W HWY 126","REDMOND","OR",97756,44.2729598380001,-121.237182961,260,"5700 W HWY 126, REDMOND, OR, 97756","Match","Exact","5700 W HWY 126, REDMOND, OR, 97756",152547101,"R"
734761,"5700 W LOWE RD","ST. JOHNS","MI",48879,43.067909102,-84.634951314,261,"5700 W LOWE RD, ST. JOHNS, MI, 48879","Match","Exact","5700 W LOWE RD, SAINT JOHNS, MI, 48879",17293796,"L"
734762,"5700 W STREET","WASHOUGAL","WA",98671,NA,NA,262,"5700 W STREET, WASHOUGAL, WA, 98671","No_Match",NA,NA,NA,NA
734763,"5700 WALLINGS RD","BROADVIEW HEIGHTS","OH",44147,41.3448263230001,-81.646425274,263,"5700 WALLINGS RD, BROADVIEW HEIGHTS, OH, 44147","Match","Exact","5700 WALLINGS RD, BROADVIEW HEIGHTS, OH, 44147",61141725,"R"
734764,"5700 WEST POTVIN LANE","TUCSON","AZ",85742,32.4028585,-111.08688928,264,"5700 WEST POTVIN LANE, TUCSON, AZ, 85742","Match","Exact","5700 W POTVIN LN, TUCSON, AZ, 85742",632836850,"R"
734765,"5700 WILSHIRE BL UNIT 355","LOS ANGELES","CA",90036,34.062339319,-118.352700725,265,"5700 WILSHIRE BL UNIT 355, LOS ANGELES, CA, 90036","Match","Exact","5700 WILSHIRE BLVD, LOS ANGELES, CA, 90036",642865647,"L"
734766,"5700 WINK WAY","WOODBRIDGE","VA",22193,38.628244814,-77.376819473,266,"5700 WINK WAY, WOODBRIDGE, VA, 22193","Match","Exact","5700 WINK WAY, WOODBRIDGE, VA, 22193",638726141,"R"
734767,"5700 WINNER ROAD","KANSAS CITY","MO",64127,39.100895978,-94.515591806,267,"5700 WINNER ROAD, KANSAS CITY, MO, 64127","Match","Exact","5700 WINNER RD, KANSAS CITY, MO, 64127",91450916,"L"
734768,"5700 WYATT DRIVE","COLLEYVILLE","TX",76034,NA,NA,268,"5700 WYATT DRIVE, COLLEYVILLE, TX, 76034","No_Match",NA,NA,NA,NA
734769,"5700-5719 OSPREY WATCH COURT","CHARLOTTE","NC",28227,35.196385869,-80.7032781189999,269,"5700-5719 OSPREY WATCH COURT, CHARLOTTE, NC, 28227","Match","Exact","5700 OSPREY WATCH CT, CHARLOTTE, NC, 28227",70564196,"R"
734770,"57008 RUTLEDGE CT","ELKHART","IN",46516,41.666359744,-85.9100696099999,270,"57008 RUTLEDGE CT, ELKHART, IN, 46516","Match","Exact","57008 RUTLEDGE CT, ELKHART, IN, 46516",7765335,"R"
734771,"5701 1ST STREET","RICHMOND","VA",23223,37.5528490300001,-77.348716068,271,"5701 1ST STREET, RICHMOND, VA, 23223","Match","Exact","5701 1ST ST, RICHMOND, VA, 23223",106651106,"R"
734772,"5701 3RD AVE","LOS ANGELES",NA,90043,33.990793119,-118.320361097,272,"5701 3RD AVE, LOS ANGELES, , 90043","Match","Exact","5701 3RD AVE, LOS ANGELES, CA, 90043",141657842,"R"
734773,"5701 4TH STREET 1222","KATY",NA,77493,29.7890333280001,-95.822285925,273,"5701 4TH STREET 1222, KATY, , 77493","Match","Exact","5701 4TH ST, KATY, TX, 77493",96013107,"L"
734774,"5701 9TH AVENUE","PORT ARTHUR","TX",77642,NA,NA,274,"5701 9TH AVENUE, PORT ARTHUR, TX, 77642","No_Match",NA,NA,NA,NA
734775,"5701 9TH AVNUE","PORT ARTHUR","TX",77642,NA,NA,275,"5701 9TH AVNUE, PORT ARTHUR, TX, 77642","No_Match",NA,NA,NA,NA
734776,"5701 ALDER RIDGE DRIVE","LA CANADA FLINTRIDGE","CA",91011,34.2194898810001,-118.193173828,276,"5701 ALDER RIDGE DRIVE, LA CANADA FLINTRIDGE, CA, 91011","Match","Exact","5701 ALDER RIDGE DR, LA CANADA, CA, 91011",141591014,"L"
734777,"5701 ALDER RIDGE DRIVE","LA CANADA","CA",91011,34.2194898810001,-118.193173828,277,"5701 ALDER RIDGE DRIVE, LA CANADA, CA, 91011","Match","Exact","5701 ALDER RIDGE DR, LA CANADA, CA, 91011",141591014,"L"
734778,"5701 ARCADY PLACE","PLANO","TX",75093,33.033554205,-96.81865773,278,"5701 ARCADY PLACE, PLANO, TX, 75093","Match","Exact","5701 ARCADY PL, PLANO, TX, 75093",123509967,"R"
734779,"5701 AVERY PARK DR","DERWOOD","MD",20855,39.124333495,-77.1160123499999,279,"5701 AVERY PARK DR, DERWOOD, MD, 20855","Match","Exact","5701 AVERY PARK DR, DERWOOD, MD, 20855",62093356,"R"
734780,"5701 BARLOW ROAD","RIVERTON","IL",62561,39.8847743760001,-89.516348665,280,"5701 BARLOW ROAD, RIVERTON, IL, 62561","Match","Exact","5701 BARLOW RD, RIVERTON, IL, 62561",625129589,"L"
734781,"5701 BATTERY DRIVE UNIT F","GREENSBORO","NC",27409,36.0560773780001,-79.91399433,281,"5701 BATTERY DRIVE UNIT F, GREENSBORO, NC, 27409","Match","Exact","5701 BATTERY DR, GREENSBORO, NC, 27409",131115258,"L"
734782,"5701 BENT CREEK TRAIL","DALLAS","TX",75252,33.0099521820001,-96.809935335,282,"5701 BENT CREEK TRAIL, DALLAS, TX, 75252","Match","Exact","5701 BENT CREEK TRL, DALLAS, TX, 75252",123534634,"R"
734783,"5701 BISCAYNE BLVD  UNIT 302","MIAMI","FL",33127,NA,NA,283,"5701 BISCAYNE BLVD  UNIT 302, MIAMI, FL, 33127","No_Match",NA,NA,NA,NA
734784,"5701 BISCAYNE BOULEVARD UNIT 302","MIAMI","FL",33137,25.8284607590001,-80.186070631,284,"5701 BISCAYNE BOULEVARD UNIT 302, MIAMI, FL, 33137","Match","Exact","5701 BISCAYNE BLVD, MIAMI, FL, 33137",116007676,"R"
734785,"5701 BOULEVARD EAST    APT 4K","WEST NEW YORK","NJ",7093,NA,NA,285,"5701 BOULEVARD EAST    APT 4K, WEST NEW YORK, NJ, 7093","No_Match",NA,NA,NA,NA
734786,"5701 BRIAR COURT","EVANSVILLE","IN",47711,NA,NA,286,"5701 BRIAR COURT, EVANSVILLE, IN, 47711","No_Match",NA,NA,NA,NA
734787,"5701 BROWNSTONE DRIVE","INDIANAPOLIS","IN",46220,39.8562212900001,-86.093988176,287,"5701 BROWNSTONE DRIVE, INDIANAPOLIS, IN, 46220","Match","Exact","5701 BROWNSTONE DR, INDIANAPOLIS, IN, 46220",640858014,"L"
734788,"5701 BUTTRICK AVE SE","ALTO","MI",49302,42.860946497,-85.468618652,288,"5701 BUTTRICK AVE SE, ALTO, MI, 49302","Match","Exact","5701 BUTTRICK AVE SE, ALTO, MI, 49302",642598758,"L"
734789,"5701 CALLIE LANE     UNIT E","SACRAMENTO","CA",95841,38.659213876,-121.331976685,289,"5701 CALLIE LANE     UNIT E, SACRAMENTO, CA, 95841","Match","Exact","5701 CALLIE LN, SACRAMENTO, CA, 95841",133426314,"L"
734790,"5701 CAMINO DEL SOL APT 102","BOCA RATON","FL",33433,NA,NA,290,"5701 CAMINO DEL SOL APT 102, BOCA RATON, FL, 33433","No_Match",NA,NA,NA,NA
734791,"5701 CAMINO DEL SOL STE 102","BOCA RATON","FL",33433,NA,NA,291,"5701 CAMINO DEL SOL STE 102, BOCA RATON, FL, 33433","No_Match",NA,NA,NA,NA
734792,"5701 CHESLEY AVENUE","LOS ANGELES","CA",90043,33.990696321,-118.334442762,292,"5701 CHESLEY AVENUE, LOS ANGELES, CA, 90043","Match","Exact","5701 CHESLEY AVE, LOS ANGELES, CA, 90043",141654958,"R"
734793,"5701 CHINOOK","RALEIGH","NC",27610,35.7559776510001,-78.545453374,293,"5701 CHINOOK, RALEIGH, NC, 27610","Match","Non_Exact","5701 CHINOOK CT, RALEIGH, NC, 27610",72605819,"L"
734794,"5701 CLEARBROOK DRIVE","NORTHPORT","AL",35473,33.2406730860001,-87.613608589,294,"5701 CLEARBROOK DRIVE, NORTHPORT, AL, 35473","Match","Exact","5701 CLEARBROOK DR, NORTHPORT, AL, 35473",82220551,"R"
734795,"5701 COLLINS AVE NUMBER 1001","MIAMI BEACH","FL",33140,25.837955585,-80.1209133309999,295,"5701 COLLINS AVE NUMBER 1001, MIAMI BEACH, FL, 33140","Match","Exact","5701 COLLINS AVE, MIAMI BEACH, FL, 33140",650070380,"R"
734796,"5701 COLONIAL VALLEY ROAD","SPRING GROVE","PA",17362,39.8544684610001,-76.873751609,296,"5701 COLONIAL VALLEY ROAD, SPRING GROVE, PA, 17362","Match","Exact","5701 COLONIAL VALLEY RD, SPRING GROVE, PA, 17362",88775776,"R"
734797,"5701 DELHI ROAD","CINCINNATI","OH",45233,39.0963124690001,-84.637540977,297,"5701 DELHI ROAD, CINCINNATI, OH, 45233","Match","Exact","5701 DELHI RD, CINCINNATI, OH, 45233",103969370,"L"
734798,"5701 DELROSE DRIVE 36609","MOBILE","AL",36609,30.6461929430001,-88.174349088,298,"5701 DELROSE DRIVE 36609, MOBILE, AL, 36609","Match","Exact","5701 DELROSE DR, MOBILE, AL, 36609",61854702,"L"
734799,"5701 DERBY LANE","SEBRING","FL",33875,27.4142481980001,-81.496869512,299,"5701 DERBY LANE, SEBRING, FL, 33875","Match","Exact","5701 DERBY LN, SEBRING, FL, 33875",4649423,"R"
734800,"5701 E GLENN ST APT 33","TUCSON","AZ",85712,32.257933522,-110.870061371,300,"5701 E GLENN ST APT 33, TUCSON, AZ, 85712","Match","Non_Exact","5701 E GLENN ST, TUCSON, AZ, 85712",630905143,"L"
734801,"5701 E SHIRLEY LANE APT 1506","MONTGOMERY","AL",36117,32.368591199,-86.204982043,301,"5701 E SHIRLEY LANE APT 1506, MONTGOMERY, AL, 36117","Match","Non_Exact","5701 E SHIRLEY LN, MONTGOMERY, AL, 36117",635642937,"R"
734802,"5701 EAST SHIRLEY LANE  APT 1608","MONTGOMERY","AL",36117,32.3686062830001,-86.204982474,302,"5701 EAST SHIRLEY LANE  APT 1608, MONTGOMERY, AL, 36117","Match","Exact","5701 E SHIRLEY LN, MONTGOMERY, AL, 36117",635642937,"R"
734803,"5701 ENID STREET","FORT SMITH","AR",72903,35.3522283200001,-94.369994791,303,"5701 ENID STREET, FORT SMITH, AR, 72903","Match","Exact","5701 ENID ST, FORT SMITH, AR, 72903",56104797,"L"
734804,"5701 EUGENIA CT","ORANGEVALE","CA",95662,38.669232471,-121.203831638,304,"5701 EUGENIA CT, ORANGEVALE, CA, 95662","Match","Exact","5701 EUGENIA CT, ORANGEVALE, CA, 95662",133383819,"R"
734805,"5701 EXECUTIVE CENTER DR","CHARLOTTE","NC",28212,35.200887837,-80.744142341,305,"5701 EXECUTIVE CENTER DR, CHARLOTTE, NC, 28212","Match","Exact","5701 EXECUTIVE CENTER DR, CHARLOTTE, NC, 28212",70492297,"L"
734806,"5701 FAULCONBRIDGE RD","CHARLOTTE","NC",28227,35.214059181,-80.701589272,306,"5701 FAULCONBRIDGE RD, CHARLOTTE, NC, 28227","Match","Exact","5701 FAULCONBRIDGE RD, CHARLOTTE, NC, 28227",70494425,"L"
734807,"5701 FENWAY DRIVE","MEMPHIS","TN",38141,35.0316868780001,-89.873387662,307,"5701 FENWAY DRIVE, MEMPHIS, TN, 38141","Match","Exact","5701 FENWAY DR, MEMPHIS, TN, 38141",72928891,"R"
734808,"5701 GARFIELD AVE SOUTH","MINNEAPOLIS","MN",55419,44.899504328,-93.287011854,308,"5701 GARFIELD AVE SOUTH, MINNEAPOLIS, MN, 55419","Match","Exact","5701 GARFIELD AVE S, MINNEAPOLIS, MN, 55419",43630110,"L"
734809,"5701 GRAND AVE S","MINNEAPOLIS","MN",55419,44.899504962,-93.284459547,309,"5701 GRAND AVE S, MINNEAPOLIS, MN, 55419","Match","Exact","5701 GRAND AVE S, MINNEAPOLIS, MN, 55419",43739913,"L"
734810,"5701 GROVE STREET SOUTH","SAINT PETERSBURG","FL",33705,27.7164372030001,-82.643380687,310,"5701 GROVE STREET SOUTH, SAINT PETERSBURG, FL, 33705","Match","Exact","5701 GROVE ST S, SAINT PETERSBURG, FL, 33705",124711616,"R"
734811,"5701 HEMING AVE","SPRINGFIELD","VA",22151,NA,NA,311,"5701 HEMING AVE, SPRINGFIELD, VA, 22151","No_Match",NA,NA,NA,NA
734812,"5701 HWY 91 SOUTH","DONALSONVILLE","GA",39845,NA,NA,312,"5701 HWY 91 SOUTH, DONALSONVILLE, GA, 39845","No_Match",NA,NA,NA,NA
734813,"5701 JENSEN RANCH RD","RIVERSIDE","CA",92509,33.9896308530001,-117.418400676,313,"5701 JENSEN RANCH RD, RIVERSIDE, CA, 92509","Match","Exact","5701 JENSEN RANCH RD, RIVERSIDE, CA, 92509",194828546,"L"
734814,"5701 JOHNNY MORRIS RD - 327","AUSTIN","TX",78724,30.293312644,-97.652659587,314,"5701 JOHNNY MORRIS RD - 327, AUSTIN, TX, 78724","Match","Exact","5701 JOHNNY MORRIS RD, AUSTIN, TX, 78724",640830482,"R"
734815,"5701 KLONDIKE ST NE","ALBUQUERQUE","NM",87111,35.145185828,-106.508893415,315,"5701 KLONDIKE ST NE, ALBUQUERQUE, NM, 87111","Match","Exact","5701 KLONDIKE ST NE, ALBUQUERQUE, NM, 87111",206727913,"R"
734816,"5701 KYLIE CT","SYLVANIA","OH",43560,41.7151622210001,-83.77661376,316,"5701 KYLIE CT, SYLVANIA, OH, 43560","Match","Exact","5701 KYLIE CT, SYLVANIA, OH, 43560",33964220,"L"
734817,"5701 LANGE ROAD","PALOUSE","WA",99161,46.947245234,-117.184508179,317,"5701 LANGE ROAD, PALOUSE, WA, 99161","Match","Exact","5701 LANGE RD, PALOUSE, WA, 99161",610897026,"R"
734818,"5701 LEIDEN ROAD","BALTIMORE","MD",21206,39.335326174,-76.5269096549999,318,"5701 LEIDEN ROAD, BALTIMORE, MD, 21206","Match","Exact","5701 LEIDEN RD, BALTIMORE, MD, 21206",191525147,"R"
734819,"5701 LEON TYSON RD","SAINT CLOUD","FL",34771,28.3299911760001,-81.211387837,319,"5701 LEON TYSON RD, SAINT CLOUD, FL, 34771","Match","Exact","5701 LEON TYSON RD, SAINT CLOUD, FL, 34771",176683609,"R"
734820,"5701 LEWOOD DRIVE","AUSTIN","TX",78745,30.2165309700001,-97.800537036,320,"5701 LEWOOD DRIVE, AUSTIN, TX, 78745","Match","Exact","5701 LEWOOD DR, AUSTIN, TX, 78745",63939142,"L"
734821,"5701 LONETREE BLVD","ROCKLIN","CA",95765,NA,NA,321,"5701 LONETREE BLVD, ROCKLIN, CA, 95765","Tie",NA,NA,NA,NA
734822,"5701 MANCHESTER","KANSAS CITY","MO",64129,39.0207136810001,-94.4953213809999,322,"5701 MANCHESTER, KANSAS CITY, MO, 64129","Match","Non_Exact","5701 MANCHESTER AVE, KANSAS CITY, MO, 64129",91460377,"L"
734823,"5701 MARIUS STREET","CORAL GABLES","FL",33146,25.7161732750001,-80.270220094,323,"5701 MARIUS STREET, CORAL GABLES, FL, 33146","Match","Exact","5701 MARIUS ST, CORAL GABLES, FL, 33146",116013555,"L"
734824,"5701 MARTIN STREET NO 46","FORT WORTH","TX",76119,32.6890711030001,-97.2356665469999,324,"5701 MARTIN STREET NO 46, FORT WORTH, TX, 76119","Match","Non_Exact","5701 MARTIN ST, FORT WORTH, TX, 76119",102133004,"L"
734825,"5701 MCCALL DRIVE","PLANO","TX",75093,33.0367269880001,-96.818242465,325,"5701 MCCALL DRIVE, PLANO, TX, 75093","Match","Exact","5701 MCCALL DR, PLANO, TX, 75093",123531683,"L"
734826,"5701 MEMORIAL","ARLINGTON","TX",76017,32.650311404,-97.15794813,326,"5701 MEMORIAL, ARLINGTON, TX, 76017","Match","Exact","5701 MEMORIAL, ARLINGTON, TX, 76017",101945900,"R"
734827,"5701 N CEDAR SPRINGS RD","MUNCIE","IN",47304,40.2414895200001,-85.4200254209999,327,"5701 N CEDAR SPRINGS RD, MUNCIE, IN, 47304","Match","Exact","5701 N CEDAR SPRINGS RD, MUNCIE, IN, 47304",633763205,"L"
734828,"5701 N PINE ISLAND ROAD STE 370","TAMARAC","FL",33321,NA,NA,328,"5701 N PINE ISLAND ROAD STE 370, TAMARAC, FL, 33321","No_Match",NA,NA,NA,NA
734829,"5701 N SHERIDAN 18A","60660","IL",60660,NA,NA,329,"5701 N SHERIDAN 18A, 60660, IL, 60660","No_Match",NA,NA,NA,NA
734830,"5701 N SHERIDAN RD APT 20B","CHICAGO","IL",60660,41.985709533,-87.6552343,330,"5701 N SHERIDAN RD APT 20B, CHICAGO, IL, 60660","Match","Non_Exact","5701 N SHERIDAN RD, CHICAGO, IL, 60660",635485049,"R"
734831,"5701 N SHERIDAN ROAD","CHICAGO","IL",60660,41.985709533,-87.6552343,331,"5701 N SHERIDAN ROAD, CHICAGO, IL, 60660","Match","Exact","5701 N SHERIDAN RD, CHICAGO, IL, 60660",635485049,"R"
734832,"5701 NORTH CEDAR SPRINGS ROAD","MUNCIE","IN",47304,40.2414895200001,-85.4200254209999,332,"5701 NORTH CEDAR SPRINGS ROAD, MUNCIE, IN, 47304","Match","Exact","5701 N CEDAR SPRINGS RD, MUNCIE, IN, 47304",633763205,"L"
734833,"5701 NORTH SHERIDAN ROAD 4F","CHICAGO","IL",60660,41.985709533,-87.6552343,333,"5701 NORTH SHERIDAN ROAD 4F, CHICAGO, IL, 60660","Match","Exact","5701 N SHERIDAN RD, CHICAGO, IL, 60660",635485049,"R"
734834,"5701 NW 13TH COURT","LAUDERHILL","FL",33313,26.140800418,-80.225355737,334,"5701 NW 13TH COURT, LAUDERHILL, FL, 33313","Match","Exact","5701 NW 13TH CT, LAUDERHILL, FL, 33313",114707769,"R"
734835,"5701 PARK DRIVE  APT 8306","CHINO HILLS","CA",91709,33.9528886430001,-117.683406692,335,"5701 PARK DRIVE  APT 8306, CHINO HILLS, CA, 91709","Match","Exact","5701 PARK DR, CHINO HILLS, CA, 91709",650921585,"R"
734836,"5701 PARKWAY DR","LAUREL","MD",20707,39.1053965580001,-76.9087394869999,336,"5701 PARKWAY DR, LAUREL, MD, 20707","Match","Exact","5701 PARKWAY DR, LAUREL, MD, 20707",62102834,"L"
734837,"5701 PELTIER TRACE","NORCROSS","GA",30093,NA,NA,337,"5701 PELTIER TRACE, NORCROSS, GA, 30093","No_Match",NA,NA,NA,NA
734838,"5701 PEMBROKE AVENUE","GYWN OAKS","MD",21207,39.332715002,-76.719526821,338,"5701 PEMBROKE AVENUE, GYWN OAKS, MD, 21207","Match","Non_Exact","5701 PEMBROKE AVE, GWYNN OAK, MD, 21207",191469355,"L"
734839,"5701 PORT ROAD D123","TEMPLE","TX",76502,NA,NA,339,"5701 PORT ROAD D123, TEMPLE, TX, 76502","No_Match",NA,NA,NA,NA
734840,"5701 PROGRESS RD","INDIANAPOLIS","IN",46241,39.7411483700001,-86.258922458,340,"5701 PROGRESS RD, INDIANAPOLIS, IN, 46241","Match","Exact","5701 PROGRESS RD, INDIANAPOLIS, IN, 46241",107980078,"L"
734841,"5701 QUAKER BRIDGE DR","EVANSVILLE","IN",47711,38.0299528260001,-87.494423597,341,"5701 QUAKER BRIDGE DR, EVANSVILLE, IN, 47711","Match","Exact","5701 QUAKER BRIDGE DR, EVANSVILLE, IN, 47711",642906087,"R"
734842,"5701 REYNARD TRAIL","LITHONIA","GA",30038,33.6819473140001,-84.157914986,342,"5701 REYNARD TRAIL, LITHONIA, GA, 30038","Match","Exact","5701 REYNARD TRL, LITHONIA, GA, 30038",23376111,"R"
734843,"5701 RIDGEVIEW DR","HARRISBURG","PA",17112,40.3235104840001,-76.792724388,343,"5701 RIDGEVIEW DR, HARRISBURG, PA, 17112","Match","Exact","5701 RIDGEVIEW DR, HARRISBURG, PA, 17112",70823362,"R"
734844,"5701 S PROCTOR RD","MUNCIE","IN",47302,40.1418849780001,-85.447278895,344,"5701 S PROCTOR RD, MUNCIE, IN, 47302","Match","Exact","5701 S PROCTOR RD, MUNCIE, IN, 47302",30847861,"R"
734845,"5701 S SHADOW RIDGE AVENUE","SIOUX FALLS","SD",57108,43.4920787470001,-96.740346689,345,"5701 S SHADOW RIDGE AVENUE, SIOUX FALLS, SD, 57108","Match","Exact","5701 S SHADOW RIDGE AVE, SIOUX FALLS, SD, 57108",176331646,"L"
734846,"5701 S WINCHESTER AVE","CHICAGO","IL",60636,41.790145011,-87.6729713569999,346,"5701 S WINCHESTER AVE, CHICAGO, IL, 60636","Match","Exact","5701 S WINCHESTER AVE, CHICAGO, IL, 60636",111805608,"L"
734847,"5701 SAM POTTS HWY","HALLSBORO","NC",28442,34.322254387,-78.574342319,347,"5701 SAM POTTS HWY, HALLSBORO, NC, 28442","Match","Exact","5701 SAM POTTS HWY, HALLSBORO, NC, 28442",64129061,"R"
734848,"5701 SAMPSON DRIVE","GIRARD","OH",44420,41.177370985,-80.652507387,348,"5701 SAMPSON DRIVE, GIRARD, OH, 44420","Match","Exact","5701 SAMPSON DR, GIRARD, OH, 44420",117412497,"L"
734849,"5701 SANDHILL DRIVE","WINSTON-SALEM","NC",27105,36.1933532790001,-80.2401014339999,349,"5701 SANDHILL DRIVE, WINSTON-SALEM, NC, 27105","Match","Exact","5701 SANDHILL DR, WINSTON SALEM, NC, 27105",601411318,"R"
734850,"5701 SANTA CATALINA AVE","GARDEN GROVE","CA",92845,33.7917336,-118.033676056,350,"5701 SANTA CATALINA AVE, GARDEN GROVE, CA, 92845","Match","Exact","5701 SANTA CATALINA AVE, GARDEN GROVE, CA, 92845",144003304,"L"
734851,"5701 SANTA FE RD","FORT BENNING","GA",31905,NA,NA,351,"5701 SANTA FE RD, FORT BENNING, GA, 31905","No_Match",NA,NA,NA,NA
734852,"5701 SARA KAY DRIVE","NORTH CHESTERFIELD","VA",23237,37.3890337990001,-77.485056613,352,"5701 SARA KAY DRIVE, NORTH CHESTERFIELD, VA, 23237","Match","Exact","5701 SARA KAY DR, NORTH CHESTERFIELD, VA, 23237",201546299,"L"
734853,"5701 SATURN DR","RAPID CITY","SD",57703,44.0599005710001,-103.127799088,353,"5701 SATURN DR, RAPID CITY, SD, 57703","Match","Exact","5701 SATURN DR, RAPID CITY, SD, 57703",205511134,"R"
734854,"5701 SCHWARKOPF DR","EL PASO","TX",79904,NA,NA,354,"5701 SCHWARKOPF DR, EL PASO, TX, 79904","No_Match",NA,NA,NA,NA
734855,"5701 SCRUGGS WAY APT 10201","PLANO","TX",75024,33.072525102,-96.818796359,355,"5701 SCRUGGS WAY APT 10201, PLANO, TX, 75024","Match","Exact","5701 SCRUGGS WAY, PLANO, TX, 75024",210529056,"L"
734856,"5701 SCRUGGS WAY APT 10206","PLANO","TX",75024,33.072525102,-96.818796359,356,"5701 SCRUGGS WAY APT 10206, PLANO, TX, 75024","Match","Exact","5701 SCRUGGS WAY, PLANO, TX, 75024",210529056,"L"
734857,"5701 SCRUGGS WAY","PLANO","TX",75024,33.072525102,-96.818796359,357,"5701 SCRUGGS WAY, PLANO, TX, 75024","Match","Exact","5701 SCRUGGS WAY, PLANO, TX, 75024",210529056,"L"
734858,"5701 SE 170TH CT","OCKLAWAHA","FL",32179,29.128944828,-81.870879337,358,"5701 SE 170TH CT, OCKLAWAHA, FL, 32179","Match","Exact","5701 SE 170TH CT, OCKLAWAHA, FL, 32179",116763803,"R"
734859,"5701 SE 66TH ST","OCALA","FL",34480,29.1206044,-82.056628433,359,"5701 SE 66TH ST, OCALA, FL, 34480","Match","Exact","5701 SE 66TH ST, OCALA, FL, 34480",647913001,"L"
734860,"5701 SHINGLE CREEK PARKWAY","BROOKLYN CENTER","MN",55430,45.0647592010001,-93.310011897,360,"5701 SHINGLE CREEK PARKWAY, BROOKLYN CENTER, MN, 55430","Match","Exact","5701 SHINGLE CREEK PKWY, BROOKLYN CENTER, MN, 55430",43830354,"L"
734861,"5701 SHINGLE CREEK PKWY N STE 470","BROOKLYN CENTER","MN",55430,45.0647592010001,-93.310011897,361,"5701 SHINGLE CREEK PKWY N STE 470, BROOKLYN CENTER, MN, 55430","Match","Non_Exact","5701 SHINGLE CREEK PKWY, BROOKLYN CENTER, MN, 55430",43830354,"L"
734862,"5701 SHINGLE CREEK PKWY SUITE 545","BROOKLYN CENTER","MN",55430,45.0647592010001,-93.310011897,362,"5701 SHINGLE CREEK PKWY SUITE 545, BROOKLYN CENTER, MN, 55430","Match","Exact","5701 SHINGLE CREEK PKWY, BROOKLYN CENTER, MN, 55430",43830354,"L"
734863,"5701 SHINGLE CREEK PKWY SUITE 580","BROOKLYN CENTER","MN",55430,45.0647592010001,-93.310011897,363,"5701 SHINGLE CREEK PKWY SUITE 580, BROOKLYN CENTER, MN, 55430","Match","Exact","5701 SHINGLE CREEK PKWY, BROOKLYN CENTER, MN, 55430",43830354,"L"
734864,"5701 SHINGLECREEK PKWY SUITE 350J","BROOKLY CENTER","MN",55530,45.0647592010001,-93.310011897,364,"5701 SHINGLECREEK PKWY SUITE 350J, BROOKLY CENTER, MN, 55530","Match","Non_Exact","5701 SHINGLE CREEK PKWY, BROOKLYN CENTER, MN, 55430",43830354,"L"
734865,"5701 SOUTH 28TH ST","FORT SMITH","AR",72908,35.3264626280001,-94.4045139569999,365,"5701 SOUTH 28TH ST, FORT SMITH, AR, 72908","Match","Exact","5701 S 28TH ST, FORT SMITH, AR, 72908",56139078,"L"
734866,"5701 SOUTH MOPAC 1813","AUSTIN","TX",78749,30.233049334,-97.8252800339999,366,"5701 SOUTH MOPAC 1813, AUSTIN, TX, 78749","Match","Non_Exact","5701 S MO PAC EXPY, AUSTIN, TX, 78749",64014774,"R"
734867,"5701 ST CLAIR ST","DETROIT","MI",48213,42.390593032,-82.9969967759999,367,"5701 ST CLAIR ST, DETROIT, MI, 48213","Match","Exact","5701 ST CLAIR ST, DETROIT, MI, 48213",95483487,"L"
734868,"5701 STERLING ST","DUBLIN","CA",94568,NA,NA,368,"5701 STERLING ST, DUBLIN, CA, 94568","No_Match",NA,NA,NA,NA
734869,"5701 STEWARTSVILLE ROAD","POSEYVILLE","IN",47633,38.177316553,-87.806766672,369,"5701 STEWARTSVILLE ROAD, POSEYVILLE, IN, 47633","Match","Exact","5701 STEWARTSVILLE RD, POSEYVILLE, IN, 47633",39739903,"L"
734870,"5701 STILLWATER BLVD N","OAK PARK HEIGHTS","MN",55082,NA,NA,370,"5701 STILLWATER BLVD N, OAK PARK HEIGHTS, MN, 55082","No_Match",NA,NA,NA,NA
734871,"5701 SUNSET DR","MIAMI","FL",33143,25.704448972,-80.2854761579999,371,"5701 SUNSET DR, MIAMI, FL, 33143","Match","Exact","5701 SUNSET DR, MIAMI, FL, 33143",115979030,"R"
734872,"5701 SYCAMORE STREET","PASADENA","TX",77503,29.670722928,-95.154485498,372,"5701 SYCAMORE STREET, PASADENA, TX, 77503","Match","Non_Exact","5701 SYCAMORE AVE, PASADENA, TX, 77503",96105832,"L"
734873,"5701 TELEGRAPH AVENUE","OAKLAND","CA",94609,37.8431507550001,-122.261587701,373,"5701 TELEGRAPH AVENUE, OAKLAND, CA, 94609","Match","Exact","5701 TELEGRAPH AVE, OAKLAND, CA, 94609",124998888,"L"
734874,"5701 TERNPARK DRIVE","LITHIA","FL",33547,27.850325061,-82.21429319,374,"5701 TERNPARK DRIVE, LITHIA, FL, 33547","Match","Exact","5701 TERNPARK DR, LITHIA, FL, 33547",624609179,"L"
734875,"5701 THISTLETON LANE","RALEIGH","NC",27606,35.7270030380001,-78.725212442,375,"5701 THISTLETON LANE, RALEIGH, NC, 27606","Match","Exact","5701 THISTLETON LN, RALEIGH, NC, 27606",72619789,"L"
734876,"5701 TOUCHSTONE DR","MCKINNEY","TX",75070,33.1636346930001,-96.7036629999999,376,"5701 TOUCHSTONE DR, MCKINNEY, TX, 75070","Match","Exact","5701 TOUCHSTONE DR, MCKINNEY, TX, 75070",635286484,"L"
734877,"5701 TUMBLED STONE","KILLEEN","TX",76542,31.051022984,-97.690701028,377,"5701 TUMBLED STONE, KILLEEN, TX, 76542","Match","Non_Exact","5701 TUMBLED STONE DR, KILLEEN, TX, 76542",146233934,"L"
734878,"5701 TYNECASTLE LOOP","DUBLIN","OH",43016,40.080743365,-83.165695537,378,"5701 TYNECASTLE LOOP, DUBLIN, OH, 43016","Match","Exact","5701 TYNECASTLE LOOP, DUBLIN, OH, 43016",218571964,"L"
734879,"5701 TYNECASTLE LOOP","DUBLIN","OH",43216,40.080743365,-83.165695537,379,"5701 TYNECASTLE LOOP, DUBLIN, OH, 43216","Match","Non_Exact","5701 TYNECASTLE LOOP, DUBLIN, OH, 43016",218571964,"L"
734880,"5701 UNIVERSITY BLVD","ALBUQUERQUE","NM",87106,34.9885085600001,-106.615577822,380,"5701 UNIVERSITY BLVD, ALBUQUERQUE, NM, 87106","Match","Non_Exact","5701 UNIVERSITY BLVD SE, ALBUQUERQUE, NM, 87106",645018554,"R"
734881,"5701 W 119TH SUITE 305","LEAWOOD","KS",66209,NA,NA,381,"5701 W 119TH SUITE 305, LEAWOOD, KS, 66209","No_Match",NA,NA,NA,NA
734882,"5701 W 27TH ST","SIOUX FALLS","SD",56106,43.5274353040001,-96.796866668,382,"5701 W 27TH ST, SIOUX FALLS, SD, 56106","Match","Non_Exact","5701 W 27TH ST, SIOUX FALLS, SD, 57106",34969994,"R"
734883,"5701 W BROWARD BLVD","PLANTATION","FL",33317,26.1209775020001,-80.224184497,383,"5701 W BROWARD BLVD, PLANTATION, FL, 33317","Match","Exact","5701 W BROWARD BLVD, PLANTATION, FL, 33317",637296336,"L"
734884,"5701 W CAYLOR","FORT WORTH","TX",76248,NA,NA,384,"5701 W CAYLOR, FORT WORTH, TX, 76248","No_Match",NA,NA,NA,NA
734885,"5701 W HWY 326","OCALA","FL",34482,29.266996873,-82.207601536,385,"5701 W HWY 326, OCALA, FL, 34482","Match","Non_Exact","5701 CO RD 326, OCALA, FL, 34482",116807554,"R"
734886,"5701 W KEEFE AVE","MILWAUKEE","WI",53216,43.0826350140001,-87.984587356,386,"5701 W KEEFE AVE, MILWAUKEE, WI, 53216","Match","Exact","5701 W KEEFE AVE, MILWAUKEE, WI, 53216",77731717,"L"
734887,"5701 WELLELSEY AVE","NORTH OLMSTED","OH",44070,NA,NA,387,"5701 WELLELSEY AVE, NORTH OLMSTED, OH, 44070","No_Match",NA,NA,NA,NA
734888,"5701 WESTGROVE","CINCINNATI","OH",45248,39.149185431,-84.637591153,388,"5701 WESTGROVE, CINCINNATI, OH, 45248","Match","Non_Exact","5701 WESTGROVE DR, CINCINNATI, OH, 45248",103916035,"L"
734889,"5701 WHEELWRIGHT WAY","HAYMARKET","VA",20169,38.8333417260001,-77.64864309,389,"5701 WHEELWRIGHT WAY, HAYMARKET, VA, 20169","Match","Exact","5701 WHEELWRIGHT WAY, HAYMARKET, VA, 20169",207144824,"L"
734890,"5701 WHISKEY RIVER DRIVE","COLORADO SPRINGS","CO",80923,38.914958433,-104.694782768,390,"5701 WHISKEY RIVER DRIVE, COLORADO SPRINGS, CO, 80923","Match","Exact","5701 WHISKEY RIVER DR, COLORADO SPRINGS, CO, 80923",610702472,"L"
734891,"5701 WHITE ST","BUZZARDS BAY","MA",2542,41.658622832,-70.581030115,391,"5701 WHITE ST, BUZZARDS BAY, MA, 2542","Match","Exact","5701 WHITE ST, BUZZARDS BAY, MA, 02542",121549075,"L"
734892,"5701 WILKINSON","VALLEY VILLAGE","CA",91607,34.1744471640001,-118.404178005,392,"5701 WILKINSON, VALLEY VILLAGE, CA, 91607","Match","Non_Exact","5701 WILKINSON AVE, VALLEY VLG, CA, 91607",141563765,"L"
734893,"5701 WINDESTRAW DR","DURHAM","NC",27713,35.920600613,-78.928062154,393,"5701 WINDESTRAW DR, DURHAM, NC, 27713","Match","Non_Exact","5701 WINDLESTRAW DR, DURHAM, NC, 27713",71748468,"L"
734894,"5701 WINTERLEAF DR","NORTH CHESTERFIELD","VA",23234,37.4172550160001,-77.4940590589999,394,"5701 WINTERLEAF DR, NORTH CHESTERFIELD, VA, 23234","Match","Exact","5701 WINTERLEAF DR, NORTH CHESTERFIELD, VA, 23234",201560643,"L"
734895,"5701 WOODWAY SUITE 330","HOUSTON","TX",77057,29.7637689420001,-95.478098157,395,"5701 WOODWAY SUITE 330, HOUSTON, TX, 77057","Match","Non_Exact","5701 WOODWAY DR, HOUSTON, TX, 77057",96032300,"L"
734896,"5701 YACHTSMAN CT","BROWN SUMMIT","NC",27214,36.157147519,-79.7765176509999,396,"5701 YACHTSMAN CT, BROWN SUMMIT, NC, 27214","Match","Non_Exact","5701 YACHTSMAN CT, BROWNS SUMMIT, NC, 27214",637652230,"L"
734897,"5701 YORK AVE S","EDINA","MN",55410,44.9001031450001,-93.320179611,397,"5701 YORK AVE S, EDINA, MN, 55410","Match","Exact","5701 YORK AVE S, EDINA, MN, 55410",43835388,"L"
734898,"57010 BROOKVIEW LANE","NEW ULM","MN",56073,44.2954174970001,-94.408857041,398,"57010 BROOKVIEW LANE, NEW ULM, MN, 56073","Match","Exact","57010 BROOKVIEW LN, NEW ULM, MN, 56073",28696327,"R"
734899,"5702 111TH AVE NE","SPICER","MN",56288,45.2308249760001,-94.9653009199999,399,"5702 111TH AVE NE, SPICER, MN, 56288","Match","Exact","5702 111TH AVE NE, SPICER, MN, 56288",36705548,"R"
734900,"5702 12TH AVE","BROOKLYN","NY",11219,40.631825098,-73.999039614,400,"5702 12TH AVE, BROOKLYN, NY, 11219","Match","Exact","5702 12TH AVE, BROOKLYN, NY, 11219",59080038,"R"
734901,"5702 15TH AVENUE","BROOKLYN","NY",11219,40.627833755,-73.992438943,401,"5702 15TH AVENUE, BROOKLYN, NY, 11219","Match","Exact","5702 15TH AVE, BROOKLYN, NY, 11219",59080267,"R"
734902,"5702 16TH ST NW","WASHINGTON","DC",20011,38.958704637,-77.036409163,402,"5702 16TH ST NW, WASHINGTON, DC, 20011","Match","Exact","5702 16TH ST NW, WASHINGTON, DC, 20011",76222286,"L"
734903,"5702 20TH AVE S","TAMPA","FL",33619,NA,NA,403,"5702 20TH AVE S, TAMPA, FL, 33619","No_Match",NA,NA,NA,NA
734904,"5702 4TH ST NE","FRIDLEY","MN",55432,45.071719811,-93.261766176,404,"5702 4TH ST NE, FRIDLEY, MN, 55432","Match","Exact","5702 4TH ST NE, FRIDLEY, MN, 55432",97487496,"L"
734905,"5702 ANGOLA RD LOT 253","TOLEDO","OH",43615,41.6238999060001,-83.678872336,405,"5702 ANGOLA RD LOT 253, TOLEDO, OH, 43615","Match","Exact","5702 ANGOLA RD, TOLEDO, OH, 43615",610052356,"R"
734906,"5702 ANNUNCIATION CIRCLE SUITE 326","AVE MARIA","FL",34142,NA,NA,406,"5702 ANNUNCIATION CIRCLE SUITE 326, AVE MARIA, FL, 34142","No_Match",NA,NA,NA,NA
734907,"5702 ASH ST","BLACK HAWK","SD",57718,44.1479898320001,-103.314310312,407,"5702 ASH ST, BLACK HAWK, SD, 57718","Match","Exact","5702 ASH ST, BLACK HAWK, SD, 57718",200920971,"R"
734908,"5702 ASHLEIGH WALK DRIVE","SUWANEE","GA",30024,34.103139329,-84.087674417,408,"5702 ASHLEIGH WALK DRIVE, SUWANEE, GA, 30024","Match","Exact","5702 ASHLEIGH WALK DR, SUWANEE, GA, 30024",635859829,"R"
734909,"5702 BALLINA CANYON LN","HOUSTON","TX",77041,29.8532024460001,-95.597540828,409,"5702 BALLINA CANYON LN, HOUSTON, TX, 77041","Match","Exact","5702 BALLINA CANYON LN, HOUSTON, TX, 77041",233480228,"L"
734910,"5702 BASSWOOD CT","FORT MYERS","FL",33919,26.563766835,-81.888826192,410,"5702 BASSWOOD CT, FORT MYERS, FL, 33919","Match","Exact","5702 BASSWOOD CT, FORT MYERS, FL, 33919",118025995,"L"
734911,"5702 BITTERBUSH WAY","LOVELAND","CO",80537,40.3908641450001,-105.158401737,411,"5702 BITTERBUSH WAY, LOVELAND, CO, 80537","Match","Exact","5702 BITTERBUSH WAY, LOVELAND, CO, 80537",188619955,"R"
734912,"5702 BURROUGH DR","AUSTIN","TX",78745,30.219648615,-97.808405275,412,"5702 BURROUGH DR, AUSTIN, TX, 78745","Match","Exact","5702 BURROUGH DR, AUSTIN, TX, 78745",63938936,"R"
734913,"5702 CALHOUN RD","HOUSTON","TX",77021,29.7019956460001,-95.345200711,413,"5702 CALHOUN RD, HOUSTON, TX, 77021","Match","Exact","5702 CALHOUN RD, HOUSTON, TX, 77021",96074301,"R"
734914,"5702 CAMBRIDGE LN UNIT 5","MOUNT PLEASANT","WI",53406,42.739776712,-87.8486857079999,414,"5702 CAMBRIDGE LN UNIT 5, MOUNT PLEASANT, WI, 53406","Match","Exact","5702 CAMBRIDGE LN, MOUNT PLEASANT, WI, 53406",77924967,"R"
734915,"5702 CHESTERFIELD AVENUE","AUSTIN","TX",78752,30.323201978,-97.721913827,415,"5702 CHESTERFIELD AVENUE, AUSTIN, TX, 78752","Match","Exact","5702 CHESTERFIELD AVE, AUSTIN, TX, 78752",63931663,"L"
734916,"5702 DAINTY COURT","RIVERBANK","CA",95367,NA,NA,416,"5702 DAINTY COURT, RIVERBANK, CA, 95367","No_Match",NA,NA,NA,NA
734917,"5702 EAST RIO VERDE VISTA DRIVE","TUCSON","AZ",85750,32.278833299,-110.871527381,417,"5702 EAST RIO VERDE VISTA DRIVE, TUCSON, AZ, 85750","Match","Exact","5702 E RIO VERDE VISTA DR, TUCSON, AZ, 85750",121178117,"R"
734918,"5702 EAST SKYLINE AVENUE","TUCSON","AZ",85708,32.1829626620001,-110.87145746,418,"5702 EAST SKYLINE AVENUE, TUCSON, AZ, 85708","Match","Exact","5702 E SKYLINE AVE, TUCSON, AZ, 85708",606839034,"L"
734919,"5702 EBER ROAD","WHITEHOUSE","OH",43571,NA,NA,419,"5702 EBER ROAD, WHITEHOUSE, OH, 43571","No_Match",NA,NA,NA,NA
734920,"5702 FARRAGUT RD","BROIKLYN","NY",11234,40.6361161340001,-73.921814362,420,"5702 FARRAGUT RD, BROIKLYN, NY, 11234","Match","Non_Exact","5702 FARRAGUT RD, BROOKLYN, NY, 11234",651797258,"R"
734921,"5702 FARRAGUT RD","BROOKLYN","NY",11234,40.6361161340001,-73.921814362,421,"5702 FARRAGUT RD, BROOKLYN, NY, 11234","Match","Exact","5702 FARRAGUT RD, BROOKLYN, NY, 11234",651797258,"R"
734922,"5702 FEDERAL COURT","UPPER MARLBORO","MD",20772,38.810161685,-76.8099848419999,422,"5702 FEDERAL COURT, UPPER MARLBORO, MD, 20772","Match","Exact","5702 FEDERAL CT, UPPER MARLBORO, MD, 20772",639562906,"L"
734923,"5702 FIRST AVE","KEY WEST","FL",33040,24.5720005220001,-81.735855768,423,"5702 FIRST AVE, KEY WEST, FL, 33040","Match","Exact","5702 1ST AVE, KEY WEST, FL, 33040",116476611,"L"
734924,"5702 FOREST MANOR DR","GREENSBORO","NC",27410,36.1587347930001,-79.865036572,424,"5702 FOREST MANOR DR, GREENSBORO, NC, 27410","Match","Exact","5702 FOREST MANOR DR, GREENSBORO, NC, 27410",131088896,"L"
734925,"5702 GRANITE LANE","LAKELAND","FL",33809,28.1177571200001,-81.952622929,425,"5702 GRANITE LANE, LAKELAND, FL, 33809","Match","Exact","5702 GRANITE LN, LAKELAND, FL, 33809",104865680,"R"
734926,"5702 HAMPTON STREET","PITTSBURGH","PA",15206,40.4747687340001,-79.922592973,426,"5702 HAMPTON STREET, PITTSBURGH, PA, 15206","Match","Exact","5702 HAMPTON ST, PITTSBURGH, PA, 15206",51646007,"R"
734927,"5702 HARBOUR RIDGE ROAD","MIDLOTHIAN","VA",23112,37.4155635660001,-77.6592843349999,427,"5702 HARBOUR RIDGE ROAD, MIDLOTHIAN, VA, 23112","Match","Exact","5702 HARBOUR RIDGE RD, MIDLOTHIAN, VA, 23112",201568201,"L"
734928,"5702 HILTON HEAD DR","CARROLTON","TX",75007,NA,NA,428,"5702 HILTON HEAD DR, CARROLTON, TX, 75007","No_Match",NA,NA,NA,NA
734929,"5702 HORNER DR","PORT ALLEN","LA",70767,30.550557828,-91.380761238,429,"5702 HORNER DR, PORT ALLEN, LA, 70767","Match","Non_Exact","5702 HORNER RD, PORT ALLEN, LA, 70767",92297697,"R"
734930,"5702 JONESBORO ROAD","KARNAK","IL",62956,37.2749656330001,-88.871826079,430,"5702 JONESBORO ROAD, KARNAK, IL, 62956","Match","Exact","5702 JONESBORO RD, KARNAK, IL, 62956",5899221,"R"
734931,"5702 LAKE WORTH ROAD SUITE 7","GREENACRES","FL",33463,26.6190682980001,-80.134520631,431,"5702 LAKE WORTH ROAD SUITE 7, GREENACRES, FL, 33463","Match","Exact","5702 LAKE WORTH RD, GREENACRES, FL, 33463",115533198,"L"
734932,"5702 MANOR RIDGE TRAIL","GREENSBORO","NC",27407,36.023280313,-79.912184477,432,"5702 MANOR RIDGE TRAIL, GREENSBORO, NC, 27407","Match","Exact","5702 MANOR RIDGE TRL, GREENSBORO, NC, 27407",131082767,"R"
734933,"5702 N 33RD STREET APT 25B","TACOMA","WA",98407,47.277865751,-122.511347192,433,"5702 N 33RD STREET APT 25B, TACOMA, WA, 98407","Match","Non_Exact","5702 N 33RD ST, TACOMA, WA, 98407",648351340,"L"
734934,"5702 NE PRESCOTT STREET NUMBER 11","PORTLAND","OR",97218,45.5554733810001,-122.604506758,434,"5702 NE PRESCOTT STREET NUMBER 11, PORTLAND, OR, 97218","Match","Non_Exact","5702 NE PRESCOTT ST, PORTLAND, OR, 97218",157511307,"R"
734935,"5702 NORMAN COURT","DISTRICT HEIGHTS","MD",20747,38.849576905,-76.9088198009999,435,"5702 NORMAN COURT, DISTRICT HEIGHTS, MD, 20747","Match","Exact","5702 NORMAN CT, DISTRICT HEIGHTS, MD, 20747",76314663,"L"
734936,"5702 RHODE ISLAND DR","WOODBRIDGE","VA",22913,38.6513173930001,-77.378072941,436,"5702 RHODE ISLAND DR, WOODBRIDGE, VA, 22913","Match","Non_Exact","5702 RHODE ISLAND DR, WOODBRIDGE, VA, 22193",76524883,"R"
734937,"5702 ROOSEVELT STREET","BETHESDA","MD",20817,38.994621914,-77.116476419,437,"5702 ROOSEVELT STREET, BETHESDA, MD, 20817","Match","Exact","5702 ROOSEVELT ST, BETHESDA, MD, 20817",62058424,"L"
734938,"5702 ROSARIO WAY","ANACORTES","WA",98221,48.4973012200001,-122.683017697,438,"5702 ROSARIO WAY, ANACORTES, WA, 98221","Match","Exact","5702 ROSARIO WAY, ANACORTES, WA, 98221",183646533,"R"
734939,"5702 RUTILE ST","RIVERSIDE","CA",92509,33.9843977370001,-117.4960912,439,"5702 RUTILE ST, RIVERSIDE, CA, 92509","Match","Exact","5702 RUTILE ST, RIVERSIDE, CA, 92509",194735671,"L"
734940,"5702 S CAMPBELL AVE","TUCSON","AZ",85706,32.1483705740001,-110.943452981,440,"5702 S CAMPBELL AVE, TUCSON, AZ, 85706","Match","Exact","5702 S CAMPBELL AVE, TUCSON, AZ, 85706",627387349,"R"
734941,"5702 S CAMPBELL","TUCSON","AZ",85706,32.1483705740001,-110.943452981,441,"5702 S CAMPBELL, TUCSON, AZ, 85706","Match","Non_Exact","5702 S CAMPBELL AVE, TUCSON, AZ, 85706",627387349,"R"
734942,"5702 S MULLEN AVE","LOS ANGELES","CA",90043,33.9906850080001,-118.338797576,442,"5702 S MULLEN AVE, LOS ANGELES, CA, 90043","Match","Exact","5702 S MULLEN AVE, LOS ANGELES, CA, 90043",142750315,"L"
734943,"5702 SAN SABA","MIDLAND","TX",79708,NA,NA,443,"5702 SAN SABA, MIDLAND, TX, 79708","No_Match",NA,NA,NA,NA
734944,"5702 SILVER SPUR STREET","BOISE","ID",83709,43.55124368,-116.279137054,444,"5702 SILVER SPUR STREET, BOISE, ID, 83709","Match","Non_Exact","5702 S SILVER SPUR ST, BOISE, ID, 83709",117895894,"L"
734945,"5702 SKY COUNTRY ST","SAN ANTONIO","TX",78247,29.583512301,-98.37581298,445,"5702 SKY COUNTRY ST, SAN ANTONIO, TX, 78247","Match","Exact","5702 SKY COUNTRY ST, SAN ANTONIO, TX, 78247",101501207,"R"
734946,"5702 SW 130 AVE","FORT LAUDERDALE","FL",33330,26.049853001,-80.321441769,446,"5702 SW 130 AVE, FORT LAUDERDALE, FL, 33330","Match","Exact","5702 SW 130TH AVE, FORT LAUDERDALE, FL, 33330",114762301,"L"
734947,"5702 TEAL COURT","ROWLETT","TX",75088,32.911807444,-96.5232118499999,447,"5702 TEAL COURT, ROWLETT, TX, 75088","Match","Exact","5702 TEAL CT, ROWLETT, TX, 75088",102980933,"L"
734948,"5702 TIMBERGATE DRIVE  APT 420","CORPUS CHRISTI","TX",78414,27.678098436,-97.3856344609999,448,"5702 TIMBERGATE DRIVE  APT 420, CORPUS CHRISTI, TX, 78414","Match","Exact","5702 TIMBERGATE DR, CORPUS CHRISTI, TX, 78414",635378861,"R"
734949,"5702 UPPER MUD RIVER RD","BRANCHLAND","WV",25506,38.175951765,-82.061174815,449,"5702 UPPER MUD RIVER RD, BRANCHLAND, WV, 25506","Match","Exact","5702 UPPER MUD RIVER RD, BRANCHLAND, WV, 25506",78740866,"R"
734950,"5702 VILLAGE PARK DRIVE","KATY","TX",77493,29.812193757,-95.8224299399999,450,"5702 VILLAGE PARK DRIVE, KATY, TX, 77493","Match","Exact","5702 VILLAGE PARK DR, KATY, TX, 77493",96012481,"L"
734951,"5702 W 111TH STREET","CHICAGO RIDGE","IL",60415,41.6905476200001,-87.7618886669999,451,"5702 W 111TH STREET, CHICAGO RIDGE, IL, 60415","Match","Exact","5702 111TH ST, CHICAGO RIDGE, IL, 60415",111813579,"R"
734952,"5702 W LAKE ROAD","AUBURN","NY",13021,42.859276171,-76.501186279,452,"5702 W LAKE ROAD, AUBURN, NY, 13021","Match","Non_Exact","5702 E LAKE RD, AUBURN, NY, 13021",33526816,"R"
734953,"5702 W RED MAPLE DRIVE","ROGERS","AR",72758,36.2703578900001,-94.1967745109999,453,"5702 W RED MAPLE DRIVE, ROGERS, AR, 72758","Match","Exact","5702 W RED MAPLE DR, ROGERS, AR, 72758",631897530,"L"
734954,"5702 WESSON ROAD","NEW PORT RICHEY","FL",34655,28.241568042,-82.666380364,454,"5702 WESSON ROAD, NEW PORT RICHEY, FL, 34655","Match","Exact","5702 WESSON RD, NEW PORT RICHEY, FL, 34655",86379747,"R"
734955,"5702 WEST VILLARD AVENUE","MILWAUKEE","WI",53218,43.112027336,-87.983838712,455,"5702 WEST VILLARD AVENUE, MILWAUKEE, WI, 53218","Match","Exact","5702 W VILLARD AVE, MILWAUKEE, WI, 53218",77726774,"R"
734956,"5702 WILDFLOWER RD","SEALY","TX",77474,29.788487466,-96.2312296649999,456,"5702 WILDFLOWER RD, SEALY, TX, 77474","Match","Non_Exact","5702 WILD FLOWER RD, SEALY, TX, 77474",41822271,"R"
734957,"5702 WINDING SPRING DRIVE","SPRING","TX",77379,30.0361636980001,-95.503078296,457,"5702 WINDING SPRING DRIVE, SPRING, TX, 77379","Match","Exact","5702 WINDING SPRING DR, SPRING, TX, 77379",96564845,"L"
734958,"57020 MEHLMAN RD","BELLAIRE","OH",43906,40.054078997,-80.755256112,458,"57020 MEHLMAN RD, BELLAIRE, OH, 43906","Match","Exact","57020 MEHLMAN RD, BELLAIRE, OH, 43906",647755230,"L"
734959,"57025 JOLON ROAD","KING CITY","CA",93930,36.097348191,-121.159308653,459,"57025 JOLON ROAD, KING CITY, CA, 93930","Match","Exact","57025 JOLON RD, KING CITY, CA, 93930",196859931,"R"
734960,"57026 LATGALE ROAD","THREE RIVERS","MI",49093,41.968567727,-85.74262257,460,"57026 LATGALE ROAD, THREE RIVERS, MI, 49093","Match","Exact","57026 LATGALE RD, THREE RIVERS, MI, 49093",15312112,"L"
734961,"570260 LATGALE ROAD","THREE RIVERS","MI",49093,NA,NA,461,"570260 LATGALE ROAD, THREE RIVERS, MI, 49093","No_Match",NA,NA,NA,NA
734962,"57027 NAVAJO TRAIL","YUCCA VALLEY","CA",92284,34.109629447,-116.420403743,462,"57027 NAVAJO TRAIL, YUCCA VALLEY, CA, 92284","Match","Exact","57027 NAVAJO TRL, YUCCA VALLEY, CA, 92284",144629256,"L"
734963,"5703  CARROLL LN UNIT B","ELKRIDGE","MD",21075,NA,NA,463,"5703  CARROLL LN UNIT B, ELKRIDGE, MD, 21075","No_Match",NA,NA,NA,NA
734964,"5703 237TH ST SW","MOUNTLAKE TERRACE","WA",98043,47.7839113460001,-122.309796369,464,"5703 237TH ST SW, MOUNTLAKE TERRACE, WA, 98043","Match","Exact","5703 237TH ST SW, MOUNTLAKE TERRACE, WA, 98043",187756804,"R"
734965,"5703 B LUMINOUS LN","KILLEEN","TX",76542,31.0641843550001,-97.7445993429999,465,"5703 B LUMINOUS LN, KILLEEN, TX, 76542","Match","Exact","5703 LUMINOUS LN, KILLEEN, TX, 76542",650172384,"L"
734966,"5703 BRENTWOOD MEADOWS CIR","BRENTWOOD","TN",37027,36.041929216,-86.747990199,466,"5703 BRENTWOOD MEADOWS CIR, BRENTWOOD, TN, 37027","Match","Exact","5703 BRENTWOOD MEADOWS CIR, BRENTWOOD, TN, 37027",647608842,"L"
734967,"5703 CALEDONIA COURT","FREDERICKSBURG","VA",22407,38.247235405,-77.533460643,467,"5703 CALEDONIA COURT, FREDERICKSBURG, VA, 22407","Match","Exact","5703 CALEDONIA CT, FREDERICKSBURG, VA, 22407",85018103,"R"
734968,"5703 CARROLL LANE UNIT B","ELKRIDGE","MD",21075,NA,NA,468,"5703 CARROLL LANE UNIT B, ELKRIDGE, MD, 21075","No_Match",NA,NA,NA,NA
734969,"5703 CEDARS EASTT CT    3","CHARLOTE","NC",28212,35.1855306950001,-80.7523268959999,469,"5703 CEDARS EASTT CT    3, CHARLOTE, NC, 28212","Match","Non_Exact","5703 CEDARS EAST CT, CHARLOTTE, NC, 28212",647269770,"L"
734970,"5703 COBALT LANE","KILLEEN","TX",76542,31.0548974210001,-97.69216149,470,"5703 COBALT LANE, KILLEEN, TX, 76542","Match","Exact","5703 COBALT LN, KILLEEN, TX, 76542",640634958,"L"
734971,"5703 DRY CREEK PASS","SAN ANTONIO","TX",78250,29.495692482,-98.661209847,471,"5703 DRY CREEK PASS, SAN ANTONIO, TX, 78250","Match","Exact","5703 DRY CREEK PASS, SAN ANTONIO, TX, 78250",101553799,"R"
734972,"5703 EDSALL ROAD","ALEXANDRIA","VA",22304,38.80769539,-77.130309154,472,"5703 EDSALL ROAD, ALEXANDRIA, VA, 22304","Match","Exact","5703 EDSALL RD, ALEXANDRIA, VA, 22304",638905644,"R"
734973,"5703 EMERALD LAKE DRIVE","MEDINA","OH",44256,41.110717166,-81.816105503,473,"5703 EMERALD LAKE DRIVE, MEDINA, OH, 44256","Match","Non_Exact","5703 EMERALD LAKES DR, MEDINA, OH, 44256",58692584,"R"
734974,"5703 EMIL AVE","AMARILLO","TX",79106,35.185847386,-101.900409456,474,"5703 EMIL AVE, AMARILLO, TX, 79106","Match","Exact","5703 EMIL AVE, AMARILLO, TX, 79106",182469026,"L"
734975,"5703 FALKIRK LANE","MATTHEWS","NC",28104,35.0550489030001,-80.6920716449999,475,"5703 FALKIRK LANE, MATTHEWS, NC, 28104","Match","Exact","5703 FALKIRK LN, MATTHEWS, NC, 28104",618497497,"L"
734976,"5703 FIR ST","LAKE CHARLES","LA",70605,30.1535346520001,-93.2576611169999,476,"5703 FIR ST, LAKE CHARLES, LA, 70605","Match","Exact","5703 FIR ST, LAKE CHARLES, LA, 70605",88454904,"L"
734977,"5703 GEYSER AVE","TARZANA","CA",91356,34.1746198380001,-118.542636119,477,"5703 GEYSER AVE, TARZANA, CA, 91356","Match","Exact","5703 GEYSER AVE, TARZANA, CA, 91356",141554771,"L"
734978,"5703 GLENWOOD AVE","BOARDMAN","OH",44512,41.0410051850001,-80.672288571,478,"5703 GLENWOOD AVE, BOARDMAN, OH, 44512","Match","Exact","5703 GLENWOOD AVE, BOARDMAN, OH, 44512",64598412,"L"
734979,"5703 GROVE FOREST RD","MIDLOTHIAN","VA",23112,37.4208322550001,-77.684912948,479,"5703 GROVE FOREST RD, MIDLOTHIAN, VA, 23112","Match","Exact","5703 GROVE FOREST RD, MIDLOTHIAN, VA, 23112",201563168,"R"
734980,"5703 HAMPSHIRE LANE","YPSILANTI","MI",48197,42.205769156,-83.690912516,480,"5703 HAMPSHIRE LANE, YPSILANTI, MI, 48197","Match","Exact","5703 HAMPSHIRE LN, YPSILANTI, MI, 48197",635875617,"R"
734981,"5703 HEDGECREST PLACE","CHARLOTTE","NC",28269,35.3176216850001,-80.7949156399999,481,"5703 HEDGECREST PLACE, CHARLOTTE, NC, 28269","Match","Exact","5703 HEDGECREST PL, CHARLOTTE, NC, 28269",70547709,"L"
734982,"5703 JACKSON STREET 127","ALEXANDRIA","LA",71303,NA,NA,482,"5703 JACKSON STREET 127, ALEXANDRIA, LA, 71303","No_Match",NA,NA,NA,NA
734983,"5703 KIRBY RD","CLINTON","MD",20753,38.783495859,-76.909748843,483,"5703 KIRBY RD, CLINTON, MD, 20753","Match","Non_Exact","5703 KIRBY RD, CLINTON, MD, 20735",76317147,"R"
734984,"5703 LAKEFRONT DR","SHREVEPORT","LA",71119,32.4905664770001,-93.836895633,484,"5703 LAKEFRONT DR, SHREVEPORT, LA, 71119","Match","Exact","5703 LAKEFRONT DR, SHREVEPORT, LA, 71119",57489466,"R"
734985,"5703 LAWSONS HILL CT","ALEXANDRIA","VA",22310,38.795001062,-77.084847161,485,"5703 LAWSONS HILL CT, ALEXANDRIA, VA, 22310","Match","Exact","5703 LAWSONS HILL CT, ALEXANDRIA, VA, 22310",75988895,"R"
734986,"5703 LEAK STREET APT-16","CHARLOTTE","NC",28208,NA,NA,486,"5703 LEAK STREET APT-16, CHARLOTTE, NC, 28208","No_Match",NA,NA,NA,NA
734987,"5703 MACKENZIE ST","CENTREVILLE","VA",20120,38.8596692670001,-77.473590874,487,"5703 MACKENZIE ST, CENTREVILLE, VA, 20120","Match","Exact","5703 MACKENZIE ST, CENTREVILLE, VA, 20120",75954910,"L"
734988,"5703 MACKENZIE","CENTREVILLE","VA",20120,38.8596692670001,-77.473590874,488,"5703 MACKENZIE, CENTREVILLE, VA, 20120","Match","Non_Exact","5703 MACKENZIE ST, CENTREVILLE, VA, 20120",75954910,"L"
734989,"5703 MCCARTHY CIR","AUSTIN","TX",78756,30.331471419,-97.735308232,489,"5703 MCCARTHY CIR, AUSTIN, TX, 78756","Match","Non_Exact","5703 MC CARTHY CIR, AUSTIN, TX, 78756",63931357,"R"
734990,"5703 MEDALIST","COLUMBUS","OH",43230,40.061350297,-82.866787874,490,"5703 MEDALIST, COLUMBUS, OH, 43230","Match","Exact","5703 MEDALIST, COLUMBUS, OH, 43230",636557458,"L"
734991,"5703 OBERLIN DRIVE STE 203","SAN DIEGO","CA",92121,32.892577526,-117.19516068,491,"5703 OBERLIN DRIVE STE 203, SAN DIEGO, CA, 92121","Match","Exact","5703 OBERLIN DR, SAN DIEGO, CA, 92121",195300732,"R"
734992,"5703 PARK RD","LAVACA","AR",72941,35.3457125630001,-94.2268355209999,492,"5703 PARK RD, LAVACA, AR, 72941","Match","Exact","5703 PARK RD, LAVACA, AR, 72941",56114743,"L"
734993,"5703 RANDON RD","HOUSTON","TX",77091,29.8492250950001,-95.464800988,493,"5703 RANDON RD, HOUSTON, TX, 77091","Match","Exact","5703 RANDON RD, HOUSTON, TX, 77091",96028075,"L"
734994,"5703 RED BUG LAKE RD 313","WINTER SPRINGS","FL",32708,28.647619267,-81.268888713,494,"5703 RED BUG LAKE RD 313, WINTER SPRINGS, FL, 32708","Match","Exact","5703 RED BUG LAKE RD, WINTER SPRINGS, FL, 32708",605413193,"L"
734995,"5703 RED BUG LAKE RD UNIT 175","WINTER SPRINGS","FL",32708,28.647619267,-81.268888713,495,"5703 RED BUG LAKE RD UNIT 175, WINTER SPRINGS, FL, 32708","Match","Exact","5703 RED BUG LAKE RD, WINTER SPRINGS, FL, 32708",605413193,"L"
734996,"5703 RED BUG LAKE ROAD","WINTER SPRINGS","FL",32708,28.647619267,-81.268888713,496,"5703 RED BUG LAKE ROAD, WINTER SPRINGS, FL, 32708","Match","Exact","5703 RED BUG LAKE RD, WINTER SPRINGS, FL, 32708",605413193,"L"
734997,"5703 RUTLAND CIRCLE","POWDER SPRINGS","GA",30127,33.818000904,-84.721615399,497,"5703 RUTLAND CIRCLE, POWDER SPRINGS, GA, 30127","Match","Non_Exact","5703 RUTLAND CIR SW, POWDER SPGS, GA, 30127",614186651,"R"
734998,"5703 S 159TH AVE","OMAHA","NE",68135,41.2011356560001,-96.162986814,498,"5703 S 159TH AVE, OMAHA, NE, 68135","Match","Exact","5703 S 159TH AVE, OMAHA, NE, 68135",640436594,"L"
734999,"5703 S FLETCHER ST","SEATTLE","WA",98118,47.5189761280001,-122.261590119,499,"5703 S FLETCHER ST, SEATTLE, WA, 98118","Match","Exact","5703 S FLETCHER ST, SEATTLE, WA, 98118",186606712,"R"
735000,"5703 SAN DELL WAY","RACINE","WI",53402,42.7952825620001,-87.807005481,500,"5703 SAN DELL WAY, RACINE, WI, 53402","Match","Non_Exact","5703 SAN-DELL WAY, RACINE, WI, 53402",77919349,"R"
