"ID","Address","City","State","Zip","lat","long","id","input_address","match_indicator","match_type","matched_address","tiger_line_id","tiger_side"
561501,"3715 HIGH GABLES EAST","CUMMING","GA",30041,34.2501806970001,-84.073637788,1,"3715 HIGH GABLES EAST, CUMMING, GA, 30041","Match","Exact","3715 HIGH GABLES E, CUMMING, GA, 30041",629823301,"R"
561502,"3715 HIRAM LITHIA SPRINGS ROAD","POWDER SPRINGS","GA",30127,33.864240603,-84.7202779,2,"3715 HIRAM LITHIA SPRINGS ROAD, POWDER SPRINGS, GA, 30127","Match","Exact","3715 HIRAM LITHIA SPRINGS RD, POWDER SPGS, GA, 30127",638609337,"L"
561503,"3715 IVY ST NE","SALEM","OR",97305,44.98728063,-122.986797589,3,"3715 IVY ST NE, SALEM, OR, 97305","Match","Exact","3715 IVY ST NE, SALEM, OR, 97305",156247300,"L"
561504,"3715 JACKMAN RD","TOLEDO","OH",43612,41.687588813,-83.584617849,4,"3715 JACKMAN RD, TOLEDO, OH, 43612","Match","Exact","3715 JACKMAN RD, TOLEDO, OH, 43612",33933649,"L"
561505,"3715 JAMISON STREET NE","WASHINGTON","DC",20018,38.9245862870001,-76.952135302,5,"3715 JAMISON STREET NE, WASHINGTON, DC, 20018","Match","Exact","3715 JAMISON ST NE, WASHINGTON, DC, 20018",649316692,"R"
561506,"3715 JEFFERSON COMMONS DR","TAMPA","FL",33613,28.0731684890001,-82.421578158,6,"3715 JEFFERSON COMMONS DR, TAMPA, FL, 33613","Match","Exact","3715 JEFFERSON COMMONS DR, TAMPA, FL, 33613",633395514,"R"
561507,"3715 KENDALL WOOD DRIVE","CARMEL","IN",46032,39.963740224,-86.223529451,7,"3715 KENDALL WOOD DRIVE, CARMEL, IN, 46032","Match","Exact","3715 KENDALL WOOD DR, CARMEL, IN, 46032",618468853,"L"
561508,"3715 MAIN STREET","HOMESTEAD","PA",15120,40.3843260960001,-79.903802851,8,"3715 MAIN STREET, HOMESTEAD, PA, 15120","Match","Exact","3715 MAIN ST, HOMESTEAD, PA, 15120",51655147,"L"
561509,"3715 MARKET ST","GLENDALE","CA",91208,34.2047084340001,-118.226798331,9,"3715 MARKET ST, GLENDALE, CA, 91208","Match","Exact","3715 MARKET ST, GLENDALE, CA, 91208",241239984,"L"
561510,"3715 MARTIN LUTHER KING AVENUE SE","WASHINGTON","DC",20032,NA,NA,10,"3715 MARTIN LUTHER KING AVENUE SE, WASHINGTON, DC, 20032","No_Match",NA,NA,NA,NA
561511,"3715 MCINTOSH AVENUE","CERES","CA",95307,37.5999472550001,-120.927175999,11,"3715 MCINTOSH AVENUE, CERES, CA, 95307","Match","Exact","3715 MCINTOSH AVE, CERES, CA, 95307",618034357,"L"
561512,"3715 MUNICIPAL DRIVE","MCHENRY","IL",60050,NA,NA,12,"3715 MUNICIPAL DRIVE, MCHENRY, IL, 60050","No_Match",NA,NA,NA,NA
561513,"3715 N 188TH AVE","LITCHFIELD PARK","AZ",85340,33.488632453,-112.462508857,13,"3715 N 188TH AVE, LITCHFIELD PARK, AZ, 85340","Match","Exact","3715 N 188TH AVE, LITCHFIELD PARK, AZ, 85340",243946473,"R"
561514,"3715 N VALDOSTA RD","VALDOSTA","GA",31602,30.8840506560001,-83.311868305,14,"3715 N VALDOSTA RD, VALDOSTA, GA, 31602","Match","Exact","3715 N VALDOSTA RD, VALDOSTA, GA, 31602",87737180,"L"
561515,"3715 NE 109TH AVE","PORTLAND","OR",97220,45.550171006,-122.550673563,15,"3715 NE 109TH AVE, PORTLAND, OR, 97220","Match","Exact","3715 NE 109TH AVE, PORTLAND, OR, 97220",157518311,"L"
561516,"3715 NORTH 2ND LANE","MILWAUKEE","WI",53206,43.084214009,-87.913053028,16,"3715 NORTH 2ND LANE, MILWAUKEE, WI, 53206","Match","Non_Exact","3715 N 2ND LN, MILWAUKEE, WI, 53212",77739021,"L"
561517,"3715 NORTH 2ND STREET","MILWAUKEE","WI",53212,43.084207586,-87.912128531,17,"3715 NORTH 2ND STREET, MILWAUKEE, WI, 53212","Match","Exact","3715 N 2ND ST, MILWAUKEE, WI, 53212",77739023,"L"
561518,"3715 NORTH BUSINESS DRIVE","FAYETTEVILLE","AR",72703,36.1182884150001,-94.130913614,18,"3715 NORTH BUSINESS DRIVE, FAYETTEVILLE, AR, 72703","Match","Exact","3715 N BUSINESS DR, FAYETTEVILLE, AR, 72703",49094645,"R"
561519,"3715 NORTHCREST RD SUITE 7","ATLANTA","GA",30340,33.8989619430001,-84.25103656,19,"3715 NORTHCREST RD SUITE 7, ATLANTA, GA, 30340","Match","Exact","3715 NORTHCREST RD, ATLANTA, GA, 30340",23407085,"R"
561520,"3715 NORTHSIDE PARKWAY SUITE 2-600","ATLANTA","GA",30327,33.855249809,-84.431342904,20,"3715 NORTHSIDE PARKWAY SUITE 2-600, ATLANTA, GA, 30327","Match","Non_Exact","3715 NORTHSIDE PKWY NW, ATLANTA, GA, 30327",618353372,"R"
561521,"3715 NORTHSIDE PKWY B 100 STE 500","ATLANTA","GA",30327,33.855249809,-84.431342904,21,"3715 NORTHSIDE PKWY B 100 STE 500, ATLANTA, GA, 30327","Match","Non_Exact","3715 NORTHSIDE PKWY NW, ATLANTA, GA, 30327",618353372,"R"
561522,"3715 NORTHSIDE PKWY BLDG 300 STE 20","ATLANTA","GA",30327,33.855249809,-84.431342904,22,"3715 NORTHSIDE PKWY BLDG 300 STE 20, ATLANTA, GA, 30327","Match","Non_Exact","3715 NORTHSIDE PKWY NW, ATLANTA, GA, 30327",618353372,"R"
561523,"3715 NORTHSIDE PKWY NW","ATLANTA","GA",30327,33.855249809,-84.431342904,23,"3715 NORTHSIDE PKWY NW, ATLANTA, GA, 30327","Match","Exact","3715 NORTHSIDE PKWY NW, ATLANTA, GA, 30327",618353372,"R"
561524,"3715 NORTHSIDE PKWY STE 1-320","ATLANTA","GA",30327,33.855249809,-84.431342904,24,"3715 NORTHSIDE PKWY STE 1-320, ATLANTA, GA, 30327","Match","Non_Exact","3715 NORTHSIDE PKWY NW, ATLANTA, GA, 30327",618353372,"R"
561525,"3715 NW 97TH BOULEVARD STE B","GAINESVILLE","FL",32606,NA,NA,25,"3715 NW 97TH BOULEVARD STE B, GAINESVILLE, FL, 32606","No_Match",NA,NA,NA,NA
561526,"3715 NW BARWICK DRIVE","KIDDER","MO",64649,39.713141251,-94.075352064,26,"3715 NW BARWICK DRIVE, KIDDER, MO, 64649","Match","Exact","3715 NW BARWICK DR, KIDDER, MO, 64649",17787133,"L"
561527,"3715 NW BROOKFIELD LN","PRINEVILLE","OR",97754,44.3316355580001,-120.879073402,27,"3715 NW BROOKFIELD LN, PRINEVILLE, OR, 97754","Match","Exact","3715 NW BROOKFIELD LN, PRINEVILLE, OR, 97754",152401746,"L"
561528,"3715 OAK LANE","ASHTABULA","OH",44004,41.8275212950001,-80.807859332,28,"3715 OAK LANE, ASHTABULA, OH, 44004","Match","Exact","3715 OAK LN, ASHTABULA, OH, 44004",117330963,"R"
561529,"3715 PICCADILLY STREET","HOLLYWOOD","FL",33021,26.03659392,-80.180640619,29,"3715 PICCADILLY STREET, HOLLYWOOD, FL, 33021","Match","Exact","3715 PICCADILLY ST, HOLLYWOOD, FL, 33021",114792383,"R"
561530,"3715 RAINBOW DRIVE APT 18 B","RAINBOW CITY","AL",35906,33.9512360420001,-86.0447262439999,30,"3715 RAINBOW DRIVE APT 18 B, RAINBOW CITY, AL, 35906","Match","Exact","3715 RAINBOW DR, RAINBOW CITY, AL, 35906",66769292,"R"
561531,"3715 ROBIN LANE","SAINT JOSEPH","MO",64506,39.801746146,-94.802821707,31,"3715 ROBIN LANE, SAINT JOSEPH, MO, 64506","Match","Exact","3715 ROBIN LN, SAINT JOSEPH, MO, 64506",15964896,"L"
561532,"3715 ROOSEVELT BLVD APT 9","MIDDLETOWN","OH",45044,39.4998728360001,-84.365993701,32,"3715 ROOSEVELT BLVD APT 9, MIDDLETOWN, OH, 45044","Match","Exact","3715 ROOSEVELT BLVD, MIDDLETOWN, OH, 45044",644029144,"L"
561533,"3715 S 56TH COURT","CICERO","IL",60804,41.8250566720001,-87.764406955,33,"3715 S 56TH COURT, CICERO, IL, 60804","Match","Exact","3715 56TH CT, CICERO, IL, 60804",111796863,"L"
561534,"3715 S HUDSON ST 104","SEATTLE","WA",98118,47.557034034,-122.285835509,34,"3715 S HUDSON ST 104, SEATTLE, WA, 98118","Match","Non_Exact","3715 S HUDSON ST, SEATTLE, WA, 98118",239763206,"R"
561535,"3715 S MCDOUGAL STREET","BLOOMINGTON","IN",47403,39.1255955170001,-86.553304767,35,"3715 S MCDOUGAL STREET, BLOOMINGTON, IN, 47403","Match","Exact","3715 S MCDOUGAL ST, BLOOMINGTON, IN, 47403",606909295,"L"
561536,"3715 SOUTH 1ST STREET - APT 466","AUSTIN","TX",78704,30.229299009,-97.7677198119999,36,"3715 SOUTH 1ST STREET - APT 466, AUSTIN, TX, 78704","Match","Exact","3715 S 1ST ST, AUSTIN, TX, 78704",63944334,"L"
561537,"3715 SOUTH 200 WEST","NIBLEY","UT",84321,41.665420382,-111.837932969,37,"3715 SOUTH 200 WEST, NIBLEY, UT, 84321","Match","Exact","3715 S 200 W, NIBLEY, UT, 84321",628886992,"R"
561538,"3715 SOUTH FIRST STREET 211","AUSTIN","TX",78704,30.229299009,-97.7677198119999,38,"3715 SOUTH FIRST STREET 211, AUSTIN, TX, 78704","Match","Exact","3715 S 1ST ST, AUSTIN, TX, 78704",63944334,"L"
561539,"3715 STEAM MILL ROAD","COLUMBUS","GA",31906,32.4573802130001,-84.934145773,39,"3715 STEAM MILL ROAD, COLUMBUS, GA, 31906","Match","Exact","3715 STEAM MILL RD, COLUMBUS, GA, 31906",98942745,"L"
561540,"3715 SUFFOLK STREET","DURHAM","NC",27707,35.954398763,-78.947427846,40,"3715 SUFFOLK STREET, DURHAM, NC, 27707","Match","Exact","3715 SUFFOLK ST, DURHAM, NC, 27707",71740044,"L"
561541,"3715 SUNSTONE DRIVE","HOUSTON","TX",77068,30.0079312390001,-95.4989299489999,41,"3715 SUNSTONE DRIVE, HOUSTON, TX, 77068","Match","Exact","3715 SUNSTONE DR, HOUSTON, TX, 77068",96007847,"R"
561542,"3715 SW 29TH ST STE 200","TOPEKA","KS",66614,39.014750142,-95.7233382749999,42,"3715 SW 29TH ST STE 200, TOPEKA, KS, 66614","Match","Non_Exact","3715 SW 29TH ST, TOPEKA, KS, 66614",17943343,"L"
561543,"3715 SW 29TH ST","TOPEKA","KS",66614,39.014750142,-95.7233382749999,43,"3715 SW 29TH ST, TOPEKA, KS, 66614","Match","Exact","3715 SW 29TH ST, TOPEKA, KS, 66614",17943343,"L"
561544,"3715 SW GILBERT PL","PENDLETON","OR",97801,NA,NA,44,"3715 SW GILBERT PL, PENDLETON, OR, 97801","No_Match",NA,NA,NA,NA
561545,"3715 TATE RD","COLLEGE PARK","GA",30349,33.5952720600001,-84.510116275,45,"3715 TATE RD, COLLEGE PARK, GA, 30349","Match","Non_Exact","3715 TATE RD SW, COLLEGE PARK, GA, 30349",17339009,"R"
561546,"3715 UNIVERSITY STREET","EUGENE","OR",97405,44.0161164190001,-123.073401022,46,"3715 UNIVERSITY STREET, EUGENE, OR, 97405","Match","Exact","3715 UNIVERSITY ST, EUGENE, OR, 97405",178175584,"L"
561547,"3715 US HWY 50","GLENBROOK","NV",89413,NA,NA,47,"3715 US HWY 50, GLENBROOK, NV, 89413","No_Match",NA,NA,NA,NA
561548,"3715 VALLEY OAKS DR","BRYAN","TX",77802,30.6472968470001,-96.3195428,48,"3715 VALLEY OAKS DR, BRYAN, TX, 77802","Match","Exact","3715 VALLEY OAKS DR, BRYAN, TX, 77802",21816432,"R"
561549,"3715 VANDERWOOD DR","MEMPHIS","TN",38128,35.227064522,-89.918147219,49,"3715 VANDERWOOD DR, MEMPHIS, TN, 38128","Match","Exact","3715 VANDERWOOD DR, MEMPHIS, TN, 38128",72899109,"L"
561550,"3715 VERANDA DRIVE","KATY","TX",77449,29.8246741310001,-95.722716982,50,"3715 VERANDA DRIVE, KATY, TX, 77449","Match","Exact","3715 VERANDA DR, KATY, TX, 77449",637108677,"R"
561551,"3715 VIKING DR","CHIPLEY","FL",32428,30.5670913700001,-85.5931727669999,51,"3715 VIKING DR, CHIPLEY, FL, 32428","Match","Exact","3715 VIKING DR, CHIPLEY, FL, 32428",642587543,"R"
561552,"3715 VILLAGE DRIVE","HAZEL CREST","IL",60429,41.5518632550001,-87.707851765,52,"3715 VILLAGE DRIVE, HAZEL CREST, IL, 60429","Match","Exact","3715 VILLAGE DR, HAZEL CREST, IL, 60429",112207207,"R"
561553,"3715 VILLAGE TRAIL","NASHVILLE","TN",37207,36.247695895,-86.771990214,53,"3715 VILLAGE TRAIL, NASHVILLE, TN, 37207","Match","Exact","3715 VILLAGE TRL, NASHVILLE, TN, 37207",97203424,"L"
561554,"3715 W 27TH ST","LOS ANGELES","CA",90018,34.0311683140001,-118.324536263,54,"3715 W 27TH ST, LOS ANGELES, CA, 90018","Match","Exact","3715 W 27TH ST, LOS ANGELES, CA, 90018",141602186,"R"
561555,"3715 W MILL ROAD","HATBORO","PA",19040,NA,NA,55,"3715 W MILL ROAD, HATBORO, PA, 19040","Tie",NA,NA,NA,NA
561556,"3715 W WASHINGTON STREET","SNOVER","MI",48472,43.4609651110001,-82.979375443,56,"3715 W WASHINGTON STREET, SNOVER, MI, 48472","Match","Exact","3715 WASHINGTON ST, SNOVER, MI, 48472",111051504,"R"
561557,"3715 W WISCONSIN AVE - 4","TAMPA","FL",33611,27.8820063270001,-82.504685178,57,"3715 W WISCONSIN AVE - 4, TAMPA, FL, 33611","Match","Non_Exact","3715 W WISCONSIN AVE, TAMPA, FL, 33611",104528821,"R"
561558,"3715 WARRENSVILLE 234","SHAKER HEIGHTS","OH",44122,NA,NA,58,"3715 WARRENSVILLE 234, SHAKER HEIGHTS, OH, 44122","No_Match",NA,NA,NA,NA
561559,"3715 WARRENSVILLE CENTER RD APT 512","CLEVELAND","OH",44122,41.4570789680001,-81.5361388109999,59,"3715 WARRENSVILLE CENTER RD APT 512, CLEVELAND, OH, 44122","Match","Exact","3715 WARRENSVILLE CENTER RD, CLEVELAND, OH, 44122",61160330,"L"
561560,"3715 WARRENSVILLE CTR ROAD APT 417","SHAKER HEIGHTS","OH",44122,41.4570789680001,-81.5361388109999,60,"3715 WARRENSVILLE CTR ROAD APT 417, SHAKER HEIGHTS, OH, 44122","Match","Exact","3715 WARRENSVILLE CENTER RD, SHAKER HEIGHTS, OH, 44122",61160330,"L"
561561,"3715 WARRENSVILLE CTR ROAD STE 610","SHAKER HEIGHTS","OH",44122,41.4570789680001,-81.5361388109999,61,"3715 WARRENSVILLE CTR ROAD STE 610, SHAKER HEIGHTS, OH, 44122","Match","Exact","3715 WARRENSVILLE CENTER RD, SHAKER HEIGHTS, OH, 44122",61160330,"L"
561562,"3715 WARRENSVILLE CTR ROAD","SHAKER HEIGHTS","OH",44122,41.4570789680001,-81.5361388109999,62,"3715 WARRENSVILLE CTR ROAD, SHAKER HEIGHTS, OH, 44122","Match","Exact","3715 WARRENSVILLE CENTER RD, SHAKER HEIGHTS, OH, 44122",61160330,"L"
561563,"3715 WEST SAINT KATERI DRIVE","PHOENIX","AZ",85041,33.385363711,-112.138804999,63,"3715 WEST SAINT KATERI DRIVE, PHOENIX, AZ, 85041","Match","Exact","3715 W SAINT KATERI DR, PHOENIX, AZ, 85041",619895109,"L"
561564,"3715 WEST SAINT KATERI DRIVE","PHOENIX, AZ","AZ",85041,33.385363711,-112.138804999,64,"3715 WEST SAINT KATERI DRIVE, PHOENIX, AZ, AZ, 85041","Match","Non_Exact","3715 W SAINT KATERI DR, PHOENIX, AZ, 85041",619895109,"L"
561565,"3715 WESTBROOK DRIVE","FLORENCE","SC",29501,34.192269235,-79.876498967,65,"3715 WESTBROOK DRIVE, FLORENCE, SC, 29501","Match","Exact","3715 WESTBROOK DR, FLORENCE, SC, 29501",28897641,"L"
561566,"3715 WHISPER CREEK BLVD","MIDDLEBRUG","FL",32068,NA,NA,66,"3715 WHISPER CREEK BLVD, MIDDLEBRUG, FL, 32068","No_Match",NA,NA,NA,NA
561567,"3715 WILLIAMS POINT DR","CUMMING","GA",30028,34.264960568,-84.197526242,67,"3715 WILLIAMS POINT DR, CUMMING, GA, 30028","Match","Exact","3715 WILLIAMS POINT DR, CUMMING, GA, 30028",646267322,"L"
561568,"3715 WILSON CREEK RD","BERKSHIRE","NY",34609,42.291806427,-76.1438567929999,68,"3715 WILSON CREEK RD, BERKSHIRE, NY, 34609","Match","Non_Exact","3715 WILSON CREEK RD, BERKSHIRE, NY, 13736",46716847,"L"
561569,"3715 WINDY HILL DR SE","CONYERS","GA",30013,33.5949232450001,-83.996397012,69,"3715 WINDY HILL DR SE, CONYERS, GA, 30013","Match","Exact","3715 WINDY HILL DR SE, CONYERS, GA, 30013",23747016,"L"
561570,"3715 WINFIELD COURT SW","ATLANTA","GA",30331,33.713291154,-84.5023387639999,70,"3715 WINFIELD COURT SW, ATLANTA, GA, 30331","Match","Exact","3715 WINFIELD CT SW, ATLANTA, GA, 30331",618354118,"L"
561571,"3715 WOODVILLE HWY","TALLAHASSEE","FL",32305,30.391437754,-84.277053689,71,"3715 WOODVILLE HWY, TALLAHASSEE, FL, 32305","Match","Exact","3715 WOODVILLE HWY, TALLAHASSEE, FL, 32305",82852360,"L"
561572,"3715 YOUREE DRIVE","SHREVEPORT","LA",71105,32.470318003,-93.722092257,72,"3715 YOUREE DRIVE, SHREVEPORT, LA, 71105","Match","Exact","3715 YOUREE DR, SHREVEPORT, LA, 71105",57489013,"R"
561573,"37150 WASHBURN AVE","BURNEY","CA",96013,40.8772668010001,-121.664096539,73,"37150 WASHBURN AVE, BURNEY, CA, 96013","Match","Exact","37150 WASHBURN AVE, BURNEY, CA, 96013",126610662,"R"
561574,"37153 S DESERT SKY LANE","TUCSON","AZ",85739,32.539443497,-110.858861573,74,"37153 S DESERT SKY LANE, TUCSON, AZ, 85739","Match","Exact","37153 S DESERT SKY LN, TUCSON, AZ, 85739",129372300,"R"
561575,"37155 MELROSE - 2","CATHEDRAL CITY","CA",92234,33.7786636920001,-116.46931035,75,"37155 MELROSE - 2, CATHEDRAL CITY, CA, 92234","Match","Non_Exact","37155 MELROSE DR, CATHEDRAL CITY, CA, 92234",194767201,"R"
561576,"37156 STATE HWY N","BARNARD","MO",64423,NA,NA,76,"37156 STATE HWY N, BARNARD, MO, 64423","No_Match",NA,NA,NA,NA
561577,"3716  53RD STREET","SACRAMENTO","CA",95820,38.5405180990001,-121.443955552,77,"3716  53RD STREET, SACRAMENTO, CA, 95820","Match","Exact","3716 53RD ST, SACRAMENTO, CA, 95820",133336136,"R"
561578,"3716  65TH ST  APT 2B","WOODSIDE","NY",11377,NA,NA,78,"3716  65TH ST  APT 2B, WOODSIDE, NY, 11377","No_Match",NA,NA,NA,NA
561579,"3716 38TH AVE NE","ESMOND","ND",58332,47.954364674,-99.7695746209999,79,"3716 38TH AVE NE, ESMOND, ND, 58332","Match","Exact","3716 38TH AVE N E, ESMOND, ND, 58332",181324417,"L"
561580,"3716 65TH STREET APT 4D","WOODSIDE","NY",11377,NA,NA,80,"3716 65TH STREET APT 4D, WOODSIDE, NY, 11377","No_Match",NA,NA,NA,NA
561581,"3716 65TH STREET","WOODSIDE","NY",11377,NA,NA,81,"3716 65TH STREET, WOODSIDE, NY, 11377","No_Match",NA,NA,NA,NA
561582,"3716 ALBERT RD","ERATH","LA",70533,29.9940696420001,-92.034110147,82,"3716 ALBERT RD, ERATH, LA, 70533","Match","Exact","3716 ALBERT RD, ERATH, LA, 70533",635741058,"L"
561583,"3716 ALE CIR","ATLANTA","GA",30344,33.654751059,-84.488916863,83,"3716 ALE CIR, ATLANTA, GA, 30344","Match","Exact","3716 ALE CIR, ATLANTA, GA, 30344",647331624,"L"
561584,"3716 AMI RD","KALAHEO","HI",96741,21.90817557,-159.515642969,84,"3716 AMI RD, KALAHEO, HI, 96741","Match","Exact","3716 AMI RD, KALAHEO, HI, 96741",203388735,"L"
561585,"3716 ARAPAHO PLACE","CARLSBAD","CA",92010,33.1537705280001,-117.290046249,85,"3716 ARAPAHO PLACE, CARLSBAD, CA, 92010","Match","Exact","3716 ARAPAHO PL, CARLSBAD, CA, 92010",641622944,"L"
561586,"3716 ARMINTO DRIVE","ELLENWOOD","GA",30294,33.6011614560001,-84.268478051,86,"3716 ARMINTO DRIVE, ELLENWOOD, GA, 30294","Match","Exact","3716 ARMINTO DR, ELLENWOOD, GA, 30294",630311297,"L"
561587,"3716 ARTHUR AVE","BROOKFIELD","IL",60513,41.823485556,-87.8525764949999,87,"3716 ARTHUR AVE, BROOKFIELD, IL, 60513","Match","Exact","3716 ARTHUR AVE, BROOKFIELD, IL, 60513",111792438,"R"
561588,"3716 AVENUE S","BROOKLYN","NY",11234,40.6103250890001,-73.9304389879999,88,"3716 AVENUE S, BROOKLYN, NY, 11234","Match","Exact","3716 AVENUE S, BROOKLYN, NY, 11234",59092469,"R"
561589,"3716 BARRINGTON RD","ROCKFORD","IL",61107,42.281302241,-89.0378285479999,89,"3716 BARRINGTON RD, ROCKFORD, IL, 61107","Match","Exact","3716 BARRINGTON RD, ROCKFORD, IL, 61107",49262073,"L"
561590,"3716 BAY OAKS PLACE","NORFOLK","VA",23518,36.935115216,-76.211258132,90,"3716 BAY OAKS PLACE, NORFOLK, VA, 23518","Match","Exact","3716 BAY OAKS PL, NORFOLK, VA, 23518",122153864,"L"
561591,"3716 BECKETS CROWN CT","MUSTANG","OK",73064,35.4274501880001,-97.7228021019999,91,"3716 BECKETS CROWN CT, MUSTANG, OK, 73064","Match","Exact","3716 BECKETS CROWN CT, MUSTANG, OK, 73064",648306693,"R"
561592,"3716 BIG SPRINGS ROAD","Decatur","GA",30034,33.6915799500001,-84.236588495,92,"3716 BIG SPRINGS ROAD, Decatur, GA, 30034","Match","Exact","3716 BIG SPRINGS RD, DECATUR, GA, 30034",23386674,"L"
561593,"3716 BIG SPRINGS ROAD","DECATUR","GA",30034,33.6915799500001,-84.236588495,93,"3716 BIG SPRINGS ROAD, DECATUR, GA, 30034","Match","Exact","3716 BIG SPRINGS RD, DECATUR, GA, 30034",23386674,"L"
561594,"3716 BONFIELD DRIVE","CINCINNATI","OH",45220,39.1508353850001,-84.503261636,94,"3716 BONFIELD DRIVE, CINCINNATI, OH, 45220","Match","Exact","3716 BONFIELD DR, CINCINNATI, OH, 45220",103925415,"R"
561595,"3716 BURR DR","EDINBURG","TX",78542,26.2619429760001,-98.1338933439999,95,"3716 BURR DR, EDINBURG, TX, 78542","Match","Exact","3716 BURR DR, EDINBURG, TX, 78542",607664630,"L"
561596,"3716 CALMER CIRCLE","EAST POINTE","GA",30334,33.654468224,-84.477453533,96,"3716 CALMER CIRCLE, EAST POINTE, GA, 30334","Match","Non_Exact","3716 CALMER CIR, EAST POINT, GA, 30344",17360696,"L"
561597,"3716 CEDAR COMMONS ROAD","RICHMOND","VA",23223,37.560323204,-77.361745442,97,"3716 CEDAR COMMONS ROAD, RICHMOND, VA, 23223","Match","Exact","3716 CEDAR COMMONS RD, RICHMOND, VA, 23223",639598763,"R"
561598,"3716 COLLEGE AVENUE","CLARKSTON","GA",30021,33.805841136,-84.23793082,98,"3716 COLLEGE AVENUE, CLARKSTON, GA, 30021","Match","Exact","3716 COLLEGE AVE, CLARKSTON, GA, 30021",23405496,"L"
561599,"3716 COLONIAL CT","ANTIOCH","CA",94509,37.9838870040001,-121.82676116,99,"3716 COLONIAL CT, ANTIOCH, CA, 94509","Match","Exact","3716 COLONIAL CT, ANTIOCH, CA, 94509",192038719,"R"
561600,"3716 DEER XING","MEMPHIS","TN",38115,35.0470180510001,-89.844158882,100,"3716 DEER XING, MEMPHIS, TN, 38115","Match","Exact","3716 DEER CROSSING, MEMPHIS, TN, 38115",72965261,"L"
561601,"3716 E 2653RD RD","SHERIDAN","IL",60551,41.471659297,-88.665033852,101,"3716 E 2653RD RD, SHERIDAN, IL, 60551","Match","Exact","3716 E 2653RD RD, SHERIDAN, IL, 60551",8607207,"R"
561602,"3716 E 82ND PLACE","TULSA","OK",74137,36.04367892,-95.9360449,102,"3716 E 82ND PLACE, TULSA, OK, 74137","Match","Exact","3716 E 82ND PL, TULSA, OK, 74137",166461045,"R"
561603,"3716 E BUTLER AVE","KINGMAN","AZ",86409,35.254583761,-113.986257303,103,"3716 E BUTLER AVE, KINGMAN, AZ, 86409","Match","Exact","3716 BUTLER AVE, KINGMAN, AZ, 86409",190289494,"R"
561604,"3716 E MAFFEO RD","PHOENIX","AZ",85050,33.6886715310001,-111.998668812,104,"3716 E MAFFEO RD, PHOENIX, AZ, 85050","Match","Exact","3716 E MAFFEO RD, PHOENIX, AZ, 85050",640949301,"L"
561605,"3716 E TRADITIONS COURT","HOUSTON","TX",77082,29.7139433930001,-95.661057955,105,"3716 E TRADITIONS COURT, HOUSTON, TX, 77082","Match","Exact","3716 E TRADITIONS CT, HOUSTON, TX, 77082",96296441,"L"
561606,"3716 E VETERANS MEMORIAL BLVD STE C","KILLEEN","TX",76541,NA,NA,106,"3716 E VETERANS MEMORIAL BLVD STE C, KILLEEN, TX, 76541","No_Match",NA,NA,NA,NA
561607,"3716 FARRAGUT RD APT 1A","BROOKLYN","NY",11234,40.6366945350001,-73.941076801,107,"3716 FARRAGUT RD APT 1A, BROOKLYN, NY, 11234","Match","Non_Exact","3716 FARRAGUT RD, BROOKLYN, NY, 11210",59082000,"R"
561608,"3716 FAY DRIVE","REX","GA",30273,33.587068824,-84.269456813,108,"3716 FAY DRIVE, REX, GA, 30273","Match","Exact","3716 FAY DR, REX, GA, 30273",23338667,"L"
561609,"3716 FLORES","LAREDO","TX",78041,27.5329714120001,-99.506258272,109,"3716 FLORES, LAREDO, TX, 78041","Match","Non_Exact","3716 FLORES AVE, LAREDO, TX, 78041",21670399,"L"
561610,"3716 GRAND OAK DR","NEWBERG","OR",97132,45.2994027620001,-122.942170125,110,"3716 GRAND OAK DR, NEWBERG, OR, 97132","Match","Exact","3716 GRAND OAK DR, NEWBERG, OR, 97132",633729142,"L"
561611,"3716 HARTLEY BRIDGE RD","MACON","GA",31216,32.7436864840001,-83.691934078,111,"3716 HARTLEY BRIDGE RD, MACON, GA, 31216","Match","Exact","3716 HARTLEY BRIDGE RD, MACON, GA, 31216",81066065,"L"
561612,"3716 HAVEN AVE","RACINE","WI",53405,42.72494347,-87.8239385529999,112,"3716 HAVEN AVE, RACINE, WI, 53405","Match","Exact","3716 HAVEN AVE, RACINE, WI, 53405",77909211,"R"
561613,"3716 HERON WAY","PALO ALTO","CA",94303,37.4290889230001,-122.106002817,113,"3716 HERON WAY, PALO ALTO, CA, 94303","Match","Exact","3716 HERON WAY, PALO ALTO, CA, 94303",625101387,"L"
561614,"3716 HIGHLAND DR","MILLCREEK","UT",84106,40.691257159,-111.84724004,114,"3716 HIGHLAND DR, MILLCREEK, UT, 84106","Match","Exact","3716 HIGHLAND DR, MILLCREEK, UT, 84106",641068611,"R"
561615,"3716 KAHLERT AVE","LOUISVILLE","KY",40216,38.190463519,-85.787343257,115,"3716 KAHLERT AVE, LOUISVILLE, KY, 40216","Match","Non_Exact","3716 KAHLERT AVE, LOUISVILLE, KY, 40215",96848109,"R"
561616,"3716 LAURETTA DRIVE","FORT WORTH","TX",76119,32.7082948410001,-97.241271017,116,"3716 LAURETTA DRIVE, FORT WORTH, TX, 76119","Match","Exact","3716 LAURETTA DR, FORT WORTH, TX, 76119",101899507,"R"
561617,"3716 LESLEY LANE","MANHATTAN","KS",66502,NA,NA,117,"3716 LESLEY LANE, MANHATTAN, KS, 66502","No_Match",NA,NA,NA,NA
561618,"3716 LINBROOK DRIVE","COLUMBIA","SC",29204,34.0450882530001,-80.983992046,118,"3716 LINBROOK DRIVE, COLUMBIA, SC, 29204","Match","Exact","3716 LINBROOK DR, COLUMBIA, SC, 29204",604766055,"L"
561619,"3716 LINVILLE GORGE WAY","CARY","NC",27519,35.773409649,-78.890605433,119,"3716 LINVILLE GORGE WAY, CARY, NC, 27519","Match","Exact","3716 LINVILLE GORGE WAY, CARY, NC, 27519",646841386,"R"
561620,"3716 LIVINGSTON ST NW","WASHINGTON","DC",20015,38.9630878350001,-77.0720346159999,120,"3716 LIVINGSTON ST NW, WASHINGTON, DC, 20015","Match","Exact","3716 LIVINGSTON ST NW, WASHINGTON, DC, 20015",76220329,"L"
561621,"3716 MADELINE WAY","RALEIGH","NC",27610,35.7303490200001,-78.5429182789999,121,"3716 MADELINE WAY, RALEIGH, NC, 27610","Match","Exact","3716 MADELINE WAY, RALEIGH, NC, 27610",641564917,"R"
561622,"3716 MARTELE DRIVE","MINT HILL","NC",28227,35.1790414870001,-80.7017447329999,122,"3716 MARTELE DRIVE, MINT HILL, NC, 28227","Match","Exact","3716 MARTELE DR, MINT HILL, NC, 28227",624111671,"R"
561623,"3716 MESA RIVER","WILLIAMSBURG","VA",23188,NA,NA,123,"3716 MESA RIVER, WILLIAMSBURG, VA, 23188","No_Match",NA,NA,NA,NA
561624,"3716 MILLBANK","THE COLONY","TX",75056,33.1096359480001,-96.909705118,124,"3716 MILLBANK, THE COLONY, TX, 75056","Match","Exact","3716 MILLBANK, THE COLONY, TX, 75056",647039238,"R"
561625,"3716 N 12TH STREET","PHOENIX","AZ",85014,33.490811433,-112.05634024,125,"3716 N 12TH STREET, PHOENIX, AZ, 85014","Match","Exact","3716 N 12TH ST, PHOENIX, AZ, 85014",128209054,"L"
561626,"3716 N 88TH STREET","MILWAUKEE","WI",53222,43.0852511960001,-88.0226172279999,126,"3716 N 88TH STREET, MILWAUKEE, WI, 53222","Match","Exact","3716 N 88TH ST, MILWAUKEE, WI, 53222",77728001,"R"
561627,"3716 N OAK POINT AVENUE","SPRINGFIELD","MO",65803,37.2642284890001,-93.2959104889999,127,"3716 N OAK POINT AVENUE, SPRINGFIELD, MO, 65803","Match","Exact","3716 N OAK POINT AVE, SPRINGFIELD, MO, 65803",605855110,"R"
561628,"3716 NORTH MADISON","TACOMA","WA",98407,47.2816724,-122.489881883,128,"3716 NORTH MADISON, TACOMA, WA, 98407","Match","Non_Exact","3716 N MADISON ST, TACOMA, WA, 98407",184644637,"L"
561629,"3716 NORTH NARCISSUS","BROKEN ARROW","OK",74012,36.088940673,-95.807429917,129,"3716 NORTH NARCISSUS, BROKEN ARROW, OK, 74012","Match","Non_Exact","3716 N NARCISSUS AVE, BROKEN ARROW, OK, 74012",166490559,"R"
561630,"3716 NORTH WOODLAWN AVENUE","METAIRIE","LA",70006,30.0093070670001,-90.184153528,130,"3716 NORTH WOODLAWN AVENUE, METAIRIE, LA, 70006","Match","Exact","3716 N WOODLAWN AVE, METAIRIE, LA, 70006",93497530,"L"
561631,"3716 PALOS VERDES WAY","S SAN FRANCISCO","CA",94080,37.6465634640001,-122.462443994,131,"3716 PALOS VERDES WAY, S SAN FRANCISCO, CA, 94080","Match","Exact","3716 PALOS VERDES WAY, S SAN FRAN, CA, 94080",192371326,"R"
561632,"3716 PAVILION DRIVE","MARTINEZ","GA",30907,33.5537157110001,-82.075872959,132,"3716 PAVILION DRIVE, MARTINEZ, GA, 30907","Match","Exact","3716 PAVILION DR, MARTINEZ, GA, 30907",629835454,"L"
561633,"3716 PICNIC POINT DR NW","GIG HARBOR","WA",98335,NA,NA,133,"3716 PICNIC POINT DR NW, GIG HARBOR, WA, 98335","No_Match",NA,NA,NA,NA
561634,"3716 ROCK BRIDGE DRIVE NE","CONOVER","NC",28613,NA,NA,134,"3716 ROCK BRIDGE DRIVE NE, CONOVER, NC, 28613","No_Match",NA,NA,NA,NA
561635,"3716 ROLLISTON ROAD","SHAKER HTS","OH",44120,41.459482774,-81.562503169,135,"3716 ROLLISTON ROAD, SHAKER HTS, OH, 44120","Match","Exact","3716 ROLLISTON RD, SHAKER HEIGHTS, OH, 44120",61127413,"R"
561636,"3716 S MARTIN LUTHER KING DR","CHICAGO","IL",60653,41.827070158,-87.617333166,136,"3716 S MARTIN LUTHER KING DR, CHICAGO, IL, 60653","Match","Exact","3716 S DR MARTIN LUTHER KING JR DR, CHICAGO, IL, 60653",111770476,"R"
561637,"3716 SCARBOROUGH","NEW HAVEN","IN",46774,41.053759375,-85.016249877,137,"3716 SCARBOROUGH, NEW HAVEN, IN, 46774","Match","Non_Exact","3716 SCARBOROUGH DR, NEW HAVEN, IN, 46774",606499384,"R"
561638,"3716 SE 68TH AVE","PORTLAND","OR",97206,45.4954455070001,-122.593222973,138,"3716 SE 68TH AVE, PORTLAND, OR, 97206","Match","Exact","3716 SE 68TH AVE, PORTLAND, OR, 97206",157516333,"L"
561639,"3716 SEQUOIA AVENUE","BALTIMORE","MD",21215,39.33128047,-76.67703144,139,"3716 SEQUOIA AVENUE, BALTIMORE, MD, 21215","Match","Exact","3716 SEQUOIA AVE, BALTIMORE, MD, 21215",206405587,"R"
561640,"3716 SHILOH RD","HAMPSTEAD","MD",21074,39.6021948310001,-76.863940649,140,"3716 SHILOH RD, HAMPSTEAD, MD, 21074","Match","Exact","3716 SHILOH RD, HAMPSTEAD, MD, 21074",653251052,"L"
561641,"3716 SOUTPORT DR","PLANO","TX",75025,NA,NA,141,"3716 SOUTPORT DR, PLANO, TX, 75025","No_Match",NA,NA,NA,NA
561642,"3716 ST ANDREWS PL","ELKHART","IN",46517,41.644913117,-85.9822757599999,142,"3716 ST ANDREWS PL, ELKHART, IN, 46517","Match","Exact","3716 SAINT ANDREWS PL, ELKHART, IN, 46517",7761714,"R"
561643,"3716 STRATHMORE LN SE","ROCHESTER","MN",55904,44.014734334,-92.4037859859999,143,"3716 STRATHMORE LN SE, ROCHESTER, MN, 55904","Match","Exact","3716 STRATHMORE LN SE, ROCHESTER, MN, 55904",30564399,"R"
561644,"3716 TENTH AVENUE APT 11G","NEW YORK","NY",10034,40.8595284730001,-73.922519213,144,"3716 TENTH AVENUE APT 11G, NEW YORK, NY, 10034","Match","Exact","3716 10TH AVE, NEW YORK, NY, 10034",610067341,"L"
561645,"3716 TORRENCE AVENUE","HAMMOND","IN",46327,41.6462515850001,-87.5141589309999,145,"3716 TORRENCE AVENUE, HAMMOND, IN, 46327","Match","Exact","3716 TORRENCE AVE, HAMMOND, IN, 46327",98416239,"R"
561646,"3716 VAUCLUSE DR  APT 98","EULESS","TX",76040,32.8168914870001,-97.0725377969999,146,"3716 VAUCLUSE DR  APT 98, EULESS, TX, 76040","Match","Exact","3716 VAUCLUSE DR, EULESS, TX, 76040",102110013,"L"
561647,"3716 WALKER CREEK ROAD","CENTRAL POINT","OR",97502,42.326135154,-122.967697611,147,"3716 WALKER CREEK ROAD, CENTRAL POINT, OR, 97502","Match","Exact","3716 WALKER CREEK RD, CENTRAL POINT, OR, 97502",155510822,"R"
561648,"3716 WEST DICKENS AVE","CHICAGO","IL",60647,41.9190810950001,-87.719802563,148,"3716 WEST DICKENS AVE, CHICAGO, IL, 60647","Match","Exact","3716 W DICKENS AVE, CHICAGO, IL, 60647",111758806,"R"
561649,"3716 WEST GARRISON AVENUE","BALTIMORE","MD",21215,39.3443203590001,-76.678575875,149,"3716 WEST GARRISON AVENUE, BALTIMORE, MD, 21215","Match","Exact","3716 W GARRISON AVE, BALTIMORE, MD, 21215",206405393,"R"
561650,"3716 WILLIAM WAY","SACRAMENTO","CA",95821,38.630880608,-121.377652963,150,"3716 WILLIAM WAY, SACRAMENTO, CA, 95821","Match","Exact","3716 WILLIAM WAY, SACRAMENTO, CA, 95821",133333075,"R"
561651,"3716 WOODBINE RD","SIOUX CITY","IA",51106,42.4424503060001,-96.333307586,151,"3716 WOODBINE RD, SIOUX CITY, IA, 51106","Match","Exact","3716 WOODBINE RD, SIOUX CITY, IA, 51106",93430966,"R"
561652,"37164 LORD BALTIMORE LANE","OCEAN VIEW","DE",19970,38.536972577,-75.100726386,152,"37164 LORD BALTIMORE LANE, OCEAN VIEW, DE, 19970","Match","Exact","37164 LORD BALTIMORE LN, OCEAN VIEW, DE, 19970",635466507,"R"
561653,"37165 GENERAL MAHONE BLVD","IVOR","VA",23866,36.892182613,-76.8711168249999,153,"37165 GENERAL MAHONE BLVD, IVOR, VA, 23866","Match","Exact","37165 GENERAL MAHONE BLVD, IVOR, VA, 23866",82723803,"R"
561654,"37165 MURRAY RD","PEARL RIVER","LA",70452,30.379709174,-89.782762272,154,"37165 MURRAY RD, PEARL RIVER, LA, 70452","Match","Exact","37165 MURRAY RD, PEARL RIVER, LA, 70452",111310557,"R"
561655,"37166 W HWY D","POLO","MO",64671,NA,NA,155,"37166 W HWY D, POLO, MO, 64671","No_Match",NA,NA,NA,NA
561656,"37168 LORD BALTIMORE LANE","OCEAN VIEW","DE",19970,38.536818263,-75.1008038259999,156,"37168 LORD BALTIMORE LANE, OCEAN VIEW, DE, 19970","Match","Exact","37168 LORD BALTIMORE LN, OCEAN VIEW, DE, 19970",635466507,"R"
561657,"37168 SEYMOUR LANE","PRAIRIE DU CHIEN","WI",53821,43.0292445270001,-91.123199093,157,"37168 SEYMOUR LANE, PRAIRIE DU CHIEN, WI, 53821","Match","Non_Exact","37168 SEYMOUR DR, PRAIRIE DU CHIEN, WI, 53821",648667812,"R"
561658,"3717 1/2 MILITARY AVE","LOS ANGELES","CA",90034,34.0163503960001,-118.415243676,158,"3717 1/2 MILITARY AVE, LOS ANGELES, CA, 90034","Match","Exact","3717 MILITARY AVE, LOS ANGELES, CA, 90034",141573887,"R"
561659,"3717 105TH","LUBBOCK","TX",79423,33.4992161540001,-101.895402062,159,"3717 105TH, LUBBOCK, TX, 79423","Match","Non_Exact","3717 105TH ST, LUBBOCK, TX, 79423",185274074,"L"
561660,"3717 166TH PL NE","ARLINGTON","WA",98223,NA,NA,160,"3717 166TH PL NE, ARLINGTON, WA, 98223","No_Match",NA,NA,NA,NA
561661,"3717 37TH AVE","GULFPORT","MS",39501,30.402796854,-89.1067845749999,161,"3717 37TH AVE, GULFPORT, MS, 39501","Match","Exact","3717 37TH AVE, GULFPORT, MS, 39501",111377344,"L"
561662,"3717 42ND AVE SOUTH","MINNEAPOLIS","MN",55406,44.935514276,-93.2127576839999,162,"3717 42ND AVE SOUTH, MINNEAPOLIS, MN, 55406","Match","Exact","3717 42ND AVE S, MINNEAPOLIS, MN, 55406",43640223,"L"
561663,"3717 ATRIUM DRIVE","PLANO","TX",75075,33.02898071,-96.764005223,163,"3717 ATRIUM DRIVE, PLANO, TX, 75075","Match","Exact","3717 ATRIUM DR, PLANO, TX, 75075",123486471,"L"
561664,"3717 BEACH DRIVE SW APT 119","SEATTLE","WA",98116,NA,NA,164,"3717 BEACH DRIVE SW APT 119, SEATTLE, WA, 98116","No_Match",NA,NA,NA,NA
561665,"3717 BEACH DRIVE SW APT 215","SEATTLE","WA",98116,NA,NA,165,"3717 BEACH DRIVE SW APT 215, SEATTLE, WA, 98116","No_Match",NA,NA,NA,NA
561666,"3717 BEAUX ST","CHARLOTTE","NC",28208,35.229572315,-80.901544631,166,"3717 BEAUX ST, CHARLOTTE, NC, 28208","Match","Exact","3717 BEAUX ST, CHARLOTTE, NC, 28208",70475679,"L"
561667,"3717 BELLE AVENUE","BALTIMORE","MD",21215,39.3335472480001,-76.676251679,167,"3717 BELLE AVENUE, BALTIMORE, MD, 21215","Match","Exact","3717 BELLE AVE, BALTIMORE, MD, 21215",206405649,"L"
561668,"3717 BELOTTE FERRY RD","LEBANON","TN",37087,36.3113342440001,-86.333050752,168,"3717 BELOTTE FERRY RD, LEBANON, TN, 37087","Match","Non_Exact","3717 BELOTES FERRY RD, LEBANON, TN, 37087",89698927,"R"
561669,"3717 BENSON DRIVE","RALEIGH","NC",27609,35.8336932030001,-78.619549493,169,"3717 BENSON DRIVE, RALEIGH, NC, 27609","Match","Exact","3717 BENSON DR, RALEIGH, NC, 27609",72595600,"L"
561670,"3717 BOSTON ST STE 367","BALTIMORE","MD",21224,39.277181366,-76.56323566,170,"3717 BOSTON ST STE 367, BALTIMORE, MD, 21224","Match","Exact","3717 BOSTON ST, BALTIMORE, MD, 21224",206439533,"R"
561671,"3717 BOSTON STREET NUM 345","BALTIMORE","MD",21224,39.277181366,-76.56323566,171,"3717 BOSTON STREET NUM 345, BALTIMORE, MD, 21224","Match","Exact","3717 BOSTON ST, BALTIMORE, MD, 21224",206439533,"R"
561672,"3717 BOSTON STREET","BALTIMORE","MD",21224,39.277181366,-76.56323566,172,"3717 BOSTON STREET, BALTIMORE, MD, 21224","Match","Exact","3717 BOSTON ST, BALTIMORE, MD, 21224",206439533,"R"
561673,"3717 BOWDEN CIR E","JACKSONVILLE","FL",32216,30.258644245,-81.580844462,173,"3717 BOWDEN CIR E, JACKSONVILLE, FL, 32216","Match","Exact","3717 BOWDEN CIR E, JACKSONVILLE, FL, 32216",83920116,"L"
561674,"3717 BURR LN","PORTSMOUTH","VA",23703,36.8646374050001,-76.371370935,174,"3717 BURR LN, PORTSMOUTH, VA, 23703","Match","Exact","3717 BURR LN, PORTSMOUTH, VA, 23703",122190636,"R"
561675,"3717 CAROL PARK ROAD","HOUSE SPRINGS","MO",63051,38.4381214650001,-90.5417674609999,175,"3717 CAROL PARK ROAD, HOUSE SPRINGS, MO, 63051","Match","Exact","3717 CAROL PARK RD, HOUSE SPRINGS, MO, 63051",62779200,"R"
561676,"3717 CAROLYN ROAD","FORT WORTH","TX",76109,32.6953110590001,-97.3681721949999,176,"3717 CAROLYN ROAD, FORT WORTH, TX, 76109","Match","Exact","3717 CAROLYN RD, FORT WORTH, TX, 76109",101886369,"L"
561677,"3717 CARTERS VALLEY RD","CHURCH HILL","TN",37642,36.552725384,-82.742930412,177,"3717 CARTERS VALLEY RD, CHURCH HILL, TN, 37642","Match","Exact","3717 CARTERS VALLEY RD, CHURCH HILL, TN, 37642",42398145,"R"
561678,"3717 CAYUGA LANE","YORK","PA",17402,39.967141381,-76.650370835,178,"3717 CAYUGA LANE, YORK, PA, 17402","Match","Exact","3717 CAYUGA LN, YORK, PA, 17402",88733917,"L"
561679,"3717 CHESAPEAKE WAY","EAST POINT","GA",30344,33.6535503310001,-84.4813915569999,179,"3717 CHESAPEAKE WAY, EAST POINT, GA, 30344","Match","Exact","3717 CHESAPEAKE WAY, EAST POINT, GA, 30344",17338715,"R"
561680,"3717 CLEARY WAY","ORLANDO","FL",32828,28.5048184030001,-81.142208809,180,"3717 CLEARY WAY, ORLANDO, FL, 32828","Match","Exact","3717 CLEARY WAY, ORLANDO, FL, 32828",94415481,"R"
561681,"3717 COVERED BRIDGE ROAD","THOMPSONS STATION","TN",37179,35.8040054520001,-86.865287762,181,"3717 COVERED BRIDGE ROAD, THOMPSONS STATION, TN, 37179","Match","Exact","3717 COVERED BRIDGE RD, THOMPSONS STATION, TN, 37179",625629690,"R"
561682,"3717 CR 12650","PARIS","TX",75462,33.5704276750001,-95.498019044,182,"3717 CR 12650, PARIS, TX, 75462","Match","Exact","3717 CO RD 12650, PARIS, TX, 75462",63579454,"R"
561683,"3717 CR 241 E","HENDERSON","TX",75652,32.2679157590001,-94.803000584,183,"3717 CR 241 E, HENDERSON, TX, 75652","Match","Non_Exact","3717 CO RD 241, HENDERSON, TX, 75652",79628880,"R"
561684,"3717 DANDRIDGE CIRCLE","MATTHEWS","NC",28105,35.1440503860001,-80.689579173,184,"3717 DANDRIDGE CIRCLE, MATTHEWS, NC, 28105","Match","Exact","3717 DANDRIDGE CIR, MATTHEWS, NC, 28105",70496624,"R"
561685,"3717 DELACHAISE ST","NEW ORLEANS","LA",70125,29.947590367,-90.100870254,185,"3717 DELACHAISE ST, NEW ORLEANS, LA, 70125","Match","Exact","3717 DELACHAISE ST, NEW ORLEANS, LA, 70125",191711397,"R"
561686,"3717 EAST BANKHEAD","WEATHERFORD","TX",76807,NA,NA,186,"3717 EAST BANKHEAD, WEATHERFORD, TX, 76807","No_Match",NA,NA,NA,NA
561687,"3717 EIGHT PENNY LANE","BOWIE","MD",20716,38.941682739,-76.72382364,187,"3717 EIGHT PENNY LANE, BOWIE, MD, 20716","Match","Exact","3717 EIGHT PENNY LN, BOWIE, MD, 20716",76348034,"R"
561688,"3717 FENELON STREET","SAN DIEGO","CA",92106,32.729139187,-117.238268738,188,"3717 FENELON STREET, SAN DIEGO, CA, 92106","Match","Exact","3717 FENELON ST, SAN DIEGO, CA, 92106",195340008,"L"
561689,"3717 GENERAL GOOKIN COURT","WILLIAMSBURG","VA",23185,37.24078523,-76.7928691769999,189,"3717 GENERAL GOOKIN COURT, WILLIAMSBURG, VA, 23185","Match","Exact","3717 GENERAL GOOKIN CT, WILLIAMSBURG, VA, 23185",103774642,"R"
561690,"3717 GEORGIA AVENUE  NW","WASHINGTON","DC",20010,38.936682343,-77.024342399,190,"3717 GEORGIA AVENUE  NW, WASHINGTON, DC, 20010","Match","Exact","3717 GEORGIA AVE NW, WASHINGTON, DC, 20010",76224065,"R"
561691,"3717 GUNSTON ROAD","ALEXANDRIA","VA",22302,38.8397509210001,-77.081102018,191,"3717 GUNSTON ROAD, ALEXANDRIA, VA, 22302","Match","Exact","3717 GUNSTON RD, ALEXANDRIA, VA, 22302",75987190,"R"
561692,"3717 INGOMAR STREET NW","WASHINGTON","DC",20015,38.958366174,-77.0723776519999,192,"3717 INGOMAR STREET NW, WASHINGTON, DC, 20015","Match","Exact","3717 INGOMAR ST NW, WASHINGTON, DC, 20015",76220322,"R"
561693,"3717 INVERNESS WAY","MARTINEZ","GA",30907,33.547937233,-82.070020158,193,"3717 INVERNESS WAY, MARTINEZ, GA, 30907","Match","Exact","3717 INVERNESS WAY, MARTINEZ, GA, 30907",55375122,"R"
561694,"3717 KINGSGATE DRIVE","HEPHZIBAH","GA",30815,33.3701741690001,-82.071083777,194,"3717 KINGSGATE DRIVE, HEPHZIBAH, GA, 30815","Match","Exact","3717 KINGSGATE DR, HEPHZIBAH, GA, 30815",632672865,"R"
561695,"3717 KINGSTON WAY","BENSALEM","PA",19020,40.1234352640001,-74.9677943299999,195,"3717 KINGSTON WAY, BENSALEM, PA, 19020","Match","Exact","3717 KINGSTON WAY, BENSALEM, PA, 19020",134714004,"R"
561696,"3717 KIRKSVILLE RD","LANCASTER","KY",40444,NA,NA,196,"3717 KIRKSVILLE RD, LANCASTER, KY, 40444","No_Match",NA,NA,NA,NA
561697,"3717 KRYSTLE CT","HILLSBOROUGH","NC",27278,36.112968751,-79.049633563,197,"3717 KRYSTLE CT, HILLSBOROUGH, NC, 27278","Match","Exact","3717 KRYSTLE CT, HILLSBOROUGH, NC, 27278",72412011,"R"
561698,"3717 LEE CT","LEAVENWORTH","KS",66048,39.2805219360001,-94.956921795,198,"3717 LEE CT, LEAVENWORTH, KS, 66048","Match","Exact","3717 LEE CT, LEAVENWORTH, KS, 66048",600577656,"R"
561699,"3717 MADRID DRIVE","FORT WORTH","TX",76133,32.645878458,-97.3735215309999,199,"3717 MADRID DRIVE, FORT WORTH, TX, 76133","Match","Exact","3717 MADRID DR, FORT WORTH, TX, 76133",101893695,"L"
561700,"3717 MCCONNELLSVILLE RD","BLOSSVALE","NY",13308,43.280884648,-75.650582855,200,"3717 MCCONNELLSVILLE RD, BLOSSVALE, NY, 13308","Match","Exact","3717 MCCONNELLSVILLE RD, BLOSSVALE, NY, 13308",171536660,"R"
561701,"3717 MORMON COULEE RD  APT 100","LA CROSSE","WI",19977,43.7780467330001,-91.222806616,201,"3717 MORMON COULEE RD  APT 100, LA CROSSE, WI, 19977","Match","Non_Exact","3717 MORMON COULEE RD, LA CROSSE, WI, 54601",616363746,"L"
561702,"3717 MORRISON ST NW","WASHINGTON","DC",20015,38.964006076,-77.0722497049999,202,"3717 MORRISON ST NW, WASHINGTON, DC, 20015","Match","Exact","3717 MORRISON ST NW, WASHINGTON, DC, 20015",76219176,"R"
561703,"3717 MT PINOS WAY A","FRAZIER PARK","CA",93225,34.8227019030001,-118.947661416,203,"3717 MT PINOS WAY A, FRAZIER PARK, CA, 93225","Match","Exact","3717 MOUNT PINOS WAY, FRAZIER PARK, CA, 93225",109099349,"L"
561704,"3717 N LANSING PLACE","TULSA","OK",74106,36.208270102,-95.9800055159999,204,"3717 N LANSING PLACE, TULSA, OK, 74106","Match","Exact","3717 N LANSING PL, TULSA, OK, 74106",166436062,"R"
561705,"3717 NE EASTLAKE DR","LAWTON","OK",73507,34.625012644,-98.3463245299999,205,"3717 NE EASTLAKE DR, LAWTON, OK, 73507","Match","Exact","3717 NE EASTLAKE DR, LAWTON, OK, 73507",616464573,"R"
561706,"3717 NEWROCK","SAN ANTONIO","TX",78230,29.5307989770001,-98.556304229,206,"3717 NEWROCK, SAN ANTONIO, TX, 78230","Match","Non_Exact","3717 NEWROCK DR, SAN ANTONIO, TX, 78230",101492895,"R"
561707,"3717 NORTH 67TH AVE","OMAHA","NE",68104,41.2932569860001,-96.016704566,207,"3717 NORTH 67TH AVE, OMAHA, NE, 68104","Match","Exact","3717 N 67TH AVE, OMAHA, NE, 68104",116975766,"R"
561708,"3717 NORTH HARTFORD AVENUE","TULSA","OK",74126,36.2081176890001,-95.984589141,208,"3717 NORTH HARTFORD AVENUE, TULSA, OK, 74126","Match","Non_Exact","3717 N HARTFORD AVE, TULSA, OK, 74106",166435997,"R"
561709,"3717 NORTH NASHCREEK CT","TUCSON","AZ",85745,32.2750280920001,-111.050717858,209,"3717 NORTH NASHCREEK CT, TUCSON, AZ, 85745","Match","Non_Exact","3717 N NASH CREEK CT, TUCSON, AZ, 85745",121237904,"R"
561710,"3717 ORCHARD AVE","BENSALEM","PA",19020,40.1414543230001,-74.948742087,210,"3717 ORCHARD AVE, BENSALEM, PA, 19020","Match","Exact","3717 ORCHARD AVE, BENSALEM, PA, 19020",134711490,"R"
561711,"3717 OSBORNE DRIVE","WARRENTON","VA",20187,38.7426665250001,-77.668561392,211,"3717 OSBORNE DRIVE, WARRENTON, VA, 20187","Match","Exact","3717 OSBORNE DR, WARRENTON, VA, 20187",615866573,"L"
561712,"3717 OTTO WAY","AUBURN","CA",95602,38.9880495670001,-121.080081562,212,"3717 OTTO WAY, AUBURN, CA, 95602","Match","Exact","3717 OTTO WAY, AUBURN, CA, 95602",106767072,"L"
561713,"3717 RUND DRIVE","ORLANDO","FL",32818,NA,NA,213,"3717 RUND DRIVE, ORLANDO, FL, 32818","No_Match",NA,NA,NA,NA
561714,"3717 RUNDO DRIVE","ORLANDO","FL",32818,28.592575546,-81.471548693,214,"3717 RUNDO DRIVE, ORLANDO, FL, 32818","Match","Exact","3717 RUNDO DR, ORLANDO, FL, 32818",94268838,"R"
561715,"3717 S LABREA AVE APT660","LOS ANGELES","CA",90016,34.0196769040001,-118.355588726,215,"3717 S LABREA AVE APT660, LOS ANGELES, CA, 90016","Match","Non_Exact","3717 S LA BREA AVE, LOS ANGELES, CA, 90016",141601428,"R"
561716,"3717 S STREET NW","WASHINGTON","DC",20007,38.914479096,-77.073073283,216,"3717 S STREET NW, WASHINGTON, DC, 20007","Match","Exact","3717 S ST NW, WASHINGTON, DC, 20007",76221050,"R"
561717,"3717 S TAFT HILL ROAD NUM 257","FORT COLLINS","CO",80526,40.5359139010001,-105.115140531,217,"3717 S TAFT HILL ROAD NUM 257, FORT COLLINS, CO, 80526","Match","Non_Exact","3717 S TAFT HILL RD, FORT COLLINS, CO, 80526",188493250,"R"
561718,"3717 SCHOFIELD AVE","WESTON","WI",54476,44.904793517,-89.5778255119999,218,"3717 SCHOFIELD AVE, WESTON, WI, 54476","Match","Exact","3717 SCHOFIELD AVE, WESTON, WI, 54476",117140465,"R"
561719,"3717 SEQUOIA AVE","BALTIMORE","MD",21215,39.3312702310001,-76.6770365089999,219,"3717 SEQUOIA AVE, BALTIMORE, MD, 21215","Match","Exact","3717 SEQUOIA AVE, BALTIMORE, MD, 21215",206405587,"L"
561720,"3717 SOMERSET","DETROIT","MI",48224,42.390322713,-82.941762352,220,"3717 SOMERSET, DETROIT, MI, 48224","Match","Exact","3717 SOMERSET, DETROIT, MI, 48224",95488881,"L"
561721,"3717 SOUTH  GALVEZ ST","NEW ORLEANS","LA",70125,29.9451705290001,-90.1007689259999,221,"3717 SOUTH  GALVEZ ST, NEW ORLEANS, LA, 70125","Match","Exact","3717 S GALVEZ ST, NEW ORLEANS, LA, 70125",191711485,"R"
561722,"3717 SOUTH LA BREA AVE APT 739","LOS ANGELES","CA",90016,34.019693053,-118.355588989,222,"3717 SOUTH LA BREA AVE APT 739, LOS ANGELES, CA, 90016","Match","Exact","3717 S LA BREA AVE, LOS ANGELES, CA, 90016",141601428,"R"
561723,"3717 SOUTH LABREA AVE APT131","LOS ANGELES","CA",90016,34.019693053,-118.355588989,223,"3717 SOUTH LABREA AVE APT131, LOS ANGELES, CA, 90016","Match","Non_Exact","3717 S LA BREA AVE, LOS ANGELES, CA, 90016",141601428,"R"
561724,"3717 TALL GRASS COURT","BALTIMORE","MD",21133,39.3754192260001,-76.80672344,224,"3717 TALL GRASS COURT, BALTIMORE, MD, 21133","Match","Non_Exact","3717 TALL GRASS CT, MCDONOGH RUN, MD, 21133",191505003,"L"
561725,"3717 TALLGATE TERRACE","FALLS CHURCH","VA",22041,38.843367291,-77.1473438369999,225,"3717 TALLGATE TERRACE, FALLS CHURCH, VA, 22041","Match","Non_Exact","3717 TOLLGATE TER, FALLS CHURCH, VA, 22041",75981689,"L"
561726,"3717 TEAL LN","JANESVILLE","WI",53563,42.7171698240001,-88.9716711519999,226,"3717 TEAL LN, JANESVILLE, WI, 53563","Match","Non_Exact","3717 TEAL LN, JANESVILLE, WI, 53546",49870838,"L"
561727,"3717 TELEGRAPH AVE","OAKLAND","CA",94609,37.825820304,-122.265457146,227,"3717 TELEGRAPH AVE, OAKLAND, CA, 94609","Match","Exact","3717 TELEGRAPH AVE, OAKLAND, CA, 94609",606071684,"L"
561728,"3717 THORNGROVE DRIVE","KINGSPORT","TN",37660,36.5936858690001,-82.4775273979999,228,"3717 THORNGROVE DRIVE, KINGSPORT, TN, 37660","Match","Exact","3717 THORNGROVE DR, KINGSPORT, TN, 37660",127835858,"R"
561729,"3717 THOROUGHBRED LN","OWINGS MILLS","MD",21117,39.4603228190001,-76.7786945079999,229,"3717 THOROUGHBRED LN, OWINGS MILLS, MD, 21117","Match","Exact","3717 THOROUGHBRED LN, OWINGS MILLS, MD, 21117",191562183,"L"
561730,"3717 TILLMAN ST NW","MASSILLON","OH",44646,40.7993347130001,-81.462194105,230,"3717 TILLMAN ST NW, MASSILLON, OH, 44646","Match","Exact","3717 TILLMAN ST NW, MASSILLON, OH, 44646",64673672,"R"
561731,"3717 TOLLGATE TERRACE","FALLS CHURCH","VA",22041,38.843367291,-77.1473438369999,231,"3717 TOLLGATE TERRACE, FALLS CHURCH, VA, 22041","Match","Exact","3717 TOLLGATE TER, FALLS CHURCH, VA, 22041",75981689,"L"
561732,"3717 TREE BARK TRAIL","DECATUR","GA",30034,33.7039578820001,-84.238186667,232,"3717 TREE BARK TRAIL, DECATUR, GA, 30034","Match","Exact","3717 TREE BARK TRL, DECATUR, GA, 30034",23371324,"R"
561733,"3717 TYNEMOORE TRACE SE","SMYRNA","GA",30080,33.8570343910001,-84.4894304869999,233,"3717 TYNEMOORE TRACE SE, SMYRNA, GA, 30080","Match","Exact","3717 TYNEMOORE TRCE SE, SMYRNA, GA, 30080",17229918,"L"
561734,"3717 VINCENT AVE S","MINNEAPOLIS","MN",55410,44.9348737460001,-93.316449806,234,"3717 VINCENT AVE S, MINNEAPOLIS, MN, 55410","Match","Exact","3717 VINCENT AVE S, MINNEAPOLIS, MN, 55410",43627812,"L"
561735,"3717 W JACKSONVILLE DRIVE","ANTHEM","AZ",85086,33.8561364440001,-112.139450545,235,"3717 W JACKSONVILLE DRIVE, ANTHEM, AZ, 85086","Match","Exact","3717 W JACKSONVILLE DR, ANTHEM, AZ, 85086",243990122,"R"
561736,"3717 W OWENS CT","STILLWATER","OK",74074,36.099341329,-97.106747062,236,"3717 W OWENS CT, STILLWATER, OK, 74074","Match","Exact","3717 W OWENS CT, STILLWATER, OK, 74074",166397152,"L"
561737,"3717 W STREET NW","WASHINGTON","DC",20007,38.9191762930001,-77.074267849,237,"3717 W STREET NW, WASHINGTON, DC, 20007","Match","Exact","3717 W ST NW, WASHINGTON, DC, 20007",76221014,"R"
561738,"3717 WARWICK ST","PASCAGOULA","MS",39581,30.371997655,-88.5164703519999,238,"3717 WARWICK ST, PASCAGOULA, MS, 39581","Match","Exact","3717 WARWICK ST, PASCAGOULA, MS, 39581",89269015,"L"
561739,"3717 WEST CUSTER DRIVE","BOISE","ID",83705,43.590583087,-116.227894191,239,"3717 WEST CUSTER DRIVE, BOISE, ID, 83705","Match","Non_Exact","3717 CUSTER DR, BOISE, ID, 83705",117863717,"L"
561740,"3717 WEST DIVISION","CHICAGO","IL",60651,41.902724327,-87.719739556,240,"3717 WEST DIVISION, CHICAGO, IL, 60651","Match","Non_Exact","3717 W DIVISION ST, CHICAGO, IL, 60651",605061761,"L"
561741,"3717 WEST WINSTON STREET","BROKEN ARROW","OK",74011,35.9851794580001,-95.834617184,241,"3717 WEST WINSTON STREET, BROKEN ARROW, OK, 74011","Match","Non_Exact","3717 S WINSTON ST, BROKEN ARROW, OK, 74011",650549565,"R"
561742,"3717 WILD OAK DR","PEARLAND","TX",77581,29.5364907210001,-95.2554972999999,242,"3717 WILD OAK DR, PEARLAND, TX, 77581","Match","Exact","3717 WILD OAK DR, PEARLAND, TX, 77581",614111255,"L"
561743,"3717 WINCHESTER RD","ROCKY MOUNT","NC",27804,35.9590135010001,-77.85367128,243,"3717 WINCHESTER RD, ROCKY MOUNT, NC, 27804","Match","Exact","3717 WINCHESTER RD, ROCKY MOUNT, NC, 27804",90382449,"L"
561744,"3717 WINDMILL HILL ST","WACO","TX",76710,31.564746327,-97.200591952,244,"3717 WINDMILL HILL ST, WACO, TX, 76710","Match","Exact","3717 WINDMILL HILL ST, WACO, TX, 76710",146770322,"L"
561745,"3717 WOOD PIGEON DRIVE","MESQUITE","TX",75181,32.7245680610001,-96.5327565169999,245,"3717 WOOD PIGEON DRIVE, MESQUITE, TX, 75181","Match","Non_Exact","3717 WOOD PIGEON, MESQUITE, TX, 75181",103178898,"R"
561746,"3717 WORTHINGTON RD","COLLEGEVILLE","PA",19426,40.1564034250001,-75.448677865,246,"3717 WORTHINGTON RD, COLLEGEVILLE, PA, 19426","Match","Exact","3717 WORTHINGTON RD, COLLEGEVILLE, PA, 19426",135068353,"R"
561747,"3717 WYNDALE CT","FORT WORTH","TX",76109,32.6870782280001,-97.374179168,247,"3717 WYNDALE CT, FORT WORTH, TX, 76109","Match","Exact","3717 WYNDALE CT, FORT WORTH, TX, 76109",101886517,"L"
561748,"3717","MATTHEWS","NC",28105,NA,NA,248,"3717, MATTHEWS, NC, 28105","No_Match",NA,NA,NA,NA
561749,"37171 SYCAMORE ST  APT 1035","NEWARK","CA",94560,NA,NA,249,"37171 SYCAMORE ST  APT 1035, NEWARK, CA, 94560","No_Match",NA,NA,NA,NA
561750,"37171 SYCAMORE ST APT 1334","NEWARK","CA",94560,NA,NA,250,"37171 SYCAMORE ST APT 1334, NEWARK, CA, 94560","No_Match",NA,NA,NA,NA
561751,"37174 MT HIGHWAY 87","LEWISTOWN","MT",59457,NA,NA,251,"37174 MT HIGHWAY 87, LEWISTOWN, MT, 59457","No_Match",NA,NA,NA,NA
561752,"37174 PARK PLACE AVE","GEISMER","LA",70734,NA,NA,252,"37174 PARK PLACE AVE, GEISMER, LA, 70734","No_Match",NA,NA,NA,NA
561753,"37176 MURPHY WEBB AVENUE","PRAIRIEVILLE","LA",70769,NA,NA,253,"37176 MURPHY WEBB AVENUE, PRAIRIEVILLE, LA, 70769","No_Match",NA,NA,NA,NA
561754,"37177 FREMONT BLVD SUITE 110","FREMONT","CA",94536,37.559411766,-122.009417583,254,"37177 FREMONT BLVD SUITE 110, FREMONT, CA, 94536","Match","Exact","37177 FREMONT BLVD, FREMONT, CA, 94536",125028077,"R"
561755,"37177 HIGHWAY 228","BROWNSVILLE","OR",97327,44.3733402400001,-122.908294607,255,"37177 HIGHWAY 228, BROWNSVILLE, OR, 97327","Match","Non_Exact","37177 STATE HWY 228, BROWNSVILLE, OR, 97327",156085928,"R"
561756,"37178 GRINDSTONE TRAIL","NEW HAVEN","MI",48048,42.725975266,-82.737918173,256,"37178 GRINDSTONE TRAIL, NEW HAVEN, MI, 48048","Match","Exact","37178 GRINDSTONE TRL, NEW HAVEN, MI, 48048",650659700,"L"
561757,"3718 1/2 DRAKE AVE","CINCINNATI","OH",45209,39.1451941030001,-84.4355811519999,257,"3718 1/2 DRAKE AVE, CINCINNATI, OH, 45209","Match","Exact","3718 DRAKE AVE, CINCINNATI, OH, 45209",103930988,"R"
561758,"3718 102ND AVE","GOBLES","MI",49055,42.4339459990001,-85.9083662259999,258,"3718 102ND AVE, GOBLES, MI, 49055","Match","Exact","3718 102ND AVE, GOBLES, MI, 49055",11427701,"R"
561759,"3718 10TH AVE S","MINNEAPOLIS","MN",55407,44.935522329,-93.2599932269999,259,"3718 10TH AVE S, MINNEAPOLIS, MN, 55407","Match","Exact","3718 10TH AVE S, MINNEAPOLIS, MN, 55407",43634772,"R"
561760,"3718 334TH ST","FEDERAL WAY","WA",98001,47.3026386450001,-122.286999183,260,"3718 334TH ST, FEDERAL WAY, WA, 98001","Match","Non_Exact","3718 S 334TH ST, FEDERAL WAY, WA, 98001",186681338,"L"
561761,"3718 76TH STREET 2FL","JACKSON HEIGHTS","NY",11372,NA,NA,261,"3718 76TH STREET 2FL, JACKSON HEIGHTS, NY, 11372","No_Match",NA,NA,NA,NA
561762,"3718 AVENUE","BROOKLYN","NY",11234,NA,NA,262,"3718 AVENUE, BROOKLYN, NY, 11234","Tie",NA,NA,NA,NA
561763,"3718 BELLWOOD DR NW","CANTON","OH",44708,40.825684403,-81.4159254039999,263,"3718 BELLWOOD DR NW, CANTON, OH, 44708","Match","Non_Exact","3718 BELLWOOD ST NW, CANTON, OH, 44708",64674617,"L"
561764,"3718 CALDWELL RIDGE PARKWAY","CHARLOTTE","NC",28213,35.2965571670001,-80.6893362389999,264,"3718 CALDWELL RIDGE PARKWAY, CHARLOTTE, NC, 28213","Match","Exact","3718 CALDWELL RIDGE PKWY, CHARLOTTE, NC, 28213",70582712,"R"
561765,"3718 CHESTNUT AVE","KANSAS CITY","MO",64128,39.058536673,-94.551115209,265,"3718 CHESTNUT AVE, KANSAS CITY, MO, 64128","Match","Exact","3718 CHESTNUT AVE, KANSAS CITY, MO, 64128",91452053,"R"
561766,"3718 COZY CT","MARION","SC",29571,34.203361541,-79.510354235,266,"3718 COZY CT, MARION, SC, 29571","Match","Exact","3718 COZY CT, MARION, SC, 29571",28783501,"R"
561767,"3718 CR 5500","LUBBOCK","TX",79415,33.7516772860001,-101.89523662,267,"3718 CR 5500, LUBBOCK, TX, 79415","Match","Exact","3718 CO RD 5500, LUBBOCK, TX, 79415",185332345,"L"
561768,"3718 CRESTWOOD CIRCLE","DANVILLE","IL",61832,40.189640384,-87.635772856,268,"3718 CRESTWOOD CIRCLE, DANVILLE, IL, 61832","Match","Non_Exact","3718 CRESTWOOD CIRCLE DR, DANVILLE, IL, 61832",66004410,"R"
561769,"3718 CUMBERLAND STREET NW","WASHINGTON","DC",20016,38.951412276,-77.0723590649999,269,"3718 CUMBERLAND STREET NW, WASHINGTON, DC, 20016","Match","Exact","3718 CUMBERLAND ST NW, WASHINGTON, DC, 20016",76220388,"L"
561770,"3718 DUNKIRK STREET","CINCINNATI","OH",45220,39.1516760860001,-84.505870237,270,"3718 DUNKIRK STREET, CINCINNATI, OH, 45220","Match","Exact","3718 DUNKIRK ST, CINCINNATI, OH, 45220",103924495,"R"
561771,"3718 E 5TH STREET","SUPERIOR","WA",54880,NA,NA,271,"3718 E 5TH STREET, SUPERIOR, WA, 54880","No_Match",NA,NA,NA,NA
561772,"3718 E ADOBE DR","PHOENIX","AZ",85050,33.6877113420001,-111.998300994,272,"3718 E ADOBE DR, PHOENIX, AZ, 85050","Match","Exact","3718 E ADOBE DR, PHOENIX, AZ, 85050",625222773,"R"
561773,"3718 E LOUISIANA STATE DR","KENNER","LA",70065,30.029157062,-90.263755206,273,"3718 E LOUISIANA STATE DR, KENNER, LA, 70065","Match","Exact","3718 E LOUISIANA STATE DR, KENNER, LA, 70065",93492547,"R"
561774,"3718 ELMHURST AVE","BRISTOL","PA",10030,40.104209139,-74.875050395,274,"3718 ELMHURST AVE, BRISTOL, PA, 10030","Match","Non_Exact","3718 ELMHURST AVE, BRISTOL, PA, 19007",134737013,"R"
561775,"3718 FOOTE STREET NW","WASHINGTON DC","DC",20019,38.899459016,-76.95222033,275,"3718 FOOTE STREET NW, WASHINGTON DC, DC, 20019","Match","Non_Exact","3718 FOOTE ST NE, WASHINGTON, DC, 20019",76232977,"L"
561776,"3718 GOUGH ST","BALTIMORE","MD",21224,39.2886875930001,-76.566367477,276,"3718 GOUGH ST, BALTIMORE, MD, 21224","Match","Exact","3718 GOUGH ST, BALTIMORE, MD, 21224",206426202,"L"
561777,"3718 HARRISON","INKSTER","MI",48141,42.282283023,-83.319319692,277,"3718 HARRISON, INKSTER, MI, 48141","Match","Non_Exact","3718 HARRISON ST, INKSTER, MI, 48141",95434587,"R"
561778,"3718 HERWOL AVE","WACO","TX",76710,31.532455005,-97.164421089,278,"3718 HERWOL AVE, WACO, TX, 76710","Match","Exact","3718 HERWOL AVE, WACO, TX, 76710",146744196,"L"
561779,"3718 HUNTERS POINT STREET","SAN ANTONIO","TX",78230,29.5590273830001,-98.556439016,279,"3718 HUNTERS POINT STREET, SAN ANTONIO, TX, 78230","Match","Exact","3718 HUNTERS PT ST, SAN ANTONIO, TX, 78230",101492128,"L"
561780,"3718 JACKSON LAKE DR","RICHMOND","TX",77406,29.646911409,-95.732489556,280,"3718 JACKSON LAKE DR, RICHMOND, TX, 77406","Match","Exact","3718 JACKSON LAKE DR, RICHMOND, TX, 77406",627033496,"L"
561781,"3718 KATHLEEN AVE","EVANSVILLE","IN",47714,37.9451825260001,-87.505452723,281,"3718 KATHLEEN AVE, EVANSVILLE, IN, 47714","Match","Exact","3718 KATHLEEN AVE, EVANSVILLE, IN, 47714",39787103,"L"
561782,"3718 KENMORE DRIVE","DURHAM","NC",27705,36.04223998,-78.9155858509999,282,"3718 KENMORE DRIVE, DURHAM, NC, 27705","Match","Non_Exact","3718 KENMORE RD, DURHAM, NC, 27705",71738652,"R"
561783,"3718 KERRY CIRCLE","SULPHUR","LA",70663,30.23128474,-93.332950542,283,"3718 KERRY CIRCLE, SULPHUR, LA, 70663","Match","Exact","3718 KERRY CIR, SULPHUR, LA, 70663",88454865,"L"
561784,"3718 KINGS HWY","BROOKLYN","NY",11234,40.6217232000001,-73.93862732,284,"3718 KINGS HWY, BROOKLYN, NY, 11234","Match","Exact","3718 KINGS HWY, BROOKLYN, NY, 11234",652205086,"R"
561785,"3718 LOCUST WALK SUITE 90","PHILADELPHIA","PA",19104,39.952317124,-75.197445181,285,"3718 LOCUST WALK SUITE 90, PHILADELPHIA, PA, 19104","Match","Exact","3718 LOCUST WALK, PHILADELPHIA, PA, 19104",131439100,"R"
561786,"3718 MANTON DR","LYNCHBURG","VA",24503,37.432234206,-79.197005495,286,"3718 MANTON DR, LYNCHBURG, VA, 24503","Match","Exact","3718 MANTON DR, LYNCHBURG, VA, 24503",62623384,"R"
561787,"3718 MINEOLA DRIVE","CHESTER","VA",23831,37.3723952190001,-77.440336477,287,"3718 MINEOLA DRIVE, CHESTER, VA, 23831","Match","Exact","3718 MINEOLA DR, CHESTER, VA, 23831",201580694,"L"
561788,"3718 MONACCO COURT","DISTRICT HEIGHTS","MD",20747,38.84360094,-76.9103075789999,288,"3718 MONACCO COURT, DISTRICT HEIGHTS, MD, 20747","Match","Exact","3718 MONACCO CT, DISTRICT HEIGHTS, MD, 20747",76341406,"R"
561789,"3718 N 101 ST","OMAHA","NE",68134,41.2921574420001,-96.071120792,289,"3718 N 101 ST, OMAHA, NE, 68134","Match","Exact","3718 N 101ST ST, OMAHA, NE, 68134",116969338,"L"
561790,"3718 N 8TH ST","TACOMA","WA",98406,47.2570447240001,-122.485462451,290,"3718 N 8TH ST, TACOMA, WA, 98406","Match","Non_Exact","3718 N 8TH ST, TACOMA, WA, 98406",184645521,"L"
561791,"3718 N 98TH ST","MILWAUKEE","WI",53222,43.0846347070001,-88.035450531,291,"3718 N 98TH ST, MILWAUKEE, WI, 53222","Match","Exact","3718 N 98TH ST, MILWAUKEE, WI, 53222",77727737,"R"
561792,"3718 N BROAD ST","PHILADELPHIA","PA",19140,NA,NA,292,"3718 N BROAD ST, PHILADELPHIA, PA, 19140","No_Match",NA,NA,NA,NA
561793,"3718 N PUEBLO WAY","SCOTTSDALE","AZ",85251,33.4913895550001,-111.935613536,293,"3718 N PUEBLO WAY, SCOTTSDALE, AZ, 85251","Match","Exact","3718 N PUEBLO WAY, SCOTTSDALE, AZ, 85251",128222651,"L"
561794,"3718 NAKOMA ROAD","MADISON","WI",53711,43.049735077,-89.4372728829999,294,"3718 NAKOMA ROAD, MADISON, WI, 53711","Match","Exact","3718 NAKOMA RD, MADISON, WI, 53711",49510235,"R"
561795,"3718 NAMDI STREET","ALBANY","GA",31721,31.4971633420001,-84.1610544649999,295,"3718 NAMDI STREET, ALBANY, GA, 31721","Match","Exact","3718 NAMDI ST, ALBANY, GA, 31721",84318190,"L"
561796,"3718 OLD HOPPER ROAD","CAPE GIRARDEAU","MO",63701,37.32011729,-89.579471016,296,"3718 OLD HOPPER ROAD, CAPE GIRARDEAU, MO, 63701","Match","Exact","3718 OLD HOPPER RD, CAPE GIRARDEAU, MO, 63701",606641820,"R"
561797,"3718 PLYLER MILL RD","MONROE","NC",28112,34.9046783900001,-80.578217684,297,"3718 PLYLER MILL RD, MONROE, NC, 28112","Match","Exact","3718 PLYLER MILL RD, MONROE, NC, 28112",642591495,"L"
561798,"3718 POWELL LANE","FALLS CHURCH","VA",22041,38.842732063,-77.141563285,298,"3718 POWELL LANE, FALLS CHURCH, VA, 22041","Match","Exact","3718 POWELL LN, FALLS CHURCH, VA, 22041",650126964,"L"
561799,"3718 PUEBLO WAY","SCOTTSDALE","AZ",85251,33.4913879440001,-111.935613536,299,"3718 PUEBLO WAY, SCOTTSDALE, AZ, 85251","Match","Non_Exact","3718 N PUEBLO WAY, SCOTTSDALE, AZ, 85251",128222651,"L"
561800,"3718 RAWSON RD","CORNING","CA",96021,39.9054479820001,-122.216117197,300,"3718 RAWSON RD, CORNING, CA, 96021","Match","Exact","3718 RAWSON RD, CORNING, CA, 96021",119378287,"R"
561801,"3718 RIDGEMONT STREET","BAKERSFIELD","CA",93311,35.3024211480001,-119.044294463,301,"3718 RIDGEMONT STREET, BAKERSFIELD, CA, 93311","Match","Non_Exact","3718 RIDGEMONT ST, BAKERSFIELD, CA, 93313",616478541,"R"
561802,"3718 RIDGEMONT STREET","BAKERSFIELD","CA",93313,35.3024211480001,-119.044294463,302,"3718 RIDGEMONT STREET, BAKERSFIELD, CA, 93313","Match","Exact","3718 RIDGEMONT ST, BAKERSFIELD, CA, 93313",616478541,"R"
561803,"3718 RIVERMIST DRIVE","RALEIGH","NC",27610,35.7409027160001,-78.588657967,303,"3718 RIVERMIST DRIVE, RALEIGH, NC, 27610","Match","Exact","3718 RIVERMIST DR, RALEIGH, NC, 27610",612824661,"R"
561804,"3718 ROCK HOUSE RD","SACHSE","TX",75048,32.9585770850001,-96.571466411,304,"3718 ROCK HOUSE RD, SACHSE, TX, 75048","Match","Exact","3718 ROCK HOUSE RD, SACHSE, TX, 75048",649828894,"R"
561805,"3718 S CADDIS PL","BOISE","ID",83716,43.5681575020001,-116.123058865,305,"3718 S CADDIS PL, BOISE, ID, 83716","Match","Exact","3718 S CADDIS PL, BOISE, ID, 83716",648980397,"L"
561806,"3718 SAINT CLAUDE AVENUE","NEW ORLEANS","LA",70117,29.9661549080001,-90.037879194,306,"3718 SAINT CLAUDE AVENUE, NEW ORLEANS, LA, 70117","Match","Exact","3718 SAINT CLAUDE AVE, NEW ORLEANS, LA, 70117",191717244,"R"
561807,"3718 SOUTH 12TH STREET","ARLINGTON","VA",22204,NA,NA,307,"3718 SOUTH 12TH STREET, ARLINGTON, VA, 22204","No_Match",NA,NA,NA,NA
561808,"3718 STEADMAN DRIVE","HUNTSVILLE","AL",35810,34.7835547880001,-86.618756076,308,"3718 STEADMAN DRIVE, HUNTSVILLE, AL, 35810","Match","Non_Exact","3718 STEADMAN DR NW, HUNTSVILLE, AL, 35810",58132719,"R"
561809,"3718 SUMMITT STREET","OMAHA","NE",68112,41.3228722530001,-95.968456953,309,"3718 SUMMITT STREET, OMAHA, NE, 68112","Match","Non_Exact","3718 SUMMIT ST, OMAHA, NE, 68112",636296079,"R"
561810,"3718 TRITON AVE","GILLETTE","WY",82718,44.260884107,-105.474250819,310,"3718 TRITON AVE, GILLETTE, WY, 82718","Match","Exact","3718 TRITON AVE, GILLETTE, WY, 82718",625693346,"R"
561811,"3718 WEST 42ND ST","CLEVELAND","OH",44109,41.453767865,-81.712651963,311,"3718 WEST 42ND ST, CLEVELAND, OH, 44109","Match","Exact","3718 W 42ND ST, CLEVELAND, OH, 44109",61146757,"R"
561812,"3718 WEST HILDA PLACE","MILWAUKEE","WI",53215,43.0206389940001,-87.960442429,312,"3718 WEST HILDA PLACE, MILWAUKEE, WI, 53215","Match","Exact","3718 W HILDA PL, MILWAUKEE, WI, 53215",77734727,"R"
561813,"3718 WHITE BUD CT","FLOWER MOUND","TX",75028,33.0353712150001,-97.0598649739999,313,"3718 WHITE BUD CT, FLOWER MOUND, TX, 75028","Match","Exact","3718 WHITE BUD CT, FLOWER MOUND, TX, 75028",103347959,"L"
561814,"3718 WHITE RIVER DR","DALLAS","TX",75287,33.0030180540001,-96.8498686519999,314,"3718 WHITE RIVER DR, DALLAS, TX, 75287","Match","Exact","3718 WHITE RIVER DR, DALLAS, TX, 75287",649933274,"R"
561815,"3718","MINNEAPOLIS","MN",55426,NA,NA,315,"3718, MINNEAPOLIS, MN, 55426","No_Match",NA,NA,NA,NA
561816,"37180 TREE FARM RD","SPRINGFIELD","OR",97478,44.130201184,-122.894987703,316,"37180 TREE FARM RD, SPRINGFIELD, OR, 97478","Match","Exact","37180 TREE FARM RD, SPRINGFIELD, OR, 97478",178133813,"L"
561817,"37182 COUNTY ROAD 20","COMFREY","MN",56019,44.136726579,-94.924754245,317,"37182 COUNTY ROAD 20, COMFREY, MN, 56019","Match","Exact","37182 CO RD 20, COMFREY, MN, 56019",28578155,"R"
561818,"37185 W COUNTY LINE RD","HILL CITY","MN",55748,47.0292590510001,-93.636644517,318,"37185 W COUNTY LINE RD, HILL CITY, MN, 55748","Match","Exact","37185 W COUNTY LINE RD, HILL CITY, MN, 55748",635591411,"R"
561819,"3719 216TH PL APT1","MATTESON","IL",60443,41.4966206190001,-87.706050959,319,"3719 216TH PL APT1, MATTESON, IL, 60443","Match","Exact","3719 216TH PL, MATTESON, IL, 60443",111708568,"L"
561820,"3719 23RD STREET","GREAT BEND","KS",67530,38.3747403140001,-98.789441142,320,"3719 23RD STREET, GREAT BEND, KS, 67530","Match","Exact","3719 23RD ST, GREAT BEND, KS, 67530",132558501,"R"
561821,"3719 ACORN PLACE","SELMA","TX",78154,29.576624339,-98.298495299,321,"3719 ACORN PLACE, SELMA, TX, 78154","Match","Exact","3719 ACORN PL, SELMA, TX, 78154",648075997,"R"
561822,"3719 AVERY PLACE","LOVELAND","CO",80538,40.4301321550001,-105.055943309,322,"3719 AVERY PLACE, LOVELAND, CO, 80538","Match","Exact","3719 AVERY PL, LOVELAND, CO, 80538",188550225,"R"
561823,"3719 BAMBERGER APT A","SAINT LOUIS","MO",63116,38.589858862,-90.249483916,323,"3719 BAMBERGER APT A, SAINT LOUIS, MO, 63116","Match","Non_Exact","3719 BAMBERGER AVE, SAINT LOUIS, MO, 63116",605133750,"R"
561824,"3719 BANGOR STREET SE","WASHINGTON","DC",20020,38.8617253460001,-76.953588801,324,"3719 BANGOR STREET SE, WASHINGTON, DC, 20020","Match","Exact","3719 BANGOR ST SE, WASHINGTON, DC, 20020",76232155,"R"
561825,"3719 BOWEN ROAD","TOLEDO","OH",43613,41.687496004,-83.6104669119999,325,"3719 BOWEN ROAD, TOLEDO, OH, 43613","Match","Exact","3719 BOWEN RD, TOLEDO, OH, 43613",33932585,"L"
561826,"3719 BOYCE FAIRVIEW ROAD","ALVATON","KY",42122,36.831367372,-86.3761652489999,326,"3719 BOYCE FAIRVIEW ROAD, ALVATON, KY, 42122","Match","Exact","3719 BOYCE FAIRVIEW RD, ALVATON, KY, 42122",625402118,"R"
561827,"3719 BRADFORD TERRACE","MANHATTAN","KS",66502,39.174527024,-96.618099779,327,"3719 BRADFORD TERRACE, MANHATTAN, KS, 66502","Match","Non_Exact","3719 BRADFORD TER, MANHATTAN, KS, 66503",27807844,"R"
561828,"3719 BRANDON ROAD","HUNTINGTON","WV",25704,38.4024802750001,-82.510305117,328,"3719 BRANDON ROAD, HUNTINGTON, WV, 25704","Match","Exact","3719 BRANDON RD, HUNTINGTON, WV, 25704",615199786,"L"
561829,"3719 BRENDENWOOD RD","ROCKFORD","IL",61107,42.2804379310001,-89.0380285689999,329,"3719 BRENDENWOOD RD, ROCKFORD, IL, 61107","Match","Exact","3719 BRENDENWOOD RD, ROCKFORD, IL, 61107",49262071,"R"
561830,"3719 CAMDEN AVENUE","PENNSAUKEN","NJ",8110,39.951207578,-75.074000784,330,"3719 CAMDEN AVENUE, PENNSAUKEN, NJ, 8110","Match","Exact","3719 CAMDEN AVE, PENNSAUKEN, NJ, 08110",134342863,"R"
561831,"3719 CLARENELL RD","BALTIMORE","MD",21229,39.264967868,-76.677735265,331,"3719 CLARENELL RD, BALTIMORE, MD, 21229","Match","Exact","3719 CLARENELL RD, BALTIMORE, MD, 21229",206415650,"L"
561832,"3719 COLLINGWOOD","MIDLAND","MI",48642,43.6309976250001,-84.1841684509999,332,"3719 COLLINGWOOD, MIDLAND, MI, 48642","Match","Non_Exact","3719 COLLINGWOOD CT, MIDLAND, MI, 48642",81199361,"R"
561833,"3719 COLONIAL HERITAGE DR","NASHVILLE","TN",37217,36.100379767,-86.607283702,333,"3719 COLONIAL HERITAGE DR, NASHVILLE, TN, 37217","Match","Exact","3719 COLONIAL HERITAGE DR, NASHVILLE, TN, 37217",606821446,"R"
561834,"3719 DAHLIA DR","GRAND PRAIRIE","TX",75052,32.6848332160001,-96.9876024009999,334,"3719 DAHLIA DR, GRAND PRAIRIE, TX, 75052","Match","Exact","3719 DAHLIA DR, GRAND PRAIRIE, TX, 75052",103000205,"L"
561835,"3719 DELICHISE STREET","NEW ORLEANS","LA",70125,29.947605459,-90.1008747339999,335,"3719 DELICHISE STREET, NEW ORLEANS, LA, 70125","Match","Non_Exact","3719 DELACHAISE ST, NEW ORLEANS, LA, 70125",191711397,"R"
561836,"3719 E 57TH STREET","CLEVELAND","OH",44105,41.4570959930001,-81.649803628,336,"3719 E 57TH STREET, CLEVELAND, OH, 44105","Match","Exact","3719 E 57TH ST, CLEVELAND, OH, 44105",61118076,"L"
561837,"3719 E 57TH STREET","CLEVELAND","OK",44105,NA,NA,337,"3719 E 57TH STREET, CLEVELAND, OK, 44105","No_Match",NA,NA,NA,NA
561838,"3719 E INVERNESS AVE APT 22","MESA","AZ",85206,NA,NA,338,"3719 E INVERNESS AVE APT 22, MESA, AZ, 85206","No_Match",NA,NA,NA,NA
561839,"3719 E INVERNESS AVE","MESA","AZ",85206,33.382484092,-111.752014661,339,"3719 E INVERNESS AVE, MESA, AZ, 85206","Match","Exact","3719 E INVERNESS AVE, MESA, AZ, 85206",243920024,"R"
561840,"3719 EASTMONT DR","SOUTH BEND","IN",46628,41.7266096560001,-86.270729696,340,"3719 EASTMONT DR, SOUTH BEND, IN, 46628","Match","Exact","3719 EASTMONT DR, SOUTH BEND, IN, 46628",8053414,"L"
561841,"3719 FEDERAL ROAD","CEDARVILLE","OH",45314,39.714477663,-83.7912900319999,341,"3719 FEDERAL ROAD, CEDARVILLE, OH, 45314","Match","Exact","3719 FEDERAL RD, CEDARVILLE, OH, 45314",143420055,"L"
561842,"3719 GLENWOOD ROAD","ROSWELL","NM",88201,33.4138399180001,-104.451710402,342,"3719 GLENWOOD ROAD, ROSWELL, NM, 88201","Match","Exact","3719 GLENWOOD RD, ROSWELL, NM, 88201",131813360,"R"
561843,"3719 GOLDENROD PL","JANESVILLE","WI",53546,42.708595792,-88.9719183989999,343,"3719 GOLDENROD PL, JANESVILLE, WI, 53546","Match","Exact","3719 GOLDENROD PL, JANESVILLE, WI, 53546",49864408,"L"
561844,"3719 HARGROVE RD EAST APT 723","TUSCALOOSA","AL",35405,33.1822807660001,-87.509802179,344,"3719 HARGROVE RD EAST APT 723, TUSCALOOSA, AL, 35405","Match","Non_Exact","3719 HARGROVE RD, TUSCALOOSA, AL, 35405",82150974,"R"
561845,"3719 HAYNES ROAD","BARTLETT","TN",38133,35.227112188,-89.8018325319999,345,"3719 HAYNES ROAD, BARTLETT, TN, 38133","Match","Exact","3719 HAYNES RD, BARTLETT, TN, 38133",72963909,"R"
561846,"3719 HUMMER RD","ANNANDALE","VA",22003,38.8430596690001,-77.205886467,346,"3719 HUMMER RD, ANNANDALE, VA, 22003","Match","Exact","3719 HUMMER RD, ANNANDALE, VA, 22003",75980013,"L"
561847,"3719 JAMESTOWN ROAD","HUNTSVILLE","AL",35810,34.7723450140001,-86.618827417,347,"3719 JAMESTOWN ROAD, HUNTSVILLE, AL, 35810","Match","Non_Exact","3719 JAMESTOWN RD NW, HUNTSVILLE, AL, 35810",639977554,"L"
561848,"3719 KELLY ROAD","BATH","NC",27808,35.4452530230001,-76.699699045,348,"3719 KELLY ROAD, BATH, NC, 27808","Match","Exact","3719 KELLY RD, BATH, NC, 27808",638089088,"R"
561849,"3719 KING AND QUEEN DR","RICHMOND","VA",23223,37.5738787920001,-77.381430821,349,"3719 KING AND QUEEN DR, RICHMOND, VA, 23223","Match","Exact","3719 KING AND QUEEN DR, RICHMOND, VA, 23223",106665916,"R"
561850,"3719 KNOLL DRIVE","NEWBERG","OR",97132,45.3273236900001,-122.968032439,350,"3719 KNOLL DRIVE, NEWBERG, OR, 97132","Match","Exact","3719 KNOLL DR, NEWBERG, OR, 97132",605763523,"L"
561851,"3719 LOCUST AVE","LOUISVILLE","KY",40299,38.191005536,-85.573769641,351,"3719 LOCUST AVE, LOUISVILLE, KY, 40299","Match","Exact","3719 LOCUST AVE, LOUISVILLE, KY, 40299",96866762,"R"
561852,"3719 MAPLE PASS CT","KATY","TX",77449,29.825777843,-95.714298534,352,"3719 MAPLE PASS CT, KATY, TX, 77449","Match","Exact","3719 MAPLE PASS CT, KATY, TX, 77449",96562757,"R"
561853,"3719 MEADOW SPRING DRIVE","SUGAR LAND","TX",77479,29.577790103,-95.621371782,353,"3719 MEADOW SPRING DRIVE, SUGAR LAND, TX, 77479","Match","Exact","3719 MEADOW SPRING DR, SUGAR LAND, TX, 77479",643675443,"L"
561854,"3719 MIMOSA AVE","MEMPHIS","TN",38111,35.1388720100001,-89.937356472,354,"3719 MIMOSA AVE, MEMPHIS, TN, 38111","Match","Exact","3719 MIMOSA AVE, MEMPHIS, TN, 38111",636695638,"R"
561855,"3719 N 12TH ST","PHOENIX","AZ",85014,33.490394103,-112.056329179,355,"3719 N 12TH ST, PHOENIX, AZ, 85014","Match","Exact","3719 N 12TH ST, PHOENIX, AZ, 85014",128209054,"R"
561856,"3719 N 28TH ST","TACOMA","WA",98407,47.272977075,-122.486787261,356,"3719 N 28TH ST, TACOMA, WA, 98407","Match","Exact","3719 N 28TH ST, TACOMA, WA, 98407",184644698,"R"
561857,"3719 N 52ND ST","MILWAUKEE","WI",53216,43.0848340110001,-87.978462942,357,"3719 N 52ND ST, MILWAUKEE, WI, 53216","Match","Exact","3719 N 52ND ST, MILWAUKEE, WI, 53216",77731387,"L"
561858,"3719 N LANSING AVE","TULSA","OK",74106,36.208439904,-95.981076516,358,"3719 N LANSING AVE, TULSA, OK, 74106","Match","Exact","3719 N LANSING AVE, TULSA, OK, 74106",166436013,"R"
561859,"3719 N PACIFIC BREEZE CIRCLE","LAUDERDALE LAKES","FL",33309,26.184441844,-80.199342701,359,"3719 N PACIFIC BREEZE CIRCLE, LAUDERDALE LAKES, FL, 33309","Match","Exact","3719 N PACIFIC BREEZE CIR, LAUDERDALE LAKES, FL, 33309",650738832,"R"
561860,"3719 N PEARL ST","KINGMAN","AZ",86409,35.2308559200001,-114.019092471,360,"3719 N PEARL ST, KINGMAN, AZ, 86409","Match","Exact","3719 N PEARL ST, KINGMAN, AZ, 86409",190313268,"L"
561861,"3719 NORTH 28TH STREET","TACOMA","WA",98407,47.2729764900001,-122.486709532,361,"3719 NORTH 28TH STREET, TACOMA, WA, 98407","Match","Exact","3719 N 28TH ST, TACOMA, WA, 98407",184644698,"R"
561862,"3719 NORTH PERSHING DRIVE","ARLINGTON","VA",22203,38.875510166,-77.1016354819999,362,"3719 NORTH PERSHING DRIVE, ARLINGTON, VA, 22203","Match","Exact","3719 N PERSHING DR, ARLINGTON, VA, 22203",652314734,"R"
561863,"3719 NORTH TROY STREET","CHICAGO","IL",60618,41.9488931060001,-87.7066507329999,363,"3719 NORTH TROY STREET, CHICAGO, IL, 60618","Match","Exact","3719 N TROY ST, CHICAGO, IL, 60618",111757195,"R"
561864,"3719 NW BEACHWOOD ST","ANKENY","IA",50023,41.7565695600001,-93.6300112,364,"3719 NW BEACHWOOD ST, ANKENY, IA, 50023","Match","Non_Exact","3719 NW BEECHWOOD ST, ANKENY, IA, 50023",650604540,"R"
561865,"3719 OHIO AVENUE APT 23","TAMPA","FL",33611,27.880062454,-82.504771083,365,"3719 OHIO AVENUE APT 23, TAMPA, FL, 33611","Match","Exact","3719 OHIO AVE, TAMPA, FL, 33611",104528826,"R"
561866,"3719 PARKHURST DRIVE","NOTTINGHAM","MD",21236,39.4116676080001,-76.488883475,366,"3719 PARKHURST DRIVE, NOTTINGHAM, MD, 21236","Match","Non_Exact","3719 PARKHURST WAY, NOTTINGHAM, MD, 21236",191479353,"L"
561867,"3719 PARKHURST WAY","NOTTINGHAM","MD",21236,39.4116676080001,-76.488883475,367,"3719 PARKHURST WAY, NOTTINGHAM, MD, 21236","Match","Exact","3719 PARKHURST WAY, NOTTINGHAM, MD, 21236",191479353,"L"
561868,"3719 PRINCE GEORGE","SAN ANTONIO","TX",78230,29.528093675,-98.554967147,368,"3719 PRINCE GEORGE, SAN ANTONIO, TX, 78230","Match","Non_Exact","3719 PRINCE GEORGE DR, SAN ANTONIO, TX, 78230",101492981,"R"
561869,"3719 RIVA RIDGE DR","HAMILTON","OH",45011,39.372229041,-84.495411767,369,"3719 RIVA RIDGE DR, HAMILTON, OH, 45011","Match","Exact","3719 RIVA RIDGE DR, HAMILTON, OH, 45011",113810927,"R"
561870,"3719 ROOSEVELT PLACE NE","WASHINGTON","DC",20019,38.8999513970001,-76.9515809059999,370,"3719 ROOSEVELT PLACE NE, WASHINGTON, DC, 20019","Match","Exact","3719 ROOSEVELT PL NE, WASHINGTON, DC, 20019",76237229,"R"
561871,"3719 S INDIANA 3N","CHICAGO","IL",60653,NA,NA,371,"3719 S INDIANA 3N, CHICAGO, IL, 60653","No_Match",NA,NA,NA,NA
561872,"3719 S INDIANA","CHICAGO","IL",60653,41.8267012150001,-87.621654817,372,"3719 S INDIANA, CHICAGO, IL, 60653","Match","Non_Exact","3719 S INDIANA AVE, CHICAGO, IL, 60653",111847036,"L"
561873,"3719 S MANITO BLVD","SPOKANE","WA",99203,47.6206706950001,-117.411134748,373,"3719 S MANITO BLVD, SPOKANE, WA, 99203","Match","Exact","3719 S MANITO BLVD, SPOKANE, WA, 99203",189877718,"L"
561874,"3719 SE 33RD PL APT 3","PORTLAND","OR",97202,45.4959521530001,-122.630470458,374,"3719 SE 33RD PL APT 3, PORTLAND, OR, 97202","Match","Non_Exact","3719 SE 33RD PL, PORTLAND, OR, 97202",157510112,"R"
561875,"3719 SOUTH ELM STREET","TEMPE","AZ",85282,33.388279832,-111.913588447,375,"3719 SOUTH ELM STREET, TEMPE, AZ, 85282","Match","Exact","3719 S ELM ST, TEMPE, AZ, 85282",128232254,"L"
561876,"3719 SPEARMAN DRIVE","HOOVER","AL",35216,33.390256467,-86.781913505,376,"3719 SPEARMAN DRIVE, HOOVER, AL, 35216","Match","Exact","3719 SPEARMAN DR, HOOVER, AL, 35216",81696709,"L"
561877,"3719 SPERRYVILLE PIKE","SPERRYVILLE","VA",22740,38.657007422,-78.225909507,377,"3719 SPERRYVILLE PIKE, SPERRYVILLE, VA, 22740","Match","Exact","3719 SPERRYVILLE PIKE, SPERRYVILLE, VA, 22740",647873128,"R"
561878,"3719 SPRING COULEE","BELLINGHAM","WA",98225,NA,NA,378,"3719 SPRING COULEE, BELLINGHAM, WA, 98225","No_Match",NA,NA,NA,NA
561879,"3719 SPRING VALLEY DRIVE","ALBANY","OH",45710,39.203741891,-82.238177316,379,"3719 SPRING VALLEY DRIVE, ALBANY, OH, 45710","Match","Non_Exact","3719 SPRING VALLEY RD, ALBANY, OH, 45710",37105660,"R"
561880,"3719 STONECREEK CIRCLE SW","CONYERS","GA",30094,33.6723458220001,-84.090267152,380,"3719 STONECREEK CIRCLE SW, CONYERS, GA, 30094","Match","Non_Exact","3719 STONECREEK CIR, CONYERS, GA, 30094",619378831,"R"
561881,"3719 W 12TH ST","ANACORTES","WA",98221,48.499493009,-122.649584876,381,"3719 W 12TH ST, ANACORTES, WA, 98221","Match","Exact","3719 W 12TH ST, ANACORTES, WA, 98221",183672650,"L"
561882,"3719 W CENTER STREET","MILWAWKEE","WI",53210,43.0678940870001,-87.960083674,382,"3719 W CENTER STREET, MILWAWKEE, WI, 53210","Match","Non_Exact","3719 W CENTER ST, MILWAUKEE, WI, 53210",77738001,"L"
561883,"3719 WILD CHERRY LANE","WILMINGTON","DE",19808,39.7354128150001,-75.6415646,383,"3719 WILD CHERRY LANE, WILMINGTON, DE, 19808","Match","Exact","3719 WILD CHERRY LN, WILMINGTON, DE, 19808",187271927,"R"
561884,"3719 WOOD RAIL DR","PLANO","TX",75074,33.050592162,-96.6582552089999,384,"3719 WOOD RAIL DR, PLANO, TX, 75074","Match","Exact","3719 WOOD RAIL DR, PLANO, TX, 75074",123495926,"L"
561885,"37192 AMATEUR WAY","BEAUMONT","CA",92223,33.948414358,-117.01686617,385,"37192 AMATEUR WAY, BEAUMONT, CA, 92223","Match","Exact","37192 AMATEUR WAY, BEAUMONT, CA, 92223",640892074,"R"
561886,"37195 CORVETTE DR","PRAIRIEVILLE","LA",70769,30.3199191960001,-90.983695677,386,"37195 CORVETTE DR, PRAIRIEVILLE, LA, 70769","Match","Exact","37195 CORVETTE DR, PRAIRIEVILLE, LA, 70769",646628949,"L"
561887,"37195 MARCIEL AVE","MADERA","CA",93636,36.9330010480001,-119.872860601,387,"37195 MARCIEL AVE, MADERA, CA, 93636","Match","Exact","37195 MARCIEL AVE, MADERA, CA, 93636",102352650,"R"
561888,"37199 CITY PARK AVENUE","GEISMAR","LA",70734,30.2468421230001,-90.981370372,388,"37199 CITY PARK AVENUE, GEISMAR, LA, 70734","Match","Exact","37199 CITY PARK AVE, GEISMAR, LA, 70734",635178210,"L"
561889,"37199 N TWIN OAKS DRIVE","LAKE VILLA","IL",60046,42.4032987040001,-87.9981309779999,389,"37199 N TWIN OAKS DRIVE, LAKE VILLA, IL, 60046","Match","Exact","37199 N TWIN OAKS DR, LAKE VILLA, IL, 60046",119740162,"R"
561890,"371A DEPOT ST","SOUTH EASTON","MA",2375,42.0352580370001,-71.100233101,390,"371A DEPOT ST, SOUTH EASTON, MA, 2375","Match","Exact","371 DEPOT ST, SOUTH EASTON, MA, 02375",649754230,"R"
561891,"372 1/2 CENTER GRANGE ROAD","MONACA","PA",15061,40.6537427800001,-80.2913637729999,391,"372 1/2 CENTER GRANGE ROAD, MONACA, PA, 15061","Match","Exact","372 CENTER GRANGE RD, MONACA, PA, 15061",52562605,"R"
561892,"372 16TH ST NW","ATLANTA","GA",30363,33.7899940840001,-84.3978469689999,392,"372 16TH ST NW, ATLANTA, GA, 30363","Match","Exact","372 16TH ST NW, ATLANTA, GA, 30363",618354194,"L"
561893,"372 230TH ST","GARLAND","KS",66741,37.7138203870001,-94.6858713779999,393,"372 230TH ST, GARLAND, KS, 66741","Match","Exact","372 230TH ST, GARLAND, KS, 66741",27488509,"L"
561894,"372 3RD STREET","KEWASKUM","WI",53040,43.5236000030001,-88.223728087,394,"372 3RD STREET, KEWASKUM, WI, 53040","Match","Exact","372 THIRD ST, KEWASKUM, WI, 53040",79554168,"L"
561895,"372 5TH AVE","NEW YORK","NY",NA,40.749156445,-73.984045265,395,"372 5TH AVE, NEW YORK, NY, ","Match","Exact","372 5TH AVE, NEW YORK, NY, 10018",59654379,"L"
561896,"372 7TH AVE STE 100","SAN FRANCISCO","CA",94118,37.7816017590001,-122.465389416,396,"372 7TH AVE STE 100, SAN FRANCISCO, CA, 94118","Match","Exact","372 7TH AVE, SAN FRANCISCO, CA, 94118",192281806,"L"
561897,"372 ABBOTT RUN VALLEY ROAD","CUMBERLAND","RI",2864,41.9797566920001,-71.4036030999999,397,"372 ABBOTT RUN VALLEY ROAD, CUMBERLAND, RI, 2864","Match","Exact","372 ABBOTT RUN VALLEY RD, CUMBERLAND, RI, 02864",47510450,"L"
561898,"372 ALLEN WAY","BENICIA","CA",94310,38.0766861220001,-122.152038077,398,"372 ALLEN WAY, BENICIA, CA, 94310","Match","Non_Exact","372 ALLEN WAY, BENICIA, CA, 94510",192555800,"R"
561899,"372 ASHFORD CIRCLE UNIT 2","BARTLETT","IL",60103,41.9448956580001,-88.1704089579999,399,"372 ASHFORD CIRCLE UNIT 2, BARTLETT, IL, 60103","Match","Exact","372 ASHFORD CIR, BARTLETT, IL, 60103",112576873,"R"
561900,"372 BAYVIEW CIRCLE","SAN FRANCISCO","CA",94124,37.7335832480001,-122.396826709,400,"372 BAYVIEW CIRCLE, SAN FRANCISCO, CA, 94124","Match","Exact","372 BAYVIEW CIR, SAN FRANCISCO, CA, 94124",192289386,"L"
561901,"372 BEECH ST APT 302","MANCHESTER","NH",3103,42.9858179720001,-71.4554211999999,401,"372 BEECH ST APT 302, MANCHESTER, NH, 3103","Match","Exact","372 BEECH ST, MANCHESTER, NH, 03103",113579645,"L"
561902,"372 BELLE POINT DRIVE","ST PETE BEACH","FL",33706,27.714691633,-82.730352232,402,"372 BELLE POINT DRIVE, ST PETE BEACH, FL, 33706","Match","Exact","372 BELLE POINT DR, SAINT PETE BEACH, FL, 33706",124708733,"L"
561903,"372 BELLE POINT DRIVE","ST. PETE BEACH","FL",33706,27.714691633,-82.730352232,403,"372 BELLE POINT DRIVE, ST. PETE BEACH, FL, 33706","Match","Exact","372 BELLE POINT DR, SAINT PETE BEACH, FL, 33706",124708733,"L"
561904,"372 BIRDIE CT","ALAMOGORDO","NM",88310,32.8544239780001,-105.958082084,404,"372 BIRDIE CT, ALAMOGORDO, NM, 88310","Match","Exact","372 BIRDIE CT, ALAMOGORDO, NM, 88310",132338105,"L"
561905,"372 BLACK LOCUST CIRCLE","BLOWING ROCK","NC",28605,36.1568910170001,-81.640099334,405,"372 BLACK LOCUST CIRCLE, BLOWING ROCK, NC, 28605","Match","Exact","372 BLACK LOCUST CIR, BLOWING ROCK, NC, 28605",651209196,"L"
561906,"372 BOSTON RD","SUTTON","MA",1590,42.145713405,-71.770769161,406,"372 BOSTON RD, SUTTON, MA, 1590","Match","Exact","372 BOSTON RD, SUTTON, MA, 01590",40107568,"L"
561907,"372 BROADWAY UNIT 1","CAMBRIDGE","MA",2139,42.37084,-71.104870169,407,"372 BROADWAY UNIT 1, CAMBRIDGE, MA, 2139","Match","Exact","372 BROADWAY, CAMBRIDGE, MA, 02139",86868911,"L"
561908,"372 CAMBRIDGE DR NE","CEDAR RAPIDS","IA",52402,42.0488589460001,-91.631871307,408,"372 CAMBRIDGE DR NE, CEDAR RAPIDS, IA, 52402","Match","Exact","372 CAMBRIDGE DR NE, CEDAR RAPIDS, IA, 52402",17021149,"R"
561909,"372 CENTRAL PARK WEST 12-N","NEW YORK","NY",10025,40.7923126520001,-73.964220322,409,"372 CENTRAL PARK WEST 12-N, NEW YORK, NY, 10025","Match","Exact","372 CENTRAL PARK W, NEW YORK, NY, 10025",59656962,"L"
561910,"372 CENTRAL PARK WEST APT 11P","NEW YORK","NY",10025,40.7923126520001,-73.964220322,410,"372 CENTRAL PARK WEST APT 11P, NEW YORK, NY, 10025","Match","Exact","372 CENTRAL PARK W, NEW YORK, NY, 10025",59656962,"L"
561911,"372 CHASE RD","COOPERSTOWN","NY",13326,42.664102316,-75.000855712,411,"372 CHASE RD, COOPERSTOWN, NY, 13326","Match","Exact","372 CHASE RD, COOPERSTOWN, NY, 13326",125947326,"R"
561912,"372 CHATEAU SONESTA","MANDEVILLE","LA",70471,30.403319455,-90.033072514,412,"372 CHATEAU SONESTA, MANDEVILLE, LA, 70471","Match","Exact","372 CHATEAU SONESTA, MANDEVILLE, LA, 70471",611485701,"R"
561913,"372 CHICAGO STREET","FALL RIVER","MA",2721,41.678117222,-71.1490430489999,413,"372 CHICAGO STREET, FALL RIVER, MA, 2721","Match","Exact","372 CHICAGO ST, FALL RIVER, MA, 02721",46770891,"L"
561914,"372 CHIPPEWA AVENUE","AKRON","OH",44305,NA,NA,414,"372 CHIPPEWA AVENUE, AKRON, OH, 44305","No_Match",NA,NA,NA,NA
561915,"372 COLONIAL ROAD","ROSEBURG","OR",97470,43.1851018620001,-123.485853622,415,"372 COLONIAL ROAD, ROSEBURG, OR, 97470","Match","Non_Exact","372 COLONIAL RD, ROSEBURG, OR, 97471",613836893,"L"
561916,"372 COPELAND HILL RD","HOLDEN","ME",4429,44.740857852,-68.714769111,416,"372 COPELAND HILL RD, HOLDEN, ME, 4429","Match","Exact","372 COPELAND HILL RD, HOLDEN, ME, 04429",123640305,"R"
561917,"372 COUNTRY CLUB RD","GREENFIELD","MA",1301,42.6255625590001,-72.591064664,417,"372 COUNTRY CLUB RD, GREENFIELD, MA, 1301","Match","Exact","372 COUNTRY CLUB RD, GREENFIELD, MA, 01301",39942623,"L"
561918,"372 COURT STREET","WEST POINT","MS",39773,33.605576478,-88.6490943479999,418,"372 COURT STREET, WEST POINT, MS, 39773","Match","Exact","372 COURT ST, WEST POINT, MS, 39773",164177803,"R"
561919,"372 CROSLAND/SCOOTERVILLE ROAD","OMEGA","GA",31775,NA,NA,419,"372 CROSLAND/SCOOTERVILLE ROAD, OMEGA, GA, 31775","No_Match",NA,NA,NA,NA
561920,"372 CYPRESS HILL","PENN HILLS","PA",15235,40.4822752490001,-79.786692585,420,"372 CYPRESS HILL, PENN HILLS, PA, 15235","Match","Non_Exact","372 CYPRESS HILL DR, PENN HILLS, PA, 15235",51668704,"R"
561921,"372 DEKALB AVE APT 6J","BROOKLYN","NY",11205,40.690004173,-73.96323334,421,"372 DEKALB AVE APT 6J, BROOKLYN, NY, 11205","Match","Exact","372 DEKALB AVE, BROOKLYN, NY, 11205",59102513,"R"
561922,"372 DOOLEY","HENDERSON","NV",89015,36.0326151670001,-114.965525955,422,"372 DOOLEY, HENDERSON, NV, 89015","Match","Non_Exact","372 DOOLEY DR, HENDERSON, NV, 89015",202001034,"R"
561923,"372 E 1000 S","NEPHI","UT",84648,39.693888309,-111.829087318,423,"372 E 1000 S, NEPHI, UT, 84648","Match","Exact","372 E 1000 S, NEPHI, UT, 84648",627696900,"R"
561924,"372 E 154TH STREET APT 12H","BRONX","NY",10455,40.8196303990001,-73.916617161,424,"372 E 154TH STREET APT 12H, BRONX, NY, 10455","Match","Non_Exact","372 E 154TH ST, BRONX, NY, 10455",652205734,"R"
561925,"372 E 20TH ST APT B","COSTA MESA","CA",92627,33.639757677,-117.904592659,425,"372 E 20TH ST APT B, COSTA MESA, CA, 92627","Match","Non_Exact","372 E 20TH ST, COSTA MESA, CA, 92627",623702578,"L"
561926,"372 E CENTER ST","MARION","OH",43302,40.5889487850001,-83.1212064859999,426,"372 E CENTER ST, MARION, OH, 43302","Match","Exact","372 E CENTER ST, MARION, OH, 43302",12709629,"L"
561927,"372 EAST 800 SOUTH","FORT BRANCH","IN",47648,38.237783822,-87.559689974,427,"372 EAST 800 SOUTH, FORT BRANCH, IN, 47648","Match","Exact","372 E 800 S, FORT BRANCH, IN, 47648",615876981,"R"
561928,"372 EAST MOHAWK DRIVE","MALVERN","OH",44644,40.6533762780001,-81.179879499,428,"372 EAST MOHAWK DRIVE, MALVERN, OH, 44644","Match","Exact","372 E MOHAWK DR, MALVERN, OH, 44644",44184831,"L"
561929,"372 ELM STREET","WINDSOR LOCKS","CT",6096,41.926496592,-72.6533881949999,429,"372 ELM STREET, WINDSOR LOCKS, CT, 6096","Match","Exact","372 ELM ST, WINDSOR LOCKS, CT, 06096",3537582,"R"
561930,"372 ERLANGER BLVD","NORTH BABYLON","NY",11703,40.741862865,-73.3432441959999,430,"372 ERLANGER BLVD, NORTH BABYLON, NY, 11703","Match","Exact","372 ERLANGER BLVD, NORTH BABYLON, NY, 11703",113976175,"L"
561931,"372 EVERGREEN DRIVE","VACAVILLE","CA",95688,38.370376692,-122.002253879,431,"372 EVERGREEN DRIVE, VACAVILLE, CA, 95688","Match","Exact","372 EVERGREEN DR, VACAVILLE, CA, 95688",192534111,"L"
561932,"372 FALCONER ST- LOWER APARTMENT","NORTH TONAWANDA","NY",14120,43.0327684760001,-78.867935857,432,"372 FALCONER ST- LOWER APARTMENT, NORTH TONAWANDA, NY, 14120","Match","Non_Exact","372 FALCONER ST, N TONAWANDA, NY, 14120",48689326,"L"
561933,"372 FIFTH AVE APT 3J","NEW YORK","NY",10018,40.749156445,-73.984045265,433,"372 FIFTH AVE APT 3J, NEW YORK, NY, 10018","Match","Exact","372 5TH AVE, NEW YORK, NY, 10018",59654379,"L"
561934,"372 FLORIDA STREET","ROXIE","MS",39661,31.507501947,-91.073993834,434,"372 FLORIDA STREET, ROXIE, MS, 39661","Match","Exact","372 FLORIDA ST, ROXIE, MS, 39661",75836014,"R"
561935,"372 FLORIN RD STE 109","SACRAMENTO","CA",95831,38.5083696190001,-121.541853024,435,"372 FLORIN RD STE 109, SACRAMENTO, CA, 95831","Match","Exact","372 FLORIN RD, SACRAMENTO, CA, 95831",133322174,"R"
561936,"372 FLORIN ROAD SUITE 244","SACRAMENTO","CA",95831,38.5083696190001,-121.541853024,436,"372 FLORIN ROAD SUITE 244, SACRAMENTO, CA, 95831","Match","Exact","372 FLORIN RD, SACRAMENTO, CA, 95831",133322174,"R"
561937,"372 FM3299","EMORY","TX",75440,NA,NA,437,"372 FM3299, EMORY, TX, 75440","No_Match",NA,NA,NA,NA
561938,"372 FOREST LN","GLASTOMBURY","CT",6033,41.691990811,-72.5241990389999,438,"372 FOREST LN, GLASTOMBURY, CT, 6033","Match","Non_Exact","372 FOREST LN, GLASTONBURY, CT, 06033",3499565,"R"
561939,"372 FRANKLIN AVENUE","WYCKOFF","NJ",7481,41.0093700740001,-74.1708914989999,439,"372 FRANKLIN AVENUE, WYCKOFF, NJ, 7481","Match","Exact","372 FRANKLIN AVE, WYCKOFF, NJ, 07481",64402769,"R"
561940,"372 GEORGE ST","WINCHESTER","VA",22601,39.19684705,-78.183566797,440,"372 GEORGE ST, WINCHESTER, VA, 22601","Match","Exact","372 GEORGE ST, WINCHESTER, VA, 22601",55578112,"R"
561941,"372 GLENOAKS STREET","BREA","CA",92821,33.935259892,-117.901751137,441,"372 GLENOAKS STREET, BREA, CA, 92821","Match","Exact","372 GLENOAKS ST, BREA, CA, 92821",144007096,"L"
561942,"372 GREEN ACRES RAOD","SPARTA","MO",65753,37.0182512050001,-93.0942714459999,442,"372 GREEN ACRES RAOD, SPARTA, MO, 65753","Match","Non_Exact","372 GREENE ACRES RD, SPARTA, MO, 65753",642719771,"R"
561943,"372 HACKMORE DRIVE","FLORISSANT","CO",80816,38.8327522440001,-105.256739664,443,"372 HACKMORE DRIVE, FLORISSANT, CO, 80816","Match","Non_Exact","372 HACKAMORE DR, FLORISSANT, CO, 80816",635561401,"R"
561944,"372 HALSEY STREET","BROOKLYN","NY",11216,40.6830286380001,-73.939185887,444,"372 HALSEY STREET, BROOKLYN, NY, 11216","Match","Exact","372 HALSEY ST, BROOKLYN, NY, 11216",59079281,"R"
561945,"372 HARRISON AVE","CAMBELL","CA",95008,37.2925079090001,-121.942485774,445,"372 HARRISON AVE, CAMBELL, CA, 95008","Match","Non_Exact","372 HARRISON AVE, CAMPBELL, CA, 95008",122904916,"R"
561946,"372 HARRISONVILLE RD","WOOLWICH","NJ",8085,39.7073937330001,-75.29891943,446,"372 HARRISONVILLE RD, WOOLWICH, NJ, 8085","Match","Non_Exact","372 HARRISONVILLE RD, WOOLWICH TOWNSHIP, NJ, 08085",647739092,"L"
561947,"372 HARVEST RUN SUITE B","MCDONOUGH","GA",30252,33.5509998100001,-84.100446435,447,"372 HARVEST RUN SUITE B, MCDONOUGH, GA, 30252","Match","Exact","372 HARVEST RUN, MCDONOUGH, GA, 30252",627272415,"R"
561948,"372 HAYES AVENUE","BAYVILLE","NJ",8721,39.897133739,-74.181450169,448,"372 HAYES AVENUE, BAYVILLE, NJ, 8721","Match","Exact","372 HAYES AVE, BAYVILLE, NJ, 08721",653261476,"R"
561949,"372 HAYLEDGE CT","CHESHIRE","CT",6410,41.4908831760001,-72.8901151859999,449,"372 HAYLEDGE CT, CHESHIRE, CT, 6410","Match","Exact","372 HAYLEDGE CT, CHESHIRE, CT, 06410",3712809,"L"
561950,"372 HERRICK RD","RIVERSIDE","IL",60546,41.8324115240001,-87.805705498,450,"372 HERRICK RD, RIVERSIDE, IL, 60546","Match","Exact","372 HERRICK RD, RIVERSIDE, IL, 60546",111794424,"L"
561951,"372 HOOKEMFAIR RD","COBBS CREEK","VA",23035,37.482783854,-76.3301479949999,451,"372 HOOKEMFAIR RD, COBBS CREEK, VA, 23035","Match","Exact","372 HOOKEMFAIR RD, COBBS CREEK, VA, 23035",199452075,"L"
561952,"372 HWY 82","PHIL CAMPBELL","AL",35581,34.3883366740001,-87.6245054729999,452,"372 HWY 82, PHIL CAMPBELL, AL, 35581","Match","Non_Exact","372 CO RD 82, PHIL CAMPBELL, AL, 35581",41253702,"R"
561953,"372 JOHN WEAVER ROAD","COLUMBUS","NC",28722,35.219629985,-82.0728763,453,"372 JOHN WEAVER ROAD, COLUMBUS, NC, 28722","Match","Exact","372 JOHN WEAVER RD, COLUMBUS, NC, 28722",635936193,"R"
561954,"372 JOHNSON RD","WINNFIELD","LA",71483,31.9645752710001,-92.664153826,454,"372 JOHNSON RD, WINNFIELD, LA, 71483","Match","Exact","372 JOHNSON RD, WINNFIELD, LA, 71483",119009055,"R"
561955,"372 JOHNSON ROAD","WINNFIELD","LA",71483,31.9645752710001,-92.664153826,455,"372 JOHNSON ROAD, WINNFIELD, LA, 71483","Match","Exact","372 JOHNSON RD, WINNFIELD, LA, 71483",119009055,"R"
561956,"372 LANGLEY ROAD","NEWTON CENTRE","MA",2459,42.3212991520001,-71.183880658,456,"372 LANGLEY ROAD, NEWTON CENTRE, MA, 2459","Match","Exact","372 LANGLEY RD, NEWTON CENTRE, MA, 02459",86866820,"L"
561957,"372 LAUN ST","ALTADENA","CA",91001,34.181808484,-118.158823247,457,"372 LAUN ST, ALTADENA, CA, 91001","Match","Exact","372 LAUN ST, ALTADENA, CA, 91001",141627363,"L"
561958,"372 LAUN STREET","ALTADENA","CA",91001,34.181808484,-118.158823247,458,"372 LAUN STREET, ALTADENA, CA, 91001","Match","Exact","372 LAUN ST, ALTADENA, CA, 91001",141627363,"L"
561959,"372 LEE ROAD 445","AUBURN","AL",36804,32.5387559380001,-85.3523144549999,459,"372 LEE ROAD 445, AUBURN, AL, 36804","Match","Non_Exact","372 LEE ROAD 445, OPELIKA, AL, 36804",1583280,"R"
561960,"372 LEE ROAD 445","OPELIKA","AL",36804,32.5387559380001,-85.3523144549999,460,"372 LEE ROAD 445, OPELIKA, AL, 36804","Match","Exact","372 LEE ROAD 445, OPELIKA, AL, 36804",1583280,"R"
561961,"372 LEGACY DR SW APT 118","ATLANTA","GA",30312,NA,NA,461,"372 LEGACY DR SW APT 118, ATLANTA, GA, 30312","No_Match",NA,NA,NA,NA
561962,"372 LIBERTY AVENUE","STATEN ISLAND","NY",10305,40.584597568,-74.090009728,462,"372 LIBERTY AVENUE, STATEN ISLAND, NY, 10305","Match","Exact","372 LIBERTY AVE, STATEN ISLAND, NY, 10305",59868792,"R"
561963,"372 LODER STREET","SAYRE","PA",18840,41.997297465,-76.5453908,463,"372 LODER STREET, SAYRE, PA, 18840","Match","Exact","372 LODER ST, SAYRE, PA, 18840",176956485,"R"
561964,"372 LONGBRANCH RD","SIMI VALLEY","CA",93065,34.2462377030001,-118.792239862,464,"372 LONGBRANCH RD, SIMI VALLEY, CA, 93065","Match","Exact","372 LONGBRANCH RD, SIMI VALLEY, CA, 93065",109976043,"L"
561965,"372 LR 55","FOREMAN","AR",71836,33.80712069,-94.410979529,465,"372 LR 55, FOREMAN, AR, 71836","Match","Exact","372 LR 55, FOREMAN, AR, 71836",624629340,"R"
561966,"372 MANOR AVE","CARNEYS POINT","NJ",8069,39.6970079070001,-75.471992827,466,"372 MANOR AVE, CARNEYS POINT, NJ, 8069","Match","Exact","372 MANOR AVE, CARNEYS POINT, NJ, 08069",174415955,"R"
561967,"372 MAPLE STREET","BURLINGTON","VT",5401,44.473993573,-73.2040338199999,467,"372 MAPLE STREET, BURLINGTON, VT, 5401","Match","Exact","372 MAPLE ST, BURLINGTON, VT, 05401",135828067,"L"
561968,"372 MARIGOLD","WESTLAND","MI",48185,42.3103177030001,-83.4196687,468,"372 MARIGOLD, WESTLAND, MI, 48185","Match","Non_Exact","372 MARIGOLD CIR, WESTLAND, MI, 48185",618425979,"R"
561969,"372 MEMORIAL PARKWAY","BLOOMFIELD","NJ",7003,40.800587787,-74.189712557,469,"372 MEMORIAL PARKWAY, BLOOMFIELD, NJ, 7003","Match","Exact","372 MEMORIAL PKWY, BLOOMFIELD, NJ, 07003",649244477,"R"
561970,"372 MERION DRIVE","CARY","IL",60013,42.2288134190001,-88.225090345,470,"372 MERION DRIVE, CARY, IL, 60013","Match","Exact","372 MERION DR, CARY, IL, 60013",639635859,"R"
561971,"372 MORTON AVENUE","WEST BERLIN","NJ",8091,39.810294797,-74.9342266579999,471,"372 MORTON AVENUE, WEST BERLIN, NJ, 8091","Match","Exact","372 MORTON AVE, WEST BERLIN, NJ, 08091",134364087,"R"
561972,"372 N HAMLIN","CHICAGO","IL",60624,41.887349751,-87.720965361,472,"372 N HAMLIN, CHICAGO, IL, 60624","Match","Non_Exact","372 N HAMLIN AVE, CHICAGO, IL, 60624",636323255,"L"
561973,"372 N PINE ST","BURLINGTON","WI",53105,42.679718832,-88.276183934,473,"372 N PINE ST, BURLINGTON, WI, 53105","Match","Exact","372 N PINE ST, BURLINGTON, WI, 53105",77902033,"R"
561974,"372 NE IDLEWOOD ST","PRINEVILLE","OR",97754,44.3035344620001,-120.83730755,474,"372 NE IDLEWOOD ST, PRINEVILLE, OR, 97754","Match","Exact","372 NE IDLEWOOD ST, PRINEVILLE, OR, 97754",152384615,"R"
561975,"372 NEW MACLAND RD","POWDER SPRINGS","GA",30127,NA,NA,475,"372 NEW MACLAND RD, POWDER SPRINGS, GA, 30127","No_Match",NA,NA,NA,NA
561976,"372 NORTH ST","WINDSOR LOCKS","CT",6096,41.938287637,-72.652832071,476,"372 NORTH ST, WINDSOR LOCKS, CT, 6096","Match","Exact","372 NORTH ST, WINDSOR LOCKS, CT, 06096",3533009,"R"
561977,"372 OLD YORK ROAD","HAMILTON","NJ",8620,40.1640303120001,-74.61742173,477,"372 OLD YORK ROAD, HAMILTON, NJ, 8620","Match","Exact","372 OLD YORK RD, HAMILTON, NJ, 08620",641561164,"L"
561978,"372 PACIFIC AVENUE","JERSEY CITY","NJ",7304,40.7130627110001,-74.06037816,478,"372 PACIFIC AVENUE, JERSEY CITY, NJ, 7304","Match","Exact","372 PACIFIC AVE, JERSEY CITY, NJ, 07304",59606005,"R"
561979,"372 PARK AVENUE","OLD BRIDGE","NJ",8857,40.3994576360001,-74.361255466,479,"372 PARK AVENUE, OLD BRIDGE, NJ, 8857","Match","Exact","372 PARK AVE, OLD BRIDGE, NJ, 08857",60282632,"L"
561980,"372 PIRATES COVE LANE","BOWLING GREEN","KY",42103,37.004707458,-86.389748276,480,"372 PIRATES COVE LANE, BOWLING GREEN, KY, 42103","Match","Exact","372 PIRATES COVE LN, BOWLING GREEN, KY, 42103",614170895,"L"
561981,"372 PUTNAM LANE","LAKE MARY","FL",32746,28.7721946720001,-81.3415884949999,481,"372 PUTNAM LANE, LAKE MARY, FL, 32746","Match","Exact","372 PUTNAM LN, LAKE MARY, FL, 32746",93779360,"R"
561982,"372 RIDGE ROAD","FALL BRANCH","TN",37656,36.4211421100001,-82.605016524,482,"372 RIDGE ROAD, FALL BRANCH, TN, 37656","Match","Exact","372 RIDGE RD, FALL BRANCH, TN, 37656",636645072,"R"
561983,"372 RIDGES BOULEVARD","GRAND JUNCTION","CO",81507,39.0638786970001,-108.607956569,483,"372 RIDGES BOULEVARD, GRAND JUNCTION, CO, 81507","Match","Exact","372 RIDGES BLVD, GRAND JCT, CO, 81507",638294264,"R"
561984,"372 RIVERBEND RD","SHELBYVILLE","TN",37160,35.463327006,-86.4147268579999,484,"372 RIVERBEND RD, SHELBYVILLE, TN, 37160","Match","Exact","372 RIVERBEND RD, SHELBYVILLE, TN, 37160",58858664,"L"
561985,"372 ROMINGER ROAD","BANNER ELK","NC",28604,36.1955019920001,-81.808923964,485,"372 ROMINGER ROAD, BANNER ELK, NC, 28604","Match","Exact","372 ROMINGER RD, BANNER ELK, NC, 28604",234431677,"R"
561986,"372 ROSE HILL ROAD SUITE 100","WEST GROVE","PA",19390,39.8142953620001,-75.8100537239999,486,"372 ROSE HILL ROAD SUITE 100, WEST GROVE, PA, 19390","Match","Non_Exact","372 ROSEHILL RD, WEST GROVE, PA, 19390",179550158,"L"
561987,"372 S 460 W","SPANISH FORK","UT",84660,40.1048481080001,-111.662652395,487,"372 S 460 W, SPANISH FORK, UT, 84660","Match","Exact","372 S 460 W, SPANISH FORK, UT, 84660",627840900,"R"
561988,"372 S BRIARCLIFF DR","CANFIELD","OH",44406,41.031231819,-80.774156773,488,"372 S BRIARCLIFF DR, CANFIELD, OH, 44406","Match","Exact","372 S BRIARCLIFF DR, CANFIELD, OH, 44406",64608754,"L"
561989,"372 S HIGHLAND AVENUE APARTMENT 601","PITTSBURGH","PA",15206,40.5217184540001,-80.043030664,489,"372 S HIGHLAND AVENUE APARTMENT 601, PITTSBURGH, PA, 15206","Match","Non_Exact","372 HIGHLAND AVE, PITTSBURGH, PA, 15229",51620112,"R"
561990,"372 S PRAIRIE AVE","ELMHURST","IL",60126,41.888525181,-87.932033659,490,"372 S PRAIRIE AVE, ELMHURST, IL, 60126","Match","Exact","372 PRAIRIE AVE, ELMHURST, IL, 60126",112545551,"R"
561991,"372 S PRAIRIE AVENUE","ELMHURST","IL",60126,41.888525181,-87.932033659,491,"372 S PRAIRIE AVENUE, ELMHURST, IL, 60126","Match","Exact","372 PRAIRIE AVE, ELMHURST, IL, 60126",112545551,"R"
561992,"372 S WALNUT ST    APT1","MANTENO","IL",60950,NA,NA,492,"372 S WALNUT ST    APT1, MANTENO, IL, 60950","Tie",NA,NA,NA,NA
561993,"372 SAMOA PLACE","IOWA CITY","IA",52246,41.656031662,-91.576515405,493,"372 SAMOA PLACE, IOWA CITY, IA, 52246","Match","Exact","372 SAMOA PL, IOWA CITY, IA, 52246",84494333,"L"
561994,"372 SAPPHIRE BEND","RIVERDALE","GA",31296,33.5577792720001,-84.4704707339999,494,"372 SAPPHIRE BEND, RIVERDALE, GA, 31296","Match","Non_Exact","372 SAPPHIRE BEND, RIVERDALE, GA, 30296",625040945,"R"
561995,"372 SARRATT SCHOOL RD","GAFFNEY","SC",29341,35.0670077670001,-81.737526841,495,"372 SARRATT SCHOOL RD, GAFFNEY, SC, 29341","Match","Exact","372 SARRATT SCHOOL RD, GAFFNEY, SC, 29341",18996855,"L"
561996,"372 SEVEN HILLS ROAD","NORTHVILLE","NY",12134,43.200343746,-74.150197702,496,"372 SEVEN HILLS ROAD, NORTHVILLE, NY, 12134","Match","Exact","372 SEVEN HILLS RD, NORTHVILLE, NY, 12134",153634787,"L"
561997,"372 SHRINE COURT","VALPARAISO","IN",46385,41.5338005580001,-87.137924502,497,"372 SHRINE COURT, VALPARAISO, IN, 46385","Match","Exact","372 SHRINE CT, VALPARAISO, IN, 46385",119931203,"L"
561998,"372 SILVER TRAIL","GILBERTSVILLE","KY",42044,36.9095282970001,-88.238156578,498,"372 SILVER TRAIL, GILBERTSVILLE, KY, 42044","Match","Exact","372 SILVER TRL, GILBERTSVILLE, KY, 42044",648491496,"L"
561999,"372 SIP AVE APT 1","JERSEY CITY","NJ",7306,40.7336411160001,-74.0777324049999,499,"372 SIP AVE APT 1, JERSEY CITY, NJ, 7306","Match","Exact","372 SIP AVE, JERSEY CITY, NJ, 07306",59603742,"R"
562000,"372 SISTERS LANE","PETERSBURG","WV",26847,39.076218979,-79.133787846,500,"372 SISTERS LANE, PETERSBURG, WV, 26847","Match","Exact","372 SISTERS LN, PETERSBURG, WV, 26847",629012107,"R"
