"ID","Address","City","State","Zip","lat","long","id","input_address","match_indicator","match_type","matched_address","tiger_line_id","tiger_side"
815001,"70 SECOND STREET","PARK RIDGE","NJ",7656,41.0351297020001,-74.052677193,1,"70 SECOND STREET, PARK RIDGE, NJ, 7656","Match","Exact","70 2ND ST, PARK RIDGE, NJ, 07656",64367554,"L"
815002,"70 SHAWNEE DRIVE","MOREHEAD","KY",40351,38.2428891550001,-83.538106491,2,"70 SHAWNEE DRIVE, MOREHEAD, KY, 40351","Match","Exact","70 SHAWNEE DR, MOREHEAD, KY, 40351",627843504,"R"
815003,"70 SHELDON ROAD","WRENTHAM","MA",2093,42.0433949750001,-71.382119299,3,"70 SHELDON ROAD, WRENTHAM, MA, 2093","Match","Exact","70 SHELDON RD, WRENTHAM, MA, 02093",87299805,"L"
815004,"70 SHEPHERDS WAY","FRANKFORT","KY",40601,NA,NA,4,"70 SHEPHERDS WAY, FRANKFORT, KY, 40601","No_Match",NA,NA,NA,NA
815005,"70 SKYWOOD WAY","WOODSIDE","CA",94062,37.3918461310001,-122.264268696,5,"70 SKYWOOD WAY, WOODSIDE, CA, 94062","Match","Exact","70 SKYWOOD WAY, WOODSIDE, CA, 94062",635506466,"R"
815006,"70 SLABEY AVE","MALVERNE","NY",11565,NA,NA,6,"70 SLABEY AVE, MALVERNE, NY, 11565","No_Match",NA,NA,NA,NA
815007,"70 SOMERS AVE","EGG HARBOR TWP","NJ",8234,39.322316046,-74.640773655,7,"70 SOMERS AVE, EGG HARBOR TWP, NJ, 8234","Match","Exact","70 SOMERS AVE, EGG HARBOR TOWNSHIP, NJ, 08234",202535801,"R"
815008,"70 SOUNDVIEW AVE","WHITE PLAINS","NY",10606,41.0164948070001,-73.7721425619999,8,"70 SOUNDVIEW AVE, WHITE PLAINS, NY, 10606","Match","Exact","70 SOUNDVIEW AVE, WHITE PLAINS, NY, 10606",139741718,"R"
815009,"70 SOUTH 26TH STREET","WYANDANCH","NY",11798,40.7458775470001,-73.368308113,9,"70 SOUTH 26TH STREET, WYANDANCH, NY, 11798","Match","Exact","70 S 26TH ST, WYANDANCH, NY, 11798",113974740,"L"
815010,"70 SOUTH 4TH STREET APT 147","MEMPHIS","TN",38103,35.1425267720001,-90.0478562179999,10,"70 SOUTH 4TH STREET APT 147, MEMPHIS, TN, 38103","Match","Exact","70 S 4TH ST, MEMPHIS, TN, 38103",72903356,"L"
815011,"70 SOUTH BROADWAY","TARRYTOWN","NY",10591,41.0743893630001,-73.859009075,11,"70 SOUTH BROADWAY, TARRYTOWN, NY, 10591","Match","Exact","70 S BROADWAY, TARRYTOWN, NY, 10591",139731054,"L"
815012,"70 SOUTH FOURTH STREET 123","MEMPHIS","TN",38103,35.1425267720001,-90.0478562179999,12,"70 SOUTH FOURTH STREET 123, MEMPHIS, TN, 38103","Match","Exact","70 S 4TH ST, MEMPHIS, TN, 38103",72903356,"L"
815013,"70 SOUTH MUNN AVE APT 106","EAST ORANGE","NJ",7018,40.7551410770001,-74.2125995179999,13,"70 SOUTH MUNN AVE APT 106, EAST ORANGE, NJ, 7018","Match","Exact","70 S MUNN AVE, EAST ORANGE, NJ, 07018",637796269,"L"
815014,"70 SOUTH MUNN AVE","EAST ORANGE","NJ",7018,40.7551410770001,-74.2125995179999,14,"70 SOUTH MUNN AVE, EAST ORANGE, NJ, 7018","Match","Exact","70 S MUNN AVE, EAST ORANGE, NJ, 07018",637796269,"L"
815015,"70 SOUTH MUNN AVENUE","EAST ORANGE","NJ",7018,40.7551410770001,-74.2125995179999,15,"70 SOUTH MUNN AVENUE, EAST ORANGE, NJ, 7018","Match","Exact","70 S MUNN AVE, EAST ORANGE, NJ, 07018",637796269,"L"
815016,"70 SPINDALE PLACE","CAMERAON","NC",28326,35.269598214,-79.030111593,16,"70 SPINDALE PLACE, CAMERAON, NC, 28326","Match","Non_Exact","70 SPINDALE PL, CAMERON, NC, 28326",634104592,"L"
815017,"70 SPRING POND DRIVE","OSSINING","NY",10562,41.186329835,-73.846044459,17,"70 SPRING POND DRIVE, OSSINING, NY, 10562","Match","Exact","70 SPRING POND DR, OSSINING, NY, 10562",139845424,"L"
815018,"70 SPRING RD","NORTH KINGSTOWN","RI",2852,41.6234841680001,-71.443876718,18,"70 SPRING RD, NORTH KINGSTOWN, RI, 2852","Match","Exact","70 SPRING RD, NORTH KINGSTOWN, RI, 02852",58924249,"L"
815019,"70 SPRINGBOTTOM DR","LAWRENCEVILLE","GA",30046,33.957723953,-83.962480872,19,"70 SPRINGBOTTOM DR, LAWRENCEVILLE, GA, 30046","Match","Exact","70 SPRINGBOTTOM DR, LAWRENCEVILLE, GA, 30046",624584688,"R"
815020,"70 SPRINGHILL AVE","STATEN ISLAND","NY",10301,40.6372948530001,-74.1036802849999,20,"70 SPRINGHILL AVE, STATEN ISLAND, NY, 10301","Match","Exact","70 SPRINGHILL AVE, STATEN ISLAND, NY, 10301",642649155,"L"
815021,"70 SPRINGS FIREPLACE RD","EAST HAMPTON","NY",11937,40.976605976,-72.178904476,21,"70 SPRINGS FIREPLACE RD, EAST HAMPTON, NY, 11937","Match","Exact","70 SPRINGS FIREPLACE RD, EAST HAMPTON, NY, 11937",114238196,"L"
815022,"70 SPRINGWOOD RD","SOUTH PORTLAND","ME",4106,43.623563244,-70.311036039,22,"70 SPRINGWOOD RD, SOUTH PORTLAND, ME, 4106","Match","Exact","70 SPRINGWOOD RD, SOUTH PORTLAND, ME, 04106",78025910,"L"
815023,"70 SPRUCE ST","PATERSON","NJ",7501,40.911182459,-74.1777299,23,"70 SPRUCE ST, PATERSON, NJ, 7501","Match","Exact","70 SPRUCE ST, PATERSON, NJ, 07501",65262951,"R"
815024,"70 ST JOSEPHS AVE","YONKERS","NY",10703,40.9429044840001,-73.89042088,24,"70 ST JOSEPHS AVE, YONKERS, NY, 10703","Match","Non_Exact","70 ST JOSEPH AVE, YONKERS, NY, 10703",139743231,"R"
815025,"70 STAFFORD LANE","DELTA","CO",81416,38.747464441,-108.050674782,25,"70 STAFFORD LANE, DELTA, CO, 81416","Match","Exact","70 STAFFORD LN, DELTA, CO, 81416",640733785,"R"
815026,"70 STAFFORD RD","HOLLAND","MA",1521,42.0562825390001,-72.190587318,26,"70 STAFFORD RD, HOLLAND, MA, 1521","Match","Non_Exact","70 OLD STAFFORD RD, HOLLAND, MA, 01521",4066636,"L"
815027,"70 STARIN DRIVE","STAMFORD","CT",6902,41.0615886040001,-73.567822468,27,"70 STARIN DRIVE, STAMFORD, CT, 6902","Match","Exact","70 STARIN DR, STAMFORD, CT, 06902",3242460,"R"
815028,"70 STATE HWY 235","NANCY","KY",42544,37.067473566,-84.742382662,28,"70 STATE HWY 235, NANCY, KY, 42544","Match","Exact","70 STATE HWY 235, NANCY, KY, 42544",39077836,"R"
815029,"70 STEEPLECHASE DR","MARLBORO","NJ",7746,40.308956353,-74.257732386,29,"70 STEEPLECHASE DR, MARLBORO, NJ, 7746","Match","Exact","70 STEEPLECHASE DR, MARLBORO, NJ, 07746",90445430,"R"
815030,"70 STEEPLECHASE DRIVE","MANCHESTER","CT",6040,41.7423066910001,-72.533966791,30,"70 STEEPLECHASE DRIVE, MANCHESTER, CT, 6040","Match","Exact","70 STEEPLECHASE DR, MANCHESTER, CT, 06040",3534401,"R"
815031,"70 STEEPLECHASE DRIVE","MARLBORO","NJ",7746,40.308956353,-74.257732386,31,"70 STEEPLECHASE DRIVE, MARLBORO, NJ, 7746","Match","Exact","70 STEEPLECHASE DR, MARLBORO, NJ, 07746",90445430,"R"
815032,"70 STELLA GARDENS","IRISHTOWN, DUBLIN",NA,NA,NA,NA,32,"70 STELLA GARDENS, IRISHTOWN, DUBLIN, , ","No_Match",NA,NA,NA,NA
815033,"70 STRAND CIRCLE","CROMWELL","CT",6416,41.5994104740001,-72.661271163,33,"70 STRAND CIRCLE, CROMWELL, CT, 6416","Match","Exact","70 STRAND CIR, CROMWELL, CT, 06416",623846356,"L"
815034,"70 STRIMPLES","STOCKTON","NJ",8559,NA,NA,34,"70 STRIMPLES, STOCKTON, NJ, 8559","No_Match",NA,NA,NA,NA
815035,"70 STULL AVE","AKRON","OH",44314,41.0541805920001,-81.424919062,35,"70 STULL AVE, AKRON, OH, 44314","Match","Non_Exact","70 STULL AVE, AKRON, OH, 44312",61355512,"R"
815036,"70 STURGIS CORNER DRIVE","IOWA CITY","IA",52246,41.6479428760001,-91.538626607,36,"70 STURGIS CORNER DRIVE, IOWA CITY, IA, 52246","Match","Exact","70 STURGIS CORNER DR, IOWA CITY, IA, 52246",84516273,"L"
815037,"70 SUDAN STREET","BOSTON","MA",2125,42.3164175200001,-71.05381908,37,"70 SUDAN STREET, BOSTON, MA, 2125","Match","Exact","70 SUDAN ST, BOSTON, MA, 02125",85713272,"L"
815038,"70 SUMMERTREE DRIVE","NICHOLASVILLE","KY",40356,37.9761953760001,-84.584978559,38,"70 SUMMERTREE DRIVE, NICHOLASVILLE, KY, 40356","Match","Exact","70 SUMMERTREE DR, NICHOLASVILLE, KY, 40356",38463586,"R"
815039,"70 SUMMIT STREET","LE ROY","NY",14482,42.9695032810001,-77.989191298,39,"70 SUMMIT STREET, LE ROY, NY, 14482","Match","Exact","70 SUMMIT ST, LE ROY, NY, 14482",48147600,"R"
815040,"70 SUNWOOD DRIVE","CALVERTON","NY",11933,40.946204525,-72.803175386,40,"70 SUNWOOD DRIVE, CALVERTON, NY, 11933","Match","Exact","70 SUNWOOD DR, CALVERTON, NY, 11933",114272899,"L"
815041,"70 SURREY ROAD","CHESTER","NY",10918,41.375935177,-74.2717408519999,41,"70 SURREY ROAD, CHESTER, NY, 10918","Match","Exact","70 SURREY RD, CHESTER, NY, 10918",124392066,"R"
815042,"70 SUSSEX ROAD","NEW ROCHELLE","NY",10804,40.9518837090001,-73.779879775,42,"70 SUSSEX ROAD, NEW ROCHELLE, NY, 10804","Match","Exact","70 SUSSEX RD, NEW ROCHELLE, NY, 10804",139749549,"R"
815043,"70 SW 91 AVENUE APT 108","PLANTATION","FL",33324,NA,NA,43,"70 SW 91 AVENUE APT 108, PLANTATION, FL, 33324","No_Match",NA,NA,NA,NA
815044,"70 SW CENTURY DR 100-211","BEND","OR",97709,NA,NA,44,"70 SW CENTURY DR 100-211, BEND, OR, 97709","No_Match",NA,NA,NA,NA
815045,"70 SWEET BRIAR DR APT 21","CLARK","NJ",7066,40.6159298910001,-74.3334528679999,45,"70 SWEET BRIAR DR APT 21, CLARK, NJ, 7066","Match","Exact","70 SWEET BRIAR DR, CLARK, NJ, 07066",641778107,"R"
815046,"70 TALL GRASS CIRCLE","BENNET","NE",68317,40.6872469370001,-96.502658459,46,"70 TALL GRASS CIRCLE, BENNET, NE, 68317","Match","Exact","70 TALL GRASS CIR, BENNET, NE, 68317",28299405,"L"
815047,"70 TALL PINE DRIVE APT 3","LEWISTON","ME",4240,NA,NA,47,"70 TALL PINE DRIVE APT 3, LEWISTON, ME, 4240","No_Match",NA,NA,NA,NA
815048,"70 TAN TAN TERRACE","CHRISTIANSTED","VI",820,NA,NA,48,"70 TAN TAN TERRACE, CHRISTIANSTED, VI, 820","No_Match",NA,NA,NA,NA
815049,"70 TANAGER LANE","BLACK MOUNTAIN","NC",28711,35.5800613000001,-82.235924692,49,"70 TANAGER LANE, BLACK MOUNTAIN, NC, 28711","Match","Exact","70 TANAGER LN, BLACK MOUNTAIN, NC, 28711",630157732,"R"
815050,"70 TANGLEWOOD ROAD","NEWNAN","GA",30263,33.460074895,-84.7166416489999,50,"70 TANGLEWOOD ROAD, NEWNAN, GA, 30263","Match","Exact","70 TANGLEWOOD RD, NEWNAN, GA, 30263",618816646,"L"
815051,"70 TAYLOR STREET","BERRY","AL",35546,33.6531992000001,-87.598396656,51,"70 TAYLOR STREET, BERRY, AL, 35546","Match","Exact","70 TAYLOR ST, BERRY, AL, 35546",120507937,"L"
815052,"70 TEXAS AVE","FORT CAMPBELL","KY",42223,36.6454070080001,-87.4468737559999,52,"70 TEXAS AVE, FORT CAMPBELL, KY, 42223","Match","Exact","70 TEXAS AVE, FORT CAMPBELL, KY, 42223",11296693,"R"
815053,"70 THE RIDGE","GLENFORD","NY",12433,42.0082631550001,-74.1557384119999,53,"70 THE RIDGE, GLENFORD, NY, 12433","Match","Exact","70 THE RIDGE, GLENFORD, NY, 12433",41891486,"R"
815054,"70 THEODORE NAPPIER LANE","HARTFORD","CT",6120,41.793449212,-72.669469853,54,"70 THEODORE NAPPIER LANE, HARTFORD, CT, 6120","Match","Non_Exact","70 THEODORE NAPPER LN, HARTFORD, CT, 06120",617298097,"R"
815055,"70 THISTLE RD","NORTH ANDOVER","MA",1845,42.6714087720001,-71.094533766,55,"70 THISTLE RD, NORTH ANDOVER, MA, 1845","Match","Exact","70 THISTLE RD, NORTH ANDOVER, MA, 01845",86713242,"L"
815056,"70 THOMAS ROAD","PITTSFIELD","MA",1201,42.478195365,-73.2755795159999,56,"70 THOMAS ROAD, PITTSFIELD, MA, 1201","Match","Exact","70 THOMAS RD, PITTSFIELD, MA, 01201",3919941,"R"
815057,"70 THOMPSON PLACE","ROSWELL","GA",30075,34.0306893630001,-84.363474545,57,"70 THOMPSON PLACE, ROSWELL, GA, 30075","Match","Exact","70 THOMPSON PL, ROSWELL, GA, 30075",17352100,"L"
815058,"70 TINSLEY CIRCLE","OXFORD","GA",30054,33.6258780310001,-83.88694448,58,"70 TINSLEY CIRCLE, OXFORD, GA, 30054","Match","Exact","70 TINSLEY CIR, OXFORD, GA, 30054",23640000,"R"
815059,"70 TRANQUIL DR","FRANKLIN","NC",28734,35.2318810740001,-83.384843009,59,"70 TRANQUIL DR, FRANKLIN, NC, 28734","Match","Exact","70 TRANQUIL DR, FRANKLIN, NC, 28734",624412976,"L"
815060,"70 TRAPPER DR","LANDER","WY",82520,42.7666606970001,-108.649074887,60,"70 TRAPPER DR, LANDER, WY, 82520","Match","Exact","70 TRAPPER DR, LANDER, WY, 82520",148485951,"R"
815061,"70 TRELAWNEY BEND","COVINGTON","GA",30016,33.5744955490001,-83.92915225,61,"70 TRELAWNEY BEND, COVINGTON, GA, 30016","Match","Exact","70 TRELAWNEY BEND, COVINGTON, GA, 30016",23637979,"R"
815062,"70 TRILLIUM TRAIL NE","ROME","GA",30165,34.3150566950001,-85.167501112,62,"70 TRILLIUM TRAIL NE, ROME, GA, 30165","Match","Exact","70 TRILLIUM TRL NE, ROME, GA, 30165",30698987,"L"
815063,"70 TURNER ST UNIT 5B","WARWICK","RI",2886,41.7054010520001,-71.422556379,63,"70 TURNER ST UNIT 5B, WARWICK, RI, 2886","Match","Exact","70 TURNER ST, WARWICK, RI, 02886",159160572,"L"
815064,"70 UNDERCLIFF TERRACE SOUTH","WEST ORANGE","NJ",7052,40.7649265330001,-74.2662091399999,64,"70 UNDERCLIFF TERRACE SOUTH, WEST ORANGE, NJ, 7052","Match","Exact","70 UNDERCLIFF TER S, WEST ORANGE, NJ, 07052",63460518,"L"
815065,"70 UPPER LUTHER RD","LUTHER","MT",59068,45.2660218880001,-109.351407022,65,"70 UPPER LUTHER RD, LUTHER, MT, 59068","Match","Exact","70 UPPER LUTHER RD, LUTHER, MT, 59068",637127590,"R"
815066,"70 UPPER ROCK  CIRCLE","ROCKVILLE","MD",20850,39.112265048,-77.1842815489999,66,"70 UPPER ROCK  CIRCLE, ROCKVILLE, MD, 20850","Match","Exact","70 UPPER ROCK CIR, ROCKVILLE, MD, 20850",649259266,"R"
815067,"70 VALLEY ROAD","COLONIA","NJ",7067,40.5814483290001,-74.296410184,67,"70 VALLEY ROAD, COLONIA, NJ, 7067","Match","Exact","70 VALLEY RD, COLONIA, NJ, 07067",60273988,"R"
815068,"70 VANDERBILT AVENUE","STATEN ISLAND","NY",10020,40.6214533080001,-74.074461293,68,"70 VANDERBILT AVENUE, STATEN ISLAND, NY, 10020","Match","Non_Exact","70 VANDERBILT AVE, STATEN ISLAND, NY, 10304",59883225,"L"
815069,"70 VARDON ROAD","W. HARTFORD","CT",6117,41.782514115,-72.719621075,69,"70 VARDON ROAD, W. HARTFORD, CT, 6117","Match","Exact","70 VARDON RD, WEST HARTFORD, CT, 06117",3486341,"R"
815070,"70 VARNEY SHORE","PALERMO","ME",4354,44.35523719,-69.4502344909999,70,"70 VARNEY SHORE, PALERMO, ME, 4354","Match","Exact","70 VARNEY SHORE, PALERMO, ME, 04354",606102908,"R"
815071,"70 VENUS ROAD","BRAINTREE","MA",2184,42.2340618590001,-70.96399744,71,"70 VENUS ROAD, BRAINTREE, MA, 2184","Match","Exact","70 VENUS RD, BRAINTREE, MA, 02184",87251342,"L"
815072,"70 VETERANS MEMORIAL DR E APT 311","SOMERVILLE","NJ",8876,40.5654579000001,-74.60895823,72,"70 VETERANS MEMORIAL DR E APT 311, SOMERVILLE, NJ, 8876","Match","Exact","70 VETERANS MEMORIAL DR E, SOMERVILLE, NJ, 08876",59938209,"R"
815073,"70 VIDRINE LN","CHURCH POINT","LA",70525,30.3843908270001,-92.24924584,73,"70 VIDRINE LN, CHURCH POINT, LA, 70525","Match","Exact","70 VIDRINE LN, CHURCH POINT, LA, 70525",88314743,"L"
815074,"70 VILLAGE HILL RD APT F","NORTHAMPTON","MA",1060,42.3130905630001,-72.647951265,74,"70 VILLAGE HILL RD APT F, NORTHAMPTON, MA, 1060","Match","Exact","70 VILLAGE HILL RD, NORTHAMPTON, MA, 01060",616759126,"L"
815075,"70 VIRGINIA RD","W PLAINS","NY",10603,NA,NA,75,"70 VIRGINIA RD, W PLAINS, NY, 10603","No_Match",NA,NA,NA,NA
815076,"70 VON STREET","SOMERSET","KY",42503,37.101283428,-84.6364167089999,76,"70 VON STREET, SOMERSET, KY, 42503","Match","Exact","70 VON ST, SOMERSET, KY, 42503",39090803,"L"
815077,"70 W 23RD STREET","DUBUQUE","IA",52001,42.5145343070001,-90.672922232,77,"70 W 23RD STREET, DUBUQUE, IA, 52001","Match","Exact","70 W 23RD ST, DUBUQUE, IA, 52001",16908477,"L"
815078,"70 W 24TH PLACE","EUGENE","OR",97405,44.0324746950001,-123.093292772,78,"70 W 24TH PLACE, EUGENE, OR, 97405","Match","Exact","70 W 24TH PL, EUGENE, OR, 97405",178232099,"L"
815079,"70 W 45TH ST 30C","NEW YORK","NY",10036,40.7563421940001,-73.9817041489999,79,"70 W 45TH ST 30C, NEW YORK, NY, 10036","Match","Non_Exact","70 W 45TH ST, NEW YORK, NY, 10036",59657144,"L"
815080,"70 W 500 S","JEROME","ID",83338,42.651597478,-114.533950957,80,"70 W 500 S, JEROME, ID, 83338","Match","Exact","70 W 500 S, JEROME, ID, 83338",637452839,"R"
815081,"70 W ALEXANDRINE","DETROIT","MI",48201,42.35032097,-83.060671128,81,"70 W ALEXANDRINE, DETROIT, MI, 48201","Match","Non_Exact","70 W ALEXANDRINE ST, DETROIT, MI, 48201",95477619,"R"
815082,"70 W BURTON PLACE UNIT 2007","CHICAGO","IL",60610,NA,NA,82,"70 W BURTON PLACE UNIT 2007, CHICAGO, IL, 60610","Tie",NA,NA,NA,NA
815083,"70 W CHILLICOTHE ST","CEDARVILLE","OH",45314,39.7431682660001,-83.809905842,83,"70 W CHILLICOTHE ST, CEDARVILLE, OH, 45314","Match","Exact","70 W CHILLICOTHE ST, CEDARVILLE, OH, 45314",143409147,"R"
815084,"70 W LONG LAKE RD","TROY","MI",48098,NA,NA,84,"70 W LONG LAKE RD, TROY, MI, 48098","No_Match",NA,NA,NA,NA
815085,"70 W MADISON ST SUIT 1400","CHICAGO","IL",60602,NA,NA,85,"70 W MADISON ST SUIT 1400, CHICAGO, IL, 60602","Tie",NA,NA,NA,NA
815086,"70 W MADISON ST SUITE 1400","CHICAGO","IL",60602,NA,NA,86,"70 W MADISON ST SUITE 1400, CHICAGO, IL, 60602","Tie",NA,NA,NA,NA
815087,"70 W MADISON ST SUITE 2222","CHICAGO","IL",60602,NA,NA,87,"70 W MADISON ST SUITE 2222, CHICAGO, IL, 60602","Tie",NA,NA,NA,NA
815088,"70 W MADISON ST SUITE 3100","CHICAGO","IL",60602,NA,NA,88,"70 W MADISON ST SUITE 3100, CHICAGO, IL, 60602","Tie",NA,NA,NA,NA
815089,"70 W MADISON ST SUITE 4600","CHICAGO","IL",60602,NA,NA,89,"70 W MADISON ST SUITE 4600, CHICAGO, IL, 60602","Tie",NA,NA,NA,NA
815090,"70 W MADISON STE 2900","CHICAGO","IL",60602,NA,NA,90,"70 W MADISON STE 2900, CHICAGO, IL, 60602","No_Match",NA,NA,NA,NA
815091,"70 W MADISON STE 3500","CHICAGO","IL",60602,NA,NA,91,"70 W MADISON STE 3500, CHICAGO, IL, 60602","No_Match",NA,NA,NA,NA
815092,"70 W PALM ST","ALTADENA","CA",91001,34.1970863070001,-118.147790646,92,"70 W PALM ST, ALTADENA, CA, 91001","Match","Exact","70 W PALM ST, ALTADENA, CA, 91001",141627284,"L"
815093,"70 W SUMMER STORM CIR","THE WOODLANDS","TX",77381,30.197878078,-95.504315334,93,"70 W SUMMER STORM CIR, THE WOODLANDS, TX, 77381","Match","Exact","70 W SUMMER STORM CIR, THE WOODLANDS, TX, 77381",79304751,"L"
815094,"70 W TREMONT TERRACE","IRVINGTON","NJ",7111,NA,NA,94,"70 W TREMONT TERRACE, IRVINGTON, NJ, 7111","Tie",NA,NA,NA,NA
815095,"70 WALLACE ST","FREEPORT","NY",11520,40.6593783430001,-73.590031913,95,"70 WALLACE ST, FREEPORT, NY, 11520","Match","Exact","70 WALLACE ST, FREEPORT, NY, 11520",147631282,"R"
815096,"70 WALNUT ST","SPRINGBORO","OH",45066,39.555243691,-84.241750385,96,"70 WALNUT ST, SPRINGBORO, OH, 45066","Match","Non_Exact","70 WALNUT PL, SPRINGBORO, OH, 45066",159019381,"L"
815097,"70 WALNUT TERRACE","HOLDEN","MA",1522,NA,NA,97,"70 WALNUT TERRACE, HOLDEN, MA, 1522","No_Match",NA,NA,NA,NA
815098,"70 WASHINGTON AVE","WALTHAM","MA",2453,42.3624113020001,-71.235616787,98,"70 WASHINGTON AVE, WALTHAM, MA, 2453","Match","Exact","70 WASHINGTON AVE, WALTHAM, MA, 02453",86862074,"L"
815099,"70 WASHINGTON STREET APT 2M","BROOKLYN","NY",11201,40.702245787,-73.9895254099999,99,"70 WASHINGTON STREET APT 2M, BROOKLYN, NY, 11201","Match","Exact","70 WASHINGTON ST, BROOKLYN, NY, 11201",59103199,"R"
815100,"70 WASHINGTON STREET SUITE 425","OAKLAND","CA",94607,37.796068092,-122.277907219,100,"70 WASHINGTON STREET SUITE 425, OAKLAND, CA, 94607","Match","Exact","70 WASHINGTON ST, OAKLAND, CA, 94607",124997258,"R"
815101,"70 WASHINGTON STREET UNIT 10T","BROOKLYN","NY",11201,40.702245787,-73.9895254099999,101,"70 WASHINGTON STREET UNIT 10T, BROOKLYN, NY, 11201","Match","Exact","70 WASHINGTON ST, BROOKLYN, NY, 11201",59103199,"R"
815102,"70 WASHINGTON STREET","SHERBORN","MA",1770,NA,NA,102,"70 WASHINGTON STREET, SHERBORN, MA, 1770","No_Match",NA,NA,NA,NA
815103,"70 WASHINGTON STREET","SOUTH RIVER","NJ",8882,40.448860622,-74.3820947199999,103,"70 WASHINGTON STREET, SOUTH RIVER, NJ, 8882","Match","Exact","70 WASHINGTON ST, SOUTH RIVER, NJ, 08882",60268767,"L"
815104,"70 WAYNEL CIRCLE SE","FORT WALTON BEACH","FL",32548,30.409984702,-86.596405026,104,"70 WAYNEL CIRCLE SE, FORT WALTON BEACH, FL, 32548","Match","Exact","70 WAYNEL CIR SE, FORT WALTON BEACH, FL, 32548",74393032,"L"
815105,"70 WEBSTER ST","ARLINGTON","MA",2474,42.4158607140001,-71.144855547,105,"70 WEBSTER ST, ARLINGTON, MA, 2474","Match","Exact","70 WEBSTER ST, ARLINGTON, MA, 02474",86888681,"L"
815106,"70 WEDGEWOODE LN","PONTIAC","MI",48340,42.675916779,-83.2583202329999,106,"70 WEDGEWOODE LN, PONTIAC, MI, 48340","Match","Exact","70 WEDGEWOODE LN, PONTIAC, MI, 48340",641241416,"R"
815107,"70 WEIGESTER STREET","TROY","PA",16947,41.7775346780001,-76.793428406,107,"70 WEIGESTER STREET, TROY, PA, 16947","Match","Exact","70 WEIGESTER ST, TROY, PA, 16947",176959218,"L"
815108,"70 WEIL WAY","WILMINGTON","OH",45177,39.436752842,-83.779370862,108,"70 WEIL WAY, WILMINGTON, OH, 45177","Match","Non_Exact","70 WEILWAY DR, WILMINGTON, OH, 45177",636623464,"R"
815109,"70 WEISS AVENUE","EASTON","PA",18042,40.6479387570001,-75.2036828569999,109,"70 WEISS AVENUE, EASTON, PA, 18042","Match","Exact","70 WEISS AVE, EASTON, PA, 18042",136884480,"L"
815110,"70 WELLS AVE","NEWTOM","MA",2459,42.2945826380001,-71.201794897,110,"70 WELLS AVE, NEWTOM, MA, 2459","Match","Non_Exact","70 WELLS AVE, NEWTON, MA, 02459",87107805,"R"
815111,"70 WEST 106TH ST APT 5B","NEW YORK","NY",10025,40.7989046610001,-73.962077403,111,"70 WEST 106TH ST APT 5B, NEW YORK, NY, 10025","Match","Exact","70 W 106TH ST, NEW YORK, NY, 10025",59656902,"L"
815112,"70 WEST 109TH STREET APT 61","NEW YORK","NY",10025,40.80090463,-73.960832661,112,"70 WEST 109TH STREET APT 61, NEW YORK, NY, 10025","Match","Exact","70 W 109TH ST, NEW YORK, NY, 10025",639009933,"L"
815113,"70 WEST 120 STREET","NEW YORK","NY",10027,40.804218819,-73.9469473629999,113,"70 WEST 120 STREET, NEW YORK, NY, 10027","Match","Exact","70 W 120TH ST, NEW YORK, NY, 10027",59657742,"L"
815114,"70 WEST 120TH STREET","NEW YORK","NY",10027,40.804218819,-73.9469473629999,114,"70 WEST 120TH STREET, NEW YORK, NY, 10027","Match","Exact","70 W 120TH ST, NEW YORK, NY, 10027",59657742,"L"
815115,"70 WEST 12TH STREET","HOLLAND","MI",49423,42.7866242420001,-86.110566569,115,"70 WEST 12TH STREET, HOLLAND, MI, 49423","Match","Exact","70 W 12TH ST, HOLLAND, MI, 49423",71077526,"R"
815116,"70 WEST 139TH ST  APT 7H","NEW YORK","NY",10037,40.8163986340001,-73.938361954,116,"70 WEST 139TH ST  APT 7H, NEW YORK, NY, 10037","Match","Exact","70 W 139TH ST, NEW YORK, NY, 10037",651706476,"L"
815117,"70 WEST 93 APT 29D","NEW YORK","NY",10025,40.79056339,-73.9680722529999,117,"70 WEST 93 APT 29D, NEW YORK, NY, 10025","Match","Non_Exact","70 W 93RD ST, NEW YORK, NY, 10025",650153773,"L"
815118,"70 WEST 93RD STREET 6G","NEW YORK","NY",10025,40.79056339,-73.9680722529999,118,"70 WEST 93RD STREET 6G, NEW YORK, NY, 10025","Match","Exact","70 W 93RD ST, NEW YORK, NY, 10025",650153773,"L"
815119,"70 WEST 93RD STREET APT 15C","NEW YORK","NY",10025,40.79056339,-73.9680722529999,119,"70 WEST 93RD STREET APT 15C, NEW YORK, NY, 10025","Match","Exact","70 W 93RD ST, NEW YORK, NY, 10025",650153773,"L"
815120,"70 WEST ASH STREET","CANISTOTA","SD",57030,NA,NA,120,"70 WEST ASH STREET, CANISTOTA, SD, 57030","No_Match",NA,NA,NA,NA
815121,"70 WEST END AVE","NEWARK","NJ",7106,40.7428865250001,-74.2231806519999,121,"70 WEST END AVE, NEWARK, NJ, 7106","Match","Exact","70 W END AVE, NEWARK, NJ, 07106",63464205,"L"
815122,"70 WEST GREENBUSH ROAD","TUCKERTON","NJ",8087,39.6076232980001,-74.4410661749999,122,"70 WEST GREENBUSH ROAD, TUCKERTON, NJ, 8087","Match","Exact","70 W GREENBUSH RD, TUCKERTON, NJ, 08087",134023582,"R"
815123,"70 WEST HEDDING STREET","SAN JOSE","CA",95110,37.3526483950001,-121.904986577,123,"70 WEST HEDDING STREET, SAN JOSE, CA, 95110","Match","Exact","70 W HEDDING ST, SAN JOSE, CA, 95110",122906960,"L"
815124,"70 WEST HURON APT 2008","CHICAGO","IL",60654,41.8948479640001,-87.630555589,124,"70 WEST HURON APT 2008, CHICAGO, IL, 60654","Match","Non_Exact","70 W HURON ST, CHICAGO, IL, 60654",111768464,"R"
815125,"70 WEST JONES STREET","GRIFFIN","GA",30224,NA,NA,125,"70 WEST JONES STREET, GRIFFIN, GA, 30224","No_Match",NA,NA,NA,NA
815126,"70 WEST JONES STREET","MOLENA","GA",30258,NA,NA,126,"70 WEST JONES STREET, MOLENA, GA, 30258","Tie",NA,NA,NA,NA
815127,"70 WEST MADISON STE 1500","CHICAGO","IL",60602,41.881994481,-87.630117051,127,"70 WEST MADISON STE 1500, CHICAGO, IL, 60602","Match","Non_Exact","70 W MADISON ST, CHICAGO, IL, 60602",111768766,"R"
815128,"70 WEST MADISON STREET SUITE 2050","CHICAGO","IL",60602,41.881994481,-87.630117051,128,"70 WEST MADISON STREET SUITE 2050, CHICAGO, IL, 60602","Match","Exact","70 W MADISON ST, CHICAGO, IL, 60602",111768766,"R"
815129,"70 WEST PASSAIC AVE","RUTHERFORD","VA",7070,NA,NA,129,"70 WEST PASSAIC AVE, RUTHERFORD, VA, 7070","No_Match",NA,NA,NA,NA
815130,"70 WEST SHORE ROAD","KEANSBURG","NJ",7734,40.4504949930001,-74.135502742,130,"70 WEST SHORE ROAD, KEANSBURG, NJ, 7734","Match","Non_Exact","70 W SHORE ST, KEANSBURG, NJ, 07734",90476521,"L"
815131,"70 WEST SHORE STREET","KEANSBURG","NJ",7734,40.4504949930001,-74.135502742,131,"70 WEST SHORE STREET, KEANSBURG, NJ, 7734","Match","Exact","70 W SHORE ST, KEANSBURG, NJ, 07734",90476521,"L"
815132,"70 WEST THIRD STREET","MT. VERNON","NY",10550,40.906112293,-73.838500457,132,"70 WEST THIRD STREET, MT. VERNON, NY, 10550","Match","Exact","70 W 3RD ST, MOUNT VERNON, NY, 10550",139747484,"L"
815133,"70 WEST TISBURY ROAD","EDGARTOWN","MA",2539,NA,NA,133,"70 WEST TISBURY ROAD, EDGARTOWN, MA, 2539","No_Match",NA,NA,NA,NA
815134,"70 WEST TREMONT TERRACE","IRVINGTON","NJ",7111,40.734415809,-74.220727218,134,"70 WEST TREMONT TERRACE, IRVINGTON, NJ, 7111","Match","Exact","70 W TREMONT TER, IRVINGTON, NJ, 07111",63464386,"R"
815135,"70 WESTON ST","BROCKTON","MA",2301,42.0898880890001,-71.030287374,135,"70 WESTON ST, BROCKTON, MA, 2301","Match","Exact","70 WESTON ST, BROCKTON, MA, 02301",87441989,"L"
815136,"70 WESTVIEW TER","BERLIN","CT",6037,41.615273218,-72.7508247229999,136,"70 WESTVIEW TER, BERLIN, CT, 6037","Match","Exact","70 WESTVIEW TER, BERLIN, CT, 06037",3501559,"L"
815137,"70 WHETHERSFIELD CIRCLE","TELFORD","PA",18969,40.32821626,-75.321257964,137,"70 WHETHERSFIELD CIRCLE, TELFORD, PA, 18969","Match","Exact","70 WHETHERSFIELD CIR, TELFORD, PA, 18969",134730136,"R"
815138,"70 WHIPPANY ROAD","MORRISTOWN","NJ",7960,NA,NA,138,"70 WHIPPANY ROAD, MORRISTOWN, NJ, 7960","No_Match",NA,NA,NA,NA
815139,"70 WHIPPLE HILL ROAD","RICHMOND","NH",3470,42.7559133780001,-72.3183736829999,139,"70 WHIPPLE HILL ROAD, RICHMOND, NH, 3470","Match","Exact","70 WHIPPLE HILL RD, RICHMOND, NH, 03470",124087369,"R"
815140,"70 WHISCONIER RD","BROOKFIELD","CT",6804,41.44803606,-73.3762866279999,140,"70 WHISCONIER RD, BROOKFIELD, CT, 6804","Match","Exact","70 WHISCONIER RD, BROOKFIELD, CT, 06804",3233326,"L"
815141,"70 WHITEOAK DRIVE","SOUTH ORANGE","NJ",7079,40.7536387540001,-74.278075128,141,"70 WHITEOAK DRIVE, SOUTH ORANGE, NJ, 7079","Match","Exact","70 WHITEOAK DR, SOUTH ORANGE, NJ, 07079",647612542,"R"
815142,"70 WHITTIER RD","WAKEFIELD","MA",1880,42.5086940200001,-71.046369779,142,"70 WHITTIER RD, WAKEFIELD, MA, 1880","Match","Exact","70 WHITTIER RD, WAKEFIELD, MA, 01880",86904134,"R"
815143,"70 WILBORN RD","HILTON HEAD ISLAND","SC",29926,32.21663669,-80.7320328229999,143,"70 WILBORN RD, HILTON HEAD ISLAND, SC, 29926","Match","Exact","70 WILBORN RD, HILTON HEAD ISLAND, SC, 29926",87627942,"L"
815144,"70 WILLIAMS AVE SE","MINNEAPOLIS","MN",55414,44.969130792,-93.217808694,144,"70 WILLIAMS AVE SE, MINNEAPOLIS, MN, 55414","Match","Exact","70 WILLIAMS AVE SE, MINNEAPOLIS, MN, 55414",43836385,"R"
815145,"70 WILLOW STREET APARTMENT 2","CAMBRIDGE","MA",2141,42.3715665940001,-71.0924043429999,145,"70 WILLOW STREET APARTMENT 2, CAMBRIDGE, MA, 2141","Match","Exact","70 WILLOW ST, CAMBRIDGE, MA, 02141",86869595,"L"
815146,"70 WINCHESTER RD","PINEHURST","NC",28374,35.2099550470001,-79.466999446,146,"70 WINCHESTER RD, PINEHURST, NC, 28374","Match","Exact","70 WINCHESTER RD, PINEHURST, NC, 28374",20298615,"R"
815147,"70 WINCHESTER WAY","SOMERSET","NJ",8873,40.504776253,-74.515597203,147,"70 WINCHESTER WAY, SOMERSET, NJ, 8873","Match","Exact","70 WINCHESTER WAY, SOMERSET, NJ, 08873",59976282,"R"
815148,"70 WINDBRIAR LANE","GETTYSBURG","PA",17325,39.82525295,-77.2533175409999,148,"70 WINDBRIAR LANE, GETTYSBURG, PA, 17325","Match","Exact","70 WINDBRIAR LN, GETTYSBURG, PA, 17325",60862208,"R"
815149,"70 WINDSOR DRIVE","FISHERSVILLE","VA",22939,38.1104497630001,-78.969852466,149,"70 WINDSOR DRIVE, FISHERSVILLE, VA, 22939","Match","Exact","70 WINDSOR DR, FISHERSVILLE, VA, 22939",98833614,"R"
815150,"70 WINNACUNNET  ROAD","HAMPTON","NH",3842,42.937774108,-70.8358244739999,150,"70 WINNACUNNET  ROAD, HAMPTON, NH, 3842","Match","Exact","70 WINNACUNNET RD, HAMPTON, NH, 03842",113713455,"L"
815151,"70 WINNEPOCKET ROAD","WEBSTER","NH",3303,43.284442745,-71.727807941,151,"70 WINNEPOCKET ROAD, WEBSTER, NH, 3303","Match","Exact","70 WINNEPOCKET RD, WEBSTER, NH, 03303",117711254,"R"
815152,"70 WOODBERRY DRIVE","MOUNT VERNON","OH",43050,40.3955047370001,-82.4399367089999,152,"70 WOODBERRY DRIVE, MOUNT VERNON, OH, 43050","Match","Exact","70 WOODBERRY DR, MOUNT VERNON, OH, 43050",647920878,"R"
815153,"70 WOODBURY CT","RINGGOLD","GA",30736,34.903227767,-85.143047584,153,"70 WOODBURY CT, RINGGOLD, GA, 30736","Match","Exact","70 WOODBURY CT, RINGGOLD, GA, 30736",618934813,"L"
815154,"70 WOODLAND AVE","KEENE","NH",3431,42.930270937,-72.263097606,154,"70 WOODLAND AVE, KEENE, NH, 3431","Match","Exact","70 WOODLAND AVE, KEENE, NH, 03431",124051308,"L"
815155,"70 WOODLAND AVENUE","KEENE","NH",3431,42.930270937,-72.263097606,155,"70 WOODLAND AVENUE, KEENE, NH, 3431","Match","Exact","70 WOODLAND AVE, KEENE, NH, 03431",124051308,"L"
815156,"70 WOODLAND PATH","WETUMPKA","AL",36093,32.465319225,-86.11259853,156,"70 WOODLAND PATH, WETUMPKA, AL, 36093","Match","Exact","70 WOODLAND PATH, WETUMPKA, AL, 36093",651305498,"R"
815157,"70 WOODMERE DR","PARLIN","NJ",8859,40.4560052580001,-74.2857349289999,157,"70 WOODMERE DR, PARLIN, NJ, 8859","Match","Exact","70 WOODMERE DR, PARLIN, NJ, 08859",60291146,"R"
815158,"70 WOODSTOCK DR","WAYNE","NJ",7470,40.9350576790001,-74.232903025,158,"70 WOODSTOCK DR, WAYNE, NJ, 7470","Match","Exact","70 WOODSTOCK DR, WAYNE, NJ, 07470",65259629,"R"
815159,"70 WOOSAMONSA ROAD","PENNINGTON","NJ",8534,40.3451648970001,-74.811342634,159,"70 WOOSAMONSA ROAD, PENNINGTON, NJ, 8534","Match","Exact","70 WOOSAMONSA RD, PENNINGTON, NJ, 08534",60213664,"R"
815160,"70 WRIGHT ROAD","RIDGELAND","SC",29936,NA,NA,160,"70 WRIGHT ROAD, RIDGELAND, SC, 29936","No_Match",NA,NA,NA,NA
815161,"70 WYCKOFF AVE APT 4A","BROOKLYN","NY",11237,40.7051146530001,-73.920526507,161,"70 WYCKOFF AVE APT 4A, BROOKLYN, NY, 11237","Match","Exact","70 WYCKOFF AVE, BROOKLYN, NY, 11237",59082455,"R"
815162,"70 YALE STREET","HARTFORD","CT",6114,41.7308848170001,-72.695235004,162,"70 YALE STREET, HARTFORD, CT, 6114","Match","Exact","70 YALE ST, HARTFORD, CT, 06114",633042737,"R"
815163,"70 YORK AVE","ELMIRA","NY",14904,42.079468316,-76.8589506559999,163,"70 YORK AVE, ELMIRA, NY, 14904","Match","Non_Exact","70 YORK AVE, ELMIRA, NY, 14905",18534092,"R"
815164,"70 YOUNGER ROAD","ROXBORO","NC",27573,36.3955431110001,-79.000364358,164,"70 YOUNGER ROAD, ROXBORO, NC, 27573","Match","Exact","70 YOUNGER RD, ROXBORO, NC, 27573",77219188,"R"
815165,"70-02 PARSONS BLVD 3B","JAMAICA","NY",11365,40.732133563,-73.810789944,165,"70-02 PARSONS BLVD 3B, JAMAICA, NY, 11365","Match","Non_Exact","70-2 PARSONS BLVD, FRESH MEADOWS, NY, 11365",59710115,"R"
815166,"70-03 171ST STREET","FRESH MEADOWS","NY",11365,40.7313465720001,-73.7986529139999,166,"70-03 171ST STREET, FRESH MEADOWS, NY, 11365","Match","Exact","70-3 171ST ST, FRESH MEADOWS, NY, 11365",59711172,"L"
815167,"70-06 52ND AVENUE","MASPETH","NY",11378,40.733596162,-73.893943958,167,"70-06 52ND AVENUE, MASPETH, NY, 11378","Match","Exact","70-6 52ND AVE, MASPETH, NY, 11378",642135389,"R"
815168,"70-07 KISSENA BOULEVARD","FLUSHING","NY",11367,40.7318326560001,-73.814921236,168,"70-07 KISSENA BOULEVARD, FLUSHING, NY, 11367","Match","Exact","70-7 KISSENA BLVD, FLUSHING, NY, 11367",59710107,"L"
815169,"70-20 108TH ST 10A","FOREST HILLS","NY",11375,40.7228059,-73.844393784,169,"70-20 108TH ST 10A, FOREST HILLS, NY, 11375","Match","Exact","70-20 108TH ST, FOREST HILLS, NY, 11375",59706165,"R"
815170,"70-22 173TH STREET","FRESH MEADOWS","NY",11365,NA,NA,170,"70-22 173TH STREET, FRESH MEADOWS, NY, 11365","No_Match",NA,NA,NA,NA
815171,"70-25 YELLOWSTONE BLVD APT 9S","FOREST HILLS","NY",11375,NA,NA,171,"70-25 YELLOWSTONE BLVD APT 9S, FOREST HILLS, NY, 11375","No_Match",NA,NA,NA,NA
815172,"70-25 YELLOWSTONE BLVD","FOREST HILLS","NY",11375,NA,NA,172,"70-25 YELLOWSTONE BLVD, FOREST HILLS, NY, 11375","Tie",NA,NA,NA,NA
815173,"70-30 PARSONS BLVD","FRESH MEADOWS","NY",11365,40.731650211,-73.810820816,173,"70-30 PARSONS BLVD, FRESH MEADOWS, NY, 11365","Match","Exact","70-30 PARSONS BLVD, FRESH MEADOWS, NY, 11365",59710115,"R"
815174,"70-31 108TH STREET","FOREST HILLS","NY",11375,40.722243635,-73.8441115589999,174,"70-31 108TH STREET, FOREST HILLS, NY, 11375","Match","Exact","70-31 108TH ST, FOREST HILLS, NY, 11375",59706171,"L"
815175,"70-39 136ST","FLUSHING","NY",11367,NA,NA,175,"70-39 136ST, FLUSHING, NY, 11367","No_Match",NA,NA,NA,NA
815176,"70","AUSTIN","TX",78749,NA,NA,176,"70, AUSTIN, TX, 78749","No_Match",NA,NA,NA,NA
815177,"70","BELMONT","MA",2478,NA,NA,177,"70, BELMONT, MA, 2478","No_Match",NA,NA,NA,NA
815178,"70","HINSDALE","IL",60521,NA,NA,178,"70, HINSDALE, IL, 60521","No_Match",NA,NA,NA,NA
815179,"70","POST FALLS","ID",83854,NA,NA,179,"70, POST FALLS, ID, 83854","No_Match",NA,NA,NA,NA
815180,"70","TALLADEGA","AL",36265,NA,NA,180,"70, TALLADEGA, AL, 36265","No_Match",NA,NA,NA,NA
815181,"700  EAST GRETNA RD","GRETNA","VA",24557,NA,NA,181,"700  EAST GRETNA RD, GRETNA, VA, 24557","No_Match",NA,NA,NA,NA
815182,"700  RICHARDS STREET 1905","HONOLULU","HI",96813,21.305595651,-157.862503111,182,"700  RICHARDS STREET 1905, HONOLULU, HI, 96813","Match","Exact","700 RICHARDS ST, HONOLULU, HI, 96813",203259304,"L"
815183,"700  SOUTH SHAFTER AV SPACE 62","SHAFTER","CA",93263,35.4937215310001,-119.27837941,183,"700  SOUTH SHAFTER AV SPACE 62, SHAFTER, CA, 93263","Match","Exact","700 S SHAFTER AVE, SHAFTER, CA, 93263",109138874,"R"
815184,"700 - 9TH AVENUE NORTH","SIBLEY","IA",51249,NA,NA,184,"700 - 9TH AVENUE NORTH, SIBLEY, IA, 51249","No_Match",NA,NA,NA,NA
815185,"700 1/2 MAIN STREET","EVANSTON","IL",60202,42.0339484990001,-87.6806148589999,185,"700 1/2 MAIN STREET, EVANSTON, IL, 60202","Match","Exact","700 MAIN ST, EVANSTON, IL, 60202",111744247,"L"
815186,"700 1/2 SYLVAN AVENUE","GRAND RIDGE","IL",61325,41.232171872,-88.832801123,186,"700 1/2 SYLVAN AVENUE, GRAND RIDGE, IL, 61325","Match","Exact","700 SYLVAN AVE, GRAND RIDGE, IL, 61325",8590922,"L"
815187,"700 11TH ST","FAIRBURY","NE",68352,40.1429087490001,-97.177075799,187,"700 11TH ST, FAIRBURY, NE, 68352","Match","Exact","700 11TH ST, FAIRBURY, NE, 68352",11134262,"R"
815188,"700 12TH AVENUE S SUITE 201","NASHVILLE","TN",37203,36.151006653,-86.784340478,188,"700 12TH AVENUE S SUITE 201, NASHVILLE, TN, 37203","Match","Exact","700 12TH AVE S, NASHVILLE, TN, 37203",97186458,"L"
815189,"700 12TH ST NW STE 700","WASHINGTON","DC",20005,NA,NA,189,"700 12TH ST NW STE 700, WASHINGTON, DC, 20005","No_Match",NA,NA,NA,NA
815190,"700 12TH STREET NW SUITE 700","WASHINGTON","DC",20005,38.8984352630001,-77.02808269,190,"700 12TH STREET NW SUITE 700, WASHINGTON, DC, 20005","Match","Exact","700 12TH ST NW, WASHINGTON, DC, 20005",76226159,"L"
815191,"700 12TH STREET","LYNCHBURG","VA",24504,37.4097913850001,-79.1447347119999,191,"700 12TH STREET, LYNCHBURG, VA, 24504","Match","Exact","700 12TH ST, LYNCHBURG, VA, 24504",62626926,"L"
815192,"700 13TH AVENUE NE UNIT 303","SIOUX CENTER","IA",51250,43.083958114,-96.155827416,192,"700 13TH AVENUE NE UNIT 303, SIOUX CENTER, IA, 51250","Match","Exact","700 13TH AVE NE, SIOUX CENTER, IA, 51250",93376187,"R"
815193,"700 14TH ST SE","MANDAN","ND",58554,46.839208582,-100.902113622,193,"700 14TH ST SE, MANDAN, ND, 58554","Match","Non_Exact","700 14TH ST NW, MANDAN, ND, 58554",199014152,"R"
815194,"700 15TH ST NE","CANTON","OH",44714,40.813407322,-81.365966239,194,"700 15TH ST NE, CANTON, OH, 44714","Match","Exact","700 15TH ST NE, CANTON, OH, 44714",64679530,"R"
815195,"700 16 ST UNIT 209","MIAMI BEACH","FL",33139,25.7890630810001,-80.135472991,195,"700 16 ST UNIT 209, MIAMI BEACH, FL, 33139","Match","Exact","700 16TH ST, MIAMI BEACH, FL, 33139",116020462,"L"
815196,"700 16TH AVE","BELMAR","NJ",7719,40.174812853,-74.028049599,196,"700 16TH AVE, BELMAR, NJ, 7719","Match","Exact","700 16TH AVE, BELMAR, NJ, 07719",90522957,"R"
815197,"700 16TH ST NE","WATERTOWN","SD",57201,44.9087318900001,-97.09044869,197,"700 16TH ST NE, WATERTOWN, SD, 57201","Match","Exact","700 16TH ST NE, WATERTOWN, SD, 57201",200738876,"R"
815198,"700 1ST ST STE 700","ALAMOGORDO","NM",88310,32.89017095,-105.954897573,198,"700 1ST ST STE 700, ALAMOGORDO, NM, 88310","Match","Non_Exact","700 E 1ST ST, ALAMOGORDO, NM, 88310",646589601,"R"
815199,"700 20TH STREET","BOULDER","CO",80302,40.0020919360001,-105.267767637,199,"700 20TH STREET, BOULDER, CO, 80302","Match","Exact","700 20TH ST, BOULDER, CO, 80302",637931848,"R"
815200,"700 24TH STREET","ASTORIA","OR",97103,46.186347584,-123.814958494,200,"700 24TH STREET, ASTORIA, OR, 97103","Match","Exact","700 24TH ST, ASTORIA, OR, 97103",159231758,"L"
815201,"700 26TH STREET","MCCOMB","MS",39648,31.2293459410001,-90.461288665,201,"700 26TH STREET, MCCOMB, MS, 39648","Match","Exact","700 26TH ST, MCCOMB, MS, 39648",75858713,"L"
815202,"700 30TH AVE","CLEAR LAKE","WI",54005,45.2529120930001,-92.306433461,202,"700 30TH AVE, CLEAR LAKE, WI, 54005","Match","Exact","700 30TH AVE, CLEAR LAKE, WI, 54005",110872211,"L"
815203,"700 38TH AVE NE","ST PETERSBURG","FL",33704,27.8067201750001,-82.625572542,203,"700 38TH AVE NE, ST PETERSBURG, FL, 33704","Match","Exact","700 38TH AVE NE, SAINT PETERSBURG, FL, 33704",124712512,"R"
815204,"700 3RD ST S","JACKSONVILLE BEACH","FL",32250,30.2815491330001,-81.390431808,204,"700 3RD ST S, JACKSONVILLE BEACH, FL, 32250","Match","Exact","700 3RD ST S, JACKSONVILLE BEACH, FL, 32250",83923874,"R"
815205,"700 3RD STREET WEST","ROUNDUP","MT",59072,46.447920708,-108.546347563,205,"700 3RD STREET WEST, ROUNDUP, MT, 59072","Match","Exact","700 3RD ST W, ROUNDUP, MT, 59072",170777595,"L"
815206,"700 48TH AVE N","MYRTLE BEACH","SC",29577,33.725064823,-78.850429751,206,"700 48TH AVE N, MYRTLE BEACH, SC, 29577","Match","Exact","700 48TH AVE N, MYRTLE BEACH, SC, 29577",29059691,"R"
815207,"700 4TH ST E","HARVEY","ND",58341,47.771525583,-99.923589716,207,"700 4TH ST E, HARVEY, ND, 58341","Match","Non_Exact","700 4TH ST, HARVEY, ND, 58341",174078395,"R"
815208,"700 4TH ST","HARVEY","ND",58341,47.771525583,-99.923589716,208,"700 4TH ST, HARVEY, ND, 58341","Match","Exact","700 4TH ST, HARVEY, ND, 58341",174078395,"R"
815209,"700 53RD AVE SOUTH","ST. PETERSBURG","FL",33705,27.7203615110001,-82.642666269,209,"700 53RD AVE SOUTH, ST. PETERSBURG, FL, 33705","Match","Exact","700 53RD AVE S, SAINT PETERSBURG, FL, 33705",124711522,"L"
815210,"700 5TH AVENUE APT H24","ATHENS","AL",35611,34.8122820080001,-86.976589729,210,"700 5TH AVENUE APT H24, ATHENS, AL, 35611","Match","Exact","700 5TH AVE, ATHENS, AL, 35611",95231289,"L"
815211,"700 6TH AVE NW","BUFFALO","MN",55313,45.17868194,-93.888184084,211,"700 6TH AVE NW, BUFFALO, MN, 55313","Match","Exact","700 6TH AVE NW, BUFFALO, MN, 55313",44019622,"L"
815212,"700 6TH STREET NW SUITE 700","WASHINGTON","DC",20001,38.898431569,-77.019909615,212,"700 6TH STREET NW SUITE 700, WASHINGTON, DC, 20001","Match","Exact","700 6TH ST NW, WASHINGTON, DC, 20001",647591674,"L"
815213,"700 71ST PLACE SOUTH","BIRMINGHAM","AL",35206,33.5498500620001,-86.7263978029999,213,"700 71ST PLACE SOUTH, BIRMINGHAM, AL, 35206","Match","Exact","700 71ST PL S, BIRMINGHAM, AL, 35206",81726653,"L"
815214,"700 7TH ST SW","WASHINGTON","DC",20024,38.880203523,-77.021893413,214,"700 7TH ST SW, WASHINGTON, DC, 20024","Match","Exact","700 7TH ST SW, WASHINGTON, DC, 20024",76238510,"L"
815215,"700 7TH STREET SW APT 403","WASHINGTON","DC",20024,38.880203523,-77.021893413,215,"700 7TH STREET SW APT 403, WASHINGTON, DC, 20024","Match","Exact","700 7TH ST SW, WASHINGTON, DC, 20024",76238510,"L"
815216,"700 7TH STREET SW APT 404","WASHINGTON","DC",20024,38.880203523,-77.021893413,216,"700 7TH STREET SW APT 404, WASHINGTON, DC, 20024","Match","Exact","700 7TH ST SW, WASHINGTON, DC, 20024",76238510,"L"
815217,"700 7TH STREET SW APT 518","WASHINGTON","DC",20024,38.880203523,-77.021893413,217,"700 7TH STREET SW APT 518, WASHINGTON, DC, 20024","Match","Exact","700 7TH ST SW, WASHINGTON, DC, 20024",76238510,"L"
815218,"700 7TH STREET SW UNIT 509","WASHINGTON","DC",20024,38.880203523,-77.021893413,218,"700 7TH STREET SW UNIT 509, WASHINGTON, DC, 20024","Match","Exact","700 7TH ST SW, WASHINGTON, DC, 20024",76238510,"L"
815219,"700 7TH STREET SW","WASHINGTON","DC",20024,38.880203523,-77.021893413,219,"700 7TH STREET SW, WASHINGTON, DC, 20024","Match","Exact","700 7TH ST SW, WASHINGTON, DC, 20024",76238510,"L"
815220,"700 89TH ST OCEAN","MARATHON","FL",33050,NA,NA,220,"700 89TH ST OCEAN, MARATHON, FL, 33050","No_Match",NA,NA,NA,NA
815221,"700 9TH STREET","SECAUCUS","NJ",7094,40.79292344,-74.068666655,221,"700 9TH STREET, SECAUCUS, NJ, 7094","Match","Exact","700 9TH ST, SECAUCUS, NJ, 07094",59596677,"R"
815222,"700 A SOUTH 4TH ST","CROCKETT","TX",75835,31.309937146,-95.458065061,222,"700 A SOUTH 4TH ST, CROCKETT, TX, 75835","Match","Exact","700 S 4TH ST, CROCKETT, TX, 75835",21990246,"R"
815223,"700 A SOUTH 4TH STREET","CROCKETT","TX",75835,31.309937146,-95.458065061,223,"700 A SOUTH 4TH STREET, CROCKETT, TX, 75835","Match","Exact","700 S 4TH ST, CROCKETT, TX, 75835",21990246,"R"
815224,"700 AIRPORT RD","GREENVILLE","NC",29607,NA,NA,224,"700 AIRPORT RD, GREENVILLE, NC, 29607","No_Match",NA,NA,NA,NA
815225,"700 AIRPORT ROAD FIRST FLOOR","LAKEWOOD","NJ",8701,40.0585992860001,-74.179961476,225,"700 AIRPORT ROAD FIRST FLOOR, LAKEWOOD, NJ, 8701","Match","Exact","700 AIRPORT RD, LAKEWOOD, NJ, 08701",203724899,"L"
815226,"700 ALALELE PL","HANA","HI",96713,NA,NA,226,"700 ALALELE PL, HANA, HI, 96713","No_Match",NA,NA,NA,NA
815227,"700 ALEXAN DR APT 101","DURHAM","NC",27707,NA,NA,227,"700 ALEXAN DR APT 101, DURHAM, NC, 27707","No_Match",NA,NA,NA,NA
815228,"700 ANGEL CT  APT 213","HOLMEN","WI",54636,43.9590854410001,-91.2822092119999,228,"700 ANGEL CT  APT 213, HOLMEN, WI, 54636","Match","Exact","700 ANGEL CT, HOLMEN, WI, 54636",51029185,"R"
815229,"700 ANNA JORDON DRIVE","CHARLOTTE","NC",28213,35.284009116,-80.7501664009999,229,"700 ANNA JORDON DRIVE, CHARLOTTE, NC, 28213","Match","Non_Exact","700 ANNA JORDAN DR, CHARLOTTE, NC, 28213",611499777,"R"
815230,"700 ARCADIA CIRCLE SUITE D","HUNTSVILLE","AL",35801,34.74513921,-86.598435691,230,"700 ARCADIA CIRCLE SUITE D, HUNTSVILLE, AL, 35801","Match","Non_Exact","700 ARCADIA CIR NW, HUNTSVILLE, AL, 35801",58185747,"R"
815231,"700 ARCADIA SUITE D","HUNTSVILLE","AL",35801,NA,NA,231,"700 ARCADIA SUITE D, HUNTSVILLE, AL, 35801","No_Match",NA,NA,NA,NA
815232,"700 ARCHER GROVE ROAD","ATHENS","GA",30607,34.0099127390001,-83.45359371,232,"700 ARCHER GROVE ROAD, ATHENS, GA, 30607","Match","Exact","700 ARCHER GROVE RD, ATHENS, GA, 30607",619830407,"L"
815233,"700 ARDENLEE PKWY","PEACHTREE CITY","GA",30269,NA,NA,233,"700 ARDENLEE PKWY, PEACHTREE CITY, GA, 30269","No_Match",NA,NA,NA,NA
815234,"700 ARDMORE AVENUE - 421","ARDMORE","PA",19003,40.0031729900001,-75.3041301969999,234,"700 ARDMORE AVENUE - 421, ARDMORE, PA, 19003","Match","Exact","700 ARDMORE AVE, ARDMORE, PA, 19003",134874820,"L"
815235,"700 ARGO ROAD","SENECA","SC",29678,34.628312646,-82.9818363209999,235,"700 ARGO ROAD, SENECA, SC, 29678","Match","Exact","700 ARGO RD, SENECA, SC, 29678",25662147,"L"
815236,"700 ASBURY AVENUE","ASBURY PARK","NJ",7712,40.2201264940001,-74.010667309,236,"700 ASBURY AVENUE, ASBURY PARK, NJ, 7712","Match","Exact","700 ASBURY AVE, ASBURY PARK, NJ, 07712",90463499,"L"
815237,"700 ASHBURY LANE","PROSPER","TX",75078,33.242536629,-96.823649866,237,"700 ASHBURY LANE, PROSPER, TX, 75078","Match","Exact","700 ASHBURY LN, PROSPER, TX, 75078",649035593,"L"
815238,"700 ASPEN DRIVE","GREER","SC",29651,35.043793034,-82.229154055,238,"700 ASPEN DRIVE, GREER, SC, 29651","Match","Exact","700 ASPEN DR, GREER, SC, 29651",38319614,"R"
815239,"700 ASTRACHAN AVENUE","VOLGA","SD",57071,44.316796692,-96.9250913449999,239,"700 ASTRACHAN AVENUE, VOLGA, SD, 57071","Match","Exact","700 ASTRACHAN AVE, VOLGA, SD, 57071",193622054,"R"
815240,"700 AVE E NW","CHILDRESS","TX",79201,34.4279830290001,-100.211646167,240,"700 AVE E NW, CHILDRESS, TX, 79201","Match","Exact","700 AVE E NW, CHILDRESS, TX, 79201",164409596,"R"
815241,"700 BARCLAY ST / LOT 11","BELPRE","OH",45714,39.279366768,-81.573539297,241,"700 BARCLAY ST / LOT 11, BELPRE, OH, 45714","Match","Exact","700 BARCLAY ST, BELPRE, OH, 45714",640778837,"R"
815242,"700 BATTLEGROUND RD","LINCOLNTON","NC",28092,35.475728701,-81.262129827,242,"700 BATTLEGROUND RD, LINCOLNTON, NC, 28092","Match","Exact","700 BATTLEGROUND RD, LINCOLNTON, NC, 28092",69543012,"R"
815243,"700 BAYBOU BLVD SOUTH","ST PETERSBURG","FL",33705,NA,NA,243,"700 BAYBOU BLVD SOUTH, ST PETERSBURG, FL, 33705","No_Match",NA,NA,NA,NA
815244,"700 BEACH DRIVE SUITE 103","ST. PETERSBURG","FL",33701,27.779524742,-82.630370586,244,"700 BEACH DRIVE SUITE 103, ST. PETERSBURG, FL, 33701","Match","Non_Exact","700 BEACH DR NE, SAINT PETERSBURG, FL, 33701",124713473,"L"
815245,"700 BEECH AVENUE","CHARLESTON","WV",25302,38.3698601790001,-81.647358748,245,"700 BEECH AVENUE, CHARLESTON, WV, 25302","Match","Exact","700 BEECH AVE, CHARLESTON, WV, 25302",78646715,"R"
815246,"700 BELLEVUE ST SUITE 240","SALEM","OR",97301,44.9351537140001,-123.037448745,246,"700 BELLEVUE ST SUITE 240, SALEM, OR, 97301","Match","Non_Exact","700 BELLEVUE ST SE, SALEM, OR, 97301",156248079,"R"
815247,"700 BELLUVUE ST","SALEM","OR",97301,NA,NA,247,"700 BELLUVUE ST, SALEM, OR, 97301","No_Match",NA,NA,NA,NA
815248,"700 BENJAMIN BOULEVARD","MORRISTOWN","TN",37814,36.1940865440001,-83.374303213,248,"700 BENJAMIN BOULEVARD, MORRISTOWN, TN, 37814","Match","Exact","700 BENJAMIN BLVD, MORRISTOWN, TN, 37814",606974428,"L"
815249,"700 BENNETT RD","PIERSON","FL",32180,29.2931216170001,-81.459396219,249,"700 BENNETT RD, PIERSON, FL, 32180","Match","Exact","700 BENNETT RD, PIERSON, FL, 32180",612319606,"R"
815250,"700 BENNETT RD","PIERSON","FL",32720,29.2931216170001,-81.459396219,250,"700 BENNETT RD, PIERSON, FL, 32720","Match","Non_Exact","700 BENNETT RD, PIERSON, FL, 32180",612319606,"R"
815251,"700 BEVERLY HILLS RD APT 821","HATTIESBURG","MS",39401,31.3363393130001,-89.3438528469999,251,"700 BEVERLY HILLS RD APT 821, HATTIESBURG, MS, 39401","Match","Exact","700 BEVERLY HILLS RD, HATTIESBURG, MS, 39401",637072267,"L"
815252,"700 BIG HILL CIR","MCALESTER","OK",74501,NA,NA,252,"700 BIG HILL CIR, MCALESTER, OK, 74501","No_Match",NA,NA,NA,NA
815253,"700 BILTMORE WAY","CORALGABLES","FL",33134,25.7480144250001,-80.268970118,253,"700 BILTMORE WAY, CORALGABLES, FL, 33134","Match","Non_Exact","700 BILTMORE WAY, CORAL GABLES, FL, 33134",116012882,"L"
815254,"700 BIRCH DRIVE","ELIZABETHTOWN","KY",42701,37.746579049,-85.87179449,254,"700 BIRCH DRIVE, ELIZABETHTOWN, KY, 42701","Match","Exact","700 BIRCH DR, ELIZABETHTOWN, KY, 42701",34633724,"L"
815255,"700 BIRCH ST","INDEPENDENCE","KS",67301,37.2180233180001,-95.6984639949999,255,"700 BIRCH ST, INDEPENDENCE, KS, 67301","Match","Non_Exact","700 E BIRCH ST, INDEPENDENCE, KS, 67301",13783904,"R"
815256,"700 BIRD CIR","SULPHUR SPRINGS","TX",75482,33.1302481130001,-95.58928359,256,"700 BIRD CIR, SULPHUR SPRINGS, TX, 75482","Match","Exact","700 BIRD CIR, SULPHUR SPRINGS, TX, 75482",42792105,"L"
815257,"700 BISHOP STREET - SUITE 110","HONOLULU","HI",96813,NA,NA,257,"700 BISHOP STREET - SUITE 110, HONOLULU, HI, 96813","No_Match",NA,NA,NA,NA
815258,"700 BISHOP STREET FLOOR 16","HONOLULU","HI",96813,NA,NA,258,"700 BISHOP STREET FLOOR 16, HONOLULU, HI, 96813","No_Match",NA,NA,NA,NA
815259,"700 BISHOP STREET SUITE 2000","HONOLULU","HI",96813,NA,NA,259,"700 BISHOP STREET SUITE 2000, HONOLULU, HI, 96813","No_Match",NA,NA,NA,NA
815260,"700 BLACK MAPLE DR","DELTONA","FL",32725,28.876401297,-81.2604006609999,260,"700 BLACK MAPLE DR, DELTONA, FL, 32725","Match","Exact","700 BLACK MAPLE DR, DELTONA, FL, 32725",94596196,"L"
815261,"700 BLACKBIRD GREENSPRING RD","SMYRNA","DE",19977,39.331500455,-75.65475516,261,"700 BLACKBIRD GREENSPRING RD, SMYRNA, DE, 19977","Match","Exact","700 BLACKBIRD GREENSPRING RD, SMYRNA, DE, 19977",636204368,"R"
815262,"700 BLAKEWOOD STREET","WILSON","NC",27893,35.7204424930001,-77.8950304419999,262,"700 BLAKEWOOD STREET, WILSON, NC, 27893","Match","Non_Exact","700 BLAKEWOOD ST E, WILSON, NC, 27893",26705443,"R"
815263,"700 BLOOMFIELD AVE APT 202","BLOOMFIELD","CT",6002,41.825962243,-72.737382453,263,"700 BLOOMFIELD AVE APT 202, BLOOMFIELD, CT, 6002","Match","Exact","700 BLOOMFIELD AVE, BLOOMFIELD, CT, 06002",3485524,"R"
815264,"700 BOBCAT LANE","PONTE VEDRA","FL",32081,NA,NA,264,"700 BOBCAT LANE, PONTE VEDRA, FL, 32081","No_Match",NA,NA,NA,NA
815265,"700 BOBCAT LN","PONTE VEDRA","FL",32081,NA,NA,265,"700 BOBCAT LN, PONTE VEDRA, FL, 32081","No_Match",NA,NA,NA,NA
815266,"700 BOLINWOOD DR 26C","CHAPEL HILL","NC",27514,NA,NA,266,"700 BOLINWOOD DR 26C, CHAPEL HILL, NC, 27514","No_Match",NA,NA,NA,NA
815267,"700 BOLINWOOD DR APT 34A","CHAPEL HILL","NC",27514,NA,NA,267,"700 BOLINWOOD DR APT 34A, CHAPEL HILL, NC, 27514","No_Match",NA,NA,NA,NA
815268,"700 BOLINWOOD DRIVE","CHAPEL HILL","NC",27514,NA,NA,268,"700 BOLINWOOD DRIVE, CHAPEL HILL, NC, 27514","No_Match",NA,NA,NA,NA
815269,"700 BOULEVARD DR","BAINBRIDGE","GA",39819,30.900097015,-84.55791119,269,"700 BOULEVARD DR, BAINBRIDGE, GA, 39819","Match","Non_Exact","700 S BOULEVARD DR, BAINBRIDGE, GA, 39819",84279164,"L"
815270,"700 BRAINERD ROAD","EXTON","PA",19341,NA,NA,270,"700 BRAINERD ROAD, EXTON, PA, 19341","No_Match",NA,NA,NA,NA
815271,"700 BROADWAY DR","OCOEE","FL",34761,28.5644391800001,-81.5324347869999,271,"700 BROADWAY DR, OCOEE, FL, 34761","Match","Exact","700 BROADWAY DR, OCOEE, FL, 34761",94265761,"L"
815272,"700 BROADWAY","BERLIN","WI",54923,43.968282507,-88.971354525,272,"700 BROADWAY, BERLIN, WI, 54923","Match","Non_Exact","700 BROADWAY ST, BERLIN, WI, 54923",635654573,"L"
815273,"700 BRUCE LANE UNIT 616","GLENWOOD","IL",60425,41.5574535910001,-87.632774291,273,"700 BRUCE LANE UNIT 616, GLENWOOD, IL, 60425","Match","Exact","700 BRUCE LN, GLENWOOD, IL, 60425",111712897,"L"
815274,"700 BRUSH CREEK RD","MANCHESTER","OH",45144,38.6891134640001,-83.450621967,274,"700 BRUSH CREEK RD, MANCHESTER, OH, 45144","Match","Exact","700 BRUSH CREEK RD, MANCHESTER, OH, 45144",100861269,"R"
815275,"700 BRUSSELS DR","COLLEGE STATION","TX",77845,30.572246089,-96.297508998,275,"700 BRUSSELS DR, COLLEGE STATION, TX, 77845","Match","Exact","700 BRUSSELS DR, COLLEGE STATION, TX, 77845",21834557,"R"
815276,"700 BULLDOG DRIVE SUITE 401","ASHEVILLE","NC",28801,35.611485648,-82.5704891949999,276,"700 BULLDOG DRIVE SUITE 401, ASHEVILLE, NC, 28801","Match","Exact","700 BULLDOG DR, ASHEVILLE, NC, 28801",635307697,"R"
815277,"700 BURDETTE AVENUE","GLENDALE HEIGHTS","IL",60110,41.9067891030001,-88.0568374869999,277,"700 BURDETTE AVENUE, GLENDALE HEIGHTS, IL, 60110","Match","Non_Exact","700 BURDETTE AVE, GLENDALE HEIGHTS, IL, 60139",112523043,"L"
815278,"700 BURNSIDE AVE","BURNSIDE","KY",42519,NA,NA,278,"700 BURNSIDE AVE, BURNSIDE, KY, 42519","No_Match",NA,NA,NA,NA
815279,"700 BURTON STREET SE GRAND RAPIDS","GRAND RAPIDS","MI",49507,42.9273343850001,-85.6496475389999,279,"700 BURTON STREET SE GRAND RAPIDS, GRAND RAPIDS, MI, 49507","Match","Exact","700 BURTON ST SE, GRAND RAPIDS, MI, 49507",12462008,"R"
815280,"700 BUTLER","KENNETT","MO",63857,36.2311507910001,-90.069080914,280,"700 BUTLER, KENNETT, MO, 63857","Match","Non_Exact","700 BUTLER DR, KENNETT, MO, 63857",38799755,"L"
815281,"700 CALDERA TERRACE","DELTONA","FL",32738,28.8815886950001,-81.18119688,281,"700 CALDERA TERRACE, DELTONA, FL, 32738","Match","Exact","700 CALDERA TER, DELTONA, FL, 32738",94503802,"L"
815282,"700 CAMBRIAN RD","CABLE","OH",43009,40.115442031,-83.6136565309999,282,"700 CAMBRIAN RD, CABLE, OH, 43009","Match","Exact","700 CAMBRIAN RD, CABLE, OH, 43009",653478891,"R"
815283,"700 CAMP STREET","NEW ORLEANS","LA",70130,29.946918838,-90.070031563,283,"700 CAMP STREET, NEW ORLEANS, LA, 70130","Match","Exact","700 CAMP ST, NEW ORLEANS, LA, 70130",191714347,"L"
815284,"700 CANAL STREET","STAMFORD","CT",6902,41.0471426300001,-73.5339653899999,284,"700 CANAL STREET, STAMFORD, CT, 6902","Match","Exact","700 CANAL ST, STAMFORD, CT, 06902",3245902,"L"
815285,"700 CANNOLI COURT","MCDONOUGH","GA",30253,33.444069003,-84.176950705,285,"700 CANNOLI COURT, MCDONOUGH, GA, 30253","Match","Exact","700 CANNOLI CT, MCDONOUGH, GA, 30253",210414177,"R"
815286,"700 CANTERBURY CIR","CORONA","CA",92879,33.900833619,-117.507315599,286,"700 CANTERBURY CIR, CORONA, CA, 92879","Match","Exact","700 CANTERBURY CIR, CORONA, CA, 92879",194834315,"L"
815287,"700 CANYON DRIVE","CARROLLTON","MO",64633,39.35024602,-93.5156016289999,287,"700 CANYON DRIVE, CARROLLTON, MO, 64633","Match","Exact","700 CANYON DR, CARROLLTON, MO, 64633",20816640,"L"
815288,"700 CANYON DRIVE","SAVANNAH","GA",31419,32.0384444810001,-81.228970598,288,"700 CANYON DRIVE, SAVANNAH, GA, 31419","Match","Exact","700 CANYON DR, SAVANNAH, GA, 31419",636114966,"R"
815289,"700 CAPPS ROAD","CAMPBELLSVILLE","KY",42718,37.304302938,-85.286893338,289,"700 CAPPS ROAD, CAMPBELLSVILLE, KY, 42718","Match","Exact","700 CAPPS RD, CAMPBELLSVILLE, KY, 42718",35248171,"R"
815290,"700 CARNEGIE ST UNIT 312","HENDERSON","NV",89052,36.0008300590001,-115.093391488,290,"700 CARNEGIE ST UNIT 312, HENDERSON, NV, 89052","Match","Exact","700 CARNEGIE ST, HENDERSON, NV, 89052",627101835,"L"
815291,"700 CARNEGIE ST UNIT 421","HENDERSON","NV",89052,36.0008300590001,-115.093391488,291,"700 CARNEGIE ST UNIT 421, HENDERSON, NV, 89052","Match","Exact","700 CARNEGIE ST, HENDERSON, NV, 89052",627101835,"L"
815292,"700 CARNEGIE ST- 1121","HENDERSON","NV",89052,36.0008300590001,-115.093391488,292,"700 CARNEGIE ST- 1121, HENDERSON, NV, 89052","Match","Non_Exact","700 CARNEGIE ST, HENDERSON, NV, 89052",627101835,"L"
815293,"700 CAROLINA BEACH AVE N","CAROLINA BEACH","NC",28428,34.042041699,-77.8888755409999,293,"700 CAROLINA BEACH AVE N, CAROLINA BEACH, NC, 28428","Match","Exact","700 CAROLINA BEACH AVE N, CAROLINA BCH, NC, 28428",152728884,"R"
815294,"700 CAROLINE AVENUE","VALLEY STREAM","NY",11580,NA,NA,294,"700 CAROLINE AVENUE, VALLEY STREAM, NY, 11580","No_Match",NA,NA,NA,NA
815295,"700 CASTRO STREET NO 9","SAN FRANCISCO","CA",94114,37.7576242690001,-122.434697289,295,"700 CASTRO STREET NO 9, SAN FRANCISCO, CA, 94114","Match","Non_Exact","700 CASTRO ST, SAN FRANCISCO, CA, 94114",192284492,"R"
815296,"700 CECINA WAY APT O","KISSIMMEE","FL",34741,NA,NA,296,"700 CECINA WAY APT O, KISSIMMEE, FL, 34741","No_Match",NA,NA,NA,NA
815297,"700 CENTER ROAD","CORNISH","NH",3745,43.4805230260001,-72.342196552,297,"700 CENTER ROAD, CORNISH, NH, 3745","Match","Exact","700 CENTER RD, CORNISH, NH, 03745",636290597,"L"
815298,"700 CENTRAL AVE NE","MINNEAPOLIS","MN",55414,44.991791521,-93.250857304,298,"700 CENTRAL AVE NE, MINNEAPOLIS, MN, 55414","Match","Non_Exact","700 CENTRAL AVE NE, MINNEAPOLIS, MN, 55413",43654296,"R"
815299,"700 CENTRAL AVE","EUREKA","MT",59917,48.8853618840001,-115.0455852,299,"700 CENTRAL AVE, EUREKA, MT, 59917","Match","Exact","700 CENTRAL AVE, EUREKA, MT, 59917",613076540,"R"
815300,"700 CENTRAL AVENUE","NAPA","CA",94558,38.31405863,-122.285244084,300,"700 CENTRAL AVENUE, NAPA, CA, 94558","Match","Exact","700 CENTRAL AVE, NAPA, CA, 94558",67415829,"R"
815301,"700 CHARITY STREET","ABBEVILLE","LA",70510,29.973067401,-92.129402698,301,"700 CHARITY STREET, ABBEVILLE, LA, 70510","Match","Exact","700 CHARITY ST, ABBEVILLE, LA, 70510",85962656,"L"
815302,"700 CHARLES AVE","LEXINGTON","KY",40508,38.0596124850001,-84.501520878,302,"700 CHARLES AVE, LEXINGTON, KY, 40508","Match","Exact","700 CHARLES AVE, LEXINGTON, KY, 40508",31921393,"L"
815303,"700 CHARLES ST","HESSTON","KS",67062,38.1361266540001,-97.441299893,303,"700 CHARLES ST, HESSTON, KS, 67062","Match","Exact","700 CHARLES ST, HESSTON, KS, 67062",639709453,"R"
815304,"700 CHARLES ST","PHILADELPHIA","PA",19124,NA,NA,304,"700 CHARLES ST, PHILADELPHIA, PA, 19124","No_Match",NA,NA,NA,NA
815305,"700 CHARLESTON DR","CLAYTON","NC",27527,35.693715065,-78.4362244389999,305,"700 CHARLESTON DR, CLAYTON, NC, 27527","Match","Exact","700 CHARLESTON DR, CLAYTON, NC, 27527",26561042,"L"
815306,"700 CHAUCER COURT","SOUTHLAKE","TX",76092,32.9318010200001,-97.120362241,306,"700 CHAUCER COURT, SOUTHLAKE, TX, 76092","Match","Exact","700 CHAUCER CT, SOUTHLAKE, TX, 76092",102089320,"L"
815307,"700 CHESTER HARRIS DRIVE","DALLAS","GA",30132,33.960432192,-84.8013142519999,307,"700 CHESTER HARRIS DRIVE, DALLAS, GA, 30132","Match","Exact","700 CHESTER HARRIS DR, DALLAS, GA, 30132",207992604,"R"
815308,"700 CHEYENNE BLVD APT 9","COLORADO SPGS","CO",80905,38.80422313,-104.838572109,308,"700 CHEYENNE BLVD APT 9, COLORADO SPGS, CO, 80905","Match","Exact","700 CHEYENNE BLVD, COLORADO SPRINGS, CO, 80905",105518343,"R"
815309,"700 CHILDRENS DRIVE","COLUMBUS","OH",43205,39.952355347,-82.978522455,309,"700 CHILDRENS DRIVE, COLUMBUS, OH, 43205","Match","Exact","700 CHILDRENS DR, COLUMBUS, OH, 43205",135580553,"L"
815310,"700 CHRISTIANS DRIVE","HARRISBURG","PA",17112,40.307073388,-76.779140033,310,"700 CHRISTIANS DRIVE, HARRISBURG, PA, 17112","Match","Exact","700 CHRISTIANS DR, HARRISBURG, PA, 17112",646577165,"L"
815311,"700 CHURCH STREET SUITE 206","NASHVILLE","TN",37203,36.1621069170001,-86.782699567,311,"700 CHURCH STREET SUITE 206, NASHVILLE, TN, 37203","Match","Exact","700 CHURCH ST, NASHVILLE, TN, 37203",617928769,"R"
815312,"700 CLARK AVE","RIDGEFIELD","NJ",7657,40.8285577350001,-74.0024893789999,312,"700 CLARK AVE, RIDGEFIELD, NJ, 7657","Match","Exact","700 CLARK AVE, RIDGEFIELD, NJ, 07657",64398737,"L"
815313,"700 CLEVELAND RD","HINSDALE","IL",60521,41.794648437,-87.915530188,313,"700 CLEVELAND RD, HINSDALE, IL, 60521","Match","Exact","700 CLEVELAND RD, HINSDALE, IL, 60521",111787595,"R"
815314,"700 CLEVELAND","HINSDALE","IL",60521,41.794648437,-87.915530188,314,"700 CLEVELAND, HINSDALE, IL, 60521","Match","Non_Exact","700 CLEVELAND RD, HINSDALE, IL, 60521",111787595,"R"
815315,"700 CLOHESEY DR","BUFFALO GROVE","IL",60089,42.1663128930001,-87.98051918,315,"700 CLOHESEY DR, BUFFALO GROVE, IL, 60089","Match","Exact","700 CLOHESEY DR, BUFFALO GROVE, IL, 60089",119649228,"R"
815316,"700 COBIA DR APT 621","KATY","TX",77494,29.7716729520001,-95.782471953,316,"700 COBIA DR APT 621, KATY, TX, 77494","Match","Exact","700 COBIA DR, KATY, TX, 77494",638127225,"L"
815317,"700 COBIA DR STE 611","KATY","TX",77494,29.7716729520001,-95.782471953,317,"700 COBIA DR STE 611, KATY, TX, 77494","Match","Exact","700 COBIA DR, KATY, TX, 77494",638127225,"L"
815318,"700 COCOANUT AVE UNIT 128","SARASOTA","FL",34236,27.3419573950001,-82.544712996,318,"700 COCOANUT AVE UNIT 128, SARASOTA, FL, 34236","Match","Exact","700 COCOANUT AVE, SARASOTA, FL, 34236",647828888,"R"
815319,"700 COCOANUT AVENUE SUITE 354","SARASOTA","FL",34236,27.3419573950001,-82.544712996,319,"700 COCOANUT AVENUE SUITE 354, SARASOTA, FL, 34236","Match","Exact","700 COCOANUT AVE, SARASOTA, FL, 34236",647828888,"R"
815320,"700 COHANNET ST","TAUNTON","MA",2780,41.888987797,-71.111336579,320,"700 COHANNET ST, TAUNTON, MA, 2780","Match","Exact","700 COHANNET ST, TAUNTON, MA, 02780",46760684,"R"
815321,"700 COLCORD","OKLAHOMA CITY","OK",73100,NA,NA,321,"700 COLCORD, OKLAHOMA CITY, OK, 73100","No_Match",NA,NA,NA,NA
815322,"700 COLCORD","OKLAHOMA CITY","OK",73102,35.46857866,-97.5243506369999,322,"700 COLCORD, OKLAHOMA CITY, OK, 73102","Match","Non_Exact","700 COLCORD DR, OKLAHOMA CITY, OK, 73102",100402167,"L"
815323,"700 COLLEGE AVE  APT 245","LADYSMITH","WI",54848,45.455470609,-91.1068700169999,323,"700 COLLEGE AVE  APT 245, LADYSMITH, WI, 54848","Match","Non_Exact","700 COLLEGE AVE W, LADYSMITH, WI, 54848",618568111,"R"
815324,"700 COLLEGE BLVD    D102","PENSACOLA","FL",32504,30.481688612,-87.2068374409999,324,"700 COLLEGE BLVD    D102, PENSACOLA, FL, 32504","Match","Exact","700 COLLEGE BLVD, PENSACOLA, FL, 32504",93225947,"R"
815325,"700 COLLEGE RD","CUMBERLAND","KY",40823,NA,NA,325,"700 COLLEGE RD, CUMBERLAND, KY, 40823","No_Match",NA,NA,NA,NA
815326,"700 COLLEGE ST UNIT 1662","BELOIT","WI",53511,42.502182002,-89.0295706369999,326,"700 COLLEGE ST UNIT 1662, BELOIT, WI, 53511","Match","Exact","700 COLLEGE ST, BELOIT, WI, 53511",49857693,"L"
815327,"700 COLONIAL CLUB DR","HARAHAN","LA",70123,29.9455902880001,-90.204408261,327,"700 COLONIAL CLUB DR, HARAHAN, LA, 70123","Match","Exact","700 COLONIAL CLUB DR, HARAHAN, LA, 70123",93501602,"L"
815328,"700 COLORADO BLVD SUITE 716","DENVER","CO",80206,39.727525143,-104.940594178,328,"700 COLORADO BLVD SUITE 716, DENVER, CO, 80206","Match","Exact","700 COLORADO BLVD, DENVER, CO, 80206",177338523,"R"
815329,"700 COLORADO BLVD SUITE 754","DENVER","CO",80206,39.727525143,-104.940594178,329,"700 COLORADO BLVD SUITE 754, DENVER, CO, 80206","Match","Exact","700 COLORADO BLVD, DENVER, CO, 80206",177338523,"R"
815330,"700 COLORADO BLVD","DENVER","CO",80206,39.727525143,-104.940594178,330,"700 COLORADO BLVD, DENVER, CO, 80206","Match","Exact","700 COLORADO BLVD, DENVER, CO, 80206",177338523,"R"
815331,"700 COLORADO BOULEVARD SUITE 743","DENVER","CO",80206,39.727525143,-104.940594178,331,"700 COLORADO BOULEVARD SUITE 743, DENVER, CO, 80206","Match","Exact","700 COLORADO BLVD, DENVER, CO, 80206",177338523,"R"
815332,"700 COLUMBUS AVE 6G","NEW YORK","NY",10025,40.7916181690001,-73.968432687,332,"700 COLUMBUS AVE 6G, NEW YORK, NY, 10025","Match","Exact","700 COLUMBUS AVE, NEW YORK, NY, 10025",59656933,"L"
815333,"700 COMMERCE DRIVE UNIT 500","OAK BROOK","IL",60523,41.850575329,-87.940441038,333,"700 COMMERCE DRIVE UNIT 500, OAK BROOK, IL, 60523","Match","Exact","700 COMMERCE DR, OAK BROOK, IL, 60523",112573357,"L"
815334,"700 COMMERCE ST APT 221","NEW ORLEANS","LA",70130,29.946208294,-90.06656622,334,"700 COMMERCE ST APT 221, NEW ORLEANS, LA, 70130","Match","Exact","700 COMMERCE ST, NEW ORLEANS, LA, 70130",191714525,"L"
815335,"700 CORELY RD","WALNUT HILL","FL",32568,30.879980608,-87.504773959,335,"700 CORELY RD, WALNUT HILL, FL, 32568","Match","Non_Exact","700 CORLEY RD, WALNUT HILL, FL, 32568",93278815,"R"
815336,"700 COTTAGEVIEW DR SUITE 100","TRAVERSE CITY","MI",49684,44.7581134210001,-85.644684046,336,"700 COTTAGEVIEW DR SUITE 100, TRAVERSE CITY, MI, 49684","Match","Exact","700 COTTAGEVIEW DR, TRAVERSE CITY, MI, 49684",651750250,"L"
815337,"700 COUNTRY SIDE LANE","PELLA","IA",50219,41.388343268,-92.931670932,337,"700 COUNTRY SIDE LANE, PELLA, IA, 50219","Match","Exact","700 COUNTRY SIDE LN, PELLA, IA, 50219",653234263,"L"
815338,"700 COUNTRYSIDE LN","PELLA","IA",50219,41.388343268,-92.931670932,338,"700 COUNTRYSIDE LN, PELLA, IA, 50219","Match","Non_Exact","700 COUNTRY SIDE LN, PELLA, IA, 50219",653234263,"L"
815339,"700 COUNTY RD 39","PIEDMONT","AL",36272,34.037726213,-85.708901367,339,"700 COUNTY RD 39, PIEDMONT, AL, 36272","Match","Exact","700 CO RD 39, PIEDMONT, AL, 36272",30236571,"R"
815340,"700 COUNTY ROAD 107","BOLIGEE","AL",35443,32.87997893,-88.123611046,340,"700 COUNTY ROAD 107, BOLIGEE, AL, 35443","Match","Exact","700 CO RD 107, BOLIGEE, AL, 35443",9651382,"L"
815341,"700 COUNTY ROAD 15","GARCIA","CO",81152,NA,NA,341,"700 COUNTY ROAD 15, GARCIA, CO, 81152","No_Match",NA,NA,NA,NA
815342,"700 COUNTY ROAD 630A LOT 174","FROSTPROOF","FL",33843,27.7297519540001,-81.5396458989999,342,"700 COUNTY ROAD 630A LOT 174, FROSTPROOF, FL, 33843","Match","Exact","700 CO RD 630A, FROSTPROOF, FL, 33843",634628730,"L"
815343,"700 COUNTY ROAD 630A LOT 19","FROSTPROOF","FL",33843,27.7297519540001,-81.5396458989999,343,"700 COUNTY ROAD 630A LOT 19, FROSTPROOF, FL, 33843","Match","Exact","700 CO RD 630A, FROSTPROOF, FL, 33843",634628730,"L"
815344,"700 CR 181","MARYNEAL","TX",79535,32.214173336,-100.435172606,344,"700 CR 181, MARYNEAL, TX, 79535","Match","Exact","700 CO RD 181, MARYNEAL, TX, 79535",186315070,"R"
815345,"700 CRAIGHEAD ST SUITE 107","NASHVILLE","TN",37204,36.12656716,-86.775305696,345,"700 CRAIGHEAD ST SUITE 107, NASHVILLE, TN, 37204","Match","Exact","700 CRAIGHEAD ST, NASHVILLE, TN, 37204",606825716,"R"
815346,"700 CRESTVIEW DRIVE","KENNEDALE","TX",76060,32.6502415300001,-97.2212921729999,346,"700 CRESTVIEW DRIVE, KENNEDALE, TX, 76060","Match","Exact","700 CRESTVIEW DR, KENNEDALE, TX, 76060",101903789,"R"
815347,"700 CROSBY DRIVE","HUDSON","WI",54016,44.9701382810001,-92.702783128,347,"700 CROSBY DRIVE, HUDSON, WI, 54016","Match","Exact","700 CROSBY DR, HUDSON, WI, 54016",110921419,"R"
815348,"700 CROSS QUAY","CHESAPEAKE","VA",23320,36.73903411,-76.27475487,348,"700 CROSS QUAY, CHESAPEAKE, VA, 23320","Match","Exact","700 CROSS QUAY, CHESAPEAKE, VA, 23320",121781689,"L"
815349,"700 CUMBERLAND ST","GLOUCESTER CITY","NJ",8030,39.8946443840001,-75.120218302,349,"700 CUMBERLAND ST, GLOUCESTER CITY, NJ, 8030","Match","Exact","700 CUMBERLAND ST, GLOUCESTER CITY, NJ, 08030",134347053,"R"
815350,"700 DAN P HERRON DR","GALLATIN","TN",37066,NA,NA,350,"700 DAN P HERRON DR, GALLATIN, TN, 37066","No_Match",NA,NA,NA,NA
815351,"700 DANIEL ELLIS DRIVE UNIT 6303","CHARLESTON","SC",29412,32.7466722950001,-79.9692783959999,351,"700 DANIEL ELLIS DRIVE UNIT 6303, CHARLESTON, SC, 29412","Match","Exact","700 DANIEL ELLIS DR, CHARLESTON, SC, 29412",605841424,"R"
815352,"700 DARTBROOK","DESOTO","TX",75115,32.5993020940001,-96.842671261,352,"700 DARTBROOK, DESOTO, TX, 75115","Match","Non_Exact","700 DARTBROOK DR, DESOTO, TX, 75115",102954182,"R"
815353,"700 DAVID DRIVE","OXFORD","OH",45056,39.496112945,-84.756666122,353,"700 DAVID DRIVE, OXFORD, OH, 45056","Match","Exact","700 DAVID DR, OXFORD, OH, 45056",113817166,"L"
815354,"700 DEER RUN DR","COLUMBUS","OH",43230,40.0331439870001,-82.855358832,354,"700 DEER RUN DR, COLUMBUS, OH, 43230","Match","Exact","700 DEER RUN DR, COLUMBUS, OH, 43230",135592608,"L"
815355,"700 DIXIE HWY PO BOX 1171","BEECHER","IL",60401,NA,NA,355,"700 DIXIE HWY PO BOX 1171, BEECHER, IL, 60401","No_Match",NA,NA,NA,NA
815356,"700 DOROTHY FORD LANE 320","HUNTSVILLE","AL",35801,34.721800527,-86.584189683,356,"700 DOROTHY FORD LANE 320, HUNTSVILLE, AL, 35801","Match","Non_Exact","700 DOROTHY FORD LN SW, HUNTSVILLE, AL, 35801",650708472,"L"
815357,"700 DOROTHY LN APT 186","HUNTSVILLE","AL",35801,NA,NA,357,"700 DOROTHY LN APT 186, HUNTSVILLE, AL, 35801","No_Match",NA,NA,NA,NA
815358,"700 DR MARTIN LUTHER KING JR DRIVE","MONTGOMERY","TX",77356,30.403425011,-95.7030939059999,358,"700 DR MARTIN LUTHER KING JR DRIVE, MONTGOMERY, TX, 77356","Match","Exact","700 DR MARTIN LUTHER KING DR, MONTGOMERY, TX, 77356",642462493,"R"
815359,"700 DREYFUS RD","BEREA","KY",40403,37.6345325240001,-84.198781738,359,"700 DREYFUS RD, BEREA, KY, 40403","Match","Exact","700 DREYFUS RD, BEREA, KY, 40403",31987093,"R"
815360,"700 DUKE DRIVE","DESOTO","TX",75115,32.5793510830001,-96.844513644,360,"700 DUKE DRIVE, DESOTO, TX, 75115","Match","Exact","700 DUKE DR, DESOTO, TX, 75115",632415396,"R"
815361,"700 DUNSON GLEN DR","HOUSTON","TX",77090,29.987595533,-95.433422085,361,"700 DUNSON GLEN DR, HOUSTON, TX, 77090","Match","Exact","700 DUNSON GLEN DR, HOUSTON, TX, 77090",642110700,"R"
815362,"700 DURANT RD","PLANT CITY","FL",33567,NA,NA,362,"700 DURANT RD, PLANT CITY, FL, 33567","No_Match",NA,NA,NA,NA
815363,"700 E 116TH PL","LOS ANGELES","CA",90059,33.928272259,-118.26186968,363,"700 E 116TH PL, LOS ANGELES, CA, 90059","Match","Exact","700 E 116TH PL, LOS ANGELES, CA, 90059",141673397,"R"
815364,"700 E 125TH","KANSAS","MO",64137,NA,NA,364,"700 E 125TH, KANSAS, MO, 64137","No_Match",NA,NA,NA,NA
815365,"700 E 134TH ST","BRONX","NY",10454,40.8020946400001,-73.9142227569999,365,"700 E 134TH ST, BRONX, NY, 10454","Match","Exact","700 E 134TH ST, BRONX, NY, 10454",80302823,"R"
815366,"700 E 134TH STREET APT 3B","BRONX","NY",10454,40.8020946400001,-73.9142227569999,366,"700 E 134TH STREET APT 3B, BRONX, NY, 10454","Match","Non_Exact","700 E 134TH ST, BRONX, NY, 10454",80302823,"R"
815367,"700 E 156TH STREET 18C","BRONX","NY",10455,40.8184555760001,-73.907503068,367,"700 E 156TH STREET 18C, BRONX, NY, 10455","Match","Non_Exact","700 E 156TH ST, BRONX, NY, 10455",611921463,"R"
815368,"700 E 19TH ST","YANKTON","SD",57078,42.887060336,-97.384605176,368,"700 E 19TH ST, YANKTON, SD, 57078","Match","Exact","700 E 19TH ST, YANKTON, SD, 57078",172836848,"R"
815369,"700 E 2 MILE RD","MISSION","TX",78574,NA,NA,369,"700 E 2 MILE RD, MISSION, TX, 78574","No_Match",NA,NA,NA,NA
815370,"700 E 22ND STREET","CHEYENNE","WY",82001,41.1410155200001,-104.810829917,370,"700 E 22ND STREET, CHEYENNE, WY, 82001","Match","Exact","700 E 22ND ST, CHEYENNE, WY, 82001",160149442,"L"
815371,"700 E 2ND AVE SUITE D","ROME","GA",30161,34.2445027530001,-85.166318057,371,"700 E 2ND AVE SUITE D, ROME, GA, 30161","Match","Exact","700 2ND AVE, ROME, GA, 30161",30705670,"R"
815372,"700 E 2ND AVE","ROME","GA",30161,34.2445314550001,-85.166345071,372,"700 E 2ND AVE, ROME, GA, 30161","Match","Exact","700 2ND AVE, ROME, GA, 30161",30705670,"R"
815373,"700 E 32ND ST","AUSTIN","TX",78705,30.292915581,-97.73091901,373,"700 E 32ND ST, AUSTIN, TX, 78705","Match","Exact","700 E 32ND ST, AUSTIN, TX, 78705",63945776,"L"
815374,"700 E 5TH ST SUITE 3","LONG BEACH","CA",90802,NA,NA,374,"700 E 5TH ST SUITE 3, LONG BEACH, CA, 90802","Tie",NA,NA,NA,NA
815375,"700 E 61ST STREET - 379221","CHICAGO","IL",60637,41.784018191,-87.608428476,375,"700 E 61ST STREET - 379221, CHICAGO, IL, 60637","Match","Non_Exact","700 E 61ST ST, CHICAGO, IL, 60637",616793661,"L"
815376,"700 E 61ST STREET NUMBER 378514","CHICAGO","IL",60637,41.784018191,-87.608428476,376,"700 E 61ST STREET NUMBER 378514, CHICAGO, IL, 60637","Match","Non_Exact","700 E 61ST ST, CHICAGO, IL, 60637",616793661,"L"
815377,"700 E 6TH AVE","HUTCHINSON","KS",67501,38.0595132650001,-97.917340918,377,"700 E 6TH AVE, HUTCHINSON, KS, 67501","Match","Exact","700 E 6TH AVE, HUTCHINSON, KS, 67501",142934532,"R"
815378,"700 E 6TH STREET","WILMINGTON","DE",19801,39.738845122,-75.5428208289999,378,"700 E 6TH STREET, WILMINGTON, DE, 19801","Match","Exact","700 E 6TH ST, WILMINGTON, DE, 19801",187259198,"R"
815379,"700 E 70TH ST","LONG BEACH","CA",90805,33.881825034,-118.183851438,379,"700 E 70TH ST, LONG BEACH, CA, 90805","Match","Exact","700 E 70TH ST, LONG BEACH, CA, 90805",141683849,"R"
815380,"700 E 9TH ST APT 5D","LITTLE ROCK","AR",72202,34.73954135,-92.2640262419999,380,"700 E 9TH ST APT 5D, LITTLE ROCK, AR, 72202","Match","Non_Exact","700 E 9TH ST, LITTLE ROCK, AR, 72202",83564532,"L"
815381,"700 E 9TH STREET","LITTLE ROCK","AR",72202,34.73954135,-92.2640262419999,381,"700 E 9TH STREET, LITTLE ROCK, AR, 72202","Match","Exact","700 E 9TH ST, LITTLE ROCK, AR, 72202",83564532,"L"
815382,"700 E ASH LANE","EULESS","TX",76039,32.858872111,-97.072582435,382,"700 E ASH LANE, EULESS, TX, 76039","Match","Exact","700 E ASH LN, EULESS, TX, 76039",102143789,"R"
815383,"700 E ASH LN UNIT 9104","EULESS","TX",76039,NA,NA,383,"700 E ASH LN UNIT 9104, EULESS, TX, 76039","Tie",NA,NA,NA,NA
815384,"700 E ASH","EULESS","TX",76039,32.858872111,-97.072582435,384,"700 E ASH, EULESS, TX, 76039","Match","Non_Exact","700 E ASH LN, EULESS, TX, 76039",102143789,"R"
815385,"700 E BROADWAY ST","PIERRE","SD",57501,NA,NA,385,"700 E BROADWAY ST, PIERRE, SD, 57501","No_Match",NA,NA,NA,NA
815386,"700 E BROADWAY","MONMOUTH","IL",61462,40.9119000650001,-90.640677037,386,"700 E BROADWAY, MONMOUTH, IL, 61462","Match","Exact","700 E BROADWAY, MONMOUTH, IL, 61462",5502017,"R"
815387,"700 E BUTLER AVE","DOYLESTOWN","PA",18901,NA,NA,387,"700 E BUTLER AVE, DOYLESTOWN, PA, 18901","No_Match",NA,NA,NA,NA
815388,"700 E CHERRY","MOUNT VERNON","MO",65712,37.100086897,-93.810366766,388,"700 E CHERRY, MOUNT VERNON, MO, 65712","Match","Non_Exact","700 E CHERRY ST, MOUNT VERNON, MO, 65712",99858370,"L"
815389,"700 E DENNY WAY UNIT 211","SEATTLE","WA",98122,47.6185573130001,-122.323411795,389,"700 E DENNY WAY UNIT 211, SEATTLE, WA, 98122","Match","Non_Exact","700 E DENNY WAY, SEATTLE, WA, 98122",652989632,"L"
815390,"700 E DIVINE ST","DUNN","NC",28334,35.3029220770001,-78.6053317019999,390,"700 E DIVINE ST, DUNN, NC, 28334","Match","Exact","700 E DIVINE ST, DUNN, NC, 28334",71964142,"L"
815391,"700 E DOLAN DRIVE","GRIMES","IA",50111,41.683367747,-93.787263033,391,"700 E DOLAN DRIVE, GRIMES, IA, 50111","Match","Exact","700 DOLAN DR, GRIMES, IA, 50111",65801451,"R"
815392,"700 E FIRMIN ST STE 150","KOKOMO","IN",46902,NA,NA,392,"700 E FIRMIN ST STE 150, KOKOMO, IN, 46902","Tie",NA,NA,NA,NA
815393,"700 E FIRMIN STREET SUITE 112","KOKOMO","IN",46903,NA,NA,393,"700 E FIRMIN STREET SUITE 112, KOKOMO, IN, 46903","No_Match",NA,NA,NA,NA
815394,"700 E FOREST ST","BELLE PLAINE","MN",56011,44.627122286,-93.7587966039999,394,"700 E FOREST ST, BELLE PLAINE, MN, 56011","Match","Exact","700 E FOREST ST, BELLE PLAINE, MN, 56011",38148210,"L"
815395,"700 E FRANKLIN ST A218","RICHMOND","VA",23219,37.5401098900001,-77.437207722,395,"700 E FRANKLIN ST A218, RICHMOND, VA, 23219","Match","Non_Exact","700 E FRANKLIN ST, RICHMOND, VA, 23219",201540548,"L"
815396,"700 E FRANKLIN ST APT A212","RICHMOND","VA",23219,37.5401098900001,-77.437207722,396,"700 E FRANKLIN ST APT A212, RICHMOND, VA, 23219","Match","Non_Exact","700 E FRANKLIN ST, RICHMOND, VA, 23219",201540548,"L"
815397,"700 E FRANKLIN ST APT A415","RICHMOND","VA",23219,37.5401098900001,-77.437207722,397,"700 E FRANKLIN ST APT A415, RICHMOND, VA, 23219","Match","Non_Exact","700 E FRANKLIN ST, RICHMOND, VA, 23219",201540548,"L"
815398,"700 E FRITZ AVENUE","LADYSMITH","WI",54848,NA,NA,398,"700 E FRITZ AVENUE, LADYSMITH, WI, 54848","Tie",NA,NA,NA,NA
815399,"700 E GARDENA BOULEVARD","CARSON","CA",90746,33.882432576,-118.262270272,399,"700 E GARDENA BOULEVARD, CARSON, CA, 90746","Match","Exact","700 E GARDENA BLVD, CARSON, CA, 90746",241250831,"R"
815400,"700 E GRAVES AVE","MONTEREY PARK","CA",91755,34.0553109680001,-118.112244272,400,"700 E GRAVES AVE, MONTEREY PARK, CA, 91755","Match","Exact","700 E GRAVES AVE, MONTEREY PARK, CA, 91755",141640295,"R"
815401,"700 E GREEN","LLANO","TX",78643,30.7453478250001,-98.669095404,401,"700 E GREEN, LLANO, TX, 78643","Match","Non_Exact","700 E GREEN ST, LLANO, TX, 78643",182244951,"R"
815402,"700 E HIAWATHA BLVD","SHELTON","WA",98584,47.2409502340001,-123.094646054,402,"700 E HIAWATHA BLVD, SHELTON, WA, 98584","Match","Exact","700 E HIAWATHA BLVD, SHELTON, WA, 98584",180868357,"L"
815403,"700 E IMPERIAL HWY","LOS ANGELES","CA",90059,33.9310255610001,-118.261853609,403,"700 E IMPERIAL HWY, LOS ANGELES, CA, 90059","Match","Exact","700 IMPERIAL HWY, LOS ANGELES, CA, 90059",141673193,"R"
815404,"700 E KAHLER ROAD","WILMINGTON","IL",60481,41.2983290720001,-88.135202485,404,"700 E KAHLER ROAD, WILMINGTON, IL, 60481","Match","Non_Exact","700 W KAHLER RD, WILMINGTON, IL, 60481",111593117,"L"
815405,"700 E LAKE DRIVE UNIT 58","ORANGE","CA",92866,33.7777575470001,-117.846522728,405,"700 E LAKE DRIVE UNIT 58, ORANGE, CA, 92866","Match","Non_Exact","700 E LAKE DR, ORANGE, CA, 92866",144051580,"L"
815406,"700 E MAIN ST 2487","RICHMOND","VA",23219,37.5392532910001,-77.4380271749999,406,"700 E MAIN ST 2487, RICHMOND, VA, 23219","Match","Non_Exact","700 E MAIN ST, RICHMOND, VA, 23219",201540557,"L"
815407,"700 E MARKET ST","SINTON","TX",78387,28.03773628,-97.503112592,407,"700 E MARKET ST, SINTON, TX, 78387","Match","Exact","700 E MARKET ST, SINTON, TX, 78387",36321173,"L"
815408,"700 E MINGUS AVE","COTTONWOOD","AZ",86326,34.739546659,-112.020382566,408,"700 E MINGUS AVE, COTTONWOOD, AZ, 86326","Match","Exact","700 E MINGUS AVE, COTTONWOOD, AZ, 86326",159517338,"R"
815409,"700 E MNGUS AVE","COTTONWOOD","AZ",86326,NA,NA,409,"700 E MNGUS AVE, COTTONWOOD, AZ, 86326","No_Match",NA,NA,NA,NA
815410,"700 E NEW YORK STREET","KNOX","IN",46534,41.293949959,-86.615984034,410,"700 E NEW YORK STREET, KNOX, IN, 46534","Match","Exact","700 E NEW YORK ST, KNOX, IN, 46534",8250666,"L"
815411,"700 E OCEAN BLVD UNIT 1504","LONG BEACH","CA",90802,33.766254845,-118.184076224,411,"700 E OCEAN BLVD UNIT 1504, LONG BEACH, CA, 90802","Match","Non_Exact","700 E OCEAN BLVD, LONG BEACH, CA, 90802",141695125,"R"
815412,"700 E REDLANDS BLVD STE U-244","REDLANDS","CA",92373,34.0500460270001,-117.171036229,412,"700 E REDLANDS BLVD STE U-244, REDLANDS, CA, 92373","Match","Exact","700 REDLANDS BLVD, REDLANDS, CA, 92373",144664769,"R"
815413,"700 E REDLANDS BLVD STE U176","REDLANDS","CA",92373,34.0500460270001,-117.171036229,413,"700 E REDLANDS BLVD STE U176, REDLANDS, CA, 92373","Match","Exact","700 REDLANDS BLVD, REDLANDS, CA, 92373",144664769,"R"
815414,"700 E REDLANDS BLVD STE U709","REDLANDS","CA",92373,34.0500460270001,-117.171036229,414,"700 E REDLANDS BLVD STE U709, REDLANDS, CA, 92373","Match","Exact","700 REDLANDS BLVD, REDLANDS, CA, 92373",144664769,"R"
815415,"700 E REDLANDS BLVD SUITE U-622","REDLANDS","CA",92373,34.0500460270001,-117.171036229,415,"700 E REDLANDS BLVD SUITE U-622, REDLANDS, CA, 92373","Match","Exact","700 REDLANDS BLVD, REDLANDS, CA, 92373",144664769,"R"
815416,"700 E REDLANDS BLVD SUITE U293","REDLANDS","CA",92373,34.0500460270001,-117.171036229,416,"700 E REDLANDS BLVD SUITE U293, REDLANDS, CA, 92373","Match","Exact","700 REDLANDS BLVD, REDLANDS, CA, 92373",144664769,"R"
815417,"700 E REDLANDS BLVD","REDLANDS","CA",92373,NA,NA,417,"700 E REDLANDS BLVD, REDLANDS, CA, 92373","Tie",NA,NA,NA,NA
815418,"700 E REDLANDS SUITE U131","REDLANDS","CA",92373,34.0500460270001,-117.171036229,418,"700 E REDLANDS SUITE U131, REDLANDS, CA, 92373","Match","Non_Exact","700 REDLANDS BLVD, REDLANDS, CA, 92373",144664769,"R"
815419,"700 E REDLANDS SUITE U131","REDLANDS","CA",NA,34.0500460270001,-117.171036229,419,"700 E REDLANDS SUITE U131, REDLANDS, CA, ","Match","Non_Exact","700 REDLANDS BLVD, REDLANDS, CA, 92373",144664769,"R"
815420,"700 E RODEO RD APT 323","CASA GRANDE","AZ",85122,32.923413813,-111.744930858,420,"700 E RODEO RD APT 323, CASA GRANDE, AZ, 85122","Match","Non_Exact","700 E RODEO RD, CASA GRANDE, AZ, 85122",630234305,"R"
815421,"700 E ROTH ROAD","LATHROP","CA",95330,NA,NA,421,"700 E ROTH ROAD, LATHROP, CA, 95330","No_Match",NA,NA,NA,NA
815422,"700 E SD HWY 46","WAGNER","SD",57380,43.0815872470001,-98.2811327059999,422,"700 E SD HWY 46, WAGNER, SD, 57380","Match","Non_Exact","700 E HWY 46, WAGNER, SD, 57380",647762207,"L"
815423,"700 E SHELTON RD","BOONVILLE","IN",47601,38.091051862,-87.254380582,423,"700 E SHELTON RD, BOONVILLE, IN, 47601","Match","Non_Exact","700 W SHELTON RD, BOONVILLE, IN, 47601",32215080,"R"
815424,"700 E STANFORD","SPRINGFIELD","IL",62703,39.766762596,-89.6470485629999,424,"700 E STANFORD, SPRINGFIELD, IL, 62703","Match","Non_Exact","700 E STANFORD AVE, SPRINGFIELD, IL, 62703",97327038,"R"
815425,"700 E TAFT AVE 25","ORANGE","CA",92865,NA,NA,425,"700 E TAFT AVE 25, ORANGE, CA, 92865","Tie",NA,NA,NA,NA
815426,"700 E TEMPLE ST","LOS ANGELES","CA",90012,34.050198246,-118.233413741,426,"700 E TEMPLE ST, LOS ANGELES, CA, 90012","Match","Exact","700 E TEMPLE ST, LOS ANGELES, CA, 90012",141618491,"R"
815427,"700 E TURKEY ROAD","ATOKA","OK",74525,NA,NA,427,"700 E TURKEY ROAD, ATOKA, OK, 74525","No_Match",NA,NA,NA,NA
815428,"700 E WASHINGTON ST","MEDINA","OH",44256,41.1381399850001,-81.851353825,428,"700 E WASHINGTON ST, MEDINA, OH, 44256","Match","Exact","700 E WASHINGTON ST, MEDINA, OH, 44256",58676483,"R"
815429,"700 E WASHINGTON STREET SPACE 233","COLTON","CA",92324,34.046901357,-117.317453912,429,"700 E WASHINGTON STREET SPACE 233, COLTON, CA, 92324","Match","Non_Exact","700 E WASHINGTON ST, COLTON, CA, 92324",612459196,"L"
815430,"700 EAGLE FORK ROAD","HAYESVILLE","NC",28904,35.0196464380001,-83.651370229,430,"700 EAGLE FORK ROAD, HAYESVILLE, NC, 28904","Match","Exact","700 EAGLE FORK RD, HAYESVILLE, NC, 28904",636545513,"L"
815431,"700 EAGLE ROAD","KINSTON","NC",28501,35.2681216010001,-77.558105799,431,"700 EAGLE ROAD, KINSTON, NC, 28501","Match","Exact","700 EAGLE RD, KINSTON, NC, 28501",13877277,"L"
815432,"700 EAGLES MERE CT","ALPHARETTA","GA",30005,34.073242291,-84.2246360409999,432,"700 EAGLES MERE CT, ALPHARETTA, GA, 30005","Match","Exact","700 EAGLES MERE CT, ALPHARETTA, GA, 30005",17404570,"L"
815433,"700 EAST 159TH STREET","CLEVELAND","OH",44110,41.561799847,-81.569924126,433,"700 EAST 159TH STREET, CLEVELAND, OH, 44110","Match","Exact","700 E 159TH ST, CLEVELAND, OH, 44110",61121216,"R"
815434,"700 EAST 19TH STREET","CHEYENNE","WY",82001,41.1383639860001,-104.809100555,434,"700 EAST 19TH STREET, CHEYENNE, WY, 82001","Match","Exact","700 E 19TH ST, CHEYENNE, WY, 82001",160149945,"L"
815435,"700 EAST 22ND","CHEYENNE","WY",82001,41.1410155200001,-104.810829917,435,"700 EAST 22ND, CHEYENNE, WY, 82001","Match","Non_Exact","700 E 22ND ST, CHEYENNE, WY, 82001",160149442,"L"
815436,"700 EAST 8TH STREET","KANSAS CITY","MO",64106,39.104243701,-94.5752288689999,436,"700 EAST 8TH STREET, KANSAS CITY, MO, 64106","Match","Exact","700 E 8TH ST, KANSAS CITY, MO, 64106",91445410,"L"
815437,"700 EAST ANGELINA","PALESTINE","TX",75801,31.7556007650001,-95.622354967,437,"700 EAST ANGELINA, PALESTINE, TX, 75801","Match","Non_Exact","700 E ANGELINA ST, PALESTINE, TX, 75801",74653814,"L"
815438,"700 EAST ASH LANE 5206","EULESS","MO",76039,NA,NA,438,"700 EAST ASH LANE 5206, EULESS, MO, 76039","No_Match",NA,NA,NA,NA
815439,"700 EAST ASH LANE APT 5206","EULESS","TX",76039,32.858871874,-97.072585822,439,"700 EAST ASH LANE APT 5206, EULESS, TX, 76039","Match","Exact","700 E ASH LN, EULESS, TX, 76039",102143789,"R"
815440,"700 EAST ATLANTIC BLVD","POMPANO","FL",33060,26.231562825,-80.116521002,440,"700 EAST ATLANTIC BLVD, POMPANO, FL, 33060","Match","Non_Exact","700 E ATLANTIC BLVD, POMPANO BEACH, FL, 33060",637071853,"R"
815441,"700 EAST COMMON","NEW BRAUNFELS","TX",78130,29.7131725830001,-98.113354789,441,"700 EAST COMMON, NEW BRAUNFELS, TX, 78130","Match","Non_Exact","700 E COMMON ST, NEW BRAUNFELS, TX, 78130",72253421,"R"
815442,"700 EAST FOREST STREET","BELLE PLAINE","MN",56011,44.627122586,-93.7588225119999,442,"700 EAST FOREST STREET, BELLE PLAINE, MN, 56011","Match","Exact","700 E FOREST ST, BELLE PLAINE, MN, 56011",38148210,"L"
815443,"700 EAST FRANKLILN STREET","RICHMOND","VA",23219,NA,NA,443,"700 EAST FRANKLILN STREET, RICHMOND, VA, 23219","No_Match",NA,NA,NA,NA
815444,"700 EAST FRANKLIN STREET APT A405","RICHMOND","VA",23219,37.5401098900001,-77.437207722,444,"700 EAST FRANKLIN STREET APT A405, RICHMOND, VA, 23219","Match","Exact","700 E FRANKLIN ST, RICHMOND, VA, 23219",201540548,"L"
815445,"700 EAST JEFFERSON STREET","WAXAHACHIE","TX",75165,32.381198151,-96.840800905,445,"700 EAST JEFFERSON STREET, WAXAHACHIE, TX, 75165","Match","Exact","700 E JEFFERSON ST, WAXAHACHIE, TX, 75165",103451310,"L"
815446,"700 EAST JOPPA ROAD","TOWSON","MD",21286,39.4000136660001,-76.5900709539999,446,"700 EAST JOPPA ROAD, TOWSON, MD, 21286","Match","Exact","700 E JOPPA RD, TOWSON, MD, 21286",191540175,"L"
815447,"700 EAST MAIN STREET","GRASS VALLEY","CA",95945,39.2251835000001,-121.05398729,447,"700 EAST MAIN STREET, GRASS VALLEY, CA, 95945","Match","Exact","700 E MAIN ST, GRASS VALLEY, CA, 95945",635458292,"L"
815448,"700 EAST MARSHALL STREET APT C-104","WEST CHESTER","PA",19380,39.9724958470001,-75.600574223,448,"700 EAST MARSHALL STREET APT C-104, WEST CHESTER, PA, 19380","Match","Exact","700 E MARSHALL ST, WEST CHESTER, PA, 19380",179521047,"R"
815449,"700 EAST PLEASANT LANE","LOMBARD","IL",60148,41.8970795720001,-88.002024784,449,"700 EAST PLEASANT LANE, LOMBARD, IL, 60148","Match","Exact","700 E PLEASANT LN, LOMBARD, IL, 60148",112524525,"L"
815450,"700 EAST REDLANDS BLVD SUITE U-351","REDLANDS","CA",92373,34.0545483010001,-117.174949476,450,"700 EAST REDLANDS BLVD SUITE U-351, REDLANDS, CA, 92373","Match","Exact","700 E REDLANDS BLVD, REDLANDS, CA, 92373",144664509,"R"
815451,"700 EAST RIDGE ROAD","NORTHFIELD","MN",55057,44.441624147,-93.150698411,451,"700 EAST RIDGE ROAD, NORTHFIELD, MN, 55057","Match","Non_Exact","700 E RIDGE DR, NORTHFIELD, MN, 55057",640622097,"R"
815452,"700 EAST RIDGE STREET","HARPERS FERRY","WV",25425,39.3264126930001,-77.739419401,452,"700 EAST RIDGE STREET, HARPERS FERRY, WV, 25425","Match","Exact","700 E RIDGE ST, HARPERS FERRY, WV, 25425",635728008,"R"
815453,"700 EAST","COMMON","TX",78130,NA,NA,453,"700 EAST, COMMON, TX, 78130","No_Match",NA,NA,NA,NA
815454,"700 EDISON","ANTIGO","WI",54409,45.1420990620001,-89.156206718,454,"700 EDISON, ANTIGO, WI, 54409","Match","Non_Exact","700 EDISON ST, ANTIGO, WI, 54409",196401717,"L"
815455,"700 EL CAMINO REAL SUITE 120 1001","MENLO PARK","CA",94025,NA,NA,455,"700 EL CAMINO REAL SUITE 120 1001, MENLO PARK, CA, 94025","No_Match",NA,NA,NA,NA
815456,"700 ELDON DRIVE","LINCOLN","NE",68510,40.8074345100001,-96.639888129,456,"700 ELDON DRIVE, LINCOLN, NE, 68510","Match","Exact","700 ELDON DR, LINCOLN, NE, 68510",28258782,"L"
815457,"700 ELKINS AVE E2","ELKINS PARK","PA",19027,40.076152844,-75.13194864,457,"700 ELKINS AVE E2, ELKINS PARK, PA, 19027","Match","Exact","700 ELKINS AVE, ELKINS PARK, PA, 19027",135130623,"R"
815458,"700 ELLEN WAY APT 205","ACWORTH","GA",30102,34.0976515900001,-84.57898742,458,"700 ELLEN WAY APT 205, ACWORTH, GA, 30102","Match","Exact","700 ELLEN WAY, ACWORTH, GA, 30102",641973615,"R"
815459,"700 ELMHURST RD","DAYTON","OH",45417,39.755645873,-84.259210393,459,"700 ELMHURST RD, DAYTON, OH, 45417","Match","Exact","700 ELMHURST RD, DAYTON, OH, 45417",143566564,"R"
815460,"700 EMERALD DR","JASPER","TX",75951,30.8895137320001,-94.049662209,460,"700 EMERALD DR, JASPER, TX, 75951","Match","Exact","700 EMERALD DR, JASPER, TX, 75951",32383235,"L"
815461,"700 ERICKSON COURT","SAUK RAPIDS","MN",56379,45.6103861880001,-94.169154051,461,"700 ERICKSON COURT, SAUK RAPIDS, MN, 56379","Match","Exact","700 ERICKSON CT, SAUK RAPIDS, MN, 56379",167365429,"R"
815462,"700 EVERETT ST","RICHMOND","VA",23224,37.52069348,-77.437947349,462,"700 EVERETT ST, RICHMOND, VA, 23224","Match","Exact","700 EVERETT ST, RICHMOND, VA, 23224",201542705,"L"
815463,"700 EXCHANGE ST","ROCHESTER","NY",14608,43.1410260110001,-77.617937274,463,"700 EXCHANGE ST, ROCHESTER, NY, 14608","Match","Exact","700 EXCHANGE ST, ROCHESTER, NY, 14608",638057355,"L"
815464,"700 FAIRBANKS ST","FAIRBANKS","AK",99709,64.8478814850001,-147.829608842,464,"700 FAIRBANKS ST, FAIRBANKS, AK, 99709","Match","Exact","700 FAIRBANKS ST, FAIRBANKS, AK, 99709",190892021,"R"
815465,"700 FAIRFIELD RD","PLYMOUTH MEETING","PA",19462,40.1133445030001,-75.3214696319999,465,"700 FAIRFIELD RD, PLYMOUTH MEETING, PA, 19462","Match","Exact","700 FAIRFIELD RD, PLYMOUTH MEETING, PA, 19462",135083551,"R"
815466,"700 FAIRMOUNT AV","CHATHAM","NJ",7928,40.7091328170001,-74.425804494,466,"700 FAIRMOUNT AV, CHATHAM, NJ, 7928","Match","Exact","700 FAIRMOUNT AVE, CHATHAM, NJ, 07928",60449967,"R"
815467,"700 FAIRWAY LANE","ABERDEEN","WA",98502,46.966522093,-123.728138151,467,"700 FAIRWAY LANE, ABERDEEN, WA, 98502","Match","Non_Exact","700 FAIRWAY LN, ABERDEEN, WA, 98520",180641768,"L"
815468,"700 FARBEN DR","DIAMOND BAR","CA",91765,34.012562899,-117.807996473,468,"700 FARBEN DR, DIAMOND BAR, CA, 91765","Match","Exact","700 FARBEN DR, DIAMOND BAR, CA, 91765",141730716,"L"
815469,"700 FARGO AVE UNIT 9","SAN LEANDRO","CA",94579,37.68800005,-122.140555112,469,"700 FARGO AVE UNIT 9, SAN LEANDRO, CA, 94579","Match","Exact","700 FARGO AVE, SAN LEANDRO, CA, 94579",125013155,"L"
815470,"700 FARMINGTON AVENUE UNIT 15","POTTSTOWN","PA",19464,40.2586897460001,-75.645086395,470,"700 FARMINGTON AVENUE UNIT 15, POTTSTOWN, PA, 19464","Match","Exact","700 FARMINGTON AVE, POTTSTOWN, PA, 19464",135131639,"R"
815471,"700 FEATHER PL","MALABAR","FL",32950,27.9571927220001,-80.606584832,471,"700 FEATHER PL, MALABAR, FL, 32950","Match","Exact","700 FEATHER PL, MALABAR, FL, 32950",93958607,"R"
815472,"700 FEGANS PATH","COLLEYVILLE","TX",76034,32.9079096200001,-97.158556103,472,"700 FEGANS PATH, COLLEYVILLE, TX, 76034","Match","Exact","700 FEGANS PATH, COLLEYVILLE, TX, 76034",618241773,"L"
815473,"700 FIFTH STREET NW STE 200","WASHINGTON","CA",20001,NA,NA,473,"700 FIFTH STREET NW STE 200, WASHINGTON, CA, 20001","No_Match",NA,NA,NA,NA
815474,"700 FIRST STREET APT 9M","HOBOKEN","NJ",7030,40.7393776050001,-74.0420598809999,474,"700 FIRST STREET APT 9M, HOBOKEN, NJ, 7030","Match","Exact","700 1ST ST, HOBOKEN, NJ, 07030",59605452,"R"
815475,"700 FLAGSTAFF ROAD","BOULDER","CO",80302,40.0002082250001,-105.29051552,475,"700 FLAGSTAFF ROAD, BOULDER, CO, 80302","Match","Exact","700 FLAGSTAFF RD, BOULDER, CO, 80302",220749619,"R"
815476,"700 FOREST GLEN DR  32","PALATKA","FL",32177,29.6423290820001,-81.688826819,476,"700 FOREST GLEN DR  32, PALATKA, FL, 32177","Match","Exact","700 FOREST GLEN DR, PALATKA, FL, 32177",646536401,"R"
815477,"700 FOREST GLEN DR APT 26","PALATKA","FL",32177,29.6423290820001,-81.688826819,477,"700 FOREST GLEN DR APT 26, PALATKA, FL, 32177","Match","Exact","700 FOREST GLEN DR, PALATKA, FL, 32177",646536401,"R"
815478,"700 FOREST HILLS DRIVE","HENDERSON","NC",27537,36.3511738770001,-78.434996317,478,"700 FOREST HILLS DRIVE, HENDERSON, NC, 27537","Match","Exact","700 FOREST HILLS DR, HENDERSON, NC, 27537",90279021,"R"
815479,"700 FOREST","WEST CHICAGO","IL",60185,NA,NA,479,"700 FOREST, WEST CHICAGO, IL, 60185","No_Match",NA,NA,NA,NA
815480,"700 FORREST AVENUE APT 607","GADSDEN","AL",35901,34.014992218,-86.008267686,480,"700 FORREST AVENUE APT 607, GADSDEN, AL, 35901","Match","Exact","700 FORREST AVE, GADSDEN, AL, 35901",66794155,"L"
815481,"700 FOURTH STREET - APT Q22","ATHENS","GA",30601,33.9720494220001,-83.358306773,481,"700 FOURTH STREET - APT Q22, ATHENS, GA, 30601","Match","Exact","700 4TH ST, ATHENS, GA, 30601",642887976,"R"
815482,"700 FOURTH STREET APT R23","ATHENS","GA",30601,33.9720494220001,-83.358306773,482,"700 FOURTH STREET APT R23, ATHENS, GA, 30601","Match","Exact","700 4TH ST, ATHENS, GA, 30601",642887976,"R"
815483,"700 FOX HILL DR","EDMOND","OK",73034,35.6466458670001,-97.4332104809999,483,"700 FOX HILL DR, EDMOND, OK, 73034","Match","Exact","700 FOX HILL DR, EDMOND, OK, 73034",100436336,"R"
815484,"700 FOX ST","SAN ANTONIO","TX",78223,29.373328842,-98.4286030599999,484,"700 FOX ST, SAN ANTONIO, TX, 78223","Match","Exact","700 FOX ST, SAN ANTONIO, TX, 78223",101535347,"R"
815485,"700 FRANCES CT APT6","SUN PRAIRIE","WI",53590,43.177099582,-89.2245521419999,485,"700 FRANCES CT APT6, SUN PRAIRIE, WI, 53590","Match","Exact","700 FRANCES CT, SUN PRAIRIE, WI, 53590",49479039,"L"
815486,"700 FRANKLIN TPK","ALLENDALE","NJ",7401,41.038885597,-74.1285177399999,486,"700 FRANKLIN TPK, ALLENDALE, NJ, 7401","Match","Exact","700 FRANKLIN TPKE, ALLENDALE, NJ, 07401",625417837,"R"
815487,"700 FULLERTON AVE","BUFFALO","WY",82834,NA,NA,487,"700 FULLERTON AVE, BUFFALO, WY, 82834","No_Match",NA,NA,NA,NA
815488,"700 GALAHAD","TROY","IL",62294,38.720165319,-89.879724257,488,"700 GALAHAD, TROY, IL, 62294","Match","Non_Exact","700 GALAHAD LN, TROY, IL, 62294",107695123,"L"
815489,"700 GALLATIN ST NW","WASHINGTON","DC",20011,38.952011827,-77.02217066,489,"700 GALLATIN ST NW, WASHINGTON, DC, 20011","Match","Exact","700 GALLATIN ST NW, WASHINGTON, DC, 20011",76223395,"L"
815490,"700 GARLAND ST","LAKEWOOD","CO",80215,39.7276444760001,-105.101823396,490,"700 GARLAND ST, LAKEWOOD, CO, 80215","Match","Exact","700 GARLAND ST, LAKEWOOD, CO, 80215",177318895,"R"
815491,"700 GATES AVENUE 4B","BROOKLYN","NY",11221,40.687831999,-73.936512563,491,"700 GATES AVENUE 4B, BROOKLYN, NY, 11221","Match","Exact","700 GATES AVE, BROOKLYN, NY, 11221",59079249,"R"
815492,"700 GEORGE HOPPER ROAD","MIDLOTHIAN","TX",76065,32.474955105,-96.9868039579999,492,"700 GEORGE HOPPER ROAD, MIDLOTHIAN, TX, 76065","Match","Exact","700 GEORGE HOPPER RD, MIDLOTHIAN, TX, 76065",646245462,"L"
815493,"700 GIBSON ROAD 1022","ROSEVILLE","CA",95678,38.7802416330001,-121.282775643,493,"700 GIBSON ROAD 1022, ROSEVILLE, CA, 95678","Match","Non_Exact","700 GIBSON DR, ROSEVILLE, CA, 95678",106820014,"L"
815494,"700 GINGER MILL DRIVE","ST JOHNS","FL",32259,NA,NA,494,"700 GINGER MILL DRIVE, ST JOHNS, FL, 32259","No_Match",NA,NA,NA,NA
815495,"700 GLADESTONE COURT STE100","GRETNA","LA",70056,NA,NA,495,"700 GLADESTONE COURT STE100, GRETNA, LA, 70056","No_Match",NA,NA,NA,NA
815496,"700 GLADSTONE DR  103","GRETNA","LA",70056,NA,NA,496,"700 GLADSTONE DR  103, GRETNA, LA, 70056","No_Match",NA,NA,NA,NA
815497,"700 GLEN ELLEN CIRCLE","NORMAN","OK",73071,35.228967073,-97.420215152,497,"700 GLEN ELLEN CIRCLE, NORMAN, OK, 73071","Match","Exact","700 GLEN ELLEN CIR, NORMAN, OK, 73071",619257182,"R"
815498,"700 GLENN ECHO TRAIL","WINSTON SALEM","NC",27106,36.10892347,-80.296392388,498,"700 GLENN ECHO TRAIL, WINSTON SALEM, NC, 27106","Match","Non_Exact","700 GLEN ECHO TRL, WINSTON SALEM, NC, 27106",84604044,"L"
815499,"700 GLENPARK LN","MIDLOTHIAN","VA",23114,37.48832452,-77.6402758569999,499,"700 GLENPARK LN, MIDLOTHIAN, VA, 23114","Match","Exact","700 GLENPARK LN, MIDLOTHIAN, VA, 23114",201529143,"L"
815500,"700 GLORY RD NW","CARROLLTON","OH",44615,40.5847786030001,-81.130392935,500,"700 GLORY RD NW, CARROLLTON, OH, 44615","Match","Exact","700 GLORY RD NW, CARROLLTON, OH, 44615",624043940,"R"
