"ID","Address","City","State","Zip","lat","long","id","input_address","match_indicator","match_type","matched_address","tiger_line_id","tiger_side"
245001,"17 RUSTIC ROAD","HIGHLAND LAKES","NJ",7422,41.2006770400001,-74.428752512,1,"17 RUSTIC ROAD, HIGHLAND LAKES, NJ, 7422","Match","Exact","17 RUSTIC RD, HIGHLAND LAKES, NJ, 07422",98012068,"L"
245002,"17 RUTGERS PLACE","SCARSDALE","NY",10583,40.9757138250001,-73.81097238,2,"17 RUTGERS PLACE, SCARSDALE, NY, 10583","Match","Exact","17 RUTGERS PL, SCARSDALE, NY, 10583",139739869,"L"
245003,"17 RYAN AVENUE","NORWALK","CT",6854,41.08056808,-73.426335524,3,"17 RYAN AVENUE, NORWALK, CT, 6854","Match","Exact","17 RYAN AVE, NORWALK, CT, 06854",3250451,"L"
245004,"17 RYMON ROAD","WASHINGTON","NJ",7882,40.7364953790001,-74.99814119,4,"17 RYMON ROAD, WASHINGTON, NJ, 7882","Match","Exact","17 RYMON RD, WASHINGTON, NJ, 07882",636219250,"L"
245005,"17 S 4TH STREET","DARBY","PA",19023,39.9164244770001,-75.2530411509999,5,"17 S 4TH STREET, DARBY, PA, 19023","Match","Exact","17 S 4TH ST, DARBY, PA, 19023",134886653,"L"
245006,"17 S ALHAMBRA LANE","PORT SAINT LUCIE","FL",34952,NA,NA,6,"17 S ALHAMBRA LANE, PORT SAINT LUCIE, FL, 34952","No_Match",NA,NA,NA,NA
245007,"17 S BODIN ST","HINSDALE","IL",60521,41.8030237450001,-87.9405314689999,7,"17 S BODIN ST, HINSDALE, IL, 60521","Match","Exact","17 BODIN ST, HINSDALE, IL, 60521",112549692,"L"
245008,"17 S FLOYD ST","ALEXANDRIA","VA",22304,38.8097516650001,-77.099656366,8,"17 S FLOYD ST, ALEXANDRIA, VA, 22304","Match","Exact","17 S FLOYD ST, ALEXANDRIA, VA, 22304",75986979,"R"
245009,"17 S GIBBONS AVENUE","ARLINGTON HEIGHTS","IL",60004,42.081685389,-87.96099544,9,"17 S GIBBONS AVENUE, ARLINGTON HEIGHTS, IL, 60004","Match","Exact","17 S GIBBONS AVE, ARLINGTON HEIGHTS, IL, 60004",111719403,"L"
245010,"17 S HAZEL CT","DENVER","CO",80204,NA,NA,10,"17 S HAZEL CT, DENVER, CO, 80204","Tie",NA,NA,NA,NA
245011,"17 S HIGH STREET STE 700","COLUMBUS","OH",43215,NA,NA,11,"17 S HIGH STREET STE 700, COLUMBUS, OH, 43215","Tie",NA,NA,NA,NA
245012,"17 S HIGH STREET SUITE 200","COLUMBUS","OH",43215,NA,NA,12,"17 S HIGH STREET SUITE 200, COLUMBUS, OH, 43215","Tie",NA,NA,NA,NA
245013,"17 S HIGHLAND AVE","LANSDOWNE","PA",19050,39.9383872820001,-75.270724026,13,"17 S HIGHLAND AVE, LANSDOWNE, PA, 19050","Match","Exact","17 S HIGHLAND AVE, LANSDOWNE, PA, 19050",134877931,"L"
245014,"17 S LANDON AVE","KINGSTON","PA",18704,41.258974815,-75.896201874,14,"17 S LANDON AVE, KINGSTON, PA, 18704","Match","Exact","17 S LANDON AVE, KINGSTON, PA, 18704",604525301,"R"
245015,"17 S MARBLE ST","STONEHAM","MA",2180,NA,NA,15,"17 S MARBLE ST, STONEHAM, MA, 2180","Tie",NA,NA,NA,NA
245016,"17 S OXFORD","INDIANAPOLIS","IN",46201,39.7680545580001,-86.115116202,16,"17 S OXFORD, INDIANAPOLIS, IN, 46201","Match","Non_Exact","17 S OXFORD ST, INDIANAPOLIS, IN, 46201",108000354,"L"
245017,"17 S SUMMIT AVE","NEWCASTLE","WY",82701,43.855373705,-104.201638145,17,"17 S SUMMIT AVE, NEWCASTLE, WY, 82701","Match","Exact","17 S SUMMIT AVE, NEWCASTLE, WY, 82701",636232835,"R"
245018,"17 S TRAIL RIDGE ROAD","EDMOND","OK",73012,35.6561685550001,-97.5168269439999,18,"17 S TRAIL RIDGE ROAD, EDMOND, OK, 73012","Match","Exact","17 S TRAIL RIDGE RD, EDMOND, OK, 73012",606125462,"R"
245019,"17 S WILSON BLVD","MOUNT CLEMONS","MI",48043,42.597099337,-82.8902498589999,19,"17 S WILSON BLVD, MOUNT CLEMONS, MI, 48043","Match","Non_Exact","17 WILSON BLVD, MOUNT CLEMENS, MI, 48043",110682532,"L"
245020,"17 SACKVILLE STREET","CHARLESTOWN","MA",2129,42.38086809,-71.064919538,20,"17 SACKVILLE STREET, CHARLESTOWN, MA, 2129","Match","Exact","17 SACKVILLE ST, CHARLESTOWN, MA, 02129",639000803,"R"
245021,"17 SAGAMORE ROAD - 3RD FLOOR","BRONXVILLE","NY",10708,40.9428942860001,-73.8335500809999,21,"17 SAGAMORE ROAD - 3RD FLOOR, BRONXVILLE, NY, 10708","Match","Exact","17 SAGAMORE RD, BRONXVILLE, NY, 10708",139746199,"L"
245022,"17 SAGE LANE","TONASKET","WA",98855,48.7543755470001,-119.425491238,22,"17 SAGE LANE, TONASKET, WA, 98855","Match","Non_Exact","17 SAGE RD, TONASKET, WA, 98855",157334145,"L"
245023,"17 SAINT ALBANS BOULEVARD","STAFFORD","VA",22556,38.4654542430001,-77.482968101,23,"17 SAINT ALBANS BOULEVARD, STAFFORD, VA, 22556","Match","Exact","17 SAINT ALBANS BLVD, STAFFORD, VA, 22556",25561739,"R"
245024,"17 SAINT JAMES PLACE - REAR","NEW  YORK","NY",10038,NA,NA,24,"17 SAINT JAMES PLACE - REAR, NEW  YORK, NY, 10038","Tie",NA,NA,NA,NA
245025,"17 SAINT JAMES PLACE - REAR","NEW YORK","NY",10038,NA,NA,25,"17 SAINT JAMES PLACE - REAR, NEW YORK, NY, 10038","Tie",NA,NA,NA,NA
245026,"17 SALANECK ROAD","DOUGLASSVILLE","PA",19518,40.2362569220001,-75.753863313,26,"17 SALANECK ROAD, DOUGLASSVILLE, PA, 19518","Match","Exact","17 SALANECK RD, DOUGLASSVILLE, PA, 19518",80431476,"L"
245027,"17 SALEM HILL ROAD","HOWELL","NJ",7731,40.1590262460001,-74.2150774259999,27,"17 SALEM HILL ROAD, HOWELL, NJ, 7731","Match","Exact","17 SALEM HILL RD, HOWELL, NJ, 07731",90450502,"R"
245028,"17 SALMON DROOK DRIVE","NASHUA","NH",3062,42.715516575,-71.480393678,28,"17 SALMON DROOK DRIVE, NASHUA, NH, 3062","Match","Non_Exact","17 SALMON BROOK DR, NASHUA, NH, 03062",113553512,"R"
245029,"17 SAMANTHAS WAY","WILTON","NH",3086,42.7988713780001,-71.751079892,29,"17 SAMANTHAS WAY, WILTON, NH, 3086","Match","Exact","17 SAMANTHAS WAY, WILTON, NH, 03086",113551530,"R"
245030,"17 SANLIHE ROAD","BEIJING",NA,NA,NA,NA,30,"17 SANLIHE ROAD, BEIJING, , ","No_Match",NA,NA,NA,NA
245031,"17 SANTORO RD","WORCESTER","MA",1606,42.3313691920001,-71.783564756,31,"17 SANTORO RD, WORCESTER, MA, 1606","Match","Exact","17 SANTORO RD, WORCESTER, MA, 01606",40065147,"L"
245032,"17 SARATOGA DRIVE","UXBRIDGE","MA",2814,NA,NA,32,"17 SARATOGA DRIVE, UXBRIDGE, MA, 2814","No_Match",NA,NA,NA,NA
245033,"17 SASSON TERRACE","VALLEY COTTAGE","NY",10989,41.131929121,-73.9428162789999,33,"17 SASSON TERRACE, VALLEY COTTAGE, NY, 10989","Match","Exact","17 SASSON TER, VALLEY COTTAGE, NY, 10989",124604111,"R"
245034,"17 SAVAGE STREET","CHARLESTON","SC",29401,32.7741863540001,-79.938812513,34,"17 SAVAGE STREET, CHARLESTON, SC, 29401","Match","Exact","17 SAVAGE ST, CHARLESTON, SC, 29401",647986823,"L"
245035,"17 SAWGRASS LN","BRENTWOOD","TN",37027,35.982780275,-86.739528036,35,"17 SAWGRASS LN, BRENTWOOD, TN, 37027","Match","Exact","17 SAWGRASS LN, BRENTWOOD, TN, 37027",631947868,"R"
245036,"17 SCATTERED OAK CT","WENTZVILLE","MO",63385,38.8439218400001,-90.769009543,36,"17 SCATTERED OAK CT, WENTZVILLE, MO, 63385","Match","Exact","17 SCATTERED OAK CT, WENTZVILLE, MO, 63385",605520169,"R"
245037,"17 SCHENCK LANE","SOMERSET","NJ",8873,40.532043361,-74.567024375,37,"17 SCHENCK LANE, SOMERSET, NJ, 8873","Match","Exact","17 SCHENCK LN, SOMERSET, NJ, 08873",649357577,"R"
245038,"17 SCHOOL AVENUE","CHATHAM","NJ",7928,40.7330774700001,-74.405301052,38,"17 SCHOOL AVENUE, CHATHAM, NJ, 7928","Match","Exact","17 SCHOOL AVE, CHATHAM, NJ, 07928",60450237,"L"
245039,"17 SCHUBERT STREET","BINGHAMTON","NY",13905,42.1006733020001,-75.932530044,39,"17 SCHUBERT STREET, BINGHAMTON, NY, 13905","Match","Exact","17 SCHUBERT ST, BINGHAMTON, NY, 13905",46341344,"L"
245040,"17 SCOOTER LANE","MIDLAND","GA",31820,32.602812269,-84.797628769,40,"17 SCOOTER LANE, MIDLAND, GA, 31820","Match","Non_Exact","17 SCOOTER DR, MIDLAND, GA, 31820",648306918,"L"
245041,"17 SCOTT WAY","PLYMOUTH","MA",2360,41.9225804000001,-70.550040426,41,"17 SCOTT WAY, PLYMOUTH, MA, 2360","Match","Non_Exact","17 SCOTT DR, PLYMOUTH, MA, 02360",636135098,"R"
245042,"17 SCRIBNER RD","STRAFFORD","NH",3884,43.2774953640001,-71.132326436,42,"17 SCRIBNER RD, STRAFFORD, NH, 3884","Match","Exact","17 SCRIBNER RD, STRAFFORD, NH, 03884",647315205,"L"
245043,"17 SCRUB OAK","ALISO VIEJO","CA",92656,33.585842837,-117.745380158,43,"17 SCRUB OAK, ALISO VIEJO, CA, 92656","Match","Exact","17 SCRUB OAK, ALISO VIEJO, CA, 92656",144398881,"R"
245044,"17 SEA GIRT LANE","WARETOWN","NJ",8758,39.780446521,-74.22024177,44,"17 SEA GIRT LANE, WARETOWN, NJ, 8758","Match","Exact","17 SEA GIRT LN, WARETOWN, NJ, 08758",617539941,"L"
245045,"17 SEABROOK LANE","STONY BROOK","NY",11790,40.89980596,-73.106361609,45,"17 SEABROOK LANE, STONY BROOK, NY, 11790","Match","Exact","17 SEABROOK LN, STONY BROOK, NY, 11790",114001349,"R"
245046,"17 SEAFILED LANE","TEQUESTA","FL",33469,NA,NA,46,"17 SEAFILED LANE, TEQUESTA, FL, 33469","No_Match",NA,NA,NA,NA
245047,"17 SECOND ST","ALBANY","NY",12210,42.657821126,-73.752386915,47,"17 SECOND ST, ALBANY, NY, 12210","Match","Exact","17 2ND ST, ALBANY, NY, 12210",18310433,"R"
245048,"17 SECOND STREET","ALBANY","NY",12210,42.657821126,-73.752386915,48,"17 SECOND STREET, ALBANY, NY, 12210","Match","Exact","17 2ND ST, ALBANY, NY, 12210",18310433,"R"
245049,"17 SECOND STREET","TIDIOUTE","PA",16351,41.68554829,-79.407119283,49,"17 SECOND STREET, TIDIOUTE, PA, 16351","Match","Exact","17 2ND ST, TIDIOUTE, PA, 16351",98682024,"R"
245050,"17 SEDGWICK AVE APT 7B","BRONX","NY",10453,NA,NA,50,"17 SEDGWICK AVE APT 7B, BRONX, NY, 10453","No_Match",NA,NA,NA,NA
245051,"17 SENTIMENT WAY","BARBOURSVILLE","WV",25504,38.4087522340001,-82.316545424,51,"17 SENTIMENT WAY, BARBOURSVILLE, WV, 25504","Match","Exact","17 SENTIMENT WAY, BARBOURSVILLE, WV, 25504",641533553,"R"
245052,"17 SEQUOIA STREET","LAKEWOOD","NJ",8701,40.075384726,-74.214924128,52,"17 SEQUOIA STREET, LAKEWOOD, NJ, 8701","Match","Exact","17 SEQUOIA ST, LAKEWOOD, NJ, 08701",641795056,"L"
245053,"17 SETTLERS RD","SHREWSBURY","MA",1545,42.313080923,-71.685985301,53,"17 SETTLERS RD, SHREWSBURY, MA, 1545","Match","Exact","17 SETTLERS RD, SHREWSBURY, MA, 01545",40056200,"L"
245054,"17 SEYMOUR AVE SE","MINNEAPOLIS","MN",55414,44.968076651,-93.212378131,54,"17 SEYMOUR AVE SE, MINNEAPOLIS, MN, 55414","Match","Exact","17 SEYMOUR AVE SE, MINNEAPOLIS, MN, 55414",43836426,"L"
245055,"17 SHADBLOW LANE","ANDOVER","CT",6232,41.7548014010001,-72.3738701039999,55,"17 SHADBLOW LANE, ANDOVER, CT, 6232","Match","Exact","17 SHADBLOW LN, ANDOVER, CT, 06232",624380331,"L"
245056,"17 SHADOW RIDGE","GARDEN VALLEY","ID",83622,NA,NA,56,"17 SHADOW RIDGE, GARDEN VALLEY, ID, 83622","Tie",NA,NA,NA,NA
245057,"17 SHAKER DRIVE","LOUDONIVLLE","NY",12211,42.7045231180001,-73.77200727,57,"17 SHAKER DRIVE, LOUDONIVLLE, NY, 12211","Match","Non_Exact","17 SHAKER DR, LOUDONVILLE, NY, 12211",18306801,"L"
245058,"17 SHALER LN APT C","CAMBRIDGE","MA",2138,42.3753294040001,-71.131498747,58,"17 SHALER LN APT C, CAMBRIDGE, MA, 2138","Match","Exact","17 SHALER LN, CAMBRIDGE, MA, 02138",636949793,"L"
245059,"17 SHANNOCK HILL","RICHMOND","RI",2812,41.4631210650001,-71.65839197,59,"17 SHANNOCK HILL, RICHMOND, RI, 2812","Match","Non_Exact","17 SHANNOCK HILL RD, RICHMOND, RI, 02812",650893068,"L"
245060,"17 SHEDD PLACE APT 1","RUTLAND","VT",5701,43.604560393,-73.003946202,60,"17 SHEDD PLACE APT 1, RUTLAND, VT, 5701","Match","Exact","17 SHEDD PL, RUTLAND, VT, 05701",138970238,"L"
245061,"17 SHELLY LANE","WESTFORD","MA",1886,42.5425457760001,-71.399464419,61,"17 SHELLY LANE, WESTFORD, MA, 1886","Match","Exact","17 SHELLY LN, WESTFORD, MA, 01886",86921540,"L"
245062,"17 SHEPARD AVE  ATP 2F","EAST ORANGE","NJ",7018,40.7583340730001,-74.21641546,62,"17 SHEPARD AVE  ATP 2F, EAST ORANGE, NJ, 7018","Match","Exact","17 SHEPARD AVE, EAST ORANGE, NJ, 07018",63479749,"R"
245063,"17 SHEPARD AVE","EAST ORANGE","NJ",7018,40.7583340730001,-74.21641546,63,"17 SHEPARD AVE, EAST ORANGE, NJ, 7018","Match","Exact","17 SHEPARD AVE, EAST ORANGE, NJ, 07018",63479749,"R"
245064,"17 SHEPARD AVE","NEWARK","NJ",7018,40.7583340730001,-74.21641546,64,"17 SHEPARD AVE, NEWARK, NJ, 7018","Match","Non_Exact","17 SHEPARD AVE, EAST ORANGE, NJ, 07018",63479749,"R"
245065,"17 SHEPHARD","NEWARK","NJ",7112,40.708347642,-74.203259675,65,"17 SHEPHARD, NEWARK, NJ, 7112","Match","Non_Exact","17 SHEPHARD AVE, NEWARK, NJ, 07112",63476561,"R"
245066,"17 SHERBURNE RD","LEXINGTON","MA",2421,42.4431999930001,-71.226000138,66,"17 SHERBURNE RD, LEXINGTON, MA, 2421","Match","Exact","17 SHERBURNE RD, LEXINGTON, MA, 02421",86882144,"R"
245067,"17 SHERIDAN ROAD","ARNOLD","MD",21012,39.0353059240001,-76.5011500649999,67,"17 SHERIDAN ROAD, ARNOLD, MD, 21012","Match","Exact","17 SHERIDAN RD, ARNOLD, MD, 21012",68211988,"L"
245068,"17 SHERMAN ST","NEWPORT","RI",2840,41.49021744,-71.310976825,68,"17 SHERMAN ST, NEWPORT, RI, 2840","Match","Exact","17 SHERMAN ST, NEWPORT, RI, 02840",47349171,"R"
245069,"17 SHILLING COURT","LANCASTER","NY",14086,42.864453488,-78.680196805,69,"17 SHILLING COURT, LANCASTER, NY, 14086","Match","Non_Exact","17 SCHILLING CT, LANCASTER, NY, 14086",48360353,"R"
245070,"17 SHILOH RD","ODESSA","TX",79762,31.893131822,-102.304718642,70,"17 SHILOH RD, ODESSA, TX, 79762","Match","Exact","17 SHILOH RD, ODESSA, TX, 79762",139431844,"R"
245071,"17 SHINNICOCK RD","HAMPTON BAYS","NY",11946,40.857282932,-72.511355963,71,"17 SHINNICOCK RD, HAMPTON BAYS, NY, 11946","Match","Non_Exact","17 SHINNECOCK RD, HAMPTON BAYS, NY, 11946",114047074,"L"
245072,"17 SHIP ST","NEWBURYPORT","MA",1950,42.809541347,-70.8644688369999,72,"17 SHIP ST, NEWBURYPORT, MA, 1950","Match","Exact","17 SHIP ST, NEWBURYPORT, MA, 01950",639000710,"L"
245073,"17 SHOLTIS RD","DALLAS","PA",18612,41.3300229430001,-76.063990587,73,"17 SHOLTIS RD, DALLAS, PA, 18612","Match","Exact","17 SHOLTIS RD, DALLAS, PA, 18612",653878258,"R"
245074,"17 SHORE HAVEN LN","HICKORY CREEK","TX",75065,33.1111559140001,-97.031228261,74,"17 SHORE HAVEN LN, HICKORY CREEK, TX, 75065","Match","Exact","17 SHORE HAVEN LN, HICKORY CREEK, TX, 75065",103405460,"R"
245075,"17 SIBLEY PLACE","ROCHESTER","NY",14607,43.1541296400001,-77.592201996,75,"17 SIBLEY PLACE, ROCHESTER, NY, 14607","Match","Exact","17 SIBLEY PL, ROCHESTER, NY, 14607",14540804,"R"
245076,"17 SIDNEY STREET","SMITHFIELD","RI",2917,41.897924249,-71.514201203,76,"17 SIDNEY STREET, SMITHFIELD, RI, 2917","Match","Exact","17 SIDNEY ST, SMITHFIELD, RI, 02917",47496465,"R"
245077,"17 SIDNEY STREET","SMITHFILED","RI",2917,41.897924249,-71.514201203,77,"17 SIDNEY STREET, SMITHFILED, RI, 2917","Match","Non_Exact","17 SIDNEY ST, SMITHFIELD, RI, 02917",47496465,"R"
245078,"17 SIENNA DRIVE","LANDENBERG","PA",19350,39.7316412270001,-75.8061493499999,78,"17 SIENNA DRIVE, LANDENBERG, PA, 19350","Match","Exact","17 SIENNA DR, LANDENBERG, PA, 19350",179555146,"L"
245079,"17 SIERRA MADRE BLVD","ARCADIA","CA",91006,34.1619856410001,-118.032447559,79,"17 SIERRA MADRE BLVD, ARCADIA, CA, 91006","Match","Non_Exact","17 W SIERRA MADRE BLVD, ARCADIA, CA, 91006",642870593,"R"
245080,"17 SILVER HILL ROAD","EPSOM","NH",3234,43.209224297,-71.360486818,80,"17 SILVER HILL ROAD, EPSOM, NH, 3234","Match","Exact","17 SILVER HILL RD, EPSOM, NH, 03234",117720344,"L"
245081,"17 SIMMONS DRIVE","SAUGERTIES","NY",12477,42.06054843,-73.953806029,81,"17 SIMMONS DRIVE, SAUGERTIES, NY, 12477","Match","Exact","17 SIMMONS DR, SAUGERTIES, NY, 12477",635528853,"L"
245082,"17 SINGINGWOOD LANE","POQUOTT","NY",11733,40.9539764830001,-73.0893977489999,82,"17 SINGINGWOOD LANE, POQUOTT, NY, 11733","Match","Non_Exact","17 SINGINGWOOD LN, SETAUKET, NY, 11733",114061526,"L"
245083,"17 SIPPEWISSETT RD","FALMOUTH","MA",2540,41.5731912320001,-70.629045275,83,"17 SIPPEWISSETT RD, FALMOUTH, MA, 2540","Match","Exact","17 SIPPEWISSETT RD, FALMOUTH, MA, 02540",121643624,"L"
245084,"17 SKIFF LANE","MYSTIC","CT",6475,NA,NA,84,"17 SKIFF LANE, MYSTIC, CT, 6475","No_Match",NA,NA,NA,NA
245085,"17 SKYLARK DRIVE APT 48","LARKSPUR","CA",94939,37.943265604,-122.545416079,85,"17 SKYLARK DRIVE APT 48, LARKSPUR, CA, 94939","Match","Exact","17 SKYLARK DR, LARKSPUR, CA, 94939",651434650,"R"
245086,"17 SMITH AVE","WESTFIELD","MA",1085,42.1256237650001,-72.76037969,86,"17 SMITH AVE, WESTFIELD, MA, 1085","Match","Exact","17 SMITH AVE, WESTFIELD, MA, 01085",4041478,"R"
245087,"17 SMITH BRIDGE ROAD","SARATOGA SPRINGS","NY",12866,43.115013472,-73.7681901179999,87,"17 SMITH BRIDGE ROAD, SARATOGA SPRINGS, NY, 12866","Match","Exact","17 SMITH BRIDGE RD, SARATOGA SPGS, NY, 12866",636480596,"R"
245088,"17 SMITH RD","WINDSOR","NY",13865,42.0905220060001,-75.7355192749999,88,"17 SMITH RD, WINDSOR, NY, 13865","Match","Exact","17 SMITH RD, WINDSOR, NY, 13865",46371848,"R"
245089,"17 SMITH ROAD","NEWFIELD","NY",14867,42.3629111180001,-76.5658276509999,89,"17 SMITH ROAD, NEWFIELD, NY, 14867","Match","Exact","17 SMITH RD, NEWFIELD, NY, 14867",18860661,"R"
245090,"17 SMOKY MOUNTAIN DR","FRANKLIN","NC",28734,NA,NA,90,"17 SMOKY MOUNTAIN DR, FRANKLIN, NC, 28734","No_Match",NA,NA,NA,NA
245091,"17 SOMERSET DRIVE","NORTH LITTLE ROCK","AR",72218,34.810486833,-92.267273928,91,"17 SOMERSET DRIVE, NORTH LITTLE ROCK, AR, 72218","Match","Non_Exact","17 SOMERSET DR, N LITTLE ROCK, AR, 72118",83507526,"L"
245092,"17 SOMERSET LANE","WEST BATH","ME",4530,43.868853083,-69.8530237959999,92,"17 SOMERSET LANE, WEST BATH, ME, 4530","Match","Exact","17 SOMERSET LN, WEST BATH, ME, 04530",75608656,"L"
245093,"17 SONGBIRD CT","GREENFIELD","IN",46140,39.803995914,-85.7611029609999,93,"17 SONGBIRD CT, GREENFIELD, IN, 46140","Match","Exact","17 SONGBIRD CT, GREENFIELD, IN, 46140",31073648,"R"
245094,"17 SOUTH 1ST STREET A906","MINNEAPOLIS","MN",55401,NA,NA,94,"17 SOUTH 1ST STREET A906, MINNEAPOLIS, MN, 55401","No_Match",NA,NA,NA,NA
245095,"17 SOUTH 21ST STREET","POTTSVILLE","PA",17901,40.6745411310001,-76.221732833,95,"17 SOUTH 21ST STREET, POTTSVILLE, PA, 17901","Match","Exact","17 S 21ST ST, POTTSVILLE, PA, 17901",70947384,"L"
245096,"17 SOUTH 6TH STREET","LOCUST VALLEY","NY",11560,40.874729738,-73.6032266829999,96,"17 SOUTH 6TH STREET, LOCUST VALLEY, NY, 11560","Match","Exact","17 S 6TH ST, LOCUST VALLEY, NY, 11560",147622220,"L"
245097,"17 SOUTH AVENUE","STATEN ISLAND","NY",10303,40.639556369,-74.166041502,97,"17 SOUTH AVENUE, STATEN ISLAND, NY, 10303","Match","Exact","17 SOUTH AVE, STATEN ISLAND, NY, 10303",653441463,"L"
245098,"17 SOUTH COLONIAL DRIVE","BORDENTOWN","NJ",8505,40.1347981060001,-74.6942343869999,98,"17 SOUTH COLONIAL DRIVE, BORDENTOWN, NJ, 8505","Match","Exact","17 S COLONIAL DR, BORDENTOWN, NJ, 08505",134062811,"L"
245099,"17 SOUTH COTTAGE ROAD","BELMONT","MA",2478,42.3938331150001,-71.1943483599999,99,"17 SOUTH COTTAGE ROAD, BELMONT, MA, 2478","Match","Exact","17 S COTTAGE RD, BELMONT, MA, 02478",646619762,"L"
245100,"17 SOUTH LAKE DRIVE","RED BANK","NJ",7701,40.3579002130001,-74.090560872,100,"17 SOUTH LAKE DRIVE, RED BANK, NJ, 7701","Match","Exact","17 S LAKE DR, RED BANK, NJ, 07701",90451680,"L"
245101,"17 SOUTH LINCOLN ST","KEENE","NH",3431,42.9357538740001,-72.2675838009999,101,"17 SOUTH LINCOLN ST, KEENE, NH, 3431","Match","Exact","17 S LINCOLN ST, KEENE, NH, 03431",124051197,"L"
245102,"17 SOUTH LINCOLN STREET","KEENE","NH",3431,42.9357538740001,-72.2675838009999,102,"17 SOUTH LINCOLN STREET, KEENE, NH, 3431","Match","Exact","17 S LINCOLN ST, KEENE, NH, 03431",124051197,"L"
245103,"17 SOUTH MAGNOLIA AVENUE","ORLANDO","FL",32801,28.5419746860001,-81.377458335,103,"17 SOUTH MAGNOLIA AVENUE, ORLANDO, FL, 32801","Match","Exact","17 S MAGNOLIA AVE, ORLANDO, FL, 32801",94282461,"L"
245104,"17 SOUTH MAIN STREET","NEW MILFORD","CT",6776,41.5753157570001,-73.4105244799999,104,"17 SOUTH MAIN STREET, NEW MILFORD, CT, 6776","Match","Exact","17 S MAIN ST, NEW MILFORD, CT, 06776",3110818,"L"
245105,"17 SOUTH MAPLE AVE","WEBSTER GROVES","MO",63119,38.5921532580001,-90.354765276,105,"17 SOUTH MAPLE AVE, WEBSTER GROVES, MO, 63119","Match","Exact","17 S MAPLE AVE, WEBSTER GROVES, MO, 63119",100140297,"R"
245106,"17 SOUTH MEADOWS","WOODBURY","CT",6798,41.513132107,-73.229258011,106,"17 SOUTH MEADOWS, WOODBURY, CT, 6798","Match","Exact","17 S MEADOWS, WOODBURY, CT, 06798",3126508,"L"
245107,"17 SOUTH OCEAN AVENUE","BAYPORT","NY",11705,40.7368348800001,-73.048029304,107,"17 SOUTH OCEAN AVENUE, BAYPORT, NY, 11705","Match","Exact","17 S OCEAN AVE, BAYPORT, NY, 11705",114016116,"L"
245108,"17 SOUTH SECOND ST 6TH FL","HARRISBURG","PA",17101,40.2592144490001,-76.880842539,108,"17 SOUTH SECOND ST 6TH FL, HARRISBURG, PA, 17101","Match","Exact","17 S 2ND ST, HARRISBURG, PA, 17101",70817749,"L"
245109,"17 SOUTH STR","DRYDEN","NY",13053,42.4897241460001,-76.297660471,109,"17 SOUTH STR, DRYDEN, NY, 13053","Match","Exact","17 SOUTH ST, DRYDEN, NY, 13053",18859423,"R"
245110,"17 SOUTH STREET","DRYDEN","NY",13053,42.4897241460001,-76.297660471,110,"17 SOUTH STREET, DRYDEN, NY, 13053","Match","Exact","17 SOUTH ST, DRYDEN, NY, 13053",18859423,"R"
245111,"17 SOUTH TIERY RD","OLD TOWN","ME",4468,NA,NA,111,"17 SOUTH TIERY RD, OLD TOWN, ME, 4468","No_Match",NA,NA,NA,NA
245112,"17 SOUTH ZIEGLER LANE","STOUT","OH",45684,38.6624277970001,-83.1233029059999,112,"17 SOUTH ZIEGLER LANE, STOUT, OH, 45684","Match","Exact","17 S ZIEGLER LN, STOUT, OH, 45684",55106991,"L"
245113,"17 SOUTHERLAND DRIVE","HAMPTON","VA",23669,37.037323036,-76.334610654,113,"17 SOUTHERLAND DRIVE, HAMPTON, VA, 23669","Match","Exact","17 SOUTHERLAND DR, HAMPTON, VA, 23669",103759825,"L"
245114,"17 SOUTHERN LANE","WARWICK","NY",10994,41.2436535840001,-74.3572404459999,114,"17 SOUTHERN LANE, WARWICK, NY, 10994","Match","Non_Exact","17 SOUTHERN LN, WARWICK, NY, 10990",635467646,"L"
245115,"17 SOUTHGATE RD","WESTFORD","MA",1886,42.565397869,-71.414077982,115,"17 SOUTHGATE RD, WESTFORD, MA, 1886","Match","Exact","17 SOUTHGATE RD, WESTFORD, MA, 01886",624121042,"R"
245116,"17 SOUTHWOOD ROAD","STORRS","CT",6268,41.802899262,-72.271672082,116,"17 SOUTHWOOD ROAD, STORRS, CT, 6268","Match","Exact","17 SOUTHWOOD RD, STORRS, CT, 06268",57000649,"R"
245117,"17 SOVENTE","IRVINE","CA",92606,33.6940269510001,-117.806243676,117,"17 SOVENTE, IRVINE, CA, 92606","Match","Exact","17 SOVENTE, IRVINE, CA, 92606",144382245,"L"
245118,"17 SPLIT RAIL LN","DALLAS","PA",18612,41.330418299,-75.9709981779999,118,"17 SPLIT RAIL LN, DALLAS, PA, 18612","Match","Exact","17 SPLIT RAIL LN, DALLAS, PA, 18612",80909405,"R"
245119,"17 SPRING HILL CIRCLE","WRIGHT CITY","MO",63390,38.8387234160001,-91.0367882,119,"17 SPRING HILL CIRCLE, WRIGHT CITY, MO, 63390","Match","Exact","17 SPRING HILL CIR, WRIGHT CITY, MO, 63390",217420123,"R"
245120,"17 SPRING LAKE AVE","SEWELL","PA",8080,NA,NA,120,"17 SPRING LAKE AVE, SEWELL, PA, 8080","No_Match",NA,NA,NA,NA
245121,"17 SPRING STREET","SENCA FALLS","NY",13148,42.9075063550001,-76.794489745,121,"17 SPRING STREET, SENCA FALLS, NY, 13148","Match","Non_Exact","17 SPRING ST, SENECA FALLS, NY, 13148",14664295,"R"
245122,"17 SPRING STREET","SWANTON","VT",5488,44.922419544,-73.121103993,122,"17 SPRING STREET, SWANTON, VT, 5488","Match","Exact","17 SPRING ST, SWANTON, VT, 05488",136535613,"L"
245123,"17 SPRINGBROOK ROAD","NANUET","NY",10954,41.115534032,-74.033121482,123,"17 SPRINGBROOK ROAD, NANUET, NY, 10954","Match","Exact","17 SPRINGBROOK RD, NANUET, NY, 10954",124628690,"R"
245124,"17 SPRINGFIELD RD","PETAL","MS",39465,31.3513506410001,-89.2262201629999,124,"17 SPRINGFIELD RD, PETAL, MS, 39465","Match","Exact","17 SPRINGFIELD RD, PETAL, MS, 39465",617472395,"R"
245125,"17 SPYGLASS HILL","FAIRPORT","NY",14450,43.115467955,-77.433080172,125,"17 SPYGLASS HILL, FAIRPORT, NY, 14450","Match","Exact","17 SPYGLASS HILL, FAIRPORT, NY, 14450",14552161,"R"
245126,"17 ST CHARLES PLACE","CHARLESTON","WV",25314,38.3375304150001,-81.663171254,126,"17 ST CHARLES PLACE, CHARLESTON, WV, 25314","Match","Exact","17 ST CHARLES PL, CHARLESTON, WV, 25314",78593062,"L"
245127,"17 ST FRANCIS PLACE","BROOKLYN","NY",11238,40.6720470710001,-73.956536165,127,"17 ST FRANCIS PLACE, BROOKLYN, NY, 11238","Match","Non_Exact","17 ST FRANCIS PL, BROOKLYN, NY, 11216",59079343,"L"
245128,"17 ST HELENS AVE APT 204","TACOMA","WA",98402,47.2639110220001,-122.446864842,128,"17 ST HELENS AVE APT 204, TACOMA, WA, 98402","Match","Exact","17 SAINT HELENS AVE, TACOMA, WA, 98402",184646362,"L"
245129,"17 STACY STREET","MILTON","VT",5468,44.6280292820001,-73.1250111209999,129,"17 STACY STREET, MILTON, VT, 5468","Match","Exact","17 STACY ST, MILTON, VT, 05468",135853428,"R"
245130,"17 STACY STREET","SACO","ME",4072,43.5062734900001,-70.455081879,130,"17 STACY STREET, SACO, ME, 4072","Match","Exact","17 STACY ST, SACO, ME, 04072",92757018,"R"
245131,"17 STAM STREET","WILLIAMS BAY","WI",53191,42.5741549800001,-88.548772813,131,"17 STAM STREET, WILLIAMS BAY, WI, 53191","Match","Exact","17 STAM ST, WILLIAMS BAY, WI, 53191",53669585,"R"
245132,"17 STANLEY STREET","DUMONT","NJ",7628,40.938180269,-73.9804014809999,132,"17 STANLEY STREET, DUMONT, NJ, 7628","Match","Exact","17 STANLEY ST, DUMONT, NJ, 07628",64373356,"R"
245133,"17 STAR MAGNOLIA DRIVE","BEAUFORT","SC",29901,32.4462852120001,-80.636405774,133,"17 STAR MAGNOLIA DRIVE, BEAUFORT, SC, 29901","Match","Non_Exact","17 STAR MAGNOLIA DR, BEAUFORT, SC, 29907",646132713,"R"
245134,"17 STARGRASS LANE","WEST HENRIETTA","NY",14586,43.0382037840001,-77.706929289,134,"17 STARGRASS LANE, WEST HENRIETTA, NY, 14586","Match","Exact","17 STARGRASS LN, W HENRIETTA, NY, 14586",14567398,"R"
245135,"17 STARLIGHT FARM DRIVE","PHOENIX","MD",21131,NA,NA,135,"17 STARLIGHT FARM DRIVE, PHOENIX, MD, 21131","No_Match",NA,NA,NA,NA
245136,"17 STARR DRIVE","ENFIELD","NH",3748,43.5987704360001,-72.082781035,136,"17 STARR DRIVE, ENFIELD, NH, 3748","Match","Exact","17 STARR DR, ENFIELD, NH, 03748",627362908,"L"
245137,"17 STATE ROAD 576","VALLECITOS","NM",87108,NA,NA,137,"17 STATE ROAD 576, VALLECITOS, NM, 87108","No_Match",NA,NA,NA,NA
245138,"17 STATEVIEW RD","NEWCASTLE","WY",82701,43.7570100080001,-104.058789186,138,"17 STATEVIEW RD, NEWCASTLE, WY, 82701","Match","Exact","17 STATEVIEW RD, NEWCASTLE, WY, 82701",147508766,"L"
245139,"17 STATION OAK DR","JACKSON","TN",38305,35.711679481,-88.814809136,139,"17 STATION OAK DR, JACKSON, TN, 38305","Match","Non_Exact","17 STATION OAKS DR, JACKSON, TN, 38305",633641306,"L"
245140,"17 STATION STREET","SYKESVILLE","PA",15865,41.050408476,-78.8181617069999,140,"17 STATION STREET, SYKESVILLE, PA, 15865","Match","Exact","17 STATION ST, SYKESVILLE, PA, 15865",66455957,"L"
245141,"17 STERLING COURT","CARTERSVILLE","GA",30120,34.1354400610001,-84.796998415,141,"17 STERLING COURT, CARTERSVILLE, GA, 30120","Match","Exact","17 STERLING CT, CARTERSVILLE, GA, 30120",30467074,"R"
245142,"17 STEVEN COURT","SARA","NY",12866,NA,NA,142,"17 STEVEN COURT, SARA, NY, 12866","No_Match",NA,NA,NA,NA
245143,"17 STONE DRIVE","GREENLAWN","NY",11740,40.864225074,-73.3602470709999,143,"17 STONE DRIVE, GREENLAWN, NY, 11740","Match","Exact","17 STONE DR, GREENLAWN, NY, 11740",113964604,"L"
245144,"17 STONELEDGE DR","TROY","NY",12182,NA,NA,144,"17 STONELEDGE DR, TROY, NY, 12182","No_Match",NA,NA,NA,NA
245145,"17 STONY CREEK COURT","SHAMONG","NJ",8088,39.8132727400001,-74.7828891029999,145,"17 STONY CREEK COURT, SHAMONG, NJ, 8088","Match","Exact","17 STONY CREEK CT, SHAMONG, NJ, 08088",134066301,"R"
245146,"17 STORMRIDER RD","SALMON","ID",83467,45.1763132500001,-113.924200511,146,"17 STORMRIDER RD, SALMON, ID, 83467","Match","Exact","17 STORMRIDER RD, SALMON, ID, 83467",607558115,"R"
245147,"17 STRAND WAY","EAST FALMOUTH","MA",2536,41.625718326,-70.575414263,147,"17 STRAND WAY, EAST FALMOUTH, MA, 2536","Match","Exact","17 STRAND WAY, EAST FALMOUTH, MA, 02536",121584637,"R"
245148,"17 STRANDHILL COURT","FAIRBURN","GA",30213,33.559590169,-84.611939627,148,"17 STRANDHILL COURT, FAIRBURN, GA, 30213","Match","Exact","17 STRANDHILL CT, FAIRBURN, GA, 30213",627739801,"R"
245149,"17 STRATFORD RD","KNOXVILLE","TN",37920,NA,NA,149,"17 STRATFORD RD, KNOXVILLE, TN, 37920","No_Match",NA,NA,NA,NA
245150,"17 STRATHMORE ROAD","HAVERTOWN","PA",19083,39.980595448,-75.304465888,150,"17 STRATHMORE ROAD, HAVERTOWN, PA, 19083","Match","Exact","17 STRATHMORE RD, HAVERTOWN, PA, 19083",134875339,"R"
245151,"17 STRAWBERRY PT","BELLINGHAM","WA",98229,48.739256556,-122.370079464,151,"17 STRAWBERRY PT, BELLINGHAM, WA, 98229","Match","Exact","17 STRAWBERRY PT, BELLINGHAM, WA, 98229",183786231,"L"
245152,"17 STREUBEN","STATEN ISLAND","NY",10304,NA,NA,152,"17 STREUBEN, STATEN ISLAND, NY, 10304","No_Match",NA,NA,NA,NA
245153,"17 STRIDESHAM CT","BALTIMORE","MD",21209,39.381639906,-76.683879355,153,"17 STRIDESHAM CT, BALTIMORE, MD, 21209","Match","Exact","17 STRIDESHAM CT, BALTIMORE, MD, 21209",191504313,"R"
245154,"17 STUART DRIVE","BLOOMFIELD","CT",6002,41.845577797,-72.773402959,154,"17 STUART DRIVE, BLOOMFIELD, CT, 6002","Match","Exact","17 STUART DR, BLOOMFIELD, CT, 06002",3484897,"L"
245155,"17 SUMMER AV APT 4","SPRINGFIELD","MA",1108,42.082708961,-72.5757187149999,155,"17 SUMMER AV APT 4, SPRINGFIELD, MA, 1108","Match","Non_Exact","17 SUMNER AVE, SPRINGFIELD, MA, 01108",4038158,"R"
245156,"17 SUMMER STREET","MARBLEHEAD","MA",1945,42.504183923,-70.8508384199999,156,"17 SUMMER STREET, MARBLEHEAD, MA, 1945","Match","Exact","17 SUMMER ST, MARBLEHEAD, MA, 01945",86649096,"L"
245157,"17 SUMMER STREET","WAKEFIELD","MA",1880,42.4954745250001,-71.067179965,157,"17 SUMMER STREET, WAKEFIELD, MA, 1880","Match","Exact","17 SUMMER ST, WAKEFIELD, MA, 01880",87089246,"R"
245158,"17 SUMMERSET DRIVE","JACKSONVILLE","IL",62650,NA,NA,158,"17 SUMMERSET DRIVE, JACKSONVILLE, IL, 62650","No_Match",NA,NA,NA,NA
245159,"17 SUMMIT DRIVE","BURLINGTON","CT",6013,41.784742372,-72.939049623,159,"17 SUMMIT DRIVE, BURLINGTON, CT, 6013","Match","Exact","17 SUMMIT DR, BURLINGTON, CT, 06013",3501900,"L"
245160,"17 SUMMIT ST","SOUTH PORTLAND","ME",4106,43.6438441110001,-70.234271728,160,"17 SUMMIT ST, SOUTH PORTLAND, ME, 4106","Match","Exact","17 SUMMIT ST, SOUTH PORTLAND, ME, 04106",78032542,"L"
245161,"17 SUMMIT STREET","SOUTH PORTLAND","ME",4106,43.6438441110001,-70.234271728,161,"17 SUMMIT STREET, SOUTH PORTLAND, ME, 4106","Match","Exact","17 SUMMIT ST, SOUTH PORTLAND, ME, 04106",78032542,"L"
245162,"17 SUMNER AVE APT 4","SPRINGFIELD","MA",1108,42.082708961,-72.5757187149999,162,"17 SUMNER AVE APT 4, SPRINGFIELD, MA, 1108","Match","Exact","17 SUMNER AVE, SPRINGFIELD, MA, 01108",4038158,"R"
245163,"17 SUMNER AVENUE","SPRINGFIELD","MA",1108,42.082708961,-72.5757187149999,163,"17 SUMNER AVENUE, SPRINGFIELD, MA, 1108","Match","Exact","17 SUMNER AVE, SPRINGFIELD, MA, 01108",4038158,"R"
245164,"17 SUNFLOWER CIRCLE","WAPPINGER FALLS","NY",12590,41.533722751,-73.9547005759999,164,"17 SUNFLOWER CIRCLE, WAPPINGER FALLS, NY, 12590","Match","Non_Exact","17 SUNFLOWER CIR, WAPPINGERS FALLS, NY, 12590",617452352,"L"
245165,"17 SUNNY LINE DRIVE","CALVERTON","NY",11933,40.9310891860001,-72.7864071719999,165,"17 SUNNY LINE DRIVE, CALVERTON, NY, 11933","Match","Exact","17 SUNNY LINE DR, CALVERTON, NY, 11933",114021617,"R"
245166,"17 SUNNYBROOK DRIVE","WICHITA","KS",67232,NA,NA,166,"17 SUNNYBROOK DRIVE, WICHITA, KS, 67232","No_Match",NA,NA,NA,NA
245167,"17 SUNNYSIDE ACRES","EDINBURG","IL",62531,39.6552170520001,-89.4146002689999,167,"17 SUNNYSIDE ACRES, EDINBURG, IL, 62531","Match","Exact","17 SUNNYSIDE ACRES, EDINBURG, IL, 62531",99304949,"L"
245168,"17 SUNRISE DRIVE","LEBANON","PA",17042,40.3207895410001,-76.369136404,168,"17 SUNRISE DRIVE, LEBANON, PA, 17042","Match","Exact","17 SUNRISE DR, LEBANON, PA, 17042",80679784,"R"
245169,"17 SUNRISE PARK","PITTSFORD","NY",14534,43.046614504,-77.509214352,169,"17 SUNRISE PARK, PITTSFORD, NY, 14534","Match","Exact","17 SUNRISE PARK, PITTSFORD, NY, 14534",14553104,"L"
245170,"17 SUNRISE ROAD","WESTWOOD","MA",2090,42.2020758350001,-71.239238235,170,"17 SUNRISE ROAD, WESTWOOD, MA, 2090","Match","Exact","17 SUNRISE RD, WESTWOOD, MA, 02090",87242222,"R"
245171,"17 SUNSET AVE","WHEATLEY HEIGHTS","NY",11798,40.7628715490001,-73.3599676969999,171,"17 SUNSET AVE, WHEATLEY HEIGHTS, NY, 11798","Match","Exact","17 SUNSET AVE, WHEATLEY HEIGHTS, NY, 11798",113969211,"R"
245172,"17 SUNSET CIRCLE","MASHPEE","MA",2649,41.621553589,-70.528389144,172,"17 SUNSET CIRCLE, MASHPEE, MA, 2649","Match","Exact","17 SUNSET CIR, MASHPEE, MA, 02649",121572363,"R"
245173,"17 SUNSET DRIVE","CAMMACK VILLAGE","AR",72207,34.783688785,-92.347797959,173,"17 SUNSET DRIVE, CAMMACK VILLAGE, AR, 72207","Match","Exact","17 SUNSET DR, CAMMACK VILLAGE, AR, 72207",645867204,"L"
245174,"17 SURREY RD","NEW CASTLE","DE",19720,39.633701445,-75.629931534,174,"17 SURREY RD, NEW CASTLE, DE, 19720","Match","Non_Exact","17 SURREY DR, NEW CASTLE, DE, 19720",606272978,"R"
245175,"17 SUSQUEHANNA ROAD","OSSINING","NY",10562,41.163503819,-73.843712318,175,"17 SUSQUEHANNA ROAD, OSSINING, NY, 10562","Match","Exact","17 SUSQUEHANNA RD, OSSINING, NY, 10562",139730274,"L"
245176,"17 SUSSEX DRIVE","BRENTWOOD","MO",63144,38.6287093650001,-90.359250402,176,"17 SUSSEX DRIVE, BRENTWOOD, MO, 63144","Match","Exact","17 SUSSEX DR, BRENTWOOD, MO, 63144",100134904,"R"
245177,"17 SUTTON AVE","SALEM","MA",1970,42.534910047,-70.8680452839999,177,"17 SUTTON AVE, SALEM, MA, 1970","Match","Exact","17 SUTTON AVE, SALEM, MA, 01970",86644301,"L"
245178,"17 SUTTON WAY","EDGARTOWN","MA",2539,41.3724240920001,-70.5266866599999,178,"17 SUTTON WAY, EDGARTOWN, MA, 2539","Match","Exact","17 SUTTON WAY, EDGARTOWN, MA, 02539",118875208,"R"
245179,"17 SW 6TH ST","ONTARIO","OR",97914,44.027774422,-116.970489565,179,"17 SW 6TH ST, ONTARIO, OR, 97914","Match","Exact","17 SW 6TH ST, ONTARIO, OR, 97914",138643275,"R"
245180,"17 SWEET GUM PL","HAMPTON","VA",23666,37.056083492,-76.41458854,180,"17 SWEET GUM PL, HAMPTON, VA, 23666","Match","Exact","17 SWEET GUM PL, HAMPTON, VA, 23666",103799752,"R"
245181,"17 SYLVIA STREET","NEWBURGH","NY",12550,41.5580127480001,-74.0525354499999,181,"17 SYLVIA STREET, NEWBURGH, NY, 12550","Match","Exact","17 SYLVIA ST, NEWBURGH, NY, 12550",124424110,"R"
245182,"17 SYLVIAN ST","BAY SHORE","NY",11706,40.742693742,-73.260607298,182,"17 SYLVIAN ST, BAY SHORE, NY, 11706","Match","Non_Exact","17 SYLVAN ST, BAY SHORE, NY, 11706",113995586,"L"
245183,"17 T F CARROLL WAY","REVERE","MA",2151,42.4093674110001,-71.0216277659999,183,"17 T F CARROLL WAY, REVERE, MA, 2151","Match","Non_Exact","17 TF CARROLL WAY, REVERE, MA, 02151",85707338,"R"
245184,"17 TAFT AVE","LUMBERTON","TX",77657,30.292624108,-94.210716705,184,"17 TAFT AVE, LUMBERTON, TX, 77657","Match","Exact","17 TAFT AVE, LUMBERTON, TX, 77657",649808786,"L"
245185,"17 TALISMAN TERRACE","OSWEGO","NY",13126,43.453822991,-76.4820289529999,185,"17 TALISMAN TERRACE, OSWEGO, NY, 13126","Match","Exact","17 TALISMAN TER, OSWEGO, NY, 13126",57822060,"R"
245186,"17 TANGLEWOOD DR","CONCORD","MA",1742,42.4216180330001,-71.3658704859999,186,"17 TANGLEWOOD DR, CONCORD, MA, 1742","Match","Exact","17 TANGLEWOOD DR, CONCORD, MA, 01742",87172855,"L"
245187,"17 TAPLEY STREET","REVERE","MA",2151,NA,NA,187,"17 TAPLEY STREET, REVERE, MA, 2151","Tie",NA,NA,NA,NA
245188,"17 TEMPLE COURT","NEW HVEN","CT",6511,41.311845077,-72.922897936,188,"17 TEMPLE COURT, NEW HVEN, CT, 6511","Match","Non_Exact","17 TEMPLE CT, NEW HAVEN, CT, 06511",3756475,"R"
245189,"17 TEMPLE GARDEN CT","ST. CHARLES","ID",60174,NA,NA,189,"17 TEMPLE GARDEN CT, ST. CHARLES, ID, 60174","No_Match",NA,NA,NA,NA
245190,"17 TEMPLE GARDEN CT","ST. CHARLES","IL",60174,41.8998034730001,-88.2859403259999,190,"17 TEMPLE GARDEN CT, ST. CHARLES, IL, 60174","Match","Exact","17 TEMPLE GARDEN CT, SAINT CHARLES, IL, 60174",119519360,"L"
245191,"17 TERNEY AVENUE","HULL","MA",2045,42.3066741810001,-70.8877005849999,191,"17 TERNEY AVENUE, HULL, MA, 2045","Match","Non_Exact","17 TIERNEY AVE, HULL, MA, 02045",87429042,"L"
245192,"17 TERRACE HEIGHTS","JEFFERSONVILLE","IN",47130,38.2865135120001,-85.716246385,192,"17 TERRACE HEIGHTS, JEFFERSONVILLE, IN, 47130","Match","Exact","17 TERRACE HTS, JEFFERSONVILLE, IN, 47130",64882487,"L"
245193,"17 TERRACE STREET","NEW HAVEN","CT",6512,41.2835451870001,-72.889247527,193,"17 TERRACE STREET, NEW HAVEN, CT, 6512","Match","Exact","17 TERRACE ST, NEW HAVEN, CT, 06512",3757017,"R"
245194,"17 TERRACE STREET","WHITEFIELD","NH",3590,NA,NA,194,"17 TERRACE STREET, WHITEFIELD, NH, 3590","No_Match",NA,NA,NA,NA
245195,"17 TERRY STREET","MULLENS","WV",25882,37.5968263090001,-81.376351906,195,"17 TERRY STREET, MULLENS, WV, 25882","Match","Exact","17 TERRY ST, MULLENS, WV, 25882",648898396,"R"
245196,"17 THEO LN","TOWSON","MD",21204,39.411050948,-76.604102677,196,"17 THEO LN, TOWSON, MD, 21204","Match","Exact","17 THEO LN, TOWSON, MD, 21204",191513521,"R"
245197,"17 THOMPSON APT 6","NEW YORK","NY",10013,40.722554024,-74.004603876,197,"17 THOMPSON APT 6, NEW YORK, NY, 10013","Match","Non_Exact","17 THOMPSON ST, NEW YORK, NY, 10013",59664825,"L"
245198,"17 THOMPSON ST PH7","NEW YORK","NY",10013,40.722554024,-74.004603876,198,"17 THOMPSON ST PH7, NEW YORK, NY, 10013","Match","Exact","17 THOMPSON ST, NEW YORK, NY, 10013",59664825,"L"
245199,"17 THOMPSON STREET","BRUNSWICK","ME",4011,43.9031269070001,-69.969083655,199,"17 THOMPSON STREET, BRUNSWICK, ME, 4011","Match","Exact","17 THOMPSON ST, BRUNSWICK, ME, 04011",78007508,"L"
245200,"17 THORNBERRY RD","WINCHESTER","MA",1890,42.449891979,-71.179876539,200,"17 THORNBERRY RD, WINCHESTER, MA, 1890","Match","Exact","17 THORNBERRY RD, WINCHESTER, MA, 01890",86883796,"R"
245201,"17 THORNBY PL","ST. LOUIS","MO",63112,38.6614773220001,-90.287012763,201,"17 THORNBY PL, ST. LOUIS, MO, 63112","Match","Exact","17 THORNBY PL, SAINT LOUIS, MO, 63112",107592836,"L"
245202,"17 THREE RING RD","SCITUATE","MA",2066,42.222737377,-70.776416405,202,"17 THREE RING RD, SCITUATE, MA, 2066","Match","Exact","17 3 RING RD, SCITUATE, MA, 02066",87489653,"L"
245203,"17 TIERNEY AVENUE","HULL","MA",2045,42.3066741810001,-70.8877005849999,203,"17 TIERNEY AVENUE, HULL, MA, 2045","Match","Exact","17 TIERNEY AVE, HULL, MA, 02045",87429042,"L"
245204,"17 TIERRA MONTE ST NE","ALBUQUERQUE","NM",87122,35.2076803090001,-106.49080485,204,"17 TIERRA MONTE ST NE, ALBUQUERQUE, NM, 87122","Match","Non_Exact","17 TIERRA MONTE DR NE, ALBUQUERQUE, NM, 87122",206777964,"L"
245205,"17 TIFFANY LANE","CANYON","TX",79015,34.9963615360001,-101.927543984,205,"17 TIFFANY LANE, CANYON, TX, 79015","Match","Exact","17 TIFFANY LN, CANYON, TX, 79015",182672955,"R"
245206,"17 TIMBER CREEK CICLE","PLATTE CITY","MO",64079,NA,NA,206,"17 TIMBER CREEK CICLE, PLATTE CITY, MO, 64079","Tie",NA,NA,NA,NA
245207,"17 TIMBER CREEK CIRCLE","PLATTE CITY","MO",64079,39.3580337080001,-94.735998642,207,"17 TIMBER CREEK CIRCLE, PLATTE CITY, MO, 64079","Match","Exact","17 TIMBER CREEK CIR, PLATTE CITY, MO, 64079",39706324,"R"
245208,"17 TIMBER DRIVE","BARRINGTON","NJ",8007,39.8609837540001,-75.0537883069999,208,"17 TIMBER DRIVE, BARRINGTON, NJ, 8007","Match","Exact","17 TIMBER DR, BARRINGTON, NJ, 08007",134355521,"R"
245209,"17 TIMBERLAKE RD","BLOOMINGTON","IL",61704,40.453507308,-89.0003952659999,209,"17 TIMBERLAKE RD, BLOOMINGTON, IL, 61704","Match","Exact","17 TIMBERLAKE RD, BLOOMINGTON, IL, 61704",20589622,"L"
245210,"17 TIMBERLINE DR","ELMA","NY",14059,42.8470966250001,-78.620489769,210,"17 TIMBERLINE DR, ELMA, NY, 14059","Match","Exact","17 TIMBERLINE DR, ELMA, NY, 14059",48325234,"L"
245211,"17 TIMBERWICK DR","CLIFTON PARK","NY",12065,42.8344175290001,-73.75507728,211,"17 TIMBERWICK DR, CLIFTON PARK, NY, 12065","Match","Exact","17 TIMBERWICK DR, CLIFTON PARK, NY, 12065",614927924,"L"
245212,"17 TOAD RD","PLACTIAS","NM",87043,35.34077153,-106.441056152,212,"17 TOAD RD, PLACTIAS, NM, 87043","Match","Non_Exact","17 TOAD RD, PLACITAS, NM, 87043",611359013,"L"
245213,"17 TOBEY BRK","PITTSFORD","NY",14534,43.0827559350001,-77.539307402,213,"17 TOBEY BRK, PITTSFORD, NY, 14534","Match","Exact","17 TOBEY BROOK, PITTSFORD, NY, 14534",14565521,"L"
245214,"17 TOBYHANNA TRAIL","hopatcong","NJ",7843,40.929995547,-74.6742760509999,214,"17 TOBYHANNA TRAIL, hopatcong, NJ, 7843","Match","Exact","17 TOBYHANNA TRL, HOPATCONG, NJ, 07843",98006595,"L"
245215,"17 TOBYHANNA TRL","HOPATCONG","NJ",7843,40.929995547,-74.6742760509999,215,"17 TOBYHANNA TRL, HOPATCONG, NJ, 7843","Match","Exact","17 TOBYHANNA TRL, HOPATCONG, NJ, 07843",98006595,"L"
245216,"17 TODD PLACE NE","WASHINGTON","DC",20002,38.916279049,-77.008284056,216,"17 TODD PLACE NE, WASHINGTON, DC, 20002","Match","Exact","17 TODD PL NE, WASHINGTON, DC, 20002",76237780,"R"
245217,"17 TODDY BROOK ROAD","HOLLIS","NH",3049,42.7882841890001,-71.602390419,217,"17 TODDY BROOK ROAD, HOLLIS, NH, 3049","Match","Exact","17 TODDY BROOK RD, HOLLIS, NH, 03049",113570029,"R"
245218,"17 TONI LYNN CT","HAMMONTON","NJ",8037,39.649732117,-74.802824616,218,"17 TONI LYNN CT, HAMMONTON, NJ, 8037","Match","Exact","17 TONI LYNN CT, HAMMONTON, NJ, 08037",202527027,"L"
245219,"17 TOQUAM ROAD","NEW CANNAN","CT",6840,41.1506701970001,-73.5217926829999,219,"17 TOQUAM ROAD, NEW CANNAN, CT, 6840","Match","Non_Exact","17 TOQUAM RD, NEW CANAAN, CT, 06840",3258292,"R"
245220,"17 TOTTENHAM CT","JERSEY CITY","NY",7305,NA,NA,220,"17 TOTTENHAM CT, JERSEY CITY, NY, 7305","No_Match",NA,NA,NA,NA
245221,"17 TOWN HILL CT","NEW LONDON","CT",6320,41.3482584990001,-72.110568018,221,"17 TOWN HILL CT, NEW LONDON, CT, 6320","Match","Exact","17 TOWN HILL CT, NEW LONDON, CT, 06320",56850761,"R"
245222,"17 TOWNE LANE","TOPSFIELD","MA",1983,NA,NA,222,"17 TOWNE LANE, TOPSFIELD, MA, 1983","No_Match",NA,NA,NA,NA
245223,"17 TRACHELLE LANE","CHARLESTON","SC",29407,32.821383004,-79.981727623,223,"17 TRACHELLE LANE, CHARLESTON, SC, 29407","Match","Exact","17 TRACHELLE LN, CHARLESTON, SC, 29407",108802620,"R"
245224,"17 TRAILSIDE COURT","PARK CITY","UT",84060,40.6667992860001,-111.483563684,224,"17 TRAILSIDE COURT, PARK CITY, UT, 84060","Match","Exact","17 TRAILSIDE CT, PARK CITY, UT, 84060",160641357,"L"
245225,"17 TREASURE LK","DU BOIS","PA",15801,41.158767261,-78.716769969,225,"17 TREASURE LK, DU BOIS, PA, 15801","Match","Exact","17 TREASURE LAKE, DU BOIS, PA, 15801",50470384,"L"
245226,"17 TREFOIL LANE","BROCKPORT","NY",14420,43.2043830870001,-77.9323928749999,226,"17 TREFOIL LANE, BROCKPORT, NY, 14420","Match","Exact","17 TREFOIL LN, BROCKPORT, NY, 14420",14524210,"L"
245227,"17 TREPAGNIER DR","DESTREHAN","LA",70047,29.9845429050001,-90.365075152,227,"17 TREPAGNIER DR, DESTREHAN, LA, 70047","Match","Exact","17 TREPAGNIER DR, DESTREHAN, LA, 70047",93617925,"R"
245228,"17 TRILLIUM WAY","KALISPELL","MT",59901,48.180256822,-114.330995145,228,"17 TRILLIUM WAY, KALISPELL, MT, 59901","Match","Exact","17 TRILLIUM WAY, KALISPELL, MT, 59901",204130310,"R"
245229,"17 TRIUINE TRACE","ELIZABETHTOWN","KY",42701,37.62359532,-85.885572285,229,"17 TRIUINE TRACE, ELIZABETHTOWN, KY, 42701","Match","Non_Exact","17 TRIUNE TRCE, ELIZABETHTOWN, KY, 42701",617573502,"L"
245230,"17 TUREY PARQUE DE BUCARE II","GUAYNABO","PR",969,NA,NA,230,"17 TUREY PARQUE DE BUCARE II, GUAYNABO, PR, 969","No_Match",NA,NA,NA,NA
245231,"17 TURRET DRIVE","LIMERICK","PA",19468,40.224130754,-75.533740935,231,"17 TURRET DRIVE, LIMERICK, PA, 19468","Match","Exact","17 TURRET DR, LIMERICK, PA, 19468",635655480,"R"
245232,"17 TURTLE RD","MORRISTOWN","NJ",7960,40.7843067680001,-74.45966612,232,"17 TURTLE RD, MORRISTOWN, NJ, 7960","Match","Exact","17 TURTLE RD, MORRISTOWN, NJ, 07960",60486176,"R"
245233,"17 TWIN OAK RD","SHORT HILLS","NJ",7078,40.7285444400001,-74.332963752,233,"17 TWIN OAK RD, SHORT HILLS, NJ, 7078","Match","Exact","17 TWIN OAK RD, SHORT HILLS, NJ, 07078",647610498,"R"
245234,"17 TWIN PINES ROAD","DOWNINGTOWN","PA",19335,40.067284923,-75.704970299,234,"17 TWIN PINES ROAD, DOWNINGTOWN, PA, 19335","Match","Exact","17 TWIN PINES RD, DOWNINGTOWN, PA, 19335",179520540,"L"
245235,"17 TYLER AVE","CARTERET","NJ",7008,40.585743075,-74.234331781,235,"17 TYLER AVE, CARTERET, NJ, 7008","Match","Exact","17 TYLER AVE, CARTERET, NJ, 07008",60276588,"L"
245236,"17 UNION RD","STRATHAM","NH",3885,43.000698378,-70.88399678,236,"17 UNION RD, STRATHAM, NH, 3885","Match","Exact","17 UNION RD, STRATHAM, NH, 03885",113702879,"L"
245237,"17 UNION ST","CAMDEN","ME",4843,44.2052253570001,-69.067708355,237,"17 UNION ST, CAMDEN, ME, 4843","Match","Exact","17 UNION ST, CAMDEN, ME, 04843",623821168,"L"
245238,"17 UNION STREET","JERSEY CITY","NJ",7304,40.7115738790001,-74.071196416,238,"17 UNION STREET, JERSEY CITY, NJ, 7304","Match","Exact","17 UNION ST, JERSEY CITY, NJ, 07304",59604715,"L"
245239,"17 UPLAND RD","WABAN","MA",2468,42.329444316,-71.2220424559999,239,"17 UPLAND RD, WABAN, MA, 2468","Match","Exact","17 UPLAND RD, WABAN, MA, 02468",86863384,"R"
245240,"17 UPLAND ROAD","WABAN","MA",2468,42.329444316,-71.2220424559999,240,"17 UPLAND ROAD, WABAN, MA, 2468","Match","Exact","17 UPLAND RD, WABAN, MA, 02468",86863384,"R"
245241,"17 VALLEY DRIVE","NANUET","NH",10954,NA,NA,241,"17 VALLEY DRIVE, NANUET, NH, 10954","No_Match",NA,NA,NA,NA
245242,"17 VALLEY ROAD APT 12","DREXEL HILL","PA",19026,39.947627239,-75.3117949689999,242,"17 VALLEY ROAD APT 12, DREXEL HILL, PA, 19026","Match","Exact","17 VALLEY RD, DREXEL HILL, PA, 19026",134898674,"R"
245243,"17 VALLEY ROAD","CASCO","ME",4015,43.9325994430001,-70.508621363,243,"17 VALLEY ROAD, CASCO, ME, 4015","Match","Exact","17 VALLEY RD, CASCO, ME, 04015",78010484,"L"
245244,"17 VALLEY VIEW ROAD","STONY POINT","NY",10980,41.215902208,-73.993440092,244,"17 VALLEY VIEW ROAD, STONY POINT, NY, 10980","Match","Exact","17 VALLEY VIEW RD, STONY POINT, NY, 10980",124590615,"L"
245245,"17 VALLEY VIEW ROAD","WASHINGTON","NJ",7882,40.7768899220001,-74.983212048,245,"17 VALLEY VIEW ROAD, WASHINGTON, NJ, 7882","Match","Exact","17 VALLEY VIEW RD, WASHINGTON, NJ, 07882",98089556,"L"
245246,"17 VALLEYVIEW DR","DANBURY","CT",6810,41.3980462920001,-73.424687138,246,"17 VALLEYVIEW DR, DANBURY, CT, 6810","Match","Non_Exact","17 VALLEY VIEW DR, DANBURY, CT, 06810",3274713,"R"
245247,"17 VAN BUREN PLACE","ELLICOTTVILLE","NY",14731,42.2785499570001,-78.674308885,247,"17 VAN BUREN PLACE, ELLICOTTVILLE, NY, 14731","Match","Exact","17 VAN BUREN PL, ELLICOTTVILLE, NY, 14731",624950640,"R"
245248,"17 VAN REYPEN ST APT 8","JERSEY CITY","NJ",7306,40.728567239,-74.068928182,248,"17 VAN REYPEN ST APT 8, JERSEY CITY, NJ, 7306","Match","Exact","17 VAN REYPEN ST, JERSEY CITY, NJ, 07306",59604491,"L"
245249,"17 VAN WINKLE ST","BLOOMFIELD","NJ",7003,40.7996662900001,-74.182414278,249,"17 VAN WINKLE ST, BLOOMFIELD, NJ, 7003","Match","Exact","17 VAN WINKLE ST, BLOOMFIELD, NJ, 07003",63454022,"R"
245250,"17 VAN WORET STREET","SYKESVILLE","PA",15865,41.049851651,-78.8052543699999,250,"17 VAN WORET STREET, SYKESVILLE, PA, 15865","Match","Non_Exact","17 VAN WOERT ST, SYKESVILLE, PA, 15865",66440769,"L"
245251,"17 VASSAR STREET","ROCHESTER","NY",14607,43.1481023540001,-77.579419617,251,"17 VASSAR STREET, ROCHESTER, NY, 14607","Match","Exact","17 VASSAR ST, ROCHESTER, NY, 14607",639160312,"R"
245252,"17 VENTADA ST","RANCHO MISSION VIEJO","CA",92694,33.5297709280001,-117.602785653,252,"17 VENTADA ST, RANCHO MISSION VIEJO, CA, 92694","Match","Exact","17 VENTADA ST, RANCHO MISSION VIEJO, CA, 92694",651697837,"L"
245253,"17 VERDE RD","LAGUNA","NM",87026,34.9335320260001,-107.149520035,253,"17 VERDE RD, LAGUNA, NM, 87026","Match","Non_Exact","17 VERDE, LAGUNA, NM, 87026",179164897,"R"
245254,"17 VERDE","LAGUNA","NM",87026,34.9335320260001,-107.149520035,254,"17 VERDE, LAGUNA, NM, 87026","Match","Exact","17 VERDE, LAGUNA, NM, 87026",179164897,"R"
245255,"17 VERMEER DRIVE","SOUTH AMBOY","NJ",8879,40.4421587630001,-74.295790973,255,"17 VERMEER DRIVE, SOUTH AMBOY, NJ, 8879","Match","Exact","17 VERMEER DR, SOUTH AMBOY, NJ, 08879",641925572,"R"
245256,"17 VERMONT AVE","ROCKLEDGE","FL",32955,28.334641026,-80.7183715149999,256,"17 VERMONT AVE, ROCKLEDGE, FL, 32955","Match","Exact","17 VERMONT AVE, ROCKLEDGE, FL, 32955",93894723,"L"
245257,"17 VERNA","LAKE FOREST","CA",92630,33.6764433640001,-117.682767467,257,"17 VERNA, LAKE FOREST, CA, 92630","Match","Exact","17 VERNA, LAKE FOREST, CA, 92630",651225391,"L"
245258,"17 VERNON COURT","WOODBRIDGE","CT",6525,41.3615568270001,-72.9940508399999,258,"17 VERNON COURT, WOODBRIDGE, CT, 6525","Match","Exact","17 VERNON CT, WOODBRIDGE, CT, 06525",3696860,"R"
245259,"17 VERSAILLES BLVD","CHERRY HILL","NJ",8003,39.898813718,-74.979196784,259,"17 VERSAILLES BLVD, CHERRY HILL, NJ, 8003","Match","Exact","17 VERSAILLES BLVD, CHERRY HILL, NJ, 08003",642520965,"R"
245260,"17 VIA LOMA","MANITOU SPRINGS","CO",80829,38.862524889,-104.890903506,260,"17 VIA LOMA, MANITOU SPRINGS, CO, 80829","Match","Exact","17 VIA LOMA, MANITOU SPRINGS, CO, 80829",105506175,"L"
245261,"17 VIA TRONIDO","RANCHO SANTA MARG","CA",92688,33.651191263,-117.616859985,261,"17 VIA TRONIDO, RANCHO SANTA MARG, CA, 92688","Match","Exact","17 VIA TRONIDO, RANCHO SANTA MARGARITA, CA, 92688",144399521,"R"
245262,"17 VIA TRONIDO","RANCHO SANTA MARGARI","CA",92688,33.651191263,-117.616859985,262,"17 VIA TRONIDO, RANCHO SANTA MARGARI, CA, 92688","Match","Non_Exact","17 VIA TRONIDO, RANCHO SANTA MARGARITA, CA, 92688",144399521,"R"
245263,"17 VIALLS DR","BARRINGTON","RI",2806,41.740264064,-71.332151085,263,"17 VIALLS DR, BARRINGTON, RI, 2806","Match","Exact","17 VIALLS DR, BARRINGTON, RI, 02806",46482770,"R"
245264,"17 VICTORIA BLVD","NEWARK","DE",19702,39.644455259,-75.664329102,264,"17 VICTORIA BLVD, NEWARK, DE, 19702","Match","Exact","17 VICTORIA BLVD, NEWARK, DE, 19702",187281423,"R"
245265,"17 VICTORIA PLACE","PRINCETON JUNCTION","NJ",8550,40.291230032,-74.651413213,265,"17 VICTORIA PLACE, PRINCETON JUNCTION, NJ, 8550","Match","Exact","17 VICTORIA PL, PRINCETON JCT, NJ, 08550",60187819,"L"
245266,"17 VIKING LANE","LITTLETON","NC",27850,36.5055379510001,-77.893876838,266,"17 VIKING LANE, LITTLETON, NC, 27850","Match","Exact","17 VIKING LN, LITTLETON, NC, 27850",56710277,"R"
245267,"17 VILLA BIANCO ROAD","ROSENDALE","NY",12472,41.849449276,-74.0673251439999,267,"17 VILLA BIANCO ROAD, ROSENDALE, NY, 12472","Match","Non_Exact","17 VILLA BIANCO LN, ROSENDALE, NY, 12472",41929985,"R"
245268,"17 VILLAGE BROOK LANE","DERRY","NH",3038,42.8966577190001,-71.2511831419999,268,"17 VILLAGE BROOK LANE, DERRY, NH, 3038","Match","Exact","17 VILLAGE BROOK LN, DERRY, NH, 03038",113688987,"L"
245269,"17 VILLAGE WAY NO6","VERNON","NJ",7462,41.1798952890001,-74.481526472,269,"17 VILLAGE WAY NO6, VERNON, NJ, 7462","Match","Exact","17 VILLAGE WAY, VERNON, NJ, 07462",636497925,"L"
245270,"17 VINCENT ROAD","MENDON","MA",1756,42.087251931,-71.5379921529999,270,"17 VINCENT ROAD, MENDON, MA, 1756","Match","Exact","17 VINCENT RD, MENDON, MA, 01756",645362916,"R"
245271,"17 VINE ST","CHESTERFIELD","IN",46017,40.1117346500001,-85.595998551,271,"17 VINE ST, CHESTERFIELD, IN, 46017","Match","Exact","17 VINE ST, CHESTERFIELD, IN, 46017",31117856,"L"
245272,"17 VINEYARD HAVEN","NEW CUMBERLAND","PA",17070,40.2225101020001,-76.874488566,272,"17 VINEYARD HAVEN, NEW CUMBERLAND, PA, 17070","Match","Exact","17 VINEYARD HAVEN, NEW CUMBERLAND, PA, 17070",221290219,"R"
245273,"17 VIOLA DRIVE","EAST HAMPTON","CT",6405,NA,NA,273,"17 VIOLA DRIVE, EAST HAMPTON, CT, 6405","No_Match",NA,NA,NA,NA
245274,"17 VIRGINIA CIR","VENUS","FL",33960,27.055201015,-81.339695456,274,"17 VIRGINIA CIR, VENUS, FL, 33960","Match","Exact","17 VIRGINIA CIR, VENUS, FL, 33960",4649878,"L"
245275,"17 VITALE","FOOTHILL RANCH","CA",92610,33.68778653,-117.655874338,275,"17 VITALE, FOOTHILL RANCH, CA, 92610","Match","Non_Exact","17 VITALE LN, FOOTHILL RNCH, CA, 92610",144380502,"R"
245276,"17 VON RUCK TERRACE","ASHEVILLE","NC",28801,35.6052264750001,-82.5429787049999,276,"17 VON RUCK TERRACE, ASHEVILLE, NC, 28801","Match","Exact","17 VON RUCK TER, ASHEVILLE, NC, 28801",635884883,"R"
245277,"17 VOORHEES CT","PENNINGTON","NJ",8534,40.2961716080001,-74.7730425569999,277,"17 VOORHEES CT, PENNINGTON, NJ, 8534","Match","Exact","17 VOORHEES CT, PENNINGTON, NJ, 08534",60191948,"R"
245278,"17 W  NIAGARA FALLS BLVD","BUFFALO","NY",14226,42.9545914230001,-78.822898396,278,"17 W  NIAGARA FALLS BLVD, BUFFALO, NY, 14226","Match","Non_Exact","17 NIAGARA FALLS BLVD, BUFFALO, NY, 14214",48296186,"R"
245279,"17 W 109 ST S","JENKS","OK",74037,NA,NA,279,"17 W 109 ST S, JENKS, OK, 74037","No_Match",NA,NA,NA,NA
245280,"17 W 112TH PLACE","CHICAGO","IL",60628,41.6898538900001,-87.6238344719999,280,"17 W 112TH PLACE, CHICAGO, IL, 60628","Match","Exact","17 W 112TH PL, CHICAGO, IL, 60628",605580251,"L"
245281,"17 W 8TH STREET","CHESTER","PA",19013,39.856451211,-75.3784966589999,281,"17 W 8TH STREET, CHESTER, PA, 19013","Match","Non_Exact","17 8TH ST, CHESTER, PA, 19015",134889738,"L"
245282,"17 W BROAD STREET","HAVERSTRAW","NY",10927,NA,NA,282,"17 W BROAD STREET, HAVERSTRAW, NY, 10927","Tie",NA,NA,NA,NA
245283,"17 W CAMINO RANCHO VIEJO","SAHUARITA","AZ",85629,NA,NA,283,"17 W CAMINO RANCHO VIEJO, SAHUARITA, AZ, 85629","No_Match",NA,NA,NA,NA
245284,"17 W CRYSTAL HAVEN","BOMOSEEN","VT",5732,43.6643962360001,-73.1930537699999,284,"17 W CRYSTAL HAVEN, BOMOSEEN, VT, 5732","Match","Exact","17 W CRYSTAL HAVEN, BOMOSEEN, VT, 05732",138944051,"R"
245285,"17 W EAGLE LAKE ROAD","BEECHER","IL",60401,41.369815483,-87.617322503,285,"17 W EAGLE LAKE ROAD, BEECHER, IL, 60401","Match","Exact","17 W EAGLE LAKE RD, BEECHER, IL, 60401",111639839,"R"
245286,"17 W ELM ST","LITTLETON","NH",3561,NA,NA,286,"17 W ELM ST, LITTLETON, NH, 3561","Tie",NA,NA,NA,NA
245287,"17 W ELM","ROSELLE","IL",60172,41.9819481060001,-88.081077546,287,"17 W ELM, ROSELLE, IL, 60172","Match","Non_Exact","17 W ELM AVE, ROSELLE, IL, 60172",112519120,"L"
245288,"17 W GREGSON AVE","SALT LAKE CITY","UT",84115,NA,NA,288,"17 W GREGSON AVE, SALT LAKE CITY, UT, 84115","Tie",NA,NA,NA,NA
245289,"17 W GROVER STREET","FLANDERS","NJ",7836,NA,NA,289,"17 W GROVER STREET, FLANDERS, NJ, 7836","Tie",NA,NA,NA,NA
245290,"17 W HAMPTON RD","PHILADELPHIA","PA",19118,40.081241133,-75.2193537479999,290,"17 W HAMPTON RD, PHILADELPHIA, PA, 19118","Match","Exact","17 W HAMPTON RD, PHILADELPHIA, PA, 19118",131393419,"R"
245291,"17 W HOMESTEAD RD","ELMA","WA",98541,NA,NA,291,"17 W HOMESTEAD RD, ELMA, WA, 98541","No_Match",NA,NA,NA,NA
245292,"17 W JEFFERSON ST STE 202","ROCKVILLE","MD",20850,39.0832141450001,-77.153289558,292,"17 W JEFFERSON ST STE 202, ROCKVILLE, MD, 20850","Match","Non_Exact","17 W JEFFERSON ST, ROCKVILLE, MD, 20850",62054778,"R"
245293,"17 W JOHNSON ST","SPRINGFIELD","OH",43055,NA,NA,293,"17 W JOHNSON ST, SPRINGFIELD, OH, 43055","No_Match",NA,NA,NA,NA
245294,"17 W KANSAS ST","LIBERTY","MO",64068,39.246105018,-94.420551371,294,"17 W KANSAS ST, LIBERTY, MO, 64068","Match","Exact","17 W KANSAS ST, LIBERTY, MO, 64068",89760674,"L"
245295,"17 W MARKET ST","WARREN","OH",44481,NA,NA,295,"17 W MARKET ST, WARREN, OH, 44481","No_Match",NA,NA,NA,NA
245296,"17 W MERCER ST APT 105","SEATTLE","WA",98119,47.62457219,-122.356423285,296,"17 W MERCER ST APT 105, SEATTLE, WA, 98119","Match","Non_Exact","17 MERCER ST, SEATTLE, WA, 98109",186582152,"R"
245297,"17 W MINER STREET","WEST CHESTER","PA",19381,39.9587291870001,-75.603649989,297,"17 W MINER STREET, WEST CHESTER, PA, 19381","Match","Non_Exact","17 W MINER ST, WEST CHESTER, PA, 19382",179490708,"R"
245298,"17 W MOUNT IDA AVE","ALEXANDRIA","VA",22305,38.8283662580001,-77.0615282539999,298,"17 W MOUNT IDA AVE, ALEXANDRIA, VA, 22305","Match","Exact","17 W MOUNT IDA AVE, ALEXANDRIA, VA, 22305",652320754,"R"
245299,"17 W MT IDA AVE","ALEXANDRIA","VI",22305,NA,NA,299,"17 W MT IDA AVE, ALEXANDRIA, VI, 22305","No_Match",NA,NA,NA,NA
245300,"17 W PARKWAY DRIVE","COLUMBIA","MO",65203,38.9509438960001,-92.342275393,300,"17 W PARKWAY DRIVE, COLUMBIA, MO, 65203","Match","Exact","17 W PARKWAY DR, COLUMBIA, MO, 65203",617532065,"R"
245301,"17 W RAINBOW WAY","ELIZABETHTOWN","KY",42701,37.656090879,-85.8652816599999,301,"17 W RAINBOW WAY, ELIZABETHTOWN, KY, 42701","Match","Exact","17 W RAINBOW WAY, ELIZABETHTOWN, KY, 42701",636079714,"L"
245302,"17 W RAND RD","VILLA PARK","IL",60181,41.8690030490001,-87.9788470079999,302,"17 W RAND RD, VILLA PARK, IL, 60181","Match","Exact","17 W RAND RD, VILLA PARK, IL, 60181",112546323,"L"
245303,"17 W SWON AVE","ST. LOUIS","MO",63119,38.5886451860001,-90.357943389,303,"17 W SWON AVE, ST. LOUIS, MO, 63119","Match","Exact","17 W SWON AVE, SAINT LOUIS, MO, 63119",100140148,"R"
245304,"17 W SWON AVE","WEBSTER GROVES","MO",63119,38.5886451860001,-90.357943389,304,"17 W SWON AVE, WEBSTER GROVES, MO, 63119","Match","Exact","17 W SWON AVE, WEBSTER GROVES, MO, 63119",100140148,"R"
245305,"17 W VERNON AVE UNIT 306","PHOENIX","AZ",85003,33.473976914,-112.074702659,305,"17 W VERNON AVE UNIT 306, PHOENIX, AZ, 85003","Match","Non_Exact","17 W VERNON AVE, PHOENIX, AZ, 85003",652594951,"L"
245306,"17 W VERNON AVE UNIT 615","PHOENIX","AZ",85003,33.473976914,-112.074702659,306,"17 W VERNON AVE UNIT 615, PHOENIX, AZ, 85003","Match","Non_Exact","17 W VERNON AVE, PHOENIX, AZ, 85003",652594951,"L"
245307,"17 WALDEN ESTATES ROAD","WALDEN","NY",12586,41.56621126,-74.1755345,307,"17 WALDEN ESTATES ROAD, WALDEN, NY, 12586","Match","Exact","17 WALDEN ESTATES RD, WALDEN, NY, 12586",124436643,"R"
245308,"17 WALDEN PLACE CT","ELGIN","NC",29045,NA,NA,308,"17 WALDEN PLACE CT, ELGIN, NC, 29045","No_Match",NA,NA,NA,NA
245309,"17 WALKER ROAD","WOODBURY","CT",6798,41.5604376730001,-73.185023412,309,"17 WALKER ROAD, WOODBURY, CT, 6798","Match","Exact","17 WALKER RD, WOODBURY, CT, 06798",611508790,"R"
245310,"17 WALKER STREET","WESTBROOK","ME",4092,43.6807646240001,-70.365177159,310,"17 WALKER STREET, WESTBROOK, ME, 4092","Match","Exact","17 WALKER ST, WESTBROOK, ME, 04092",78074098,"R"
245311,"17 WALKER WAY","ALBANY","NY",12205,42.7138901340001,-73.843442347,311,"17 WALKER WAY, ALBANY, NY, 12205","Match","Exact","17 WALKER WAY, ALBANY, NY, 12205",18325007,"R"
245312,"17 WALLER ROAD","BENTON","PA",17814,41.204055813,-76.3798982879999,312,"17 WALLER ROAD, BENTON, PA, 17814","Match","Exact","17 WALLER RD, BENTON, PA, 17814",59230701,"L"
245313,"17 WALNUT DRIVE","KUTZTOWN","PA",19530,40.516013222,-75.702933576,313,"17 WALNUT DRIVE, KUTZTOWN, PA, 19530","Match","Exact","17 WALNUT DR, KUTZTOWN, PA, 19530",649995446,"L"
245314,"17 WARD STREET","BURLINGTON","VT",5401,44.4865454540001,-73.223035931,314,"17 WARD STREET, BURLINGTON, VT, 5401","Match","Exact","17 WARD ST, BURLINGTON, VT, 05401",135827162,"R"
245315,"17 WARD STREET","HINGHAM","MA",2043,42.2127955930001,-70.9118356549999,315,"17 WARD STREET, HINGHAM, MA, 2043","Match","Exact","17 WARD ST, HINGHAM, MA, 02043",616474056,"R"
245316,"17 WARDER DRIVE","PITTSFORD","NY",14534,43.0658468300001,-77.5180474969999,316,"17 WARDER DRIVE, PITTSFORD, NY, 14534","Match","Exact","17 WARDER DR, PITTSFORD, NY, 14534",14545054,"R"
245317,"17 WARMAN ST 2ND FI","MONTCLAIR","NJ",7042,40.79728227,-74.227583911,317,"17 WARMAN ST 2ND FI, MONTCLAIR, NJ, 7042","Match","Exact","17 WARMAN ST, MONTCLAIR, NJ, 07042",63449456,"L"
245318,"17 WASHINGTON AVE","SCHENECTADY","NY",12305,42.817656023,-73.949064581,318,"17 WASHINGTON AVE, SCHENECTADY, NY, 12305","Match","Exact","17 WASHINGTON AVE, SCHENECTADY, NY, 12305",18025439,"L"
245319,"17 WASHINGTON AVENUE","KENMORE","NY",14217,42.9667363940001,-78.871301455,319,"17 WASHINGTON AVENUE, KENMORE, NY, 14217","Match","Exact","17 WASHINGTON AVE, KENMORE, NY, 14217",48287944,"R"
245320,"17 WASHINGTON RD","PITTSFORD","NY",14534,43.0959915020001,-77.51255212,320,"17 WASHINGTON RD, PITTSFORD, NY, 14534","Match","Exact","17 WASHINGTON RD, PITTSFORD, NY, 14534",648575284,"R"
245321,"17 WASHINGTON ST","TRUMBULL","CT",6611,41.2447504260001,-73.179578605,321,"17 WASHINGTON ST, TRUMBULL, CT, 6611","Match","Exact","17 WASHINGTON ST, TRUMBULL, CT, 06611",3222460,"L"
245322,"17 WATER ST APT 2","GORHAM","ME",4038,43.681678893,-70.4409818409999,322,"17 WATER ST APT 2, GORHAM, ME, 4038","Match","Exact","17 WATER ST, GORHAM, ME, 04038",78044416,"R"
245323,"17 WATER STREET","WORCESTER","NY",12197,42.592657924,-74.753489098,323,"17 WATER STREET, WORCESTER, NY, 12197","Match","Exact","17 WATER ST, WORCESTER, NY, 12197",125915019,"L"
245324,"17 WAVERLY PLACE","RED BANK","NJ",7701,40.345186203,-74.065448193,324,"17 WAVERLY PLACE, RED BANK, NJ, 7701","Match","Exact","17 WAVERLY PL, RED BANK, NJ, 07701",90454370,"L"
245325,"17 WAVERLY ROAD","CHERRY HILL","NJ",8003,39.889756778,-74.950237784,325,"17 WAVERLY ROAD, CHERRY HILL, NJ, 8003","Match","Exact","17 WAVERLY RD, CHERRY HILL, NJ, 08003",134363274,"L"
245326,"17 WEBSTER ST","ARLINGTON","MA",2474,42.414365145,-71.146667929,326,"17 WEBSTER ST, ARLINGTON, MA, 2474","Match","Exact","17 WEBSTER ST, ARLINGTON, MA, 02474",86888672,"R"
245327,"17 WEDGEWOOD DR","DANBURY","CT",6811,41.439276792,-73.520906676,327,"17 WEDGEWOOD DR, DANBURY, CT, 6811","Match","Exact","17 WEDGEWOOD DR, DANBURY, CT, 06811",3253539,"R"
245328,"17 WEINEL DR","FAIRVIEW HTS","IL",62208,38.594867272,-90.0173002449999,328,"17 WEINEL DR, FAIRVIEW HTS, IL, 62208","Match","Exact","17 WEINEL DR, FAIRVIEW HTS, IL, 62208",107838492,"L"
245329,"17 WEINEL DRIVE","FAIRIVEW HEIGHTS","IL",62208,38.594867272,-90.0173002449999,329,"17 WEINEL DRIVE, FAIRIVEW HEIGHTS, IL, 62208","Match","Non_Exact","17 WEINEL DR, FAIRVIEW HTS, IL, 62208",107838492,"L"
245330,"17 WEINEL DRIVE","FAIRVIEW HEIGHTS","IL",62208,38.594867272,-90.0173002449999,330,"17 WEINEL DRIVE, FAIRVIEW HEIGHTS, IL, 62208","Match","Exact","17 WEINEL DR, FAIRVIEW HTS, IL, 62208",107838492,"L"
245331,"17 WELLESLEY PK","DORCHESTER","MA",2124,42.2969652900001,-71.0657075569999,331,"17 WELLESLEY PK, DORCHESTER, MA, 2124","Match","Exact","17 WELLESLEY PARK, DORCHESTER, MA, 02124",85702333,"R"
245332,"17 WELLESLEY STREET","WESTON","MA",2493,42.366029773,-71.290819201,332,"17 WELLESLEY STREET, WESTON, MA, 2493","Match","Exact","17 WELLESLEY ST, WESTON, MA, 02493",87172430,"R"
245333,"17 WEMBERLY DRIVE","LITTLE ROCK","AR",72209,34.6646160190001,-92.348386166,333,"17 WEMBERLY DRIVE, LITTLE ROCK, AR, 72209","Match","Exact","17 WEMBERLY DR, LITTLE ROCK, AR, 72209",83512424,"L"
245334,"17 WENDY LANE","TOMS RIVER","NJ",8753,39.9600746030001,-74.1527570969999,334,"17 WENDY LANE, TOMS RIVER, NJ, 8753","Match","Exact","17 WENDY LN, TOMS RIVER, NJ, 08753",203729349,"L"
245335,"17 WESLEY AVENUE","PORT CHESTER","NY",10573,41.0058111710001,-73.6748859159999,335,"17 WESLEY AVENUE, PORT CHESTER, NY, 10573","Match","Exact","17 WESLEY AVE, PORT CHESTER, NY, 10573",139844438,"R"
245336,"17 WESLEY STREET","LAWRENCE","MA",1841,42.7194262030001,-71.1471471199999,336,"17 WESLEY STREET, LAWRENCE, MA, 1841","Match","Exact","17 WESLEY ST, LAWRENCE, MA, 01841",86627665,"R"
245337,"17 WEST 54TH STREET","NEW YORK","NY",10019,40.761341954,-73.976069971,337,"17 WEST 54TH STREET, NEW YORK, NY, 10019","Match","Exact","17 W 54TH ST, NEW YORK, NY, 10019",59657130,"R"
245338,"17 WEST 67TH 12E","NEW YORK","NY",10023,40.773298358,-73.978890795,338,"17 WEST 67TH 12E, NEW YORK, NY, 10023","Match","Non_Exact","17 W 67TH ST, NEW YORK, NY, 10023",59657046,"R"
245339,"17 WEST 70TH STREET APT 4","NEW YORK","NY",10023,40.7751765150001,-73.977520004,339,"17 WEST 70TH STREET APT 4, NEW YORK, NY, 10023","Match","Exact","17 W 70TH ST, NEW YORK, NY, 10023",59657028,"R"
245340,"17 WEST 70TH STREET","NEW YORK","NY",10023,40.7751765150001,-73.977520004,340,"17 WEST 70TH STREET, NEW YORK, NY, 10023","Match","Exact","17 W 70TH ST, NEW YORK, NY, 10023",59657028,"R"
245341,"17 WEST 7TH ST","OIL CITY","PA",16301,41.4220662650001,-79.7115192969999,341,"17 WEST 7TH ST, OIL CITY, PA, 16301","Match","Exact","17 W 7TH ST, OIL CITY, PA, 16301",70740612,"R"
245342,"17 WEST 8TH STREET","CHESTER","PA",19013,39.8506543400001,-75.3632717959999,342,"17 WEST 8TH STREET, CHESTER, PA, 19013","Match","Exact","17 W 8TH ST, CHESTER, PA, 19013",134881618,"L"
245343,"17 WEST AVE","SALEM","MA",1970,42.5056246680001,-70.889268767,343,"17 WEST AVE, SALEM, MA, 1970","Match","Exact","17 WEST AVE, SALEM, MA, 01970",86644032,"L"
245344,"17 WEST BROW TERRANCE","CHATTANOOGA","TN",37411,35.027702586,-85.253468947,344,"17 WEST BROW TERRANCE, CHATTANOOGA, TN, 37411","Match","Non_Exact","17 W BROW TER, CHATTANOOGA, TN, 37411",59309820,"L"
245345,"17 WEST CHESTNUT ST APT A","WASHINGTON","PA",15301,40.1723408830001,-80.246411859,345,"17 WEST CHESTNUT ST APT A, WASHINGTON, PA, 15301","Match","Exact","17 W CHESTNUT ST, WASHINGTON, PA, 15301",52803166,"L"
245346,"17 WEST CHESTNUT STREET","MOUNT UNION","PA",17066,40.3891513200001,-77.879423623,346,"17 WEST CHESTNUT STREET, MOUNT UNION, PA, 17066","Match","Exact","17 W CHESTNUT ST, MOUNT UNION, PA, 17066",50604242,"L"
245347,"17 WEST COVE","ELLISVILLE","MS",39437,31.548276059,-89.258545469,347,"17 WEST COVE, ELLISVILLE, MS, 39437","Match","Exact","17 W COVE, ELLISVILLE, MS, 39437",613238453,"L"
245348,"17 WEST CV","ELLISVILLE","MS",39437,NA,NA,348,"17 WEST CV, ELLISVILLE, MS, 39437","No_Match",NA,NA,NA,NA
245349,"17 WEST DRIVE","HARTVILLE","OH",44632,40.976971516,-81.3317477579999,349,"17 WEST DRIVE, HARTVILLE, OH, 44632","Match","Exact","17 WEST DR, HARTVILLE, OH, 44632",64710300,"R"
245350,"17 WEST ELM","ROSELLE","IL",60172,41.98194914,-88.0810473609999,350,"17 WEST ELM, ROSELLE, IL, 60172","Match","Non_Exact","17 W ELM AVE, ROSELLE, IL, 60172",112519120,"L"
245351,"17 WEST END CT","HALETHORPE","MD",21227,39.232210335,-76.702976295,351,"17 WEST END CT, HALETHORPE, MD, 21227","Match","Exact","17 W END CT, HALETHORPE, MD, 21227",191504497,"L"
245352,"17 WEST MAPLE STREET","VALLEY STREAM","NY",11580,40.6657160080001,-73.698363566,352,"17 WEST MAPLE STREET, VALLEY STREAM, NY, 11580","Match","Exact","17 W MAPLE ST, VALLEY STREAM, NY, 11580",147669987,"R"
245353,"17 WEST TALLULAH DRIVE","GREENVILLE","SC",29605,34.820478151,-82.389014898,353,"17 WEST TALLULAH DRIVE, GREENVILLE, SC, 29605","Match","Exact","17 W TALLULAH DR, GREENVILLE, SC, 29605",38301852,"L"
245354,"17 WEST WINDSOR DR","LITTLE ROCK","AR",72209,34.6948445840001,-92.358575845,354,"17 WEST WINDSOR DR, LITTLE ROCK, AR, 72209","Match","Exact","17 W WINDSOR DR, LITTLE ROCK, AR, 72209",83511953,"L"
245355,"17 WESTERN PARKWAY","IRVINGTON","NJ",7111,40.7378961630001,-74.217941271,355,"17 WESTERN PARKWAY, IRVINGTON, NJ, 7111","Match","Exact","17 WESTERN PKWY, IRVINGTON, NJ, 07111",63464448,"R"
245356,"17 WESTGATE ROAD APT E","TEANECK","NJ",7666,40.899600005,-74.00048835,356,"17 WESTGATE ROAD APT E, TEANECK, NJ, 7666","Match","Exact","17 WESTGATE RD, TEANECK, NJ, 07666",64409313,"L"
245357,"17 WESTMORELAND AVE","LONGMEADOW","LA",1106,NA,NA,357,"17 WESTMORELAND AVE, LONGMEADOW, LA, 1106","No_Match",NA,NA,NA,NA
245358,"17 WESTSELDEN STREET","MATTAPAN","MA",2126,NA,NA,358,"17 WESTSELDEN STREET, MATTAPAN, MA, 2126","No_Match",NA,NA,NA,NA
245359,"17 WETMORE AVENUE","MAPLEWOOD","NJ",7040,40.7377864310001,-74.252101303,359,"17 WETMORE AVENUE, MAPLEWOOD, NJ, 7040","Match","Exact","17 WETMORE AVE, MAPLEWOOD, NJ, 07040",63484700,"R"
245360,"17 WHIFFLETREE DRIVE","SIMPSONVILLE","SC",29680,34.7052423540001,-82.284134368,360,"17 WHIFFLETREE DRIVE, SIMPSONVILLE, SC, 29680","Match","Exact","17 WHIFFLETREE DR, SIMPSONVILLE, SC, 29680",38336228,"L"
245361,"17 WHIP SAW ROAD","MOYIE SPRINGS","ID",83845,48.68465531,-116.09032767,361,"17 WHIP SAW ROAD, MOYIE SPRINGS, ID, 83845","Match","Exact","17 WHIP SAW RD, MOYIE SPRINGS, ID, 83845",629189259,"R"
245362,"17 WHIPPOORWILL DRIVE","WORCESTER","MA",1606,42.3322923810001,-71.798633496,362,"17 WHIPPOORWILL DRIVE, WORCESTER, MA, 1606","Match","Exact","17 WHIPPOORWILL DR, WORCESTER, MA, 01606",40006068,"L"
245363,"17 WHITE OAK HILL ROAD","WEAVERVILLE","NC",28787,35.747244284,-82.622297089,363,"17 WHITE OAK HILL ROAD, WEAVERVILLE, NC, 28787","Match","Exact","17 WHITE OAK HL, WEAVERVILLE, NC, 28787",36873900,"R"
245364,"17 WHITE STREET","NORTH BABYLON","NY",11703,40.7305334260001,-73.338105893,364,"17 WHITE STREET, NORTH BABYLON, NY, 11703","Match","Exact","17 WHITE ST, NORTH BABYLON, NY, 11703",113976275,"L"
245365,"17 WHITETAIL TRAIL","BRUNSWICK","GA",31525,31.267394199,-81.5450219969999,365,"17 WHITETAIL TRAIL, BRUNSWICK, GA, 31525","Match","Exact","17 WHITETAIL TRL, BRUNSWICK, GA, 31525",627302682,"L"
245366,"17 WHITFIELD CT","STOCKBRIDGE","GA",30281,NA,NA,366,"17 WHITFIELD CT, STOCKBRIDGE, GA, 30281","No_Match",NA,NA,NA,NA
245367,"17 WHITMAN DRIVE","HAMILTON","NJ",8619,40.2452273820001,-74.6799335159999,367,"17 WHITMAN DRIVE, HAMILTON, NJ, 8619","Match","Non_Exact","17 WHITMAN RD, HAMILTON, NJ, 08619",60180279,"R"
245368,"17 WIDEVIEW CIRCLE","SANTA FE","NM",87508,35.4733854140001,-106.013626345,368,"17 WIDEVIEW CIRCLE, SANTA FE, NM, 87508","Match","Non_Exact","17 WIDE VIEW LN, SANTA FE, NM, 87508",169406725,"R"
245369,"17 WIGGLESWORTH ST","ROXBURY CROSSING","MA",2120,42.3341687500001,-71.1029814039999,369,"17 WIGGLESWORTH ST, ROXBURY CROSSING, MA, 2120","Match","Exact","17 WIGGLESWORTH ST, ROXBURY CROSSING, MA, 02120",85728428,"R"
245370,"17 WILEY STREET","WAKEFIELD","MA",1880,42.4981624440001,-71.04678609,370,"17 WILEY STREET, WAKEFIELD, MA, 1880","Match","Exact","17 WILEY ST, WAKEFIELD, MA, 01880",87173466,"R"
245371,"17 WILLIAM PENN","MORRISTOWN","NJ",7960,NA,NA,371,"17 WILLIAM PENN, MORRISTOWN, NJ, 7960","No_Match",NA,NA,NA,NA
245372,"17 WILLIAMS DRIVE","MORAGA","CA",NA,37.8565463900001,-122.123099655,372,"17 WILLIAMS DRIVE, MORAGA, CA, ","Match","Exact","17 WILLIAMS DR, MORAGA, CA, 94556",192110461,"L"
245373,"17 WILLIS AVE","CHERRY HILL","NJ",8002,NA,NA,373,"17 WILLIS AVE, CHERRY HILL, NJ, 8002","No_Match",NA,NA,NA,NA
245374,"17 WILLOW NEST LANE","NORTH FALMOUTH","MA",2556,41.645447861,-70.609442992,374,"17 WILLOW NEST LANE, NORTH FALMOUTH, MA, 2556","Match","Non_Exact","17 WILLOW NEST, N FALMOUTH, MA, 02556",121610473,"R"
245375,"17 WILLWALL STREET NE","FORT WALTON BEACH","FL",32547,30.4694265970001,-86.612127659,375,"17 WILLWALL STREET NE, FORT WALTON BEACH, FL, 32547","Match","Exact","17 WILLWALL ST NE, FORT WALTON BEACH, FL, 32547",74406926,"L"
245376,"17 WILSON DRIVE","OGDENSBURG","NJ",7439,41.069238424,-74.598789629,376,"17 WILSON DRIVE, OGDENSBURG, NJ, 7439","Match","Exact","17 WILSON DR, OGDENSBURG, NJ, 07439",98001450,"L"
245377,"17 WINDING ROAD","LEETSDALE","PA",15056,40.5611489820001,-80.201177065,377,"17 WINDING ROAD, LEETSDALE, PA, 15056","Match","Exact","17 WINDING RD, LEETSDALE, PA, 15056",51604197,"R"
245378,"17 WINDSOR DR","BELLEVILLE","IL",62223,38.5670995940001,-90.0400479629999,378,"17 WINDSOR DR, BELLEVILLE, IL, 62223","Match","Exact","17 WINDSOR DR, BELLEVILLE, IL, 62223",107850311,"R"
245379,"17 WINEBERRY LANE","MALTA","NY",12020,42.9761581330001,-73.7780758499999,379,"17 WINEBERRY LANE, MALTA, NY, 12020","Match","Exact","17 WINEBERRY LN, MALTA, NY, 12020",18814550,"R"
245380,"17 WINEL DR","CASEYVILLE","IL",62232,38.637649948,-90.032390596,380,"17 WINEL DR, CASEYVILLE, IL, 62232","Match","Non_Exact","17 WEINEL CT, CASEYVILLE, IL, 62232",107835957,"L"
245381,"17 WINSTON DR","BELLEAIR","FL",33756,27.924923907,-82.8231516279999,381,"17 WINSTON DR, BELLEAIR, FL, 33756","Match","Exact","17 WINSTON DR, BELLEAIR, FL, 33756",124670281,"L"
245382,"17 WINTER LANE","MILTON","VT",5468,44.6064681240001,-73.1031543719999,382,"17 WINTER LANE, MILTON, VT, 5468","Match","Exact","17 WINTER LN, MILTON, VT, 05468",135846106,"L"
245383,"17 WINTERGREEN LANE","PLAINVILLE","MA",2762,42.0060190190001,-71.3372411949999,383,"17 WINTERGREEN LANE, PLAINVILLE, MA, 2762","Match","Exact","17 WINTERGREEN LN, PLAINVILLE, MA, 02762",87284181,"L"
245384,"17 WINTHROP ROAD","LEXINGTON","MA",2421,42.4438994500001,-71.2243755119999,384,"17 WINTHROP ROAD, LEXINGTON, MA, 2421","Match","Exact","17 WINTHROP RD, LEXINGTON, MA, 02421",86882458,"R"
245385,"17 WIRKKALA ROAD","NASELLE","WA",98638,46.353820727,-123.678004325,385,"17 WIRKKALA ROAD, NASELLE, WA, 98638","Match","Exact","17 WIRKKALA RD, NASELLE, WA, 98638",176294707,"L"
245386,"17 WOLCOTT CIRCLE","MILLSTADT","IL",62260,38.459738353,-90.081470542,386,"17 WOLCOTT CIRCLE, MILLSTADT, IL, 62260","Match","Exact","17 WOLCOTT CIR, MILLSTADT, IL, 62260",648400548,"L"
245387,"17 WONDERFUL PLACE","BELLVUE","CO",80512,40.6829954,-105.30202382,387,"17 WONDERFUL PLACE, BELLVUE, CO, 80512","Match","Exact","17 WONDERFUL PL, BELLVUE, CO, 80512",634710563,"L"
245388,"17 WOOD AVENUE","MATTAPAN","MA",2126,NA,NA,388,"17 WOOD AVENUE, MATTAPAN, MA, 2126","No_Match",NA,NA,NA,NA
245389,"17 WOODBRIDGE AVENUE","SEWAREN","NJ",7077,40.5517945620001,-74.2574778329999,389,"17 WOODBRIDGE AVENUE, SEWAREN, NJ, 7077","Match","Exact","17 WOODBRIDGE AVE, SEWAREN, NJ, 07077",60362213,"R"
245390,"17 WOODBROOK ROAD","VOORHEES","NJ",8034,NA,NA,390,"17 WOODBROOK ROAD, VOORHEES, NJ, 8034","No_Match",NA,NA,NA,NA
245391,"17 WOODCOCK LANE","LEVITTOWN","NY",11756,40.737872897,-73.5316440669999,391,"17 WOODCOCK LANE, LEVITTOWN, NY, 11756","Match","Exact","17 WOODCOCK LN, LEVITTOWN, NY, 11756",147633477,"L"
245392,"17 WOODHAVEN ST","MATTAPAN","MA",2126,42.2730716950001,-71.094829921,392,"17 WOODHAVEN ST, MATTAPAN, MA, 2126","Match","Exact","17 WOODHAVEN ST, MATTAPAN, MA, 02126",85705268,"R"
245393,"17 WOODHOLLOW ROAD","WEST WINDSOR","NJ",8850,NA,NA,393,"17 WOODHOLLOW ROAD, WEST WINDSOR, NJ, 8850","No_Match",NA,NA,NA,NA
245394,"17 WOODLAKE DRIVE","THIELLS","NY",10984,41.2114855680001,-74.012611938,394,"17 WOODLAKE DRIVE, THIELLS, NY, 10984","Match","Exact","17 WOODLAKE DR, THIELLS, NY, 10984",124590781,"L"
245395,"17 WOODLAND DR","GANSEVOORT","NY",12831,43.2470460750001,-73.714612232,395,"17 WOODLAND DR, GANSEVOORT, NY, 12831","Match","Exact","17 WOODLAND DR, GANSEVOORT, NY, 12831",18814648,"L"
245396,"17 WOODLAND DR","SEAFORD","DE",19973,38.6366297320001,-75.664739845,396,"17 WOODLAND DR, SEAFORD, DE, 19973","Match","Exact","17 WOODLAND DR, SEAFORD, DE, 19973",106108659,"R"
245397,"17 WOODLAND STREET","BELMONT","MA",2478,42.3900465200001,-71.181674723,397,"17 WOODLAND STREET, BELMONT, MA, 2478","Match","Exact","17 WOODLAND ST, BELMONT, MA, 02478",86891129,"R"
245398,"17 WOODRUFF RD","EDISON","NJ",8820,40.5723835140001,-74.371929748,398,"17 WOODRUFF RD, EDISON, NJ, 8820","Match","Exact","17 WOODRUFF RD, EDISON, NJ, 08820",60271371,"R"
245399,"17 WOODRUFF ROAD","EDISON","NJ",8820,40.5723835140001,-74.371929748,399,"17 WOODRUFF ROAD, EDISON, NJ, 8820","Match","Exact","17 WOODRUFF RD, EDISON, NJ, 08820",60271371,"R"
245400,"17 WOODS FORT DR","TROY","MO",63379,38.9918254200001,-90.974082944,400,"17 WOODS FORT DR, TROY, MO, 63379","Match","Exact","17 WOODS FORT DR, TROY, MO, 63379",44853771,"R"
245401,"17 WOODSIDE DRIVE","MONTOURSVILLE","PA",17754,41.25576792,-76.9400562769999,401,"17 WOODSIDE DRIVE, MONTOURSVILLE, PA, 17754","Match","Exact","17 WOODSIDE DR, MONTOURSVILLE, PA, 17754",59448621,"R"
245402,"17 WOODSIDE DRIVE","WOODBRIDGE","CT",6525,41.3479375750001,-73.005452565,402,"17 WOODSIDE DRIVE, WOODBRIDGE, CT, 6525","Match","Exact","17 WOODSIDE DR, WOODBRIDGE, CT, 06525",617673277,"L"
245403,"17 WOODSTOCK LANE","BELLA VISTA","AR",72714,36.466545567,-94.236758373,403,"17 WOODSTOCK LANE, BELLA VISTA, AR, 72714","Match","Exact","17 WOODSTOCK LN, BELLA VISTA, AR, 72714",47822882,"L"
245404,"17 WOODY WAY","OAKWOOD HILLS","IL",60013,42.242136153,-88.240341062,404,"17 WOODY WAY, OAKWOOD HILLS, IL, 60013","Match","Exact","17 WOODY WAY, OAKWOOD HILLS, IL, 60013",119823548,"L"
245405,"17 WORCESTER STREET APT 6","BOSTON","MA",2118,42.3378406420001,-71.076118897,405,"17 WORCESTER STREET APT 6, BOSTON, MA, 2118","Match","Exact","17 WORCESTER ST, BOSTON, MA, 02118",85700723,"R"
245406,"17 WYATT","PROVIDENCE","RI",2905,41.8015542200001,-71.406512673,406,"17 WYATT, PROVIDENCE, RI, 2905","Match","Non_Exact","17 WYATT ST, PROVIDENCE, RI, 02905",47467305,"R"
245407,"17 WYCKLOW ST","OVERLAND PARK","KS",66207,38.9417361050001,-94.637224191,407,"17 WYCKLOW ST, OVERLAND PARK, KS, 66207","Match","Exact","17 WYCKLOW ST, OVERLAND PARK, KS, 66207",91280287,"L"
245408,"17 WYMAN STREET","MEDFORD","MA",2155,42.42313934,-71.128151729,408,"17 WYMAN STREET, MEDFORD, MA, 2155","Match","Exact","17 WYMAN ST, MEDFORD, MA, 02155",639009270,"R"
245409,"17 WYOMING CT","SPEARFISH","SD",57783,NA,NA,409,"17 WYOMING CT, SPEARFISH, SD, 57783","No_Match",NA,NA,NA,NA
245410,"17 YATES AVENUE","NEWARK","NJ",7112,40.7159378910001,-74.205241256,410,"17 YATES AVENUE, NEWARK, NJ, 7112","Match","Exact","17 YATES AVE, NEWARK, NJ, 07112",63466214,"L"
245411,"17 YELLOW TAIL CV","AUSTIN","TX",78745,30.22457753,-97.81541932,411,"17 YELLOW TAIL CV, AUSTIN, TX, 78745","Match","Exact","17 YELLOW TAIL COVE, AUSTIN, TX, 78745",64037115,"L"
245412,"17 YORK ROAD","LARCHMONT","NY",10538,40.953555845,-73.759539407,412,"17 YORK ROAD, LARCHMONT, NY, 10538","Match","Exact","17 YORK RD, LARCHMONT, NY, 10538",139751831,"L"
245413,"17 YORKSHIRE RD","DELAWARE","OH",43015,40.2751214890001,-83.0791883699999,413,"17 YORKSHIRE RD, DELAWARE, OH, 43015","Match","Exact","17 YORKSHIRE RD, DELAWARE, OH, 43015",24597460,"R"
245414,"17 ZEKE SELLERS DR","LAUREL","MS",39440,NA,NA,414,"17 ZEKE SELLERS DR, LAUREL, MS, 39440","No_Match",NA,NA,NA,NA
245415,"17-01 POLLITT DRIVE","FAIRLAWN","NJ",7410,40.9430042660001,-74.123073984,415,"17-01 POLLITT DRIVE, FAIRLAWN, NJ, 7410","Match","Non_Exact","17 POLLITT DR, FAIR LAWN, NJ, 07410",639667772,"R"
245416,"17-01 PROSPECT AVENUE","FAIR LAWN","NJ",7410,40.946157708,-74.105072913,416,"17-01 PROSPECT AVENUE, FAIR LAWN, NJ, 7410","Match","Exact","17-1 PROSPECT AVE, FAIR LAWN, NJ, 07410",64380672,"R"
245417,"17-07 GATES PLACE","WAYNE","NJ",7470,NA,NA,417,"17-07 GATES PLACE, WAYNE, NJ, 7470","Tie",NA,NA,NA,NA
245418,"17-114 N IPUAIWAHA PLACE","KEAAU","HI",96749,19.608967426,-155.047520946,418,"17-114 N IPUAIWAHA PLACE, KEAAU, HI, 96749","Match","Exact","17-114 N IPUAIWAHA PL, KEAAU, HI, 96749",203024631,"L"
245419,"17-16 SADDLE RIVER RD","FAIR LAWN","NJ",7410,NA,NA,419,"17-16 SADDLE RIVER RD, FAIR LAWN, NJ, 7410","Tie",NA,NA,NA,NA
245420,"17-17 RTE 208 N","FAIR LAWN","NJ",7410,NA,NA,420,"17-17 RTE 208 N, FAIR LAWN, NJ, 7410","No_Match",NA,NA,NA,NA
245421,"17-19 WEST 108TH ST APT 91","NEW YORK","NY",10025,40.7995758380001,-73.959593393,421,"17-19 WEST 108TH ST APT 91, NEW YORK, NY, 10025","Match","Exact","17 W 108TH ST, NEW YORK, NY, 10025",59656927,"R"
245422,"17-21 PATERSON STREET  APT C2","NEWARK","NJ",7105,40.726751688,-74.153287065,422,"17-21 PATERSON STREET  APT C2, NEWARK, NJ, 7105","Match","Non_Exact","17 PATTERSON ST, NEWARK, NJ, 07105",63468781,"R"
245423,"17-23 MADISON ST APT1","BROOKLYN","NY",11358,40.683838574,-73.958280513,423,"17-23 MADISON ST APT1, BROOKLYN, NY, 11358","Match","Non_Exact","17 MADISON ST, BROOKLYN, NY, 11238",59078814,"L"
245424,"17-23 SUMMERFIELD STREET","RIDGEWOOD","NY",11385,NA,NA,424,"17-23 SUMMERFIELD STREET, RIDGEWOOD, NY, 11385","No_Match",NA,NA,NA,NA
245425,"17-32 150TH STREET","WHITESTONE","NY",11357,40.7832874970001,-73.813932079,425,"17-32 150TH STREET, WHITESTONE, NY, 11357","Match","Exact","17-32 150TH ST, WHITESTONE, NY, 11357",59700663,"R"
245426,"17-35 HUNTER PLACE","FAIR LAWN","NJ",7410,40.945318238,-74.1110127869999,426,"17-35 HUNTER PLACE, FAIR LAWN, NJ, 7410","Match","Exact","17 HUNTER PL, FAIR LAWN, NJ, 07410",64380646,"R"
245427,"17-36 WILLOUGHBY AVE","QUEENS","NY",11207,NA,NA,427,"17-36 WILLOUGHBY AVE, QUEENS, NY, 11207","No_Match",NA,NA,NA,NA
245428,"17-415 IPUAIWAHA","KEAAU","HI",96749,19.6029563290001,-155.043934798,428,"17-415 IPUAIWAHA, KEAAU, HI, 96749","Match","Non_Exact","17 IPUAIWAHA ST, KEAAU, HI, 96749",614317601,"R"
245429,"17-4224 KUA AINA ROAD","KURTISTOWN","HI",96760,19.6013757160001,-155.069840923,429,"17-4224 KUA AINA ROAD, KURTISTOWN, HI, 96760","Match","Non_Exact","17 KUAAINA RD, KURTISTOWN, HI, 96760",634871323,"R"
245430,"17-552 PAAHANA STREET","KEAAU","HI",96749,19.609567468,-155.044994595,430,"17-552 PAAHANA STREET, KEAAU, HI, 96749","Match","Exact","17 PAAHANA ST, KEAAU, HI, 96749",203024612,"R"
245431,"17-58 166TH STREET","WHITESTONE","NY",11357,40.781440414,-73.7973323689999,431,"17-58 166TH STREET, WHITESTONE, NY, 11357","Match","Exact","17-58 166TH ST, WHITESTONE, NY, 11357",59701848,"R"
245432,"17-646 ROAD M","NAPOLEON","OH",43545,NA,NA,432,"17-646 ROAD M, NAPOLEON, OH, 43545","No_Match",NA,NA,NA,NA
245433,"17-777 LANGLOIS RD  147","DESERT HOT SPRINGS","CA",92241,NA,NA,433,"17-777 LANGLOIS RD  147, DESERT HOT SPRINGS, CA, 92241","No_Match",NA,NA,NA,NA
245434,"17-8 FOUNTAIN DRIVE","LAKEWOOD","NJ",8701,40.088178584,-74.174599375,434,"17-8 FOUNTAIN DRIVE, LAKEWOOD, NJ, 8701","Match","Exact","17 FOUNTAIN DR, LAKEWOOD, NJ, 08701",203844221,"R"
245435,"17-J CONSTITUTION HILL","CHRISTIANSTED","VI",820,NA,NA,435,"17-J CONSTITUTION HILL, CHRISTIANSTED, VI, 820","No_Match",NA,NA,NA,NA
245436,"17","BELTON","MO",64012,NA,NA,436,"17, BELTON, MO, 64012","No_Match",NA,NA,NA,NA
245437,"17","CH","NC",28213,NA,NA,437,"17, CH, NC, 28213","No_Match",NA,NA,NA,NA
245438,"17","COHOES","NY",12047,NA,NA,438,"17, COHOES, NY, 12047","No_Match",NA,NA,NA,NA
245439,"17","MIAMI","FL",33054,NA,NA,439,"17, MIAMI, FL, 33054","No_Match",NA,NA,NA,NA
245440,"17","SHERWOOD","AR",72120,NA,NA,440,"17, SHERWOOD, AR, 72120","No_Match",NA,NA,NA,NA
245441,"17/10 BEN ELIEZER STREET","PETAH TIKVA",NA,NA,NA,NA,441,"17/10 BEN ELIEZER STREET, PETAH TIKVA, , ","No_Match",NA,NA,NA,NA
245442,"170 10 MILE RD NW","SPARTA","MI",49345,43.1166228700001,-85.674585663,442,"170 10 MILE RD NW, SPARTA, MI, 49345","Match","Exact","170 10 MILE RD NW, SPARTA, MI, 49345",12450500,"R"
245443,"170 10TH ST","APALACHICOLA","FL",32320,29.726492283,-84.9935537009999,443,"170 10TH ST, APALACHICOLA, FL, 32320","Match","Exact","170 10TH ST, APALACHICOLA, FL, 32320",74337853,"L"
245444,"170 10TH ST","IDAHO FALLS","ID",83401,43.488879524,-112.031888232,444,"170 10TH ST, IDAHO FALLS, ID, 83401","Match","Non_Exact","170 10TH ST, IDAHO FALLS, ID, 83404",119118878,"R"
245445,"170 134TH STREET COURT EAST","TACOMA","WA",98445,47.1348623580001,-122.429950926,445,"170 134TH STREET COURT EAST, TACOMA, WA, 98445","Match","Exact","170 134TH STREET CT E, TACOMA, WA, 98445",648497100,"L"
245446,"170 14 130TH AVENUE APT 13B","JAMAICA","NY",11434,NA,NA,446,"170 14 130TH AVENUE APT 13B, JAMAICA, NY, 11434","No_Match",NA,NA,NA,NA
245447,"170 5TH AVE NE","PLAINVIEW","MN",55964,44.169887525,-92.163074635,447,"170 5TH AVE NE, PLAINVIEW, MN, 55964","Match","Exact","170 5TH AVE NE, PLAINVIEW, MN, 55964",31636047,"R"
245448,"170 79TH STREET","WEST DES MOINES","IA",50266,41.5691097860001,-93.816649109,448,"170 79TH STREET, WEST DES MOINES, IA, 50266","Match","Exact","170 79TH ST, WEST DES MOINES, IA, 50266",649917141,"R"
245449,"170 7TH PLACE NE","VERNON","AL",35592,NA,NA,449,"170 7TH PLACE NE, VERNON, AL, 35592","Tie",NA,NA,NA,NA
245450,"170 8TH ST","PONCHATOULA","LA",70454,NA,NA,450,"170 8TH ST, PONCHATOULA, LA, 70454","Tie",NA,NA,NA,NA
245451,"170 A BEACH 24TH STREET","FAR ROCKAWAY","NY",11691,40.5946643010001,-73.7578908959999,451,"170 A BEACH 24TH STREET, FAR ROCKAWAY, NY, 11691","Match","Exact","170 BEACH 24TH ST, FAR ROCKAWAY, NY, 11691",59737549,"R"
245452,"170 ADAIR LANE","SANTA ROSA BEACH","FL",32459,30.3972303310001,-86.2023785329999,452,"170 ADAIR LANE, SANTA ROSA BEACH, FL, 32459","Match","Exact","170 ADAIR LN, SANTA ROSA BEACH, FL, 32459",32984988,"R"
245453,"170 AKEA STREET","HILO","HI",96720,19.6688806510001,-155.081448207,453,"170 AKEA STREET, HILO, HI, 96720","Match","Exact","170 AKEA ST, HILO, HI, 96720",203000306,"R"
245454,"170 ALSCHULER DR","AURORA","IL",60506,41.758371466,-88.360546073,454,"170 ALSCHULER DR, AURORA, IL, 60506","Match","Exact","170 ALSCHULER DR, AURORA, IL, 60506",119549509,"L"
245455,"170 AMES STREET","OREGON","WI",53575,42.917896383,-89.38137316,455,"170 AMES STREET, OREGON, WI, 53575","Match","Exact","170 AMES ST, OREGON, WI, 53575",635633863,"R"
245456,"170 AMSTERDAM AVE","STATEN ISLAND","NY",10031,40.602905079,-74.1678324109999,456,"170 AMSTERDAM AVE, STATEN ISLAND, NY, 10031","Match","Non_Exact","170 AMSTERDAM AVE, STATEN ISLAND, NY, 10314",59888797,"R"
245457,"170 ANDERBY DR","CLAYTON","NC",27527,35.6700623510001,-78.373438903,457,"170 ANDERBY DR, CLAYTON, NC, 27527","Match","Exact","170 ANDERBY DR, CLAYTON, NC, 27527",632359995,"R"
245458,"170 ANDERSON PL","BUFFALO","NY",14222,42.9122263150001,-78.875879765,458,"170 ANDERSON PL, BUFFALO, NY, 14222","Match","Exact","170 ANDERSON PL, BUFFALO, NY, 14222",48289739,"L"
245459,"170 ANDOVER STREET","SAN FRANSCISCO","CA",94110,37.7408230410001,-122.416380755,459,"170 ANDOVER STREET, SAN FRANSCISCO, CA, 94110","Match","Non_Exact","170 ANDOVER ST, SAN FRANCISCO, CA, 94110",192288609,"R"
245460,"170 ANILINE AVE N","HOLLAND","MI",49424,42.8027382590001,-86.1271700089999,460,"170 ANILINE AVE N, HOLLAND, MI, 49424","Match","Non_Exact","170 ANILINE AVE, HOLLAND, MI, 49424",71088200,"L"
245461,"170 APPLECROSS DRIVE","BROWNSBURG","IN",46112,39.852200182,-86.409441312,461,"170 APPLECROSS DRIVE, BROWNSBURG, IN, 46112","Match","Exact","170 APPLECROSS DR, BROWNSBURG, IN, 46112",89206617,"L"
245462,"170 ARCH ST APT 4","NEW BRITAIN","CT",6051,41.6636144880001,-72.782402184,462,"170 ARCH ST APT 4, NEW BRITAIN, CT, 6051","Match","Exact","170 ARCH ST, NEW BRITAIN, CT, 06051",3510781,"L"
245463,"170 ARROYO RD","FOREST KNOLLS","CA",94933,NA,NA,463,"170 ARROYO RD, FOREST KNOLLS, CA, 94933","No_Match",NA,NA,NA,NA
245464,"170 ASPEN LANE","GILBERTSVILLE","PA",19525,40.3115388890001,-75.596282845,464,"170 ASPEN LANE, GILBERTSVILLE, PA, 19525","Match","Exact","170 ASPEN LN, GILBERTSVILLE, PA, 19525",135121959,"L"
245465,"170 AUDUBON CIRCLE","SACRAMENTO","CA",95831,38.499320477,-121.557368312,465,"170 AUDUBON CIRCLE, SACRAMENTO, CA, 95831","Match","Exact","170 AUDUBON CIR, SACRAMENTO, CA, 95831",133364179,"L"
245466,"170 AUTUMN MOON TRAIL","FAYETTEVILLE","GA",30215,33.414736143,-84.397376416,466,"170 AUTUMN MOON TRAIL, FAYETTEVILLE, GA, 30215","Match","Exact","170 AUTUMN MOON TRL, FAYETTEVILLE, GA, 30215",75937250,"L"
245467,"170 AUTUMN STREET","MANCHESTER","CT",6040,41.770218819,-72.505527576,467,"170 AUTUMN STREET, MANCHESTER, CT, 6040","Match","Exact","170 AUTUMN ST, MANCHESTER, CT, 06040",3499098,"R"
245468,"170 AVENUE C   6F","NEW YORK","NY",10009,40.726205233,-73.97727731,468,"170 AVENUE C   6F, NEW YORK, NY, 10009","Match","Exact","170 AVE C, NEW YORK, NY, 10009",59654787,"R"
245469,"170 AVENUE C APT 19D","NEW YORK","NY",10009,40.726205233,-73.97727731,469,"170 AVENUE C APT 19D, NEW YORK, NY, 10009","Match","Exact","170 AVE C, NEW YORK, NY, 10009",59654787,"R"
245470,"170 AVENUE D APT 8E","NEW YORK","NY",10009,40.7257342680001,-73.9745307109999,470,"170 AVENUE D APT 8E, NEW YORK, NY, 10009","Match","Exact","170 AVE D, NEW YORK, NY, 10009",650155741,"R"
245471,"170 AVERY CREEK RD","ARDEN","NC",28704,35.4601651300001,-82.5880805369999,471,"170 AVERY CREEK RD, ARDEN, NC, 28704","Match","Exact","170 AVERY CREEK RD, ARDEN, NC, 28704",636160096,"R"
245472,"170 AVON AVENUE","LEXINGTON","KY",40505,38.057392484,-84.476888765,472,"170 AVON AVENUE, LEXINGTON, KY, 40505","Match","Exact","170 AVON AVE, LEXINGTON, KY, 40505",31925763,"R"
245473,"170 BALFOUR DRIVE","MARCO ISLAND","FL",34145,25.93271617,-81.711706114,473,"170 BALFOUR DRIVE, MARCO ISLAND, FL, 34145","Match","Exact","170 BALFOUR DR, MARCO ISLAND, FL, 34145",115148600,"L"
245474,"170 BASCOM ROAD","NEWPORT","NH",3773,43.344398149,-72.1942510539999,474,"170 BASCOM ROAD, NEWPORT, NH, 3773","Match","Exact","170 BASCOM RD, NEWPORT, NH, 03773",124345460,"L"
245475,"170 BASTILLE WAY","FAYETTEVILLE","GA",30214,33.451489806,-84.483423315,475,"170 BASTILLE WAY, FAYETTEVILLE, GA, 30214","Match","Exact","170 BASTILLE WAY, FAYETTEVILLE, GA, 30214",75940239,"R"
245476,"170 BEACH 124 STREET","ROCKAWAY PARK","NY",11694,40.5768639230001,-73.843447865,476,"170 BEACH 124 STREET, ROCKAWAY PARK, NY, 11694","Match","Exact","170 BEACH 124TH ST, ROCKAWAY PARK, NY, 11694",59709442,"R"
245477,"170 BEACH 96TH STREET - 1ST FLOOR","ROCKAWAY BEACH","NY",11693,40.5848642830001,-73.817757813,477,"170 BEACH 96TH STREET - 1ST FLOOR, ROCKAWAY BEACH, NY, 11693","Match","Exact","170 BEACH 96TH ST, ROCKAWAY BEACH, NY, 11693",59735472,"R"
245478,"170 BEACH RD U-17","SALISBURY","MA",1952,42.839933327,-70.8343856079999,478,"170 BEACH RD U-17, SALISBURY, MA, 1952","Match","Exact","170 BEACH RD, SALISBURY, MA, 01952",86687956,"R"
245479,"170 BEECHWOOD LN","FRANCONIA","NH",3580,44.1820242800001,-71.7478774209999,479,"170 BEECHWOOD LN, FRANCONIA, NH, 3580","Match","Exact","170 BEECHWOOD LN, FRANCONIA, NH, 03580",635770902,"R"
245480,"170 BELMONT AVE APT 16","SALT LAKE CITY","UT",84111,40.748004237,-111.885790383,480,"170 BELMONT AVE APT 16, SALT LAKE CITY, UT, 84111","Match","Non_Exact","170 E BELMONT AVE, SALT LAKE CITY, UT, 84111",176078146,"R"
245481,"170 BELMONT AVE APT 3","BRIDGETON","NJ",8302,39.4198803090001,-75.244606061,481,"170 BELMONT AVE APT 3, BRIDGETON, NJ, 8302","Match","Exact","170 BELMONT AVE, BRIDGETON, NJ, 08302",174108694,"L"
245482,"170 BELMONT PLACE","CABOT","AR",72023,34.9400152920001,-91.9941343529999,482,"170 BELMONT PLACE, CABOT, AR, 72023","Match","Exact","170 BELMONT PL, CABOT, AR, 72023",639019998,"L"
245483,"170 BENEDICT STREET","PROVIDENCE","RI",2909,41.8061774920001,-71.4390409439999,483,"170 BENEDICT STREET, PROVIDENCE, RI, 2909","Match","Exact","170 BENEDICT ST, PROVIDENCE, RI, 02909",47460780,"L"
245484,"170 BERMUDA LAKE DRIVE","MERIDIANVILLE","AL",35759,34.887594001,-86.510537671,484,"170 BERMUDA LAKE DRIVE, MERIDIANVILLE, AL, 35759","Match","Non_Exact","170 BERMUDA LAKES DR, MERIDIANVILLE, AL, 35759",649994014,"R"
245485,"170 BERMUDA LAKES DR","MERIDIANVILLE","AL",35759,34.887594001,-86.510537671,485,"170 BERMUDA LAKES DR, MERIDIANVILLE, AL, 35759","Match","Exact","170 BERMUDA LAKES DR, MERIDIANVILLE, AL, 35759",649994014,"R"
245486,"170 BILTMORE LOOP","MONTGOMERY","TX",77316,30.2861980170001,-95.581229379,486,"170 BILTMORE LOOP, MONTGOMERY, TX, 77316","Match","Exact","170 BILTMORE LOOP, MONTGOMERY, TX, 77316",646663887,"R"
245487,"170 BIRCH HOLLOW RD","STANTON","KY",40380,37.805755801,-83.74903862,487,"170 BIRCH HOLLOW RD, STANTON, KY, 40380","Match","Exact","170 BIRCH HOLLOW, STANTON, KY, 40380",628677916,"L"
245488,"170 BOB WHITE","MANCHESTER","TN",37355,35.472893033,-86.066015921,488,"170 BOB WHITE, MANCHESTER, TN, 37355","Match","Non_Exact","170 BOB WHITE DR, MANCHESTER, TN, 37355",58227342,"R"
245489,"170 BOULDIN ROAD","CHARLES TOWN","WV",25414,39.2614274950001,-77.892558117,489,"170 BOULDIN ROAD, CHARLES TOWN, WV, 25414","Match","Exact","170 BOULDIN RD, CHARLES TOWN, WV, 25414",619129104,"R"
245490,"170 BOULEVARD SE / H228","ATLANTA","GA",30312,33.7492218200001,-84.3696643549999,490,"170 BOULEVARD SE / H228, ATLANTA, GA, 30312","Match","Exact","170 BOULEVARD SE, ATLANTA, GA, 30312",653671236,"L"
245491,"170 BOULEVARD SE H506","ATLANTA","GA",30312,33.7492218200001,-84.3696643549999,491,"170 BOULEVARD SE H506, ATLANTA, GA, 30312","Match","Exact","170 BOULEVARD SE, ATLANTA, GA, 30312",653671236,"L"
245492,"170 BOULEVARD SE UNIT E311","ATLANTA","GA",30312,33.7492218200001,-84.3696643549999,492,"170 BOULEVARD SE UNIT E311, ATLANTA, GA, 30312","Match","Exact","170 BOULEVARD SE, ATLANTA, GA, 30312",653671236,"L"
245493,"170 BOYD LANE","ESTES PARK","CO",80517,40.3778169550001,-105.524549145,493,"170 BOYD LANE, ESTES PARK, CO, 80517","Match","Exact","170 BOYD LN, ESTES PARK, CO, 80517",188555766,"L"
245494,"170 BRADLEY AVENUE","MORRO BAY","CA",93443,35.355460255,-120.842207502,494,"170 BRADLEY AVENUE, MORRO BAY, CA, 93443","Match","Non_Exact","170 BRADLEY AVE, MORRO BAY, CA, 93442",109729451,"R"
245495,"170 BRENT FIELD LANE","BERKELEY SPRINGS","WV",25411,39.5937455390001,-78.1728669029999,495,"170 BRENT FIELD LANE, BERKELEY SPRINGS, WV, 25411","Match","Non_Exact","170 BRENTFIELD LN, BERKELEY SPRINGS, WV, 25411",634785971,"L"
245496,"170 BREWER STREET","EAST HARTFORD","CT",6118,41.7442840790001,-72.623076654,496,"170 BREWER STREET, EAST HARTFORD, CT, 6118","Match","Exact","170 BREWER ST, EAST HARTFORD, CT, 06118",604942380,"L"
245497,"170 BRIGHTON STREET","BELMONT","MA",2478,42.3992367550001,-71.162421647,497,"170 BRIGHTON STREET, BELMONT, MA, 2478","Match","Exact","170 BRIGHTON ST, BELMONT, MA, 02478",86888441,"L"
245498,"170 BRINSON RD","THOMASVILLE","GA",31757,30.8873079470001,-83.9214520469999,498,"170 BRINSON RD, THOMASVILLE, GA, 31757","Match","Exact","170 BRINSON RD, THOMASVILLE, GA, 31757",83121825,"L"
245499,"170 BRITTLE LANE","HICKSVILLE","NY",11801,40.7439205410001,-73.53728768,499,"170 BRITTLE LANE, HICKSVILLE, NY, 11801","Match","Exact","170 BRITTLE LN, HICKSVILLE, NY, 11801",147633086,"R"
245500,"170 BROADWAY      APT 101","ENGLEWOOD","FL",34223,NA,NA,500,"170 BROADWAY      APT 101, ENGLEWOOD, FL, 34223","Tie",NA,NA,NA,NA
