"ID","Address","City","State","Zip","lat","long","id","input_address","match_indicator","match_type","matched_address","tiger_line_id","tiger_side"
149001,"1325 S 6TH AVE","BOZEMAN","MT",59717,NA,NA,1,"1325 S 6TH AVE, BOZEMAN, MT, 59717","No_Match",NA,NA,NA,NA
149002,"1325 S 77 SUNSHINE STRIP OFFICE SUI","HARLINGEN","TX",78550,26.1810091780001,-97.680124432,2,"1325 S 77 SUNSHINE STRIP OFFICE SUI, HARLINGEN, TX, 78550","Match","Non_Exact","1325 S 77 SUNSHINE STRIP, HARLINGEN, TX, 78550",90022915,"L"
149003,"1325 S AVENUE","NEW CASTLE","IN",47362,39.9069299940001,-85.370244368,3,"1325 S AVENUE, NEW CASTLE, IN, 47362","Match","Exact","1325 S AVE, NEW CASTLE, IN, 47362",29984617,"R"
149004,"1325 S CLIFF AVE","SIOUX FALLS","SD",57117,NA,NA,4,"1325 S CLIFF AVE, SIOUX FALLS, SD, 57117","No_Match",NA,NA,NA,NA
149005,"1325 S DINWIDDIE","ARLINGTON","VA",22206,38.847184407,-77.112915228,5,"1325 S DINWIDDIE, ARLINGTON, VA, 22206","Match","Non_Exact","1325 S DINWIDDIE ST, ARLINGTON, VA, 22206",76469264,"L"
149006,"1325 S GARRETT STREET","ANAHEIM","CA",92804,33.815039966,-118.001143502,6,"1325 S GARRETT STREET, ANAHEIM, CA, 92804","Match","Exact","1325 GARRETT ST, ANAHEIM, CA, 92804",144002361,"R"
149007,"1325 S MARYLAND PARKWAY","LAS VEGAS","NV",89104,NA,NA,7,"1325 S MARYLAND PARKWAY, LAS VEGAS, NV, 89104","No_Match",NA,NA,NA,NA
149008,"1325 S POINSETTIA AVE","COMPTON","CA",90221,33.8846197570001,-118.208249416,8,"1325 S POINSETTIA AVE, COMPTON, CA, 90221","Match","Exact","1325 S POINSETTIA AVE, COMPTON, CA, 90221",141682865,"R"
149009,"1325 S RAVENAL AVE","Marshall","MO",65340,39.1079976520001,-93.2021098339999,9,"1325 S RAVENAL AVE, Marshall, MO, 65340","Match","Exact","1325 S RAVENAL AVE, MARSHALL, MO, 65340",21027540,"R"
149010,"1325 S RAVENAL AVE","MARSHALL","MO",65340,39.1079976520001,-93.2021098339999,10,"1325 S RAVENAL AVE, MARSHALL, MO, 65340","Match","Exact","1325 S RAVENAL AVE, MARSHALL, MO, 65340",21027540,"R"
149011,"1325 S WABASH STREET UNIT 101","CHICAGO","IL",60605,NA,NA,11,"1325 S WABASH STREET UNIT 101, CHICAGO, IL, 60605","No_Match",NA,NA,NA,NA
149012,"1325 SAN MARCO BLVD SUITE 401","JACKSONVILLE","FL",32207,30.300610728,-81.6508447579999,12,"1325 SAN MARCO BLVD SUITE 401, JACKSONVILLE, FL, 32207","Match","Non_Exact","1325 MARCO PL, JACKSONVILLE, FL, 32207",83915060,"L"
149013,"1325 SANTA FE AVE","BERKELEY","CA",94702,NA,NA,13,"1325 SANTA FE AVE, BERKELEY, CA, 94702","No_Match",NA,NA,NA,NA
149014,"1325 SASEBO NE","ALBUQUERQUE","NM",87112,35.0890140240001,-106.492624957,14,"1325 SASEBO NE, ALBUQUERQUE, NM, 87112","Match","Non_Exact","1325 SASEBO ST NE, ALBUQUERQUE, NM, 87112",206723792,"L"
149015,"1325 SATINWOOD DR","JEFFERSON CITY","MO",65109,38.5665966340001,-92.2121806439999,15,"1325 SATINWOOD DR, JEFFERSON CITY, MO, 65109","Match","Exact","1325 SATINWOOD DR, JEFFERSON CITY, MO, 65109",34408190,"R"
149016,"1325 SE 10TH COURT NUMBER 2","OAK HARBOR","WA",98277,NA,NA,16,"1325 SE 10TH COURT NUMBER 2, OAK HARBOR, WA, 98277","Tie",NA,NA,NA,NA
149017,"1325 SE 17TH AVE APT 3","PORTLAND","OR",97214,45.513415863,-122.648603662,17,"1325 SE 17TH AVE APT 3, PORTLAND, OR, 97214","Match","Non_Exact","1325 SE 17TH AVE, PORTLAND, OR, 97214",157509092,"R"
149018,"1325 SE ILLINOIS AVE","TOPEKA","KS",66607,39.038248219,-95.659217784,18,"1325 SE ILLINOIS AVE, TOPEKA, KS, 66607","Match","Exact","1325 SE ILLINOIS AVE, TOPEKA, KS, 66607",17890648,"R"
149019,"1325 SEAGRAPE CIR","WESTON","FL",33326,26.1045169550001,-80.375083321,19,"1325 SEAGRAPE CIR, WESTON, FL, 33326","Match","Exact","1325 SEAGRAPE CIR, WESTON, FL, 33326",635617486,"L"
149020,"1325 SHANNON COURT","OPELIKA","AL",36801,32.64488056,-85.394279835,20,"1325 SHANNON COURT, OPELIKA, AL, 36801","Match","Exact","1325 SHANNON CT, OPELIKA, AL, 36801",1599098,"L"
149021,"1325 SHEA DRIVE","HERMISTON","OR",97838,NA,NA,21,"1325 SHEA DRIVE, HERMISTON, OR, 97838","No_Match",NA,NA,NA,NA
149022,"1325 SHOREVIEW DR","LIMA","OH",45805,40.7205717040001,-84.1581705199999,22,"1325 SHOREVIEW DR, LIMA, OH, 45805","Match","Exact","1325 SHOREVIEW DR, LIMA, OH, 45805",209542728,"L"
149023,"1325 SIX FLAGS DR APT 409","AUSTELL","GA",30168,33.7805311970001,-84.59388556,23,"1325 SIX FLAGS DR APT 409, AUSTELL, GA, 30168","Match","Exact","1325 SIX FLAGS DR, AUSTELL, GA, 30168",17267092,"R"
149024,"1325 SO FARWELL STREET","EAU CLAIRE","WI",54701,44.802152693,-91.489701988,24,"1325 SO FARWELL STREET, EAU CLAIRE, WI, 54701","Match","Exact","1325 S FARWELL ST, EAU CLAIRE, WI, 54701",46067904,"L"
149025,"1325 SOUTH 19TH STREET","NEW CASTLE","IN",47362,39.919344741,-85.3618415999999,25,"1325 SOUTH 19TH STREET, NEW CASTLE, IN, 47362","Match","Exact","1325 S 19TH ST, NEW CASTLE, IN, 47362",29984376,"L"
149026,"1325 SOUTH CLIFF DRIVE","SIOUX FALLS","SD",57105,43.5345463140001,-96.711326017,26,"1325 SOUTH CLIFF DRIVE, SIOUX FALLS, SD, 57105","Match","Non_Exact","1325 S CLIFF AVE, SIOUX FALLS, SD, 57105",34974074,"R"
149027,"1325 SOUTH CLIFF DRIVE","SOIUX FALLS","SD",57117,NA,NA,27,"1325 SOUTH CLIFF DRIVE, SOIUX FALLS, SD, 57117","No_Match",NA,NA,NA,NA
149028,"1325 SOUTH MADISON STREET","BAKERSFIELD","CA",99307,NA,NA,28,"1325 SOUTH MADISON STREET, BAKERSFIELD, CA, 99307","No_Match",NA,NA,NA,NA
149029,"1325 STATE STREET","ALTON","IL",62002,38.903166705,-90.193075451,29,"1325 STATE STREET, ALTON, IL, 62002","Match","Exact","1325 STATE ST, ALTON, IL, 62002",107679003,"R"
149030,"1325 STEAMBOAT LANE","HEATHSVILLE","VA",22473,37.873815001,-76.435294191,30,"1325 STEAMBOAT LANE, HEATHSVILLE, VA, 22473","Match","Exact","1325 STEAMBOAT LN, HEATHSVILLE, VA, 22473",30957939,"L"
149031,"1325 STEWARTSTOWN RD APT A7","MORGANTOWN","WV",26505,39.654299774,-79.9346094429999,31,"1325 STEWARTSTOWN RD APT A7, MORGANTOWN, WV, 26505","Match","Exact","1325 STEWARTSTOWN RD, MORGANTOWN, WV, 26505",50764674,"L"
149032,"1325 STONE CANYON COURT","PLEASANTON","CA",94566,37.6804960970001,-121.861847583,32,"1325 STONE CANYON COURT, PLEASANTON, CA, 94566","Match","Non_Exact","1325 STONE CANYON CT, PLEASANTON, CA, 94588",606322472,"R"
149033,"1325 STONE RD UNIT 604","TALLAHASSEE","FL",32303,30.4761614710001,-84.305504996,33,"1325 STONE RD UNIT 604, TALLAHASSEE, FL, 32303","Match","Exact","1325 STONE RD, TALLAHASSEE, FL, 32303",82885069,"L"
149034,"1325 STONE ROAD UNIT 604","TALLAHASSEE","FL",32303,30.4761614710001,-84.305504996,34,"1325 STONE ROAD UNIT 604, TALLAHASSEE, FL, 32303","Match","Exact","1325 STONE RD, TALLAHASSEE, FL, 32303",82885069,"L"
149035,"1325 SUMMERSET LANE","BURLESON","TX",76028,NA,NA,35,"1325 SUMMERSET LANE, BURLESON, TX, 76028","No_Match",NA,NA,NA,NA
149036,"1325 SUSSEX PLACE","NORFOLK","VA",23508,36.8965263580001,-76.30549324,36,"1325 SUSSEX PLACE, NORFOLK, VA, 23508","Match","Exact","1325 SUSSEX PL, NORFOLK, VA, 23508",122153951,"L"
149037,"1325 TEAMON RD","GRIFFIN","GA",30223,33.333136396,-84.2503990879999,37,"1325 TEAMON RD, GRIFFIN, GA, 30223","Match","Exact","1325 TEAMON RD, GRIFFIN, GA, 30223",23759721,"R"
149038,"1325 TEAMON ROAD","GRIFFIN","GA",30223,33.333136396,-84.2503990879999,38,"1325 TEAMON ROAD, GRIFFIN, GA, 30223","Match","Exact","1325 TEAMON RD, GRIFFIN, GA, 30223",23759721,"R"
149039,"1325 TEXAS AVE S","ST. LOUIS PARK","MN",55426,44.96976454,-93.379968503,39,"1325 TEXAS AVE S, ST. LOUIS PARK, MN, 55426","Match","Exact","1325 TEXAS AVE S, SAINT LOUIS PARK, MN, 55426",647752799,"L"
149040,"1325 THEATRE DRIVE","KENT","OH",44242,NA,NA,40,"1325 THEATRE DRIVE, KENT, OH, 44242","No_Match",NA,NA,NA,NA
149041,"1325 THERIOT AVE  SUITE 3","BRONX","NY",10472,40.8329172970001,-73.864662273,41,"1325 THERIOT AVE  SUITE 3, BRONX, NY, 10472","Match","Non_Exact","1325 THIERIOT AVE, BRONX, NY, 10472",80304708,"L"
149042,"1325 TOLTEC DR","DALLAS","TX",75232,32.6838166260001,-96.842569156,42,"1325 TOLTEC DR, DALLAS, TX, 75232","Match","Exact","1325 TOLTEC DR, DALLAS, TX, 75232",102948191,"R"
149043,"1325 TWISTING WIND DRIVE","HASLET","TX",76052,32.93622831,-97.387682345,43,"1325 TWISTING WIND DRIVE, HASLET, TX, 76052","Match","Exact","1325 TWISTING WIND DR, HASLET, TX, 76052",637603394,"L"
149044,"1325 UNION ROAD","WEST SENECA","NY",14224,42.83494138,-78.753821538,44,"1325 UNION ROAD, WEST SENECA, NY, 14224","Match","Exact","1325 UNION RD, WEST SENECA, NY, 14224",48304840,"R"
149045,"1325 UNION STREET APT D4","BROOKLYN","NY",11225,40.668823398,-73.948294985,45,"1325 UNION STREET APT D4, BROOKLYN, NY, 11225","Match","Exact","1325 UNION ST, BROOKLYN, NY, 11225",59079449,"L"
149046,"1325 UPLAND WAY","DOWNINTOWN","PA",19335,40.001778996,-75.654093,46,"1325 UPLAND WAY, DOWNINTOWN, PA, 19335","Match","Non_Exact","1325 UPLAND WAY, DOWNINGTOWN, PA, 19335",179488375,"R"
149047,"1325 W 7TH AVE","EUGENE","OR",97402,44.0521590000001,-123.112962466,47,"1325 W 7TH AVE, EUGENE, OR, 97402","Match","Exact","1325 W 7TH AVE, EUGENE, OR, 97402",178166039,"R"
149048,"1325 W HOWARD ST SUITE 304","EVANSTON","IL",60202,42.019512343,-87.691271238,48,"1325 W HOWARD ST SUITE 304, EVANSTON, IL, 60202","Match","Exact","1325 HOWARD ST, EVANSTON, IL, 60202",605265650,"R"
149049,"1325 W NIDO AVE","MESA","AZ",85202,33.366309388,-111.862477561,49,"1325 W NIDO AVE, MESA, AZ, 85202","Match","Exact","1325 W NIDO AVE, MESA, AZ, 85202",128241357,"L"
149050,"1325 W SEASCAPE","GILBERT","AZ",85233,33.3492952940001,-111.818128586,50,"1325 W SEASCAPE, GILBERT, AZ, 85233","Match","Non_Exact","1325 W SEASCAPE DR, GILBERT, AZ, 85233",128787478,"L"
149051,"1325 W TANA DR","MERIDIAN","ID",83646,43.624432389,-116.410322146,51,"1325 W TANA DR, MERIDIAN, ID, 83646","Match","Exact","1325 TANA DR, MERIDIAN, ID, 83646",117853530,"R"
149052,"1325 W THARPE ST APT 322","TALLAHASSEE","FL",32303,30.463523632,-84.3045173359999,52,"1325 W THARPE ST APT 322, TALLAHASSEE, FL, 32303","Match","Non_Exact","1325 W THARPE ST, TALLAHASSEE, FL, 32303",610226506,"L"
149053,"1325 W WILSON","CHICAGO","IL",60640,41.965312506,-87.6635177799999,53,"1325 W WILSON, CHICAGO, IL, 60640","Match","Non_Exact","1325 W WILSON AVE, CHICAGO, IL, 60640",605200059,"L"
149054,"1325 WASHINGTON ST","CANTON","MA",2021,42.172129612,-71.139859751,54,"1325 WASHINGTON ST, CANTON, MA, 2021","Match","Exact","1325 WASHINGTON ST, CANTON, MA, 02021",87298010,"R"
149055,"1325 WASHINGTON ST","THE DALLES","OR",97058,45.594781321,-121.188211816,55,"1325 WASHINGTON ST, THE DALLES, OR, 97058","Match","Exact","1325 WASHINGTON ST, THE DALLES, OR, 97058",175533008,"L"
149056,"1325 WATERFORD OAK DR - 207","ORLANDO","FL",32828,28.555769329,-81.1966922089999,56,"1325 WATERFORD OAK DR - 207, ORLANDO, FL, 32828","Match","Exact","1325 WATERFORD OAK DR, ORLANDO, FL, 32828",640906937,"R"
149057,"1325 WEBSTER AVE","WHEATON","IL",60187,41.8778615570001,-88.093203369,57,"1325 WEBSTER AVE, WHEATON, IL, 60187","Match","Exact","1325 WEBSTER AVE, WHEATON, IL, 60187",112521344,"R"
149058,"1325 WEBSTER","WHEATON","IL",60187,41.8778615570001,-88.093203369,58,"1325 WEBSTER, WHEATON, IL, 60187","Match","Non_Exact","1325 WEBSTER AVE, WHEATON, IL, 60187",112521344,"R"
149059,"1325 WEST 28TH STREET","RIVIERA BEACH","FL",33404,26.786018018,-80.0750929719999,59,"1325 WEST 28TH STREET, RIVIERA BEACH, FL, 33404","Match","Exact","1325 W 28TH ST, RIVIERA BEACH, FL, 33404",115354929,"L"
149060,"1325 WEST 7TH AVENUE","EUGENE","OR",97402,44.052158972,-123.112955953,60,"1325 WEST 7TH AVENUE, EUGENE, OR, 97402","Match","Exact","1325 W 7TH AVE, EUGENE, OR, 97402",178166039,"R"
149061,"1325 WEST 84TH PLACE","LOS ANGELES","CA",90044,33.962468265,-118.298933884,61,"1325 WEST 84TH PLACE, LOS ANGELES, CA, 90044","Match","Non_Exact","1325 W 84TH ST, LOS ANGELES, CA, 90044",141659904,"R"
149062,"1325 WEST KATELLA AVE","ORANGE","CA",92867,33.8090191150001,-117.865717749,62,"1325 WEST KATELLA AVE, ORANGE, CA, 92867","Match","Exact","1325 W KATELLA AVE, ORANGE, CA, 92867",635500303,"R"
149063,"1325 WEST SUNSHINE 169","SPRINGFIELD","MO",65807,37.1823879830001,-93.308895568,63,"1325 WEST SUNSHINE 169, SPRINGFIELD, MO, 65807","Match","Non_Exact","1325 W SUNSHINE ST, SPRINGFIELD, MO, 65807",605886960,"R"
149064,"1325 WESTMORELAND AVENUE","NORFOLK","VA",23508,36.8935413460001,-76.3056212,64,"1325 WESTMORELAND AVENUE, NORFOLK, VA, 23508","Match","Exact","1325 WESTMORELAND AVE, NORFOLK, VA, 23508",122144153,"L"
149065,"1325 WESTWIND PLACE","FORT WAYNE","IN",46845,NA,NA,65,"1325 WESTWIND PLACE, FORT WAYNE, IN, 46845","No_Match",NA,NA,NA,NA
149066,"1325 WEXFORD DOWNS LN","NASHVILLE","TN",37211,36.019462393,-86.737439125,66,"1325 WEXFORD DOWNS LN, NASHVILLE, TN, 37211","Match","Exact","1325 WEXFORD DOWNS LN, NASHVILLE, TN, 37211",645518155,"L"
149067,"1325 WHIPPOORVILL VISTA","CHOCTAW","OK",73020,35.451836261,-97.2751981329999,67,"1325 WHIPPOORVILL VISTA, CHOCTAW, OK, 73020","Match","Non_Exact","1325 WHIPPOORWILL VIS, CHOCTAW, OK, 73020",100437184,"R"
149068,"1325 WHIPPOORWILL VISTA","CHOCTAW","OK",73020,35.451836261,-97.2751981329999,68,"1325 WHIPPOORWILL VISTA, CHOCTAW, OK, 73020","Match","Exact","1325 WHIPPOORWILL VIS, CHOCTAW, OK, 73020",100437184,"R"
149069,"1325 WILDER AVENUE MKI-21","HONOLULU","HI",96822,21.305226808,-157.837399385,69,"1325 WILDER AVENUE MKI-21, HONOLULU, HI, 96822","Match","Exact","1325 WILDER AVE, HONOLULU, HI, 96822",203237422,"R"
149070,"1325 WILKES CREST DR","DACULA","GA",30019,34.033470659,-83.917586026,70,"1325 WILKES CREST DR, DACULA, GA, 30019","Match","Exact","1325 WILKES CREST DR, DACULA, GA, 30019",642891231,"R"
149071,"1325 WILSON ROAD","ROSSVILLE","GA",30741,34.972348857,-85.31018037,71,"1325 WILSON ROAD, ROSSVILLE, GA, 30741","Match","Exact","1325 WILSON RD, ROSSVILLE, GA, 30741",66728977,"R"
149072,"1325 WINTER STREET NE STE 108","MINNEAPOLIS","MN",55413,44.9932903970001,-93.233139068,72,"1325 WINTER STREET NE STE 108, MINNEAPOLIS, MN, 55413","Match","Exact","1325 WINTER ST NE, MINNEAPOLIS, MN, 55413",652846250,"L"
149073,"1325 WITHERSPOON DRIVE","PRATTVILLE","AL",36066,32.49362691,-86.429459284,73,"1325 WITHERSPOON DRIVE, PRATTVILLE, AL, 36066","Match","Exact","1325 WITHERSPOON DR, PRATTVILLE, AL, 36066",648312003,"R"
149074,"1325 WOLF CREEK DR","DESOTO","TX",75115,32.5862045270001,-96.8932355809999,74,"1325 WOLF CREEK DR, DESOTO, TX, 75115","Match","Exact","1325 WOLF CREEK DR, DESOTO, TX, 75115",102994292,"L"
149075,"1325 WORCESTER RD B11","FRAMINGHAM","MA",1701,42.296697287,-71.4527096699999,75,"1325 WORCESTER RD B11, FRAMINGHAM, MA, 1701","Match","Exact","1325 WORCESTER RD, FRAMINGHAM, MA, 01701",636266151,"L"
149076,"1325 YELLOW RIBBON RD","FAYETTEVILLE","NC",28314,35.0544330060001,-79.049451366,76,"1325 YELLOW RIBBON RD, FAYETTEVILLE, NC, 28314","Match","Non_Exact","1325 YELLOW RIBBON DR, FAYETTEVILLE, NC, 28314",646716863,"L"
149077,"13250 114TH PLACE","S.OZONE PARK","NY",11420,NA,NA,77,"13250 114TH PLACE, S.OZONE PARK, NY, 11420","No_Match",NA,NA,NA,NA
149078,"13250 E MINETA RIDGE DR","VAIL","AZ",85641,32.0543835400001,-110.711533018,78,"13250 E MINETA RIDGE DR, VAIL, AZ, 85641","Match","Exact","13250 E MINETA RIDGE DR, VAIL, AZ, 85641",618216407,"R"
149079,"13250 FOX HILL DRIVE","LEMONT","IL",60439,41.6477775660001,-87.941559017,79,"13250 FOX HILL DRIVE, LEMONT, IL, 60439","Match","Exact","13250 FOX HILL DR, LEMONT, IL, 60439",112216417,"R"
149080,"13250 N 74 LN","PEORIA","AZ",85381,33.6055399690001,-112.219395896,80,"13250 N 74 LN, PEORIA, AZ, 85381","Match","Exact","13250 N 74TH LN, PEORIA, AZ, 85381",128391365,"L"
149081,"13250 STRATHMOOR","DETROIT","MI",48227,42.3845508150001,-83.187318504,81,"13250 STRATHMOOR, DETROIT, MI, 48227","Match","Non_Exact","13250 STRATHMOOR ST, DETROIT, MI, 48227",95441509,"R"
149082,"13250 SW 107TH ST","MIAMI","FL",33186,25.6682225930001,-80.4090714879999,82,"13250 SW 107TH ST, MIAMI, FL, 33186","Match","Exact","13250 SW 107TH ST, MIAMI, FL, 33186",115967887,"L"
149083,"13250 SW 88TH TERR OFFICE 201","MIAMI","FL",33186,25.6853619390001,-80.4069885339999,83,"13250 SW 88TH TERR OFFICE 201, MIAMI, FL, 33186","Match","Non_Exact","13250 SW 88TH TER, MIAMI, FL, 33186",642890864,"R"
149084,"13250 W PALM LANE","GOODYEAR","AZ",85395,NA,NA,84,"13250 W PALM LANE, GOODYEAR, AZ, 85395","Tie",NA,NA,NA,NA
149085,"13251 COPLAND CT","SILVER SPRING","MD",20904,39.072908677,-76.9540701889999,85,"13251 COPLAND CT, SILVER SPRING, MD, 20904","Match","Exact","13251 COPLAND CT, SILVER SPRING, MD, 20904",641002112,"R"
149086,"13251 I-GN ROAD","COLLEGE STATION","TX",77845,NA,NA,86,"13251 I-GN ROAD, COLLEGE STATION, TX, 77845","No_Match",NA,NA,NA,NA
149087,"13251 LARK PLACE","SAN ANTONIO","TX",78233,29.562275422,-98.3749271469999,87,"13251 LARK PLACE, SAN ANTONIO, TX, 78233","Match","Non_Exact","13251 LARKPLACE DR, SAN ANTONIO, TX, 78233",101547263,"L"
149088,"13251 LEEDS LN","POWAY","CA",92064,32.9564366320001,-117.064351838,88,"13251 LEEDS LN, POWAY, CA, 92064","Match","Exact","13251 LEEDS LN, POWAY, CA, 92064",631789226,"L"
149089,"13251 MARTY","GARDEN GROVE","CA",92843,33.769392898,-117.898211285,89,"13251 MARTY, GARDEN GROVE, CA, 92843","Match","Non_Exact","13251 MARTY LN, GARDEN GROVE, CA, 92843",640712227,"L"
149090,"13251 MIDDLETON FARM LANE","HERNDON","VA",20171,38.9279940380001,-77.4057196649999,90,"13251 MIDDLETON FARM LANE, HERNDON, VA, 20171","Match","Exact","13251 MIDDLETON FARM LN, HERNDON, VA, 20171",618557902,"R"
149091,"13251 NEWBERG RD","CAT SPRING","TX",78933,29.8516122130001,-96.363277205,91,"13251 NEWBERG RD, CAT SPRING, TX, 78933","Match","Exact","13251 NEWBERG RD, CAT SPRING, TX, 78933",41813058,"L"
149092,"13251 NORTH 200 WEST","MILFORD","IN",46542,41.4240529570001,-85.885860125,92,"13251 NORTH 200 WEST, MILFORD, IN, 46542","Match","Exact","13251 N 200 W, MILFORD, IN, 46542",7913701,"L"
149093,"13251 SW 113 TERRACE","MIAMI","FL",33186,25.662111496,-80.4079492659999,93,"13251 SW 113 TERRACE, MIAMI, FL, 33186","Match","Exact","13251 SW 113TH TER, MIAMI, FL, 33186",116046026,"R"
149094,"13252 CHESTNUT ST","SOUTHGATE","MI",48195,42.2041944480001,-83.185906086,94,"13252 CHESTNUT ST, SOUTHGATE, MI, 48195","Match","Exact","13252 CHESTNUT ST, SOUTHGATE, MI, 48195",95451746,"R"
149095,"13252 CUSTOM HOUSE COURT","FAIRFAX","VA",22033,38.894326967,-77.402664949,95,"13252 CUSTOM HOUSE COURT, FAIRFAX, VA, 22033","Match","Exact","13252 CUSTOM HOUSE CT, FAIRFAX, VA, 22033",76010504,"R"
149096,"13252 GARDEN GROVE BLVD STE 126","GARDEN GROVE","CA",92843,33.774436973,-117.903916404,96,"13252 GARDEN GROVE BLVD STE 126, GARDEN GROVE, CA, 92843","Match","Exact","13252 GARDEN GROVE BLVD, GARDEN GROVE, CA, 92843",630480067,"R"
149097,"13252 Indiana court","HUNTLEY","IL",60142,42.1368137010001,-88.447887429,97,"13252 Indiana court, HUNTLEY, IL, 60142","Match","Exact","13252 INDIANA CT, HUNTLEY, IL, 60142",119554590,"L"
149098,"13252 INDIANA COURT","HUNTLEY","IL",60142,42.1368137010001,-88.447887429,98,"13252 INDIANA COURT, HUNTLEY, IL, 60142","Match","Exact","13252 INDIANA CT, HUNTLEY, IL, 60142",119554590,"L"
149099,"13252 POENER PL","HERNDON","VA",20170,38.9616205240001,-77.405466928,99,"13252 POENER PL, HERNDON, VA, 20170","Match","Exact","13252 POENER PL, HERNDON, VA, 20170",75957085,"R"
149100,"13252 WEEPING WILLOW DRIVE","FRISCO","TX",75035,33.1776794030001,-96.761661754,100,"13252 WEEPING WILLOW DRIVE, FRISCO, TX, 75035","Match","Exact","13252 WEEPING WILLOW DR, FRISCO, TX, 75035",615035078,"L"
149101,"132523 STATE HWY 13","KIMBERLING CITY","MO",65686,NA,NA,101,"132523 STATE HWY 13, KIMBERLING CITY, MO, 65686","No_Match",NA,NA,NA,NA
149102,"13253 CLUTE RD","WATERFORD","PA",16441,41.952014621,-79.923579573,102,"13253 CLUTE RD, WATERFORD, PA, 16441","Match","Exact","13253 CLUTE RD, WATERFORD, PA, 16441",639129789,"R"
149103,"13253 FENCEROW RD","FORT WORTH","TX",76244,32.969812688,-97.266157398,103,"13253 FENCEROW RD, FORT WORTH, TX, 76244","Match","Exact","13253 FENCEROW RD, FORT WORTH, TX, 76244",619867322,"L"
149104,"13253 GREEN BAY","CHICAGO","IL",60633,NA,NA,104,"13253 GREEN BAY, CHICAGO, IL, 60633","No_Match",NA,NA,NA,NA
149105,"13253 RANCHETTE RD","MONTGOMERY","TX",77356,30.4397254130001,-95.6677329889999,105,"13253 RANCHETTE RD, MONTGOMERY, TX, 77356","Match","Exact","13253 RANCHETTE RD, MONTGOMERY, TX, 77356",648362223,"L"
149106,"13253 SW 252 LANE","HOMESTEAD","FL",33032,25.5322976680001,-80.4056369309999,106,"13253 SW 252 LANE, HOMESTEAD, FL, 33032","Match","Exact","13253 SW 252 LN, HOMESTEAD, FL, 33032",642079585,"R"
149107,"13254 GEORGE ROUYEA RD","GONZALES","LA",70737,30.2614123810001,-90.8872599009999,107,"13254 GEORGE ROUYEA RD, GONZALES, LA, 70737","Match","Exact","13254 GEORGE ROUYEA RD, GONZALES, LA, 70737",115048470,"R"
149108,"13254 N W 10 TERRACE","MIAMI","FL",33182,25.7801804100001,-80.4103520639999,108,"13254 N W 10 TERRACE, MIAMI, FL, 33182","Match","Non_Exact","13254 NW 10TH TER, MIAMI, FL, 33182",116088264,"R"
149109,"13254 ROY MILLER RD","GRAND BAY","AL",36541,30.425274202,-88.354807927,109,"13254 ROY MILLER RD, GRAND BAY, AL, 36541","Match","Exact","13254 ROY MILLER RD, GRAND BAY, AL, 36541",61837436,"L"
149110,"13254 WHITFORD RD","RODMAN","NY",13682,NA,NA,110,"13254 WHITFORD RD, RODMAN, NY, 13682","No_Match",NA,NA,NA,NA
149111,"13255 50TH ST S","AFTON","MN",55001,44.876160584,-92.8386288199999,111,"13255 50TH ST S, AFTON, MN, 55001","Match","Exact","13255 50TH ST S, AFTON, MN, 55001",97822739,"R"
149112,"13255 BUNNKER HILL","CHINO","CA",91710,34.012842274,-117.664846029,112,"13255 BUNNKER HILL, CHINO, CA, 91710","Match","Non_Exact","13255 BUNKER HILL PL, CHINO, CA, 91710",144674083,"L"
149113,"13255 BURWELLS BAY RD","SMITHFIELD","VA",23430,37.051033347,-76.694126518,113,"13255 BURWELLS BAY RD, SMITHFIELD, VA, 23430","Match","Exact","13255 BURWELLS BAY RD, SMITHFIELD, VA, 23430",198637471,"R"
149114,"13255 DUFFIELD","BYRON","MI",48418,NA,NA,114,"13255 DUFFIELD, BYRON, MI, 48418","No_Match",NA,NA,NA,NA
149115,"13255 FIRST AVENUE","VICTORVILLE","CA",92395,34.491871249,-117.295843829,115,"13255 FIRST AVENUE, VICTORVILLE, CA, 92395","Match","Exact","13255 1ST AVE, VICTORVILLE, CA, 92395",144587713,"R"
149116,"13255 HODGES DRIVE","GEISMAR","LA",70734,NA,NA,116,"13255 HODGES DRIVE, GEISMAR, LA, 70734","No_Match",NA,NA,NA,NA
149117,"13255 LUCKETT COURT","SAN DIEGO","CA",92130,32.9604054770001,-117.206912231,117,"13255 LUCKETT COURT, SAN DIEGO, CA, 92130","Match","Exact","13255 LUCKETT CT, SAN DIEGO, CA, 92130",195672637,"R"
149118,"13255 MONTANE MANOR LANE","HOUSTON","TX",77044,29.862089514,-95.198395379,118,"13255 MONTANE MANOR LANE, HOUSTON, TX, 77044","Match","Exact","13255 MONTANE MANOR LN, HOUSTON, TX, 77044",653237472,"L"
149119,"13255 SADIES CIRCLE","ST GEORGE","KS",66535,39.212950693,-96.405697561,119,"13255 SADIES CIRCLE, ST GEORGE, KS, 66535","Match","Exact","13255 SADIES CIR, SAINT GEORGE, KS, 66535",652038992,"R"
149120,"13255 SW 137 AVENUE SUITE 212","MIAMI","FL",33186,25.6448788610001,-80.415195554,120,"13255 SW 137 AVENUE SUITE 212, MIAMI, FL, 33186","Match","Non_Exact","13255 SW 137TH AVE, MIAMI, FL, 33186",653182977,"L"
149121,"13255 SW 137THE AVENUE SUITE 212","MIAMI","FL",33186,25.6448788610001,-80.415195554,121,"13255 SW 137THE AVENUE SUITE 212, MIAMI, FL, 33186","Match","Non_Exact","13255 SW 137TH AVE, MIAMI, FL, 33186",653182977,"L"
149122,"13255 SW 278TH TERR","HOMESTEAD","FL",33032,25.50850869,-80.4059789189999,122,"13255 SW 278TH TERR, HOMESTEAD, FL, 33032","Match","Exact","13255 SW 278TH TER, HOMESTEAD, FL, 33032",629020573,"R"
149123,"13255 SW 36 ST","MIAMI","FL",33175,25.7346460520001,-80.408854164,123,"13255 SW 36 ST, MIAMI, FL, 33175","Match","Exact","13255 SW 36TH ST, MIAMI, FL, 33175",116068050,"L"
149124,"13255 SW 87 STREET NORTH","WEST PALM BEACH","FL",33412,26.8061336650001,-80.249009512,124,"13255 SW 87 STREET NORTH, WEST PALM BEACH, FL, 33412","Match","Exact","13255 87TH ST N, WEST PALM BEACH, FL, 33412",115347339,"R"
149125,"13255 SW NAHCOTTA DR","PORTLAND","OR",97223,45.424056068,-122.82713866,125,"13255 SW NAHCOTTA DR, PORTLAND, OR, 97223","Match","Exact","13255 SW NAHCOTTA DR, PORTLAND, OR, 97223",605208205,"R"
149126,"13255 VERSAILLES PLANK RD","VERSAILLES","NY",14168,NA,NA,126,"13255 VERSAILLES PLANK RD, VERSAILLES, NY, 14168","No_Match",NA,NA,NA,NA
149127,"13255 W BLUEMOUND RD SUITE 200","BROOKFIELD","WI",53005,43.0358113510001,-88.078002641,127,"13255 W BLUEMOUND RD SUITE 200, BROOKFIELD, WI, 53005","Match","Non_Exact","13255 W BLUEMOUND RD, BROOKFIELD, WI, 53005",53868772,"L"
149128,"13256 SW 43RD LN","MIAMI","FL",33175,25.7273717940001,-80.4089113209999,128,"13256 SW 43RD LN, MIAMI, FL, 33175","Match","Exact","13256 SW 43RD LN, MIAMI, FL, 33175",115964995,"L"
149129,"13257 114TH PLACE","S.OZONE PARK","NY",11420,NA,NA,129,"13257 114TH PLACE, S.OZONE PARK, NY, 11420","No_Match",NA,NA,NA,NA
149130,"13257 5TH AVE SW","BURIEN","WA",98146,47.484282293,-122.34051334,130,"13257 5TH AVE SW, BURIEN, WA, 98146","Match","Exact","13257 5TH AVE SW, BURIEN, WA, 98146",186624387,"R"
149131,"13257 COCHERO DRIVE","SAINT LOUIS","MO",63141,38.6794813500001,-90.491120248,131,"13257 COCHERO DRIVE, SAINT LOUIS, MO, 63141","Match","Exact","13257 COCHERO DR, SAINT LOUIS, MO, 63141",100162641,"R"
149132,"13257 CUMBERLAND DR","LARGO","FL",33773,27.8931302770001,-82.748358449,132,"13257 CUMBERLAND DR, LARGO, FL, 33773","Match","Exact","13257 CUMBERLAND DR, LARGO, FL, 33773",636737531,"R"
149133,"13257 GOLF COURSE ROAD","PARRISH","FL",34219,27.557456702,-82.409421928,133,"13257 GOLF COURSE ROAD, PARRISH, FL, 34219","Match","Exact","13257 GOLF COURSE RD, PARRISH, FL, 34219",16281324,"L"
149134,"13257 JOHN CLARK ROAD","GULFPORT","MS",39503,30.4742384730001,-89.1099635479999,134,"13257 JOHN CLARK ROAD, GULFPORT, MS, 39503","Match","Exact","13257 JOHN CLARK RD, GULFPORT, MS, 39503",627506297,"R"
149135,"13257 S MICHIGAN RD","PLYMOUTH","IN",46563,41.2817438700001,-86.266780344,135,"13257 S MICHIGAN RD, PLYMOUTH, IN, 46563","Match","Exact","13257 MICHIGAN RD, PLYMOUTH, IN, 46563",624628750,"L"
149136,"13257 SW PECAN RD","CACHE","OK",73527,34.5364532890001,-98.551081304,136,"13257 SW PECAN RD, CACHE, OK, 73527","Match","Exact","13257 SW PECAN RD, CACHE, OK, 73527",651907287,"R"
149137,"13257 W EXPOSITION DR","LAKEWOOD","CO",80228,39.705630172,-105.148709142,137,"13257 W EXPOSITION DR, LAKEWOOD, CO, 80228","Match","Exact","13257 W EXPOSITION DR, LAKEWOOD, CO, 80228",177316845,"R"
149138,"13258 BAVARIAN DRIVE","SAN DIEGO","CA",92129,32.9594423990001,-117.140568546,138,"13258 BAVARIAN DRIVE, SAN DIEGO, CA, 92129","Match","Exact","13258 BAVARIAN DR, SAN DIEGO, CA, 92129",195317956,"L"
149139,"13258 S PRARIE AVE","CHICAGO","IL",60827,41.654140468,-87.615880572,139,"13258 S PRARIE AVE, CHICAGO, IL, 60827","Match","Non_Exact","13258 S PRAIRIE AVE, CHICAGO, IL, 60827",111876338,"R"
149140,"13259 AUTUMN MIST CIRCLE","GERMANTOWN","MD",20874,39.160733705,-77.273335902,140,"13259 AUTUMN MIST CIRCLE, GERMANTOWN, MD, 20874","Match","Exact","13259 AUTUMN MIST CIR, GERMANTOWN, MD, 20874",62096280,"L"
149141,"13259 FALLEN LEAF COURT","WOODBRIDGE","VA",22192,38.66543943,-77.3275936699999,141,"13259 FALLEN LEAF COURT, WOODBRIDGE, VA, 22192","Match","Exact","13259 FALLEN LEAF CT, WOODBRIDGE, VA, 22192",76524338,"L"
149142,"13259 STRAVINSKY TERRACE","SILVER SPRING","MD",70904,39.0727636130001,-76.950709565,142,"13259 STRAVINSKY TERRACE, SILVER SPRING, MD, 70904","Match","Non_Exact","13259 STRAVINSKY TER, SILVER SPRING, MD, 20904",62089874,"R"
149143,"13259 TAFT ROAD","CLINTON","IL",61727,40.1340247470001,-88.8932980169999,143,"13259 TAFT ROAD, CLINTON, IL, 61727","Match","Exact","13259 TAFT RD, CLINTON, IL, 61727",634175919,"L"
149144,"1325B EVANS AVE","SAN FRANCISCO","CA",94124,37.740021068,-122.383288921,144,"1325B EVANS AVE, SAN FRANCISCO, CA, 94124","Match","Exact","1325 EVANS AVE, SAN FRANCISCO, CA, 94124",192300860,"L"
149145,"1325B POST OAK PARK","HOUSTON","TX",77027,29.755299478,-95.454166981,145,"1325B POST OAK PARK, HOUSTON, TX, 77027","Match","Non_Exact","1325 POST OAK PARK DR, HOUSTON, TX, 77027",96032893,"L"
149146,"1326  NEVADA 23","PRESCOTT","AR",71857,33.782086383,-93.3662203119999,146,"1326  NEVADA 23, PRESCOTT, AR, 71857","Match","Exact","1326 NEVADA 23, PRESCOTT, AR, 71857",10266682,"L"
149147,"1326  PARKTOP DRIVE","CARY","NC",27513,35.8353371630001,-78.78133859,147,"1326  PARKTOP DRIVE, CARY, NC, 27513","Match","Exact","1326 PARKTOP DR, CARY, NC, 27513",648121868,"R"
149148,"1326 137TH STREET","MILL CREEK","WA",98012,47.8735499950001,-122.214072067,148,"1326 137TH STREET, MILL CREEK, WA, 98012","Match","Non_Exact","1326 137TH ST SE, MILL CREEK, WA, 98012",187781008,"L"
149149,"1326 14TH AVE S","FARGO","ND",58103,46.859598137,-96.8009006409999,149,"1326 14TH AVE S, FARGO, ND, 58103","Match","Exact","1326 14TH AVE S, FARGO, ND, 58103",151470146,"L"
149150,"1326 158TH COURT","BASEHOR","KS",66007,39.120713419,-94.9476553549999,150,"1326 158TH COURT, BASEHOR, KS, 66007","Match","Exact","1326 158TH CT, BASEHOR, KS, 66007",91412715,"R"
149151,"1326 183RD AVE NE","BELLEVUE","WA",98008,47.6213665400001,-122.097198309,151,"1326 183RD AVE NE, BELLEVUE, WA, 98008","Match","Exact","1326 183RD AVE NE, BELLEVUE, WA, 98008",239764574,"R"
149152,"1326 230TH ST","MAHNOMEN","MN",56557,47.3110706590001,-95.993752875,152,"1326 230TH ST, MAHNOMEN, MN, 56557","Match","Exact","1326 230TH ST, MAHNOMEN, MN, 56557",606430467,"R"
149153,"1326 24TH STREET NE","CANTON","OH",44714,40.823094827,-81.358957249,153,"1326 24TH STREET NE, CANTON, OH, 44714","Match","Exact","1326 24TH ST NE, CANTON, OH, 44714",64679446,"R"
149154,"1326 27TH AVE 303","LEWISTON","ID",83501,46.3929236500001,-117.01330371,154,"1326 27TH AVE 303, LEWISTON, ID, 83501","Match","Exact","1326 27TH AVE, LEWISTON, ID, 83501",173146918,"R"
149155,"1326 4TH STREET","CATASAUQUA","PA",18032,40.6622021750001,-75.480164599,155,"1326 4TH STREET, CATASAUQUA, PA, 18032","Match","Exact","1326 4TH ST, CATASAUQUA, PA, 18032",136874447,"L"
149156,"1326 5TH AVE STE 343","SEATTLE","WA",98115,47.6089915310001,-122.334025336,156,"1326 5TH AVE STE 343, SEATTLE, WA, 98115","Match","Non_Exact","1326 5TH AVE, SEATTLE, WA, 98101",239762484,"R"
149157,"1326 5TH AVENUE SUITE 343","SEATTLE","WA",98101,47.6089915310001,-122.334025336,157,"1326 5TH AVENUE SUITE 343, SEATTLE, WA, 98101","Match","Exact","1326 5TH AVE, SEATTLE, WA, 98101",239762484,"R"
149158,"1326 5TH AVENUE","SEATTLE","WA",98101,47.6089915310001,-122.334025336,158,"1326 5TH AVENUE, SEATTLE, WA, 98101","Match","Exact","1326 5TH AVE, SEATTLE, WA, 98101",239762484,"R"
149159,"1326 99TH AVE","OAKLAND","CA",94603,37.7431330530001,-122.171007955,159,"1326 99TH AVE, OAKLAND, CA, 94603","Match","Exact","1326 99TH AVE, OAKLAND, CA, 94603",125009679,"R"
149160,"1326 ADAMS DRIVE","COLORADO SPIRNGS","CO",80904,38.869380699,-104.871815864,160,"1326 ADAMS DRIVE, COLORADO SPIRNGS, CO, 80904","Match","Non_Exact","1326 ADAMS DR, COLORADO SPRINGS, CO, 80904",105506340,"L"
149161,"1326 ALAMANCE CHURCH ROAD","GREENSBORO","NC",27406,36.036212182,-79.7606752949999,161,"1326 ALAMANCE CHURCH ROAD, GREENSBORO, NC, 27406","Match","Exact","1326 ALAMANCE CHURCH RD, GREENSBORO, NC, 27406",640601231,"R"
149162,"1326 ALASKA AVE","DALLAS","TX",75216,32.7325907170001,-96.815654802,162,"1326 ALASKA AVE, DALLAS, TX, 75216","Match","Exact","1326 ALASKA AVE, DALLAS, TX, 75216",102949359,"L"
149163,"1326 ANGLETON DR","EDGEWATER","MD",21037,NA,NA,163,"1326 ANGLETON DR, EDGEWATER, MD, 21037","No_Match",NA,NA,NA,NA
149164,"1326 ANTHONY COURT","WAUKEGAN","IL",60087,42.4199707160001,-87.847668152,164,"1326 ANTHONY COURT, WAUKEGAN, IL, 60087","Match","Exact","1326 ANTHONY CT, WAUKEGAN, IL, 60087",641193374,"L"
149165,"1326 ANTHRACITE CREEK AVE","MONTROSE","CO",81401,38.5025025260001,-107.870392511,165,"1326 ANTHRACITE CREEK AVE, MONTROSE, CO, 81401","Match","Exact","1326 ANTHRACITE CREEK AVE, MONTROSE, CO, 81401",618425625,"R"
149166,"1326 APACHE PASS","STEETSBORO","OH",44241,41.25148427,-81.34721064,166,"1326 APACHE PASS, STEETSBORO, OH, 44241","Match","Non_Exact","1326 APACHE PASS, STREETSBORO, OH, 44241",137522039,"R"
149167,"1326 APJONES STREET","CINCINNATI","OH",45229,39.165030157,-84.533181723,167,"1326 APJONES STREET, CINCINNATI, OH, 45229","Match","Non_Exact","1326 APJONES ST, CINCINNATI, OH, 45223",103922448,"R"
149168,"1326 ARMACOST AVE NO 3A","LOS ANGELES","CA",90025,34.0445933610001,-118.462525328,168,"1326 ARMACOST AVE NO 3A, LOS ANGELES, CA, 90025","Match","Non_Exact","1326 ARMACOST AVE, LOS ANGELES, CA, 90025",141568348,"L"
149169,"1326 ASTER ST","AMARILLO","TX",79107,35.2278020580001,-101.772913548,169,"1326 ASTER ST, AMARILLO, TX, 79107","Match","Exact","1326 ASTER ST, AMARILLO, TX, 79107",182482195,"R"
149170,"1326 ATLANTIC STREET","WILSON","NC",27893,35.717295888,-77.897427884,170,"1326 ATLANTIC STREET, WILSON, NC, 27893","Match","Non_Exact","1326 ATLANTIC ST E, WILSON, NC, 27893",26705637,"L"
149171,"1326 BARNES AVE","ALVA","OK",73717,36.8038596860001,-98.6789450639999,171,"1326 BARNES AVE, ALVA, OK, 73717","Match","Non_Exact","1326 BARNES ST, ALVA, OK, 73717",161173336,"R"
149172,"1326 BAYOU RIDGE LOOP","DOVER","AR",72837,35.3478113530001,-93.144100393,172,"1326 BAYOU RIDGE LOOP, DOVER, AR, 72837","Match","Exact","1326 BAYOU RIDGE LOOP, DOVER, AR, 72837",641724194,"L"
149173,"1326 BENTLEY AVENUE","SPRING HILL","FL",34608,28.454841129,-82.5527246469999,173,"1326 BENTLEY AVENUE, SPRING HILL, FL, 34608","Match","Exact","1326 BENTLEY AVE, SPRING HILL, FL, 34608",85432623,"R"
149174,"1326 BETSY ROSS PLACE","PHILADELPHIA","PA",19122,39.973662613,-75.1557604669999,174,"1326 BETSY ROSS PLACE, PHILADELPHIA, PA, 19122","Match","Exact","1326 BETSY ROSS PL, PHILADELPHIA, PA, 19122",131421926,"L"
149175,"1326 BRIARMEAD DR","RICHMOND","TX",77406,29.614603119,-95.722893685,175,"1326 BRIARMEAD DR, RICHMOND, TX, 77406","Match","Exact","1326 BRIARMEAD DR, RICHMOND, TX, 77406",78264804,"R"
149176,"1326 BRUCE","MEMPHIS","TN",38114,35.1091916770001,-89.98646543,176,"1326 BRUCE, MEMPHIS, TN, 38114","Match","Non_Exact","1326 BRUCE ST, MEMPHIS, TN, 38114",72917422,"L"
149177,"1326 BUFFALO STREET","PORTLAND","OR",97212,NA,NA,177,"1326 BUFFALO STREET, PORTLAND, OR, 97212","No_Match",NA,NA,NA,NA
149178,"1326 BURNETT AVE","AMES","IA",50010,42.034896861,-93.615501084,178,"1326 BURNETT AVE, AMES, IA, 50010","Match","Exact","1326 BURNETT AVE, AMES, IA, 50010",647650430,"R"
149179,"1326 CABRILLO","SAINT LOUIS","MO",63138,38.793859872,-90.2072170659999,179,"1326 CABRILLO, SAINT LOUIS, MO, 63138","Match","Non_Exact","1326 CABRILLO DR, SAINT LOUIS, MO, 63138",100150749,"L"
149180,"1326 CALADIUM DR","MESQUITE","TX",75149,32.7502270100001,-96.5798922819999,180,"1326 CALADIUM DR, MESQUITE, TX, 75149","Match","Exact","1326 CALADIUM DR, MESQUITE, TX, 75149",102964125,"L"
149181,"1326 CAMBRIDGE ROAD","BERKLEY","MI",48072,42.491508213,-83.168892783,181,"1326 CAMBRIDGE ROAD, BERKLEY, MI, 48072","Match","Exact","1326 CAMBRIDGE RD, BERKLEY, MI, 48072",630363480,"R"
149182,"1326 CARNATION DRIVE","LEWISVILLE","TX",75067,33.038909189,-97.0289807939999,182,"1326 CARNATION DRIVE, LEWISVILLE, TX, 75067","Match","Exact","1326 CARNATION DR, LEWISVILLE, TX, 75067",103348359,"L"
149183,"1326 CHALCEDONY ST","SAN DIEGO","CA",92109,32.8033572200001,-117.247236151,183,"1326 CHALCEDONY ST, SAN DIEGO, CA, 92109","Match","Exact","1326 CHALCEDONY ST, SAN DIEGO, CA, 92109",195302894,"L"
149184,"1326 CHALDEDONY ST","SAN DIEGO","CA",92109,NA,NA,184,"1326 CHALDEDONY ST, SAN DIEGO, CA, 92109","No_Match",NA,NA,NA,NA
149185,"1326 CHANDLER CIRCLE","FLORENCE","SC",29505,34.1433237150001,-79.7512297059999,185,"1326 CHANDLER CIRCLE, FLORENCE, SC, 29505","Match","Exact","1326 CHANDLER CIR, FLORENCE, SC, 29505",28907710,"R"
149186,"1326 CLAY STREET","VICKSBURG","MS",39180,32.349167677,-90.8746244339999,186,"1326 CLAY STREET, VICKSBURG, MS, 39180","Match","Non_Exact","1326 CLAY ST, VICKSBURG, MS, 39183",71293776,"L"
149187,"1326 COLLINGWOOD AVENUE","TOLEDO","OH",43607,NA,NA,187,"1326 COLLINGWOOD AVENUE, TOLEDO, OH, 43607","No_Match",NA,NA,NA,NA
149188,"1326 COLUMBIA ROAD APT 4","BOSTON","MA",2127,42.330124577,-71.0389965479999,188,"1326 COLUMBIA ROAD APT 4, BOSTON, MA, 2127","Match","Exact","1326 COLUMBIA RD, BOSTON, MA, 02127",85724481,"L"
149189,"1326 COLUMBIA ROAD","SOUTH BOSTON","MA",2127,42.330124577,-71.0389965479999,189,"1326 COLUMBIA ROAD, SOUTH BOSTON, MA, 2127","Match","Exact","1326 COLUMBIA RD, SOUTH BOSTON, MA, 02127",85724481,"L"
149190,"1326 COTTONWOOD STREET","CHARLESTON","SC",29403,32.8139930140001,-79.953002801,190,"1326 COTTONWOOD STREET, CHARLESTON, SC, 29403","Match","Exact","1326 COTTONWOOD ST, CHARLESTON, SC, 29403",108805895,"L"
149191,"1326 CR 4822","WOLFE CITY","TX",75496,33.3598045910001,-96.031971321,191,"1326 CR 4822, WOLFE CITY, TX, 75496","Match","Exact","1326 CO RD 4822, WOLFE CITY, TX, 75496",647376804,"R"
149192,"1326 DELICATA LN","GREER","SC",29650,34.8675310310001,-82.255375994,192,"1326 DELICATA LN, GREER, SC, 29650","Match","Exact","1326 DELICATA LN, GREER, SC, 29650",38343225,"L"
149193,"1326 DOWNING PLACE","NE","DC",20018,NA,NA,193,"1326 DOWNING PLACE, NE, DC, 20018","No_Match",NA,NA,NA,NA
149194,"1326 DULLES DRIVE APT E","LAFAYETTE","LA",70506,30.2107467600001,-92.072365276,194,"1326 DULLES DRIVE APT E, LAFAYETTE, LA, 70506","Match","Exact","1326 DULLES DR, LAFAYETTE, LA, 70506",85611541,"R"
149195,"1326 E 31ST SOUTH","WICHITA","KS",67216,37.635056369,-97.3216961099999,195,"1326 E 31ST SOUTH, WICHITA, KS, 67216","Match","Non_Exact","1326 E 31ST ST S, WICHITA, KS, 67216",115647591,"L"
149196,"1326 E BRAEWOOD AVENUE","HIGHLANDS RANCH","CO",80129,39.5415376660001,-105.004565482,196,"1326 E BRAEWOOD AVENUE, HIGHLANDS RANCH, CO, 80129","Match","Exact","1326 BRAEWOOD AVE, HIGHLANDS RANCH, CO, 80129",130816233,"R"
149197,"1326 E INTERNATIONAL SPEEDWAY BLVD","DELAND","FL",32724,29.055961,-81.278969101,197,"1326 E INTERNATIONAL SPEEDWAY BLVD, DELAND, FL, 32724","Match","Non_Exact","1326 INTERNATIONAL SPEEDWAY BLVD, DELAND, FL, 32724",94593619,"R"
149198,"1326 E MADISON PARK","CHICAGO","IL",60615,41.803197745,-87.5959157999999,198,"1326 E MADISON PARK, CHICAGO, IL, 60615","Match","Exact","1326 E MADISON PARK, CHICAGO, IL, 60615",111771695,"L"
149199,"1326 E SKYLINE PKWY","DULUTH","MN",55805,46.8069471490001,-92.095555651,199,"1326 E SKYLINE PKWY, DULUTH, MN, 55805","Match","Exact","1326 E SKYLINE PKWY, DULUTH, MN, 55805",163220939,"R"
149200,"1326 EARLY BLUE LN","BEAUMONT","CA",92223,33.9438188080001,-116.95488102,200,"1326 EARLY BLUE LN, BEAUMONT, CA, 92223","Match","Exact","1326 EARLY BLUE LN, BEAUMONT, CA, 92223",608989688,"R"
149201,"1326 EDGAR AVENUE","BEAUMONT","CA",92223,33.944303114,-116.980001681,201,"1326 EDGAR AVENUE, BEAUMONT, CA, 92223","Match","Exact","1326 EDGAR AVE, BEAUMONT, CA, 92223",651005610,"L"
149202,"1326 ELMIRA AVE","DURHAM","NC",27707,35.9553504460001,-78.897092909,202,"1326 ELMIRA AVE, DURHAM, NC, 27707","Match","Exact","1326 ELMIRA AVE, DURHAM, NC, 27707",71758127,"R"
149203,"1326 EMORY ROAD","ATLANTA","GA",30306,33.7945518980001,-84.3346052809999,203,"1326 EMORY ROAD, ATLANTA, GA, 30306","Match","Non_Exact","1326 EMORY RD NE, ATLANTA, GA, 30306",648728676,"L"
149204,"1326 ENERGY PARK DRIVE","ST PAUL","MN",55108,44.970730218,-93.156432111,204,"1326 ENERGY PARK DRIVE, ST PAUL, MN, 55108","Match","Exact","1326 ENERGY PARK DR, SAINT PAUL, MN, 55108",97667373,"L"
149205,"1326 ENERGY PARK DRIVE","ST PAUUL","MN",55108,44.970730218,-93.156432111,205,"1326 ENERGY PARK DRIVE, ST PAUUL, MN, 55108","Match","Non_Exact","1326 ENERGY PARK DR, SAINT PAUL, MN, 55108",97667373,"L"
149206,"1326 EWING CHAPEL RD","DACULA","GA",30019,33.950731181,-83.894947686,206,"1326 EWING CHAPEL RD, DACULA, GA, 30019","Match","Exact","1326 EWING CHAPEL RD, DACULA, GA, 30019",650748286,"L"
149207,"1326 FLORIDA AVE NE APT 403","WASHINGTON","DC",20002,38.901531,-76.9873088699999,207,"1326 FLORIDA AVE NE APT 403, WASHINGTON, DC, 20002","Match","Exact","1326 FLORIDA AVE NE, WASHINGTON, DC, 20002",76230160,"L"
149208,"1326 FOUCHER APT A","NEW ORLEANS","LA",70115,29.924285948,-90.09243881,208,"1326 FOUCHER APT A, NEW ORLEANS, LA, 70115","Match","Non_Exact","1326 FOUCHER ST, NEW ORLEANS, LA, 70115",191713263,"L"
149209,"1326 FRANKLIN AVE","CHARITON","IA",50049,41.017831937,-93.313460992,209,"1326 FRANKLIN AVE, CHARITON, IA, 50049","Match","Exact","1326 FRANKLIN AVE, CHARITON, IA, 50049",83735916,"R"
149210,"1326 FT BENNING RD","COLUMBUS","GA",31903,32.428815334,-84.940165457,210,"1326 FT BENNING RD, COLUMBUS, GA, 31903","Match","Exact","1326 FORT BENNING RD, COLUMBUS, GA, 31903",98943106,"L"
149211,"1326 FUNSTON AVENUE APT B","SAN FRANCISCO","CA",94118,37.763299966,-122.470548196,211,"1326 FUNSTON AVENUE APT B, SAN FRANCISCO, CA, 94118","Match","Non_Exact","1326 FUNSTON AVE, SAN FRANCISCO, CA, 94122",192281956,"L"
149212,"1326 GOLDRIDGE ST","SELMA","CA",93662,36.587192304,-119.600110288,212,"1326 GOLDRIDGE ST, SELMA, CA, 93662","Match","Exact","1326 GOLDRIDGE ST, SELMA, CA, 93662",623775688,"R"
149213,"1326 GRANADA AVE","HOLLY HILL","FL",32117,29.2405169150001,-81.065282506,213,"1326 GRANADA AVE, HOLLY HILL, FL, 32117","Match","Exact","1326 GRANADA AVE, HOLLY HILL, FL, 32117",94522049,"L"
149214,"1326 GRAND CONCOURSE SUITE 3E","BRONX","NY",10456,40.837174593,-73.914856895,214,"1326 GRAND CONCOURSE SUITE 3E, BRONX, NY, 10456","Match","Exact","1326 GRAND CONCOURSE, BRONX, NY, 10456",640810158,"R"
149215,"1326 GREGORY RD","CAMDEN","NY",13661,43.469318324,-75.7092143679999,215,"1326 GREGORY RD, CAMDEN, NY, 13661","Match","Non_Exact","1326 GREGORY RD, CAMDEN, NY, 13316",155059432,"L"
149216,"1326 HARRISON ST","MISSOULA","MT",59802,46.874785736,-113.97304604,216,"1326 HARRISON ST, MISSOULA, MT, 59802","Match","Exact","1326 HARRISON ST, MISSOULA, MT, 59802",205278248,"R"
149217,"1326 HARRISON ST","REDWOOD CITY","CA",94062,37.475756624,-122.242402455,217,"1326 HARRISON ST, REDWOOD CITY, CA, 94062","Match","Non_Exact","1326 HARRISON AVE, REDWOOD CITY, CA, 94062",192410630,"R"
149218,"1326 HARVARD","GROSSE POINTE PARK","MI",48230,42.3913498910001,-82.92143938,218,"1326 HARVARD, GROSSE POINTE PARK, MI, 48230","Match","Exact","1326 HARVARD, GROSSE POINTE PARK, MI, 48230",95489157,"R"
149219,"1326 HARVEST HILL","LANCASTER","TX",75146,32.599762265,-96.7854673479999,219,"1326 HARVEST HILL, LANCASTER, TX, 75146","Match","Non_Exact","1326 HARVEST HILL LN, LANCASTER, TX, 75146",102955101,"R"
149220,"1326 HEBARD HILL RD","RANDOLPH","VT",5060,43.958840169,-72.633534552,220,"1326 HEBARD HILL RD, RANDOLPH, VT, 5060","Match","Exact","1326 HEBARD HILL RD, RANDOLPH, VT, 05060",653258039,"R"
149221,"1326 HILLCREST DR","ALLEN","TX",75002,33.083444715,-96.639061962,221,"1326 HILLCREST DR, ALLEN, TX, 75002","Match","Exact","1326 HILLCREST DR, ALLEN, TX, 75002",210520951,"R"
149222,"1326 HOLLY GROVE WAY","DURHAM","NC",27713,35.9414854830001,-78.8903244589999,222,"1326 HOLLY GROVE WAY, DURHAM, NC, 27713","Match","Exact","1326 HOLLY GROVE WAY, DURHAM, NC, 27713",618109132,"R"
149223,"1326 HOME STREET","TACOMA","WA",98370,NA,NA,223,"1326 HOME STREET, TACOMA, WA, 98370","No_Match",NA,NA,NA,NA
149224,"1326 HOWELL","MISSOULA","MT",59801,NA,NA,224,"1326 HOWELL, MISSOULA, MT, 59801","No_Match",NA,NA,NA,NA
149225,"1326 HWY 36","CHELSEA","AL",35043,33.312015999,-86.673587044,225,"1326 HWY 36, CHELSEA, AL, 35043","Match","Non_Exact","1326 CO RD 36, CHELSEA, AL, 35043",638634245,"L"
149226,"1326 INDIGO DR","BRIGHTON","CO",80601,39.9607179980001,-104.806012947,226,"1326 INDIGO DR, BRIGHTON, CO, 80601","Match","Exact","1326 INDIGO DR, BRIGHTON, CO, 80601",645489781,"R"
149227,"1326 JEFFERS ST","PITTSBURGH","PA",15204,40.4525930080001,-80.0657183169999,227,"1326 JEFFERS ST, PITTSBURGH, PA, 15204","Match","Exact","1326 JEFFERS ST, PITTSBURGH, PA, 15204",51621613,"R"
149228,"1326 JONES MILL ROAD","FOUNTAIN INN","SC",29644,34.7278464230001,-82.2015736389999,228,"1326 JONES MILL ROAD, FOUNTAIN INN, SC, 29644","Match","Exact","1326 JONES MILL RD, FOUNTAIN INN, SC, 29644",38313744,"L"
149229,"1326 KINGSWOOD STREET","ALMA","AR",72921,35.501718668,-94.2369207039999,229,"1326 KINGSWOOD STREET, ALMA, AR, 72921","Match","Exact","1326 KINGSWOOD ST, ALMA, AR, 72921",53498376,"R"
149230,"1326 KUPAU STREET","KAILUA","HI",96734,21.3753035190001,-157.722226859,230,"1326 KUPAU STREET, KAILUA, HI, 96734","Match","Exact","1326 KUPAU ST, KAILUA, HI, 96734",203240474,"L"
149231,"1326 LARK COURT","TITUSVILLE","FL",32780,28.599667536,-80.81910912,231,"1326 LARK COURT, TITUSVILLE, FL, 32780","Match","Exact","1326 LARK CT, TITUSVILLE, FL, 32780",93890853,"R"
149232,"1326 LERIDA","PACIFICA","CA",94044,37.5903255480001,-122.479891015,232,"1326 LERIDA, PACIFICA, CA, 94044","Match","Non_Exact","1326 LERIDA WAY, PACIFICA, CA, 94044",192370034,"R"
149233,"1326 LOCHNESS DRIVE","ALLEN","TX",75013,33.121502606,-96.700474279,233,"1326 LOCHNESS DRIVE, ALLEN, TX, 75013","Match","Exact","1326 LOCHNESS DR, ALLEN, TX, 75013",123561183,"L"
149234,"1326 LOS ESCONDIDOS","MARBLE FALLS","TX",78654,30.5607048360001,-98.260880352,234,"1326 LOS ESCONDIDOS, MARBLE FALLS, TX, 78654","Match","Exact","1326 LOS ESCONDIDOS, MARBLE FALLS, TX, 78654",146513933,"R"
149235,"1326 MACKINAW","CALUMET CITY","IL",60409,41.5964226790001,-87.5419168019999,235,"1326 MACKINAW, CALUMET CITY, IL, 60409","Match","Non_Exact","1326 MACKINAW AVE, CALUMET CITY, IL, 60409",111783577,"R"
149236,"1326 MAIN ST","SHELBYVILLE","KY",40065,38.2120782850001,-85.232020577,236,"1326 MAIN ST, SHELBYVILLE, KY, 40065","Match","Exact","1326 MAIN ST, SHELBYVILLE, KY, 40065",97084457,"L"
149237,"1326 MARK TWAIN AVE","RENO","NV",89509,39.510563851,-119.82144101,237,"1326 MARK TWAIN AVE, RENO, NV, 89509","Match","Exact","1326 MARK TWAIN AVE, RENO, NV, 89509",107044946,"L"
149238,"1326 MERCER ROAD","FRANKLIN","PA",16323,41.3844682000001,-79.860539769,238,"1326 MERCER ROAD, FRANKLIN, PA, 16323","Match","Exact","1326 MERCER RD, FRANKLIN, PA, 16323",635652810,"R"
149239,"1326 MILL STREET","LARAMIE","WY",82072,41.330868604,-105.579040765,239,"1326 MILL STREET, LARAMIE, WY, 82072","Match","Exact","1326 MILL ST, LARAMIE, WY, 82072",168739521,"L"
149240,"1326 MILO ROAD","SEBEC","ME",4481,45.216265891,-69.1625088919999,240,"1326 MILO ROAD, SEBEC, ME, 4481","Match","Exact","1326 MILO RD, SEBEC, ME, 04481",651943354,"L"
149241,"1326 MORRISON STREET","MADISON","WI",53703,43.0822824740001,-89.358567782,241,"1326 MORRISON STREET, MADISON, WI, 53703","Match","Exact","1326 MORRISON ST, MADISON, WI, 53703",49473341,"L"
149242,"1326 MOUNTAIN ROAD","CHARLESTON","WV",25303,38.3583035090001,-81.6662801269999,242,"1326 MOUNTAIN ROAD, CHARLESTON, WV, 25303","Match","Exact","1326 MOUNTAIN RD, CHARLESTON, WV, 25303",78632602,"R"
149243,"1326 MT MORIAH","MEMPHIS","TN",38117,35.0954524750001,-89.895827391,243,"1326 MT MORIAH, MEMPHIS, TN, 38117","Match","Non_Exact","1326 MOUNT MORIAH RD, MEMPHIS, TN, 38117",72926884,"L"
149244,"1326 N 13TH ST","READING","PA",19604,40.3550805840001,-75.911747116,244,"1326 N 13TH ST, READING, PA, 19604","Match","Exact","1326 N 13TH ST, READING, PA, 19604",80377710,"L"
149245,"1326 N 58TH ST","PHILADELPHIA","PA",19131,39.9722698840001,-75.236061095,245,"1326 N 58TH ST, PHILADELPHIA, PA, 19131","Match","Exact","1326 N 58TH ST, PHILADELPHIA, PA, 19131",131398200,"L"
149246,"1326 N 70TH","WAUWATOSA","WI",53213,43.0487792590001,-87.999800744,246,"1326 N 70TH, WAUWATOSA, WI, 53213","Match","Non_Exact","1326 N 70TH ST, WAUWATOSA, WI, 53213",77765449,"R"
149247,"1326 N CEDAR BROOK","BOULDER","CO",80304,NA,NA,247,"1326 N CEDAR BROOK, BOULDER, CO, 80304","Tie",NA,NA,NA,NA
149248,"1326 N POTOMAC ST","BALTIMORE","MD",21213,39.3064255790001,-76.575695695,248,"1326 N POTOMAC ST, BALTIMORE, MD, 21213","Match","Exact","1326 N POTOMAC ST, BALTIMORE, MD, 21213",206424215,"L"
149249,"1326 N POTOMAC STREET","BALTIMORE","MD",21213,39.3064255790001,-76.575695695,249,"1326 N POTOMAC STREET, BALTIMORE, MD, 21213","Match","Exact","1326 N POTOMAC ST, BALTIMORE, MD, 21213",206424215,"L"
149250,"1326 N VICEROY AVE","COVINA","CA",91722,34.1031458410001,-117.891620125,250,"1326 N VICEROY AVE, COVINA, CA, 91722","Match","Exact","1326 N VICEROY AVE, COVINA, CA, 91722",141709943,"R"
149251,"1326 N WEST STREET","CARLISLE","PA",17013,40.2175919970001,-77.191569989,251,"1326 N WEST STREET, CARLISLE, PA, 17013","Match","Exact","1326 N WEST ST, CARLISLE, PA, 17013",60954708,"L"
149252,"1326 N4500 E","ASHTON","ID",83420,NA,NA,252,"1326 N4500 E, ASHTON, ID, 83420","No_Match",NA,NA,NA,NA
149253,"1326 NE 14TH STREET","GAINESVILLE","FL",32601,29.6661222590001,-82.307543456,253,"1326 NE 14TH STREET, GAINESVILLE, FL, 32601","Match","Exact","1326 NE 14TH ST, GAINESVILLE, FL, 32601",6855214,"L"
149254,"1326 NE 32ND PLACE","OCALA","FL",34479,29.220194184,-82.120640819,254,"1326 NE 32ND PLACE, OCALA, FL, 34479","Match","Exact","1326 NE 32ND PL, OCALA, FL, 34479",618458400,"R"
149255,"1326 OAK LANE","PHILADELPHIA","PA",19126,40.0546872570001,-75.139589929,255,"1326 OAK LANE, PHILADELPHIA, PA, 19126","Match","Exact","1326 OAK LN, PHILADELPHIA, PA, 19126",635229691,"L"
149256,"1326 OAK ST","COLUMBUS","OH",43205,39.962493668,-82.964670177,256,"1326 OAK ST, COLUMBUS, OH, 43205","Match","Exact","1326 OAK ST, COLUMBUS, OH, 43205",135581296,"L"
149257,"1326 OAK ST","COLUMBUS","OH",43215,39.962493668,-82.964670177,257,"1326 OAK ST, COLUMBUS, OH, 43215","Match","Non_Exact","1326 OAK ST, COLUMBUS, OH, 43205",135581296,"L"
149258,"1326 OCEAN AVE APT 4","BROOKLYN","NY",11230,40.6300903470001,-73.9572233499999,258,"1326 OCEAN AVE APT 4, BROOKLYN, NY, 11230","Match","Exact","1326 OCEAN AVE, BROOKLYN, NY, 11230",59081641,"R"
149259,"1326 OCEAN AVE APT 4M","BROOKLYN","NY",11230,40.6300903470001,-73.9572233499999,259,"1326 OCEAN AVE APT 4M, BROOKLYN, NY, 11230","Match","Exact","1326 OCEAN AVE, BROOKLYN, NY, 11230",59081641,"R"
149260,"1326 OLD ENGLAND LOOP","SANFORD","FL",32771,NA,NA,260,"1326 OLD ENGLAND LOOP, SANFORD, FL, 32771","No_Match",NA,NA,NA,NA
149261,"1326 OLD MILL RD","MOUNTAIN HOME","AR",72653,36.354958519,-92.361821559,261,"1326 OLD MILL RD, MOUNTAIN HOME, AR, 72653","Match","Exact","1326 OLD MILL RD, MOUNTAIN HOME, AR, 72653",627649600,"R"
149262,"1326 PARKERSBURG TURNPIKE","SWOOP","VA",24401,NA,NA,262,"1326 PARKERSBURG TURNPIKE, SWOOP, VA, 24401","No_Match",NA,NA,NA,NA
149263,"1326 PARKWAY DR","LORAIN","OH",44053,41.424259374,-82.1882264,263,"1326 PARKWAY DR, LORAIN, OH, 44053","Match","Exact","1326 PARKWAY DR, LORAIN, OH, 44053",55404835,"R"
149264,"1326 PEBBLE BROOK CT","NOBLESVILLE","IN",46062,40.0555681210001,-86.074234029,264,"1326 PEBBLE BROOK CT, NOBLESVILLE, IN, 46062","Match","Non_Exact","1326 PEBBLE BROOK DR, NOBLESVILLE, IN, 46062",29335653,"L"
149265,"1326 PIEDMONT HIGHWAY","PIEDMONT","SC",29673,34.7648129250001,-82.431662445,265,"1326 PIEDMONT HIGHWAY, PIEDMONT, SC, 29673","Match","Exact","1326 PIEDMONT HWY, PIEDMONT, SC, 29673",640769522,"L"
149266,"1326 PINTO WAY","PATTERSON","CA",95363,37.4656258410001,-121.151730405,266,"1326 PINTO WAY, PATTERSON, CA, 95363","Match","Exact","1326 PINTO WAY, PATTERSON, CA, 95363",102632382,"L"
149267,"1326 PIPER LN","EUGENE","OR",97401,44.079029362,-123.094184752,267,"1326 PIPER LN, EUGENE, OR, 97401","Match","Exact","1326 PIPER LN, EUGENE, OR, 97401",178166450,"R"
149268,"1326 PR 7905","HOLLY LAKE RANCH","TX",75765,NA,NA,268,"1326 PR 7905, HOLLY LAKE RANCH, TX, 75765","No_Match",NA,NA,NA,NA
149269,"1326 PRESTON STREET SOUTH","ST. PETERSBURG","FL",33712,27.757571354,-82.656427228,269,"1326 PRESTON STREET SOUTH, ST. PETERSBURG, FL, 33712","Match","Exact","1326 PRESTON ST S, SAINT PETERSBURG, FL, 33712",124707748,"L"
149270,"1326 PRINCE HALL AVE","CHARLOTTE","NC",28206,35.2498014060001,-80.837752724,270,"1326 PRINCE HALL AVE, CHARLOTTE, NC, 28206","Match","Exact","1326 PRINCE HALL AVE, CHARLOTTE, NC, 28206",70479013,"R"
149271,"1326 RANGE FIELD","SAN ANTONOIO","TX",78245,29.4226379460001,-98.6685503739999,271,"1326 RANGE FIELD, SAN ANTONOIO, TX, 78245","Match","Non_Exact","1326 RANGE FIELD, SAN ANTONIO, TX, 78245",634132152,"R"
149272,"1326 RANLEIGH RD","MCLEAN","VA",22101,38.939708329,-77.140808889,272,"1326 RANLEIGH RD, MCLEAN, VA, 22101","Match","Exact","1326 RANLEIGH RD, MCLEAN, VA, 22101",215950564,"R"
149273,"1326 REYNOLDS STREET","AUGUSTA","GA",30901,33.480398805,-81.975743375,273,"1326 REYNOLDS STREET, AUGUSTA, GA, 30901","Match","Exact","1326 REYNOLDS ST, AUGUSTA, GA, 30901",55639825,"L"
149274,"1326 ROCKY CREEK LANE","ALLEN","TX",75002,33.113200571,-96.638777773,274,"1326 ROCKY CREEK LANE, ALLEN, TX, 75002","Match","Exact","1326 ROCKY CREEK LN, ALLEN, TX, 75002",123519925,"R"
149275,"1326 RUIDOSO DR","EDINBURG","TX",78541,26.3369732310001,-98.170126717,275,"1326 RUIDOSO DR, EDINBURG, TX, 78541","Match","Non_Exact","1326 W RUIDOSO DR, EDINBURG, TX, 78541",627017173,"L"
149276,"1326 RUSKIN RD","DAYTON","OH",45406,39.7715964870001,-84.235754642,276,"1326 RUSKIN RD, DAYTON, OH, 45406","Match","Exact","1326 RUSKIN RD, DAYTON, OH, 45406",143567064,"R"
149277,"1326 S BROADWAY","MARLOW","OK",73055,34.6622151220001,-97.958227219,277,"1326 S BROADWAY, MARLOW, OK, 73055","Match","Non_Exact","1326 N BROADWAY, MARLOW, OK, 73055",13647104,"R"
149278,"1326 S GARNET STREET","PHILADELPHIA","PA",19146,39.934873162,-75.1762083419999,278,"1326 S GARNET STREET, PHILADELPHIA, PA, 19146","Match","Exact","1326 S GARNET ST, PHILADELPHIA, PA, 19146",131411074,"R"
149279,"1326 S MICHIGAN AVE APT 4508","CHICAGO","IL",60605,41.865317949,-87.6240303989999,279,"1326 S MICHIGAN AVE APT 4508, CHICAGO, IL, 60605","Match","Non_Exact","1326 S MICHIGAN AVE, CHICAGO, IL, 60605",637906678,"R"
149280,"1326 S NEWBURGH RD","WESTLAND","MI",48186,42.298333217,-83.4076403289999,280,"1326 S NEWBURGH RD, WESTLAND, MI, 48186","Match","Exact","1326 S NEWBURGH RD, WESTLAND, MI, 48186",95412327,"R"
149281,"1326 S THOMPSON RD","SHELBYVILLE","IN",46176,39.510158351,-85.7329223849999,281,"1326 S THOMPSON RD, SHELBYVILLE, IN, 46176","Match","Exact","1326 S THOMPSON RD, SHELBYVILLE, IN, 46176",33219430,"R"
149282,"1326 SHEFFIELD STREET APT 2","PITTSBURGH","PA",15233,40.4533077400001,-80.024923671,282,"1326 SHEFFIELD STREET APT 2, PITTSBURGH, PA, 15233","Match","Exact","1326 SHEFFIELD ST, PITTSBURGH, PA, 15233",51625982,"R"
149283,"1326 SOUTH 17TH AVE","MAYWOOD","IL",60153,41.875587459,-87.8535108149999,283,"1326 SOUTH 17TH AVE, MAYWOOD, IL, 60153","Match","Exact","1326 S 17TH AVE, MAYWOOD, IL, 60153",111754329,"R"
149284,"1326 SOUTH 17TH AVENUE","MAYWOOD","IL",60153,41.875587459,-87.8535108149999,284,"1326 SOUTH 17TH AVENUE, MAYWOOD, IL, 60153","Match","Exact","1326 S 17TH AVE, MAYWOOD, IL, 60153",111754329,"R"
149285,"1326 SOUTH PEORIA AVENUE","DIXON","IL",61021,41.8318619280001,-89.478344808,285,"1326 SOUTH PEORIA AVENUE, DIXON, IL, 61021","Match","Exact","1326 S PEORIA AVE, DIXON, IL, 61021",608217554,"R"
149286,"1326 SPRING VALLEY ROAD","GOLDEN VALLEY","MN",55422,44.9924375570001,-93.3427464219999,286,"1326 SPRING VALLEY ROAD, GOLDEN VALLEY, MN, 55422","Match","Exact","1326 SPRING VALLEY RD, GOLDEN VALLEY, MN, 55422",43831968,"R"
149287,"1326 STALLINGS ROAD","ZEBULON","NC",27597,35.8536592300001,-78.255721522,287,"1326 STALLINGS ROAD, ZEBULON, NC, 27597","Match","Exact","1326 STALLINGS RD, ZEBULON, NC, 27597",623844236,"L"
149288,"1326 STONE ROAD","WESTMINSTER","MD",21158,39.6441964000001,-77.044234938,288,"1326 STONE ROAD, WESTMINSTER, MD, 21158","Match","Exact","1326 STONE RD, WESTMINSTER, MD, 21158",61790171,"R"
149289,"1326 STONGATE DRIVE","DOWNINGTOWN","PA",19335,39.9859962740001,-75.7115931179999,289,"1326 STONGATE DRIVE, DOWNINGTOWN, PA, 19335","Match","Non_Exact","1326 STONEGATE DR, DOWNINGTOWN, PA, 19335",179552846,"L"
149290,"1326 SUNNYBROOK TER","CHESAPEAKE","VA",23321,36.7900583000001,-76.402427964,290,"1326 SUNNYBROOK TER, CHESAPEAKE, VA, 23321","Match","Exact","1326 SUNNYBROOK TER, CHESAPEAKE, VA, 23321",642143331,"L"
149291,"1326 SURREY LANE","ROCKVILLE CENTRE","NY",11570,40.677643833,-73.620816094,291,"1326 SURREY LANE, ROCKVILLE CENTRE, NY, 11570","Match","Exact","1326 SURREY LN, ROCKVILLE CENTRE, NY, 11570",147629443,"R"
149292,"1326 TADSWORTH TER","HEATHROW","FL",32746,28.778085864,-81.371676737,292,"1326 TADSWORTH TER, HEATHROW, FL, 32746","Match","Exact","1326 TADSWORTH TER, HEATHROW, FL, 32746",93771280,"R"
149293,"1326 TANAGER","GARLAND","TX",75040,NA,NA,293,"1326 TANAGER, GARLAND, TX, 75040","No_Match",NA,NA,NA,NA
149294,"1326 TAOS DRIVE","SAINT LOUIS","MO",63138,38.774862323,-90.208923092,294,"1326 TAOS DRIVE, SAINT LOUIS, MO, 63138","Match","Exact","1326 TAOS DR, SAINT LOUIS, MO, 63138",100150958,"L"
149295,"1326 TEMPO ST","HENDERSON","NV",89052,35.978636828,-115.091515279,295,"1326 TEMPO ST, HENDERSON, NV, 89052","Match","Exact","1326 TEMPO ST, HENDERSON, NV, 89052",201956355,"R"
149296,"1326 TENBROOK ROAD","ODENTON","MD",21113,39.0697884090001,-76.7006640399999,296,"1326 TENBROOK ROAD, ODENTON, MD, 21113","Match","Exact","1326 TENBROOK RD, ODENTON, MD, 21113",647391595,"L"
149297,"1326 TIFFNEY LANE","BASTROP","LA",71220,32.791533369,-91.8930511359999,297,"1326 TIFFNEY LANE, BASTROP, LA, 71220","Match","Non_Exact","1326 TIFFANY LN, BASTROP, LA, 71220",75387331,"L"
149298,"1326 TULANE ST","HOUSTON","TX",77008,29.7948736020001,-95.4023447069999,298,"1326 TULANE ST, HOUSTON, TX, 77008","Match","Exact","1326 TULANE ST, HOUSTON, TX, 77008",96060984,"R"
149299,"1326 UPSALA ST","EAST MCKEESPORT","PA",15035,NA,NA,299,"1326 UPSALA ST, EAST MCKEESPORT, PA, 15035","No_Match",NA,NA,NA,NA
149300,"1326 VALLEY HILL DRIVE","LAKELAND","FL",33813,27.979133787,-81.941180559,300,"1326 VALLEY HILL DRIVE, LAKELAND, FL, 33813","Match","Exact","1326 VALLEY HILL DR, LAKELAND, FL, 33813",104813120,"L"
149301,"1326 VERONA RIDGE DR","AURORA","IL",60506,41.783372969,-88.3869297969999,301,"1326 VERONA RIDGE DR, AURORA, IL, 60506","Match","Exact","1326 VERONA RIDGE DR, AURORA, IL, 60506",627866164,"L"
149302,"1326 W 18TH ST","CHICAGO","IL",60608,41.857903521,-87.660111248,302,"1326 W 18TH ST, CHICAGO, IL, 60608","Match","Non_Exact","1326 W 18TH ST, CHICAGO, IL, 60608",605106024,"R"
149303,"1326 W 3150 N","PLEASANT GROVE","UT",84062,40.3978194960001,-111.759190186,303,"1326 W 3150 N, PLEASANT GROVE, UT, 84062","Match","Exact","1326 W 3150 N, PLEASANT GROVE, UT, 84062",627215853,"R"
149304,"1326 W NORTH BLVD  ST 4","LEESBURG","FL",34748,NA,NA,304,"1326 W NORTH BLVD  ST 4, LEESBURG, FL, 34748","No_Match",NA,NA,NA,NA
149305,"1326 WALES DR","FORT MYERS","FL",33901,26.609760464,-81.8876313229999,305,"1326 WALES DR, FORT MYERS, FL, 33901","Match","Exact","1326 WALES DR, FORT MYERS, FL, 33901",118024540,"R"
149306,"1326 WEATHERVANE LN APT 2D","AKRON","OH",44313,41.1369949740001,-81.552390443,306,"1326 WEATHERVANE LN APT 2D, AKRON, OH, 44313","Match","Exact","1326 WEATHERVANE LN, AKRON, OH, 44313",640189303,"L"
149307,"1326 WESLEY AVE","BERWYN","IL",60402,41.8628248630001,-87.791236842,307,"1326 WESLEY AVE, BERWYN, IL, 60402","Match","Exact","1326 WESLEY AVE, BERWYN, IL, 60402",111794140,"R"
149308,"1326 WEST MAIN STREET","SALEM","VA",24153,37.2897691370001,-80.078765542,308,"1326 WEST MAIN STREET, SALEM, VA, 24153","Match","Exact","1326 W MAIN ST, SALEM, VA, 24153",62957053,"L"
149309,"1326 WHITE TAIL DT","FREDERICKTOWN","MO",63645,37.5925666050001,-90.322749503,309,"1326 WHITE TAIL DT, FREDERICKTOWN, MO, 63645","Match","Non_Exact","1326 WHITE TAIL DR, FREDERICKTOWN, MO, 63645",35282862,"R"
149310,"1326 WOODLAND ST","EMPORIA","KS",66801,38.4144520040001,-96.204668877,310,"1326 WOODLAND ST, EMPORIA, KS, 66801","Match","Exact","1326 WOODLAND ST, EMPORIA, KS, 66801",10957678,"R"
149311,"1326 WOOLRIDGE DRIVE","CORALVILLE","IA",52241,41.692477769,-91.584544584,311,"1326 WOOLRIDGE DRIVE, CORALVILLE, IA, 52241","Match","Exact","1326 WOOLRIDGE DR, CORALVILLE, IA, 52241",84510068,"R"
149312,"1326 YALE ST UNIT 4","SANTA MONICA","CA",90404,34.0364129600001,-118.472407845,312,"1326 YALE ST UNIT 4, SANTA MONICA, CA, 90404","Match","Exact","1326 YALE ST, SANTA MONICA, CA, 90404",142717329,"R"
149313,"13260 BUFFALO TRACE ROAD","PALMYRA","IN",47164,38.394610389,-86.119686401,313,"13260 BUFFALO TRACE ROAD, PALMYRA, IN, 47164","Match","Exact","13260 BUFFALO TRACE RD, PALMYRA, IN, 47164",34805571,"R"
149314,"13260 CARRIAGE CIRCLE","GULFPORT","MS",39503,30.478845042,-89.0753669269999,314,"13260 CARRIAGE CIRCLE, GULFPORT, MS, 39503","Match","Exact","13260 CARRIAGE CIR, GULFPORT, MS, 39503",637765163,"R"
149315,"13260 HOLLYFIELD CT","SAN DIEGO","CA",92130,32.9589275480001,-117.231940967,315,"13260 HOLLYFIELD CT, SAN DIEGO, CA, 92130","Match","Exact","13260 HOLLYFIELD CT, SAN DIEGO, CA, 92130",195674763,"L"
149316,"13260 N NORFOLK","DETROIT","MI",48235,NA,NA,316,"13260 N NORFOLK, DETROIT, MI, 48235","Tie",NA,NA,NA,NA
149317,"13260 NW BISHOP ROAD","HILLSBORO","OR",97124,45.616294935,-122.919891491,317,"13260 NW BISHOP ROAD, HILLSBORO, OR, 97124","Match","Exact","13260 NW BISHOP RD, HILLSBORO, OR, 97124",158178466,"L"
149318,"13260 SW 96 STREET","MIAMI","FL",33186,25.6782672780001,-80.4113445039999,318,"13260 SW 96 STREET, MIAMI, FL, 33186","Match","Exact","13260 SW 96TH ST, MIAMI, FL, 33186",115966949,"L"
149319,"13260 SW 97TH PLACE","DUNNELLON","FL",34432,29.0812652860001,-82.337530897,319,"13260 SW 97TH PLACE, DUNNELLON, FL, 34432","Match","Exact","13260 SW 97TH PL, DUNNELLON, FL, 34432",116820936,"R"
149320,"13261 ALANWOOD ROAD","LA PUENTE","CA",91746,34.0435648500001,-118.003560103,320,"13261 ALANWOOD ROAD, LA PUENTE, CA, 91746","Match","Exact","13261 ALANWOOD RD, LA PUENTE, CA, 91746",141652412,"L"
149321,"13261 BALLESTROS AVENUE","CHINO","CA",91710,34.012596714,-117.708412148,321,"13261 BALLESTROS AVENUE, CHINO, CA, 91710","Match","Exact","13261 BALLESTROS AVE, CHINO, CA, 91710",144673063,"L"
149322,"13261 DEER MEADOWS RD","OREGON CITY","OR",97045,45.3228876410001,-122.593854352,322,"13261 DEER MEADOWS RD, OREGON CITY, OR, 97045","Match","Non_Exact","13261 S DEER MEADOWS RD, OREGON CITY, OR, 97045",157949396,"R"
149323,"13261 DENARA RD","SAN DIEGO","CA",92130,32.9589266470001,-117.239260128,323,"13261 DENARA RD, SAN DIEGO, CA, 92130","Match","Exact","13261 DENARA RD, SAN DIEGO, CA, 92130",195384036,"R"
149324,"13261 HARDY ST APT 10306","OVERLAND PARK","KS",66213,38.8889997910001,-94.679248158,324,"13261 HARDY ST APT 10306, OVERLAND PARK, KS, 66213","Match","Exact","13261 HARDY ST, OVERLAND PARK, KS, 66213",645785688,"L"
149325,"13261 VERDUN DR","PALM BEACH GARDENS","FL",33410,26.8722722800001,-80.089487757,325,"13261 VERDUN DR, PALM BEACH GARDENS, FL, 33410","Match","Exact","13261 VERDUN DR, PALM BEACH GARDENS, FL, 33410",115508932,"L"
149326,"13262 CHARDON WINDSOR RD","CHARDON","OH",44024,41.5761763130001,-81.1653981759999,326,"13262 CHARDON WINDSOR RD, CHARDON, OH, 44024","Match","Exact","13262 CHARDON WINDSOR RD, CHARDON, OH, 44024",640125462,"L"
149327,"13262 CHESTNUT LANE","TAYLOR","MI",48180,42.209152137,-83.2442255619999,327,"13262 CHESTNUT LANE, TAYLOR, MI, 48180","Match","Exact","13262 CHESTNUT LN, TAYLOR, MI, 48180",95692280,"R"
149328,"13262 EARLY SUNSET DR","MEMPHIS","IN",47143,38.44548826,-85.809737073,328,"13262 EARLY SUNSET DR, MEMPHIS, IN, 47143","Match","Exact","13262 EARLY SUNSET DR, MEMPHIS, IN, 47143",624278794,"L"
149329,"13262 OAKS AVENUE","CHINO","CA",91710,34.0127506110001,-117.676186882,329,"13262 OAKS AVENUE, CHINO, CA, 91710","Match","Exact","13262 OAKS AVE, CHINO, CA, 91710",144673933,"R"
149330,"13262 SALMON RIVER ROAD UNIT 101","SAN DIEGO","CA",92129,32.957448028,-117.121392136,330,"13262 SALMON RIVER ROAD UNIT 101, SAN DIEGO, CA, 92129","Match","Exact","13262 SALMON RIVER RD, SAN DIEGO, CA, 92129",195671628,"L"
149331,"13263 150TH ST","AREDALE","IA",50605,42.83314361,-92.9614332469999,331,"13263 150TH ST, AREDALE, IA, 50605","Match","Exact","13263 150TH ST, AREDALE, IA, 50605",9625553,"R"
149332,"13263 EMERALD BAY COURT","LATHROP","CA",95330,37.8409918580001,-121.277758186,332,"13263 EMERALD BAY COURT, LATHROP, CA, 95330","Match","Exact","13263 EMERALD BAY CT, LATHROP, CA, 95330",133922605,"L"
149333,"13263 KIT LANE","DALLAS","TX",75240,32.928523786,-96.7672503539999,333,"13263 KIT LANE, DALLAS, TX, 75240","Match","Exact","13263 KIT LN, DALLAS, TX, 75240",103208477,"L"
149334,"13263 NW 7TH AVENUE","NORTH MIAMI","FL",33168,25.8960923240001,-80.2111664729999,334,"13263 NW 7TH AVENUE, NORTH MIAMI, FL, 33168","Match","Non_Exact","13263 NW 7TH AVE, NORTH MIAMI, FL, 33168",116033297,"R"
149335,"13263 TIERRA HEIGHTS ROAD","REDDING","CA",96003,40.670281275,-122.327569953,335,"13263 TIERRA HEIGHTS ROAD, REDDING, CA, 96003","Match","Exact","13263 TIERRA HEIGHTS RD, REDDING, CA, 96003",126658589,"R"
149336,"13263 W HIAWATHA DRIVE","HOMER GLEN","IL",60491,41.6366199940001,-87.942822334,336,"13263 W HIAWATHA DRIVE, HOMER GLEN, IL, 60491","Match","Exact","13263 W HIAWATHA DR, HOMER GLEN, IL, 60491",111554488,"R"
149337,"13264 CAROLYN ST","CERRITOS","CA",90703,33.8727380560001,-118.049381861,337,"13264 CAROLYN ST, CERRITOS, CA, 90703","Match","Exact","13264 CAROLYN ST, CERRITOS, CA, 90703",141753598,"R"
149338,"13264 E 36TH PLACE","YUMA","AZ",85367,32.66267186,-114.406417086,338,"13264 E 36TH PLACE, YUMA, AZ, 85367","Match","Exact","13264 E 36TH PL, YUMA, AZ, 85367",129646295,"L"
149339,"13264 E HWY 88","LOCKEFORD","CA",95237,38.1607077360001,-121.152722849,339,"13264 E HWY 88, LOCKEFORD, CA, 95237","Match","Exact","13264 E HWY 88, LOCKEFORD, CA, 95237",133912856,"R"
149340,"13264 HIDDEN TRAIL COURT","WILLIS","TX",77378,30.4403142830001,-95.5537254989999,340,"13264 HIDDEN TRAIL COURT, WILLIS, TX, 77378","Match","Non_Exact","13264 HIDDEN TRAIL CT, WILLIS, TX, 77318",79340908,"L"
149341,"13264 N HWY 10","TAHLEQUAH","OK",74464,35.9819345770001,-94.92443845,341,"13264 N HWY 10, TAHLEQUAH, OK, 74464","Match","Non_Exact","13266 STATE HWY 10, TAHLEQUAH, OK, 74464",53642227,"R"
149342,"13264 NW 13TH STREET","PEMBROKE PINES","FL",33028,26.0174284120001,-80.326586159,342,"13264 NW 13TH STREET, PEMBROKE PINES, FL, 33028","Match","Non_Exact","13264 NW 13TH ST, PEMBROKE PINES, FL, 33028",114782141,"L"
149343,"13264 PADRE AV","KELLER","TX",76244,32.9698146380001,-97.2651744359999,343,"13264 PADRE AV, KELLER, TX, 76244","Match","Exact","13264 PADRE AVE, KELLER, TX, 76244",637607051,"R"
149344,"13264 SW 108TH ST CIRCLE","MIAMI","FL",33186,25.6681429000001,-80.409341725,344,"13264 SW 108TH ST CIRCLE, MIAMI, FL, 33186","Match","Non_Exact","13264 SW 108TH ST, MIAMI, FL, 33186",115967884,"R"
149345,"13264 SW 255TH TERRACE","MIAMI","FL",33032,25.5299203700001,-80.405831732,345,"13264 SW 255TH TERRACE, MIAMI, FL, 33032","Match","Non_Exact","13264 SW 255TH TER, NARANJA, FL, 33032",115990849,"L"
149346,"13265 53RD COURT NORTH","LOXAHATCHEE","FL",33411,26.755094077,-80.252579077,346,"13265 53RD COURT NORTH, LOXAHATCHEE, FL, 33411","Match","Non_Exact","13265 53RD CT N, WELLINGTON, FL, 33411",648585173,"L"
149347,"13265 CURRAN ROAD","NEW ORLEANS","LA",70128,30.0604493330001,-89.9576698509999,347,"13265 CURRAN ROAD, NEW ORLEANS, LA, 70128","Match","Exact","13265 CURRAN RD, NEW ORLEANS, LA, 70128",191721959,"L"
149348,"13265 DEBELL ST","ARLETA","CA",91331,34.23733184,-118.422482239,348,"13265 DEBELL ST, ARLETA, CA, 91331","Match","Exact","13265 DEBELL ST, ARLETA, CA, 91331",141551891,"R"
149349,"13265 LAMIRADA CIR","WELLINGTON","FL",33414,NA,NA,349,"13265 LAMIRADA CIR, WELLINGTON, FL, 33414","No_Match",NA,NA,NA,NA
149350,"13265 LIONS PEAK WAY","COLORADO SPRINGS","CO",80921,39.0219117240001,-104.802124162,350,"13265 LIONS PEAK WAY, COLORADO SPRINGS, CO, 80921","Match","Exact","13265 LIONS PEAK WAY, COLORADO SPRINGS, CO, 80921",643483029,"L"
149351,"13265 SE SOUTHWOOD DR","PRINEVILLE","OR",97754,44.176969414,-120.777014446,351,"13265 SE SOUTHWOOD DR, PRINEVILLE, OR, 97754","Match","Exact","13265 SOUTHWOOD DR, PRINEVILLE, OR, 97754",634216713,"L"
149352,"13265 SEA EAGLE AVENUE","BROOKSVILLE","FL",34614,28.642221696,-82.5056380569999,352,"13265 SEA EAGLE AVENUE, BROOKSVILLE, FL, 34614","Match","Exact","13265 SEA EAGLE AVE, BROOKSVILLE, FL, 34614",85444944,"R"
149353,"13265 STEEL","DETROIT","MI",48227,42.3855331770001,-83.170839243,353,"13265 STEEL, DETROIT, MI, 48227","Match","Non_Exact","13265 STEEL AVE, DETROIT, MI, 48227",95442423,"L"
149354,"13265 SW NAHCOTTA DR","TIGARD","OR",97223,45.4240034160001,-122.827243208,354,"13265 SW NAHCOTTA DR, TIGARD, OR, 97223","Match","Exact","13265 SW NAHCOTTA DR, TIGARD, OR, 97223",605208205,"R"
149355,"13266 BYRD DR  100  783","ODESSA","FL",33556,28.1745253890001,-82.596496104,355,"13266 BYRD DR  100  783, ODESSA, FL, 33556","Match","Exact","13266 BYRD DR, ODESSA, FL, 33556",624575419,"L"
149356,"13266 BYRD DR SUITE 100-233","ODESSA","FL",33556,28.1745253890001,-82.596496104,356,"13266 BYRD DR SUITE 100-233, ODESSA, FL, 33556","Match","Exact","13266 BYRD DR, ODESSA, FL, 33556",624575419,"L"
149357,"13266 MENDENHALL PLACE","JACKSONVILLE","FL",32224,30.309994326,-81.456241887,357,"13266 MENDENHALL PLACE, JACKSONVILLE, FL, 32224","Match","Exact","13266 MENDENHALL PL, JACKSONVILLE, FL, 32224",83942613,"R"
149358,"13266 MOCCASIN LN","SHASTA LAKE CITY","CA",90619,NA,NA,358,"13266 MOCCASIN LN, SHASTA LAKE CITY, CA, 90619","No_Match",NA,NA,NA,NA
149359,"13266 MOCCASIN LN","SHASTA LAKE CITY","CA",96019,40.6747111290001,-122.395352451,359,"13266 MOCCASIN LN, SHASTA LAKE CITY, CA, 96019","Match","Non_Exact","13266 MOCCASIN LN, SHASTA LAKE, CA, 96019",126625428,"R"
149360,"13266 N MORTAR PESTLE CT","ORO VALLEY","AZ",85755,32.4463223830001,-110.93752574,360,"13266 N MORTAR PESTLE CT, ORO VALLEY, AZ, 85755","Match","Exact","13266 N MORTAR PESTLE CT, ORO VALLEY, AZ, 85755",121391451,"R"
149361,"132660 N 117TH STREET","SEDGWICK","KS",67135,NA,NA,361,"132660 N 117TH STREET, SEDGWICK, KS, 67135","No_Match",NA,NA,NA,NA
149362,"13267 FOXFIELD CT","DRAPER","UT",84020,40.510401615,-111.841590802,362,"13267 FOXFIELD CT, DRAPER, UT, 84020","Match","Exact","13267 FOXFIELD CT, DRAPER, UT, 84020",611648280,"L"
149363,"13267 NORTH 93RD WAY","SCOTTSDALE","AZ",85260,33.606994764,-111.878950923,363,"13267 NORTH 93RD WAY, SCOTTSDALE, AZ, 85260","Match","Exact","13267 N 93RD WAY, SCOTTSDALE, AZ, 85260",128363481,"R"
149364,"13267 SOUTH VERNON AVE","CHICAGO","IL",60827,41.653200944,-87.6113722379999,364,"13267 SOUTH VERNON AVE, CHICAGO, IL, 60827","Match","Exact","13267 S VERNON AVE, CHICAGO, IL, 60827",111777868,"L"
149365,"13268 EASTBORNE DR","OREGON CITY","OR",97045,45.32682772,-122.593920728,365,"13268 EASTBORNE DR, OREGON CITY, OR, 97045","Match","Exact","13268 EASTBORNE DR, OREGON CITY, OR, 97045",157965580,"R"
149366,"13268 JAMES MADISON HIGHWAY","ORANGE","VA",22960,38.223328145,-78.123085276,366,"13268 JAMES MADISON HIGHWAY, ORANGE, VA, 22960","Match","Exact","13268 JAMES MADISON HWY, ORANGE, VA, 22960",29885569,"L"
149367,"13268 LARKFIELD COURT","SAN DIEGO","CA",92130,32.9588595480001,-117.233650373,367,"13268 LARKFIELD COURT, SAN DIEGO, CA, 92130","Match","Exact","13268 LARKFIELD CT, SAN DIEGO, CA, 92130",195674757,"L"
149368,"13269 SOUTH 183RD DRIVE","GOODYEAR","AZ",85338,33.3259304590001,-112.445512247,368,"13269 SOUTH 183RD DRIVE, GOODYEAR, AZ, 85338","Match","Exact","13269 S 183RD DR, GOODYEAR, AZ, 85338",618475565,"L"
149369,"13269 SW 142ND TERRACE","MIAMI","FL",33186,25.635203403,-80.407984998,369,"13269 SW 142ND TERRACE, MIAMI, FL, 33186","Match","Exact","13269 SW 142ND TER, MIAMI, FL, 33186",116268132,"L"
149370,"13269 W GELDING CIRCLE","SUPRISE","AZ",85379,33.6149872010001,-112.34596352,370,"13269 W GELDING CIRCLE, SUPRISE, AZ, 85379","Match","Non_Exact","13269 W GELDING CIR, SURPRISE, AZ, 85379",128850985,"L"
149371,"1327 1 W 104TH ST","LOS ANGELES","CA",90044,NA,NA,371,"1327 1 W 104TH ST, LOS ANGELES, CA, 90044","No_Match",NA,NA,NA,NA
149372,"1327 13TH AVE SOUTH APT B","SEATTLE","WA",98144,47.5912430400001,-122.315996575,372,"1327 13TH AVE SOUTH APT B, SEATTLE, WA, 98144","Match","Exact","1327 13TH AVE S, SEATTLE, WA, 98144",186592814,"R"
149373,"1327 154TH ST NW","MARYSVILLE","WA",98271,48.1359137100001,-122.251243339,373,"1327 154TH ST NW, MARYSVILLE, WA, 98271","Match","Exact","1327 154TH ST NW, MARYSVILLE, WA, 98271",187740007,"R"
149374,"1327 159TH AVENUE","SAN LEANDRO","CA",94578,37.699453529,-122.12116024,374,"1327 159TH AVENUE, SAN LEANDRO, CA, 94578","Match","Exact","1327 159TH AVE, SAN LEANDRO, CA, 94578",606342461,"L"
149375,"1327 25TH STREET","ORLANDO","FL",32805,28.5163867090001,-81.3976629219999,375,"1327 25TH STREET, ORLANDO, FL, 32805","Match","Exact","1327 25TH ST, ORLANDO, FL, 32805",94283238,"R"
149376,"1327 6TH AVENUE","NEPTUNE CITY","NJ",7753,40.2042229560001,-74.025108551,376,"1327 6TH AVENUE, NEPTUNE CITY, NJ, 7753","Match","Exact","1327 6TH AVE, NEPTUNE CITY, NJ, 07753",90463806,"R"
149377,"1327 85TH AVENUE","OAKLAND","CA",94621,37.752763213,-122.17842386,377,"1327 85TH AVENUE, OAKLAND, CA, 94621","Match","Exact","1327 85TH AVE, OAKLAND, CA, 94621",606263402,"L"
149378,"1327 93RD STREET E","TACOMA","WA",98404,47.1725356470001,-122.410928993,378,"1327 93RD STREET E, TACOMA, WA, 98404","Match","Non_Exact","1327 93RD ST E, TACOMA, WA, 98445",640610860,"R"
149379,"1327 ALAMEDA ST","SAINT PAUL","MN",55117,44.9812098410001,-93.1300790879999,379,"1327 ALAMEDA ST, SAINT PAUL, MN, 55117","Match","Non_Exact","1327 N ALAMEDA ST, SAINT PAUL, MN, 55117",97643455,"L"
149380,"1327 ALEXANDER RD","FRENCH CREEK","WV",26218,38.852586871,-80.2953995249999,380,"1327 ALEXANDER RD, FRENCH CREEK, WV, 26218","Match","Exact","1327 ALEXANDER RD, FRENCH CREEK, WV, 26218",611611079,"R"
149381,"1327 AVIATION BLVD","REDONDO BEACH","CA",90278,33.8663952200001,-118.385289724,381,"1327 AVIATION BLVD, REDONDO BEACH, CA, 90278","Match","Exact","1327 AVIATION BLVD, REDONDO BEACH, CA, 90278",141583575,"L"
149382,"1327 BARTON CREEK CIR","BOUNTIFUL","UT",84010,40.881652366,-111.852225328,382,"1327 BARTON CREEK CIR, BOUNTIFUL, UT, 84010","Match","Exact","1327 BARTON CREEK CIR, BOUNTIFUL, UT, 84010",229353751,"R"
149383,"1327 BASS LANE","MCDONOUGH","GA",30253,33.46098033,-84.1557751139999,383,"1327 BASS LANE, MCDONOUGH, GA, 30253","Match","Exact","1327 BASS LN, MCDONOUGH, GA, 30253",619935513,"R"
149384,"1327 BAYOU PATH CT","NAPERILLE","IL",60563,41.7855172660001,-88.21789784,384,"1327 BAYOU PATH CT, NAPERILLE, IL, 60563","Match","Non_Exact","1327 BAYOU PATH CT, NAPERVILLE, IL, 60563",650050956,"R"
149385,"1327 BAYOU PATH CT","NAPERVILLE","IL",60563,41.7855172660001,-88.21789784,385,"1327 BAYOU PATH CT, NAPERVILLE, IL, 60563","Match","Exact","1327 BAYOU PATH CT, NAPERVILLE, IL, 60563",650050956,"R"
149386,"1327 BEATTIES FORD ROAD","CHARLOTTE","NC",28216,35.2553264910001,-80.855825991,386,"1327 BEATTIES FORD ROAD, CHARLOTTE, NC, 28216","Match","Exact","1327 BEATTIES FORD RD, CHARLOTTE, NC, 28216",70477299,"L"
149387,"1327 BONNIE GLEN LANE","GLENVIEW","IL",60025,42.0777052890001,-87.792500805,387,"1327 BONNIE GLEN LANE, GLENVIEW, IL, 60025","Match","Exact","1327 BONNIE GLEN LN, GLENVIEW, IL, 60025",111734277,"L"
149388,"1327 BOOT ROAD","WEST CHESTER","PA",19380,40.000891763,-75.5751325369999,388,"1327 BOOT ROAD, WEST CHESTER, PA, 19380","Match","Non_Exact","1327 E BOOT RD, WEST CHESTER, PA, 19380",179489879,"L"
149389,"1327 BRAMBLEBURY DR","SUGAR LAND","TX",77478,29.6416199080001,-95.622623985,389,"1327 BRAMBLEBURY DR, SUGAR LAND, TX, 77478","Match","Non_Exact","1327 BRAMBLEBURY DR, SUGAR LAND, TX, 77498",78266719,"L"
149390,"1327 BRIAR CREEK RD NO 4","CHARLOTTE","NC",28205,35.2110712350001,-80.792590767,390,"1327 BRIAR CREEK RD NO 4, CHARLOTTE, NC, 28205","Match","Non_Exact","1327 BRIAR CREEK RD, CHARLOTTE, NC, 28205",70491479,"L"
149391,"1327 BROOKSIDE COURT","UPLAND","CA",91784,34.1369981610001,-117.673509894,391,"1327 BROOKSIDE COURT, UPLAND, CA, 91784","Match","Exact","1327 BROOKSIDE CT, UPLAND, CA, 91784",144686627,"R"
149392,"1327 BURNS AVE","IOWA CITY","IA",52240,41.6353453470001,-91.5168531159999,392,"1327 BURNS AVE, IOWA CITY, IA, 52240","Match","Exact","1327 BURNS AVE, IOWA CITY, IA, 52240",84496418,"R"
149393,"1327 CANAL RD","PRINCETON","NJ",8540,40.4138789890001,-74.630254624,393,"1327 CANAL RD, PRINCETON, NJ, 8540","Match","Exact","1327 CANAL RD, PRINCETON, NJ, 08540",653287294,"L"
149394,"1327 CARLOTTA AVE","BERKELEY","CA",94703,37.8817055330001,-122.279577436,394,"1327 CARLOTTA AVE, BERKELEY, CA, 94703","Match","Exact","1327 CARLOTTA AVE, BERKELEY, CA, 94703",652208454,"L"
149395,"1327 CAROL LANE","NAPERVILLE","IL",60565,41.7467487070001,-88.145580448,395,"1327 CAROL LANE, NAPERVILLE, IL, 60565","Match","Exact","1327 CAROL LN, NAPERVILLE, IL, 60565",112536528,"R"
149396,"1327 CHATMAN COVE","CORDOVA","TN",38018,35.1615079000001,-89.8215633619999,396,"1327 CHATMAN COVE, CORDOVA, TN, 38018","Match","Exact","1327 CHATMAN COVE, CORDOVA, TN, 38018",72976214,"L"
149397,"1327 CIROLERO ST","SAN JOSE","CA",95035,37.451701406,-121.899467784,397,"1327 CIROLERO ST, SAN JOSE, CA, 95035","Match","Non_Exact","1327 CIROLERO ST, MILPITAS, CA, 95035",122960237,"R"
149398,"1327 CLEARWATER DR","GRAND PRAIRIE","TX",75052,32.6439664210001,-97.025524941,398,"1327 CLEARWATER DR, GRAND PRAIRIE, TX, 75052","Match","Exact","1327 CLEARWATER DR, GRAND PRAIRIE, TX, 75052",103280836,"R"
149399,"1327 COLLIER POINT LANE","FRESNO","TX",77545,29.5186668000001,-95.4692177379999,399,"1327 COLLIER POINT LANE, FRESNO, TX, 77545","Match","Exact","1327 COLLIER POINT LN, FRESNO, TX, 77545",627341904,"L"
149400,"1327 COOLIDGE STREET","BELLMORE","NY",11710,40.686300997,-73.539920691,400,"1327 COOLIDGE STREET, BELLMORE, NY, 11710","Match","Exact","1327 COOLIDGE ST, BELLMORE, NY, 11710",147636142,"L"
149401,"1327 CORNERSTONE COURT","ORLANDO","FL",32835,28.525301455,-81.490051294,401,"1327 CORNERSTONE COURT, ORLANDO, FL, 32835","Match","Exact","1327 CORNERSTONE CT, ORLANDO, FL, 32835",94314794,"R"
149402,"1327 COUNTY RD 413","KILLEN","AL",35645,34.824257306,-87.459901213,402,"1327 COUNTY RD 413, KILLEN, AL, 35645","Match","Exact","1327 CO RD 413, KILLEN, AL, 35645",41338118,"R"
149403,"1327 CREEKFORD","SUGARLAND","TX",77478,NA,NA,403,"1327 CREEKFORD, SUGARLAND, TX, 77478","Tie",NA,NA,NA,NA
149404,"1327 CREEKWOOD LN","BIRMINGHAM","AL",35235,33.627790412,-86.6578959299999,404,"1327 CREEKWOOD LN, BIRMINGHAM, AL, 35235","Match","Exact","1327 CREEKWOOD LN, BIRMINGHAM, AL, 35235",81569401,"R"
149405,"1327 CRESTA LOMA DRIVE","FALLBROOK","CA",92028,33.3408279510001,-117.231566549,405,"1327 CRESTA LOMA DRIVE, FALLBROOK, CA, 92028","Match","Exact","1327 CRESTA LOMA DR, FALLBROOK, CA, 92028",619687010,"R"
149406,"1327 CRESTVIEW ROAD","REDLANDS","CA",92374,34.045451917,-117.155156871,406,"1327 CRESTVIEW ROAD, REDLANDS, CA, 92374","Match","Exact","1327 CRESTVIEW RD, REDLANDS, CA, 92374",636687744,"L"
149407,"1327 CRIQUE WAY STE C","ROSWELL","GA",30076,34.029445299,-84.320706217,407,"1327 CRIQUE WAY STE C, ROSWELL, GA, 30076","Match","Exact","1327 CRIQUE WAY, ROSWELL, GA, 30076",17418721,"L"
149408,"1327 DALRYMPLE CIRCLE","ELLIJAY","FM",30540,NA,NA,408,"1327 DALRYMPLE CIRCLE, ELLIJAY, FM, 30540","No_Match",NA,NA,NA,NA
149409,"1327 DALRYMPLE CIRCLE","ELLIJAY","GA",30540,34.719066706,-84.518674339,409,"1327 DALRYMPLE CIRCLE, ELLIJAY, GA, 30540","Match","Exact","1327 DALRYMPLE CIR, ELLIJAY, GA, 30540",57245347,"R"
149410,"1327 DEERPARK DR APT 181","FULLERTON","CA",92831,33.8848931470001,-117.878556007,410,"1327 DEERPARK DR APT 181, FULLERTON, CA, 92831","Match","Exact","1327 DEERPARK DR, FULLERTON, CA, 92831",609051246,"L"
149411,"1327 DIXIE LN S","ST PETERSBURG","FL",33707,27.7565003560001,-82.727184633,411,"1327 DIXIE LN S, ST PETERSBURG, FL, 33707","Match","Exact","1327 DIXIE LN S, SAINT PETERSBURG, FL, 33707",124698891,"R"
149412,"1327 DIXIE LN S","ST. PETERSBURG","FL",33707,27.7565003560001,-82.727184633,412,"1327 DIXIE LN S, ST. PETERSBURG, FL, 33707","Match","Exact","1327 DIXIE LN S, SAINT PETERSBURG, FL, 33707",124698891,"R"
149413,"1327 E 31ST ST","BROOKLYN","NY",11210,40.619259497,-73.9444225569999,413,"1327 E 31ST ST, BROOKLYN, NY, 11210","Match","Exact","1327 E 31ST ST, BROOKLYN, NY, 11210",59090262,"L"
149414,"1327 E 69TH ST","LOS ANGELES","CA",90001,33.9775569120001,-118.251676448,414,"1327 E 69TH ST, LOS ANGELES, CA, 90001","Match","Exact","1327 E 69TH ST, LOS ANGELES, CA, 90001",141670762,"L"
149415,"1327 E AVE A","HUTCHINSON","KS",67501,38.0509998950001,-97.9048527849999,415,"1327 E AVE A, HUTCHINSON, KS, 67501","Match","Exact","1327 E AVE A, HUTCHINSON, KS, 67501",142934986,"L"
149416,"1327 E EL MONTE WAY","DINUBA","CA",93618,36.545593368,-119.38133396,416,"1327 E EL MONTE WAY, DINUBA, CA, 93618","Match","Exact","1327 E EL MONTE WAY, DINUBA, CA, 93618",202776947,"L"
149417,"1327 E HARVEST ST","MESA","AZ",85203,33.4420746760001,-111.80243202,417,"1327 E HARVEST ST, MESA, AZ, 85203","Match","Exact","1327 E HARVEST ST, MESA, AZ, 85203",128244427,"R"
149418,"1327 E KEMPER RD SUITE 3100F","CINCINNATI","OH",45246,39.2861832070001,-84.449764895,418,"1327 E KEMPER RD SUITE 3100F, CINCINNATI, OH, 45246","Match","Non_Exact","1327 E KEMPER RD, CINCINNATI, OH, 45246",647373106,"R"
149419,"1327 E TREASURE COVE DR","GILBERT","AZ",85234,33.3736617120001,-111.759956357,419,"1327 E TREASURE COVE DR, GILBERT, AZ, 85234","Match","Exact","1327 E TREASURE COVE DR, GILBERT, AZ, 85234",128827135,"L"
149420,"1327 E TREASURE COVE DR","MESA","AZ",85201,NA,NA,420,"1327 E TREASURE COVE DR, MESA, AZ, 85201","No_Match",NA,NA,NA,NA
149421,"1327 E WASHINGTON AVE 123","HARLINGEN","TX",78550,NA,NA,421,"1327 E WASHINGTON AVE 123, HARLINGEN, TX, 78550","Tie",NA,NA,NA,NA
149422,"1327 E WILSON ST","MADISON","WI",53703,43.085724113,-89.3625972519999,422,"1327 E WILSON ST, MADISON, WI, 53703","Match","Exact","1327 E WILSON ST, MADISON, WI, 53703",49472822,"R"
149423,"1327 EA UTICA PL","BROKEN ARROW","OK",74011,36.010571816,-95.7745371409999,423,"1327 EA UTICA PL, BROKEN ARROW, OK, 74011","Match","Non_Exact","1327 E UTICA PL, BROKEN ARROW, OK, 74011",646515382,"L"
149424,"1327 ELM SPRINGS ROAD","SPRINGDALE","AR",72762,36.2050119950001,-94.21345401,424,"1327 ELM SPRINGS ROAD, SPRINGDALE, AR, 72762","Match","Exact","1327 ELM SPRINGS RD, SPRINGDALE, AR, 72762",49102845,"R"
149425,"1327 ELSON RD","BROOKHAVEN","PA",19015,39.855104419,-75.391817354,425,"1327 ELSON RD, BROOKHAVEN, PA, 19015","Match","Exact","1327 ELSON RD, BROOKHAVEN, PA, 19015",134889614,"L"
149426,"1327 ESPLANADE AVE APT 8","NEW ORLEANS","LA",70116,29.9677884270001,-90.066141306,426,"1327 ESPLANADE AVE APT 8, NEW ORLEANS, LA, 70116","Match","Exact","1327 ESPLANADE AVE, NEW ORLEANS, LA, 70116",191710544,"R"
149427,"1327 FAIR AVE APT 7","COLUMBUS","OH",43205,39.9637258290001,-82.964642005,427,"1327 FAIR AVE APT 7, COLUMBUS, OH, 43205","Match","Exact","1327 FAIR AVE, COLUMBUS, OH, 43205",135581289,"R"
149428,"1327 FAIRWAY FOREST DRIVE EAST","MEMPHIS","TN",38016,35.162046445,-89.806344692,428,"1327 FAIRWAY FOREST DRIVE EAST, MEMPHIS, TN, 38016","Match","Non_Exact","1327 FAIRWAY FOREST DR E, CORDOVA, TN, 38016",72954436,"R"
149429,"1327 FISHING CREEK RD","CLOVER","SC",28278,NA,NA,429,"1327 FISHING CREEK RD, CLOVER, SC, 28278","No_Match",NA,NA,NA,NA
149430,"1327 FLORIDA STREET","HIGH POINT","NC",27262,35.9717710360001,-80.0365063409999,430,"1327 FLORIDA STREET, HIGH POINT, NC, 27262","Match","Exact","1327 FLORIDA ST, HIGH POINT, NC, 27262",131037877,"L"
149431,"1327 FOULKROD ST","PHILADELPHIA","PA",19124,40.02010697,-75.0866026849999,431,"1327 FOULKROD ST, PHILADELPHIA, PA, 19124","Match","Exact","1327 FOULKROD ST, PHILADELPHIA, PA, 19124",131441180,"L"
149432,"1327 FOURTH AVE","JACKSON","MS",39203,32.3058227000001,-90.206147995,432,"1327 FOURTH AVE, JACKSON, MS, 39203","Match","Exact","1327 4TH AVE, JACKSON, MS, 39203",65371498,"L"
149433,"1327 FREDERICK BLVD","READING","PA",19605,40.4013747390001,-75.95721793,433,"1327 FREDERICK BLVD, READING, PA, 19605","Match","Non_Exact","1327 FREDRICK BLVD, READING, PA, 19605",80482078,"L"
149434,"1327 GARRARD ST","COVINGTON","KY",41011,39.0762974570001,-84.503276886,434,"1327 GARRARD ST, COVINGTON, KY, 41011","Match","Exact","1327 GARRARD ST, COVINGTON, KY, 41011",647592118,"R"
149435,"1327 GATES DRIVE SE","ATLANTA","GA",30316,33.7076395,-84.3309478099999,435,"1327 GATES DRIVE SE, ATLANTA, GA, 30316","Match","Non_Exact","1327 GATES DR, ATLANTA, GA, 30316",619385169,"L"
149436,"1327 GRANT ST","DUPONT","WA",98327,47.0920806940001,-122.68017075,436,"1327 GRANT ST, DUPONT, WA, 98327","Match","Non_Exact","1327 GRANT AVE, DUPONT, WA, 98327",625031034,"R"
149437,"1327 GREENLEAF ROAD","WILMINGTON","DE",19805,39.746996632,-75.595068995,437,"1327 GREENLEAF ROAD, WILMINGTON, DE, 19805","Match","Exact","1327 GREENLEAF RD, WILMINGTON, DE, 19805",187254694,"R"
149438,"1327 H ST STE 300","LINCOLN","NE",68508,40.806939389,-96.702159942,438,"1327 H ST STE 300, LINCOLN, NE, 68508","Match","Exact","1327 H ST, LINCOLN, NE, 68508",28292738,"R"
149439,"1327 HALAPA WAY","TRINITY","FL",34655,28.1781734570001,-82.601173462,439,"1327 HALAPA WAY, TRINITY, FL, 34655","Match","Exact","1327 HALAPA WAY, TRINITY, FL, 34655",624575644,"R"
149440,"1327 HASKELL AVENUE","LAWRENCE","KS",66044,38.959439221,-95.223518891,440,"1327 HASKELL AVENUE, LAWRENCE, KS, 66044","Match","Exact","1327 HASKELL AVE, LAWRENCE, KS, 66044",17685679,"R"
149441,"1327 HATCHCOVER CIRCLE","JONESBORO","GA",30238,33.4781988770001,-84.346398116,441,"1327 HATCHCOVER CIRCLE, JONESBORO, GA, 30238","Match","Exact","1327 HATCHCOVER CIR, JONESBORO, GA, 30238",23323985,"R"
149442,"1327 HAVENHURST DRIVE UNIT 8","WEST HOLLYWOOD","CA",90046,34.0948955320001,-118.367417263,442,"1327 HAVENHURST DRIVE UNIT 8, WEST HOLLYWOOD, CA, 90046","Match","Non_Exact","1327 N HAVENHURST DR, W HOLLYWOOD, CA, 90046",241240240,"L"
149443,"1327 HIGH POINT AVE","ATLANTA","GA",30315,NA,NA,443,"1327 HIGH POINT AVE, ATLANTA, GA, 30315","No_Match",NA,NA,NA,NA
149444,"1327 HIGHWAY DD","SMITHTON","MO",65350,NA,NA,444,"1327 HIGHWAY DD, SMITHTON, MO, 65350","No_Match",NA,NA,NA,NA
149445,"1327 HILL CREST DR","WATERFORD","MI",48327,42.657591423,-83.388967701,445,"1327 HILL CREST DR, WATERFORD, MI, 48327","Match","Non_Exact","1327 HILLCREST DR, WATERFORD, MI, 48327",637709131,"L"
149446,"1327 HUDSON LN","PROSPER","TX",75078,33.2305276060001,-96.852766915,446,"1327 HUDSON LN, PROSPER, TX, 75078","Match","Exact","1327 HUDSON LN, PROSPER, TX, 75078",614147641,"L"
149447,"1327 HUDSON ST","PORT TOWNSEND","WA",98368,NA,NA,447,"1327 HUDSON ST, PORT TOWNSEND, WA, 98368","No_Match",NA,NA,NA,NA
149448,"1327 HUNTINGTON COURT","YOUNGSTOWN","OH",44512,41.0190001390001,-80.708520552,448,"1327 HUNTINGTON COURT, YOUNGSTOWN, OH, 44512","Match","Exact","1327 HUNTINGTON CT, YOUNGSTOWN, OH, 44512",64593536,"R"
149449,"1327 HURON WAY","BOWLING GREEN","KY",42101,37.038056119,-86.3738222649999,449,"1327 HURON WAY, BOWLING GREEN, KY, 42101","Match","Exact","1327 HURON WAY, BOWLING GREEN, KY, 42101",649109469,"L"
149450,"1327 HWY","MONROE","LA",71203,NA,NA,450,"1327 HWY, MONROE, LA, 71203","No_Match",NA,NA,NA,NA
149451,"1327 JANSEN ROAD","SAINT PAUL","NE",68873,41.2243181220001,-98.4888455779999,451,"1327 JANSEN ROAD, SAINT PAUL, NE, 68873","Match","Exact","1327 JANSEN RD, SAINT PAUL, NE, 68873",198200540,"L"
149452,"1327 JEFFERSON ST NE","MINNEAPOLIS","MN",55413,45.0013124450001,-93.2549937589999,452,"1327 JEFFERSON ST NE, MINNEAPOLIS, MN, 55413","Match","Exact","1327 JEFFERSON ST NE, MINNEAPOLIS, MN, 55413",43835784,"R"
149453,"1327 KELLY RD","ALMA","AR",72921,35.5010345600001,-94.256504067,453,"1327 KELLY RD, ALMA, AR, 72921","Match","Exact","1327 KELLY RD, ALMA, AR, 72921",53493062,"L"
149454,"1327 KENDALL DR","DURHAM","NC",27703,35.968869431,-78.8417969,454,"1327 KENDALL DR, DURHAM, NC, 27703","Match","Exact","1327 KENDALL DR, DURHAM, NC, 27703",618109524,"L"
149455,"1327 KINGS BOTTOM","FORT MILL","SC",29715,34.966488387,-80.899881933,455,"1327 KINGS BOTTOM, FORT MILL, SC, 29715","Match","Non_Exact","1327 KING'S BOTTOM DR, FORT MILL, SC, 29715",640304406,"L"
149456,"1327 LAKE CHARLES","PORT ARTHUR","TX",77640,29.8885215330001,-93.9327867599999,456,"1327 LAKE CHARLES, PORT ARTHUR, TX, 77640","Match","Non_Exact","1327 LAKE CHARLES AVE, PORT ARTHUR, TX, 77640",73890201,"L"
149457,"1327 LAKE VUE DR","ROAMING SHORES","OH",44085,NA,NA,457,"1327 LAKE VUE DR, ROAMING SHORES, OH, 44085","No_Match",NA,NA,NA,NA
149458,"1327 LIBERTY","HAMILTON TWP","NJ",8629,40.210267365,-74.7368001579999,458,"1327 LIBERTY, HAMILTON TWP, NJ, 8629","Match","Non_Exact","1327 LIBERTY ST, HAMILTON, NJ, 08629",60182227,"R"
149459,"1327 LINCOLN PL","BROOKLYN","NY",11213,40.669825616,-73.932492528,459,"1327 LINCOLN PL, BROOKLYN, NY, 11213","Match","Exact","1327 LINCOLN PL, BROOKLYN, NY, 11213",59079776,"L"
149460,"1327 MAIN STREET","VICKSBURG","MS",39183,32.3531896970001,-90.873936298,460,"1327 MAIN STREET, VICKSBURG, MS, 39183","Match","Exact","1327 MAIN ST, VICKSBURG, MS, 39183",71293641,"R"
149461,"1327 MARK DRIVE APT A","WEST CHESTER","PA",19380,39.97436566,-75.556787113,461,"1327 MARK DRIVE APT A, WEST CHESTER, PA, 19380","Match","Exact","1327 MARK DR, WEST CHESTER, PA, 19380",636456985,"R"
149462,"1327 MASSACHUSETTS AVE SE","WASHINGTON","DC",20003,38.888585671,-76.98725687,462,"1327 MASSACHUSETTS AVE SE, WASHINGTON, DC, 20003","Match","Exact","1327 MASSACHUSETTS AVE SE, WASHINGTON, DC, 20003",638283717,"R"
149463,"1327 MEADOWOOD CIRCLE","POLAND","OH",44514,40.9936388090001,-80.625270037,463,"1327 MEADOWOOD CIRCLE, POLAND, OH, 44514","Match","Exact","1327 MEADOWOOD CIR, POLAND, OH, 44514",64610764,"L"
149464,"1327 MIDDLEFORD ROAD","CATONSVILLE","MD",21228,39.296323321,-76.7481991829999,464,"1327 MIDDLEFORD ROAD, CATONSVILLE, MD, 21228","Match","Exact","1327 MIDDLEFORD RD, CATONSVILLE, MD, 21228",191483621,"R"
149465,"1327 MINERS BEND LN","RICHMON","TX",77469,29.554936882,-95.698407124,465,"1327 MINERS BEND LN, RICHMON, TX, 77469","Match","Non_Exact","1327 MINERS BEND LN, RICHMOND, TX, 77469",636925910,"R"
149466,"1327 MIRROR TERRACE NW","WINTER HAVEN","FL",33881,28.0346888240001,-81.7375084399999,466,"1327 MIRROR TERRACE NW, WINTER HAVEN, FL, 33881","Match","Exact","1327 MIRROR TER NW, WINTER HAVEN, FL, 33881",104823387,"R"
149467,"1327 MONOMO ST  APT C","AURORA","IL",60506,NA,NA,467,"1327 MONOMO ST  APT C, AURORA, IL, 60506","No_Match",NA,NA,NA,NA
149468,"1327 MONONA ST","BOONE","IA",50036,42.0692691510001,-93.888456773,468,"1327 MONONA ST, BOONE, IA, 50036","Match","Exact","1327 MONONA ST, BOONE, IA, 50036",64934352,"L"
149469,"1327 MORETZ AVE","CHARLOTTE","NC",28206,35.2562509640001,-80.831698731,469,"1327 MORETZ AVE, CHARLOTTE, NC, 28206","Match","Exact","1327 MORETZ AVE, CHARLOTTE, NC, 28206",70515733,"L"
149470,"1327 N 31ST ST","MELROSE PARK","IL",60160,NA,NA,470,"1327 N 31ST ST, MELROSE PARK, IL, 60160","Tie",NA,NA,NA,NA
149471,"1327 N MAIN STREET","FORT WORTH","TX",76164,32.776800714,-97.3461626499999,471,"1327 N MAIN STREET, FORT WORTH, TX, 76164","Match","Exact","1327 N MAIN ST, FORT WORTH, TX, 76164",102160603,"L"
149472,"1327 N MAIN","FORT WORTH","TX",76164,32.776800714,-97.3461626499999,472,"1327 N MAIN, FORT WORTH, TX, 76164","Match","Non_Exact","1327 N MAIN ST, FORT WORTH, TX, 76164",102160603,"L"
149473,"1327 N OKLAHOMA AVE APT 1","OKMULGEE","OK",74447,NA,NA,473,"1327 N OKLAHOMA AVE APT 1, OKMULGEE, OK, 74447","Tie",NA,NA,NA,NA
149474,"1327 N PARK AVE","SPRINGFIELD","MO",65802,37.223049329,-93.320934956,474,"1327 N PARK AVE, SPRINGFIELD, MO, 65802","Match","Exact","1327 N PARK AVE, SPRINGFIELD, MO, 65802",76672902,"L"
149475,"1327 N TROXELL ST","ALLENTOWN","PA",18109,40.632349968,-75.426329175,475,"1327 N TROXELL ST, ALLENTOWN, PA, 18109","Match","Exact","1327 TROXELL ST, ALLENTOWN, PA, 18109",80764638,"R"
149476,"1327 N VALLEJO WAY","UPLAND","CA",91786,34.111743914,-117.659675897,476,"1327 N VALLEJO WAY, UPLAND, CA, 91786","Match","Exact","1327 N VALLEJO WAY, UPLAND, CA, 91786",144670104,"L"
149477,"1327 NE 1 ST TERR","CAPE CORAL","FL",33909,26.655235627,-81.9460759359999,477,"1327 NE 1 ST TERR, CAPE CORAL, FL, 33909","Match","Non_Exact","1327 NE 1ST TER, CAPE CORAL, FL, 33909",118008589,"L"
149478,"1327 NE 1ST TERR","CAPE CORAL","FL",33909,26.655235627,-81.9460759359999,478,"1327 NE 1ST TERR, CAPE CORAL, FL, 33909","Match","Exact","1327 NE 1ST TER, CAPE CORAL, FL, 33909",118008589,"L"
149479,"1327 NORTH LAMA LANE","MOUNT PROSPECT","IL",60056,42.0908498650001,-87.894594356,479,"1327 NORTH LAMA LANE, MOUNT PROSPECT, IL, 60056","Match","Exact","1327 N LAMA LN, MOUNT PROSPECT, IL, 60056",111718992,"L"
149480,"1327 NW 3RD AVE","MIAMI","FL",33136,25.7871804700001,-80.1998824519999,480,"1327 NW 3RD AVE, MIAMI, FL, 33136","Match","Exact","1327 NW 3RD AVE, MIAMI, FL, 33136",116017531,"R"
149481,"1327 OAK STREET SW","ATLANTA","GA",30310,33.74051568,-84.431013722,481,"1327 OAK STREET SW, ATLANTA, GA, 30310","Match","Exact","1327 OAK ST SW, ATLANTA, GA, 30310",17341286,"R"
149482,"1327 OAKVIEW WAY","ANOKA","MN",55303,45.2182576430001,-93.362094691,482,"1327 OAKVIEW WAY, ANOKA, MN, 55303","Match","Exact","1327 OAKVIEW WAY, ANOKA, MN, 55303",97483030,"L"
149483,"1327 OBLATE DR","SAN ANTONIO","TX",78216,29.5042631650001,-98.484434031,483,"1327 OBLATE DR, SAN ANTONIO, TX, 78216","Match","Exact","1327 OBLATE DR, SAN ANTONIO, TX, 78216",101497430,"L"
149484,"1327 OLIVER AVE N","MINNEAPOLIS","MN",55411,44.991976128,-93.306963873,484,"1327 OLIVER AVE N, MINNEAPOLIS, MN, 55411","Match","Exact","1327 OLIVER AVE N, MINNEAPOLIS, MN, 55411",43623469,"L"
149485,"1327 OLLIE STREET","COLLIERVILLE","TN",38017,35.0757147030001,-89.680915285,485,"1327 OLLIE STREET, COLLIERVILLE, TN, 38017","Match","Exact","1327 OLLIE ST, COLLIERVILLE, TN, 38017",623833803,"L"
149486,"1327 OVERLOOK CIR","CEDAR HILL","TX",75104,32.5636843030001,-96.9968352499999,486,"1327 OVERLOOK CIR, CEDAR HILL, TX, 75104","Match","Exact","1327 OVERLOOK CIR, CEDAR HILL, TX, 75104",103277711,"L"
149487,"1327 PALISADES DRIVE","PACIFIC PALISADES","CA",90272,34.0714721260001,-118.562891928,487,"1327 PALISADES DRIVE, PACIFIC PALISADES, CA, 90272","Match","Exact","1327 PALISADES DR, PACIFIC PALISADES, CA, 90272",648859161,"L"
149488,"1327 PEASLEE AVE","CLARKSTON","WA",99403,46.3867484880001,-117.059657204,488,"1327 PEASLEE AVE, CLARKSTON, WA, 99403","Match","Exact","1327 PEASLEE AVE, CLARKSTON, WA, 99403",607258956,"L"
149489,"1327 PINCKNEY AVE","FLORENCE","SC",29505,34.1633323570001,-79.791352689,489,"1327 PINCKNEY AVE, FLORENCE, SC, 29505","Match","Exact","1327 PINCKNEY AVE, FLORENCE, SC, 29505",28878419,"R"
149490,"1327 PORT WASHINGTON BLVD","PORT WASHINGTON","NY",11050,40.841027017,-73.689645464,490,"1327 PORT WASHINGTON BLVD, PORT WASHINGTON, NY, 11050","Match","Exact","1327 PORT WASHINGTON BLVD, PORT WASHINGTON, NY, 11050",147697226,"R"
149491,"1327 POST AVENUE SUITE H","TORRANCE","CA",90501,33.835468087,-118.317250899,491,"1327 POST AVENUE SUITE H, TORRANCE, CA, 90501","Match","Exact","1327 POST AVE, TORRANCE, CA, 90501",142758911,"R"
149492,"1327 RACE STREET","CONNELLSVILLE","PA",15425,40.003652625,-79.587706996,492,"1327 RACE STREET, CONNELLSVILLE, PA, 15425","Match","Exact","1327 RACE ST, CONNELLSVILLE, PA, 15425",51152698,"R"
149493,"1327 RANDOLPH ST NW","WASHINGTON","DC",20011,38.938684806,-77.030618483,493,"1327 RANDOLPH ST NW, WASHINGTON, DC, 20011","Match","Exact","1327 RANDOLPH ST NW, WASHINGTON, DC, 20011",76222493,"R"
149494,"1327 RIDGE TRAIL","JULIAN","CA",92036,NA,NA,494,"1327 RIDGE TRAIL, JULIAN, CA, 92036","No_Match",NA,NA,NA,NA
149495,"1327 RIPPLE STREET","SAINT LOUIS","MO",63139,38.6260768870001,-90.29021582,495,"1327 RIPPLE STREET, SAINT LOUIS, MO, 63139","Match","Exact","1327 RIPPLE ST, SAINT LOUIS, MO, 63139",605118306,"R"
149496,"1327 ROUTE 3","MORRISONVILLE","NY",12962,44.713862557,-73.5669008249999,496,"1327 ROUTE 3, MORRISONVILLE, NY, 12962","Match","Non_Exact","1327 STATE RTE 3, MORRISONVILLE, NY, 12962",136068493,"R"
149497,"1327 ROYAL PALM DR","EDGEWATER","FL",32132,28.976848789,-80.916017524,497,"1327 ROYAL PALM DR, EDGEWATER, FL, 32132","Match","Exact","1327 ROYAL PALM DR, EDGEWATER, FL, 32132",653188428,"L"
149498,"1327 RYAN ESTATES LN","BEDFORD","VA",24523,37.250827127,-79.458935474,498,"1327 RYAN ESTATES LN, BEDFORD, VA, 24523","Match","Exact","1327 RYAN ESTATES LN, BEDFORD, VA, 24523",62678297,"R"
149499,"1327 S 16TH ST","CHICKASHA","OK",73018,35.0374948850001,-97.9532275829999,499,"1327 S 16TH ST, CHICKASHA, OK, 73018","Match","Exact","1327 S 16TH ST, CHICKASHA, OK, 73018",15214398,"R"
149500,"1327 S 900 E","SALT LAKE CITY","UT",84105,40.740942252,-111.865320036,500,"1327 S 900 E, SALT LAKE CITY, UT, 84105","Match","Non_Exact","1327 S 900 E, SALT LAKE CITY, UT, 84105",176080486,"L"
