"ID","Address","City","State","Zip","lat","long","id","input_address","match_indicator","match_type","matched_address","tiger_line_id","tiger_side"
540001,"35 TOWER RIDGE RD","OAK BLUFFS","MA",2257,NA,NA,1,"35 TOWER RIDGE RD, OAK BLUFFS, MA, 2257","No_Match",NA,NA,NA,NA
540002,"35 TOWER RIDGE RD","OAK BLUFFS","MA",2557,NA,NA,2,"35 TOWER RIDGE RD, OAK BLUFFS, MA, 2557","No_Match",NA,NA,NA,NA
540003,"35 TOWLER ROAD","HAMPTON","VA",23666,37.0572476510001,-76.3685847579999,3,"35 TOWLER ROAD, HAMPTON, VA, 23666","Match","Non_Exact","35 TOWLER DR, HAMPTON, VA, 23666",103803083,"L"
540004,"35 TOWNSEND COURT","FRANKLIN PARK","NJ",8823,40.438291373,-74.5499592039999,4,"35 TOWNSEND COURT, FRANKLIN PARK, NJ, 8823","Match","Exact","35 TOWNSEND CT, FRANKLIN PARK, NJ, 08823",59999723,"L"
540005,"35 TOWNSEND PLACE","ST AUGUSTINE","FL",32092,29.918726545,-81.504067218,5,"35 TOWNSEND PLACE, ST AUGUSTINE, FL, 32092","Match","Exact","35 TOWNSEND PL, SAINT AUGUSTINE, FL, 32092",639503720,"L"
540006,"35 TRAILSIDE WAY","ASHLAND","MA",1721,42.2387174260001,-71.4307745409999,6,"35 TRAILSIDE WAY, ASHLAND, MA, 1721","Match","Exact","35 TRAILSIDE WAY, ASHLAND, MA, 01721",87102851,"R"
540007,"35 TRAILWOOD","IRVINE","CA",92620,33.724880812,-117.762143537,7,"35 TRAILWOOD, IRVINE, CA, 92620","Match","Exact","35 TRAILWOOD, IRVINE, CA, 92620",144127502,"L"
540008,"35 TREE HOUSE COURT","MATTESON","IL",60443,41.526360013,-87.721677695,8,"35 TREE HOUSE COURT, MATTESON, IL, 60443","Match","Non_Exact","35 TREEHOUSE CT, MATTESON, IL, 60443",112225397,"R"
540009,"35 TREETOP CIR","NORTHBOROUGH","MA",1532,42.331108371,-71.6442796059999,9,"35 TREETOP CIR, NORTHBOROUGH, MA, 1532","Match","Exact","35 TREETOP CIR, NORTHBOROUGH, MA, 01532",40105823,"L"
540010,"35 TRUMAN DR","EAST DUBUQUE","IL",61025,42.476291663,-90.59879527,10,"35 TRUMAN DR, EAST DUBUQUE, IL, 61025","Match","Exact","35 TRUMAN DR, EAST DUBUQUE, IL, 61025",27736476,"L"
540011,"35 TRYON STREET","SO. GLASTONBURY","CT",6073,41.666576628,-72.6097860959999,11,"35 TRYON STREET, SO. GLASTONBURY, CT, 6073","Match","Exact","35 TRYON ST, S GLASTONBURY, CT, 06073",648745375,"L"
540012,"35 TULIP LANE","PALO ALTO","CA",94303,37.4477317290001,-122.128548948,12,"35 TULIP LANE, PALO ALTO, CA, 94303","Match","Exact","35 TULIP LN, PALO ALTO, CA, 94303",122951109,"L"
540013,"35 TURKEY KNOB ROAD","BOERNE","TX",78006,29.8359041590001,-98.869467943,13,"35 TURKEY KNOB ROAD, BOERNE, TX, 78006","Match","Exact","35 TURKEY KNOB RD, BOERNE, TX, 78006",102756531,"R"
540014,"35 TWEED BOULEVARD","NYACK","NY",10960,41.0658758590001,-73.926612771,14,"35 TWEED BOULEVARD, NYACK, NY, 10960","Match","Exact","35 TWEED BLVD, NYACK, NY, 10960",620628147,"L"
540015,"35 U WINSLOW DR","TAUNTON","MA",2780,41.8806178300001,-71.0675754329999,15,"35 U WINSLOW DR, TAUNTON, MA, 2780","Match","Exact","35 WINSLOW DR, TAUNTON, MA, 02780",46803656,"L"
540016,"35 ULSTER AVE","ULSTER PARK","NY",12487,41.8620126860001,-73.9759933019999,16,"35 ULSTER AVE, ULSTER PARK, NY, 12487","Match","Exact","35 ULSTER AVE, ULSTER PARK, NY, 12487",41880438,"R"
540017,"35 UNION SQUARE","SOMERVILLE","MA",2143,42.3796576880001,-71.096313145,17,"35 UNION SQUARE, SOMERVILLE, MA, 2143","Match","Exact","35 UNION SQ, SOMERVILLE, MA, 02143",87081689,"L"
540018,"35 UNION STREET APT 209","NEW LONDON","CT",6320,41.3542622940001,-72.096850275,18,"35 UNION STREET APT 209, NEW LONDON, CT, 6320","Match","Exact","35 UNION ST, NEW LONDON, CT, 06320",56851104,"R"
540019,"35 UPLAND WAY","ELLSWORTH","ME",4605,44.5977885250001,-68.404817403,19,"35 UPLAND WAY, ELLSWORTH, ME, 4605","Match","Exact","35 UPLAND WAY, ELLSWORTH, ME, 04605",608816490,"R"
540020,"35 US ROUTE 202 BOX 212","FAR HILLS","NJ",7931,40.684655639,-74.6340393359999,20,"35 US ROUTE 202 BOX 212, FAR HILLS, NJ, 7931","Match","Non_Exact","35 US HWY 202, FAR HILLS, NJ, 07931",59945063,"R"
540021,"35 UTHRONE PLACE","PALM COAST","FL",32110,NA,NA,21,"35 UTHRONE PLACE, PALM COAST, FL, 32110","No_Match",NA,NA,NA,NA
540022,"35 VALERIE DR","APPLETON","WI",54915,44.2400373720001,-88.4081693209999,22,"35 VALERIE DR, APPLETON, WI, 54915","Match","Exact","35 VALERIE DR, APPLETON, WI, 54915",74496973,"R"
540023,"35 VALIANT ROAD","EAST BRUNSWICK","NJ",8816,40.4130894250001,-74.403573281,23,"35 VALIANT ROAD, EAST BRUNSWICK, NJ, 8816","Match","Exact","35 VALIANT RD, E BRUNSWICK, NJ, 08816",60269756,"R"
540024,"35 VALLEY AVE SUITE 217","ELMSFORD","NY",10523,41.051896196,-73.823663546,24,"35 VALLEY AVE SUITE 217, ELMSFORD, NY, 10523","Match","Exact","35 VALLEY AVE, ELMSFORD, NY, 10523",139737368,"R"
540025,"35 VALLEY FORGE DR","LISBON","IA",52253,41.9083770710001,-91.3540590439999,25,"35 VALLEY FORGE DR, LISBON, IA, 52253","Match","Exact","35 VALLEY FORGE DR, LISBON, IA, 52253",16709464,"L"
540026,"35 VALLEY ROAD","COS COB","CT",6807,41.041328493,-73.594818178,26,"35 VALLEY ROAD, COS COB, CT, 6807","Match","Exact","35 VALLEY RD, COS COB, CT, 06807",3243984,"R"
540027,"35 VAN BUREN ST NW","WASHINGTON","DC",20012,38.969983649,-77.0100165919999,27,"35 VAN BUREN ST NW, WASHINGTON, DC, 20012","Match","Exact","35 VAN BUREN ST NW, WASHINGTON, DC, 20012",76222106,"R"
540028,"35 VAN BUSKIRK AVE","STRATFORD","CT",6614,41.20144722,-73.1382037819999,28,"35 VAN BUSKIRK AVE, STRATFORD, CT, 6614","Match","Exact","35 VAN BUSKIRK AVE, STRATFORD, CT, 06614",3227833,"R"
540029,"35 VAN GORDON ST   311","LAKEWOOD","CO",80228,39.7160793350001,-105.137045845,29,"35 VAN GORDON ST   311, LAKEWOOD, CO, 80228","Match","Exact","35 VAN GORDON ST, LAKEWOOD, CO, 80228",648074876,"L"
540030,"35 VAN GORDON ST APT 539","LAKEWOOD","CO",80228,39.7160793350001,-105.137045845,30,"35 VAN GORDON ST APT 539, LAKEWOOD, CO, 80228","Match","Exact","35 VAN GORDON ST, LAKEWOOD, CO, 80228",648074876,"L"
540031,"35 VAN PELT COURT","EAST BRUNSWICK","NJ",8816,40.427807441,-74.402059363,31,"35 VAN PELT COURT, EAST BRUNSWICK, NJ, 8816","Match","Exact","35 VAN PELT CT, E BRUNSWICK, NJ, 08816",60269581,"R"
540032,"35 VAN VECTHEN APT 3G","NEWARK","NJ",7114,NA,NA,32,"35 VAN VECTHEN APT 3G, NEWARK, NJ, 7114","No_Match",NA,NA,NA,NA
540033,"35 VERA STREET 25A","STATEN ISLAND","NY",10305,40.58477427,-74.096847059,33,"35 VERA STREET 25A, STATEN ISLAND, NY, 10305","Match","Exact","35 VERA ST, STATEN ISLAND, NY, 10305",59868680,"R"
540034,"35 VEREDAS DE LOS FLAMBOYANES","GURABO","PR",778,NA,NA,34,"35 VEREDAS DE LOS FLAMBOYANES, GURABO, PR, 778","No_Match",NA,NA,NA,NA
540035,"35 VERNON ST","WHITMAN","MA",2382,42.085600851,-70.941007465,35,"35 VERNON ST, WHITMAN, MA, 2382","Match","Exact","35 VERNON ST, WHITMAN, MA, 02382",87446120,"R"
540036,"35 VICTOR STREET","VALLEY STREAM","NY",11580,40.6759032950001,-73.683197894,36,"35 VICTOR STREET, VALLEY STREAM, NY, 11580","Match","Exact","35 VICTOR ST, VALLEY STREAM, NY, 11580",147828520,"L"
540037,"35 VICTORIA LANE","OCEAN VIEW","NJ",8230,39.2452461600001,-74.675298684,37,"35 VICTORIA LANE, OCEAN VIEW, NJ, 8230","Match","Exact","35 VICTORIA LN, OCEAN VIEW, NJ, 08230",174350698,"L"
540038,"35 VICTORS CHASE DRIVE","SUGAR LAND","TX",77479,29.593066132,-95.67063559,38,"35 VICTORS CHASE DRIVE, SUGAR LAND, TX, 77479","Match","Exact","35 VICTORS CHASE DR, SUGAR LAND, TX, 77479",78298014,"L"
540039,"35 VINE STREET","PEN ARGYL","PA",18072,40.8729255540001,-75.2470208679999,39,"35 VINE STREET, PEN ARGYL, PA, 18072","Match","Exact","35 VINE ST, PEN ARGYL, PA, 18072",639804550,"R"
540040,"35 VIRGINIA AVE","FORT LEE","NJ",7024,40.8375945810001,-73.9758536259999,40,"35 VIRGINIA AVE, FORT LEE, NJ, 7024","Match","Exact","35 VIRGINIA AVE, FORT LEE, NJ, 07024",64392108,"R"
540041,"35 VIRGINIA RIDGE","VICKSBURG","MS",39180,32.350996749,-90.719527409,41,"35 VIRGINIA RIDGE, VICKSBURG, MS, 39180","Match","Exact","35 VIRGINIA RIDGE, VICKSBURG, MS, 39180",71305241,"L"
540042,"35 VISTA CIRCLE","ETTERS","PA",17319,40.1545758280001,-76.8085662249999,42,"35 VISTA CIRCLE, ETTERS, PA, 17319","Match","Exact","35 VISTA CIR, ETTERS, PA, 17319",88738281,"L"
540043,"35 VISTA CT","RICHLAND","WA",99354,46.3219848570001,-119.261268429,43,"35 VISTA CT, RICHLAND, WA, 99354","Match","Exact","35 VISTA CT, RICHLAND, WA, 99354",174987267,"L"
540044,"35 VISTA DRIVE","CANDLER","NC",28715,35.5587820260001,-82.656341652,44,"35 VISTA DRIVE, CANDLER, NC, 28715","Match","Exact","35 VISTA DR, CANDLER, NC, 28715",36840568,"L"
540045,"35 VISTA HERMOSA","SANTA FE","NM",87506,35.808604985,-105.922919179,45,"35 VISTA HERMOSA, SANTA FE, NM, 87506","Match","Exact","35 VIS HERMOSA, SANTA FE, NM, 87506",169384519,"L"
540046,"35 W 300 N","VERNAL","UT",84078,40.460067747,-109.529336631,46,"35 W 300 N, VERNAL, UT, 84078","Match","Exact","35 W 300 N, VERNAL, UT, 84078",126115898,"L"
540047,"35 W 35TH ST","AUSTIN","TX",78706,NA,NA,47,"35 W 35TH ST, AUSTIN, TX, 78706","No_Match",NA,NA,NA,NA
540048,"35 W 69TH ST APT 3R","NEW YORK","NY",10023,40.774741508,-73.978432727,48,"35 W 69TH ST APT 3R, NEW YORK, NY, 10023","Match","Non_Exact","35 W 69TH ST, NEW YORK, NY, 10023",59657030,"R"
540049,"35 W 74TH ST 3F","NEW YORK","NY",10023,40.7781632250001,-73.976465446,49,"35 W 74TH ST 3F, NEW YORK, NY, 10023","Match","Non_Exact","35 W 74TH ST, NEW YORK, NY, 10023",650156419,"R"
540050,"35 W ALMOND ST MELROSE CRT 17","VINELAND","NJ",8360,39.4830449190001,-75.039932595,50,"35 W ALMOND ST MELROSE CRT 17, VINELAND, NJ, 8360","Match","Non_Exact","35 W ALMOND ST, VINELAND, NJ, 08360",174110598,"R"
540051,"35 W DUNCAN ST APT 35","COLUMB","OH",43202,NA,NA,51,"35 W DUNCAN ST APT 35, COLUMB, OH, 43202","Tie",NA,NA,NA,NA
540052,"35 W MAIN ST APT 4L","FARMINGDALE","NJ",7727,40.1963813130001,-74.168452407,52,"35 W MAIN ST APT 4L, FARMINGDALE, NJ, 7727","Match","Exact","35 MAIN ST, FARMINGDALE, NJ, 07727",90588982,"R"
540053,"35 W MESQUITE BLVD","MESQUITE","NV",89027,36.8040176440001,-114.068659474,53,"35 W MESQUITE BLVD, MESQUITE, NV, 89027","Match","Exact","35 W MESQUITE BLVD, MESQUITE, NV, 89027",201840816,"L"
540054,"35 W PIGEON RIDGE CT","SCOTTSBURG","IN",47170,38.6290190570001,-85.775932918,54,"35 W PIGEON RIDGE CT, SCOTTSBURG, IN, 47170","Match","Exact","35 PIGEON RIDGE CT, SCOTTSBURG, IN, 47170",624531163,"L"
540055,"35 W PITTSBURGH ST","GREENSBURG","PA",15601,40.302325534,-79.544872515,55,"35 W PITTSBURGH ST, GREENSBURG, PA, 15601","Match","Exact","35 W PITTSBURGH ST, GREENSBURG, PA, 15601",615516305,"R"
540056,"35 W SUMMIT DR","EMERALD HILLS","CA",94062,37.469567259,-122.270203456,56,"35 W SUMMIT DR, EMERALD HILLS, CA, 94062","Match","Exact","35 W SUMMIT DR, EMERALD HILLS, CA, 94062",192383422,"R"
540057,"35 W SUNRISE AVE","CORAL GABLES","FL",33133,25.7077395040001,-80.254138379,57,"35 W SUNRISE AVE, CORAL GABLES, FL, 33133","Match","Exact","35 W SUNRISE AVE, CORAL GABLES, FL, 33133",116015285,"R"
540058,"35 W VILLAGE LN","DEARBORN","MI",48124,42.3043116090001,-83.247243805,58,"35 W VILLAGE LN, DEARBORN, MI, 48124","Match","Exact","35 W VILLAGE LN, DEARBORN, MI, 48124",95694876,"L"
540059,"35 W WACKER DR","CHICAGO","IL",60601,41.8868728190001,-87.6292073669999,59,"35 W WACKER DR, CHICAGO, IL, 60601","Match","Exact","35 W WACKER DR, CHICAGO, IL, 60601",111769076,"L"
540060,"35 W WACKER","CHICAGO","IL",60601,41.8868728190001,-87.6292073669999,60,"35 W WACKER, CHICAGO, IL, 60601","Match","Non_Exact","35 W WACKER DR, CHICAGO, IL, 60601",111769076,"L"
540061,"35 WALAKA STREET SUITE P305","KIHEI","HI",96753,20.7265570220001,-156.447361071,61,"35 WALAKA STREET SUITE P305, KIHEI, HI, 96753","Match","Exact","35 WALAKA ST, KIHEI, HI, 96753",85071112,"L"
540062,"35 WALKER ROAD","LOCK HAVEN","PA",17745,41.165473331,-77.426437521,62,"35 WALKER ROAD, LOCK HAVEN, PA, 17745","Match","Exact","35 WALKER RD, LOCK HAVEN, PA, 17745",636799661,"L"
540063,"35 WALL STREET","ASHEVILLE","NC",28801,35.594724679,-82.5554660459999,63,"35 WALL STREET, ASHEVILLE, NC, 28801","Match","Exact","35 WALL ST, ASHEVILLE, NC, 28801",36845541,"R"
540064,"35 WALLACE ROAD","MOUNT HOLLY","NJ",8060,40.0022415620001,-74.797414639,64,"35 WALLACE ROAD, MOUNT HOLLY, NJ, 8060","Match","Exact","35 WALLACE RD, MOUNT HOLLY, NJ, 08060",645317714,"R"
540065,"35 WALNUT AVENUE","MILLBURN","NJ",7041,40.7214338470001,-74.297411257,65,"35 WALNUT AVENUE, MILLBURN, NJ, 7041","Match","Exact","35 WALNUT AVE, MILLBURN, NJ, 07041",63495719,"R"
540066,"35 WALT DRIVE","BIG HORN","WY",82833,NA,NA,66,"35 WALT DRIVE, BIG HORN, WY, 82833","No_Match",NA,NA,NA,NA
540067,"35 WARNER POND LANE","HEBRON","CT",6248,41.6821151240001,-72.4172802539999,67,"35 WARNER POND LANE, HEBRON, CT, 6248","Match","Exact","35 WARNER POND LN, HEBRON, CT, 06248",57007053,"L"
540068,"35 WARREN ST","BETHLEHEM","PA",18015,40.597458094,-75.395701257,68,"35 WARREN ST, BETHLEHEM, PA, 18015","Match","Exact","35 WARREN ST, BETHLEHEM, PA, 18015",653368371,"R"
540069,"35 WASHINGTON HEIGHTS AVENUE","HAMPTON BAYS","NY",11946,40.8917119870001,-72.518427953,69,"35 WASHINGTON HEIGHTS AVENUE, HAMPTON BAYS, NY, 11946","Match","Exact","35 WASHINGTON HEIGHTS AVE, HAMPTON BAYS, NY, 11946",114027190,"L"
540070,"35 WASHINGTON ST","GREENCASTLE","PA",17225,NA,NA,70,"35 WASHINGTON ST, GREENCASTLE, PA, 17225","Tie",NA,NA,NA,NA
540071,"35 WATERFALL DR","AUSTIN","TX",78738,30.342881579,-97.986115924,71,"35 WATERFALL DR, AUSTIN, TX, 78738","Match","Exact","35 WATERFALL DR, AUSTIN, TX, 78738",63990751,"R"
540072,"35 WATERSTON AVE APT 14","QUINCY","MA",2170,42.2671739140001,-71.0116254,72,"35 WATERSTON AVE APT 14, QUINCY, MA, 2170","Match","Exact","35 WATERSTON AVE, QUINCY, MA, 02170",87249490,"R"
540073,"35 WATERVIEW CT","BLUFFTON","SC",29910,32.2601573000001,-80.931864693,73,"35 WATERVIEW CT, BLUFFTON, SC, 29910","Match","Exact","35 WATERVIEW CT, BLUFFTON, SC, 29910",632710983,"L"
540074,"35 WATERWOOD","HUNTSVILLE","TX",77320,30.815756483,-95.2537661699999,74,"35 WATERWOOD, HUNTSVILLE, TX, 77320","Match","Non_Exact","35 WATERWOOD PKWY, HUNTSVILLE, TX, 77320",24277700,"L"
540075,"35 WAWECUS HILL ROAD","NORWICH","CT",6360,41.514020676,-72.116359572,75,"35 WAWECUS HILL ROAD, NORWICH, CT, 6360","Match","Exact","35 WAWECUS HILL RD, NORWICH, CT, 06360",56839818,"R"
540076,"35 WAYNE BLVD","MADISON","NJ",7940,40.7639409500001,-74.41652894,76,"35 WAYNE BLVD, MADISON, NJ, 7940","Match","Exact","35 WAYNE BLVD, MADISON, NJ, 07940",60447931,"R"
540077,"35 WAYSIDE AVENUE","HAGERSTOWN","MD",21740,39.6489539070001,-77.712820202,77,"35 WAYSIDE AVENUE, HAGERSTOWN, MD, 21740","Match","Exact","35 WAYSIDE AVE, HAGERSTOWN, MD, 21740",60787905,"R"
540078,"35 WEATHERVANE LANE","ZIRCONIA","NC",28790,35.2423548620001,-82.416749986,78,"35 WEATHERVANE LANE, ZIRCONIA, NC, 28790","Match","Exact","35 WEATHERVANE LN, ZIRCONIA, NC, 28790",628839019,"R"
540079,"35 WEBER STREER","CUMBERLAND","MD",21501,NA,NA,79,"35 WEBER STREER, CUMBERLAND, MD, 21501","No_Match",NA,NA,NA,NA
540080,"35 WELLINGTON AVE","NEWPORT","RI",2840,41.4768689250001,-71.315377326,80,"35 WELLINGTON AVE, NEWPORT, RI, 2840","Match","Exact","35 WELLINGTON AVE, NEWPORT, RI, 02840",638991144,"L"
540081,"35 WENDY ROAD","MILFORD","CT",6460,41.2436684910001,-72.995575934,81,"35 WENDY ROAD, MILFORD, CT, 6460","Match","Exact","35 WENDY RD, MILFORD, CT, 06460",3744790,"R"
540082,"35 WEST 129TH STREET","NEW YORK","NY",10027,40.8095225710001,-73.941722334,82,"35 WEST 129TH STREET, NEW YORK, NY, 10027","Match","Exact","35 W 129TH ST, NEW YORK, NY, 10027",634257295,"R"
540083,"35 WEST 13 STREET","SAN ANGELO","TX",76903,31.4736891200001,-100.444850674,83,"35 WEST 13 STREET, SAN ANGELO, TX, 76903","Match","Exact","35 W 13TH ST, SAN ANGELO, TX, 76903",190681914,"L"
540084,"35 WEST 19TH STREET","DEER PARK","NY",11729,40.7562035130001,-73.345424184,84,"35 WEST 19TH STREET, DEER PARK, NY, 11729","Match","Exact","35 W 19TH ST, DEER PARK, NY, 11729",113969511,"L"
540085,"35 WEST 33RD","MINNEAPOLIS","MN",55408,44.9429303430001,-93.278588665,85,"35 WEST 33RD, MINNEAPOLIS, MN, 55408","Match","Non_Exact","35 W 33RD ST, MINNEAPOLIS, MN, 55408",43633565,"L"
540086,"35 WEST 35TH ST  SUITE 900","NY","NY",10001,40.7495321970001,-73.985080771,86,"35 WEST 35TH ST  SUITE 900, NY, NY, 10001","Match","Exact","35 W 35TH ST, NEW YORK, NY, 10001",642471743,"R"
540087,"35 WEST 35TH ST SUITE 900","NY","NY",10001,40.7495321970001,-73.985080771,87,"35 WEST 35TH ST SUITE 900, NY, NY, 10001","Match","Exact","35 W 35TH ST, NEW YORK, NY, 10001",642471743,"R"
540088,"35 WEST 35TH ST","NY","NY",10001,40.7495321970001,-73.985080771,88,"35 WEST 35TH ST, NY, NY, 10001","Match","Exact","35 W 35TH ST, NEW YORK, NY, 10001",642471743,"R"
540089,"35 WEST 6TH STREET","RONKONKOMA","NY",11779,40.824968148,-73.137627707,89,"35 WEST 6TH STREET, RONKONKOMA, NY, 11779","Match","Exact","35 W 6TH ST, RONKONKOMA, NY, 11779",113991961,"R"
540090,"35 WEST CHURCH STREET","SPRING VALLEY","NY",10977,41.113418704,-74.046536804,90,"35 WEST CHURCH STREET, SPRING VALLEY, NY, 10977","Match","Non_Exact","35 CHURCH ST, SPRING VALLEY, NY, 10977",624262920,"R"
540091,"35 WEST ISLE PLACE","SPRING","TX",77381,30.161599628,-95.4853267619999,91,"35 WEST ISLE PLACE, SPRING, TX, 77381","Match","Exact","35 W ISLE PL, SPRING, TX, 77381",79294150,"L"
540092,"35 WEST MAIN STREET","BLOOMSBURG","PA",17815,41.002912624,-76.4571182829999,92,"35 WEST MAIN STREET, BLOOMSBURG, PA, 17815","Match","Exact","35 W MAIN ST, BLOOMSBURG, PA, 17815",59245656,"L"
540093,"35 WEST MAIN STREET","HAGERSTOWN","IN",47346,39.9108352470001,-85.1616190189999,93,"35 WEST MAIN STREET, HAGERSTOWN, IN, 47346","Match","Exact","35 W MAIN ST, HAGERSTOWN, IN, 47346",31328854,"L"
540094,"35 WEST MAIN STREET","MILLBURY","MA",1527,42.186142504,-71.767705232,94,"35 WEST MAIN STREET, MILLBURY, MA, 1527","Match","Exact","35 W MAIN ST, MILLBURY, MA, 01527",40091256,"L"
540095,"35 WEST MARKET ST SUITE 1","RED HOOK","NY",12571,41.99564158,-73.8770894419999,95,"35 WEST MARKET ST SUITE 1, RED HOOK, NY, 12571","Match","Exact","35 W MARKET ST, RED HOOK, NY, 12571",647179306,"L"
540096,"35 WEST PICCADILLY STREET","WINCHESTER","VA",22601,39.186562075,-78.165657403,96,"35 WEST PICCADILLY STREET, WINCHESTER, VA, 22601","Match","Exact","35 W PICCADILLY ST, WINCHESTER, VA, 22601",55608946,"L"
540097,"35 WEST STREET","BRATTLEBORO","VT",5301,42.8495781290001,-72.5722694949999,97,"35 WEST STREET, BRATTLEBORO, VT, 5301","Match","Exact","35 WEST ST, BRATTLEBORO, VT, 05301",171090069,"L"
540098,"35 WEST VIEW","CARLISLE","PA",17013,40.2462695190001,-77.1938286769999,98,"35 WEST VIEW, CARLISLE, PA, 17013","Match","Exact","35 WEST VW, CARLISLE, PA, 17013",651561857,"L"
540099,"35 WEST WACKER DRIVE","CHICAGO","IL",60601,41.886872409,-87.6291546099999,99,"35 WEST WACKER DRIVE, CHICAGO, IL, 60601","Match","Exact","35 W WACKER DR, CHICAGO, IL, 60601",111769076,"L"
540100,"35 WEST WILDERNESS RD","NATCHEZ","MS",39120,31.601177869,-91.360504024,100,"35 WEST WILDERNESS RD, NATCHEZ, MS, 39120","Match","Exact","35 W WILDERNESS RD, NATCHEZ, MS, 39120",79850089,"R"
540101,"35 WESTCOTT RD","HOPEDALE","MA",1747,42.1250723210001,-71.549110817,101,"35 WESTCOTT RD, HOPEDALE, MA, 1747","Match","Exact","35 WESTCOTT RD, HOPEDALE, MA, 01747",40049267,"R"
540102,"35 WESTERVELT PL","CREESKILL","NJ",7626,40.9418052410001,-73.955715675,102,"35 WESTERVELT PL, CREESKILL, NJ, 7626","Match","Non_Exact","35 WESTERVELT PL, CRESSKILL, NJ, 07626",64374642,"L"
540103,"35 WESTMINSTER DRIVE","YONKERS","NY",10710,40.962537958,-73.863750646,103,"35 WESTMINSTER DRIVE, YONKERS, NY, 10710","Match","Exact","35 WESTMINSTER DR, YONKERS, NY, 10710",639240148,"L"
540104,"35 WESTVIEW TERRACE","UNIONVILLE","CT",6085,41.7443554560001,-72.877222842,104,"35 WESTVIEW TERRACE, UNIONVILLE, CT, 6085","Match","Exact","35 WESTVIEW TER, UNIONVILLE, CT, 06085",645550453,"R"
540105,"35 WEXFORD DR","MANSFIELD","MA",2048,42.0304273260001,-71.166198305,105,"35 WEXFORD DR, MANSFIELD, MA, 2048","Match","Exact","35 WEXFORD DR, MANSFIELD, MA, 02048",46782078,"R"
540106,"35 WHITE PLAINS DRIVE","NASHUA","NH",3062,42.7426573430001,-71.498125854,106,"35 WHITE PLAINS DRIVE, NASHUA, NH, 3062","Match","Exact","35 WHITE PLAINS DR, NASHUA, NH, 03062",113538294,"R"
540107,"35 WHITES BRIDGE RD","BELDING","MI",48809,42.9882574380001,-85.2925020069999,107,"35 WHITES BRIDGE RD, BELDING, MI, 48809","Match","Exact","35 WHITES BRIDGE RD, BELDING, MI, 48809",12144044,"L"
540108,"35 WHITNEY AVE","NORTH ADAMS","MA",1247,42.695268782,-73.095997542,108,"35 WHITNEY AVE, NORTH ADAMS, MA, 1247","Match","Non_Exact","35 WHITNEY ST, NORTH ADAMS, MA, 01247",3916530,"L"
540109,"35 WHITTEMORE BRANCH ROAD","BARNARDSVILLE","NC",28709,NA,NA,109,"35 WHITTEMORE BRANCH ROAD, BARNARDSVILLE, NC, 28709","No_Match",NA,NA,NA,NA
540110,"35 WILD TRAILS","IRVINE","CA",92618,33.706438339,-117.724086784,110,"35 WILD TRAILS, IRVINE, CA, 92618","Match","Exact","35 WILD TRL, IRVINE, CA, 92618",641614094,"R"
540111,"35 WILD TURKEY COURT","RIDGEFIELD","CT",6844,NA,NA,111,"35 WILD TURKEY COURT, RIDGEFIELD, CT, 6844","No_Match",NA,NA,NA,NA
540112,"35 WILDERNESS DRIVE","SANGER","CA",93657,36.735692052,-119.462978522,112,"35 WILDERNESS DRIVE, SANGER, CA, 93657","Match","Non_Exact","35 N WILDERNESS DR, SANGER, CA, 93657",197591784,"L"
540113,"35 WILLIAMSBURG LANE","ATTLEBORO","MA",2703,41.9298215270001,-71.2438055709999,113,"35 WILLIAMSBURG LANE, ATTLEBORO, MA, 2703","Match","Exact","35 WILLIAMSBURG LN, ATTLEBORO, MA, 02703",46785826,"R"
540114,"35 WILLIAMSON RD","DENMARK","TN",38391,35.5418193580001,-88.954098178,114,"35 WILLIAMSON RD, DENMARK, TN, 38391","Match","Exact","35 WILLIAMSON RD, DENMARK, TN, 38391",21319240,"L"
540115,"35 WILLOW BROOK RD","HUDSON","NY",12534,42.1419967160001,-73.7434072149999,115,"35 WILLOW BROOK RD, HUDSON, NY, 12534","Match","Exact","35 WILLOW BROOK RD, HUDSON, NY, 12534",41490620,"R"
540116,"35 WILLOW STREET","BASKING RIDGE","NJ",7920,40.7013037680001,-74.556416058,116,"35 WILLOW STREET, BASKING RIDGE, NJ, 7920","Match","Exact","35 WILLOW ST, BASKING RIDGE, NJ, 07920",59946028,"R"
540117,"35 WILLOW WAY","CLARK","NJ",7066,40.607365525,-74.325972884,117,"35 WILLOW WAY, CLARK, NJ, 7066","Match","Exact","35 WILLOW WAY, CLARK, NJ, 07066",60605189,"L"
540118,"35 WINCHESTER DRIVE","HOWELL","NJ",7731,40.152124782,-74.230303479,118,"35 WINCHESTER DRIVE, HOWELL, NJ, 7731","Match","Exact","35 WINCHESTER DR, HOWELL, NJ, 07731",90497128,"L"
540119,"35 WINDHAM DRIVE","EAST LONGMEADOW","MA",1028,42.0621777540001,-72.472027767,119,"35 WINDHAM DRIVE, EAST LONGMEADOW, MA, 1028","Match","Exact","35 WINDHAM DR, E LONGMEADOW, MA, 01028",4047365,"R"
540120,"35 WINDOVER ROAD","RANDOLPH","VT",5060,43.9327998030001,-72.650196647,120,"35 WINDOVER ROAD, RANDOLPH, VT, 5060","Match","Exact","35 WINDOVER RD, RANDOLPH, VT, 05060",181125731,"L"
540121,"35 WINSTON ROAD","BUFFALO","NY",14216,42.9485895120001,-78.840156936,121,"35 WINSTON ROAD, BUFFALO, NY, 14216","Match","Exact","35 WINSTON RD, BUFFALO, NY, 14216",48295906,"R"
540122,"35 WINTER HARBOR ROAD","KENNEBUNKPORT","ME",4046,43.40801707,-70.4168571399999,122,"35 WINTER HARBOR ROAD, KENNEBUNKPORT, ME, 4046","Match","Exact","35 WINTER HARBOR RD, KENNEBUNKPORT, ME, 04046",92742930,"R"
540123,"35 WINTERGRASS PL","THE WOODLANDS","TX",77382,30.2117011030001,-95.545147089,123,"35 WINTERGRASS PL, THE WOODLANDS, TX, 77382","Match","Exact","35 WINTERGRASS PL, THE WOODLANDS, TX, 77382",79318980,"L"
540124,"35 WOOD ST APT 203","LEWISTON","ME",4240,44.101103933,-70.2098796559999,124,"35 WOOD ST APT 203, LEWISTON, ME, 4240","Match","Exact","35 WOOD ST, LEWISTON, ME, 04240",77961574,"R"
540125,"35 WOODBROOK DRIVE","MANTUA","NJ",8051,39.77763228,-75.17798177,125,"35 WOODBROOK DRIVE, MANTUA, NJ, 8051","Match","Exact","35 WOODBROOK DR, MANTUA, NJ, 08051",134603031,"R"
540126,"35 WOODBURY COLE ROAD","STARK","NH",3582,44.6109513490001,-71.330811871,126,"35 WOODBURY COLE ROAD, STARK, NH, 3582","Match","Exact","35 WOODBURY COLE RD, STARK, NH, 03582",167921158,"L"
540127,"35 WOODED HILLS RD","FAIRDEALING","MO",63939,36.668501883,-90.7125998079999,127,"35 WOODED HILLS RD, FAIRDEALING, MO, 63939","Match","Exact","35 WOODED HILLS RD, FAIRDEALING, MO, 63939",633456866,"R"
540128,"35 WOODLAKE COURT","LAKE ST. LOUIS","MO",63367,38.796591951,-90.812741838,128,"35 WOODLAKE COURT, LAKE ST. LOUIS, MO, 63367","Match","Exact","35 WOODLAKE CT, LAKE SAINT LOUIS, MO, 63367",605552169,"L"
540129,"35 WOODSIDE WAY","SAN RAFAEL",NA,NA,37.993326708,-122.478667661,129,"35 WOODSIDE WAY, SAN RAFAEL, , ","Match","Exact","35 WOODSIDE WAY, SAN RAFAEL, CA, 94901",192763183,"L"
540130,"35 WOODWORTH STREET","VICTOR","NY",14564,42.9743476830001,-77.4060679409999,130,"35 WOODWORTH STREET, VICTOR, NY, 14564","Match","Exact","35 WOODWORTH ST, VICTOR, NY, 14564",647713730,"L"
540131,"35 WORCESTER AVE","HUDSON","MA",1749,42.3940160600001,-71.498486997,131,"35 WORCESTER AVE, HUDSON, MA, 1749","Match","Exact","35 WORCESTER AVE, HUDSON, MA, 01749",640146314,"L"
540132,"35 WORCESTER SQUARE","BOSTON","MA",2118,42.3362987090001,-71.07441864,132,"35 WORCESTER SQUARE, BOSTON, MA, 2118","Match","Exact","35 WORCESTER SQ, BOSTON, MA, 02118",85700754,"R"
540133,"35 WORTHINGTON RD","WHITE PLAINS","NY",10607,41.0430908820001,-73.8311442409999,133,"35 WORTHINGTON RD, WHITE PLAINS, NY, 10607","Match","Exact","35 WORTHINGTON RD, WHITE PLAINS, NY, 10607",139732476,"R"
540134,"35 WORTHINGTON ROAD","WHITE PLAINS","NY",10607,41.0430908820001,-73.8311442409999,134,"35 WORTHINGTON ROAD, WHITE PLAINS, NY, 10607","Match","Exact","35 WORTHINGTON RD, WHITE PLAINS, NY, 10607",139732476,"R"
540135,"35 WYLIE DR","BRIGHTON","TN",38011,35.480065219,-89.702998883,135,"35 WYLIE DR, BRIGHTON, TN, 38011","Match","Exact","35 WYLIE DR, BRIGHTON, TN, 38011",73170648,"L"
540136,"35 YALE AVENUE","WAKEFIELD","MA",1880,42.504431814,-71.075815442,136,"35 YALE AVENUE, WAKEFIELD, MA, 1880","Match","Exact","35 YALE AVE, WAKEFIELD, MA, 01880",86903727,"R"
540137,"35 YESTERDAY DRIVE","COLD SPRING","NY",10516,41.4755711450001,-73.9109382619999,137,"35 YESTERDAY DRIVE, COLD SPRING, NY, 10516","Match","Exact","35 YESTERDAY DR, COLD SPRING, NY, 10516",645380365,"R"
540138,"35 YORK STREET","STRATFORD","CT",6615,41.1526026110001,-73.116334487,138,"35 YORK STREET, STRATFORD, CT, 6615","Match","Exact","35 YORK ST, STRATFORD, CT, 06615",3247767,"L"
540139,"35 YUKON AVE","WORCESTER","MA",1605,42.3019198540001,-71.767570458,139,"35 YUKON AVE, WORCESTER, MA, 1605","Match","Exact","35 YUKON AVE, WORCESTER, MA, 01605",40046450,"L"
540140,"35 ZIMMER AVENUE","MIDLAND PARK","NJ",7432,41.0039647780001,-74.1360958129999,140,"35 ZIMMER AVENUE, MIDLAND PARK, NJ, 7432","Match","Exact","35 ZIMMER AVE, MIDLAND PARK, NJ, 07432",64403006,"R"
540141,"35-02 LENOX DRIVE","FAIR LAWN","NJ",7410,40.9306648990001,-74.1055397489999,141,"35-02 LENOX DRIVE, FAIR LAWN, NJ, 7410","Match","Exact","35-2 LENOX DR, FAIR LAWN, NJ, 07410",64380956,"R"
540142,"35-03 CRESCENT STREET FLR 1","ASTORIA","NY",11106,40.7595985680001,-73.932072437,142,"35-03 CRESCENT STREET FLR 1, ASTORIA, NY, 11106","Match","Exact","35-3 CRESCENT ST, ASTORIA, NY, 11106",59740147,"L"
540143,"35-04 30TH AVENUE APT 2","QUEENS","NY",11103,40.7653491350001,-73.918101555,143,"35-04 30TH AVENUE APT 2, QUEENS, NY, 11103","Match","Non_Exact","35-4 30TH AVE, LONG IS CITY, NY, 11103",59697130,"R"
540144,"35-06 73RD STREET APT 4C","JACKSON HEIGHTS","NY",11372,40.7506397870001,-73.893008057,144,"35-06 73RD STREET APT 4C, JACKSON HEIGHTS, NY, 11372","Match","Exact","35-6 73RD ST, JACKSON HEIGHTS, NY, 11372",59729861,"R"
540145,"35-06 LEAVITT ST","FLUSHING","NY",11354,40.7648811180001,-73.829003427,145,"35-06 LEAVITT ST, FLUSHING, NY, 11354","Match","Exact","35-6 LEAVITT ST, FLUSHING, NY, 11354",59730184,"R"
540146,"35-07 90TH ST  B14","JACKSON HEIGHTS","NY",11372,40.752301957,-73.877187303,146,"35-07 90TH ST  B14, JACKSON HEIGHTS, NY, 11372","Match","Exact","35-7 90TH ST, JACKSON HEIGHTS, NY, 11372",59698362,"L"
540147,"35-15 223 STREET","BAYSIDE","NY",11361,40.7696353360001,-73.7620640759999,147,"35-15 223 STREET, BAYSIDE, NY, 11361","Match","Exact","35-15 223RD ST, BAYSIDE, NY, 11361",59703439,"L"
540148,"35-15 75 STREET APT 510","JACKSON HEIGHTS","NY",11372,40.7506949360001,-73.8911077349999,148,"35-15 75 STREET APT 510, JACKSON HEIGHTS, NY, 11372","Match","Exact","35-15 75TH ST, JACKSON HEIGHTS, NY, 11372",59729859,"L"
540149,"35-16 76TH STREET APT 503","JACKSON HEIGHTS","NY",11372,40.7507590330001,-73.89018896,149,"35-16 76TH STREET APT 503, JACKSON HEIGHTS, NY, 11372","Match","Exact","35-16 76TH ST, JACKSON HEIGHTS, NY, 11372",59729858,"R"
540150,"35-20 24TH STREET","ASTORIA","NY",11106,40.759677276,-73.933371681,150,"35-20 24TH STREET, ASTORIA, NY, 11106","Match","Exact","35-20 24TH ST, ASTORIA, NY, 11106",59740152,"R"
540151,"35-20 77TH STREET APT 1","JACKSON HEIGHTS","NY",11372,40.7507856330001,-73.8892481,151,"35-20 77TH STREET APT 1, JACKSON HEIGHTS, NY, 11372","Match","Exact","35-20 77TH ST, JACKSON HEIGHTS, NY, 11372",59729857,"R"
540152,"35-20 82ND STREET - APT 34","JACKSON HEIGHTS","NY",11372,40.7512750180001,-73.884597062,152,"35-20 82ND STREET - APT 34, JACKSON HEIGHTS, NY, 11372","Match","Exact","35-20 82ND ST, JACKSON HEIGHTS, NY, 11372",59729852,"R"
540153,"35-20 LEVERICH STREET","JACKSON HEIGHTS","NY",11372,40.750388349,-73.895532402,153,"35-20 LEVERICH STREET, JACKSON HEIGHTS, NY, 11372","Match","Exact","35-20 LEVERICH ST, JACKSON HEIGHTS, NY, 11372",59731693,"R"
540154,"35-2143 KAMAO PL","LAUPAHOEHOE","HI",96764,NA,NA,154,"35-2143 KAMAO PL, LAUPAHOEHOE, HI, 96764","No_Match",NA,NA,NA,NA
540155,"35-24 209 STREET","BAYSIDE","NY",11361,40.767336604,-73.7790318519999,155,"35-24 209 STREET, BAYSIDE, NY, 11361","Match","Exact","35-24 209TH ST, BAYSIDE, NY, 11361",59702826,"R"
540156,"35-24 78 STREET APT B23","JACKSON HEIGHTS","NY",11372,40.750815082,-73.8882997699999,156,"35-24 78 STREET APT B23, JACKSON HEIGHTS, NY, 11372","Match","Exact","35-24 78TH ST, JACKSON HEIGHTS, NY, 11372",59729856,"R"
540157,"35-25 77TH STREET APT B16","NEW YORK","NY",11372,40.750717201,-73.8892214859999,157,"35-25 77TH STREET APT B16, NEW YORK, NY, 11372","Match","Non_Exact","35-25 77TH ST, JACKSON HEIGHTS, NY, 11372",59729857,"L"
540158,"35-27 80TH STREET APT 1","JACKSON HEIGHTS","NY",11372,40.750975747,-73.8864206869999,158,"35-27 80TH STREET APT 1, JACKSON HEIGHTS, NY, 11372","Match","Exact","35-27 80TH ST, JACKSON HEIGHTS, NY, 11372",59729854,"L"
540159,"35-28 80TH ST APT 22","JACKSON HEIGHTS","NY",11372,40.750939299,-73.886428614,159,"35-28 80TH ST APT 22, JACKSON HEIGHTS, NY, 11372","Match","Exact","35-28 80TH ST, JACKSON HEIGHTS, NY, 11372",59729854,"R"
540160,"35-28 95TH ST SUITE D-4","JACKSON HEIGHTS","NY",11372,40.7524781180001,-73.872498419,160,"35-28 95TH ST SUITE D-4, JACKSON HEIGHTS, NY, 11372","Match","Exact","35-28 95TH ST, JACKSON HEIGHTS, NY, 11372",59704325,"R"
540161,"35-291 PAPAALOA ROAD PO BOX 77","PAPAALOA","HI",96780,19.9584385270001,-155.237891562,161,"35-291 PAPAALOA ROAD PO BOX 77, PAPAALOA, HI, 96780","Match","Non_Exact","35-291 PAPAA LOA RD, PAPAALOA, HI, 96780",635536431,"R"
540162,"35-30 CORPORAL STONE STREET","BAYSIDE","NY",11361,40.7689985270001,-73.771879718,162,"35-30 CORPORAL STONE STREET, BAYSIDE, NY, 11361","Match","Exact","35-30 CORPORAL STONE ST, BAYSIDE, NY, 11361",59703116,"R"
540163,"35-31 85TH ST 4L","JACKSON HEIGHTS","NY",11372,40.7513949390001,-73.8817568589999,163,"35-31 85TH ST 4L, JACKSON HEIGHTS, NY, 11372","Match","Exact","35-31 85TH ST, JACKSON HEIGHTS, NY, 11372",59729849,"L"
540164,"35-35 149TH STREET STE 206","FLUSHING","NY",11354,40.766117992,-73.81738311,164,"35-35 149TH STREET STE 206, FLUSHING, NY, 11354","Match","Exact","35-35 149TH ST, FLUSHING, NY, 11354",59701137,"L"
540165,"35-36 76TH STREET APT 422","JACKSON HEIGHTS","NY",11372,40.750409647,-73.890127628,165,"35-36 76TH STREET APT 422, JACKSON HEIGHTS, NY, 11372","Match","Exact","35-36 76TH ST, JACKSON HEIGHTS, NY, 11372",59729858,"R"
540166,"35-36 76TH STREET APT 524","JACKSON HEIGHTS","NY",11372,40.750409647,-73.890127628,166,"35-36 76TH STREET APT 524, JACKSON HEIGHTS, NY, 11372","Match","Exact","35-36 76TH ST, JACKSON HEIGHTS, NY, 11372",59729858,"R"
540167,"35-38 94TH ST APT A1","JACKSON HEIGHTS","NY",11372,40.7521321450001,-73.8733834399999,167,"35-38 94TH ST APT A1, JACKSON HEIGHTS, NY, 11372","Match","Exact","35-38 94TH ST, JACKSON HEIGHTS, NY, 11372",59704317,"R"
540168,"35-40 30TH AVENUE APT 2F","ASTORIA","NY",11106,40.7652337760001,-73.9178534709999,168,"35-40 30TH AVENUE APT 2F, ASTORIA, NY, 11106","Match","Non_Exact","35-40 30TH AVE, ASTORIA, NY, 11103",59697130,"R"
540169,"35-40 82ND STREET APT 1J","JACKSON HEIGHTS","NY",11372,40.7509249440001,-73.884532973,169,"35-40 82ND STREET APT 1J, JACKSON HEIGHTS, NY, 11372","Match","Exact","35-40 82ND ST, JACKSON HEIGHTS, NY, 11372",59729852,"R"
540170,"35-40 83 ST 2D","JACKSON HEIGHTS","NY",11372,40.7510231190001,-73.883600359,170,"35-40 83 ST 2D, JACKSON HEIGHTS, NY, 11372","Match","Exact","35-40 83RD ST, JACKSON HEIGHTS, NY, 11372",59729851,"R"
540171,"35-43 88TH ST APT 3F","JACKSON HEIGHTS","NY",11372,40.751478338,-73.878930372,171,"35-43 88TH ST APT 3F, JACKSON HEIGHTS, NY, 11372","Match","Exact","35-43 88TH ST, JACKSON HEIGHTS, NY, 11372",59729847,"L"
540172,"35-46 79TH STREET","JACKSON HEIGHTS","NY",11372,40.750528375,-73.887299528,172,"35-46 79TH STREET, JACKSON HEIGHTS, NY, 11372","Match","Exact","35-46 79TH ST, JACKSON HEIGHTS, NY, 11372",59729855,"R"
540173,"35-47 64TH STREET APT 4B","WOODSIDE","NY",11377,40.7492082250001,-73.8985791269999,173,"35-47 64TH STREET APT 4B, WOODSIDE, NY, 11377","Match","Exact","35-47 64TH ST, WOODSIDE, NY, 11377",59693401,"L"
540174,"35-48 29TH ST BSMT","ASTORIA","NY",11106,40.7581245820001,-73.930719073,174,"35-48 29TH ST BSMT, ASTORIA, NY, 11106","Match","Exact","35-48 29TH ST, ASTORIA, NY, 11106",59696766,"R"
540175,"35-49 76TH STREET APT 52","JACKSON HEIGHTS","NY",11372,40.7502014610001,-73.890076482,175,"35-49 76TH STREET APT 52, JACKSON HEIGHTS, NY, 11372","Match","Exact","35-49 76TH ST, JACKSON HEIGHTS, NY, 11372",59729858,"L"
540176,"35-50 21ST STREET UNIT 5E","LONG ISLAND CITY","NY",11106,40.760611506,-73.936106092,176,"35-50 21ST STREET UNIT 5E, LONG ISLAND CITY, NY, 11106","Match","Exact","35-50 21ST ST, LONG ISLAND CITY, NY, 11106",59696290,"R"
540177,"35-51 85TH STREET      APT 2C","JACKSON HEIGHTS","NY",11372,40.7510448640001,-73.881692771,177,"35-51 85TH STREET      APT 2C, JACKSON HEIGHTS, NY, 11372","Match","Exact","35-51 85TH ST, JACKSON HEIGHTS, NY, 11372",59729849,"L"
540178,"35-51 85TH STREET APARTMENT 5K","JACKSON HEIGHTS","NY",11372,40.7510448640001,-73.881692771,178,"35-51 85TH STREET APARTMENT 5K, JACKSON HEIGHTS, NY, 11372","Match","Exact","35-51 85TH ST, JACKSON HEIGHTS, NY, 11372",59729849,"L"
540179,"35-53 82ND ST APT 1A","JACKSON HEIGHTS","NY",11372,40.750716405,-73.884480184,179,"35-53 82ND ST APT 1A, JACKSON HEIGHTS, NY, 11372","Match","Exact","35-53 82ND ST, JACKSON HEIGHTS, NY, 11372",59729852,"L"
540180,"35-55 73RD STREET SUITE 107","JACKSON HEIGHTS","NY",11372,40.7498009700001,-73.8928547679999,180,"35-55 73RD STREET SUITE 107, JACKSON HEIGHTS, NY, 11372","Match","Exact","35-55 73RD ST, JACKSON HEIGHTS, NY, 11372",59729861,"L"
540181,"35-60 158TH STREET","FLUSHING","NY",11358,40.7644048760001,-73.807216467,181,"35-60 158TH STREET, FLUSHING, NY, 11358","Match","Exact","35-60 158TH ST, FLUSHING, NY, 11358",59701571,"R"
540182,"35-75B 159TH ST 1ST FL","FLUSHING","NY",11358,NA,NA,182,"35-75B 159TH ST 1ST FL, FLUSHING, NY, 11358","Tie",NA,NA,NA,NA
540183,"35-83 89TH STREET APT BSMT","JACKSON HEIGHTS","NY",11372,40.750877814,-73.877874979,183,"35-83 89TH STREET APT BSMT, JACKSON HEIGHTS, NY, 11372","Match","Exact","35-83 89TH ST, JACKSON HEIGHTS, NY, 11372",59698352,"L"
540184,"35-K PIN TREE LN","COLDWATER","MI",49036,41.9353236440001,-84.985600101,184,"35-K PIN TREE LN, COLDWATER, MI, 49036","Match","Non_Exact","35 PINE TREE LN, COLDWATER, MI, 49036",624487945,"R"
540185,"35","JOLIET","IL",60431,NA,NA,185,"35, JOLIET, IL, 60431","No_Match",NA,NA,NA,NA
540186,"35","SEDONA","AZ",86336,NA,NA,186,"35, SEDONA, AZ, 86336","No_Match",NA,NA,NA,NA
540187,"35","STARKVILLE","MS",39759,NA,NA,187,"35, STARKVILLE, MS, 39759","No_Match",NA,NA,NA,NA
540188,"350  EAST LAS OLAS BLVD STE 1150","FORT LAUDERDALE","FL",33301,26.119156134,-80.139842132,188,"350  EAST LAS OLAS BLVD STE 1150, FORT LAUDERDALE, FL, 33301","Match","Exact","350 E LAS OLAS BLVD, FORT LAUDERDALE, FL, 33301",114723137,"R"
540189,"350  NE  151 ST","MIAMI","FL",33162,25.9137523970001,-80.193171761,189,"350  NE  151 ST, MIAMI, FL, 33162","Match","Exact","350 NE 151ST ST, MIAMI, FL, 33162",116273548,"R"
540190,"350  TRAILWOOD DRIVE","SUMTER","SC",29154,33.9178254770001,-80.4252396099999,190,"350  TRAILWOOD DRIVE, SUMTER, SC, 29154","Match","Exact","350 TRAILWOOD DR, SUMTER, SC, 29154",202713956,"L"
540191,"350 1/2 E WHEELING STREET","LANCASTER","OH",43130,39.7147778680001,-82.5961233739999,191,"350 1/2 E WHEELING STREET, LANCASTER, OH, 43130","Match","Exact","350 E WHEELING ST, LANCASTER, OH, 43130",37242651,"L"
540192,"350 11TH AVENUE 1131","SAN DIEGO","CA",92101,32.708887399,-117.154647451,192,"350 11TH AVENUE 1131, SAN DIEGO, CA, 92101","Match","Non_Exact","350 N 11TH AVE, SAN DIEGO, CA, 92101",195344699,"L"
540193,"350 11TH AVENUE UNIT 618","SAN DIEGO","CA",92021,NA,NA,193,"350 11TH AVENUE UNIT 618, SAN DIEGO, CA, 92021","No_Match",NA,NA,NA,NA
540194,"350 11TH ST","ATLANTIC BEACH","FL",32233,30.335880053,-81.400326751,194,"350 11TH ST, ATLANTIC BEACH, FL, 32233","Match","Exact","350 11TH ST, ATLANTIC BCH, FL, 32233",83953572,"L"
540195,"350 16TH AVE NE APT 1","ST PETERSBURG","FL",33704,NA,NA,195,"350 16TH AVE NE APT 1, ST PETERSBURG, FL, 33704","No_Match",NA,NA,NA,NA
540196,"350 18TH AVENUE SOUTH","WISCONSIN RAPIDS","WI",54495,44.392916804,-89.8457890889999,196,"350 18TH AVENUE SOUTH, WISCONSIN RAPIDS, WI, 54495","Match","Exact","350 18TH AVE S, WISCONSIN RAPIDS, WI, 54495",51285742,"L"
540197,"350 18TH AVENUE","PATERSON","NJ",7504,40.9101042790001,-74.139309483,197,"350 18TH AVENUE, PATERSON, NJ, 7504","Match","Exact","350 18TH AVE, PATERSON, NJ, 07504",65264909,"R"
540198,"350 2ND ST N UNIT 2","ST PETERSBURG","FL",33701,27.775883607,-82.635582858,198,"350 2ND ST N UNIT 2, ST PETERSBURG, FL, 33701","Match","Exact","350 2ND ST N, SAINT PETERSBURG, FL, 33701",124757016,"L"
540199,"350 39TH STREET","NORTHPORT","AL",35473,33.2428507180001,-87.5610439179999,199,"350 39TH STREET, NORTHPORT, AL, 35473","Match","Exact","350 39TH ST, NORTHPORT, AL, 35473",82186241,"R"
540200,"350 44TH AVENUE DR NW","HICKORY","NC",28601,35.7931313780001,-81.322556643,200,"350 44TH AVENUE DR NW, HICKORY, NC, 28601","Match","Exact","350 44TH AVENUE DR NW, HICKORY, NC, 28601",45915066,"L"
540201,"350 50TH ST SE","WASHINGTON","DC",20019,38.884576908,-76.930803838,201,"350 50TH ST SE, WASHINGTON, DC, 20019","Match","Exact","350 50TH ST SE, WASHINGTON, DC, 20019",76233882,"L"
540202,"350 5TH AVE 59TH FLOOR","NEW YORK","NY",10018,40.748389914,-73.984603238,202,"350 5TH AVE 59TH FLOOR, NEW YORK, NY, 10018","Match","Non_Exact","350 5TH AVE, NEW YORK, NY, 10118",59653473,"L"
540203,"350 5TH AVE SUITE 310","ESCONDIDO","CA",92025,NA,NA,203,"350 5TH AVE SUITE 310, ESCONDIDO, CA, 92025","Tie",NA,NA,NA,NA
540204,"350 65TH STREET","BROOKLYN","NY",11220,40.6390149980001,-74.0230642559999,204,"350 65TH STREET, BROOKLYN, NY, 11220","Match","Exact","350 65TH ST, BROOKLYN, NY, 11220",59094239,"R"
540205,"350 6TH AVENUE","TROY","NY",12182,42.765336561,-73.676201572,205,"350 6TH AVENUE, TROY, NY, 12182","Match","Exact","350 6TH AVE, TROY, NY, 12182",35730058,"R"
540206,"350 6TH ST","WADSWORTH","TX",77483,28.8315009140001,-95.936051784,206,"350 6TH ST, WADSWORTH, TX, 77483","Match","Exact","350 6TH ST, WADSWORTH, TX, 77483",83280763,"L"
540207,"350 A FIELDPOINTE BOULEVARD 102","Frederick","MD",21701,39.402845488,-77.421443988,207,"350 A FIELDPOINTE BOULEVARD 102, Frederick, MD, 21701","Match","Exact","350 FIELDPOINTE BLVD, FREDERICK, MD, 21701",60692362,"R"
540208,"350 A FIELDPOINTE BOULEVARD","FREDERICK","MD",21701,39.402845488,-77.421443988,208,"350 A FIELDPOINTE BOULEVARD, FREDERICK, MD, 21701","Match","Exact","350 FIELDPOINTE BLVD, FREDERICK, MD, 21701",60692362,"R"
540209,"350 ALBANY STREET APT 4A","NEW YORK","NY",10280,40.710237686,-74.0170172749999,209,"350 ALBANY STREET APT 4A, NEW YORK, NY, 10280","Match","Exact","350 ALBANY ST, NEW YORK, NY, 10280",651706134,"R"
540210,"350 ALBANY STREET","NEW YORK","NY",10280,40.710237686,-74.0170172749999,210,"350 ALBANY STREET, NEW YORK, NY, 10280","Match","Exact","350 ALBANY ST, NEW YORK, NY, 10280",651706134,"R"
540211,"350 ALEXANDER ROAD","MONTICELLO","FL",32336,30.4563663700001,-83.905347029,211,"350 ALEXANDER ROAD, MONTICELLO, FL, 32336","Match","Non_Exact","350 ALEXANDER RD, LAMONT, FL, 32336",634483028,"R"
540212,"350 ANDERSON WAY","CRESCENT CITY","CA",95531,41.775113074,-124.180571251,212,"350 ANDERSON WAY, CRESCENT CITY, CA, 95531","Match","Exact","350 ANDERSON WAY, CRESCENT CITY, CA, 95531",627574836,"L"
540213,"350 AOLOA ST APT B239","KAILUA","HI",96734,21.3914298120001,-157.737536874,213,"350 AOLOA ST APT B239, KAILUA, HI, 96734","Match","Exact","350 AOLOA ST, KAILUA, HI, 96734",203240124,"R"
540214,"350 ARBALLO DRIVE 9-H","SAN FRANCISCO","CA",94132,37.720400012,-122.483021969,214,"350 ARBALLO DRIVE 9-H, SAN FRANCISCO, CA, 94132","Match","Exact","350 ARBALLO DR, SAN FRANCISCO, CA, 94132",192278679,"R"
540215,"350 ARROYO PINON DRIVE","SEDONA","AZ",86336,34.85657866,-111.814049185,215,"350 ARROYO PINON DRIVE, SEDONA, AZ, 86336","Match","Exact","350 ARROYO PINON DR, SEDONA, AZ, 86336",624362763,"R"
540216,"350 ASHBOURNE ROAD","ROCHESTER","NY",14618,43.1315595610001,-77.5564922619999,216,"350 ASHBOURNE ROAD, ROCHESTER, NY, 14618","Match","Exact","350 ASHBOURNE RD, ROCHESTER, NY, 14618",14543122,"L"
540217,"350 AURORA WAY","ATHOL","ID",83801,47.9772582410001,-116.705332648,217,"350 AURORA WAY, ATHOL, ID, 83801","Match","Exact","350 AURORA WAY, ATHOL, ID, 83801",635459115,"L"
540218,"350 B CASSETTY ROAD","WOODBURN","KY",42170,36.8223355900001,-86.571888195,218,"350 B CASSETTY ROAD, WOODBURN, KY, 42170","Match","Non_Exact","350 CASSITTY RD, WOODBURN, KY, 42170",29598396,"L"
540219,"350 BAKER RD","MARTINSBURG","WV",25405,39.4137193120001,-77.910043566,219,"350 BAKER RD, MARTINSBURG, WV, 25405","Match","Exact","350 BAKER RD, MARTINSBURG, WV, 25405",123391628,"R"
540220,"350 BARBER LOOP","MOORESVILLE","NC",28117,35.547971584,-80.951968974,220,"350 BARBER LOOP, MOORESVILLE, NC, 28117","Match","Exact","350 BARBER LOOP, MOORESVILLE, NC, 28117",45997607,"R"
540221,"350 BEACH 75TH ST","ARVERNE","NY",11692,NA,NA,221,"350 BEACH 75TH ST, ARVERNE, NY, 11692","No_Match",NA,NA,NA,NA
540222,"350 BEAVER LAKE DRIVE","SAINT CHARLES","MO",63303,38.7303436030001,-90.565768787,222,"350 BEAVER LAKE DRIVE, SAINT CHARLES, MO, 63303","Match","Exact","350 BEAVER LAKE DR, SAINT CHARLES, MO, 63303",100019734,"L"
540223,"350 BEDFORD STREET SUITE 303","STAMFORD","CT",6901,41.0575687670001,-73.537925742,223,"350 BEDFORD STREET SUITE 303, STAMFORD, CT, 6901","Match","Exact","350 BEDFORD ST, STAMFORD, CT, 06901",618528545,"L"
540224,"350 BENJAMIN AVE SE","GRAND RAPIDS","MI",49506,42.956732512,-85.6373173709999,224,"350 BENJAMIN AVE SE, GRAND RAPIDS, MI, 49506","Match","Exact","350 BENJAMIN AVE SE, GRAND RAPIDS, MI, 49506",12460809,"L"
540225,"350 BERRYVILLE RD","SPRINGFIELD","GA",31329,32.4242104090001,-81.2715916619999,225,"350 BERRYVILLE RD, SPRINGFIELD, GA, 31329","Match","Exact","350 BERRYVILLE RD, SPRINGFIELD, GA, 31329",6269765,"R"
540226,"350 BIG HORN RD SUITE 100","CASPER","WY",82061,42.8542854780001,-106.335135538,226,"350 BIG HORN RD SUITE 100, CASPER, WY, 82061","Match","Non_Exact","350 BIG HORN RD, CASPER, WY, 82601",149022639,"L"
540227,"350 BIRCHWOOD DR","HARBOR SPRINGS","MI",49740,45.459764255,-85.0467734439999,227,"350 BIRCHWOOD DR, HARBOR SPRINGS, MI, 49740","Match","Exact","350 BIRCHWOOD DR, HARBOR SPRINGS, MI, 49740",133981636,"R"
540228,"350 BIRD AVE APT 612","SAN JOSE","CA",95126,37.324238957,-121.899976531,228,"350 BIRD AVE APT 612, SAN JOSE, CA, 95126","Match","Exact","350 BIRD AVE, SAN JOSE, CA, 95126",638160710,"R"
540229,"350 BLACKWOOD CLEMENTON RD APT 1108","PINE HILL","NJ",8021,39.8053048030001,-75.001977551,229,"350 BLACKWOOD CLEMENTON RD APT 1108, PINE HILL, NJ, 8021","Match","Exact","350 BLACKWOOD CLEMENTON RD, PINE HILL, NJ, 08021",134361612,"L"
540230,"350 BLACKWOOD CLEMENTON RD APT 2206","PINE HILL","NJ",8021,39.8053048030001,-75.001977551,230,"350 BLACKWOOD CLEMENTON RD APT 2206, PINE HILL, NJ, 8021","Match","Exact","350 BLACKWOOD CLEMENTON RD, PINE HILL, NJ, 08021",134361612,"L"
540231,"350 BLACKWOOD CLEMENTON RD APT 2206","PINE HILL,","NM",8021,NA,NA,231,"350 BLACKWOOD CLEMENTON RD APT 2206, PINE HILL,, NM, 8021","No_Match",NA,NA,NA,NA
540232,"350 BLOODGOOD ST APT 154","MOBILE","AL",36603,30.699494208,-88.049948065,232,"350 BLOODGOOD ST APT 154, MOBILE, AL, 36603","Match","Exact","350 BLOODGOOD ST, MOBILE, AL, 36603",647788854,"R"
540233,"350 BOKMA ROAD","COLUMBUS","MT",59019,45.769343894,-109.197489891,233,"350 BOKMA ROAD, COLUMBUS, MT, 59019","Match","Exact","350 BOKMA RD, COLUMBUS, MT, 59019",181748647,"R"
540234,"350 BONANZA AVENUE","HOMER","AK",99603,59.6452656480001,-151.535912681,234,"350 BONANZA AVENUE, HOMER, AK, 99603","Match","Exact","350 BONANZA AVE, HOMER, AK, 99603",191035552,"R"
540235,"350 BOONE BRIDGE RD","COMO","NC",27818,36.5200608910001,-77.071614966,235,"350 BOONE BRIDGE RD, COMO, NC, 27818","Match","Non_Exact","350 BOONES BRIDGE RD, COMO, NC, 27818",56778804,"R"
540236,"350 BRADEN AVE","SARASOTA","FL",34243,27.3964807950001,-82.5673565819999,236,"350 BRADEN AVE, SARASOTA, FL, 34243","Match","Exact","350 BRADEN AVE, SARASOTA, FL, 34243",16240169,"R"
540237,"350 BROADWAY SPC 10","CHULA VISTA","CA",91910,32.6367278490001,-117.091721262,237,"350 BROADWAY SPC 10, CHULA VISTA, CA, 91910","Match","Exact","350 BROADWAY, CHULA VISTA, CA, 91910",650400638,"R"
540238,"350 BROADWAY STE 10","BOULDER","CO",80305,39.9942031890001,-105.259392331,238,"350 BROADWAY STE 10, BOULDER, CO, 80305","Match","Non_Exact","350 BROADWAY ST, BOULDER, CO, 80305",220763159,"L"
540239,"350 BRUSHY CREEK","SIBLEY","LA",71073,32.460467296,-93.342038279,239,"350 BRUSHY CREEK, SIBLEY, LA, 71073","Match","Non_Exact","350 BRUSHY CREEK RD, SIBLEY, LA, 71073",73387301,"L"
540240,"350 BRYANT ST","MOUNTAIN VIEW","CA",94041,37.392368563,-122.081219104,240,"350 BRYANT ST, MOUNTAIN VIEW, CA, 94041","Match","Exact","350 BRYANT ST, MOUNTAIN VIEW, CA, 94041",614030816,"R"
540241,"350 BUCK SHOALS RD","GAFFNEY","SC",29341,35.1399280210001,-81.743003018,241,"350 BUCK SHOALS RD, GAFFNEY, SC, 29341","Match","Exact","350 BUCK SHOALS RD, GAFFNEY, SC, 29341",18986427,"R"
540242,"350 BUCKHORN DR","BELVIDERE","NJ",7823,40.790559439,-75.0445926,242,"350 BUCKHORN DR, BELVIDERE, NJ, 7823","Match","Exact","350 BUCKHORN DR, BELVIDERE, NJ, 07823",98103948,"R"
540243,"350 BUDD AVE APT R-11","CAMPBELL","CA",95008,37.2805414160001,-121.956185692,243,"350 BUDD AVE APT R-11, CAMPBELL, CA, 95008","Match","Exact","350 BUDD AVE, CAMPBELL, CA, 95008",651660129,"R"
540244,"350 BULL CREEK ROAD","LAURELVILLE","OH",43135,39.4153717120001,-82.75246442,244,"350 BULL CREEK ROAD, LAURELVILLE, OH, 43135","Match","Exact","350 BULL CREEK RD, LAURELVILLE, OH, 43135",37497019,"R"
540245,"350 BUSINESS PARK DRIVE","SUN PRAIRIE","WI",53590,43.200792123,-89.2080862769999,245,"350 BUSINESS PARK DRIVE, SUN PRAIRIE, WI, 53590","Match","Non_Exact","350 BUS PARK DR, SUN PRAIRIE, WI, 53590",49538191,"L"
540246,"350 BUTANO ROAD","PESCADERO","CA",94060,37.248659688,-122.361270135,246,"350 BUTANO ROAD, PESCADERO, CA, 94060","Match","Non_Exact","350 BUTANO CUTOFF, PESCADERO, CA, 94060",192393239,"R"
540247,"350 BUTTS FARM ROAD","WESTMINSTER","SC",29693,NA,NA,247,"350 BUTTS FARM ROAD, WESTMINSTER, SC, 29693","No_Match",NA,NA,NA,NA
540248,"350 BYRAM DRIVE APT 1005","BYRAM","MS",39272,32.251990307,-90.230484046,248,"350 BYRAM DRIVE APT 1005, BYRAM, MS, 39272","Match","Exact","350 BYRAM DR, BYRAM, MS, 39272",65368579,"L"
540249,"350 BYRAM DRIVE APT 1105","BYRAM","MS",39272,32.251990307,-90.230484046,249,"350 BYRAM DRIVE APT 1105, BYRAM, MS, 39272","Match","Exact","350 BYRAM DR, BYRAM, MS, 39272",65368579,"L"
540250,"350 CABRINI BLVD APT 4A","NEW YORK","NY",10040,40.85672988,-73.937082511,250,"350 CABRINI BLVD APT 4A, NEW YORK, NY, 10040","Match","Exact","350 CABRINI BLVD, NEW YORK, NY, 10040",652211070,"L"
540251,"350 CALLE FUERTE APT 10","SAN JUAN","PR",912,18.445254903,-66.064502322,251,"350 CALLE FUERTE APT 10, SAN JUAN, PR, 912","Match","Non_Exact","350 CLL FUERTE, SAN JUAN, PR, 00912",638999551,"L"
540252,"350 CALLOWAY","BAKERSFIELD","CA",93312,35.3593618420001,-119.116019502,252,"350 CALLOWAY, BAKERSFIELD, CA, 93312","Match","Non_Exact","350 CALLOWAY DR, BAKERSFIELD, CA, 93312",645291133,"L"
540253,"350 CAMINO GARDENS BLVD SUITE 107","BOCA RATON","FL",33432,26.3408425060001,-80.0931232679999,253,"350 CAMINO GARDENS BLVD SUITE 107, BOCA RATON, FL, 33432","Match","Exact","350 CAMINO GARDENS BLVD, BOCA RATON, FL, 33432",115303510,"L"
540254,"350 CANAL STREET BOX 1459","NEW YORK","NY",10013,40.7205785290001,-74.00354986,254,"350 CANAL STREET BOX 1459, NEW YORK, NY, 10013","Match","Exact","350 CANAL ST, NEW YORK, NY, 10013",59660225,"L"
540255,"350 CARLYN COURT","DOWNINGTOWN","PA",19335,40.0052412740001,-75.7308781409999,255,"350 CARLYN COURT, DOWNINGTOWN, PA, 19335","Match","Exact","350 CARLYN CT, DOWNINGTOWN, PA, 19335",179537350,"L"
540256,"350 CARONI","WALNUT CREEK","CA",94597,37.9295682870001,-122.067084446,256,"350 CARONI, WALNUT CREEK, CA, 94597","Match","Non_Exact","350 CARONI ST, WALNUT CREEK, CA, 94597",624093731,"R"
540257,"350 CASCADE RISE COURT","ATLANTA","GA",30331,33.7270189180001,-84.5646950679999,257,"350 CASCADE RISE COURT, ATLANTA, GA, 30331","Match","Non_Exact","350 CASCADE RISE CT SW, ATLANTA, GA, 30331",643353002,"R"
540258,"350 CASTLE VIEW LN","EUREKA","MT",59917,48.99738309,-115.099037599,258,"350 CASTLE VIEW LN, EUREKA, MT, 59917","Match","Exact","350 CASTLE VIEW LN, EUREKA, MT, 59917",169684616,"R"
540259,"350 CEDAR AVENUE  APT 204","LONG BEACH","CA",90802,33.77130751,-118.195047358,259,"350 CEDAR AVENUE  APT 204, LONG BEACH, CA, 90802","Match","Exact","350 CEDAR AVE, LONG BEACH, CA, 90802",141694004,"R"
540260,"350 CEDAR ST","EAST BRIDGEWATER","MA",2333,42.034531734,-70.9057371219999,260,"350 CEDAR ST, EAST BRIDGEWATER, MA, 2333","Match","Exact","350 CEDAR ST, E BRIDGEWATER, MA, 02333",613462046,"L"
540261,"350 CENTRAL PARK W 12F","NEW YORK","NY",10025,40.7909439580001,-73.9652167739999,261,"350 CENTRAL PARK W 12F, NEW YORK, NY, 10025","Match","Exact","350 CENTRAL PARK W, NEW YORK, NY, 10025",59656951,"L"
540262,"350 CENTRAL PARK WEST","NEW YORK","NY",10025,40.7909439580001,-73.9652167739999,262,"350 CENTRAL PARK WEST, NEW YORK, NY, 10025","Match","Exact","350 CENTRAL PARK W, NEW YORK, NY, 10025",59656951,"L"
540263,"350 CHAMPION WAY","GEORGETOWN","KY",40324,38.2380006230001,-84.5520862929999,263,"350 CHAMPION WAY, GEORGETOWN, KY, 40324","Match","Exact","350 CHAMPION WAY, GEORGETOWN, KY, 40324",650225468,"R"
540264,"350 CHARLES STREET","MOBILE","AL",36604,30.680574151,-88.056301704,264,"350 CHARLES STREET, MOBILE, AL, 36604","Match","Exact","350 CHARLES ST, MOBILE, AL, 36604",61867742,"R"
540265,"350 CHAUTAUQUA BLVD","LOS ANGELES","CA",90272,34.0327814660001,-118.519119868,265,"350 CHAUTAUQUA BLVD, LOS ANGELES, CA, 90272","Match","Non_Exact","350 CHAUTAUQUA BLVD, PACIFIC PALISADES, CA, 90272",141558647,"R"
540266,"350 CHAUTAUQUA BLVD","PACIFIC PALISADES","CA",90272,34.0327814660001,-118.519119868,266,"350 CHAUTAUQUA BLVD, PACIFIC PALISADES, CA, 90272","Match","Exact","350 CHAUTAUQUA BLVD, PACIFIC PALISADES, CA, 90272",141558647,"R"
540267,"350 CHERRY ST","BEDFORD HILLS","NY",10507,41.245960505,-73.69817273,267,"350 CHERRY ST, BEDFORD HILLS, NY, 10507","Match","Exact","350 CHERRY ST, BEDFORD HILLS, NY, 10507",649730731,"R"
540268,"350 CHERYL DRIVE","TOMS RIVER","NJ",8753,40.0041328720001,-74.1199519359999,268,"350 CHERYL DRIVE, TOMS RIVER, NJ, 8753","Match","Exact","350 CHERYL DR, TOMS RIVER, NJ, 08753",203736717,"L"
540269,"350 CHESTNUT GROVE RD","WINCHESTER","VA",22603,39.274236973,-78.2410302599999,269,"350 CHESTNUT GROVE RD, WINCHESTER, VA, 22603","Match","Exact","350 CHESTNUT GROVE RD, WINCHESTER, VA, 22603",636665807,"R"
540270,"350 CHURCH STREET NE","VIENNA","VA",22180,38.907171986,-77.260904156,270,"350 CHURCH STREET NE, VIENNA, VA, 22180","Match","Exact","350 CHURCH ST NE, VIENNA, VA, 22180",75970632,"L"
540271,"350 CLEAR CREEK COURT","LEXINGTON","SC",29072,NA,NA,271,"350 CLEAR CREEK COURT, LEXINGTON, SC, 29072","No_Match",NA,NA,NA,NA
540272,"350 CLEARWATER PLACE","LAWRENCEVILLE","GA",30044,33.9337654550001,-84.051788049,272,"350 CLEARWATER PLACE, LAWRENCEVILLE, GA, 30044","Match","Exact","350 CLEARWATER PL, LAWRENCEVILLE, GA, 30044",88951078,"L"
540273,"350 COBB DR","MANY","LA",71449,NA,NA,273,"350 COBB DR, MANY, LA, 71449","No_Match",NA,NA,NA,NA
540274,"350 COFFEETOWN RD","DILLSBURG","PA",17019,40.0753077620001,-77.1208974899999,274,"350 COFFEETOWN RD, DILLSBURG, PA, 17019","Match","Exact","350 COFFEETOWN RD, DILLSBURG, PA, 17019",639082414,"R"
540275,"350 COLLEGE ST","HARDIN","KY",42048,NA,NA,275,"350 COLLEGE ST, HARDIN, KY, 42048","No_Match",NA,NA,NA,NA
540276,"350 COLONIA BLVD","COLONIA","NJ",7067,40.591230861,-74.3037184629999,276,"350 COLONIA BLVD, COLONIA, NJ, 7067","Match","Exact","350 COLONIA BLVD, COLONIA, NJ, 07067",60273705,"L"
540277,"350 COMANCHE STREET","MONTEVALLO","AL",35115,33.1115755870001,-86.8503830669999,277,"350 COMANCHE STREET, MONTEVALLO, AL, 35115","Match","Exact","350 COMANCHE ST, MONTEVALLO, AL, 35115",82124079,"R"
540278,"350 COMMUNITY CENTER DRIVE","WASHINGTON","UT",84780,37.1352539270001,-113.500382913,278,"350 COMMUNITY CENTER DRIVE, WASHINGTON, UT, 84780","Match","Exact","350 COMMUNITY CENTER DR, WASHINGTON, UT, 84780",624765114,"R"
540279,"350 CONTINENTAL DRIVE APT 4101","LEWISVILLE","TX",78067,NA,NA,279,"350 CONTINENTAL DRIVE APT 4101, LEWISVILLE, TX, 78067","No_Match",NA,NA,NA,NA
540280,"350 CORNWALL STREET","BALTIMORE","MD",21224,39.289278172,-76.5448360619999,280,"350 CORNWALL STREET, BALTIMORE, MD, 21224","Match","Exact","350 CORNWALL ST, BALTIMORE, MD, 21224",630521772,"R"
540281,"350 CORTEZ CT","SPARKS","NV",89441,39.638785462,-119.689430662,281,"350 CORTEZ CT, SPARKS, NV, 89441","Match","Exact","350 CORTEZ CT, SPARKS, NV, 89441",107075980,"L"
540282,"350 COUNTRY CLUB DRIVE","GASBURG","VA",23857,36.5529484260001,-77.879604364,282,"350 COUNTRY CLUB DRIVE, GASBURG, VA, 23857","Match","Exact","350 COUNTRY CLUB DR, GASBURG, VA, 23857",54041583,"R"
540283,"350 COUNTY ROAD","NORTH GUILFORD","CT",6437,41.3579023500001,-72.7343630569999,283,"350 COUNTY ROAD, NORTH GUILFORD, CT, 6437","Match","Non_Exact","350 COUNTY RD, GUILFORD, CT, 06437",604741985,"L"
540284,"350 CR 3802","HAWKINS","TX",75765,32.652603694,-95.2299711429999,284,"350 CR 3802, HAWKINS, TX, 75765","Match","Exact","350 CO RD 3802, HAWKINS, TX, 75765",42983017,"L"
540285,"350 CR 4775","WARREN","TX",77664,30.5799157110001,-94.3891159519999,285,"350 CR 4775, WARREN, TX, 77664","Match","Exact","350 CO RD 4775, WARREN, TX, 77664",24418268,"R"
540286,"350 CRESTWOOD CIRCLE APT 301","ROYAL PALM BEACH","FL",33411,26.688549461,-80.2458087919999,286,"350 CRESTWOOD CIRCLE APT 301, ROYAL PALM BEACH, FL, 33411","Match","Exact","350 CRESTWOOD CIR, ROYAL PALM BEACH, FL, 33411",640944146,"R"
540287,"350 CYNTHIAN ROAD","PARIS","KY",40361,NA,NA,287,"350 CYNTHIAN ROAD, PARIS, KY, 40361","No_Match",NA,NA,NA,NA
540288,"350 CYPRUS BEND","GULF SHORES","AL",36547,NA,NA,288,"350 CYPRUS BEND, GULF SHORES, AL, 36547","No_Match",NA,NA,NA,NA
540289,"350 DAISY HOLLOW ROAD","MIDDLETOWN SPRINGS","VT",5757,43.475404386,-73.089732655,289,"350 DAISY HOLLOW ROAD, MIDDLETOWN SPRINGS, VT, 5757","Match","Exact","350 DAISY HOLLOW RD, MIDDLETOWN SPRINGS, VT, 05757",641174240,"R"
540290,"350 DALKEITH AVE","LOS ANGELES","CA",90049,34.069260178,-118.46181813,290,"350 DALKEITH AVE, LOS ANGELES, CA, 90049","Match","Exact","350 DALKEITH AVE, LOS ANGELES, CA, 90049",141566963,"L"
540291,"350 DEER TRAIL AVENUE","CANFIELD","OH",44406,41.0352581280001,-80.770722996,291,"350 DEER TRAIL AVENUE, CANFIELD, OH, 44406","Match","Exact","350 DEER TRAIL AVE, CANFIELD, OH, 44406",64592904,"R"
540292,"350 DEL MONTE AVE","FIRCREST","WA",98466,47.2383587790001,-122.511798956,292,"350 DEL MONTE AVE, FIRCREST, WA, 98466","Match","Exact","350 DEL MONTE AVE, FIRCREST, WA, 98466",184619532,"R"
540293,"350 DIANE LANE","CHICAGO HEIGHTS","IL",60410,41.536564604,-87.649698015,293,"350 DIANE LANE, CHICAGO HEIGHTS, IL, 60410","Match","Non_Exact","350 DIANE LN, CHICAGO HEIGHTS, IL, 60411",112382637,"L"
540294,"350 DILLARD LANE","MONTGOMERY","AL",36116,32.2621745330001,-86.223817262,294,"350 DILLARD LANE, MONTGOMERY, AL, 36116","Match","Exact","350 DILLARD LN, MONTGOMERY, AL, 36116",638583465,"R"
540295,"350 DISCOVERY BLVD","CEDAR PARK","TX",78613,30.519424739,-97.825901302,295,"350 DISCOVERY BLVD, CEDAR PARK, TX, 78613","Match","Exact","350 DISCOVERY BLVD, CEDAR PARK, TX, 78613",126462707,"R"
540296,"350 DIX-LEEON DRIVE","FAYETTEVILLE","GA",30214,NA,NA,296,"350 DIX-LEEON DRIVE, FAYETTEVILLE, GA, 30214","No_Match",NA,NA,NA,NA
540297,"350 DRIFTWOOD LOOP","BOWIE","TX",76230,33.4751135500001,-97.881363248,297,"350 DRIFTWOOD LOOP, BOWIE, TX, 76230","Match","Exact","350 DRIFTWOOD LOOP, BOWIE, TX, 76230",152105297,"L"
540298,"350 DUNBAR ROAD","WINDSOR","NY",13865,42.116083292,-75.723972262,298,"350 DUNBAR ROAD, WINDSOR, NY, 13865","Match","Exact","350 DUNBAR RD, WINDSOR, NY, 13865",46332908,"L"
540299,"350 DUNSTER AVE APT 14","CAMPBELL","CA",95008,37.2920694910001,-121.952137344,299,"350 DUNSTER AVE APT 14, CAMPBELL, CA, 95008","Match","Non_Exact","350 DUNSTER DR, CAMPBELL, CA, 95008",122904677,"R"
540300,"350 DUNWOODY COURT","ATLANTA","GA",30350,NA,NA,300,"350 DUNWOODY COURT, ATLANTA, GA, 30350","No_Match",NA,NA,NA,NA
540301,"350 DURANGO DRIVE","MARION","IA",52302,42.048127901,-91.608505533,301,"350 DURANGO DRIVE, MARION, IA, 52302","Match","Exact","350 DURANGO DR, MARION, IA, 52302",649832881,"R"
540302,"350 E 110TH ST","NEW YORK","NY",10029,40.792667255,-73.939338563,302,"350 E 110TH ST, NEW YORK, NY, 10029","Match","Exact","350 E 110TH ST, NEW YORK, NY, 10029",59658182,"R"
540303,"350 E 146TH STREET","BRONX","NY",10451,40.815086969,-73.920965713,303,"350 E 146TH STREET, BRONX, NY, 10451","Match","Exact","350 E 146TH ST, BRONX, NY, 10451",80300365,"R"
540304,"350 E 30TH ST APT 2S","NEW YORK","NY",10016,40.741747622,-73.9764688779999,304,"350 E 30TH ST APT 2S, NEW YORK, NY, 10016","Match","Non_Exact","350 E 30TH ST, NEW YORK, NY, 10016",59654567,"R"
540305,"350 E 52ND STREET 9G","NEW YORK","NY",10022,40.7553175830001,-73.9656894249999,305,"350 E 52ND STREET 9G, NEW YORK, NY, 10022","Match","Non_Exact","350 E 52ND ST, NEW YORK, NY, 10022",650074877,"R"
540306,"350 E COMMERCIAL RD SUITE B-108","LOMA LINDA","CA",92408,34.05582386,-117.27718884,306,"350 E COMMERCIAL RD SUITE B-108, LOMA LINDA, CA, 92408","Match","Non_Exact","350 COMMERCIAL RD, SAN BERNARDINO, CA, 92408",636518236,"L"
540307,"350 E CROWN POINT RD","WINTER GARDEN","FL",34787,28.574713693,-81.566991329,307,"350 E CROWN POINT RD, WINTER GARDEN, FL, 34787","Match","Non_Exact","350 W CROWN POINT RD, WINTER GARDEN, FL, 34787",637120098,"L"
540308,"350 E DAKOTA ST","KECHI","KS",67067,NA,NA,308,"350 E DAKOTA ST, KECHI, KS, 67067","Tie",NA,NA,NA,NA
540309,"350 E DARTMOUTH ST","GLADSTONE","OR",97027,45.3816363600001,-122.590454359,309,"350 E DARTMOUTH ST, GLADSTONE, OR, 97027","Match","Exact","350 E DARTMOUTH ST, GLADSTONE, OR, 97027",157917309,"L"
540310,"350 E DESERT INN RD","LAS VEGAS","NV",89109,36.129744354,-115.15843002,310,"350 E DESERT INN RD, LAS VEGAS, NV, 89109","Match","Exact","350 E DESERT INN RD, LAS VEGAS, NV, 89109",201869864,"L"
540311,"350 E DREXEL AVE","OAK CREEK","WI",53154,42.9010618130001,-87.906607015,311,"350 E DREXEL AVE, OAK CREEK, WI, 53154","Match","Exact","350 E DREXEL AVE, OAK CREEK, WI, 53154",611549408,"R"
540312,"350 E DREXEL AVE","OAK CREEK","WI",53514,42.9010618130001,-87.906607015,312,"350 E DREXEL AVE, OAK CREEK, WI, 53514","Match","Non_Exact","350 E DREXEL AVE, OAK CREEK, WI, 53154",611549408,"R"
540313,"350 E HIGH STREET","LONDON","OH",43140,39.895325557,-83.422963023,313,"350 E HIGH STREET, LONDON, OH, 43140","Match","Exact","350 E HIGH ST, LONDON, OH, 43140",600615375,"R"
540314,"350 E JEFFERSON","HAMPSHIRE","IL",60140,NA,NA,314,"350 E JEFFERSON, HAMPSHIRE, IL, 60140","Tie",NA,NA,NA,NA
540315,"350 E LAS COLINAS BLVD","IRVING","TX",75039,32.864887934,-96.936880215,315,"350 E LAS COLINAS BLVD, IRVING, TX, 75039","Match","Exact","350 E LAS COLINAS BLVD, IRVING, TX, 75039",638654641,"L"
540316,"350 E MAGNOLIA  UNIT 1","AUBURN","AL",36830,NA,NA,316,"350 E MAGNOLIA  UNIT 1, AUBURN, AL, 36830","No_Match",NA,NA,NA,NA
540317,"350 E MAIN STREET","BRIDGEPORT","WV",26330,39.287563898,-80.2461086179999,317,"350 E MAIN STREET, BRIDGEPORT, WV, 26330","Match","Exact","350 E MAIN ST, BRIDGEPORT, WV, 26330",53306033,"L"
540318,"350 E MICHIGAN AVE STE 115","KALAMAZOO","MI",49007,NA,NA,318,"350 E MICHIGAN AVE STE 115, KALAMAZOO, MI, 49007","Tie",NA,NA,NA,NA
540319,"350 E MT DIABLO","TRACY","CA",95376,37.729198275,-121.421766866,319,"350 E MT DIABLO, TRACY, CA, 95376","Match","Non_Exact","350 E MOUNT DIABLO AVE, TRACY, CA, 95376",133879266,"R"
540320,"350 E PERKINS AVE","MCFARLAND","CA",93250,35.6816998570001,-119.223663471,320,"350 E PERKINS AVE, MCFARLAND, CA, 93250","Match","Non_Exact","350 E PERKINS AVE, MC FARLAND, CA, 93250",109002533,"L"
540321,"350 E SECOND STREET","JAMESTOWN","NV",14701,NA,NA,321,"350 E SECOND STREET, JAMESTOWN, NV, 14701","No_Match",NA,NA,NA,NA
540322,"350 E SECOND STREET","JAMESTOWN","NY",14701,42.0969179510001,-79.235454804,322,"350 E SECOND STREET, JAMESTOWN, NY, 14701","Match","Exact","350 E 2ND ST, JAMESTOWN, NY, 14701",120786389,"R"
540323,"350 E SILVA STREET","LONG BEACH","CA",90805,33.8466764350001,-118.189006577,323,"350 E SILVA STREET, LONG BEACH, CA, 90805","Match","Exact","350 E SILVA ST, LONG BEACH, CA, 90805",141684362,"R"
540324,"350 E STRADA PATANIA","TUCSON","AZ",85737,32.4179365150001,-110.965770635,324,"350 E STRADA PATANIA, TUCSON, AZ, 85737","Match","Exact","350 E STRADA PATANIA, TUCSON, AZ, 85737",121163922,"R"
540325,"350 E VISTA RIDGE MALL DR","LEWISVILLE","TX",75067,32.998312834,-96.981157309,325,"350 E VISTA RIDGE MALL DR, LEWISVILLE, TX, 75067","Match","Exact","350 E VISTA RIDGE MALL DR, LEWISVILLE, TX, 75067",614131182,"L"
540326,"350 EARLS FORD ROAD","MOUNTAIN REST","SC",29664,34.8526077130001,-83.2190265569999,326,"350 EARLS FORD ROAD, MOUNTAIN REST, SC, 29664","Match","Exact","350 EARLS FORD RD, MOUNTAIN REST, SC, 29664",644466317,"R"
540327,"350 EAST 137TH ST","BRONX","NY",10454,NA,NA,327,"350 EAST 137TH ST, BRONX, NY, 10454","Tie",NA,NA,NA,NA
540328,"350 EAST 17TH STREET","NEW YORK","NY",10003,40.733637421,-73.98207694,328,"350 EAST 17TH STREET, NEW YORK, NY, 10003","Match","Exact","350 E 17TH ST, NEW YORK, NY, 10003",59654590,"R"
540329,"350 EAST 222 STREET","EUCLID","OH",44123,41.6054212020001,-81.526844135,329,"350 EAST 222 STREET, EUCLID, OH, 44123","Match","Exact","350 E 222ND ST, EUCLID, OH, 44123",61108343,"R"
540330,"350 EAST 57TH STREET FOURTH FLOOR","NEW YORK","NY",10022,40.7587197120001,-73.9639067419999,330,"350 EAST 57TH STREET FOURTH FLOOR, NEW YORK, NY, 10022","Match","Exact","350 E 57TH ST, NEW YORK, NY, 10022",650071160,"R"
540331,"350 EAST 77TH  STREET APARTMENT 1 G","NEW YORK","NY",10075,40.771443075,-73.954657179,331,"350 EAST 77TH  STREET APARTMENT 1 G, NEW YORK, NY, 10075","Match","Exact","350 E 77TH ST, NEW YORK, NY, 10075",650153570,"R"
540332,"350 EAST AVE","CLERMONT","FL",34711,28.559350244,-81.756238679,332,"350 EAST AVE, CLERMONT, FL, 34711","Match","Exact","350 EAST AVE, CLERMONT, FL, 34711",94103573,"L"
540333,"350 EAST MAIN ROAD","MIDDLETOWN","RI",2942,NA,NA,333,"350 EAST MAIN ROAD, MIDDLETOWN, RI, 2942","No_Match",NA,NA,NA,NA
540334,"350 EAST MARION AVENUE","PUNTA GORDA","FL",33950,26.93796647,-82.046775613,334,"350 EAST MARION AVENUE, PUNTA GORDA, FL, 33950","Match","Exact","350 E MARION AVE, PUNTA GORDA, FL, 33950",4332268,"L"
540335,"350 EAST MICHIGAN AVENUE-3RD FLOOR","KALAMAZOO","MI",49007,42.292762694,-85.5796586119999,335,"350 EAST MICHIGAN AVENUE-3RD FLOOR, KALAMAZOO, MI, 49007","Match","Non_Exact","350 E MICHIGAN AVE, KALAMAZOO, MI, 49007",12227506,"R"
540336,"350 EAST MICHIGAN AVENUE","KALAMAZOO","MI",49007,42.292762694,-85.5796586119999,336,"350 EAST MICHIGAN AVENUE, KALAMAZOO, MI, 49007","Match","Exact","350 E MICHIGAN AVE, KALAMAZOO, MI, 49007",12227506,"R"
540337,"350 EAST MORNINGSIDE RD","GREEN VALLEY","AZ",85614,31.859870303,-110.978338886,337,"350 EAST MORNINGSIDE RD, GREEN VALLEY, AZ, 85614","Match","Exact","350 E MORNINGSIDE RD, GREEN VALLEY, AZ, 85614",121386171,"L"
540338,"350 EAST ROYAL LANE SUITE 119","IRVING","TX",75039,32.895694195,-96.9404800299999,338,"350 EAST ROYAL LANE SUITE 119, IRVING, TX, 75039","Match","Exact","350 E ROYAL LN, IRVING, TX, 75039",103243396,"R"
540339,"350 EAST STIRRUP TRAIL","MONUMENT","CO",80132,39.105313795,-104.820253508,339,"350 EAST STIRRUP TRAIL, MONUMENT, CO, 80132","Match","Exact","350 E STIRRUP TRL, MONUMENT, CO, 80132",647971216,"R"
540340,"350 EAST VISTA RIDGE MALL DRIVE 436","LEWSIVILLE","TX",75067,32.998312711,-96.981161511,340,"350 EAST VISTA RIDGE MALL DRIVE 436, LEWSIVILLE, TX, 75067","Match","Non_Exact","350 E VISTA RIDGE MALL DR, LEWISVILLE, TX, 75067",614131182,"L"
540341,"350 EDGERLY","BRIDGE CITY","TX",77611,30.0139204590001,-93.839314363,341,"350 EDGERLY, BRIDGE CITY, TX, 77611","Match","Non_Exact","350 EDGERLY DR, BRIDGE CITY, TX, 77611",74006851,"L"
540342,"350 ELIOT MAIL CENTER","CAMBRIDGE","MA",2138,NA,NA,342,"350 ELIOT MAIL CENTER, CAMBRIDGE, MA, 2138","No_Match",NA,NA,NA,NA
540343,"350 ELM STREET","MENASHA","WI",54952,44.1970099750001,-88.443176196,343,"350 ELM STREET, MENASHA, WI, 54952","Match","Exact","350 ELM ST, MENASHA, WI, 54952",74492711,"L"
540344,"350 EMERALD FOREST BLVD UNIT 14101","COVINGTON","LA",70433,30.4445111420001,-90.0804989169999,344,"350 EMERALD FOREST BLVD UNIT 14101, COVINGTON, LA, 70433","Match","Exact","350 EMERALD FOREST BLVD, COVINGTON, LA, 70433",111304775,"R"
540345,"350 EMERSON AVE","PLAINFIELD","NJ",7062,40.633573217,-74.405275643,345,"350 EMERSON AVE, PLAINFIELD, NJ, 7062","Match","Exact","350 EMERSON AVE, PLAINFIELD, NJ, 07062",60591297,"R"
540346,"350 EMERSON STREET","KENNER","LA",70065,30.011730331,-90.268340763,346,"350 EMERSON STREET, KENNER, LA, 70065","Match","Exact","350 EMERSON ST, KENNER, LA, 70065",93492404,"L"
540347,"350 ENGLE STREET","ENGLEWOOD","NJ",7631,NA,NA,347,"350 ENGLE STREET, ENGLEWOOD, NJ, 7631","No_Match",NA,NA,NA,NA
540348,"350 ERIC DRIVE","PUNXSUTAWNEY","PA",15767,40.9250814440001,-78.996508626,348,"350 ERIC DRIVE, PUNXSUTAWNEY, PA, 15767","Match","Exact","350 ERIC DR, PUNXSUTAWNEY, PA, 15767",66447694,"R"
540349,"350 ERIE HOLLOW","PITTSFIELD","PA",16340,41.7496805960001,-79.433332566,349,"350 ERIE HOLLOW, PITTSFIELD, PA, 16340","Match","Non_Exact","350 ERIE HOLLOW DR, PITTSFIELD, PA, 16340",98686302,"L"
540350,"350 ESSJAY ROAD SUITE 116","WILLIAMSVILLE","NY",14221,42.97232805,-78.735752711,350,"350 ESSJAY ROAD SUITE 116, WILLIAMSVILLE, NY, 14221","Match","Exact","350 ESSJAY RD, WILLIAMSVILLE, NY, 14221",48318643,"L"
540351,"350 EUCLID AVENUE","OAKLAND","CA",94610,37.8128534840001,-122.252368915,351,"350 EUCLID AVENUE, OAKLAND, CA, 94610","Match","Exact","350 EUCLID AVE, OAKLAND, CA, 94610",125000735,"L"
540352,"350 FAIRFOREST WAY APT 5103","GREENVILLE","SC",29607,NA,NA,352,"350 FAIRFOREST WAY APT 5103, GREENVILLE, SC, 29607","No_Match",NA,NA,NA,NA
540353,"350 FAIRGROUND RD","LUCASVILLE","OH",45648,38.890314695,-82.9972543069999,353,"350 FAIRGROUND RD, LUCASVILLE, OH, 45648","Match","Exact","350 FAIRGROUND RD, LUCASVILLE, OH, 45648",647402651,"R"
540354,"350 FAIRMONT STREET","FITCHBURG","MA",1420,42.5785667430001,-71.826408348,354,"350 FAIRMONT STREET, FITCHBURG, MA, 1420","Match","Non_Exact","350 FAIRMOUNT ST, FITCHBURG, MA, 01420",40044464,"L"
540355,"350 FERNDALE DR","BOILING SPRINGS","SC",29316,35.023409327,-81.942799028,355,"350 FERNDALE DR, BOILING SPRINGS, SC, 29316","Match","Exact","350 FERNDALE DR, BOILING SPRINGS, SC, 29316",19462780,"R"
540356,"350 FIFTH AVE  SUITE 5320","NEW YORK","NY",10118,40.748389914,-73.984603238,356,"350 FIFTH AVE  SUITE 5320, NEW YORK, NY, 10118","Match","Exact","350 5TH AVE, NEW YORK, NY, 10118",59653473,"L"
540357,"350 FIFTH AVE 59TH FLOOR","NEW YORK","NY",10118,40.748389914,-73.984603238,357,"350 FIFTH AVE 59TH FLOOR, NEW YORK, NY, 10118","Match","Exact","350 5TH AVE, NEW YORK, NY, 10118",59653473,"L"
540358,"350 FIFTH AVENUE   SUITE 4309","NEW YORK","NY",10118,40.748389914,-73.984603238,358,"350 FIFTH AVENUE   SUITE 4309, NEW YORK, NY, 10118","Match","Exact","350 5TH AVE, NEW YORK, NY, 10118",59653473,"L"
540359,"350 FIFTH AVENUE  SUITE 4309","NEW YORK","NY",10118,40.748389914,-73.984603238,359,"350 FIFTH AVENUE  SUITE 4309, NEW YORK, NY, 10118","Match","Exact","350 5TH AVE, NEW YORK, NY, 10118",59653473,"L"
540360,"350 FIFTH AVENUE 59TH FLOOR","NEW YORK","NY",10118,40.748389914,-73.984603238,360,"350 FIFTH AVENUE 59TH FLOOR, NEW YORK, NY, 10118","Match","Exact","350 5TH AVE, NEW YORK, NY, 10118",59653473,"L"
540361,"350 FIFTH AVENUE SUITE 4515","NEW YORK","NY",10118,40.748389914,-73.984603238,361,"350 FIFTH AVENUE SUITE 4515, NEW YORK, NY, 10118","Match","Exact","350 5TH AVE, NEW YORK, NY, 10118",59653473,"L"
540362,"350 FIRST AVENUE 3F","NEW YORK","NY",10010,NA,NA,362,"350 FIRST AVENUE 3F, NEW YORK, NY, 10010","No_Match",NA,NA,NA,NA
540363,"350 FLORAL DR","WINTER GARDEN","FL",34787,28.570344719,-81.589511607,363,"350 FLORAL DR, WINTER GARDEN, FL, 34787","Match","Exact","350 FLORAL DR, WINTER GARDEN, FL, 34787",94262988,"R"
540364,"350 FLORENCE ROAD","LIBBY","MT",59923,48.411220943,-115.517427746,364,"350 FLORENCE ROAD, LIBBY, MT, 59923","Match","Exact","350 FLORENCE RD, LIBBY, MT, 59923",169685189,"R"
540365,"350 FOREST AVE UNIT 173","LAGUNA BEACH","CA",92652,33.543829406,-117.782133488,365,"350 FOREST AVE UNIT 173, LAGUNA BEACH, CA, 92652","Match","Non_Exact","350 FOREST AVE, LAGUNA BEACH, CA, 92651",144068420,"L"
540366,"350 FOREST INN RD","LEHIGHTON","PA",18235,40.8544200310001,-75.593796852,366,"350 FOREST INN RD, LEHIGHTON, PA, 18235","Match","Exact","350 FOREST INN RD, LEHIGHTON, PA, 18235",652290364,"L"
540367,"350 FOREST MEADOWS DR","MEDINA","OH",44256,41.151122064,-81.855647886,367,"350 FOREST MEADOWS DR, MEDINA, OH, 44256","Match","Exact","350 FOREST MEADOWS DR, MEDINA, OH, 44256",58676173,"R"
540368,"350 FOX RD","JEFFERSONVILLE","KY",40337,37.9801200090001,-83.894829811,368,"350 FOX RD, JEFFERSONVILLE, KY, 40337","Match","Exact","350 FOX RD, JEFFERSONVILLE, KY, 40337",649935636,"L"
540369,"350 FRANCISCO ST","SAN FRANCISCO","CA",94133,37.804997234,-122.411010642,369,"350 FRANCISCO ST, SAN FRANCISCO, CA, 94133","Match","Exact","350 FRANCISCO ST, SAN FRANCISCO, CA, 94133",192280376,"R"
540370,"350 FRANKLIN ST","MARION","OH",43302,40.5852943630001,-83.121970899,370,"350 FRANKLIN ST, MARION, OH, 43302","Match","Exact","350 FRANKLIN ST, MARION, OH, 43302",12714938,"R"
540371,"350 FUR STREET","COLTON","CA",92324,34.09309359,-117.326106259,371,"350 FUR STREET, COLTON, CA, 92324","Match","Non_Exact","350 W FUR ST, COLTON, CA, 92324",145226495,"R"
540372,"350 G ST SW -- 309 NORTH","WASHINGTON","DC",20024,38.8812850250001,-77.015882975,372,"350 G ST SW -- 309 NORTH, WASHINGTON, DC, 20024","Match","Exact","350 G ST SW, WASHINGTON, DC, 20024",76226977,"L"
540373,"350 G ST SW -N404","WASHINGTON","DC",20024,38.8812850250001,-77.015882975,373,"350 G ST SW -N404, WASHINGTON, DC, 20024","Match","Exact","350 G ST SW, WASHINGTON, DC, 20024",76226977,"L"
540374,"350 G ST SW N520","WASHINGTON","DC",20024,38.8812850250001,-77.015882975,374,"350 G ST SW N520, WASHINGTON, DC, 20024","Match","Exact","350 G ST SW, WASHINGTON, DC, 20024",76226977,"L"
540375,"350 G STREET SW N115","WASHINGON","DC",20024,38.8812850250001,-77.015882975,375,"350 G STREET SW N115, WASHINGON, DC, 20024","Match","Non_Exact","350 G ST SW, WASHINGTON, DC, 20024",76226977,"L"
540376,"350 G STREET SW N115","WASHINGTON","DC",20024,38.8812850250001,-77.015882975,376,"350 G STREET SW N115, WASHINGTON, DC, 20024","Match","Exact","350 G ST SW, WASHINGTON, DC, 20024",76226977,"L"
540377,"350 GALES FERRY ROAD","GROTON","CT",6340,41.3921656520001,-72.0347573939999,377,"350 GALES FERRY ROAD, GROTON, CT, 6340","Match","Exact","350 GALES FERRY RD, GROTON, CT, 06340",624587205,"L"
540378,"350 GALLOWAY ST NE APT  212","WASHINGTON","DC",20011,38.9525405140001,-76.999174539,378,"350 GALLOWAY ST NE APT  212, WASHINGTON, DC, 20011","Match","Exact","350 GALLOWAY ST NE, WASHINGTON, DC, 20011",76228060,"L"
540379,"350 GEORGE STREET","NEW HAVEN","CT",6511,41.3055036260001,-72.93142614,379,"350 GEORGE STREET, NEW HAVEN, CT, 6511","Match","Exact","350 GEORGE ST, NEW HAVEN, CT, 06511",3701126,"L"
540380,"350 GLADYS ST","PORTAGE","MI",49002,42.224072124,-85.58686805,380,"350 GLADYS ST, PORTAGE, MI, 49002","Match","Exact","350 GLADYS ST, PORTAGE, MI, 49002",12239933,"L"
540381,"350 GLENWOOD DR","KINSTON","NC",28501,35.2741685190001,-77.582875402,381,"350 GLENWOOD DR, KINSTON, NC, 28501","Match","Non_Exact","350 GLENWOOD AVE, KINSTON, NC, 28501",13875612,"R"
540382,"350 GOLF ROAD","REINHOLDS","PA",17569,40.2992292820001,-76.119680736,382,"350 GOLF ROAD, REINHOLDS, PA, 17569","Match","Exact","350 GOLF RD, REINHOLDS, PA, 17569",80429279,"L"
540383,"350 GRAN VIA SUITE 4092","IRVING","TX",75039,32.8967505480001,-96.940919949,383,"350 GRAN VIA SUITE 4092, IRVING, TX, 75039","Match","Exact","350 GRAN VIA, IRVING, TX, 75039",648194217,"L"
540384,"350 GRAND STREET","NEW YORK","NY",10002,40.716847354,-73.989547816,384,"350 GRAND STREET, NEW YORK, NY, 10002","Match","Exact","350 GRAND ST, NEW YORK, NY, 10002",59654284,"L"
540385,"350 GRAND","SUWANNE","GA",30024,34.11232619,-84.11158596,385,"350 GRAND, SUWANNE, GA, 30024","Match","Non_Exact","350 GRAND AVE, SUWANEE, GA, 30024",70188970,"L"
540386,"350 GRANT 167045","SHERIDAN","AR",72150,34.342957142,-92.3982728839999,386,"350 GRANT 167045, SHERIDAN, AR, 72150","Match","Exact","350 GRANT 167045, SHERIDAN, AR, 72150",644139657,"R"
540387,"350 GRAPETREE DRIVE SUITE 405","KEY BISCAYNE","FL",33149,25.68469522,-80.158938652,387,"350 GRAPETREE DRIVE SUITE 405, KEY BISCAYNE, FL, 33149","Match","Exact","350 GRAPETREE DR, KEY BISCAYNE, FL, 33149",610526536,"R"
540388,"350 GREEN STREET  NO 1","SAN FRANCISCO","CA",94133,37.8000042100001,-122.405076318,388,"350 GREEN STREET  NO 1, SAN FRANCISCO, CA, 94133","Match","Non_Exact","350 GREEN ST, SAN FRANCISCO, CA, 94133",192281066,"R"
540389,"350 GUNSTON HALL CT","HAMPTON","VA",23669,37.0511465490001,-76.322304318,389,"350 GUNSTON HALL CT, HAMPTON, VA, 23669","Match","Exact","350 GUNSTON HALL CT, HAMPTON, VA, 23669",103759720,"R"
540390,"350 GYORR AVE UNIT 1405","SOUTH ELGIN","IL",60177,NA,NA,390,"350 GYORR AVE UNIT 1405, SOUTH ELGIN, IL, 60177","No_Match",NA,NA,NA,NA
540391,"350 HAMETOWN RD","GLEN ROCK","PA",17327,39.7978241700001,-76.695296672,391,"350 HAMETOWN RD, GLEN ROCK, PA, 17327","Match","Exact","350 HAMETOWN RD, GLEN ROCK, PA, 17327",88763571,"L"
540392,"350 HANCOCK STREET","GALLATIN","TN",37066,NA,NA,392,"350 HANCOCK STREET, GALLATIN, TN, 37066","No_Match",NA,NA,NA,NA
540393,"350 HANGER AVE BLDG 549","TRAVIS AFB","CA",94535,NA,NA,393,"350 HANGER AVE BLDG 549, TRAVIS AFB, CA, 94535","No_Match",NA,NA,NA,NA
540394,"350 HARMONY CT APT 58","SUMTER","SC",29153,33.9152201790001,-80.328545106,394,"350 HARMONY CT APT 58, SUMTER, SC, 29153","Match","Exact","350 HARMONY CT, SUMTER, SC, 29153",202669676,"L"
540395,"350 HARRIS ROAD","LEXINGTON","GA",30648,33.9478937380001,-83.087272607,395,"350 HARRIS ROAD, LEXINGTON, GA, 30648","Match","Exact","350 HARRIS RD, LEXINGTON, GA, 30648",650999687,"L"
540396,"350 HAWKS LAKE ROAD","WHITEFISH","MT",59937,48.356948376,-114.464350443,396,"350 HAWKS LAKE ROAD, WHITEFISH, MT, 59937","Match","Non_Exact","350 HAWKS LAKE LN, WHITEFISH, MT, 59937",204189828,"R"
540397,"350 HEMLOCK ST","BROOMFIELD","CO",80020,39.920892979,-105.080594499,397,"350 HEMLOCK ST, BROOMFIELD, CO, 80020","Match","Exact","350 HEMLOCK ST, BROOMFIELD, CO, 80020",210039935,"R"
540398,"350 HERITAGE CIRCLE","MANCHESTER","TN",37355,35.457643256,-86.086826752,398,"350 HERITAGE CIRCLE, MANCHESTER, TN, 37355","Match","Exact","350 HERITAGE CIR, MANCHESTER, TN, 37355",630011220,"L"
540399,"350 HICKORY DR","THOMASVILLE","AL",36784,31.90496747,-87.759805118,399,"350 HICKORY DR, THOMASVILLE, AL, 36784","Match","Exact","350 HICKORY DR, THOMASVILLE, AL, 36784",650865253,"R"
540400,"350 HIGHLAND ROAD","MATTESON","IL",60443,41.521112427,-87.7702511109999,400,"350 HIGHLAND ROAD, MATTESON, IL, 60443","Match","Exact","350 HIGHLAND RD, MATTESON, IL, 60443",649695993,"L"
540401,"350 HIGHWAY 13","CUNNINGHAM","TN",37052,36.3906215710001,-87.3951165079999,401,"350 HIGHWAY 13, CUNNINGHAM, TN, 37052","Match","Exact","350 HWY 13, CUNNINGHAM, TN, 37052",31821027,"R"
540402,"350 HIGHWAY 96 S","SILSBEE","TX",77656,30.3467998670001,-94.1797980539999,402,"350 HIGHWAY 96 S, SILSBEE, TX, 77656","Match","Non_Exact","350 US HWY 96 S, SILSBEE, TX, 77656",23972268,"R"
540403,"350 HILLS AVE","Atlanta","GA",30313,33.745927232,-84.4051721549999,403,"350 HILLS AVE, Atlanta, GA, 30313","Match","Non_Exact","350 HILLS AVE SW, ATLANTA, GA, 30313",17343101,"L"
540404,"350 HILLS AVE","ATLANTA","GA",30313,33.745927232,-84.4051721549999,404,"350 HILLS AVE, ATLANTA, GA, 30313","Match","Non_Exact","350 HILLS AVE SW, ATLANTA, GA, 30313",17343101,"L"
540405,"350 HILLTOP DR APT 103","KING OF PRUSSIA","PA",19406,40.0796481,-75.3622591869999,405,"350 HILLTOP DR APT 103, KING OF PRUSSIA, PA, 19406","Match","Exact","350 HILLTOP DR, KING OF PRUSSIA, PA, 19406",135083736,"L"
540406,"350 HOLLAND STREET","CRUM LYNNE","PA",19022,39.8712945140001,-75.3347502459999,406,"350 HOLLAND STREET, CRUM LYNNE, PA, 19022","Match","Exact","350 HOLLAND ST, CRUM LYNNE, PA, 19022",134882411,"L"
540407,"350 HOLLY HILL DRIVE","MARION","NC",28752,35.67416924,-82.010074824,407,"350 HOLLY HILL DRIVE, MARION, NC, 28752","Match","Exact","350 HOLLY HILL DR, MARION, NC, 28752",35912975,"R"
540408,"350 HOLTSHIRE ROAD","ORANGE","MA",1364,42.5642719840001,-72.324848316,408,"350 HOLTSHIRE ROAD, ORANGE, MA, 1364","Match","Exact","350 HOLTSHIRE RD, ORANGE, MA, 01364",39921373,"L"
540409,"350 HUB ETCHISON PARKWAY","RICHMOND","IN",47374,39.826914167,-84.902742313,409,"350 HUB ETCHISON PARKWAY, RICHMOND, IN, 47374","Match","Non_Exact","350 HUB ETCHINSON PKWY, RICHMOND, IN, 47374",31342571,"L"
540410,"350 HUDSON AVENUE","ALBANY","NY",12210,42.6536067640001,-73.7659342329999,410,"350 HUDSON AVENUE, ALBANY, NY, 12210","Match","Exact","350 HUDSON AVE, ALBANY, NY, 12210",18310181,"L"
540411,"350 HUDSON ST","CORNWALL ON HUDSON","NY",12520,41.4431825350001,-74.023988156,411,"350 HUDSON ST, CORNWALL ON HUDSON, NY, 12520","Match","Exact","350 HUDSON ST, CORNWALL ON HUDSON, NY, 12520",124482011,"L"
540412,"350 HUNTER CREEK LN","NORTHPORT","AL",35473,33.2483243790001,-87.5605538139999,412,"350 HUNTER CREEK LN, NORTHPORT, AL, 35473","Match","Exact","350 HUNTER CREEK LN, NORTHPORT, AL, 35473",647002126,"L"
540413,"350 HUNTERS LANE","HENDERSONVILLE","TN",37075,36.3971276660001,-86.594520178,413,"350 HUNTERS LANE, HENDERSONVILLE, TN, 37075","Match","Exact","350 HUNTERS LN, HENDERSONVILLE, TN, 37075",636668628,"R"
540414,"350 HUNTINGTON ROAD","ATHENS","GA",30606,33.946481734,-83.4639773549999,414,"350 HUNTINGTON ROAD, ATHENS, GA, 30606","Match","Exact","350 HUNTINGTON RD, ATHENS, GA, 30606",619388645,"R"
540415,"350 HWY 9","SPARKMAN","AR",71763,NA,NA,415,"350 HWY 9, SPARKMAN, AR, 71763","No_Match",NA,NA,NA,NA
540416,"350 HYCLIFF TERRACE","STAMFORD","CT",6902,41.0634289610001,-73.561155624,416,"350 HYCLIFF TERRACE, STAMFORD, CT, 6902","Match","Exact","350 HYCLIFF TER, STAMFORD, CT, 06902",3242593,"L"
540417,"350 INDIAN GATE CIRCLE","RIDGELAND","MS",39157,32.4177875240001,-90.162569863,417,"350 INDIAN GATE CIRCLE, RIDGELAND, MS, 39157","Match","Exact","350 INDIAN GATE CIR, RIDGELAND, MS, 39157",152501610,"R"
540418,"350 INDIANA STREET SUITE 300","GOLDEN","CO",80401,39.7221327710001,-105.165432029,418,"350 INDIANA STREET SUITE 300, GOLDEN, CO, 80401","Match","Exact","350 INDIANA ST, GOLDEN, CO, 80401",649026778,"R"
540419,"350 IOWA","BEAUMONT","TX",77705,30.0382857210001,-94.082669611,419,"350 IOWA, BEAUMONT, TX, 77705","Match","Non_Exact","350 IOWA AVE, BEAUMONT, TX, 77705",73858197,"R"
540420,"350 JACKSON STREET 201","SAN FRANCISCO","CA",94111,37.7966702960001,-122.401576514,420,"350 JACKSON STREET 201, SAN FRANCISCO, CA, 94111","Match","Exact","350 JACKSON ST, SAN FRANCISCO, CA, 94111",192281270,"R"
540421,"350 JACKSON STREET","SAN FRANCISCO","CA",94111,37.7966702960001,-122.401576514,421,"350 JACKSON STREET, SAN FRANCISCO, CA, 94111","Match","Exact","350 JACKSON ST, SAN FRANCISCO, CA, 94111",192281270,"R"
540422,"350 JOHN HIGH RD","CAMPOBELLO","SC",29322,35.1388947610001,-82.1711241739999,422,"350 JOHN HIGH RD, CAMPOBELLO, SC, 29322","Match","Exact","350 JOHN HIGH RD, CAMPOBELLO, SC, 29322",653001027,"L"
540423,"350 JOHN ST","BELLEVUE","MI",49021,42.4464481260001,-85.0217765469999,423,"350 JOHN ST, BELLEVUE, MI, 49021","Match","Exact","350 JOHN ST, BELLEVUE, MI, 49021",12032866,"L"
540424,"350 JONATHAN CT","NEWPORT NEWS","VA",23608,37.1321075640001,-76.546888093,424,"350 JONATHAN CT, NEWPORT NEWS, VA, 23608","Match","Exact","350 JONATHAN CT, NEWPORT NEWS, VA, 23608",103750516,"R"
540425,"350 KALAMAZOO ST","ALLEGAN","MI",49010,42.5206724110001,-85.8443742869999,425,"350 KALAMAZOO ST, ALLEGAN, MI, 49010","Match","Exact","350 KALAMAZOO ST, ALLEGAN, MI, 49010",11419154,"L"
540426,"350 KELLEY LANE","W MELBOURNE","FL",32904,28.072306671,-80.6389911529999,426,"350 KELLEY LANE, W MELBOURNE, FL, 32904","Match","Non_Exact","350 KELLY LN, W MELBOURNE, FL, 32904",93904710,"R"
540427,"350 KENTIA RD","CASSELBERRY","FL",32707,28.6548191950001,-81.327496332,427,"350 KENTIA RD, CASSELBERRY, FL, 32707","Match","Exact","350 KENTIA RD, CASSELBERRY, FL, 32707",93744023,"R"
540428,"350 KOPCHAK RD","ZANESVILLE","OH",43701,39.9456658410001,-82.0671780329999,428,"350 KOPCHAK RD, ZANESVILLE, OH, 43701","Match","Exact","350 KOPCHAK RD, ZANESVILLE, OH, 43701",606443553,"R"
540429,"350 KUBITZA DRIVE","MART","TX",76664,31.5820511810001,-96.916140898,429,"350 KUBITZA DRIVE, MART, TX, 76664","Match","Exact","350 KUBITZA DR, MART, TX, 76664",146748163,"L"
540430,"350 LAKE SHORE DRIVE","MONROE","NY",10950,41.374321395,-74.186263492,430,"350 LAKE SHORE DRIVE, MONROE, NY, 10950","Match","Exact","350 LAKE SHORE DR, MONROE, NY, 10950",124401573,"L"
540431,"350 LAKESHORE DRIVE","HOMEWOOD","AL",35209,33.4585420430001,-86.8002893999999,431,"350 LAKESHORE DRIVE, HOMEWOOD, AL, 35209","Match","Exact","350 LAKESHORE DR, HOMEWOOD, AL, 35209",638588184,"L"
540432,"350 LAKESIDE DRIVE","MILLEDGEVILLE","GA",31061,33.098007464,-83.24115173,432,"350 LAKESIDE DRIVE, MILLEDGEVILLE, GA, 31061","Match","Exact","350 LAKESIDE DR, MILLEDGEVILLE, GA, 31061",16582585,"R"
540433,"350 LAKESIDE WAY","BOWLING GREEN","KY",42103,36.971751924,-86.371089089,433,"350 LAKESIDE WAY, BOWLING GREEN, KY, 42103","Match","Exact","350 LAKESIDE WAY, BOWLING GREEN, KY, 42103",28019381,"R"
540434,"350 LAKEVIEW DR","BREMEN","GA",30110,33.734071864,-85.158138246,434,"350 LAKEVIEW DR, BREMEN, GA, 30110","Match","Exact","350 LAKEVIEW DR, BREMEN, GA, 30110",610524402,"L"
540435,"350 LAKEVIEW DRIVE","BREMEN","GA",30110,33.734071864,-85.158138246,435,"350 LAKEVIEW DRIVE, BREMEN, GA, 30110","Match","Exact","350 LAKEVIEW DR, BREMEN, GA, 30110",610524402,"L"
540436,"350 LAS COLINAS BLVD E  APT 3112","IRVING","TX",75039,NA,NA,436,"350 LAS COLINAS BLVD E  APT 3112, IRVING, TX, 75039","No_Match",NA,NA,NA,NA
540437,"350 LAS COLINAS BLVD E APT 3010","IRVING","TX",75039,NA,NA,437,"350 LAS COLINAS BLVD E APT 3010, IRVING, TX, 75039","No_Match",NA,NA,NA,NA
540438,"350 LAURETTA LANE","HUBBARD","OH",44425,41.1603177000001,-80.556174552,438,"350 LAURETTA LANE, HUBBARD, OH, 44425","Match","Exact","350 LAURETTA LN, HUBBARD, OH, 44425",117418686,"R"
540439,"350 LAWNWOOD DRIVE","CIRCLEVILLE","OH",43113,39.609328367,-82.9341426729999,439,"350 LAWNWOOD DRIVE, CIRCLEVILLE, OH, 43113","Match","Exact","350 LAWNWOOD DR, CIRCLEVILLE, OH, 43113",37448709,"R"
540440,"350 LEDGEWOOD BEACH RD","COUPEVILLE","WA",98239,48.1374867420001,-122.595901114,440,"350 LEDGEWOOD BEACH RD, COUPEVILLE, WA, 98239","Match","Exact","350 LEDGEWOOD BEACH RD, COUPEVILLE, WA, 98239",187583635,"R"
540441,"350 LEE ROAD 2046","SMITHS STATION","AL",36877,32.5627882140001,-85.1392618099999,441,"350 LEE ROAD 2046, SMITHS STATION, AL, 36877","Match","Exact","350 LEE RD 2046, SMITHS STATION, AL, 36877",627983735,"R"
540442,"350 LEFFERTS AVE APT 1B","BROOKLYN","NY",11225,40.662420309,-73.949670235,442,"350 LEFFERTS AVE APT 1B, BROOKLYN, NY, 11225","Match","Exact","350 LEFFERTS AVE, BROOKLYN, NY, 11225",59079581,"R"
540443,"350 LEFFERTS AVE STE 4C","BROOKLYN","NY",11225,40.662420309,-73.949670235,443,"350 LEFFERTS AVE STE 4C, BROOKLYN, NY, 11225","Match","Exact","350 LEFFERTS AVE, BROOKLYN, NY, 11225",59079581,"R"
540444,"350 LEFFERTS AVENUE STE 2-E","BROOKLYN","NY",11225,40.662420309,-73.949670235,444,"350 LEFFERTS AVENUE STE 2-E, BROOKLYN, NY, 11225","Match","Exact","350 LEFFERTS AVE, BROOKLYN, NY, 11225",59079581,"R"
540445,"350 LEMONA ST","WOODLAKE","CA",93286,36.418269561,-119.096448395,445,"350 LEMONA ST, WOODLAKE, CA, 93286","Match","Exact","350 LEMONA ST, WOODLAKE, CA, 93286",202761443,"R"
540446,"350 LENOX AVENUE","NEW YORK","NY",10027,40.809446925,-73.944254831,446,"350 LENOX AVENUE, NEW YORK, NY, 10027","Match","Exact","350 LENOX AVE, NEW YORK, NY, 10027",59656426,"R"
540447,"350 LENOX ROAD APT 4K","BROOKLYN","NY",11226,40.6542725400001,-73.947976405,447,"350 LENOX ROAD APT 4K, BROOKLYN, NY, 11226","Match","Exact","350 LENOX RD, BROOKLYN, NY, 11226",650075112,"R"
540448,"350 LENOX ROAD APT 6D","BROOKLYN","NY",11226,40.6542725400001,-73.947976405,448,"350 LENOX ROAD APT 6D, BROOKLYN, NY, 11226","Match","Exact","350 LENOX RD, BROOKLYN, NY, 11226",650075112,"R"
540449,"350 LIL WOLF CIRCLE","OREFIELD","PA",18069,NA,NA,449,"350 LIL WOLF CIRCLE, OREFIELD, PA, 18069","No_Match",NA,NA,NA,NA
540450,"350 LILLIAN ROAD","LEECHBURG","PA",15656,40.6229097040001,-79.594163179,450,"350 LILLIAN ROAD, LEECHBURG, PA, 15656","Match","Exact","350 LILLIAN RD, LEECHBURG, PA, 15656",639720309,"L"
540451,"350 LINCOLN PLACE APT 4B","BROOKLYN","NY",11238,40.673121327,-73.964473028,451,"350 LINCOLN PLACE APT 4B, BROOKLYN, NY, 11238","Match","Exact","350 LINCOLN PL, BROOKLYN, NY, 11238",650086776,"R"
540452,"350 LINCOLN PLACE APT 4R","BROOKLYN","NY",11238,40.673121327,-73.964473028,452,"350 LINCOLN PLACE APT 4R, BROOKLYN, NY, 11238","Match","Exact","350 LINCOLN PL, BROOKLYN, NY, 11238",650086776,"R"
540453,"350 LINCOLN ROAD","GROSSE POINTE","MI",48230,42.389379143,-82.904681099,453,"350 LINCOLN ROAD, GROSSE POINTE, MI, 48230","Match","Exact","350 LINCOLN RD, GROSSE POINTE, MI, 48230",95489511,"R"
540454,"350 LOCUST DRIVE","VALLEJO","CA",94591,38.112567964,-122.206994102,454,"350 LOCUST DRIVE, VALLEJO, CA, 94591","Match","Exact","350 LOCUST DR, VALLEJO, CA, 94591",649681898,"L"
540455,"350 LONG RIDGE ROAD","BREVARD","NC",28712,NA,NA,455,"350 LONG RIDGE ROAD, BREVARD, NC, 28712","No_Match",NA,NA,NA,NA
540456,"350 LOOKOUT HIGH STREET","CHATTANOOGA","TN",37419,35.0345007670001,-85.364781318,456,"350 LOOKOUT HIGH STREET, CHATTANOOGA, TN, 37419","Match","Exact","350 LOOKOUT HIGH ST, CHATTANOOGA, TN, 37419",59302195,"R"
540457,"350 LOWELL ROAD","XENIA","OH",45385,39.690712526,-83.9526631749999,457,"350 LOWELL ROAD, XENIA, OH, 45385","Match","Non_Exact","350 LOWELL DR, XENIA, OH, 45385",143379440,"R"
540458,"350 LYNC LN","YAKIMA","WA",98923,NA,NA,458,"350 LYNC LN, YAKIMA, WA, 98923","No_Match",NA,NA,NA,NA
540459,"350 MACDONOUGH STREET","BROOKLYN","NY",11233,40.6822506780001,-73.932920471,459,"350 MACDONOUGH STREET, BROOKLYN, NY, 11233","Match","Exact","350 MACDONOUGH ST, BROOKLYN, NY, 11233",59082772,"R"
540460,"350 MADISON AVE SE","GRAND RAPIDS","MI",49503,42.956799608,-85.659150787,460,"350 MADISON AVE SE, GRAND RAPIDS, MI, 49503","Match","Exact","350 MADISON AVE SE, GRAND RAPIDS, MI, 49503",12457825,"L"
540461,"350 MADISON AVENUE","DETROIT","MI",48226,42.3372963780001,-83.046072328,461,"350 MADISON AVENUE, DETROIT, MI, 48226","Match","Non_Exact","350 MADISON ST, DETROIT, MI, 48226",95484230,"R"
540462,"350 MADISON","GRAND RAPIDS","MI",49503,NA,NA,462,"350 MADISON, GRAND RAPIDS, MI, 49503","No_Match",NA,NA,NA,NA
540463,"350 MANE CT","TARPON SPRINGS","FL",34688,28.1437506940001,-82.693705984,463,"350 MANE CT, TARPON SPRINGS, FL, 34688","Match","Exact","350 MANE CT, TARPON SPNGS, FL, 34688",124754942,"L"
540464,"350 MANHATTAN AVE APT 5B","NEW YORK","NY",10026,40.804093718,-73.957502887,464,"350 MANHATTAN AVE APT 5B, NEW YORK, NY, 10026","Match","Exact","350 MANHATTAN AVE, NEW YORK, NY, 10026",59657648,"R"
540465,"350 MANHATTAN AVENUE   APT 4-B","NEW YORK","NY",10026,40.804093718,-73.957502887,465,"350 MANHATTAN AVENUE   APT 4-B, NEW YORK, NY, 10026","Match","Exact","350 MANHATTAN AVE, NEW YORK, NY, 10026",59657648,"R"
540466,"350 MAPLE STREET","FREMONT","MI",49412,NA,NA,466,"350 MAPLE STREET, FREMONT, MI, 49412","Tie",NA,NA,NA,NA
540467,"350 MATTERHORN DRIVE","PARK CITY","UT",84098,40.7380205010001,-111.603541786,467,"350 MATTERHORN DRIVE, PARK CITY, UT, 84098","Match","Exact","350 MATTERHORN DR, PARK CITY, UT, 84098",160624435,"L"
540468,"350 MAY ST APT 3H","NEW ROCHELLE","NY",10801,NA,NA,468,"350 MAY ST APT 3H, NEW ROCHELLE, NY, 10801","No_Match",NA,NA,NA,NA
540469,"350 MAYNARD CR","SACRAMENTO","CA",95835,NA,NA,469,"350 MAYNARD CR, SACRAMENTO, CA, 95835","No_Match",NA,NA,NA,NA
540470,"350 MCARTHUR STREET","BLAIRSVILLE","PA",15717,40.426502806,-79.2560357839999,470,"350 MCARTHUR STREET, BLAIRSVILLE, PA, 15717","Match","Exact","350 MCARTHUR ST, BLAIRSVILLE, PA, 15717",66307116,"R"
540471,"350 MCELHANNEY RD","TRAVELERS REST","SC",29690,34.961966336,-82.4513470109999,471,"350 MCELHANNEY RD, TRAVELERS REST, SC, 29690","Match","Non_Exact","350 MCELHANEY RD, TRAVELERS REST, SC, 29690",38294769,"R"
540472,"350 MEADOWLARK CT","MARCO ISLAND","FL",34145,25.949370215,-81.700995914,472,"350 MEADOWLARK CT, MARCO ISLAND, FL, 34145","Match","Exact","350 MEADOWLARK CT, MARCO ISLAND, FL, 34145",115122338,"L"
540473,"350 MENDOCINO CT","TULARE","CA",93274,NA,NA,473,"350 MENDOCINO CT, TULARE, CA, 93274","No_Match",NA,NA,NA,NA
540474,"350 MERCY STREET","PHILADELPHIA","PA",19148,39.92253551,-75.1519236079999,474,"350 MERCY STREET, PHILADELPHIA, PA, 19148","Match","Exact","350 MERCY ST, PHILADELPHIA, PA, 19148",131436791,"L"
540475,"350 MERRELL DR","WINSTON SALEM","NC",27127,36.0523990550001,-80.244380058,475,"350 MERRELL DR, WINSTON SALEM, NC, 27127","Match","Exact","350 MERRELL DR, WINSTON SALEM, NC, 27127",84624477,"R"
540476,"350 MERRICK ROAD","ROCKVILLE CENTRE","NY",11570,40.6558262020001,-73.642219309,476,"350 MERRICK ROAD, ROCKVILLE CENTRE, NY, 11570","Match","Exact","350 MERRICK RD, ROCKVILLE CENTRE, NY, 11570",147832405,"R"
540477,"350 MILL CREEK LANE","STUARTS DRAFT","VA",24477,37.97079576,-78.9711128659999,477,"350 MILL CREEK LANE, STUARTS DRAFT, VA, 24477","Match","Exact","350 MILL CREEK LN, STUARTS DRAFT, VA, 24477",98838037,"R"
540478,"350 MILLBURN AVENUE SUITE 2","MILLBURN","NJ",7041,40.7237433760001,-74.307768379,478,"350 MILLBURN AVENUE SUITE 2, MILLBURN, NJ, 7041","Match","Exact","350 MILLBURN AVE, MILLBURN, NJ, 07041",63461831,"L"
540479,"350 MOFFITT BLVD 2ND FLOOR","ISLIP","NY",11751,40.7363608410001,-73.210145311,479,"350 MOFFITT BLVD 2ND FLOOR, ISLIP, NY, 11751","Match","Exact","350 MOFFITT BLVD, ISLIP, NY, 11751",113997917,"R"
540480,"350 MONTRIDGE DRIVE","CANFIELD","OH",44406,41.0303524440001,-80.748811482,480,"350 MONTRIDGE DRIVE, CANFIELD, OH, 44406","Match","Exact","350 MONTRIDGE DR, CANFIELD, OH, 44406",64593090,"R"
540481,"350 MOODY STREET","LOWELL","MA",1854,42.6482668250001,-71.317376946,481,"350 MOODY STREET, LOWELL, MA, 1854","Match","Exact","350 MOODY ST, LOWELL, MA, 01854",87109666,"L"
540482,"350 MOOSEHEAD TRAIL","WALDO","ME",4915,44.4736843050001,-69.0869247589999,482,"350 MOOSEHEAD TRAIL, WALDO, ME, 4915","Match","Exact","350 MOOSEHEAD TRL, WALDO, ME, 04915",75642340,"L"
540483,"350 MORTON STREET","MORGANTOWN","IN",46160,39.3690823000001,-86.264326416,483,"350 MORTON STREET, MORGANTOWN, IN, 46160","Match","Exact","350 MORTON ST, MORGANTOWN, IN, 46160",43566927,"L"
540484,"350 MOTOR PARKWAY SUITE 309","HAUPPAUGE","NY",11788,40.8077205810001,-73.241594177,484,"350 MOTOR PARKWAY SUITE 309, HAUPPAUGE, NY, 11788","Match","Exact","350 MOTOR PKWY, HAUPPAUGE, NY, 11788",114245051,"R"
540485,"350 MOUNT VERNON ROAD","UNION","SC",29379,34.648388939,-81.614106149,485,"350 MOUNT VERNON ROAD, UNION, SC, 29379","Match","Exact","350 MT VERNON RD, UNION, SC, 29379",624530471,"L"
540486,"350 MOURNING DOVE DRIVE","NEWARK","DE",19711,39.7297909160001,-75.72232173,486,"350 MOURNING DOVE DRIVE, NEWARK, DE, 19711","Match","Exact","350 MOURNING DOVE DR, NEWARK, DE, 19711",187285275,"L"
540487,"350 MT VERNON ROAD","UNION","SC",29379,34.648388939,-81.614106149,487,"350 MT VERNON ROAD, UNION, SC, 29379","Match","Exact","350 MT VERNON RD, UNION, SC, 29379",624530471,"L"
540488,"350 MULBERRY MANOR CT","ALPHARETTA","GA",30005,34.085104964,-84.2013838509999,488,"350 MULBERRY MANOR CT, ALPHARETTA, GA, 30005","Match","Exact","350 MULBERRY MANOR CT, ALPHARETTA, GA, 30005",17377666,"L"
540489,"350 N 300 W","MANTI","UT",84642,39.270558335,-111.64259907,489,"350 N 300 W, MANTI, UT, 84642","Match","Exact","350 N 300 W, MANTI, UT, 84642",133777462,"R"
540490,"350 N 4TH STREET","Indiana","PA",15701,40.6282083350001,-79.1455709049999,490,"350 N 4TH STREET, Indiana, PA, 15701","Match","Exact","350 N 4TH ST, INDIANA, PA, 15701",66285622,"L"
540491,"350 N 4TH STREET","INDIANA","PA",15701,40.6282083350001,-79.1455709049999,491,"350 N 4TH STREET, INDIANA, PA, 15701","Match","Exact","350 N 4TH ST, INDIANA, PA, 15701",66285622,"L"
540492,"350 N 900 E","OREM","UT",84097,40.3034817870001,-111.67403561,492,"350 N 900 E, OREM, UT, 84097","Match","Exact","350 N 900 E, OREM, UT, 84097",134205776,"R"
540493,"350 N AKRON RD B-19  SUITE  1073","MOFFETT FIELD","CA",94035,NA,NA,493,"350 N AKRON RD B-19  SUITE  1073, MOFFETT FIELD, CA, 94035","No_Match",NA,NA,NA,NA
540494,"350 N AKRON RD B-19 SUITE 1073","MOFFETT FIELD","CA",94035,NA,NA,494,"350 N AKRON RD B-19 SUITE 1073, MOFFETT FIELD, CA, 94035","No_Match",NA,NA,NA,NA
540495,"350 N CLEVELAND AVE","LOVELAND","CO",80537,40.395628016,-105.074530573,495,"350 N CLEVELAND AVE, LOVELAND, CO, 80537","Match","Exact","350 CLEVELAND AVE, LOVELAND, CO, 80537",188486001,"R"
540496,"350 N COLLEGE STREET","HARRODSBURG","KY",40330,37.7659428050001,-84.845282012,496,"350 N COLLEGE STREET, HARRODSBURG, KY, 40330","Match","Exact","350 N COLLEGE ST, HARRODSBURG, KY, 40330",640046719,"L"
540497,"350 N EL CAMINO REAL SPC 44","ENCINITAS","CA",92024,NA,NA,497,"350 N EL CAMINO REAL SPC 44, ENCINITAS, CA, 92024","Tie",NA,NA,NA,NA
540498,"350 N EL CAMINO REAL SPC 76","ENCINITAS","CA",92024,NA,NA,498,"350 N EL CAMINO REAL SPC 76, ENCINITAS, CA, 92024","Tie",NA,NA,NA,NA
540499,"350 N ERVAY  STE 1409","DALLAS","TX",75201,NA,NA,499,"350 N ERVAY  STE 1409, DALLAS, TX, 75201","No_Match",NA,NA,NA,NA
540500,"350 N ERVAY NO 1409","DALLAS","TX",75201,NA,NA,500,"350 N ERVAY NO 1409, DALLAS, TX, 75201","No_Match",NA,NA,NA,NA
