"ID","Address","City","State","Zip","lat","long","id","input_address","match_indicator","match_type","matched_address","tiger_line_id","tiger_side"
295501,"1941 WARING ROAD","TURLOCK","CA",95382,37.5097082250001,-120.812128125,1,"1941 WARING ROAD, TURLOCK, CA, 95382","Match","Exact","1941 WARING RD, TURLOCK, CA, 95382",102640000,"R"
295502,"1941 WASHINGTON STREET","HOLLYWOOD","FL",33020,26.0040657810001,-80.145669606,2,"1941 WASHINGTON STREET, HOLLYWOOD, FL, 33020","Match","Exact","1941 WASHINGTON ST, HOLLYWOOD, FL, 33020",114732596,"R"
295503,"1941 WESTERN AVENUE APARTMENT 1108","ALBANY","NY",12203,42.6931299120001,-73.8758044749999,3,"1941 WESTERN AVENUE APARTMENT 1108, ALBANY, NY, 12203","Match","Exact","1941 WESTERN AVE, ALBANY, NY, 12203",636408284,"R"
295504,"19410 19TH AVE E","SPANAWAY","WA",98387,47.0803252100001,-122.404116934,4,"19410 19TH AVE E, SPANAWAY, WA, 98387","Match","Exact","19410 19TH AVE E, SPANAWAY, WA, 98387",645395146,"R"
295505,"19410 CLEVERA WALK LN","HOUSTON","TX",77084,29.8144028080001,-95.70910294,5,"19410 CLEVERA WALK LN, HOUSTON, TX, 77084","Match","Exact","19410 CLEVERA WALK LN, HOUSTON, TX, 77084",630848024,"L"
295506,"19410 DORCHESTER CT","BRISTOL","IN",46507,41.67745044,-85.839697218,6,"19410 DORCHESTER CT, BRISTOL, IN, 46507","Match","Exact","19410 DORCHESTER CT, BRISTOL, IN, 46507",624524662,"L"
295507,"19410 GAINSBOROUGH","DETROIT","MI",48224,NA,NA,7,"19410 GAINSBOROUGH, DETROIT, MI, 48224","No_Match",NA,NA,NA,NA
295508,"19410 HARSAX AVENUE","CLEVELAND","OH",44135,41.4375787610001,-81.83592219,8,"19410 HARSAX AVENUE, CLEVELAND, OH, 44135","Match","Exact","19410 HARSAX AVE, CLEVELAND, OH, 44135",61098989,"R"
295509,"19410 MERRIMAN COURT","LIVONIA","MI",48152,42.42954795,-83.3538491849999,9,"19410 MERRIMAN COURT, LIVONIA, MI, 48152","Match","Exact","19410 MERRIMAN CT, LIVONIA, MI, 48152",95406966,"R"
295510,"19410 N 1300 E","LOOGOOTEE","IN",47553,38.780766193,-86.9229764629999,10,"19410 N 1300 E, LOOGOOTEE, IN, 47553","Match","Non_Exact","19410 CO RD 1300 E, LOOGOOTEE, IN, 47553",642885953,"R"
295511,"19410 NW 8TH STREET","PEMBROKE PINES","FL",33029,26.014237059,-80.405213292,11,"19410 NW 8TH STREET, PEMBROKE PINES, FL, 33029","Match","Exact","19410 NW 8TH ST, PEMBROKE PINES, FL, 33029",114771030,"R"
295512,"19410 V ST","OMAHA","NE",68135,41.200305588,-96.219524238,12,"19410 V ST, OMAHA, NE, 68135","Match","Exact","19410 V ST, OMAHA, NE, 68135",624351926,"L"
295513,"19410 WHISPERING BROOK DRIVE","TAMPA","FL",33647,28.1665877350001,-82.303855542,13,"19410 WHISPERING BROOK DRIVE, TAMPA, FL, 33647","Match","Exact","19410 WHISPERING BROOK DR, TAMPA, FL, 33647",641602780,"L"
295514,"19411 COPPER RIDGE RD","HOUGHTON","MI",49931,47.0918064730001,-88.58766746,14,"19411 COPPER RIDGE RD, HOUGHTON, MI, 49931","Match","Exact","19411 COPPER RIDGE, HOUGHTON, MI, 49931",184123185,"L"
295515,"19411 DRY GULCH RD","CORONA","CA",92881,33.837834103,-117.534376129,15,"19411 DRY GULCH RD, CORONA, CA, 92881","Match","Exact","19411 DRY GULCH RD, CORONA, CA, 92881",194794308,"L"
295516,"19411 HELENBERG RD STE 204","COVINGTON","LA",70433,30.431515318,-90.077601783,16,"19411 HELENBERG RD STE 204, COVINGTON, LA, 70433","Match","Exact","19411 HELENBERG RD, COVINGTON, LA, 70433",649113239,"L"
295517,"19411 HELENBERG RD SUITE 204","COVINGTON","LA",70433,30.431515318,-90.077601783,17,"19411 HELENBERG RD SUITE 204, COVINGTON, LA, 70433","Match","Exact","19411 HELENBERG RD, COVINGTON, LA, 70433",649113239,"L"
295518,"19411 NW 18TH CT","MIAMI GARDENS","FL",33056,25.951399135,-80.232883559,18,"19411 NW 18TH CT, MIAMI GARDENS, FL, 33056","Match","Exact","19411 NW 18TH CT, MIAMI GARDENS, FL, 33056",116044131,"R"
295519,"19411 SHILOH CREEK","KATY","TX",77449,NA,NA,19,"19411 SHILOH CREEK, KATY, TX, 77449","Tie",NA,NA,NA,NA
295520,"19411 SIERRA NOCHE RD","IRVINE","CA",92603,33.632006872,-117.815714877,20,"19411 SIERRA NOCHE RD, IRVINE, CA, 92603","Match","Exact","19411 SIERRA NOCHE RD, IRVINE, CA, 92603",144059686,"R"
295521,"19411 W MCNICHOLS RD","DETROIT","MI",48219,42.4152626850001,-83.2333181829999,21,"19411 W MCNICHOLS RD, DETROIT, MI, 48219","Match","Exact","19411 W MCNICHOLS RD, DETROIT, MI, 48219",95422266,"L"
295522,"19411 WATER POINT TRAIL","HUMBLE","TX",77346,30.0201347770001,-95.1677591179999,22,"19411 WATER POINT TRAIL, HUMBLE, TX, 77346","Match","Exact","19411 WATER POINT TRL, HUMBLE, TX, 77346",96428663,"R"
295523,"19411 WATER POINT TRAIL","KING WOOD","TX",77346,30.0201347770001,-95.1677591179999,23,"19411 WATER POINT TRAIL, KING WOOD, TX, 77346","Match","Non_Exact","19411 WATER POINT TRL, KINGWOOD, TX, 77346",96428663,"R"
295524,"19412 115TH PL SE","KENT","WA",98031,47.428131867,-122.187102737,24,"19412 115TH PL SE, KENT, WA, 98031","Match","Exact","19412 115TH PL SE, KENT, WA, 98031",635744795,"R"
295525,"19412 40TH AVE W APT 214","LYNNWOOD","WA",98036,47.822579352,-122.287071161,25,"19412 40TH AVE W APT 214, LYNNWOOD, WA, 98036","Match","Exact","19412 40TH AVE W, LYNNWOOD, WA, 98036",636720616,"L"
295526,"19412 E DICKENSON PL","AURORA","CO",80013,39.6743174900001,-104.761438351,26,"19412 E DICKENSON PL, AURORA, CO, 80013","Match","Exact","19412 E DICKENSON PL, AURORA, CO, 80013",177530923,"L"
295527,"19412 FRONT STREET","LEESBURG","VA",20176,39.079060401,-77.4942755879999,27,"19412 FRONT STREET, LEESBURG, VA, 20176","Match","Exact","19412 FRONT ST, LEESBURG, VA, 20176",634595296,"R"
295528,"19412 FRONT STREET","LEESBURGH","VA",20176,39.079060401,-77.4942755879999,28,"19412 FRONT STREET, LEESBURGH, VA, 20176","Match","Non_Exact","19412 FRONT ST, LEESBURG, VA, 20176",634595296,"R"
295529,"19412 MACGREGOR CIRCLE","HUNTINGTON BEACH","CA",92648,33.6791989220001,-118.02698812,29,"19412 MACGREGOR CIRCLE, HUNTINGTON BEACH, CA, 92648","Match","Exact","19412 MACGREGOR CIR, HUNTINGTON BEACH, CA, 92648",144251402,"R"
295530,"19412 PEARL DRIVE","HAGERSTOWN","MD",21742,39.6810648150001,-77.69536521,30,"19412 PEARL DRIVE, HAGERSTOWN, MD, 21742","Match","Exact","19412 PEARL DR, HAGERSTOWN, MD, 21742",650327806,"L"
295531,"19413 CROSSDALE AVE","CERRITOS","CA",90703,33.854439197,-118.097244544,31,"19413 CROSSDALE AVE, CERRITOS, CA, 90703","Match","Exact","19413 CROSSDALE AVE, CERRITOS, CA, 90703",141743525,"R"
295532,"19414 CHERRYWOOD LANE","CHERRYWOOD LANE","OH",44128,41.4437671410001,-81.542451533,32,"19414 CHERRYWOOD LANE, CHERRYWOOD LANE, OH, 44128","Match","Non_Exact","19414 CHERRYWOOD LN, CLEVELAND, OH, 44128",61129317,"R"
295533,"19414 CLIMBING OAKS DRIVE","HUMBLE","TX",77346,30.004073313,-95.18122683,33,"19414 CLIMBING OAKS DRIVE, HUMBLE, TX, 77346","Match","Exact","19414 CLIMBING OAKS DR, HUMBLE, TX, 77346",96049162,"L"
295534,"19414 CREEK BEND DR","SPRING","TX",77388,30.04903546,-95.4551075429999,34,"19414 CREEK BEND DR, SPRING, TX, 77388","Match","Exact","19414 CREEK BEND DR, SPRING, TX, 77388",635246946,"R"
295535,"19414 DAWNTREADER DR","CYPRESS","TX",77429,29.983504216,-95.721873766,35,"19414 DAWNTREADER DR, CYPRESS, TX, 77429","Match","Exact","19414 DAWNTREADER DR, CYPRESS, TX, 77429",625722102,"L"
295536,"19414 DRY GULCH RD","CORONA","CA",92881,33.8377867340001,-117.534341332,36,"19414 DRY GULCH RD, CORONA, CA, 92881","Match","Exact","19414 DRY GULCH RD, CORONA, CA, 92881",194794308,"R"
295537,"19414 DUCK CREEK RD","METAMORA","IN",47030,39.4530755760001,-85.14034874,37,"19414 DUCK CREEK RD, METAMORA, IN, 47030","Match","Exact","19414 DUCK CREEK RD, METAMORA, IN, 47030",634344663,"R"
295538,"19414 LONDELIUS ST","NORTHRIDGE","CA",91324,34.229863971,-118.5560247,38,"19414 LONDELIUS ST, NORTHRIDGE, CA, 91324","Match","Exact","19414 LONDELIUS ST, NORTHRIDGE, CA, 91324",141540251,"L"
295539,"19414 ROBINSON ST","PERRIS","CA",92570,33.8386643000001,-117.281839493,39,"19414 ROBINSON ST, PERRIS, CA, 92570","Match","Exact","19414 ROBINSON ST, PERRIS, CA, 92570",194748790,"L"
295540,"19414 SANCTUARY ROSEBUD LN","SPRING","TX",77388,30.0542304040001,-95.491602085,40,"19414 SANCTUARY ROSEBUD LN, SPRING, TX, 77388","Match","Exact","19414 SANCTUARY ROSEBUD LN, SPRING, TX, 77388",645009226,"L"
295541,"19414 THUNDER ROCK RD","KATY","TX",77449,29.8767345470001,-95.7078311559999,41,"19414 THUNDER ROCK RD, KATY, TX, 77449","Match","Non_Exact","19414 THUNDER ROCK DR, KATY, TX, 77449",96014130,"L"
295542,"19414","NORTHRIDGE","CA",91324,NA,NA,42,"19414, NORTHRIDGE, CA, 91324","No_Match",NA,NA,NA,NA
295543,"19415 BELSHAW AVENUE","CARSON","CA",90746,33.8549095550001,-118.25649023,43,"19415 BELSHAW AVENUE, CARSON, CA, 90746","Match","Exact","19415 BELSHAW AVE, CARSON, CA, 90746",141680598,"R"
295544,"19415 DEERFIELD AVE 213","LEESBURG","VA",20176,NA,NA,44,"19415 DEERFIELD AVE 213, LEESBURG, VA, 20176","No_Match",NA,NA,NA,NA
295545,"19415 DEERFIELD AVE STE 112","LANSDOWNE","VA",20176,NA,NA,45,"19415 DEERFIELD AVE STE 112, LANSDOWNE, VA, 20176","No_Match",NA,NA,NA,NA
295546,"19415 DEERFIELD AVENUE STE 306","LANDSDOWNE","VA",20176,NA,NA,46,"19415 DEERFIELD AVENUE STE 306, LANDSDOWNE, VA, 20176","No_Match",NA,NA,NA,NA
295547,"19415 HARLEY JOHN ROAD","RIVERSIDE","CA",92504,33.837534438,-117.355792108,47,"19415 HARLEY JOHN ROAD, RIVERSIDE, CA, 92504","Match","Exact","19415 HARLEY JOHN RD, RIVERSIDE, CA, 92504",195078511,"L"
295548,"19415 MAYWOOD FALLS CIRCLE","HOUSTON","TX",77084,29.8129594640001,-95.7091791509999,48,"19415 MAYWOOD FALLS CIRCLE, HOUSTON, TX, 77084","Match","Exact","19415 MAYWOOD FALLS CIR, HOUSTON, TX, 77084",96564003,"R"
295549,"19415 N 77TH AVE","GLENDALE","AZ",85308,33.6603103200001,-112.22353196,49,"19415 N 77TH AVE, GLENDALE, AZ, 85308","Match","Exact","19415 N 77TH AVE, GLENDALE, AZ, 85308",128173200,"R"
295550,"19415 ONYXT CT STE D","CERRITOS","CA",90703,NA,NA,50,"19415 ONYXT CT STE D, CERRITOS, CA, 90703","No_Match",NA,NA,NA,NA
295551,"19415 S 7 HIGHWAY","PLEASANT HILL","MO",64080,NA,NA,51,"19415 S 7 HIGHWAY, PLEASANT HILL, MO, 64080","No_Match",NA,NA,NA,NA
295552,"19415 WEISER AVE","CARSON","CA",90746,33.85441286,-118.249965332,52,"19415 WEISER AVE, CARSON, CA, 90746","Match","Exact","19415 WEISER AVE, CARSON, CA, 90746",141680664,"R"
295553,"19416 BRYN MAWR DR","INDEPENDENCE","MO",64057,39.0655106630001,-94.351102372,53,"19416 BRYN MAWR DR, INDEPENDENCE, MO, 64057","Match","Non_Exact","19416 S BRYN MAWR DR, INDEPENDENCE, MO, 64057",91522625,"L"
295554,"19416 RIDGE RD","RED BLUFF","CA",96080,40.1432980770001,-122.316864678,54,"19416 RIDGE RD, RED BLUFF, CA, 96080","Match","Exact","19416 RIDGE RD, RED BLUFF, CA, 96080",119389418,"L"
295555,"19417 CHICKASAW AVE","CLEVELAND","OH",44119,41.584527521,-81.543833446,55,"19417 CHICKASAW AVE, CLEVELAND, OH, 44119","Match","Exact","19417 CHICKASAW AVE, CLEVELAND, OH, 44119",61108203,"L"
295556,"19417 DOVER CLIFFS CIRCLE","GERMANTOWN","MD",20874,39.1769508300001,-77.278970677,56,"19417 DOVER CLIFFS CIRCLE, GERMANTOWN, MD, 20874","Match","Exact","19417 DOVER CLIFFS CIR, GERMANTOWN, MD, 20874",618604473,"L"
295557,"19417 NOKES FARM RD","SILOAM SPRINGS","AR",72761,36.1253040010001,-94.480008872,57,"19417 NOKES FARM RD, SILOAM SPRINGS, AR, 72761","Match","Exact","19417 NOKES FARM RD, SILOAM SPRINGS, AR, 72761",47831097,"L"
295558,"19417 VINEYARD LN","SARATOGA","CA",95070,37.278906421,-122.008740953,58,"19417 VINEYARD LN, SARATOGA, CA, 95070","Match","Exact","19417 VINEYARD LN, SARATOGA, CA, 95070",123180994,"L"
295559,"19418 146TH AVE SE","RENTON","WA",98058,47.4282846880001,-122.147211507,59,"19418 146TH AVE SE, RENTON, WA, 98058","Match","Exact","19418 146TH AVE SE, RENTON, WA, 98058",186636954,"R"
295560,"19418 CREEK BEND DR","SPRING","TX",77388,30.0490645200001,-95.45512869,60,"19418 CREEK BEND DR, SPRING, TX, 77388","Match","Exact","19418 CREEK BEND DR, SPRING, TX, 77388",635246946,"R"
295561,"19418 JOSEPHINE ST","GRETNA","NE",68028,41.187992933,-96.219186452,61,"19418 JOSEPHINE ST, GRETNA, NE, 68028","Match","Exact","19418 JOSEPHINE ST, GRETNA, NE, 68028",650159484,"R"
295562,"19418 MAIN STREET","BUCHANAN","VA",24066,37.524198691,-79.6835415799999,62,"19418 MAIN STREET, BUCHANAN, VA, 24066","Match","Exact","19418 MAIN ST, BUCHANAN, VA, 24066",62443719,"R"
295563,"19418 N 1300TH ST","EFFINGHAM","IL",62401,39.1911767820001,-88.564077228,63,"19418 N 1300TH ST, EFFINGHAM, IL, 62401","Match","Exact","19418 N 1300TH ST, EFFINGHAM, IL, 62401",94757631,"R"
295564,"19418 PUGET LANE","SPRING","TX",77388,30.0503157100001,-95.476831417,64,"19418 PUGET LANE, SPRING, TX, 77388","Match","Exact","19418 PUGET LN, SPRING, TX, 77388",96170269,"R"
295565,"19418 REMINGTON BEND DRIVE","HOUSTON","TX",77073,29.974643933,-95.418056367,65,"19418 REMINGTON BEND DRIVE, HOUSTON, TX, 77073","Match","Exact","19418 REMINGTON BEND DR, HOUSTON, TX, 77073",627940900,"R"
295566,"19419 BROOKSIDE WAY","BEND","OR",97702,44.0239009520001,-121.352831132,66,"19419 BROOKSIDE WAY, BEND, OR, 97702","Match","Exact","19419 BROOKSIDE WAY, BEND, OR, 97702",647586149,"R"
295567,"19419 COUNTRYVILLAGE DRIVE","SPRING","TX",77388,30.049725493,-95.4794909399999,67,"19419 COUNTRYVILLAGE DRIVE, SPRING, TX, 77388","Match","Non_Exact","19419 COUNTRY VILLAGE DR, SPRING, TX, 77388",624860041,"L"
295568,"19419 DESERT IVY DRIVE","HOUSTON","TX",77094,29.7713693000001,-95.7085273169999,68,"19419 DESERT IVY DRIVE, HOUSTON, TX, 77094","Match","Exact","19419 DESERT IVY DR, HOUSTON, TX, 77094",96296898,"R"
295569,"19419 E CALLE DE FLORES","QUEEN CREEK","AZ",85142,33.2360311670001,-111.664198866,69,"19419 E CALLE DE FLORES, QUEEN CREEK, AZ, 85142","Match","Non_Exact","19419 E CLL DE FLORES, QUEEN CREEK, AZ, 85142",128810980,"R"
295570,"19419 GREEN CHASE LANE","HOUSTON","TX",76705,29.9769921000001,-95.408267526,70,"19419 GREEN CHASE LANE, HOUSTON, TX, 76705","Match","Non_Exact","19419 GREEN CHASE LN, HOUSTON, TX, 77073",627680452,"R"
295571,"19419 GREEN CHASE LANE","HOUSTON","TX",77073,29.9769921000001,-95.408267526,71,"19419 GREEN CHASE LANE, HOUSTON, TX, 77073","Match","Exact","19419 GREEN CHASE LN, HOUSTON, TX, 77073",627680452,"R"
295572,"1942 12ST","RACINE","WI",53402,NA,NA,72,"1942 12ST, RACINE, WI, 53402","No_Match",NA,NA,NA,NA
295573,"1942 228TH STREET","MOUNT AYR","IA",50854,40.7144325090001,-94.2932973219999,73,"1942 228TH STREET, MOUNT AYR, IA, 50854","Match","Exact","1942 228TH ST, MOUNT AYR, IA, 50854",649848985,"L"
295574,"1942 69TH AVENUE","PHILADELPHIA","PA",19138,40.060042778,-75.149641424,74,"1942 69TH AVENUE, PHILADELPHIA, PA, 19138","Match","Exact","1942 69TH AVE, PHILADELPHIA, PA, 19138",652292834,"L"
295575,"1942 74TH AVENUE","PHILADELPHIA","PA",19138,40.0671035920001,-75.148417176,75,"1942 74TH AVENUE, PHILADELPHIA, PA, 19138","Match","Exact","1942 74TH AVE, PHILADELPHIA, PA, 19138",131413064,"L"
295576,"1942 77 STREET","EAST ELMHURST","NY",11370,NA,NA,76,"1942 77 STREET, EAST ELMHURST, NY, 11370","No_Match",NA,NA,NA,NA
295577,"1942 85TH CT NW","BRADENTON","FL",34209,27.517295416,-82.647219153,77,"1942 85TH CT NW, BRADENTON, FL, 34209","Match","Exact","1942 85TH CT NW, BRADENTON, FL, 34209",624918311,"L"
295578,"1942 ALTURA DR","CONCORD","CA",94519,37.9835117850001,-122.021085888,78,"1942 ALTURA DR, CONCORD, CA, 94519","Match","Exact","1942 ALTURA DR, CONCORD, CA, 94519",192054847,"R"
295579,"1942 ARROWOOD DRIVE","BENSALEM","PA",19020,40.1060772590001,-74.934901526,79,"1942 ARROWOOD DRIVE, BENSALEM, PA, 19020","Match","Exact","1942 ARROWOOD DR, BENSALEM, PA, 19020",134714762,"L"
295580,"1942 BEALL DRIVE","HAMPTON","VA",23663,37.0484426780001,-76.3138237489999,80,"1942 BEALL DRIVE, HAMPTON, VA, 23663","Match","Exact","1942 BEALL DR, HAMPTON, VA, 23663",103759801,"R"
295581,"1942 BROADWAY ST STE 314C","BOULDER","CO",80302,40.0170817740001,-105.279687809,81,"1942 BROADWAY ST STE 314C, BOULDER, CO, 80302","Match","Exact","1942 BROADWAY ST, BOULDER, CO, 80302",188215631,"R"
295582,"1942 BROADWAY STREET  STE 314C","BOULDER","CO",80302,40.0170817740001,-105.279687809,82,"1942 BROADWAY STREET  STE 314C, BOULDER, CO, 80302","Match","Exact","1942 BROADWAY ST, BOULDER, CO, 80302",188215631,"R"
295583,"1942 BROADWAY STREET STE 314C","BOULDER","CO",80302,40.0170817740001,-105.279687809,83,"1942 BROADWAY STREET STE 314C, BOULDER, CO, 80302","Match","Exact","1942 BROADWAY ST, BOULDER, CO, 80302",188215631,"R"
295584,"1942 BROADWAY STREET/ SUITE 314C","BOULDER","CO",80302,40.0170817740001,-105.279687809,84,"1942 BROADWAY STREET/ SUITE 314C, BOULDER, CO, 80302","Match","Exact","1942 BROADWAY, BOULDER, CO, 80302",188215631,"R"
295585,"1942 BROADWAY STREET/SUITE 314C","BOLDER","CO",80302,40.0170817740001,-105.279687809,85,"1942 BROADWAY STREET/SUITE 314C, BOLDER, CO, 80302","Match","Non_Exact","1942 BROADWAY, BOULDER, CO, 80302",188215631,"R"
295586,"1942 CHANNING WAY","BERKELEY","CA",94704,37.8653899120001,-122.270709648,86,"1942 CHANNING WAY, BERKELEY, CA, 94704","Match","Exact","1942 CHANNING WAY, BERKELEY, CA, 94704",606228442,"R"
295587,"1942 CHESHIRE LN","WHEATON","IL",60189,41.8339144280001,-88.08364792,87,"1942 CHESHIRE LN, WHEATON, IL, 60189","Match","Exact","1942 CHESHIRE LN, WHEATON, IL, 60189",112530418,"R"
295588,"1942 COOLCREST WAY","UPLAND","CA",91784,34.1333538760001,-117.663931489,88,"1942 COOLCREST WAY, UPLAND, CA, 91784","Match","Exact","1942 COOLCREST WAY, UPLAND, CA, 91784",144669530,"R"
295589,"1942 COUNTY ROAD 390","DENVER CITY","TX",79323,32.964265471,-102.737905543,89,"1942 COUNTY ROAD 390, DENVER CITY, TX, 79323","Match","Exact","1942 CO RD 390, DENVER CITY, TX, 79323",634507012,"L"
295590,"1942 DALLAS RD","PHILADEPHIA","PA",19138,40.0630878380001,-75.149265725,90,"1942 DALLAS RD, PHILADEPHIA, PA, 19138","Match","Non_Exact","1942 DALLAS RD, PHILADELPHIA, PA, 19138",131413269,"L"
295591,"1942 DUNKIRK COURT","AURORA","CO",80011,39.745556235,-104.76243138,91,"1942 DUNKIRK COURT, AURORA, CO, 80011","Match","Exact","1942 DUNKIRK CT, AURORA, CO, 80011",177294934,"R"
295592,"1942 DUNKIRK CT","AURORA","CO",80011,39.745556235,-104.76243138,92,"1942 DUNKIRK CT, AURORA, CO, 80011","Match","Exact","1942 DUNKIRK CT, AURORA, CO, 80011",177294934,"R"
295593,"1942 E 79TH STREET","CHICAGO","IL",60649,41.751600744,-87.576973287,93,"1942 E 79TH STREET, CHICAGO, IL, 60649","Match","Exact","1942 E 79TH ST, CHICAGO, IL, 60649",111775897,"L"
295594,"1942 E 85TH STREET","CLEVELAND","OH",44106,41.504631557,-81.627838423,94,"1942 E 85TH STREET, CLEVELAND, OH, 44106","Match","Exact","1942 E 85TH ST, CLEVELAND, OH, 44106",638807934,"R"
295595,"1942 E CARVER RD","TEMPE","AZ",85284,33.3415542280001,-111.905079733,95,"1942 E CARVER RD, TEMPE, AZ, 85284","Match","Exact","1942 E CARVER RD, TEMPE, AZ, 85284",128239292,"L"
295596,"1942 EAST 19TH STREET","BROOKLYN","NY",11229,40.6028438920001,-73.9532933089999,96,"1942 EAST 19TH STREET, BROOKLYN, NY, 11229","Match","Exact","1942 E 19TH ST, BROOKLYN, NY, 11229",59090134,"R"
295597,"1942 ESSEX DRIVE","BRUNSWICK","OH",44212,41.222706773,-81.817475411,97,"1942 ESSEX DRIVE, BRUNSWICK, OH, 44212","Match","Exact","1942 ESSEX DR, BRUNSWICK, OH, 44212",58675185,"L"
295598,"1942 FAIRHAVEN STREET","LEMON GROV","CA",91945,32.7268851790001,-117.034468819,98,"1942 FAIRHAVEN STREET, LEMON GROV, CA, 91945","Match","Exact","1942 FAIRHAVEN ST, LEMON GROVE, CA, 91945",195359813,"L"
295599,"1942 FARLEY DR","WILMINGTON","NC",28405,34.2837650760001,-77.877803324,99,"1942 FARLEY DR, WILMINGTON, NC, 28405","Match","Exact","1942 FARLEY DR, WILMINGTON, NC, 28405",631190607,"R"
295600,"1942 GILIN AVENUE","WILMINGTON","DE",19806,NA,NA,100,"1942 GILIN AVENUE, WILMINGTON, DE, 19806","No_Match",NA,NA,NA,NA
295601,"1942 GILPIN AVENUE","WILMINGTON","DE",19806,39.7607509520001,-75.563806179,101,"1942 GILPIN AVENUE, WILMINGTON, DE, 19806","Match","Exact","1942 GILPIN AVE, WILMINGTON, DE, 19806",187256702,"L"
295602,"1942 GREENTREE LN","COTTONDALE","FL",32431,30.706178288,-85.38918757,102,"1942 GREENTREE LN, COTTONDALE, FL, 32431","Match","Exact","1942 GREENTREE LN, COTTONDALE, FL, 32431",640013906,"L"
295603,"1942 GREY EAGLE STREET","HENDERSON","NV",89074,36.031045647,-115.075204033,103,"1942 GREY EAGLE STREET, HENDERSON, NV, 89074","Match","Exact","1942 GREY EAGLE ST, HENDERSON, NV, 89074",201911175,"R"
295604,"1942 HANSON AVE","CLOVIS","CA",93611,36.8094503730001,-119.663087481,104,"1942 HANSON AVE, CLOVIS, CA, 93611","Match","Non_Exact","1942 HANSON, CLOVIS, CA, 93611",606268052,"R"
295605,"1942 HEATHERBROOK CT","WOODBRIDGE","NC",22192,NA,NA,105,"1942 HEATHERBROOK CT, WOODBRIDGE, NC, 22192","No_Match",NA,NA,NA,NA
295606,"1942 HERITAGE BLVD","ROBINS AFB","GA",31098,NA,NA,106,"1942 HERITAGE BLVD, ROBINS AFB, GA, 31098","No_Match",NA,NA,NA,NA
295607,"1942 HIDDEN CYPRESS LN","FRESNO","TX",77545,29.5495678450001,-95.482184656,107,"1942 HIDDEN CYPRESS LN, FRESNO, TX, 77545","Match","Exact","1942 HIDDEN CYPRESS LN, FRESNO, TX, 77545",641153782,"R"
295608,"1942 HILLMAN FORD RD","MARION","OH",43302,40.623807264,-83.171171253,108,"1942 HILLMAN FORD RD, MARION, OH, 43302","Match","Exact","1942 HILLMAN FORD RD, MARION, OH, 43302",12714776,"R"
295609,"1942 HOBSON COURT","MARIETTA","GA",30064,33.9191351750001,-84.611347082,109,"1942 HOBSON COURT, MARIETTA, GA, 30064","Match","Exact","1942 HOBSON CT, MARIETTA, GA, 30064",17196634,"L"
295610,"1942 HORSE SHOE BEND RD","DUNEDIN","FL",34698,28.044273833,-82.748206406,110,"1942 HORSE SHOE BEND RD, DUNEDIN, FL, 34698","Match","Exact","1942 HORSE SHOE BEND RD, DUNEDIN, FL, 34698",124744060,"L"
295611,"1942 LUNSFORD AVE","DALLAS","TX",75224,NA,NA,111,"1942 LUNSFORD AVE, DALLAS, TX, 75224","No_Match",NA,NA,NA,NA
295612,"1942 LYTTLETON ST","CAMDEN","SC",29020,34.264744561,-80.604809901,112,"1942 LYTTLETON ST, CAMDEN, SC, 29020","Match","Exact","1942 LYTTLETON ST, CAMDEN, SC, 29020",78470795,"R"
295613,"1942 MACKENIZE","MT. PLEASANT","MI",48858,43.601333502,-84.749466925,113,"1942 MACKENIZE, MT. PLEASANT, MI, 48858","Match","Non_Exact","1942 MACKENZIE LN, MOUNT PLEASANT, MI, 48858",110224191,"R"
295614,"1942 MALVASIA COURT","TULARE","CA",93274,36.2266517260001,-119.31688681,114,"1942 MALVASIA COURT, TULARE, CA, 93274","Match","Exact","1942 MALVASIA CT, TULARE, CA, 93274",635970681,"L"
295615,"1942 MARGIE DRIVE","WHITE LAKE","MI",48386,42.6637377380001,-83.47810364,115,"1942 MARGIE DRIVE, WHITE LAKE, MI, 48386","Match","Exact","1942 MARGIE DR, WHITE LAKE, MI, 48386",69805341,"R"
295616,"1942 N 1225 W","CLINTON","UT",84015,41.141688146,-112.04951525,116,"1942 N 1225 W, CLINTON, UT, 84015","Match","Exact","1942 N 1225 W, CLINTON, UT, 84015",229350412,"L"
295617,"1942 N 17TH ST","MILWAUKEE","WI",53205,43.055458034,-87.933844101,117,"1942 N 17TH ST, MILWAUKEE, WI, 53205","Match","Exact","1942 N 17TH ST, MILWAUKEE, WI, 53205",77741007,"R"
295618,"1942 N BOSTON AVE","TULSA","OK",74106,36.1838662700001,-95.995730999,118,"1942 N BOSTON AVE, TULSA, OK, 74106","Match","Exact","1942 N BOSTON AVE, TULSA, OK, 74106",166436700,"L"
295619,"1942 N ERIE","OREGON","OH",43616,NA,NA,119,"1942 N ERIE, OREGON, OH, 43616","No_Match",NA,NA,NA,NA
295620,"1942 NEWHAVEN LOOP","RICHLAND","WA",99352,46.2218766500001,-119.268480318,120,"1942 NEWHAVEN LOOP, RICHLAND, WA, 99352","Match","Exact","1942 NEWHAVEN LOOP, RICHLAND, WA, 99352",175007402,"L"
295621,"1942 NEWT PATTERSON","MANSFIELD","TX",76063,32.57410379,-97.174183563,121,"1942 NEWT PATTERSON, MANSFIELD, TX, 76063","Match","Non_Exact","1942 NEWT PATTERSON RD, MANSFIELD, TX, 76063",101911235,"L"
295622,"1942 North Hope Road","Midland","MI",48642,43.6683226660001,-84.3398897289999,122,"1942 North Hope Road, Midland, MI, 48642","Match","Exact","1942 N HOPE RD, MIDLAND, MI, 48642",651794710,"R"
295623,"1942 NORTH MOZART STREET","CHICAGO","IL",60647,41.916464782,-87.6982068459999,123,"1942 NORTH MOZART STREET, CHICAGO, IL, 60647","Match","Exact","1942 N MOZART ST, CHICAGO, IL, 60647",111762802,"L"
295624,"1942 ORCHARD STREET","MARQUETTE","MI",49855,46.550533828,-87.428276082,124,"1942 ORCHARD STREET, MARQUETTE, MI, 49855","Match","Exact","1942 ORCHARD ST, MARQUETTE, MI, 49855",182052036,"R"
295625,"1942 OREGON DR","BISMARCK","ND",58503,46.84080177,-100.762329874,125,"1942 OREGON DR, BISMARCK, ND, 58503","Match","Exact","1942 OREGON DR, BISMARCK, ND, 58503",198855340,"R"
295626,"1942 PAUOA RD APT A","HONOLULU","HI",96813,21.320201932,-157.851000183,126,"1942 PAUOA RD APT A, HONOLULU, HI, 96813","Match","Exact","1942 PAUOA RD, HONOLULU, HI, 96813",203334838,"L"
295627,"1942 PAUOA ROAD APARTMENT A","HONOLULU","HI",96813,21.320201932,-157.851000183,127,"1942 PAUOA ROAD APARTMENT A, HONOLULU, HI, 96813","Match","Exact","1942 PAUOA RD, HONOLULU, HI, 96813",203334838,"L"
295628,"1942 PRAIRIE CLOVER DRIVE","LEBANON","OH",45036,39.469141236,-84.28814927,128,"1942 PRAIRIE CLOVER DRIVE, LEBANON, OH, 45036","Match","Exact","1942 PRAIRIE CLOVER DR, LEBANON, OH, 45036",617730877,"R"
295629,"1942 SACHTJEN STREET","MADISON","WI",53704,43.1248704270001,-89.358706517,129,"1942 SACHTJEN STREET, MADISON, WI, 53704","Match","Exact","1942 SACHTJEN ST, MADISON, WI, 53704",49471377,"L"
295630,"1942 SE S3RD CT","HOMESTEAD","FL",33034,NA,NA,130,"1942 SE S3RD CT, HOMESTEAD, FL, 33034","No_Match",NA,NA,NA,NA
295631,"1942 SLEEPY HOLLOW DR","KINGSLAND","TX",78939,30.65670621,-98.4511906019999,131,"1942 SLEEPY HOLLOW DR, KINGSLAND, TX, 78939","Match","Non_Exact","1942 SLEEPY HOLLOW, KINGSLAND, TX, 78639",182246406,"R"
295632,"1942 SMALLWOOD STREET","JACKSON","MS",39212,32.2640357110001,-90.262608646,132,"1942 SMALLWOOD STREET, JACKSON, MS, 39212","Match","Exact","1942 SMALLWOOD ST, JACKSON, MS, 39212",65366741,"R"
295633,"1942 STATE ROUTE 66","FORD CITY","PA",16226,40.7150314250001,-79.5297611999999,133,"1942 STATE ROUTE 66, FORD CITY, PA, 16226","Match","Exact","1942 STATE RTE 66, FORD CITY, PA, 16226",634145737,"R"
295634,"1942 SW NEWPORT ISLES BLVD","PORT ST LUCIE","FL",34953,27.2594074530001,-80.412212177,134,"1942 SW NEWPORT ISLES BLVD, PORT ST LUCIE, FL, 34953","Match","Exact","1942 SW NEWPORT ISLES BLVD, PORT ST LUCIE, FL, 34953",633920805,"L"
295635,"1942 TALL OAKS DR APT 2B","AURORA","IL",60505,41.7963646200001,-88.277337426,135,"1942 TALL OAKS DR APT 2B, AURORA, IL, 60505","Match","Exact","1942 TALL OAKS DR, AURORA, IL, 60505",644310933,"L"
295636,"1942 TECATE GLEN","ESCONDIDO","CA",92029,33.099928536,-117.11834573,136,"1942 TECATE GLEN, ESCONDIDO, CA, 92029","Match","Exact","1942 TECATE GLEN, ESCONDIDO, CA, 92029",195395514,"L"
295637,"1942 TECUMSEH CT","PERRYSBURG","OH",43551,41.537537248,-83.6635109109999,137,"1942 TECUMSEH CT, PERRYSBURG, OH, 43551","Match","Exact","1942 TECUMSEH CT, PERRYSBURG, OH, 43551",38749365,"R"
295638,"1942 UPSON ST","SAVANNAH","GA",31405,32.044434634,-81.1403089409999,138,"1942 UPSON ST, SAVANNAH, GA, 31405","Match","Exact","1942 UPSON ST, SAVANNAH, GA, 31405",6172161,"R"
295639,"1942 UPSON STREET","SAVANNAH","GA",31405,32.044434634,-81.1403089409999,139,"1942 UPSON STREET, SAVANNAH, GA, 31405","Match","Exact","1942 UPSON ST, SAVANNAH, GA, 31405",6172161,"R"
295640,"1942 VIA ESTABLO","SANTA MARIA","CA",93458,34.976254102,-120.44500603,140,"1942 VIA ESTABLO, SANTA MARIA, CA, 93458","Match","Exact","1942 VIA ESTABLO, SANTA MARIA, CA, 93458",108683148,"R"
295641,"1942 W 22ND STREET SUITE 3","LOS ANGELES","CA",90018,34.036338739,-118.304135191,141,"1942 W 22ND STREET SUITE 3, LOS ANGELES, CA, 90018","Match","Non_Exact","1942 W 22ND ST, LOS ANGELES, CA, 90018",141605941,"L"
295642,"1942 W 420 S","CEDAR CITY","UT",84720,37.6700884140001,-113.08663888,142,"1942 W 420 S, CEDAR CITY, UT, 84720","Match","Exact","1942 W 420 S, CEDAR CITY, UT, 84720",165418458,"R"
295643,"1942 W BRIARWOOD AVE","LITTLETON","CO",80120,39.5932712380001,-105.009916907,143,"1942 W BRIARWOOD AVE, LITTLETON, CO, 80120","Match","Exact","1942 W BRIARWOOD AVE, LITTLETON, CO, 80120",177336642,"L"
295644,"1942 W CORNELIA AVE","CHICAGO","IL",60657,41.945062158,-87.6768886739999,144,"1942 W CORNELIA AVE, CHICAGO, IL, 60657","Match","Exact","1942 W CORNELIA AVE, CHICAGO, IL, 60657",605158886,"R"
295645,"1942 WASHBURN AVE N","MINNEAPOLIS","MN",55411,44.999301218,-93.317138235,145,"1942 WASHBURN AVE N, MINNEAPOLIS, MN, 55411","Match","Exact","1942 WASHBURN AVE N, MINNEAPOLIS, MN, 55411",43622780,"R"
295646,"1942 WASHINGTON BOULEVARD","EASTON","PA",18042,40.685839743,-75.239493512,146,"1942 WASHINGTON BOULEVARD, EASTON, PA, 18042","Match","Exact","1942 WASHINGTON BLVD, EASTON, PA, 18042",136881759,"L"
295647,"1942 WEST 5TH STREET","GRAND MARAIS","MN",55604,NA,NA,147,"1942 WEST 5TH STREET, GRAND MARAIS, MN, 55604","No_Match",NA,NA,NA,NA
295648,"1942 WEST MANCHESTER AVENUE","LOS ANGELES","CA",90047,33.959962961,-118.312675696,148,"1942 WEST MANCHESTER AVENUE, LOS ANGELES, CA, 90047","Match","Exact","1942 W MANCHESTER AVE, LOS ANGELES, CA, 90047",142445341,"L"
295649,"1942 WESTLAKE AVE APT 1515","SEATTLE","WA",98101,47.6143318090001,-122.337635484,149,"1942 WESTLAKE AVE APT 1515, SEATTLE, WA, 98101","Match","Exact","1942 WESTLAKE AVE, SEATTLE, WA, 98101",186589332,"R"
295650,"1942 WINDSOR HILL DR APT E","CHARLOTTE","NC",28105,35.1359172200001,-80.707697539,150,"1942 WINDSOR HILL DR APT E, CHARLOTTE, NC, 28105","Match","Non_Exact","1942 WINDSOR HILL DR, MATTHEWS, NC, 28105",70536334,"R"
295651,"19420 AMBASSADOR COURT","MIAMI","FL",33179,25.954262059,-80.173297506,151,"19420 AMBASSADOR COURT, MIAMI, FL, 33179","Match","Exact","19420 AMBASSADOR CT, MIAMI, FL, 33179",116252840,"R"
295652,"19420 LAUREL GLEN AVE","CORNELIUS","NC",28031,35.4761331810001,-80.911471003,152,"19420 LAUREL GLEN AVE, CORNELIUS, NC, 28031","Match","Exact","19420 LAUREL GLEN AVE, CORNELIUS, NC, 28031",70550620,"L"
295653,"19420 SOUTH LAKESHORE BLVD","EUCLID","OH",44119,41.597782394,-81.543848549,153,"19420 SOUTH LAKESHORE BLVD, EUCLID, OH, 44119","Match","Non_Exact","19420 S LAKE SHORE BLVD, EUCLID, OH, 44119",61108041,"R"
295654,"19420 YORKSHIRE DR","MOKENA","IL",60448,41.5362332930001,-87.9043246379999,154,"19420 YORKSHIRE DR, MOKENA, IL, 60448","Match","Exact","19420 YORKSHIRE DR, MOKENA, IL, 60448",111572338,"L"
295655,"19421 ACADEMY ST NE","PALM BAY","FL",32905,NA,NA,155,"19421 ACADEMY ST NE, PALM BAY, FL, 32905","No_Match",NA,NA,NA,NA
295656,"19421 ARRINGTON ROAD","UTICA","OH",43080,40.279990458,-82.407960461,156,"19421 ARRINGTON ROAD, UTICA, OH, 43080","Match","Exact","19421 ARRINGTON RD, UTICA, OH, 43080",24661410,"R"
295657,"19421 LULL STREET","RESEDA","CA",91335,34.209226755,-118.556152752,157,"19421 LULL STREET, RESEDA, CA, 91335","Match","Exact","19421 LULL ST, RESEDA, CA, 91335",141540710,"R"
295658,"19421 SASSAFRAS RIDGE TERRACE","LEESBURG","VA",20176,39.0780043440001,-77.468792186,158,"19421 SASSAFRAS RIDGE TERRACE, LEESBURG, VA, 20176","Match","Exact","19421 SASSAFRAS RIDGE TER, LEESBURG, VA, 20176",645683199,"L"
295659,"19421 W 57TH CIR","GOLDEN","CO",80403,39.801159677,-105.220128024,159,"19421 W 57TH CIR, GOLDEN, CO, 80403","Match","Exact","19421 W 57TH CIR, GOLDEN, CO, 80403",647327115,"R"
295660,"19422 ALLVIEW LANE","HOUSTON","TX",77094,29.7809491410001,-95.7058078109999,160,"19422 ALLVIEW LANE, HOUSTON, TX, 77094","Match","Exact","19422 ALLVIEW LN, HOUSTON, TX, 77094",96293281,"L"
295661,"19422 AMETHYST DRIVE","HAGERSTOWN","MD",21742,39.680294734,-77.695607834,161,"19422 AMETHYST DRIVE, HAGERSTOWN, MD, 21742","Match","Exact","19422 AMETHYST DR, HAGERSTOWN, MD, 21742",650327814,"L"
295662,"19422 BRAILE","DETROIT","MI",48219,42.4332492720001,-83.246299756,162,"19422 BRAILE, DETROIT, MI, 48219","Match","Non_Exact","19422 BRAILE ST, DETROIT, MI, 48219",95421475,"R"
295663,"19422 CARDENE CT","NORTHVILLE","MI",48167,42.428262594,-83.4571711409999,163,"19422 CARDENE CT, NORTHVILLE, MI, 48167","Match","Exact","19422 CARDENE CT, NORTHVILLE, MI, 48167",642525098,"R"
295664,"19422 CYPRESS DR","COUNTRY CLUB HILLS","IL",60478,41.5360450750001,-87.7158603779999,164,"19422 CYPRESS DR, COUNTRY CLUB HILLS, IL, 60478","Match","Exact","19422 CYPRESS DR, COUNTRY CLUB HILLS, IL, 60478",605678273,"R"
295665,"19422 EASY OAK","SAN ANTONIO","TX",78258,29.6250210870001,-98.507218245,165,"19422 EASY OAK, SAN ANTONIO, TX, 78258","Match","Exact","19422 EASY OAK, SAN ANTONIO, TX, 78258",101575160,"L"
295666,"19422 HICKORY PL","COUNTRY CLUB HILLS","IL",60478,41.5374901280001,-87.717271866,166,"19422 HICKORY PL, COUNTRY CLUB HILLS, IL, 60478","Match","Exact","19422 HICKORY PL, COUNTRY CLUB HILLS, IL, 60478",111707734,"R"
295667,"19422 MT OLIVE RD","GRAVETTE","AR",72736,36.378846508,-94.4562187669999,167,"19422 MT OLIVE RD, GRAVETTE, AR, 72736","Match","Non_Exact","19422 N MT OLIVE RD, GRAVETTE, AR, 72736",640549331,"L"
295668,"19423 CREEK BEND DR","SPRING","TX",77388,30.049087737,-95.455160555,168,"19423 CREEK BEND DR, SPRING, TX, 77388","Match","Exact","19423 CREEK BEND DR, SPRING, TX, 77388",635246946,"L"
295669,"19423 HARVEST STREAM WAY","HOUSTON","TX",77084,29.80795077,-95.709069534,169,"19423 HARVEST STREAM WAY, HOUSTON, TX, 77084","Match","Exact","19423 HARVEST STREAM WAY, HOUSTON, TX, 77084",630847183,"R"
295670,"19423 REBEL YELL DR","KATY","TX",77449,29.869255427,-95.709133867,170,"19423 REBEL YELL DR, KATY, TX, 77449","Match","Exact","19423 REBEL YELL DR, KATY, TX, 77449",645533209,"L"
295671,"19423 SCHOOL STREET","CORNELIUS","NC",28031,35.4784935260001,-80.864687176,171,"19423 SCHOOL STREET, CORNELIUS, NC, 28031","Match","Exact","19423 SCHOOL ST, CORNELIUS, NC, 28031",70469423,"L"
295672,"19423 SCRUGGS","HEMPSTEAD","TX",77445,30.0526181920001,-96.008582979,172,"19423 SCRUGGS, HEMPSTEAD, TX, 77445","Match","Non_Exact","19423 SCRUGGS RD, HEMPSTEAD, TX, 77445",653229246,"L"
295673,"19423 SE 416TH ST","ENUMCLAW","WA",98022,47.2282466990001,-122.083020195,173,"19423 SE 416TH ST, ENUMCLAW, WA, 98022","Match","Exact","19423 SE 416TH ST, ENUMCLAW, WA, 98022",186657277,"R"
295674,"19423 SNAFFLE BIT LANE","BRISTOL","VA",24202,36.664608183,-82.172011657,174,"19423 SNAFFLE BIT LANE, BRISTOL, VA, 24202","Match","Exact","19423 SNAFFLE BIT LN, BRISTOL, VA, 24202",636714862,"L"
295675,"19424 29TH AVE SE","BOTHELL","WA",98012,47.821456546,-122.194009829,175,"19424 29TH AVE SE, BOTHELL, WA, 98012","Match","Exact","19424 29TH AVE SE, BOTHELL, WA, 98012",187802139,"L"
295676,"19424 BRETTON DRIVE","DETROIT","MI",48223,42.4093370160001,-83.233185282,176,"19424 BRETTON DRIVE, DETROIT, MI, 48223","Match","Exact","19424 BRETTON DR, DETROIT, MI, 48223",95733274,"L"
295677,"19424 BUSBY RD","VANCLEAVE","MS",39565,30.624048594,-88.7107049429999,177,"19424 BUSBY RD, VANCLEAVE, MS, 39565","Match","Exact","19424 BUSBY RD, VANCLEAVE, MS, 39565",89244760,"R"
295678,"19424 HWY 54","LOUISIANA","MO",63353,39.399462413,-91.110273729,178,"19424 HWY 54, LOUISIANA, MO, 63353","Match","Non_Exact","19424 US HWY 54, LOUISIANA, MO, 63353",44653030,"L"
295679,"19425 CANEY AVE","CARSON","CA",90746,33.8549545020001,-118.254767934,179,"19425 CANEY AVE, CARSON, CA, 90746","Match","Exact","19425 CANEY AVE, CARSON, CA, 90746",141680603,"R"
295680,"19425 CHAGRIN BLVD","SHAKER HEIGHTS","OH",44122,41.464553962,-81.5421063599999,180,"19425 CHAGRIN BLVD, SHAKER HEIGHTS, OH, 44122","Match","Exact","19425 CHAGRIN BLVD, SHAKER HEIGHTS, OH, 44122",61128999,"L"
295681,"19425 COLBY LANE","HILLSBORO","OR",97123,45.387772936,-123.037977778,181,"19425 COLBY LANE, HILLSBORO, OR, 97123","Match","Non_Exact","19425 SW COLBY LN, HILLSBORO, OR, 97123",156487699,"L"
295682,"19425 HAWTHORNE BRANCH DR","EDMOND","OK",73012,35.6684671020001,-97.55329024,182,"19425 HAWTHORNE BRANCH DR, EDMOND, OK, 73012","Match","Exact","19425 HAWTHORNE BRANCH DR, EDMOND, OK, 73012",626333794,"L"
295683,"19425 SOLEDAD CANYON RD - 101","SANTA CLARITA","CA",91351,34.4156482560001,-118.47444743,183,"19425 SOLEDAD CANYON RD - 101, SANTA CLARITA, CA, 91351","Match","Exact","19425 SOLEDAD CANYON RD, SANTA CLARITA, CA, 91351",241249492,"L"
295684,"19425 SOLEDAD CANYON RD 444","SANTA CLARITA","CA",91351,34.4156482560001,-118.47444743,184,"19425 SOLEDAD CANYON RD 444, SANTA CLARITA, CA, 91351","Match","Exact","19425 SOLEDAD CANYON RD, SANTA CLARITA, CA, 91351",241249492,"L"
295685,"19425 SOLEDAD CANYON RD APT 253","CANYON COUNTRY","CA",91351,34.4156482560001,-118.47444743,185,"19425 SOLEDAD CANYON RD APT 253, CANYON COUNTRY, CA, 91351","Match","Exact","19425 SOLEDAD CANYON RD, CANYON COUNTRY, CA, 91351",241249492,"L"
295686,"19425 SOLEDAD CANYON RD-SUITE 252","SANTA CLARITA","CA",91351,34.4156482560001,-118.47444743,186,"19425 SOLEDAD CANYON RD-SUITE 252, SANTA CLARITA, CA, 91351","Match","Non_Exact","19425 SOLEDAD CANYON RD, SANTA CLARITA, CA, 91351",241249492,"L"
295687,"19425 SW 312 STREET","HOMESTEAD","FL",33030,25.477017555,-80.506357296,187,"19425 SW 312 STREET, HOMESTEAD, FL, 33030","Match","Exact","19425 SW 312TH ST, HOMESTEAD, FL, 33030",115961132,"R"
295688,"19426 COSLIN AVE","CARSON","CA",90746,33.8545110380001,-118.250831504,188,"19426 COSLIN AVE, CARSON, CA, 90746","Match","Exact","19426 COSLIN AVE, CARSON, CA, 90746",141680651,"L"
295689,"19426 COSLIN AVE","MARTIN","CA",90746,33.8545110380001,-118.250831504,189,"19426 COSLIN AVE, MARTIN, CA, 90746","Match","Non_Exact","19426 COSLIN AVE, CARSON, CA, 90746",141680651,"L"
295690,"19426 E LAKE DRIVE","HIALEAH","FL",33015,25.950447292,-80.321557318,190,"19426 E LAKE DRIVE, HIALEAH, FL, 33015","Match","Exact","19426 E LAKE DR, HIALEAH, FL, 33015",116022513,"R"
295691,"19426 GULF CLUB RD NW","SOAP LAKE","WA",98851,NA,NA,191,"19426 GULF CLUB RD NW, SOAP LAKE, WA, 98851","No_Match",NA,NA,NA,NA
295692,"19426 LAKEVIEW PL NW","SOAP LAKE","WA",98851,47.375415538,-119.500113502,192,"19426 LAKEVIEW PL NW, SOAP LAKE, WA, 98851","Match","Exact","19426 LAKEVIEW PL NW, SOAP LAKE, WA, 98851",157101044,"L"
295693,"19426 LAKEVIEW PL","SOAP LAKE","WA",98837,NA,NA,193,"19426 LAKEVIEW PL, SOAP LAKE, WA, 98837","No_Match",NA,NA,NA,NA
295694,"19427 DUNRAVEN STREET","PARKER","CO",80134,39.480780259,-104.764532187,194,"19427 DUNRAVEN STREET, PARKER, CO, 80134","Match","Exact","19427 DUNRAVEN ST, PARKER, CO, 80134",649061922,"L"
295695,"19427 EDGECLIFF DRIVE SW","NORMANDY PARK","WA",98166,47.4285359420001,-122.349125547,195,"19427 EDGECLIFF DRIVE SW, NORMANDY PARK, WA, 98166","Match","Exact","19427 EDGECLIFF DR SW, NORMANDY PARK, WA, 98166",186625143,"R"
295696,"19427 RICHMARLANE","GRASS VALLEY","CA",95945,NA,NA,196,"19427 RICHMARLANE, GRASS VALLEY, CA, 95945","No_Match",NA,NA,NA,NA
295697,"19427 YUMA CREST LANE","TOMBALL","TX",77377,30.042843186,-95.615037027,197,"19427 YUMA CREST LANE, TOMBALL, TX, 77377","Match","Exact","19427 YUMA CREST LN, TOMBALL, TX, 77377",96170110,"L"
295698,"19428 GOLDENWOOD CT","BEND","OR",97702,44.00830345,-121.354607451,198,"19428 GOLDENWOOD CT, BEND, OR, 97702","Match","Exact","19428 GOLDENWOOD CT, BEND, OR, 97702",611084692,"L"
295699,"19428 HASKELL PL","LAND O LAKES","FL",34638,28.2086998340001,-82.494618664,199,"19428 HASKELL PL, LAND O LAKES, FL, 34638","Match","Exact","19428 HASKELL PL, LAND O LAKES, FL, 34638",86406024,"L"
295700,"19428 INTERSTATE 45 N","SPRING","TX",77373,NA,NA,200,"19428 INTERSTATE 45 N, SPRING, TX, 77373","No_Match",NA,NA,NA,NA
295701,"19428 MAYFIELD PL","TINLEY PARK","IL",60487,41.5379018610001,-87.8073034719999,201,"19428 MAYFIELD PL, TINLEY PARK, IL, 60487","Match","Exact","19428 MAYFIELD PL, TINLEY PARK, IL, 60487",111626884,"R"
295702,"19428 S 43RD E AVE","BIXBY","OK",74008,35.881272111,-95.932807192,202,"19428 S 43RD E AVE, BIXBY, OK, 74008","Match","Exact","19428 S 43RD EAST AVE, BIXBY, OK, 74008",166492113,"R"
295703,"19428 S CYPRESS DR","COUNTRY CLUB HILLS","IL",60478,41.5361549940001,-87.7158613409999,203,"19428 S CYPRESS DR, COUNTRY CLUB HILLS, IL, 60478","Match","Exact","19428 CYPRESS DR, COUNTRY CLUB HILLS, IL, 60478",605678272,"R"
295704,"19428 VIA DEL MAR APT 1","TAMPA PALMS","FL",33647,28.147805168,-82.3523734029999,204,"19428 VIA DEL MAR APT 1, TAMPA PALMS, FL, 33647","Match","Exact","19428 VIA DEL MAR, TAMPA PALMS, FL, 33647",104673042,"L"
295705,"19429 OAKWOOD","COUNTRY CLUB HILLS","IL",60620,NA,NA,205,"19429 OAKWOOD, COUNTRY CLUB HILLS, IL, 60620","No_Match",NA,NA,NA,NA
295706,"19429 SANDPEBBLE CIRCLE","HUNTINGTON BEACH","CA",92648,33.680499669,-118.006835194,206,"19429 SANDPEBBLE CIRCLE, HUNTINGTON BEACH, CA, 92648","Match","Exact","19429 SANDPEBBLE CIR, HUNTINGTON BEACH, CA, 92648",144253712,"R"
295707,"19429 ST AUBIN","DETROIT","MI",48234,42.436422388,-83.081799361,207,"19429 ST AUBIN, DETROIT, MI, 48234","Match","Non_Exact","19429 ST AUBIN ST, DETROIT, MI, 48234",95463306,"L"
295708,"19429 TRINITY STREET","DETROIT","MI",48219,42.433199378,-83.24999855,208,"19429 TRINITY STREET, DETROIT, MI, 48219","Match","Exact","19429 TRINITY ST, DETROIT, MI, 48219",95421455,"L"
295709,"19429 TRINTY","DETROIT","MI",48219,42.433199378,-83.24999855,209,"19429 TRINTY, DETROIT, MI, 48219","Match","Non_Exact","19429 TRINITY ST, DETROIT, MI, 48219",95421455,"L"
295710,"1942A COUNTY ROAD 0 E","MAHOMET","IL",61853,40.1629559410001,-88.463319828,210,"1942A COUNTY ROAD 0 E, MAHOMET, IL, 61853","Match","Exact","1942 CO RD 0 E, MAHOMET, IL, 61853",8558252,"R"
295711,"1943 104TH AVE SE","BELLEVUE","WA",98004,47.5933429900001,-122.201074773,211,"1943 104TH AVE SE, BELLEVUE, WA, 98004","Match","Exact","1943 104TH AVE SE, BELLEVUE, WA, 98004",186607550,"R"
295712,"1943 29TH ST S","LA CROSSE","WI",54601,43.7920842680001,-91.213153031,212,"1943 29TH ST S, LA CROSSE, WI, 54601","Match","Exact","1943 29TH ST S, LA CROSSE, WI, 54601",51013630,"L"
295713,"1943 45TH AVE SW","SEATTLE","WA",98116,47.5864476960001,-122.389056202,213,"1943 45TH AVE SW, SEATTLE, WA, 98116","Match","Exact","1943 45TH AVE SW, SEATTLE, WA, 98116",186660722,"R"
295714,"1943 4TH AVE SE","LE MARS","IA",51031,42.7697511210001,-96.159920275,214,"1943 4TH AVE SE, LE MARS, IA, 51031","Match","Exact","1943 4TH AVE SE, LE MARS, IA, 51031",649965047,"R"
295715,"1943 ALDER POINT DRIVE","MONTGOMERY","GA",36106,NA,NA,215,"1943 ALDER POINT DRIVE, MONTGOMERY, GA, 36106","No_Match",NA,NA,NA,NA
295716,"1943 BECKWITH ROAD","MOUNT JULIET","TN",37122,36.2087564890001,-86.465869915,216,"1943 BECKWITH ROAD, MOUNT JULIET, TN, 37122","Match","Exact","1943 BECKWITH RD, MOUNT JULIET, TN, 37122",89685858,"R"
295717,"1943 BIRCHWOOD COURT","MUNSTER","IN",46321,41.5266764100001,-87.4819792649999,217,"1943 BIRCHWOOD COURT, MUNSTER, IN, 46321","Match","Non_Exact","1943 BIRCHWOOD, MUNSTER, IN, 46321",98448695,"L"
295718,"1943 BLUE CREEK ROAD","TULLAHOMA","TN",37388,35.317750947,-86.208332339,218,"1943 BLUE CREEK ROAD, TULLAHOMA, TN, 37388","Match","Exact","1943 BLUE CREEK RD, TULLAHOMA, TN, 37388",57970913,"L"
295719,"1943 BUCKLEW DR","TOLEDO","OH",43613,41.7166025880001,-83.5921959199999,219,"1943 BUCKLEW DR, TOLEDO, OH, 43613","Match","Exact","1943 BUCKLEW DR, TOLEDO, OH, 43613",33932972,"L"
295720,"1943 CALLE MIQUELA","SANTA FE","NM",87505,35.642772311,-105.962541056,220,"1943 CALLE MIQUELA, SANTA FE, NM, 87505","Match","Non_Exact","1943 CLL MIQUELA, SANTA FE, NM, 87505",169397717,"R"
295721,"1943 CARMEL CIRCLE","LODI","CA",95242,38.1088300070001,-121.301405379,221,"1943 CARMEL CIRCLE, LODI, CA, 95242","Match","Exact","1943 CARMEL CIR, LODI, CA, 95242",133928488,"R"
295722,"1943 CHASE LN","AURORA","IL",60502,41.780491769,-88.267133432,222,"1943 CHASE LN, AURORA, IL, 60502","Match","Exact","1943 CHASE LN, AURORA, IL, 60502",650852429,"L"
295723,"1943 DEHAVILLAND DRIVE","SARATOGA","CA",95070,NA,NA,223,"1943 DEHAVILLAND DRIVE, SARATOGA, CA, 95070","No_Match",NA,NA,NA,NA
295724,"1943 E 124TH PL","CLEVELAND","OH",44106,41.509629986,-81.596289564,224,"1943 E 124TH PL, CLEVELAND, OH, 44106","Match","Exact","1943 E 124TH PL, CLEVELAND, OH, 44106",61122343,"L"
295725,"1943 FAIRVIEW LANE","EASTON","PA",18042,40.687730222,-75.239644972,225,"1943 FAIRVIEW LANE, EASTON, PA, 18042","Match","Non_Exact","1943 FAIRVIEW AVE, EASTON, PA, 18042",136881751,"R"
295726,"1943 FARMINGTON CT","COLUMBIA","TN",38401,35.6288675260001,-87.112544737,226,"1943 FARMINGTON CT, COLUMBIA, TN, 38401","Match","Exact","1943 FARMINGTON CT, COLUMBIA, TN, 38401",627199236,"R"
295727,"1943 GENERAL JACKSON","BATON ROUGE","LA",70810,30.352603549,-91.128902381,227,"1943 GENERAL JACKSON, BATON ROUGE, LA, 70810","Match","Non_Exact","1943 GENERAL JACKSON AVE, BATON ROUGE, LA, 70810",606165001,"L"
295728,"1943 HICKORY HILLS RD","FLORENCE","AL",35630,34.8284222190001,-87.654471858,228,"1943 HICKORY HILLS RD, FLORENCE, AL, 35630","Match","Exact","1943 HICKORY HILLS RD, FLORENCE, AL, 35630",41341818,"R"
295729,"1943 IVY BRANCH COURT","LOGANVILLE","GA",30052,33.8086262790001,-83.964281327,229,"1943 IVY BRANCH COURT, LOGANVILLE, GA, 30052","Match","Exact","1943 IVY BRANCH CT, LOGANVILLE, GA, 30052",625649194,"R"
295730,"1943 KAYS CREEK","LAYTON","UT",84040,41.084845366,-111.9297621,230,"1943 KAYS CREEK, LAYTON, UT, 84040","Match","Non_Exact","1943 KAYS CREEK DR, LAYTON, UT, 84040",642843193,"L"
295731,"1943 LAKE WATERS PLACE","LUTZ","FL",33558,NA,NA,231,"1943 LAKE WATERS PLACE, LUTZ, FL, 33558","No_Match",NA,NA,NA,NA
295732,"1943 LAKEAIRE DR","SAINT LOUIS","MO",63138,38.7906038630001,-90.225255139,232,"1943 LAKEAIRE DR, SAINT LOUIS, MO, 63138","Match","Exact","1943 LAKEAIRE DR, SAINT LOUIS, MO, 63138",100148669,"R"
295733,"1943 LITCHFIELD DR","DAYTON","OH",45406,39.784111608,-84.239348869,233,"1943 LITCHFIELD DR, DAYTON, OH, 45406","Match","Non_Exact","1943 LITCHFIELD AVE, DAYTON, OH, 45406",143565702,"L"
295734,"1943 MARCH RD EXTENSION","JEFFERSON","OH",44047,NA,NA,234,"1943 MARCH RD EXTENSION, JEFFERSON, OH, 44047","No_Match",NA,NA,NA,NA
295735,"1943 MOUNT VERNON  COURT  APT 303","MOUNTAIN VIEW","CA",94040,37.3959140860001,-122.095231285,235,"1943 MOUNT VERNON  COURT  APT 303, MOUNTAIN VIEW, CA, 94040","Match","Exact","1943 MOUNT VERNON CT, MOUNTAIN VIEW, CA, 94040",122954271,"L"
295736,"1943 N 7TH STREET","COEUR D ALENE","ID",83814,47.6941941040001,-116.775623373,236,"1943 N 7TH STREET, COEUR D ALENE, ID, 83814","Match","Exact","1943 N 7TH ST, COEUR D ALENE, ID, 83814",192922292,"L"
295737,"1943 N COLDSPRING RD","ARLINGTON HEIGHTS","IL",60004,NA,NA,237,"1943 N COLDSPRING RD, ARLINGTON HEIGHTS, IL, 60004","No_Match",NA,NA,NA,NA
295738,"1943 N MAUD","CHICAGO","IL",60614,41.9167634450001,-87.6561167259999,238,"1943 N MAUD, CHICAGO, IL, 60614","Match","Non_Exact","1943 N MAUD AVE, CHICAGO, IL, 60614",111764640,"R"
295739,"1943 N ROWAN AVE","LOS ANGELES","CA",90032,34.0653175190001,-118.188083576,239,"1943 N ROWAN AVE, LOS ANGELES, CA, 90032","Match","Exact","1943 N ROWAN AVE, LOS ANGELES, CA, 90032",141623521,"L"
295740,"1943 NORFOLK - A","HOUSTON","TX",77098,29.7325838040001,-95.407943953,240,"1943 NORFOLK - A, HOUSTON, TX, 77098","Match","Non_Exact","1943 NORFOLK ST, HOUSTON, TX, 77098",96064229,"L"
295741,"1943 OBRIEN AVENUE","CLARION","IA",50525,42.768934293,-93.690587777,241,"1943 OBRIEN AVENUE, CLARION, IA, 50525","Match","Exact","1943 OBRIEN AVE, CLARION, IA, 50525",90723621,"L"
295742,"1943 PINEHURST CT APT F","ALLENTOWNN","PA",18109,NA,NA,242,"1943 PINEHURST CT APT F, ALLENTOWNN, PA, 18109","No_Match",NA,NA,NA,NA
295743,"1943 QUEEN VICTORIA DRIVE","NEW BRAUNFELS","TX",78130,29.671542592,-98.134957839,243,"1943 QUEEN VICTORIA DRIVE, NEW BRAUNFELS, TX, 78130","Match","Exact","1943 QUEEN VICTORIA DR, NEW BRAUNFELS, TX, 78130",72281501,"L"
295744,"1943 ROOSEVELT BLVD","HATFIELD","PA",19440,40.2626228390001,-75.2700769419999,244,"1943 ROOSEVELT BLVD, HATFIELD, PA, 19440","Match","Non_Exact","1943 ROOSEVELT ST, HATFIELD, PA, 19440",135132084,"R"
295745,"1943 SPENCER ROAD","STERLING","MI",48659,44.028250282,-84.085789167,245,"1943 SPENCER ROAD, STERLING, MI, 48659","Match","Exact","1943 SPENCER RD, STERLING, MI, 48659",160912215,"R"
295746,"1943 SUMMIT AVENUE","SAINT PAUL","MN",55105,44.941671023,-93.182011212,246,"1943 SUMMIT AVENUE, SAINT PAUL, MN, 55105","Match","Exact","1943 SUMMIT AVE, SAINT PAUL, MN, 55105",97669917,"R"
295747,"1943 SW BURLINGTON ST","PORT ST LUCIE","FL",34984,27.2833586130001,-80.355940432,247,"1943 SW BURLINGTON ST, PORT ST LUCIE, FL, 34984","Match","Exact","1943 SW BURLINGTON ST, PORT ST LUCIE, FL, 34984",120152814,"L"
295748,"1943 TOLUKA WY","BOISE","ID",83712,43.5858728060001,-116.149045495,248,"1943 TOLUKA WY, BOISE, ID, 83712","Match","Exact","1943 TOLUKA WAY, BOISE, ID, 83712",117893693,"R"
295749,"1943 UPTON","TOLEDO","OH",43606,NA,NA,249,"1943 UPTON, TOLEDO, OH, 43606","No_Match",NA,NA,NA,NA
295750,"1943 W 4TH STREET","JACKSONVILLE","FL",32209,30.3424230300001,-81.691568348,250,"1943 W 4TH STREET, JACKSONVILLE, FL, 32209","Match","Exact","1943 W 4TH ST, JACKSONVILLE, FL, 32209",83894005,"R"
295751,"1943 W 73RD ST","LA","CA",90047,33.9736714800001,-118.312148784,251,"1943 W 73RD ST, LA, CA, 90047","Match","Exact","1943 W 73RD ST, LOS ANGELES, CA, 90047",141658162,"R"
295752,"1943 W NELSON","CHICAGO","IL",60657,41.936848465,-87.677438667,252,"1943 W NELSON, CHICAGO, IL, 60657","Match","Non_Exact","1943 W NELSON ST, CHICAGO, IL, 60657",605236703,"L"
295753,"1943 WARNOCK STREET","PHILADELPHIA","PA",19122,39.981601207,-75.151139771,253,"1943 WARNOCK STREET, PHILADELPHIA, PA, 19122","Match","Non_Exact","1943 N WARNOCK ST, PHILADELPHIA, PA, 19122",131421746,"R"
295754,"1943 WINDCREST DRIVEV","LILBURN","GA",30047,NA,NA,254,"1943 WINDCREST DRIVEV, LILBURN, GA, 30047","No_Match",NA,NA,NA,NA
295755,"1943 WYNHURST CROSSING","STONE MOUNTAIN","GA",30088,33.733958091,-84.1872071019999,255,"1943 WYNHURST CROSSING, STONE MOUNTAIN, GA, 30088","Match","Exact","1943 WYNHURST CROSSING, STONE MOUNTAIN, GA, 30088",23389312,"R"
295756,"19430 20TH AVENUE","BARRYTON","MI",49305,43.7464616840001,-85.127626307,256,"19430 20TH AVENUE, BARRYTON, MI, 49305","Match","Exact","19430 20TH AVE, BARRYTON, MI, 49305",110527518,"R"
295757,"19430 NW 80TH DRIVE","OKEECHOBEE","FL",34972,27.3234639980001,-81.0280516139999,257,"19430 NW 80TH DRIVE, OKEECHOBEE, FL, 34972","Match","Exact","19430 NW 80TH DR, OKEECHOBEE, FL, 34972",4952670,"L"
295758,"19430 OELKE CIRCLE","PRIOR LAKE","MN",55372,44.668509048,-93.461767381,258,"19430 OELKE CIRCLE, PRIOR LAKE, MN, 55372","Match","Exact","19430 OELKE CIR, PRIOR LAKE, MN, 55372",38148085,"L"
295759,"19430 W ARTZHEIM LANE","ELMORE","OH",43416,41.473120631,-83.308393468,259,"19430 W ARTZHEIM LANE, ELMORE, OH, 43416","Match","Exact","19430 ARTZHEIM LN, ELMORE, OH, 43416",44059629,"R"
295760,"19431 58TH AVE SE","BOTHELL","WA",98012,47.8209538730001,-122.154559307,260,"19431 58TH AVE SE, BOTHELL, WA, 98012","Match","Exact","19431 58TH AVE SE, BOTHELL, WA, 98012",652025574,"R"
295761,"19431 62ND AVE NE","KENMMORE","WA",98028,47.7695491600001,-122.259955625,261,"19431 62ND AVE NE, KENMMORE, WA, 98028","Match","Non_Exact","19431 62ND AVE NE, KENMORE, WA, 98028",629169238,"L"
295762,"19431 COUNTY RD 25","BRUSH","CO",80723,40.2811459550001,-103.678335404,262,"19431 COUNTY RD 25, BRUSH, CO, 80723","Match","Exact","19431 CO RD 25, BRUSH, CO, 80723",623987780,"L"
295763,"19431 GAGE LAKE LN","HOUSTON","TX",77084,29.7989856040001,-95.7120200369999,263,"19431 GAGE LAKE LN, HOUSTON, TX, 77084","Match","Non_Exact","19431 GAGELAKE LN, HOUSTON, TX, 77084",96016791,"R"
295764,"19431 GARRETTS MILL RD","KNOXVILLE","MD",21758,39.353428003,-77.691661492,264,"19431 GARRETTS MILL RD, KNOXVILLE, MD, 21758","Match","Exact","19431 GARRETTS MILL RD, KNOXVILLE, MD, 21758",612180032,"L"
295765,"19431 RIVERVIEW AVE","ROCKY RIVER","OH",44116,41.4770110100001,-81.8374178289999,265,"19431 RIVERVIEW AVE, ROCKY RIVER, OH, 44116","Match","Exact","19431 RIVERVIEW AVE, ROCKY RIVER, OH, 44116",61097631,"L"
295766,"19431 RUE DE VALORE 34G","FOOTHILL RANCH","CA",92610,33.6800222430001,-117.653864258,266,"19431 RUE DE VALORE 34G, FOOTHILL RANCH, CA, 92610","Match","Exact","19431 RUE DE VALORE, FOOTHILL RNCH, CA, 92610",144404796,"R"
295767,"19432 N RH JOHNSON BOULEVARD","SUN CITY WEST","AZ",85375,33.6616702910001,-112.358311759,267,"19432 N RH JOHNSON BOULEVARD, SUN CITY WEST, AZ, 85375","Match","Non_Exact","19432 N R H JOHNSON BLVD, SUN CITY WEST, AZ, 85375",128161508,"L"
295768,"19432 POMPANO LANE 110","HUNTINGTON BEACH","CA",92648,33.681003854,-117.996212493,268,"19432 POMPANO LANE 110, HUNTINGTON BEACH, CA, 92648","Match","Exact","19432 POMPANO LN, HUNTINGTON BEACH, CA, 92648",144416314,"L"
295769,"19432 RADLETT AVE","CARSON","CA",90746,33.8541185390001,-118.246198959,269,"19432 RADLETT AVE, CARSON, CA, 90746","Match","Exact","19432 RADLETT AVE, CARSON, CA, 90746",141681118,"L"
295770,"19432 STONEGATE DRIVE","PRIOR LAKE","MN",55372,44.6678478260001,-93.3265732839999,270,"19432 STONEGATE DRIVE, PRIOR LAKE, MN, 55372","Match","Exact","19432 STONEGATE DR, PRIOR LAKE, MN, 55372",624803057,"L"
295771,"194330 NE 194TH ST","GRESHAM","OR",97233,NA,NA,271,"194330 NE 194TH ST, GRESHAM, OR, 97233","No_Match",NA,NA,NA,NA
295772,"19434 CREEKROUND AVENUE","BATON ROUGE","LA",70817,30.409843933,-90.9733569059999,272,"19434 CREEKROUND AVENUE, BATON ROUGE, LA, 70817","Match","Non_Exact","19434 CREEK ROUND AVE, BATON ROUGE, LA, 70817",92206050,"R"
295773,"19434 ENCHANTED STREAM DR","SPRING","TX",77388,30.043479694,-95.444841846,273,"19434 ENCHANTED STREAM DR, SPRING, TX, 77388","Match","Exact","19434 ENCHANTED STREAM DR, SPRING, TX, 77388",96666948,"R"
295774,"19434 JUSTINE","DETROIT","MI",48234,42.436866837,-83.058957758,274,"19434 JUSTINE, DETROIT, MI, 48234","Match","Non_Exact","19434 JUSTINE ST, DETROIT, MI, 48234",95464425,"R"
295775,"19434 LONDELIUS ST STE 102","NORTHRIDGE","CA",91324,34.2298636300001,-118.556395796,275,"19434 LONDELIUS ST STE 102, NORTHRIDGE, CA, 91324","Match","Exact","19434 LONDELIUS ST, NORTHRIDGE, CA, 91324",141540251,"L"
295776,"19434 LONDELIUS ST STE 102","NORTHRIDGE","CO",91324,NA,NA,276,"19434 LONDELIUS ST STE 102, NORTHRIDGE, CO, 91324","No_Match",NA,NA,NA,NA
295777,"19434 LONDELIUS ST STE 105 C","NORTHRIDGE","CA",91324,34.2298636300001,-118.556395796,277,"19434 LONDELIUS ST STE 105 C, NORTHRIDGE, CA, 91324","Match","Exact","19434 LONDELIUS ST, NORTHRIDGE, CA, 91324",141540251,"L"
295778,"19434 LONDELIUS ST STE 111","NORTHRIDGE","CA",91324,34.2298636300001,-118.556395796,278,"19434 LONDELIUS ST STE 111, NORTHRIDGE, CA, 91324","Match","Exact","19434 LONDELIUS ST, NORTHRIDGE, CA, 91324",141540251,"L"
295779,"19434 LONDELIUS ST STE 112","NORTHRIDGE","CA",91324,34.2298636300001,-118.556395796,279,"19434 LONDELIUS ST STE 112, NORTHRIDGE, CA, 91324","Match","Exact","19434 LONDELIUS ST, NORTHRIDGE, CA, 91324",141540251,"L"
295780,"19434 STRATFORD RD","DETROIT","MI",48221,42.435488509,-83.135897824,280,"19434 STRATFORD RD, DETROIT, MI, 48221","Match","Exact","19434 STRATFORD RD, DETROIT, MI, 48221",95461066,"R"
295781,"19434 WASHBURN","DETROIT","MI",48221,42.4352922730001,-83.162183903,281,"19434 WASHBURN, DETROIT, MI, 48221","Match","Non_Exact","19434 WASHBURN ST, DETROIT, MI, 48221",95425191,"R"
295782,"19435 CAMERON ST","DETROIT","MI",48203,42.436132679,-83.09376009,282,"19435 CAMERON ST, DETROIT, MI, 48203","Match","Exact","19435 CAMERON ST, DETROIT, MI, 48203",95463005,"L"
295783,"19435 COUNTY ROAD 1525","ADA","OK",74820,34.803254376,-96.612395369,283,"19435 COUNTY ROAD 1525, ADA, OK, 74820","Match","Exact","19435 CR 1525, ADA, OK, 74820",606908861,"L"
295784,"19435 CR 1525","ADA","OK",74820,34.803254376,-96.612395369,284,"19435 CR 1525, ADA, OK, 74820","Match","Exact","19435 CR 1525, ADA, OK, 74820",606908861,"L"
295785,"19435 FENTON DEDEAUX ROAD","KILN","MS",39556,30.4551651420001,-89.3724864,285,"19435 FENTON DEDEAUX ROAD, KILN, MS, 39556","Match","Exact","19435 FENTON DEDEAUX RD, KILN, MS, 39556",111124678,"L"
295786,"19435 HARTWELL ST","DETROIT","NV",48235,NA,NA,286,"19435 HARTWELL ST, DETROIT, NV, 48235","No_Match",NA,NA,NA,NA
295787,"19435 NW 2ND COURT","MIAMI","FL",33169,25.953128238,-80.207189348,287,"19435 NW 2ND COURT, MIAMI, FL, 33169","Match","Exact","19435 NW 2ND CT, MIAMI, FL, 33169",116029637,"R"
295788,"19435 WOOLEY CREEK AVENUE","CALDWELL","ID",83605,43.655086758,-116.625974881,288,"19435 WOOLEY CREEK AVENUE, CALDWELL, ID, 83605","Match","Exact","19435 WOOLEY CREEK AVE, CALDWELL, ID, 83605",619861002,"R"
295789,"19436 QUARRY RD","WARRENTON","MO",63383,38.7568505340001,-91.135691179,289,"19436 QUARRY RD, WARRENTON, MO, 63383","Match","Exact","19436 QUARRY RD, WARRENTON, MO, 63383",90111973,"L"
295790,"19437 140TH AVE SE","RENTON","WA",98058,47.4277554280001,-122.154557935,290,"19437 140TH AVE SE, RENTON, WA, 98058","Match","Exact","19437 140TH AVE SE, RENTON, WA, 98058",186713975,"R"
295791,"19437 1ST  AVE NE","POULSBO","WA",98370,47.739447027,-122.648276307,291,"19437 1ST  AVE NE, POULSBO, WA, 98370","Match","Exact","19437 1ST AVE NE, POULSBO, WA, 98370",187671815,"L"
295792,"19437 MANCHESTER DR","MOKENA","IL",60448,41.5365868900001,-87.856879212,292,"19437 MANCHESTER DR, MOKENA, IL, 60448","Match","Exact","19437 MANCHESTER DR, MOKENA, IL, 60448",111579665,"L"
295793,"19437 NEW TRADITION RD UNIT 5725","SUN CITY WEST","AZ",85376,NA,NA,293,"19437 NEW TRADITION RD UNIT 5725, SUN CITY WEST, AZ, 85376","No_Match",NA,NA,NA,NA
295794,"19437 WOODLAND","HARPER WOODS","MI",48225,42.4370078060001,-82.937430005,294,"19437 WOODLAND, HARPER WOODS, MI, 48225","Match","Non_Exact","19437 WOODLAND ST, HARPER WOODS, MI, 48225",95486523,"L"
295795,"19438 114TH DRIVE","SAINT ALBANS","NY",11412,NA,NA,295,"19438 114TH DRIVE, SAINT ALBANS, NY, 11412","No_Match",NA,NA,NA,NA
295796,"19438 SHUMARD OAK DRIVE UNIT 102","LAND O LAKES","FL",34638,NA,NA,296,"19438 SHUMARD OAK DRIVE UNIT 102, LAND O LAKES, FL, 34638","No_Match",NA,NA,NA,NA
295797,"19439 HILLSIDE SPRINGS CIRCLE","HOUSTON","TX",77084,29.8122352130001,-95.709410278,297,"19439 HILLSIDE SPRINGS CIRCLE, HOUSTON, TX, 77084","Match","Exact","19439 HILLSIDE SPRINGS CIR, HOUSTON, TX, 77084",96564008,"R"
295798,"19439 LAMONT ST","DETROIT","MI",48234,42.4369714200001,-83.055000697,298,"19439 LAMONT ST, DETROIT, MI, 48234","Match","Exact","19439 LAMONT ST, DETROIT, MI, 48234",95464445,"L"
295799,"19439 SHUMARD OAK DRIVE UNIT 102","LAND O LAKES","FL",34638,NA,NA,299,"19439 SHUMARD OAK DRIVE UNIT 102, LAND O LAKES, FL, 34638","No_Match",NA,NA,NA,NA
295800,"1944 1/2 NORTH VERMONT AVENUE","LOS ANGELES","CA",90027,34.1067048890001,-118.291776997,300,"1944 1/2 NORTH VERMONT AVENUE, LOS ANGELES, CA, 90027","Match","Exact","1944 N VERMONT AVE, LOS ANGELES, CA, 90027",141597556,"R"
295801,"1944 19TH COURT","JUPITER","FL",33477,26.891901756,-80.0673194189999,301,"1944 19TH COURT, JUPITER, FL, 33477","Match","Exact","1944 19TH CT, JUPITER, FL, 33477",115565623,"L"
295802,"1944 ARROWOOD DRIVE","BENSALEM","PA",19020,40.105887696,-74.935192032,302,"1944 ARROWOOD DRIVE, BENSALEM, PA, 19020","Match","Exact","1944 ARROWOOD DR, BENSALEM, PA, 19020",639112521,"L"
295803,"1944 ASHLEY ROAD","PHILADELPHIA","PA",19138,40.0660921260001,-75.148593935,303,"1944 ASHLEY ROAD, PHILADELPHIA, PA, 19138","Match","Non_Exact","1944 ASHLEY ST, PHILADELPHIA, PA, 19138",131413049,"L"
295804,"1944 B ST","LINCOLN","NE",68502,40.800274883,-96.692944207,304,"1944 B ST, LINCOLN, NE, 68502","Match","Exact","1944 B ST, LINCOLN, NE, 68502",28254836,"L"
295805,"1944 BACK RD","BELVIDERE","VT",5442,44.743629733,-72.730034664,305,"1944 BACK RD, BELVIDERE, VT, 5442","Match","Non_Exact","1944 BACK RD, BELVIDERE CTR, VT, 05442",136631776,"L"
295806,"1944 BARRETT WEST COURT","BUFORD","GA",30518,NA,NA,306,"1944 BARRETT WEST COURT, BUFORD, GA, 30518","No_Match",NA,NA,NA,NA
295807,"1944 BELSLY BLVD","MOORHEAD","MN",56560,46.841976291,-96.748358535,307,"1944 BELSLY BLVD, MOORHEAD, MN, 56560","Match","Exact","1944 BELSLY BLVD, MOORHEAD, MN, 56560",168030701,"L"
295808,"1944 CECILEE ST","WORTHINGTON","MN",56187,43.6350287180001,-95.580296684,308,"1944 CECILEE ST, WORTHINGTON, MN, 56187","Match","Exact","1944 CECILEE ST, WORTHINGTON, MN, 56187",29726683,"L"
295809,"1944 CHAUCER DRIVE","CINCINNATI","OH",45237,39.2098902980001,-84.450971845,309,"1944 CHAUCER DRIVE, CINCINNATI, OH, 45237","Match","Exact","1944 CHAUCER DR, CINCINNATI, OH, 45237",103968200,"R"
295810,"1944 CO RD CKK","CHAMPION","MI",49814,46.5117672330001,-87.827500926,310,"1944 CO RD CKK, CHAMPION, MI, 49814","Match","Exact","1944 CO RD CKK, CHAMPION, MI, 49814",182051880,"R"
295811,"1944 COUNTRY CLUB DR","BONIFAY","FL",32425,30.855313924,-85.7444121,311,"1944 COUNTRY CLUB DR, BONIFAY, FL, 32425","Match","Exact","1944 COUNTRY CLUB DR, BONIFAY, FL, 32425",32659117,"R"
295812,"1944 COUNTRY CLUB DRIVE","BATON ROUGE","LA",70808,30.4309135450001,-91.141805941,312,"1944 COUNTRY CLUB DRIVE, BATON ROUGE, LA, 70808","Match","Exact","1944 COUNTRY CLUB DR, BATON ROUGE, LA, 70808",92184783,"R"
295813,"1944 CREEK VIEW CT","CHANHASSEN","MN",55317,44.853664592,-93.57080107,313,"1944 CREEK VIEW CT, CHANHASSEN, MN, 55317","Match","Exact","1944 CREEK VIEW CT, CHANHASSEN, MN, 55317",43504816,"R"
295814,"1944 E 12TH STREET","BROOKLYN","NY",11229,40.6019432100001,-73.960464588,314,"1944 E 12TH STREET, BROOKLYN, NY, 11229","Match","Exact","1944 E 12TH ST, BROOKLYN, NY, 11229",652211897,"R"
295815,"1944 E AVENIDA DEL ORO","PHOENIX","AZ",85022,33.6077473760001,-112.040069095,315,"1944 E AVENIDA DEL ORO, PHOENIX, AZ, 85022","Match","Exact","1944 E AVE DEL ORO, PHOENIX, AZ, 85022",128183943,"L"
295816,"1944 E PARADISE AVENUE","VISALIA","CA",93292,36.316791016,-119.271146178,316,"1944 E PARADISE AVENUE, VISALIA, CA, 93292","Match","Exact","1944 E PARADISE AVE, VISALIA, CA, 93292",202782396,"L"
295817,"1944 EAST 120TH ST","CLEVELAND","OH",44106,41.509669364,-81.599336837,317,"1944 EAST 120TH ST, CLEVELAND, OH, 44106","Match","Exact","1944 E 120TH ST, CLEVELAND, OH, 44106",61122332,"R"
295818,"1944 EAST BEECH RD","STERLING","VA",20164,39.0037190840001,-77.382375553,318,"1944 EAST BEECH RD, STERLING, VA, 20164","Match","Exact","1944 E BEECH RD, STERLING, VA, 20164",62331336,"R"
295819,"1944 EMERYVILLE COURT","CHULA VISTA","CA",91913,32.637454962,-116.977710965,319,"1944 EMERYVILLE COURT, CHULA VISTA, CA, 91913","Match","Exact","1944 EMERYVILLE CT, CHULA VISTA, CA, 91913",195764971,"R"
295820,"1944 FAIRWAY ROAD","HELLERTOWN","PA",18055,40.576455298,-75.320706919,320,"1944 FAIRWAY ROAD, HELLERTOWN, PA, 18055","Match","Exact","1944 FAIRWAY RD, HELLERTOWN, PA, 18055",136893737,"L"
295821,"1944 FOREST PARK DRIVE","ANCHORAGE","AK",99517,61.2035601870001,-149.924498502,321,"1944 FOREST PARK DRIVE, ANCHORAGE, AK, 99517","Match","Exact","1944 FOREST PARK DR, ANCHORAGE, AK, 99517",190794904,"R"
295822,"1944 LEVINE LANE","CLEARWATER","FL",33760,27.9255014280001,-82.724091022,322,"1944 LEVINE LANE, CLEARWATER, FL, 33760","Match","Exact","1944 LEVINE LN, CLEARWATER, FL, 33760",124720040,"L"
295823,"1944 LINDEN AVE APT 2D","HIGHLAND PARK","IL",60035,42.187551179,-87.794838762,323,"1944 LINDEN AVE APT 2D, HIGHLAND PARK, IL, 60035","Match","Exact","1944 LINDEN AVE, HIGHLAND PARK, IL, 60035",119651668,"L"
295824,"1944 MARYLAND AVE","WILMINGTON","DE",19805,39.7336580740001,-75.576381408,324,"1944 MARYLAND AVE, WILMINGTON, DE, 19805","Match","Exact","1944 MARYLAND AVE, WILMINGTON, DE, 19805",647606571,"L"
295825,"1944 MEADOWLANE","ORRVILLE","OH",44667,NA,NA,325,"1944 MEADOWLANE, ORRVILLE, OH, 44667","No_Match",NA,NA,NA,NA
295826,"1944 N PINEVIEW DR","ANDOVER","KS",67002,NA,NA,326,"1944 N PINEVIEW DR, ANDOVER, KS, 67002","Tie",NA,NA,NA,NA
295827,"1944 NE 2 AVENUE","POMPANO BEACH","FL",33060,26.254609406,-80.1211723599999,327,"1944 NE 2 AVENUE, POMPANO BEACH, FL, 33060","Match","Exact","1944 NE 2ND AVE, POMPANO BEACH, FL, 33060",114744414,"R"
295828,"1944 NEWCOMB","PORTERVILLE","CA",93257,NA,NA,328,"1944 NEWCOMB, PORTERVILLE, CA, 93257","No_Match",NA,NA,NA,NA
295829,"1944 NW JOHNSON APT 102","PORTLAND","OR",97209,NA,NA,329,"1944 NW JOHNSON APT 102, PORTLAND, OR, 97209","No_Match",NA,NA,NA,NA
295830,"1944 PICCADILLY CIRCUS","NAPLES","FL",34112,26.135987829,-81.736853965,330,"1944 PICCADILLY CIRCUS, NAPLES, FL, 34112","Match","Exact","1944 PICCADILLY CIRCUS, NAPLES, FL, 34112",115154550,"R"
295831,"1944 QUAIL CIR","LOUISVILLE","CO",80027,39.9890658510001,-105.147225518,331,"1944 QUAIL CIR, LOUISVILLE, CO, 80027","Match","Exact","1944 QUAIL CIR, LOUISVILLE, CO, 80027",220749227,"L"
295832,"1944 REDLAND ROAD","CAMPOBELLO","SC",29322,35.1505832170001,-82.1406627649999,332,"1944 REDLAND ROAD, CAMPOBELLO, SC, 29322","Match","Exact","1944 REDLAND RD, CAMPOBELLO, SC, 29322",19457148,"L"
295833,"1944 ROSEMARY HILLS DRIVE UNIT R2","SILVERSPRING","MD",20910,38.9987982380001,-77.042173733,333,"1944 ROSEMARY HILLS DRIVE UNIT R2, SILVERSPRING, MD, 20910","Match","Non_Exact","1944 ROSEMARY HILLS DR, SILVER SPRING, MD, 20910",62141058,"L"
295834,"1944 S 15TH AVENUE","BROADVIEW","IL",60155,NA,NA,334,"1944 S 15TH AVENUE, BROADVIEW, IL, 60155","Tie",NA,NA,NA,NA
295835,"1944 S BEVERLY GLEN BLVD APT 5","LOS ANGELES","CA",90025,34.054469381,-118.423045916,335,"1944 S BEVERLY GLEN BLVD APT 5, LOS ANGELES, CA, 90025","Match","Non_Exact","1944 S BEVERLY GLEN BLVD, LOS ANGELES, CA, 90025",141571360,"L"
295836,"1944 S CAMERON DRIVE","OGDEN","UT",84401,41.229487444,-112.050466183,336,"1944 S CAMERON DRIVE, OGDEN, UT, 84401","Match","Exact","1944 CAMERON DR, OGDEN, UT, 84401",605799799,"L"
295837,"1944 S YOUNGS RD","GLADWIN","MI",48624,44.00172415,-84.444251282,337,"1944 S YOUNGS RD, GLADWIN, MI, 48624","Match","Non_Exact","1944 W YOUNGS RD, GLADWIN, MI, 48624",625013235,"R"
295838,"1944 SAFFORD BLVD","PORT ALLEN","LA",70767,30.4017040840001,-91.225228494,338,"1944 SAFFORD BLVD, PORT ALLEN, LA, 70767","Match","Exact","1944 SAFFORD BLVD, PORT ALLEN, LA, 70767",92297350,"R"
295839,"1944 SAFFORD DR","PORT ALLEN","LA",70767,30.4017040840001,-91.225228494,339,"1944 SAFFORD DR, PORT ALLEN, LA, 70767","Match","Non_Exact","1944 SAFFORD BLVD, PORT ALLEN, LA, 70767",92297350,"R"
295840,"1944 SE 157TH DR","PORTLAND","OR",97233,45.5095983840001,-122.501854566,340,"1944 SE 157TH DR, PORTLAND, OR, 97233","Match","Exact","1944 SE 157TH DR, PORTLAND, OR, 97233",157523552,"L"
295841,"1944 SE REDWING CIRCLE","PORT ST LUCIE","FL",34952,27.2821427920001,-80.3075054989999,341,"1944 SE REDWING CIRCLE, PORT ST LUCIE, FL, 34952","Match","Exact","1944 SE REDWING CIR, PORT ST LUCIE, FL, 34952",120154350,"R"
295842,"1944 SOUTH 13TH AVENUE","BROADVIEW","IL",60153,41.8688109330001,-87.848317255,342,"1944 SOUTH 13TH AVENUE, BROADVIEW, IL, 60153","Match","Non_Exact","1944 S 13TH AVE, BROADVIEW, IL, 60155",111790973,"R"
295843,"1944 SOUTH MARVIN AVENUE APT 6","LOS ANGELES","CA",90016,34.03904493,-118.362721577,343,"1944 SOUTH MARVIN AVENUE APT 6, LOS ANGELES, CA, 90016","Match","Exact","1944 S MARVIN AVE, LOS ANGELES, CA, 90016",653271246,"L"
295844,"1944 SQUIRREL RD","BLOOMFIELD HILLS","MI",48304,42.611766435,-83.2230835669999,344,"1944 SQUIRREL RD, BLOOMFIELD HILLS, MI, 48304","Match","Exact","1944 SQUIRREL RD, BLOOMFIELD HILLS, MI, 48304",69764973,"R"
295845,"1944 STERLING PLACE","LANCASTER","PA",17601,40.0812838790001,-76.3052934519999,345,"1944 STERLING PLACE, LANCASTER, PA, 17601","Match","Exact","1944 STERLING PL, LANCASTER, PA, 17601",179662172,"L"
295846,"1944 STONE RIDGE DR","ASHLAND","OH",44805,40.8467854,-82.3324202379999,346,"1944 STONE RIDGE DR, ASHLAND, OH, 44805","Match","Exact","1944 STONE RIDGE DR, ASHLAND, OH, 44805",643993754,"R"
295847,"1944 SW 27TH STREET APT 156","LINCOLN","NE",68522,40.7935123770001,-96.7589637579999,347,"1944 SW 27TH STREET APT 156, LINCOLN, NE, 68522","Match","Non_Exact","1944 SW 27TH ST, LINCOLN, NE, 68522",28296578,"L"
295848,"1944 SW BOWMAN CT","TOPEKA","KS",66604,39.032354357,-95.721246569,348,"1944 SW BOWMAN CT, TOPEKA, KS, 66604","Match","Exact","1944 SW BOWMAN CT, TOPEKA, KS, 66604",17886553,"L"
295849,"1944 TREASURE LAKE","DUBOIS","PA",15801,NA,NA,349,"1944 TREASURE LAKE, DUBOIS, PA, 15801","No_Match",NA,NA,NA,NA
295850,"1944 UNIONTOWN ROAD","JAMESVILLE","NC",27846,35.807800383,-76.8157878379999,350,"1944 UNIONTOWN ROAD, JAMESVILLE, NC, 27846","Match","Exact","1944 UNIONTOWN RD, JAMESVILLE, NC, 27846",56802362,"L"
295851,"1944 US 13 N","AHOSKIE","NC",27910,36.142236428,-76.9557669599999,351,"1944 US 13 N, AHOSKIE, NC, 27910","Match","Non_Exact","1944 US HWY 13 N, AHOSKIE, NC, 27910",642171791,"R"
295852,"1944 VISTA CREEK DRIVE","FRISCO","TX",75036,33.147063148,-96.9086745119999,352,"1944 VISTA CREEK DRIVE, FRISCO, TX, 75036","Match","Exact","1944 VISTA CREEK DR, FRISCO, TX, 75036",647126284,"L"
295853,"1944 W ALBION AVENUE","CHICAGO","IL",60626,42.004079115,-87.6802461569999,353,"1944 W ALBION AVENUE, CHICAGO, IL, 60626","Match","Exact","1944 W ALBION AVE, CHICAGO, IL, 60626",111891786,"R"
295854,"1944 W BUSINESS 77","SAN BENITO","TX",78586,NA,NA,354,"1944 W BUSINESS 77, SAN BENITO, TX, 78586","No_Match",NA,NA,NA,NA
295855,"1944 W CHICAGO AVE 3R","CHICAGO","IL",60622,41.8959316610001,-87.676386572,355,"1944 W CHICAGO AVE 3R, CHICAGO, IL, 60622","Match","Non_Exact","1944 W CHICAGO AVE, CHICAGO, IL, 60622",605067812,"R"
295856,"1944 WHITLEY AVE UNIT 103","LOS ANGELES","CA",90068,34.106498663,-118.333343838,356,"1944 WHITLEY AVE UNIT 103, LOS ANGELES, CA, 90068","Match","Exact","1944 WHITLEY AVE, LOS ANGELES, CA, 90068",141594742,"R"
295857,"19440 GLENWOOD ROAD","CHICAGO HEIGHTS","IL",60411,41.536574381,-87.63038417,357,"19440 GLENWOOD ROAD, CHICAGO HEIGHTS, IL, 60411","Match","Exact","19440 GLENWOOD RD, CHICAGO HEIGHTS, IL, 60411",111713258,"L"
295858,"19440 NE 2ND AVE","MIAMI","FL",33179,25.953052857,-80.1974289739999,358,"19440 NE 2ND AVE, MIAMI, FL, 33179","Match","Non_Exact","19440 NE 2ND AVE, MIAMI, FL, 33179",116030519,"L"
295859,"19440 NW 8 AVE","MIAMI","FL",33169,25.953034367,-80.21531731,359,"19440 NW 8 AVE, MIAMI, FL, 33169","Match","Exact","19440 NW 8TH AVE, MIAMI, FL, 33169",116029525,"L"
295860,"19440 ORWELL CT N","MARINE ON ST CROIX","MN",55047,45.230611186,-92.810318018,360,"19440 ORWELL CT N, MARINE ON ST CROIX, MN, 55047","Match","Exact","19440 ORWELL CT N, MARINE ON SAINT CROIX, MN, 55047",653419476,"R"
295861,"19441 E WYOMING AVE","AURORA","CO",80017,39.6916323840001,-104.760234813,361,"19441 E WYOMING AVE, AURORA, CO, 80017","Match","Exact","19441 E WYOMING AVE, AURORA, CO, 80017",177541901,"L"
295862,"19441 SIDNEY FREYBURG RD","BOTKINS","OH",45306,40.4815774520001,-84.1356094239999,362,"19441 SIDNEY FREYBURG RD, BOTKINS, OH, 45306","Match","Exact","19441 SIDNEY FREYBURG RD, BOTKINS, OH, 45306",52217102,"L"
295863,"19442 LARODA LANE","SANTA CLARITA","CA",91350,34.446178893,-118.478244062,363,"19442 LARODA LANE, SANTA CLARITA, CA, 91350","Match","Exact","19442 LARODA LN, SANTA CLARITA, CA, 91350",629435508,"L"
295864,"19442 SARA LANE","FLINT","TX",75762,32.195933478,-95.322751452,364,"19442 SARA LANE, FLINT, TX, 75762","Match","Exact","19442 SARA LN, FLINT, TX, 75762",636744014,"R"
295865,"19442 SUNRAY LANE 101","HUNTINGTON BEACH","CA",92684,33.6813146920001,-117.997035131,365,"19442 SUNRAY LANE 101, HUNTINGTON BEACH, CA, 92684","Match","Non_Exact","19442 SUNRAY LN, HUNTINGTON BEACH, CA, 92648",144105912,"R"
295866,"19443 BIRWOOD STREET","DETROIT","MI",48221,42.4352541110001,-83.1654912079999,366,"19443 BIRWOOD STREET, DETROIT, MI, 48221","Match","Exact","19443 BIRWOOD ST, DETROIT, MI, 48221",95425170,"L"
295867,"19443 LANCASHIRE","DETROIT","MI",48223,42.407900189,-83.233629761,367,"19443 LANCASHIRE, DETROIT, MI, 48223","Match","Non_Exact","19443 LANCASHIRE ST, DETROIT, MI, 48223",95496741,"L"
295868,"19443 NW 28TH CT","MIAMI GARDENS","FL",33056,25.951211701,-80.248665707,368,"19443 NW 28TH CT, MIAMI GARDENS, FL, 33056","Match","Exact","19443 NW 28TH CT, MIAMI GARDENS, FL, 33056",116027674,"R"
295869,"19443 SIERRA VERDE RD","VALLEY CENTER","CA",92082,33.203144152,-116.929084358,369,"19443 SIERRA VERDE RD, VALLEY CENTER, CA, 92082","Match","Exact","19443 SIERRA VERDE RD, VALLEY CENTER, CA, 92082",195463457,"R"
295870,"19443 SLOUGH ROAD","DEFIANCE","OH",43512,NA,NA,370,"19443 SLOUGH ROAD, DEFIANCE, OH, 43512","No_Match",NA,NA,NA,NA
295871,"19443 YUKON RIVER","MACOMB TOWNSHIP","MI",48044,42.631869464,-82.9283889819999,371,"19443 YUKON RIVER, MACOMB TOWNSHIP, MI, 48044","Match","Non_Exact","19443 YUKON RIVER DR, MACOMB, MI, 48044",617127205,"R"
295872,"19444 CR 19 5","FORT MORGAN","CO",80701,NA,NA,372,"19444 CR 19 5, FORT MORGAN, CO, 80701","No_Match",NA,NA,NA,NA
295873,"19444 MULBERRY KNOLL ROAD","L","DE",19958,38.719730403,-75.153078659,373,"19444 MULBERRY KNOLL ROAD, L, DE, 19958","Match","Non_Exact","19444 MULBERRY KNOLL RD, LEWES, DE, 19958",106136081,"L"
295874,"19444 MULBERRY KNOLL ROAD","LEWES","DE",19958,38.719730403,-75.153078659,374,"19444 MULBERRY KNOLL ROAD, LEWES, DE, 19958","Match","Exact","19444 MULBERRY KNOLL RD, LEWES, DE, 19958",106136081,"L"
295875,"19444 PREVOST","DETROIT","MI",48235,42.434322766,-83.2043579469999,375,"19444 PREVOST, DETROIT, MI, 48235","Match","Non_Exact","19444 PREVOST AVE, DETROIT, MI, 48235",95422991,"R"
295876,"19445 GLOUCESTER","DETROIT","MI",48203,42.4364647420001,-83.12525607,376,"19445 GLOUCESTER, DETROIT, MI, 48203","Match","Non_Exact","19445 GLOUCESTER DR, DETROIT, MI, 48203",95506272,"L"
295877,"19445 N DEL NORTE PL","MOUNTAIN HOME","ID",83647,NA,NA,377,"19445 N DEL NORTE PL, MOUNTAIN HOME, ID, 83647","No_Match",NA,NA,NA,NA
295878,"19445 PADDOCK VIEW DRIVE","TAMPA","FL",33647,28.167815262,-82.2968628519999,378,"19445 PADDOCK VIEW DRIVE, TAMPA, FL, 33647","Match","Exact","19445 PADDOCK VIEW DR, TAMPA, FL, 33647",646559961,"R"
295879,"19445 W WARREN AVE","DETROIT","MI",48228,42.34318534,-83.231064551,379,"19445 W WARREN AVE, DETROIT, MI, 48228","Match","Exact","19445 W WARREN AVE, DETROIT, MI, 48228",95439303,"L"
295880,"19448 SATICOY STREET","RESEDA","CA",91335,34.208357864,-118.556784856,380,"19448 SATICOY STREET, RESEDA, CA, 91335","Match","Exact","19448 SATICOY ST, RESEDA, CA, 91335",141540711,"L"
295881,"19448 SW 27TH STREET","MIRAMAR","FL",33029,25.9842053400001,-80.405748374,381,"19448 SW 27TH STREET, MIRAMAR, FL, 33029","Match","Exact","19448 SW 27TH ST, MIRAMAR, FL, 33029",114816960,"R"
295882,"19448 WEST TRI OAK CRICLE","WYOMING","MN",55092,NA,NA,382,"19448 WEST TRI OAK CRICLE, WYOMING, MN, 55092","No_Match",NA,NA,NA,NA
295883,"19449 123RD AVE","WHITEW","SD",57793,44.584123762,-103.588017086,383,"19449 123RD AVE, WHITEW, SD, 57793","Match","Non_Exact","19449 123RD AVE, WHITEWOOD, SD, 57793",193361012,"L"
295884,"1945 11TH STREET","PENROSE","CO",81240,38.4178889120001,-104.960933445,384,"1945 11TH STREET, PENROSE, CO, 81240","Match","Exact","1945 11TH ST, PENROSE, CO, 81240",612607187,"L"
295885,"1945 215TH ST","AUDUBON","IA",50025,41.695486277,-94.909640048,385,"1945 215TH ST, AUDUBON, IA, 50025","Match","Exact","1945 215TH ST, AUDUBON, IA, 50025",61732474,"R"
295886,"1945 28TH ST SW FRONT BUILDING","WYOMING","MI",49519,42.913672665,-85.713550648,386,"1945 28TH ST SW FRONT BUILDING, WYOMING, MI, 49519","Match","Exact","1945 28TH ST SW, WYOMING, MI, 49519",12454258,"R"
295887,"1945 9TH AVE W","SEATTLE","WA",98119,47.636417442,-122.369017249,387,"1945 9TH AVE W, SEATTLE, WA, 98119","Match","Exact","1945 9TH AVE W, SEATTLE, WA, 98119",186581864,"L"
295888,"1945 ACACIAWOOD WAY","HOUSTON","TX",77051,29.639892764,-95.4012013719999,388,"1945 ACACIAWOOD WAY, HOUSTON, TX, 77051","Match","Exact","1945 ACACIAWOOD WAY, HOUSTON, TX, 77051",651864445,"L"
295889,"1945 ALBEMARLE ROAD","SOUTHPORT","NC",28461,34.0575038970001,-78.038904192,389,"1945 ALBEMARLE ROAD, SOUTHPORT, NC, 28461","Match","Exact","1945 ALBEMARLE RD, SOUTHPORT, NC, 28461",153151288,"L"
295890,"1945 AMHURST COURT","NAVARRE","FL",32566,30.4064727090001,-86.9156356509999,390,"1945 AMHURST COURT, NAVARRE, FL, 32566","Match","Exact","1945 AMHURST CT, NAVARRE, FL, 32566",74569611,"L"
295891,"1945 ARRLINGTON CT","MANTECA","CA",95337,37.7728920760001,-121.212742428,391,"1945 ARRLINGTON CT, MANTECA, CA, 95337","Match","Non_Exact","1945 ARLINGTON PL, MANTECA, CA, 95337",133931535,"R"
295892,"1945 BEACH PARK BLVD","FOSTER CITY","CA",94404,37.5708245020001,-122.263601966,392,"1945 BEACH PARK BLVD, FOSTER CITY, CA, 94404","Match","Exact","1945 BEACH PARK BLVD, FOSTER CITY, CA, 94404",192384350,"L"
295893,"1945 BLOSSOM ROCK PL","GOLD RIVER","CA",95670,38.6305929540001,-121.262738052,393,"1945 BLOSSOM ROCK PL, GOLD RIVER, CA, 95670","Match","Exact","1945 BLOSSOM ROCK PL, GOLD RIVER, CA, 95670",133346842,"L"
295894,"1945 BRIARWOOD ST","PRATTVILLE","AL",36066,32.4647658270001,-86.41654347,394,"1945 BRIARWOOD ST, PRATTVILLE, AL, 36066","Match","Exact","1945 BRIARWOOD ST, PRATTVILLE, AL, 36066",2850868,"R"
295895,"1945 BRILAND COURT","GLEN ALLEN","VA",23060,37.6539566920001,-77.474446197,395,"1945 BRILAND COURT, GLEN ALLEN, VA, 23060","Match","Non_Exact","1945 BRILLAND CT, GLEN ALLEN, VA, 23060",637496969,"R"
295896,"1945 CEDAREDGE ROAD","ROCHESTER HILLS","MI",48306,42.705027005,-83.1738218629999,396,"1945 CEDAREDGE ROAD, ROCHESTER HILLS, MI, 48306","Match","Exact","1945 CEDAREDGE RD, ROCHESTER HILLS, MI, 48306",69808448,"R"
295897,"1945 CHATHAM DR","WHEATON","IL",60189,41.83432578,-88.112446652,397,"1945 CHATHAM DR, WHEATON, IL, 60189","Match","Exact","1945 CHATHAM DR, WHEATON, IL, 60189",653192342,"L"
295898,"1945 CLAUDINA AVE","LOS ANGELES","CA",90016,34.038686523,-118.340861549,398,"1945 CLAUDINA AVE, LOS ANGELES, CA, 90016","Match","Exact","1945 CLAUDINA AVE, LOS ANGELES, CA, 90016",141601718,"R"
295899,"1945 CLAUDINA","LOS ANGELES","CA",90016,34.038686523,-118.340861549,399,"1945 CLAUDINA, LOS ANGELES, CA, 90016","Match","Non_Exact","1945 CLAUDINA AVE, LOS ANGELES, CA, 90016",141601718,"R"
295900,"1945 CR 358","ANSON","TX",79501,NA,NA,400,"1945 CR 358, ANSON, TX, 79501","No_Match",NA,NA,NA,NA
295901,"1945 CREST DR","ENCINITAS","CA",92024,33.0225813810001,-117.262329069,401,"1945 CREST DR, ENCINITAS, CA, 92024","Match","Exact","1945 CREST DR, ENCINITAS, CA, 92024",195705687,"L"
295902,"1945 CREST DRIVE","ENCINITAS","CA",92024,33.0225813810001,-117.262329069,402,"1945 CREST DRIVE, ENCINITAS, CA, 92024","Match","Exact","1945 CREST DR, ENCINITAS, CA, 92024",195705687,"L"
295903,"1945 CRINAN DR","SAN JOSE","CA",95122,37.3239232070001,-121.841622206,403,"1945 CRINAN DR, SAN JOSE, CA, 95122","Match","Exact","1945 CRINAN DR, SAN JOSE, CA, 95122",639668777,"R"
295904,"1945 E BROWN AVE","FRESNO","CA",93703,36.775012132,-119.787677567,404,"1945 E BROWN AVE, FRESNO, CA, 93703","Match","Exact","1945 E BROWN AVE, FRESNO, CA, 93703",197574890,"L"
295905,"1945 E CARLINE LN","TEMPE","AZ",85254,33.329780901,-111.903861956,405,"1945 E CARLINE LN, TEMPE, AZ, 85254","Match","Non_Exact","1945 E CAROLINE LN, TEMPE, AZ, 85284",128240651,"R"
295906,"1945 EAST BANK DR","SALINA","KS",67401,38.819535462,-97.5776053609999,406,"1945 EAST BANK DR, SALINA, KS, 67401","Match","Non_Exact","1945 E BANK LN, SALINA, KS, 67401",625400036,"R"
295907,"1945 EAST BEECH ROAD","STERLING","VA",20164,39.003744447,-77.3823684499999,407,"1945 EAST BEECH ROAD, STERLING, VA, 20164","Match","Exact","1945 E BEECH RD, STERLING, VA, 20164",62331336,"L"
295908,"1945 EASTCHESTER RD","BRONX","NY",10461,40.851970162,-73.843830339,408,"1945 EASTCHESTER RD, BRONX, NY, 10461","Match","Exact","1945 EASTCHESTER RD, BRONX, NY, 10461",80305333,"L"
295909,"1945 EDGEWOOD RD","PARKVILLE","MD",21234,NA,NA,409,"1945 EDGEWOOD RD, PARKVILLE, MD, 21234","No_Match",NA,NA,NA,NA
295910,"1945 FRIENDLY ST","EUGENE","OR",97405,44.038436248,-123.10550756,410,"1945 FRIENDLY ST, EUGENE, OR, 97405","Match","Exact","1945 FRIENDLY ST, EUGENE, OR, 97405",178166857,"L"
295911,"1945 GASPAR DR","OAKLAND","CA",94611,37.8307700880001,-122.209313767,411,"1945 GASPAR DR, OAKLAND, CA, 94611","Match","Exact","1945 GASPAR DR, OAKLAND, CA, 94611",629203884,"R"
295912,"1945 GEMINI STREET","WEST COVINA","CA",91792,34.0184958030001,-117.903258356,412,"1945 GEMINI STREET, WEST COVINA, CA, 91792","Match","Exact","1945 GEMINI ST, WEST COVINA, CA, 91792",141716793,"L"
295913,"1945 GLEASON AVENUE","BRONX","NY",10472,40.8308078480001,-73.8594147219999,413,"1945 GLEASON AVENUE, BRONX, NY, 10472","Match","Exact","1945 GLEASON AVE, BRONX, NY, 10472",80305021,"L"
295914,"1945 GOLDEN WAY","MOUNTAIN VIEW","CA",94040,37.367490343,-122.090627175,414,"1945 GOLDEN WAY, MOUNTAIN VIEW, CA, 94040","Match","Exact","1945 GOLDEN WAY, MOUNTAIN VIEW, CA, 94040",122934408,"L"
295915,"1945 GRAND AVENUE SE","CEDAR RAPIDS","IA",52405,NA,NA,415,"1945 GRAND AVENUE SE, CEDAR RAPIDS, IA, 52405","No_Match",NA,NA,NA,NA
295916,"1945 HADLEY DRIVE NE","ROCHESTER","MN",55906,NA,NA,416,"1945 HADLEY DRIVE NE, ROCHESTER, MN, 55906","No_Match",NA,NA,NA,NA
295917,"1945 HANNA TRACE","WINSTON SALEM","NC",27127,36.02644171,-80.283465445,417,"1945 HANNA TRACE, WINSTON SALEM, NC, 27127","Match","Exact","1945 HANNA TRCE, WINSTON SALEM, NC, 27127",84698598,"R"
295918,"1945 JESSENS DRIVE","ST CHARLES","MN",55972,NA,NA,418,"1945 JESSENS DRIVE, ST CHARLES, MN, 55972","No_Match",NA,NA,NA,NA
295919,"1945 KINIKOHU STREET","WAHIAWA","HI",96786,21.5088446340001,-158.003532644,419,"1945 KINIKOHU STREET, WAHIAWA, HI, 96786","Match","Exact","1945 KINIKOHU ST, WAHIAWA, HI, 96786",203222794,"L"
295920,"1945 KNOLLS DRIVE","SANTA ROSA","CA",95405,38.4312493510001,-122.677161993,420,"1945 KNOLLS DRIVE, SANTA ROSA, CA, 95405","Match","Exact","1945 KNOLLS DR, SANTA ROSA, CA, 95405",604963077,"R"
295921,"1945 LA BELLEZZA","COLORADO SPRINGS","CO",80919,38.9469501740001,-104.864453383,421,"1945 LA BELLEZZA, COLORADO SPRINGS, CO, 80919","Match","Non_Exact","1945 LA BELLEZZA GROVE, COLORADO SPRINGS, CO, 80919",610693266,"L"
295922,"1945 LANCING CREST LANE","CHESAPEAKE","VA",23323,36.7323578740001,-76.305817777,422,"1945 LANCING CREST LANE, CHESAPEAKE, VA, 23323","Match","Exact","1945 LANCING CREST LN, CHESAPEAKE, VA, 23323",121784153,"L"
295923,"1945 LASSO CIRCLE","COLUMBIA","MO",65201,38.928964583,-92.24175143,423,"1945 LASSO CIRCLE, COLUMBIA, MO, 65201","Match","Exact","1945 LASSO CIR, COLUMBIA, MO, 65201",643138450,"R"
295924,"1945 LATHAM WAY","MOUNTAIN VIEW","CA",94040,37.39506599,-122.097050856,424,"1945 LATHAM WAY, MOUNTAIN VIEW, CA, 94040","Match","Non_Exact","1945 LATHAM ST, MOUNTAIN VIEW, CA, 94040",618163401,"L"
295925,"1945 LELA AVENUE","CHARLOTTE","NC",28208,35.232091498,-80.8678277879999,425,"1945 LELA AVENUE, CHARLOTTE, NC, 28208","Match","Exact","1945 LELA AVE, CHARLOTTE, NC, 28208",618148477,"L"
295926,"1945 LEONARD STREET","YORK","PA",17404,39.958607145,-76.770807615,426,"1945 LEONARD STREET, YORK, PA, 17404","Match","Exact","1945 LEONARD ST, YORK, PA, 17404",88729169,"R"
295927,"1945 LOMBARDIA LANE","MADISON","TN",37115,36.262435365,-86.6980970829999,427,"1945 LOMBARDIA LANE, MADISON, TN, 37115","Match","Exact","1945 LOMBARDIA LN, MADISON, TN, 37115",633860757,"L"
295928,"1945 LONG LANE","WALLIS","TX",77485,29.6253629560001,-95.960215214,428,"1945 LONG LANE, WALLIS, TX, 77485","Match","Exact","1945 LONG LN, WALLIS, TX, 77485",78280405,"R"
295929,"1945 MACARTHUR DRIVE","MCLEAN","VA",22101,38.913015629,-77.160517853,429,"1945 MACARTHUR DRIVE, MCLEAN, VA, 22101","Match","Exact","1945 MACARTHUR DR, MCLEAN, VA, 22101",75963832,"L"
295930,"1945 MANZANA WAY","SAN DIEGO","CA",92139,32.689016452,-117.022434051,430,"1945 MANZANA WAY, SAN DIEGO, CA, 92139","Match","Exact","1945 MANZANA WAY, SAN DIEGO, CA, 92139",611730988,"L"
295931,"1945 MARLOWE ST","CANTON","MI",48187,42.3204095580001,-83.4744167269999,431,"1945 MARLOWE ST, CANTON, MI, 48187","Match","Exact","1945 MARLOWE ST, CANTON, MI, 48187",95703108,"L"
295932,"1945 MCCONNELLS HWY","ROCK HILL","SC",29732,34.928770839,-81.089061601,432,"1945 MCCONNELLS HWY, ROCK HILL, SC, 29732","Match","Exact","1945 MCCONNELLS HWY, ROCK HILL, SC, 29732",19790227,"L"
295933,"1945 MEADOW DR","WEST PLAINS","MO",65775,36.7478917190001,-91.8813052799999,433,"1945 MEADOW DR, WEST PLAINS, MO, 65775","Match","Exact","1945 MEADOW DR, WEST PLAINS, MO, 65775",33313191,"L"
295934,"1945 MERIDIAN AVE","SAN JOSE","CA",95125,37.2880991500001,-121.913490222,434,"1945 MERIDIAN AVE, SAN JOSE, CA, 95125","Match","Exact","1945 MERIDIAN AVE, SAN JOSE, CA, 95125",122997804,"R"
295935,"1945 MILLINGTON SQUARE","BEL AIR","MD",21015,39.5664814690001,-76.3242660239999,435,"1945 MILLINGTON SQUARE, BEL AIR, MD, 21015","Match","Exact","1945 MILLINGTON SQ, BEL AIR, MD, 21015",191674196,"R"
295936,"1945 MORRIS AVE SUITE 5","UNION","NJ",7083,40.695818322,-74.267242524,436,"1945 MORRIS AVE SUITE 5, UNION, NJ, 7083","Match","Exact","1945 MORRIS AVE, UNION, NJ, 07083",60606385,"R"
295937,"1945 MOUNT VIEW ROAD","WELLINGTON","AL",26379,33.8021730890001,-85.924803697,437,"1945 MOUNT VIEW ROAD, WELLINGTON, AL, 26379","Match","Non_Exact","1945 MT VIEW RD, WELLINGTON, AL, 36279",66560655,"L"
295938,"1945 N 900TH ROAD","EUDORA","KS",66025,38.86958786,-95.136612395,438,"1945 N 900TH ROAD, EUDORA, KS, 66025","Match","Exact","1945 N 900 RD, EUDORA, KS, 66025",17696586,"R"
295939,"1945 N BEACHWOOD DR APT D","LOS ANGELES","CA",90068,34.106509073,-118.321650336,439,"1945 N BEACHWOOD DR APT D, LOS ANGELES, CA, 90068","Match","Non_Exact","1945 N BEACHWOOD DR, LOS ANGELES, CA, 90068",652035269,"L"
295940,"1945 N BENTON DR LOT 26","SAUK RAPIDS","MN",56379,45.604922887,-94.189648865,440,"1945 N BENTON DR LOT 26, SAUK RAPIDS, MN, 56379","Match","Exact","1945 BENTON DR, SAUK RAPIDS, MN, 56379",167363234,"L"
295941,"1945 N COUNTY ROAD 2250","CARTHAGE","IL",62321,40.4786575420001,-91.071690234,441,"1945 N COUNTY ROAD 2250, CARTHAGE, IL, 62321","Match","Exact","1945 N CO RD 2250, CARTHAGE, IL, 62321",639118209,"R"
295942,"1945 N HILLCREST AVE","SPRINGFIELD","MO",65802,37.233104946,-93.33617628,442,"1945 N HILLCREST AVE, SPRINGFIELD, MO, 65802","Match","Exact","1945 N HILLCREST AVE, SPRINGFIELD, MO, 65802",605864974,"L"
295943,"1945 N MONACO WAY","MERIDIAN","ID",83646,43.6224984040001,-116.418585664,443,"1945 N MONACO WAY, MERIDIAN, ID, 83646","Match","Exact","1945 N MONACO WAY, MERIDIAN, ID, 83646",117881668,"R"
295944,"1945 NAPOLEON AVE","OXNARD","CA",93033,34.1759222110001,-119.155324643,444,"1945 NAPOLEON AVE, OXNARD, CA, 93033","Match","Exact","1945 NAPOLEON AVE, OXNARD, CA, 93033",109963580,"L"
295945,"1945 NE MASON ST","PORTLAND","OR",97211,45.553103192,-122.64560913,445,"1945 NE MASON ST, PORTLAND, OR, 97211","Match","Exact","1945 NE MASON ST, PORTLAND, OR, 97211",157505878,"L"
295946,"1945 NEWTOWN PIKE","GEORGETOWN","KY",40324,38.2146622440001,-84.480694866,446,"1945 NEWTOWN PIKE, GEORGETOWN, KY, 40324","Match","Exact","1945 NEWTOWN PIKE, GEORGETOWN, KY, 40324",41239456,"L"
295947,"1945 OAKLAWN DR","TOLEDO","OH",43614,41.602690183,-83.634874453,447,"1945 OAKLAWN DR, TOLEDO, OH, 43614","Match","Exact","1945 OAKLAWN DR, TOLEDO, OH, 43614",33935969,"L"
295948,"1945 OLD ARCATA ROAD","BAYSIDE","CA",95524,40.84120305,-124.065185704,448,"1945 OLD ARCATA ROAD, BAYSIDE, CA, 95524","Match","Exact","1945 OLD ARCATA RD, BAYSIDE, CA, 95524",113016264,"L"
295949,"1945 PANHANDLE ROAD","BENTONVILLE","VA",22610,NA,NA,449,"1945 PANHANDLE ROAD, BENTONVILLE, VA, 22610","No_Match",NA,NA,NA,NA
295950,"1945 PETALUMA DR","CHULA VISTA","CA",91913,32.6380911050001,-116.977380344,450,"1945 PETALUMA DR, CHULA VISTA, CA, 91913","Match","Exact","1945 PETALUMA DR, CHULA VISTA, CA, 91913",195764972,"L"
295951,"1945 PETERSMITH ROAD","KENT","NY",14477,43.319842367,-78.095667351,451,"1945 PETERSMITH ROAD, KENT, NY, 14477","Match","Non_Exact","1945 PETER SMITH RD, KENT, NY, 14477",48802886,"R"
295952,"1945 PHEASANT RIDGE DR","WARSAW","IN",46580,41.2138182850001,-85.857403075,452,"1945 PHEASANT RIDGE DR, WARSAW, IN, 46580","Match","Exact","1945 PHEASANT RIDGE DR, WARSAW, IN, 46580",641214116,"L"
295953,"1945 PHILLIPS","ATLANTA","CA",30315,NA,NA,453,"1945 PHILLIPS, ATLANTA, CA, 30315","No_Match",NA,NA,NA,NA
295954,"1945 PINE ROAD","HOMEWOOD","IL",60430,41.5651442110001,-87.66433633,454,"1945 PINE ROAD, HOMEWOOD, IL, 60430","Match","Exact","1945 PINE RD, HOMEWOOD, IL, 60430",111709601,"L"
295955,"1945 PREUSS RD","LOS ANGELES","CA",90034,34.043453066,-118.385665202,455,"1945 PREUSS RD, LOS ANGELES, CA, 90034","Match","Non_Exact","1945 S PREUSS RD, LOS ANGELES, CA, 90034",141574929,"R"
295956,"1945 REED HILL DR","WINDERMERE","FL",34786,28.5171538010001,-81.517399674,456,"1945 REED HILL DR, WINDERMERE, FL, 34786","Match","Exact","1945 REED HILL DR, WINDERMERE, FL, 34786",94402906,"L"
295957,"1945 RICE CREEK RD","NEW BRIGHTON","MN",55112,45.0825963030001,-93.213350223,457,"1945 RICE CREEK RD, NEW BRIGHTON, MN, 55112","Match","Exact","1945 RICE CREEK RD, NEW BRIGHTON, MN, 55112",97633819,"L"
295958,"1945 ROYAL ST NE","SALEM","OR",97301,44.937582596,-123.015721848,458,"1945 ROYAL ST NE, SALEM, OR, 97301","Match","Exact","1945 ROYAL ST NE, SALEM, OR, 97301",156250350,"L"
295959,"1945 RT 33","NEPTUNE","NJ",7753,40.2078097350001,-74.03844864,459,"1945 RT 33, NEPTUNE, NJ, 7753","Match","Non_Exact","1945 STATE RTE 33, NEPTUNE, NJ, 07753",601040549,"R"
295960,"1945 S FRANCISCO RD","GRASS LAKE","MI",49240,42.2442113320001,-84.140898735,460,"1945 S FRANCISCO RD, GRASS LAKE, MI, 49240","Match","Exact","1945 S FRANCISCO RD, GRASS LAKE, MI, 49240",627083992,"L"
295961,"1945 S FRANCISCO","GRASS LAKE","MI",49240,42.2442113320001,-84.140898735,461,"1945 S FRANCISCO, GRASS LAKE, MI, 49240","Match","Non_Exact","1945 S FRANCISCO RD, GRASS LAKE, MI, 49240",627083992,"L"
295962,"1945 S OCEAN DR APT 703","HALLANDALE","DE",33009,NA,NA,462,"1945 S OCEAN DR APT 703, HALLANDALE, DE, 33009","No_Match",NA,NA,NA,NA
295963,"1945 S OCEAN DR APT 703","HALLANDALE","FL",33009,25.9815123930001,-80.119961841,463,"1945 S OCEAN DR APT 703, HALLANDALE, FL, 33009","Match","Non_Exact","1945 S OCEAN DR, HALLANDALE, FL, 33009",650070430,"R"
295964,"1945 S PARKWOOD LANE","NEW BERLIN","WI",53151,43.008686282,-88.090000371,464,"1945 S PARKWOOD LANE, NEW BERLIN, WI, 53151","Match","Exact","1945 S PARKWOOD LN, NEW BERLIN, WI, 53151",53817282,"R"
295965,"1945 S QUEEN ST","YORK","PA",17403,39.9404218130001,-76.69895361,465,"1945 S QUEEN ST, YORK, PA, 17403","Match","Exact","1945 S QUEEN ST, YORK, PA, 17403",88732999,"L"
295966,"1945 SCOTTSVILLE RD B2 PMB342","BOWLING GREEN","KY",42104,36.963633363,-86.4312227889999,466,"1945 SCOTTSVILLE RD B2 PMB342, BOWLING GREEN, KY, 42104","Match","Exact","1945 SCOTTSVILLE RD, BOWLING GREEN, KY, 42104",615545140,"L"
295967,"1945 SETTLERS BEND N","LAS CRUCES","NM",88012,32.362759252,-106.772679332,467,"1945 SETTLERS BEND N, LAS CRUCES, NM, 88012","Match","Exact","1945 SETTLERS BEND N, LAS CRUCES, NM, 88012",189568787,"L"
295968,"1945 SOUTH 700 EAST","KNOX","IN",46534,41.27580801,-86.562928695,468,"1945 SOUTH 700 EAST, KNOX, IN, 46534","Match","Exact","1945 S 700 E, KNOX, IN, 46534",604873335,"L"
295969,"1945 SOUTHPOINTE WAY STE A","MURFREESBORO","TN",37130,35.8184417370001,-86.3999305569999,469,"1945 SOUTHPOINTE WAY STE A, MURFREESBORO, TN, 37130","Match","Exact","1945 SOUTHPOINTE WAY, MURFREESBORO, TN, 37130",632983081,"L"
295970,"1945 SOUTHPOINTE WAY STE B","MURFREESBORO","TN",37130,35.8184417370001,-86.3999305569999,470,"1945 SOUTHPOINTE WAY STE B, MURFREESBORO, TN, 37130","Match","Exact","1945 SOUTHPOINTE WAY, MURFREESBORO, TN, 37130",632983081,"L"
295971,"1945 SOUTHPOINTE WAY STE D","MURFREESBORO","TN",37130,35.8184417370001,-86.3999305569999,471,"1945 SOUTHPOINTE WAY STE D, MURFREESBORO, TN, 37130","Match","Exact","1945 SOUTHPOINTE WAY, MURFREESBORO, TN, 37130",632983081,"L"
295972,"1945 STATE ROUTE 121 N","MURRAY","KY",42071,NA,NA,472,"1945 STATE ROUTE 121 N, MURRAY, KY, 42071","No_Match",NA,NA,NA,NA
295973,"1945 SW 83 COURT","MIAMI","FL",33155,25.7517881520001,-80.33088345,473,"1945 SW 83 COURT, MIAMI, FL, 33155","Match","Exact","1945 SW 83RD CT, MIAMI, FL, 33155",115976190,"L"
295974,"1945 TROTTI STREET","ATLANTA","GA",30317,33.75638832,-84.324243017,474,"1945 TROTTI STREET, ATLANTA, GA, 30317","Match","Non_Exact","1945 TROTTI ST NE, ATLANTA, GA, 30317",23366520,"R"
295975,"1945 VIRGINIA RD","LOS ANGELES","CA",90016,34.0391376860001,-118.335653369,475,"1945 VIRGINIA RD, LOS ANGELES, CA, 90016","Match","Exact","1945 VIRGINIA RD, LOS ANGELES, CA, 90016",141601994,"R"
295976,"1945 VIRGINIA ROAD","LOS ANGELES","CA",90016,34.0391376860001,-118.335653369,476,"1945 VIRGINIA ROAD, LOS ANGELES, CA, 90016","Match","Exact","1945 VIRGINIA RD, LOS ANGELES, CA, 90016",141601994,"R"
295977,"1945 W 85TH STREET","LOS ANGELES","CA",90047,33.9609065390001,-118.312198917,477,"1945 W 85TH STREET, LOS ANGELES, CA, 90047","Match","Exact","1945 W 85TH ST, LOS ANGELES, CA, 90047",141658661,"R"
295978,"1945 W BOSTON","DETROIT","MI",48206,42.3807412570001,-83.10333951,478,"1945 W BOSTON, DETROIT, MI, 48206","Match","Non_Exact","1945 W BOSTON BLVD, DETROIT, MI, 48206",95732649,"R"
295979,"1945 W DESERT VISTA TRAIL UNIT 72","PHOENIX","AZ",85085,33.741044652,-112.099706811,479,"1945 W DESERT VISTA TRAIL UNIT 72, PHOENIX, AZ, 85085","Match","Non_Exact","1945 W DESERT VISTA TRL, PHOENIX, AZ, 85085",648274564,"L"
295980,"1945 W DESERT VISTA TRAIL UNIT 72","PHOENIX","AZ",NA,33.741044652,-112.099706811,480,"1945 W DESERT VISTA TRAIL UNIT 72, PHOENIX, AZ, ","Match","Non_Exact","1945 W DESERT VISTA TRL, PHOENIX, AZ, 85085",648274564,"L"
295981,"1945 W MOFFETT CREEK RD","FORT JONES","CA",96032,41.6251906540001,-122.78255586,481,"1945 W MOFFETT CREEK RD, FORT JONES, CA, 96032","Match","Exact","1945 W MOFFETT CREEK RD, FORT JONES, CA, 96032",113329890,"L"
295982,"1945 W RACE STREET","CHICAGO","IL",60622,41.8915638980001,-87.675619785,482,"1945 W RACE STREET, CHICAGO, IL, 60622","Match","Non_Exact","1945 W RACE AVE, CHICAGO, IL, 60622",111764978,"L"
295983,"1945 W TAYLOR ST  245","SHERMAN","TX",75092,33.6514841000001,-96.6401958979999,483,"1945 W TAYLOR ST  245, SHERMAN, TX, 75092","Match","Non_Exact","1945 W TAYLOR ST, SHERMAN, TX, 75092",63353599,"R"
295984,"1945 W TAYLOR ST/ 245","SHERMAN","TX",75092,NA,NA,484,"1945 W TAYLOR ST/ 245, SHERMAN, TX, 75092","No_Match",NA,NA,NA,NA
295985,"1945 WALLACE AVE APT 108","COSTA MESA","CA",92627,33.6451089970001,-117.92985651,485,"1945 WALLACE AVE APT 108, COSTA MESA, CA, 92627","Match","Exact","1945 WALLACE AVE, COSTA MESA, CA, 92627",609065913,"L"
295986,"1945 WALLINFORD CIRCLE","SUN PRAIRIE","WI",53590,43.1880630680001,-89.2466457099999,486,"1945 WALLINFORD CIRCLE, SUN PRAIRIE, WI, 53590","Match","Exact","1945 WALLINFORD CIR, SUN PRAIRIE, WI, 53590",49496442,"L"
295987,"1945 WEST 15TH STREET","CASPER","WY",82604,42.83549234,-106.349406685,487,"1945 WEST 15TH STREET, CASPER, WY, 82604","Match","Exact","1945 W 15TH ST, CASPER, WY, 82604",607715937,"L"
295988,"1945 WEST 34TH AVE","EUGENE","OR",97405,44.0204465680001,-123.12328472,488,"1945 WEST 34TH AVE, EUGENE, OR, 97405","Match","Exact","1945 W 34TH AVE, EUGENE, OR, 97405",647958737,"R"
295989,"1945 WESTMINSTER WAY","COLUMBUS","GA",31904,32.5196423800001,-84.9626245319999,489,"1945 WESTMINSTER WAY, COLUMBUS, GA, 31904","Match","Exact","1945 WESTMINSTER WAY, COLUMBUS, GA, 31904",98952462,"R"
295990,"1945 WINTERPARK PLACE","CORALVILLE","IA",52241,41.6969201690001,-91.588234756,490,"1945 WINTERPARK PLACE, CORALVILLE, IA, 52241","Match","Exact","1945 WINTERPARK PL, CORALVILLE, IA, 52241",84506270,"R"
295991,"1945-F BARRYMORE COMMON","FREMONT","CA",94538,37.553808556,-121.970530731,491,"1945-F BARRYMORE COMMON, FREMONT, CA, 94538","Match","Exact","1945 BARRYMORE CMN, FREMONT, CA, 94538",624742634,"L"
295992,"1945","WARSAW","IN",46580,NA,NA,492,"1945, WARSAW, IN, 46580","No_Match",NA,NA,NA,NA
295993,"19450 BRAES RIVER DRIVE","WALNUT","CA",91789,34.033502427,-117.879138407,493,"19450 BRAES RIVER DRIVE, WALNUT, CA, 91789","Match","Exact","19450 BRAES RIVER DR, WALNUT, CA, 91789",141717115,"L"
295994,"19450 GULF BLVD  APT 701","INDIAN SHORES","FL",33785,27.851063057,-82.844523339,494,"19450 GULF BLVD  APT 701, INDIAN SHORES, FL, 33785","Match","Exact","19450 GULF BLVD, INDIAN SHORES, FL, 33785",124773438,"L"
295995,"19450 HOULE CREEK RD","FRENCHTOWN","MT",59834,47.0584121100001,-114.298321077,495,"19450 HOULE CREEK RD, FRENCHTOWN, MT, 59834","Match","Exact","19450 HOULE CREEK RD, FRENCHTOWN, MT, 59834",205270488,"L"
295996,"19450 ROCKY ROAD","SONORA","CA",95370,37.9761921940001,-120.440955615,496,"19450 ROCKY ROAD, SONORA, CA, 95370","Match","Exact","19450 ROCKY RD, SONORA, CA, 95370",101422309,"L"
295997,"19451 AMBER MEADOW DR","BEND","OR",97702,44.0097296760001,-121.352008347,497,"19451 AMBER MEADOW DR, BEND, OR, 97702","Match","Exact","19451 AMBER MEADOW DR, BEND, OR, 97702",611084689,"R"
295998,"19451 BEAVERLAND","DETROIT","MI",48219,42.4329250810001,-83.2655283189999,498,"19451 BEAVERLAND, DETROIT, MI, 48219","Match","Non_Exact","19451 BEAVERLAND ST, DETROIT, MI, 48219",95420498,"L"
295999,"19451 LITTLE PINE LANE","KATY","TX",77449,29.8628268040001,-95.7101448509999,499,"19451 LITTLE PINE LANE, KATY, TX, 77449","Match","Exact","19451 LITTLE PINE LN, KATY, TX, 77449",635234068,"L"
296000,"19451 W WARREN AVE","DETROIT","MI",48228,42.343184496,-83.231127864,500,"19451 W WARREN AVE, DETROIT, MI, 48228","Match","Exact","19451 W WARREN AVE, DETROIT, MI, 48228",95439303,"L"
