"ID","Address","City","State","Zip","lat","long","id","input_address","match_indicator","match_type","matched_address","tiger_line_id","tiger_side"
633501,"4400 HAZELWOOD ROAD","ADAMSVILLE","AL",35005,33.5921395710001,-86.952313363,1,"4400 HAZELWOOD ROAD, ADAMSVILLE, AL, 35005","Match","Exact","4400 HAZELWOOD RD, ADAMSVILLE, AL, 35005",81731657,"R"
633502,"4400 HEMINGWAY DRIVE UNIT 145","OKLAHOMA CITY","OK",73118,35.5194581590001,-97.54288802,2,"4400 HEMINGWAY DRIVE UNIT 145, OKLAHOMA CITY, OK, 73118","Match","Exact","4400 HEMINGWAY DR, OKLAHOMA CITY, OK, 73118",100444730,"R"
633503,"4400 HEMINGWAY DRIVE","OKLAHOMA CITY","OK",73118,35.5194581590001,-97.54288802,3,"4400 HEMINGWAY DRIVE, OKLAHOMA CITY, OK, 73118","Match","Exact","4400 HEMINGWAY DR, OKLAHOMA CITY, OK, 73118",100444730,"R"
633504,"4400 HIGHWAY 569","FERRIDAY","LA",71334,31.708929261,-91.450717969,4,"4400 HIGHWAY 569, FERRIDAY, LA, 71334","Match","Exact","4400 HWY 569, FERRIDAY, LA, 71334",84864279,"L"
633505,"4400 HOME AVE","STICKNEY","IL",60402,41.812077591,-87.7971892749999,5,"4400 HOME AVE, STICKNEY, IL, 60402","Match","Exact","4400 HOME AVE, STICKNEY, IL, 60402",111795944,"R"
633506,"4400 HORIZON HILL APT 2006","SAN ANTONIO","TX",78229,29.5150211170001,-98.556699311,6,"4400 HORIZON HILL APT 2006, SAN ANTONIO, TX, 78229","Match","Non_Exact","4400 HORIZON HILL BLVD, SAN ANTONIO, TX, 78229",101547314,"R"
633507,"4400 HUNTINGTON CIRCLE","DUNWOODY","GA",30338,33.924260819,-84.291174559,7,"4400 HUNTINGTON CIRCLE, DUNWOODY, GA, 30338","Match","Exact","4400 HUNTINGTON CIR, DUNWOODY, GA, 30338",23357265,"L"
633508,"4400 ISLA VERDE STREET","BAKERSFIELD","CA",93301,35.3988796040001,-119.006121307,8,"4400 ISLA VERDE STREET, BAKERSFIELD, CA, 93301","Match","Exact","4400 ISLA VERDE ST, BAKERSFIELD, CA, 93301",109087757,"R"
633509,"4400 JEFFERSON RD","SMITHVILLE","TN",37166,35.8974251170001,-85.688262041,9,"4400 JEFFERSON RD, SMITHVILLE, TN, 37166","Match","Exact","4400 JEFFERSON RD, SMITHVILLE, TN, 37166",632489011,"L"
633510,"4400 JENKAS WAY","RICHMOND","CA",94806,NA,NA,10,"4400 JENKAS WAY, RICHMOND, CA, 94806","No_Match",NA,NA,NA,NA
633511,"4400 KAPALUA DRIVE","SANTA MARIA","CA",93455,34.877717224,-120.46392339,11,"4400 KAPALUA DRIVE, SANTA MARIA, CA, 93455","Match","Exact","4400 KAPALUA DR, SANTA MARIA, CA, 93455",108622017,"L"
633512,"4400 KEETER DRIVE","NORTH RICHLAND HILLS","TX",76180,32.828251553,-97.208399834,12,"4400 KEETER DRIVE, NORTH RICHLAND HILLS, TX, 76180","Match","Exact","4400 KEETER DR, NORTH RICHLAND HILLS, TX, 76180",101865296,"R"
633513,"4400 KELLER AVE STE140 NUM 322","OAKLAND","CA",94605,37.7704215260001,-122.150576603,13,"4400 KELLER AVE STE140 NUM 322, OAKLAND, CA, 94605","Match","Exact","4400 KELLER AVE, OAKLAND, CA, 94605",125011025,"R"
633514,"4400 KELLER AVE","OAKLAND","CA",94605,37.7704215260001,-122.150576603,14,"4400 KELLER AVE, OAKLAND, CA, 94605","Match","Exact","4400 KELLER AVE, OAKLAND, CA, 94605",125011025,"R"
633515,"4400 KELLER AVENUE SUITE 150","OAKLAND","CA",94605,37.7704215260001,-122.150576603,15,"4400 KELLER AVENUE SUITE 150, OAKLAND, CA, 94605","Match","Exact","4400 KELLER AVE, OAKLAND, CA, 94605",125011025,"R"
633516,"4400 KELLER AVENUE SUITE 379","OAKLAND","CA",94605,37.7704215260001,-122.150576603,16,"4400 KELLER AVENUE SUITE 379, OAKLAND, CA, 94605","Match","Exact","4400 KELLER AVE, OAKLAND, CA, 94605",125011025,"R"
633517,"4400 KELMARBI ROAD","S CHESTERFIELD","VA",23834,37.286067304,-77.436920748,17,"4400 KELMARBI ROAD, S CHESTERFIELD, VA, 23834","Match","Exact","4400 KELMARBI RD, SOUTH CHESTERFIELD, VA, 23834",648453418,"R"
633518,"4400 KEN MICHAEL COURT","NORTH RICHLAND HILLS","TX",76180,32.833758507,-97.2228120939999,18,"4400 KEN MICHAEL COURT, NORTH RICHLAND HILLS, TX, 76180","Match","Exact","4400 KEN MICHAEL CT, NORTH RICHLAND HILLS, TX, 76180",102127849,"R"
633519,"4400 KEN MICHAEL CT","NORTH RICHLAND HILLS","TX",76180,32.833758507,-97.2228120939999,19,"4400 KEN MICHAEL CT, NORTH RICHLAND HILLS, TX, 76180","Match","Exact","4400 KEN MICHAEL CT, NORTH RICHLAND HILLS, TX, 76180",102127849,"R"
633520,"4400 KIRCHNER COURT","ALEXANDRIA","VA",22304,38.8280292430001,-77.106093871,20,"4400 KIRCHNER COURT, ALEXANDRIA, VA, 22304","Match","Exact","4400 KIRCHNER CT, ALEXANDRIA, VA, 22304",75986804,"R"
633521,"4400 LAMBETH DRIVE","RALEIGH","NC",27609,35.84075468,-78.6352133629999,21,"4400 LAMBETH DRIVE, RALEIGH, NC, 27609","Match","Exact","4400 LAMBETH DR, RALEIGH, NC, 27609",72505697,"R"
633522,"4400 LANDOVER WAY","SUWANEE","GA",30024,34.063370552,-84.0875332539999,22,"4400 LANDOVER WAY, SUWANEE, GA, 30024","Match","Non_Exact","4400 LANDOVER WAY NW, SUWANEE, GA, 30024",88916981,"L"
633523,"4400 LANDSBERG COURT SOUTH","GREENSBORO","NC",27407,36.017775398,-79.875606923,23,"4400 LANDSBERG COURT SOUTH, GREENSBORO, NC, 27407","Match","Exact","4400 LANDSBERG CT S, GREENSBORO, NC, 27407",629651233,"L"
633524,"4400 LANSDALE RD","HARDWOOD","MD",20776,38.8672906140001,-76.565535326,24,"4400 LANSDALE RD, HARDWOOD, MD, 20776","Match","Non_Exact","4400 LANSDALE RD, HARWOOD, MD, 20776",68201272,"R"
633525,"4400 LINDELL BLVD 7J","ST LOUIS","MO",63108,38.6417222690001,-90.254297848,25,"4400 LINDELL BLVD 7J, ST LOUIS, MO, 63108","Match","Exact","4400 LINDELL BLVD, SAINT LOUIS, MO, 63108",645136947,"L"
633526,"4400 LINDEN AVE","DEER PARK","OH",45236,39.20887795,-84.392017591,26,"4400 LINDEN AVE, DEER PARK, OH, 45236","Match","Exact","4400 LINDEN AVE, DEER PARK, OH, 45236",103980002,"L"
633527,"4400 LISA LANE","OAK FOREST","IL",60452,41.5903271380001,-87.727106586,27,"4400 LISA LANE, OAK FOREST, IL, 60452","Match","Exact","4400 LISA LN, OAK FOREST, IL, 60452",111704185,"R"
633528,"4400 LORRAINE AVENUE","DALLAS","TX",75205,32.8291046470001,-96.809838148,28,"4400 LORRAINE AVENUE, DALLAS, TX, 75205","Match","Exact","4400 LORRAINE AVE, DALLAS, TX, 75205",102906721,"R"
633529,"4400 MACARTHUR BLVD  SUITE 100","WASHINGTON","DC",20007,NA,NA,29,"4400 MACARTHUR BLVD  SUITE 100, WASHINGTON, DC, 20007","No_Match",NA,NA,NA,NA
633530,"4400 MACARTHUR BLVD STE 900","NEWPORT BEACH","CA",92660,NA,NA,30,"4400 MACARTHUR BLVD STE 900, NEWPORT BEACH, CA, 92660","No_Match",NA,NA,NA,NA
633531,"4400 MALLORY LANE","WICHITA FALLS","TX",76309,33.879190185,-98.555470481,31,"4400 MALLORY LANE, WICHITA FALLS, TX, 76309","Match","Exact","4400 MALLORY LN, WICHITA FALLS, TX, 76309",169855703,"L"
633532,"4400 MANCHESTER AVENUE UNIT 303","SAINT LOUS","MO",63110,38.6265737530001,-90.259746965,32,"4400 MANCHESTER AVENUE UNIT 303, SAINT LOUS, MO, 63110","Match","Non_Exact","4400 MANCHESTER AVE, SAINT LOUIS, MO, 63110",107597008,"L"
633533,"4400 MASSACHUSETTS AVE NW","WASHINGTON","DC",20016,38.938825771,-77.0871543499999,33,"4400 MASSACHUSETTS AVE NW, WASHINGTON, DC, 20016","Match","Exact","4400 MASSACHUSETTS AVE NW, WASHINGTON, DC, 20016",636882334,"L"
633534,"4400 MASSACHUSETTS AVE","WASHINGTON","DC",20016,38.938825771,-77.0871543499999,34,"4400 MASSACHUSETTS AVE, WASHINGTON, DC, 20016","Match","Non_Exact","4400 MASSACHUSETTS AVE NW, WASHINGTON, DC, 20016",636882334,"L"
633535,"4400 MCKINNEY ST","HOUSTON","TX",77023,29.741352652,-95.334463108,35,"4400 MCKINNEY ST, HOUSTON, TX, 77023","Match","Exact","4400 MCKINNEY ST, HOUSTON, TX, 77023",96081510,"R"
633536,"4400 MELROSE DRIVE LOT 17","WOOSTER","OH",44691,40.8506451750001,-81.915809806,36,"4400 MELROSE DRIVE LOT 17, WOOSTER, OH, 44691","Match","Exact","4400 MELROSE DR, WOOSTER, OH, 44691",58734389,"L"
633537,"4400 MEMORIA DRIVE  APT 2114","HOUSTON","TX",77007,NA,NA,37,"4400 MEMORIA DRIVE  APT 2114, HOUSTON, TX, 77007","No_Match",NA,NA,NA,NA
633538,"4400 MEMORIAL DRIVE NO 2178","HOUSTON","TX",77007,29.761792273,-95.404455436,38,"4400 MEMORIAL DRIVE NO 2178, HOUSTON, TX, 77007","Match","Non_Exact","4400 MEMORIAL DR, HOUSTON, TX, 77007",96624874,"R"
633539,"4400 MEMORIAL DRIVE UNIT 2178","HOUSTON","TX",77007,29.761792273,-95.404455436,39,"4400 MEMORIAL DRIVE UNIT 2178, HOUSTON, TX, 77007","Match","Exact","4400 MEMORIAL DR, HOUSTON, TX, 77007",96624874,"R"
633540,"4400 MILL CREEK ROAD","MENTONE","CA",92359,34.0740003970001,-117.071205348,40,"4400 MILL CREEK ROAD, MENTONE, CA, 92359","Match","Exact","4400 MILL CREEK RD, MENTONE, CA, 92359",616960381,"R"
633541,"4400 N 17OTH STREET","KANSAS CITY","KS",66109,NA,NA,41,"4400 N 17OTH STREET, KANSAS CITY, KS, 66109","No_Match",NA,NA,NA,NA
633542,"4400 N 39TH STREET","MILWAUKEE","WI",53209,43.097291925,-87.961635271,42,"4400 N 39TH STREET, MILWAUKEE, WI, 53209","Match","Exact","4400 N 39TH ST, MILWAUKEE, WI, 53209",77737338,"R"
633543,"4400 N A1A","FORT PIERCE","FL",34949,NA,NA,43,"4400 N A1A, FORT PIERCE, FL, 34949","No_Match",NA,NA,NA,NA
633544,"4400 N CONGRESS AVE","WEST PALM BEACH","FL",33407,26.7558487690001,-80.08751366,44,"4400 N CONGRESS AVE, WEST PALM BEACH, FL, 33407","Match","Exact","4400 CONGRESS AVE, WEST PALM BEACH, FL, 33407",115349225,"L"
633545,"4400 N FEDERAL HIGHWAY STE 210","BOCA RATON","FL",33431,26.3884719440001,-80.07653132,45,"4400 N FEDERAL HIGHWAY STE 210, BOCA RATON, FL, 33431","Match","Non_Exact","4400 N FEDERAL HWY, BOCA RATON, FL, 33431",115293534,"R"
633546,"4400 N FEDERAL HWY SUITE 210","BOCA RATON","FL",33486,NA,NA,46,"4400 N FEDERAL HWY SUITE 210, BOCA RATON, FL, 33486","No_Match",NA,NA,NA,NA
633547,"4400 N HOLIDAY HILL RD APT 706","MIDLAND","TX",79707,32.022935078,-102.161546127,47,"4400 N HOLIDAY HILL RD APT 706, MIDLAND, TX, 79707","Match","Exact","4400 HOLIDAY HILL RD, MIDLAND, TX, 79707",643488071,"R"
633548,"4400 N LATSON RD","HOWELL","MI",48855,42.6625205400001,-83.876635799,48,"4400 N LATSON RD, HOWELL, MI, 48855","Match","Exact","4400 N LATSON RD, HOWELL, MI, 48855",23540737,"R"
633549,"4400 N SCOTTSDALE RD 448","SCOTTSDALE","AZ",85251,33.5009516220001,-111.926151073,49,"4400 N SCOTTSDALE RD 448, SCOTTSDALE, AZ, 85251","Match","Non_Exact","4400 N SCOTTSDALE RD, SCOTTSDALE, AZ, 85251",244030788,"L"
633550,"4400 N SCOTTSDALE RD STE 9 333","SCOTTSDALE","AZ",85251,33.5009516220001,-111.926151073,50,"4400 N SCOTTSDALE RD STE 9 333, SCOTTSDALE, AZ, 85251","Match","Non_Exact","4400 N SCOTTSDALE RD, SCOTTSDALE, AZ, 85251",244030788,"L"
633551,"4400 N SCOTTSDALE RD STE 999","SCOTTSDALE","AZ",85251,33.5009516220001,-111.926151073,51,"4400 N SCOTTSDALE RD STE 999, SCOTTSDALE, AZ, 85251","Match","Non_Exact","4400 N SCOTTSDALE RD, SCOTTSDALE, AZ, 85251",244030788,"L"
633552,"4400 N SCOTTSDALE RD UNIT 9906","SCOTTSDALE","AZ",85251,33.5009516220001,-111.926151073,52,"4400 N SCOTTSDALE RD UNIT 9906, SCOTTSDALE, AZ, 85251","Match","Non_Exact","4400 N SCOTTSDALE RD, SCOTTSDALE, AZ, 85251",244030788,"L"
633553,"4400 N SCOTTSDALE ROAD - 9-210","SCOTTSDALE","AZ",85251,33.5009516220001,-111.926151073,53,"4400 N SCOTTSDALE ROAD - 9-210, SCOTTSDALE, AZ, 85251","Match","Non_Exact","4400 N SCOTTSDALE RD, SCOTTSDALE, AZ, 85251",244030788,"L"
633554,"4400 N SCOTTSDALE ROAD 9360","SCOTTSDALE","AZ",85251,33.5009516220001,-111.926151073,54,"4400 N SCOTTSDALE ROAD 9360, SCOTTSDALE, AZ, 85251","Match","Non_Exact","4400 N SCOTTSDALE RD, SCOTTSDALE, AZ, 85251",244030788,"L"
633555,"4400 N WINCHESTER","CHICAGO","IL",60640,41.961841592,-87.677503684,55,"4400 N WINCHESTER, CHICAGO, IL, 60640","Match","Non_Exact","4400 N WINCHESTER AVE, CHICAGO, IL, 60640",652586876,"L"
633556,"4400 NE 102ND STREET","KANSAS CITY","MO",64156,39.2784708180001,-94.528064778,56,"4400 NE 102ND STREET, KANSAS CITY, MO, 64156","Match","Exact","4400 NE 102ND ST, KANSAS CITY, MO, 64156",641590148,"R"
633557,"4400 NEW HAMPSHIRE ST","SAN DIEGO","CA",92116,32.759225648,-117.157559161,57,"4400 NEW HAMPSHIRE ST, SAN DIEGO, CA, 92116","Match","Exact","4400 NEW HAMPSHIRE ST, SAN DIEGO, CA, 92116",649336243,"L"
633558,"4400 NEWBERRY TERRACE","SAINT LOUIS","MO",63113,NA,NA,58,"4400 NEWBERRY TERRACE, SAINT LOUIS, MO, 63113","No_Match",NA,NA,NA,NA
633559,"4400 NORTH POINT PKWY STE 160","ALPHARETTA","GA",30022,34.0598350070001,-84.265910489,59,"4400 NORTH POINT PKWY STE 160, ALPHARETTA, GA, 30022","Match","Exact","4400 N POINT PKWY, ALPHARETTA, GA, 30022",17420080,"L"
633560,"4400 NW 107TH AVENUE UNIT 104","DORAL","FL",33178,25.813683881,-80.369466889,60,"4400 NW 107TH AVENUE UNIT 104, DORAL, FL, 33178","Match","Non_Exact","4400 NW 107TH AVE, DORAL, FL, 33178",625168323,"R"
633561,"4400 NW 131 ST","VANCOUVER","WA",98685,45.7157027330001,-122.715896223,61,"4400 NW 131 ST, VANCOUVER, WA, 98685","Match","Exact","4400 NW 131ST ST, VANCOUVER, WA, 98685",158370464,"R"
633562,"4400 NW 13TH CT","LAUDERHILL","FL",33313,26.1429868330001,-80.2090012579999,62,"4400 NW 13TH CT, LAUDERHILL, FL, 33313","Match","Exact","4400 NW 13TH CT, LAUDERHILL, FL, 33313",114708226,"L"
633563,"4400 NW 4TH COURT","COCONUT CREEK","FL",33066,26.2366091750001,-80.1823696549999,63,"4400 NW 4TH COURT, COCONUT CREEK, FL, 33066","Match","Exact","4400 NW 4TH CT, COCONUT CREEK, FL, 33066",114693519,"L"
633564,"4400 NW 5 PLACE","PLANTATION","FL",33317,26.129286721,-80.207917488,64,"4400 NW 5 PLACE, PLANTATION, FL, 33317","Match","Exact","4400 NW 5TH PL, PLANTATION, FL, 33317",114708682,"L"
633565,"4400 NW WALNUT BOULEVARD","CORVALLIS","OR",97330,44.5935610940001,-123.299930782,65,"4400 NW WALNUT BOULEVARD, CORVALLIS, OR, 97330","Match","Exact","4400 NW WALNUT BLVD, CORVALLIS, OR, 97330",155870604,"L"
633566,"4400 OAK RIDGE LANE","CAMBRIDGE","OH",43725,40.0323363040001,-81.662059594,66,"4400 OAK RIDGE LANE, CAMBRIDGE, OH, 43725","Match","Exact","4400 OAK RIDGE LN, CAMBRIDGE, OH, 43725",612395153,"R"
633567,"4400 PALMARITO STREET","CORAL GABLES","FL",33146,25.731481085,-80.268211622,67,"4400 PALMARITO STREET, CORAL GABLES, FL, 33146","Match","Exact","4400 PALMARITO ST, CORAL GABLES, FL, 33146",640558253,"R"
633568,"4400 PAPA JOE HENDRICK BLVD","CHARLOTTE","NC",28262,35.355114492,-80.704685169,68,"4400 PAPA JOE HENDRICK BLVD, CHARLOTTE, NC, 28262","Match","Exact","4400 PAPA JOE HENDRICK BLVD, CHARLOTTE, NC, 28262",24921618,"L"
633569,"4400 PARK AVE 18","DES MOINES","IA",50321,41.5555360770001,-93.676684457,69,"4400 PARK AVE 18, DES MOINES, IA, 50321","Match","Exact","4400 PARK AVE, DES MOINES, IA, 50321",65852598,"L"
633570,"4400 PARK AVE 81","DES MOINES","IA",50321,41.5555360770001,-93.676684457,70,"4400 PARK AVE 81, DES MOINES, IA, 50321","Match","Exact","4400 PARK AVE, DES MOINES, IA, 50321",65852598,"L"
633571,"4400 PARK ROAD SUITE 308","CHARLOTTE","NC",28209,35.1719486470001,-80.8511448089999,71,"4400 PARK ROAD SUITE 308, CHARLOTTE, NC, 28209","Match","Exact","4400 PARK RD, CHARLOTTE, NC, 28209",70486981,"R"
633572,"4400 PGA BLVD STE 603","PALM BEACH GARDENS","FL",33410,26.8383293750001,-80.104274719,72,"4400 PGA BLVD STE 603, PALM BEACH GARDENS, FL, 33410","Match","Exact","4400 PGA BLVD, PALM BEACH GARDENS, FL, 33410",646905912,"L"
633573,"4400 PINE MEADOWS TRAIL","TRAVERSE CITY","MI",49685,44.7509064060001,-85.678794314,73,"4400 PINE MEADOWS TRAIL, TRAVERSE CITY, MI, 49685","Match","Exact","4400 PINE MEADOWS TRL, TRAVERSE CITY, MI, 49685",633643029,"R"
633574,"4400 RANCH BLVD","MORGAN","UT",84050,41.1474004940001,-111.783247396,74,"4400 RANCH BLVD, MORGAN, UT, 84050","Match","Non_Exact","4400 W RANCH BLVD, MORGAN, UT, 84050",640966562,"R"
633575,"4400 RANCHO DEL NORTE","MCKINNEY","TX",75070,33.1570926640001,-96.722586043,75,"4400 RANCHO DEL NORTE, MCKINNEY, TX, 75070","Match","Non_Exact","4400 RANCHO DEL NORTE TRL, MCKINNEY, TX, 75070",616530215,"L"
633576,"4400 RIDGECREST CT","ROCKINGHAM","VA",22801,38.3822031010001,-78.8274567989999,76,"4400 RIDGECREST CT, ROCKINGHAM, VA, 22801","Match","Exact","4400 RIDGECREST CT, ROCKINGHAM, VA, 22801",640929621,"L"
633577,"4400 RIPPLING BROOK","N. LAS VEGAS","NV",89032,36.228759349,-115.200149575,77,"4400 RIPPLING BROOK, N. LAS VEGAS, NV, 89032","Match","Non_Exact","4400 RIPPLING BROOK DR, N LAS VEGAS, NV, 89032",201908128,"L"
633578,"4400 RIVERVIEW LN","LITHONIA","GA",30038,33.667880434,-84.206937505,78,"4400 RIVERVIEW LN, LITHONIA, GA, 30038","Match","Exact","4400 RIVERVIEW LN, LITHONIA, GA, 30038",629755726,"L"
633579,"4400 ROLLING HILL DRIVE","CHARLOTTE","NC",28213,35.262312933,-80.7932881629999,79,"4400 ROLLING HILL DRIVE, CHARLOTTE, NC, 28213","Match","Exact","4400 ROLLING HILL DR, CHARLOTTE, NC, 28213",640628847,"R"
633580,"4400 ROLLING ROCK DRIVE","PORT ARTHU","TX",77642,29.9516395160001,-93.966274135,80,"4400 ROLLING ROCK DRIVE, PORT ARTHU, TX, 77642","Match","Non_Exact","4400 ROLLING ROCK DR, PORT ARTHUR, TX, 77642",636727140,"R"
633581,"4400 S 332ND PL","FEDERAL WAY","WA",98001,47.3038894860001,-122.279800662,81,"4400 S 332ND PL, FEDERAL WAY, WA, 98001","Match","Exact","4400 S 332ND PL, FEDERAL WAY, WA, 98001",617956816,"L"
633582,"4400 S JONES BLVD UNIT 1020","LAS VEGAS","NV",89103,36.1098844050001,-115.224917219,82,"4400 S JONES BLVD UNIT 1020, LAS VEGAS, NV, 89103","Match","Non_Exact","4400 S JONES BLVD, LAS VEGAS, NV, 89103",640226413,"L"
633583,"4400 S LAKE DR","MILWAUKEE","WI",53207,NA,NA,83,"4400 S LAKE DR, MILWAUKEE, WI, 53207","No_Match",NA,NA,NA,NA
633584,"4400 S LIBERTY UNIT 4","INDEPENDENCE","MO",64505,NA,NA,84,"4400 S LIBERTY UNIT 4, INDEPENDENCE, MO, 64505","No_Match",NA,NA,NA,NA
633585,"4400 S MONACO ST APT 1025","DENVER","CO",80237,39.777391193,-104.912872708,85,"4400 S MONACO ST APT 1025, DENVER, CO, 80237","Match","Non_Exact","4400 MONACO ST, DENVER, CO, 80216",177367385,"R"
633586,"4400 S MOUNTAIN ASH DRIVE","SIOUX FALLS","SD",57103,43.5049350800001,-96.704898664,86,"4400 S MOUNTAIN ASH DRIVE, SIOUX FALLS, SD, 57103","Match","Exact","4400 S MOUNTAIN ASH DR, SIOUX FALLS, SD, 57103",34984202,"L"
633587,"4400 S VISTA LANE","SIOUX FALLS","SD",57105,43.5030245950001,-96.7290693739999,87,"4400 S VISTA LANE, SIOUX FALLS, SD, 57105","Match","Exact","4400 S VISTA LN, SIOUX FALLS, SD, 57105",653266047,"L"
633588,"4400 S WILSON","AMARILLO","TX",79118,35.1679135370001,-101.819863981,88,"4400 S WILSON, AMARILLO, TX, 79118","Match","Non_Exact","4400 WILSON ST, AMARILLO, TX, 79118",600385089,"R"
633589,"4400 SAINT ANDREWS RD","COLUMBIA","SC",29210,NA,NA,89,"4400 SAINT ANDREWS RD, COLUMBIA, SC, 29210","No_Match",NA,NA,NA,NA
633590,"4400 SE 35TH STREET","DES MOINES","ID",50320,NA,NA,90,"4400 SE 35TH STREET, DES MOINES, ID, 50320","No_Match",NA,NA,NA,NA
633591,"4400 SE NAEF ROAD APT C21","MILWAUKIE","OR",97267,45.4025123860001,-122.619323081,91,"4400 SE NAEF ROAD APT C21, MILWAUKIE, OR, 97267","Match","Non_Exact","4400 SE NAEF RD, MILWAUKIE, OR, 97267",157916047,"R"
633592,"4400 SECLUDED LAKE DRIVE NE","ROCKFORD","MI",49341,43.07730974,-85.560124178,92,"4400 SECLUDED LAKE DRIVE NE, ROCKFORD, MI, 49341","Match","Exact","4400 SECLUDED LAKE DR NE, ROCKFORD, MI, 49341",12510099,"L"
633593,"4400 SHELFER RD","TALLAHASSEE","FL",32305,30.3870726270001,-84.282534885,93,"4400 SHELFER RD, TALLAHASSEE, FL, 32305","Match","Exact","4400 SHELFER RD, TALLAHASSEE, FL, 32305",647716992,"R"
633594,"4400 SMITH RD","NORWOOD","OH",45212,39.1564944470001,-84.4484729499999,94,"4400 SMITH RD, NORWOOD, OH, 45212","Match","Exact","4400 SMITH RD, NORWOOD, OH, 45212",648680084,"R"
633595,"4400 SOUTH 1500 EAST","SALT LAKE CITY","UT",84124,40.675762778,-111.848434894,95,"4400 SOUTH 1500 EAST, SALT LAKE CITY, UT, 84124","Match","Exact","4400 S 1500 E, SALT LAKE CITY, UT, 84124",624930791,"L"
633596,"4400 SOUTH LAND PARK DR","SACRAMENTO","CA",95822,38.534914843,-121.507579501,96,"4400 SOUTH LAND PARK DR, SACRAMENTO, CA, 95822","Match","Exact","4400 S LAND PARK DR, SACRAMENTO, CA, 95822",133322655,"R"
633597,"4400 SOUTH LOOKOUT ROAD","LITTLE ROCK","AR",72205,NA,NA,97,"4400 SOUTH LOOKOUT ROAD, LITTLE ROCK, AR, 72205","Tie",NA,NA,NA,NA
633598,"4400 STETSON AVE","ROSAMOND","CA",93560,NA,NA,98,"4400 STETSON AVE, ROSAMOND, CA, 93560","No_Match",NA,NA,NA,NA
633599,"4400 SW 198","BEAVERTON","OR",97078,45.487936738,-122.881456597,99,"4400 SW 198, BEAVERTON, OR, 97078","Match","Non_Exact","4400 SW 198TH AVE, BEAVERTON, OR, 97078",158183204,"L"
633600,"4400 SW 20TH AVE APT 1114","GAINESVILLE","FL",32607,29.6361614850001,-82.389087809,100,"4400 SW 20TH AVE APT 1114, GAINESVILLE, FL, 32607","Match","Non_Exact","4400 SW 20TH AVE, GAINESVILLE, FL, 32607",6843625,"R"
633601,"4400 SW 20TH AVE APT 1202","GAINSEVILLE","FL",32607,29.6361614850001,-82.389087809,101,"4400 SW 20TH AVE APT 1202, GAINSEVILLE, FL, 32607","Match","Non_Exact","4400 SW 20TH AVE, GAINESVILLE, FL, 32607",6843625,"R"
633602,"4400 SW 72ND WAY","DAVIE","FL",33314,26.0671683910001,-80.242747586,102,"4400 SW 72ND WAY, DAVIE, FL, 33314","Match","Exact","4400 SW 72ND WAY, DAVIE, FL, 33314",645579323,"L"
633603,"4400 TANTILLA CIRCLE UNIT B","CHARLOTTE","NC",28215,35.2316660770001,-80.732361924,103,"4400 TANTILLA CIRCLE UNIT B, CHARLOTTE, NC, 28215","Match","Exact","4400 TANTILLA CIR, CHARLOTTE, NC, 28215",70482595,"R"
633604,"4400 TELFAIR BLVD APT 2057","CAMP SPRINGS","MD",20746,38.8298658150001,-76.910740598,104,"4400 TELFAIR BLVD APT 2057, CAMP SPRINGS, MD, 20746","Match","Exact","4400 TELFAIR BLVD, CAMP SPRINGS, MD, 20746",647285630,"L"
633605,"4400 TELFAIR BLVD APT 3064","CAMP SPRINGS","MD",20746,38.8298658150001,-76.910740598,105,"4400 TELFAIR BLVD APT 3064, CAMP SPRINGS, MD, 20746","Match","Exact","4400 TELFAIR BLVD, CAMP SPRINGS, MD, 20746",647285630,"L"
633606,"4400 TIMBERCREST","TAYLOR","TX",76475,NA,NA,106,"4400 TIMBERCREST, TAYLOR, TX, 76475","No_Match",NA,NA,NA,NA
633607,"4400 TOMAHAWK RD","SHAWNEE MSN","KS",66208,38.9983656140001,-94.635887625,107,"4400 TOMAHAWK RD, SHAWNEE MSN, KS, 66208","Match","Exact","4400 TOMAHAWK RD, SHAWNEE MISSION, KS, 66208",91278861,"R"
633608,"4400 TRIBBEY TRAIL","SIOUX FALLS","SD",57106,43.505749156,-96.8298689969999,108,"4400 TRIBBEY TRAIL, SIOUX FALLS, SD, 57106","Match","Non_Exact","4400 S TRIBBEY TRL, SIOUX FALLS, SD, 57106",632553210,"L"
633609,"4400 TROUSDALE LN","COLUMBIA","TN",38401,35.5348104180001,-87.137123978,109,"4400 TROUSDALE LN, COLUMBIA, TN, 38401","Match","Exact","4400 TROUSDALE LN, COLUMBIA, TN, 38401",26903859,"L"
633610,"4400 TRUSCOTT RD","CHARLOTTE","NC",28226,35.1002715440001,-80.800389445,110,"4400 TRUSCOTT RD, CHARLOTTE, NC, 28226","Match","Exact","4400 TRUSCOTT RD, CHARLOTTE, NC, 28226",70505775,"R"
633611,"4400 UNIVERSITY DR MSN 1G8","FAIRFAX","VA",22030,38.8355009310001,-77.307073219,111,"4400 UNIVERSITY DR MSN 1G8, FAIRFAX, VA, 22030","Match","Exact","4400 UNIVERSITY DR, FAIRFAX, VA, 22030",641118527,"L"
633612,"4400 UNIVERSITY DR","FAIRFAX","VA",23030,38.8355009310001,-77.307073219,112,"4400 UNIVERSITY DR, FAIRFAX, VA, 23030","Match","Non_Exact","4400 UNIVERSITY DR, FAIRFAX, VA, 22030",641118527,"L"
633613,"4400 UNIVERSITY DR/MSN 6E1","FAIRFAX","VA",22030,38.8355009310001,-77.307073219,113,"4400 UNIVERSITY DR/MSN 6E1, FAIRFAX, VA, 22030","Match","Non_Exact","4400 UNIVERSITY DR, FAIRFAX, VA, 22030",641118527,"L"
633614,"4400 UNIVERSITY DRIVE MSN 3E1","FAIRFAX","VA",22030,38.8355009310001,-77.307073219,114,"4400 UNIVERSITY DRIVE MSN 3E1, FAIRFAX, VA, 22030","Match","Exact","4400 UNIVERSITY DR, FAIRFAX, VA, 22030",641118527,"L"
633615,"4400 UNIVERSITY DRIVE MSN5B6","FAIRFAX","VA",22030,38.8355009310001,-77.307073219,115,"4400 UNIVERSITY DRIVE MSN5B6, FAIRFAX, VA, 22030","Match","Exact","4400 UNIVERSITY DR, FAIRFAX, VA, 22030",641118527,"L"
633616,"4400 UNIVERSITY DRIVE","FAIRFAX","VA",22030,38.8355009310001,-77.307073219,116,"4400 UNIVERSITY DRIVE, FAIRFAX, VA, 22030","Match","Exact","4400 UNIVERSITY DR, FAIRFAX, VA, 22030",641118527,"L"
633617,"4400 US HWY 92 W","PLANT CITY","FL",33563,28.020178017,-82.170637755,117,"4400 US HWY 92 W, PLANT CITY, FL, 33563","Match","Non_Exact","4400 US HWY 92, PLANT CITY, FL, 33563",635545076,"R"
633618,"4400 VERDE GLEN COURT","MIDLAND","TX",79707,32.059199963,-102.15624603,118,"4400 VERDE GLEN COURT, MIDLAND, TX, 79707","Match","Exact","4400 VERDE GLEN CT, MIDLAND, TX, 79707",139592399,"R"
633619,"4400 VIRGINIA BEACH BOULEVARD","VIRGINIA BEACH","VA",23462,36.84353415,-76.126767081,119,"4400 VIRGINIA BEACH BOULEVARD, VIRGINIA BEACH, VA, 23462","Match","Exact","4400 VIRGINIA BEACH BLVD, VA BCH, VA, 23462",122275803,"R"
633620,"4400 W 22ND STREET","LITTLE ROCK","AR",72204,34.7316099490001,-92.322943717,120,"4400 W 22ND STREET, LITTLE ROCK, AR, 72204","Match","Exact","4400 W 22ND ST, LITTLE ROCK, AR, 72204",83506444,"R"
633621,"4400 W EARHART WAY","CHANDLER","AZ",85226,NA,NA,121,"4400 W EARHART WAY, CHANDLER, AZ, 85226","No_Match",NA,NA,NA,NA
633622,"4400 W SARAH ST APT 4","BURBANK","CA",91505,34.1546972090001,-118.349257724,122,"4400 W SARAH ST APT 4, BURBANK, CA, 91505","Match","Exact","4400 SARAH ST, BURBANK, CA, 91505",142726116,"L"
633623,"4400 W SPRUCE ST APT 477","TAMPA","FL",33607,NA,NA,123,"4400 W SPRUCE ST APT 477, TAMPA, FL, 33607","No_Match",NA,NA,NA,NA
633624,"4400 W","CHANDLER","AZ",85226,NA,NA,124,"4400 W, CHANDLER, AZ, 85226","No_Match",NA,NA,NA,NA
633625,"4400 W155","CLEVELAND","OH",44135,NA,NA,125,"4400 W155, CLEVELAND, OH, 44135","No_Match",NA,NA,NA,NA
633626,"4400 WARM SPRING RD  APT 33","COLUMBUS","GA",31909,32.5183675910001,-84.9198026729999,126,"4400 WARM SPRING RD  APT 33, COLUMBUS, GA, 31909","Match","Exact","4400 WARM SPRINGS RD, COLUMBUS, GA, 31909",98939962,"R"
633627,"4400 WATER OAK ROAD","CHARLOTTE","NC",28211,35.184951615,-80.7927920289999,127,"4400 WATER OAK ROAD, CHARLOTTE, NC, 28211","Match","Exact","4400 WATER OAK RD, CHARLOTTE, NC, 28211",70491800,"R"
633628,"4400 WAUBANSIE LANE","LISLE","IL",60532,41.8046840270001,-88.100101614,128,"4400 WAUBANSIE LANE, LISLE, IL, 60532","Match","Exact","4400 WAUBANSIE LN, LISLE, IL, 60532",112573472,"R"
633629,"4400 WENTWORTH RD","BALTIMORE","MD",21207,39.325732282,-76.693830226,129,"4400 WENTWORTH RD, BALTIMORE, MD, 21207","Match","Exact","4400 WENTWORTH RD, BALTIMORE, MD, 21207",206464155,"R"
633630,"4400 WEST 59TH ST UNIT 3","SIOUX FALLS","SD",57108,43.4952980780001,-96.781889844,130,"4400 WEST 59TH ST UNIT 3, SIOUX FALLS, SD, 57108","Match","Exact","4400 W 59TH ST, SIOUX FALLS, SD, 57108",633086386,"R"
633631,"4400 WEST SAMPLE ROAD SUITE 200","COCONUT CREEK","FL",33073,26.2737413730001,-80.184328917,131,"4400 WEST SAMPLE ROAD SUITE 200, COCONUT CREEK, FL, 33073","Match","Exact","4400 W SAMPLE RD, COCONUT CREEK, FL, 33073",640918717,"R"
633632,"4400 WHITEHOOF WAY","ANTIOCH","CA",94531,37.9733184470001,-121.78217553,132,"4400 WHITEHOOF WAY, ANTIOCH, CA, 94531","Match","Exact","4400 WHITEHOOF WAY, ANTIOCH, CA, 94531",192099622,"L"
633633,"4400 WILL ROGERS PARKWAY","OKLAHOMA CITY","OK",73108,35.452243239,-97.598901656,133,"4400 WILL ROGERS PARKWAY, OKLAHOMA CITY, OK, 73108","Match","Exact","4400 WILL ROGERS PKWY, OKLAHOMA CITY, OK, 73108",100392148,"L"
633634,"4400 WINDING WAY","SACRAMENTO","CA",95816,38.64198966,-121.360196907,134,"4400 WINDING WAY, SACRAMENTO, CA, 95816","Match","Non_Exact","4400 WINDING WAY, SACRAMENTO, CA, 95841",629161084,"R"
633635,"4400 WINGATE STREET","PHILADELPHIA","NY",19136,NA,NA,135,"4400 WINGATE STREET, PHILADELPHIA, NY, 19136","No_Match",NA,NA,NA,NA
633636,"4400 WOODGATE BLVD","ORLANDO","FL",32822,28.499955646,-81.296670981,136,"4400 WOODGATE BLVD, ORLANDO, FL, 32822","Match","Exact","4400 WOODGATE BLVD, ORLANDO, FL, 32822",633620591,"R"
633637,"4400 WOODS WAY","MINNETONKA","MN",55345,44.9232835130001,-93.469031125,137,"4400 WOODS WAY, MINNETONKA, MN, 55345","Match","Exact","4400 WOODS WAY, MINNETONKA, MN, 55345",43838097,"L"
633638,"44001 GARFEILD","CLINTON TWP","MI",48038,NA,NA,138,"44001 GARFEILD, CLINTON TWP, MI, 48038","No_Match",NA,NA,NA,NA
633639,"44001 TERRAZA CT","TEMECULA","CA",92592,33.4878140390001,-117.089969374,139,"44001 TERRAZA CT, TEMECULA, CA, 92592","Match","Exact","44001 TERRAZA CT, TEMECULA, CA, 92592",194877912,"L"
633640,"44008 ENGLE WAY APT 10","LANCASTER","CA",93536,34.6824744530001,-118.172314117,140,"44008 ENGLE WAY APT 10, LANCASTER, CA, 93536","Match","Exact","44008 ENGLE WAY, LANCASTER, CA, 93536",142821255,"R"
633641,"44009 FIG AVE","LANCASTER","CA",93534,34.6835877460001,-118.141588188,141,"44009 FIG AVE, LANCASTER, CA, 93534","Match","Exact","44009 FIG AVE, LANCASTER, CA, 93534",141526769,"R"
633642,"44009 LAURAL DRIVE","BROKEN BOW","NE",68822,41.416257956,-99.633527535,142,"44009 LAURAL DRIVE, BROKEN BOW, NE, 68822","Match","Exact","44009 LAURAL DR, BROKEN BOW, NE, 68822",162001665,"L"
633643,"4401 11TH STREET","LONG ISLAND CITY","NY",10011,NA,NA,143,"4401 11TH STREET, LONG ISLAND CITY, NY, 10011","No_Match",NA,NA,NA,NA
633644,"4401 11TH STREET","LONG ISLAND CITY","NY",11101,NA,NA,144,"4401 11TH STREET, LONG ISLAND CITY, NY, 11101","No_Match",NA,NA,NA,NA
633645,"4401 20TH ST","ROCKFORD","IL",61109,42.217932176,-89.057526961,145,"4401 20TH ST, ROCKFORD, IL, 61109","Match","Exact","4401 20TH ST, ROCKFORD, IL, 61109",642295613,"R"
633646,"4401 3RD ST","MCKEESPORT","PA",15132,40.3200280610001,-79.836899215,146,"4401 3RD ST, MCKEESPORT, PA, 15132","Match","Exact","4401 3RD ST, MCKEESPORT, PA, 15132",51678918,"L"
633647,"4401 40TH AVE APT 3B","MERIDIAN","MS",39305,32.4026905040001,-88.718603291,147,"4401 40TH AVE APT 3B, MERIDIAN, MS, 39305","Match","Exact","4401 40TH AVE, MERIDIAN, MS, 39305",188929,"L"
633648,"4401 47TH AVE S","MINNEAPOLIS","MN",55406,44.9232846780001,-93.2063494339999,148,"4401 47TH AVE S, MINNEAPOLIS, MN, 55406","Match","Exact","4401 47TH AVE S, MINNEAPOLIS, MN, 55406",43641051,"L"
633649,"4401 4TH STREET NORTH APT 257","ARLINGTON","VA",22203,38.872042804,-77.110133433,149,"4401 4TH STREET NORTH APT 257, ARLINGTON, VA, 22203","Match","Exact","4401 4TH ST N, ARLINGTON, VA, 22203",650276854,"R"
633650,"4401 61ST AVE W","UNIVERSITY PLACE","WA",98466,47.2167475520001,-122.518844701,150,"4401 61ST AVE W, UNIVERSITY PLACE, WA, 98466","Match","Exact","4401 61ST AVE W, UNIVERSITY PLACE, WA, 98466",184619827,"L"
633651,"4401 62ND AVENUE SW","GREAT FALLS","MT",59404,47.4504270080001,-111.375315319,151,"4401 62ND AVENUE SW, GREAT FALLS, MT, 59404","Match","Exact","4401 62ND AVE SW, GREAT FALLS, MT, 59404",202230995,"L"
633652,"4401 AGNES AVENUE","KANSAS CITY","MO",64130,39.0461053290001,-94.5494686119999,152,"4401 AGNES AVENUE, KANSAS CITY, MO, 64130","Match","Exact","4401 AGNES AVE, KANSAS CITY, MO, 64130",91452226,"L"
633653,"4401 ANGELICO LANE","ROUND ROCK","TX",78681,30.5433899660001,-97.7299739859999,153,"4401 ANGELICO LANE, ROUND ROCK, TX, 78681","Match","Exact","4401 ANGELICO LN, ROUND ROCK, TX, 78681",638017713,"L"
633654,"4401 APPLETON PLACE","KETTERING","OH",45440,39.681440971,-84.116848471,154,"4401 APPLETON PLACE, KETTERING, OH, 45440","Match","Exact","4401 APPLETON PL, KETTERING, OH, 45440",143584770,"R"
633655,"4401 ARBORWOOD","FORT WORTH","TX",76123,32.606721108,-97.389171574,155,"4401 ARBORWOOD, FORT WORTH, TX, 76123","Match","Non_Exact","4401 ARBORWOOD TRL, FORT WORTH, TX, 76123",102190216,"L"
633656,"4401 AUSTIN STREET","SACRAMENTO","CA",95838,38.647784057,-121.461544733,156,"4401 AUSTIN STREET, SACRAMENTO, CA, 95838","Match","Exact","4401 AUSTIN ST, SACRAMENTO, CA, 95838",133380789,"L"
633657,"4401 AVIA PARK PLACE APT 315","HENRICO","VA",23233,37.664147416,-77.6397841099999,157,"4401 AVIA PARK PLACE APT 315, HENRICO, VA, 23233","Match","Exact","4401 AVIA PARK PL, HENRICO, VA, 23233",652131463,"L"
633658,"4401 AYLESBURY DR","KNOXVILLE","TN",37918,36.045742551,-83.879733333,158,"4401 AYLESBURY DR, KNOXVILLE, TN, 37918","Match","Exact","4401 AYLESBURY DR, KNOXVILLE, TN, 37918",622425052,"R"
633659,"4401 BALCONES DRIVE","AUSTIN","TX",78731,30.3248325060001,-97.7685370039999,159,"4401 BALCONES DRIVE, AUSTIN, TX, 78731","Match","Exact","4401 BALCONES DR, AUSTIN, TX, 78731",64020195,"R"
633660,"4401 BAYS END CT","LOUISVILLE","NC",40245,NA,NA,160,"4401 BAYS END CT, LOUISVILLE, NC, 40245","No_Match",NA,NA,NA,NA
633661,"4401 BEACH DR E","PORT ORCHARD","WA",98366,47.5737496310001,-122.580113142,161,"4401 BEACH DR E, PORT ORCHARD, WA, 98366","Match","Exact","4401 BEACH DR E, PORT ORCHARD, WA, 98366",187664603,"R"
633662,"4401 BISCAYNE","FLOWER MOUND","TX",75028,33.0522849820001,-97.099698481,162,"4401 BISCAYNE, FLOWER MOUND, TX, 75028","Match","Non_Exact","4401 BISCAYNE DR, FLOWER MOUND, TX, 75028",103402034,"R"
633663,"4401 BLUEFIELD DR","CORPUS CHRISTI","TX",78413,27.698680869,-97.403113557,163,"4401 BLUEFIELD DR, CORPUS CHRISTI, TX, 78413","Match","Exact","4401 BLUEFIELD DR, CORPUS CHRISTI, TX, 78413",178520379,"R"
633664,"4401 BONDALE DRIVE","COLUMBUS","GA",31907,32.5086481920001,-84.906566047,164,"4401 BONDALE DRIVE, COLUMBUS, GA, 31907","Match","Exact","4401 BONDALE DR, COLUMBUS, GA, 31907",98956696,"L"
633665,"4401 BRYANT DR","LILBURN","GA",30047,33.880078961,-84.1144837589999,165,"4401 BRYANT DR, LILBURN, GA, 30047","Match","Non_Exact","4401 BRYANT DR SW, LILBURN, GA, 30047",88887237,"R"
633666,"4401 BRYANT STREET","DENVER","CO",80211,39.7766968830001,-105.019369771,166,"4401 BRYANT STREET, DENVER, CO, 80211","Match","Exact","4401 BRYANT ST, DENVER, CO, 80211",177301008,"L"
633667,"4401 CARLISLE RD","GARDENERS","PA",17324,40.063681608,-77.1949475329999,167,"4401 CARLISLE RD, GARDENERS, PA, 17324","Match","Non_Exact","4401 CARLISLE RD, GARDNERS, PA, 17324",647931392,"R"
633668,"4401 CAROLINE AVENUE","TOLEDO","OH",43612,41.6987348440001,-83.5580177909999,168,"4401 CAROLINE AVENUE, TOLEDO, OH, 43612","Match","Exact","4401 CAROLINE AVE, TOLEDO, OH, 43612",646701746,"L"
633669,"4401 CAROLINE","TOLEDO","OH",43612,41.6987348440001,-83.5580177909999,169,"4401 CAROLINE, TOLEDO, OH, 43612","Match","Non_Exact","4401 CAROLINE AVE, TOLEDO, OH, 43612",646701746,"L"
633670,"4401 CARPENTER AVENUE 1ST FLOOR","BRONX","NY",10470,40.8996462370001,-73.856893062,170,"4401 CARPENTER AVENUE 1ST FLOOR, BRONX, NY, 10470","Match","Exact","4401 CARPENTER AVE, BRONX, NY, 10470",80296967,"L"
633671,"4401 CARPENTER AVENUE 3RD FLOOR","BRONX","NY",10470,40.8996462370001,-73.856893062,171,"4401 CARPENTER AVENUE 3RD FLOOR, BRONX, NY, 10470","Match","Exact","4401 CARPENTER AVE, BRONX, NY, 10470",80296967,"L"
633672,"4401 CATALYSS WAY","YAKIMA","WA",98908,NA,NA,172,"4401 CATALYSS WAY, YAKIMA, WA, 98908","No_Match",NA,NA,NA,NA
633673,"4401 CHARNETA CT","LAS VEGAS","NV",89130,36.2393591860001,-115.217793884,173,"4401 CHARNETA CT, LAS VEGAS, NV, 89130","Match","Exact","4401 CHARNETA CT, LAS VEGAS, NV, 89130",201907917,"L"
633674,"4401 CLUB COURSE DRIVE","N CHARLESTON","SC",29420,32.94348941,-80.097671759,174,"4401 CLUB COURSE DRIVE, N CHARLESTON, SC, 29420","Match","Exact","4401 CLUB COURSE DR, N CHARLESTON, SC, 29420",640594421,"R"
633675,"4401 CODY AVENUE","SPRINGDALE","AR",72762,36.165811107,-94.180814057,175,"4401 CODY AVENUE, SPRINGDALE, AR, 72762","Match","Exact","4401 CODY AVE, SPRINGDALE, AR, 72762",49062055,"L"
633676,"4401 COIT ROAD - SUITE 303","FRISCO","TX",75035,NA,NA,176,"4401 COIT ROAD - SUITE 303, FRISCO, TX, 75035","No_Match",NA,NA,NA,NA
633677,"4401 COIT ROAD/SUITE 303","FRISCO","TX",75035,NA,NA,177,"4401 COIT ROAD/SUITE 303, FRISCO, TX, 75035","No_Match",NA,NA,NA,NA
633678,"4401 CONCORD LANE","SKOKIOE","IL",60076,42.0302743330001,-87.737923281,178,"4401 CONCORD LANE, SKOKIOE, IL, 60076","Match","Non_Exact","4401 CONCORD LN, SKOKIE, IL, 60076",111740904,"L"
633679,"4401 CONQUISTADOR CIRCLE","BRYAN","TX",77807,30.702242939,-96.487379194,179,"4401 CONQUISTADOR CIRCLE, BRYAN, TX, 77807","Match","Exact","4401 CONQUISTADOR CIR, BRYAN, TX, 77807",21844152,"R"
633680,"4401 CONSHOHOCKEN AVE C2","PHILADELPHIA","PA",19131,39.9998623320001,-75.2197001769999,180,"4401 CONSHOHOCKEN AVE C2, PHILADELPHIA, PA, 19131","Match","Exact","4401 CONSHOHOCKEN AVE, PHILADELPHIA, PA, 19131",131396806,"R"
633681,"4401 COPERUICUS ST","NEW ORLEANS","LA",70131,29.931526886,-90.010262535,181,"4401 COPERUICUS ST, NEW ORLEANS, LA, 70131","Match","Non_Exact","4401 COPERNICUS ST, NEW ORLEANS, LA, 70131",191719954,"R"
633682,"4401 COUNTRY CLUB VIEW","BAYTOWN","TX",77521,29.764495192,-94.988280692,182,"4401 COUNTRY CLUB VIEW, BAYTOWN, TX, 77521","Match","Exact","4401 COUNTRY CLUB VW, BAYTOWN, TX, 77521",96424026,"L"
633683,"4401 COVINGTON STREET UNIT 4","SUITLAND","MD",20746,38.8415584030001,-76.92841922,183,"4401 COVINGTON STREET UNIT 4, SUITLAND, MD, 20746","Match","Exact","4401 COVINGTON ST, SUITLAND, MD, 20746",76402716,"R"
633684,"4401 CR 309","LEXINGTON","TX",78947,NA,NA,184,"4401 CR 309, LEXINGTON, TX, 78947","No_Match",NA,NA,NA,NA
633685,"4401 CUBA-MILLINGTON RD","MILLINGTON","TN",38053,35.3518629540001,-89.916285565,185,"4401 CUBA-MILLINGTON RD, MILLINGTON, TN, 38053","Match","Non_Exact","4401 CUBA MILLINGTON RD, MILLINGTON, TN, 38053",607385081,"R"
633686,"4401 DARTMOOR LAND","ALEXANDRIA","VA",22310,38.793898099,-77.1084890989999,186,"4401 DARTMOOR LAND, ALEXANDRIA, VA, 22310","Match","Non_Exact","4401 DARTMOOR LN, ALEXANDRIA, VA, 22310",75985614,"L"
633687,"4401 DENICE LANE","SARASOTA","FL",34232,27.3109408450001,-82.480083913,187,"4401 DENICE LANE, SARASOTA, FL, 34232","Match","Exact","4401 DENICE LN, SARASOTA, FL, 34232",16355891,"L"
633688,"4401 DORTHEA","YORBA LINDA","CA",92886,33.897429564,-117.805475426,188,"4401 DORTHEA, YORBA LINDA, CA, 92886","Match","Non_Exact","4401 DORTHEA ST, YORBA LINDA, CA, 92886",609049905,"R"
633689,"4401 DREXEL WAY","ATLANTA","GA",30346,NA,NA,189,"4401 DREXEL WAY, ATLANTA, GA, 30346","No_Match",NA,NA,NA,NA
633690,"4401 E 111TH TER","KANSAS CITY","MO",64137,38.9233008320001,-94.5394370079999,190,"4401 E 111TH TER, KANSAS CITY, MO, 64137","Match","Exact","4401 E 111TH TER, KANSAS CITY, MO, 64137",91458257,"R"
633691,"4401 E 147TH AVE","ANCHORAGE","AK",99516,61.088147528,-149.799377694,191,"4401 E 147TH AVE, ANCHORAGE, AK, 99516","Match","Exact","4401 E 147TH AVE, ANCHORAGE, AK, 99516",190822739,"R"
633692,"4401 E 62ND ST","INDIANAPOLIS","IN",46220,39.8686224520001,-86.093352994,192,"4401 E 62ND ST, INDIANAPOLIS, IN, 46220","Match","Exact","4401 E 62ND ST, INDIANAPOLIS, IN, 46220",107995798,"R"
633693,"4401 E CLAIBORNE STREET SUITE 334","HAMPTON","VA",23666,NA,NA,193,"4401 E CLAIBORNE STREET SUITE 334, HAMPTON, VA, 23666","No_Match",NA,NA,NA,NA
633694,"4401 E JANICE WAY","PHOENIX","AZ",85032,33.624426021,-111.986491209,194,"4401 E JANICE WAY, PHOENIX, AZ, 85032","Match","Exact","4401 E JANICE WAY, PHOENIX, AZ, 85032",128375410,"R"
633695,"4401 E RONNING DRIVE APT 1","SIOUX FALLS","SD",57103,43.5502644900001,-96.672500694,195,"4401 E RONNING DRIVE APT 1, SIOUX FALLS, SD, 57103","Match","Non_Exact","4401 E RONNING DR, SIOUX FALLS, SD, 57103",34974620,"R"
633696,"4401 E RONNING DRIVE APT 1","SIOUX FALLS","SD",NA,43.5502644900001,-96.672500694,196,"4401 E RONNING DRIVE APT 1, SIOUX FALLS, SD, ","Match","Non_Exact","4401 E RONNING DR, SIOUX FALLS, SD, 57103",34974620,"R"
633697,"4401 EASTGATE MALL","SAN DIEGO","CA",92121,32.8784374900001,-117.210833777,197,"4401 EASTGATE MALL, SAN DIEGO, CA, 92121","Match","Exact","4401 EASTGATE MALL, SAN DIEGO, CA, 92121",647696970,"R"
633698,"4401 EASTHAVEN DR","CHARLOTTE","NC",28212,35.1892998970001,-80.733294815,198,"4401 EASTHAVEN DR, CHARLOTTE, NC, 28212","Match","Exact","4401 EASTHAVEN DR, CHARLOTTE, NC, 28212",70494018,"L"
633699,"4401 EQUESTRIAN WAY","FLOWER MOUND","TX",75028,33.046585264,-97.097819365,199,"4401 EQUESTRIAN WAY, FLOWER MOUND, TX, 75028","Match","Exact","4401 EQUESTRIAN WAY, FLOWER MOUND, TX, 75028",103420952,"R"
633700,"4401 FARRISWOOD DR","NASH","TN",37204,36.095464464,-86.7987407049999,200,"4401 FARRISWOOD DR, NASH, TN, 37204","Match","Non_Exact","4401 FARRISWOOD DR, NASHVILLE, TN, 37204",97191013,"R"
633701,"4401 FELIX WAY SE","SMYRNA","GA",30082,33.841207302,-84.529989141,201,"4401 FELIX WAY SE, SMYRNA, GA, 30082","Match","Non_Exact","4401 FELIX WAY, SMYRNA, GA, 30082",614173016,"L"
633702,"4401 FIR TREE RD SE","OLYMPIA","WA",98501,46.965160326,-122.825778865,202,"4401 FIR TREE RD SE, OLYMPIA, WA, 98501","Match","Exact","4401 FIR TREE RD SE, OLYMPIA, WA, 98501",624394842,"R"
633703,"4401 FRASER WAY UNIT 101","DENVER","CO",80239,39.774397895,-104.811820347,203,"4401 FRASER WAY UNIT 101, DENVER, CO, 80239","Match","Non_Exact","4401 N FRASER WAY, DENVER, CO, 80239",646543480,"R"
633704,"4401 FRISCO BRIDGE BLVD","EDMOND","OK",73034,35.6991583930001,-97.462869277,204,"4401 FRISCO BRIDGE BLVD, EDMOND, OK, 73034","Match","Exact","4401 FRISCO BRIDGE BLVD, EDMOND, OK, 73034",617260718,"L"
633705,"4401 GARY AVE","FAIRFIELD","AL",35064,33.492907444,-86.913924395,205,"4401 GARY AVE, FAIRFIELD, AL, 35064","Match","Exact","4401 GARY AVE, FAIRFIELD, AL, 35064",81551602,"L"
633706,"4401 GEORGETOWN VERONA ROAD","LEWISBURG","OH",45338,39.9024639200001,-84.5498568359999,206,"4401 GEORGETOWN VERONA ROAD, LEWISBURG, OH, 45338","Match","Exact","4401 GEORGETOWN VERONA RD, LEWISBURG, OH, 45338",649874177,"R"
633707,"4401 GOODFELLOWS COURT","TUCKER","GA",30084,33.867165249,-84.2092728869999,207,"4401 GOODFELLOWS COURT, TUCKER, GA, 30084","Match","Exact","4401 GOODFELLOWS CT, TUCKER, GA, 30084",23363609,"L"
633708,"4401 H STREET","SACRAMENTO","CA",95819,38.5709082400001,-121.447350094,208,"4401 H STREET, SACRAMENTO, CA, 95819","Match","Exact","4401 H ST, SACRAMENTO, CA, 95819",133325526,"L"
633709,"4401 HIGHWAY 24 EAST","WOODVILLE","MS",39669,31.120362836,-91.3604567579999,209,"4401 HIGHWAY 24 EAST, WOODVILLE, MS, 39669","Match","Non_Exact","4401 HWY 24 W, WOODVILLE, MS, 39669",75906510,"R"
633710,"4401 HORSEMINT COVE","HEARTLAND","TX",75126,32.683216368,-96.452554429,210,"4401 HORSEMINT COVE, HEARTLAND, TX, 75126","Match","Exact","4401 HORSEMINT COVE, HEARTLAND, TX, 75126",648267513,"L"
633711,"4401 HUGHES LN SP-188","BAKERSFIELD","CA",93304,35.3167207830001,-119.030091771,211,"4401 HUGHES LN SP-188, BAKERSFIELD, CA, 93304","Match","Exact","4401 HUGHES LN, BAKERSFIELD, CA, 93304",109092226,"R"
633712,"4401 I STREET","AMANA","IA",52203,41.798029657,-91.872755524,212,"4401 I STREET, AMANA, IA, 52203","Match","Exact","4401 I ST, AMANA, IA, 52203",84390353,"L"
633713,"4401 INWOOD RD","FORT WORTH","TX",76109,32.6825330730001,-97.379534368,213,"4401 INWOOD RD, FORT WORTH, TX, 76109","Match","Exact","4401 INWOOD RD, FORT WORTH, TX, 76109",101886482,"L"
633714,"4401 JACKIE LN","PARAGOULD","AR",72450,36.0560155470001,-90.5451730939999,214,"4401 JACKIE LN, PARAGOULD, AR, 72450","Match","Non_Exact","4401 JACKIE DR, PARAGOULD, AR, 72450",47065593,"L"
633715,"4401 JANEFIELD WAY","NOLENSVILLE","TN",37135,35.9847125840001,-86.6631903049999,215,"4401 JANEFIELD WAY, NOLENSVILLE, TN, 37135","Match","Exact","4401 JANEFIELD WAY, NOLENSVILLE, TN, 37135",648247599,"R"
633716,"4401 JENNINGS CHAPEL ROAD","BROOKEVILLE","MD",20833,39.25685114,-77.0636308269999,216,"4401 JENNINGS CHAPEL ROAD, BROOKEVILLE, MD, 20833","Match","Exact","4401 JENNINGS CHAPEL RD, BROOKEVILLE, MD, 20833",158965655,"L"
633717,"4401 JENNINGS CHAPEL WAY","CLARKESVILLE","MD",20883,NA,NA,217,"4401 JENNINGS CHAPEL WAY, CLARKESVILLE, MD, 20883","No_Match",NA,NA,NA,NA
633718,"4401 KAREN ANN CT","FLORISSANT","MO",63034,38.8397914710001,-90.293548255,218,"4401 KAREN ANN CT, FLORISSANT, MO, 63034","Match","Exact","4401 KAREN ANN CT, FLORISSANT, MO, 63034",100198110,"R"
633719,"4401 KATHLAND AVE","BALTIMORE","MD",21207,39.326661378,-76.693353671,219,"4401 KATHLAND AVE, BALTIMORE, MD, 21207","Match","Exact","4401 KATHLAND AVE, BALTIMORE, MD, 21207",206405235,"L"
633720,"4401 KATIE RIDGE DRIVE","MOORE","OK",73160,35.297619615,-97.482000699,220,"4401 KATIE RIDGE DRIVE, MOORE, OK, 73160","Match","Exact","4401 KATIE RIDGE DR, MOORE, OK, 73160",636149942,"R"
633721,"4401 KILLIAM COURT","GLEN ALLEN","VA",23060,37.652244727,-77.5702439409999,221,"4401 KILLIAM COURT, GLEN ALLEN, VA, 23060","Match","Exact","4401 KILLIAM CT, GLEN ALLEN, VA, 23060",106664672,"R"
633722,"4401 LANCEFIELD LANE","BOWIE","MD",20720,38.9531556000001,-76.792221479,222,"4401 LANCEFIELD LANE, BOWIE, MD, 20720","Match","Exact","4401 LANCEFIELD LN, BOWIE, MD, 20720",76416155,"L"
633723,"4401 LESPEDEZA CT","AMISSVILLE","VA",20106,38.638981077,-77.9639504049999,223,"4401 LESPEDEZA CT, AMISSVILLE, VA, 20106","Match","Exact","4401 LESPEDEZA CT, AMISSVILLE, VA, 20106",29853726,"L"
633724,"4401 LITTLE RD ST","ARLINGTON","TX",76016,32.676613478,-97.1973088139999,224,"4401 LITTLE RD ST, ARLINGTON, TX, 76016","Match","Exact","4401 LITTLE RD, ARLINGTON, TX, 76016",102133107,"L"
633725,"4401 LITTLE RD STE 550 - 240","ARLINGTON","TX",76016,32.676613478,-97.1973088139999,225,"4401 LITTLE RD STE 550 - 240, ARLINGTON, TX, 76016","Match","Exact","4401 LITTLE RD, ARLINGTON, TX, 76016",102133107,"L"
633726,"4401 LITTLE RD STE 550 - 240","FORT WORTH","TX",76016,NA,NA,226,"4401 LITTLE RD STE 550 - 240, FORT WORTH, TX, 76016","No_Match",NA,NA,NA,NA
633727,"4401 LITTLE RD STE 550 - 272","ARLINGTON","TX",76016,32.676613478,-97.1973088139999,227,"4401 LITTLE RD STE 550 - 272, ARLINGTON, TX, 76016","Match","Exact","4401 LITTLE RD, ARLINGTON, TX, 76016",102133107,"L"
633728,"4401 LITTLE ROAD STE 550-226","ARLINGTON","TX",76016,32.676613478,-97.1973088139999,228,"4401 LITTLE ROAD STE 550-226, ARLINGTON, TX, 76016","Match","Exact","4401 LITTLE RD, ARLINGTON, TX, 76016",102133107,"L"
633729,"4401 LOOKOUT TRAIL","BISMARCK","ND",58504,46.709664751,-100.725899077,229,"4401 LOOKOUT TRAIL, BISMARCK, ND, 58504","Match","Exact","4401 LOOKOUT TRL, BISMARCK, ND, 58504",647546461,"L"
633730,"4401 MANCHESTER AVE APT 3","STOCKTON","CA",95207,37.9862622900001,-121.317225724,230,"4401 MANCHESTER AVE APT 3, STOCKTON, CA, 95207","Match","Exact","4401 MANCHESTER AVE, STOCKTON, CA, 95207",641223956,"L"
633731,"4401 MATTIE ST UNIT B","AUSTIN","TX",78723,30.2966094540001,-97.702792125,231,"4401 MATTIE ST UNIT B, AUSTIN, TX, 78723","Match","Exact","4401 MATTIE ST, AUSTIN, TX, 78723",640827450,"R"
633732,"4401 MOCKINGBIRD DR","CENTERVILLE","TN",37033,35.835512475,-87.424716351,232,"4401 MOCKINGBIRD DR, CENTERVILLE, TN, 37033","Match","Exact","4401 MOCKINGBIRD DR, CENTERVILLE, TN, 37033",636642368,"L"
633733,"4401 MONARCH DR","SIERRA VISTA","AZ",85635,31.5510124240001,-110.252992313,233,"4401 MONARCH DR, SIERRA VISTA, AZ, 85635","Match","Exact","4401 MONARCH DR, SIERRA VISTA, AZ, 85635",120927759,"R"
633734,"4401 MYRA AVE","CYPRESS","CA",90630,33.8146107790001,-118.055990861,234,"4401 MYRA AVE, CYPRESS, CA, 90630","Match","Exact","4401 MYRA AVE, CYPRESS, CA, 90630",144114368,"L"
633735,"4401 N 121ST TERRACE","KANSAS CITY","KS",66109,39.167394227,-94.860131054,235,"4401 N 121ST TERRACE, KANSAS CITY, KS, 66109","Match","Exact","4401 N 121ST TER, KANSAS CITY, KS, 66109",619585767,"R"
633736,"4401 N EAGLE ROAD SUITE 102","BOISE","ID",83713,43.6445178230001,-116.354305095,236,"4401 N EAGLE ROAD SUITE 102, BOISE, ID, 83713","Match","Non_Exact","4401 N EAGLE RD, BOISE, ID, 83713",117882223,"R"
633737,"4401 N JANNEY AVE","MUNCIE","IN",47304,40.2290264040001,-85.402646832,237,"4401 N JANNEY AVE, MUNCIE, IN, 47304","Match","Exact","4401 N JANNEY AVE, MUNCIE, IN, 47304",30833897,"L"
633738,"4401 N RAVENSWOOD","CHICAGO","IL",60640,41.961672175,-87.6739706669999,238,"4401 N RAVENSWOOD, CHICAGO, IL, 60640","Match","Non_Exact","4401 N RAVENSWOOD AVE, CHICAGO, IL, 60640",111761349,"R"
633739,"4401 NEWPORT COURT","GASTONIA","NC",28056,35.2230439850001,-81.1199737109999,239,"4401 NEWPORT COURT, GASTONIA, NC, 28056","Match","Exact","4401 NEWPORT CT, GASTONIA, NC, 28056",70420690,"L"
633740,"4401 NW 167ST","MIAMI","FL",33055,NA,NA,240,"4401 NW 167ST, MIAMI, FL, 33055","No_Match",NA,NA,NA,NA
633741,"4401 NW 39TH STREET  APT 317","OKLAHOMA CITY","OK",73112,NA,NA,241,"4401 NW 39TH STREET  APT 317, OKLAHOMA CITY, OK, 73112","No_Match",NA,NA,NA,NA
633742,"4401 NW 4TH ST","OKLAHOMA CITY","OK",73107,35.4715751410001,-97.5995177029999,242,"4401 NW 4TH ST, OKLAHOMA CITY, OK, 73107","Match","Exact","4401 NW 4TH ST, OKLAHOMA CITY, OK, 73107",100431834,"R"
633743,"4401 NW 87TH AVE UNIT 236","DORAL","FL",33178,25.813329149,-80.337386274,243,"4401 NW 87TH AVE UNIT 236, DORAL, FL, 33178","Match","Non_Exact","4401 NW 87TH AVE, DORAL, FL, 33178",115955763,"R"
633744,"4401 OAKDEN COVE","MEMPHIS","TN",38125,35.026823886,-89.80543914,244,"4401 OAKDEN COVE, MEMPHIS, TN, 38125","Match","Exact","4401 OAKDEN COVE, MEMPHIS, TN, 38125",629597530,"R"
633745,"4401 PALMYRA ST","NEW ORLEANS","LA",70119,29.9752121880001,-90.10572739,245,"4401 PALMYRA ST, NEW ORLEANS, LA, 70119","Match","Exact","4401 PALMYRA ST, NEW ORLEANS, LA, 70119",191706557,"R"
633746,"4401 PENN AVENUE","PITTSBURGH","PA",15224,40.465953841,-79.953457793,246,"4401 PENN AVENUE, PITTSBURGH, PA, 15224","Match","Exact","4401 PENN AVE, PITTSBURGH, PA, 15224",635645876,"L"
633747,"4401 PORPOISE DR","TAMPA","FL",33617,28.0173874450001,-82.4081704829999,247,"4401 PORPOISE DR, TAMPA, FL, 33617","Match","Exact","4401 PORPOISE DR, TAMPA, FL, 33617",640439357,"R"
633748,"4401 PROVIDENCE LANE STE 121","WINSTON SALEM","NC",27106,36.150447183,-80.2711504009999,248,"4401 PROVIDENCE LANE STE 121, WINSTON SALEM, NC, 27106","Match","Exact","4401 PROVIDENCE LN, WINSTON SALEM, NC, 27106",84674544,"R"
633749,"4401 PRUDENCE STREET","BALTIMORE","MD",21226,39.226358524,-76.591569072,249,"4401 PRUDENCE STREET, BALTIMORE, MD, 21226","Match","Exact","4401 PRUDENCE ST, BALTIMORE, MD, 21226",206432497,"L"
633750,"4401 QUAIL TRAIL","FORT WORTH","TX",76110,NA,NA,250,"4401 QUAIL TRAIL, FORT WORTH, TX, 76110","No_Match",NA,NA,NA,NA
633751,"4401 REBECCA BLVD","METAIRIE","LA",70003,30.0191796390001,-90.2231751429999,251,"4401 REBECCA BLVD, METAIRIE, LA, 70003","Match","Exact","4401 REBECCA BLVD, METAIRIE, LA, 70003",93493984,"R"
633752,"4401 REDING","AMARILLO","TX",79108,35.3166195950001,-101.888210601,252,"4401 REDING, AMARILLO, TX, 79108","Match","Non_Exact","4401 REDING RD, AMARILLO, TX, 79108",635391753,"L"
633753,"4401 RIVERVIEW BLVD","BRADENTON","FL",34209,27.503693458,-82.604830202,253,"4401 RIVERVIEW BLVD, BRADENTON, FL, 34209","Match","Exact","4401 RIVERVIEW BLVD, BRADENTON, FL, 34209",16246538,"L"
633754,"4401 ROUTE 9N","PORTER CORNERS","NY",12859,NA,NA,254,"4401 ROUTE 9N, PORTER CORNERS, NY, 12859","No_Match",NA,NA,NA,NA
633755,"4401 ROWLETT ROAD","ROWLETT","TX",75088,32.900320235,-96.569595551,255,"4401 ROWLETT ROAD, ROWLETT, TX, 75088","Match","Exact","4401 ROWLETT RD, ROWLETT, TX, 75088",652524543,"R"
633756,"4401 S 162ND AVENUE","OMAHA","NE",68135,41.215992468,-96.1709845889999,256,"4401 S 162ND AVENUE, OMAHA, NE, 68135","Match","Exact","4401 S 162ND AVE, OMAHA, NE, 68135",117001875,"L"
633757,"4401 S 39TH ST","OMAHA","NE",68107,41.2161328350001,-95.9713017719999,257,"4401 S 39TH ST, OMAHA, NE, 68107","Match","Exact","4401 S 39TH ST, OMAHA, NE, 68107",116985208,"L"
633758,"4401 S 54TH ST","LINCOLN","NE",68516,40.7687618590001,-96.646696888,258,"4401 S 54TH ST, LINCOLN, NE, 68516","Match","Exact","4401 S 54TH ST, LINCOLN, NE, 68516",28260903,"R"
633759,"4401 S ELLIS","CHICAGO","IL",60653,41.8149038290001,-87.60180324,259,"4401 S ELLIS, CHICAGO, IL, 60653","Match","Non_Exact","4401 S ELLIS AVE, CHICAGO, IL, 60653",111771479,"L"
633760,"4401 S LEWIS AVE","SIOUX FALLS,","SD",57103,43.505136904,-96.701185816,260,"4401 S LEWIS AVE, SIOUX FALLS,, SD, 57103","Match","Exact","4401 S LEWIS AVE, SIOUX FALLS, SD, 57103",34975759,"R"
633761,"4401 S SOLBERG AVE APT 6","SIOUX FALLS","SD",57106,43.5039076470001,-96.7809366829999,261,"4401 S SOLBERG AVE APT 6, SIOUX FALLS, SD, 57106","Match","Non_Exact","4401 S SOLBERG AVE, SIOUX FALLS, SD, 57106",34982339,"R"
633762,"4401 SAGATOO ROAD","STANDISH","MI",48658,43.953948171,-83.981636252,262,"4401 SAGATOO ROAD, STANDISH, MI, 48658","Match","Exact","4401 SAGATOO RD, STANDISH, MI, 48658",160913896,"L"
633763,"4401 SALINAS ST","OCEANSIDE","CA",92057,33.2444198490001,-117.314805697,263,"4401 SALINAS ST, OCEANSIDE, CA, 92057","Match","Exact","4401 SALINAS ST, OCEANSIDE, CA, 92057",195420128,"R"
633764,"4401 SAMARA DR","HENRICO","VA",23231,37.5272175110001,-77.381380128,264,"4401 SAMARA DR, HENRICO, VA, 23231","Match","Exact","4401 SAMARA DR, HENRICO, VA, 23231",106650703,"L"
633765,"4401 SAN LEANDRO BLVD UNIT 50","OAKLAND","CA",94601,37.769940998,-122.216340601,265,"4401 SAN LEANDRO BLVD UNIT 50, OAKLAND, CA, 94601","Match","Non_Exact","4401 SAN LEANDRO ST, OAKLAND, CA, 94601",125006738,"R"
633766,"4401 SAN LEANDRO ST APT 35","OAKLAND","CA",94601,37.769940998,-122.216340601,266,"4401 SAN LEANDRO ST APT 35, OAKLAND, CA, 94601","Match","Exact","4401 SAN LEANDRO ST, OAKLAND, CA, 94601",125006738,"R"
633767,"4401 SCHROEDER LANE","CINCINNATI","OH",45217,39.164488927,-84.498025118,267,"4401 SCHROEDER LANE, CINCINNATI, OH, 45217","Match","Exact","4401 SCHROEDER LN, CINCINNATI, OH, 45217",103959917,"L"
633768,"4401 SE 44TH AVE RD","OCALA","FL",34480,29.14332541,-82.0744004859999,268,"4401 SE 44TH AVE RD, OCALA, FL, 34480","Match","Exact","4401 SE 44TH AVENUE RD, OCALA, FL, 34480",116730366,"R"
633769,"4401 SE 66TH AVENUE","PORTLAND","OR",97206,45.490931667,-122.595328275,269,"4401 SE 66TH AVENUE, PORTLAND, OR, 97206","Match","Exact","4401 SE 66TH AVE, PORTLAND, OR, 97206",157516342,"R"
633770,"4401 SHAW BLVD","ST LOUIS","MO",63110,38.616861262,-90.258464821,270,"4401 SHAW BLVD, ST LOUIS, MO, 63110","Match","Exact","4401 SHAW BLVD, SAINT LOUIS, MO, 63110",107597170,"R"
633771,"4401 SHAWNEE CIRCLE","DECATUR","AL",35603,34.5204004560001,-86.9362780119999,271,"4401 SHAWNEE CIRCLE, DECATUR, AL, 35603","Match","Exact","4401 SHAWNEE CIR, DECATUR, AL, 35603",97115441,"R"
633772,"4401 SHERMAN PARK DR","ST CHARLES","MO",63303,38.7713896610001,-90.515438806,272,"4401 SHERMAN PARK DR, ST CHARLES, MO, 63303","Match","Exact","4401 SHERMAN PARK DR, SAINT CHARLES, MO, 63303",650142751,"L"
633773,"4401 SLAUSON AVE","LOS ANGELES","CA",90043,33.988880613,-118.351845842,273,"4401 SLAUSON AVE, LOS ANGELES, CA, 90043","Match","Non_Exact","4401 W SLAUSON AVE, LOS ANGELES, CA, 90043",142749581,"R"
633774,"4401 SMITH LANE","LAGRANGE","KY",40031,38.4682063440001,-85.441229095,274,"4401 SMITH LANE, LAGRANGE, KY, 40031","Match","Exact","4401 SMITH LN, LAGRANGE, KY, 40031",130921700,"L"
633775,"4401 SOUTH PRINCETON AVENUE","CHICAGO","IL",60609,41.814257603,-87.6334998579999,275,"4401 SOUTH PRINCETON AVENUE, CHICAGO, IL, 60609","Match","Exact","4401 S PRINCETON AVE, CHICAGO, IL, 60609",111829620,"L"
633776,"4401 STARLITE LANE","LOUISVILLE","KY",40291,38.1834137930001,-85.622216755,276,"4401 STARLITE LANE, LOUISVILLE, KY, 40291","Match","Exact","4401 STARLITE LN, LOUISVILLE, KY, 40291",653263122,"L"
633777,"4401 SUBLIME TRAIL","ATLANTA","GA",30349,33.642702441,-84.57707666,277,"4401 SUBLIME TRAIL, ATLANTA, GA, 30349","Match","Exact","4401 SUBLIME TRL, ATLANTA, GA, 30349",627634810,"L"
633778,"4401 SW 105TH DRIVE","GAINESVILLE","FL",32608,29.61230426,-82.455236581,278,"4401 SW 105TH DRIVE, GAINESVILLE, FL, 32608","Match","Exact","4401 S W 105TH DR, GAINESVILLE, FL, 32608",6835719,"R"
633779,"4401 SW 22ND COURT","FORT LAUDERDALE","FL",33317,26.0939387560001,-80.209467885,279,"4401 SW 22ND COURT, FORT LAUDERDALE, FL, 33317","Match","Exact","4401 SW 22ND CT, FORT LAUDERDALE, FL, 33317",114713734,"R"
633780,"4401 TAHOE DR","FORT WORTH","TX",76119,32.700123644,-97.257362318,280,"4401 TAHOE DR, FORT WORTH, TX, 76119","Match","Exact","4401 TAHOE DR, FORT WORTH, TX, 76119",101898862,"L"
633781,"4401 TALLMAN ST","FORT WORTH","TX",76119,32.700060965,-97.27444016,281,"4401 TALLMAN ST, FORT WORTH, TX, 76119","Match","Exact","4401 TALLMAN ST, FORT WORTH, TX, 76119",101898477,"L"
633782,"4401 TELFAIR BLVD 4550","CAMP SPRINGS","MD",20746,38.8298575380001,-76.91074983,282,"4401 TELFAIR BLVD 4550, CAMP SPRINGS, MD, 20746","Match","Exact","4401 TELFAIR BLVD, CAMP SPRINGS, MD, 20746",647285630,"R"
633783,"4401 TRINITY WOODS STREET","LEANDER","TX",78641,30.57063358,-97.772812586,283,"4401 TRINITY WOODS STREET, LEANDER, TX, 78641","Match","Exact","4401 TRINITY WOODS ST, LEANDER, TX, 78641",648697340,"L"
633784,"4401 VALLEY COVE CT","RALEIGH","NC",27616,35.843410061,-78.569611303,284,"4401 VALLEY COVE CT, RALEIGH, NC, 27616","Match","Exact","4401 VALLEY COVE CT, RALEIGH, NC, 27616",72648852,"L"
633785,"4401 VARSITY DR SUITE D","ANN ARBOR","MI",48108,42.2299918360001,-83.725903403,285,"4401 VARSITY DR SUITE D, ANN ARBOR, MI, 48108","Match","Exact","4401 VARSITY DR, ANN ARBOR, MI, 48108",26015996,"L"
633786,"4401 W SLAUSON AVE NO 119","WINDSOR HILLS","CA",90043,NA,NA,286,"4401 W SLAUSON AVE NO 119, WINDSOR HILLS, CA, 90043","No_Match",NA,NA,NA,NA
633787,"4401 W SLAUSON AVE UNIT 134","LOS ANGELES","CA",90043,33.988880613,-118.351845842,287,"4401 W SLAUSON AVE UNIT 134, LOS ANGELES, CA, 90043","Match","Non_Exact","4401 W SLAUSON AVE, LOS ANGELES, CA, 90043",142749581,"R"
633788,"4401 W US HWY 36","URBANA","OH",43078,NA,NA,288,"4401 W US HWY 36, URBANA, OH, 43078","No_Match",NA,NA,NA,NA
633789,"4401 W US HWY","URBANA","OH",43078,NA,NA,289,"4401 W US HWY, URBANA, OH, 43078","No_Match",NA,NA,NA,NA
633790,"4401 W VERDUGO AVE APT B","BURBANK","CA",91505,34.158648837,-118.350711121,290,"4401 W VERDUGO AVE APT B, BURBANK, CA, 91505","Match","Non_Exact","4401 W VERDUGO AVE, BURBANK, CA, 91505",142726067,"R"
633791,"4401 WAVETREE DRIVE","FAYETTEVILLE","NC",28306,35.013425318,-78.94855767,291,"4401 WAVETREE DRIVE, FAYETTEVILLE, NC, 28306","Match","Exact","4401 WAVETREE DR, FAYETTEVILLE, NC, 28306",653481446,"L"
633792,"4401 WEST 25TH PLACE","LAWRENCE","KS",66047,38.9395328260001,-95.298612701,292,"4401 WEST 25TH PLACE, LAWRENCE, KS, 66047","Match","Exact","4401 W 25TH PL, LAWRENCE, KS, 66047",17690426,"R"
633793,"4401 WESTMORELAND ST","LITTLE NECK","NY",11363,NA,NA,293,"4401 WESTMORELAND ST, LITTLE NECK, NY, 11363","No_Match",NA,NA,NA,NA
633794,"4401 WESTOWN PARKWAY","WEST DES MOINES","IA",50266,41.5954661110001,-93.7691045289999,294,"4401 WESTOWN PARKWAY, WEST DES MOINES, IA, 50266","Match","Exact","4401 WESTOWN PKWY, WEST DES MOINES, IA, 50266",65800489,"R"
633795,"4401 WILLIFORD ROAD","SACHSE","TX",75048,32.981617118,-96.581805549,295,"4401 WILLIFORD ROAD, SACHSE, TX, 75048","Match","Exact","4401 WILLIFORD RD, SACHSE, TX, 75048",102925377,"L"
633796,"4401 WOLF CREEK RANCH RD","BURNETT","TX",78611,30.872524642,-98.329178414,296,"4401 WOLF CREEK RANCH RD, BURNETT, TX, 78611","Match","Non_Exact","4401 WOLF CREEK RANCH RD, BURNET, TX, 78611",146539789,"R"
633797,"4401 WOODBINE LANE","PROSPER","TX",75078,33.231052704,-96.872862036,297,"4401 WOODBINE LANE, PROSPER, TX, 75078","Match","Exact","4401 WOODBINE LN, PROSPER, TX, 75078",648118803,"R"
633798,"4401 WORCHESTER DRIVE APT 23","WOODBRIDGE","VA",22193,38.641689914,-77.3426583099999,298,"4401 WORCHESTER DRIVE APT 23, WOODBRIDGE, VA, 22193","Match","Exact","4401 WORCHESTER DR, WOODBRIDGE, VA, 22193",76514114,"L"
633799,"4401 WORNALL ROAD","KANSAS CITY","MO",64111,39.0465095530001,-94.590128004,299,"4401 WORNALL ROAD, KANSAS CITY, MO, 64111","Match","Exact","4401 WORNALL RD, KANSAS CITY, MO, 64111",624951881,"L"
633800,"4401 ZOO PARKWAY","ASHEBORO","NC",27205,35.6345042630001,-79.782389934,300,"4401 ZOO PARKWAY, ASHEBORO, NC, 27205","Match","Exact","4401 ZOO PKWY, ASHEBORO, NC, 27205",653671976,"R"
633801,"44015 FINE STREET","LANCASTER","CA",93536,34.6826103240001,-118.185304995,301,"44015 FINE STREET, LANCASTER, CA, 93536","Match","Exact","44015 FINE ST, LANCASTER, CA, 93536",141777613,"R"
633802,"44015 GALA CIRCLE","ASHBURN","VA",20147,39.057635884,-77.4767827319999,302,"44015 GALA CIRCLE, ASHBURN, VA, 20147","Match","Exact","44015 GALA CIR, ASHBURN, VA, 20147",640630711,"R"
633803,"44015 GEDDY CT","FREMONT","CA",94539,37.518292719,-121.926975528,303,"44015 GEDDY CT, FREMONT, CA, 94539","Match","Exact","44015 GEDDY CT, FREMONT, CA, 94539",125057844,"L"
633804,"44015 KIOWA BENNETT","BENNETT","CO",80102,NA,NA,304,"44015 KIOWA BENNETT, BENNETT, CO, 80102","No_Match",NA,NA,NA,NA
633805,"44016 AINA MOI PL","KANEOHE","HI",96744,NA,NA,305,"44016 AINA MOI PL, KANEOHE, HI, 96744","No_Match",NA,NA,NA,NA
633806,"44018 ABERDEEN TER","ASHBURN","VA",20147,39.050724179,-77.4784422659999,306,"44018 ABERDEEN TER, ASHBURN, VA, 20147","Match","Exact","44018 ABERDEEN TER, ASHBURN, VA, 20147",62336159,"R"
633807,"44018 ABERDEEN TERRACE","ASHBURN","VA",20147,39.050724179,-77.4784422659999,307,"44018 ABERDEEN TERRACE, ASHBURN, VA, 20147","Match","Exact","44018 ABERDEEN TER, ASHBURN, VA, 20147",62336159,"R"
633808,"44018 BRISTOW CR","ASHBURN","VA",20147,NA,NA,308,"44018 BRISTOW CR, ASHBURN, VA, 20147","No_Match",NA,NA,NA,NA
633809,"4401A CONNECTICUT AVE NW APT 133","WASHINGTON","DC",20008,NA,NA,309,"4401A CONNECTICUT AVE NW APT 133, WASHINGTON, DC, 20008","No_Match",NA,NA,NA,NA
633810,"4402 10TH AVE","TEMPLE","PA",19560,40.4021628470001,-75.9187000059999,310,"4402 10TH AVE, TEMPLE, PA, 19560","Match","Exact","4402 10TH AVE, TEMPLE, PA, 19560",80448424,"R"
633811,"4402 28TH AVE S","SEATTLE","WA",98108,47.56260839,-122.297533187,311,"4402 28TH AVE S, SEATTLE, WA, 98108","Match","Exact","4402 28TH AVE S, SEATTLE, WA, 98108",186595423,"L"
633812,"4402 40TH AVE","SWEA CITY","IA",50590,43.400865004,-94.38385075,312,"4402 40TH AVE, SWEA CITY, IA, 50590","Match","Exact","4402 40TH AVE, SWEA CITY, IA, 50590",635879068,"R"
633813,"4402 40TH AVENUE","SWEA CITY","IA",50590,43.400865004,-94.38385075,313,"4402 40TH AVENUE, SWEA CITY, IA, 50590","Match","Exact","4402 40TH AVE, SWEA CITY, IA, 50590",635879068,"R"
633814,"4402 44TH WAY","WEST PALM BEACH","FL",33407,26.756901231,-80.1029490019999,314,"4402 44TH WAY, WEST PALM BEACH, FL, 33407","Match","Exact","4402 44TH WAY, WEST PALM BEACH, FL, 33407",115311531,"R"
633815,"4402 88ST","LUBBOCK","TX",79424,NA,NA,315,"4402 88ST, LUBBOCK, TX, 79424","No_Match",NA,NA,NA,NA
633816,"4402 88TH STREET","LUBBOCK","TX",79424,33.513381549,-101.905435139,316,"4402 88TH STREET, LUBBOCK, TX, 79424","Match","Exact","4402 88TH ST, LUBBOCK, TX, 79424",185265292,"L"
633817,"4402 AKARD ST","HOUSTON","TX",77047,29.6426944140001,-95.358273706,317,"4402 AKARD ST, HOUSTON, TX, 77047","Match","Exact","4402 AKARD ST, HOUSTON, TX, 77047",96090396,"R"
633818,"4402 ARBOR DR","MIDLAND","MI",48640,43.636940145,-84.25089193,318,"4402 ARBOR DR, MIDLAND, MI, 48640","Match","Exact","4402 ARBOR DR, MIDLAND, MI, 48640",81201336,"R"
633819,"4402 BARKMAN CIRCLE","COLORADO SPRINGS","CO",80916,38.798852729,-104.747675197,319,"4402 BARKMAN CIRCLE, COLORADO SPRINGS, CO, 80916","Match","Exact","4402 BARKMAN CIR, COLORADO SPRINGS, CO, 80916",105523943,"L"
633820,"4402 BOWLES DRIVE","KILLEEN","TX",76549,31.0876338370001,-97.779830682,320,"4402 BOWLES DRIVE, KILLEEN, TX, 76549","Match","Exact","4402 BOWLES DR, KILLEEN, TX, 76549",146181639,"R"
633821,"4402 BRIDGEMAN COURT","LOUISVILLE","KY",40218,38.1847632230001,-85.6747927329999,321,"4402 BRIDGEMAN COURT, LOUISVILLE, KY, 40218","Match","Exact","4402 BRIDGEMAN CT, LOUISVILLE, KY, 40218",96858096,"L"
633822,"4402 CARROLLTON AVE","INDIANAPOLIS","IN",46205,39.836321862,-86.143739029,322,"4402 CARROLLTON AVE, INDIANAPOLIS, IN, 46205","Match","Exact","4402 CARROLLTON AVE, INDIANAPOLIS, IN, 46205",107985164,"L"
633823,"4402 CATALINA PARKWAY","MCFARLAND","WI",53558,43.033204691,-89.276044606,323,"4402 CATALINA PARKWAY, MCFARLAND, WI, 53558","Match","Exact","4402 CATALINA PKWY, MCFARLAND, WI, 53558",646950124,"L"
633824,"4402 CHALET COURT APT 3B","BALTIMORE","MD",21206,39.326722793,-76.5603396389999,324,"4402 CHALET COURT APT 3B, BALTIMORE, MD, 21206","Match","Exact","4402 CHALET CT, BALTIMORE, MD, 21206",206411465,"L"
633825,"4402 CHIPPENDALE RD","BROOKSHIRE","TX",77423,29.732709734,-95.948202085,325,"4402 CHIPPENDALE RD, BROOKSHIRE, TX, 77423","Match","Exact","4402 CHIPPENDALE RD, BROOKSHIRE, TX, 77423",78282317,"R"
633826,"4402 DESERT CLIFF CT","KATY","TX",77494,29.7247683200001,-95.815775873,326,"4402 DESERT CLIFF CT, KATY, TX, 77494","Match","Exact","4402 DESERT CLIFF CT, KATY, TX, 77494",633673143,"R"
633827,"4402 DOVEWOOD DRIVE","SYLVANIA","OH",43560,41.694682206,-83.727204676,327,"4402 DOVEWOOD DRIVE, SYLVANIA, OH, 43560","Match","Non_Exact","4402 DOVEWOOD LN, SYLVANIA, OH, 43560",33961754,"R"
633828,"4402 E 28TH ST","TUCSON","AZ",85711,32.2007250070001,-110.898674811,328,"4402 E 28TH ST, TUCSON, AZ, 85711","Match","Exact","4402 E 28TH ST, TUCSON, AZ, 85711",121176777,"R"
633829,"4402 E SLIGH AVE","TAMPA","FL",33610,28.010667224,-82.408883298,329,"4402 E SLIGH AVE, TAMPA, FL, 33610","Match","Exact","4402 E SLIGH AVE, TAMPA, FL, 33610",104532064,"L"
633830,"4402 FEMRITE DRIVE","MADISON","WI",53716,43.0498565400001,-89.307187136,330,"4402 FEMRITE DRIVE, MADISON, WI, 53716","Match","Exact","4402 FEMRITE DR, MADISON, WI, 53716",49506047,"L"
633831,"4402 FOREST AVENUE","BROOKFIELD","IL",60513,41.8108691670001,-87.842574927,331,"4402 FOREST AVENUE, BROOKFIELD, IL, 60513","Match","Exact","4402 FOREST AVE, BROOKFIELD, IL, 60513",111792839,"R"
633832,"4402 HALLSVILLE PIKE","KINGSTON","OH",45644,39.452306637,-82.8352369249999,332,"4402 HALLSVILLE PIKE, KINGSTON, OH, 45644","Match","Exact","4402 HALLSVILLE PIKE, KINGSTON, OH, 45644",37494910,"L"
633833,"4402 HEDDA STREET","LAKEWOOD","CA",90712,33.8641051170001,-118.140845804,333,"4402 HEDDA STREET, LAKEWOOD, CA, 90712","Match","Exact","4402 HEDDA ST, LAKEWOOD, CA, 90712",141699553,"R"
633834,"4402 IVES ST","ROCKVILLE","MD",20853,39.074132143,-77.088262457,334,"4402 IVES ST, ROCKVILLE, MD, 20853","Match","Exact","4402 IVES ST, ROCKVILLE, MD, 20853",62059906,"L"
633835,"4402 KINGCREST PARKWAY","RICHMOND","VA",23221,37.5631366860001,-77.497646646,335,"4402 KINGCREST PARKWAY, RICHMOND, VA, 23221","Match","Exact","4402 KINGCREST PKWY, RICHMOND, VA, 23221",201534668,"R"
633836,"4402 KIRK MANOR CT","FRESNO","TX",77584,29.5225537380001,-95.49589556,336,"4402 KIRK MANOR CT, FRESNO, TX, 77584","Match","Non_Exact","4402 KIRK MANOR CT, FRESNO, TX, 77545",635221271,"R"
633837,"4402 LAKEWAY DRIVE","SAN ANTONIO","TX",78244,29.468893354,-98.355656391,337,"4402 LAKEWAY DRIVE, SAN ANTONIO, TX, 78244","Match","Exact","4402 LAKEWAY DR, SAN ANTONIO, TX, 78244",101537508,"L"
633838,"4402 LAZYRIVER DRIVE","DURHAM","NC",27712,36.074143405,-78.893608559,338,"4402 LAZYRIVER DRIVE, DURHAM, NC, 27712","Match","Exact","4402 LAZYRIVER DR, DURHAM, NC, 27712",71776742,"L"
633839,"4402 LELAND ST","CHEVY CHASE","MD",20815,38.9804638160001,-77.088402612,339,"4402 LELAND ST, CHEVY CHASE, MD, 20815","Match","Exact","4402 LELAND ST, CHEVY CHASE, MD, 20815",62066109,"L"
633840,"4402 LYDIA LANE","MANSFIELD","TX",76063,32.5734731110001,-97.063024614,340,"4402 LYDIA LANE, MANSFIELD, TX, 76063","Match","Exact","4402 LYDIA LN, MANSFIELD, TX, 76063",648544959,"R"
633841,"4402 MAIN STREET","WAITSFIELD","VT",5673,44.1900214830001,-72.824536565,341,"4402 MAIN STREET, WAITSFIELD, VT, 5673","Match","Exact","4402 MAIN ST, WAITSFIELD, VT, 05673",136672397,"L"
633842,"4402 MENAGGIO WY","EL DORADO HILLS","CA",95672,38.672421942,-121.04247945,342,"4402 MENAGGIO WY, EL DORADO HILLS, CA, 95672","Match","Non_Exact","4402 MENAGGIO WAY, EL DORADO HLS, CA, 95762",607156465,"L"
633843,"4402 MYSTIQUE LANDING","ROSWELL","GA",30075,34.058603179,-84.420733818,343,"4402 MYSTIQUE LANDING, ROSWELL, GA, 30075","Match","Exact","4402 MYSTIQUE LNDG, ROSWELL, GA, 30075",623711206,"R"
633844,"4402 N 153RD LANE","GOODYEAR","AZ",85395,33.4988483010001,-112.38821295,344,"4402 N 153RD LANE, GOODYEAR, AZ, 85395","Match","Exact","4402 N 153RD LN, GOODYEAR, AZ, 85395",243959177,"L"
633845,"4402 N 65 ST","MILWAUKEE","WI",53218,43.097443282,-87.99316255,345,"4402 N 65 ST, MILWAUKEE, WI, 53218","Match","Exact","4402 N 65TH ST, MILWAUKEE, WI, 53218",77730514,"R"
633846,"4402 NE 50TH ST","SEATTLE","WA",98005,47.6648958600001,-122.280381347,346,"4402 NE 50TH ST, SEATTLE, WA, 98005","Match","Non_Exact","4402 NE 50TH ST, SEATTLE, WA, 98105",186588279,"L"
633847,"4402 NORTH 750 WEST","HUNTINGTON","IN",46750,40.891862234,-85.593929424,347,"4402 NORTH 750 WEST, HUNTINGTON, IN, 46750","Match","Exact","4402 N 750 W, HUNTINGTON, IN, 46750",6554541,"L"
633848,"4402 OLD COURT ROAD APT H","PIKESVILLE","MD",21208,39.3699873680001,-76.744157811,348,"4402 OLD COURT ROAD APT H, PIKESVILLE, MD, 21208","Match","Non_Exact","4402 OLD COURT RD, PIKESVILLE, MD, 21208",191560790,"R"
633849,"4402 ORLAN LANE","BOWIE","MD",20715,38.993612608,-76.733595268,349,"4402 ORLAN LANE, BOWIE, MD, 20715","Match","Exact","4402 ORLAN LN, BOWIE, MD, 20715",76327377,"L"
633850,"4402 PEACHAM LN","FRESNO","TX",77545,29.522226136,-95.468795818,350,"4402 PEACHAM LN, FRESNO, TX, 77545","Match","Exact","4402 PEACHAM LN, FRESNO, TX, 77545",641168690,"L"
633851,"4402 PECAN GROVE LN","ROWLETT","TX",75088,32.881605747,-96.561502226,351,"4402 PECAN GROVE LN, ROWLETT, TX, 75088","Match","Exact","4402 PECAN GROVE LN, ROWLETT, TX, 75088",103168169,"L"
633852,"4402 PENNINGTON AVE APT A","KILLEEN","TX",76549,31.092226822,-97.7970746829999,352,"4402 PENNINGTON AVE APT A, KILLEEN, TX, 76549","Match","Exact","4402 PENNINGTON AVE, KILLEEN, TX, 76549",647830588,"R"
633853,"4402 PHILLIPS","PARAGOULD","AR",72450,36.055038294,-90.54592431,353,"4402 PHILLIPS, PARAGOULD, AR, 72450","Match","Non_Exact","4402 PHILLIPS DR, PARAGOULD, AR, 72450",641739932,"L"
633854,"4402 PINKNEY STREET","OMAHA","NE",68111,41.29050784,-95.9787897159999,354,"4402 PINKNEY STREET, OMAHA, NE, 68111","Match","Exact","4402 PINKNEY ST, OMAHA, NE, 68111",116978742,"R"
633855,"4402 PLUM TREE ROAD","CLIMAX","NC",27233,35.839652039,-79.719572517,355,"4402 PLUM TREE ROAD, CLIMAX, NC, 27233","Match","Exact","4402 PLUM TREE RD, CLIMAX, NC, 27233",20424496,"R"
633856,"4402 QUINCY DR","MIDLAND","MI",48642,43.613019776,-84.173819137,356,"4402 QUINCY DR, MIDLAND, MI, 48642","Match","Exact","4402 QUINCY DR, MIDLAND, MI, 48642",81196527,"R"
633857,"4402 SADDLE CREEK WAY","BURTONSVILLE","MD",20866,39.102668706,-76.91952615,357,"4402 SADDLE CREEK WAY, BURTONSVILLE, MD, 20866","Match","Exact","4402 SADDLE CREEK WAY, BURTONSVILLE, MD, 20866",62078077,"L"
633858,"4402 SAINT PAUL AVENUE","LINCOLN","NE",68504,40.839315684,-96.658738722,358,"4402 SAINT PAUL AVENUE, LINCOLN, NE, 68504","Match","Exact","4402 SAINT PAUL AVE, LINCOLN, NE, 68504",28257864,"L"
633859,"4402 SCOTSWOOD DRIVE","AMARILLO","TX",79110,35.1235882710001,-101.886419388,359,"4402 SCOTSWOOD DRIVE, AMARILLO, TX, 79110","Match","Exact","4402 SCOTSWOOD DR, AMARILLO, TX, 79110",182655244,"L"
633860,"4402 SEDGWICK ROAD","BALTIMORE","MD",21210,39.343660228,-76.627805229,360,"4402 SEDGWICK ROAD, BALTIMORE, MD, 21210","Match","Exact","4402 SEDGWICK RD, BALTIMORE, MD, 21210",206407553,"L"
633861,"4402 SOJOURNER STREET","AUSTIN","TX",78725,30.2430694380001,-97.5871103109999,361,"4402 SOJOURNER STREET, AUSTIN, TX, 78725","Match","Exact","4402 SOJOURNER ST, AUSTIN, TX, 78725",63967553,"L"
633862,"4402 SUNSET CIRCLE","LOUISVILLE","KY",40216,38.190467106,-85.8409512759999,362,"4402 SUNSET CIRCLE, LOUISVILLE, KY, 40216","Match","Exact","4402 SUNSET CIR, LOUISVILLE, KY, 40216",641686705,"L"
633863,"4402 TIMBER CREEK CT","MISSOURI CITY","TX",77459,29.556303057,-95.525843301,363,"4402 TIMBER CREEK CT, MISSOURI CITY, TX, 77459","Match","Exact","4402 TIMBER CREEK CT, MISSOURI CITY, TX, 77459",78293197,"R"
633864,"4402 W 95TH STREET","PRAIRIE VILLAGE","TX",66207,NA,NA,364,"4402 W 95TH STREET, PRAIRIE VILLAGE, TX, 66207","No_Match",NA,NA,NA,NA
633865,"4402 W SOUTHVIEW DR","COLUMBIA","MO",65203,38.918776414,-92.401747894,365,"4402 W SOUTHVIEW DR, COLUMBIA, MO, 65203","Match","Exact","4402 W SOUTHVIEW DR, COLUMBIA, MO, 65203",23478734,"L"
633866,"4402 WATER OAK CT","PALM BEACH GARDENS","FL",33463,26.837142424,-80.086868754,366,"4402 WATER OAK CT, PALM BEACH GARDENS, FL, 33463","Match","Non_Exact","4402 WATER OAK CT, PALM BCH GDNS, FL, 33410",115341435,"R"
633867,"4402 WINNEQUAH ROAD","MONONA","WI",53716,43.07369047,-89.329173457,367,"4402 WINNEQUAH ROAD, MONONA, WI, 53716","Match","Exact","4402 WINNEQUAH RD, MONONA, WI, 53716",49474659,"L"
633868,"44020 COTTISFORD ST","NORTHVILLE","MI",48167,42.45683101,-83.480072165,368,"44020 COTTISFORD ST, NORTHVILLE, MI, 48167","Match","Exact","44020 COTTISFORD ST, NORTHVILLE, MI, 48167",69774832,"R"
633869,"44020 PRECISE STREET","LANCASTER","CA",93535,34.682811271,-118.181514968,369,"44020 PRECISE STREET, LANCASTER, CA, 93535","Match","Non_Exact","44020 PRECISE ST, LANCASTER, CA, 93536",141522699,"L"
633870,"44023 W MARICOPA AVE","MARICOPA","AZ",85138,33.057375226,-112.040676674,370,"44023 W MARICOPA AVE, MARICOPA, AZ, 85138","Match","Exact","44023 MARICOPA AVE, MARICOPA, AZ, 85138",129256108,"L"
633871,"44024 244TH STREET","SALEM","SD",57058,43.8485928380001,-97.403574108,371,"44024 244TH STREET, SALEM, SD, 57058","Match","Exact","44024 244TH ST, SALEM, SD, 57058",201004936,"R"
633872,"44024 FLORENCE TERRACE","ASHBURN","VA",20147,39.0491651930001,-77.47688312,372,"44024 FLORENCE TERRACE, ASHBURN, VA, 20147","Match","Exact","44024 FLORENCE TER, ASHBURN, VA, 20147",640630378,"L"
633873,"44025 KINGS ARMS SQ","ASHBURN","VA",20147,39.0272789470001,-77.478093767,373,"44025 KINGS ARMS SQ, ASHBURN, VA, 20147","Match","Exact","44025 KINGS ARMS SQ, ASHBURN, VA, 20147",62336840,"R"
633874,"44028 MOUND ROAD SUITE 4","STERLING HEIGHTS","MI",48314,42.617356418,-83.0515569679999,374,"44028 MOUND ROAD SUITE 4, STERLING HEIGHTS, MI, 48314","Match","Exact","44028 MOUND RD, STERLING HEIGHTS, MI, 48314",110723565,"R"
633875,"4403 - 15 AVENUE SUITE 549","BROOKLYN","NY",11210,NA,NA,375,"4403 - 15 AVENUE SUITE 549, BROOKLYN, NY, 11210","No_Match",NA,NA,NA,NA
633876,"4403 - 15 AVENUE SUITE 549","BROOKLYN","NY",11219,NA,NA,376,"4403 - 15 AVENUE SUITE 549, BROOKLYN, NY, 11219","No_Match",NA,NA,NA,NA
633877,"4403 15TH AVENUE   SUITE 354","BROOKLYN","NY",11219,40.6351105800001,-73.984846123,377,"4403 15TH AVENUE   SUITE 354, BROOKLYN, NY, 11219","Match","Exact","4403 15TH AVE, BROOKLYN, NY, 11219",59080315,"L"
633878,"4403 23RD PARKWAY UNIT 101","TEMPLE HILLS","MD",20748,NA,NA,378,"4403 23RD PARKWAY UNIT 101, TEMPLE HILLS, MD, 20748","No_Match",NA,NA,NA,NA
633879,"4403 23RD PARKWAY","TEMPLE HILLS","MD",20748,38.830543866,-76.9575173219999,379,"4403 23RD PARKWAY, TEMPLE HILLS, MD, 20748","Match","Exact","4403 23RD PKWY, TEMPLE HILLS, MD, 20748",76415084,"L"
633880,"4403 29TH AVE S","SEATTLE","WA",98108,47.5630854280001,-122.296175764,380,"4403 29TH AVE S, SEATTLE, WA, 98108","Match","Exact","4403 29TH AVE S, SEATTLE, WA, 98108",647916134,"L"
633881,"4403 ABBOTT GROVE","CRESTWOOD","KY",40014,38.3171393390001,-85.436390192,381,"4403 ABBOTT GROVE, CRESTWOOD, KY, 40014","Match","Non_Exact","4403 ABBOTT GROVE DR, CRESTWOOD, KY, 40014",130933049,"R"
633882,"4403 ARCON LN NW","ROCHESTER","MN",55901,44.087125375,-92.529712936,382,"4403 ARCON LN NW, ROCHESTER, MN, 55901","Match","Exact","4403 ARCON LN NW, ROCHESTER, MN, 55901",30573349,"L"
633883,"4403 BLACKSTONE WAY","SITKA","AK",98226,NA,NA,383,"4403 BLACKSTONE WAY, SITKA, AK, 98226","No_Match",NA,NA,NA,NA
633884,"4403 BLAKE CIRCLE","BYRAM","MS",39272,32.1939362850001,-90.294227141,384,"4403 BLAKE CIRCLE, BYRAM, MS, 39272","Match","Exact","4403 BLAKE CIR, BYRAM, MS, 39272",638567660,"L"
633885,"4403 BLUEBELL","MEMPHIS","TN",38109,35.028513832,-90.0960735359999,385,"4403 BLUEBELL, MEMPHIS, TN, 38109","Match","Non_Exact","4403 BLUEBELL ST, MEMPHIS, TN, 38109",72906647,"R"
633886,"4403 BRIGGS CHANEY ROAD","BELTSVILLE","MD",20705,39.06172715,-76.931194725,386,"4403 BRIGGS CHANEY ROAD, BELTSVILLE, MD, 20705","Match","Exact","4403 BRIGGS CHANEY RD, BELTSVILLE, MD, 20705",639500524,"R"
633887,"4403 CROSS LANE","DECATUR","GA",30035,33.7264898510001,-84.210915711,387,"4403 CROSS LANE, DECATUR, GA, 30035","Match","Exact","4403 CROSS LN, DECATUR, GA, 30035",23404098,"R"
633888,"4403 DANADO DRIVE","DAYTON","OH",45406,39.792624027,-84.254876629,388,"4403 DANADO DRIVE, DAYTON, OH, 45406","Match","Exact","4403 DANADO DR, DAYTON, OH, 45406",143565155,"L"
633889,"4403 E MORNING VISTA LN","CAVE CREEK","AZ",85331,33.7507068130001,-111.987189353,389,"4403 E MORNING VISTA LN, CAVE CREEK, AZ, 85331","Match","Exact","4403 E MORNING VIST LN, CAVE CREEK, AZ, 85331",128596755,"R"
633890,"4403 EAMES LANE","WOODBRIDGE","VA",22193,38.6322804700001,-77.3415317559999,390,"4403 EAMES LANE, WOODBRIDGE, VA, 22193","Match","Exact","4403 EAMES LN, WOODBRIDGE, VA, 22193",76508807,"L"
633891,"4403 EDGEMORE RD","GREENSBORO","NC",27455,36.136143502,-79.794732938,391,"4403 EDGEMORE RD, GREENSBORO, NC, 27455","Match","Exact","4403 EDGEMORE RD, GREENSBORO, NC, 27455",131030262,"L"
633892,"4403 FIRMAMENT AVE","ENCINO","CA",91436,34.1508796640001,-118.472126784,392,"4403 FIRMAMENT AVE, ENCINO, CA, 91436","Match","Exact","4403 FIRMAMENT AVE, ENCINO, CA, 91436",141560528,"L"
633893,"4403 FOSTER AVENUE","BROOKLYN","NY",10223,40.639452336,-73.934790683,393,"4403 FOSTER AVENUE, BROOKLYN, NY, 10223","Match","Non_Exact","4403 FOSTER AVE, BROOKLYN, NY, 11203",59082091,"L"
633894,"4403 GAIL BLVD","MELBOURNE","FL",32904,28.0711777230001,-80.648883742,394,"4403 GAIL BLVD, MELBOURNE, FL, 32904","Match","Exact","4403 GAIL BLVD, MELBOURNE, FL, 32904",93903285,"L"
633895,"4403 HARRISON BLVD STE 4640","OGDEN","UT",84403,41.183246926,-111.949102598,395,"4403 HARRISON BLVD STE 4640, OGDEN, UT, 84403","Match","Exact","4403 HARRISON BLVD, OGDEN, UT, 84403",605784712,"R"
633896,"4403 HICKORY COURT","BRANDON","FL",33511,27.874733393,-82.2833538899999,396,"4403 HICKORY COURT, BRANDON, FL, 33511","Match","Exact","4403 HICKORY CT, BRANDON, FL, 33511",104544248,"R"
633897,"4403 HIGHWAY 3","DICKINSON","TX",77539,29.4597725850001,-95.05086547,397,"4403 HIGHWAY 3, DICKINSON, TX, 77539","Match","Non_Exact","4403 STATE HWY 3, DICKINSON, TX, 77539",96674267,"L"
633898,"4403 HOLMEHURT WAY","BOWIE","MD",20720,NA,NA,398,"4403 HOLMEHURT WAY, BOWIE, MD, 20720","No_Match",NA,NA,NA,NA
633899,"4403 INGERSOLL ST","HOUSTON","TX",77027,29.7318320360001,-95.449981727,399,"4403 INGERSOLL ST, HOUSTON, TX, 77027","Match","Exact","4403 INGERSOLL ST, HOUSTON, TX, 77027",96033966,"L"
633900,"4403 JONATHAN ST","BELLAIRE","TX",77401,29.701946811,-95.449500749,400,"4403 JONATHAN ST, BELLAIRE, TX, 77401","Match","Exact","4403 JONATHAN ST, BELLAIRE, TX, 77401",96034855,"L"
633901,"4403 KANAWHA AVE","CHARLESTON","WV",25304,38.326335493,-81.582406455,401,"4403 KANAWHA AVE, CHARLESTON, WV, 25304","Match","Non_Exact","4403 KANAWHA AVE SE, CHARLESTON, WV, 25304",78659901,"R"
633902,"4403 KNOTT STREET","BELTSVILLE","MD",20705,39.0521318040001,-76.9130321769999,402,"4403 KNOTT STREET, BELTSVILLE, MD, 20705","Match","Exact","4403 KNOTT ST, BELTSVILLE, MD, 20705",76340899,"R"
633903,"4403 LESESNE DRIVE APT 301","FREDERICKSBURG","VA",22408,NA,NA,403,"4403 LESESNE DRIVE APT 301, FREDERICKSBURG, VA, 22408","No_Match",NA,NA,NA,NA
633904,"4403 LONGBOURN DR","MANSFIELD","TX",76063,32.574488989,-97.063673867,404,"4403 LONGBOURN DR, MANSFIELD, TX, 76063","Match","Exact","4403 LONGBOURN DR, MANSFIELD, TX, 76063",648545045,"L"
633905,"4403 LOST FOREST RD","SARASOTA","FL",34235,27.3676812680001,-82.4955387269999,405,"4403 LOST FOREST RD, SARASOTA, FL, 34235","Match","Exact","4403 LOST FOREST RD, SARASOTA, FL, 34235",16350004,"L"
633906,"4403 MANCHESTER AVE","EL PASO","TX",79903,31.7958249500001,-106.438727127,406,"4403 MANCHESTER AVE, EL PASO, TX, 79903","Match","Exact","4403 MANCHESTER AVE, EL PASO, TX, 79903",189344104,"L"
633907,"4403 MILL CREEK AVE","ALPHARETTA","GA",30006,NA,NA,407,"4403 MILL CREEK AVE, ALPHARETTA, GA, 30006","No_Match",NA,NA,NA,NA
633908,"4403 MURWICK DRIVE","ARLINGTON","TX",76016,32.6788655830001,-97.1830265089999,408,"4403 MURWICK DRIVE, ARLINGTON, TX, 76016","Match","Exact","4403 MURWICK DR, ARLINGTON, TX, 76016",102175258,"L"
633909,"4403 N BORTHWICK ST","PORTLAND","OR",97217,45.5550577220001,-122.673391086,409,"4403 N BORTHWICK ST, PORTLAND, OR, 97217","Match","Non_Exact","4403 N BORTHWICK AVE, PORTLAND, OR, 97217",157503357,"L"
633910,"4403 NE 57TH TER","KANSAS CITY","MO",64119,39.1955859670001,-94.527398965,410,"4403 NE 57TH TER, KANSAS CITY, MO, 64119","Match","Exact","4403 NE 57TH TER, KANSAS CITY, MO, 64119",89786067,"L"
633911,"4403 NORTH 129TH DRIVE","LITCHFIELD PARK","AZ",85340,33.4987581620001,-112.337461473,411,"4403 NORTH 129TH DRIVE, LITCHFIELD PARK, AZ, 85340","Match","Exact","4403 N 129TH DR, LITCHFIELD PARK, AZ, 85340",128858492,"R"
633912,"4403 NORTH 30TH STREET","TAMPA","FL",33610,27.9851608270001,-82.426467583,412,"4403 NORTH 30TH STREET, TAMPA, FL, 33610","Match","Exact","4403 N 30TH ST, TAMPA, FL, 33610",104533423,"R"
633913,"4403 NORTHEAST 1ST PLACE","RENTON","WA",98059,47.4836559390001,-122.160436319,413,"4403 NORTHEAST 1ST PLACE, RENTON, WA, 98059","Match","Exact","4403 NE 1ST PL, RENTON, WA, 98059",186672137,"R"
633914,"4403 NORTHSIDE PARKWAY-1425","ATLANTA","GA",30327,NA,NA,414,"4403 NORTHSIDE PARKWAY-1425, ATLANTA, GA, 30327","No_Match",NA,NA,NA,NA
633915,"4403 NORTHSIDE PKWY","ATLANTA","GA",30327,33.867337675,-84.45361339,415,"4403 NORTHSIDE PKWY, ATLANTA, GA, 30327","Match","Non_Exact","4403 NORTHSIDE PKWY NW, ATLANTA, GA, 30327",17416441,"R"
633916,"4403 OAKHILL RD","OAKLAND","CA",94605,37.7649250590001,-122.141455538,416,"4403 OAKHILL RD, OAKLAND, CA, 94605","Match","Non_Exact","4403 OAK HILL RD, OAKLAND, CA, 94605",125011060,"L"
633917,"4403 OLD CHAPEL HILL ROAD","DURHAM","NC",27707,35.9460013,-78.971818143,417,"4403 OLD CHAPEL HILL ROAD, DURHAM, NC, 27707","Match","Exact","4403 OLD CHAPEL HILL RD, DURHAM, NC, 27707",618112731,"L"
633918,"4403 PINEHURST","TAYLOR","TX",76574,30.5954509680001,-97.4301621129999,418,"4403 PINEHURST, TAYLOR, TX, 76574","Match","Non_Exact","4403 PINEHURST DR, TAYLOR, TX, 76574",126476648,"L"
633919,"4403 RAINIER STREET APT 112","IRVING","TX",75062,32.840941779,-97.011364368,419,"4403 RAINIER STREET APT 112, IRVING, TX, 75062","Match","Exact","4403 RAINIER ST, IRVING, TX, 75062",653854527,"L"
633920,"4403 RAINIER STREET APT 112","IRVINNG","TX",75062,32.840941779,-97.011364368,420,"4403 RAINIER STREET APT 112, IRVINNG, TX, 75062","Match","Non_Exact","4403 RAINIER ST, IRVING, TX, 75062",653854527,"L"
633921,"4403 RALEIGH DRIVE","GROVELAND","GA",30813,33.4655862550001,-82.249615681,421,"4403 RALEIGH DRIVE, GROVELAND, GA, 30813","Match","Non_Exact","4403 RALEIGH DR, GROVETOWN, GA, 30813",651003966,"R"
633922,"4403 ROBMAR DRIVE","MOUNT AIRY","MD",21771,39.3513867230001,-77.195412534,422,"4403 ROBMAR DRIVE, MOUNT AIRY, MD, 21771","Match","Exact","4403 ROBMAR DR, MOUNT AIRY, MD, 21771",60706587,"R"
633923,"4403 ROMLON STE APT 204","BELTSVILLE","MD",20705,39.031806594,-76.925041469,423,"4403 ROMLON STE APT 204, BELTSVILLE, MD, 20705","Match","Non_Exact","4403 ROMLON ST, BELTSVILLE, MD, 20705",76324196,"R"
633924,"4403 S BROADWAY ST","ST. LOUIS","MO",63111,38.5754185800001,-90.233779539,424,"4403 S BROADWAY ST, ST. LOUIS, MO, 63111","Match","Non_Exact","4403 S BROADWAY, SAINT LOUIS, MO, 63111",641142055,"R"
633925,"4403 S KENT STREET","KENNEWICK","WA",99337,46.1696596800001,-119.133404321,425,"4403 S KENT STREET, KENNEWICK, WA, 99337","Match","Exact","4403 S KENT ST, KENNEWICK, WA, 99337",174993468,"L"
633926,"4403 SAINT ANDREWS WAY","HARRISBURH","PA",17112,40.3283284280001,-76.8185941789999,426,"4403 SAINT ANDREWS WAY, HARRISBURH, PA, 17112","Match","Non_Exact","4403 ST ANDREWS WAY, HARRISBURG, PA, 17112",70834919,"L"
633927,"4403 SAN FERNANDO LANE","MCKINNEY","TX",75070,33.1596861300001,-96.6700737739999,427,"4403 SAN FERNANDO LANE, MCKINNEY, TX, 75070","Match","Exact","4403 SAN FERNANDO LN, MCKINNEY, TX, 75070",123526826,"R"
633928,"4403 SAND SPRINGS RD","WINFIELD","AL",35594,NA,NA,428,"4403 SAND SPRINGS RD, WINFIELD, AL, 35594","No_Match",NA,NA,NA,NA
633929,"4403 SE HOWE ST","MILWAUKIE","OR",97222,45.452852943,-122.616965176,429,"4403 SE HOWE ST, MILWAUKIE, OR, 97222","Match","Exact","4403 SE HOWE ST, MILWAUKIE, OR, 97222",157914540,"L"
633930,"4403 SILVERBROOK LANE A301","OWINGS MILLS","MD",21117,39.4025952320001,-76.80270088,430,"4403 SILVERBROOK LANE A301, OWINGS MILLS, MD, 21117","Match","Exact","4403 SILVERBROOK LN, OWINGS MILLS, MD, 21117",191550762,"L"
633931,"4403 SILVERBROOK LANE","OWINGS MILLS","MD",21117,39.4025952320001,-76.80270088,431,"4403 SILVERBROOK LANE, OWINGS MILLS, MD, 21117","Match","Exact","4403 SILVERBROOK LN, OWINGS MILLS, MD, 21117",191550762,"L"
633932,"4403 SOUTHMINSTER CIRCLE","NICEVILLE","FL",32578,30.4618631000001,-86.4262320779999,432,"4403 SOUTHMINSTER CIRCLE, NICEVILLE, FL, 32578","Match","Exact","4403 SOUTHMINSTER CIR, NICEVILLE, FL, 32578",74417728,"L"
633933,"4403 ST CLAIR","CLEVELAND","OH",44103,41.5177716590001,-81.661456599,433,"4403 ST CLAIR, CLEVELAND, OH, 44103","Match","Non_Exact","4403 SAINT CLAIR AVE, CLEVELAND, OH, 44103",61112546,"L"
633934,"4403 SUN VALLEY","EAST POINT","GA",30344,33.6359946590001,-84.4891227959999,434,"4403 SUN VALLEY, EAST POINT, GA, 30344","Match","Non_Exact","4403 SUN VALLEY BLVD, EAST POINT, GA, 30344",17339129,"R"
633935,"4403 TIMBER LINE LN","GRAND BLANC","MI",48439,NA,NA,435,"4403 TIMBER LINE LN, GRAND BLANC, MI, 48439","No_Match",NA,NA,NA,NA
633936,"4403 TOLCESTER CT","BELCAMP","MD",21017,39.482139562,-76.243404851,436,"4403 TOLCESTER CT, BELCAMP, MD, 21017","Match","Non_Exact","4403 TOLCHESTER CT, BELCAMP, MD, 21017",191657259,"L"
633937,"4403 UHL","PARKERSBURG","WV",26104,39.2922801500001,-81.5186395009999,437,"4403 UHL, PARKERSBURG, WV, 26104","Match","Non_Exact","4403 UHL ST, PARKERSBURG, WV, 26104",90871137,"L"
633938,"4403 URBANA DRIVE  103","ORLANDO","FL",32837,28.3656745810001,-81.430306515,438,"4403 URBANA DRIVE  103, ORLANDO, FL, 32837","Match","Exact","4403 URBANA DR, ORLANDO, FL, 32837",640887250,"R"
633939,"4403 VIRGINIA AVE","LOUISVILLE","KY",40211,38.240444439,-85.8268611029999,439,"4403 VIRGINIA AVE, LOUISVILLE, KY, 40211","Match","Exact","4403 VIRGINIA AVE, LOUISVILLE, KY, 40211",96836450,"R"
633940,"4403 W ALPINE ST","BOISE","ID",83705,43.604311824,-116.236025658,440,"4403 W ALPINE ST, BOISE, ID, 83705","Match","Exact","4403 ALPINE ST, BOISE, ID, 83705",117889856,"L"
633941,"4403 WEST LAWRENCE AVE 202","CHICAGO","IL",60630,41.9681292860001,-87.738039267,441,"4403 WEST LAWRENCE AVE 202, CHICAGO, IL, 60630","Match","Exact","4403 W LAWRENCE AVE, CHICAGO, IL, 60630",111755341,"L"
633942,"4403 WEST LAWRENCE AVENUE SUITE 202","CHICAGO","IL",60630,41.9681292860001,-87.738039267,442,"4403 WEST LAWRENCE AVENUE SUITE 202, CHICAGO, IL, 60630","Match","Exact","4403 W LAWRENCE AVE, CHICAGO, IL, 60630",111755341,"L"
633943,"4403 WEST LAWRENCE SUITE 202","CHICAGO","IL",60630,41.9681292860001,-87.738039267,443,"4403 WEST LAWRENCE SUITE 202, CHICAGO, IL, 60630","Match","Non_Exact","4403 W LAWRENCE AVE, CHICAGO, IL, 60630",111755341,"L"
633944,"4403 WILLOW MOSS","SOUTHPORT","NC",28461,33.9397601380001,-78.032373982,444,"4403 WILLOW MOSS, SOUTHPORT, NC, 28461","Match","Non_Exact","4403 WILLOW MOSS WAY, SOUTHPORT, NC, 28461",650909155,"L"
633945,"4403 WORTH STREET","DALLAS","TX",75246,32.794294183,-96.7722017419999,445,"4403 WORTH STREET, DALLAS, TX, 75246","Match","Exact","4403 WORTH ST, DALLAS, TX, 75246",102911186,"L"
633946,"44038 PARKSIDE","CANTON","MI",48187,42.339907356,-83.475063517,446,"44038 PARKSIDE, CANTON, MI, 48187","Match","Non_Exact","44038 PARKSIDE ST, CANTON, MI, 48187",95408961,"R"
633947,"4404  STATE STREET APT 1","CHICAGO","IL",60609,41.814501455,-87.6262293679999,447,"4404  STATE STREET APT 1, CHICAGO, IL, 60609","Match","Non_Exact","4404 S STATE ST, CHICAGO, IL, 60609",111830553,"R"
633948,"4404 10TH AVENUE","VIENNA","WV",26105,39.33220385,-81.537738224,448,"4404 10TH AVENUE, VIENNA, WV, 26105","Match","Exact","4404 10TH AVE, VIENNA, WV, 26105",90867209,"R"
633949,"4404 237TH PL SW","MOUNT LAKE TERRACE","WA",98043,47.783271864,-122.292478861,449,"4404 237TH PL SW, MOUNT LAKE TERRACE, WA, 98043","Match","Non_Exact","4404 237TH PL SW, MOUNTLAKE TERRACE, WA, 98043",187757501,"L"
633950,"4404 237TH PL SW","MOUNTLAKE TERRACE","WA",98043,47.783271864,-122.292478861,450,"4404 237TH PL SW, MOUNTLAKE TERRACE, WA, 98043","Match","Exact","4404 237TH PL SW, MOUNTLAKE TERRACE, WA, 98043",187757501,"L"
633951,"4404 29TH STREET","MOUNT RAINIER","MD",20712,38.9441936430001,-76.9678303589999,451,"4404 29TH STREET, MOUNT RAINIER, MD, 20712","Match","Exact","4404 29TH ST, MOUNT RAINIER, MD, 20712",76304273,"L"
633952,"4404 58TH DRIVE NE","MARYSVILLE","WA",98270,48.035420157,-122.151746517,452,"4404 58TH DRIVE NE, MARYSVILLE, WA, 98270","Match","Exact","4404 58TH DR NE, MARYSVILLE, WA, 98270",608938583,"L"
633953,"4404 76TH ST SW","MUKILTEO","WA",98275,47.9293289920001,-122.294390711,453,"4404 76TH ST SW, MUKILTEO, WA, 98275","Match","Exact","4404 76TH ST SW, MUKILTEO, WA, 98275",187739443,"L"
633954,"4404 81ST STREET","URBANDALE","IA",50322,41.641068665,-93.729914779,454,"4404 81ST STREET, URBANDALE, IA, 50322","Match","Exact","4404 81ST ST, URBANDALE, IA, 50322",65775462,"R"
633955,"4404 ATLANTA DR","PLANO","TX",75093,33.0263089790001,-96.7796529559999,455,"4404 ATLANTA DR, PLANO, TX, 75093","Match","Exact","4404 ATLANTA DR, PLANO, TX, 75093",123483959,"R"
633956,"4404 BARDSDALE DR","PALM HARBOR","FL",34685,28.1158228890001,-82.699688265,456,"4404 BARDSDALE DR, PALM HARBOR, FL, 34685","Match","Exact","4404 BARDSDALE DR, PALM HARBOR, FL, 34685",124733618,"L"
633957,"4404 BEAR RIDGE CT","GREENSBORO","NC",27406,35.9958795360001,-79.808010461,457,"4404 BEAR RIDGE CT, GREENSBORO, NC, 27406","Match","Exact","4404 BEAR RIDGE CT, GREENSBORO, NC, 27406",131087995,"R"
633958,"4404 BIRCHTREE LANE","TEMPLE HILLS","MD",20748,38.8276074730001,-76.9738826509999,458,"4404 BIRCHTREE LANE, TEMPLE HILLS, MD, 20748","Match","Exact","4404 BIRCHTREE LN, TEMPLE HILLS, MD, 20748",76341305,"R"
633959,"4404 BIRDSOND LN","PLANO","TX",75093,NA,NA,459,"4404 BIRDSOND LN, PLANO, TX, 75093","No_Match",NA,NA,NA,NA
633960,"4404 BIRDSONG LANE","PLANO","TX",75093,33.0303585390001,-96.7795407309999,460,"4404 BIRDSONG LANE, PLANO, TX, 75093","Match","Exact","4404 BIRDSONG LN, PLANO, TX, 75093",123483934,"R"
633961,"4404 BIRMINGHAM WAY","RALEIGH","NC",27604,35.81682411,-78.564056121,461,"4404 BIRMINGHAM WAY, RALEIGH, NC, 27604","Match","Exact","4404 BIRMINGHAM WAY, RALEIGH, NC, 27604",72605501,"R"
633962,"4404 BLACK LION WAY","RALEIGH","NC",27610,35.7266195600001,-78.467470159,462,"4404 BLACK LION WAY, RALEIGH, NC, 27610","Match","Exact","4404 BLACK LION WAY, RALEIGH, NC, 27610",612817529,"R"
633963,"4404 BLUFF CREEK DR","MODESTO","CA",95355,37.661716293,-120.914415417,463,"4404 BLUFF CREEK DR, MODESTO, CA, 95355","Match","Exact","4404 BLUFF CREEK DR, MODESTO, CA, 95355",102624567,"R"
633964,"4404 BOULDER DRIVE","COOPERSBURG","PA",18036,40.5585171540001,-75.445796226,464,"4404 BOULDER DRIVE, COOPERSBURG, PA, 18036","Match","Exact","4404 BOULDER DR, COOPERSBURG, PA, 18036",80796010,"R"
633965,"4404 BOWIE ST","AMARILLO","TX",79110,35.165107334,-101.857295483,465,"4404 BOWIE ST, AMARILLO, TX, 79110","Match","Exact","4404 BOWIE ST, AMARILLO, TX, 79110",182655315,"R"
633966,"4404 CHARLES DR","LORAIN","OH",44053,41.4411325500001,-82.224379189,466,"4404 CHARLES DR, LORAIN, OH, 44053","Match","Exact","4404 CHARLES DR, LORAIN, OH, 44053",631985761,"R"
633967,"4404 CHESTNUT STREET","OAKFORD","PA",19047,NA,NA,467,"4404 CHESTNUT STREET, OAKFORD, PA, 19047","No_Match",NA,NA,NA,NA
633968,"4404 CHRISELLA RD E","EDGEWOOD","WA",98372,47.217602995,-122.290075146,468,"4404 CHRISELLA RD E, EDGEWOOD, WA, 98372","Match","Exact","4404 CHRISELLA RD E, EDGEWOOD, WA, 98372",184632885,"L"
633969,"4404 CITY LIGHTS DRIVE","ALISO VIEJO","CA",92656,33.57224145,-117.726389744,469,"4404 CITY LIGHTS DRIVE, ALISO VIEJO, CA, 92656","Match","Exact","4404 CITY LIGHTS DR, ALISO VIEJO, CA, 92656",631916133,"L"
633970,"4404 COUNTRY HILLS BLVD","PLANT CITY","FL",33563,28.01527402,-82.167569207,470,"4404 COUNTRY HILLS BLVD, PLANT CITY, FL, 33563","Match","Exact","4404 COUNTRY HILLS BLVD, PLANT CITY, FL, 33563",104699914,"L"
633971,"4404 COVINGTON ST","CAMP SPRINGS","MD",20746,38.8417227670001,-76.92764113,471,"4404 COVINGTON ST, CAMP SPRINGS, MD, 20746","Match","Exact","4404 COVINGTON ST, CAMP SPRINGS, MD, 20746",76331854,"L"
633972,"4404 COVINGTON STREET","SUITLAND","MD",20746,38.8417227670001,-76.92764113,472,"4404 COVINGTON STREET, SUITLAND, MD, 20746","Match","Exact","4404 COVINGTON ST, SUITLAND, MD, 20746",76331854,"L"
633973,"4404 CROSSGATE DR","CHAMPAIGN","IL",61822,40.09102348,-88.318606995,473,"4404 CROSSGATE DR, CHAMPAIGN, IL, 61822","Match","Exact","4404 CROSSGATE DR, CHAMPAIGN, IL, 61822",8832859,"R"
633974,"4404 CRYSTAL LAKE DR","POMPANO BEACH","FL",33064,26.282940555,-80.1446386549999,474,"4404 CRYSTAL LAKE DR, POMPANO BEACH, FL, 33064","Match","Exact","4404 CRYSTAL LAKE DR, POMPANO BEACH, FL, 33064",114763315,"R"
633975,"4404 DEEP CREEK BLVD","PORTSMOUTH","VA",23702,36.8024577040001,-76.3299130519999,475,"4404 DEEP CREEK BLVD, PORTSMOUTH, VA, 23702","Match","Exact","4404 DEEP CREEK BLVD, PORTSMOUTH, VA, 23702",122196971,"R"
633976,"4404 DEVON LAKE RD","INDIANAPOLIS","IN",46226,39.8350634060001,-86.094054929,476,"4404 DEVON LAKE RD, INDIANAPOLIS, IN, 46226","Match","Exact","4404 DEVON LAKE RD, INDIANAPOLIS, IN, 46226",107996095,"L"
633977,"4404 DEWFIELD DR","WILSON","NC",27896,35.781588329,-77.927313856,477,"4404 DEWFIELD DR, WILSON, NC, 27896","Match","Non_Exact","4404 DEWFIELD DR N, WILSON, NC, 27896",26721513,"L"
633978,"4404 DURANCE DRIVE","MODESTO","CA",95356,37.702941014,-121.023220508,478,"4404 DURANCE DRIVE, MODESTO, CA, 95356","Match","Exact","4404 DURANCE DR, MODESTO, CA, 95356",102633606,"R"
633979,"4404 E CORTLAND AVENUE","FRESNO","CA",93726,36.7823138090001,-119.752080426,479,"4404 E CORTLAND AVENUE, FRESNO, CA, 93726","Match","Exact","4404 E CORTLAND AVE, FRESNO, CA, 93726",197577388,"R"
633980,"4404 E HUNTER COURT","CAVE CREEK","AZ",85331,33.7495558620001,-111.986100394,480,"4404 E HUNTER COURT, CAVE CREEK, AZ, 85331","Match","Exact","4404 E HUNTER CT, CAVE CREEK, AZ, 85331",128604924,"L"
633981,"4404 EAST OLTORF 12105","AUSTIN","TX",78741,30.227063527,-97.7268078339999,481,"4404 EAST OLTORF 12105, AUSTIN, TX, 78741","Match","Non_Exact","4404 E OLTORF ST, AUSTIN, TX, 78741",641248919,"L"
633982,"4404 ECHO CT","WOODBRIDGE","VA",22193,38.636799855,-77.342263642,482,"4404 ECHO CT, WOODBRIDGE, VA, 22193","Match","Exact","4404 ECHO CT, WOODBRIDGE, VA, 22193",76508799,"R"
633983,"4404 ENGLE RIDGE DRIVE","FORT WAYNE","IN",46804,41.045624343,-85.1982538829999,483,"4404 ENGLE RIDGE DRIVE, FORT WAYNE, IN, 46804","Match","Non_Exact","4404 ENGLE RD, FORT WAYNE, IN, 46804",646570125,"R"
633984,"4404 EXLEY CT","LOUISVILLE","KY",40211,38.2411543480001,-85.826819659,484,"4404 EXLEY CT, LOUISVILLE, KY, 40211","Match","Exact","4404 EXLEY CT, LOUISVILLE, KY, 40211",96836449,"L"
633985,"4404 GRAY WOLF WAY","GREENSBORO","NC",27406,35.995900615,-79.8125457469999,485,"4404 GRAY WOLF WAY, GREENSBORO, NC, 27406","Match","Exact","4404 GRAY WOLF WAY, GREENSBORO, NC, 27406",628849092,"L"
633986,"4404 HARRISON ST","KANSAS CITY","MO",64110,39.04694196,-94.573843325,486,"4404 HARRISON ST, KANSAS CITY, MO, 64110","Match","Exact","4404 HARRISON ST, KANSAS CITY, MO, 64110",91447908,"R"
633987,"4404 HARVARD","LAWRENCE","KS",66049,38.96610393,-95.2962473969999,487,"4404 HARVARD, LAWRENCE, KS, 66049","Match","Non_Exact","4404 HARVARD RD, LAWRENCE, KS, 66049",17691512,"L"
633988,"4404 HERITAGE DRIVE","LAWRENCE","KS",66047,38.949970003,-95.297933605,488,"4404 HERITAGE DRIVE, LAWRENCE, KS, 66047","Match","Exact","4404 HERITAGE DR, LAWRENCE, KS, 66047",17691006,"L"
633989,"4404 HINSDALE STREET","VIRGINIA BEACH","VA",23462,36.8537022560001,-76.1285547959999,489,"4404 HINSDALE STREET, VIRGINIA BEACH, VA, 23462","Match","Exact","4404 HINSDALE ST, VA BCH, VA, 23462",122265720,"R"
633990,"4404 HOWELL PLACE","NASHVILLE","TN",37205,36.099137532,-86.852085307,490,"4404 HOWELL PLACE, NASHVILLE, TN, 37205","Match","Exact","4404 HOWELL PL, NASHVILLE, TN, 37205",97180873,"R"
633991,"4404 IRONWOOD LANE","CHAMPAIGN","IL",61822,40.088235797,-88.317705319,491,"4404 IRONWOOD LANE, CHAMPAIGN, IL, 61822","Match","Exact","4404 IRONWOOD LN, CHAMPAIGN, IL, 61822",8827966,"R"
633992,"4404 J CROSS","GILLETTE","WY",82718,44.253575362,-105.513474761,492,"4404 J CROSS, GILLETTE, WY, 82718","Match","Non_Exact","4404 J CROSS AVE, GILLETTE, WY, 82718",646162476,"R"
633993,"4404 KNOLL PLACE","RACINE","WI",53403,NA,NA,493,"4404 KNOLL PLACE, RACINE, WI, 53403","No_Match",NA,NA,NA,NA
633994,"4404 LANDRUM AVE","DALLAS","TX",75216,32.7016021530001,-96.779616661,494,"4404 LANDRUM AVE, DALLAS, TX, 75216","Match","Exact","4404 LANDRUM AVE, DALLAS, TX, 75216",102952235,"L"
633995,"4404 LAWRENCEVILLE ROAD","LOGANVILLE","GA",30052,33.8405510440001,-83.895059846,495,"4404 LAWRENCEVILLE ROAD, LOGANVILLE, GA, 30052","Match","Exact","4404 LAWRENCEVILLE RD, LOGANVILLE, GA, 30052",77629996,"R"
633996,"4404 LEEDS RD","LOUISVILLE","KY",40216,38.18095276,-85.8303781609999,496,"4404 LEEDS RD, LOUISVILLE, KY, 40216","Match","Exact","4404 LEEDS RD, LOUISVILLE, KY, 40216",96896109,"R"
633997,"4404 LUBEC AVE","NORTH PORT","FL",34287,27.0649505920001,-82.201755465,497,"4404 LUBEC AVE, NORTH PORT, FL, 34287","Match","Exact","4404 LUBEC AVE, NORTH PORT, FL, 34287",16408621,"R"
633998,"4404 MAGNIFICA PLACE","SACRAMENTO","CA",95827,38.540419662,-121.343402551,498,"4404 MAGNIFICA PLACE, SACRAMENTO, CA, 95827","Match","Exact","4404 MAGNIFICA PL, SACRAMENTO, CA, 95827",614156975,"L"
633999,"4404 MAJOR LORING WAY","RALEIGH","NC",27616,35.8360880930001,-78.5606970159999,499,"4404 MAJOR LORING WAY, RALEIGH, NC, 27616","Match","Exact","4404 MAJOR LORING WAY, RALEIGH, NC, 27616",72617150,"R"
634000,"4404 MCGIRTS BLVD","JACKSONVILLE","FL",32210,30.2728458500001,-81.712855582,500,"4404 MCGIRTS BLVD, JACKSONVILLE, FL, 32210","Match","Exact","4404 MCGIRTS BLVD, JACKSONVILLE, FL, 32210",83913741,"R"
