"ID","Address","City","State","Zip","lat","long","id","input_address","match_indicator","match_type","matched_address","tiger_line_id","tiger_side"
446001,"2800 NW 56TH AVE APT E303","LAUDERHILL","FL",33313,26.162567703,-80.2270313,1,"2800 NW 56TH AVE APT E303, LAUDERHILL, FL, 33313","Match","Non_Exact","2800 NW 56TH AVE, LAUDERHILL, FL, 33313",650023940,"R"
446002,"2800 NW 9 COURT","POMPANO BEACH","FL",33069,26.2403598430001,-80.1604813129999,2,"2800 NW 9 COURT, POMPANO BEACH, FL, 33069","Match","Exact","2800 NW 9TH CT, POMPANO BEACH, FL, 33069",114751345,"L"
446003,"2800 NW CIRCLE A DRIVE","PORTLAND","OR",97229,45.5397461640001,-122.817413368,3,"2800 NW CIRCLE A DRIVE, PORTLAND, OR, 97229","Match","Exact","2800 NW CIRCLE A DR, PORTLAND, OR, 97229",158184433,"L"
446004,"2800 NW NUTALL COURT","LEES SUMMIT","MO",64081,38.920265682,-94.437888909,4,"2800 NW NUTALL COURT, LEES SUMMIT, MO, 64081","Match","Exact","2800 NW NUTALL CT, LEES SUMMIT, MO, 64081",646747309,"L"
446005,"2800 OAKLAND PARK BLVD 204E","OAKLAND PARK BLVD","FL",33311,NA,NA,5,"2800 OAKLAND PARK BLVD 204E, OAKLAND PARK BLVD, FL, 33311","No_Match",NA,NA,NA,NA
446006,"2800 OCEAN DRIVE","VERO BEACH","FL",32963,27.647875094,-80.3549376299999,6,"2800 OCEAN DRIVE, VERO BEACH, FL, 32963","Match","Exact","2800 OCEAN DR, VERO BEACH, FL, 32963",120308247,"R"
446007,"2800 OLD BUENA VISTA","NASHVILLE","TN",37218,NA,NA,7,"2800 OLD BUENA VISTA, NASHVILLE, TN, 37218","Tie",NA,NA,NA,NA
446008,"2800 OLD MATTHEWS ROAD","NASHVILLE","TN",37207,36.2168888040001,-86.7943847079999,8,"2800 OLD MATTHEWS ROAD, NASHVILLE, TN, 37207","Match","Exact","2800 OLD MATTHEWS RD, NASHVILLE, TN, 37207",649577790,"L"
446009,"2800 OLYMPIC BOULEVARD / 2ND FLOOR","SANTA MONICA","CA",90404,34.028886093,-118.46684383,9,"2800 OLYMPIC BOULEVARD / 2ND FLOOR, SANTA MONICA, CA, 90404","Match","Exact","2800 OLYMPIC BLVD, SANTA MONICA, CA, 90404",142665348,"R"
446010,"2800 PARIS RD","OLYMPIA FIELDS","IL",60461,41.5102641170001,-87.6835353719999,10,"2800 PARIS RD, OLYMPIA FIELDS, IL, 60461","Match","Exact","2800 PARIS RD, OLYMPIA FIELDS, IL, 60461",111710445,"L"
446011,"2800 PARK BLVD","OAKLAND","CA",94610,NA,NA,11,"2800 PARK BLVD, OAKLAND, CA, 94610","No_Match",NA,NA,NA,NA
446012,"2800 PIEDMONT DRIVE","HELENA","AL",35022,33.299391744,-86.929986556,12,"2800 PIEDMONT DRIVE, HELENA, AL, 35022","Match","Exact","2800 PIEDMONT DR, HELENA, AL, 35022",653337783,"L"
446013,"2800 PLAZA DEL AMO - 159","TORRANCE","CA",90503,33.826947046,-118.335911027,13,"2800 PLAZA DEL AMO - 159, TORRANCE, CA, 90503","Match","Non_Exact","2800 PLZ DEL AMO, TORRANCE, CA, 90503",142854388,"R"
446014,"2800 PLAZA DEL UNIT 314","TORRANCE","CA",90503,NA,NA,14,"2800 PLAZA DEL UNIT 314, TORRANCE, CA, 90503","No_Match",NA,NA,NA,NA
446015,"2800 POPLAR CIRCLE","HUNTSVILLE","AL",35816,NA,NA,15,"2800 POPLAR CIRCLE, HUNTSVILLE, AL, 35816","No_Match",NA,NA,NA,NA
446016,"2800 PORTRUSH DRIVE APT 11","SPARTANBURG","SC",29301,34.9168039480001,-81.994297957,16,"2800 PORTRUSH DRIVE APT 11, SPARTANBURG, SC, 29301","Match","Exact","2800 PORTRUSH DR, SPARTANBURG, SC, 29301",636578766,"L"
446017,"2800 POST OAK BLVD FL 57","HOUSTON","TX",77056,29.7377737090001,-95.460668402,17,"2800 POST OAK BLVD FL 57, HOUSTON, TX, 77056","Match","Exact","2800 POST OAK BLVD, HOUSTON, TX, 77056",96620674,"R"
446018,"2800 POST OAK BLVD SUITE 3200","HOUSTON","TX",77056,29.7377737090001,-95.460668402,18,"2800 POST OAK BLVD SUITE 3200, HOUSTON, TX, 77056","Match","Exact","2800 POST OAK BLVD, HOUSTON, TX, 77056",96620674,"R"
446019,"2800 POST OAK BLVD SUITE 4100","HOUSTON","TX",77056,29.7377737090001,-95.460668402,19,"2800 POST OAK BLVD SUITE 4100, HOUSTON, TX, 77056","Match","Exact","2800 POST OAK BLVD, HOUSTON, TX, 77056",96620674,"R"
446020,"2800 PRINCE ALBERT CT","FALLS CHURCH","VA",22042,38.8768483760001,-77.1750823789999,20,"2800 PRINCE ALBERT CT, FALLS CHURCH, VA, 22042","Match","Exact","2800 PRINCE ALBERT CT, FALLS CHURCH, VA, 22042",75979488,"L"
446021,"2800 PRINCESS ANNE STR","HOPEWELL","VA",23860,37.3061842990001,-77.311142069,21,"2800 PRINCESS ANNE STR, HOPEWELL, VA, 23860","Match","Exact","2800 PRINCESS ANNE ST, HOPEWELL, VA, 23860",642136304,"R"
446022,"2800 QUEBEC ST NW APT 1025","WASHINGTON","DC",20008,38.9369727690001,-77.0565594449999,22,"2800 QUEBEC ST NW APT 1025, WASHINGTON, DC, 20008","Match","Exact","2800 QUEBEC ST NW, WASHINGTON, DC, 20008",648823700,"L"
446023,"2800 QUEBEC STREET NW APT 209","WASHINGTON","DC",20008,38.9369727690001,-77.0565594449999,23,"2800 QUEBEC STREET NW APT 209, WASHINGTON, DC, 20008","Match","Exact","2800 QUEBEC ST NW, WASHINGTON, DC, 20008",648823700,"L"
446024,"2800 QUEBEC STREET NW APT 622","WASHINGTON","DC",20008,38.9369727690001,-77.0565594449999,24,"2800 QUEBEC STREET NW APT 622, WASHINGTON, DC, 20008","Match","Exact","2800 QUEBEC ST NW, WASHINGTON, DC, 20008",648823700,"L"
446025,"2800 QUEBEC STREET NW","WASHINGTON","DC",20008,38.9369727690001,-77.0565594449999,25,"2800 QUEBEC STREET NW, WASHINGTON, DC, 20008","Match","Exact","2800 QUEBEC ST NW, WASHINGTON, DC, 20008",648823700,"L"
446026,"2800 RIDGE ROAD","WINDSOR MILL","MD",21244,NA,NA,26,"2800 RIDGE ROAD, WINDSOR MILL, MD, 21244","No_Match",NA,NA,NA,NA
446027,"2800 RIDGETOP CT","WINCHESTER","VA",22601,39.1540118660001,-78.195122902,27,"2800 RIDGETOP CT, WINCHESTER, VA, 22601","Match","Exact","2800 RIDGETOP CT, WINCHESTER, VA, 22601",641167943,"L"
446028,"2800 RIVERVIEW ROAD APT 224","BIRMINGHAM","AL",35242,33.427693537,-86.715179113,28,"2800 RIVERVIEW ROAD APT 224, BIRMINGHAM, AL, 35242","Match","Exact","2800 RIVERVIEW RD, BIRMINGHAM, AL, 35242",623721355,"L"
446029,"2800 RIVERWALK PLACE","EAST WENATCHEE","WA",98802,47.451907605,-120.309513762,29,"2800 RIVERWALK PLACE, EAST WENATCHEE, WA, 98802","Match","Exact","2800 RIVERWALK PL, EAST WENATCHEE, WA, 98802",642572474,"R"
446030,"2800 ROAD 136","DELANO","CA",93215,35.835002753,-119.268165458,30,"2800 ROAD 136, DELANO, CA, 93215","Match","Exact","2800 RD 136, DELANO, CA, 93215",202751561,"R"
446031,"2800 ROAD E","REDWOOD VALLEY","CA",95470,39.2736308130001,-123.189404387,31,"2800 ROAD E, REDWOOD VALLEY, CA, 95470","Match","Exact","2800 ROAD E, REDWOOD VALLEY, CA, 95470",67263938,"L"
446032,"2800 ROCKY CREEK","MANSFIELD","TX",76063,32.60421159,-97.128527745,32,"2800 ROCKY CREEK, MANSFIELD, TX, 76063","Match","Non_Exact","2800 ROCKY CREEK DR, MANSFIELD, TX, 76063",101957154,"R"
446033,"2800 RULEME ST APT D48","EUSTIS","FL",32726,28.826136692,-81.689619009,33,"2800 RULEME ST APT D48, EUSTIS, FL, 32726","Match","Exact","2800 RULEME ST, EUSTIS, FL, 32726",640907901,"L"
446034,"2800 RUNNING RIVER LN","DALLAS","TX",77880,30.226705673,-96.137844832,34,"2800 RUNNING RIVER LN, DALLAS, TX, 77880","Match","Non_Exact","2800 RUNNING RIVER LN, WASHINGTON, TX, 77880",229158071,"L"
446035,"2800 RUSTIC PLACE APT 313","LITTLE CANADA","MN",55117,45.0255578680001,-93.103613238,35,"2800 RUSTIC PLACE APT 313, LITTLE CANADA, MN, 55117","Match","Non_Exact","2800 N RUSTIC PL, LITTLE CANADA, MN, 55117",637213704,"L"
446036,"2800 S DECATUR BLVD UNIT 15","LAS VEGAS","NV",89102,36.139041822,-115.208089861,36,"2800 S DECATUR BLVD UNIT 15, LAS VEGAS, NV, 89102","Match","Non_Exact","2800 S DECATUR BLVD, LAS VEGAS, NV, 89102",201862987,"L"
446037,"2800 S GRANT STREET","ENGLEWOOD","CO",80013,39.6657412430001,-104.984044504,37,"2800 S GRANT STREET, ENGLEWOOD, CO, 80013","Match","Non_Exact","2800 S GRANT ST, ENGLEWOOD, CO, 80113",177333838,"L"
446038,"2800 S LAKELINE BLVD APT 112","CEDAR PARK","TX",78613,30.4754023290001,-97.8104900549999,38,"2800 S LAKELINE BLVD APT 112, CEDAR PARK, TX, 78613","Match","Non_Exact","2800 S LAKELINE BLVD, CEDAR PARK, TX, 78613",641005963,"R"
446039,"2800 S LAKELINE BLVD APT 828","CEDAR","TX",78613,NA,NA,39,"2800 S LAKELINE BLVD APT 828, CEDAR, TX, 78613","No_Match",NA,NA,NA,NA
446040,"2800 S LILAC ST","SEATTLE","WA",98108,NA,NA,40,"2800 S LILAC ST, SEATTLE, WA, 98108","No_Match",NA,NA,NA,NA
446041,"2800 S LONE TREE ROAD","FLAGSTAFF","AZ",86005,35.1706065720001,-111.648207743,41,"2800 S LONE TREE ROAD, FLAGSTAFF, AZ, 86005","Match","Exact","2800 S LONE TREE RD, FLAGSTAFF, AZ, 86005",188997949,"R"
446042,"2800 S MAIN ST","FINDLAY","OH",45840,41.0028479700001,-83.650470583,42,"2800 S MAIN ST, FINDLAY, OH, 45840","Match","Exact","2800 S MAIN ST, FINDLAY, OH, 45840",36477635,"L"
446043,"2800 S NELSON ST","AMARILLO","TX",79103,35.1844515710001,-101.80549835,43,"2800 S NELSON ST, AMARILLO, TX, 79103","Match","Exact","2800 S NELSON ST, AMARILLO, TX, 79103",182482765,"R"
446044,"2800 S OCEAN BLVD 6G","BOCA RATON","FL",33432,26.324398509,-80.075489659,44,"2800 S OCEAN BLVD 6G, BOCA RATON, FL, 33432","Match","Non_Exact","2800 S OCEAN BLVD, BOCA RATON, FL, 33432",611291939,"L"
446045,"2800 S SYRACUSE WAY APT 4-302","DENVER","CO",80231,39.6687603080001,-104.895354897,45,"2800 S SYRACUSE WAY APT 4-302, DENVER, CO, 80231","Match","Non_Exact","2800 S SYRACUSE WAY, DENVER, CO, 80231",611724086,"L"
446046,"2800 S UNIVERSITY BLVD","DENVER","CO",80210,39.6658577630001,-104.959392455,46,"2800 S UNIVERSITY BLVD, DENVER, CO, 80210","Match","Exact","2800 S UNIVERSITY BLVD, DENVER, CO, 80210",177340668,"L"
446047,"2800 S UNIVERSITY","FT WORTH","TX",76129,32.711629784,-97.360439545,47,"2800 S UNIVERSITY, FT WORTH, TX, 76129","Match","Non_Exact","2800 S UNIVERSITY DR, FORT WORTH, TX, 76129",101886279,"R"
446048,"2800 SAINT PAUL DRIVE APT 139","SANTA ROSA","CA",95405,38.4265955010001,-122.664218509,48,"2800 SAINT PAUL DRIVE APT 139, SANTA ROSA, CA, 95405","Match","Exact","2800 ST PAUL DR, SANTA ROSA, CA, 95405",67474862,"L"
446049,"2800 SALEM AVENUE","DAYTON","OH",45406,39.7879820690001,-84.236278496,49,"2800 SALEM AVENUE, DAYTON, OH, 45406","Match","Exact","2800 SALEM AVE, DAYTON, OH, 45406",143565839,"L"
446050,"2800 SCOTT ST APT C","LITTLE ROCK","AR",72206,34.72168945,-92.273144026,50,"2800 SCOTT ST APT C, LITTLE ROCK, AR, 72206","Match","Exact","2800 SCOTT ST, LITTLE ROCK, AR, 72206",645493115,"R"
446051,"2800 SEINE STREET","NEW ORLEANS","LA",70114,29.925964978,-90.030568187,51,"2800 SEINE STREET, NEW ORLEANS, LA, 70114","Match","Exact","2800 SEINE ST, NEW ORLEANS, LA, 70114",191719982,"L"
446052,"2800 SELKIRK DR APT B 203","BURNESVILLE","MN",55337,44.790931619,-93.2359999879999,52,"2800 SELKIRK DR APT B 203, BURNESVILLE, MN, 55337","Match","Non_Exact","2800 SELKIRK DR, BURNSVILLE, MN, 55337",37905292,"L"
446053,"2800 SENIC DR APT 4","BLUE RIDGE","GA",30513,NA,NA,53,"2800 SENIC DR APT 4, BLUE RIDGE, GA, 30513","No_Match",NA,NA,NA,NA
446054,"2800 SHADOW CREEK LANE","DES MOINES","IA",50320,41.5603983990001,-93.574367942,54,"2800 SHADOW CREEK LANE, DES MOINES, IA, 50320","Match","Exact","2800 SHADOW CREEK LN, DES MOINES, IA, 50320",636230067,"R"
446055,"2800 SHADOW CREEK LN","DES MOINES","IA",50320,41.5603983990001,-93.574367942,55,"2800 SHADOW CREEK LN, DES MOINES, IA, 50320","Match","Exact","2800 SHADOW CREEK LN, DES MOINES, IA, 50320",636230067,"R"
446056,"2800 SHADY OAKS DR","GRANDVILLE","MI",49418,42.893422937,-85.734577284,56,"2800 SHADY OAKS DR, GRANDVILLE, MI, 49418","Match","Non_Exact","2800 SHADY OAKS DR SW, GRANDVILLE, MI, 49418",615664344,"R"
446057,"2800 SOMERSET DR 303","FORT LAUDERDALE","FL",33311,26.1617260630001,-80.189433439,57,"2800 SOMERSET DR 303, FORT LAUDERDALE, FL, 33311","Match","Exact","2800 SOMERSET DR, FORT LAUDERDALE, FL, 33311",114820350,"R"
446058,"2800 SOMERSET DRIVE J207","FORT LAUDERDALE","FL",33311,26.1617260630001,-80.189433439,58,"2800 SOMERSET DRIVE J207, FORT LAUDERDALE, FL, 33311","Match","Exact","2800 SOMERSET DR, FORT LAUDERDALE, FL, 33311",114820350,"R"
446059,"2800 SOMERSET DRIVE","LAUDERDALE LAKES","FL",33311,26.1617260630001,-80.189433439,59,"2800 SOMERSET DRIVE, LAUDERDALE LAKES, FL, 33311","Match","Exact","2800 SOMERSET DR, LAUDERDALE LAKES, FL, 33311",114820350,"R"
446060,"2800 SOUTH 4TH STREET APT 2","LOUISVILLE","KY",40208,38.2089182290001,-85.76490845,60,"2800 SOUTH 4TH STREET APT 2, LOUISVILLE, KY, 40208","Match","Exact","2800 S 4TH ST, LOUISVILLE, KY, 40208",96844498,"R"
446061,"2800 SOUTH 87TH DR","FORT SMITH","AR",72903,35.3550888130001,-94.3366368549999,61,"2800 SOUTH 87TH DR, FORT SMITH, AR, 72903","Match","Exact","2800 S 87TH DR, FORT SMITH, AR, 72903",618315352,"R"
446062,"2800 SOUTH RIDGE ROAD","ASHTABULA","OH",44004,NA,NA,62,"2800 SOUTH RIDGE ROAD, ASHTABULA, OH, 44004","Tie",NA,NA,NA,NA
446063,"2800 SOUTH SYRACUSE APT 12-304","DENVER","CO",80231,39.6687603080001,-104.895354897,63,"2800 SOUTH SYRACUSE APT 12-304, DENVER, CO, 80231","Match","Non_Exact","2800 S SYRACUSE WAY, DENVER, CO, 80231",611724086,"L"
446064,"2800 SOUTH UNIVERSITY DRIVE","FORT WORTH","TX",76129,32.711629784,-97.360439545,64,"2800 SOUTH UNIVERSITY DRIVE, FORT WORTH, TX, 76129","Match","Exact","2800 S UNIVERSITY DR, FORT WORTH, TX, 76129",101886279,"R"
446065,"2800 STEAMSHIP CR 3C","NEW ORLEANS","LA",70123,29.968160074,-90.206170462,65,"2800 STEAMSHIP CR 3C, NEW ORLEANS, LA, 70123","Match","Exact","2800 STEAMSHIP CIR, NEW ORLEANS, LA, 70123",635863502,"R"
446066,"2800 SUMMER SWAN DR","ORLANDO","FL",32825,28.5137971830001,-81.211493895,66,"2800 SUMMER SWAN DR, ORLANDO, FL, 32825","Match","Exact","2800 SUMMER SWAN DR, ORLANDO, FL, 32825",94407808,"R"
446067,"2800 SUNRISE LAKES DR WEST APT 211","SUNRISE","FL",33322,26.159804503,-80.256426104,67,"2800 SUNRISE LAKES DR WEST APT 211, SUNRISE, FL, 33322","Match","Exact","2800 SUNRISE LAKES DR W, SUNRISE, FL, 33322",650125365,"R"
446068,"2800 SUNRISE RD APT 423","ROUND ROCK","TX",78665,30.5421770790001,-97.672618009,68,"2800 SUNRISE RD APT 423, ROUND ROCK, TX, 78665","Match","Exact","2800 SUNRISE RD, ROUND ROCK, TX, 78665",126451378,"L"
446069,"2800 SW 106 AVENUE","MIAMI","FL",33165,25.7430462680001,-80.3669097969999,69,"2800 SW 106 AVENUE, MIAMI, FL, 33165","Match","Exact","2800 SW 106TH AVE, MIAMI, FL, 33165",115971641,"R"
446070,"2800 SW 300TH PL","FEDERAL WAY","WA",98023,47.3335181140001,-122.37025766,70,"2800 SW 300TH PL, FEDERAL WAY, WA, 98023","Match","Exact","2800 SW 300TH PL, FEDERAL WAY, WA, 98023",186647738,"R"
446071,"2800 SW 35TH PLACE APT 2712","GAINESVILLE","FL",32608,NA,NA,71,"2800 SW 35TH PLACE APT 2712, GAINESVILLE, FL, 32608","Tie",NA,NA,NA,NA
446072,"2800 SW 38 CT","MIAMI","FL",33134,25.7385195430001,-80.257197901,72,"2800 SW 38 CT, MIAMI, FL, 33134","Match","Exact","2800 SW 38TH CT, MIAMI, FL, 33134",116013290,"R"
446073,"2800 SW GAINSBORO CIRCLE","TOPEKA","KS",66614,39.016730463,-95.7768054809999,73,"2800 SW GAINSBORO CIRCLE, TOPEKA, KS, 66614","Match","Exact","2800 SW GAINSBORO CIR, TOPEKA, KS, 66614",17901843,"L"
446074,"2800 SW PEACEFUL LANE","PORTLAND","OR",97239,45.4831944520001,-122.707216216,74,"2800 SW PEACEFUL LANE, PORTLAND, OR, 97239","Match","Exact","2800 SW PEACEFUL LN, PORTLAND, OR, 97239",638569806,"R"
446075,"2800 SW WILLISTON RD APT 1023","GAINESVILLE","FL",32608,29.6089033490001,-82.363943494,75,"2800 SW WILLISTON RD APT 1023, GAINESVILLE, FL, 32608","Match","Non_Exact","2800 SW WILLISTON RD, GAINESVILLE, FL, 32608",612571927,"R"
446076,"2800 SWAN ROAD","DANSVILLE","MI",48819,42.5202715880001,-84.246148492,76,"2800 SWAN ROAD, DANSVILLE, MI, 48819","Match","Exact","2800 SWAN RD, DANSVILLE, MI, 48819",17510452,"R"
446077,"2800 TEALWOOD DRIVE","OKLAHOMA CITY","OK",73111,35.601611232,-97.564512797,77,"2800 TEALWOOD DRIVE, OKLAHOMA CITY, OK, 73111","Match","Non_Exact","2800 TEALWOOD DR, OKLAHOMA CITY, OK, 73120",100392474,"L"
446078,"2800 THALEN STREET","RICHMOND","VA",23223,37.56855332,-77.3912861109999,78,"2800 THALEN STREET, RICHMOND, VA, 23223","Match","Exact","2800 THALEN ST, RICHMOND, VA, 23223",106649846,"L"
446079,"2800 TORBETT STREET","NASHVILLE","TN",37209,36.157979922,-86.8187405739999,79,"2800 TORBETT STREET, NASHVILLE, TN, 37209","Match","Exact","2800 TORBETT ST, NASHVILLE, TN, 37209",616280935,"R"
446080,"2800 TOWNSHIP ROAD 1195","TIFFIN","OH",44883,NA,NA,80,"2800 TOWNSHIP ROAD 1195, TIFFIN, OH, 44883","No_Match",NA,NA,NA,NA
446081,"2800 TRANQUILITY DR APT 5112","PEARLAND","TX",77584,29.55607653,-95.2892878869999,81,"2800 TRANQUILITY DR APT 5112, PEARLAND, TX, 77584","Match","Non_Exact","2800 TRANQUILITY TRL, PEARLAND, TX, 77584",616467122,"R"
446082,"2800 TRANQUILITY LAKES BLVD","PEARLAND","TX",77584,NA,NA,82,"2800 TRANQUILITY LAKES BLVD, PEARLAND, TX, 77584","No_Match",NA,NA,NA,NA
446083,"2800 TREBLE LANE UNIT 823","AUSTIN","TX",78704,30.2382133520001,-97.767379964,83,"2800 TREBLE LANE UNIT 823, AUSTIN, TX, 78704","Match","Exact","2800 TREBLE LN, AUSTIN, TX, 78704",641760010,"R"
446084,"2800 TROTWOOD AVE","COLUMBIA","TN",38401,35.5971474620001,-87.084316321,84,"2800 TROTWOOD AVE, COLUMBIA, TN, 38401","Match","Exact","2800 TROTWOOD AVE, COLUMBIA, TN, 38401",26884159,"L"
446085,"2800 UNIVERSITY BLVD N","JACKSONVILLE","FL",32211,30.349349654,-81.602676779,85,"2800 UNIVERSITY BLVD N, JACKSONVILLE, FL, 32211","Match","Exact","2800 UNIVERSITY BLVD N, JACKSONVILLE, FL, 32211",83902629,"L"
446086,"2800 UNIVERSITY BOULEVARD STE 231","JACKSONVILLE","FL",32216,NA,NA,86,"2800 UNIVERSITY BOULEVARD STE 231, JACKSONVILLE, FL, 32216","No_Match",NA,NA,NA,NA
446087,"2800 UNIVERSITY CIRCLE","ENDWELL","NY",13760,42.118461817,-76.0297572699999,87,"2800 UNIVERSITY CIRCLE, ENDWELL, NY, 13760","Match","Exact","2800 UNIVERSITY CIR, ENDWELL, NY, 13760",46338349,"R"
446088,"2800 UNIVERSTIY AVE STE 252","WEST DES MOINES","IA",50266,41.6003779320001,-93.7425787939999,88,"2800 UNIVERSTIY AVE STE 252, WEST DES MOINES, IA, 50266","Match","Non_Exact","2800 UNIVERSITY AVE, WEST DES MOINES, IA, 50266",65838745,"L"
446089,"2800 US HWY 17/92 W LOT 77","HAINES CITY","FL",33844,NA,NA,89,"2800 US HWY 17/92 W LOT 77, HAINES CITY, FL, 33844","No_Match",NA,NA,NA,NA
446090,"2800 US HWY 280","SAN ANTONIO","TX",78212,NA,NA,90,"2800 US HWY 280, SAN ANTONIO, TX, 78212","No_Match",NA,NA,NA,NA
446091,"2800 US HWY 281 N","SAN ANTONIO","TX",78212,NA,NA,91,"2800 US HWY 281 N, SAN ANTONIO, TX, 78212","No_Match",NA,NA,NA,NA
446092,"2800 VAIL AVE","REDONDO BEACH","CA",90278,33.880163892,-118.36994493,92,"2800 VAIL AVE, REDONDO BEACH, CA, 90278","Match","Exact","2800 VAIL AVE, REDONDO BEACH, CA, 90278",141662806,"R"
446093,"2800 VIA ROSSO UNIT 112","SPRINGFIELD","IL",62703,NA,NA,93,"2800 VIA ROSSO UNIT 112, SPRINGFIELD, IL, 62703","No_Match",NA,NA,NA,NA
446094,"2800 VICTOR STREET 1ST FLOOR","ST LOUIS","MO",63104,38.6073017100001,-90.2276003429999,94,"2800 VICTOR STREET 1ST FLOOR, ST LOUIS, MO, 63104","Match","Exact","2800 VICTOR ST, SAINT LOUIS, MO, 63104",107598478,"L"
446095,"2800 VICTORS STREET","ST LOUIS","MO",63104,NA,NA,95,"2800 VICTORS STREET, ST LOUIS, MO, 63104","No_Match",NA,NA,NA,NA
446096,"2800 Victory Lane","Brenham","TX",77833,30.1456287720001,-96.364540262,96,"2800 Victory Lane, Brenham, TX, 77833","Match","Exact","2800 VICTORY LN, BRENHAM, TX, 77833",642252557,"L"
446097,"2800 VICTORY LANE","Brenham","TX",77833,30.1456287720001,-96.364540262,97,"2800 VICTORY LANE, Brenham, TX, 77833","Match","Exact","2800 VICTORY LN, BRENHAM, TX, 77833",642252557,"L"
446098,"2800 VICTORY LANE","BRENHAM","TX",77833,30.1456287720001,-96.364540262,98,"2800 VICTORY LANE, BRENHAM, TX, 77833","Match","Exact","2800 VICTORY LN, BRENHAM, TX, 77833",642252557,"L"
446099,"2800 W 24TH ST APT 113","PLAINVIEW","TX",79072,34.2047419300001,-101.737394374,99,"2800 W 24TH ST APT 113, PLAINVIEW, TX, 79072","Match","Non_Exact","2800 W 24TH ST, PLAINVIEW, TX, 79072",615917778,"L"
446100,"2800 W 9TH AVENUE","PINE BLUFF","AR",71603,34.2206523340001,-92.031444573,100,"2800 W 9TH AVENUE, PINE BLUFF, AR, 71603","Match","Exact","2800 W 9TH AVE, PINE BLUFF, AR, 71603",2549760,"L"
446101,"2800 W BAKER ROAD APT 1316","BAYTOWN","TX",77521,29.7697542500001,-94.989184199,101,"2800 W BAKER ROAD APT 1316, BAYTOWN, TX, 77521","Match","Non_Exact","2800 W BAKER RD, BAYTOWN, TX, 77521",96627064,"L"
446102,"2800 W BROADWAY","Muskogee","OK",74401,35.7560472120001,-95.3983975949999,102,"2800 W BROADWAY, Muskogee, OK, 74401","Match","Non_Exact","2800 W BROADWAY AVE, MUSKOGEE, OK, 74401",91926747,"R"
446103,"2800 W GORE BLVD","LAWTON","OK",73505,34.608857196,-98.43461575,103,"2800 W GORE BLVD, LAWTON, OK, 73505","Match","Exact","2800 W GORE BLVD, LAWTON, OK, 73505",15013904,"L"
446104,"2800 W LEHMAN AVENUE","WEST VALLEY CITY","UT",84119,40.694433739,-111.961407178,104,"2800 W LEHMAN AVENUE, WEST VALLEY CITY, UT, 84119","Match","Exact","2800 LEHMAN AVE, WEST VALLEY CITY, UT, 84119",650214359,"R"
446105,"2800 W NORTH AVE UNIT 403","CHICAGO","IL",60647,NA,NA,105,"2800 W NORTH AVE UNIT 403, CHICAGO, IL, 60647","No_Match",NA,NA,NA,NA
446106,"2800 W RUMBLE ROAD F5","MODESTO","CA",95350,37.682197753,-121.04551372,106,"2800 W RUMBLE ROAD F5, MODESTO, CA, 95350","Match","Non_Exact","2800 W RUMBLE RD, MODESTO, CA, 95350",102609365,"L"
446107,"2800 W STUTSMANVILLE ROAD","HARBOR SPRINGS","MI",49740,45.50766349,-84.9713345759999,107,"2800 W STUTSMANVILLE ROAD, HARBOR SPRINGS, MI, 49740","Match","Exact","2800 W STUTSMANVILLE RD, HARBOR SPRINGS, MI, 49740",133992994,"L"
446108,"2800 W THOMPSON ST","PHILADELPHIA","PA",19121,39.9761037660001,-75.181516925,108,"2800 W THOMPSON ST, PHILADELPHIA, PA, 19121","Match","Exact","2800 W THOMPSON ST, PHILADELPHIA, PA, 19121",131404941,"L"
446109,"2800 WADSWORTH DRIVE","SPRINGFIELD","IL",62711,NA,NA,109,"2800 WADSWORTH DRIVE, SPRINGFIELD, IL, 62711","No_Match",NA,NA,NA,NA
446110,"2800 WALKER ROAD","HILLIARD","OH",43026,40.0050042840001,-83.203361359,110,"2800 WALKER ROAD, HILLIARD, OH, 43026","Match","Exact","2800 WALKER RD, HILLIARD, OH, 43026",622279030,"L"
446111,"2800 WATERVIEW PARKWAY","RICHARDSON","TX",75080,32.9885416130001,-96.756236993,111,"2800 WATERVIEW PARKWAY, RICHARDSON, TX, 75080","Match","Exact","2800 WATERVIEW PKWY, RICHARDSON, TX, 75080",642472330,"L"
446112,"2800 WEST 106TH STREET","BLOOMINGTON","MN",55431,44.8119338220001,-93.315566513,112,"2800 WEST 106TH STREET, BLOOMINGTON, MN, 55431","Match","Exact","2800 W 106TH ST, BLOOMINGTON, MN, 55431",43595419,"R"
446113,"2800 WEST 135TH AVENUE","BROOMFIELD","CO",80020,39.9424205560001,-105.020514867,113,"2800 WEST 135TH AVENUE, BROOMFIELD, CO, 80020","Match","Exact","2800 W 135TH AVE, BROOMFIELD, CO, 80020",645118247,"L"
446114,"2800 WEST 44TH STREET","MINNEAPOLIS","MN",55410,44.9233285990001,-93.315192698,114,"2800 WEST 44TH STREET, MINNEAPOLIS, MN, 55410","Match","Exact","2800 W 44TH ST, MINNEAPOLIS, MN, 55410",43628198,"R"
446115,"2800 WEST 9TH","PINE BLUFF","AR",71603,34.2206523340001,-92.031444573,115,"2800 WEST 9TH, PINE BLUFF, AR, 71603","Match","Non_Exact","2800 W 9TH AVE, PINE BLUFF, AR, 71603",2549760,"L"
446116,"2800 WEST LAKE ELOISE DRIVE","WINTER HAVEN","FL",33884,27.9945815890001,-81.710517228,116,"2800 WEST LAKE ELOISE DRIVE, WINTER HAVEN, FL, 33884","Match","Exact","2800 W LAKE ELOISE DR, WINTER HAVEN, FL, 33884",104912373,"R"
446117,"2800 WEST MARCH LN STE 324","STOCKTON","CA",95219,37.9844139410001,-121.345841335,117,"2800 WEST MARCH LN STE 324, STOCKTON, CA, 95219","Match","Exact","2800 W MARCH LN, STOCKTON, CA, 95219",133846902,"L"
446118,"2800 WEST OAKLAND PARK BLVD","OAKLAND PARK","FL",33311,26.1653053960001,-80.181210493,118,"2800 WEST OAKLAND PARK BLVD, OAKLAND PARK, FL, 33311","Match","Exact","2800 W OAKLAND PARK BLVD, OAKLAND PARK, FL, 33311",637124576,"R"
446119,"2800 WEST OAKLAND PARK BLVD","OAKLAND PARK","FL",33312,26.1653053960001,-80.181210493,119,"2800 WEST OAKLAND PARK BLVD, OAKLAND PARK, FL, 33312","Match","Non_Exact","2800 W OAKLAND PARK BLVD, OAKLAND PARK, FL, 33311",637124576,"R"
446120,"2800 WHITE OAK DRIVE","DECATUR","GA",30032,33.7428904180001,-84.275571349,120,"2800 WHITE OAK DRIVE, DECATUR, GA, 30032","Match","Exact","2800 WHITE OAK DR, DECATUR, GA, 30032",23367763,"L"
446121,"2800 WILHELM ROAD","CHANDLERSVILLE","OH",43727,39.9056872530001,-81.889288896,121,"2800 WILHELM ROAD, CHANDLERSVILLE, OH, 43727","Match","Exact","2800 WILHELM RD, CHANDLERSVILLE, OH, 43727",606100808,"R"
446122,"2800 WOODHALL WAY","ANTIOCH","CA",94509,37.995272701,-121.82214915,122,"2800 WOODHALL WAY, ANTIOCH, CA, 94509","Match","Exact","2800 WOODHALL WAY, ANTIOCH, CA, 94509",192067629,"R"
446123,"2800 WOODRIDGE LN SW","BEMIDJI","MN",56601,47.4347370670001,-94.890061492,123,"2800 WOODRIDGE LN SW, BEMIDJI, MN, 56601","Match","Non_Exact","2800 WOODRIDGE CT SW, BEMIDJI, MN, 56601",176420305,"L"
446124,"2800 WOODS BLVD APT 801","LINCOLN","NE",68502,40.7721956250001,-96.681713628,124,"2800 WOODS BLVD APT 801, LINCOLN, NE, 68502","Match","Exact","2800 WOODS BLVD, LINCOLN, NE, 68502",28256169,"L"
446125,"28000 46TH AVE S","AUBURN","WA",98001,47.3495734190001,-122.275970859,125,"28000 46TH AVE S, AUBURN, WA, 98001","Match","Exact","28000 46TH AVE S, AUBURN, WA, 98001",186712601,"L"
446126,"28000 46TH AVE SOUTH","AUBURN","WA",98001,47.3495734190001,-122.275970859,126,"28000 46TH AVE SOUTH, AUBURN, WA, 98001","Match","Exact","28000 46TH AVE S, AUBURN, WA, 98001",186712601,"L"
446127,"28000 ELWELL","BELLEVILLE","MI",48111,42.098932742,-83.498953364,127,"28000 ELWELL, BELLEVILLE, MI, 48111","Match","Non_Exact","28000 ELWELL RD, BELLEVILLE, MI, 48111",95706795,"R"
446128,"28000 MEADOW DRIVE STE 104","EVERGREEN","CO",80439,39.6378452320001,-105.317993227,128,"28000 MEADOW DRIVE STE 104, EVERGREEN, CO, 80439","Match","Exact","28000 MEADOW DR, EVERGREEN, CO, 80439",177799983,"L"
446129,"28000 PIONEER HILL CT","CANYON COUNTRY","CA",91351,34.430751167,-118.468151373,129,"28000 PIONEER HILL CT, CANYON COUNTRY, CA, 91351","Match","Exact","28000 PIONEER HILL CT, CANYON COUNTRY, CA, 91351",141853633,"L"
446130,"28000 RIDGEBROOK COURT","RANCHO PALOS VERDES","CA",90275,33.7775644330001,-118.385729448,130,"28000 RIDGEBROOK COURT, RANCHO PALOS VERDES, CA, 90275","Match","Exact","28000 RIDGEBROOK CT, RANCHO PALOS VERDES, CA, 90275",142723041,"L"
446131,"28000 WOLVERINE WAY","ALISO VIEJO","CA",92656,33.562223718,-117.721290122,131,"28000 WOLVERINE WAY, ALISO VIEJO, CA, 92656","Match","Exact","28000 WOLVERINE WAY, ALISO VIEJO, CA, 92656",144417554,"L"
446132,"28001 EAST ORIENT CEMETARY ROAD","HARRISONVILLE","MO",64701,38.663673637,-94.273539391,132,"28001 EAST ORIENT CEMETARY ROAD, HARRISONVILLE, MO, 64701","Match","Non_Exact","28001 E ORIENT CEMETERY RD, HARRISONVILLE, MO, 64701",100922031,"R"
446133,"28001 GALLINA","MISSION VIEJO","CA",92692,33.604408628,-117.641120733,133,"28001 GALLINA, MISSION VIEJO, CA, 92692","Match","Exact","28001 GALLINA, MISSION VIEJO, CA, 92692",144067233,"L"
446134,"28001 PASEO BARRANCA","SAN JUAN CAPISTRANO","CA",92675,33.50803137,-117.641979715,134,"28001 PASEO BARRANCA, SAN JUAN CAPISTRANO, CA, 92675","Match","Non_Exact","28001 PSO BARRANCA, SAN JUAN CAPISTRANO, CA, 92675",144074676,"L"
446135,"28002 141ST AVE","SPRING VALLEY","MN",55975,43.7621995540001,-92.36780286,135,"28002 141ST AVE, SPRING VALLEY, MN, 55975","Match","Exact","28002 141ST AVE, SPRING VALLEY, MN, 55975",27573861,"R"
446136,"28002 FESTIVO","MISSION VIEJO","CA",92692,33.6031256000001,-117.641009909,136,"28002 FESTIVO, MISSION VIEJO, CA, 92692","Match","Exact","28002 FESTIVO, MISSION VIEJO, CA, 92692",144067244,"L"
446137,"28005 59TH AVE NE","ARLINGTON","WA",98223,48.2499190560001,-122.150196714,137,"28005 59TH AVE NE, ARLINGTON, WA, 98223","Match","Exact","28005 59TH AVE NE, ARLINGTON, WA, 98223",187789140,"R"
446138,"28005 RCR 37","HAYDEN","CO",81639,40.3347092490001,-107.141950009,138,"28005 RCR 37, HAYDEN, CO, 81639","Match","Non_Exact","28005 CO RD 37, HAYDEN, CO, 81639",105983295,"R"
446139,"28006 85TH DR NW","STANWOOD","WA",98292,48.2505366660001,-122.348597961,139,"28006 85TH DR NW, STANWOOD, WA, 98292","Match","Exact","28006 85TH DR NW, STANWOOD, WA, 98292",187813079,"L"
446140,"28006 BROOKMERE ST","LOMA LINDA","CA",92354,NA,NA,140,"28006 BROOKMERE ST, LOMA LINDA, CA, 92354","No_Match",NA,NA,NA,NA
446141,"28007 CASCADE RD","HOT SPRINGS","SD",57747,43.3406243700001,-103.546157166,141,"28007 CASCADE RD, HOT SPRINGS, SD, 57747","Match","Exact","28007 CASCADE RD, HOT SPRINGS, SD, 57747",639302780,"L"
446142,"28007 N 23RD LANE","PHOENIX","AZ",85085,33.738943261,-112.109810696,142,"28007 N 23RD LANE, PHOENIX, AZ, 85085","Match","Exact","28007 N 23RD LN, PHOENIX, AZ, 85085",128862562,"R"
446143,"28007 NE 151ST PLACE","DUVALL","WA",98019,47.7365366810001,-121.963653839,143,"28007 NE 151ST PLACE, DUVALL, WA, 98019","Match","Exact","28007 NE 151ST PL, DUVALL, WA, 98019",186937347,"R"
446144,"28008 CHURCH AVE","BARSTOW","CA",92311,34.882844617,-117.049417234,144,"28008 CHURCH AVE, BARSTOW, CA, 92311","Match","Exact","28008 CHURCH AVE, BARSTOW, CA, 92311",144557223,"R"
446145,"28008 EAGLE HILL RD","VALLEY CENTER","CA",92082,33.221688462,-116.994877019,145,"28008 EAGLE HILL RD, VALLEY CENTER, CA, 92082","Match","Non_Exact","28008 EAGLEHILL RD, VALLEY CENTER, CA, 92082",195309962,"L"
446146,"28009 NORTH 31ST AVENUE","PHOENIX","AZ",85083,33.738422907,-112.125736244,146,"28009 NORTH 31ST AVENUE, PHOENIX, AZ, 85083","Match","Exact","28009 N 31ST AVE, PHOENIX, AZ, 85083",128862760,"R"
446147,"28009 SE SWEETBRIAR RD","TROUTDALE","OR",97060,45.5094416970001,-122.374594662,147,"28009 SE SWEETBRIAR RD, TROUTDALE, OR, 97060","Match","Exact","28009 SE SWEETBRIAR RD, TROUTDALE, OR, 97060",616928477,"L"
446148,"2800SW 35TH PL","GAINESVILLE","FL",32608,NA,NA,148,"2800SW 35TH PL, GAINESVILLE, FL, 32608","Tie",NA,NA,NA,NA
446149,"2801 14TH ST NW 614","WASHINGTON","DC",20009,38.925810245,-77.032334517,149,"2801 14TH ST NW 614, WASHINGTON, DC, 20009","Match","Exact","2801 14TH ST NW, WASHINGTON, DC, 20009",76223023,"R"
446150,"2801 14TH ST NW","WASHINGTON","DC",20009,38.925810245,-77.032334517,150,"2801 14TH ST NW, WASHINGTON, DC, 20009","Match","Exact","2801 14TH ST NW, WASHINGTON, DC, 20009",76223023,"R"
446151,"2801 16TH AVE SE","PUYALLUP","WA",98372,47.176026608,-122.256788722,151,"2801 16TH AVE SE, PUYALLUP, WA, 98372","Match","Exact","2801 16TH AVE SE, PUYALLUP, WA, 98372",184761536,"L"
446152,"2801 202ND STREET","BAYSIDE","NY",11360,NA,NA,152,"2801 202ND STREET, BAYSIDE, NY, 11360","No_Match",NA,NA,NA,NA
446153,"2801 2ND AVE S","GREAT FALLS","MT",59405,47.50288999,-111.258884166,153,"2801 2ND AVE S, GREAT FALLS, MT, 59405","Match","Exact","2801 2ND AVE S, GREAT FALLS, MT, 59405",202227431,"L"
446154,"2801 2ND STREET","DAVIS","CA",95618,NA,NA,154,"2801 2ND STREET, DAVIS, CA, 95618","No_Match",NA,NA,NA,NA
446155,"2801 30TH ST NE","CANTON","OH",44705,40.829995169,-81.3344759829999,155,"2801 30TH ST NE, CANTON, OH, 44705","Match","Exact","2801 30TH ST NE, CANTON, OH, 44705",64684638,"L"
446156,"2801 34TH AVE S 274","FARGO","ND",58104,46.829531079,-96.8255498729999,156,"2801 34TH AVE S 274, FARGO, ND, 58104","Match","Exact","2801 34TH AVE S, FARGO, ND, 58104",151466942,"R"
446157,"2801 37TH STREET SOUTH","SAINT PETERSBURG","FL",33711,27.7424586860001,-82.6833431379999,157,"2801 37TH STREET SOUTH, SAINT PETERSBURG, FL, 33711","Match","Exact","2801 37TH ST S, SAINT PETERSBURG, FL, 33711",124709804,"R"
446158,"2801 50TH ST SW","NAPLES","FL",34116,26.177241725,-81.7068601619999,158,"2801 50TH ST SW, NAPLES, FL, 34116","Match","Exact","2801 50TH ST SW, NAPLES, FL, 34116",115140907,"L"
446159,"2801 58TH CIRCLE SOUTH","SAINT PETERSBURG","FL",33712,27.715042426,-82.6710756849999,159,"2801 58TH CIRCLE SOUTH, SAINT PETERSBURG, FL, 33712","Match","Exact","2801 58TH CIR S, SAINT PETERSBURG, FL, 33712",124748472,"R"
446160,"2801 58TH CIRCLE SOUTH","ST. PETERSBURG","FL",33712,27.715042426,-82.6710756849999,160,"2801 58TH CIRCLE SOUTH, ST. PETERSBURG, FL, 33712","Match","Exact","2801 58TH CIR S, SAINT PETERSBURG, FL, 33712",124748472,"R"
446161,"2801 8TH AVE SW","AUSTIN","MN",55912,43.659775865,-93.012506066,161,"2801 8TH AVE SW, AUSTIN, MN, 55912","Match","Exact","2801 8TH AVE SW, AUSTIN, MN, 55912",27634311,"L"
446162,"2801 ADAMS MILL ROAD UNIT 402","WASHINGTON","DC",20009,38.925223488,-77.0445818059999,162,"2801 ADAMS MILL ROAD UNIT 402, WASHINGTON, DC, 20009","Match","Non_Exact","2801 ADAMS MILL RD NW, WASHINGTON, DC, 20009",76222602,"R"
446163,"2801 ALASKAN WAY - SUITE 300","SEATTLE","WA",98121,47.614432316,-122.354044026,163,"2801 ALASKAN WAY - SUITE 300, SEATTLE, WA, 98121","Match","Exact","2801 ALASKAN WAY, SEATTLE, WA, 98121",629182652,"L"
446164,"2801 ALASKAN WAY SUITE 300","SEATTLE","WA",98121,47.614432316,-122.354044026,164,"2801 ALASKAN WAY SUITE 300, SEATTLE, WA, 98121","Match","Exact","2801 ALASKAN WAY, SEATTLE, WA, 98121",629182652,"L"
446165,"2801 ALLENTON TRAILS LANE","CHARLOTTE","NC",28212,35.1837088820001,-80.7399536779999,165,"2801 ALLENTON TRAILS LANE, CHARLOTTE, NC, 28212","Match","Exact","2801 ALLENTON TRAILS LN, CHARLOTTE, NC, 28212",70500392,"R"
446166,"2801 ALTGERO AVE","FAYETTEVILLE","NC",28306,35.0137531330001,-79.026837986,166,"2801 ALTGERO AVE, FAYETTEVILLE, NC, 28306","Match","Exact","2801 ALTGERO AVE, FAYETTEVILLE, NC, 28306",646576964,"L"
446167,"2801 APPLETREE DR","DAYTON","OH",45426,NA,NA,167,"2801 APPLETREE DR, DAYTON, OH, 45426","No_Match",NA,NA,NA,NA
446168,"2801 AQUARIUS AVENUE","SILVER SPRING","MD",20906,39.1011223560001,-77.0580855329999,168,"2801 AQUARIUS AVENUE, SILVER SPRING, MD, 20906","Match","Exact","2801 AQUARIUS AVE, SILVER SPRING, MD, 20906",62060371,"R"
446169,"2801 ARDEN WAY 255095","SACRAMENTO","CA",95825,38.5959472000001,-121.399191476,169,"2801 ARDEN WAY 255095, SACRAMENTO, CA, 95825","Match","Exact","2801 ARDEN WAY, SACRAMENTO, CA, 95825",133335574,"L"
446170,"2801 ARLINGTON DRIVE APT 204","ALEXANDRIA","VA",22306,38.7546120330001,-77.079113664,170,"2801 ARLINGTON DRIVE APT 204, ALEXANDRIA, VA, 22306","Match","Exact","2801 ARLINGTON DR, ALEXANDRIA, VA, 22306",75990743,"L"
446171,"2801 AVENUE R","BROOKLYN","NY",11229,40.6071992940001,-73.9450576679999,171,"2801 AVENUE R, BROOKLYN, NY, 11229","Match","Exact","2801 AVE R, BROOKLYN, NY, 11229",59090474,"L"
446172,"2801 B ST 3155","SAN DIEGO","CA",92102,32.717926795,-117.133761811,172,"2801 B ST 3155, SAN DIEGO, CA, 92102","Match","Exact","2801 B ST, SAN DIEGO, CA, 92102",612868645,"R"
446173,"2801 B ST SUITE 2","SAN DIEGO","CA",92122,32.717926795,-117.133761811,173,"2801 B ST SUITE 2, SAN DIEGO, CA, 92122","Match","Non_Exact","2801 B ST, SAN DIEGO, CA, 92102",612868645,"R"
446174,"2801 B ST UNIT 2109","SAN DIEGO","CA",92102,32.717926795,-117.133761811,174,"2801 B ST UNIT 2109, SAN DIEGO, CA, 92102","Match","Exact","2801 B ST, SAN DIEGO, CA, 92102",612868645,"R"
446175,"2801 B ST","SAN DIEGO","CA",92122,32.717926795,-117.133761811,175,"2801 B ST, SAN DIEGO, CA, 92122","Match","Non_Exact","2801 B ST, SAN DIEGO, CA, 92102",612868645,"R"
446176,"2801 B STREET SUITE 92","SAN DIEGO","CA",92102,NA,NA,176,"2801 B STREET SUITE 92, SAN DIEGO, CA, 92102","No_Match",NA,NA,NA,NA
446177,"2801 BEAVER GRADE ROAD","MOON TOWNSHIP","PA",15108,40.4752530280001,-80.1734946179999,177,"2801 BEAVER GRADE ROAD, MOON TOWNSHIP, PA, 15108","Match","Exact","2801 BEAVER GRADE RD, MOON TOWNSHIP, PA, 15108",51926680,"L"
446178,"2801 BERRY VIEW CT","MELISSA","TX",75454,33.272892116,-96.560894542,178,"2801 BERRY VIEW CT, MELISSA, TX, 75454","Match","Exact","2801 BERRY VIEW CT, MELISSA, TX, 75454",123554584,"L"
446179,"2801 BERRY VIEW CT","MELISSA","TX",NA,33.272892116,-96.560894542,179,"2801 BERRY VIEW CT, MELISSA, TX, ","Match","Exact","2801 BERRY VIEW CT, MELISSA, TX, 75454",123554584,"L"
446180,"2801 BICKFORD AVE 103-130","SNOHOMISH","WA",98290,NA,NA,180,"2801 BICKFORD AVE 103-130, SNOHOMISH, WA, 98290","No_Match",NA,NA,NA,NA
446181,"2801 BIRCH ROAD","HOMEWOOD","IL",60430,41.5553535860001,-87.684716684,181,"2801 BIRCH ROAD, HOMEWOOD, IL, 60430","Match","Exact","2801 BIRCH RD, HOMEWOOD, IL, 60430",111708996,"L"
446182,"2801 BLUE QUAIL PASS","EDMOND","OK",73013,35.628983727,-97.563695294,182,"2801 BLUE QUAIL PASS, EDMOND, OK, 73013","Match","Exact","2801 BLUE QUAIL PASS, EDMOND, OK, 73013",637605552,"L"
446183,"2801 BOTANY PLACE","TALLAHASSEE","FL",32301,30.411726489,-84.2607595759999,183,"2801 BOTANY PLACE, TALLAHASSEE, FL, 32301","Match","Exact","2801 BOTANY PL, TALLAHASSEE, FL, 32301",82859403,"L"
446184,"2801 BRAZOS BLVD APT 1304","EULESS","TX",76039,32.8760302920001,-97.104112328,184,"2801 BRAZOS BLVD APT 1304, EULESS, TX, 76039","Match","Exact","2801 BRAZOS BLVD, EULESS, TX, 76039",642929018,"L"
446185,"2801 BRIAR GROVE CIR","BRYAN","TX",77803,30.6655723100001,-96.3373023089999,185,"2801 BRIAR GROVE CIR, BRYAN, TX, 77803","Match","Non_Exact","2801 BRIAR GROVE CIR, BRYAN, TX, 77802",21815564,"L"
446186,"2801 BROOKVIEW DR","BURNSVILLE","MN",55337,44.7655743060001,-93.3163260379999,186,"2801 BROOKVIEW DR, BURNSVILLE, MN, 55337","Match","Exact","2801 BROOKVIEW DR, BURNSVILLE, MN, 55337",37902987,"R"
446187,"2801 BUFORD HWY STE 195","ATLANTA","GA",30329,33.8316700290001,-84.342432318,187,"2801 BUFORD HWY STE 195, ATLANTA, GA, 30329","Match","Exact","2801 BUFORD HWY, ATLANTA, GA, 30329",23406036,"R"
446188,"2801 CALENDAR COURT","FORT COLLINS","CO",80526,40.5497416640001,-105.133157799,188,"2801 CALENDAR COURT, FORT COLLINS, CO, 80526","Match","Exact","2801 CALENDAR CT, FORT COLLINS, CO, 80526",188519796,"R"
446189,"2801 CALLOWAY ROAD APT 1006","TYLER","TX",75707,32.306638224,-95.261711969,189,"2801 CALLOWAY ROAD APT 1006, TYLER, TX, 75707","Match","Exact","2801 CALLOWAY RD, TYLER, TX, 75707",652311749,"R"
446190,"2801 CAMARILLO LN","VIRIGNIA BEACH","VA",23456,36.738399374,-76.014411503,190,"2801 CAMARILLO LN, VIRIGNIA BEACH, VA, 23456","Match","Non_Exact","2801 CAMARILLO LN, VIRGINIA BCH, VA, 23456",640727104,"L"
446191,"2801 CARRINGTON PARK","JONESBORO","GA",30236,33.5545623140001,-84.303911608,191,"2801 CARRINGTON PARK, JONESBORO, GA, 30236","Match","Exact","2801 CARRINGTON PARK, JONESBORO, GA, 30236",628095044,"L"
446192,"2801 CASTLE PINES DRIVE","GREAT FALLS","MT",59405,47.476157313,-111.283596338,192,"2801 CASTLE PINES DRIVE, GREAT FALLS, MT, 59405","Match","Exact","2801 CASTLE PINES DR, GREAT FALLS, MT, 59405",640086471,"L"
446193,"2801 CHANCELLORSVILLE DR NO 908","TALLAHASSEE","FL",32312,30.5499872140001,-84.2287344,193,"2801 CHANCELLORSVILLE DR NO 908, TALLAHASSEE, FL, 32312","Match","Non_Exact","2801 CHANCELLORSVILLE DR, TALLAHASSEE, FL, 32312",618939834,"L"
446194,"2801 CHELSEA DR","NORMAN","OK",73072,35.2523064750001,-97.494974032,194,"2801 CHELSEA DR, NORMAN, OK, 73072","Match","Exact","2801 CHELSEA DR, NORMAN, OK, 73072",99932328,"R"
446195,"2801 CHOCTAW CT","WOODWARD","OK",73801,36.4393490800001,-99.416966297,195,"2801 CHOCTAW CT, WOODWARD, OK, 73801","Match","Exact","2801 CHOCTAW CT, WOODWARD, OK, 73801",198726568,"R"
446196,"2801 CLAFLIN AVENUE","BRONX","NY",10468,40.8715629120001,-73.900214287,196,"2801 CLAFLIN AVENUE, BRONX, NY, 10468","Match","Exact","2801 CLAFLIN AVE, BRONX, NY, 10468",80298572,"L"
446197,"2801 CLAREMONT BLVD","BERKELEY","CA",94705,37.8607903920001,-122.245790996,197,"2801 CLAREMONT BLVD, BERKELEY, CA, 94705","Match","Exact","2801 CLAREMONT BLVD, BERKELEY, CA, 94705",618782644,"L"
446198,"2801 CLARK AVENUE","ST LOUIS","MO",63103,38.629372689,-90.2201247419999,198,"2801 CLARK AVENUE, ST LOUIS, MO, 63103","Match","Exact","2801 CLARK AVE, SAINT LOUIS, MO, 63103",647680241,"R"
446199,"2801 COCONUT AVENUE APT 4E","HONOLULU","HI",96815,21.258309335,-157.818429049,199,"2801 COCONUT AVENUE APT 4E, HONOLULU, HI, 96815","Match","Exact","2801 COCONUT AVE, HONOLULU, HI, 96815",203242802,"R"
446200,"2801 COLANTHE AVE","LAS VEGAS","NV",89102,36.15326335,-115.179326634,200,"2801 COLANTHE AVE, LAS VEGAS, NV, 89102","Match","Exact","2801 COLANTHE AVE, LAS VEGAS, NV, 89102",201864877,"L"
446201,"2801 COLONY ROAD","CHARLOTTE","NC",28211,35.1683835810001,-80.830623816,201,"2801 COLONY ROAD, CHARLOTTE, NC, 28211","Match","Exact","2801 COLONY RD, CHARLOTTE, NC, 28211",70574751,"L"
446202,"2801 CONTI ST","NEW ORLEANS","TX",70119,NA,NA,202,"2801 CONTI ST, NEW ORLEANS, TX, 70119","No_Match",NA,NA,NA,NA
446203,"2801 CORAL SPRINGS DRIVE","CORAL SPRINGS","FL",33065,26.2664315010001,-80.266100668,203,"2801 CORAL SPRINGS DRIVE, CORAL SPRINGS, FL, 33065","Match","Exact","2801 CORAL SPRINGS DR, CORAL SPRINGS, FL, 33065",641073658,"L"
446204,"2801 CORTLAND PLACE NW UNIT 302","WASHINGTON","VA",20008,NA,NA,204,"2801 CORTLAND PLACE NW UNIT 302, WASHINGTON, VA, 20008","No_Match",NA,NA,NA,NA
446205,"2801 CR 801A","BURLESON","TX",76028,NA,NA,205,"2801 CR 801A, BURLESON, TX, 76028","No_Match",NA,NA,NA,NA
446206,"2801 CREEK VALLEY DR","GARLAND","TX",75040,32.942450867,-96.599759701,206,"2801 CREEK VALLEY DR, GARLAND, TX, 75040","Match","Exact","2801 CREEK VALLEY DR, GARLAND, TX, 75040",103171241,"L"
446207,"2801 CRESCENT LAKE DR","LITTLE ELM","TX",75068,NA,NA,207,"2801 CRESCENT LAKE DR, LITTLE ELM, TX, 75068","No_Match",NA,NA,NA,NA
446208,"2801 CRISMAN ST","CHARLOTTE","NC",28227,35.2379830620001,-80.8859742929999,208,"2801 CRISMAN ST, CHARLOTTE, NC, 28227","Match","Non_Exact","2801 CRISMAN ST, CHARLOTTE, NC, 28208",70476687,"L"
446209,"2801 CRONICAS","WESLACO","TX",78596,NA,NA,209,"2801 CRONICAS, WESLACO, TX, 78596","No_Match",NA,NA,NA,NA
446210,"2801 CROSS BRIDGE","BIRMINGHAM","AL",35216,NA,NA,210,"2801 CROSS BRIDGE, BIRMINGHAM, AL, 35216","Tie",NA,NA,NA,NA
446211,"2801 CROSSROADS DR SUITE 1200","MADISON","WI",53718,43.132484015,-89.290511071,211,"2801 CROSSROADS DR SUITE 1200, MADISON, WI, 53718","Match","Exact","2801 CROSSROADS DR, MADISON, WI, 53718",640844318,"L"
446212,"2801 CRYSTAL DRIVE","BALCH SPRINGS","TX",75180,32.7302525540001,-96.6334408879999,212,"2801 CRYSTAL DRIVE, BALCH SPRINGS, TX, 75180","Match","Exact","2801 CRYSTAL DR, BALCH SPRINGS, TX, 75180",103194092,"R"
446213,"2801 DALFORD ST","FORT WORTH","TX",76111,32.778558934,-97.305947481,213,"2801 DALFORD ST, FORT WORTH, TX, 76111","Match","Exact","2801 DALFORD ST, FORT WORTH, TX, 76111",101858915,"L"
446214,"2801 DAWSON RD","TULSA","OK",74110,36.1718439470001,-95.9487352949999,214,"2801 DAWSON RD, TULSA, OK, 74110","Match","Exact","2801 DAWSON RD, TULSA, OK, 74110",166505111,"L"
446215,"2801 DENTON TAP ROAD","LEWISVILLE","TX",75067,32.9953777420001,-96.9930791959999,215,"2801 DENTON TAP ROAD, LEWISVILLE, TX, 75067","Match","Exact","2801 DENTON TAP RD, LEWISVILLE, TX, 75067",103423553,"L"
446216,"2801 DETACHED CIR SE","PALM BAY","FL",32909,27.9256872550001,-80.6342702439999,216,"2801 DETACHED CIR SE, PALM BAY, FL, 32909","Match","Exact","2801 DETACHED CIR SE, PALM BAY, FL, 32909",93879682,"R"
446217,"2801 DOGWOOD PARK DRIVE","RICHLAND HILLS","TX",76118,32.8013932320001,-97.225338213,217,"2801 DOGWOOD PARK DRIVE, RICHLAND HILLS, TX, 76118","Match","Exact","2801 DOGWOOD PARK, RICHLAND HILLS, TX, 76118",101941107,"L"
446218,"2801 DUPONT STREET","FLINT","MI",48504,43.0416253560001,-83.713350853,218,"2801 DUPONT STREET, FLINT, MI, 48504","Match","Exact","2801 DUPONT ST, FLINT, MI, 48504",69564862,"L"
446219,"2801 E 120TH AVE F203","THORNTON","CO",80233,39.913942224,-104.957570947,219,"2801 E 120TH AVE F203, THORNTON, CO, 80233","Match","Non_Exact","2801 E 120TH AVE, THORNTON, CO, 80233",177441204,"L"
446220,"2801 E 61ST STREET","KANSAS CITY","MO",64130,39.0158150080001,-94.553569153,220,"2801 E 61ST STREET, KANSAS CITY, MO, 64130","Match","Exact","2801 E 61ST ST, KANSAS CITY, MO, 64130",91452609,"R"
446221,"2801 E 71ST ST","INDIANAPOLIS","IN",46220,39.8832434870001,-86.1166160609999,221,"2801 E 71ST ST, INDIANAPOLIS, IN, 46220","Match","Exact","2801 E 71ST ST, INDIANAPOLIS, IN, 46220",108068040,"R"
446222,"2801 E 71ST ST","NDIANAPOLIS","IN",46220,39.8832434870001,-86.1166160609999,222,"2801 E 71ST ST, NDIANAPOLIS, IN, 46220","Match","Non_Exact","2801 E 71ST ST, INDIANAPOLIS, IN, 46220",108068040,"R"
446223,"2801 E AVERY DR","PALM SPRINGS","CA",92264,33.802625167,-116.515245402,223,"2801 E AVERY DR, PALM SPRINGS, CA, 92264","Match","Exact","2801 AVERY DR, PALM SPRINGS, CA, 92264",194764349,"R"
446224,"2801 E AVERY DRIVE UNIT E 8","PALM SPRINGS","CA",92264,33.802625167,-116.515245402,224,"2801 E AVERY DRIVE UNIT E 8, PALM SPRINGS, CA, 92264","Match","Exact","2801 AVERY DR, PALM SPRINGS, CA, 92264",194764349,"R"
446225,"2801 E COLORADO BLVD","PASADENA","CA",91107,34.1461603130001,-118.092914178,225,"2801 E COLORADO BLVD, PASADENA, CA, 91107","Match","Exact","2801 E COLORADO BLVD, PASADENA, CA, 91107",141634010,"L"
446226,"2801 E GLENHURST LANE","APPLETON","WI",54913,44.307082661,-88.365768767,226,"2801 E GLENHURST LANE, APPLETON, WI, 54913","Match","Exact","2801 E GLENHURST LN, APPLETON, WI, 54913",74906256,"R"
446227,"2801 E INDEPENDENCE BLVD","CHARLOTTE","NC",28205,35.205581077,-80.7943979619999,227,"2801 E INDEPENDENCE BLVD, CHARLOTTE, NC, 28205","Match","Exact","2801 E INDEPENDENCE BLVD, CHARLOTTE, NC, 28205",70521567,"L"
446228,"2801 E JOLLY ROAD APT 301","LANSING","MI",48910,42.682947443,-84.511753515,228,"2801 E JOLLY ROAD APT 301, LANSING, MI, 48910","Match","Non_Exact","2801 E JOLLY RD, LANSING, MI, 48910",17520468,"R"
446229,"2801 E MATTERHORN DR","FLAGSTAFF","AZ",86004,35.223828369,-111.601739649,229,"2801 E MATTERHORN DR, FLAGSTAFF, AZ, 86004","Match","Exact","2801 E MATTERHORN DR, FLAGSTAFF, AZ, 86004",188935256,"L"
446230,"2801 E MISSOURI AVENUE SUITE 7","LAS CRUCES","NM",88011,32.2996959720001,-106.738132952,230,"2801 E MISSOURI AVENUE SUITE 7, LAS CRUCES, NM, 88011","Match","Exact","2801 MISSOURI AVE, LAS CRUCES, NM, 88011",612727880,"L"
446231,"2801 E OSCEOLA RD","GENEVA","FL",32732,28.798901926,-81.0746986029999,231,"2801 E OSCEOLA RD, GENEVA, FL, 32732","Match","Exact","2801 E OSCEOLA RD, GENEVA, FL, 32732",93793676,"L"
446232,"2801 E SUNRISE CT","BRANDON","SD",57005,43.591018601,-96.547664743,232,"2801 E SUNRISE CT, BRANDON, SD, 57005","Match","Exact","2801 SUNRISE CT, BRANDON, SD, 57005",635199140,"R"
446233,"2801 EAGLEDALE","INDIANAPOLIS","IN",46222,39.8067097750001,-86.2266476139999,233,"2801 EAGLEDALE, INDIANAPOLIS, IN, 46222","Match","Non_Exact","2801 EAGLEDALE DR, INDIANAPOLIS, IN, 46222",107979178,"R"
446234,"2801 EAST COMMERCIAL BLVD","FORT LAUDERDALE","FL",33308,26.189833327,-80.108576295,234,"2801 EAST COMMERCIAL BLVD, FORT LAUDERDALE, FL, 33308","Match","Exact","2801 E COMMERCIAL BLVD, FORT LAUDERDALE, FL, 33308",637111863,"L"
446235,"2801 EAST UNIVERSITY AVENUE","GAINESVILLE","FL",32641,29.651808858,-82.288897569,235,"2801 EAST UNIVERSITY AVENUE, GAINESVILLE, FL, 32641","Match","Exact","2801 E UNIVERSITY AVE, GAINESVILLE, FL, 32641",638635758,"R"
446236,"2801 EASTERN BOULEVARD","BALDWIN","NY",11510,40.643177338,-73.603018189,236,"2801 EASTERN BOULEVARD, BALDWIN, NY, 11510","Match","Exact","2801 EASTERN BLVD, BALDWIN, NY, 11510",147637908,"L"
446237,"2801 ELNORA ST","SILVER SPRING","MD",20902,39.04496835,-77.057564169,237,"2801 ELNORA ST, SILVER SPRING, MD, 20902","Match","Exact","2801 ELNORA ST, SILVER SPRING, MD, 20902",62062266,"R"
446238,"2801 ELY CT","CEDAR PARK","TX",78613,30.4856503230001,-97.86100136,238,"2801 ELY CT, CEDAR PARK, TX, 78613","Match","Exact","2801 ELY CT, CEDAR PARK, TX, 78613",617951459,"R"
446239,"2801 EMERALD AVENUE","HUEYTOWN","AL",35023,33.430602831,-86.975327439,239,"2801 EMERALD AVENUE, HUEYTOWN, AL, 35023","Match","Exact","2801 EMERALD AVE, HUEYTOWN, AL, 35023",81548103,"R"
446240,"2801 EMILY COURT","HAYMARKET","VA",20169,NA,NA,240,"2801 EMILY COURT, HAYMARKET, VA, 20169","No_Match",NA,NA,NA,NA
446241,"2801 FAIRVIEW DRIVE","CHATTANOOGA","TN",37406,35.075495887,-85.236271841,241,"2801 FAIRVIEW DRIVE, CHATTANOOGA, TN, 37406","Match","Exact","2801 FAIRVIEW DR, CHATTANOOGA, TN, 37406",59310052,"L"
446242,"2801 FALCON RIDGE DRIVE","SPARKS","NV",89436,39.5968280480001,-119.692312536,242,"2801 FALCON RIDGE DRIVE, SPARKS, NV, 89436","Match","Exact","2801 FALCON RIDGE DR, SPARKS, NV, 89436",107101930,"R"
446243,"2801 FLORENCE ROAD","SOUTHLAKE","TX",76092,NA,NA,243,"2801 FLORENCE ROAD, SOUTHLAKE, TX, 76092","No_Match",NA,NA,NA,NA
446244,"2801 FLORIDA AVE UNIT 205","MIAMI","FL",33133,25.7291387980001,-80.239561179,244,"2801 FLORIDA AVE UNIT 205, MIAMI, FL, 33133","Match","Exact","2801 FLORIDA AVE, MIAMI, FL, 33133",116014931,"R"
446245,"2801 FM 2004 NO 1315","TEXAS CITY","TX",77591,NA,NA,245,"2801 FM 2004 NO 1315, TEXAS CITY, TX, 77591","No_Match",NA,NA,NA,NA
446246,"2801 FOREST CREEK LN","2801 FOREST CREEK LN","TX",77584,29.559665479,-95.4267118069999,246,"2801 FOREST CREEK LN, 2801 FOREST CREEK LN, TX, 77584","Match","Non_Exact","2801 FOREST CREEK LN, PEARLAND, TX, 77584",629578294,"R"
446247,"2801 FOREST CREEK LN","PEARLAND","TX",77584,29.559665479,-95.4267118069999,247,"2801 FOREST CREEK LN, PEARLAND, TX, 77584","Match","Exact","2801 FOREST CREEK LN, PEARLAND, TX, 77584",629578294,"R"
446248,"2801 FRAMER LANE","DURHAM","NC",27704,36.0267416140001,-78.822425397,248,"2801 FRAMER LANE, DURHAM, NC, 27704","Match","Exact","2801 FRAMER LN, DURHAM, NC, 27704",618108860,"L"
446249,"2801 FREEMAN STREET","MIAMI","FL",33133,25.739404587,-80.230914484,249,"2801 FREEMAN STREET, MIAMI, FL, 33133","Match","Exact","2801 FREEMAN ST, MIAMI, FL, 33133",116015019,"L"
446250,"2801 FRUITVILLE ROAD SUITE 240","SARASOTA","FL",34237,27.337543167,-82.513790623,250,"2801 FRUITVILLE ROAD SUITE 240, SARASOTA, FL, 34237","Match","Exact","2801 FRUITVILLE RD, SARASOTA, FL, 34237",16393396,"L"
446251,"2801 G STREET","ANTIOCH","CA",94509,37.9957296520001,-121.817273213,251,"2801 G STREET, ANTIOCH, CA, 94509","Match","Exact","2801 G ST, ANTIOCH, CA, 94509",192067695,"L"
446252,"2801 GIRTH LN","RALEIGH","NC",27603,35.626077857,-78.679005445,252,"2801 GIRTH LN, RALEIGH, NC, 27603","Match","Exact","2801 GIRTH LN, RALEIGH, NC, 27603",72598194,"R"
446253,"2801 GRAND AVENUE S","MINNEAPOLIS","MN",55408,44.951817487,-93.284247772,253,"2801 GRAND AVENUE S, MINNEAPOLIS, MN, 55408","Match","Non_Exact","2801 GRAND AVE, MINNEAPOLIS, MN, 55408",43755988,"L"
446254,"2801 HELIX ST","SPRING VALLEY","CA",91977,32.7335891820001,-116.999541538,254,"2801 HELIX ST, SPRING VALLEY, CA, 91977","Match","Exact","2801 HELIX ST, SPRING VALLEY, CA, 91977",195360802,"R"
446255,"2801 HERSHBURGER ROAD","ROANOKE","VA",24017,37.3065001780001,-79.9772732179999,255,"2801 HERSHBURGER ROAD, ROANOKE, VA, 24017","Match","Non_Exact","2801 HERSHBERGER RD NW, ROANOKE, VA, 24017",62902817,"R"
446256,"2801 HICKORY TRAIL","SNELLVILLE","GA",30078,33.8403184410001,-84.016783548,256,"2801 HICKORY TRAIL, SNELLVILLE, GA, 30078","Match","Exact","2801 HICKORY TRL, SNELLVILLE, GA, 30078",88890828,"R"
446257,"2801 HILLSIDE AVE","CHEVERLY","MD",20785,38.9253227770001,-76.9062096599999,257,"2801 HILLSIDE AVE, CHEVERLY, MD, 20785","Match","Exact","2801 HILLSIDE AVE, CHEVERLY, MD, 20785",76307759,"R"
446258,"2801 HOLT DR","COLUMBIA","SC",29205,33.979396751,-81.004036684,258,"2801 HOLT DR, COLUMBIA, SC, 29205","Match","Exact","2801 HOLT DR, COLUMBIA, SC, 29205",71828443,"L"
446259,"2801 HORACE SHEPARD DRIVE","DOTHAN","AL",36303,31.283219118,-85.45177592,259,"2801 HORACE SHEPARD DRIVE, DOTHAN, AL, 36303","Match","Exact","2801 HORACE SHEPARD DR, DOTHAN, AL, 36303",101227530,"L"
446260,"2801 HORSESHOE PIKE","PALMYRA","PA",17078,40.277778965,-76.5808619009999,260,"2801 HORSESHOE PIKE, PALMYRA, PA, 17078","Match","Exact","2801 HORSESHOE PIKE, PALMYRA, PA, 17078",611344471,"R"
446261,"2801 HURLEY POND ROAD","WALL","NJ",7719,40.172380709,-74.0733860399999,261,"2801 HURLEY POND ROAD, WALL, NJ, 7719","Match","Exact","2801 HURLEY POND RD, WALL, NJ, 07719",90458207,"R"
446262,"2801 HWY 6 EAST 1","IOWA CITY","IA",52240,NA,NA,262,"2801 HWY 6 EAST 1, IOWA CITY, IA, 52240","No_Match",NA,NA,NA,NA
446263,"2801 HWY 6 LOT 86","IOWA CITY","IA",52240,41.6327812100001,-91.4931358699999,263,"2801 HWY 6 LOT 86, IOWA CITY, IA, 52240","Match","Non_Exact","2801 US HWY 6, IOWA CITY, IA, 52240",648885395,"R"
446264,"2801 HYATT AVE","SPRINGDALE","AR",72762,36.202634736,-94.163509314,264,"2801 HYATT AVE, SPRINGDALE, AR, 72762","Match","Exact","2801 HYATT AVE, SPRINGDALE, AR, 72762",49059308,"R"
446265,"2801 HYDE LANE","VIRGINIA BEACH","VA",23456,36.734170874,-76.0741060719999,265,"2801 HYDE LANE, VIRGINIA BEACH, VA, 23456","Match","Exact","2801 HYDE LN, VA BCH, VA, 23456",122290166,"R"
446266,"2801 HYMAN PLACE","NEW ORLEANS","LA",70131,29.925581675,-90.006755542,266,"2801 HYMAN PLACE, NEW ORLEANS, LA, 70131","Match","Exact","2801 HYMAN PL, NEW ORLEANS, LA, 70131",191723305,"R"
446267,"2801 INDIANA AVE","BAKER CITY","OR",97814,44.767184888,-117.840930352,267,"2801 INDIANA AVE, BAKER CITY, OR, 97814","Match","Exact","2801 INDIANA AVE, BAKER CITY, OR, 97814",137639431,"L"
446268,"2801 INTERLAKEN DRIVE","MARIETTA","GA",30062,34.0188912990001,-84.4255432689999,268,"2801 INTERLAKEN DRIVE, MARIETTA, GA, 30062","Match","Exact","2801 INTERLAKEN DR, MARIETTA, GA, 30062",17240261,"L"
446269,"2801 ISLAND AVENUE","PHILADELPHIA","PA",19153,39.9071334700001,-75.241035766,269,"2801 ISLAND AVENUE, PHILADELPHIA, PA, 19153","Match","Exact","2801 ISLAND AVE, PHILADELPHIA, PA, 19153",649365193,"L"
446270,"2801 JOHN BEN SHEPPERD","ODESSA","TX",79762,31.883745753,-102.330921892,270,"2801 JOHN BEN SHEPPERD, ODESSA, TX, 79762","Match","Non_Exact","2801 JOHN BEN SHEPPERD PKWY, ODESSA, TX, 79762",139433808,"L"
446271,"2801 JOHN F KENNEDY BLVD B2","JERSEY CITY","NJ",7306,40.7314095450001,-74.0677817709999,271,"2801 JOHN F KENNEDY BLVD B2, JERSEY CITY, NJ, 7306","Match","Exact","2801 JOHN F KENNEDY BLVD, JERSEY CITY, NJ, 07306",59603977,"L"
446272,"2801 JOHNSON ST","ALIQUIPPA","PA",15001,40.6011178530001,-80.292834939,272,"2801 JOHNSON ST, ALIQUIPPA, PA, 15001","Match","Exact","2801 JOHNSON ST, ALIQUIPPA, PA, 15001",52563414,"L"
446273,"2801 KELVIN AVE 149","IRVINE","CA",92614,33.6831561010001,-117.836472629,273,"2801 KELVIN AVE 149, IRVINE, CA, 92614","Match","Exact","2801 KELVIN AVE, IRVINE, CA, 92614",650102429,"L"
446274,"2801 KELVIN AVE APT 530","IRVINE","CA",92614,33.6831561010001,-117.836472629,274,"2801 KELVIN AVE APT 530, IRVINE, CA, 92614","Match","Exact","2801 KELVIN AVE, IRVINE, CA, 92614",650102429,"L"
446275,"2801 KEYSTONE ROAD","TARPON SPRINGS","FL",34688,28.151749796,-82.705088688,275,"2801 KEYSTONE ROAD, TARPON SPRINGS, FL, 34688","Match","Exact","2801 KEYSTONE RD, TARPON SPNGS, FL, 34688",124679473,"L"
446276,"2801 KIRKWOOD HIGHWAY","WILMINGTON","DE",19805,39.737819727,-75.615694193,276,"2801 KIRKWOOD HIGHWAY, WILMINGTON, DE, 19805","Match","Exact","2801 KIRKWOOD HWY, WILMINGTON, DE, 19805",644385468,"L"
446277,"2801 LAKESIDE DRIVE SUITE 110","BANNOCKBURN","IL",60015,42.202199933,-87.884785517,277,"2801 LAKESIDE DRIVE SUITE 110, BANNOCKBURN, IL, 60015","Match","Exact","2801 LAKESIDE DR, BANNOCKBURN, IL, 60015",119644337,"L"
446278,"2801 LAKESIDE DRIVE","BANNOCKBURN","IL",60015,42.202199933,-87.884785517,278,"2801 LAKESIDE DRIVE, BANNOCKBURN, IL, 60015","Match","Exact","2801 LAKESIDE DR, BANNOCKBURN, IL, 60015",119644337,"L"
446279,"2801 LAKEWOOD TRACE","BIRMINGHAM","AL",35242,33.404150477,-86.745435349,279,"2801 LAKEWOOD TRACE, BIRMINGHAM, AL, 35242","Match","Exact","2801 LAKEWOOD TRCE, BIRMINGHAM, AL, 35242",82073434,"L"
446280,"2801 LANCASTER AVENUE - SUITE I","WILMINGTON","DE",19802,39.750342947,-75.5831708589999,280,"2801 LANCASTER AVENUE - SUITE I, WILMINGTON, DE, 19802","Match","Non_Exact","2801 LANCASTER AVE, WILMINGTON, DE, 19805",187254762,"R"
446281,"2801 LAS VEGAS TRAIL","FORT WORTH","TX",76116,32.735640403,-97.466730645,281,"2801 LAS VEGAS TRAIL, FORT WORTH, TX, 76116","Match","Exact","2801 LAS VEGAS TRL, FORT WORTH, TX, 76116",102135997,"L"
446282,"2801 LEE HIGHWAY UNIT 104","ARLINGTON","VA",22201,38.894765405,-77.093290113,282,"2801 LEE HIGHWAY UNIT 104, ARLINGTON, VA, 22201","Match","Non_Exact","2801 N LEE HWY, ARLINGTON, VA, 22201",638192131,"R"
446283,"2801 LEVICK ST","PHILA","PA",19149,40.032446372,-75.0648497619999,283,"2801 LEVICK ST, PHILA, PA, 19149","Match","Exact","2801 LEVICK ST, PHILA, PA, 19149",131428687,"L"
446284,"2801 LEXINGTON DRIVE","BISMARCK","ND",58503,46.8367153300001,-100.729787545,284,"2801 LEXINGTON DRIVE, BISMARCK, ND, 58503","Match","Exact","2801 LEXINGTON DR, BISMARCK, ND, 58503",198862807,"R"
446285,"2801 LIVE OAK STREET 8206","DALLAS","TX",75204,32.789397695,-96.788418432,285,"2801 LIVE OAK STREET 8206, DALLAS, TX, 75204","Match","Exact","2801 LIVE OAK ST, DALLAS, TX, 75204",102911302,"L"
446286,"2801 LIVE OAK STREET APT 3108","DALLAS","TX",75204,32.789397695,-96.788418432,286,"2801 LIVE OAK STREET APT 3108, DALLAS, TX, 75204","Match","Exact","2801 LIVE OAK ST, DALLAS, TX, 75204",102911302,"L"
446287,"2801 LORI DR","LOWER BURRELL","PA",15068,40.563932322,-79.721717312,287,"2801 LORI DR, LOWER BURRELL, PA, 15068","Match","Exact","2801 LORI DR, LOWER BURRELL, PA, 15068",613075102,"L"
446288,"2801 LOUISIANA AVE","DEER PARK","TX",77536,NA,NA,288,"2801 LOUISIANA AVE, DEER PARK, TX, 77536","No_Match",NA,NA,NA,NA
446289,"2801 MACKEY LANE","SHREVEPORT","LA",71118,32.412563945,-93.8024209499999,289,"2801 MACKEY LANE, SHREVEPORT, LA, 71118","Match","Exact","2801 MACKEY LN, SHREVEPORT, LA, 71118",647890375,"L"
446290,"2801 MADRID LANE","ANTIOCH","CA",94509,37.997630272,-121.83840953,290,"2801 MADRID LANE, ANTIOCH, CA, 94509","Match","Exact","2801 MADRID LN, ANTIOCH, CA, 94509",192067516,"R"
446291,"2801 MAIN ST 427","IRVINE","CA",92614,33.6806415940001,-117.839366895,291,"2801 MAIN ST 427, IRVINE, CA, 92614","Match","Exact","2801 MAIN ST, IRVINE, CA, 92614",641556385,"L"
446292,"2801 MARGOTS AVE","WAKE FOREST","NC",27587,35.933206328,-78.5262630509999,292,"2801 MARGOTS AVE, WAKE FOREST, NC, 27587","Match","Non_Exact","2801 MARGOT'S AVE, WAKE FOREST, NC, 27587",634097074,"L"
446293,"2801 MARTHAS LANE","STEVENS POINT","WI",54481,44.5092734890001,-89.5608640249999,293,"2801 MARTHAS LANE, STEVENS POINT, WI, 54481","Match","Exact","2801 MARTHAS LN, STEVENS POINT, WI, 54481",126795206,"R"
446294,"2801 MARTIN LUTHER DRIVE","FORT WAYNE","IN",46825,41.1346992220001,-85.106541092,294,"2801 MARTIN LUTHER DRIVE, FORT WAYNE, IN, 46825","Match","Exact","2801 MARTIN LUTHER DR, FORT WAYNE, IN, 46825",646576190,"L"
446295,"2801 MCCANLESS RD","NOLENSVILLE","TN",37135,35.8865833930001,-86.656064266,295,"2801 MCCANLESS RD, NOLENSVILLE, TN, 37135","Match","Exact","2801 MCCANLESS RD, NOLENSVILLE, TN, 37135",649259392,"R"
446296,"2801 MELINA DR","YUKON","OK",73099,35.436849624,-97.689917243,296,"2801 MELINA DR, YUKON, OK, 73099","Match","Exact","2801 MELINA DR, YUKON, OK, 73099",623834659,"R"
446297,"2801 MELINS ROCK LANE","LEWISVILLE","TX",75056,NA,NA,297,"2801 MELINS ROCK LANE, LEWISVILLE, TX, 75056","No_Match",NA,NA,NA,NA
446298,"2801 MILLBROOK RD","LITTLE ROCK","AR",72227,34.7783923550001,-92.381891789,298,"2801 MILLBROOK RD, LITTLE ROCK, AR, 72227","Match","Exact","2801 MILLBROOK RD, LITTLE ROCK, AR, 72227",83500367,"R"
446299,"2801 MILTON","DALLAS","TX",75205,32.8488672240001,-96.775347434,299,"2801 MILTON, DALLAS, TX, 75205","Match","Non_Exact","2801 MILTON AVE, DALLAS, TX, 75205",102907503,"L"
446300,"2801 MISSOURI AVENUE SUITE 7 E","LAS CRUCES","NM",88011,32.2996959720001,-106.738132952,300,"2801 MISSOURI AVENUE SUITE 7 E, LAS CRUCES, NM, 88011","Match","Exact","2801 MISSOURI AVE, LAS CRUCES, NM, 88011",612727880,"L"
446301,"2801 MISTY WATERS DRIVE/ APT 35","DECATUR","GA",30032,33.718605547,-84.274821152,301,"2801 MISTY WATERS DRIVE/ APT 35, DECATUR, GA, 30032","Match","Non_Exact","2801 MISTY WATERS DR, DECATUR, GA, 30032",645264504,"R"
446302,"2801 MORTON ROAD","RALEIGH","NC",27604,35.8220906020001,-78.600434768,302,"2801 MORTON ROAD, RALEIGH, NC, 27604","Match","Exact","2801 MORTON RD, RALEIGH, NC, 27604",72508101,"L"
446303,"2801 MURIEL CT SE","LACEY","WA",98503,47.0225505130001,-122.824453659,303,"2801 MURIEL CT SE, LACEY, WA, 98503","Match","Exact","2801 MURIEL CT SE, LACEY, WA, 98503",180970934,"R"
446304,"2801 N 930 W LOT 6","DELPHI","IN",46923,40.5910600510001,-86.706584009,304,"2801 N 930 W LOT 6, DELPHI, IN, 46923","Match","Non_Exact","2801 N 930 W, DELPHI, IN, 46923",27049568,"R"
446305,"2801 N BREMEN ST","MILWAUKEE","WI",53212,43.069439511,-87.900342192,305,"2801 N BREMEN ST, MILWAUKEE, WI, 53212","Match","Exact","2801 N BREMEN ST, MILWAUKEE, WI, 53212",77743571,"L"
446306,"2801 N COLONIAL DR","MILWAUKEE","WI",53222,43.06948307,-88.033800523,306,"2801 N COLONIAL DR, MILWAUKEE, WI, 53222","Match","Exact","2801 N COLONIAL DR, MILWAUKEE, WI, 53222",77728253,"L"
446307,"2801 N COLONIAL","MILWAUKEE","WI",53222,43.06948307,-88.033800523,307,"2801 N COLONIAL, MILWAUKEE, WI, 53222","Match","Non_Exact","2801 N COLONIAL DR, MILWAUKEE, WI, 53222",77728253,"L"
446308,"2801 N MONROE","SPOKANE","WA",99205,47.683124037,-117.426648569,308,"2801 N MONROE, SPOKANE, WA, 99205","Match","Non_Exact","2801 N MONROE ST, SPOKANE, WA, 99205",605653531,"L"
446309,"2801 N RAINBOW BLVD APT 250","LAS VEGAS","NV",89108,36.2109552570001,-115.242272012,309,"2801 N RAINBOW BLVD APT 250, LAS VEGAS, NV, 89108","Match","Non_Exact","2801 N RAINBOW BLVD, LAS VEGAS, NV, 89108",201945655,"L"
446310,"2801 N ROCK RD NO 2106","WICHITA","KS",67226,NA,NA,310,"2801 N ROCK RD NO 2106, WICHITA, KS, 67226","No_Match",NA,NA,NA,NA
446311,"2801 N SAWYER APT 113","CHICAGO","IL",60618,NA,NA,311,"2801 N SAWYER APT 113, CHICAGO, IL, 60618","No_Match",NA,NA,NA,NA
446312,"2801 N THIRD ST","SAINT AUGUSTINE","FL",32084,29.9167507350001,-81.3504798499999,312,"2801 N THIRD ST, SAINT AUGUSTINE, FL, 32084","Match","Exact","2801 N 3RD ST, SAINT AUGUSTINE, FL, 32084",639360001,"L"
446313,"2801 N VINE","MCALESTER","OK",74501,34.956675714,-95.756864652,313,"2801 N VINE, MCALESTER, OK, 74501","Match","Non_Exact","2801 N VINE ST, MCALESTER, OK, 74501",647427161,"L"
446314,"2801 NE 145TH CIR","VANCOUVER","WA",98686,45.726112936,-122.642341013,314,"2801 NE 145TH CIR, VANCOUVER, WA, 98686","Match","Exact","2801 NE 145TH CIR, VANCOUVER, WA, 98686",624755597,"R"
446315,"2801 NE 77TH STREET","SEATTLE","WA",98115,47.684851286,-122.297199775,315,"2801 NE 77TH STREET, SEATTLE, WA, 98115","Match","Exact","2801 NE 77TH ST, SEATTLE, WA, 98115",187060460,"R"
446316,"2801 NESMITH ESTATE LANE","PLANT CITY","FL",33566,NA,NA,316,"2801 NESMITH ESTATE LANE, PLANT CITY, FL, 33566","No_Match",NA,NA,NA,NA
446317,"2801 NESMITH ESTATES LANE","PLANT CITY","FL",33566,27.970798363,-82.075058585,317,"2801 NESMITH ESTATES LANE, PLANT CITY, FL, 33566","Match","Non_Exact","2801 NESMITH ESTATES DR, PLANT CITY, FL, 33566",624502230,"L"
446318,"2801 NEW MEXICO AVE NW 1122","WASHINGTON","DC",20007,38.9260581090001,-77.08131186,318,"2801 NEW MEXICO AVE NW 1122, WASHINGTON, DC, 20007","Match","Non_Exact","2801 NEW MEXICO AVE NW, WASHINGTON, DC, 20007",76220160,"R"
446319,"2801 NEW MEXICO AVENUE NW","WASHINGTON","DC",20007,38.9260581090001,-77.08131186,319,"2801 NEW MEXICO AVENUE NW, WASHINGTON, DC, 20007","Match","Exact","2801 NEW MEXICO AVE NW, WASHINGTON, DC, 20007",76220160,"R"
446320,"2801 NORTH 25TH STREET","PHILADELPHIA","PA",19132,39.9979459560001,-75.1719647049999,320,"2801 NORTH 25TH STREET, PHILADELPHIA, PA, 19132","Match","Exact","2801 N 25TH ST, PHILADELPHIA, PA, 19132",131402552,"R"
446321,"2801 NORTH IZABEL","FLAGSTAFF","AZ",86004,35.214583754,-111.622498405,321,"2801 NORTH IZABEL, FLAGSTAFF, AZ, 86004","Match","Non_Exact","2801 N IZABEL ST, FLAGSTAFF, AZ, 86004",188864343,"L"
446322,"2801 NW 168 TER","MIAMI GARDENS","FL",33056,25.9277789600001,-80.246823166,322,"2801 NW 168 TER, MIAMI GARDENS, FL, 33056","Match","Exact","2801 NW 168TH TER, MIAMI GARDENS, FL, 33056",116028152,"R"
446323,"2801 NW 170TH STREET","EDMOND","OK",73012,35.645484552,-97.5649658629999,323,"2801 NW 170TH STREET, EDMOND, OK, 73012","Match","Exact","2801 NW 170TH ST, EDMOND, OK, 73012",606076837,"R"
446324,"2801 NW 23RD BLVD APT J66","GAINESVILLE","FL",32605,29.6773650440001,-82.3486357799999,324,"2801 NW 23RD BLVD APT J66, GAINESVILLE, FL, 32605","Match","Non_Exact","2801 NW 23RD BLVD, GAINESVILLE, FL, 32605",6877752,"R"
446325,"2801 NW 23RD BLVD L77","GAINESVILLE","FL",32605,29.6773650440001,-82.3486357799999,325,"2801 NW 23RD BLVD L77, GAINESVILLE, FL, 32605","Match","Non_Exact","2801 NW 23RD BLVD, GAINESVILLE, FL, 32605",6877752,"R"
446326,"2801 NW 23RD BLVD UNIT 158","GAINESVILLE","FL",32605,29.6773650440001,-82.3486357799999,326,"2801 NW 23RD BLVD UNIT 158, GAINESVILLE, FL, 32605","Match","Non_Exact","2801 NW 23RD BLVD, GAINESVILLE, FL, 32605",6877752,"R"
446327,"2801 NW 29TH TERRACE","MIAMI GARDENS","FL",33056,25.964336883,-80.2500314499999,327,"2801 NW 29TH TERRACE, MIAMI GARDENS, FL, 33056","Match","Non_Exact","2801 NW 29TH AVE, MIAMI GARDENS, FL, 33056",116026093,"R"
446328,"2801 OAKTON MANOR COURT","OAKTON","VA",22124,38.8846432490001,-77.298967857,328,"2801 OAKTON MANOR COURT, OAKTON, VA, 22124","Match","Exact","2801 OAKTON MANOR CT, OAKTON, VA, 22124",215919434,"L"
446329,"2801 OCEAN PARK BLVD 191","SANTA MONICA","CA",90405,34.018886459,-118.455648838,329,"2801 OCEAN PARK BLVD 191, SANTA MONICA, CA, 90405","Match","Exact","2801 OCEAN PARK BLVD, SANTA MONICA, CA, 90405",640115028,"L"
446330,"2801 OCEAN PARK BLVD UNIT 231","SANTA MONICA","CA",90405,34.018886459,-118.455648838,330,"2801 OCEAN PARK BLVD UNIT 231, SANTA MONICA, CA, 90405","Match","Exact","2801 OCEAN PARK BLVD, SANTA MONICA, CA, 90405",640115028,"L"
446331,"2801 OLD IDA RD","WHITEWRIGHT","TX",75491,33.5744828740001,-96.490000002,331,"2801 OLD IDA RD, WHITEWRIGHT, TX, 75491","Match","Exact","2801 OLD IDA RD, WHITEWRIGHT, TX, 75491",63349686,"L"
446332,"2801 OLD OGLETOWN RD","NEWARK","DE",19713,NA,NA,332,"2801 OLD OGLETOWN RD, NEWARK, DE, 19713","Tie",NA,NA,NA,NA
446333,"2801 OLIVIA STREET","ALBANY","GA",31705,NA,NA,333,"2801 OLIVIA STREET, ALBANY, GA, 31705","No_Match",NA,NA,NA,NA
446334,"2801 OSAGE","PARSONS","KS",67357,37.358692202,-95.2802992269999,334,"2801 OSAGE, PARSONS, KS, 67357","Match","Non_Exact","2801 OSAGE ST, PARSONS, KS, 67357",13733463,"R"
446335,"2801 OSLER DRIVE SUITE 120","GRAND PRAIRIE","TX",75051,32.7319207800001,-97.0514909569999,335,"2801 OSLER DRIVE SUITE 120, GRAND PRAIRIE, TX, 75051","Match","Exact","2801 OSLER DR, GRAND PRAIRIE, TX, 75051",102120717,"R"
446336,"2801 PARK CENTER DR APT 8302","ALEXANDRIA","VA",22302,38.834715708,-77.103215517,336,"2801 PARK CENTER DR APT 8302, ALEXANDRIA, VA, 22302","Match","Exact","2801 PARK CENTER DR, ALEXANDRIA, VA, 22302",75986734,"R"
446337,"2801 PARK CENTER DR APT1703","ALEXANDRIA","VA",22302,38.834715708,-77.103215517,337,"2801 PARK CENTER DR APT1703, ALEXANDRIA, VA, 22302","Match","Exact","2801 PARK CENTER DR, ALEXANDRIA, VA, 22302",75986734,"R"
446338,"2801 PARK COLONY DRIVE","NORCROSS","GA",30093,33.896391699,-84.207857011,338,"2801 PARK COLONY DRIVE, NORCROSS, GA, 30093","Match","Exact","2801 PARK COLONY DR, NORCROSS, GA, 30093",88949597,"R"
446339,"2801 PARK PLACE WEST","CAIRO","IL",62914,37.0086562010001,-89.1862298629999,339,"2801 PARK PLACE WEST, CAIRO, IL, 62914","Match","Exact","2801 PARK PL W, CAIRO, IL, 62914",66119339,"L"
446340,"2801 PARKWOOD","SAGINAW","MI",48601,43.4012813460001,-83.9398064919999,340,"2801 PARKWOOD, SAGINAW, MI, 48601","Match","Non_Exact","2801 PARKWOOD AVE, SAGINAW, MI, 48601",80216022,"R"
446341,"2801 PATRIOT WAY","NASHVILLE","TN",37214,36.150260831,-86.664494409,341,"2801 PATRIOT WAY, NASHVILLE, TN, 37214","Match","Exact","2801 PATRIOT WAY, NASHVILLE, TN, 37214",97196070,"R"
446342,"2801 PENBROOK AVE","HARRISBURG","PA",17103,40.2805435290001,-76.847008049,342,"2801 PENBROOK AVE, HARRISBURG, PA, 17103","Match","Exact","2801 PENBROOK AVE, HARRISBURG, PA, 17103",608437801,"R"
446343,"2801 PIPER GLENN COURT","SOUTHBRIDGE","VA",22026,38.559683072,-77.298574588,343,"2801 PIPER GLENN COURT, SOUTHBRIDGE, VA, 22026","Match","Exact","2801 PIPER GLENN CT, SOUTHBRIDGE, VA, 22026",619955461,"R"
446344,"2801 PLYMOUTH DR","MOBILE","AL",36618,30.7476378480001,-88.205893025,344,"2801 PLYMOUTH DR, MOBILE, AL, 36618","Match","Exact","2801 PLYMOUTH DR, MOBILE, AL, 36618",61846567,"R"
446345,"2801 POND PLACE","BRONX","NY",10458,40.867365358,-73.888284437,345,"2801 POND PLACE, BRONX, NY, 10458","Match","Exact","2801 POND PL, BRONX, NY, 10458",80298902,"L"
446346,"2801 PRAIRIE AVENUE","MIAMI BEACH","FL",33140,25.803826234,-80.13246802,346,"2801 PRAIRIE AVENUE, MIAMI BEACH, FL, 33140","Match","Exact","2801 PRAIRIE AVE, MIAMI BEACH, FL, 33140",116009001,"R"
446347,"2801 PRESCOTT LANE","SEAGOVILLE","TX",75159,32.677777824,-96.5690280329999,347,"2801 PRESCOTT LANE, SEAGOVILLE, TX, 75159","Match","Exact","2801 PRESCOTT LN, SEAGOVILLE, TX, 75159",103191632,"R"
446348,"2801 QUEBEC ST NW APT 246","WASHINGTON","DC",20008,38.936888949,-77.0547561829999,348,"2801 QUEBEC ST NW APT 246, WASHINGTON, DC, 20008","Match","Exact","2801 QUEBEC ST NW, WASHINGTON, DC, 20008",648823664,"R"
446349,"2801 QUEBEC ST NW","WASHINGTON","DC",20008,38.936888949,-77.0547561829999,349,"2801 QUEBEC ST NW, WASHINGTON, DC, 20008","Match","Exact","2801 QUEBEC ST NW, WASHINGTON, DC, 20008",648823664,"R"
446350,"2801 QUEBEC STREET NW","WASHINGTON","DC",20008,38.936888949,-77.0547561829999,350,"2801 QUEBEC STREET NW, WASHINGTON, DC, 20008","Match","Exact","2801 QUEBEC ST NW, WASHINGTON, DC, 20008",648823664,"R"
446351,"2801 RACE ST","FORT WORTH","TX",76111,32.7731495900001,-97.306184582,351,"2801 RACE ST, FORT WORTH, TX, 76111","Match","Exact","2801 RACE ST, FORT WORTH, TX, 76111",101858959,"L"
446352,"2801 RANCH ROAD 12","SAN MARCOS","TX",78666,29.903731341,-97.992452817,352,"2801 RANCH ROAD 12, SAN MARCOS, TX, 78666","Match","Exact","2801 RANCH RD 12, SAN MARCOS, TX, 78666",651096540,"L"
446353,"2801 RANDOLPH ROAD SUITE 200","CHARLOTTE","NC",28211,35.199439845,-80.812393444,353,"2801 RANDOLPH ROAD SUITE 200, CHARLOTTE, NC, 28211","Match","Exact","2801 RANDOLPH RD, CHARLOTTE, NC, 28211",70488809,"L"
446354,"2801 REBECCA DR","SINKING SPRING","PA",19608,40.309994583,-76.0110980429999,354,"2801 REBECCA DR, SINKING SPRING, PA, 19608","Match","Exact","2801 REBECCA DR, SINKING SPRING, PA, 19608",636355479,"R"
446355,"2801 REID STREET","WINSTON SALEM","NC",27107,36.0771726770001,-80.185545647,355,"2801 REID STREET, WINSTON SALEM, NC, 27107","Match","Exact","2801 REID ST, WINSTON SALEM, NC, 27107",84614423,"L"
446356,"2801 REYNOLDA CIRCLE","DURHAM","NC",27712,36.068622055,-78.937606284,356,"2801 REYNOLDA CIRCLE, DURHAM, NC, 27712","Match","Exact","2801 REYNOLDA CIR, DURHAM, NC, 27712",618113072,"L"
446357,"2801 REYNOLDS RD","STEWARD","IL",60553,41.832224911,-89.092256506,357,"2801 REYNOLDS RD, STEWARD, IL, 60553","Match","Exact","2801 REYNOLDS RD, STEWARD, IL, 60553",639205409,"R"
446358,"2801 RICHMAOND RD  STE 132","TEXARKANA","AR",75503,NA,NA,358,"2801 RICHMAOND RD  STE 132, TEXARKANA, AR, 75503","No_Match",NA,NA,NA,NA
446359,"2801 RICHMOND ROAD SUITE 311","TEXARKANA","TX",75503,33.4618811940001,-94.0921425129999,359,"2801 RICHMOND ROAD SUITE 311, TEXARKANA, TX, 75503","Match","Exact","2801 RICHMOND RD, TEXARKANA, TX, 75503",653529466,"L"
446360,"2801 RIVERVIEW ROAD APT 2111","BIRMINGHAM","AL",35242,33.426557572,-86.717573165,360,"2801 RIVERVIEW ROAD APT 2111, BIRMINGHAM, AL, 35242","Match","Exact","2801 RIVERVIEW RD, BIRMINGHAM, AL, 35242",623721356,"R"
446361,"2801 RIVERVIEW ROAD","BIRMINGHAM","AL",35242,33.426557572,-86.717573165,361,"2801 RIVERVIEW ROAD, BIRMINGHAM, AL, 35242","Match","Exact","2801 RIVERVIEW RD, BIRMINGHAM, AL, 35242",623721356,"R"
446362,"2801 ROANOKE RIDGE ROAD","BARTLESVILLE","OK",74006,36.7070174290001,-95.93926312,362,"2801 ROANOKE RIDGE ROAD, BARTLESVILLE, OK, 74006","Match","Exact","2801 ROANOKE RIDGE RD, BARTLESVILLE, OK, 74006",18716349,"L"
446363,"2801 RUTFORD AVENUE BOX 97","RICHARDSON","TX",75080,32.989270522,-96.750982546,363,"2801 RUTFORD AVENUE BOX 97, RICHARDSON, TX, 75080","Match","Exact","2801 RUTFORD AVE, RICHARDSON, TX, 75080",650412116,"L"
446364,"2801 RYDER DR","YUKON","OK",73099,35.437282425,-97.701410127,364,"2801 RYDER DR, YUKON, OK, 73099","Match","Exact","2801 RYDER DR, YUKON, OK, 73099",646290997,"R"
446365,"2801 S 15TH ST","SHEBOYGAN","WI",53081,43.7249416440001,-87.7247863649999,365,"2801 S 15TH ST, SHEBOYGAN, WI, 53081","Match","Exact","2801 S 15TH ST, SHEBOYGAN, WI, 53081",79497487,"L"
446366,"2801 S 29TH ST","ST JOSEPH","MO",64503,39.73980105,-94.822223913,366,"2801 S 29TH ST, ST JOSEPH, MO, 64503","Match","Exact","2801 S 29TH ST, SAINT JOSEPH, MO, 64503",15974669,"L"
446367,"2801 S BAY STREET","EUSTIS","FL",32726,28.827685264,-81.6854425779999,367,"2801 S BAY STREET, EUSTIS, FL, 32726","Match","Exact","2801 S BAY ST, EUSTIS, FL, 32726",636335610,"L"
446368,"2801 S BRAHMA BLD","KINGSVILLE","TX",78363,NA,NA,368,"2801 S BRAHMA BLD, KINGSVILLE, TX, 78363","No_Match",NA,NA,NA,NA
446369,"2801 S CABARNET CT","COLUMBIA","MO",65201,38.9167863380001,-92.1799006369999,369,"2801 S CABARNET CT, COLUMBIA, MO, 65201","Match","Non_Exact","2801 S CABERNET CT, COLUMBIA, MO, 65201",23490114,"L"
446370,"2801 S ELEANOR","CHICAGO","IL",60608,41.8438083980001,-87.661662475,370,"2801 S ELEANOR, CHICAGO, IL, 60608","Match","Non_Exact","2801 S ELEANOR ST, CHICAGO, IL, 60608",605509144,"L"
446371,"2801 S FEDERAL HIGHWAY  22801","FT LAUDERDALE","FL",33316,NA,NA,371,"2801 S FEDERAL HIGHWAY  22801, FT LAUDERDALE, FL, 33316","No_Match",NA,NA,NA,NA
446372,"2801 S FEDERAL HWY BOX 22062","FORT LAUDERDALE","FL",33316,NA,NA,372,"2801 S FEDERAL HWY BOX 22062, FORT LAUDERDALE, FL, 33316","No_Match",NA,NA,NA,NA
446373,"2801 S FOREST HILL ROAD","SAINT JOHNS","MI",48879,42.9757084240001,-84.6754310589999,373,"2801 S FOREST HILL ROAD, SAINT JOHNS, MI, 48879","Match","Exact","2801 S FOREST HILL RD, SAINT JOHNS, MI, 48879",17308036,"R"
446374,"2801 S HANFORD ST STE A","SEATTLE","WA",98144,47.5745679710001,-122.296603467,374,"2801 S HANFORD ST STE A, SEATTLE, WA, 98144","Match","Non_Exact","2801 S HANFORD ST, SEATTLE, WA, 98144",187081791,"R"
446375,"2801 S KANNER HIGHWAY","STUART","FL",34994,27.1705342450001,-80.251891281,375,"2801 S KANNER HIGHWAY, STUART, FL, 34994","Match","Exact","2801 S KANNER HWY, STUART, FL, 34994",120430163,"R"
446376,"2801 S KING DR APT 118","CHICAGO","IL",60616,NA,NA,376,"2801 S KING DR APT 118, CHICAGO, IL, 60616","No_Match",NA,NA,NA,NA
446377,"2801 S KING DR","CHICAGO","IL",60616,NA,NA,377,"2801 S KING DR, CHICAGO, IL, 60616","No_Match",NA,NA,NA,NA
446378,"2801 S KING DRIVE","CHICAGO","IL",60616,NA,NA,378,"2801 S KING DRIVE, CHICAGO, IL, 60616","No_Match",NA,NA,NA,NA
446379,"2801 S LAKELINE BLVD APT 7311","CEDAR PARK","TX",78613,30.4753924980001,-97.810484423,379,"2801 S LAKELINE BLVD APT 7311, CEDAR PARK, TX, 78613","Match","Non_Exact","2801 S LAKELINE BLVD, CEDAR PARK, TX, 78613",641005963,"L"
446380,"2801 S MONTANA ST","BUTTE","MT",59701,45.982160422,-112.538943665,380,"2801 S MONTANA ST, BUTTE, MT, 59701","Match","Exact","2801 S MONTANA ST, BUTTE, MT, 59701",153592263,"L"
446381,"2801 S STATE ST","SPRINGFIELD","IL",62704,39.7688924810001,-89.666993872,381,"2801 S STATE ST, SPRINGFIELD, IL, 62704","Match","Exact","2801 S STATE ST, SPRINGFIELD, IL, 62704",644837971,"L"
446382,"2801 S UNIVERSITY AVE","LITTLE ROCK","AR",72204,34.7264867700001,-92.341865089,382,"2801 S UNIVERSITY AVE, LITTLE ROCK, AR, 72204","Match","Exact","2801 S UNIVERSITY AVE, LITTLE ROCK, AR, 72204",640160812,"L"
446383,"2801 S UNIVERSITY","LITTLE ROCK","AR",72204,34.7264867700001,-92.341865089,383,"2801 S UNIVERSITY, LITTLE ROCK, AR, 72204","Match","Non_Exact","2801 S UNIVERSITY AVE, LITTLE ROCK, AR, 72204",640160812,"L"
446384,"2801 S VALLEY VIEW BLVD STE 16","LAS VEGAS","NV",89102,36.1399082670001,-115.190617515,384,"2801 S VALLEY VIEW BLVD STE 16, LAS VEGAS, NV, 89102","Match","Non_Exact","2801 S VALLEY VIEW BLVD, LAS VEGAS, NV, 89102",624523991,"R"
446385,"2801 S WASHINGTON","MARION","IN",46953,40.535746456,-85.6598327839999,385,"2801 S WASHINGTON, MARION, IN, 46953","Match","Non_Exact","2801 S WASHINGTON ST, MARION, IN, 46953",95009587,"L"
446386,"2801 SABERCAT AVE APT 3","EDINBURG","TX",78542,26.2716580640001,-98.138147836,386,"2801 SABERCAT AVE APT 3, EDINBURG, TX, 78542","Match","Exact","2801 SABERCAT AVE, EDINBURG, TX, 78542",651817120,"R"
446387,"2801 SALZEDO STREET","CORAL GABLES","FL",33134,25.74619418,-80.260533013,387,"2801 SALZEDO STREET, CORAL GABLES, FL, 33134","Match","Exact","2801 SALZEDO ST, CORAL GABLES, FL, 33134",116013053,"L"
446388,"2801 SAWGRASS LP","RICHLAND","WA",99354,46.322199342,-119.324574056,388,"2801 SAWGRASS LP, RICHLAND, WA, 99354","Match","Exact","2801 SAWGRASS LOOP, RICHLAND, WA, 99354",606991419,"R"
446389,"2801 SEGOVIA STREET","CORAL GABLES","FL",33134,25.7454793370001,-80.266596454,389,"2801 SEGOVIA STREET, CORAL GABLES, FL, 33134","Match","Exact","2801 SEGOVIA ST, CORAL GABLES, FL, 33134",116012938,"L"
446390,"2801 SHADOW WOOD CT","KISSIMMEE","FL",34746,28.216335261,-81.4380444619999,390,"2801 SHADOW WOOD CT, KISSIMMEE, FL, 34746","Match","Exact","2801 SHADOW WOOD CT, KISSIMMEE, FL, 34746",176663404,"R"
446391,"2801 SHELBYVILLE ROAD","SHELBYVILLE","KY",40065,38.2168064050001,-85.2703008299999,391,"2801 SHELBYVILLE ROAD, SHELBYVILLE, KY, 40065","Match","Exact","2801 SHELBYVILLE RD, SHELBYVILLE, KY, 40065",97085682,"R"
446392,"2801 SLIDE ROAD APT 52","LUBBOCK","TX",79407,NA,NA,392,"2801 SLIDE ROAD APT 52, LUBBOCK, TX, 79407","No_Match",NA,NA,NA,NA
446393,"2801 SOMBRERO BLVD","MARATHON","FL",33050,24.705464879,-81.083888219,393,"2801 SOMBRERO BLVD, MARATHON, FL, 33050","Match","Exact","2801 SOMBRERO BLVD, MARATHON, FL, 33050",116473584,"R"
446394,"2801 SOUTH 53RD","LINCOLN","NE",68506,40.783816788,-96.646711363,394,"2801 SOUTH 53RD, LINCOLN, NE, 68506","Match","Non_Exact","2801 S 53RD ST, LINCOLN, NE, 68506",28260496,"R"
446395,"2801 SOUTH ANTHONY BLVD","FORT WAYNE","IN",46806,41.059866357,-85.11391493,395,"2801 SOUTH ANTHONY BLVD, FORT WAYNE, IN, 46806","Match","Exact","2801 S ANTHONY BLVD, FORT WAYNE, IN, 46806",6383234,"L"
446396,"2801 SOUTHFIELD DR","QUINCY","IL",62301,39.9049584700001,-91.371090613,396,"2801 SOUTHFIELD DR, QUINCY, IL, 62301","Match","Exact","2801 SOUTHFIELD DR, QUINCY, IL, 62301",35067628,"R"
446397,"2801 SPAIN BRIDGE ROAD","BELGRADE","MT",59714,45.7806486870001,-111.113214839,397,"2801 SPAIN BRIDGE ROAD, BELGRADE, MT, 59714","Match","Exact","2801 SPAIN BRIDGE RD, BELGRADE, MT, 59714",626855006,"L"
446398,"2801 ST ANTHONY BLVD","ST ANTHONY","MN",55418,45.0188672090001,-93.220673289,398,"2801 ST ANTHONY BLVD, ST ANTHONY, MN, 55418","Match","Non_Exact","2801 SAINT ANTHONY PKWY, SAINT ANTHONY, MN, 55418",43637664,"L"
446399,"2801 STEPLES AVENUE","KEY WEST","FL",33040,24.5604923060001,-81.7704750089999,399,"2801 STEPLES AVENUE, KEY WEST, FL, 33040","Match","Non_Exact","2801 STAPLES AVE, KEY WEST, FL, 33040",116475556,"L"
446400,"2801 SUNRISE PROMENADE","MISSOULA","MT",59801,46.8432194280001,-114.020780178,400,"2801 SUNRISE PROMENADE, MISSOULA, MT, 59801","Match","Exact","2801 SUNRISE PROMENADE, MISSOULA, MT, 59801",205316949,"R"
446401,"2801 SUNSET BOULEVARD","MINNEAPOLIS","MN",55416,44.9509715780001,-93.326602336,401,"2801 SUNSET BOULEVARD, MINNEAPOLIS, MN, 55416","Match","Exact","2801 SUNSET BLVD, MINNEAPOLIS, MN, 55416",640358052,"L"
446402,"2801 SUSQUEHANNOCK CIRCLE","ODENTON","MD",21113,39.0568988790001,-76.715161719,402,"2801 SUSQUEHANNOCK CIRCLE, ODENTON, MD, 21113","Match","Exact","2801 SUSQUEHANNOCK CIR, ODENTON, MD, 21113",68214775,"L"
446403,"2801 SW 15TH ST","OCALA","FL",34474,29.173734902,-82.170038942,403,"2801 SW 15TH ST, OCALA, FL, 34474","Match","Non_Exact","2801 SW 15TH ST, OCALA, FL, 34474",116726003,"R"
446404,"2801 SW 31ST AVENUE SUITE 2B","MIAMI","FL",33133,25.739026304,-80.243943434,404,"2801 SW 31ST AVENUE SUITE 2B, MIAMI, FL, 33133","Match","Non_Exact","2801 SW 31ST AVE, MIAMI, FL, 33133",116014536,"L"
446405,"2801 TAMARA CT","MINDEN","NV",89423,39.0415814630001,-119.775148945,405,"2801 TAMARA CT, MINDEN, NV, 89423","Match","Exact","2801 TAMARA CT, MINDEN, NV, 89423",173742693,"R"
446406,"2801 TONBRIDGE DRIVE","WILMINGTON","DE",19810,NA,NA,406,"2801 TONBRIDGE DRIVE, WILMINGTON, DE, 19810","No_Match",NA,NA,NA,NA
446407,"2801 TOPAZ WAY","TALLAHASSEE","FL",32309,30.5043032180001,-84.129921161,407,"2801 TOPAZ WAY, TALLAHASSEE, FL, 32309","Match","Exact","2801 TOPAZ WAY, TALLAHASSEE, FL, 32309",618811817,"L"
446408,"2801 UNIVERSITY AVE","SAN DIEGO","CA",92104,32.7484565340001,-117.134084926,408,"2801 UNIVERSITY AVE, SAN DIEGO, CA, 92104","Match","Exact","2801 UNIVERSITY AVE, SAN DIEGO, CA, 92104",612889895,"R"
446409,"2801 VALLEY DRIVE","ALEXANDRIA","VA",22302,38.829561201,-77.079405375,409,"2801 VALLEY DRIVE, ALEXANDRIA, VA, 22302","Match","Exact","2801 VALLEY DR, ALEXANDRIA, VA, 22302",75987378,"R"
446410,"2801 VIA BLANCO","SAN CLEMENTE","CA",92673,33.461441522,-117.623704965,410,"2801 VIA BLANCO, SAN CLEMENTE, CA, 92673","Match","Exact","2801 VIA BLANCO, SAN CLEMENTE, CA, 92673",144118640,"L"
446411,"2801 VIRGINIA AVENUE SOUTH","SAINT LOUIS PARK","MN",55426,44.952701237,-93.382221919,411,"2801 VIRGINIA AVENUE SOUTH, SAINT LOUIS PARK, MN, 55426","Match","Exact","2801 VIRGINIA AVE S, SAINT LOUIS PARK, MN, 55426",43665232,"L"
446412,"2801 W 31ST ST","SIOUX FALLS","SD",57105,43.5253022100001,-96.759642689,412,"2801 W 31ST ST, SIOUX FALLS, SD, 57105","Match","Exact","2801 W 31ST ST, SIOUX FALLS, SD, 57105",34971470,"L"
446413,"2801 W 36TH STR","CHICAGO","IL",60632,41.828269366,-87.694810586,413,"2801 W 36TH STR, CHICAGO, IL, 60632","Match","Exact","2801 W 36TH ST, CHICAGO, IL, 60632",605589398,"L"
446414,"2801 W 50TH PLACE","MERRIVILLE","IN",46410,NA,NA,414,"2801 W 50TH PLACE, MERRIVILLE, IN, 46410","No_Match",NA,NA,NA,NA
446415,"2801 W 90TH ST","SIOUX FALLS","SD",57108,43.4702087310001,-96.757909148,415,"2801 W 90TH ST, SIOUX FALLS, SD, 57108","Match","Exact","2801 90TH ST, SIOUX FALLS, SD, 57108",625114529,"R"
446416,"2801 W BANCROFT  STREET","TOLEDO","OH",43606,41.663094287,-83.612075271,416,"2801 W BANCROFT  STREET, TOLEDO, OH, 43606","Match","Non_Exact","2801 W BANCROFT ST, TOLEDO, OH, 43606",33935471,"L"
446417,"2801 W BANCROFT MS461","TOLEDO","OH",43606,NA,NA,417,"2801 W BANCROFT MS461, TOLEDO, OH, 43606","No_Match",NA,NA,NA,NA
446418,"2801 W BANCROFT ST MS 601 WO4276A","TOLEDO","OH",43606,41.663094287,-83.612075271,418,"2801 W BANCROFT ST MS 601 WO4276A, TOLEDO, OH, 43606","Match","Non_Exact","2801 W BANCROFT ST, TOLEDO, OH, 43606",33935471,"L"
446419,"2801 W BANCROFT ST","TOLEDO","OH",43606,41.663094287,-83.612075271,419,"2801 W BANCROFT ST, TOLEDO, OH, 43606","Match","Non_Exact","2801 W BANCROFT ST, TOLEDO, OH, 43606",33935471,"L"
446420,"2801 W BANCROFT STREET","TOLEDO","OH",43606,41.663094287,-83.612075271,420,"2801 W BANCROFT STREET, TOLEDO, OH, 43606","Match","Non_Exact","2801 W BANCROFT ST, TOLEDO, OH, 43606",33935471,"L"
446421,"2801 W BROADWAY C2","COLUMBIA","MO",65203,38.954599607,-92.379573966,421,"2801 W BROADWAY C2, COLUMBIA, MO, 65203","Match","Non_Exact","2801 W BROADWAY, COLUMBIA, MO, 65203",23487237,"R"
446422,"2801 W BROADWAY UNIT M1","COLUMBIA","MO",65203,38.954599607,-92.379573966,422,"2801 W BROADWAY UNIT M1, COLUMBIA, MO, 65203","Match","Non_Exact","2801 W BROADWAY, COLUMBIA, MO, 65203",23487237,"R"
446423,"2801 W CALLE DE DALIAS","TUCSON","AZ",85745,32.2391000810001,-111.026976768,423,"2801 W CALLE DE DALIAS, TUCSON, AZ, 85745","Match","Non_Exact","2801 W CLL DE DALIAS, TUCSON, AZ, 85745",606810114,"R"
446424,"2801 W FARMINGTON RD","WEST PEORIA","IL",61604,40.704393886,-89.6369960759999,424,"2801 W FARMINGTON RD, WEST PEORIA, IL, 61604","Match","Non_Exact","2801 W FARMINGTON RD, WEST PEORIA, IL, 61604",8714838,"R"
446425,"2801 W FARMINGTON ROAD","PEORIA","IL",61604,40.704393886,-89.6369960759999,425,"2801 W FARMINGTON ROAD, PEORIA, IL, 61604","Match","Exact","2801 W FARMINGTON RD, PEORIA, IL, 61604",8714838,"R"
446426,"2801 W HIGH STREET","RACINE","WI",53404,42.7369026270001,-87.813852835,426,"2801 W HIGH STREET, RACINE, WI, 53404","Match","Exact","2801 W HIGH ST, RACINE, WI, 53404",77909004,"L"
446427,"2801 W PLEASANT RIDGE ROAD","DALWORTHINGTON GARDE","TX",76016,32.6797756440001,-97.158753034,427,"2801 W PLEASANT RIDGE ROAD, DALWORTHINGTON GARDE, TX, 76016","Match","Non_Exact","2801 W PLEASANT RIDGE RD, DALWORTHINGTON GARDENS, TX, 76016",101928578,"R"
446428,"2801 W SANDS DRIVE","PHOENIX","AZ",85027,33.686529991,-112.11973251,428,"2801 W SANDS DRIVE, PHOENIX, AZ, 85027","Match","Exact","2801 W SANDS DR, PHOENIX, AZ, 85027",128840891,"R"
446429,"2801 WALNUT CREEK LANE","THE COLONY","TX",75056,33.0567988670001,-96.8589608139999,429,"2801 WALNUT CREEK LANE, THE COLONY, TX, 75056","Match","Exact","2801 WALNUT CREEK LN, THE COLONY, TX, 75056",647041989,"L"
446430,"2801 WASHINGTON RD STE 107 RM 312","AUGUSTA","GA",30909,33.5103234060001,-82.0304630959999,430,"2801 WASHINGTON RD STE 107 RM 312, AUGUSTA, GA, 30909","Match","Exact","2801 WASHINGTON RD, AUGUSTA, GA, 30909",619727864,"R"
446431,"2801 WASHINGTON ROAD  SUITE 253","AUGUSTA","GA",30909,33.5103234060001,-82.0304630959999,431,"2801 WASHINGTON ROAD  SUITE 253, AUGUSTA, GA, 30909","Match","Exact","2801 WASHINGTON RD, AUGUSTA, GA, 30909",619727864,"R"
446432,"2801 WATERWALL DR APT 730","HOUSTON","TX",77056,29.7355091430001,-95.461757624,432,"2801 WATERWALL DR APT 730, HOUSTON, TX, 77056","Match","Exact","2801 WATERWALL DR, HOUSTON, TX, 77056",233390202,"L"
446433,"2801 WEDGEDALE AVE","DURHAM","NC",27703,35.985990524,-78.849788621,433,"2801 WEDGEDALE AVE, DURHAM, NC, 27703","Match","Exact","2801 WEDGEDALE AVE, DURHAM, NC, 27703",71766808,"L"
446434,"2801 WELD RD","ELGIN","IL",60124,42.0363379340001,-88.352009677,434,"2801 WELD RD, ELGIN, IL, 60124","Match","Exact","2801 WELD RD, ELGIN, IL, 60124",119541008,"R"
446435,"2801 WELLS BRANCE PARKWAY APT 2024","AUSTIN","TX",78728,NA,NA,435,"2801 WELLS BRANCE PARKWAY APT 2024, AUSTIN, TX, 78728","No_Match",NA,NA,NA,NA
446436,"2801 WELLS BRANCH PARKWAY APT 1013","AUSTIN","TX",78728,30.4415459030001,-97.689748385,436,"2801 WELLS BRANCH PARKWAY APT 1013, AUSTIN, TX, 78728","Match","Exact","2801 WELLS BRANCH PKWY, AUSTIN, TX, 78728",641659169,"L"
446437,"2801 WELLS BRANCH PARKWAY APT 1132","AUSTIN","TX",78728,30.4415459030001,-97.689748385,437,"2801 WELLS BRANCH PARKWAY APT 1132, AUSTIN, TX, 78728","Match","Exact","2801 WELLS BRANCH PKWY, AUSTIN, TX, 78728",641659169,"L"
446438,"2801 WELLS BRANCH PKWY APT 1114","AUSTIN","TX",78728,30.4415459030001,-97.689748385,438,"2801 WELLS BRANCH PKWY APT 1114, AUSTIN, TX, 78728","Match","Exact","2801 WELLS BRANCH PKWY, AUSTIN, TX, 78728",641659169,"L"
446439,"2801 WELLS BRANCH PKWY APT 1715","AUSTIN","TX",78728,30.4415459030001,-97.689748385,439,"2801 WELLS BRANCH PKWY APT 1715, AUSTIN, TX, 78728","Match","Exact","2801 WELLS BRANCH PKWY, AUSTIN, TX, 78728",641659169,"L"
446440,"2801 WELLS BRANCH PKWY","AUSTIN","TX",78728,30.4415459030001,-97.689748385,440,"2801 WELLS BRANCH PKWY, AUSTIN, TX, 78728","Match","Exact","2801 WELLS BRANCH PKWY, AUSTIN, TX, 78728",641659169,"L"
446441,"2801 WEST 4OTH","PINE BLUFF","AR",71603,NA,NA,441,"2801 WEST 4OTH, PINE BLUFF, AR, 71603","No_Match",NA,NA,NA,NA
446442,"2801 WEST 57TH PLACE","MERRILLVILLE","IN",46410,41.51336747,-87.371438412,442,"2801 WEST 57TH PLACE, MERRILLVILLE, IN, 46410","Match","Exact","2801 W 57TH PL, MERRILLVILLE, IN, 46410",98430936,"L"
446443,"2801 WEST BANCROFT ST","TOLEDO","OH",43606,41.663094287,-83.612075271,443,"2801 WEST BANCROFT ST, TOLEDO, OH, 43606","Match","Exact","2801 W BANCROFT ST, TOLEDO, OH, 43606",33935471,"L"
446444,"2801 WEST MAIN STREET","RUSSELLVILLE","AR",72801,35.2865705680001,-93.162063347,444,"2801 WEST MAIN STREET, RUSSELLVILLE, AR, 72801","Match","Exact","2801 W MAIN ST, RUSSELLVILLE, AR, 72801",636166459,"L"
446445,"2801 WEST PULLEN","PINE BLUFF","AR",71602,NA,NA,445,"2801 WEST PULLEN, PINE BLUFF, AR, 71602","No_Match",NA,NA,NA,NA
446446,"2801 WESTERN AVE APT 103","SEATTLE","WA",98121,47.615727458,-122.352491276,446,"2801 WESTERN AVE APT 103, SEATTLE, WA, 98121","Match","Exact","2801 WESTERN AVE, SEATTLE, WA, 98121",186582565,"L"
446447,"2801 WESTERN AVENUE","SEATTLE","WA",98121,47.615727458,-122.352491276,447,"2801 WESTERN AVENUE, SEATTLE, WA, 98121","Match","Exact","2801 WESTERN AVE, SEATTLE, WA, 98121",186582565,"L"
446448,"2801 WESTERN CT","OWENSBORO","KY",42301,NA,NA,448,"2801 WESTERN CT, OWENSBORO, KY, 42301","No_Match",NA,NA,NA,NA
446449,"2801 WESTLINE","WILDORADO","TX",79098,35.1841982460001,-102.149804207,449,"2801 WESTLINE, WILDORADO, TX, 79098","Match","Non_Exact","2801 WESTLINE RD, WILDORADO, TX, 79098",182480859,"R"
446450,"2801 WHITE AVENUE","BALTIMORE","MD",21214,39.356918416,-76.5615413579999,450,"2801 WHITE AVENUE, BALTIMORE, MD, 21214","Match","Exact","2801 WHITE AVE, BALTIMORE, MD, 21214",206410763,"R"
446451,"2801 WHITE RAIL DRIVE","FUQUAY-VARINA","NC",27526,35.6207933220001,-78.782778541,451,"2801 WHITE RAIL DRIVE, FUQUAY-VARINA, NC, 27526","Match","Exact","2801 WHITE RAIL DR, FUQUAY VARINA, NC, 27526",639846623,"R"
446452,"2801 WINGREN RD","IRVING","TX",75062,32.8442657050001,-96.942697057,452,"2801 WINGREN RD, IRVING, TX, 75062","Match","Exact","2801 WINGREN RD, IRVING, TX, 75062",102891779,"L"
446453,"2801 WINGREN ROAD","IRVING","TX",75062,32.8442657050001,-96.942697057,453,"2801 WINGREN ROAD, IRVING, TX, 75062","Match","Exact","2801 WINGREN RD, IRVING, TX, 75062",102891779,"L"
446454,"2801 WINTERWOOD AVE","ALBANY","GA",31721,31.567670521,-84.230921374,454,"2801 WINTERWOOD AVE, ALBANY, GA, 31721","Match","Exact","2801 WINTERWOOD AVE, ALBANY, GA, 31721",84312277,"R"
446455,"2801 WOODLAND AVENUE","WEST DES MOINES","IA",50266,41.5890169570001,-93.742247053,455,"2801 WOODLAND AVENUE, WEST DES MOINES, IA, 50266","Match","Exact","2801 WOODLAND AVE, WEST DES MOINES, IA, 50266",65776529,"R"
446456,"2801 YORKTOWN","TYLER","TX",75701,32.3194605790001,-95.264943493,456,"2801 YORKTOWN, TYLER, TX, 75701","Match","Non_Exact","2801 YORKTOWN DR, TYLER, TX, 75701",141273949,"R"
446457,"28010 39TH AVE S","AUBURN","WA",98001,47.350394699,-122.283925309,457,"28010 39TH AVE S, AUBURN, WA, 98001","Match","Exact","28010 39TH AVE S, AUBURN, WA, 98001",186959114,"R"
446458,"28010 W CURRY DRIVE APT 624","KILLEEN","TX",76542,NA,NA,458,"28010 W CURRY DRIVE APT 624, KILLEEN, TX, 76542","No_Match",NA,NA,NA,NA
446459,"28011 152ND ST","NEW AUBURN","WI",54757,45.2478416070001,-91.363510057,459,"28011 152ND ST, NEW AUBURN, WI, 54757","Match","Exact","28011 152ND ST, NEW AUBURN, WI, 54757",78915355,"R"
446460,"28011 GOSLING COURT","MECHANICSVILLE","MD",20659,38.4366953430001,-76.74709382,460,"28011 GOSLING COURT, MECHANICSVILLE, MD, 20659","Match","Exact","28011 GOSLING CT, MECHANICSVILLE, MD, 20659",625299222,"R"
446461,"28011 GOSLING CT","MECHANICSVILLE","MD",20659,38.4366953430001,-76.74709382,461,"28011 GOSLING CT, MECHANICSVILLE, MD, 20659","Match","Exact","28011 GOSLING CT, MECHANICSVILLE, MD, 20659",625299222,"R"
446462,"28011 GWINN","ATLANTA","IN",46031,40.196221323,-86.0412662859999,462,"28011 GWINN, ATLANTA, IN, 46031","Match","Non_Exact","28011 GWINN RD, ATLANTA, IN, 46031",29289438,"R"
446463,"28011 HWY 14","MARION","AL",36756,NA,NA,463,"28011 HWY 14, MARION, AL, 36756","No_Match",NA,NA,NA,NA
446464,"28012 LINDA LANE","SANTA CLARITA","CA",91350,34.4391917,-118.493098969,464,"28012 LINDA LANE, SANTA CLARITA, CA, 91350","Match","Exact","28012 LINDA LN, SANTA CLARITA, CA, 91350",639058830,"R"
446465,"28012 NE 151ST PLACE","DUVALL","WA",98019,47.7364703440001,-121.963591748,465,"28012 NE 151ST PLACE, DUVALL, WA, 98019","Match","Exact","28012 NE 151ST PL, DUVALL, WA, 98019",186937347,"L"
446466,"28012 NORTH 33RD AVENUE","PHOENIX","AZ",85083,33.7381791010001,-112.130139945,466,"28012 NORTH 33RD AVENUE, PHOENIX, AZ, 85083","Match","Exact","28012 N 33RD AVE, PHOENIX, AZ, 85083",637533609,"L"
446467,"28014 RUSTY HAWTHORNE DR","KATY","TX",77494,29.7549491180001,-95.852743762,467,"28014 RUSTY HAWTHORNE DR, KATY, TX, 77494","Match","Exact","28014 RUSTY HAWTHORNE DR, KATY, TX, 77494",627663047,"L"
446468,"28015 US HWY 264","ENGELHARD","NC",27824,35.4794194140001,-76.099858322,468,"28015 US HWY 264, ENGELHARD, NC, 27824","Match","Exact","28015 US HWY 264, ENGELHARD, NC, 27824",639139277,"L"
446469,"28016 185TH PL SE","KENT","WA",98042,47.3504172980001,-122.095222626,469,"28016 185TH PL SE, KENT, WA, 98042","Match","Exact","28016 185TH PL SE, KENT, WA, 98042",186663171,"L"
446470,"28017 COUNTY ROAD 18","KEENESBURG","CO",80643,40.1167724580001,-104.527519934,470,"28017 COUNTY ROAD 18, KEENESBURG, CO, 80643","Match","Exact","28017 CO RD 18, KEENESBURG, CO, 80643",651026323,"L"
446471,"28019 NE 177TH ST","LAWSON","MO",64062,39.4131030340001,-94.2422428369999,471,"28019 NE 177TH ST, LAWSON, MO, 64062","Match","Exact","28019 NE 177TH ST, LAWSON, MO, 64062",89776139,"R"
446472,"2801NE96TH WAY","VANCOUVER","WA",98665,NA,NA,472,"2801NE96TH WAY, VANCOUVER, WA, 98665","No_Match",NA,NA,NA,NA
446473,"2802 116TH DR SE","LAKE STEVENS","WA",98258,47.970761591,-122.074691415,473,"2802 116TH DR SE, LAKE STEVENS, WA, 98258","Match","Exact","2802 116TH DR SE, LAKE STEVENS, WA, 98258",624301874,"R"
446474,"2802 13TH STREET WEST","BILLINGS","MT",59102,45.7974376220001,-108.548674818,474,"2802 13TH STREET WEST, BILLINGS, MT, 59102","Match","Exact","2802 13TH ST W, BILLINGS, MT, 59102",181475068,"L"
446475,"2802 158TH STREET","URBANDALE","IA",50323,41.622176037,-93.835698367,475,"2802 158TH STREET, URBANDALE, IA, 50323","Match","Exact","2802 158TH ST, URBANDALE, IA, 50323",65645025,"L"
446476,"2802 174TH ST E","TACOMA","WA",98445,47.09910948,-122.391340851,476,"2802 174TH ST E, TACOMA, WA, 98445","Match","Exact","2802 174TH ST E, TACOMA, WA, 98445",184703270,"R"
446477,"2802 2ND AVE WEST","HIBBING","MN",55746,47.417933788,-92.943062211,477,"2802 2ND AVE WEST, HIBBING, MN, 55746","Match","Exact","2802 2ND AVE W, HIBBING, MN, 55746",163166846,"R"
446478,"2802 2ND AVE","LOS ANGELES","CA",90018,34.0295262180001,-118.318730876,478,"2802 2ND AVE, LOS ANGELES, CA, 90018","Match","Exact","2802 2ND AVE, LOS ANGELES, CA, 90018",141605724,"L"
446479,"2802 2ND STREET SE","WASHINGTON","DC",20032,38.8486983550001,-77.005652162,479,"2802 2ND STREET SE, WASHINGTON, DC, 20032","Match","Exact","2802 2ND ST SE, WASHINGTON, DC, 20032",76227463,"L"
446480,"2802 33RD AVE S","SEATTLE","WA",98144,47.5781841370001,-122.290861152,480,"2802 33RD AVE S, SEATTLE, WA, 98144","Match","Exact","2802 33RD AVE S, SEATTLE, WA, 98144",239763008,"L"
446481,"2802 35 1/2 COURT AVE S","FARGO","ND",58104,46.8248275810001,-96.825179781,481,"2802 35 1/2 COURT AVE S, FARGO, ND, 58104","Match","Exact","2802 35 1/2 COURT AVE S, FARGO, ND, 58104",151453757,"L"
446482,"2802 37TH STREET","LONG ISLAND CITY","NY",11103,NA,NA,482,"2802 37TH STREET, LONG ISLAND CITY, NY, 11103","No_Match",NA,NA,NA,NA
446483,"2802 53RD ST","MOLINE","IL",61265,41.4837100280001,-90.465682718,483,"2802 53RD ST, MOLINE, IL, 61265","Match","Exact","2802 53RD ST, MOLINE, IL, 61265",9214807,"L"
446484,"2802 5TH AVE","PUYALLUP","WA",98372,47.194971401,-122.255705121,484,"2802 5TH AVE, PUYALLUP, WA, 98372","Match","Non_Exact","2802 5TH AVE NE, PUYALLUP, WA, 98372",184677575,"L"
446485,"2802 84TH AVE NE","NORMAN","OK",73026,35.245214536,-97.317974523,485,"2802 84TH AVE NE, NORMAN, OK, 73026","Match","Exact","2802 84TH AVE NE, NORMAN, OK, 73026",648965319,"L"
446486,"2802 8ST APT 3E","ASTORIA","NY",11102,NA,NA,486,"2802 8ST APT 3E, ASTORIA, NY, 11102","No_Match",NA,NA,NA,NA
446487,"2802 ADAMS ST","GROVE CITY","OH",43123,39.891530419,-83.224518008,487,"2802 ADAMS ST, GROVE CITY, OH, 43123","Match","Exact","2802 ADAMS ST, GROVE CITY, OH, 43123",218674461,"R"
446488,"2802 ALDERMAN CT","GREENSBORO","NC",27408,36.0965274610001,-79.8334767919999,488,"2802 ALDERMAN CT, GREENSBORO, NC, 27408","Match","Exact","2802 ALDERMAN CT, GREENSBORO, NC, 27408",131028283,"R"
446489,"2802 ALTAMA AVENUE","BRUNSWICK","GA",31520,31.1688742750001,-81.492475809,489,"2802 ALTAMA AVENUE, BRUNSWICK, GA, 31520","Match","Exact","2802 ALTAMA AVE, BRUNSWICK, GA, 31520",9134140,"R"
446490,"2802 ARBOR DR APT 2","MADISON","WI",53711,43.055985042,-89.428810567,490,"2802 ARBOR DR APT 2, MADISON, WI, 53711","Match","Exact","2802 ARBOR DR, MADISON, WI, 53711",49518265,"R"
446491,"2802 ARCHER AVE","MURFREESBORO","TN",37129,35.8963686340001,-86.3873679549999,491,"2802 ARCHER AVE, MURFREESBORO, TN, 37129","Match","Exact","2802 ARCHER AVE, MURFREESBORO, TN, 37129",59011373,"R"
446492,"2802 ARGENTINA PLACE","BOWIE","MD",20716,38.927861582,-76.7247072869999,492,"2802 ARGENTINA PLACE, BOWIE, MD, 20716","Match","Exact","2802 ARGENTINA PL, BOWIE, MD, 20716",76344043,"L"
446493,"2802 ASBURY TER","GREENSBORO","NC",27408,36.112456266,-79.80916518,493,"2802 ASBURY TER, GREENSBORO, NC, 27408","Match","Exact","2802 ASBURY TER, GREENSBORO, NC, 27408",131030423,"R"
446494,"2802 BEECHMONT LANE","SILVER SPRING","MD",20906,39.074974023,-77.058592187,494,"2802 BEECHMONT LANE, SILVER SPRING, MD, 20906","Match","Exact","2802 BEECHMONT LN, SILVER SPRING, MD, 20906",62060746,"L"
446495,"2802 BENJAMIN E MAYS DRIVE","ATLANTA","GA",30311,33.728706333,-84.479842393,495,"2802 BENJAMIN E MAYS DRIVE, ATLANTA, GA, 30311","Match","Non_Exact","2802 BENJAMIN E MAYS DR SW, ATLANTA, GA, 30311",17340685,"L"
446496,"2802 BLOSSOM ROAD","HOPE MILLS","NC",28348,34.9128674830001,-78.850014377,496,"2802 BLOSSOM ROAD, HOPE MILLS, NC, 28348","Match","Exact","2802 BLOSSOM RD, HOPE MILLS, NC, 28348",64205685,"R"
446497,"2802 BRIDGEWATER ROAD","BRYANT","AZ",72019,NA,NA,497,"2802 BRIDGEWATER ROAD, BRYANT, AZ, 72019","No_Match",NA,NA,NA,NA
446498,"2802 BRIDLEWOOD DRIVE","SIDNEY","OH",45365,40.3196726560001,-84.132512127,498,"2802 BRIDLEWOOD DRIVE, SIDNEY, OH, 45365","Match","Exact","2802 BRIDLEWOOD DR, SIDNEY, OH, 45365",634040074,"L"
446499,"2802 CAMERON ST","EAU CLAIRE","WI",54703,44.814198876,-91.547441708,499,"2802 CAMERON ST, EAU CLAIRE, WI, 54703","Match","Exact","2802 CAMERON ST, EAU CLAIRE, WI, 54703",46065090,"R"
446500,"2802 CAMULOS PLACE","LOS ANGELES","CA",90023,34.0253841540001,-118.215767334,500,"2802 CAMULOS PLACE, LOS ANGELES, CA, 90023","Match","Exact","2802 CAMULOS PL, LOS ANGELES, CA, 90023",646092587,"R"
