"ID","Address","City","State","Zip","lat","long","id","input_address","match_indicator","match_type","matched_address","tiger_line_id","tiger_side"
661001,"4764 RIVER RD","FT VALLEY","GA",31030,32.5252439710001,-83.9721051179999,1,"4764 RIVER RD, FT VALLEY, GA, 31030","Match","Non_Exact","4764 OLD RIVER RD, FORT VALLEY, GA, 31030",93719104,"L"
661002,"4764 S 116 ROAD","BRISTOL","VT",5443,NA,NA,2,"4764 S 116 ROAD, BRISTOL, VT, 5443","No_Match",NA,NA,NA,NA
661003,"4764 SALOMA AVE","SHERMAN OAKS","CA",91403,34.1568667980001,-118.458506018,3,"4764 SALOMA AVE, SHERMAN OAKS, CA, 91403","Match","Exact","4764 SALOMA AVE, SHERMAN OAKS, CA, 91403",141560844,"R"
661004,"4764 SANTA MONICA AVE","SAN DIEGO","CA",92107,32.745183125,-117.246217689,4,"4764 SANTA MONICA AVE, SAN DIEGO, CA, 92107","Match","Exact","4764 SANTA MONICA AVE, SAN DIEGO, CA, 92107",651681098,"R"
661005,"4764 SEEGER STREET","CASS CITY","MI",48726,43.606937294,-83.174701108,5,"4764 SEEGER STREET, CASS CITY, MI, 48726","Match","Exact","4764 SEEGER ST, CASS CITY, MI, 48726",81242633,"R"
661006,"4764 SIERRA STREET","RIVERSIDE","CA",92504,33.949802305,-117.407024735,6,"4764 SIERRA STREET, RIVERSIDE, CA, 92504","Match","Exact","4764 SIERRA ST, RIVERSIDE, CA, 92504",194739660,"L"
661007,"4764 SOUTH VALLEYVIEW ROAD","WEST BLOOMFIELD","MI",48323,NA,NA,7,"4764 SOUTH VALLEYVIEW ROAD, WEST BLOOMFIELD, MI, 48323","No_Match",NA,NA,NA,NA
661008,"4764 TROPICANA AVE","COOPER CITY","FL",33330,26.0612966240001,-80.2985507719999,8,"4764 TROPICANA AVE, COOPER CITY, FL, 33330","Match","Exact","4764 TROPICANA AVE, COOPER CITY, FL, 33330",114818220,"R"
661009,"4764 WEST ARM RD","SPRING PARK","MN",55384,44.937327538,-93.643812659,9,"4764 WEST ARM RD, SPRING PARK, MN, 55384","Match","Exact","4764 W ARM RD, SPRING PARK, MN, 55384",43840043,"L"
661010,"4764 WEST CADDIE LANE","HIGHLAND","UT",84003,NA,NA,10,"4764 WEST CADDIE LANE, HIGHLAND, UT, 84003","No_Match",NA,NA,NA,NA
661011,"47641 COMER SQUARE","STERLING","VA",20165,39.038581435,-77.353164562,11,"47641 COMER SQUARE, STERLING, VA, 20165","Match","Exact","47641 COMER SQ, STERLING, VA, 20165",62334737,"R"
661012,"476431 E 1015 RD","MULDROW","OK",74948,35.5434499240001,-94.5433342759999,12,"476431 E 1015 RD, MULDROW, OK, 74948","Match","Exact","476431 E 1015 RD, MULDROW, OK, 74948",53758176,"R"
661013,"47644 870TH ROAD","ATKINSON","NE",68713,NA,NA,13,"47644 870TH ROAD, ATKINSON, NE, 68713","No_Match",NA,NA,NA,NA
661014,"47649 W 2ND ST","OAKRIDGE","OR",97463,43.751524912,-122.482605021,14,"47649 W 2ND ST, OAKRIDGE, OR, 97463","Match","Exact","47649 W 2ND ST, OAKRIDGE, OR, 97463",178155031,"R"
661015,"4765 35TH AVENUE NE","SEATTLE","WA",98105,47.6634077740001,-122.290161334,15,"4765 35TH AVENUE NE, SEATTLE, WA, 98105","Match","Exact","4765 35TH AVE NE, SEATTLE, WA, 98105",186682517,"L"
661016,"4765 ALICIA DR       325","VIRGINIA BEACH","VA",23462,36.832166816,-76.140235971,16,"4765 ALICIA DR       325, VIRGINIA BEACH, VA, 23462","Match","Exact","4765 ALICIA DR, VA BCH, VA, 23462",122301164,"L"
661017,"4765 ALICIA DRIVE 534","VIRGINIA BEACH","VA",23462,36.832166816,-76.140235971,17,"4765 ALICIA DRIVE 534, VIRGINIA BEACH, VA, 23462","Match","Exact","4765 ALICIA DR, VA BCH, VA, 23462",122301164,"L"
661018,"4765 ARBORS CIR","MUKILTEO","WA",98275,47.8898991940001,-122.297525612,18,"4765 ARBORS CIR, MUKILTEO, WA, 98275","Match","Exact","4765 ARBORS CIR, MUKILTEO, WA, 98275",633907754,"L"
661019,"4765 BLACKHAWK WAY","DENVER","CO",80239,39.7819505750001,-104.832533501,19,"4765 BLACKHAWK WAY, DENVER, CO, 80239","Match","Exact","4765 BLACKHAWK WAY, DENVER, CO, 80239",177627230,"L"
661020,"4765 BURR OAK","EAGAN","MN",55122,44.78426913,-93.2257771989999,20,"4765 BURR OAK, EAGAN, MN, 55122","Match","Non_Exact","4765 BURR OAK ST, EAGAN, MN, 55122",37934522,"R"
661021,"4765 CAROLIN LN","FLORENCE","MT",59833,46.669706078,-114.060165472,21,"4765 CAROLIN LN, FLORENCE, MT, 59833","Match","Exact","4765 CAROLIN LN, FLORENCE, MT, 59833",205292575,"R"
661022,"4765 CHARLES","NORTH RIDGEVILLE","OH",44039,41.3982715600001,-82.00351733,22,"4765 CHARLES, NORTH RIDGEVILLE, OH, 44039","Match","Non_Exact","4765 CHARLES CT, N RIDGEVILLE, OH, 44039",55410523,"L"
661023,"4765 CONCORD RIDGE BLVD","ST. JOSEPH","MI",49085,42.027504607,-86.418677504,23,"4765 CONCORD RIDGE BLVD, ST. JOSEPH, MI, 49085","Match","Exact","4765 CONCORD RIDGE BLVD, SAINT JOSEPH, MI, 49085",634338964,"L"
661024,"4765 DANDELION DR","ORLANDO","FL",32818,28.60191537,-81.4754930669999,24,"4765 DANDELION DR, ORLANDO, FL, 32818","Match","Exact","4765 DANDELION DR, ORLANDO, FL, 32818",94332058,"R"
661025,"4765 DESERT CANDLE DRIVE","PUEBLO","CO",81001,38.3211507180001,-104.590592675,25,"4765 DESERT CANDLE DRIVE, PUEBLO, CO, 81001","Match","Non_Exact","4765 DESERT CANDLE CT, PUEBLO, CO, 81001",635534598,"L"
661026,"4765 DEXTER PINCKNEY RD","DEXTER","MI",48130,42.3551931530001,-83.905354856,26,"4765 DEXTER PINCKNEY RD, DEXTER, MI, 48130","Match","Exact","4765 DEXTER PINCKNEY RD, DEXTER, MI, 48130",26040415,"L"
661027,"4765 FOX STREET","ENGLEWOOD","CO",80110,39.630164312,-104.994945494,27,"4765 FOX STREET, ENGLEWOOD, CO, 80110","Match","Non_Exact","4765 S FOX ST, ENGLEWOOD, CO, 80110",177333637,"R"
661028,"4765 GATEWOOD ROAD","FAYETTEVILLE","WV",25840,38.003924098,-81.070223035,28,"4765 GATEWOOD ROAD, FAYETTEVILLE, WV, 25840","Match","Exact","4765 GATEWOOD RD, FAYETTEVILLE, WV, 25840",75082362,"L"
661029,"4765 HEIDI DR","STERLING HEIGHTS","MI",48310,42.568441148,-83.060889287,29,"4765 HEIDI DR, STERLING HEIGHTS, MI, 48310","Match","Exact","4765 HEIDI DR, STERLING HEIGHTS, MI, 48310",110668180,"R"
661030,"4765 HUNSBERGER","GRAND RAPIDS","MI",49525,NA,NA,30,"4765 HUNSBERGER, GRAND RAPIDS, MI, 49525","No_Match",NA,NA,NA,NA
661031,"4765 KINGSHILL DRIVE APT E","COLUMBUS","OH",43229,40.0631205490001,-82.9903767,31,"4765 KINGSHILL DRIVE APT E, COLUMBUS, OH, 43229","Match","Exact","4765 KINGSHILL DR, COLUMBUS, OH, 43229",218697113,"L"
661032,"4765 LA CANADA BL","LA CANADA","CA",91011,34.211307306,-118.204516584,32,"4765 LA CANADA BL, LA CANADA, CA, 91011","Match","Exact","4765 LA CANADA BLVD, LA CANADA, CA, 91011",142724980,"L"
661033,"4765 MAPLE CHASE DRIVE","DEEPHAVEN","MN",55331,NA,NA,33,"4765 MAPLE CHASE DRIVE, DEEPHAVEN, MN, 55331","No_Match",NA,NA,NA,NA
661034,"4765 MEMORIAL DR STE C","DECATUR","GA",30032,33.785046321,-84.234995269,34,"4765 MEMORIAL DR STE C, DECATUR, GA, 30032","Match","Exact","4765 MEMORIAL DR, DECATUR, GA, 30032",23409435,"R"
661035,"4765 N 32ND STREET","MILWAUKEE","WI",53209,NA,NA,35,"4765 N 32ND STREET, MILWAUKEE, WI, 53209","No_Match",NA,NA,NA,NA
661036,"4765 NORTH 210TH  AVENUE","BUCKEYE","AZ",85396,33.504684049,-112.510512966,36,"4765 NORTH 210TH  AVENUE, BUCKEYE, AZ, 85396","Match","Exact","4765 N 210TH AVE, BUCKEYE, AZ, 85396",645614455,"R"
661037,"4765 OPAL CLIFFS DRIVE","SANTA CRUZ","CA",95062,36.9677143760001,-121.958519158,37,"4765 OPAL CLIFFS DRIVE, SANTA CRUZ, CA, 95062","Match","Non_Exact","4765 OPAL CLIFF DR, SANTA CRUZ, CA, 95062",647481478,"L"
661038,"4765 PASEO PADRE PARKWAY","FREMONT","CA",94555,37.5694943550001,-122.048541967,38,"4765 PASEO PADRE PARKWAY, FREMONT, CA, 94555","Match","Exact","4765 PASEO PADRE PKWY, FREMONT, CA, 94555",125026749,"R"
661039,"4765 PASEO PADRE PKWY","FREMONT","CA",94555,37.5694943550001,-122.048541967,39,"4765 PASEO PADRE PKWY, FREMONT, CA, 94555","Match","Exact","4765 PASEO PADRE PKWY, FREMONT, CA, 94555",125026749,"R"
661040,"4765 PLANTATION OAKS BLVD","ORANGE PARK","FL",32065,30.180802568,-81.8561711629999,40,"4765 PLANTATION OAKS BLVD, ORANGE PARK, FL, 32065","Match","Exact","4765 PLANTATION OAKS BLVD, ORANGE PARK, FL, 32065",640829574,"R"
661041,"4765 REDWOOD DRIVE","PULASKI","WI",54162,44.674760356,-88.1411930199999,41,"4765 REDWOOD DRIVE, PULASKI, WI, 54162","Match","Exact","4765 REDWOOD DR, PULASKI, WI, 54162",148118884,"L"
661042,"4765 S ORCHARD TERRACE","HOMOSASSA","FL",34446,28.79274701,-82.5572476579999,42,"4765 S ORCHARD TERRACE, HOMOSASSA, FL, 34446","Match","Exact","4765 S ORCHARD TER, HOMOSASSA, FL, 34446",86199013,"R"
661043,"4765 S SADDLEHORN DRIVE","RENO","NV",89511,NA,NA,43,"4765 S SADDLEHORN DRIVE, RENO, NV, 89511","Tie",NA,NA,NA,NA
661044,"4765 SOUTH MICHIGAN AVE","CHICAGO","IL",60615,41.8081444160001,-87.622795439,44,"4765 SOUTH MICHIGAN AVE, CHICAGO, IL, 60615","Match","Exact","4765 S MICHIGAN AVE, CHICAGO, IL, 60615",111770577,"L"
661045,"4765 ST RT 305","SOUTHINGTON","OH",44470,41.308429587,-80.9684183909999,45,"4765 ST RT 305, SOUTHINGTON, OH, 44470","Match","Non_Exact","4765 STATE RTE 305, SOUTHINGTON, OH, 44470",117428058,"R"
661046,"4765 STILLWOOD COVE","FOREST PARK","GA",30297,33.624711608,-84.377203155,46,"4765 STILLWOOD COVE, FOREST PARK, GA, 30297","Match","Exact","4765 STILLWOOD COVE, FOREST PARK, GA, 30297",23312008,"R"
661047,"4765 STOCKTON RD","CONWAY","AR",72034,35.091464452,-92.507326629,47,"4765 STOCKTON RD, CONWAY, AR, 72034","Match","Exact","4765 STOCKTON RD, CONWAY, AR, 72034",141071732,"R"
661048,"4765 WEXFORD DR","CUMMING","GA",30040,34.219253915,-84.2346132169999,48,"4765 WEXFORD DR, CUMMING, GA, 30040","Match","Exact","4765 WEXFORD DR, CUMMING, GA, 30040",637531935,"L"
661049,"4765 WHISPERING PINE WAY","NAPLES","FL",34103,26.206209528,-81.8050312939999,49,"4765 WHISPERING PINE WAY, NAPLES, FL, 34103","Match","Exact","4765 WHISPERING PINE WAY, NAPLES, FL, 34103",115171914,"R"
661050,"4765","EAST COUNTY HIGHWAY","IL",61415,NA,NA,50,"4765, EAST COUNTY HIGHWAY, IL, 61415","No_Match",NA,NA,NA,NA
661051,"47651 VISTAS CIRCLE DR S","CANTON","MI",48188,NA,NA,51,"47651 VISTAS CIRCLE DR S, CANTON, MI, 48188","Tie",NA,NA,NA,NA
661052,"47652 STRATFORD DRIVE","CANTON","MI",48187,42.341183556,-83.5102590499999,52,"47652 STRATFORD DRIVE, CANTON, MI, 48187","Match","Exact","47652 STRATFORD DR, CANTON, MI, 48187",95685361,"R"
661053,"47656 FORTNER STREET","FREMONT","CA",94539,37.4794238800001,-121.92148607,53,"47656 FORTNER STREET, FREMONT, CA, 94539","Match","Exact","47656 FORTNER ST, FREMONT, CA, 94539",124990014,"L"
661054,"4766 ANACONDA RD","BENSALEM","PA",19020,40.1165077360001,-74.929418234,54,"4766 ANACONDA RD, BENSALEM, PA, 19020","Match","Exact","4766 ANACONDA RD, BENSALEM, PA, 19020",134736880,"L"
661055,"4766 ANACONDA ROAD","BENSALEM","PA",19020,40.1165077360001,-74.929418234,55,"4766 ANACONDA ROAD, BENSALEM, PA, 19020","Match","Exact","4766 ANACONDA RD, BENSALEM, PA, 19020",134736880,"L"
661056,"4766 ASHLEY RD","KIMBALL","MI",48074,42.9532905550001,-82.511134649,56,"4766 ASHLEY RD, KIMBALL, MI, 48074","Match","Exact","4766 ASHLEY RD, KIMBALL, MI, 48074",110956346,"L"
661057,"4766 ASHLEY ROAD","KIMBALL","MI",48074,42.9532905550001,-82.511134649,57,"4766 ASHLEY ROAD, KIMBALL, MI, 48074","Match","Exact","4766 ASHLEY RD, KIMBALL, MI, 48074",110956346,"L"
661058,"4766 BIG DRAW DRIVE","NORTH LAS VEGAS","NV",89031,36.2462392250001,-115.144870296,58,"4766 BIG DRAW DRIVE, NORTH LAS VEGAS, NV, 89031","Match","Exact","4766 BIG DRAW DR, N LAS VEGAS, NV, 89031",201909779,"R"
661059,"4766 CANTERBURY DRIVE","EMMAUS","PA",18049,40.5310143730001,-75.532231242,59,"4766 CANTERBURY DRIVE, EMMAUS, PA, 18049","Match","Exact","4766 CANTERBURY DR, EMMAUS, PA, 18049",80781822,"R"
661060,"4766 CR 118","WILDWOOD","FL",34785,28.8996170410001,-82.024300642,60,"4766 CR 118, WILDWOOD, FL, 34785","Match","Exact","4766 CO RD 118, WILDWOOD, FL, 34785",86518696,"L"
661061,"4766 E 1100 N","MORRISTOWN","IN",46161,39.6844303550001,-85.690240699,61,"4766 E 1100 N, MORRISTOWN, IN, 46161","Match","Exact","4766 E 1100 N, MORRISTOWN, IN, 46161",33232320,"L"
661062,"4766 EAST EDEN DRIVE","CAVE CREEK","AZ",85331,33.754670146,-111.979991028,62,"4766 EAST EDEN DRIVE, CAVE CREEK, AZ, 85331","Match","Exact","4766 E EDEN DR, CAVE CREEK, AZ, 85331",128842121,"R"
661063,"4766 EAST GULL LAKE DR","HICKORY CORNERS","MI",49060,42.417349963,-85.4155300419999,63,"4766 EAST GULL LAKE DR, HICKORY CORNERS, MI, 49060","Match","Exact","4766 E GULL LAKE DR, HICKORY CORNERS, MI, 49060",12226199,"R"
661064,"4766 GAYNOR RIDGE RD","WEST HARRISON","IN",47060,39.2553683090001,-84.908676973,64,"4766 GAYNOR RIDGE RD, WEST HARRISON, IN, 47060","Match","Exact","4766 GAYNOR RIDGE RD, WEST HARRISON, IN, 47060",76873801,"L"
661065,"4766 HOLLOW RD","NIBLEY","UT",84321,41.6450692710001,-111.82042233,65,"4766 HOLLOW RD, NIBLEY, UT, 84321","Match","Non_Exact","4766 S HOLLOW RD, NIBLEY, UT, 84321",641359314,"R"
661066,"4766 MARQUE","NEW ORLEANS","LA",70126,NA,NA,66,"4766 MARQUE, NEW ORLEANS, LA, 70126","No_Match",NA,NA,NA,NA
661067,"4766 NW 99TH PLACE","DORAL","FL",33178,25.817139625,-80.35898191,67,"4766 NW 99TH PLACE, DORAL, FL, 33178","Match","Exact","4766 NW 99TH PL, DORAL, FL, 33178",116043684,"L"
661068,"4766 OLD C RD","BOSCOBEL","WI",53805,43.154528113,-90.659159008,68,"4766 OLD C RD, BOSCOBEL, WI, 53805","Match","Non_Exact","4766 OLD C, BOSCOBEL, WI, 53805",624890279,"L"
661069,"4766 PALMER ST","DEARBORN","MI",48126,42.3202217640001,-83.197288853,69,"4766 PALMER ST, DEARBORN, MI, 48126","Match","Exact","4766 PALMER ST, DEARBORN, MI, 48126",95443740,"R"
661070,"4766 PRESERVE ST","COCONUT CREEK","FL",33073,26.3055909400001,-80.1905893329999,70,"4766 PRESERVE ST, COCONUT CREEK, FL, 33073","Match","Exact","4766 PRESERVE ST, COCONUT CREEK, FL, 33073",623844092,"L"
661071,"4766 RENEX PLACE","SAN DIEGO","CA",92117,32.8315461280001,-117.185170335,71,"4766 RENEX PLACE, SAN DIEGO, CA, 92117","Match","Exact","4766 RENEX PL, SAN DIEGO, CA, 92117",195304945,"L"
661072,"4766 SILVER FOX COURT","WEST CHESTER","OH",45069,39.367970787,-84.4616475879999,72,"4766 SILVER FOX COURT, WEST CHESTER, OH, 45069","Match","Exact","4766 SILVER FOX CT, WEST CHESTER, OH, 45069",634033299,"L"
661073,"4766 SUN ORCHARD DR","CHANTILLY","VA",20151,38.8656627020001,-77.418724711,73,"4766 SUN ORCHARD DR, CHANTILLY, VA, 20151","Match","Exact","4766 SUN ORCHARD DR, CHANTILLY, VA, 20151",76042913,"R"
661074,"4766 W LATTIN ROAD","RICHLAND","WA",99352,46.264263322,-119.349413211,74,"4766 W LATTIN ROAD, RICHLAND, WA, 99352","Match","Non_Exact","4766 LATTIN RD, RICHLAND, WA, 99353",640180652,"R"
661075,"47663 HWY 58 SUITE A","OAKRIDGE","OR",97463,NA,NA,75,"47663 HWY 58 SUITE A, OAKRIDGE, OR, 97463","No_Match",NA,NA,NA,NA
661076,"4767 BOXWOOD CIRCLE","BOYNTON","FL",33436,26.517799698,-80.1189787549999,76,"4767 BOXWOOD CIRCLE, BOYNTON, FL, 33436","Match","Non_Exact","4767 BOXWOOD CIR, BOYNTON BEACH, FL, 33436",115577039,"R"
661077,"4767 COOLIDGE STREET","OREGON","WI",53575,42.9018762740001,-89.371365855,77,"4767 COOLIDGE STREET, OREGON, WI, 53575","Match","Exact","4767 COOLIDGE ST, OREGON, WI, 53575",49478093,"R"
661078,"4767 DE INVIERNO PLACE","MOUNT AIRY","MD",20771,39.3651494700001,-77.191927085,78,"4767 DE INVIERNO PLACE, MOUNT AIRY, MD, 20771","Match","Non_Exact","4767 DE INVIERNO PL, MOUNT AIRY, MD, 21771",648637512,"R"
661079,"4767 DUNROBIN DRIVE APT A","HOPE MILLS","NC",28348,34.972142154,-78.925235468,79,"4767 DUNROBIN DRIVE APT A, HOPE MILLS, NC, 28348","Match","Exact","4767 DUNROBIN DR, HOPE MILLS, NC, 28348",64204217,"L"
661080,"4767 E 61ST AVENUE","HOBART","IN",46342,41.507032608,-87.232457561,80,"4767 E 61ST AVENUE, HOBART, IN, 46342","Match","Exact","4767 E 61ST AVE, HOBART, IN, 46342",98455643,"R"
661081,"4767 F STREET","SHERIDAN","CA",95681,38.9802701670001,-121.371559239,81,"4767 F STREET, SHERIDAN, CA, 95681","Match","Exact","4767 F ST, SHERIDAN, CA, 95681",647379856,"R"
661082,"4767 FRANKLIN RD","MURFREESBORO","TN",37128,35.8442319540001,-86.4820859009999,82,"4767 FRANKLIN RD, MURFREESBORO, TN, 37128","Match","Exact","4767 FRANKLIN RD, MURFREESBORO, TN, 37128",59014940,"L"
661083,"4767 MAIN STREET","COLLINSTON","LA",71229,32.692874863,-91.870860315,83,"4767 MAIN STREET, COLLINSTON, LA, 71229","Match","Exact","4767 MAIN ST, COLLINSTON, LA, 71229",75381954,"L"
661084,"4767 MOUNTAIN BREEZE CT S","JACKSONVILLE","FL",32224,30.2535370150001,-81.4727003579999,84,"4767 MOUNTAIN BREEZE CT S, JACKSONVILLE, FL, 32224","Match","Non_Exact","4767 MOUNTAIN BREEZE CT, JACKSONVILLE, FL, 32224",83948799,"L"
661085,"4767 N 400 W","LAPORTE","IN",46350,41.6760496030001,-86.777716052,85,"4767 N 400 W, LAPORTE, IN, 46350","Match","Exact","4767 N 400 W, LAPORTE, IN, 46350",15414170,"R"
661086,"4767 NEW BROAD STREET","ORLANDO","FL",32814,28.5661406200001,-81.328421722,86,"4767 NEW BROAD STREET, ORLANDO, FL, 32814","Match","Exact","4767 NEW BROAD ST, ORLANDO, FL, 32814",94425163,"L"
661087,"4767 REEPSVILLE RD","VALE","NC",28168,35.5156224840001,-81.364970364,87,"4767 REEPSVILLE RD, VALE, NC, 28168","Match","Exact","4767 REEPSVILLE RD, VALE, NC, 28168",624438252,"L"
661088,"4767 ROCKY MOUNTAIN DRIVE","CASTLE ROCK","CO",80109,39.4070013560001,-104.913719696,88,"4767 ROCKY MOUNTAIN DRIVE, CASTLE ROCK, CO, 80109","Match","Exact","4767 ROCKY MOUNTAIN DR, CASTLE ROCK, CO, 80109",130837463,"R"
661089,"4767 SAN VICENTE BLVD APT 5","LOS ANGELES","CA",90019,NA,NA,89,"4767 SAN VICENTE BLVD APT 5, LOS ANGELES, CA, 90019","No_Match",NA,NA,NA,NA
661090,"4767 SEDGE ST","MIDDLEBURG","FL",32068,30.0313264010001,-81.927636492,90,"4767 SEDGE ST, MIDDLEBURG, FL, 32068","Match","Exact","4767 SEDGE ST, MIDDLEBURG, FL, 32068",83804136,"R"
661091,"4767 VIA PALM LAKE 202","WEST PALM BEACH","FL",33417,NA,NA,91,"4767 VIA PALM LAKE 202, WEST PALM BEACH, FL, 33417","No_Match",NA,NA,NA,NA
661092,"4767 WHITHWORTH S UNIT L101","RENTON","WA",98055,NA,NA,92,"4767 WHITHWORTH S UNIT L101, RENTON, WA, 98055","No_Match",NA,NA,NA,NA
661093,"4767 WHITLOW RIDGE","BISHOP","GA",30621,33.8289175990001,-83.446578345,93,"4767 WHITLOW RIDGE, BISHOP, GA, 30621","Match","Non_Exact","4767 WHITLOW RIDGE DR, BISHOP, GA, 30621",618763552,"L"
661094,"4767 WHITWORTH PL S","RENTON","WA",98055,47.4367262380001,-122.211175376,94,"4767 WHITWORTH PL S, RENTON, WA, 98055","Match","Exact","4767 WHITWORTH PL S, RENTON, WA, 98055",627287245,"L"
661095,"47670 HALEMANU STREET","KANEOHE","HI",96744,NA,NA,95,"47670 HALEMANU STREET, KANEOHE, HI, 96744","No_Match",NA,NA,NA,NA
661096,"47673 LEECHECKER COURT","STERLING","VA",20165,39.0479077580001,-77.348881541,96,"47673 LEECHECKER COURT, STERLING, VA, 20165","Match","Exact","47673 LEECHECKER CT, STERLING, VA, 20165",62334592,"L"
661097,"4768 AMBITION COURT","MILTON","FL",32570,30.650097273,-87.120350687,97,"4768 AMBITION COURT, MILTON, FL, 32570","Match","Exact","4768 AMBITION CT, MILTON, FL, 32570",617983274,"R"
661098,"4768 BELLE AVENUE","DAVENPORT","IA",52807,41.5701141860001,-90.5458333,98,"4768 BELLE AVENUE, DAVENPORT, IA, 52807","Match","Exact","4768 BELLE AVE, DAVENPORT, IA, 52807",122709055,"R"
661099,"4768 BOWERWOOD DRIVE","CARMICHAEL","CA",95608,38.597573852,-121.352589748,99,"4768 BOWERWOOD DRIVE, CARMICHAEL, CA, 95608","Match","Exact","4768 BOWERWOOD DR, CARMICHAEL, CA, 95608",133339229,"R"
661100,"4768 BROADWAY SUITE 903","NEW YORK","NY",10034,40.865678589,-73.926845262,100,"4768 BROADWAY SUITE 903, NEW YORK, NY, 10034","Match","Exact","4768 BROADWAY, NEW YORK, NY, 10034",634257376,"R"
661101,"4768 BROADWAY SUITE 911","NEW YORK","NY",10034,40.865678589,-73.926845262,101,"4768 BROADWAY SUITE 911, NEW YORK, NY, 10034","Match","Exact","4768 BROADWAY, NEW YORK, NY, 10034",634257376,"R"
661102,"4768 COFFE COUNTY ROAD 410","ELBA","AL",36323,NA,NA,102,"4768 COFFE COUNTY ROAD 410, ELBA, AL, 36323","No_Match",NA,NA,NA,NA
661103,"4768 E STARPOINT ST","TUCSON","AZ",85756,32.1279852120001,-110.889626745,103,"4768 E STARPOINT ST, TUCSON, AZ, 85756","Match","Exact","4768 E STARPOINT ST, TUCSON, AZ, 85756",606832181,"R"
661104,"4768 GRAND MASTERS WAY","WOODBRIDGE","TX",22192,NA,NA,104,"4768 GRAND MASTERS WAY, WOODBRIDGE, TX, 22192","No_Match",NA,NA,NA,NA
661105,"4768 HATFIELD WALKWAY UNIT 2","SAN JOSE","CA",95124,37.251435805,-121.940961646,105,"4768 HATFIELD WALKWAY UNIT 2, SAN JOSE, CA, 95124","Match","Exact","4768 HATFIELD WALKWAY, SAN JOSE, CA, 95124",122920735,"R"
661106,"4768 HELTON ROAD","GAINESVILLE","GA",30506,34.415814804,-83.829304341,106,"4768 HELTON ROAD, GAINESVILLE, GA, 30506","Match","Exact","4768 HELTON RD, GAINESVILLE, GA, 30506",98245051,"R"
661107,"4768 JACKSON TRAIL","JEFFERSON","GA",30549,34.071882456,-83.680958832,107,"4768 JACKSON TRAIL, JEFFERSON, GA, 30549","Match","Non_Exact","4768 JACKSON TRAIL RD, JEFFERSON, GA, 30549",642630172,"L"
661108,"4768 PLEASANT HOPE ROAD","FAIRMONT","NC",28340,34.529089367,-79.141486874,108,"4768 PLEASANT HOPE ROAD, FAIRMONT, NC, 28340","Match","Exact","4768 PLEASANT HOPE RD, FAIRMONT, NC, 28340",636567655,"L"
661109,"4768 S 68TH STREET APT 8","GREENFIELD","WI",53220,42.95808656,-87.998444825,109,"4768 S 68TH STREET APT 8, GREENFIELD, WI, 53220","Match","Non_Exact","4768 S 68TH ST, GREENFIELD, WI, 53220",653396109,"L"
661110,"4768 SILVERLEAF AVE","FIRESTONE","CO",80504,40.1502743840001,-104.965122187,110,"4768 SILVERLEAF AVE, FIRESTONE, CO, 80504","Match","Exact","4768 SILVERLEAF AVE, FIRESTONE, CO, 80504",614126616,"R"
661111,"4768 THOMAS JEFFERSON DRIVE","FOREST","VA",24551,37.3247693690001,-79.305749425,111,"4768 THOMAS JEFFERSON DRIVE, FOREST, VA, 24551","Match","Non_Exact","4768 THOMAS JEFFERSON RD, FOREST, VA, 24551",228438477,"R"
661112,"4768 TIGER BLVD","DULUTH","GA",30096,NA,NA,112,"4768 TIGER BLVD, DULUTH, GA, 30096","No_Match",NA,NA,NA,NA
661113,"4768 VERSAILLES PARK COURT","FREMONT","CA",94538,37.5185287740001,-121.967073213,113,"4768 VERSAILLES PARK COURT, FREMONT, CA, 94538","Match","Exact","4768 VERSAILLES PARK CT, FREMONT, CA, 94538",125040668,"L"
661114,"4768 WILSHIRE","WEST BLOOMFIELD","MI",48322,NA,NA,114,"4768 WILSHIRE, WEST BLOOMFIELD, MI, 48322","No_Match",NA,NA,NA,NA
661115,"4768 WOODVILLE HWY 1728","TALLAHASSEE","FL",32305,30.375986364,-84.270322273,115,"4768 WOODVILLE HWY 1728, TALLAHASSEE, FL, 32305","Match","Exact","4768 WOODVILLE HWY, TALLAHASSEE, FL, 32305",82855633,"R"
661116,"4768 WOODVILLE HWY APT 1234","TALLAHASSEE","FL",32305,30.375986364,-84.270322273,116,"4768 WOODVILLE HWY APT 1234, TALLAHASSEE, FL, 32305","Match","Exact","4768 WOODVILLE HWY, TALLAHASSEE, FL, 32305",82855633,"R"
661117,"47682 ATTERBURY CT","HARRISBURG","SD",57032,NA,NA,117,"47682 ATTERBURY CT, HARRISBURG, SD, 57032","No_Match",NA,NA,NA,NA
661118,"4769 1/2 NARRAGANSETT","SAN DIEGO","CA",92107,32.7426927700001,-117.248479371,118,"4769 1/2 NARRAGANSETT, SAN DIEGO, CA, 92107","Match","Non_Exact","4769 NARRAGANSETT AVE, SAN DIEGO, CA, 92107",195339105,"L"
661119,"4769 HICKORY CREEK DRIVE","UNIVERSITY PARK","IL",60484,NA,NA,119,"4769 HICKORY CREEK DRIVE, UNIVERSITY PARK, IL, 60484","No_Match",NA,NA,NA,NA
661120,"4769 KERRY LYNN VIEW","COLORADO SPRINGS","CO",80922,38.9022204080001,-104.697566695,120,"4769 KERRY LYNN VIEW, COLORADO SPRINGS, CO, 80922","Match","Exact","4769 KERRY LYNN VW, COLORADO SPRINGS, CO, 80922",636093389,"R"
661121,"4769 N 148TH ST","OMAHA","NE",68116,41.301966744,-96.1455557199999,121,"4769 N 148TH ST, OMAHA, NE, 68116","Match","Exact","4769 N 148TH ST, OMAHA, NE, 68116",117035236,"R"
661122,"4769 NORVELL RD","GRASS LAKE","MI",49240,NA,NA,122,"4769 NORVELL RD, GRASS LAKE, MI, 49240","No_Match",NA,NA,NA,NA
661123,"4769 ORCHARD AVE","SAN DIEGO","CA",92107,32.7384536600001,-117.252106877,123,"4769 ORCHARD AVE, SAN DIEGO, CA, 92107","Match","Exact","4769 ORCHARD AVE, SAN DIEGO, CA, 92107",195339147,"L"
661124,"4769 PETERSBURG RD","PETERSBURG","KY",41080,39.0760982890001,-84.8036381539999,124,"4769 PETERSBURG RD, PETERSBURG, KY, 41080","Match","Exact","4769 PETERSBURG RD, PETERSBURG, KY, 41080",81965125,"L"
661125,"4769 RIVERSIDE DR","MEDON","TN",38356,35.4682809390001,-88.868176601,125,"4769 RIVERSIDE DR, MEDON, TN, 38356","Match","Exact","4769 RIVERSIDE DR, MEDON, TN, 38356",652875059,"L"
661126,"4769 SCR 19","TAYLORSVILLE","MS",39168,31.9108134700001,-89.440089768,126,"4769 SCR 19, TAYLORSVILLE, MS, 39168","Match","Non_Exact","4769 CO RD 19, TAYLORSVILLE, MS, 39168",573114,"L"
661127,"4769 SONADA COURT","SARASOTA","FL",34231,27.284466852,-82.516648521,127,"4769 SONADA COURT, SARASOTA, FL, 34231","Match","Exact","4769 SONADA CT, SARASOTA, FL, 34231",16447920,"R"
661128,"4769 W COUNTRY CLUB DR","HIGHLAND","UT",84003,40.4293706720001,-111.772680505,128,"4769 W COUNTRY CLUB DR, HIGHLAND, UT, 84003","Match","Exact","4769 COUNTRY CLUB DR, HIGHLAND, UT, 84003",636261954,"L"
661129,"4769 WALFORD RD APT 10","WARRENSVILLE HTS","OH",44128,41.4312446640001,-81.5096471419999,129,"4769 WALFORD RD APT 10, WARRENSVILLE HTS, OH, 44128","Match","Exact","4769 WALFORD RD, WARRENSVILLE HEIGHTS, OH, 44128",61135427,"L"
661130,"47691 340TH STREET","PIERSON","IA",51048,NA,NA,130,"47691 340TH STREET, PIERSON, IA, 51048","No_Match",NA,NA,NA,NA
661131,"476979 E 1060 RD","MULDROW","OK",74948,35.477774852,-94.532573424,131,"476979 E 1060 RD, MULDROW, OK, 74948","Match","Exact","476979 E 1060 RD, MULDROW, OK, 74948",651764788,"R"
661132,"477 1/2 SANCHEZ ST","SAN FRANSICO","CA",94114,37.761514409,-122.43059917,132,"477 1/2 SANCHEZ ST, SAN FRANSICO, CA, 94114","Match","Non_Exact","477 SANCHEZ ST, SAN FRANCISCO, CA, 94114",192284097,"L"
661133,"477 10TH ST APT B","GREENFIELD","CA",93927,36.324288332,-121.249049959,133,"477 10TH ST APT B, GREENFIELD, CA, 93927","Match","Exact","477 10TH ST, GREENFIELD, CA, 93927",196875996,"L"
661134,"477 137TH AVE","WAYLAND","MI",49348,42.688527068,-85.592073885,134,"477 137TH AVE, WAYLAND, MI, 49348","Match","Exact","477 137TH AVE, WAYLAND, MI, 49348",11417697,"L"
661135,"477 17TH STREET- 2","BROOKLYN","NY",11419,NA,NA,135,"477 17TH STREET- 2, BROOKLYN, NY, 11419","No_Match",NA,NA,NA,NA
661136,"477 17TH STREET","BROOKLYN","NY",11215,40.6586366130001,-73.982864274,136,"477 17TH STREET, BROOKLYN, NY, 11215","Match","Exact","477 17TH ST, BROOKLYN, NY, 11215",59075829,"L"
661137,"477 1ST STREET SW","WARREN","OH",44485,41.227028654,-80.823716799,137,"477 1ST STREET SW, WARREN, OH, 44485","Match","Exact","477 1ST ST SW, WARREN, OH, 44485",117405254,"L"
661138,"477 9TH STREET","BLAINE","WA",98230,48.99682405,-122.738883294,138,"477 9TH STREET, BLAINE, WA, 98230","Match","Exact","477 9TH ST, BLAINE, WA, 98230",183778416,"R"
661139,"477 ASH STREET","ELKO","NV",89801,40.836266311,-115.769077068,139,"477 ASH STREET, ELKO, NV, 89801","Match","Exact","477 ASH ST, ELKO, NV, 89801",154548908,"L"
661140,"477 AVENUE C","BAYONNE","NJ",7002,40.663656432,-74.1217906749999,140,"477 AVENUE C, BAYONNE, NJ, 7002","Match","Exact","477 AVE C, BAYONNE, NJ, 07002",59602642,"L"
661141,"477 B GA HWY 30 W","AMERICUS","GA",31719,32.0883601410001,-84.277488734,141,"477 B GA HWY 30 W, AMERICUS, GA, 31719","Match","Exact","477 HWY 30 W, AMERICUS, GA, 31719",30746018,"L"
661142,"477 BEND OF THE LAKES RD","SOMERSET","KY",42501,37.0165428780001,-84.591955797,142,"477 BEND OF THE LAKES RD, SOMERSET, KY, 42501","Match","Exact","477 BEND OF THE LAKES RD, SOMERSET, KY, 42501",639643314,"L"
661143,"477 BIG OAKS DRIVE","LOUISVILLE","KY",40229,38.0840813660001,-85.692682721,143,"477 BIG OAKS DRIVE, LOUISVILLE, KY, 40229","Match","Exact","477 BIG OAKS DR, LOUISVILLE, KY, 40229",47743017,"L"
661144,"477 BOTTESFORD DRIVE","KENNESAW","GA",30144,34.0555237740001,-84.5608312259999,144,"477 BOTTESFORD DRIVE, KENNESAW, GA, 30144","Match","Non_Exact","477 BOTTESFORD DR NW, KENNESAW, GA, 30144",17224900,"L"
661145,"477 BOULDER DR","MORGANVILLE","NJ",7751,40.3823983250001,-74.219162379,145,"477 BOULDER DR, MORGANVILLE, NJ, 7751","Match","Exact","477 BOULDER DR, MORGANVILLE, NJ, 07751",647641391,"L"
661146,"477 BRUINS TRCE","CORDOVA","TN",38018,35.1384139250001,-89.777250534,146,"477 BRUINS TRCE, CORDOVA, TN, 38018","Match","Exact","477 BRUINS TRCE, CORDOVA, TN, 38018",72959346,"R"
661147,"477 BRUSH VALLEY ROAD","SUNBURY","PA",17801,40.8311866710001,-76.796994642,147,"477 BRUSH VALLEY ROAD, SUNBURY, PA, 17801","Match","Exact","477 BRUSH VALLEY RD, SUNBURY, PA, 17801",48077388,"L"
661148,"477 BUNTE ROAD","SMITHVILLE","TX",78957,29.993783777,-97.1475543559999,148,"477 BUNTE ROAD, SMITHVILLE, TX, 78957","Match","Non_Exact","477 BUNTE ST, SMITHVILLE, TX, 78957",45492997,"R"
661149,"477 CAMDEN AVE","CAMPBELL","OH",44405,NA,NA,149,"477 CAMDEN AVE, CAMPBELL, OH, 44405","No_Match",NA,NA,NA,NA
661150,"477 CAMDEN DRIVE","ANKENY","IA",50023,41.7273959770001,-93.651319367,150,"477 CAMDEN DRIVE, ANKENY, IA, 50023","Match","Non_Exact","477 SW CAMDEN DR, ANKENY, IA, 50023",628841892,"R"
661151,"477 CANE RUN RD","GEORGETOWN","KY",40324,38.195519426,-84.610733723,151,"477 CANE RUN RD, GEORGETOWN, KY, 40324","Match","Exact","477 CANE RUN RD, GEORGETOWN, KY, 40324",651726413,"L"
661152,"477 CENTER STREET","PASADENA","MD",21122,39.0975004850001,-76.5284393479999,152,"477 CENTER STREET, PASADENA, MD, 21122","Match","Exact","477 CENTER ST, PASADENA, MD, 21122",68168879,"R"
661153,"477 CHARBONNEAU DRIVE","RICHLAND","WA",99352,46.2380409960001,-119.251461071,153,"477 CHARBONNEAU DRIVE, RICHLAND, WA, 99352","Match","Non_Exact","477 CHARBONNEAU ST, RICHLAND, WA, 99352",630124883,"R"
661154,"477 CHERRY HILL LN","LEBANON","OH",45036,39.4261159320001,-84.220191085,154,"477 CHERRY HILL LN, LEBANON, OH, 45036","Match","Exact","477 CHERRY HILL LN, LEBANON, OH, 45036",159041383,"R"
661155,"477 CLEVELAND STREET","WALTERBORO","SC",29488,32.889432195,-80.653783053,155,"477 CLEVELAND STREET, WALTERBORO, SC, 29488","Match","Exact","477 CLEVELAND ST, WALTERBORO, SC, 29488",19156387,"R"
661156,"477 CONGRESS ST STE 1000","PORTLAND","ME",4101,43.65697713,-70.259749703,156,"477 CONGRESS ST STE 1000, PORTLAND, ME, 4101","Match","Exact","477 CONGRESS ST, PORTLAND, ME, 04101",78028209,"R"
661157,"477 COUNTRYWOOD PLACE SE","CONCORD","NC",28025,35.405136188,-80.552304178,157,"477 COUNTRYWOOD PLACE SE, CONCORD, NC, 28025","Match","Exact","477 COUNTRYWOOD PL SE, CONCORD, NC, 28025",24909482,"R"
661158,"477 COUNTY ROAD 1400 N","CHAMPAIGN","IL",61822,40.08419702,-88.374407638,158,"477 COUNTY ROAD 1400 N, CHAMPAIGN, IL, 61822","Match","Exact","477 CO RD 1400 N, CHAMPAIGN, IL, 61822",8808134,"R"
661159,"477 COUNTY ROUTE 353","RENSSELAERVILLE","NY",12147,42.509823204,-74.1799862139999,159,"477 COUNTY ROUTE 353, RENSSELAERVILLE, NY, 12147","Match","Non_Exact","477 CO RD 353, RENSSELAERVILLE, NY, 12147",18361743,"R"
661160,"477 CREEK LANDING ST","DANIEL ISLAND","SC",29492,32.8765864810001,-79.895955245,160,"477 CREEK LANDING ST, DANIEL ISLAND, SC, 29492","Match","Exact","477 CREEK LANDING ST, DANIEL ISLAND, SC, 29492",617585727,"L"
661161,"477 CROWN DR","FORT MILL","SC",29715,35.0511401040001,-80.988960623,161,"477 CROWN DR, FORT MILL, SC, 29715","Match","Non_Exact","477 CROWN DR, FORT MILL, SC, 29708",618821567,"L"
661162,"477 DALTON RD","NEENAH","WI",54956,44.1316988660001,-88.4815679989999,162,"477 DALTON RD, NEENAH, WI, 54956","Match","Exact","477 DALTON RD, NEENAH, WI, 54956",647220604,"L"
661163,"477 DEBELLVUE","MARKSVILLE","LA",71351,31.1311244360001,-92.073354149,163,"477 DEBELLVUE, MARKSVILLE, LA, 71351","Match","Non_Exact","477 DEBELLEVUE DR, MARKSVILLE, LA, 71351",13147378,"R"
661164,"477 DOLE HILL ROAD","DANVILLE","VT",5828,44.426067066,-72.110639707,164,"477 DOLE HILL ROAD, DANVILLE, VT, 5828","Match","Exact","477 DOLE HILL RD, DANVILLE, VT, 05828",181081586,"L"
661165,"477 E HILLSDALE BLVD","SAN MATEO","CA",94403,37.5436089890001,-122.289547611,165,"477 E HILLSDALE BLVD, SAN MATEO, CA, 94403","Match","Exact","477 E HILLSDALE BLVD, SAN MATEO, CA, 94403",192407327,"L"
661166,"477 EARL PLACE","MONTGOMERY","AL",36104,32.3598633010001,-86.300744687,166,"477 EARL PLACE, MONTGOMERY, AL, 36104","Match","Exact","477 EARL PL, MONTGOMERY, AL, 36104",1547783,"L"
661167,"477 EAST 96THY STREET","BROOKLYN","NY",11212,40.6562435320001,-73.916043013,167,"477 EAST 96THY STREET, BROOKLYN, NY, 11212","Match","Non_Exact","477 E 96TH ST, BROOKLYN, NY, 11212",59084011,"L"
661168,"477 EAST ANTIOCH RD","BLOOMFIELD","IN",47424,38.9759731190001,-86.9345749829999,168,"477 EAST ANTIOCH RD, BLOOMFIELD, IN, 47424","Match","Exact","477 E ANTIOCH RD, BLOOMFIELD, IN, 47424",625552471,"L"
661169,"477 EASTERN COURT","ABERDEEN","MD",21001,39.505766597,-76.179768157,169,"477 EASTERN COURT, ABERDEEN, MD, 21001","Match","Exact","477 EASTERN CT, ABERDEEN, MD, 21001",643981374,"R"
661170,"477 EMPIRE BLVD","BROOKLYN","NY",11225,40.664185451,-73.946359263,170,"477 EMPIRE BLVD, BROOKLYN, NY, 11225","Match","Exact","477 EMPIRE BLVD, BROOKLYN, NY, 11225",59079574,"L"
661171,"477 FDR DRIVE APT M1603","NEW YORK","NY",10002,NA,NA,171,"477 FDR DRIVE APT M1603, NEW YORK, NY, 10002","No_Match",NA,NA,NA,NA
661172,"477 FRANKLIN AVE","BELLEVILLE","NJ",7109,NA,NA,172,"477 FRANKLIN AVE, BELLEVILLE, NJ, 7109","No_Match",NA,NA,NA,NA
661173,"477 FRANKLIN AVENUE","PORT CHESTER","NY",10573,41.0033603900001,-73.678569549,173,"477 FRANKLIN AVENUE, PORT CHESTER, NY, 10573","Match","Non_Exact","477 FRANKLIN ST, PORT CHESTER, NY, 10573",139761927,"R"
661174,"477 FRANKLIN STREET","PORT CHESTER","NY",10573,41.0033603900001,-73.678569549,174,"477 FRANKLIN STREET, PORT CHESTER, NY, 10573","Match","Exact","477 FRANKLIN ST, PORT CHESTER, NY, 10573",139761927,"R"
661175,"477 GRAND STREET","NEW YORK","NY",10002,40.7150469050001,-73.983727296,175,"477 GRAND STREET, NEW YORK, NY, 10002","Match","Exact","477 GRAND ST, NEW YORK, NY, 10002",59654331,"R"
661176,"477 GUYLYN DRIVE","PITTSBURGH","PA",15235,40.4667446080001,-79.803944063,176,"477 GUYLYN DRIVE, PITTSBURGH, PA, 15235","Match","Exact","477 GUYLYN DR, PITTSBURGH, PA, 15235",51668478,"R"
661177,"477 HALSEY STREET","BROOKLYN","NY",11233,40.68367899,-73.9336267209999,177,"477 HALSEY STREET, BROOKLYN, NY, 11233","Match","Exact","477 HALSEY ST, BROOKLYN, NY, 11233",59082768,"L"
661178,"477 HARPER ROAD","CLOVER","SC",29710,NA,NA,178,"477 HARPER ROAD, CLOVER, SC, 29710","No_Match",NA,NA,NA,NA
661179,"477 HARRISON STREET W","VALE","OR",97918,43.983439511,-117.243855574,179,"477 HARRISON STREET W, VALE, OR, 97918","Match","Exact","477 HARRISON ST W, VALE, OR, 97918",138630295,"R"
661180,"477 HARTWOOD ROAD","FREDERICKSBURG","VA",22406,38.428792393,-77.5774865989999,180,"477 HARTWOOD ROAD, FREDERICKSBURG, VA, 22406","Match","Exact","477 HARTWOOD RD, FREDERICKSBURG, VA, 22406",632545185,"L"
661181,"477 HELLER DRIVE","NEWCOMERSTOWN","OH",43832,40.268990176,-81.607956047,181,"477 HELLER DRIVE, NEWCOMERSTOWN, OH, 43832","Match","Exact","477 HELLER DR, NEWCOMERSTOWN, OH, 43832",612279093,"R"
661182,"477 HERKIMER","BROOKLYN","NY",11212,NA,NA,182,"477 HERKIMER, BROOKLYN, NY, 11212","No_Match",NA,NA,NA,NA
661183,"477 HIGHLAND AVENUE","CLIFTON","NJ",7011,40.867328457,-74.1466458789999,183,"477 HIGHLAND AVENUE, CLIFTON, NJ, 7011","Match","Exact","477 HIGHLAND AVE, CLIFTON, NJ, 07011",65250921,"L"
661184,"477 HINMAN AVE","BUFFALO","NY",14216,42.9565396250001,-78.8872701459999,184,"477 HINMAN AVE, BUFFALO, NY, 14216","Match","Exact","477 HINMAN AVE, BUFFALO, NY, 14216",48288374,"R"
661185,"477 JEAN STREET UNIT A","OAKLAND","CA",94610,37.815586594,-122.24982999,185,"477 JEAN STREET UNIT A, OAKLAND, CA, 94610","Match","Exact","477 JEAN ST, OAKLAND, CA, 94610",617286284,"L"
661186,"477 JENI LANE","MILFORD","MI",48380,42.611725784,-83.6876333709999,186,"477 JENI LANE, MILFORD, MI, 48380","Match","Exact","477 JENI LN, MILFORD, MI, 48380",23549970,"L"
661187,"477 JOSEPHINE","MEMPHIS","TN",38111,35.1189770240001,-89.969509094,187,"477 JOSEPHINE, MEMPHIS, TN, 38111","Match","Non_Exact","477 JOSEPHINE ST, MEMPHIS, TN, 38111",72918071,"R"
661188,"477 KING STREET","DENVER","CO",80204,39.7240955600001,-105.033712723,188,"477 KING STREET, DENVER, CO, 80204","Match","Exact","477 KING ST, DENVER, CO, 80204",177327322,"L"
661189,"477 KLONDIKE AVE","STATEN ISLAND","NY",10314,40.5863907360001,-74.152510439,189,"477 KLONDIKE AVE, STATEN ISLAND, NY, 10314","Match","Exact","477 KLONDIKE AVE, STATEN ISLAND, NY, 10314",59883445,"R"
661190,"477 LAKE MEADE DRIVE","EAST BERLIN","PA",17316,39.9750575620001,-77.0394355769999,190,"477 LAKE MEADE DRIVE, EAST BERLIN, PA, 17316","Match","Exact","477 LAKE MEADE DR, EAST BERLIN, PA, 17316",60884799,"L"
661191,"477 LAKE PARK DRIVE","BIRMINGHAM","MI",48009,42.5491982440001,-83.2288218689999,191,"477 LAKE PARK DRIVE, BIRMINGHAM, MI, 48009","Match","Exact","477 LAKE PARK DR, BIRMINGHAM, MI, 48009",69733452,"L"
661192,"477 LINDSEY LOOP RD","FLETCHER","NC",28732,35.4559680250001,-82.432869766,192,"477 LINDSEY LOOP RD, FLETCHER, NC, 28732","Match","Exact","477 LINDSEY LOOP RD, FLETCHER, NC, 28732",152316417,"L"
661193,"477 LOCUST AVE","AMSTERDAM","NY",12010,42.958710884,-74.175623602,193,"477 LOCUST AVE, AMSTERDAM, NY, 12010","Match","Exact","477 LOCUST AVE, AMSTERDAM, NY, 12010",18615916,"R"
661194,"477 MADISON AVE 6FLOOR","NEW YORK","NY",10022,40.7587025120001,-73.97496943,194,"477 MADISON AVE 6FLOOR, NEW YORK, NY, 10022","Match","Exact","477 MADISON AVE, NEW YORK, NY, 10022",59657217,"R"
661195,"477 MADISON AVE 6TH FL","NEW YORK","NY",10022,40.7587025120001,-73.97496943,195,"477 MADISON AVE 6TH FL, NEW YORK, NY, 10022","Match","Exact","477 MADISON AVE, NEW YORK, NY, 10022",59657217,"R"
661196,"477 MAY QUEEN DR","CRIPPLE CREEK","CO",80813,38.7986773920001,-105.19242927,196,"477 MAY QUEEN DR, CRIPPLE CREEK, CO, 80813","Match","Exact","477 MAY QUEEN DR, CRIPPLE CREEK, CO, 80813",605767311,"L"
661197,"477 MORNINGSIDE DR","BATTLE CREEK","MI",49015,42.284789511,-85.18009518,197,"477 MORNINGSIDE DR, BATTLE CREEK, MI, 49015","Match","Exact","477 MORNINGSIDE DR, BATTLE CREEK, MI, 49015",11716258,"L"
661198,"477 MOUNTAIN AVENUE","NORTH PLAINFIELD","NJ",7063,NA,NA,198,"477 MOUNTAIN AVENUE, NORTH PLAINFIELD, NJ, 7063","No_Match",NA,NA,NA,NA
661199,"477 MOUNTAIN VIEW","NORTH PLAINFIELD","NJ",7063,40.6129829380001,-74.450808549,199,"477 MOUNTAIN VIEW, NORTH PLAINFIELD, NJ, 7063","Match","Non_Exact","477 MOUNTAINVIEW DR, N PLAINFIELD, NJ, 07063",59941300,"L"
661200,"477 MOUNTAINVIEW DRIVE","NORTH PLAINFIELD","NJ",7063,40.6129829380001,-74.450808549,200,"477 MOUNTAINVIEW DRIVE, NORTH PLAINFIELD, NJ, 7063","Match","Exact","477 MOUNTAINVIEW DR, N PLAINFIELD, NJ, 07063",59941300,"L"
661201,"477 MT LOOKOUT DR","CANYON LAKE","TX",78133,29.8846042980001,-98.211066422,201,"477 MT LOOKOUT DR, CANYON LAKE, TX, 78133","Match","Exact","477 MOUNT LOOKOUT DR, CANYON LAKE, TX, 78133",72238890,"R"
661202,"477 MYRON TAYLOR HALL","ITHACA","NY",14853,NA,NA,202,"477 MYRON TAYLOR HALL, ITHACA, NY, 14853","No_Match",NA,NA,NA,NA
661203,"477 N LINDBERGH BLVD STE 320","ST LOUIS","MO",63141,38.6659595620001,-90.405073289,203,"477 N LINDBERGH BLVD STE 320, ST LOUIS, MO, 63141","Match","Non_Exact","477 N LINDBERGH BLVD, SAINT LOUIS, MO, 63141",604466381,"L"
661204,"477 N MATHILDA AVE","SUNNYVALE","CA",94085,NA,NA,204,"477 N MATHILDA AVE, SUNNYVALE, CA, 94085","No_Match",NA,NA,NA,NA
661205,"477 NAHATAN ST","NORWOOD","MA",2062,42.203165836,-71.207484719,205,"477 NAHATAN ST, NORWOOD, MA, 2062","Match","Exact","477 NAHATAN ST, NORWOOD, MA, 02062",87279013,"R"
661206,"477 NORTH PARISH RD","TURNER","ME",4282,44.302877756,-70.222470631,206,"477 NORTH PARISH RD, TURNER, ME, 4282","Match","Exact","477 N PARISH RD, TURNER, ME, 04282",77975579,"R"
661207,"477 OAK RIDGE LANE","WILLIAMSON","GA",30292,33.182959505,-84.4009103289999,207,"477 OAK RIDGE LANE, WILLIAMSON, GA, 30292","Match","Exact","477 OAK RIDGE LN, WILLIAMSON, GA, 30292",614169199,"L"
661208,"477 OLENWOOD AVE","WORTHINGTON","OH",43085,40.107894539,-83.0292634589999,208,"477 OLENWOOD AVE, WORTHINGTON, OH, 43085","Match","Exact","477 OLENWOOD AVE, WORTHINGTON, OH, 43085",218661994,"L"
661209,"477 PEACHTREE ST","ATLANTA","GA",30308,33.767553655,-84.3853588919999,209,"477 PEACHTREE ST, ATLANTA, GA, 30308","Match","Exact","477 PEACHTREE ST, ATLANTA, GA, 30308",618349709,"R"
661210,"477 PETTIT HEIGHTS ROAD","WELLSBURG","WV",26070,40.2268683770001,-80.627661374,210,"477 PETTIT HEIGHTS ROAD, WELLSBURG, WV, 26070","Match","Exact","477 PETTIT HEIGHTS RD, WELLSBURG, WV, 26070",54995722,"L"
661211,"477 PIMLICO PLACE","JACKSON","MS",39211,32.3729967300001,-90.144882131,211,"477 PIMLICO PLACE, JACKSON, MS, 39211","Match","Exact","477 PIMLICO PL, JACKSON, MS, 39211",65360855,"L"
661212,"477 PIONEER LN","JOHNSTOW","CO",80534,40.328310034,-104.913330301,212,"477 PIONEER LN, JOHNSTOW, CO, 80534","Match","Non_Exact","477 PIONEER LN, JOHNSTOWN, CO, 80534",643014958,"L"
661213,"477 POLARIS RD","GREEN BAY","WI",54302,44.4924400090001,-87.9552356089999,213,"477 POLARIS RD, GREEN BAY, WI, 54302","Match","Exact","477 POLARIS RD, GREEN BAY, WI, 54302",148104384,"L"
661214,"477 RIDGE STREET NW","WASHINGTON","DC",20001,38.9064573690001,-77.0181931349999,214,"477 RIDGE STREET NW, WASHINGTON, DC, 20001","Match","Exact","477 RIDGE ST NW, WASHINGTON, DC, 20001",76226237,"R"
661215,"477 RIDGEVIEW CIR S","SPRINGFIELD","OH",45504,39.9433364010001,-83.817739482,215,"477 RIDGEVIEW CIR S, SPRINGFIELD, OH, 45504","Match","Exact","477 RIDGEVIEW CIR S, SPRINGFIELD, OH, 45504",135019674,"R"
661216,"477 ROBERTS LANE","HELTONVILLE","IN",47436,38.9395010800001,-86.367618937,216,"477 ROBERTS LANE, HELTONVILLE, IN, 47436","Match","Exact","477 ROBERTS LN, HELTONVILLE, IN, 47436",648427314,"L"
661217,"477 ROMAN DRIVE","TRAVERSE CITY","MI",49685,44.6921850740001,-85.681549524,217,"477 ROMAN DRIVE, TRAVERSE CITY, MI, 49685","Match","Exact","477 ROMAN DR, TRAVERSE CITY, MI, 49685",649501835,"L"
661218,"477 ROOSEVELT COURT","HAMMOND","IN",46320,41.622448879,-87.516018246,218,"477 ROOSEVELT COURT, HAMMOND, IN, 46320","Match","Exact","477 ROOSEVELT CT, HAMMOND, IN, 46320",98440717,"L"
661219,"477 ROUND FISH DRIVE","SANFORD","NC",27330,35.51804915,-78.999191503,219,"477 ROUND FISH DRIVE, SANFORD, NC, 27330","Match","Exact","477 ROUND FISH DR, SANFORD, NC, 27330",72077970,"L"
661220,"477 S DELMAR","DECATUR","IL",62522,39.837165385,-88.9946087549999,220,"477 S DELMAR, DECATUR, IL, 62522","Match","Non_Exact","477 S DELMAR AVE, DECATUR, IL, 62522",20743561,"R"
661221,"477 SHOUP AVE","IDAHO FALLS","ID",83402,43.492849569,-112.039174096,221,"477 SHOUP AVE, IDAHO FALLS, ID, 83402","Match","Exact","477 SHOUP AVE, IDAHO FALLS, ID, 83402",119118718,"L"
661222,"477 SOLON ROAD","CHAGRIN FALLS","OH",44022,41.416646766,-81.403403698,222,"477 SOLON ROAD, CHAGRIN FALLS, OH, 44022","Match","Exact","477 SOLON RD, CHAGRIN FALLS, OH, 44022",61137227,"L"
661223,"477 SOUTH HIGHWAY 17","EAST PALATKA","FL",32131,NA,NA,223,"477 SOUTH HIGHWAY 17, EAST PALATKA, FL, 32131","No_Match",NA,NA,NA,NA
661224,"477 STOCKBRIDGE CORNER ROAD","ALTON","NH",3809,43.4138396330001,-71.2146536829999,224,"477 STOCKBRIDGE CORNER ROAD, ALTON, NH, 3809","Match","Exact","477 STOCKBRIDGE CORNER RD, ALTON, NH, 03809",145498055,"L"
661225,"477 SUMMERFIELD CIRCLE","ANAHEIM","CA",92802,33.791637935,-117.912365767,225,"477 SUMMERFIELD CIRCLE, ANAHEIM, CA, 92802","Match","Non_Exact","477 W SUMMERFIELD CIR, ANAHEIM, CA, 92802",636432307,"L"
661226,"477 SUNNYSIDE ST","LOUISVILLE","CO",80027,39.9895326920001,-105.137635357,226,"477 SUNNYSIDE ST, LOUISVILLE, CO, 80027","Match","Exact","477 SUNNYSIDE ST, LOUISVILLE, CO, 80027",188165822,"L"
661227,"477 SW 198TH AVE","BEAVERTON","OR",97006,45.516310011,-122.881144485,227,"477 SW 198TH AVE, BEAVERTON, OR, 97006","Match","Exact","477 SW 198TH AVE, BEAVERTON, OR, 97006",641909540,"L"
661228,"477 SW QUAKER ROAD","COLUMBUS","KS",66725,37.089958118,-94.8384826829999,228,"477 SW QUAKER ROAD, COLUMBUS, KS, 66725","Match","Exact","477 SW QUAKER RD, COLUMBUS, KS, 66725",65901876,"R"
661229,"477 SW SUNDANCE TRAIL","PORT ST LUCIE","FL",34953,27.228560438,-80.352490115,229,"477 SW SUNDANCE TRAIL, PORT ST LUCIE, FL, 34953","Match","Exact","477 SW SUNDANCE TRL, PORT ST LUCIE, FL, 34953",610709351,"L"
661230,"477 TAMARACK WATERWORKS RD","CALUMET","MI",49913,47.286193788,-88.4919005629999,230,"477 TAMARACK WATERWORKS RD, CALUMET, MI, 49913","Match","Exact","477 TAMARACK WATERWORKS RD, CALUMET, MI, 49913",651374927,"R"
661231,"477 THIRD STREET APT 4C","BROOKLYN","NY",11215,40.67093075,-73.979403347,231,"477 THIRD STREET APT 4C, BROOKLYN, NY, 11215","Match","Exact","477 3RD ST, BROOKLYN, NY, 11215",59078141,"L"
661232,"477 TIMBERLAKE DR EAST","HOLLAND","MI",49424,NA,NA,232,"477 TIMBERLAKE DR EAST, HOLLAND, MI, 49424","Tie",NA,NA,NA,NA
661233,"477 VILLAGE SQUARE CT","STONE MOUNTAIN","GA",30083,33.790232213,-84.216194257,233,"477 VILLAGE SQUARE CT, STONE MOUNTAIN, GA, 30083","Match","Exact","477 VILLAGE SQUARE CT, STONE MOUNTAIN, GA, 30083",23377926,"L"
661234,"477 VINSON RD","CLAYTON","NC",27527,35.6149354460001,-78.358546039,234,"477 VINSON RD, CLAYTON, NC, 27527","Match","Exact","477 VINSON RD, CLAYTON, NC, 27527",624007729,"L"
661235,"477 W MARGARET TERRACE","CARY","IL",60013,42.2168974850001,-88.248954606,235,"477 W MARGARET TERRACE, CARY, IL, 60013","Match","Exact","477 W MARGARET TER, CARY, IL, 60013",119823755,"R"
661236,"477 W WASON ST","CITRUS SPRINGS","FL",34434,29.0115743650001,-82.443236658,236,"477 W WASON ST, CITRUS SPRINGS, FL, 34434","Match","Non_Exact","477 W WASON DR, CITRUS SPRINGS, FL, 34434",86210439,"L"
661237,"477 WEST 143 STREET APT 4C","NEW YORK","NY",10031,40.8237915070001,-73.94817589,237,"477 WEST 143 STREET APT 4C, NEW YORK, NY, 10031","Match","Exact","477 W 143RD ST, NEW YORK, NY, 10031",59655960,"R"
661238,"477 WHITEPOND DRIVE 529","AKRON","OH",44320,41.102996138,-81.586181046,238,"477 WHITEPOND DRIVE 529, AKRON, OH, 44320","Match","Non_Exact","477 WHITE POND DR, AKRON, OH, 44320",61338004,"L"
661239,"477 WHITESTAR AVE","WEST HEMPSTEAD","NY",11552,40.6797831160001,-73.655558578,239,"477 WHITESTAR AVE, WEST HEMPSTEAD, NY, 11552","Match","Exact","477 WHITESTAR AVE, W HEMPSTEAD, NY, 11552",147674733,"L"
661240,"477 WILLIS COURT","EL CAJON","CA",92020,32.799646807,-116.991039037,240,"477 WILLIS COURT, EL CAJON, CA, 92020","Match","Exact","477 WILLIS CT, EL CAJON, CA, 92020",195328196,"L"
661241,"477 WILMER ST NE UNIT 2514","ATLANTA","GA",30308,33.7677080020001,-84.36625807,241,"477 WILMER ST NE UNIT 2514, ATLANTA, GA, 30308","Match","Exact","477 WILMER ST NE, ATLANTA, GA, 30308",17356873,"R"
661242,"477 WINDROWE DRIVE","COOKEVILLE","TN",38501,36.1253425950001,-85.4932683439999,242,"477 WINDROWE DRIVE, COOKEVILLE, TN, 38501","Match","Non_Exact","477 WINDROWE DR, COOKEVILLE, TN, 38506",25152259,"R"
661243,"477 WINNECOOK ROAD","BURNHAM","ME",4922,44.6581402850001,-69.365996324,243,"477 WINNECOOK ROAD, BURNHAM, ME, 4922","Match","Exact","477 WINNECOOK RD, BURNHAM, ME, 04922",632921251,"R"
661244,"477 WISCASSET ROAD","BOOTHBAY","ME",4537,43.908924046,-69.616217951,244,"477 WISCASSET ROAD, BOOTHBAY, ME, 4537","Match","Exact","477 WISCASSET RD, BOOTHBAY, ME, 04537",610465899,"L"
661245,"477 WORDSWORTH CT","RICHMOND HTS","OH",44143,41.550095318,-81.4907503599999,245,"477 WORDSWORTH CT, RICHMOND HTS, OH, 44143","Match","Exact","477 WORDSWORTH CT, RICHMOND HEIGHTS, OH, 44143",61154951,"R"
661246,"477-A COUNTY ROAD 312","SWEETWATER","TN",37874,35.603923078,-84.544993717,246,"477-A COUNTY ROAD 312, SWEETWATER, TN, 37874","Match","Exact","477 CO RD 312, SWEETWATER, TN, 37874",88548249,"L"
661247,"477","BRONX","NY",10470,NA,NA,247,"477, BRONX, NY, 10470","No_Match",NA,NA,NA,NA
661248,"4770 ASHERTON PLACE NW","CONCORD","NC",28027,35.3786699720001,-80.665987722,248,"4770 ASHERTON PLACE NW, CONCORD, NC, 28027","Match","Non_Exact","4770 ASHERTON PL, CONCORD, NC, 28027",24914858,"R"
661249,"4770 AVERY LANE","LAKE OSWEGO","OR",97035,45.423842258,-122.725672537,249,"4770 AVERY LANE, LAKE OSWEGO, OR, 97035","Match","Exact","4770 AVERY LN, LAKE OSWEGO, OR, 97035",157949249,"R"
661250,"4770 BARELA WAY","LAS VEGAS","NV",89147,36.1026846230001,-115.270371236,250,"4770 BARELA WAY, LAS VEGAS, NV, 89147","Match","Exact","4770 BARELA WAY, LAS VEGAS, NV, 89147",201900325,"L"
661251,"4770 BASSWOOD STREET","LAND O'LAKES","FL",34639,28.225838003,-82.38139001,251,"4770 BASSWOOD STREET, LAND O'LAKES, FL, 34639","Match","Non_Exact","4770 BASSWOOD ST, LAND O LAKES, FL, 34639",86381245,"R"
661252,"4770 BATAVIA ELBA TOWNLINE ROAD","BATAVIA","NY",14020,43.0446426340001,-78.166552084,252,"4770 BATAVIA ELBA TOWNLINE ROAD, BATAVIA, NY, 14020","Match","Exact","4770 BATAVIA ELBA TOWNLINE RD, BATAVIA, NY, 14020",48154566,"R"
661253,"4770 BEIDLER RD","WILLOUGHBY","OH",44094,41.6294911780001,-81.430949772,253,"4770 BEIDLER RD, WILLOUGHBY, OH, 44094","Match","Exact","4770 BEIDLER RD, WILLOUGHBY, OH, 44094",137472848,"R"
661254,"4770 BISCAYNE BLVD STE 1280","MIAMI","FL",33137,NA,NA,254,"4770 BISCAYNE BLVD STE 1280, MIAMI, FL, 33137","No_Match",NA,NA,NA,NA
661255,"4770 BISCAYNE BLVD SUITE 1280","MIAMI","FL",33137,NA,NA,255,"4770 BISCAYNE BLVD SUITE 1280, MIAMI, FL, 33137","No_Match",NA,NA,NA,NA
661256,"4770 BISCAYNE BLVD SUITE1280","MIAMI","FL",33137,NA,NA,256,"4770 BISCAYNE BLVD SUITE1280, MIAMI, FL, 33137","No_Match",NA,NA,NA,NA
661257,"4770 BISCAYNE BOULEVARD SUITE 1280","MIAMI","FL",99999,25.8230596610001,-80.187018334,257,"4770 BISCAYNE BOULEVARD SUITE 1280, MIAMI, FL, 99999","Match","Non_Exact","4770 BISCAYNE BLVD, MIAMI, FL, 33137",116007737,"L"
661258,"4770 BRITTANY CT","RENO","NV",89509,39.4820162830001,-119.801655927,258,"4770 BRITTANY CT, RENO, NV, 89509","Match","Exact","4770 BRITTANY CT, RENO, NV, 89509",107073264,"R"
661259,"4770 CEMETERY ROAD","FOWLERVILLE","MI",48836,42.668462393,-84.054057164,259,"4770 CEMETERY ROAD, FOWLERVILLE, MI, 48836","Match","Exact","4770 CEMETERY RD, FOWLERVILLE, MI, 48836",619588745,"R"
661260,"4770 CLAYTON CROSSING LANE","ELLENWOOD","GA",30294,33.6242505820001,-84.265236979,260,"4770 CLAYTON CROSSING LANE, ELLENWOOD, GA, 30294","Match","Exact","4770 CLAYTON CROSSING LN, ELLENWOOD, GA, 30294",23329955,"L"
661261,"4770 FARMINDALE DR","COLORADO SPRINGS","CO",80918,38.9084360890001,-104.737772924,261,"4770 FARMINDALE DR, COLORADO SPRINGS, CO, 80918","Match","Non_Exact","4770 FARMINGDALE DR, COLORADO SPRINGS, CO, 80918",610704893,"R"
661262,"4770 FORESTGLADE COURT","STONE MOUNTAIN","GA",30087,33.8400103440001,-84.185330396,262,"4770 FORESTGLADE COURT, STONE MOUNTAIN, GA, 30087","Match","Exact","4770 FORESTGLADE CT, STONE MOUNTAIN, GA, 30087",23364373,"R"
661263,"4770 GREEN ROAD","HOWELL","MI",48855,42.670622988,-83.818352831,263,"4770 GREEN ROAD, HOWELL, MI, 48855","Match","Exact","4770 GREEN RD, HOWELL, MI, 48855",23541332,"R"
661264,"4770 GUERNSEY LOOP","CASTLE ROCK","CO",80109,39.387143576,-104.913598804,264,"4770 GUERNSEY LOOP, CASTLE ROCK, CO, 80109","Match","Exact","4770 GUERNSEY LOOP, CASTLE ROCK, CO, 80109",627942847,"R"
661265,"4770 HAIRLAND DRIVE","WEST PALM BEACH","FL",33415,26.6548337560001,-80.115648694,265,"4770 HAIRLAND DRIVE, WEST PALM BEACH, FL, 33415","Match","Exact","4770 HAIRLAND DR, WEST PALM BEACH, FL, 33415",646913333,"L"
661266,"4770 JEAN MARIE LN","FORT CALHOUN","NE",68023,41.4470929990001,-96.030077649,266,"4770 JEAN MARIE LN, FORT CALHOUN, NE, 68023","Match","Exact","4770 JEAN MARIE LN, FORT CALHOUN, NE, 68023",176766433,"R"
661267,"4770 JONES RD SE","SALEM","OR",97302,44.8868073510001,-123.046578137,267,"4770 JONES RD SE, SALEM, OR, 97302","Match","Exact","4770 JONES RD SE, SALEM, OR, 97302",636284070,"L"
661268,"4770 KANE STREET","SAN DIEGO","CA",92110,32.785676842,-117.195224694,268,"4770 KANE STREET, SAN DIEGO, CA, 92110","Match","Exact","4770 KANE ST, SAN DIEGO, CA, 92110",195680022,"L"
661269,"4770 LEE WATERS ROAD","MARIETTA","GA",30066,34.0650516060001,-84.514422385,269,"4770 LEE WATERS ROAD, MARIETTA, GA, 30066","Match","Exact","4770 LEE WATERS RD, MARIETTA, GA, 30066",652051262,"R"
661270,"4770 LINKS LANE","LIBERTY TOWNSHIP","OH",45011,39.427289466,-84.456217656,270,"4770 LINKS LANE, LIBERTY TOWNSHIP, OH, 45011","Match","Exact","4770 LINKS LN, LIBERTY TWP, OH, 45011",113817932,"L"
661271,"4770 MARSHALL LEIGH RD","MARSHALL","TX",75672,32.5845843000001,-94.215190429,271,"4770 MARSHALL LEIGH RD, MARSHALL, TX, 75672","Match","Exact","4770 MARSHALL LEIGH RD, MARSHALL, TX, 75672",141176681,"R"
661272,"4770 MILWAUKEE ST","DENVER","CO",80216,39.7831640530001,-104.951846318,272,"4770 MILWAUKEE ST, DENVER, CO, 80216","Match","Exact","4770 MILWAUKEE ST, DENVER, CO, 80216",177309150,"R"
661273,"4770 MISTY LAKE COURT","KENNESAW","GA",30144,34.0679029200001,-84.5485334969999,273,"4770 MISTY LAKE COURT, KENNESAW, GA, 30144","Match","Exact","4770 MISTY LAKE CT, KENNESAW, GA, 30144",17212513,"R"
661274,"4770 N MAPLE AVE APT 230","FRESNO","CA",93726,36.8037714070001,-119.74520081,274,"4770 N MAPLE AVE APT 230, FRESNO, CA, 93726","Match","Non_Exact","4770 N MAPLE AVE, FRESNO, CA, 93726",197577050,"R"
661275,"4770 NE 38TH AVE","DES MOINES","IA",50317,41.629593383,-93.519253738,275,"4770 NE 38TH AVE, DES MOINES, IA, 50317","Match","Exact","4770 NE 38TH AVE, DES MOINES, IA, 50317",638447171,"L"
661276,"4770 ROAD 13C","LEIPSIC","OH",45856,41.111221566,-84.121747842,276,"4770 ROAD 13C, LEIPSIC, OH, 45856","Match","Exact","4770 RD 13C, LEIPSIC, OH, 45856",208939898,"L"
661277,"4770 ROBERTA ST UNIT 1","LAS VEGAS","NV",89119,36.102888599,-115.131072228,277,"4770 ROBERTA ST UNIT 1, LAS VEGAS, NV, 89119","Match","Exact","4770 ROBERTA ST, LAS VEGAS, NV, 89119",201871374,"L"
661278,"4770 ROUTE 79","BURDETT","NY",14818,42.4354618040001,-76.796403281,278,"4770 ROUTE 79, BURDETT, NY, 14818","Match","Non_Exact","4770 STATE RTE 79, BURDETT, NY, 14818",625502198,"R"
661279,"4770 SABRE LANE","MANLIUS","NY",13104,42.999903368,-75.9661790769999,279,"4770 SABRE LANE, MANLIUS, NY, 13104","Match","Exact","4770 SABRE LN, MANLIUS, NY, 13104",46579009,"L"
661280,"4770 SW 141ST AVE","BEAVERTON","OR",97005,45.48409221,-122.821601231,280,"4770 SW 141ST AVE, BEAVERTON, OR, 97005","Match","Exact","4770 SW 141ST AVE, BEAVERTON, OR, 97005",649096135,"L"
661281,"4770 SYCAMORE ROAD","SALEM","WV",26426,39.268946241,-80.459368597,281,"4770 SYCAMORE ROAD, SALEM, WV, 26426","Match","Exact","4770 SYCAMORE RD, SALEM, WV, 26426",632555974,"R"
661282,"4770 TIMBER RIDGE DR","DOUGLASVILLE","GA",30135,33.7333277540001,-84.732248617,282,"4770 TIMBER RIDGE DR, DOUGLASVILLE, GA, 30135","Match","Exact","4770 TIMBER RIDGE DR, DOUGLASVILLE, GA, 30135",16657789,"L"
661283,"4770 W FERRET DRIVE","TUCSON","AZ",85742,32.3780692070001,-111.067308456,283,"4770 W FERRET DRIVE, TUCSON, AZ, 85742","Match","Exact","4770 W FERRET DR, TUCSON, AZ, 85742",121156789,"L"
661284,"4770 W SNOW LEOPARD DRIVE","TUCSON","AZ",85742,32.373937486,-111.066879972,284,"4770 W SNOW LEOPARD DRIVE, TUCSON, AZ, 85742","Match","Exact","4770 W SNOW LEOPARD DR, TUCSON, AZ, 85742",121156880,"L"
661285,"4770 WEST 37TH PLACE","HAWTHORNE","CA",90250,NA,NA,285,"4770 WEST 37TH PLACE, HAWTHORNE, CA, 90250","No_Match",NA,NA,NA,NA
661286,"4770 WHITES CREEK PIKE","WHITES CREEK","TN",37189,36.2827257610001,-86.837844048,286,"4770 WHITES CREEK PIKE, WHITES CREEK, TN, 37189","Match","Exact","4770 WHITES CREEK PIKE, WHITES CREEK, TN, 37189",97181568,"L"
661287,"4770 WOODHAVEN ST S","FARGO","ND",58104,46.8079928020001,-96.854199803,287,"4770 WOODHAVEN ST S, FARGO, ND, 58104","Match","Exact","4770 WOODHAVEN ST S, FARGO, ND, 58104",618487963,"L"
661288,"4770 WOODHAVEN ST","FARGO","ND",58104,46.8079928020001,-96.854199803,288,"4770 WOODHAVEN ST, FARGO, ND, 58104","Match","Non_Exact","4770 WOODHAVEN ST S, FARGO, ND, 58104",618487963,"L"
661289,"47703 HWY K","NORBORNE","MO",64668,NA,NA,289,"47703 HWY K, NORBORNE, MO, 64668","No_Match",NA,NA,NA,NA
661290,"47705 880 ROAD","ATKINSON","NE",68713,42.5803742090001,-98.949351082,290,"47705 880 ROAD, ATKINSON, NE, 68713","Match","Exact","47705 880TH RD, ATKINSON, NE, 68713",167149633,"R"
661291,"4771 BARBERRY CT","DECATUR","IL",62526,39.9066498060001,-88.9652253959999,291,"4771 BARBERRY CT, DECATUR, IL, 62526","Match","Exact","4771 BARBERRY CT, DECATUR, IL, 62526",20744396,"L"
661292,"4771 BLOOMFIELD DRIVE","MEMPHIS","TN",38125,35.0177814310001,-89.780997439,292,"4771 BLOOMFIELD DRIVE, MEMPHIS, TN, 38125","Match","Exact","4771 BLOOMFIELD DR, MEMPHIS, TN, 38125",607517502,"R"
661293,"4771 CADIZ CIRCLE","PALM BEACH GARDENS","FL",33418,26.8620436960001,-80.10515362,293,"4771 CADIZ CIRCLE, PALM BEACH GARDENS, FL, 33418","Match","Exact","4771 CADIZ CIR, PALM BEACH GARDENS, FL, 33418",648376208,"R"
661294,"4771 CAMPUS DR","IRVINE","CA",92612,NA,NA,294,"4771 CAMPUS DR, IRVINE, CA, 92612","No_Match",NA,NA,NA,NA
661295,"4771 CAMPUS DRIVE","IRVINE","CA",92612,NA,NA,295,"4771 CAMPUS DRIVE, IRVINE, CA, 92612","No_Match",NA,NA,NA,NA
661296,"4771 CAPITAL BLVD","SAINT CLOUD","FL",34769,NA,NA,296,"4771 CAPITAL BLVD, SAINT CLOUD, FL, 34769","No_Match",NA,NA,NA,NA
661297,"4771 COUNTRY LN APT D24","WARRENSVILLE HEIGHTS","OH",44128,41.4311210050001,-81.491456598,297,"4771 COUNTRY LN APT D24, WARRENSVILLE HEIGHTS, OH, 44128","Match","Exact","4771 COUNTRY LN, WARRENSVILLE HEIGHTS, OH, 44128",61135527,"L"
661298,"4771 CRINKLEPOINT CT","DOUGLASVILLE","GA",30134,33.781713347,-84.723471859,298,"4771 CRINKLEPOINT CT, DOUGLASVILLE, GA, 30134","Match","Exact","4771 CRINKLEPOINT CT, DOUGLASVILLE, GA, 30134",618477407,"L"
661299,"4771 DAVENPORT","OAKLAND","CA",94619,37.786213032,-122.182939609,299,"4771 DAVENPORT, OAKLAND, CA, 94619","Match","Non_Exact","4771 DAVENPORT AVE, OAKLAND, CA, 94619",624535804,"R"
661300,"4771 DEE RD","MEMPHIS","TN",38117,35.100486819,-89.9015529759999,300,"4771 DEE RD, MEMPHIS, TN, 38117","Match","Exact","4771 DEE RD, MEMPHIS, TN, 38117",72926580,"R"
661301,"4771 JEWELL ST","SAN DIEGO","CA",92109,32.8044488680001,-117.240289082,301,"4771 JEWELL ST, SAN DIEGO, CA, 92109","Match","Exact","4771 JEWELL ST, SAN DIEGO, CA, 92109",612859191,"R"
661302,"4771 N XENIA ST","DENVER","CO",80238,39.7837145010001,-104.886078186,302,"4771 N XENIA ST, DENVER, CO, 80238","Match","Exact","4771 XENIA ST, DENVER, CO, 80238",641515100,"L"
661303,"4771 NW 120TH WAY","CAROL SPRINGS","FL",33076,26.290850069,-80.287301198,303,"4771 NW 120TH WAY, CAROL SPRINGS, FL, 33076","Match","Non_Exact","4771 NW 120TH WAY, CORAL SPRINGS, FL, 33076",114799256,"R"
661304,"4771 PACHECO BLVD","MARTINEZ","CA",94553,38.0019533500001,-122.08118162,304,"4771 PACHECO BLVD, MARTINEZ, CA, 94553","Match","Exact","4771 PACHECO BLVD, MARTINEZ, CA, 94553",648274307,"L"
661305,"4771 RICHMOND RD","KESWICK","VA",22947,37.987972427,-78.3352772539999,305,"4771 RICHMOND RD, KESWICK, VA, 22947","Match","Exact","4771 RICHMOND RD, KESWICK, VA, 22947",653497664,"L"
661306,"4771 S HURON RD","STANDISH","MI",48658,43.9465477030001,-83.966614431,306,"4771 S HURON RD, STANDISH, MI, 48658","Match","Exact","4771 S HURON RD, STANDISH, MI, 48658",160920119,"R"
661307,"4771 S LIVERPOOL CIRCLE","AURORA","CO",80015,39.6297590550001,-104.745076035,307,"4771 S LIVERPOOL CIRCLE, AURORA, CO, 80015","Match","Exact","4771 S LIVERPOOL CIR, AURORA, CO, 80015",177541070,"R"
661308,"4771 SHEPLER CHURCH SW","NAVARRE","OH",44706,40.738409548,-81.452089153,308,"4771 SHEPLER CHURCH SW, NAVARRE, OH, 44706","Match","Non_Exact","4771 SHEPLER CHURCH SW, NAVARRE, OH, 44662",64686601,"R"
661309,"4771 SIERRA VISTA DR","EL PASO","TX",79904,31.856256182,-106.431140621,309,"4771 SIERRA VISTA DR, EL PASO, TX, 79904","Match","Exact","4771 SIERRA VISTA DR, EL PASO, TX, 79904",189339206,"L"
661310,"4771 SOUTH 162ND AVE","OMAHA","NE",68135,41.2116616860001,-96.168147155,310,"4771 SOUTH 162ND AVE, OMAHA, NE, 68135","Match","Exact","4771 S 162ND AVE, OMAHA, NE, 68135",116993670,"R"
661311,"4771 SWEETWATER BLVD 371","SUGARLAND","TX",77479,29.5855169220001,-95.631569751,311,"4771 SWEETWATER BLVD 371, SUGARLAND, TX, 77479","Match","Non_Exact","4771 SWEETWATER BLVD, SUGAR LAND, TX, 77479",617960283,"L"
661312,"4771 SWEETWATER BLVD PMB 109","SUGAR LAND","TX",77479,29.5855169220001,-95.631569751,312,"4771 SWEETWATER BLVD PMB 109, SUGAR LAND, TX, 77479","Match","Exact","4771 SWEETWATER BLVD, SUGAR LAND, TX, 77479",617960283,"L"
661313,"4771 SWEETWATER BLVD PMB 109","SUGAR LAND","TX",78479,29.5855169220001,-95.631569751,313,"4771 SWEETWATER BLVD PMB 109, SUGAR LAND, TX, 78479","Match","Non_Exact","4771 SWEETWATER BLVD, SUGAR LAND, TX, 77479",617960283,"L"
661314,"4771 WATER","LAKE LEELANAU","MI",49654,NA,NA,314,"4771 WATER, LAKE LEELANAU, MI, 49654","No_Match",NA,NA,NA,NA
661315,"4771 WEST LAKE DRIVE","CONYERS","GA",30094,33.5616009600001,-84.025861213,315,"4771 WEST LAKE DRIVE, CONYERS, GA, 30094","Match","Exact","4771 W LAKE DR, CONYERS, GA, 30094",623688313,"L"
661316,"4771 WESTWING LANE","EUREKA","CA",95503,40.781306951,-124.108969225,316,"4771 WESTWING LANE, EUREKA, CA, 95503","Match","Exact","4771 WESTWING LN, EUREKA, CA, 95503",647232078,"L"
661317,"4771 WINGATE RD","MYAKKA CITY","FL",34251,27.4545485900001,-82.136951819,317,"4771 WINGATE RD, MYAKKA CITY, FL, 34251","Match","Exact","4771 WINGATE RD, MYAKKA CITY, FL, 34251",16269096,"L"
661318,"47710 HARBOR DR","CHESTERFIELD","MI",48047,42.652302864,-82.8021708109999,318,"47710 HARBOR DR, CHESTERFIELD, MI, 48047","Match","Exact","47710 HARBOR DR, CHESTERFIELD, MI, 48047",110697849,"R"
661319,"47712 257 ST","SIOUX FALLS","SD",57104,43.659741007,-96.670450473,319,"47712 257 ST, SIOUX FALLS, SD, 57104","Match","Exact","47712 257TH ST, SIOUX FALLS, SD, 57104",647735229,"L"
661320,"47718 PHOENIX STREET","INDIO","CA",92201,33.7023157450001,-116.207145256,320,"47718 PHOENIX STREET, INDIO, CA, 92201","Match","Exact","47718 PHOENIX ST, INDIO, CA, 92201",195048715,"R"
661321,"4772  TREES EDGE LN","FLORISSANT","MO",63033,38.806454296,-90.264572876,321,"4772  TREES EDGE LN, FLORISSANT, MO, 63033","Match","Exact","4772 TREES EDGE LN, FLORISSANT, MO, 63033",100189441,"L"
661322,"4772 BAYTREE PLACE","SANTA ROSA","CA",95405,38.4280351360001,-122.652776483,322,"4772 BAYTREE PLACE, SANTA ROSA, CA, 95405","Match","Exact","4772 BAYTREE PL, SANTA ROSA, CA, 95405",604963352,"R"
661323,"4772 CALLE DE NUBES","LAS CRUCES","NM",88012,32.3893742810001,-106.723268241,323,"4772 CALLE DE NUBES, LAS CRUCES, NM, 88012","Match","Non_Exact","4772 CLL DE NUBES, LAS CRUCES, NM, 88012",612713561,"L"
661324,"4772 CLOTHIER WAY","SACRAMENTO","CA",95841,38.651251202,-121.353335063,324,"4772 CLOTHIER WAY, SACRAMENTO, CA, 95841","Match","Exact","4772 CLOTHIER WAY, SACRAMENTO, CA, 95841",133393914,"L"
661325,"4772 COUNTY ROAD 489","ONAWAY","MI",49765,45.4495812170001,-84.215297885,325,"4772 COUNTY ROAD 489, ONAWAY, MI, 49765","Match","Exact","4772 CO RD 489, ONAWAY, MI, 49765",642608967,"L"
661326,"4772 E CO 13 3/4 ST","YUMA","AZ",85365,NA,NA,326,"4772 E CO 13 3/4 ST, YUMA, AZ, 85365","No_Match",NA,NA,NA,NA
661327,"4772 EUCLID ROAD","VIRGINIA BEACH","VA",23462,36.8347341240001,-76.142067379,327,"4772 EUCLID ROAD, VIRGINIA BEACH, VA, 23462","Match","Exact","4772 EUCLID RD, VA BCH, VA, 23462",122300990,"R"
661328,"4772 GREEN ST","DULUTH","GA",30096,33.9423267,-84.171488704,328,"4772 GREEN ST, DULUTH, GA, 30096","Match","Non_Exact","4772 GREEN ST NW, DULUTH, GA, 30096",88885513,"L"
661329,"4772 LAKE ROAD","GREENVILLE","MI",48838,43.2236924480001,-85.202671675,329,"4772 LAKE ROAD, GREENVILLE, MI, 48838","Match","Non_Exact","4772 S LAKE RD, GREENVILLE, MI, 48838",110563306,"L"
661330,"4772 LINDSEY LANE","RICHMOND HTS","OH",44143,41.544266915,-81.505542457,330,"4772 LINDSEY LANE, RICHMOND HTS, OH, 44143","Match","Exact","4772 LINDSEY LN, RICHMOND HEIGHTS, OH, 44143",61133533,"R"
661331,"4772 LONGMEADOW DRIVE","BESSEMER","AL",35022,33.32772821,-86.99742588,331,"4772 LONGMEADOW DRIVE, BESSEMER, AL, 35022","Match","Exact","4772 LONGMEADOW DR, BESSEMER, AL, 35022",624096011,"R"
661332,"4772 PRICE STREET","FORREST PARK","GA",30297,33.624703158,-84.346096689,332,"4772 PRICE STREET, FORREST PARK, GA, 30297","Match","Exact","4772 PRICE ST, FOREST PARK, GA, 30297",625748270,"L"
661333,"4772 SAFE HARBOR WAY","JACKSONVILLE","FL",32226,30.412338264,-81.546044679,333,"4772 SAFE HARBOR WAY, JACKSONVILLE, FL, 32226","Match","Exact","4772 SAFE HARBOR WAY, JACKSONVILLE, FL, 32226",83979301,"L"
661334,"4772 SILENT CLOUD","SAN ANTONIO","TX",78250,NA,NA,334,"4772 SILENT CLOUD, SAN ANTONIO, TX, 78250","No_Match",NA,NA,NA,NA
661335,"4772 STALLCUP DR","MESQUITE","TX",75150,32.832459832,-96.639692925,335,"4772 STALLCUP DR, MESQUITE, TX, 75150","Match","Exact","4772 STALLCUP DR, MESQUITE, TX, 75150",102931089,"R"
661336,"4772 VISTA DEL SOL","SANTA FE","NM",87507,35.6219069700001,-106.052233091,336,"4772 VISTA DEL SOL, SANTA FE, NM, 87507","Match","Exact","4772 VIS DEL SOL, SANTA FE, NM, 87507",616729567,"R"
661337,"4772 WEST 100TH COURT","WESTMINSTER","CO",80031,39.8787573280001,-105.045765616,337,"4772 WEST 100TH COURT, WESTMINSTER, CO, 80031","Match","Exact","4772 W 100TH CT, WESTMINSTER, CO, 80031",177293039,"L"
661338,"4772","MESQUITE","TX",75150,NA,NA,338,"4772, MESQUITE, TX, 75150","No_Match",NA,NA,NA,NA
661339,"47726 ASPEN ROAD","SOLDIERS GROVE","WI",54655,43.4112852810001,-90.822029324,339,"47726 ASPEN ROAD, SOLDIERS GROVE, WI, 54655","Match","Exact","47726 ASPEN RD, SOLDIERS GROVE, WI, 54655",642474430,"L"
661340,"4773 ARIA CT","COLORADO SPRINGS","CO",80906,38.764503199,-104.819178898,340,"4773 ARIA CT, COLORADO SPRINGS, CO, 80906","Match","Exact","4773 ARIA CT, COLORADO SPRINGS, CO, 80906",105573101,"R"
661341,"4773 ASHFIELD CIR","BOULDER","CO",80301,40.061331341,-105.177244917,341,"4773 ASHFIELD CIR, BOULDER, CO, 80301","Match","Exact","4773 ASHFIELD CIR, BOULDER, CO, 80301",188161833,"L"
661342,"4773 AUSTIN TRACE","ZIONSVILLE","IN",46077,39.973219283,-86.2463637399999,342,"4773 AUSTIN TRACE, ZIONSVILLE, IN, 46077","Match","Exact","4773 AUSTIN TRCE, ZIONSVILLE, IN, 46077",29259282,"R"
661343,"4773 BRANDENBURG RD","LEITCHFIELD","KY",42754,37.547592063,-86.287841771,343,"4773 BRANDENBURG RD, LEITCHFIELD, KY, 42754","Match","Exact","4773 BRANDENBURG RD, LEITCHFIELD, KY, 42754",15774309,"L"
661344,"4773 DURST CLAGG ROAD","CORTLAND","OH",44410,41.346943309,-80.789288534,344,"4773 DURST CLAGG ROAD, CORTLAND, OH, 44410","Match","Exact","4773 DURST CLAGG RD, CORTLAND, OH, 44410",117420358,"L"
661345,"4773 FAWN HILL","SYRACUSE","NY",13215,42.9941992890001,-76.188669131,345,"4773 FAWN HILL, SYRACUSE, NY, 13215","Match","Exact","4773 FAWN HILL, SYRACUSE, NY, 13215",642832625,"R"
661346,"4773 GRANTSWOOD ROAD","IRONDALE","AL",35210,33.5280776160001,-86.6616742639999,346,"4773 GRANTSWOOD ROAD, IRONDALE, AL, 35210","Match","Exact","4773 GRANTSWOOD RD, IRONDALE, AL, 35210",81724398,"R"
661347,"4773 JUPITER ROAD","UNIONTOWN","OH",44685,40.9486526900001,-81.5127411029999,347,"4773 JUPITER ROAD, UNIONTOWN, OH, 44685","Match","Exact","4773 JUPITER RD, UNIONTOWN, OH, 44685",61359501,"L"
661348,"4773 MONTICELLO BLVD","CLEVELAND","OH",44124,41.538980893,-81.508250609,348,"4773 MONTICELLO BLVD, CLEVELAND, OH, 44124","Match","Non_Exact","4773 MONTICELLO BLVD, CLEVELAND, OH, 44143",647122910,"L"
661349,"4773 MONTICELLO BLVD","CLEVELAND","OH",44143,41.538980893,-81.508250609,349,"4773 MONTICELLO BLVD, CLEVELAND, OH, 44143","Match","Exact","4773 MONTICELLO BLVD, CLEVELAND, OH, 44143",647122910,"L"
661350,"4773 N ARTHUR","FRESNO","CA",93705,36.804059071,-119.815232534,350,"4773 N ARTHUR, FRESNO, CA, 93705","Match","Non_Exact","4773 N ARTHUR AVE, FRESNO, CA, 93705",197569066,"L"
661351,"4773 NORTHFIELD CIRCLE","MEMPHIS","TN",38128,35.2022796410001,-89.902879653,351,"4773 NORTHFIELD CIRCLE, MEMPHIS, TN, 38128","Match","Exact","4773 NORTHFIELD CIR, MEMPHIS, TN, 38128",72923534,"R"
661352,"4773 NW 116TH TER","CORAL SPRINGS","FL",33076,26.290370146,-80.2828293709999,352,"4773 NW 116TH TER, CORAL SPRINGS, FL, 33076","Match","Exact","4773 NW 116TH TER, CORAL SPRINGS, FL, 33076",114807893,"L"
661353,"4773 OLD TIMBER RIDGE ROAD","MARIETTA","GA",30068,33.990988229,-84.408305578,353,"4773 OLD TIMBER RIDGE ROAD, MARIETTA, GA, 30068","Match","Exact","4773 OLD TIMBER RIDGE RD, MARIETTA, GA, 30068",17226192,"R"
661354,"4773 PEBBLE TRACE","BUFORD","GA",30518,34.1222178020001,-83.976366506,354,"4773 PEBBLE TRACE, BUFORD, GA, 30518","Match","Exact","4773 PEBBLE TRCE, BUFORD, GA, 30518",636426803,"R"
661355,"4773 RABUN DRIVE","DOUGLASVILLE","GA",30135,33.6563768090001,-84.729969297,355,"4773 RABUN DRIVE, DOUGLASVILLE, GA, 30135","Match","Exact","4773 RABUN DR, DOUGLASVILLE, GA, 30135",619858311,"L"
661356,"4773 SQUIRE DR","SAGAMORE HILLS","OH",44067,41.338967655,-81.545424856,356,"4773 SQUIRE DR, SAGAMORE HILLS, OH, 44067","Match","Exact","4773 SQUIRE DR, SAGAMORE HILLS, OH, 44067",61388434,"L"
661357,"4773 SULLIVAN BLVD","VIRGINIA BEACH","VA",23455,36.8651265010001,-76.1421440359999,357,"4773 SULLIVAN BLVD, VIRGINIA BEACH, VA, 23455","Match","Exact","4773 SULLIVAN BLVD, VIRGINIA BCH, VA, 23455",122259655,"L"
661358,"4773 TURNBRIDGE CT NW","CONCORD","NC",28027,NA,NA,358,"4773 TURNBRIDGE CT NW, CONCORD, NC, 28027","No_Match",NA,NA,NA,NA
661359,"47731 806A RD","ORD","NE",68862,NA,NA,359,"47731 806A RD, ORD, NE, 68862","No_Match",NA,NA,NA,NA
661360,"47731 MEADOWBROOK DR","MACOMB","MI",48044,42.648455341,-82.944590863,360,"47731 MEADOWBROOK DR, MACOMB, MI, 48044","Match","Exact","47731 MEADOWBROOK DR, MACOMB, MI, 48044",110710737,"R"
661361,"47731 MEADOWBROOK DR","MACOMB","MI",48051,42.648455341,-82.944590863,361,"47731 MEADOWBROOK DR, MACOMB, MI, 48051","Match","Non_Exact","47731 MEADOWBROOK DR, MACOMB, MI, 48044",110710737,"R"
661362,"47732 HUI KELU ST UNIT 4","KANEOHE","HI",96744,NA,NA,362,"47732 HUI KELU ST UNIT 4, KANEOHE, HI, 96744","No_Match",NA,NA,NA,NA
661363,"47733 ALLEGHENY CIR","POTOMAC FALLS","VA",20165,39.046204109,-77.345558828,363,"47733 ALLEGHENY CIR, POTOMAC FALLS, VA, 20165","Match","Exact","47733 ALLEGHENY CIR, POTOMAC FALLS, VA, 20165",218946168,"R"
661364,"47734 MIRAGE WAY","INDIO","CA",92201,33.7022118240001,-116.215489287,364,"47734 MIRAGE WAY, INDIO, CA, 92201","Match","Exact","47734 MIRAGE WAY, INDIO, CA, 92201",195087545,"L"
661365,"47738 307TH STREET","ALCESTER","SD",57001,42.9381016130001,-96.6593384939999,365,"47738 307TH STREET, ALCESTER, SD, 57001","Match","Exact","47738 307TH ST, ALCESTER, SD, 57001",176352790,"R"
661366,"4774 7TH COURT S","BIRMINGHAM","AL",35222,33.526901321,-86.757989679,366,"4774 7TH COURT S, BIRMINGHAM, AL, 35222","Match","Exact","4774 7TH CT S, BIRMINGHAM, AL, 35222",81762631,"L"
661367,"4774 HANSEN DRIVE","CLINTON","WA",98236,47.983136088,-122.357236474,367,"4774 HANSEN DRIVE, CLINTON, WA, 98236","Match","Exact","4774 HANSEN DR, CLINTON, WA, 98236",187616122,"R"
661368,"4774 HWY 15 UNIT 15","PINOS ALTOS","NM",88053,32.8634657600001,-108.221511064,368,"4774 HWY 15 UNIT 15, PINOS ALTOS, NM, 88053","Match","Non_Exact","4774 STATE HWY 15, PINOS ALTOS, NM, 88053",192686259,"R"
661369,"4774 LONGSPUR DRIVE","ST LOUIS","MO",63021,38.503681505,-90.3536043459999,369,"4774 LONGSPUR DRIVE, ST LOUIS, MO, 63021","Match","Non_Exact","4774 LONGSPUR DR, SAINT LOUIS, MO, 63128",647338470,"L"
661370,"4774 MAYFAIR RD","NORTH CANTON","OH",44720,40.940453135,-81.432492912,370,"4774 MAYFAIR RD, NORTH CANTON, OH, 44720","Match","Exact","4774 MAYFAIR RD, NORTH CANTON, OH, 44720",624836427,"R"
661371,"4774 N COOP CANYON PL","TUCSON","AZ",85750,32.293588324,-110.825952287,371,"4774 N COOP CANYON PL, TUCSON, AZ, 85750","Match","Non_Exact","4774 N COOP CANYON CT, TUCSON, AZ, 85750",121413015,"R"
661372,"4774 NEW BRIDGE RD","FAYETTEVILLE","AR",72704,36.0875464540001,-94.228605842,372,"4774 NEW BRIDGE RD, FAYETTEVILLE, AR, 72704","Match","Exact","4774 NEW BRIDGE RD, FAYETTEVILLE, AR, 72704",49092818,"L"
661373,"4774 PEARL STREET","YPSILANTI","MI",48197,42.238584099,-83.664989207,373,"4774 PEARL STREET, YPSILANTI, MI, 48197","Match","Exact","4774 PEARL ST, YPSILANTI, MI, 48197",26039869,"R"
661374,"4774 RUSSWOOD AVE","STONE MOUNTAIN","GA",30083,33.8264775960001,-84.178697556,374,"4774 RUSSWOOD AVE, STONE MOUNTAIN, GA, 30083","Match","Exact","4774 RUSSWOOD AVE, STONE MOUNTAIN, GA, 30083",619385480,"L"
661375,"4774 S 81ST ST","GREENFIELD","WI",53220,42.9573878160001,-88.01412341,375,"4774 S 81ST ST, GREENFIELD, WI, 53220","Match","Exact","4774 S 81ST ST, GREENFIELD, WI, 53220",77767850,"L"
661376,"4774 SAN REMO ROAD UNIT 581564","KISSIMMEE","FL",34758,NA,NA,376,"4774 SAN REMO ROAD UNIT 581564, KISSIMMEE, FL, 34758","No_Match",NA,NA,NA,NA
661377,"4774 TIMBERGLEN RD APT 3138","DALLAS","TX",75287,33.00352954,-96.825112916,377,"4774 TIMBERGLEN RD APT 3138, DALLAS, TX, 75287","Match","Exact","4774 TIMBERGLEN RD, DALLAS, TX, 75287",210493995,"R"
661378,"4774 W WESTGATE DR","BAY CITY","MI",48706,43.601082004,-83.9445783849999,378,"4774 W WESTGATE DR, BAY CITY, MI, 48706","Match","Exact","4774 W WESTGATE DR, BAY CITY, MI, 48706",81138872,"R"
661379,"4774 YARMOUTH AVENUE","ENCINO","CA",91316,34.157437369,-118.519974822,379,"4774 YARMOUTH AVENUE, ENCINO, CA, 91316","Match","Exact","4774 YARMOUTH AVE, ENCINO, CA, 91316",141555988,"R"
661380,"47749 WALDEN DRIVE","MACOMB","MI",48044,42.647343348,-82.97328491,380,"47749 WALDEN DRIVE, MACOMB, MI, 48044","Match","Non_Exact","47749 WALDEN RD, MACOMB, MI, 48044",110660577,"L"
661381,"4775 APARTMENT BLVD  APT J9","N. CHARLESTON","SC",29418,32.883387688,-80.070087993,381,"4775 APARTMENT BLVD  APT J9, N. CHARLESTON, SC, 29418","Match","Exact","4775 APARTMENT BLVD, N CHARLESTON, SC, 29418",108855790,"L"
661382,"4775 BARNES RD SUITE L","COLORADO SPRINGS","CO",80917,38.896858223,-104.740584249,382,"4775 BARNES RD SUITE L, COLORADO SPRINGS, CO, 80917","Match","Exact","4775 BARNES RD, COLORADO SPRINGS, CO, 80917",610708285,"L"
661383,"4775 CLIFFS CITY RD","CHESTERTOWN","MD",21620,39.1088072750001,-76.1464476209999,383,"4775 CLIFFS CITY RD, CHESTERTOWN, MD, 21620","Match","Exact","4775 CLIFFS CITY RD, CHESTERTOWN, MD, 21620",647800871,"R"
661384,"4775 COLLINS AVE  APT 4405","MIAMI BEACH","FL",33140,25.822438484,-80.122547506,384,"4775 COLLINS AVE  APT 4405, MIAMI BEACH, FL, 33140","Match","Exact","4775 COLLINS AVE, MIAMI BEACH, FL, 33140",650070135,"R"
661385,"4775 E 700 S","WOLCOTTVILLE","IN",46795,41.5406600090001,-85.3332650679999,385,"4775 E 700 S, WOLCOTTVILLE, IN, 46795","Match","Exact","4775 E 700 S, WOLCOTTVILLE, IN, 46795",8193379,"L"
661386,"4775 EAGLES RIDGE LOOP","STONECREST","GA",30038,33.6795202810001,-84.197173879,386,"4775 EAGLES RIDGE LOOP, STONECREST, GA, 30038","Match","Exact","4775 EAGLES RIDGE LOOP, STONECREST, GA, 30038",23400287,"L"
661387,"4775 ELKAN AVE","MACON","GA",31206,32.7734245290001,-83.700181668,387,"4775 ELKAN AVE, MACON, GA, 31206","Match","Exact","4775 ELKAN AVE, MACON, GA, 31206",81060186,"R"
661388,"4775 FRONT STREET","CASTLE ROCK","CO",80104,39.402032499,-104.861690207,388,"4775 FRONT STREET, CASTLE ROCK, CO, 80104","Match","Exact","4775 FRONT ST, CASTLE ROCK, CO, 80104",651705308,"L"
661389,"4775 FULLERTON","DETROIT","MI",48238,42.381502246,-83.137482065,389,"4775 FULLERTON, DETROIT, MI, 48238","Match","Non_Exact","4775 FULLERTON ST, DETROIT, MI, 48238",652801974,"L"
661390,"4775 HARVEST PARK DRIVE","MEMPHIS","TN",38125,35.018172146,-89.813978886,390,"4775 HARVEST PARK DRIVE, MEMPHIS, TN, 38125","Match","Exact","4775 HARVEST PARK DR, MEMPHIS, TN, 38125",72960379,"R"
661391,"4775 HEATHER ROW","MEMPHIS","TN",38141,35.0179661770001,-89.832778333,391,"4775 HEATHER ROW, MEMPHIS, TN, 38141","Match","Exact","4775 HEATHER ROW, MEMPHIS, TN, 38141",72969356,"R"
661392,"4775 LOREDO ST","BEAUMONT","TX",77703,30.124249874,-94.133075763,392,"4775 LOREDO ST, BEAUMONT, TX, 77703","Match","Non_Exact","4775 LAREDO AVE, BEAUMONT, TX, 77703",73850185,"L"
661393,"4775 NW ELMWOOD DRIVE","CORVALLIS","OR",97330,44.5889744350001,-123.304381745,393,"4775 NW ELMWOOD DRIVE, CORVALLIS, OR, 97330","Match","Exact","4775 NW ELMWOOD DR, CORVALLIS, OR, 97330",155848354,"L"
661394,"4775 OLD FRIENDSHIP ROAD","FINGER","TN",38334,35.3261097020001,-88.678294452,394,"4775 OLD FRIENDSHIP ROAD, FINGER, TN, 38334","Match","Exact","4775 OLD FRIENDSHIP RD, FINGER, TN, 38334",636715541,"R"
661395,"4775 PHEBE AVE","FREMONT","CA",94555,37.5692813310001,-122.050913204,395,"4775 PHEBE AVE, FREMONT, CA, 94555","Match","Exact","4775 PHEBE AVE, FREMONT, CA, 94555",606337080,"R"
661396,"4775 RIVERWALK DRIVE","SAINT CLOUD","FL",34771,28.2558533760001,-81.247248595,396,"4775 RIVERWALK DRIVE, SAINT CLOUD, FL, 34771","Match","Exact","4775 RIVERWALK DR, SAINT CLOUD, FL, 34771",650164545,"L"
661397,"4775 SAN LUCAS WAY","SAN JOSE","CA",95135,37.3077347560001,-121.756072761,397,"4775 SAN LUCAS WAY, SAN JOSE, CA, 95135","Match","Exact","4775 SAN LUCAS WAY, SAN JOSE, CA, 95135",618194828,"L"
661398,"4775 SOUTH FOX STREET","ENGLEWOOD","CO",80110,39.630007537,-104.994947217,398,"4775 SOUTH FOX STREET, ENGLEWOOD, CO, 80110","Match","Exact","4775 S FOX ST, ENGLEWOOD, CO, 80110",177333637,"R"
661399,"4775 SOUTHERN OAKS DR","HILLSBORO","MO",63050,38.2513694990001,-90.5412369109999,399,"4775 SOUTHERN OAKS DR, HILLSBORO, MO, 63050","Match","Non_Exact","4775 SOUTHERN OAKS, HILLSBORO, MO, 63050",607872704,"L"
661400,"4775 STATE ROUTE 52","JEFFERSONVILLE","NY",12748,41.779387366,-74.9275628669999,400,"4775 STATE ROUTE 52, JEFFERSONVILLE, NY, 12748","Match","Exact","4775 STATE RTE 52, JEFFERSONVILLE, NY, 12748",128976453,"L"
661401,"4775 SUMMIT RIDGE DRIVE APT 2007","RENO","NV",89523,39.520336306,-119.857421977,401,"4775 SUMMIT RIDGE DRIVE APT 2007, RENO, NV, 89523","Match","Exact","4775 SUMMIT RIDGE DR, RENO, NV, 89523",107069311,"R"
661402,"4775 TOLT AVENUE 4","CARNATION","WA",98014,47.649925667,-121.91288919,402,"4775 TOLT AVENUE 4, CARNATION, WA, 98014","Match","Exact","4775 TOLT AVE, CARNATION, WA, 98014",186619777,"L"
661403,"4775 VALHALLA DRIVE","BOULDER","CO",80301,40.067230636,-105.242886361,403,"4775 VALHALLA DRIVE, BOULDER, CO, 80301","Match","Exact","4775 VALHALLA DR, BOULDER, CO, 80301",188219976,"R"
661404,"4775 WEST MOORHEAD CIRCLE","BOULDER","CO",80305,39.979423189,-105.236824358,404,"4775 WEST MOORHEAD CIRCLE, BOULDER, CO, 80305","Match","Exact","4775 W MOORHEAD CIR, BOULDER, CO, 80305",188209726,"L"
661405,"4775 WHITE DEER ROAD","DELMAR","DE",19940,38.4822994520001,-75.6720640679999,405,"4775 WHITE DEER ROAD, DELMAR, DE, 19940","Match","Exact","4775 WHITE DEER RD, DELMAR, DE, 19940",106073929,"R"
661406,"4775 YATES CAVE RD","CROSS PLAINS","TN",37049,36.561435541,-86.70554061,406,"4775 YATES CAVE RD, CROSS PLAINS, TN, 37049","Match","Exact","4775 YATES CAVE RD, CROSS PLAINS, TN, 37049",636647412,"R"
661407,"47750 ADAMS","LA QUINTA","CA",92253,33.701479981,-116.286119437,407,"47750 ADAMS, LA QUINTA, CA, 92253","Match","Non_Exact","47750 ADAMS ST, LA QUINTA, CA, 92253",195095716,"L"
661408,"47751 ANNA CT","SHELBY TWP","MI",48315,42.6458544480001,-83.009732033,408,"47751 ANNA CT, SHELBY TWP, MI, 48315","Match","Exact","47751 ANNA CT, SHELBY TOWNSHIP, MI, 48315",110659653,"R"
661409,"47752 BERRY STREET","OAKRIDGE","OR",97463,43.7432096060001,-122.478174834,409,"47752 BERRY STREET, OAKRIDGE, OR, 97463","Match","Exact","47752 BERRY ST, OAKRIDGE, OR, 97463",178157640,"R"
661410,"47754 FORBES STREET","CHESTERFIELD","MI",48047,42.661300742,-82.802447811,410,"47754 FORBES STREET, CHESTERFIELD, MI, 48047","Match","Exact","47754 FORBES ST, CHESTERFIELD, MI, 48047",110697833,"R"
661411,"4776 BEACON HILL DRIVE","CASTRO VALLEY","CA",94552,37.69948235,-122.052987239,411,"4776 BEACON HILL DRIVE, CASTRO VALLEY, CA, 94552","Match","Exact","4776 BEACON HILL DR, CASTRO VALLEY, CA, 94552",606132758,"L"
661412,"4776 CRESTRIDGE LANE","CLEVELAND","TN",37312,35.224192971,-84.868102419,412,"4776 CRESTRIDGE LANE, CLEVELAND, TN, 37312","Match","Exact","4776 CRESTRIDGE LN, CLEVELAND, TN, 37312",57584612,"R"
661413,"4776 FESSENEVA LANE","NAPERVILLE","IL",60564,41.6814427240001,-88.196215404,413,"4776 FESSENEVA LANE, NAPERVILLE, IL, 60564","Match","Exact","4776 FESSENEVA LN, NAPERVILLE, IL, 60564",635514984,"R"
661414,"4776 GRESHAM STREET","SAN DIEGO","CA",92109,32.8032373880001,-117.245838006,414,"4776 GRESHAM STREET, SAN DIEGO, CA, 92109","Match","Exact","4776 GRESHAM ST, SAN DIEGO, CA, 92109",612855825,"L"
661415,"4776 KAY BIRD LN","CONCORD","NC",28027,NA,NA,415,"4776 KAY BIRD LN, CONCORD, NC, 28027","No_Match",NA,NA,NA,NA
661416,"4776 LAMONT ST APT 2","SAN DIEGO","CA",92109,32.805235365,-117.236635911,416,"4776 LAMONT ST APT 2, SAN DIEGO, CA, 92109","Match","Exact","4776 LAMONT ST, SAN DIEGO, CA, 92109",195302992,"L"
661417,"4776 LOCUST LANE","BRUNSWICK","OH",44212,41.251531707,-81.858220225,417,"4776 LOCUST LANE, BRUNSWICK, OH, 44212","Match","Exact","4776 LOCUST LN, BRUNSWICK, OH, 44212",58683475,"R"
661418,"4776 MOHR AVE","PLEASANTON","CA",94566,37.6829862720001,-121.881395824,418,"4776 MOHR AVE, PLEASANTON, CA, 94566","Match","Exact","4776 MOHR AVE, PLEASANTON, CA, 94566",125040813,"L"
661419,"4776 N COUNTY ROAD 600 W","WEST BADEN","IN",47469,38.627003502,-86.570230377,419,"4776 N COUNTY ROAD 600 W, WEST BADEN, IN, 47469","Match","Non_Exact","4776 N CO RD 600 W, WEST BADEN SPRINGS, IN, 47469",32150434,"R"
661420,"4776 NEWTON DR","GAINESVILLE","GA",30506,34.402765038,-83.883347929,420,"4776 NEWTON DR, GAINESVILLE, GA, 30506","Match","Exact","4776 NEWTON DR, GAINESVILLE, GA, 30506",98284988,"R"
661421,"4776 OLIVEWOOD LANE","SAN BERNARDINO","CA",92407,34.172063485,-117.284800114,421,"4776 OLIVEWOOD LANE, SAN BERNARDINO, CA, 92407","Match","Exact","4776 OLIVEWOOD LN, SAN BERNARDINO, CA, 92407",144653920,"R"
661422,"4776 PARADISE ROAD","SEVILLE","OH",44273,41.0781359710001,-81.860499002,422,"4776 PARADISE ROAD, SEVILLE, OH, 44273","Match","Exact","4776 PARADISE RD, SEVILLE, OH, 44273",652707237,"R"
661423,"4776 S MEADOW WOOD WAY","TAYLORSVILLE","UT",84129,40.665733566,-111.970114238,423,"4776 S MEADOW WOOD WAY, TAYLORSVILLE, UT, 84129","Match","Exact","4776 MEADOW WOOD WAY, TAYLORSVILLE, UT, 84129",176072471,"R"
661424,"4776 W 8450 S","WEST JORDAN","UT",84088,40.597953713,-112.004048203,424,"4776 W 8450 S, WEST JORDAN, UT, 84088","Match","Exact","4776 W 8450 S, WEST JORDAN, UT, 84088",176121679,"L"
661425,"4776 W SMOKEY ROW RD","GREENWOOD","IN",46143,39.5625176460001,-86.194238559,425,"4776 W SMOKEY ROW RD, GREENWOOD, IN, 46143","Match","Exact","4776 SMOKEY ROW RD, GREENWOOD, IN, 46143",606984888,"L"
661426,"4776 W WHISPERING PINES LANE","GLEN ARBOR","MI",49636,44.847292747,-85.9519548769999,426,"4776 W WHISPERING PINES LANE, GLEN ARBOR, MI, 49636","Match","Exact","4776 W WHISPERING PINES LN, GLEN ARBOR, MI, 49636",633513927,"L"
661427,"4776 WALNUT LAKE RD","BLOOMFIELD","MI",48301,42.551556928,-83.316075968,427,"4776 WALNUT LAKE RD, BLOOMFIELD, MI, 48301","Match","Exact","4776 WALNUT LAKE RD, BLOOMFIELD, MI, 48301",69727003,"R"
661428,"4776 WESTWOOD ST","SIMI VALLEY","CA",93063,34.3017498880001,-118.701280812,428,"4776 WESTWOOD ST, SIMI VALLEY, CA, 93063","Match","Exact","4776 WESTWOOD ST, SIMI VALLEY, CA, 93063",110072181,"L"
661429,"47762 MARINER COURT","STERLING","VA",20165,39.043223837,-77.3458186509999,429,"47762 MARINER COURT, STERLING, VA, 20165","Match","Exact","47762 MARINER CT, STERLING, VA, 20165",62334632,"R"
661430,"47764 CENTER STREET","ELK POINT","SD",57025,42.7594358910001,-96.6517217049999,430,"47764 CENTER STREET, ELK POINT, SD, 57025","Match","Exact","47764 CENTER ST, ELK POINT, SD, 57025",176345248,"R"
661431,"47766 260TH AVE","WINGER","MN",56592,NA,NA,431,"47766 260TH AVE, WINGER, MN, 56592","No_Match",NA,NA,NA,NA
661432,"47768 PEMBROKE DRIVE","CANTON","MI",48170,42.2765807170001,-83.5077206,432,"47768 PEMBROKE DRIVE, CANTON, MI, 48170","Match","Non_Exact","47768 PEMBROKE DR, CANTON, MI, 48188",617694119,"R"
661433,"47768 PEMBROKE DRIVE","CANTON","MI",48188,42.2765807170001,-83.5077206,433,"47768 PEMBROKE DRIVE, CANTON, MI, 48188","Match","Exact","47768 PEMBROKE DR, CANTON, MI, 48188",617694119,"R"
661434,"4777 180TH STREET","CUSHING","IA",51018,42.442933645,-95.677220247,434,"4777 180TH STREET, CUSHING, IA, 51018","Match","Exact","4777 180TH ST, CUSHING, IA, 51018",93440510,"R"
661435,"4777 ALBEN BARKLEY DR","PADUCAH","KY",42001,37.056811399,-88.6573000229999,435,"4777 ALBEN BARKLEY DR, PADUCAH, KY, 42001","Match","Exact","4777 ALBEN BARKLEY DR, PADUCAH, KY, 42001",8407246,"L"
661436,"4777 APOLLO DR","ANTIOCH","TN",37013,36.071669258,-86.667447662,436,"4777 APOLLO DR, ANTIOCH, TN, 37013","Match","Exact","4777 APOLLO DR, ANTIOCH, TN, 37013",97198576,"L"
661437,"4777 CASA LOMA AVENUE","YORBA LINDA","CA",92886,33.8957404710001,-117.824334486,437,"4777 CASA LOMA AVENUE, YORBA LINDA, CA, 92886","Match","Exact","4777 CASA LOMA AVE, YORBA LINDA, CA, 92886",144414756,"R"
661438,"4777 EDINBURGH DR","CARLSBAD","CA",92010,33.159664772,-117.299610495,438,"4777 EDINBURGH DR, CARLSBAD, CA, 92010","Match","Exact","4777 EDINBURGH DR, CARLSBAD, CA, 92010",195375910,"R"
661439,"4777 FARNDON COURT","FAIRFAX","VA",22032,38.8228927050001,-77.2952433199999,439,"4777 FARNDON COURT, FAIRFAX, VA, 22032","Match","Exact","4777 FARNDON CT, FAIRFAX, VA, 22032",76016034,"L"
661440,"4777 GROUSE RUNN APT 236","STOCKTON","CA",95207,37.9883957430001,-121.329930631,440,"4777 GROUSE RUNN APT 236, STOCKTON, CA, 95207","Match","Non_Exact","4777 GROUSE RUN DR, STOCKTON, CA, 95207",640552393,"L"
661441,"4777 HWY 507","JAMESTOWN","LA",71045,32.3514859260001,-93.1433746339999,441,"4777 HWY 507, JAMESTOWN, LA, 71045","Match","Exact","4777 HWY 507, JAMESTOWN, LA, 71045",114410498,"L"
661442,"4777 LAKE FORREST DRIVE NE","SANDY SPRINGS","GA",30342,33.8852449610001,-84.387261281,442,"4777 LAKE FORREST DRIVE NE, SANDY SPRINGS, GA, 30342","Match","Non_Exact","4777 LAKE FORREST DR NW, SANDY SPRINGS, GA, 30342",652441958,"R"
661443,"4777 MEMORIAL DRIVE UNIT 453","THE COLONY","TX",75056,33.0703826930001,-96.886374457,443,"4777 MEMORIAL DRIVE UNIT 453, THE COLONY, TX, 75056","Match","Exact","4777 MEMORIAL DR, THE COLONY, TX, 75056",218065848,"L"
661444,"4777 NILES EDGE DR","COLUMBUS","OH",43232,39.912964265,-82.86726952,444,"4777 NILES EDGE DR, COLUMBUS, OH, 43232","Match","Non_Exact","4777 NIELES EDGE DR, COLUMBUS, OH, 43232",218561679,"R"
661445,"4777 ROLANDO BLVD","SAN DIEGO","CA",92115,32.765147654,-117.056214303,445,"4777 ROLANDO BLVD, SAN DIEGO, CA, 92115","Match","Exact","4777 ROLANDO BLVD, SAN DIEGO, CA, 92115",612877340,"R"
661446,"4777 S ELK WAY","AURORA","CO",80016,39.6298813560001,-104.705592017,446,"4777 S ELK WAY, AURORA, CO, 80016","Match","Exact","4777 S ELK WAY, AURORA, CO, 80016",177562053,"R"
661447,"4777 SAINTSBURY CT","LAFAYETTE","IN",47909,40.349080837,-86.8615318609999,447,"4777 SAINTSBURY CT, LAFAYETTE, IN, 47909","Match","Exact","4777 SAINTSBURY CT, LAFAYETTE, IN, 47909",604832792,"L"
661448,"4777 SKILLMASTER CT","N. CHARLESTON","SC",29418,32.9014437490001,-80.087802073,448,"4777 SKILLMASTER CT, N. CHARLESTON, SC, 29418","Match","Exact","4777 SKILLMASTER CT, N CHARLESTON, SC, 29418",108827309,"R"
661449,"4777 SOUTHERN AVE SE","ALBUQUERQUE","NM",87108,35.067555134,-106.592380661,449,"4777 SOUTHERN AVE SE, ALBUQUERQUE, NM, 87108","Match","Exact","4777 SOUTHERN AVE SE, ALBUQUERQUE, NM, 87108",642017883,"R"
661450,"4777 SPINEPOINT WAY","DOUGLASVILLE","GA",30135,33.6754835730001,-84.661012819,450,"4777 SPINEPOINT WAY, DOUGLASVILLE, GA, 30135","Match","Exact","4777 SPINEPOINT WAY, DOUGLASVILLE, GA, 30135",618463405,"R"
661451,"4777 STATE ROUTE 49","FULTON","NY",13069,43.320220964,-76.2795916759999,451,"4777 STATE ROUTE 49, FULTON, NY, 13069","Match","Exact","4777 STATE RTE 49, FULTON, NY, 13069",638549897,"L"
661452,"4777 VALLEY VIEW COURT","DUNWOODY","GA",30339,33.9375744880001,-84.3338231829999,452,"4777 VALLEY VIEW COURT, DUNWOODY, GA, 30339","Match","Non_Exact","4777 VALLEY VIEW CT, DUNWOODY, GA, 30338",23356094,"R"
661453,"47772 W HAMILTON","OBERLIN","OH",44074,41.2798914580001,-82.253720172,453,"47772 W HAMILTON, OBERLIN, OH, 44074","Match","Non_Exact","47772 W HAMILTON ST, OBERLIN, OH, 44074",55439260,"R"
661454,"47777 812TH ROAD","ORD","NE",68862,41.6087325440001,-98.903059045,454,"47777 812TH ROAD, ORD, NE, 68862","Match","Exact","47777 812TH RD, ORD, NE, 68862",198324866,"R"
661455,"47777 US HWY 34","WIGGINS","CO",80654,NA,NA,455,"47777 US HWY 34, WIGGINS, CO, 80654","No_Match",NA,NA,NA,NA
661456,"4778 BROOKWOOD COURT","CARLSBAD","CA",92010,33.159898943,-117.298924715,456,"4778 BROOKWOOD COURT, CARLSBAD, CA, 92010","Match","Exact","4778 BROOKWOOD CT, CARLSBAD, CA, 92010",195375911,"L"
661457,"4778 COLLINOS WAY","OCEANSIDE","CA",92056,33.159395214,-117.267299806,457,"4778 COLLINOS WAY, OCEANSIDE, CA, 92056","Match","Exact","4778 COLLINOS WAY, OCEANSIDE, CA, 92056",195396563,"L"
661458,"4778 E 1351ST RD","EARLVILLE","IL",60518,41.626326879,-88.896928384,458,"4778 E 1351ST RD, EARLVILLE, IL, 60518","Match","Exact","4778 E 1351ST RD, EARLVILLE, IL, 60518",8624773,"R"
661459,"4778 FARNDON COURT","FAIRFAX","VA",22032,38.822789406,-77.295205837,459,"4778 FARNDON COURT, FAIRFAX, VA, 22032","Match","Exact","4778 FARNDON CT, FAIRFAX, VA, 22032",76016034,"R"
661460,"4778 MASCAGNI STREET","VENTURA","CA",93003,34.2670421940001,-119.228199918,460,"4778 MASCAGNI STREET, VENTURA, CA, 93003","Match","Exact","4778 MASCAGNI ST, VENTURA, CA, 93003",110038772,"L"
661461,"4778 N 300 W SUITE 210","PROVO","UT",84604,NA,NA,461,"4778 N 300 W SUITE 210, PROVO, UT, 84604","No_Match",NA,NA,NA,NA
661462,"4778 N ELSTON AVE","CHICAGO","IL",60630,41.967674872,-87.7395173,462,"4778 N ELSTON AVE, CHICAGO, IL, 60630","Match","Exact","4778 N ELSTON AVE, CHICAGO, IL, 60630",111755348,"L"
661463,"4778 N ELSTON","CHICAGO","IL",60630,NA,NA,463,"4778 N ELSTON, CHICAGO, IL, 60630","No_Match",NA,NA,NA,NA
661464,"4778 PIMLICO DRIVE","TALLAHASSEE","FL",32309,30.539060003,-84.203702517,464,"4778 PIMLICO DRIVE, TALLAHASSEE, FL, 32309","Match","Exact","4778 PIMLICO DR, TALLAHASSEE, FL, 32309",82846748,"L"
661465,"4778 SANDRA LANE","WHITE BEAR LAKE","MN",55110,45.0858813560001,-93.032991449,465,"4778 SANDRA LANE, WHITE BEAR LAKE, MN, 55110","Match","Exact","4778 SANDRA LN, WHITE BEAR LAKE, MN, 55110",97636447,"R"
661466,"4778 SANGO RD","CLARKSVILLE","TN",37043,36.483174972,-87.164733056,466,"4778 SANGO RD, CLARKSVILLE, TN, 37043","Match","Exact","4778 SANGO RD, CLARKSVILLE, TN, 37043",31828833,"L"
661467,"47786 BECKY RD","SIOUX FALLS","SD",57108,43.4775447480001,-96.651270862,467,"47786 BECKY RD, SIOUX FALLS, SD, 57108","Match","Non_Exact","47786 BECKY DR, SIOUX FALLS, SD, 57108",637479257,"L"
661468,"47786 VAN DYKE AVE","SHELBY TWP","MI",48317,42.6462389440001,-83.033111371,468,"47786 VAN DYKE AVE, SHELBY TWP, MI, 48317","Match","Exact","47786 VAN DYKE AVE, SHELBY TOWNSHIP, MI, 48317",110659156,"R"
661469,"47787 MEADOWBROOK DR","MACOMB","MI",48044,42.648475396,-82.943841166,469,"47787 MEADOWBROOK DR, MACOMB, MI, 48044","Match","Exact","47787 MEADOWBROOK DR, MACOMB, MI, 48044",110710737,"R"
661470,"477895 OLD US HWY 64","MULDROW","OK",74948,35.3906071750001,-94.514803662,470,"477895 OLD US HWY 64, MULDROW, OK, 74948","Match","Exact","477895 OLD US HWY 64, MULDROW, OK, 74948",53773915,"R"
661471,"4779 BARNES AVE","BRONX","NY",10467,40.90505833,-73.8475926419999,471,"4779 BARNES AVE, BRONX, NY, 10467","Match","Non_Exact","4779 BARNES AVE, BRONX, NY, 10470",80297478,"L"
661472,"4779 CALLE DE LUCIA","SAN JOSE","CA",95124,37.255372133,-121.900096656,472,"4779 CALLE DE LUCIA, SAN JOSE, CA, 95124","Match","Non_Exact","4779 CLL DE LUCIA, SAN JOSE, CA, 95124",122921628,"R"
661473,"4779 CARRIAGE BROOKS DR","BESSEMER","AL",35022,33.3524835330001,-86.9966109699999,473,"4779 CARRIAGE BROOKS DR, BESSEMER, AL, 35022","Match","Non_Exact","4779 CARRIAGE BROOK DR, BESSEMER, AL, 35022",624105479,"R"
661474,"4779 CHASTAIN DR","MELBOURNE","FL",32940,28.190406313,-80.704513855,474,"4779 CHASTAIN DR, MELBOURNE, FL, 32940","Match","Exact","4779 CHASTAIN DR, MELBOURNE, FL, 32940",93959243,"R"
661475,"4779 COLLINS AVE","MIAMI BEACH","FL",33140,25.822512031,-80.122536891,475,"4779 COLLINS AVE, MIAMI BEACH, FL, 33140","Match","Exact","4779 COLLINS AVE, MIAMI BEACH, FL, 33140",650070135,"R"
661476,"4779 GIBSON DAHL RD","CLAYTON","WA",99110,47.9609760270001,-117.595296693,476,"4779 GIBSON DAHL RD, CLAYTON, WA, 99110","Match","Non_Exact","4779 GIBSON-DAHL RD, CLAYTON, WA, 99110",635448706,"L"
661477,"4779 HICKORY CREEK DRIVE","UNIVERSITY PARK","IL",60484,NA,NA,477,"4779 HICKORY CREEK DRIVE, UNIVERSITY PARK, IL, 60484","No_Match",NA,NA,NA,NA
661478,"4779 NEWCASTLE DRIVE","FRISCO","TX",75034,33.1197108120001,-96.84682921,478,"4779 NEWCASTLE DRIVE, FRISCO, TX, 75034","Match","Exact","4779 NEWCASTLE DR, FRISCO, TX, 75034",103418904,"R"
661479,"4779 ORLEANS COURT APT A","WEST PALM BEACH","FL",33415,26.686757062,-80.116106488,479,"4779 ORLEANS COURT APT A, WEST PALM BEACH, FL, 33415","Match","Exact","4779 ORLEANS CT, WEST PALM BEACH, FL, 33415",115547659,"L"
661480,"4779 ROSE BRIAR LANE","OOLTEWAH","TN",37363,35.0753296670001,-85.083328861,480,"4779 ROSE BRIAR LANE, OOLTEWAH, TN, 37363","Match","Exact","4779 ROSE BRIAR LN, OOLTEWAH, TN, 37363",618925964,"L"
661481,"4779 S ATLANTA RD SE SUITE 250","ATLANTA","GA",30339,33.838027557,-84.481330653,481,"4779 S ATLANTA RD SE SUITE 250, ATLANTA, GA, 30339","Match","Non_Exact","4779 S ATLANTA RD SE, ATLANTA, GA, 30339",17182391,"L"
661482,"4779 SNAP CREEK LANE","DECATUR","GA",30035,33.7236007130001,-84.194995222,482,"4779 SNAP CREEK LANE, DECATUR, GA, 30035","Match","Exact","4779 SNAP CREEK LN, DECATUR, GA, 30035",23395022,"L"
661483,"4779 WEST BELLE VISTA","PAHRUMP","NV",89060,36.263763709,-116.098849686,483,"4779 WEST BELLE VISTA, PAHRUMP, NV, 89060","Match","Non_Exact","4779 W BELL VISTA AVE, PAHRUMP, NV, 89060",140588136,"L"
661484,"4779 WOODALE","MEMPHIS","TN",38118,35.053560046,-89.9045388929999,484,"4779 WOODALE, MEMPHIS, TN, 38118","Match","Non_Exact","4779 WOODDALE AVE, MEMPHIS, TN, 38118",72927888,"R"
661485,"47791 274 STREET","HARRISBURG","SD",57032,43.416978941,-96.650102082,485,"47791 274 STREET, HARRISBURG, SD, 57032","Match","Exact","47791 274TH ST, HARRISBURG, SD, 57032",176310529,"L"
661486,"477991 CROSS MANOR ROAD","SAINT INIGOES","MD",20684,NA,NA,486,"477991 CROSS MANOR ROAD, SAINT INIGOES, MD, 20684","No_Match",NA,NA,NA,NA
661487,"4779W BURRELL RD","GULLIVER","MI",49840,46.0123228730001,-86.113895547,487,"4779W BURRELL RD, GULLIVER, MI, 49840","Match","Exact","4779 BURRELL RD, GULLIVER, MI, 49840",171900343,"L"
661488,"478 3RD ST","YONCALLA","OR",97499,43.597618992,-123.286638849,488,"478 3RD ST, YONCALLA, OR, 97499","Match","Exact","478 THIRD ST, YONCALLA, OR, 97499",137245752,"R"
661489,"478 6TH STREET","HOLLISTER","CA",95023,36.8504818920001,-121.405262893,489,"478 6TH STREET, HOLLISTER, CA, 95023","Match","Exact","478 6TH ST, HOLLISTER, CA, 95023",125435821,"R"
661490,"478 ALBANY AVE SUITE 128","BROOKLYN","NY",11203,40.6636818040001,-73.939958511,490,"478 ALBANY AVE SUITE 128, BROOKLYN, NY, 11203","Match","Exact","478 ALBANY AVE, BROOKLYN, NY, 11203",634254594,"R"
661491,"478 ALBANY AVE SUITE 166","BROOKLYN","NY",11203,40.6636818040001,-73.939958511,491,"478 ALBANY AVE SUITE 166, BROOKLYN, NY, 11203","Match","Exact","478 ALBANY AVE, BROOKLYN, NY, 11203",634254594,"R"
661492,"478 ALBANY AVE","BROOKLYN","NY",11203,40.6636818040001,-73.939958511,492,"478 ALBANY AVE, BROOKLYN, NY, 11203","Match","Exact","478 ALBANY AVE, BROOKLYN, NY, 11203",634254594,"R"
661493,"478 ALBANY AVENUE  APT 121","BROOKLYN","NY",11203,40.6636818040001,-73.939958511,493,"478 ALBANY AVENUE  APT 121, BROOKLYN, NY, 11203","Match","Exact","478 ALBANY AVE, BROOKLYN, NY, 11203",634254594,"R"
661494,"478 ARROW HILL","HAMILTON","MT",59840,46.209781177,-114.102534439,494,"478 ARROW HILL, HAMILTON, MT, 59840","Match","Non_Exact","478 ARROW HILL DR, HAMILTON, MT, 59840",153536816,"R"
661495,"478 AURORA AVENUE","SAINT PAUL","MN",55103,44.95486957,-93.1203157319999,495,"478 AURORA AVENUE, SAINT PAUL, MN, 55103","Match","Exact","478 AURORA AVE, SAINT PAUL, MN, 55103",97670252,"L"
661496,"478 AURORA STREET","SAINT PAUL","MN",55103,44.95486957,-93.1203157319999,496,"478 AURORA STREET, SAINT PAUL, MN, 55103","Match","Non_Exact","478 AURORA AVE, SAINT PAUL, MN, 55103",97670252,"L"
661497,"478 AURORA","SAINT PAUL","MN",55103,44.95486957,-93.1203157319999,497,"478 AURORA, SAINT PAUL, MN, 55103","Match","Non_Exact","478 AURORA AVE, SAINT PAUL, MN, 55103",97670252,"L"
661498,"478 B DAVIS RD","BELLEVUE","TX",76228,33.57622529,-98.038074325,498,"478 B DAVIS RD, BELLEVUE, TX, 76228","Match","Exact","478 B DAVIS RD, BELLEVUE, TX, 76228",169784878,"R"
661499,"478 BOULDER CREEK TRAIL","HIXSON","TN",37343,35.1855122870001,-85.265745266,499,"478 BOULDER CREEK TRAIL, HIXSON, TN, 37343","Match","Exact","478 BOULDER CREEK TRL, HIXSON, TN, 37343",648127981,"L"
661500,"478 BRIAR PATCH LANE","GREENEVILLE","TN",37745,36.1685564590001,-82.7544553989999,500,"478 BRIAR PATCH LANE, GREENEVILLE, TN, 37745","Match","Exact","478 BRIAR PATCH LN, GREENEVILLE, TN, 37745",638380864,"L"
