"ID","Address","City","State","Zip","lat","long","id","input_address","match_indicator","match_type","matched_address","tiger_line_id","tiger_side"
383001,"2339 CITICO DRIVE STE 206","CORDOVA","TN",38016,35.1897198710001,-89.728300301,1,"2339 CITICO DRIVE STE 206, CORDOVA, TN, 38016","Match","Exact","2339 CITICO DR, CORDOVA, TN, 38016",624550962,"L"
383002,"2339 COMET ST","NEW ORLEANS","LA",70131,29.929848131,-90.009384513,2,"2339 COMET ST, NEW ORLEANS, LA, 70131","Match","Exact","2339 COMET ST, NEW ORLEANS, LA, 70131",191723167,"R"
383003,"2339 CORRIEA WAY","FREMONT","CA",94539,37.540015671,-121.950891272,3,"2339 CORRIEA WAY, FREMONT, CA, 94539","Match","Exact","2339 CORRIEA WAY, FREMONT, CA, 94539",125033361,"R"
383004,"2339 COUNTY RD 1217","BLANCHARD","OK",73010,35.2518696500001,-97.695023662,4,"2339 COUNTY RD 1217, BLANCHARD, OK, 73010","Match","Exact","2339 CO RD 1217, BLANCHARD, OK, 73010",15224114,"L"
383005,"2339 COVEY LANE","SANTA CLARA","UT",84765,37.1216136640001,-113.632796241,5,"2339 COVEY LANE, SANTA CLARA, UT, 84765","Match","Non_Exact","2339 W COVEY LN, SANTA CLARA, UT, 84765",607592025,"L"
383006,"2339 E 72ND ST","CHICAGO","IL",60649,41.7644215970001,-87.567446536,6,"2339 E 72ND ST, CHICAGO, IL, 60649","Match","Exact","2339 E 72ND ST, CHICAGO, IL, 60649",605536424,"R"
383007,"2339 E 90TH STREET","CLEVELAND","OH",44106,41.4951585540001,-81.623079333,7,"2339 E 90TH STREET, CLEVELAND, OH, 44106","Match","Exact","2339 E 90TH ST, CLEVELAND, OH, 44106",61114343,"L"
383008,"2339 EAST AVENUE J-8 NO1","LANCASTER","CA",93536,34.6823735350001,-118.088787047,8,"2339 EAST AVENUE J-8 NO1, LANCASTER, CA, 93536","Match","Non_Exact","2339 E AVE J-8, LANCASTER, CA, 93535",142828586,"R"
383009,"2339 ESSEX DR","SUN PRAIRIE","WI",53590,43.192226358,-89.2549850839999,9,"2339 ESSEX DR, SUN PRAIRIE, WI, 53590","Match","Exact","2339 ESSEX DR, SUN PRAIRIE, WI, 53590",49496721,"R"
383010,"2339 FAIROAKS ROAD","DECATUR","GA",30033,33.8324660120001,-84.293154417,10,"2339 FAIROAKS ROAD, DECATUR, GA, 30033","Match","Exact","2339 FAIROAKS RD, DECATUR, GA, 30033",23360156,"R"
383011,"2339 FLAGSTAFF DR","LONGMONT","CO",80504,40.201447036,-105.081285817,11,"2339 FLAGSTAFF DR, LONGMONT, CO, 80504","Match","Exact","2339 FLAGSTAFF DR, LONGMONT, CO, 80504",188201181,"L"
383012,"2339 HARDING AVENUE","LANSING","MI",48910,42.707666186,-84.5339255819999,12,"2339 HARDING AVENUE, LANSING, MI, 48910","Match","Exact","2339 HARDING AVE, LANSING, MI, 48910",17500390,"L"
383013,"2339 HARMON AVENUE","KALAMAZOO","MI",49004,42.3374173080001,-85.561814706,13,"2339 HARMON AVENUE, KALAMAZOO, MI, 49004","Match","Exact","2339 HARMON AVE, KALAMAZOO, MI, 49004",12227159,"L"
383014,"2339 HEATHER WAY","FOREST GROVE","OR",97116,45.5243483680001,-123.131040314,14,"2339 HEATHER WAY, FOREST GROVE, OR, 97116","Match","Exact","2339 HEATHER WAY, FOREST GROVE, OR, 97116",648503387,"L"
383015,"2339 HERITAGE PARK CIR NW","KENNESSAW","GA",30144,34.0093217570001,-84.561994641,15,"2339 HERITAGE PARK CIR NW, KENNESSAW, GA, 30144","Match","Non_Exact","2339 HERITAGE PARK CIR NW, KENNESAW, GA, 30144",618320442,"L"
383016,"2339 HOPE STREET","JAY","OK",74346,NA,NA,16,"2339 HOPE STREET, JAY, OK, 74346","Tie",NA,NA,NA,NA
383017,"2339 INDIAN RIDGE DRIVE","GLENVIEW","IL",60026,42.096955651,-87.8667472339999,17,"2339 INDIAN RIDGE DRIVE, GLENVIEW, IL, 60026","Match","Exact","2339 INDIAN RIDGE DR, GLENVIEW, IL, 60026",111719326,"R"
383018,"2339 JUSTIN LANE","HARVEY","LA",70058,29.880894934,-90.047822004,18,"2339 JUSTIN LANE, HARVEY, LA, 70058","Match","Exact","2339 JUSTIN LN, HARVEY, LA, 70058",93510346,"R"
383019,"2339 LEWIS RIVER RD","WOODLAND","WA",98674,45.928909737,-122.722193142,19,"2339 LEWIS RIVER RD, WOODLAND, WA, 98674","Match","Exact","2339 LEWIS RIVER RD, WOODLAND, WA, 98674",184521203,"R"
383020,"2339 LOYANNE DR","SPRING","TX",77373,30.052180508,-95.401098852,20,"2339 LOYANNE DR, SPRING, TX, 77373","Match","Exact","2339 LOYANNE DR, SPRING, TX, 77373",96042166,"L"
383021,"2339 MAPLEWOOD DR","LEXINGTON","KY",40503,38.0134120050001,-84.5291305969999,21,"2339 MAPLEWOOD DR, LEXINGTON, KY, 40503","Match","Exact","2339 MAPLEWOOD DR, LEXINGTON, KY, 40503",31922888,"R"
383022,"2339 MCCOOMSKY LANE","SUN PRAIRIE","WI",53590,43.1999186200001,-89.25556958,22,"2339 MCCOOMSKY LANE, SUN PRAIRIE, WI, 53590","Match","Exact","2339 MCCOOMSKY LN, SUN PRAIRIE, WI, 53590",49496685,"R"
383023,"2339 MEADE SPRINGS RD","BRANDENBURG","KY",40108,37.959101763,-86.166597892,23,"2339 MEADE SPRINGS RD, BRANDENBURG, KY, 40108","Match","Exact","2339 MEADE SPRINGS RD, BRANDENBURG, KY, 40108",8170989,"R"
383024,"2339 MERLE RD","SALEM","OH",44460,40.891289853,-80.829986837,24,"2339 MERLE RD, SALEM, OH, 44460","Match","Exact","2339 MERLE RD, SALEM, OH, 44460",63663268,"R"
383025,"2339 MOORES LANE","LUMBERTON","NC",28358,34.673234354,-78.940824842,25,"2339 MOORES LANE, LUMBERTON, NC, 28358","Match","Exact","2339 MOORES LN, LUMBERTON, NC, 28358",625032457,"L"
383026,"2339 MOUND RD","JACKSONVILLE","IL",62650,39.724547871,-90.283628108,26,"2339 MOUND RD, JACKSONVILLE, IL, 62650","Match","Exact","2339 MOUND RD, JACKSONVILLE, IL, 62650",649894454,"R"
383027,"2339 N LEXINGTON","SPRINGFIELD","MO",65803,37.2398720100001,-93.313419692,27,"2339 N LEXINGTON, SPRINGFIELD, MO, 65803","Match","Non_Exact","2339 N LEXINGTON AVE, SPRINGFIELD, MO, 65803",76672821,"L"
383028,"2339 PALOMIRA COURT","CHULA VISTA","CA",91915,32.6394836330001,-116.960809426,28,"2339 PALOMIRA COURT, CHULA VISTA, CA, 91915","Match","Exact","2339 PALOMIRA CT, CHULA VISTA, CA, 91915",195671278,"L"
383029,"2339 PERKINS COURT","COLUMBUS","OH",43229,40.094060837,-82.956230981,29,"2339 PERKINS COURT, COLUMBUS, OH, 43229","Match","Exact","2339 PERKINS CT, COLUMBUS, OH, 43229",218546711,"L"
383030,"2339 S 3RD ST","JBLM","WA",98433,47.086940428,-122.613240801,30,"2339 S 3RD ST, JBLM, WA, 98433","Match","Non_Exact","2339 S 3RD ST, JOINT BASE LEWIS MCCHORD, WA, 98433",184691830,"L"
383031,"2339 S CONWAY RD APT 417","ORLANDO","FL",32812,28.512474157,-81.330854643,31,"2339 S CONWAY RD APT 417, ORLANDO, FL, 32812","Match","Non_Exact","2339 S CONWAY RD, ORLANDO, FL, 32812",637647532,"L"
383032,"2339 S GARDEN ST","VISALIA","CA",93277,36.3097961930001,-119.289620478,32,"2339 S GARDEN ST, VISALIA, CA, 93277","Match","Exact","2339 S GARDEN ST, VISALIA, CA, 93277",202801473,"L"
383033,"2339 S UPLAND HILLS","WICHITA","KS",67235,37.6509971300001,-97.4855681,33,"2339 S UPLAND HILLS, WICHITA, KS, 67235","Match","Non_Exact","2339 S UPLAND HILLS ST, WICHITA, KS, 67235",635248782,"R"
383034,"2339 SANDRINGHAM CIRCLE","INDIANAPOLIS","IN",46214,39.7973616800001,-86.302791025,34,"2339 SANDRINGHAM CIRCLE, INDIANAPOLIS, IN, 46214","Match","Non_Exact","2339 N SANDRINGHAM CIR, INDIANAPOLIS, IN, 46214",108026394,"R"
383035,"2339 SHACKLEFORD TRAIL","GRAND PRAIRIE","TX",75052,32.6413721100001,-97.039500545,35,"2339 SHACKLEFORD TRAIL, GRAND PRAIRIE, TX, 75052","Match","Exact","2339 SHACKLEFORD TRL, GRAND PRAIRIE, TX, 75052",102187706,"R"
383036,"2339 SMITHVILLE RD","HARRISVILLE","WV",26362,39.168163593,-81.045310727,36,"2339 SMITHVILLE RD, HARRISVILLE, WV, 26362","Match","Exact","2339 SMITHVILLE RD, HARRISVILLE, WV, 26362",55289788,"R"
383037,"2339 SPRUCE CREEK DRIVE","FORT COLLINS","CO",80525,40.504084623,-105.034907271,37,"2339 SPRUCE CREEK DRIVE, FORT COLLINS, CO, 80525","Match","Non_Exact","2339 SPRUCE CREEK DR, FORT COLLINS, CO, 80528",645455562,"R"
383038,"2339 SUDDERTH","RUIDOSO","NM",88345,33.331188157,-105.668861615,38,"2339 SUDDERTH, RUIDOSO, NM, 88345","Match","Non_Exact","2339 SUDDERTH DR, RUIDOSO, NM, 88345",169123383,"L"
383039,"2339 TAPIA BLVD SW","ALBUQUERQUE","NM",87105,35.0408957940001,-106.691775535,39,"2339 TAPIA BLVD SW, ALBUQUERQUE, NM, 87105","Match","Exact","2339 TAPIA BLVD SW, ALBUQUERQUE, NM, 87105",206707221,"R"
383040,"2339 W MAIN STREET","PRICHARD","AL",36610,30.7431164440001,-88.097762512,40,"2339 W MAIN STREET, PRICHARD, AL, 36610","Match","Exact","2339 W MAIN ST, PRICHARD, AL, 36610",61926993,"L"
383041,"2339 WEST CART ROAD","RICHMOND","IN",47374,39.8708502420001,-84.870637412,41,"2339 WEST CART ROAD, RICHMOND, IN, 47374","Match","Exact","2339 W CART RD, RICHMOND, IN, 47374",31347548,"R"
383042,"2339 WINTERGREEN CT","LODI","CA",95242,38.125562587,-121.303938961,42,"2339 WINTERGREEN CT, LODI, CA, 95242","Match","Exact","2339 WINTERGREEN CT, LODI, CA, 95242",133879031,"L"
383043,"2339 WISE RD","GRAND PRAIRIE","TX",75052,32.6440137050001,-97.041743087,43,"2339 WISE RD, GRAND PRAIRIE, TX, 75052","Match","Exact","2339 WISE RD, GRAND PRAIRIE, TX, 75052",624552701,"L"
383044,"2339 YEAGER ROAD 8","WEST LAFAYETTE","IN",47906,40.4511617160001,-86.924506197,44,"2339 YEAGER ROAD 8, WEST LAFAYETTE, IN, 47906","Match","Exact","2339 YEAGER RD, W LAFAYETTE, IN, 47906",645937952,"L"
383045,"23390 CTY RD 74","EATON","CO",80615,40.522323693,-104.611240666,45,"23390 CTY RD 74, EATON, CO, 80615","Match","Exact","23390 CO RD 74, EATON, CO, 80615",188716781,"L"
383046,"23390 HUNTERS TRAIL","EDMOND","OK",73025,35.710254998,-97.524518708,46,"23390 HUNTERS TRAIL, EDMOND, OK, 73025","Match","Exact","23390 HUNTERS TRL, EDMOND, OK, 73025",100430928,"L"
383047,"23393 FINCH AVE","MATTAWAN","MI",49071,42.267109068,-85.780316679,47,"23393 FINCH AVE, MATTAWAN, MI, 49071","Match","Exact","23393 FINCH AVE, MATTAWAN, MI, 49071",642579782,"L"
383048,"23394 WAGON WHEEL CIRCLE","ATHENS","IL",62613,39.966667354,-89.7464871889999,48,"23394 WAGON WHEEL CIRCLE, ATHENS, IL, 62613","Match","Exact","23394 WAGON WHEEL CIR, ATHENS, IL, 62613",606354018,"L"
383049,"23395 GREENLEAF BLVD","ELKHART","IN",46514,41.6981129260001,-85.916542146,49,"23395 GREENLEAF BLVD, ELKHART, IN, 46514","Match","Exact","23395 GREENLEAF BLVD, ELKHART, IN, 46514",7751746,"L"
383050,"23395 MIDDLEBELT RD","FARMINGTON HILLS","MI",48336,42.4643053710001,-83.337419208,50,"23395 MIDDLEBELT RD, FARMINGTON HILLS, MI, 48336","Match","Exact","23395 MIDDLEBELT RD, FARMINGTON HILLS, MI, 48336",69730983,"L"
383051,"23395 MIDDLEBELT ROAD","FARMINGTON HILLS","MI",48336,42.4643053710001,-83.337419208,51,"23395 MIDDLEBELT ROAD, FARMINGTON HILLS, MI, 48336","Match","Exact","23395 MIDDLEBELT RD, FARMINGTON HILLS, MI, 48336",69730983,"L"
383052,"23395 MIDDLEBELT ROAD","FARMINGTON HILLS","MI",48836,42.4643053710001,-83.337419208,52,"23395 MIDDLEBELT ROAD, FARMINGTON HILLS, MI, 48836","Match","Non_Exact","23395 MIDDLEBELT RD, FARMINGTON HLS, MI, 48336",69730983,"L"
383053,"23396 THOMPSON RD","SHELL LAKE","WI",54871,45.7610454950001,-92.129263877,53,"23396 THOMPSON RD, SHELL LAKE, WI, 54871","Match","Exact","23396 THOMPSON RD, SHELL LAKE, WI, 54871",167469658,"R"
383054,"23396 THOMPSON ROAD","SHELL LAKE","WI",54871,45.7610454950001,-92.129263877,54,"23396 THOMPSON ROAD, SHELL LAKE, WI, 54871","Match","Exact","23396 THOMPSON RD, SHELL LAKE, WI, 54871",167469658,"R"
383055,"23397 FREEPORT STREET","PORT CHARLOTTE","FL",33971,NA,NA,55,"23397 FREEPORT STREET, PORT CHARLOTTE, FL, 33971","No_Match",NA,NA,NA,NA
383056,"23399 CARNOUSTIE DR","FOLEY","AL",36535,30.3634110350001,-87.6267737319999,56,"23399 CARNOUSTIE DR, FOLEY, AL, 36535","Match","Exact","23399 CARNOUSTIE DR, FOLEY, AL, 36535",131718273,"L"
383057,"23399 SE 52ND STREET","ISSAQUAH","WA",98029,47.555899283,-122.028010113,57,"23399 SE 52ND STREET, ISSAQUAH, WA, 98029","Match","Exact","23399 SE 52ND ST, ISSAQUAH, WA, 98029",186960657,"R"
383058,"233A ARLINGTON AVE","JERSEY CITY","NJ",7304,NA,NA,58,"233A ARLINGTON AVE, JERSEY CITY, NJ, 7304","No_Match",NA,NA,NA,NA
383059,"233A ROCK RD 350","GLEN ROCK","NJ",7452,40.9624742290001,-74.130490719,59,"233A ROCK RD 350, GLEN ROCK, NJ, 7452","Match","Exact","233 ROCK RD, GLEN ROCK, NJ, 07452",64405351,"L"
383060,"233B HELEN ST","WESTLAKE","LA",70669,30.260748576,-93.247128182,60,"233B HELEN ST, WESTLAKE, LA, 70669","Match","Exact","233 HELEN ST, WESTLAKE, LA, 70669",88433709,"L"
383061,"233B S PETERS RD","KNOXVILLE","TN",37923,35.90891133,-84.0794716519999,61,"233B S PETERS RD, KNOXVILLE, TN, 37923","Match","Exact","233 S PETERS RD, KNOXVILLE, TN, 37923",653291145,"R"
383062,"233E WHEELER AVE","GARDEN CITY","NY",11530,40.731514394,-73.600176531,62,"233E WHEELER AVE, GARDEN CITY, NY, 11530","Match","Exact","233 WHEELER AVE, GARDEN CITY, NY, 11530",147627071,"R"
383063,"234  86 STREET","BROOKLYN","NY",11209,40.6238603690001,-74.03274607,63,"234  86 STREET, BROOKLYN, NY, 11209","Match","Exact","234 86TH ST, BROOKLYN, NY, 11209",59087444,"R"
383064,"234 10TH ST","JERSEY CITY","NJ",7302,40.72894884,-74.043342748,64,"234 10TH ST, JERSEY CITY, NJ, 7302","Match","Exact","234 10TH ST, JERSEY CITY, NJ, 07302",59606116,"R"
383065,"234 13TH ST","RAINELLE","WV",25962,37.9704140040001,-80.756962344,65,"234 13TH ST, RAINELLE, WV, 25962","Match","Exact","234 13TH ST, RAINELLE, WV, 25962",74756423,"L"
383066,"234 14TH AVE","BRANDENTON","FL",34205,27.4872246040001,-82.564771295,66,"234 14TH AVE, BRANDENTON, FL, 34205","Match","Non_Exact","234 14TH AVE W, BRADENTON, FL, 34205",16272457,"L"
383067,"234 14TH ST NE","WASHINGTON","DC",20002,38.8925932990001,-76.98551335,67,"234 14TH ST NE, WASHINGTON, DC, 20002","Match","Exact","234 14TH ST NE, WASHINGTON, DC, 20002",76230352,"L"
383068,"234 1ST ST NORTH","JACKSONVILLE BEACH","FL",32250,30.2907175180001,-81.3899593849999,68,"234 1ST ST NORTH, JACKSONVILLE BEACH, FL, 32250","Match","Exact","234 1ST ST N, JACKSONVILLE BEACH, FL, 32250",83923585,"L"
383069,"234 2ND ST SW","BLOOMING PRAIRIE","MN",55917,43.8643452330001,-93.057661567,69,"234 2ND ST SW, BLOOMING PRAIRIE, MN, 55917","Match","Exact","234 2ND ST SW, BLOOMING PRAIRIE, MN, 55917",38168880,"R"
383070,"234 2ND STREET","JERSEY CITY","NJ",7302,40.7224202560001,-74.043035373,70,"234 2ND STREET, JERSEY CITY, NJ, 7302","Match","Exact","234 2ND ST, JERSEY CITY, NJ, 07302",59606223,"R"
383071,"234 52ND STREET","WEST NEW YORK","NJ",7093,40.7819320190001,-74.015441186,71,"234 52ND STREET, WEST NEW YORK, NJ, 7093","Match","Exact","234 52ND ST, WEST NEW YORK, NJ, 07093",59598844,"R"
383072,"234 58TH PLACE","CLARENDON HILLS","IL",60514,41.78228433,-87.954435893,72,"234 58TH PLACE, CLARENDON HILLS, IL, 60514","Match","Exact","234 58TH PL, CLARENDON HILLS, IL, 60514",642886039,"R"
383073,"234 68TH ST N","ST PETERSBURG","FL",33710,27.773898463,-82.7325309399999,73,"234 68TH ST N, ST PETERSBURG, FL, 33710","Match","Exact","234 68TH ST N, SAINT PETERSBURG, FL, 33710",124698679,"L"
383074,"234 6TH AVENUE","WEST CAPE MAY","NJ",8204,38.9409574700001,-74.932419468,74,"234 6TH AVENUE, WEST CAPE MAY, NJ, 8204","Match","Exact","234 6TH AVE, WEST CAPE MAY, NJ, 08204",174345846,"R"
383075,"234 6TH ST","MACCLENNY","FL",32063,30.2797886390001,-82.1231993119999,75,"234 6TH ST, MACCLENNY, FL, 32063","Match","Exact","234 6TH ST, MACCLENNY, FL, 32063",5108645,"L"
383076,"234 86TH ST","BROOKLYN","NY",11209,40.6238603690001,-74.03274607,76,"234 86TH ST, BROOKLYN, NY, 11209","Match","Exact","234 86TH ST, BROOKLYN, NY, 11209",59087444,"R"
383077,"234 ADELPHA","ROUND ROCK","TX",78664,30.496403823,-97.6095041469999,77,"234 ADELPHA, ROUND ROCK, TX, 78664","Match","Non_Exact","234 ADELFA DR, ROUND ROCK, TX, 78664",126482953,"L"
383078,"234 ALBANY DRIVE","HAMPTON","VA",23666,37.0368701690001,-76.421333794,78,"234 ALBANY DRIVE, HAMPTON, VA, 23666","Match","Exact","234 ALBANY DR, HAMPTON, VA, 23666",636074824,"L"
383079,"234 ALLEN CV","WARD","AR",72176,35.0056298110001,-91.889388789,79,"234 ALLEN CV, WARD, AR, 72176","Match","Exact","234 ALLEN COVE, WARD, AR, 72176",623695665,"R"
383080,"234 AMHERST STREET","WINCHESTER","VA",22601,39.186128255,-78.16971598,80,"234 AMHERST STREET, WINCHESTER, VA, 22601","Match","Exact","234 AMHERST ST, WINCHESTER, VA, 22601",55609956,"R"
383081,"234 AMHURST LANE","CROSSVILLE","TN",38558,35.9903560020001,-84.8924888989999,81,"234 AMHURST LANE, CROSSVILLE, TN, 38558","Match","Non_Exact","234 AMHERST LN, CROSSVILLE, TN, 38558",26239858,"R"
383082,"234 ANTIQUA WAY","VALLEJO","CA",94591,NA,NA,82,"234 ANTIQUA WAY, VALLEJO, CA, 94591","No_Match",NA,NA,NA,NA
383083,"234 ARCADIA RD","GOSHEN","NY",10924,41.359773461,-74.3116381099999,83,"234 ARCADIA RD, GOSHEN, NY, 10924","Match","Exact","234 ARCADIA RD, GOSHEN, NY, 10924",124448640,"L"
383084,"234 ARMSLEY SQ","ONTARIO","CA",91762,34.083983695,-117.653157997,84,"234 ARMSLEY SQ, ONTARIO, CA, 91762","Match","Non_Exact","234 W ARMSLEY SQ, ONTARIO, CA, 91762",144675278,"R"
383085,"234 ARTIFACT AVE","WINCHESTER","VA",22603,39.1959396990001,-78.129301751,85,"234 ARTIFACT AVE, WINCHESTER, VA, 22603","Match","Exact","234 ARTIFACT AVE, WINCHESTER, VA, 22603",647714213,"R"
383086,"234 ATLANTIC AVE","BOOTHBAY HARBOR","ME",4538,43.8368178950001,-69.6267370909999,86,"234 ATLANTIC AVE, BOOTHBAY HARBOR, ME, 4538","Match","Exact","234 ATLANTIC AVE, BOOTHBAY HARBOR, ME, 04538",75320846,"R"
383087,"234 AUBURN STREET APT F69","PORTLAND","ME",4103,43.7081674080001,-70.29048614,87,"234 AUBURN STREET APT F69, PORTLAND, ME, 4103","Match","Exact","234 AUBURN ST, PORTLAND, ME, 04103",78074678,"L"
383088,"234 AVE P NE","WINTER HAVEN","FL",33881,28.0378714440001,-81.724216164,88,"234 AVE P NE, WINTER HAVEN, FL, 33881","Match","Exact","234 AVE P NE, WINTER HAVEN, FL, 33881",104850353,"R"
383089,"234 BARD AVE","STATEN ISLAND","NY",10310,40.6388210120001,-74.10740114,89,"234 BARD AVE, STATEN ISLAND, NY, 10310","Match","Exact","234 BARD AVE, STATEN ISLAND, NY, 10310",59878294,"R"
383090,"234 BARNES ROAD","WATEROWN","CT",6795,41.573111672,-73.1401285489999,90,"234 BARNES ROAD, WATEROWN, CT, 6795","Match","Non_Exact","234 BARNES RD, WATERTOWN, CT, 06795",3108535,"R"
383091,"234 BAYOU FOLSE ROAD","RACELAND","LA",70394,29.707262687,-90.627708597,91,"234 BAYOU FOLSE ROAD, RACELAND, LA, 70394","Match","Exact","234 BAYOU FOLSE RD, RACELAND, LA, 70394",630406063,"R"
383092,"234 BAYRIDGE DR","CORPUS CHRISTI","TX",78411,27.744611633,-97.373948743,92,"234 BAYRIDGE DR, CORPUS CHRISTI, TX, 78411","Match","Exact","234 BAYRIDGE DR, CORPUS CHRISTI, TX, 78411",178539326,"R"
383093,"234 BEAMAN STREET","CLINTON","NC",28328,35.002635728,-78.3215827079999,93,"234 BEAMAN STREET, CLINTON, NC, 28328","Match","Exact","234 BEAMAN ST, CLINTON, NC, 28328",14254236,"R"
383094,"234 BERNARD DRIVE","KING OF PRUSSIA","PA",19406,40.1113934850001,-75.3816734339999,94,"234 BERNARD DRIVE, KING OF PRUSSIA, PA, 19406","Match","Exact","234 BERNARD DR, KING OF PRUSSIA, PA, 19406",135070701,"R"
383095,"234 BETTY DRIVE","MONTZ","LA",70068,30.0243583810001,-90.46712905,95,"234 BETTY DRIVE, MONTZ, LA, 70068","Match","Exact","234 BETTY DR, MONTZ, LA, 70068",627292354,"R"
383096,"234 BILLY HILL","LIVINGTON","TX",77351,NA,NA,96,"234 BILLY HILL, LIVINGTON, TX, 77351","No_Match",NA,NA,NA,NA
383097,"234 BLACKHAWK RD","WILLIAMSBURG","KY",40769,36.7999560540001,-84.127834611,97,"234 BLACKHAWK RD, WILLIAMSBURG, KY, 40769","Match","Non_Exact","234 BLACK HAWK RD, WILLIAMSBURG, KY, 40769",628668895,"R"
383098,"234 BOCAGE DR","THIBODAUX","LA",70301,29.812465768,-90.809522864,98,"234 BOCAGE DR, THIBODAUX, LA, 70301","Match","Exact","234 BOCAGE DR, THIBODAUX, LA, 70301",649243591,"R"
383099,"234 BOLL WEEVIL ROAD","TONEY","AL",35773,34.862802012,-86.68672056,99,"234 BOLL WEEVIL ROAD, TONEY, AL, 35773","Match","Non_Exact","234 BOLLWEEVIL LN, TONEY, AL, 35773",58170022,"L"
383100,"234 BONEY BANKS","WHITESBURG","KY",41858,NA,NA,100,"234 BONEY BANKS, WHITESBURG, KY, 41858","No_Match",NA,NA,NA,NA
383101,"234 BRADURST APT 11","NEW YORK","NY",10039,NA,NA,101,"234 BRADURST APT 11, NEW YORK, NY, 10039","No_Match",NA,NA,NA,NA
383102,"234 BRENTWOOD DRIVE","BUSHKILL","PA",18324,41.104620599,-75.037180591,102,"234 BRENTWOOD DRIVE, BUSHKILL, PA, 18324","Match","Exact","234 BRENTWOOD DR, BUSHKILL, PA, 18324",191437312,"R"
383103,"234 BRIDGE STR APT 1","WESTBROOKE","ME",4092,43.684054845,-70.365503299,103,"234 BRIDGE STR APT 1, WESTBROOKE, ME, 4092","Match","Non_Exact","234 BRIDGE ST, WESTBROOK, ME, 04092",78023463,"L"
383104,"234 BRIDGEWATER PL","BREAUX BRIDGE","LA",70517,30.2862948970001,-91.914770238,104,"234 BRIDGEWATER PL, BREAUX BRIDGE, LA, 70517","Match","Exact","234 BRIDGEWATER PL, BREAUX BRIDGE, LA, 70517",631590006,"L"
383105,"234 BRIDGEWATER PLACE","BREAUX BRIDGE","LA",70517,30.2862948970001,-91.914770238,105,"234 BRIDGEWATER PLACE, BREAUX BRIDGE, LA, 70517","Match","Exact","234 BRIDGEWATER PL, BREAUX BRIDGE, LA, 70517",631590006,"L"
383106,"234 BROAD STREET","EAST STROUDSBURG","PA",18301,41.0062277690001,-75.175416555,106,"234 BROAD STREET, EAST STROUDSBURG, PA, 18301","Match","Non_Exact","234 E BROAD ST, E STROUDSBURG, PA, 18301",623569310,"L"
383107,"234 BROOKFIELD DRIVE","GREENWOOD","SC",29646,34.1751050500001,-82.205317223,107,"234 BROOKFIELD DRIVE, GREENWOOD, SC, 29646","Match","Exact","234 BROOKFIELD DR, GREENWOOD, SC, 29646",50821480,"R"
383108,"234 BRUTON AVENUE","NEWPORT NEWS","VA",23601,37.0776565460001,-76.4521914599999,108,"234 BRUTON AVENUE, NEWPORT NEWS, VA, 23601","Match","Exact","234 BRUTON AVE, NEWPORT NEWS, VA, 23601",103753350,"R"
383109,"234 BUCHANAN DR","CHELSEA","MI",48118,42.320562169,-84.022298156,109,"234 BUCHANAN DR, CHELSEA, MI, 48118","Match","Non_Exact","234 BUCHANAN ST, CHELSEA, MI, 48118",642557100,"R"
383110,"234 BUROUGHS ROAD","SANGERVILLE","ME",4479,NA,NA,110,"234 BUROUGHS ROAD, SANGERVILLE, ME, 4479","No_Match",NA,NA,NA,NA
383111,"234 CABOT STREET","BEVERLY","MA",1915,42.5522771190001,-70.878750909,111,"234 CABOT STREET, BEVERLY, MA, 1915","Match","Exact","234 CABOT ST, BEVERLY, MA, 01915",636953709,"L"
383112,"234 CAT TAIL BAY DRIVE","CONWAY","SC",29577,33.8447987920001,-79.2140682949999,112,"234 CAT TAIL BAY DRIVE, CONWAY, SC, 29577","Match","Non_Exact","234 CAT TAIL BAY DR, CONWAY, SC, 29527",630203355,"L"
383113,"234 CAUSEWAY ST APT 1006","BOSTON","MA",2114,42.366613498,-71.059067778,113,"234 CAUSEWAY ST APT 1006, BOSTON, MA, 2114","Match","Exact","234 CAUSEWAY ST, BOSTON, MA, 02114",85709742,"L"
383114,"234 CEDAR ST","NORTH PLAINFIELD","NJ",7060,40.6212052540001,-74.445813675,114,"234 CEDAR ST, NORTH PLAINFIELD, NJ, 7060","Match","Exact","234 CEDAR ST, N PLAINFIELD, NJ, 07060",59941199,"R"
383115,"234 CEDARVIEW DR","PERKASIE","PA",18944,40.3974157660001,-75.2560674969999,115,"234 CEDARVIEW DR, PERKASIE, PA, 18944","Match","Exact","234 CEDARVIEW DR, PERKASIE, PA, 18944",134698851,"R"
383116,"234 CENTRAL AVE","HATBORO","PA",19040,40.1753548560001,-75.1000287479999,116,"234 CENTRAL AVE, HATBORO, PA, 19040","Match","Exact","234 CENTRAL AVE, HATBORO, PA, 19040",135080500,"R"
383117,"234 CHASE DR","BOURG","LA",70364,29.551688319,-90.632658345,117,"234 CHASE DR, BOURG, LA, 70364","Match","Non_Exact","234 CHASE DR, BOURG, LA, 70343",92068830,"L"
383118,"234 CHURCH STREET FLOOR 7","New Haven","CT",6517,NA,NA,118,"234 CHURCH STREET FLOOR 7, New Haven, CT, 6517","No_Match",NA,NA,NA,NA
383119,"234 CIRCLE DR","DORCHESTER","WI",54425,45.0098948020001,-90.3327042779999,119,"234 CIRCLE DR, DORCHESTER, WI, 54425","Match","Exact","234 CIRCLE DR, DORCHESTER, WI, 54425",50870987,"L"
383120,"234 CO RD 3319","TROY","AL",36079,31.6665873220001,-85.838079357,120,"234 CO RD 3319, TROY, AL, 36079","Match","Exact","234 CO RD 3319, TROY, AL, 36079",69217550,"R"
383121,"234 COBBLESTONE DRIVE","SAN RAFAEL","CA",94903,38.037038185,-122.540250063,121,"234 COBBLESTONE DRIVE, SAN RAFAEL, CA, 94903","Match","Exact","234 COBBLESTONE DR, SAN RAFAEL, CA, 94903",192762321,"R"
383122,"234 COLLINS STREET","PHILADELPHIA","PA",19144,NA,NA,122,"234 COLLINS STREET, PHILADELPHIA, PA, 19144","No_Match",NA,NA,NA,NA
383123,"234 COLONIAL RD","WEST BABYLON","NY",11704,NA,NA,123,"234 COLONIAL RD, WEST BABYLON, NY, 11704","No_Match",NA,NA,NA,NA
383124,"234 COLONY RD","NEW HAVEN","CT",6511,41.3278718780001,-72.943578385,124,"234 COLONY RD, NEW HAVEN, CT, 6511","Match","Exact","234 COLONY RD, NEW HAVEN, CT, 06511",3699080,"L"
383125,"234 COMMONWEALTH AVENUE","DUQUESNE","PA",15110,40.3814995770001,-79.859843939,125,"234 COMMONWEALTH AVENUE, DUQUESNE, PA, 15110","Match","Exact","234 COMMONWEALTH AVE, DUQUESNE, PA, 15110",51671477,"R"
383126,"234 CONCORD AVENUE","LEXINGTON","MA",2421,42.4164530960001,-71.222230574,126,"234 CONCORD AVENUE, LEXINGTON, MA, 2421","Match","Exact","234 CONCORD AVE, LEXINGTON, MA, 02421",86882747,"L"
383127,"234 CORIELL AVENUE","FANWOOD","NJ",7023,40.6373075990001,-74.379009733,127,"234 CORIELL AVENUE, FANWOOD, NJ, 7023","Match","Exact","234 CORIELL AVE, FANWOOD, NJ, 07023",60567868,"R"
383128,"234 CORIELLE AVENUE","FANWOOD","NJ",7023,40.6373075990001,-74.379009733,128,"234 CORIELLE AVENUE, FANWOOD, NJ, 7023","Match","Non_Exact","234 CORIELL AVE, FANWOOD, NJ, 07023",60567868,"R"
383129,"234 CORLEY WOODS DR","LEXINGTON","SC",29072,33.978848794,-81.2136905249999,129,"234 CORLEY WOODS DR, LEXINGTON, SC, 29072","Match","Exact","234 CORLEY WOODS DR, LEXINGTON, SC, 29072",70085942,"L"
383130,"234 COUNTRY CLUB DR","BUTLER","AL",36904,32.092910811,-88.189642092,130,"234 COUNTRY CLUB DR, BUTLER, AL, 36904","Match","Exact","234 COUNTRY CLUB DR, BUTLER, AL, 36904",107685,"L"
383131,"234 COUNTY ROAD 430","STOCKDALE","TX",78160,29.315231871,-97.955023575,131,"234 COUNTY ROAD 430, STOCKDALE, TX, 78160","Match","Exact","234 CO RD 430, STOCKDALE, TX, 78160",54900061,"L"
383132,"234 CR 430","STOCKDALE","TX",78160,29.315231871,-97.955023575,132,"234 CR 430, STOCKDALE, TX, 78160","Match","Exact","234 CO RD 430, STOCKDALE, TX, 78160",54900061,"L"
383133,"234 CR 725","NACOGDOCHES","TX",75964,31.568713879,-94.7521108459999,133,"234 CR 725, NACOGDOCHES, TX, 75964","Match","Exact","234 CO RD 725, NACOGDOCHES, TX, 75964",72445549,"R"
383134,"234 CRAFT LANE","CARBONDALE","IL",62901,37.6717906800001,-89.177167057,134,"234 CRAFT LANE, CARBONDALE, IL, 62901","Match","Non_Exact","234 CRAFT LN, CARBONDALE, IL, 62902",95121604,"R"
383135,"234 CREEKSTONE RIDGE","WOODSTOCK","GA",30188,34.0893700820001,-84.525670844,135,"234 CREEKSTONE RIDGE, WOODSTOCK, GA, 30188","Match","Exact","234 CREEKSTONE RIDGE, WOODSTOCK, GA, 30188",617674882,"R"
383136,"234 CREST DRIVE","TARRYTOWN","NY",10591,41.0725827900001,-73.846693782,136,"234 CREST DRIVE, TARRYTOWN, NY, 10591","Match","Exact","234 CREST DR, TARRYTOWN, NY, 10591",139731321,"L"
383137,"234 CRITTENDEN WAY","ROCHESTER","NY",14623,43.103103909,-77.632627245,137,"234 CRITTENDEN WAY, ROCHESTER, NY, 14623","Match","Exact","234 CRITTENDEN WAY, ROCHESTER, NY, 14623",14535050,"R"
383138,"234 CROSSWAYS PARK DRIVE","WOODBURY","NY",11797,40.8082384320001,-73.482597042,138,"234 CROSSWAYS PARK DRIVE, WOODBURY, NY, 11797","Match","Exact","234 CROSSWAYS PARK DR, WOODBURY, NY, 11797",147696985,"R"
383139,"234 DANIELLE DRIVE","BENTON","LA",71006,32.655884456,-93.680480737,139,"234 DANIELLE DRIVE, BENTON, LA, 71006","Match","Exact","234 DANIELLE DR, BENTON, LA, 71006",651480967,"R"
383140,"234 DAVE COFFEY ROAD","LEITCHFIELD","KY",42754,37.47350987,-86.2663126689999,140,"234 DAVE COFFEY ROAD, LEITCHFIELD, KY, 42754","Match","Exact","234 DAVE COFFEY RD, LEITCHFIELD, KY, 42754",15769967,"R"
383141,"234 DAVIS AVENUE","CLIFTON HEIGHTS","PA",19018,39.928964669,-75.301816506,141,"234 DAVIS AVENUE, CLIFTON HEIGHTS, PA, 19018","Match","Exact","234 DAVIS AVE, CLIFTON HEIGHTS, PA, 19018",134883174,"L"
383142,"234 DEGRAW STREET","BROOKLYN","NY",11231,40.6844268460001,-73.997695503,142,"234 DEGRAW STREET, BROOKLYN, NY, 11231","Match","Exact","234 DEGRAW ST, BROOKLYN, NY, 11231",59074845,"R"
383143,"234 DEVONWOOD DR","SANDY SPRINGS","GA",30328,33.947485451,-84.3788782829999,143,"234 DEVONWOOD DR, SANDY SPRINGS, GA, 30328","Match","Non_Exact","234 DEVONWOOD DR NE, SANDY SPRINGS, GA, 30328",17417477,"L"
383144,"234 DINSMORE AVENUE","THOUSAND OAKS","CA",91362,34.1788510370001,-118.845188782,144,"234 DINSMORE AVENUE, THOUSAND OAKS, CA, 91362","Match","Exact","234 DINSMORE AVE, THOUSAND OAKS, CA, 91362",109977012,"R"
383145,"234 DRAKE AVE APT 3D","NEW ROCHELLE","NY",10805,40.896182321,-73.784165125,145,"234 DRAKE AVE APT 3D, NEW ROCHELLE, NY, 10805","Match","Exact","234 DRAKE AVE, NEW ROCHELLE, NY, 10805",139751410,"L"
383146,"234 E 149TH STREET","BRONX","NY",10451,40.8176416800001,-73.9237540679999,146,"234 E 149TH STREET, BRONX, NY, 10451","Match","Exact","234 E 149TH ST, BRONX, NY, 10451",80309048,"R"
383147,"234 E 14TH ST","NYC","NY",10004,NA,NA,147,"234 E 14TH ST, NYC, NY, 10004","No_Match",NA,NA,NA,NA
383148,"234 E 15TH STREET","TEMPE","AZ",85281,33.4120006900001,-111.933953726,148,"234 E 15TH STREET, TEMPE, AZ, 85281","Match","Exact","234 E 15TH ST, TEMPE, AZ, 85281",128227250,"L"
383149,"234 E 1ST AVENUE APT 25","SALT LAKE CITY","UT",84103,40.770551407,-111.88297691,149,"234 E 1ST AVENUE APT 25, SALT LAKE CITY, UT, 84103","Match","Non_Exact","234 E 1ST AVE, SALT LAKE CITY, UT, 84103",176067504,"R"
383150,"234 E 4TH ST","WINNER","SD",57580,43.3744191960001,-99.85481892,150,"234 E 4TH ST, WINNER, SD, 57580","Match","Exact","234 E 4TH ST, WINNER, SD, 57580",200358388,"R"
383151,"234 E 52ND ST","NEW YORK","NY",10022,40.7567179820001,-73.969003473,151,"234 E 52ND ST, NEW YORK, NY, 10022","Match","Exact","234 E 52ND ST, NEW YORK, NY, 10022",59657498,"R"
383152,"234 E 61ST STREET","NEW YORK","NY",10065,40.762444805,-73.964823778,152,"234 E 61ST STREET, NEW YORK, NY, 10065","Match","Exact","234 E 61ST ST, NEW YORK, NY, 10065",59657478,"R"
383153,"234 E 82ND STREET APERTMENT 17","NY","NY",10028,40.775876764,-73.9550248049999,153,"234 E 82ND STREET APERTMENT 17, NY, NY, 10028","Match","Non_Exact","234 E 82ND ST, NEW YORK, NY, 10028",59658273,"R"
383154,"234 E 88TH STREET APT D","NEW YORK CITY","NY",10128,40.7796091540001,-73.9518181079999,154,"234 E 88TH STREET APT D, NEW YORK CITY, NY, 10128","Match","Non_Exact","234 E 88TH ST, NEW YORK, NY, 10128",650084207,"R"
383155,"234 E EDISON AVENUE","DES MOINES","IA",50315,41.572524614,-93.6123405979999,155,"234 E EDISON AVENUE, DES MOINES, IA, 50315","Match","Exact","234 EDISON AVE, DES MOINES, IA, 50315",65786536,"L"
383156,"234 E FALLEN ROCK ROAD","GRAND JUNCTION","CO",81507,39.043415512,-108.635914453,156,"234 E FALLEN ROCK ROAD, GRAND JUNCTION, CO, 81507","Match","Exact","234 FALLEN ROCK RD, GRAND JCT, CO, 81507",122431151,"R"
383157,"234 E GEPP ST","BETHLEHEM","PA",18108,40.626086962,-75.371908628,157,"234 E GEPP ST, BETHLEHEM, PA, 18108","Match","Non_Exact","234 E GOEPP ST, BETHLEHEM, PA, 18018",136906683,"R"
383158,"234 E GUAVA ST","OXNARD","CA",93033,34.1810616550001,-119.175406107,158,"234 E GUAVA ST, OXNARD, CA, 93033","Match","Exact","234 E GUAVA ST, OXNARD, CA, 93033",110116372,"R"
383159,"234 E MAIN ST","HEGINS","PA",17938,40.6489715020001,-76.513707078,159,"234 E MAIN ST, HEGINS, PA, 17938","Match","Exact","234 E MAIN ST, HEGINS, PA, 17938",623569939,"L"
383160,"234 E MILLSAP STE 200","FAYETTEVILLE","AR",72703,NA,NA,160,"234 E MILLSAP STE 200, FAYETTEVILLE, AR, 72703","No_Match",NA,NA,NA,NA
383161,"234 E SEVENTH AVE","TALLAHASSEE","FL",32303,30.457849163,-84.279835781,161,"234 E SEVENTH AVE, TALLAHASSEE, FL, 32303","Match","Exact","234 E 7TH AVE, TALLAHASSEE, FL, 32303",82850553,"L"
383162,"234 EAST 149TH STREET SUITE 8-20","BRONX","NY",10451,40.817652708,-73.9237967669999,162,"234 EAST 149TH STREET SUITE 8-20, BRONX, NY, 10451","Match","Exact","234 E 149TH ST, BRONX, NY, 10451",80309048,"R"
383163,"234 EAST 149TH STREET","BRONX","NY",10451,40.817652708,-73.9237967669999,163,"234 EAST 149TH STREET, BRONX, NY, 10451","Match","Exact","234 E 149TH ST, BRONX, NY, 10451",80309048,"R"
383164,"234 EAST 15TH AVE APT 314","ANCHORAGE","AK",99501,61.207704092,-149.880540467,164,"234 EAST 15TH AVE APT 314, ANCHORAGE, AK, 99501","Match","Exact","234 E 15TH AVE, ANCHORAGE, AK, 99501",190797698,"R"
383165,"234 EAST 15TH STREET","APOPKA","FL",32703,28.660171618,-81.506264405,165,"234 EAST 15TH STREET, APOPKA, FL, 32703","Match","Exact","234 E 15TH ST, APOPKA, FL, 32703",647545987,"R"
383166,"234 EAST 35TH STREET APT 1R","NEW YORK","NY",10016,40.7459063220001,-73.976494481,166,"234 EAST 35TH STREET APT 1R, NEW YORK, NY, 10016","Match","Exact","234 E 35TH ST, NEW YORK, NY, 10016",59654479,"R"
383167,"234 EAST 3900 SOUTH STE 2","SALT LAKE CITY","UT",84106,40.687059526,-111.884751223,167,"234 EAST 3900 SOUTH STE 2, SALT LAKE CITY, UT, 84106","Match","Non_Exact","234 E 3900 S, SALT LAKE CITY, UT, 84107",176079751,"R"
383168,"234 EAST 3RD STREET","DEER PARK","NY",11729,40.753443255,-73.323019812,168,"234 EAST 3RD STREET, DEER PARK, NY, 11729","Match","Exact","234 E 3RD ST, DEER PARK, NY, 11729",113976382,"R"
383169,"234 EAST 7TH AVENUE","TALLAHASSEE","FL",32303,30.4578490760001,-84.27985045,169,"234 EAST 7TH AVENUE, TALLAHASSEE, FL, 32303","Match","Exact","234 E 7TH AVE, TALLAHASSEE, FL, 32303",82850553,"L"
383170,"234 EAST 8TH STREET","APOPKA","FL",32703,28.66822433,-81.506346783,170,"234 EAST 8TH STREET, APOPKA, FL, 32703","Match","Exact","234 E 8TH ST, APOPKA, FL, 32703",94267582,"R"
383171,"234 EAST CAMPHOR STREET","AVON PARK","FL",33825,27.5928553470001,-81.497338208,171,"234 EAST CAMPHOR STREET, AVON PARK, FL, 33825","Match","Exact","234 E CAMPHOR ST, AVON PARK, FL, 33825",4629669,"L"
383172,"234 EAST SEVENTH AVENUE","TALLAHASSEE","FL",32303,30.4578490760001,-84.27985045,172,"234 EAST SEVENTH AVENUE, TALLAHASSEE, FL, 32303","Match","Exact","234 E 7TH AVE, TALLAHASSEE, FL, 32303",82850553,"L"
383173,"234 EASTERN PROMENADE A2","PORTLAND","ME",4101,43.669658272,-70.245723353,173,"234 EASTERN PROMENADE A2, PORTLAND, ME, 4101","Match","Exact","234 EASTERN PROMENADE, PORTLAND, ME, 04101",78028453,"L"
383174,"234 EASTERN PROMENADE APT 2","PORTLAND","ME",4101,43.669658272,-70.245723353,174,"234 EASTERN PROMENADE APT 2, PORTLAND, ME, 4101","Match","Exact","234 EASTERN PROMENADE, PORTLAND, ME, 04101",78028453,"L"
383175,"234 EASTHILL DRIVE","BATTLE CREEK","MI",49014,42.32009012,-85.104053627,175,"234 EASTHILL DRIVE, BATTLE CREEK, MI, 49014","Match","Exact","234 EASTHILL DR, BATTLE CREEK, MI, 49014",11715965,"R"
383176,"234 ECHO DR","ELIZABETHTON","TN",37643,36.3584573480001,-82.1693971999999,176,"234 ECHO DR, ELIZABETHTON, TN, 37643","Match","Exact","234 ECHO DR, ELIZABETHTON, TN, 37643",43053351,"L"
383177,"234 ECULID AVE","BYESVILLE","OH",43725,NA,NA,177,"234 ECULID AVE, BYESVILLE, OH, 43725","No_Match",NA,NA,NA,NA
383178,"234 EDGAR ROAD","SPOFFORD","NH",3462,42.919938777,-72.3975192459999,178,"234 EDGAR ROAD, SPOFFORD, NH, 3462","Match","Exact","234 EDGAR RD, SPOFFORD, NH, 03462",647604764,"L"
383179,"234 EDINBURGH STREET","VALPARAISO","IN",46385,41.436971649,-87.109755545,179,"234 EDINBURGH STREET, VALPARAISO, IN, 46385","Match","Exact","234 EDINBURGH ST, VALPARAISO, IN, 46385",119928421,"L"
383180,"234 EDITH WAY","DALEVILLE","AL",36322,31.3035698040001,-85.735368925,180,"234 EDITH WAY, DALEVILLE, AL, 36322","Match","Exact","234 EDITH WAY, DALEVILLE, AL, 36322",99607504,"L"
383181,"234 ELECTION ROAD","DRAPER","UT",84107,40.5350217280001,-111.897459732,181,"234 ELECTION ROAD, DRAPER, UT, 84107","Match","Non_Exact","234 ELECTION RD, DRAPER, UT, 84020",176131793,"L"
383182,"234 ELLSWORTH STREET SW","ALBANY","OR",97321,44.6362009580001,-123.105959812,182,"234 ELLSWORTH STREET SW, ALBANY, OR, 97321","Match","Exact","234 ELLSWORTH ST SW, ALBANY, OR, 97321",156070326,"L"
383183,"234 ELM ROAD","ALLENTOWN","PA",18104,40.58424224,-75.59631468,183,"234 ELM ROAD, ALLENTOWN, PA, 18104","Match","Exact","234 ELM RD, ALLENTOWN, PA, 18104",80756277,"L"
383184,"234 ELM STREET APT 3W","YONKERS","NY",10701,40.931664546,-73.886222689,184,"234 ELM STREET APT 3W, YONKERS, NY, 10701","Match","Exact","234 ELM ST, YONKERS, NY, 10701",139743881,"R"
383185,"234 EMPIRE LANE","GROVE HILL","AL",36451,31.6756139290001,-87.872975848,185,"234 EMPIRE LANE, GROVE HILL, AL, 36451","Match","Exact","234 EMPIRE LN, GROVE HILL, AL, 36451",34576036,"L"
383186,"234 ESCUELA AVE APT 117","MOUNTAIN VIEW","CA",94040,37.3987399330001,-122.092842172,186,"234 ESCUELA AVE APT 117, MOUNTAIN VIEW, CA, 94040","Match","Exact","234 ESCUELA AVE, MOUNTAIN VIEW, CA, 94040",618164022,"R"
383187,"234 ESCUELA AVE APT 96","MOUNTAIN VIEW","FL",94040,NA,NA,187,"234 ESCUELA AVE APT 96, MOUNTAIN VIEW, FL, 94040","No_Match",NA,NA,NA,NA
383188,"234 ESTALL ROAD","ROCHESTER","NY",14616,43.229486992,-77.639445246,188,"234 ESTALL ROAD, ROCHESTER, NY, 14616","Match","Exact","234 ESTALL RD, ROCHESTER, NY, 14616",14527520,"L"
383189,"234 EVERGREEN WAY","STOCKBRIDGE","GA",30281,33.549740091,-84.258308676,189,"234 EVERGREEN WAY, STOCKBRIDGE, GA, 30281","Match","Exact","234 EVERGREEN WAY, STOCKBRIDGE, GA, 30281",619944084,"R"
383190,"234 EVERIT STREET","NEW HAVEN","CT",6511,41.3299461670001,-72.9120525549999,190,"234 EVERIT STREET, NEW HAVEN, CT, 6511","Match","Exact","234 EVERIT ST, NEW HAVEN, CT, 06511",3700012,"L"
383191,"234 FAIRIVEW AVE","SAN ANTONIO","TX",78223,29.3821343120001,-98.474806143,191,"234 FAIRIVEW AVE, SAN ANTONIO, TX, 78223","Match","Non_Exact","234 FAIRVIEW AVE, SAN ANTONIO, TX, 78223",101533707,"R"
383192,"234 FAIRVIEW ROAD","BALL GROUND","GA",30114,34.367226202,-84.377469675,192,"234 FAIRVIEW ROAD, BALL GROUND, GA, 30114","Match","Non_Exact","234 FAIRVIEW RD, BALL GROUND, GA, 30107",68849933,"R"
383193,"234 FAIRWAY CT","PLAINWELL","MI",49080,42.439082968,-85.5489121419999,193,"234 FAIRWAY CT, PLAINWELL, MI, 49080","Match","Exact","234 FAIRWAY CT, PLAINWELL, MI, 49080",11430022,"R"
383194,"234 FENWOOD AVENUE","HAMILTON","NJ",8619,40.2340085910001,-74.6919306739999,194,"234 FENWOOD AVENUE, HAMILTON, NJ, 8619","Match","Exact","234 FENWOOD AVE, HAMILTON, NJ, 08619",60183992,"L"
383195,"234 FEUZ LANE","DUANESBURG","NY",12056,42.77867501,-74.026149967,195,"234 FEUZ LANE, DUANESBURG, NY, 12056","Match","Exact","234 FEUZ LN, DUANESBURG, NY, 12056",18033730,"R"
383196,"234 FIELD ROAD","CLINTON CORNERS","NY",12514,41.9291391290001,-73.7752630689999,196,"234 FIELD ROAD, CLINTON CORNERS, NY, 12514","Match","Exact","234 FIELD RD, CLINTON CORNERS, NY, 12514",4229707,"L"
383197,"234 FIREWHEEL CT","SUMMERVILLE","SC",29418,33.123299343,-80.127085317,197,"234 FIREWHEEL CT, SUMMERVILLE, SC, 29418","Match","Non_Exact","234 FIREWHEEL CT, SUMMERVILLE, SC, 29486",652101090,"R"
383198,"234 FIREWHEEL CT","SUMMERVILLE","SC",29486,33.123299343,-80.127085317,198,"234 FIREWHEEL CT, SUMMERVILLE, SC, 29486","Match","Exact","234 FIREWHEEL CT, SUMMERVILLE, SC, 29486",652101090,"R"
383199,"234 FISHER AVENUE","BROOKLINE","MA",2445,42.334236414,-71.14562492,199,"234 FISHER AVENUE, BROOKLINE, MA, 2445","Match","Exact","234 FISHER AVE, BROOKLINE, MA, 02445",87244628,"L"
383200,"234 FITZPATRICK ST","HILLSIDE","NJ",7205,40.693315925,-74.2336082529999,200,"234 FITZPATRICK ST, HILLSIDE, NJ, 7205","Match","Exact","234 FITZPATRICK ST, HILLSIDE, NJ, 07205",60577363,"L"
383201,"234 FLATWOOD ACRES RD","CHILHOWIE","VA",24319,36.775253907,-81.677623024,201,"234 FLATWOOD ACRES RD, CHILHOWIE, VA, 24319","Match","Exact","234 FLATWOOD ACRES RD, CHILHOWIE, VA, 24319",47189601,"R"
383202,"234 FRIENDSHIP LANE","FREDERICKSBURG","TX",78624,30.256163191,-98.8788716349999,202,"234 FRIENDSHIP LANE, FREDERICKSBURG, TX, 78624","Match","Exact","234 FRIENDSHIP LN, FREDERICKSBURG, TX, 78624",176842858,"L"
383203,"234 G C AND P ROAD","WHEELING","WV",26003,NA,NA,203,"234 G C AND P ROAD, WHEELING, WV, 26003","No_Match",NA,NA,NA,NA
383204,"234 GERALD ST","STATE COLLEGE","PA",16801,40.82837614,-77.809272655,204,"234 GERALD ST, STATE COLLEGE, PA, 16801","Match","Exact","234 GERALD ST, STATE COLLEGE, PA, 16801",50396464,"R"
383205,"234 GISELE STREET","NEW ROADS","LA",70760,30.6886436660001,-91.4503311619999,205,"234 GISELE STREET, NEW ROADS, LA, 70760","Match","Exact","234 GISELE ST, NEW ROADS, LA, 70760",190101647,"R"
383206,"234 GLENMORE AVE","BROOKLYN","NY",11207,40.6722775540001,-73.9020863109999,206,"234 GLENMORE AVE, BROOKLYN, NY, 11207","Match","Exact","234 GLENMORE AVE, BROOKLYN, NY, 11207",59084551,"R"
383207,"234 GLENWOOD ROAD","ELKINS PARK","PA",19027,40.0644280610001,-75.1189919139999,207,"234 GLENWOOD ROAD, ELKINS PARK, PA, 19027","Match","Exact","234 GLENWOOD RD, ELKINS PARK, PA, 19027",135094631,"L"
383208,"234 GORDON STREET","DUBOISTOWN","PA",17702,41.2247007810001,-77.0289235399999,208,"234 GORDON STREET, DUBOISTOWN, PA, 17702","Match","Exact","234 GORDON ST, DUBOISTOWN, PA, 17702",59476701,"R"
383209,"234 GRATTAN STREET","FALL RIVER","MA",2721,41.675945331,-71.150590915,209,"234 GRATTAN STREET, FALL RIVER, MA, 2721","Match","Exact","234 GRATTAN ST, FALL RIVER, MA, 02721",46772143,"L"
383210,"234 GREEN MEADOW DRIVE","INDIANAPOLIS","IN",46229,39.7689928460001,-85.974786845,210,"234 GREEN MEADOW DRIVE, INDIANAPOLIS, IN, 46229","Match","Exact","234 GREEN MEADOW DR, INDIANAPOLIS, IN, 46229",108061804,"R"
383211,"234 GREENGLADE AVE","WORTHINGTON","OH",43085,40.1064647960001,-83.023245773,211,"234 GREENGLADE AVE, WORTHINGTON, OH, 43085","Match","Exact","234 GREENGLADE AVE, WORTHINGTON, OH, 43085",218686857,"R"
383212,"234 GREENGLADE","WORTHINGTON","OH",43085,40.1064647960001,-83.023245773,212,"234 GREENGLADE, WORTHINGTON, OH, 43085","Match","Non_Exact","234 GREENGLADE AVE, WORTHINGTON, OH, 43085",218686857,"R"
383213,"234 GROVE FARMLANE","MARTINSBURG","WV",25404,NA,NA,213,"234 GROVE FARMLANE, MARTINSBURG, WV, 25404","No_Match",NA,NA,NA,NA
383214,"234 HALLADAY ST","JERSEY CITY","NJ",7304,40.711144683,-74.064457547,214,"234 HALLADAY ST, JERSEY CITY, NJ, 7304","Match","Exact","234 HALLADAY ST, JERSEY CITY, NJ, 07304",59604837,"R"
383215,"234 HALSEY STREET","NEWARK","NJ",7102,40.733355513,-74.175235522,215,"234 HALSEY STREET, NEWARK, NJ, 7102","Match","Exact","234 HALSEY ST, NEWARK, NJ, 07102",63467258,"L"
383216,"234 HAMILTON ROAD","BUNNLEVEL","NC",28323,35.3370156920001,-78.851205775,216,"234 HAMILTON ROAD, BUNNLEVEL, NC, 28323","Match","Exact","234 HAMILTON RD, BUNNLEVEL, NC, 28323",71960539,"R"
383217,"234 HAMILTONIAN DR","RED BANK","NJ",7701,40.381808387,-74.105359719,217,"234 HAMILTONIAN DR, RED BANK, NJ, 7701","Match","Exact","234 HAMILTONIAN DR, RED BANK, NJ, 07701",90470411,"L"
383218,"234 HARBOUR POINT DRIVE","CRAWFORDVILLE","FL",32327,30.065751785,-84.285121558,218,"234 HARBOUR POINT DRIVE, CRAWFORDVILLE, FL, 32327","Match","Exact","234 HARBOUR POINT DR, CRAWFORDVILLE, FL, 32327",645524177,"L"
383219,"234 HARPER LANE","ROCKY MOUNT","NC",27801,NA,NA,219,"234 HARPER LANE, ROCKY MOUNT, NC, 27801","No_Match",NA,NA,NA,NA
383220,"234 HICKORY LN","NEWTOWN SQUARE","PA",19073,39.982398603,-75.4165925349999,220,"234 HICKORY LN, NEWTOWN SQUARE, PA, 19073","Match","Exact","234 HICKORY LN, NEWTOWN SQUARE, PA, 19073",134867472,"R"
383221,"234 HIGH STREET","ATGLEN","PA",19310,39.9476456680001,-75.977916889,221,"234 HIGH STREET, ATGLEN, PA, 19310","Match","Exact","234 HIGH ST, ATGLEN, PA, 19310",179477282,"R"
383222,"234 HILLSIDE ROAD","NORTH ANDOVER","MA",1845,42.664373283,-71.115538272,222,"234 HILLSIDE ROAD, NORTH ANDOVER, MA, 1845","Match","Exact","234 HILLSIDE RD, NORTH ANDOVER, MA, 01845",86684386,"L"
383223,"234 HOMAN AVE","ELKHART","IN",46516,41.690468911,-85.932572931,223,"234 HOMAN AVE, ELKHART, IN, 46516","Match","Exact","234 HOMAN AVE, ELKHART, IN, 46516",7751604,"L"
383224,"234 HOMESTEAD AVENUE","HAMPTON","VA",23669,NA,NA,224,"234 HOMESTEAD AVENUE, HAMPTON, VA, 23669","No_Match",NA,NA,NA,NA
383225,"234 HOOD STREET","OLANTA","SC",29591,NA,NA,225,"234 HOOD STREET, OLANTA, SC, 29591","No_Match",NA,NA,NA,NA
383226,"234 HORSEBLOCK ROAD","FARMINGVILLE","NY",11738,40.843319996,-73.0583917129999,226,"234 HORSEBLOCK ROAD, FARMINGVILLE, NY, 11738","Match","Exact","234 HORSEBLOCK RD, FARMINGVILLE, NY, 11738",636950505,"R"
383227,"234 HORSEBROOK RD","ASHLAND","ME",4732,46.5708720150001,-68.4095209819999,227,"234 HORSEBROOK RD, ASHLAND, ME, 4732","Match","Exact","234 HORSEBROOK RD, ASHLAND, ME, 04732",624834963,"R"
383228,"234 HOSACK RD","JACKSON CENTER","PA",16133,41.2864617070001,-80.150495397,228,"234 HOSACK RD, JACKSON CENTER, PA, 16133","Match","Exact","234 HOSACK RD, JACKSON CENTER, PA, 16133",605361483,"R"
383229,"234 HUNTLEY RD","UPPER DARBY","PA",19082,39.9563465680001,-75.265225231,229,"234 HUNTLEY RD, UPPER DARBY, PA, 19082","Match","Exact","234 HUNTLEY RD, UPPER DARBY, PA, 19082",134877745,"L"
383230,"234 JACKSON ROAD","SHAVERTOWN","PA",18708,41.295617513,-76.001469818,230,"234 JACKSON ROAD, SHAVERTOWN, PA, 18708","Match","Exact","234 JACKSON RD, SHAVERTOWN, PA, 18708",604522972,"L"
383231,"234 JACQUIN LN","EDEN VALLEY","MN",55329,45.3183936820001,-94.544350019,231,"234 JACQUIN LN, EDEN VALLEY, MN, 55329","Match","Exact","234 JACQUIN LN, EDEN VALLEY, MN, 55329",36978737,"R"
383232,"234 JEFFERSON PIKE","LAVERGNE","TN",37086,36.0040590940001,-86.5474192779999,232,"234 JEFFERSON PIKE, LAVERGNE, TN, 37086","Match","Non_Exact","234 JEFFERSON PIKE, LA VERGNE, TN, 37086",59034573,"L"
383233,"234 JEFFERSON ST","OREGON","WI",53575,42.9271926540001,-89.387122249,233,"234 JEFFERSON ST, OREGON, WI, 53575","Match","Exact","234 JEFFERSON ST, OREGON, WI, 53575",49477632,"L"
383234,"234 JEFFERSON STREET","OREGON","WI",53575,42.9271926540001,-89.387122249,234,"234 JEFFERSON STREET, OREGON, WI, 53575","Match","Exact","234 JEFFERSON ST, OREGON, WI, 53575",49477632,"L"
383235,"234 JEWELL LANE","GREENFIELD","IN",46140,39.787325966,-85.8124894599999,235,"234 JEWELL LANE, GREENFIELD, IN, 46140","Match","Exact","234 JEWELL LN, GREENFIELD, IN, 46140",651786443,"R"
383236,"234 JOHNSON COURT","TULARE","CO",93274,NA,NA,236,"234 JOHNSON COURT, TULARE, CO, 93274","No_Match",NA,NA,NA,NA
383237,"234 JUNIPER STREET","SAN DIEGO","CA",92101,32.729293453,-117.162671743,237,"234 JUNIPER STREET, SAN DIEGO, CA, 92101","Match","Exact","234 JUNIPER ST, SAN DIEGO, CA, 92101",195343460,"L"
383238,"234 KINLAW ROAD","FAYETTEVILLE","NC",28311,35.1369319820001,-78.869076781,238,"234 KINLAW ROAD, FAYETTEVILLE, NC, 28311","Match","Exact","234 KINLAW RD, FAYETTEVILLE, NC, 28311",64197563,"R"
383239,"234 KIRKWOOD ROAD","MILLERSVILLE","MD",21108,NA,NA,239,"234 KIRKWOOD ROAD, MILLERSVILLE, MD, 21108","No_Match",NA,NA,NA,NA
383240,"234 KNOWLTON AVE","KENMORE","NY",14217,42.96221165,-78.860893657,240,"234 KNOWLTON AVE, KENMORE, NY, 14217","Match","Exact","234 KNOWLTON AVE, KENMORE, NY, 14217",48288196,"L"
383241,"234 KUTENAI TRAIL","MERCER","PA",16137,41.2806661230001,-80.1763407619999,241,"234 KUTENAI TRAIL, MERCER, PA, 16137","Match","Exact","234 KUTENAI TRL, MERCER, PA, 16137",70644318,"L"
383242,"234 LAKESHORE DRIVE","MARLTON","NJ",8053,39.8072035050001,-74.8985933339999,242,"234 LAKESHORE DRIVE, MARLTON, NJ, 8053","Match","Exact","234 LAKESHORE DR, MARLTON, NJ, 08053",134058677,"R"
383243,"234 LAWSON FARMS DR","MIDLOTHIAN","TX",76065,32.4522584480001,-96.994968005,243,"234 LAWSON FARMS DR, MIDLOTHIAN, TX, 76065","Match","Exact","234 LAWSON FARMS DR, MIDLOTHIAN, TX, 76065",625664486,"L"
383244,"234 LAWSON FARMS DRIVE","MIDLOTHIAN","TX",76065,32.4522584480001,-96.994968005,244,"234 LAWSON FARMS DRIVE, MIDLOTHIAN, TX, 76065","Match","Exact","234 LAWSON FARMS DR, MIDLOTHIAN, TX, 76065",625664486,"L"
383245,"234 LAZY HOLLOW DR","GAITHERSBURG","MD",20878,39.112528162,-77.2194599539999,245,"234 LAZY HOLLOW DR, GAITHERSBURG, MD, 20878","Match","Exact","234 LAZY HOLLOW DR, GAITHERSBURG, MD, 20878",62077670,"R"
383246,"234 LEICESTER","KENILWORTH","IL",60043,42.0887741550001,-87.708092961,246,"234 LEICESTER, KENILWORTH, IL, 60043","Match","Non_Exact","234 LEICESTER RD, KENILWORTH, IL, 60043",111738350,"L"
383247,"234 LEONARD OAKS COURT","SAN JOSE","CA",95136,NA,NA,247,"234 LEONARD OAKS COURT, SAN JOSE, CA, 95136","No_Match",NA,NA,NA,NA
383248,"234 LINCOLN STREET","GLOVERSVILLE","NY",12078,43.054342052,-74.359577546,248,"234 LINCOLN STREET, GLOVERSVILLE, NY, 12078","Match","Exact","234 LINCOLN ST, GLOVERSVILLE, NY, 12078",153655090,"L"
383249,"234 LINWOOD AVENUE","MONROVIA","CA",91016,34.1501303950001,-118.00400026,249,"234 LINWOOD AVENUE, MONROVIA, CA, 91016","Match","Exact","234 LINWOOD AVE, MONROVIA, CA, 91016",141646345,"L"
383250,"234 LITTLE PALM LOOP","MT. PLEASANT","SC",29464,32.817138286,-79.872531975,250,"234 LITTLE PALM LOOP, MT. PLEASANT, SC, 29464","Match","Exact","234 LITTLE PALM LOOP, MOUNT PLEASANT, SC, 29464",108906965,"R"
383251,"234 LOCUST STREET","INGLEWOOD","CA",90302,NA,NA,251,"234 LOCUST STREET, INGLEWOOD, CA, 90302","No_Match",NA,NA,NA,NA
383252,"234 LONG JOHN SILVER DRIVE","WILMINGTON","NC",28411,34.2729392530001,-77.77923807,252,"234 LONG JOHN SILVER DRIVE, WILMINGTON, NC, 28411","Match","Exact","234 LONG JOHN SILVER DR, WILMINGTON, NC, 28411",152736804,"L"
383253,"234 LONGBOW LANE","MARS","PA",16046,40.706033957,-80.047878821,253,"234 LONGBOW LANE, MARS, PA, 16046","Match","Non_Exact","234 LONG BOW LN, MARS, PA, 16046",653374137,"R"
383254,"234 LOYOLA AVENUE APT 607","NEW ORLEANS","LA",70112,29.953782093,-90.075040348,254,"234 LOYOLA AVENUE APT 607, NEW ORLEANS, LA, 70112","Match","Exact","234 LOYOLA AVE, NEW ORLEANS, LA, 70112",191741421,"L"
383255,"234 LOYOLA DRIVE","ELYRIA","OH",44035,41.418103537,-82.08176636,255,"234 LOYOLA DRIVE, ELYRIA, OH, 44035","Match","Exact","234 LOYOLA DR, ELYRIA, OH, 44035",55417886,"R"
383256,"234 LYNCH MTN ROAD","SAUTEE NACOOCHEE","GA",30571,34.6848549160001,-83.671104849,256,"234 LYNCH MTN ROAD, SAUTEE NACOOCHEE, GA, 30571","Match","Exact","234 LYNCH MOUNTAIN RD, SAUTEE NACOOCHEE, GA, 30571",89031375,"L"
383257,"234 MACKENZIE LN","STEPHENSON","VA",22656,39.1898158710001,-78.1025436959999,257,"234 MACKENZIE LN, STEPHENSON, VA, 22656","Match","Exact","234 MACKENZIE LN, STEPHENSON, VA, 22656",617909493,"R"
383258,"234 MAIN ST","IRVINE","CA",92602,NA,NA,258,"234 MAIN ST, IRVINE, CA, 92602","No_Match",NA,NA,NA,NA
383259,"234 MAIN STREET","EAST HARTFORD","CT",6118,41.7390527960001,-72.630855058,259,"234 MAIN STREET, EAST HARTFORD, CT, 6118","Match","Exact","234 MAIN ST, EAST HARTFORD, CT, 06118",3517649,"R"
383260,"234 MAIN STREET","RIDGEFIELD","NJ",7660,40.858030996,-74.0247794859999,260,"234 MAIN STREET, RIDGEFIELD, NJ, 7660","Match","Non_Exact","234 MAIN ST, RIDGEFIELD PK, NJ, 07660",64397702,"L"
383261,"234 MANAHEN STREET","BROOKLYN","NY",11237,NA,NA,261,"234 MANAHEN STREET, BROOKLYN, NY, 11237","No_Match",NA,NA,NA,NA
383262,"234 MAPLE AVENUE","METUCHEN","NJ",8840,40.547237927,-74.3606094529999,262,"234 MAPLE AVENUE, METUCHEN, NJ, 8840","Match","Exact","234 MAPLE AVE, METUCHEN, NJ, 08840",60277648,"R"
383263,"234 MARCIA WAY","BRIDGEWATER","NJ",8807,40.592904119,-74.666393409,263,"234 MARCIA WAY, BRIDGEWATER, NJ, 8807","Match","Exact","234 MARCIA WAY, BRIDGEWATER, NJ, 08807",59958174,"L"
383264,"234 MARKET ST FLOOR 4","PHILADELPHIA","PA",19106,39.9500888260001,-75.1449454519999,264,"234 MARKET ST FLOOR 4, PHILADELPHIA, PA, 19106","Match","Exact","234 MARKET ST, PHILADELPHIA, PA, 19106",131424581,"L"
383265,"234 MARY ST","NEWAYGO","MI",49337,43.4131783970001,-85.803476059,265,"234 MARY ST, NEWAYGO, MI, 49337","Match","Exact","234 MARY ST, NEWAYGO, MI, 49337",150219619,"R"
383266,"234 MCALWAY ROAD","CHARLOTTE","NC",28211,35.1824643750001,-80.801311352,266,"234 MCALWAY ROAD, CHARLOTTE, NC, 28211","Match","Exact","234 MCALWAY RD, CHARLOTTE, NC, 28211",70538015,"R"
383267,"234 MEADOW LANE","DOVER","AR",72837,35.3971112560001,-93.1099268789999,267,"234 MEADOW LANE, DOVER, AR, 72837","Match","Exact","234 MEADOW LN, DOVER, AR, 72837",81878686,"L"
383268,"234 MEMORY LANE","HARKER HEIGHTS","TX",76548,31.0682585390001,-97.681374332,268,"234 MEMORY LANE, HARKER HEIGHTS, TX, 76548","Match","Exact","234 MEMORY LN, HARKER HEIGHTS, TX, 76548",635068387,"L"
383269,"234 MERRYTURN RD","MADISON","WI",53714,43.094900334,-89.2909973119999,269,"234 MERRYTURN RD, MADISON, WI, 53714","Match","Exact","234 MERRYTURN RD, MADISON, WI, 53714",49479501,"R"
383270,"234 MEYNER LANE","NEWTONVILLE","NJ",8346,39.5644411280001,-74.8628304069999,270,"234 MEYNER LANE, NEWTONVILLE, NJ, 8346","Match","Exact","234 MEYNER LN, NEWTONVILLE, NJ, 08346",202525098,"L"
383271,"234 MILL BROOK RD","JERICHO","VT",5465,44.446416814,-72.893473124,271,"234 MILL BROOK RD, JERICHO, VT, 5465","Match","Exact","234 MILL BROOK RD, JERICHO, VT, 05465",635762195,"R"
383272,"234 MILL STREET","GRANTSVILLE","WV",26147,38.924693995,-81.095151093,272,"234 MILL STREET, GRANTSVILLE, WV, 26147","Match","Exact","234 MILL ST, GRANTSVILLE, WV, 26147",49930601,"L"
383273,"234 MILLSTONE RD","ELLERBE","NC",28338,35.070596569,-79.749816758,273,"234 MILLSTONE RD, ELLERBE, NC, 28338","Match","Exact","234 MILLSTONE RD, ELLERBE, NC, 28338",639949679,"L"
383274,"234 MISKELL ROAD","MOUNT CARMEL","IL",62863,38.43140372,-87.7750630899999,274,"234 MISKELL ROAD, MOUNT CARMEL, IL, 62863","Match","Exact","234 MISKELL RD, MOUNT CARMEL, IL, 62863",30040756,"R"
383275,"234 MISSION LANE","FALLSINGTON","PA",19054,NA,NA,275,"234 MISSION LANE, FALLSINGTON, PA, 19054","No_Match",NA,NA,NA,NA
383276,"234 MOLO ST","KAPAA","HI",96746,22.0570797440001,-159.382989657,276,"234 MOLO ST, KAPAA, HI, 96746","Match","Exact","234 MOLO ST, KAPAA, HI, 96746",203397038,"L"
383277,"234 MORGAN","ELYRIA","OH",44035,41.3864866710001,-82.1228267079999,277,"234 MORGAN, ELYRIA, OH, 44035","Match","Non_Exact","234 MORGAN AVE, ELYRIA, OH, 44035",55408747,"L"
383278,"234 MORNINGSTAR DRIVE","BIRMINGHAM","AL",35216,NA,NA,278,"234 MORNINGSTAR DRIVE, BIRMINGHAM, AL, 35216","No_Match",NA,NA,NA,NA
383279,"234 MORSE AVE","WYCKOFF","NJ",7481,41.010404356,-74.169548709,279,"234 MORSE AVE, WYCKOFF, NJ, 7481","Match","Exact","234 MORSE AVE, WYCKOFF, NJ, 07481",639669358,"R"
383280,"234 MOUNTAIN VIEW","TWIN FALLS","ID",83301,NA,NA,280,"234 MOUNTAIN VIEW, TWIN FALLS, ID, 83301","No_Match",NA,NA,NA,NA
383281,"234 MUIRFIELD DRIVE","COLUMBIA","SC",29212,34.0699891620001,-81.207636786,281,"234 MUIRFIELD DRIVE, COLUMBIA, SC, 29212","Match","Exact","234 MUIRFIELD DR, COLUMBIA, SC, 29212",70074300,"R"
383282,"234 MUSCAT CT","FREMONT","CA",94539,37.5037423270001,-121.917908728,282,"234 MUSCAT CT, FREMONT, CA, 94539","Match","Exact","234 MUSCAT CT, FREMONT, CA, 94539",125058147,"R"
383283,"234 N 37TH STREET","MILWAUKEE","WI",53208,43.033078812,-87.960174083,283,"234 N 37TH STREET, MILWAUKEE, WI, 53208","Match","Exact","234 N 37TH ST, MILWAUKEE, WI, 53208",77739968,"R"
383284,"234 N 5TH STREET PO BOX 634","PARKER CITY","IN",47368,NA,NA,284,"234 N 5TH STREET PO BOX 634, PARKER CITY, IN, 47368","Tie",NA,NA,NA,NA
383285,"234 N 810 EAST","SMITHFIELD","UT",84335,41.841800393,-111.810009115,285,"234 N 810 EAST, SMITHFIELD, UT, 84335","Match","Exact","234 N 810 E, SMITHFIELD, UT, 84335",155104565,"R"
383286,"234 N 9TH STREET APT 2C","BROOKLYN","NY",11211,40.6707086800001,-73.9894898869999,286,"234 N 9TH STREET APT 2C, BROOKLYN, NY, 11211","Match","Non_Exact","234 9TH ST, BROOKLYN, NY, 11215",59075630,"R"
383287,"234 N MAIN ST","SUFFOLK","VA",23434,36.7314489730001,-76.581970065,287,"234 N MAIN ST, SUFFOLK, VA, 23434","Match","Exact","234 N MAIN ST, SUFFOLK, VA, 23434",122227086,"R"
383288,"234 N MARCLIFFE DR","VALPARAISO","IN",46385,NA,NA,288,"234 N MARCLIFFE DR, VALPARAISO, IN, 46385","Tie",NA,NA,NA,NA
383289,"234 N MARION DR","GOLDSBORO","NC",27534,35.383970226,-77.916152054,289,"234 N MARION DR, GOLDSBORO, NC, 27534","Match","Exact","234 N MARION DR, GOLDSBORO, NC, 27534",14420541,"R"
383290,"234 N MAYFIELD","CHICAGO","IL",60644,41.8847175650001,-87.771947132,290,"234 N MAYFIELD, CHICAGO, IL, 60644","Match","Non_Exact","234 N MAYFIELD AVE, CHICAGO, IL, 60644",111753973,"L"
383291,"234 N PARKDALE","WICHITA","KS",67212,37.685462998,-97.4691322309999,291,"234 N PARKDALE, WICHITA, KS, 67212","Match","Non_Exact","234 N PARKDALE ST, WICHITA, KS, 67212",115672455,"L"
383292,"234 N PINE ST","DORRIS","CA",96023,41.969176953,-121.91696404,292,"234 N PINE ST, DORRIS, CA, 96023","Match","Exact","234 N PINE ST, DORRIS, CA, 96023",653169022,"L"
383293,"234 N RAILROAD AVE","FRACKVILLE","PA",17931,40.788852643,-76.230893908,293,"234 N RAILROAD AVE, FRACKVILLE, PA, 17931","Match","Exact","234 N RAILROAD AVE, FRACKVILLE, PA, 17931",70935833,"L"
383294,"234 N STATE ST","DELPHOS","OH",45833,40.8444696350001,-84.349295575,294,"234 N STATE ST, DELPHOS, OH, 45833","Match","Exact","234 N STATE ST, DELPHOS, OH, 45833",209308719,"R"
383295,"234 N WILKE ROAD","PALATINE","IL",60074,42.114708718,-88.004569121,295,"234 N WILKE ROAD, PALATINE, IL, 60074","Match","Exact","234 N WILKE RD, PALATINE, IL, 60074",639791914,"L"
383296,"234 N12TH ST APT 3","BROOKLYN","NY",11211,NA,NA,296,"234 N12TH ST APT 3, BROOKLYN, NY, 11211","No_Match",NA,NA,NA,NA
383297,"234 NASSAU STREET","PRINCETON","NJ",8542,40.3518664870001,-74.652482951,297,"234 NASSAU STREET, PRINCETON, NJ, 8542","Match","Exact","234 NASSAU ST, PRINCETON, NJ, 08542",60170867,"L"
383298,"234 NE 3RD ST APT LPH7","MIAMI","FL",33132,25.777152308,-80.189539612,298,"234 NE 3RD ST APT LPH7, MIAMI, FL, 33132","Match","Non_Exact","234 NE 3RD ST, MIAMI, FL, 33132",650067796,"R"
383299,"234 NE 3RD STREET APT 2002","MIAMI","FL",33127,NA,NA,299,"234 NE 3RD STREET APT 2002, MIAMI, FL, 33127","No_Match",NA,NA,NA,NA
383300,"234 NE 6TH ST","BOCA RATON","FL",33432,26.3568144270001,-80.083040376,300,"234 NE 6TH ST, BOCA RATON, FL, 33432","Match","Exact","234 NE 6TH ST, BOCA RATON, FL, 33432",115303218,"R"
383301,"234 NEFF STREET","SAN ANTONIO","TX",78207,29.443347654,-98.537240243,301,"234 NEFF STREET, SAN ANTONIO, TX, 78207","Match","Non_Exact","234 NEFF, SAN ANTONIO, TX, 78207",101512931,"R"
383302,"234 NOICE DRIVE","SALINAS","WA",93906,NA,NA,302,"234 NOICE DRIVE, SALINAS, WA, 93906","No_Match",NA,NA,NA,NA
383303,"234 NORTH HARWINTON AVENUE","TERRYVILLE","CT",6786,41.700896943,-73.036736231,303,"234 NORTH HARWINTON AVENUE, TERRYVILLE, CT, 6786","Match","Exact","234 N HARWINTON AVE, TERRYVILLE, CT, 06786",611475725,"R"
383304,"234 NORTH MAIN STREET","RUTHERFORDTON","NC",28139,35.3698836390001,-81.9566237069999,304,"234 NORTH MAIN STREET, RUTHERFORDTON, NC, 28139","Match","Exact","234 N MAIN ST, RUTHERFORDTON, NC, 28139",19386682,"R"
383305,"234 NORTH ROSEVERE AVENUE","DEARBORN","MI",48128,42.3134807860001,-83.268125304,305,"234 NORTH ROSEVERE AVENUE, DEARBORN, MI, 48128","Match","Non_Exact","234 N ROSEVERE ST, DEARBORN, MI, 48128",652800469,"R"
383306,"234 NORTH UNION ROAD","COOPER","ME",4657,45.0227171490001,-67.4470911189999,306,"234 NORTH UNION ROAD, COOPER, ME, 4657","Match","Exact","234 N UNION RD, COOPER, ME, 04657",124225036,"L"
383307,"234 NW 3RD STREET","MENAHGA","MN",56464,46.756510561,-95.103648666,307,"234 NW 3RD STREET, MENAHGA, MN, 56464","Match","Non_Exact","234 3RD ST NW, MENAHGA, MN, 56464",168428720,"L"
383308,"234 NW 9TH AVENUE","DANIA BEACH","FL",33004,26.056451182,-80.149255721,308,"234 NW 9TH AVENUE, DANIA BEACH, FL, 33004","Match","Exact","234 NW 9TH AVE, DANIA BEACH, FL, 33004",114729774,"R"
383309,"234 NW PLEASANT GROVE WAY","PORT ST LUCIE","FL",34986,27.3353264740001,-80.3780673649999,309,"234 NW PLEASANT GROVE WAY, PORT ST LUCIE, FL, 34986","Match","Exact","234 NW PLEASANT GROVE WAY, PORT ST LUCIE, FL, 34986",647725729,"R"
383310,"234 OAK HILL RD","WEARE","NH",3281,43.0255137230001,-71.710078642,310,"234 OAK HILL RD, WEARE, NH, 3281","Match","Exact","234 OAK HILL RD, WEARE, NH, 03281",113565597,"L"
383311,"234 OAK RD","AVOCA","IA",51521,41.530116374,-95.2885271709999,311,"234 OAK RD, AVOCA, IA, 51521","Match","Exact","234 OAK RD, AVOCA, IA, 51521",61800965,"L"
383312,"234 OAKWOOD","MANDEVILLE","LA",70448,30.3714894610001,-90.0740328379999,312,"234 OAKWOOD, MANDEVILLE, LA, 70448","Match","Non_Exact","234 OAKWOOD DR, MANDEVILLE, LA, 70448",111238191,"L"
383313,"234 OKEECHOBEE W","SANTA ROSA BEACH","FL",32459,30.350661643,-86.2157677769999,313,"234 OKEECHOBEE W, SANTA ROSA BEACH, FL, 32459","Match","Exact","234 OKEECHOBEE W, SANTA ROSA BEACH, FL, 32459",624859006,"L"
383314,"234 OLD CAHOONZIE RD","SPARROWBUSH","NY",12780,41.4288047490001,-74.716560925,314,"234 OLD CAHOONZIE RD, SPARROWBUSH, NY, 12780","Match","Exact","234 OLD CAHOONZIE RD, SPARROWBUSH, NY, 12780",644941570,"R"
383315,"234 OLD SPRING LANE","HOUSTON","TX",77015,29.7974523880001,-95.1997325839999,315,"234 OLD SPRING LANE, HOUSTON, TX, 77015","Match","Exact","234 OLD SPRING LN, HOUSTON, TX, 77015",96096690,"L"
383316,"234 ONEAL DR","OCRACOKE","NC",27960,35.1157837280001,-75.9699045139999,316,"234 ONEAL DR, OCRACOKE, NC, 27960","Match","Exact","234 ONEAL DR, OCRACOKE, NC, 27960",625160925,"R"
383317,"234 ONTARIO RD","MILPITAS","CA",95035,37.441316197,-121.906983473,317,"234 ONTARIO RD, MILPITAS, CA, 95035","Match","Exact","234 ONTARIO RD, MILPITAS, CA, 95035",122960193,"R"
383318,"234 OSCEOLA STREET","AUBURNDALE","FL",33823,28.0910479250001,-81.7974985449999,318,"234 OSCEOLA STREET, AUBURNDALE, FL, 33823","Match","Exact","234 OSCEOLA ST, AUBURNDALE, FL, 33823",618496279,"R"
383319,"234 OVERLOOK RD","MORGANTOWN","PA",19543,40.216052093,-75.879774111,319,"234 OVERLOOK RD, MORGANTOWN, PA, 19543","Match","Exact","234 OVERLOOK RD, MORGANTOWN, PA, 19543",653372910,"L"
383320,"234 PALMER DRIVE","LEXINGTON","SC",29072,33.9949245990001,-81.206929614,320,"234 PALMER DRIVE, LEXINGTON, SC, 29072","Match","Exact","234 PALMER DR, LEXINGTON, SC, 29072",70081699,"R"
383321,"234 PALOMINO TRAIL","ROUND MOUNTAIN","TX",78663,30.4551532030001,-98.34889113,321,"234 PALOMINO TRAIL, ROUND MOUNTAIN, TX, 78663","Match","Non_Exact","234 PALOMINO, ROUND MOUNTAIN, TX, 78663",72159011,"R"
383322,"234 PARK STREET","BENNINGTON","VT",5201,42.8831834160001,-73.193075901,322,"234 PARK STREET, BENNINGTON, VT, 5201","Match","Exact","234 PARK ST, BENNINGTON, VT, 05201",139202331,"L"
383323,"234 PENN PVT DRIVE","MANSFIELD","LA",71052,NA,NA,323,"234 PENN PVT DRIVE, MANSFIELD, LA, 71052","No_Match",NA,NA,NA,NA
383324,"234 PENN STREET","VERONA","PA",15147,40.4982533520001,-79.846499631,324,"234 PENN STREET, VERONA, PA, 15147","Match","Exact","234 PENN ST, VERONA, PA, 15147",51666435,"L"
383325,"234 PERCY DRIVE","OPELOUSAS","LA",70570,30.565878282,-92.0837042859999,325,"234 PERCY DRIVE, OPELOUSAS, LA, 70570","Match","Exact","234 PERCY DR, OPELOUSAS, LA, 70570",106453402,"R"
383326,"234 PINE STREET","PHILADELPHIA","PA",19035,39.943212773,-75.146239866,326,"234 PINE STREET, PHILADELPHIA, PA, 19035","Match","Non_Exact","234 PINE ST, PHILADELPHIA, PA, 19106",652295050,"L"
383327,"234 PINETREE CIRCLE","DECATUR","GA",30032,33.7745285280001,-84.254733092,327,"234 PINETREE CIRCLE, DECATUR, GA, 30032","Match","Exact","234 PINETREE CIR, DECATUR, GA, 30032",23369635,"L"
383328,"234 PITTSBURG AVE","ERIE","PA",16505,NA,NA,328,"234 PITTSBURG AVE, ERIE, PA, 16505","No_Match",NA,NA,NA,NA
383329,"234 PLEASANT STREET","ARLINGTON","MA",2476,42.4072280410001,-71.161666205,329,"234 PLEASANT STREET, ARLINGTON, MA, 2476","Match","Exact","234 PLEASANT ST, ARLINGTON, MA, 02476",87111852,"L"
383330,"234 PLEASANT VALLEY ROAD","EAST EARL","PA",17519,40.184277594,-76.025259552,330,"234 PLEASANT VALLEY ROAD, EAST EARL, PA, 17519","Match","Exact","234 PLEASANT VALLEY RD, EAST EARL, PA, 17519",179679651,"L"
383331,"234 RACE ST","BAINBRIDGE","PA",17502,40.091497417,-76.6664794289999,331,"234 RACE ST, BAINBRIDGE, PA, 17502","Match","Exact","234 RACE ST, BAINBRIDGE, PA, 17502",179679260,"L"
383332,"234 RAILROAD ST A3","ABINGTON","MA",2351,42.1320818130001,-70.942655578,332,"234 RAILROAD ST A3, ABINGTON, MA, 2351","Match","Exact","234 RAILROAD ST, ABINGTON, MA, 02351",636135238,"L"
383333,"234 RAINBOW CIRCLE","SWEETWATER","AL",36782,32.0899401770001,-87.939982938,333,"234 RAINBOW CIRCLE, SWEETWATER, AL, 36782","Match","Non_Exact","234 RAINBOW CIR, SWEET WATER, AL, 36782",653330992,"R"
383334,"234 RANDOLPH DR APT 315D","MADISON","WI",53717,43.061851204,-89.512639878,334,"234 RANDOLPH DR APT 315D, MADISON, WI, 53717","Match","Exact","234 RANDOLPH DR, MADISON, WI, 53717",49529455,"R"
383335,"234 RATHBUN ST","WOONSOCKET","RI",2895,42.0120605490001,-71.5031826599999,335,"234 RATHBUN ST, WOONSOCKET, RI, 2895","Match","Exact","234 RATHBUN ST, WOONSOCKET, RI, 02895",47477356,"L"
383336,"234 RED OAK RD","CARTWRIGHT","OK",74731,NA,NA,336,"234 RED OAK RD, CARTWRIGHT, OK, 74731","Tie",NA,NA,NA,NA
383337,"234 RED TAIL DRIVE","DOVER","DE",19904,39.1444164000001,-75.5873905139999,337,"234 RED TAIL DRIVE, DOVER, DE, 19904","Match","Exact","234 RED TAIL DR, DOVER, DE, 19904",633239111,"R"
383338,"234 REGISTER RD","CALHOUN","LA",71225,32.5549158540001,-92.27063902,338,"234 REGISTER RD, CALHOUN, LA, 71225","Match","Exact","234 REGISTER RD, CALHOUN, LA, 71225",612361765,"L"
383339,"234 RICHELIEU ROAD","WILMINGTON","NC",28412,34.1411316030001,-77.9033823789999,339,"234 RICHELIEU ROAD, WILMINGTON, NC, 28412","Match","Exact","234 RICHELIEU RD, WILMINGTON, NC, 28412",152736012,"R"
383340,"234 RIDGE CREST DR","MACON","GA",31210,32.9636559100001,-83.740713904,340,"234 RIDGE CREST DR, MACON, GA, 31210","Match","Exact","234 RIDGE CREST DR, MACON, GA, 31210",66673064,"L"
383341,"234 RIDGECREST DR","KLAMATH FALLS","OR",97601,NA,NA,341,"234 RIDGECREST DR, KLAMATH FALLS, OR, 97601","No_Match",NA,NA,NA,NA
383342,"234 RIVER MEADOW DR","LAGRANGE","GA",30241,33.050404417,-84.993463025,342,"234 RIVER MEADOW DR, LAGRANGE, GA, 30241","Match","Exact","234 RIVER MEADOW DR, LAGRANGE, GA, 30241",650830331,"L"
383343,"234 RIVER RD","EDGECOMB","ME",4556,43.95211901,-69.596188409,343,"234 RIVER RD, EDGECOMB, ME, 4556","Match","Exact","234 RIVER RD, EDGECOMB, ME, 04556",608672677,"L"
383344,"234 RIVER ROAD","RED BANK","NJ",7701,40.354995451,-74.055811073,344,"234 RIVER ROAD, RED BANK, NJ, 7701","Match","Exact","234 RIVER RD, RED BANK, NJ, 07701",90452395,"R"
383345,"234 RIVERSIDE AVE","LYNDHURST","NJ",7071,40.8188145300001,-74.130732027,345,"234 RIVERSIDE AVE, LYNDHURST, NJ, 7071","Match","Exact","234 RIVERSIDE AVE, LYNDHURST, NJ, 07071",64399080,"L"
383346,"234 RIVERTRACE DRIVE","MARION","AR",72364,35.2136284850001,-90.18867424,346,"234 RIVERTRACE DRIVE, MARION, AR, 72364","Match","Exact","234 RIVERTRACE DR, MARION, AR, 72364",69377785,"R"
383347,"234 ROYALTON RD","MOORESVILLE","NC",28115,35.5352922430001,-80.788390362,347,"234 ROYALTON RD, MOORESVILLE, NC, 28115","Match","Exact","234 ROYALTON RD, MOORESVILLE, NC, 28115",46020992,"R"
383348,"234 RR 1050","CONCAN","TX",78838,NA,NA,348,"234 RR 1050, CONCAN, TX, 78838","No_Match",NA,NA,NA,NA
383349,"234 RUE BEAUREGARD STE 200","LAFAYETTE","LA",70508,NA,NA,349,"234 RUE BEAUREGARD STE 200, LAFAYETTE, LA, 70508","No_Match",NA,NA,NA,NA
383350,"234 RUE BEAUREGARD","LAFAYETTE","LA",70508,30.191340725,-92.010597576,350,"234 RUE BEAUREGARD, LAFAYETTE, LA, 70508","Match","Exact","234 RUE BEAUREGARD, LAFAYETTE, LA, 70508",85618823,"R"
383351,"234 S 4TH ST","LAKE MARY","FL",32746,NA,NA,351,"234 S 4TH ST, LAKE MARY, FL, 32746","Tie",NA,NA,NA,NA
383352,"234 S 8TH","IONE","WA",99139,48.7383589990001,-117.427169983,352,"234 S 8TH, IONE, WA, 99139","Match","Non_Exact","234 8TH AVE, IONE, WA, 99139",647697286,"L"
383353,"234 S CALIFORNIA","DILLON","MT",59725,45.2126533300001,-112.633856053,353,"234 S CALIFORNIA, DILLON, MT, 59725","Match","Non_Exact","234 S CALIFORNIA ST, DILLON, MT, 59725",153005987,"R"
383354,"234 S CENTER AVENUE","VIROQUA","WI",54665,43.5548582210001,-90.8880706739999,354,"234 S CENTER AVENUE, VIROQUA, WI, 54665","Match","Exact","234 S CENTER AVE, VIROQUA, WI, 54665",48628409,"L"
383355,"234 S FAULKNER WAY","DAVIDSON","NC",28036,35.4952602220001,-80.8315632589999,355,"234 S FAULKNER WAY, DAVIDSON, NC, 28036","Match","Exact","234 S FAULKNER WAY, DAVIDSON, NC, 28036",70604731,"R"
383356,"234 S FIGUEROA ST 231","LOS ANGELES","CA",90012,34.056008164,-118.253624377,356,"234 S FIGUEROA ST 231, LOS ANGELES, CA, 90012","Match","Non_Exact","234 S FIGUEROA ST, LOS ANGELES, CA, 90012",141617229,"L"
383357,"234 S LAMPLIGHTER LN","SUMMERVILLE","SC",29486,33.050017075,-80.1029492219999,357,"234 S LAMPLIGHTER LN, SUMMERVILLE, SC, 29486","Match","Exact","234 S LAMPLIGHTER LN, SUMMERVILLE, SC, 29486",625293591,"L"
383358,"234 S MAIN APT 51","LUMBERTON","TX",77657,NA,NA,358,"234 S MAIN APT 51, LUMBERTON, TX, 77657","No_Match",NA,NA,NA,NA
383359,"234 S MASONIC","BELLVILLE","TX",77418,29.9487373360001,-96.259658797,359,"234 S MASONIC, BELLVILLE, TX, 77418","Match","Non_Exact","234 S MASONIC ST, BELLVILLE, TX, 77418",41819295,"L"
383360,"234 S PERKINS ROAD","MEMPHIS","TN",38117,35.1248038420001,-89.906501466,360,"234 S PERKINS ROAD, MEMPHIS, TN, 38117","Match","Exact","234 S PERKINS RD, MEMPHIS, TN, 38117",72925023,"L"
383361,"234 S PLEASANT ST","WHITEWATER","WI",53190,42.8311842460001,-88.756334892,361,"234 S PLEASANT ST, WHITEWATER, WI, 53190","Match","Exact","234 S PLEASANT ST, WHITEWATER, WI, 53190",53663156,"L"
383362,"234 S RIFE","DILLON","MT",59725,45.217029778,-112.641167212,362,"234 S RIFE, DILLON, MT, 59725","Match","Non_Exact","234 S RIFE ST, DILLON, MT, 59725",153005864,"R"
383363,"234 S RIVERVIEW DR","POPLAR BLUFF","MO",63901,36.754466817,-90.390399558,363,"234 S RIVERVIEW DR, POPLAR BLUFF, MO, 63901","Match","Exact","234 S RIVERVIEW DR, POPLAR BLUFF, MO, 63901",47387520,"L"
383364,"234 S ROOSEVELT STREET","MOSCOW","ID",83843,46.7328410650001,-116.981931795,364,"234 S ROOSEVELT STREET, MOSCOW, ID, 83843","Match","Exact","234 S ROOSEVELT ST, MOSCOW, ID, 83843",193859700,"R"
383365,"234 S SPRING","PAXTON","IL",60957,40.457377627,-88.085266878,365,"234 S SPRING, PAXTON, IL, 60957","Match","Non_Exact","234 S SPRING ST, PAXTON, IL, 60957",22344868,"L"
383366,"234 S SUMMERLIN AVE","ORLANDO","FL",32801,28.5396895440001,-81.368421062,366,"234 S SUMMERLIN AVE, ORLANDO, FL, 32801","Match","Exact","234 S SUMMERLIN AVE, ORLANDO, FL, 32801",94282846,"R"
383367,"234 S THOMAS BRANCH ROAD","MANCHESTER","KY",40962,37.0371526930001,-83.6658339969999,367,"234 S THOMAS BRANCH ROAD, MANCHESTER, KY, 40962","Match","Exact","234 S THOMAS BRANCH RD, MANCHESTER, KY, 40962",90837675,"L"
383368,"234 S WILLOW SPRINGS ROAD","ORANGE","CA",92869,33.785219371,-117.77079173,368,"234 S WILLOW SPRINGS ROAD, ORANGE, CA, 92869","Match","Exact","234 S WILLOW SPRINGS RD, ORANGE, CA, 92869",144124463,"R"
383369,"234 S YORKTOWN ROAD","ANDOVER","KS",67002,37.68425218,-97.1259149209999,369,"234 S YORKTOWN ROAD, ANDOVER, KS, 67002","Match","Exact","234 S YORKTOWN RD, ANDOVER, KS, 67002",32263815,"R"
383370,"234 SAINTVRY PATH","ATLANTA","GA",30349,33.650072175,-84.6250228499999,370,"234 SAINTVRY PATH, ATLANTA, GA, 30349","Match","Exact","234 SAINTVRY PATH, ATLANTA, GA, 30349",625655396,"L"
383371,"234 SALT POND RD","BLUE HILL","MD",4614,NA,NA,371,"234 SALT POND RD, BLUE HILL, MD, 4614","No_Match",NA,NA,NA,NA
383372,"234 SANDERS STREET","BLOUNTVILLE","TN",37617,36.48591214,-82.4129256639999,372,"234 SANDERS STREET, BLOUNTVILLE, TN, 37617","Match","Exact","234 SANDERS ST, BLOUNTVILLE, TN, 37617",127863338,"L"
383373,"234 SANDS STREET","BROOKLYN","NY",11201,40.699723491,-73.981329619,373,"234 SANDS STREET, BROOKLYN, NY, 11201","Match","Exact","234 SANDS ST, BROOKLYN, NY, 11201",59077418,"R"
383374,"234 SANTILLANE AVE APT 1 CORAL GABL","CORAL GABLES","FL",33134,25.762048077,-80.2596971569999,374,"234 SANTILLANE AVE APT 1 CORAL GABL, CORAL GABLES, FL, 33134","Match","Exact","234 SANTILLANE AVE, CORAL GABLES, FL, 33134",116010697,"L"
383375,"234 SARAH LANE","ALEXANDRIA","LA",71303,NA,NA,375,"234 SARAH LANE, ALEXANDRIA, LA, 71303","No_Match",NA,NA,NA,NA
383376,"234 SARANAC AVENUE","BUFFALO","NY",14216,42.9521742700001,-78.857352831,376,"234 SARANAC AVENUE, BUFFALO, NY, 14216","Match","Exact","234 SARANAC AVE, BUFFALO, NY, 14216",48359492,"L"
383377,"234 SARATOGA NW","CANTON","OH",44708,40.8011834910001,-81.442802925,377,"234 SARATOGA NW, CANTON, OH, 44708","Match","Non_Exact","234 SARATOGA AVE NW, CANTON, OH, 44708",64674980,"R"
383378,"234 SCENIC RIDGE COURT","COLGATE","WI",53017,43.196341369,-88.229114801,378,"234 SCENIC RIDGE COURT, COLGATE, WI, 53017","Match","Exact","234 SCENIC RIDGE CT, COLGATE, WI, 53017",79575065,"R"
383379,"234 SCOTT DR","ENGLEWOOD","OH",45322,39.879886291,-84.3184246279999,379,"234 SCOTT DR, ENGLEWOOD, OH, 45322","Match","Exact","234 SCOTT DR, ENGLEWOOD, OH, 45322",143561114,"R"
383380,"234 SHADY OAK LANE","WAYNESBORO","GA",30830,33.068012057,-82.029303269,380,"234 SHADY OAK LANE, WAYNESBORO, GA, 30830","Match","Exact","234 SHADY OAK LN, WAYNESBORO, GA, 30830",648189186,"L"
383381,"234 SHETLAND ROAD","DRIPPING SPRINGS","TX",78620,30.1747592200001,-98.0792317139999,381,"234 SHETLAND ROAD, DRIPPING SPRINGS, TX, 78620","Match","Exact","234 SHETLAND RD, DRIPPING SPRINGS, TX, 78620",63844081,"L"
383382,"234 SICKLERVILLE RD","SICKLERVILLE","NJ",8081,39.712308552,-74.961828618,382,"234 SICKLERVILLE RD, SICKLERVILLE, NJ, 8081","Match","Exact","234 SICKLERVILLE RD, SICKLERVILLE, NJ, 08081",134363124,"L"
383383,"234 SKILLMAN AVE APT 4D","BROOKLYN","NY",11211,40.716214074,-73.941658681,383,"234 SKILLMAN AVE APT 4D, BROOKLYN, NY, 11211","Match","Exact","234 SKILLMAN AVE, BROOKLYN, NY, 11211",59077216,"R"
383384,"234 SMITHFIELD STREET","DILLONVALE","OH",43917,40.1998893360001,-80.7730507969999,384,"234 SMITHFIELD STREET, DILLONVALE, OH, 43917","Match","Exact","234 SMITHFIELD ST, DILLONVALE, OH, 43917",37804265,"L"
383385,"234 SMITHSTONE PATH","FAYETTEVILLE","GA",30214,NA,NA,385,"234 SMITHSTONE PATH, FAYETTEVILLE, GA, 30214","No_Match",NA,NA,NA,NA
383386,"234 SOUTH BRYN MAWR AVE STE 101","BRYN MAWR","PA",19010,40.016289198,-75.3299919849999,386,"234 SOUTH BRYN MAWR AVE STE 101, BRYN MAWR, PA, 19010","Match","Exact","234 S BRYN MAWR AVE, BRYN MAWR, PA, 19010",134894672,"R"
383387,"234 SOUTH FIGUEROA SUITE 1941","LOS ANGELES","CA",90012,34.056016829,-118.253616201,387,"234 SOUTH FIGUEROA SUITE 1941, LOS ANGELES, CA, 90012","Match","Non_Exact","234 S FIGUEROA ST, LOS ANGELES, CA, 90012",141617229,"L"
383388,"234 SOUTH LAWN","NEWCOMERSTOWN","OH",43832,40.267781304,-81.6033711589999,388,"234 SOUTH LAWN, NEWCOMERSTOWN, OH, 43832","Match","Non_Exact","234 S LAWN DR, NEWCOMERSTOWN, OH, 43832",44230325,"L"
383389,"234 SOUTH LEHIGH AVE","SAYRE","PA",18840,41.9798482040001,-76.51443785,389,"234 SOUTH LEHIGH AVE, SAYRE, PA, 18840","Match","Exact","234 S LEHIGH AVE, SAYRE, PA, 18840",176956836,"L"
383390,"234 SOUTH ST","DALTON","MA",1226,42.4667204020001,-73.181880725,390,"234 SOUTH ST, DALTON, MA, 1226","Match","Exact","234 SOUTH ST, DALTON, MA, 01226",3922967,"L"
383391,"234 SOUTHWEST GOLDENROD GLEN","FORT WHITE","FL",32038,29.984409914,-82.664720989,391,"234 SOUTHWEST GOLDENROD GLEN, FORT WHITE, FL, 32038","Match","Exact","234 SW GOLDENROD GLEN, FORT WHITE, FL, 32038",649264503,"L"
383392,"234 SPARROW DRIVE","HAMILTON","NJ",8690,40.2218255700001,-74.664357544,392,"234 SPARROW DRIVE, HAMILTON, NJ, 8690","Match","Exact","234 SPARROW DR, HAMILTON, NJ, 08690",617866008,"R"
383393,"234 SPRINGFIELD AVE","RUTHERFORD","NJ",7070,40.833607343,-74.1173150989999,393,"234 SPRINGFIELD AVE, RUTHERFORD, NJ, 7070","Match","Exact","234 SPRINGFIELD AVE, RUTHERFORD, NJ, 07070",64394232,"R"
383394,"234 SPRINGMONT DRIVE","WYOMISSING","PA",19610,40.347223221,-76.003294083,394,"234 SPRINGMONT DRIVE, WYOMISSING, PA, 19610","Match","Exact","234 SPRINGMONT DR, WYOMISSING, PA, 19610",646767713,"R"
383395,"234 SPRY ISLAND RD","JOPPA","MD",21085,39.437515476,-76.372075068,395,"234 SPRY ISLAND RD, JOPPA, MD, 21085","Match","Exact","234 SPRY ISLAND RD, JOPPA, MD, 21085",191686378,"L"
383396,"234 ST JOSEPH DRIVE","STEUBENVILLE","OH",43952,40.4326031030001,-80.67066942,396,"234 ST JOSEPH DRIVE, STEUBENVILLE, OH, 43952","Match","Exact","234 SAINT JOSEPH DR, STEUBENVILLE, OH, 43952",37814131,"R"
383397,"234 STACY WEAVER DR","FAYETTEVILLE","NC",28311,35.130902791,-78.882013088,397,"234 STACY WEAVER DR, FAYETTEVILLE, NC, 28311","Match","Exact","234 STACY WEAVER DR, FAYETTEVILLE, NC, 28311",64197397,"R"
383398,"234 STATE ROUTE 32S","NEW PALTZ","NY",12561,NA,NA,398,"234 STATE ROUTE 32S, NEW PALTZ, NY, 12561","No_Match",NA,NA,NA,NA
383399,"234 STATE STREET","PORTLAND","ME",4101,43.654511395,-70.267310451,399,"234 STATE STREET, PORTLAND, ME, 4101","Match","Exact","234 STATE ST, PORTLAND, ME, 04101",78028046,"L"
383400,"234 STEPHEN CT","CHASKA","MN",55318,NA,NA,400,"234 STEPHEN CT, CHASKA, MN, 55318","No_Match",NA,NA,NA,NA
383401,"234 STONECREST DRIVE","BIRMINGHAM","AL",35242,33.4072931580001,-86.659898944,401,"234 STONECREST DRIVE, BIRMINGHAM, AL, 35242","Match","Exact","234 STONECREST DR, BIRMINGHAM, AL, 35242",82104924,"L"
383402,"234 STONEHEDGE LN","GUILFORD","CT",6437,41.3158552530001,-72.640136265,402,"234 STONEHEDGE LN, GUILFORD, CT, 6437","Match","Exact","234 STONEHEDGE LN, GUILFORD, CT, 06437",3746618,"L"
383403,"234 STRINGER RD","DIBOLL","TX",75941,31.242753721,-94.757045459,403,"234 STRINGER RD, DIBOLL, TX, 75941","Match","Exact","234 STRINGER RD, DIBOLL, TX, 75941",23871831,"R"
383404,"234 SYCAMORE LANE","SPRING CITY","TN",37381,35.6727920010001,-84.8552218359999,404,"234 SYCAMORE LANE, SPRING CITY, TN, 37381","Match","Exact","234 SYCAMORE LN, SPRING CITY, TN, 37381",59527788,"R"
383405,"234 TABITHA PAGE LANE","TOCCOA","GA",30577,34.4965761440001,-83.335177922,405,"234 TABITHA PAGE LANE, TOCCOA, GA, 30577","Match","Exact","234 TABITHA PAGE LN, TOCCOA, GA, 30577",636304138,"L"
383406,"234 TAHO CIRCLE","VALRICO","FL",33594,27.9344898150001,-82.224547631,406,"234 TAHO CIRCLE, VALRICO, FL, 33594","Match","Exact","234 TAHO CIR, VALRICO, FL, 33594",104598920,"L"
383407,"234 TEAL WAY","ELKO","NV",89801,40.84268438,-115.789807949,407,"234 TEAL WAY, ELKO, NV, 89801","Match","Exact","234 TEAL WAY, ELKO, NV, 89801",154621811,"L"
383408,"234 TEBONNET ROAD","VILLE PLATTE","LA",70586,30.635440053,-92.2317796839999,408,"234 TEBONNET ROAD, VILLE PLATTE, LA, 70586","Match","Non_Exact","234 TE BONNET RD, VILLE PLATTE, LA, 70586",13200692,"R"
383409,"234 TERRARIDGE DRIVE","LITTLETON","CO",80126,NA,NA,409,"234 TERRARIDGE DRIVE, LITTLETON, CO, 80126","No_Match",NA,NA,NA,NA
383410,"234 TREMONT DRIVE","WALLINS CREEK","KY",40873,36.8420138170001,-83.399302204,410,"234 TREMONT DRIVE, WALLINS CREEK, KY, 40873","Match","Exact","234 TREMONT DR, WALLINS CREEK, KY, 40873",87898244,"L"
383411,"234 TROY STREET LOT 2","RICHFORD","VT",5476,44.988247615,-72.667990201,411,"234 TROY STREET LOT 2, RICHFORD, VT, 5476","Match","Exact","234 TROY ST, RICHFORD, VT, 05476",136528702,"L"
383412,"234 TULAM LANE","BOULDER","CO",80301,NA,NA,412,"234 TULAM LANE, BOULDER, CO, 80301","No_Match",NA,NA,NA,NA
383413,"234 TYGART BEND ROAD","SOUTH SHORE","KY",41175,NA,NA,413,"234 TYGART BEND ROAD, SOUTH SHORE, KY, 41175","No_Match",NA,NA,NA,NA
383414,"234 U S HWY 60 W","REPUBLIC","MO",65738,NA,NA,414,"234 U S HWY 60 W, REPUBLIC, MO, 65738","No_Match",NA,NA,NA,NA
383415,"234 UCB","BOULDER","CO",80309,NA,NA,415,"234 UCB, BOULDER, CO, 80309","No_Match",NA,NA,NA,NA
383416,"234 UNION AVENUE","HARRISON","NY",10528,40.9803912130001,-73.7366079129999,416,"234 UNION AVENUE, HARRISON, NY, 10528","Match","Exact","234 UNION AVE, HARRISON, NY, 10528",139843357,"L"
383417,"234 UNION SQUARE","HICKORY","NC",28601,35.731983804,-81.34064204,417,"234 UNION SQUARE, HICKORY, NC, 28601","Match","Non_Exact","234 UNION SQ NW, HICKORY, NC, 28601",45906143,"R"
383418,"234 UNION STREET","RIDGEWOOD","NJ",7450,40.9760715100001,-74.11607384,418,"234 UNION STREET, RIDGEWOOD, NJ, 7450","Match","Exact","234 UNION ST, RIDGEWOOD, NJ, 07450",64429438,"R"
383419,"234 UNITY DRIVE NW","MARIETTA","GA",30064,33.9573739150001,-84.613012145,419,"234 UNITY DRIVE NW, MARIETTA, GA, 30064","Match","Non_Exact","234 UNITY DR, MARIETTA, GA, 30064",17218137,"L"
383420,"234 VAUGHAN RD","MCEWEN","TN",37101,35.995694918,-87.6626411559999,420,"234 VAUGHAN RD, MCEWEN, TN, 37101","Match","Non_Exact","234 VAUGHN LN, MC EWEN, TN, 37101",19871692,"R"
383421,"234 VILLAGE WALK","COLUMBIA","SC",29209,33.9770862870001,-80.939826378,421,"234 VILLAGE WALK, COLUMBIA, SC, 29209","Match","Exact","234 VILLAGE WALK, COLUMBIA, SC, 29209",71835055,"L"
383422,"234 W 147TH ST","HARVEY","IL",60426,41.622656148,-87.670003459,422,"234 W 147TH ST, HARVEY, IL, 60426","Match","Exact","234 W 147TH ST, HARVEY, IL, 60426",111705275,"L"
383423,"234 W 18TH ST","HOLLAND","MI",49423,NA,NA,423,"234 W 18TH ST, HOLLAND, MI, 49423","Tie",NA,NA,NA,NA
383424,"234 W 20TH ST","LONG BEACH","CA",90806,33.7934793260001,-118.194128544,424,"234 W 20TH ST, LONG BEACH, CA, 90806","Match","Exact","234 W 20TH ST, LONG BEACH, CA, 90806",141686839,"L"
383425,"234 W 27TH","NORFOLK","VA",23517,36.872323291,-76.285330148,425,"234 W 27TH, NORFOLK, VA, 23517","Match","Non_Exact","234 W 27TH ST, NORFOLK, VA, 23517",122123395,"R"
383426,"234 W BARAGA AVE","MARQUETTE","MI",49855,46.541342758,-87.3976583199999,426,"234 W BARAGA AVE, MARQUETTE, MI, 49855","Match","Exact","234 W BARAGA AVE, MARQUETTE, MI, 49855",638732503,"R"
383427,"234 W CALLE PATIO LINDO","TUCSON","AZ",85629,31.996619244,-110.973883563,427,"234 W CALLE PATIO LINDO, TUCSON, AZ, 85629","Match","Non_Exact","234 W CLL PATIO LINDO, SAHUARITA, AZ, 85629",627519136,"R"
383428,"234 W CLEVELAND AVE","ELKHART","IN",46516,41.6717412530001,-85.9694344339999,428,"234 W CLEVELAND AVE, ELKHART, IN, 46516","Match","Exact","234 W CLEVELAND AVE, ELKHART, IN, 46516",604674214,"R"
383429,"234 W CORINTH RD","CORINTH","ME",4427,44.9746427690001,-69.022314783,429,"234 W CORINTH RD, CORINTH, ME, 4427","Match","Exact","234 W CORINTH RD, CORINTH, ME, 04427",123641033,"R"
383430,"234 W FATHER KEIS DR","EGG HARBOR CITY","NJ",8215,NA,NA,430,"234 W FATHER KEIS DR, EGG HARBOR CITY, NJ, 8215","No_Match",NA,NA,NA,NA
383431,"234 W GROVE ST D15","POMONA","CA",91767,NA,NA,431,"234 W GROVE ST D15, POMONA, CA, 91767","Tie",NA,NA,NA,NA
383432,"234 W MARY ST","GALESBURG","IL",61401,40.9577497160001,-90.374692055,432,"234 W MARY ST, GALESBURG, IL, 61401","Match","Exact","234 W MARY ST, GALESBURG, IL, 61401",9039543,"L"
383433,"234 W MILL ST","COLORADO SPRINGS","CO",80903,38.8200701230001,-104.83074571,433,"234 W MILL ST, COLORADO SPRINGS, CO, 80903","Match","Exact","234 W MILL ST, COLORADO SPRINGS, CO, 80903",105514743,"R"
383434,"234 W NESQUEHONING ST","EASTON","PA",18042,40.681419964,-75.211319519,434,"234 W NESQUEHONING ST, EASTON, PA, 18042","Match","Exact","234 W NESQUEHONING ST, EASTON, PA, 18042",136884168,"L"
383435,"234 W SHRADER STREET STE A","LIBERTY","MO",64068,NA,NA,435,"234 W SHRADER STREET STE A, LIBERTY, MO, 64068","Tie",NA,NA,NA,NA
383436,"234 WALNUT ST","WESTVILLE","IL",61883,40.0399890250001,-87.635097378,436,"234 WALNUT ST, WESTVILLE, IL, 61883","Match","Non_Exact","234 S WALNUT ST, WESTVILLE, IL, 61883",612006093,"R"
383437,"234 WASHINGTON","NEW RICHMOND","OH",45157,38.9490233770001,-84.280017281,437,"234 WASHINGTON, NEW RICHMOND, OH, 45157","Match","Non_Exact","234 WASHINGTON ST, NEW RICHMOND, OH, 45157",118466940,"L"
383438,"234 WATERS EDGE","KINGSLAND","GA",31548,30.7816740820001,-81.652690771,438,"234 WATERS EDGE, KINGSLAND, GA, 31548","Match","Non_Exact","234 WATERS EDGE DR, KINGSLAND, GA, 31548",627320616,"L"
383439,"234 WELLS ST","CROWN POINT","IN",46307,41.407523322,-87.3618965639999,439,"234 WELLS ST, CROWN POINT, IN, 46307","Match","Exact","234 WELLS ST, CROWN POINT, IN, 46307",98432913,"R"
383440,"234 WELLSMONT COURT","ST CHARLES","MO",63304,38.7220556870001,-90.601077416,440,"234 WELLSMONT COURT, ST CHARLES, MO, 63304","Match","Exact","234 WELLSMONT CT, SAINT CHARLES, MO, 63304",100060706,"R"
383441,"234 WENONAH AVENUE","MANTUA","NJ",8051,39.7906508780001,-75.168346421,441,"234 WENONAH AVENUE, MANTUA, NJ, 8051","Match","Exact","234 WENONAH AVE, MANTUA, NJ, 08051",134582691,"R"
383442,"234 WESMOND DRIVE","AELXANDRIA","VA",22305,38.8348546550001,-77.054220301,442,"234 WESMOND DRIVE, AELXANDRIA, VA, 22305","Match","Non_Exact","234 WESMOND DR, ALEXANDRIA, VA, 22305",76021416,"L"
383443,"234 WEST 114TH STREET","NEW YORK","NY",10026,40.802357364,-73.9545353679999,443,"234 WEST 114TH STREET, NEW YORK, NY, 10026","Match","Exact","234 W 114TH ST, NEW YORK, NY, 10026",59657667,"L"
383444,"234 WEST 148TH STREET APT 4A","NEW YORK","NY",10039,40.8240054840001,-73.938729155,444,"234 WEST 148TH STREET APT 4A, NEW YORK, NY, 10039","Match","Exact","234 W 148TH ST, NEW YORK, NY, 10039",59656307,"L"
383445,"234 WEST 8TH ST","LOVELL","WY",82431,44.8315785360001,-108.398053006,445,"234 WEST 8TH ST, LOVELL, WY, 82431","Match","Exact","234 W 8TH ST, LOVELL, WY, 82431",640075133,"L"
383446,"234 WEST ADAMS BLVD STE 520","LOS ANGELES","CA",90007,34.026056779,-118.271362964,446,"234 WEST ADAMS BLVD STE 520, LOS ANGELES, CA, 90007","Match","Exact","234 W ADAMS BLVD, LOS ANGELES, CA, 90007",141619046,"L"
383447,"234 WEST CORINTH ROAD","CORINTH","ME",4427,44.9746427690001,-69.022314783,447,"234 WEST CORINTH ROAD, CORINTH, ME, 4427","Match","Exact","234 W CORINTH RD, CORINTH, ME, 04427",123641033,"R"
383448,"234 WEST DELAWARE AVENUE","PENNINGTON","NJ",8534,40.327179664,-74.79960213,448,"234 WEST DELAWARE AVENUE, PENNINGTON, NJ, 8534","Match","Exact","234 W DELAWARE AVE, PENNINGTON, NJ, 08534",60175955,"L"
383449,"234 WEST18TH AVE SUITE 3462","COLUMBUS","OH",43210,NA,NA,449,"234 WEST18TH AVE SUITE 3462, COLUMBUS, OH, 43210","No_Match",NA,NA,NA,NA
383450,"234 WESTCOTT ST","HOUSTON","TX",77007,29.7639413320001,-95.421614818,450,"234 WESTCOTT ST, HOUSTON, TX, 77007","Match","Exact","234 WESTCOTT ST, HOUSTON, TX, 77007",96060549,"R"
383451,"234 WHITE OAK STREET","JACKSON","MS",39213,32.3933105,-90.14983781,451,"234 WHITE OAK STREET, JACKSON, MS, 39213","Match","Non_Exact","234 WHITE OAK CT, JACKSON, MS, 39213",65360560,"L"
383452,"234 WHITELAND AVE","DOWNINGTOWN","PA",19335,40.0083017380001,-75.692960238,452,"234 WHITELAND AVE, DOWNINGTOWN, PA, 19335","Match","Exact","234 WHITELAND AVE, DOWNINGTOWN, PA, 19335",179546924,"R"
383453,"234 WILDERNESS TRAIL","MESQUITE","TX",75149,32.7821323320001,-96.598340233,453,"234 WILDERNESS TRAIL, MESQUITE, TX, 75149","Match","Exact","234 WILDERNESS TRL, MESQUITE, TX, 75149",102933938,"R"
383454,"234 WILLOW ST","PORT ST JOE","FL",32456,29.8939034370001,-85.3563978179999,454,"234 WILLOW ST, PORT ST JOE, FL, 32456","Match","Exact","234 WILLOW ST, PORT SAINT JOE, FL, 32456",7146409,"L"
383455,"234 WILSON ST","MANCHESTER","NH",3103,42.9792551080001,-71.448189422,455,"234 WILSON ST, MANCHESTER, NH, 3103","Match","Exact","234 WILSON ST, MANCHESTER, NH, 03103",113532817,"L"
383456,"234 WINDER","DETROIT","MI",48201,42.3419101100001,-83.0505641,456,"234 WINDER, DETROIT, MI, 48201","Match","Non_Exact","234 WINDER ST, DETROIT, MI, 48201",95478007,"R"
383457,"234 WISCONSIN AVENUE","RACINE","WI",53403,42.731236068,-87.784833331,457,"234 WISCONSIN AVENUE, RACINE, WI, 53403","Match","Exact","234 WISCONSIN AVE, RACINE, WI, 53403",77910428,"R"
383458,"234-16 130 AVENUE","ROSEDALE","NY",11422,40.6801055930001,-73.73294937,458,"234-16 130 AVENUE, ROSEDALE, NY, 11422","Match","Exact","234-16 130TH AVE, ROSEDALE, NY, 11422",59721047,"R"
383459,"234-27 135TH AVE","ROSEDALE","NY",11422,40.6728543450001,-73.736836524,459,"234-27 135TH AVE, ROSEDALE, NY, 11422","Match","Exact","234-27 135TH AVE, ROSEDALE, NY, 11422",59721555,"L"
383460,"234","MESQUITE","TX",75149,NA,NA,460,"234, MESQUITE, TX, 75149","No_Match",NA,NA,NA,NA
383461,"2340 130TH LANE NW","COON RAPIDS","MN",55448,45.207621008,-93.32565428,461,"2340 130TH LANE NW, COON RAPIDS, MN, 55448","Match","Exact","2340 130TH LN NW, COON RAPIDS, MN, 55448",97500634,"R"
383462,"2340 225TH STREET","MILFORD","IA",51351,43.320624002,-95.1238090799999,462,"2340 225TH STREET, MILFORD, IA, 51351","Match","Exact","2340 225TH ST, MILFORD, IA, 51351",9807044,"L"
383463,"2340 42ND ST","SACRAMENTO","CA",95817,38.553837328,-121.457537187,463,"2340 42ND ST, SACRAMENTO, CA, 95817","Match","Exact","2340 42ND ST, SACRAMENTO, CA, 95817",133325600,"R"
383464,"2340 ALEXANDER TER","HOMEWOOD","IL",60430,41.5539496550001,-87.673977333,464,"2340 ALEXANDER TER, HOMEWOOD, IL, 60430","Match","Exact","2340 ALEXANDER TER, HOMEWOOD, IL, 60430",111709491,"R"
383465,"2340 AMELIA ISLAND DR","CHULA VISTA","CA",91915,32.6419205870001,-116.961240747,465,"2340 AMELIA ISLAND DR, CHULA VISTA, CA, 91915","Match","Exact","2340 AMELIA ISLAND DR, CHULA VISTA, CA, 91915",195656178,"R"
383466,"2340 AMPHIBIOUS DR","VIRGINIA BEACH","VA",23464,NA,NA,466,"2340 AMPHIBIOUS DR, VIRGINIA BEACH, VA, 23464","No_Match",NA,NA,NA,NA
383467,"2340 ANNAPOLIS COURT","ATLANTA","GA",30345,33.8384873000001,-84.2930027419999,467,"2340 ANNAPOLIS COURT, ATLANTA, GA, 30345","Match","Non_Exact","2340 ANNAPOLIS CT NE, ATLANTA, GA, 30345",23360141,"L"
383468,"2340 ARMOUR DRIVE","DUNEDIN","FL",34698,28.0442297000001,-82.766801604,468,"2340 ARMOUR DRIVE, DUNEDIN, FL, 34698","Match","Exact","2340 ARMOUR DR, DUNEDIN, FL, 34698",124664978,"L"
383469,"2340 ASHTON DRIVE","ROSWELL","GA",30076,34.075186338,-84.358369877,469,"2340 ASHTON DRIVE, ROSWELL, GA, 30076","Match","Exact","2340 ASHTON DR, ROSWELL, GA, 30076",17373530,"L"
383470,"2340 AUBURN AVENUE","CINCINNATI","OH",45219,39.1246998030001,-84.508395879,470,"2340 AUBURN AVENUE, CINCINNATI, OH, 45219","Match","Exact","2340 AUBURN AVE, CINCINNATI, OH, 45219",103925190,"R"
383471,"2340 BENJI BLVD","CONYERS","GA",30013,33.60631815,-83.986500592,471,"2340 BENJI BLVD, CONYERS, GA, 30013","Match","Non_Exact","2340 BENJI BLVD SE, CONYERS, GA, 30013",23743054,"R"
383472,"2340 BIRCH RD","YORK","PA",17404,39.975940042,-76.805259394,472,"2340 BIRCH RD, YORK, PA, 17404","Match","Non_Exact","2340 BIRCH RD, YORK, PA, 17408",88727308,"R"
383473,"2340 BIRCHVIEW DR","FLORISSANT","MO",63033,38.785507189,-90.283486209,473,"2340 BIRCHVIEW DR, FLORISSANT, MO, 63033","Match","Exact","2340 BIRCHVIEW DR, FLORISSANT, MO, 63033",100145354,"R"
383474,"2340 BITAR AVE","JBLM","WA",98433,47.0889445450001,-122.611011365,474,"2340 BITAR AVE, JBLM, WA, 98433","Match","Non_Exact","2340 BITAR AVE, JOINT BASE LEWIS MCCHORD, WA, 98433",184721070,"R"
383475,"2340 BREEZY PINES LANE","VIRGINIA BEACH","VA",23456,36.7704320460001,-76.024596096,475,"2340 BREEZY PINES LANE, VIRGINIA BEACH, VA, 23456","Match","Exact","2340 BREEZY PINES LN, VA BCH, VA, 23456",122283478,"L"
383476,"2340 CAMPUS BOX","ELON","NC",27244,NA,NA,476,"2340 CAMPUS BOX, ELON, NC, 27244","No_Match",NA,NA,NA,NA
383477,"2340 CANAL AVE","BAKER CITY","OR",97814,44.760381109,-117.835282888,477,"2340 CANAL AVE, BAKER CITY, OR, 97814","Match","Exact","2340 CANAL AVE, BAKER CITY, OR, 97814",137639544,"R"
383478,"2340 CAROL VIEW DRIVE E-111","CARDIFF-BY-THE-SEA","CA",92007,33.0206451,-117.273799765,478,"2340 CAROL VIEW DRIVE E-111, CARDIFF-BY-THE-SEA, CA, 92007","Match","Non_Exact","2340 CAROL VIEW DR, CARDIFF BY THE SEA, CA, 92007",635767964,"R"
383479,"2340 CEDARWOOD LANE","MONTGOMERY","AL",36116,32.3302982180001,-86.199224102,479,"2340 CEDARWOOD LANE, MONTGOMERY, AL, 36116","Match","Exact","2340 CEDARWOOD LN, MONTGOMERY, AL, 36116",1546309,"R"
383480,"2340 CHESTERFIELD AVENUE","MINT HILL","NC",28227,NA,NA,480,"2340 CHESTERFIELD AVENUE, MINT HILL, NC, 28227","No_Match",NA,NA,NA,NA
383481,"2340 CLARK VALLEY ROAD","LOS OSOS","CA",93402,35.2909951950001,-120.804831022,481,"2340 CLARK VALLEY ROAD, LOS OSOS, CA, 93402","Match","Exact","2340 CLARK VALLEY RD, LOS OSOS, CA, 93402",109853017,"R"
383482,"2340 CO RD 16","MOUNTAIN HOME","AR",72653,36.468153402,-92.447247831,482,"2340 CO RD 16, MOUNTAIN HOME, AR, 72653","Match","Exact","2340 CO RD 16, MOUNTAIN HOME, AR, 72653",610889037,"L"
383483,"2340 CORONADO AVE","YOUNGSTOWN","OH",44504,41.132090738,-80.654434376,483,"2340 CORONADO AVE, YOUNGSTOWN, OH, 44504","Match","Exact","2340 CORONADO AVE, YOUNGSTOWN, OH, 44504",64593926,"L"
383484,"2340 DALEWOOD LN","BEDFORD","TX",76022,32.8261277180001,-97.128580089,484,"2340 DALEWOOD LN, BEDFORD, TX, 76022","Match","Exact","2340 DALEWOOD LN, BEDFORD, TX, 76022",101871300,"R"
383485,"2340 DAUPHINE STREET","NEW ORLEANS","LA",70117,29.965691721,-90.054808016,485,"2340 DAUPHINE STREET, NEW ORLEANS, LA, 70117","Match","Exact","2340 DAUPHINE ST, NEW ORLEANS, LA, 70117",191716652,"R"
383486,"2340 DEAN ST","SYCAMORE","IL",60178,42.0196177550001,-88.675550689,486,"2340 DEAN ST, SYCAMORE, IL, 60178","Match","Exact","2340 DEAN ST, SYCAMORE, IL, 60178",52284419,"R"
383487,"2340 DECLARATION DRIVE","RALEIGH","NC",27615,35.880869665,-78.595915595,487,"2340 DECLARATION DRIVE, RALEIGH, NC, 27615","Match","Exact","2340 DECLARATION DR, RALEIGH, NC, 27615",72563305,"R"
383488,"2340 DES PLAINES RIVER RD SUITE 414","DES PLAINES","IL",60018,NA,NA,488,"2340 DES PLAINES RIVER RD SUITE 414, DES PLAINES, IL, 60018","No_Match",NA,NA,NA,NA
383489,"2340 E 32ND ST APT 128","MINNEAPOLIS","MN",55406,44.944766336,-93.237827026,489,"2340 E 32ND ST APT 128, MINNEAPOLIS, MN, 55406","Match","Non_Exact","2340 E 32ND ST, MINNEAPOLIS, MN, 55406",652845550,"L"
383490,"2340 E 32ND ST APT 132","MINNEAPOLIS","MN",55406,44.944766336,-93.237827026,490,"2340 E 32ND ST APT 132, MINNEAPOLIS, MN, 55406","Match","Non_Exact","2340 E 32ND ST, MINNEAPOLIS, MN, 55406",652845550,"L"
383491,"2340 E 350 S","PRINCETON","IN",47670,NA,NA,491,"2340 E 350 S, PRINCETON, IN, 47670","No_Match",NA,NA,NA,NA
383492,"2340 E 5TH ST","SILVER SPRINGS","NV",89429,39.346305989,-119.205875944,492,"2340 E 5TH ST, SILVER SPRINGS, NV, 89429","Match","Exact","2340 E 5TH ST, SILVER SPRINGS, NV, 89429",140339454,"R"
383493,"2340 E 99TH ST","INDINAPOLIS","IN",46280,39.934212062,-86.1215194499999,493,"2340 E 99TH ST, INDINAPOLIS, IN, 46280","Match","Non_Exact","2340 E 99TH ST, INDIANAPOLIS, IN, 46280",29310305,"L"
383494,"2340 E CROSBY RD","MOORESVILLE","IN",46158,NA,NA,494,"2340 E CROSBY RD, MOORESVILLE, IN, 46158","Tie",NA,NA,NA,NA
383495,"2340 E MAGNOLIA AVE","KNOXVILLE","TN",37917,35.982380607,-83.899454028,495,"2340 E MAGNOLIA AVE, KNOXVILLE, TN, 37917","Match","Exact","2340 E MAGNOLIA AVE, KNOXVILLE, TN, 37917",42622554,"R"
383496,"2340 E MARROWSTONE RD","NORDLAND","WA",98358,48.050053517,-122.685766586,496,"2340 E MARROWSTONE RD, NORDLAND, WA, 98358","Match","Exact","2340 E MARROWSTONE RD, NORDLAND, WA, 98358",152008679,"R"
383497,"2340 E TRINITY MILLS RD SUITE 300","CARROLLTON","TX",75006,32.9851363980001,-96.874754147,497,"2340 E TRINITY MILLS RD SUITE 300, CARROLLTON, TX, 75006","Match","Exact","2340 TRINITY MILLS RD, CARROLLTON, TX, 75006",102884382,"R"
383498,"2340 E TRINITY MILLS ROAD STE 300","CARROLLTON","TX",75006,32.9851363980001,-96.874754147,498,"2340 E TRINITY MILLS ROAD STE 300, CARROLLTON, TX, 75006","Match","Exact","2340 TRINITY MILLS RD, CARROLLTON, TX, 75006",102884382,"R"
383499,"2340 EAST 32ND STREET","55407","MN",55407,NA,NA,499,"2340 EAST 32ND STREET, 55407, MN, 55407","No_Match",NA,NA,NA,NA
383500,"2340 EAST 7645 SOUTH","COTTONWOOD HEIGHTS","UT",84121,40.6122534420001,-111.823752638,500,"2340 EAST 7645 SOUTH, COTTONWOOD HEIGHTS, UT, 84121","Match","Non_Exact","2340 E 7645 SOUTH ST, COTTONWOOD HEIGHTS, UT, 84121",176088738,"R"
