"ID","Address","City","State","Zip","lat","long","id","input_address","match_indicator","match_type","matched_address","tiger_line_id","tiger_side"
215001,"156 MAPLE CIR","CLIMAX","MI",49034,42.2409995040001,-85.327087685,1,"156 MAPLE CIR, CLIMAX, MI, 49034","Match","Exact","156 MAPLE CIR, CLIMAX, MI, 49034",12234416,"L"
215002,"156 MARY STREET","SULLIVAN","MO",63080,38.2189194050001,-91.152617875,2,"156 MARY STREET, SULLIVAN, MO, 63080","Match","Exact","156 MARY ST, SULLIVAN, MO, 63080",99714419,"R"
215003,"156 MASSAPOAG AVE","SHARON","MA",2067,42.100750867,-71.170794359,3,"156 MASSAPOAG AVE, SHARON, MA, 2067","Match","Exact","156 MASSAPOAG AVE, SHARON, MA, 02067",642609596,"L"
215004,"156 MATHER ST","HAMDEN","CT",6517,41.352608488,-72.917813252,4,"156 MATHER ST, HAMDEN, CT, 6517","Match","Exact","156 MATHER ST, HAMDEN, CT, 06517",3699495,"L"
215005,"156 MAY APPLE TRAIL","LEWISBURG","WV",24901,37.8197750960001,-80.428449907,5,"156 MAY APPLE TRAIL, LEWISBURG, WV, 24901","Match","Exact","156 MAY APPLE TRL, LEWISBURG, WV, 24901",74729360,"L"
215006,"156 MAYBERRY CIRCLE","JUPITER","FL",33458,NA,NA,6,"156 MAYBERRY CIRCLE, JUPITER, FL, 33458","No_Match",NA,NA,NA,NA
215007,"156 MAYS DR","SABINA","OH",45169,39.4853006480001,-83.632803033,7,"156 MAYS DR, SABINA, OH, 45169","Match","Exact","156 MAYS DR, SABINA, OH, 45169",146841197,"R"
215008,"156 METTATUXET ROAD","NARRAGANSETT","RI",2882,41.475179844,-71.446230934,8,"156 METTATUXET ROAD, NARRAGANSETT, RI, 2882","Match","Exact","156 METTATUXET RD, NARRAGANSETT, RI, 02882",58905982,"R"
215009,"156 MIDDLELINE RD","BALLSTION SPA","NY",12020,42.9621498170001,-73.878010449,9,"156 MIDDLELINE RD, BALLSTION SPA, NY, 12020","Match","Non_Exact","156 MIDDLELINE RD, BALLSTON SPA, NY, 12020",641136073,"R"
215010,"156 MITCHELL BROOK ROAD","NORWICH","VT",5055,43.7599939990001,-72.380158342,10,"156 MITCHELL BROOK ROAD, NORWICH, VT, 5055","Match","Exact","156 MITCHELL BROOK RD, NORWICH, VT, 05055",139262887,"L"
215011,"156 MONROE RD","WINTERPORT","ME",4496,44.673841141,-68.9215867899999,11,"156 MONROE RD, WINTERPORT, ME, 4496","Match","Exact","156 MONROE RD, WINTERPORT, ME, 04496",75636501,"R"
215012,"156 MONROE ST","KALAMAZOO","MI",49006,42.2909899900001,-85.604283293,12,"156 MONROE ST, KALAMAZOO, MI, 49006","Match","Exact","156 MONROE ST, KALAMAZOO, MI, 49006",12228707,"R"
215013,"156 MOORE STREET","MANCHESTER","NH",3102,42.9958889380001,-71.489540279,13,"156 MOORE STREET, MANCHESTER, NH, 3102","Match","Exact","156 MOORE ST, MANCHESTER, NH, 03102",113529445,"L"
215014,"156 MORGANS STEEP RD","SEWANEE","TN",37375,35.203939178,-85.930497598,14,"156 MORGANS STEEP RD, SEWANEE, TN, 37375","Match","Non_Exact","156 MORGAN'S STEEP RD, SEWANEE, TN, 37375",57978036,"L"
215015,"156 MOROSS","MOUNT CLEMENS","MI",48043,42.59152376,-82.8890059239999,15,"156 MOROSS, MOUNT CLEMENS, MI, 48043","Match","Non_Exact","156 MOROSS ST, MOUNT CLEMENS, MI, 48043",110682542,"R"
215016,"156 MOTOR STREET","CLINTONVILLE","WI",54929,44.6297020690001,-88.7563385889999,16,"156 MOTOR STREET, CLINTONVILLE, WI, 54929","Match","Exact","156 MOTOR ST, CLINTONVILLE, WI, 54929",74959046,"R"
215017,"156 MOUNTAIN AVENUE","BIRMINGHAM","AL",35213,33.506495048,-86.757579466,17,"156 MOUNTAIN AVENUE, BIRMINGHAM, AL, 35213","Match","Exact","156 MOUNTAIN AVE, BIRMINGHAM, AL, 35213",647630844,"L"
215018,"156 MOUNTAIN LANE","RUSTBURG","VA",24588,37.279598858,-79.0972118349999,18,"156 MOUNTAIN LANE, RUSTBURG, VA, 24588","Match","Exact","156 MOUNTAIN LN, RUSTBURG, VA, 24588",224235625,"L"
215019,"156 MOURY AVE UNIT 3005","ATLANTA","GA",30315,NA,NA,19,"156 MOURY AVE UNIT 3005, ATLANTA, GA, 30315","Tie",NA,NA,NA,NA
215020,"156 MUD RIVER ROAD","RUSSELLVILLE","KY",42276,36.8357730390001,-86.806654415,20,"156 MUD RIVER ROAD, RUSSELLVILLE, KY, 42276","Match","Exact","156 MUD RIVER RD, RUSSELLVILLE, KY, 42276",15832711,"R"
215021,"156 N ARCADIA DRIVE","BOGART","GA",30622,33.97215312,-83.523779385,21,"156 N ARCADIA DRIVE, BOGART, GA, 30622","Match","Exact","156 N ARCADIA DR, BOGART, GA, 30622",4808905,"R"
215022,"156 N FREMONT ST","WHITEWATER","WI",53190,42.8363065300001,-88.7334808269999,22,"156 N FREMONT ST, WHITEWATER, WI, 53190","Match","Exact","156 N FREMONT ST, WHITEWATER, WI, 53190",53663382,"L"
215023,"156 N HAWES RD","MESA","AZ",85207,33.418213773,-111.650078692,23,"156 N HAWES RD, MESA, AZ, 85207","Match","Exact","156 N HAWES RD, MESA, AZ, 85207",128824949,"R"
215024,"156 N HIGHLAND AVE","AKRON","OH",44303,41.100411207,-81.543475899,24,"156 N HIGHLAND AVE, AKRON, OH, 44303","Match","Exact","156 N HIGHLAND AVE, AKRON, OH, 44303",61339629,"L"
215025,"156 N MONROE","LA GRANGE","TX",78945,29.907798262,-96.873772415,25,"156 N MONROE, LA GRANGE, TX, 78945","Match","Non_Exact","156 N MONROE ST, LA GRANGE, TX, 78945",41997769,"R"
215026,"156 N OAKLAND AVE","GREEN BAY","WI",54303,44.5190725840001,-88.0259604679999,26,"156 N OAKLAND AVE, GREEN BAY, WI, 54303","Match","Exact","156 N OAKLAND AVE, GREEN BAY, WI, 54303",148100232,"R"
215027,"156 N SPRUCE STREET","BARTLESVILLE","OK",74006,36.758029734,-95.92229786,27,"156 N SPRUCE STREET, BARTLESVILLE, OK, 74006","Match","Non_Exact","156 N SPRUCE AVE, BARTLESVILLE, OK, 74006",18703916,"R"
215028,"156 NELSON ST","WEST SPRINGFIELD","MA",1089,42.103196558,-72.6462932589999,28,"156 NELSON ST, WEST SPRINGFIELD, MA, 1089","Match","Exact","156 NELSON ST, W SPRINGFIELD, MA, 01089",4032387,"R"
215029,"156 NEWTOWN ROAD STE A1","VIRGINIA BEACH","VA",23462,36.8427063890001,-76.1860827039999,29,"156 NEWTOWN ROAD STE A1, VIRGINIA BEACH, VA, 23462","Match","Exact","156 NEWTOWN RD, VA BCH, VA, 23462",638940544,"R"
215030,"156 NICHOLAS ROAD","RAYNHAM","MA",2767,41.927344584,-71.0324591739999,30,"156 NICHOLAS ROAD, RAYNHAM, MA, 2767","Match","Exact","156 NICHOLAS RD, RAYNHAM, MA, 02767",46760219,"R"
215031,"156 NORRIS RD","CHOUDRANT","LA",71227,32.5703839500001,-92.4669319,31,"156 NORRIS RD, CHOUDRANT, LA, 71227","Match","Exact","156 NORRIS RD, CHOUDRANT, LA, 71227",635300460,"L"
215032,"156 NORTH CLEVELAND AVENUE","WICHITA","KS",67214,37.687163329,-97.321875383,32,"156 NORTH CLEVELAND AVENUE, WICHITA, KS, 67214","Match","Exact","156 N CLEVELAND AVE, WICHITA, KS, 67214",115636781,"R"
215033,"156 NORTH COTTAGE HILL ROAD","ORLANDO","FL",32805,28.543184964,-81.415941115,33,"156 NORTH COTTAGE HILL ROAD, ORLANDO, FL, 32805","Match","Exact","156 N COTTAGE HILL RD, ORLANDO, FL, 32805",94273782,"L"
215034,"156 NORTH ESSEX AVE","ORANGE","NJ",7050,40.7747031280001,-74.229469971,34,"156 NORTH ESSEX AVE, ORANGE, NJ, 7050","Match","Exact","156 N ESSEX AVE, ORANGE, NJ, 07050",63450055,"R"
215035,"156 NORTH MAIN STREET","SPRING VALLEY","NY",10977,41.119001747,-74.043595367,35,"156 NORTH MAIN STREET, SPRING VALLEY, NY, 10977","Match","Exact","156 N MAIN ST, SPRING VALLEY, NY, 10977",124593632,"R"
215036,"156 NORTH PRIMROSE AVENUE","MONROVIA","CA",91016,34.1531130550001,-118.003244163,36,"156 NORTH PRIMROSE AVENUE, MONROVIA, CA, 91016","Match","Exact","156 N PRIMROSE AVE, MONROVIA, CA, 91016",141646026,"R"
215037,"156 NORTHAMPTON AVE","SPRINGFIELD","MA",1118,NA,NA,37,"156 NORTHAMPTON AVE, SPRINGFIELD, MA, 1118","No_Match",NA,NA,NA,NA
215038,"156 OAK STREET","ROSSFORD","OH",43460,41.611943373,-83.554421228,38,"156 OAK STREET, ROSSFORD, OH, 43460","Match","Exact","156 OAK ST, ROSSFORD, OH, 43460",38729685,"R"
215039,"156 OAK STREET","WEST HEMPSTEAD","NY",11552,40.7036349970001,-73.6447978469999,39,"156 OAK STREET, WEST HEMPSTEAD, NY, 11552","Match","Exact","156 OAK ST, W HEMPSTEAD, NY, 11552",147675805,"R"
215040,"156 OAKDALE ROAD","MADISON","MS",39110,32.5285463710001,-90.1985279149999,40,"156 OAKDALE ROAD, MADISON, MS, 39110","Match","Exact","156 OAKDALE RD, MADISON, MS, 39110",152475439,"L"
215041,"156 OAKLAWN ST","DAYTON","OH",45410,39.7527474840001,-84.1489561389999,41,"156 OAKLAWN ST, DAYTON, OH, 45410","Match","Non_Exact","156 OAKLAWN AVE, DAYTON, OH, 45410",143575215,"L"
215042,"156 OAKMONT DR","LAPLACE","LA",70068,30.0875783430001,-90.5012377909999,42,"156 OAKMONT DR, LAPLACE, LA, 70068","Match","Non_Exact","156 OAKMONT DR, LA PLACE, LA, 70068",93699734,"L"
215043,"156 ODYSSEY TURN","CONYERS","GA",30012,33.686072472,-84.000599103,43,"156 ODYSSEY TURN, CONYERS, GA, 30012","Match","Non_Exact","156 ODYSSEY TURN NW, CONYERS, GA, 30012",615283422,"R"
215044,"156 OLD BURLINGTON ROAD","BRIDGETON","NJ",8302,39.5076767680001,-75.2035593859999,44,"156 OLD BURLINGTON ROAD, BRIDGETON, NJ, 8302","Match","Exact","156 BURLINGTON RD, BRIDGETON, NJ, 08302",174120159,"R"
215045,"156 OLD MAIN STREET","SOUTH YARMOUTH","MA",2664,NA,NA,45,"156 OLD MAIN STREET, SOUTH YARMOUTH, MA, 2664","Tie",NA,NA,NA,NA
215046,"156 ORAL CHURCH RD","SUMRALL","MS",39482,31.3126230610001,-89.5181438659999,46,"156 ORAL CHURCH RD, SUMRALL, MS, 39482","Match","Exact","156 ORAL CHURCH RD, SUMRALL, MS, 39482",502432,"R"
215047,"156 OUTER HARBOR MOORING","MONTEREY","CA",93940,NA,NA,47,"156 OUTER HARBOR MOORING, MONTEREY, CA, 93940","No_Match",NA,NA,NA,NA
215048,"156 OVERLOOK DRIVE","PITTSBUGH","PA",15237,40.5392825930001,-80.068558001,48,"156 OVERLOOK DRIVE, PITTSBUGH, PA, 15237","Match","Non_Exact","156 OVERLOOK DR, PITTSBURGH, PA, 15237",648674308,"R"
215049,"156 PALACE CIR","FAIRBANKS","AK",99705,64.8567925510001,-147.722845003,49,"156 PALACE CIR, FAIRBANKS, AK, 99705","Match","Non_Exact","156 PALACE CIR, FAIRBANKS, AK, 99701",614902751,"R"
215050,"156 PALISADE STREET","DOBBS FERRY","NY",10522,41.0163201340001,-73.874955448,50,"156 PALISADE STREET, DOBBS FERRY, NY, 10522","Match","Exact","156 PALISADE ST, DOBBS FERRY, NY, 10522",139799514,"R"
215051,"156 PALM CIRCLE","PALM COAST","FL",32136,29.483949738,-81.135670562,51,"156 PALM CIRCLE, PALM COAST, FL, 32136","Match","Non_Exact","156 PALM CIR, FLAGLER BEACH, FL, 32136",94942667,"L"
215052,"156 PARKER MEADOWS LANE","EL DORADO","AR",71730,33.1690923940001,-92.7149772079999,52,"156 PARKER MEADOWS LANE, EL DORADO, AR, 71730","Match","Non_Exact","156 PARKER DR, EL DORADO, AR, 71730",28179553,"L"
215053,"156 PARKWAY DRIVE","FAIRBURN","GA",30213,33.5873750700001,-84.6011472279999,53,"156 PARKWAY DRIVE, FAIRBURN, GA, 30213","Match","Exact","156 PARKWAY DR, FAIRBURN, GA, 30213",627548726,"L"
215054,"156 PATIO DRIVE","MIDDLETOWN","NY",10941,41.4775478770001,-74.374969418,54,"156 PATIO DRIVE, MIDDLETOWN, NY, 10941","Match","Non_Exact","156 PATIO RD, MIDDLETOWN, NY, 10941",124491126,"R"
215055,"156 PENINSULA ROAD APT 20","MEDICINE LAKE","MN",55441,44.9980771290001,-93.418349217,55,"156 PENINSULA ROAD APT 20, MEDICINE LAKE, MN, 55441","Match","Exact","156 PENINSULA RD, MEDICINE LAKE, MN, 55441",43824383,"R"
215056,"156 PENN DRIVE","MADISON HEIGHTS","VA",24572,37.42754942,-79.098801425,56,"156 PENN DRIVE, MADISON HEIGHTS, VA, 24572","Match","Non_Exact","156 PENN LN, MADISON HEIGHTS, VA, 24572",159113620,"R"
215057,"156 PENNINSULA ROAD APT 7","MEDICINE LAKE","MN",55441,44.9980771290001,-93.418349217,57,"156 PENNINSULA ROAD APT 7, MEDICINE LAKE, MN, 55441","Match","Non_Exact","156 PENINSULA RD, MEDICINE LAKE, MN, 55441",43824383,"R"
215058,"156 PERRYTOWN ROAD","NEW BERN","NC",28562,35.064348324,-77.0702329169999,58,"156 PERRYTOWN ROAD, NEW BERN, NC, 28562","Match","Exact","156 PERRYTOWN RD, NEW BERN, NC, 28562",34113698,"L"
215059,"156 PFEIFFER STREET","CAMDEN","NJ",8105,39.9417366600001,-75.092186802,59,"156 PFEIFFER STREET, CAMDEN, NJ, 8105","Match","Exact","156 PFEIFFER ST, CAMDEN, NJ, 08105",134342248,"L"
215060,"156 PIEDRA LOOP","LOS ALAMOS","NM",87544,35.811526529,-106.204783847,60,"156 PIEDRA LOOP, LOS ALAMOS, NM, 87544","Match","Non_Exact","156 PIEDRA LOOP, LOS ALAMOS, NM, 87547",640450092,"L"
215061,"156 PINE ARBOR DRIVE","ORLANDO","FL",32825,28.5408737000001,-81.256272371,61,"156 PINE ARBOR DRIVE, ORLANDO, FL, 32825","Match","Exact","156 PINE ARBOR DR, ORLANDO, FL, 32825",605917573,"L"
215062,"156 PINE CREEK TRAIL","MOUNT AIRY","NC",27030,36.5344226220001,-80.6244698899999,62,"156 PINE CREEK TRAIL, MOUNT AIRY, NC, 27030","Match","Exact","156 PINE CREEK TRL, MOUNT AIRY, NC, 27030",154198608,"L"
215063,"156 PINECREST ROAD","LITCHFIELD","NH",3052,42.84810536,-71.43613637,63,"156 PINECREST ROAD, LITCHFIELD, NH, 3052","Match","Exact","156 PINECREST RD, LITCHFIELD, NH, 03052",113559979,"R"
215064,"156 POLE CAT RD","GLEN MILLS","PA",19342,39.8889588580001,-75.491196249,64,"156 POLE CAT RD, GLEN MILLS, PA, 19342","Match","Exact","156 POLE CAT RD, GLEN MILLS, PA, 19342",635881220,"R"
215065,"156 PONDEROSA LANE","FLOMATON","AL",36441,31.043362729,-87.266112966,65,"156 PONDEROSA LANE, FLOMATON, AL, 36441","Match","Exact","156 PONDEROSA LN, FLOMATON, AL, 36441",1929973,"R"
215066,"156 PORTER ST 203","EAST BOSTON","MA",2128,42.3714167970001,-71.0331289929999,66,"156 PORTER ST 203, EAST BOSTON, MA, 2128","Match","Exact","156 PORTER ST, EAST BOSTON, MA, 02128",85711538,"L"
215067,"156 PORTER ST APT 221","BOSTON","MA",2128,42.3714167970001,-71.0331289929999,67,"156 PORTER ST APT 221, BOSTON, MA, 2128","Match","Exact","156 PORTER ST, BOSTON, MA, 02128",85711538,"L"
215068,"156 PORTER STREET","EAST BOSTON","MA",2128,42.3714167970001,-71.0331289929999,68,"156 PORTER STREET, EAST BOSTON, MA, 2128","Match","Exact","156 PORTER ST, EAST BOSTON, MA, 02128",85711538,"L"
215069,"156 PRESQUE ISLE ROAD","LEXINGTON","SC",29072,33.9540713420001,-81.283186082,69,"156 PRESQUE ISLE ROAD, LEXINGTON, SC, 29072","Match","Exact","156 PRESQUE ISLE RD, LEXINGTON, SC, 29072",628060456,"L"
215070,"156 PRESTON LANE","CLAYTON","DE",19938,39.2836298670001,-75.6337403049999,70,"156 PRESTON LANE, CLAYTON, DE, 19938","Match","Exact","156 PRESTON LN, CLAYTON, DE, 19938",68108453,"R"
215071,"156 PROMENADE AVENUE","SHREVEPORT","LA",71115,32.4174394940001,-93.6899679109999,71,"156 PROMENADE AVENUE, SHREVEPORT, LA, 71115","Match","Exact","156 PROMENADE AVE, SHREVEPORT, LA, 71115",57493612,"L"
215072,"156 PROSPECT PARK WEST 4R","BROOKLYN","NY",11215,40.6637636730001,-73.9775558009999,72,"156 PROSPECT PARK WEST 4R, BROOKLYN, NY, 11215","Match","Exact","156 PROSPECT PARK W, BROOKLYN, NY, 11215",59078279,"R"
215073,"156 PROSPECT PARK WEST","BROOKLYN","NY",11215,40.6637636730001,-73.9775558009999,73,"156 PROSPECT PARK WEST, BROOKLYN, NY, 11215","Match","Exact","156 PROSPECT PARK W, BROOKLYN, NY, 11215",59078279,"R"
215074,"156 RADCLIFFE DRIVE","LAFAYETTE","LA",70501,30.228119781,-91.992713565,74,"156 RADCLIFFE DRIVE, LAFAYETTE, LA, 70501","Match","Exact","156 RADCLIFFE DR, LAFAYETTE, LA, 70501",653310816,"R"
215075,"156 RED TRAIL","MARION","TX",78124,NA,NA,75,"156 RED TRAIL, MARION, TX, 78124","No_Match",NA,NA,NA,NA
215076,"156 REEVES AVE","ANGOLA","NY",14006,42.614714136,-79.0966786659999,76,"156 REEVES AVE, ANGOLA, NY, 14006","Match","Non_Exact","156 REEVES RD, ANGOLA, NY, 14006",48283227,"L"
215077,"156 RICH CIRCLE","FRANKLIN","TN",37064,35.8729762240001,-86.822541481,77,"156 RICH CIRCLE, FRANKLIN, TN, 37064","Match","Exact","156 RICH CIR, FRANKLIN, TN, 37064",619118449,"R"
215078,"156 RICHMOND STREET","BROOKLYN","NY",11208,40.6834883700001,-73.87689467,78,"156 RICHMOND STREET, BROOKLYN, NY, 11208","Match","Exact","156 RICHMOND ST, BROOKLYN, NY, 11208",59085472,"R"
215079,"156 RIDGE RD","RILEYVILLE","VA",22650,38.769106654,-78.406365678,79,"156 RIDGE RD, RILEYVILLE, VA, 22650","Match","Exact","156 RIDGE RD, RILEYVILLE, VA, 22650",29933785,"R"
215080,"156 RIDGEMONT DR","LEHIGH ACRES","FL",33972,26.679034324,-81.6060877789999,80,"156 RIDGEMONT DR, LEHIGH ACRES, FL, 33972","Match","Exact","156 RIDGEMONT DR, LEHIGH ACRES, FL, 33972",118126212,"L"
215081,"156 ROBINSON STREET","TEANECK","NJ",7666,40.8903510120001,-73.997622963,81,"156 ROBINSON STREET, TEANECK, NJ, 7666","Match","Exact","156 ROBINSON ST, TEANECK, NJ, 07666",64372672,"R"
215082,"156 ROCKVIEW DR","KAMIAH","ID",83536,46.1969096940001,-116.030176107,82,"156 ROCKVIEW DR, KAMIAH, ID, 83536","Match","Exact","156 ROCKVIEW DR, KAMIAH, ID, 83536",195918642,"L"
215083,"156 ROCKY SHORE RD","BRISTOL","NH",3222,43.647322047,-71.749264362,83,"156 ROCKY SHORE RD, BRISTOL, NH, 3222","Match","Exact","156 ROCKY SHORE RD, BRISTOL, NH, 03222",145705424,"L"
215084,"156 ROSEMONT STREET","ST. SIMONS ISLAND","GA",31522,31.182538225,-81.382682258,84,"156 ROSEMONT STREET, ST. SIMONS ISLAND, GA, 31522","Match","Exact","156 ROSEMONT ST, ST SIMONS ISLAND, GA, 31522",211210548,"L"
215085,"156 ROYA BRIAR CT","RAEFORD","NC",28376,34.9927103790001,-79.162440455,85,"156 ROYA BRIAR CT, RAEFORD, NC, 28376","Match","Non_Exact","156 ROYAL BRIAR CT, RAEFORD, NC, 28376",623828410,"L"
215086,"156 ROYAL BRIAR CT","RAEFORD","NC",28376,34.9927103790001,-79.162440455,86,"156 ROYAL BRIAR CT, RAEFORD, NC, 28376","Match","Exact","156 ROYAL BRIAR CT, RAEFORD, NC, 28376",623828410,"L"
215087,"156 S ARABELLA WAY","SAINT JOHNS","FL",32259,30.0688502410001,-81.528127927,87,"156 S ARABELLA WAY, SAINT JOHNS, FL, 32259","Match","Exact","156 S ARABELLA WAY, SAINT JOHNS, FL, 32259",648252751,"L"
215088,"156 S E 66TH LANE","BUSHNELL","FL",33513,28.6593579130001,-82.101888044,88,"156 S E 66TH LANE, BUSHNELL, FL, 33513","Match","Exact","156 SE 66TH LN, BUSHNELL, FL, 33513",86501438,"L"
215089,"156 S HALIFAX AVE","ORMOND BEACH","FL",32176,29.285619453,-81.043457598,89,"156 S HALIFAX AVE, ORMOND BEACH, FL, 32176","Match","Non_Exact","156 S HALIFAX DR, ORMOND BEACH, FL, 32176",94523030,"R"
215090,"156 S JOLIET ST","JOLIET","IL",60436,41.5206373250001,-88.0842066499999,90,"156 S JOLIET ST, JOLIET, IL, 60436","Match","Exact","156 S JOLIET ST, JOLIET, IL, 60436",111542614,"L"
215091,"156 S JOLIET STREET","JOLIET","IL",60436,41.5206373250001,-88.0842066499999,91,"156 S JOLIET STREET, JOLIET, IL, 60436","Match","Exact","156 S JOLIET ST, JOLIET, IL, 60436",111542614,"L"
215092,"156 S MAIN STREET","DARLINGTON","SC",29532,34.302077013,-79.870610308,92,"156 S MAIN STREET, DARLINGTON, SC, 29532","Match","Exact","156 S MAIN ST, DARLINGTON, SC, 29532",78399266,"L"
215093,"156 S MERIDITH AVE UNIT 113","PASADENA","CA",91106,NA,NA,93,"156 S MERIDITH AVE UNIT 113, PASADENA, CA, 91106","Tie",NA,NA,NA,NA
215094,"156 S SOUTH STREET","GASTONIA","NC",28052,35.2626703220001,-81.183817539,94,"156 S SOUTH STREET, GASTONIA, NC, 28052","Match","Exact","156 S SOUTH ST, GASTONIA, NC, 28052",70426842,"L"
215095,"156 S UTAH STREET","LOS ANGELES","CA",90033,34.045901889,-118.225192248,95,"156 S UTAH STREET, LOS ANGELES, CA, 90033","Match","Exact","156 S UTAH ST, LOS ANGELES, CA, 90033",141620802,"L"
215096,"156 SAN JUAN AVE","SAN FRANCISCO","CO",94112,NA,NA,96,"156 SAN JUAN AVE, SAN FRANCISCO, CO, 94112","No_Match",NA,NA,NA,NA
215097,"156 SAPELO DRIVE","LEES BURG","GA",31763,31.6374929150001,-84.220768581,97,"156 SAPELO DRIVE, LEES BURG, GA, 31763","Match","Non_Exact","156 SAPELO DR, LEESBURG, GA, 31763",628086895,"L"
215098,"156 SARANAC AVE","BUFFALO","NY",14216,42.950198539,-78.857376136,98,"156 SARANAC AVE, BUFFALO, NY, 14216","Match","Exact","156 SARANAC AVE, BUFFALO, NY, 14216",48289496,"L"
215099,"156 SAYLONG DRIVE","PITTSBURGH","PA",15235,40.4557213570001,-79.834454786,99,"156 SAYLONG DRIVE, PITTSBURGH, PA, 15235","Match","Exact","156 SAYLONG DR, PITTSBURGH, PA, 15235",51667291,"R"
215100,"156 SCHODER AVENUE","WOODBRIDGE","NJ",7095,40.5658102260001,-74.276893586,100,"156 SCHODER AVENUE, WOODBRIDGE, NJ, 7095","Match","Exact","156 SCHODER AVE, WOODBRIDGE, NJ, 07095",60323233,"R"
215101,"156 SEATON RIDGE DRIVE","BLYTHEWOOD","SC",29016,34.1973085110001,-80.9207556489999,101,"156 SEATON RIDGE DRIVE, BLYTHEWOOD, SC, 29016","Match","Exact","156 SEATON RIDGE DR, BLYTHEWOOD, SC, 29016",632156674,"R"
215102,"156 SHADOW LAKE ROAD","RIDGEFIELD","CT",6877,41.3719458300001,-73.512242128,102,"156 SHADOW LAKE ROAD, RIDGEFIELD, CT, 6877","Match","Exact","156 SHADOW LAKE RD, RIDGEFIELD, CT, 06877",3254600,"L"
215103,"156 SHARP HOLLOW DR","LIBERTY","KY",42539,37.3095452750001,-84.940983951,103,"156 SHARP HOLLOW DR, LIBERTY, KY, 42539","Match","Non_Exact","156 SHARP HOLLOW RD, LIBERTY, KY, 42539",32512340,"L"
215104,"156 SHENANGO PARK RD 12","TRANSFER","PA",16154,41.3111192540001,-80.434385193,104,"156 SHENANGO PARK RD 12, TRANSFER, PA, 16154","Match","Exact","156 SHENANGO PARK RD, TRANSFER, PA, 16154",70659088,"R"
215105,"156 SHEPARD AVE","EAST ORANGE","NJ",7018,40.753778573,-74.219107949,105,"156 SHEPARD AVE, EAST ORANGE, NJ, 7018","Match","Exact","156 SHEPARD AVE, EAST ORANGE, NJ, 07018",63494460,"L"
215106,"156 SHEPHERD LANE","LINCOLN UNIVERSITY","PA",19352,39.770489851,-75.866277731,106,"156 SHEPHERD LANE, LINCOLN UNIVERSITY, PA, 19352","Match","Exact","156 SHEPHERD LN, LINCOLN UNIV, PA, 19352",179539340,"R"
215107,"156 SHERWOOD DRIVE","DANVILLE","VA",24540,36.6050661350001,-79.396385819,107,"156 SHERWOOD DRIVE, DANVILLE, VA, 24540","Match","Exact","156 SHERWOOD DR, DANVILLE, VA, 24540",56589651,"R"
215108,"156 SHORE DRIVE","HOLDEN BEACH","NC",28462,33.9168333970001,-78.2632903799999,108,"156 SHORE DRIVE, HOLDEN BEACH, NC, 28462","Match","Non_Exact","156 S SHORE DR, HOLDEN BEACH, NC, 28462",153179979,"L"
215109,"156 SIDNEY BAY DR","NEWPORT COAST","CA",92657,33.568990349,-117.828774122,109,"156 SIDNEY BAY DR, NEWPORT COAST, CA, 92657","Match","Exact","156 SIDNEY BAY DR, NEWPORT COAST, CA, 92657",609073537,"R"
215110,"156 SIDNEY CRAVER RD","WELCOME","NC",27292,NA,NA,110,"156 SIDNEY CRAVER RD, WELCOME, NC, 27292","No_Match",NA,NA,NA,NA
215111,"156 SILVER STREET","FARMINGTON","NH",3835,43.419286555,-71.076932786,111,"156 SILVER STREET, FARMINGTON, NH, 3835","Match","Exact","156 SILVER ST, FARMINGTON, NH, 03835",643214348,"L"
215112,"156 SILVERBELL TRACE","ATHENS","GA",30606,33.9874913510001,-83.451752486,112,"156 SILVERBELL TRACE, ATHENS, GA, 30606","Match","Exact","156 SILVERBELL TRCE, ATHENS, GA, 30606",614135738,"L"
215113,"156 SKUNK HOLLOW ROAD","JERICHO","VT",5465,44.479538345,-73.01810562,113,"156 SKUNK HOLLOW ROAD, JERICHO, VT, 5465","Match","Exact","156 SKUNK HOLLOW RD, JERICHO, VT, 05465",633221174,"L"
215114,"156 SKYLINE TRAIL","PELL CITY","AL",35128,33.510735982,-86.25420217,114,"156 SKYLINE TRAIL, PELL CITY, AL, 35128","Match","Exact","156 SKYLINE TRL, PELL CITY, AL, 35128",637671680,"L"
215115,"156 SLEEPY HOLLOW LN","CONGERS","NY",10920,41.160364003,-73.948211854,115,"156 SLEEPY HOLLOW LN, CONGERS, NY, 10920","Match","Exact","156 SLEEPY HOLLOW LN, CONGERS, NY, 10920",124597695,"R"
215116,"156 SMITH BEND LN","GAINESBORO","TN",38562,36.344809006,-85.8058444,116,"156 SMITH BEND LN, GAINESBORO, TN, 38562","Match","Exact","156 SMITH BEND LN, GAINESBORO, TN, 38562",25107081,"L"
215117,"156 SOCO DRIVE","FULLERTON","CA",92832,33.8676168260001,-117.921819383,117,"156 SOCO DRIVE, FULLERTON, CA, 92832","Match","Exact","156 SOCO DR, FULLERTON, CA, 92832",625092532,"R"
215118,"156 SOLANA STREET","SAN JACINTO","CA",92582,33.7887763270001,-117.000389852,118,"156 SOLANA STREET, SAN JACINTO, CA, 92582","Match","Exact","156 SOLANA ST, SAN JACINTO, CA, 92582",609000927,"L"
215119,"156 SOMERSET PLACE","RUSTBURG","VA",24588,37.292575952,-79.06029079,119,"156 SOMERSET PLACE, RUSTBURG, VA, 24588","Match","Exact","156 SOMERSET PL, RUSTBURG, VA, 24588",647667080,"L"
215120,"156 SOUTH 41ST ST","RICHMOND","CA",94804,37.9299498560001,-122.330878367,120,"156 SOUTH 41ST ST, RICHMOND, CA, 94804","Match","Exact","156 S 41ST ST, RICHMOND, CA, 94804",192041241,"L"
215121,"156 SOUTH FOURTH AVENUE","MOUNT VERNON","NY",10550,40.9078260680001,-73.8356578519999,121,"156 SOUTH FOURTH AVENUE, MOUNT VERNON, NY, 10550","Match","Exact","156 S 4TH AVE, MOUNT VERNON, NY, 10550",139747175,"R"
215122,"156 SOUTH MASSANUTTEN STREET","STRASBURG","VA",22657,38.987835664,-78.3590972379999,122,"156 SOUTH MASSANUTTEN STREET, STRASBURG, VA, 22657","Match","Exact","156 S MASSANUTTEN ST, STRASBURG, VA, 22657",55927813,"L"
215123,"156 SPORTSMAN CLUB RD","ROXBORO","NC",27574,36.4042846300001,-79.034183217,123,"156 SPORTSMAN CLUB RD, ROXBORO, NC, 27574","Match","Exact","156 SPORTSMAN CLUB RD, ROXBORO, NC, 27574",630170498,"R"
215124,"156 SPRING ROAD","SCOTIA","NY",12302,42.8694857190001,-73.962542659,124,"156 SPRING ROAD, SCOTIA, NY, 12302","Match","Exact","156 SPRING RD, SCOTIA, NY, 12302",18034071,"R"
215125,"156 SPRING STREET","WEST BRIDGEWATER","MA",2379,42.025353991,-71.018301852,125,"156 SPRING STREET, WEST BRIDGEWATER, MA, 2379","Match","Exact","156 SPRING ST, W BRIDGEWATER, MA, 02379",642484866,"L"
215126,"156 SPRING VALLEY ROAD","NASHVILLE","TN",37214,36.16436421,-86.672440411,126,"156 SPRING VALLEY ROAD, NASHVILLE, TN, 37214","Match","Exact","156 SPRING VALLEY RD, NASHVILLE, TN, 37214",606396206,"R"
215127,"156 SPRUCE STREET","NEWARK","NJ",7103,40.728268815,-74.1873576949999,127,"156 SPRUCE STREET, NEWARK, NJ, 7103","Match","Exact","156 SPRUCE ST, NEWARK, NJ, 07103",618467475,"R"
215128,"156 ST CLAIR DRIVE","FAIRVIEW HEIGHTS","IL",62208,38.589745034,-89.9995197869999,128,"156 ST CLAIR DRIVE, FAIRVIEW HEIGHTS, IL, 62208","Match","Exact","156 SAINT CLAIR DR, FAIRVIEW HTS, IL, 62208",107896474,"R"
215129,"156 STAMPLEY RD","FAYETTE","MS",39069,31.6603524770001,-91.122828542,129,"156 STAMPLEY RD, FAYETTE, MS, 39069","Match","Exact","156 STAMPLEY RD, FAYETTE, MS, 39069",649420538,"L"
215130,"156 STAPLES ROAD","CUMBERLAND","RI",2864,41.9830095830001,-71.4331355319999,130,"156 STAPLES ROAD, CUMBERLAND, RI, 2864","Match","Exact","156 STAPLES RD, CUMBERLAND, RI, 02864",646769425,"R"
215131,"156 STAR BLOSSOM DRIVE APT 404","MEMPHIS","TN",38103,35.1353061040001,-90.055560602,131,"156 STAR BLOSSOM DRIVE APT 404, MEMPHIS, TN, 38103","Match","Exact","156 STAR BLOSSOM DR, MEMPHIS, TN, 38103",648226138,"L"
215132,"156 STEWART ROAD","PILESGROVE","NJ",8098,39.664839172,-75.284770791,132,"156 STEWART ROAD, PILESGROVE, NJ, 8098","Match","Exact","156 STEWART RD, PILESGROVE, NJ, 08098",174417854,"L"
215133,"156 STONEY POINT LANE","CHAPIN","SC",29036,34.134550613,-81.286103241,133,"156 STONEY POINT LANE, CHAPIN, SC, 29036","Match","Exact","156 STONEY POINT LN, CHAPIN, SC, 29036",71842245,"L"
215134,"156 STRAWBERRY PLAINS RD STE C1","WILLIAMSBURG","VA",23188,37.2719452640001,-76.739039872,134,"156 STRAWBERRY PLAINS RD STE C1, WILLIAMSBURG, VA, 23188","Match","Exact","156 STRAWBERRY PLAINS RD, WILLIAMSBURG, VA, 23188",649928183,"R"
215135,"156 STULTS LN","EAST BRUNSWICK","NJ",8816,40.424723972,-74.398193721,135,"156 STULTS LN, EAST BRUNSWICK, NJ, 8816","Match","Exact","156 STULTS LN, E BRUNSWICK, NJ, 08816",60369096,"R"
215136,"156 SULPHUR SPRINGS CHURCH RD","FOREST CITY","NC",28043,35.265919642,-81.890523737,136,"156 SULPHUR SPRINGS CHURCH RD, FOREST CITY, NC, 28043","Match","Non_Exact","156 SULFUR SPRINGS CHURCH RD, FOREST CITY, NC, 28043",19387820,"L"
215137,"156 SULPHUR SPRINGS RD","FOREST CITY","NC",28043,NA,NA,137,"156 SULPHUR SPRINGS RD, FOREST CITY, NC, 28043","No_Match",NA,NA,NA,NA
215138,"156 SUMMER MEADOW DRIVE","THOMASVILLE","GA",31757,NA,NA,138,"156 SUMMER MEADOW DRIVE, THOMASVILLE, GA, 31757","No_Match",NA,NA,NA,NA
215139,"156 SUMMER ST UNIT 411","SOMERVILLE","MA",2143,42.3862214050001,-71.105676257,139,"156 SUMMER ST UNIT 411, SOMERVILLE, MA, 2143","Match","Exact","156 SUMMER ST, SOMERVILLE, MA, 02143",86868567,"L"
215140,"156 SUMMER STREET APT 309","SOMERVILLE","MA",2143,42.3862214050001,-71.105676257,140,"156 SUMMER STREET APT 309, SOMERVILLE, MA, 2143","Match","Exact","156 SUMMER ST, SOMERVILLE, MA, 02143",86868567,"L"
215141,"156 SUMMIT AVE","WALDWICK","NJ",7463,41.0154214880001,-74.111211939,141,"156 SUMMIT AVE, WALDWICK, NJ, 7463","Match","Exact","156 SUMMIT AVE, WALDWICK, NJ, 07463",64366327,"L"
215142,"156 SUNFISH PLACE NE APT I","ROCHESTER","MN",55906,44.059281292,-92.4630171969999,142,"156 SUNFISH PLACE NE APT I, ROCHESTER, MN, 55906","Match","Exact","156 SUNFISH PL NE, ROCHESTER, MN, 55906",649076555,"L"
215143,"156 SUPERIOR AVENUE","DECATUR","GA",30030,33.783935037,-84.298977608,143,"156 SUPERIOR AVENUE, DECATUR, GA, 30030","Match","Exact","156 SUPERIOR AVE, DECATUR, GA, 30030",624693549,"L"
215144,"156 SUSAN CT","RADCLIFF","KY",40160,37.800201809,-85.9255777389999,144,"156 SUSAN CT, RADCLIFF, KY, 40160","Match","Exact","156 SUSAN CT, RADCLIFF, KY, 40160",34640044,"R"
215145,"156 TAYLOR STREET","STATEN ISLAND","NY",10310,40.6350014180001,-74.1231945449999,145,"156 TAYLOR STREET, STATEN ISLAND, NY, 10310","Match","Exact","156 TAYLOR ST, STATEN ISLAND, NY, 10310",59877993,"R"
215146,"156 THIRD AVENUE","ALBANY","NY",12202,42.64119463,-73.764432927,146,"156 THIRD AVENUE, ALBANY, NY, 12202","Match","Exact","156 3RD AVE, ALBANY, NY, 12202",18350545,"L"
215147,"156 THOMAS HUMPHREY RD","WOODBRIDGE","VA",22191,NA,NA,147,"156 THOMAS HUMPHREY RD, WOODBRIDGE, VA, 22191","No_Match",NA,NA,NA,NA
215148,"156 THOMPSON LN","NEWCASTLE","TX",76372,33.1514218390001,-98.743226219,148,"156 THOMPSON LN, NEWCASTLE, TX, 76372","Match","Non_Exact","156 THOMPSON RD, NEWCASTLE, TX, 76372",183296409,"R"
215149,"156 THREE RIVERS ROAD","PALMER","MA",1069,NA,NA,149,"156 THREE RIVERS ROAD, PALMER, MA, 1069","No_Match",NA,NA,NA,NA
215150,"156 TORCASSO WAY","INDUSTRY","PA",15052,40.67642519,-80.433697148,150,"156 TORCASSO WAY, INDUSTRY, PA, 15052","Match","Exact","156 TORCASSO WAY, INDUSTRY, PA, 15052",52572044,"R"
215151,"156 TORTUGA LANE","EASLEY","SC",29642,34.8007177420001,-82.534197519,151,"156 TORTUGA LANE, EASLEY, SC, 29642","Match","Exact","156 TORTUGA LN, EASLEY, SC, 29642",633644071,"R"
215152,"156 TRAM ROAD","COWPENS","SC",29330,35.0303698000001,-81.8171046309999,152,"156 TRAM ROAD, COWPENS, SC, 29330","Match","Exact","156 TRAM RD, COWPENS, SC, 29330",19491019,"R"
215153,"156 TREE TOP CT","GEORGETOWN","KY",40324,38.179091296,-84.6510277199999,153,"156 TREE TOP CT, GEORGETOWN, KY, 40324","Match","Non_Exact","156 TREETOP CT, GEORGETOWN, KY, 40324",41233835,"L"
215154,"156 TREETOP BLUFF LN","BONNERS FERRY","IA",83805,NA,NA,154,"156 TREETOP BLUFF LN, BONNERS FERRY, IA, 83805","No_Match",NA,NA,NA,NA
215155,"156 UNION ST UNIT A","ASHLAND","OR",97520,42.1911856940001,-122.709480685,155,"156 UNION ST UNIT A, ASHLAND, OR, 97520","Match","Exact","156 UNION ST, ASHLAND, OR, 97520",155521825,"R"
215156,"156 VERONA DR APT 401","LAFAYETTE","LA",70507,30.2594813530001,-92.01938423,156,"156 VERONA DR APT 401, LAFAYETTE, LA, 70507","Match","Exact","156 VERONA DR, LAFAYETTE, LA, 70507",85613840,"R"
215157,"156 VILLAGE DRIVE","MISHAWAKA","IN",46545,41.6895407370001,-86.1807413939999,157,"156 VILLAGE DRIVE, MISHAWAKA, IN, 46545","Match","Exact","156 VILLAGE DR, MISHAWAKA, IN, 46545",646566690,"L"
215158,"156 VIOLA DRIVE","GADSDEN","AL",35901,33.96470659,-85.986225926,158,"156 VIOLA DRIVE, GADSDEN, AL, 35901","Match","Exact","156 VIOLA DR, GADSDEN, AL, 35901",66806561,"L"
215159,"156 VISTA VIEW DRIVE","WEST COLUMBIA","SC",29172,33.9236851200001,-81.0848513719999,159,"156 VISTA VIEW DRIVE, WEST COLUMBIA, SC, 29172","Match","Exact","156 VISTA VIEW DR, WEST COLUMBIA, SC, 29172",640836844,"R"
215160,"156 W 10TH STREET APT 3","NEW YORK","NY",10014,40.734456209,-74.001541066,160,"156 W 10TH STREET APT 3, NEW YORK, NY, 10014","Match","Non_Exact","156 W 10TH ST, NEW YORK, NY, 10014",59659994,"L"
215161,"156 W 36TH ST","INDANAPOLIS","IN",46208,39.8211420540001,-86.159832868,161,"156 W 36TH ST, INDANAPOLIS, IN, 46208","Match","Non_Exact","156 W 36TH ST, INDIANAPOLIS, IN, 46208",107988830,"R"
215162,"156 W 39TH ST","HOLLAND","MI",49423,NA,NA,162,"156 W 39TH ST, HOLLAND, MI, 49423","Tie",NA,NA,NA,NA
215163,"156 W COLBY LN","BOISE","ID",83706,43.605722153,-116.242299827,163,"156 W COLBY LN, BOISE, ID, 83706","Match","Exact","156 COLBY LN, BOISE, ID, 83706",642578428,"R"
215164,"156 W EDITH RD","LAFAYETTE","LA",70508,30.107055514,-92.078174503,164,"156 W EDITH RD, LAFAYETTE, LA, 70508","Match","Exact","156 W EDITH RD, LAFAYETTE, LA, 70508",85609032,"L"
215165,"156 W MONTANA","GLENDALE HEIGHTS","IL",60139,41.917804646,-88.098201242,165,"156 W MONTANA, GLENDALE HEIGHTS, IL, 60139","Match","Non_Exact","156 W MONTANA AVE, GLENDALE HEIGHTS, IL, 60139",112520081,"R"
215166,"156 WABASH AVE","KENMORE","NY",14217,42.965246264,-78.876262347,166,"156 WABASH AVE, KENMORE, NY, 14217","Match","Exact","156 WABASH AVE, KENMORE, NY, 14217",48287481,"L"
215167,"156 WALNUT STREET","BELLEVUE","OH",44811,41.2747613160001,-82.828169557,167,"156 WALNUT STREET, BELLEVUE, OH, 44811","Match","Exact","156 WALNUT ST, BELLEVUE, OH, 44811",12598177,"R"
215168,"156 WALTON ROAD","SEABROOK","NH",3874,42.877537755,-70.8563486849999,168,"156 WALTON ROAD, SEABROOK, NH, 3874","Match","Exact","156 WALTON RD, SEABROOK, NH, 03874",113692714,"L"
215169,"156 WASHINGTON ST","VALPARAISO","IN",46383,41.4662533260001,-87.0609686239999,169,"156 WASHINGTON ST, VALPARAISO, IN, 46383","Match","Exact","156 WASHINGTON ST, VALPARAISO, IN, 46383",119914320,"R"
215170,"156 WAYNE AVE","SUFFERN","NY",10901,41.1234079320001,-74.143474388,170,"156 WAYNE AVE, SUFFERN, NY, 10901","Match","Exact","156 WAYNE AVE, SUFFERN, NY, 10901",124601768,"L"
215171,"156 WEBFOOT DRIVE","GARNER","NC",27529,35.6250213500001,-78.5528117389999,171,"156 WEBFOOT DRIVE, GARNER, NC, 27529","Match","Exact","156 WEBFOOT DR, GARNER, NC, 27529",26553264,"R"
215172,"156 WEDGEWOOD DRIVE","GIBSONIA","PA",15044,40.6482862330001,-79.947421363,172,"156 WEDGEWOOD DRIVE, GIBSONIA, PA, 15044","Match","Exact","156 WEDGEWOOD DR, GIBSONIA, PA, 15044",51707601,"R"
215173,"156 WEGMAN PARKWAY","JERSEY CITY","NJ",7305,40.705185382,-74.0832349419999,173,"156 WEGMAN PARKWAY, JERSEY CITY, NJ, 7305","Match","Exact","156 WEGMAN PKWY, JERSEY CITY, NJ, 07305",59604355,"R"
215174,"156 WEST 56TH STREET","NEW YORK","NY",10019,40.7643139300001,-73.979279057,174,"156 WEST 56TH STREET, NEW YORK, NY, 10019","Match","Exact","156 W 56TH ST, NEW YORK, NY, 10019",59657114,"L"
215175,"156 WEST 57TH STREET APT 56D","NEW YORK","NY",10019,40.7649910370001,-73.978788622,175,"156 WEST 57TH STREET APT 56D, NEW YORK, NY, 10019","Match","Exact","156 W 57TH ST, NEW YORK, NY, 10019",59657122,"L"
215176,"156 WILLOW LAKE DRIVE","FAIRHOPE","AL",36532,30.550024765,-87.880585212,176,"156 WILLOW LAKE DRIVE, FAIRHOPE, AL, 36532","Match","Exact","156 WILLOW LAKE DR, FAIRHOPE, AL, 36532",131718622,"R"
215177,"156 WOLF DRIVE","MONACA","PA",15061,40.6738146640001,-80.2865909989999,177,"156 WOLF DRIVE, MONACA, PA, 15061","Match","Exact","156 WOLF DR, MONACA, PA, 15061",52574435,"R"
215178,"156 WOOD ST","PROVIDENCE","RI",2909,41.812571706,-71.438250285,178,"156 WOOD ST, PROVIDENCE, RI, 2909","Match","Exact","156 WOOD ST, PROVIDENCE, RI, 02909",47460735,"L"
215179,"156 WOOD STREET","PROVIDENCE","RI",2909,41.812571706,-71.438250285,179,"156 WOOD STREET, PROVIDENCE, RI, 2909","Match","Exact","156 WOOD ST, PROVIDENCE, RI, 02909",47460735,"L"
215180,"156 WORCESTER","DETROIT",NA,NA,42.422710871,-83.1045461859999,180,"156 WORCESTER, DETROIT, , ","Match","Non_Exact","156 WORCESTER PL, DETROIT, MI, 48203",95506308,"R"
215181,"156 WRIGHTS BROOK DR","SOMERS","CT",6071,42.0107917330001,-72.491920765,181,"156 WRIGHTS BROOK DR, SOMERS, CT, 6071","Match","Exact","156 WRIGHTS BROOK DR, SOMERS, CT, 06071",56994459,"R"
215182,"156 WYTHE AVENUE APARTMENT 1","BROOKLYN","NY",11249,40.719828283,-73.960113217,182,"156 WYTHE AVENUE APARTMENT 1, BROOKLYN, NY, 11249","Match","Exact","156 WYTHE AVE, BROOKLYN, NY, 11249",59075950,"R"
215183,"156 YORK ST LOWER APT","BUFFALO","NY",14213,42.9054351,-78.8839824299999,183,"156 YORK ST LOWER APT, BUFFALO, NY, 14213","Match","Exact","156 YORK ST, BUFFALO, NY, 14213",48290329,"L"
215184,"156 YORK STREET","BUFFALO","NY",14213,42.9054351,-78.8839824299999,184,"156 YORK STREET, BUFFALO, NY, 14213","Match","Exact","156 YORK ST, BUFFALO, NY, 14213",48290329,"L"
215185,"156-04 110 AVE","JAMAICA","NY",11433,40.691272842,-73.793901986,185,"156-04 110 AVE, JAMAICA, NY, 11433","Match","Exact","156-4 110TH AVE, JAMAICA, NY, 11433",59714361,"R"
215186,"156-11 AGUILAR AVE","FLUSHING","NY",11367,40.727996191,-73.813618578,186,"156-11 AGUILAR AVE, FLUSHING, NY, 11367","Match","Exact","156-11 AGUILAR AVE, FLUSHING, NY, 11367",59732158,"L"
215187,"156-11 AGUILAR","FLUSHING","NY",11367,40.727996191,-73.813618578,187,"156-11 AGUILAR, FLUSHING, NY, 11367","Match","Non_Exact","156 AGUILAR AVE, FLUSHING, NY, 11367",59732158,"L"
215188,"156-11 APT 5N","FLUSHING","NY",11367,NA,NA,188,"156-11 APT 5N, FLUSHING, NY, 11367","No_Match",NA,NA,NA,NA
215189,"156-158 ATLANTIC ST","PATERSON","NJ",7503,40.8995788870001,-74.1674428009999,189,"156-158 ATLANTIC ST, PATERSON, NJ, 7503","Match","Exact","156 ATLANTIC ST, PATERSON, NJ, 07503",65265235,"R"
215190,"156-17 79TH STREET","HOWARD BEACH","NY",11414,40.6619206010001,-73.854176767,190,"156-17 79TH STREET, HOWARD BEACH, NY, 11414","Match","Exact","156-17 79TH ST, HOWARD BEACH, NY, 11414",59708434,"R"
215191,"156-18 107TH STREET","JAMAICA","NY",11433,40.696081436,-73.7972839029999,191,"156-18 107TH STREET, JAMAICA, NY, 11433","Match","Non_Exact","156 107TH AVE, JAMAICA, NY, 11433",59714321,"R"
215192,"156-20 SOUTH ROAD","JAMAICA","NY",11433,40.6975970240001,-73.7983677719999,192,"156-20 SOUTH ROAD, JAMAICA, NY, 11433","Match","Exact","156-20 SOUTH RD, JAMAICA, NY, 11433",59714177,"R"
215193,"156-23 87TH ST","HOWARD BEACH","NY",11414,40.6629026100001,-73.846581967,193,"156-23 87TH ST, HOWARD BEACH, NY, 11414","Match","Exact","156-23 87TH ST, HOWARD BEACH, NY, 11414",59708507,"L"
215194,"156-25  76TH  ST-HOWARD BEACH","QUEENS","NY",11414,NA,NA,194,"156-25  76TH  ST-HOWARD BEACH, QUEENS, NY, 11414","No_Match",NA,NA,NA,NA
215195,"156-25  76TH ST HOWARD BEACH","QUEENS","NY",11414,40.6613950220001,-73.8569705749999,195,"156-25  76TH ST HOWARD BEACH, QUEENS, NY, 11414","Match","Non_Exact","156-25 76TH ST, JAMAICA, NY, 11414",59740130,"L"
215196,"156-25  76TH ST-HOWARD BEACH","QUEENS","NY",11414,NA,NA,196,"156-25  76TH ST-HOWARD BEACH, QUEENS, NY, 11414","No_Match",NA,NA,NA,NA
215197,"156-35     76TH ST-HOWARD BEACH","QUEENS","NY",10414,NA,NA,197,"156-35     76TH ST-HOWARD BEACH, QUEENS, NY, 10414","No_Match",NA,NA,NA,NA
215198,"156-35","QUEENS","NY",11414,NA,NA,198,"156-35, QUEENS, NY, 11414","No_Match",NA,NA,NA,NA
215199,"156-38 79TH STREET","HOWARD BEACH","NY",11414,40.6616070970001,-73.854116703,199,"156-38 79TH STREET, HOWARD BEACH, NY, 11414","Match","Exact","156-38 79TH ST, HOWARD BEACH, NY, 11414",59708434,"L"
215200,"156-41 76TH STREET","HOWARD BEACH","NY",11414,40.6611750530001,-73.856915997,200,"156-41 76TH STREET, HOWARD BEACH, NY, 11414","Match","Exact","156-41 76TH ST, HOWARD BEACH, NY, 11414",59740130,"L"
215201,"156-48 78TH STREET","HOWARD BEACH","NY",11414,40.6613226360001,-73.855061873,201,"156-48 78TH STREET, HOWARD BEACH, NY, 11414","Match","Exact","156-48 78TH ST, HOWARD BEACH, NY, 11414",59708432,"L"
215202,"156-8 RIVERSIDE DR APT 6G","NEW YORK","NY",10032,NA,NA,202,"156-8 RIVERSIDE DR APT 6G, NEW YORK, NY, 10032","Tie",NA,NA,NA,NA
215203,"156","BARTLETT","IL",60103,NA,NA,203,"156, BARTLETT, IL, 60103","No_Match",NA,NA,NA,NA
215204,"156","DENTON","TX",76207,NA,NA,204,"156, DENTON, TX, 76207","No_Match",NA,NA,NA,NA
215205,"1560 27TH  STREET SE","WASHINGTON","DC",20020,38.8710612580001,-76.968959537,205,"1560 27TH  STREET SE, WASHINGTON, DC, 20020","Match","Exact","1560 27TH ST SE, WASHINGTON, DC, 20020",76231801,"L"
215206,"1560 ADAMS LANE","DENVER","CO",80206,39.7412426220001,-104.948831981,206,"1560 ADAMS LANE, DENVER, CO, 80206","Match","Non_Exact","1560 ADAMS ST, DENVER, CO, 80206",177311048,"R"
215207,"1560 ADAMS STREET","DENVER","CO",80206,39.7412426220001,-104.948831981,207,"1560 ADAMS STREET, DENVER, CO, 80206","Match","Exact","1560 ADAMS ST, DENVER, CO, 80206",177311048,"R"
215208,"1560 AIRPORT BLVD","PENSACOLA","FL",32504,30.4820258280001,-87.210838146,208,"1560 AIRPORT BLVD, PENSACOLA, FL, 32504","Match","Exact","1560 AIRPORT BLVD, PENSACOLA, FL, 32504",609089483,"L"
215209,"1560 BEN KING RD","KENNESAW","GA",30144,NA,NA,209,"1560 BEN KING RD, KENNESAW, GA, 30144","No_Match",NA,NA,NA,NA
215210,"1560 BEN KING ROAD NW","KENNESAW","GA",30144,NA,NA,210,"1560 BEN KING ROAD NW, KENNESAW, GA, 30144","No_Match",NA,NA,NA,NA
215211,"1560 BETH LANE","WINTER HAVEN","FL",33880,27.9901785640001,-81.806264744,211,"1560 BETH LANE, WINTER HAVEN, FL, 33880","Match","Exact","1560 BETH LN, WINTER HAVEN, FL, 33880",651740150,"R"
215212,"1560 BILL JONES RD","AFTON","TN",37616,36.119858707,-82.724818645,212,"1560 BILL JONES RD, AFTON, TN, 37616","Match","Exact","1560 BILL JONES RD, AFTON, TN, 37616",652876130,"L"
215213,"1560 BONITA DR","FOUNTAIN","CO",80817,38.7298290050001,-104.729711165,213,"1560 BONITA DR, FOUNTAIN, CO, 80817","Match","Exact","1560 BONITA DR, FOUNTAIN, CO, 80817",105524839,"R"
215214,"1560 BOTTOM CREEK LANE","BENT MOUNTAIN","VA",24059,37.1381747680001,-80.1682314509999,214,"1560 BOTTOM CREEK LANE, BENT MOUNTAIN, VA, 24059","Match","Exact","1560 BOTTOM CREEK LN, BENT MOUNTAIN, VA, 24059",62921324,"R"
215215,"1560 BOTTOM CREEK LN","BENT MOUNTAIN","VA",24059,37.1381747680001,-80.1682314509999,215,"1560 BOTTOM CREEK LN, BENT MOUNTAIN, VA, 24059","Match","Exact","1560 BOTTOM CREEK LN, BENT MOUNTAIN, VA, 24059",62921324,"R"
215216,"1560 BOXFORD","TRENTON","MI",48183,42.1547131460001,-83.2020878449999,216,"1560 BOXFORD, TRENTON, MI, 48183","Match","Non_Exact","1560 BOXFORD ST, TRENTON, MI, 48183",95457036,"R"
215217,"1560 BRAMBLE BUSH WAY","SUWANEE","GA",30024,34.108660759,-84.130456537,217,"1560 BRAMBLE BUSH WAY, SUWANEE, GA, 30024","Match","Exact","1560 BRAMBLE BUSH WAY, SUWANEE, GA, 30024",634100766,"R"
215218,"1560 BRIESE RD","LOMA","MT",59460,48.0162485330001,-110.499095247,218,"1560 BRIESE RD, LOMA, MT, 59460","Match","Exact","1560 BRIESE RD, LOMA, MT, 59460",162488567,"R"
215219,"1560 BROOK POINTE DR","INDIANAPOLIS","IN",46234,39.785908867,-86.308227691,219,"1560 BROOK POINTE DR, INDIANAPOLIS, IN, 46234","Match","Exact","1560 BROOK POINTE DR, INDIANAPOLIS, IN, 46234",108026353,"L"
215220,"1560 BROOK POINTE","INDIANAPOLIS","IN",46234,39.785908867,-86.308227691,220,"1560 BROOK POINTE, INDIANAPOLIS, IN, 46234","Match","Non_Exact","1560 BROOK POINTE DR, INDIANAPOLIS, IN, 46234",108026353,"L"
215221,"1560 BRYDEN DR","AKRON","OH",44313,41.113264594,-81.5711578459999,221,"1560 BRYDEN DR, AKRON, OH, 44313","Match","Exact","1560 BRYDEN DR, AKRON, OH, 44313",636626551,"L"
215222,"1560 BUCHANON DR","CLARKSVILLE","TN",37042,36.5986873300001,-87.3803679929999,222,"1560 BUCHANON DR, CLARKSVILLE, TN, 37042","Match","Exact","1560 BUCHANON DR, CLARKSVILLE, TN, 37042",632181897,"L"
215223,"1560 BUD GRAHAM RD","AYNOR","SC",29511,34.0158766380001,-79.202822993,223,"1560 BUD GRAHAM RD, AYNOR, SC, 29511","Match","Non_Exact","1560 BUD GRAHAM RD, AYNOR, SC, 29544",627153757,"R"
215224,"1560 CELEBRATION BLVD UNIT 313","CELEBRATION","FL",34747,28.3077653560001,-81.5641135399999,224,"1560 CELEBRATION BLVD UNIT 313, CELEBRATION, FL, 34747","Match","Exact","1560 CELEBRATION BLVD, CELEBRATION, FL, 34747",646583586,"R"
215225,"1560 CENTRAL AVE APT 160","ST PETERSBURG","FL",33705,27.7711068020001,-82.6542305569999,225,"1560 CENTRAL AVE APT 160, ST PETERSBURG, FL, 33705","Match","Exact","1560 CENTRAL AVE, SAINT PETERSBURG, FL, 33705",124707542,"L"
215226,"1560 CENTRAL AVE APT 227","ST PETERSBURG","FL",33705,27.7711068020001,-82.6542305569999,226,"1560 CENTRAL AVE APT 227, ST PETERSBURG, FL, 33705","Match","Exact","1560 CENTRAL AVE, SAINT PETERSBURG, FL, 33705",124707542,"L"
215227,"1560 CHERYL ST","REDLANDS","CA",92374,34.075588456,-117.161686043,227,"1560 CHERYL ST, REDLANDS, CA, 92374","Match","Exact","1560 CHERYL ST, REDLANDS, CA, 92374",614817707,"R"
215228,"1560 CHIHUAHUA ROAD NE","RIO RANCHO","NM",87144,35.2829390470001,-106.616445415,228,"1560 CHIHUAHUA ROAD NE, RIO RANCHO, NM, 87144","Match","Exact","1560 CHIHUAHUA RD NE, RIO RANCHO, NM, 87144",194015447,"L"
215229,"1560 CHURCH STREET","BURLINGTON","WI",53105,42.648640926,-88.3614764179999,229,"1560 CHURCH STREET, BURLINGTON, WI, 53105","Match","Exact","1560 CHURCH ST, BURLINGTON, WI, 53105",53667653,"L"
215230,"1560 CIELO VISTA LN","GILROY","CA",95020,37.034948033,-121.613190197,230,"1560 CIELO VISTA LN, GILROY, CA, 95020","Match","Exact","1560 CIELO VISTA LN, GILROY, CA, 95020",640593983,"L"
215231,"1560 CRESTVIEW DRIVE","PITTSBURGH","PA",15237,40.5726974080001,-80.076778858,231,"1560 CRESTVIEW DRIVE, PITTSBURGH, PA, 15237","Match","Exact","1560 CRESTVIEW DR, PITTSBURGH, PA, 15237",51606296,"L"
215232,"1560 CUNNINGHAM DRIVE","HELENA","AL",35080,33.299211777,-86.838910351,232,"1560 CUNNINGHAM DRIVE, HELENA, AL, 35080","Match","Exact","1560 CUNNINGHAM DR, HELENA, AL, 35080",82063558,"R"
215233,"1560 DEERWOOD DR","DECATUR","GA",30030,33.7554390820001,-84.284709807,233,"1560 DEERWOOD DR, DECATUR, GA, 30030","Match","Exact","1560 DEERWOOD DR, DECATUR, GA, 30030",640464994,"L"
215234,"1560 E MASON LAKE RD","SHELTON","WA",98584,47.268987485,-123.058976264,234,"1560 E MASON LAKE RD, SHELTON, WA, 98584","Match","Exact","1560 E MASON LAKE RD, SHELTON, WA, 98584",629060591,"R"
215235,"1560 EAST ARMSTRONG ROAD","LODI","CA",95242,NA,NA,235,"1560 EAST ARMSTRONG ROAD, LODI, CA, 95242","No_Match",NA,NA,NA,NA
215236,"1560 EDMOND DR","SAN CARLOS","CA",94070,37.4761937000001,-122.277888906,236,"1560 EDMOND DR, SAN CARLOS, CA, 94070","Match","Exact","1560 EDMOND DR, SAN CARLOS, CA, 94070",192412949,"R"
215237,"1560 EXPOSITION AVE","AURORA","IL",60506,41.794142935,-88.3437127939999,237,"1560 EXPOSITION AVE, AURORA, IL, 60506","Match","Exact","1560 EXPOSITION AVE, AURORA, IL, 60506",119511149,"L"
215238,"1560 FOXWORTHY AVE","SAN JOSE","CA",95118,37.2722346580001,-121.900137277,238,"1560 FOXWORTHY AVE, SAN JOSE, CA, 95118","Match","Exact","1560 FOXWORTHY AVE, SAN JOSE, CA, 95118",122921449,"L"
215239,"1560 FULTON ST APT 701","BROOKLYN","GA",11213,NA,NA,239,"1560 FULTON ST APT 701, BROOKLYN, GA, 11213","No_Match",NA,NA,NA,NA
215240,"1560 GALAXY COURT","CEDARBURG","WI",53012,43.3311236770001,-88.053328813,240,"1560 GALAXY COURT, CEDARBURG, WI, 53012","Match","Exact","1560 GALAXY CT, CEDARBURG, WI, 53012",95899479,"L"
215241,"1560 GLOVER ST 1ST FLOOR","BRONX","NY",10462,40.837723092,-73.851099427,241,"1560 GLOVER ST 1ST FLOOR, BRONX, NY, 10462","Match","Exact","1560 GLOVER ST, BRONX, NY, 10462",80305498,"R"
215242,"1560 GREYSTONE RD","FAYETTEVILLE","NC",28311,35.1253064840001,-78.921507359,242,"1560 GREYSTONE RD, FAYETTEVILLE, NC, 28311","Match","Non_Exact","1560 GRAYSTONE RD, FAYETTEVILLE, NC, 28311",64229692,"L"
215243,"1560 GRIMES AVE","MODESTO","CA",95358,37.619830198,-121.044167249,243,"1560 GRIMES AVE, MODESTO, CA, 95358","Match","Exact","1560 GRIMES AVE, MODESTO, CA, 95358",651605948,"L"
215244,"1560 HARLEM RD","BUFFALO","NY",14206,42.8858817940001,-78.784581352,244,"1560 HARLEM RD, BUFFALO, NY, 14206","Match","Exact","1560 HARLEM RD, BUFFALO, NY, 14206",48303714,"L"
215245,"1560 HARLEQUIN WAY","STOCKBRIDGE","GA",30281,33.556191805,-84.1691940599999,245,"1560 HARLEQUIN WAY, STOCKBRIDGE, GA, 30281","Match","Exact","1560 HARLEQUIN WAY, STOCKBRIDGE, GA, 30281",649198199,"R"
215246,"1560 HARVARD AVE","COLLEGE PARK","GA",30337,33.65335107,-84.440077442,246,"1560 HARVARD AVE, COLLEGE PARK, GA, 30337","Match","Exact","1560 HARVARD AVE, COLLEGE PARK, GA, 30337",17348679,"L"
215247,"1560 HAWKINS AVE","NORTH BALDWIN","NY",11510,40.6718564010001,-73.612755206,247,"1560 HAWKINS AVE, NORTH BALDWIN, NY, 11510","Match","Exact","1560 HAWKINS AVE, N BALDWIN, NY, 11510",147629601,"R"
215248,"1560 HUMPHREY AVE","BIRMINGHAM","MI",48009,42.5375845790001,-83.2010867229999,248,"1560 HUMPHREY AVE, BIRMINGHAM, MI, 48009","Match","Exact","1560 HUMPHREY AVE, BIRMINGHAM, MI, 48009",69735688,"R"
215249,"1560 JACKSON AVE NE","SAINT MICHAEL","MN",55376,45.1741821540001,-93.700895417,249,"1560 JACKSON AVE NE, SAINT MICHAEL, MN, 55376","Match","Exact","1560 JACKSON AVE NE, SAINT MICHAEL, MN, 55376",44018685,"L"
215250,"1560 JACKSON AVENUE NE","ST. MICHAEL","MN",55376,45.1741821540001,-93.700895417,250,"1560 JACKSON AVENUE NE, ST. MICHAEL, MN, 55376","Match","Exact","1560 JACKSON AVE NE, SAINT MICHAEL, MN, 55376",44018685,"L"
215251,"1560 KALAS CIRCLE","LUMBERTON","TX",77657,30.257696787,-94.207245829,251,"1560 KALAS CIRCLE, LUMBERTON, TX, 77657","Match","Exact","1560 KALAS CIR, LUMBERTON, TX, 77657",651828697,"R"
215252,"1560 KNOXLYN ORRTANNA ROAD","ORRTANNA","PA",17353,39.840325148,-77.348170141,252,"1560 KNOXLYN ORRTANNA ROAD, ORRTANNA, PA, 17353","Match","Exact","1560 KNOXLYN ORRTANNA RD, ORRTANNA, PA, 17353",646457570,"L"
215253,"1560 KNOXLYN ORRTANNA ROAD","ORRTANNA","PR",17353,NA,NA,253,"1560 KNOXLYN ORRTANNA ROAD, ORRTANNA, PR, 17353","No_Match",NA,NA,NA,NA
215254,"1560 LAKE CRYSTAL DR APT G","WEST PALM BEACH","FL",33411,26.701845721,-80.1701523629999,254,"1560 LAKE CRYSTAL DR APT G, WEST PALM BEACH, FL, 33411","Match","Exact","1560 LAKE CRYSTAL DR, WEST PALM BEACH, FL, 33411",115579713,"R"
215255,"1560 LANDER ST","RENO","NV",89509,39.5088020960001,-119.815168355,255,"1560 LANDER ST, RENO, NV, 89509","Match","Exact","1560 LANDER ST, RENO, NV, 89509",107045334,"L"
215256,"1560 LASALLE PARC DRIVE","BATON ROUGE","LA",70806,30.436260073,-91.101484955,256,"1560 LASALLE PARC DRIVE, BATON ROUGE, LA, 70806","Match","Exact","1560 LASALLE PARC DR, BATON ROUGE, LA, 70806",92211289,"L"
215257,"1560 LELAND AVE APT 3","BRONX","NY",10460,40.8398613700001,-73.864925534,257,"1560 LELAND AVE APT 3, BRONX, NY, 10460","Match","Exact","1560 LELAND AVE, BRONX, NY, 10460",80304630,"R"
215258,"1560 MATHIS FERRY ROAD","MOUNT PLEASANT","SC",29464,32.8242117,-79.8484895459999,258,"1560 MATHIS FERRY ROAD, MOUNT PLEASANT, SC, 29464","Match","Exact","1560 MATHIS FERRY RD, MOUNT PLEASANT, SC, 29464",108889130,"L"
215259,"1560 MORNING GLORY CIRCLE","LIVERMORE","CA",94551,37.711416098,-121.745199757,259,"1560 MORNING GLORY CIRCLE, LIVERMORE, CA, 94551","Match","Exact","1560 MORNING GLORY CIR, LIVERMORE, CA, 94551",125055153,"R"
215260,"1560 MOUNTAIN VIEW RD","FORTUNA","CA",95540,40.5681921450001,-124.122777046,260,"1560 MOUNTAIN VIEW RD, FORTUNA, CA, 95540","Match","Exact","1560 MOUNTAIN VIEW RD, FORTUNA, CA, 95540",635173860,"R"
215261,"1560 N 3RD STREET","LARAMIE","WY",82072,41.326642941,-105.591939099,261,"1560 N 3RD STREET, LARAMIE, WY, 82072","Match","Non_Exact","1560 N 3RD ST, LARAMIE, WY, 82072",168739624,"L"
215262,"1560 N DOWNING ST APT 25","DENVER","CO",80218,39.741014267,-104.973389277,262,"1560 N DOWNING ST APT 25, DENVER, CO, 80218","Match","Exact","1560 DOWNING ST, DENVER, CO, 80218",177305830,"R"
215263,"1560 N LAUREL AVE UNIT 101","LOS ANGELES","AZ",90046,NA,NA,263,"1560 N LAUREL AVE UNIT 101, LOS ANGELES, AZ, 90046","No_Match",NA,NA,NA,NA
215264,"1560 N LAUREL AVE UNIT 101","LOS ANGELES","CA",90046,34.0991292750001,-118.364274962,264,"1560 N LAUREL AVE UNIT 101, LOS ANGELES, CA, 90046","Match","Non_Exact","1560 N LAUREL AVE, LOS ANGELES, CA, 90046",141593855,"R"
215265,"1560 N PORTER RD","FAYETTEVILLE","AR",72703,36.0836866110001,-94.193000669,265,"1560 N PORTER RD, FAYETTEVILLE, AR, 72703","Match","Exact","1560 N PORTER RD, FAYETTEVILLE, AR, 72703",49092885,"R"
215266,"1560 N PROSPECT AVE APT 510","MILWAUKEE","WI",53202,43.0503220840001,-87.8931281609999,266,"1560 N PROSPECT AVE APT 510, MILWAUKEE, WI, 53202","Match","Non_Exact","1560 N PROSPECT AVE, MILWAUKEE, WI, 53202",77744865,"R"
215267,"1560 N SANDBURG TER APT 606","CHICAGO","IL",60610,NA,NA,267,"1560 N SANDBURG TER APT 606, CHICAGO, IL, 60610","No_Match",NA,NA,NA,NA
215268,"1560 N SANDBURG TERR","CHICAGO","IL",60610,NA,NA,268,"1560 N SANDBURG TERR, CHICAGO, IL, 60610","No_Match",NA,NA,NA,NA
215269,"1560 NOLEN LANE","FERNANDINA BEACH","FL",32034,30.646955387,-81.451605759,269,"1560 NOLEN LANE, FERNANDINA BEACH, FL, 32034","Match","Exact","1560 NOLEN LN, FERNANDINA BCH, FL, 32034",646731753,"L"
215270,"1560 NORTH CNTY RD 1880","CARTHAGE","IL",62321,40.426707623,-91.1420767239999,270,"1560 NORTH CNTY RD 1880, CARTHAGE, IL, 62321","Match","Non_Exact","1560 CO RD 1880, CARTHAGE, IL, 62321",5329044,"L"
215271,"1560 NW 111TH AVE","PEMBROKE PINES","FL",33026,26.0196950760001,-80.298994993,271,"1560 NW 111TH AVE, PEMBROKE PINES, FL, 33026","Match","Exact","1560 NW 111TH AVE, PEMBROKE PINES, FL, 33026",114816116,"L"
215272,"1560 NW 127 STREET","MIAMI","FL",33167,25.890472204,-80.2242136949999,272,"1560 NW 127 STREET, MIAMI, FL, 33167","Match","Exact","1560 NW 127TH ST, MIAMI, FL, 33167",116033119,"L"
215273,"1560 NW 128TH DRIVE","SUNRISE","FL",33323,26.1425832040001,-80.321522644,273,"1560 NW 128TH DRIVE, SUNRISE, FL, 33323","Match","Exact","1560 NW 128TH DR, SUNRISE, FL, 33323",638972019,"L"
215274,"1560 NW 133RD ST","MIAMI","FL",33167,25.8962686470001,-80.224505538,274,"1560 NW 133RD ST, MIAMI, FL, 33167","Match","Exact","1560 NW 133RD ST, MIAMI, FL, 33167",116032918,"L"
215275,"1560 NW 17 AVE      APT 6","POMPANO BEACH","FL",33069,26.2474295590001,-80.14692358,275,"1560 NW 17 AVE      APT 6, POMPANO BEACH, FL, 33069","Match","Non_Exact","1560 NW 17TH AVE, POMPANO BEACH, FL, 33069",640865957,"R"
215276,"1560 NW 17TH AVE UNIT 6","POMPANO BEACH","FL",33069,26.2474295590001,-80.14692358,276,"1560 NW 17TH AVE UNIT 6, POMPANO BEACH, FL, 33069","Match","Non_Exact","1560 NW 17TH AVE, POMPANO BEACH, FL, 33069",640865957,"R"
215277,"1560 NW 22ND AVE","DELRAY BEACH","FL",33445,26.4803294170001,-80.097345269,277,"1560 NW 22ND AVE, DELRAY BEACH, FL, 33445","Match","Exact","1560 NW 22ND AVE, DELRAY BEACH, FL, 33445",115495972,"R"
215278,"1560 NW 96 AVE","PLANTATION","FL",33322,26.143737709,-80.2786789849999,278,"1560 NW 96 AVE, PLANTATION, FL, 33322","Match","Exact","1560 NW 96TH AVE, PLANTATION, FL, 33322",114795924,"L"
215279,"1560 OCEAN AVENUE","BROOKLYN","NY",11230,40.6242025660001,-73.956110613,279,"1560 OCEAN AVENUE, BROOKLYN, NY, 11230","Match","Exact","1560 OCEAN AVE, BROOKLYN, NY, 11230",639413910,"R"
215280,"1560 PANTHERS STREET","OVIEDO","FL",32765,NA,NA,280,"1560 PANTHERS STREET, OVIEDO, FL, 32765","No_Match",NA,NA,NA,NA
215281,"1560 PENNELL LN","DYERSBURG","TN",38024,36.0648911330001,-89.4068917119999,281,"1560 PENNELL LN, DYERSBURG, TN, 38024","Match","Exact","1560 PENNELL LN, DYERSBURG, TN, 38024",647478872,"R"
215282,"1560 PINE STREET APT 3","CONCORD","CA",94520,37.967886741,-122.043505298,282,"1560 PINE STREET APT 3, CONCORD, CA, 94520","Match","Exact","1560 PINE ST, CONCORD, CA, 94520",648149604,"R"
215283,"1560 PLYMOUTH LN","SAN PEDRO","CA",90732,33.729099735,-118.311042024,283,"1560 PLYMOUTH LN, SAN PEDRO, CA, 90732","Match","Exact","1560 PLYMOUTH LN, SAN PEDRO, CA, 90732",625177545,"L"
215284,"1560 POLARIS LANE","BEAUMONT","CA",92223,33.9349983650001,-116.952525599,284,"1560 POLARIS LANE, BEAUMONT, CA, 92223","Match","Exact","1560 POLARIS LN, BEAUMONT, CA, 92223",626571792,"R"
215285,"1560 POLARIS LN","BEAUMONT","CA",92223,33.9349983650001,-116.952525599,285,"1560 POLARIS LN, BEAUMONT, CA, 92223","Match","Exact","1560 POLARIS LN, BEAUMONT, CA, 92223",626571792,"R"
215286,"1560 REAL STREET","CAPE VINCENT","NY",13618,NA,NA,286,"1560 REAL STREET, CAPE VINCENT, NY, 13618","No_Match",NA,NA,NA,NA
215287,"1560 RIDGE ROAD","CLOVER","SC",29710,35.133053466,-81.15319271,287,"1560 RIDGE ROAD, CLOVER, SC, 29710","Match","Exact","1560 RIDGE RD, CLOVER, SC, 29710",19787765,"R"
215288,"1560 RIO VISTA","FALLON","NV",89406,39.497758091,-118.757682978,288,"1560 RIO VISTA, FALLON, NV, 89406","Match","Non_Exact","1560 RIO VISTA DR, FALLON, NV, 89406",651241261,"R"
215289,"1560 ROSELAND WAY","WESTLAKE","OH",44145,41.4642825380001,-81.897589424,289,"1560 ROSELAND WAY, WESTLAKE, OH, 44145","Match","Exact","1560 ROSELAND WAY, WESTLAKE, OH, 44145",61144776,"L"
215290,"1560 S BILL DELLER RD","ANGOLA","IN",46703,41.6197662610001,-84.9795876969999,290,"1560 S BILL DELLER RD, ANGOLA, IN, 46703","Match","Exact","1560 S BILL DELLER RD, ANGOLA, IN, 46703",604806379,"R"
215291,"1560 S LINWOOD AVE","EVANSVILLE","IN",47713,37.956290806,-87.554158302,291,"1560 S LINWOOD AVE, EVANSVILLE, IN, 47713","Match","Exact","1560 S LINWOOD AVE, EVANSVILLE, IN, 47713",39783420,"L"
215292,"1560 S SHELTON ST","SEATTLE","WA",98108,47.5578980820001,-122.312449846,292,"1560 S SHELTON ST, SEATTLE, WA, 98108","Match","Exact","1560 S SHELTON ST, SEATTLE, WA, 98108",186595181,"L"
215293,"1560 SAN LUIS RD 2554V","TALLAHASSEE","FL",32301,30.4608744170001,-84.324040533,293,"1560 SAN LUIS RD 2554V, TALLAHASSEE, FL, 32301","Match","Non_Exact","1560 SAN LUIS RD, TALLAHASSEE, FL, 32304",618820304,"L"
215294,"1560 SAN NICHOLAS ST","VENTURA","CA",93001,34.2775793960001,-119.277154575,294,"1560 SAN NICHOLAS ST, VENTURA, CA, 93001","Match","Exact","1560 SAN NICHOLAS ST, VENTURA, CA, 93001",109951358,"R"
215295,"1560 SAN NICHOLAS STREET","VENTURA","CA",93001,34.2775793960001,-119.277154575,295,"1560 SAN NICHOLAS STREET, VENTURA, CA, 93001","Match","Exact","1560 SAN NICHOLAS ST, VENTURA, CA, 93001",109951358,"R"
215296,"1560 SANDRA DRIVE","BOULDER CITY","NV",89005,35.957418105,-114.837009719,296,"1560 SANDRA DRIVE, BOULDER CITY, NV, 89005","Match","Exact","1560 SANDRA DR, BOULDER CITY, NV, 89005",201831338,"L"
215297,"1560 SAX LEIGH","DALLAS","TX",75241,32.6687846310001,-96.797030924,297,"1560 SAX LEIGH, DALLAS, TX, 75241","Match","Non_Exact","1560 SAX LEIGH DR, DALLAS, TX, 75241",619131176,"R"
215298,"1560 SE 50TH ST","COLUMBUS","KS",66725,NA,NA,298,"1560 SE 50TH ST, COLUMBUS, KS, 66725","No_Match",NA,NA,NA,NA
215299,"1560 STABLEWOOD LN","LAKE FOREST","IL",60015,42.2329260430001,-87.8852726389999,299,"1560 STABLEWOOD LN, LAKE FOREST, IL, 60015","Match","Non_Exact","1560 STABLEWOOD LN, LAKE FOREST, IL, 60045",119644468,"L"
215300,"1560 STONE MILL ROAD","LANCASTER","PA",17603,40.0287853630001,-76.346864473,300,"1560 STONE MILL ROAD, LANCASTER, PA, 17603","Match","Exact","1560 STONE MILL RD, LANCASTER, PA, 17603",653373574,"L"
215301,"1560 SUNNYSIDE AVENUE","LAKEMORE","OH",44250,41.0199872960001,-81.4363089829999,301,"1560 SUNNYSIDE AVENUE, LAKEMORE, OH, 44250","Match","Exact","1560 SUNNYSIDE AVE, LAKEMORE, OH, 44250",61355426,"R"
215302,"1560 SW 500","HOLDEN","MO",64040,38.697534676,-94.044298816,302,"1560 SW 500, HOLDEN, MO, 64040","Match","Non_Exact","1560 SW 500TH RD, HOLDEN, MO, 64040",95369197,"L"
215303,"1560 SW WYNWOOD AVE","PORTLAND","OR",97225,45.508581297,-122.810865647,303,"1560 SW WYNWOOD AVE, PORTLAND, OR, 97225","Match","Exact","1560 SW WYNWOOD AVE, PORTLAND, OR, 97225",158185251,"L"
215304,"1560 SWITZER AVE","ST LOUIS","MO",63147,38.7148920160001,-90.243321798,304,"1560 SWITZER AVE, ST LOUIS, MO, 63147","Match","Exact","1560 SWITZER AVE, SAINT LOUIS, MO, 63147",107592019,"L"
215305,"1560 SWITZER AVENUE","ST LOUIS","MO",63147,38.7148920160001,-90.243321798,305,"1560 SWITZER AVENUE, ST LOUIS, MO, 63147","Match","Exact","1560 SWITZER AVE, SAINT LOUIS, MO, 63147",107592019,"L"
215306,"1560 TANGLEWOOD ROAD","LONG LAKE","MN",55356,44.9984258270001,-93.559293548,306,"1560 TANGLEWOOD ROAD, LONG LAKE, MN, 55356","Match","Exact","1560 TANGLEWOOD RD, LONG LAKE, MN, 55356",43818759,"R"
215307,"1560 THURSTON AVE APT 1002","HONOLULU","HI",96822,21.307275224,-157.843287672,307,"1560 THURSTON AVE APT 1002, HONOLULU, HI, 96822","Match","Exact","1560 THURSTON AVE, HONOLULU, HI, 96822",203223214,"L"
215308,"1560 TURK STREET  APT 123","SAN FRANCISCO","CA",94115,37.7801696720001,-122.434759771,308,"1560 TURK STREET  APT 123, SAN FRANCISCO, CA, 94115","Match","Non_Exact","1560 TURK BLVD, SAN FRANCISCO, CA, 94115",192283372,"R"
215309,"1560 TURK STREET 123","SAN FRANCISCO","CA",94115,37.7801696720001,-122.434759771,309,"1560 TURK STREET 123, SAN FRANCISCO, CA, 94115","Match","Non_Exact","1560 TURK BLVD, SAN FRANCISCO, CA, 94115",192283372,"R"
215310,"1560 UPPER MATEER RD","VANDERGRIFT","PA",15690,40.6372145230001,-79.494449947,310,"1560 UPPER MATEER RD, VANDERGRIFT, PA, 15690","Match","Exact","1560 UPPER MATEER RD, VANDERGRIFT, PA, 15690",634145863,"R"
215311,"1560 W 221 STREET","TORRANCE","CA",90501,33.8268059380001,-118.305326833,311,"1560 W 221 STREET, TORRANCE, CA, 90501","Match","Exact","1560 221ST ST, TORRANCE, CA, 90501",141668564,"L"
215312,"1560 W 99TH ST","CHICAGO","IL",60643,41.713975895,-87.662395927,312,"1560 W 99TH ST, CHICAGO, IL, 60643","Match","Exact","1560 W 99TH ST, CHICAGO, IL, 60643",604993814,"R"
215313,"1560 W BAY AREA BLVD","FRIENDSWOOD","TX",77546,29.5382706120001,-95.149973528,313,"1560 W BAY AREA BLVD, FRIENDSWOOD, TX, 77546","Match","Exact","1560 W BAY AREA BLVD, FRIENDSWOOD, TX, 77546",96589146,"L"
215314,"1560 W BRIARWOOD AVE","LITTLETON","CO",80120,39.592299139,-105.005802486,314,"1560 W BRIARWOOD AVE, LITTLETON, CO, 80120","Match","Exact","1560 W BRIARWOOD AVE, LITTLETON, CO, 80120",177546096,"R"
215315,"1560 W GALBRAITH RD APT 4","CINCINNATI","OH",45231,39.2175041460001,-84.546288503,315,"1560 W GALBRAITH RD APT 4, CINCINNATI, OH, 45231","Match","Non_Exact","1560 W GALBRAITH RD, CINCINNATI, OH, 45231",103921003,"R"
215316,"1560 WATSON RIDGE TRAIL","LAWRENCEVILLE","PA",30045,NA,NA,316,"1560 WATSON RIDGE TRAIL, LAWRENCEVILLE, PA, 30045","No_Match",NA,NA,NA,NA
215317,"1560 WEST PIERCE STREET APT 412","MILWAUKEE","WI",53204,43.0242346410001,-87.9320260659999,317,"1560 WEST PIERCE STREET APT 412, MILWAUKEE, WI, 53204","Match","Exact","1560 W PIERCE ST, MILWAUKEE, WI, 53204",77742044,"R"
215318,"1560 WILLOUGHBY RD","MASON","MI",48854,42.65455158,-84.407151771,318,"1560 WILLOUGHBY RD, MASON, MI, 48854","Match","Exact","1560 WILLOUGHBY RD, MASON, MI, 48854",17518398,"R"
215319,"1560 WINDRIDGE PLACE  APT D","TROY","OH",45373,40.0345105700001,-84.2271913169999,319,"1560 WINDRIDGE PLACE  APT D, TROY, OH, 45373","Match","Exact","1560 WINDRIDGE PL, TROY, OH, 45373",135301845,"R"
215320,"1560 WORDSWORTH","FERNDALE","MI",48220,42.453626867,-83.112572493,320,"1560 WORDSWORTH, FERNDALE, MI, 48220","Match","Non_Exact","1560 WORDSWORTH ST, FERNDALE, MI, 48220",69748019,"R"
215321,"1560 WYATT ROAD","MANNINGTON","WV",26582,39.4627777520001,-80.339663854,321,"1560 WYATT ROAD, MANNINGTON, WV, 26582","Match","Exact","1560 WYATT RD, MANNINGTON, WV, 26582",51454191,"R"
215322,"1560 YOSEMITE DR SUTIE 222","EAGLE ROCK","CA",90041,34.132890048,-118.200247874,322,"1560 YOSEMITE DR SUTIE 222, EAGLE ROCK, CA, 90041","Match","Exact","1560 YOSEMITE DR, EAGLE ROCK, CA, 90041",641503363,"L"
215323,"15600 BIBURY ALLEY","UPPER MARLBORO","MD",20774,38.849702069,-76.73555006,323,"15600 BIBURY ALLEY, UPPER MARLBORO, MD, 20774","Match","Exact","15600 BIBURY ALY, UPPER MARLBORO, MD, 20774",650612976,"L"
215324,"15600 BRADNER","PEMBERVILLE","OH",43450,NA,NA,324,"15600 BRADNER, PEMBERVILLE, OH, 43450","No_Match",NA,NA,NA,NA
215325,"15600 BRUSHRUN RD","LOUISVILLE","KY",40299,38.127483592,-85.476070683,325,"15600 BRUSHRUN RD, LOUISVILLE, KY, 40299","Match","Non_Exact","15600 BRUSH RUN RD, LOUISVILLE, KY, 40299",640120085,"L"
215326,"15600 CHELMSFORD CIR","TRUCKEE","CA",96161,39.358570652,-120.101930393,326,"15600 CHELMSFORD CIR, TRUCKEE, CA, 96161","Match","Exact","15600 CHELMSFORD CIR, TRUCKEE, CA, 96161",647682386,"L"
215327,"15600 CLARET AVE WEST","ROSEMOUNT","MN",55068,44.723390302,-93.1421153589999,327,"15600 CLARET AVE WEST, ROSEMOUNT, MN, 55068","Match","Exact","15600 CLARET AVE W, ROSEMOUNT, MN, 55068",37910457,"L"
215328,"15600 CUSTER TRAIL","FRISCO","TX",75035,33.1669377540001,-96.7383758619999,328,"15600 CUSTER TRAIL, FRISCO, TX, 75035","Match","Exact","15600 CUSTER TRL, FRISCO, TX, 75035",123566798,"L"
215329,"15600 CUSTER TRL","FRISCO","TX",75035,33.1669377540001,-96.7383758619999,329,"15600 CUSTER TRL, FRISCO, TX, 75035","Match","Exact","15600 CUSTER TRL, FRISCO, TX, 75035",123566798,"L"
215330,"15600 INGLESIDE AVE","DOLTON","IL",60419,41.611564007,-87.5941431799999,330,"15600 INGLESIDE AVE, DOLTON, IL, 60419","Match","Exact","15600 INGLESIDE AVE, DOLTON, IL, 60419",111780158,"R"
215331,"15600 MULHOLLAND DR","LOS ANGELES","CA",90077,34.128777041,-118.472106509,331,"15600 MULHOLLAND DR, LOS ANGELES, CA, 90077","Match","Exact","15600 MULHOLLAND DR, LOS ANGELES, CA, 90077",142444020,"L"
215332,"15600 NE 8TH ST B1401","BELLEVUE","WA",98008,NA,NA,332,"15600 NE 8TH ST B1401, BELLEVUE, WA, 98008","Tie",NA,NA,NA,NA
215333,"15600 NE 8TH ST STE B1 BOX 381","BELLEVUE","WA",98008,NA,NA,333,"15600 NE 8TH ST STE B1 BOX 381, BELLEVUE, WA, 98008","Tie",NA,NA,NA,NA
215334,"15600 NE 8TH ST","BELLEVUE","WA",98008,47.6170025320001,-122.132077274,334,"15600 NE 8TH ST, BELLEVUE, WA, 98008","Match","Exact","15600 NE 8TH ST, BELLEVUE, WA, 98008",239770303,"L"
215335,"15600 NE 8TH STREET STE B1-268","BELLEVUE","WA",98008,NA,NA,335,"15600 NE 8TH STREET STE B1-268, BELLEVUE, WA, 98008","Tie",NA,NA,NA,NA
215336,"15600 NW 7TH AVE APT 807","MIAMI","FL",33169,NA,NA,336,"15600 NW 7TH AVE APT 807, MIAMI, FL, 33169","No_Match",NA,NA,NA,NA
215337,"15600 WAPELLO","DERWOOD","MD",20855,39.111979191,-77.1454979819999,337,"15600 WAPELLO, DERWOOD, MD, 20855","Match","Non_Exact","15600 WAPELLO WAY, DERWOOD, MD, 20855",62078795,"L"
215338,"15600 WOLF RD","ORLAND PARK","IL",60467,41.606090061,-87.891603618,338,"15600 WOLF RD, ORLAND PARK, IL, 60467","Match","Exact","15600 WOLF RD, ORLAND PARK, IL, 60467",111883540,"R"
215339,"15600 WOLF ROAD","ORLAND PARK","IL",60467,41.606090061,-87.891603618,339,"15600 WOLF ROAD, ORLAND PARK, IL, 60467","Match","Exact","15600 WOLF RD, ORLAND PARK, IL, 60467",111883540,"R"
215340,"15600 YARBERRY DR","ROANOKE","TX",76262,33.0137203510001,-97.265771149,340,"15600 YARBERRY DR, ROANOKE, TX, 76262","Match","Exact","15600 YARBERRY DR, ROANOKE, TX, 76262",641490169,"R"
215341,"15601 BOW STRING ST","VICTORVILLE","CA",92394,34.532557168,-117.335728957,341,"15601 BOW STRING ST, VICTORVILLE, CA, 92394","Match","Exact","15601 BOW STRING ST, VICTORVILLE, CA, 92394",638616598,"R"
215342,"15601 CAMINO DEL CERRO","LOS GATOS","CA",95032,NA,NA,342,"15601 CAMINO DEL CERRO, LOS GATOS, CA, 95032","No_Match",NA,NA,NA,NA
215343,"15601 DALLAS PARKWAY SUITE 900","ADDISON","TX",75001,32.96175263,-96.8216949489999,343,"15601 DALLAS PARKWAY SUITE 900, ADDISON, TX, 75001","Match","Exact","15601 DALLAS PKWY, ADDISON, TX, 75001",103001206,"L"
215344,"15601 DORSET RD APT 203","LAUREL","MD",20707,39.103730173,-76.877850709,344,"15601 DORSET RD APT 203, LAUREL, MD, 20707","Match","Exact","15601 DORSET RD, LAUREL, MD, 20707",76364179,"R"
215345,"15601 FM 969","AUSTIN","TX",78724,30.2488354910001,-97.572940412,345,"15601 FM 969, AUSTIN, TX, 78724","Match","Exact","15601 FM 969, AUSTIN, TX, 78724",627943617,"R"
215346,"15601 FOLIAGE AVE /442","APPLE VALLEY","MN",55124,44.7237013540001,-93.2024150829999,346,"15601 FOLIAGE AVE /442, APPLE VALLEY, MN, 55124","Match","Exact","15601 FOLIAGE AVE, APPLE VALLEY, MN, 55124",212056055,"R"
215347,"15601 FOLIAGE AVENUE SOUTH 139","APPLE VALLEY","MN",55124,44.7237013540001,-93.2024150829999,347,"15601 FOLIAGE AVENUE SOUTH 139, APPLE VALLEY, MN, 55124","Match","Non_Exact","15601 FOLIAGE AVE, APPLE VALLEY, MN, 55124",212056055,"R"
215348,"15601 HIDDEN FALLS DR","MOSELEY","VA",23120,NA,NA,348,"15601 HIDDEN FALLS DR, MOSELEY, VA, 23120","No_Match",NA,NA,NA,NA
215349,"15601 LILAC DRIVE","EDEN PRAIRIE","MN",55347,44.8238320200001,-93.475539469,349,"15601 LILAC DRIVE, EDEN PRAIRIE, MN, 55347","Match","Exact","15601 LILAC DR, EDEN PRAIRIE, MN, 55347",624628023,"L"
215350,"15601 N 27TH DTREET","PHOENIX","AZ",85032,NA,NA,350,"15601 N 27TH DTREET, PHOENIX, AZ, 85032","No_Match",NA,NA,NA,NA
215351,"15601 NE 48TH ST","VANCOUVER","WA",98682,45.6572028250001,-122.511840283,351,"15601 NE 48TH ST, VANCOUVER, WA, 98682","Match","Exact","15601 NE 48TH ST, VANCOUVER, WA, 98682",158353061,"R"
215352,"15601 NEATH DRIVE","WOODBRIDGE","VA",22193,38.6147014410001,-77.32186258,352,"15601 NEATH DRIVE, WOODBRIDGE, VA, 22193","Match","Exact","15601 NEATH DR, WOODBRIDGE, VA, 22193",76524509,"R"
215353,"15601 PEACH ORCHARD WAY","BOWIE","MD",20716,38.922842013,-76.733140727,353,"15601 PEACH ORCHARD WAY, BOWIE, MD, 20716","Match","Exact","15601 PEACH ORCHARD WAY, BOWIE, MD, 20716",624840558,"L"
215354,"15601 RASMUSSEN RD","PUNTA GORDA","FL",33982,26.8075747780001,-81.79725452,354,"15601 RASMUSSEN RD, PUNTA GORDA, FL, 33982","Match","Exact","15601 RASMUSSEN RD, PUNTA GORDA, FL, 33982",641070500,"L"
215355,"15601 ROSEDOWN DR","OKLAHOMA CITY","OK",73170,NA,NA,355,"15601 ROSEDOWN DR, OKLAHOMA CITY, OK, 73170","No_Match",NA,NA,NA,NA
215356,"15601 SUNSET RIDGE DR","ORLAND PARK","IL",60462,41.607645006,-87.819458943,356,"15601 SUNSET RIDGE DR, ORLAND PARK, IL, 60462","Match","Exact","15601 SUNSET RIDGE DR, ORLAND PARK, IL, 60462",111701457,"L"
215357,"15601 TRIPLE CROWN COURT","FORT MYERS","FL",33912,26.515808152,-81.8232689069999,357,"15601 TRIPLE CROWN COURT, FORT MYERS, FL, 33912","Match","Exact","15601 TRIPLE CROWN CT, FORT MYERS, FL, 33912",118027621,"L"
215358,"15602 410TH STREET","SAINT ANSGAR","IA",50476,43.3549877,-92.9145029219999,358,"15602 410TH STREET, SAINT ANSGAR, IA, 50476","Match","Non_Exact","15602 410TH ST, SAINT ANSGAR, IA, 50472",7473957,"L"
215359,"15602 CHADSEY LANE","BRANDYWINE","MD",20613,38.676127955,-76.8834595879999,359,"15602 CHADSEY LANE, BRANDYWINE, MD, 20613","Match","Exact","15602 CHADSEY LN, BRANDYWINE, MD, 20613",624428339,"L"
215360,"15602 HANOVER BREEZE LN","HOUSTON","TX",77044,29.9460173190001,-95.1758314259999,360,"15602 HANOVER BREEZE LN, HOUSTON, TX, 77044","Match","Exact","15602 HANOVER BREEZE LN, HOUSTON, TX, 77044",649214313,"L"
215361,"15602 SINGAPORE LANE","HOUSTON","TX",77040,29.882055194,-95.557812671,361,"15602 SINGAPORE LANE, HOUSTON, TX, 77040","Match","Exact","15602 SINGAPORE LN, HOUSTON, TX, 77040",96019020,"L"
215362,"15603 CHECOTAH DRIVE","AUSTIN","TX",78734,30.41330371,-97.9225707099999,362,"15603 CHECOTAH DRIVE, AUSTIN, TX, 78734","Match","Exact","15603 CHECOTAH DR, AUSTIN, TX, 78734",649002721,"R"
215363,"15603 ENSANADA DRIVE","HOUSTON","TX",77083,29.691578711,-95.659971932,363,"15603 ENSANADA DRIVE, HOUSTON, TX, 77083","Match","Non_Exact","15603 ENSENADA DR, HOUSTON, TX, 77083",78265135,"L"
215364,"15603 GULF FREEWAY 1715","WEBSTER","TX",77598,29.5854188540001,-95.1822758869999,364,"15603 GULF FREEWAY 1715, WEBSTER, TX, 77598","Match","Exact","15603 GULF FWY, WEBSTER, TX, 77598",96590754,"L"
215365,"15603 GULF FREEWAY","WEBSTER","TX",77598,29.5854188540001,-95.1822758869999,365,"15603 GULF FREEWAY, WEBSTER, TX, 77598","Match","Exact","15603 GULF FWY, WEBSTER, TX, 77598",96590754,"L"
215366,"15603 GULF GREEWAY","WEBSTER","TX",77598,29.5854188540001,-95.1822758869999,366,"15603 GULF GREEWAY, WEBSTER, TX, 77598","Match","Non_Exact","15603 GULF FWY, WEBSTER, TX, 77598",96590754,"L"
215367,"15603 IBISCREST CT","LITHIA","FL",33547,27.8397392970001,-82.224316954,367,"15603 IBISCREST CT, LITHIA, FL, 33547","Match","Exact","15603 IBISCREST CT, LITHIA, FL, 33547",629645224,"L"
215368,"15603 MUSTANG ISLAND DR","SUGAR LAND","TX",77498,29.642210677,-95.660064927,368,"15603 MUSTANG ISLAND DR, SUGAR LAND, TX, 77498","Match","Exact","15603 MUSTANG ISLAND DR, SUGAR LAND, TX, 77498",78297813,"R"
215369,"15603 RESTON GROVE CT","HOUSTON","TX",77095,29.913285022,-95.6405039269999,369,"15603 RESTON GROVE CT, HOUSTON, TX, 77095","Match","Exact","15603 RESTON GROVE CT, HOUSTON, TX, 77095",96560373,"R"
215370,"15603 SANDTRAP DR","WALLER","TX",77484,29.9992803220001,-95.933387672,370,"15603 SANDTRAP DR, WALLER, TX, 77484","Match","Non_Exact","15603 SANDTRAP ST, WALLER, TX, 77484",78358073,"L"
215371,"15603 SE RIVERSHORE DRIVE","VANCOUVER","WA",98683,45.5898793580001,-122.512454933,371,"15603 SE RIVERSHORE DRIVE, VANCOUVER, WA, 98683","Match","Exact","15603 SE RIVERSHORE DR, VANCOUVER, WA, 98683",158371347,"L"
215372,"15603 STATE ROUTE 309","KENTON","OH",43326,40.6445603560001,-83.5840179699999,372,"15603 STATE ROUTE 309, KENTON, OH, 43326","Match","Exact","15603 STATE RTE 309, KENTON, OH, 43326",36530969,"R"
215373,"15603 SW 276TH STREET","HOMESTEAD","FL",33032,25.5103394440001,-80.443518564,373,"15603 SW 276TH STREET, HOMESTEAD, FL, 33032","Match","Exact","15603 SW 276TH ST, HOMESTEAD, FL, 33032",652511379,"R"
215374,"15603 TIGER CREEK COURT","COLLEGE STATION","TX",77845,30.526866726,-96.284891234,374,"15603 TIGER CREEK COURT, COLLEGE STATION, TX, 77845","Match","Exact","15603 TIGER CREEK CT, COLLEGE STATION, TX, 77845",650184910,"L"
215375,"15604 ALLEGHENY DRIVE","EDMOND","OK",73013,35.6280485990001,-97.5664885959999,375,"15604 ALLEGHENY DRIVE, EDMOND, OK, 73013","Match","Exact","15604 ALLEGHENY DR, EDMOND, OK, 73013",100425211,"R"
215376,"15604 CASHMERE LANE","TAMPA","FL",33624,28.092904751,-82.513909314,376,"15604 CASHMERE LANE, TAMPA, FL, 33624","Match","Exact","15604 CASHMERE LN, TAMPA, FL, 33624",104510076,"R"
215377,"15604 COUNTRY LAKE DRIVE","PINEVILLE","NC",28134,35.081805493,-80.908927906,377,"15604 COUNTRY LAKE DRIVE, PINEVILLE, NC, 28134","Match","Exact","15604 COUNTRY LAKE DR, PINEVILLE, NC, 28134",641598661,"L"
215378,"15604 GADDY RD","SHAWNEE","OK",74801,35.337910901,-97.000723186,378,"15604 GADDY RD, SHAWNEE, OK, 74801","Match","Exact","15604 GADDY RD, SHAWNEE, OK, 74801",607103220,"L"
215379,"15604 GLENCREST AVENUE","DELRAY BEACH","FL",33446,26.4443722680001,-80.172262377,379,"15604 GLENCREST AVENUE, DELRAY BEACH, FL, 33446","Match","Exact","15604 GLENCREST AVE, DELRAY BEACH, FL, 33446",636287052,"R"
215380,"15604 NW 12 RD","PEMBROKE PINES","FL",33028,26.0204335070001,-80.351938763,380,"15604 NW 12 RD, PEMBROKE PINES, FL, 33028","Match","Non_Exact","15604 NW 12TH RD, PEMBROKE PINES, FL, 33028",114790201,"L"
215381,"15604 POLE PINE POINT","COLORADO SPRINGS","CO",80908,39.062497803,-104.610645056,381,"15604 POLE PINE POINT, COLORADO SPRINGS, CO, 80908","Match","Exact","15604 POLE PINE PT, COLORADO SPRINGS, CO, 80908",610676336,"L"
215382,"15605 BELFIN DR","AUSTIN","TX",78717,30.4945120150001,-97.7639755879999,382,"15605 BELFIN DR, AUSTIN, TX, 78717","Match","Exact","15605 BELFIN DR, AUSTIN, TX, 78717",630300035,"R"
215383,"15605 CASSANDRA PLACE","TAMPA","FL",33624,28.092327767,-82.512999603,383,"15605 CASSANDRA PLACE, TAMPA, FL, 33624","Match","Exact","15605 CASSANDRA PL, TAMPA, FL, 33624",104510078,"R"
215384,"15605 CONGO LANE","JERSEY VILLAGE","TX",77040,29.884097776,-95.55672556,384,"15605 CONGO LANE, JERSEY VILLAGE, TX, 77040","Match","Exact","15605 CONGO LN, JERSEY VILLAGE, TX, 77040",96019058,"R"
215385,"15605 EVERGLADE LANE APT 203","BOWIE","MD",20716,NA,NA,385,"15605 EVERGLADE LANE APT 203, BOWIE, MD, 20716","No_Match",NA,NA,NA,NA
215386,"15605 EVERGLAE LANE APT 203","BOWIE","MD",20716,NA,NA,386,"15605 EVERGLAE LANE APT 203, BOWIE, MD, 20716","No_Match",NA,NA,NA,NA
215387,"15605 FOX RUN DRIVE","AUSTIN","TX",78737,30.1580470060001,-97.967742723,387,"15605 FOX RUN DRIVE, AUSTIN, TX, 78737","Match","Exact","15605 FOX RUN DR, AUSTIN, TX, 78737",63847784,"R"
215388,"15605 GEORGE WASHINGTON DR","SOUTHFIELD","MI",48075,42.471990938,-83.203375517,388,"15605 GEORGE WASHINGTON DR, SOUTHFIELD, MI, 48075","Match","Exact","15605 GEORGE WASHINGTON DR, SOUTHFIELD, MI, 48075",69740129,"L"
215389,"15605 GLACIER HWY","JUNEAU","AK",99801,58.3951954200001,-134.747262025,389,"15605 GLACIER HWY, JUNEAU, AK, 99801","Match","Exact","15605 GLACIER HWY, JUNEAU, AK, 99801",190969677,"R"
215390,"15605 HWY 123","HAGARVILLE","AR",72839,35.5545322830001,-93.316755741,390,"15605 HWY 123, HAGARVILLE, AR, 72839","Match","Non_Exact","15605 STATE HWY 123, HAGARVILLE, AR, 72839",73530712,"R"
215391,"15605 NE 10TH ST","VANCOUVER","WA",98684,45.628795483,-122.512082074,391,"15605 NE 10TH ST, VANCOUVER, WA, 98684","Match","Non_Exact","15605 NE 10TH ST, VANCOUVER, WA, 98684",158357401,"L"
215392,"15605 NE 1ST PL","BELLEVUE","WA",98008,47.6105540250001,-122.131863518,392,"15605 NE 1ST PL, BELLEVUE, WA, 98008","Match","Exact","15605 NE 1ST PL, BELLEVUE, WA, 98008",239772945,"R"
215393,"15606 EVERGLADE LANE APT 204","BOWIE","MD",20716,38.939821157,-76.734075305,393,"15606 EVERGLADE LANE APT 204, BOWIE, MD, 20716","Match","Exact","15606 EVERGLADE LN, BOWIE, MD, 20716",638378026,"R"
215394,"15606 FOREST CREEK FARMS DRIVE","CYPRESS","TX",77429,30.005531121,-95.65966647,394,"15606 FOREST CREEK FARMS DRIVE, CYPRESS, TX, 77429","Match","Exact","15606 FOREST CREEK FARMS DR, CYPRESS, TX, 77429",627777270,"R"
215395,"15606 GOV HARRISON PKWY","LAWRENCEVILLE","VA",23868,36.781026787,-77.793684791,395,"15606 GOV HARRISON PKWY, LAWRENCEVILLE, VA, 23868","Match","Exact","15606 GOVERNOR HARRISON PKWY, LAWRENCEVILLE, VA, 23868",54042890,"R"
215396,"15606 MARTINEAU ST","HOUSTON","TX",77032,29.945792764,-95.3597726039999,396,"15606 MARTINEAU ST, HOUSTON, TX, 77032","Match","Exact","15606 MARTINEAU ST, HOUSTON, TX, 77032",96044854,"R"
215397,"15606 MIRA MONTE COURT","HOUSTON","TX",77083,29.696139589,-95.661498114,397,"15606 MIRA MONTE COURT, HOUSTON, TX, 77083","Match","Exact","15606 MIRA MONTE CT, HOUSTON, TX, 77083",233371027,"R"
215398,"15606 N PLATTE DR","BOWIE","MD",20716,38.9286663450001,-76.735496914,398,"15606 N PLATTE DR, BOWIE, MD, 20716","Match","Exact","15606 PLATTE DR, BOWIE, MD, 20716",76331309,"R"
215399,"15606 NAHIN LN","SANTA CLARITA","CA",91387,34.44420869,-118.407870623,399,"15606 NAHIN LN, SANTA CLARITA, CA, 91387","Match","Exact","15606 NAHIN LN, SANTA CLARITA, CA, 91387",635442264,"R"
215400,"15606 NE 40TH ST","REDMOND","WA",98052,47.6460507950001,-122.13207157,400,"15606 NE 40TH ST, REDMOND, WA, 98052","Match","Exact","15606 NE 40TH ST, REDMOND, WA, 98052",187067002,"L"
215401,"15606 PENDIO DR","MONTVERDE","FL",34756,NA,NA,401,"15606 PENDIO DR, MONTVERDE, FL, 34756","No_Match",NA,NA,NA,NA
215402,"15606 PROVINICAL LANE","FISHERS","IN",46040,39.9399543270001,-85.882818729,402,"15606 PROVINICAL LANE, FISHERS, IN, 46040","Match","Non_Exact","15606 PROVINCIAL LN, FISHERS, IN, 46040",646623239,"L"
215403,"15606 PUMPKIN PL","FONTANA","CA",92336,34.111295957,-117.465597347,403,"15606 PUMPKIN PL, FONTANA, CA, 92336","Match","Exact","15606 PUMPKIN PL, FONTANA, CA, 92336",650694989,"R"
215404,"15606 S BUDLONG PL 6","GARDENA","CA",90427,NA,NA,404,"15606 S BUDLONG PL 6, GARDENA, CA, 90427","No_Match",NA,NA,NA,NA
215405,"15606 S BUDLONG PL 6","TOWNSEND","CA",90427,NA,NA,405,"15606 S BUDLONG PL 6, TOWNSEND, CA, 90427","No_Match",NA,NA,NA,NA
215406,"15606 SIMONDS ST","GRANADA HILLS","CA",91344,34.276271056,-118.471826285,406,"15606 SIMONDS ST, GRANADA HILLS, CA, 91344","Match","Exact","15606 SIMONDS ST, GRANADA HILLS, CA, 91344",141546870,"L"
215407,"15606 STONEBRIDGE DR","FRISCO","TX",75035,33.16870707,-96.735043823,407,"15606 STONEBRIDGE DR, FRISCO, TX, 75035","Match","Exact","15606 STONEBRIDGE DR, FRISCO, TX, 75035",635383063,"R"
215408,"15606 TREASURER AVENUE","BATON ROUGE","LA",70817,30.381652934,-91.0107106459999,408,"15606 TREASURER AVENUE, BATON ROUGE, LA, 70817","Match","Exact","15606 TREASURER AVE, BATON ROUGE, LA, 70817",92206319,"L"
215409,"15607 COUNTY ROAD 1870","LUBBOCK","TX",79424,33.4516001210001,-101.92503824,409,"15607 COUNTY ROAD 1870, LUBBOCK, TX, 79424","Match","Exact","15607 CO RD 1870, LUBBOCK, TX, 79424",185272048,"L"
215410,"15607 CR 44","GOSHEN","IN",46526,41.509271776,-85.7628149339999,410,"15607 CR 44, GOSHEN, IN, 46526","Match","Exact","15607 CO RD 44, GOSHEN, IN, 46526",7756946,"L"
215411,"15607 DETROIT AVE APT 1","LAKEWOOD","OH",44107,41.485115384,-81.806219761,411,"15607 DETROIT AVE APT 1, LAKEWOOD, OH, 44107","Match","Non_Exact","15607 DETROIT RD, LAKEWOOD, OH, 44107",61100046,"L"
215412,"15607 EVERGLADE LANE UNIT B102","BOWIE","MD",20716,38.9398907790001,-76.733877374,412,"15607 EVERGLADE LANE UNIT B102, BOWIE, MD, 20716","Match","Exact","15607 EVERGLADE LN, BOWIE, MD, 20716",638378027,"R"
215413,"15607 GRASSY DRIVE","HUNTERTOWN","IN",46748,NA,NA,413,"15607 GRASSY DRIVE, HUNTERTOWN, IN, 46748","No_Match",NA,NA,NA,NA
215414,"15607 HARVARD AVENUE","CLEVELAND","OH",44128,41.449770841,-81.57123317,414,"15607 HARVARD AVENUE, CLEVELAND, OH, 44128","Match","Non_Exact","15607 HARVARD AVE E, CLEVELAND, OH, 44128",61127479,"L"
215415,"15607 HUMBERSIDE WAY","UPPER MARLBORO","MD",20774,38.8518793380001,-76.7350299999999,415,"15607 HUMBERSIDE WAY, UPPER MARLBORO, MD, 20774","Match","Exact","15607 HUMBERSIDE WAY, UPPER MARLBORO, MD, 20774",76417267,"R"
215416,"15607 N 174TH LANE","SURPRISE","AZ",85388,33.626032733,-112.434334296,416,"15607 N 174TH LANE, SURPRISE, AZ, 85388","Match","Exact","15607 N 174TH LN, SURPRISE, AZ, 85388",243971650,"R"
215417,"15607 PLAID DR","LAUREL","MD",20707,39.104190503,-76.884909167,417,"15607 PLAID DR, LAUREL, MD, 20707","Match","Exact","15607 PLAID DR, LAUREL, MD, 20707",76325211,"R"
215418,"15607 ROSE","SOUTH HOLLAND","IL",60473,41.6118571850001,-87.601867826,418,"15607 ROSE, SOUTH HOLLAND, IL, 60473","Match","Non_Exact","15607 ROSE DR, SOUTH HOLLAND, IL, 60473",111779970,"L"
215419,"15607 S 26TH W AVE","GLENPOOL","OK",74033,35.9374114170001,-96.020619273,419,"15607 S 26TH W AVE, GLENPOOL, OK, 74033","Match","Exact","15607 S 26TH WEST AVE, GLENPOOL, OK, 74033",642129353,"L"
215420,"15607 WINDING MOSS DRIVE","HOUSTON","TX",77068,30.011856859,-95.4875476989999,420,"15607 WINDING MOSS DRIVE, HOUSTON, TX, 77068","Match","Exact","15607 WINDING MOSS DR, HOUSTON, TX, 77068",96008701,"L"
215421,"15607","HOUSTON","TX",77095,NA,NA,421,"15607, HOUSTON, TX, 77095","No_Match",NA,NA,NA,NA
215422,"15608 FARMINGTON CRT","ACCOKEEK","MD",20607,38.6729177660001,-77.0231756859999,422,"15608 FARMINGTON CRT, ACCOKEEK, MD, 20607","Match","Exact","15608 FARMINGTON CT, ACCOKEEK, MD, 20607",76336540,"R"
215423,"15608 HENRIETTA DR","ACCOKEEK","MD",20607,38.6759406350001,-77.0027123679999,423,"15608 HENRIETTA DR, ACCOKEEK, MD, 20607","Match","Exact","15608 HENRIETTA DR, ACCOKEEK, MD, 20607",639597351,"L"
215424,"15608 JEANETTE","SOUTHFIELD","MI",48075,42.4756107970001,-83.203766635,424,"15608 JEANETTE, SOUTHFIELD, MI, 48075","Match","Non_Exact","15608 JEANETTE ST, SOUTHFIELD, MI, 48075",69740108,"R"
215425,"15608 SKYLARK AVE","FONTANA","CA",92336,34.1337224850001,-117.464502094,425,"15608 SKYLARK AVE, FONTANA, CA, 92336","Match","Exact","15608 SKYLARK AVE, FONTANA, CA, 92336",145000719,"L"
215426,"15608 SUMMER LAKE DR","CHESTERFIELD","MO",63017,38.639715691,-90.559102325,426,"15608 SUMMER LAKE DR, CHESTERFIELD, MO, 63017","Match","Exact","15608 SUMMER LAKE DR, CHESTERFIELD, MO, 63017",100173432,"L"
215427,"15608 SW 103 TERRACE","MIAMI","FL",33196,25.670237915,-80.448231418,427,"15608 SW 103 TERRACE, MIAMI, FL, 33196","Match","Exact","15608 SW 103RD TER, MIAMI, FL, 33196",116062720,"L"
215428,"15608 VAN EATON CIR","D'IBERVILLE","MS",39540,NA,NA,428,"15608 VAN EATON CIR, D'IBERVILLE, MS, 39540","No_Match",NA,NA,NA,NA
215429,"15608 W DEVONSHIRE AVE","GOODYEAR","AZ",85395,33.49504749,-112.39499174,429,"15608 W DEVONSHIRE AVE, GOODYEAR, AZ, 85395","Match","Exact","15608 W DEVONSHIRE AVE, GOODYEAR, AZ, 85395",243955180,"L"
215430,"15608 W MEADOW BROOKE","GOOD YEAR","AZ",85395,33.502621628,-112.395043847,430,"15608 W MEADOW BROOKE, GOOD YEAR, AZ, 85395","Match","Non_Exact","15608 W MEADOWBROOK AVE, GOODYEAR, AZ, 85395",243963841,"L"
215431,"15608 WATERFRONT DRIVE","HUNTERSVILLE","NC",28078,35.4278535230001,-80.854570194,431,"15608 WATERFRONT DRIVE, HUNTERSVILLE, NC, 28078","Match","Exact","15608 WATERFRONT DR, HUNTERSVILLE, NC, 28078",70627239,"L"
215432,"15609 CHADSEY LANE","BRANDYWINE","MD",20613,38.6760341410001,-76.883473338,432,"15609 CHADSEY LANE, BRANDYWINE, MD, 20613","Match","Exact","15609 CHADSEY LN, BRANDYWINE, MD, 20613",624428339,"R"
215433,"15609 SHADOW MOUNTAIN DR","EDMOND","OK",73013,35.628502897,-97.5609310359999,433,"15609 SHADOW MOUNTAIN DR, EDMOND, OK, 73013","Match","Exact","15609 SHADOW MOUNTAIN DR, EDMOND, OK, 73013",100392607,"R"
215434,"15609 WEMBROUGH STREET","SILVER SPRING","MD",20905,39.1121675040001,-76.9844399249999,434,"15609 WEMBROUGH STREET, SILVER SPRING, MD, 20905","Match","Exact","15609 WEMBROUGH ST, SILVER SPRING, MD, 20905",62072430,"R"
215435,"1561  48TH AVE 3","SAN FRANCISCO","CA",94122,37.757357363,-122.5078629,435,"1561  48TH AVE 3, SAN FRANCISCO, CA, 94122","Match","Exact","1561 48TH AVE, SAN FRANCISCO, CA, 94122",192276905,"R"
215436,"1561  OLD HIGHWAY 8","NEW BRIGHTON","MN",55112,45.074309176,-93.189448864,436,"1561  OLD HIGHWAY 8, NEW BRIGHTON, MN, 55112","Match","Exact","1561 OLD HWY 8, NEW BRIGHTON, MN, 55112",642757593,"R"
215437,"1561 14TH STREET","RIVIERA BEACH","FL",33404,26.774980455,-80.081435438,437,"1561 14TH STREET, RIVIERA BEACH, FL, 33404","Match","Non_Exact","1561 W 14TH ST, RIVIERA BEACH, FL, 33404",115268421,"L"
215438,"1561 150TH STREET","WAVERLY","IA",50677,42.8329309200001,-92.443076584,438,"1561 150TH STREET, WAVERLY, IA, 50677","Match","Exact","1561 150TH ST, WAVERLY, IA, 50677",642817201,"R"
215439,"1561 3RD ST","MANHATTAN BEACH","CA",90266,33.880945329,-118.386032108,439,"1561 3RD ST, MANHATTAN BEACH, CA, 90266","Match","Exact","1561 3RD ST, MANHATTAN BEACH, CA, 90266",141582880,"L"
215440,"1561 9TH STREET","MANHATTAN BEACH","CA",90266,33.8846726370001,-118.386040219,440,"1561 9TH STREET, MANHATTAN BEACH, CA, 90266","Match","Exact","1561 9TH ST, MANHATTAN BEACH, CA, 90266",141582778,"L"
215441,"1561 ADAMS ROAD","YUBA CITY","CA",95993,39.1496990790001,-121.659805676,441,"1561 ADAMS ROAD, YUBA CITY, CA, 95993","Match","Exact","1561 ADAMS RD, YUBA CITY, CA, 95993",647290607,"R"
215442,"1561 ADELINE ST","YUBA CITY","CA",95993,39.1289688320001,-121.640205875,442,"1561 ADELINE ST, YUBA CITY, CA, 95993","Match","Exact","1561 ADELINE ST, YUBA CITY, CA, 95993",68568025,"R"
215443,"1561 AKRON PENINSULA RD","AKRON","OH",44313,41.137782207,-81.547407375,443,"1561 AKRON PENINSULA RD, AKRON, OH, 44313","Match","Exact","1561 AKRON PENINSULA RD, AKRON, OH, 44313",61338982,"R"
215444,"1561 BALLARD","LANSING","MI",48906,42.7509211230001,-84.539958279,444,"1561 BALLARD, LANSING, MI, 48906","Match","Non_Exact","1561 BALLARD ST, LANSING, MI, 48906",17499388,"L"
215445,"1561 BAY POINT DR","VIRGINIA BEACH","VA",23454,36.888537855,-76.0343902989999,445,"1561 BAY POINT DR, VIRGINIA BEACH, VA, 23454","Match","Exact","1561 BAY POINT DR, VIRGINIA BCH, VA, 23454",122279464,"L"
215446,"1561 BAY POINT DRIVE","VIRGINIA BEACH","VA",23454,36.888537855,-76.0343902989999,446,"1561 BAY POINT DRIVE, VIRGINIA BEACH, VA, 23454","Match","Exact","1561 BAY POINT DR, VIRGINIA BCH, VA, 23454",122279464,"L"
215447,"1561 BLOOMFIELD WAY","LANDISVILLE","PA",17538,NA,NA,447,"1561 BLOOMFIELD WAY, LANDISVILLE, PA, 17538","No_Match",NA,NA,NA,NA
215448,"1561 BLUE WATER TERRACE NORTH","POMPANO","FL",33067,NA,NA,448,"1561 BLUE WATER TERRACE NORTH, POMPANO, FL, 33067","No_Match",NA,NA,NA,NA
215449,"1561 BOOTH","TOLEDO","OH",43608,41.6842919380001,-83.514857593,449,"1561 BOOTH, TOLEDO, OH, 43608","Match","Non_Exact","1561 BOOTH AVE, TOLEDO, OH, 43608",33955812,"R"
215450,"1561 BRADY LAND","WINNETT","MT",59087,NA,NA,450,"1561 BRADY LAND, WINNETT, MT, 59087","No_Match",NA,NA,NA,NA
215451,"1561 BROOKWOOD LAKE DR","SNELLVILLE","GA",30078,33.875853309,-84.034601766,451,"1561 BROOKWOOD LAKE DR, SNELLVILLE, GA, 30078","Match","Exact","1561 BROOKWOOD LAKE DR, SNELLVILLE, GA, 30078",88919886,"R"
215452,"1561 CEDAR RIDGE RD","KENDRICK","ID",83537,46.6492027400001,-116.502765654,452,"1561 CEDAR RIDGE RD, KENDRICK, ID, 83537","Match","Exact","1561 CEDAR RIDGE RD, KENDRICK, ID, 83537",193872300,"L"
215453,"1561 COLUMBIA CIR","DECATUR","GA",30032,33.745839244,-84.257267597,453,"1561 COLUMBIA CIR, DECATUR, GA, 30032","Match","Exact","1561 COLUMBIA CIR, DECATUR, GA, 30032",23369867,"R"
215454,"1561 CRAIGLEE WAY","SAN RAMON","CA",94582,37.764028969,-121.896123147,454,"1561 CRAIGLEE WAY, SAN RAMON, CA, 94582","Match","Exact","1561 CRAIGLEE WAY, SAN RAMON, CA, 94582",192115718,"L"
215455,"1561 DORTHEN","GROSSE POINTE PARK","MI",48236,42.4280472350001,-82.9075055609999,455,"1561 DORTHEN, GROSSE POINTE PARK, MI, 48236","Match","Non_Exact","1561 DORTHEN AVE, GROSSE POINTE PARK, MI, 48236",95720399,"L"
215456,"1561 DUBLIN COURT","SHAKOPEE","MN",55379,44.7771706460001,-93.493626233,456,"1561 DUBLIN COURT, SHAKOPEE, MN, 55379","Match","Exact","1561 DUBLIN CT, SHAKOPEE, MN, 55379",606967855,"L"
215457,"1561 E HIGHLAND TRAILS RD","ENOCH","UT",84721,37.770441224,-113.029669009,457,"1561 E HIGHLAND TRAILS RD, ENOCH, UT, 84721","Match","Non_Exact","1561 HIGHLAND TRLS DR, ENOCH, UT, 84721",165421061,"L"
215458,"1561 EAST NORTHVIEW","MCPHERSON","KS",67460,NA,NA,458,"1561 EAST NORTHVIEW, MCPHERSON, KS, 67460","No_Match",NA,NA,NA,NA
215459,"1561 EASTRIDGE PKWY","SEGUIN","TX",78155,29.567506737,-97.937557127,459,"1561 EASTRIDGE PKWY, SEGUIN, TX, 78155","Match","Exact","1561 EASTRIDGE PKWY, SEGUIN, TX, 78155",54836348,"R"
215460,"1561 ELLIS ROAD","GREENVILLE","MS",38701,33.3023202110001,-91.081765761,460,"1561 ELLIS ROAD, GREENVILLE, MS, 38701","Match","Exact","1561 ELLIS RD, GREENVILLE, MS, 38701",1184258,"R"
215461,"1561 GLENLAKE CIRCLE","NICEVILLE","FL",32578,30.482557247,-86.42639064,461,"1561 GLENLAKE CIRCLE, NICEVILLE, FL, 32578","Match","Exact","1561 GLENLAKE CIR, NICEVILLE, FL, 32578",74450053,"R"
215462,"1561 GREEN OAK CIR","LAWRENCEVILLE","GA",30043,33.9855678120001,-84.016991336,462,"1561 GREEN OAK CIR, LAWRENCEVILLE, GA, 30043","Match","Non_Exact","1561 GREEN OAK CIR NW, LAWRENCEVILLE, GA, 30043",88943461,"R"
215463,"1561 HANNUM DRIVE","STREETSBORO","OH",44241,41.262763009,-81.333392512,463,"1561 HANNUM DRIVE, STREETSBORO, OH, 44241","Match","Exact","1561 HANNUM DR, STREETSBORO, OH, 44241",617297863,"R"
215464,"1561 IRONWOOD","GILMER","TX",75644,32.6754242580001,-95.023932358,464,"1561 IRONWOOD, GILMER, TX, 75644","Match","Non_Exact","1561 IRONWOOD RD, GILMER, TX, 75644",243117209,"L"
215465,"1561 JACKSON STREET","ALIQUIPPA",NA,NA,40.6112755770001,-80.2676658,465,"1561 JACKSON STREET, ALIQUIPPA, , ","Match","Exact","1561 JACKSON ST, ALIQUIPPA, PA, 15001",629021189,"L"
215466,"1561 JEFFERSON AVE","BRUNSWICK","OH",44212,41.2329235340001,-81.846529115,466,"1561 JEFFERSON AVE, BRUNSWICK, OH, 44212","Match","Exact","1561 JEFFERSON AVE, BRUNSWICK, OH, 44212",58691207,"R"
215467,"1561 JOINER PARKWAY","LINCOLN","CA",95648,38.9067407700001,-121.318781838,467,"1561 JOINER PARKWAY, LINCOLN, CA, 95648","Match","Exact","1561 JOINER PKWY, LINCOLN, CA, 95648",645695925,"L"
215468,"1561 JUNCTION ROAD","STRASBURG","VA",22657,39.01127209,-78.3930450719999,468,"1561 JUNCTION ROAD, STRASBURG, VA, 22657","Match","Exact","1561 JUNCTION RD, STRASBURG, VA, 22657",636651694,"L"
215469,"1561 KILBORNE DR","LINCOLNTON","NC",28092,35.50953507,-81.20294003,469,"1561 KILBORNE DR, LINCOLNTON, NC, 28092","Match","Exact","1561 KILBORNE DR, LINCOLNTON, NC, 28092",69535600,"L"
215470,"1561 LAGUNA RD","SANTA ROSA","CA",95401,38.4558283060001,-122.846770078,470,"1561 LAGUNA RD, SANTA ROSA, CA, 95401","Match","Exact","1561 LAGUNA RD, SANTA ROSA, CA, 95401",67504791,"R"
215471,"1561 LINCOLN PLACE APT 2A","BROOKLYN","NY",11233,40.669381726,-73.924389349,471,"1561 LINCOLN PLACE APT 2A, BROOKLYN, NY, 11233","Match","Exact","1561 LINCOLN PL, BROOKLYN, NY, 11233",652212713,"L"
215472,"1561 LINDACREST DRIVE","BEVERLY HILLS","CA",90210,34.099095988,-118.404403641,472,"1561 LINDACREST DRIVE, BEVERLY HILLS, CA, 90210","Match","Exact","1561 LINDACREST DR, BEVERLY HILLS, CA, 90210",141565712,"L"
215473,"1561 LUGO AVE","CORAL GABLES","FL",33156,25.6526492950001,-80.282771541,473,"1561 LUGO AVE, CORAL GABLES, FL, 33156","Match","Exact","1561 LUGO AVE, CORAL GABLES, FL, 33156",640560256,"R"
215474,"1561 MIDDLE BROOK ROAD","WALNUT COVE","NC",27052,36.3025690280001,-80.182437007,474,"1561 MIDDLE BROOK ROAD, WALNUT COVE, NC, 27052","Match","Exact","1561 MIDDLE BROOK RD, WALNUT COVE, NC, 27052",56337869,"R"
215475,"1561 MORTON AVENUE","LOS ALTOS","CA",94024,37.348045289,-122.069990463,475,"1561 MORTON AVENUE, LOS ALTOS, CA, 94024","Match","Exact","1561 MORTON AVE, LOS ALTOS, CA, 94024",122935706,"L"
215476,"1561 NW 77 WAY","PEMBROKE PINES","FL",33024,26.02292121,-80.2434674799999,476,"1561 NW 77 WAY, PEMBROKE PINES, FL, 33024","Match","Exact","1561 NW 77TH WAY, PEMBROKE PINES, FL, 33024",114712812,"R"
215477,"1561 NW 81 TERR","MIAMI","FL",33147,25.849047442,-80.223939999,477,"1561 NW 81 TERR, MIAMI, FL, 33147","Match","Exact","1561 NW 81ST TER, MIAMI, FL, 33147",642041061,"L"
215478,"1561 OCEAN VIEW LN","POINT ROBERTS","WA",98281,48.9757134920001,-123.074152584,478,"1561 OCEAN VIEW LN, POINT ROBERTS, WA, 98281","Match","Exact","1561 OCEAN VIEW LN, POINT ROBERTS, WA, 98281",183808761,"L"
215479,"1561 OLD HIGHWAY 8 NW","NEW BRIGHTON","MN",55112,45.074309176,-93.189448864,479,"1561 OLD HIGHWAY 8 NW, NEW BRIGHTON, MN, 55112","Match","Exact","1561 OLD HWY 8 NW, NEW BRIGHTON, MN, 55112",642757593,"R"
215480,"1561 OLD HIGHWAY 8","NEW BRIGHTON","MN",55112,45.074309176,-93.189448864,480,"1561 OLD HIGHWAY 8, NEW BRIGHTON, MN, 55112","Match","Exact","1561 OLD HWY 8, NEW BRIGHTON, MN, 55112",642757593,"R"
215481,"1561 OLD LEONARD AVE","COLUMBUS","OH",43219,39.981794511,-82.962572176,481,"1561 OLD LEONARD AVE, COLUMBUS, OH, 43219","Match","Exact","1561 OLD LEONARD AVE, COLUMBUS, OH, 43219",218651374,"R"
215482,"1561 PARKCREST LANE","ATLANTA","GA",30017,33.8608115010001,-83.9906260829999,482,"1561 PARKCREST LANE, ATLANTA, GA, 30017","Match","Non_Exact","1561 PARKCREST LN, GRAYSON, GA, 30017",638652890,"L"
215483,"1561 PARKCREST LANE","GRAYSON","GA",30017,33.8608115010001,-83.9906260829999,483,"1561 PARKCREST LANE, GRAYSON, GA, 30017","Match","Exact","1561 PARKCREST LN, GRAYSON, GA, 30017",638652890,"L"
215484,"1561 PILGRIM ST","AKRON","OH",44305,41.0720197910001,-81.4667979769999,484,"1561 PILGRIM ST, AKRON, OH, 44305","Match","Exact","1561 PILGRIM ST, AKRON, OH, 44305",61351275,"L"
215485,"1561 PONDEROSA LANE","WEST JORDAN","UT",84088,40.5907966610001,-111.935274356,485,"1561 PONDEROSA LANE, WEST JORDAN, UT, 84088","Match","Exact","1561 PONDEROSA LN, WEST JORDAN, UT, 84088",176114807,"R"
215486,"1561 PORT KENYON RD","FERNDALE","CA",95536,40.5953730780001,-124.27631752,486,"1561 PORT KENYON RD, FERNDALE, CA, 95536","Match","Exact","1561 PORT KENYON RD, FERNDALE, CA, 95536",635892853,"R"
215487,"1561 QUAKER STREET","NORTHBRIDGE","MA",1534,42.1355919320001,-71.63792634,487,"1561 QUAKER STREET, NORTHBRIDGE, MA, 1534","Match","Exact","1561 QUAKER ST, NORTHBRIDGE, MA, 01534",40093972,"L"
215488,"1561 RAYMOND ROAD 202","NAPERVILLE","IL",60563,41.79529051,-88.187974879,488,"1561 RAYMOND ROAD 202, NAPERVILLE, IL, 60563","Match","Non_Exact","1561 RAYMOND DR, NAPERVILLE, IL, 60563",646568738,"L"
215489,"1561 REBECCA LN","1561 REBECCA LN","CA",92019,32.7840640860001,-116.924295525,489,"1561 REBECCA LN, 1561 REBECCA LN, CA, 92019","Match","Non_Exact","1561 REBECCA LN, EL CAJON, CA, 92019",195674665,"R"
215490,"1561 REBECCA LN","EL CAJON","CA",92019,32.7840640860001,-116.924295525,490,"1561 REBECCA LN, EL CAJON, CA, 92019","Match","Exact","1561 REBECCA LN, EL CAJON, CA, 92019",195674665,"R"
215491,"1561 RIVERBANK ST","LINCOLN PARK","MI",48146,42.229542151,-83.185811299,491,"1561 RIVERBANK ST, LINCOLN PARK, MI, 48146","Match","Exact","1561 RIVERBANK ST, LINCOLN PARK, MI, 48146",95451344,"L"
215492,"1561 ROSECREAST TERRACE","SAN JOSE","CA",95126,37.3298282390001,-121.922572411,492,"1561 ROSECREAST TERRACE, SAN JOSE, CA, 95126","Match","Non_Exact","1561 ROSECREST TER, SAN JOSE, CA, 95126",123015812,"R"
215493,"1561 S BRISTLE CONE DR","SHOW LOW","AZ",85901,34.234616896,-110.040951011,493,"1561 S BRISTLE CONE DR, SHOW LOW, AZ, 85901","Match","Non_Exact","1561 S BRISTLECONE DR, SHOW LOW, AZ, 85901",172668197,"L"
215494,"1561 S VIENNA RD","SCOTTSBURG","IN",47170,38.6632470500001,-85.769926383,494,"1561 S VIENNA RD, SCOTTSBURG, IN, 47170","Match","Exact","1561 S VIENNA RD, SCOTTSBURG, IN, 47170",642372790,"R"
215495,"1561 SALADO TRAIL","WEATHERFORD","TX",76087,32.77462991,-97.7229913909999,495,"1561 SALADO TRAIL, WEATHERFORD, TX, 76087","Match","Exact","1561 SALADO TRL, WEATHERFORD, TX, 76087",627951991,"L"
215496,"1561 SANTA YNEZ ST","VENTURA","CA",93001,34.2767418610001,-119.27739669,496,"1561 SANTA YNEZ ST, VENTURA, CA, 93001","Match","Exact","1561 SANTA YNEZ ST, VENTURA, CA, 93001",109951364,"L"
215497,"1561 SAUTERN DRIVE","FT MYERS","FL",33919,26.56851263,-81.892596727,497,"1561 SAUTERN DRIVE, FT MYERS, FL, 33919","Match","Exact","1561 SAUTERN DR, FORT MYERS, FL, 33919",118025944,"R"
215498,"1561 SE RIVER RIDGE DR","PORTLAND","OR",97222,45.4274101680001,-122.647793335,498,"1561 SE RIVER RIDGE DR, PORTLAND, OR, 97222","Match","Exact","1561 SE RIVER RIDGE DR, PORTLAND, OR, 97222",157984704,"L"
215499,"1561 SEAMAN FORK ROAD","LEROY","WV",25252,38.874749122,-81.4932763629999,499,"1561 SEAMAN FORK ROAD, LEROY, WV, 25252","Match","Non_Exact","1561 SEAMAN FORK, LE ROY, WV, 25252",649992351,"R"
215500,"1561 SHERIDAN AVENUE APT 22A","BRONX","NY",10457,40.841897702,-73.911097027,500,"1561 SHERIDAN AVENUE APT 22A, BRONX, NY, 10457","Match","Exact","1561 SHERIDAN AVE, BRONX, NY, 10457",640810278,"L"
