"ID","Address","City","State","Zip","lat","long","id","input_address","match_indicator","match_type","matched_address","tiger_line_id","tiger_side"
873001,"803 TOPSAIL DRIVE","BROWNS SUMMIT","NC",27214,36.1572137540001,-79.777593838,1,"803 TOPSAIL DRIVE, BROWNS SUMMIT, NC, 27214","Match","Exact","803 TOPSAIL DR, BROWNS SUMMIT, NC, 27214",627914333,"R"
873002,"803 TOWNCREEK PLACE","CONCORD","NC",28025,35.3912491990001,-80.5516324239999,2,"803 TOWNCREEK PLACE, CONCORD, NC, 28025","Match","Non_Exact","803 TOWNCREEK PL SE, CONCORD, NC, 28025",24909897,"R"
873003,"803 TRAILSIDE COURT","GROVETOWN","GA",30813,33.4738320280001,-82.139603457,3,"803 TRAILSIDE COURT, GROVETOWN, GA, 30813","Match","Exact","803 TRAILSIDE CT, GROVETOWN, GA, 30813",641033120,"L"
873004,"803 TREE CROSSINGS PKWY","HOOVER","AL",35244,33.3580704240001,-86.836372479,4,"803 TREE CROSSINGS PKWY, HOOVER, AL, 35244","Match","Exact","803 TREE CROSSINGS PKWY, HOOVER, AL, 35244",637680962,"L"
873005,"803 TUESDAY WAY","JONESBORO","GA",30327,33.511778565,-84.416537857,5,"803 TUESDAY WAY, JONESBORO, GA, 30327","Match","Non_Exact","803 TUESDAY WAY, JONESBORO, GA, 30238",23321135,"R"
873006,"803 VALLEJO WAY","SACRAMENTO","CA",95818,38.557106812,-121.506445652,6,"803 VALLEJO WAY, SACRAMENTO, CA, 95818","Match","Exact","803 VALLEJO WAY, SACRAMENTO, CA, 95818",133321970,"L"
873007,"803 VAN BRIGGLE PATH","SUGAR HILL","GA",30518,34.140741539,-84.07583453,7,"803 VAN BRIGGLE PATH, SUGAR HILL, GA, 30518","Match","Non_Exact","803 VAN BRIGGLE PATH NE, SUGAR HILL, GA, 30518",634065592,"L"
873008,"803 VILLA POINT PKWY","MCDONOUGH","GA",30253,NA,NA,8,"803 VILLA POINT PKWY, MCDONOUGH, GA, 30253","No_Match",NA,NA,NA,NA
873009,"803 W 10TH ST","WILMINGTON","DE",19801,39.7486292520001,-75.555382147,9,"803 W 10TH ST, WILMINGTON, DE, 19801","Match","Exact","803 W 10TH ST, WILMINGTON, DE, 19801",187257652,"R"
873010,"803 W 180TH ST  APT 34","NEW YORK","NY",10033,40.8500482220001,-73.938893309,10,"803 W 180TH ST  APT 34, NEW YORK, NY, 10033","Match","Non_Exact","803 W 180TH ST, NEW YORK, NY, 10033",59655511,"R"
873011,"803 W 232ND ST UNIT C","TORRANCE","CA",90502,33.815280855,-118.288817471,11,"803 W 232ND ST UNIT C, TORRANCE, CA, 90502","Match","Exact","803 232ND ST, TORRANCE, CA, 90502",640424790,"R"
873012,"803 W 28TH UNIT 106","AUSTIN","TX",78705,NA,NA,12,"803 W 28TH UNIT 106, AUSTIN, TX, 78705","No_Match",NA,NA,NA,NA
873013,"803 W 500 N","SALT LAKE CITY","UT",84116,40.7802043360001,-111.914153579,13,"803 W 500 N, SALT LAKE CITY, UT, 84116","Match","Non_Exact","803 W 500 N, SALT LAKE CITY, UT, 84116",176066648,"L"
873014,"803 W BOSTON","DETROIT","MI",48202,42.3851105800001,-83.091110251,14,"803 W BOSTON, DETROIT, MI, 48202","Match","Non_Exact","803 W BOSTON BLVD, DETROIT, MI, 48202",95732618,"R"
873015,"803 W CALLE LA BOLITA","SAHUARITA","AZ",85629,31.963312193,-110.981757667,15,"803 W CALLE LA BOLITA, SAHUARITA, AZ, 85629","Match","Non_Exact","803 W CLL LA BOLITA, SAHUARITA, AZ, 85629",636079852,"L"
873016,"803 W FARNUM AVE","ROYAL OAK","MI",48067,42.4935658110001,-83.1525169889999,16,"803 W FARNUM AVE, ROYAL OAK, MI, 48067","Match","Exact","803 W FARNUM AVE, ROYAL OAK, MI, 48067",69741829,"L"
873017,"803 W JOURDAN- APT B3","NEWTON","IL",62448,NA,NA,17,"803 W JOURDAN- APT B3, NEWTON, IL, 62448","No_Match",NA,NA,NA,NA
873018,"803 W JULIA WAY","HANFORD","CA",93230,36.364964651,-119.655864568,18,"803 W JULIA WAY, HANFORD, CA, 93230","Match","Exact","803 W JULIA WAY, HANFORD, CA, 93230",197994039,"L"
873019,"803 W MAIN ST","TUTTLE","OK",73089,35.2907978310001,-97.82276032,19,"803 W MAIN ST, TUTTLE, OK, 73089","Match","Exact","803 W MAIN ST, TUTTLE, OK, 73089",648525072,"R"
873020,"803 W MAIN","WASHINGTON","IA",52353,NA,NA,20,"803 W MAIN, WASHINGTON, IA, 52353","No_Match",NA,NA,NA,NA
873021,"803 W MCCOY ST","OAKESDALE","WA",99158,47.12628956,-117.253308829,21,"803 W MCCOY ST, OAKESDALE, WA, 99158","Match","Exact","803 W MCCOY ST, OAKESDALE, WA, 99158",173318230,"L"
873022,"803 W OKLAHOMA DRIVE","LAVERNE","OK",73848,36.7006345030001,-99.89636623,22,"803 W OKLAHOMA DRIVE, LAVERNE, OK, 73848","Match","Exact","803 OKLAHOMA DR, LAVERNE, OK, 73848",198231525,"R"
873023,"803 W RICKELMAN AVE","EFFINGHAM","IL",62401,39.149354347,-88.5545916789999,23,"803 W RICKELMAN AVE, EFFINGHAM, IL, 62401","Match","Exact","803 W RICKELMAN AVE, EFFINGHAM, IL, 62401",94767140,"L"
873024,"803 W UNIVERSITY AVE","CHAMPAIGN","IL",61820,40.1162807920001,-88.256121935,24,"803 W UNIVERSITY AVE, CHAMPAIGN, IL, 61820","Match","Exact","803 W UNIVERSITY AVE, CHAMPAIGN, IL, 61820",8810073,"L"
873025,"803 W WILLIAM ST","MONTICELLO","IL",61856,40.021204916,-88.582187875,25,"803 W WILLIAM ST, MONTICELLO, IL, 61856","Match","Exact","803 W WILLIAM ST, MONTICELLO, IL, 61856",649835222,"L"
873026,"803 W YOUNG ST","POCATELLO","ID",83204,42.8661797140001,-112.465651604,26,"803 W YOUNG ST, POCATELLO, ID, 83204","Match","Exact","803 W YOUNG ST, POCATELLO, ID, 83204",639771310,"R"
873027,"803 WAGNER ST","MIDLAND","TX",79706,31.985839501,-102.161764979,27,"803 WAGNER ST, MIDLAND, TX, 79706","Match","Exact","803 WAGNER ST, MIDLAND, TX, 79706",640792158,"R"
873028,"803 WALNUT AVE","BREA","CA",92821,33.9084455490001,-117.906036132,28,"803 WALNUT AVE, BREA, CA, 92821","Match","Non_Exact","803 S WALNUT AVE, BREA, CA, 92821",144007433,"R"
873029,"803 WALNUT STREET","TALLADEGA","AL",35160,33.425313363,-86.095503492,29,"803 WALNUT STREET, TALLADEGA, AL, 35160","Match","Exact","803 WALNUT ST, TALLADEGA, AL, 35160",66917361,"L"
873030,"803 WASHINGTON STREET","PORTSMOUTH","VA",23704,36.8329077550001,-76.3037476069999,30,"803 WASHINGTON STREET, PORTSMOUTH, VA, 23704","Match","Exact","803 WASHINGTON ST, PORTSMOUTH, VA, 23704",647885022,"L"
873031,"803 WATERFORD PL","PINOLE","CA",94564,38.0010934410001,-122.317271519,31,"803 WATERFORD PL, PINOLE, CA, 94564","Match","Exact","803 WATERFORD PL, PINOLE, CA, 94564",192094214,"R"
873032,"803 WEBSTER COURT","SAINT LOUIS","MO",63119,38.606199846,-90.3652615189999,32,"803 WEBSTER COURT, SAINT LOUIS, MO, 63119","Match","Exact","803 WEBSTER CT, SAINT LOUIS, MO, 63119",100135013,"L"
873033,"803 WESLEYAN CT","NEWPORT NEWS","VA",23602,37.1257870530001,-76.4871923969999,33,"803 WESLEYAN CT, NEWPORT NEWS, VA, 23602","Match","Exact","803 WESLEYAN CT, NEWPORT NEWS, VA, 23602",103812485,"R"
873034,"803 WEST 30TH STREET APT 5","LOS ANGELES","CA",90007,34.0264741610001,-118.281192744,34,"803 WEST 30TH STREET APT 5, LOS ANGELES, CA, 90007","Match","Exact","803 W 30TH ST, LOS ANGELES, CA, 90007",141607486,"R"
873035,"803 WEST EMERALD DR APT A","PHARR","TX",78577,NA,NA,35,"803 WEST EMERALD DR APT A, PHARR, TX, 78577","No_Match",NA,NA,NA,NA
873036,"803 WEST OKLAHOMA AVE","MILWAUKEE","WI",53215,42.988272179,-87.921640666,36,"803 WEST OKLAHOMA AVE, MILWAUKEE, WI, 53215","Match","Exact","803 W OKLAHOMA AVE, MILWAUKEE, WI, 53215",77751955,"L"
873037,"803 WESTBROOKE DR","SOUTH LYON","MI",48178,42.451976614,-83.641956796,37,"803 WESTBROOKE DR, SOUTH LYON, MI, 48178","Match","Exact","803 WESTBROOKE DR, SOUTH LYON, MI, 48178",69783981,"L"
873038,"803 WHITEHAVEN CT","ANTIOCH","CA",94509,37.9927839170001,-121.815845004,38,"803 WHITEHAVEN CT, ANTIOCH, CA, 94509","Match","Exact","803 WHITEHAVEN CT, ANTIOCH, CA, 94509",192067705,"L"
873039,"803 WHITEHORSE PIKE APT B4","HADDON TOWNSHIP","NJ",8107,39.9012642320001,-75.0762243359999,39,"803 WHITEHORSE PIKE APT B4, HADDON TOWNSHIP, NJ, 8107","Match","Non_Exact","803 WHITE HORSE PIKE, HADDON TOWNSHIP, NJ, 08107",134350146,"L"
873040,"803 WICKFORD DRIVE","CHESAPEAKE","VA",23320,36.7521059100001,-76.268783108,40,"803 WICKFORD DRIVE, CHESAPEAKE, VA, 23320","Match","Exact","803 WICKFORD DR, CHESAPEAKE, VA, 23320",121775931,"R"
873041,"803 WILDWOOD AVE","SHERWOOD","AR",72120,34.81455249,-92.22224699,41,"803 WILDWOOD AVE, SHERWOOD, AR, 72120","Match","Exact","803 WILDWOOD AVE, SHERWOOD, AR, 72120",83514759,"R"
873042,"803 WILLISTON WAY","WILLISTON","SC",29853,33.3538510930001,-81.3955866479999,42,"803 WILLISTON WAY, WILLISTON, SC, 29853","Match","Exact","803 WILLISTON WAY, WILLISTON, SC, 29853",19067717,"L"
873043,"803 WILSHIRE DR","WASHINGTON","MO",63090,38.5432908880001,-91.0050073099999,43,"803 WILSHIRE DR, WASHINGTON, MO, 63090","Match","Exact","803 WILSHIRE DR, WASHINGTON, MO, 63090",99717780,"R"
873044,"803 WINDSORWOOD DRIVE","THOMASVILLE","AL",36784,31.8840279300001,-87.746891835,44,"803 WINDSORWOOD DRIVE, THOMASVILLE, AL, 36784","Match","Exact","803 WINDSORWOOD DR, THOMASVILLE, AL, 36784",34560934,"R"
873045,"803 WOODLAND AVENUE","SCHENECTADY","NY",12309,42.802369555,-73.906879504,45,"803 WOODLAND AVENUE, SCHENECTADY, NY, 12309","Match","Exact","803 WOODLAND AVE, SCHENECTADY, NY, 12309",18029642,"L"
873046,"803 WOODSDALE RD","WILMINGTON","DE",19809,39.7732678240001,-75.485420647,46,"803 WOODSDALE RD, WILMINGTON, DE, 19809","Match","Exact","803 WOODSDALE RD, WILMINGTON, DE, 19809",187262032,"L"
873047,"803 WOODWIND","KIRKSVILLE","MO",63501,40.218651972,-92.57064173,47,"803 WOODWIND, KIRKSVILLE, MO, 63501","Match","Non_Exact","803 WOODWIND CT, KIRKSVILLE, MO, 63501",24769281,"L"
873048,"803 WURST RD","OCOEE","FL",34761,28.587385426,-81.529778732,48,"803 WURST RD, OCOEE, FL, 34761","Match","Exact","803 WURST RD, OCOEE, FL, 34761",94263967,"R"
873049,"803 YARDLEY AVE","MORRISVILLE","PA",19067,40.234832973,-74.827945799,49,"803 YARDLEY AVE, MORRISVILLE, PA, 19067","Match","Non_Exact","803 YARDLEY CMNS, MORRISVILLE, PA, 19067",134721020,"L"
873050,"803 YELLOWSTONE","TAYLOR","TX",76574,30.5954297440001,-97.423333563,50,"803 YELLOWSTONE, TAYLOR, TX, 76574","Match","Non_Exact","803 YELLOWSTONE DR, TAYLOR, TX, 76574",637901080,"R"
873051,"803 YOSEMITE CIRCLE","DURHAM","NC",27713,35.912235364,-78.922222285,51,"803 YOSEMITE CIRCLE, DURHAM, NC, 27713","Match","Exact","803 YOSEMITE CIR, DURHAM, NC, 27713",71744051,"L"
873052,"803 ZION DRIVE","COLORADO SPRINGS","CO",80910,38.820716088,-104.781607403,52,"803 ZION DRIVE, COLORADO SPRINGS, CO, 80910","Match","Exact","803 ZION DR, COLORADO SPRINGS, CO, 80910",105517263,"L"
873053,"803-A W NAVARRO","LLANO","TX",78643,30.7616590920001,-98.684374952,53,"803-A W NAVARRO, LLANO, TX, 78643","Match","Non_Exact","803 W NAVARRO ST, LLANO, TX, 78643",182241352,"R"
873054,"803","IRON MOUNTAIN","MI",49801,NA,NA,54,"803, IRON MOUNTAIN, MI, 49801","No_Match",NA,NA,NA,NA
873055,"803","MAGNOLIA BEND","TX",78251,NA,NA,55,"803, MAGNOLIA BEND, TX, 78251","No_Match",NA,NA,NA,NA
873056,"803","OAK PARK","IL",60304,NA,NA,56,"803, OAK PARK, IL, 60304","No_Match",NA,NA,NA,NA
873057,"8030 ALEXANDRA LANE","NEWBURGH","IN",47630,37.9653510520001,-87.3966782219999,57,"8030 ALEXANDRA LANE, NEWBURGH, IN, 47630","Match","Exact","8030 ALEXANDRA LN, NEWBURGH, IN, 47630",633832789,"L"
873058,"8030 AMSTERDAM CT","GAINESVILLE","VA",20155,38.7837161890001,-77.643434331,58,"8030 AMSTERDAM CT, GAINESVILLE, VA, 20155","Match","Exact","8030 AMSTERDAM CT, GAINESVILLE, VA, 20155",207163740,"R"
873059,"8030 ASHLAND AVENUE","MANASSAS","VA",20109,38.781549232,-77.503543078,59,"8030 ASHLAND AVENUE, MANASSAS, VA, 20109","Match","Exact","8030 ASHLAND AVE, MANASSAS, VA, 20109",207149888,"R"
873060,"8030 BEVERLY DRIVE - APT 10","ROHNET PARK","CA",94928,38.3318137050001,-122.694706375,60,"8030 BEVERLY DRIVE - APT 10, ROHNET PARK, CA, 94928","Match","Non_Exact","8030 BEVERLY DR, ROHNERT PARK, CA, 94928",67533806,"L"
873061,"8030 BLUEBELL LN","ZEPHYRHILLS","FL",33540,28.2740346050001,-82.1667792599999,61,"8030 BLUEBELL LN, ZEPHYRHILLS, FL, 33540","Match","Non_Exact","8030 BLUE BELL LN, ZEPHYRHILLS, FL, 33540",86365579,"R"
873062,"8030 BROWN TROUT BEND","VICTOR","ID",83455,43.604363972,-111.128856918,62,"8030 BROWN TROUT BEND, VICTOR, ID, 83455","Match","Exact","8030 BROWN TROUT BEND, VICTOR, ID, 83455",119350160,"R"
873063,"8030 CANBY AVE","RESEDA","CA",91335,34.216438668,-118.534455206,63,"8030 CANBY AVE, RESEDA, CA, 91335","Match","Exact","8030 CANBY AVE, RESEDA, CA, 91335",141762715,"R"
873064,"8030 CLEAR HAVEN CIRCLE","ANCHORAGE","AK",99507,61.1480649010001,-149.829362784,64,"8030 CLEAR HAVEN CIRCLE, ANCHORAGE, AK, 99507","Match","Exact","8030 CLEAR HAVEN CIR, ANCHORAGE, AK, 99507",190800395,"L"
873065,"8030 CLEARY BLVD SUITE 306","PLANTATION","FL",33324,26.1340480900001,-80.257321801,65,"8030 CLEARY BLVD SUITE 306, PLANTATION, FL, 33324","Match","Exact","8030 CLEARY BLVD, PLANTATION, FL, 33324",640926329,"R"
873066,"8030 CROOM RD","UPPER MARLBORO","MD",20772,38.7800421050001,-76.7739756619999,66,"8030 CROOM RD, UPPER MARLBORO, MD, 20772","Match","Exact","8030 CROOM RD, UPPER MARLBORO, MD, 20772",76393143,"L"
873067,"8030 DECATUR ST","WESTMINSTER","CO",80030,39.842376975,-105.021429027,67,"8030 DECATUR ST, WESTMINSTER, CO, 80030","Match","Non_Exact","8030 DECATUR ST, WESTMINSTER, CO, 80031",177436187,"L"
873068,"8030 DITMAN ST APT 33","PHILADELPHIA","PA",19136,40.0365007450001,-75.0254251809999,68,"8030 DITMAN ST APT 33, PHILADELPHIA, PA, 19136","Match","Exact","8030 DITMAN ST, PHILADELPHIA, PA, 19136",131445348,"L"
873069,"8030 DITMAN STREET","PHILADELPHIA","PA",19136,40.0365007450001,-75.0254251809999,69,"8030 DITMAN STREET, PHILADELPHIA, PA, 19136","Match","Exact","8030 DITMAN ST, PHILADELPHIA, PA, 19136",131445348,"L"
873070,"8030 EAST RIDGE DRIVE","PLEASANT PRAIRIE","WI",53158,42.5588420120001,-87.9278074169999,70,"8030 EAST RIDGE DRIVE, PLEASANT PRAIRIE, WI, 53158","Match","Exact","8030 E RIDGE DR, PLEASANT PRAIRIE, WI, 53158",79815159,"R"
873071,"8030 EAST STREET","ADAMSVILLE","OH",43802,40.0678139180001,-81.88250525,71,"8030 EAST STREET, ADAMSVILLE, OH, 43802","Match","Exact","8030 EAST ST, ADAMSVILLE, OH, 43802",45591163,"R"
873072,"8030 HAVILAND BEACH DRIVE","LINDEN","MI",48451,42.7885293200001,-83.82508359,72,"8030 HAVILAND BEACH DRIVE, LINDEN, MI, 48451","Match","Exact","8030 HAVILAND BEACH DR, LINDEN, MI, 48451",69587498,"R"
873073,"8030 HIDDEN TERRACE DR","ATLANTA","TX",77479,29.5449768340001,-95.668429793,73,"8030 HIDDEN TERRACE DR, ATLANTA, TX, 77479","Match","Non_Exact","8030 HIDDEN TERRACE DR, SUGAR LAND, TX, 77479",78328061,"L"
873074,"8030 HIDDEN TERRACE DR","SUGAR LANE","TX",77479,29.5449768340001,-95.668429793,74,"8030 HIDDEN TERRACE DR, SUGAR LANE, TX, 77479","Match","Non_Exact","8030 HIDDEN TERRACE DR, SUGAR LAND, TX, 77479",78328061,"L"
873075,"8030 JAMES ISLAND TRAIL","JACKSONVILLE","FL",32256,30.2241344990001,-81.527692422,75,"8030 JAMES ISLAND TRAIL, JACKSONVILLE, FL, 32256","Match","Exact","8030 JAMES ISLAND TRL, JACKSONVILLE, FL, 32256",83937926,"L"
873076,"8030 JIM WOLFE ROAD","CORRYTON","TN",37721,36.1557515530001,-83.80376784,76,"8030 JIM WOLFE ROAD, CORRYTON, TN, 37721","Match","Exact","8030 JIM WOLFE RD, CORRYTON, TN, 37721",42664986,"R"
873077,"8030 JORDAN LANE","MIDLOTHIAN","TX",76065,32.4031389890001,-97.026138716,77,"8030 JORDAN LANE, MIDLOTHIAN, TX, 76065","Match","Exact","8030 JORDAN LN, MIDLOTHIAN, TX, 76065",648646752,"L"
873078,"8030 JORDON LANE","MIDLOTHIAN","TX",76065,32.4031389890001,-97.026138716,78,"8030 JORDON LANE, MIDLOTHIAN, TX, 76065","Match","Non_Exact","8030 JORDAN LN, MIDLOTHIAN, TX, 76065",648646752,"L"
873079,"8030 KIMBERLIN DR S","MOBILE","AL",36695,30.669668868,-88.231413781,79,"8030 KIMBERLIN DR S, MOBILE, AL, 36695","Match","Exact","8030 KIMBERLIN DR S, MOBILE, AL, 36695",61906280,"R"
873080,"8030 LA MESA BLVD 126","LA MESA","CA",91924,NA,NA,80,"8030 LA MESA BLVD 126, LA MESA, CA, 91924","No_Match",NA,NA,NA,NA
873081,"8030 LA MESA BLVD APT 7","LA MESA","CA",91942,32.763393949,-117.023805883,81,"8030 LA MESA BLVD APT 7, LA MESA, CA, 91942","Match","Non_Exact","8030 LA MESA BLVD, LA MESA, CA, 91942",195687628,"L"
873082,"8030 LAURELGROVE AVENUE","NORTH HOLLYWOOD","CA",91405,34.2166015390001,-118.400877615,82,"8030 LAURELGROVE AVENUE, NORTH HOLLYWOOD, CA, 91405","Match","Non_Exact","8030 LAURELGROVE AVE, N HOLLYWOOD, CA, 91605",141552568,"R"
873083,"8030 LONG LAKE ROAD","HALE","MI",48739,44.411139039,-83.848036346,83,"8030 LONG LAKE ROAD, HALE, MI, 48739","Match","Exact","8030 LONG LAKE RD, HALE, MI, 48739",161299376,"R"
873084,"8030 MAUREEN DRIVE","CRANBERRY TWP","PA",16066,40.727645597,-80.0927211549999,84,"8030 MAUREEN DRIVE, CRANBERRY TWP, PA, 16066","Match","Exact","8030 MAUREEN DR, CRANBERRY TOWNSHIP, PA, 16066",634173165,"R"
873085,"8030 MCCONNELL ROAD","DENVER","NC",28037,35.536439355,-80.959055996,85,"8030 MCCONNELL ROAD, DENVER, NC, 28037","Match","Exact","8030 MCCONNELL RD, DENVER, NC, 28037",69536590,"L"
873086,"8030 N CINCINNATI AVE","SPERRY","OK",74073,36.2692251290001,-95.994796437,86,"8030 N CINCINNATI AVE, SPERRY, OK, 74073","Match","Non_Exact","8030 N CINCINNATI DR, SPERRY, OK, 74073",166518012,"L"
873087,"8030 N LENA PALESTINE RD","CONOVER","OH",45317,40.140863057,-84.0319486769999,87,"8030 N LENA PALESTINE RD, CONOVER, OH, 45317","Match","Exact","8030 LENA PALESTINE RD, CONOVER, OH, 45317",207640181,"R"
873088,"8030 NORTH 104TH DRIVE","PEORIA","AZ",85345,33.5518119120001,-112.284545137,88,"8030 NORTH 104TH DRIVE, PEORIA, AZ, 85345","Match","Exact","8030 N 104TH DR, PEORIA, AZ, 85345",128169107,"L"
873089,"8030 NORTH 94TH STREET","MILWAUKEE","WI",53224,43.1638643470001,-88.029153466,89,"8030 NORTH 94TH STREET, MILWAUKEE, WI, 53224","Match","Exact","8030 N 94TH ST, MILWAUKEE, WI, 53224",77767582,"L"
873090,"8030 OLD KING RD S APT 35","JACKSONVILLE","FL",32217,NA,NA,90,"8030 OLD KING RD S APT 35, JACKSONVILLE, FL, 32217","No_Match",NA,NA,NA,NA
873091,"8030 POCAHONTAS TRAIL","WHT SPHR SPGS","WV",24986,37.898752227,-80.220600401,91,"8030 POCAHONTAS TRAIL, WHT SPHR SPGS, WV, 24986","Match","Exact","8030 POCAHONTAS TRL, WHT SPHR SPGS, WV, 24986",646913842,"R"
873092,"8030 S ESSEX AVE","CHICAGO","IL",60619,41.749348748,-87.563771919,92,"8030 S ESSEX AVE, CHICAGO, IL, 60619","Match","Non_Exact","8030 S ESSEX AVE, CHICAGO, IL, 60617",605559437,"R"
873093,"8030 S FALL CREEK RD","WILSON","WY",83014,43.3643563620001,-110.83776014,93,"8030 S FALL CREEK RD, WILSON, WY, 83014","Match","Exact","8030 FALL CREEK RD, WILSON, WY, 83014",130414823,"R"
873094,"8030 SANDORN DR","ROSWELL","GA",30075,34.010793517,-84.384586417,94,"8030 SANDORN DR, ROSWELL, GA, 30075","Match","Exact","8030 SANDORN DR, ROSWELL, GA, 30075",17392095,"L"
873095,"8030 SE CORA STREET","PORTLAND","OR",97206,45.4914101460001,-122.580525292,95,"8030 SE CORA STREET, PORTLAND, OR, 97206","Match","Exact","8030 SE CORA ST, PORTLAND, OR, 97206",157516824,"R"
873096,"8030 SOUTH BLACKSTONE AVENUE","CHICAGO","IL",60619,41.7490237810001,-87.588284745,96,"8030 SOUTH BLACKSTONE AVENUE, CHICAGO, IL, 60619","Match","Exact","8030 S BLACKSTONE AVE, CHICAGO, IL, 60619",111775141,"R"
873097,"8030 SOUTH LOOMIS BOULEVARD","CHICAGO","IL",60620,41.747994647,-87.658530444,97,"8030 SOUTH LOOMIS BOULEVARD, CHICAGO, IL, 60620","Match","Exact","8030 S LOOMIS BLVD, CHICAGO, IL, 60620",111821378,"R"
873098,"8030 STEEPLECHASE DR","PALM BEACH GRD","FL",33418,26.7946957180001,-80.1264051319999,98,"8030 STEEPLECHASE DR, PALM BEACH GRD, FL, 33418","Match","Non_Exact","8030 STEEPLECHASE DR, PALM BEACH GARDENS, FL, 33418",115580167,"L"
873099,"8030 STIRRUP CAY CT","BOYNTON BEACH","FL",33436,26.5549082360001,-80.109466299,99,"8030 STIRRUP CAY CT, BOYNTON BEACH, FL, 33436","Match","Exact","8030 STIRRUP CAY CT, BOYNTON BEACH, FL, 33436",115577684,"L"
873100,"8030 STONE BARN DRIVE","WEST CHESTER","OH",45069,39.3522088930001,-84.407632044,100,"8030 STONE BARN DRIVE, WEST CHESTER, OH, 45069","Match","Exact","8030 STONE BARN DR, WEST CHESTER, OH, 45069",113804858,"R"
873101,"8030 TANNENBAUM ROAD","COLORADO SPRINGS","CO",80908,39.0509182340001,-104.678329494,101,"8030 TANNENBAUM ROAD, COLORADO SPRINGS, CO, 80908","Match","Exact","8030 TANNENBAUM RD, COLORADO SPRINGS, CO, 80908",647966949,"R"
873102,"8030 TIMBERLANE DR","TAMPA","FL",33615,28.0227603880001,-82.596088008,102,"8030 TIMBERLANE DR, TAMPA, FL, 33615","Match","Exact","8030 TIMBERLANE DR, TAMPA, FL, 33615",104633243,"L"
873103,"8030 WHITESTONE RD","KNOXVILLE","TN",37938,36.0837964350001,-83.977157211,103,"8030 WHITESTONE RD, KNOXVILLE, TN, 37938","Match","Exact","8030 WHITESTONE RD, KNOXVILLE, TN, 37938",42665455,"R"
873104,"8030 WOODSEDGE DR","CHARLOTTE","NC",28216,35.347421264,-80.864481558,104,"8030 WOODSEDGE DR, CHARLOTTE, NC, 28216","Match","Exact","8030 WOODSEDGE DR, CHARLOTTE, NC, 28216",70583385,"L"
873105,"8030 YAWBERG RD","WHITEHOUSE","OH",43571,41.494673075,-83.8457882279999,105,"8030 YAWBERG RD, WHITEHOUSE, OH, 43571","Match","Exact","8030 YAWBERG RD, WHITEHOUSE, OH, 43571",33925927,"R"
873106,"80300 CANAL ROAD","HERMISTON","OR",97838,45.8621640170001,-119.22563277,106,"80300 CANAL ROAD, HERMISTON, OR, 97838","Match","Exact","80300 CANAL RD, HERMISTON, OR, 97838",610905162,"L"
873107,"80309 DEER BLUFF LN","FORT WORTH","TX",76179,NA,NA,107,"80309 DEER BLUFF LN, FORT WORTH, TX, 76179","No_Match",NA,NA,NA,NA
873108,"8031 AEGEAN LANE","SHREVEPORT","LA",71106,32.3890163290001,-93.748637629,108,"8031 AEGEAN LANE, SHREVEPORT, LA, 71106","Match","Exact","8031 AEGEAN LN, SHREVEPORT, LA, 71106",624269865,"R"
873109,"8031 ALETHEAN CLUB COURT","CICERO","NY",13039,43.1586776980001,-76.0905172879999,109,"8031 ALETHEAN CLUB COURT, CICERO, NY, 13039","Match","Exact","8031 ALETHEAN CLUB CT, CICERO, NY, 13039",624340484,"L"
873110,"8031 ASPEN AVE NE","ALBUQUERQUE","NM",87110,35.0969122160001,-106.553398733,110,"8031 ASPEN AVE NE, ALBUQUERQUE, NM, 87110","Match","Exact","8031 ASPEN AVE NE, ALBUQUERQUE, NM, 87110",206717833,"L"
873111,"8031 BLOOMSBURY PL","WHITE PLAINS","MD",20695,38.6134225060001,-77.0246261029999,111,"8031 BLOOMSBURY PL, WHITE PLAINS, MD, 20695","Match","Exact","8031 BLOOMSBURY PL, WHITE PLAINS, MD, 20695",626835815,"R"
873112,"8031 BOCA RIO DR","BOCA RATON","FL",33433,26.341466688,-80.1768521989999,112,"8031 BOCA RIO DR, BOCA RATON, FL, 33433","Match","Exact","8031 BOCA RIO DR, BOCA RATON, FL, 33433",115574502,"L"
873113,"8031 BUIST AVE","PHILADELPHIA","PA",19153,39.9027709160001,-75.250474297,113,"8031 BUIST AVE, PHILADELPHIA, PA, 19153","Match","Exact","8031 BUIST AVE, PHILADELPHIA, PA, 19153",131408769,"R"
873114,"8031 COBBLE CREEK CIRCLE","POTOMAC","MD",20854,39.040470097,-77.1638469489999,114,"8031 COBBLE CREEK CIRCLE, POTOMAC, MD, 20854","Match","Exact","8031 COBBLE CREEK CIR, POTOMAC, MD, 20854",62100328,"R"
873115,"8031 COUNTY ROAD 219","TYLER","TX",75707,32.324770238,-95.236808893,115,"8031 COUNTY ROAD 219, TYLER, TX, 75707","Match","Exact","8031 CO RD 219, TYLER, TX, 75707",141278613,"R"
873116,"8031 DUNCAN RANCH LN","RICHMOND","TX",77407,29.685899127,-95.737637041,116,"8031 DUNCAN RANCH LN, RICHMOND, TX, 77407","Match","Exact","8031 DUNCAN RANCH LN, RICHMOND, TX, 77407",642961089,"R"
873117,"8031 E DEL JOYA DR","SCOTTSDALE","AZ",85258,33.5645251170001,-111.907136238,117,"8031 E DEL JOYA DR, SCOTTSDALE, AZ, 85258","Match","Exact","8031 E DEL JOYA DR, SCOTTSDALE, AZ, 85258",640590709,"L"
873118,"8031 FENWAY CIRCLE","REYNOLDSBURG","OH",43068,39.9422681140001,-82.780973504,118,"8031 FENWAY CIRCLE, REYNOLDSBURG, OH, 43068","Match","Exact","8031 FENWAY CIR, REYNOLDSBURG, OH, 43068",61568407,"R"
873119,"8031 GRISWOLD DRIVE","NEW ALBANY","OH",43054,40.0857104020001,-82.806832377,119,"8031 GRISWOLD DRIVE, NEW ALBANY, OH, 43054","Match","Exact","8031 GRISWOLD DR, NEW ALBANY, OH, 43054",218702899,"L"
873120,"8031 LINDA VISTA ROAD STE 210","SAN DIEGO","CA",92111,32.8070618850001,-117.154463352,120,"8031 LINDA VISTA ROAD STE 210, SAN DIEGO, CA, 92111","Match","Exact","8031 LINDA VISTA RD, SAN DIEGO, CA, 92111",195306395,"R"
873121,"8031 LINDA VISTA ROAD SUITE 210","SAN DIEGO","CA",92111,32.8070618850001,-117.154463352,121,"8031 LINDA VISTA ROAD SUITE 210, SAN DIEGO, CA, 92111","Match","Exact","8031 LINDA VISTA RD, SAN DIEGO, CA, 92111",195306395,"R"
873122,"8031 N 9TH AVE","PHOENIX","AZ",85021,33.553591742,-112.08473968,122,"8031 N 9TH AVE, PHOENIX, AZ, 85021","Match","Exact","8031 N 9TH AVE, PHOENIX, AZ, 85021",128203976,"R"
873123,"8031 N MACARTHUR BLVD APT 2121","IRVING","TX",75063,32.921188075,-96.9584876,123,"8031 N MACARTHUR BLVD APT 2121, IRVING, TX, 75063","Match","Non_Exact","8031 N MACARTHUR BLVD, IRVING, TX, 75063",103245946,"L"
873124,"8031 N MILWAUKEE","NILES","IL",60714,42.026799913,-87.814672684,124,"8031 N MILWAUKEE, NILES, IL, 60714","Match","Non_Exact","8031 MILWAUKEE AVE, NILES, IL, 60714",111733120,"R"
873125,"8031 N SR9","GREENFIELD","IN",46140,39.901698335,-85.7706906459999,125,"8031 N SR9, GREENFIELD, IN, 46140","Match","Non_Exact","8031 N STATE RD 9, GREENFIELD, IN, 46140",31075980,"L"
873126,"8031 OCEAN HWY W","SUNSET BEACH","NC",28468,33.941315312,-78.5353113589999,126,"8031 OCEAN HWY W, SUNSET BEACH, NC, 28468","Match","Exact","8031 OCEAN HWY W, SUNSET BEACH, NC, 28468",637943054,"L"
873127,"8031 OLD TOWN DR","ORLANDO","FL",32819,28.480580774,-81.4937022519999,127,"8031 OLD TOWN DR, ORLANDO, FL, 32819","Match","Exact","8031 OLD TOWN DR, ORLANDO, FL, 32819",94316247,"R"
873128,"8031 PERRY CREEK ROAD","RALEIGH","NC",27616,35.885523962,-78.55345233,128,"8031 PERRY CREEK ROAD, RALEIGH, NC, 27616","Match","Exact","8031 PERRY CREEK RD, RALEIGH, NC, 27616",647279871,"L"
873129,"8031 PLEASANT CHAPEL ROAD","NEWARK","OH",43056,39.9761517640001,-82.3341129189999,129,"8031 PLEASANT CHAPEL ROAD, NEWARK, OH, 43056","Match","Non_Exact","8031 PLEASANT CHAPEL RD SE, NEWARK, OH, 43056",647873227,"R"
873130,"8031 ROCKFORD PL","PLEASANTON","CA",94566,37.6248259270001,-121.884046807,130,"8031 ROCKFORD PL, PLEASANTON, CA, 94566","Match","Exact","8031 ROCKFORD PL, PLEASANTON, CA, 94566",125084146,"R"
873131,"8031 SLATER AVE","MT PLEASANT","WI",53406,42.72492335,-87.8819258089999,131,"8031 SLATER AVE, MT PLEASANT, WI, 53406","Match","Exact","8031 SLATER AVE, MOUNT PLEASANT, WI, 53406",77907963,"R"
873132,"8031 SOUTH LOOMIS BLVD","CHICAGO","IL",60620,41.7479948880001,-87.658515751,132,"8031 SOUTH LOOMIS BLVD, CHICAGO, IL, 60620","Match","Exact","8031 S LOOMIS BLVD, CHICAGO, IL, 60620",111821378,"L"
873133,"8031 SOUTHERN PINE WAY","FORT WORTH","TX",76123,32.625425082,-97.3662411129999,133,"8031 SOUTHERN PINE WAY, FORT WORTH, TX, 76123","Match","Exact","8031 SOUTHERN PINE WAY, FORT WORTH, TX, 76123",640620324,"R"
873134,"8031 STONEHAM CT","MATHEWS","NC",28105,35.1572372730001,-80.727500388,134,"8031 STONEHAM CT, MATHEWS, NC, 28105","Match","Non_Exact","8031 STONEHAM CT, MATTHEWS, NC, 28105",70556155,"R"
873135,"8031 WEST 18TH ST","SAINT LOUIS PARK","MN",55426,NA,NA,135,"8031 WEST 18TH ST, SAINT LOUIS PARK, MN, 55426","No_Match",NA,NA,NA,NA
873136,"8031 WESTPORT CIRCLE","DISCOVERY BAY","CA",94505,37.931344918,-121.620420277,136,"8031 WESTPORT CIRCLE, DISCOVERY BAY, CA, 94505","Match","Exact","8031 WESTPORT CIR, DISCOVERY BAY, CA, 94505",648275869,"R"
873137,"80318 S COLD SPRINGS ROAD","PENDLETON","OR",97801,NA,NA,137,"80318 S COLD SPRINGS ROAD, PENDLETON, OR, 97801","No_Match",NA,NA,NA,NA
873138,"8032 22ND AVE  APARTMENT 152","KENOSHA","WI",53143,42.5582517650001,-87.835174584,138,"8032 22ND AVE  APARTMENT 152, KENOSHA, WI, 53143","Match","Exact","8032 22ND AVE, KENOSHA, WI, 53143",79800280,"R"
873139,"8032 AZTEC BASIN AVE","LAS VEGAS","NV",89131,36.2852319560001,-115.270895637,139,"8032 AZTEC BASIN AVE, LAS VEGAS, NV, 89131","Match","Exact","8032 AZTEC BASIN AVE, LAS VEGAS, NV, 89131",626495801,"R"
873140,"8032 B PUSHKAR ST","DEL RIO","TX",78840,29.3562771260001,-100.798352419,140,"8032 B PUSHKAR ST, DEL RIO, TX, 78840","Match","Exact","8032 PUSHKAR ST, DEL RIO, TX, 78840",173577494,"R"
873141,"8032 CARDINAL COVE E","INDIANAPOLIS","IN",46256,39.8997127100001,-86.029183057,141,"8032 CARDINAL COVE E, INDIANAPOLIS, IN, 46256","Match","Exact","8032 CARDINAL COVE E, INDIANAPOLIS, IN, 46256",639688290,"R"
873142,"8032 COLESON XING","LOCUST GROVE","GA",30248,NA,NA,142,"8032 COLESON XING, LOCUST GROVE, GA, 30248","No_Match",NA,NA,NA,NA
873143,"8032 EAGLE TRL","DALLAS","TX",75238,32.86733065,-96.72574516,143,"8032 EAGLE TRL, DALLAS, TX, 75238","Match","Exact","8032 EAGLE TRL, DALLAS, TX, 75238",102919159,"R"
873144,"8032 FOUNTAINHEAD PLACE","FORT WAYNE","IN",46835,41.136768123,-85.0401033489999,144,"8032 FOUNTAINHEAD PLACE, FORT WAYNE, IN, 46835","Match","Exact","8032 FOUNTAINHEAD PL, FORT WAYNE, IN, 46835",6402953,"L"
873145,"8032 HEAVENLY VALLEY DRIVE","HENRICO","VA",23231,37.445185472,-77.330219268,145,"8032 HEAVENLY VALLEY DRIVE, HENRICO, VA, 23231","Match","Exact","8032 HEAVENLY VALLEY DR, HENRICO, VA, 23231",627265213,"R"
873146,"8032 HIDDEN BAY TRL N","LAKE ELMO","MN",55042,45.010514695,-92.943360603,146,"8032 HIDDEN BAY TRL N, LAKE ELMO, MN, 55042","Match","Exact","8032 HIDDEN BAY TRL N, LAKE ELMO, MN, 55042",647227134,"L"
873147,"8032 JORDAN RD","GRAND BLANC","MI",48439,42.9536239460001,-83.5533033679999,147,"8032 JORDAN RD, GRAND BLANC, MI, 48439","Match","Exact","8032 JORDAN RD, GRAND BLANC, MI, 48439",69581327,"R"
873148,"8032 MARMION DRIVE","PITTSBURGH","PA",15237,40.5543760320001,-80.024725792,148,"8032 MARMION DRIVE, PITTSBURGH, PA, 15237","Match","Exact","8032 MARMION DR, PITTSBURGH, PA, 15237",623254007,"L"
873149,"8032 MCMURTY DR","ARLINGTON","TX",76002,NA,NA,149,"8032 MCMURTY DR, ARLINGTON, TX, 76002","No_Match",NA,NA,NA,NA
873150,"8032 NW 198TH STREET","HIALEAH","FL",33015,25.9530909040001,-80.332517422,150,"8032 NW 198TH STREET, HIALEAH, FL, 33015","Match","Exact","8032 NW 198TH ST, HIALEAH, FL, 33015",641713948,"L"
873151,"8032 OCEAN DRIVE","FORT WORTH","TX",76123,32.6240281170001,-97.399242511,151,"8032 OCEAN DRIVE, FORT WORTH, TX, 76123","Match","Exact","8032 OCEAN DR, FORT WORTH, TX, 76123",102119812,"R"
873152,"8032 OLD DAVIS ROAD","NORWOOD","NC",28128,35.207926071,-80.215844235,152,"8032 OLD DAVIS ROAD, NORWOOD, NC, 28128","Match","Exact","8032 OLD DAVIS RD, NORWOOD, NC, 28128",642923294,"R"
873153,"8032 OPEN SKY ROAD","MIDDLETON","ID",83644,43.7367419490001,-116.553372617,153,"8032 OPEN SKY ROAD, MIDDLETON, ID, 83644","Match","Exact","8032 OPEN SKY RD, MIDDLETON, ID, 83644",646654060,"R"
873154,"8032 PREST","DETROIT","MI",48228,42.351450738,-83.195528848,154,"8032 PREST, DETROIT, MI, 48228","Match","Non_Exact","8032 PREST ST, DETROIT, MI, 48228",95442030,"R"
873155,"8032 RODNEY STREET","PHILADELPHIA","PA",19150,40.068365606,-75.1744205429999,155,"8032 RODNEY STREET, PHILADELPHIA, PA, 19150","Match","Exact","8032 RODNEY ST, PHILADELPHIA, PA, 19150",131394865,"L"
873156,"8032 S KINGSTON","CHICAGO","IL",60617,41.749181998,-87.5625566579999,156,"8032 S KINGSTON, CHICAGO, IL, 60617","Match","Non_Exact","8032 S KINGSTON AVE, CHICAGO, IL, 60617",605559455,"R"
873157,"8032 SANDS POINT DRIVE UNIT D","HOUSTON","TX",77036,29.714617456,-95.526883917,157,"8032 SANDS POINT DRIVE UNIT D, HOUSTON, TX, 77036","Match","Exact","8032 SANDS POINT DR, HOUSTON, TX, 77036",96614234,"L"
873158,"8032 STONEHAVEN DR","MARVIN","NC",28173,34.9843293430001,-80.765001512,158,"8032 STONEHAVEN DR, MARVIN, NC, 28173","Match","Exact","8032 STONEHAVEN DR, MARVIN, NC, 28173",216860449,"R"
873159,"8032 VILLA  AVADA COURT","LAS VEGAS","NV",89113,36.0791367750001,-115.266460282,159,"8032 VILLA  AVADA COURT, LAS VEGAS, NV, 89113","Match","Exact","8032 VILLA AVADA CT, LAS VEGAS, NV, 89113",201991970,"R"
873160,"8032 VILLA AVADA COURT","LAS VEGAS","NV",89113,36.0791367750001,-115.266460282,160,"8032 VILLA AVADA COURT, LAS VEGAS, NV, 89113","Match","Exact","8032 VILLA AVADA CT, LAS VEGAS, NV, 89113",201991970,"R"
873161,"8032 VILLA AVADA COURT","LAS VEGAS","TX",89113,NA,NA,161,"8032 VILLA AVADA COURT, LAS VEGAS, TX, 89113","No_Match",NA,NA,NA,NA
873162,"80326 AVENIDA LINDA VISTA","INDIO","CA",92203,33.7578936210001,-116.2634929,162,"80326 AVENIDA LINDA VISTA, INDIO, CA, 92203","Match","Exact","80326 AVENIDA LINDA VIS, INDIO, CA, 92203",608981897,"L"
873163,"8033 CAHOBA DR","FORT WORTH","TX",76135,32.7983193220001,-97.458916769,163,"8033 CAHOBA DR, FORT WORTH, TX, 76135","Match","Exact","8033 CAHOBA DR, FORT WORTH, TX, 76135",101851761,"L"
873164,"8033 CAPRON ROAD","WOODGATE","NY",13494,43.5514244840001,-75.1518960459999,164,"8033 CAPRON ROAD, WOODGATE, NY, 13494","Match","Exact","8033 CAPRON RD, WOODGATE, NY, 13494",171545640,"R"
873165,"8033 COUNTY ROAD 374 SOUTH","HENDERSON","TX",75654,32.0359556670001,-94.698645773,165,"8033 COUNTY ROAD 374 SOUTH, HENDERSON, TX, 75654","Match","Exact","8033 CO RD 374 S, HENDERSON, TX, 75654",79635716,"R"
873166,"8033 DANCING WIND LANE","NAPLES","FL",34119,26.27815236,-81.705018452,166,"8033 DANCING WIND LANE, NAPLES, FL, 34119","Match","Exact","8033 DANCING WIND LN, NAPLES, FL, 34119",619129734,"R"
873167,"8033 EAST RIDGE DRIVE","PLEASANT PRAIRIE","WI",53158,42.5588527530001,-87.927817901,167,"8033 EAST RIDGE DRIVE, PLEASANT PRAIRIE, WI, 53158","Match","Exact","8033 E RIDGE DR, PLEASANT PRAIRIE, WI, 53158",79815159,"L"
873168,"8033 EDGEWOOD AVE N","BROOKLYNPARK","MN",55445,45.100388998,-93.3628383989999,168,"8033 EDGEWOOD AVE N, BROOKLYNPARK, MN, 55445","Match","Non_Exact","8033 EDGEWOOD AVE N, BROOKLYN PARK, MN, 55445",43828924,"L"
873169,"8033 EDGEWOOD AVE","BROOKLYN PARK","MN",55445,45.100388998,-93.3628383989999,169,"8033 EDGEWOOD AVE, BROOKLYN PARK, MN, 55445","Match","Non_Exact","8033 EDGEWOOD AVE N, BROOKLYN PARK, MN, 55445",43828924,"L"
873170,"8033 JELLICO AVE","NORTHRIDGE","CA",91325,34.2165592590001,-118.517552025,170,"8033 JELLICO AVE, NORTHRIDGE, CA, 91325","Match","Exact","8033 JELLICO AVE, NORTHRIDGE, CA, 91325",141543934,"L"
873171,"8033 LASSITER STREET","BATTLEBORO","NC",27809,36.038901304,-77.8055683329999,171,"8033 LASSITER STREET, BATTLEBORO, NC, 27809","Match","Exact","8033 LASSITER ST, BATTLEBORO, NC, 27809",90374617,"R"
873172,"8033 MACARTHUR BLVD UNIT 5552","OAKLAND","CA",94605,37.7637446740001,-122.165817724,172,"8033 MACARTHUR BLVD UNIT 5552, OAKLAND, CA, 94605","Match","Exact","8033 MACARTHUR BLVD, OAKLAND, CA, 94605",125038475,"R"
873173,"8033 MAIN STREET","MIDDLETOWN","VA",22645,39.0250608640001,-78.2837462809999,173,"8033 MAIN STREET, MIDDLETOWN, VA, 22645","Match","Exact","8033 MAIN ST, MIDDLETOWN, VA, 22645",55582435,"L"
873174,"8033 MEADOW LANE","LEAWOOD","KS",66206,38.9813980590001,-94.61506761,174,"8033 MEADOW LANE, LEAWOOD, KS, 66206","Match","Exact","8033 MEADOW LN, LEAWOOD, KS, 66206",91286702,"L"
873175,"8033 MISTY MEADOW COURT N","JACKSONVILLE","FL",32210,NA,NA,175,"8033 MISTY MEADOW COURT N, JACKSONVILLE, FL, 32210","No_Match",NA,NA,NA,NA
873176,"8033 NORTH LARCH PLACE","NEWBURGH","IN",47630,NA,NA,176,"8033 NORTH LARCH PLACE, NEWBURGH, IN, 47630","No_Match",NA,NA,NA,NA
873177,"8033 NW 192 TERRACE","MIAMI","FL",33015,25.948373508,-80.333221065,177,"8033 NW 192 TERRACE, MIAMI, FL, 33015","Match","Non_Exact","8033 NW 192ND TER, MIAMI GARDENS, FL, 33015",116059750,"R"
873178,"8033 NW 47TH DR","CORAL SPRINGS","FL",33067,26.2898357890001,-80.230840422,178,"8033 NW 47TH DR, CORAL SPRINGS, FL, 33067","Match","Exact","8033 NW 47TH DR, CORAL SPRINGS, FL, 33067",114772964,"L"
873179,"8033 S 113TH ST","SEATTLE","WA",98178,47.502025051,-122.232203442,179,"8033 S 113TH ST, SEATTLE, WA, 98178","Match","Exact","8033 S 113TH ST, SEATTLE, WA, 98178",186630302,"R"
873180,"8033 S 15TH ST STE A","LINCOLN","NE",68512,40.7320471680001,-96.700306905,180,"8033 S 15TH ST STE A, LINCOLN, NE, 68512","Match","Non_Exact","8033 S 15TH ST, LINCOLN, NE, 68512",620633549,"R"
873181,"8033 SUNSET BOULEVARD 167","LOS ANGELES","CA",90046,34.0980140520001,-118.364662064,181,"8033 SUNSET BOULEVARD 167, LOS ANGELES, CA, 90046","Match","Exact","8033 SUNSET BLVD, LOS ANGELES, CA, 90046",141598071,"R"
873182,"8033 SUNSET BOULEVARD UNIT 942","WEST HOLLYWOOD","CA",90046,34.0980140520001,-118.364662064,182,"8033 SUNSET BOULEVARD UNIT 942, WEST HOLLYWOOD, CA, 90046","Match","Exact","8033 SUNSET BLVD, W HOLLYWOOD, CA, 90046",141598071,"R"
873183,"8033 SUNSET BOULEVARD","LOS ANGELES","CA",90046,34.0980140520001,-118.364662064,183,"8033 SUNSET BOULEVARD, LOS ANGELES, CA, 90046","Match","Exact","8033 SUNSET BLVD, LOS ANGELES, CA, 90046",141598071,"R"
873184,"8033 TORINO","STANTON","CA",90680,33.797686642,-117.992140978,184,"8033 TORINO, STANTON, CA, 90680","Match","Exact","8033 TORINO, STANTON, CA, 90680",624769594,"L"
873185,"8033 W SUNSET 520","LOS ANGELES","CA",90046,34.0980140080001,-118.36466524,185,"8033 W SUNSET 520, LOS ANGELES, CA, 90046","Match","Non_Exact","8033 SUNSET BLVD, LOS ANGELES, CA, 90046",141598071,"R"
873186,"8033 WIRT CIRCLE","OMAHA","NE",68134,41.286830738,-96.038619921,186,"8033 WIRT CIRCLE, OMAHA, NE, 68134","Match","Exact","8033 WIRT CIR, OMAHA, NE, 68134",116975385,"L"
873187,"8033 WOURI RD","BRITT","MN",55710,NA,NA,187,"8033 WOURI RD, BRITT, MN, 55710","No_Match",NA,NA,NA,NA
873188,"8033-207 S PADRE ISLAND DRIVE","CORPUS CHRISTI","TX",78412,NA,NA,188,"8033-207 S PADRE ISLAND DRIVE, CORPUS CHRISTI, TX, 78412","No_Match",NA,NA,NA,NA
873189,"80339 GREEN HILL DRIVES","INDIO","CA",92201,NA,NA,189,"80339 GREEN HILL DRIVES, INDIO, CA, 92201","No_Match",NA,NA,NA,NA
873190,"80339 GREEN HILLS DRIVE","INDIO","CA",92201,33.719798928,-116.262567219,190,"80339 GREEN HILLS DRIVE, INDIO, CA, 92201","Match","Exact","80339 GREEN HILLS DR, INDIO, CA, 92201",195087594,"L"
873191,"8033A PENN RANDEL LLC","UPPER MARLBORO","MD",20772,NA,NA,191,"8033A PENN RANDEL LLC, UPPER MARLBORO, MD, 20772","No_Match",NA,NA,NA,NA
873192,"8034 12TH AV S","SAINT PETERSBURG","FL",33707,27.759409127,-82.7546101679999,192,"8034 12TH AV S, SAINT PETERSBURG, FL, 33707","Match","Exact","8034 12TH AVE S, SAINT PETERSBURG, FL, 33707",124694173,"L"
873193,"8034 ALPINE ROAD","DETROIT","MI",48204,42.3525005700001,-83.147103592,193,"8034 ALPINE ROAD, DETROIT, MI, 48204","Match","Non_Exact","8034 ALPINE ST, DETROIT, MI, 48204",95470917,"R"
873194,"8034 BOBWHITE LANE","BENTONVILLE","AR",72712,36.426591177,-94.203334986,194,"8034 BOBWHITE LANE, BENTONVILLE, AR, 72712","Match","Exact","8034 BOBWHITE LN, BENTONVILLE, AR, 72712",47854136,"L"
873195,"8034 COUNTRYWOOD DRIVE SE","OLYMPIA","WA",98501,46.9730346050001,-122.822190661,195,"8034 COUNTRYWOOD DRIVE SE, OLYMPIA, WA, 98501","Match","Exact","8034 COUNTRYWOOD DR SE, OLYMPIA, WA, 98501",180984344,"R"
873196,"8034 CREAMERY ROAD","ALBURTIS","PA",18011,40.5315451320001,-75.608132008,196,"8034 CREAMERY ROAD, ALBURTIS, PA, 18011","Match","Exact","8034 CREAMERY RD, ALBURTIS, PA, 18011",645850278,"L"
873197,"8034 CUMBERLAND GLEN LN","SMYRNA","GA",30080,33.8941498900001,-84.482016857,197,"8034 CUMBERLAND GLEN LN, SMYRNA, GA, 30080","Match","Exact","8034 CUMBERLAND GLEN LN, SMYRNA, GA, 30080",17249200,"R"
873198,"8034 DEADWOOD RIDGE","CONVERSE","TX",78109,29.5330055960001,-98.330565083,198,"8034 DEADWOOD RIDGE, CONVERSE, TX, 78109","Match","Exact","8034 DEADWOOD RIDGE, CONVERSE, TX, 78109",101504287,"R"
873199,"8034 LAKEWOOD AVENUE","GARY","IN",46403,41.6139117970001,-87.240706723,199,"8034 LAKEWOOD AVENUE, GARY, IN, 46403","Match","Exact","8034 LAKEWOOD AVE, GARY, IN, 46403",98437616,"L"
873200,"8034 LAUREL TREE DRIVE","MEMPHIS","TN",38125,35.011168475,-89.79512242,200,"8034 LAUREL TREE DRIVE, MEMPHIS, TN, 38125","Match","Exact","8034 LAUREL TREE DR, MEMPHIS, TN, 38125",618714341,"L"
873201,"8034 NW 154 ST","MIAMI LAKES","FL",33016,25.9132741280001,-80.3306937629999,201,"8034 NW 154 ST, MIAMI LAKES, FL, 33016","Match","Exact","8034 NW 154TH ST, MIAMI LAKES, FL, 33016",116054117,"L"
873202,"8034 OAK HURST","HENDERSON","KY",42420,37.8564995410001,-87.492619992,202,"8034 OAK HURST, HENDERSON, KY, 42420","Match","Exact","8034 OAK HURST, HENDERSON, KY, 42420",57932158,"R"
873203,"8034 PATTERSON AVENUE","DYER","IN",46311,NA,NA,203,"8034 PATTERSON AVENUE, DYER, IN, 46311","Tie",NA,NA,NA,NA
873204,"8034 RIDGE VALLEY","WOODSTOCK","GA",30189,34.113165232,-84.539454845,204,"8034 RIDGE VALLEY, WOODSTOCK, GA, 30189","Match","Exact","8034 RIDGE VALLEY, WOODSTOCK, GA, 30189",68863585,"R"
873205,"8034 SOUTH THROOP","CHICAGO","IL",60620,41.7479684300001,-87.6561017659999,205,"8034 SOUTH THROOP, CHICAGO, IL, 60620","Match","Non_Exact","8034 S THROOP ST, CHICAGO, IL, 60620",111821397,"R"
873206,"8034 THOROUGHBRED LOOP","LARGO","FL",33773,27.891123728,-82.74917379,206,"8034 THOROUGHBRED LOOP, LARGO, FL, 33773","Match","Exact","8034 THOROUGHBRED LOOP, LARGO, FL, 33773",629915289,"L"
873207,"8034 TORRO CT","ORLANDO","FL",32810,28.628265943,-81.430948266,207,"8034 TORRO CT, ORLANDO, FL, 32810","Match","Exact","8034 TORRO CT, ORLANDO, FL, 32810",606096737,"L"
873208,"8035 102ND AVENUE","PLEASANT PRAIRIE","WI",53158,42.5591193990001,-87.930894968,208,"8035 102ND AVENUE, PLEASANT PRAIRIE, WI, 53158","Match","Exact","8035 102ND AVE, PLEASANT PRAIRIE, WI, 53158",79815210,"L"
873209,"8035 CRANE COVE APT 303","FORT WAYNE","IN",46804,NA,NA,209,"8035 CRANE COVE APT 303, FORT WAYNE, IN, 46804","No_Match",NA,NA,NA,NA
873210,"8035 E HWY 412","LOCUST GROVE","OK",74352,36.2000823280001,-95.143421597,210,"8035 E HWY 412, LOCUST GROVE, OK, 74352","Match","Exact","8035 E HWY 412, LOCUST GROVE, OK, 74352",610837016,"L"
873211,"8035 E R L THORNTON FWY-251","DALLAS","TX",75228,NA,NA,211,"8035 E R L THORNTON FWY-251, DALLAS, TX, 75228","No_Match",NA,NA,NA,NA
873212,"8035 E WINCHESTER DR","GLOBE","AZ",NA,NA,NA,212,"8035 E WINCHESTER DR, GLOBE, AZ, ","Tie",NA,NA,NA,NA
873213,"8035 ERL THORNTON FWY SUITE 100","DALLAS","TX",75228,NA,NA,213,"8035 ERL THORNTON FWY SUITE 100, DALLAS, TX, 75228","No_Match",NA,NA,NA,NA
873214,"8035 FARTHING LANE","ROSHARON","LA",77583,NA,NA,214,"8035 FARTHING LANE, ROSHARON, LA, 77583","No_Match",NA,NA,NA,NA
873215,"8035 FEDERAL","SHEPHERD","MI",48883,NA,NA,215,"8035 FEDERAL, SHEPHERD, MI, 48883","No_Match",NA,NA,NA,NA
873216,"8035 FIR DRIVE","CLAY","NY",13041,43.158513337,-76.138515245,216,"8035 FIR DRIVE, CLAY, NY, 13041","Match","Exact","8035 FIR DR, CLAY, NY, 13041",46624648,"L"
873217,"8035 GARDEN PARK","HOUSTON","TX",77075,29.6091320260001,-95.2767392109999,217,"8035 GARDEN PARK, HOUSTON, TX, 77075","Match","Non_Exact","8035 GARDEN PARKS DR, HOUSTON, TX, 77075",96094523,"L"
873218,"8035 GILBERT STREET","PHILADELPHIA","PA",19150,40.0717433360001,-75.170997485,218,"8035 GILBERT STREET, PHILADELPHIA, PA, 19150","Match","Exact","8035 GILBERT ST, PHILADELPHIA, PA, 19150",131394949,"R"
873219,"8035 GRAYDEN LANE","BRANDYWINE","MD",20613,38.7033105080001,-76.8676806939999,219,"8035 GRAYDEN LANE, BRANDYWINE, MD, 20613","Match","Exact","8035 GRAYDEN LN, BRANDYWINE, MD, 20613",76417536,"R"
873220,"8035 KIDD AVE","STONEWOOD","WV",26301,39.2505708310001,-80.317459899,220,"8035 KIDD AVE, STONEWOOD, WV, 26301","Match","Exact","8035 KIDD AVE, STONEWOOD, WV, 26301",53303167,"R"
873221,"8035 LAKESIDE DR","JURUPA VALLEY","CA",92509,33.9825328680001,-117.459445875,221,"8035 LAKESIDE DR, JURUPA VALLEY, CA, 92509","Match","Exact","8035 LAKESIDE DR, JURUPA VALLEY, CA, 92509",195077577,"R"
873222,"8035 LEE DRIVE APT 202","ARVADA","CO",80005,39.8426900850001,-105.111968999,222,"8035 LEE DRIVE APT 202, ARVADA, CO, 80005","Match","Exact","8035 LEE DR, ARVADA, CO, 80005",177801528,"L"
873223,"8035 LINWALT ST","ROSEMEAD","CA",91770,34.0465075020001,-118.093257192,223,"8035 LINWALT ST, ROSEMEAD, CA, 91770","Match","Exact","8035 LINWALT ST, ROSEMEAD, CA, 91770",141642534,"L"
873224,"8035 MANSFIELD AVENUE","PHILADELPHIA","PA",19150,40.0678523350001,-75.175278984,224,"8035 MANSFIELD AVENUE, PHILADELPHIA, PA, 19150","Match","Exact","8035 MANSFIELD AVE, PHILADELPHIA, PA, 19150",131394860,"R"
873225,"8035 MONCLOVA ROAD","MONCLOVA","OH",43542,41.5587680780001,-83.733835843,225,"8035 MONCLOVA ROAD, MONCLOVA, OH, 43542","Match","Exact","8035 MONCLOVA RD, MONCLOVA, OH, 43542",33939790,"R"
873226,"8035 OSWEGO ROAD PO BOX 2365","LIVERPOOL","NY",13089,NA,NA,226,"8035 OSWEGO ROAD PO BOX 2365, LIVERPOOL, NY, 13089","No_Match",NA,NA,NA,NA
873227,"8035 S OGLESBY","CHICAGO","IL",60619,NA,NA,227,"8035 S OGLESBY, CHICAGO, IL, 60619","No_Match",NA,NA,NA,NA
873228,"8035 S QUEEN CREEK DR","TUCSON","AZ",85747,32.1060100490001,-110.794590552,228,"8035 S QUEEN CREEK DR, TUCSON, AZ, 85747","Match","Exact","8035 S QUEEN CREEK DR, TUCSON, AZ, 85747",121403236,"R"
873229,"8035 S WABASH AVE","CHICAGO","IL",60619,41.7484665870001,-87.6229215239999,229,"8035 S WABASH AVE, CHICAGO, IL, 60619","Match","Exact","8035 S WABASH AVE, CHICAGO, IL, 60619",111772697,"L"
873230,"8035 SOUTHERN PINE WAY","FORT WORTH","TX",76123,32.62536019,-97.366301645,230,"8035 SOUTHERN PINE WAY, FORT WORTH, TX, 76123","Match","Exact","8035 SOUTHERN PINE WAY, FORT WORTH, TX, 76123",640620324,"R"
873231,"8035 SWINDOW CIRCLE","CONVERSE","TX",78109,29.5050703480001,-98.323931761,231,"8035 SWINDOW CIRCLE, CONVERSE, TX, 78109","Match","Exact","8035 SWINDOW CIR, CONVERSE, TX, 78109",101580995,"R"
873232,"8035 VILLAGE DR","BEAUMONT","TX",77713,30.106231107,-94.1884506069999,232,"8035 VILLAGE DR, BEAUMONT, TX, 77713","Match","Exact","8035 VILLAGE DR, BEAUMONT, TX, 77713",73936302,"R"
873233,"8035 VINEMONT PL NW","ALB","NM",87120,35.097840219,-106.732886841,233,"8035 VINEMONT PL NW, ALB, NM, 87120","Match","Non_Exact","8035 VINEMONT PL NW, ALBUQUERQUE, NM, 87120",206741644,"L"
873234,"8035 W ONTERIO PLACE","LITTLETON","CO",80128,39.592899571,-105.089540329,234,"8035 W ONTERIO PLACE, LITTLETON, CO, 80128","Match","Non_Exact","8035 W ONTARIO PL, LITTLETON, CO, 80128",177323956,"R"
873235,"8035 WEST PARKWAY","REDFORD","MI",48239,42.349576002,-83.2642115089999,235,"8035 WEST PARKWAY, REDFORD, MI, 48239","Match","Non_Exact","8035 W PARKWAY ST, REDFORD, MI, 48239",95431702,"L"
873236,"8036 3RD STREET SUITE 105","DOWNEY","CA",90241,33.943902483,-118.135656975,236,"8036 3RD STREET SUITE 105, DOWNEY, CA, 90241","Match","Exact","8036 3RD ST, DOWNEY, CA, 90241",141697542,"R"
873237,"8036 83RD AVE N","BROOKLYN PARK","MN",55445,45.1048969810001,-93.384013152,237,"8036 83RD AVE N, BROOKLYN PARK, MN, 55445","Match","Exact","8036 83RD AVE N, BROOKLYN PARK, MN, 55445",43613721,"R"
873238,"8036 AIRPORT RD","BONNERDALE","AR",71933,34.40005201,-93.342673717,238,"8036 AIRPORT RD, BONNERDALE, AR, 71933","Match","Exact","8036 AIRPORT RD, BONNERDALE, AR, 71933",635865991,"L"
873239,"8036 BUCKLEY HALL ROAD","HUDGINS","VA",23035,37.474114829,-76.328470637,239,"8036 BUCKLEY HALL ROAD, HUDGINS, VA, 23035","Match","Non_Exact","8036 BUCKLEY HALL RD, COBBS CREEK, VA, 23035",199444592,"L"
873240,"8036 CLAYTON CT","FRANKLIN","WI",53132,42.889230287,-88.0150863979999,240,"8036 CLAYTON CT, FRANKLIN, WI, 53132","Match","Exact","8036 CLAYTON CT, FRANKLIN, WI, 53132",77763138,"L"
873241,"8036 JUNGLE LAKE ROAD","CRANDON","WI",54520,45.4507020300001,-88.8308043389999,241,"8036 JUNGLE LAKE ROAD, CRANDON, WI, 54520","Match","Exact","8036 JUNGLE LAKE RD, CRANDON, WI, 54520",170282097,"L"
873242,"8036 KINGSWOOD WAY","MELBOURNE","FL",32940,28.2261745970001,-80.709670256,242,"8036 KINGSWOOD WAY, MELBOURNE, FL, 32940","Match","Exact","8036 KINGSWOOD WAY, MELBOURNE, FL, 32940",629489828,"R"
873243,"8036 LAUREL ST","BASTROP","TX",78602,NA,NA,243,"8036 LAUREL ST, BASTROP, TX, 78602","No_Match",NA,NA,NA,NA
873244,"8036 MANHATTAN-MONEE ROAD","MONEE","IL",60449,NA,NA,244,"8036 MANHATTAN-MONEE ROAD, MONEE, IL, 60449","No_Match",NA,NA,NA,NA
873245,"8036 NORTH 6TH STREET","PHOENIX","AZ",85020,33.5540905610001,-112.066932652,245,"8036 NORTH 6TH STREET, PHOENIX, AZ, 85020","Match","Exact","8036 N 6TH ST, PHOENIX, AZ, 85020",128207016,"L"
873246,"8036 NW HIGHWAY","MUSKEGO","WI",53149,NA,NA,246,"8036 NW HIGHWAY, MUSKEGO, WI, 53149","No_Match",NA,NA,NA,NA
873247,"8036 OLUSTA DR","DALLAS","TX",75217,32.7098061340001,-96.683959531,247,"8036 OLUSTA DR, DALLAS, TX, 75217","Match","Exact","8036 OLUSTA DR, DALLAS, TX, 75217",102958905,"R"
873248,"8036 PINAL VIEW DR","GLOBE","AZ",88345,33.3748176440001,-110.778889378,248,"8036 PINAL VIEW DR, GLOBE, AZ, 88345","Match","Non_Exact","8036 PINAL VIEW DR, GLOBE, AZ, 85501",159342448,"L"
873249,"8036 PINAL VIEW DR","RUIDOSO","NM",85501,NA,NA,249,"8036 PINAL VIEW DR, RUIDOSO, NM, 85501","No_Match",NA,NA,NA,NA
873250,"8036 S HARVARD","CHICAGO","IL",60620,NA,NA,250,"8036 S HARVARD, CHICAGO, IL, 60620","No_Match",NA,NA,NA,NA
873251,"8036 S KINGSTON","CHICAGO","IL",60617,41.74912306,-87.5625555559999,251,"8036 S KINGSTON, CHICAGO, IL, 60617","Match","Non_Exact","8036 S KINGSTON AVE, CHICAGO, IL, 60617",605559455,"R"
873252,"8036 S LAKE DRIVE","WEST PALM BEACH","FL",33406,NA,NA,252,"8036 S LAKE DRIVE, WEST PALM BEACH, FL, 33406","Tie",NA,NA,NA,NA
873253,"8036 S MOZART","CHICAGO","IL",60652,NA,NA,253,"8036 S MOZART, CHICAGO, IL, 60652","No_Match",NA,NA,NA,NA
873254,"8036 S SANGAMON ST","CHICAGO","IL",60620,41.7480476330001,-87.647613306,254,"8036 S SANGAMON ST, CHICAGO, IL, 60620","Match","Exact","8036 S SANGAMON ST, CHICAGO, IL, 60620",111831517,"R"
873255,"8036 S SAWYER","CHICAGO","IL",60652,NA,NA,255,"8036 S SAWYER, CHICAGO, IL, 60652","No_Match",NA,NA,NA,NA
873256,"8036 SE CARLTON STREET","PORTLAND","OR",97206,45.4782327510001,-122.581013811,256,"8036 SE CARLTON STREET, PORTLAND, OR, 97206","Match","Exact","8036 SE CARLTON ST, PORTLAND, OR, 97206",157517624,"R"
873257,"8036 ST ANDREWS LN","STANLEY","NC",28164,35.4511645310001,-80.967923833,257,"8036 ST ANDREWS LN, STANLEY, NC, 28164","Match","Exact","8036 SAINT ANDREWS LN, STANLEY, NC, 28164",645500154,"L"
873258,"8036 STALLION CT","NASHVILLE","TN",37221,36.0864519670001,-86.938503477,258,"8036 STALLION CT, NASHVILLE, TN, 37221","Match","Exact","8036 STALLION CT, NASHVILLE, TN, 37221",97177961,"R"
873259,"8036 SYCAMORE","MAINEVILLE","OH",45039,39.3182838390001,-84.226903657,259,"8036 SYCAMORE, MAINEVILLE, OH, 45039","Match","Non_Exact","8036 SYCAMORE ST, MAINEVILLE, OH, 45039",159016228,"L"
873260,"8036 VALLEY CROSSING DR","CINCINNATI","OH",45247,39.228996226,-84.662908307,260,"8036 VALLEY CROSSING DR, CINCINNATI, OH, 45247","Match","Exact","8036 VALLEY CROSSING DR, CINCINNATI, OH, 45247",651923891,"R"
873261,"8036 W BERWYN AVE","CHICAGO","IL",60656,41.975521724,-87.8279380929999,261,"8036 W BERWYN AVE, CHICAGO, IL, 60656","Match","Exact","8036 W BERWYN AVE, CHICAGO, IL, 60656",111746577,"R"
873262,"8037 DRY CREEK ROAD","GEYSERVILLE","CA",95441,38.7095162540001,-122.965561135,262,"8037 DRY CREEK ROAD, GEYSERVILLE, CA, 95441","Match","Exact","8037 DRY CREEK RD, GEYSERVILLE, CA, 95441",604972375,"L"
873263,"8037 E PEACHTREE LN","WICHITA","KS",67207,37.680638742,-97.243628835,263,"8037 E PEACHTREE LN, WICHITA, KS, 67207","Match","Non_Exact","8037 E PEACH TREE LN, WICHITA, KS, 67207",115651896,"R"
873264,"8037 ESCALON AVE","PASADENA","MD",21122,39.1319799980001,-76.554024,264,"8037 ESCALON AVE, PASADENA, MD, 21122","Match","Exact","8037 ESCALON AVE, PASADENA, MD, 21122",653281462,"R"
873265,"8037 FAIRVIEW LANE","NORRISTOWN","PA",19403,40.154709537,-75.385864641,265,"8037 FAIRVIEW LANE, NORRISTOWN, PA, 19403","Match","Non_Exact","8037 FAIR VIEW LN, NORRISTOWN, PA, 19403",135131085,"L"
873266,"8037 GALLAGHER ISLAND ST","LAS VEGAS","NV",89143,36.307940316,-115.288240014,266,"8037 GALLAGHER ISLAND ST, LAS VEGAS, NV, 89143","Match","Exact","8037 GALLAGHER ISLAND ST, LAS VEGAS, NV, 89143",202004482,"L"
873267,"8037 GEORGIA CT","SEVERN","MD",21144,39.120023363,-76.689263269,267,"8037 GEORGIA CT, SEVERN, MD, 21144","Match","Exact","8037 GEORGIA CT, SEVERN, MD, 21144",68206873,"R"
873268,"8037 HARDING AVE","SKOKIE","IL",60076,42.0276023660001,-87.72692835,268,"8037 HARDING AVE, SKOKIE, IL, 60076","Match","Exact","8037 HARDING AVE, SKOKIE, IL, 60076",111860538,"L"
873269,"8037 INDIANA RD","HOUSTON","MO",65483,37.3435048040001,-91.948051949,269,"8037 INDIANA RD, HOUSTON, MO, 65483","Match","Non_Exact","8037 INDIANA DR, HOUSTON, MO, 65483",26446487,"R"
873270,"8037 IRONSTONE DR","ALEXANDER","AR",72002,34.6694269290001,-92.481202686,270,"8037 IRONSTONE DR, ALEXANDER, AR, 72002","Match","Exact","8037 IRONSTONE DR, ALEXANDER, AR, 72002",650889412,"L"
873271,"8037 JOHANNISBERG WAY","SACRAMENTO","CA",95829,38.4664848580001,-121.357782926,271,"8037 JOHANNISBERG WAY, SACRAMENTO, CA, 95829","Match","Exact","8037 JOHANNISBERG WAY, SACRAMENTO, CA, 95829",133373596,"L"
873272,"8037 PARKVIEW","BROWNSBURG","IN",46112,39.8804011660001,-86.383801648,272,"8037 PARKVIEW, BROWNSBURG, IN, 46112","Match","Exact","8037 PARKVIEW, BROWNSBURG, IN, 46112",89236245,"R"
873273,"8037 POLK PATH","REYNOLDSBURG","OH",43068,39.940782391,-82.7789415939999,273,"8037 POLK PATH, REYNOLDSBURG, OH, 43068","Match","Exact","8037 POLK PATH, REYNOLDSBURG, OH, 43068",61568807,"L"
873274,"8037 S INDIANA","CHICAGO","IL",60620,NA,NA,274,"8037 S INDIANA, CHICAGO, IL, 60620","No_Match",NA,NA,NA,NA
873275,"8037 S MADISON WAY","CENTENNIAL","CO",80122,39.571354758,-104.947251247,275,"8037 S MADISON WAY, CENTENNIAL, CO, 80122","Match","Exact","8037 S MADISON WAY, CENTENNIAL, CO, 80122",177346094,"R"
873276,"8037 S MUSKEGON AVENUE","CHICAGO","IL",60617,41.7493446920001,-87.555265747,276,"8037 S MUSKEGON AVENUE, CHICAGO, IL, 60617","Match","Exact","8037 S MUSKEGON AVE, CHICAGO, IL, 60617",111776297,"L"
873277,"8037 SAN MATEO STREET","NORTH LAS VEGAS","NV",89085,36.3074277970001,-115.202671963,277,"8037 SAN MATEO STREET, NORTH LAS VEGAS, NV, 89085","Match","Exact","8037 SAN MATEO ST, N LAS VEGAS, NV, 89085",632266089,"L"
873278,"8037 SOUTH PERRY AVE","CHICAGO","IL",60620,41.748553676,-87.626958899,278,"8037 SOUTH PERRY AVE, CHICAGO, IL, 60620","Match","Exact","8037 S PERRY AVE, CHICAGO, IL, 60620",605519998,"L"
873279,"8037 SUPERIOR DR","DENHAM SPRINGS","LA",70726,30.433622303,-90.955792382,279,"8037 SUPERIOR DR, DENHAM SPRINGS, LA, 70726","Match","Non_Exact","8037 SUPERIOR AVE, DENHAM SPRINGS, LA, 70726",624779907,"L"
873280,"8037 SUPERIOR DRIVE","DENHAM SPRINGS","LA",70726,30.433622303,-90.955792382,280,"8037 SUPERIOR DRIVE, DENHAM SPRINGS, LA, 70726","Match","Non_Exact","8037 SUPERIOR AVE, DENHAM SPRINGS, LA, 70726",624779907,"L"
873281,"8037 TIERNEYS WOODS CURVE","BLOOMINGTON","MN",55438,44.856758637,-93.387392241,281,"8037 TIERNEYS WOODS CURVE, BLOOMINGTON, MN, 55438","Match","Exact","8037 TIERNEYS WOODS CURV, BLOOMINGTON, MN, 55438",43841298,"L"
873282,"8037 WALKER STREET","PHILADELPHIA","PA",19136,40.0391362920001,-75.0259176549999,282,"8037 WALKER STREET, PHILADELPHIA, PA, 19136","Match","Exact","8037 WALKER ST, PHILADELPHIA, PA, 19136",131432872,"R"
873283,"8037 WEATHER VANE DR","JACKSONVILLE","FL",32244,30.1984638590001,-81.794482993,283,"8037 WEATHER VANE DR, JACKSONVILLE, FL, 32244","Match","Exact","8037 WEATHER VANE DR, JACKSONVILLE, FL, 32244",640434137,"L"
873284,"8037 WINPINE COURT","ORLANDO","FL",32819,28.4929898340001,-81.494164617,284,"8037 WINPINE COURT, ORLANDO, FL, 32819","Match","Exact","8037 WINPINE CT, ORLANDO, FL, 32819",94315707,"L"
873285,"8038 138TH  ST APT 2","JAMAICA","NY",11435,NA,NA,285,"8038 138TH  ST APT 2, JAMAICA, NY, 11435","No_Match",NA,NA,NA,NA
873286,"8038 ASHFORD BLVD","LAUREL","MD",20707,39.0920211690001,-76.8655265959999,286,"8038 ASHFORD BLVD, LAUREL, MD, 20707","Match","Exact","8038 ASHFORD BLVD, LAUREL, MD, 20707",76335419,"R"
873287,"8038 ASHFORD BOULEVARD","LAUREL","MD",20707,39.0920211690001,-76.8655265959999,287,"8038 ASHFORD BOULEVARD, LAUREL, MD, 20707","Match","Exact","8038 ASHFORD BLVD, LAUREL, MD, 20707",76335419,"R"
873288,"8038 B LIBERTY ROAD","FREDERICK","MD",21701,39.4446823010001,-77.398753658,288,"8038 B LIBERTY ROAD, FREDERICK, MD, 21701","Match","Exact","8038 LIBERTY RD, FREDERICK, MD, 21701",646641499,"L"
873289,"8038 BROOKLYN AVE","KANSAS CITY","MO",64132,38.9803352000001,-94.562415928,289,"8038 BROOKLYN AVE, KANSAS CITY, MO, 64132","Match","Exact","8038 BROOKLYN AVE, KANSAS CITY, MO, 64132",91457079,"R"
873290,"8038 COLQUITT ST","DOUGLASVILLE","GA",30134,33.760538534,-84.743629201,290,"8038 COLQUITT ST, DOUGLASVILLE, GA, 30134","Match","Exact","8038 COLQUITT ST, DOUGLASVILLE, GA, 30134",650279263,"L"
873291,"8038 E LEHIGH DRIVE","DENVER","CO",80237,39.6464782240001,-104.89541427,291,"8038 E LEHIGH DRIVE, DENVER, CO, 80237","Match","Exact","8038 E LEHIGH DR, DENVER, CO, 80237",177343990,"R"
873292,"8038 EXCHANGE DR UNIT 225","AUSTIN","TX",78754,30.3343685150001,-97.663988497,292,"8038 EXCHANGE DR UNIT 225, AUSTIN, TX, 78754","Match","Exact","8038 EXCHANGE DR, AUSTIN, TX, 78754",653233094,"L"
873293,"8038 GRAND AVE APT 1N","RIVER GROVE","IL",60171,41.927330151,-87.827363244,293,"8038 GRAND AVE APT 1N, RIVER GROVE, IL, 60171","Match","Exact","8038 GRAND AVE, RIVER GROVE, IL, 60171",111748814,"R"
873294,"8038 HARSHAW DR","INDIANAPOLIS","IN",46239,39.733199461,-86.02498753,294,"8038 HARSHAW DR, INDIANAPOLIS, IN, 46239","Match","Exact","8038 HARSHAW DR, INDIANAPOLIS, IN, 46239",630293907,"R"
873295,"8038 HIGH OAK RD","GLEN BURNIE","MD",21060,39.149122963,-76.564438001,295,"8038 HIGH OAK RD, GLEN BURNIE, MD, 21060","Match","Exact","8038 HIGH OAK RD, GLEN BURNIE, MD, 21060",68209676,"L"
873296,"8038 HIGHWAY 164","HOLLYWOOD","SC",29449,32.7092024310001,-80.34233326,296,"8038 HIGHWAY 164, HOLLYWOOD, SC, 29449","Match","Non_Exact","8038 STATE HWY 164, HOLLYWOOD, SC, 29449",622161202,"L"
873297,"8038 KYLE ST","SUNLAND","CA",91040,34.264654342,-118.308419942,297,"8038 KYLE ST, SUNLAND, CA, 91040","Match","Exact","8038 KYLE ST, SUNLAND, CA, 91040",141587787,"L"
873298,"8038 MARION RD","NEWARK","OH",43055,40.1683391350001,-82.488885739,298,"8038 MARION RD, NEWARK, OH, 43055","Match","Non_Exact","8038 MARION RD NE, NEWARK, OH, 43055",61563145,"R"
873299,"8038 N SEWARD AVE","PORTLAND","OR",97217,45.5818247490001,-122.703651782,299,"8038 N SEWARD AVE, PORTLAND, OR, 97217","Match","Exact","8038 N SEWARD AVE, PORTLAND, OR, 97217",157494821,"R"
873300,"8038 NILES AVE APT B","SKOKIE","IL",60077,42.027594719,-87.7517774789999,300,"8038 NILES AVE APT B, SKOKIE, IL, 60077","Match","Exact","8038 NILES AVE, SKOKIE, IL, 60077",605255674,"L"
873301,"8038 PINE LANE","ROGERS","AR",72756,36.3234887620001,-94.0188096959999,301,"8038 PINE LANE, ROGERS, AR, 72756","Match","Exact","8038 PINE LN, ROGERS, AR, 72756",47836984,"R"
873302,"8038 ROSEBUD ST","ALTA LOMA","CA",91701,34.1458281860001,-117.630779865,302,"8038 ROSEBUD ST, ALTA LOMA, CA, 91701","Match","Exact","8038 ROSEBUD ST, RANCHO CUCAMONGA, CA, 91701",144674925,"L"
873303,"8038 S INDIANA AVE","CHICAGO","IL",60619,41.7484547340001,-87.6197022379999,303,"8038 S INDIANA AVE, CHICAGO, IL, 60619","Match","Exact","8038 S INDIANA AVE, CHICAGO, IL, 60619",111772730,"R"
873304,"8038 SIERRA GARDENS DRIVE","JACKSONVILLE","FL",32219,30.4095293460001,-81.824572019,304,"8038 SIERRA GARDENS DRIVE, JACKSONVILLE, FL, 32219","Match","Exact","8038 SIERRA GARDENS DR, JACKSONVILLE, FL, 32219",624026863,"L"
873305,"8038 VINEYARD LANE","LA VERGNE","TN",37086,35.969295263,-86.587732137,305,"8038 VINEYARD LANE, LA VERGNE, TN, 37086","Match","Exact","8038 VINEYARD LN, LA VERGNE, TN, 37086",606779416,"L"
873306,"8038 VINYARD LANE","LA VERGNE","TN",37086,35.9711121230001,-86.587390367,306,"8038 VINYARD LANE, LA VERGNE, TN, 37086","Match","Exact","8038 VINYARD LN, LA VERGNE, TN, 37086",606779420,"R"
873307,"8038 VINYEARD LANE","LA VERGNE","TN",37086,35.9711121230001,-86.587390367,307,"8038 VINYEARD LANE, LA VERGNE, TN, 37086","Match","Non_Exact","8038 VINYARD LN, LA VERGNE, TN, 37086",606779420,"R"
873308,"8039 68TH LOOP SE","OLYMPIA","WA",98513,46.9854388470001,-122.769455678,308,"8039 68TH LOOP SE, OLYMPIA, WA, 98513","Match","Exact","8039 68TH LOOP SE, OLYMPIA, WA, 98513",631136984,"L"
873309,"8039 68TH LOOP SE","OLYMPIA","WA",98516,46.9854388470001,-122.769455678,309,"8039 68TH LOOP SE, OLYMPIA, WA, 98516","Match","Non_Exact","8039 68TH LOOP SE, OLYMPIA, WA, 98513",631136984,"L"
873310,"8039 ALTAVAN AVE","LOS ANGELES","CA",90045,33.9646935980001,-118.420942425,310,"8039 ALTAVAN AVE, LOS ANGELES, CA, 90045","Match","Exact","8039 ALTAVAN AVE, LOS ANGELES, CA, 90045",141578522,"R"
873311,"8039 AMBER COURT","HAYES","VA",23072,37.271302716,-76.4807096979999,311,"8039 AMBER COURT, HAYES, VA, 23072","Match","Exact","8039 AMBER CT, HAYES, VA, 23072",168209263,"L"
873312,"8039 AMBER CT","HAYES","VA",23072,37.271302716,-76.4807096979999,312,"8039 AMBER CT, HAYES, VA, 23072","Match","Exact","8039 AMBER CT, HAYES, VA, 23072",168209263,"L"
873313,"8039 BAUMAN AVE","OMAHA","NE",68122,41.3179284770001,-96.038989959,313,"8039 BAUMAN AVE, OMAHA, NE, 68122","Match","Exact","8039 BAUMAN AVE, OMAHA, NE, 68122",117014917,"R"
873314,"8039 BRIARCREST","MANCELONA","MI",49659,44.91696706,-84.928082562,314,"8039 BRIARCREST, MANCELONA, MI, 49659","Match","Non_Exact","8039 BRIARCREST CT, MANCELONA, MI, 49659",145813531,"L"
873315,"8039 CANTURA MILLS","CONVERSE","TX",78109,29.5050433110001,-98.3264466909999,315,"8039 CANTURA MILLS, CONVERSE, TX, 78109","Match","Exact","8039 CANTURA MILLS, CONVERSE, TX, 78109",101581011,"L"
873316,"8039 CARROLLTON PARKWAY","NEW CARROLLTON","MD",20784,38.9670530220001,-76.883838369,316,"8039 CARROLLTON PARKWAY, NEW CARROLLTON, MD, 20784","Match","Exact","8039 CARROLLTON PKWY, NEW CARROLLTON, MD, 20784",76308182,"R"
873317,"8039 DAVENPORT LANE","MAYSVILLE","KY",41056,38.616683693,-83.7182703559999,317,"8039 DAVENPORT LANE, MAYSVILLE, KY, 41056","Match","Exact","8039 DAVENPORT LN, MAYSVILLE, KY, 41056",58613322,"L"
873318,"8039 EAST CAROL WAY","SCOTTSDALE","AZ",85260,33.59821859,-111.906725755,318,"8039 EAST CAROL WAY, SCOTTSDALE, AZ, 85260","Match","Exact","8039 E CAROL WAY, SCOTTSDALE, AZ, 85260",128915986,"R"
873319,"8039 EATERN AVE","SILVER SPRING","MD",20910,NA,NA,319,"8039 EATERN AVE, SILVER SPRING, MD, 20910","No_Match",NA,NA,NA,NA
873320,"8039 EMBASSY BLVD","PORT RICHEY","FL",34668,28.2910926050001,-82.6817730129999,320,"8039 EMBASSY BLVD, PORT RICHEY, FL, 34668","Match","Exact","8039 EMBASSY BLVD, PORT RICHEY, FL, 34668",647376200,"R"
873321,"8039 GOLDEN CT","ORLANDO","FL",32819,NA,NA,321,"8039 GOLDEN CT, ORLANDO, FL, 32819","No_Match",NA,NA,NA,NA
873322,"8039 GOLDEN GLEN CT","ORLANDO","FL",32819,28.4730944390001,-81.493824032,322,"8039 GOLDEN GLEN CT, ORLANDO, FL, 32819","Match","Exact","8039 GOLDEN GLEN CT, ORLANDO, FL, 32819",94272145,"L"
873323,"8039 HYANNIS COURT","NORTH CHARLESTON","SC",29420,32.94767991,-80.070741464,323,"8039 HYANNIS COURT, NORTH CHARLESTON, SC, 29420","Match","Exact","8039 HYANNIS CT, N CHARLESTON, SC, 29420",633672656,"L"
873324,"8039 JANES AVENUE","WOODRIDGE","IL",60517,41.74042824,-88.040379542,324,"8039 JANES AVENUE, WOODRIDGE, IL, 60517","Match","Exact","8039 JANES AVE, WOODRIDGE, IL, 60517",112580528,"L"
873325,"8039 LAKE STREET UNIT 2","RIVER FOREST","IL",60305,41.88808283,-87.826239169,325,"8039 LAKE STREET UNIT 2, RIVER FOREST, IL, 60305","Match","Exact","8039 LAKE ST, RIVER FOREST, IL, 60305",111749342,"L"
873326,"8039 LINCOLN DR","JESSUP","MD",20794,39.167099299,-76.791572292,326,"8039 LINCOLN DR, JESSUP, MD, 20794","Match","Exact","8039 LINCOLN DR, JESSUP, MD, 20794",650881319,"L"
873327,"8039 LYDIA AVEUNE","KANSAS CITY","MO",64131,38.9822764030001,-94.571482633,327,"8039 LYDIA AVEUNE, KANSAS CITY, MO, 64131","Match","Non_Exact","8039 LYDIA AVE, KANSAS CITY, MO, 64131",91455348,"L"
873328,"8039 NANTUCKETT AVENUE","NORTH CHARLESTON","SC",29420,NA,NA,328,"8039 NANTUCKETT AVENUE, NORTH CHARLESTON, SC, 29420","No_Match",NA,NA,NA,NA
873329,"8039 ROARING SPRINGS RD","GLOUCESTER","VA",23061,37.432483033,-76.528707733,329,"8039 ROARING SPRINGS RD, GLOUCESTER, VA, 23061","Match","Exact","8039 ROARING SPRINGS RD, GLOUCESTER, VA, 23061",636665684,"R"
873330,"8039 ROARING SPRINGS ROAD","GLOUCESTER","VA",23061,37.432483033,-76.528707733,330,"8039 ROARING SPRINGS ROAD, GLOUCESTER, VA, 23061","Match","Exact","8039 ROARING SPRINGS RD, GLOUCESTER, VA, 23061",636665684,"R"
873331,"8039 S QUINCE CIR","CENTENNIAL","CO",80112,39.570435919,-104.903603227,331,"8039 S QUINCE CIR, CENTENNIAL, CO, 80112","Match","Exact","8039 S QUINCE CIR, CENTENNIAL, CO, 80112",649782128,"L"
873332,"8039 STATE AVE","KANSAS CITY","KS",66112,39.1163747160001,-94.7667021299999,332,"8039 STATE AVE, KANSAS CITY, KS, 66112","Match","Exact","8039 STATE AVE, KANSAS CITY, KS, 66112",91137287,"L"
873333,"8039 TUSCARORA ROAD NW","ALBUQUERQUE","NM",87114,35.1968978300001,-106.753071492,333,"8039 TUSCARORA ROAD NW, ALBUQUERQUE, NM, 87114","Match","Exact","8039 TUSCARORA RD NW, ALBUQUERQUE, NM, 87114",639608339,"R"
873334,"8039 VALLEY VIEW","LASCASSAS","TN",37085,35.9435630610001,-86.307682346,334,"8039 VALLEY VIEW, LASCASSAS, TN, 37085","Match","Non_Exact","8039 VALLEY VIEW RD, LASCASSAS, TN, 37085",650654923,"L"
873335,"803C RUNWAY BAY LN","MOUNT PLEASANT","SC",29464,32.8092245560001,-79.887898631,335,"803C RUNWAY BAY LN, MOUNT PLEASANT, SC, 29464","Match","Non_Exact","803 RUNAWAY BAY LN, MOUNT PLEASANT, SC, 29464",646665911,"L"
873336,"803G SOUTH COLLEGE ROAD","WILMINGTON","NC",28403,34.2197034640001,-77.8843334649999,336,"803G SOUTH COLLEGE ROAD, WILMINGTON, NC, 28403","Match","Exact","803 S COLLEGE RD, WILMINGTON, NC, 28403",152770847,"L"
873337,"804  N  31ST STREET SUITE C","MONROE","LA",71201,32.5302854770001,-92.0893001859999,337,"804  N  31ST STREET SUITE C, MONROE, LA, 71201","Match","Non_Exact","804 N 31ST ST, MONROE, LA, 71201",612365446,"R"
873338,"804  POPULAR LANE","MELBOURNE","FL",32901,28.058214617,-80.6073252739999,338,"804  POPULAR LANE, MELBOURNE, FL, 32901","Match","Non_Exact","804 POPLAR LN, MELBOURNE, FL, 32901",639072989,"L"
873339,"804 12TH ST","WHEATLAND","WY",82201,42.0553848160001,-104.957428889,339,"804 12TH ST, WHEATLAND, WY, 82201","Match","Exact","804 12TH ST, WHEATLAND, WY, 82201",160434139,"R"
873340,"804 15TH STREET","PORT HURON","MI",48060,42.9749336360001,-82.441450781,340,"804 15TH STREET, PORT HURON, MI, 48060","Match","Exact","804 15TH ST, PORT HURON, MI, 48060",110957587,"R"
873341,"804 1ST STREET","PRINCETON","MN",55371,45.5697476400001,-93.584902665,341,"804 1ST STREET, PRINCETON, MN, 55371","Match","Exact","804 1ST ST, PRINCETON, MN, 55371",163060349,"R"
873342,"804 24TH ST SE","WILLMAR","MN",56207,45.1157100720001,-95.01040691,342,"804 24TH ST SE, WILLMAR, MN, 56207","Match","Non_Exact","804 24TH ST SE, WILLMAR, MN, 56201",647384639,"L"
873343,"804 24TH STREET","WILSON","KS",67490,38.8272454890001,-98.478411901,343,"804 24TH STREET, WILSON, KS, 67490","Match","Exact","804 24TH ST, WILSON, KS, 67490",132863886,"R"
873344,"804 27 AVE SW","WILLMAR","MN",56201,45.0970959480001,-95.051179871,344,"804 27 AVE SW, WILLMAR, MN, 56201","Match","Exact","804 27TH AVE SW, WILLMAR, MN, 56201",36720256,"R"
873345,"804 2ND AVE S","CLEAR LAKE","IA",50428,43.1355333450001,-93.3785967319999,345,"804 2ND AVE S, CLEAR LAKE, IA, 50428","Match","Exact","804 2ND AVE S, CLEAR LAKE, IA, 50428",7288317,"R"
873346,"804 31ST AVE N","MINNEAPOLIS","MN",55411,45.0122328850001,-93.289977431,346,"804 31ST AVE N, MINNEAPOLIS, MN, 55411","Match","Exact","804 31ST AVE N, MINNEAPOLIS, MN, 55411",43622494,"R"
873347,"804 32ND STREET","WEST PALM BEACH","FL",33407,26.7430231380001,-80.0599906419999,347,"804 32ND STREET, WEST PALM BEACH, FL, 33407","Match","Exact","804 32ND ST, WEST PALM BEACH, FL, 33407",115277336,"L"
873348,"804 40TH AVE","AMANA","IA",52203,41.7993058640001,-91.876610924,348,"804 40TH AVE, AMANA, IA, 52203","Match","Exact","804 40TH AVE, AMANA, IA, 52203",84387324,"R"
873349,"804 41ST AVE","ANOKA","MN",55303,45.2271953210001,-93.3752144649999,349,"804 41ST AVE, ANOKA, MN, 55303","Match","Exact","804 41ST AVE, ANOKA, MN, 55303",97553230,"R"
873350,"804 4TH ST","COSMOPOLIS","WA",98537,46.9567423920001,-123.777197875,350,"804 4TH ST, COSMOPOLIS, WA, 98537","Match","Exact","804 4TH ST, COSMOPOLIS, WA, 98537",180582687,"L"
873351,"804 4TH STREET","ANITA","IA",50020,41.4461605490001,-94.767681367,351,"804 4TH STREET, ANITA, IA, 50020","Match","Exact","804 4TH ST, ANITA, IA, 50020",61594670,"R"
873352,"804 50TH STREET","LUBBOCK","TX",79404,33.5487917080001,-101.842924146,352,"804 50TH STREET, LUBBOCK, TX, 79404","Match","Exact","804 50TH ST, LUBBOCK, TX, 79404",185301598,"R"
873353,"804 5TH STREET","PETALUMA","CA",94952,38.2279910940001,-122.630247054,353,"804 5TH STREET, PETALUMA, CA, 94952","Match","Exact","804 5TH ST, PETALUMA, CA, 94952",639036755,"R"
873354,"804 6TH AVENUE","MENOMINEE","MI",49858,45.1041531390001,-87.6122953619999,354,"804 6TH AVENUE, MENOMINEE, MI, 49858","Match","Exact","804 6TH AVE, MENOMINEE, MI, 49858",170211178,"R"
873355,"804 9TH STREET","DEWITT","IA",52742,41.824189819,-90.542095909,355,"804 9TH STREET, DEWITT, IA, 52742","Match","Non_Exact","804 9TH ST, DE WITT, IA, 52742",16804964,"L"
873356,"804 A SOUTH FRANKLIN ST","WILMINGTON","DE",19805,39.7378636970001,-75.569370255,356,"804 A SOUTH FRANKLIN ST, WILMINGTON, DE, 19805","Match","Exact","804 S FRANKLIN ST, WILMINGTON, DE, 19805",187257236,"L"
873357,"804 ALLEN AVE","SHREVEPORT","LA",71103,32.5044122350001,-93.761039013,357,"804 ALLEN AVE, SHREVEPORT, LA, 71103","Match","Exact","804 ALLEN AVE, SHREVEPORT, LA, 71103",57486014,"R"
873358,"804 ALMOO STREET","LOWELL","AR",72745,36.265295893,-94.1297806429999,358,"804 ALMOO STREET, LOWELL, AR, 72745","Match","Exact","804 ALMOO ST, LOWELL, AR, 72745",47872220,"R"
873359,"804 AMARILLO","PLAINVIEW","TX",79072,34.187987804,-101.736827003,359,"804 AMARILLO, PLAINVIEW, TX, 79072","Match","Non_Exact","804 AMARILLO ST, PLAINVIEW, TX, 79072",185696656,"R"
873360,"804 ANCHORAGE DRIVE","NORTH PALM BEACH","FL",33408,26.821749642,-80.058500426,360,"804 ANCHORAGE DRIVE, NORTH PALM BEACH, FL, 33408","Match","Non_Exact","804 ANCHORAGE DR N, NORTH PALM BEACH, FL, 33408",115564883,"R"
873361,"804 ANDREA DRIVE","JONESBORO","AR",72405,35.81249719,-90.7196926889999,361,"804 ANDREA DRIVE, JONESBORO, AR, 72405","Match","Non_Exact","804 ANDREA DR, JONESBORO, AR, 72401",46940502,"R"
873362,"804 ANGIE LANE","ATHENS","TX",75751,32.1951600560001,-95.843191344,362,"804 ANGIE LANE, ATHENS, TX, 75751","Match","Exact","804 ANGIE LN, ATHENS, TX, 75751",125804757,"L"
873363,"804 ANSEL STREET","BENNETTSVILLE","SC",29512,34.626551222,-79.696170669,363,"804 ANSEL STREET, BENNETTSVILLE, SC, 29512","Match","Exact","804 ANSEL ST, BENNETTSVILLE, SC, 29512",25848075,"R"
873364,"804 ASPEN","GILLETTE","WY",82716,44.30300048,-105.477639644,364,"804 ASPEN, GILLETTE, WY, 82716","Match","Non_Exact","804 ASPEN LN, GILLETTE, WY, 82716",146350402,"R"
873365,"804 AVE P","SUNRAY","TX",79086,36.016337557,-101.820829009,365,"804 AVE P, SUNRAY, TX, 79086","Match","Exact","804 AVE P, SUNRAY, TX, 79086",164664140,"L"
873366,"804 AVENUE E","EL CAMPO","TX",77437,29.1967108600001,-96.279504034,366,"804 AVENUE E, EL CAMPO, TX, 77437","Match","Exact","804 AVENUE E, EL CAMPO, TX, 77437",42490749,"R"
873367,"804 B ENID STREET","HOUSTON","TX",77009,29.7982002740001,-95.3754956609999,367,"804 B ENID STREET, HOUSTON, TX, 77009","Match","Exact","804 ENID ST, HOUSTON, TX, 77009",96058079,"R"
873368,"804 BAILEY LANE","HAMPSHIRE","IL",60140,42.091214774,-88.519540634,368,"804 BAILEY LANE, HAMPSHIRE, IL, 60140","Match","Exact","804 BAILEY LN, HAMPSHIRE, IL, 60140",640201819,"L"
873369,"804 BARNARD TERRACE","BIRMINGHAM","AL",35206,33.5752920460001,-86.69071858,369,"804 BARNARD TERRACE, BIRMINGHAM, AL, 35206","Match","Exact","804 BARNARD TER, BIRMINGHAM, AL, 35206",81587015,"L"
873370,"804 BAY POINT DR","MADEIRA BEACH","FL",33708,27.8023853290001,-82.789874031,370,"804 BAY POINT DR, MADEIRA BEACH, FL, 33708","Match","Exact","804 BAY POINT DR, MADEIRA BEACH, FL, 33708",124692069,"R"
873371,"804 BEARDSLER","WINSLOW","IN",47598,NA,NA,371,"804 BEARDSLER, WINSLOW, IN, 47598","No_Match",NA,NA,NA,NA
873372,"804 BEARDSLEY","WINSLOW","IN",47598,38.378028192,-87.20972091,372,"804 BEARDSLEY, WINSLOW, IN, 47598","Match","Non_Exact","804 BEARDSLEY ST, WINSLOW, IN, 47598",32178924,"R"
873373,"804 BELLEVUE ST","GREENSBORO","NC",27406,36.0630200630001,-79.786888126,373,"804 BELLEVUE ST, GREENSBORO, NC, 27406","Match","Exact","804 BELLEVUE ST, GREENSBORO, NC, 27406",131033569,"R"
873374,"804 BENJAMIN COURT","BEL AIR","MD",21014,39.5453592000001,-76.3409627789999,374,"804 BENJAMIN COURT, BEL AIR, MD, 21014","Match","Exact","804 BENJAMIN CT, BEL AIR, MD, 21014",191649436,"L"
873375,"804 BLACK STREET","WALTERBORO","SC",29488,NA,NA,375,"804 BLACK STREET, WALTERBORO, SC, 29488","No_Match",NA,NA,NA,NA
873376,"804 BLUE SCOPE","DALLAS","TX",75211,32.737748943,-96.926586378,376,"804 BLUE SCOPE, DALLAS, TX, 75211","Match","Non_Exact","804 BLUE SCOPE LN, DALLAS, TX, 75211",103194496,"R"
873377,"804 BLY COURT","UPPER MARLBORO","MD",20774,38.878637842,-76.811976382,377,"804 BLY COURT, UPPER MARLBORO, MD, 20774","Match","Exact","804 BLY CT, UPPER MARLBORO, MD, 20774",76332422,"L"
873378,"804 BONBRIGHT CT","RALEIGH","NC",27614,35.92826245,-78.627507409,378,"804 BONBRIGHT CT, RALEIGH, NC, 27614","Match","Exact","804 BONBRIGHT CT, RALEIGH, NC, 27614",72524633,"L"
873379,"804 BROAD ST","WARRENSBURG","MO",64093,38.7604170220001,-93.7234201109999,379,"804 BROAD ST, WARRENSBURG, MO, 64093","Match","Exact","804 BROAD ST, WARRENSBURG, MO, 64093",95341690,"L"
873380,"804 BROADWAY ST","BELLEVUE","IA",52031,42.2640719840001,-90.434764758,380,"804 BROADWAY ST, BELLEVUE, IA, 52031","Match","Exact","804 BROADWAY ST, BELLEVUE, IA, 52031",16961224,"L"
873381,"804 BROOK ROAD","BARNESVILLE","GA",30204,33.074403427,-84.111260118,381,"804 BROOK ROAD, BARNESVILLE, GA, 30204","Match","Exact","804 BROOK RD, BARNESVILLE, GA, 30204",66648394,"R"
873382,"804 BROOKHILL DRIVE","LEXINGTON","KY",40502,37.9972730800001,-84.501362547,382,"804 BROOKHILL DRIVE, LEXINGTON, KY, 40502","Match","Exact","804 BROOKHILL DR, LEXINGTON, KY, 40502",31948665,"R"
873383,"804 BUTLER ST","COLDWATER","OH",45828,40.4866567560001,-84.638595844,383,"804 BUTLER ST, COLDWATER, OH, 45828","Match","Exact","804 BUTLER ST, COLDWATER, OH, 45828",43086513,"R"
873384,"804 CAMINO ACOMA","SANTA FE","NM",87505,NA,NA,384,"804 CAMINO ACOMA, SANTA FE, NM, 87505","No_Match",NA,NA,NA,NA
873385,"804 CAROLINE AVE","IOWA CITY","IA",52245,41.67965014,-91.522687177,385,"804 CAROLINE AVE, IOWA CITY, IA, 52245","Match","Exact","804 CAROLINE AVE, IOWA CITY, IA, 52245",84494965,"L"
873386,"804 CAROLYN DRIVE","CONCORD","NC",28025,35.392831272,-80.5593044029999,386,"804 CAROLYN DRIVE, CONCORD, NC, 28025","Match","Non_Exact","804 CAROLYN DR SE, CONCORD, NC, 28025",24900696,"R"
873387,"804 CARTER ST","PICAYUNE","MS",39466,30.541140958,-89.668269717,387,"804 CARTER ST, PICAYUNE, MS, 39466","Match","Exact","804 CARTER ST, PICAYUNE, MS, 39466",111471444,"L"
873388,"804 CASE - 646","WRANGELL","AK",99929,56.465092838,-132.376599033,388,"804 CASE - 646, WRANGELL, AK, 99929","Match","Non_Exact","804 CASE AVE, WRANGELL, AK, 99929",653130037,"L"
873389,"804 CASEY LANE","HARVARD","IL",60033,42.41193774,-88.626166547,389,"804 CASEY LANE, HARVARD, IL, 60033","Match","Exact","804 CASEY LN, HARVARD, IL, 60033",119874043,"R"
873390,"804 CEDAR ST","WAYCROSS","GA",31501,31.233357153,-82.353695715,390,"804 CEDAR ST, WAYCROSS, GA, 31501","Match","Exact","804 CEDAR ST, WAYCROSS, GA, 31501",5236477,"L"
873391,"804 CENTER AVENUE","AVALON","PA",15202,40.501568864,-80.064255012,391,"804 CENTER AVENUE, AVALON, PA, 15202","Match","Exact","804 CENTER AVE, AVALON, PA, 15202",51619566,"R"
873392,"804 CENTER AVENUE","PITTSBURGH","PA",15202,40.501568864,-80.064255012,392,"804 CENTER AVENUE, PITTSBURGH, PA, 15202","Match","Exact","804 CENTER AVE, PITTSBURGH, PA, 15202",51619566,"R"
873393,"804 CENTER COURT","BURGAW","NC",28425,34.548306369,-77.914667729,393,"804 CENTER COURT, BURGAW, NC, 28425","Match","Exact","804 CENTER CT, BURGAW, NC, 28425",14139033,"L"
873394,"804 CENTRAL AVE","RED WING","MN",55066,44.559191528,-92.533102046,394,"804 CENTRAL AVE, RED WING, MN, 55066","Match","Exact","804 CENTRAL AVE, RED WING, MN, 55066",31539194,"L"
873395,"804 CHARTER OAK DRIVE","NISKAYUNA","NY",12309,42.7728275970001,-73.863901743,395,"804 CHARTER OAK DRIVE, NISKAYUNA, NY, 12309","Match","Exact","804 CHARTER OAK DR, NISKAYUNA, NY, 12309",18032585,"R"
873396,"804 CHERRYWOOD CIRCLE","ANDOVER","KS",67002,NA,NA,396,"804 CHERRYWOOD CIRCLE, ANDOVER, KS, 67002","No_Match",NA,NA,NA,NA
873397,"804 CHESTNUT","CHENEY","WA",99004,47.479971268,-117.592272904,397,"804 CHESTNUT, CHENEY, WA, 99004","Match","Non_Exact","804 CHESTNUT ST, CHENEY, WA, 99004",189861301,"R"
873398,"804 CHURCH ST","ALMA","AR",72921,35.4887594590001,-94.2346928379999,398,"804 CHURCH ST, ALMA, AR, 72921","Match","Exact","804 CHURCH ST, ALMA, AR, 72921",53477526,"L"
873399,"804 CINNAMON RIDGE PL APT E","COCKEYSVILLE","MD",21030,39.470682933,-76.615071595,399,"804 CINNAMON RIDGE PL APT E, COCKEYSVILLE, MD, 21030","Match","Exact","804 CINNAMON RIDGE PL, COCKEYSVILLE, MD, 21030",191537880,"L"
873400,"804 CLOVER DRIVE","TOBYHANNA","PA",18466,41.1871947180001,-75.3522941259999,400,"804 CLOVER DRIVE, TOBYHANNA, PA, 18466","Match","Exact","804 CLOVER DR, TOBYHANNA, PA, 18466",136753307,"L"
873401,"804 CLUBHOUSE POINT","WOODSTOCK","GA",30188,NA,NA,401,"804 CLUBHOUSE POINT, WOODSTOCK, GA, 30188","No_Match",NA,NA,NA,NA
873402,"804 COLLEGE STREET","BOWLING GREEN","KY",42101,36.9946548890001,-86.440374869,402,"804 COLLEGE STREET, BOWLING GREEN, KY, 42101","Match","Exact","804 COLLEGE ST, BOWLING GREEN, KY, 42101",28007728,"R"
873403,"804 COLLIER AVE","CARNEGIE","PA",15106,40.4036791020001,-80.099591543,403,"804 COLLIER AVE, CARNEGIE, PA, 15106","Match","Non_Exact","804 COLLIER ST, CARNEGIE, PA, 15106",51932292,"R"
873404,"804 COLLIN RAYE DRIVE","DE QUEEN","AR",71832,NA,NA,404,"804 COLLIN RAYE DRIVE, DE QUEEN, AR, 71832","Tie",NA,NA,NA,NA
873405,"804 COLLINS STREET","ELMIRA","NY",14904,42.072086186,-76.808336912,405,"804 COLLINS STREET, ELMIRA, NY, 14904","Match","Exact","804 COLLINS ST, ELMIRA, NY, 14904",18534974,"L"
873406,"804 COLUMBIA ST","HELENA","AR",72342,34.5304023080001,-90.5912061609999,406,"804 COLUMBIA ST, HELENA, AR, 72342","Match","Exact","804 COLUMBIA ST, HELENA, AR, 72342",12307829,"R"
873407,"804 COLUMBINE CIRCLE","AUBURN","IN",46706,41.373661719,-85.047273783,407,"804 COLUMBINE CIRCLE, AUBURN, IN, 46706","Match","Exact","804 COLUMBINE CIR, AUBURN, IN, 46706",6515964,"L"
873408,"804 CONYER STREET","HAVANA","FL",32333,NA,NA,408,"804 CONYER STREET, HAVANA, FL, 32333","No_Match",NA,NA,NA,NA
873409,"804 COUNTY ROAD 37 SOUTH","HOPE HULL","AL",36043,32.263983567,-86.497123919,409,"804 COUNTY ROAD 37 SOUTH, HOPE HULL, AL, 36043","Match","Exact","804 CO RD 37 S, HOPE HULL, AL, 36043",1429164,"R"
873410,"804 CRESSE AVE","WILDWOOD","NJ",8260,38.9882363410001,-74.837595047,410,"804 CRESSE AVE, WILDWOOD, NJ, 8260","Match","Exact","804 CRESSE AVE, WILDWOOD, NJ, 08260",647097044,"R"
873411,"804 CRIPPLE CREEK LANE","SUFFOLK","VA",23434,36.7166707860001,-76.568418767,411,"804 CRIPPLE CREEK LANE, SUFFOLK, VA, 23434","Match","Exact","804 CRIPPLE CREEK LN, SUFFOLK, VA, 23434",122246980,"L"
873412,"804 DALEVIEW PLACE","GREENSBORO","NC",27406,36.038571743,-79.809535501,412,"804 DALEVIEW PLACE, GREENSBORO, NC, 27406","Match","Exact","804 DALEVIEW PL, GREENSBORO, NC, 27406",131045869,"R"
873413,"804 DANA RAE COURT","NEWPORT NEWS","VA",23605,37.0214745700001,-76.424078821,413,"804 DANA RAE COURT, NEWPORT NEWS, VA, 23605","Match","Exact","804 DANA RAE CT, NEWPORT NEWS, VA, 23605",103818389,"R"
873414,"804 DARTMOUTH ROAD APT C","BALTIMORE","MD",21212,39.365923572,-76.60568155,414,"804 DARTMOUTH ROAD APT C, BALTIMORE, MD, 21212","Match","Exact","804 DARTMOUTH RD, BALTIMORE, MD, 21212",206408296,"L"
873415,"804 DARWOOD STREET","TEMPLE TERRACE","FL",33617,28.016233754,-82.381780556,415,"804 DARWOOD STREET, TEMPLE TERRACE, FL, 33617","Match","Exact","804 DARWOOD ST, TEMPLE TER, FL, 33617",104533156,"L"
873416,"804 DAWSON ST","AURORA","CO",80011,39.7284154710001,-104.816119539,416,"804 DAWSON ST, AURORA, CO, 80011","Match","Exact","804 DAWSON ST, AURORA, CO, 80011",177354469,"R"
873417,"804 DEER VALLEY DR","HIXSON","TN",37343,35.188851266,-85.265148661,417,"804 DEER VALLEY DR, HIXSON, TN, 37343","Match","Exact","804 DEER VALLEY DR, HIXSON, TN, 37343",633826803,"R"
873418,"804 DEFALCO AVE","VINELAND","NJ",8360,39.47330959,-75.025663499,418,"804 DEFALCO AVE, VINELAND, NJ, 8360","Match","Exact","804 DEFALCO AVE, VINELAND, NJ, 08360",174111385,"R"
873419,"804 DELAFIELD RD","PITTSBURGH","PA",15215,40.4956372230001,-79.894107037,419,"804 DELAFIELD RD, PITTSBURGH, PA, 15215","Match","Exact","804 DELAFIELD RD, PITTSBURGH, PA, 15215",51647404,"R"
873420,"804 DELAFIELD ROAD","PITTSBURGH","PA",15215,40.4956372230001,-79.894107037,420,"804 DELAFIELD ROAD, PITTSBURGH, PA, 15215","Match","Exact","804 DELAFIELD RD, PITTSBURGH, PA, 15215",51647404,"R"
873421,"804 DENVER STREET","PAWNEE","OK",74058,36.33324645,-96.807415051,421,"804 DENVER STREET, PAWNEE, OK, 74058","Match","Exact","804 DENVER ST, PAWNEE, OK, 74058",636702799,"L"
873422,"804 DEVON LANE","BRANCHBURG","NJ",8853,40.547230255,-74.712749983,422,"804 DEVON LANE, BRANCHBURG, NJ, 8853","Match","Exact","804 DEVON LN, BRANCHBURG, NJ, 08853",59952510,"R"
873423,"804 DILLON AVENUE NW","AIKEN","SC",29801,33.5689667020001,-81.728013253,423,"804 DILLON AVENUE NW, AIKEN, SC, 29801","Match","Exact","804 DILLON AVE NW, AIKEN, SC, 29801",64990257,"L"
873424,"804 DILLS FARM WAY","GREER","SC",29651,34.961148833,-82.28198428,424,"804 DILLS FARM WAY, GREER, SC, 29651","Match","Exact","804 DILLS FARM WAY, GREER, SC, 29651",38370245,"R"
873425,"804 DIVISION ST","GLOUCESTER CITY","NJ",8030,39.8905202600001,-75.121410719,425,"804 DIVISION ST, GLOUCESTER CITY, NJ, 8030","Match","Exact","804 DIVISION ST, GLOUCESTER CITY, NJ, 08030",651907307,"R"
873426,"804 DIXON ST","KINSTON","NC",28501,35.282681354,-77.57149392,426,"804 DIXON ST, KINSTON, NC, 28501","Match","Exact","804 DIXON ST, KINSTON, NC, 28501",13875339,"L"
873427,"804 DUSKY SAP COURT","GRIFFIN","GA",30223,33.3029004310001,-84.244559346,427,"804 DUSKY SAP COURT, GRIFFIN, GA, 30223","Match","Exact","804 DUSKY SAP CT, GRIFFIN, GA, 30223",645777787,"R"
873428,"804 E 12TH STREET","MISHAWAKA","IN",46544,41.6512522530001,-86.16892389,428,"804 E 12TH STREET, MISHAWAKA, IN, 46544","Match","Exact","804 E 12TH ST, MISHAWAKA, IN, 46544",8062786,"L"
873429,"804 E 14TH AVENUE","DENVER","CO",80218,39.7384103300001,-104.977476307,429,"804 E 14TH AVENUE, DENVER, CO, 80218","Match","Exact","804 E 14TH AVE, DENVER, CO, 80218",177305815,"R"
873430,"804 E 36TH AVE","SPOKANE","WA",99203,47.6215219800001,-117.398485427,430,"804 E 36TH AVE, SPOKANE, WA, 99203","Match","Exact","804 E 36TH AVE, SPOKANE, WA, 99203",189881424,"R"
873431,"804 E 7TH STREET","HUNTINGBURG","IN",47542,38.2999187350001,-86.948190997,431,"804 E 7TH STREET, HUNTINGBURG, IN, 47542","Match","Exact","804 E 7TH ST, HUNTINGBURG, IN, 47542",7873521,"R"
873432,"804 E BENTON AVE","AVA","MO",65608,36.9527406030001,-92.654013881,432,"804 E BENTON AVE, AVA, MO, 65608","Match","Exact","804 E BENTON AVE, AVA, MO, 65608",46283417,"R"
873433,"804 E BUCKLEY","BROWNFIELD","TX",79316,33.175041854,-102.267062283,433,"804 E BUCKLEY, BROWNFIELD, TX, 79316","Match","Non_Exact","804 E BUCKLEY ST, BROWNFIELD, TX, 79316",185892187,"L"
873434,"804 E CRESCENT","CHERRYVILLE","NC",28021,35.373703558,-81.369415112,434,"804 E CRESCENT, CHERRYVILLE, NC, 28021","Match","Non_Exact","804 CRESCENT DR, CHERRYVILLE, NC, 28021",70392026,"R"
873435,"804 E FREMONT ST","LARAMIE","WY",82072,41.313424022,-105.586587517,435,"804 E FREMONT ST, LARAMIE, WY, 82072","Match","Exact","804 E FREMONT ST, LARAMIE, WY, 82072",168740105,"L"
873436,"804 E HUMPHREY AVE","ROCK FALLS","IL",61071,41.775364945,-89.656932313,436,"804 E HUMPHREY AVE, ROCK FALLS, IL, 61071","Match","Exact","804 E HUMPHREY AVE, ROCK FALLS, IL, 61071",48968476,"L"
873437,"804 E KELSO STREET APT 4","INGLEWOOD","CA",90301,33.956751996,-118.345320495,437,"804 E KELSO STREET APT 4, INGLEWOOD, CA, 90301","Match","Non_Exact","804 E KELSO ST, INGLEWOOD, CA, 90301",142750631,"R"
873438,"804 E MAIN","EAST HELENA","MT",59635,46.589354809,-111.906411374,438,"804 E MAIN, EAST HELENA, MT, 59635","Match","Non_Exact","804 E MAIN ST, EAST HELENA, MT, 59635",202370091,"R"
873439,"804 E RAINTREE AVE","SANDY","UT",84094,40.6053101320001,-111.868819363,439,"804 E RAINTREE AVE, SANDY, UT, 84094","Match","Exact","804 RAINTREE AVE, SANDY, UT, 84094",645878098,"L"
873440,"804 E SAINT MARY BOULEVARD","LAFAYETTE","LA",70503,30.2094362020001,-92.0150795769999,440,"804 E SAINT MARY BOULEVARD, LAFAYETTE, LA, 70503","Match","Exact","804 E SAINT MARY BLVD, LAFAYETTE, LA, 70503",85616327,"R"
873441,"804 E SEMINARY AVE","TOWSON","MD",21286,39.4242962810001,-76.571226827,441,"804 E SEMINARY AVE, TOWSON, MD, 21286","Match","Exact","804 E SEMINARY AVE, TOWSON, MD, 21286",191474635,"L"
873442,"804 E STATE ST","BRIDGEPORT","IL",62417,38.7165478000001,-87.75226811,442,"804 E STATE ST, BRIDGEPORT, IL, 62417","Match","Exact","804 E STATE ST, BRIDGEPORT, IL, 62417",29664702,"L"
873443,"804 E VIRGINA ST","VICTORIA","TX",77901,28.8142826530001,-96.99650151,443,"804 E VIRGINA ST, VICTORIA, TX, 77901","Match","Non_Exact","804 E VIRGINIA AVE, VICTORIA, TX, 77901",44559882,"L"
873444,"804 E WINDWARD WAY APT 501","LANTANA","FL",33462,NA,NA,444,"804 E WINDWARD WAY APT 501, LANTANA, FL, 33462","Tie",NA,NA,NA,NA
873445,"804 EAGLE LANDING DRIVE","BELTON","TX",76513,31.134732333,-97.486772242,445,"804 EAGLE LANDING DRIVE, BELTON, TX, 76513","Match","Exact","804 EAGLE LANDING DR, BELTON, TX, 76513",648660071,"R"
873446,"804 EAST 7TH STREET","PORT ANGELES","WI",98362,NA,NA,446,"804 EAST 7TH STREET, PORT ANGELES, WI, 98362","No_Match",NA,NA,NA,NA
873447,"804 EAST 8280 SOUTH","SANDY","UT",84094,40.600913894,-111.868784554,447,"804 EAST 8280 SOUTH, SANDY, UT, 84094","Match","Exact","804 E 8280 S, SANDY, UT, 84094",176088765,"R"
873448,"804 EAST AVE","NEW CASTLE","DE",19720,39.698809926,-75.545063187,448,"804 EAST AVE, NEW CASTLE, DE, 19720","Match","Exact","804 EAST AVE, NEW CASTLE, DE, 19720",187270508,"L"
873449,"804 EAST BOWEN AVE","CHICAGO","IL",60608,41.819480797,-87.606535633,449,"804 EAST BOWEN AVE, CHICAGO, IL, 60608","Match","Non_Exact","804 E BOWEN AVE, CHICAGO, IL, 60653",605498640,"L"
873450,"804 EAST COLONY PLACE","NASHVILLE","TN",37221,36.0542252060001,-86.951885905,450,"804 EAST COLONY PLACE, NASHVILLE, TN, 37221","Match","Exact","804 E COLONY PL, NASHVILLE, TN, 37221",97222523,"R"
873451,"804 EAST INMAN STREET","STATESBORO","GA",30458,32.442111083,-81.774010098,451,"804 EAST INMAN STREET, STATESBORO, GA, 30458","Match","Exact","804 E INMAN ST, STATESBORO, GA, 30458",6116782,"R"
873452,"804 EAST MAIN STREET","MILLVILLE","NJ",8332,39.395193314,-75.028430396,452,"804 EAST MAIN STREET, MILLVILLE, NJ, 8332","Match","Exact","804 E MAIN ST, MILLVILLE, NJ, 08332",174112662,"L"
873453,"804 EDGEWOOD AVENUE","ATLANTA","GA",30307,33.7552736540001,-84.36128261,453,"804 EDGEWOOD AVENUE, ATLANTA, GA, 30307","Match","Non_Exact","804 EDGEWOOD AVE NE, ATLANTA, GA, 30307",618357448,"L"
873454,"804 EDWIN DR","BOURBONNAIS","IL",60914,41.16765064,-87.864918727,454,"804 EDWIN DR, BOURBONNAIS, IL, 60914","Match","Exact","804 EDWIN DR, BOURBONNAIS, IL, 60914",98354532,"R"
873455,"804 EDWIN DRIVE","VIRGINIA BEACH","VA",23464,36.815585087,-76.145582534,455,"804 EDWIN DRIVE, VIRGINIA BEACH, VA, 23464","Match","Exact","804 EDWIN DR, VA BCH, VA, 23464",122296310,"L"
873456,"804 ELDORADO AVE","CLEARWATER","FL",33767,27.9935708790001,-82.827755,456,"804 ELDORADO AVE, CLEARWATER, FL, 33767","Match","Exact","804 ELDORADO AVE, CLEARWATER, FL, 33767",124663615,"L"
873457,"804 ELIZABETH DRIVE","BLACKSBURG","VA",24060,37.2403080780001,-80.433091857,457,"804 ELIZABETH DRIVE, BLACKSBURG, VA, 24060","Match","Exact","804 ELIZABETH DR, BLACKSBURG, VA, 24060",73615999,"L"
873458,"804 EMERSON AVE N","MINNEAPOLIS","MN",55411,44.9864560070001,-93.294075106,458,"804 EMERSON AVE N, MINNEAPOLIS, MN, 55411","Match","Exact","804 EMERSON AVE N, MINNEAPOLIS, MN, 55411",642733854,"R"
873459,"804 ENCINO DR","ARLINGTON","TX",76001,32.617400983,-97.1212786839999,459,"804 ENCINO DR, ARLINGTON, TX, 76001","Match","Exact","804 ENCINO DR, ARLINGTON, TX, 76001",102148410,"R"
873460,"804 ENGMAN ST","CLEARWATER","FL",33755,27.9786545380001,-82.7952894319999,460,"804 ENGMAN ST, CLEARWATER, FL, 33755","Match","Exact","804 ENGMAN ST, CLEARWATER, FL, 33755",124664269,"L"
873461,"804 EPWORTH CAMP RD","NINETY SIX","SC",29666,34.080012045,-82.060636625,461,"804 EPWORTH CAMP RD, NINETY SIX, SC, 29666","Match","Non_Exact","804 EPWORTH CAMP RD E, NINETY SIX, SC, 29666",50819213,"R"
873462,"804 ESPLANADE","REDONDO BEACH","CA",90277,33.8288008870001,-118.389786539,462,"804 ESPLANADE, REDONDO BEACH, CA, 90277","Match","Exact","804 ESPLANADE, REDONDO BEACH, CA, 90277",141584004,"L"
873463,"804 EUCLID STREET","HOUSTON","TX",77009,29.7852759510001,-95.380874284,463,"804 EUCLID STREET, HOUSTON, TX, 77009","Match","Exact","804 EUCLID ST, HOUSTON, TX, 77009",96065675,"L"
873464,"804 FAIR LANE","NORTHBROOK","IL",60062,42.138051504,-87.833357447,464,"804 FAIR LANE, NORTHBROOK, IL, 60062","Match","Exact","804 FAIR LN, NORTHBROOK, IL, 60062",111839274,"R"
873465,"804 FAIRLAWN DRIVE","BOLIVAR","TN",38008,35.263505212,-88.9986991499999,465,"804 FAIRLAWN DRIVE, BOLIVAR, TN, 38008","Match","Exact","804 FAIRLAWN DR, BOLIVAR, TN, 38008",21118339,"R"
873466,"804 FALCON DR","MADISON","TN",37115,36.2762350530001,-86.732824917,466,"804 FALCON DR, MADISON, TN, 37115","Match","Exact","804 FALCON DR, MADISON, TN, 37115",97182530,"R"
873467,"804 FENWICK PARKWAY","DURHAM","NC",27713,35.8820491010001,-78.9220095759999,467,"804 FENWICK PARKWAY, DURHAM, NC, 27713","Match","Exact","804 FENWICK PKWY, DURHAM, NC, 27713",618111577,"R"
873468,"804 FERRULE DR","MCKINNEY","TX",75069,33.1719353080001,-96.628640036,468,"804 FERRULE DR, MCKINNEY, TX, 75069","Match","Exact","804 FERRULE DR, MCKINNEY, TX, 75069",619923441,"L"
873469,"804 FILBERT STREET","PALMYRA","NJ",8065,39.9986061220001,-75.024243681,469,"804 FILBERT STREET, PALMYRA, NJ, 8065","Match","Exact","804 FILBERT ST, PALMYRA, NJ, 08065",134024950,"L"
873470,"804 FINNEY TRAIL","CINCINNATI","OH",45224,39.2106327170001,-84.513598268,470,"804 FINNEY TRAIL, CINCINNATI, OH, 45224","Match","Exact","804 FINNEY TRL, CINCINNATI, OH, 45224",649546212,"R"
873471,"804 FOX RUN TRAIL","SAGINAW","TX",76179,32.868341356,-97.389576962,471,"804 FOX RUN TRAIL, SAGINAW, TX, 76179","Match","Exact","804 FOX RUN TRL, SAGINAW, TX, 76179",102095075,"L"
873472,"804 GAME FARM ROAD","YORKVILLE","IL",60560,41.654432662,-88.450911965,472,"804 GAME FARM ROAD, YORKVILLE, IL, 60560","Match","Exact","804 GAME FARM RD, YORKVILLE, IL, 60560",54483239,"R"
873473,"804 GEORGIA STREET","COAL HILL","AR",72832,35.436397479,-93.66594062,473,"804 GEORGIA STREET, COAL HILL, AR, 72832","Match","Exact","804 GEORGIA ST, COAL HILL, AR, 72832",73515949,"L"
873474,"804 GOLFVIEW","SOUTH BEND","IN",46614,41.635641417,-86.23813869,474,"804 GOLFVIEW, SOUTH BEND, IN, 46614","Match","Non_Exact","804 GOLFVIEW LN, SOUTH BEND, IN, 46614",8057743,"R"
873475,"804 GOODBREAD LANE","TALLAHASSEE","FL",32303,30.451241913,-84.288690738,475,"804 GOODBREAD LANE, TALLAHASSEE, FL, 32303","Match","Exact","804 GOODBREAD LN, TALLAHASSEE, FL, 32303",82889858,"L"
873476,"804 GRAND AVENUE","GRAND JUNCTION","CO",81501,39.070329799,-108.55917657,476,"804 GRAND AVENUE, GRAND JUNCTION, CO, 81501","Match","Exact","804 GRAND AVE, GRAND JCT, CO, 81501",122432468,"L"
873477,"804 GRAPEVINE DR","CEDAR PARK","TX",78613,30.512650771,-97.846466834,477,"804 GRAPEVINE DR, CEDAR PARK, TX, 78613","Match","Exact","804 GRAPEVINE DR, CEDAR PARK, TX, 78613",126475757,"R"
873478,"804 GREEN JACKET WAY","O FALLON","IL",62269,38.6177540530001,-89.9645729869999,478,"804 GREEN JACKET WAY, O FALLON, IL, 62269","Match","Exact","804 GREEN JACKET WAY, O FALLON, IL, 62269",650700236,"R"
873479,"804 GREEN VALLEY ROAD SUITE 200","GREENSBORO","NC",27408,36.0917897850001,-79.8172610459999,479,"804 GREEN VALLEY ROAD SUITE 200, GREENSBORO, NC, 27408","Match","Exact","804 GREEN VALLEY RD, GREENSBORO, NC, 27408",131095885,"R"
873480,"804 GREEN VALLEY ROAD","GREENSBORO","NC",27408,36.0917897850001,-79.8172610459999,480,"804 GREEN VALLEY ROAD, GREENSBORO, NC, 27408","Match","Exact","804 GREEN VALLEY RD, GREENSBORO, NC, 27408",131095885,"R"
873481,"804 GREENBRIAR LANE","UNIVERSITY PARK","IL",60428,NA,NA,481,"804 GREENBRIAR LANE, UNIVERSITY PARK, IL, 60428","Tie",NA,NA,NA,NA
873482,"804 GREENVIEW AVE","DELTA","OH",43515,41.586446186,-83.997179422,482,"804 GREENVIEW AVE, DELTA, OH, 43515","Match","Non_Exact","804 GREENVIEW DR, DELTA, OH, 43515",207387209,"R"
873483,"804 GROVES ST","KINGS MOUNTAIN","NC",28086,35.255842225,-81.325074817,483,"804 GROVES ST, KINGS MOUNTAIN, NC, 28086","Match","Exact","804 GROVES ST, KINGS MOUNTAIN, NC, 28086",19322012,"L"
873484,"804 GUY STREET","TUSKEGEE","AL",36083,32.4489470440001,-85.6736031569999,484,"804 GUY STREET, TUSKEGEE, AL, 36083","Match","Exact","804 GUY ST, TUSKEGEE, AL, 36083",69138620,"L"
873485,"804 HAMSTER PLACE","POINCIANA","FL",34759,28.116704758,-81.460790199,485,"804 HAMSTER PLACE, POINCIANA, FL, 34759","Match","Exact","804 HAMSTER PL, POINCIANA, FL, 34759",104805957,"R"
873486,"804 HERN ST","BLYTHEVILLE","AR",72315,35.930353869,-89.912559361,486,"804 HERN ST, BLYTHEVILLE, AR, 72315","Match","Non_Exact","804 HEARN ST, BLYTHEVILLE, AR, 72315",47217458,"R"
873487,"804 HIBISCUS AVE","MELBOURNE","FL",32901,NA,NA,487,"804 HIBISCUS AVE, MELBOURNE, FL, 32901","No_Match",NA,NA,NA,NA
873488,"804 HICKORY GLEN DRIVE","SEFFNER","FL",33584,27.995240998,-82.2709718999999,488,"804 HICKORY GLEN DRIVE, SEFFNER, FL, 33584","Match","Exact","804 HICKORY GLEN DR, SEFFNER, FL, 33584",104643003,"R"
873489,"804 HIGH ST SE","CANAL FULTON","OH",44614,40.8862751,-81.5918048839999,489,"804 HIGH ST SE, CANAL FULTON, OH, 44614","Match","Exact","804 HIGH ST SE, CANAL FULTON, OH, 44614",64691940,"L"
873490,"804 HIGHLAND AVE","OAK PARK","IL",60304,41.874283043,-87.781798092,490,"804 HIGHLAND AVE, OAK PARK, IL, 60304","Match","Non_Exact","804 S HIGHLAND AVE, OAK PARK, IL, 60304",111794845,"L"
873491,"804 HIGHLAND CROSSING","BLAIRSVILLE","GA",30512,34.810474513,-83.959782008,491,"804 HIGHLAND CROSSING, BLAIRSVILLE, GA, 30512","Match","Exact","804 HIGHLAND CROSSING, BLAIRSVILLE, GA, 30512",85278058,"R"
873492,"804 HIGHLAND DR","TYRONE","PA",16686,40.6777635710001,-78.24958506,492,"804 HIGHLAND DR, TYRONE, PA, 16686","Match","Exact","804 HIGHLAND DR, TYRONE, PA, 16686",633317637,"R"
873493,"804 HILL STREET","MAYFIELD","PA",18433,41.5391556340001,-75.534477795,493,"804 HILL STREET, MAYFIELD, PA, 18433","Match","Exact","804 HILL ST, MAYFIELD, PA, 18433",139331915,"R"
873494,"804 HILLWOOD AVE","FALLS CHURCH","VA",22042,38.875748888,-77.164017228,494,"804 HILLWOOD AVE, FALLS CHURCH, VA, 22042","Match","Exact","804 HILLWOOD AVE, FALLS CHURCH, VA, 22042",75979759,"R"
873495,"804 HOLLY ANN LANE","SAVANNAH","TX",76227,NA,NA,495,"804 HOLLY ANN LANE, SAVANNAH, TX, 76227","No_Match",NA,NA,NA,NA
873496,"804 HOLLY STREET","MEMPHIS","TN",38112,35.156700341,-89.979230849,496,"804 HOLLY STREET, MEMPHIS, TN, 38112","Match","Exact","804 HOLLY ST, MEMPHIS, TN, 38112",72913010,"R"
873497,"804 HOLLY","MEMPHIS","TN",38112,35.156700341,-89.979230849,497,"804 HOLLY, MEMPHIS, TN, 38112","Match","Non_Exact","804 HOLLY ST, MEMPHIS, TN, 38112",72913010,"R"
873498,"804 HOWDENSHIRE RUN","KNIGHTDALE","NC",27545,35.7765600560001,-78.514445842,498,"804 HOWDENSHIRE RUN, KNIGHTDALE, NC, 27545","Match","Exact","804 HOWDENSHIRE RUN, KNIGHTDALE, NC, 27545",618768215,"L"
873499,"804 HUGH STREET","PEARL CITY","HI",96782,21.39015957,-157.973400069,499,"804 HUGH STREET, PEARL CITY, HI, 96782","Match","Exact","804 HUGH ST, PEARL CITY, HI, 96782",203229400,"L"
873500,"804 HUNTER CREEK RD","ASPEN","CO",81611,39.20417717,-106.810595757,500,"804 HUNTER CREEK RD, ASPEN, CO, 81611","Match","Exact","804 HUNTER CREEK RD, ASPEN, CO, 81611",105960454,"R"
