"ID","Address","City","State","Zip","lat","long","id","input_address","match_indicator","match_type","matched_address","tiger_line_id","tiger_side"
974501,"PO BOX 161355","ATLANTA","GA",30321,NA,NA,1,"PO BOX 161355, ATLANTA, GA, 30321","No_Match",NA,NA,NA,NA
974502,"PO BOX 16136","ATLANTA","GA",30321,NA,NA,2,"PO BOX 16136, ATLANTA, GA, 30321","No_Match",NA,NA,NA,NA
974503,"PO BOX 1614","ALBANY","TX",76430,NA,NA,3,"PO BOX 1614, ALBANY, TX, 76430","No_Match",NA,NA,NA,NA
974504,"PO BOX 1614","COLUMBUS","NM",88029,NA,NA,4,"PO BOX 1614, COLUMBUS, NM, 88029","No_Match",NA,NA,NA,NA
974505,"PO BOX 1614","CYPRESS","TX",77410,NA,NA,5,"PO BOX 1614, CYPRESS, TX, 77410","No_Match",NA,NA,NA,NA
974506,"PO BOX 1614","FORT DEFIANCE","AZ",86504,NA,NA,6,"PO BOX 1614, FORT DEFIANCE, AZ, 86504","No_Match",NA,NA,NA,NA
974507,"PO BOX 1614","JACKSONVILLE","OR",97530,NA,NA,7,"PO BOX 1614, JACKSONVILLE, OR, 97530","No_Match",NA,NA,NA,NA
974508,"PO BOX 1614","MACKINAC ISLAND","MI",49757,NA,NA,8,"PO BOX 1614, MACKINAC ISLAND, MI, 49757","No_Match",NA,NA,NA,NA
974509,"PO BOX 161422","FORT WORTH","TX",76161,NA,NA,9,"PO BOX 161422, FORT WORTH, TX, 76161","No_Match",NA,NA,NA,NA
974510,"PO BOX 161422","FORT WORTH","TX",76244,NA,NA,10,"PO BOX 161422, FORT WORTH, TX, 76244","No_Match",NA,NA,NA,NA
974511,"PO BOX 16143","SAN JUAN","PR",908,NA,NA,11,"PO BOX 16143, SAN JUAN, PR, 908","No_Match",NA,NA,NA,NA
974512,"PO BOX 1615","BONNERS FERRY","ID",83805,NA,NA,12,"PO BOX 1615, BONNERS FERRY, ID, 83805","No_Match",NA,NA,NA,NA
974513,"PO BOX 1615","MIDDLEBURG","VA",20118,NA,NA,13,"PO BOX 1615, MIDDLEBURG, VA, 20118","No_Match",NA,NA,NA,NA
974514,"PO BOX 161582","MIAMI","FL",33116,NA,NA,14,"PO BOX 161582, MIAMI, FL, 33116","No_Match",NA,NA,NA,NA
974515,"PO BOX 1616","BOULDER","CO",80306,NA,NA,15,"PO BOX 1616, BOULDER, CO, 80306","No_Match",NA,NA,NA,NA
974516,"PO BOX 1616","LYTLE","TX",78052,NA,NA,16,"PO BOX 1616, LYTLE, TX, 78052","No_Match",NA,NA,NA,NA
974517,"PO BOX 1616","RINCON","PR",677,NA,NA,17,"PO BOX 1616, RINCON, PR, 677","No_Match",NA,NA,NA,NA
974518,"PO BOX 1616","SANDPOINT","ID",83864,NA,NA,18,"PO BOX 1616, SANDPOINT, ID, 83864","No_Match",NA,NA,NA,NA
974519,"PO BOX 1616","TELLURIDE","CO",81435,NA,NA,19,"PO BOX 1616, TELLURIDE, CO, 81435","No_Match",NA,NA,NA,NA
974520,"PO BOX 16161","SAN SIMON","AZ",85632,NA,NA,20,"PO BOX 16161, SAN SIMON, AZ, 85632","No_Match",NA,NA,NA,NA
974521,"PO BOX 161677","BIG SKY","MT",59716,NA,NA,21,"PO BOX 161677, BIG SKY, MT, 59716","No_Match",NA,NA,NA,NA
974522,"PO BOX 161691","ALTAMONTE SPRINGS","FL",32716,NA,NA,22,"PO BOX 161691, ALTAMONTE SPRINGS, FL, 32716","No_Match",NA,NA,NA,NA
974523,"PO BOX 161697","BIG SKY","MT",59716,NA,NA,23,"PO BOX 161697, BIG SKY, MT, 59716","No_Match",NA,NA,NA,NA
974524,"PO BOX 1617","SMITHFIELD","NC",27577,NA,NA,24,"PO BOX 1617, SMITHFIELD, NC, 27577","No_Match",NA,NA,NA,NA
974525,"PO BOX 161711","BIG SKY","MT",59716,NA,NA,25,"PO BOX 161711, BIG SKY, MT, 59716","No_Match",NA,NA,NA,NA
974526,"PO BOX 16174","WILMINGTON","NC",28408,NA,NA,26,"PO BOX 16174, WILMINGTON, NC, 28408","No_Match",NA,NA,NA,NA
974527,"PO BOX 1618","EL CERRITO","CA",94530,NA,NA,27,"PO BOX 1618, EL CERRITO, CA, 94530","No_Match",NA,NA,NA,NA
974528,"PO BOX 1618","WYTHEVILLE","VA",24382,NA,NA,28,"PO BOX 1618, WYTHEVILLE, VA, 24382","No_Match",NA,NA,NA,NA
974529,"PO BOX 161807","ATLANTA","GA",30321,NA,NA,29,"PO BOX 161807, ATLANTA, GA, 30321","No_Match",NA,NA,NA,NA
974530,"PO BOX 16184","CHARLOTTE","NC",28297,NA,NA,30,"PO BOX 16184, CHARLOTTE, NC, 28297","No_Match",NA,NA,NA,NA
974531,"PO BOX 161843","ATLANTA","GA",30304,NA,NA,31,"PO BOX 161843, ATLANTA, GA, 30304","No_Match",NA,NA,NA,NA
974532,"PO BOX 1619","MOAB","UT",84532,NA,NA,32,"PO BOX 1619, MOAB, UT, 84532","No_Match",NA,NA,NA,NA
974533,"PO BOX 16192","TWO RIVERS","AK",99716,NA,NA,33,"PO BOX 16192, TWO RIVERS, AK, 99716","No_Match",NA,NA,NA,NA
974534,"PO BOX 16194","LUBBOCK","TX",79490,NA,NA,34,"PO BOX 16194, LUBBOCK, TX, 79490","No_Match",NA,NA,NA,NA
974535,"PO BOX 161965","BIG SKY","MT",59716,NA,NA,35,"PO BOX 161965, BIG SKY, MT, 59716","No_Match",NA,NA,NA,NA
974536,"PO BOX 161984","AUSTIN","TX",78716,NA,NA,36,"PO BOX 161984, AUSTIN, TX, 78716","No_Match",NA,NA,NA,NA
974537,"PO BOX 162-0020-","KAREN",NA,NA,NA,NA,37,"PO BOX 162-0020-, KAREN, , ","No_Match",NA,NA,NA,NA
974538,"PO BOX 162","ADAIR","OK",74330,NA,NA,38,"PO BOX 162, ADAIR, OK, 74330","No_Match",NA,NA,NA,NA
974539,"PO BOX 162","ALMA","NE",68920,NA,NA,39,"PO BOX 162, ALMA, NE, 68920","No_Match",NA,NA,NA,NA
974540,"PO BOX 162","BENNETT","CO",80102,NA,NA,40,"PO BOX 162, BENNETT, CO, 80102","No_Match",NA,NA,NA,NA
974541,"PO BOX 162","BLUE LAKE","CA",95525,NA,NA,41,"PO BOX 162, BLUE LAKE, CA, 95525","No_Match",NA,NA,NA,NA
974542,"PO BOX 162","BOTKINS","OH",45306,NA,NA,42,"PO BOX 162, BOTKINS, OH, 45306","No_Match",NA,NA,NA,NA
974543,"PO BOX 162","CAPON BRIDGE","WV",26711,NA,NA,43,"PO BOX 162, CAPON BRIDGE, WV, 26711","No_Match",NA,NA,NA,NA
974544,"PO BOX 162","CHIMACUM","WA",98325,NA,NA,44,"PO BOX 162, CHIMACUM, WA, 98325","No_Match",NA,NA,NA,NA
974545,"PO BOX 162","CHRISTINE","TX",78012,NA,NA,45,"PO BOX 162, CHRISTINE, TX, 78012","No_Match",NA,NA,NA,NA
974546,"PO BOX 162","CLEVELAND","AL",35049,NA,NA,46,"PO BOX 162, CLEVELAND, AL, 35049","No_Match",NA,NA,NA,NA
974547,"PO BOX 162","DIXON","MO",65459,NA,NA,47,"PO BOX 162, DIXON, MO, 65459","No_Match",NA,NA,NA,NA
974548,"PO BOX 162","DOYLE","CA",96109,NA,NA,48,"PO BOX 162, DOYLE, CA, 96109","No_Match",NA,NA,NA,NA
974549,"PO BOX 162","DYERSBURG","TN",38025,NA,NA,49,"PO BOX 162, DYERSBURG, TN, 38025","No_Match",NA,NA,NA,NA
974550,"PO BOX 162","EGNAR","CO",81325,NA,NA,50,"PO BOX 162, EGNAR, CO, 81325","No_Match",NA,NA,NA,NA
974551,"PO BOX 162","EPHRAIM","UT",84627,NA,NA,51,"PO BOX 162, EPHRAIM, UT, 84627","No_Match",NA,NA,NA,NA
974552,"PO BOX 162","ESPARTO","CA",95627,NA,NA,52,"PO BOX 162, ESPARTO, CA, 95627","No_Match",NA,NA,NA,NA
974553,"PO BOX 162","GUY","AR",72061,NA,NA,53,"PO BOX 162, GUY, AR, 72061","No_Match",NA,NA,NA,NA
974554,"PO BOX 162","HEGINS","PA",17938,NA,NA,54,"PO BOX 162, HEGINS, PA, 17938","No_Match",NA,NA,NA,NA
974555,"PO BOX 162","HIGHGATE","VT",5488,NA,NA,55,"PO BOX 162, HIGHGATE, VT, 5488","No_Match",NA,NA,NA,NA
974556,"PO BOX 162","JEFFERSON","ME",4348,NA,NA,56,"PO BOX 162, JEFFERSON, ME, 4348","No_Match",NA,NA,NA,NA
974557,"PO BOX 162","KREAMER","PA",17833,NA,NA,57,"PO BOX 162, KREAMER, PA, 17833","No_Match",NA,NA,NA,NA
974558,"PO BOX 162","LA MESA","NM",88044,NA,NA,58,"PO BOX 162, LA MESA, NM, 88044","No_Match",NA,NA,NA,NA
974559,"PO BOX 162","LANCASTER","TX",75146,NA,NA,59,"PO BOX 162, LANCASTER, TX, 75146","No_Match",NA,NA,NA,NA
974560,"PO BOX 162","MIMS","FL",32754,NA,NA,60,"PO BOX 162, MIMS, FL, 32754","No_Match",NA,NA,NA,NA
974561,"PO BOX 162","MINNEOLA","KS",67865,NA,NA,61,"PO BOX 162, MINNEOLA, KS, 67865","No_Match",NA,NA,NA,NA
974562,"PO BOX 162","NEW HAMPTON","NH",3256,NA,NA,62,"PO BOX 162, NEW HAMPTON, NH, 3256","No_Match",NA,NA,NA,NA
974563,"PO BOX 162","ORIENT","NY",11957,NA,NA,63,"PO BOX 162, ORIENT, NY, 11957","No_Match",NA,NA,NA,NA
974564,"PO BOX 162","OWINGS MILLS","MD",21117,NA,NA,64,"PO BOX 162, OWINGS MILLS, MD, 21117","No_Match",NA,NA,NA,NA
974565,"PO BOX 162","PETERSBURG","IL",62675,NA,NA,65,"PO BOX 162, PETERSBURG, IL, 62675","No_Match",NA,NA,NA,NA
974566,"PO BOX 162","ROSE","OK",74364,NA,NA,66,"PO BOX 162, ROSE, OK, 74364","No_Match",NA,NA,NA,NA
974567,"PO BOX 162","SELINSGROVE","PA",17870,NA,NA,67,"PO BOX 162, SELINSGROVE, PA, 17870","No_Match",NA,NA,NA,NA
974568,"PO BOX 162","SOMERVILLE","AL",35670,NA,NA,68,"PO BOX 162, SOMERVILLE, AL, 35670","No_Match",NA,NA,NA,NA
974569,"PO BOX 162","STANLEY","WI",54768,NA,NA,69,"PO BOX 162, STANLEY, WI, 54768","No_Match",NA,NA,NA,NA
974570,"PO BOX 162","STATE PARK","SC",29147,NA,NA,70,"PO BOX 162, STATE PARK, SC, 29147","No_Match",NA,NA,NA,NA
974571,"PO BOX 162","STROUDSBURG","OR",18327,NA,NA,71,"PO BOX 162, STROUDSBURG, OR, 18327","No_Match",NA,NA,NA,NA
974572,"PO BOX 162","STROUDSBURG","PA",18327,NA,NA,72,"PO BOX 162, STROUDSBURG, PA, 18327","No_Match",NA,NA,NA,NA
974573,"PO BOX 162","STROUDSBURG","PA",18360,NA,NA,73,"PO BOX 162, STROUDSBURG, PA, 18360","No_Match",NA,NA,NA,NA
974574,"PO BOX 162","TOMALES","CA",94971,NA,NA,74,"PO BOX 162, TOMALES, CA, 94971","No_Match",NA,NA,NA,NA
974575,"PO BOX 162","VENUS","TX",76084,NA,NA,75,"PO BOX 162, VENUS, TX, 76084","No_Match",NA,NA,NA,NA
974576,"PO BOX 162","WAITSBURG","WA",99361,NA,NA,76,"PO BOX 162, WAITSBURG, WA, 99361","No_Match",NA,NA,NA,NA
974577,"PO BOX 162","WARDENSVILLE","WV",26851,NA,NA,77,"PO BOX 162, WARDENSVILLE, WV, 26851","No_Match",NA,NA,NA,NA
974578,"PO BOX 162","WAYNESVILLE","NC",28786,NA,NA,78,"PO BOX 162, WAYNESVILLE, NC, 28786","No_Match",NA,NA,NA,NA
974579,"PO BOX 162","WINTHROP","ME",4364,NA,NA,79,"PO BOX 162, WINTHROP, ME, 4364","No_Match",NA,NA,NA,NA
974580,"PO BOX 162","WISDOM","MT",59761,NA,NA,80,"PO BOX 162, WISDOM, MT, 59761","No_Match",NA,NA,NA,NA
974581,"PO BOX 1620 NIXA","NIXA","MO",65714,NA,NA,81,"PO BOX 1620 NIXA, NIXA, MO, 65714","No_Match",NA,NA,NA,NA
974582,"PO BOX 1620","LAS CRUCES","NM",88004,NA,NA,82,"PO BOX 1620, LAS CRUCES, NM, 88004","No_Match",NA,NA,NA,NA
974583,"PO BOX 1620","MIXA","MO",65714,NA,NA,83,"PO BOX 1620, MIXA, MO, 65714","No_Match",NA,NA,NA,NA
974584,"PO BOX 1620","TRINTIY","TX",75862,NA,NA,84,"PO BOX 1620, TRINTIY, TX, 75862","No_Match",NA,NA,NA,NA
974585,"PO BOX 162036","ATLANTA","GA",30321,NA,NA,85,"PO BOX 162036, ATLANTA, GA, 30321","No_Match",NA,NA,NA,NA
974586,"PO BOX 1621 245 WESTCHESTER AVE","PORTCHESTER","NY",10502,41.00263426,-73.667454614,86,"PO BOX 1621 245 WESTCHESTER AVE, PORTCHESTER, NY, 10502","Match","Non_Exact","245 WESTCHESTER AVE, PORT CHESTER, NY, 10573",139762290,"R"
974587,"PO BOX 1621 245 WESTCHESTER AVENUE","PORTCHESTER","NY",10502,41.00263426,-73.667454614,87,"PO BOX 1621 245 WESTCHESTER AVENUE, PORTCHESTER, NY, 10502","Match","Non_Exact","245 WESTCHESTER AVE, PORT CHESTER, NY, 10573",139762290,"R"
974588,"PO BOX 1621","ALBRIGHTSVILLE","PA",18210,NA,NA,88,"PO BOX 1621, ALBRIGHTSVILLE, PA, 18210","No_Match",NA,NA,NA,NA
974589,"PO BOX 1621","BASTROP","TX",78602,NA,NA,89,"PO BOX 1621, BASTROP, TX, 78602","No_Match",NA,NA,NA,NA
974590,"PO BOX 1621","BRENHAM","TX",77834,NA,NA,90,"PO BOX 1621, BRENHAM, TX, 77834","No_Match",NA,NA,NA,NA
974591,"PO BOX 1621","HARLAN","KY",40831,NA,NA,91,"PO BOX 1621, HARLAN, KY, 40831","No_Match",NA,NA,NA,NA
974592,"PO BOX 1621","L",NA,NA,NA,NA,92,"PO BOX 1621, L, , ","No_Match",NA,NA,NA,NA
974593,"PO BOX 1621","LONG BEACH","WA",98631,NA,NA,93,"PO BOX 1621, LONG BEACH, WA, 98631","No_Match",NA,NA,NA,NA
974594,"PO BOX 1621","NORCROSS","GA",30071,NA,NA,94,"PO BOX 1621, NORCROSS, GA, 30071","No_Match",NA,NA,NA,NA
974595,"PO BOX 1621","PLACERVILLE","CA",95667,NA,NA,95,"PO BOX 1621, PLACERVILLE, CA, 95667","No_Match",NA,NA,NA,NA
974596,"PO BOX 1621","SHEPHERDSTOWN","WV",25443,NA,NA,96,"PO BOX 1621, SHEPHERDSTOWN, WV, 25443","No_Match",NA,NA,NA,NA
974597,"PO BOX 16213","SUGAR LAND","TX",77496,NA,NA,97,"PO BOX 16213, SUGAR LAND, TX, 77496","No_Match",NA,NA,NA,NA
974598,"PO BOX 162170","ATLANTA","GA",30321,NA,NA,98,"PO BOX 162170, ATLANTA, GA, 30321","No_Match",NA,NA,NA,NA
974599,"PO BOX 1622","ATASCADERO","CA",93422,NA,NA,99,"PO BOX 1622, ATASCADERO, CA, 93422","No_Match",NA,NA,NA,NA
974600,"PO BOX 1622","ATASCADERO","CA",93423,NA,NA,100,"PO BOX 1622, ATASCADERO, CA, 93423","No_Match",NA,NA,NA,NA
974601,"PO BOX 1622","ELLICOTTVILLE","NY",14731,NA,NA,101,"PO BOX 1622, ELLICOTTVILLE, NY, 14731","No_Match",NA,NA,NA,NA
974602,"PO BOX 1622","HONOLULU","HI",96806,NA,NA,102,"PO BOX 1622, HONOLULU, HI, 96806","No_Match",NA,NA,NA,NA
974603,"PO BOX 1622","SAN JUAN CAPISTRANO","CA",92693,NA,NA,103,"PO BOX 1622, SAN JUAN CAPISTRANO, CA, 92693","No_Match",NA,NA,NA,NA
974604,"PO BOX 1623","FRISCO","TX",75034,NA,NA,104,"PO BOX 1623, FRISCO, TX, 75034","No_Match",NA,NA,NA,NA
974605,"PO BOX 1623","GREENVILLE","SC",29602,NA,NA,105,"PO BOX 1623, GREENVILLE, SC, 29602","No_Match",NA,NA,NA,NA
974606,"PO BOX 1623","NEDERLAND","CO",80466,NA,NA,106,"PO BOX 1623, NEDERLAND, CO, 80466","No_Match",NA,NA,NA,NA
974607,"PO BOX 162312","ATLANTA","GA",30321,NA,NA,107,"PO BOX 162312, ATLANTA, GA, 30321","No_Match",NA,NA,NA,NA
974608,"PO BOX 162315","FORT WORTH","TX",76161,NA,NA,108,"PO BOX 162315, FORT WORTH, TX, 76161","No_Match",NA,NA,NA,NA
974609,"PO BOX 16232","CHARLOTTE","NC",28297,NA,NA,109,"PO BOX 16232, CHARLOTTE, NC, 28297","No_Match",NA,NA,NA,NA
974610,"PO BOX 16233","ATLANTA","GA",30321,NA,NA,110,"PO BOX 16233, ATLANTA, GA, 30321","No_Match",NA,NA,NA,NA
974611,"PO BOX 1624","ARCHER CITY","TX",76351,NA,NA,111,"PO BOX 1624, ARCHER CITY, TX, 76351","No_Match",NA,NA,NA,NA
974612,"PO BOX 1624","GONZALES","CA",93926,NA,NA,112,"PO BOX 1624, GONZALES, CA, 93926","No_Match",NA,NA,NA,NA
974613,"PO BOX 1624","TWIN FALLS","ID",83403,NA,NA,113,"PO BOX 1624, TWIN FALLS, ID, 83403","No_Match",NA,NA,NA,NA
974614,"PO BOX 1625","BATTLE MOUNTAIN","NV",89820,NA,NA,114,"PO BOX 1625, BATTLE MOUNTAIN, NV, 89820","No_Match",NA,NA,NA,NA
974615,"PO BOX 1625","NASHUA","NH",3061,NA,NA,115,"PO BOX 1625, NASHUA, NH, 3061","No_Match",NA,NA,NA,NA
974616,"PO BOX 1625","NORTH PLATTE","NE",69103,NA,NA,116,"PO BOX 1625, NORTH PLATTE, NE, 69103","No_Match",NA,NA,NA,NA
974617,"PO BOX 1625","PACIFIC PALISADES","CA",90272,NA,NA,117,"PO BOX 1625, PACIFIC PALISADES, CA, 90272","No_Match",NA,NA,NA,NA
974618,"PO BOX 1625","SEDONA","AZ",86339,NA,NA,118,"PO BOX 1625, SEDONA, AZ, 86339","No_Match",NA,NA,NA,NA
974619,"PO BOX 162534","ALTAMONTE SPRINGS","FL",32746,NA,NA,119,"PO BOX 162534, ALTAMONTE SPRINGS, FL, 32746","No_Match",NA,NA,NA,NA
974620,"PO BOX 1626","FREEDOM","CA",95019,NA,NA,120,"PO BOX 1626, FREEDOM, CA, 95019","No_Match",NA,NA,NA,NA
974621,"PO BOX 1626","KEAAU","HI",96749,NA,NA,121,"PO BOX 1626, KEAAU, HI, 96749","No_Match",NA,NA,NA,NA
974622,"PO BOX 162686","ATLANTA","GA",30321,NA,NA,122,"PO BOX 162686, ATLANTA, GA, 30321","No_Match",NA,NA,NA,NA
974623,"PO BOX 1627","BIGFORK","MT",59911,NA,NA,123,"PO BOX 1627, BIGFORK, MT, 59911","No_Match",NA,NA,NA,NA
974624,"PO BOX 1627","DAWSONVILLE","GA",30534,NA,NA,124,"PO BOX 1627, DAWSONVILLE, GA, 30534","No_Match",NA,NA,NA,NA
974625,"PO BOX 16272","DULUTH","MN",55816,NA,NA,125,"PO BOX 16272, DULUTH, MN, 55816","No_Match",NA,NA,NA,NA
974626,"PO BOX 16275","BOISE","ID",83715,NA,NA,126,"PO BOX 16275, BOISE, ID, 83715","No_Match",NA,NA,NA,NA
974627,"PO BOX 162799","ALTAMONTE SPRINGS","FL",32716,NA,NA,127,"PO BOX 162799, ALTAMONTE SPRINGS, FL, 32716","No_Match",NA,NA,NA,NA
974628,"PO BOX 162799","ALTMONTE SPRINGS","FL",32716,NA,NA,128,"PO BOX 162799, ALTMONTE SPRINGS, FL, 32716","No_Match",NA,NA,NA,NA
974629,"PO BOX 1628","TOPOCK","AZ",86436,NA,NA,129,"PO BOX 1628, TOPOCK, AZ, 86436","No_Match",NA,NA,NA,NA
974630,"PO BOX 1628","WAITSFIELD","VT",5673,NA,NA,130,"PO BOX 1628, WAITSFIELD, VT, 5673","No_Match",NA,NA,NA,NA
974631,"PO BOX 1629","FREDERICK","MD",21702,NA,NA,131,"PO BOX 1629, FREDERICK, MD, 21702","No_Match",NA,NA,NA,NA
974632,"PO BOX 1629","STANTON","TX",79782,NA,NA,132,"PO BOX 1629, STANTON, TX, 79782","No_Match",NA,NA,NA,NA
974633,"PO BOX 163","ARIVACA","AZ",85601,NA,NA,133,"PO BOX 163, ARIVACA, AZ, 85601","No_Match",NA,NA,NA,NA
974634,"PO BOX 163","AUSTIN","IN",47102,NA,NA,134,"PO BOX 163, AUSTIN, IN, 47102","No_Match",NA,NA,NA,NA
974635,"PO BOX 163","BINGER","OK",73009,NA,NA,135,"PO BOX 163, BINGER, OK, 73009","No_Match",NA,NA,NA,NA
974636,"PO BOX 163","BOYDTON","VA",23917,NA,NA,136,"PO BOX 163, BOYDTON, VA, 23917","No_Match",NA,NA,NA,NA
974637,"PO BOX 163","CHESWOLD","FL",19936,NA,NA,137,"PO BOX 163, CHESWOLD, FL, 19936","No_Match",NA,NA,NA,NA
974638,"PO BOX 163","CLAY","WV",25043,NA,NA,138,"PO BOX 163, CLAY, WV, 25043","No_Match",NA,NA,NA,NA
974639,"PO BOX 163","CLIMAX SPRINGS","MO",65324,NA,NA,139,"PO BOX 163, CLIMAX SPRINGS, MO, 65324","No_Match",NA,NA,NA,NA
974640,"PO BOX 163","DODGE","TX",77334,NA,NA,140,"PO BOX 163, DODGE, TX, 77334","No_Match",NA,NA,NA,NA
974641,"PO BOX 163","EKALAKA","MT",59324,NA,NA,141,"PO BOX 163, EKALAKA, MT, 59324","No_Match",NA,NA,NA,NA
974642,"PO BOX 163","FAIR OAKS","CA",95628,NA,NA,142,"PO BOX 163, FAIR OAKS, CA, 95628","No_Match",NA,NA,NA,NA
974643,"PO BOX 163","GLEN DALE","WV",26038,NA,NA,143,"PO BOX 163, GLEN DALE, WV, 26038","No_Match",NA,NA,NA,NA
974644,"PO BOX 163","HASKELL","TX",79521,NA,NA,144,"PO BOX 163, HASKELL, TX, 79521","No_Match",NA,NA,NA,NA
974645,"PO BOX 163","HEBRON","CT",6248,NA,NA,145,"PO BOX 163, HEBRON, CT, 6248","No_Match",NA,NA,NA,NA
974646,"PO BOX 163","HOOD RIVER","OR",97031,NA,NA,146,"PO BOX 163, HOOD RIVER, OR, 97031","No_Match",NA,NA,NA,NA
974647,"PO BOX 163","KENTFIELD","CA",94914,NA,NA,147,"PO BOX 163, KENTFIELD, CA, 94914","No_Match",NA,NA,NA,NA
974648,"PO BOX 163","KIMBALL","WV",24853,NA,NA,148,"PO BOX 163, KIMBALL, WV, 24853","No_Match",NA,NA,NA,NA
974649,"PO BOX 163","KUALAPUU","HI",6757,NA,NA,149,"PO BOX 163, KUALAPUU, HI, 6757","No_Match",NA,NA,NA,NA
974650,"PO BOX 163","LAKE TOXAWAY","NC",28747,NA,NA,150,"PO BOX 163, LAKE TOXAWAY, NC, 28747","No_Match",NA,NA,NA,NA
974651,"PO BOX 163","LIME SPRINGS","IA",52155,NA,NA,151,"PO BOX 163, LIME SPRINGS, IA, 52155","No_Match",NA,NA,NA,NA
974652,"PO BOX 163","LINGLE","WY",82223,NA,NA,152,"PO BOX 163, LINGLE, WY, 82223","No_Match",NA,NA,NA,NA
974653,"PO BOX 163","LONG CREEK","OR",97856,NA,NA,153,"PO BOX 163, LONG CREEK, OR, 97856","No_Match",NA,NA,NA,NA
974654,"PO BOX 163","MADILL","OK",73446,NA,NA,154,"PO BOX 163, MADILL, OK, 73446","No_Match",NA,NA,NA,NA
974655,"PO BOX 163","MCGRAW","NY",13101,NA,NA,155,"PO BOX 163, MCGRAW, NY, 13101","No_Match",NA,NA,NA,NA
974656,"PO BOX 163","NIAGARA FALLS","NY",14301,NA,NA,156,"PO BOX 163, NIAGARA FALLS, NY, 14301","No_Match",NA,NA,NA,NA
974657,"PO BOX 163","PLEDGER","TX",77468,NA,NA,157,"PO BOX 163, PLEDGER, TX, 77468","No_Match",NA,NA,NA,NA
974658,"PO BOX 163","RHOME","TX",76078,NA,NA,158,"PO BOX 163, RHOME, TX, 76078","No_Match",NA,NA,NA,NA
974659,"PO BOX 163","RIFLE","CO",81650,NA,NA,159,"PO BOX 163, RIFLE, CO, 81650","No_Match",NA,NA,NA,NA
974660,"PO BOX 163","ROCHESTER","WA",98579,NA,NA,160,"PO BOX 163, ROCHESTER, WA, 98579","No_Match",NA,NA,NA,NA
974661,"PO BOX 163","SAN ANTONIO","PR",690,NA,NA,161,"PO BOX 163, SAN ANTONIO, PR, 690","No_Match",NA,NA,NA,NA
974662,"PO BOX 163","SCHENEVUS","NY",12155,NA,NA,162,"PO BOX 163, SCHENEVUS, NY, 12155","No_Match",NA,NA,NA,NA
974663,"PO BOX 163","SPERRY","OK",74073,NA,NA,163,"PO BOX 163, SPERRY, OK, 74073","No_Match",NA,NA,NA,NA
974664,"PO BOX 163","UNION","OR",97883,NA,NA,164,"PO BOX 163, UNION, OR, 97883","No_Match",NA,NA,NA,NA
974665,"PO BOX 163","WALFORD","IA",52351,NA,NA,165,"PO BOX 163, WALFORD, IA, 52351","No_Match",NA,NA,NA,NA
974666,"PO BOX 163","WILLIAMSTOWN","NJ",8094,NA,NA,166,"PO BOX 163, WILLIAMSTOWN, NJ, 8094","No_Match",NA,NA,NA,NA
974667,"PO BOX 163","WINSTON","GA",30187,NA,NA,167,"PO BOX 163, WINSTON, GA, 30187","No_Match",NA,NA,NA,NA
974668,"PO BOX 1630","EAST HAMPTON","NY",11937,NA,NA,168,"PO BOX 1630, EAST HAMPTON, NY, 11937","No_Match",NA,NA,NA,NA
974669,"PO BOX 1630","MISSOULA","MT",59806,NA,NA,169,"PO BOX 1630, MISSOULA, MT, 59806","No_Match",NA,NA,NA,NA
974670,"PO BOX 1630","NEW YORK","NY",10027,NA,NA,170,"PO BOX 1630, NEW YORK, NY, 10027","No_Match",NA,NA,NA,NA
974671,"PO BOX 1630","ROCKDALE","TX",76567,NA,NA,171,"PO BOX 1630, ROCKDALE, TX, 76567","No_Match",NA,NA,NA,NA
974672,"PO BOX 16300","FERNANDINA BEACH","FL",32035,NA,NA,172,"PO BOX 16300, FERNANDINA BEACH, FL, 32035","No_Match",NA,NA,NA,NA
974673,"PO BOX 163004","FORT WORTH","TX",76161,NA,NA,173,"PO BOX 163004, FORT WORTH, TX, 76161","No_Match",NA,NA,NA,NA
974674,"PO BOX 16301","FORT WORTH","TX",76162,NA,NA,174,"PO BOX 16301, FORT WORTH, TX, 76162","No_Match",NA,NA,NA,NA
974675,"PO BOX 16303","NORTH HOLLYWOOD","CA",91615,NA,NA,175,"PO BOX 16303, NORTH HOLLYWOOD, CA, 91615","No_Match",NA,NA,NA,NA
974676,"PO BOX 16307","SAN DIEGO","CA",92176,NA,NA,176,"PO BOX 16307, SAN DIEGO, CA, 92176","No_Match",NA,NA,NA,NA
974677,"PO BOX 1631","DAVIS","CA",95617,NA,NA,177,"PO BOX 1631, DAVIS, CA, 95617","No_Match",NA,NA,NA,NA
974678,"PO BOX 1631","DEERFIELD BEACH","FL",33442,NA,NA,178,"PO BOX 1631, DEERFIELD BEACH, FL, 33442","No_Match",NA,NA,NA,NA
974679,"PO BOX 1631","LAKE FOREST","CA",92609,NA,NA,179,"PO BOX 1631, LAKE FOREST, CA, 92609","No_Match",NA,NA,NA,NA
974680,"PO BOX 1631","MIDLOTHIAN","TX",76065,NA,NA,180,"PO BOX 1631, MIDLOTHIAN, TX, 76065","No_Match",NA,NA,NA,NA
974681,"PO BOX 1631","RAPID CITY","SD",57709,NA,NA,181,"PO BOX 1631, RAPID CITY, SD, 57709","No_Match",NA,NA,NA,NA
974682,"PO BOX 1631","WALDPORT","OR",97394,NA,NA,182,"PO BOX 1631, WALDPORT, OR, 97394","No_Match",NA,NA,NA,NA
974683,"PO BOX 16310","LOUISVILLE","KY",40256,NA,NA,183,"PO BOX 16310, LOUISVILLE, KY, 40256","No_Match",NA,NA,NA,NA
974684,"PO BOX 163123","ALTAMONTE SPRINGS","FL",32716,NA,NA,184,"PO BOX 163123, ALTAMONTE SPRINGS, FL, 32716","No_Match",NA,NA,NA,NA
974685,"PO BOX 1632","COLUMBIA","MD",21044,NA,NA,185,"PO BOX 1632, COLUMBIA, MD, 21044","No_Match",NA,NA,NA,NA
974686,"PO BOX 16322","CLEARWATER","FL",33763,NA,NA,186,"PO BOX 16322, CLEARWATER, FL, 33763","No_Match",NA,NA,NA,NA
974687,"PO BOX 16327","CHICAGO","IL",60616,NA,NA,187,"PO BOX 16327, CHICAGO, IL, 60616","No_Match",NA,NA,NA,NA
974688,"PO BOX 1633","COLUMBIA","MD",21044,NA,NA,188,"PO BOX 1633, COLUMBIA, MD, 21044","No_Match",NA,NA,NA,NA
974689,"PO BOX 1633","ESTES PARK","CO",80517,NA,NA,189,"PO BOX 1633, ESTES PARK, CO, 80517","No_Match",NA,NA,NA,NA
974690,"PO BOX 1633","KODIAK","AK",99615,NA,NA,190,"PO BOX 1633, KODIAK, AK, 99615","No_Match",NA,NA,NA,NA
974691,"PO BOX 1633","LIBBY","MT",59923,NA,NA,191,"PO BOX 1633, LIBBY, MT, 59923","No_Match",NA,NA,NA,NA
974692,"PO BOX 1633","MCCALL","ID",83638,NA,NA,192,"PO BOX 1633, MCCALL, ID, 83638","No_Match",NA,NA,NA,NA
974693,"PO BOX 1633","ONALASKA","TX",77360,NA,NA,193,"PO BOX 1633, ONALASKA, TX, 77360","No_Match",NA,NA,NA,NA
974694,"PO BOX 1633","TRAVERSE CITY","MI",49685,NA,NA,194,"PO BOX 1633, TRAVERSE CITY, MI, 49685","No_Match",NA,NA,NA,NA
974695,"PO BOX 16334","MOBILE","AL",36616,NA,NA,195,"PO BOX 16334, MOBILE, AL, 36616","No_Match",NA,NA,NA,NA
974696,"PO BOX 16334","SEATTLE","WA",98116,NA,NA,196,"PO BOX 16334, SEATTLE, WA, 98116","No_Match",NA,NA,NA,NA
974697,"PO BOX 163396","SACRAMENTO","CA",95816,NA,NA,197,"PO BOX 163396, SACRAMENTO, CA, 95816","No_Match",NA,NA,NA,NA
974698,"PO BOX 1634","COLORADO CITY","AZ",86021,NA,NA,198,"PO BOX 1634, COLORADO CITY, AZ, 86021","No_Match",NA,NA,NA,NA
974699,"PO BOX 1634","INDIAN TRAIL","NC",28079,NA,NA,199,"PO BOX 1634, INDIAN TRAIL, NC, 28079","No_Match",NA,NA,NA,NA
974700,"PO BOX 1634","KINGSLAND","TX",78639,NA,NA,200,"PO BOX 1634, KINGSLAND, TX, 78639","No_Match",NA,NA,NA,NA
974701,"PO BOX 1634","PROSSER","WA",99350,NA,NA,201,"PO BOX 1634, PROSSER, WA, 99350","No_Match",NA,NA,NA,NA
974702,"PO BOX 1634","RED OAK","TX",75154,NA,NA,202,"PO BOX 1634, RED OAK, TX, 75154","No_Match",NA,NA,NA,NA
974703,"PO BOX 163456","MIAMI","FL",33116,NA,NA,203,"PO BOX 163456, MIAMI, FL, 33116","No_Match",NA,NA,NA,NA
974704,"PO BOX 16346","TAMPA","FL",33687,NA,NA,204,"PO BOX 16346, TAMPA, FL, 33687","No_Match",NA,NA,NA,NA
974705,"PO BOX 1635","ENGLEWOOD","CO",80150,NA,NA,205,"PO BOX 1635, ENGLEWOOD, CO, 80150","No_Match",NA,NA,NA,NA
974706,"PO BOX 1635","FRIENDSWOOD","TX",77549,NA,NA,206,"PO BOX 1635, FRIENDSWOOD, TX, 77549","No_Match",NA,NA,NA,NA
974707,"PO BOX 1635","HILLSBORO","TX",76645,NA,NA,207,"PO BOX 1635, HILLSBORO, TX, 76645","No_Match",NA,NA,NA,NA
974708,"PO BOX 1635","PATERSON","NJ",7503,NA,NA,208,"PO BOX 1635, PATERSON, NJ, 7503","No_Match",NA,NA,NA,NA
974709,"PO BOX 1635","ROYAL OAK","MI",48068,NA,NA,209,"PO BOX 1635, ROYAL OAK, MI, 48068","No_Match",NA,NA,NA,NA
974710,"PO BOX 163512","COLUMBUS","OH",43216,NA,NA,210,"PO BOX 163512, COLUMBUS, OH, 43216","No_Match",NA,NA,NA,NA
974711,"PO BOX 16357","WICHITA","KS",67216,NA,NA,211,"PO BOX 16357, WICHITA, KS, 67216","No_Match",NA,NA,NA,NA
974712,"PO BOX 1636","BOUNTIFUL","UT",84011,NA,NA,212,"PO BOX 1636, BOUNTIFUL, UT, 84011","No_Match",NA,NA,NA,NA
974713,"PO BOX 1636","CHEROKEE","NC",28719,NA,NA,213,"PO BOX 1636, CHEROKEE, NC, 28719","No_Match",NA,NA,NA,NA
974714,"PO BOX 163653","AUSTIN","TX",78716,NA,NA,214,"PO BOX 163653, AUSTIN, TX, 78716","No_Match",NA,NA,NA,NA
974715,"PO BOX 1637","KOLOA","HI",96756,NA,NA,215,"PO BOX 1637, KOLOA, HI, 96756","No_Match",NA,NA,NA,NA
974716,"PO BOX 16375","TALLAHASEE","FL",32317,NA,NA,216,"PO BOX 16375, TALLAHASEE, FL, 32317","No_Match",NA,NA,NA,NA
974717,"PO BOX 16375","TALLAHASSSEE","FL",32317,NA,NA,217,"PO BOX 16375, TALLAHASSSEE, FL, 32317","No_Match",NA,NA,NA,NA
974718,"PO BOX 16375","TALLAHSSEE","FL",32317,NA,NA,218,"PO BOX 16375, TALLAHSSEE, FL, 32317","No_Match",NA,NA,NA,NA
974719,"PO BOX 163761","AUSTIN","TX",78716,NA,NA,219,"PO BOX 163761, AUSTIN, TX, 78716","No_Match",NA,NA,NA,NA
974720,"PO BOX 1638","ELLICOTT CITY","MD",21041,NA,NA,220,"PO BOX 1638, ELLICOTT CITY, MD, 21041","No_Match",NA,NA,NA,NA
974721,"PO BOX 163803","AUSTIN","TX",78716,NA,NA,221,"PO BOX 163803, AUSTIN, TX, 78716","No_Match",NA,NA,NA,NA
974722,"PO BOX 16393","SUGAR LAND","TX",77496,NA,NA,222,"PO BOX 16393, SUGAR LAND, TX, 77496","No_Match",NA,NA,NA,NA
974723,"PO BOX 163941","FORT WORTH","TX",76161,NA,NA,223,"PO BOX 163941, FORT WORTH, TX, 76161","No_Match",NA,NA,NA,NA
974724,"PO BOX 164","ANDREWS","SC",29510,NA,NA,224,"PO BOX 164, ANDREWS, SC, 29510","No_Match",NA,NA,NA,NA
974725,"PO BOX 164","BAPTISTOWN","NJ",8803,NA,NA,225,"PO BOX 164, BAPTISTOWN, NJ, 8803","No_Match",NA,NA,NA,NA
974726,"PO BOX 164","BARRETT","MN",56311,NA,NA,226,"PO BOX 164, BARRETT, MN, 56311","No_Match",NA,NA,NA,NA
974727,"PO BOX 164","BATH","NH",3740,NA,NA,227,"PO BOX 164, BATH, NH, 3740","No_Match",NA,NA,NA,NA
974728,"PO BOX 164","BELLE","MO",65013,NA,NA,228,"PO BOX 164, BELLE, MO, 65013","No_Match",NA,NA,NA,NA
974729,"PO BOX 164","BILLERICA","MA",1821,NA,NA,229,"PO BOX 164, BILLERICA, MA, 1821","No_Match",NA,NA,NA,NA
974730,"PO BOX 164","BUNA","TX",77612,NA,NA,230,"PO BOX 164, BUNA, TX, 77612","No_Match",NA,NA,NA,NA
974731,"PO BOX 164","CANTWELL","AK",99729,NA,NA,231,"PO BOX 164, CANTWELL, AK, 99729","No_Match",NA,NA,NA,NA
974732,"PO BOX 164","CLAFLIN","KS",67525,NA,NA,232,"PO BOX 164, CLAFLIN, KS, 67525","No_Match",NA,NA,NA,NA
974733,"PO BOX 164","CORA","WY",82925,NA,NA,233,"PO BOX 164, CORA, WY, 82925","No_Match",NA,NA,NA,NA
974734,"PO BOX 164","FARMERSBURG","IN",47850,NA,NA,234,"PO BOX 164, FARMERSBURG, IN, 47850","No_Match",NA,NA,NA,NA
974735,"PO BOX 164","FLYNN","TX",77855,NA,NA,235,"PO BOX 164, FLYNN, TX, 77855","No_Match",NA,NA,NA,NA
974736,"PO BOX 164","FORD","WA",99013,NA,NA,236,"PO BOX 164, FORD, WA, 99013","No_Match",NA,NA,NA,NA
974737,"PO BOX 164","FORT PECK","MT",59223,NA,NA,237,"PO BOX 164, FORT PECK, MT, 59223","No_Match",NA,NA,NA,NA
974738,"PO BOX 164","GLOUCESTER","VA",23061,NA,NA,238,"PO BOX 164, GLOUCESTER, VA, 23061","No_Match",NA,NA,NA,NA
974739,"PO BOX 164","GRAND MOUND","IA",52751,NA,NA,239,"PO BOX 164, GRAND MOUND, IA, 52751","No_Match",NA,NA,NA,NA
974740,"PO BOX 164","GRANT PARK","IL",60940,NA,NA,240,"PO BOX 164, GRANT PARK, IL, 60940","No_Match",NA,NA,NA,NA
974741,"PO BOX 164","GREENTOWN","PA",18426,NA,NA,241,"PO BOX 164, GREENTOWN, PA, 18426","No_Match",NA,NA,NA,NA
974742,"PO BOX 164","HANA","HI",96713,NA,NA,242,"PO BOX 164, HANA, HI, 96713","No_Match",NA,NA,NA,NA
974743,"PO BOX 164","HERON LAKE","MN",56137,NA,NA,243,"PO BOX 164, HERON LAKE, MN, 56137","No_Match",NA,NA,NA,NA
974744,"PO BOX 164","HOMEWORTH","OH",44634,NA,NA,244,"PO BOX 164, HOMEWORTH, OH, 44634","No_Match",NA,NA,NA,NA
974745,"PO BOX 164","KENAI","AK",99611,NA,NA,245,"PO BOX 164, KENAI, AK, 99611","No_Match",NA,NA,NA,NA
974746,"PO BOX 164","LEONARD","TX",75452,NA,NA,246,"PO BOX 164, LEONARD, TX, 75452","No_Match",NA,NA,NA,NA
974747,"PO BOX 164","LEXINGTON","MA",2420,NA,NA,247,"PO BOX 164, LEXINGTON, MA, 2420","No_Match",NA,NA,NA,NA
974748,"PO BOX 164","MADISON","WV",25130,NA,NA,248,"PO BOX 164, MADISON, WV, 25130","No_Match",NA,NA,NA,NA
974749,"PO BOX 164","MERCER","PA",16137,NA,NA,249,"PO BOX 164, MERCER, PA, 16137","No_Match",NA,NA,NA,NA
974750,"PO BOX 164","NEW HAVEN","WV",25265,NA,NA,250,"PO BOX 164, NEW HAVEN, WV, 25265","No_Match",NA,NA,NA,NA
974751,"PO BOX 164","PAAUILO","HI",96776,NA,NA,251,"PO BOX 164, PAAUILO, HI, 96776","No_Match",NA,NA,NA,NA
974752,"PO BOX 164","POINT ARENA","CA",95468,NA,NA,252,"PO BOX 164, POINT ARENA, CA, 95468","No_Match",NA,NA,NA,NA
974753,"PO BOX 164","PULLMAN","MI",49450,NA,NA,253,"PO BOX 164, PULLMAN, MI, 49450","No_Match",NA,NA,NA,NA
974754,"PO BOX 164","ROCKAWAY BEACH","OR",97136,NA,NA,254,"PO BOX 164, ROCKAWAY BEACH, OR, 97136","No_Match",NA,NA,NA,NA
974755,"PO BOX 164","SCOTTSDALE","AZ",85252,NA,NA,255,"PO BOX 164, SCOTTSDALE, AZ, 85252","No_Match",NA,NA,NA,NA
974756,"PO BOX 164","SINCLAIR","WY",82301,NA,NA,256,"PO BOX 164, SINCLAIR, WY, 82301","No_Match",NA,NA,NA,NA
974757,"PO BOX 164","SPINDALE","NC",28160,NA,NA,257,"PO BOX 164, SPINDALE, NC, 28160","No_Match",NA,NA,NA,NA
974758,"PO BOX 164","STURGEON BAY","WI",54235,NA,NA,258,"PO BOX 164, STURGEON BAY, WI, 54235","No_Match",NA,NA,NA,NA
974759,"PO BOX 164","SUMMITVILLE","NY",12781,NA,NA,259,"PO BOX 164, SUMMITVILLE, NY, 12781","No_Match",NA,NA,NA,NA
974760,"PO BOX 164","TUCKER","AR",72168,NA,NA,260,"PO BOX 164, TUCKER, AR, 72168","No_Match",NA,NA,NA,NA
974761,"PO BOX 164","W FALMOUTH","MA",2574,NA,NA,261,"PO BOX 164, W FALMOUTH, MA, 2574","No_Match",NA,NA,NA,NA
974762,"PO BOX 164","WESTOVER","PA",16692,NA,NA,262,"PO BOX 164, WESTOVER, PA, 16692","No_Match",NA,NA,NA,NA
974763,"PO BOX 164","WILLARD","NY",14588,NA,NA,263,"PO BOX 164, WILLARD, NY, 14588","No_Match",NA,NA,NA,NA
974764,"PO BOX 164","WOLF POINT","MT",59201,NA,NA,264,"PO BOX 164, WOLF POINT, MT, 59201","No_Match",NA,NA,NA,NA
974765,"PO BOX 1640","BUELLTON","CA",93427,NA,NA,265,"PO BOX 1640, BUELLTON, CA, 93427","No_Match",NA,NA,NA,NA
974766,"PO BOX 16402","PLANTATION","FL",33318,NA,NA,266,"PO BOX 16402, PLANTATION, FL, 33318","No_Match",NA,NA,NA,NA
974767,"PO BOX 16404","SUGAR LAND","TX",77479,NA,NA,267,"PO BOX 16404, SUGAR LAND, TX, 77479","No_Match",NA,NA,NA,NA
974768,"PO BOX 1641","CARBONDALE","CO",81623,NA,NA,268,"PO BOX 1641, CARBONDALE, CO, 81623","No_Match",NA,NA,NA,NA
974769,"PO BOX 1641","CULLOWHEE","NC",28723,NA,NA,269,"PO BOX 1641, CULLOWHEE, NC, 28723","No_Match",NA,NA,NA,NA
974770,"PO BOX 1641","GAYLORD","MI",49734,NA,NA,270,"PO BOX 1641, GAYLORD, MI, 49734","No_Match",NA,NA,NA,NA
974771,"PO BOX 1641","PINEDALE","WY",82941,NA,NA,271,"PO BOX 1641, PINEDALE, WY, 82941","No_Match",NA,NA,NA,NA
974772,"PO BOX 16411","KANSAS CITY","MO",64112,NA,NA,272,"PO BOX 16411, KANSAS CITY, MO, 64112","No_Match",NA,NA,NA,NA
974773,"PO BOX 164120","LITTLE ROCK","AR",72216,NA,NA,273,"PO BOX 164120, LITTLE ROCK, AR, 72216","No_Match",NA,NA,NA,NA
974774,"PO BOX 1642","MANSFIELD","TX",76063,NA,NA,274,"PO BOX 1642, MANSFIELD, TX, 76063","No_Match",NA,NA,NA,NA
974775,"PO BOX 1642","MARRERO","LA",70073,NA,NA,275,"PO BOX 1642, MARRERO, LA, 70073","No_Match",NA,NA,NA,NA
974776,"PO BOX 1642","SPRINGERVILLE","AZ",85938,NA,NA,276,"PO BOX 1642, SPRINGERVILLE, AZ, 85938","No_Match",NA,NA,NA,NA
974777,"PO BOX 1642","WILMINGTON","NC",28402,NA,NA,277,"PO BOX 1642, WILMINGTON, NC, 28402","No_Match",NA,NA,NA,NA
974778,"PO BOX 16423","LOUISVILLE","KY",40256,NA,NA,278,"PO BOX 16423, LOUISVILLE, KY, 40256","No_Match",NA,NA,NA,NA
974779,"PO BOX 16423","TAMPA","FL",33687,NA,NA,279,"PO BOX 16423, TAMPA, FL, 33687","No_Match",NA,NA,NA,NA
974780,"PO BOX 164232","COLUMBUS","OH",43213,NA,NA,280,"PO BOX 164232, COLUMBUS, OH, 43213","No_Match",NA,NA,NA,NA
974781,"PO BOX 16424","CHESAPEAKE","VA",23322,NA,NA,281,"PO BOX 16424, CHESAPEAKE, VA, 23322","No_Match",NA,NA,NA,NA
974782,"PO BOX 16424","FERNANDINA BEACH","FL",32035,NA,NA,282,"PO BOX 16424, FERNANDINA BEACH, FL, 32035","No_Match",NA,NA,NA,NA
974783,"PO BOX 164271","LITTLE ROCK","AR",72216,NA,NA,283,"PO BOX 164271, LITTLE ROCK, AR, 72216","No_Match",NA,NA,NA,NA
974784,"PO BOX 1643","BLUFFTON","SC",29910,NA,NA,284,"PO BOX 1643, BLUFFTON, SC, 29910","No_Match",NA,NA,NA,NA
974785,"PO BOX 1643","COLUMBUS","IN",47202,NA,NA,285,"PO BOX 1643, COLUMBUS, IN, 47202","No_Match",NA,NA,NA,NA
974786,"PO BOX 1643","MARSHALL","TX",75671,NA,NA,286,"PO BOX 1643, MARSHALL, TX, 75671","No_Match",NA,NA,NA,NA
974787,"PO BOX 164350","AUSTIN","TX",78716,NA,NA,287,"PO BOX 164350, AUSTIN, TX, 78716","No_Match",NA,NA,NA,NA
974788,"PO BOX 16436","TAMPA","FL",33687,NA,NA,288,"PO BOX 16436, TAMPA, FL, 33687","No_Match",NA,NA,NA,NA
974789,"PO BOX 16438","GALVESTON","TX",77552,NA,NA,289,"PO BOX 16438, GALVESTON, TX, 77552","No_Match",NA,NA,NA,NA
974790,"PO BOX 1644","BISBEE","AZ",85603,NA,NA,290,"PO BOX 1644, BISBEE, AZ, 85603","No_Match",NA,NA,NA,NA
974791,"PO BOX 1644","FORT WORTH","TX",76101,NA,NA,291,"PO BOX 1644, FORT WORTH, TX, 76101","No_Match",NA,NA,NA,NA
974792,"PO BOX 1644","WHITEFISH","MT",59937,NA,NA,292,"PO BOX 1644, WHITEFISH, MT, 59937","No_Match",NA,NA,NA,NA
974793,"PO BOX 16447","SUGAR LAND","TX",77496,NA,NA,293,"PO BOX 16447, SUGAR LAND, TX, 77496","No_Match",NA,NA,NA,NA
974794,"PO BOX 1645","AUGUSTA","GA",30903,NA,NA,294,"PO BOX 1645, AUGUSTA, GA, 30903","No_Match",NA,NA,NA,NA
974795,"PO BOX 1645","FOUNTAIN INN","SC",29644,NA,NA,295,"PO BOX 1645, FOUNTAIN INN, SC, 29644","No_Match",NA,NA,NA,NA
974796,"PO BOX 1645","PECOS","TX",79772,NA,NA,296,"PO BOX 1645, PECOS, TX, 79772","No_Match",NA,NA,NA,NA
974797,"PO BOX 1645","PORT SALERNO","FL",34992,NA,NA,297,"PO BOX 1645, PORT SALERNO, FL, 34992","No_Match",NA,NA,NA,NA
974798,"PO BOX 1645","RANCHOS DE TAOS","NM",87557,NA,NA,298,"PO BOX 1645, RANCHOS DE TAOS, NM, 87557","No_Match",NA,NA,NA,NA
974799,"PO BOX 1645","VOORHEES","NJ",8043,NA,NA,299,"PO BOX 1645, VOORHEES, NJ, 8043","No_Match",NA,NA,NA,NA
974800,"PO BOX 1645","WOODLAND","CA",95776,NA,NA,300,"PO BOX 1645, WOODLAND, CA, 95776","No_Match",NA,NA,NA,NA
974801,"PO BOX 16452","TALLAHASSEE","FL",32317,NA,NA,301,"PO BOX 16452, TALLAHASSEE, FL, 32317","No_Match",NA,NA,NA,NA
974802,"PO BOX 1646","ALICE","TX",78333,NA,NA,302,"PO BOX 1646, ALICE, TX, 78333","No_Match",NA,NA,NA,NA
974803,"PO BOX 1646","BLOOMFIELD","NM",87413,NA,NA,303,"PO BOX 1646, BLOOMFIELD, NM, 87413","No_Match",NA,NA,NA,NA
974804,"PO BOX 1646","HAINES","AK",99827,NA,NA,304,"PO BOX 1646, HAINES, AK, 99827","No_Match",NA,NA,NA,NA
974805,"PO BOX 1646","HOMER","AK",99603,NA,NA,305,"PO BOX 1646, HOMER, AK, 99603","No_Match",NA,NA,NA,NA
974806,"PO BOX 1646","PORT ANGELES","WA",98362,NA,NA,306,"PO BOX 1646, PORT ANGELES, WA, 98362","No_Match",NA,NA,NA,NA
974807,"PO BOX 1646","PORT ANGLES","WA",98362,NA,NA,307,"PO BOX 1646, PORT ANGLES, WA, 98362","No_Match",NA,NA,NA,NA
974808,"PO BOX 16462","GREENVILLE","SC",29606,NA,NA,308,"PO BOX 16462, GREENVILLE, SC, 29606","No_Match",NA,NA,NA,NA
974809,"PO BOX 16462","MILWAUKEE","WI",53216,NA,NA,309,"PO BOX 16462, MILWAUKEE, WI, 53216","No_Match",NA,NA,NA,NA
974810,"PO BOX 16462","WEST PALM BEACH","FL",33416,NA,NA,310,"PO BOX 16462, WEST PALM BEACH, FL, 33416","No_Match",NA,NA,NA,NA
974811,"PO BOX 16464","MILWAUKEE","WI",53216,NA,NA,311,"PO BOX 16464, MILWAUKEE, WI, 53216","No_Match",NA,NA,NA,NA
974812,"PO BOX 1647","ANAHEIM","CA",92805,NA,NA,312,"PO BOX 1647, ANAHEIM, CA, 92805","No_Match",NA,NA,NA,NA
974813,"PO BOX 1647","BOZEMAN","MT",59771,NA,NA,313,"PO BOX 1647, BOZEMAN, MT, 59771","No_Match",NA,NA,NA,NA
974814,"PO BOX 1647","ELKO","NV",89803,NA,NA,314,"PO BOX 1647, ELKO, NV, 89803","No_Match",NA,NA,NA,NA
974815,"PO BOX 1647","TROY","NY",12181,NA,NA,315,"PO BOX 1647, TROY, NY, 12181","No_Match",NA,NA,NA,NA
974816,"PO BOX 1648","HIRAM","GA",30141,NA,NA,316,"PO BOX 1648, HIRAM, GA, 30141","No_Match",NA,NA,NA,NA
974817,"PO BOX 1648","WINTON","CA",95388,NA,NA,317,"PO BOX 1648, WINTON, CA, 95388","No_Match",NA,NA,NA,NA
974818,"PO BOX 1649","LINCOLNTON","NC",28093,NA,NA,318,"PO BOX 1649, LINCOLNTON, NC, 28093","No_Match",NA,NA,NA,NA
974819,"PO BOX 1649","TUSTIN","CA",92781,NA,NA,319,"PO BOX 1649, TUSTIN, CA, 92781","No_Match",NA,NA,NA,NA
974820,"PO BOX 16491","CHARLOTTE","NC",28297,NA,NA,320,"PO BOX 16491, CHARLOTTE, NC, 28297","No_Match",NA,NA,NA,NA
974821,"PO BOX 16493","TALLAHASSEE","FL",32317,NA,NA,321,"PO BOX 16493, TALLAHASSEE, FL, 32317","No_Match",NA,NA,NA,NA
974822,"PO BOX 165  611 MAPLE","TILDEN","IL",62292,NA,NA,322,"PO BOX 165  611 MAPLE, TILDEN, IL, 62292","No_Match",NA,NA,NA,NA
974823,"PO BOX 165","CLUNE","PA",15727,NA,NA,323,"PO BOX 165, CLUNE, PA, 15727","No_Match",NA,NA,NA,NA
974824,"PO BOX 165","CRANFILLS GAP","TX",76637,NA,NA,324,"PO BOX 165, CRANFILLS GAP, TX, 76637","No_Match",NA,NA,NA,NA
974825,"PO BOX 165","CUERO","TX",77954,NA,NA,325,"PO BOX 165, CUERO, TX, 77954","No_Match",NA,NA,NA,NA
974826,"PO BOX 165","DEER PARK","CA",94576,NA,NA,326,"PO BOX 165, DEER PARK, CA, 94576","No_Match",NA,NA,NA,NA
974827,"PO BOX 165","GLENN","CA",95943,NA,NA,327,"PO BOX 165, GLENN, CA, 95943","No_Match",NA,NA,NA,NA
974828,"PO BOX 165","GRAND MARAIS","MI",49839,NA,NA,328,"PO BOX 165, GRAND MARAIS, MI, 49839","No_Match",NA,NA,NA,NA
974829,"PO BOX 165","GURDON","AR",71743,NA,NA,329,"PO BOX 165, GURDON, AR, 71743","No_Match",NA,NA,NA,NA
974830,"PO BOX 165","HASTINGS","PA",16646,NA,NA,330,"PO BOX 165, HASTINGS, PA, 16646","No_Match",NA,NA,NA,NA
974831,"PO BOX 165","JUNIOR","WV",26275,NA,NA,331,"PO BOX 165, JUNIOR, WV, 26275","No_Match",NA,NA,NA,NA
974832,"PO BOX 165","MASTONTOWN","WV",26542,NA,NA,332,"PO BOX 165, MASTONTOWN, WV, 26542","No_Match",NA,NA,NA,NA
974833,"PO BOX 165","MILLBRAE","CA",94030,NA,NA,333,"PO BOX 165, MILLBRAE, CA, 94030","No_Match",NA,NA,NA,NA
974834,"PO BOX 165","NORTH UXBRIDGE","MA",1538,NA,NA,334,"PO BOX 165, NORTH UXBRIDGE, MA, 1538","No_Match",NA,NA,NA,NA
974835,"PO BOX 165","ORANGE","VA",22960,NA,NA,335,"PO BOX 165, ORANGE, VA, 22960","No_Match",NA,NA,NA,NA
974836,"PO BOX 165","OTTSVILLE","PA",18942,NA,NA,336,"PO BOX 165, OTTSVILLE, PA, 18942","No_Match",NA,NA,NA,NA
974837,"PO BOX 165","PALMER","AK",99645,NA,NA,337,"PO BOX 165, PALMER, AK, 99645","No_Match",NA,NA,NA,NA
974838,"PO BOX 165","PARLIN","CO",81239,NA,NA,338,"PO BOX 165, PARLIN, CO, 81239","No_Match",NA,NA,NA,NA
974839,"PO BOX 165","POINT ROBERTS","WA",98281,NA,NA,339,"PO BOX 165, POINT ROBERTS, WA, 98281","No_Match",NA,NA,NA,NA
974840,"PO BOX 165","REMSEN","NY",13438,NA,NA,340,"PO BOX 165, REMSEN, NY, 13438","No_Match",NA,NA,NA,NA
974841,"PO BOX 165","ROCKAWAY BEACH","OR",97136,NA,NA,341,"PO BOX 165, ROCKAWAY BEACH, OR, 97136","No_Match",NA,NA,NA,NA
974842,"PO BOX 165","SAN JUAN BAUTISTA","CA",95045,NA,NA,342,"PO BOX 165, SAN JUAN BAUTISTA, CA, 95045","No_Match",NA,NA,NA,NA
974843,"PO BOX 165","SATSOP","WA",98583,NA,NA,343,"PO BOX 165, SATSOP, WA, 98583","No_Match",NA,NA,NA,NA
974844,"PO BOX 165","ST FRANCIS","SD",57572,NA,NA,344,"PO BOX 165, ST FRANCIS, SD, 57572","No_Match",NA,NA,NA,NA
974845,"PO BOX 165","TELLICO PLAINS","TN",37385,NA,NA,345,"PO BOX 165, TELLICO PLAINS, TN, 37385","No_Match",NA,NA,NA,NA
974846,"PO BOX 165","TOUCHET","WA",99360,NA,NA,346,"PO BOX 165, TOUCHET, WA, 99360","No_Match",NA,NA,NA,NA
974847,"PO BOX 165","TULIA","TX",79088,NA,NA,347,"PO BOX 165, TULIA, TX, 79088","No_Match",NA,NA,NA,NA
974848,"PO BOX 1650","ALAMEDA","CA",94501,NA,NA,348,"PO BOX 1650, ALAMEDA, CA, 94501","No_Match",NA,NA,NA,NA
974849,"PO BOX 1650","MARICOPA","AZ",85139,NA,NA,349,"PO BOX 1650, MARICOPA, AZ, 85139","No_Match",NA,NA,NA,NA
974850,"PO BOX 1650","SOAP LAKE","WA",98851,NA,NA,350,"PO BOX 1650, SOAP LAKE, WA, 98851","No_Match",NA,NA,NA,NA
974851,"PO BOX 16502","JACKSON","MS",39236,NA,NA,351,"PO BOX 16502, JACKSON, MS, 39236","No_Match",NA,NA,NA,NA
974852,"PO BOX 1651","BESSEMER","AL",35021,NA,NA,352,"PO BOX 1651, BESSEMER, AL, 35021","No_Match",NA,NA,NA,NA
974853,"PO BOX 1651","BRENTWOOD","TN",37024,NA,NA,353,"PO BOX 1651, BRENTWOOD, TN, 37024","No_Match",NA,NA,NA,NA
974854,"PO BOX 1651","BREWSTER","WA",98812,NA,NA,354,"PO BOX 1651, BREWSTER, WA, 98812","No_Match",NA,NA,NA,NA
974855,"PO BOX 1651","SANDPOINT","ID",83864,NA,NA,355,"PO BOX 1651, SANDPOINT, ID, 83864","No_Match",NA,NA,NA,NA
974856,"PO BOX 16517","BRISTOL","VA",24209,NA,NA,356,"PO BOX 16517, BRISTOL, VA, 24209","No_Match",NA,NA,NA,NA
974857,"PO BOX 1652","IDAHO SPRINGS","CO",80452,NA,NA,357,"PO BOX 1652, IDAHO SPRINGS, CO, 80452","No_Match",NA,NA,NA,NA
974858,"PO BOX 1652","MARION","IL",62959,NA,NA,358,"PO BOX 1652, MARION, IL, 62959","No_Match",NA,NA,NA,NA
974859,"PO BOX 1652","MIDDLETOWN","CT",6457,NA,NA,359,"PO BOX 1652, MIDDLETOWN, CT, 6457","No_Match",NA,NA,NA,NA
974860,"PO BOX 1652","PALMETTO","FL",34220,NA,NA,360,"PO BOX 1652, PALMETTO, FL, 34220","No_Match",NA,NA,NA,NA
974861,"PO BOX 1652","RUIDOSO DOWNS","NM",88346,NA,NA,361,"PO BOX 1652, RUIDOSO DOWNS, NM, 88346","No_Match",NA,NA,NA,NA
974862,"PO BOX 1652","WHITE PLAINS","MD",20695,NA,NA,362,"PO BOX 1652, WHITE PLAINS, MD, 20695","No_Match",NA,NA,NA,NA
974863,"PO BOX 1653","BAYFIELD","CO",81122,NA,NA,363,"PO BOX 1653, BAYFIELD, CO, 81122","No_Match",NA,NA,NA,NA
974864,"PO BOX 1653","BROWNSVILLE","TN",38012,NA,NA,364,"PO BOX 1653, BROWNSVILLE, TN, 38012","No_Match",NA,NA,NA,NA
974865,"PO BOX 1653","MENDOCINO","CA",95460,NA,NA,365,"PO BOX 1653, MENDOCINO, CA, 95460","No_Match",NA,NA,NA,NA
974866,"PO BOX 1653","RAWLINS","WY",82301,NA,NA,366,"PO BOX 1653, RAWLINS, WY, 82301","No_Match",NA,NA,NA,NA
974867,"PO BOX 1653","SACO","ME",4072,NA,NA,367,"PO BOX 1653, SACO, ME, 4072","No_Match",NA,NA,NA,NA
974868,"PO BOX 16535","SUGAR LAND","TX",77496,NA,NA,368,"PO BOX 16535, SUGAR LAND, TX, 77496","No_Match",NA,NA,NA,NA
974869,"PO BOX 1654","EAGLE","CO",81631,NA,NA,369,"PO BOX 1654, EAGLE, CO, 81631","No_Match",NA,NA,NA,NA
974870,"PO BOX 1654","GEORGE WEST","TX",78022,NA,NA,370,"PO BOX 1654, GEORGE WEST, TX, 78022","No_Match",NA,NA,NA,NA
974871,"PO BOX 1654","GLENDALE","CA",91209,NA,NA,371,"PO BOX 1654, GLENDALE, CA, 91209","No_Match",NA,NA,NA,NA
974872,"PO BOX 1654","KAPAAU","HI",96755,NA,NA,372,"PO BOX 1654, KAPAAU, HI, 96755","No_Match",NA,NA,NA,NA
974873,"PO BOX 1654","LAKE DALLAS","TX",75065,NA,NA,373,"PO BOX 1654, LAKE DALLAS, TX, 75065","No_Match",NA,NA,NA,NA
974874,"PO BOX 1654","SEARCY","AR",72143,NA,NA,374,"PO BOX 1654, SEARCY, AR, 72143","No_Match",NA,NA,NA,NA
974875,"PO BOX 16540","CHARLOTTE","NC",28297,NA,NA,375,"PO BOX 16540, CHARLOTTE, NC, 28297","No_Match",NA,NA,NA,NA
974876,"PO BOX 16544","CHAPEL HILL","NC",27516,NA,NA,376,"PO BOX 16544, CHAPEL HILL, NC, 27516","No_Match",NA,NA,NA,NA
974877,"PO BOX 16545","CHICAGO","IL",60616,NA,NA,377,"PO BOX 16545, CHICAGO, IL, 60616","No_Match",NA,NA,NA,NA
974878,"PO BOX 16547","SOUTH LAKE TAHOE","CA",96151,NA,NA,378,"PO BOX 16547, SOUTH LAKE TAHOE, CA, 96151","No_Match",NA,NA,NA,NA
974879,"PO BOX 16549","CHARLOTTE","NC",28297,NA,NA,379,"PO BOX 16549, CHARLOTTE, NC, 28297","No_Match",NA,NA,NA,NA
974880,"PO BOX 1655","DUVALL","WA",98019,NA,NA,380,"PO BOX 1655, DUVALL, WA, 98019","No_Match",NA,NA,NA,NA
974881,"PO BOX 16551","MILWAUKEE","WI",53216,NA,NA,381,"PO BOX 16551, MILWAUKEE, WI, 53216","No_Match",NA,NA,NA,NA
974882,"PO BOX 1656","FONTANA","CA",92334,NA,NA,382,"PO BOX 1656, FONTANA, CA, 92334","No_Match",NA,NA,NA,NA
974883,"PO BOX 1656","GAFFNEY","SC",29342,NA,NA,383,"PO BOX 1656, GAFFNEY, SC, 29342","No_Match",NA,NA,NA,NA
974884,"PO BOX 1656","MANATI","PR",674,NA,NA,384,"PO BOX 1656, MANATI, PR, 674","No_Match",NA,NA,NA,NA
974885,"PO BOX 16562","CHICAGO","IL",60616,NA,NA,385,"PO BOX 16562, CHICAGO, IL, 60616","No_Match",NA,NA,NA,NA
974886,"PO BOX 1657","ELIZABETHTOWN","KY",42702,NA,NA,386,"PO BOX 1657, ELIZABETHTOWN, KY, 42702","No_Match",NA,NA,NA,NA
974887,"PO BOX 1657","FAIRBURN","GA",30213,NA,NA,387,"PO BOX 1657, FAIRBURN, GA, 30213","No_Match",NA,NA,NA,NA
974888,"PO BOX 1657","FORTSON","GA",31808,NA,NA,388,"PO BOX 1657, FORTSON, GA, 31808","No_Match",NA,NA,NA,NA
974889,"PO BOX 1657","FREDERIKSTED","VI",841,NA,NA,389,"PO BOX 1657, FREDERIKSTED, VI, 841","No_Match",NA,NA,NA,NA
974890,"PO BOX 16575","TALLAHASSEE","FL",32317,NA,NA,390,"PO BOX 16575, TALLAHASSEE, FL, 32317","No_Match",NA,NA,NA,NA
974891,"PO BOX 16575","TAMPA","FL",33687,NA,NA,391,"PO BOX 16575, TAMPA, FL, 33687","No_Match",NA,NA,NA,NA
974892,"PO BOX 1658","VISTA","CA",92085,NA,NA,392,"PO BOX 1658, VISTA, CA, 92085","No_Match",NA,NA,NA,NA
974893,"PO BOX 165882","IRVING","TX",75016,NA,NA,393,"PO BOX 165882, IRVING, TX, 75016","No_Match",NA,NA,NA,NA
974894,"PO BOX 1659","HEALDSBURG","CA",95448,NA,NA,394,"PO BOX 1659, HEALDSBURG, CA, 95448","No_Match",NA,NA,NA,NA
974895,"PO BOX 1659","PORT TOWNSEND","WA",98368,NA,NA,395,"PO BOX 1659, PORT TOWNSEND, WA, 98368","No_Match",NA,NA,NA,NA
974896,"PO BOX 1659","ROBERSONVILLE","NC",27871,NA,NA,396,"PO BOX 1659, ROBERSONVILLE, NC, 27871","No_Match",NA,NA,NA,NA
974897,"PO BOX 1659","SOMERSET","KY",42502,NA,NA,397,"PO BOX 1659, SOMERSET, KY, 42502","No_Match",NA,NA,NA,NA
974898,"PO BOX 16591","SAN DIEGO","CA",92176,NA,NA,398,"PO BOX 16591, SAN DIEGO, CA, 92176","No_Match",NA,NA,NA,NA
974899,"PO BOX 16595","MILWAUKEE","WI",53216,NA,NA,399,"PO BOX 16595, MILWAUKEE, WI, 53216","No_Match",NA,NA,NA,NA
974900,"PO BOX 166","ALPINE","AL",35014,NA,NA,400,"PO BOX 166, ALPINE, AL, 35014","No_Match",NA,NA,NA,NA
974901,"PO BOX 166","CLEVERDALE","NY",12820,NA,NA,401,"PO BOX 166, CLEVERDALE, NY, 12820","No_Match",NA,NA,NA,NA
974902,"PO BOX 166","CRAIG","AK",99921,NA,NA,402,"PO BOX 166, CRAIG, AK, 99921","No_Match",NA,NA,NA,NA
974903,"PO BOX 166","DAYTON","TN",37321,NA,NA,403,"PO BOX 166, DAYTON, TN, 37321","No_Match",NA,NA,NA,NA
974904,"PO BOX 166","DELANO","MN",55328,NA,NA,404,"PO BOX 166, DELANO, MN, 55328","No_Match",NA,NA,NA,NA
974905,"PO BOX 166","FORT ASHBY","WV",26719,NA,NA,405,"PO BOX 166, FORT ASHBY, WV, 26719","No_Match",NA,NA,NA,NA
974906,"PO BOX 166","GARRETT PARK","MD",20896,NA,NA,406,"PO BOX 166, GARRETT PARK, MD, 20896","No_Match",NA,NA,NA,NA
974907,"PO BOX 166","GREEN LANE","PA",18054,NA,NA,407,"PO BOX 166, GREEN LANE, PA, 18054","No_Match",NA,NA,NA,NA
974908,"PO BOX 166","HOOLEHUA","HI",96729,NA,NA,408,"PO BOX 166, HOOLEHUA, HI, 96729","No_Match",NA,NA,NA,NA
974909,"PO BOX 166","HYDE PARK","PA",15641,NA,NA,409,"PO BOX 166, HYDE PARK, PA, 15641","No_Match",NA,NA,NA,NA
974910,"PO BOX 166","JOSEPH","OR",97846,NA,NA,410,"PO BOX 166, JOSEPH, OR, 97846","No_Match",NA,NA,NA,NA
974911,"PO BOX 166","KOUTS","IN",46347,NA,NA,411,"PO BOX 166, KOUTS, IN, 46347","No_Match",NA,NA,NA,NA
974912,"PO BOX 166","LAKEVIEW","OR",97630,NA,NA,412,"PO BOX 166, LAKEVIEW, OR, 97630","No_Match",NA,NA,NA,NA
974913,"PO BOX 166","MARTINSVILLE","VA",24114,NA,NA,413,"PO BOX 166, MARTINSVILLE, VA, 24114","No_Match",NA,NA,NA,NA
974914,"PO BOX 166","MESOPOTAMIA","OH",44439,NA,NA,414,"PO BOX 166, MESOPOTAMIA, OH, 44439","No_Match",NA,NA,NA,NA
974915,"PO BOX 166","MONTICELLO","GA",31064,NA,NA,415,"PO BOX 166, MONTICELLO, GA, 31064","No_Match",NA,NA,NA,NA
974916,"PO BOX 166","PARIS","ID",83261,NA,NA,416,"PO BOX 166, PARIS, ID, 83261","No_Match",NA,NA,NA,NA
974917,"PO BOX 166","ROCKLIN","CA",95677,NA,NA,417,"PO BOX 166, ROCKLIN, CA, 95677","No_Match",NA,NA,NA,NA
974918,"PO BOX 166","SMITH","NV",89430,NA,NA,418,"PO BOX 166, SMITH, NV, 89430","No_Match",NA,NA,NA,NA
974919,"PO BOX 166","THOMASTON","GA",30286,NA,NA,419,"PO BOX 166, THOMASTON, GA, 30286","No_Match",NA,NA,NA,NA
974920,"PO BOX 1660","HOOD RIVER","OR",97031,NA,NA,420,"PO BOX 1660, HOOD RIVER, OR, 97031","No_Match",NA,NA,NA,NA
974921,"PO BOX 1660","PITTSBORO","NC",27312,NA,NA,421,"PO BOX 1660, PITTSBORO, NC, 27312","No_Match",NA,NA,NA,NA
974922,"PO BOX 166061","LITTLE ROCK","AR",72216,NA,NA,422,"PO BOX 166061, LITTLE ROCK, AR, 72216","No_Match",NA,NA,NA,NA
974923,"PO BOX 1661","ALBANY","LA",70711,NA,NA,423,"PO BOX 1661, ALBANY, LA, 70711","No_Match",NA,NA,NA,NA
974924,"PO BOX 1661","BROOKFIELD","WI",53008,NA,NA,424,"PO BOX 1661, BROOKFIELD, WI, 53008","No_Match",NA,NA,NA,NA
974925,"PO BOX 1661","IDAHO FALLS","ID",83403,NA,NA,425,"PO BOX 1661, IDAHO FALLS, ID, 83403","No_Match",NA,NA,NA,NA
974926,"PO BOX 1661","LEVITTOWN","PA",19058,NA,NA,426,"PO BOX 1661, LEVITTOWN, PA, 19058","No_Match",NA,NA,NA,NA
974927,"PO BOX 1661","OMAK","WA",98841,NA,NA,427,"PO BOX 1661, OMAK, WA, 98841","No_Match",NA,NA,NA,NA
974928,"PO BOX 1661","Rosamond","CA",93560,NA,NA,428,"PO BOX 1661, Rosamond, CA, 93560","No_Match",NA,NA,NA,NA
974929,"PO BOX 1661","ROSAMOND","CA",93560,NA,NA,429,"PO BOX 1661, ROSAMOND, CA, 93560","No_Match",NA,NA,NA,NA
974930,"PO BOX 1661","THREE RIVERS","TX",78071,NA,NA,430,"PO BOX 1661, THREE RIVERS, TX, 78071","No_Match",NA,NA,NA,NA
974931,"PO BOX 16612","CHAPEL HILL","NC",27516,NA,NA,431,"PO BOX 16612, CHAPEL HILL, NC, 27516","No_Match",NA,NA,NA,NA
974932,"PO BOX 166131","IRVING","TX",75016,NA,NA,432,"PO BOX 166131, IRVING, TX, 75016","No_Match",NA,NA,NA,NA
974933,"PO BOX 16614","LAS CRUCES","NM",88004,NA,NA,433,"PO BOX 16614, LAS CRUCES, NM, 88004","No_Match",NA,NA,NA,NA
974934,"PO BOX 16615","RAYTOWN","MO",64133,NA,NA,434,"PO BOX 16615, RAYTOWN, MO, 64133","No_Match",NA,NA,NA,NA
974935,"PO BOX 1662","LEAGUE CITY","TX",77574,NA,NA,435,"PO BOX 1662, LEAGUE CITY, TX, 77574","No_Match",NA,NA,NA,NA
974936,"PO BOX 1662","ROSWELL","GA",30077,NA,NA,436,"PO BOX 1662, ROSWELL, GA, 30077","No_Match",NA,NA,NA,NA
974937,"PO BOX 1662","TAPPAHANNOCK","VA",22560,NA,NA,437,"PO BOX 1662, TAPPAHANNOCK, VA, 22560","No_Match",NA,NA,NA,NA
974938,"PO BOX 1662","VANCOUVER","WA",98668,NA,NA,438,"PO BOX 1662, VANCOUVER, WA, 98668","No_Match",NA,NA,NA,NA
974939,"PO BOX 1663 M888","LOS ALAMOS","NM",87545,NA,NA,439,"PO BOX 1663 M888, LOS ALAMOS, NM, 87545","No_Match",NA,NA,NA,NA
974940,"PO BOX 1663","BUNA","TX",75956,NA,NA,440,"PO BOX 1663, BUNA, TX, 75956","No_Match",NA,NA,NA,NA
974941,"PO BOX 1663","BUNA","TX",77612,NA,NA,441,"PO BOX 1663, BUNA, TX, 77612","No_Match",NA,NA,NA,NA
974942,"PO BOX 1663","CALERA","AL",35040,NA,NA,442,"PO BOX 1663, CALERA, AL, 35040","No_Match",NA,NA,NA,NA
974943,"PO BOX 1663","LOS ALAMOS","VA",87545,NA,NA,443,"PO BOX 1663, LOS ALAMOS, VA, 87545","No_Match",NA,NA,NA,NA
974944,"PO BOX 1663","SANTA YNEZ","CA",93460,NA,NA,444,"PO BOX 1663, SANTA YNEZ, CA, 93460","No_Match",NA,NA,NA,NA
974945,"PO BOX 1663","STONE MOUNTAIN","GA",30086,NA,NA,445,"PO BOX 1663, STONE MOUNTAIN, GA, 30086","No_Match",NA,NA,NA,NA
974946,"PO BOX 1663","SUTHERLIN","OR",97479,NA,NA,446,"PO BOX 1663, SUTHERLIN, OR, 97479","No_Match",NA,NA,NA,NA
974947,"PO BOX 16633","MILWAUKEE","WI",53216,NA,NA,447,"PO BOX 16633, MILWAUKEE, WI, 53216","No_Match",NA,NA,NA,NA
974948,"PO BOX 1664","AIEA","HI",96701,NA,NA,448,"PO BOX 1664, AIEA, HI, 96701","No_Match",NA,NA,NA,NA
974949,"PO BOX 1664","NEWPORT","OR",97365,NA,NA,449,"PO BOX 1664, NEWPORT, OR, 97365","No_Match",NA,NA,NA,NA
974950,"PO BOX 1664","SOMERSET","KY",42501,NA,NA,450,"PO BOX 1664, SOMERSET, KY, 42501","No_Match",NA,NA,NA,NA
974951,"PO BOX 16641","ST. LOUIS PARK","MN",55416,NA,NA,451,"PO BOX 16641, ST. LOUIS PARK, MN, 55416","No_Match",NA,NA,NA,NA
974952,"PO BOX 166431","LITTLE ROCK","AR",72216,NA,NA,452,"PO BOX 166431, LITTLE ROCK, AR, 72216","No_Match",NA,NA,NA,NA
974953,"PO BOX 166444","LITTLE ROCK","AR",72216,NA,NA,453,"PO BOX 166444, LITTLE ROCK, AR, 72216","No_Match",NA,NA,NA,NA
974954,"PO BOX 16645","MILWAUKEE","WI",53216,NA,NA,454,"PO BOX 16645, MILWAUKEE, WI, 53216","No_Match",NA,NA,NA,NA
974955,"PO BOX 16646","WASHINGTON","DC",20041,NA,NA,455,"PO BOX 16646, WASHINGTON, DC, 20041","No_Match",NA,NA,NA,NA
974956,"PO BOX 1665","FAIRFIELD","IA",52556,NA,NA,456,"PO BOX 1665, FAIRFIELD, IA, 52556","No_Match",NA,NA,NA,NA
974957,"PO BOX 1665","ROLLA","MO",65402,NA,NA,457,"PO BOX 1665, ROLLA, MO, 65402","No_Match",NA,NA,NA,NA
974958,"PO BOX 16653","ASHEVILLE","NC",28816,NA,NA,458,"PO BOX 16653, ASHEVILLE, NC, 28816","No_Match",NA,NA,NA,NA
974959,"PO BOX 1666","BUNA","TX",77612,NA,NA,459,"PO BOX 1666, BUNA, TX, 77612","No_Match",NA,NA,NA,NA
974960,"PO BOX 1666","CORDOVA","AK",99574,NA,NA,460,"PO BOX 1666, CORDOVA, AK, 99574","No_Match",NA,NA,NA,NA
974961,"PO BOX 1666","HONOKAA","HI",96727,NA,NA,461,"PO BOX 1666, HONOKAA, HI, 96727","No_Match",NA,NA,NA,NA
974962,"PO BOX 1666","SHIPROCK","NM",87420,NA,NA,462,"PO BOX 1666, SHIPROCK, NM, 87420","No_Match",NA,NA,NA,NA
974963,"PO BOX 166648","LITTLE ROCK","AR",72216,NA,NA,463,"PO BOX 166648, LITTLE ROCK, AR, 72216","No_Match",NA,NA,NA,NA
974964,"PO BOX 1667","BONNERS FERRY","ID",83805,NA,NA,464,"PO BOX 1667, BONNERS FERRY, ID, 83805","No_Match",NA,NA,NA,NA
974965,"PO BOX 1667","CRYSTAL BEACH","TX",77650,NA,NA,465,"PO BOX 1667, CRYSTAL BEACH, TX, 77650","No_Match",NA,NA,NA,NA
974966,"PO BOX 1667","GENTRY","AR",72734,NA,NA,466,"PO BOX 1667, GENTRY, AR, 72734","No_Match",NA,NA,NA,NA
974967,"PO BOX 1667","PINE RIDGE","SD",57770,NA,NA,467,"PO BOX 1667, PINE RIDGE, SD, 57770","No_Match",NA,NA,NA,NA
974968,"PO BOX 1667","ROYAL OAK","MI",48073,NA,NA,468,"PO BOX 1667, ROYAL OAK, MI, 48073","No_Match",NA,NA,NA,NA
974969,"PO BOX 1667","SANTA ROSA BEACH","FL",32459,NA,NA,469,"PO BOX 1667, SANTA ROSA BEACH, FL, 32459","No_Match",NA,NA,NA,NA
974970,"PO BOX 1668","EUREKA","MT",59917,NA,NA,470,"PO BOX 1668, EUREKA, MT, 59917","No_Match",NA,NA,NA,NA
974971,"PO BOX 1668","HAYDEN","CO",81639,NA,NA,471,"PO BOX 1668, HAYDEN, CO, 81639","No_Match",NA,NA,NA,NA
974972,"PO BOX 1668","WASHINGTON","MO",63090,NA,NA,472,"PO BOX 1668, WASHINGTON, MO, 63090","No_Match",NA,NA,NA,NA
974973,"PO BOX 1668","WILSON","WY",83014,NA,NA,473,"PO BOX 1668, WILSON, WY, 83014","No_Match",NA,NA,NA,NA
974974,"PO BOX 16683","FERNANDINA BEACH","FL",32035,NA,NA,474,"PO BOX 16683, FERNANDINA BEACH, FL, 32035","No_Match",NA,NA,NA,NA
974975,"PO BOX 16689","CHARLOTTE","NC",28297,NA,NA,475,"PO BOX 16689, CHARLOTTE, NC, 28297","No_Match",NA,NA,NA,NA
974976,"PO BOX 1669","FAJARDO","PR",738,NA,NA,476,"PO BOX 1669, FAJARDO, PR, 738","No_Match",NA,NA,NA,NA
974977,"PO BOX 16690","PLANTATION","FL",33313,NA,NA,477,"PO BOX 16690, PLANTATION, FL, 33313","No_Match",NA,NA,NA,NA
974978,"PO BOX 16692","BRISTOL","VA",24209,NA,NA,478,"PO BOX 16692, BRISTOL, VA, 24209","No_Match",NA,NA,NA,NA
974979,"PO BOX 167 / 202 W MADISON","CHRISMAN","IL",61924,39.8044269310001,-87.679131969,479,"PO BOX 167 / 202 W MADISON, CHRISMAN, IL, 61924","Match","Non_Exact","202 W MADISON AVE, CHRISMAN, IL, 61924",5786326,"L"
974980,"PO BOX 167 SAINT JUST","TRUJILLO ALTO","PR",978,NA,NA,480,"PO BOX 167 SAINT JUST, TRUJILLO ALTO, PR, 978","No_Match",NA,NA,NA,NA
974981,"PO BOX 167","BARRE","VT",5641,NA,NA,481,"PO BOX 167, BARRE, VT, 5641","No_Match",NA,NA,NA,NA
974982,"PO BOX 167","BEDFORD HILLS","NY",10507,NA,NA,482,"PO BOX 167, BEDFORD HILLS, NY, 10507","No_Match",NA,NA,NA,NA
974983,"PO BOX 167","DEER PARK","NY",11729,NA,NA,483,"PO BOX 167, DEER PARK, NY, 11729","No_Match",NA,NA,NA,NA
974984,"PO BOX 167","EAST SPENCER","NC",28039,NA,NA,484,"PO BOX 167, EAST SPENCER, NC, 28039","No_Match",NA,NA,NA,NA
974985,"PO BOX 167","EBEN JUNCTION","MI",49825,NA,NA,485,"PO BOX 167, EBEN JUNCTION, MI, 49825","No_Match",NA,NA,NA,NA
974986,"PO BOX 167","ERIE","MI",48133,NA,NA,486,"PO BOX 167, ERIE, MI, 48133","No_Match",NA,NA,NA,NA
974987,"PO BOX 167","GLEN ALPINE","NC",28628,NA,NA,487,"PO BOX 167, GLEN ALPINE, NC, 28628","No_Match",NA,NA,NA,NA
974988,"PO BOX 167","JAYTON","TX",79528,NA,NA,488,"PO BOX 167, JAYTON, TX, 79528","No_Match",NA,NA,NA,NA
974989,"PO BOX 167","JOHNSON CITY","NY",13790,NA,NA,489,"PO BOX 167, JOHNSON CITY, NY, 13790","No_Match",NA,NA,NA,NA
974990,"PO BOX 167","KINCAID","IL",62540,NA,NA,490,"PO BOX 167, KINCAID, IL, 62540","No_Match",NA,NA,NA,NA
974991,"PO BOX 167","LAKE WACCAMAW","NC",28450,NA,NA,491,"PO BOX 167, LAKE WACCAMAW, NC, 28450","No_Match",NA,NA,NA,NA
974992,"PO BOX 167","MANSFIELD","LA",71052,NA,NA,492,"PO BOX 167, MANSFIELD, LA, 71052","No_Match",NA,NA,NA,NA
974993,"PO BOX 167","MCCALL","ID",83638,NA,NA,493,"PO BOX 167, MCCALL, ID, 83638","No_Match",NA,NA,NA,NA
974994,"PO BOX 167","MT VERNON","SD",57363,NA,NA,494,"PO BOX 167, MT VERNON, SD, 57363","No_Match",NA,NA,NA,NA
974995,"PO BOX 167","OVERTON","NV",89040,NA,NA,495,"PO BOX 167, OVERTON, NV, 89040","No_Match",NA,NA,NA,NA
974996,"PO BOX 167","PORT ELIZABETH","NJ",8348,NA,NA,496,"PO BOX 167, PORT ELIZABETH, NJ, 8348","No_Match",NA,NA,NA,NA
974997,"PO BOX 167","PUKWANA","SD",57370,NA,NA,497,"PO BOX 167, PUKWANA, SD, 57370","No_Match",NA,NA,NA,NA
974998,"PO BOX 167","ROSEBUD","MO",63091,NA,NA,498,"PO BOX 167, ROSEBUD, MO, 63091","No_Match",NA,NA,NA,NA
974999,"PO BOX 167","SANDYVILLE","OH",44671,NA,NA,499,"PO BOX 167, SANDYVILLE, OH, 44671","No_Match",NA,NA,NA,NA
975000,"PO BOX 167","SHAW","MS",38773,NA,NA,500,"PO BOX 167, SHAW, MS, 38773","No_Match",NA,NA,NA,NA
