"ID","Address","City","State","Zip","lat","long","id","input_address","match_indicator","match_type","matched_address","tiger_line_id","tiger_side"
336001,"21034 MORGAN KNOLL LN STE 173","KATY","TX",77449,29.799113156,-95.742610599,1,"21034 MORGAN KNOLL LN STE 173, KATY, TX, 77449","Match","Exact","21034 MORGAN KNOLL LN, KATY, TX, 77449",633234621,"L"
336002,"21034 MORGAN KNOLL LN","KATY","TX",77449,29.799113156,-95.742610599,2,"21034 MORGAN KNOLL LN, KATY, TX, 77449","Match","Exact","21034 MORGAN KNOLL LN, KATY, TX, 77449",633234621,"L"
336003,"21034 PERMITER ROAD","GRASS VALLEY","CA",96949,39.0474491470001,-121.227092596,3,"21034 PERMITER ROAD, GRASS VALLEY, CA, 96949","Match","Non_Exact","21034 PERIMETER RD, GRASS VALLEY, CA, 95949",106552998,"R"
336004,"21034 UNIVERSAL AVE","EASTPOINT","MI",48021,42.453190352,-82.957863302,4,"21034 UNIVERSAL AVE, EASTPOINT, MI, 48021","Match","Non_Exact","21034 UNIVERSAL AVE, EASTPOINTE, MI, 48021",110679311,"R"
336005,"21035 COURTLAND VILLAGE DR","LEESBURG","VA",20175,39.034931112,-77.604633694,5,"21035 COURTLAND VILLAGE DR, LEESBURG, VA, 20175","Match","Exact","21035 COURTLAND VILLAGE DR, LEESBURG, VA, 20175",624059211,"R"
336006,"21035 HOMELAND ROAD","MATTESON","IL",60443,41.507650401,-87.7299915309999,6,"21035 HOMELAND ROAD, MATTESON, IL, 60443","Match","Exact","21035 HOMELAND RD, MATTESON, IL, 60443",111708191,"L"
336007,"21035 NATALIE LANE","LITTLE ROCK","AR",72206,34.5595491340001,-92.343890164,7,"21035 NATALIE LANE, LITTLE ROCK, AR, 72206","Match","Exact","21035 NATALIE LN, LITTLE ROCK, AR, 72206",631962113,"L"
336008,"21035 OAK RIDGE CT","BROOKEFIELD","WI",53045,43.0444027390001,-88.1745895989999,8,"21035 OAK RIDGE CT, BROOKEFIELD, WI, 53045","Match","Non_Exact","21035 OAK RIDGE CT, BROOKFIELD, WI, 53045",53825489,"R"
336009,"21037 NE 97TH PL","REDMOND","WA",98053,47.68657469,-122.060125413,9,"21037 NE 97TH PL, REDMOND, WA, 98053","Match","Exact","21037 NE 97TH PL, REDMOND, WA, 98053",650024288,"R"
336010,"21037 SOUTH FORREST DR","TAHLEQUAH","OK",74464,35.870082326,-95.000947463,10,"21037 SOUTH FORREST DR, TAHLEQUAH, OK, 74464","Match","Exact","21037 S FORREST DR, TAHLEQUAH, OK, 74464",53619274,"R"
336011,"21039 VANOWEN STREET APT 216","CANOGA PARK","CA",91303,34.193776982,-118.591491054,11,"21039 VANOWEN STREET APT 216, CANOGA PARK, CA, 91303","Match","Exact","21039 VANOWEN ST, CANOGA PARK, CA, 91303",141535280,"R"
336012,"21039 WILLIAMS CREEK DR","PORTER","TX",77365,30.075571688,-95.2536186469999,12,"21039 WILLIAMS CREEK DR, PORTER, TX, 77365","Match","Exact","21039 WILLIAMS CREEK DR, PORTER, TX, 77365",614122135,"R"
336013,"2104 16TH ST SW","BIRMINGHAM","AL",35211,33.4669440280001,-86.856018347,13,"2104 16TH ST SW, BIRMINGHAM, AL, 35211","Match","Exact","2104 16TH ST SW, BIRMINGHAM, AL, 35211",81559482,"R"
336014,"2104 1ST AVE E","WILLISTON","ND",58801,48.16422039,-103.621028564,14,"2104 1ST AVE E, WILLISTON, ND, 58801","Match","Exact","2104 1ST AVE E, WILLISTON, ND, 58801",167753102,"L"
336015,"2104 22ND AVE SE","OLYMPIA","WA",98501,47.029339679,-122.872225542,15,"2104 22ND AVE SE, OLYMPIA, WA, 98501","Match","Exact","2104 22ND AVE SE, OLYMPIA, WA, 98501",180961177,"L"
336016,"2104 24TH ST E","MINNEAPOLIS","MN",55404,NA,NA,16,"2104 24TH ST E, MINNEAPOLIS, MN, 55404","No_Match",NA,NA,NA,NA
336017,"2104 26TH STREET S UNIT 103","GREAT FALLS","MT",59405,47.482654778,-111.26309596,17,"2104 26TH STREET S UNIT 103, GREAT FALLS, MT, 59405","Match","Exact","2104 26TH ST S, GREAT FALLS, MT, 59405",641984683,"R"
336018,"2104 3RD STREET","BAY CITY","TX",77414,28.978840265,-95.964976446,18,"2104 3RD STREET, BAY CITY, TX, 77414","Match","Exact","2104 3RD ST, BAY CITY, TX, 77414",83278809,"R"
336019,"2104 67TH ST 2FL","BROOKLYN","NY",11204,40.613874423,-73.984619347,19,"2104 67TH ST 2FL, BROOKLYN, NY, 11204","Match","Exact","2104 67TH ST, BROOKLYN, NY, 11204",59088540,"R"
336020,"2104 7TH AVENUE","DELANO","CA",93215,35.7659295120001,-119.226442979,20,"2104 7TH AVENUE, DELANO, CA, 93215","Match","Exact","2104 7TH AVE, DELANO, CA, 93215",108997773,"L"
336021,"2104 ADEL DRIVE","LOGANVILLE","GA",30052,33.7224675210001,-83.9280862959999,21,"2104 ADEL DRIVE, LOGANVILLE, GA, 30052","Match","Non_Exact","2104 ADEL DR NE, LOGANVILLE, GA, 30052",636111945,"L"
336022,"2104 ALTON ROAD","MEMPHIS","TN",38106,35.0895945180001,-90.040845954,22,"2104 ALTON ROAD, MEMPHIS, TN, 38106","Match","Non_Exact","2104 ALTON AVE, MEMPHIS, TN, 38106",618109002,"L"
336023,"2104 ARBOR KEATS DRIVE","SIMPSONVILLE","SC",29680,34.709834099,-82.260585077,23,"2104 ARBOR KEATS DRIVE, SIMPSONVILLE, SC, 29680","Match","Exact","2104 ARBOR KEATS DR, SIMPSONVILLE, SC, 29680",639817695,"R"
336024,"2104 ARDLEY CT","JUNO BEACH","FL",33408,26.8627253490001,-80.06466332,24,"2104 ARDLEY CT, JUNO BEACH, FL, 33408","Match","Exact","2104 ARDLEY CT, JUNO BEACH, FL, 33408",115581827,"L"
336025,"2104 ASCOT ROAD","ANN ARBOR","MI",48103,42.2549705380001,-83.756537087,25,"2104 ASCOT ROAD, ANN ARBOR, MI, 48103","Match","Exact","2104 ASCOT RD, ANN ARBOR, MI, 48103",26014868,"R"
336026,"2104 ASHBURTON AVENUE","HERNDON","VA",20171,NA,NA,26,"2104 ASHBURTON AVENUE, HERNDON, VA, 20171","No_Match",NA,NA,NA,NA
336027,"2104 BALD HILL ROAD","JEFFERSON CITY","MO",65101,38.545152634,-92.1529383769999,27,"2104 BALD HILL ROAD, JEFFERSON CITY, MO, 65101","Match","Exact","2104 BALD HILL RD, JEFFERSON CITY, MO, 65101",647011630,"L"
336028,"2104 BATAAN ROAD","REDONDO BEACH","CA",90278,33.8846508300001,-118.374630805,28,"2104 BATAAN ROAD, REDONDO BEACH, CA, 90278","Match","Exact","2104 BATAAN RD, REDONDO BEACH, CA, 90278",141662703,"R"
336029,"2104 BEEKMAN PL NW","WILSON","NC",27896,35.755326675,-77.954773174,29,"2104 BEEKMAN PL NW, WILSON, NC, 27896","Match","Non_Exact","2104 BEEKMAN PL, WILSON, NC, 27896",26713582,"R"
336030,"2104 BELCARO DR","KNOXVILLE","TN",37918,36.0410517930001,-83.9504164959999,30,"2104 BELCARO DR, KNOXVILLE, TN, 37918","Match","Exact","2104 BELCARO DR, KNOXVILLE, TN, 37918",42616472,"R"
336031,"2104 BELVEDERE BLVD APT 1","SILVER SPRING","MD",20902,39.019413075,-77.045227833,31,"2104 BELVEDERE BLVD APT 1, SILVER SPRING, MD, 20902","Match","Exact","2104 BELVEDERE BLVD, SILVER SPRING, MD, 20902",637189376,"L"
336032,"2104 BELVEDERE BLVD APT 2","SILVER SPRING","MD",20902,39.019413075,-77.045227833,32,"2104 BELVEDERE BLVD APT 2, SILVER SPRING, MD, 20902","Match","Exact","2104 BELVEDERE BLVD, SILVER SPRING, MD, 20902",637189376,"L"
336033,"2104 BERKNER DR","RICHARDSON","TX",75081,32.936359775,-96.6845293709999,33,"2104 BERKNER DR, RICHARDSON, TX, 75081","Match","Exact","2104 BERKNER DR, RICHARDSON, TX, 75081",102916708,"R"
336034,"2104 BERMONDSEY DRIVE","BOWIE","MD",20721,38.9178016010001,-76.777837657,34,"2104 BERMONDSEY DRIVE, BOWIE, MD, 20721","Match","Exact","2104 BERMONDSEY DR, BOWIE, MD, 20721",76399000,"R"
336035,"2104 BETRY PLACE","RALEIGH","NC",27603,35.7434468750001,-78.671780798,35,"2104 BETRY PLACE, RALEIGH, NC, 27603","Match","Exact","2104 BETRY PL, RALEIGH, NC, 27603",208348472,"R"
336036,"2104 BIRCHWOOD LN","BUFFALO GROVE","IL",60089,42.1880757640001,-87.969764201,36,"2104 BIRCHWOOD LN, BUFFALO GROVE, IL, 60089","Match","Exact","2104 BIRCHWOOD LN, BUFFALO GROVE, IL, 60089",119662494,"L"
336037,"2104 BLACK BEAR DRIVE","EULESS","TX",76039,32.8675197690001,-97.096428518,37,"2104 BLACK BEAR DRIVE, EULESS, TX, 76039","Match","Exact","2104 BLACK BEAR DR, EULESS, TX, 76039",631771075,"R"
336038,"2104 BLACK FOX DRIVE","ATLANTA","GA",30345,33.8262395730001,-84.304080587,38,"2104 BLACK FOX DRIVE, ATLANTA, GA, 30345","Match","Non_Exact","2104 BLACK FOX DR NE, ATLANTA, GA, 30345",23405747,"L"
336039,"2104 BRANDING IRON DR","FOLSOM","CA",95630,38.650196119,-121.094992157,39,"2104 BRANDING IRON DR, FOLSOM, CA, 95630","Match","Exact","2104 BRANDING IRON DR, FOLSOM, CA, 95630",614157564,"R"
336040,"2104 BRANDON PARKWAY","TUSCALOOSA","AL",35406,NA,NA,40,"2104 BRANDON PARKWAY, TUSCALOOSA, AL, 35406","No_Match",NA,NA,NA,NA
336041,"2104 BRIGHTON PARK DR","BAKERSFIELD","CA",93311,35.3350192140001,-119.135495719,41,"2104 BRIGHTON PARK DR, BAKERSFIELD, CA, 93311","Match","Exact","2104 BRIGHTON PARK DR, BAKERSFIELD, CA, 93311",109575011,"L"
336042,"2104 BUCKINGHAM AVE","HENRICO","VA",23228,37.5991360510001,-77.468169298,42,"2104 BUCKINGHAM AVE, HENRICO, VA, 23228","Match","Exact","2104 BUCKINGHAM AVE, HENRICO, VA, 23228",637971246,"R"
336043,"2104 BURKEY DRIVE","WYOMISSING","PA",19610,40.340096757,-75.997433514,43,"2104 BURKEY DRIVE, WYOMISSING, PA, 19610","Match","Exact","2104 BURKEY DR, WYOMISSING, PA, 19610",80372053,"R"
336044,"2104 CAHUENGA BL 207","HOLLYWOOD","CA",90068,34.1093371470001,-118.331065816,44,"2104 CAHUENGA BL 207, HOLLYWOOD, CA, 90068","Match","Non_Exact","2104 N CAHUENGA BLVD, HOLLYWOOD, CA, 90068",141594739,"R"
336045,"2104 CALLAO CT","WOODBRIDGE","VA",22191,38.6133756460001,-77.2796803419999,45,"2104 CALLAO CT, WOODBRIDGE, VA, 22191","Match","Exact","2104 CALLAO CT, WOODBRIDGE, VA, 22191",619946980,"L"
336046,"2104 CANAL PLACE","HOUSTON","TX",77003,29.759270794,-95.348752684,46,"2104 CANAL PLACE, HOUSTON, TX, 77003","Match","Non_Exact","2104 CANAL ST, HOUSTON, TX, 77003",96069837,"R"
336047,"2104 CANAL ST 201","HOUSTON","TX",77003,29.759270794,-95.348752684,47,"2104 CANAL ST 201, HOUSTON, TX, 77003","Match","Exact","2104 CANAL ST, HOUSTON, TX, 77003",96069837,"R"
336048,"2104 CAROLINA LANE","LEXINGTON","KY",40513,38.0303617490001,-84.568753809,48,"2104 CAROLINA LANE, LEXINGTON, KY, 40513","Match","Exact","2104 CAROLINA LN, LEXINGTON, KY, 40513",31954807,"R"
336049,"2104 CASTLEBERRY CUT OFF RD","FORT WORTH","TX",76114,32.7907482900001,-97.3998182569999,49,"2104 CASTLEBERRY CUT OFF RD, FORT WORTH, TX, 76114","Match","Exact","2104 CASTLEBERRY CUT OFF RD, FORT WORTH, TX, 76114",101853306,"L"
336050,"2104 CHAMPIONSHIP DRIVE","EVANSVILLE","IN",47725,38.0770236700001,-87.5234404139999,50,"2104 CHAMPIONSHIP DRIVE, EVANSVILLE, IN, 47725","Match","Exact","2104 CHAMPIONSHIP DR, EVANSVILLE, IN, 47725",39798666,"L"
336051,"2104 CHANCELLORY LANE","CHARLESTON","SC",29414,32.8247026220001,-80.05257274,51,"2104 CHANCELLORY LANE, CHARLESTON, SC, 29414","Match","Exact","2104 CHANCELLORY LN, CHARLESTON, SC, 29414",647066450,"R"
336052,"2104 CHAPEL HILL ROAD","HOOVER","AL",35216,33.395497628,-86.798194678,52,"2104 CHAPEL HILL ROAD, HOOVER, AL, 35216","Match","Exact","2104 CHAPEL HILL RD, HOOVER, AL, 35216",81583621,"L"
336053,"2104 CHELTENHAM BLVD","GREEENSBORO","NC",27607,36.0376609740001,-79.825960934,53,"2104 CHELTENHAM BLVD, GREEENSBORO, NC, 27607","Match","Non_Exact","2104 CHELTENHAM BLVD, GREENSBORO, NC, 27407",131045268,"R"
336054,"2104 CHELTENHAM BLVD","GREENSBORO","NC",27607,36.0376609740001,-79.825960934,54,"2104 CHELTENHAM BLVD, GREENSBORO, NC, 27607","Match","Non_Exact","2104 CHELTENHAM BLVD, GREENSBORO, NC, 27407",131045268,"R"
336055,"2104 CHESTNUT AVE","BUENA VISTA","VA",24416,37.733988552,-79.351992297,55,"2104 CHESTNUT AVE, BUENA VISTA, VA, 24416","Match","Exact","2104 CHESTNUT AVE, BUENA VISTA, VA, 24416",63113735,"R"
336056,"2104 CHESTNUT DRIVE","HUDSON","WI",54016,44.9844490560001,-92.732040931,56,"2104 CHESTNUT DRIVE, HUDSON, WI, 54016","Match","Exact","2104 CHESTNUT DR, HUDSON, WI, 54016",110908443,"L"
336057,"2104 CHIPPENDALE DRIVE","MARYVILLE","TN",37803,35.704828359,-83.983769256,57,"2104 CHIPPENDALE DRIVE, MARYVILLE, TN, 37803","Match","Exact","2104 CHIPPENDALE DR, MARYVILLE, TN, 37803",89847568,"R"
336058,"2104 CHRISTINA COVE","HOOVER","AL",35244,33.379964096,-86.7630728359999,58,"2104 CHRISTINA COVE, HOOVER, AL, 35244","Match","Exact","2104 CHRISTINA COVE, HOOVER, AL, 35244",82072761,"R"
336059,"2104 CLARA STREET","SEARCY","AR",72143,35.2560320910001,-91.7696723239999,59,"2104 CLARA STREET, SEARCY, AR, 72143","Match","Exact","2104 CLARA ST, SEARCY, AR, 72143",647527950,"R"
336060,"2104 COBBLESTONE CIRCLE NE","BROOKHAVEN","GA",30319,33.8472226640001,-84.332707667,60,"2104 COBBLESTONE CIRCLE NE, BROOKHAVEN, GA, 30319","Match","Exact","2104 COBBLESTONE CIR NE, BROOKHAVEN, GA, 30319",636358132,"L"
336061,"2104 COOK RD","WHITE HALL","AR",71602,34.272043717,-92.129401258,61,"2104 COOK RD, WHITE HALL, AR, 71602","Match","Exact","2104 COOK RD, WHITE HALL, AR, 71602",2538448,"L"
336062,"2104 COOL SPRINGS RD P4","TAMPA","FL",33604,28.027663821,-82.480648194,62,"2104 COOL SPRINGS RD P4, TAMPA, FL, 33604","Match","Exact","2104 COOL SPRINGS RD, TAMPA, FL, 33604",104517731,"L"
336063,"2104 CREEKVIEW DRIVE","Round Rock","TX",78681,30.490460882,-97.702510844,63,"2104 CREEKVIEW DRIVE, Round Rock, TX, 78681","Match","Exact","2104 CREEKVIEW DR, ROUND ROCK, TX, 78681",126432428,"R"
336064,"2104 CUB CIRCLE","SHOW LOW","AZ",85901,34.36491168,-110.036799715,64,"2104 CUB CIRCLE, SHOW LOW, AZ, 85901","Match","Exact","2104 CUB CIR, SHOW LOW, AZ, 85901",634634944,"L"
336065,"2104 DELLWOOD PLACE","DECATUR","GA",30032,33.7298369590001,-84.2749842599999,65,"2104 DELLWOOD PLACE, DECATUR, GA, 30032","Match","Exact","2104 DELLWOOD PL, DECATUR, GA, 30032",23370453,"L"
336066,"2104 DIAMOND GROVE CT","VIRGINIA BEACH","VA",23454,36.7647335980001,-75.997529379,66,"2104 DIAMOND GROVE CT, VIRGINIA BEACH, VA, 23454","Match","Exact","2104 DIAMOND GROVE CT, VIRGINIA BCH, VA, 23454",122288807,"L"
336067,"2104 DIVISION ST","JACKSONVILLE","FL",32209,30.3498575630001,-81.70138881,67,"2104 DIVISION ST, JACKSONVILLE, FL, 32209","Match","Exact","2104 DIVISION ST, JACKSONVILLE, FL, 32209",83893671,"L"
336068,"2104 DIXON ROAD","FREDERICK","MD",21704,39.291288798,-77.348313931,68,"2104 DIXON ROAD, FREDERICK, MD, 21704","Match","Exact","2104 DIXON RD, FREDERICK, MD, 21704",636223593,"L"
336069,"2104 DOGWOOD ST NE","TACOMA","WA",98422,47.31687485,-122.419424906,69,"2104 DOGWOOD ST NE, TACOMA, WA, 98422","Match","Exact","2104 DOGWOOD ST NE, TACOMA, WA, 98422",184719754,"R"
336070,"2104 DOUGLASS BLVD","LOUISVILLE","KY",40205,38.2263948550001,-85.6903968399999,70,"2104 DOUGLASS BLVD, LOUISVILLE, KY, 40205","Match","Exact","2104 DOUGLASS BLVD, LOUISVILLE, KY, 40205",96852979,"R"
336071,"2104 E HATCHWAY ST","COMPTON","CA",90222,33.9085608,-118.23287884,71,"2104 E HATCHWAY ST, COMPTON, CA, 90222","Match","Exact","2104 E HATCHWAY ST, COMPTON, CA, 90222",141675148,"R"
336072,"2104 E HATCHWAY","COMPTON","CA",90222,33.9085608,-118.23287884,72,"2104 E HATCHWAY, COMPTON, CA, 90222","Match","Non_Exact","2104 E HATCHWAY ST, COMPTON, CA, 90222",141675148,"R"
336073,"2104 EAGLE VIEW DRIVE","COLORADO SPRINGS","CO",80909,38.862603639,-104.788423952,73,"2104 EAGLE VIEW DRIVE, COLORADO SPRINGS, CO, 80909","Match","Exact","2104 EAGLE VIEW DR, COLORADO SPRINGS, CO, 80909",105515742,"L"
336074,"2104 EAGLES NEST COURT","HENRICO","VA",23231,37.486710112,-77.3691329279999,74,"2104 EAGLES NEST COURT, HENRICO, VA, 23231","Match","Exact","2104 EAGLES NEST CT, HENRICO, VA, 23231",636813110,"R"
336075,"2104 EDELWEISS LOOP","TRINITY","FL",34655,28.1904334120001,-82.648511615,75,"2104 EDELWEISS LOOP, TRINITY, FL, 34655","Match","Exact","2104 EDELWEISS LOOP, TRINITY, FL, 34655",86401566,"L"
336076,"2104 EDGCUMBE ROAD","SAINT PAUL","MN",55116,44.908901997,-93.167772132,76,"2104 EDGCUMBE ROAD, SAINT PAUL, MN, 55116","Match","Exact","2104 EDGCUMBE RD, SAINT PAUL, MN, 55116",97646123,"L"
336077,"2104 EDINBURGH DRIVE","BIRMINGHAM","AL",36116,32.3368534090001,-86.20259234,77,"2104 EDINBURGH DRIVE, BIRMINGHAM, AL, 36116","Match","Non_Exact","2104 EDINBURGH DR, MONTGOMERY, AL, 36116",653333179,"R"
336078,"2104 EDINBURGH DRIVE","MONTGOMERY","AL",36116,32.3368534090001,-86.20259234,78,"2104 EDINBURGH DRIVE, MONTGOMERY, AL, 36116","Match","Exact","2104 EDINBURGH DR, MONTGOMERY, AL, 36116",653333179,"R"
336079,"2104 FM 1375 RD EAST","HUNTSVILLE","TX",77340,NA,NA,79,"2104 FM 1375 RD EAST, HUNTSVILLE, TX, 77340","No_Match",NA,NA,NA,NA
336080,"2104 FM 2097","CHESTER","TX",75936,30.9468579420001,-94.6140192399999,80,"2104 FM 2097, CHESTER, TX, 75936","Match","Exact","2104 FM 2097, CHESTER, TX, 75936",24417118,"R"
336081,"2104 FOREST GLADE DR","FT. WAYNE","IN",46845,41.2298596410001,-85.1169960349999,81,"2104 FOREST GLADE DR, FT. WAYNE, IN, 46845","Match","Non_Exact","2104 FOREST GLADE, FORT WAYNE, IN, 46845",6408435,"L"
336082,"2104 FRALEY COURT","LEXINGTON","KY",40514,37.9985699420001,-84.576705236,82,"2104 FRALEY COURT, LEXINGTON, KY, 40514","Match","Exact","2104 FRALEY CT, LEXINGTON, KY, 40514",31932302,"R"
336083,"2104 FRED COUPLES DRIVE","GUNTER","TX",75058,33.4308081550001,-96.708839129,83,"2104 FRED COUPLES DRIVE, GUNTER, TX, 75058","Match","Exact","2104 FRED COUPLES DR, GUNTER, TX, 75058",636985135,"L"
336084,"2104 FUENTES","NEWPORT BEACH","CA",92660,33.637871627,-117.879033634,84,"2104 FUENTES, NEWPORT BEACH, CA, 92660","Match","Exact","2104 FUENTES, NEWPORT BEACH, CA, 92660",144050175,"R"
336085,"2104 GINGER ESTATES DR","CONYERS","GA",30013,33.6404335770001,-83.9520600879999,85,"2104 GINGER ESTATES DR, CONYERS, GA, 30013","Match","Exact","2104 GINGER ESTATES DR, CONYERS, GA, 30013",625406548,"L"
336086,"2104 GOLD KEY ESTATES","MILFORD","PA",18337,NA,NA,86,"2104 GOLD KEY ESTATES, MILFORD, PA, 18337","No_Match",NA,NA,NA,NA
336087,"2104 GOLDEN MAPLES COURT NW","OLYMPIA","WA",98502,47.064105512,-122.998095362,87,"2104 GOLDEN MAPLES COURT NW, OLYMPIA, WA, 98502","Match","Exact","2104 GOLDEN MAPLES CT NW, OLYMPIA, WA, 98502",180964873,"R"
336088,"2104 GRANT PLACE","PORT HURON","MI",48060,42.947673777,-82.447991068,88,"2104 GRANT PLACE, PORT HURON, MI, 48060","Match","Exact","2104 GRANT PL, PORT HURON, MI, 48060",110985152,"L"
336089,"2104 GRAYDON AVENUE","MONROVIA","CA",91016,34.126069934,-118.005408714,89,"2104 GRAYDON AVENUE, MONROVIA, CA, 91016","Match","Exact","2104 GRAYDON AVE, MONROVIA, CA, 91016",141646545,"L"
336090,"2104 GREEN OAKS CIRCLE","ROUND ROCK","TX",78665,30.5252904210001,-97.6511602049999,90,"2104 GREEN OAKS CIRCLE, ROUND ROCK, TX, 78665","Match","Exact","2104 GREEN OAKS CIR, ROUND ROCK, TX, 78665",640537498,"R"
336091,"2104 GREENVIEW RD","NORTHBROOK","IL",60062,42.114813364,-87.84033257,91,"2104 GREENVIEW RD, NORTHBROOK, IL, 60062","Match","Exact","2104 GREENVIEW RD, NORTHBROOK, IL, 60062",111728292,"L"
336092,"2104 GROVE ROAD","BETHLEHEM","PA",18018,40.642079349,-75.418597929,92,"2104 GROVE ROAD, BETHLEHEM, PA, 18018","Match","Exact","2104 GROVE RD, BETHLEHEM, PA, 18018",80764558,"R"
336093,"2104 HANOVER AVENUE","RICHMOND","VA",23220,37.553063524,-77.4653587189999,93,"2104 HANOVER AVENUE, RICHMOND, VA, 23220","Match","Exact","2104 HANOVER AVE, RICHMOND, VA, 23220",201536124,"R"
336094,"2104 HANOVER ST","SILVER SPRING","MD",20910,39.003171577,-77.044282149,94,"2104 HANOVER ST, SILVER SPRING, MD, 20910","Match","Exact","2104 HANOVER ST, SILVER SPRING, MD, 20910",637462494,"L"
336095,"2104 HARRIS WAY  ROAD NW","HUNTSVILLE","AL",35810,NA,NA,95,"2104 HARRIS WAY  ROAD NW, HUNTSVILLE, AL, 35810","No_Match",NA,NA,NA,NA
336096,"2104 HARRISON CENTER RD","OHIO CITY","OH",45874,40.858809213,-84.782230426,96,"2104 HARRISON CENTER RD, OHIO CITY, OH, 45874","Match","Exact","2104 HARRISON CENTER RD, OHIO CITY, OH, 45874",635799234,"L"
336097,"2104 HASKELL STREET","AUSTIN","TX",78702,30.25162685,-97.723925644,97,"2104 HASKELL STREET, AUSTIN, TX, 78702","Match","Exact","2104 HASKELL ST, AUSTIN, TX, 78702",63948592,"L"
336098,"2104 HICKORY CLUB DRIVE","ANTIOCH","TN",37013,36.0541843570001,-86.638881012,98,"2104 HICKORY CLUB DRIVE, ANTIOCH, TN, 37013","Match","Exact","2104 HICKORY CLUB DR, ANTIOCH, TN, 37013",97216042,"L"
336099,"2104 HUDSON DR","ST LOUIS","MO",63136,38.7588916710001,-90.261494876,99,"2104 HUDSON DR, ST LOUIS, MO, 63136","Match","Non_Exact","2104 HUDSON RD, SAINT LOUIS, MO, 63136",100148188,"R"
336100,"2104 HUGHES STREET","HEARNE","TX",77859,30.8739543780001,-96.611240913,100,"2104 HUGHES STREET, HEARNE, TX, 77859","Match","Exact","2104 HUGHES ST, HEARNE, TX, 77859",24691455,"L"
336101,"2104 HUTCHISON ROAD","FLOSSMOOR","IL",60422,41.545523087,-87.6679991459999,101,"2104 HUTCHISON ROAD, FLOSSMOOR, IL, 60422","Match","Exact","2104 HUTCHISON RD, FLOSSMOOR, IL, 60422",111709892,"L"
336102,"2104 HWY 48 S","DICKSON","TN",37055,36.019096113,-87.4596746079999,102,"2104 HWY 48 S, DICKSON, TN, 37055","Match","Non_Exact","2104 STATE RTE 48 S, DICKSON, TN, 37055",623808328,"L"
336103,"2104 HWY 72 WEST","GREENWOOD","SC",29646,34.1905404180001,-82.2214280809999,103,"2104 HWY 72 WEST, GREENWOOD, SC, 29646","Match","Non_Exact","2104 HWY 72 W, GREENWOOD, SC, 29649",649670979,"L"
336104,"2104 HYDE PLACE APT G","FAYETTEVILLE","NC",28306,35.0259098330001,-78.913185256,104,"2104 HYDE PLACE APT G, FAYETTEVILLE, NC, 28306","Match","Exact","2104 HYDE PL, FAYETTEVILLE, NC, 28306",64200380,"L"
336105,"2104 ISLAND WOOD ROAD","AUSTIN","TX",78733,30.337175588,-97.847820841,105,"2104 ISLAND WOOD ROAD, AUSTIN, TX, 78733","Match","Exact","2104 ISLAND WOOD RD, AUSTIN, TX, 78733",63975005,"L"
336106,"2104 JEFFERSON AVE","ANCHORAGE","AK",99503,61.1827435210001,-149.919266263,106,"2104 JEFFERSON AVE, ANCHORAGE, AK, 99503","Match","Non_Exact","2104 JEFFERSON AVE, ANCHORAGE, AK, 99517",190795612,"L"
336107,"2104 KILLINGTON DR","HARVEY","LA",70058,29.8563645130001,-90.049700495,107,"2104 KILLINGTON DR, HARVEY, LA, 70058","Match","Exact","2104 KILLINGTON DR, HARVEY, LA, 70058",93510781,"R"
336108,"2104 KING STREET","SUFFOLK","VA",23434,36.7792953590001,-76.52714833,108,"2104 KING STREET, SUFFOLK, VA, 23434","Match","Exact","2104 KING ST, SUFFOLK, VA, 23434",122233063,"R"
336109,"2104 LAKE HEATHER WAY","BIRMINGHAM","AL",35242,33.4162507670001,-86.7063845019999,109,"2104 LAKE HEATHER WAY, BIRMINGHAM, AL, 35242","Match","Exact","2104 LAKE HEATHER WAY, BIRMINGHAM, AL, 35242",82099007,"R"
336110,"2104 LAKELAND DRIVE","SANFORD","NC",27330,35.495778204,-79.216987065,110,"2104 LAKELAND DRIVE, SANFORD, NC, 27330","Match","Exact","2104 LAKELAND DR, SANFORD, NC, 27330",72061246,"R"
336111,"2104 LAKESHORE DRIVE","AUSTIN","TX",78746,30.30156157,-97.7872287499999,111,"2104 LAKESHORE DRIVE, AUSTIN, TX, 78746","Match","Exact","2104 LAKESHORE DR, AUSTIN, TX, 78746",63941096,"L"
336112,"2104 LAKEWAY AVE","KALAMAZOO","MI",49001,42.252967303,-85.5532923219999,112,"2104 LAKEWAY AVE, KALAMAZOO, MI, 49001","Match","Exact","2104 LAKEWAY AVE, KALAMAZOO, MI, 49001",12231666,"R"
336113,"2104 LEAHY ST","MUSKEGON","MI",49444,43.2139732040001,-86.240702547,113,"2104 LEAHY ST, MUSKEGON, MI, 49444","Match","Exact","2104 LEAHY ST, MUSKEGON, MI, 49444",77651635,"L"
336114,"2104 LINCOLNSHRE","SPRINGFIELD","IL",62704,39.748202776,-89.690160586,114,"2104 LINCOLNSHRE, SPRINGFIELD, IL, 62704","Match","Non_Exact","2104 LINCOLNSHIRE BLVD, SPRINGFIELD, IL, 62704",97361298,"L"
336115,"2104 LIONEL DRIVE","MELBOURNE","FL",32940,28.2519529030001,-80.72109507,115,"2104 LIONEL DRIVE, MELBOURNE, FL, 32940","Match","Exact","2104 LIONEL DR, MELBOURNE, FL, 32940",647510245,"L"
336116,"2104 LONGHORN","LEVELLAND","TX",79336,33.5670578410001,-102.364386951,116,"2104 LONGHORN, LEVELLAND, TX, 79336","Match","Non_Exact","2104 LONGHORN DR, LEVELLAND, TX, 79336",185766531,"L"
336117,"2104 MADEIRA CIRCLE","WAXHAW","NC",28173,34.9595496050001,-80.680283155,117,"2104 MADEIRA CIRCLE, WAXHAW, NC, 28173","Match","Exact","2104 MADEIRA CIR, WAXHAW, NC, 28173",618499033,"R"
336118,"2104 MAGNOLIA RIDGE ST","MARRERO","LA",70072,29.8663322950001,-90.0926625389999,118,"2104 MAGNOLIA RIDGE ST, MARRERO, LA, 70072","Match","Exact","2104 MAGNOLIA RIDGE ST, MARRERO, LA, 70072",93524828,"R"
336119,"2104 MAGNOLIA RIDGE STREET","MARRERO","LA",70072,29.8663322950001,-90.0926625389999,119,"2104 MAGNOLIA RIDGE STREET, MARRERO, LA, 70072","Match","Exact","2104 MAGNOLIA RIDGE ST, MARRERO, LA, 70072",93524828,"R"
336120,"2104 MAMMOTH WAY","LOUISVILLE","KY",40299,38.214192057,-85.573441105,120,"2104 MAMMOTH WAY, LOUISVILLE, KY, 40299","Match","Exact","2104 MAMMOTH WAY, LOUISVILLE, KY, 40299",96864853,"R"
336121,"2104 MANCHESTER PL NW","ALBUQUERQUE","NM",87107,35.125147859,-106.669409434,121,"2104 MANCHESTER PL NW, ALBUQUERQUE, NM, 87107","Match","Exact","2104 MANCHESTER PL NW, ALBUQUERQUE, NM, 87107",206748630,"L"
336122,"2104 MAPLE LANE","GARRETT","IN",46738,41.346323409,-85.109535603,122,"2104 MAPLE LANE, GARRETT, IN, 46738","Match","Exact","2104 MAPLE LN, GARRETT, IN, 46738",6520368,"L"
336123,"2104 MARROW DRIVE","MARION","IN",46952,40.5764110320001,-85.690930147,123,"2104 MARROW DRIVE, MARION, IN, 46952","Match","Non_Exact","2104 MORROW RD, MARION, IN, 46952",95007015,"R"
336124,"2104 MELROSE","ROCKFORD","IL",61103,42.2946846900001,-89.069755468,124,"2104 MELROSE, ROCKFORD, IL, 61103","Match","Non_Exact","2104 MELROSE ST, ROCKFORD, IL, 61103",49256116,"L"
336125,"2104 MELVIN STREET","PHILADELPHIA","PA",19131,39.9856122750001,-75.239567548,125,"2104 MELVIN STREET, PHILADELPHIA, PA, 19131","Match","Exact","2104 MELVIN ST, PHILADELPHIA, PA, 19131",131397204,"L"
336126,"2104 MILLER AVE","HILLSBORO","IL",62049,39.1571843090001,-89.467014041,126,"2104 MILLER AVE, HILLSBORO, IL, 62049","Match","Exact","2104 MILLER AVE, HILLSBORO, IL, 62049",99441141,"L"
336127,"2104 MONTEREY PARKWAY","SANDY SPRINGS","GA",30350,33.9613756800001,-84.377205453,127,"2104 MONTEREY PARKWAY, SANDY SPRINGS, GA, 30350","Match","Exact","2104 MONTEREY PKWY, SANDY SPRINGS, GA, 30350",17431197,"L"
336128,"2104 N 40TH ST","SEATTLE","WA",98103,47.65561031,-122.333683847,128,"2104 N 40TH ST, SEATTLE, WA, 98103","Match","Exact","2104 N 40TH ST, SEATTLE, WA, 98103",186583001,"L"
336129,"2104 N PENNSYLVANIA","INDIANAPOLIS","IN",46202,39.7951382420001,-86.156070626,129,"2104 N PENNSYLVANIA, INDIANAPOLIS, IN, 46202","Match","Non_Exact","2104 N PENNSYLVANIA ST, INDIANAPOLIS, IN, 46202",107989695,"L"
336130,"2104 N VAN BUREN ST","HUNTINGBURG","IN",47542,38.3166295930001,-86.95164263,130,"2104 N VAN BUREN ST, HUNTINGBURG, IN, 47542","Match","Exact","2104 N VAN BUREN ST, HUNTINGBURG, IN, 47542",7884230,"L"
336131,"2104 N WATTS","PORTLAND","OR",97217,45.580960937,-122.688012647,131,"2104 N WATTS, PORTLAND, OR, 97217","Match","Non_Exact","2104 N WATTS ST, PORTLAND, OR, 97217",157495596,"L"
336132,"2104 NE 51ST TERRACE","KANSAS CITY","MO",64118,39.1876963460001,-94.554557239,132,"2104 NE 51ST TERRACE, KANSAS CITY, MO, 64118","Match","Exact","2104 NE 51ST TER, KANSAS CITY, MO, 64118",89757721,"L"
336133,"2104 NORTH AVE","RICHMOND","VA",23222,37.561801571,-77.433281984,133,"2104 NORTH AVE, RICHMOND, VA, 23222","Match","Exact","2104 NORTH AVE, RICHMOND, VA, 23222",201539791,"L"
336134,"2104 NORTH UNION BLVD","COLORADO SPRINGS","CO",80909,38.865509816,-104.794137786,134,"2104 NORTH UNION BLVD, COLORADO SPRINGS, CO, 80909","Match","Exact","2104 N UNION BLVD, COLORADO SPRINGS, CO, 80909",105515717,"L"
336135,"2104 NW 152 TERR","MIAMI","FL",33054,25.913463893,-80.235139541,135,"2104 NW 152 TERR, MIAMI, FL, 33054","Match","Non_Exact","2104 NW 152ND TER, MIAMI GARDENS, FL, 33054",116028769,"L"
336136,"2104 NW ASHTON LANE UNIT 3","ANKENY","IA",50023,41.7481061610001,-93.6146427529999,136,"2104 NW ASHTON LANE UNIT 3, ANKENY, IA, 50023","Match","Exact","2104 ASHTON LN, ANKENY, IA, 50023",65864292,"R"
336137,"2104 OAK BEND DIRVE","GREENVILLE","NC",27834,35.612823081,-77.284139293,137,"2104 OAK BEND DIRVE, GREENVILLE, NC, 27834","Match","Non_Exact","2104 OAK BEND DR, GREENVILLE, NC, 27834",80042838,"L"
336138,"2104 OAKCREST","CORINTH","TX",76210,33.1588676280001,-97.078952916,138,"2104 OAKCREST, CORINTH, TX, 76210","Match","Non_Exact","2104 OAKCREST CT, CORINTH, TX, 76210",103374858,"L"
336139,"2104 OLD 66 ROAD","HYDRO","OK",73048,35.536870042,-98.596424263,139,"2104 OLD 66 ROAD, HYDRO, OK, 73048","Match","Exact","2104 OLD 66 RD, HYDRO, OK, 73048",92448925,"R"
336140,"2104 OSAGE","ST LOUIS","MO",63118,38.5821320480001,-90.2244635009999,140,"2104 OSAGE, ST LOUIS, MO, 63118","Match","Non_Exact","2104 OSAGE ST, SAINT LOUIS, MO, 63118",605134698,"L"
336141,"2104 OWLHOUSE LANE","RALEIGH","NC",27603,NA,NA,141,"2104 OWLHOUSE LANE, RALEIGH, NC, 27603","No_Match",NA,NA,NA,NA
336142,"2104 P STREET","AURORA","NE",68818,40.871542291,-97.9908280339999,142,"2104 P STREET, AURORA, NE, 68818","Match","Exact","2104 P ST, AURORA, NE, 68818",159709389,"R"
336143,"2104 PACIFIC AVE","BLOOMINGTON","IL",61701,40.497755156,-89.0174314609999,143,"2104 PACIFIC AVE, BLOOMINGTON, IL, 61701","Match","Exact","2104 PACIFIC AVE, BLOOMINGTON, IL, 61701",20564653,"L"
336144,"2104 PHILLIPS DRIVE","HUNTSVILLE","AL",35810,NA,NA,144,"2104 PHILLIPS DRIVE, HUNTSVILLE, AL, 35810","No_Match",NA,NA,NA,NA
336145,"2104 PINE GLEN CT","SANDSTON","VA",23150,37.5257084400001,-77.295340354,145,"2104 PINE GLEN CT, SANDSTON, VA, 23150","Match","Exact","2104 PINE GLEN CT, SANDSTON, VA, 23150",106692298,"L"
336146,"2104 PINEY BRANCH CIR APT 531","HANOVER","MD",21076,NA,NA,146,"2104 PINEY BRANCH CIR APT 531, HANOVER, MD, 21076","No_Match",NA,NA,NA,NA
336147,"2104 PINEY BRANCH CIRCLE","HANOVER","MD",21076,NA,NA,147,"2104 PINEY BRANCH CIRCLE, HANOVER, MD, 21076","No_Match",NA,NA,NA,NA
336148,"2104 PLAZA DEL FUENTES","LAS VEGAS","NV",89102,36.1488043590001,-115.186720002,148,"2104 PLAZA DEL FUENTES, LAS VEGAS, NV, 89102","Match","Non_Exact","2104 PLZ DEL FUENTES, LAS VEGAS, NV, 89102",201864861,"R"
336149,"2104 PRESTON ROAD","MAXTON","NC",28364,34.726914537,-79.2688813949999,149,"2104 PRESTON ROAD, MAXTON, NC, 28364","Match","Exact","2104 PRESTON RD, MAXTON, NC, 28364",608087343,"R"
336150,"2104 QUANAH PARKER TRL","AUSTIN","TX",78734,30.378543118,-97.931098541,150,"2104 QUANAH PARKER TRL, AUSTIN, TX, 78734","Match","Exact","2104 QUANAH PARKER TRL, AUSTIN, TX, 78734",63923710,"L"
336151,"2104 QUEEN ANNE RD","BALTIMORE","MD",21216,NA,NA,151,"2104 QUEEN ANNE RD, BALTIMORE, MD, 21216","No_Match",NA,NA,NA,NA
336152,"2104 ROBIN LANE","TAYLOR","TX",76574,30.5806333940001,-97.434438201,152,"2104 ROBIN LANE, TAYLOR, TX, 76574","Match","Exact","2104 ROBIN LN, TAYLOR, TX, 76574",126439964,"R"
336153,"2104 ROCHELL AVE APT 4","DISTRICT HEIGHTS","MD",20747,38.8599903690001,-76.8942673349999,153,"2104 ROCHELL AVE APT 4, DISTRICT HEIGHTS, MD, 20747","Match","Exact","2104 ROCHELL AVE, DISTRICT HEIGHTS, MD, 20747",76357535,"L"
336154,"2104 ROCKY POINT RUN STE A","CHESAPEAKE","VA",23320,36.783512564,-76.224616236,154,"2104 ROCKY POINT RUN STE A, CHESAPEAKE, VA, 23320","Match","Exact","2104 ROCKY POINT RUN, CHESAPEAKE, VA, 23320",121789152,"R"
336155,"2104 ROXANNE PLACE","TEMPLE HILLS","MD",20748,38.8345108440001,-76.964321189,155,"2104 ROXANNE PLACE, TEMPLE HILLS, MD, 20748","Match","Exact","2104 ROXANNE PL, TEMPLE HILLS, MD, 20748",76312562,"L"
336156,"2104 S 2ND AVE","CHEYENNE","WY",82007,41.098680573,-104.811988878,156,"2104 S 2ND AVE, CHEYENNE, WY, 82007","Match","Exact","2104 S 2ND AVE, CHEYENNE, WY, 82007",160150458,"R"
336157,"2104 S 6TH","LAMESA","TX",79331,32.7227474910001,-101.971036033,157,"2104 S 6TH, LAMESA, TX, 79331","Match","Non_Exact","2104 S 6TH ST, LAMESA, TX, 79331",182747007,"L"
336158,"2104 S CEDARBROOK AV","SPRINGFIELD","MO",65804,37.174930907,-93.2399118499999,158,"2104 S CEDARBROOK AV, SPRINGFIELD, MO, 65804","Match","Exact","2104 S CEDARBROOK AVE, SPRINGFIELD, MO, 65804",76679762,"L"
336159,"2104 S LANGDON RD","PLEVNA","KS",67568,38.025970354,-98.325881451,159,"2104 S LANGDON RD, PLEVNA, KS, 67568","Match","Exact","2104 S LANGDON RD, PLEVNA, KS, 67568",142940318,"R"
336160,"2104 S PENDAR LANE","SIOUX FALLS","SD",57105,43.5262625180001,-96.722986485,160,"2104 S PENDAR LANE, SIOUX FALLS, SD, 57105","Match","Exact","2104 S PENDAR LN, SIOUX FALLS, SD, 57105",34973108,"L"
336161,"2104 S SANTA FE APARTMENT 201","MOORE","OK",73160,NA,NA,161,"2104 S SANTA FE APARTMENT 201, MOORE, OK, 73160","No_Match",NA,NA,NA,NA
336162,"2104 S SCOTT AVE","INDEPENDENCE","MO",64052,39.0825892510001,-94.439726594,162,"2104 S SCOTT AVE, INDEPENDENCE, MO, 64052","Match","Exact","2104 S SCOTT AVE, INDEPENDENCE, MO, 64052",91461938,"R"
336163,"2104 SALLY ST","WARSAW","IN",46580,41.2422562020001,-85.8282196229999,163,"2104 SALLY ST, WARSAW, IN, 46580","Match","Exact","2104 SALLY ST, WARSAW, IN, 46580",7920101,"L"
336164,"2104 SANDY BRANCH PLACE","ST AUGUSTINE","FL",32092,29.9230704180001,-81.4373248919999,164,"2104 SANDY BRANCH PLACE, ST AUGUSTINE, FL, 32092","Match","Exact","2104 SANDY BRANCH PL, SAINT AUGUSTINE, FL, 32092",637645116,"R"
336165,"2104 SCOTLAND DR","CLEARWATER","FL",33763,28.011657676,-82.7500943379999,165,"2104 SCOTLAND DR, CLEARWATER, FL, 33763","Match","Exact","2104 SCOTLAND DR, CLEARWATER, FL, 33763",124666959,"L"
336166,"2104 SEMINOLE ST","KISSIMMEE","FL",34741,NA,NA,166,"2104 SEMINOLE ST, KISSIMMEE, FL, 34741","No_Match",NA,NA,NA,NA
336167,"2104 SEMINOLE ST","KISSIMMEE","FL",34744,28.309951617,-81.392495681,167,"2104 SEMINOLE ST, KISSIMMEE, FL, 34744","Match","Non_Exact","2104 N SEMINOLE ST, KISSIMMEE, FL, 34744",176701518,"L"
336168,"2104 SHARON LANE","AUSTIN","TX",78703,30.2916273330001,-97.7628188369999,168,"2104 SHARON LANE, AUSTIN, TX, 78703","Match","Exact","2104 SHARON LN, AUSTIN, TX, 78703",63942154,"L"
336169,"2104 SHERBURNE COURT","VIRGINIA BEACH","VA",23464,36.7738755600001,-76.203247329,169,"2104 SHERBURNE COURT, VIRGINIA BEACH, VA, 23464","Match","Exact","2104 SHERBURNE CT, VA BCH, VA, 23464",636754798,"L"
336170,"2104 SOLSTICE LOOP","SANFORD","FL",32771,28.8018194630001,-81.334967133,170,"2104 SOLSTICE LOOP, SANFORD, FL, 32771","Match","Exact","2104 SOLSTICE LOOP, SANFORD, FL, 32771",650966401,"R"
336171,"2104 SOMERSET PLACE SE","ATLANTA","GA",30316,33.7231853700001,-84.316692931,171,"2104 SOMERSET PLACE SE, ATLANTA, GA, 30316","Match","Non_Exact","2104 SOMERSET PL, ATLANTA, GA, 30316",619387999,"L"
336172,"2104 SOUTH 110 STREET","OMAHA","NE",68144,41.239479417,-96.0838529389999,172,"2104 SOUTH 110 STREET, OMAHA, NE, 68144","Match","Exact","2104 S 110TH ST, OMAHA, NE, 68144",116972738,"R"
336173,"2104 SOUTH BUCHANON STREET","WAGONER","OK",74467,35.9379542570001,-95.389427054,173,"2104 SOUTH BUCHANON STREET, WAGONER, OK, 74467","Match","Non_Exact","2104 S BUCHANAN AVE, WAGONER, OK, 74467",606261769,"L"
336174,"2104 SOUTH COUNTY ROAD 1086","MIDLAND","TX",79706,32.0226940310001,-101.905504753,174,"2104 SOUTH COUNTY ROAD 1086, MIDLAND, TX, 79706","Match","Exact","2104 S CO RD 1086, MIDLAND, TX, 79706",139589230,"R"
336175,"2104 SOUTH Q STREET","FORT SMITH","AR",72901,NA,NA,175,"2104 SOUTH Q STREET, FORT SMITH, AR, 72901","No_Match",NA,NA,NA,NA
336176,"2104 SPRITE LANE","PEARLAND","TX",77584,29.5359471100001,-95.2592354019999,176,"2104 SPRITE LANE, PEARLAND, TX, 77584","Match","Non_Exact","2104 SPRITE LN, PEARLAND, TX, 77581",116569557,"R"
336177,"2104 STANLEY HILLS DR","LOS ANGELES","CA",90046,34.1089875910001,-118.377386552,177,"2104 STANLEY HILLS DR, LOS ANGELES, CA, 90046","Match","Exact","2104 STANLEY HILLS DR, LOS ANGELES, CA, 90046",141566454,"R"
336178,"2104 STANLEY TERRACE","UNION","NJ",7083,40.7119306490001,-74.263619294,178,"2104 STANLEY TERRACE, UNION, NJ, 7083","Match","Exact","2104 STANLEY TER, UNION, NJ, 07083",60571321,"L"
336179,"2104 STEVENS AVE SOUTH","MINNEAPOLIS","MN",55404,44.9617549500001,-93.275297972,179,"2104 STEVENS AVE SOUTH, MINNEAPOLIS, MN, 55404","Match","Exact","2104 STEVENS AVE S, MINNEAPOLIS, MN, 55404",43632282,"R"
336180,"2104 STRUSS STREET 3B7","BROOKLYN","NY",11212,40.6625312720001,-73.914736492,180,"2104 STRUSS STREET 3B7, BROOKLYN, NY, 11212","Match","Non_Exact","2104 STRAUSS ST, BROOKLYN, NY, 11212",59083981,"R"
336181,"2104 SUZZANNE TERRACE","HUNTSVILLE","AL",35810,NA,NA,181,"2104 SUZZANNE TERRACE, HUNTSVILLE, AL, 35810","No_Match",NA,NA,NA,NA
336182,"2104 SW 334TH PLACE B9","FEDERAL WAY","WA",98023,47.3018502720001,-122.361346422,182,"2104 SW 334TH PLACE B9, FEDERAL WAY, WA, 98023","Match","Non_Exact","2104 SW 334TH PL, FEDERAL WAY, WA, 98023",239759207,"L"
336183,"2104 SW 75TH TERRACE","GAINESVILLE","FL",32607,29.632878427,-82.423189222,183,"2104 SW 75TH TERRACE, GAINESVILLE, FL, 32607","Match","Exact","2104 SW 75TH TER, GAINESVILLE, FL, 32607",6821965,"L"
336184,"2104 SW TIMBER TRACE LANE","LEE SUMMIT","MO",64082,38.882472781,-94.418229294,184,"2104 SW TIMBER TRACE LANE, LEE SUMMIT, MO, 64082","Match","Non_Exact","2104 SW TIMBERTRACE LN, LEES SUMMIT, MO, 64082",601258788,"L"
336185,"2104 SW WOODSIDE CT","ANKENY","IA",50023,41.7072505150001,-93.646708029,185,"2104 SW WOODSIDE CT, ANKENY, IA, 50023","Match","Exact","2104 SW WOODSIDE CT, ANKENY, IA, 50023",65814564,"L"
336186,"2104 TEZCUCO LN","MARRERO","LA",70072,29.866139038,-90.093414084,186,"2104 TEZCUCO LN, MARRERO, LA, 70072","Match","Exact","2104 TEZCUCO LN, MARRERO, LA, 70072",93524824,"R"
336187,"2104 TIBURON COURT","GREENVILLE","NC",27834,NA,NA,187,"2104 TIBURON COURT, GREENVILLE, NC, 27834","No_Match",NA,NA,NA,NA
336188,"2104 TRAILBROOK CT","LEAGUE CITY","TX",77573,29.4806901640001,-95.140781766,188,"2104 TRAILBROOK CT, LEAGUE CITY, TX, 77573","Match","Exact","2104 TRAILBROOK CT, LEAGUE CITY, TX, 77573",639523286,"R"
336189,"2104 VALLEY DR","UNION CITY","TN",38261,36.3979203600001,-89.0394551959999,189,"2104 VALLEY DR, UNION CITY, TN, 38261","Match","Exact","2104 VALLEY DR, UNION CITY, TN, 38261",30903111,"R"
336190,"2104 VALLEY DRIVE","UNION CITY","TN",38261,36.3979203600001,-89.0394551959999,190,"2104 VALLEY DRIVE, UNION CITY, TN, 38261","Match","Exact","2104 VALLEY DR, UNION CITY, TN, 38261",30903111,"R"
336191,"2104 VELVET HILL AVE","LAS VEGAS","NV",89106,36.1940349770001,-115.170529554,191,"2104 VELVET HILL AVE, LAS VEGAS, NV, 89106","Match","Exact","2104 VELVET HILL AVE, LAS VEGAS, NV, 89106",201931101,"R"
336192,"2104 VELVET HILL DR","LAS VEGAS","NV",89106,36.1940349770001,-115.170529554,192,"2104 VELVET HILL DR, LAS VEGAS, NV, 89106","Match","Non_Exact","2104 VELVET HILL AVE, LAS VEGAS, NV, 89106",201931101,"R"
336193,"2104 VILLAGE DR","PITTSBURGH","PA",15221,40.4516952320001,-79.862763946,193,"2104 VILLAGE DR, PITTSBURGH, PA, 15221","Match","Exact","2104 VILLAGE DR, PITTSBURGH, PA, 15221",51666679,"R"
336194,"2104 VIOLET ROAD","LEXINGTON","KY",40504,38.0239772730001,-84.5463658369999,194,"2104 VIOLET ROAD, LEXINGTON, KY, 40504","Match","Exact","2104 VIOLET RD, LEXINGTON, KY, 40504",31919892,"L"
336195,"2104 W 38TH ST","ERIE","PA",16508,42.084730725,-80.1138043029999,195,"2104 W 38TH ST, ERIE, PA, 16508","Match","Exact","2104 W 38TH ST, ERIE, PA, 16508",117495872,"R"
336196,"2104 W AMELIA STREET","ORLANDO","FL",32805,28.5495925560001,-81.407899618,196,"2104 W AMELIA STREET, ORLANDO, FL, 32805","Match","Exact","2104 W AMELIA ST, ORLANDO, FL, 32805",94273516,"L"
336197,"2104 W VENAGO ST","PHILADELPHIA","PA",19140,NA,NA,197,"2104 W VENAGO ST, PHILADELPHIA, PA, 19140","No_Match",NA,NA,NA,NA
336198,"2104 WAKNUT STREET","PHILADELPHIA","PA",19103,NA,NA,198,"2104 WAKNUT STREET, PHILADELPHIA, PA, 19103","No_Match",NA,NA,NA,NA
336199,"2104 WALNUT CREEK DR","FLINT","MI",48532,43.034677409,-83.7884629769999,199,"2104 WALNUT CREEK DR, FLINT, MI, 48532","Match","Exact","2104 WALNUT CREEK DR, FLINT, MI, 48532",69607097,"R"
336200,"2104 WALTON WAY APT 4991","ROSWELL","GA",30076,34.0105481370001,-84.299863409,200,"2104 WALTON WAY APT 4991, ROSWELL, GA, 30076","Match","Exact","2104 WALTON WAY, ROSWELL, GA, 30076",17405281,"L"
336201,"2104 WEDGEWOOD RD NW","HUNTSVILLE","AL",25816,34.75070055,-86.638917915,201,"2104 WEDGEWOOD RD NW, HUNTSVILLE, AL, 25816","Match","Non_Exact","2104 WEDGEWOOD RD NW, HUNTSVILLE, AL, 35816",58113373,"R"
336202,"2104 WEST 38TH STREET","ERIE","PA",16508,42.0847314310001,-80.113802425,202,"2104 WEST 38TH STREET, ERIE, PA, 16508","Match","Exact","2104 W 38TH ST, ERIE, PA, 16508",117495872,"R"
336203,"2104 WEST STATE STREET","MARSHALLTOWN","IA",50158,42.0503377220001,-92.9476940279999,203,"2104 WEST STATE STREET, MARSHALLTOWN, IA, 50158","Match","Exact","2104 W STATE ST, MARSHALLTOWN, IA, 50158",90920645,"L"
336204,"2104 WHITE PINE CR APT C","GREEN ACRES","FL",33415,26.648294999,-80.1439657719999,204,"2104 WHITE PINE CR APT C, GREEN ACRES, FL, 33415","Match","Exact","2104 WHITE PINE CIR, GREEN ACRES, FL, 33415",115578794,"R"
336205,"2104 WICHITA","HOUSTON","TX",77004,29.7239095690001,-95.377695811,205,"2104 WICHITA, HOUSTON, TX, 77004","Match","Non_Exact","2104 WICHITA ST, HOUSTON, TX, 77004",96071378,"R"
336206,"2104 WILLS WAY DR","GRANBURY","TX",76049,32.473910577,-97.7554633939999,206,"2104 WILLS WAY DR, GRANBURY, TX, 76049","Match","Exact","2104 WILLS WAY DR, GRANBURY, TX, 76049",647763990,"R"
336207,"2104 WILTSHIRE BLVD","HUNTINGTON","WV",25701,38.404743227,-82.4152699109999,207,"2104 WILTSHIRE BLVD, HUNTINGTON, WV, 25701","Match","Exact","2104 WILTSHIRE BLVD, HUNTINGTON, WV, 25701",101318851,"L"
336208,"2104 WINFIELD ROAD","POLKTON","NC",28135,35.034197711,-80.1838693619999,208,"2104 WINFIELD ROAD, POLKTON, NC, 28135","Match","Exact","2104 WINFIELD RD, POLKTON, NC, 28135",651691242,"R"
336209,"2104 WISSAHICKON AVE","TAMPA","FL",33604,28.0232434910001,-82.435403385,209,"2104 WISSAHICKON AVE, TAMPA, FL, 33604","Match","Exact","2104 WISSAHICKON AVE, TAMPA, FL, 33604",104520086,"R"
336210,"2104 WOODBRIAR CT","FULLERTON","CA",92831,33.8914983440001,-117.886071801,210,"2104 WOODBRIAR CT, FULLERTON, CA, 92831","Match","Exact","2104 WOODBRIAR CT, FULLERTON, CA, 92831",144009224,"R"
336211,"2104 WOODFORD COURT","MOBILE","AL",36695,30.6468073550001,-88.196465566,211,"2104 WOODFORD COURT, MOBILE, AL, 36695","Match","Exact","2104 WOODFORD CT, MOBILE, AL, 36695",62019762,"R"
336212,"2104","GARY","IN",46404,NA,NA,212,"2104, GARY, IN, 46404","No_Match",NA,NA,NA,NA
336213,"21040 CALDER COURT","SPANISH FORT","AL",36527,NA,NA,213,"21040 CALDER COURT, SPANISH FORT, AL, 36527","No_Match",NA,NA,NA,NA
336214,"21040 E 40TH AVE","DENVER","CO",80249,39.7708439240001,-104.742102233,214,"21040 E 40TH AVE, DENVER, CO, 80249","Match","Exact","21040 E 40TH AVE, DENVER, CO, 80249",606073411,"R"
336215,"21040 GREENFIELD","OAK PARK","MI",48237,42.4474251770001,-83.200529483,215,"21040 GREENFIELD, OAK PARK, MI, 48237","Match","Non_Exact","21040 GREENFIELD RD, OAK PARK, MI, 48237",630369166,"R"
336216,"21040 N 1220 EAST RD","DANVILLE","IL",61834,40.1750121970001,-87.711515693,216,"21040 N 1220 EAST RD, DANVILLE, IL, 61834","Match","Exact","21040 N 1220 EAST RD, DANVILLE, IL, 61834",612015302,"L"
336217,"21041 PARTHENIA ST 206","CANOGA PARK","CA",91304,34.228207248,-118.591628052,217,"21041 PARTHENIA ST 206, CANOGA PARK, CA, 91304","Match","Exact","21041 PARTHENIA ST, CANOGA PARK, CA, 91304",141533061,"R"
336218,"21042 COURTLAND VILLAGE DRIVE","LEESBURG","VA",20175,39.035112041,-77.604602309,218,"21042 COURTLAND VILLAGE DRIVE, LEESBURG, VA, 20175","Match","Exact","21042 COURTLAND VILLAGE DR, LEESBURG, VA, 20175",624059211,"L"
336219,"21042 UNIVERSAL AVE","EASTPOINTE","MI",48201,42.4532998540001,-82.9578681259999,219,"21042 UNIVERSAL AVE, EASTPOINTE, MI, 48201","Match","Non_Exact","21042 UNIVERSAL AVE, EASTPOINTE, MI, 48021",110679311,"R"
336220,"21042 VIA EDEN","BOCA RATON","FL",33433,26.3634415970001,-80.174814216,220,"21042 VIA EDEN, BOCA RATON, FL, 33433","Match","Exact","21042 VIA EDEN, BOCA RATON, FL, 33433",115533892,"R"
336221,"21043 NATALIE LANE","LITTLE ROCK","AR",72206,34.5593616580001,-92.344057316,221,"21043 NATALIE LANE, LITTLE ROCK, AR, 72206","Match","Exact","21043 NATALIE LN, LITTLE ROCK, AR, 72206",631962113,"L"
336222,"21044 IMPERIAL OAK","MAGNOLIA","TX",77355,30.1583070670001,-95.788529927,222,"21044 IMPERIAL OAK, MAGNOLIA, TX, 77355","Match","Non_Exact","21044 IMPERIAL OAK DR, MAGNOLIA, TX, 77355",79308822,"L"
336223,"21044 OLD MILL RD","CULPEPPER","VA",22701,38.41916402,-78.097398358,223,"21044 OLD MILL RD, CULPEPPER, VA, 22701","Match","Non_Exact","21044 OLD MILL RD, CULPEPER, VA, 22701",29845476,"L"
336224,"21044 VIRGINIA ROAD","DEKALB","IL",60115,41.9368921440001,-88.822811238,224,"21044 VIRGINIA ROAD, DEKALB, IL, 60115","Match","Exact","21044 VIRGINIA RD, DEKALB, IL, 60115",52257344,"R"
336225,"21045 100TH AVE SE","KENT","WA",98031,47.4131828960001,-122.207500922,225,"21045 100TH AVE SE, KENT, WA, 98031","Match","Exact","21045 100TH AVE SE, KENT, WA, 98031",186633374,"R"
336226,"21045 MAIN STREET","RANBURNE","AL",36273,33.5228511760001,-85.34793351,226,"21045 MAIN STREET, RANBURNE, AL, 36273","Match","Exact","21045 MAIN ST, RANBURNE, AL, 36273",30371827,"R"
336227,"21045 VANOWEN STREET APT 123","CANOGA PARK","CA",91303,34.1937767750001,-118.591605173,227,"21045 VANOWEN STREET APT 123, CANOGA PARK, CA, 91303","Match","Exact","21045 VANOWEN ST, CANOGA PARK, CA, 91303",141535280,"R"
336228,"21046 KAROLINE CT","FOREST LAKE","MN",55025,45.2543788300001,-92.905008636,228,"21046 KAROLINE CT, FOREST LAKE, MN, 55025","Match","Non_Exact","21046 KAROLINE CT N, FOREST LAKE, MN, 55025",624345829,"L"
336229,"2105  COPPER CREEK ROAD","MARYVILLE","IL",62062,38.7305716390001,-89.9451436849999,229,"2105  COPPER CREEK ROAD, MARYVILLE, IL, 62062","Match","Exact","2105 COPPER CREEK RD, MARYVILLE, IL, 62062",107726254,"L"
336230,"2105 16TH AVE","PHENIX CITY","AL",36867,32.480725717,-85.016554365,230,"2105 16TH AVE, PHENIX CITY, AL, 36867","Match","Exact","2105 16TH AVE, PHENIX CITY, AL, 36867",69268174,"L"
336231,"2105 16TH STREET","MOLINE","IL",61265,41.4907564870001,-90.513554195,231,"2105 16TH STREET, MOLINE, IL, 61265","Match","Exact","2105 16TH ST, MOLINE, IL, 61265",9232553,"R"
336232,"2105 19TH STREET","NORTHPORT","AL",34576,33.2289181290001,-87.578492064,232,"2105 19TH STREET, NORTHPORT, AL, 34576","Match","Non_Exact","2105 19TH ST, NORTHPORT, AL, 35476",82147376,"L"
336233,"2105 19TH STREET","NORTHPORT","AL",35476,33.2289181290001,-87.578492064,233,"2105 19TH STREET, NORTHPORT, AL, 35476","Match","Exact","2105 19TH ST, NORTHPORT, AL, 35476",82147376,"L"
336234,"2105 4TH STREET","MOLINE","IL",61265,41.4909398570001,-90.53210136,234,"2105 4TH STREET, MOLINE, IL, 61265","Match","Exact","2105 4TH ST, MOLINE, IL, 61265",9209792,"R"
336235,"2105 5TH STREET","BAY CITY","MI",48708,43.597435596,-83.8666971819999,235,"2105 5TH STREET, BAY CITY, MI, 48708","Match","Exact","2105 5TH ST, BAY CITY, MI, 48708",81141271,"L"
336236,"2105 8TH AVE","OWATONNA","MN",55060,44.1052363950001,-93.209624358,236,"2105 8TH AVE, OWATONNA, MN, 55060","Match","Non_Exact","2105 8TH AVE NE, OWATONNA, MN, 55060",38177987,"R"
336237,"2105 AINSDALE COURT","WILMINGTON","NC",28405,34.2499222980001,-77.805752793,237,"2105 AINSDALE COURT, WILMINGTON, NC, 28405","Match","Exact","2105 AINSDALE CT, WILMINGTON, NC, 28405",152748656,"L"
336238,"2105 APRICOT GLEN DRIVE","AUSTIN","TX",78746,30.261158299,-97.8042869069999,238,"2105 APRICOT GLEN DRIVE, AUSTIN, TX, 78746","Match","Exact","2105 APRICOT GLEN DR, AUSTIN, TX, 78746",63938399,"L"
336239,"2105 BALDWIN ROAD","JACKSONVILLE","IL",62650,39.766957158,-90.2108269029999,239,"2105 BALDWIN ROAD, JACKSONVILLE, IL, 62650","Match","Exact","2105 BALDWIN RD, JACKSONVILLE, IL, 62650",81437433,"L"
336240,"2105 BAYLOR ST","JACKSONVILLE","TX",75766,31.9573440560001,-95.243103414,240,"2105 BAYLOR ST, JACKSONVILLE, TX, 75766","Match","Exact","2105 BAYLOR ST, JACKSONVILLE, TX, 75766",72306106,"R"
336241,"2105 BELMONT PARK AVE","CHAMPAIGN","IL",61822,NA,NA,241,"2105 BELMONT PARK AVE, CHAMPAIGN, IL, 61822","Tie",NA,NA,NA,NA
336242,"2105 BELTON DR","ARLINGTON","TX",76018,32.652376883,-97.0725612959999,242,"2105 BELTON DR, ARLINGTON, TX, 76018","Match","Exact","2105 BELTON DR, ARLINGTON, TX, 76018",102112175,"R"
336243,"2105 BENWICK CIRCLE","AUSTIN","TX",78723,30.316467075,-97.68622269,243,"2105 BENWICK CIRCLE, AUSTIN, TX, 78723","Match","Exact","2105 BENWICK CIR, AUSTIN, TX, 78723",63934955,"R"
336244,"2105 BEUMER ST","STUTTGART","AR",72160,34.481443364,-91.567275582,244,"2105 BEUMER ST, STUTTGART, AR, 72160","Match","Non_Exact","2105 S BEUMER ST, STUTTGART, AR, 72160",11962374,"L"
336245,"2105 BLACKJACK DR","COLLEGE STATION","TX",77845,30.6137095280001,-96.287122675,245,"2105 BLACKJACK DR, COLLEGE STATION, TX, 77845","Match","Exact","2105 BLACKJACK DR, COLLEGE STATION, TX, 77845",627638134,"L"
336246,"2105 BLUEGRASS WAY APT 205","CHESAPEAKE","VA",23321,36.8191378940001,-76.451254386,246,"2105 BLUEGRASS WAY APT 205, CHESAPEAKE, VA, 23321","Match","Exact","2105 BLUEGRASS WAY, CHESAPEAKE, VA, 23321",651943841,"R"
336247,"2105 BONNIE PL","AUGUSTA","GA",30906,33.3959598120001,-82.0335345989999,247,"2105 BONNIE PL, AUGUSTA, GA, 30906","Match","Exact","2105 BONNIE PL, AUGUSTA, GA, 30906",55637532,"R"
336248,"2105 BROADWAY DRIVE","LAWRENCEVILLE","GA",30044,33.9166582020001,-84.038198784,248,"2105 BROADWAY DRIVE, LAWRENCEVILLE, GA, 30044","Match","Exact","2105 BROADWAY DR, LAWRENCEVILLE, GA, 30044",88921628,"L"
336249,"2105 BUCKINGHAM CIRCLE","MARYVILLE","TN",37803,35.7395862050001,-83.948329793,249,"2105 BUCKINGHAM CIRCLE, MARYVILLE, TN, 37803","Match","Exact","2105 BUCKINGHAM CIR, MARYVILLE, TN, 37803",89836993,"R"
336250,"2105 BUECHEL BANK RD","LOUISVILLE","KY",40218,38.1874310960001,-85.647945931,250,"2105 BUECHEL BANK RD, LOUISVILLE, KY, 40218","Match","Exact","2105 BUECHEL BANK RD, LOUISVILLE, KY, 40218",642504951,"L"
336251,"2105 BUNKER LANE","ST. PETER","MN",56001,44.3546711860001,-93.968423082,251,"2105 BUNKER LANE, ST. PETER, MN, 56001","Match","Non_Exact","2105 BUNKER LN, SAINT PETER, MN, 56082",610528992,"R"
336252,"2105 CALER ST","ALIQUIPPA","PA",15001,40.6127252000001,-80.282554143,252,"2105 CALER ST, ALIQUIPPA, PA, 15001","Match","Exact","2105 CALER ST, ALIQUIPPA, PA, 15001",52563249,"L"
336253,"2105 CAMPFIELD PKWY","AUSTIN","TX",78745,30.1900831670001,-97.816981034,253,"2105 CAMPFIELD PKWY, AUSTIN, TX, 78745","Match","Exact","2105 CAMPFIELD PKWY, AUSTIN, TX, 78745",64097774,"L"
336254,"2105 CANTON DRIVE","FORT WORTH","TX",76112,32.7488942160001,-97.2286581709999,254,"2105 CANTON DRIVE, FORT WORTH, TX, 76112","Match","Exact","2105 CANTON DR, FORT WORTH, TX, 76112",101900132,"L"
336255,"2105 CARSON AVE","WEST HAVEN","UT",84401,41.2018422950001,-112.031275638,255,"2105 CARSON AVE, WEST HAVEN, UT, 84401","Match","Exact","2105 CARSON AVE, WEST HAVEN, UT, 84401",648291351,"R"
336256,"2105 CARTWRIGHT DRIVE","SACHSE","TX",75048,32.980379514,-96.6025177829999,256,"2105 CARTWRIGHT DRIVE, SACHSE, TX, 75048","Match","Exact","2105 CARTWRIGHT DR, SACHSE, TX, 75048",102925182,"R"
336257,"2105 CHESTNUT LANE","FREDERICK","MD",21702,39.447568647,-77.4424985799999,257,"2105 CHESTNUT LANE, FREDERICK, MD, 21702","Match","Exact","2105 CHESTNUT LN, FREDERICK, MD, 21702",604960584,"L"
336258,"2105 CHRISTOPHER DRIVE","GALESBURG","IL",61401,40.9733044380001,-90.3743749559999,258,"2105 CHRISTOPHER DRIVE, GALESBURG, IL, 61401","Match","Exact","2105 CHRISTOPHER DR, GALESBURG, IL, 61401",9050830,"R"
336259,"2105 CLIFTON DRIVE","VALRICO","FL",33594,27.921099708,-82.2524410729999,259,"2105 CLIFTON DRIVE, VALRICO, FL, 33594","Match","Exact","2105 CLIFTON DR, VALRICO, FL, 33594",104545150,"L"
336260,"2105 COLQUITT AVENUE","ALBANY","GA",31707,31.5640404910001,-84.1984952619999,260,"2105 COLQUITT AVENUE, ALBANY, GA, 31707","Match","Exact","2105 COLQUITT AVE, ALBANY, GA, 31707",84313855,"R"
336261,"2105 COMMERCE STREET STE 342","DALLAS","TX",75201,32.7813717720001,-96.792079953,261,"2105 COMMERCE STREET STE 342, DALLAS, TX, 75201","Match","Exact","2105 COMMERCE ST, DALLAS, TX, 75201",102911364,"L"
336262,"2105 CORONADO ST","IDAHO FALLS","ID",83404,43.472571353,-111.99376031,262,"2105 CORONADO ST, IDAHO FALLS, ID, 83404","Match","Exact","2105 CORONADO ST, IDAHO FALLS, ID, 83404",119140114,"L"
336263,"2105 COUNTRY CLUB RD","ENNIS","TX",75119,NA,NA,263,"2105 COUNTRY CLUB RD, ENNIS, TX, 75119","No_Match",NA,NA,NA,NA
336264,"2105 COUNTY RD 12C","BRYAN","OH",43506,41.4421962330001,-84.596604643,264,"2105 COUNTY RD 12C, BRYAN, OH, 43506","Match","Exact","2105 CO RD 12C, BRYAN, OH, 43506",8353419,"L"
336265,"2105 COUNTY RD 255","CULLMAN","AL",35057,34.0411017800001,-86.922578014,265,"2105 COUNTY RD 255, CULLMAN, AL, 35057","Match","Exact","2105 CO RD 255, CULLMAN, AL, 35057",130258718,"R"
336266,"2105 COURTLAND CIRCLE","CARROLLTON","TX",75007,33.0088382260001,-96.870949726,266,"2105 COURTLAND CIRCLE, CARROLLTON, TX, 75007","Match","Exact","2105 COURTLAND CIR, CARROLLTON, TX, 75007",103366646,"R"
336267,"2105 CR 36","ANGLETON","TX",77515,29.2751835870001,-95.4944201979999,267,"2105 CR 36, ANGLETON, TX, 77515","Match","Exact","2105 CO RD 36, ANGLETON, TX, 77515",116628092,"R"
336268,"2105 CROWN AVENUE","SCRANTON","PA",18505,41.3817920760001,-75.6716522629999,268,"2105 CROWN AVENUE, SCRANTON, PA, 18505","Match","Exact","2105 CROWN AVE, SCRANTON, PA, 18505",139328532,"L"
336269,"2105 E 1500 NORTH RD","ASSUMPTION","IL",62510,39.5676847130001,-89.13674592,269,"2105 E 1500 NORTH RD, ASSUMPTION, IL, 62510","Match","Exact","2105 E 1500 NORTH RD, ASSUMPTION, IL, 62510",99310285,"L"
336270,"2105 E 171ST PL","SOUTH HOLLAND","IL",60473,41.5842842420001,-87.566299393,270,"2105 E 171ST PL, SOUTH HOLLAND, IL, 60473","Match","Exact","2105 E 171ST PL, SOUTH HOLLAND, IL, 60473",111781419,"R"
336271,"2105 E 171ST PLACE","SOUTH HOLLAND","IL",60473,41.5842842420001,-87.566299393,271,"2105 E 171ST PLACE, SOUTH HOLLAND, IL, 60473","Match","Exact","2105 E 171ST PL, SOUTH HOLLAND, IL, 60473",111781419,"R"
336272,"2105 E 48TH ST N","TULSA","OK",74130,36.2242177630001,-95.962572166,272,"2105 E 48TH ST N, TULSA, OK, 74130","Match","Exact","2105 E 48TH ST N, TULSA, OK, 74130",166436243,"L"
336273,"2105 E ASHMAN","MIDLAND","MI",48642,43.6266131150001,-84.202494207,273,"2105 E ASHMAN, MIDLAND, MI, 48642","Match","Non_Exact","2105 E ASHMAN ST, MIDLAND, MI, 48642",81193331,"R"
336274,"2105 E COUNTRY SQUIRE DR","URBANA","IL",61802,40.102484308,-88.1810760659999,274,"2105 E COUNTRY SQUIRE DR, URBANA, IL, 61802","Match","Exact","2105 COUNTRY SQUIRE DR, URBANA, IL, 61802",8814154,"R"
336275,"2105 E EDGEWOOD RD","SIOUX FALLS","SD",57103,43.509739219,-96.6994554189999,275,"2105 E EDGEWOOD RD, SIOUX FALLS, SD, 57103","Match","Exact","2105 E EDGEWOOD RD, SIOUX FALLS, SD, 57103",34975709,"R"
336276,"2105 EASTGATE","SYCAMORE","IL",60178,41.974647711,-88.71764675,276,"2105 EASTGATE, SYCAMORE, IL, 60178","Match","Non_Exact","2105 EASTGATE DR, SYCAMORE, IL, 60178",52258901,"R"
336277,"2105 EDGEMOOR STREET","PALATKA","FL",32117,29.6272099440001,-81.650648485,277,"2105 EDGEMOOR STREET, PALATKA, FL, 32117","Match","Non_Exact","2105 EDGEMOOR ST, PALATKA, FL, 32177",86074113,"R"
336278,"2105 ELTON LN","AUSTIN","TX",78703,30.2938659170001,-97.766350345,278,"2105 ELTON LN, AUSTIN, TX, 78703","Match","Exact","2105 ELTON LN, AUSTIN, TX, 78703",63942123,"R"
336279,"2105 ENZIE","LAS CRUCES","NM",88001,32.291387662,-106.747867803,279,"2105 ENZIE, LAS CRUCES, NM, 88001","Match","Non_Exact","2105 ENZIE DR, LAS CRUCES, NM, 88001",612729480,"L"
336280,"2105 EVANS AVE","LEAKESVILLE","MS",39451,31.159827276,-88.5596899129999,280,"2105 EVANS AVE, LEAKESVILLE, MS, 39451","Match","Exact","2105 EVANS AVE, LEAKESVILLE, MS, 39451",61631081,"L"
336281,"2105 EVELYN STREET","LAKE CHARLES","LA",70601,30.2137886450001,-93.190744368,281,"2105 EVELYN STREET, LAKE CHARLES, LA, 70601","Match","Exact","2105 EVELYN ST, LAKE CHARLES, LA, 70601",88436957,"L"
336282,"2105 FAIRWAY DR","CRETE","NE",68333,40.6168513000001,-96.93719595,282,"2105 FAIRWAY DR, CRETE, NE, 68333","Match","Exact","2105 FAIRWAY DR, CRETE, NE, 68333",632868150,"R"
336283,"2105 FALKNER RD","MAITLAND","FL",32751,28.62992087,-81.406343162,283,"2105 FALKNER RD, MAITLAND, FL, 32751","Match","Exact","2105 FALKNER RD, MAITLAND, FL, 32751",94366180,"R"
336284,"2105 FIREBERRY COURT","PRINCE FREDERICK","MD",20678,38.4890834820001,-76.609532793,284,"2105 FIREBERRY COURT, PRINCE FREDERICK, MD, 20678","Match","Exact","2105 FIREBERRY CT, PRINCE FREDERICK, MD, 20678",625145013,"L"
336285,"2105 FIRST AVE APT 308","SEATTLE","WA",98121,47.6119155850001,-122.344065568,285,"2105 FIRST AVE APT 308, SEATTLE, WA, 98121","Match","Exact","2105 1ST AVE, SEATTLE, WA, 98121",186588928,"L"
336286,"2105 FORESTHILL ROAD","ALEXANDRIA","VA",22307,38.7816137630001,-77.066465421,286,"2105 FORESTHILL ROAD, ALEXANDRIA, VA, 22307","Match","Exact","2105 FORESTHILL RD, ALEXANDRIA, VA, 22307",75989732,"L"
336287,"2105 FORREST PARK RD","ATLANTA","GA",30315,33.69649022,-84.360131923,287,"2105 FORREST PARK RD, ATLANTA, GA, 30315","Match","Non_Exact","2105 FORREST PARK RD SE, ATLANTA, GA, 30315",17358681,"R"
336288,"2105 FORSTER STREET","HARRISBURG","PA",17103,40.2764647760001,-76.859690578,288,"2105 FORSTER STREET, HARRISBURG, PA, 17103","Match","Exact","2105 FORSTER ST, HARRISBURG, PA, 17103",70818343,"R"
336289,"2105 FOX RIDGE DRIVE","PASADENA","CA",91107,34.1811628250001,-118.099291766,289,"2105 FOX RIDGE DRIVE, PASADENA, CA, 91107","Match","Exact","2105 FOX RIDGE DR, PASADENA, CA, 91107",141631782,"L"
336290,"2105 GARDEN STREET","AUSTIN","TX",78702,30.253442595,-97.723120783,290,"2105 GARDEN STREET, AUSTIN, TX, 78702","Match","Exact","2105 GARDEN ST, AUSTIN, TX, 78702",63948564,"R"
336291,"2105 GARFIELD","ANACONDA","MT",59711,46.1372353670001,-112.986654567,291,"2105 GARFIELD, ANACONDA, MT, 59711","Match","Non_Exact","2105 GARFIELD ST, ANACONDA, MT, 59711",152706445,"L"
336292,"2105 GILA RIVER ROAD","RIO RANCHO","NM",87144,35.291108235,-106.591126928,292,"2105 GILA RIVER ROAD, RIO RANCHO, NM, 87144","Match","Non_Exact","2105 GILA RIVER RD NE, RIO RANCHO, NM, 87144",194017638,"R"
336293,"2105 GLENDALE DR","CHARLESTON","SC",29414,32.836573677,-80.055684502,293,"2105 GLENDALE DR, CHARLESTON, SC, 29414","Match","Exact","2105 GLENDALE DR, CHARLESTON, SC, 29414",108857953,"L"
336294,"2105 GLENDALE PL","AUSTIN","TX",78704,30.237957325,-97.742703057,294,"2105 GLENDALE PL, AUSTIN, TX, 78704","Match","Exact","2105 GLENDALE PL, AUSTIN, TX, 78704",63945130,"L"
336295,"2105 GRAND STREET","NOLENSVILLE","TN",37135,35.9462057260001,-86.6413990739999,295,"2105 GRAND STREET, NOLENSVILLE, TN, 37135","Match","Exact","2105 GRAND ST, NOLENSVILLE, TN, 37135",624387005,"R"
336296,"2105 GRASSLAND DR","ALLEN","TX",75013,33.1201887610001,-96.7284811379999,296,"2105 GRASSLAND DR, ALLEN, TX, 75013","Match","Non_Exact","2105 GRASSLAND CT, ALLEN, TX, 75013",646508732,"L"
336297,"2105 GREEN VALLEY DRIVE","TOLEDO","OH",43614,41.601288385,-83.643565676,297,"2105 GREEN VALLEY DRIVE, TOLEDO, OH, 43614","Match","Exact","2105 GREEN VALLEY DR, TOLEDO, OH, 43614",33935922,"L"
336298,"2105 GREENWOOD DR","LAPLACE","LA",70068,30.086793099,-90.4779140269999,298,"2105 GREENWOOD DR, LAPLACE, LA, 70068","Match","Non_Exact","2105 GREENWOOD DR, LA PLACE, LA, 70068",652493847,"L"
336299,"2105 HAMILTON ROAD","MOBILE","AL",36618,30.7322425630001,-88.135241542,299,"2105 HAMILTON ROAD, MOBILE, AL, 36618","Match","Exact","2105 HAMILTON RD, MOBILE, AL, 36618",61883030,"L"
336300,"2105 HAMPTON TRAIL SE","CONYERS","GA",30013,33.59894752,-83.985599623,300,"2105 HAMPTON TRAIL SE, CONYERS, GA, 30013","Match","Exact","2105 HAMPTON TRL SE, CONYERS, GA, 30013",23738220,"L"
336301,"2105 HARRISON AVE","FORT WORTH","TX",76110,32.730153885,-97.349118558,301,"2105 HARRISON AVE, FORT WORTH, TX, 76110","Match","Exact","2105 HARRISON AVE, FORT WORTH, TX, 76110",101885272,"L"
336302,"2105 HARTWOOD MARSH RD STE 7","CLERMONT","FL",34711,NA,NA,302,"2105 HARTWOOD MARSH RD STE 7, CLERMONT, FL, 34711","No_Match",NA,NA,NA,NA
336303,"2105 HARVESTWOOD LANE","CHAPIN","SC",29036,NA,NA,303,"2105 HARVESTWOOD LANE, CHAPIN, SC, 29036","No_Match",NA,NA,NA,NA
336304,"2105 HAVILAND DRIVE","HENRICO","VA",23229,37.620771862,-77.5635732169999,304,"2105 HAVILAND DRIVE, HENRICO, VA, 23229","Match","Exact","2105 HAVILAND DR, HENRICO, VA, 23229",106644163,"R"
336305,"2105 HAZELTINE WAY","PITTSBURGH","PA",15218,40.418477814,-79.8876406259999,305,"2105 HAZELTINE WAY, PITTSBURGH, PA, 15218","Match","Non_Exact","2105 HAZELTINE ALY, PITTSBURGH, PA, 15218",51682080,"L"
336306,"2105 IRELAND ROAD","BROCKPORT","NY",14420,43.2586047,-77.850752595,306,"2105 IRELAND ROAD, BROCKPORT, NY, 14420","Match","Exact","2105 IRELAND RD, BROCKPORT, NY, 14420",14524010,"L"
336307,"2105 IRVING AVENUE N","MINNEAPOLIS","MN",55411,45.0004226,-93.298789991,307,"2105 IRVING AVENUE N, MINNEAPOLIS, MN, 55411","Match","Exact","2105 IRVING AVE N, MINNEAPOLIS, MN, 55411",43833117,"L"
336308,"2105 JACKSON STREET APT 209","ALEXANDRIA","LA",71301,31.3001442550001,-92.4595161559999,308,"2105 JACKSON STREET APT 209, ALEXANDRIA, LA, 71301","Match","Exact","2105 JACKSON ST, ALEXANDRIA, LA, 71301",11781915,"L"
336309,"2105 JACOBS WELL CT","BEL AIR","MD",21015,39.566086925,-76.294710277,309,"2105 JACOBS WELL CT, BEL AIR, MD, 21015","Match","Exact","2105 JACOBS WELL CT, BEL AIR, MD, 21015",191685910,"L"
336310,"2105 JEAN LAFITTE PKWY","CHALMETTE","LA",70043,29.946413675,-89.986972338,310,"2105 JEAN LAFITTE PKWY, CHALMETTE, LA, 70043","Match","Exact","2105 JEAN LAFITTE PKWY, CHALMETTE, LA, 70043",111189503,"R"
336311,"2105 JOHNSON ROAD","HERMANVILLE","MS",39086,31.9477943590001,-90.8455183409999,311,"2105 JOHNSON ROAD, HERMANVILLE, MS, 39086","Match","Exact","2105 JOHNSON RD, HERMANVILLE, MS, 39086",612208558,"R"
336312,"2105 KING LEAR CT","GREENVILLE","NC",27858,35.5841532150001,-77.337541378,312,"2105 KING LEAR CT, GREENVILLE, NC, 27858","Match","Exact","2105 KING LEAR CT, GREENVILLE, NC, 27858",80033520,"R"
336313,"2105 LAKEWAY DR","LEAGUE CITY","TX",77573,29.526620408,-95.058626208,313,"2105 LAKEWAY DR, LEAGUE CITY, TX, 77573","Match","Exact","2105 LAKEWAY DR, LEAGUE CITY, TX, 77573",96702050,"L"
336314,"2105 LAVISTA CIRCLE","HAPEVILLE","GA",30354,33.6620411210001,-84.397264271,314,"2105 LAVISTA CIRCLE, HAPEVILLE, GA, 30354","Match","Exact","2105 LAVISTA CIR, HAPEVILLE, GA, 30354",17350103,"R"
336315,"2105 LENOX NEW LYME","JEFFERSON","OH",44047,41.6935837890001,-80.7616432679999,315,"2105 LENOX NEW LYME, JEFFERSON, OH, 44047","Match","Non_Exact","2105 LENOX NEW LYME RD, JEFFERSON, OH, 44047",117327906,"L"
336316,"2105 LESS TRAVELED TRL","INDIAN TRAIL","NC",28079,35.1208628630001,-80.626435719,316,"2105 LESS TRAVELED TRL, INDIAN TRAIL, NC, 28079","Match","Exact","2105 LESS TRAVELED TRL, INDIAN TRAIL, NC, 28079",618500893,"L"
336317,"2105 LONGLETT DR","QUINCY","IL",62305,39.956602677,-91.3053556259999,317,"2105 LONGLETT DR, QUINCY, IL, 62305","Match","Exact","2105 LONGLETT DR, QUINCY, IL, 62305",35094262,"R"
336318,"2105 LORNA RIDGE LANE SUITE 149","BIRMINGHAM","AL",35216,33.3949630480001,-86.793796807,318,"2105 LORNA RIDGE LANE SUITE 149, BIRMINGHAM, AL, 35216","Match","Non_Exact","2105 LORNA RIDGE DR, BIRMINGHAM, AL, 35216",81704968,"R"
336319,"2105 M ST NE APT 3","WASHINGTON","DC",20002,NA,NA,319,"2105 M ST NE APT 3, WASHINGTON, DC, 20002","No_Match",NA,NA,NA,NA
336320,"2105 MAPLE ST","SANTA ANA","CA",92707,33.7194932940001,-117.86413481,320,"2105 MAPLE ST, SANTA ANA, CA, 92707","Match","Exact","2105 MAPLE ST, SANTA ANA, CA, 92707",144043956,"L"
336321,"2105 MATTHEWS VIEW","CUMMING","GA",30041,34.1535706810001,-84.1414839029999,321,"2105 MATTHEWS VIEW, CUMMING, GA, 30041","Match","Exact","2105 MATTHEWS VW, CUMMING, GA, 30041",646179780,"L"
336322,"2105 MEADOWBROOK TERRACE","REIDSVILLE","NC",27320,36.3337291930001,-79.6854370899999,322,"2105 MEADOWBROOK TERRACE, REIDSVILLE, NC, 27320","Match","Exact","2105 MEADOWBROOK TER, REIDSVILLE, NC, 27320",56238406,"R"
336323,"2105 MIDDLE CREEK BLVD","BOSSIER CITY","LA",71111,32.5598757330001,-93.6407982969999,323,"2105 MIDDLE CREEK BLVD, BOSSIER CITY, LA, 71111","Match","Exact","2105 MIDDLE CREEK BLVD, BOSSIER CITY, LA, 71111",108522313,"R"
336324,"2105 MIDLOTHIAN ROAD","ROSEVILLE","MN",55113,45.0046005680001,-93.17123412,324,"2105 MIDLOTHIAN ROAD, ROSEVILLE, MN, 55113","Match","Exact","2105 MIDLOTHIAN RD, ROSEVILLE, MN, 55113",97640141,"L"
336325,"2105 MONROE STREET","WICHITA FALLS","TX",76309,33.89104173,-98.5211898159999,325,"2105 MONROE STREET, WICHITA FALLS, TX, 76309","Match","Exact","2105 MONROE ST, WICHITA FALLS, TX, 76309",169842923,"L"
336326,"2105 MURRAY HOLLADAY ROAD SUITE 2","HOLLADAY","UT",84117,40.6662238660001,-111.830393216,326,"2105 MURRAY HOLLADAY ROAD SUITE 2, HOLLADAY, UT, 84117","Match","Exact","2105 MURRAY HOLLADAY RD, HOLLADAY, UT, 84117",176084062,"L"
336327,"2105 N 12TH ST","SHEBOYGAN","WI",53081,43.767630969,-87.7195929599999,327,"2105 N 12TH ST, SHEBOYGAN, WI, 53081","Match","Exact","2105 N 12TH ST, SHEBOYGAN, WI, 53081",79496634,"R"
336328,"2105 N 12TH STREET","PHILADELPHIA","PA",19122,39.984372638,-75.1527900139999,328,"2105 N 12TH STREET, PHILADELPHIA, PA, 19122","Match","Exact","2105 N 12TH ST, PHILADELPHIA, PA, 19122",131421698,"R"
336329,"2105 N 650 W","LAYTON","UT",84401,41.090552691,-111.977738636,329,"2105 N 650 W, LAYTON, UT, 84401","Match","Non_Exact","2105 N 650 W, LAYTON, UT, 84041",229360724,"L"
336330,"2105 N AINSWORTH STREET","PORTLAND","OR",97217,45.5663605920001,-122.688694353,330,"2105 N AINSWORTH STREET, PORTLAND, OR, 97217","Match","Exact","2105 N AINSWORTH ST, PORTLAND, OR, 97217",157497473,"R"
336331,"2105 N GLEBE ROAD UNIT 1408","ARLINGTON","VA",22207,38.8961573440001,-77.1223968319999,331,"2105 N GLEBE ROAD UNIT 1408, ARLINGTON, VA, 22207","Match","Non_Exact","2105 N GLEBE RD, ARLINGTON, VA, 22207",638671487,"R"
336332,"2105 N MULLIGAN AVE","CHICAGO","IL",60639,41.9184826050001,-87.784059027,332,"2105 N MULLIGAN AVE, CHICAGO, IL, 60639","Match","Exact","2105 N MULLIGAN AVE, CHICAGO, IL, 60639",111752430,"R"
336333,"2105 N STEPTOE ST SPC 125","KENNEWICK","WA",99336,46.2299812790001,-119.243667336,333,"2105 N STEPTOE ST SPC 125, KENNEWICK, WA, 99336","Match","Non_Exact","2105 N STEPTOE ST, KENNEWICK, WA, 99336",174989476,"L"
336334,"2105 N STEPTOE TRL 141","KENNEWICK","WA",99336,NA,NA,334,"2105 N STEPTOE TRL 141, KENNEWICK, WA, 99336","No_Match",NA,NA,NA,NA
336335,"2105 N WILLIAMETTE BLVD","PORTLAND","OR",97217,45.5619698730001,-122.688768607,335,"2105 N WILLIAMETTE BLVD, PORTLAND, OR, 97217","Match","Non_Exact","2105 N WILLAMETTE BLVD, PORTLAND, OR, 97217",157497346,"R"
336336,"2105 NC HWY 37 S","HOBBSVILLE","NC",27946,36.3543046230001,-76.639598802,336,"2105 NC HWY 37 S, HOBBSVILLE, NC, 27946","Match","Non_Exact","2105 STATE HWY 37 S, HOBBSVILLE, NC, 27946",18577992,"L"
336337,"2105 NE 123ST","NORTH MIAMI","FL",33181,NA,NA,337,"2105 NE 123ST, NORTH MIAMI, FL, 33181","No_Match",NA,NA,NA,NA
336338,"2105 NEW DANVILLE PIKE","LANCASTER","PA",17603,39.984951632,-76.3158593329999,338,"2105 NEW DANVILLE PIKE, LANCASTER, PA, 17603","Match","Exact","2105 NEW DANVILLE PIKE, LANCASTER, PA, 17603",179690451,"R"
336339,"2105 NORTH 650 WEST","LAYTON","UT",84041,41.090532511,-111.977738636,339,"2105 NORTH 650 WEST, LAYTON, UT, 84041","Match","Exact","2105 N 650 W, LAYTON, UT, 84041",229360724,"L"
336340,"2105 NW 28TH ST","GAINESVILLE","FL",32605,29.6721406620001,-82.364732643,340,"2105 NW 28TH ST, GAINESVILLE, FL, 32605","Match","Exact","2105 NW 28TH ST, GAINESVILLE, FL, 32605",6804981,"R"
336341,"2105 NW KLICKITAT ST","CAMAS","WA",98607,45.5943270440001,-122.446055113,341,"2105 NW KLICKITAT ST, CAMAS, WA, 98607","Match","Exact","2105 NW KLICKITAT ST, CAMAS, WA, 98607",618477408,"L"
336342,"2105 NW KLICKITAT","CAMAS","WA",98607,45.5943270440001,-122.446055113,342,"2105 NW KLICKITAT, CAMAS, WA, 98607","Match","Non_Exact","2105 NW KLICKITAT ST, CAMAS, WA, 98607",618477408,"L"
336343,"2105 NW MAPLE ST","ANKENY","IA",50023,41.74897215,-93.609008898,343,"2105 NW MAPLE ST, ANKENY, IA, 50023","Match","Exact","2105 NW MAPLE ST, ANKENY, IA, 50023",65857806,"L"
336344,"2105 NW WOODLAND DR","ANKENY","IA",50023,41.748452517,-93.6398981629999,344,"2105 NW WOODLAND DR, ANKENY, IA, 50023","Match","Exact","2105 NW WOODLAND DR, ANKENY, IA, 50023",640791155,"R"
336345,"2105 OLD MILITARY RD","CENTRAL POINT","OR",97502,42.3445699580001,-122.961552672,345,"2105 OLD MILITARY RD, CENTRAL POINT, OR, 97502","Match","Exact","2105 OLD MILITARY RD, CENTRAL POINT, OR, 97502",155577928,"L"
336346,"2105 OLIVER SPRINGS WAY","VAN BUREN","AR",72956,35.465622615,-94.334753375,346,"2105 OLIVER SPRINGS WAY, VAN BUREN, AR, 72956","Match","Exact","2105 OLIVER SPRINGS WAY, VAN BUREN, AR, 72956",53490488,"L"
336347,"2105 OVOCA RD","TULLAHOMA","TN",37388,35.391388728,-86.218211176,347,"2105 OVOCA RD, TULLAHOMA, TN, 37388","Match","Exact","2105 OVOCA RD, TULLAHOMA, TN, 37388",58226137,"L"
336348,"2105 PALATINE PLACE","STOCKBRIDGE","GA",30281,33.514192189,-84.256523655,348,"2105 PALATINE PLACE, STOCKBRIDGE, GA, 30281","Match","Exact","2105 PALATINE PL, STOCKBRIDGE, GA, 30281",210422817,"L"
336349,"2105 PARMENTER BLVD APT 006","ROYAL OAK","MI",48073,42.535070982,-83.170605805,349,"2105 PARMENTER BLVD APT 006, ROYAL OAK, MI, 48073","Match","Exact","2105 PARMENTER BLVD, ROYAL OAK, MI, 48073",69737924,"L"
336350,"2105 PENTLAND RD","LYNN HAVEN","FL",32444,30.226799627,-85.637453636,350,"2105 PENTLAND RD, LYNN HAVEN, FL, 32444","Match","Exact","2105 PENTLAND RD, LYNN HAVEN, FL, 32444",636333406,"L"
336351,"2105 PINEVIEW TRAIL","ELLENWOOD","GA",30294,33.6479024110001,-84.299416163,351,"2105 PINEVIEW TRAIL, ELLENWOOD, GA, 30294","Match","Exact","2105 PINEVIEW TRL, ELLENWOOD, GA, 30294",619379377,"R"
336352,"2105 PP AVENUE","WILLIAMSBURG","IA",52361,41.7016566630001,-92.007354006,352,"2105 PP AVENUE, WILLIAMSBURG, IA, 52361","Match","Exact","2105 PP AVE, WILLIAMSBURG, IA, 52361",84395984,"L"
336353,"2105 QUAIL LANE","ROLLING MEADOWS","IL",60008,42.071985038,-88.006719608,353,"2105 QUAIL LANE, ROLLING MEADOWS, IL, 60008","Match","Exact","2105 QUAIL LN, ROLLING MDWS, IL, 60008",111699682,"L"
336354,"2105 RAVENWOOD DR","GRAND PRAIRIE","TX",75050,32.773251223,-97.035729561,354,"2105 RAVENWOOD DR, GRAND PRAIRIE, TX, 75050","Match","Exact","2105 RAVENWOOD DR, GRAND PRAIRIE, TX, 75050",101875586,"L"
336355,"2105 REATA COURT","DENTON","TX",76210,33.170711081,-97.110932092,355,"2105 REATA COURT, DENTON, TX, 76210","Match","Exact","2105 REATA CT, DENTON, TX, 76210",103396110,"R"
336356,"2105 REFUGE RD","PENDLETON","SC",29670,34.642564685,-82.749463586,356,"2105 REFUGE RD, PENDLETON, SC, 29670","Match","Exact","2105 REFUGE RD, PENDLETON, SC, 29670",25510027,"L"
336357,"2105 RHODE ISLAND AVE NE","WASHINGTON DC","DC",20018,38.92972631,-76.974633287,357,"2105 RHODE ISLAND AVE NE, WASHINGTON DC, DC, 20018","Match","Non_Exact","2105 RHODE ISLAND AVE NW, WASHINGTON, DC, 20018",638305463,"R"
336358,"2105 RIGSBEE DR","PLANO","TX",75074,33.028519153,-96.675721,358,"2105 RIGSBEE DR, PLANO, TX, 75074","Match","Exact","2105 RIGSBEE DR, PLANO, TX, 75074",123489593,"L"
336359,"2105 RIPLEY ST","PHILADELPHIA","PA",19152,40.059992836,-75.054568848,359,"2105 RIPLEY ST, PHILADELPHIA, PA, 19152","Match","Exact","2105 RIPLEY ST, PHILADELPHIA, PA, 19152",131431750,"L"
336360,"2105 ROCKAWAY PARKWAY APT 7H","BROOKLYN","NY",11236,40.6321258230001,-73.8878144889999,360,"2105 ROCKAWAY PARKWAY APT 7H, BROOKLYN, NY, 11236","Match","Exact","2105 ROCKAWAY PKWY, BROOKLYN, NY, 11236",651797531,"L"
336361,"2105 ROCKAWAY PKWAY APT 1G","BROOKLYN","NY",11236,40.6321258230001,-73.8878144889999,361,"2105 ROCKAWAY PKWAY APT 1G, BROOKLYN, NY, 11236","Match","Exact","2105 ROCKAWAY PKWY, BROOKLYN, NY, 11236",651797531,"L"
336362,"2105 ROSEBERRY DRIVE","SCOTTSBORO","AL",35768,34.6343199780001,-86.0220880589999,362,"2105 ROSEBERRY DRIVE, SCOTTSBORO, AL, 35768","Match","Non_Exact","2105 ROSEBERRY DR, SCOTTSBORO, AL, 35769",58025645,"R"
336363,"2105 ROYAL FERN LN","BIRMINGHAM","AL",35244,33.3363975680001,-86.824844228,363,"2105 ROYAL FERN LN, BIRMINGHAM, AL, 35244","Match","Exact","2105 ROYAL FERN LN, BIRMINGHAM, AL, 35244",82069155,"L"
336364,"2105 RUSHING SPRING DRIVE","PEARLAND","TX",77584,29.5734041150001,-95.408123938,364,"2105 RUSHING SPRING DRIVE, PEARLAND, TX, 77584","Match","Exact","2105 RUSHING SPRING DR, PEARLAND, TX, 77584",633560728,"R"
336365,"2105 RUSTLER RIDGE AVE","NORTH LAS VEGAS","NV",89031,36.259728454,-115.172464292,365,"2105 RUSTLER RIDGE AVE, NORTH LAS VEGAS, NV, 89031","Match","Exact","2105 RUSTLER RIDGE AVE, N LAS VEGAS, NV, 89031",201930693,"L"
336366,"2105 S 120TH ST","OMAHA","NE",68144,41.2394406230001,-96.100683192,366,"2105 S 120TH ST, OMAHA, NE, 68144","Match","Exact","2105 S 120TH ST, OMAHA, NE, 68144",116972467,"L"
336367,"2105 S 3RD AVE","MAYWOOD","IL",60153,41.8660921900001,-87.835918242,367,"2105 S 3RD AVE, MAYWOOD, IL, 60153","Match","Exact","2105 S 3RD AVE, MAYWOOD, IL, 60153",618899805,"L"
336368,"2105 S BASCOM AVE 340","CAMPBELL","CA",95008,NA,NA,368,"2105 S BASCOM AVE 340, CAMPBELL, CA, 95008","No_Match",NA,NA,NA,NA
336369,"2105 S BASCOM AVE SUITE 360","CAMPBELL","CA",95008,NA,NA,369,"2105 S BASCOM AVE SUITE 360, CAMPBELL, CA, 95008","No_Match",NA,NA,NA,NA
336370,"2105 S CAMPBELL TRAIL","SIOUX FALLS","SD",57106,43.526413866,-96.81465672,370,"2105 S CAMPBELL TRAIL, SIOUX FALLS, SD, 57106","Match","Exact","2105 S CAMPBELL TRL, SIOUX FALLS, SD, 57106",34990475,"R"
336371,"2105 S COUNTRY CLUB DR","COLUMBIA","MO",65201,NA,NA,371,"2105 S COUNTRY CLUB DR, COLUMBIA, MO, 65201","Tie",NA,NA,NA,NA
336372,"2105 S INDIAN RIVER DR","FORT IERCE","FL",34950,27.4266934720001,-80.315839291,372,"2105 S INDIAN RIVER DR, FORT IERCE, FL, 34950","Match","Non_Exact","2105 S INDIAN RIVER DR, FORT PIERCE, FL, 34950",610736413,"R"
336373,"2105 S PENNSYLVANIA","ROSWELL","NM",88203,33.3652209480001,-104.525240947,373,"2105 S PENNSYLVANIA, ROSWELL, NM, 88203","Match","Non_Exact","2105 S PENNSYLVANIA AVE, ROSWELL, NM, 88203",131774398,"L"
336374,"2105 S SORRENTO HILLS RD","ST. AUGUSTINE","FL",32092,29.9518697170001,-81.4836235239999,374,"2105 S SORRENTO HILLS RD, ST. AUGUSTINE, FL, 32092","Match","Exact","2105 S SORRENTO HILLS RD, SAINT AUGUSTINE, FL, 32092",639359263,"L"
336375,"2105 SAGEWAY DR","REDDING","CA",96003,40.5832350680001,-122.333510964,375,"2105 SAGEWAY DR, REDDING, CA, 96003","Match","Exact","2105 SAGEWAY DR, REDDING, CA, 96003",126659341,"R"
336376,"2105 SANDER STREET","WOODAND","CA",95776,38.646429427,-121.740436831,376,"2105 SANDER STREET, WOODAND, CA, 95776","Match","Non_Exact","2105 SANDER ST, WOODLAND, CA, 95776",629859224,"L"
336377,"2105 SANDER STREET","WOODLAND","CA",95776,38.646429427,-121.740436831,377,"2105 SANDER STREET, WOODLAND, CA, 95776","Match","Exact","2105 SANDER ST, WOODLAND, CA, 95776",629859224,"L"
336378,"2105 SE CARUTHERS APT 33","PORTLAND","OR",97214,NA,NA,378,"2105 SE CARUTHERS APT 33, PORTLAND, OR, 97214","No_Match",NA,NA,NA,NA
336379,"2105 SHADEWOOD","EVANSVILLE","IN",47713,37.9492748700001,-87.5515510819999,379,"2105 SHADEWOOD, EVANSVILLE, IN, 47713","Match","Exact","2105 SHADEWOOD, EVANSVILLE, IN, 47713",39785721,"R"
336380,"2105 SHANNON LAKES BLVD","KISSIMMEE","FL",34743,28.311454944,-81.360514585,380,"2105 SHANNON LAKES BLVD, KISSIMMEE, FL, 34743","Match","Exact","2105 SHANNON LAKES BLVD, KISSIMMEE, FL, 34743",176682541,"R"
336381,"2105 SOUTH CRANBROOK AVE","ST. AUGUSTINE","FL",32092,30.054241861,-81.527271352,381,"2105 SOUTH CRANBROOK AVE, ST. AUGUSTINE, FL, 32092","Match","Exact","2105 S CRANBROOK AVE, SAINT AUGUSTINE, FL, 32092",639372567,"L"
336382,"2105 SPRINGCREST PLACE","GREEN BAY","WI",54304,44.5057110990001,-88.102466232,382,"2105 SPRINGCREST PLACE, GREEN BAY, WI, 54304","Match","Exact","2105 SPRINGCREST PL, GREEN BAY, WI, 54304",148129386,"L"
336383,"2105 SPRUCE WAY","ANTIOCH","CA",94509,37.974029784,-121.795447043,383,"2105 SPRUCE WAY, ANTIOCH, CA, 94509","Match","Exact","2105 SPRUCE WAY, ANTIOCH, CA, 94509",192105625,"R"
336384,"2105 SPYGLASS TRAIL WEST","OXNARD","CA",93036,34.224052214,-119.207258873,384,"2105 SPYGLASS TRAIL WEST, OXNARD, CA, 93036","Match","Exact","2105 SPYGLASS TRL W, OXNARD, CA, 93036",110041517,"R"
336385,"2105 SQUIRREL RUN CT","MINERAL RIDGE","OH",44440,41.1362728020001,-80.7441901879999,385,"2105 SQUIRREL RUN CT, MINERAL RIDGE, OH, 44440","Match","Exact","2105 SQUIRREL RUN CT, MINERAL RIDGE, OH, 44440",616676668,"L"
336386,"2105 STARLIGHT DRIVE","GREENSBORO","NC",27407,36.0434732800001,-79.8697100959999,386,"2105 STARLIGHT DRIVE, GREENSBORO, NC, 27407","Match","Exact","2105 STARLIGHT DR, GREENSBORO, NC, 27407",131044673,"L"
336387,"2105 STATE ST","GRANITE CITY","IL",62040,38.702364908,-90.146307603,387,"2105 STATE ST, GRANITE CITY, IL, 62040","Match","Exact","2105 STATE ST, GRANITE CITY, IL, 62040",107683126,"L"
336388,"2105 STONE STREET","OPELIKA","AL",36801,32.6270344320001,-85.391219634,388,"2105 STONE STREET, OPELIKA, AL, 36801","Match","Exact","2105 STONE ST, OPELIKA, AL, 36801",1571921,"L"
336389,"2105 SUNCREST DR","FLINT","MI",48504,NA,NA,389,"2105 SUNCREST DR, FLINT, MI, 48504","No_Match",NA,NA,NA,NA
336390,"2105 SUNSET DRIVE","BALCH SPRINGS","TX",75180,32.740905599,-96.6253304209999,390,"2105 SUNSET DRIVE, BALCH SPRINGS, TX, 75180","Match","Exact","2105 SUNSET DR, BALCH SPRINGS, TX, 75180",102971992,"R"
336391,"2105 SW 40TH AVE","OCALA","FL",34474,29.1672938090001,-82.1885361019999,391,"2105 SW 40TH AVE, OCALA, FL, 34474","Match","Exact","2105 SW 40TH AVE, OCALA, FL, 34474",639322916,"R"
336392,"2105 SWALLOWTAIL DRIVE","SHAKOPEE","MN",55379,44.7633090960001,-93.4791797089999,392,"2105 SWALLOWTAIL DRIVE, SHAKOPEE, MN, 55379","Match","Exact","2105 SWALLOWTAIL DR, SHAKOPEE, MN, 55379",606965848,"R"
336393,"2105 SWANLAKE COVE","BIRMINGHAM","AL",35244,33.380922519,-86.761463544,393,"2105 SWANLAKE COVE, BIRMINGHAM, AL, 35244","Match","Non_Exact","2105 SWAN LAKE COVE, BIRMINGHAM, AL, 35244",82072766,"L"
336394,"2105 THE PLAZA","TENAFLY","NJ",7670,40.933255301,-73.9609305339999,394,"2105 THE PLAZA, TENAFLY, NJ, 7670","Match","Exact","2105 THE PLAZA, TENAFLY, NJ, 07670",641206164,"R"
336395,"2105 TIMBER RIDGE WAY","LAND O LAKES","FL",34637,NA,NA,395,"2105 TIMBER RIDGE WAY, LAND O LAKES, FL, 34637","No_Match",NA,NA,NA,NA
336396,"2105 TOSCANO COURT","GREENVILLE","SC",29615,NA,NA,396,"2105 TOSCANO COURT, GREENVILLE, SC, 29615","No_Match",NA,NA,NA,NA
336397,"2105 TRICKLING CREEK DR","GARLAND","TX",75041,32.892139753,-96.613036392,397,"2105 TRICKLING CREEK DR, GARLAND, TX, 75041","Match","Exact","2105 TRICKLING CREEK DR, GARLAND, TX, 75041",627365381,"R"
336398,"2105 TURKEY OAK COURT","OVIEDO","FL",32766,28.64017642,-81.151206739,398,"2105 TURKEY OAK COURT, OVIEDO, FL, 32766","Match","Exact","2105 TURKEY OAK CT, OVIEDO, FL, 32766",93797899,"R"
336399,"2105 TWELVE OAKS CT","ARLINGTON","TX",76012,32.767528961,-97.146087297,399,"2105 TWELVE OAKS CT, ARLINGTON, TX, 76012","Match","Exact","2105 TWELVE OAKS CT, ARLINGTON, TX, 76012",102106259,"L"
336400,"2105 TWIN FAWN CT","ARNOLD","MO",63010,38.430863926,-90.39775306,400,"2105 TWIN FAWN CT, ARNOLD, MO, 63010","Match","Exact","2105 TWIN FAWN CT, ARNOLD, MO, 63010",62794684,"R"
336401,"2105 UNIVERSITY AVENUE","MONROE","LA",71203,32.5422336410001,-92.072999694,401,"2105 UNIVERSITY AVENUE, MONROE, LA, 71203","Match","Exact","2105 UNIVERSITY AVE, MONROE, LA, 71203",161086377,"L"
336402,"2105 VALLEY VIEW DIVE","FOLCROFT","PA",19032,39.890038142,-75.2882336549999,402,"2105 VALLEY VIEW DIVE, FOLCROFT, PA, 19032","Match","Non_Exact","2105 VALLEY VIEW DR, FOLCROFT, PA, 19032",134899076,"L"
336403,"2105 VERMONT RD","VAIL","CO",81657,39.6259572450001,-106.417388339,403,"2105 VERMONT RD, VAIL, CO, 81657","Match","Exact","2105 VERMONT RD, VAIL, CO, 81657",105754362,"L"
336404,"2105 VERNICE DRIVE","COPPERAS COVE","TX",76522,31.153627778,-97.919833392,404,"2105 VERNICE DRIVE, COPPERAS COVE, TX, 76522","Match","Exact","2105 VERNICE DR, COPPERAS COVE, TX, 76522",614901316,"R"
336405,"2105 VIA VENADO ST","LA CANADA FLINTRIDG","CA",91011,34.2229790750001,-118.223143088,405,"2105 VIA VENADO ST, LA CANADA FLINTRIDG, CA, 91011","Match","Non_Exact","2105 VIA VENADO ST, LA CANADA FLINTRIDGE, CA, 91011",141590218,"R"
336406,"2105 VISTA OESTE NW SUITE E2060","ALBUQUERQUE","NM",87120,NA,NA,406,"2105 VISTA OESTE NW SUITE E2060, ALBUQUERQUE, NM, 87120","No_Match",NA,NA,NA,NA
336407,"2105 W FALLS AVE","SPOKANE","WA",99201,47.6603076170001,-117.443307026,407,"2105 W FALLS AVE, SPOKANE, WA, 99201","Match","Exact","2105 W FALLS AVE, SPOKANE, WA, 99201",652663553,"L"
336408,"2105 W ONTARIO STREET","PHILADEPHIA","PA",19140,40.0061812070001,-75.163808796,408,"2105 W ONTARIO STREET, PHILADEPHIA, PA, 19140","Match","Non_Exact","2105 W ONTARIO ST, PHILADELPHIA, PA, 19140",131402444,"R"
336409,"2105 W ROOSEVELT AVE","COOLIDGE","AZ",85128,32.97607708,-111.55255681,409,"2105 W ROOSEVELT AVE, COOLIDGE, AZ, 85128","Match","Exact","2105 W ROOSEVELT AVE, COOLIDGE, AZ, 85128",625001024,"R"
336410,"2105 W STEELE LANE","SANTA ROSA","CA",95403,38.4598445130001,-122.74161175,410,"2105 W STEELE LANE, SANTA ROSA, CA, 95403","Match","Exact","2105 W STEELE LN, SANTA ROSA, CA, 95403",67467094,"R"
336411,"2105 WADDELL AVE","ALBANY","GA",31707,31.5650540670001,-84.1980716149999,411,"2105 WADDELL AVE, ALBANY, GA, 31707","Match","Non_Exact","2105 W WADDELL AVE, ALBANY, GA, 31707",618685187,"R"
336412,"2105 WALLANCE AVENUE 3H","BRONX","NY",10462,NA,NA,412,"2105 WALLANCE AVENUE 3H, BRONX, NY, 10462","No_Match",NA,NA,NA,NA
336413,"2105 WALNUT GROVE RD","HARRISBURG","IL",62946,37.6731766990001,-88.56508351,413,"2105 WALNUT GROVE RD, HARRISBURG, IL, 62946","Match","Exact","2105 WALNUT GROVE RD, HARRISBURG, IL, 62946",104099768,"L"
336414,"2105 WASHINGTON BLVD","PASADENA","CA",91103,NA,NA,414,"2105 WASHINGTON BLVD, PASADENA, CA, 91103","No_Match",NA,NA,NA,NA
336415,"2105 WENDY COURT","BETTENDORF","IA",52722,41.5671498670001,-90.501936477,415,"2105 WENDY COURT, BETTENDORF, IA, 52722","Match","Exact","2105 WENDY CT, BETTENDORF, IA, 52722",122714059,"R"
336416,"2105 WEST 18TH AVENUE","EUGENE","OR",97402,44.040500717,-123.124284161,416,"2105 WEST 18TH AVENUE, EUGENE, OR, 97402","Match","Exact","2105 W 18TH AVE, EUGENE, OR, 97402",605390256,"R"
336417,"2105 WEST VIA DELFINI","FRESNO","CA",93711,36.811030546,-119.828868916,417,"2105 WEST VIA DELFINI, FRESNO, CA, 93711","Match","Exact","2105 W VIA DELFINI, FRESNO, CA, 93711",617781418,"R"
336418,"2105 WESTERLY DRIVE SPACE 84","ROSAMOND","CA",93560,34.847706207,-118.168782228,418,"2105 WESTERLY DRIVE SPACE 84, ROSAMOND, CA, 93560","Match","Exact","2105 WESTERLY DR, ROSAMOND, CA, 93560",109424825,"R"
336419,"2105 WHITE FARM ROAD","ORIENTAL","NC",28571,35.0338250070001,-76.673663338,419,"2105 WHITE FARM ROAD, ORIENTAL, NC, 28571","Match","Exact","2105 WHITE FARM RD, ORIENTAL, NC, 28571",67925870,"L"
336420,"2105 WILLOW AVE NORTH","MINNEAPOLIS","MN",55411,NA,NA,420,"2105 WILLOW AVE NORTH, MINNEAPOLIS, MN, 55411","No_Match",NA,NA,NA,NA
336421,"2105 WINEBROOK COURT","PEARLAND","TX",77584,NA,NA,421,"2105 WINEBROOK COURT, PEARLAND, TX, 77584","No_Match",NA,NA,NA,NA
336422,"2105 WOODLAND OAKS","ARLINGTON","TX",76013,32.709504037,-97.1880366999999,422,"2105 WOODLAND OAKS, ARLINGTON, TX, 76013","Match","Non_Exact","2105 WOODLAND OAKS DR, ARLINGTON, TX, 76013",101902029,"L"
336423,"2105 WOODSIDE","EL PASO","TX",79925,31.771164798,-106.345083317,423,"2105 WOODSIDE, EL PASO, TX, 79925","Match","Non_Exact","2105 WOODSIDE DR, EL PASO, TX, 79925",189347269,"L"
336424,"2105","HIXSON","TN",37343,NA,NA,424,"2105, HIXSON, TN, 37343","No_Match",NA,NA,NA,NA
336425,"21050 POINT PLACE APT 3103","AVENTURA","FL",33180,25.9714704240001,-80.1244641769999,425,"21050 POINT PLACE APT 3103, AVENTURA, FL, 33180","Match","Exact","21050 POINT PL, AVENTURA, FL, 33180",647817787,"R"
336426,"21050 VANOWEN ST APT 312","CANOGA PARK","CA",91303,34.1937656040001,-118.591719263,426,"21050 VANOWEN ST APT 312, CANOGA PARK, CA, 91303","Match","Exact","21050 VANOWEN ST, CANOGA PARK, CA, 91303",141535280,"L"
336427,"21050 VANOWEN ST UNIT 236","WOODLAND HILLS","CA",91303,34.1937656040001,-118.591719263,427,"21050 VANOWEN ST UNIT 236, WOODLAND HILLS, CA, 91303","Match","Exact","21050 VANOWEN ST, WOODLAND HILLS, CA, 91303",141535280,"L"
336428,"21051 188TH AVE","RENTON","WA",98058,NA,NA,428,"21051 188TH AVE, RENTON, WA, 98058","No_Match",NA,NA,NA,NA
336429,"21051 EMERSON CT","STERLING","VA",20164,39.0090782600001,-77.385272777,429,"21051 EMERSON CT, STERLING, VA, 20164","Match","Exact","21051 EMERSON CT, STERLING, VA, 20164",62330589,"R"
336430,"21051 GRESHEM STREET STE 306","CANOGA","CA",91304,34.2306226910001,-118.591789874,430,"21051 GRESHEM STREET STE 306, CANOGA, CA, 91304","Match","Non_Exact","21051 GRESHAM ST, CANOGA PARK, CA, 91304",141533055,"R"
336431,"21051 NEWLAND ST 187","HUNTINGTON BEACH","CA",92646,33.6563457570001,-117.979720037,431,"21051 NEWLAND ST 187, HUNTINGTON BEACH, CA, 92646","Match","Exact","21051 NEWLAND ST, HUNTINGTON BEACH, CA, 92646",609063264,"R"
336432,"21051 S LAKESHORE BLVD UNIT 3","EUCLID","OH",44123,41.6052438080001,-81.533802861,432,"21051 S LAKESHORE BLVD UNIT 3, EUCLID, OH, 44123","Match","Exact","21051 LAKESHORE BLVD, EUCLID, OH, 44123",61108304,"L"
336433,"21051 SARAH LANE","CLEVELAND","OH",44128,41.434389046,-81.506701651,433,"21051 SARAH LANE, CLEVELAND, OH, 44128","Match","Non_Exact","21051 SARAH, CLEVELAND, OH, 44128",613715985,"L"
336434,"21051 SW 128TH COURT","MIAMI","FL",33177,25.5708669480001,-80.399380905,434,"21051 SW 128TH COURT, MIAMI, FL, 33177","Match","Exact","21051 SW 128TH CT, MIAMI, FL, 33177",631994448,"R"
336435,"21051 THOREAU CT","STERLING","VA",20164,39.0081826100001,-77.3837787699999,435,"21051 THOREAU CT, STERLING, VA, 20164","Match","Exact","21051 THOREAU CT, STERLING, VA, 20164",62330595,"R"
336436,"21051 WARNER CENTER LANE SUITE 250","WOODLAND HILLS","CA",91367,34.1743934840001,-118.591401372,436,"21051 WARNER CENTER LANE SUITE 250, WOODLAND HILLS, CA, 91367","Match","Exact","21051 WARNER CENTER LN, WOODLAND HILLS, CA, 91367",141805825,"R"
336437,"21053 230TH ST","HUTCHINSON","MN",55350,44.9497653350001,-94.423215507,437,"21053 230TH ST, HUTCHINSON, MN, 55350","Match","Exact","21053 230TH ST, HUTCHINSON, MN, 55350",36795165,"L"
336438,"21053 CATTAIL RD","FULTON","IL",61252,41.8880446910001,-90.1346571399999,438,"21053 CATTAIL RD, FULTON, IL, 61252","Match","Exact","21053 CATTAIL RD, FULTON, IL, 61252",48973019,"L"
336439,"21053 DEVONSHIRE STREET 104","CHATSWORTH","CA",91311,34.2572465010001,-118.591901221,439,"21053 DEVONSHIRE STREET 104, CHATSWORTH, CA, 91311","Match","Exact","21053 DEVONSHIRE ST, CHATSWORTH, CA, 91311",141532052,"R"
336440,"21053 DEVONSHIRE STREET","CHATSWORTH","CA",91311,34.2572465010001,-118.591901221,440,"21053 DEVONSHIRE STREET, CHATSWORTH, CA, 91311","Match","Exact","21053 DEVONSHIRE ST, CHATSWORTH, CA, 91311",141532052,"R"
336441,"21053 SHADY VISTA LANE","BOCA RATON","FL",33428,26.362934501,-80.224080968,441,"21053 SHADY VISTA LANE, BOCA RATON, FL, 33428","Match","Exact","21053 SHADY VISTA LN, BOCA RATON, FL, 33428",115299603,"L"
336442,"21054 W CORONADO RD","BUCKEYE","AZ",85396,33.4660250910001,-112.512158549,442,"21054 W CORONADO RD, BUCKEYE, AZ, 85396","Match","Exact","21054 W CORONADO RD, BUCKEYE, AZ, 85396",648697768,"L"
336443,"21054 W CORONADO ROAD","BUCKEYE","AZ",85396,33.4660250910001,-112.512158549,443,"21054 W CORONADO ROAD, BUCKEYE, AZ, 85396","Match","Exact","21054 W CORONADO RD, BUCKEYE, AZ, 85396",648697768,"L"
336444,"21055 NE 37 AVE APT 1005","AVENTURA","FL",33180,25.971396204,-80.126773737,444,"21055 NE 37 AVE APT 1005, AVENTURA, FL, 33180","Match","Non_Exact","21055 NE 37TH AVE, AVENTURA, FL, 33180",610824768,"L"
336445,"21055 NE 37TH AVE APT 605","AVENTURA","FL",33180,25.971396204,-80.126773737,445,"21055 NE 37TH AVE APT 605, AVENTURA, FL, 33180","Match","Non_Exact","21055 NE 37TH AVE, AVENTURA, FL, 33180",610824768,"L"
336446,"21056 DEAN STREET","WARREN","MI",48091,42.450333787,-83.062911562,446,"21056 DEAN STREET, WARREN, MI, 48091","Match","Exact","21056 DEAN ST, WARREN, MI, 48091",110670517,"R"
336447,"21057 LIVE OAK ST","NEW CANEY","TX",77357,30.1401032860001,-95.2077545229999,447,"21057 LIVE OAK ST, NEW CANEY, TX, 77357","Match","Exact","21057 LIVE OAK ST, NEW CANEY, TX, 77357",79293616,"R"
336448,"21057 MENDENHALL COURT","TOPANGA","CA",90290,34.1344085310001,-118.590187963,448,"21057 MENDENHALL COURT, TOPANGA, CA, 90290","Match","Exact","21057 MENDENHALL CT, TOPANGA, CA, 90290",142836863,"L"
336449,"21057 NW 82ND LN","STARKE","FL",32091,30.0201108360001,-82.182744556,449,"21057 NW 82ND LN, STARKE, FL, 32091","Match","Exact","21057 NW 82ND LN, STARKE, FL, 32091",6902593,"R"
336450,"21059 BLAIR RD","CONROE","TX",77385,30.1497312930001,-95.4342547259999,450,"21059 BLAIR RD, CONROE, TX, 77385","Match","Exact","21059 BLAIR RD, CONROE, TX, 77385",79312382,"R"
336451,"21059 BLAIR ROAD","CONROE","TX",77385,30.1497312930001,-95.4342547259999,451,"21059 BLAIR ROAD, CONROE, TX, 77385","Match","Exact","21059 BLAIR RD, CONROE, TX, 77385",79312382,"R"
336452,"21059 NE 42ND ST","SAMMAMISH","WA",98074,47.6465488640001,-122.059547517,452,"21059 NE 42ND ST, SAMMAMISH, WA, 98074","Match","Exact","21059 NE 42ND ST, SAMMAMISH, WA, 98074",186617348,"R"
336453,"2105A W CHELTENHAM AVE","ELKINS PARK","PA",19027,40.0707668260001,-75.152360927,453,"2105A W CHELTENHAM AVE, ELKINS PARK, PA, 19027","Match","Exact","2105 W CHELTENHAM AVE, ELKINS PARK, PA, 19027",131412973,"R"
336454,"2106 10TH AVE","HONOLULU","HI",96816,21.298862048,-157.792363355,454,"2106 10TH AVE, HONOLULU, HI, 96816","Match","Exact","2106 10TH AVE, HONOLULU, HI, 96816",203239952,"L"
336455,"2106 20TH ST WE","RENTON","WA",98057,NA,NA,455,"2106 20TH ST WE, RENTON, WA, 98057","No_Match",NA,NA,NA,NA
336456,"2106 23RD AVE APT C5","ASTORIA","NY",11105,NA,NA,456,"2106 23RD AVE APT C5, ASTORIA, NY, 11105","No_Match",NA,NA,NA,NA
336457,"2106 23RD AVE NW","ROCHESTER","MN",55901,44.046132566,-92.4975850169999,457,"2106 23RD AVE NW, ROCHESTER, MN, 55901","Match","Exact","2106 23RD AVE NW, ROCHESTER, MN, 55901",30550456,"R"
336458,"2106 27TH AVE","SAN FRANCISCO","CA",94116,37.748025237,-122.484627795,458,"2106 27TH AVE, SAN FRANCISCO, CA, 94116","Match","Exact","2106 27TH AVE, SAN FRANCISCO, CA, 94116",192277883,"L"
336459,"2106 32ND STREET SE","WASHINGTON","MD",20020,NA,NA,459,"2106 32ND STREET SE, WASHINGTON, MD, 20020","No_Match",NA,NA,NA,NA
336460,"2106 9TH AVENUE","HUNTINGTON","WV",25703,38.417649888,-82.4189839699999,460,"2106 9TH AVENUE, HUNTINGTON, WV, 25703","Match","Non_Exact","2106 9TH AVE W, HUNTINGTON, WV, 25703",101318701,"L"
336461,"2106 ANDES RD","KNOXVILLE","TN",37920,35.960511867,-84.1029621169999,461,"2106 ANDES RD, KNOXVILLE, TN, 37920","Match","Non_Exact","2106 ANDES RD, KNOXVILLE, TN, 37931",604625042,"L"
336462,"2106 ARLEIGH RD","CINNAMINSON","NJ",8077,40.0067277160001,-74.9702021959999,462,"2106 ARLEIGH RD, CINNAMINSON, NJ, 8077","Match","Exact","2106 ARLEIGH RD, CINNAMINSON, NJ, 08077",134058001,"R"
336463,"2106 ARLENE ST","ANN ARBOR","MI",48103,42.286847987,-83.773326259,463,"2106 ARLENE ST, ANN ARBOR, MI, 48103","Match","Exact","2106 ARLENE ST, ANN ARBOR, MI, 48103",26012312,"R"
336464,"2106 ARLINGTON TERRACE","ALEXANDRIA","VA",22303,38.7944833720001,-77.06705522,464,"2106 ARLINGTON TERRACE, ALEXANDRIA, VA, 22303","Match","Exact","2106 ARLINGTON TER, ALEXANDRIA, VA, 22303",75989446,"R"
336465,"2106 ARPDALE STREET","AUSTIN","TX",78704,30.2487138830001,-97.778382763,465,"2106 ARPDALE STREET, AUSTIN, TX, 78704","Match","Exact","2106 ARPDALE ST, AUSTIN, TX, 78704",63943619,"R"
336466,"2106 ASTER ROAD","BETHLEHEM","PA",18017,40.6444405450001,-75.4190938249999,466,"2106 ASTER ROAD, BETHLEHEM, PA, 18017","Match","Non_Exact","2106 ASTER RD, BETHLEHEM, PA, 18018",80764566,"R"
336467,"2106 B ST","BELLINGHAM","WA",98225,48.757412177,-122.47839145,467,"2106 B ST, BELLINGHAM, WA, 98225","Match","Exact","2106 B ST, BELLINGHAM, WA, 98225",183772097,"R"
336468,"2106 BAHAMA RD","LEXINGTON","KY",40509,38.0242779220001,-84.384544207,468,"2106 BAHAMA RD, LEXINGTON, KY, 40509","Match","Exact","2106 BAHAMA RD, LEXINGTON, KY, 40509",31928371,"L"
336469,"2106 BAILEY AVE","MCKEESPORT","PA",15132,40.341838044,-79.850389196,469,"2106 BAILEY AVE, MCKEESPORT, PA, 15132","Match","Non_Exact","2106 BAILIE AVE, MCKEESPORT, PA, 15132",51814792,"R"
336470,"2106 BAILIE AVE","MCKEESPORT","PA",15132,40.341838044,-79.850389196,470,"2106 BAILIE AVE, MCKEESPORT, PA, 15132","Match","Exact","2106 BAILIE AVE, MCKEESPORT, PA, 15132",51814792,"R"
336471,"2106 BATHGATE AVENUE","BRONX","NY",10457,40.8512317220001,-73.8946922229999,471,"2106 BATHGATE AVENUE, BRONX, NY, 10457","Match","Exact","2106 BATHGATE AVE, BRONX, NY, 10457",80301135,"R"
336472,"2106 BELMONT ST","GARDEN CITY","KS",67846,37.9841648660001,-100.860196717,472,"2106 BELMONT ST, GARDEN CITY, KS, 67846","Match","Non_Exact","2106 BELMONT PL, GARDEN CITY, KS, 67846",145421324,"R"
336473,"2106 BELVEDERE","BAYTOWN","TX",77520,29.7442138930001,-94.9437834029999,473,"2106 BELVEDERE, BAYTOWN, TX, 77520","Match","Non_Exact","2106 BELVEDERE DR, BAYTOWN, TX, 77520",96111423,"L"
336474,"2106 BLUFF CIRCLE","SALADO","TX",76571,30.955546686,-97.514712194,474,"2106 BLUFF CIRCLE, SALADO, TX, 76571","Match","Exact","2106 BLUFF CIR, SALADO, TX, 76571",146172850,"L"
336475,"2106 BRAEWICK CIRCLE STE 202","AKRON","OH",44313,41.118467889,-81.587072473,475,"2106 BRAEWICK CIRCLE STE 202, AKRON, OH, 44313","Match","Exact","2106 BRAEWICK CIR, AKRON, OH, 44313",61386382,"L"
336476,"2106 BRASSEL CT","O'FALLON","MO",63368,38.7550966200001,-90.7084251479999,476,"2106 BRASSEL CT, O'FALLON, MO, 63368","Match","Non_Exact","2106 BRASSEL CT, O FALLON, MO, 63368",100064012,"R"
336477,"2106 BRIDGEWOOD DR","BOCA RATON","FL",33434,26.372484308,-80.163344561,477,"2106 BRIDGEWOOD DR, BOCA RATON, FL, 33434","Match","Exact","2106 BRIDGEWOOD DR, BOCA RATON, FL, 33434",648315935,"L"
336478,"2106 BRYANT AVENUE S NUMBER 1","MINNEAPOLIS","MN",55405,44.961758118,-93.290549561,478,"2106 BRYANT AVENUE S NUMBER 1, MINNEAPOLIS, MN, 55405","Match","Exact","2106 BRYANT AVE S, MINNEAPOLIS, MN, 55405",43624680,"R"
336479,"2106 BUECHEL BANK RD NO 58","LOUISVILLE","KY",40218,38.187430482,-85.6479320029999,479,"2106 BUECHEL BANK RD NO 58, LOUISVILLE, KY, 40218","Match","Non_Exact","2106 BUECHEL BANK RD, LOUISVILLE, KY, 40218",642504951,"R"
336480,"2106 BUTLER ST","LEESBURG","FL",34748,28.81157154,-81.897317846,480,"2106 BUTLER ST, LEESBURG, FL, 34748","Match","Exact","2106 BUTLER ST, LEESBURG, FL, 34748",94149093,"L"
336481,"2106 BUTLER","LESSBURG","FL",34748,28.81157154,-81.897317846,481,"2106 BUTLER, LESSBURG, FL, 34748","Match","Non_Exact","2106 BUTLER ST, LEESBURG, FL, 34748",94149093,"L"
336482,"2106 CAMDEN AVE","NEW CASTLE","PA",16101,40.9991424300001,-80.382144033,482,"2106 CAMDEN AVE, NEW CASTLE, PA, 16101","Match","Exact","2106 CAMDEN AVE, NEW CASTLE, PA, 16101",65169643,"R"
336483,"2106 CASTLEBURG DRIVE","APEX","NC",27523,35.76079029,-78.8655272999999,483,"2106 CASTLEBURG DRIVE, APEX, NC, 27523","Match","Exact","2106 CASTLEBURG DR, APEX, NC, 27523",208362705,"L"
336484,"2106 CAVALIER CROSSING","LITHONIA","GA",30038,33.6954068270001,-84.175005259,484,"2106 CAVALIER CROSSING, LITHONIA, GA, 30038","Match","Exact","2106 CAVALIER CROSSING, LITHONIA, GA, 30038",619387203,"L"
336485,"2106 CENTRAL PARKWAY","CINCINNATI","OH",45214,39.1200711120001,-84.5252541999999,485,"2106 CENTRAL PARKWAY, CINCINNATI, OH, 45214","Match","Exact","2106 CENTRAL PKWY, CINCINNATI, OH, 45214",103924736,"R"
336486,"2106 CHARRING CROSS","BRUNSWICK","GA",31525,31.2473428270001,-81.491678484,486,"2106 CHARRING CROSS, BRUNSWICK, GA, 31525","Match","Non_Exact","2106 CHARING CROSS, BRUNSWICK, GA, 31525",9147610,"L"
336487,"2106 CLUB PKWY","NASHVILLE","TN",37221,36.076037806,-86.9293723329999,487,"2106 CLUB PKWY, NASHVILLE, TN, 37221","Match","Exact","2106 CLUB PKWY, NASHVILLE, TN, 37221",97224282,"L"
336488,"2106 COLEY FOREST PLACE","RALEIGH","NC",27607,35.8168380760001,-78.676573677,488,"2106 COLEY FOREST PLACE, RALEIGH, NC, 27607","Match","Exact","2106 COLEY FOREST PL, RALEIGH, NC, 27607",72501590,"R"
336489,"2106 CREPE COURT","MITCHELLVILLE","MD",20721,38.9186542050001,-76.804973273,489,"2106 CREPE COURT, MITCHELLVILLE, MD, 20721","Match","Exact","2106 CREPE CT, MITCHELLVILLE, MD, 20721",76334066,"R"
336490,"2106 DEERWOOD COURT","PEARLAND","TX",77581,29.5707294690001,-95.274187078,490,"2106 DEERWOOD COURT, PEARLAND, TX, 77581","Match","Exact","2106 DEERWOOD CT, PEARLAND, TX, 77581",627722774,"R"
336491,"2106 DENHAM AVE","COLUMBIA","TN",38401,35.5963652880001,-87.041442713,491,"2106 DENHAM AVE, COLUMBIA, TN, 38401","Match","Exact","2106 DENHAM AVE, COLUMBIA, TN, 38401",639629988,"L"
336492,"2106 DOUGLASS BLVD","LOUISVILLE","KY",40205,38.2264153470001,-85.6903568989999,492,"2106 DOUGLASS BLVD, LOUISVILLE, KY, 40205","Match","Exact","2106 DOUGLASS BLVD, LOUISVILLE, KY, 40205",96852979,"R"
336493,"2106 DOVER ROAD","BENTONIA","MS",39040,32.699459023,-90.340929812,493,"2106 DOVER ROAD, BENTONIA, MS, 39040","Match","Exact","2106 DOVER RD, BENTONIA, MS, 39040",607747044,"L"
336494,"2106 DUPONT LANE","TUCKER","GA",30084,33.8536946290001,-84.205683476,494,"2106 DUPONT LANE, TUCKER, GA, 30084","Match","Exact","2106 DUPONT LN, TUCKER, GA, 30084",23400707,"L"
336495,"2106 E 23RD STREET","MUNCIE","IN",47302,40.1673955410001,-85.362282131,495,"2106 E 23RD STREET, MUNCIE, IN, 47302","Match","Exact","2106 E 23RD ST, MUNCIE, IN, 47302",30838757,"L"
336496,"2106 E 40 N","ST GEORGE","UT",84790,37.1090829020001,-113.538388082,496,"2106 E 40 N, ST GEORGE, UT, 84790","Match","Non_Exact","2106 E 40 N ST, SAINT GEORGE, UT, 84790",166181481,"L"
336497,"2106 E 44TH AVE","SPOKANE","WA",99203,47.6136263290001,-117.380397744,497,"2106 E 44TH AVE, SPOKANE, WA, 99203","Match","Exact","2106 E 44TH AVE, SPOKANE, WA, 99203",189883171,"R"
336498,"2106 E FRIERSON AVENUE","TAMPA","FL",33610,27.994243667,-82.435685198,498,"2106 E FRIERSON AVENUE, TAMPA, FL, 33610","Match","Exact","2106 E FRIERSON AVE, TAMPA, FL, 33610",104522679,"L"
336499,"2106 E VILLAGE LOOP","WASILLA","AK",99654,61.607485168,-149.397989737,499,"2106 E VILLAGE LOOP, WASILLA, AK, 99654","Match","Exact","2106 E VILLAGE LOOP, WASILLA, AK, 99654",191046220,"L"
336500,"2106 E WATSON DRIVE","TEMPE","AZ",85283,33.3670780420001,-111.897315004,500,"2106 E WATSON DRIVE, TEMPE, AZ, 85283","Match","Exact","2106 E WATSON DR, TEMPE, AZ, 85283",128281347,"L"
