"ID","Address","City","State","Zip","lat","long","id","input_address","match_indicator","match_type","matched_address","tiger_line_id","tiger_side"
378001,"231 W JEFFERSON BLVD","DALLAS","TX",75208,32.743117845,-96.8252580769999,1,"231 W JEFFERSON BLVD, DALLAS, TX, 75208","Match","Exact","231 W JEFFERSON BLVD, DALLAS, TX, 75208",102946269,"R"
378002,"231 W MINNESOTA AVE","DELAND","FL",32724,29.0354329250001,-81.306726472,2,"231 W MINNESOTA AVE, DELAND, FL, 32724","Match","Non_Exact","231 W MINNESOTA AVE, DELAND, FL, 32720",94510356,"R"
378003,"231 W OAK STREET","MAXWELL","CA",95955,39.2762653360001,-122.195127827,3,"231 W OAK STREET, MAXWELL, CA, 95955","Match","Exact","231 OAK ST, MAXWELL, CA, 95955",67130131,"R"
378004,"231 W SAN MATEO","SANTA FE","NM",87505,35.6632843720001,-105.947056551,4,"231 W SAN MATEO, SANTA FE, NM, 87505","Match","Non_Exact","231 W SAN MATEO RD, SANTA FE, NM, 87505",169378760,"R"
378005,"231 W STATE RD 130","VALPARAISO","IN",46385,41.492509023,-87.11242383,5,"231 W STATE RD 130, VALPARAISO, IN, 46385","Match","Exact","231 STATE RD 130, VALPARAISO, IN, 46385",119912675,"R"
378006,"231 W VERNON AVE NO 108","LOS ANGELES","CA",90037,NA,NA,6,"231 W VERNON AVE NO 108, LOS ANGELES, CA, 90037","No_Match",NA,NA,NA,NA
378007,"231 W WILLOW ST","CHICAGO","IL",60614,41.914142096,-87.635838531,7,"231 W WILLOW ST, CHICAGO, IL, 60614","Match","Exact","231 W WILLOW ST, CHICAGO, IL, 60614",639245976,"L"
378008,"231 W148 ST UNIT 4K","NEW YORK","NY",10039,NA,NA,8,"231 W148 ST UNIT 4K, NEW YORK, NY, 10039","No_Match",NA,NA,NA,NA
378009,"231 WALNUT STREET APT 309","JOHNSTOWN","PA",15901,40.3259469990001,-78.9223894739999,9,"231 WALNUT STREET APT 309, JOHNSTOWN, PA, 15901","Match","Exact","231 WALNUT ST, JOHNSTOWN, PA, 15901",50230352,"L"
378010,"231 WASHINGTON AVE","HAWTHORNE","NJ",7506,40.9498459160001,-74.150465599,10,"231 WASHINGTON AVE, HAWTHORNE, NJ, 7506","Match","Exact","231 WASHINGTON AVE, HAWTHORNE, NJ, 07506",65263709,"R"
378011,"231 WEAVER WOODS RD","SAXTON","PA",16678,NA,NA,11,"231 WEAVER WOODS RD, SAXTON, PA, 16678","No_Match",NA,NA,NA,NA
378012,"231 WELLWOOD LANE","CONROE","TX",77304,30.30474844,-95.492682972,12,"231 WELLWOOD LANE, CONROE, TX, 77304","Match","Exact","231 WELLWOOD LN, CONROE, TX, 77304",79280554,"L"
378013,"231 WEST 111TH STREET","CUT OFF","LA",70345,29.4775184370001,-90.325358339,13,"231 WEST 111TH STREET, CUT OFF, LA, 70345","Match","Exact","231 W 111TH ST, CUT OFF, LA, 70345",92317863,"R"
378014,"231 WEST 148TH STREET APT 1L","NEW YORK","NY",10039,40.8239742820001,-73.938624698,14,"231 WEST 148TH STREET APT 1L, NEW YORK, NY, 10039","Match","Exact","231 W 148TH ST, NEW YORK, NY, 10039",59656307,"R"
378015,"231 WEST 148TH STREET APT 2Q","NEW YORK","NY",10030,40.8239742820001,-73.938624698,15,"231 WEST 148TH STREET APT 2Q, NEW YORK, NY, 10030","Match","Non_Exact","231 W 148TH ST, NEW YORK, NY, 10039",59656307,"R"
378016,"231 WEST 21ST","NEW YORK","NY",10011,40.743221469,-73.9975321169999,16,"231 WEST 21ST, NEW YORK, NY, 10011","Match","Non_Exact","231 W 21ST ST, NEW YORK, NY, 10011",59653309,"R"
378017,"231 WEST 256TH STREET","BRONX","NY",10471,40.9032582200001,-73.8981567769999,17,"231 WEST 256TH STREET, BRONX, NY, 10471","Match","Exact","231 W 256TH ST, BRONX, NY, 10471",80309235,"L"
378018,"231 WEST 6TH STREET","POWELL","WY",82435,44.7595540470001,-108.763817528,18,"231 WEST 6TH STREET, POWELL, WY, 82435","Match","Exact","231 W SIXTH ST, POWELL, WY, 82435",637235896,"R"
378019,"231 WEST FAYETTE ST","CELINA","OH",45822,40.5480275050001,-84.5732467399999,19,"231 WEST FAYETTE ST, CELINA, OH, 45822","Match","Exact","231 W FAYETTE ST, CELINA, OH, 45822",43095002,"R"
378020,"231 WEST FRANKLIN STREET","BOUND BROOK","NJ",8805,40.565699178,-74.540303599,20,"231 WEST FRANKLIN STREET, BOUND BROOK, NJ, 8805","Match","Exact","231 W FRANKLIN ST, BOUND BROOK, NJ, 08805",59940475,"R"
378021,"231 WEST HIGH","ASHLEY","OH",43003,40.4093367790001,-82.960654209,21,"231 WEST HIGH, ASHLEY, OH, 43003","Match","Non_Exact","231 W HIGH ST, ASHLEY, OH, 43003",24583586,"L"
378022,"231 WEST JACKSON STREET","MENDON","MI",49072,42.0090858820001,-85.45191306,22,"231 WEST JACKSON STREET, MENDON, MI, 49072","Match","Non_Exact","231 JACKSON ST, MENDON, MI, 49072",15321428,"L"
378023,"231 WEST LOCUST STREET","DULUTH","MN",55811,NA,NA,23,"231 WEST LOCUST STREET, DULUTH, MN, 55811","Tie",NA,NA,NA,NA
378024,"231 WEST MATSON AVENUE","SYRACUSE","NY",13205,43.0131638610001,-76.145622545,24,"231 WEST MATSON AVENUE, SYRACUSE, NY, 13205","Match","Exact","231 W MATSON AVE, SYRACUSE, NY, 13205",46572026,"L"
378025,"231 WEST PARKWOOD RD","DECATUR","GA",30030,33.7679768130001,-84.3132944119999,25,"231 WEST PARKWOOD RD, DECATUR, GA, 30030","Match","Exact","231 W PARKWOOD RD, DECATUR, GA, 30030",632649662,"R"
378026,"231 WEST SECOND STREET","CLARKSDALE","MS",38614,34.2010794880001,-90.58236275,26,"231 WEST SECOND STREET, CLARKSDALE, MS, 38614","Match","Exact","231 W 2ND ST, CLARKSDALE, MS, 38614",951148,"L"
378027,"231 WEST ST","LEAVENWORTH","WA",98826,47.595144974,-120.672388883,27,"231 WEST ST, LEAVENWORTH, WA, 98826","Match","Exact","231 WEST ST, LEAVENWORTH, WA, 98826",156968924,"L"
378028,"231 WEST STREET - APT 1S","HACKENSACK","NJ",7606,40.871723967,-74.050941611,28,"231 WEST STREET - APT 1S, HACKENSACK, NJ, 7606","Match","Non_Exact","231 WEST ST, S HACKENSACK, NJ, 07606",64393596,"R"
378029,"231 WEST STREET","ONEONTA","NY",13820,42.4695624340001,-75.0681896149999,29,"231 WEST STREET, ONEONTA, NY, 13820","Match","Exact","231 WEST ST, ONEONTA, NY, 13820",649861187,"L"
378030,"231 WEST WHITE HORSE PIKE","BERLIN","NJ",8009,39.804084629,-74.95482247,30,"231 WEST WHITE HORSE PIKE, BERLIN, NJ, 8009","Match","Exact","231 W WHITE HORSE PIKE, BERLIN, NJ, 08009",134417867,"L"
378031,"231 WEST WISCONSIN APT 1401","MILWAUKEE","WI",53203,43.0387325130001,-87.913551571,31,"231 WEST WISCONSIN APT 1401, MILWAUKEE, WI, 53203","Match","Non_Exact","231 W WISCONSIN AVE, MILWAUKEE, WI, 53203",77741931,"L"
378032,"231 WESTERN AVE","HIGHWOOD","IL",60040,42.2005125590001,-87.817939558,32,"231 WESTERN AVE, HIGHWOOD, IL, 60040","Match","Exact","231 WESTERN AVE, HIGHWOOD, IL, 60040",119648153,"R"
378033,"231 WESTON ROAD","WELLESLEY","MA",2482,42.3008065820001,-71.305172418,33,"231 WESTON ROAD, WELLESLEY, MA, 2482","Match","Exact","231 WESTON RD, WELLESLEY, MA, 02482",87291001,"R"
378034,"231 WESTON WOODS ROAD","INEZ","TX",77901,28.889208124,-96.766552012,34,"231 WESTON WOODS ROAD, INEZ, TX, 77901","Match","Non_Exact","231 WESTON WOODS RD, INEZ, TX, 77968",652134680,"L"
378035,"231 WHATLEY AVENUE","WHISTLER","AL",36612,30.756597379,-88.1061128429999,35,"231 WHATLEY AVENUE, WHISTLER, AL, 36612","Match","Exact","231 WHATLEY AVE, WHISTLER, AL, 36612",61926785,"L"
378036,"231 WILD TURKEY DR","MINERAL","VA",23117,NA,NA,36,"231 WILD TURKEY DR, MINERAL, VA, 23117","No_Match",NA,NA,NA,NA
378037,"231 WILLIAMS ST","WOODLAND","CA",95695,38.680985799,-121.791448112,37,"231 WILLIAMS ST, WOODLAND, CA, 95695","Match","Exact","231 WILLIAMS ST, WOODLAND, CA, 95695",67689413,"L"
378038,"231 WILLISTON DRIVE","HUNTSVILLE","AL",35806,34.77707423,-86.683745196,38,"231 WILLISTON DRIVE, HUNTSVILLE, AL, 35806","Match","Exact","231 WILLISTON DR, HUNTSVILLE, AL, 35806",58154198,"L"
378039,"231 WILSHIRE STREET","JACKSON","MS",39206,32.3513809180001,-90.180256347,39,"231 WILSHIRE STREET, JACKSON, MS, 39206","Match","Non_Exact","231 WILSHIRE AVE, JACKSON, MS, 39206",65370418,"L"
378040,"231 WIND WISPER DRIVE","ASHEVILLE","NC",28804,35.645697694,-82.587294481,40,"231 WIND WISPER DRIVE, ASHEVILLE, NC, 28804","Match","Non_Exact","231 WINDWHISPER DR, ASHEVILLE, NC, 28804",607728533,"R"
378041,"231 WINDSOR GARDEN DRIVE","ENTERPRISE","AL",36330,31.35910248,-85.854879055,41,"231 WINDSOR GARDEN DRIVE, ENTERPRISE, AL, 36330","Match","Exact","231 WINDSOR GARDEN DR, ENTERPRISE, AL, 36330",99556908,"L"
378042,"231 WINIFRED DR","HANOVER","PA",17331,NA,NA,42,"231 WINIFRED DR, HANOVER, PA, 17331","No_Match",NA,NA,NA,NA
378043,"231 WOLF LANE","RICHMOND","VT",5477,44.3975530210001,-73.036486662,43,"231 WOLF LANE, RICHMOND, VT, 5477","Match","Exact","231 WOLF LN, RICHMOND, VT, 05477",634262880,"L"
378044,"231 WOLGEMUTH DRIVE","LANCASTER","PA",17602,40.0161803980001,-76.239596631,44,"231 WOLGEMUTH DRIVE, LANCASTER, PA, 17602","Match","Exact","231 WOLGEMUTH DR, LANCASTER, PA, 17602",179696126,"L"
378045,"231 WOODWARD AVE","STATEN ISLAND","NY",10306,40.604917164,-74.142990803,45,"231 WOODWARD AVE, STATEN ISLAND, NY, 10306","Match","Non_Exact","231 WOODWARD AVE, STATEN ISLAND, NY, 10314",647704693,"L"
378046,"231 WYOMING AVE","MAPLEWOOD","NJ",7040,40.7380204230001,-74.28307833,46,"231 WYOMING AVE, MAPLEWOOD, NJ, 7040","Match","Exact","231 WYOMING AVE, MAPLEWOOD, NJ, 07040",63462140,"R"
378047,"231 YALE BLVD","GLENN HEIGHTS","TX",75154,32.562078553,-96.862173452,47,"231 YALE BLVD, GLENN HEIGHTS, TX, 75154","Match","Exact","231 YALE BLVD, GLENN HEIGHTS, TX, 75154",103005610,"L"
378048,"231-08 MENTON AVENUE","LAURELTON","NY",11413,NA,NA,48,"231-08 MENTON AVENUE, LAURELTON, NY, 11413","No_Match",NA,NA,NA,NA
378049,"231-15 148 AVE","SPRINGFIELD GARDENS","NY",11413,40.6556850520001,-73.751160124,49,"231-15 148 AVE, SPRINGFIELD GARDENS, NY, 11413","Match","Exact","231-15 148TH AVE, SPRINGFIELD GARDENS, NY, 11413",59721397,"L"
378050,"231-28 MERRICK","LAURELTON","NY",11413,40.67546932,-73.738545889,50,"231-28 MERRICK, LAURELTON, NY, 11413","Match","Non_Exact","231 MERRICK BLVD, LAURELTON, NY, 11413",59721543,"R"
378051,"231","CHATTANOOGA","TN",37406,NA,NA,51,"231, CHATTANOOGA, TN, 37406","No_Match",NA,NA,NA,NA
378052,"231","PRINCETON","KY",42445,NA,NA,52,"231, PRINCETON, KY, 42445","No_Match",NA,NA,NA,NA
378053,"2310  12TH  STREET","VERNON","TX",76384,34.147248516,-99.3023280959999,53,"2310  12TH  STREET, VERNON, TX, 76384","Match","Exact","2310 12TH ST, VERNON, TX, 76384",183240549,"L"
378054,"2310 105TH ST","LUBBOCK","TX",79423,NA,NA,54,"2310 105TH ST, LUBBOCK, TX, 79423","No_Match",NA,NA,NA,NA
378055,"2310 126TH DRIVE","EAST PARRISH","FL",34219,27.5329594940001,-82.4161984249999,55,"2310 126TH DRIVE, EAST PARRISH, FL, 34219","Match","Non_Exact","2310 126TH DR E, PARRISH, FL, 34219",624335593,"R"
378056,"2310 143 STREET FIRST FLOOR","WHITESTONE","NY",11357,NA,NA,56,"2310 143 STREET FIRST FLOOR, WHITESTONE, NY, 11357","No_Match",NA,NA,NA,NA
378057,"2310 14TH AVE UNIT 10","KENOSHA","WI",53140,42.6166603,-87.8265632489999,57,"2310 14TH AVE UNIT 10, KENOSHA, WI, 53140","Match","Exact","2310 14TH AVE, KENOSHA, WI, 53140",79819448,"L"
378058,"2310 240TH AVE","TRACY","MN",56175,44.1816649040001,-95.5823036039999,58,"2310 240TH AVE, TRACY, MN, 56175","Match","Exact","2310 240TH AVE, TRACY, MN, 56175",608307732,"R"
378059,"2310 27TH AVE S","MINNEAPOLIS","MN",55406,44.9598047740001,-93.233032671,59,"2310 27TH AVE S, MINNEAPOLIS, MN, 55406","Match","Exact","2310 27TH AVE S, MINNEAPOLIS, MN, 55406",646647364,"R"
378060,"2310 27TH STREET SOUTH","ST PETERSBURG","FL",33712,27.747391109,-82.670284768,60,"2310 27TH STREET SOUTH, ST PETERSBURG, FL, 33712","Match","Exact","2310 27TH ST S, SAINT PETERSBURG, FL, 33712",124710023,"L"
378061,"2310 29TH AVENUE","SAN FRANCISCO","CA",94116,37.7441383730001,-122.486504692,61,"2310 29TH AVENUE, SAN FRANCISCO, CA, 94116","Match","Exact","2310 29TH AVE, SAN FRANCISCO, CA, 94116",192278006,"L"
378062,"2310 29TH STREET","SANTA MONICA","CA",90405,34.0234516100001,-118.458281469,62,"2310 29TH STREET, SANTA MONICA, CA, 90405","Match","Exact","2310 29TH ST, SANTA MONICA, CA, 90405",141568577,"R"
378063,"2310 40TH AVE SE","ROCHESTER","MN",55904,43.9882075890001,-92.398843992,63,"2310 40TH AVE SE, ROCHESTER, MN, 55904","Match","Exact","2310 40TH AVE SE, ROCHESTER, MN, 55904",646380675,"L"
378064,"2310 6TH AVE SW","ALTOONA","IA",50009,41.6294699220001,-93.471090486,64,"2310 6TH AVE SW, ALTOONA, IA, 50009","Match","Exact","2310 6TH AVE SW, ALTOONA, IA, 50009",65865036,"R"
378065,"2310 A GUERNEVILLE RD","SANTA ROSA","CA",95403,38.4525038510001,-122.761483373,65,"2310 A GUERNEVILLE RD, SANTA ROSA, CA, 95403","Match","Exact","2310 GUERNEVILLE RD, SANTA ROSA, CA, 95403",627923350,"L"
378066,"2310 ABALONE AVE","INDIALANTIC","FL",32903,28.1160660260001,-80.580827808,66,"2310 ABALONE AVE, INDIALANTIC, FL, 32903","Match","Exact","2310 ABALONE AVE, INDIALANTIC, FL, 32903",93905945,"R"
378067,"2310 ABERDEEN STREET","DOTHAN","AL",36301,31.197881206,-85.383309974,67,"2310 ABERDEEN STREET, DOTHAN, AL, 36301","Match","Non_Exact","2310 ABERDEEN RD, DOTHAN, AL, 36301",101216123,"R"
378068,"2310 ADLER CREEK LN","FALLBROOK","CA",92028,33.34031659,-117.20863174,68,"2310 ADLER CREEK LN, FALLBROOK, CA, 92028","Match","Exact","2310 ADLER CREEK LN, FALLBROOK, CA, 92028",195442040,"R"
378069,"2310 AIRLINE DR","BRENHAM","TX",77833,30.145650231,-96.3954284169999,69,"2310 AIRLINE DR, BRENHAM, TX, 77833","Match","Exact","2310 AIRLINE DR, BRENHAM, TX, 77833",39235327,"L"
378070,"2310 ALFRED DRIVE APT B","YEADON","PA",19050,39.921399136,-75.249944661,70,"2310 ALFRED DRIVE APT B, YEADON, PA, 19050","Match","Exact","2310 ALFRED DR, YEADON, PA, 19050",616270083,"R"
378071,"2310 ALTISMA WAY 129","CARLSBAD","CA",92009,33.0956282330001,-117.256978731,71,"2310 ALTISMA WAY 129, CARLSBAD, CA, 92009","Match","Exact","2310 ALTISMA WAY, CARLSBAD, CA, 92009",195707256,"L"
378072,"2310 ATKINS RD","FENNVILLE","MI",49408,42.5855784890001,-86.1222299739999,72,"2310 ATKINS RD, FENNVILLE, MI, 49408","Match","Exact","2310 ATKINS RD, FENNVILLE, MI, 49408",11430930,"L"
378073,"2310 ATKINSEN STREET","AMARILLO","TX",79106,35.1880583390001,-101.900046274,73,"2310 ATKINSEN STREET, AMARILLO, TX, 79106","Match","Exact","2310 ATKINSEN ST, AMARILLO, TX, 79106",182468930,"R"
378074,"2310 AVALON ST","BEAUMONT","TX",77707,30.053850423,-94.187324276,74,"2310 AVALON ST, BEAUMONT, TX, 77707","Match","Exact","2310 AVALON ST, BEAUMONT, TX, 77707",73881488,"R"
378075,"2310 AVENUE L","BROOKLYN","NY",11210,40.6212793880001,-73.952447642,75,"2310 AVENUE L, BROOKLYN, NY, 11210","Match","Exact","2310 AVE L, BROOKLYN, NY, 11210",59089954,"R"
378076,"2310 BALBOA VISTA DRIVE","SAN DIEGO","CA",92105,32.7298977250001,-117.075869562,76,"2310 BALBOA VISTA DRIVE, SAN DIEGO, CA, 92105","Match","Exact","2310 BALBOA VISTA DR, SAN DIEGO, CA, 92105",612892091,"L"
378077,"2310 BARKWOOD DR","CEDAR FALLS","IA",50613,42.4898494340001,-92.472480564,77,"2310 BARKWOOD DR, CEDAR FALLS, IA, 50613","Match","Exact","2310 BARKWOOD DR, CEDAR FALLS, IA, 50613",212730044,"L"
378078,"2310 BEACH STREET","OCEANO","CA",93445,35.099134717,-120.605382726,78,"2310 BEACH STREET, OCEANO, CA, 93445","Match","Exact","2310 BEACH ST, OCEANO, CA, 93445",109742319,"R"
378079,"2310 BELIZE DR","EVANSVILLE","IN",47725,38.0649140520001,-87.51986512,79,"2310 BELIZE DR, EVANSVILLE, IN, 47725","Match","Exact","2310 BELIZE DR, EVANSVILLE, IN, 47725",618464681,"L"
378080,"2310 BELMONT DR","REIDSVILLE","NC",27320,36.3294442700001,-79.685978779,80,"2310 BELMONT DR, REIDSVILLE, NC, 27320","Match","Exact","2310 BELMONT DR, REIDSVILLE, NC, 27320",636564696,"L"
378081,"2310 BENEDICT LANE","SHELBY TOWNSHIP","MI",48316,42.6865789450001,-83.089956419,81,"2310 BENEDICT LANE, SHELBY TOWNSHIP, MI, 48316","Match","Exact","2310 BENEDICT LN, SHELBY TOWNSHIP, MI, 48316",110656228,"R"
378082,"2310 BERRY RD","HOUSTON","TX",77093,29.837715083,-95.349303734,82,"2310 BERRY RD, HOUSTON, TX, 77093","Match","Exact","2310 BERRY RD, HOUSTON, TX, 77093",96058564,"R"
378083,"2310 BLODGETT ST","HOUSTON","TX",77004,29.7255233830001,-95.373216618,83,"2310 BLODGETT ST, HOUSTON, TX, 77004","Match","Exact","2310 BLODGETT ST, HOUSTON, TX, 77004",96071412,"R"
378084,"2310 BOB BILLINGS","LAWRENCE","KS",66049,NA,NA,84,"2310 BOB BILLINGS, LAWRENCE, KS, 66049","No_Match",NA,NA,NA,NA
378085,"2310 BOTSFORD","HAMTRAMCK","MI",48212,42.4032836060001,-83.068056978,85,"2310 BOTSFORD, HAMTRAMCK, MI, 48212","Match","Non_Exact","2310 BOTSFORD ST, HAMTRAMCK, MI, 48212",95464900,"R"
378086,"2310 BOUGHTON DRIVE","AKRON","OH",44320,41.1007053880001,-81.601188585,86,"2310 BOUGHTON DRIVE, AKRON, OH, 44320","Match","Exact","2310 BOUGHTON DR, AKRON, OH, 44320",61337787,"L"
378087,"2310 BRIARBROOK DR","HOUSTON","TX",77042,29.7407731010001,-95.55156747,87,"2310 BRIARBROOK DR, HOUSTON, TX, 77042","Match","Exact","2310 BRIARBROOK DR, HOUSTON, TX, 77042",96024017,"R"
378088,"2310 BRIARCLIFF AVE","ST JOSEPH","MO",64503,39.7445909680001,-94.777077522,88,"2310 BRIARCLIFF AVE, ST JOSEPH, MO, 64503","Match","Exact","2310 BRIARCLIFF AVE, SAINT JOSEPH, MO, 64503",15955761,"R"
378089,"2310 BRIDGESTONE ST","SPEARFISH","SD",57783,44.471540847,-103.820951237,89,"2310 BRIDGESTONE ST, SPEARFISH, SD, 57783","Match","Exact","2310 BRIDGESTONE ST, SPEARFISH, SD, 57783",624681550,"R"
378090,"2310 BRIGHT MEADOWS DR","MISSOURI CITY","TX",77489,29.5874837690001,-95.5382120089999,90,"2310 BRIGHT MEADOWS DR, MISSOURI CITY, TX, 77489","Match","Exact","2310 BRIGHT MEADOWS DR, MISSOURI CITY, TX, 77489",78270896,"L"
378091,"2310 BROOKLYN RD","JACKSON","MI",49203,42.219332873,-84.382733932,91,"2310 BROOKLYN RD, JACKSON, MI, 49203","Match","Exact","2310 BROOKLYN RD, JACKSON, MI, 49203",653388120,"R"
378092,"2310 BROOKLYN ROAD","JACKSON","MI",49203,42.219332873,-84.382733932,92,"2310 BROOKLYN ROAD, JACKSON, MI, 49203","Match","Exact","2310 BROOKLYN RD, JACKSON, MI, 49203",653388120,"R"
378093,"2310 BROUSSARD AVE","LUFKIN","TX",75901,31.355843576,-94.709524922,93,"2310 BROUSSARD AVE, LUFKIN, TX, 75901","Match","Exact","2310 BROUSSARD AVE, LUFKIN, TX, 75901",23839812,"R"
378094,"2310 BUENA VISTA RD","WINSTON-SALEM","NC",27104,36.105059957,-80.279703925,94,"2310 BUENA VISTA RD, WINSTON-SALEM, NC, 27104","Match","Exact","2310 BUENA VISTA RD, WINSTON SALEM, NC, 27104",84608057,"L"
378095,"2310 BUTTERMILK CROSSING STE 1001","CRESCENT SPRINGS","KY",41017,39.05556856,-84.586591463,95,"2310 BUTTERMILK CROSSING STE 1001, CRESCENT SPRINGS, KY, 41017","Match","Non_Exact","2310 BUTTERMILK PIKE, CRESCENT SPGS, KY, 41017",103873104,"R"
378096,"2310 CARINGA WAY","CARLSBAD","CA",92009,33.0954877950001,-117.258193564,96,"2310 CARINGA WAY, CARLSBAD, CA, 92009","Match","Exact","2310 CARINGA WAY, CARLSBAD, CA, 92009",195707253,"L"
378097,"2310 CASSIDY DR","BETHEL PARK","PA",15102,40.3504780550001,-80.036505332,97,"2310 CASSIDY DR, BETHEL PARK, PA, 15102","Match","Exact","2310 CASSIDY DR, BETHEL PARK, PA, 15102",51633133,"R"
378098,"2310 CHARLESTON POINTE SE","ATLANTA","GA",30316,33.721587819,-84.324676208,98,"2310 CHARLESTON POINTE SE, ATLANTA, GA, 30316","Match","Exact","2310 CHARLESTON POINTE SE, ATLANTA, GA, 30316",23403956,"L"
378099,"2310 CLAY STREET","CEDAR FALLS","IA",50613,42.5167386040001,-92.448126305,99,"2310 CLAY STREET, CEDAR FALLS, IA, 50613","Match","Exact","2310 CLAY ST, CEDAR FALLS, IA, 50613",77248859,"L"
378100,"2310 CLUB CREEK COURT","GARLAND","TX",75043,32.873438897,-96.5965568,100,"2310 CLUB CREEK COURT, GARLAND, TX, 75043","Match","Exact","2310 CLUB CREEK CT, GARLAND, TX, 75043",102979622,"R"
378101,"2310 COACH WAY","JONESBORO","GA",30236,33.556096772,-84.314435862,101,"2310 COACH WAY, JONESBORO, GA, 30236","Match","Exact","2310 COACH WAY, JONESBORO, GA, 30236",627231212,"R"
378102,"2310 COLLEGE STREET SE","DECATUR","AL",35601,34.5806476610001,-86.9528070809999,102,"2310 COLLEGE STREET SE, DECATUR, AL, 35601","Match","Exact","2310 COLLEGE ST SE, DECATUR, AL, 35601",97141097,"L"
378103,"2310 COUNTY ROAD 246","MOULTON","AL",35650,34.567855691,-87.323267538,103,"2310 COUNTY ROAD 246, MOULTON, AL, 35650","Match","Exact","2310 CO RD 246, MOULTON, AL, 35650",41396569,"R"
378104,"2310 CREEK DRIVE","ALEXANDRIA","VA",22308,38.7170397730001,-77.070694918,104,"2310 CREEK DRIVE, ALEXANDRIA, VA, 22308","Match","Exact","2310 CREEK DR, ALEXANDRIA, VA, 22308",76021510,"R"
378105,"2310 CRENSHAW BLVD APT 1","LOS ANGELES","CA",90016,34.0365629030001,-118.332881797,105,"2310 CRENSHAW BLVD APT 1, LOS ANGELES, CA, 90016","Match","Exact","2310 CRENSHAW BLVD, LOS ANGELES, CA, 90016",638619177,"L"
378106,"2310 CRESCENT CREEK DRIVE APT 102","RALEIGH","NC",27606,35.7682077910001,-78.693048403,106,"2310 CRESCENT CREEK DRIVE APT 102, RALEIGH, NC, 27606","Match","Exact","2310 CRESCENT CREEK DR, RALEIGH, NC, 27606",612817025,"R"
378107,"2310 CRESTON AVE APT 1F","BRONX","NY",10468,40.858198106,-73.9006688859999,107,"2310 CRESTON AVE APT 1F, BRONX, NY, 10468","Match","Exact","2310 CRESTON AVE, BRONX, NY, 10468",80298749,"R"
378108,"2310 DAKOTA ROCK DR","RUSKIN","FL",33570,27.6925610710001,-82.423608802,108,"2310 DAKOTA ROCK DR, RUSKIN, FL, 33570","Match","Exact","2310 DAKOTA ROCK DR, RUSKIN, FL, 33570",625641001,"L"
378109,"2310 DEERFIELD CHASE","CONYERS","GA",30013,33.626066451,-83.9906410199999,109,"2310 DEERFIELD CHASE, CONYERS, GA, 30013","Match","Non_Exact","2310 DEERFIELD CHASE SE, CONYERS, GA, 30013",23745633,"R"
378110,"2310 DORCHESTER DRIVE","BARTLESVILLE","OK",74006,36.7058371430001,-95.952314553,110,"2310 DORCHESTER DRIVE, BARTLESVILLE, OK, 74006","Match","Exact","2310 DORCHESTER DR, BARTLESVILLE, OK, 74006",18707811,"L"
378111,"2310 E 103RD STREET","CHICAGO","IL",60617,41.708056905,-87.567929361,111,"2310 E 103RD STREET, CHICAGO, IL, 60617","Match","Exact","2310 E 103RD ST, CHICAGO, IL, 60617",111777205,"L"
378112,"2310 E 11 MILE ROAD","ROYAL OAK","MI",48067,42.4905251480001,-83.117670144,112,"2310 E 11 MILE ROAD, ROYAL OAK, MI, 48067","Match","Exact","2310 E 11 MILE RD, ROYAL OAK, MI, 48067",69746866,"R"
378113,"2310 E ATLANTIC BLDG STE 208","POMPANO BEACH","FL",33062,NA,NA,113,"2310 E ATLANTIC BLDG STE 208, POMPANO BEACH, FL, 33062","No_Match",NA,NA,NA,NA
378114,"2310 E ATLANTIC BLVD STE 202","POMPANO BEACH","FL",33062,26.2317228370001,-80.100746086,114,"2310 E ATLANTIC BLVD STE 202, POMPANO BEACH, FL, 33062","Match","Non_Exact","2310 E ATLANTIC BLVD, POMPANO BEACH, FL, 33062",637073058,"R"
378115,"2310 E BALTIMORE STREET","BALTIMORE","MD",21224,39.2919221070001,-76.5842190549999,115,"2310 E BALTIMORE STREET, BALTIMORE, MD, 21224","Match","Exact","2310 E BALTIMORE ST, BALTIMORE, MD, 21224",206424775,"L"
378116,"2310 E FOX ST","MESA","AZ",85213,33.4361630830001,-111.780975069,116,"2310 E FOX ST, MESA, AZ, 85213","Match","Exact","2310 E FOX ST, MESA, AZ, 85213",128244998,"L"
378117,"2310 E FOX ST","MESA","IA",85213,NA,NA,117,"2310 E FOX ST, MESA, IA, 85213","No_Match",NA,NA,NA,NA
378118,"2310 E GARFIELD ST APT A6","LARAMIE","WY",82070,41.308454925,-105.563270256,118,"2310 E GARFIELD ST APT A6, LARAMIE, WY, 82070","Match","Non_Exact","2310 E GARFIELD ST, LARAMIE, WY, 82070",168740395,"L"
378119,"2310 E HOWARD ROAD","OBETZ","OH",43207,39.876776815,-82.939259683,119,"2310 E HOWARD ROAD, OBETZ, OH, 43207","Match","Exact","2310 E HOWARD RD, OBETZ, OH, 43207",135596231,"L"
378120,"2310 E IMPERIAL HWY","EL SEGUNDO","CA",90245,33.9308904740001,-118.38263348,120,"2310 E IMPERIAL HWY, EL SEGUNDO, CA, 90245","Match","Exact","2310 E IMPERIAL HWY, EL SEGUNDO, CA, 90245",642869495,"L"
378121,"2310 E PETER ST","APPLETON","WI",54915,44.262241535,-88.3715898569999,121,"2310 E PETER ST, APPLETON, WI, 54915","Match","Exact","2310 E PETER ST, APPLETON, WI, 54915",74921030,"L"
378122,"2310 E PONTIAC ST","FORT WAYNE","IN",46803,41.0611572920001,-85.107509776,122,"2310 E PONTIAC ST, FORT WAYNE, IN, 46803","Match","Exact","2310 E PONTIAC ST, FORT WAYNE, IN, 46803",652681966,"R"
378123,"2310 E WOOD STREET","PHOENIX","AZ",85040,33.408639384,-112.031522603,123,"2310 E WOOD STREET, PHOENIX, AZ, 85040","Match","Exact","2310 E WOOD ST, PHOENIX, AZ, 85040",128215984,"L"
378124,"2310 EASTBROOK","TOLEDO","OH",43613,41.6934492890001,-83.599376905,124,"2310 EASTBROOK, TOLEDO, OH, 43613","Match","Non_Exact","2310 EASTBROOK DR, TOLEDO, OH, 43613",33933215,"R"
378125,"2310 ELIZABETH AVEUNE","SHELBY NC","NC",28150,NA,NA,125,"2310 ELIZABETH AVEUNE, SHELBY NC, NC, 28150","No_Match",NA,NA,NA,NA
378126,"2310 ELLIOTT AVE UNIT 131","NASHVILLE",NA,NA,NA,NA,126,"2310 ELLIOTT AVE UNIT 131, NASHVILLE, , ","No_Match",NA,NA,NA,NA
378127,"2310 ELLIOTT AVE UNIT 131","NASHVILLE","TN",37204,NA,NA,127,"2310 ELLIOTT AVE UNIT 131, NASHVILLE, TN, 37204","No_Match",NA,NA,NA,NA
378128,"2310 FAIRFIELD WAY","UPLAND","CA",91784,34.147323295,-117.677961921,128,"2310 FAIRFIELD WAY, UPLAND, CA, 91784","Match","Exact","2310 FAIRFIELD WAY, UPLAND, CA, 91784",144696032,"L"
378129,"2310 FERNWOOD DR","GREENSBORO","NC",27408,36.0996226990001,-79.820535164,129,"2310 FERNWOOD DR, GREENSBORO, NC, 27408","Match","Exact","2310 FERNWOOD DR, GREENSBORO, NC, 27408",131030466,"R"
378130,"2310 FRANCIS ST","SOUTH ST PAUL","MN",55075,44.887600664,-93.063051552,130,"2310 FRANCIS ST, SOUTH ST PAUL, MN, 55075","Match","Exact","2310 FRANCIS ST, SOUTH SAINT PAUL, MN, 55075",37916857,"R"
378131,"2310 FRANCIS STREET","SOUTH ST PAUL","MN",55075,44.887600664,-93.063051552,131,"2310 FRANCIS STREET, SOUTH ST PAUL, MN, 55075","Match","Exact","2310 FRANCIS ST, SOUTH SAINT PAUL, MN, 55075",37916857,"R"
378132,"2310 FRANKLIN TURNPIKE","DANVILLE","VA",24540,36.6529904160001,-79.408423467,132,"2310 FRANKLIN TURNPIKE, DANVILLE, VA, 24540","Match","Exact","2310 FRANKLIN TPKE, DANVILLE, VA, 24540",56626798,"R"
378133,"2310 FREEDOM ST","HOLLYWOOD","FL",33020,NA,NA,133,"2310 FREEDOM ST, HOLLYWOOD, FL, 33020","No_Match",NA,NA,NA,NA
378134,"2310 FRONT ROYAL COURT","DUNWOODY","GA",30338,NA,NA,134,"2310 FRONT ROYAL COURT, DUNWOODY, GA, 30338","No_Match",NA,NA,NA,NA
378135,"2310 GALLIHAR RD","CORPUS CHRISTI","TX",78415,27.746164718,-97.423245201,135,"2310 GALLIHAR RD, CORPUS CHRISTI, TX, 78415","Match","Non_Exact","2310 GOLLIHAR RD, CORPUS CHRISTI, TX, 78415",637964435,"L"
378136,"2310 GOLF VIEW DRIVE","RIVER FALLS","WI",54022,44.860969165,-92.598078502,136,"2310 GOLF VIEW DRIVE, RIVER FALLS, WI, 54022","Match","Exact","2310 GOLF VIEW DR, RIVER FALLS, WI, 54022",95869412,"R"
378137,"2310 GOLLIHAR RD","CORPUS CHRISTI","TX",78415,27.746164718,-97.423245201,137,"2310 GOLLIHAR RD, CORPUS CHRISTI, TX, 78415","Match","Exact","2310 GOLLIHAR RD, CORPUS CHRISTI, TX, 78415",637964435,"L"
378138,"2310 GREEN FOREST DR","CHATTANOOGA","TN",37406,35.057945938,-85.232693446,138,"2310 GREEN FOREST DR, CHATTANOOGA, TN, 37406","Match","Exact","2310 GREEN FOREST DR, CHATTANOOGA, TN, 37406",59310732,"L"
378139,"2310 GREEN FOREST DRIVE","CHATTANOOGA","TN",37406,35.057945938,-85.232693446,139,"2310 GREEN FOREST DRIVE, CHATTANOOGA, TN, 37406","Match","Exact","2310 GREEN FOREST DR, CHATTANOOGA, TN, 37406",59310732,"L"
378140,"2310 GREENGATE DR","AUGUSTA","GA",30907,33.502471563,-82.078683828,140,"2310 GREENGATE DR, AUGUSTA, GA, 30907","Match","Exact","2310 GREENGATE DR, AUGUSTA, GA, 30907",55633282,"R"
378141,"2310 GREENWOOD DRIVE","LINDENWOLD","NJ",8021,39.8110629500001,-75.017964417,141,"2310 GREENWOOD DRIVE, LINDENWOLD, NJ, 8021","Match","Exact","2310 GREENWOOD DR, LINDENWOLD, NJ, 08021",134420256,"L"
378142,"2310 GRIMSLEY TERRACE","MANSFIELD","TX",76063,32.597022995,-97.100297699,142,"2310 GRIMSLEY TERRACE, MANSFIELD, TX, 76063","Match","Exact","2310 GRIMSLEY TER, MANSFIELD, TX, 76063",101950696,"R"
378143,"2310 HAMILTON AVE","LORAIN","OH",44052,41.448557297,-82.182304143,143,"2310 HAMILTON AVE, LORAIN, OH, 44052","Match","Exact","2310 HAMILTON AVE, LORAIN, OH, 44052",55404559,"R"
378144,"2310 HARVIE RD","RICHMOND","VA",23223,37.5700215530001,-77.3986203699999,144,"2310 HARVIE RD, RICHMOND, VA, 23223","Match","Exact","2310 HARVIE RD, RICHMOND, VA, 23223",106678451,"L"
378145,"2310 HAVERHILL DR","TYLER","TX",75707,32.3261302490001,-95.248658156,145,"2310 HAVERHILL DR, TYLER, TX, 75707","Match","Exact","2310 HAVERHILL DR, TYLER, TX, 75707",641510401,"L"
378146,"2310 HAVERHILL DRIVE","TYLER","TX",75707,32.3261302490001,-95.248658156,146,"2310 HAVERHILL DRIVE, TYLER, TX, 75707","Match","Exact","2310 HAVERHILL DR, TYLER, TX, 75707",641510401,"L"
378147,"2310 HIS WAY","LAWRENCEVILLE","GA",30044,33.9552616290001,-84.072399483,147,"2310 HIS WAY, LAWRENCEVILLE, GA, 30044","Match","Exact","2310 HIS WAY, LAWRENCEVILLE, GA, 30044",88900878,"L"
378148,"2310 HOLBROOK AVE","CAIRO","IL",62914,37.0048836290001,-89.1830253099999,148,"2310 HOLBROOK AVE, CAIRO, IL, 62914","Match","Exact","2310 HOLBROOK AVE, CAIRO, IL, 62914",66119438,"R"
378149,"2310 HOMESTEAD ROAD  STE C1   635","LOS ALTOS","CA",94024,37.337887289,-122.067590445,149,"2310 HOMESTEAD ROAD  STE C1   635, LOS ALTOS, CA, 94024","Match","Exact","2310 HOMESTEAD RD, LOS ALTOS, CA, 94024",648995966,"R"
378150,"2310 HOMESTEAD ROAD C1-105","LOS ALTOS","CA",94024,37.337887289,-122.067590445,150,"2310 HOMESTEAD ROAD C1-105, LOS ALTOS, CA, 94024","Match","Exact","2310 HOMESTEAD RD, LOS ALTOS, CA, 94024",648995966,"R"
378151,"2310 HOMESTEAD ROAD C1-108","LOS ALTOS","CA",94024,37.337887289,-122.067590445,151,"2310 HOMESTEAD ROAD C1-108, LOS ALTOS, CA, 94024","Match","Exact","2310 HOMESTEAD RD, LOS ALTOS, CA, 94024",648995966,"R"
378152,"2310 HOMESTEAD ROAD STE C1 635","LOS ALTOS","CA",94024,37.337887289,-122.067590445,152,"2310 HOMESTEAD ROAD STE C1 635, LOS ALTOS, CA, 94024","Match","Exact","2310 HOMESTEAD RD, LOS ALTOS, CA, 94024",648995966,"R"
378153,"2310 HUMMINGBIRD LANE","SUMMERV","SC",29483,33.030858763,-80.235914147,153,"2310 HUMMINGBIRD LANE, SUMMERV, SC, 29483","Match","Non_Exact","2310 HUMMINGBIRD LN, SUMMERVILLE, SC, 29483",645292807,"R"
378154,"2310 HUMMINGBIRD LANE","SUMMERVILLE","SC",29483,33.030858763,-80.235914147,154,"2310 HUMMINGBIRD LANE, SUMMERVILLE, SC, 29483","Match","Exact","2310 HUMMINGBIRD LN, SUMMERVILLE, SC, 29483",645292807,"R"
378155,"2310 HWY 2 E STE 4","KALISPELL","MT",59901,48.229689261,-114.276029739,155,"2310 HWY 2 E STE 4, KALISPELL, MT, 59901","Match","Non_Exact","2310 US HWY 2 E, KALISPELL, MT, 59901",204110961,"L"
378156,"2310 KEITH BRIDGE RD","CUMMING","GA",30040,NA,NA,156,"2310 KEITH BRIDGE RD, CUMMING, GA, 30040","No_Match",NA,NA,NA,NA
378157,"2310 LA CANTERA","ABILENE","TX",79602,NA,NA,157,"2310 LA CANTERA, ABILENE, TX, 79602","No_Match",NA,NA,NA,NA
378158,"2310 LAKE JAMES WAY","LAKELAND","FL",33810,28.1462064410001,-81.995335416,158,"2310 LAKE JAMES WAY, LAKELAND, FL, 33810","Match","Exact","2310 LAKE JAMES WAY, LAKELAND, FL, 33810",618496369,"L"
378159,"2310 LORAIN ROAD","SAN MARINO","CA",91108,34.1157580550001,-118.103755503,159,"2310 LORAIN ROAD, SAN MARINO, CA, 91108","Match","Exact","2310 LORAIN RD, SAN MARINO, CA, 91108",141633796,"R"
378160,"2310 LUNDY","SAN JOSE","CA",95131,NA,NA,160,"2310 LUNDY, SAN JOSE, CA, 95131","Tie",NA,NA,NA,NA
378161,"2310 M L KING DR","EUPORA","MS",39744,NA,NA,161,"2310 M L KING DR, EUPORA, MS, 39744","No_Match",NA,NA,NA,NA
378162,"2310 MAIN ST APT 324","HOUSTON","TX",77002,29.7471476650001,-95.372700959,162,"2310 MAIN ST APT 324, HOUSTON, TX, 77002","Match","Exact","2310 MAIN ST, HOUSTON, TX, 77002",96353040,"R"
378163,"2310 MCARTHUR DR","HARFIELD","PA",19440,40.26868455,-75.310391722,163,"2310 MCARTHUR DR, HARFIELD, PA, 19440","Match","Non_Exact","2310 MCARTHUR DR, HATFIELD, PA, 19440",135118280,"R"
378164,"2310 MEADOWBROOK RD","CHATTANOOGA","TN",37421,35.0579004420001,-85.173862061,164,"2310 MEADOWBROOK RD, CHATTANOOGA, TN, 37421","Match","Non_Exact","2310 MEADOWBROOK TRL, CHATTANOOGA, TN, 37421",59316864,"R"
378165,"2310 MEDFORD RD","ANN ARBOR","MI",48104,42.253956126,-83.7107451799999,165,"2310 MEDFORD RD, ANN ARBOR, MI, 48104","Match","Exact","2310 MEDFORD RD, ANN ARBOR, MI, 48104",26016523,"R"
378166,"2310 MELROY","EDINBURG","TX",78539,26.279022877,-98.164146085,166,"2310 MELROY, EDINBURG, TX, 78539","Match","Non_Exact","2310 MELROY DR, EDINBURG, TX, 78539",625661096,"R"
378167,"2310 MEMORIAL BLVD","MURFREESBORO","TN",37129,35.8543593790001,-86.3957049479999,167,"2310 MEMORIAL BLVD, MURFREESBORO, TN, 37129","Match","Exact","2310 MEMORIAL BLVD, MURFREESBORO, TN, 37129",615734082,"R"
378168,"2310 MILFORD CR","SARASOTA","FL",34239,27.313352477,-82.5226028719999,168,"2310 MILFORD CR, SARASOTA, FL, 34239","Match","Exact","2310 MILFORD CIR, SARASOTA, FL, 34239",16398185,"L"
378169,"2310 MIMOSA CT","LEAGUE CITY","TX",77573,29.490940327,-95.1223977769999,169,"2310 MIMOSA CT, LEAGUE CITY, TX, 77573","Match","Exact","2310 MIMOSA CT, LEAGUE CITY, TX, 77573",96672704,"L"
378170,"2310 MONMOUTH BLVD","GALESBURG","IL",61401,40.932375924,-90.405772013,170,"2310 MONMOUTH BLVD, GALESBURG, IL, 61401","Match","Exact","2310 MONMOUTH BLVD, GALESBURG, IL, 61401",9038261,"R"
378171,"2310 MONTANO STREET","DELTONA","FL",32738,28.886535656,-81.204903852,171,"2310 MONTANO STREET, DELTONA, FL, 32738","Match","Exact","2310 MONTANO ST, DELTONA, FL, 32738",94549296,"L"
378172,"2310 MOON LIGHT DRIVE","HAILEY","ID",83333,43.5032066470001,-114.286292099,172,"2310 MOON LIGHT DRIVE, HAILEY, ID, 83333","Match","Non_Exact","2310 MOONLIGHT DR, HAILEY, ID, 83333",636204677,"R"
378173,"2310 MOSER AVE UNIT 2","DALLAS","TX",75206,32.8133186580001,-96.778585069,173,"2310 MOSER AVE UNIT 2, DALLAS, TX, 75206","Match","Exact","2310 MOSER AVE, DALLAS, TX, 75206",102910877,"R"
378174,"2310 MYSTIC PT","BRYANT","AR",72022,34.622449402,-92.467194249,174,"2310 MYSTIC PT, BRYANT, AR, 72022","Match","Exact","2310 MYSTIC PT, BRYANT, AR, 72022",24222752,"R"
378175,"2310 N 13TH STREET","PHOENIX","AZ",85006,33.473236209,-112.054203737,175,"2310 N 13TH STREET, PHOENIX, AZ, 85006","Match","Exact","2310 N 13TH ST, PHOENIX, AZ, 85006",128213227,"L"
378176,"2310 N CLINTON ST","SAGINAW","MI",48602,43.4393576090001,-83.966854698,176,"2310 N CLINTON ST, SAGINAW, MI, 48602","Match","Exact","2310 N CLINTON ST, SAGINAW, MI, 48602",80210599,"R"
378177,"2310 N HENDERSON AVENUE STE 539","DALLAS","TX",75206,32.814243903,-96.7777805649999,177,"2310 N HENDERSON AVENUE STE 539, DALLAS, TX, 75206","Match","Non_Exact","2310 N HENDERSON AVE, DALLAS, TX, 75206",102910875,"R"
378178,"2310 N WISTERIA LN","ORANGE","CA",92867,33.826874966,-117.789471935,178,"2310 N WISTERIA LN, ORANGE, CA, 92867","Match","Exact","2310 N WISTERIA LN, ORANGE, CA, 92867",144127087,"R"
378179,"2310 NE 51ST ST","LIGHTHOUSE POINT","FL",33064,26.293996958,-80.0924848239999,179,"2310 NE 51ST ST, LIGHTHOUSE POINT, FL, 33064","Match","Exact","2310 NE 51ST ST, LIGHTHOUSE POINT, FL, 33064",114743294,"R"
378180,"2310 NE 5TH STREET","BLUE SPRINGS","MO",64014,39.042352785,-94.255035021,180,"2310 NE 5TH STREET, BLUE SPRINGS, MO, 64014","Match","Exact","2310 NE 5TH ST, BLUE SPRINGS, MO, 64014",91497302,"R"
378181,"2310 NE WEIDLER ST APT-9","PORTLAND","OR",97232,45.534293528,-122.641969721,181,"2310 NE WEIDLER ST APT-9, PORTLAND, OR, 97232","Match","Non_Exact","2310 NE WEIDLER ST, PORTLAND, OR, 97232",157506773,"R"
378182,"2310 NEW YORK AVENUUE","SAVANNAH","GA",31404,NA,NA,182,"2310 NEW YORK AVENUUE, SAVANNAH, GA, 31404","No_Match",NA,NA,NA,NA
378183,"2310 NORTH LINCOLN AVENUE APT 4","CHICAGO","NJ",60614,NA,NA,183,"2310 NORTH LINCOLN AVENUE APT 4, CHICAGO, NJ, 60614","No_Match",NA,NA,NA,NA
378184,"2310 NORWOOD DRIVE","WILSON","NC",27893,NA,NA,184,"2310 NORWOOD DRIVE, WILSON, NC, 27893","No_Match",NA,NA,NA,NA
378185,"2310 NW CONVOY WAY","WALDPORT","OR",97394,44.4433124180001,-124.080708125,185,"2310 NW CONVOY WAY, WALDPORT, OR, 97394","Match","Exact","2310 NW CONVOY WAY, WALDPORT, OR, 97394",155932803,"L"
378186,"2310 NW CRESTVIEW WAY","PORTLAND","OR",97229,45.5392763310001,-122.768514323,186,"2310 NW CRESTVIEW WAY, PORTLAND, OR, 97229","Match","Exact","2310 NW CRESTVIEW WAY, PORTLAND, OR, 97229",157552864,"R"
378187,"2310 PALESTINE RD","CAMPBELLSVILLE","KY",42718,37.4028574290001,-85.314785816,187,"2310 PALESTINE RD, CAMPBELLSVILLE, KY, 42718","Match","Exact","2310 PALESTINE RD, CAMPBELLSVILLE, KY, 42718",649256178,"R"
378188,"2310 PARKLAKE DR STE 177","ATLANT","GA",30345,33.851971447,-84.249027844,188,"2310 PARKLAKE DR STE 177, ATLANT, GA, 30345","Match","Non_Exact","2310 PARKLAKE DR NE, ATLANTA, GA, 30345",646994087,"L"
378189,"2310 PARMENTER AVENUE APT 220","MIDDLETON","WI",53562,43.1011099140001,-89.511419782,189,"2310 PARMENTER AVENUE APT 220, MIDDLETON, WI, 53562","Match","Non_Exact","2310 PARMENTER ST, MIDDLETON, WI, 53562",49464439,"L"
378190,"2310 PARMENTER STREET APT 420","MIDDLETON","WI",53562,43.1011099140001,-89.511419782,190,"2310 PARMENTER STREET APT 420, MIDDLETON, WI, 53562","Match","Exact","2310 PARMENTER ST, MIDDLETON, WI, 53562",49464439,"L"
378191,"2310 PATRICIAN WAY","COLORADO SPRINGS","CO",80909,38.8648497200001,-104.784925439,191,"2310 PATRICIAN WAY, COLORADO SPRINGS, CO, 80909","Match","Exact","2310 PATRICIAN WAY, COLORADO SPRINGS, CO, 80909",105515789,"L"
378192,"2310 PILGRIM","STOCKTON","CA",95206,NA,NA,192,"2310 PILGRIM, STOCKTON, CA, 95206","No_Match",NA,NA,NA,NA
378193,"2310 PLUM CT","PEMBROKE PINES","FL",33026,26.0288279050001,-80.290096035,193,"2310 PLUM CT, PEMBROKE PINES, FL, 33026","Match","Exact","2310 PLUM CT, PEMBROKE PINES, FL, 33026",114700947,"R"
378194,"2310 POATES DRIVE","RICHMOND","VA",23228,37.630147633,-77.489642024,194,"2310 POATES DRIVE, RICHMOND, VA, 23228","Match","Exact","2310 POATES DR, RICHMOND, VA, 23228",106647497,"R"
378195,"2310 PWC PLAZA 45 S SEVENTH ST","MINNEAPOLIS","MN",55402,NA,NA,195,"2310 PWC PLAZA 45 S SEVENTH ST, MINNEAPOLIS, MN, 55402","No_Match",NA,NA,NA,NA
378196,"2310 Q STREET SE","WASHINGTON","DC",20020,38.8707527290001,-76.972911852,196,"2310 Q STREET SE, WASHINGTON, DC, 20020","Match","Exact","2310 Q ST SE, WASHINGTON, DC, 20020",76231796,"L"
378197,"2310 RAINTREE COURT APT F","CENTER POINT","AL",35215,33.645772998,-86.686392898,197,"2310 RAINTREE COURT APT F, CENTER POINT, AL, 35215","Match","Exact","2310 RAINTREE CT, CENTER POINT, AL, 35215",81637756,"L"
378198,"2310 RIDGE RD","ALMA","AR",72921,35.5087237180001,-94.1522255089999,198,"2310 RIDGE RD, ALMA, AR, 72921","Match","Exact","2310 RIDGE RD, ALMA, AR, 72921",647405619,"R"
378199,"2310 RIVER COURT","DELANO","CA",93215,35.788845871,-119.229416468,199,"2310 RIVER COURT, DELANO, CA, 93215","Match","Exact","2310 RIVER CT, DELANO, CA, 93215",109145299,"R"
378200,"2310 ROGERS AVE","LANCASTER","TX",75134,32.6145687700001,-96.778035879,200,"2310 ROGERS AVE, LANCASTER, TX, 75134","Match","Exact","2310 ROGERS AVE, LANCASTER, TX, 75134",103173625,"R"
378201,"2310 ROXBURGH DR","ROSWELL","GA",30076,34.0279709370001,-84.2886553879999,201,"2310 ROXBURGH DR, ROSWELL, GA, 30076","Match","Exact","2310 ROXBURGH DR, ROSWELL, GA, 30076",640546302,"R"
378202,"2310 S 12TH SREET","ST. LOUIS","MO",63104,NA,NA,202,"2310 S 12TH SREET, ST. LOUIS, MO, 63104","No_Match",NA,NA,NA,NA
378203,"2310 S 35TH ST","OMAHA","NE",68105,41.237608107,-95.9642857219999,203,"2310 S 35TH ST, OMAHA, NE, 68105","Match","Exact","2310 S 35TH ST, OMAHA, NE, 68105",116985072,"R"
378204,"2310 S GREEN BAY RD SUITE C PMB 186","RACINE","WI",53406,42.7038258250001,-87.852164494,204,"2310 S GREEN BAY RD SUITE C PMB 186, RACINE, WI, 53406","Match","Non_Exact","2310 S GREEN BAY RD, RACINE, WI, 53406",77935080,"R"
378205,"2310 S HOMSY AVE","FRESNO","CA",93727,36.718333036,-119.715240163,205,"2310 S HOMSY AVE, FRESNO, CA, 93727","Match","Exact","2310 S HOMSY AVE, FRESNO, CA, 93727",624922135,"R"
378206,"2310 S HWY 77 STE 110","LYNN HAVEN","FL",32444,30.227653478,-85.649319501,206,"2310 S HWY 77 STE 110, LYNN HAVEN, FL, 32444","Match","Non_Exact","2310 STATE HWY 77, LYNN HAVEN, FL, 32444",7060395,"L"
378207,"2310 S LIMUEL CIRCLE","WICHITA","KS",67212,37.651402343,-97.491305516,207,"2310 S LIMUEL CIRCLE, WICHITA, KS, 67212","Match","Non_Exact","2310 S LIMUEL CIR, WICHITA, KS, 67235",624348323,"L"
378208,"2310 S LIMUEL CIRCLE","WICHITA","KS",67235,37.651402343,-97.491305516,208,"2310 S LIMUEL CIRCLE, WICHITA, KS, 67235","Match","Exact","2310 S LIMUEL CIR, WICHITA, KS, 67235",624348323,"L"
378209,"2310 S LIZARD RANCH RD","ESCALANTE","UT",84726,37.7391468270001,-111.578498731,209,"2310 S LIZARD RANCH RD, ESCALANTE, UT, 84726","Match","Exact","2310 LIZARD RANCH RD, ESCALANTE, UT, 84726",624877440,"L"
378210,"2310 S STANLEY ST","BOISE","ID",83705,43.5809282930001,-116.242221289,210,"2310 S STANLEY ST, BOISE, ID, 83705","Match","Exact","2310 S STANLEY ST, BOISE, ID, 83705",117863570,"L"
378211,"2310 S THIRD STREET","PHILAELPHIA","PA",19148,39.9192087280001,-75.152127145,211,"2310 S THIRD STREET, PHILAELPHIA, PA, 19148","Match","Non_Exact","2310 S 3RD ST, PHILADELPHIA, PA, 19148",131436815,"R"
378212,"2310 SAN BERNARDO AVE","LAREDO","TX",78040,27.5200197280001,-99.50448288,212,"2310 SAN BERNARDO AVE, LAREDO, TX, 78040","Match","Exact","2310 SAN BERNARDO AVE, LAREDO, TX, 78040",21670752,"L"
378213,"2310 SCENIC HWY","BATON ROUGE","LA",70802,30.4685719330001,-91.168085343,213,"2310 SCENIC HWY, BATON ROUGE, LA, 70802","Match","Exact","2310 SCENIC HWY, BATON ROUGE, LA, 70802",92180576,"R"
378214,"2310 SE 3RD STREET","BOYNTON BEACH","FL",33435,26.508037367,-80.062224022,214,"2310 SE 3RD STREET, BOYNTON BEACH, FL, 33435","Match","Exact","2310 SE 3RD ST, BOYNTON BEACH, FL, 33435",115499558,"L"
378215,"2310 SE CONCORD","OAK GROVE","OR",97627,NA,NA,215,"2310 SE CONCORD, OAK GROVE, OR, 97627","No_Match",NA,NA,NA,NA
378216,"2310 SE TIBBETTS ST","PORTLAND","OR",97202,45.500528251,-122.642447893,216,"2310 SE TIBBETTS ST, PORTLAND, OR, 97202","Match","Exact","2310 SE TIBBETTS ST, PORTLAND, OR, 97202",157509570,"R"
378217,"2310 SIDON AVE","LA HABRA","CA",90631,33.9253414560001,-117.971213671,217,"2310 SIDON AVE, LA HABRA, CA, 90631","Match","Exact","2310 SIDON AVE, LA HABRA, CA, 90631",143997858,"L"
378218,"2310 SNYDER DOMER RD","SPRINGFIELD","OH",45502,40.0109204020001,-83.84321971,218,"2310 SNYDER DOMER RD, SPRINGFIELD, OH, 45502","Match","Exact","2310 SNYDER DOMER RD, SPRINGFIELD, OH, 45502",135005608,"R"
378219,"2310 SOMERSWORTH ROAD","SHREVEPORT","LA",71118,32.385313426,-93.799652658,219,"2310 SOMERSWORTH ROAD, SHREVEPORT, LA, 71118","Match","Non_Exact","2310 SOMERSWORTH DR, SHREVEPORT, LA, 71118",57432988,"R"
378220,"2310 SOUTH 7TH STREET","HICKMAN","KY",42050,NA,NA,220,"2310 SOUTH 7TH STREET, HICKMAN, KY, 42050","No_Match",NA,NA,NA,NA
378221,"2310 SPRING CREEK DR","BOZEMAN","MT",59715,45.6565041120001,-111.037815208,221,"2310 SPRING CREEK DR, BOZEMAN, MT, 59715","Match","Exact","2310 SPRING CREEK DR, BOZEMAN, MT, 59715",163516012,"R"
378222,"2310 SPRUILL ROAD","CALEDONIA","MS",39740,33.6438573780001,-88.3701058839999,222,"2310 SPRUILL ROAD, CALEDONIA, MS, 39740","Match","Exact","2310 SPRUILL RD, CALEDONIA, MS, 39740",649566454,"R"
378223,"2310 STARR LAKE DR NW","ACWORTH","GA",30101,34.0105952270001,-84.7180795579999,223,"2310 STARR LAKE DR NW, ACWORTH, GA, 30101","Match","Exact","2310 STARR LAKE DR NW, ACWORTH, GA, 30101",634051753,"R"
378224,"2310 SUNDERLAND RD","MAITLAND","FL",32751,28.641611798,-81.3394869489999,224,"2310 SUNDERLAND RD, MAITLAND, FL, 32751","Match","Exact","2310 SUNDERLAND RD, MAITLAND, FL, 32751",93743894,"R"
378225,"2310 SW 17TH PL UNIT 306","CAPE CORAL","FL",33991,26.608573037,-82.010665854,225,"2310 SW 17TH PL UNIT 306, CAPE CORAL, FL, 33991","Match","Non_Exact","2310 SW 17TH PL, CAPE CORAL, FL, 33991",118087880,"L"
378226,"2310 SW 26TH ST","OKLAHOMA","OK",73108,35.4383086930001,-97.552768837,226,"2310 SW 26TH ST, OKLAHOMA, OK, 73108","Match","Non_Exact","2310 SW 26TH ST, OKLAHOMA CITY, OK, 73108",100399257,"L"
378227,"2310 SW 6TH ST","BATTLE GROUND","WA",98604,45.776560175,-122.561920148,227,"2310 SW 6TH ST, BATTLE GROUND, WA, 98604","Match","Exact","2310 SW 6TH ST, BATTLE GROUND, WA, 98604",158349796,"R"
378228,"2310 SYCAMORE ROAD","YORK","PA",17408,39.976788599,-76.8063263719999,228,"2310 SYCAMORE ROAD, YORK, PA, 17408","Match","Exact","2310 SYCAMORE RD, YORK, PA, 17408",611418151,"L"
378229,"2310 TAMISOLA STREET","SARASOTA","FL",34237,27.323624626,-82.523653983,229,"2310 TAMISOLA STREET, SARASOTA, FL, 34237","Match","Exact","2310 TAMISOLA ST, SARASOTA, FL, 34237",633402350,"R"
378230,"2310 THROOP AVENUE","BRONX","NY",10469,40.8600059410001,-73.8511762799999,230,"2310 THROOP AVENUE, BRONX, NY, 10469","Match","Exact","2310 THROOP AVE, BRONX, NY, 10469",80303792,"R"
378231,"2310 TIMBER RIDGE COURT","PARLIN","NJ",8859,40.4570492610001,-74.279490428,231,"2310 TIMBER RIDGE COURT, PARLIN, NJ, 8859","Match","Exact","2310 TIMBER RIDGE CT, PARLIN, NJ, 08859",642133787,"L"
378232,"2310 TOM GEDDIE ROAD","EASTOVER","NC",28312,35.09741804,-78.7989538689999,232,"2310 TOM GEDDIE ROAD, EASTOVER, NC, 28312","Match","Exact","2310 TOM GEDDIE RD, EASTOVER, NC, 28312",614831708,"R"
378233,"2310 TREMONT ST","CEDAR FALLS","IA",50613,42.5166915140001,-92.4507794309999,233,"2310 TREMONT ST, CEDAR FALLS, IA, 50613","Match","Exact","2310 TREMONT ST, CEDAR FALLS, IA, 50613",77248816,"L"
378234,"2310 TUCKER LANE","BALTIMORE","MD",21207,39.314075766,-76.702991235,234,"2310 TUCKER LANE, BALTIMORE, MD, 21207","Match","Exact","2310 TUCKER LN, BALTIMORE, MD, 21207",206412565,"L"
378235,"2310 TWIN VALLEY LANE","SILVER SPRING","MD",20906,39.1131938250001,-77.0480463329999,235,"2310 TWIN VALLEY LANE, SILVER SPRING, MD, 20906","Match","Exact","2310 TWIN VALLEY LN, SILVER SPRING, MD, 20906",62093437,"L"
378236,"2310 VAN LEUNEN DRIVE","CINCINNATI","OH",45239,39.194689312,-84.5671430629999,236,"2310 VAN LEUNEN DRIVE, CINCINNATI, OH, 45239","Match","Exact","2310 VAN LEUNEN DR, CINCINNATI, OH, 45239",103920607,"L"
378237,"2310 VAULX LANE","NASHVILLE","TN",37204,36.1264025310001,-86.7831163819999,237,"2310 VAULX LANE, NASHVILLE, TN, 37204","Match","Exact","2310 VAULX LN, NASHVILLE, TN, 37204",97191728,"L"
378238,"2310 VERHALEN AVE","HOUSTON","TX",77039,29.9155000750001,-95.348247256,238,"2310 VERHALEN AVE, HOUSTON, TX, 77039","Match","Exact","2310 VERHALEN AVE, HOUSTON, TX, 77039",96045043,"R"
378239,"2310 VIA FRANCISCO UNIT M","CARLSBAD","CA",92008,33.173275344,-117.327421104,239,"2310 VIA FRANCISCO UNIT M, CARLSBAD, CA, 92008","Match","Non_Exact","2310 VIA FRANCISCA, CARLSBAD, CA, 92008",195426059,"L"
378240,"2310 VICTORIA FALLS DR","ORLANDO","FL",32824,28.3733785920001,-81.325264713,240,"2310 VICTORIA FALLS DR, ORLANDO, FL, 32824","Match","Exact","2310 VICTORIA FALLS DR, ORLANDO, FL, 32824",631773527,"L"
378241,"2310 VINCENTE DRIVE","AUBURN","AL",36830,32.657729004,-85.482082799,241,"2310 VINCENTE DRIVE, AUBURN, AL, 36830","Match","Exact","2310 VINCENTE DR, AUBURN, AL, 36830",646868723,"L"
378242,"2310 VIOLET STREET","WINSTON SALEM","NC",27127,36.06936104,-80.2432754339999,242,"2310 VIOLET STREET, WINSTON SALEM, NC, 27127","Match","Exact","2310 VIOLET ST, WINSTON SALEM, NC, 27127",84685844,"R"
378243,"2310 W 66TH ST","INDIANAPOLIS","IN",46260,39.8770511430001,-86.200873727,243,"2310 W 66TH ST, INDIANAPOLIS, IN, 46260","Match","Exact","2310 W 66TH ST, INDIANAPOLIS, IN, 46260",107981884,"R"
378244,"2310 W 9TH AVENUE","STILLWATER","OK",74074,36.1122063240001,-97.087622858,244,"2310 W 9TH AVENUE, STILLWATER, OK, 74074","Match","Exact","2310 W 9TH AVE, STILLWATER, OK, 74074",166360499,"L"
378245,"2310 W GRECOURT DRIVE","TOLEDO","OH",43615,41.6640138130001,-83.6617534169999,245,"2310 W GRECOURT DRIVE, TOLEDO, OH, 43615","Match","Exact","2310 W GRECOURT DR, TOLEDO, OH, 43615",33929666,"R"
378246,"2310 W KENFIELD CT","PEORIA","IL",61615,40.81255701,-89.6281495759999,246,"2310 W KENFIELD CT, PEORIA, IL, 61615","Match","Exact","2310 W KENFIELD CT, PEORIA, IL, 61615",633981921,"L"
378247,"2310 W KENSINGTON DR","PEORIA","IL",61614,40.7612648800001,-89.627851268,247,"2310 W KENSINGTON DR, PEORIA, IL, 61614","Match","Exact","2310 W KENSINGTON DR, PEORIA, IL, 61614",8711940,"L"
378248,"2310 W MANLY","SANTA ANA","CA",92704,33.7107513,-117.899324436,248,"2310 W MANLY, SANTA ANA, CA, 92704","Match","Non_Exact","2310 W MANLY AVE, SANTA ANA, CA, 92704",144043067,"L"
378249,"2310 W NELSON ST 203","CHICAGO","IL",60608,NA,NA,249,"2310 W NELSON ST 203, CHICAGO, IL, 60608","No_Match",NA,NA,NA,NA
378250,"2310 W PASEO DEL MAR","SAN PEDRO","CA",90732,33.7231098250001,-118.330998331,250,"2310 W PASEO DEL MAR, SAN PEDRO, CA, 90732","Match","Non_Exact","2310 W PSO DEL MAR, SAN PEDRO, CA, 90732",141688175,"R"
378251,"2310 W ROGERS AVE","BALTIMORE","MD",21209,39.358296753,-76.6640655909999,251,"2310 W ROGERS AVE, BALTIMORE, MD, 21209","Match","Exact","2310 W ROGERS AVE, BALTIMORE, MD, 21209",206464897,"R"
378252,"2310 W SUNSET DR","VISALIA","CA",93291,36.330763689,-119.316480576,252,"2310 W SUNSET DR, VISALIA, CA, 93291","Match","Exact","2310 W SUNSET DR, VISALIA, CA, 93291",202801421,"R"
378253,"2310 WALNUT","SAGINAW","MI",48601,43.423570677,-83.9136315549999,253,"2310 WALNUT, SAGINAW, MI, 48601","Match","Non_Exact","2310 WALNUT ST, SAGINAW, MI, 48601",80212976,"R"
378254,"2310 WEST 7TH ST","RUSSELLVILLE","AR",72801,35.2731707780001,-93.157110121,254,"2310 WEST 7TH ST, RUSSELLVILLE, AR, 72801","Match","Exact","2310 W 7TH ST, RUSSELLVILLE, AR, 72801",81892547,"L"
378255,"2310 WEST 8TH ST","RUSSELLVILLE","AR",72801,35.272293486,-93.157141711,255,"2310 WEST 8TH ST, RUSSELLVILLE, AR, 72801","Match","Exact","2310 W 8TH ST, RUSSELLVILLE, AR, 72801",81897974,"L"
378256,"2310 WEST BAY DRIVE","LARGO","FL",33770,27.9167721520001,-82.812250761,256,"2310 WEST BAY DRIVE, LARGO, FL, 33770","Match","Exact","2310 W BAY DR, LARGO, FL, 33770",124671309,"R"
378257,"2310 WEST BELMONT","CHICAGO","IL",60618,41.9394884490001,-87.68587035,257,"2310 WEST BELMONT, CHICAGO, IL, 60618","Match","Non_Exact","2310 W BELMONT AVE, CHICAGO, IL, 60618",616789757,"R"
378258,"2310 WEST MAIN STREET SUITE 108","RICHMOND","VA",23220,37.5506106830001,-77.469754444,258,"2310 WEST MAIN STREET SUITE 108, RICHMOND, VA, 23220","Match","Exact","2310 W MAIN ST, RICHMOND, VA, 23220",201536102,"R"
378259,"2310 WESTFIELD","ALVIN","TX",77511,29.4065765070001,-95.268083027,259,"2310 WESTFIELD, ALVIN, TX, 77511","Match","Non_Exact","2310 WESTFIELD ST, ALVIN, TX, 77511",116576636,"L"
378260,"2310 WIGWAM DR","HARKER HEIGHTS","TX",76548,31.058485014,-97.665492678,260,"2310 WIGWAM DR, HARKER HEIGHTS, TX, 76548","Match","Exact","2310 WIGWAM DR, HARKER HEIGHTS, TX, 76548",146166054,"L"
378261,"2310 WILDWOOD LAKE DR","SUWANEE","GA",30024,34.0103817180001,-84.028860396,261,"2310 WILDWOOD LAKE DR, SUWANEE, GA, 30024","Match","Exact","2310 WILDWOOD LAKE DR, SUWANEE, GA, 30024",88918318,"L"
378262,"2310 WILLOWBROOKE LN","IOWA CITY","IA",52246,41.649989815,-91.571724714,262,"2310 WILLOWBROOKE LN, IOWA CITY, IA, 52246","Match","Exact","2310 WILLOWBROOKE LN, IOWA CITY, IA, 52246",84502496,"R"
378263,"2310","BRENHAM","TX",77833,NA,NA,263,"2310, BRENHAM, TX, 77833","No_Match",NA,NA,NA,NA
378264,"23100 ARORA HILLS DRIVE","CLARKSBURG","MD",20871,39.232314263,-77.249148023,264,"23100 ARORA HILLS DRIVE, CLARKSBURG, MD, 20871","Match","Exact","23100 ARORA HILLS DR, CLARKSBURG, MD, 20871",618605615,"L"
378265,"23100 BRIARWOOD DR","EDMOND","OK",73025,35.707394289,-97.613590824,265,"23100 BRIARWOOD DR, EDMOND, OK, 73025","Match","Non_Exact","23100 N BRIARWOOD DR, EDMOND, OK, 73025",606107047,"L"
378266,"23100 LASALLE RD","PUEBLO","CO",81006,38.2274869940001,-104.552970587,266,"23100 LASALLE RD, PUEBLO, CO, 81006","Match","Exact","23100 LASALLE RD, PUEBLO, CO, 81006",105103563,"R"
378267,"23100 MANISTEE","OAK PARK","MI",48237,42.460362472,-83.16587378,267,"23100 MANISTEE, OAK PARK, MI, 48237","Match","Non_Exact","23100 MANISTEE ST, OAK PARK, MI, 48237",69742129,"R"
378268,"23100 MARINE","EASTPOINTE","MI",48021,42.468479259,-82.9245059039999,268,"23100 MARINE, EASTPOINTE, MI, 48021","Match","Non_Exact","23100 MARINE AVE, EASTPOINTE, MI, 48021",110685040,"R"
378269,"23100 ROAD M SW","MATTAWA","WA",99349,46.7555093140001,-119.767746722,269,"23100 ROAD M SW, MATTAWA, WA, 99349","Match","Exact","23100 RD M SW, MATTAWA, WA, 99349",157076457,"R"
378270,"23100 WINDOM ST","WEST HILLS","CA",91307,34.2063988250001,-118.630006214,270,"23100 WINDOM ST, WEST HILLS, CA, 91307","Match","Exact","23100 WINDOM ST, WEST HILLS, CA, 91307",141721216,"L"
378271,"23101 CANAL RD","ORANGE BEACH","AL",36561,NA,NA,271,"23101 CANAL RD, ORANGE BEACH, AL, 36561","No_Match",NA,NA,NA,NA
378272,"23101 COELHO WAY","DIAMONDHEAD","MS",39525,30.365483714,-89.379711126,272,"23101 COELHO WAY, DIAMONDHEAD, MS, 39525","Match","Exact","23101 COELHO WAY, DIAMONDHEAD, MS, 39525",111129064,"L"
378273,"23101 OTTAWA AVE","LAKEVILLE","MN",55044,44.614483943,-93.340834773,273,"23101 OTTAWA AVE, LAKEVILLE, MN, 55044","Match","Exact","23101 OTTAWA AVE, LAKEVILLE, MN, 55044",38146240,"L"
378274,"23101 S TAMIAMI TRAIL","ESTERO","FL",33928,NA,NA,274,"23101 S TAMIAMI TRAIL, ESTERO, FL, 33928","No_Match",NA,NA,NA,NA
378275,"23101 SLIDELL ROAD","BOYDS","MD",20841,39.2350256,-77.327814696,275,"23101 SLIDELL ROAD, BOYDS, MD, 20841","Match","Exact","23101 SLIDELL RD, BOYDS, MD, 20841",651239945,"L"
378276,"23101 ST JAMES RD","JETERSVILLE","VA",23083,37.3317894900001,-78.119543246,276,"23101 ST JAMES RD, JETERSVILLE, VA, 23083","Match","Exact","23101 ST JAMES RD, JETERSVILLE, VA, 23083",73722770,"R"
378277,"23101 TIMBER SPRING LANE","PARKER","CO",80138,39.5025105340001,-104.721138991,277,"23101 TIMBER SPRING LANE, PARKER, CO, 80138","Match","Exact","23101 TIMBER SPRING LN, PARKER, CO, 80138",635534535,"R"
378278,"23101 WEST 23RD STREET SOUTH","GODDARD","KS",67052,37.6494345450001,-97.606388705,278,"23101 WEST 23RD STREET SOUTH, GODDARD, KS, 67052","Match","Exact","23101 W 23RD ST S, GODDARD, KS, 67052",115688854,"R"
378279,"23102 FAIRFIELD","MISSION VIEJO","CA",92692,33.6264292610001,-117.629861012,279,"23102 FAIRFIELD, MISSION VIEJO, CA, 92692","Match","Exact","23102 FAIRFIELD, MISSION VIEJO, CA, 92692",144397556,"R"
378280,"23103 GREENWOOD CT","CARROLLTON","VA",23314,36.937593802,-76.529031875,280,"23103 GREENWOOD CT, CARROLLTON, VA, 23314","Match","Exact","23103 GREENWOOD CT, CARROLLTON, VA, 23314",198631909,"R"
378281,"23103 HARDY OAK BLVD","SAN ANTONIO","TX",78258,29.6581635250001,-98.496867563,281,"23103 HARDY OAK BLVD, SAN ANTONIO, TX, 78258","Match","Exact","23103 HARDY OAK BLVD, SAN ANTONIO, TX, 78258",640621015,"L"
378282,"23103 MARINE VIEW DR S","DES MOINES","WA",98198,47.3948455330001,-122.32382001,282,"23103 MARINE VIEW DR S, DES MOINES, WA, 98198","Match","Exact","23103 MARINE VIEW DR S, DES MOINES, WA, 98198",627331942,"R"
378283,"23103 S DAVIOR PR SW","PROSSER","WA",99350,NA,NA,283,"23103 S DAVIOR PR SW, PROSSER, WA, 99350","No_Match",NA,NA,NA,NA
378284,"23105 HARVEST RIDGE LANE","JOHNS CREEK","GA",30022,34.044362721,-84.226540582,284,"23105 HARVEST RIDGE LANE, JOHNS CREEK, GA, 30022","Match","Exact","23105 HARVEST RIDGE LN, JOHNS CREEK, GA, 30022",636181518,"R"
378285,"23105 W 15TH STREET","SHAWNEE","KS",66226,NA,NA,285,"23105 W 15TH STREET, SHAWNEE, KS, 66226","No_Match",NA,NA,NA,NA
378286,"23106 ALAIRE LN","PIONEER","CA",95666,38.4161028,-120.599441484,286,"23106 ALAIRE LN, PIONEER, CA, 95666","Match","Exact","23106 ALAIRE LN, PIONEER, CA, 95666",132738090,"R"
378287,"23106 BETHUNE AVE","AQUASCO","MD",20608,NA,NA,287,"23106 BETHUNE AVE, AQUASCO, MD, 20608","No_Match",NA,NA,NA,NA
378288,"23106 LAKE FOREST DR D-376","LAGUNA HILLS","CA",92653,NA,NA,288,"23106 LAKE FOREST DR D-376, LAGUNA HILLS, CA, 92653","No_Match",NA,NA,NA,NA
378289,"23106 PARK PLACE DR","SOUTHFIELD","MI",48033,42.480164168,-83.271498358,289,"23106 PARK PLACE DR, SOUTHFIELD, MI, 48033","Match","Exact","23106 PARK PLACE DR, SOUTHFIELD, MI, 48033",69821121,"L"
378290,"23106 POMELO RD","SANTA ROSA","TX",78593,26.224867508,-97.806863578,290,"23106 POMELO RD, SANTA ROSA, TX, 78593","Match","Exact","23106 POMELO RD, SANTA ROSA, TX, 78593",636357295,"R"
378291,"23106 POMELO ROAD","SANTA ROSA","TX",78593,26.224867508,-97.806863578,291,"23106 POMELO ROAD, SANTA ROSA, TX, 78593","Match","Exact","23106 POMELO RD, SANTA ROSA, TX, 78593",636357295,"R"
378292,"23106 SANDPIPER TRL","SPRING","TX",77373,30.038863522,-95.368974908,292,"23106 SANDPIPER TRL, SPRING, TX, 77373","Match","Exact","23106 SANDPIPER TRL, SPRING, TX, 77373",96042824,"R"
378293,"23107 DAVIS MILL RD","GERMANTOWN","MD",20876,39.234943238,-77.229836725,293,"23107 DAVIS MILL RD, GERMANTOWN, MD, 20876","Match","Exact","23107 DAVIS MILL RD, GERMANTOWN, MD, 20876",62045615,"L"
378294,"23107 HARVEST RIDGE LANE","JOHNS CREEK","GA",30022,34.04437613,-84.226560002,294,"23107 HARVEST RIDGE LANE, JOHNS CREEK, GA, 30022","Match","Exact","23107 HARVEST RIDGE LN, JOHNS CREEK, GA, 30022",636181518,"R"
378295,"23107 O RD","HOLTON","KS",66436,39.4654577310001,-95.775771977,295,"23107 O RD, HOLTON, KS, 66436","Match","Exact","23107 O RD, HOLTON, KS, 66436",10120255,"L"
378296,"23107 QUIET HERON CT","KATY","TX",77493,29.8233938070001,-95.776156158,296,"23107 QUIET HERON CT, KATY, TX, 77493","Match","Exact","23107 QUIET HERON CT, KATY, TX, 77493",641967173,"R"
378297,"23108 E BLUE MILLS ROAD","INDEPENDENCE","MO",64058,39.1492258870001,-94.3046030089999,297,"23108 E BLUE MILLS ROAD, INDEPENDENCE, MO, 64058","Match","Exact","23108 E BLUE MILLS RD, INDEPENDENCE, MO, 64058",91468834,"R"
378298,"23109 HARDING AVE","HAZEL PARK","MI",48030,42.462558002,-83.0936749689999,298,"23109 HARDING AVE, HAZEL PARK, MI, 48030","Match","Exact","23109 HARDING AVE, HAZEL PARK, MI, 48030",69748413,"L"
378299,"23109 NW 183RD LANE","HIGH SPRINGS","FL",32643,NA,NA,299,"23109 NW 183RD LANE, HIGH SPRINGS, FL, 32643","No_Match",NA,NA,NA,NA
378300,"23109 PERIWINKLE WAY","CALIFORNIA","MD",20619,38.3043663130001,-76.5594113619999,300,"23109 PERIWINKLE WAY, CALIFORNIA, MD, 20619","Match","Exact","23109 PERIWINKLE WAY, CALIFORNIA, MD, 20619",625529291,"R"
378301,"23109 YVETTE LANE","VALENCIA","CA",91355,34.390690208,-118.542405425,301,"23109 YVETTE LANE, VALENCIA, CA, 91355","Match","Exact","23109 YVETTE LN, VALENCIA, CA, 91355",141834465,"R"
378302,"2311 15TH ST CT","DEWITT","IA",52742,41.8310263130001,-90.561649642,302,"2311 15TH ST CT, DEWITT, IA, 52742","Match","Non_Exact","2311 15TH STREET CT, DE WITT, IA, 52742",16814362,"R"
378303,"2311 18TH ST N","ARLINGTON","VA",22201,38.8943172470001,-77.087657067,303,"2311 18TH ST N, ARLINGTON, VA, 22201","Match","Exact","2311 18TH ST N, ARLINGTON, VA, 22201",76469773,"R"
378304,"2311 21ST AVE","OAKLAND","CA",94606,37.7918850780001,-122.232588811,304,"2311 21ST AVE, OAKLAND, CA, 94606","Match","Non_Exact","2311 21ST, OAKLAND, CA, 94606",606339559,"L"
378305,"2311 26 TH ST SW","AKRON","OH",44314,41.041061235,-81.570380804,305,"2311 26 TH ST SW, AKRON, OH, 44314","Match","Non_Exact","2311 26TH ST SW, AKRON, OH, 44314",61392074,"L"
378306,"2311 2ND ST","TUSCALOOSA","AL",35404,33.2142933750001,-87.508120845,306,"2311 2ND ST, TUSCALOOSA, AL, 35404","Match","Non_Exact","2311 2ND ST E, TUSCALOOSA, AL, 35404",82150596,"R"
378307,"2311 30TH DRIVE 1ST FL","ASTORIA","NY",11102,NA,NA,307,"2311 30TH DRIVE 1ST FL, ASTORIA, NY, 11102","No_Match",NA,NA,NA,NA
378308,"2311 31ST AVENUE APT 5D","ASTORIA","NY",11106,NA,NA,308,"2311 31ST AVENUE APT 5D, ASTORIA, NY, 11106","Tie",NA,NA,NA,NA
378309,"2311 32ND PL SE","WASHINGTON","DC",20020,38.8615261630001,-76.961492705,309,"2311 32ND PL SE, WASHINGTON, DC, 20020","Match","Non_Exact","2311 32ND ST SE, WASHINGTON, DC, 20020",76232095,"R"
378310,"2311 33RD ROAD","ASTORIA","NY",11106,40.7630668190001,-73.930893291,310,"2311 33RD ROAD, ASTORIA, NY, 11106","Match","Exact","2311 33RD RD, ASTORIA, NY, 11106",611864528,"L"
378311,"2311 3RD AVENUE","SCOTTSBLUFF","NE",69361,41.869755856,-103.658638132,311,"2311 3RD AVENUE, SCOTTSBLUFF, NE, 69361","Match","Exact","2311 3RD AVE, SCOTTSBLUFF, NE, 69361",160046221,"R"
378312,"2311 58TH ST E","PALMETTO","FL",34221,27.5651693130001,-82.54105966,312,"2311 58TH ST E, PALMETTO, FL, 34221","Match","Exact","2311 58TH ST E, PALMETTO, FL, 34221",16253434,"R"
378313,"2311 5TH AVENUE  4CC","NEW YORK","NY",10037,40.815524076,-73.935600316,313,"2311 5TH AVENUE  4CC, NEW YORK, NY, 10037","Match","Exact","2311 5TH AVE, NEW YORK, NY, 10037",59656485,"R"
378314,"2311 ANDALUSIA WAY NE","ST PETERSBURG","FL",33704,27.7932746160001,-82.633184705,314,"2311 ANDALUSIA WAY NE, ST PETERSBURG, FL, 33704","Match","Exact","2311 ANDALUSIA WAY NE, SAINT PETERSBURG, FL, 33704",653179399,"L"
378315,"2311 ANZIO DR","DALLAS","TX",75224,32.7192988530001,-96.830913013,315,"2311 ANZIO DR, DALLAS, TX, 75224","Match","Exact","2311 ANZIO DR, DALLAS, TX, 75224",102946985,"R"
378316,"2311 ARLINGTON AVENUE","MAPLEWOOD","MN",55119,44.98436157,-93.000966131,316,"2311 ARLINGTON AVENUE, MAPLEWOOD, MN, 55119","Match","Non_Exact","2311 ARLINGTON AVE E, MAPLEWOOD, MN, 55119",97663144,"L"
378317,"2311 AUBURN STREET","PHILADELPHIA","PA",19134,39.985133467,-75.1153128839999,317,"2311 AUBURN STREET, PHILADELPHIA, PA, 19134","Match","Non_Exact","2311 E AUBURN ST, PHILADELPHIA, PA, 19134",131426132,"L"
378318,"2311 BARRENRIDGE ROAD","STAUNTON","VA",24401,38.174280443,-78.9562569829999,318,"2311 BARRENRIDGE ROAD, STAUNTON, VA, 24401","Match","Exact","2311 BARRENRIDGE RD, STAUNTON, VA, 24401",213440586,"R"
378319,"2311 BEAR TRAILS","ORANGE","TX",77632,30.157950181,-93.7633685059999,319,"2311 BEAR TRAILS, ORANGE, TX, 77632","Match","Exact","2311 BEAR TRL, ORANGE, TX, 77632",647679429,"L"
378320,"2311 BEAUMONT","BRONX","FL",10458,NA,NA,320,"2311 BEAUMONT, BRONX, FL, 10458","No_Match",NA,NA,NA,NA
378321,"2311 BELMONT ROAD","PARKERSBURG","WV",26101,39.2344210040001,-81.551525781,321,"2311 BELMONT ROAD, PARKERSBURG, WV, 26101","Match","Exact","2311 BELMONT RD, PARKERSBURG, WV, 26101",90899299,"L"
378322,"2311 BOULDER LANE","BELOIT","WI",53511,42.5263209080001,-88.999952475,322,"2311 BOULDER LANE, BELOIT, WI, 53511","Match","Exact","2311 BOULDER LN, BELOIT, WI, 53511",49869380,"R"
378323,"2311 BRANDT VILLAGE","GREENSBORO","NC",27455,36.140675383,-79.843299063,323,"2311 BRANDT VILLAGE, GREENSBORO, NC, 27455","Match","Non_Exact","2311 BRANDT VILLAGE LN, GREENSBORO, NC, 27455",131049580,"R"
378324,"2311 BRECKWOOD MILLS DR","HUMBLE","TX",77346,NA,NA,324,"2311 BRECKWOOD MILLS DR, HUMBLE, TX, 77346","No_Match",NA,NA,NA,NA
378325,"2311 BROOKVIEW RD","CASTLETON","NY",12033,42.561541467,-73.705280306,325,"2311 BROOKVIEW RD, CASTLETON, NY, 12033","Match","Exact","2311 BROOKVIEW RD, CASTLETON, NY, 12033",35734237,"L"
378326,"2311 BROOMSAGE COURT","MURRYSVILLE","PA",15632,40.4082891030001,-79.654863511,326,"2311 BROOMSAGE COURT, MURRYSVILLE, PA, 15632","Match","Exact","2311 BROOMSAGE CT, MURRYSVILLE, PA, 15632",618071280,"L"
378327,"2311 BURGESS CT","CHESAPEAKE","VA",23323,36.7287851730001,-76.322367212,327,"2311 BURGESS CT, CHESAPEAKE, VA, 23323","Match","Exact","2311 BURGESS CT, CHESAPEAKE, VA, 23323",651963546,"L"
378328,"2311 CAPER TREE","TUSTIN","CA",92780,33.7169669900001,-117.813333284,328,"2311 CAPER TREE, TUSTIN, CA, 92780","Match","Non_Exact","2311 CAPER TREE DR, TUSTIN, CA, 92780",144055002,"L"
378329,"2311 CHARLESTOWNE","SEARCY","AR",72143,35.245423445,-91.7678169599999,329,"2311 CHARLESTOWNE, SEARCY, AR, 72143","Match","Non_Exact","2311 CHARLESTOWNE DR, SEARCY, AR, 72143",630244111,"R"
378330,"2311 CHESAPEAKE LANDING","SPRINGFIELD","IL",62712,39.7074523950001,-89.6184402819999,330,"2311 CHESAPEAKE LANDING, SPRINGFIELD, IL, 62712","Match","Exact","2311 CHESAPEAKE LNDG, SPRINGFIELD, IL, 62712",635511071,"R"
378331,"2311 CHURCHILL COVE LANE","PEARLAND","TX",77089,NA,NA,331,"2311 CHURCHILL COVE LANE, PEARLAND, TX, 77089","No_Match",NA,NA,NA,NA
378332,"2311 CLINTON STREET","MUNHALL","PA",15120,40.395646416,-79.8975500029999,332,"2311 CLINTON STREET, MUNHALL, PA, 15120","Match","Exact","2311 CLINTON ST, MUNHALL, PA, 15120",645575695,"L"
378333,"2311 COOT COURT","KALISPELL","MT",59901,48.1724936750001,-114.312482272,333,"2311 COOT COURT, KALISPELL, MT, 59901","Match","Exact","2311 COOT CT, KALISPELL, MT, 59901",204130042,"L"
378334,"2311 COUCH ST","HOUSTON","TX",77008,29.806842886,-95.425822021,334,"2311 COUCH ST, HOUSTON, TX, 77008","Match","Exact","2311 COUCH ST, HOUSTON, TX, 77008",96054435,"L"
378335,"2311 COUNTY ROAD 2800 N","GIFFORD","IL",61847,40.283755324,-88.019030974,335,"2311 COUNTY ROAD 2800 N, GIFFORD, IL, 61847","Match","Exact","2311 CO RD 2800 N, GIFFORD, IL, 61847",8807798,"L"
378336,"2311 COVERED WAGON COURT","ROCKLIN","CA",95765,38.8279522390001,-121.278070526,336,"2311 COVERED WAGON COURT, ROCKLIN, CA, 95765","Match","Non_Exact","2311 COVERED WAGON LN, ROCKLIN, CA, 95765",627114205,"L"
378337,"2311 CREEK RD","NILES","MI",49120,41.8726189060001,-86.242076733,337,"2311 CREEK RD, NILES, MI, 49120","Match","Exact","2311 CREEK RD, NILES, MI, 49120",119978289,"R"
378338,"2311 CRESCENT LANE","GASTONIA","NC",28052,35.2678002640001,-81.223534437,338,"2311 CRESCENT LANE, GASTONIA, NC, 28052","Match","Exact","2311 CRESCENT LN, GASTONIA, NC, 28052",70377171,"L"
378339,"2311 CRESSVIEW DR","HEBER SPRINGS","AR",72543,NA,NA,339,"2311 CRESSVIEW DR, HEBER SPRINGS, AR, 72543","No_Match",NA,NA,NA,NA
378340,"2311 CRESTRIDGE DR","DAYTON","OH",45414,39.854511621,-84.239694965,340,"2311 CRESTRIDGE DR, DAYTON, OH, 45414","Match","Exact","2311 CRESTRIDGE DR, DAYTON, OH, 45414",143607484,"L"
378341,"2311 CRESTVIEW DR","HEBER SPRINGS","AR",72543,35.517658366,-92.036982361,341,"2311 CRESTVIEW DR, HEBER SPRINGS, AR, 72543","Match","Exact","2311 CRESTVIEW DR, HEBER SPRINGS, AR, 72543",43171899,"R"
378342,"2311 CURCOR DRIVE","GULFPORT","MS",39507,30.3871862830001,-89.0210683989999,342,"2311 CURCOR DRIVE, GULFPORT, MS, 39507","Match","Exact","2311 CURCOR DR, GULFPORT, MS, 39507",111381472,"L"
378343,"2311 DELANO DRIVE","DISTRICT HEIGHTS","MD",20747,38.857843449,-76.90183594,343,"2311 DELANO DRIVE, DISTRICT HEIGHTS, MD, 20747","Match","Non_Exact","2311 DELANO LN, DISTRICT HEIGHTS, MD, 20747",600644012,"R"
378344,"2311 DELANO LANE","DISTRICT HEIGHTS","MD",20747,38.857843449,-76.90183594,344,"2311 DELANO LANE, DISTRICT HEIGHTS, MD, 20747","Match","Exact","2311 DELANO LN, DISTRICT HEIGHTS, MD, 20747",600644012,"R"
378345,"2311 DUNLAVY ST SUITE 210","HOUSTON","TX",77006,29.7455771950001,-95.402094099,345,"2311 DUNLAVY ST SUITE 210, HOUSTON, TX, 77006","Match","Exact","2311 DUNLAVY ST, HOUSTON, TX, 77006",96064124,"L"
378346,"2311 DURHAM DR","SAGINAW","MI",48609,43.4416049060001,-84.069147446,346,"2311 DURHAM DR, SAGINAW, MI, 48609","Match","Exact","2311 DURHAM DR, SAGINAW, MI, 48609",627729037,"R"
378347,"2311 E 2950 AVENUE","BEECHER CITY","IL",62414,39.166320866,-88.823808367,347,"2311 E 2950 AVENUE, BEECHER CITY, IL, 62414","Match","Exact","2311 E 2950 AVE, BEECHER CITY, IL, 62414",94860339,"R"
378348,"2311 E 3RD ST","DULUTH","MN",55812,46.8110047010001,-92.072618227,348,"2311 E 3RD ST, DULUTH, MN, 55812","Match","Exact","2311 E 3RD ST, DULUTH, MN, 55812",163212424,"L"
378349,"2311 E HARTFORD AVENUE UNIT 43","PHOENIX","AZ",85022,33.6432132640001,-112.032913027,349,"2311 E HARTFORD AVENUE UNIT 43, PHOENIX, AZ, 85022","Match","Non_Exact","2311 E HARTFORD AVE, PHOENIX, AZ, 85022",128362590,"R"
378350,"2311 E HILLCREST","VISALIA","CA",93292,36.3141844410001,-119.267586133,350,"2311 E HILLCREST, VISALIA, CA, 93292","Match","Non_Exact","2311 E HILLCREST AVE, VISALIA, CA, 93292",202782407,"R"
378351,"2311 E INDIAN SCHOOL RD","PHOENIX","AZ",85016,33.4948279540001,-112.032001987,351,"2311 E INDIAN SCHOOL RD, PHOENIX, AZ, 85016","Match","Exact","2311 E INDIAN SCHOOL RD, PHOENIX, AZ, 85016",128209980,"R"
378352,"2311 E JOLLY RD APT 11","LANSING","MI",48910,42.682941649,-84.51829015,352,"2311 E JOLLY RD APT 11, LANSING, MI, 48910","Match","Non_Exact","2311 E JOLLY RD, LANSING, MI, 48910",17512422,"R"
378353,"2311 EAST PROSPERITY","TULARE","CA",93274,36.2258966520001,-119.31232641,353,"2311 EAST PROSPERITY, TULARE, CA, 93274","Match","Non_Exact","2311 E PROSPERITY AVE, TULARE, CA, 93274",202784227,"R"
378354,"2311 EDGEWOOD","EL DORADO","AR",71730,33.2341585940001,-92.6749292329999,354,"2311 EDGEWOOD, EL DORADO, AR, 71730","Match","Non_Exact","2311 EDGEWOOD ST, EL DORADO, AR, 71730",28159522,"R"
378355,"2311 EDWARDS RD","ABINGTON","PA",19001,40.127048458,-75.1264296049999,355,"2311 EDWARDS RD, ABINGTON, PA, 19001","Match","Exact","2311 EDWARDS RD, ABINGTON, PA, 19001",135093020,"R"
378356,"2311 EL DORADO","EDINBURG","TX",78542,26.317825494,-98.1202499349999,356,"2311 EL DORADO, EDINBURG, TX, 78542","Match","Non_Exact","2311 EL DORADO ST, EDINBURG, TX, 78542",71527684,"L"
378357,"2311 EMMETT PARKWAY","AUSTIN","TX",78728,30.4518192470001,-97.6765669929999,357,"2311 EMMETT PARKWAY, AUSTIN, TX, 78728","Match","Exact","2311 EMMETT PKWY, AUSTIN, TX, 78728",63983262,"L"
378358,"2311 FAIRFIELD AVENUE","GREENSBORO","NC",27408,36.0994380020001,-79.816942641,358,"2311 FAIRFIELD AVENUE, GREENSBORO, NC, 27408","Match","Exact","2311 FAIRFIELD AVE, GREENSBORO, NC, 27408",131030495,"L"
378359,"2311 FAIRGREEN DR","MISSOURI CITY","TX",77489,29.5814597780001,-95.538409018,359,"2311 FAIRGREEN DR, MISSOURI CITY, TX, 77489","Match","Exact","2311 FAIRGREEN DR, MISSOURI CITY, TX, 77489",623852302,"R"
378360,"2311 FAIRHAVEN LN","CROFTON","MD",21114,39.026486936,-76.670862584,360,"2311 FAIRHAVEN LN, CROFTON, MD, 21114","Match","Exact","2311 FAIRHAVEN LN, CROFTON, MD, 21114",68161498,"L"
378361,"2311 FARRAND DRIVE","RICHMOND","VA",23231,37.5212934530001,-77.3875998359999,361,"2311 FARRAND DRIVE, RICHMOND, VA, 23231","Match","Exact","2311 FARRAND DR, RICHMOND, VA, 23231",106650663,"R"
378362,"2311 FEDERAL STREET","PHILADELPHIA","PA",19146,39.938147884,-75.182357569,362,"2311 FEDERAL STREET, PHILADELPHIA, PA, 19146","Match","Exact","2311 FEDERAL ST, PHILADELPHIA, PA, 19146",131407006,"R"
378363,"2311 FENWICK VILLAGE DRIVE","SAVANNAH","GA",31419,32.0246082840001,-81.2285958259999,363,"2311 FENWICK VILLAGE DRIVE, SAVANNAH, GA, 31419","Match","Exact","2311 FENWICK VILLAGE DR, SAVANNAH, GA, 31419",636157815,"R"
378364,"2311 FLORA CT","BRENTWOOD","CA",94513,37.922215141,-121.740871887,364,"2311 FLORA CT, BRENTWOOD, CA, 94513","Match","Exact","2311 FLORA CT, BRENTWOOD, CA, 94513",192114990,"L"
378365,"2311 FOUNDRY RD","WILMINGTON","NC",28412,34.185619697,-77.9129963349999,365,"2311 FOUNDRY RD, WILMINGTON, NC, 28412","Match","Non_Exact","2311 FOUNDRY CT, WILMINGTON, NC, 28412",650727695,"L"
378366,"2311 FOUNTAINVIEW DRIVE APT 46","HOUSTON","TX",77057,29.7434469660001,-95.485420227,366,"2311 FOUNTAINVIEW DRIVE APT 46, HOUSTON, TX, 77057","Match","Non_Exact","2311 FOUNTAIN VIEW DR, HOUSTON, TX, 77057",96032989,"L"
378367,"2311 FOXCROFT RD NW","WILSON","NC",27896,35.7551062570001,-77.936096885,367,"2311 FOXCROFT RD NW, WILSON, NC, 27896","Match","Exact","2311 FOXCROFT RD NW, WILSON, NC, 27896",26730567,"L"
378368,"2311 HENRY LANE","DELTONA","FL",32738,28.9168120310001,-81.205623305,368,"2311 HENRY LANE, DELTONA, FL, 32738","Match","Exact","2311 HENRY LN, DELTONA, FL, 32738",94502047,"L"
378369,"2311 HIGHLAND AVE SOUTH STE 500","BIRMINGHAM","AL",35205,33.5028147960001,-86.78824457,369,"2311 HIGHLAND AVE SOUTH STE 500, BIRMINGHAM, AL, 35205","Match","Exact","2311 HIGHLAND AVE S, BIRMINGHAM, AL, 35205",81576857,"R"
378370,"2311 HIGHLAND AVENUE S SUITE 500","BIRMINGHAM","AL",35205,33.5028147960001,-86.78824457,370,"2311 HIGHLAND AVENUE S SUITE 500, BIRMINGHAM, AL, 35205","Match","Exact","2311 HIGHLAND AVE S, BIRMINGHAM, AL, 35205",81576857,"R"
378371,"2311 HIGHLAND PARC PL SE","MARIETTA","GA",30067,33.9260712340001,-84.484003789,371,"2311 HIGHLAND PARC PL SE, MARIETTA, GA, 30067","Match","Exact","2311 HIGHLAND PARC PL SE, MARIETTA, GA, 30067",17253820,"L"
378372,"2311 HOLDEN WAY NW","KENNESAW","GA",30144,34.051960546,-84.621106028,372,"2311 HOLDEN WAY NW, KENNESAW, GA, 30144","Match","Non_Exact","2311 HOLDEN WAY, KENNESAW, GA, 30144",17226986,"R"
378373,"2311 HORSESHOE BEND ROAD","GOOCHLAND","VA",23063,37.702971104,-77.9015025259999,373,"2311 HORSESHOE BEND ROAD, GOOCHLAND, VA, 23063","Match","Exact","2311 HORSESHOE BEND, GOOCHLAND, VA, 23063",618486089,"L"
378374,"2311 HORTON ROAD","KNIGHTDALE","NC",27545,35.829488671,-78.4595290359999,374,"2311 HORTON ROAD, KNIGHTDALE, NC, 27545","Match","Exact","2311 HORTON RD, KNIGHTDALE, NC, 27545",72512919,"L"
378375,"2311 IRENE ST","BOISE","ID",83702,43.636420048,-116.217119987,375,"2311 IRENE ST, BOISE, ID, 83702","Match","Exact","2311 IRENE ST, BOISE, ID, 83702",117859361,"L"
378376,"2311 IVY HII RD","SAN RAMON","CA",94583,NA,NA,376,"2311 IVY HII RD, SAN RAMON, CA, 94583","No_Match",NA,NA,NA,NA
378377,"2311 IVY HILL WAY APT 1113","SAN RAMON","CA",94582,NA,NA,377,"2311 IVY HILL WAY APT 1113, SAN RAMON, CA, 94582","No_Match",NA,NA,NA,NA
378378,"2311 JOHNSON DRIVE","ROCKAWAY","NJ",7866,40.9135696660001,-74.537534351,378,"2311 JOHNSON DRIVE, ROCKAWAY, NJ, 7866","Match","Exact","2311 JOHNSON DR, ROCKAWAY, NJ, 07866",60475791,"L"
378379,"2311 KENOSHO","ST. LOUIS","MO",63114,38.6971623530001,-90.35382571,379,"2311 KENOSHO, ST. LOUIS, MO, 63114","Match","Non_Exact","2311 KENOSHO AVE, SAINT LOUIS, MO, 63114",100132548,"L"
378380,"2311 KINGSTON DRIVE","MIRAMAR","FL",33023,25.9889609000001,-80.239994187,380,"2311 KINGSTON DRIVE, MIRAMAR, FL, 33023","Match","Exact","2311 KINGSTON DR, MIRAMAR, FL, 33023",114733891,"L"
378381,"2311 KIRBY DRIVE","TEMPLE HILLS","MD",20748,38.8302493630001,-76.956259508,381,"2311 KIRBY DRIVE, TEMPLE HILLS, MD, 20748","Match","Exact","2311 KIRBY DR, TEMPLE HILLS, MD, 20748",76411754,"R"
378382,"2311 LANDSCAPE WAY","RICHMOND","TX",77406,29.6209284490001,-95.7404094459999,382,"2311 LANDSCAPE WAY, RICHMOND, TX, 77406","Match","Exact","2311 LANDSCAPE WAY, RICHMOND, TX, 77406",78281472,"R"
378383,"2311 LARKWOOD DRIVE","WILMINGTON","DE",19810,39.818709998,-75.489279106,383,"2311 LARKWOOD DRIVE, WILMINGTON, DE, 19810","Match","Exact","2311 LARKWOOD DR, WILMINGTON, DE, 19810",187260420,"R"
378384,"2311 LORKIM LANE","ATCO","NJ",8004,39.768063511,-74.837613166,384,"2311 LORKIM LANE, ATCO, NJ, 8004","Match","Exact","2311 LORKIM LN, ATCO, NJ, 08004",134418213,"R"
378385,"2311 LOUISA STREET","NAPA","CA",94558,38.311509641,-122.290764905,385,"2311 LOUISA STREET, NAPA, CA, 94558","Match","Exact","2311 LOUISA ST, NAPA, CA, 94558",67415771,"L"
378386,"2311 M ST NW 301","WASHINGTON","DC",20037,38.9052708360001,-77.0503232,386,"2311 M ST NW 301, WASHINGTON, DC, 20037","Match","Exact","2311 M ST NW, WASHINGTON, DC, 20037",76225227,"R"
378387,"2311 MANDY LANE","HILLSBOROUGH","NC",27278,36.1276735270001,-79.044236855,387,"2311 MANDY LANE, HILLSBOROUGH, NC, 27278","Match","Exact","2311 MANDY LN, HILLSBOROUGH, NC, 27278",72412032,"R"
378388,"2311 MANDY LN","HILLSBOROUGH","NC",27278,36.1276735270001,-79.044236855,388,"2311 MANDY LN, HILLSBOROUGH, NC, 27278","Match","Exact","2311 MANDY LN, HILLSBOROUGH, NC, 27278",72412032,"R"
378389,"2311 MAPLECREST DR","MISSOURI CITY","TX",77459,29.5851021710001,-95.548752141,389,"2311 MAPLECREST DR, MISSOURI CITY, TX, 77459","Match","Exact","2311 MAPLECREST DR, MISSOURI CITY, TX, 77459",78269437,"L"
378390,"2311 MARBURY RD","PITTSBURGH","OR",15221,NA,NA,390,"2311 MARBURY RD, PITTSBURGH, OR, 15221","No_Match",NA,NA,NA,NA
378391,"2311 MARBURY RD","PITTSBURGH","PA",15221,40.438624625,-79.859465691,391,"2311 MARBURY RD, PITTSBURGH, PA, 15221","Match","Exact","2311 MARBURY RD, PITTSBURGH, PA, 15221",51669297,"L"
378392,"2311 MARBURY ROAD","PITTSBURGH","PA",15221,40.438624625,-79.859465691,392,"2311 MARBURY ROAD, PITTSBURGH, PA, 15221","Match","Exact","2311 MARBURY RD, PITTSBURGH, PA, 15221",51669297,"L"
378393,"2311 MATTHEWS ST","BROOKHAVEN","GA",30319,33.8523486930001,-84.340465675,393,"2311 MATTHEWS ST, BROOKHAVEN, GA, 30319","Match","Non_Exact","2311 MATTHEWS ST NE, BROOKHAVEN, GA, 30319",23357963,"R"
378394,"2311 MID LANE APT 1107","HOUSTON","TX",77027,NA,NA,394,"2311 MID LANE APT 1107, HOUSTON, TX, 77027","No_Match",NA,NA,NA,NA
378395,"2311 MILLCREEK COURT","VALRICO","FL",33596,27.8813210870001,-82.243503376,395,"2311 MILLCREEK COURT, VALRICO, FL, 33596","Match","Exact","2311 MILLCREEK CT, VALRICO, FL, 33596",104605767,"L"
378396,"2311 MONTROSE","PHILADELPHIA","PA",19146,39.9414989430001,-75.181339658,396,"2311 MONTROSE, PHILADELPHIA, PA, 19146","Match","Non_Exact","2311 MONTROSE ST, PHILADELPHIA, PA, 19146",131406973,"R"
378397,"2311 MORGAN LN","INGLESIDE","TX",78362,27.891876256,-97.195113095,397,"2311 MORGAN LN, INGLESIDE, TX, 78362","Match","Exact","2311 MORGAN LN, INGLESIDE, TX, 78362",635840958,"R"
378398,"2311 MORRIS STREET","PHILADELPHIA","PA",19145,39.931204774,-75.183608622,398,"2311 MORRIS STREET, PHILADELPHIA, PA, 19145","Match","Exact","2311 MORRIS ST, PHILADELPHIA, PA, 19145",131410786,"R"
378399,"2311 MOUND AVENUE","PANAMA CITY","FL",32405,30.191051601,-85.714415851,399,"2311 MOUND AVENUE, PANAMA CITY, FL, 32405","Match","Exact","2311 MOUND AVE, PANAMA CITY, FL, 32405",7052549,"L"
378400,"2311 N 45TH ST 291","SEATTLE","WA",98103,47.6613657570001,-122.331153996,400,"2311 N 45TH ST 291, SEATTLE, WA, 98103","Match","Non_Exact","2311 N 45TH ST, SEATTLE, WA, 98103",186582947,"R"
378401,"2311 N 45TH ST NO 291","SEATTLE","WA",98103,NA,NA,401,"2311 N 45TH ST NO 291, SEATTLE, WA, 98103","No_Match",NA,NA,NA,NA
378402,"2311 N 45TH ST","SEATTLE","WA",98103,47.6613657570001,-122.331153996,402,"2311 N 45TH ST, SEATTLE, WA, 98103","Match","Exact","2311 N 45TH ST, SEATTLE, WA, 98103",186582947,"R"
378403,"2311 N E 192 STREET","MIAMI","FL",33180,25.952721495,-80.154758594,403,"2311 N E 192 STREET, MIAMI, FL, 33180","Match","Exact","2311 NE 192ND ST, MIAMI, FL, 33180",116035659,"L"
378404,"2311 N KEYSTONE ST","BURBANK","CA",91754,34.199531074,-118.333492964,404,"2311 N KEYSTONE ST, BURBANK, CA, 91754","Match","Non_Exact","2311 N KEYSTONE ST, BURBANK, CA, 91504",142723711,"L"
378405,"2311 NE 139TH CIRCLE","VANCOUVER","WA",98686,45.7221841830001,-122.648023873,405,"2311 NE 139TH CIRCLE, VANCOUVER, WA, 98686","Match","Exact","2311 NE 139TH CIR, VANCOUVER, WA, 98686",158372358,"R"
378406,"2311 NE 36TH ST","LIGHTHOUSE POINT","FL",33064,26.275543902,-80.0908988629999,406,"2311 NE 36TH ST, LIGHTHOUSE POINT, FL, 33064","Match","Exact","2311 NE 36TH ST, LIGHTHOUSE POINT, FL, 33064",640939414,"L"
378407,"2311 NE HANCOCK ST","PORTLAND","OR",97212,45.536437101,-122.641981176,407,"2311 NE HANCOCK ST, PORTLAND, OR, 97212","Match","Exact","2311 NE HANCOCK ST, PORTLAND, OR, 97212",157506735,"L"
378408,"2311 NELSON STREET","RICHMOND","VA",23228,37.6076763240001,-77.47351857,408,"2311 NELSON STREET, RICHMOND, VA, 23228","Match","Exact","2311 NELSON ST, RICHMOND, VA, 23228",106647820,"L"
378409,"2311 NEW ORLEANS","NEW ORLEANS","LA",70119,NA,NA,409,"2311 NEW ORLEANS, NEW ORLEANS, LA, 70119","Tie",NA,NA,NA,NA
378410,"2311 NORTH FRONT STREET APT 911","HARRISBURG","PA",17110,40.2815740680001,-76.901435637,410,"2311 NORTH FRONT STREET APT 911, HARRISBURG, PA, 17110","Match","Exact","2311 N FRONT ST, HARRISBURG, PA, 17110",647501532,"R"
378411,"2311 NORTH MAIN STREET","BLACKSBURG","VA",24060,37.2652410960001,-80.415567381,411,"2311 NORTH MAIN STREET, BLACKSBURG, VA, 24060","Match","Exact","2311 N MAIN ST, BLACKSBURG, VA, 24060",73638441,"L"
378412,"2311 NW 43RD TERRACE","LAUDERHILL","FL",33313,26.1558863400001,-80.2080266729999,412,"2311 NW 43RD TERRACE, LAUDERHILL, FL, 33313","Match","Exact","2311 NW 43RD TER, LAUDERHILL, FL, 33313",114708033,"L"
378413,"2311 NW 67TH ST","BOCA RATON","FL",33496,26.408084247,-80.130279152,413,"2311 NW 67TH ST, BOCA RATON, FL, 33496","Match","Exact","2311 NW 67TH ST, BOCA RATON, FL, 33496",115491266,"L"
378414,"2311 NW 68TH STREET","MIAMI","FL",33147,25.836498395,-80.235529861,414,"2311 NW 68TH STREET, MIAMI, FL, 33147","Match","Exact","2311 NW 68TH ST, MIAMI, FL, 33147",640561643,"R"
378415,"2311 OAK GROVE ROAD","SHELBY","NC",28150,35.290874973,-81.4756740349999,415,"2311 OAK GROVE ROAD, SHELBY, NC, 28150","Match","Exact","2311 OAK GROVE RD, SHELBY, NC, 28150",19320974,"R"
378416,"2311 OAKHURST TRAIL","HILLSBOROUGH","NC",27278,36.0519844770001,-79.085959132,416,"2311 OAKHURST TRAIL, HILLSBOROUGH, NC, 27278","Match","Exact","2311 OAKHURST TRL, HILLSBOROUGH, NC, 27278",72415576,"L"
378417,"2311 OLD ARCH ROAD","NORRISTOWN","PA",19410,40.1330112250001,-75.312168566,417,"2311 OLD ARCH ROAD, NORRISTOWN, PA, 19410","Match","Non_Exact","2311 OLD ARCH RD, NORRISTOWN, PA, 19401",135103250,"L"
378418,"2311 OLD HAROLD ROAD Q289","PALMDALE","CA",93550,34.5524886170001,-118.086990434,418,"2311 OLD HAROLD ROAD Q289, PALMDALE, CA, 93550","Match","Non_Exact","2311 OLD HAROLD RD, PALMDALE, CA, 93550",141856444,"L"
378419,"2311 OLD TOWNE ROAD","NAZARETH","PA",18064,40.739587597,-75.348855116,419,"2311 OLD TOWNE ROAD, NAZARETH, PA, 18064","Match","Exact","2311 OLD TOWNE RD, NAZARETH, PA, 18064",628707319,"R"
378420,"2311 OVERLAND AVENUE","LOS ANGELES","CA",90064,34.043800124,-118.426262309,420,"2311 OVERLAND AVENUE, LOS ANGELES, CA, 90064","Match","Exact","2311 OVERLAND AVE, LOS ANGELES, CA, 90064",141569978,"R"
378421,"2311 OXFORD CIRCLE","ANN ARBOR","MI",48103,NA,NA,421,"2311 OXFORD CIRCLE, ANN ARBOR, MI, 48103","No_Match",NA,NA,NA,NA
378422,"2311 PARK RIDGE WAY","VAN BUREN","AR",72956,35.4688488260001,-94.398454787,422,"2311 PARK RIDGE WAY, VAN BUREN, AR, 72956","Match","Exact","2311 PARK RIDGE WAY, VAN BUREN, AR, 72956",627543890,"R"
378423,"2311 PATTERNBOND DR","SILVER SPRING","MD",20902,39.0285178770001,-77.048419323,423,"2311 PATTERNBOND DR, SILVER SPRING, MD, 20902","Match","Exact","2311 PATTERNBOND DR, SILVER SPRING, MD, 20902",62064004,"R"
378424,"2311 PERRIWINKLE CT","NAPERVILLE","IL",60540,41.7587666590001,-88.192151827,424,"2311 PERRIWINKLE CT, NAPERVILLE, IL, 60540","Match","Non_Exact","2311 PERIWINKLE CT, NAPERVILLE, IL, 60540",112591173,"R"
378425,"2311 PIMMIT DRIVE APT 1206","FALLS CHURCH","VA",22043,38.8986683530001,-77.206195512,425,"2311 PIMMIT DRIVE APT 1206, FALLS CHURCH, VA, 22043","Match","Exact","2311 PIMMIT DR, FALLS CHURCH, VA, 22043",650127797,"L"
378426,"2311 PROSPECT POINT","ROSEVILLE","CA",95747,38.7528914850001,-121.325361223,426,"2311 PROSPECT POINT, ROSEVILLE, CA, 95747","Match","Non_Exact","2311 PROSPECT POINT DR, ROSEVILLE, CA, 95747",647383349,"R"
378427,"2311 RANCH CLUB RD UNIT 185","SILVER CITY","NM",88061,32.7880352810001,-108.256699527,427,"2311 RANCH CLUB RD UNIT 185, SILVER CITY, NM, 88061","Match","Exact","2311 RANCH CLUB RD, SILVER CITY, NM, 88061",639495172,"L"
378428,"2311 RANDOLPH STREET NE SUITE 100","WASHINGTON","DC",20018,38.938303073,-76.97307533,428,"2311 RANDOLPH STREET NE SUITE 100, WASHINGTON, DC, 20018","Match","Exact","2311 RANDOLPH ST NE, WASHINGTON, DC, 20018",76229111,"R"
378429,"2311 RANDOLPH STREET","CALEDONIA","IL",61011,42.3659650720001,-88.8954355389999,429,"2311 RANDOLPH STREET, CALEDONIA, IL, 61011","Match","Exact","2311 RANDOLPH ST, CALEDONIA, IL, 61011",92159944,"L"
378430,"2311 RICHLAND PRAIRIE BLVD","BELLEVILLE","IL",62221,38.5525439140001,-89.9437693949999,430,"2311 RICHLAND PRAIRIE BLVD, BELLEVILLE, IL, 62221","Match","Exact","2311 RICHLAND PRAIRIE BLVD, BELLEVILLE, IL, 62221",638954834,"L"
378431,"2311 RIDGEVIEW DR","SACHSE","TX",75048,32.968746045,-96.599072506,431,"2311 RIDGEVIEW DR, SACHSE, TX, 75048","Match","Exact","2311 RIDGEVIEW DR, SACHSE, TX, 75048",102928589,"R"
378432,"2311 RIPLEY ST","DAVENPORT","IA",52803,41.543281737,-90.578507639,432,"2311 RIPLEY ST, DAVENPORT, IA, 52803","Match","Exact","2311 RIPLEY ST, DAVENPORT, IA, 52803",122707335,"R"
378433,"2311 S 34TH STREET","OMAHA","NE",68105,41.237607573,-95.963012422,433,"2311 S 34TH STREET, OMAHA, NE, 68105","Match","Exact","2311 S 34TH ST, OMAHA, NE, 68105",116985079,"L"
378434,"2311 S 5TH STREET","ROCKFORD","IL",61104,42.242040499,-89.083936796,434,"2311 S 5TH STREET, ROCKFORD, IL, 61104","Match","Exact","2311 S 5TH ST, ROCKFORD, IL, 61104",605033752,"R"
378435,"2311 S CARR ST","WASILLA","AK",99654,61.5574284830001,-149.405185296,435,"2311 S CARR ST, WASILLA, AK, 99654","Match","Exact","2311 CARR ST, WASILLA, AK, 99654",191082229,"R"
378436,"2311 S EL CAMINO REAL","SAN MATEO","CA",94403,NA,NA,436,"2311 S EL CAMINO REAL, SAN MATEO, CA, 94403","No_Match",NA,NA,NA,NA
378437,"2311 S STAGE RD","MEDFORD","OR",97501,42.2970585210001,-122.905435907,437,"2311 S STAGE RD, MEDFORD, OR, 97501","Match","Exact","2311 S STAGE RD, MEDFORD, OR, 97501",155551329,"L"
378438,"2311 SHEPHERD DRIVE","NORTHFIELD","NJ",8225,39.3648388890001,-74.55850572,438,"2311 SHEPHERD DRIVE, NORTHFIELD, NJ, 8225","Match","Exact","2311 SHEPHERD DR, NORTHFIELD, NJ, 08225",202484049,"R"
378439,"2311 SIERRA STREET","KINGSBURG","CA",93631,36.517821903,-119.541300754,439,"2311 SIERRA STREET, KINGSBURG, CA, 93631","Match","Non_Exact","2311 E SIERRA ST, KINGSBURG, CA, 93631",197630402,"L"
378440,"2311 SOUTH BLVD","HOUSTON","TX",77098,29.72639781,-95.413156363,440,"2311 SOUTH BLVD, HOUSTON, TX, 77098","Match","Exact","2311 SOUTH BLVD, HOUSTON, TX, 77098",96063325,"L"
378441,"2311 SOUTH KRAMERIA STREET","DENVER","CO",80223,39.6732254230001,-104.92262643,441,"2311 SOUTH KRAMERIA STREET, DENVER, CO, 80223","Match","Non_Exact","2311 S KRAMERIA ST, DENVER, CO, 80222",177341445,"L"
378442,"2311 SOUTH MINERAL DRIVE","PAPILLION","NE",68046,41.128259176,-96.05426289,442,"2311 SOUTH MINERAL DRIVE, PAPILLION, NE, 68046","Match","Exact","2311 S MINERAL DR, PAPILLION, NE, 68046",624436562,"R"
378443,"2311 SOUTH ROBERT AVE","GONZALES","LA",70737,30.214518776,-90.933107998,443,"2311 SOUTH ROBERT AVE, GONZALES, LA, 70737","Match","Exact","2311 S ROBERT AVE, GONZALES, LA, 70737",115025413,"L"
378444,"2311 SOUTHERN BLVD APT 704","BRONX","NY",10460,40.8509982850001,-73.882346258,444,"2311 SOUTHERN BLVD APT 704, BRONX, NY, 10460","Match","Exact","2311 SOUTHERN BLVD, BRONX, NY, 10460",80301660,"L"
378445,"2311 SPOKANE DR","FORNEY","TX",75216,NA,NA,445,"2311 SPOKANE DR, FORNEY, TX, 75216","No_Match",NA,NA,NA,NA
378446,"2311 ST CLAIR AVENUE","BRENTWOOD","MO",63144,38.6199138010001,-90.3557635779999,446,"2311 ST CLAIR AVENUE, BRENTWOOD, MO, 63144","Match","Exact","2311 SAINT CLAIR AVE, BRENTWOOD, MO, 63144",100134964,"R"
378447,"2311 STEINER RD","COMINS","MI",48619,44.783361332,-84.0373299089999,447,"2311 STEINER RD, COMINS, MI, 48619","Match","Exact","2311 STEINER RD, COMINS, MI, 48619",136000181,"L"
378448,"2311 STOCKHAM LANE","PORTSMOUTH","OH",45662,38.7481965490001,-82.981839898,448,"2311 STOCKHAM LANE, PORTSMOUTH, OH, 45662","Match","Exact","2311 STOCKHAM LN, PORTSMOUTH, OH, 45662",55113310,"L"
378449,"2311 STOCKHAM LN","PORTSMOUTH","OH",45662,38.7481965490001,-82.981839898,449,"2311 STOCKHAM LN, PORTSMOUTH, OH, 45662","Match","Exact","2311 STOCKHAM LN, PORTSMOUTH, OH, 45662",55113310,"L"
378450,"2311 SW 38TH ST","ANKENY","IA",50023,41.69411497,-93.630432024,450,"2311 SW 38TH ST, ANKENY, IA, 50023","Match","Exact","2311 38TH ST, ANKENY, IA, 50023",65865871,"L"
378451,"2311 TAFT AVE","GROVES","TX",77619,29.9464996680001,-93.895680698,451,"2311 TAFT AVE, GROVES, TX, 77619","Match","Exact","2311 TAFT AVE, GROVES, TX, 77619",73879415,"L"
378452,"2311 TAYLOR ST","JOLIET","IL",60436,41.5313888840001,-88.1382569469999,452,"2311 TAYLOR ST, JOLIET, IL, 60436","Match","Non_Exact","2311 TAYLOR ST, JOLIET, IL, 60435",111539489,"R"
378453,"2311 TIMSBURY WAY","SANTA MARIA","CA",93455,34.9179411810001,-120.440849772,453,"2311 TIMSBURY WAY, SANTA MARIA, CA, 93455","Match","Exact","2311 TIMSBURY WAY, SANTA MARIA, CA, 93455",616216160,"R"
378454,"2311 TOSCANO COURT","GREENVILE","SC",29615,NA,NA,454,"2311 TOSCANO COURT, GREENVILE, SC, 29615","No_Match",NA,NA,NA,NA
378455,"2311 TOSCANO COURT","GREENVILLE","SC",29615,NA,NA,455,"2311 TOSCANO COURT, GREENVILLE, SC, 29615","No_Match",NA,NA,NA,NA
378456,"2311 TOSCANO CT","GREENVILLE","SC",29615,NA,NA,456,"2311 TOSCANO CT, GREENVILLE, SC, 29615","No_Match",NA,NA,NA,NA
378457,"2311 TUCKAHO RD","LOUISVILLE","KY",40207,38.2857867050001,-85.6490326749999,457,"2311 TUCKAHO RD, LOUISVILLE, KY, 40207","Match","Exact","2311 TUCKAHO RD, LOUISVILLE, KY, 40207",96854281,"R"
378458,"2311 TWIN ROSE DR","MISSOURI CITY","TX",77459,29.4786609720001,-95.523880963,458,"2311 TWIN ROSE DR, MISSOURI CITY, TX, 77459","Match","Exact","2311 TWIN ROSE DR, MISSOURI CITY, TX, 77459",648705094,"L"
378459,"2311 VALLEY DR","LINDENHURST","IL",60046,42.412528464,-88.0247524499999,459,"2311 VALLEY DR, LINDENHURST, IL, 60046","Match","Exact","2311 VALLEY DR, LINDENHURST, IL, 60046",119700677,"R"
378460,"2311 VINE ST","BROWN","TX",76801,31.70156538,-98.967988579,460,"2311 VINE ST, BROWN, TX, 76801","Match","Non_Exact","2311 VINE ST, BROWNWOOD, TX, 76801",129460247,"L"
378461,"2311 VISTA VIEW DR","TACOMA","WA",98406,NA,NA,461,"2311 VISTA VIEW DR, TACOMA, WA, 98406","Tie",NA,NA,NA,NA
378462,"2311 W 92ND AVE LOT 344","FEDERAL HEIGHTS","CO",80260,39.86348401,-105.016335541,462,"2311 W 92ND AVE LOT 344, FEDERAL HEIGHTS, CO, 80260","Match","Non_Exact","2311 W 92ND AVE, FEDERAL HEIGHTS, CO, 80260",610871200,"R"
378463,"2311 W ANNAMERE DR","DUNLAP","IL",61525,40.824612146,-89.6273660639999,463,"2311 W ANNAMERE DR, DUNLAP, IL, 61525","Match","Exact","2311 W ANNAMERE DR, DUNLAP, IL, 61525",8728869,"R"
378464,"2311 W BENCH RD","OTHELLO","WA",99344,46.796793515,-119.206630781,464,"2311 W BENCH RD, OTHELLO, WA, 99344","Match","Exact","2311 W BENCH RD, OTHELLO, WA, 99344",181833689,"R"
378465,"2311 W CHEYENNE RD","WAUKEGAN","IL",60087,42.386529243,-87.8619879079999,465,"2311 W CHEYENNE RD, WAUKEGAN, IL, 60087","Match","Exact","2311 W CHEYENNE RD, WAUKEGAN, IL, 60087",119627192,"L"
378466,"2311 W CHEYENNE","WAUEGAN","IL",60087,42.386529243,-87.8619879079999,466,"2311 W CHEYENNE, WAUEGAN, IL, 60087","Match","Non_Exact","2311 W CHEYENNE RD, WAUKEGAN, IL, 60087",119627192,"L"
378467,"2311 W DIVERSEY","CHICAGO","IL",60647,41.9321881180001,-87.685907299,467,"2311 W DIVERSEY, CHICAGO, IL, 60647","Match","Non_Exact","2311 W DIVERSEY AVE, CHICAGO, IL, 60647",652586760,"L"
378468,"2311 W DIVISION","MELROSE PARK","IL",60160,41.9003823530001,-87.862488191,468,"2311 W DIVISION, MELROSE PARK, IL, 60160","Match","Non_Exact","2311 DIVISION ST, MELROSE PARK, IL, 60160",605137870,"R"
378469,"2311 W EMPIRE AVE","BURBANK","CA",91504,34.191842616,-118.33597197,469,"2311 W EMPIRE AVE, BURBANK, CA, 91504","Match","Exact","2311 W EMPIRE AVE, BURBANK, CA, 91504",141592402,"R"
378470,"2311 W FOOTHILLS DR","MISSOULA","MT",59803,46.8232176000001,-114.035821782,470,"2311 W FOOTHILLS DR, MISSOULA, MT, 59803","Match","Exact","2311 W FOOTHILLS DR, MISSOULA, MT, 59803",205237788,"L"
378471,"2311 W GRAPEVINE MILLS BLVD","GRAPEVINE","TX",76051,NA,NA,471,"2311 W GRAPEVINE MILLS BLVD, GRAPEVINE, TX, 76051","Tie",NA,NA,NA,NA
378472,"2311 W GRAPEVINE MILLS CIR 10007","GRAPEVINE","TX",76051,32.9707751110001,-97.043008753,472,"2311 W GRAPEVINE MILLS CIR 10007, GRAPEVINE, TX, 76051","Match","Exact","2311 GRAPEVINE MILLS CIR, GRAPEVINE, TX, 76051",102108952,"R"
378473,"2311 W GRAPEVINE MILLS CIRCLE 3102","GRAPEVINE","TX",76051,32.9707751110001,-97.043008753,473,"2311 W GRAPEVINE MILLS CIRCLE 3102, GRAPEVINE, TX, 76051","Match","Exact","2311 GRAPEVINE MILLS CIR, GRAPEVINE, TX, 76051",102108952,"R"
378474,"2311 W NEWMAN PKY","PEORIA","IL",61604,40.718411949,-89.629953299,474,"2311 W NEWMAN PKY, PEORIA, IL, 61604","Match","Exact","2311 W NEWMAN PKWY, PEORIA, IL, 61604",8714790,"R"
378475,"2311 W PENDLETON AVE","WEST JORDAN","UT",84095,40.5737560220001,-111.949008112,475,"2311 W PENDLETON AVE, WEST JORDAN, UT, 84095","Match","Non_Exact","2313 PENDLETON WAY, SOUTH JORDAN, UT, 84095",176126425,"R"
378476,"2311 WADE HAMPTON BLVD APT B2","GREENVILLE","SC",29615,34.8897002250001,-82.3488587049999,476,"2311 WADE HAMPTON BLVD APT B2, GREENVILLE, SC, 29615","Match","Exact","2311 WADE HAMPTON BLVD, GREENVILLE, SC, 29615",38302657,"L"
378477,"2311 WENONA COURT","WIXOM","MI",48393,42.5297513090001,-83.5180308079999,477,"2311 WENONA COURT, WIXOM, MI, 48393","Match","Exact","2311 WENONA CT, WIXOM, MI, 48393",69717388,"R"
378478,"2311 WEST 13TH STREET","TEXARKANA","TX",75501,33.429026967,-94.069282817,478,"2311 WEST 13TH STREET, TEXARKANA, TX, 75501","Match","Exact","2311 W 13TH ST, TEXARKANA, TX, 75501",57669565,"L"
378479,"2311 WEST 45TH AVENUE","DENVER","CO",80211,39.777775992,-105.014624457,479,"2311 WEST 45TH AVENUE, DENVER, CO, 80211","Match","Exact","2311 W 45TH AVE, DENVER, CO, 80211",177301092,"R"
378480,"2311 WEST AVENUE 134TH","SAN LEANDRO","CA",94577,37.7019434270001,-122.1808182,480,"2311 WEST AVENUE 134TH, SAN LEANDRO, CA, 94577","Match","Exact","2311 W AVE 134TH, SAN LEANDRO, CA, 94577",606307495,"R"
378481,"2311 WEST GRAPEVINE MILLS CIR 9002","GRAPEVINE","TX",76051,32.9728610920001,-97.0388506199999,481,"2311 WEST GRAPEVINE MILLS CIR 9002, GRAPEVINE, TX, 76051","Match","Exact","2311 W GRAPEVINE MILLS CIR, GRAPEVINE, TX, 76051",102171879,"L"
378482,"2311 WHITE OAK RIVER RD","MAYSVILLE","NC",28555,34.919146708,-77.3133682329999,482,"2311 WHITE OAK RIVER RD, MAYSVILLE, NC, 28555","Match","Exact","2311 WHITE OAK RIVER RD, MAYSVILLE, NC, 28555",624013226,"L"
378483,"2311 WILSON BLVD SUITE 200","ARLINGTON","VA",22201,38.890992225,-77.0866687279999,483,"2311 WILSON BLVD SUITE 200, ARLINGTON, VA, 22201","Match","Exact","2311 WILSON BLVD, ARLINGTON, VA, 22201",76469820,"R"
378484,"2311 WOODRUFF AVE","LANSING","MI",48913,42.7465666510001,-84.518749547,484,"2311 WOODRUFF AVE, LANSING, MI, 48913","Match","Non_Exact","2311 WOODRUFF AVE, LANSING, MI, 48912",17500972,"L"
378485,"2311 YOST RD","BATH","PA",18014,40.763036275,-75.379380182,485,"2311 YOST RD, BATH, PA, 18014","Match","Exact","2311 YOST RD, BATH, PA, 18014",136898518,"L"
378486,"2311","BROWNWOOD","TX",76801,NA,NA,486,"2311, BROWNWOOD, TX, 76801","No_Match",NA,NA,NA,NA
378487,"23110 E WILLIAMS FIELD RD","MESA","AZ",85212,33.3063208450001,-111.585082273,487,"23110 E WILLIAMS FIELD RD, MESA, AZ, 85212","Match","Exact","23110 E WILLIAMS FIELD RD, MESA, AZ, 85212",636813097,"L"
378488,"23110 LAMONG ROAD","SHERIDAN","IN",46069,40.120110335,-86.2038109279999,488,"23110 LAMONG ROAD, SHERIDAN, IN, 46069","Match","Exact","23110 LAMONG RD, SHERIDAN, IN, 46069",29289747,"L"
378489,"23110 SR 54 NO 148","LUTZ","FL",33549,NA,NA,489,"23110 SR 54 NO 148, LUTZ, FL, 33549","No_Match",NA,NA,NA,NA
378490,"23110 SR 54 UNIT 153","LUTZ","FL",33549,28.1857904460001,-82.431804766,490,"23110 SR 54 UNIT 153, LUTZ, FL, 33549","Match","Non_Exact","23110 STATE HWY 54, LUTZ, FL, 33549",641447771,"R"
378491,"23110 STATE RD 54","LUTZ","FL",33549,NA,NA,491,"23110 STATE RD 54, LUTZ, FL, 33549","No_Match",NA,NA,NA,NA
378492,"23110 STATE ROAD 54 -  207","LUTZ","FL",33549,NA,NA,492,"23110 STATE ROAD 54 -  207, LUTZ, FL, 33549","No_Match",NA,NA,NA,NA
378493,"23110 W MARTIN LAKE DR","STACY","MN",55079,45.388379731,-93.0900005349999,493,"23110 W MARTIN LAKE DR, STACY, MN, 55079","Match","Non_Exact","23110 W MARTIN LAKE DR NE, STACY, MN, 55079",647496897,"L"
378494,"23111 EAST DEL NORTE CIRCLE","AURORA","CO",80016,39.5611407550001,-104.720180347,494,"23111 EAST DEL NORTE CIRCLE, AURORA, CO, 80016","Match","Exact","23111 E DEL NORTE CIR, AURORA, CO, 80016",646210070,"R"
378495,"23111 LORRAINE BLVD SUITE 201","BROWNSTOWN","MI",48183,42.13668324,-83.259938832,495,"23111 LORRAINE BLVD SUITE 201, BROWNSTOWN, MI, 48183","Match","Exact","23111 LORRAINE BLVD, BROWNSTOWN, MI, 48183",95722240,"R"
378496,"23111 LOST BROOK LANE","SPRING","TX",77313,30.045545368,-95.389058209,496,"23111 LOST BROOK LANE, SPRING, TX, 77313","Match","Non_Exact","23111 LOST BROOK LN, SPRING, TX, 77373",96042317,"L"
378497,"23111 SADDLE","LEAVENWORTH","WA",98826,47.7409954020001,-120.662468279,497,"23111 SADDLE, LEAVENWORTH, WA, 98826","Match","Non_Exact","23111 SADDLE RD, LEAVENWORTH, WA, 98826",156992091,"L"
378498,"23111 STOCKDICK SCHOOL RD","KATY","TX",77493,NA,NA,498,"23111 STOCKDICK SCHOOL RD, KATY, TX, 77493","No_Match",NA,NA,NA,NA
378499,"23111 SUMMIT RD","LOS GATOS","CA",95033,37.1344028240001,-121.964704004,499,"23111 SUMMIT RD, LOS GATOS, CA, 95033","Match","Exact","23111 SUMMIT RD, LOS GATOS, CA, 95033",122945261,"R"
378500,"23111 W POMPANO STREET","MALIBU","CA",90265,NA,NA,500,"23111 W POMPANO STREET, MALIBU, CA, 90265","No_Match",NA,NA,NA,NA
