"ID","Address","City","State","Zip","lat","long","id","input_address","match_indicator","match_type","matched_address","tiger_line_id","tiger_side"
832001,"721 DELANEY AVE","ORLANDO","FL",32801,28.5328609430001,-81.374701584,1,"721 DELANEY AVE, ORLANDO, FL, 32801","Match","Exact","721 DELANEY AVE, ORLANDO, FL, 32801",94282616,"L"
832002,"721 DELAWRE TRAIL","MERCER","PA",16137,41.2886554450001,-80.187368626,2,"721 DELAWRE TRAIL, MERCER, PA, 16137","Match","Non_Exact","721 DELAWARE TRL, MERCER, PA, 16137",70644302,"L"
832003,"721 DODGE AVE","EVANSTON","IL",60202,42.0310544370001,-87.699357406,3,"721 DODGE AVE, EVANSTON, IL, 60202","Match","Exact","721 DODGE AVE, EVANSTON, IL, 60202",111743901,"R"
832004,"721 DRY CREEK RD","GOODLETTSVILLE","TN",37072,36.3192687700001,-86.757171269,4,"721 DRY CREEK RD, GOODLETTSVILLE, TN, 37072","Match","Exact","721 DRY CREEK RD, GOODLETTSVILLE, TN, 37072",97213864,"L"
832005,"721 DUNN ROAD","HAZELWOOD","MO",63042,38.7819451030001,-90.373004588,5,"721 DUNN ROAD, HAZELWOOD, MO, 63042","Match","Exact","721 DUNN RD, HAZELWOOD, MO, 63042",100184820,"R"
832006,"721 E 100TH PLACE","CHICAGO","IL",60628,41.7122088560001,-87.604509892,6,"721 E 100TH PLACE, CHICAGO, IL, 60628","Match","Exact","721 E 100TH PL, CHICAGO, IL, 60628",605518725,"R"
832007,"721 E 11TH AVE APT 1","BOWLING GREEN","KY",42101,36.9879639230001,-86.440440236,7,"721 E 11TH AVE APT 1, BOWLING GREEN, KY, 42101","Match","Non_Exact","721 E 11TH AVE, BOWLING GREEN, KY, 42101",28021401,"L"
832008,"721 E 5TH STREET","BIG STONE GAP","VA",24219,36.8725875550001,-82.7801255099999,8,"721 E 5TH STREET, BIG STONE GAP, VA, 24219","Match","Non_Exact","721 E 5TH ST N, BIG STONE GAP, VA, 24219",83444913,"L"
832009,"721 E 7TH ST","MICHIGAN CITY","IN",46360,NA,NA,9,"721 E 7TH ST, MICHIGAN CITY, IN, 46360","No_Match",NA,NA,NA,NA
832010,"721 E BONNEVILLE","POCATELLO","ID",83201,42.8657600170001,-112.440602815,10,"721 E BONNEVILLE, POCATELLO, ID, 83201","Match","Non_Exact","721 E BONNEVILLE ST, POCATELLO, ID, 83201",204371926,"R"
832011,"721 E BOVELL ST","CROWLEY","TX",76036,32.5803647500001,-97.3485118469999,11,"721 E BOVELL ST, CROWLEY, TX, 76036","Match","Exact","721 E BOVELL ST, CROWLEY, TX, 76036",101895095,"R"
832012,"721 E CHAPIN ST","CADILLAC","MI",49601,44.251457224,-85.3882564209999,12,"721 E CHAPIN ST, CADILLAC, MI, 49601","Match","Exact","721 E CHAPIN ST, CADILLAC, MI, 49601",146095168,"R"
832013,"721 E CHICAGO STREET LOT 61","RAPID CITY","SD",57701,44.0838980680001,-103.197590661,13,"721 E CHICAGO STREET LOT 61, RAPID CITY, SD, 57701","Match","Non_Exact","721 E CHICAGO ST, RAPID CITY, SD, 57701",645925033,"R"
832014,"721 E CURTIS STREET","LINDEN","NJ",7036,40.6414460940001,-74.252923408,14,"721 E CURTIS STREET, LINDEN, NJ, 7036","Match","Exact","721 E CURTIS ST, LINDEN, NJ, 07036",60575888,"L"
832015,"721 E HIGH ST","FARMER CITY","IL",61842,40.244932185,-88.635150005,15,"721 E HIGH ST, FARMER CITY, IL, 61842","Match","Exact","721 E HIGH ST, FARMER CITY, IL, 61842",20506322,"R"
832016,"721 E JUDD ST","GREENVILLE","MI",48838,43.1739921860001,-85.242906945,16,"721 E JUDD ST, GREENVILLE, MI, 48838","Match","Exact","721 E JUDD ST, GREENVILLE, MI, 48838",640427056,"R"
832017,"721 E MAPLE STREET","GLENDALE","CA",91205,34.1390026380001,-118.24589765,17,"721 E MAPLE STREET, GLENDALE, CA, 91205","Match","Exact","721 E MAPLE ST, GLENDALE, CA, 91205",141611049,"L"
832018,"721 E PEACH ST 1ST FL","VINELAND","NJ",8360,39.489994433,-75.02016069,18,"721 E PEACH ST 1ST FL, VINELAND, NJ, 8360","Match","Non_Exact","721 E PEACH ST, VINELAND, NJ, 08360",174110807,"R"
832019,"721 E SIERRA VISTA DRIVE APT2","PHOENIX","AZ",85014,33.5320073830001,-112.064423286,19,"721 E SIERRA VISTA DRIVE APT2, PHOENIX, AZ, 85014","Match","Non_Exact","721 E SIERRA VISTA DR, PHOENIX, AZ, 85014",128307784,"R"
832020,"721 E SYCAMORE AVENUE","ORANGE","CA",92866,33.793288923,-117.846280013,20,"721 E SYCAMORE AVENUE, ORANGE, CA, 92866","Match","Exact","721 E SYCAMORE AVE, ORANGE, CA, 92866",144031052,"L"
832021,"721 E WASHINGTON ST","MUNCIE","IN",47305,40.194425247,-85.379226933,21,"721 E WASHINGTON ST, MUNCIE, IN, 47305","Match","Exact","721 E WASHINGTON ST, MUNCIE, IN, 47305",30836560,"R"
832022,"721 EADON RD","TOLEDO","WA",98591,46.4533427470001,-122.765213576,22,"721 EADON RD, TOLEDO, WA, 98591","Match","Exact","721 EADON RD, TOLEDO, WA, 98591",180721455,"L"
832023,"721 EAST 153RD ST","PHOENIX","IL",60426,41.6110105340001,-87.6296314529999,23,"721 EAST 153RD ST, PHOENIX, IL, 60426","Match","Exact","721 E 153RD ST, PHOENIX, IL, 60426",111712530,"R"
832024,"721 EAST 32ND ST","HOUSTON","TX",77022,29.8152560250001,-95.390555327,24,"721 EAST 32ND ST, HOUSTON, TX, 77022","Match","Exact","721 E 32ND ST, HOUSTON, TX, 77022",96055616,"L"
832025,"721 EAST 3RD STREET","OGALLALA","NE",69153,41.1274543430001,-101.711971343,25,"721 EAST 3RD STREET, OGALLALA, NE, 69153","Match","Exact","721 E 3RD ST, OGALLALA, NE, 69153",150952016,"L"
832026,"721 EAST 8TH STRET","DULUTH","MN",55805,46.7992216040001,-92.097860822,26,"721 EAST 8TH STRET, DULUTH, MN, 55805","Match","Non_Exact","721 E 8TH ST, DULUTH, MN, 55805",163211708,"L"
832027,"721 EAST BELTLINE","COPPELL","TX",75019,32.949782299,-96.9849552169999,27,"721 EAST BELTLINE, COPPELL, TX, 75019","Match","Non_Exact","721 E BELT LINE RD, COPPELL, TX, 75019",650616994,"R"
832028,"721 EAST CHAPIN","CADILLAC","MI",49601,44.2514570450001,-85.388290447,28,"721 EAST CHAPIN, CADILLAC, MI, 49601","Match","Non_Exact","721 E CHAPIN ST, CADILLAC, MI, 49601",146095168,"R"
832029,"721 EAST COURT ST","PARIS","IL",61944,39.606665251,-87.678181436,29,"721 EAST COURT ST, PARIS, IL, 61944","Match","Exact","721 E COURT ST, PARIS, IL, 61944",5792879,"R"
832030,"721 EAST LAKE DRIVE","EDWARDSVILLE","IL",62025,38.7945637240001,-89.9283134569999,30,"721 EAST LAKE DRIVE, EDWARDSVILLE, IL, 62025","Match","Exact","721 E LAKE DR, EDWARDSVILLE, IL, 62025",649884103,"R"
832031,"721 EAST SKYLINE PARKWAY","DULUTH","MN",55805,46.802881455,-92.103889409,31,"721 EAST SKYLINE PARKWAY, DULUTH, MN, 55805","Match","Exact","721 E SKYLINE PKWY, DULUTH, MN, 55805",163211601,"L"
832032,"721 EDGE HILL ROAD","FAYETTEVILLE","NC",28314,35.049942779,-78.9710451569999,32,"721 EDGE HILL ROAD, FAYETTEVILLE, NC, 28314","Match","Non_Exact","721 EDGEHILL RD, FAYETTEVILLE, NC, 28314",64195959,"L"
832033,"721 ELM ST","WINNECONNE","WI",54986,44.1147743110001,-88.721273266,33,"721 ELM ST, WINNECONNE, WI, 54986","Match","Exact","721 ELM ST, WINNECONNE, WI, 54986",74483112,"L"
832034,"721 ENCHANTED DRIVE","MIDVALE","UT",84047,40.6291279210001,-111.869755231,34,"721 ENCHANTED DRIVE, MIDVALE, UT, 84047","Match","Exact","721 ENCHANTED DR, MIDVALE, UT, 84047",176151891,"L"
832035,"721 ESSEX DRIVE","SOUTHLAKE","TX",76092,32.939317117,-97.1663794139999,35,"721 ESSEX DRIVE, SOUTHLAKE, TX, 76092","Match","Non_Exact","721 ESSEX CT, SOUTHLAKE, TX, 76092",102088523,"L"
832036,"721 EVELYN AVENUE","KANNAPOLIS","NC",28083,35.5046238090001,-80.5966378379999,36,"721 EVELYN AVENUE, KANNAPOLIS, NC, 28083","Match","Exact","721 EVELYN AVE, KANNAPOLIS, NC, 28083",25272759,"L"
832037,"721 EVERGREEN CT","BURLESON","TX",76028,32.5676202280001,-97.330465757,37,"721 EVERGREEN CT, BURLESON, TX, 76028","Match","Exact","721 EVERGREEN CT, BURLESON, TX, 76028",102189055,"R"
832038,"721 FAIRVIEW AVE","ARCADIA","CA",91007,34.128912889,-118.055705055,38,"721 FAIRVIEW AVE, ARCADIA, CA, 91007","Match","Exact","721 FAIRVIEW AVE, ARCADIA, CA, 91007",141644398,"R"
832039,"721 FARADAY PLACE","WASHINGTON","DC",20017,38.9506531060001,-76.9960242659999,39,"721 FARADAY PLACE, WASHINGTON, DC, 20017","Match","Non_Exact","721 FARADAY PL NE, WASHINGTON, DC, 20017",76228158,"R"
832040,"721 FARAWAY COURT","MITCHELLVILLE","MD",20721,38.9017181190001,-76.819313881,40,"721 FARAWAY COURT, MITCHELLVILLE, MD, 20721","Match","Exact","721 FARAWAY CT, MITCHELLVILLE, MD, 20721",76354154,"R"
832041,"721 FIR AVENUE","BIRD ISLAND","MN",55310,44.7612836930001,-94.8959345549999,41,"721 FIR AVENUE, BIRD ISLAND, MN, 55310","Match","Exact","721 FIR AVE, BIRD ISLAND, MN, 55310",34063625,"R"
832042,"721 FIREWEED DRIVE","FAIRBANKS","AK",99709,64.8922027950001,-147.759420377,42,"721 FIREWEED DRIVE, FAIRBANKS, AK, 99709","Match","Exact","721 FIREWEED DR, FAIRBANKS, AK, 99709",190892971,"R"
832043,"721 FOXBORO LANE","DALLAS","TX",75241,32.6763162660001,-96.814207638,43,"721 FOXBORO LANE, DALLAS, TX, 75241","Match","Exact","721 FOXBORO LN, DALLAS, TX, 75241",102951679,"L"
832044,"721 FRANCE STREET","ROCKY HILL","CT",5067,NA,NA,44,"721 FRANCE STREET, ROCKY HILL, CT, 5067","No_Match",NA,NA,NA,NA
832045,"721 FRANCIS ROAD","DOWNSVILLE","LA",71234,NA,NA,45,"721 FRANCIS ROAD, DOWNSVILLE, LA, 71234","No_Match",NA,NA,NA,NA
832046,"721 FRANLYN DRIVE","DALLASTOWN","PA",17313,39.9085051810001,-76.643762136,46,"721 FRANLYN DRIVE, DALLASTOWN, PA, 17313","Match","Exact","721 FRANLYN DR, DALLASTOWN, PA, 17313",88736085,"R"
832047,"721 FRISELLA ST","TERRYTOWN","LA",70056,29.913689608,-90.037685456,47,"721 FRISELLA ST, TERRYTOWN, LA, 70056","Match","Exact","721 FRISELLA ST, TERRYTOWN, LA, 70056",639162672,"L"
832048,"721 G ST SW","WASHINGTON","DC",20024,38.8812878040001,-77.022349135,48,"721 G ST SW, WASHINGTON, DC, 20024","Match","Exact","721 G ST SW, WASHINGTON, DC, 20024",650611694,"R"
832049,"721 GARDEN STREET","UNION","NJ",7083,40.6963030160001,-74.2935093099999,49,"721 GARDEN STREET, UNION, NJ, 7083","Match","Exact","721 GARDEN ST, UNION, NJ, 07083",60604181,"R"
832050,"721 GARNET PLACE","MANTECA","CA",95336,37.807358385,-121.231917981,50,"721 GARNET PLACE, MANTECA, CA, 95336","Match","Exact","721 GARNET PL, MANTECA, CA, 95336",133858276,"R"
832051,"721 GATLIN AVE","ORLANDO","FL",32806,28.494251907,-81.3683343289999,51,"721 GATLIN AVE, ORLANDO, FL, 32806","Match","Exact","721 GATLIN AVE, ORLANDO, FL, 32806",94393002,"L"
832052,"721 GERMAN CLUB ROAD","DEFUNIAK SPRINGS","FL",32433,30.7369401770001,-86.096827069,52,"721 GERMAN CLUB ROAD, DEFUNIAK SPRINGS, FL, 32433","Match","Exact","721 GERMAN CLUB RD, DEFUNIAK SPRINGS, FL, 32433",32969749,"L"
832053,"721 GLEN WILD ROAD","WOODRIDGE","NY",12789,41.669957315,-74.5768999429999,53,"721 GLEN WILD ROAD, WOODRIDGE, NY, 12789","Match","Exact","721 GLEN WILD RD, WOODRIDGE, NY, 12789",634301305,"L"
832054,"721 GOODHOPE STREET","NORCO","LA",70079,30.011180649,-90.4070804629999,54,"721 GOODHOPE STREET, NORCO, LA, 70079","Match","Non_Exact","721 GOOD HOPE ST, NORCO, LA, 70079",93631655,"L"
832055,"721 GRANT AVE S","RENTON","WA",98057,47.4736814510001,-122.199182001,55,"721 GRANT AVE S, RENTON, WA, 98057","Match","Exact","721 GRANT AVE S, RENTON, WA, 98057",186632140,"R"
832056,"721 GRANT ST","LOUISVILLE","CO",80027,39.977041635,-105.135761437,56,"721 GRANT ST, LOUISVILLE, CO, 80027","Match","Non_Exact","721 GRANT AVE, LOUISVILLE, CO, 80027",188166314,"L"
832057,"721 GRANTS PKWY","ARLINGTON","TX",76014,32.703614971,-97.100093842,57,"721 GRANTS PKWY, ARLINGTON, TX, 76014","Match","Exact","721 GRANTS PKWY, ARLINGTON, TX, 76014",101909860,"L"
832058,"721 GRAY LN","PROSPER","TX",75078,33.245777226,-96.800779249,58,"721 GRAY LN, PROSPER, TX, 75078","Match","Exact","721 GRAY LN, PROSPER, TX, 75078",634134565,"L"
832059,"721 GREEN STREET","SANTA CRUZ","CA",95060,NA,NA,59,"721 GREEN STREET, SANTA CRUZ, CA, 95060","No_Match",NA,NA,NA,NA
832060,"721 GROVE STREET","MAUSTON","WI",53948,43.7934764020001,-90.088085458,60,"721 GROVE STREET, MAUSTON, WI, 53948","Match","Exact","721 GROVE ST, MAUSTON, WI, 53948",50951055,"L"
832061,"721 HADDEN RD E","WILMINGTON","DE",19808,NA,NA,61,"721 HADDEN RD E, WILMINGTON, DE, 19808","No_Match",NA,NA,NA,NA
832062,"721 HADLEY RD","SUGAR HILL","NH",3586,44.191010555,-71.815287627,62,"721 HADLEY RD, SUGAR HILL, NH, 3586","Match","Exact","721 HADLEY RD, SUGAR HILL, NH, 03586",145712377,"R"
832063,"721 HARRY S TRUMAN DRIVE","LARGO","MD",20774,38.8811911330001,-76.830034413,63,"721 HARRY S TRUMAN DRIVE, LARGO, MD, 20774","Match","Exact","721 HARRY S TRUMAN DR, LARGO, MD, 20774",76367725,"R"
832064,"721 HEMLOCK ST","MOUNTAIN CITY","TN",37683,NA,NA,64,"721 HEMLOCK ST, MOUNTAIN CITY, TN, 37683","No_Match",NA,NA,NA,NA
832065,"721 HIGH POINT DRIVE","LAKE ST. LOUIS","MO",63367,38.7926427370001,-90.7782466479999,65,"721 HIGH POINT DRIVE, LAKE ST. LOUIS, MO, 63367","Match","Exact","721 HIGH POINT DR, LAKE SAINT LOUIS, MO, 63367",605560991,"R"
832066,"721 HIGHLAND DR","ANDOVER","KS",67002,37.6748895280001,-97.118670907,66,"721 HIGHLAND DR, ANDOVER, KS, 67002","Match","Non_Exact","721 S HIGHLAND DR, ANDOVER, KS, 67002",32282881,"R"
832067,"721 HIGHPOINT DR","WEXFORD","PA",15090,40.6224791610001,-80.0832545229999,67,"721 HIGHPOINT DR, WEXFORD, PA, 15090","Match","Exact","721 HIGHPOINT DR, WEXFORD, PA, 15090",51695874,"R"
832068,"721 HIGHPOINT ROAD","BALTIMORE","MD",21234,NA,NA,68,"721 HIGHPOINT ROAD, BALTIMORE, MD, 21234","No_Match",NA,NA,NA,NA
832069,"721 HILLCREST DRIVE","IRON MOUNTAIN","MI",49801,45.8317429840001,-88.0742901789999,69,"721 HILLCREST DRIVE, IRON MOUNTAIN, MI, 49801","Match","Exact","721 HILLCREST DR, IRON MOUNTAIN, MI, 49801",170176465,"R"
832070,"721 HILLCREST LN","GLEN DALE","WV",26038,39.9632464680001,-80.740766196,70,"721 HILLCREST LN, GLEN DALE, WV, 26038","Match","Exact","721 HILLCREST LN, GLEN DALE, WV, 26038",38061903,"R"
832071,"721 HYDE DRIVE","OFALLON","MO",63366,38.798334653,-90.741128596,71,"721 HYDE DRIVE, OFALLON, MO, 63366","Match","Non_Exact","721 HYDE DR, O FALLON, MO, 63366",617667515,"R"
832072,"721 HYMETTUS AVE","ENCINITAS","CA",92024,33.06196734,-117.295257155,72,"721 HYMETTUS AVE, ENCINITAS, CA, 92024","Match","Exact","721 HYMETTUS AVE, ENCINITAS, CA, 92024",612888164,"R"
832073,"721 INDIAN TRAIL BLVD  19","TRAVERSE CITY","MI",NA,44.7531542420001,-85.5746528509999,73,"721 INDIAN TRAIL BLVD  19, TRAVERSE CITY, MI, ","Match","Exact","721 INDIAN TRAIL BLVD, TRAVERSE CITY, MI, 49686",644931517,"L"
832074,"721 INDIAN TRAIL BLVD","TRAVERSE CITY","MI",49686,44.7531542420001,-85.5746528509999,74,"721 INDIAN TRAIL BLVD, TRAVERSE CITY, MI, 49686","Match","Exact","721 INDIAN TRAIL BLVD, TRAVERSE CITY, MI, 49686",644931517,"L"
832075,"721 IVANHOE DRIVE","WATERTOWN","MN",55388,44.9547613610001,-93.84612956,75,"721 IVANHOE DRIVE, WATERTOWN, MN, 55388","Match","Exact","721 IVANHOE DR, WATERTOWN, MN, 55388",43505917,"L"
832076,"721 JANISCH RD APT 49","HOUSTON","TX",77004,29.8372639030001,-95.411575592,76,"721 JANISCH RD APT 49, HOUSTON, TX, 77004","Match","Non_Exact","721 JANISCH RD, HOUSTON, TX, 77018",96054179,"L"
832077,"721 JENNI LANE","MANCHESTER","GA",31816,32.845417592,-84.640568984,77,"721 JENNI LANE, MANCHESTER, GA, 31816","Match","Exact","721 JENNI LN, MANCHESTER, GA, 31816",9427362,"R"
832078,"721 JOHNSON AVE","LAKELAND","FL",33801,28.036574043,-81.9499382129999,78,"721 JOHNSON AVE, LAKELAND, FL, 33801","Match","Exact","721 JOHNSON AVE, LAKELAND, FL, 33801",104810766,"R"
832079,"721 JUDSON ST","LONGMONT","CO",80501,40.1709914,-105.117809636,79,"721 JUDSON ST, LONGMONT, CO, 80501","Match","Exact","721 JUDSON ST, LONGMONT, CO, 80501",188155276,"L"
832080,"721 JUNE LAKE LANE","BRANDON","FL",33510,27.9590282410001,-82.2976723529999,80,"721 JUNE LAKE LANE, BRANDON, FL, 33510","Match","Exact","721 JUNE LAKE LN, BRANDON, FL, 33510",104615112,"L"
832081,"721 KEMP ST","LANSE","MI",49946,46.763354706,-88.4402386849999,81,"721 KEMP ST, LANSE, MI, 49946","Match","Exact","721 KEMP ST, LANSE, MI, 49946",184198937,"L"
832082,"721 KENDALL CROSSING DRIVE","ST JOHN","FL",32259,30.0183953220001,-81.631167325,82,"721 KENDALL CROSSING DRIVE, ST JOHN, FL, 32259","Match","Non_Exact","721 KENDALL CROSSING DR, SAINT JOHNS, FL, 32259",653174533,"R"
832083,"721 KENDALL CROSSING DRIVE","ST JOHNS","FL",32259,30.0183953220001,-81.631167325,83,"721 KENDALL CROSSING DRIVE, ST JOHNS, FL, 32259","Match","Exact","721 KENDALL CROSSING DR, SAINT JOHNS, FL, 32259",653174533,"R"
832084,"721 KENDALL LANE","BOULDER CITY","NV",89005,35.9964017710001,-114.836469474,84,"721 KENDALL LANE, BOULDER CITY, NV, 89005","Match","Exact","721 KENDALL LN, BOULDER CITY, NV, 89005",201925386,"R"
832085,"721 KENTUCKY ST NE","ALBUQUERQUE","NM",87108,35.0667896360001,-106.569836922,85,"721 KENTUCKY ST NE, ALBUQUERQUE, NM, 87108","Match","Non_Exact","721 KENTUCKY ST SE, ALBUQUERQUE, NM, 87108",206718517,"R"
832086,"721 KEY CORNER","BROWNSVILLE","TN",38012,35.5974332420001,-89.273026579,86,"721 KEY CORNER, BROWNSVILLE, TN, 38012","Match","Non_Exact","721 KEY CORNER ST, BROWNSVILLE, TN, 38012",63735124,"R"
832087,"721 KINGSTON LACY BLVD","PFLUGERVILLE","TX",78660,30.474751429,-97.6119660529999,87,"721 KINGSTON LACY BLVD, PFLUGERVILLE, TX, 78660","Match","Exact","721 KINGSTON LACY BLVD, PFLUGERVILLE, TX, 78660",64113183,"R"
832088,"721 KNOX SPRINGS RD","AUSTELL","GA",30168,33.783690467,-84.577136985,88,"721 KNOX SPRINGS RD, AUSTELL, GA, 30168","Match","Exact","721 KNOX SPRINGS RD, AUSTELL, GA, 30168",17267301,"L"
832089,"721 KNOX SPRINGS ROAD","AUSTELL","GA",30168,33.783690467,-84.577136985,89,"721 KNOX SPRINGS ROAD, AUSTELL, GA, 30168","Match","Exact","721 KNOX SPRINGS RD, AUSTELL, GA, 30168",17267301,"L"
832090,"721 LAFAYETTE HIGHWAY","ROANOKE","AL",36274,33.139968073,-85.36235063,90,"721 LAFAYETTE HIGHWAY, ROANOKE, AL, 36274","Match","Exact","721 LAFAYETTE HWY, ROANOKE, AL, 36274",1626737,"R"
832091,"721 LAGRANDE BLVD","PUYALLUP","WA",98373,NA,NA,91,"721 LAGRANDE BLVD, PUYALLUP, WA, 98373","No_Match",NA,NA,NA,NA
832092,"721 LAKESHORE POINTE","OLD HICKORY","TN",37138,36.2440883240001,-86.6300503309999,92,"721 LAKESHORE POINTE, OLD HICKORY, TN, 37138","Match","Exact","721 LAKESHORE POINTE, OLD HICKORY, TN, 37138",97231954,"L"
832093,"721 LAKEVIEW DRIVE","Devils Lake","ND",58301,48.0627133770001,-98.785697768,93,"721 LAKEVIEW DRIVE, Devils Lake, ND, 58301","Match","Non_Exact","721 LAKE VIEW DR, DEVILS LAKE, ND, 58301",639849729,"R"
832094,"721 LAMI STREET","SAINT LOUIS","MO",63104,38.603420295,-90.205532487,94,"721 LAMI STREET, SAINT LOUIS, MO, 63104","Match","Exact","721 LAMI ST, SAINT LOUIS, MO, 63104",605125432,"R"
832095,"721 LAMP POST LANE","LAKELAND","FL",33809,28.1333878090001,-81.9413224319999,95,"721 LAMP POST LANE, LAKELAND, FL, 33809","Match","Exact","721 LAMP POST LN, LAKELAND, FL, 33809",104861724,"L"
832096,"721 LARCH STREET/ APT 8","INGLEWOOD","CA",90301,NA,NA,96,"721 LARCH STREET/ APT 8, INGLEWOOD, CA, 90301","No_Match",NA,NA,NA,NA
832097,"721 LENOX AVENUE","DOLTON","AL",36303,31.228255389,-85.3651074539999,97,"721 LENOX AVENUE, DOLTON, AL, 36303","Match","Non_Exact","721 LENNOX AVE, DOTHAN, AL, 36303",101216333,"L"
832098,"721 LINDSAY LANE","BOLINGBROOK","IL",60440,41.708835176,-88.099516363,98,"721 LINDSAY LANE, BOLINGBROOK, IL, 60440","Match","Non_Exact","721 LINDSEY LN, BOLINGBROOK, IL, 60440",111623960,"R"
832099,"721 LONGPOINT ROAD SUITE 405","MOUNT PLEASANT","SC",29464,32.8418647030001,-79.85181711,99,"721 LONGPOINT ROAD SUITE 405, MOUNT PLEASANT, SC, 29464","Match","Non_Exact","721 LONG POINT RD, MOUNT PLEASANT, SC, 29464",108899330,"L"
832100,"721 LULLABY COURT","CINCINNATI","OH",45238,39.106146999,-84.611988808,100,"721 LULLABY COURT, CINCINNATI, OH, 45238","Match","Exact","721 LULLABY CT, CINCINNATI, OH, 45238",103918530,"L"
832101,"721 LUTTRELL STREET","KNOXVILLE","TN",37917,35.9777603160001,-83.920601512,101,"721 LUTTRELL STREET, KNOXVILLE, TN, 37917","Match","Exact","721 LUTTRELL ST, KNOXVILLE, TN, 37917",42619821,"L"
832102,"721 MADISON AVE","WOODBINE","NJ",8273,NA,NA,102,"721 MADISON AVE, WOODBINE, NJ, 8273","No_Match",NA,NA,NA,NA
832103,"721 MADRONE RANCH RD","DRIPPING SPRINGS","TX",78620,30.251985271,-98.16089919,103,"721 MADRONE RANCH RD, DRIPPING SPRINGS, TX, 78620","Match","Exact","721 MADRONE RANCH RD, DRIPPING SPRINGS, TX, 78620",63829751,"L"
832104,"721 MAGNOLIA AVE","CROSBY","TX",77532,29.8663869260001,-95.07349637,104,"721 MAGNOLIA AVE, CROSBY, TX, 77532","Match","Exact","721 MAGNOLIA AVE, CROSBY, TX, 77532",96554789,"L"
832105,"721 MANGO COURT","SAN MARCOS","CA",92609,33.1511210890001,-117.131768212,105,"721 MANGO COURT, SAN MARCOS, CA, 92609","Match","Non_Exact","721 MANGO CT, SAN MARCOS, CA, 92069",195421626,"R"
832106,"721 MAPLE GROVE RD","EDGERTON","WI",53534,42.9148325250001,-89.0676151979999,106,"721 MAPLE GROVE RD, EDGERTON, WI, 53534","Match","Exact","721 MAPLE GROVE RD, EDGERTON, WI, 53534",49526623,"R"
832107,"721 MARIN AVE","LYNDHURST","NJ",7071,40.8045217550001,-74.1168760049999,107,"721 MARIN AVE, LYNDHURST, NJ, 7071","Match","Exact","721 MARIN AVE, LYNDHURST, NJ, 07071",64396005,"L"
832108,"721 MARK DR","OKLAHOMA CITY","OK",73115,35.459091087,-97.440797537,108,"721 MARK DR, OKLAHOMA CITY, OK, 73115","Match","Exact","721 MARK DR, OKLAHOMA CITY, OK, 73115",100413100,"R"
832109,"721 MARKET ST","WILLIAMSPORT","PA",17701,41.2463954680001,-77.005495158,109,"721 MARKET ST, WILLIAMSPORT, PA, 17701","Match","Exact","721 MARKET ST, WILLIAMSPORT, PA, 17701",59445991,"L"
832110,"721 MARSHALL ST","MISSOULA","MT",59801,46.8623220110001,-114.013251012,110,"721 MARSHALL ST, MISSOULA, MT, 59801","Match","Exact","721 MARSHALL ST, MISSOULA, MT, 59801",205238605,"R"
832111,"721 MARTINIQUE CIR","LAKELAND","FL",33803,27.9972448020001,-81.965591908,111,"721 MARTINIQUE CIR, LAKELAND, FL, 33803","Match","Exact","721 MARTINIQUE CIR, LAKELAND, FL, 33803",104860868,"R"
832112,"721 MAXIMILLIAN ST","BATON ROUGE","LA",70802,30.4417059630001,-91.1812821459999,112,"721 MAXIMILLIAN ST, BATON ROUGE, LA, 70802","Match","Exact","721 MAXIMILLIAN ST, BATON ROUGE, LA, 70802",635286954,"L"
832113,"721 MCLEAN AVE","POINT PLEASANT BEACH","NJ",8742,40.093772404,-74.053042462,113,"721 MCLEAN AVE, POINT PLEASANT BEACH, NJ, 8742","Match","Exact","721 MCLEAN AVE, PT PLEASANT BEACH, NJ, 08742",203734392,"R"
832114,"721 MEANDERING TRL","LITTLE ELM","TX",75068,33.2132275380001,-96.9318315469999,114,"721 MEANDERING TRL, LITTLE ELM, TX, 75068","Match","Exact","721 MEANDERING TRL, LITTLE ELM, TX, 75068",614136958,"R"
832115,"721 MELODY DRIVE","METAIRIE","LA",70002,30.000312928,-90.147063496,115,"721 MELODY DRIVE, METAIRIE, LA, 70002","Match","Exact","721 MELODY DR, METAIRIE, LA, 70002",93502893,"R"
832116,"721 MERCER RD","MARSHALL","TX",75672,32.3998648400001,-94.274093194,116,"721 MERCER RD, MARSHALL, TX, 75672","Match","Exact","721 MERCER RD, MARSHALL, TX, 75672",648248074,"L"
832117,"721 MILL RIDGE RD","LEXINGTON","KY",40514,37.9757852700001,-84.55112393,117,"721 MILL RIDGE RD, LEXINGTON, KY, 40514","Match","Exact","721 MILL RIDGE RD, LEXINGTON, KY, 40514",31938364,"R"
832118,"721 MILL STREET","CHESTER","PA",19013,39.836965714,-75.391831165,118,"721 MILL STREET, CHESTER, PA, 19013","Match","Exact","721 MILL ST, CHESTER, PA, 19013",134889298,"R"
832119,"721 MILLS AVE","DUMAS","TX",79029,35.8582086640001,-101.958853874,119,"721 MILLS AVE, DUMAS, TX, 79029","Match","Exact","721 MILLS AVE, DUMAS, TX, 79029",164659924,"R"
832120,"721 MOORE RD APT 206 B","AKRON","OH",44319,40.9821986950001,-81.496478526,120,"721 MOORE RD APT 206 B, AKRON, OH, 44319","Match","Exact","721 MOORE RD, AKRON, OH, 44319",61358347,"L"
832121,"721 MORROW ROAD","FOREST PARK","GA",30297,33.5907493080001,-84.366895766,121,"721 MORROW ROAD, FOREST PARK, GA, 30297","Match","Exact","721 MORROW RD, FOREST PARK, GA, 30297",625754789,"R"
832122,"721 MORROW ROAF","FOREST PARK","GA",30297,33.5907493080001,-84.366895766,122,"721 MORROW ROAF, FOREST PARK, GA, 30297","Match","Non_Exact","721 MORROW RD, FOREST PARK, GA, 30297",625754789,"R"
832123,"721 MYSTIC CREEK WAY","SOUTH JORDAN","UT",84095,40.5647509710001,-111.911565909,123,"721 MYSTIC CREEK WAY, SOUTH JORDAN, UT, 84095","Match","Non_Exact","721 W MYSTIC CREEK WAY, SOUTH JORDAN, UT, 84095",645586807,"R"
832124,"721 N 31ST STREET SUITE 102","KANSAS CITY","KS",66102,39.1134651990001,-94.6640989269999,124,"721 N 31ST STREET SUITE 102, KANSAS CITY, KS, 66102","Match","Non_Exact","721 N 31ST ST, KANSAS CITY, KS, 66102",91139641,"R"
832125,"721 N 3RD STREET","LAWRENCE","KS",66044,38.9834019690001,-95.2332060639999,125,"721 N 3RD STREET, LAWRENCE, KS, 66044","Match","Exact","721 N 3RD ST, LAWRENCE, KS, 66044",17683862,"L"
832126,"721 N AVE F","FREEPORT","TX",77541,28.9677946900001,-95.366001954,126,"721 N AVE F, FREEPORT, TX, 77541","Match","Exact","721 N AVE F, FREEPORT, TX, 77541",116581975,"R"
832127,"721 N B STREET SUITE 27","SACRAMENTO","CA",95811,38.59203754,-121.491487269,127,"721 N B STREET SUITE 27, SACRAMENTO, CA, 95811","Match","Non_Exact","721 N B ST, SACRAMENTO, CA, 95811",640620516,"L"
832128,"721 N BROADWAY","DE PERE","WI",54115,44.4556048380001,-88.058449563,128,"721 N BROADWAY, DE PERE, WI, 54115","Match","Exact","721 N BROADWAY, DE PERE, WI, 54115",148101200,"L"
832129,"721 N CEDAR","LUVERNE","MN",56156,43.6604355760001,-96.207716428,129,"721 N CEDAR, LUVERNE, MN, 56156","Match","Non_Exact","721 N CEDAR ST, LUVERNE, MN, 56156",30494935,"L"
832130,"721 N CURTIS AVENUE","ALHAMBRA","CA",91801,34.100315133,-118.136904072,130,"721 N CURTIS AVENUE, ALHAMBRA, CA, 91801","Match","Exact","721 N CURTIS AVE, ALHAMBRA, CA, 91801",141631321,"L"
832131,"721 N DAVIDSON ST","CHARLOTTE","NC",28202,35.2279405680001,-80.83095731,131,"721 N DAVIDSON ST, CHARLOTTE, NC, 28202","Match","Exact","721 N DAVIDSON ST, CHARLOTTE, NC, 28202",70563966,"L"
832132,"721 N DIAMOND STREET","JACKSONVILLE","IL",62650,39.738293318,-90.238636905,132,"721 N DIAMOND STREET, JACKSONVILLE, IL, 62650","Match","Exact","721 N DIAMOND ST, JACKSONVILLE, IL, 62650",81431924,"L"
832133,"721 N EUCLID ST","ANAHEIM","CA",92801,33.8420750760001,-117.941615444,133,"721 N EUCLID ST, ANAHEIM, CA, 92801","Match","Exact","721 N EUCLID ST, ANAHEIM, CA, 92801",144023504,"L"
832134,"721 N FAIRVIEW ST","BURBANK","CA",91505,34.167303916,-118.33964014,134,"721 N FAIRVIEW ST, BURBANK, CA, 91505","Match","Exact","721 N FAIRVIEW ST, BURBANK, CA, 91505",142726023,"L"
832135,"721 N LEMON STREET","ANAHEIM","CA",92805,33.8421495740001,-117.918166575,135,"721 N LEMON STREET, ANAHEIM, CA, 92805","Match","Exact","721 N LEMON ST, ANAHEIM, CA, 92805",144023113,"L"
832136,"721 N NANTES AVE","LA PUENTE","CA",91744,34.034031129,-117.95479813,136,"721 N NANTES AVE, LA PUENTE, CA, 91744","Match","Exact","721 N NANTES AVE, LA PUENTE, CA, 91744",141713357,"L"
832137,"721 N POINSETTIA PL","LOS ANGELES","CA",90046,34.083984731,-118.348657473,137,"721 N POINSETTIA PL, LOS ANGELES, CA, 90046","Match","Exact","721 N POINSETTIA PL, LOS ANGELES, CA, 90046",141599540,"L"
832138,"721 N RANKIN ST","APPLETON","WI",54911,44.2681877850001,-88.3929242839999,138,"721 N RANKIN ST, APPLETON, WI, 54911","Match","Exact","721 N RANKIN ST, APPLETON, WI, 54911",74920803,"L"
832139,"721 N RIVER RD","MILFORD","NH",3055,42.84315546,-71.712187156,139,"721 N RIVER RD, MILFORD, NH, 3055","Match","Exact","721 N RIVER RD, MILFORD, NH, 03055",641938876,"R"
832140,"721 N SEWARD ST","RED CLOUD","NE",68970,40.092205334,-98.522041959,140,"721 N SEWARD ST, RED CLOUD, NE, 68970","Match","Exact","721 N SEWARD ST, RED CLOUD, NE, 68970",168548592,"L"
832141,"721 N SEYMOUR","LANSING","MI",48906,42.741411676,-84.5553416289999,141,"721 N SEYMOUR, LANSING, MI, 48906","Match","Non_Exact","721 SEYMOUR AVE, LANSING, MI, 48906",652795095,"L"
832142,"721 N STATE ST APT C2","JACKSON","MS",39202,32.30710623,-90.178953963,142,"721 N STATE ST APT C2, JACKSON, MS, 39202","Match","Non_Exact","721 N STATE ST, JACKSON, MS, 39202",65371167,"L"
832143,"721 N SUNSET SP 35","BANNING","CA",92220,NA,NA,143,"721 N SUNSET SP 35, BANNING, CA, 92220","No_Match",NA,NA,NA,NA
832144,"721 N TRYON STREET","CHARLOTTE","NC",28202,35.232030423,-80.8362468719999,144,"721 N TRYON STREET, CHARLOTTE, NC, 28202","Match","Exact","721 N TRYON ST, CHARLOTTE, NC, 28202",70479230,"L"
832145,"721 NARCISSUS AVENUE","CORONA DEL MAR","CA",92625,33.598074411,-117.866513101,145,"721 NARCISSUS AVENUE, CORONA DEL MAR, CA, 92625","Match","Exact","721 NARCISSUS AVE, CORONA DEL MAR, CA, 92625",144050954,"L"
832146,"721 NARROWS ROAD","BIGLERVILLE","PA",17307,39.934746466,-77.3171348879999,146,"721 NARROWS ROAD, BIGLERVILLE, PA, 17307","Match","Exact","721 NARROWS RD, BIGLERVILLE, PA, 17307",60884056,"R"
832147,"721 NE 15TH AVENUE","FORT LAUDERDALE","FL",33304,26.132378078,-80.128522855,147,"721 NE 15TH AVENUE, FORT LAUDERDALE, FL, 33304","Match","Non_Exact","721 NE 15TH AVE, FORT LAUDERDALE, FL, 33304",114723049,"L"
832148,"721 NE 189TH ST","SHORELINE","WA",98155,47.7658570940001,-122.321840394,148,"721 NE 189TH ST, SHORELINE, WA, 98155","Match","Exact","721 NE 189TH ST, SHORELINE, WA, 98155",186574657,"R"
832149,"721 NE CANTERBURY DR","ANKENY","IA",50021,41.7437808450001,-93.588332711,149,"721 NE CANTERBURY DR, ANKENY, IA, 50021","Match","Exact","721 NE CANTERBURY DR, ANKENY, IA, 50021",65835469,"R"
832150,"721 NEW SCOTLAND AVENUE","ALBANY","NY",12208,42.6592294960001,-73.810328316,150,"721 NEW SCOTLAND AVENUE, ALBANY, NY, 12208","Match","Exact","721 NEW SCOTLAND AVE, ALBANY, NY, 12208",18307900,"R"
832151,"721 NOB HILL AVE N APT 1","SEATTLE","WA",98109,NA,NA,151,"721 NOB HILL AVE N APT 1, SEATTLE, WA, 98109","No_Match",NA,NA,NA,NA
832152,"721 NORTH 17TH ST UNIT 201","ST LOUIS","MO",63103,38.634265482,-90.2028834339999,152,"721 NORTH 17TH ST UNIT 201, ST LOUIS, MO, 63103","Match","Exact","721 N 17TH ST, SAINT LOUIS, MO, 63103",107604527,"L"
832153,"721 NORTH CAHUENGA BLVD","LOS ANGELES","CA",90038,34.0839363150001,-118.328787155,153,"721 NORTH CAHUENGA BLVD, LOS ANGELES, CA, 90038","Match","Exact","721 N CAHUENGA BLVD, LOS ANGELES, CA, 90038",141599964,"L"
832154,"721 NORTH DAVIDSON STREET","CHARLOTTE","NC",28202,35.2279405680001,-80.83095731,154,"721 NORTH DAVIDSON STREET, CHARLOTTE, NC, 28202","Match","Exact","721 N DAVIDSON ST, CHARLOTTE, NC, 28202",70563966,"L"
832155,"721 NORTH ELM STREET","SAINT LOUIS","MO",63303,NA,NA,155,"721 NORTH ELM STREET, SAINT LOUIS, MO, 63303","No_Match",NA,NA,NA,NA
832156,"721 NORTH HOSICK CIRCLE","MESA","AZ",85201,33.4293752670001,-111.844921536,156,"721 NORTH HOSICK CIRCLE, MESA, AZ, 85201","Match","Exact","721 N HOSICK CIR, MESA, AZ, 85201",128322553,"L"
832157,"721 NORTH LOOMIS STREET","NAPERVILLE","IL",60563,41.783125478,-88.141631922,157,"721 NORTH LOOMIS STREET, NAPERVILLE, IL, 60563","Match","Exact","721 N LOOMIS ST, NAPERVILLE, IL, 60563",112528658,"L"
832158,"721 NW 129 AVENUE","MIAMI","FL",33182,25.776580623,-80.405183693,158,"721 NW 129 AVENUE, MIAMI, FL, 33182","Match","Exact","721 NW 129TH AVE, MIAMI, FL, 33182",116302711,"R"
832159,"721 NW 170 TERRACE","PEMBROKE PINES","FL",33028,26.0114362940001,-80.373740007,159,"721 NW 170 TERRACE, PEMBROKE PINES, FL, 33028","Match","Exact","721 NW 170TH TER, PEMBROKE PINES, FL, 33028",114818534,"L"
832160,"721 NW 170TH TERRACE","PEMBROKE PINES","FL",33028,26.0114362940001,-80.373740007,160,"721 NW 170TH TERRACE, PEMBROKE PINES, FL, 33028","Match","Exact","721 NW 170TH TER, PEMBROKE PINES, FL, 33028",114818534,"L"
832161,"721 NW 18 STREET","POMPANO BEACH","FL",33060,26.2530683310001,-80.133748377,161,"721 NW 18 STREET, POMPANO BEACH, FL, 33060","Match","Exact","721 NW 18TH ST, POMPANO BEACH, FL, 33060",114741488,"R"
832162,"721 NW 18TH ST","POMPANO BEACH","FL",33060,26.2530683310001,-80.133748377,162,"721 NW 18TH ST, POMPANO BEACH, FL, 33060","Match","Non_Exact","721 NW 18TH ST, POMPANO BEACH, FL, 33060",114741488,"R"
832163,"721 NW 2 ST","FORT LAUDERDALE","FL",33311,26.1239348010001,-80.150935709,163,"721 NW 2 ST, FORT LAUDERDALE, FL, 33311","Match","Non_Exact","721 NW 2ND ST, FORT LAUDERDALE, FL, 33311",114722626,"R"
832164,"721 NW 2ND ST","FORT LAUDERDALE","FL",33311,26.1239348010001,-80.150935709,164,"721 NW 2ND ST, FORT LAUDERDALE, FL, 33311","Match","Non_Exact","721 NW 2ND ST, FORT LAUDERDALE, FL, 33311",114722626,"R"
832165,"721 NW 46TH","LAWTON","OK",73505,34.6158620050001,-98.447914434,165,"721 NW 46TH, LAWTON, OK, 73505","Match","Non_Exact","721 NW 46TH ST, LAWTON, OK, 73505",15012919,"R"
832166,"721 NW 48TH ST","OKLAHOMA CITY","OK",73118,35.520405757,-97.5244042639999,166,"721 NW 48TH ST, OKLAHOMA CITY, OK, 73118","Match","Exact","721 NW 48TH ST, OKLAHOMA CITY, OK, 73118",100399806,"R"
832167,"721 NW 76TH ST","MIAMI","FL",33150,25.84407758,-80.209983923,167,"721 NW 76TH ST, MIAMI, FL, 33150","Match","Non_Exact","721 NW 76TH ST, MIAMI, FL, 33150",116004557,"R"
832168,"721 NW 7TH AVENUE","HOMESTEAD","FL",33030,25.476347618,-80.48663722,168,"721 NW 7TH AVENUE, HOMESTEAD, FL, 33030","Match","Exact","721 NW 7TH AVE, HOMESTEAD, FL, 33030",115961439,"R"
832169,"721 NW 9TH AVENUE STE 200","PORTLAND","OR",97209,45.528158874,-122.68026119,169,"721 NW 9TH AVENUE STE 200, PORTLAND, OR, 97209","Match","Non_Exact","721 NW 9TH AVE, PORTLAND, OR, 97209",157499072,"L"
832170,"721 NW 9TH AVENUE SUITE 225","PORTLAND","OR",97209,45.528158874,-122.68026119,170,"721 NW 9TH AVENUE SUITE 225, PORTLAND, OR, 97209","Match","Non_Exact","721 NW 9TH AVE, PORTLAND, OR, 97209",157499072,"L"
832171,"721 OAK STREET","NORTHERN CAMBRIA","PA",15714,40.6643524420001,-78.773967095,171,"721 OAK STREET, NORTHERN CAMBRIA, PA, 15714","Match","Exact","721 OAK ST, NORTHERN CAMBRIA, PA, 15714",50244362,"L"
832172,"721 OLD DAIRY DR","WAKE FOREST","NC",27587,35.953704316,-78.5096937439999,172,"721 OLD DAIRY DR, WAKE FOREST, NC, 27587","Match","Exact","721 OLD DAIRY DR, WAKE FOREST, NC, 27587",646908497,"L"
832173,"721 OLD HIGHWAY 4","COLDWATER","MS",38618,34.634036425,-89.765064735,173,"721 OLD HIGHWAY 4, COLDWATER, MS, 38618","Match","Exact","721 OLD HWY 4, COLDWATER, MS, 38618",80132693,"R"
832174,"721 OLD LEAKSVILLE ROAD","RIDGEWAY","VA",24148,36.5819515040001,-79.842895315,174,"721 OLD LEAKSVILLE ROAD, RIDGEWAY, VA, 24148","Match","Exact","721 OLD LEAKSVILLE RD, RIDGEWAY, VA, 24148",55533611,"L"
832175,"721 OLD WESTMINSTER PIKE","WESTMINSTER","MD",21157,39.557636658,-76.970323406,175,"721 OLD WESTMINSTER PIKE, WESTMINSTER, MD, 21157","Match","Exact","721 OLD WESTMINSTER PIKE, WESTMINSTER, MD, 21157",61777664,"R"
832176,"721 PAMELA STREET","GADSDEN","AL",35901,34.059760684,-86.0133368199999,176,"721 PAMELA STREET, GADSDEN, AL, 35901","Match","Non_Exact","721 PAMELA ST, GADSDEN, AL, 35904",66784648,"R"
832177,"721 PARKWAY DRIVE","MT. HOREB","WI",53572,43.0000724450001,-89.742834069,177,"721 PARKWAY DRIVE, MT. HOREB, WI, 53572","Match","Exact","721 PARKWAY DR, MOUNT HOREB, WI, 53572",49495755,"L"
832178,"721 PEBBLECREEK DRIVE","GARLAND","TX",75040,32.941204439,-96.637702275,178,"721 PEBBLECREEK DRIVE, GARLAND, TX, 75040","Match","Exact","721 PEBBLECREEK DR, GARLAND, TX, 75040",103210572,"R"
832179,"721 PEMBERTON ST","PHILADELPHIA","PA",19147,39.940793672,-75.154907123,179,"721 PEMBERTON ST, PHILADELPHIA, PA, 19147","Match","Exact","721 PEMBERTON ST, PHILADELPHIA, PA, 19147",131441118,"R"
832180,"721 PEMBERTON","GROSSE POINTE PARK","MI",48230,42.368119456,-82.932293989,180,"721 PEMBERTON, GROSSE POINTE PARK, MI, 48230","Match","Exact","721 PEMBERTON, GROSSE POINTE PARK, MI, 48230",95489109,"L"
832181,"721 PENSACOLA BEACH BLVD","GULFBREEZE","FL",32561,30.335554304,-87.143661464,181,"721 PENSACOLA BEACH BLVD, GULFBREEZE, FL, 32561","Match","Non_Exact","721 PENSACOLA BEACH BLVD, GULF BREEZE, FL, 32561",93267421,"L"
832182,"721 PHILADELPHIA ROAD","EASTON","PA",18042,40.6771174020001,-75.2112521459999,182,"721 PHILADELPHIA ROAD, EASTON, PA, 18042","Match","Exact","721 PHILADELPHIA RD, EASTON, PA, 18042",136907077,"R"
832183,"721 PICKWICK PLACE","SHREVEPORT","LA",71108,32.425115261,-93.7765550889999,183,"721 PICKWICK PLACE, SHREVEPORT, LA, 71108","Match","Exact","721 PICKWICK PL, SHREVEPORT, LA, 71108",57439505,"R"
832184,"721 PINEY GROVE CHURCH RD","SILER CITY","NC",27344,35.757067959,-79.474427142,184,"721 PINEY GROVE CHURCH RD, SILER CITY, NC, 27344","Match","Exact","721 PINEY GROVE CHURCH RD, SILER CITY, NC, 27344",600318731,"L"
832185,"721 POLAND ROAD","AUBURN","ME",4210,44.0706966000001,-70.265357455,185,"721 POLAND ROAD, AUBURN, ME, 4210","Match","Exact","721 POLAND RD, AUBURN, ME, 04210",77976774,"R"
832186,"721 POPLAR CT","MARSHFIELD","MO",65706,37.3474217150001,-92.898065504,186,"721 POPLAR CT, MARSHFIELD, MO, 65706","Match","Exact","721 POPLAR CT, MARSHFIELD, MO, 65706",26618781,"L"
832187,"721 PRESTWICK LANE","WHEELING","IL",60090,42.128573622,-87.901294009,187,"721 PRESTWICK LANE, WHEELING, IL, 60090","Match","Exact","721 PRESTWICK LN, WHEELING, IL, 60090",112386084,"R"
832188,"721 PROSPECT AVE","PRINCETON","NJ",8540,40.3633485820001,-74.6274274739999,188,"721 PROSPECT AVE, PRINCETON, NJ, 8540","Match","Exact","721 PROSPECT AVE, PRINCETON, NJ, 08540",60171169,"R"
832189,"721 QUAKER ROAD","EAST AURORA","NY",14052,42.761404251,-78.655008078,189,"721 QUAKER ROAD, EAST AURORA, NY, 14052","Match","Exact","721 QUAKER RD, EAST AURORA, NY, 14052",645418012,"L"
832190,"721 QUENTIN ROAD","BROOKLYN","NY",11223,40.6074466850001,-73.965616811,190,"721 QUENTIN ROAD, BROOKLYN, NY, 11223","Match","Exact","721 QUENTIN RD, BROOKLYN, NY, 11223",59089832,"L"
832191,"721 QUESTOVER DRIVE","CARTHAGE","IL",62321,40.4247166330001,-91.1328917559999,191,"721 QUESTOVER DRIVE, CARTHAGE, IL, 62321","Match","Exact","721 QUESTOVER DR, CARTHAGE, IL, 62321",5314926,"R"
832192,"721 RACETRACK ROAD","POLKTON","NC",28135,35.1062937630001,-80.225598882,192,"721 RACETRACK ROAD, POLKTON, NC, 28135","Match","Non_Exact","721 RACE TRACK RD, POLKTON, NC, 28135",12790896,"R"
832193,"721 READING TERRACE","DELTONA","FL",32725,28.874508845,-81.2589260669999,193,"721 READING TERRACE, DELTONA, FL, 32725","Match","Exact","721 READING TER, DELTONA, FL, 32725",94596306,"R"
832194,"721 RESERVOIR STREET","BALTIMORE","MD",21217,39.3128508500001,-76.6286411029999,194,"721 RESERVOIR STREET, BALTIMORE, MD, 21217","Match","Exact","721 RESERVOIR ST, BALTIMORE, MD, 21217",206416827,"L"
832195,"721 RETFORD PKWY","PAINESVILLE","OH",44077,41.7601994250001,-81.2115334759999,195,"721 RETFORD PKWY, PAINESVILLE, OH, 44077","Match","Exact","721 RETFORD PKWY, PAINESVILLE, OH, 44077",137469748,"R"
832196,"721 REVERE BEACH PARKWAY","REVERE","MA",2151,42.4029475950001,-71.010993415,196,"721 REVERE BEACH PARKWAY, REVERE, MA, 2151","Match","Exact","721 REVERE BEACH PKWY, REVERE, MA, 02151",85736760,"L"
832197,"721 RICHARDS STREET","JOLIET","IL",60433,41.5105050010001,-88.074055744,197,"721 RICHARDS STREET, JOLIET, IL, 60433","Match","Exact","721 RICHARDS ST, JOLIET, IL, 60433",646892009,"R"
832198,"721 RIDGE BROOK TRL","DULUTH","GA",30096,NA,NA,198,"721 RIDGE BROOK TRL, DULUTH, GA, 30096","No_Match",NA,NA,NA,NA
832199,"721 RIVIERA DR","HOLLISTER","CA",95023,36.8531370680001,-121.388563749,199,"721 RIVIERA DR, HOLLISTER, CA, 95023","Match","Exact","721 RIVIERA DR, HOLLISTER, CA, 95023",125453704,"R"
832200,"721 ROGER MILLER ROAD / PO BOX 218","BASKIN","LA",71219,NA,NA,200,"721 ROGER MILLER ROAD / PO BOX 218, BASKIN, LA, 71219","No_Match",NA,NA,NA,NA
832201,"721 ROSAL AVE","OAKLAND","CA",94610,37.8129756000001,-122.237086331,201,"721 ROSAL AVE, OAKLAND, CA, 94610","Match","Exact","721 ROSAL AVE, OAKLAND, CA, 94610",125001890,"R"
832202,"721 ROSE STREET","WILLIAMSPORT","PA",17701,41.2451104420001,-77.032930278,202,"721 ROSE STREET, WILLIAMSPORT, PA, 17701","Match","Exact","721 ROSE ST, WILLIAMSPORT, PA, 17701",59478132,"L"
832203,"721 ROSEDOWN DRIVE","THIBODAUX","LA",70301,29.8089380430001,-90.812134756,203,"721 ROSEDOWN DRIVE, THIBODAUX, LA, 70301","Match","Exact","721 ROSEDOWN DR, THIBODAUX, LA, 70301",639629034,"L"
832204,"721 ROUTE 34","MATAWAN","NJ",7747,40.4149795750001,-74.2450865819999,204,"721 ROUTE 34, MATAWAN, NJ, 7747","Match","Non_Exact","721 STATE RTE 34, MATAWAN, NJ, 07747",90472449,"L"
832205,"721 ROVALIA WAY","VERONA","WI",53593,42.998932198,-89.551874375,205,"721 ROVALIA WAY, VERONA, WI, 53593","Match","Non_Exact","721 ROVALIA DR, VERONA, WI, 53593",639589591,"R"
832206,"721 ROYAL ST","OTO","IA",51044,42.2788893680001,-95.8951915489999,206,"721 ROYAL ST, OTO, IA, 51044","Match","Exact","721 ROYAL ST, OTO, IA, 51044",93413763,"L"
832207,"721 RUFINA ST","LEAGUE CITY","TX",77573,29.496591729,-95.06882598,207,"721 RUFINA ST, LEAGUE CITY, TX, 77573","Match","Exact","721 RUFINA ST, LEAGUE CITY, TX, 77573",616378760,"R"
832208,"721 S 100 W","OREM","UT",84058,40.283584503,-111.697607821,208,"721 S 100 W, OREM, UT, 84058","Match","Exact","721 S 100 W, OREM, UT, 84058",647650894,"R"
832209,"721 S 21ST ST","LEAVENWORTH","KS",66048,39.3125237950001,-94.953061766,209,"721 S 21ST ST, LEAVENWORTH, KS, 66048","Match","Exact","721 21ST ST, LEAVENWORTH, KS, 66048",91400722,"L"
832210,"721 S AIKEN AVE","PITTSBURGH","PA",15232,40.4511788470001,-79.935808341,210,"721 S AIKEN AVE, PITTSBURGH, PA, 15232","Match","Exact","721 S AIKEN AVE, PITTSBURGH, PA, 15232",51644624,"L"
832211,"721 S BODMER AVE","STRASBURG","OH",44680,40.58983583,-81.530405103,211,"721 S BODMER AVE, STRASBURG, OH, 44680","Match","Exact","721 S BODMER AVE, STRASBURG, OH, 44680",44233853,"R"
832212,"721 S BURK ST","GILBERT","AZ",85296,33.3370761620001,-111.781997229,212,"721 S BURK ST, GILBERT, AZ, 85296","Match","Exact","721 S BURK ST, GILBERT, AZ, 85296",128783043,"L"
832213,"721 S CALUMET AVE","MICHIGAN CITY","IN",46360,41.703066925,-86.8716681179999,213,"721 S CALUMET AVE, MICHIGAN CITY, IN, 46360","Match","Exact","721 S CALUMET AVE, MICHIGAN CITY, IN, 46360",15412792,"R"
832214,"721 S COPPELL ROAD","COPPELL","TX",75019,32.9533687950001,-97.005235563,214,"721 S COPPELL ROAD, COPPELL, TX, 75019","Match","Exact","721 S COPPELL RD, COPPELL, TX, 75019",642781359,"R"
832215,"721 S FRANKLIN ST","RAYMORE","MO",64083,38.7927263390001,-94.453579426,215,"721 S FRANKLIN ST, RAYMORE, MO, 64083","Match","Exact","721 S FRANKLIN ST, RAYMORE, MO, 64083",614097201,"R"
832216,"721 S GRANT STREET","HINSDALE","IL",60521,41.7940907980001,-87.93197394,216,"721 S GRANT STREET, HINSDALE, IL, 60521","Match","Exact","721 S GRANT ST, HINSDALE, IL, 60521",112550240,"L"
832217,"721 S KING STREET","LAURINBURG","NC",28352,34.7717247510001,-79.4720052229999,217,"721 S KING STREET, LAURINBURG, NC, 28352","Match","Exact","721 S KING ST, LAURINBURG, NC, 28352",25786501,"R"
832218,"721 S MARSHALL ST","BOONE","IA",50036,NA,NA,218,"721 S MARSHALL ST, BOONE, IA, 50036","Tie",NA,NA,NA,NA
832219,"721 S MINERVA AVENU","ROYAL OAK","MI",NA,42.4841188080001,-83.118648231,219,"721 S MINERVA AVENU, ROYAL OAK, MI, ","Match","Exact","721 S MINERVA AVE, ROYAL OAK, MI, 48067",69746907,"L"
832220,"721 S MINERVA AVENUE","ROYAL OAK","MI",NA,42.4841188080001,-83.118648231,220,"721 S MINERVA AVENUE, ROYAL OAK, MI, ","Match","Exact","721 S MINERVA AVE, ROYAL OAK, MI, 48067",69746907,"L"
832221,"721 S OAK PARK STREET","VISALIA","CA",93277,36.3243764320001,-119.304312251,221,"721 S OAK PARK STREET, VISALIA, CA, 93277","Match","Exact","721 S OAK PARK ST, VISALIA, CA, 93277",202780546,"R"
832222,"721 S PARK","INDEPENDENCE","KS",67301,37.2156761100001,-95.7013791809999,222,"721 S PARK, INDEPENDENCE, KS, 67301","Match","Non_Exact","721 S PARK BLVD, INDEPENDENCE, KS, 67301",13784009,"L"
832223,"721 S SHERIDAN AVE","OTTUMWA","IA",52501,40.995978736,-92.418655133,223,"721 S SHERIDAN AVE, OTTUMWA, IA, 52501","Match","Exact","721 S SHERIDAN AVE, OTTUMWA, IA, 52501",89629017,"L"
832224,"721 S STATE STREET","HEMET","CA",92543,NA,NA,224,"721 S STATE STREET, HEMET, CA, 92543","Tie",NA,NA,NA,NA
832225,"721 S WASHINGTON ST","DENVER","CO",80209,39.7034857720001,-104.979282725,225,"721 S WASHINGTON ST, DENVER, CO, 80209","Match","Exact","721 S WASHINGTON ST, DENVER, CO, 80209",177332142,"R"
832226,"721 SANDY LN STE D","SURFSIDE BEACH","SC",29575,33.606364996,-78.989411898,226,"721 SANDY LN STE D, SURFSIDE BEACH, SC, 29575","Match","Exact","721 SANDY LN, SURFSIDE BCH, SC, 29575",607429789,"L"
832227,"721 SAVANNAH STREETS","GREENSBORO","NC",27406,36.045090583,-79.8070933989999,227,"721 SAVANNAH STREETS, GREENSBORO, NC, 27406","Match","Non_Exact","721 SAVANNAH ST, GREENSBORO, NC, 27406",131032329,"L"
832228,"721 SCARLET DR","RAWLINS","WY",82301,41.809816626,-107.232579736,228,"721 SCARLET DR, RAWLINS, WY, 82301","Match","Exact","721 SCARLET DR, RAWLINS, WY, 82301",148729573,"L"
832229,"721 SCHILDER DR","RIVER OAKS","TX",76114,32.769945083,-97.407249474,229,"721 SCHILDER DR, RIVER OAKS, TX, 76114","Match","Exact","721 SCHILDER DR, RIVER OAKS, TX, 76114",101853377,"L"
832230,"721 SEA HORSE COURT","FAIRFIELD","CA",94533,38.2939745910001,-122.023723249,230,"721 SEA HORSE COURT, FAIRFIELD, CA, 94533","Match","Exact","721 SEA HORSE CT, FAIRFIELD, CA, 94533",192601961,"R"
832231,"721 SHINY ROCK DR","AUSTIN","TX",78748,30.1598195560001,-97.812872865,231,"721 SHINY ROCK DR, AUSTIN, TX, 78748","Match","Exact","721 SHINY ROCK DR, AUSTIN, TX, 78748",63990437,"R"
832232,"721 SILVER CREEK RD","BEATTYVILLE","KY",41311,37.5855733610001,-83.712089771,232,"721 SILVER CREEK RD, BEATTYVILLE, KY, 41311","Match","Exact","721 SILVER CREEK RD, BEATTYVILLE, KY, 41311",39678726,"L"
832233,"721 SILVERSTONE","RICHARDSON","TX",75080,32.965617148,-96.744466303,233,"721 SILVERSTONE, RICHARDSON, TX, 75080","Match","Non_Exact","721 SILVERSTONE DR, RICHARDSON, TX, 75080",102912963,"L"
832234,"721 SKYLINE DRIVE","SUNNYSIDE","WA",98944,46.318195571,-120.032169995,234,"721 SKYLINE DRIVE, SUNNYSIDE, WA, 98944","Match","Exact","721 SKYLINE DR, SUNNYSIDE, WA, 98944",641258659,"R"
832235,"721 SMITH AVENUE","SAINT PAUL","MN",55107,44.9242176390001,-93.101861275,235,"721 SMITH AVENUE, SAINT PAUL, MN, 55107","Match","Non_Exact","721 SMITH AVE S, SAINT PAUL, MN, 55107",97649050,"R"
832236,"721 SNOWY ORCHID DR","DESOTO","TX",75115,32.573396041,-96.844091071,236,"721 SNOWY ORCHID DR, DESOTO, TX, 75115","Match","Non_Exact","721 SNOWY ORCHID LN, DESOTO, TX, 75115",642757887,"L"
832237,"721 SOUTH 4TH STREET","LE SUEUR","MN",56058,44.452092851,-93.916705744,237,"721 SOUTH 4TH STREET, LE SUEUR, MN, 56058","Match","Exact","721 S 4TH ST, LE SUEUR, MN, 56058",28658446,"R"
832238,"721 SOUTH BENTSEN ROAD","MCALLEN","TX",78501,26.201427777,-98.270663482,238,"721 SOUTH BENTSEN ROAD, MCALLEN, TX, 78501","Match","Exact","721 S BENTSEN RD, MCALLEN, TX, 78501",627707431,"L"
832239,"721 SOUTH CHAPEL AVENUE B","ALHAMBRA","CA",91801,34.0885876140001,-118.119776785,239,"721 SOUTH CHAPEL AVENUE B, ALHAMBRA, CA, 91801","Match","Exact","721 S CHAPEL AVE, ALHAMBRA, CA, 91801",141636585,"R"
832240,"721 SOUTH EUCLID AVE","DAYTON","OH",45402,39.747193264,-84.220386156,240,"721 SOUTH EUCLID AVE, DAYTON, OH, 45402","Match","Exact","721 S EUCLID AVE, DAYTON, OH, 45402",143570378,"R"
832241,"721 SOUTH JACOB MILLER RD","PORT TOWNSEND","WA",98368,48.1094709660001,-122.827148891,241,"721 SOUTH JACOB MILLER RD, PORT TOWNSEND, WA, 98368","Match","Exact","721 S JACOB MILLER RD, PORT TOWNSEND, WA, 98368",629045340,"R"
832242,"721 SOUTH MAIN ST","SULLIVAN","IL",61951,39.592769844,-88.6073749779999,242,"721 SOUTH MAIN ST, SULLIVAN, IL, 61951","Match","Exact","721 S MAIN ST, SULLIVAN, IL, 61951",5818602,"L"
832243,"721 SOUTH PINE STREET APT A","LAKEWORTH","FL",33460,26.6065370170001,-80.066903828,243,"721 SOUTH PINE STREET APT A, LAKEWORTH, FL, 33460","Match","Non_Exact","721 S PINE ST, LAKE WORTH, FL, 33460",648321299,"R"
832244,"721 SPRINGFIELD ST","DAYTON","OH",45403,39.769467987,-84.1542832759999,244,"721 SPRINGFIELD ST, DAYTON, OH, 45403","Match","Exact","721 SPRINGFIELD ST, DAYTON, OH, 45403",143574484,"L"
832245,"721 SPYGLASS WAY","EAGLE","ID",83616,43.7003655030001,-116.33957682,245,"721 SPYGLASS WAY, EAGLE, ID, 83616","Match","Exact","721 SPYGLASS WAY, EAGLE, ID, 83616",117919128,"R"
832246,"721 STATE STREET S","KIRKLAND","WA",98033,47.670071459,-122.202315157,246,"721 STATE STREET S, KIRKLAND, WA, 98033","Match","Exact","721 STATE ST S, KIRKLAND, WA, 98033",186997310,"R"
832247,"721 SW 29TH ST","PENDLETON","OR",97801,45.658351463,-118.812294894,247,"721 SW 29TH ST, PENDLETON, OR, 97801","Match","Exact","721 SW 29TH ST, PENDLETON, OR, 97801",653677715,"L"
832248,"721 SW 4TH PL","NOORE","OK",73160,35.3348718760001,-97.49903001,248,"721 SW 4TH PL, NOORE, OK, 73160","Match","Non_Exact","721 SW 4TH PL, MOORE, OK, 73160",99905878,"R"
832249,"721 SW 66 AVENUE","MIAMI","FL",33144,25.763892845,-80.302906712,249,"721 SW 66 AVENUE, MIAMI, FL, 33144","Match","Exact","721 SW 66TH AVE, MIAMI, FL, 33144",116055808,"L"
832250,"721 SW BIRCH RD","PORT ORCHARD","WA",98367,NA,NA,250,"721 SW BIRCH RD, PORT ORCHARD, WA, 98367","No_Match",NA,NA,NA,NA
832251,"721 TEMPLE TRAIL","FRISCO","CO",80443,39.566928723,-106.0910621,251,"721 TEMPLE TRAIL, FRISCO, CO, 80443","Match","Exact","721 TEMPLE TRL, FRISCO, CO, 80443",106048002,"L"
832252,"721 THOMAS COURT","LIBERTYVILLE","IL",60048,42.291590441,-87.9700015509999,252,"721 THOMAS COURT, LIBERTYVILLE, IL, 60048","Match","Exact","721 THOMAS CT, LIBERTYVILLE, IL, 60048",119637069,"R"
832253,"721 THREE POINT DRIVE","MUSCLE SHOALS","AL",35661,34.8177336420001,-87.5376618349999,253,"721 THREE POINT DRIVE, MUSCLE SHOALS, AL, 35661","Match","Exact","721 THREE POINT DR, MUSCLE SHOALS, AL, 35661",40771426,"L"
832254,"721 TILMAN ROAD","CHARLOTTESVILLE","VA",22901,38.0629674830001,-78.618456736,254,"721 TILMAN ROAD, CHARLOTTESVILLE, VA, 22901","Match","Exact","721 TILMAN RD, CHARLOTTESVILLE, VA, 22901",653500753,"R"
832255,"721 TIMBER WAY","WEAVER","AL",36277,33.7562456210001,-85.8204750309999,255,"721 TIMBER WAY, WEAVER, AL, 36277","Match","Exact","721 TIMBER WAY, WEAVER, AL, 36277",66552549,"L"
832256,"721 TINTON AVE APT 10F","BRONX","NY",10455,40.817025889,-73.905083498,256,"721 TINTON AVE APT 10F, BRONX, NY, 10455","Match","Exact","721 TINTON AVE, BRONX, NY, 10455",80311526,"L"
832257,"721 TORRINGTON PLACE","DAYTON","OH",45406,39.785546036,-84.23316102,257,"721 TORRINGTON PLACE, DAYTON, OH, 45406","Match","Exact","721 TORRINGTON PL, DAYTON, OH, 45406",143565846,"R"
832258,"721 TOYON AVENUE","JOSE","CA",95132,NA,NA,258,"721 TOYON AVENUE, JOSE, CA, 95132","No_Match",NA,NA,NA,NA
832259,"721 TOYON AVENUE","SAN JOSE","CA",95127,37.387991411,-121.831085641,259,"721 TOYON AVENUE, SAN JOSE, CA, 95127","Match","Exact","721 TOYON AVE, SAN JOSE, CA, 95127",122964669,"L"
832260,"721 TRAGASKIS AVE","VALLEJO","CA",94591,38.106639397,-122.222839204,260,"721 TRAGASKIS AVE, VALLEJO, CA, 94591","Match","Non_Exact","721 TREGASKIS AVE, VALLEJO, CA, 94591",192528527,"L"
832261,"721 TREGASKIS AVE","VALLEJO","CA",94591,38.106639397,-122.222839204,261,"721 TREGASKIS AVE, VALLEJO, CA, 94591","Match","Exact","721 TREGASKIS AVE, VALLEJO, CA, 94591",192528527,"L"
832262,"721 TURNERS CROSSROAD S","GOLDEN VALLEY","MN",55416,44.973440001,-93.349519428,262,"721 TURNERS CROSSROAD S, GOLDEN VALLEY, MN, 55416","Match","Exact","721 TURNERS CROSSROAD S, GOLDEN VALLEY, MN, 55416",43663271,"L"
832263,"721 TURTLE CREEK","SAINT ROSE","LA",70087,29.952920971,-90.325454914,263,"721 TURTLE CREEK, SAINT ROSE, LA, 70087","Match","Non_Exact","721 TURTLE CREEK LN, SAINT ROSE, LA, 70087",93618049,"R"
832264,"721 UNIVERSITY AVENUE","SYRACUSE","NY",13244,43.0423757190001,-76.1344124089999,264,"721 UNIVERSITY AVENUE, SYRACUSE, NY, 13244","Match","Non_Exact","721 UNIVERSITY AVE, SYRACUSE, NY, 13210",46571494,"L"
832265,"721 VERANDA CHASE DR","LAWRENCEVILLE","GA",30044,33.9490328200001,-84.085509966,265,"721 VERANDA CHASE DR, LAWRENCEVILLE, GA, 30044","Match","Exact","721 VERANDA CHASE DR, LAWRENCEVILLE, GA, 30044",649645139,"L"
832266,"721 VERANDA DR","LAWRENCEVILLE","GA",30044,NA,NA,266,"721 VERANDA DR, LAWRENCEVILLE, GA, 30044","No_Match",NA,NA,NA,NA
832267,"721 VIA FLORA ROAD","SAN MARCOS","CA",92069,33.1331688130001,-117.11875139,267,"721 VIA FLORA ROAD, SAN MARCOS, CA, 92069","Match","Exact","721 VIA FLORA RD, SAN MARCOS, CA, 92069",195311493,"L"
832268,"721 VININGS ESTATES DRIVE","MABLETON","GA",30126,33.833527523,-84.5331135279999,268,"721 VININGS ESTATES DRIVE, MABLETON, GA, 30126","Match","Non_Exact","721 VININGS ESTATES DR SE, MABLETON, GA, 30126",17219623,"L"
832269,"721 VOSSWOOD DRIVE","NASHVILLE","TN",37205,36.1135431380001,-86.880698447,269,"721 VOSSWOOD DRIVE, NASHVILLE, TN, 37205","Match","Exact","721 VOSSWOOD DR, NASHVILLE, TN, 37205",97180312,"L"
832270,"721 W 2ND STREET","LANDSDALE","PA",19446,40.247045805,-75.2905404479999,270,"721 W 2ND STREET, LANDSDALE, PA, 19446","Match","Non_Exact","721 W 2ND ST, LANSDALE, PA, 19446",135073115,"R"
832271,"721 W 5TH STREET","VEEDERSBURG","IN",47987,40.11541035,-87.2698547319999,271,"721 W 5TH STREET, VEEDERSBURG, IN, 47987","Match","Exact","721 W 5TH ST, VEEDERSBURG, IN, 47987",55222979,"R"
832272,"721 W 7TH ST","FLORA","IL",62839,38.6737350830001,-88.496954848,272,"721 W 7TH ST, FLORA, IL, 62839","Match","Exact","721 W 7TH ST, FLORA, IL, 62839",39416231,"L"
832273,"721 W ARDUSSI","FRANKENMUTH","MI",48734,43.334345354,-83.748236091,273,"721 W ARDUSSI, FRANKENMUTH, MI, 48734","Match","Non_Exact","721 W ARDUSSI ST, FRANKENMUTH, MI, 48734",80206384,"L"
832274,"721 W ASPEN AVE","FLAGSTAFF","AZ",86001,35.200986684,-111.65664174,274,"721 W ASPEN AVE, FLAGSTAFF, AZ, 86001","Match","Exact","721 W ASPEN AVE, FLAGSTAFF, AZ, 86001",188860871,"L"
832275,"721 W BEACH DRIVE","ADDISON","IL",60101,41.9469935980001,-88.005933835,275,"721 W BEACH DRIVE, ADDISON, IL, 60101","Match","Exact","721 BEACH DR, ADDISON, IL, 60101",112694100,"L"
832276,"721 W CINNABAR AVE","PHOENIX","AZ",85021,33.576761129,-112.082964095,276,"721 W CINNABAR AVE, PHOENIX, AZ, 85021","Match","Exact","721 W CINNABAR AVE, PHOENIX, AZ, 85021",128203555,"L"
832277,"721 W KNOX ST","WILLIAMSFIELD","IL",61489,40.9252048280001,-90.024668369,277,"721 W KNOX ST, WILLIAMSFIELD, IL, 61489","Match","Exact","721 KNOX ST, WILLIAMSFIELD, IL, 61489",9042941,"R"
832278,"721 W MONROE STREET","SALISBURY","NC",28144,35.6705464680001,-80.482140976,278,"721 W MONROE STREET, SALISBURY, NC, 28144","Match","Exact","721 W MONROE ST, SALISBURY, NC, 28144",25268678,"L"
832279,"721 W OUTER DRIVE","OAK RIDGE","TN",37830,36.0175415800001,-84.2922203319999,279,"721 W OUTER DRIVE, OAK RIDGE, TN, 37830","Match","Exact","721 W OUTER DR, OAK RIDGE, TN, 37830",90128216,"R"
832280,"721 W SEVENTH AVENUE","SUN VALLEY","NV",89433,39.601003743,-119.802304021,280,"721 W SEVENTH AVENUE, SUN VALLEY, NV, 89433","Match","Exact","721 W 7TH AVE, SUN VALLEY, NV, 89433",107089280,"L"
832281,"721 W TORONTO","KINGFISHER","OK",73750,35.8547030730001,-97.940796542,281,"721 W TORONTO, KINGFISHER, OK, 73750","Match","Non_Exact","721 W TORONTO AVE, KINGFISHER, OK, 73750",121908939,"L"
832282,"721 W WASHINGTON ST","CHAMPAIGN","IL",61820,40.1201957550001,-88.2552217849999,282,"721 W WASHINGTON ST, CHAMPAIGN, IL, 61820","Match","Exact","721 W WASHINGTON ST, CHAMPAIGN, IL, 61820",8810065,"L"
832283,"721 W WHITTIER BLVD","LA HABRA","CA",90631,33.93911875,-117.953816355,283,"721 W WHITTIER BLVD, LA HABRA, CA, 90631","Match","Exact","721 W WHITTIER BLVD, LA HABRA, CA, 90631",144004878,"R"
832284,"721 WADE ROAD","LONGMONT","CO",80503,40.172146008,-105.141145242,284,"721 WADE ROAD, LONGMONT, CO, 80503","Match","Exact","721 WADE RD, LONGMONT, CO, 80503",188182778,"R"
832285,"721 WAKINA LOOP","OCEAN SHORES","WA",98569,46.963114562,-124.135406207,285,"721 WAKINA LOOP, OCEAN SHORES, WA, 98569","Match","Non_Exact","721 WAKINA LOOP SE, OCEAN SHORES, WA, 98569",180593792,"R"
832286,"721 WALNUT AVE","ORANGE CITY","FL",32763,28.9372964410001,-81.326762698,286,"721 WALNUT AVE, ORANGE CITY, FL, 32763","Match","Exact","721 WALNUT AVE, ORANGE CITY, FL, 32763",94516748,"L"
832287,"721 WALNUT ST","WOODWARD","OK",73801,36.4283265490001,-99.388445904,287,"721 WALNUT ST, WOODWARD, OK, 73801","Match","Non_Exact","721 WALNUT AVE, WOODWARD, OK, 73801",198725426,"L"
832288,"721 WALNUT","WOODWARD","OK",73801,36.4283265490001,-99.388445904,288,"721 WALNUT, WOODWARD, OK, 73801","Match","Non_Exact","721 WALNUT AVE, WOODWARD, OK, 73801",198725426,"L"
832289,"721 WALTON AVE APT F14","BRONX","NY",10451,40.8236795510001,-73.926224464,289,"721 WALTON AVE APT F14, BRONX, NY, 10451","Match","Exact","721 WALTON AVE, BRONX, NY, 10451",80300148,"L"
832290,"721 WALTON AVE B5","BRONX","NY",10451,40.8236795510001,-73.926224464,290,"721 WALTON AVE B5, BRONX, NY, 10451","Match","Exact","721 WALTON AVE, BRONX, NY, 10451",80300148,"L"
832291,"721 WASHINGTON AVE STE 203","BAY CITY","MI",48708,43.597277579,-83.887913547,291,"721 WASHINGTON AVE STE 203, BAY CITY, MI, 48708","Match","Exact","721 WASHINGTON AVE, BAY CITY, MI, 48708",81140882,"L"
832292,"721 WASHINGTON ST","PADUCAH","KY",42003,37.083067294,-88.60084418,292,"721 WASHINGTON ST, PADUCAH, KY, 42003","Match","Exact","721 WASHINGTON ST, PADUCAH, KY, 42003",8396953,"L"
832293,"721 WASHINGTON STREET","LAKE PLACID","FL",33852,27.342712787,-81.340105845,293,"721 WASHINGTON STREET, LAKE PLACID, FL, 33852","Match","Non_Exact","721 WASHINGTON BLVD, LAKE PLACID, FL, 33852",4639390,"R"
832294,"721 WESSEL DRIVE","FAIRFIELD","OH",45014,39.3354340380001,-84.5564033379999,294,"721 WESSEL DRIVE, FAIRFIELD, OH, 45014","Match","Exact","721 WESSEL DR, FAIRFIELD, OH, 45014",113817434,"R"
832295,"721 WEST 3RD STREET APT A","CHICO","CA",95928,39.7257319830001,-121.845361767,295,"721 WEST 3RD STREET APT A, CHICO, CA, 95928","Match","Exact","721 W 3RD ST, CHICO, CA, 95928",68428500,"L"
832296,"721 WEST 7TH STREET","MARION","IN",46953,40.555131789,-85.66710038,296,"721 WEST 7TH STREET, MARION, IN, 46953","Match","Exact","721 W 7TH ST, MARION, IN, 46953",95008100,"L"
832297,"721 WEST NORTH 1ST ST","SENECA","SC",29678,34.687391249,-82.965409822,297,"721 WEST NORTH 1ST ST, SENECA, SC, 29678","Match","Exact","721 W NORTH 1ST ST, SENECA, SC, 29678",25644692,"L"
832298,"721 WESTWOOD DR","OTTAWA","IL",61350,41.3340529990001,-88.848716172,298,"721 WESTWOOD DR, OTTAWA, IL, 61350","Match","Exact","721 WESTWOOD DR, OTTAWA, IL, 61350",649178269,"L"
832299,"721 WHISPERING CYPRESS LANE","ORLANDO","FL",32824,28.3548770790001,-81.379067616,299,"721 WHISPERING CYPRESS LANE, ORLANDO, FL, 32824","Match","Exact","721 WHISPERING CYPRESS LN, ORLANDO, FL, 32824",94408966,"R"
832300,"721 WHITE ASH RD","DESOTO","TX",75115,32.5831775180001,-96.842699166,300,"721 WHITE ASH RD, DESOTO, TX, 75115","Match","Exact","721 WHITE ASH RD, DESOTO, TX, 75115",103186389,"L"
832301,"721 WILMINGTON DR","WARNER ROBINS","GA",31088,32.608472525,-83.668363918,301,"721 WILMINGTON DR, WARNER ROBINS, GA, 31088","Match","Exact","721 WILMINGTON DR, WARNER ROBINS, GA, 31088",642836574,"L"
832302,"721 WINDING HILLS DRIVE","CLINTON","MS",39056,32.3447585700001,-90.3475047809999,302,"721 WINDING HILLS DRIVE, CLINTON, MS, 39056","Match","Exact","721 WINDING HILLS DR, CLINTON, MS, 39056",65383478,"L"
832303,"721 WINTER GREEN LOOP","PATASKALA","OH",43062,40.0165617650001,-82.6493088679999,303,"721 WINTER GREEN LOOP, PATASKALA, OH, 43062","Match","Non_Exact","721 WINTER GREEN LOOP SW, PATASKALA, OH, 43062",61502454,"L"
832304,"721 WORTHINGTON DRIVE","WARMINSTER","PA",18974,40.2210547020001,-75.116945527,304,"721 WORTHINGTON DRIVE, WARMINSTER, PA, 18974","Match","Exact","721 WORTHINGTON DR, WARMINSTER, PA, 18974",134705401,"R"
832305,"7210 24TH PLACE","HYATTSVILLE","MD",20783,38.977572675,-76.9689195399999,305,"7210 24TH PLACE, HYATTSVILLE, MD, 20783","Match","Exact","7210 24TH PL, HYATTSVILLE, MD, 20783",76303720,"L"
832306,"7210 64TH STREET CT W","UNIVERSITY PLACE","WA",98467,47.198921989,-122.534033919,306,"7210 64TH STREET CT W, UNIVERSITY PLACE, WA, 98467","Match","Exact","7210 64TH STREET CT W, UNIVERSITY PLACE, WA, 98467",184678417,"L"
832307,"7210 ANTOINETTE CIR","NAVARRE","FL",32566,30.4052799990001,-86.922178128,307,"7210 ANTOINETTE CIR, NAVARRE, FL, 32566","Match","Exact","7210 ANTOINETTE CIR, NAVARRE, FL, 32566",74590169,"L"
832308,"7210 ARBOR DRIVE","NEW ORLEANS","LA",70126,30.027687488,-90.006699564,308,"7210 ARBOR DRIVE, NEW ORLEANS, LA, 70126","Match","Exact","7210 ARBOR DR, NEW ORLEANS, LA, 70126",191720834,"R"
832309,"7210 ARBORCREST DR","DALLAS","TX",75232,32.659996269,-96.827629698,309,"7210 ARBORCREST DR, DALLAS, TX, 75232","Match","Exact","7210 ARBORCREST DR, DALLAS, TX, 75232",102953066,"L"
832310,"7210 BIRCHMONT DR","ROWLETT","TX",75089,32.924602,-96.587837276,310,"7210 BIRCHMONT DR, ROWLETT, TX, 75089","Match","Exact","7210 BIRCHMONT DR, ROWLETT, TX, 75089",103166975,"L"
832311,"7210 BLESSING AVE APT B","AUSTIN","TX",78752,30.3287934750001,-97.6950243639999,311,"7210 BLESSING AVE APT B, AUSTIN, TX, 78752","Match","Exact","7210 BLESSING AVE, AUSTIN, TX, 78752",63932675,"L"
832312,"7210 BOWER RD","LITTLETON","NC",27850,NA,NA,312,"7210 BOWER RD, LITTLETON, NC, 27850","No_Match",NA,NA,NA,NA
832313,"7210 BOWER ROAD","LITTLETON","NC",27850,NA,NA,313,"7210 BOWER ROAD, LITTLETON, NC, 27850","No_Match",NA,NA,NA,NA
832314,"7210 BRUSH COUNTRY RD","AUSTIN","TX",78749,30.2178419590001,-97.8452964429999,314,"7210 BRUSH COUNTRY RD, AUSTIN, TX, 78749","Match","Exact","7210 BRUSH COUNTRY RD, AUSTIN, TX, 78749",63977874,"L"
832315,"7210 BUNKERHILL ROAD","NEW ORLEANS","LA",70126,30.0363129610001,-89.9911288599999,315,"7210 BUNKERHILL ROAD, NEW ORLEANS, LA, 70126","Match","Non_Exact","7210 BUNKER HILL RD, NEW ORLEANS, LA, 70127",191732209,"L"
832316,"7210 COLONY DR","WEST BLOOMFIELD","MI",48323,42.576437533,-83.425337354,316,"7210 COLONY DR, WEST BLOOMFIELD, MI, 48323","Match","Exact","7210 COLONY DR, W BLOOMFIELD, MI, 48323",69720538,"R"
832317,"7210 DARBY DOWNS UNIT R","ELKRIDGE","MD",21075,39.2089228840001,-76.7274502389999,317,"7210 DARBY DOWNS UNIT R, ELKRIDGE, MD, 21075","Match","Exact","7210 DARBY DOWNS, ELKRIDGE, MD, 21075",618713783,"R"
832318,"7210 E CYPRESS DRIVE","PARKLAND","FL",33067,NA,NA,318,"7210 E CYPRESS DRIVE, PARKLAND, FL, 33067","No_Match",NA,NA,NA,NA
832319,"7210 FOREST MEADOWS ST","SAN ANTONIO","TX",78240,29.503103605,-98.606080586,319,"7210 FOREST MEADOWS ST, SAN ANTONIO, TX, 78240","Match","Non_Exact","7210 FOREST MEADOW ST, SAN ANTONIO, TX, 78240",101491229,"R"
832320,"7210 FOXVISTA LN","HUMBLE","TX",77338,30.0249648880001,-95.316986029,320,"7210 FOXVISTA LN, HUMBLE, TX, 77338","Match","Exact","7210 FOXVISTA LN, HUMBLE, TX, 77338",624798020,"R"
832321,"7210 FOXWORTH DRIVE","DALLAS","TX",75246,32.9695996780001,-96.783728222,321,"7210 FOXWORTH DRIVE, DALLAS, TX, 75246","Match","Non_Exact","7210 FOXWORTH DR, DALLAS, TX, 75248",102900338,"R"
832322,"7210 HEARTHSIDE TRAIL","FREDERICKSBURG","VA",22407,38.2756885850001,-77.583225783,322,"7210 HEARTHSIDE TRAIL, FREDERICKSBURG, VA, 22407","Match","Exact","7210 HEARTHSIDE TRL, FREDERICKSBURG, VA, 22407",85017795,"L"
832323,"7210 HOLYOKE DR","DALLAS","TX",75248,32.977236234,-96.782355878,323,"7210 HOLYOKE DR, DALLAS, TX, 75248","Match","Exact","7210 HOLYOKE DR, DALLAS, TX, 75248",102988782,"R"
832324,"7210 HOLYWELL LN","FALLS CHURCH","VA",22043,38.894950201,-77.1927895649999,324,"7210 HOLYWELL LN, FALLS CHURCH, VA, 22043","Match","Exact","7210 HOLYWELL LN, FALLS CHURCH, VA, 22043",648910807,"L"
832325,"7210 JENNIFER LANE","PRINCETON","LA",71067,32.5736403000001,-93.521478346,325,"7210 JENNIFER LANE, PRINCETON, LA, 71067","Match","Exact","7210 JENNIFER LN, PRINCETON, LA, 71067",634249441,"R"
832326,"7210 JESSIE COURT","ARLINGTON","TX",76002,32.6256918460001,-97.1061244209999,326,"7210 JESSIE COURT, ARLINGTON, TX, 76002","Match","Exact","7210 JESSIE CT, ARLINGTON, TX, 76002",102188250,"R"
832327,"7210 JORDAN AVE NUM B55","CANOGA PARK","CA",91303,34.201323431,-118.602849482,327,"7210 JORDAN AVE NUM B55, CANOGA PARK, CA, 91303","Match","Exact","7210 JORDAN AVE, CANOGA PARK, CA, 91303",141533215,"R"
832328,"7210 JORDAN AVE STE D4","CANOGA PARK","CA",91303,34.201323431,-118.602849482,328,"7210 JORDAN AVE STE D4, CANOGA PARK, CA, 91303","Match","Exact","7210 JORDAN AVE, CANOGA PARK, CA, 91303",141533215,"R"
832329,"7210 LE FLORE PLACE","GRANITE BAY","CA",95746,38.750184851,-121.167552752,329,"7210 LE FLORE PLACE, GRANITE BAY, CA, 95746","Match","Exact","7210 LE FLORE PL, GRANITE BAY, CA, 95746",106809511,"R"
832330,"7210 LOWE LANE","ROCKVALE","TN",37153,35.7579268210001,-86.554301535,330,"7210 LOWE LANE, ROCKVALE, TN, 37153","Match","Exact","7210 LOWE LN, ROCKVALE, TN, 37153",59013416,"L"
832331,"7210 MCKENNA ROAD","TORRINGTON","WY",82240,42.0806210270001,-104.232026848,331,"7210 MCKENNA ROAD, TORRINGTON, WY, 82240","Match","Exact","7210 MCKENNA RD, TORRINGTON, WY, 82240",604889915,"L"
832332,"7210 MORRISON DR","GREENBELT","MD",20770,38.9893739890001,-76.8669551099999,332,"7210 MORRISON DR, GREENBELT, MD, 20770","Match","Exact","7210 MORRISON DR, GREENBELT, MD, 20770",76384430,"R"
832333,"7210 N MANHATTAN AVE","TAMPA","FL",33614,28.0149863510001,-82.517259106,333,"7210 N MANHATTAN AVE, TAMPA, FL, 33614","Match","Exact","7210 N MANHATTAN AVE, TAMPA, FL, 33614",104514199,"L"
832334,"7210 N MANHATTAN AVENUE NO 1524","TAMPA","FL",33614,NA,NA,334,"7210 N MANHATTAN AVENUE NO 1524, TAMPA, FL, 33614","No_Match",NA,NA,NA,NA
832335,"7210 N SADDLE TRAIL","FLAGSTAFF","AZ",86001,35.260792049,-111.731789065,335,"7210 N SADDLE TRAIL, FLAGSTAFF, AZ, 86001","Match","Exact","7210 SADDLE TRL, FLAGSTAFF, AZ, 86001",188952120,"R"
832336,"7210 NE 43RD STREET","GAINESVILLE","FL",32609,29.719878189,-82.272182007,336,"7210 NE 43RD STREET, GAINESVILLE, FL, 32609","Match","Exact","7210 NE 43RD ST, GAINESVILLE, FL, 32609",6817086,"L"
832337,"7210 NW 179 STREET APT 208","HIALEAH","FL",33015,NA,NA,337,"7210 NW 179 STREET APT 208, HIALEAH, FL, 33015","Tie",NA,NA,NA,NA
832338,"7210 ONO RD","PALMETTO","GA",30268,33.5638937420001,-84.654648616,338,"7210 ONO RD, PALMETTO, GA, 30268","Match","Exact","7210 ONO RD, PALMETTO, GA, 30268",652442027,"R"
832339,"7210 ONO ROAD","PALMETTO","GA",30268,33.5638937420001,-84.654648616,339,"7210 ONO ROAD, PALMETTO, GA, 30268","Match","Exact","7210 ONO RD, PALMETTO, GA, 30268",652442027,"R"
832340,"7210 ONYX DRIVE NORTH","ST PETERSBURG","FL",33702,27.837685902,-82.654065299,340,"7210 ONYX DRIVE NORTH, ST PETERSBURG, FL, 33702","Match","Exact","7210 ONYX DR N, SAINT PETERSBURG, FL, 33702",124703094,"L"
832341,"7210 PEMBROKE RD APT 1","MIRAMAR","FL",33023,25.994821503,-80.231061698,341,"7210 PEMBROKE RD APT 1, MIRAMAR, FL, 33023","Match","Exact","7210 PEMBROKE RD, MIRAMAR, FL, 33023",648680899,"R"
832342,"7210 READ BLVD","NEW ORLEANS","LA",70127,30.0403278040001,-89.9786309099999,342,"7210 READ BLVD, NEW ORLEANS, LA, 70127","Match","Exact","7210 READ BLVD, NEW ORLEANS, LA, 70127",191721263,"L"
832343,"7210 S 29TH LANE","PHOENIX","AZ",85041,33.3804846200001,-112.12228649,343,"7210 S 29TH LANE, PHOENIX, AZ, 85041","Match","Exact","7210 S 29TH LN, PHOENIX, AZ, 85041",244015163,"L"
832344,"7210 S 90TH AVE 1045","TULSA","OK",74133,NA,NA,344,"7210 S 90TH AVE 1045, TULSA, OK, 74133","No_Match",NA,NA,NA,NA
832345,"7210 S QUINCE ST","CENTENNIAL","CO",80112,39.5858746760001,-104.901058675,345,"7210 S QUINCE ST, CENTENNIAL, CO, 80112","Match","Exact","7210 S QUINCE ST, CENTENNIAL, CO, 80112",177346740,"L"
832346,"7210 SE 62ND AVE PORTLAND","OREGON","OR",97206,NA,NA,346,"7210 SE 62ND AVE PORTLAND, OREGON, OR, 97206","No_Match",NA,NA,NA,NA
832347,"7210 SHARPSBURG BLVD","NEW PORT RICHEY","FL",34653,28.223412511,-82.694958436,347,"7210 SHARPSBURG BLVD, NEW PORT RICHEY, FL, 34653","Match","Exact","7210 SHARPSBURG BLVD, NEW PORT RICHEY, FL, 34653",86397258,"L"
832348,"7210 SPRING CREEK CIRCLE","NIWOT","CO",80503,40.1060033850001,-105.148871815,348,"7210 SPRING CREEK CIRCLE, NIWOT, CO, 80503","Match","Exact","7210 SPRING CREEK CIR, NIWOT, CO, 80503",220752648,"R"
832349,"7210 STAGECOACH ROAD","DUBLIN","CA",94568,37.71750088,-121.91639935,349,"7210 STAGECOACH ROAD, DUBLIN, CA, 94568","Match","Exact","7210 STAGECOACH RD, DUBLIN, CA, 94568",633933844,"L"
832350,"7210 STILLWATER DR","COLUMBUS","GA",31904,32.5521542170001,-85.017767431,350,"7210 STILLWATER DR, COLUMBUS, GA, 31904","Match","Exact","7210 STILLWATER DR, COLUMBUS, GA, 31904",98951674,"R"
832351,"7210 SUMMIT RD","DARIEN","ID",60561,NA,NA,351,"7210 SUMMIT RD, DARIEN, ID, 60561","No_Match",NA,NA,NA,NA
832352,"7210 SUMMIT RD","DARIEN","IL",60561,41.755605523,-87.987948966,352,"7210 SUMMIT RD, DARIEN, IL, 60561","Match","Exact","7210 SUMMIT RD, DARIEN, IL, 60561",112550698,"R"
832353,"7210 SW 39 ST","MIAMI","FL",33155,25.7345889650001,-80.311742307,353,"7210 SW 39 ST, MIAMI, FL, 33155","Match","Exact","7210 SW 39TH ST, MIAMI, FL, 33155",640556258,"L"
832354,"7210 SW SPARROW RD","TERREBONNE","OR",97760,44.4126863980001,-121.274053922,354,"7210 SW SPARROW RD, TERREBONNE, OR, 97760","Match","Non_Exact","7210 SW SPARROW DR, TERREBONNE, OR, 97760",153245432,"R"
832355,"7210 TANAGER ST","SPRINGFIELD","VA",22150,38.7743879710001,-77.192017767,355,"7210 TANAGER ST, SPRINGFIELD, VA, 22150","Match","Exact","7210 TANAGER ST, SPRINGFIELD, VA, 22150",76056423,"L"
832356,"7210 TESSA LAKES COURT","SUGAR LAND","TX",77479,29.585995536,-95.671563629,356,"7210 TESSA LAKES COURT, SUGAR LAND, TX, 77479","Match","Exact","7210 TESSA LAKES CT, SUGAR LAND, TX, 77479",78298034,"R"
832357,"7210 TURFWAY ROAD","FLORENCE","KY",41042,39.0095591140001,-84.625401129,357,"7210 TURFWAY ROAD, FLORENCE, KY, 41042","Match","Exact","7210 TURFWAY RD, FLORENCE, KY, 41042",610486095,"R"
832358,"7210 W KINGS AVE","PEORIA","AZ",85382,33.634171505,-112.21354009,358,"7210 W KINGS AVE, PEORIA, AZ, 85382","Match","Exact","7210 W KINGS AVE, PEORIA, AZ, 85382",128837846,"R"
832359,"7210 W KINGS AVENUE","PEORIA","AZ",85382,33.634171505,-112.21354009,359,"7210 W KINGS AVENUE, PEORIA, AZ, 85382","Match","Exact","7210 W KINGS AVE, PEORIA, AZ, 85382",128837846,"R"
832360,"7210 WALDON PARK LN","CHARLOTTE","NC",28214,35.266486861,-80.953671135,360,"7210 WALDON PARK LN, CHARLOTTE, NC, 28214","Match","Exact","7210 WALDON PARK LN, CHARLOTTE, NC, 28214",648379405,"R"
832361,"7210 WOODLAND AVE","KANSAS CITY","MO",64118,38.996503019,-94.5662168649999,361,"7210 WOODLAND AVE, KANSAS CITY, MO, 64118","Match","Non_Exact","7210 WOODLAND AVE, KANSAS CITY, MO, 64132",91456601,"R"
832362,"7211 BALTIC CT","CINCINNATI","OH",45244,39.1236802280001,-84.350857119,362,"7211 BALTIC CT, CINCINNATI, OH, 45244","Match","Exact","7211 BALTIC CT, CINCINNATI, OH, 45244",623880252,"L"
832363,"7211 BEAUMONT PLACE","HOUSTON","TX",77049,29.8274275700001,-95.199155234,363,"7211 BEAUMONT PLACE, HOUSTON, TX, 77049","Match","Exact","7211 BEAUMONT PL, HOUSTON, TX, 77049",96095338,"L"
832364,"7211 BILTMORE BLVD","MIRAMAR","FL",33023,25.9794062020001,-80.2323965799999,364,"7211 BILTMORE BLVD, MIRAMAR, FL, 33023","Match","Exact","7211 BILTMORE BLVD, MIRAMAR, FL, 33023",114734158,"R"
832365,"7211 BLACKWELL DRIVE","OAKWOOD","OH",44143,NA,NA,365,"7211 BLACKWELL DRIVE, OAKWOOD, OH, 44143","No_Match",NA,NA,NA,NA
832366,"7211 BRADLEY CREEK","LASCASSAS","TN",37085,35.93260631,-86.2304949799999,366,"7211 BRADLEY CREEK, LASCASSAS, TN, 37085","Match","Non_Exact","7211 BRADLEY CREEK RD, LASCASSAS, TN, 37085",59029785,"L"
832367,"7211 CHARLOTTE ST","KANSAS CITY","MO",64131,38.996882154,-94.578456273,367,"7211 CHARLOTTE ST, KANSAS CITY, MO, 64131","Match","Exact","7211 CHARLOTTE ST, KANSAS CITY, MO, 64131",91454880,"L"
832368,"7211 CLIFFBROOK DR","DALLAS","TX",75254,32.945174966,-96.779654974,368,"7211 CLIFFBROOK DR, DALLAS, TX, 75254","Match","Exact","7211 CLIFFBROOK DR, DALLAS, TX, 75254",102900892,"L"
832369,"7211 CLOVERDALE ROAD","ROANOKE","VA",24019,37.358542992,-79.8853714109999,369,"7211 CLOVERDALE ROAD, ROANOKE, VA, 24019","Match","Exact","7211 CLOVERDALE RD, ROANOKE, VA, 24019",649877831,"L"
832370,"7211 COPPERHILL","DUBLIN","OH",43016,NA,NA,370,"7211 COPPERHILL, DUBLIN, OH, 43016","No_Match",NA,NA,NA,NA
832371,"7211 COUNTY ROAD 338","TAYLOR","MO",63471,NA,NA,371,"7211 COUNTY ROAD 338, TAYLOR, MO, 63471","No_Match",NA,NA,NA,NA
832372,"7211 COURTHOUSE ROAD","CHESTERFIELD","VA",23832,37.400192889,-77.553695638,372,"7211 COURTHOUSE ROAD, CHESTERFIELD, VA, 23832","Match","Exact","7211 COURTHOUSE RD, CHESTERFIELD, VA, 23832",223176736,"L"
832373,"7211 COURTHOUSE ROAD","SPOTSYLVANIA","VA",22553,38.155935943,-77.6303096619999,373,"7211 COURTHOUSE ROAD, SPOTSYLVANIA, VA, 22553","Match","Non_Exact","7211 COURTHOUSE RD, SPOTSYLVANIA, VA, 22551",228786560,"L"
832374,"7211 CRANE AVENUE","JACKSONVILLE","FL",32216,30.3082394240001,-81.579391125,374,"7211 CRANE AVENUE, JACKSONVILLE, FL, 32216","Match","Exact","7211 CRANE AVE, JACKSONVILLE, FL, 32216",83919177,"L"
832375,"7211 FLOWER AVE","TAKOMA PARK","MD",20912,38.9812724770001,-76.9949644979999,375,"7211 FLOWER AVE, TAKOMA PARK, MD, 20912","Match","Exact","7211 FLOWER AVE, TAKOMA PARK, MD, 20912",76303001,"R"
832376,"7211 FLYHAWK LN","SAUK CITY","WI",53583,43.2527495080001,-89.7108559279999,376,"7211 FLYHAWK LN, SAUK CITY, WI, 53583","Match","Exact","7211 FLYHAWK LN, SAUK CITY, WI, 53583",624942054,"R"
832377,"7211 FOREST BEND DRIVE","PARKER","TX",75002,33.0434799240001,-96.5924951919999,377,"7211 FOREST BEND DRIVE, PARKER, TX, 75002","Match","Exact","7211 FOREST BEND DR, PARKER, TX, 75002",644137565,"L"
832378,"7211 FOWLER AVENUE","CINCINNATI","OH",45243,39.191634304,-84.366595483,378,"7211 FOWLER AVENUE, CINCINNATI, OH, 45243","Match","Exact","7211 FOWLER AVE, CINCINNATI, OH, 45243",103939089,"L"
832379,"7211 FOX BRICK","HUMBLE","TX",77338,30.007260568,-95.315488602,379,"7211 FOX BRICK, HUMBLE, TX, 77338","Match","Non_Exact","7211 FOXBRICK LN, HUMBLE, TX, 77338",644482170,"L"
832380,"7211 GARFIELD AVE","HUNTINGTON BEACH","CA",92648,33.68657267,-118.003649179,380,"7211 GARFIELD AVE, HUNTINGTON BEACH, CA, 92648","Match","Exact","7211 GARFIELD AVE, HUNTINGTON BEACH, CA, 92648",144019587,"L"
832381,"7211 GERRMANTOWN TRAIL","MEMPHIS","TN",38125,35.011092788,-89.822737087,381,"7211 GERRMANTOWN TRAIL, MEMPHIS, TN, 38125","Match","Non_Exact","7211 GERMANTOWN TRL, MEMPHIS, TN, 38125",607507701,"L"
832382,"7211 GLACIER CREEK LANE","HOUSTON","TX",77083,29.698401324,-95.628341327,382,"7211 GLACIER CREEK LANE, HOUSTON, TX, 77083","Match","Non_Exact","7211 GLACIER CREEK DR, HOUSTON, TX, 77083",627955275,"L"
832383,"7211 GREENVILLE PL","SPRINGFIELD","VA",22150,38.791294269,-77.19423848,383,"7211 GREENVILLE PL, SPRINGFIELD, VA, 22150","Match","Exact","7211 GREENVILLE PL, SPRINGFIELD, VA, 22150",75983347,"R"
832384,"7211 HANNUM AVENUE","CULVER CITY","CA",90230,NA,NA,384,"7211 HANNUM AVENUE, CULVER CITY, CA, 90230","No_Match",NA,NA,NA,NA
832385,"7211 HAVEN AVE E-422","RANCHO CUCAMONGA","CA",91701,34.123741238,-117.57588155,385,"7211 HAVEN AVE E-422, RANCHO CUCAMONGA, CA, 91701","Match","Non_Exact","7211 HAVEN AVE, RANCHO CUCAMONGA, CA, 91701",144686874,"L"
832386,"7211 HAVEN AVE STE E559","RANCHO CUCAMONGA","CA",91701,34.123741238,-117.57588155,386,"7211 HAVEN AVE STE E559, RANCHO CUCAMONGA, CA, 91701","Match","Exact","7211 HAVEN AVE, RANCHO CUCAMONGA, CA, 91701",144686874,"L"
832387,"7211 HAVEN AVENUE SUITE E-565","RANCHO CUCAMONGA","CA",91701,34.123741238,-117.57588155,387,"7211 HAVEN AVENUE SUITE E-565, RANCHO CUCAMONGA, CA, 91701","Match","Exact","7211 HAVEN AVE, RANCHO CUCAMONGA, CA, 91701",144686874,"L"
832388,"7211 HAVEN AVENUE SUITE E298","RANCHO CUCAMONGA","CA",91701,34.123741238,-117.57588155,388,"7211 HAVEN AVENUE SUITE E298, RANCHO CUCAMONGA, CA, 91701","Match","Exact","7211 HAVEN AVE, RANCHO CUCAMONGA, CA, 91701",144686874,"L"
832389,"7211 HAVERTON DR","HOUSTON","TX",77016,29.8796421390001,-95.2823303179999,389,"7211 HAVERTON DR, HOUSTON, TX, 77016","Match","Exact","7211 HAVERTON DR, HOUSTON, TX, 77016",96077391,"L"
832390,"7211 HEGGIE AVENUE","LAS VEGAS","NV",89131,36.287629854,-115.252383205,390,"7211 HEGGIE AVENUE, LAS VEGAS, NV, 89131","Match","Exact","7211 HEGGIE AVE, LAS VEGAS, NV, 89131",201951132,"R"
832391,"7211 KNOBS LANDING","CONNELLY SPRINGS","NC",28612,35.732409954,-81.4868570689999,391,"7211 KNOBS LANDING, CONNELLY SPRINGS, NC, 28612","Match","Exact","7211 KNOBS LNDG, CONNELLY SPRINGS, NC, 28612",37180832,"L"
832392,"7211 LAPIS MEADOW DRIVE","CYPRESS","TX",77433,29.8822847390001,-95.702625396,392,"7211 LAPIS MEADOW DRIVE, CYPRESS, TX, 77433","Match","Exact","7211 LAPIS MEADOW DR, CYPRESS, TX, 77433",626964345,"R"
832393,"7211 LARME AVE","ALLEN PARK","MI",48101,42.255989818,-83.221498572,393,"7211 LARME AVE, ALLEN PARK, MI, 48101","Match","Exact","7211 LARME AVE, ALLEN PARK, MI, 48101",95446795,"L"
832394,"7211 MAGNOLIA STREET","COMMERCE CITY","CO",80022,39.8274716490001,-104.910723255,394,"7211 MAGNOLIA STREET, COMMERCE CITY, CO, 80022","Match","Exact","7211 MAGNOLIA ST, COMMERCE CITY, CO, 80022",177309675,"L"
832395,"7211 MARION AVE","KANSAS CITY","MO",64133,38.9891630720001,-94.43613475,395,"7211 MARION AVE, KANSAS CITY, MO, 64133","Match","Exact","7211 MARION AVE, KANSAS CITY, MO, 64133",91517103,"L"
832396,"7211 MONTVIEW CT","FALLS CHURCH","VA",22043,38.903502067,-77.194234648,396,"7211 MONTVIEW CT, FALLS CHURCH, VA, 22043","Match","Exact","7211 MONTVIEW CT, FALLS CHURCH, VA, 22043",632452971,"L"
832397,"7211 MORTON ST","DALLAS","TX",75209,32.8451877530001,-96.823728326,397,"7211 MORTON ST, DALLAS, TX, 75209","Match","Exact","7211 MORTON ST, DALLAS, TX, 75209",102903615,"L"
832398,"7211 MOTZ STREET","PARAMOUNT","CA",90723,33.887346059,-118.172800117,398,"7211 MOTZ STREET, PARAMOUNT, CA, 90723","Match","Exact","7211 MOTZ ST, PARAMOUNT, CA, 90723",142773825,"L"
832399,"7211 N SERVICE RD","BIG SPRING","TX",79720,NA,NA,399,"7211 N SERVICE RD, BIG SPRING, TX, 79720","No_Match",NA,NA,NA,NA
832400,"7211 NW HWY 225","OCALA","FL",34482,29.2631398670001,-82.284339356,400,"7211 NW HWY 225, OCALA, FL, 34482","Match","Exact","7211 NW HWY 225, OCALA, FL, 34482",116820611,"R"
832401,"7211 OAKLEY RD","GLENN DALE","MD",20769,38.9895830660001,-76.8064777609999,401,"7211 OAKLEY RD, GLENN DALE, MD, 20769","Match","Exact","7211 OAKLEY RD, GLENN DALE, MD, 20769",653261994,"L"
832402,"7211 OAKWOOD AVENUE","LOS ANGELES","CA",90036,34.0782691200001,-118.346519381,402,"7211 OAKWOOD AVENUE, LOS ANGELES, CA, 90036","Match","Exact","7211 OAKWOOD AVE, LOS ANGELES, CA, 90036",141599582,"R"
832403,"7211 OGDEN BUSINESS LANE SUITE 2017","WILMINGTON","NC",28411,34.2731275240001,-77.821050322,403,"7211 OGDEN BUSINESS LANE SUITE 2017, WILMINGTON, NC, 28411","Match","Exact","7211 OGDEN BUSINESS LN, WILMINGTON, NC, 28411",152756863,"L"
832404,"7211 OGDEN BUSINESS LANE SUITE 205","WILMINGTON","NC",28411,34.2731275240001,-77.821050322,404,"7211 OGDEN BUSINESS LANE SUITE 205, WILMINGTON, NC, 28411","Match","Exact","7211 OGDEN BUSINESS LN, WILMINGTON, NC, 28411",152756863,"L"
832405,"7211 PACKARD AVE","WARREN","MI",48091,42.4585860990001,-83.030499909,405,"7211 PACKARD AVE, WARREN, MI, 48091","Match","Exact","7211 PACKARD AVE, WARREN, MI, 48091",652362273,"L"
832406,"7211 PALMITO RANCH DRIVE","RICHMOND","TX",77406,29.6706078500001,-95.752263016,406,"7211 PALMITO RANCH DRIVE, RICHMOND, TX, 77406","Match","Exact","7211 PALMITO RANCH DR, RICHMOND, TX, 77406",627533337,"L"
832407,"7211 PARK HILL TRAIL","SACHSE","TX",75058,32.986387021,-96.567126838,407,"7211 PARK HILL TRAIL, SACHSE, TX, 75058","Match","Non_Exact","7211 PARK HILL TRL, SACHSE, TX, 75048",210509923,"R"
832408,"7211 PERRYWOOD ROAD","UPPER MARLBORO","MD",20774,38.7883211220001,-76.822974658,408,"7211 PERRYWOOD ROAD, UPPER MARLBORO, MD, 20774","Match","Non_Exact","7211 PERRYWOOD RD, UPPER MARLBORO, MD, 20772",624711213,"R"
832409,"7211 REGENCY BLVD SUITE 270","HOUSTON","TX",77036,NA,NA,409,"7211 REGENCY BLVD SUITE 270, HOUSTON, TX, 77036","No_Match",NA,NA,NA,NA
832410,"7211 REGENCY SQUARE BLVD 209","HOUSTON","TX",77036,29.7162203830001,-95.510590088,410,"7211 REGENCY SQUARE BLVD 209, HOUSTON, TX, 77036","Match","Exact","7211 REGENCY SQUARE BLVD, HOUSTON, TX, 77036",96031634,"L"
832411,"7211 REGENCY SQUARE BLVD NUMBER 105","HOUSTON","TX",77036,29.7162203830001,-95.510590088,411,"7211 REGENCY SQUARE BLVD NUMBER 105, HOUSTON, TX, 77036","Match","Exact","7211 REGENCY SQUARE BLVD, HOUSTON, TX, 77036",96031634,"L"
832412,"7211 REMSEN STREET UNIT 27","NORFOLK","VA",23505,36.9083893490001,-76.2767987139999,412,"7211 REMSEN STREET UNIT 27, NORFOLK, VA, 23505","Match","Exact","7211 REMSEN ST, NORFOLK, VA, 23505",122133479,"L"
832413,"7211 RHODE ISLAND DRIVE EAST","JACKSONVILLE","FL",32208,30.3852353360001,-81.722344114,413,"7211 RHODE ISLAND DRIVE EAST, JACKSONVILLE, FL, 32208","Match","Non_Exact","7211 RHODE ISLAND DR E, JACKSONVILLE, FL, 32209",83888057,"R"
832414,"7211 RICHMOND AVE","KANSAS CITY","MO",64133,38.9938711030001,-94.499655006,414,"7211 RICHMOND AVE, KANSAS CITY, MO, 64133","Match","Exact","7211 RICHMOND AVE, KANSAS CITY, MO, 64133",91464641,"L"
832415,"7211 RIVER RD","INVER GROVE HEIGHTS","MN",55076,44.8444876550001,-93.015779503,415,"7211 RIVER RD, INVER GROVE HEIGHTS, MN, 55076","Match","Exact","7211 RIVER RD, INVER GROVE HEIGHTS, MN, 55076",649725400,"R"
832416,"7211 S WHITTIER AVENUE","WHITTIER","CA",90601,33.97697358,-118.043177878,416,"7211 S WHITTIER AVENUE, WHITTIER, CA, 90601","Match","Non_Exact","7211 WHITTIER AVE, WHITTIER, CA, 90602",141747352,"R"
832417,"7211 SADDLE CT","TORRINGTON","WY",82240,42.076681798,-104.229477505,417,"7211 SADDLE CT, TORRINGTON, WY, 82240","Match","Exact","7211 SADDLE CT, TORRINGTON, WY, 82240",634276645,"L"
832418,"7211 SAGEROSE DRIVE","HUDSONVILLE","MI",49426,42.900034356,-85.870524362,418,"7211 SAGEROSE DRIVE, HUDSONVILLE, MI, 49426","Match","Exact","7211 SAGEROSE DR, HUDSONVILLE, MI, 49426",618688057,"R"
832419,"7211 SAINT ANDREWS PLACE","ST LOUIS","MO",63121,NA,NA,419,"7211 SAINT ANDREWS PLACE, ST LOUIS, MO, 63121","Tie",NA,NA,NA,NA
832420,"7211 SHARPSBURG BLVD","NEW PORT RICHEY","FL",34653,28.2234205460001,-82.6949499689999,420,"7211 SHARPSBURG BLVD, NEW PORT RICHEY, FL, 34653","Match","Exact","7211 SHARPSBURG BLVD, NEW PORT RICHEY, FL, 34653",86397258,"R"
832421,"7211 SOUTH SHERIDAN","TACOMA","WA",98408,47.1916986570001,-122.452489463,421,"7211 SOUTH SHERIDAN, TACOMA, WA, 98408","Match","Non_Exact","7211 S SHERIDAN AVE, TACOMA, WA, 98408",184627905,"L"
832422,"7211 SOUTHWEST AVE","MAPLEWOOD","MO",63143,38.6131906320001,-90.312854643,422,"7211 SOUTHWEST AVE, MAPLEWOOD, MO, 63143","Match","Exact","7211 SOUTHWEST AVE, MAPLEWOOD, MO, 63143",107593525,"R"
832423,"7211 SW 42ND CT","DAVIE","FL",33314,26.068862321,-80.241929053,423,"7211 SW 42ND CT, DAVIE, FL, 33314","Match","Exact","7211 SW 42ND CT, DAVIE, FL, 33314",632884321,"R"
832424,"7211 SWANS RUN ROAD","CHARLOTTE","NC",28226,35.108554482,-80.791300155,424,"7211 SWANS RUN ROAD, CHARLOTTE, NC, 28226","Match","Exact","7211 SWANS RUN RD, CHARLOTTE, NC, 28226",70495107,"L"
832425,"7211 TRAPHILL WAY","GAINESVILLE","VA",20155,38.800996635,-77.630933891,425,"7211 TRAPHILL WAY, GAINESVILLE, VA, 20155","Match","Exact","7211 TRAPHILL WAY, GAINESVILLE, VA, 20155",207145672,"R"
832426,"7211 TUSCANY COURT","FARMINGTON","NM",87402,36.8012490890001,-108.133713546,426,"7211 TUSCANY COURT, FARMINGTON, NM, 87402","Match","Exact","7211 TUSCANY CT, FARMINGTON, NM, 87402",627402865,"R"
832427,"7211 TUSCANY CT","FARMINGTON","NM",87401,36.8012490890001,-108.133713546,427,"7211 TUSCANY CT, FARMINGTON, NM, 87401","Match","Non_Exact","7211 TUSCANY CT, FARMINGTON, NM, 87402",627402865,"R"
832428,"7211 VISTA HILL LANE","SACHSE","TX",75048,32.986371223,-96.5639190379999,428,"7211 VISTA HILL LANE, SACHSE, TX, 75048","Match","Exact","7211 VISTA HILL LN, SACHSE, TX, 75048",123564863,"L"
832429,"7211 W NORTHVIEW ST","BOISE","ID",83704,43.62660011,-116.271617367,429,"7211 W NORTHVIEW ST, BOISE, ID, 83704","Match","Exact","7211 NORTHVIEW ST, BOISE, ID, 83704",640433501,"L"
832430,"7211 WILSON RD","WEST PALM BEACH","FL",33413,26.677072563,-80.164380028,430,"7211 WILSON RD, WEST PALM BEACH, FL, 33413","Match","Exact","7211 WILSON RD, WEST PALM BEACH, FL, 33413",115268894,"L"
832431,"72112 AVE 329A","PARKS","NE",69041,40.2882376000001,-101.700749226,431,"72112 AVE 329A, PARKS, NE, 69041","Match","Exact","72112 AVE 329A, PARKS, NE, 69041",161546288,"R"
832432,"7212 1/2 UPLAND STREET","PITTSBURGH","PA",15208,NA,NA,432,"7212 1/2 UPLAND STREET, PITTSBURGH, PA, 15208","Tie",NA,NA,NA,NA
832433,"7212 33RD AVE S","SEATTLE","WA",98118,47.537631677,-122.28996305,433,"7212 33RD AVE S, SEATTLE, WA, 98118","Match","Exact","7212 33RD AVE S, SEATTLE, WA, 98118",186596631,"L"
832434,"7212 APPLE STREET","BATH","NY",14810,42.349610522,-77.314492915,434,"7212 APPLE STREET, BATH, NY, 14810","Match","Exact","7212 APPLE ST, BATH, NY, 14810",14740555,"L"
832435,"7212 BARD RD","TIPP CITY","OH",45371,39.933835641,-84.23713485,435,"7212 BARD RD, TIPP CITY, OH, 45371","Match","Exact","7212 BARD RD, TIPP CITY, OH, 45371",207645164,"R"
832436,"7212 BELLEVIEW AVE","KANSAS CITY","MO",64114,38.9977853550001,-94.600856347,436,"7212 BELLEVIEW AVE, KANSAS CITY, MO, 64114","Match","Exact","7212 BELLEVIEW AVE, KANSAS CITY, MO, 64114",91453863,"R"
832437,"7212 BIRCHCREEK ROAD","SAN DIEGO","CA",92119,32.8050845870001,-117.040668602,437,"7212 BIRCHCREEK ROAD, SAN DIEGO, CA, 92119","Match","Exact","7212 BIRCHCREEK RD, SAN DIEGO, CA, 92119",195325237,"L"
832438,"7212 BLOSSOM","TAMPA","FL",33614,28.014822639,-82.5099051139999,438,"7212 BLOSSOM, TAMPA, FL, 33614","Match","Non_Exact","7212 BLOSSOM AVE, TAMPA, FL, 33614",104514297,"L"
832439,"7212 CHESTER RD","FAIRVIEW","TN",37062,35.9686151330001,-87.1222116339999,439,"7212 CHESTER RD, FAIRVIEW, TN, 37062","Match","Exact","7212 CHESTER RD, FAIRVIEW, TN, 37062",648369562,"L"
832440,"7212 COUNTY RD 34","NAPLES","NY",14512,42.7193046850001,-77.419303465,440,"7212 COUNTY RD 34, NAPLES, NY, 14512","Match","Exact","7212 CO RD 34, NAPLES, NY, 14512",652643654,"L"
832441,"7212 E LAKESIDE DRIVE","CHARLOTTE","NC",28215,35.2389782870001,-80.728622485,441,"7212 E LAKESIDE DRIVE, CHARLOTTE, NC, 28215","Match","Exact","7212 LAKESIDE DR, CHARLOTTE, NC, 28215",70482625,"R"
832442,"7212 FAIR VALLEY WAY","PLANO","TX",75024,33.074848291,-96.772746468,442,"7212 FAIR VALLEY WAY, PLANO, TX, 75024","Match","Exact","7212 FAIR VALLEY WAY, PLANO, TX, 75024",123531096,"R"
832443,"7212 FROST LANE","DENTON","TX",76210,33.1491092420001,-97.111753804,443,"7212 FROST LANE, DENTON, TX, 76210","Match","Exact","7212 FROST LN, DENTON, TX, 76210",218076531,"L"
832444,"7212 HARVEY LANE","PLANO","SC",75025,NA,NA,444,"7212 HARVEY LANE, PLANO, SC, 75025","No_Match",NA,NA,NA,NA
832445,"7212 HELMSDALE RD","BETHESDA, MD","MD",20817,38.98312244,-77.151777161,445,"7212 HELMSDALE RD, BETHESDA, MD, MD, 20817","Match","Non_Exact","7212 HELMSDALE RD, BETHESDA, MD, 20817",62057632,"L"
832446,"7212 HUCKLEBERRY CT","CLINTON","MD",20735,38.749764801,-76.884635299,446,"7212 HUCKLEBERRY CT, CLINTON, MD, 20735","Match","Exact","7212 HUCKLEBERRY CT, CLINTON, MD, 20735",76343150,"L"
832447,"7212 KAVAN HUNTER DDRIVE","CHARLOTTE","NC",28214,35.2686433910001,-80.953216652,447,"7212 KAVAN HUNTER DDRIVE, CHARLOTTE, NC, 28214","Match","Non_Exact","7212 KAVAN HUNTER DR, CHARLOTTE, NC, 28214",70545200,"R"
832448,"7212 KAVAN HUNTER DR","CHARLOTTE","NC",28214,35.2686433910001,-80.953216652,448,"7212 KAVAN HUNTER DR, CHARLOTTE, NC, 28214","Match","Exact","7212 KAVAN HUNTER DR, CHARLOTTE, NC, 28214",70545200,"R"
832449,"7212 KILSYTH ST","CHARLOTTE","NC",28273,35.153611632,-80.979492374,449,"7212 KILSYTH ST, CHARLOTTE, NC, 28273","Match","Exact","7212 KILSYTH ST, CHARLOTTE, NC, 28273",618150483,"R"
832450,"7212 KNOLLWOOD","LITTLE ROCK","AR",72209,34.6646317030001,-92.3587218549999,450,"7212 KNOLLWOOD, LITTLE ROCK, AR, 72209","Match","Non_Exact","7212 KNOLLWOOD RD, LITTLE ROCK, AR, 72209",83512225,"R"
832451,"7212 MILLBURNE CT","BULLY VALLEY","IL",60050,42.3238487740001,-88.338016786,451,"7212 MILLBURNE CT, BULLY VALLEY, IL, 60050","Match","Non_Exact","7212 MILLBURNE CT, BULL VALLEY, IL, 60050",606270932,"L"
832452,"7212 NOTRE DAME DR","IRVING","TX",75063,32.9052075650001,-96.9893468609999,452,"7212 NOTRE DAME DR, IRVING, TX, 75063","Match","Exact","7212 NOTRE DAME DR, IRVING, TX, 75063",643199099,"R"
832453,"7212 OAK AVE APT 4NW","RIVER FOREST","IL",60305,41.892185129,-87.805451873,453,"7212 OAK AVE APT 4NW, RIVER FOREST, IL, 60305","Match","Exact","7212 OAK AVE, RIVER FOREST, IL, 60305",111752680,"R"
832454,"7212 OLIVE BRANCH LANE","KNOXVILLE","TN",37931,35.9738686090001,-84.062505835,454,"7212 OLIVE BRANCH LANE, KNOXVILLE, TN, 37931","Match","Exact","7212 OLIVE BRANCH LN, KNOXVILLE, TN, 37931",604625544,"L"
832455,"7212 PARWAY LANE","CHENEY","WA",99204,NA,NA,455,"7212 PARWAY LANE, CHENEY, WA, 99204","No_Match",NA,NA,NA,NA
832456,"7212 PELLET ST","DOWNEY","CA",90241,33.9512546120001,-118.151265049,456,"7212 PELLET ST, DOWNEY, CA, 90241","Match","Exact","7212 PELLET ST, DOWNEY, CA, 90241",142771961,"R"
832457,"7212 POPLAR CREEK TRCE","NASHVILLE","TN",37221,36.0520543100001,-86.95969961,457,"7212 POPLAR CREEK TRCE, NASHVILLE, TN, 37221","Match","Exact","7212 POPLAR CREEK TRCE, NASHVILLE, TN, 37221",97209758,"L"
832458,"7212 S LA CIENEGA UNIT C","INGLEWOOD","CA",90302,NA,NA,458,"7212 S LA CIENEGA UNIT C, INGLEWOOD, CA, 90302","No_Match",NA,NA,NA,NA
832459,"7212 S RIDGELAND","CHICAGO","IL",60649,41.7638561950001,-87.5823947229999,459,"7212 S RIDGELAND, CHICAGO, IL, 60649","Match","Non_Exact","7212 S RIDGELAND AVE, CHICAGO, IL, 60649",111774739,"R"
832460,"7212 S SEELEY AVE","CHICAGO","IL",60636,41.7626420870001,-87.674694318,460,"7212 S SEELEY AVE, CHICAGO, IL, 60636","Match","Exact","7212 S SEELEY AVE, CHICAGO, IL, 60636",111820606,"R"
832461,"7212 SANGALLA DRIVE","WINDERMERE","FL",34786,28.4579915140001,-81.558591265,461,"7212 SANGALLA DRIVE, WINDERMERE, FL, 34786","Match","Non_Exact","7212 SANGALA DR, WINDERMERE, FL, 34786",628079302,"L"
832462,"7212 SAYBROOK AVE","PHILADELPHIA","PA",19142,39.9178956590001,-75.24380525,462,"7212 SAYBROOK AVE, PHILADELPHIA, PA, 19142","Match","Exact","7212 SAYBROOK AVE, PHILADELPHIA, PA, 19142",642044791,"L"
832463,"7212 SE HAWTHORNE BLVD","PORTLAND","OR",97215,45.5122373790001,-122.588752162,463,"7212 SE HAWTHORNE BLVD, PORTLAND, OR, 97215","Match","Exact","7212 SE HAWTHORNE BLVD, PORTLAND, OR, 97215",157516183,"R"
832464,"7212 SONOMA VALLEY DR","FRISCO","TX",75035,33.1380977530001,-96.791789235,464,"7212 SONOMA VALLEY DR, FRISCO, TX, 75035","Match","Exact","7212 SONOMA VALLEY DR, FRISCO, TX, 75035",123527753,"L"
832465,"7212 STARBOARD DRIVE","DISTRICT HEIGHTS","MD",20745,38.864514951,-76.8837304479999,465,"7212 STARBOARD DRIVE, DISTRICT HEIGHTS, MD, 20745","Match","Non_Exact","7212 STARBOARD DR, DISTRICT HEIGHTS, MD, 20747",624708170,"L"
832466,"7212 TOOTENHAM RD","TOLEDO","OH",43617,41.6634320480001,-83.7152919549999,466,"7212 TOOTENHAM RD, TOLEDO, OH, 43617","Match","Non_Exact","7212 TOTTENHAM RD, TOLEDO, OH, 43617",33950625,"R"
832467,"7212 TOTTENHA RD","TOLEDO","OH",43617,NA,NA,467,"7212 TOTTENHA RD, TOLEDO, OH, 43617","No_Match",NA,NA,NA,NA
832468,"7212 TOTTENHAM RD","TOLEDO","OH",43617,41.6634320480001,-83.7152919549999,468,"7212 TOTTENHAM RD, TOLEDO, OH, 43617","Match","Exact","7212 TOTTENHAM RD, TOLEDO, OH, 43617",33950625,"R"
832469,"7212 WELSHMAN DR","FORT WORTH","TX",76137,32.870075474,-97.30878064,469,"7212 WELSHMAN DR, FORT WORTH, TX, 76137","Match","Exact","7212 WELSHMAN DR, FORT WORTH, TX, 76137",619872363,"R"
832470,"7212 WEST PARK DRIVE","HYATTSVILLE","MD",20783,38.977518494,-76.967014948,470,"7212 WEST PARK DRIVE, HYATTSVILLE, MD, 20783","Match","Exact","7212 W PARK DR, HYATTSVILLE, MD, 20783",76353749,"L"
832471,"7212 WESTMORELAND DRIVE","UNIVERSITY CITY","MO",63130,38.6513882410001,-90.321332833,471,"7212 WESTMORELAND DRIVE, UNIVERSITY CITY, MO, 63130","Match","Exact","7212 WESTMORELAND DR, UNIVERSITY CITY, MO, 63130",645708921,"L"
832472,"7212 WESTOVER RD","WACO","TX",76710,31.5300621430001,-97.2140706769999,472,"7212 WESTOVER RD, WACO, TX, 76710","Match","Exact","7212 WESTOVER RD, WACO, TX, 76710",146741792,"L"
832473,"72122 AVE 337","BENKELMAN","NE",69021,40.297964963,-101.549688972,473,"72122 AVE 337, BENKELMAN, NE, 69021","Match","Exact","72122 AVE 337, BENKELMAN, NE, 69021",161545228,"R"
832474,"7213 ANACA POINT RD","WILMINGTON","NC",28411,34.2710844530001,-77.791118546,474,"7213 ANACA POINT RD, WILMINGTON, NC, 28411","Match","Exact","7213 ANACA POINT RD, WILMINGTON, NC, 28411",152763722,"L"
832475,"7213 BRACKEN LANE","INDIANAPOLIS","IN",46239,39.6880937600001,-86.040161153,475,"7213 BRACKEN LANE, INDIANAPOLIS, IN, 46239","Match","Exact","7213 BRACKEN LN, INDIANAPOLIS, IN, 46239",108045978,"R"
832476,"7213 BYBROOK LANE","CHEVY CHASE","MD",20815,38.981990227,-77.060033102,476,"7213 BYBROOK LANE, CHEVY CHASE, MD, 20815","Match","Exact","7213 BYBROOK LN, CHEVY CHASE, MD, 20815",62067070,"R"
832477,"7213 CAMPSITE DRIVE","WENDELL","NC",27591,35.80688037,-78.3943362919999,477,"7213 CAMPSITE DRIVE, WENDELL, NC, 27591","Match","Exact","7213 CAMPSITE DR, WENDELL, NC, 27591",72630558,"L"
832478,"7213 CANYON HILL WAY","SAN DIEGO","CA",92126,32.916591152,-117.165126972,478,"7213 CANYON HILL WAY, SAN DIEGO, CA, 92126","Match","Exact","7213 CANYON HILL WAY, SAN DIEGO, CA, 92126",195300799,"R"
832479,"7213 CHUCK WAGON TRAIL","AUSTIN","TX",78749,30.223005893,-97.858079056,479,"7213 CHUCK WAGON TRAIL, AUSTIN, TX, 78749","Match","Exact","7213 CHUCK WAGON TRL, AUSTIN, TX, 78749",63937483,"L"
832480,"7213 CLIFF PINE DR","GAITHERFBURG","MD",20879,39.1793206890001,-77.139062076,480,"7213 CLIFF PINE DR, GAITHERFBURG, MD, 20879","Match","Non_Exact","7213 CLIFF PINE DR, GAITHERSBURG, MD, 20879",62092244,"L"
832481,"7213 COMMONS BLVD","PORT RICHEY","FL",34668,28.321454814,-82.695797394,481,"7213 COMMONS BLVD, PORT RICHEY, FL, 34668","Match","Exact","7213 COMMONS BLVD, PORT RICHEY, FL, 34668",645563161,"R"
832482,"7213 EAST JACKSON STREET","BROKEN ARROW","OK",74014,36.0446463320001,-95.702511868,482,"7213 EAST JACKSON STREET, BROKEN ARROW, OK, 74014","Match","Exact","7213 E JACKSON ST, BROKEN ARROW, OK, 74014",606209226,"L"
832483,"7213 FAIRWAY VISTA DR","CHARLOTTE","NC",28226,35.1098609920001,-80.809965037,483,"7213 FAIRWAY VISTA DR, CHARLOTTE, NC, 28226","Match","Exact","7213 FAIRWAY VISTA DR, CHARLOTTE, NC, 28226",70563757,"L"
832484,"7213 GEORGIA AVE NW","WASHINGTON","DC",20012,38.97773356,-77.0264468399999,484,"7213 GEORGIA AVE NW, WASHINGTON, DC, 20012","Match","Exact","7213 GEORGIA AVE NW, WASHINGTON, DC, 20012",76235702,"R"
832485,"7213 GLENRIDGE DRIVE","HYATTSVILLE","MD",20784,38.948508469,-76.890273954,485,"7213 GLENRIDGE DRIVE, HYATTSVILLE, MD, 20784","Match","Exact","7213 GLENRIDGE DR, HYATTSVILLE, MD, 20784",76308973,"R"
832486,"7213 GREENBRIAR","OCEAN SPRINGS","MS",39564,30.4462486730001,-88.826787114,486,"7213 GREENBRIAR, OCEAN SPRINGS, MS, 39564","Match","Non_Exact","7213 GREENBRIAR ST, OCEAN SPRINGS, MS, 39564",89257550,"L"
832487,"7213 KIPLING PARKWAY","DISTRICT HEIGHTS","MD",20747,38.8596087810001,-76.881151145,487,"7213 KIPLING PARKWAY, DISTRICT HEIGHTS, MD, 20747","Match","Exact","7213 KIPLING PKWY, DISTRICT HEIGHTS, MD, 20747",653265836,"L"
832488,"7213 KNAPP RD","DUNDEE","NY",14837,NA,NA,488,"7213 KNAPP RD, DUNDEE, NY, 14837","No_Match",NA,NA,NA,NA
832489,"7213 N 72ND DRIVE","GLENDALE","AZ",85303,33.540668587,-112.214238876,489,"7213 N 72ND DRIVE, GLENDALE, AZ, 85303","Match","Exact","7213 N 72ND DR, GLENDALE, AZ, 85303",613300075,"R"
832490,"7213 PAUTLER RD","EVANSVILLE","IL",62242,38.0735044830001,-89.8702207649999,490,"7213 PAUTLER RD, EVANSVILLE, IL, 62242","Match","Exact","7213 PAUTLER RD, EVANSVILLE, IL, 62242",95187433,"L"
832491,"7213 RANGER WAY","FORT WORTH","TX",76133,32.6383679,-97.3554198799999,491,"7213 RANGER WAY, FORT WORTH, TX, 76133","Match","Exact","7213 RANGER WAY, FORT WORTH, TX, 76133",102114390,"L"
832492,"7213 ROBERT ULRICH AVE","DAYTON","OH",45415,39.843069342,-84.285661856,492,"7213 ROBERT ULRICH AVE, DAYTON, OH, 45415","Match","Exact","7213 ROBERT ULRICH AVE, DAYTON, OH, 45415",143561895,"R"
832493,"7213 SANGER","WACO","TX",76712,31.516618834,-97.205786453,493,"7213 SANGER, WACO, TX, 76712","Match","Non_Exact","7213 SANGER AVE, WACO, TX, 76712",146768117,"R"
832494,"7213 STABLEFORD LANE","STANLEY","NC",28164,35.42712714,-80.990058394,494,"7213 STABLEFORD LANE, STANLEY, NC, 28164","Match","Non_Exact","7213 STABLEFORD LN W, STANLEY, NC, 28164",625180255,"R"
832495,"7213 STABLEFORD LN","STANLEY","NC",28164,35.42712714,-80.990058394,495,"7213 STABLEFORD LN, STANLEY, NC, 28164","Match","Non_Exact","7213 STABLEFORD LN W, STANLEY, NC, 28164",625180255,"R"
832496,"7213 SWIFTROCK RIDGE TERRACE","CHESTERFIELD","VA",23838,NA,NA,496,"7213 SWIFTROCK RIDGE TERRACE, CHESTERFIELD, VA, 23838","Tie",NA,NA,NA,NA
832497,"7213 THREE SISTERS CT","CITRUS HEIGHTS","CA",95621,38.6953304570001,-121.296334757,497,"7213 THREE SISTERS CT, CITRUS HEIGHTS, CA, 95621","Match","Exact","7213 THREE SISTERS CT, CITRUS HEIGHTS, CA, 95621",133341930,"L"
832498,"7213 TOURS DR","UPPER MARLBORO","MD",20772,38.7932499300001,-76.785724955,498,"7213 TOURS DR, UPPER MARLBORO, MD, 20772","Match","Exact","7213 TOURS DR, UPPER MARLBORO, MD, 20772",76344921,"L"
832499,"72135 LANDRY LN","ABITA SPRINGS","LA",70420,30.479892792,-89.9940511359999,499,"72135 LANDRY LN, ABITA SPRINGS, LA, 70420","Match","Exact","72135 LANDRY LN, ABITA SPRINGS, LA, 70420",111242744,"L"
832500,"7214 6TH AVENUE","BROOKLYN","NY",11209,40.630244369,-74.0193939599999,500,"7214 6TH AVENUE, BROOKLYN, NY, 11209","Match","Exact","7214 6TH AVE, BROOKLYN, NY, 11209",59094545,"R"
