"ID","Address","City","State","Zip","lat","long","id","input_address","match_indicator","match_type","matched_address","tiger_line_id","tiger_side"
683501,"503 TRADITION WAY","MOBILE","AL",36609,30.6630922050001,-88.1393118139999,1,"503 TRADITION WAY, MOBILE, AL, 36609","Match","Exact","503 TRADITION WAY, MOBILE, AL, 36609",61858824,"L"
683502,"503 TRAVERSE DRIVE","COSTA MESA","CA",92626,33.686476989,-117.878368618,2,"503 TRAVERSE DRIVE, COSTA MESA, CA, 92626","Match","Exact","503 TRAVERSE DR, COSTA MESA, CA, 92626",144048848,"L"
683503,"503 TREE SHORE DR","ORLANDO","FL",32825,28.55131069,-81.222896663,3,"503 TREE SHORE DR, ORLANDO, FL, 32825","Match","Exact","503 TREE SHORE DR, ORLANDO, FL, 32825",627968592,"L"
683504,"503 UNION","SUMNER","IA",50674,42.8516321560001,-92.108585357,4,"503 UNION, SUMNER, IA, 50674","Match","Non_Exact","503 UNION ST, SUMNER, IA, 50674",643004068,"L"
683505,"503 UPLAND AVENUE","MARION","SC",20571,34.185755059,-79.39420917,5,"503 UPLAND AVENUE, MARION, SC, 20571","Match","Non_Exact","503 UPLAND AVE, MARION, SC, 29571",28773084,"R"
683506,"503 US ROUTE 9","SCHROON LAKE","NY",12870,NA,NA,6,"503 US ROUTE 9, SCHROON LAKE, NY, 12870","No_Match",NA,NA,NA,NA
683507,"503 UTAH AVE","PROVO","UT",84602,40.2267875270001,-111.639634266,7,"503 UTAH AVE, PROVO, UT, 84602","Match","Non_Exact","503 UTAH AVE, PROVO, UT, 84606",134209937,"L"
683508,"503 VAN BUREN STREET","WAPAKONETA","OH",45895,40.574878907,-84.194789395,8,"503 VAN BUREN STREET, WAPAKONETA, OH, 45895","Match","Exact","503 VAN BUREN ST, WAPAKONETA, OH, 45895",36423567,"L"
683509,"503 VERBANA ST","ROSCOE","IL",61073,42.414151604,-89.035859613,9,"503 VERBANA ST, ROSCOE, IL, 61073","Match","Non_Exact","503 VERBENA ST, ROSCOE, IL, 61073",49285643,"L"
683510,"503 VERDAE DR","SPARTANBURG","SC",29301,34.91573472,-82.02606502,10,"503 VERDAE DR, SPARTANBURG, SC, 29301","Match","Exact","503 VERDAE DR, SPARTANBURG, SC, 29301",624395565,"R"
683511,"503 VINE ST","AXTELL","KS",66403,39.8695660240001,-96.256928902,11,"503 VINE ST, AXTELL, KS, 66403","Match","Exact","503 VINE ST, AXTELL, KS, 66403",28425266,"L"
683512,"503 W 11TH","MCCAMMON","ID",83250,42.6463338080001,-112.197088581,12,"503 W 11TH, MCCAMMON, ID, 83250","Match","Non_Exact","503 W 11TH ST, MCCAMMON, ID, 83250",204366838,"L"
683513,"503 W 133 ST STE 6D","NEW YORK CITY","NY",10027,40.817722459,-73.953472086,13,"503 W 133 ST STE 6D, NEW YORK CITY, NY, 10027","Match","Non_Exact","503 W 133RD ST, NEW YORK, NY, 10027",634257329,"R"
683514,"503 W 300 S","OREM","UT",84058,40.291729665,-111.706801578,14,"503 W 300 S, OREM, UT, 84058","Match","Exact","503 W 300 S, OREM, UT, 84058",134231216,"L"
683515,"503 W 3RD ST","DIAGONAL","IA",50845,40.8084228500001,-94.344879087,15,"503 W 3RD ST, DIAGONAL, IA, 50845","Match","Exact","503 W 3RD ST, DIAGONAL, IA, 50845",81400121,"R"
683516,"503 W 3RD STREET","SPRING VALLEY","IL",61362,41.330552395,-89.2069035809999,16,"503 W 3RD STREET, SPRING VALLEY, IL, 61362","Match","Exact","503 W 3RD ST, SPRING VALLEY, IL, 61362",8485026,"R"
683517,"503 W BARTON","EUREKA","IL",61530,NA,NA,17,"503 W BARTON, EUREKA, IL, 61530","No_Match",NA,NA,NA,NA
683518,"503 W BAUER ROAD","NAPERVILLE","IL",60563,41.793339417,-88.14069793,18,"503 W BAUER ROAD, NAPERVILLE, IL, 60563","Match","Non_Exact","503 E BAUER RD, NAPERVILLE, IL, 60563",112528802,"L"
683519,"503 W BRIDGES RD TRLR 29","DEER PARK","WA",99006,48.0177975500001,-117.420017749,19,"503 W BRIDGES RD TRLR 29, DEER PARK, WA, 99006","Match","Non_Exact","503 W BRIDGES RD, DEER PARK, WA, 99006",189903831,"L"
683520,"503 W CARPENTER","FAIRFIELD","IA",52556,41.0157123610001,-91.9695100019999,20,"503 W CARPENTER, FAIRFIELD, IA, 52556","Match","Non_Exact","503 W CARPENTER AVE, FAIRFIELD, IA, 52556",84430432,"R"
683521,"503 W DAILY","BUTTE","MT",59701,46.028836476,-112.543717243,21,"503 W DAILY, BUTTE, MT, 59701","Match","Non_Exact","503 W DALY ST, BUTTE, MT, 59701",153586070,"L"
683522,"503 W EDGEWOOD AVE","JACKSONVILLE","FL",32208,NA,NA,22,"503 W EDGEWOOD AVE, JACKSONVILLE, FL, 32208","Tie",NA,NA,NA,NA
683523,"503 W MAPLE RD","FARWELL","MI",48622,43.8216597750001,-84.859532112,23,"503 W MAPLE RD, FARWELL, MI, 48622","Match","Exact","503 MAPLE RD, FARWELL, MI, 48622",110386892,"L"
683524,"503 W MATHES ST","OZARK","MO",65721,NA,NA,24,"503 W MATHES ST, OZARK, MO, 65721","No_Match",NA,NA,NA,NA
683525,"503 W OAKDALE AVE","CHICAGO","IL",60657,41.935557225,-87.642059675,25,"503 W OAKDALE AVE, CHICAGO, IL, 60657","Match","Exact","503 W OAKDALE AVE, CHICAGO, IL, 60657",641756603,"L"
683526,"503 W TAYLOR AVE","MOSCOW","ID",83843,46.7227297100001,-117.006855909,26,"503 W TAYLOR AVE, MOSCOW, ID, 83843","Match","Exact","503 TAYLOR AVE, MOSCOW, ID, 83843",650124854,"R"
683527,"503 W WATAUGA AVE  APT 601","JOHNSON CITY","TN",37604,36.316423393,-82.3598327189999,27,"503 W WATAUGA AVE  APT 601, JOHNSON CITY, TN, 37604","Match","Non_Exact","503 W WATAUGA AVE, JOHNSON CITY, TN, 37604",607254165,"L"
683528,"503 WALNUT GROVE PAULINE ROAD","PAULINE","SC",29374,34.821361962,-81.882436855,28,"503 WALNUT GROVE PAULINE ROAD, PAULINE, SC, 29374","Match","Exact","503 WALNUT GROVE PAULINE RD, PAULINE, SC, 29374",19451713,"L"
683529,"503 WALNUT","CROSSETT","AR",71635,NA,NA,29,"503 WALNUT, CROSSETT, AR, 71635","No_Match",NA,NA,NA,NA
683530,"503 WALTER DR","LAFAYETTE","LA",70507,30.303430656,-92.040084142,30,"503 WALTER DR, LAFAYETTE, LA, 70507","Match","Exact","503 WALTER DR, LAFAYETTE, LA, 70507",85644273,"L"
683531,"503 WALWORTH STREET","LAKE GENEVA","WI",53147,42.599011278,-88.430500035,31,"503 WALWORTH STREET, LAKE GENEVA, WI, 53147","Match","Exact","503 WALWORTH ST, LAKE GENEVA, WI, 53147",53671653,"R"
683532,"503 WEHRMAN STREET","LOUISIANA","MO",63353,39.457683767,-91.0541121699999,32,"503 WEHRMAN STREET, LOUISIANA, MO, 63353","Match","Exact","503 WEHRMAN ST, LOUISIANA, MO, 63353",44682210,"R"
683533,"503 WEST 31ST STREET","HOUSTON","TX",77018,29.8149412020001,-95.406335202,33,"503 WEST 31ST STREET, HOUSTON, TX, 77018","Match","Exact","503 W 31ST ST, HOUSTON, TX, 77018",96055175,"L"
683534,"503 WEST 3RD STREET","AURELIA","IA",51005,42.713112897,-95.442922213,34,"503 WEST 3RD STREET, AURELIA, IA, 51005","Match","Exact","503 W 3RD ST, AURELIA, IA, 51005",82760386,"R"
683535,"503 WEST 46TH ST APT 8","NEW YORK","NY",10036,40.762263788,-73.993778257,35,"503 WEST 46TH ST APT 8, NEW YORK, NY, 10036","Match","Exact","503 W 46TH ST, NEW YORK, NY, 10036",59661437,"R"
683536,"503 WEST 4TH STREET","ST ANSGAR","IA",50472,43.3784794800001,-92.924207323,36,"503 WEST 4TH STREET, ST ANSGAR, IA, 50472","Match","Exact","503 W 4TH ST, SAINT ANSGAR, IA, 50472",7467859,"R"
683537,"503 WEST CAMBRIA STREET","NEWCASTLE","WY",82701,43.856355358,-104.210740256,37,"503 WEST CAMBRIA STREET, NEWCASTLE, WY, 82701","Match","Non_Exact","503 CAMBRIA ST, NEWCASTLE, WY, 82701",147492342,"R"
683538,"503 WEST DEAN ROAD","FOX POINT","WI",53217,43.1694910690001,-87.913272649,38,"503 WEST DEAN ROAD, FOX POINT, WI, 53217","Match","Exact","503 W DEAN RD, FOX POINT, WI, 53217",77735103,"L"
683539,"503 WEST HAMPTON","MARQUETTE","MI",49855,46.5316673730001,-87.403828819,39,"503 WEST HAMPTON, MARQUETTE, MI, 49855","Match","Non_Exact","503 W HAMPTON ST, MARQUETTE, MI, 49855",182074210,"L"
683540,"503 WEST MYRTLE DRIVE","CHANDLER","AZ",85248,33.250116146,-111.848857385,40,"503 WEST MYRTLE DRIVE, CHANDLER, AZ, 85248","Match","Exact","503 W MYRTLE DR, CHANDLER, AZ, 85248",128806346,"R"
683541,"503 WEST RD UNIT 65","HOUSTON","TX",77038,NA,NA,41,"503 WEST RD UNIT 65, HOUSTON, TX, 77038","No_Match",NA,NA,NA,NA
683542,"503 WEST WARREN STREET","BUCURUS","OH",44820,40.8064731370001,-82.9811399439999,42,"503 WEST WARREN STREET, BUCURUS, OH, 44820","Match","Non_Exact","503 W WARREN ST, BUCYRUS, OH, 44820",635314789,"R"
683543,"503 WESTOVER DRIVE","EULESS","TX",76039,32.8741450860001,-97.089717384,43,"503 WESTOVER DRIVE, EULESS, TX, 76039","Match","Exact","503 WESTOVER DR, EULESS, TX, 76039",101869049,"R"
683544,"503 WEXFORD DR","NICEVILLE","FL",32578,30.5176394160001,-86.4426768,44,"503 WEXFORD DR, NICEVILLE, FL, 32578","Match","Exact","503 WEXFORD DR, NICEVILLE, FL, 32578",74432433,"L"
683545,"503 WHITE HORSE PIKE SUITE 202","HADDON HEIGHTS","NJ",8035,NA,NA,45,"503 WHITE HORSE PIKE SUITE 202, HADDON HEIGHTS, NJ, 8035","No_Match",NA,NA,NA,NA
683546,"503 WHITE HORSE PIKE","HADDON HEIGHTS","NJ",8035,NA,NA,46,"503 WHITE HORSE PIKE, HADDON HEIGHTS, NJ, 8035","No_Match",NA,NA,NA,NA
683547,"503 WHITE POND RD","WILLISTON","SC",29853,33.4359975020001,-81.4624270049999,47,"503 WHITE POND RD, WILLISTON, SC, 29853","Match","Exact","503 WHITE POND RD, WILLISTON, SC, 29853",65012374,"L"
683548,"503 WHITMAN DRIVE","BLACKWOOD","NJ",8012,39.7513385400001,-75.0330519139999,48,"503 WHITMAN DRIVE, BLACKWOOD, NJ, 8012","Match","Exact","503 WHITMAN DR, BLACKWOOD, NJ, 08012",134587501,"L"
683549,"503 WHITNEY CHASE","STONE MOUNTAIN","GA",30088,33.7301118870001,-84.1857983469999,49,"503 WHITNEY CHASE, STONE MOUNTAIN, GA, 30088","Match","Exact","503 WHITNEY CHASE, STONE MOUNTAIN, GA, 30088",23413297,"L"
683550,"503 WHITTEN AVENUE","Ingleside","IL",60041,42.3826984930001,-88.156603752,50,"503 WHITTEN AVENUE, Ingleside, IL, 60041","Match","Exact","503 WHITTEN AVE, INGLESIDE, IL, 60041",119663295,"R"
683551,"503 WILDHAM AVENUE","NORTH CAPE MAY","NJ",8204,NA,NA,51,"503 WILDHAM AVENUE, NORTH CAPE MAY, NJ, 8204","No_Match",NA,NA,NA,NA
683552,"503 WILLOW DRIVE","LOCHBUIE","CO",80603,40.0032519910001,-104.713751623,52,"503 WILLOW DRIVE, LOCHBUIE, CO, 80603","Match","Exact","503 WILLOW DR, LOCHBUIE, CO, 80603",188691061,"L"
683553,"503 WILLOW LAKE ROAD","HAYNEVILLE","AL",36040,NA,NA,53,"503 WILLOW LAKE ROAD, HAYNEVILLE, AL, 36040","No_Match",NA,NA,NA,NA
683554,"503 WILSON AVENUE","LINWOOD","NJ",8221,39.3553289430001,-74.5748919009999,54,"503 WILSON AVENUE, LINWOOD, NJ, 8221","Match","Exact","503 WILSON AVE, LINWOOD, NJ, 08221",202483256,"L"
683555,"503 WILSON STREET","CHESTER","PA",19013,39.8348919050001,-75.390620239,55,"503 WILSON STREET, CHESTER, PA, 19013","Match","Exact","503 WILSON ST, CHESTER, PA, 19013",134889903,"R"
683556,"503 WINDSTONE TRIAL","ALPHARETTA","GA",30004,34.137303278,-84.23732348,56,"503 WINDSTONE TRIAL, ALPHARETTA, GA, 30004","Match","Non_Exact","503 WINDSTONE TRL, ALPHARETTA, GA, 30004",625308278,"L"
683557,"503 WINTHROP STREET","FORT WALTON BEACH","FL",32547,30.438785963,-86.605917367,57,"503 WINTHROP STREET, FORT WALTON BEACH, FL, 32547","Match","Exact","503 WINTHROP ST, FORT WALTON BEACH, FL, 32547",74390964,"R"
683558,"503 WINWOOD PLACE","SAVANNAH","GA",31419,31.9746340310001,-81.147730613,58,"503 WINWOOD PLACE, SAVANNAH, GA, 31419","Match","Exact","503 WINWOOD PL, SAVANNAH, GA, 31419",6173703,"R"
683559,"503 WOOD LANE COURT","CINNAMINSON","NJ",8077,39.995073002,-74.9681850119999,59,"503 WOOD LANE COURT, CINNAMINSON, NJ, 8077","Match","Non_Exact","503 WOODLANE CT, CINNAMINSON, NJ, 08077",134026659,"L"
683560,"503 WOODHAVEN  RD","UTICA","NY",13502,43.129718057,-75.228058913,60,"503 WOODHAVEN  RD, UTICA, NY, 13502","Match","Exact","503 WOODHAVEN RD, UTICA, NY, 13502",171529212,"L"
683561,"503 WOODLAND STREET","WINDSOR LOCKS","CT",6096,41.9285883860001,-72.6614905549999,61,"503 WOODLAND STREET, WINDSOR LOCKS, CT, 6096","Match","Exact","503 WOODLAND ST, WINDSOR LOCKS, CT, 06096",3527964,"L"
683562,"503 WOODSTOWN RD","WOOLWICH TWP","NJ",8085,39.708099915,-75.317916004,62,"503 WOODSTOWN RD, WOOLWICH TWP, NJ, 8085","Match","Exact","503 WOODSTOWN RD, WOOLWICH TOWNSHIP, NJ, 08085",134592347,"R"
683563,"503 WYATT LANE","WESTERN GROVE","AR",72685,NA,NA,63,"503 WYATT LANE, WESTERN GROVE, AR, 72685","No_Match",NA,NA,NA,NA
683564,"503 WYRE FOREST COURT","CHARLOTTE","NC",28270,35.137062337,-80.756395471,64,"503 WYRE FOREST COURT, CHARLOTTE, NC, 28270","Match","Exact","503 WYRE FOREST CT, CHARLOTTE, NC, 28270",70533704,"R"
683565,"503","BILLINGS","MT",59102,NA,NA,65,"503, BILLINGS, MT, 59102","No_Match",NA,NA,NA,NA
683566,"503","HOUSTON","TX",77090,NA,NA,66,"503, HOUSTON, TX, 77090","No_Match",NA,NA,NA,NA
683567,"503","PETERSBURG","VA",23803,NA,NA,67,"503, PETERSBURG, VA, 23803","No_Match",NA,NA,NA,NA
683568,"503","UPPER MARLBORO","MD",20774,NA,NA,68,"503, UPPER MARLBORO, MD, 20774","No_Match",NA,NA,NA,NA
683569,"5030 48TH PLACE","VERO BEACH","FL",32967,27.681342756,-80.4379702589999,69,"5030 48TH PLACE, VERO BEACH, FL, 32967","Match","Exact","5030 48TH PL, VERO BEACH, FL, 32967",120327741,"R"
683570,"5030 65TH PL","WOODSIDE","NY",11377,NA,NA,70,"5030 65TH PL, WOODSIDE, NY, 11377","No_Match",NA,NA,NA,NA
683571,"5030 65TH PLACE","WOODSIDE","NY",11377,NA,NA,71,"5030 65TH PLACE, WOODSIDE, NY, 11377","No_Match",NA,NA,NA,NA
683572,"5030 72ND STREET","LINCOLN","NE",68516,40.763164467,-96.622228793,72,"5030 72ND STREET, LINCOLN, NE, 68516","Match","Non_Exact","5030 S 72ND ST, LINCOLN, NE, 68516",640632905,"R"
683573,"5030 A STREET UNIT 2","SAN DIEGO","CA",92102,NA,NA,73,"5030 A STREET UNIT 2, SAN DIEGO, CA, 92102","No_Match",NA,NA,NA,NA
683574,"5030 AMES LAKE ROAD NE","CARNATION","WA",98014,NA,NA,74,"5030 AMES LAKE ROAD NE, CARNATION, WA, 98014","No_Match",NA,NA,NA,NA
683575,"5030 AMES LAKER ROAD NE","CARNATION","WA",98014,NA,NA,75,"5030 AMES LAKER ROAD NE, CARNATION, WA, 98014","No_Match",NA,NA,NA,NA
683576,"5030 APPLEVIEW LANE","CRANDON","WI",54520,NA,NA,76,"5030 APPLEVIEW LANE, CRANDON, WI, 54520","No_Match",NA,NA,NA,NA
683577,"5030 ARGONN PL","SYLVANIA","OH",43560,NA,NA,77,"5030 ARGONN PL, SYLVANIA, OH, 43560","No_Match",NA,NA,NA,NA
683578,"5030 ARROWHEAD TRACE","OAK FOREST","IL",60452,41.577152443,-87.74205341,78,"5030 ARROWHEAD TRACE, OAK FOREST, IL, 60452","Match","Exact","5030 ARROWHEAD TRCE, OAK FOREST, IL, 60452",634792173,"L"
683579,"5030 ARROWHEAD","OAK FOREST","IL",60452,41.577152443,-87.74205341,79,"5030 ARROWHEAD, OAK FOREST, IL, 60452","Match","Non_Exact","5030 ARROWHEAD TRCE, OAK FOREST, IL, 60452",634792173,"L"
683580,"5030 BASS COURT","WALDORF","MD",20603,38.619077652,-76.943748362,80,"5030 BASS COURT, WALDORF, MD, 20603","Match","Exact","5030 BASS CT, WALDORF, MD, 20603",25379329,"R"
683581,"5030 BAY LANE","BACLIFF","TX",77518,29.507380024,-94.973529593,81,"5030 BAY LANE, BACLIFF, TX, 77518","Match","Exact","5030 BAY LN, BACLIFF, TX, 77518",627934653,"R"
683582,"5030 BERKSHIRE CT","SUWANEE","GA",30024,34.0935375970001,-84.147867474,82,"5030 BERKSHIRE CT, SUWANEE, GA, 30024","Match","Exact","5030 BERKSHIRE CT, SUWANEE, GA, 30024",70183859,"L"
683583,"5030 BLAKE CATHERINE COURT","CHARLOTTE","NC",28205,NA,NA,83,"5030 BLAKE CATHERINE COURT, CHARLOTTE, NC, 28205","No_Match",NA,NA,NA,NA
683584,"5030 BLOOMINGTON AVE","MINNEAPOLIS","MN",55417,44.9118339520001,-93.252435216,84,"5030 BLOOMINGTON AVE, MINNEAPOLIS, MN, 55417","Match","Non_Exact","5030 BLOOMINGTON AVE S, MINNEAPOLIS, MN, 55417",43739897,"R"
683585,"5030 BLUE SKY LANE","CUMMING","GA",30040,34.1400850100001,-84.20837001,85,"5030 BLUE SKY LANE, CUMMING, GA, 30040","Match","Exact","5030 BLUE SKY LN, CUMMING, GA, 30040",646176439,"R"
683586,"5030 BRISBANE DRIVE","HOUSTON","TX",77048,29.637706323,-95.351370934,86,"5030 BRISBANE DRIVE, HOUSTON, TX, 77048","Match","Exact","5030 BRISBANE DR, HOUSTON, TX, 77048",96090509,"R"
683587,"5030 BRYAN RD","RICHMOND","TX",77469,29.5310734380001,-95.771015125,87,"5030 BRYAN RD, RICHMOND, TX, 77469","Match","Exact","5030 BRYAN RD, RICHMOND, TX, 77469",227750373,"R"
683588,"5030 CENTER HILL CHURCH RD","LOGANVILLE","GA",30052,33.767670916,-83.8886417109999,88,"5030 CENTER HILL CHURCH RD, LOGANVILLE, GA, 30052","Match","Exact","5030 CENTER HILL CHURCH RD, LOGANVILLE, GA, 30052",77626890,"L"
683589,"5030 CENTRE AVE APT 251","PITTSBURGH","PA",15213,NA,NA,89,"5030 CENTRE AVE APT 251, PITTSBURGH, PA, 15213","No_Match",NA,NA,NA,NA
683590,"5030 CHAMPION BLVD G-11 456","BOCA RATON","FL",33496,26.4119022400001,-80.1233230889999,90,"5030 CHAMPION BLVD G-11 456, BOCA RATON, FL, 33496","Match","Exact","5030 CHAMPION BLVD, BOCA RATON, FL, 33496",115575952,"R"
683591,"5030 CHAMPION BLVD G11173","BOCA RATON","FL",33496,26.4119022400001,-80.1233230889999,91,"5030 CHAMPION BLVD G11173, BOCA RATON, FL, 33496","Match","Exact","5030 CHAMPION BLVD, BOCA RATON, FL, 33496",115575952,"R"
683592,"5030 CHAMPION BLVD NUM G-11-422","BOCA RATON","FL",33496,26.4119022400001,-80.1233230889999,92,"5030 CHAMPION BLVD NUM G-11-422, BOCA RATON, FL, 33496","Match","Exact","5030 CHAMPION BLVD, BOCA RATON, FL, 33496",115575952,"R"
683593,"5030 CHAMPION BLVD STE G11 RM273","BOCA RATON","FL",33496,26.4119022400001,-80.1233230889999,93,"5030 CHAMPION BLVD STE G11 RM273, BOCA RATON, FL, 33496","Match","Exact","5030 CHAMPION BLVD, BOCA RATON, FL, 33496",115575952,"R"
683594,"5030 CHESEBRO RD STE 102","AGOURA HILLS","CA",91301,34.1414623260001,-118.739573589,94,"5030 CHESEBRO RD STE 102, AGOURA HILLS, CA, 91301","Match","Exact","5030 CHESEBRO RD, AGOURA HILLS, CA, 91301",141721876,"L"
683595,"5030 COLLINS LAKE DR","MABLETON","GA",30126,33.832506358,-84.5580467089999,95,"5030 COLLINS LAKE DR, MABLETON, GA, 30126","Match","Non_Exact","5030 COLLINS LAKE DR SW, MABLETON, GA, 30126",614175564,"L"
683596,"5030 COMMONWEALTH DRIVE","SARASOTA","FL",34242,27.2793377830001,-82.552711313,96,"5030 COMMONWEALTH DRIVE, SARASOTA, FL, 34242","Match","Exact","5030 COMMONWEALTH DR, SARASOTA, FL, 34242",16394530,"R"
683597,"5030 DATIL PEPPER RD","ST AUGUSTINE","FL",32086,29.797412733,-81.326163604,97,"5030 DATIL PEPPER RD, ST AUGUSTINE, FL, 32086","Match","Exact","5030 DATIL PEPPER RD, SAINT AUGUSTINE, FL, 32086",92614041,"R"
683598,"5030 DEL SHANNON STREET","NORTH LAS VEGAS","NV",89031,36.2515572770001,-115.206901623,98,"5030 DEL SHANNON STREET, NORTH LAS VEGAS, NV, 89031","Match","Exact","5030 DEL SHANNON ST, N LAS VEGAS, NV, 89031",201908526,"R"
683599,"5030 E 600 N","COLUMBUS","IN",47203,39.2898359650001,-85.8655678109999,99,"5030 E 600 N, COLUMBUS, IN, 47203","Match","Exact","5030 E 600 N, COLUMBUS, IN, 47203",30968143,"L"
683600,"5030 E HWY 163","COLUMBIA","MO",65201,38.8686112940001,-92.2645766319999,100,"5030 E HWY 163, COLUMBIA, MO, 65201","Match","Exact","5030 E HWY 163, COLUMBIA, MO, 65201",648136602,"L"
683601,"5030 ECHO LANE APT 104","SOUTHAVEN","MS",38671,34.93429539,-90.001222454,101,"5030 ECHO LANE APT 104, SOUTHAVEN, MS, 38671","Match","Exact","5030 ECHO LN, SOUTHAVEN, MS, 38671",91845170,"L"
683602,"5030 EISENHOWER AVE APT 403","ALEXANDRIA","VA",22304,38.802550411,-77.121921336,102,"5030 EISENHOWER AVE APT 403, ALEXANDRIA, VA, 22304","Match","Exact","5030 EISENHOWER AVE, ALEXANDRIA, VA, 22304",76023500,"L"
683603,"5030 FLORENCE AVE","PHILADELPHIA","PA",19143,39.9462432990001,-75.2220736089999,103,"5030 FLORENCE AVE, PHILADELPHIA, PA, 19143","Match","Exact","5030 FLORENCE AVE, PHILADELPHIA, PA, 19143",131399872,"L"
683604,"5030 FOREST HURST DR","SPRING","TX",77373,30.06059686,-95.364086964,104,"5030 FOREST HURST DR, SPRING, TX, 77373","Match","Exact","5030 FOREST HURST DR, SPRING, TX, 77373",627728629,"L"
683605,"5030 GADSEN DRIVE","FAIRFAX","VA",22032,38.818556921,-77.3115794719999,105,"5030 GADSEN DRIVE, FAIRFAX, VA, 22032","Match","Exact","5030 GADSEN DR, FAIRFAX, VA, 22032",75969769,"L"
683606,"5030 GATEWAY DRIVE SUITE A","GRAND FORKS","ND",58203,NA,NA,106,"5030 GATEWAY DRIVE SUITE A, GRAND FORKS, ND, 58203","No_Match",NA,NA,NA,NA
683607,"5030 HARTWELL DR","HOUSTON","TX",77084,29.8456360700001,-95.679777153,107,"5030 HARTWELL DR, HOUSTON, TX, 77084","Match","Exact","5030 HARTWELL DR, HOUSTON, TX, 77084",96143499,"R"
683608,"5030 HEATHCLIFF WAY","CUMMING","GA",30041,34.1408727080001,-84.139932394,108,"5030 HEATHCLIFF WAY, CUMMING, GA, 30041","Match","Exact","5030 HEATHCLIFF WAY, CUMMING, GA, 30041",637390061,"R"
683609,"5030 HICKORY HILLS DRIVE","WOODSTOCK","GA",30188,34.161309578,-84.4466913529999,109,"5030 HICKORY HILLS DRIVE, WOODSTOCK, GA, 30188","Match","Exact","5030 HICKORY HILLS DR, WOODSTOCK, GA, 30188",68846319,"R"
683610,"5030 HIGHVIEW DRIVE","MONTEVIDEO","MN",56265,44.9274939160001,-95.701072284,110,"5030 HIGHVIEW DRIVE, MONTEVIDEO, MN, 56265","Match","Non_Exact","5030 HIGHVIEW DR SW, MONTEVIDEO, MN, 56265",36678724,"L"
683611,"5030 HORAT TER","FREMONT","CA",94555,37.5640142350001,-122.049930955,111,"5030 HORAT TER, FREMONT, CA, 94555","Match","Exact","5030 HORAT TER, FREMONT, CA, 94555",635480040,"L"
683612,"5030 HORAT TERRACE","FREMONT","CA",94555,37.5640142350001,-122.049930955,112,"5030 HORAT TERRACE, FREMONT, CA, 94555","Match","Exact","5030 HORAT TER, FREMONT, CA, 94555",635480040,"L"
683613,"5030 J STREET","LINCOLN","NE",68510,40.808016841,-96.65090936,113,"5030 J STREET, LINCOLN, NE, 68510","Match","Exact","5030 J ST, LINCOLN, NE, 68510",28258697,"L"
683614,"5030 KATELLA AVE SUITE 210","LOS ALAMITOS","CA",90720,NA,NA,114,"5030 KATELLA AVE SUITE 210, LOS ALAMITOS, CA, 90720","No_Match",NA,NA,NA,NA
683615,"5030 LAKE STREET","GLENNIE","MI",48737,44.5357907380001,-83.727926711,115,"5030 LAKE STREET, GLENNIE, MI, 48737","Match","Exact","5030 LAKE ST, GLENNIE, MI, 48737",135879614,"R"
683616,"5030 LAUREL ST","SAN DIEGO","CA",92105,32.7314238280001,-117.088524105,116,"5030 LAUREL ST, SAN DIEGO, CA, 92105","Match","Exact","5030 LAUREL ST, SAN DIEGO, CA, 92105",195350547,"L"
683617,"5030 LINCREST PLACE","HUBER HEIGHTS","OH",45424,39.852101018,-84.1480868949999,117,"5030 LINCREST PLACE, HUBER HEIGHTS, OH, 45424","Match","Exact","5030 LINCREST PL, HUBER HEIGHTS, OH, 45424",143572807,"R"
683618,"5030 LUKES POND RD","BRANCHBURG","NJ",8876,NA,NA,118,"5030 LUKES POND RD, BRANCHBURG, NJ, 8876","No_Match",NA,NA,NA,NA
683619,"5030 MARATHON DRIVE","MADISON","WI",53705,43.064765132,-89.46324384,119,"5030 MARATHON DRIVE, MADISON, WI, 53705","Match","Exact","5030 MARATHON DR, MADISON, WI, 53705",49467245,"R"
683620,"5030 MEERBUSCH LN","HANNIBAL","MO",63401,39.761450924,-91.511858563,120,"5030 MEERBUSCH LN, HANNIBAL, MO, 63401","Match","Exact","5030 MEERBUSCH LN, HANNIBAL, MO, 63401",648767765,"L"
683621,"5030 MINTON RD NW","PALM BAY","FL",32907,28.034756977,-80.6715724869999,121,"5030 MINTON RD NW, PALM BAY, FL, 32907","Match","Exact","5030 MINTON RD NW, PALM BAY, FL, 32907",93906752,"R"
683622,"5030 MONETTA LANE","SACRAMENTO","CA",95835,38.662846202,-121.548694232,122,"5030 MONETTA LANE, SACRAMENTO, CA, 95835","Match","Exact","5030 MONETTA LN, SACRAMENTO, CA, 95835",133408440,"L"
683623,"5030 N CAMINO ARENOSA","TUCSON","AZ",85718,NA,NA,123,"5030 N CAMINO ARENOSA, TUCSON, AZ, 85718","No_Match",NA,NA,NA,NA
683624,"5030 N KENT AVE","WHITEFISH BAY","WI",53217,43.1082891790001,-87.90948372,124,"5030 N KENT AVE, WHITEFISH BAY, WI, 53217","Match","Exact","5030 N KENT AVE, WHITEFISH BAY, WI, 53217",77742753,"R"
683625,"5030 N LOOP 1604 E APT 3102","SAN ANTONIO","TX",78247,29.6018636370001,-98.3971731569999,125,"5030 N LOOP 1604 E APT 3102, SAN ANTONIO, TX, 78247","Match","Non_Exact","5030 N LOOP 1604 E, SAN ANTONIO, TX, 78247",642946672,"R"
683626,"5030 N MARINE DR APT 1201","CHICAGO","IL",60640,41.9741331600001,-87.651297545,126,"5030 N MARINE DR APT 1201, CHICAGO, IL, 60640","Match","Non_Exact","5030 N MARINE DR, CHICAGO, IL, 60640",111766424,"L"
683627,"5030 N MARINE DR APT 1810","CHICAGO","IL",60640,41.9741331600001,-87.651297545,127,"5030 N MARINE DR APT 1810, CHICAGO, IL, 60640","Match","Non_Exact","5030 N MARINE DR, CHICAGO, IL, 60640",111766424,"L"
683628,"5030 N MARINE DR APT 606","CHICAGO","IL",60640,41.9741331600001,-87.651297545,128,"5030 N MARINE DR APT 606, CHICAGO, IL, 60640","Match","Non_Exact","5030 N MARINE DR, CHICAGO, IL, 60640",111766424,"L"
683629,"5030 N MARINE DR APT 812","CHICAGO","IL",60640,41.9741331600001,-87.651297545,129,"5030 N MARINE DR APT 812, CHICAGO, IL, 60640","Match","Non_Exact","5030 N MARINE DR, CHICAGO, IL, 60640",111766424,"L"
683630,"5030 N MARINE DRIVE APT 1308","EVANSTON","IL",60203,NA,NA,130,"5030 N MARINE DRIVE APT 1308, EVANSTON, IL, 60203","No_Match",NA,NA,NA,NA
683631,"5030 N MAY BOX 285","OKLAHOMA CITY","OK",73112,NA,NA,131,"5030 N MAY BOX 285, OKLAHOMA CITY, OK, 73112","No_Match",NA,NA,NA,NA
683632,"5030 NESBIT FERRY LANE","SANDY SPRINGS","GA",30350,33.964902307,-84.270853207,132,"5030 NESBIT FERRY LANE, SANDY SPRINGS, GA, 30350","Match","Exact","5030 NESBIT FERRY LN, SANDY SPRINGS, GA, 30350",17356620,"L"
683633,"5030 ORMAND RD","WEST CARROLLTON","OH",45449,39.6802791630001,-84.22526506,133,"5030 ORMAND RD, WEST CARROLLTON, OH, 45449","Match","Exact","5030 ORMAND RD, WEST CARROLLTON, OH, 45449",143578055,"L"
683634,"5030 PATRA WAY","OCEANSIDE","CA",92056,33.1678162520001,-117.269122193,134,"5030 PATRA WAY, OCEANSIDE, CA, 92056","Match","Exact","5030 PATRA WAY, OCEANSIDE, CA, 92056",195430130,"R"
683635,"5030 PLUMBAGO PLACE","ROCKLIN","CA",95677,38.7951635050001,-121.25336073,135,"5030 PLUMBAGO PLACE, ROCKLIN, CA, 95677","Match","Exact","5030 PLUMBAGO PL, ROCKLIN, CA, 95677",106764243,"R"
683636,"5030 S 427","PRYOR","OK",74361,36.2325991820001,-95.404578897,136,"5030 S 427, PRYOR, OK, 74361","Match","Non_Exact","5030 S 427 RD, PRYOR, OK, 74361",610830840,"L"
683637,"5030 S 72ND STREET","LINCOLN","NE",68516,40.76316029,-96.622228793,137,"5030 S 72ND STREET, LINCOLN, NE, 68516","Match","Exact","5030 S 72ND ST, LINCOLN, NE, 68516",640632905,"R"
683638,"5030 SANTA ANA STREET APT 208","CUDAHY","CA",90201,33.960063495,-118.178120946,138,"5030 SANTA ANA STREET APT 208, CUDAHY, CA, 90201","Match","Exact","5030 SANTA ANA ST, CUDAHY, CA, 90201",142764281,"R"
683639,"5030 SAVAGE HILL RD","SUGAR GROVE","OH",43155,39.6480312030001,-82.535861731,139,"5030 SAVAGE HILL RD, SUGAR GROVE, OH, 43155","Match","Non_Exact","5030 SAVAGEHILL RD, SUGAR GROVE, OH, 43155",37241362,"R"
683640,"5030 SCHUYLER STREET","PHILADELPHIA","PA",19144,40.02042555,-75.172413274,140,"5030 SCHUYLER STREET, PHILADELPHIA, PA, 19144","Match","Exact","5030 SCHUYLER ST, PHILADELPHIA, PA, 19144",131401494,"L"
683641,"5030 SCUPPERNONG COURT","AUSTELL","GA",30106,33.825569181,-84.640837709,141,"5030 SCUPPERNONG COURT, AUSTELL, GA, 30106","Match","Exact","5030 SCUPPERNONG CT, AUSTELL, GA, 30106",627687459,"L"
683642,"5030 SHADOWRIDGE DRIVE","HOUSTON","TX",77053,29.584725415,-95.4633723379999,142,"5030 SHADOWRIDGE DRIVE, HOUSTON, TX, 77053","Match","Exact","5030 SHADOWRIDGE DR, HOUSTON, TX, 77053",78271797,"R"
683643,"5030 SHANNON ST","KINGSPORT","TN",37664,36.533670445,-82.452189394,143,"5030 SHANNON ST, KINGSPORT, TN, 37664","Match","Exact","5030 SHANNON ST, KINGSPORT, TN, 37664",127831921,"L"
683644,"5030 SHINING CREEK CT","KATY","TX",77494,29.7283409180001,-95.787140398,144,"5030 SHINING CREEK CT, KATY, TX, 77494","Match","Exact","5030 SHINING CREEK CT, KATY, TX, 77494",627540260,"L"
683645,"5030 THACKERAY DRIVE","FAYETTEVILLE","NC",28306,34.9951054960001,-78.9467723829999,145,"5030 THACKERAY DRIVE, FAYETTEVILLE, NC, 28306","Match","Exact","5030 THACKERAY DR, FAYETTEVILLE, NC, 28306",64247950,"L"
683646,"5030 TIBBITT LN","BURKE","VA",22015,38.813552019,-77.269207588,146,"5030 TIBBITT LN, BURKE, VA, 22015","Match","Exact","5030 TIBBITT LN, BURKE, VA, 22015",75970551,"L"
683647,"5030 UNION PIKE","RICHMOND","IN",47374,39.901146263,-84.907059872,147,"5030 UNION PIKE, RICHMOND, IN, 47374","Match","Exact","5030 UNION PIKE, RICHMOND, IN, 47374",31334206,"L"
683648,"5030 VAN NESS ST NW","WASHINGTON","DC",20016,38.943026247,-77.0997059219999,148,"5030 VAN NESS ST NW, WASHINGTON, DC, 20016","Match","Exact","5030 VAN NESS ST NW, WASHINGTON, DC, 20016",76219472,"L"
683649,"5030 W 179TH STREET","COUNTRY CLUB HILLS","IL",60478,41.5657104540001,-87.739512965,149,"5030 W 179TH STREET, COUNTRY CLUB HILLS, IL, 60478","Match","Exact","5030 179TH ST, COUNTRY CLUB HILLS, IL, 60478",641667379,"R"
683650,"5030 YORK BLVD","LOS ANGELES","CA",90042,34.1213359000001,-118.20616638,150,"5030 YORK BLVD, LOS ANGELES, CA, 90042","Match","Exact","5030 YORK BLVD, LOS ANGELES, CA, 90042",141613925,"R"
683651,"50300 HANFORD ROAD","CANTON","MI",48187,42.3278670760001,-83.536076877,151,"50300 HANFORD ROAD, CANTON, MI, 48187","Match","Exact","50300 HANFORD RD, CANTON, MI, 48187",642520147,"L"
683652,"50300 PLEASANT STREET","DOWAGIAC","MI",49047,42.0647146430001,-86.153775787,152,"50300 PLEASANT STREET, DOWAGIAC, MI, 49047","Match","Exact","50300 PLEASANT ST, DOWAGIAC, MI, 49047",22574579,"L"
683653,"50301 E 88TH AVE","BENNETT","CO",80102,39.8541783700001,-104.398871526,153,"50301 E 88TH AVE, BENNETT, CO, 80102","Match","Exact","50301 E 88TH AVE, BENNETT, CO, 80102",177270617,"R"
683654,"5031 5TH AVENUE","LAKE ARIEL","PA",18436,41.4290021520001,-75.497263457,154,"5031 5TH AVENUE, LAKE ARIEL, PA, 18436","Match","Exact","5031 5TH AVE, LAKE ARIEL, PA, 18436",139339063,"L"
683655,"5031 BIG BEND RD","SILVER CITY","NM",88061,32.831015515,-108.271877238,155,"5031 BIG BEND RD, SILVER CITY, NM, 88061","Match","Exact","5031 BIG BEND RD, SILVER CITY, NM, 88061",192655233,"L"
683656,"5031 BIRCH STREET SUITE C","NEWPORT BEACH","CA",92660,33.6665272270001,-117.859246628,156,"5031 BIRCH STREET SUITE C, NEWPORT BEACH, CA, 92660","Match","Exact","5031 BIRCH ST, NEWPORT BEACH, CA, 92660",144058316,"L"
683657,"5031 BIRCH STREET SUITE","NEWPORT BEACH","CA",92660,33.6665272270001,-117.859246628,157,"5031 BIRCH STREET SUITE, NEWPORT BEACH, CA, 92660","Match","Exact","5031 BIRCH ST, NEWPORT BEACH, CA, 92660",144058316,"L"
683658,"5031 CLOVERLY AVE","TEMPLE CITY","CA",91780,34.092159354,-118.061070374,158,"5031 CLOVERLY AVE, TEMPLE CITY, CA, 91780","Match","Exact","5031 CLOVERLY AVE, TEMPLE CITY, CA, 91780",141647939,"L"
683659,"5031 FAIR AVE 408","NORTH HOLLYWOOD","CA",91601,34.1618227870001,-118.374664388,159,"5031 FAIR AVE 408, NORTH HOLLYWOOD, CA, 91601","Match","Exact","5031 FAIR AVE, N HOLLYWOOD, CA, 91601",141591762,"L"
683660,"5031 FAIR AVENUE APT 453","N HOLLYWOOD","CA",91601,34.1618227870001,-118.374664388,160,"5031 FAIR AVENUE APT 453, N HOLLYWOOD, CA, 91601","Match","Exact","5031 FAIR AVE, N HOLLYWOOD, CA, 91601",141591762,"L"
683661,"5031 FILLMORE AVENUE","ALEXANDRIA","VA",22311,38.836838594,-77.113678923,161,"5031 FILLMORE AVENUE, ALEXANDRIA, VA, 22311","Match","Exact","5031 FILLMORE AVE, ALEXANDRIA, VA, 22311",638916142,"R"
683662,"5031 GAPPLED GROVE TRL","HUMBLE","TX",77346,NA,NA,162,"5031 GAPPLED GROVE TRL, HUMBLE, TX, 77346","No_Match",NA,NA,NA,NA
683663,"5031 GARDNER DR","ALPHARETTA","GA",30009,34.065585469,-84.285880403,163,"5031 GARDNER DR, ALPHARETTA, GA, 30009","Match","Exact","5031 GARDNER DR, ALPHARETTA, GA, 30009",17420020,"L"
683664,"5031 HACKERS CREEK ROAD","WESTON","WV",25267,39.0546429190001,-80.360506183,164,"5031 HACKERS CREEK ROAD, WESTON, WV, 25267","Match","Non_Exact","5031 HACKERS CREEK RD, WESTON, WV, 26452",246798596,"R"
683665,"5031 HERON COURT","COCONUT CREEK","FL",33073,26.310847858,-80.19305973,165,"5031 HERON COURT, COCONUT CREEK, FL, 33073","Match","Exact","5031 HERON CT, COCONUT CREEK, FL, 33073",114792942,"L"
683666,"5031 HOMER STREET","DALLAS","TX",75206,32.8158072520001,-96.784621558,166,"5031 HOMER STREET, DALLAS, TX, 75206","Match","Exact","5031 HOMER ST, DALLAS, TX, 75206",102910470,"L"
683667,"5031 IXWORTH PLACE","WESTMINSTER","CA",92683,33.757759402,-118.041912255,167,"5031 IXWORTH PLACE, WESTMINSTER, CA, 92683","Match","Exact","5031 IXWORTH PL, WESTMINSTER, CA, 92683",144003854,"L"
683668,"5031 KINGS TERRACE NORTH","BROOKLYN PARK","MN",55443,45.1133579830001,-93.3458326909999,168,"5031 KINGS TERRACE NORTH, BROOKLYN PARK, MN, 55443","Match","Non_Exact","5031 KINGS TER, BROOKLYN PARK, MN, 55443",43848962,"R"
683669,"5031 LA PREMIERE DRIVE","MAURICE","LA",70555,NA,NA,169,"5031 LA PREMIERE DRIVE, MAURICE, LA, 70555","No_Match",NA,NA,NA,NA
683670,"5031 LAKE FIELD DR","DOUGLASVILLE","GA",30135,33.7043764690001,-84.740501643,170,"5031 LAKE FIELD DR, DOUGLASVILLE, GA, 30135","Match","Exact","5031 LAKE FIELD DR, DOUGLASVILLE, GA, 30135",619853850,"R"
683671,"5031 LYMAN AVENUE","COVINA","CA",91724,34.103903159,-117.850155362,171,"5031 LYMAN AVENUE, COVINA, CA, 91724","Match","Exact","5031 LYMAN AVE, COVINA, CA, 91724",142787858,"L"
683672,"5031 MAPLE BROOK LN","KINGWOOD","TX",77345,30.074137997,-95.180878594,172,"5031 MAPLE BROOK LN, KINGWOOD, TX, 77345","Match","Exact","5031 MAPLE BROOK LN, KINGWOOD, TX, 77345",96134450,"R"
683673,"5031 MCINTYRE DR","BILLINGS","MT",59105,45.8994147130001,-108.358257881,173,"5031 MCINTYRE DR, BILLINGS, MT, 59105","Match","Exact","5031 MCINTYRE DR, BILLINGS, MT, 59105",181488883,"L"
683674,"5031 MILGEN COURT","COLUMBUS","GA",31907,32.518140401,-84.912533857,174,"5031 MILGEN COURT, COLUMBUS, GA, 31907","Match","Exact","5031 MILGEN CT, COLUMBUS, GA, 31907",98940129,"L"
683675,"5031 N 81ST STREET","SCOTTSDALE","AZ",85250,33.510058374,-111.905318825,175,"5031 N 81ST STREET, SCOTTSDALE, AZ, 85250","Match","Exact","5031 N 81ST ST, SCOTTSDALE, AZ, 85250",640590217,"L"
683676,"5031 N SAKER CIRCLE","WICHITA","KS",67219,37.774952087,-97.307328249,176,"5031 N SAKER CIRCLE, WICHITA, KS, 67219","Match","Exact","5031 SAKER CIR, WICHITA, KS, 67219",626264801,"L"
683677,"5031 NW 17TH STREET","LAUDERHILL","FL",33313,26.1465590820001,-80.216869687,177,"5031 NW 17TH STREET, LAUDERHILL, FL, 33313","Match","Exact","5031 NW 17TH ST, LAUDERHILL, FL, 33313",114708094,"R"
683678,"5031 OLCOTT AVENUE","EAST CHICAGO","IN",46312,41.622497971,-87.479380829,178,"5031 OLCOTT AVENUE, EAST CHICAGO, IN, 46312","Match","Exact","5031 OLCOTT AVE, EAST CHICAGO, IN, 46312",98419134,"L"
683679,"5031 OLD NATIONAL PIKE","FREDERICK","MD",21703,39.4232388620001,-77.493049997,179,"5031 OLD NATIONAL PIKE, FREDERICK, MD, 21703","Match","Non_Exact","5031 OLD NATIONAL PIKE, FREDERICK, MD, 21702",638001230,"L"
683680,"5031 PELLAND LN","CASTLE HAYNE","NC",28429,34.3472738150001,-77.9199758889999,180,"5031 PELLAND LN, CASTLE HAYNE, NC, 28429","Match","Exact","5031 PELLAND LN, CASTLE HAYNE, NC, 28429",650764035,"L"
683681,"5031 PIERRE STREET","RAPID CITY","SD",57702,44.0889736140001,-103.302673374,181,"5031 PIERRE STREET, RAPID CITY, SD, 57702","Match","Exact","5031 PIERRE ST, RAPID CITY, SD, 57702",205506104,"L"
683682,"5031 RED BANK ROAD","GALENA","OH",43021,40.1714311960001,-82.86010383,182,"5031 RED BANK ROAD, GALENA, OH, 43021","Match","Exact","5031 RED BANK RD, GALENA, OH, 43021",24609770,"L"
683683,"5031 RED CHERRY CT","COLUMBUS","OH",43230,40.060194778,-82.886729647,183,"5031 RED CHERRY CT, COLUMBUS, OH, 43230","Match","Exact","5031 RED CHERRY CT, COLUMBUS, OH, 43230",135589330,"R"
683684,"5031 ROY C STALLINGS JR ST","HOPE MILLS","NC",28348,34.967513512,-78.9476392399999,184,"5031 ROY C STALLINGS JR ST, HOPE MILLS, NC, 28348","Match","Exact","5031 ROY C STALLINGS JR ST, HOPE MILLS, NC, 28348",64260520,"L"
683685,"5031 S GRAY FOX","SPRINGFIELD","MO",65810,37.123083143,-93.320928446,185,"5031 S GRAY FOX, SPRINGFIELD, MO, 65810","Match","Non_Exact","5031 S GRAY FOX AVE, SPRINGFIELD, MO, 65810",76693795,"L"
683686,"5031 SE BRANDYWINE WAY","STUART","FL",34997,27.127881691,-80.187099202,186,"5031 SE BRANDYWINE WAY, STUART, FL, 34997","Match","Exact","5031 SE BRANDYWINE WAY, STUART, FL, 34997",120452353,"L"
683687,"5031 SUNRISE BEACH ROAD NW","OLYMPIA","WA",98502,47.0883385110001,-122.988904526,187,"5031 SUNRISE BEACH ROAD NW, OLYMPIA, WA, 98502","Match","Exact","5031 SUNRISE BEACH RD NW, OLYMPIA, WA, 98502",180980423,"R"
683688,"5031 SUTPHIN HILL DRIVE","DUBLIN","VA",24084,37.080938001,-80.58664852,188,"5031 SUTPHIN HILL DRIVE, DUBLIN, VA, 24084","Match","Non_Exact","5031 SUTPHIN HILL RD, DUBLIN, VA, 24084",47025549,"R"
683689,"5031 SW 146TH AVENUE","MIAMI","FL",33175,25.7182189920001,-80.4295679969999,189,"5031 SW 146TH AVENUE, MIAMI, FL, 33175","Match","Exact","5031 SW 146TH AVE, MIAMI, FL, 33175",115963753,"L"
683690,"5031 TIMBER RACE COURSE","HOLLYWOOD","SC",29449,NA,NA,190,"5031 TIMBER RACE COURSE, HOLLYWOOD, SC, 29449","Tie",NA,NA,NA,NA
683691,"5031 TONGEN AVE NW","ROCHESTER","MN",55901,44.0751245070001,-92.507982775,191,"5031 TONGEN AVE NW, ROCHESTER, MN, 55901","Match","Exact","5031 TONGEN AVE NW, ROCHESTER, MN, 55901",30561562,"L"
683692,"5031 VT ROUTE 11","LONDONDERRY","VT",5148,43.2101002680001,-72.7673210149999,192,"5031 VT ROUTE 11, LONDONDERRY, VT, 5148","Match","Non_Exact","5031 STATE RTE 11, LONDONDERRY, VT, 05148",650087259,"L"
683693,"5031 W 85TH ST","BURBANK","IL",60455,41.738070491,-87.7473184789999,193,"5031 W 85TH ST, BURBANK, IL, 60455","Match","Non_Exact","5031 85TH ST, BURBANK, IL, 60459",111816143,"L"
683694,"5031 W LEMOYNE","CHICAGO","IL",60651,41.9077304790001,-87.7521727119999,194,"5031 W LEMOYNE, CHICAGO, IL, 60651","Match","Non_Exact","5031 W LEMOYNE ST, CHICAGO, IL, 60651",605046250,"L"
683695,"5031 W OAKLAND PARK BLVD C304","LAUDERDALE LAKES","FL",33313,26.1648495690001,-80.216406564,195,"5031 W OAKLAND PARK BLVD C304, LAUDERDALE LAKES, FL, 33313","Match","Non_Exact","5031 W OAKLAND PARK BLVD, LAUDERDALE LAKES, FL, 33313",618154006,"L"
683696,"5031 WASHINGTON ST","GARY","IN",46408,41.5270618330001,-87.337334472,196,"5031 WASHINGTON ST, GARY, IN, 46408","Match","Exact","5031 WASHINGTON ST, GARY, IN, 46408",98433889,"L"
683697,"5031 WINDINGBROOK TRL","WESLEY CHAPEL","FL",33544,28.229290475,-82.366743721,197,"5031 WINDINGBROOK TRL, WESLEY CHAPEL, FL, 33544","Match","Exact","5031 WINDINGBROOK TRL, WESLEY CHAPEL, FL, 33544",86406400,"L"
683698,"5032 20TH STREET","ZEPHYRHILLS","FL",33541,28.230602629,-82.171571157,198,"5032 20TH STREET, ZEPHYRHILLS, FL, 33541","Match","Non_Exact","5032 20TH ST, ZEPHYRHILLS, FL, 33542",86355199,"R"
683699,"5032 AMBER VALLEY PARKWAY S 308","FARGO","ND",58104,NA,NA,199,"5032 AMBER VALLEY PARKWAY S 308, FARGO, ND, 58104","No_Match",NA,NA,NA,NA
683700,"5032 AUDLEY LN NW","NORCROSS","GA",30092,33.995972576,-84.220317944,200,"5032 AUDLEY LN NW, NORCROSS, GA, 30092","Match","Exact","5032 AUDLEY LN NW, NORCROSS, GA, 30092",88916031,"L"
683701,"5032 BAYVIEW CIRCLE","STOCKTON","CA",95219,37.9819987270001,-121.365411053,201,"5032 BAYVIEW CIRCLE, STOCKTON, CA, 95219","Match","Non_Exact","5032 BAY VIEW CIR, STOCKTON, CA, 95219",133887867,"L"
683702,"5032 BUTTS MILL ROAD","HEDGESVILLE","WV",25427,39.557019025,-78.0372683419999,202,"5032 BUTTS MILL ROAD, HEDGESVILLE, WV, 25427","Match","Exact","5032 BUTTS MILL RD, HEDGESVILLE, WV, 25427",607658922,"R"
683703,"5032 CAPITAL CIRCLE SW SUITE 2 113","TALLAHASSEE","FL",32305,30.3757238790001,-84.288688,203,"5032 CAPITAL CIRCLE SW SUITE 2 113, TALLAHASSEE, FL, 32305","Match","Exact","5032 CAPITAL CIR SW, TALLAHASSEE, FL, 32305",646456163,"R"
683704,"5032 CRYSTAL BREEZE LANE","NORTH LAS VEGAS","NV",89103,36.251428366,-115.203292746,204,"5032 CRYSTAL BREEZE LANE, NORTH LAS VEGAS, NV, 89103","Match","Non_Exact","5032 CRYSTAL BREEZE LN, N LAS VEGAS, NV, 89031",201908577,"R"
683705,"5032 E LOS COYOTES DIAGONAL APT 6","LONG BEACH","CA",90815,33.7953266860001,-118.135178481,205,"5032 E LOS COYOTES DIAGONAL APT 6, LONG BEACH, CA, 90815","Match","Non_Exact","5032 E LOS COYOTES DIAGONAL, LONG BEACH, CA, 90815",141700873,"R"
683706,"5032 EAST ELM","SAN DIEGO","CA",92102,NA,NA,206,"5032 EAST ELM, SAN DIEGO, CA, 92102","No_Match",NA,NA,NA,NA
683707,"5032 FARMSTONE CT","EVANS","GA",30809,33.524138899,-82.175519149,207,"5032 FARMSTONE CT, EVANS, GA, 30809","Match","Exact","5032 FARMSTONE CT, EVANS, GA, 30809",612443819,"R"
683708,"5032 FERNWOOD AVE","EGG HARBOR TOWNSHIP","NJ",8234,39.393210862,-74.6094028479999,208,"5032 FERNWOOD AVE, EGG HARBOR TOWNSHIP, NJ, 8234","Match","Exact","5032 FERNWOOD AVE, EGG HARBOR TOWNSHIP, NJ, 08234",202526157,"R"
683709,"5032 GELA DR","VIRGINIA BEACH","VA",23455,36.9073633990001,-76.148119591,209,"5032 GELA DR, VIRGINIA BEACH, VA, 23455","Match","Exact","5032 GELA DR, VIRGINIA BCH, VA, 23455",122259003,"R"
683710,"5032 HANKERSON AVENUE","EDINA","MN",55436,44.912652613,-93.3562775889999,210,"5032 HANKERSON AVENUE, EDINA, MN, 55436","Match","Exact","5032 HANKERSON AVE, EDINA, MN, 55436",43626275,"R"
683711,"5032 HANNA PLACE SE","WASHINGTON","DC",20019,38.879578822,-76.9312797009999,211,"5032 HANNA PLACE SE, WASHINGTON, DC, 20019","Match","Exact","5032 HANNA PL SE, WASHINGTON, DC, 20019",76233904,"L"
683712,"5032 HARRIETT DR","JACKSON","MI",49203,42.1996034430001,-84.420529688,212,"5032 HARRIETT DR, JACKSON, MI, 49203","Match","Exact","5032 HARRIETT DR, JACKSON, MI, 49203",17618203,"R"
683713,"5032 KNOX STREET","PHILADELPHIA","PA",19144,40.026902336,-75.1669780029999,213,"5032 KNOX STREET, PHILADELPHIA, PA, 19144","Match","Exact","5032 KNOX ST, PHILADELPHIA, PA, 19144",131401375,"L"
683714,"5032 LIDO ST","ORLANDO","FL",32807,28.5311533330001,-81.323832734,214,"5032 LIDO ST, ORLANDO, FL, 32807","Match","Exact","5032 LIDO ST, ORLANDO, FL, 32807",94331335,"R"
683715,"5032 LINCOLN OAKS DR NORTH","FORT WORTH","TX",76132,32.6702705530001,-97.400680988,215,"5032 LINCOLN OAKS DR NORTH, FORT WORTH, TX, 76132","Match","Exact","5032 LINCOLN OAKS DR N, FORT WORTH, TX, 76132",101950541,"R"
683716,"5032 LOWELL DR","KANSAS CITY","MO",64129,39.0338354620001,-94.5092222339999,216,"5032 LOWELL DR, KANSAS CITY, MO, 64129","Match","Exact","5032 LOWELL DR, KANSAS CITY, MO, 64129",91460146,"R"
683717,"5032 MILLENIA BLVD APT 208","ORLANDO","FL",32839,28.4777654270001,-81.442257578,217,"5032 MILLENIA BLVD APT 208, ORLANDO, FL, 32839","Match","Exact","5032 MILLENIA BLVD, ORLANDO, FL, 32839",650073212,"R"
683718,"5032 N WESTERN AVE","CHICAGO","IL",60625,41.9731831350001,-87.689062866,218,"5032 N WESTERN AVE, CHICAGO, IL, 60625","Match","Exact","5032 N WESTERN AVE, CHICAGO, IL, 60625",111760296,"L"
683719,"5032 NE 56TH PLACE","KANSAS CITY","MO",64119,39.1956118860001,-94.519727507,219,"5032 NE 56TH PLACE, KANSAS CITY, MO, 64119","Match","Exact","5032 NE 56TH PL, KANSAS CITY, MO, 64119",89758298,"L"
683720,"5032 NINE MILE CREEK PARKWAY","BLOOMINGTON","MN",55437,44.846259262,-93.344639543,220,"5032 NINE MILE CREEK PARKWAY, BLOOMINGTON, MN, 55437","Match","Exact","5032 NINE MILE CREEK PKWY, BLOOMINGTON, MN, 55437",43811904,"R"
683721,"5032 NW 3RD TERRACE","BOCA RATON","FL",33431,26.392851061,-80.087706968,221,"5032 NW 3RD TERRACE, BOCA RATON, FL, 33431","Match","Exact","5032 NW 3RD TER, BOCA RATON, FL, 33431",115293241,"L"
683722,"5032 OOLTEWAH RINGGOLD RD STE 120","OOLTEWAH","TN",37363,35.0607071160001,-85.066544119,222,"5032 OOLTEWAH RINGGOLD RD STE 120, OOLTEWAH, TN, 37363","Match","Exact","5032 OOLTEWAH RINGGOLD RD, OOLTEWAH, TN, 37363",639701804,"L"
683723,"5032 PERIDIA BLVD","BRADENTON","FL",34203,27.4522659240001,-82.5106506449999,223,"5032 PERIDIA BLVD, BRADENTON, FL, 34203","Match","Non_Exact","5032 PERIDIA BLVD E, BRADENTON, FL, 34203",16255791,"L"
683724,"5032 RAPID RUN ROAD","CINCINNATI","OH",45238,39.1109368240001,-84.605736018,224,"5032 RAPID RUN ROAD, CINCINNATI, OH, 45238","Match","Exact","5032 RAPID RUN RD, CINCINNATI, OH, 45238",103947209,"R"
683725,"5032 RICHMOND DR","EDINA","MN",55436,44.9051453600001,-93.351573275,225,"5032 RICHMOND DR, EDINA, MN, 55436","Match","Exact","5032 RICHMOND DR, EDINA, MN, 55436",43833999,"R"
683726,"5032 ROBINWOOD ROAD","DURHAM","NC",27713,35.9315047580001,-78.905210901,226,"5032 ROBINWOOD ROAD, DURHAM, NC, 27713","Match","Exact","5032 ROBINWOOD RD, DURHAM, NC, 27713",71744007,"L"
683727,"5032 S BUR OAK PLACE SUITE 220","SIOUX FALLS","SD",57108,43.499474741,-96.76289185,227,"5032 S BUR OAK PLACE SUITE 220, SIOUX FALLS, SD, 57108","Match","Non_Exact","5032 S BUR OAK PL, SIOUX FALLS, SD, 57108",618474275,"L"
683728,"5032 SMITHFIELD CIRCLE","NORTHPORT","AL",35473,33.253893819,-87.60717033,228,"5032 SMITHFIELD CIRCLE, NORTHPORT, AL, 35473","Match","Exact","5032 SMITHFIELD CIR, NORTHPORT, AL, 35473",650878218,"L"
683729,"5032 SOUTH BENTON AVENUE","KANSAS CITY","MO",64130,39.0347947870001,-94.551219492,229,"5032 SOUTH BENTON AVENUE, KANSAS CITY, MO, 64130","Match","Non_Exact","5032 S BENTON ST, KANSAS CITY, MO, 64130",91452632,"R"
683730,"5032 SUNSET FAIRWAYS DR","HOLLY SPRINGS","NC",27540,35.6609995370001,-78.799014028,230,"5032 SUNSET FAIRWAYS DR, HOLLY SPRINGS, NC, 27540","Match","Exact","5032 SUNSET FAIRWAYS DR, HOLLY SPRINGS, NC, 27540",72599076,"L"
683731,"5032 SW 131ST AVE","MIRAMAR","FL",33027,25.9618227510001,-80.320479682,231,"5032 SW 131ST AVE, MIRAMAR, FL, 33027","Match","Exact","5032 SW 131ST AVE, MIRAMAR, FL, 33027",624839365,"R"
683732,"5032 SW VIEW POINT TERRACE","PORTLAND","OR",97239,45.4868924800001,-122.67775951,232,"5032 SW VIEW POINT TERRACE, PORTLAND, OR, 97239","Match","Exact","5032 SW VIEW POINT TER, PORTLAND, OR, 97239",157501573,"L"
683733,"5032 SYLVAN OAKS DRIVE","VALRICO","FL",33596,27.8924975150001,-82.212155971,233,"5032 SYLVAN OAKS DRIVE, VALRICO, FL, 33596","Match","Exact","5032 SYLVAN OAKS DR, VALRICO, FL, 33596",104580736,"L"
683734,"5032 TAMMI LN","HUEYTOWN","AL",35023,33.4365942630001,-86.989766242,234,"5032 TAMMI LN, HUEYTOWN, AL, 35023","Match","Non_Exact","5032 TAMMY LN, HUEYTOWN, AL, 35023",640180933,"L"
683735,"5032 W ADAMS ST","CHICAGO","IL",60644,41.878533013,-87.750739183,235,"5032 W ADAMS ST, CHICAGO, IL, 60644","Match","Exact","5032 W ADAMS ST, CHICAGO, IL, 60644",605078077,"R"
683736,"5032 W DIVISION STREET","CHICAGO","IL",60651,41.902294496,-87.7522266299999,236,"5032 W DIVISION STREET, CHICAGO, IL, 60651","Match","Exact","5032 W DIVISION ST, CHICAGO, IL, 60651",111758033,"R"
683737,"5032 W FITCH AVE","SKOKIE","IL",60077,42.010931054,-87.753685048,237,"5032 W FITCH AVE, SKOKIE, IL, 60077","Match","Exact","5032 FITCH AVE, SKOKIE, IL, 60077",111740744,"R"
683738,"5032 W HUNTER AVE","FRESNO","CA",93722,36.778451562,-119.881550043,238,"5032 W HUNTER AVE, FRESNO, CA, 93722","Match","Exact","5032 W HUNTER AVE, FRESNO, CA, 93722",619123695,"R"
683739,"5032 WADE STREET","PHILADELPHIA","PA",19144,40.0286364310001,-75.1661464329999,239,"5032 WADE STREET, PHILADELPHIA, PA, 19144","Match","Exact","5032 WADE ST, PHILADELPHIA, PA, 19144",131401450,"L"
683740,"5032 WEST 56TH STRET","EDINA","MN",55436,44.90243708,-93.351755232,240,"5032 WEST 56TH STRET, EDINA, MN, 55436","Match","Non_Exact","5032 W 56TH ST, EDINA, MN, 55436",43833897,"R"
683741,"5032 WILLOW POINT ROAD","BEL AIRE","KS",67220,37.7623776510001,-97.2778235709999,241,"5032 WILLOW POINT ROAD, BEL AIRE, KS, 67220","Match","Exact","5032 WILLOW POINT RD, BEL AIRE, KS, 67220",115698038,"L"
683742,"5032 WOODMINSTER LANE","OAKLAND","CA",94602,37.8115359990001,-122.197336822,242,"5032 WOODMINSTER LANE, OAKLAND, CA, 94602","Match","Exact","5032 WOODMINSTER LN, OAKLAND, CA, 94602",125003825,"R"
683743,"5032 ZOE ANNE WAY","LA CRESCENTA","CA",91214,34.246680064,-118.260573831,243,"5032 ZOE ANNE WAY, LA CRESCENTA, CA, 91214","Match","Exact","5032 ZOE ANNE WAY, LA CRESCENTA, CA, 91214",141588859,"R"
683744,"50320 HANFORD","CANTON","MI",48187,42.3278617870001,-83.5362366099999,244,"50320 HANFORD, CANTON, MI, 48187","Match","Non_Exact","50320 HANFORD RD, CANTON, MI, 48187",642520147,"L"
683745,"50323 320TH ST","BLOOMING PRAIRIE","MN",55917,43.8189843710001,-93.041893881,245,"50323 320TH ST, BLOOMING PRAIRIE, MN, 55917","Match","Exact","50323 320TH ST, BLOOMING PRAIRIE, MN, 55917",637172414,"R"
683746,"50329 262ND ST","AUSTIN","MN",55912,43.7318709410001,-93.041768304,246,"50329 262ND ST, AUSTIN, MN, 55912","Match","Exact","50329 262ND ST, AUSTIN, MN, 55912",27630124,"R"
683747,"5033 1/2 NORTH PINE ST","SEFFNER","FL",33584,27.9838450670001,-82.294139017,247,"5033 1/2 NORTH PINE ST, SEFFNER, FL, 33584","Match","Non_Exact","5033 PINE ST, SEFFNER, FL, 33584",636366872,"L"
683748,"5033 170TH ST","SIBLEY","IA",51249,43.403858907,-95.794000967,248,"5033 170TH ST, SIBLEY, IA, 51249","Match","Exact","5033 170TH ST, SIBLEY, IA, 51249",30292481,"R"
683749,"5033 63RD ST","SAN DIEGO","CA",92115,32.769292552,-117.064706573,249,"5033 63RD ST, SAN DIEGO, CA, 92115","Match","Exact","5033 63RD ST, SAN DIEGO, CA, 92115",195323586,"R"
683750,"5033 7TH RD S APT T1","ARLINGTON","VA",22204,38.8596881610001,-77.1164346429999,250,"5033 7TH RD S APT T1, ARLINGTON, VA, 22204","Match","Exact","5033 7TH RD S, ARLINGTON, VA, 22204",76477556,"R"
683751,"5033 AVE 120","CORCORAN","CA",93212,36.007433759,-119.460505011,251,"5033 AVE 120, CORCORAN, CA, 93212","Match","Exact","5033 AVE 120, CORCORAN, CA, 93212",202812238,"R"
683752,"5033 BAXMAN ROAD","BAY CITY","MI",48706,43.593313779,-83.9427427099999,252,"5033 BAXMAN ROAD, BAY CITY, MI, 48706","Match","Exact","5033 BAXMAN RD, BAY CITY, MI, 48706",81138906,"L"
683753,"5033 BROOK LANE","MOHNTON","PA",19540,40.2379726770001,-75.9945756239999,253,"5033 BROOK LANE, MOHNTON, PA, 19540","Match","Exact","5033 BROOK LN, MOHNTON, PA, 19540",635821791,"R"
683754,"5033 BROOKLYN AVE NE  APT A","SEATTLE","WA",98105,47.665237442,-122.314211337,254,"5033 BROOKLYN AVE NE  APT A, SEATTLE, WA, 98105","Match","Exact","5033 BROOKLYN AVE NE, SEATTLE, WA, 98105",186586891,"L"
683755,"5033 CAMPUS HILL DRIVE","OKEMOS","MI",48864,42.7264300030001,-84.439912061,255,"5033 CAMPUS HILL DRIVE, OKEMOS, MI, 48864","Match","Exact","5033 CAMPUS HILL DR, OKEMOS, MI, 48864",635263888,"L"
683756,"5033 CHAMBERS CREEK LP SE","OLYMPIA","WA",98501,47.0025897470001,-122.854682691,256,"5033 CHAMBERS CREEK LP SE, OLYMPIA, WA, 98501","Match","Exact","5033 CHAMBERS CREEK LOOP SE, OLYMPIA, WA, 98501",649697240,"L"
683757,"5033 COUNTY ROAD 335 NUMBER 295","NEW CASTLE","CO",81647,39.557439937,-107.550386244,257,"5033 COUNTY ROAD 335 NUMBER 295, NEW CASTLE, CO, 81647","Match","Exact","5033 CO RD 335, NEW CASTLE, CO, 81647",105786934,"R"
683758,"5033 COUNTY ROAD 335 NUMBER 295","NEW CASTLE","CO",82647,39.557439937,-107.550386244,258,"5033 COUNTY ROAD 335 NUMBER 295, NEW CASTLE, CO, 82647","Match","Non_Exact","5033 CO RD 335, NEW CASTLE, CO, 81647",105786934,"R"
683759,"5033 COUNTY ROAD 427 B","STOCKDALE","TX",78160,29.3136850130001,-97.967486347,259,"5033 COUNTY ROAD 427 B, STOCKDALE, TX, 78160","Match","Exact","5033 CO RD 427, STOCKDALE, TX, 78160",54873575,"L"
683760,"5033 CR 8800","WEST PLAINS","MO",65775,36.6772875570001,-91.887264133,260,"5033 CR 8800, WEST PLAINS, MO, 65775","Match","Exact","5033 CO RD 8800, WEST PLAINS, MO, 65775",33331199,"R"
683761,"5033 DEVONSHIRE RD","RICHMOND","VA",23225,37.523038754,-77.489879731,261,"5033 DEVONSHIRE RD, RICHMOND, VA, 23225","Match","Exact","5033 DEVONSHIRE RD, RICHMOND, VA, 23225",201537232,"R"
683762,"5033 FORREST POINTE DRIVE","MURFREESBORO","TN",37130,NA,NA,262,"5033 FORREST POINTE DRIVE, MURFREESBORO, TN, 37130","No_Match",NA,NA,NA,NA
683763,"5033 GALAXY WAY 413","HUNTSVILLE","AL",35816,34.7427443060001,-86.652402878,263,"5033 GALAXY WAY 413, HUNTSVILLE, AL, 35816","Match","Non_Exact","5033 GALAXY WAY NW, HUNTSVILLE, AL, 35816",653866490,"L"
683764,"5033 GREENHOUSE TER","CENTERVILLE","VA",20120,NA,NA,264,"5033 GREENHOUSE TER, CENTERVILLE, VA, 20120","No_Match",NA,NA,NA,NA
683765,"5033 HIGHLAND MEADOW DRIVE","FORT WORTH","TX",76132,32.673914847,-97.4249668799999,265,"5033 HIGHLAND MEADOW DRIVE, FORT WORTH, TX, 76132","Match","Exact","5033 HIGHLAND MEADOW DR, FORT WORTH, TX, 76132",101950511,"L"
683766,"5033 KING RICHARD DRIVE","ANNONDALE","VA",22033,38.8143170380001,-77.2389850179999,266,"5033 KING RICHARD DRIVE, ANNONDALE, VA, 22033","Match","Non_Exact","5033 KING RICHARD DR, ANNANDALE, VA, 22003",76020849,"L"
683767,"5033 KRICK STREET","NORFOLK","VA",23513,36.8775539490001,-76.229933762,267,"5033 KRICK STREET, NORFOLK, VA, 23513","Match","Exact","5033 KRICK ST, NORFOLK, VA, 23513",647859984,"R"
683768,"5033 LINTON HALL ROAD","FAYETTEVILLE","NC",28311,35.130621197,-78.8928571929999,268,"5033 LINTON HALL ROAD, FAYETTEVILLE, NC, 28311","Match","Exact","5033 LINTON HALL RD, FAYETTEVILLE, NC, 28311",64229762,"R"
683769,"5033 LION GATEWAY","SACRAMENTO","CA",95823,NA,NA,269,"5033 LION GATEWAY, SACRAMENTO, CA, 95823","No_Match",NA,NA,NA,NA
683770,"5033 LYTLE STREET","PITTSBURGH","PA",15202,40.4071086870001,-79.9454610069999,270,"5033 LYTLE STREET, PITTSBURGH, PA, 15202","Match","Non_Exact","5033 LYTLE ST, PITTSBURGH, PA, 15207",51650573,"L"
683771,"5033 MYRTLE DRIVE","SEBRING","FL",33872,NA,NA,271,"5033 MYRTLE DRIVE, SEBRING, FL, 33872","No_Match",NA,NA,NA,NA
683772,"5033 NE56TH TER","KANSAS CITY","MO",64119,NA,NA,272,"5033 NE56TH TER, KANSAS CITY, MO, 64119","No_Match",NA,NA,NA,NA
683773,"5033 NW 6TH COURT","DELRAY BEACH","FL",33445,26.4724136200001,-80.119479348,273,"5033 NW 6TH COURT, DELRAY BEACH, FL, 33445","Match","Exact","5033 NW 6TH CT, DELRAY BEACH, FL, 33445",115523320,"L"
683774,"5033 PENNINGTON LN","PACE","FL",32571,30.6098365990001,-87.1133724699999,274,"5033 PENNINGTON LN, PACE, FL, 32571","Match","Exact","5033 PENNINGTON LN, PACE, FL, 32571",74598366,"L"
683775,"5033 PRAIRIE SAGE LANE","NAPERVILLE","IL",60564,41.680086547,-88.198363947,275,"5033 PRAIRIE SAGE LANE, NAPERVILLE, IL, 60564","Match","Exact","5033 PRAIRIE SAGE LN, NAPERVILLE, IL, 60564",111585437,"L"
683776,"5033 RIDGE VISTA WAY","N LAS VEGAS","NV",89031,36.2515002230001,-115.188617085,276,"5033 RIDGE VISTA WAY, N LAS VEGAS, NV, 89031","Match","Exact","5033 RIDGE VISTA WAY, N LAS VEGAS, NV, 89031",201968186,"L"
683777,"5033 S 101ST STREET","GREENFIELD","WI",53228,42.953533629,-88.039123132,277,"5033 S 101ST STREET, GREENFIELD, WI, 53228","Match","Exact","5033 S 101ST ST, GREENFIELD, WI, 53228",77746675,"R"
683778,"5033 S VISION QUEST COURT","GOLD CANYON","AZ",85118,NA,NA,278,"5033 S VISION QUEST COURT, GOLD CANYON, AZ, 85118","Tie",NA,NA,NA,NA
683779,"5033 SEA TURTLE CT","NEW PORT RICHEY","FL",34652,NA,NA,279,"5033 SEA TURTLE CT, NEW PORT RICHEY, FL, 34652","No_Match",NA,NA,NA,NA
683780,"5033 SILVERFEATHER WAY","BROOMFIELD","CO",80023,39.966478022,-105.050733522,280,"5033 SILVERFEATHER WAY, BROOMFIELD, CO, 80023","Match","Non_Exact","5033 SILVER FEATHER WAY, BROOMFIELD, CO, 80023",645116048,"R"
683781,"5033 SOUTHSIDE RANCH RD","ROCKLIN","CA",95677,38.780956486,-121.209985225,281,"5033 SOUTHSIDE RANCH RD, ROCKLIN, CA, 95677","Match","Exact","5033 SOUTHSIDE RANCH RD, ROCKLIN, CA, 95677",608085803,"R"
683782,"5033 STATE AVE","KANSAS CITY","KS",66102,39.116596757,-94.694961499,282,"5033 STATE AVE, KANSAS CITY, KS, 66102","Match","Exact","5033 STATE AVE, KANSAS CITY, KS, 66102",91159831,"L"
683783,"5033 TANGLE LANE","HOUSTON","TX",77027,29.7569916480001,-95.464094178,283,"5033 TANGLE LANE, HOUSTON, TX, 77027","Match","Non_Exact","5033 TANGLE LN, HOUSTON, TX, 77056",96032528,"L"
683784,"5033 WALNUT AVE","LONG BEACH","CA",90807,33.84811713,-118.171921005,284,"5033 WALNUT AVE, LONG BEACH, CA, 90807","Match","Exact","5033 WALNUT AVE, LONG BEACH, CA, 90807",141684783,"L"
683785,"5033-1 GREEN MOUNTAIN CIRCLE","COLUMBIA","MD",21044,39.218694305,-76.868303773,285,"5033-1 GREEN MOUNTAIN CIRCLE, COLUMBIA, MD, 21044","Match","Exact","5033 GREEN MOUNTAIN CIR, COLUMBIA, MD, 21044",158925298,"L"
683786,"50338 WILLIS STREET","PAW PAW","MI",49079,42.235675235,-85.851716755,286,"50338 WILLIS STREET, PAW PAW, MI, 49079","Match","Exact","50338 WILLIS ST, PAW PAW, MI, 49079",624854158,"R"
683787,"5034 38TH AVE APARTMENT 5","HYATTSVILLE","MD",20782,38.951742827,-76.9553654869999,287,"5034 38TH AVE APARTMENT 5, HYATTSVILLE, MD, 20782","Match","Exact","5034 38TH AVE, HYATTSVILLE, MD, 20782",76391081,"L"
683788,"5034 A STATE ROUTE 133","BATAVIA","OH",45103,39.120460092,-84.058695383,288,"5034 A STATE ROUTE 133, BATAVIA, OH, 45103","Match","Exact","5034 STATE RTE 133, BATAVIA, OH, 45103",652706894,"R"
683789,"5034 ALTA CANYADA ROAD","LA CANADA","CA",91011,34.218823527,-118.21041464,289,"5034 ALTA CANYADA ROAD, LA CANADA, CA, 91011","Match","Exact","5034 ALTA CANYADA RD, LA CANADA, CA, 91011",141590626,"R"
683790,"5034 BARRINGTON CIRCLE","SARASOTA","FL",34234,27.377806455,-82.551802412,290,"5034 BARRINGTON CIRCLE, SARASOTA, FL, 34234","Match","Exact","5034 BARRINGTON CIR, SARASOTA, FL, 34234",16428258,"R"
683791,"5034 BELL STREET","PORT TOWNSEND","WA",98368,48.1358082420001,-122.802947242,291,"5034 BELL STREET, PORT TOWNSEND, WA, 98368","Match","Exact","5034 BELL ST, PORT TOWNSEND, WA, 98368",636632996,"L"
683792,"5034 CARPINTERIA AVE","CARPINTERIA","CA",93013,34.3987227110001,-119.518025706,292,"5034 CARPINTERIA AVE, CARPINTERIA, CA, 93013","Match","Exact","5034 CARPINTERIA AVE, CARPINTERIA, CA, 93013",108608213,"L"
683793,"5034 CARPINTERIA","CARPINTERIA","CA",93013,34.3987227110001,-119.518025706,293,"5034 CARPINTERIA, CARPINTERIA, CA, 93013","Match","Non_Exact","5034 CARPINTERIA AVE, CARPINTERIA, CA, 93013",108608213,"L"
683794,"5034 CODY TRAIL","HILLSBORO","MO",63050,38.2607680780001,-90.5495985589999,294,"5034 CODY TRAIL, HILLSBORO, MO, 63050","Match","Exact","5034 CODY TRL, HILLSBORO, MO, 63050",62801448,"L"
683795,"5034 DUXFORD DRIVE","SMYRNA","GA",30082,33.829821211,-84.5058449159999,295,"5034 DUXFORD DRIVE, SMYRNA, GA, 30082","Match","Exact","5034 DUXFORD DR, SMYRNA, GA, 30082",614177262,"R"
683796,"5034 EAGLE COURT","DAVENPORT","IA",52807,41.5716096940001,-90.5106914849999,296,"5034 EAGLE COURT, DAVENPORT, IA, 52807","Match","Exact","5034 EAGLE CT, DAVENPORT, IA, 52807",122718442,"R"
683797,"5034 EAGLES NES CT","LOGANVILLE","GA",30052,NA,NA,297,"5034 EAGLES NES CT, LOGANVILLE, GA, 30052","No_Match",NA,NA,NA,NA
683798,"5034 EAST SILVER LAKE ROAD","LAONA","WI",54541,45.5553581070001,-88.694275118,298,"5034 EAST SILVER LAKE ROAD, LAONA, WI, 54541","Match","Exact","5034 E SILVER LAKE RD, LAONA, WI, 54541",170285686,"R"
683799,"5034 ELVIS PRESLEY BLVD","MEMPHIS","TN",38116,35.0112927110001,-90.025236427,299,"5034 ELVIS PRESLEY BLVD, MEMPHIS, TN, 38116","Match","Exact","5034 ELVIS PRESLEY BLVD, MEMPHIS, TN, 38116",72922576,"L"
683800,"5034 GLENVIEW CT","CHARLOTTE","NC",28215,35.243258541,-80.7679628929999,300,"5034 GLENVIEW CT, CHARLOTTE, NC, 28215","Match","Exact","5034 GLENVIEW CT, CHARLOTTE, NC, 28215",70481851,"L"
683801,"5034 HAMILTON DRIVE","ALIQUIPPA","PA",15001,40.5640136590001,-80.277844966,301,"5034 HAMILTON DRIVE, ALIQUIPPA, PA, 15001","Match","Exact","5034 HAMILTON DR, ALIQUIPPA, PA, 15001",52582099,"R"
683802,"5034 HARRIS WOODS TRACE","FULSHEAR","TX",77441,29.672854934,-95.927435198,302,"5034 HARRIS WOODS TRACE, FULSHEAR, TX, 77441","Match","Exact","5034 HARRIS WOODS TRCE, FULSHEAR, TX, 77441",633670946,"L"
683803,"5034 HOLLY RD","CORPUS CHRISTI","TX",78411,27.7031980310001,-97.385783332,303,"5034 HOLLY RD, CORPUS CHRISTI, TX, 78411","Match","Exact","5034 HOLLY RD, CORPUS CHRISTI, TX, 78411",636342776,"L"
683804,"5034 KENDALIA CLOUD DRIVE","FULSHEAR","TX",77441,29.7140880760001,-95.858455443,304,"5034 KENDALIA CLOUD DRIVE, FULSHEAR, TX, 77441","Match","Non_Exact","5034 KENDALIA CLOUD LN, FULSHEAR, TX, 77441",649811751,"L"
683805,"5034 KENINGSTON","DETROIT","MI",48224,NA,NA,305,"5034 KENINGSTON, DETROIT, MI, 48224","No_Match",NA,NA,NA,NA
683806,"5034 LAFAYETTE ROAD","INDIANAPOLIS","IN",46254,39.8438304920001,-86.254279466,306,"5034 LAFAYETTE ROAD, INDIANAPOLIS, IN, 46254","Match","Exact","5034 LAFAYETTE RD, INDIANAPOLIS, IN, 46254",107976028,"L"
683807,"5034 LAYFEYETTE RD","INDIANAPOLIS","IN",46254,NA,NA,307,"5034 LAYFEYETTE RD, INDIANAPOLIS, IN, 46254","No_Match",NA,NA,NA,NA
683808,"5034 LONGVIEW RD APT 6","KANSAS CITY","MO",64137,38.916610329,-94.532359646,308,"5034 LONGVIEW RD APT 6, KANSAS CITY, MO, 64137","Match","Exact","5034 LONGVIEW RD, KANSAS CITY, MO, 64137",91506724,"L"
683809,"5034 N NEWCASTLE","CHICAGO","IL",60656,41.9726341320001,-87.797631984,309,"5034 N NEWCASTLE, CHICAGO, IL, 60656","Match","Non_Exact","5034 N NEWCASTLE AVE, CHICAGO, IL, 60656",111749854,"L"
683810,"5034 NE 49TH AVENUE","PORTLAND","OR",97218,45.5594423470001,-122.612009446,310,"5034 NE 49TH AVENUE, PORTLAND, OR, 97218","Match","Exact","5034 NE 49TH AVE, PORTLAND, OR, 97218",157511229,"R"
683811,"5034 NEWTON AVE S","MINNEAPOLIS","MN",55419,44.9116855770001,-93.30613783,311,"5034 NEWTON AVE S, MINNEAPOLIS, MN, 55419","Match","Exact","5034 NEWTON AVE S, MINNEAPOLIS, MN, 55419",43628863,"R"
683812,"5034 NORTH RICHMOND STEET","APPLETON","WI",54913,44.315042727,-88.4148344499999,312,"5034 NORTH RICHMOND STEET, APPLETON, WI, 54913","Match","Exact","5034 N RICHMOND ST, APPLETON, WI, 54913",74897821,"R"
683813,"5034 NORTH RICHMOND STREET","APPLETON","WI",54913,44.315042727,-88.4148344499999,313,"5034 NORTH RICHMOND STREET, APPLETON, WI, 54913","Match","Exact","5034 N RICHMOND ST, APPLETON, WI, 54913",74897821,"R"
683814,"5034 ODINS WAY","MARIETTA","GA",30068,33.989112059,-84.404583751,314,"5034 ODINS WAY, MARIETTA, GA, 30068","Match","Exact","5034 ODINS WAY, MARIETTA, GA, 30068",17183889,"R"
683815,"5034 PARK LANE","HARTFORD","WI",53027,43.37357875,-88.275460235,315,"5034 PARK LANE, HARTFORD, WI, 53027","Match","Exact","5034 PARK LN, HARTFORD, WI, 53027",79556792,"R"
683816,"5034 QUADRANGLE COURT","WESLEY CHAPEL","FL",33544,28.229926844,-82.395762982,316,"5034 QUADRANGLE COURT, WESLEY CHAPEL, FL, 33544","Match","Exact","5034 QUADRANGLE CT, WESLEY CHAPEL, FL, 33544",634073000,"L"
683817,"5034 RIMROCK PASS","MONTGOMERY","TX",77316,30.36125888,-95.67463836,317,"5034 RIMROCK PASS, MONTGOMERY, TX, 77316","Match","Exact","5034 RIMROCK PASS, MONTGOMERY, TX, 77316",653238825,"R"
683818,"5034 ROCKHAVEN DRIVE","CLARENCE","NY",14031,42.984621964,-78.628462557,318,"5034 ROCKHAVEN DRIVE, CLARENCE, NY, 14031","Match","Exact","5034 ROCKHAVEN DR, CLARENCE, NY, 14031",613750359,"L"
683819,"5034 ROSALIND LANE","POWELL","OH",43065,40.1700637690001,-83.116992621,319,"5034 ROSALIND LANE, POWELL, OH, 43065","Match","Exact","5034 ROSALIND LN, POWELL, OH, 43065",213001839,"R"
683820,"5034 S CHALET CT","BATON ROUGE","LA",70808,30.4000027710001,-91.162163403,320,"5034 S CHALET CT, BATON ROUGE, LA, 70808","Match","Exact","5034 S CHALET CT, BATON ROUGE, LA, 70808",92207470,"R"
683821,"5034 S SHAWNEE ST","AURORA","CA",80015,NA,NA,321,"5034 S SHAWNEE ST, AURORA, CA, 80015","No_Match",NA,NA,NA,NA
683822,"5034 S SHAWNEE ST","AURORA","CO",80015,39.624938904,-104.729068749,322,"5034 S SHAWNEE ST, AURORA, CO, 80015","Match","Exact","5034 S SHAWNEE ST, AURORA, CO, 80015",617960323,"L"
683823,"5034 SARGENT ROAD NE","WASHINGTON","DC",20017,38.951581306,-76.9895339139999,323,"5034 SARGENT ROAD NE, WASHINGTON, DC, 20017","Match","Exact","5034 SARGENT RD NE, WASHINGTON, DC, 20017",76228240,"L"
683824,"5034 SISKIYOU LOOP SE","OLYMPIA","WA",98501,47.0029774660001,-122.861246925,324,"5034 SISKIYOU LOOP SE, OLYMPIA, WA, 98501","Match","Exact","5034 SISKIYOU LOOP SE, OLYMPIA, WA, 98501",180975442,"L"
683825,"5034 SOLAR POINT DR","GREENCACRESS","FL",33463,26.598972804,-80.125077796,325,"5034 SOLAR POINT DR, GREENCACRESS, FL, 33463","Match","Non_Exact","5034 SOLAR POINT DR, GREENACRES, FL, 33463",115531866,"R"
683826,"5034 SOUTH M ST","TACOMA","WA",98408,47.2113797050001,-122.451086497,326,"5034 SOUTH M ST, TACOMA, WA, 98408","Match","Exact","5034 S M ST, TACOMA, WA, 98408",184625277,"R"
683827,"5034 TORREY HILLS LANE","LUTZ","FL",33558,28.134288036,-82.520965731,327,"5034 TORREY HILLS LANE, LUTZ, FL, 33558","Match","Exact","5034 TORREY HILLS LN, LUTZ, FL, 33558",104501305,"R"
683828,"5034 W MEDFORD","MILWAUKEE","WI",53216,43.0883468660001,-87.976147781,328,"5034 W MEDFORD, MILWAUKEE, WI, 53216","Match","Non_Exact","5034 W MEDFORD AVE, MILWAUKEE, WI, 53216",77731395,"R"
683829,"5034 WISCONSIN AVE NW SUITE 200","WASHINGTON","DC",20016,38.95516681,-77.082871632,329,"5034 WISCONSIN AVE NW SUITE 200, WASHINGTON, DC, 20016","Match","Exact","5034 WISCONSIN AVE NW, WASHINGTON, DC, 20016",76219683,"L"
683830,"5035 41ST STREET","SUNNYSIDE","NY",11104,NA,NA,330,"5035 41ST STREET, SUNNYSIDE, NY, 11104","No_Match",NA,NA,NA,NA
683831,"5035 ALEGRIA","LOS ALAMOS","NM",87544,35.8908806200001,-106.330427244,331,"5035 ALEGRIA, LOS ALAMOS, NM, 87544","Match","Exact","5035 ALEGRIA, LOS ALAMOS, NM, 87544",625210826,"R"
683832,"5035 ARLINGTON AVENUE","BRONX","NY",10471,40.8974849250001,-73.9095347479999,332,"5035 ARLINGTON AVENUE, BRONX, NY, 10471","Match","Exact","5035 ARLINGTON AVE, BRONX, NY, 10471",80295856,"L"
683833,"5035 ATTLEBORO ST","JACKSONVILLE","FL",32205,30.307623956,-81.7315393279999,333,"5035 ATTLEBORO ST, JACKSONVILLE, FL, 32205","Match","Exact","5035 ATTLEBORO ST, JACKSONVILLE, FL, 32205",83910909,"R"
683834,"5035 BELAND DR","LAKE WORTH","FL",33467,26.6046919660001,-80.181840784,334,"5035 BELAND DR, LAKE WORTH, FL, 33467","Match","Exact","5035 BELAND DR, LAKE WORTH, FL, 33467",649884978,"R"
683835,"5035 CATO STREET","MAPLE HEIGHTS","OH",44137,41.4230707300001,-81.555301119,335,"5035 CATO STREET, MAPLE HEIGHTS, OH, 44137","Match","Exact","5035 CATO ST, MAPLE HEIGHTS, OH, 44137",61129266,"L"
683836,"5035 CHEYNEY LANE","BRUNSWICK","OH",44212,41.268029289,-81.865856129,336,"5035 CHEYNEY LANE, BRUNSWICK, OH, 44212","Match","Exact","5035 CHEYNEY LN, BRUNSWICK, OH, 44212",58692248,"R"
683837,"5035 COMSTOCK RD","CHAPEL HILL","TN",37034,35.6738745710001,-86.642813948,337,"5035 COMSTOCK RD, CHAPEL HILL, TN, 37034","Match","Exact","5035 COMSTOCK RD, CHAPEL HILL, TN, 37034",58975171,"R"
683838,"5035 COUNTRY RD 125A","WILDWOOD","FL",34785,28.8952634510001,-82.019874304,338,"5035 COUNTRY RD 125A, WILDWOOD, FL, 34785","Match","Non_Exact","5035 CO RD 125A, WILDWOOD, FL, 34785",86499527,"R"
683839,"5035 COUNTY ROAD 45","MAPLESVILLE","AL",36750,32.768417271,-86.901541588,339,"5035 COUNTY ROAD 45, MAPLESVILLE, AL, 36750","Match","Exact","5035 CO RD 45, MAPLESVILLE, AL, 36750",1248335,"L"
683840,"5035 DELRAY AVENUE","SOLON","OH",44139,41.4238997150001,-81.460583669,340,"5035 DELRAY AVENUE, SOLON, OH, 44139","Match","Exact","5035 DELRAY AVE, SOLON, OH, 44139",61135736,"L"
683841,"5035 EAST COUNTY RD 2 SOUTH","MONTE VISTA","CO",81144,37.5457232520001,-106.052064824,341,"5035 EAST COUNTY RD 2 SOUTH, MONTE VISTA, CO, 81144","Match","Exact","5035 E CO RD 2 S, MONTE VISTA, CO, 81144",636209476,"R"
683842,"5035 FAIRFAX EAST","LAKELAND","FL",33813,27.9733076110001,-81.936791421,342,"5035 FAIRFAX EAST, LAKELAND, FL, 33813","Match","Non_Exact","5035 FAIRFAX DR E, LAKELAND, FL, 33813",104877269,"R"
683843,"5035 FOOTHILLS RD APT F","LAKE OSWEGO","OR",97034,NA,NA,343,"5035 FOOTHILLS RD APT F, LAKE OSWEGO, OR, 97034","No_Match",NA,NA,NA,NA
683844,"5035 GROOVER DR","CUMMING","GA",30040,34.256720584,-84.160053793,344,"5035 GROOVER DR, CUMMING, GA, 30040","Match","Exact","5035 GROOVER DR, CUMMING, GA, 30040",70184819,"L"
683845,"5035 HENDERSON CANYON RD","VICTOR","ID",83455,43.6390255360001,-111.199956161,345,"5035 HENDERSON CANYON RD, VICTOR, ID, 83455","Match","Exact","5035 HENDERSON CANYON RD, VICTOR, ID, 83455",119341791,"L"
683846,"5035 HIGHPOINT","TOLEDO","OH",43615,NA,NA,346,"5035 HIGHPOINT, TOLEDO, OH, 43615","Tie",NA,NA,NA,NA
683847,"5035 HIGHWAY 17 BYPASS","MURRELLS INLET","SC",29576,NA,NA,347,"5035 HIGHWAY 17 BYPASS, MURRELLS INLET, SC, 29576","No_Match",NA,NA,NA,NA
683848,"5035 JAZZ LN","SALT LAKE CITY","UT",84117,40.6597223360001,-111.864139995,348,"5035 JAZZ LN, SALT LAKE CITY, UT, 84117","Match","Exact","5035 JAZZ LN, SALT LAKE CITY, UT, 84117",176143923,"L"
683849,"5035 JOHNSON AVE APT 11","CEDAR RAPIDS","IA",52404,41.967314652,-91.7362332659999,349,"5035 JOHNSON AVE APT 11, CEDAR RAPIDS, IA, 52404","Match","Non_Exact","5035 JOHNSON AVE SW, CEDAR RAPIDS, IA, 52404",17024075,"L"
683850,"5035 JOHNSON AVE SW","CEDAR RAPIDS","IA",52404,41.967314652,-91.7362332659999,350,"5035 JOHNSON AVE SW, CEDAR RAPIDS, IA, 52404","Match","Exact","5035 JOHNSON AVE SW, CEDAR RAPIDS, IA, 52404",17024075,"L"
683851,"5035 LEE ROAD","SOUTH BLOOMFIELD","OH",43103,39.718731544,-82.9811389929999,351,"5035 LEE ROAD, SOUTH BLOOMFIELD, OH, 43103","Match","Exact","5035 LEE RD, S BLOOMFIELD, OH, 43103",632839134,"R"
683852,"5035 LOWER HUNTINGTON ROAD","FORT WAYNE","IN",46809,41.0155923630001,-85.202594737,352,"5035 LOWER HUNTINGTON ROAD, FORT WAYNE, IN, 46809","Match","Exact","5035 LOWER HUNTINGTON RD, FORT WAYNE, IN, 46809",6408882,"L"
683853,"5035 MEADOWBROOK RD","WILLIAMVILLE","NY",14221,42.983694568,-78.670855524,353,"5035 MEADOWBROOK RD, WILLIAMVILLE, NY, 14221","Match","Non_Exact","5035 MEADOWBROOK RD, WILLIAMSVILLE, NY, 14221",48348293,"R"
683854,"5035 MI MORITZ LANE","ALLENDALE","MI",49401,NA,NA,354,"5035 MI MORITZ LANE, ALLENDALE, MI, 49401","No_Match",NA,NA,NA,NA
683855,"5035 N RIDGE RD E","ASHTABULA","OH",44004,41.891755045,-80.725597728,355,"5035 N RIDGE RD E, ASHTABULA, OH, 44004","Match","Exact","5035 N RIDGE RD E, ASHTABULA, OH, 44004",117309236,"L"
683856,"5035 NE 60TH AVE","PORTLAND","OR",97218,45.5593592550001,-122.60086101,356,"5035 NE 60TH AVE, PORTLAND, OR, 97218","Match","Exact","5035 NE 60TH AVE, PORTLAND, OR, 97218",157511311,"L"
683857,"5035 NE RODNEY","PORTLAND","OR",97211,45.559421007,-122.664803982,357,"5035 NE RODNEY, PORTLAND, OR, 97211","Match","Non_Exact","5035 NE RODNEY AVE, PORTLAND, OR, 97211",157503473,"L"
683858,"5035 NORTH RUDY RD","RUDY","AR",72952,35.5094651700001,-94.31811297,358,"5035 NORTH RUDY RD, RUDY, AR, 72952","Match","Exact","5035 N RUDY RD, RUDY, AR, 72952",53492385,"L"
683859,"5035 NORTHGATE","FLINT","MI",48532,43.0230392660001,-83.773888713,359,"5035 NORTHGATE, FLINT, MI, 48532","Match","Non_Exact","5035 NORTHGATE DR, FLINT, MI, 48532",69562025,"L"
683860,"5035 OAK SHADOWS DR","HOUSTON","TX",77091,29.8467968630001,-95.466319304,360,"5035 OAK SHADOWS DR, HOUSTON, TX, 77091","Match","Exact","5035 OAK SHADOWS DR, HOUSTON, TX, 77091",96028057,"L"
683861,"5035 OXFORD ST APT 14","LYNCHBURG","VA",24502,37.3781085570001,-79.18284067,361,"5035 OXFORD ST APT 14, LYNCHBURG, VA, 24502","Match","Exact","5035 OXFORD ST, LYNCHBURG, VA, 24502",62738741,"R"
683862,"5035 POSTON DRIVE","SAN JOSE","CA",95136,37.261633503,-121.826574808,362,"5035 POSTON DRIVE, SAN JOSE, CA, 95136","Match","Exact","5035 POSTON DR, SAN JOSE, CA, 95136",122924491,"R"
683863,"5035 QUEEN AVE SOUTH","MINNEAPOLIS","MN",55410,44.9117022630001,-93.3099421859999,363,"5035 QUEEN AVE SOUTH, MINNEAPOLIS, MN, 55410","Match","Exact","5035 QUEEN AVE S, MINNEAPOLIS, MN, 55410",43628845,"L"
683864,"5035 RED FOX ROAD","BETTENDORF","IA",52722,41.5734287940001,-90.46189932,364,"5035 RED FOX ROAD, BETTENDORF, IA, 52722","Match","Exact","5035 RED FOX RD, BETTENDORF, IA, 52722",122720687,"R"
683865,"5035 S EAST END  1512","CHICAGO","IL",60615,NA,NA,365,"5035 S EAST END  1512, CHICAGO, IL, 60615","No_Match",NA,NA,NA,NA
683866,"5035 S EAST END AVE APT 604N","CHICAGO","IL",60651,NA,NA,366,"5035 S EAST END AVE APT 604N, CHICAGO, IL, 60651","No_Match",NA,NA,NA,NA
683867,"5035 S EAST END AVE APT 701S","CHICAGO","IL",60615,NA,NA,367,"5035 S EAST END AVE APT 701S, CHICAGO, IL, 60615","No_Match",NA,NA,NA,NA
683868,"5035 S EAST END AVENUE APT 2201S","CHICAGO","IL",60615,NA,NA,368,"5035 S EAST END AVENUE APT 2201S, CHICAGO, IL, 60615","No_Match",NA,NA,NA,NA
683869,"5035 S JOSEPH AVE","TUCSON","AZ",85757,32.1600268460001,-111.069631988,369,"5035 S JOSEPH AVE, TUCSON, AZ, 85757","Match","Exact","5035 S JOSEPH AVE, TUCSON, AZ, 85757",638559090,"L"
683870,"5035 SHAVANO DR","WINDSOR","CO",80550,40.444198907,-104.949986988,370,"5035 SHAVANO DR, WINDSOR, CO, 80550","Match","Exact","5035 SHAVANO DR, WINDSOR, CO, 80550",188622692,"L"
683871,"5035 SOUTH EAST END AVE  UNIT 2809N","CHICAGO","IL",60615,41.8031186740001,-87.585418653,371,"5035 SOUTH EAST END AVE  UNIT 2809N, CHICAGO, IL, 60615","Match","Exact","5035 S EAST END AVE, CHICAGO, IL, 60615",642837149,"L"
683872,"5035 SPARROWS POINT DR NE","CLEVELAND","TN",37312,35.208923009,-84.821210704,372,"5035 SPARROWS POINT DR NE, CLEVELAND, TN, 37312","Match","Exact","5035 SPARROWS POINT DR NE, CLEVELAND, TN, 37312",57581516,"R"
683873,"5035 STARWOOD DR","FORT WAYNE","IN",46835,41.139281533,-85.078782989,373,"5035 STARWOOD DR, FORT WAYNE, IN, 46835","Match","Exact","5035 STARWOOD DR, FORT WAYNE, IN, 46835",6384267,"L"
683874,"5035 SW 144TH CT","MIAMI","FL",33175,25.717722941,-80.427657274,374,"5035 SW 144TH CT, MIAMI, FL, 33175","Match","Exact","5035 SW 144TH CT, MIAMI, FL, 33175",116069517,"R"
683875,"5035 TRADEWINDS DR","VERO BEACH","FL",32963,27.67220307,-80.364427478,375,"5035 TRADEWINDS DR, VERO BEACH, FL, 32963","Match","Exact","5035 TRADEWINDS DR, VERO BEACH, FL, 32963",120307774,"L"
683876,"5035 TUPELO","BEAUMONT","TX",77708,30.1379980450001,-94.1588077769999,376,"5035 TUPELO, BEAUMONT, TX, 77708","Match","Non_Exact","5035 TUPELO ST, BEAUMONT, TX, 77708",73849841,"R"
683877,"5035 W BERENICE AVENUE","CHICAGO","IL",60641,41.950593795,-87.753086176,377,"5035 W BERENICE AVENUE, CHICAGO, IL, 60641","Match","Exact","5035 W BERENICE AVE, CHICAGO, IL, 60641",111755541,"L"
683878,"5035 W HARMONT DR","GLENDALE","AZ",85302,33.5553502240001,-112.168424971,378,"5035 W HARMONT DR, GLENDALE, AZ, 85302","Match","Exact","5035 W HARMONT DR, GLENDALE, AZ, 85302",128195987,"L"
683879,"5035 W SAN JOAQUIN","VISALIA","CA",93277,36.3149721090001,-119.347681823,379,"5035 W SAN JOAQUIN, VISALIA, CA, 93277","Match","Non_Exact","5035 W SAN JOAQUIN DR, VISALIA, CA, 93277",202803922,"L"
683880,"5035 WALKER STREET","SAINT CLOUD","FL",34771,28.3289573810001,-81.23324096,380,"5035 WALKER STREET, SAINT CLOUD, FL, 34771","Match","Exact","5035 WALKER ST, SAINT CLOUD, FL, 34771",646590891,"L"
683881,"5035 WALLACE DR","CUMMING","GA",30041,NA,NA,381,"5035 WALLACE DR, CUMMING, GA, 30041","No_Match",NA,NA,NA,NA
683882,"5035 WEST 15TH ST","SPEEDWAY","IN",46224,39.78617712,-86.2453076209999,382,"5035 WEST 15TH ST, SPEEDWAY, IN, 46224","Match","Exact","5035 W 15TH ST, SPEEDWAY, IN, 46224",107978646,"L"
683883,"5035 WEST ST ANDREWS CIRCLE","NEW ORLEANS","LA",70125,30.0313298230001,-89.94802566,383,"5035 WEST ST ANDREWS CIRCLE, NEW ORLEANS, LA, 70125","Match","Non_Exact","5035 W ST ANDREWS CIR, NEW ORLEANS, LA, 70128",631808478,"R"
683884,"5035 WOOLDRIDGE RD","BELDING","MI",48809,43.0321077090001,-85.175318582,384,"5035 WOOLDRIDGE RD, BELDING, MI, 48809","Match","Exact","5035 WOOLDRIDGE RD, BELDING, MI, 48809",12148503,"R"
683885,"50355 W HURON RIVER DR","BELLEVILLE","MI",48111,42.202223077,-83.532998532,385,"50355 W HURON RIVER DR, BELLEVILLE, MI, 48111","Match","Exact","50355 W HURON RIVER DR, BELLEVILLE, MI, 48111",95708795,"L"
683886,"5036 38TH STREET APT 2","HYATSSVILLE","MD",20782,38.9517524140001,-76.955361652,386,"5036 38TH STREET APT 2, HYATSSVILLE, MD, 20782","Match","Non_Exact","5036 38TH AVE, HYATTSVILLE, MD, 20782",76391081,"L"
683887,"5036 BELMEADE RD","KANSAS CITY","MO",64126,39.0334158270001,-94.5103321,387,"5036 BELMEADE RD, KANSAS CITY, MO, 64126","Match","Non_Exact","5036 BELMEADE RD, KANSAS CITY, MO, 64129",91460145,"R"
683888,"5036 BELMEADE RD","KANSAS CITY","MO",64129,39.0334158270001,-94.5103321,388,"5036 BELMEADE RD, KANSAS CITY, MO, 64129","Match","Exact","5036 BELMEADE RD, KANSAS CITY, MO, 64129",91460145,"R"
683889,"5036 BROOKS DR","WACO","TX",76710,31.5568737040001,-97.2027554809999,389,"5036 BROOKS DR, WACO, TX, 76710","Match","Exact","5036 BROOKS DR, WACO, TX, 76710",146732732,"L"
683890,"5036 CEDAR BRUSH DR","FORT WORTH","TX",76123,32.61699151,-97.401769246,390,"5036 CEDAR BRUSH DR, FORT WORTH, TX, 76123","Match","Exact","5036 CEDAR BRUSH DR, FORT WORTH, TX, 76123",635376673,"R"
683891,"5036 COTTONWOOD LANE","JACKSON","MS",39212,32.2517643250001,-90.304471671,391,"5036 COTTONWOOD LANE, JACKSON, MS, 39212","Match","Exact","5036 COTTONWOOD LN, JACKSON, MS, 39212",65367846,"R"
683892,"5036 COUNTY ROAD 36","HONEOYE","NY",14471,42.780310559,-77.5190000159999,392,"5036 COUNTY ROAD 36, HONEOYE, NY, 14471","Match","Exact","5036 CO RD 36, HONEOYE, NY, 14471",636405778,"L"
683893,"5036 COYOTE WAY","RIO RANCHO","NM",87144,35.3461925080001,-106.608021413,393,"5036 COYOTE WAY, RIO RANCHO, NM, 87144","Match","Non_Exact","5036 COYOTE WAY NE, RIO RANCHO, NM, 87144",611357376,"L"
683894,"5036 DR PHILLIPD BLVD STE 322","ORLANDO","FL",32819,NA,NA,394,"5036 DR PHILLIPD BLVD STE 322, ORLANDO, FL, 32819","No_Match",NA,NA,NA,NA
683895,"5036 DR PHILLIPS BLVD SUITE 201","ORLANDO","FL",32819,NA,NA,395,"5036 DR PHILLIPS BLVD SUITE 201, ORLANDO, FL, 32819","No_Match",NA,NA,NA,NA
683896,"5036 DR PHILLIPS BLVD SUITE 242","ORLANDO","FL",32819,NA,NA,396,"5036 DR PHILLIPS BLVD SUITE 242, ORLANDO, FL, 32819","No_Match",NA,NA,NA,NA
683897,"5036 ELYSIAN FIELDS AVE","NEW ORLEANS","LA",70122,30.010030198,-90.06027611,397,"5036 ELYSIAN FIELDS AVE, NEW ORLEANS, LA, 70122","Match","Exact","5036 ELYSIAN FIELDS AVE, NEW ORLEANS, LA, 70122",191704332,"R"
683898,"5036 ERDMAN AVENUE","BALTIMORE","MD",21205,NA,NA,398,"5036 ERDMAN AVENUE, BALTIMORE, MD, 21205","No_Match",NA,NA,NA,NA
683899,"5036 IVY BROOK DRIVE","FORT WAYNE","IN",46835,41.1522193170001,-85.077590028,399,"5036 IVY BROOK DRIVE, FORT WAYNE, IN, 46835","Match","Exact","5036 BROOK DR, FORT WAYNE, IN, 46835",6384188,"R"
683900,"5036 LANTANA","GULF BREEZE","FL",32563,30.3903084880001,-87.0128576929999,400,"5036 LANTANA, GULF BREEZE, FL, 32563","Match","Non_Exact","5036 LANTANA DR, GULF BREEZE, FL, 32563",74593314,"L"
683901,"5036 LINDENWOOD B","ST LOUIS","MO",63109,38.5924841470001,-90.2770111409999,401,"5036 LINDENWOOD B, ST LOUIS, MO, 63109","Match","Non_Exact","5036 LINDENWOOD AVE, SAINT LOUIS, MO, 63109",107599693,"L"
683902,"5036 N KENNETH","CHICAGO","IL",60630,41.9724831670001,-87.739306477,402,"5036 N KENNETH, CHICAGO, IL, 60630","Match","Non_Exact","5036 N KENNETH AVE, CHICAGO, IL, 60630",111755271,"L"
683903,"5036 N OAK TRAFFICWAY","KANSAS CITY","MO",64118,39.1851067850001,-94.576592281,403,"5036 N OAK TRAFFICWAY, KANSAS CITY, MO, 64118","Match","Exact","5036 N OAK TRFY, KANSAS CITY, MO, 64118",89793299,"L"
683904,"5036 NE 12TH AVE","PORTLAND","OR",97211,45.559451574,-122.653622217,404,"5036 NE 12TH AVE, PORTLAND, OR, 97211","Match","Exact","5036 NE 12TH AVE, PORTLAND, OR, 97211",157504019,"R"
683905,"5036 OAKLAND AVE","MINNEAPOLIS","MN",55417,44.911492874,-93.266473306,405,"5036 OAKLAND AVE, MINNEAPOLIS, MN, 55417","Match","Non_Exact","5036 OAKLAND AVE S, MINNEAPOLIS, MN, 55417",43634561,"R"
683906,"5036 OLD SCHOOLHOUSE ROA","PARKER","CO",80134,NA,NA,406,"5036 OLD SCHOOLHOUSE ROA, PARKER, CO, 80134","No_Match",NA,NA,NA,NA
683907,"5036 OLD SCHOOLHOUSE ROAD","PARKER","CO",80134,39.435666333,-104.764585652,407,"5036 OLD SCHOOLHOUSE ROAD, PARKER, CO, 80134","Match","Exact","5036 OLD SCHOOLHOUSE RD, PARKER, CO, 80134",130831758,"L"
683908,"5036 PASSONS BLVD SUITE 2","PICO RIVERA","CA",90660,33.9977892900001,-118.078415322,408,"5036 PASSONS BLVD SUITE 2, PICO RIVERA, CA, 90660","Match","Exact","5036 PASSONS BLVD, PICO RIVERA, CA, 90660",141736846,"L"
683909,"5036 ROMERO WAY","FAIR OAKS","CA",95628,38.6573033190001,-121.279870336,409,"5036 ROMERO WAY, FAIR OAKS, CA, 95628","Match","Exact","5036 ROMERO WAY, FAIR OAKS, CA, 95628",133344791,"R"
683910,"5036 SE 15TH AVE","PORTLAND","OR",97206,NA,NA,410,"5036 SE 15TH AVE, PORTLAND, OR, 97206","No_Match",NA,NA,NA,NA
683911,"5036 SNAPFINGER WOODS DR SUITE 207","DECATUR","GA",30035,NA,NA,411,"5036 SNAPFINGER WOODS DR SUITE 207, DECATUR, GA, 30035","No_Match",NA,NA,NA,NA
683912,"5036 SOUTH BLACKSTONE AVE","CHICAGO","IL",60615,41.8035474760001,-87.59053104,412,"5036 SOUTH BLACKSTONE AVE, CHICAGO, IL, 60615","Match","Exact","5036 S BLACKSTONE AVE, CHICAGO, IL, 60615",111771711,"R"
683913,"5036 SOUTH WOODLAWN AVE APT 3E","CHICAGO","IL",60615,41.803098543,-87.596720816,413,"5036 SOUTH WOODLAWN AVE APT 3E, CHICAGO, IL, 60615","Match","Exact","5036 S WOODLAWN AVE, CHICAGO, IL, 60615",616887785,"R"
683914,"5036 SPEARFISH PLACE","WALDORF","MD",20603,38.609912084,-76.944293908,414,"5036 SPEARFISH PLACE, WALDORF, MD, 20603","Match","Non_Exact","5036 SPEARFHISH PL, WALDORF, MD, 20603",628160788,"L"
683915,"5036 STONEWOOD PINES DRIVE","KNIGHTDALE","NC",27545,35.7456861480001,-78.4624451079999,415,"5036 STONEWOOD PINES DRIVE, KNIGHTDALE, NC, 27545","Match","Exact","5036 STONEWOOD PINES DR, KNIGHTDALE, NC, 27545",624967165,"R"
683916,"5036 SW HILLTOP LN","PORTLAND","OR",97221,45.5050735030001,-122.731227634,416,"5036 SW HILLTOP LN, PORTLAND, OR, 97221","Match","Exact","5036 SW HILLTOP LN, PORTLAND, OR, 97221",647850874,"R"
683917,"5036 THOMAS AVE S","MINNEAPOLIS","MN",55410,44.911700936,-93.3137721959999,417,"5036 THOMAS AVE S, MINNEAPOLIS, MN, 55410","Match","Exact","5036 THOMAS AVE S, MINNEAPOLIS, MN, 55410",43628337,"R"
683918,"5036 TURTLE LANE EAST","SHOREVIEW","MN",55126,NA,NA,418,"5036 TURTLE LANE EAST, SHOREVIEW, MN, 55126","No_Match",NA,NA,NA,NA
683919,"5036 VIKING CORAL","SAN ANTONIO","TX",78244,29.4746267260001,-98.364665986,419,"5036 VIKING CORAL, SAN ANTONIO, TX, 78244","Match","Exact","5036 VIKING CORAL, SAN ANTONIO, TX, 78244",101703819,"R"
683920,"5036 VILLAGE PLACE DR","W. BLOOMFIELD","MI",48322,42.532657124,-83.380715299,420,"5036 VILLAGE PLACE DR, W. BLOOMFIELD, MI, 48322","Match","Exact","5036 VILLAGE PLACE DR, W BLOOMFIELD, MI, 48322",69792928,"R"
683921,"5036 W BLUEMOUND RD","MILWAUKEE","WI",53208,43.0367914280001,-87.9767526049999,421,"5036 W BLUEMOUND RD, MILWAUKEE, WI, 53208","Match","Exact","5036 W BLUEMOUND RD, MILWAUKEE, WI, 53208",77733988,"R"
683922,"5036 W DAISY WAY","FREMONT","MI",49412,43.457787303,-85.9254730819999,422,"5036 W DAISY WAY, FREMONT, MI, 49412","Match","Exact","5036 DAISY WAY, FREMONT, MI, 49412",636982099,"L"
683923,"5036 W WOLFE ST","BOISE","ID",87305,43.597356141,-116.24487106,423,"5036 W WOLFE ST, BOISE, ID, 87305","Match","Non_Exact","5036 WOLFE ST, BOISE, ID, 83705",117862958,"R"
683924,"5036 WESTDALE DR","BATON ROUGE","LA",70808,30.4361092120001,-91.137804927,424,"5036 WESTDALE DR, BATON ROUGE, LA, 70808","Match","Exact","5036 WESTDALE DR, BATON ROUGE, LA, 70808",92184778,"R"
683925,"5036 WILLOWBROOK DRIVE","CUYAHOGA HEIGHTS","OH",44125,41.4222209110001,-81.6434690199999,425,"5036 WILLOWBROOK DRIVE, CUYAHOGA HEIGHTS, OH, 44125","Match","Non_Exact","5036 WILLOW BROOK DR, CLEVELAND, OH, 44125",61118453,"R"
683926,"5036 WINSLOW DR","WHITEHALL","OH",43213,39.961262076,-82.863201418,426,"5036 WINSLOW DR, WHITEHALL, OH, 43213","Match","Exact","5036 WINSLOW DR, WHITEHALL, OH, 43213",218680372,"L"
683927,"5037 146TH STREET WEST","SAVAGE","MN",55378,44.7414104330001,-93.343107419,427,"5037 146TH STREET WEST, SAVAGE, MN, 55378","Match","Exact","5037 146TH ST W, SAVAGE, MN, 55378",38149064,"R"
683928,"5037 BETH STREET","DOUGLASVILLE","GA",30135,33.701809815,-84.739651413,428,"5037 BETH STREET, DOUGLASVILLE, GA, 30135","Match","Exact","5037 BETH ST, DOUGLASVILLE, GA, 30135",16648130,"L"
683929,"5037 BRIMLEY WAY","SACRAMENTO","CA",95835,38.6673115940001,-121.498807992,429,"5037 BRIMLEY WAY, SACRAMENTO, CA, 95835","Match","Exact","5037 BRIMLEY WAY, SACRAMENTO, CA, 95835",133407970,"R"
683930,"5037 BROOKSTONE LANE","LOGANVILLE","GA",30052,33.7487863110001,-83.876029764,430,"5037 BROOKSTONE LANE, LOGANVILLE, GA, 30052","Match","Exact","5037 BROOKSTONE LN, LOGANVILLE, GA, 30052",618463872,"R"
683931,"5037 CALMONT AVE","FORT WORTH","TX",76107,32.7338986520001,-97.3956962729999,431,"5037 CALMONT AVE, FORT WORTH, TX, 76107","Match","Exact","5037 CALMONT AVE, FORT WORTH, TX, 76107",101880875,"L"
683932,"5037 CLIFF PLACE","SAN DIEGO","CA",92116,32.7700608650001,-117.125626805,432,"5037 CLIFF PLACE, SAN DIEGO, CA, 92116","Match","Exact","5037 CLIFF PL, SAN DIEGO, CA, 92116",195321717,"R"
683933,"5037 CR 444","WAELDER","TX",78954,29.7516021910001,-97.3710508,433,"5037 CR 444, WAELDER, TX, 78954","Match","Non_Exact","5037 CO RD 444, WAELDER, TX, 78959",44493274,"R"
683934,"5037 CRAWFORD GULCH RD","GOLDEN","CO",80403,39.780235976,-105.287490253,434,"5037 CRAWFORD GULCH RD, GOLDEN, CO, 80403","Match","Exact","5037 CRAWFORD GULCH RD, GOLDEN, CO, 80403",177274283,"L"
683935,"5037 CROFTON DRIVE","FORT MILL","SC",29715,34.9535369860001,-80.895620826,435,"5037 CROFTON DRIVE, FORT MILL, SC, 29715","Match","Exact","5037 CROFTON DR, FORT MILL, SC, 29715",19837867,"L"
683936,"5037 CYPRESS BRANCH POINT","OVIEDO","FL",32765,28.6217680980001,-81.2611094009999,436,"5037 CYPRESS BRANCH POINT, OVIEDO, FL, 32765","Match","Exact","5037 CYPRESS BRANCH PT, OVIEDO, FL, 32765",632081805,"R"
683937,"5037 DAYFLOWER DRIVE","TIPP CITY","OH",45371,39.8888345010001,-84.126531357,437,"5037 DAYFLOWER DRIVE, TIPP CITY, OH, 45371","Match","Exact","5037 DAYFLOWER DR, TIPP CITY, OH, 45371",641746539,"L"
683938,"5037 EAST MILL STATION DRIVE","BOISE","ID",83716,43.5674541290001,-116.121556542,438,"5037 EAST MILL STATION DRIVE, BOISE, ID, 83716","Match","Exact","5037 E MILL STATION DR, BOISE, ID, 83716",641555255,"R"
683939,"5037 ELLIS LANE","ELLICOTT CITY","MD",21043,39.2307499090001,-76.763976471,439,"5037 ELLIS LANE, ELLICOTT CITY, MD, 21043","Match","Exact","5037 ELLIS LN, ELLICOTT CITY, MD, 21043",614144438,"R"
683940,"5037 FIELDCREST DRIVE","NORTH AUGUSTA","SC",29841,33.51246939,-81.966776163,440,"5037 FIELDCREST DRIVE, NORTH AUGUSTA, SC, 29841","Match","Exact","5037 FIELDCREST DR, NORTH AUGUSTA, SC, 29841",65014114,"L"
683941,"5037 GARFIELD ST NW","WASHINGTON","DC",20016,38.928363688,-77.1003213939999,441,"5037 GARFIELD ST NW, WASHINGTON, DC, 20016","Match","Exact","5037 GARFIELD ST NW, WASHINGTON, DC, 20016",76219928,"R"
683942,"5037 HALIFAX RD","HALIFAX","VA",24558,36.743342302,-78.9239382979999,442,"5037 HALIFAX RD, HALIFAX, VA, 24558","Match","Exact","5037 HALIFAX RD, HALIFAX, VA, 24558",636669670,"L"
683943,"5037 HERON PLACE","COCONUT CREEK","FL",33073,26.311476284,-80.193149862,443,"5037 HERON PLACE, COCONUT CREEK, FL, 33073","Match","Exact","5037 HERON PL, COCONUT CREEK, FL, 33073",114811776,"R"
683944,"5037 HIDDEN SPRINGS BLVD","ORLANDO","FL",32819,28.4912708360001,-81.486098258,444,"5037 HIDDEN SPRINGS BLVD, ORLANDO, FL, 32819","Match","Exact","5037 HIDDEN SPRINGS BLVD, ORLANDO, FL, 32819",94272091,"L"
683945,"5037 HIGHWAY 383","KINDER","LA",70648,30.44399365,-92.991994404,445,"5037 HIGHWAY 383, KINDER, LA, 70648","Match","Non_Exact","5037 STATE RTE 383, KINDER, LA, 70648",636228808,"R"
683946,"5037 LALEX LN","CARY","NC",27519,35.828323599,-78.895053854,446,"5037 LALEX LN, CARY, NC, 27519","Match","Exact","5037 LALEX LN, CARY, NC, 27519",639452328,"L"
683947,"5037 LUDLOW STREET","PHILADELPHIA","PA",19139,39.958834473,-75.221849184,447,"5037 LUDLOW STREET, PHILADELPHIA, PA, 19139","Match","Exact","5037 LUDLOW ST, PHILADELPHIA, PA, 19139",131399620,"R"
683948,"5037 MORRIS WAY","FREMONT","CA",94536,37.5455877420001,-122.018934133,448,"5037 MORRIS WAY, FREMONT, CA, 94536","Match","Exact","5037 MORRIS WAY, FREMONT, CA, 94536",125028463,"R"
683949,"5037 N NELLIS CT","VISALIA","CA",93277,36.293348725,-119.346226317,449,"5037 N NELLIS CT, VISALIA, CA, 93277","Match","Non_Exact","5037 W NELLIS CT, VISALIA, CA, 93277",617655905,"L"
683950,"5037 NE 9TH AVE","PORTLAND","OR",97211,45.5594770610001,-122.656564617,450,"5037 NE 9TH AVE, PORTLAND, OR, 97211","Match","Exact","5037 NE 9TH AVE, PORTLAND, OR, 97211",157503976,"L"
683951,"5037 NE 9TH AVENUE","PORTLAND","OR",97211,45.5594770610001,-122.656564617,451,"5037 NE 9TH AVENUE, PORTLAND, OR, 97211","Match","Exact","5037 NE 9TH AVE, PORTLAND, OR, 97211",157503976,"L"
683952,"5037 OAK HOLLOW DRIVE NORTHWEST","ACWORTH","GA",30102,34.076058232,-84.6090100119999,452,"5037 OAK HOLLOW DRIVE NORTHWEST, ACWORTH, GA, 30102","Match","Non_Exact","5037 OAK HOLLOW DR, ACWORTH, GA, 30102",17215768,"L"
683953,"5037 PORTSMOUTH AVENUE","JACKSONVILLE","FL",32208,30.406218633,-81.7273122299999,453,"5037 PORTSMOUTH AVENUE, JACKSONVILLE, FL, 32208","Match","Exact","5037 PORTSMOUTH AVE, JACKSONVILLE, FL, 32208",83887723,"R"
683954,"5037 ROMAINE SPRING DR","FENTON","MO",63026,38.4615887460001,-90.4524118269999,454,"5037 ROMAINE SPRING DR, FENTON, MO, 63026","Match","Exact","5037 ROMAINE SPRING DR, FENTON, MO, 63026",607909150,"R"
683955,"5037 SAINT ANNES DRIVE","MIDDLETON","WI",53597,43.1268844160001,-89.467166187,455,"5037 SAINT ANNES DRIVE, MIDDLETON, WI, 53597","Match","Exact","5037 SAINT ANNES DR, MIDDLETON, WI, 53597",648097377,"R"
683956,"5037 SANFORD STREET","METAIRIE","LA",70006,30.0027231600001,-90.194630436,456,"5037 SANFORD STREET, METAIRIE, LA, 70006","Match","Exact","5037 SANFORD ST, METAIRIE, LA, 70006",93499232,"R"
683957,"5037 SOUTH DORCHESTER AVE UNIT 1A","5037 SOUTH DORCHESTE","IL",60615,41.8031475700001,-87.591854101,457,"5037 SOUTH DORCHESTER AVE UNIT 1A, 5037 SOUTH DORCHESTE, IL, 60615","Match","Non_Exact","5037 S DORCHESTER AVE, CHICAGO, IL, 60615",616887782,"L"
683958,"5037 SOUTH DORCHESTER AVE UNIT 1A","CHICAGO","IL",60615,41.8031475700001,-87.591854101,458,"5037 SOUTH DORCHESTER AVE UNIT 1A, CHICAGO, IL, 60615","Match","Exact","5037 S DORCHESTER AVE, CHICAGO, IL, 60615",616887782,"L"
683959,"5037 SPYGLASS DR","BROOMFIELD","CO",80023,39.955366575,-105.050343165,459,"5037 SPYGLASS DR, BROOMFIELD, CO, 80023","Match","Exact","5037 SPYGLASS DR, BROOMFIELD, CO, 80023",177418382,"R"
683960,"5037 SUNRISE FALLS CT","NORTH LAS VEGAS","NV",89031,36.251557543,-115.199612965,460,"5037 SUNRISE FALLS CT, NORTH LAS VEGAS, NV, 89031","Match","Exact","5037 SUNRISE FALLS CT, N LAS VEGAS, NV, 89031",201908617,"L"
683961,"5037 TEN MILLS ROAD","COLUMBIA","MD",21044,39.2338190520001,-76.85531671,461,"5037 TEN MILLS ROAD, COLUMBIA, MD, 21044","Match","Exact","5037 TEN MILLS RD, COLUMBIA, MD, 21044",635796642,"L"
683962,"5037 VALLEYVIEW DR","ALTON","IL",62002,38.946606354,-90.157274705,462,"5037 VALLEYVIEW DR, ALTON, IL, 62002","Match","Exact","5037 VALLEYVIEW DR, ALTON, IL, 62002",107811719,"L"
683963,"5037 W HARVARD AVE","FRESNO","CA",93722,36.7739685230001,-119.881889146,463,"5037 W HARVARD AVE, FRESNO, CA, 93722","Match","Exact","5037 W HARVARD AVE, FRESNO, CA, 93722",619123754,"L"
683964,"5037 W SIERRA VISTA","GLENDALE","AZ",85301,33.5320875580001,-112.167183209,464,"5037 W SIERRA VISTA, GLENDALE, AZ, 85301","Match","Non_Exact","5037 W SIERRA VISTA DR, GLENDALE, AZ, 85301",128197712,"L"
683965,"5037 WALNUT STREET 1ST FLR","PHILADELPHIA","PA",19139,39.9565632370001,-75.222325095,465,"5037 WALNUT STREET 1ST FLR, PHILADELPHIA, PA, 19139","Match","Exact","5037 WALNUT ST, PHILADELPHIA, PA, 19139",131399634,"R"
683966,"5037 WARNOCK STREET","PHILADELPHIA","PA",19141,40.0289343640001,-75.140622846,466,"5037 WARNOCK STREET, PHILADELPHIA, PA, 19141","Match","Non_Exact","5037 N WARNOCK ST, PHILADELPHIA, PA, 19141",131417379,"R"
683967,"5037 WEST DESERT HOLLOW DRIVE","PEORIA","AZ",85083,33.7147965560001,-112.168010294,467,"5037 WEST DESERT HOLLOW DRIVE, PEORIA, AZ, 85083","Match","Non_Exact","5037 W DESERT HOLLOW DR, PHOENIX, AZ, 85083",128352955,"R"
683968,"5037 WEST LAKE TERRACE AVE","SOUTH JORDAN","UT",84009,40.5517688260001,-112.013626408,468,"5037 WEST LAKE TERRACE AVE, SOUTH JORDAN, UT, 84009","Match","Exact","5037 W LAKE TERRACE AVE, SOUTH JORDAN, UT, 84009",649205795,"R"
683969,"5037 WESTWIND WAY","ANDERSON","SC",29626,34.500438714,-82.787014181,469,"5037 WESTWIND WAY, ANDERSON, SC, 29626","Match","Exact","5037 WESTWIND WAY, ANDERSON, SC, 29626",25471741,"R"
683970,"5037 WOOSTER RD WEST","NORTON","OH",44203,40.999765273,-81.6511233269999,470,"5037 WOOSTER RD WEST, NORTON, OH, 44203","Match","Exact","5037 WOOSTER RD W, NORTON, OH, 44203",61373087,"R"
683971,"50370 SOUTH BALBOA","COACHELLA","CA",92236,33.682553404,-116.185496024,471,"50370 SOUTH BALBOA, COACHELLA, CA, 92236","Match","Non_Exact","50370 S BALBOA ST, COACHELLA, CA, 92236",194791597,"R"
683972,"50377 BLACK HORSE LANE","CANTON","MI",48188,42.286876224,-83.535208285,472,"50377 BLACK HORSE LANE, CANTON, MI, 48188","Match","Exact","50377 BLACK HORSE LN, CANTON, MI, 48188",617693938,"R"
683973,"5038 ALTA VISTA AVE","SAINT AUGUSTINE","FL",32080,29.8023406190001,-81.263660884,473,"5038 ALTA VISTA AVE, SAINT AUGUSTINE, FL, 32080","Match","Exact","5038 ALTA VISTA AVE, SAINT AUGUSTINE, FL, 32080",92587235,"L"
683974,"5038 AUCKLAND AVE","NORTH HOLLYWOOD","CA",91601,34.1620199290001,-118.360369972,474,"5038 AUCKLAND AVE, NORTH HOLLYWOOD, CA, 91601","Match","Exact","5038 AUCKLAND AVE, N HOLLYWOOD, CA, 91601",141592118,"R"
683975,"5038 BETHPAGE DRIVE","SUWANEE","GA",30024,34.0921412760001,-84.069478805,475,"5038 BETHPAGE DRIVE, SUWANEE, GA, 30024","Match","Exact","5038 BETHPAGE DR, SUWANEE, GA, 30024",624242083,"R"
683976,"5038 CLEVES WARSAW PIKE","CINCINNATI","OH",45238,39.118631694,-84.6060951159999,476,"5038 CLEVES WARSAW PIKE, CINCINNATI, OH, 45238","Match","Exact","5038 CLEVES WARSAW PIKE, CINCINNATI, OH, 45238",103917881,"R"
683977,"5038 COUNTRY CLUB RD","WILSON","NC",27896,NA,NA,477,"5038 COUNTRY CLUB RD, WILSON, NC, 27896","No_Match",NA,NA,NA,NA
683978,"5038 EMERSON AVENUE SOUTH","MINNEAPOLIS","MN",55419,44.9115902400001,-93.294646947,478,"5038 EMERSON AVENUE SOUTH, MINNEAPOLIS, MN, 55419","Match","Exact","5038 EMERSON AVE S, MINNEAPOLIS, MN, 55419",43629134,"R"
683979,"5038 ERDMAN AVENUE","BALTIMORE","MD",21205,NA,NA,479,"5038 ERDMAN AVENUE, BALTIMORE, MD, 21205","No_Match",NA,NA,NA,NA
683980,"5038 EXETER RD","ERIE","PA",16509,42.0824259240001,-80.0852934339999,480,"5038 EXETER RD, ERIE, PA, 16509","Match","Exact","5038 EXETER RD, ERIE, PA, 16509",117496312,"R"
683981,"5038 FOREST HURST DR","SPRING","TX",77373,30.0606495260001,-95.36397525,481,"5038 FOREST HURST DR, SPRING, TX, 77373","Match","Exact","5038 FOREST HURST DR, SPRING, TX, 77373",627728629,"L"
683982,"5038 GOODMAN AVE","FORT WORTH","TX",76107,32.7215699180001,-97.396787332,482,"5038 GOODMAN AVE, FORT WORTH, TX, 76107","Match","Exact","5038 GOODMAN AVE, FORT WORTH, TX, 76107",101881045,"R"
683983,"5038 GRAY ROAD","CINCINNATI","OH",45232,39.1870894050001,-84.528469968,483,"5038 GRAY ROAD, CINCINNATI, OH, 45232","Match","Exact","5038 GRAY RD, CINCINNATI, OH, 45232",652715306,"L"
683984,"5038 HILL STREET","LA CANADA","CA",91011,34.2143432330001,-118.202290287,484,"5038 HILL STREET, LA CANADA, CA, 91011","Match","Exact","5038 HILL ST, LA CANADA, CA, 91011",141590816,"R"
683985,"5038 KARL RD","COLUMBUS","OH",43229,40.069874676,-82.97660839,485,"5038 KARL RD, COLUMBUS, OH, 43229","Match","Exact","5038 KARL RD, COLUMBUS, OH, 43229",135571000,"R"
683986,"5038 KENTON RPDS","SAN ANTONIO","TX",78240,29.529292098,-98.5813814529999,486,"5038 KENTON RPDS, SAN ANTONIO, TX, 78240","Match","Exact","5038 KENTON RAPIDS, SAN ANTONIO, TX, 78240",101581868,"R"
683987,"5038 KIMI GRAY COURT SE","WASHINGTON","DC",20019,38.882010854,-76.9312679459999,487,"5038 KIMI GRAY COURT SE, WASHINGTON, DC, 20019","Match","Exact","5038 KIMI GRAY CT SE, WASHINGTON, DC, 20019",639542591,"L"
683988,"5038 NORTHFIELDS DRIVE","GIBSONIA","PA",15044,40.685562669,-80.029682045,488,"5038 NORTHFIELDS DRIVE, GIBSONIA, PA, 15044","Match","Exact","5038 NORTHFIELDS DR, GIBSONIA, PA, 15044",52687367,"L"
683989,"5038 NW RADIAL HWY","OMAHA","NE",68104,41.2824666440001,-95.991763823,489,"5038 NW RADIAL HWY, OMAHA, NE, 68104","Match","Exact","5038 NW RADIAL HWY, OMAHA, NE, 68104",636725828,"L"
683990,"5038 OGONTZ AVE","PHILADELPHIA","PA",19141,40.0309690550001,-75.1527619679999,490,"5038 OGONTZ AVE, PHILADELPHIA, PA, 19141","Match","Exact","5038 OGONTZ AVE, PHILADELPHIA, PA, 19141",131416732,"L"
683991,"5038 OLD HANOVER RD","WESTMINSTER","MD",21158,39.713013733,-77.002744207,491,"5038 OLD HANOVER RD, WESTMINSTER, MD, 21158","Match","Exact","5038 OLD HANOVER RD, WESTMINSTER, MD, 21158",61787232,"L"
683992,"5038 RENTON AVES 103","SEATTLE","WA",98118,NA,NA,492,"5038 RENTON AVES 103, SEATTLE, WA, 98118","No_Match",NA,NA,NA,NA
683993,"5038 RIGA HWY","BLISSFIELD","MI",49228,41.8478884730001,-83.8266642849999,493,"5038 RIGA HWY, BLISSFIELD, MI, 49228","Match","Exact","5038 RIGA HWY, BLISSFIELD, MI, 49228",25950228,"L"
683994,"5038 S PARK","TACOMA","WA",98408,47.210772197,-122.441839855,494,"5038 S PARK, TACOMA, WA, 98408","Match","Non_Exact","5038 S PARK AVE, TACOMA, WA, 98408",184626080,"R"
683995,"5038 S ST LAWRENCE","CHICAGO","IL",60620,NA,NA,495,"5038 S ST LAWRENCE, CHICAGO, IL, 60620","No_Match",NA,NA,NA,NA
683996,"5038 SE MAJOR WAY","STUART","FL",34997,27.1501780240001,-80.186467842,496,"5038 SE MAJOR WAY, STUART, FL, 34997","Match","Exact","5038 SE MAJOR WAY, STUART, FL, 34997",120436707,"L"
683997,"5038 SEAGROVE COVE","SAN DIEGO","CA",92130,32.959902399,-117.207625642,497,"5038 SEAGROVE COVE, SAN DIEGO, CA, 92130","Match","Exact","5038 SEAGROVE COVE, SAN DIEGO, CA, 92130",195672636,"R"
683998,"5038 SHERIER PLACE NW","WASHINGTON","DC",20016,38.9237096470001,-77.101732054,498,"5038 SHERIER PLACE NW, WASHINGTON, DC, 20016","Match","Exact","5038 SHERIER PL NW, WASHINGTON, DC, 20016",76219974,"L"
683999,"5038 ST RT 58E","CLINTON","KY",42031,NA,NA,499,"5038 ST RT 58E, CLINTON, KY, 42031","No_Match",NA,NA,NA,NA
684000,"5038 STOREY MILL RD","HEPHZIBAH","GA",30815,33.2540775940001,-82.095620501,500,"5038 STOREY MILL RD, HEPHZIBAH, GA, 30815","Match","Non_Exact","5038 STORY MILL RD, HEPHZIBAH, GA, 30815",55656826,"R"
