"ID","Address","City","State","Zip","lat","long","id","input_address","match_indicator","match_type","matched_address","tiger_line_id","tiger_side"
239001,"1661 VALLEY VIEW ROAD","GLENDALE","CA",91202,34.172630731,-118.258816009,1,"1661 VALLEY VIEW ROAD, GLENDALE, CA, 91202","Match","Exact","1661 VALLEY VIEW RD, GLENDALE, CA, 91202",142730050,"L"
239002,"1661 VARINA AVENUE","PETERSBURG","VA",23805,37.203567838,-77.4013303899999,2,"1661 VARINA AVENUE, PETERSBURG, VA, 23805","Match","Exact","1661 VARINA AVE, PETERSBURG, VA, 23805",54151727,"L"
239003,"1661 W 4TH","KUNA","ID",83634,43.492195226,-116.434368211,3,"1661 W 4TH, KUNA, ID, 83634","Match","Non_Exact","1661 W 4TH ST, KUNA, ID, 83634",117883888,"L"
239004,"1661 W HIGHVIEW DR","ARNOLD","MO",63010,38.439554795,-90.408816313,4,"1661 W HIGHVIEW DR, ARNOLD, MO, 63010","Match","Exact","1661 W HIGHVIEW DR, ARNOLD, MO, 63010",607834597,"R"
239005,"1661 W LONGVIEW AVE","STOCKTON","CA",95207,37.999978916,-121.33082578,5,"1661 W LONGVIEW AVE, STOCKTON, CA, 95207","Match","Exact","1661 W LONGVIEW AVE, STOCKTON, CA, 95207",133873667,"R"
239006,"1661 WEST ESCALON","FRESNO","CA",93711,36.8264602140001,-119.822709726,6,"1661 WEST ESCALON, FRESNO, CA, 93711","Match","Non_Exact","1661 W ESCALON AVE, FRESNO, CA, 93711",197567270,"L"
239007,"1661 WEST HAMPTON DRIVE","AUSTINTOWN","OH",44515,41.0848374770001,-80.749917641,7,"1661 WEST HAMPTON DRIVE, AUSTINTOWN, OH, 44515","Match","Non_Exact","1661 WESTHAMPTON DR, AUSTINTOWN, OH, 44515",64610599,"L"
239008,"1661 WET 27TH STREET APT B","RIVIERA BEACH","FL",33404,26.7851558790001,-80.08186841,8,"1661 WET 27TH STREET APT B, RIVIERA BEACH, FL, 33404","Match","Non_Exact","1661 W 27TH ST, RIVIERA BEACH, FL, 33404",115267720,"L"
239009,"1661 WICKHAM CT","LIBERTYVILLE","IL",60048,42.2998393080001,-87.912163914,9,"1661 WICKHAM CT, LIBERTYVILLE, IL, 60048","Match","Exact","1661 WICKHAM CT, LIBERTYVILLE, IL, 60048",119663572,"R"
239010,"1661 WIMBLEDON DR APT 194","GREENVILLE","NC",27858,35.570422584,-77.362698097,10,"1661 WIMBLEDON DR APT 194, GREENVILLE, NC, 27858","Match","Exact","1661 WIMBLEDON DR, GREENVILLE, NC, 27858",653454929,"R"
239011,"16610  I 45","THE WOODLANDS","TX",77384,NA,NA,11,"16610  I 45, THE WOODLANDS, TX, 77384","No_Match",NA,NA,NA,NA
239012,"16610 91ST AVE","VASHON","WA",98070,47.456467521,-122.449654013,12,"16610 91ST AVE, VASHON, WA, 98070","Match","Non_Exact","16610 91ST AVE SW, VASHON, WA, 98070",186622412,"R"
239013,"16610 BONNY RIDGE CT","HOUSTON","TX",77053,29.5828165140001,-95.453534466,13,"16610 BONNY RIDGE CT, HOUSTON, TX, 77053","Match","Exact","16610 BONNY RIDGE CT, HOUSTON, TX, 77053",78295532,"R"
239014,"16610 CARRIAGE PLACE","HACIENDA HEIGHTS","CA",91745,33.991204759,-117.946010549,14,"16610 CARRIAGE PLACE, HACIENDA HEIGHTS, CA, 91745","Match","Exact","16610 CARRIAGE PL, HACIENDA HTS, CA, 91745",142693944,"R"
239015,"16610 COUNTY LINE ROAD","UMATILLA","FL",32784,28.958492258,-81.682411214,15,"16610 COUNTY LINE ROAD, UMATILLA, FL, 32784","Match","Exact","16610 COUNTY LINE RD, UMATILLA, FL, 32784",638650356,"L"
239016,"16610 COUNTY RD 310","FLEMINGTON","MO",65650,37.8468076020001,-93.456923506,16,"16610 COUNTY RD 310, FLEMINGTON, MO, 65650","Match","Exact","16610 CO RD 310, FLEMINGTON, MO, 65650",22617002,"L"
239017,"16610 FIRENZE WAY","NAPLES","FL",34110,26.310056989,-81.752943429,17,"16610 FIRENZE WAY, NAPLES, FL, 34110","Match","Exact","16610 FIRENZE WAY, NAPLES, FL, 34110",648602654,"L"
239018,"16610 GREENBRIAR POINT","HOUSON","TX",77095,29.9163129610001,-95.6621737089999,18,"16610 GREENBRIAR POINT, HOUSON, TX, 77095","Match","Non_Exact","16610 GREENBRIAR POINT LN, HOUSTON, TX, 77095",635277621,"R"
239019,"16610 HWY 65 SOUTH","SONDHEIMER","LA",71276,NA,NA,19,"16610 HWY 65 SOUTH, SONDHEIMER, LA, 71276","No_Match",NA,NA,NA,NA
239020,"16610 PEACH ST","BOWIE","MD",20716,38.9122198100001,-76.716648322,20,"16610 PEACH ST, BOWIE, MD, 20716","Match","Exact","16610 PEACH ST, BOWIE, MD, 20716",642143115,"L"
239021,"16610 S YVETTE WAY","CERRITOS","CA",90703,33.880034256,-118.057657611,21,"16610 S YVETTE WAY, CERRITOS, CA, 90703","Match","Exact","16610 YVETTE WAY, CERRITOS, CA, 90703",141753394,"L"
239022,"16610 SUTTERS RUN LN","HUNTERSVILLE","NC",28078,35.440271184,-80.8535519599999,22,"16610 SUTTERS RUN LN, HUNTERSVILLE, NC, 28078","Match","Exact","16610 SUTTERS RUN LN, HUNTERSVILLE, NC, 28078",70551472,"L"
239023,"16610 TORO HILLS CT","SALINAS","CA",93908,36.602666506,-121.704780281,23,"16610 TORO HILLS CT, SALINAS, CA, 93908","Match","Exact","16610 TORO HILLS CT, SALINAS, CA, 93908",196829760,"L"
239024,"16610 WHITE PINE CT","CABLE","WI",54821,46.1993658850001,-91.2257788589999,24,"16610 WHITE PINE CT, CABLE, WI, 54821","Match","Exact","16610 WHITE PINE CT, CABLE, WI, 54821",194288293,"R"
239025,"16610 YVETTE WAY","CERRITOS","CA",90703,33.880034256,-118.057657611,25,"16610 YVETTE WAY, CERRITOS, CA, 90703","Match","Exact","16610 YVETTE WAY, CERRITOS, CA, 90703",141753394,"L"
239026,"16611 7TH ST","MONTEVERDE","FL",34756,28.5876623070001,-81.6747618759999,26,"16611 7TH ST, MONTEVERDE, FL, 34756","Match","Non_Exact","16611 7TH ST, MONTVERDE, FL, 34756",94118471,"L"
239027,"16611 E TIMBERWOLF LN","PARKER","CO",80134,39.4947507310001,-104.797186479,27,"16611 E TIMBERWOLF LN, PARKER, CO, 80134","Match","Exact","16611 E TIMBERWOLF LN, PARKER, CO, 80134",624995078,"L"
239028,"16611 EAST LAKE DR","LAKEVILLE","MN",55044,44.7083738600001,-93.1689196039999,28,"16611 EAST LAKE DR, LAKEVILLE, MN, 55044","Match","Exact","16611 E LAKE DR, LAKEVILLE, MN, 55044",634512980,"L"
239029,"16611 MOSSCREEK STREET","TUSTIN","CA",92782,NA,NA,29,"16611 MOSSCREEK STREET, TUSTIN, CA, 92782","No_Match",NA,NA,NA,NA
239030,"16611 NORWOOD DRIVE","TAMPA","FL",33624,28.109359866,-82.529126085,30,"16611 NORWOOD DRIVE, TAMPA, FL, 33624","Match","Exact","16611 NORWOOD DR, TAMPA, FL, 33624",104570545,"L"
239031,"16611 PEARLDALE AVENUE","CLEVELAND","OH",44135,41.441724019,-81.81366012,31,"16611 PEARLDALE AVENUE, CLEVELAND, OH, 44135","Match","Exact","16611 PEARLDALE AVE, CLEVELAND, OH, 44135",61102362,"L"
239032,"16611 S 46TH PL","PHOENIX","AZ",85058,33.295369371,-111.984335717,32,"16611 S 46TH PL, PHOENIX, AZ, 85058","Match","Non_Exact","16611 S 46TH PL, PHOENIX, AZ, 85048",128811369,"L"
239033,"16611 SE 31ST ST","BELLEVUE","WA",98008,47.58220426,-122.118028672,33,"16611 SE 31ST ST, BELLEVUE, WA, 98008","Match","Exact","16611 SE 31ST ST, BELLEVUE, WA, 98008",239779806,"R"
239034,"16611 TAMMANY MANOR RD","WILLIAMSPORT","MD",21795,39.613317083,-77.79488951,34,"16611 TAMMANY MANOR RD, WILLIAMSPORT, MD, 21795","Match","Exact","16611 TAMMANY MANOR RD, WILLIAMSPORT, MD, 21795",60786474,"L"
239035,"16611 TRUETOWN RD","MILLFIELD","OK",45761,NA,NA,35,"16611 TRUETOWN RD, MILLFIELD, OK, 45761","No_Match",NA,NA,NA,NA
239036,"16611 VERDIN ST NW","ANDOVER","MN",55304,45.2722195360001,-93.3261796739999,36,"16611 VERDIN ST NW, ANDOVER, MN, 55304","Match","Exact","16611 VERDIN ST NW, ANDOVER, MN, 55304",97511121,"R"
239037,"16611 VICTORY BLVD APT 202","VAN NUYS","CA",91406,34.186641116,-118.494980971,37,"16611 VICTORY BLVD APT 202, VAN NUYS, CA, 91406","Match","Exact","16611 VICTORY BLVD, VAN NUYS, CA, 91406",141556332,"R"
239038,"16611 VICTORY BLVD UNIT 317","LAKE BALBOA","CA",91406,34.186641116,-118.494980971,38,"16611 VICTORY BLVD UNIT 317, LAKE BALBOA, CA, 91406","Match","Exact","16611 VICTORY BLVD, LAKE BALBOA, CA, 91406",141556332,"R"
239039,"16612 CREEKSIDE DR","SONORA","CA",95370,38.017861468,-120.274659078,39,"16612 CREEKSIDE DR, SONORA, CA, 95370","Match","Exact","16612 CREEKSIDE DR, SONORA, CA, 95370",101453955,"L"
239040,"16612 FREDERICK CIR","OMAHA","NE",68130,41.2290745660001,-96.173784319,40,"16612 FREDERICK CIR, OMAHA, NE, 68130","Match","Exact","16612 FREDERICK CIR, OMAHA, NE, 68130",116992352,"L"
239041,"16612 GAZELEY ST","SANTA CLARITA","CA",91351,34.449493966,-118.426748951,41,"16612 GAZELEY ST, SANTA CLARITA, CA, 91351","Match","Exact","16612 GAZELEY ST, SANTA CLARITA, CA, 91351",142702706,"R"
239042,"16612 HOLLY TRAIL DRIVE","HOUSTON","TX",77058,29.5620105560001,-95.110296518,42,"16612 HOLLY TRAIL DRIVE, HOUSTON, TX, 77058","Match","Exact","16612 HOLLY TRAIL DR, HOUSTON, TX, 77058",96115831,"R"
239043,"16612 HWY 12 SW","COKATO","MN",55321,45.0803477960001,-94.227912053,43,"16612 HWY 12 SW, COKATO, MN, 55321","Match","Non_Exact","16612 US HWY 12 SW, COKATO, MN, 55321",640167056,"R"
239044,"16612 LUCILLE ST","OVERLAND PARK","KS",66221,38.826840077,-94.721327146,44,"16612 LUCILLE ST, OVERLAND PARK, KS, 66221","Match","Exact","16612 LUCILLE ST, OVERLAND PARK, KS, 66221",641599695,"R"
239045,"16612 WINTHROP","DETROIT","MI",48235,42.4115103760001,-83.2005585699999,45,"16612 WINTHROP, DETROIT, MI, 48235","Match","Non_Exact","16612 WINTHROP ST, DETROIT, MI, 48235",95423664,"R"
239046,"16613 BUCKHORN LN","SISTERS","OR",97759,44.295101377,-121.501800308,46,"16613 BUCKHORN LN, SISTERS, OR, 97759","Match","Non_Exact","16613 BUCK HORN LN, SISTERS, OR, 97759",152564568,"L"
239047,"16613 HEARTWOOD DRIVE","ROCKVILLE","MD",20855,39.128636843,-77.115330521,47,"16613 HEARTWOOD DRIVE, ROCKVILLE, MD, 20855","Match","Exact","16613 HEARTWOOD DR, ROCKVILLE, MD, 20855",646661240,"R"
239048,"16613 MALLORY DR","FONTANA","CA",92335,34.0743609150001,-117.441840424,48,"16613 MALLORY DR, FONTANA, CA, 92335","Match","Exact","16613 MALLORY DR, FONTANA, CA, 92335",144967383,"R"
239049,"16613 NICOLE RIDGE ROAD","SAN DIEGO","CA",92127,33.0152372160001,-117.126587524,49,"16613 NICOLE RIDGE ROAD, SAN DIEGO, CA, 92127","Match","Exact","16613 NICOLE RIDGE RD, SAN DIEGO, CA, 92127",645074470,"L"
239050,"16613 OLIVE ST","OMAHA","NE",68136,41.1852292090001,-96.17464559,50,"16613 OLIVE ST, OMAHA, NE, 68136","Match","Exact","16613 OLIVE ST, OMAHA, NE, 68136",217529893,"R"
239051,"16613 SE LILLIAN WAY","PORTLAND","OR",97236,45.4908643860001,-122.491947855,51,"16613 SE LILLIAN WAY, PORTLAND, OR, 97236","Match","Exact","16613 SE LILLIAN WAY, PORTLAND, OR, 97236",157524095,"R"
239052,"16614 4TH AVENUE CT E","SPANAWAY","WA",98387,47.1077273940001,-122.426020548,52,"16614 4TH AVENUE CT E, SPANAWAY, WA, 98387","Match","Exact","16614 4TH AVENUE CT E, SPANAWAY, WA, 98387",184760158,"L"
239053,"16614 EASTBURN STREET","DETROIT","MI",48205,42.445695266,-82.948348357,53,"16614 EASTBURN STREET, DETROIT, MI, 48205","Match","Exact","16614 EASTBURN ST, DETROIT, MI, 48205",95467602,"R"
239054,"16614 HEARTY ORANGE DRIVE","CYPRESS","TX",77433,NA,NA,54,"16614 HEARTY ORANGE DRIVE, CYPRESS, TX, 77433","No_Match",NA,NA,NA,NA
239055,"16614 MALAGA HILLS DRIVE","ROUND ROCK","TX",78681,30.5033706470001,-97.737431787,55,"16614 MALAGA HILLS DRIVE, ROUND ROCK, TX, 78681","Match","Exact","16614 MALAGA HILLS DR, ROUND ROCK, TX, 78681",126482565,"R"
239056,"16614 MONOCACY BLVD","HUNTERSVILLE","NC",28078,35.4066152020001,-80.810947238,56,"16614 MONOCACY BLVD, HUNTERSVILLE, NC, 28078","Match","Exact","16614 MONOCACY BV, HUNTERSVILLE, NC, 28078",648376683,"R"
239057,"16614 W 159TH ST    301","LOCKPORT","IL",60441,41.5978881940001,-88.022150397,57,"16614 W 159TH ST    301, LOCKPORT, IL, 60441","Match","Non_Exact","16614 W 159TH ST, LOCKPORT, IL, 60441",653858834,"L"
239058,"16615 CONRAD ROAD","BRIGHTON","IL",62012,39.021700896,-90.1527579899999,58,"16615 CONRAD ROAD, BRIGHTON, IL, 62012","Match","Exact","16615 CONRAD RD, BRIGHTON, IL, 62012",97884610,"R"
239059,"16615 DOBSON","SOUTH HOLLAND","IL",60473,41.5931868590001,-87.592143661,59,"16615 DOBSON, SOUTH HOLLAND, IL, 60473","Match","Non_Exact","16615 DOBSON AVE, SOUTH HOLLAND, IL, 60473",112381451,"L"
239060,"16615 E GUNSIGHT DR","FOUNTAIN HILLS","AZ",85628,33.5993364880001,-111.721358824,60,"16615 E GUNSIGHT DR, FOUNTAIN HILLS, AZ, 85628","Match","Non_Exact","16615 E GUNSIGHT DR, FOUNTAIN HLS, AZ, 85268",128190800,"R"
239061,"16615 HEATHER GREENS CIRCLE","SPOTSYLVANIA","VA",22553,NA,NA,61,"16615 HEATHER GREENS CIRCLE, SPOTSYLVANIA, VA, 22553","No_Match",NA,NA,NA,NA
239062,"16615 HODGEFIELD LANE","HOUSTON","TX",77090,30.0101762,-95.438302321,62,"16615 HODGEFIELD LANE, HOUSTON, TX, 77090","Match","Exact","16615 HODGEFIELD LN, HOUSTON, TX, 77090",624748622,"R"
239063,"16615 HWY 70","BRINKLEY","AR",72021,34.9076869400001,-91.124968514,63,"16615 HWY 70, BRINKLEY, AR, 72021","Match","Non_Exact","16615 US HWY 70, BRINKLEY, AR, 72021",10921380,"R"
239064,"16615 LA SALLE","DETROIT","MI",48221,42.413575908,-83.125583574,64,"16615 LA SALLE, DETROIT, MI, 48221","Match","Non_Exact","16615 LA SALLE BLVD, DETROIT, MI, 48221",95461568,"L"
239065,"16615 MARSHFIELD","MARKHAM","IL",60428,41.587913665,-87.657087165,65,"16615 MARSHFIELD, MARKHAM, IL, 60428","Match","Non_Exact","16615 MARSHFIELD AVE, MARKHAM, IL, 60428",111706031,"L"
239066,"16615 N QUADRANT COURT","CROSBY","TX",77532,29.922598437,-95.0922795829999,66,"16615 N QUADRANT COURT, CROSBY, TX, 77532","Match","Exact","16615 N QUADRANT CT, CROSBY, TX, 77532",96051714,"L"
239067,"16615 NORTHWEST OAKRIDGE DRIVE","PORTLAND","OR",97229,45.5548793820001,-122.847654899,67,"16615 NORTHWEST OAKRIDGE DRIVE, PORTLAND, OR, 97229","Match","Exact","16615 NW OAKRIDGE DR, PORTLAND, OR, 97229",158217443,"L"
239068,"16615 QUAIL PRAIRIE DR","MISSOURI CITY","TX",77489,29.5856274560001,-95.5140256889999,68,"16615 QUAIL PRAIRIE DR, MISSOURI CITY, TX, 77489","Match","Exact","16615 QUAIL PRAIRIE DR, MISSOURI CITY, TX, 77489",78271151,"L"
239069,"16615 SHAFTSBURY AVE","DETROIT","MI",48219,42.4108873850001,-83.230309456,69,"16615 SHAFTSBURY AVE, DETROIT, MI, 48219","Match","Exact","16615 SHAFTSBURY AVE, DETROIT, MI, 48219",95422358,"L"
239070,"16615 SPOTSWOOD TRAIL","RUCKERSVILLE","VA",22968,38.220481455,-78.345292125,70,"16615 SPOTSWOOD TRAIL, RUCKERSVILLE, VA, 22968","Match","Exact","16615 SPOTSWOOD TRL, RUCKERSVILLE, VA, 22968",29873803,"R"
239071,"16615 WINDSOR PARK DRIVE","LUTZ","FL",33549,28.1088846050001,-82.455917685,71,"16615 WINDSOR PARK DRIVE, LUTZ, FL, 33549","Match","Exact","16615 WINDSOR PARK DR, LUTZ, FL, 33549",104618034,"R"
239072,"16616 CONNER CREEK LN","HOUSTON","TX",77044,29.9642568470001,-95.166711538,72,"16616 CONNER CREEK LN, HOUSTON, TX, 77044","Match","Non_Exact","16616 CONNER CRREEK LN, HOUSTON, TX, 77044",645132757,"R"
239073,"16616 E TUDOR STREET","COVINA","CA",91722,34.101783562,-117.921748646,73,"16616 E TUDOR STREET, COVINA, CA, 91722","Match","Exact","16616 E TUDOR ST, COVINA, CA, 91722",141708658,"R"
239074,"16616 GLENDALE AVE","CLEVELAND","OH",44128,41.4534801710001,-81.5639311259999,74,"16616 GLENDALE AVE, CLEVELAND, OH, 44128","Match","Exact","16616 GLENDALE AVE, CLEVELAND, OH, 44128",61127505,"R"
239075,"16616 ISOSCELES AVE","LAKEVILLE","MN",55044,44.7076288230001,-93.263662602,75,"16616 ISOSCELES AVE, LAKEVILLE, MN, 55044","Match","Exact","16616 ISOSCELES AVE, LAKEVILLE, MN, 55044",37931436,"R"
239076,"16616 LIVING ROCK COURT","CHINO HILLS","CA",91709,33.951555356,-117.681553951,76,"16616 LIVING ROCK COURT, CHINO HILLS, CA, 91709","Match","Exact","16616 LIVING ROCK CT, CHINO HILLS, CA, 91709",145224368,"L"
239077,"16616 VILLALENDA DE AVILLA","TAMPA","FL",33618,28.1083446440001,-82.462973472,77,"16616 VILLALENDA DE AVILLA, TAMPA, FL, 33618","Match","Non_Exact","16616 VILLALENDA DE AVILA, TAMPA, FL, 33613",104639066,"R"
239078,"16616 W 146TH STREET","OLATHE","KS",66062,38.8643254720001,-94.7767011829999,78,"16616 W 146TH STREET, OLATHE, KS, 66062","Match","Exact","16616 W 146TH ST, OLATHE, KS, 66062",91284208,"R"
239079,"16616 W Barwick Dr","Surprise",NA,NA,33.754602844,-112.419032287,79,"16616 W Barwick Dr, Surprise, , ","Match","Exact","16616 W BARWICK DR, SURPRISE, AZ, 85387",642858469,"R"
239080,"16617 26TH DR SE","BOTHELL","WA",98012,47.8471019890001,-122.197086255,80,"16617 26TH DR SE, BOTHELL, WA, 98012","Match","Exact","16617 26TH DR SE, BOTHELL, WA, 98012",187805251,"R"
239081,"16617 77TH PL N","MAPLE GROVE","MN",55311,45.0961332320001,-93.491194661,81,"16617 77TH PL N, MAPLE GROVE, MN, 55311","Match","Exact","16617 77TH PL N, MAPLE GROVE, MN, 55311",43857540,"R"
239082,"16617 ALEXANDER MANOR DR","SILVER SPRING","MD",20905,39.133094681,-77.0180637989999,82,"16617 ALEXANDER MANOR DR, SILVER SPRING, MD, 20905","Match","Exact","16617 ALEXANDER MANOR DR, SILVER SPRING, MD, 20905",624834437,"R"
239083,"16617 CAULKS CREEK","WILDWOOD","MO",63005,38.6403226960001,-90.611937398,83,"16617 CAULKS CREEK, WILDWOOD, MO, 63005","Match","Non_Exact","16617 CAULKS CREEK RIDGE, WILDWOOD, MO, 63005",100109864,"R"
239084,"16617 DAVIS STREET","EAGLE RIVER","AK",99577,61.3336051220001,-149.572514709,84,"16617 DAVIS STREET, EAGLE RIVER, AK, 99577","Match","Exact","16617 DAVIS ST, EAGLE RIVER, AK, 99577",190792376,"R"
239085,"16617 JOHNSON DRIVE","WILLIAMSPORT","MD",21795,39.6076307660001,-77.7940366669999,85,"16617 JOHNSON DRIVE, WILLIAMSPORT, MD, 21795","Match","Exact","16617 JOHNSON DR, WILLIAMSPORT, MD, 21795",60786531,"L"
239086,"16617 PIONEER BLVD","ARTESIA","CA",90701,33.880016964,-118.082353064,86,"16617 PIONEER BLVD, ARTESIA, CA, 90701","Match","Exact","16617 PIONEER BLVD, ARTESIA, CA, 90701",141743826,"R"
239087,"16618 BRIGADOON DR","TAMPA","FL",33618,28.111759604,-82.4938371869999,87,"16618 BRIGADOON DR, TAMPA, FL, 33618","Match","Exact","16618 BRIGADOON DR, TAMPA, FL, 33618",104662044,"L"
239088,"16618 FLYING JIB ROAD","CORNELIUS","FL",28031,NA,NA,88,"16618 FLYING JIB ROAD, CORNELIUS, FL, 28031","No_Match",NA,NA,NA,NA
239089,"16618 FLYING JIB ROAD","CORNELIUS","NC",28031,35.470186342,-80.936380145,89,"16618 FLYING JIB ROAD, CORNELIUS, NC, 28031","Match","Exact","16618 FLYING JIB RD, CORNELIUS, NC, 28031",70530047,"R"
239090,"16618 FLYING JIB ROAD","CORNELIUS","NC",28032,35.470186342,-80.936380145,90,"16618 FLYING JIB ROAD, CORNELIUS, NC, 28032","Match","Non_Exact","16618 FLYING JIB RD, CORNELIUS, NC, 28031",70530047,"R"
239091,"16619 ANSLEY WALK LN","CHARLOTTE","NC",28277,35.021136712,-80.854734704,91,"16619 ANSLEY WALK LN, CHARLOTTE, NC, 28277","Match","Exact","16619 ANSLEY WALK LN, CHARLOTTE, NC, 28277",70561092,"L"
239092,"16619 LARCH WAY APT F201","LYNNWOOD","WA",98037,47.847222361,-122.246682204,92,"16619 LARCH WAY APT F201, LYNNWOOD, WA, 98037","Match","Exact","16619 LARCH WAY, LYNNWOOD, WA, 98037",608929844,"R"
239093,"16619 LARCH WAY APT F303","RENTON","WA",98037,47.847222361,-122.246682204,93,"16619 LARCH WAY APT F303, RENTON, WA, 98037","Match","Non_Exact","16619 LARCH WAY, LYNNWOOD, WA, 98037",608929844,"R"
239094,"16619 SCHAEFER","DETROIT","MI",48235,42.4137568830001,-83.179682519,94,"16619 SCHAEFER, DETROIT, MI, 48235","Match","Non_Exact","16619 SCHAEFER HWY, DETROIT, MI, 48235",95424872,"L"
239095,"16619 W 147TH TERRACE","OLATHE","KS",66062,38.8611783700001,-94.778922505,95,"16619 W 147TH TERRACE, OLATHE, KS, 66062","Match","Exact","16619 W 147TH TER, OLATHE, KS, 66062",91284163,"R"
239096,"1662 13TH AVENUE SE","SIOUX CENTER","IA",51250,43.0609277770001,-96.155532454,96,"1662 13TH AVENUE SE, SIOUX CENTER, IA, 51250","Match","Exact","1662 13TH AVE SE, SIOUX CENTER, IA, 51250",646392494,"R"
239097,"1662 BLOOMFIELD PLACE DRIVE","BLOOMFIELD HILLS","MI",48302,42.60662003,-83.304375649,97,"1662 BLOOMFIELD PLACE DRIVE, BLOOMFIELD HILLS, MI, 48302","Match","Exact","1662 BLOOMFIELD PLACE DR, BLOOMFIELD HILLS, MI, 48302",69764886,"R"
239098,"1662 BULLING CREEK RD","PENROSE","NC",28766,35.24959217,-82.5954445419999,98,"1662 BULLING CREEK RD, PENROSE, NC, 28766","Match","Exact","1662 BULLING CREEK RD, PENROSE, NC, 28766",634821871,"L"
239099,"1662 BYBEE RD","LOUI","VA",23093,37.9488018550001,-78.183277582,99,"1662 BYBEE RD, LOUI, VA, 23093","Match","Non_Exact","1662 BYBEE RD, LOUISA, VA, 23093",73788445,"R"
239100,"1662 COLLEGE TERRACE","MURRAY","KY",42071,36.6142272270001,-88.328631151,100,"1662 COLLEGE TERRACE, MURRAY, KY, 42071","Match","Exact","1662 COLLEGE TER, MURRAY, KY, 42071",31708916,"R"
239101,"1662 COLUSA AVE","DAVIS","CA",95616,38.5534269730001,-121.768955185,101,"1662 COLUSA AVE, DAVIS, CA, 95616","Match","Exact","1662 COLUSA AVE, DAVIS, CA, 95616",67695998,"R"
239102,"1662 COMMONWEALTH AVE","BOSTON","MA",2135,42.341820811,-71.144817301,102,"1662 COMMONWEALTH AVE, BOSTON, MA, 2135","Match","Exact","1662 COMMONWEALTH AVE, BOSTON, MA, 02135",640716140,"L"
239103,"1662 DELIA DRIVE","DECATUR","GA",30033,33.8232128230001,-84.256231336,103,"1662 DELIA DRIVE, DECATUR, GA, 30033","Match","Exact","1662 DELIA DR, DECATUR, GA, 30033",23362229,"L"
239104,"1662 E EUCLID AVE","CENTENNIAL","CO",80121,39.599276144,-104.969237748,104,"1662 E EUCLID AVE, CENTENNIAL, CO, 80121","Match","Exact","1662 E EUCLID AVE, CENTENNIAL, CO, 80121",177337684,"R"
239105,"1662 EASTERN PARKWAY 2ND FLOOR","BROOKLYN","NY",11233,40.6720770760001,-73.91363176,105,"1662 EASTERN PARKWAY 2ND FLOOR, BROOKLYN, NY, 11233","Match","Exact","1662 EASTERN PKWY, BROOKLYN, NY, 11233",59083771,"R"
239106,"1662 EISENHOWER AVENUE","MELBOURNE","FL",32935,28.1225698970001,-80.6468829419999,106,"1662 EISENHOWER AVENUE, MELBOURNE, FL, 32935","Match","Exact","1662 EISENHOWER AVE, MELBOURNE, FL, 32935",93902500,"R"
239107,"1662 ELM STREET","MANCHESTER","NH",3101,43.0023155100001,-71.46468322,107,"1662 ELM STREET, MANCHESTER, NH, 3101","Match","Exact","1662 ELM ST, MANCHESTER, NH, 03101",113546715,"L"
239108,"1662 FONTANA DR","ST. LOUIS","MO",63146,38.6927374000001,-90.456545734,108,"1662 FONTANA DR, ST. LOUIS, MO, 63146","Match","Exact","1662 FONTANA DR, SAINT LOUIS, MO, 63146",100194173,"L"
239109,"1662 GRASSLAND DRIVE","BROWNSBURG","IN",46112,39.8194207280001,-86.37523208,109,"1662 GRASSLAND DRIVE, BROWNSBURG, IN, 46112","Match","Exact","1662 GRASSLAND DR, BROWNSBURG, IN, 46112",89235184,"R"
239110,"1662 GRESHAM CT","ROCK HILL","SC",29730,34.8770583990001,-81.0272171829999,110,"1662 GRESHAM CT, ROCK HILL, SC, 29730","Match","Exact","1662 GRESHAM CT, ROCK HILL, SC, 29730",19818668,"R"
239111,"1662 GUTHRIE ST","VIRGINIA BEACH","VA",23464,36.7878446650001,-76.1840237229999,111,"1662 GUTHRIE ST, VIRGINIA BEACH, VA, 23464","Match","Exact","1662 GUTHRIE ST, VA BCH, VA, 23464",122264332,"R"
239112,"1662 HIDEAWAY COURT","LONGMONT","CO",80503,40.138860751,-105.169536475,112,"1662 HIDEAWAY COURT, LONGMONT, CO, 80503","Match","Exact","1662 HIDEAWAY CT, LONGMONT, CO, 80503",647478570,"R"
239113,"1662 HUNTERS WAY","BOZEMAN","MT",59718,45.6960427450001,-111.07804589,113,"1662 HUNTERS WAY, BOZEMAN, MT, 59718","Match","Exact","1662 HUNTERS WAY, BOZEMAN, MT, 59718",649797135,"R"
239114,"1662 INCA DRIVE","LARAMIE","WY",82072,41.3260105640001,-105.548547908,114,"1662 INCA DRIVE, LARAMIE, WY, 82072","Match","Exact","1662 INCA DR, LARAMIE, WY, 82072",168748617,"L"
239115,"1662 IROQUOIS RD","ROCKLIN","CA",95765,38.822681603,-121.275042253,115,"1662 IROQUOIS RD, ROCKLIN, CA, 95765","Match","Exact","1662 IROQUOIS RD, ROCKLIN, CA, 95765",106807963,"R"
239116,"1662 ISABELLA PKWY","CHASKA","MN",55318,44.824856841,-93.634838163,116,"1662 ISABELLA PKWY, CHASKA, MN, 55318","Match","Exact","1662 ISABELLA PKWY, CHASKA, MN, 55318",235840476,"L"
239117,"1662 KEATON LN","COLORADO SPRINGS","CO",80909,38.854885863,-104.749066614,117,"1662 KEATON LN, COLORADO SPRINGS, CO, 80909","Match","Exact","1662 KEATON LN, COLORADO SPRINGS, CO, 80909",105522368,"L"
239118,"1662 LINCOLN COURT 305","MIAMI BEACH","FL",33139,25.790972663,-80.1441934759999,118,"1662 LINCOLN COURT 305, MIAMI BEACH, FL, 33139","Match","Exact","1662 LINCOLN CT, MIAMI BEACH, FL, 33139",116249014,"L"
239119,"1662 LURTING AVE","BRONX","NY",10461,40.84715771,-73.852259272,119,"1662 LURTING AVE, BRONX, NY, 10461","Match","Exact","1662 LURTING AVE, BRONX, NY, 10461",80305288,"R"
239120,"1662 MALLARD COURT","JONESBORO","GA",30238,33.4601181080001,-84.339172119,120,"1662 MALLARD COURT, JONESBORO, GA, 30238","Match","Exact","1662 MALLARD CT, JONESBORO, GA, 30238",635520684,"L"
239121,"1662 MALLARD COURT","MCDONOUGH","GA",30253,NA,NA,121,"1662 MALLARD COURT, MCDONOUGH, GA, 30253","No_Match",NA,NA,NA,NA
239122,"1662 MT OLIVET CHURCH RD","GARFIELD GA",NA,NA,NA,NA,122,"1662 MT OLIVET CHURCH RD, GARFIELD GA, , ","No_Match",NA,NA,NA,NA
239123,"1662 N 1600TH AVE","FOWLER","IL",62338,39.9914869560001,-91.190085579,123,"1662 N 1600TH AVE, FOWLER, IL, 62338","Match","Exact","1662 N 1600TH AVE, FOWLER, IL, 62338",35068212,"L"
239124,"1662 NE 146 ST","MIAMI","FL",33181,25.910197607,-80.165883497,124,"1662 NE 146 ST, MIAMI, FL, 33181","Match","Exact","1662 NE 146TH ST, MIAMI, FL, 33181",116036439,"R"
239125,"1662 OHAWAI PL","HONOLULU","HI",96821,21.2822510230001,-157.765998545,125,"1662 OHAWAI PL, HONOLULU, HI, 96821","Match","Exact","1662 OHAWAI PL, HONOLULU, HI, 96821",203243597,"L"
239126,"1662 OLDE BEECHWOOD COURT","MEBANE","NC",27302,36.0556513510001,-79.27167747,126,"1662 OLDE BEECHWOOD COURT, MEBANE, NC, 27302","Match","Exact","1662 OLDE BEECHWOOD CT, MEBANE, NC, 27302",617454010,"L"
239127,"1662 ONTARIO DR APT 1","SUNNYVALE","CA",94087,37.3390294550001,-122.039739107,127,"1662 ONTARIO DR APT 1, SUNNYVALE, CA, 94087","Match","Exact","1662 ONTARIO DR, SUNNYVALE, CA, 94087",614039715,"L"
239128,"1662 PENNINGTON DR","ONTARIO","OR",97914,44.010877468,-116.978917189,128,"1662 PENNINGTON DR, ONTARIO, OR, 97914","Match","Exact","1662 PENNINGTON DR, ONTARIO, OR, 97914",138643320,"L"
239129,"1662 PROSPECT PL","BROOKLYN","NY",11233,40.672741241,-73.9213606019999,129,"1662 PROSPECT PL, BROOKLYN, NY, 11233","Match","Exact","1662 PROSPECT PL, BROOKLYN, NY, 11233",642653808,"R"
239130,"1662 RIVERWIND DRIVE  APT C","COLUMBIA","SC",29210,34.040737897,-81.078403274,130,"1662 RIVERWIND DRIVE  APT C, COLUMBIA, SC, 29210","Match","Exact","1662 RIVERWIND DR, COLUMBIA, SC, 29210",604766654,"L"
239131,"1662 RUGBY AVENUE","COLLEGE PARK","GA",30337,33.662792139,-84.444386188,131,"1662 RUGBY AVENUE, COLLEGE PARK, GA, 30337","Match","Exact","1662 RUGBY AVE, COLLEGE PARK, GA, 30337",17348460,"L"
239132,"1662 S 2000 WEST SUITE 1A","SYRACUSE","UT",84065,NA,NA,132,"1662 S 2000 WEST SUITE 1A, SYRACUSE, UT, 84065","No_Match",NA,NA,NA,NA
239133,"1662 S 350 W","LEHI","UT",84043,NA,NA,133,"1662 S 350 W, LEHI, UT, 84043","No_Match",NA,NA,NA,NA
239134,"1662 S VRAIN ST","DENVER","CO",80219,39.6864030560001,-105.046125385,134,"1662 S VRAIN ST, DENVER, CO, 80219","Match","Exact","1662 S VRAIN ST, DENVER, CO, 80219",177327116,"L"
239135,"1662 STONEWOOD DRIVE","LOWELL","MI",49331,42.9355755830001,-85.394253958,135,"1662 STONEWOOD DRIVE, LOWELL, MI, 49331","Match","Non_Exact","1662 STONEWOOD DR SE, LOWELL, MI, 49331",12440626,"R"
239136,"1662 SWALLOWTAIL LANE","SANFORD","FL",32771,28.8299671990001,-81.3606636809999,136,"1662 SWALLOWTAIL LANE, SANFORD, FL, 32771","Match","Exact","1662 SWALLOWTAIL LN, SANFORD, FL, 32771",633978186,"L"
239137,"1662 VARNUM PL NE","WASHINGTON","DC",20017,38.9434184520001,-76.9815573349999,137,"1662 VARNUM PL NE, WASHINGTON, DC, 20017","Match","Exact","1662 VARNUM PL NE, WASHINGTON, DC, 20017",76228404,"L"
239138,"1662 VICTORIA AVENUE","LAKEWOOD","OH",44107,41.478389344,-81.801400535,138,"1662 VICTORIA AVENUE, LAKEWOOD, OH, 44107","Match","Exact","1662 VICTORIA AVE, LAKEWOOD, OH, 44107",61100258,"R"
239139,"1662 VILLAGE COURT","GASTONIA","NC",28054,35.225883719,-81.140700607,139,"1662 VILLAGE COURT, GASTONIA, NC, 28054","Match","Exact","1662 VILLAGE CT, GASTONIA, NC, 28054",70399477,"R"
239140,"1662 W 214TH STREET","TORRANCE","CA",90501,33.834465283,-118.308088205,140,"1662 W 214TH STREET, TORRANCE, CA, 90501","Match","Exact","1662 W 214TH ST, TORRANCE, CA, 90501",642861314,"L"
239141,"1662 W ARMSTRONG WAY","CHANDLER","AZ",85286,33.280026139,-111.870840774,141,"1662 W ARMSTRONG WAY, CHANDLER, AZ, 85286","Match","Exact","1662 W ARMSTRONG WAY, CHANDLER, AZ, 85286",128805228,"R"
239142,"1662 YATES AVENUE","MARSHALLTOWN","IA",50158,42.1136009940001,-92.805655718,142,"1662 YATES AVENUE, MARSHALLTOWN, IA, 50158","Match","Exact","1662 YATES AVE, MARSHALLTOWN, IA, 50158",647766556,"R"
239143,"16620 130TH AVE NW","THIEF RIVER FALLS","MN",56701,NA,NA,143,"16620 130TH AVE NW, THIEF RIVER FALLS, MN, 56701","No_Match",NA,NA,NA,NA
239144,"16620 77TH STREET","SOUTH HAVEN","MI",49090,42.3575963590001,-86.292664329,144,"16620 77TH STREET, SOUTH HAVEN, MI, 49090","Match","Exact","16620 77TH ST, SOUTH HAVEN, MI, 49090",34766062,"L"
239145,"16620 AMISTAD AVE","PROSPER","TX",75078,33.2368473870001,-96.847202293,145,"16620 AMISTAD AVE, PROSPER, TX, 75078","Match","Exact","16620 AMISTAD AVE, PROSPER, TX, 75078",641487249,"R"
239146,"16620 CHERRY HILL DR","BROOKFIELD","WI",53005,NA,NA,146,"16620 CHERRY HILL DR, BROOKFIELD, WI, 53005","No_Match",NA,NA,NA,NA
239147,"16620 CO RT 84","ADAMS","NY",13605,43.811219796,-76.054123057,147,"16620 CO RT 84, ADAMS, NY, 13605","Match","Non_Exact","16620 CO RD 84, ADAMS, NY, 13605",647434521,"R"
239148,"16620 CR 3534","ADA","OK",74820,34.7430998880001,-96.713877732,148,"16620 CR 3534, ADA, OK, 74820","Match","Exact","16620 CO RD 3534, ADA, OK, 74820",651599609,"R"
239149,"16620 FIREBRICK DR","PARKER","CO",80134,39.5089882680001,-104.796132294,149,"16620 FIREBRICK DR, PARKER, CO, 80134","Match","Exact","16620 FIREBRICK DR, PARKER, CO, 80134",630123136,"R"
239150,"16620 LIBERTY CIR UNIT 1","ORLAND PARK","IL",60467,41.5881934390001,-87.859607997,150,"16620 LIBERTY CIR UNIT 1, ORLAND PARK, IL, 60467","Match","Exact","16620 LIBERTY CIR, ORLAND PARK, IL, 60467",644233448,"L"
239151,"16620 NW 1ST ST","PEMBROKE PINES","FL",33028,26.0086961270001,-80.3673908659999,151,"16620 NW 1ST ST, PEMBROKE PINES, FL, 33028","Match","Exact","16620 NW 1ST ST, PEMBROKE PINES, FL, 33028",114781419,"L"
239152,"16620 STROILWAY ST","HUDSON","CO",80642,39.9973589190001,-104.61269414,152,"16620 STROILWAY ST, HUDSON, CO, 80642","Match","Exact","16620 STROILWAY ST, HUDSON, CO, 80642",627997911,"L"
239153,"16621 ADMIRAL ST","FRASER","MI",48026,42.533737914,-82.9529473869999,153,"16621 ADMIRAL ST, FRASER, MI, 48026","Match","Exact","16621 ADMIRAL ST, FRASER, MI, 48026",110675930,"L"
239154,"16621 AKRON ST","PACIFIC PALISADES","CA",90272,34.0503588780001,-118.544033453,154,"16621 AKRON ST, PACIFIC PALISADES, CA, 90272","Match","Exact","16621 AKRON ST, PACIFIC PALISADES, CA, 90272",141557385,"R"
239155,"16621 E INDIANA AVE APT B103","SPOKANE VALLEY","WA",99216,47.6691684400001,-117.181478196,155,"16621 E INDIANA AVE APT B103, SPOKANE VALLEY, WA, 99216","Match","Non_Exact","16621 E INDIANA AVE, SPOKANE VALLEY, WA, 99216",641093231,"L"
239156,"16621 HWY 36 S","WALLIS","TX",77485,NA,NA,156,"16621 HWY 36 S, WALLIS, TX, 77485","No_Match",NA,NA,NA,NA
239157,"16621 IREDELL ST","BRIGHTON","CO",80603,39.9966793200001,-104.637235481,157,"16621 IREDELL ST, BRIGHTON, CO, 80603","Match","Exact","16621 IREDELL ST, BRIGHTON, CO, 80603",177423970,"L"
239158,"16621 N 91ST ST STE 103","SCOTTSDALE","AZ",85260,33.6374952910001,-111.884909736,158,"16621 N 91ST ST STE 103, SCOTTSDALE, AZ, 85260","Match","Non_Exact","16621 N 91ST ST, SCOTTSDALE, AZ, 85260",243973730,"L"
239159,"16621 OLD HOUSTON RD","CONROE","TX",77302,30.20958246,-95.304539915,159,"16621 OLD HOUSTON RD, CONROE, TX, 77302","Match","Exact","16621 OLD HOUSTON RD, CONROE, TX, 77302",79313083,"R"
239160,"16621 PREST ST","DETROIT","MI",48235,42.4124140170001,-83.197978247,160,"16621 PREST ST, DETROIT, MI, 48235","Match","Exact","16621 PREST ST, DETROIT, MI, 48235",95424568,"L"
239161,"16621 S MAIN ST","PLEASANTVILLE","PA",16341,NA,NA,161,"16621 S MAIN ST, PLEASANTVILLE, PA, 16341","No_Match",NA,NA,NA,NA
239162,"16621 SPENCE PARK LANE","PROSPER","TX",75078,33.2401114780001,-96.847408515,162,"16621 SPENCE PARK LANE, PROSPER, TX, 75078","Match","Exact","16621 SPENCE PARK LN, PROSPER, TX, 75078",646946618,"L"
239163,"16621 W 139TH ST APT 407","OLATHE","KS",66062,38.87557953,-94.7788355609999,163,"16621 W 139TH ST APT 407, OLATHE, KS, 66062","Match","Non_Exact","16621 W 139TH ST, OLATHE, KS, 66062",91333910,"R"
239164,"16621","MAPLE GROVE","MN",55311,NA,NA,164,"16621, MAPLE GROVE, MN, 55311","No_Match",NA,NA,NA,NA
239165,"16622 84TH PLACE N","MAPLE GROVE","MN",55311,45.1083471950001,-93.4905048909999,165,"16622 84TH PLACE N, MAPLE GROVE, MN, 55311","Match","Exact","16622 84TH PL N, MAPLE GROVE, MN, 55311",43845270,"R"
239166,"16622 BUCHANEN STREET","GRAND HAVEN","MI",49417,42.986628927,-86.199071341,166,"16622 BUCHANEN STREET, GRAND HAVEN, MI, 49417","Match","Non_Exact","16622 BUCHANAN ST, GRAND HAVEN, MI, 49417",642646047,"R"
239167,"16622 DAVIS CUP LANE","LITTLE ROCK","AR",72210,34.666156293,-92.4346411339999,167,"16622 DAVIS CUP LANE, LITTLE ROCK, AR, 72210","Match","Exact","16622 DAVIS CUP LN, LITTLE ROCK, AR, 72210",83541467,"L"
239168,"16622 E 48TH ST","TULSA","OK",74134,36.094794646,-95.79177307,168,"16622 E 48TH ST, TULSA, OK, 74134","Match","Exact","16622 E 48TH ST, TULSA, OK, 74134",624659493,"L"
239169,"16622 EARLY LANGE","EAST GARRISON","CA",93933,NA,NA,169,"16622 EARLY LANGE, EAST GARRISON, CA, 93933","No_Match",NA,NA,NA,NA
239170,"16622 HAVASU DRIVE","CYPRESS","TX",77433,NA,NA,170,"16622 HAVASU DRIVE, CYPRESS, TX, 77433","No_Match",NA,NA,NA,NA
239171,"16622 SUSSEX STREET","DETROIT","MI",48235,42.4124850530001,-83.1954476559999,171,"16622 SUSSEX STREET, DETROIT, MI, 48235","Match","Exact","16622 SUSSEX ST, DETROIT, MI, 48235",95424574,"R"
239172,"16623 95TH AVE CT E","PUYALLUP","WA",98375,47.108008193,-122.302143792,172,"16623 95TH AVE CT E, PUYALLUP, WA, 98375","Match","Exact","16623 95TH AVENUE CT E, PUYALLUP, WA, 98375",184673805,"R"
239173,"16623 AREZO COURT","MONTVERDE","FL",34756,28.5749449460001,-81.672669828,173,"16623 AREZO COURT, MONTVERDE, FL, 34756","Match","Exact","16623 AREZO CT, MONTVERDE, FL, 34756",640082873,"R"
239174,"16623 BERKSHIRE FOREST DR","HOUSTON","TX",77095,29.9108475350001,-95.662610479,174,"16623 BERKSHIRE FOREST DR, HOUSTON, TX, 77095","Match","Exact","16623 BERKSHIRE FOREST DR, HOUSTON, TX, 77095",631458003,"R"
239175,"16623 BURCLREEK","HOUSTON","TX",77084,NA,NA,175,"16623 BURCLREEK, HOUSTON, TX, 77084","No_Match",NA,NA,NA,NA
239176,"16623 BURLCREEK","HOUSTON","TX",77084,29.8718834790001,-95.6604812319999,176,"16623 BURLCREEK, HOUSTON, TX, 77084","Match","Non_Exact","16623 BURLCREEK ST, HOUSTON, TX, 77084",96157020,"L"
239177,"16623 EAST LASER DRIVE NO 1","FOUNTAIN HILLS","AZ",85268,33.57315713,-111.722368011,177,"16623 EAST LASER DRIVE NO 1, FOUNTAIN HILLS, AZ, 85268","Match","Non_Exact","16623 E LASER DR, FOUNTAIN HILLS, AZ, 85268",642857159,"R"
239178,"16623 EVERGREEN FOREST DRIVE","WILDWOOD","MO",63011,38.5884086630001,-90.629426757,178,"16623 EVERGREEN FOREST DRIVE, WILDWOOD, MO, 63011","Match","Exact","16623 EVERGREEN FOREST DR, WILDWOOD, MO, 63011",100168058,"R"
239179,"16623 KIMBANK","SOUTH HOLLAND","IL",60098,NA,NA,179,"16623 KIMBANK, SOUTH HOLLAND, IL, 60098","No_Match",NA,NA,NA,NA
239180,"16623 OLD FAYETTE ROAD","NORTHPORT","AL",35475,33.3959191070001,-87.640251604,180,"16623 OLD FAYETTE ROAD, NORTHPORT, AL, 35475","Match","Exact","16623 OLD FAYETTE RD, NORTHPORT, AL, 35475",619850472,"R"
239181,"16623 ROYAL PALM DRIVE","GROVELAND","FL",34736,28.589521844,-81.833130107,181,"16623 ROYAL PALM DRIVE, GROVELAND, FL, 34736","Match","Exact","16623 ROYAL PALM DR, GROVELAND, FL, 34736",94167832,"R"
239182,"16623 WESTGLEN FARMS DR","BALLWIN","MO",63011,38.5918126380001,-90.6261859099999,182,"16623 WESTGLEN FARMS DR, BALLWIN, MO, 63011","Match","Exact","16623 WESTGLEN FARMS DR, BALLWIN, MO, 63011",628733308,"L"
239183,"16624 EMERALD AVE","HARVEY","IL",60426,41.587977675,-87.635202307,183,"16624 EMERALD AVE, HARVEY, IL, 60426","Match","Exact","16624 EMERALD AVE, HARVEY, IL, 60426",605689767,"R"
239184,"16624 N 30TH AVE","PHOENIX","AZ",85053,33.6369308370001,-112.122792426,184,"16624 N 30TH AVE, PHOENIX, AZ, 85053","Match","Exact","16624 N 30TH AVE, PHOENIX, AZ, 85053",642854630,"L"
239185,"16624 NW CANTON ST","PORTLAND","OR",97229,45.5648297440001,-122.847886731,185,"16624 NW CANTON ST, PORTLAND, OR, 97229","Match","Exact","16624 NW CANTON ST, PORTLAND, OR, 97229",627571425,"R"
239186,"16624 TURTLE POINT ROAD","CHARLOTTE","NC",28278,35.065033504,-81.031644525,186,"16624 TURTLE POINT ROAD, CHARLOTTE, NC, 28278","Match","Exact","16624 TURTLE POINT RD, CHARLOTTE, NC, 28278",630398471,"L"
239187,"16624 WATSON ROAD","GUERNEVILLE","CA",95446,38.5170005570001,-123.004938967,187,"16624 WATSON ROAD, GUERNEVILLE, CA, 95446","Match","Exact","16624 WATSON RD, GUERNEVILLE, CA, 95446",627129475,"L"
239188,"16625 41 ST DR NE A","ARLINGTON","WA",98223,48.147021045,-122.173825061,188,"16625 41 ST DR NE A, ARLINGTON, WA, 98223","Match","Non_Exact","16625 41ST DR NE, ARLINGTON, WA, 98223",187820921,"L"
239189,"16625 DEARBORN DRIVE","STILWELL","KS",66085,38.82673372,-94.6549841619999,189,"16625 DEARBORN DRIVE, STILWELL, KS, 66085","Match","Exact","16625 DEARBORN DR, STILWELL, KS, 66085",91285810,"R"
239190,"16625 NE NORTH VALLEY RD","NEWBURG","OR",97132,45.331891743,-123.068639984,190,"16625 NE NORTH VALLEY RD, NEWBURG, OR, 97132","Match","Non_Exact","16625 NE NORTH VALLEY RD, NEWBERG, OR, 97132",605500686,"R"
239191,"16625 REDMOND WAY M405","REDMOND","WA",98052,47.672996476,-122.118390489,191,"16625 REDMOND WAY M405, REDMOND, WA, 98052","Match","Exact","16625 REDMOND WAY, REDMOND, WA, 98052",186610656,"L"
239192,"16625 REDMOND WAY STE M PMB 188","REDMOND","WA",98052,47.672996476,-122.118390489,192,"16625 REDMOND WAY STE M PMB 188, REDMOND, WA, 98052","Match","Exact","16625 REDMOND WAY, REDMOND, WA, 98052",186610656,"L"
239193,"16625 SAND LAKE RD","CLOVERDALE","OR",97112,45.327817479,-123.859781369,193,"16625 SAND LAKE RD, CLOVERDALE, OR, 97112","Match","Non_Exact","16625 SANDLAKE RD, CLOVERDALE, OR, 97112",156389361,"L"
239194,"16625 SOUTH WESTLAND DRIVE","GAITHERSBURG","MD",20877,39.1287742760001,-77.179770127,194,"16625 SOUTH WESTLAND DRIVE, GAITHERSBURG, MD, 20877","Match","Exact","16625 S WESTLAND DR, GAITHERSBURG, MD, 20877",62051700,"R"
239195,"16625 WINCHESTER DRIVE","NORTHVILLE","MI",48168,42.4086670730001,-83.454485201,195,"16625 WINCHESTER DRIVE, NORTHVILLE, MI, 48168","Match","Exact","16625 WINCHESTER DR, NORTHVILLE, MI, 48168",95405667,"L"
239196,"16626 6TH AVE WEST APT D106","LYNNWOOD","WA",98037,47.8472797370001,-122.24130422,196,"16626 6TH AVE WEST APT D106, LYNNWOOD, WA, 98037","Match","Exact","16626 6TH AVE W, LYNNWOOD, WA, 98037",608943241,"R"
239197,"16626 BLACKWATER TERRACE","BRADENTON","FL",34202,27.4208116230001,-82.369481303,197,"16626 BLACKWATER TERRACE, BRADENTON, FL, 34202","Match","Exact","16626 BLACKWATER TER, BRADENTON, FL, 34202",645934592,"R"
239198,"16626 JAMESTOWN FOREST DRIVE","FLORISSANT","MO",63034,38.840578457,-90.25562679,198,"16626 JAMESTOWN FOREST DRIVE, FLORISSANT, MO, 63034","Match","Exact","16626 JAMESTOWN FOREST DR, FLORISSANT, MO, 63034",100183636,"L"
239199,"16626 SHOAL RD","LEWES","DE",19958,NA,NA,199,"16626 SHOAL RD, LEWES, DE, 19958","No_Match",NA,NA,NA,NA
239200,"16626 SW ROGUE RIVER TERRACE","BEAVERTON","OR",97006,45.518329355,-122.848638604,200,"16626 SW ROGUE RIVER TERRACE, BEAVERTON, OR, 97006","Match","Exact","16626 SW ROGUE RIVER TER, BEAVERTON, OR, 97006",605205999,"L"
239201,"16627 AVALON BLVD","CARSON","CA",90746,33.8801848480001,-118.264834267,201,"16627 AVALON BLVD, CARSON, CA, 90746","Match","Non_Exact","16627 S AVALON BLVD, CARSON, CA, 90746",241258266,"L"
239202,"16627 BURLESON DRIVE","COBB ISLAND","MD",20625,38.2647734870001,-76.854042619,202,"16627 BURLESON DRIVE, COBB ISLAND, MD, 20625","Match","Exact","16627 BURLESON DR, COBB ISLAND, MD, 20625",25367458,"L"
239203,"16627 NE 36TH APT HH201","REDMOND","WA",98053,NA,NA,203,"16627 NE 36TH APT HH201, REDMOND, WA, 98053","No_Match",NA,NA,NA,NA
239204,"16627 SILVERSWORD DRIVE","CHARLOTTE","NC",28213,35.2901547010001,-80.691051235,204,"16627 SILVERSWORD DRIVE, CHARLOTTE, NC, 28213","Match","Exact","16627 SILVERSWORD DR, CHARLOTTE, NC, 28213",70562605,"L"
239205,"16628 BROADWING PLAC","CHARLOTTE","NC",28278,35.075183107,-80.9936791119999,205,"16628 BROADWING PLAC, CHARLOTTE, NC, 28278","Match","Exact","16628 BROADWING PL, CHARLOTTE, NC, 28278",634132118,"R"
239206,"16628 BROADWING PLACE","CHARLOTTE","NC",28278,35.075183107,-80.9936791119999,206,"16628 BROADWING PLACE, CHARLOTTE, NC, 28278","Match","Exact","16628 BROADWING PL, CHARLOTTE, NC, 28278",634132118,"R"
239207,"16628 COUNTY ROAD","MEAD","CO",80542,NA,NA,207,"16628 COUNTY ROAD, MEAD, CO, 80542","No_Match",NA,NA,NA,NA
239208,"16628 PARK LANE CIR","LOS ANGELES","CA",90029,34.128654555,-118.494823067,208,"16628 PARK LANE CIR, LOS ANGELES, CA, 90029","Match","Non_Exact","16628 PARK LANE CIR, LOS ANGELES, CA, 90049",141556934,"L"
239209,"16628 VAN BUREN","DETROIT","MI",48228,NA,NA,209,"16628 VAN BUREN, DETROIT, MI, 48228","No_Match",NA,NA,NA,NA
239210,"16629 CHATSWORTH ST","GRANADA HILLS","CA",91344,34.264730399,-118.494395151,210,"16629 CHATSWORTH ST, GRANADA HILLS, CA, 91344","Match","Exact","16629 CHATSWORTH ST, GRANADA HILLS, CA, 91344",141543012,"R"
239211,"16629 E PRENTICE PLACE","CENTENNIAL","CO",80015,39.618727538,-104.795512226,211,"16629 E PRENTICE PLACE, CENTENNIAL, CO, 80015","Match","Exact","16629 E PRENTICE PL, CENTENNIAL, CO, 80015",177359421,"L"
239212,"16629 EVENING STAR DRIVE","ROUND HILL","VA",20141,39.1392727250001,-77.777395784,212,"16629 EVENING STAR DRIVE, ROUND HILL, VA, 20141","Match","Exact","16629 EVENING STAR DR, ROUND HILL, VA, 20141",623786562,"L"
239213,"16629 GOLD RIDGE LN","HOUSTON","TX",77053,29.58264953,-95.468476494,213,"16629 GOLD RIDGE LN, HOUSTON, TX, 77053","Match","Exact","16629 GOLD RIDGE LN, HOUSTON, TX, 77053",78271749,"R"
239214,"16629 KIMBARK AVE","SOUTH HOLLAND","IL",60473,41.5929898520001,-87.586120416,214,"16629 KIMBARK AVE, SOUTH HOLLAND, IL, 60473","Match","Exact","16629 KIMBARK AVE, SOUTH HOLLAND, IL, 60473",111780792,"L"
239215,"16629 KNAPP ST","NORTH HILLS","CA",91343,34.2383845690001,-118.49504297,215,"16629 KNAPP ST, NORTH HILLS, CA, 91343","Match","Exact","16629 KNAPP ST, NORTH HILLS, CA, 91343",141544576,"R"
239216,"1663 11TH AVE SPACE A","OLIVEHURST","CA",95561,39.088066993,-121.554456158,216,"1663 11TH AVE SPACE A, OLIVEHURST, CA, 95561","Match","Non_Exact","1663 11TH AVE, OLIVEHURST, CA, 95961",106941989,"L"
239217,"1663 ARNOW AVE","BRONX","NY",10469,40.868406936,-73.839502963,217,"1663 ARNOW AVE, BRONX, NY, 10469","Match","Exact","1663 ARNOW AVE, BRONX, NY, 10469",80304025,"L"
239218,"1663 ATHENA DR","KENT","OH",44240,41.1383998910001,-81.334380548,218,"1663 ATHENA DR, KENT, OH, 44240","Match","Exact","1663 ATHENA DR, KENT, OH, 44240",137536891,"L"
239219,"1663 BANCROFT ROAD","ORANGE","TX",77632,30.128166816,-93.794520139,219,"1663 BANCROFT ROAD, ORANGE, TX, 77632","Match","Exact","1663 BANCROFT RD, ORANGE, TX, 77632",74019979,"R"
239220,"1663 BAY HILL DR","SAN MARCOS","CA",92069,33.170870264,-117.158539476,220,"1663 BAY HILL DR, SAN MARCOS, CA, 92069","Match","Exact","1663 BAY HILL DR, SAN MARCOS, CA, 92069",195421591,"L"
239221,"1663 BEAMER AVE","NEW KENSINGTON","PA",15068,40.5643550350001,-79.73857223,221,"1663 BEAMER AVE, NEW KENSINGTON, PA, 15068","Match","Exact","1663 BEAMER AVE, NEW KENSINGTON, PA, 15068",52960912,"R"
239222,"1663 BRITTANY DRIVE","REDLANDS","CA",92374,34.0473027730001,-117.144438016,222,"1663 BRITTANY DRIVE, REDLANDS, CA, 92374","Match","Exact","1663 BRITTANY DR, REDLANDS, CA, 92374",144971467,"L"
239223,"1663 BUCKEYE DRIVE","EL CAJON","CA",92021,32.817689521,-116.948355746,223,"1663 BUCKEYE DRIVE, EL CAJON, CA, 92021","Match","Exact","1663 BUCKEYE DR, EL CAJON, CA, 92021",637382634,"R"
239224,"1663 BUTLER AVE","LOS ANGELES","CA",90025,34.0443621910001,-118.450917055,224,"1663 BUTLER AVE, LOS ANGELES, CA, 90025","Match","Exact","1663 BUTLER AVE, LOS ANGELES, CA, 90025",141569441,"R"
239225,"1663 CHEYENNE TRAIL","ORLANDO","FL",32751,28.6311256560001,-81.349477059,225,"1663 CHEYENNE TRAIL, ORLANDO, FL, 32751","Match","Non_Exact","1663 CHEYENNE TRL, MAITLAND, FL, 32751",94278033,"L"
239226,"1663 CO RD 17","FREMONT","NE",68025,41.517255284,-96.597235363,226,"1663 CO RD 17, FREMONT, NE, 68025","Match","Exact","1663 CO RD 17, FREMONT, NE, 68025",650058156,"L"
239227,"1663 COALCAR CT SE","KENTWOOD","MI",49508,42.876869528,-85.623614522,227,"1663 COALCAR CT SE, KENTWOOD, MI, 49508","Match","Non_Exact","1663 COAL CAR CT SE, KENTWOOD, MI, 49508",624676110,"L"
239228,"1663 E DUBOIS AVE","GILBERT","AZ",85298,33.222530706,-111.753687679,228,"1663 E DUBOIS AVE, GILBERT, AZ, 85298","Match","Exact","1663 E DUBOIS AVE, GILBERT, AZ, 85298",624904106,"L"
239229,"1663 E PARKWAY AVENUE","SALT LAKE CITY","UT",84106,40.718221607,-111.8431283,229,"1663 E PARKWAY AVENUE, SALT LAKE CITY, UT, 84106","Match","Exact","1663 PARKWAY AVE, SALT LAKE CITY, UT, 84106",176154777,"L"
239230,"1663 EAST COLLEGE AVE","BELLEFONTE","PA",16823,40.9086293670001,-77.682449795,230,"1663 EAST COLLEGE AVE, BELLEFONTE, PA, 16823","Match","Exact","1663 E COLLEGE AVE, BELLEFONTE, PA, 16823",50391111,"L"
239231,"1663 EAST DEL AMO BLVD","CARSON","CA",90746,33.8467497780001,-118.241513967,231,"1663 EAST DEL AMO BLVD, CARSON, CA, 90746","Match","Exact","1663 E DEL AMO BLVD, CARSON, CA, 90746",141681228,"L"
239232,"1663 EAST MAIN STREET 2NDFLOOR","BRIDGEPORT","CT",6608,41.19732121,-73.180296304,232,"1663 EAST MAIN STREET 2NDFLOOR, BRIDGEPORT, CT, 6608","Match","Exact","1663 E MAIN ST, BRIDGEPORT, CT, 06608",3224745,"L"
239233,"1663 EASTBURN AVENUE APT 4D","BRONX","NY",10457,40.843609116,-73.908580571,233,"1663 EASTBURN AVENUE APT 4D, BRONX, NY, 10457","Match","Exact","1663 EASTBURN AVE, BRONX, NY, 10457",624157857,"L"
239234,"1663 ENCUENTRO","EAGLE PASS","UT",78852,NA,NA,234,"1663 ENCUENTRO, EAGLE PASS, UT, 78852","No_Match",NA,NA,NA,NA
239235,"1663 FARLAND ST","COVINA","CA",91724,34.093814126,-117.856098436,235,"1663 FARLAND ST, COVINA, CA, 91724","Match","Exact","1663 FARLAND ST, COVINA, CA, 91724",141727420,"L"
239236,"1663 FORREST AVE","MEMPHIS","TN",38112,35.151982015,-90.00377981,236,"1663 FORREST AVE, MEMPHIS, TN, 38112","Match","Exact","1663 FORREST AVE, MEMPHIS, TN, 38112",72911970,"R"
239237,"1663 HARRIS RD","SHEFFIELD VILLAGE","OH",44054,41.4689344510001,-82.094843952,237,"1663 HARRIS RD, SHEFFIELD VILLAGE, OH, 44054","Match","Exact","1663 HARRIS RD, SHEFFIELD VILLAGE, OH, 44054",55416193,"L"
239238,"1663 I STREET","ARCATA","CA",95521,40.8752785840001,-124.085571258,238,"1663 I STREET, ARCATA, CA, 95521","Match","Exact","1663 I ST, ARCATA, CA, 95521",112987326,"L"
239239,"1663 MEADOW LARK DRIVE","GALESBURG","IL",61401,40.967727473,-90.340991285,239,"1663 MEADOW LARK DRIVE, GALESBURG, IL, 61401","Match","Exact","1663 MEADOW LARK DR, GALESBURG, IL, 61401",9039358,"R"
239240,"1663 MISSION APT 225","SAN FRANCISCO","CA",94103,37.7713471230001,-122.419485073,240,"1663 MISSION APT 225, SAN FRANCISCO, CA, 94103","Match","Non_Exact","1663 MISSION ST, SAN FRANCISCO, CA, 94103",192298624,"R"
239241,"1663 MISSION STREET SUITE 500","SAN FRANCISCO","CA",94103,37.7713471230001,-122.419485073,241,"1663 MISSION STREET SUITE 500, SAN FRANCISCO, CA, 94103","Match","Exact","1663 MISSION ST, SAN FRANCISCO, CA, 94103",192298624,"R"
239242,"1663 MONTELLO AVE NE","WASHINGTON","DC",20002,38.9085280210001,-76.9861374179999,242,"1663 MONTELLO AVE NE, WASHINGTON, DC, 20002","Match","Exact","1663 MONTELLO AVE NE, WASHINGTON, DC, 20002",76230117,"R"
239243,"1663 N AVALON BLVD","WILMINGTON","CA",90744,33.7969111400001,-118.263761163,243,"1663 N AVALON BLVD, WILMINGTON, CA, 90744","Match","Exact","1663 N AVALON BLVD, WILMINGTON, CA, 90744",141682019,"L"
239244,"1663 N ORCHARD","CHICAGO","IL",60614,41.912008583,-87.64587585,244,"1663 N ORCHARD, CHICAGO, IL, 60614","Match","Non_Exact","1663 N ORCHARD ST, CHICAGO, IL, 60614",605071323,"R"
239245,"1663 NIGHTENGALE LANE","KINGSLEY","MI",49649,44.579709071,-85.54508516,245,"1663 NIGHTENGALE LANE, KINGSLEY, MI, 49649","Match","Non_Exact","1663 NIGHTINGALE LN, KINGSLEY, MI, 49649",145535260,"L"
239246,"1663 OLD CHAPPELLS FERRY RD","SALUDA","SC",29138,34.0022451660001,-81.850218819,246,"1663 OLD CHAPPELLS FERRY RD, SALUDA, SC, 29138","Match","Exact","1663 OLD CHAPPELLS FERRY RD, SALUDA, SC, 29138",65523038,"R"
239247,"1663 PARKDALE CIR S","ERIE","CO",80516,NA,NA,247,"1663 PARKDALE CIR S, ERIE, CO, 80516","No_Match",NA,NA,NA,NA
239248,"1663 PEBBLE BEACH WAY","VERNON HILLS","IL",60061,42.2564052870001,-87.9687745859999,248,"1663 PEBBLE BEACH WAY, VERNON HILLS, IL, 60061","Match","Exact","1663 PEBBLE BEACH WAY, VERNON HILLS, IL, 60061",640090545,"L"
239249,"1663 PLEASANT HILL DRIVE","CHARLESTON","SC",29407,32.801935245,-80.0772634049999,249,"1663 PLEASANT HILL DRIVE, CHARLESTON, SC, 29407","Match","Non_Exact","1663 PLEASANT HILL DR, CHARLESTON, SC, 29414",645442205,"L"
239250,"1663 POWELL ROAD","BROOKHAVEN","PA",19015,39.851281939,-75.395208313,250,"1663 POWELL ROAD, BROOKHAVEN, PA, 19015","Match","Exact","1663 POWELL RD, BROOKHAVEN, PA, 19015",134899296,"L"
239251,"1663 PRAIRIE DRIVE","MOBILE","AL",36605,30.655989446,-88.0827929549999,251,"1663 PRAIRIE DRIVE, MOBILE, AL, 36605","Match","Non_Exact","1663 PRAIRIE AVE, MOBILE, AL, 36605",61883963,"L"
239252,"1663 RAINTREE","EAGLE PASS","TX",78852,28.7301108560001,-100.485130826,252,"1663 RAINTREE, EAGLE PASS, TX, 78852","Match","Non_Exact","1663 RAINTREE DR, EAGLE PASS, TX, 78852",633645412,"L"
239253,"1663 RITTER BLVD","HUNTINGTON","WV",25701,38.3971391370001,-82.431220522,253,"1663 RITTER BLVD, HUNTINGTON, WV, 25701","Match","Exact","1663 RITTER BLVD, HUNTINGTON, WV, 25701",642123350,"L"
239254,"1663 RIVIERA DRIVE","REDDING","CA",96001,40.545216587,-122.397973407,254,"1663 RIVIERA DRIVE, REDDING, CA, 96001","Match","Exact","1663 RIVIERA DR, REDDING, CA, 96001",126630972,"R"
239255,"1663 RUSTIC WAY","MELBOURNE","FL",32940,28.147580427,-80.649830357,255,"1663 RUSTIC WAY, MELBOURNE, FL, 32940","Match","Non_Exact","1663 RUSTIC WAY, MELBOURNE, FL, 32935",93933255,"L"
239256,"1663 S ACOMA ST","DENVER","CO",80223,39.686455278,-104.98875876,256,"1663 S ACOMA ST, DENVER, CO, 80223","Match","Exact","1663 S ACOMA ST, DENVER, CO, 80223",177331350,"R"
239257,"1663 S ACOMA STREET","DENVER","CO",80223,39.686455278,-104.98875876,257,"1663 S ACOMA STREET, DENVER, CO, 80223","Match","Exact","1663 S ACOMA ST, DENVER, CO, 80223",177331350,"R"
239258,"1663 S BLUE ISLAND AVE","CHICAGO","IL",60608,41.8590778830001,-87.660103729,258,"1663 S BLUE ISLAND AVE, CHICAGO, IL, 60608","Match","Exact","1663 S BLUE ISLAND AVE, CHICAGO, IL, 60608",112383575,"L"
239259,"1663 S HOMAN","CHICAGO","IL",60623,41.857167426,-87.710273826,259,"1663 S HOMAN, CHICAGO, IL, 60623","Match","Non_Exact","1663 S HOMAN AVE, CHICAGO, IL, 60623",605098256,"L"
239260,"1663 S MONTGOMERY RD","ECKERTY","IN",47116,38.314587599,-86.5838180709999,260,"1663 S MONTGOMERY RD, ECKERTY, IN, 47116","Match","Exact","1663 S MONTGOMERY RD, ECKERTY, IN, 47116",7821741,"L"
239261,"1663 SANDRIDGE RD","DORCHESTER","SC",29437,33.094372677,-80.485155987,261,"1663 SANDRIDGE RD, DORCHESTER, SC, 29437","Match","Exact","1663 SANDRIDGE RD, DORCHESTER, SC, 29437",624959912,"R"
239262,"1663 SEWARD AVE","BRONX","NY",10473,40.818347579,-73.8692389989999,262,"1663 SEWARD AVE, BRONX, NY, 10473","Match","Exact","1663 SEWARD AVE, BRONX, NY, 10473",80304915,"L"
239263,"1663 SW KELLY AVE","CHEHALIS","WA",98532,46.647461698,-122.949516126,263,"1663 SW KELLY AVE, CHEHALIS, WA, 98532","Match","Exact","1663 SW KELLY AVE, CHEHALIS, WA, 98532",180709841,"L"
239264,"1663 SW WESTWOOD","PORTLAND","OR",97239,NA,NA,264,"1663 SW WESTWOOD, PORTLAND, OR, 97239","Tie",NA,NA,NA,NA
239265,"1663 VETERAN AVE APT 305","LOS ANGELES","CA",90024,34.0504649000001,-118.44146438,265,"1663 VETERAN AVE APT 305, LOS ANGELES, CA, 90024","Match","Exact","1663 VETERAN AVE, LOS ANGELES, CA, 90024",652036813,"R"
239266,"1663 VICTORIA CIRCLE","ALLENTOWN","PA",18103,40.5576326520001,-75.499956722,266,"1663 VICTORIA CIRCLE, ALLENTOWN, PA, 18103","Match","Exact","1663 VICTORIA CIR, ALLENTOWN, PA, 18103",80782022,"R"
239267,"1663 WATSON DRIVE","JACKSON","MO",63755,NA,NA,267,"1663 WATSON DRIVE, JACKSON, MO, 63755","No_Match",NA,NA,NA,NA
239268,"1663 WESTBURY DRIVE","ROCKWALL","TX",75032,32.904267845,-96.435018882,268,"1663 WESTBURY DRIVE, ROCKWALL, TX, 75032","Match","Exact","1663 WESTBURY DR, ROCKWALL, TX, 75032",213566346,"R"
239269,"1663 WOODBEND RD","MILLEDGEVILLE","GA",30161,NA,NA,269,"1663 WOODBEND RD, MILLEDGEVILLE, GA, 30161","No_Match",NA,NA,NA,NA
239270,"1663 WRIGHTSTOWN RD","NEWTOWN","PA",18940,40.2805747300001,-74.920558156,270,"1663 WRIGHTSTOWN RD, NEWTOWN, PA, 18940","Match","Exact","1663 WRIGHTSTOWN RD, NEWTOWN, PA, 18940",134785966,"R"
239271,"16630 DOLENTE ROAD","SAN ANTONIO","TX",78226,29.5889382990001,-98.3403869799999,271,"16630 DOLENTE ROAD, SAN ANTONIO, TX, 78226","Match","Non_Exact","16630 DOLENTE RD, SAN ANTONIO, TX, 78266",629584658,"L"
239272,"16630 IMPERIAL VALLEY DR","HOUSTON","TX",77060,29.940956053,-95.396551092,272,"16630 IMPERIAL VALLEY DR, HOUSTON, TX, 77060","Match","Exact","16630 IMPERIAL VALLEY DR, HOUSTON, TX, 77060",96656601,"R"
239273,"16630 N 43RD AVE 261","GLENDALE","AZ",85306,33.63663001,-112.151511789,273,"16630 N 43RD AVE 261, GLENDALE, AZ, 85306","Match","Non_Exact","16630 N 43RD AVE, GLENDALE, AZ, 85306",637439785,"L"
239274,"16630 NORMANDY","DETROIT","MI",48221,42.4136687980001,-83.126809526,274,"16630 NORMANDY, DETROIT, MI, 48221","Match","Non_Exact","16630 NORMANDY AVE, DETROIT, MI, 48221",95461562,"R"
239275,"16630 S COTTAGE GROVE","SOUTH HOLLAND","IL",60473,41.5930499900001,-87.597651344,275,"16630 S COTTAGE GROVE, SOUTH HOLLAND, IL, 60473","Match","Non_Exact","16630 COTTAGE GROVE AVE, SOUTH HOLLAND, IL, 60473",111780530,"R"
239276,"16630 SARGENT RD SW B","ROCHESTER","WA",98579,46.845852848,-123.049803729,276,"16630 SARGENT RD SW B, ROCHESTER, WA, 98579","Match","Exact","16630 SARGENT RD SW, ROCHESTER, WA, 98579",625200069,"R"
239277,"16630 SARGENT RD SW","ROCHESTER","WA",98579,46.845852848,-123.049803729,277,"16630 SARGENT RD SW, ROCHESTER, WA, 98579","Match","Exact","16630 SARGENT RD SW, ROCHESTER, WA, 98579",625200069,"R"
239278,"16630 W CAMBRIDGE AVE","GOODYEAR","AZ",85395,33.474091582,-112.416643434,278,"16630 W CAMBRIDGE AVE, GOODYEAR, AZ, 85395","Match","Exact","16630 W CAMBRIDGE AVE, GOODYEAR, AZ, 85395",646956298,"L"
239279,"16630 W","GOODYEAR","AZ",85395,NA,NA,279,"16630 W, GOODYEAR, AZ, 85395","No_Match",NA,NA,NA,NA
239280,"16630 WATERS EDGE DRIVE","WESTON","FL",33326,26.1133930550001,-80.377519933,280,"16630 WATERS EDGE DRIVE, WESTON, FL, 33326","Match","Exact","16630 WATERS EDGE DR, WESTON, FL, 33326",114810213,"L"
239281,"16631 20TH ROAD","WHITESTONE","NY",11357,NA,NA,281,"16631 20TH ROAD, WHITESTONE, NY, 11357","No_Match",NA,NA,NA,NA
239282,"16631 CREOSOTE DR","SCOTTSDALE","AZ",85262,33.769291664,-111.721129978,282,"16631 CREOSOTE DR, SCOTTSDALE, AZ, 85262","Match","Non_Exact","16631 E CREOSOTE DR, SCOTTSDALE, AZ, 85262",244019415,"R"
239283,"16631 HWY 301 NORTH","SAINT PAULS","NC",28384,NA,NA,283,"16631 HWY 301 NORTH, SAINT PAULS, NC, 28384","No_Match",NA,NA,NA,NA
239284,"16631 JAMESTOWN FOREST DRIVE","SAINT LOUIS","MO",63034,38.8406289280001,-90.255439686,284,"16631 JAMESTOWN FOREST DRIVE, SAINT LOUIS, MO, 63034","Match","Non_Exact","16631 JAMESTOWN FOREST DR, FLORISSANT, MO, 63034",100183636,"R"
239285,"16631 N 56TH ST 2045-2","SCOTTSDALE","AZ",85254,NA,NA,285,"16631 N 56TH ST 2045-2, SCOTTSDALE, AZ, 85254","Tie",NA,NA,NA,NA
239286,"16631 PARLIAMENT STREET","HOUSTON","TX",77083,29.684946804,-95.676937084,286,"16631 PARLIAMENT STREET, HOUSTON, TX, 77083","Match","Non_Exact","16631 PARLIAMENT, HOUSTON, TX, 77083",78291055,"R"
239287,"16631 SALEM ST","DETROIT","MI",48219,42.4104450150001,-83.2850243089999,287,"16631 SALEM ST, DETROIT, MI, 48219","Match","Exact","16631 SALEM ST, DETROIT, MI, 48219",95420191,"L"
239288,"16631 VANCE JACKSON 3208","SAN ANTONIO","TX",78257,29.5973823090001,-98.592692847,288,"16631 VANCE JACKSON 3208, SAN ANTONIO, TX, 78257","Match","Exact","16631 VANCE JACKSON, SAN ANTONIO, TX, 78257",650150073,"L"
239289,"16631 VANCE JACKSON 6220","SAN ANTONIO","TX",78257,29.5973823090001,-98.592692847,289,"16631 VANCE JACKSON 6220, SAN ANTONIO, TX, 78257","Match","Exact","16631 VANCE JACKSON, SAN ANTONIO, TX, 78257",650150073,"L"
239290,"16631 VANCE JACKSON RD  APT  7321","SAN ANTONIO","TX",78257,29.5973823090001,-98.592692847,290,"16631 VANCE JACKSON RD  APT  7321, SAN ANTONIO, TX, 78257","Match","Non_Exact","16631 VANCE JACKSON, SAN ANTONIO, TX, 78257",650150073,"L"
239291,"16631 WHITAKER CREEK DR","HOUSTON","TX",77095,29.9100575680001,-95.66262373,291,"16631 WHITAKER CREEK DR, HOUSTON, TX, 77095","Match","Exact","16631 WHITAKER CREEK DR, HOUSTON, TX, 77095",631467975,"R"
239292,"16632 BARTLETT LN","HUNTINGTON BEACH","CA",92647,33.7208337550001,-118.005549275,292,"16632 BARTLETT LN, HUNTINGTON BEACH, CA, 92647","Match","Exact","16632 BARTLETT LN, HUNTINGTON BEACH, CA, 92647",624021301,"L"
239293,"16632 CAMILIA AVE","TUSTIN","CA",92782,33.6997248390001,-117.809251486,293,"16632 CAMILIA AVE, TUSTIN, CA, 92782","Match","Exact","16632 CAMILIA AVE, TUSTIN, CA, 92782",629868722,"L"
239294,"16632 CLAYTON ROAD","WILDWOOD","MO",63011,38.601608427,-90.620016503,294,"16632 CLAYTON ROAD, WILDWOOD, MO, 63011","Match","Exact","16632 CLAYTON RD, WILDWOOD, MO, 63011",100194496,"L"
239295,"16632 CRABBS BRANCH WAY","ROCKVILLE","MD",20855,39.126627082,-77.1661106019999,295,"16632 CRABBS BRANCH WAY, ROCKVILLE, MD, 20855","Match","Exact","16632 CRABBS BRANCH WAY, ROCKVILLE, MD, 20855",650593463,"L"
239296,"16632 LAKE SMITH ROAD","UMATILLA","FL",32784,28.9041888360001,-81.679431725,296,"16632 LAKE SMITH ROAD, UMATILLA, FL, 32784","Match","Exact","16632 LAKE SMITH RD, UMATILLA, FL, 32784",627972033,"R"
239297,"16632 POWER LINE RD","REDDING","CA",96001,40.5545586980001,-122.433962665,297,"16632 POWER LINE RD, REDDING, CA, 96001","Match","Exact","16632 POWER LINE RD, REDDING, CA, 96001",126626189,"L"
239298,"16632 PRINE ROAD","FORT WAYNE","IN",46798,40.928878205,-85.261767504,298,"16632 PRINE ROAD, FORT WAYNE, IN, 46798","Match","Non_Exact","16632 PRINE RD, YODER, IN, 46798",6374472,"R"
239299,"16632 SCHOOL RD","INDEPENDENCE","LA",70443,NA,NA,299,"16632 SCHOOL RD, INDEPENDENCE, LA, 70443","No_Match",NA,NA,NA,NA
239300,"16633 448TH AVENUE","FLORENCE","SD",57235,44.972779861,-97.249288964,300,"16633 448TH AVENUE, FLORENCE, SD, 57235","Match","Exact","16633 448TH AVE, FLORENCE, SD, 57235",650297998,"L"
239301,"16633 BON STREET","VICTORVILLE","CA",92395,NA,NA,301,"16633 BON STREET, VICTORVILLE, CA, 92395","No_Match",NA,NA,NA,NA
239302,"16633 LIVERNOIS AVE","DETROIT","MI",48221,42.4134059100001,-83.1406863459999,302,"16633 LIVERNOIS AVE, DETROIT, MI, 48221","Match","Exact","16633 LIVERNOIS AVE, DETROIT, MI, 48221",95461282,"L"
239303,"16633 LIVERNOIS","DETROIT","MI",48221,42.4134059100001,-83.1406863459999,303,"16633 LIVERNOIS, DETROIT, MI, 48221","Match","Non_Exact","16633 LIVERNOIS AVE, DETROIT, MI, 48221",95461282,"L"
239304,"16633 NE 118TH WAY","REDMOND","WA",98052,47.7054199620001,-122.118951019,304,"16633 NE 118TH WAY, REDMOND, WA, 98052","Match","Exact","16633 NE 118TH WAY, REDMOND, WA, 98052",186954042,"L"
239305,"16633 PARKHURST ROAD","EDMOND","OK",73012,35.6398525750001,-97.534017241,305,"16633 PARKHURST ROAD, EDMOND, OK, 73012","Match","Exact","16633 PARKHURST RD, EDMOND, OK, 73012",100433606,"L"
239306,"16633 PINE RIDGE DRIVE","NORTHPORT","AL",35475,33.3948654530001,-87.6449424639999,306,"16633 PINE RIDGE DRIVE, NORTHPORT, AL, 35475","Match","Exact","16633 PINE RIDGE DR, NORTHPORT, AL, 35475",648196389,"R"
239307,"16633 S EVANS","SOUTH HOLLAND","IL",60473,41.5930285800001,-87.598645898,307,"16633 S EVANS, SOUTH HOLLAND, IL, 60473","Match","Non_Exact","16633 EVANS AVE, SOUTH HOLLAND, IL, 60473",111780527,"L"
239308,"16633 SOLANA LANE","CANYON COUNTRY","CA",91351,34.4565237740001,-118.427148586,308,"16633 SOLANA LANE, CANYON COUNTRY, CA, 91351","Match","Exact","16633 SOLANA LN, CANYON COUNTRY, CA, 91351",241107651,"R"
239309,"16633 SOLANA LANE","CANYON COUNTRY","NV",91351,NA,NA,309,"16633 SOLANA LANE, CANYON COUNTRY, NV, 91351","No_Match",NA,NA,NA,NA
239310,"16633 SW 50 TERRACE","MIAMI","FL",33185,NA,NA,310,"16633 SW 50 TERRACE, MIAMI, FL, 33185","No_Match",NA,NA,NA,NA
239311,"16633 VIRGINIA AVE","PARMOUNT","CA",90723,33.8830119720001,-118.154715795,311,"16633 VIRGINIA AVE, PARMOUNT, CA, 90723","Match","Non_Exact","16633 VIRGINIA AVE, PARAMOUNT, CA, 90723",141698537,"R"
239312,"16633 WARD ST","DETROIT","MI",48127,42.4129337250001,-83.174104576,312,"16633 WARD ST, DETROIT, MI, 48127","Match","Non_Exact","16633 WARD ST, DETROIT, MI, 48235",95502351,"L"
239313,"16633A OVENELL RD","MOUNT VERNON","WA",98273,48.4573034090001,-122.386969165,313,"16633A OVENELL RD, MOUNT VERNON, WA, 98273","Match","Exact","16633 OVENELL RD, MOUNT VERNON, WA, 98273",183662501,"L"
239314,"16634 NE 48TH ST","REDMOND","WA",98052,47.6529487970001,-122.118085835,314,"16634 NE 48TH ST, REDMOND, WA, 98052","Match","Exact","16634 NE 48TH ST, REDMOND, WA, 98052",187046743,"L"
239315,"16634 W TRANQUILITY LANE","SURPRISE","AZ",85387,33.67173208,-112.416057936,315,"16634 W TRANQUILITY LANE, SURPRISE, AZ, 85387","Match","Exact","16634 W TRANQUILITY LN, SURPRISE, AZ, 85387",243976218,"L"
239316,"16635 BENNINGTON CT","GRANGER","IN",46530,41.7341053120001,-86.190119269,316,"16635 BENNINGTON CT, GRANGER, IN, 46530","Match","Exact","16635 BENNINGTON CT, GRANGER, IN, 46530",8099627,"L"
239317,"16635 E PACIFIC DRIVE","AURORA","CO",80013,39.679466817,-104.794324674,317,"16635 E PACIFIC DRIVE, AURORA, CO, 80013","Match","Exact","16635 E PACIFIC DR, AURORA, CO, 80013",177357387,"L"
239318,"16635 FLAGSTAFF AVE W","ROSEMOUNT","MN",55068,44.7084248960001,-93.197249566,318,"16635 FLAGSTAFF AVE W, ROSEMOUNT, MN, 55068","Match","Exact","16635 FLAGSTAFF AVE W, ROSEMOUNT, MN, 55068",37907527,"R"
239319,"16635 GRENADA FALLS DRIVE","HOUSTON","TX",77095,29.911658464,-95.662776491,319,"16635 GRENADA FALLS DRIVE, HOUSTON, TX, 77095","Match","Exact","16635 GRENADA FALLS DR, HOUSTON, TX, 77095",641732180,"L"
239320,"16635 LAFONE DR","SPRING","TX",77379,30.0230776660001,-95.5121609729999,320,"16635 LAFONE DR, SPRING, TX, 77379","Match","Exact","16635 LAFONE DR, SPRING, TX, 77379",96007688,"L"
239321,"16635 MACARTHUR","REDFORD","MI",48240,42.409625152,-83.3035845209999,321,"16635 MACARTHUR, REDFORD, MI, 48240","Match","Exact","16635 MACARTHUR, REDFORD, MI, 48240",95419245,"L"
239322,"16635 SE 70TH ST","BELLEVUE","WA",98006,47.5395904050001,-122.119481776,322,"16635 SE 70TH ST, BELLEVUE, WA, 98006","Match","Exact","16635 SE 70TH ST, BELLEVUE, WA, 98006",624868940,"L"
239323,"16635 SE EAST VIEW CT","PORTLAND","OR",97236,45.4896483790001,-122.491895929,323,"16635 SE EAST VIEW CT, PORTLAND, OR, 97236","Match","Exact","16635 SE EAST VIEW CT, PORTLAND, OR, 97236",157553550,"R"
239324,"16635 SPRING CYPRESS RD STE 1684","CYPRESS","TX",77410,29.9749608430001,-95.681316672,324,"16635 SPRING CYPRESS RD STE 1684, CYPRESS, TX, 77410","Match","Non_Exact","16635 SPRING CYPRESS RD, CYPRESS, TX, 77429",638593726,"R"
239325,"16635 SPRING CYPRESS RD","CYPRESS","TX",77429,29.9749608430001,-95.681316672,325,"16635 SPRING CYPRESS RD, CYPRESS, TX, 77429","Match","Exact","16635 SPRING CYPRESS RD, CYPRESS, TX, 77429",638593726,"R"
239326,"16636 KENDLE RD","WILLIAMSPORT","MD",21795,39.582693803,-77.7929974429999,326,"16636 KENDLE RD, WILLIAMSPORT, MD, 21795","Match","Exact","16636 KENDLE RD, WILLIAMSPORT, MD, 21795",652186414,"R"
239327,"16636 N 10TH DR","PHOENIX","AZ",85023,33.637039251,-112.086530228,327,"16636 N 10TH DR, PHOENIX, AZ, 85023","Match","Exact","16636 N 10TH DR, PHOENIX, AZ, 85023",128376140,"R"
239328,"16636 TOMS CREEK CHURCH RD","EMMITSBURG","MD",21727,39.6908912580001,-77.284978049,328,"16636 TOMS CREEK CHURCH RD, EMMITSBURG, MD, 21727","Match","Exact","16636 TOMS CREEK CHURCH RD, EMMITSBURG, MD, 21727",60712992,"L"
239329,"16636 W UNKNOWN MEXICAN","PEEPLES VALLEY","AZ",86332,34.276484682,-112.751288996,329,"16636 W UNKNOWN MEXICAN, PEEPLES VALLEY, AZ, 86332","Match","Non_Exact","16636 UNKNOWN MEXICAN AVE, PEEPLES VALLEY, AZ, 86332",608255443,"R"
239330,"16637 159TH PL SE","RENTON","WA",98058,47.4532310600001,-122.127852402,330,"16637 159TH PL SE, RENTON, WA, 98058","Match","Exact","16637 159TH PL SE, RENTON, WA, 98058",186637174,"L"
239331,"16637 159TH PLACE","RENTON","WA",98058,47.4532310600001,-122.127852402,331,"16637 159TH PLACE, RENTON, WA, 98058","Match","Non_Exact","16637 159TH PL SE, RENTON, WA, 98058",186637174,"L"
239332,"16637 DYNAMIC DR","LAKEVILLE","MN",55044,44.707229618,-93.164295308,332,"16637 DYNAMIC DR, LAKEVILLE, MN, 55044","Match","Exact","16637 DYNAMIC DR, LAKEVILLE, MN, 55044",634512982,"R"
239333,"16637 NE 119TH WAY","REDMOND","WA",98052,47.70600254,-122.118937739,333,"16637 NE 119TH WAY, REDMOND, WA, 98052","Match","Exact","16637 NE 119TH WAY, REDMOND, WA, 98052",627282744,"L"
239334,"16637 PARK STREET","SANTA FE","TX",77517,29.3989982040001,-95.154197454,334,"16637 PARK STREET, SANTA FE, TX, 77517","Match","Exact","16637 PARK ST, SANTA FE, TX, 77517",96683644,"R"
239335,"16637 RICH ST","GRAND HAVEN","MI",49417,42.979425383,-86.195635658,335,"16637 RICH ST, GRAND HAVEN, MI, 49417","Match","Exact","16637 RICH ST, GRAND HAVEN, MI, 49417",636839318,"L"
239336,"16638 E SUMMIT AVE","ELKTON","VA",22827,38.401606138,-78.618817026,336,"16638 E SUMMIT AVE, ELKTON, VA, 22827","Match","Exact","16638 SUMMIT AVE, ELKTON, VA, 22827",648531661,"L"
239337,"16638 KENTUCKY RD","NEOSHO","MO",64850,36.8939088650001,-94.341580151,337,"16638 KENTUCKY RD, NEOSHO, MO, 64850","Match","Exact","16638 KENTUCKY RD, NEOSHO, MO, 64850",56000428,"R"
239338,"16639 89TH AVE 1ST FLOOR","JAMAICA","NY",11432,NA,NA,338,"16639 89TH AVE 1ST FLOOR, JAMAICA, NY, 11432","No_Match",NA,NA,NA,NA
239339,"16639 BEN LEDI DRIVE","HOUSTON","TX",77084,29.847338419,-95.653136645,339,"16639 BEN LEDI DRIVE, HOUSTON, TX, 77084","Match","Exact","16639 BEN LEDI DR, HOUSTON, TX, 77084",96154666,"L"
239340,"16639 CAXTON PLACE","DUMFRIES","VA",22025,38.5929462720001,-77.3420703309999,340,"16639 CAXTON PLACE, DUMFRIES, VA, 22025","Match","Exact","16639 CAXTON PL, DUMFRIES, VA, 22025",76521089,"R"
239341,"16639 E 106TH PL","COMMERCE CITY","CO",80022,39.8899977780001,-104.793689557,341,"16639 E 106TH PL, COMMERCE CITY, CO, 80022","Match","Exact","16639 E 106TH PL, COMMERCE CITY, CO, 80022",177425582,"L"
239342,"16639 JEAN LANE APT 2B","TINLEY PARK","IL",60477,41.5884766180001,-87.790565107,342,"16639 JEAN LANE APT 2B, TINLEY PARK, IL, 60477","Match","Exact","16639 JEAN LN, TINLEY PARK, IL, 60477",111872082,"R"
239343,"16639 ROCKER RD","ROUGH AND READY","CA",95975,39.229942979,-121.165428831,343,"16639 ROCKER RD, ROUGH AND READY, CA, 95975","Match","Exact","16639 ROCKER RD, ROUGH AND READY, CA, 95975",106550866,"R"
239344,"1664 B DEANNA RD","DIANA","TX",75640,32.708731422,-94.737692061,344,"1664 B DEANNA RD, DIANA, TX, 75640","Match","Non_Exact","1664 DEANNA DR, DIANA, TX, 75640",147602576,"R"
239345,"1664 BEETHOVEN DR","WESTLAKE","OH",44145,41.4629186510001,-81.9159416259999,345,"1664 BEETHOVEN DR, WESTLAKE, OH, 44145","Match","Exact","1664 BEETHOVEN DR, WESTLAKE, OH, 44145",61138989,"R"
239346,"1664 BRUNSON RD","DRY PRONG","LA",71423,31.5669621660001,-92.528539705,346,"1664 BRUNSON RD, DRY PRONG, LA, 71423","Match","Exact","1664 BRUNSON RD, DRY PRONG, LA, 71423",13260700,"R"
239347,"1664 BUDDY TAYLOR ROAD","ATLANTA","LA",71404,31.7162228020001,-92.711497606,347,"1664 BUDDY TAYLOR ROAD, ATLANTA, LA, 71404","Match","Exact","1664 BUDDY TAYLOR RD, ATLANTA, LA, 71404",119014706,"L"
239348,"1664 CHATSBURY ST","EL CAJON","CA",92021,32.8201458610001,-116.917935951,348,"1664 CHATSBURY ST, EL CAJON, CA, 92021","Match","Exact","1664 CHATSBURY ST, EL CAJON, CA, 92021",195332874,"L"
239349,"1664 CORDOVA ST UNIT 1","LOS ANGELES","CA",90007,34.0390471790001,-118.293194474,349,"1664 CORDOVA ST UNIT 1, LOS ANGELES, CA, 90007","Match","Exact","1664 CORDOVA ST, LOS ANGELES, CA, 90007",141606825,"L"
239350,"1664 DAKOTA DRIVE","HUDSON","NC",28638,35.82088571,-81.499320306,350,"1664 DAKOTA DRIVE, HUDSON, NC, 28638","Match","Exact","1664 DAKOTA DR, HUDSON, NC, 28638",636571233,"R"
239351,"1664 DOCK LANDING ROAD","CHESAPEAKE","VA",23321,36.79993037,-76.4095701959999,351,"1664 DOCK LANDING ROAD, CHESAPEAKE, VA, 23321","Match","Exact","1664 DOCK LANDING RD, CHESAPEAKE, VA, 23321",643438755,"L"
239352,"1664 E FLORENCE BLVD 4-184","CASA GRANDE","AZ",85122,32.8795518740001,-111.721010315,352,"1664 E FLORENCE BLVD 4-184, CASA GRANDE, AZ, 85122","Match","Non_Exact","1664 E FLORENCE BLVD, CASA GRANDE, AZ, 85122",647333337,"R"
239353,"1664 EAST 12TH RD","STREATOR","IL",61364,41.1729566600001,-88.931940184,353,"1664 EAST 12TH RD, STREATOR, IL, 61364","Match","Exact","1664 E 12TH RD, STREATOR, IL, 61364",8590420,"R"
239354,"1664 EAST WALLUM LAKE RD","PASCOAG","RI",2859,41.9967438140001,-71.7408850639999,354,"1664 EAST WALLUM LAKE RD, PASCOAG, RI, 2859","Match","Exact","1664 E WALLUM LAKE RD, PASCOAG, RI, 02859",47509725,"L"
239355,"1664 EIDSON RD","EAGLE PASS","TX",78852,28.684617174,-100.484748045,355,"1664 EIDSON RD, EAGLE PASS, TX, 78852","Match","Exact","1664 EIDSON RD, EAGLE PASS, TX, 78852",183364610,"L"
239356,"1664 FOWLER DRIVE","FRUITA","CO",81521,39.1368110440001,-108.744827122,356,"1664 FOWLER DRIVE, FRUITA, CO, 81521","Match","Exact","1664 FOWLER DR, FRUITA, CO, 81521",611649932,"L"
239357,"1664 GARRISON DRIVE","FRISCO","TX",75033,33.154819011,-96.8766300349999,357,"1664 GARRISON DRIVE, FRISCO, TX, 75033","Match","Exact","1664 GARRISON DR, FRISCO, TX, 75033",103412205,"R"
239358,"1664 GENTILLY BLVD","NEW ORLEANS","LA",70119,29.9820896430001,-90.077110634,358,"1664 GENTILLY BLVD, NEW ORLEANS, LA, 70119","Match","Exact","1664 GENTILLY BLVD, NEW ORLEANS, LA, 70119",191741611,"R"
239359,"1664 GORDY ST","CHATOM","AL",36518,31.458599823,-88.2460708099999,359,"1664 GORDY ST, CHATOM, AL, 36518","Match","Exact","1664 GORDY ST, CHATOM, AL, 36518",62238230,"L"
239360,"1664 HAMLIN ROAD","HAMLIN","ME",4785,47.0758772470001,-67.8150627759999,360,"1664 HAMLIN ROAD, HAMLIN, ME, 4785","Match","Exact","1664 HAMLIN RD, HAMLIN, ME, 04785",626999994,"L"
239361,"1664 HAMMOCK CIRCLE W","JACKSONVILLE","FL",32225,30.3564152870001,-81.464094302,361,"1664 HAMMOCK CIRCLE W, JACKSONVILLE, FL, 32225","Match","Exact","1664 HAMMOCK CIR W, JACKSONVILLE, FL, 32225",83906228,"L"
239362,"1664 HARDINSBURG RD","CECILIA","KY",42724,37.6651740930001,-85.968642782,362,"1664 HARDINSBURG RD, CECILIA, KY, 42724","Match","Exact","1664 HARDINSBURG RD, CECILIA, KY, 42724",34620550,"L"
239363,"1664 HAVENSHIRE ROAD","AURORA","IL",60505,41.7804060120001,-88.273384941,363,"1664 HAVENSHIRE ROAD, AURORA, IL, 60505","Match","Non_Exact","1664 HAVENSHIRE LN, AURORA, IL, 60505",119589468,"R"
239364,"1664 HOPE DR APT 1623","SANTA CLARA","CA",95054,37.399395876,-121.956972121,364,"1664 HOPE DR APT 1623, SANTA CLARA, CA, 95054","Match","Exact","1664 HOPE DR, SANTA CLARA, CA, 95054",647568901,"L"
239365,"1664 ISLESWORTH WAY","PLUMAS LAKE","CA",95961,39.000949645,-121.545734944,365,"1664 ISLESWORTH WAY, PLUMAS LAKE, CA, 95961","Match","Exact","1664 ISLESWORTH WAY, PLUMAS LAKE, CA, 95961",611582743,"L"
239366,"1664 LANGLEY DRIVE APT 508","HAGERSTOWN","MD",21740,39.6179799940001,-77.690690272,366,"1664 LANGLEY DRIVE APT 508, HAGERSTOWN, MD, 21740","Match","Exact","1664 LANGLEY DR, HAGERSTOWN, MD, 21740",636218884,"R"
239367,"1664 LENOX ROAD NE","ATLANTA","GA",30306,33.800830375,-84.351818895,367,"1664 LENOX ROAD NE, ATLANTA, GA, 30306","Match","Exact","1664 LENOX RD NE, ATLANTA, GA, 30306",17356503,"L"
239368,"1664 MILLER ST","MEMPHIS","TN",38106,35.102011265,-90.0414940059999,368,"1664 MILLER ST, MEMPHIS, TN, 38106","Match","Exact","1664 MILLER ST, MEMPHIS, TN, 38106",72907918,"L"
239369,"1664 MOLIRO ROAD APT D","AURORA","IL",60505,NA,NA,369,"1664 MOLIRO ROAD APT D, AURORA, IL, 60505","No_Match",NA,NA,NA,NA
239370,"1664 MOLITOR ROAD APT D","AURORA","IL",60505,41.7939597660001,-88.2733894259999,370,"1664 MOLITOR ROAD APT D, AURORA, IL, 60505","Match","Exact","1664 MOLITOR RD, AURORA, IL, 60505",119513097,"L"
239371,"1664 MONUMENT RD","MIDDLETOWN","MD",21769,NA,NA,371,"1664 MONUMENT RD, MIDDLETOWN, MD, 21769","No_Match",NA,NA,NA,NA
239372,"1664 MOORE HILL ROAD","NEWBURY","VT",5051,44.066083028,-72.0949321269999,372,"1664 MOORE HILL ROAD, NEWBURY, VT, 5051","Match","Exact","1664 MOORE HILL RD, NEWBURY, VT, 05051",181125351,"L"
239373,"1664 MUIRFIELD LANE","EVERGREEN","CO",80439,39.684978744,-105.360762632,373,"1664 MUIRFIELD LANE, EVERGREEN, CO, 80439","Match","Exact","1664 MUIRFIELD LN, EVERGREEN, CO, 80439",177735253,"R"
239374,"1664 N VIRGINIA ST MS 0310","RENO","NV",89557,NA,NA,374,"1664 N VIRGINIA ST MS 0310, RENO, NV, 89557","No_Match",NA,NA,NA,NA
239375,"1664 N VIRGINIA ST","RENO","NV",89557,39.5465585320001,-119.820621558,375,"1664 N VIRGINIA ST, RENO, NV, 89557","Match","Exact","1664 NORTH VIRGINIA ST, RENO, NV, 89557",107110107,"R"
239376,"1664 N VIRGINIA ST","RENO","NV",89577,39.5465585320001,-119.820621558,376,"1664 N VIRGINIA ST, RENO, NV, 89577","Match","Non_Exact","1664 NORTH VIRGINIA ST, RENO, NV, 89557",107110107,"R"
239377,"1664 N VIRGINIA STREET MS 0046","RENO","NV",89557,NA,NA,377,"1664 N VIRGINIA STREET MS 0046, RENO, NV, 89557","No_Match",NA,NA,NA,NA
239378,"1664 N WOODS CREEK DRIVE","DAYTON","OH",45458,39.5789355730001,-84.1587987089999,378,"1664 N WOODS CREEK DRIVE, DAYTON, OH, 45458","Match","Non_Exact","1664 N WOOD CREEK DR, DAYTON, OH, 45458",637593433,"L"
239379,"1664 NE SILVIA AVE","JENSEN BEACH","FL",34957,27.2252388150001,-80.226261649,379,"1664 NE SILVIA AVE, JENSEN BEACH, FL, 34957","Match","Exact","1664 NE SILVIA AVE, JENSEN BEACH, FL, 34957",120420488,"L"
239380,"1664 NEWTON OAK CIRCLE E","MEMPHIS","TN",38117,35.0862538170001,-89.886930772,380,"1664 NEWTON OAK CIRCLE E, MEMPHIS, TN, 38117","Match","Exact","1664 NEWTON OAK CIR E, MEMPHIS, TN, 38117",636778542,"L"
239381,"1664 NORTH VIRGINIA ST MS 274","RENO","NV",89557,39.5465585320001,-119.820621558,381,"1664 NORTH VIRGINIA ST MS 274, RENO, NV, 89557","Match","Exact","1664 NORTH VIRGINIA ST, RENO, NV, 89557",107110107,"R"
239382,"1664 NW 6TH STREET","MCMINNVILLE","OR",97128,45.211788755,-123.218463494,382,"1664 NW 6TH STREET, MCMINNVILLE, OR, 97128","Match","Exact","1664 NW 6TH ST, MCMINNVILLE, OR, 97128",638596526,"L"
239383,"1664 OVERFIELD DR SE","GRAND RAPIDS","MI",49508,42.85228341,-85.622577962,383,"1664 OVERFIELD DR SE, GRAND RAPIDS, MI, 49508","Match","Exact","1664 OVERFIELD DR SE, GRAND RAPIDS, MI, 49508",12490817,"R"
239384,"1664 PALMETTO PALM WAY","NORTH PORT","FL",34288,27.0473349820001,-82.147611055,384,"1664 PALMETTO PALM WAY, NORTH PORT, FL, 34288","Match","Exact","1664 PALMETTO PALM WAY, NORTH PORT, FL, 34288",16390611,"L"
239385,"1664 PARKCREST CIRCLE APT 301","RESTON","VA",20190,38.9577262390001,-77.330978062,385,"1664 PARKCREST CIRCLE APT 301, RESTON, VA, 20190","Match","Exact","1664 PARKCREST CIR, RESTON, VA, 20190",641103111,"R"
239386,"1664 PARKFOREST DR","BATON ROUGE","LA",70816,NA,NA,386,"1664 PARKFOREST DR, BATON ROUGE, LA, 70816","No_Match",NA,NA,NA,NA
239387,"1664 PAYTON CT NE","SAUK RAPIDS","MN",56379,45.601632039,-94.128819815,387,"1664 PAYTON CT NE, SAUK RAPIDS, MN, 56379","Match","Exact","1664 PAYTON CT NE, SAUK RAPIDS, MN, 56379",167368799,"R"
239388,"1664 POCOHANTAS ST","NORFOLK","VA",23511,36.9484138440001,-76.318932764,388,"1664 POCOHANTAS ST, NORFOLK, VA, 23511","Match","Non_Exact","1664 POCAHONTAS ST, NORFOLK, VA, 23511",122143541,"R"
239389,"1664 PRINCETON RD","ALTOONA","PA",16602,40.538500786,-78.350896284,389,"1664 PRINCETON RD, ALTOONA, PA, 16602","Match","Exact","1664 PRINCETON RD, ALTOONA, PA, 16602",617449637,"L"
239390,"1664 RIVIERA ST","SAGINAW","MI",48604,43.46846222,-83.948799325,390,"1664 RIVIERA ST, SAGINAW, MI, 48604","Match","Exact","1664 RIVIERA ST, SAGINAW, MI, 48604",80210032,"R"
239391,"1664 S BOULDER AVE","ONTARIO","CA",91762,34.0430026860001,-117.665762001,391,"1664 S BOULDER AVE, ONTARIO, CA, 91762","Match","Exact","1664 S BOULDER AVE, ONTARIO, CA, 91762",144673580,"R"
239392,"1664 S MOUNTAIN VIEW BLVD","WOODS CROSS","UT",84087,40.8736697790001,-111.93393224,392,"1664 S MOUNTAIN VIEW BLVD, WOODS CROSS, UT, 84087","Match","Exact","1664 MOUNTAIN VIEW BLVD, WOODS CROSS, UT, 84087",627788181,"R"
239393,"1664 S YALE","MESA","AZ",85204,33.3840320800001,-111.774316324,393,"1664 S YALE, MESA, AZ, 85204","Match","Exact","1664 S YALE, MESA, AZ, 85204",128247251,"L"
239394,"1664 SCOTT CREEK RD","NIANGUA","MO",65713,37.3376287300001,-92.722856338,394,"1664 SCOTT CREEK RD, NIANGUA, MO, 65713","Match","Exact","1664 SCOTT CREEK RD, NIANGUA, MO, 65713",26629728,"L"
239395,"1664 SKY BLUE DR","SUN PRAIRIE","WI",53590,43.1587156250001,-89.2605651659999,395,"1664 SKY BLUE DR, SUN PRAIRIE, WI, 53590","Match","Exact","1664 SKY BLUE DR, SUN PRAIRIE, WI, 53590",632199074,"R"
239396,"1664 SKY BLUE DRIVE","SUN PRAIRIE","WI",53590,43.1587156250001,-89.2605651659999,396,"1664 SKY BLUE DRIVE, SUN PRAIRIE, WI, 53590","Match","Exact","1664 SKY BLUE DR, SUN PRAIRIE, WI, 53590",632199074,"R"
239397,"1664 STATE RTE 30","TUPPER LAKE","NY",12986,44.196342165,-74.4807315639999,397,"1664 STATE RTE 30, TUPPER LAKE, NY, 12986","Match","Exact","1664 STATE RTE 30, TUPPER LAKE, NY, 12986",640443383,"R"
239398,"1664 TAPPAHANNOCK TRAIL","MARIETTA","GA",30063,33.9901609250001,-84.500302612,398,"1664 TAPPAHANNOCK TRAIL, MARIETTA, GA, 30063","Match","Non_Exact","1664 TAPPAHANNOCK TRL, MARIETTA, GA, 30062",645395042,"R"
239399,"1664 TAZEWELL HIGHWAY","SNEEDVILLE","TN",37869,36.506670226,-83.242179605,399,"1664 TAZEWELL HIGHWAY, SNEEDVILLE, TN, 37869","Match","Exact","1664 TAZEWELL HWY, SNEEDVILLE, TN, 37869",42375243,"L"
239400,"1664 VIRGINIA ST","RENO","NV",89557,39.5465585320001,-119.820621558,400,"1664 VIRGINIA ST, RENO, NV, 89557","Match","Non_Exact","1664 NORTH VIRGINIA ST, RENO, NV, 89557",107110107,"R"
239401,"1664 WESTMORELAND AVE APT 12","CINCINNATI","OH",45223,39.1661619400001,-84.543598705,401,"1664 WESTMORELAND AVE APT 12, CINCINNATI, OH, 45223","Match","Exact","1664 WESTMORELAND AVE, CINCINNATI, OH, 45223",103922223,"R"
239402,"1664 WILLOW LAKE LANE","SAN JOSE","CA",95131,37.384497894,-121.8916799,402,"1664 WILLOW LAKE LANE, SAN JOSE, CA, 95131","Match","Exact","1664 WILLOW LAKE LN, SAN JOSE, CA, 95131",123009199,"L"
239403,"1664 WOODSIDE WAY","XENIA","OH",45385,39.6346450340001,-83.9331599659999,403,"1664 WOODSIDE WAY, XENIA, OH, 45385","Match","Exact","1664 WOODSIDE WAY, XENIA, OH, 45385",143417690,"L"
239404,"1664 YELLOWSTONE STREET","NAPA","CA",94558,38.3303581440001,-122.309396409,404,"1664 YELLOWSTONE STREET, NAPA, CA, 94558","Match","Exact","1664 YELLOWSTONE ST, NAPA, CA, 94558",67414914,"R"
239405,"16640 BENTON TAYLOR DRIVE","CHESTERFIELD","MO",63005,38.653795152,-90.582929768,405,"16640 BENTON TAYLOR DRIVE, CHESTERFIELD, MO, 63005","Match","Exact","16640 BENTON TAYLOR DR, CHESTERFIELD, MO, 63005",628731777,"R"
239406,"16640 DEVONSHIRE STREET","GRANADA HILLS","CA",91344,34.257465246,-118.494644336,406,"16640 DEVONSHIRE STREET, GRANADA HILLS, CA, 91344","Match","Exact","16640 DEVONSHIRE ST, GRANADA HILLS, CA, 91344",141543080,"L"
239407,"16640 HEARTHSIDE WAY","LAKEVILLE","MN",55044,44.7077584240001,-93.235301337,407,"16640 HEARTHSIDE WAY, LAKEVILLE, MN, 55044","Match","Exact","16640 HEARTHSIDE WAY, LAKEVILLE, MN, 55044",37977855,"R"
239408,"16640 S TURNER ST","MARKHAM","IL",60428,41.5872594800001,-87.6981705169999,408,"16640 S TURNER ST, MARKHAM, IL, 60428","Match","Non_Exact","16640 TURNER AVE, MARKHAM, IL, 60428",111704890,"R"
239409,"16640 STEPHENS ROAD","NEWARK","IL",60541,41.4815877570001,-88.569630573,409,"16640 STEPHENS ROAD, NEWARK, IL, 60541","Match","Exact","16640 STEPHENS RD, NEWARK, IL, 60541",611679485,"R"
239410,"16640 THATCHER ROAD","EDEN PRAIRIE","MN",55347,44.847895255,-93.487735802,410,"16640 THATCHER ROAD, EDEN PRAIRIE, MN, 55347","Match","Exact","16640 THATCHER RD, EDEN PRAIRIE, MN, 55347",43846197,"L"
239411,"16640 WINDY HILL DRIVE","ST. MARY","MO",63673,37.8800350450001,-90.020358115,411,"16640 WINDY HILL DRIVE, ST. MARY, MO, 63673","Match","Exact","16640 WINDY HILL DR, SAINT MARY, MO, 63673",63000020,"L"
239412,"16641 EDGEWATER LANE","HUNTINGTON BEACH","CA",92649,33.72026047,-118.056953294,412,"16641 EDGEWATER LANE, HUNTINGTON BEACH, CA, 92649","Match","Exact","16641 EDGEWATER LN, HUNTINGTON BEACH, CA, 92649",144013452,"R"
239413,"16641 MANTAU ROAD","HOMER GLEN","IL",60491,41.5863809510001,-87.916823187,413,"16641 MANTAU ROAD, HOMER GLEN, IL, 60491","Match","Non_Exact","16641 MANITOU RD, HOMER GLEN, IL, 60491",111564021,"L"
239414,"16641 NEGAUNEE","REDFORD","MI",48240,42.410226122,-83.311665908,414,"16641 NEGAUNEE, REDFORD, MI, 48240","Match","Exact","16641 NEGAUNEE, REDFORD, MI, 48240",95419187,"L"
239415,"16642 58TH ST NE","OTSEGO","MI",55330,NA,NA,415,"16642 58TH ST NE, OTSEGO, MI, 55330","No_Match",NA,NA,NA,NA
239416,"16642 MAPLE","CARTHAGE","MO",64836,37.242153795,-94.356190275,416,"16642 MAPLE, CARTHAGE, MO, 64836","Match","Non_Exact","16642 MAPLE RD, CARTHAGE, MO, 64836",66141365,"R"
239417,"16642 MONTE VISTA","DETROIT","MI",48221,42.4135007300001,-83.167806898,417,"16642 MONTE VISTA, DETROIT, MI, 48221","Match","Non_Exact","16642 MONTE VISTA ST, DETROIT, MI, 48221",95425754,"R"
239418,"16642 PRINCE DR","SOUTH HOLLAND","IL",60473,41.5928089080001,-87.584027959,418,"16642 PRINCE DR, SOUTH HOLLAND, IL, 60473","Match","Exact","16642 PRINCE DR, SOUTH HOLLAND, IL, 60473",111780808,"R"
239419,"16642 S 38H ST","PHOENIX","AZ",85048,NA,NA,419,"16642 S 38H ST, PHOENIX, AZ, 85048","No_Match",NA,NA,NA,NA
239420,"16642 S KENWOOD","SOUTH HOLLAND","IL",60473,41.5929173230001,-87.5850719429999,420,"16642 S KENWOOD, SOUTH HOLLAND, IL, 60473","Match","Non_Exact","16642 KENWOOD AVE, SOUTH HOLLAND, IL, 60473",111780767,"R"
239421,"16643 COUNTY ROAD 672","LITHIA","FL",33547,27.7625588440001,-82.19111527,421,"16643 COUNTY ROAD 672, LITHIA, FL, 33547","Match","Exact","16643 CO RD 672, LITHIA, FL, 33547",104631451,"R"
239422,"16643 DIXIE HWY","MARKHAM","IL",60428,41.587366317,-87.665534655,422,"16643 DIXIE HWY, MARKHAM, IL, 60428","Match","Exact","16643 DIXIE HWY, MARKHAM, IL, 60428",111705960,"R"
239423,"16643 LAKE AQUILLA LANE","HOUSTON","TX",77044,29.965036925,-95.164776525,423,"16643 LAKE AQUILLA LANE, HOUSTON, TX, 77044","Match","Exact","16643 LAKE AQUILLA LN, HOUSTON, TX, 77044",645132727,"R"
239424,"16643 W QUAIL RUN RD","SURPRISE","AZ",85387,33.7749072140001,-112.419532567,424,"16643 W QUAIL RUN RD, SURPRISE, AZ, 85387","Match","Exact","16643 W QUAIL RUN RD, SURPRISE, AZ, 85387",640591717,"L"
239425,"16644 E ASBURY PLACE","AURORA","CO",80013,39.680134351,-104.795021263,425,"16644 E ASBURY PLACE, AURORA, CO, 80013","Match","Exact","16644 E ASBURY PL, AURORA, CO, 80013",177357142,"R"
239426,"16644 LESURE","DETROIT","MI",48235,42.4130421400001,-83.1817455029999,426,"16644 LESURE, DETROIT, MI, 48235","Match","Non_Exact","16644 LESURE ST, DETROIT, MI, 48235",95424824,"R"
239427,"16644 N 33RD ST UNIT 102","PHOENIX","AZ",85032,33.638174657,-112.012068106,427,"16644 N 33RD ST UNIT 102, PHOENIX, AZ, 85032","Match","Non_Exact","16644 N 33RD ST, PHOENIX, AZ, 85032",128601413,"L"
239428,"16644 N LAKESIDE DR","DOLAN SPRINGS","AZ",86441,35.6076549790001,-114.259724101,428,"16644 N LAKESIDE DR, DOLAN SPRINGS, AZ, 86441","Match","Exact","16644 LAKESIDE DR, DOLAN SPRINGS, AZ, 86441",618620035,"R"
239429,"16644 NW PAISLEY DRIVE","BEAVERTON","OR",97006,45.5448433770001,-122.848255167,429,"16644 NW PAISLEY DRIVE, BEAVERTON, OR, 97006","Match","Exact","16644 NW PAISLEY DR, BEAVERTON, OR, 97006",158182538,"R"
239430,"16644 S HARRELLS FERRY RD","BATON ROUGE","LA",70816,30.424787984,-91.00181725,430,"16644 S HARRELLS FERRY RD, BATON ROUGE, LA, 70816","Match","Exact","16644 S HARRELLS FERRY RD, BATON ROUGE, LA, 70816",635969765,"R"
239431,"16644 W HILTON AVENUE","GOODYEAR","AZ",85338,33.426603212,-112.416415779,431,"16644 W HILTON AVENUE, GOODYEAR, AZ, 85338","Match","Exact","16644 W HILTON AVE, GOODYEAR, AZ, 85338",128167687,"R"
239432,"16645 CARACARA CT","SPRING HILL","FL",34610,28.3397356340001,-82.540234353,432,"16645 CARACARA CT, SPRING HILL, FL, 34610","Match","Exact","16645 CARACARA CT, SPRING HILL, FL, 34610",86382913,"L"
239433,"16645 DOWNING ST","THORNTON","CO",80602,39.996030365,-104.970175465,433,"16645 DOWNING ST, THORNTON, CO, 80602","Match","Exact","16645 DOWNING ST, THORNTON, CO, 80602",601645306,"L"
239434,"16645 GRAND AVE","BELLFLOWER","CA",90706,33.8824724410001,-118.112967413,434,"16645 GRAND AVE, BELLFLOWER, CA, 90706","Match","Exact","16645 GRAND AVE, BELLFLOWER, CA, 90706",142795201,"R"
239435,"16645 JACK TONE ROAD","LODI","CA",95240,38.1336292780001,-121.150771295,435,"16645 JACK TONE ROAD, LODI, CA, 95240","Match","Non_Exact","16645 N JACK TONE RD, LODI, CA, 95240",133862438,"L"
239436,"16645 LAKESHORE DRIVE","LAKE ELSINORE","CA",92530,33.6866677510001,-117.369976016,436,"16645 LAKESHORE DRIVE, LAKE ELSINORE, CA, 92530","Match","Exact","16645 LAKESHORE DR, LAKE ELSINORE, CA, 92530",194812811,"L"
239437,"16645 ROAD 26","MADERA","CA",93638,NA,NA,437,"16645 ROAD 26, MADERA, CA, 93638","No_Match",NA,NA,NA,NA
239438,"16645 SILHOUETTE ROAD","SAN DIEGO","CA",92127,33.023009458,-117.152056323,438,"16645 SILHOUETTE ROAD, SAN DIEGO, CA, 92127","Match","Exact","16645 SILHOUETTE RD, SAN DIEGO, CA, 92127",645068035,"R"
239439,"16646 CHESTERFIELD FARMS DRIVE","CHESTERFIELD","MO",63005,38.662508388,-90.584610276,439,"16646 CHESTERFIELD FARMS DRIVE, CHESTERFIELD, MO, 63005","Match","Exact","16646 CHESTERFIELD FARMS DR, CHESTERFIELD, MO, 63005",100178704,"R"
239440,"16647 N 41ST PLACE","PHOENIX","AZ",85032,33.6373314210001,-111.991960701,440,"16647 N 41ST PLACE, PHOENIX, AZ, 85032","Match","Exact","16647 N 41ST PL, PHOENIX, AZ, 85032",640590646,"R"
239441,"16647 SUNBURST STREET","NORTH HILLS","CA",91343,34.234793552,-118.494625746,441,"16647 SUNBURST STREET, NORTH HILLS, CA, 91343","Match","Exact","16647 SUNBURST ST, NORTH HILLS, CA, 91343",141544588,"R"
239442,"16648 CEDAR CIRCLE","FOUNTAIN VALLEY","CA",92708,33.7208253320001,-117.962106378,442,"16648 CEDAR CIRCLE, FOUNTAIN VALLEY, CA, 92708","Match","Exact","16648 CEDAR CIR, FOUNTAIN VALLEY, CA, 92708",144037575,"L"
239443,"16648 N BOULDER DR","FOUNTAIN HILLS","AZ",85268,33.6379833130001,-111.736999766,443,"16648 N BOULDER DR, FOUNTAIN HILLS, AZ, 85268","Match","Exact","16648 N BOULDER DR, FOUNTAIN HILLS, AZ, 85268",128937853,"L"
239444,"16648 SW 88TH PL","TIGARD","OR",97224,45.399720755,-122.767593821,444,"16648 SW 88TH PL, TIGARD, OR, 97224","Match","Exact","16648 SW 88TH PL, TIGARD, OR, 97224",158215623,"L"
239445,"16648 VALLELEY DR","TAMPA","FL",33618,28.1112157680001,-82.488847424,445,"16648 VALLELEY DR, TAMPA, FL, 33618","Match","Non_Exact","16648 VALLELY DR, TAMPA, FL, 33618",640440524,"R"
239446,"16648 VALLELY DR",NA,"FL",33618,28.1112157680001,-82.488847424,446,"16648 VALLELY DR, , FL, 33618","Match","Exact","16648 VALLELY DR, CARROLLWOOD, FL, 33618",640440524,"R"
239447,"16648 VALLELY DR","TAMPA","FL",33618,28.1112157680001,-82.488847424,447,"16648 VALLELY DR, TAMPA, FL, 33618","Match","Exact","16648 VALLELY DR, TAMPA, FL, 33618",640440524,"R"
239448,"16649 CENTRAL PARK","MARKHAM","IL",60428,41.5876403830001,-87.703286029,448,"16649 CENTRAL PARK, MARKHAM, IL, 60428","Match","Non_Exact","16649 CENTRAL PARK AVE, MARKHAM, IL, 60428",111704823,"L"
239449,"16649 PRINCETON","DETROIT","MI",48221,42.413754414,-83.1291013159999,449,"16649 PRINCETON, DETROIT, MI, 48221","Match","Non_Exact","16649 PRINCETON ST, DETROIT, MI, 48221",95461558,"L"
239450,"1665 16TH CT SW","VERO BEACH","FL",32962,27.5763196070001,-80.402555524,450,"1665 16TH CT SW, VERO BEACH, FL, 32962","Match","Exact","1665 16TH CT SW, VERO BEACH, FL, 32962",120317185,"R"
239451,"1665 45TH STREET","BROOKLYN","NY",11204,40.63235231,-73.981626778,451,"1665 45TH STREET, BROOKLYN, NY, 11204","Match","Exact","1665 45TH ST, BROOKLYN, NY, 11204",59080702,"L"
239452,"1665 49TH STREET","MARION","IA",52302,42.040222412,-91.558096227,452,"1665 49TH STREET, MARION, IA, 52302","Match","Exact","1665 49TH ST, MARION, IA, 52302",647760386,"R"
239453,"1665 6TH AVE APT 6","BELMOND","CA",94002,37.5132160410001,-122.269532849,453,"1665 6TH AVE APT 6, BELMOND, CA, 94002","Match","Non_Exact","1665 6TH AVE, BELMONT, CA, 94002",192382067,"L"
239454,"1665 74TH ST","BROOKLYN","NY",11204,40.6158834120001,-73.9984688549999,454,"1665 74TH ST, BROOKLYN, NY, 11204","Match","Exact","1665 74TH ST, BROOKLYN, NY, 11204",59088035,"L"
239455,"1665 A ST","BRAWLEY","CA",92227,32.9841184540001,-115.51117995,455,"1665 A ST, BRAWLEY, CA, 92227","Match","Exact","1665 A ST, BRAWLEY, CA, 92227",194541951,"L"
239456,"1665 A STREET","BRAWLEY","CA",92227,32.9841184540001,-115.51117995,456,"1665 A STREET, BRAWLEY, CA, 92227","Match","Exact","1665 A ST, BRAWLEY, CA, 92227",194541951,"L"
239457,"1665 ALABAMA STREET","SAN FRANCISCO","CA",94110,37.746080519,-122.41053326,457,"1665 ALABAMA STREET, SAN FRANCISCO, CA, 94110","Match","Exact","1665 ALABAMA ST, SAN FRANCISCO, CA, 94110",192288764,"L"
239458,"1665 ARCHER ROAD","OCEANSIDE","CA",92054,NA,NA,458,"1665 ARCHER ROAD, OCEANSIDE, CA, 92054","No_Match",NA,NA,NA,NA
239459,"1665 ARCHER ROAD","SAN MARCOS","CA",92078,33.0978260380001,-117.203159496,459,"1665 ARCHER ROAD, SAN MARCOS, CA, 92078","Match","Non_Exact","1665 ARCHER, SAN MARCOS, CA, 92078",195762908,"L"
239460,"1665 ARDENWOOD DRIVE","SAN JOSE","CA",95129,37.2945046720001,-122.022556385,460,"1665 ARDENWOOD DRIVE, SAN JOSE, CA, 95129","Match","Exact","1665 ARDENWOOD DR, SAN JOSE, CA, 95129",638126077,"R"
239461,"1665 ARNOW AVE","BRONX","NY",10469,40.8684137920001,-73.8394816799999,461,"1665 ARNOW AVE, BRONX, NY, 10469","Match","Exact","1665 ARNOW AVE, BRONX, NY, 10469",80304025,"L"
239462,"1665 Ashbury Lane","Romeoville","IL",60446,41.616559056,-88.142451194,462,"1665 Ashbury Lane, Romeoville, IL, 60446","Match","Exact","1665 ASHBURY LN, ROMEOVILLE, IL, 60446",111613933,"L"
239463,"1665 BADGER AVE","PLAINFIELD","IA",50666,42.809900215,-92.534104541,463,"1665 BADGER AVE, PLAINFIELD, IA, 50666","Match","Exact","1665 BADGER AVE, PLAINFIELD, IA, 50666",641781269,"L"
239464,"1665 BEDFORD AVE","BROOKLYN","NY",11216,40.6658910080001,-73.9567890019999,464,"1665 BEDFORD AVE, BROOKLYN, NY, 11216","Match","Non_Exact","1665 BEDFORD AVE, BROOKLYN, NY, 11225",59079388,"L"
239465,"1665 BEDFORD AVE","BROOKLYN","NY",11225,40.6658910080001,-73.9567890019999,465,"1665 BEDFORD AVE, BROOKLYN, NY, 11225","Match","Exact","1665 BEDFORD AVE, BROOKLYN, NY, 11225",59079388,"L"
239466,"1665 BEDFORD AVENUE","BROOKLYN","NY",11225,40.6658910080001,-73.9567890019999,466,"1665 BEDFORD AVENUE, BROOKLYN, NY, 11225","Match","Exact","1665 BEDFORD AVE, BROOKLYN, NY, 11225",59079388,"L"
239467,"1665 BOSTON ST","AURORA","CO",80010,39.7431074520001,-104.879923435,467,"1665 BOSTON ST, AURORA, CO, 80010","Match","Exact","1665 BOSTON ST, AURORA, CO, 80010",177313956,"L"
239468,"1665 BRADLEY STREET","RIVERSIDE","CA",92506,33.908922955,-117.382639839,468,"1665 BRADLEY STREET, RIVERSIDE, CA, 92506","Match","Exact","1665 BRADLEY ST, RIVERSIDE, CA, 92506",194837909,"R"
239469,"1665 BURGESS RD","WATERLOO","NY",13136,42.944908008,-76.857781842,469,"1665 BURGESS RD, WATERLOO, NY, 13136","Match","Non_Exact","1665 BURGESS RD, WATERLOO, NY, 13165",635514346,"R"
239470,"1665 CAMPBELL COURT","FRISCO","TX",75036,33.139449126,-96.876767303,470,"1665 CAMPBELL COURT, FRISCO, TX, 75036","Match","Exact","1665 CAMPBELL CT, FRISCO, TX, 75036",641482845,"L"
239471,"1665 CANADA CROSS RD","EDWARDS","MS",39066,32.2340236160001,-90.705757093,471,"1665 CANADA CROSS RD, EDWARDS, MS, 39066","Match","Exact","1665 CANADA CROSS RD, EDWARDS, MS, 39066",639742895,"R"
239472,"1665 CEDAR BAY RD","JACKSONVILLE","FL",32218,30.4266458440001,-81.615463791,472,"1665 CEDAR BAY RD, JACKSONVILLE, FL, 32218","Match","Exact","1665 CEDAR BAY RD, JACKSONVILLE, FL, 32218",83937395,"L"
239473,"1665 CORA DRIVE","BATON ROSUGE","LA",70815,30.436829419,-91.0814307319999,473,"1665 CORA DRIVE, BATON ROSUGE, LA, 70815","Match","Non_Exact","1665 CORA DR, BATON ROUGE, LA, 70815",92196736,"L"
239474,"1665 COUNTY RD 24","NICKERSON","NE",68044,41.5100907300001,-96.463640888,474,"1665 COUNTY RD 24, NICKERSON, NE, 68044","Match","Exact","1665 CO RD 24, NICKERSON, NE, 68044",136333534,"L"
239475,"1665 CRIPPLE CREEK COURT","INDIANAPOLIS","IN",46229,39.791241551,-85.9533296709999,475,"1665 CRIPPLE CREEK COURT, INDIANAPOLIS, IN, 46229","Match","Exact","1665 CRIPPLE CREEK CT, INDIANAPOLIS, IN, 46229",108030513,"R"
239476,"1665 DUNCANVILLE RD","DALLAS","TX",75211,32.7293688660001,-96.909767431,476,"1665 DUNCANVILLE RD, DALLAS, TX, 75211","Match","Exact","1665 DUNCANVILLE RD, DALLAS, TX, 75211",103192986,"L"
239477,"1665 E 4TH STREET 219","SANTA ANA","CA",92701,33.748112427,-117.845621622,477,"1665 E 4TH STREET 219, SANTA ANA, CA, 92701","Match","Non_Exact","1665 E 4TH ST, SANTA ANA, CA, 92701",144418416,"L"
239478,"1665 E CULLUMBER ST","GILBERT","AZ",85234,33.35544343,-111.753946371,478,"1665 E CULLUMBER ST, GILBERT, AZ, 85234","Match","Exact","1665 E CULLUMBER ST, GILBERT, AZ, 85234",128809367,"L"
239479,"1665 EAST 27TH","EUGUENE","OR",97403,44.030657992,-123.068688094,479,"1665 EAST 27TH, EUGUENE, OR, 97403","Match","Non_Exact","1665 E 27TH AVE, EUGENE, OR, 97403",178175520,"L"
239480,"1665 EVENINGSIDE DRIVE","THOUSAND OAKS","CA",91362,34.2207664470001,-118.84740258,480,"1665 EVENINGSIDE DRIVE, THOUSAND OAKS, CA, 91362","Match","Exact","1665 EVENINGSIDE DR, THOUSAND OAKS, CA, 91362",109975702,"R"
239481,"1665 FAIRFIELD ROAD","YARDLEY","PA",19067,40.2506648070001,-74.880488069,481,"1665 FAIRFIELD ROAD, YARDLEY, PA, 19067","Match","Exact","1665 FAIRFIELD RD, YARDLEY, PA, 19067",134741804,"L"
239482,"1665 FAIRWAY DRIVE","CORONA","CA",92883,33.8122215720001,-117.542443392,482,"1665 FAIRWAY DRIVE, CORONA, CA, 92883","Match","Exact","1665 FAIRWAY DR, CORONA, CA, 92883",647396660,"R"
239483,"1665 FOX LANE","BURLESON","TX",76028,32.542151066,-97.279214323,483,"1665 FOX LANE, BURLESON, TX, 76028","Match","Exact","1665 FOX LN, BURLESON, TX, 76028",647819545,"L"
239484,"1665 GALLUP DR","STOCKBRIDGE","GA",30281,33.5699812820001,-84.247054076,484,"1665 GALLUP DR, STOCKBRIDGE, GA, 30281","Match","Exact","1665 GALLUP DR, STOCKBRIDGE, GA, 30281",210422611,"L"
239485,"1665 GALLUP DRIVE","STOCKBRIDGE","GA",30281,33.5699812820001,-84.247054076,485,"1665 GALLUP DRIVE, STOCKBRIDGE, GA, 30281","Match","Exact","1665 GALLUP DR, STOCKBRIDGE, GA, 30281",210422611,"L"
239486,"1665 GAMMAGE RD","EUFAULA","AL",36027,32.041833754,-85.1683566849999,486,"1665 GAMMAGE RD, EUFAULA, AL, 36027","Match","Exact","1665 GAMMAGE RD, EUFAULA, AL, 36027",69089416,"R"
239487,"1665 GOLDEN GATE AVE APT 2","SAN FRANCISCO","CA",94115,37.778795212,-122.437958322,487,"1665 GOLDEN GATE AVE APT 2, SAN FRANCISCO, CA, 94115","Match","Exact","1665 GOLDEN GATE AVE, SAN FRANCISCO, CA, 94115",640944840,"L"
239488,"1665 GRAND CONCOURSE APT 44","BRONX","NY",10452,40.844403502,-73.911734009,488,"1665 GRAND CONCOURSE APT 44, BRONX, NY, 10452","Match","Exact","1665 GRAND CONCOURSE, BRONX, NY, 10452",640810560,"L"
239489,"1665 GRAY BLVD","NEWCASTLE","WY",82701,43.844279021,-104.181208579,489,"1665 GRAY BLVD, NEWCASTLE, WY, 82701","Match","Exact","1665 GRAY BLVD, NEWCASTLE, WY, 82701",147492543,"R"
239490,"1665 HEMENWAY ROAD","BRIDPORT","VT",5734,43.97424263,-73.289225932,490,"1665 HEMENWAY ROAD, BRIDPORT, VT, 5734","Match","Exact","1665 HEMENWAY RD, BRIDPORT, VT, 05734",210100748,"L"
239491,"1665 JEFFERSON ST","MUSKEGON","MI",49441,43.222104959,-86.246801545,491,"1665 JEFFERSON ST, MUSKEGON, MI, 49441","Match","Exact","1665 JEFFERSON ST, MUSKEGON, MI, 49441",77650923,"R"
239492,"1665 JONATHAN CREEK RD","SULLIVAN","IL",61951,39.646503312,-88.528427875,492,"1665 JONATHAN CREEK RD, SULLIVAN, IL, 61951","Match","Exact","1665 JONATHAN CREEK RD, SULLIVAN, IL, 61951",5816902,"R"
239493,"1665 KENMARE DRIVE","DRESHER","PA",19025,40.1526219090001,-75.167072106,493,"1665 KENMARE DRIVE, DRESHER, PA, 19025","Match","Exact","1665 KENMARE DR, DRESHER, PA, 19025",135078734,"R"
239494,"1665 KENOWA AVE","CASNOVIA","MI",49318,43.2223124700001,-85.790574312,494,"1665 KENOWA AVE, CASNOVIA, MI, 49318","Match","Non_Exact","1665 KENOWA AVE NW, CASNOVIA, MI, 49318",647176694,"L"
239495,"1665 LIBERTY AVE","GIRARD","OH",44420,41.1810683200001,-80.6681084429999,495,"1665 LIBERTY AVE, GIRARD, OH, 44420","Match","Exact","1665 LIBERTY AVE, GIRARD, OH, 44420",117426651,"L"
239496,"1665 LODI POINT ROAD","LODI","NY",14860,42.6178257240001,-76.857718706,496,"1665 LODI POINT ROAD, LODI, NY, 14860","Match","Exact","1665 LODI POINT RD, LODI, NY, 14860",635514307,"L"
239497,"1665 MACOMBS RD","BRONX","NY",10453,40.8479690130001,-73.9162018979999,497,"1665 MACOMBS RD, BRONX, NY, 10453","Match","Exact","1665 MACOMBS RD, BRONX, NY, 10453",80299605,"L"
239498,"1665 MALIBU PLACE","NEW PORT NEWS","VA",23608,37.145195475,-76.521256406,498,"1665 MALIBU PLACE, NEW PORT NEWS, VA, 23608","Match","Non_Exact","1665 MALIBU PL, NEWPORT NEWS, VA, 23608",636654559,"L"
239499,"1665 MARIA AVENUE","SPRING VALLEY","CA",91977,32.721362508,-116.994168078,499,"1665 MARIA AVENUE, SPRING VALLEY, CA, 91977","Match","Exact","1665 MARIA AVE, SPRING VALLEY, CA, 91977",195360866,"R"
239500,"1665 MARKET STREET","DAYTON","TN",37321,35.4968039780001,-85.0106170769999,500,"1665 MARKET STREET, DAYTON, TN, 37321","Match","Exact","1665 MARKET ST, DAYTON, TN, 37321",59530003,"L"
