"ID","Address","City","State","Zip","lat","long","id","input_address","match_indicator","match_type","matched_address","tiger_line_id","tiger_side"
784501,"640 IRONWOOD DR","BOWLING GREEN","KY",42103,36.9881626120001,-86.410025714,1,"640 IRONWOOD DR, BOWLING GREEN, KY, 42103","Match","Exact","640 IRONWOOD DR, BOWLING GREEN, KY, 42103",28018848,"R"
784502,"640 ISLAND CIRCLE","OCEAN SHORES","WA",98569,46.9572158560001,-124.145129622,2,"640 ISLAND CIRCLE, OCEAN SHORES, WA, 98569","Match","Non_Exact","640 ISLAND CIR SE, OCEAN SHORES, WA, 98569",180594667,"R"
784503,"640 IVY LEAGUE LN","ROCKVILLE","MD",20850,39.093524465,-77.155489288,3,"640 IVY LEAGUE LN, ROCKVILLE, MD, 20850","Match","Exact","640 IVY LEAGUE LN, ROCKVILLE, MD, 20850",62078843,"R"
784504,"640 IVY LEAGUE","ROCKVILLE","MD",20850,39.093524465,-77.155489288,4,"640 IVY LEAGUE, ROCKVILLE, MD, 20850","Match","Non_Exact","640 IVY LEAGUE LN, ROCKVILLE, MD, 20850",62078843,"R"
784505,"640 IVY THICKET CIRCLE","BURNSVILLE","NC",28714,35.824899928,-82.201755884,5,"640 IVY THICKET CIRCLE, BURNSVILLE, NC, 28714","Match","Exact","640 IVY THICKET CIR, BURNSVILLE, NC, 28714",635302687,"R"
784506,"640 JACANA CIRCLE","NAPLES","FL",34105,26.201568004,-81.773911598,6,"640 JACANA CIRCLE, NAPLES, FL, 34105","Match","Exact","640 JACANA CIR, NAPLES, FL, 34105",115138114,"R"
784507,"640 JEFFERSON TERRACE NE","AIKEN","SC",29801,33.5669212700001,-81.6996084469999,7,"640 JEFFERSON TERRACE NE, AIKEN, SC, 29801","Match","Non_Exact","640 JEFFERSON TER, AIKEN, SC, 29801",64992069,"L"
784508,"640 KINGSFORD RD","COLUMBUS","OH",43204,39.940643385,-83.094972903,8,"640 KINGSFORD RD, COLUMBUS, OH, 43204","Match","Exact","640 KINGSFORD RD, COLUMBUS, OH, 43204",641104152,"L"
784509,"640 LAKE MEDLOCK CT","ALPHPARETTA","GA",30022,34.0322359240001,-84.193600647,9,"640 LAKE MEDLOCK CT, ALPHPARETTA, GA, 30022","Match","Non_Exact","640 LAKE MEDLOCK CT, ALPHARETTA, GA, 30022",17376972,"L"
784510,"640 LAKELAND EAST DRIVE SUITE E","FLOWOOD","MS",39232,32.3341515710001,-90.0955377829999,10,"640 LAKELAND EAST DRIVE SUITE E, FLOWOOD, MS, 39232","Match","Exact","640 LAKELAND EAST DR, FLOWOOD, MS, 39232",116906313,"R"
784511,"640 LAKEWOOD RD","PENSACOLA","FL",32507,30.4015152150001,-87.263179672,11,"640 LAKEWOOD RD, PENSACOLA, FL, 32507","Match","Exact","640 LAKEWOOD RD, PENSACOLA, FL, 32507",93231405,"L"
784512,"640 LANCE DRIVE","SILVER CITY","NM",88061,32.733621746,-108.264230349,12,"640 LANCE DRIVE, SILVER CITY, NM, 88061","Match","Non_Exact","640 E LANCE DR, SILVER CITY, NM, 88061",192683862,"R"
784513,"640 LAUREL OAKE LANE UNIT 204","ALTAMONTE SPGS","FL",32701,28.6530922330001,-81.368453614,13,"640 LAUREL OAKE LANE UNIT 204, ALTAMONTE SPGS, FL, 32701","Match","Non_Exact","640 LAUREL OAK LN, ALTAMONTE SPRINGS, FL, 32701",618310256,"L"
784514,"640 LENA DRIVE","HOSCHTON","GA",30548,34.131901806,-83.694338791,14,"640 LENA DRIVE, HOSCHTON, GA, 30548","Match","Exact","640 LENA DR, HOSCHTON, GA, 30548",646543041,"R"
784515,"640 LEROY ST APT 5","FERNDALE","MI",48220,42.457258476,-83.141011846,15,"640 LEROY ST APT 5, FERNDALE, MI, 48220","Match","Exact","640 LEROY ST, FERNDALE, MI, 48220",69746537,"R"
784516,"640 LORING ST","SAN DIEGO","CA",92109,32.804544811,-117.260036192,16,"640 LORING ST, SAN DIEGO, CA, 92109","Match","Exact","640 LORING ST, SAN DIEGO, CA, 92109",195299412,"L"
784517,"640 LYNN WAY","SYKESVILLE","MD",21784,39.407075681,-76.973243219,17,"640 LYNN WAY, SYKESVILLE, MD, 21784","Match","Exact","640 LYNN WAY, SYKESVILLE, MD, 21784",209398131,"L"
784518,"640 MAIN ST","JUNCTION","TX",76849,30.48932863,-99.76683496,18,"640 MAIN ST, JUNCTION, TX, 76849","Match","Exact","640 MAIN ST, JUNCTION, TX, 76849",173450188,"R"
784519,"640 MAIN ST","SUMNER","ME",4292,44.377964202,-70.415488524,19,"640 MAIN ST, SUMNER, ME, 4292","Match","Exact","640 MAIN ST, SUMNER, ME, 04292",635536280,"L"
784520,"640 MAIN STREET","MALDEN","MA",2148,42.430583853,-71.067557995,20,"640 MAIN STREET, MALDEN, MA, 2148","Match","Exact","640 MAIN ST, MALDEN, MA, 02148",86860342,"L"
784521,"640 MARION STREET","DAYTONA BEACH","FL",32114,29.199310804,-81.020308004,21,"640 MARION STREET, DAYTONA BEACH, FL, 32114","Match","Exact","640 MARION ST, DAYTONA BEACH, FL, 32114",94525536,"R"
784522,"640 MARIS RUN","WEBSTER","NY",14580,43.2354608370001,-77.423959069,22,"640 MARIS RUN, WEBSTER, NY, 14580","Match","Exact","640 MARIS RUN, WEBSTER, NY, 14580",14587702,"R"
784523,"640 MATAWAN DR","CAMPBELL","OH",44405,41.0724717620001,-80.5733506669999,23,"640 MATAWAN DR, CAMPBELL, OH, 44405","Match","Non_Exact","640 MATAWAN AVE, CAMPBELL, OH, 44405",64601162,"L"
784524,"640 MCGUIRE ROAD","NEW MARKET","TN",37820,36.0583070320001,-83.49504873,24,"640 MCGUIRE ROAD, NEW MARKET, TN, 37820","Match","Exact","640 MCGUIRE RD, NEW MARKET, TN, 37820",608230537,"L"
784525,"640 MEDFORD AVE","HAYWARD","CA",94541,37.682619748,-122.103490464,25,"640 MEDFORD AVE, HAYWARD, CA, 94541","Match","Exact","640 MEDFORD AVE, HAYWARD, CA, 94541",125020017,"L"
784526,"640 MICHAELS RD","FREMONT","OH",43420,41.3397316520001,-83.1463303,26,"640 MICHAELS RD, FREMONT, OH, 43420","Match","Exact","640 MICHAELS RD, FREMONT, OH, 43420",38674944,"L"
784527,"640 MILLSTREAM","REXBURG","ID",83440,43.8391475180001,-111.768776519,27,"640 MILLSTREAM, REXBURG, ID, 83440","Match","Non_Exact","640 MILL STREAM ST, REXBURG, ID, 83440",627258156,"R"
784528,"640 MILLSTREAN","REXBURG","ID",83440,43.8391475180001,-111.768776519,28,"640 MILLSTREAN, REXBURG, ID, 83440","Match","Non_Exact","640 MILL STREAM ST, REXBURG, ID, 83440",627258156,"R"
784529,"640 MONTANA AVE","PALM BAY","FL",32909,27.983129347,-80.666932144,29,"640 MONTANA AVE, PALM BAY, FL, 32909","Match","Non_Exact","640 MONTANA AVE SE, PALM BAY, FL, 32909",93907927,"R"
784530,"640 MORAGA ROAD APT 211","MORAGA","CA",94556,NA,NA,30,"640 MORAGA ROAD APT 211, MORAGA, CA, 94556","No_Match",NA,NA,NA,NA
784531,"640 MOUNTAIN VIEW CHURCH RD","NORTH WILKESBORO","NC",28659,36.1133641870001,-80.984782598,31,"640 MOUNTAIN VIEW CHURCH RD, NORTH WILKESBORO, NC, 28659","Match","Exact","640 MOUNTAIN VIEW CHURCH RD, N WILKESBORO, NC, 28659",46124842,"R"
784532,"640 MURRAY LN APT 304","DES PLAINES","IL",60016,42.0342356210001,-87.939523599,32,"640 MURRAY LN APT 304, DES PLAINES, IL, 60016","Match","Exact","640 MURRAY LN, DES PLAINES, IL, 60016",111721442,"R"
784533,"640 N 156TH AVE","OMAHA","NE",68118,41.2669729950001,-96.159606152,33,"640 N 156TH AVE, OMAHA, NE, 68118","Match","Exact","640 N 156TH AVE, OMAHA, NE, 68118",116992255,"L"
784534,"640 N 2ND ST","LA CRESCENT","MN",55947,43.831233421,-91.311787769,34,"640 N 2ND ST, LA CRESCENT, MN, 55947","Match","Exact","640 N 2ND ST, LA CRESCENT, MN, 55947",55799331,"R"
784535,"640 N 39TH ST","PHILADELPHIA","PA",19104,39.964381454,-75.1998735,35,"640 N 39TH ST, PHILADELPHIA, PA, 19104","Match","Exact","640 N 39TH ST, PHILADELPHIA, PA, 19104",131403362,"L"
784536,"640 N 9TH ST","COTTAGE GROVE","OR",97424,43.801798424,-123.058945235,36,"640 N 9TH ST, COTTAGE GROVE, OR, 97424","Match","Exact","640 N 9TH ST, COTTAGE GROVE, OR, 97424",178149114,"R"
784537,"640 N BROAD ST APT 922","PHILADELPHIA","PA",19130,NA,NA,37,"640 N BROAD ST APT 922, PHILADELPHIA, PA, 19130","No_Match",NA,NA,NA,NA
784538,"640 N BROAD ST SUITE 812","PHILADELPHIA","PA",19130,NA,NA,38,"640 N BROAD ST SUITE 812, PHILADELPHIA, PA, 19130","No_Match",NA,NA,NA,NA
784539,"640 N CENTRE CITY PKWY APT 4101","ESCONDIDO","CA",92025,33.1259221510001,-117.090315236,39,"640 N CENTRE CITY PKWY APT 4101, ESCONDIDO, CA, 92025","Match","Exact","640 CENTRE CITY PKWY, ESCONDIDO, CA, 92025",195312428,"R"
784540,"640 N CHURCH ST APT 1004","CHARLOTTE","NC",28202,NA,NA,40,"640 N CHURCH ST APT 1004, CHARLOTTE, NC, 28202","Tie",NA,NA,NA,NA
784541,"640 N CHURCH STREET - 2304","CHARLOTTE","NC",28202,NA,NA,41,"640 N CHURCH STREET - 2304, CHARLOTTE, NC, 28202","Tie",NA,NA,NA,NA
784542,"640 N FLASON AVE","KUNA","ID",83634,43.4938978690001,-116.434426451,42,"640 N FLASON AVE, KUNA, ID, 83634","Match","Non_Exact","640 N FLAUSON AVE, KUNA, ID, 83634",117883892,"R"
784543,"640 N LASALLE STE 400","CHICAGO","IL",60654,NA,NA,43,"640 N LASALLE STE 400, CHICAGO, IL, 60654","No_Match",NA,NA,NA,NA
784544,"640 N LONGVIEW PL","LONGWOOD","FL",32779,28.705124525,-81.406043128,44,"640 N LONGVIEW PL, LONGWOOD, FL, 32779","Match","Exact","640 N LONGVIEW PL, LONGWOOD, FL, 32779",93776447,"L"
784545,"640 N LOUISA","SHAWNEE","OK",74801,35.3356175100001,-96.928704931,45,"640 N LOUISA, SHAWNEE, OK, 74801","Match","Non_Exact","640 N LOUISA AVE, SHAWNEE, OK, 74801",100579070,"L"
784546,"640 N MELBORN","DEARBORN","MI",48128,42.316237426,-83.2658605509999,46,"640 N MELBORN, DEARBORN, MI, 48128","Match","Non_Exact","640 MELBORN ST, DEARBORN, MI, 48128",95433149,"R"
784547,"640 N ROBSHIRE LANE","FAYETTEVILLE","AR",72701,36.0698218650001,-94.095930337,47,"640 N ROBSHIRE LANE, FAYETTEVILLE, AR, 72701","Match","Exact","640 N ROBSHIRE LN, FAYETTEVILLE, AR, 72701",629779084,"R"
784548,"640 N STONE AVE","TUCSON","AZ",85705,32.2295685030001,-110.971743116,48,"640 N STONE AVE, TUCSON, AZ, 85705","Match","Exact","640 N STONE AVE, TUCSON, AZ, 85705",121170686,"R"
784549,"640 N WELLS ST APT 1810","CHICAGO","IL",60654,41.893617729,-87.634127672,49,"640 N WELLS ST APT 1810, CHICAGO, IL, 60654","Match","Non_Exact","640 N WELLS ST, CHICAGO, IL, 60654",111768623,"L"
784550,"640 NE 116TH STREET","BISCAYNE PARK","FL",33161,25.882035128,-80.185288032,50,"640 NE 116TH STREET, BISCAYNE PARK, FL, 33161","Match","Exact","640 NE 116TH ST, BISCAYNE PARK, FL, 33161",116034710,"R"
784551,"640 NE 122 ST","MIAMI","FL",33161,25.8877115060001,-80.1850773159999,51,"640 NE 122 ST, MIAMI, FL, 33161","Match","Exact","640 NE 122ND ST, MIAMI, FL, 33161",116255648,"L"
784552,"640 NE 20TH STREET","WILTON MANORS","FL",33305,26.1536677460001,-80.136556836,52,"640 NE 20TH STREET, WILTON MANORS, FL, 33305","Match","Exact","640 NE 20TH ST, WILTON MANORS, FL, 33305",114722050,"R"
784553,"640 NE 3RD PL","HIALEAH","FL",33010,25.8252853600001,-80.268469091,53,"640 NE 3RD PL, HIALEAH, FL, 33010","Match","Exact","640 NE 3RD PL, HIALEAH, FL, 33010",116000090,"R"
784554,"640 NE 7TH TERRACE","CAPE CORAL","FL",33909,26.666003158,-81.960336303,54,"640 NE 7TH TERRACE, CAPE CORAL, FL, 33909","Match","Exact","640 NE 7TH TER, CAPE CORAL, FL, 33909",118008224,"L"
784555,"640 NELSON AVE","DURHAM","NC",27707,35.972234472,-78.896083228,55,"640 NELSON AVE, DURHAM, NC, 27707","Match","Non_Exact","640 NELSON ST, DURHAM, NC, 27707",637552440,"R"
784556,"640 NEVINS PLACE","NOLENSVILLE","TN",37135,35.9446654560001,-86.6742315979999,56,"640 NEVINS PLACE, NOLENSVILLE, TN, 37135","Match","Exact","640 NEVINS PL, NOLENSVILLE, TN, 37135",640822470,"L"
784557,"640 NEW HOPE ROAD","POMARIA","SC",29126,34.289830576,-81.4324050929999,57,"640 NEW HOPE ROAD, POMARIA, SC, 29126","Match","Exact","640 NEW HOPE RD, POMARIA, SC, 29126",45374014,"R"
784558,"640 NEW WELL COURT","LATHROP","CA",95330,37.8118777890001,-121.306060014,58,"640 NEW WELL COURT, LATHROP, CA, 95330","Match","Exact","640 NEW WELL CT, LATHROP, CA, 95330",600318152,"L"
784559,"640 NEW WELL COURT","LATHROP","CA",95339,37.8118777890001,-121.306060014,59,"640 NEW WELL COURT, LATHROP, CA, 95339","Match","Non_Exact","640 NEW WELL CT, LATHROP, CA, 95330",600318152,"L"
784560,"640 NORTH 39TH STREET","PHILADELPHIA","PA",19104,39.964381454,-75.1998735,60,"640 NORTH 39TH STREET, PHILADELPHIA, PA, 19104","Match","Exact","640 N 39TH ST, PHILADELPHIA, PA, 19104",131403362,"L"
784561,"640 NORTH 400 EAST","VALPARAISO","IN",46383,41.5265886540001,-86.986616807,61,"640 NORTH 400 EAST, VALPARAISO, IN, 46383","Match","Exact","640 N 400 E, VALPARAISO, IN, 46383",119931021,"L"
784562,"640 NORTH CANAL STREET","DELPHOS","OH",45833,40.849330208,-84.3410749609999,62,"640 NORTH CANAL STREET, DELPHOS, OH, 45833","Match","Exact","640 N CANAL ST, DELPHOS, OH, 45833",6774053,"R"
784563,"640 NORTH CARROLL AVENUE STE 100","SOUTHLAKE","TX",76092,32.9473241960001,-97.134097533,63,"640 NORTH CARROLL AVENUE STE 100, SOUTHLAKE, TX, 76092","Match","Exact","640 N CARROLL AVE, SOUTHLAKE, TX, 76092",630319287,"L"
784564,"640 NORTH KENDLE STREET","RUSSELLVILLE","OH",45168,38.8733065380001,-83.790163516,64,"640 NORTH KENDLE STREET, RUSSELLVILLE, OH, 45168","Match","Exact","640 N KENDLE ST, RUSSELLVILLE, OH, 45168",100981691,"R"
784565,"640 NORTH MAIN STREET","ORANGE","MA",1364,42.6147555680001,-72.2999655099999,65,"640 NORTH MAIN STREET, ORANGE, MA, 1364","Match","Exact","640 N MAIN ST, ORANGE, MA, 01364",39920284,"R"
784566,"640 NORTH PORTAGE PATH","AKRON","OH",44303,41.1146385260001,-81.548496139,66,"640 NORTH PORTAGE PATH, AKRON, OH, 44303","Match","Exact","640 N PORTAGE PATH, AKRON, OH, 44303",624485451,"L"
784567,"640 NORTHSIDE DRIVE","JACKSON","MS",39211,NA,NA,67,"640 NORTHSIDE DRIVE, JACKSON, MS, 39211","No_Match",NA,NA,NA,NA
784568,"640 NW 107TH AVENUE","PLANTATION","FL",33324,26.128044323,-80.2923139009999,68,"640 NW 107TH AVENUE, PLANTATION, FL, 33324","Match","Exact","640 NW 107TH AVE, PLANTATION, FL, 33324",114753185,"R"
784569,"640 NW 2ND AVE","WILLISTON","FL",32696,29.3889966830001,-82.45515181,69,"640 NW 2ND AVE, WILLISTON, FL, 32696","Match","Exact","640 NW 2ND AVE, WILLISTON, FL, 32696",43301601,"R"
784570,"640 NW 3RD WAY","DEERFIELD BEACH","FL",33441,26.3264595580001,-80.1098512039999,70,"640 NW 3RD WAY, DEERFIELD BEACH, FL, 33441","Match","Exact","640 NW 3RD WAY, DEERFIELD BEACH, FL, 33441",114739750,"R"
784571,"640 NW 68TH PL","OCALA","FL",34475,29.2578397190001,-82.1419136759999,71,"640 NW 68TH PL, OCALA, FL, 34475","Match","Exact","640 NW 68TH PL, OCALA, FL, 34475",116707294,"R"
784572,"640 NW 68TH PLACE","OCALA","FL",34475,29.2578397190001,-82.1419136759999,72,"640 NW 68TH PLACE, OCALA, FL, 34475","Match","Exact","640 NW 68TH PL, OCALA, FL, 34475",116707294,"R"
784573,"640 OLD AIRPORT RD 207","AIKEN","SC",29801,33.5404928470001,-81.6852357499999,73,"640 OLD AIRPORT RD 207, AIKEN, SC, 29801","Match","Non_Exact","640 OLD AIRPORT RD, AIKEN, SC, 29801",646975699,"L"
784574,"640 OLD AIRPORT RD","AIKEN","SC",29801,33.5404928470001,-81.6852357499999,74,"640 OLD AIRPORT RD, AIKEN, SC, 29801","Match","Exact","640 OLD AIRPORT RD, AIKEN, SC, 29801",646975699,"L"
784575,"640 OLD BACK RIVER RD","G","SC",29445,32.9928344200001,-80.0143082129999,75,"640 OLD BACK RIVER RD, G, SC, 29445","Match","Non_Exact","640 OLD BACK RIVER RD, GOOSE CREEK, SC, 29445",100765325,"L"
784576,"640 OLD BACK RIVER RD","GOOSE CREEK","SC",29445,32.9928344200001,-80.0143082129999,76,"640 OLD BACK RIVER RD, GOOSE CREEK, SC, 29445","Match","Exact","640 OLD BACK RIVER RD, GOOSE CREEK, SC, 29445",100765325,"L"
784577,"640 OLD CAHABA DRIVE","HELENA","AL",35080,33.285602705,-86.8760796669999,77,"640 OLD CAHABA DRIVE, HELENA, AL, 35080","Match","Exact","640 OLD CAHABA DR, HELENA, AL, 35080",82116859,"L"
784578,"640 OLD VINEYARD RD","TURLOCK","CA",95380,37.498934709,-120.82368354,78,"640 OLD VINEYARD RD, TURLOCK, CA, 95380","Match","Exact","640 OLD VINEYARD RD, TURLOCK, CA, 95380",102597564,"L"
784579,"640 OLD VINEYARD ROAD","TURLOCK","CA",95380,37.498934709,-120.82368354,79,"640 OLD VINEYARD ROAD, TURLOCK, CA, 95380","Match","Exact","640 OLD VINEYARD RD, TURLOCK, CA, 95380",102597564,"L"
784580,"640 OPAL AVE","VENTURA","CA",93004,34.274199998,-119.186278806,80,"640 OPAL AVE, VENTURA, CA, 93004","Match","Exact","640 OPAL AVE, VENTURA, CA, 93004",109956759,"R"
784581,"640 OSHIELDS WAY","SEVIERVILLE","TN",37876,35.7706639690001,-83.445696529,81,"640 OSHIELDS WAY, SEVIERVILLE, TN, 37876","Match","Non_Exact","640 O'SHIELDS WAY, SEVIERVILLE, TN, 37876",635466251,"L"
784582,"640 OWEN RD","YORK","PA",17403,39.943481482,-76.682044836,82,"640 OWEN RD, YORK, PA, 17403","Match","Exact","640 OWEN RD, YORK, PA, 17403",88733595,"R"
784583,"640 PADDLEWHEEL CT","ROSEVILLE","CA",95747,38.7829182250001,-121.351764397,83,"640 PADDLEWHEEL CT, ROSEVILLE, CA, 95747","Match","Exact","640 PADDLEWHEEL CT, ROSEVILLE, CA, 95747",106808612,"R"
784584,"640 PARK AVENUE","SHELBY","MT",59474,48.509114734,-111.850490903,84,"640 PARK AVENUE, SHELBY, MT, 59474","Match","Exact","640 PARK AVE, SHELBY, MT, 59474",204294171,"L"
784585,"640 PARK PLACE","NIAGARA FALLS","NY",14301,43.093968154,-79.056982261,85,"640 PARK PLACE, NIAGARA FALLS, NY, 14301","Match","Exact","640 PARK PL, NIAGARA FALLS, NY, 14301",48683671,"L"
784586,"640 PARKSIDE PLACE DRIVE","MCDONOUGH","GA",30253,33.414096321,-84.179982906,86,"640 PARKSIDE PLACE DRIVE, MCDONOUGH, GA, 30253","Match","Exact","640 PARKSIDE PLACE DR, MCDONOUGH, GA, 30253",653448301,"L"
784587,"640 PARRISH LANE","NIXA","MO",65714,37.035435858,-93.316670286,87,"640 PARRISH LANE, NIXA, MO, 65714","Match","Exact","640 PARRISH LN, NIXA, MO, 65714",640034643,"L"
784588,"640 PARSONS DRIVE","BESSEMER","AL",35023,33.4411884580001,-86.9872084789999,88,"640 PARSONS DRIVE, BESSEMER, AL, 35023","Match","Exact","640 PARSONS DR, BESSEMER, AL, 35023",81594536,"L"
784589,"640 PENN PLACE","WINTER PARK","FL",32789,28.607687911,-81.3584227549999,89,"640 PENN PLACE, WINTER PARK, FL, 32789","Match","Exact","640 PENN PL, WINTER PARK, FL, 32789",94402100,"L"
784590,"640 PETUNIA DRIVE","PLANTATION","FL",33317,26.1305268990001,-80.224225055,90,"640 PETUNIA DRIVE, PLANTATION, FL, 33317","Match","Exact","640 PETUNIA DR, PLANTATION, FL, 33317",114708306,"R"
784591,"640 PHILLIPS DR","COPPELL","TX",75019,32.983455183,-96.9746099709999,91,"640 PHILLIPS DR, COPPELL, TX, 75019","Match","Exact","640 PHILLIPS DR, COPPELL, TX, 75019",102980097,"L"
784592,"640 PINNACLE RD","PITTSFORD","NY",14534,43.067030469,-77.5890040309999,92,"640 PINNACLE RD, PITTSFORD, NY, 14534","Match","Exact","640 PINNACLE RD, PITTSFORD, NY, 14534",14572469,"L"
784593,"640 PIONEER AVE","AZTEC","NM",87410,36.8273803700001,-107.990464719,93,"640 PIONEER AVE, AZTEC, NM, 87410","Match","Exact","640 PIONEER AVE, AZTEC, NM, 87410",637536777,"R"
784594,"640 PISGAH CHURCH RD","SOMERSET","KY",42503,37.0286126140001,-84.6368597379999,94,"640 PISGAH CHURCH RD, SOMERSET, KY, 42503","Match","Exact","640 PISGAH CHURCH RD, SOMERSET, KY, 42503",653551709,"R"
784595,"640 PONDEROSA DR","HURST","TX",76053,32.816741839,-97.179814477,95,"640 PONDEROSA DR, HURST, TX, 76053","Match","Exact","640 PONDEROSA DR, HURST, TX, 76053",101866777,"R"
784596,"640 PRISCILL LN","DESOTO","TX",75115,NA,NA,96,"640 PRISCILL LN, DESOTO, TX, 75115","No_Match",NA,NA,NA,NA
784597,"640 PYRAMID PEAK ST","BERTHOUD","CO",80513,40.3069572570001,-105.07140897,97,"640 PYRAMID PEAK ST, BERTHOUD, CO, 80513","Match","Exact","640 PYRAMID PEAK ST, BERTHOUD, CO, 80513",636076495,"R"
784598,"640 QUEEN ANN DR","RICHMOND","VA",23224,NA,NA,98,"640 QUEEN ANN DR, RICHMOND, VA, 23224","No_Match",NA,NA,NA,NA
784599,"640 QUEEN ANNE DRIVE","RICHMOND","VA",23224,37.4994588870001,-77.496285142,99,"640 QUEEN ANNE DRIVE, RICHMOND, VA, 23224","Match","Exact","640 QUEEN ANNE DR, RICHMOND, VA, 23224",201537075,"R"
784600,"640 QUINNIPIAC COURT","CHESHIRE","CT",6410,41.528186239,-72.866784095,100,"640 QUINNIPIAC COURT, CHESHIRE, CT, 6410","Match","Exact","640 QUINNIPIAC CT, CHESHIRE, CT, 06410",3722628,"L"
784601,"640 RANCHERO RD APT 1","BELLE GLADE","FL",33430,26.679073853,-80.656697301,101,"640 RANCHERO RD APT 1, BELLE GLADE, FL, 33430","Match","Exact","640 RANCHERO RD, BELLE GLADE, FL, 33430",648316125,"R"
784602,"640 RAVENCREST ROAD","PITTSBURGH","PA",15215,40.5138157740001,-79.914989094,102,"640 RAVENCREST ROAD, PITTSBURGH, PA, 15215","Match","Exact","640 RAVENCREST RD, PITTSBURGH, PA, 15215",51645428,"R"
784603,"640 RETTUS CT","SAN JOSE","CA",95111,37.3088902160001,-121.845319822,103,"640 RETTUS CT, SAN JOSE, CA, 95111","Match","Exact","640 RETTUS CT, SAN JOSE, CA, 95111",122988904,"R"
784604,"640 RIVERSIDE DR 12 E","NEW YORK CITY","NY",10031,40.8249440070001,-73.954100296,104,"640 RIVERSIDE DR 12 E, NEW YORK CITY, NY, 10031","Match","Exact","640 RIVERSIDE DR, NEW YORK, NY, 10031",59655878,"R"
784605,"640 ROCK DRIVE","CHESAPEAKE","VA",23323,36.763594955,-76.335743929,105,"640 ROCK DRIVE, CHESAPEAKE, VA, 23323","Match","Exact","640 ROCK DR, CHESAPEAKE, VA, 23323",121769311,"L"
784606,"640 ROOSEVELT","CANTON","MI",48188,42.3014515720001,-83.5340438549999,106,"640 ROOSEVELT, CANTON, MI, 48188","Match","Non_Exact","640 ROOSEVELT ST, CANTON, MI, 48188",617693675,"L"
784607,"640 ROYAL CREST WA","OFALLON","IL",62269,38.6131082910001,-89.947064653,107,"640 ROYAL CREST WA, OFALLON, IL, 62269","Match","Non_Exact","640 ROYAL CREST WAY, O FALLON, IL, 62269",614766337,"R"
784608,"640 ROYALWOOD CT","GRAND PRAIRIE","TX",75052,32.6824435510001,-96.999837935,108,"640 ROYALWOOD CT, GRAND PRAIRIE, TX, 75052","Match","Exact","640 ROYALWOOD CT, GRAND PRAIRIE, TX, 75052",617667815,"L"
784609,"640 RUPLEY ROAD","CAMPHILL","PA",17011,40.265786394,-76.918358655,109,"640 RUPLEY ROAD, CAMPHILL, PA, 17011","Match","Non_Exact","640 RUPLEY RD, CAMP HILL, PA, 17011",60951726,"L"
784610,"640 RYDER CUP LN","CLEMMONS","NC",27012,35.979661262,-80.371512563,110,"640 RYDER CUP LN, CLEMMONS, NC, 27012","Match","Exact","640 RYDER CUP LN, CLEMMONS, NC, 27012",651396113,"R"
784611,"640 S 12TH CT","COOS BAY","OR",97420,NA,NA,111,"640 S 12TH CT, COOS BAY, OR, 97420","Tie",NA,NA,NA,NA
784612,"640 S 15TH STREET","LOUISVILLE","KY",40203,38.2495143370001,-85.776331593,112,"640 S 15TH STREET, LOUISVILLE, KY, 40203","Match","Exact","640 S 15TH ST, LOUISVILLE, KY, 40203",96842277,"R"
784613,"640 S 1ST ST","MOUNT HOREB","WI",53572,43.0011925220001,-89.7397188419999,113,"640 S 1ST ST, MOUNT HOREB, WI, 53572","Match","Exact","640 S 1ST ST, MOUNT HOREB, WI, 53572",49495751,"L"
784614,"640 S 2ND AVENUE","Tucson","AZ",85701,32.214129042,-110.962409085,114,"640 S 2ND AVENUE, Tucson, AZ, 85701","Match","Exact","640 S 2ND AVE, TUCSON, AZ, 85701",121171442,"R"
784615,"640 S ODON STREET","ELNORA","IN",47529,38.8742770980001,-87.086170904,115,"640 S ODON STREET, ELNORA, IN, 47529","Match","Exact","640 ODON ST, ELNORA, IN, 47529",32068143,"L"
784616,"640 S ST JOSEPH AVE","NILES","MI",49120,41.819596539,-86.2615468019999,116,"640 S ST JOSEPH AVE, NILES, MI, 49120","Match","Exact","640 S SAINT JOSEPH AVE, NILES, MI, 49120",120005642,"L"
784617,"640 S STAGECOACH","WICHITA","KS",67230,37.6784431190001,-97.166569717,117,"640 S STAGECOACH, WICHITA, KS, 67230","Match","Non_Exact","640 S STAGECOACH ST, WICHITA, KS, 67230",115709685,"L"
784618,"640 S STATE STREET","DOVER","DE",19901,39.1507078760001,-75.5222885489999,118,"640 S STATE STREET, DOVER, DE, 19901","Match","Exact","640 S STATE ST, DOVER, DE, 19901",68088567,"L"
784619,"640 SANDY HOOK CT","FOSTER CITY","CA",94404,37.5386169660001,-122.271115154,119,"640 SANDY HOOK CT, FOSTER CITY, CA, 94404","Match","Exact","640 SANDY HOOK CT, FOSTER CITY, CA, 94404",192380936,"L"
784620,"640 SCENIC DR","PULASKI","TN",38478,35.159747297,-87.098871704,120,"640 SCENIC DR, PULASKI, TN, 38478","Match","Exact","640 SCENIC DR, PULASKI, TN, 38478",607899651,"R"
784621,"640 SE MONTEIRO DRIVE","PORT SAINT LUCIE","FL",34984,27.209144187,-80.319944705,121,"640 SE MONTEIRO DRIVE, PORT SAINT LUCIE, FL, 34984","Match","Exact","640 SE MONTEIRO DR, PORT ST LUCIE, FL, 34984",649661818,"R"
784622,"640 SEDGE MEADOW AVE","ROMEOVILLE","IL",60446,41.6523971060001,-88.1096658129999,122,"640 SEDGE MEADOW AVE, ROMEOVILLE, IL, 60446","Match","Exact","640 SEDGE MEADOW AVE, ROMEOVILLE, IL, 60446",111596094,"L"
784623,"640 SHERMAN AVE","PLAINFIELD","NJ",7062,NA,NA,123,"640 SHERMAN AVE, PLAINFIELD, NJ, 7062","No_Match",NA,NA,NA,NA
784624,"640 SHIPPENSBURG ROAD","BIGLERVILLE","PA",17307,39.9582255390001,-77.360646506,124,"640 SHIPPENSBURG ROAD, BIGLERVILLE, PA, 17307","Match","Exact","640 SHIPPENSBURG RD, BIGLERVILLE, PA, 17307",60884387,"L"
784625,"640 SHIRTS AVE","WASHINGTON","PA",15301,NA,NA,125,"640 SHIRTS AVE, WASHINGTON, PA, 15301","No_Match",NA,NA,NA,NA
784626,"640 SIBLEY FOREST SE","MARIETTA","GA",30067,33.935414392,-84.4493345989999,126,"640 SIBLEY FOREST SE, MARIETTA, GA, 30067","Match","Exact","640 SIBLEY FOREST SE, MARIETTA, GA, 30067",17187031,"R"
784627,"640 SMITHRIDGE WAY","FUQUAY VARINA","NC",27526,35.5779692350001,-78.8105922509999,127,"640 SMITHRIDGE WAY, FUQUAY VARINA, NC, 27526","Match","Exact","640 SMITHRIDGE WAY, FUQUAY VARINA, NC, 27526",627427242,"L"
784628,"640 SONDRA CIRCLE","PROSPER","TX",75078,33.244357461,-96.797386949,128,"640 SONDRA CIRCLE, PROSPER, TX, 75078","Match","Exact","640 SONDRA CIR, PROSPER, TX, 75078",614132375,"L"
784629,"640 SOUTH BROAD STREET","TRENTON","NJ",8611,40.2098995850001,-74.7558248189999,129,"640 SOUTH BROAD STREET, TRENTON, NJ, 8611","Match","Exact","640 S BROAD ST, TRENTON, NJ, 08611",60179706,"L"
784630,"640 SOUTH GOVERNORS AVENUE","DOVER","DE",19901,39.1513745,-75.524846961,130,"640 SOUTH GOVERNORS AVENUE, DOVER, DE, 19901","Match","Non_Exact","640 S GOVERNORS AVE, DOVER, DE, 19904",68088568,"L"
784631,"640 SOUTH HILL STREET SUITE 560","LOS ANGELES","CA",90014,34.0467368390001,-118.253667657,131,"640 SOUTH HILL STREET SUITE 560, LOS ANGELES, CA, 90014","Match","Exact","640 S HILL ST, LOS ANGELES, CA, 90014",141619320,"L"
784632,"640 SOUTH MAIN STREET","MANSFIELD","MA",2048,42.0036519970001,-71.2107950279999,132,"640 SOUTH MAIN STREET, MANSFIELD, MA, 2048","Match","Exact","640 S MAIN ST, MANSFIELD, MA, 02048",46765310,"L"
784633,"640 SOUTH SPLIT ROCK ROAD","BENNETT","CO",80102,39.7006692890001,-104.504126022,133,"640 SOUTH SPLIT ROCK ROAD, BENNETT, CO, 80102","Match","Exact","640 S SPLIT ROCK RD, BENNETT, CO, 80102",641540021,"R"
784634,"640 SOUTH STATE STREET","DOVER","DE",19901,39.150720488,-75.5222885489999,134,"640 SOUTH STATE STREET, DOVER, DE, 19901","Match","Exact","640 S STATE ST, DOVER, DE, 19901",68088567,"L"
784635,"640 SOUTH WILLIAMS PL","CHANDLER","AZ",85225,33.2957529120001,-111.824913684,135,"640 SOUTH WILLIAMS PL, CHANDLER, AZ, 85225","Match","Exact","640 S WILLIAMS PL, CHANDLER, AZ, 85225",128786420,"L"
784636,"640 SPYGLASS DRIVE","EUGENE","OR",97401,44.0711973570001,-123.087738421,136,"640 SPYGLASS DRIVE, EUGENE, OR, 97401","Match","Exact","640 SPYGLASS DR, EUGENE, OR, 97401",178217355,"L"
784637,"640 SPYGLASS LN","WAUKEE","IA",50263,41.590967748,-93.881988023,137,"640 SPYGLASS LN, WAUKEE, IA, 50263","Match","Exact","640 SPYGLASS LN, WAUKEE, IA, 50263",600643130,"R"
784638,"640 STATE HIGHWAY 3","HARRISVILLE","NY",13648,NA,NA,138,"640 STATE HIGHWAY 3, HARRISVILLE, NY, 13648","No_Match",NA,NA,NA,NA
784639,"640 STATE HIGHWAY 68","CANTON","NY",13617,NA,NA,139,"640 STATE HIGHWAY 68, CANTON, NY, 13617","No_Match",NA,NA,NA,NA
784640,"640 STATESVILLE BLVD SUITE 1","SALISBURY","NC",28144,35.6890063550001,-80.4915565439999,140,"640 STATESVILLE BLVD SUITE 1, SALISBURY, NC, 28144","Match","Exact","640 STATESVILLE BLVD, SALISBURY, NC, 28144",25267329,"R"
784641,"640 STATESVILLE BLVD","SALISBURY","NC",28144,35.6890063550001,-80.4915565439999,141,"640 STATESVILLE BLVD, SALISBURY, NC, 28144","Match","Exact","640 STATESVILLE BLVD, SALISBURY, NC, 28144",25267329,"R"
784642,"640 STRETFORD WAY","HYATTSVILLE","MD",20785,38.899046232,-76.865217276,142,"640 STRETFORD WAY, HYATTSVILLE, MD, 20785","Match","Exact","640 STRETFORD WAY, HYATTSVILLE, MD, 20785",76347779,"L"
784643,"640 SUNSET DR","MT. ZION","IL",62549,39.7754383560001,-88.872077657,143,"640 SUNSET DR, MT. ZION, IL, 62549","Match","Exact","640 SUNSET DR, MT ZION, IL, 62549",20764268,"L"
784644,"640 SUPERIOR CT","MEDFORD","OR",97504,42.335779641,-122.869534033,144,"640 SUPERIOR CT, MEDFORD, OR, 97504","Match","Exact","640 SUPERIOR CT, MEDFORD, OR, 97504",155552692,"L"
784645,"640 SW 107TH ST","SEATTLE","WA",98146,47.5071766280001,-122.342702447,145,"640 SW 107TH ST, SEATTLE, WA, 98146","Match","Exact","640 SW 107TH ST, SEATTLE, WA, 98146",186623977,"R"
784646,"640 SW GOLDEN HILLS DR C202","PULLMAN","WA",99163,NA,NA,146,"640 SW GOLDEN HILLS DR C202, PULLMAN, WA, 99163","No_Match",NA,NA,NA,NA
784647,"640 SW GOLDEN HILLS DRIVE APT BB202","PULLMAN","WA",99163,NA,NA,147,"640 SW GOLDEN HILLS DRIVE APT BB202, PULLMAN, WA, 99163","No_Match",NA,NA,NA,NA
784648,"640 SW NANCY CT","GRESHAM","OR",97030,45.4920379960001,-122.472757397,148,"640 SW NANCY CT, GRESHAM, OR, 97030","Match","Exact","640 SW NANCY CT, GRESHAM, OR, 97030",157524418,"R"
784649,"640 TAYLOR ROAD APT 14","HINESVILLE","GA",31313,31.859941731,-81.600637951,149,"640 TAYLOR ROAD APT 14, HINESVILLE, GA, 31313","Match","Exact","640 TAYLOR RD, HINESVILLE, GA, 31313",6327243,"R"
784650,"640 THORNTREE LANE","EUREKA","MO",63025,38.498776612,-90.654112723,150,"640 THORNTREE LANE, EUREKA, MO, 63025","Match","Exact","640 THORNTREE LN, EUREKA, MO, 63025",100185323,"R"
784651,"640 TICO RD","OJAI","CA",93023,34.442170214,-119.284068636,151,"640 TICO RD, OJAI, CA, 93023","Match","Exact","640 TICO RD, OJAI, CA, 93023",110118523,"R"
784652,"640 TIMBERCREEK RD","SAGAMORE HILLS","OH",44067,41.304779856,-81.5571880209999,152,"640 TIMBERCREEK RD, SAGAMORE HILLS, OH, 44067","Match","Exact","640 TIMBERCREEK RD, SAGAMORE HILLS, OH, 44067",61383829,"R"
784653,"640 TOLLEY ROAD","UNICOI","TN",37692,36.193469726,-82.241125126,153,"640 TOLLEY ROAD, UNICOI, TN, 37692","Match","Exact","640 TOLLEY RD, UNICOI, TN, 37692",627546466,"R"
784654,"640 TREATY WAY","GREENVILLE","OH",45331,40.1126854870001,-84.6445264549999,154,"640 TREATY WAY, GREENVILLE, OH, 45331","Match","Exact","640 TREATY WAY, GREENVILLE, OH, 45331",54545186,"R"
784655,"640 TWELVE OAKS RD","JAMESTOWN","TN",38556,36.367220065,-84.9111893629999,155,"640 TWELVE OAKS RD, JAMESTOWN, TN, 38556","Match","Exact","640 TWELVE OAKS RD, JAMESTOWN, TN, 38556",612117117,"R"
784656,"640 VICTORIA STATION BLVD","LAWRENCEVILLE","GA",30043,33.9915157730001,-83.989878946,156,"640 VICTORIA STATION BLVD, LAWRENCEVILLE, GA, 30043","Match","Non_Exact","640 VICTORIA STATION BLVD NE, LAWRENCEVILLE, GA, 30043",88920663,"R"
784657,"640 VIEW CIRCLE","CENTRAL POINT","OR",97520,NA,NA,157,"640 VIEW CIRCLE, CENTRAL POINT, OR, 97520","No_Match",NA,NA,NA,NA
784658,"640 VILLAGE SQUARE DRIVE","HAZELWOOD","MO",63042,38.784402619,-90.367278959,158,"640 VILLAGE SQUARE DRIVE, HAZELWOOD, MO, 63042","Match","Exact","640 VILLAGE SQUARE DR, HAZELWOOD, MO, 63042",100116978,"L"
784659,"640 W 231 ST","BRONX","NY",10463,40.883303692,-73.914644816,159,"640 W 231 ST, BRONX, NY, 10463","Match","Exact","640 W 231ST ST, BRONX, NY, 10463",80295913,"L"
784660,"640 W 231ST ST","BRONX","NY",10463,40.883303692,-73.914644816,160,"640 W 231ST ST, BRONX, NY, 10463","Match","Exact","640 W 231ST ST, BRONX, NY, 10463",80295913,"L"
784661,"640 W 237TH ST APT 5C","BRONX","NY",10463,NA,NA,161,"640 W 237TH ST APT 5C, BRONX, NY, 10463","No_Match",NA,NA,NA,NA
784662,"640 W 4200 N","OAKLEY","UT",84055,40.705751638,-111.292240156,162,"640 W 4200 N, OAKLEY, UT, 84055","Match","Exact","640 W 4200 N, OAKLEY, UT, 84055",160634275,"L"
784663,"640 W 69TH TERRACE","KANSAS CITY","MO",64113,39.0038783190001,-94.5976707359999,163,"640 W 69TH TERRACE, KANSAS CITY, MO, 64113","Match","Exact","640 W 69TH TER, KANSAS CITY, MO, 64113",91526010,"R"
784664,"640 W BAUER RD","NAPERVILLE","IL",60563,NA,NA,164,"640 W BAUER RD, NAPERVILLE, IL, 60563","Tie",NA,NA,NA,NA
784665,"640 W CALIFORNIA AVE","SUNNYVALE","CA",94086,37.3823810960001,-122.033943761,165,"640 W CALIFORNIA AVE, SUNNYVALE, CA, 94086","Match","Exact","640 W CALIFORNIA AVE, SUNNYVALE, CA, 94086",122957015,"L"
784666,"640 W EAGLE ST","ARLINGTON","NE",68008,41.452549499,-96.356126202,166,"640 W EAGLE ST, ARLINGTON, NE, 68008","Match","Non_Exact","640 W EAGLE ST, ARLINGTON, NE, 68002",176770972,"R"
784667,"640 W GREVILLEA STREET","ONTARIO","CA",91762,34.0400348700001,-117.660647173,167,"640 W GREVILLEA STREET, ONTARIO, CA, 91762","Match","Exact","640 W GREVILLEA ST, ONTARIO, CA, 91762",144673678,"L"
784668,"640 W HOME ST","RIALTO","CA",92376,34.1241019060001,-117.382330423,168,"640 W HOME ST, RIALTO, CA, 92376","Match","Exact","640 W HOME ST, RIALTO, CA, 92376",144687490,"L"
784669,"640 W MYRTLE DR","CHANDLER","AZ",85248,33.250098947,-111.851734438,169,"640 W MYRTLE DR, CHANDLER, AZ, 85248","Match","Exact","640 W MYRTLE DR, CHANDLER, AZ, 85248",128806300,"R"
784670,"640 W NEW YORK AVE","DELAND","FL",32720,29.0279872900001,-81.314692779,170,"640 W NEW YORK AVE, DELAND, FL, 32720","Match","Exact","640 W NEW YORK AVE, DELAND, FL, 32720",94510726,"R"
784671,"640 W ROLER COASTER RD","TUCSON","AZ",85704,32.309667947,-110.980586619,171,"640 W ROLER COASTER RD, TUCSON, AZ, 85704","Match","Non_Exact","640 W ROLLER COASTER RD, TUCSON, AZ, 85704",637330978,"R"
784672,"640 W ROLLER COASTER RD","TUCSON","AZ",85704,32.309667947,-110.980586619,172,"640 W ROLLER COASTER RD, TUCSON, AZ, 85704","Match","Exact","640 W ROLLER COASTER RD, TUCSON, AZ, 85704",637330978,"R"
784673,"640 W SECOND ST","BIRDSBORO","PA",19508,40.264815658,-75.817836111,173,"640 W SECOND ST, BIRDSBORO, PA, 19508","Match","Exact","640 W 2ND ST, BIRDSBORO, PA, 19508",80386638,"L"
784674,"640 W WHIDDEN STREET","ARCADIA","FL",34266,27.219909203,-81.866634677,174,"640 W WHIDDEN STREET, ARCADIA, FL, 34266","Match","Exact","640 W WHIDDEN ST, ARCADIA, FL, 34266",16161703,"R"
784675,"640 W WILSON ST","POMONA","CA",91768,34.066296724,-117.762331613,175,"640 W WILSON ST, POMONA, CA, 91768","Match","Exact","640 WILSON ST, POMONA, CA, 91768",141730159,"L"
784676,"640 W231ST ST","BRONX","NY",10463,NA,NA,176,"640 W231ST ST, BRONX, NY, 10463","No_Match",NA,NA,NA,NA
784677,"640 WANDERING WAY","PONTE VEDRA","FL",32081,NA,NA,177,"640 WANDERING WAY, PONTE VEDRA, FL, 32081","No_Match",NA,NA,NA,NA
784678,"640 WARREN ST","BROOKLYN","NY",11217,40.6809941230001,-73.9798878409999,178,"640 WARREN ST, BROOKLYN, NY, 11217","Match","Exact","640 WARREN ST, BROOKLYN, NY, 11217",59077612,"R"
784679,"640 WASHINGTON BLVD","KANSAS CITY","MO",64101,NA,NA,179,"640 WASHINGTON BLVD, KANSAS CITY, MO, 64101","No_Match",NA,NA,NA,NA
784680,"640 WASHINGTON STREET","HACKETTSTOWN","NJ",7840,40.849238202,-74.826555796,180,"640 WASHINGTON STREET, HACKETTSTOWN, NJ, 7840","Match","Exact","640 WASHINGTON ST, HACKETTSTOWN, NJ, 07840",98092394,"R"
784681,"640 WATERS EDGE DRIVE","WHITEWATER","WI",53190,42.8244857970001,-88.722857064,181,"640 WATERS EDGE DRIVE, WHITEWATER, WI, 53190","Match","Exact","640 WATERS EDGE DR, WHITEWATER, WI, 53190",53690241,"R"
784682,"640 WAVERLY","SAN ANTONIO","TX",78201,29.4471345900001,-98.51881474,182,"640 WAVERLY, SAN ANTONIO, TX, 78201","Match","Non_Exact","640 WAVERLY AVE, SAN ANTONIO, TX, 78201",101514649,"L"
784683,"640 WEDNESBURY RD","ALPHARETTA","GA",30022,34.0574701,-84.2490950979999,183,"640 WEDNESBURY RD, ALPHARETTA, GA, 30022","Match","Exact","640 WEDNESBURY RD, ALPHARETTA, GA, 30022",618447747,"L"
784684,"640 WEST 153RD STREET A7","NEW YORK","NY",10031,40.8319850680001,-73.948016503,184,"640 WEST 153RD STREET A7, NEW YORK, NY, 10031","Match","Exact","640 W 153RD ST, NEW YORK, NY, 10031",59655429,"L"
784685,"640 WEST LAKE CIRCLE","CHESAPEAKE","VA",23322,36.70961622,-76.256866593,185,"640 WEST LAKE CIRCLE, CHESAPEAKE, VA, 23322","Match","Exact","640 W LAKE CIR, CHESAPEAKE, VA, 23322",121800057,"R"
784686,"640 WEST MOSS WOOD TRACE","PONTE VEDRA BEACH","FL",32082,30.141924895,-81.386012582,186,"640 WEST MOSS WOOD TRACE, PONTE VEDRA BEACH, FL, 32082","Match","Exact","640 W MOSS WOOD TRCE, PONTE VEDRA BEACH, FL, 32082",92608190,"L"
784687,"640 WEST NORMAN AVE","ARCADIA","CA",91007,34.120454905,-118.053378644,187,"640 WEST NORMAN AVE, ARCADIA, CA, 91007","Match","Exact","640 W NORMAN AVE, ARCADIA, CA, 91007",641077450,"L"
784688,"640 WEST OREGON AVE","SEBRING","OH",44672,40.9221856620001,-81.030473614,188,"640 WEST OREGON AVE, SEBRING, OH, 44672","Match","Exact","640 W OREGON AVE, SEBRING, OH, 44672",64603729,"L"
784689,"640 WEST RICHARDSON STREET","OXFORD","GA",30054,33.6344001310001,-83.882529118,189,"640 WEST RICHARDSON STREET, OXFORD, GA, 30054","Match","Exact","640 W RICHARDSON ST, OXFORD, GA, 30054",639062568,"R"
784690,"640 WEST WAVELAND APT 1E","CHICAGO","IL",60613,41.950164075,-87.6454474339999,190,"640 WEST WAVELAND APT 1E, CHICAGO, IL, 60613","Match","Non_Exact","640 W WAVELAND AVE, CHICAGO, IL, 60613",111766663,"R"
784691,"640 WESTBROOK RD","RIDGEWOOD","NJ",7450,40.989929961,-74.084107181,191,"640 WESTBROOK RD, RIDGEWOOD, NJ, 7450","Match","Exact","640 WESTBROOK RD, RIDGEWOOD, NJ, 07450",64377495,"L"
784692,"640 WHITE LILY CHURCH RD","SOMERSET","KY",42501,37.0635161120001,-84.4630983769999,192,"640 WHITE LILY CHURCH RD, SOMERSET, KY, 42501","Match","Exact","640 WHITE LILY CHURCH RD, SOMERSET, KY, 42501",39081647,"R"
784693,"640 WIPPER","NEW BRAUNFELS","TX",78130,29.751908213,-98.0736144529999,193,"640 WIPPER, NEW BRAUNFELS, TX, 78130","Match","Exact","640 WIPPER, NEW BRAUNFELS, TX, 78130",650287690,"R"
784694,"640-68TH AVENUE SOUTH","ST PETERSBURG","FL",33705,NA,NA,194,"640-68TH AVENUE SOUTH, ST PETERSBURG, FL, 33705","No_Match",NA,NA,NA,NA
784695,"640","ELGIN","IL",60120,NA,NA,195,"640, ELGIN, IL, 60120","No_Match",NA,NA,NA,NA
784696,"640","SACAMENTO","CA",95811,NA,NA,196,"640, SACAMENTO, CA, 95811","No_Match",NA,NA,NA,NA
784697,"640","WEST PALM BEACH","FL",33407,NA,NA,197,"640, WEST PALM BEACH, FL, 33407","No_Match",NA,NA,NA,NA
784698,"6400  KNIGHTSBRIDGE ROAD","HIXSON","TN",37343,35.1617684930001,-85.201809177,198,"6400  KNIGHTSBRIDGE ROAD, HIXSON, TN, 37343","Match","Exact","6400 KNIGHTSBRIDGE RD, HIXSON, TN, 37343",59336469,"L"
784699,"6400 27TH AVE N APT 304","CRYSTAL","MN",55427,NA,NA,199,"6400 27TH AVE N APT 304, CRYSTAL, MN, 55427","No_Match",NA,NA,NA,NA
784700,"6400 30TH STREET SOUTH","ST PETERSBURG","FL",33712,27.710270258,-82.674076971,200,"6400 30TH STREET SOUTH, ST PETERSBURG, FL, 33712","Match","Exact","6400 30TH ST S, SAINT PETERSBURG, FL, 33712",124710467,"L"
784701,"6400 46TH AVE NORTH APT 68","KENNETH CITY","FL",33709,27.8136476600001,-82.725085888,201,"6400 46TH AVE NORTH APT 68, KENNETH CITY, FL, 33709","Match","Exact","6400 46TH AVE N, KENNETH CITY, FL, 33709",629030673,"L"
784702,"6400 54TH AVE S","FARGO","ND",58104,NA,NA,202,"6400 54TH AVE S, FARGO, ND, 58104","No_Match",NA,NA,NA,NA
784703,"6400 57TH STREET","VERO BEACH","FL",32967,27.6971984680001,-80.456521659,203,"6400 57TH STREET, VERO BEACH, FL, 32967","Match","Exact","6400 57TH ST, VERO BEACH, FL, 32967",640885181,"R"
784704,"6400 67TH AVENUE NORTH 107","BROOKLYN PARK","MN",55428,45.076490005,-93.368048395,204,"6400 67TH AVENUE NORTH 107, BROOKLYN PARK, MN, 55428","Match","Exact","6400 67TH AVE N, BROOKLYN PARK, MN, 55428",43614318,"R"
784705,"6400 ADDIE COURT","CLINTON","MD",20735,38.7492797740001,-76.897140886,205,"6400 ADDIE COURT, CLINTON, MD, 20735","Match","Exact","6400 ADDIE CT, CLINTON, MD, 20735",632154173,"R"
784706,"6400 ALDERSON AVE","WESTON","WI",54476,44.899541051,-89.592758246,206,"6400 ALDERSON AVE, WESTON, WI, 54476","Match","Non_Exact","6400 ALDERSON ST, WESTON, WI, 54476",117155287,"R"
784707,"6400 AMBER CT","MASON","OH",45040,39.350547325,-84.3367643399999,207,"6400 AMBER CT, MASON, OH, 45040","Match","Exact","6400 AMBER CT, MASON, OH, 45040",641179194,"R"
784708,"6400 AVONDALE DRIVE SUITE 200","OKLAHOMA CITY","OK",73116,35.5375125250001,-97.529928888,208,"6400 AVONDALE DRIVE SUITE 200, OKLAHOMA CITY, OK, 73116","Match","Exact","6400 AVONDALE DR, OKLAHOMA CITY, OK, 73116",606147551,"R"
784709,"6400 BALTIMORE NATIONAL PIKE SUITE","BALTIMORE","MD",21228,39.2840711220001,-76.755575944,209,"6400 BALTIMORE NATIONAL PIKE SUITE, BALTIMORE, MD, 21228","Match","Exact","6400 BALTIMORE NATIONAL PIKE, BALTIMORE, MD, 21228",191483229,"R"
784710,"6400 BALTIMORE NATL PIKE STE 265","CATONSVILLE","MD",21338,39.2840711220001,-76.755575944,210,"6400 BALTIMORE NATL PIKE STE 265, CATONSVILLE, MD, 21338","Match","Non_Exact","6400 BALTIMORE NATIONAL PIKE, CATONSVILLE, MD, 21228",191483229,"R"
784711,"6400 BARRIE ROAD","EDINA","MN",55435,44.886994444,-93.322354423,211,"6400 BARRIE ROAD, EDINA, MN, 55435","Match","Exact","6400 BARRIE RD, EDINA, MN, 55435",641439858,"R"
784712,"6400 BAYBERRY COURT","ELKRIDGE","MD",21079,39.2069857490001,-76.7360001339999,212,"6400 BAYBERRY COURT, ELKRIDGE, MD, 21079","Match","Non_Exact","6400 BAYBERRY CT, ELKRIDGE, MD, 21075",636217740,"R"
784713,"6400 BAYLOR DR","BARTLESVILLE","OK",74006,36.7474699410001,-95.905706953,213,"6400 BAYLOR DR, BARTLESVILLE, OK, 74006","Match","Exact","6400 BAYLOR DR, BARTLESVILLE, OK, 74006",18709022,"R"
784714,"6400 BENELLI DRIVE","MILTON","FL",32570,NA,NA,214,"6400 BENELLI DRIVE, MILTON, FL, 32570","No_Match",NA,NA,NA,NA
784715,"6400 BENTLEY PLACE","JOHNSTON","IA",50131,41.6763913550001,-93.742568246,215,"6400 BENTLEY PLACE, JOHNSTON, IA, 50131","Match","Exact","6400 BENTLEY PL, JOHNSTON, IA, 50131",65813327,"R"
784716,"6400 BLANKE STREET","METERIE","LA",70003,30.017002335,-90.215586972,216,"6400 BLANKE STREET, METERIE, LA, 70003","Match","Non_Exact","6400 BLANKE ST, METAIRIE, LA, 70003",93494110,"L"
784717,"6400 BONDE FARMS LANE","RENO","NV",89511,39.4654860090001,-119.793417705,217,"6400 BONDE FARMS LANE, RENO, NV, 89511","Match","Exact","6400 BONDE FARMS LN, RENO, NV, 89511",649151319,"L"
784718,"6400 C R 97","ABBEVILLE","AL",36310,31.68082831,-85.136024277,218,"6400 C R 97, ABBEVILLE, AL, 36310","Match","Non_Exact","6400 CO RD 97, ABBEVILLE, AL, 36310",101173706,"R"
784719,"6400 CANOGA AVE SUITE 312","WOODLAND HILLS","CA",91367,34.1864782550001,-118.59737007,219,"6400 CANOGA AVE SUITE 312, WOODLAND HILLS, CA, 91367","Match","Exact","6400 CANOGA AVE, WOODLAND HILLS, CA, 91367",142710002,"R"
784720,"6400 CAROL DR","OKLAHOMA CITY","OK",73141,35.537235464,-97.419134876,220,"6400 CAROL DR, OKLAHOMA CITY, OK, 73141","Match","Exact","6400 CAROL DR, OKLAHOMA CITY, OK, 73141",100411458,"R"
784721,"6400 CENTER STREET APT C202","MENTOR","OH",44060,41.696208986,-81.339150412,221,"6400 CENTER STREET APT C202, MENTOR, OH, 44060","Match","Exact","6400 CENTER ST, MENTOR, OH, 44060",638674124,"R"
784722,"6400 CENTER STREET NUMBER 85","MENTOR","OH",44060,41.696208986,-81.339150412,222,"6400 CENTER STREET NUMBER 85, MENTOR, OH, 44060","Match","Exact","6400 CENTER ST, MENTOR, OH, 44060",638674124,"R"
784723,"6400 CHESHIRE DRIVE","AMARILLO","TX",79109,35.146261028,-101.918121706,223,"6400 CHESHIRE DRIVE, AMARILLO, TX, 79109","Match","Exact","6400 CHESHIRE DR, AMARILLO, TX, 79109",182659871,"L"
784724,"6400 CHRISTIE AVE APT 4227","EMERYVILLE","CA",94608,37.843818291,-122.295814634,224,"6400 CHRISTIE AVE APT 4227, EMERYVILLE, CA, 94608","Match","Exact","6400 CHRISTIE AVE, EMERYVILLE, CA, 94608",125051866,"R"
784725,"6400 CLOISTER GATE DR","BALTIMORE","MD",21212,39.3810425730001,-76.624781839,225,"6400 CLOISTER GATE DR, BALTIMORE, MD, 21212","Match","Exact","6400 CLOISTER GATE DR, BALTIMORE, MD, 21212",626224375,"L"
784726,"6400 COLUMBIA ROAD 7","EMERSON","AR",71740,33.0494012780001,-93.2532798669999,226,"6400 COLUMBIA ROAD 7, EMERSON, AR, 71740","Match","Exact","6400 COLUMBIA ROAD 7, EMERSON, AR, 71740",10681317,"L"
784727,"6400 CRESCENT PARK E 404","PLAYA VISTA","CA",90094,33.9702535070001,-118.427437439,227,"6400 CRESCENT PARK E 404, PLAYA VISTA, CA, 90094","Match","Non_Exact","6400 S CRESCENT PARK E, PLAYA VISTA, CA, 90094",241177131,"L"
784728,"6400 DANWOOD DR","AUSTIN","TX",78759,30.4201520410001,-97.760939116,228,"6400 DANWOOD DR, AUSTIN, TX, 78759","Match","Exact","6400 DANWOOD DR, AUSTIN, TX, 78759",63971452,"R"
784729,"6400 DEARBORN DRIVE","MISSION","KS",66202,39.0133591330001,-94.655451086,229,"6400 DEARBORN DRIVE, MISSION, KS, 66202","Match","Exact","6400 DEARBORN DR, MISSION, KS, 66202",91277978,"R"
784730,"6400 DEERWOOD PLACE","MONTGOMERY","AL",36117,32.4084337360001,-86.192520872,230,"6400 DEERWOOD PLACE, MONTGOMERY, AL, 36117","Match","Non_Exact","6400 DEER WOOD PL, MONTGOMERY, AL, 36117",1550762,"L"
784731,"6400 DIAMOND LOCH NORTH","NORTH RICHLAND HILLS","TX",76180,32.825865563,-97.245247084,231,"6400 DIAMOND LOCH NORTH, NORTH RICHLAND HILLS, TX, 76180","Match","Exact","6400 DIAMOND LOCH N, NORTH RICHLAND HILLS, TX, 76180",101863030,"R"
784732,"6400 DOUBLETREE COURT","MOBILE","AL",36695,30.6204565210001,-88.1927098579999,232,"6400 DOUBLETREE COURT, MOBILE, AL, 36695","Match","Exact","6400 DOUBLETREE CT, MOBILE, AL, 36695",636316715,"R"
784733,"6400 DOVE LANE","OCEAN SPRINGS","MS",39564,30.448310448,-88.807435558,233,"6400 DOVE LANE, OCEAN SPRINGS, MS, 39564","Match","Exact","6400 DOVE LN, OCEAN SPRINGS, MS, 39564",89268807,"L"
784734,"6400 E THOMAS RD UNIT 3015","SCOTTSDALE","AZ",85251,33.480209374,-111.942634591,234,"6400 E THOMAS RD UNIT 3015, SCOTTSDALE, AZ, 85251","Match","Non_Exact","6400 E THOMAS RD, SCOTTSDALE, AZ, 85251",128921538,"L"
784735,"6400 E VIA AMABLE","TUCSON","AR",85750,NA,NA,235,"6400 E VIA AMABLE, TUCSON, AR, 85750","No_Match",NA,NA,NA,NA
784736,"6400 EAST ROCKHILL CT","CAMBY","IN",46113,39.6286882520001,-86.310284055,236,"6400 EAST ROCKHILL CT, CAMBY, IN, 46113","Match","Exact","6400 E ROCKHILL CT, CAMBY, IN, 46113",43557986,"L"
784737,"6400 EAST SHORE DRIVE","PENSACOLA","FL",32505,30.4722927070001,-87.269257419,237,"6400 EAST SHORE DRIVE, PENSACOLA, FL, 32505","Match","Exact","6400 E SHORE DR, PENSACOLA, FL, 32505",93213321,"R"
784738,"6400 EMERALD CT","WILLOWBROOK","IL",60527,41.77194509,-87.945057457,238,"6400 EMERALD CT, WILLOWBROOK, IL, 60527","Match","Exact","6400 EMERALD CT, WILLOWBROOK, IL, 60527",112673912,"L"
784739,"6400 FANIN ST SUITE 2800","HOUSTON","TX",77030,29.7152017550001,-95.396528519,239,"6400 FANIN ST SUITE 2800, HOUSTON, TX, 77030","Match","Non_Exact","6400 FANNIN ST, HOUSTON, TX, 77030",637942056,"R"
784740,"6400 FANNIN ST SUITE 2800","HOUSTON","TX",77030,29.7152017550001,-95.396528519,240,"6400 FANNIN ST SUITE 2800, HOUSTON, TX, 77030","Match","Exact","6400 FANNIN ST, HOUSTON, TX, 77030",637942056,"R"
784741,"6400 FM-423   APT-  15202","FRISCO","TX",75036,NA,NA,241,"6400 FM-423   APT-  15202, FRISCO, TX, 75036","No_Match",NA,NA,NA,NA
784742,"6400 GLEBE POINT RD","CHESTERFIELD","VA",23838,37.3179733060001,-77.483316072,242,"6400 GLEBE POINT RD, CHESTERFIELD, VA, 23838","Match","Exact","6400 GLEBE POINT RD, CHESTERFIELD, VA, 23838",201575759,"L"
784743,"6400 GOLDEN PARK","MEMPHIS","TN",38115,NA,NA,243,"6400 GOLDEN PARK, MEMPHIS, TN, 38115","No_Match",NA,NA,NA,NA
784744,"6400 GRIFFITH ROAD","LAYTONSVILLE","MD",20882,39.225656492,-77.130416671,244,"6400 GRIFFITH ROAD, LAYTONSVILLE, MD, 20882","Match","Exact","6400 GRIFFITH RD, LAYTONSVILLE, MD, 20882",62132307,"R"
784745,"6400 HAZELTON DRIVE","CHARLOTTE","NC",28210,35.1451577980001,-80.834981161,245,"6400 HAZELTON DRIVE, CHARLOTTE, NC, 28210","Match","Exact","6400 HAZELTON DR, CHARLOTTE, NC, 28210",70489400,"R"
784746,"6400 HENCO CT","FORT WORTH","TX",76119,32.7186445340001,-97.218764875,246,"6400 HENCO CT, FORT WORTH, TX, 76119","Match","Non_Exact","6400 HENCO DR, FORT WORTH, TX, 76119",101934164,"R"
784747,"6400 HUNTLEIGH WAY","AUSTIN","TX",78725,30.282990112,-97.661134158,247,"6400 HUNTLEIGH WAY, AUSTIN, TX, 78725","Match","Exact","6400 HUNTLEIGH WAY, AUSTIN, TX, 78725",63951944,"L"
784748,"6400 INDEPENDENCE PKWY APT 2103","PLANO","TX",75023,33.0594728820001,-96.750297844,248,"6400 INDEPENDENCE PKWY APT 2103, PLANO, TX, 75023","Match","Exact","6400 INDEPENDENCE PKWY, PLANO, TX, 75023",210487676,"R"
784749,"6400 ISLA VERDE","CAROLINA","PR",979,NA,NA,249,"6400 ISLA VERDE, CAROLINA, PR, 979","No_Match",NA,NA,NA,NA
784750,"6400 KEDINGTON ST","AUSTIN","TX",78744,30.1506853450001,-97.748279935,250,"6400 KEDINGTON ST, AUSTIN, TX, 78744","Match","Non_Exact","6400 KEDINGTON ST, AUSTIN, TX, 78747",624864080,"L"
784751,"6400 KENNEDY DR","CHEVY CHASE","MD",20815,38.974090656,-77.104599817,251,"6400 KENNEDY DR, CHEVY CHASE, MD, 20815","Match","Exact","6400 KENNEDY DR, CHEVY CHASE, MD, 20815",62065892,"L"
784752,"6400 LAKEOVER RD SUITE A","JACKSON","MS",39213,32.3889468730001,-90.194632879,252,"6400 LAKEOVER RD SUITE A, JACKSON, MS, 39213","Match","Exact","6400 LAKEOVER RD, JACKSON, MS, 39213",611216064,"L"
784753,"6400 LINCOLN AVE 404","MORTON GROVE","IL",60053,42.036749726,-87.786225148,253,"6400 LINCOLN AVE 404, MORTON GROVE, IL, 60053","Match","Exact","6400 LINCOLN AVE, MORTON GROVE, IL, 60053",629481532,"R"
784754,"6400 LIVORNO RD","ELK GROVE","CA",95757,38.399485256,-121.431353277,254,"6400 LIVORNO RD, ELK GROVE, CA, 95757","Match","Non_Exact","6400 LIVORNO WAY, ELK GROVE, CA, 95757",133430760,"R"
784755,"6400 MAGNOLIA PLACE CT S","MOBILE","AL",36695,30.6241266860001,-88.190975759,255,"6400 MAGNOLIA PLACE CT S, MOBILE, AL, 36695","Match","Exact","6400 MAGNOLIA PLACE CT S, MOBILE, AL, 36695",648319590,"R"
784756,"6400 MAIN ST   15E","COLUMBUS","GA",92880,NA,NA,256,"6400 MAIN ST   15E, COLUMBUS, GA, 92880","Tie",NA,NA,NA,NA
784757,"6400 MALLARD DR","NINEVEH","IN",46164,39.300683758,-86.132059944,257,"6400 MALLARD DR, NINEVEH, IN, 46164","Match","Exact","6400 MALLARD DR, NINEVEH, IN, 46164",43523877,"R"
784758,"6400 MARAVIAN DRIVE","LOUISVILLE","KY",40258,38.1631072550001,-85.8736438779999,258,"6400 MARAVIAN DRIVE, LOUISVILLE, KY, 40258","Match","Exact","6400 MARAVIAN DR, LOUISVILLE, KY, 40258",96920796,"L"
784759,"6400 MILNE BOULEVARD","NEW ORLEAN","LA",70124,30.007734154,-90.112315027,259,"6400 MILNE BOULEVARD, NEW ORLEAN, LA, 70124","Match","Non_Exact","6400 MILNE BLVD, NEW ORLEANS, LA, 70124",191702928,"L"
784760,"6400 MONTROSE RD","ROCKVILLE","MD",20852,39.053161565,-77.131937582,260,"6400 MONTROSE RD, ROCKVILLE, MD, 20852","Match","Exact","6400 MONTROSE RD, ROCKVILLE, MD, 20852",62101383,"L"
784761,"6400 MORNING TIME LN","CLARKSVILLE","MD",21029,39.194751082,-76.922989601,261,"6400 MORNING TIME LN, CLARKSVILLE, MD, 21029","Match","Exact","6400 MORNING TIME LN, CLARKSVILLE, MD, 21029",158972414,"L"
784762,"6400 N LONDON AVE","KANSAS CITY","MO",64151,39.2118511520001,-94.634656032,262,"6400 N LONDON AVE, KANSAS CITY, MO, 64151","Match","Exact","6400 N LONDON AVE, KANSAS CITY, MO, 64151",39695823,"L"
784763,"6400 NORTH COUNTRY ESTATES LANE","MALAD","ID",83252,42.27580958,-112.175058927,263,"6400 NORTH COUNTRY ESTATES LANE, MALAD, ID, 83252","Match","Non_Exact","6400 N COUNTRY EST, MALAD CITY, ID, 83252",651065451,"L"
784764,"6400 NORTH LAKE DRIVE","FOX POINT","WI",53217,NA,NA,264,"6400 NORTH LAKE DRIVE, FOX POINT, WI, 53217","No_Match",NA,NA,NA,NA
784765,"6400 NORTH MERIDIAN RD","TALLAHASSEE","FL",32312,30.555854921,-84.277634653,265,"6400 NORTH MERIDIAN RD, TALLAHASSEE, FL, 32312","Match","Exact","6400 N MERIDIAN RD, TALLAHASSEE, FL, 32312",647740221,"L"
784766,"6400 NORTH MERIDIAN ROAD","TALLAHASSEE","FL",32312,30.555854921,-84.277634653,266,"6400 NORTH MERIDIAN ROAD, TALLAHASSEE, FL, 32312","Match","Exact","6400 N MERIDIAN RD, TALLAHASSEE, FL, 32312",647740221,"L"
784767,"6400 NORTH PLACITA ALTA REPOSA","TUCSON","AZ",85750,NA,NA,267,"6400 NORTH PLACITA ALTA REPOSA, TUCSON, AZ, 85750","No_Match",NA,NA,NA,NA
784768,"6400 NOWELL DRIVE","RALEIGH","NC",27607,NA,NA,268,"6400 NOWELL DRIVE, RALEIGH, NC, 27607","No_Match",NA,NA,NA,NA
784769,"6400 NW 06TH PL APT 6","ALACHUA","FL",32615,NA,NA,269,"6400 NW 06TH PL APT 6, ALACHUA, FL, 32615","No_Match",NA,NA,NA,NA
784770,"6400 NW 106TH PL APT 6","ALACHUA","FL",32615,29.7528819180001,-82.4143202989999,270,"6400 NW 106TH PL APT 6, ALACHUA, FL, 32615","Match","Non_Exact","6400 NW 106TH PL, ALACHUA, FL, 32615",6857441,"L"
784771,"6400 NW 156TH ST","EDMOND","OK",73013,35.6297075890001,-97.628117808,271,"6400 NW 156TH ST, EDMOND, OK, 73013","Match","Exact","6400 NW 156TH ST, EDMOND, OK, 73013",646674144,"L"
784772,"6400 NW EXPRESSWAY APT 735","OKLAHOMA CITY","OK",73132,NA,NA,272,"6400 NW EXPRESSWAY APT 735, OKLAHOMA CITY, OK, 73132","No_Match",NA,NA,NA,NA
784773,"6400 OBERLIN AVE","LORAIN","OH",44053,NA,NA,273,"6400 OBERLIN AVE, LORAIN, OH, 44053","No_Match",NA,NA,NA,NA
784774,"6400 OHIO DRIVE APT 625","PLANO","TX",75024,33.059410262,-96.7907143319999,274,"6400 OHIO DRIVE APT 625, PLANO, TX, 75024","Match","Exact","6400 OHIO DR, PLANO, TX, 75024",614159910,"R"
784775,"6400 OLD OAK RIDGE RD APT D14","GREENSBORO","NC",27410,36.1295270470001,-79.9356979139999,275,"6400 OLD OAK RIDGE RD APT D14, GREENSBORO, NC, 27410","Match","Non_Exact","6400 OLD OAK RIDGE RD, GREENSBORO, NC, 27410",634050501,"L"
784776,"6400 ORLEANS AVE","LP","LA",70068,NA,NA,276,"6400 ORLEANS AVE, LP, LA, 70068","No_Match",NA,NA,NA,NA
784777,"6400 PALOMINO WAY","WEST LINN","OR",97068,45.3757883650001,-122.643218836,277,"6400 PALOMINO WAY, WEST LINN, OR, 97068","Match","Exact","6400 PALOMINO WAY, WEST LINN, OR, 97068",157993212,"L"
784778,"6400 PEMBROKE RD","MIRAMAR","FL",33023,25.9953085330001,-80.2155100369999,278,"6400 PEMBROKE RD, MIRAMAR, FL, 33023","Match","Exact","6400 PEMBROKE RD, MIRAMAR, FL, 33023",637769493,"R"
784779,"6400 PIMA PLACE","ALBUQUQURQUE","NM",87107,NA,NA,279,"6400 PIMA PLACE, ALBUQUQURQUE, NM, 87107","No_Match",NA,NA,NA,NA
784780,"6400 POPLAR AVE","MEMPHIS","TN",38197,35.100466688,-89.851777596,280,"6400 POPLAR AVE, MEMPHIS, TN, 38197","Match","Non_Exact","6400 POPLAR AVE, MEMPHIS, TN, 38119",607441868,"L"
784781,"6400 POWERS FERRY RD NW SUITE 390","ATLANTA","GA",30339,33.9044645650001,-84.431213875,281,"6400 POWERS FERRY RD NW SUITE 390, ATLANTA, GA, 30339","Match","Exact","6400 POWERS FERRY RD NW, ATLANTA, GA, 30339",17417046,"L"
784782,"6400 POWERS FERRY ROAD STE 220","ATLANTA","GA",30339,33.9044645650001,-84.431213875,282,"6400 POWERS FERRY ROAD STE 220, ATLANTA, GA, 30339","Match","Non_Exact","6400 POWERS FERRY RD NW, ATLANTA, GA, 30339",17417046,"L"
784783,"6400 PRESS DRIVE","NEW ORLEANS","LA",70126,30.0272459,-90.0441328799999,283,"6400 PRESS DRIVE, NEW ORLEANS, LA, 70126","Match","Exact","6400 PRESS DR, NEW ORLEANS, LA, 70126",191751259,"R"
784784,"6400 RAINBOW TRL","FORT WORTH","TX",76135,32.836983908,-97.5072415719999,284,"6400 RAINBOW TRL, FORT WORTH, TX, 76135","Match","Exact","6400 RAINBOW TRL, FORT WORTH, TX, 76135",102116374,"R"
784785,"6400 RIDGE DRIVE","BETHESDA","MD",20816,38.9428240840001,-77.121713104,285,"6400 RIDGE DRIVE, BETHESDA, MD, 20816","Match","Exact","6400 RIDGE DR, BETHESDA, MD, 20816",62059130,"L"
784786,"6400 ROBINS TRACE","STONE MOUNTAIN","GA",30087,NA,NA,286,"6400 ROBINS TRACE, STONE MOUNTAIN, GA, 30087","No_Match",NA,NA,NA,NA
784787,"6400 ROCKREST CT","RALEIGH","NC",27612,35.866437336,-78.6672562749999,287,"6400 ROCKREST CT, RALEIGH, NC, 27612","Match","Exact","6400 ROCKREST CT, RALEIGH, NC, 27612",72496067,"R"
784788,"6400 RUGOSA AVE","REYNOLDSBURG","OH",43068,39.973456856,-82.829407524,288,"6400 RUGOSA AVE, REYNOLDSBURG, OH, 43068","Match","Exact","6400 RUGOSA AVE, REYNOLDSBURG, OH, 43068",218681358,"L"
784789,"6400 S 41ST STREET CT","LINCOLN","NE",68516,40.747084194,-96.662624643,289,"6400 S 41ST STREET CT, LINCOLN, NE, 68516","Match","Exact","6400 S 41ST STREET CT, LINCOLN, NE, 68516",28262665,"L"
784790,"6400 S 84TH STREET","LINCOLN","NE",68516,40.7471131360001,-96.6060780509999,290,"6400 S 84TH STREET, LINCOLN, NE, 68516","Match","Exact","6400 S 84TH ST, LINCOLN, NE, 68516",28263056,"L"
784791,"6400 S ACACIA DESERT AVE","TUCSON","AZ",85706,32.13604123,-110.902363967,291,"6400 S ACACIA DESERT AVE, TUCSON, AZ, 85706","Match","Exact","6400 S ACACIA DESERT AVE, TUCSON, AZ, 85706",606832116,"R"
784792,"6400 S EASTERN AVE STE 12","LAS VEGAS","NV",89119,36.074078156,-115.118691699,292,"6400 S EASTERN AVE STE 12, LAS VEGAS, NV, 89119","Match","Non_Exact","6400 S EASTERN AVE, LAS VEGAS, NV, 89119",201873076,"L"
784793,"6400 S FIDDLERS GREEN CIR STE 1970","GREENWOOD VILLAGE","CO",80111,39.600187099,-104.890210544,293,"6400 S FIDDLERS GREEN CIR STE 1970, GREENWOOD VILLAGE, CO, 80111","Match","Non_Exact","6400 S FIDDLERS GREEN CIR, GREENWOOD VILLAGE, CO, 80111",653310223,"L"
784794,"6400 S GESSNER RD STE 1062","HOUSTON","TX",77036,29.7111193960001,-95.5388926479999,294,"6400 S GESSNER RD STE 1062, HOUSTON, TX, 77036","Match","Non_Exact","6400 S GESSNER RD, HOUSTON, TX, 77036",96608734,"R"
784795,"6400 S PROMONTORY DR","CHICAGO","IL",60649,41.778540187,-87.572781672,295,"6400 S PROMONTORY DR, CHICAGO, IL, 60649","Match","Exact","6400 S PROMONTORY DR, CHICAGO, IL, 60649",638712977,"R"
784796,"6400 SAINT IGNATIUS DRIVE","FORT WASHINGTON","MD",20744,38.8052797010001,-76.966952151,296,"6400 SAINT IGNATIUS DRIVE, FORT WASHINGTON, MD, 20744","Match","Exact","6400 ST IGNATIUS DR, FT WASHINGTON, MD, 20744",76315509,"R"
784797,"6400 SANTOLINA CV","AUSTIN","TX",78731,30.3587348190001,-97.7790586149999,297,"6400 SANTOLINA CV, AUSTIN, TX, 78731","Match","Exact","6400 SANTOLINA COVE, AUSTIN, TX, 78731",63928286,"R"
784798,"6400 SE 59TH ST","OKLAHOMA CITY","OK",73135,35.406295915,-97.4120925779999,298,"6400 SE 59TH ST, OKLAHOMA CITY, OK, 73135","Match","Exact","6400 SE 59TH ST, OKLAHOMA CITY, OK, 73135",100418888,"R"
784799,"6400 SHAFER COURT SUITE 600","ROSEMONT","IL",60018,41.9955027190001,-87.865148198,299,"6400 SHAFER COURT SUITE 600, ROSEMONT, IL, 60018","Match","Exact","6400 SHAFER CT, ROSEMONT, IL, 60018",111860816,"R"
784800,"6400 SHARLANDS AVE APT L2072","RENO","NV",89523,39.5189018460001,-119.88904341,300,"6400 SHARLANDS AVE APT L2072, RENO, NV, 89523","Match","Exact","6400 SHARLANDS AVE, RENO, NV, 89523",640024751,"R"
784801,"6400 SOUTH JARDOT ROAD","STILLWATER","OK",74074,36.048217386,-97.0335253919999,301,"6400 SOUTH JARDOT ROAD, STILLWATER, OK, 74074","Match","Exact","6400 S JARDOT RD, STILLWATER, OK, 74074",166380283,"L"
784802,"6400 SOUTH OURAY WAY","AURORA","CO",80016,39.6005167180001,-104.791074958,302,"6400 SOUTH OURAY WAY, AURORA, CO, 80016","Match","Exact","6400 S OURAY WAY, AURORA, CO, 80016",177541303,"L"
784803,"6400 STAR CREEK DRIVE","FRISCO","TX",75034,33.1195534560001,-96.8301385679999,303,"6400 STAR CREEK DRIVE, FRISCO, TX, 75034","Match","Exact","6400 STAR CREEK DR, FRISCO, TX, 75034",123538689,"L"
784804,"6400 STATE HWY 28","FLY CREEK","NY",13337,NA,NA,304,"6400 STATE HWY 28, FLY CREEK, NY, 13337","No_Match",NA,NA,NA,NA
784805,"6400 SUMMERSET WAY APT33","BAKERSFIELD","CA",93308,35.4176834350001,-119.064402151,305,"6400 SUMMERSET WAY APT33, BAKERSFIELD, CA, 93308","Match","Exact","6400 SUMMERSET WAY, BAKERSFIELD, CA, 93308",109084052,"L"
784806,"6400 SUNSET BOULEVARD","HOLLYWOOD","CA",90028,34.0979857930001,-118.328863621,306,"6400 SUNSET BOULEVARD, HOLLYWOOD, CA, 90028","Match","Exact","6400 SUNSET BLVD, HOLLYWOOD, CA, 90028",141599798,"L"
784807,"6400 SW 15TH COURT","NORTH LAUDERDALE","FL",33068,26.20766086,-80.2101748269999,307,"6400 SW 15TH COURT, NORTH LAUDERDALE, FL, 33068","Match","Exact","6400 SW 15TH CT, N LAUDERDALE, FL, 33068",114705567,"L"
784808,"6400 TOURNAMENT DRIVE","RIVERSIDE","CA",92509,34.002053975,-117.428991537,308,"6400 TOURNAMENT DRIVE, RIVERSIDE, CA, 92509","Match","Exact","6400 TOURNAMENT DR, RIVERSIDE, CA, 92509",194733385,"L"
784809,"6400 UPTOWN BLVD NE","ALBUQUERQUE","NM",87110,35.103735328,-106.573077382,309,"6400 UPTOWN BLVD NE, ALBUQUERQUE, NM, 87110","Match","Exact","6400 UPTOWN BLVD NE, ALBUQUERQUE, NM, 87110",206745266,"R"
784810,"6400 VENICE DR","NEWBURGH","IN",47630,38.0012028570001,-87.366508094,310,"6400 VENICE DR, NEWBURGH, IN, 47630","Match","Exact","6400 VENICE DR, NEWBURGH, IN, 47630",32213098,"R"
784811,"6400 W BELLE SPRINGS WAY","FLAGSTAFF","AZ",86001,35.193327417,-111.719020062,311,"6400 W BELLE SPRINGS WAY, FLAGSTAFF, AZ, 86001","Match","Exact","6400 W BELLE SPRINGS WAY, FLAGSTAFF, AZ, 86001",188957068,"L"
784812,"6400 WASHINGTON AVE APT 316","HOUSTON","TX",77007,29.774787071,-95.426238896,312,"6400 WASHINGTON AVE APT 316, HOUSTON, TX, 77007","Match","Exact","6400 WASHINGTON AVE, HOUSTON, TX, 77007",96059947,"R"
784813,"6400 WASHINGTON AVE APT 538","HOUSTON","TX",77007,29.774787071,-95.426238896,313,"6400 WASHINGTON AVE APT 538, HOUSTON, TX, 77007","Match","Exact","6400 WASHINGTON AVE, HOUSTON, TX, 77007",96059947,"R"
784814,"6400 WEST SNOWVILLE ROAD","BRECKSVILLE","OH",44141,41.2822486310001,-81.64341954,314,"6400 WEST SNOWVILLE ROAD, BRECKSVILLE, OH, 44141","Match","Exact","6400 W SNOWVILLE RD, BRECKSVILLE, OH, 44141",61171811,"R"
784815,"6400 WHITE OAK ROAD","JUNCTION CITY","KY",40440,37.558707043,-84.840171271,315,"6400 WHITE OAK ROAD, JUNCTION CITY, KY, 40440","Match","Exact","6400 WHITE OAK RD, JUNCTION CITY, KY, 40440",32481541,"R"
784816,"6400 WHITELOCK PKWY","ELK GROVE","CA",95757,NA,NA,316,"6400 WHITELOCK PKWY, ELK GROVE, CA, 95757","No_Match",NA,NA,NA,NA
784817,"6400 WINDCREST DRIVE  APT 1622","PLANO","TX",75024,33.0620283390001,-96.804916969,317,"6400 WINDCREST DRIVE  APT 1622, PLANO, TX, 75024","Match","Exact","6400 WINDCREST DR, PLANO, TX, 75024",210487542,"R"
784818,"6400 WOLF RUN HUNT COURT","FAIRFAX STATION","VA",22039,38.7827104940001,-77.336422774,318,"6400 WOLF RUN HUNT COURT, FAIRFAX STATION, VA, 22039","Match","Exact","6400 WOLF RUN HUNT CT, FAIRFAX STATION, VA, 22039",75967743,"R"
784819,"6400 WOODCREST STREET","PHILADELPHIA","PA",19151,39.982566191,-75.2522251729999,319,"6400 WOODCREST STREET, PHILADELPHIA, PA, 19151","Match","Non_Exact","6400 WOODCREST AVE, PHILADELPHIA, PA, 19151",131396932,"L"
784820,"6400 WOODLAND AVE","KANSAS CITY","MO",64131,39.0109348230001,-94.56487143,320,"6400 WOODLAND AVE, KANSAS CITY, MO, 64131","Match","Exact","6400 WOODLAND AVE, KANSAS CITY, MO, 64131",638437637,"R"
784821,"6400 WOODROW RD","LITHONIA","GA",30038,33.6945095890001,-84.127682783,321,"6400 WOODROW RD, LITHONIA, GA, 30038","Match","Exact","6400 WOODROW RD, LITHONIA, GA, 30038",23375423,"L"
784822,"6400 WORCHESTER","NASHVILLE","TN",37221,36.049815086,-86.886067026,322,"6400 WORCHESTER, NASHVILLE, TN, 37221","Match","Non_Exact","6400 WORCHESTER DR, NASHVILLE, TN, 37221",97180132,"L"
784823,"6400 WURZBACH RD APT 605","SAN ANTONIO","TX",78240,29.492033823,-98.597925474,323,"6400 WURZBACH RD APT 605, SAN ANTONIO, TX, 78240","Match","Exact","6400 WURZBACH RD, SAN ANTONIO, TX, 78240",640624336,"R"
784824,"6400 YORKSHIRE DRIVE","FORT WORTH","TX",76119,32.664702505,-97.267529437,324,"6400 YORKSHIRE DRIVE, FORT WORTH, TX, 76119","Match","Exact","6400 YORKSHIRE DR, FORT WORTH, TX, 76119",101902937,"R"
784825,"6400","LINCOLN","NE",68507,NA,NA,325,"6400, LINCOLN, NE, 68507","No_Match",NA,NA,NA,NA
784826,"64005 GARRETT HILL RD","ST CLAIRSVILLE","OH",43950,40.011736093,-80.878884011,326,"64005 GARRETT HILL RD, ST CLAIRSVILLE, OH, 43950","Match","Exact","64005 GARRETT HILL RD, SAINT CLAIRSVILLE, OH, 43950",36240131,"R"
784827,"6401 10TH AVE SOUTH","TAMPA","FL",33619,NA,NA,327,"6401 10TH AVE SOUTH, TAMPA, FL, 33619","No_Match",NA,NA,NA,NA
784828,"6401 112TH AVE","KENOSHA","WI",53142,42.5776837110001,-87.942537654,328,"6401 112TH AVE, KENOSHA, WI, 53142","Match","Exact","6401 112TH AVE, KENOSHA, WI, 53142",79820238,"L"
784829,"6401 13 STREET N","FARGO","ND",58102,46.963197623,-96.800113004,329,"6401 13 STREET N, FARGO, ND, 58102","Match","Exact","6401 13TH ST N, FARGO, ND, 58102",151474875,"R"
784830,"6401 6TH ST","CORNING","KS",66417,39.6559094080001,-96.02925942,330,"6401 6TH ST, CORNING, KS, 66417","Match","Exact","6401 6TH ST, CORNING, KS, 66417",10188401,"R"
784831,"6401 6TH STREET","CORNING","KS",66417,39.6559094080001,-96.02925942,331,"6401 6TH STREET, CORNING, KS, 66417","Match","Exact","6401 6TH ST, CORNING, KS, 66417",10188401,"R"
784832,"6401 A BOSTON ST E-106","GREENWOOD VILLAGE","CO",80111,NA,NA,332,"6401 A BOSTON ST E-106, GREENWOOD VILLAGE, CO, 80111","No_Match",NA,NA,NA,NA
784833,"6401 ALFORD CIR","LITHONIA","GA",30051,33.763190475,-84.126078478,333,"6401 ALFORD CIR, LITHONIA, GA, 30051","Match","Non_Exact","6401 ALFORD CIR, LITHONIA, GA, 30058",23394844,"L"
784834,"6401 ALLEN RD","BAKERSFIELD","CA",93312,35.4162273150001,-119.145486023,334,"6401 ALLEN RD, BAKERSFIELD, CA, 93312","Match","Non_Exact","6401 ALLEN RD, BAKERSFIELD, CA, 93314",645292388,"R"
784835,"6401 ARAGON WAY - 206","FORT MYERS","FL",33966,26.5516057450001,-81.848616555,335,"6401 ARAGON WAY - 206, FORT MYERS, FL, 33966","Match","Exact","6401 ARAGON WAY, FORT MYERS, FL, 33966",118167600,"R"
784836,"6401 ARNOT STREET","HOUSTON","TX",77007,29.7703286120001,-95.4255451769999,336,"6401 ARNOT STREET, HOUSTON, TX, 77007","Match","Exact","6401 ARNOT ST, HOUSTON, TX, 77007",96060375,"L"
784837,"6401 ARTNOT STREET","HOUSTON","TX",77007,NA,NA,337,"6401 ARTNOT STREET, HOUSTON, TX, 77007","No_Match",NA,NA,NA,NA
784838,"6401 BARTON ROAD","PLANT CITY","FL",33565,28.057981408,-82.211803195,338,"6401 BARTON ROAD, PLANT CITY, FL, 33565","Match","Exact","6401 BARTON RD, PLANT CITY, FL, 33565",646602032,"L"
784839,"6401 BELONA AVE","BALTIMORE","MD",21212,39.3735387900001,-76.618731602,339,"6401 BELONA AVE, BALTIMORE, MD, 21212","Match","Non_Exact","6401 BELLONA AVE, BALTIMORE, MD, 21212",191473668,"R"
784840,"6401 BENT TREE COURT","SPRINGFIELD","IL",62712,39.7102006650001,-89.6216719779999,340,"6401 BENT TREE COURT, SPRINGFIELD, IL, 62712","Match","Exact","6401 BENT TREE CT, SPRINGFIELD, IL, 62712",97359803,"R"
784841,"6401 BENVENUE AVENUE","OAKLAND","CA",94618,37.851361943,-122.253507345,341,"6401 BENVENUE AVENUE, OAKLAND, CA, 94618","Match","Exact","6401 BENVENUE AVE, OAKLAND, CA, 94618",650183345,"L"
784842,"6401 BERKSHIRE LN N","MAPLE GROVE","MN",55311,45.071667603,-93.456023742,342,"6401 BERKSHIRE LN N, MAPLE GROVE, MN, 55311","Match","Non_Exact","6401 BERKSHIRE LN, MAPLE GROVE, MN, 55311",43815629,"L"
784843,"6401 BERNHARD AVENUE","RICHMOND","CA",94805,37.9434311850001,-122.310978649,343,"6401 BERNHARD AVENUE, RICHMOND, CA, 94805","Match","Exact","6401 BERNHARD AVE, RICHMOND, CA, 94805",192042399,"L"
784844,"6401 BIRMINGHAM AVE","ZEPHYRHILLS","FL",33542,28.250033451,-82.198277865,344,"6401 BIRMINGHAM AVE, ZEPHYRHILLS, FL, 33542","Match","Exact","6401 BIRMINGHAM AVE, ZEPHYRHILLS, FL, 33542",86387330,"L"
784845,"6401 BLACKHAW DRIVE","REYNOLDSBURG","OH",43068,39.9412028680001,-82.824491522,345,"6401 BLACKHAW DRIVE, REYNOLDSBURG, OH, 43068","Match","Exact","6401 BLACKHAW DR, REYNOLDSBURG, OH, 43068",135601698,"R"
784846,"6401 BLUE SAGE LANE","UPPER MARLBORO","MD",20772,38.8025019040001,-76.7646794789999,346,"6401 BLUE SAGE LANE, UPPER MARLBORO, MD, 20772","Match","Exact","6401 BLUE SAGE LN, UPPER MARLBORO, MD, 20772",76355269,"R"
784847,"6401 BRADLEY DR","WOODRIDGE","IL",60517,41.7706462990001,-88.0647298229999,347,"6401 BRADLEY DR, WOODRIDGE, IL, 60517","Match","Exact","6401 BRADLEY DR, WOODRIDGE, IL, 60517",112538436,"L"
784848,"6401 BRADLEY PLACE","LOS ANGELES","CA",90056,33.981856615,-118.371327631,348,"6401 BRADLEY PLACE, LOS ANGELES, CA, 90056","Match","Exact","6401 BRADLEY PL, LOS ANGELES, CA, 90056",141653544,"R"
784849,"6401 BRENDAN CIR","MCFARLAND","WI",53558,43.0039581010001,-89.300297025,349,"6401 BRENDAN CIR, MCFARLAND, WI, 53558","Match","Exact","6401 BRENDAN CIR, MCFARLAND, WI, 53558",613733862,"L"
784850,"6401 CAPE WEDGEWOOD DR","BROWNS SUMMIT","NC",27214,36.172300138,-79.755618155,350,"6401 CAPE WEDGEWOOD DR, BROWNS SUMMIT, NC, 27214","Match","Non_Exact","6401 CAPE WEDGEWOOD CIR, BROWNS SUMMIT, NC, 27214",131092597,"L"
784851,"6401 CARMEL FALLS COURT","MCKINNEY","TX",75072,33.191476036,-96.700896561,351,"6401 CARMEL FALLS COURT, MCKINNEY, TX, 75072","Match","Exact","6401 CARMEL FALLS CT, MCKINNEY, TX, 75072",619909745,"R"
784852,"6401 CARMEL RD  201","CHARLOTTE","NC",28226,35.0904817970001,-80.844507974,352,"6401 CARMEL RD  201, CHARLOTTE, NC, 28226","Match","Exact","6401 CARMEL RD, CHARLOTTE, NC, 28226",636702035,"L"
784853,"6401 CHARLESTON STREET","HOLLYWOOD","FL",33024,26.039171605,-80.217691717,353,"6401 CHARLESTON STREET, HOLLYWOOD, FL, 33024","Match","Exact","6401 CHARLESTON ST, HOLLYWOOD, FL, 33024",632603198,"L"
784854,"6401 CHARLOTTE HWY","YORK","SC",29745,NA,NA,354,"6401 CHARLOTTE HWY, YORK, SC, 29745","No_Match",NA,NA,NA,NA
784855,"6401 CHURCH STREET","PHILADELPHIA","PA",19151,39.9867496570001,-75.255303969,355,"6401 CHURCH STREET, PHILADELPHIA, PA, 19151","Match","Non_Exact","6401 CHURCH RD, PHILADELPHIA, PA, 19151",131396916,"R"
784856,"6401 CLAYTON AVENUE","SAINT LOUIS","MO",63139,38.6286012630001,-90.292952515,356,"6401 CLAYTON AVENUE, SAINT LOUIS, MO, 63139","Match","Exact","6401 CLAYTON AVE, SAINT LOUIS, MO, 63139",107593770,"R"
784857,"6401 COLONIA VILLAGE LOOP","MANASSAS","VA",20112,38.620243584,-77.396040983,357,"6401 COLONIA VILLAGE LOOP, MANASSAS, VA, 20112","Match","Non_Exact","6401 COLONIAL VILLAGE LOOP, MANASSAS, VA, 20112",624104920,"L"
784858,"6401 CONGRESS AVE","BOCA RATON","FL",33487,NA,NA,358,"6401 CONGRESS AVE, BOCA RATON, FL, 33487","No_Match",NA,NA,NA,NA
784859,"6401 COUNTY ROAD 1205","RIO VISTA","TX",76093,NA,NA,359,"6401 COUNTY ROAD 1205, RIO VISTA, TX, 76093","No_Match",NA,NA,NA,NA
784860,"6401 CROPPING ST NO 2108","WINTER GARDEN","FL",34787,28.46512491,-81.602111096,360,"6401 CROPPING ST NO 2108, WINTER GARDEN, FL, 34787","Match","Non_Exact","6401 CROPPING ST, WINTER GARDEN, FL, 34787",631221980,"R"
784861,"6401 CROPPING ST","WINTER GARDEN","FL",34787,28.46512491,-81.602111096,361,"6401 CROPPING ST, WINTER GARDEN, FL, 34787","Match","Exact","6401 CROPPING ST, WINTER GARDEN, FL, 34787",631221980,"R"
784862,"6401 CROPPING STREET","WINTER GARDEN","FL",34787,28.46512491,-81.602111096,362,"6401 CROPPING STREET, WINTER GARDEN, FL, 34787","Match","Exact","6401 CROPPING ST, WINTER GARDEN, FL, 34787",631221980,"R"
784863,"6401 CROSS GATE DRIVE","BATON ROUGE","LA",70817,30.3920910510001,-91.0015548439999,363,"6401 CROSS GATE DRIVE, BATON ROUGE, LA, 70817","Match","Exact","6401 CROSS GATE DR, BATON ROUGE, LA, 70817",632762325,"L"
784864,"6401 DORCHESTER ROAD","NORTH CHARLESTON","SC",29418,NA,NA,364,"6401 DORCHESTER ROAD, NORTH CHARLESTON, SC, 29418","No_Match",NA,NA,NA,NA
784865,"6401 E CALLE BOOTIS","TUSCON","AZ",85710,32.204034495,-110.854547114,365,"6401 E CALLE BOOTIS, TUSCON, AZ, 85710","Match","Non_Exact","6401 E CLL BOOTIS, TUCSON, AZ, 85710",121181835,"L"
784866,"6401 E JACKSON STREET","MUNCIE","FL",47303,NA,NA,366,"6401 E JACKSON STREET, MUNCIE, FL, 47303","No_Match",NA,NA,NA,NA
784867,"6401 E ROBINSON","NORMAN","OK",73026,35.232749369,-97.346619193,367,"6401 E ROBINSON, NORMAN, OK, 73026","Match","Non_Exact","6401 E ROBINSON ST, NORMAN, OK, 73026",99940665,"L"
784868,"6401 E ROBINSON","NORMAN","OK",73069,NA,NA,368,"6401 E ROBINSON, NORMAN, OK, 73069","No_Match",NA,NA,NA,NA
784869,"6401 EAST ROBINSON","NORMAN","TX",73062,NA,NA,369,"6401 EAST ROBINSON, NORMAN, TX, 73062","No_Match",NA,NA,NA,NA
784870,"6401 EDGEWATER COVE","FAIRBURN","GA",30213,33.5847684550001,-84.6403479419999,370,"6401 EDGEWATER COVE, FAIRBURN, GA, 30213","Match","Exact","6401 EDGEWATER COVE, FAIRBURN, GA, 30213",629551065,"R"
784871,"6401 ELYSIAN FIELDS AVENUE","NEW ORLEANS","LA",70122,30.024391657,-90.0610637079999,371,"6401 ELYSIAN FIELDS AVENUE, NEW ORLEANS, LA, 70122","Match","Exact","6401 ELYSIAN FIELDS AVE, NEW ORLEANS, LA, 70122",191751468,"R"
784872,"6401 FORCE ROAD","GILLETTE","WY",82718,44.2495034070001,-105.584318056,372,"6401 FORCE ROAD, GILLETTE, WY, 82718","Match","Exact","6401 FORCE RD, GILLETTE, WY, 82718",146353695,"R"
784873,"6401 GOLDEN TRIANGLE DR SUITE 115","GREENBELT","MD",20770,38.9974887440001,-76.8958153729999,373,"6401 GOLDEN TRIANGLE DR SUITE 115, GREENBELT, MD, 20770","Match","Exact","6401 GOLDEN TRIANGLE DR, GREENBELT, MD, 20770",76349267,"L"
784874,"6401 GOLDEN TRIANGLE DR SUITE115","GREENBELT","MD",20770,38.9974887440001,-76.8958153729999,374,"6401 GOLDEN TRIANGLE DR SUITE115, GREENBELT, MD, 20770","Match","Exact","6401 GOLDEN TRIANGLE DR, GREENBELT, MD, 20770",76349267,"L"
784875,"6401 GOLDEN TRIANGLE DR","GREENBELT","MD",20770,38.9974887440001,-76.8958153729999,375,"6401 GOLDEN TRIANGLE DR, GREENBELT, MD, 20770","Match","Exact","6401 GOLDEN TRIANGLE DR, GREENBELT, MD, 20770",76349267,"L"
784876,"6401 GOLDEN TRIANGLE DRIVE 115","GREENBELT","MD",20770,38.9974887440001,-76.8958153729999,376,"6401 GOLDEN TRIANGLE DRIVE 115, GREENBELT, MD, 20770","Match","Exact","6401 GOLDEN TRIANGLE DR, GREENBELT, MD, 20770",76349267,"L"
784877,"6401 GRIFFITH LOOP","KILLEEN","TX",76549,31.0764838200001,-97.803597123,377,"6401 GRIFFITH LOOP, KILLEEN, TX, 76549","Match","Exact","6401 GRIFFITH LOOP, KILLEEN, TX, 76549",146233450,"L"
784878,"6401 HIDDEN VALLEY RANCH","DESOTO","MO",63020,NA,NA,378,"6401 HIDDEN VALLEY RANCH, DESOTO, MO, 63020","Tie",NA,NA,NA,NA
784879,"6401 HIGHPOINT RIDGE RD","CRESTWOOD","KY",40068,NA,NA,379,"6401 HIGHPOINT RIDGE RD, CRESTWOOD, KY, 40068","No_Match",NA,NA,NA,NA
784880,"6401 HILLCREST DRIVE","BURR RIDGE","IL",60527,NA,NA,380,"6401 HILLCREST DRIVE, BURR RIDGE, IL, 60527","No_Match",NA,NA,NA,NA
784881,"6401 INDEPEMDENCE PKWY","PLANO","TX",75023,33.059489952,-96.750572813,381,"6401 INDEPEMDENCE PKWY, PLANO, TX, 75023","Match","Non_Exact","6401 INDEPENDENCE PKWY, PLANO, TX, 75023",624405662,"L"
784882,"6401 KANSAS RD","WALNUT HILL","FL",32568,30.90620061,-87.49699667,382,"6401 KANSAS RD, WALNUT HILL, FL, 32568","Match","Exact","6401 KANSAS RD, WALNUT HILL, FL, 32568",93276019,"R"
784883,"6401 LANCE CT","MOBILE","AL",36618,30.7260048140001,-88.193850315,383,"6401 LANCE CT, MOBILE, AL, 36618","Match","Exact","6401 LANCE CT, MOBILE, AL, 36618",61924827,"L"
784884,"6401 LEXIS ST","AMARILLO","TX",79119,35.142433904,-101.947836387,384,"6401 LEXIS ST, AMARILLO, TX, 79119","Match","Exact","6401 LEXIS ST, AMARILLO, TX, 79119",600389060,"L"
784885,"6401 LINDA VISTA ROAD","SAN DIEGO","CA",92111,32.7716911160001,-117.179996281,385,"6401 LINDA VISTA ROAD, SAN DIEGO, CA, 92111","Match","Exact","6401 LINDA VISTA RD, SAN DIEGO, CA, 92111",195749094,"R"
784886,"6401 LOCH RAVEN BLVD APT 407","BALTIMORE","MD",21239,39.3708605190001,-76.582669579,386,"6401 LOCH RAVEN BLVD APT 407, BALTIMORE, MD, 21239","Match","Exact","6401 LOCH RAVEN BLVD, BALTIMORE, MD, 21239",206447725,"R"
784887,"6401 LOOKINGGLASS LANE","COLUMBIA","MD",21045,39.1969872760001,-76.8356820449999,387,"6401 LOOKINGGLASS LANE, COLUMBIA, MD, 21045","Match","Non_Exact","6401 LOOKINGLASS LN, COLUMBIA, MD, 21045",158925874,"L"
784888,"6401 LOWCOUNTRY HWY","RUFFIN","SC",29475,NA,NA,388,"6401 LOWCOUNTRY HWY, RUFFIN, SC, 29475","No_Match",NA,NA,NA,NA
784889,"6401 LYONS ROAD","COCONUT CREEK","FL",33073,26.2986543160001,-80.186572247,389,"6401 LYONS ROAD, COCONUT CREEK, FL, 33073","Match","Exact","6401 LYONS RD, COCONUT CREEK, FL, 33073",114798550,"R"
784890,"6401 MACARTHUR DR","WATAUGA","TX",76148,32.8589970530001,-97.2435434609999,390,"6401 MACARTHUR DR, WATAUGA, TX, 76148","Match","Exact","6401 MACARTHUR DR, WATAUGA, TX, 76148",101862567,"R"
784891,"6401 MAIN ST","MIAMI LAKES","FL",33014,25.9131551250001,-80.305038715,391,"6401 MAIN ST, MIAMI LAKES, FL, 33014","Match","Exact","6401 MAIN ST, MIAMI LAKES, FL, 33014",116023649,"R"
784892,"6401 MAIN STREET- 44","ZACHARY","LA",70791,30.6500942960001,-91.1366424879999,392,"6401 MAIN STREET- 44, ZACHARY, LA, 70791","Match","Non_Exact","6401 MAIN ST, ZACHARY, LA, 70791",92177233,"L"
784893,"6401 MAPLE AVE APT11304","DALLAS","TX",75235,32.826650515,-96.842803137,393,"6401 MAPLE AVE APT11304, DALLAS, TX, 75235","Match","Exact","6401 MAPLE AVE, DALLAS, TX, 75235",102903703,"L"
784894,"6401 MCCAULEY CIRCLE","EDINA","MN",55439,44.8887531240001,-93.3961832799999,394,"6401 MCCAULEY CIRCLE, EDINA, MN, 55439","Match","Exact","6401 MCCAULEY CIR, EDINA, MN, 55439",43613009,"L"
784895,"6401 N DADEN DR","ALEXANDRIA","IN",46001,40.199407562,-85.664822277,395,"6401 N DADEN DR, ALEXANDRIA, IN, 46001","Match","Exact","6401 DADEN DR, ALEXANDRIA, IN, 46001",31109460,"R"
784896,"6401 N FM 2528","LUBBOCK","TX",79415,33.6593932160001,-101.939938823,396,"6401 N FM 2528, LUBBOCK, TX, 79415","Match","Exact","6401 N FM 2528, LUBBOCK, TX, 79415",185328598,"L"
784897,"6401 NW 58TH TERRACE","PARKLAND","FL",33067,26.3102890210001,-80.203919174,397,"6401 NW 58TH TERRACE, PARKLAND, FL, 33067","Match","Exact","6401 NW 58TH TER, PARKLAND, FL, 33067",114768202,"L"
784898,"6401 NW 74 AVE","MIAMI","FL",33166,25.8318404980001,-80.317867763,398,"6401 NW 74 AVE, MIAMI, FL, 33166","Match","Exact","6401 NW 74TH AVE, MIAMI, FL, 33166",115957345,"R"
784899,"6401 NW 93RD DRIVE","PARKLAND","FL",33067,26.3092615740001,-80.251048877,399,"6401 NW 93RD DRIVE, PARKLAND, FL, 33067","Match","Exact","6401 NW 93RD DR, PARKLAND, FL, 33067",114798730,"R"
784900,"6401 OVERBROOK AVE","PHILADELPHIA","PA",19151,39.985946557,-75.254850022,400,"6401 OVERBROOK AVE, PHILADELPHIA, PA, 19151","Match","Exact","6401 OVERBROOK AVE, PHILADELPHIA, PA, 19151",131396918,"R"
784901,"6401 PARK AVE S","TACOMA","WA",98408,NA,NA,401,"6401 PARK AVE S, TACOMA, WA, 98408","No_Match",NA,NA,NA,NA
784902,"6401 PARKWOOD BLVD","FRISCO","TX",75034,33.129539805,-96.8203161229999,402,"6401 PARKWOOD BLVD, FRISCO, TX, 75034","Match","Non_Exact","6401 PARKWOOD DR, FRISCO, TX, 75034",638558855,"R"
784903,"6401 PENIEL RD","TRYON","NC",28782,35.2515682590001,-82.112883546,403,"6401 PENIEL RD, TRYON, NC, 28782","Match","Exact","6401 PENIEL RD, TRYON, NC, 28782",635936097,"R"
784904,"6401 PERSHING RD APT 202","STICKNEY","IL",60402,41.8214829930001,-87.78272228,404,"6401 PERSHING RD APT 202, STICKNEY, IL, 60402","Match","Exact","6401 PERSHING RD, STICKNEY, IL, 60402",605137385,"L"
784905,"6401 PINE LAKE RD","LINCOLN","NE",68516,40.740821499,-96.633812985,405,"6401 PINE LAKE RD, LINCOLN, NE, 68516","Match","Exact","6401 PINE LAKE RD, LINCOLN, NE, 68516",28278419,"R"
784906,"6401 REBEL DRIVE","LINCOLN","NE",68516,40.7214716930001,-96.633295646,406,"6401 REBEL DRIVE, LINCOLN, NE, 68516","Match","Exact","6401 REBEL DR, LINCOLN, NE, 68516",28274210,"R"
784907,"6401 RIALTO BLVD 815","AUSTIN","TX",78735,30.25080538,-97.858936881,407,"6401 RIALTO BLVD 815, AUSTIN, TX, 78735","Match","Exact","6401 RIALTO BLVD, AUSTIN, TX, 78735",650109622,"L"
784908,"6401 RIALTO BLVD APT 117","AUSTIN","TX",78735,30.25080538,-97.858936881,408,"6401 RIALTO BLVD APT 117, AUSTIN, TX, 78735","Match","Exact","6401 RIALTO BLVD, AUSTIN, TX, 78735",650109622,"L"
784909,"6401 RIALTO BLVD APT 1412","AUSTIN","TX",78735,30.25080538,-97.858936881,409,"6401 RIALTO BLVD APT 1412, AUSTIN, TX, 78735","Match","Exact","6401 RIALTO BLVD, AUSTIN, TX, 78735",650109622,"L"
784910,"6401 RIALTO BLVD","AUSTIN","TX",78735,30.25080538,-97.858936881,410,"6401 RIALTO BLVD, AUSTIN, TX, 78735","Match","Exact","6401 RIALTO BLVD, AUSTIN, TX, 78735",650109622,"L"
784911,"6401 RICHARDS AVENUE","SANTA FE","NM",87508,35.6028382220001,-106.002089715,411,"6401 RICHARDS AVENUE, SANTA FE, NM, 87508","Match","Non_Exact","6401 S RICHARDS AVE, SANTA FE, NM, 87508",645884475,"R"
784912,"6401 RICHARDSON FARM LN","CLARKSVILLE","MD",21029,NA,NA,412,"6401 RICHARDSON FARM LN, CLARKSVILLE, MD, 21029","No_Match",NA,NA,NA,NA
784913,"6401 RIVERS AVE UNIT 60071","N CHARLESTON","SC",29419,NA,NA,413,"6401 RIVERS AVE UNIT 60071, N CHARLESTON, SC, 29419","No_Match",NA,NA,NA,NA
784914,"6401 ROBINSROCK LANE","INDIANAPOLIS","IN",46268,39.871993731,-86.2498246759999,414,"6401 ROBINSROCK LANE, INDIANAPOLIS, IN, 46268","Match","Exact","6401 ROBINSROCK LN, INDIANAPOLIS, IN, 46268",108025473,"L"
784915,"6401 RUTH ANN DRIVE","HALLSVILLE","MO",65255,39.128207853,-92.235052421,415,"6401 RUTH ANN DRIVE, HALLSVILLE, MO, 65255","Match","Exact","6401 RUTH ANN DR, HALLSVILLE, MO, 65255",614547835,"R"
784916,"6401 S 16TH STREET STE 15","PHOENIX","AZ",85041,NA,NA,416,"6401 S 16TH STREET STE 15, PHOENIX, AZ, 85041","No_Match",NA,NA,NA,NA
784917,"6401 S 16TH STREET","PHOENIX","AZ",85041,33.3891545390001,-112.047321182,417,"6401 S 16TH STREET, PHOENIX, AZ, 85041","Match","Non_Exact","6401 S 16TH ST, PHOENIX, AZ, 85042",128919725,"L"
784918,"6401 S 37TH ST","PHOENIX","AZ",85042,33.3882303510001,-112.00262525,418,"6401 S 37TH ST, PHOENIX, AZ, 85042","Match","Exact","6401 S 37TH ST, PHOENIX, AZ, 85042",128224529,"L"
784919,"6401 S 41ST STREET","ROGERS","AR",72758,36.2692912860001,-94.1751737819999,419,"6401 S 41ST STREET, ROGERS, AR, 72758","Match","Exact","6401 41ST ST, ROGERS, AR, 72758",601667591,"L"
784920,"6401 S 4485 RD","ROSE","OK",74364,NA,NA,420,"6401 S 4485 RD, ROSE, OK, 74364","No_Match",NA,NA,NA,NA
784921,"6401 S GREENWOOD AVE APT 1N","CHICAGO","IL",60637,41.77729222,-87.599290031,421,"6401 S GREENWOOD AVE APT 1N, CHICAGO, IL, 60637","Match","Non_Exact","6401 S GREENWOOD AVE, CHICAGO, IL, 60637",111774165,"L"
784922,"6401 S KEARNEY CIRCLE","CENTENNIAL","CO",80111,39.59921912,-104.916515979,422,"6401 S KEARNEY CIRCLE, CENTENNIAL, CO, 80111","Match","Exact","6401 S KEARNEY CIR, CENTENNIAL, CO, 80111",177345813,"R"
784923,"6401 SANTA MONICA 1102","ALBURQUERQUE","NM",87109,NA,NA,423,"6401 SANTA MONICA 1102, ALBURQUERQUE, NM, 87109","No_Match",NA,NA,NA,NA
784924,"6401 SANTA MONICA AVE NE 3082","ALBUQUERQUE","NM",87109,35.1613166160001,-106.576409658,424,"6401 SANTA MONICA AVE NE 3082, ALBUQUERQUE, NM, 87109","Match","Exact","6401 SANTA MONICA AVE NE, ALBUQUERQUE, NM, 87109",635338927,"L"
784925,"6401 SHADYVIEW LN","MAPLE GROVE","MN",55311,45.0711442670001,-93.513386849,425,"6401 SHADYVIEW LN, MAPLE GROVE, MN, 55311","Match","Non_Exact","6401 SHADYVIEW LN N, MAPLE GROVE, MN, 55311",619802532,"L"
784926,"6401 SHELBOURNE STREET - APT A","PHILADELPHIA","PA",19111,40.051105147,-75.09813561,426,"6401 SHELBOURNE STREET - APT A, PHILADELPHIA, PA, 19111","Match","Exact","6401 SHELBOURNE ST, PHILADELPHIA, PA, 19111",131414794,"R"
784927,"6401 SHELLMOUND ST 6225","EMERYVILLE","CA",94608,37.8441896090001,-122.293811422,427,"6401 SHELLMOUND ST 6225, EMERYVILLE, CA, 94608","Match","Exact","6401 SHELLMOUND ST, EMERYVILLE, CA, 94608",125063849,"L"
784928,"6401 SHELLMOUND ST APT 6116","EMERYVILLE","CA",94608,37.8441896090001,-122.293811422,428,"6401 SHELLMOUND ST APT 6116, EMERYVILLE, CA, 94608","Match","Exact","6401 SHELLMOUND ST, EMERYVILLE, CA, 94608",125063849,"L"
784929,"6401 SHELLMOUND STREET NUMBER 6311","EMERSVILLE","CA",94608,37.8441896090001,-122.293811422,429,"6401 SHELLMOUND STREET NUMBER 6311, EMERSVILLE, CA, 94608","Match","Non_Exact","6401 SHELLMOUND ST, EMERYVILLE, CA, 94608",125063849,"L"
784930,"6401 SILVER RIDGE CIR","ALEXANDRIA","VA",22315,38.76211683,-77.162949421,430,"6401 SILVER RIDGE CIR, ALEXANDRIA, VA, 22315","Match","Exact","6401 SILVER RIDGE CIR, ALEXANDRIA, VA, 22315",635445470,"L"
784931,"6401 SNIDER CREST ROAD","MASON","OH",45040,39.3017425240001,-84.339578703,431,"6401 SNIDER CREST ROAD, MASON, OH, 45040","Match","Non_Exact","6401 SNIDERCREST RD, MASON, OH, 45040",159044064,"L"
784932,"6401 SORENSEN PARKWAY","OMAHA","NE",68152,41.3176089890001,-96.009898493,432,"6401 SORENSEN PARKWAY, OMAHA, NE, 68152","Match","Exact","6401 SORENSEN PKWY, OMAHA, NE, 68152",117026531,"L"
784933,"6401 SOUTH GARFIELD AVENUE","WILLOWBROOK","IL",60527,41.772715884,-87.9260480679999,433,"6401 SOUTH GARFIELD AVENUE, WILLOWBROOK, IL, 60527","Match","Exact","6401 S GARFIELD AVE, WILLOWBROOK, IL, 60527",112552643,"L"
784934,"6401 SOUTH WESTSHORE BLVD 1202","TAMPA","FL",33616,27.873133164,-82.526945408,434,"6401 SOUTH WESTSHORE BLVD 1202, TAMPA, FL, 33616","Match","Non_Exact","6401 S WEST SHORE BLVD, TAMPA, FL, 33616",104528251,"R"
784935,"6401 SPICEWOOD ST","WILMINGTON","NC",28405,34.2621475510001,-77.8478609269999,435,"6401 SPICEWOOD ST, WILMINGTON, NC, 28405","Match","Exact","6401 SPICEWOOD ST, WILMINGTON, NC, 28405",152755550,"R"
784936,"6401 SPID SUIT 108","CORPUS CHRISTI","TX",78412,NA,NA,436,"6401 SPID SUIT 108, CORPUS CHRISTI, TX, 78412","No_Match",NA,NA,NA,NA
784937,"6401 SPID SUITE 108","CORPUS CHRISTI","TX",78412,NA,NA,437,"6401 SPID SUITE 108, CORPUS CHRISTI, TX, 78412","No_Match",NA,NA,NA,NA
784938,"6401 SPID SUITE 8","CORPUS CHRISTI","TX",78412,NA,NA,438,"6401 SPID SUITE 8, CORPUS CHRISTI, TX, 78412","No_Match",NA,NA,NA,NA
784939,"6401 ST JOHNS AVE","PALATKA","FL",32177,29.6481611790001,-81.6900958109999,439,"6401 ST JOHNS AVE, PALATKA, FL, 32177","Match","Exact","6401 ST JOHNS AVE, PALATKA, FL, 32177",613342817,"R"
784940,"6401 STONEHAVEN COURT","CLIFTON","VA",20124,38.81828324,-77.4249725339999,440,"6401 STONEHAVEN COURT, CLIFTON, VA, 20124","Match","Exact","6401 STONEHAVEN CT, CLIFTON, VA, 20124",649768584,"R"
784941,"6401 SUMMERS NOOK DR","NEW ALBANY","OH",43054,40.0695299320001,-82.846417348,441,"6401 SUMMERS NOOK DR, NEW ALBANY, OH, 43054","Match","Exact","6401 SUMMERS NOOK DR, NEW ALBANY, OH, 43054",218576747,"R"
784942,"6401 SUNDANCE LANE","EVERSON","WA",98247,48.8739190580001,-122.41141504,442,"6401 SUNDANCE LANE, EVERSON, WA, 98247","Match","Exact","6401 SUNDANCE LN, EVERSON, WA, 98247",183777263,"R"
784943,"6401 SYMPOSIUM WAY","CLINTON","MD",20735,38.7478869020001,-76.8967875609999,443,"6401 SYMPOSIUM WAY, CLINTON, MD, 20735","Match","Exact","6401 SYMPOSIUM WAY, CLINTON, MD, 20735",76343058,"R"
784944,"6401 TAFT ST","MERRILLVILLE","IN",46410,41.5020980360001,-87.365093838,444,"6401 TAFT ST, MERRILLVILLE, IN, 46410","Match","Exact","6401 TAFT ST, MERRILLVILLE, IN, 46410",98431257,"L"
784945,"6401 VERITAS WAY STE 1B","N CHESTERFIELD","VA",23234,37.4202730210001,-77.505597904,445,"6401 VERITAS WAY STE 1B, N CHESTERFIELD, VA, 23234","Match","Exact","6401 VERITAS WAY, NORTH CHESTERFIELD, VA, 23234",641682384,"L"
784946,"6401 VIA GALARDO LANE","RALEIGH","NC",27614,35.961746229,-78.655097949,446,"6401 VIA GALARDO LANE, RALEIGH, NC, 27614","Match","Exact","6401 VIA GALARDO LN, RALEIGH, NC, 27614",72622955,"L"
784947,"6401 VISTA CREEK LANE","ROCKVILLE","MD",20852,39.052576048,-77.1334052719999,447,"6401 VISTA CREEK LANE, ROCKVILLE, MD, 20852","Match","Exact","6401 VISTA CREEK LN, ROCKVILLE, MD, 20852",62101391,"R"
784948,"6401 W 50 1/2 RD","CADILLAC","MI",49601,44.1718053120001,-85.709847162,448,"6401 W 50 1/2 RD, CADILLAC, MI, 49601","Match","Exact","6401 W 50 1/2 RD, CADILLAC, MI, 49601",146099709,"L"
784949,"6401 W 5TH AVE","KENNEWICK","WA",99336,46.2044072410001,-119.207743217,449,"6401 W 5TH AVE, KENNEWICK, WA, 99336","Match","Exact","6401 W 5TH AVE, KENNEWICK, WA, 99336",606994664,"L"
784950,"6401 W ELDORADO PLACE","DENVER","CO",80227,NA,NA,450,"6401 W ELDORADO PLACE, DENVER, CO, 80227","Tie",NA,NA,NA,NA
784951,"6401 WARNER AVE UNIT 514","HUNTINGTON BEACH","CA",92647,33.715577798,-118.016342394,451,"6401 WARNER AVE UNIT 514, HUNTINGTON BEACH, CA, 92647","Match","Exact","6401 WARNER AVE, HUNTINGTON BEACH, CA, 92647",630412402,"L"
784952,"6401 WARNER AVE","HUNTINGTON BEACH","CA",92647,33.715577798,-118.016342394,452,"6401 WARNER AVE, HUNTINGTON BEACH, CA, 92647","Match","Exact","6401 WARNER AVE, HUNTINGTON BEACH, CA, 92647",630412402,"L"
784953,"6401 WIDGEON DR","PLANO","TX",75024,33.060549877,-96.8347550939999,453,"6401 WIDGEON DR, PLANO, TX, 75024","Match","Exact","6401 WIDGEON DR, PLANO, TX, 75024",123531548,"L"
784954,"6401 YORK ROAD - 3RD FLOOR","BALTIMORE","MD",21212,39.373442991,-76.609724022,454,"6401 YORK ROAD - 3RD FLOOR, BALTIMORE, MD, 21212","Match","Exact","6401 YORK RD, BALTIMORE, MD, 21212",647311827,"R"
784955,"6401 ZIONSVILLE ROAD","INDIANAPOLIS","IN",46268,39.8719210150001,-86.259875834,455,"6401 ZIONSVILLE ROAD, INDIANAPOLIS, IN, 46268","Match","Exact","6401 ZIONSVILLE RD, INDIANAPOLIS, IN, 46268",108025445,"R"
784956,"6401","NEWBERRY","MI",49868,NA,NA,456,"6401, NEWBERRY, MI, 49868","No_Match",NA,NA,NA,NA
784957,"6402 140TH AVE NE","REDMOND","WA",98052,47.6638325930001,-122.153346663,457,"6402 140TH AVE NE, REDMOND, WA, 98052","Match","Exact","6402 140TH AVE NE, REDMOND, WA, 98052",648634966,"R"
784958,"6402 199TH LOOP","ROCHESTER","WA",98579,NA,NA,458,"6402 199TH LOOP, ROCHESTER, WA, 98579","No_Match",NA,NA,NA,NA
784959,"6402 93RD STREET","LANHAM","MD",20706,NA,NA,459,"6402 93RD STREET, LANHAM, MD, 20706","No_Match",NA,NA,NA,NA
784960,"6402 AMINDA ST","SHAWNEE","KS",66226,39.0130798280001,-94.8464719789999,460,"6402 AMINDA ST, SHAWNEE, KS, 66226","Match","Exact","6402 AMINDA ST, SHAWNEE, KS, 66226",91308463,"R"
784961,"6402 ARLINGTON BLVD STE 300","FALLS CHURCH","VA",22042,38.8716442620001,-77.164351333,461,"6402 ARLINGTON BLVD STE 300, FALLS CHURCH, VA, 22042","Match","Exact","6402 ARLINGTON BLVD, FALLS CHURCH, VA, 22042",639869563,"L"
784962,"6402 BETTY COOK DR","AUSTIN","TX",78723,30.3101044680001,-97.675165584,462,"6402 BETTY COOK DR, AUSTIN, TX, 78723","Match","Exact","6402 BETTY COOK DR, AUSTIN, TX, 78723",63935121,"L"
784963,"6402 BY WAY LANE","LOUISVILLE","KY",40218,38.196117514,-85.638279742,463,"6402 BY WAY LANE, LOUISVILLE, KY, 40218","Match","Exact","6402 BY WAY LN, LOUISVILLE, KY, 40218",96880504,"L"
784964,"6402 CAMINITO LISTO","SAN DIEGO","CA",92111,NA,NA,464,"6402 CAMINITO LISTO, SAN DIEGO, CA, 92111","No_Match",NA,NA,NA,NA
784965,"6402 CANTERBURY CT","SAN JOSE","CA",95129,37.30197846,-122.01734196,465,"6402 CANTERBURY CT, SAN JOSE, CA, 95129","Match","Exact","6402 CANTERBURY CT, SAN JOSE, CA, 95129",122940852,"L"
784966,"6402 CANYON PARK DRIVE","KATY","TX",77450,29.709464946,-95.741976053,466,"6402 CANYON PARK DRIVE, KATY, TX, 77450","Match","Exact","6402 CANYON PARK DR, KATY, TX, 77450",78327692,"R"
784967,"6402 COUNTY HOME ROAD","WINTERVILLE","NC",28590,35.4889569850001,-77.3532983279999,467,"6402 COUNTY HOME ROAD, WINTERVILLE, NC, 28590","Match","Exact","6402 COUNTY HOME RD, WINTERVILLE, NC, 28590",80002651,"L"
784968,"6402 CRYSTAL BROOK DRIVE","TAMPA","FL",33625,28.056520086,-82.5505466559999,468,"6402 CRYSTAL BROOK DRIVE, TAMPA, FL, 33625","Match","Exact","6402 CRYSTAL BROOK DR, TAMPA, FL, 33625",104507839,"R"
784969,"6402 CTY HWY E","WARRENS","WI",54666,NA,NA,469,"6402 CTY HWY E, WARRENS, WI, 54666","No_Match",NA,NA,NA,NA
784970,"6402 DIANNE ST","SHREVEPORT","LA",71119,32.481692976,-93.863729174,470,"6402 DIANNE ST, SHREVEPORT, LA, 71119","Match","Exact","6402 DIANNE ST, SHREVEPORT, LA, 71119",636242337,"R"
784971,"6402 E ABERDEEN ST","WICHITA","KS",67206,37.7131205700001,-97.262102332,471,"6402 E ABERDEEN ST, WICHITA, KS, 67206","Match","Exact","6402 ABERDEEN ST, WICHITA, KS, 67206",115639406,"L"
784972,"6402 E BRIAN KENT","TUCSON","AZ",85710,32.230728019,-110.855700328,472,"6402 E BRIAN KENT, TUCSON, AZ, 85710","Match","Non_Exact","6402 E BRIAN KENT ST, TUCSON, AZ, 85710",121180736,"R"
784973,"6402 E COSTILLA PLACE","CENTENNIAL","CO",80112,39.5921250920001,-104.914796429,473,"6402 E COSTILLA PLACE, CENTENNIAL, CO, 80112","Match","Exact","6402 E COSTILLA PL, CENTENNIAL, CO, 80112",177345894,"R"
784974,"6402 ETHAN ALLEN HIGHWAY","CHARLOTTE","VT",5445,44.2658890170001,-73.232332204,474,"6402 ETHAN ALLEN HIGHWAY, CHARLOTTE, VT, 5445","Match","Exact","6402 ETHAN ALLEN HWY, CHARLOTTE, VT, 05445",636673834,"L"
784975,"6402 EVENING ROSE LN","KATY","TX",77449,29.8654712590001,-95.692722826,475,"6402 EVENING ROSE LN, KATY, TX, 77449","Match","Exact","6402 EVENING ROSE LN, KATY, TX, 77449",624621121,"L"
784976,"6402 FERN VALLEY ROAD","LOUISVILLE","KY",40219,NA,NA,476,"6402 FERN VALLEY ROAD, LOUISVILLE, KY, 40219","Tie",NA,NA,NA,NA
784977,"6402 FORESTSHIRE DR","DALLAS","TX",75230,32.908817045,-96.795048924,477,"6402 FORESTSHIRE DR, DALLAS, TX, 75230","Match","Exact","6402 FORESTSHIRE DR, DALLAS, TX, 75230",102901393,"L"
784978,"6402 GRANT CT SOUTH WEST","CEDAR RAPIDS","IA",52404,41.9153761200001,-91.625695589,478,"6402 GRANT CT SOUTH WEST, CEDAR RAPIDS, IA, 52404","Match","Non_Exact","6402 GRANT CT SW, CEDAR RAPIDS, IA, 52404",17059399,"R"
784979,"6402 HEATHERBROOK","HOUSTON","TX",77085,29.621278911,-95.4797958569999,479,"6402 HEATHERBROOK, HOUSTON, TX, 77085","Match","Non_Exact","6402 HEATHERBROOK DR, HOUSTON, TX, 77085",96040494,"R"
784980,"6402 HIGHWAY 67","SAINT LOUIS","MO",63052,NA,NA,480,"6402 HIGHWAY 67, SAINT LOUIS, MO, 63052","No_Match",NA,NA,NA,NA
784981,"6402 JOHNSON CHAPEL RD","BRENTWOOD","TN",37027,36.0301048630001,-86.844593889,481,"6402 JOHNSON CHAPEL RD, BRENTWOOD, TN, 37027","Match","Non_Exact","6402 JOHNSON CHAPEL RD W, BRENTWOOD, TN, 37027",645063716,"L"
784982,"6402 LOTUS ST","EASTVALE","CA",92880,33.970457794,-117.56934207,482,"6402 LOTUS ST, EASTVALE, CA, 92880","Match","Exact","6402 LOTUS ST, EASTVALE, CA, 92880",629832402,"L"
784983,"6402 MARSH AVENUE","HUNTSVILLE","AL",35806,34.714214552,-86.664650143,483,"6402 MARSH AVENUE, HUNTSVILLE, AL, 35806","Match","Non_Exact","6402 MARSH AVE NW, HUNTSVILLE, AL, 35806",58113122,"R"
784984,"6402 MARYVIEW STREET","ALEXANDRIA","VA",22310,38.779312256,-77.110186589,484,"6402 MARYVIEW STREET, ALEXANDRIA, VA, 22310","Match","Exact","6402 MARYVIEW ST, ALEXANDRIA, VA, 22310",75985828,"L"
784985,"6402 MCNEIL DRIVE 17","AUSTIN","TX",78729,30.4404544080001,-97.751548757,485,"6402 MCNEIL DRIVE 17, AUSTIN, TX, 78729","Match","Non_Exact","6402 MC NEIL DR, AUSTIN, TX, 78729",63926062,"R"
784986,"6402 MELODY HILL DRIVE","MIDLOTHIAN","TX",76065,32.493446695,-96.9124963689999,486,"6402 MELODY HILL DRIVE, MIDLOTHIAN, TX, 76065","Match","Exact","6402 MELODY HILL DR, MIDLOTHIAN, TX, 76065",600637227,"R"
784987,"6402 MERCER STREET","HOUSTON","TX",77005,29.712561312,-95.432147549,487,"6402 MERCER STREET, HOUSTON, TX, 77005","Match","Exact","6402 MERCER ST, HOUSTON, TX, 77005",96063417,"R"
784988,"6402 MILWAUKEE ST UNIT 105","MADISON","WI",53718,43.0994260050001,-89.270142957,488,"6402 MILWAUKEE ST UNIT 105, MADISON, WI, 53718","Match","Exact","6402 MILWAUKEE ST, MADISON, WI, 53718",641225624,"L"
784989,"6402 MILWAUKEE ST UNIT 304","MADISON","WI",53718,43.0994260050001,-89.270142957,489,"6402 MILWAUKEE ST UNIT 304, MADISON, WI, 53718","Match","Exact","6402 MILWAUKEE ST, MADISON, WI, 53718",641225624,"L"
784990,"6402 NE GOING ST","PORTLAND","OR",97218,45.55680332,-122.597196571,490,"6402 NE GOING ST, PORTLAND, OR, 97218","Match","Exact","6402 NE GOING ST, PORTLAND, OR, 97218",157580750,"R"
784991,"6402 NORTH WAYSIDE","HOUSTON","TX",77028,29.820847686,-95.2842853499999,491,"6402 NORTH WAYSIDE, HOUSTON, TX, 77028","Match","Non_Exact","6402 N WAYSIDE DR, HOUSTON, TX, 77028",640624315,"R"
784992,"6402 OAKLEA DRIVE","CRESTWOOD","KY",40014,38.3306308640001,-85.417839778,492,"6402 OAKLEA DRIVE, CRESTWOOD, KY, 40014","Match","Exact","6402 OAKLEA DR, CRESTWOOD, KY, 40014",130927136,"R"
784993,"6402 PLATT AVE","West Hills","CA",91307,34.1867935970001,-118.642754864,493,"6402 PLATT AVE, West Hills, CA, 91307","Match","Exact","6402 PLATT AVE, WEST HILLS, CA, 91307",142786997,"R"
784994,"6402 PLATT AVE","WEST HILLS","CA",91307,34.1867935970001,-118.642754864,494,"6402 PLATT AVE, WEST HILLS, CA, 91307","Match","Exact","6402 PLATT AVE, WEST HILLS, CA, 91307",142786997,"R"
784995,"6402 PRUTHMORE COURT","LISLE","IL",60532,41.770571955,-88.0955847979999,495,"6402 PRUTHMORE COURT, LISLE, IL, 60532","Match","Exact","6402 PRUTHMORE CT, LISLE, IL, 60532",112537875,"L"
784996,"6402 RAILROAD AVE","CRESTWOOD","KY",40014,NA,NA,496,"6402 RAILROAD AVE, CRESTWOOD, KY, 40014","No_Match",NA,NA,NA,NA
784997,"6402 RENWICK CIRCLE","TAMPA","FL",33647,28.0933600540001,-82.378878388,497,"6402 RENWICK CIRCLE, TAMPA, FL, 33647","Match","Exact","6402 RENWICK CIR, TAMPA, FL, 33647",636366833,"L"
784998,"6402 RUFE SNOW","NORTH RICHLAND HILLS","TX",76244,NA,NA,498,"6402 RUFE SNOW, NORTH RICHLAND HILLS, TX, 76244","No_Match",NA,NA,NA,NA
784999,"6402 S GREENWOOD AVE","CHICAGO","IL",60637,41.777283777,-87.599304734,499,"6402 S GREENWOOD AVE, CHICAGO, IL, 60637","Match","Exact","6402 S GREENWOOD AVE, CHICAGO, IL, 60637",111774165,"R"
785000,"6402 S PITTSBURG AVE","TULSA","OK",74136,36.070057198,-95.930503342,500,"6402 S PITTSBURG AVE, TULSA, OK, 74136","Match","Exact","6402 S PITTSBURG AVE, TULSA, OK, 74136",166451785,"R"
