"ID","Address","City","State","Zip","lat","long","id","input_address","match_indicator","match_type","matched_address","tiger_line_id","tiger_side"
228501,"1614 EAST EAGER STREET","BALTIMORE","MD",21205,39.301841424,-76.596082941,1,"1614 EAST EAGER STREET, BALTIMORE, MD, 21205","Match","Exact","1614 E EAGER ST, BALTIMORE, MD, 21205",206423693,"L"
228502,"1614 EAST PARKVIEW DRIVE","MARION","IN",46952,40.581956416,-85.667610983,2,"1614 EAST PARKVIEW DRIVE, MARION, IN, 46952","Match","Exact","1614 E PARKVIEW DR, MARION, IN, 46952",95018261,"R"
228503,"1614 EAST SHORE DRIVE","CULVER","IN",46511,41.2053069830001,-86.388318864,3,"1614 EAST SHORE DRIVE, CULVER, IN, 46511","Match","Exact","1614 E SHORE DR, CULVER, IN, 46511",7644898,"L"
228504,"1614 EDDY COURT","REDLANDS","CA",92374,34.077771242,-117.171089568,4,"1614 EDDY COURT, REDLANDS, CA, 92374","Match","Exact","1614 EDDY CT, REDLANDS, CA, 92374",144664555,"L"
228505,"1614 EVERGLADE","ODESSA","TX",79762,NA,NA,5,"1614 EVERGLADE, ODESSA, TX, 79762","No_Match",NA,NA,NA,NA
228506,"1614 FAIRFIELD COURT","HARLINGEN","TX",78550,26.2167794040001,-97.680301416,6,"1614 FAIRFIELD COURT, HARLINGEN, TX, 78550","Match","Exact","1614 FAIRFIELD CT, HARLINGEN, TX, 78550",89993824,"R"
228507,"1614 FARINA LOOP SE","OLYMPIA","WA",98513,47.0350354830001,-122.759173756,7,"1614 FARINA LOOP SE, OLYMPIA, WA, 98513","Match","Exact","1614 FARINA LOOP SE, OLYMPIA, WA, 98513",624797224,"L"
228508,"1614 FITZGERALD COURT","LAGRANGE","KY",40031,38.4165509530001,-85.373407113,8,"1614 FITZGERALD COURT, LAGRANGE, KY, 40031","Match","Exact","1614 FITZGERALD CT, LAGRANGE, KY, 40031",130937304,"L"
228509,"1614 FORDEM AVE APT 16","MADISON","WI",53704,43.0937821480001,-89.363634672,9,"1614 FORDEM AVE APT 16, MADISON, WI, 53704","Match","Exact","1614 FORDEM AVE, MADISON, WI, 53704",49531155,"L"
228510,"1614 FOREST AVE","CALUMET CITY","IL",60409,NA,NA,10,"1614 FOREST AVE, CALUMET CITY, IL, 60409","No_Match",NA,NA,NA,NA
228511,"1614 FOREST HILL DR","LOUISVILLE","KY",40205,38.2130547190001,-85.696952535,11,"1614 FOREST HILL DR, LOUISVILLE, KY, 40205","Match","Exact","1614 FOREST HILL DR, LOUISVILLE, KY, 40205",96853064,"R"
228512,"1614 FOUNTAIN DRIVE","ANNISTON","AL",36207,33.630826644,-85.803218876,12,"1614 FOUNTAIN DRIVE, ANNISTON, AL, 36207","Match","Exact","1614 FOUNTAIN DR, ANNISTON, AL, 36207",624548924,"R"
228513,"1614 GEORGETOWN WAY","SALINAS","CA",93906,36.700731627,-121.615419667,13,"1614 GEORGETOWN WAY, SALINAS, CA, 93906","Match","Exact","1614 GEORGETOWN WAY, SALINAS, CA, 93906",196840852,"L"
228514,"1614 GILBERT ROAD","WILLIAMSTOWN","VT",5679,44.104752739,-72.525933647,14,"1614 GILBERT ROAD, WILLIAMSTOWN, VT, 5679","Match","Exact","1614 GILBERT RD, WILLIAMSTOWN, VT, 05679",181150175,"L"
228515,"1614 GILMORE STREET","FAYETTEVILLE","NC",28301,35.080099999,-78.8769592789999,15,"1614 GILMORE STREET, FAYETTEVILLE, NC, 28301","Match","Exact","1614 GILMORE ST, FAYETTEVILLE, NC, 28301",64201078,"R"
228516,"1614 GRAND AVE","JOPLIN","MO",64801,37.0737476410001,-94.5095549229999,16,"1614 GRAND AVE, JOPLIN, MO, 64801","Match","Non_Exact","1614 GRAND AVE, JOPLIN, MO, 64804",66148731,"R"
228517,"1614 GREENLEAF LANE","CHARLOTTESVILLE","VA",22903,38.050553785,-78.48554179,17,"1614 GREENLEAF LANE, CHARLOTTESVILLE, VA, 22903","Match","Exact","1614 GREENLEAF LN, CHARLOTTESVILLE, VA, 22903",83370062,"R"
228518,"1614 GREENWOOD PLACE","ESCONDIDO","CA",92029,33.0984599350001,-117.101585784,18,"1614 GREENWOOD PLACE, ESCONDIDO, CA, 92029","Match","Exact","1614 GREENWOOD PL, ESCONDIDO, CA, 92029",195763932,"R"
228519,"1614 GROSBEAK AVE","SUNNYVALE","CA",94087,37.3407039950001,-122.019210112,19,"1614 GROSBEAK AVE, SUNNYVALE, CA, 94087","Match","Exact","1614 GROSBEAK AVE, SUNNYVALE, CA, 94087",122939214,"L"
228520,"1614 HADDINGTON POINT DRIVE","KERNERSVILLE","NC",27284,36.0733565950001,-80.082965488,20,"1614 HADDINGTON POINT DRIVE, KERNERSVILLE, NC, 27284","Match","Exact","1614 HADDINGTON POINT DR, KERNERSVILLE, NC, 27284",627502508,"R"
228521,"1614 HALLIANA COURT","BAKERSFIELD","CA",93311,35.3406396720001,-119.136060886,21,"1614 HALLIANA COURT, BAKERSFIELD, CA, 93311","Match","Exact","1614 HALLIANA CT, BAKERSFIELD, CA, 93311",109530720,"L"
228522,"1614 HAMPTON LANE","PALM HARBOR","FL",34695,28.009017402,-82.701921553,22,"1614 HAMPTON LANE, PALM HARBOR, FL, 34695","Match","Non_Exact","1614 HAMPTON LN, SAFETY HARBOR, FL, 34695",124682429,"L"
228523,"1614 HOLIDAY PLACE","BOSSIER CITY","LA",71112,32.490559293,-93.672401445,23,"1614 HOLIDAY PLACE, BOSSIER CITY, LA, 71112","Match","Exact","1614 HOLIDAY PL, BOSSIER CITY, LA, 71112",108531440,"R"
228524,"1614 HOMESTEAD DUQUESNE ROAD","WEST MIFFLIN","PA",15122,40.3683445940001,-79.8602346819999,24,"1614 HOMESTEAD DUQUESNE ROAD, WEST MIFFLIN, PA, 15122","Match","Exact","1614 HOMESTEAD DUQUESNE RD, WEST MIFFLIN, PA, 15122",51671823,"R"
228525,"1614 HWY 133 N","CROSSETT","AR",71635,NA,NA,25,"1614 HWY 133 N, CROSSETT, AR, 71635","No_Match",NA,NA,NA,NA
228526,"1614 IDLEWILD BOULEVARD","FREDERICKSBURG","VA",22401,38.28676176,-77.4979562409999,26,"1614 IDLEWILD BOULEVARD, FREDERICKSBURG, VA, 22401","Match","Exact","1614 IDLEWILD BLVD, FREDERICKSBURG, VA, 22401",616371636,"R"
228527,"1614 INDIANA AVENUE","NEW CASTLE","IN",47362,39.928835319,-85.364930601,27,"1614 INDIANA AVENUE, NEW CASTLE, IN, 47362","Match","Exact","1614 INDIANA AVE, NEW CASTLE, IN, 47362",29991442,"R"
228528,"1614 INGRID LANE","CHICAGO HEIGHTS","IL",60411,41.501153759,-87.668437663,28,"1614 INGRID LANE, CHICAGO HEIGHTS, IL, 60411","Match","Exact","1614 INGRID LN, CHICAGO HEIGHTS, IL, 60411",111711027,"R"
228529,"1614 JEFFERSON AVENUE","KNOXVILLE","TN",37917,35.983216493,-83.910822034,29,"1614 JEFFERSON AVENUE, KNOXVILLE, TN, 37917","Match","Exact","1614 JEFFERSON AVE, KNOXVILLE, TN, 37917",42622139,"R"
228530,"1614 JENNY LIND STREET","MCKEESPORT","PA",15132,40.340518521,-79.856706671,30,"1614 JENNY LIND STREET, MCKEESPORT, PA, 15132","Match","Exact","1614 JENNY LIND ST, MCKEESPORT, PA, 15132",51677815,"R"
228531,"1614 JUNEWAY","CHICAGO","IL",60626,NA,NA,31,"1614 JUNEWAY, CHICAGO, IL, 60626","No_Match",NA,NA,NA,NA
228532,"1614 KENNETH AVENUE","BALDWIN","NY",11510,40.6692239320001,-73.6176017079999,32,"1614 KENNETH AVENUE, BALDWIN, NY, 11510","Match","Exact","1614 KENNETH AVE, BALDWIN, NY, 11510",147629575,"R"
228533,"1614 LAKE ARIANA BLVD","AUBURNDALE","FL",33823,NA,NA,33,"1614 LAKE ARIANA BLVD, AUBURNDALE, FL, 33823","No_Match",NA,NA,NA,NA
228534,"1614 LAKE RD","TROUT RUN","PA",17771,41.3970793780001,-76.996277461,34,"1614 LAKE RD, TROUT RUN, PA, 17771","Match","Exact","1614 LAKE RD, TROUT RUN, PA, 17771",629865430,"R"
228535,"1614 LAKEVIEW DR NW","CULLMAN","AL",35055,34.18774288,-86.862481647,35,"1614 LAKEVIEW DR NW, CULLMAN, AL, 35055","Match","Exact","1614 LAKEVIEW DR NW, CULLMAN, AL, 35055",642899212,"R"
228536,"1614 LAMPLIGHTER WAY","ORLANDO","FL",32818,28.564824104,-81.492990245,36,"1614 LAMPLIGHTER WAY, ORLANDO, FL, 32818","Match","Exact","1614 LAMPLIGHTER WAY, ORLANDO, FL, 32818",94271038,"L"
228537,"1614 LESSARD CIRCLE","JACKSONVILLE","FL",32209,30.3900421110001,-81.684338756,37,"1614 LESSARD CIRCLE, JACKSONVILLE, FL, 32209","Match","Non_Exact","1614 LESSARD CIR, JACKSONVILLE, FL, 32208",83892484,"L"
228538,"1614 LINCOLN AVE","PANAMA CITY","FL",32405,30.177551051,-85.691041673,38,"1614 LINCOLN AVE, PANAMA CITY, FL, 32405","Match","Exact","1614 LINCOLN AVE, PANAMA CITY, FL, 32405",7028425,"R"
228539,"1614 LINCOLN AVENUE","PANAMA CITY","FL",32405,30.177551051,-85.691041673,39,"1614 LINCOLN AVENUE, PANAMA CITY, FL, 32405","Match","Exact","1614 LINCOLN AVE, PANAMA CITY, FL, 32405",7028425,"R"
228540,"1614 LONE OAK AVE","SAN ANTONIO","TX",78220,29.407994844,-98.429382156,40,"1614 LONE OAK AVE, SAN ANTONIO, TX, 78220","Match","Non_Exact","1614 LONE OAK ST, SAN ANTONIO, TX, 78220",101532321,"L"
228541,"1614 LONE OAK ST","SAN ANTONIO","TX",78220,29.407994844,-98.429382156,41,"1614 LONE OAK ST, SAN ANTONIO, TX, 78220","Match","Exact","1614 LONE OAK ST, SAN ANTONIO, TX, 78220",101532321,"L"
228542,"1614 LOURAY DR","BATON ROUGE","LA",70808,30.3906190880001,-91.123677696,42,"1614 LOURAY DR, BATON ROUGE, LA, 70808","Match","Exact","1614 LOURAY DR, BATON ROUGE, LA, 70808",92192282,"R"
228543,"1614 MARTIN AVE","SUNNYVALE","CA",94087,37.340769396,-122.015150026,43,"1614 MARTIN AVE, SUNNYVALE, CA, 94087","Match","Exact","1614 MARTIN AVE, SUNNYVALE, CA, 94087",641279205,"R"
228544,"1614 MARTIN LUTHER KING DR","BLOOMINGTON","IL",61701,40.49740567,-89.0159931269999,44,"1614 MARTIN LUTHER KING DR, BLOOMINGTON, IL, 61701","Match","Exact","1614 MARTIN LUTHER KING DR, BLOOMINGTON, IL, 61701",20569653,"R"
228545,"1614 MEADOWBROOK ST","LAKE PLACID","FL",33852,27.3175903750001,-81.335973286,45,"1614 MEADOWBROOK ST, LAKE PLACID, FL, 33852","Match","Exact","1614 MEADOWBROOK ST, LAKE PLACID, FL, 33852",4639654,"L"
228546,"1614 MICHAEL DR","PITTSBURGH","PA",15227,40.3950423160001,-79.9616738619999,46,"1614 MICHAEL DR, PITTSBURGH, PA, 15227","Match","Exact","1614 MICHAEL DR, PITTSBURGH, PA, 15227",639548494,"R"
228547,"1614 MICHAEL DRIVE","PITTSSBURGH","PA",15227,40.3950423160001,-79.9616738619999,47,"1614 MICHAEL DRIVE, PITTSSBURGH, PA, 15227","Match","Non_Exact","1614 MICHAEL DR, PITTSBURGH, PA, 15227",639548494,"R"
228548,"1614 MOISANT STREET","KENNER","LA",70062,29.9871637250001,-90.2392872199999,48,"1614 MOISANT STREET, KENNER, LA, 70062","Match","Exact","1614 MOISANT ST, KENNER, LA, 70062",93495427,"R"
228549,"1614 MONROE ST APT 3W","EVANSTON","IL",60202,42.030776152,-87.695108068,49,"1614 MONROE ST APT 3W, EVANSTON, IL, 60202","Match","Exact","1614 MONROE ST, EVANSTON, IL, 60202",605252554,"L"
228550,"1614 MOUNTAIN RD","HAYMARKET","VA",20169,38.9227185730001,-77.6529897199999,50,"1614 MOUNTAIN RD, HAYMARKET, VA, 20169","Match","Exact","1614 MOUNTAIN RD, HAYMARKET, VA, 20169",207163472,"L"
228551,"1614 MYRTLE NW","WASHINGTON","DC",20012,38.987365067,-77.037033966,51,"1614 MYRTLE NW, WASHINGTON, DC, 20012","Match","Non_Exact","1614 MYRTLE ST NW, WASHINGTON, DC, 20012",76221485,"L"
228552,"1614 N 47TH","SEATTLE","WA",98103,47.6628694460001,-122.338847456,52,"1614 N 47TH, SEATTLE, WA, 98103","Match","Non_Exact","1614 N 47TH ST, SEATTLE, WA, 98103",186582812,"L"
228553,"1614 N KENILWORTH STREET","ARLINGTON","VA",22205,38.8866513670001,-77.1365137939999,53,"1614 N KENILWORTH STREET, ARLINGTON, VA, 22205","Match","Exact","1614 N KENILWORTH ST, ARLINGTON, VA, 22205",76467145,"L"
228554,"1614 N NAVAJO DR","FLAGSTAFF","AZ",86001,35.215014427,-111.652141592,54,"1614 N NAVAJO DR, FLAGSTAFF, AZ, 86001","Match","Exact","1614 N NAVAJO DR, FLAGSTAFF, AZ, 86001",188860631,"R"
228555,"1614 NAPOLEON ST","VALPARAISO","IN",46383,41.482814052,-87.063550573,55,"1614 NAPOLEON ST, VALPARAISO, IN, 46383","Match","Exact","1614 NAPOLEON ST, VALPARAISO, IN, 46383",119913586,"L"
228556,"1614 NE 124TH TERRACE","KANSAS CITY","MO",64165,39.3187008370001,-94.558809743,56,"1614 NE 124TH TERRACE, KANSAS CITY, MO, 64165","Match","Exact","1614 NE 124TH TER, KANSAS CITY, MO, 64165",627515309,"L"
228557,"1614 NE 17TH TERRACE","OCALA","FL",34470,29.2018956100001,-82.1150890599999,57,"1614 NE 17TH TERRACE, OCALA, FL, 34470","Match","Exact","1614 NE 17TH TER, OCALA, FL, 34470",116728112,"L"
228558,"1614 NE CRUMLEY ST","GRAIN VALLEY","MO",64029,NA,NA,58,"1614 NE CRUMLEY ST, GRAIN VALLEY, MO, 64029","No_Match",NA,NA,NA,NA
228559,"1614 NE OCEAN BLVD","STUART","FL",34996,27.2240930770001,-80.180797265,59,"1614 NE OCEAN BLVD, STUART, FL, 34996","Match","Exact","1614 NE OCEAN BLVD, STUART, FL, 34996",618063132,"L"
228560,"1614 NORTH 6TH STREET","HARRISBURG","PA",17102,40.274948115,-76.887568281,60,"1614 NORTH 6TH STREET, HARRISBURG, PA, 17102","Match","Exact","1614 N 6TH ST, HARRISBURG, PA, 17102",70817166,"L"
228561,"1614 NORTH 72ND AVENUE","PHOENIX","AZ",85035,33.466409035,-112.214527147,61,"1614 NORTH 72ND AVENUE, PHOENIX, AZ, 85035","Match","Exact","1614 N 72ND AVE, PHOENIX, AZ, 85035",128199669,"L"
228562,"1614 NORTH 72ND AVENUE","PHOENIX","CT",85035,NA,NA,62,"1614 NORTH 72ND AVENUE, PHOENIX, CT, 85035","No_Match",NA,NA,NA,NA
228563,"1614 NW 8TH AVENUE","HOMESTEAD","FL",33030,25.4855851400001,-80.4876754599999,63,"1614 NW 8TH AVENUE, HOMESTEAD, FL, 33030","Match","Exact","1614 NW 8TH AVE, HOMESTEAD, FL, 33030",115961285,"L"
228564,"1614 OAK TREE DR","ROSEVILLE","CA",95661,38.7389054670001,-121.258880549,64,"1614 OAK TREE DR, ROSEVILLE, CA, 95661","Match","Non_Exact","1614 OAKTREE DR, ROSEVILLE, CA, 95661",106765390,"R"
228565,"1614 OXFORD STREET APT 2","REDWOOD CITY","CA",94061,37.4682913250001,-122.224866639,65,"1614 OXFORD STREET APT 2, REDWOOD CITY, CA, 94061","Match","Exact","1614 OXFORD ST, REDWOOD CITY, CA, 94061",192362977,"R"
228566,"1614 PARADISE COVE LANE","WELLINGTON","FL",33449,NA,NA,66,"1614 PARADISE COVE LANE, WELLINGTON, FL, 33449","No_Match",NA,NA,NA,NA
228567,"1614 PENFIELD RD UNIT 22514","ROCHESTER","NY",14625,43.1344437760001,-77.494642443,67,"1614 PENFIELD RD UNIT 22514, ROCHESTER, NY, 14625","Match","Exact","1614 PENFIELD RD, ROCHESTER, NY, 14625",14559394,"L"
228568,"1614 PENFIELD RD","ROCHESTER","NY",14625,43.1344437760001,-77.494642443,68,"1614 PENFIELD RD, ROCHESTER, NY, 14625","Match","Exact","1614 PENFIELD RD, ROCHESTER, NY, 14625",14559394,"L"
228569,"1614 PICCADILLY COURT","CONYERS","GA",30013,33.675281715,-83.965074165,69,"1614 PICCADILLY COURT, CONYERS, GA, 30013","Match","Non_Exact","1614 PICADILLY CT NE, CONYERS, GA, 30013",23750676,"L"
228570,"1614 PINECREST RD","DURHAM","NC",27705,35.9853335930001,-78.946622389,70,"1614 PINECREST RD, DURHAM, NC, 27705","Match","Exact","1614 PINECREST RD, DURHAM, NC, 27705",71739672,"R"
228571,"1614 PLANTATION POINTE DRIVE","ORLANDO","FL",32824,28.3829860700001,-81.352886154,71,"1614 PLANTATION POINTE DRIVE, ORLANDO, FL, 32824","Match","Exact","1614 PLANTATION POINTE DR, ORLANDO, FL, 32824",631783407,"R"
228572,"1614 POWERS ST","CINCINNATI","OH",45223,39.1569727090001,-84.541690067,72,"1614 POWERS ST, CINCINNATI, OH, 45223","Match","Exact","1614 POWERS ST, CINCINNATI, OH, 45223",103922337,"R"
228573,"1614 POWERS STREET","CINCINNATI","OH",45223,39.1569727090001,-84.541690067,73,"1614 POWERS STREET, CINCINNATI, OH, 45223","Match","Exact","1614 POWERS ST, CINCINNATI, OH, 45223",103922337,"R"
228574,"1614 PUGET DR","EVERETT","WA",98203,47.9227124440001,-122.210535219,74,"1614 PUGET DR, EVERETT, WA, 98203","Match","Exact","1614 PUGET DR, EVERETT, WA, 98203",627406022,"L"
228575,"1614 QUAIL RUSH DR","ROCK HILL","SC",29730,34.876646023,-81.02385572,75,"1614 QUAIL RUSH DR, ROCK HILL, SC, 29730","Match","Exact","1614 QUAIL RUSH DR, ROCK HILL, SC, 29730",19818654,"R"
228576,"1614 QUARRY DR","KILLEEN","TX",76543,31.0944633080001,-97.705859665,76,"1614 QUARRY DR, KILLEEN, TX, 76543","Match","Exact","1614 QUARRY DR, KILLEEN, TX, 76543",146197962,"R"
228577,"1614 RAVENSWOOD WAY","CHERRY HILL","NJ",8003,39.883515738,-74.974079256,77,"1614 RAVENSWOOD WAY, CHERRY HILL, NJ, 8003","Match","Exact","1614 RAVENSWOOD WAY, CHERRY HILL, NJ, 08003",134359110,"R"
228578,"1614 REYNOLDSTON LANE","DALLAS","TX",75232,32.676668077,-96.84736514,78,"1614 REYNOLDSTON LANE, DALLAS, TX, 75232","Match","Exact","1614 REYNOLDSTON LN, DALLAS, TX, 75232",102947670,"L"
228579,"1614 ROSE LANE","LAWRENCE","TN",66044,NA,NA,79,"1614 ROSE LANE, LAWRENCE, TN, 66044","No_Match",NA,NA,NA,NA
228580,"1614 S 74TH AVE","YAKIMA","WA",98908,46.57666312,-120.6070877,80,"1614 S 74TH AVE, YAKIMA, WA, 98908","Match","Exact","1614 S 74TH AVE, YAKIMA, WA, 98908",184960409,"R"
228581,"1614 S CANYON WOODS LN","SPOKANE","WA",99224,47.640694377,-117.45244418,81,"1614 S CANYON WOODS LN, SPOKANE, WA, 99224","Match","Exact","1614 S CANYON WOODS LN, SPOKANE, WA, 99224",652965708,"R"
228582,"1614 S DESPLAINES STREET","CHICAGO","IL",60616,41.8596980290001,-87.6429353679999,82,"1614 S DESPLAINES STREET, CHICAGO, IL, 60616","Match","Exact","1614 S DESPLAINES ST, CHICAGO, IL, 60616",605101618,"R"
228583,"1614 S SIERRA BONITA AVE","LOS ANGELES","CA",90019,34.045385486,-118.360339113,83,"1614 S SIERRA BONITA AVE, LOS ANGELES, CA, 90019","Match","Exact","1614 S SIERRA BONITA AVE, LOS ANGELES, CA, 90019",141600946,"L"
228584,"1614 S THOMPSON DRIVE","MADISON","WI",53716,43.0758061670001,-89.282968758,84,"1614 S THOMPSON DRIVE, MADISON, WI, 53716","Match","Exact","1614 S THOMPSON DR, MADISON, WI, 53716",49499885,"R"
228585,"1614 SENIOR PKWY","HARRISON","AR",72601,36.252285086,-93.1001743909999,85,"1614 SENIOR PKWY, HARRISON, AR, 72601","Match","Exact","1614 SENIOR PKWY, HARRISON, AR, 72601",19994643,"R"
228586,"1614 SKYLINE DR","SENECA","MO",64865,36.8380793260001,-94.599900721,86,"1614 SKYLINE DR, SENECA, MO, 64865","Match","Exact","1614 SKYLINE DR, SENECA, MO, 64865",55991925,"L"
228587,"1614 SOUTH MEDIO RIVER CIR","SUGAR LAND","TX",77478,29.602894959,-95.58973044,87,"1614 SOUTH MEDIO RIVER CIR, SUGAR LAND, TX, 77478","Match","Exact","1614 S MEDIO RIVER CIR, SUGAR LAND, TX, 77478",78290188,"R"
228588,"1614 SOUTH NINTH ST","MILWAUKEE","WI",53204,43.0137684250001,-87.92263754,88,"1614 SOUTH NINTH ST, MILWAUKEE, WI, 53204","Match","Exact","1614 S 9TH ST, MILWAUKEE, WI, 53204",77742594,"L"
228589,"1614 SPRINGWOOD DR","HOUSTON","TX",77055,29.7990508880001,-95.508253049,89,"1614 SPRINGWOOD DR, HOUSTON, TX, 77055","Match","Exact","1614 SPRINGWOOD DR, HOUSTON, TX, 77055",96026342,"R"
228590,"1614 STATE STREET","NEW ORLEANS","LA",70118,29.931685336,-90.117825016,90,"1614 STATE STREET, NEW ORLEANS, LA, 70118","Match","Exact","1614 STATE ST, NEW ORLEANS, LA, 70118",652864279,"L"
228591,"1614 STIMSON STREET","JACKSONVILLE","FL",32210,30.2899832630001,-81.7282481089999,91,"1614 STIMSON STREET, JACKSONVILLE, FL, 32210","Match","Exact","1614 STIMSON ST, JACKSONVILLE, FL, 32210",83954024,"R"
228592,"1614 SUMMIT RIDGE DR","GARLAND","TX",75043,NA,NA,92,"1614 SUMMIT RIDGE DR, GARLAND, TX, 75043","No_Match",NA,NA,NA,NA
228593,"1614 SUSQUEHANNA STREET","HARRISBURG","PA",17102,40.27310226,-76.892271713,93,"1614 SUSQUEHANNA STREET, HARRISBURG, PA, 17102","Match","Exact","1614 SUSQUEHANNA ST, HARRISBURG, PA, 17102",70816975,"L"
228594,"1614 SW MEDFORD AVE","TOPEKA","KS",66604,39.0380894460001,-95.7096558549999,94,"1614 SW MEDFORD AVE, TOPEKA, KS, 66604","Match","Exact","1614 SW MEDFORD AVE, TOPEKA, KS, 66604",17887450,"L"
228595,"1614 TABARD DRIVE","MURRAY","KY",42071,36.5842810990001,-88.32649873,95,"1614 TABARD DRIVE, MURRAY, KY, 42071","Match","Exact","1614 TABARD DR, MURRAY, KY, 42071",31715508,"R"
228596,"1614 THE PLAZA","CHARLOTTE","NC",28205,35.2243496400001,-80.809852453,96,"1614 THE PLAZA, CHARLOTTE, NC, 28205","Match","Exact","1614 THE PLAZA, CHARLOTTE, NC, 28205",70488375,"R"
228597,"1614 TIMBER CREEK DR","MISSIOURI CITY","TX",77459,29.5575358360001,-95.522959616,97,"1614 TIMBER CREEK DR, MISSIOURI CITY, TX, 77459","Match","Non_Exact","1614 TIMBER CREEK DR, MISSOURI CITY, TX, 77459",78296000,"L"
228598,"1614 TROGDEN STREET","GREENSBORO","NC",27403,36.0564705200001,-79.8185324849999,98,"1614 TROGDEN STREET, GREENSBORO, NC, 27403","Match","Non_Exact","1614 TROGDON ST, GREENSBORO, NC, 27403",131032181,"R"
228599,"1614 VERMONT DR","ELK GROVE VILLAGEW","IL",60007,42.0161698650001,-88.046558353,99,"1614 VERMONT DR, ELK GROVE VILLAGEW, IL, 60007","Match","Non_Exact","1614 VERMONT DR, ELK GROVE VILLAGE, IL, 60007",111698871,"L"
228600,"1614 VERMONT ROUTE 30","WELLS","VT",5774,43.419257644,-73.201568709,100,"1614 VERMONT ROUTE 30, WELLS, VT, 5774","Match","Exact","1614 STATE RTE 30, WELLS, VT, 05774",641174079,"R"
228601,"1614 VETERAN AVE STE 102","LOS ANGELES","CA",90024,34.049705073,-118.440793457,101,"1614 VETERAN AVE STE 102, LOS ANGELES, CA, 90024","Match","Exact","1614 VETERAN AVE, LOS ANGELES, CA, 90024",652036813,"L"
228602,"1614 VETERAN AVENUE UNIT 302","LOS ANGELES","CA",90024,34.049705073,-118.440793457,102,"1614 VETERAN AVENUE UNIT 302, LOS ANGELES, CA, 90024","Match","Exact","1614 VETERAN AVE, LOS ANGELES, CA, 90024",652036813,"L"
228603,"1614 VIGGO PLACE","RIPON","CA",95366,37.7577594380001,-121.127756174,103,"1614 VIGGO PLACE, RIPON, CA, 95366","Match","Exact","1614 VIGGO PL, RIPON, CA, 95366",600318705,"L"
228604,"1614 VISTOSO LN","RUSKIN","FL",33573,27.7322570440001,-82.376462279,104,"1614 VISTOSO LN, RUSKIN, FL, 33573","Match","Exact","1614 VISTOSO LN, RUSKIN, FL, 33573",104649451,"L"
228605,"1614 W 168TH ST UNIT C","GARDENA","CA",90247,33.87913817,-118.305374493,105,"1614 W 168TH ST UNIT C, GARDENA, CA, 90247","Match","Non_Exact","1614 W 168TH ST, GARDENA, CA, 90247",142757614,"L"
228606,"1614 W AMERICAN ST","FREEPORT","IL",61032,NA,NA,106,"1614 W AMERICAN ST, FREEPORT, IL, 61032","No_Match",NA,NA,NA,NA
228607,"1614 W NEWPORT PIKE","WILMINGTON","DE",19804,39.715366825,-75.627632809,107,"1614 W NEWPORT PIKE, WILMINGTON, DE, 19804","Match","Exact","1614 W NEWPORT PIKE, WILMINGTON, DE, 19804",606275374,"L"
228608,"1614 W PORTER STREET","PHILADELPHIA","PA",19145,39.9199172400001,-75.174868177,108,"1614 W PORTER STREET, PHILADELPHIA, PA, 19145","Match","Exact","1614 W PORTER ST, PHILADELPHIA, PA, 19145",131411488,"L"
228609,"1614 W STEPHANIE LN","QUEEN CREEK","AZ",85142,33.1990655160001,-111.583420121,109,"1614 W STEPHANIE LN, QUEEN CREEK, AZ, 85142","Match","Non_Exact","1614 STEPHANIE DR, QUEEN CREEK, AZ, 85142",627629352,"R"
228610,"1614 W VELVET OAKS AVE","HARLINGEN","TX",78550,26.217971026,-97.712062434,110,"1614 W VELVET OAKS AVE, HARLINGEN, TX, 78550","Match","Exact","1614 W VELVET OAKS AVE, HARLINGEN, TX, 78550",90003546,"R"
228611,"1614 WARREN RD","LAKEWOOD","OH",44017,41.479146814,-81.8001409079999,111,"1614 WARREN RD, LAKEWOOD, OH, 44017","Match","Non_Exact","1614 WARREN RD, LAKEWOOD, OH, 44107",61100259,"R"
228612,"1614 WAVECREST DR","GLENN HEIGHTS","TX",75154,32.561760001,-96.866952229,112,"1614 WAVECREST DR, GLENN HEIGHTS, TX, 75154","Match","Non_Exact","1614 WAVECREST, GLENN HEIGHTS, TX, 75154",103279799,"L"
228613,"1614 WEST LYNN DRIVE","WEST CHESTER","PA",19382,39.9588980030001,-75.512641581,113,"1614 WEST LYNN DRIVE, WEST CHESTER, PA, 19382","Match","Exact","1614 W LYNN DR, WEST CHESTER, PA, 19382",179514832,"R"
228614,"1614 WESTOVER DRIVE","BLACKSBURG","VA",24060,37.2393799280001,-80.4500812379999,114,"1614 WESTOVER DRIVE, BLACKSBURG, VA, 24060","Match","Exact","1614 WESTOVER DR, BLACKSBURG, VA, 24060",73628561,"R"
228615,"1614 WINDERMERE CT","PALMDALE","CA",91710,34.5983184990001,-118.159292113,115,"1614 WINDERMERE CT, PALMDALE, CA, 91710","Match","Non_Exact","1614 WINDERMERE CT, PALMDALE, CA, 93551",141836710,"R"
228616,"1614 WINKLER AVENUE","FORT MYERS","FL",33901,26.604616983,-81.87894147,116,"1614 WINKLER AVENUE, FORT MYERS, FL, 33901","Match","Exact","1614 WINKLER AVE, FORT MYERS, FL, 33901",118024852,"R"
228617,"1614 YORKTOWNE DRIVE","LAPLACE","LA",70068,NA,NA,117,"1614 YORKTOWNE DRIVE, LAPLACE, LA, 70068","No_Match",NA,NA,NA,NA
228618,"1614","CHICAGO","IL",60561,NA,NA,118,"1614, CHICAGO, IL, 60561","No_Match",NA,NA,NA,NA
228619,"1614","DURHAM","NC",27713,NA,NA,119,"1614, DURHAM, NC, 27713","No_Match",NA,NA,NA,NA
228620,"16140 KINSALE DRIVE","WESTFIELD","IN",46062,40.0225768650001,-86.106747374,120,"16140 KINSALE DRIVE, WESTFIELD, IN, 46062","Match","Exact","16140 KINSALE DR, WESTFIELD, IN, 46062",617972685,"L"
228621,"16140 KUKENDUAL RD 118","HOUSTON","TX",77068,NA,NA,121,"16140 KUKENDUAL RD 118, HOUSTON, TX, 77068","No_Match",NA,NA,NA,NA
228622,"16140 LAKESIDE AVE SE","PRIOT LAKE","MN",55372,44.7148756670001,-93.4339995619999,122,"16140 LAKESIDE AVE SE, PRIOT LAKE, MN, 55372","Match","Non_Exact","16140 LAKESIDE AVE SE, PRIOR LAKE, MN, 55372",38147372,"R"
228623,"16140 LOCHERBIE","BEVERLY HILLS","MI",48025,42.5263528680001,-83.210140711,123,"16140 LOCHERBIE, BEVERLY HILLS, MI, 48025","Match","Non_Exact","16140 LOCHERBIE AVE, BEVERLY HILLS, MI, 48025",69778264,"R"
228624,"16140 MARSHFIELD AVE","MARKHAM","IL",60428,41.5962716550001,-87.657154546,124,"16140 MARSHFIELD AVE, MARKHAM, IL, 60428","Match","Exact","16140 MARSHFIELD AVE, MARKHAM, IL, 60428",111705990,"R"
228625,"16140 NW 18 PL","MIAMI GARDENS","FL",33054,25.9218580090001,-80.231975237,125,"16140 NW 18 PL, MIAMI GARDENS, FL, 33054","Match","Exact","16140 NW 18TH PL, MIAMI GARDENS, FL, 33054",116028636,"L"
228626,"16140 RIDGEWOOD DRIVE","MORRISON","IL",61270,41.816183756,-89.947372776,126,"16140 RIDGEWOOD DRIVE, MORRISON, IL, 61270","Match","Exact","16140 RIDGEWOOD DR, MORRISON, IL, 61270",48964710,"R"
228627,"16140 SAND CANYON AVE","IRVINE","CA",92618,33.6622886750001,-117.7733521,127,"16140 SAND CANYON AVE, IRVINE, CA, 92618","Match","Exact","16140 SAND CANYON AVE, IRVINE, CA, 92618",612206695,"L"
228628,"16140 SE EASTGATE WAY APT E105","BELLEVUE","WA",98008,47.577032929,-122.127003683,128,"16140 SE EASTGATE WAY APT E105, BELLEVUE, WA, 98008","Match","Non_Exact","16140 SE EASTGATE WAY, BELLEVUE, WA, 98008",187105395,"L"
228629,"16140 SHERFIELD","SOUTHFIELD","MI",48075,42.4769389210001,-83.208687465,129,"16140 SHERFIELD, SOUTHFIELD, MI, 48075","Match","Non_Exact","16140 SHERFIELD PL, SOUTHFIELD, MI, 48075",69740071,"R"
228630,"16140 SW 108TH AVE","TIGARD","OR",97224,45.4035066870001,-122.787846375,130,"16140 SW 108TH AVE, TIGARD, OR, 97224","Match","Exact","16140 SW 108TH AVE, TIGARD, OR, 97224",635627294,"L"
228631,"16140 TRICHING  SPRING LN","HEGESTOWN","MD",21740,NA,NA,131,"16140 TRICHING  SPRING LN, HEGESTOWN, MD, 21740","No_Match",NA,NA,NA,NA
228632,"16141 CLEVELAND STREET","REDMOND","WA",98052,47.673929856,-122.125223416,132,"16141 CLEVELAND STREET, REDMOND, WA, 98052","Match","Exact","16141 CLEVELAND ST, REDMOND, WA, 98052",648195792,"L"
228633,"16141 EAST CORNWALL DRIVE","LOXAHATCHEE","FL",33470,NA,NA,133,"16141 EAST CORNWALL DRIVE, LOXAHATCHEE, FL, 33470","No_Match",NA,NA,NA,NA
228634,"16141 EAST CORNWALL DRIVE","LOXAHATCHEEE","FL",33470,NA,NA,134,"16141 EAST CORNWALL DRIVE, LOXAHATCHEEE, FL, 33470","No_Match",NA,NA,NA,NA
228635,"16141 HAMSON PLACE","RAMONA","CA",92065,NA,NA,135,"16141 HAMSON PLACE, RAMONA, CA, 92065","No_Match",NA,NA,NA,NA
228636,"16141 HOMINY COURT","LAKEVILLE","MN",55044,44.716245556,-93.241442475,136,"16141 HOMINY COURT, LAKEVILLE, MN, 55044","Match","Exact","16141 HOMINY CT, LAKEVILLE, MN, 55044",37982035,"R"
228637,"16141 HOMINY CT","LAKEVILLE","MN",55044,44.716245556,-93.241442475,137,"16141 HOMINY CT, LAKEVILLE, MN, 55044","Match","Exact","16141 HOMINY CT, LAKEVILLE, MN, 55044",37982035,"R"
228638,"16141 MALAGA LN    A","HUNTINGTON BEACH","CA",92647,33.727840601,-117.986554626,138,"16141 MALAGA LN    A, HUNTINGTON BEACH, CA, 92647","Match","Exact","16141 MALAGA LN, HUNTINGTON BEACH, CA, 92647",144017897,"R"
228639,"16141 S RAINTREE DR","OLATHE","KS",66062,38.8360546640001,-94.773923316,139,"16141 S RAINTREE DR, OLATHE, KS, 66062","Match","Exact","16141 S RAINTREE DR, OLATHE, KS, 66062",91328574,"R"
228640,"16141 SANTA BARBARA LANE","HUNTINGTON BEACH","CA",92649,33.7275085580001,-118.05738463,140,"16141 SANTA BARBARA LANE, HUNTINGTON BEACH, CA, 92649","Match","Exact","16141 SANTA BARBARA LN, HUNTINGTON BEACH, CA, 92649",649566816,"R"
228641,"16141 SW 42TH TERR","MIAMI","FL",33185,NA,NA,141,"16141 SW 42TH TERR, MIAMI, FL, 33185","No_Match",NA,NA,NA,NA
228642,"16142 RUDGEWICK LANE","SPRING","TX",77379,30.0007260080001,-95.5457602609999,142,"16142 RUDGEWICK LANE, SPRING, TX, 77379","Match","Exact","16142 RUDGEWICK LN, SPRING, TX, 77379",96005755,"R"
228643,"16142 SWALLOWHTAIL PLACE","MIDLOTHIAN","VA",23113,NA,NA,143,"16142 SWALLOWHTAIL PLACE, MIDLOTHIAN, VA, 23113","No_Match",NA,NA,NA,NA
228644,"16142 VIA LUPINE","SAN LORENZO","CA",94580,37.6747421210001,-122.134820582,144,"16142 VIA LUPINE, SAN LORENZO, CA, 94580","Match","Exact","16142 VIA LUPINE, SAN LORENZO, CA, 94580",125019243,"L"
228645,"16143 E CRESTLINE PL","CENTENNIAL","CO",80015,39.6192433300001,-104.801857034,145,"16143 E CRESTLINE PL, CENTENNIAL, CO, 80015","Match","Exact","16143 E CRESTLINE PL, CENTENNIAL, CO, 80015",177359359,"R"
228646,"16143 KOKANEE ROAD STE A","APPLE VALLEY","CA",92307,34.544924151,-117.268690004,146,"16143 KOKANEE ROAD STE A, APPLE VALLEY, CA, 92307","Match","Exact","16143 KOKANEE RD, APPLE VALLEY, CA, 92307",614840532,"L"
228647,"16144 BETHEL ROAD","MONTGOMERY","TX",77356,NA,NA,147,"16144 BETHEL ROAD, MONTGOMERY, TX, 77356","No_Match",NA,NA,NA,NA
228648,"16144 FAIRGREEN AVE","LAKEVILLE","MN",55068,44.7154590230001,-93.1877056979999,148,"16144 FAIRGREEN AVE, LAKEVILLE, MN, 55068","Match","Non_Exact","16144 FAIRGREEN AVE, ROSEMOUNT, MN, 55068",37907648,"L"
228649,"16144 GRAND CENTRAL PARKWAY","JAMAICA","NY",11432,NA,NA,149,"16144 GRAND CENTRAL PARKWAY, JAMAICA, NY, 11432","No_Match",NA,NA,NA,NA
228650,"16144 WOOD STREET","MARKHAM","IL",60428,41.596209727,-87.6607669539999,150,"16144 WOOD STREET, MARKHAM, IL, 60428","Match","Exact","16144 WOOD ST, MARKHAM, IL, 60428",111705948,"R"
228651,"16145 - 673RD AVE","HUTCHINSON","MN",55350,NA,NA,151,"16145 - 673RD AVE, HUTCHINSON, MN, 55350","No_Match",NA,NA,NA,NA
228652,"16145 PREST ST","DETROIT","MI",48235,42.4091945110001,-83.197843,152,"16145 PREST ST, DETROIT, MI, 48235","Match","Exact","16145 PREST ST, DETROIT, MI, 48235",95424582,"L"
228653,"16145 SUTTON DRIVE","ATHENS","AL",35611,34.7938367180001,-87.00933822,153,"16145 SUTTON DRIVE, ATHENS, AL, 35611","Match","Exact","16145 SUTTON DR, ATHENS, AL, 35611",95241499,"L"
228654,"16145 SW 103RD AVE","TIGARD","OR",97224,45.4031352470001,-122.782211858,154,"16145 SW 103RD AVE, TIGARD, OR, 97224","Match","Exact","16145 SW 103RD AVE, TIGARD, OR, 97224",158212963,"L"
228655,"16146 AURORA CREST DR","WHITTIER","CA",90650,33.967038346,-117.982431628,155,"16146 AURORA CREST DR, WHITTIER, CA, 90650","Match","Non_Exact","16146 AURORA CREST DR, WHITTIER, CA, 90605",142652394,"R"
228656,"16146 E TOMBSTONE AVE","FOUNTAIN HILLS","AZ",85268,33.5726448710001,-111.732491094,156,"16146 E TOMBSTONE AVE, FOUNTAIN HILLS, AZ, 85268","Match","Exact","16146 E TOMBSTONE AVE, FOUNTAIN HILLS, AZ, 85268",637439644,"L"
228657,"16146 SYD CREEK DR","HOMER GLEN","IL",60491,41.5930011610001,-87.974243126,157,"16146 SYD CREEK DR, HOMER GLEN, IL, 60491","Match","Exact","16146 SYD CREEK DR, HOMER GLEN, IL, 60491",647414861,"L"
228658,"16147 COLE BRIDGE LANE","CYPRESS","TX",77429,30.0025190650001,-95.704708881,158,"16147 COLE BRIDGE LANE, CYPRESS, TX, 77429","Match","Exact","16147 COLE BRIDGE LN, CYPRESS, TX, 77429",631863111,"L"
228659,"16147 SILVERCREST DRIVE","FENTON","MI",48430,42.79258402,-83.7558718069999,159,"16147 SILVERCREST DRIVE, FENTON, MI, 48430","Match","Exact","16147 SILVERCREST DR, FENTON, MI, 48430",69558178,"R"
228660,"16148 NW ENERGIA","PORTLAND","OR",97229,45.559020939,-122.844278296,160,"16148 NW ENERGIA, PORTLAND, OR, 97229","Match","Non_Exact","16148 NW ENERGIA ST, PORTLAND, OR, 97229",158218008,"L"
228661,"16148 PRAIRIE CREEK LOOP","YELM","WA",98597,46.943089017,-122.597320068,161,"16148 PRAIRIE CREEK LOOP, YELM, WA, 98597","Match","Non_Exact","16148 PRAIRIE CREEK LOOP SE, YELM, WA, 98597",180964577,"R"
228662,"16148 S KEDZIE","MARKAHM","IL",60428,41.595906471,-87.694563552,162,"16148 S KEDZIE, MARKAHM, IL, 60428","Match","Non_Exact","16148 KEDZIE AVE, MARKHAM, IL, 60428",112224460,"R"
228663,"16148 S KEDZIE","MARKHAM","IL",60428,41.5959018,-87.6945635119999,163,"16148 S KEDZIE, MARKHAM, IL, 60428","Match","Non_Exact","16148 KEDZIE AVE, MARKHAM, IL, 60428",112224460,"R"
228664,"16149 CASTLEREA BLVD","ELLISVILLE","MO",63021,38.5850888910001,-90.6043881209999,164,"16149 CASTLEREA BLVD, ELLISVILLE, MO, 63021","Match","Exact","16149 CASTLEREA BLVD, ELLISVILLE, MO, 63021",100176707,"R"
228665,"16149 COLUMBUS LANE","LOS ANGELES","CA",91343,34.2236784950001,-118.484238229,165,"16149 COLUMBUS LANE, LOS ANGELES, CA, 91343","Match","Non_Exact","16149 COLUMBUS LN, NORTH HILLS, CA, 91343",650557539,"R"
228666,"16149 FLEUR DE LIS","IOWA","LA",70647,30.2691757420001,-93.012726987,166,"16149 FLEUR DE LIS, IOWA, LA, 70647","Match","Non_Exact","16149 FLEUR DE LIS DR, IOWA, LA, 70647",651020742,"L"
228667,"16149 TWIN COURT","BROOKSVILLE","FL",34614,28.6207537170001,-82.464519406,167,"16149 TWIN COURT, BROOKSVILLE, FL, 34614","Match","Exact","16149 TWIN CT, BROOKSVILLE, FL, 34614",85426601,"R"
228668,"161492","DULUTH","MN",55806,NA,NA,168,"161492, DULUTH, MN, 55806","No_Match",NA,NA,NA,NA
228669,"1615 10TH AVENUE","N GRAND FORKS","ND",58203,47.929211638,-97.049764361,169,"1615 10TH AVENUE, N GRAND FORKS, ND, 58203","Match","Non_Exact","1615 10TH AVE N, GRAND FORKS, ND, 58203",171275690,"L"
228670,"1615 117TH AVE NE","BLAINE","MN",55449,45.1821786690001,-93.229408515,170,"1615 117TH AVE NE, BLAINE, MN, 55449","Match","Exact","1615 117TH AVE NE, BLAINE, MN, 55449",97544820,"L"
228671,"1615 11TH AVE N","FARGO","ND",58102,46.8885989440001,-96.8070040429999,171,"1615 11TH AVE N, FARGO, ND, 58102","Match","Exact","1615 11TH AVE N, FARGO, ND, 58102",151471904,"R"
228672,"1615 17TH STREET NW","WASHINGTON","DC",20009,38.911776268,-77.038475445,172,"1615 17TH STREET NW, WASHINGTON, DC, 20009","Match","Exact","1615 17TH ST NW, WASHINGTON, DC, 20009",611399590,"R"
228673,"1615 18TH AVE SW","VERO BEACH","FL",32962,27.5738007910001,-80.404485069,173,"1615 18TH AVE SW, VERO BEACH, FL, 32962","Match","Exact","1615 18TH AVE SW, VERO BEACH, FL, 32962",120332914,"L"
228674,"1615 19TH STREET","GULFPORT","MS",39501,30.374073337,-89.080352282,174,"1615 19TH STREET, GULFPORT, MS, 39501","Match","Exact","1615 19TH ST, GULFPORT, MS, 39501",111380359,"L"
228675,"1615 24TH AVE NE","ISSAQUAH","WA",98029,47.542689619,-121.998718822,175,"1615 24TH AVE NE, ISSAQUAH, WA, 98029","Match","Exact","1615 24TH AVE NE, ISSAQUAH, WA, 98029",627474655,"R"
228676,"1615 262ND STREET NO 3","HARBOR CITY","CA",90710,NA,NA,176,"1615 262ND STREET NO 3, HARBOR CITY, CA, 90710","No_Match",NA,NA,NA,NA
228677,"1615 2ND ST S APT 8","NAMPA","ID",83651,43.575058212,-116.556348814,177,"1615 2ND ST S APT 8, NAMPA, ID, 83651","Match","Exact","1615 2ND ST S, NAMPA, ID, 83651",122787092,"L"
228678,"1615 2ND ST S","NAMPA","ID",83651,43.575058212,-116.556348814,178,"1615 2ND ST S, NAMPA, ID, 83651","Match","Exact","1615 2ND ST S, NAMPA, ID, 83651",122787092,"L"
228679,"1615 3RD ST","LIVERMORE","CA",94550,37.6780454460001,-121.77521181,179,"1615 3RD ST, LIVERMORE, CA, 94550","Match","Exact","1615 3RD ST, LIVERMORE, CA, 94550",125035526,"R"
228680,"1615 4TH ST APT M2609","MINNEAPOLIS","MN",55454,44.970568692,-93.2479932959999,180,"1615 4TH ST APT M2609, MINNEAPOLIS, MN, 55454","Match","Non_Exact","1615 S 4TH ST, MINNEAPOLIS, MN, 55454",650121944,"R"
228681,"1615 5TH ST DR NW","HICKORY","NC",28601,NA,NA,181,"1615 5TH ST DR NW, HICKORY, NC, 28601","Tie",NA,NA,NA,NA
228682,"1615 6TH ST SE","RUSKIN","FL",33570,27.701681568,-82.4271034559999,182,"1615 6TH ST SE, RUSKIN, FL, 33570","Match","Exact","1615 6TH ST SE, RUSKIN, FL, 33570",649946599,"L"
228683,"1615 ADMIRALS HILL CT","VIENNA","VA",22182,38.954404325,-77.318731793,183,"1615 ADMIRALS HILL CT, VIENNA, VA, 22182","Match","Exact","1615 ADMIRALS HILL CT, VIENNA, VA, 22182",641098354,"R"
228684,"1615 ALAZAN COVE","ROUND ROCK","TX",78664,30.533034381,-97.659012236,184,"1615 ALAZAN COVE, ROUND ROCK, TX, 78664","Match","Exact","1615 ALAZAN COVE, ROUND ROCK, TX, 78664",126521953,"L"
228685,"1615 ALMADOR TERRACE","ATWATER","CA",95301,37.3468233890001,-120.590899542,185,"1615 ALMADOR TERRACE, ATWATER, CA, 95301","Match","Exact","1615 ALMADOR TER, ATWATER, CA, 95301",125308405,"L"
228686,"1615 AMBERWOOD DR APT A","SOUTH PASADENA","CA",91030,34.1225591890001,-118.148200723,186,"1615 AMBERWOOD DR APT A, SOUTH PASADENA, CA, 91030","Match","Exact","1615 AMBERWOOD DR, SOUTH PASADENA, CA, 91030",141630279,"R"
228687,"1615 AMERICANA BLVD APT 18 E","ORLANDO","FL",32839,28.4846666440001,-81.4014829669999,187,"1615 AMERICANA BLVD APT 18 E, ORLANDO, FL, 32839","Match","Exact","1615 AMERICANA BLVD, ORLANDO, FL, 32839",606119551,"R"
228688,"1615 ANCHOR LANE","SOUTHHOLD","NY",11971,41.048469132,-72.405355334,188,"1615 ANCHOR LANE, SOUTHHOLD, NY, 11971","Match","Non_Exact","1615 ANCHOR LN, SOUTHOLD, NY, 11971",113957252,"R"
228689,"1615 ANTON ROAD","MADISONVILLE","KY",42431,37.327244437,-87.46934286,189,"1615 ANTON ROAD, MADISONVILLE, KY, 42431","Match","Exact","1615 ANTON RD, MADISONVILLE, KY, 42431",11523425,"R"
228690,"1615 APPLE DRIVE","CHICAGO","IL",60653,NA,NA,190,"1615 APPLE DRIVE, CHICAGO, IL, 60653","No_Match",NA,NA,NA,NA
228691,"1615 APPLE DRIVE","SUN PRAIRIE","WI",53590,43.1725301480001,-89.240769443,191,"1615 APPLE DRIVE, SUN PRAIRIE, WI, 53590","Match","Exact","1615 APPLE DR, SUN PRAIRIE, WI, 53590",49478610,"R"
228692,"1615 APPLE RAOD","SARCOXIE","MO",64862,37.0634009230001,-94.087671933,192,"1615 APPLE RAOD, SARCOXIE, MO, 64862","Match","Non_Exact","1615 APPLE RD, SARCOXIE, MO, 64862",66144919,"R"
228693,"1615 APPLE ROAD","SARCOXIE","MO",64862,37.0634009230001,-94.087671933,193,"1615 APPLE ROAD, SARCOXIE, MO, 64862","Match","Exact","1615 APPLE RD, SARCOXIE, MO, 64862",66144919,"R"
228694,"1615 ASHLAND STREET","GREENSBURG","PA",15601,40.2751659670001,-79.545823898,194,"1615 ASHLAND STREET, GREENSBURG, PA, 15601","Match","Exact","1615 ASHLAND ST, GREENSBURG, PA, 15601",52976555,"L"
228695,"1615 ASHLAWN DRIVE","UPPER ST CLAIR","PA",15241,40.325402303,-80.091241419,195,"1615 ASHLAWN DRIVE, UPPER ST CLAIR, PA, 15241","Match","Exact","1615 ASHLAWN DR, UPPER SAINT CLAIR, PA, 15241",51618874,"L"
228696,"1615 AVE I APT 609","BROOKLYN","NY",11230,40.627701523,-73.9607250999999,196,"1615 AVE I APT 609, BROOKLYN, NY, 11230","Match","Exact","1615 AVE I, BROOKLYN, NY, 11230",59081273,"L"
228697,"1615 BECKWITH DR","HUDSON","OH",44236,41.224026893,-81.435098994,197,"1615 BECKWITH DR, HUDSON, OH, 44236","Match","Exact","1615 BECKWITH DR, HUDSON, OH, 44236",61346567,"L"
228698,"1615 BENEDICT CANYON DR","BEVERLY HILLS","CA",90210,34.1001366990001,-118.435172668,198,"1615 BENEDICT CANYON DR, BEVERLY HILLS, CA, 90210","Match","Exact","1615 BENEDICT CANYON DR, BEVERLY HILLS, CA, 90210",642865580,"L"
228699,"1615 BERGEN STREET APT 1","BROOKLYN","NY",11213,40.6750070630001,-73.929821803,199,"1615 BERGEN STREET APT 1, BROOKLYN, NY, 11213","Match","Exact","1615 BERGEN ST, BROOKLYN, NY, 11213",642653460,"L"
228700,"1615 BERING DRIVE- APT 1619","HOUSTON","TX",77057,29.7511134980001,-95.479544579,200,"1615 BERING DRIVE- APT 1619, HOUSTON, TX, 77057","Match","Non_Exact","1615 BERING DR, HOUSTON, TX, 77057",96620465,"L"
228701,"1615 BERKELEY RD","HIGHLAND PARK","IL",60035,42.181693701,-87.826095634,201,"1615 BERKELEY RD, HIGHLAND PARK, IL, 60035","Match","Exact","1615 BERKELEY RD, HIGHLAND PARK, IL, 60035",119651114,"R"
228702,"1615 BETHANY RD","NICHOLASVILLE","KY",40356,37.8645482700001,-84.509193631,202,"1615 BETHANY RD, NICHOLASVILLE, KY, 40356","Match","Exact","1615 BETHANY RD, NICHOLASVILLE, KY, 40356",635549398,"L"
228703,"1615 BEZEK ST","NANTY GLO","PA",15943,40.468622978,-78.844599772,203,"1615 BEZEK ST, NANTY GLO, PA, 15943","Match","Exact","1615 BEZEK ST, NANTY GLO, PA, 15943",50254101,"L"
228704,"1615 BICKETT BOULEVARD","RALEIGH","NC",27608,35.801398154,-78.63758993,204,"1615 BICKETT BOULEVARD, RALEIGH, NC, 27608","Match","Exact","1615 BICKETT BLVD, RALEIGH, NC, 27608",72507458,"L"
228705,"1615 BIRCH","PACIFIC","MO",63069,38.474607404,-90.7570137819999,205,"1615 BIRCH, PACIFIC, MO, 63069","Match","Non_Exact","1615 BIRCH ST, PACIFIC, MO, 63069",99725482,"R"
228706,"1615 BOROS DR","FAYETTEVILLE","NC",28303,35.0962259090001,-78.924368046,206,"1615 BOROS DR, FAYETTEVILLE, NC, 28303","Match","Exact","1615 BOROS DR, FAYETTEVILLE, NC, 28303",64198194,"L"
228707,"1615 BRIARWOOD RD","SHEBOYGAN","WI",53083,43.800531183,-87.72703323,207,"1615 BRIARWOOD RD, SHEBOYGAN, WI, 53083","Match","Exact","1615 BRIARWOOD RD, SHEBOYGAN, WI, 53083",79503183,"R"
228708,"1615 BRIDGEPORT DRIVE","LOS ANGELES","CA",90065,34.1022199820001,-118.226479171,208,"1615 BRIDGEPORT DRIVE, LOS ANGELES, CA, 90065","Match","Exact","1615 BRIDGEPORT DR, LOS ANGELES, CA, 90065",142250878,"R"
228709,"1615 BROADWAY EIGHTH FLOOR","OAKLAND","CA",94612,37.8060516560001,-122.270218317,209,"1615 BROADWAY EIGHTH FLOOR, OAKLAND, CA, 94612","Match","Exact","1615 BROADWAY, OAKLAND, CA, 94612",124997150,"L"
228710,"1615 BROADWAY FLR 5","OAKLAND","CA",94612,37.8060516560001,-122.270218317,210,"1615 BROADWAY FLR 5, OAKLAND, CA, 94612","Match","Exact","1615 BROADWAY, OAKLAND, CA, 94612",124997150,"L"
228711,"1615 CABOT PLAINS ROAD","CABOT","VT",5647,44.424310973,-72.2676960429999,211,"1615 CABOT PLAINS ROAD, CABOT, VT, 5647","Match","Exact","1615 CABOT PLAINS RD, CABOT, VT, 05647",136685062,"R"
228712,"1615 CAPLIN DR","ARLINGTON","TX",76018,32.6646522130001,-97.082025287,212,"1615 CAPLIN DR, ARLINGTON, TX, 76018","Match","Exact","1615 CAPLIN DR, ARLINGTON, TX, 76018",101935102,"L"
228713,"1615 CAROL SUE AVE A20","GRETNA","LA",70056,29.9001553890001,-90.041104818,213,"1615 CAROL SUE AVE A20, GRETNA, LA, 70056","Match","Exact","1615 CAROL SUE AVE, GRETNA, LA, 70056",93557124,"L"
228714,"1615 CARRAWAY BLVD","BIRMINGHAM","AL",35234,33.5371111480001,-86.81011742,214,"1615 CARRAWAY BLVD, BIRMINGHAM, AL, 35234","Match","Exact","1615 CARRAWAY BLVD, BIRMINGHAM, AL, 35234",81572804,"R"
228715,"1615 CHESTNUT LN","NORMAN","OK",73072,35.1925035450001,-97.4648983869999,215,"1615 CHESTNUT LN, NORMAN, OK, 73072","Match","Exact","1615 CHESTNUT LN, NORMAN, OK, 73072",99910916,"R"
228716,"1615 CLARK AVE","CLEVELAND","OH",44109,41.4699913210001,-81.694485336,216,"1615 CLARK AVE, CLEVELAND, OH, 44109","Match","Exact","1615 CLARK AVE, CLEVELAND, OH, 44109",642639577,"L"
228717,"1615 CLARK AVENUE","CLEVELAND","OH",44109,41.4699913210001,-81.694485336,217,"1615 CLARK AVENUE, CLEVELAND, OH, 44109","Match","Exact","1615 CLARK AVE, CLEVELAND, OH, 44109",642639577,"L"
228718,"1615 CLERENCE ST","DAYTON","OH",45410,39.7404104990001,-84.1592723059999,218,"1615 CLERENCE ST, DAYTON, OH, 45410","Match","Non_Exact","1615 CLARENCE ST, DAYTON, OH, 45410",143575302,"L"
228719,"1615 CLEVELAND AVE","LARCHWOOD","IA",51241,43.4159711660001,-96.409205619,219,"1615 CLEVELAND AVE, LARCHWOOD, IA, 51241","Match","Exact","1615 CLEVELAND AVE, LARCHWOOD, IA, 51241",30197516,"L"
228720,"1615 COBB PARKWAY NW APT 1302","MARIETTA","GA",30062,33.992336601,-84.579843151,220,"1615 COBB PARKWAY NW APT 1302, MARIETTA, GA, 30062","Match","Non_Exact","1615 COBB PKWY N, MARIETTA, GA, 30062",644737920,"L"
228721,"1615 COBB PKWY N APT 1305","MARIETTA","GA",30062,33.992336601,-84.579843151,221,"1615 COBB PKWY N APT 1305, MARIETTA, GA, 30062","Match","Exact","1615 COBB PKWY N, MARIETTA, GA, 30062",644737920,"L"
228722,"1615 COLOGNE DR","BISMARCK","ND",58504,46.7868963270001,-100.798221063,222,"1615 COLOGNE DR, BISMARCK, ND, 58504","Match","Exact","1615 COLOGNE DR, BISMARCK, ND, 58504",198849120,"R"
228723,"1615 CONCORD CHURCH ROAD","GREENVILLE","FL",32331,30.621852233,-83.533078922,223,"1615 CONCORD CHURCH ROAD, GREENVILLE, FL, 32331","Match","Non_Exact","1615 NW CONCORD CHURCH RD, GREENVILLE, FL, 32331",53927045,"L"
228724,"1615 COUNTRY LANE","TOOELE","UT",84074,40.5980689530001,-112.26394072,224,"1615 COUNTRY LANE, TOOELE, UT, 84074","Match","Exact","1615 COUNTRY LN, TOOELE, UT, 84074",155397224,"L"
228725,"1615 COVENTRY STREET","SAVANNAH","GA",31415,32.085757444,-81.122912594,225,"1615 COVENTRY STREET, SAVANNAH, GA, 31415","Match","Exact","1615 COVENTRY ST, SAVANNAH, GA, 31415",6170139,"L"
228726,"1615 CR 1401","JACKSONVILLE","TX",75766,NA,NA,226,"1615 CR 1401, JACKSONVILLE, TX, 75766","No_Match",NA,NA,NA,NA
228727,"1615 CRAFT RD","GRASS LAKE","MI",49240,42.257033902,-84.238217012,227,"1615 CRAFT RD, GRASS LAKE, MI, 49240","Match","Exact","1615 CRAFT RD, GRASS LAKE, MI, 49240",17631294,"L"
228728,"1615 CRAIG STREET","RALEIGH","NC",27608,35.8021745830001,-78.6522434949999,228,"1615 CRAIG STREET, RALEIGH, NC, 27608","Match","Exact","1615 CRAIG ST, RALEIGH, NC, 27608",72502609,"L"
228729,"1615 CRESTWOOD AVENUE","MANTECA","CA",95336,37.820506934,-121.220582782,229,"1615 CRESTWOOD AVENUE, MANTECA, CA, 95336","Match","Exact","1615 CRESTWOOD AVE, MANTECA, CA, 95336",133908510,"L"
228730,"1615 CUMBERLAND CLUB ROAD SW","MARIETTA","GA",30008,33.896091314,-84.603374856,230,"1615 CUMBERLAND CLUB ROAD SW, MARIETTA, GA, 30008","Match","Exact","1615 CUMBERLAND CLUB RD SW, MARIETTA, GA, 30008",17223015,"R"
228731,"1615 DRISCOLL STREET","HOUSTON","TX",77019,29.751440861,-95.406385114,231,"1615 DRISCOLL STREET, HOUSTON, TX, 77019","Match","Exact","1615 DRISCOLL ST, HOUSTON, TX, 77019",96062053,"L"
228732,"1615 E 1050 N","HEBER CITY","UT",84032,NA,NA,232,"1615 E 1050 N, HEBER CITY, UT, 84032","Tie",NA,NA,NA,NA
228733,"1615 E 17TH STREET","ANDERSON","IN",46016,40.099313527,-85.659205772,233,"1615 E 17TH STREET, ANDERSON, IN, 46016","Match","Exact","1615 E 17TH ST, ANDERSON, IN, 46016",31116220,"R"
228734,"1615 E 25TH STREET SUITE A","BALTIMORE","MD",21213,39.3165270200001,-76.595020292,234,"1615 E 25TH STREET SUITE A, BALTIMORE, MD, 21213","Match","Non_Exact","1615 E 25TH ST, BALTIMORE, MD, 21213",206419873,"R"
228735,"1615 E 4TH ST","BROOKLYN","NY",11230,40.6111880450001,-73.9703441679999,235,"1615 E 4TH ST, BROOKLYN, NY, 11230","Match","Exact","1615 E 4TH ST, BROOKLYN, NY, 11230",59089772,"L"
228736,"1615 E 85TH ST E","MUSKOGEE","OK",74403,35.7288936140001,-95.233800109,236,"1615 E 85TH ST E, MUSKOGEE, OK, 74403","Match","Non_Exact","1615 S 85TH ST E, MUSKOGEE, OK, 74403",91962770,"L"
228737,"1615 E CANARY DR","EDMOND","OK",73034,35.6737535560001,-97.459012173,237,"1615 E CANARY DR, EDMOND, OK, 73034","Match","Exact","1615 E CANARY DR, EDMOND, OK, 73034",100408763,"L"
228738,"1615 E CYPRESS POINT DR","VENICE","FL",34293,27.07716076,-82.38516735,238,"1615 E CYPRESS POINT DR, VENICE, FL, 34293","Match","Exact","1615 E CYPRESS POINT DR, VENICE, FL, 34293",16363679,"L"
228739,"1615 E GEORGIA AVE UNIT 322","PHOENIX","AZ",85016,33.5146618430001,-112.047170638,239,"1615 E GEORGIA AVE UNIT 322, PHOENIX, AZ, 85016","Match","Non_Exact","1615 E GEORGIA AVE, PHOENIX, AZ, 85016",128209299,"R"
228740,"1615 E TWIN LAKES DRIVE","LITTLE ROCK","AR",72205,34.739254471,-92.3805493529999,240,"1615 E TWIN LAKES DRIVE, LITTLE ROCK, AR, 72205","Match","Exact","1615 E TWIN LAKES DR, LITTLE ROCK, AR, 72205",83501283,"L"
228741,"1615 EAST 11245 SOUTH","SANDY","UT",84092,40.547065762,-111.845706523,241,"1615 EAST 11245 SOUTH, SANDY, UT, 84092","Match","Exact","1615 E 11245 S, SANDY, UT, 84092",176132701,"L"
228742,"1615 EAST FAIRVIEW AVE APT 102","MONTGOMERY","AL",36116,32.3520667330001,-86.284176813,242,"1615 EAST FAIRVIEW AVE APT 102, MONTGOMERY, AL, 36116","Match","Non_Exact","1615 E FAIRVIEW AVE, MONTGOMERY, AL, 36106",1475677,"L"
228743,"1615 EAST HYDE PARK BLVD APT 3","CHICAGO","IL",60615,41.80247172,-87.585207479,243,"1615 EAST HYDE PARK BLVD APT 3, CHICAGO, IL, 60615","Match","Non_Exact","1615 S HYDE PARK BLVD, CHICAGO, IL, 60615",611638529,"R"
228744,"1615 EDGEHILL COURT","SANLEANDRO","CA",94577,37.7244078510001,-122.132144227,244,"1615 EDGEHILL COURT, SANLEANDRO, CA, 94577","Match","Non_Exact","1615 EDGEHILL CT, SAN LEANDRO, CA, 94577",125050184,"R"
228745,"1615 ELMIRA AVENUE","SUPERIOR","WI",54880,46.719128719,-92.1146743959999,245,"1615 ELMIRA AVENUE, SUPERIOR, WI, 54880","Match","Exact","1615 ELMIRA AVE, SUPERIOR, WI, 54880",164839705,"R"
228746,"1615 ERIE DR","HARLAN","IA",51537,41.645467255,-95.3332043359999,246,"1615 ERIE DR, HARLAN, IA, 51537","Match","Exact","1615 ERIE DR, HARLAN, IA, 51537",639082557,"L"
228747,"1615 FARMINGTON AVENUE","FARMINGTON","CT",6085,41.7506000710001,-72.8701721259999,247,"1615 FARMINGTON AVENUE, FARMINGTON, CT, 6085","Match","Non_Exact","1615 FARMINGTON AVE, UNIONVILLE, CT, 06085",633042822,"R"
228748,"1615 FATHERLAND ST","NASHVILLE","TN",37206,36.1733552110001,-86.741924501,248,"1615 FATHERLAND ST, NASHVILLE, TN, 37206","Match","Exact","1615 FATHERLAND ST, NASHVILLE, TN, 37206",97189144,"L"
228749,"1615 FINLAND PALM","SAN ANTONIO","TX",78251,29.450123369,-98.656692073,249,"1615 FINLAND PALM, SAN ANTONIO, TX, 78251","Match","Exact","1615 FINLAND PALM, SAN ANTONIO, TX, 78251",645208452,"L"
228750,"1615 FOLLEY LICK COURT","HERNDON","VA",20170,38.9882578690001,-77.388899096,250,"1615 FOLLEY LICK COURT, HERNDON, VA, 20170","Match","Exact","1615 FOLLEY LICK CT, HERNDON, VA, 20170",75956423,"L"
228751,"1615 FORBES STREET","ROCKVILLE","MD",20851,39.08212673,-77.11747819,251,"1615 FORBES STREET, ROCKVILLE, MD, 20851","Match","Exact","1615 FORBES ST, ROCKVILLE, MD, 20851",62055503,"R"
228752,"1615 FORUM PLACE SUITE 200","WEST PALM BEACH","FL",33401,26.7265836730001,-80.080982901,252,"1615 FORUM PLACE SUITE 200, WEST PALM BEACH, FL, 33401","Match","Exact","1615 FORUM PL, WEST PALM BEACH, FL, 33401",115271741,"R"
228753,"1615 FULTON STREET  APT 603","BROOKLYN","NY",11233,40.67970519,-73.936785427,253,"1615 FULTON STREET  APT 603, BROOKLYN, NY, 11233","Match","Non_Exact","1615 FULTON ST, BROOKLYN, NY, 11213",59098413,"L"
228754,"1615 FULTON STREET APT 603","BROOKLYN","NY",11233,40.67970519,-73.936785427,254,"1615 FULTON STREET APT 603, BROOKLYN, NY, 11233","Match","Non_Exact","1615 FULTON ST, BROOKLYN, NY, 11213",59098413,"L"
228755,"1615 GARDEN STREET","JACKSONVILLE","FL",32209,30.344890161,-81.694214975,255,"1615 GARDEN STREET, JACKSONVILLE, FL, 32209","Match","Exact","1615 GARDEN ST, JACKSONVILLE, FL, 32209",83893948,"R"
228756,"1615 GEORGETOWN BOULEVARD","LANSING","MI",48911,42.6640726570001,-84.574602811,256,"1615 GEORGETOWN BOULEVARD, LANSING, MI, 48911","Match","Exact","1615 GEORGETOWN BLVD, LANSING, MI, 48911",17525025,"R"
228757,"1615 GOETHALS DRIVE","RICHLAND","WA",99354,46.2937353720001,-119.283142462,257,"1615 GOETHALS DRIVE, RICHLAND, WA, 99354","Match","Exact","1615 GOETHALS DR, RICHLAND, WA, 99354",174987054,"L"
228758,"1615 GREENFIELD AVE","LOS ANGELES","CA",90025,34.050269112,-118.442655348,258,"1615 GREENFIELD AVE, LOS ANGELES, CA, 90025","Match","Exact","1615 GREENFIELD AVE, LOS ANGELES, CA, 90025",652036812,"R"
228759,"1615 GREGG AVENUE APT 37","FLORENCE","SC",29501,34.1922816650001,-79.797278115,259,"1615 GREGG AVENUE APT 37, FLORENCE, SC, 29501","Match","Exact","1615 GREGG AVE, FLORENCE, SC, 29501",28877592,"R"
228760,"1615 HADDOCK ST","MCKINNEY","TX",75069,33.212634645,-96.626822837,260,"1615 HADDOCK ST, MCKINNEY, TX, 75069","Match","Exact","1615 HADDOCK ST, MCKINNEY, TX, 75069",123491468,"L"
228761,"1615 HAMPTON AVE APT 11","SAINT LOUIS","MO",63139,38.623062089,-90.288331687,261,"1615 HAMPTON AVE APT 11, SAINT LOUIS, MO, 63139","Match","Exact","1615 HAMPTON AVE, SAINT LOUIS, MO, 63139",107594344,"R"
228762,"1615 HANNA LANE","LONDONDERRY","OH",45647,39.2617126210001,-82.808930104,262,"1615 HANNA LANE, LONDONDERRY, OH, 45647","Match","Exact","1615 HANNA LN, LONDONDERRY, OH, 45647",37484418,"R"
228763,"1615 HARLAN RD","WAYNESVILLE","OH",45068,39.550972431,-84.163128181,263,"1615 HARLAN RD, WAYNESVILLE, OH, 45068","Match","Exact","1615 HARLAN RD, WAYNESVILLE, OH, 45068",159020397,"R"
228764,"1615 HARLAN ROAD","WAYNESVILLE","OH",45068,39.550972431,-84.163128181,264,"1615 HARLAN ROAD, WAYNESVILLE, OH, 45068","Match","Exact","1615 HARLAN RD, WAYNESVILLE, OH, 45068",159020397,"R"
228765,"1615 HERMANN DRIVE UNIT 1210","HOUSTON","TX",77004,29.720867174,-95.385518952,265,"1615 HERMANN DRIVE UNIT 1210, HOUSTON, TX, 77004","Match","Exact","1615 HERMANN DR, HOUSTON, TX, 77004",96065220,"L"
228766,"1615 HIGHGROVE DR","ESCONDIDO","CA",92027,33.104641239,-117.03626303,266,"1615 HIGHGROVE DR, ESCONDIDO, CA, 92027","Match","Non_Exact","1615 HIGH GROVE DR, ESCONDIDO, CA, 92027",195709991,"R"
228767,"1615 HIGHWAY 17 UNIT 18","YOUNG HARRIS","GA",30582,NA,NA,267,"1615 HIGHWAY 17 UNIT 18, YOUNG HARRIS, GA, 30582","No_Match",NA,NA,NA,NA
228768,"1615 HIGHWAY 82","GREENVILLE","MS",38701,33.3831687580001,-91.068215144,268,"1615 HIGHWAY 82, GREENVILLE, MS, 38701","Match","Non_Exact","1615 HWY 82 W, GREENVILLE, MS, 38701",1181710,"R"
228769,"1615 HILTON AVENUE","WOODBRIDGE","VA",22191,38.663948987,-77.262662319,269,"1615 HILTON AVENUE, WOODBRIDGE, VA, 22191","Match","Non_Exact","1615 HYLTON AVE, WOODBRIDGE, VA, 22191",76511038,"L"
228770,"1615 HINKSON AVE","COLUMBIA","MO",65201,38.956625563,-92.3161446989999,270,"1615 HINKSON AVE, COLUMBIA, MO, 65201","Match","Exact","1615 HINKSON AVE, COLUMBIA, MO, 65201",23481342,"L"
228771,"1615 JACKSON SCHOOL HOUSE ROAD","PASCOAG","RI",2859,41.9333254680001,-71.723110183,271,"1615 JACKSON SCHOOL HOUSE ROAD, PASCOAG, RI, 2859","Match","Exact","1615 JACKSON SCHOOL HOUSE RD, PASCOAG, RI, 02859",47444217,"L"
228772,"1615 JAMES AVE","REDWOOD CITY","CA",94062,37.4746712560001,-122.245947978,272,"1615 JAMES AVE, REDWOOD CITY, CA, 94062","Match","Exact","1615 JAMES AVE, REDWOOD CITY, CA, 94062",640126947,"L"
228773,"1615 JEFFERSON ST","JOLIET","IL",60435,41.522735391,-88.120813643,273,"1615 JEFFERSON ST, JOLIET, IL, 60435","Match","Non_Exact","1615 W JEFFERSON ST, JOLIET, IL, 60435",111540065,"R"
228774,"1615 JOHN HILL ROAD","EUREKA","CA",95501,40.7943332900001,-124.133811208,274,"1615 JOHN HILL ROAD, EUREKA, CA, 95501","Match","Exact","1615 JOHN HILL RD, EUREKA, CA, 95501",113008924,"R"
228775,"1615 JOHN WEST ROAD STE 626","DALLAS","TX",75228,32.807112186,-96.68803762,275,"1615 JOHN WEST ROAD STE 626, DALLAS, TX, 75228","Match","Exact","1615 JOHN WEST RD, DALLAS, TX, 75228",103231704,"R"
228776,"1615 JOHNSON ST APT A","RED BLUFF","CA",96080,40.181525606,-122.249212861,276,"1615 JOHNSON ST APT A, RED BLUFF, CA, 96080","Match","Exact","1615 JOHNSON ST, RED BLUFF, CA, 96080",119367916,"L"
228777,"1615 KATHERINE COURT","MARSHFIELD","WI",54449,44.6834974540001,-90.1559181379999,277,"1615 KATHERINE COURT, MARSHFIELD, WI, 54449","Match","Exact","1615 KATHERINE CT, MARSHFIELD, WI, 54449",51276218,"R"
228778,"1615 KENYON STREET NW APT 52","WASHINGTON","DC",20010,38.9298741960001,-77.038027052,278,"1615 KENYON STREET NW APT 52, WASHINGTON, DC, 20010","Match","Exact","1615 KENYON ST NW, WASHINGTON, DC, 20010",76222900,"R"
228779,"1615 KINGSBRIDGE","SAN ANTONIO","TX",78253,29.4462395,-98.717975703,279,"1615 KINGSBRIDGE, SAN ANTONIO, TX, 78253","Match","Exact","1615 KINGSBRIDGE, SAN ANTONIO, TX, 78253",101687552,"R"
228780,"1615 KIRKGATE LANE","MIDLOTHIAN","VA",23114,37.4665698420001,-77.627815278,280,"1615 KIRKGATE LANE, MIDLOTHIAN, VA, 23114","Match","Exact","1615 KIRKGATE LN, MIDLOTHIAN, VA, 23114",201565646,"L"
228781,"1615 KYBURZ CT","STOCKTON","CA",95206,37.9298418170001,-121.309400331,281,"1615 KYBURZ CT, STOCKTON, CA, 95206","Match","Exact","1615 KYBURZ CT, STOCKTON, CA, 95206",133884150,"R"
228782,"1615 LAGUNA DEL MAR APT 207","LAREDO","TX",78041,NA,NA,282,"1615 LAGUNA DEL MAR APT 207, LAREDO, TX, 78041","No_Match",NA,NA,NA,NA
228783,"1615 LAKE CYRUS CLUB DRIVE","HOOVER","AL",35244,33.346558154,-86.884740315,283,"1615 LAKE CYRUS CLUB DRIVE, HOOVER, AL, 35244","Match","Exact","1615 LAKE CYRUS CLUB DR, HOOVER, AL, 35244",81674450,"L"
228784,"1615 LAKE STREET","EVANSTON","IL",60201,42.044280918,-87.6953656809999,284,"1615 LAKE STREET, EVANSTON, IL, 60201","Match","Exact","1615 LAKE ST, EVANSTON, IL, 60201",111743314,"R"
228785,"1615 LAKEVIEW WAY","OGDEN","UT",84403,41.1740107360001,-111.938094627,285,"1615 LAKEVIEW WAY, OGDEN, UT, 84403","Match","Exact","1615 LAKEVIEW WAY, OGDEN, UT, 84403",632871181,"L"
228786,"1615 LANDAU ROAD","JACKSONVILLE","FL",32225,30.346814641,-81.5512059019999,286,"1615 LANDAU ROAD, JACKSONVILLE, FL, 32225","Match","Exact","1615 LANDAU RD, JACKSONVILLE, FL, 32225",626403809,"R"
228787,"1615 LAPLANTE ST","VINCENNES","IN",47591,NA,NA,287,"1615 LAPLANTE ST, VINCENNES, IN, 47591","No_Match",NA,NA,NA,NA
228788,"1615 LARCHMONT PL","MOUNT LAUREL","NJ",8054,NA,NA,288,"1615 LARCHMONT PL, MOUNT LAUREL, NJ, 8054","No_Match",NA,NA,NA,NA
228789,"1615 LAUREL AVE ROOM 901","KNOXVILLE","TN",37996,35.9594428460001,-83.932117471,289,"1615 LAUREL AVE ROOM 901, KNOXVILLE, TN, 37996","Match","Non_Exact","1615 LAUREL AVE, KNOXVILLE, TN, 37916",638478079,"R"
228790,"1615 LAUREL LN","MUNSTER","IN",46321,41.5356452930001,-87.4891924619999,290,"1615 LAUREL LN, MUNSTER, IN, 46321","Match","Exact","1615 LAUREL LN, MUNSTER, IN, 46321",606279997,"R"
228791,"1615 LINCOLN PL APT 4","BROOKLYN","NY",11233,40.6693133480001,-73.923117098,291,"1615 LINCOLN PL APT 4, BROOKLYN, NY, 11233","Match","Exact","1615 LINCOLN PL, BROOKLYN, NY, 11233",652212713,"L"
228792,"1615 LINDA DR SW","CLINTON","MS",39056,NA,NA,292,"1615 LINDA DR SW, CLINTON, MS, 39056","Tie",NA,NA,NA,NA
228793,"1615 LINDEN BLVD","VINELAND","NJ",8361,39.460231365,-74.975753044,293,"1615 LINDEN BLVD, VINELAND, NJ, 8361","Match","Exact","1615 LINDEN BLVD, VINELAND, NJ, 08361",174115738,"L"
228794,"1615 LIVE OAK LANE","ALLEN","TX",75002,33.1122549400001,-96.631753353,294,"1615 LIVE OAK LANE, ALLEN, TX, 75002","Match","Exact","1615 LIVE OAK LN, ALLEN, TX, 75002",123525293,"L"
228795,"1615 LOCH LOMOND LANE","SAN JOSE","CA",95129,37.2952124120001,-122.025508608,295,"1615 LOCH LOMOND LANE, SAN JOSE, CA, 95129","Match","Exact","1615 LOCH LOMOND LN, SAN JOSE, CA, 95129",122941008,"R"
228796,"1615 MAIN STREET NE","LIVE OAK","FL",32064,30.2923214670001,-82.9648862829999,296,"1615 MAIN STREET NE, LIVE OAK, FL, 32064","Match","Exact","1615 MAIN ST NE, LIVE OAK, FL, 32064",41090477,"R"
228797,"1615 MANCHESTER LANE","WASHINGTON","DC",20011,38.9609735170001,-77.036686436,297,"1615 MANCHESTER LANE, WASHINGTON, DC, 20011","Match","Non_Exact","1615 MANCHESTER LN NW, WASHINGTON, DC, 20011",76222246,"R"
228798,"1615 MAYWOOD ROAD","SOUTH EUCLID","OH",44121,41.51601271,-81.515096484,298,"1615 MAYWOOD ROAD, SOUTH EUCLID, OH, 44121","Match","Exact","1615 MAYWOOD RD, SOUTH EUCLID, OH, 44121",61125754,"L"
228799,"1615 MCKINLEY AVENUE","NEW BERN","NC",28562,35.0971260200001,-77.063509602,299,"1615 MCKINLEY AVENUE, NEW BERN, NC, 28562","Match","Exact","1615 MCKINLEY AVE, NEW BERN, NC, 28562",34118783,"L"
228800,"1615 MEIRWOODS DR","SPRING","TX",77379,30.0471598500001,-95.573417359,300,"1615 MEIRWOODS DR, SPRING, TX, 77379","Match","Exact","1615 MEIRWOODS DR, SPRING, TX, 77379",630342300,"L"
228801,"1615 MILL STREET","JASPER","IN",47546,38.4018279920001,-86.928564874,301,"1615 MILL STREET, JASPER, IN, 47546","Match","Exact","1615 MILL ST, JASPER, IN, 47546",7870624,"L"
228802,"1615 MILLINGTON","WINFIELD","KS",67156,37.2329268780001,-96.995690499,302,"1615 MILLINGTON, WINFIELD, KS, 67156","Match","Non_Exact","1615 MILLINGTON ST, WINFIELD, KS, 67156",44349159,"L"
228803,"1615 MT HIGH ST","WOODBRIDGE","VA",22192,38.678644272,-77.2626669649999,303,"1615 MT HIGH ST, WOODBRIDGE, VA, 22192","Match","Exact","1615 MOUNT HIGH ST, WOODBRIDGE, VA, 22192",635411908,"L"
228804,"1615 N 48TH ST","WASHINGTON PARK","IL",62204,38.6308610400001,-90.099432425,304,"1615 N 48TH ST, WASHINGTON PARK, IL, 62204","Match","Exact","1615 N 48TH ST, WASHINGTON PK, IL, 62204",107834620,"L"
228805,"1615 N 50TH PLACE","MILWAUKEE","WI",53208,43.051698791,-87.976748188,305,"1615 N 50TH PLACE, MILWAUKEE, WI, 53208","Match","Exact","1615 N 50TH PL, MILWAUKEE, WI, 53208",77733855,"L"
228806,"1615 N 57TH DRIVE","PHOENIX","AZ",85035,33.466203911,-112.183201332,306,"1615 N 57TH DRIVE, PHOENIX, AZ, 85035","Match","Exact","1615 N 57TH DR, PHOENIX, AZ, 85035",128200329,"R"
228807,"1615 N 5TH ST","NILES","MI",49120,41.8434832560001,-86.250866864,307,"1615 N 5TH ST, NILES, MI, 49120","Match","Exact","1615 N 5TH ST, NILES, MI, 49120",119998384,"L"
228808,"1615 N 7TH AVE E","DULUTH","MN",55805,46.807947369,-92.104493643,308,"1615 N 7TH AVE E, DULUTH, MN, 55805","Match","Exact","1615 N 7TH AVE E, DULUTH, MN, 55805",163211537,"L"
228809,"1615 N ALSTON STREET","FOLEY","AL",36535,30.425068706,-87.6853695459999,309,"1615 N ALSTON STREET, FOLEY, AL, 36535","Match","Exact","1615 N ALSTON ST, FOLEY, AL, 36535",647793458,"L"
228810,"1615 N ASHLAND AVE","EAST WENATCHEE","WA",98802,47.4298208010001,-120.294414665,310,"1615 N ASHLAND AVE, EAST WENATCHEE, WA, 98802","Match","Exact","1615 N ASHLAND AVE, EAST WENATCHEE, WA, 98802",156903846,"L"
228811,"1615 N CHAPEL HILL ST","WICHITA","KS",67206,37.713367061,-97.202884021,311,"1615 N CHAPEL HILL ST, WICHITA, KS, 67206","Match","Exact","1615 N CHAPEL HILL ST, WICHITA, KS, 67206",115714190,"L"
228812,"1615 N ELWOOD AVE","TULSA","OK",74106,36.179022053,-96.000621356,312,"1615 N ELWOOD AVE, TULSA, OK, 74106","Match","Exact","1615 N ELWOOD AVE, TULSA, OK, 74106",166436686,"R"
228813,"1615 N FARRIS AVENUE","FRESNO","CA",93704,36.7651088220001,-119.811988125,313,"1615 N FARRIS AVENUE, FRESNO, CA, 93704","Match","Exact","1615 N FARRIS AVE, FRESNO, CA, 93704",197569815,"L"
228814,"1615 N HILLS DR","ROCKWALL","TX",75087,32.9373453640001,-96.478111928,314,"1615 N HILLS DR, ROCKWALL, TX, 75087","Match","Exact","1615 N HILLS DR, ROCKWALL, TX, 75087",123784889,"R"
228815,"1615 N HONORE ST","CHICAGO","IL",60622,41.911110046,-87.673808599,315,"1615 N HONORE ST, CHICAGO, IL, 60622","Match","Exact","1615 N HONORE ST, CHICAGO, IL, 60622",605067958,"R"
228816,"1615 N MOHAWK ST","CHICAGO","IL",60614,41.911463661,-87.64222841,316,"1615 N MOHAWK ST, CHICAGO, IL, 60614","Match","Exact","1615 N MOHAWK ST, CHICAGO, IL, 60614",605838402,"R"
228817,"1615 N RUTHERFORD AVE 2","CHICAGO","IL",60707,41.909800805,-87.79357929,317,"1615 N RUTHERFORD AVE 2, CHICAGO, IL, 60707","Match","Non_Exact","1615 N RUTHERFORD AVE, CHICAGO, IL, 60707",605025004,"R"
228818,"1615 N RUTHERFORD AVE","CHICAGO","IL",60707,41.909800805,-87.79357929,318,"1615 N RUTHERFORD AVE, CHICAGO, IL, 60707","Match","Exact","1615 N RUTHERFORD AVE, CHICAGO, IL, 60707",605025004,"R"
228819,"1615 N SHANNON","SHERMAN","TX",75092,33.6510492730001,-96.616751672,319,"1615 N SHANNON, SHERMAN, TX, 75092","Match","Non_Exact","1615 SHANNON ST, SHERMAN, TX, 75092",63353931,"R"
228820,"1615 NANTUCKET DRIVE","RICHARDSON","TX",75030,32.971998887,-96.740066008,320,"1615 NANTUCKET DRIVE, RICHARDSON, TX, 75030","Match","Non_Exact","1615 NANTUCKET DR, RICHARDSON, TX, 75080",102896574,"L"
228821,"1615 NARCISSUS STREET","SALEM","VA",24153,37.293920174,-80.0851814229999,321,"1615 NARCISSUS STREET, SALEM, VA, 24153","Match","Exact","1615 NARCISSUS ST, SALEM, VA, 24153",62900424,"R"
228822,"1615 NORTHRIDGE DRIVE","WAYZATA","MN",55391,45.0086303190001,-93.531889607,322,"1615 NORTHRIDGE DRIVE, WAYZATA, MN, 55391","Match","Exact","1615 NORTHRIDGE DR, WAYZATA, MN, 55391",43848209,"R"
228823,"1615 NW 27TH CT","ANKENY","IA",50023,41.754066026,-93.621143548,323,"1615 NW 27TH CT, ANKENY, IA, 50023","Match","Exact","1615 NW 27TH CT, ANKENY, IA, 50023",641300978,"R"
228824,"1615 NW 42ND PL","OKLAHOMA CITY","OK",73118,35.5152804000001,-97.539061395,324,"1615 NW 42ND PL, OKLAHOMA CITY, OK, 73118","Match","Exact","1615 NW 42ND PL, OKLAHOMA CITY, OK, 73118",100397286,"R"
228825,"1615 NW 46TH STREET","TAMARAC","FL",33309,26.184337983,-80.164305741,325,"1615 NW 46TH STREET, TAMARAC, FL, 33309","Match","Exact","1615 NW 46TH ST, TAMARAC, FL, 33309",114718179,"R"
228826,"1615 OAK BROOK LANE","ORCUTT","CA",93455,NA,NA,326,"1615 OAK BROOK LANE, ORCUTT, CA, 93455","No_Match",NA,NA,NA,NA
228827,"1615 OAK PARK COURT","IRON STATION","NC",28080,35.450128643,-81.1026362599999,327,"1615 OAK PARK COURT, IRON STATION, NC, 28080","Match","Exact","1615 OAK PARK CT, IRON STATION, NC, 28080",69539841,"L"
228828,"1615 OLD LAKE LN","FRUIT HEIGHTS","UT",84037,41.0228288490001,-111.901623814,328,"1615 OLD LAKE LN, FRUIT HEIGHTS, UT, 84037","Match","Exact","1615 OLD LAKE LN, FRUIT HEIGHTS, UT, 84037",229360655,"R"
228829,"1615 OLD MILL STREAM","CORDOVA","TN",38016,35.169401899,-89.787908772,329,"1615 OLD MILL STREAM, CORDOVA, TN, 38016","Match","Non_Exact","1615 OLD MILL STREAM DR, CORDOVA, TN, 38016",72945580,"R"
228830,"1615 OLIVE ST APT B","SANTA BARBARA","CA",93101,34.4325820110001,-119.704171138,330,"1615 OLIVE ST APT B, SANTA BARBARA, CA, 93101","Match","Exact","1615 OLIVE ST, SANTA BARBARA, CA, 93101",108605021,"L"
228831,"1615 OSAGE RD","BIG SPRING","TX",79720,32.2357752070001,-101.486301555,331,"1615 OSAGE RD, BIG SPRING, TX, 79720","Match","Exact","1615 OSAGE RD, BIG SPRING, TX, 79720",182878099,"R"
228832,"1615 PALERMO DR","WESTON","FL",33327,26.136357919,-80.417559717,332,"1615 PALERMO DR, WESTON, FL, 33327","Match","Exact","1615 PALERMO DR, WESTON, FL, 33327",114811579,"R"
228833,"1615 PASEO DIAMANTE","HEMET","CA",92545,33.7194375280001,-117.029021868,333,"1615 PASEO DIAMANTE, HEMET, CA, 92545","Match","Non_Exact","1615 PSO DIAMANTE, HEMET, CA, 92545",618340249,"L"
228834,"1615 PEACH STREET APT 1","ANN ARBOR","MI",48105,42.2967115810001,-83.734789639,334,"1615 PEACH STREET APT 1, ANN ARBOR, MI, 48105","Match","Exact","1615 PEACH ST, ANN ARBOR, MI, 48105",26013496,"L"
228835,"1615 PEARL AVENUE","ALBANY","GA",31707,31.6110756900001,-84.185851794,335,"1615 PEARL AVENUE, ALBANY, GA, 31707","Match","Exact","1615 PEARL AVE, ALBANY, GA, 31707",84332276,"R"
228836,"1615 PINE HOLLOW ROAD","MCKEES ROCKS","PA",15136,40.4756785610001,-80.0854382799999,336,"1615 PINE HOLLOW ROAD, MCKEES ROCKS, PA, 15136","Match","Non_Exact","1615 PINE HOLLOW RD, MC KEES ROCKS, PA, 15136",623339945,"R"
228837,"1615 PINKERTON RD","BRENTWOOD","TN",37027,35.9972761180001,-86.711272072,337,"1615 PINKERTON RD, BRENTWOOD, TN, 37027","Match","Exact","1615 PINKERTON RD, BRENTWOOD, TN, 37027",635639032,"R"
228838,"1615 PLANTATION DRIVE","RICHMOND","TX",77406,29.625708978,-95.731581363,338,"1615 PLANTATION DRIVE, RICHMOND, TX, 77406","Match","Exact","1615 PLANTATION DR, RICHMOND, TX, 77406",78264621,"R"
228839,"1615 PLATEAU","GALLUP","NM",87301,35.518853445,-108.713025373,339,"1615 PLATEAU, GALLUP, NM, 87301","Match","Non_Exact","1615 PLATEAU CIR, GALLUP, NM, 87301",178850189,"L"
228840,"1615 PLUMWOOD","HOUSTON","TX",77014,29.9714665230001,-95.441955971,340,"1615 PLUMWOOD, HOUSTON, TX, 77014","Match","Non_Exact","1615 PLUMWOOD DR, HOUSTON, TX, 77014",96011501,"L"
228841,"1615 POYDRAS ST  STE 900","NEW ORLEANS","LA",70112,29.9524742090001,-90.079781324,341,"1615 POYDRAS ST  STE 900, NEW ORLEANS, LA, 70112","Match","Exact","1615 POYDRAS ST, NEW ORLEANS, LA, 70112",191709963,"R"
228842,"1615 POYDRAS ST STE 1280","NEW ORLEANS","LA",70112,29.9524742090001,-90.079781324,342,"1615 POYDRAS ST STE 1280, NEW ORLEANS, LA, 70112","Match","Exact","1615 POYDRAS ST, NEW ORLEANS, LA, 70112",191709963,"R"
228843,"1615 POYDRAS ST STE 700","NEW ORLEANS","LA",70112,29.9524742090001,-90.079781324,343,"1615 POYDRAS ST STE 700, NEW ORLEANS, LA, 70112","Match","Exact","1615 POYDRAS ST, NEW ORLEANS, LA, 70112",191709963,"R"
228844,"1615 PRESTWICK AVE","SUGAR LAND","TX",77479,29.5897552590001,-95.645086412,344,"1615 PRESTWICK AVE, SUGAR LAND, TX, 77479","Match","Exact","1615 PRESTWICK AVE, SUGAR LAND, TX, 77479",617955364,"L"
228845,"1615 Q ST NW 301","WASHINGTON","DC",20009,38.911132498,-77.037459831,345,"1615 Q ST NW 301, WASHINGTON, DC, 20009","Match","Exact","1615 Q ST NW, WASHINGTON, DC, 20009",641969469,"R"
228846,"1615 Q STREET NW 801","WASHINGTON","DC",20009,38.911132498,-77.037459831,346,"1615 Q STREET NW 801, WASHINGTON, DC, 20009","Match","Exact","1615 Q ST NW, WASHINGTON, DC, 20009",641969469,"R"
228847,"1615 RAELL DRIVE","YORK","NE",68467,40.861944368,-97.574477504,347,"1615 RAELL DRIVE, YORK, NE, 68467","Match","Exact","1615 RAELL DR, YORK, NE, 68467",649917512,"L"
228848,"1615 RAINIER ST","STEILACOOM","WA",98388,47.1716947300001,-122.598567966,348,"1615 RAINIER ST, STEILACOOM, WA, 98388","Match","Exact","1615 RAINIER ST, STEILACOOM, WA, 98388",184617811,"L"
228849,"1615 RANGER RD","MURPHY","NC",28906,35.0440175700001,-84.128858227,349,"1615 RANGER RD, MURPHY, NC, 28906","Match","Exact","1615 RANGER RD, MURPHY, NC, 28906",627842866,"L"
228850,"1615 RD 51","GOODLAND","KS",67735,39.147945157,-101.775487182,350,"1615 RD 51, GOODLAND, KS, 67735","Match","Non_Exact","1615 CO RD 51, GOODLAND, KS, 67735",146655284,"L"
228851,"1615 REDWOOD ROAD APT 16A","SAN MARCOS","TX",78666,29.8417289390001,-97.93619962,351,"1615 REDWOOD ROAD APT 16A, SAN MARCOS, TX, 78666","Match","Exact","1615 REDWOOD RD, SAN MARCOS, TX, 78666",648721625,"R"
228852,"1615 REDWOOD ROAD APT 9C","SAN MARCOS","TX",78666,29.8417289390001,-97.93619962,352,"1615 REDWOOD ROAD APT 9C, SAN MARCOS, TX, 78666","Match","Exact","1615 REDWOOD RD, SAN MARCOS, TX, 78666",648721625,"R"
228853,"1615 REDWOOD ROAD OFFICE","SAN MARCOS","TX",78666,29.8417289390001,-97.93619962,353,"1615 REDWOOD ROAD OFFICE, SAN MARCOS, TX, 78666","Match","Exact","1615 REDWOOD RD, SAN MARCOS, TX, 78666",648721625,"R"
228854,"1615 REYNOLDS RD","MADISON","NC",27025,36.386302888,-80.041198344,354,"1615 REYNOLDS RD, MADISON, NC, 27025","Match","Exact","1615 REYNOLDS RD, MADISON, NC, 27025",56341890,"L"
228855,"1615 RIDGEVIEW CIRCLE","MONUMENT","CO",80132,39.117745787,-104.85713572,355,"1615 RIDGEVIEW CIRCLE, MONUMENT, CO, 80132","Match","Exact","1615 RIDGEVIEW CIR, MONUMENT, CO, 80132",105507692,"L"
228856,"1615 RINES RD","TALBOTT","TN",37877,36.172115519,-83.454761102,356,"1615 RINES RD, TALBOTT, TN, 37877","Match","Exact","1615 RINES RD, TALBOTT, TN, 37877",42223900,"L"
228857,"1615 RIVERVIEW DR","NORTHFIELD","MN",55057,44.4411041560001,-93.1860770389999,357,"1615 RIVERVIEW DR, NORTHFIELD, MN, 55057","Match","Exact","1615 RIVERVIEW DR, NORTHFIELD, MN, 55057",37326660,"L"
228858,"1615 ROYALTON DRIVE","CARMEL","IN",46032,39.9328063900001,-86.1876998829999,358,"1615 ROYALTON DRIVE, CARMEL, IN, 46032","Match","Exact","1615 ROYALTON DR, CARMEL, IN, 46032",29296435,"L"
228859,"1615 S 19TH AVENUE","MAYWOOD","IL",60153,41.8722388630001,-87.855818837,359,"1615 S 19TH AVENUE, MAYWOOD, IL, 60153","Match","Exact","1615 S 19TH AVE, MAYWOOD, IL, 60153",111790909,"L"
228860,"1615 S 4TH STREET APT M2809","MINNEAPOLIS","MN",55454,44.970568551,-93.247992975,360,"1615 S 4TH STREET APT M2809, MINNEAPOLIS, MN, 55454","Match","Non_Exact","1615 S 4TH ST, MINNEAPOLIS, MN, 55454",650121944,"R"
228861,"1615 S 6TH ST APT 306","MINNEAPOLIS","MN",55454,44.9681296680001,-93.248476764,361,"1615 S 6TH ST APT 306, MINNEAPOLIS, MN, 55454","Match","Non_Exact","1615 6TH ST S, MINNEAPOLIS, MN, 55454",43636861,"R"
228862,"1615 S 85TH ST E","MUSKOGEE","OK",74403,35.7288936140001,-95.233800109,362,"1615 S 85TH ST E, MUSKOGEE, OK, 74403","Match","Exact","1615 S 85TH ST E, MUSKOGEE, OK, 74403",91962770,"L"
228863,"1615 S EOLA","ORLANDO","FL",32801,NA,NA,363,"1615 S EOLA, ORLANDO, FL, 32801","No_Match",NA,NA,NA,NA
228864,"1615 S INGRAM MILL BLDG F","SPRINGFIELD","MO",65804,NA,NA,364,"1615 S INGRAM MILL BLDG F, SPRINGFIELD, MO, 65804","No_Match",NA,NA,NA,NA
228865,"1615 S MAIN ST","ANDERSON","SC",29624,34.489152942,-82.647640446,365,"1615 S MAIN ST, ANDERSON, SC, 29624","Match","Exact","1615 S MAIN ST, ANDERSON, SC, 29624",25452915,"L"
228866,"1615 S OAK ST","BARTLESVILLE","OK",74003,NA,NA,366,"1615 S OAK ST, BARTLESVILLE, OK, 74003","No_Match",NA,NA,NA,NA
228867,"1615 S SMITH RD","EATON RAPIDS","MI",48827,42.5432261600001,-84.64101131,367,"1615 S SMITH RD, EATON RAPIDS, MI, 48827","Match","Exact","1615 S SMITH RD, EATON RAPIDS, MI, 48827",12036376,"L"
228868,"1615 S WOOLSEY ST","BESSEMER","MI",49911,46.467560812,-90.066407307,368,"1615 S WOOLSEY ST, BESSEMER, MI, 49911","Match","Exact","1615 S WOOLSEY ST, BESSEMER, MI, 49911",164966808,"R"
228869,"1615 S ZANG BLVD  APT 4304","DALLAS","TX",75224,32.7293732740001,-96.8280130539999,369,"1615 S ZANG BLVD  APT 4304, DALLAS, TX, 75224","Match","Non_Exact","1615 S ZANG BLVD, DALLAS, TX, 75224",102946813,"R"
228870,"1615 SAN EDUARDO AVE","LAREDO","TX",78040,27.5135379390001,-99.501630929,370,"1615 SAN EDUARDO AVE, LAREDO, TX, 78040","Match","Exact","1615 SAN EDUARDO AVE, LAREDO, TX, 78040",21671618,"R"
228871,"1615 SE BETHEL DR","CORVALLIS","OR",97333,44.5499606670001,-123.258694549,371,"1615 SE BETHEL DR, CORVALLIS, OR, 97333","Match","Non_Exact","1615 SE BETHEL ST, CORVALLIS, OR, 97333",155847574,"R"
228872,"1615 SE BLEASNER DR APT 31","PULLMAN","WA",99163,46.7204691000001,-117.161101271,372,"1615 SE BLEASNER DR APT 31, PULLMAN, WA, 99163","Match","Non_Exact","1615 SE BLEASNER DR, PULLMAN, WA, 99163",173295203,"L"
228873,"1615 SE BLEASNER DRIVE APT 42","PULLMAN","WA",99163,46.7204691000001,-117.161101271,373,"1615 SE BLEASNER DRIVE APT 42, PULLMAN, WA, 99163","Match","Non_Exact","1615 SE BLEASNER DR, PULLMAN, WA, 99163",173295203,"L"
228874,"1615 SEABREEZE DR","GRAND PRAIRIE","TX",75051,32.723127107,-96.9766590149999,374,"1615 SEABREEZE DR, GRAND PRAIRIE, TX, 75051","Match","Exact","1615 SEABREEZE DR, GRAND PRAIRIE, TX, 75051",619124088,"R"
228875,"1615 SHADOW BROOK WAY","ALPHARETTA","GA",30005,34.0963622950001,-84.1914067339999,375,"1615 SHADOW BROOK WAY, ALPHARETTA, GA, 30005","Match","Exact","1615 SHADOW BROOK WAY, ALPHARETTA, GA, 30005",70187206,"R"
228876,"1615 SHANLEY DR APT 8","COLUMBUS","OH",43224,40.0554107500001,-82.975343901,376,"1615 SHANLEY DR APT 8, COLUMBUS, OH, 43224","Match","Exact","1615 SHANLEY DR, COLUMBUS, OH, 43224",218685578,"R"
228877,"1615 SHARPS HILL RD","PITTSBURGH","PA",15215,40.5106011,-79.9365811979999,377,"1615 SHARPS HILL RD, PITTSBURGH, PA, 15215","Match","Exact","1615 SHARPS HILL RD, PITTSBURGH, PA, 15215",607623223,"L"
228878,"1615 SHEFFIELD DRIVE UNIT D","COLUMBUS","GA",31907,32.4790366660001,-84.932950912,378,"1615 SHEFFIELD DRIVE UNIT D, COLUMBUS, GA, 31907","Match","Exact","1615 SHEFFIELD DR, COLUMBUS, GA, 31907",98951821,"L"
228879,"1615 SHERIDAN ROAD","SOUTH EUCLID","OH",44121,41.516070024,-81.5124061609999,379,"1615 SHERIDAN ROAD, SOUTH EUCLID, OH, 44121","Match","Exact","1615 SHERIDAN RD, SOUTH EUCLID, OH, 44121",61125767,"L"
228880,"1615 SOUTH 4TH ST M3904","MINNEAPOLIS","MN",55454,44.970568692,-93.2479932959999,380,"1615 SOUTH 4TH ST M3904, MINNEAPOLIS, MN, 55454","Match","Exact","1615 S 4TH ST, MINNEAPOLIS, MN, 55454",650121944,"R"
228881,"1615 SOUTH 4TH STREET 2511","MINNEAPOLIS","MN",55454,44.970568692,-93.2479932959999,381,"1615 SOUTH 4TH STREET 2511, MINNEAPOLIS, MN, 55454","Match","Exact","1615 S 4TH ST, MINNEAPOLIS, MN, 55454",650121944,"R"
228882,"1615 SOUTH 4TH STREET APT M2402","MINNAPOLIS","MN",55454,44.970568692,-93.2479932959999,382,"1615 SOUTH 4TH STREET APT M2402, MINNAPOLIS, MN, 55454","Match","Non_Exact","1615 S 4TH ST, MINNEAPOLIS, MN, 55454",650121944,"R"
228883,"1615 SOUTH GALLATIN ST","JACKSON","MS",39201,32.280405081,-90.193039703,383,"1615 SOUTH GALLATIN ST, JACKSON, MS, 39201","Match","Exact","1615 S GALLATIN ST, JACKSON, MS, 39201",65372429,"R"
228884,"1615 SOUTH GALLATIN STREET","JACKSON","MS",39201,32.280405081,-90.193039703,384,"1615 SOUTH GALLATIN STREET, JACKSON, MS, 39201","Match","Exact","1615 S GALLATIN ST, JACKSON, MS, 39201",65372429,"R"
228885,"1615 STATE RTE 29","HUNLOCK CREEK","PA",18621,41.2911942710001,-76.0909642129999,385,"1615 STATE RTE 29, HUNLOCK CREEK, PA, 18621","Match","Exact","1615 STATE RTE 29, HUNLOCK CREEK, PA, 18621",80904323,"R"
228886,"1615 STURM AVE","WALLA WALLA","WA",99362,46.0505760300001,-118.306935598,386,"1615 STURM AVE, WALLA WALLA, WA, 99362","Match","Exact","1615 STURM AVE, WALLA WALLA, WA, 99362",174674496,"R"
228887,"1615 SUNRISE VALLEY DRIVE","GREENSBORO","NC",27405,36.0996194730001,-79.768503858,387,"1615 SUNRISE VALLEY DRIVE, GREENSBORO, NC, 27405","Match","Exact","1615 SUNRISE VALLEY DR, GREENSBORO, NC, 27405",638684160,"L"
228888,"1615 SUNSET ST","NEWCASTLE","WY",82701,43.8537803500001,-104.224888198,388,"1615 SUNSET ST, NEWCASTLE, WY, 82701","Match","Exact","1615 SUNSET ST, NEWCASTLE, WY, 82701",147492405,"L"
228889,"1615 SUNSET TERRACE","FORT WORTH","TX",76102,32.743194138,-97.343474381,389,"1615 SUNSET TERRACE, FORT WORTH, TX, 76102","Match","Exact","1615 SUNSET TER, FORT WORTH, TX, 76102",102189302,"L"
228890,"1615 SW 35TH ST","CORVALLIS","OR",97333,44.5501126300001,-123.289615766,390,"1615 SW 35TH ST, CORVALLIS, OR, 97333","Match","Exact","1615 SW 35TH ST, CORVALLIS, OR, 97333",155870487,"R"
228891,"1615 SW MORRISON ST APT 401","PORTLAND","OR",97205,45.5216841340001,-122.688340566,391,"1615 SW MORRISON ST APT 401, PORTLAND, OR, 97205","Match","Non_Exact","1615 SW MORRISON ST, PORTLAND, OR, 97205",157498941,"R"
228892,"1615 SW VINTAGE PKWY","ANKENY","IA",50023,41.7151245950001,-93.627343615,392,"1615 SW VINTAGE PKWY, ANKENY, IA, 50023","Match","Exact","1615 SW VINTAGE PKWY, ANKENY, IA, 50023",624422294,"L"
228893,"1615 SWEETBY DRIVE","ALLEN","TX",75002,33.123276172,-96.627434899,393,"1615 SWEETBY DRIVE, ALLEN, TX, 75002","Match","Non_Exact","1615 SWEETBAY DR, ALLEN, TX, 75002",210529408,"L"
228894,"1615 TALL TREE LANE","DEERFIELD","IL",60015,42.177660716,-87.867193335,394,"1615 TALL TREE LANE, DEERFIELD, IL, 60015","Match","Exact","1615 TALL TREE LN, DEERFIELD, IL, 60015",119655271,"L"
228895,"1615 TALLOWOOD","NEDERLAND","TX",77627,29.9890046840001,-94.0182316779999,395,"1615 TALLOWOOD, NEDERLAND, TX, 77627","Match","Non_Exact","1615 TALLOWOOD LN, NEDERLAND, TX, 77627",73930218,"R"
228896,"1615 TAYLOR LANDING DR","BARTOW","FL",33830,27.911393785,-81.8354500949999,396,"1615 TAYLOR LANDING DR, BARTOW, FL, 33830","Match","Exact","1615 TAYLOR LANDING DR, BARTOW, FL, 33830",647889997,"R"
228897,"1615 TENDERFOOT LANE","DESOTO","TX",75115,32.6065704850001,-96.9003825039999,397,"1615 TENDERFOOT LANE, DESOTO, TX, 75115","Match","Exact","1615 TENDERFOOT LN, DESOTO, TX, 75115",102944029,"R"
228898,"1615 TERRACE PL","RAPID CITY","SD",57701,44.100407628,-103.227376021,398,"1615 TERRACE PL, RAPID CITY, SD, 57701","Match","Non_Exact","1615 N TERRACE PL, RAPID CITY, SD, 57701",205520384,"R"
228899,"1615 TERRACE ST","THE DALLES","OR",97058,NA,NA,399,"1615 TERRACE ST, THE DALLES, OR, 97058","No_Match",NA,NA,NA,NA
228900,"1615 THORNHOLLOW DR","HOUSTON","TX",77014,29.9871511040001,-95.4467924259999,400,"1615 THORNHOLLOW DR, HOUSTON, TX, 77014","Match","Non_Exact","1615 THORNEHOLLOW, HOUSTON, TX, 77014",624515265,"L"
228901,"1615 TIMBERLAKE TRAIL","FORT WAYNE","IN",46804,41.0698977160001,-85.262921272,401,"1615 TIMBERLAKE TRAIL, FORT WAYNE, IN, 46804","Match","Exact","1615 TIMBERLAKE TRL, FORT WAYNE, IN, 46804",6391540,"L"
228902,"1615 TURNPIKE RD","HOUSTON","TX",77008,29.786995592,-95.412807813,402,"1615 TURNPIKE RD, HOUSTON, TX, 77008","Match","Exact","1615 TURNPIKE RD, HOUSTON, TX, 77008",96060107,"R"
228903,"1615 UNION STREET","SCHENECTADY","NY",12309,42.8048543520001,-73.904844361,403,"1615 UNION STREET, SCHENECTADY, NY, 12309","Match","Exact","1615 UNION ST, SCHENECTADY, NY, 12309",18029644,"L"
228904,"1615 UNION STRRET","SCHENECTADY","NY",12309,42.8048543520001,-73.904844361,404,"1615 UNION STRRET, SCHENECTADY, NY, 12309","Match","Non_Exact","1615 UNION ST, SCHENECTADY, NY, 12309",18029644,"L"
228905,"1615 US HWY 70 W LOT 12","MAIDEN","NC",28752,NA,NA,405,"1615 US HWY 70 W LOT 12, MAIDEN, NC, 28752","No_Match",NA,NA,NA,NA
228906,"1615 US ROUTE 30","HOOKSTOWN","PA",15050,40.555591543,-80.435416801,406,"1615 US ROUTE 30, HOOKSTOWN, PA, 15050","Match","Non_Exact","1615 US HWY 30, HOOKSTOWN, PA, 15050",637379571,"L"
228907,"1615 VANCE  AVENUE","WEST CHESTER","PA",19380,40.0113131470001,-75.5443740489999,407,"1615 VANCE  AVENUE, WEST CHESTER, PA, 19380","Match","Exact","1615 VANCE AVE, WEST CHESTER, PA, 19380",179535175,"L"
228908,"1615 VILLAGE SQUARE BLVD  SUITE 2","TALLAHASSEE","FL",32309,NA,NA,408,"1615 VILLAGE SQUARE BLVD  SUITE 2, TALLAHASSEE, FL, 32309","No_Match",NA,NA,NA,NA
228909,"1615 VILLAGE SQUARE BLVD SUITE 7","TALLAHASSEE","FL",32309,NA,NA,409,"1615 VILLAGE SQUARE BLVD SUITE 7, TALLAHASSEE, FL, 32309","No_Match",NA,NA,NA,NA
228910,"1615 W 500 S","NORTH JUDSON","IN",46366,NA,NA,410,"1615 W 500 S, NORTH JUDSON, IN, 46366","No_Match",NA,NA,NA,NA
228911,"1615 W 9 MILES ROAD","FERNDALE","MI",48220,NA,NA,411,"1615 W 9 MILES ROAD, FERNDALE, MI, 48220","No_Match",NA,NA,NA,NA
228912,"1615 W BEDFORD","DIMMITT","TX",79027,34.5432087990001,-102.338658113,412,"1615 W BEDFORD, DIMMITT, TX, 79027","Match","Non_Exact","1615 W BEDFORD ST, DIMMITT, TX, 79027",186511036,"R"
228913,"1615 W CALHOUN ST","SPRINGFIELD","MO",65801,37.222345809,-93.312195982,413,"1615 W CALHOUN ST, SPRINGFIELD, MO, 65801","Match","Non_Exact","1615 W CALHOUN ST, SPRINGFIELD, MO, 65802",76674123,"R"
228914,"1615 W LOUISIANA ST","MCKINNEY","TX",75069,33.1972442750001,-96.6302773469999,414,"1615 W LOUISIANA ST, MCKINNEY, TX, 75069","Match","Exact","1615 W LOUISIANA ST, MCKINNEY, TX, 75069",210471615,"L"
228915,"1615 W PACIFIC COAST HWY APT 163","WILMINGTON","CA",90744,33.791153761,-118.24365214,415,"1615 W PACIFIC COAST HWY APT 163, WILMINGTON, CA, 90744","Match","Exact","1615 PACIFIC COAST HWY, WILMINGTON, CA, 90744",141691922,"L"
228916,"1615 W PACIFIC COAST HWY APT163","WILMINGTON","CA",90744,33.791153761,-118.24365214,416,"1615 W PACIFIC COAST HWY APT163, WILMINGTON, CA, 90744","Match","Exact","1615 PACIFIC COAST HWY, WILMINGTON, CA, 90744",141691922,"L"
228917,"1615 W PUSHMATAHA ST","BUTLER","AL",36904,32.097073741,-88.2407835,417,"1615 W PUSHMATAHA ST, BUTLER, AL, 36904","Match","Exact","1615 W PUSHMATAHA ST, BUTLER, AL, 36904",637678096,"R"
228918,"1615 W REICHE LANE","MCHENRY","IL",60051,NA,NA,418,"1615 W REICHE LANE, MCHENRY, IL, 60051","Tie",NA,NA,NA,NA
228919,"1615 W RIDGE DR","RATON","NM",87740,36.886922719,-104.461358878,419,"1615 W RIDGE DR, RATON, NM, 87740","Match","Non_Exact","1615 WESTRIDGE DR, RATON, NM, 87740",171185424,"R"
228920,"1615 W SUSQUEHANNA AVE APT 3","PHILADELPHIA","PA",19121,NA,NA,420,"1615 W SUSQUEHANNA AVE APT 3, PHILADELPHIA, PA, 19121","No_Match",NA,NA,NA,NA
228921,"1615 W TEXAS ST  STE 3","FAIRFIELD","CA",94533,38.249261393,-122.065337317,421,"1615 W TEXAS ST  STE 3, FAIRFIELD, CA, 94533","Match","Exact","1615 TEXAS ST, FAIRFIELD, CA, 94533",192563764,"L"
228922,"1615 W VENANGO STREET","PHILADELPHIA","PA",19140,40.0081490810001,-75.155275052,422,"1615 W VENANGO STREET, PHILADELPHIA, PA, 19140","Match","Exact","1615 W VENANGO ST, PHILADELPHIA, PA, 19140",131417782,"R"
228923,"1615 WATT STREET","RENO","NV",89509,39.508431618,-119.809929401,423,"1615 WATT STREET, RENO, NV, 89509","Match","Exact","1615 WATT ST, RENO, NV, 89509",107045429,"R"
228924,"1615 WAVERLY","LANSING","MI",48906,NA,NA,424,"1615 WAVERLY, LANSING, MI, 48906","No_Match",NA,NA,NA,NA
228925,"1615 WAYBRIDGE LANE APT 1A","CHARLOTTE","NC",27210,35.114281921,-80.873965122,425,"1615 WAYBRIDGE LANE APT 1A, CHARLOTTE, NC, 27210","Match","Non_Exact","1615 WAYBRIDGE LN, CHARLOTTE, NC, 28210",70587708,"L"
228926,"1615 WEST 9TH","FRIONA","TX",79035,34.6394123600001,-102.737467966,426,"1615 WEST 9TH, FRIONA, TX, 79035","Match","Non_Exact","1615 W 9TH ST, FRIONA, TX, 79035",164055960,"L"
228927,"1615 WILKERSON STREET","FLOMATON","AL",36441,31.0029043530001,-87.267109846,427,"1615 WILKERSON STREET, FLOMATON, AL, 36441","Match","Exact","1615 WILKERSON ST, FLOMATON, AL, 36441",1930172,"R"
228928,"1615 WILLOMORE STREET","GREENSBORO","NC",27403,36.048532273,-79.813712213,428,"1615 WILLOMORE STREET, GREENSBORO, NC, 27403","Match","Exact","1615 WILLOMORE ST, GREENSBORO, NC, 27403",131032299,"L"
228929,"1615 WILSON STREET","MALVERN","AR",72104,NA,NA,429,"1615 WILSON STREET, MALVERN, AR, 72104","No_Match",NA,NA,NA,NA
228930,"1615 WINDER ST","RICHMOND","VA",22903,37.5393314890001,-77.4652487709999,430,"1615 WINDER ST, RICHMOND, VA, 22903","Match","Non_Exact","1615 WINDER ST, RICHMOND, VA, 23220",201536307,"L"
228931,"1615 WINDER ST","RICHMOND","VA",23220,37.5393314890001,-77.4652487709999,431,"1615 WINDER ST, RICHMOND, VA, 23220","Match","Exact","1615 WINDER ST, RICHMOND, VA, 23220",201536307,"L"
228932,"1615 WINDSOR DR","MAYFIELD HTS","OH",44124,41.5166607990001,-81.432879344,432,"1615 WINDSOR DR, MAYFIELD HTS, OH, 44124","Match","Exact","1615 WINDSOR DR, MAYFIELD HEIGHTS, OH, 44124",61135081,"L"
228933,"1615 WINTERWOOD COURT","BOWLING GREEN","OH",43402,41.360360126,-83.682670424,433,"1615 WINTERWOOD COURT, BOWLING GREEN, OH, 43402","Match","Exact","1615 WINTERWOOD CT, BOWLING GREEN, OH, 43402",653705517,"R"
228934,"1615 WIRT ST","OMAHA","NE",68110,41.286935816,-95.9375948859999,434,"1615 WIRT ST, OMAHA, NE, 68110","Match","Exact","1615 WIRT ST, OMAHA, NE, 68110",116987405,"L"
228935,"1615 WOLVERINE LN","KNOXVILLE","TN",37931,35.951360843,-84.072129396,435,"1615 WOLVERINE LN, KNOXVILLE, TN, 37931","Match","Exact","1615 WOLVERINE LN, KNOXVILLE, TN, 37931",634002387,"L"
228936,"1615 WOOD FARMS","GERMANTOWN","TN",38016,NA,NA,436,"1615 WOOD FARMS, GERMANTOWN, TN, 38016","No_Match",NA,NA,NA,NA
228937,"1615 WOODBRIAR AVENUE","GREENSBORO","NC",27405,36.1034768860001,-79.7460806669999,437,"1615 WOODBRIAR AVENUE, GREENSBORO, NC, 27405","Match","Exact","1615 WOODBRIAR AVE, GREENSBORO, NC, 27405",131034941,"L"
228938,"1615 YAGLE AVE","PROSPECT PARK","PA",19076,39.892737633,-75.310161654,438,"1615 YAGLE AVE, PROSPECT PARK, PA, 19076","Match","Exact","1615 YAGLE AVE, PROSPECT PARK, PA, 19076",134883737,"R"
228939,"1615 YAGLE","PROSPECT PARK","PA",19076,39.892737633,-75.310161654,439,"1615 YAGLE, PROSPECT PARK, PA, 19076","Match","Non_Exact","1615 YAGLE AVE, PROSPECT PARK, PA, 19076",134883737,"R"
228940,"1615 ZINN ST","RICHMOND","CA",94805,37.942823241,-122.313801938,440,"1615 ZINN ST, RICHMOND, CA, 94805","Match","Exact","1615 ZINN ST, RICHMOND, CA, 94805",192042357,"L"
228941,"16150 E EL LAGO BLVD","FOUNTAIN HILLS","AZ",85268,33.606472012,-111.732613991,441,"16150 E EL LAGO BLVD, FOUNTAIN HILLS, AZ, 85268","Match","Non_Exact","16150 E EL LAGO DR, FOUNTAIN HILLS, AZ, 85268",128584457,"L"
228942,"16150 E ELGENIA ST","COVINA","CA",91722,34.085894292,-117.930527803,442,"16150 E ELGENIA ST, COVINA, CA, 91722","Match","Exact","16150 E ELGENIA ST, COVINA, CA, 91722",141712120,"R"
228943,"16150 FAIRFAX","SOUTHFIELD","MI",48075,42.4675206810001,-83.206223974,443,"16150 FAIRFAX, SOUTHFIELD, MI, 48075","Match","Non_Exact","16150 FAIRFAX ST, SOUTHFIELD, MI, 48075",69740478,"R"
228944,"16150 N ARROWHEAD FOUNTAIN CENTER D","PEORIA","AZ",85382,NA,NA,444,"16150 N ARROWHEAD FOUNTAIN CENTER D, PEORIA, AZ, 85382","No_Match",NA,NA,NA,NA
228945,"16150 WASHBURN","DETROIT","MI",48221,42.41013937,-83.1610851309999,445,"16150 WASHBURN, DETROIT, MI, 48221","Match","Non_Exact","16150 WASHBURN ST, DETROIT, MI, 48221",95425994,"R"
228946,"16151 CHERRYLAWN ST","DETROIT","MI",48221,42.4102125800001,-83.154569112,446,"16151 CHERRYLAWN ST, DETROIT, MI, 48221","Match","Exact","16151 CHERRYLAWN ST, DETROIT, MI, 48221",95426059,"L"
228947,"16151 E GUNNISON PL","AURORA","CO",80017,39.688832222,-104.800079643,447,"16151 E GUNNISON PL, AURORA, CO, 80017","Match","Exact","16151 E GUNNISON PL, AURORA, CO, 80017",177356314,"L"
228948,"16151 FELLOWSHIP STREET","VALINDA","CA",91744,34.0456045450001,-117.930066482,448,"16151 FELLOWSHIP STREET, VALINDA, CA, 91744","Match","Non_Exact","16151 FELLOWSHIP ST, LA PUENTE, CA, 91744",142781790,"L"
228949,"16151 JASMINE WAY","LOS GATOS","CA",95032,37.238055215,-121.951824696,449,"16151 JASMINE WAY, LOS GATOS, CA, 95032","Match","Exact","16151 JASMINE WAY, LOS GATOS, CA, 95032",122945522,"R"
228950,"16151 MISSION GLEN DRIVE","HOUSTON","TX",77083,29.6830298470001,-95.671198842,450,"16151 MISSION GLEN DRIVE, HOUSTON, TX, 77083","Match","Exact","16151 MISSION GLEN DR, HOUSTON, TX, 77083",78297262,"R"
228951,"16151 WOLFRAM ST NW","RAMSEY","MN",55303,45.265272027,-93.428133029,451,"16151 WOLFRAM ST NW, RAMSEY, MN, 55303","Match","Exact","16151 WOLFRAM ST NW, RAMSEY, MN, 55303",635651934,"R"
228952,"16152 NW OAKHILLS DR","BEAVERTON","OR",97006,45.537953755,-122.843812289,452,"16152 NW OAKHILLS DR, BEAVERTON, OR, 97006","Match","Exact","16152 NW OAKHILLS DR, BEAVERTON, OR, 97006",158196446,"L"
228953,"16153 OLD 66 ROAD","HINTON","OK",73047,NA,NA,453,"16153 OLD 66 ROAD, HINTON, OK, 73047","No_Match",NA,NA,NA,NA
228954,"16153 S DAN OCONNELL DR","PLAINFIELD","IL",60586,41.5890684330001,-88.1934834049999,454,"16153 S DAN OCONNELL DR, PLAINFIELD, IL, 60586","Match","Non_Exact","16153 S DAN O'CONNELL DR, PLAINFIELD, IL, 60586",111622565,"R"
228955,"16153 STATE ROUTE 28","CHILLICOTHE","OH",45601,39.349937777,-83.085690977,455,"16153 STATE ROUTE 28, CHILLICOTHE, OH, 45601","Match","Exact","16153 STATE RTE 28, CHILLICOTHE, OH, 45601",37490979,"R"
228956,"16153 SW 34 PLACE","OCALA","FL",34481,NA,NA,456,"16153 SW 34 PLACE, OCALA, FL, 34481","No_Match",NA,NA,NA,NA
228957,"16154 ALLEN WAY","YARNELL","AZ",85362,34.228060666,-112.739544381,457,"16154 ALLEN WAY, YARNELL, AZ, 85362","Match","Exact","16154 ALLEN WAY, YARNELL, AZ, 85362",608183767,"R"
228958,"16154 OLD BRANCHVILLE RD","BOYKINS","VA",23827,36.5844130070001,-77.236338452,458,"16154 OLD BRANCHVILLE RD, BOYKINS, VA, 23827","Match","Exact","16154 OLD BRANCHVILLE RD, BOYKINS, VA, 23827",82723669,"R"
228959,"16154 OLD WATERFORD RD","PAEONIAN SPRINGS","VA",20129,39.1688973890001,-77.589818701,459,"16154 OLD WATERFORD RD, PAEONIAN SPRINGS, VA, 20129","Match","Exact","16154 OLD WATERFORD RD, PAEONIAN SPGS, VA, 20129",62347862,"R"
228960,"16155 CARRIAGE TRADE LANE","SOUTHFIELD","MI",48075,42.463252937,-83.207387333,460,"16155 CARRIAGE TRADE LANE, SOUTHFIELD, MI, 48075","Match","Exact","16155 CARRIAGE TRADE LN, SOUTHFIELD, MI, 48075",69810595,"L"
228961,"16155 ISLA MARIA CIRCLE","MORENO VALLEY","CA",92551,33.8860612290001,-117.208850136,461,"16155 ISLA MARIA CIRCLE, MORENO VALLEY, CA, 92551","Match","Exact","16155 ISLA MARIA CIR, MORENO VALLEY, CA, 92551",194862066,"L"
228962,"16155 MARSHFIELD AVE","MARKHAM","IL",60428,41.596089426,-87.657137453,462,"16155 MARSHFIELD AVE, MARKHAM, IL, 60428","Match","Exact","16155 MARSHFIELD AVE, MARKHAM, IL, 60428",111705990,"L"
228963,"16155 N BUCKHORN RD","HAYDEN","ID",83835,47.818255551,-116.709231847,463,"16155 N BUCKHORN RD, HAYDEN, ID, 83835","Match","Exact","16155 N BUCKHORN RD, HAYDEN, ID, 83835",192942238,"L"
228964,"16155 NORRIS ROAD","WELLINGTON","FL",33470,26.6366213630001,-80.3049726259999,464,"16155 NORRIS ROAD, WELLINGTON, FL, 33470","Match","Exact","16155 NORRIS RD, WELLINGTON, FL, 33470",115536086,"R"
228965,"16155 PALOMINO VALLEY CT","SAN DIEGO","CA",92129,33.0045417170001,-117.109134433,465,"16155 PALOMINO VALLEY CT, SAN DIEGO, CA, 92129","Match","Non_Exact","16155 PALOMINO VALLEY CT, SAN DIEGO, CA, 92127",612890332,"L"
228966,"16155 POINT LENA WAY","JUNEAU","AK",99801,NA,NA,466,"16155 POINT LENA WAY, JUNEAU, AK, 99801","Tie",NA,NA,NA,NA
228967,"16155 SIERRA LAKES PKWY STE 638","FONTANA","CA",92336,34.139037118,-117.45236063,467,"16155 SIERRA LAKES PKWY STE 638, FONTANA, CA, 92336","Match","Exact","16155 SIERRA LAKES PKWY, FONTANA, CA, 92336",145229667,"L"
228968,"16155 SW 86 TERRACE","MIAMI","FL",33193,25.685830433,-80.453089505,468,"16155 SW 86 TERRACE, MIAMI, FL, 33193","Match","Exact","16155 SW 86TH TER, MIAMI, FL, 33193",116079399,"L"
228969,"16155 SW PUFFIN CT","BEAVERTON","OR",97007,45.4307042710001,-122.843017078,469,"16155 SW PUFFIN CT, BEAVERTON, OR, 97007","Match","Exact","16155 SW PUFFIN CT, BEAVERTON, OR, 97007",636301766,"L"
228970,"16155 W 12 MILE ROAD SUITE 5","GRAND RAPIDS","MI",48076,NA,NA,470,"16155 W 12 MILE ROAD SUITE 5, GRAND RAPIDS, MI, 48076","No_Match",NA,NA,NA,NA
228971,"16155 W 12 MILE ROAD SUITE 5","SOUTHFIELD","MI",48076,42.5027989870001,-83.20922096,471,"16155 W 12 MILE ROAD SUITE 5, SOUTHFIELD, MI, 48076","Match","Non_Exact","16155 W 12 MILE RD, SOUTHFIELD, MI, 48076",69736180,"L"
228972,"16156 DEXTER AVE","DETROIT","MI",48221,42.4107607660001,-83.1361960409999,472,"16156 DEXTER AVE, DETROIT, MI, 48221","Match","Exact","16156 DEXTER AVE, DETROIT, MI, 48221",638893941,"R"
228973,"16158 DEXTER AVE","DETROIT","MI",48221,42.4107856570001,-83.136197006,473,"16158 DEXTER AVE, DETROIT, MI, 48221","Match","Exact","16158 DEXTER AVE, DETROIT, MI, 48221",638893941,"R"
228974,"16158 STOUT","DETROIT","MI",48219,42.408397774,-83.2418589709999,474,"16158 STOUT, DETROIT, MI, 48219","Match","Non_Exact","16158 STOUT ST, DETROIT, MI, 48219",95422068,"R"
228975,"16158 SUMMER SAGE ROAD","POWAY","CA",92064,33.010482274,-117.026248031,475,"16158 SUMMER SAGE ROAD, POWAY, CA, 92064","Match","Exact","16158 SUMMER SAGE RD, POWAY, CA, 92064",195317551,"R"
228976,"16158 VERIDIAN CIR","SAN DIEGO","CA",92127,33.010480407,-117.12483183,476,"16158 VERIDIAN CIR, SAN DIEGO, CA, 92127","Match","Exact","16158 VERIDIAN CIR, SAN DIEGO, CA, 92127",651983213,"R"
228977,"16158 W DEER LANE","HAYWARD","WI",54843,46.0239205680001,-91.502415711,477,"16158 W DEER LANE, HAYWARD, WI, 54843","Match","Exact","16158 DEER LN, HAYWARD, WI, 54843",624476807,"R"
228978,"16158 W DEER LN","HAYWARD","WI",54843,46.0239205680001,-91.502415711,478,"16158 W DEER LN, HAYWARD, WI, 54843","Match","Exact","16158 DEER LN, HAYWARD, WI, 54843",624476807,"R"
228979,"16159 BRIDGEPARK DRIVE","LITHIA","FL",33547,27.8359802530001,-82.216888349,479,"16159 BRIDGEPARK DRIVE, LITHIA, FL, 33547","Match","Exact","16159 BRIDGEPARK DR, LITHIA, FL, 33547",625728976,"L"
228980,"16159 KOOTENAI PLACE","NAMPA","ID",83651,43.607230579,-116.615522865,480,"16159 KOOTENAI PLACE, NAMPA, ID, 83651","Match","Exact","16159 KOOTENAI PL, NAMPA, ID, 83651",122786309,"L"
228981,"16159 NW FESCUE CT","PORTLAND","OR",97229,45.5644822950001,-122.842771899,481,"16159 NW FESCUE CT, PORTLAND, OR, 97229","Match","Exact","16159 NW FESCUE CT, PORTLAND, OR, 97229",605204021,"R"
228982,"1615A BRANCH ST","NASHVILLE","TN",37216,36.1966929640001,-86.7257648199999,482,"1615A BRANCH ST, NASHVILLE, TN, 37216","Match","Exact","1615 BRANCH ST, NASHVILLE, TN, 37216",97194747,"R"
228983,"1616 1/2 MALTMAN AVENUE","LOS ANGELES","CA",90026,34.0912768790001,-118.275915792,483,"1616 1/2 MALTMAN AVENUE, LOS ANGELES, CA, 90026","Match","Exact","1616 MALTMAN AVE, LOS ANGELES, CA, 90026",141604654,"R"
228984,"1616 10TH AVE NE","JAMESTOWN","ND",58401,46.9254745160001,-98.6953485499999,484,"1616 10TH AVE NE, JAMESTOWN, ND, 58401","Match","Exact","1616 10TH AVE NE, JAMESTOWN, ND, 58401",151886506,"R"
228985,"1616 13TH AVENUE","HUNTINGTON","WV",25701,38.410795939,-82.427546422,485,"1616 13TH AVENUE, HUNTINGTON, WV, 25701","Match","Exact","1616 13TH AVE, HUNTINGTON, WV, 25701",101318492,"L"
228986,"1616 13TH PL S APT A","BIRMINGHAM","AL",35205,NA,NA,486,"1616 13TH PL S APT A, BIRMINGHAM, AL, 35205","Tie",NA,NA,NA,NA
228987,"1616 156TH AVE","BELLEVUE","WA",98008,NA,NA,487,"1616 156TH AVE, BELLEVUE, WA, 98008","No_Match",NA,NA,NA,NA
228988,"1616 171ST ST","HAMMOND","IN",46324,41.58481435,-87.489931871,488,"1616 171ST ST, HAMMOND, IN, 46324","Match","Exact","1616 171ST ST, HAMMOND, IN, 46324",606328044,"R"
228989,"1616 17TH STREET STE 383","DENVER","CO",80202,39.7523198310001,-104.999014141,489,"1616 17TH STREET STE 383, DENVER, CO, 80202","Match","Exact","1616 17TH ST, DENVER, CO, 80202",177304080,"L"
228990,"1616 19TH STREET","WEST SACRAMENTO","CA",96691,38.566153494,-121.535002986,490,"1616 19TH STREET, WEST SACRAMENTO, CA, 96691","Match","Non_Exact","1616 19TH ST, WEST SACRAMENTO, CA, 95691",636415520,"R"
228991,"1616 24TH ST","OGDEN","UT",84401,41.222313877,-111.936538765,491,"1616 24TH ST, OGDEN, UT, 84401","Match","Exact","1616 24TH ST, OGDEN, UT, 84401",155697986,"L"
228992,"1616 2ND AVENUE","ROCK ISLAND","IL",61201,41.5106788900001,-90.577593943,492,"1616 2ND AVENUE, ROCK ISLAND, IL, 61201","Match","Exact","1616 2ND AVE, ROCK ISLAND, IL, 61201",647083197,"R"
228993,"1616 2ND STREET","EARLE","AR",72331,35.2707215390001,-90.474202169,493,"1616 2ND STREET, EARLE, AR, 72331","Match","Exact","1616 2ND ST, EARLE, AR, 72331",69381660,"R"
228994,"1616 46TH STREET","BROOKLYN","NY",11204,40.6323937650001,-73.983233216,494,"1616 46TH STREET, BROOKLYN, NY, 11204","Match","Exact","1616 46TH ST, BROOKLYN, NY, 11204",59080344,"R"
228995,"1616 8TH PL","MCLEAN","VA",22101,38.926455618,-77.168158024,495,"1616 8TH PL, MCLEAN, VA, 22101","Match","Exact","1616 8TH PL, MCLEAN, VA, 22101",75963651,"R"
228996,"1616 ABILENE CIR","ROCKLIN","CA",95765,38.8375782630001,-121.288024699,496,"1616 ABILENE CIR, ROCKLIN, CA, 95765","Match","Exact","1616 ABILENE CIR, ROCKLIN, CA, 95765",634233048,"L"
228997,"1616 ABILENE CIRCLE","ROCKLIN","CA",95765,38.8375782630001,-121.288024699,497,"1616 ABILENE CIRCLE, ROCKLIN, CA, 95765","Match","Exact","1616 ABILENE CIR, ROCKLIN, CA, 95765",634233048,"L"
228998,"1616 ACORN DR","GREEN BAY","WI",54304,44.5157521140001,-88.0866963129999,498,"1616 ACORN DR, GREEN BAY, WI, 54304","Match","Exact","1616 ACORN DR, GREEN BAY, WI, 54304",148096959,"R"
228999,"1616 AHRENS ST","MANITOWOC","WI",54220,44.1126831780001,-87.6660716219999,499,"1616 AHRENS ST, MANITOWOC, WI, 54220","Match","Exact","1616 AHRENS ST, MANITOWOC, WI, 54220",147949474,"R"
229000,"1616 ALLENGROVE ST","PHILADELPHIA","PA",19124,40.019599257,-75.08063533,500,"1616 ALLENGROVE ST, PHILADELPHIA, PA, 19124","Match","Exact","1616 ALLENGROVE ST, PHILADELPHIA, PA, 19124",131428338,"R"
