"ID","Address","City","State","Zip","lat","long","id","input_address","match_indicator","match_type","matched_address","tiger_line_id","tiger_side"
525501,"3350 SUDBURY RD","CAMERON PARK","CA",95682,NA,NA,1,"3350 SUDBURY RD, CAMERON PARK, CA, 95682","No_Match",NA,NA,NA,NA
525502,"3350 SW 148 AVENUE SUITE 110","MIRAMAR","FL",33027,25.978030131,-80.343830441,2,"3350 SW 148 AVENUE SUITE 110, MIRAMAR, FL, 33027","Match","Non_Exact","3350 SW 148TH AVE, MIRAMAR, FL, 33027",648713139,"R"
525503,"3350 SW 148 AVENUE","MIRAMAR","FL",33027,25.978030131,-80.343830441,3,"3350 SW 148 AVENUE, MIRAMAR, FL, 33027","Match","Exact","3350 SW 148TH AVE, MIRAMAR, FL, 33027",648713139,"R"
525504,"3350 SW 148TH AVE STE 110","MARIMAR","FL",33027,25.978030131,-80.343830441,4,"3350 SW 148TH AVE STE 110, MARIMAR, FL, 33027","Match","Non_Exact","3350 SW 148TH AVE, MIRAMAR, FL, 33027",648713139,"R"
525505,"3350 SW 148TH AVE STE 203","MIRAMAR","FL",33027,25.978030131,-80.343830441,5,"3350 SW 148TH AVE STE 203, MIRAMAR, FL, 33027","Match","Non_Exact","3350 SW 148TH AVE, MIRAMAR, FL, 33027",648713139,"R"
525506,"3350 SW 148TH AVENUE  SUITE 110","MIRAMAR","FL",33027,25.978030131,-80.343830441,6,"3350 SW 148TH AVENUE  SUITE 110, MIRAMAR, FL, 33027","Match","Non_Exact","3350 SW 148TH AVE, MIRAMAR, FL, 33027",648713139,"R"
525507,"3350 SW 148TH AVENUE STE 110","MIRAMAR","FL",33027,25.978030131,-80.343830441,7,"3350 SW 148TH AVENUE STE 110, MIRAMAR, FL, 33027","Match","Non_Exact","3350 SW 148TH AVE, MIRAMAR, FL, 33027",648713139,"R"
525508,"3350 SW 148TH AVENUE SUITE 110","MIRAMAR","FL",33027,25.978030131,-80.343830441,8,"3350 SW 148TH AVENUE SUITE 110, MIRAMAR, FL, 33027","Match","Non_Exact","3350 SW 148TH AVE, MIRAMAR, FL, 33027",648713139,"R"
525509,"3350 SW KNOLLBROOK AVE","CORVALLIS","OR",97333,44.5484959450001,-123.287332415,9,"3350 SW KNOLLBROOK AVE, CORVALLIS, OR, 97333","Match","Exact","3350 SW KNOLLBROOK AVE, CORVALLIS, OR, 97333",155849245,"L"
525510,"3350 SW PERRINE STREET","PORT ST LUCIE","FL",34953,27.244145454,-80.394893193,10,"3350 SW PERRINE STREET, PORT ST LUCIE, FL, 34953","Match","Exact","3350 SW PERRINE ST, PORT ST LUCIE, FL, 34953",120143430,"R"
525511,"3350 SWEETWATER RD APT 1111","LAWERENCEVILLE","GA",30044,33.947770721,-84.116228099,11,"3350 SWEETWATER RD APT 1111, LAWERENCEVILLE, GA, 30044","Match","Non_Exact","3350 SWEETWATER RD, LAWRENCEVILLE, GA, 30044",88950930,"L"
525512,"3350 SWEETWATER RD APT 1328","LAWRENCEVILLE","GA",30044,33.947770721,-84.116228099,12,"3350 SWEETWATER RD APT 1328, LAWRENCEVILLE, GA, 30044","Match","Exact","3350 SWEETWATER RD, LAWRENCEVILLE, GA, 30044",88950930,"L"
525513,"3350 TOLEDO TER APT 103","HYATTSVILLE","MD",20782,38.968479868,-76.9620229,13,"3350 TOLEDO TER APT 103, HYATTSVILLE, MD, 20782","Match","Exact","3350 TOLEDO TER, HYATTSVILLE, MD, 20782",650127386,"L"
525514,"3350 TOLEDO TER","HYATTSVILLE","MD",20782,38.968479868,-76.9620229,14,"3350 TOLEDO TER, HYATTSVILLE, MD, 20782","Match","Exact","3350 TOLEDO TER, HYATTSVILLE, MD, 20782",650127386,"L"
525515,"3350 TOLEDO TERRACE","HYATTSVILLE","MD",20782,38.968479868,-76.9620229,15,"3350 TOLEDO TERRACE, HYATTSVILLE, MD, 20782","Match","Exact","3350 TOLEDO TER, HYATTSVILLE, MD, 20782",650127386,"L"
525516,"3350 VAN THOMPSON RD","OWINSVILLE","KY",40360,38.129556882,-83.9121448669999,16,"3350 VAN THOMPSON RD, OWINSVILLE, KY, 40360","Match","Non_Exact","3350 VAN THOMPSON RD, OWINGSVILLE, KY, 40360",32028374,"R"
525517,"3350 VINCENT RD","CLYDE","MI",48049,43.001760032,-82.553243975,17,"3350 VINCENT RD, CLYDE, MI, 48049","Match","Exact","3350 VINCENT RD, CLYDE, MI, 48049",110991155,"R"
525518,"3350 W HILLSBOROUGH AVE APT 914","TAMPA","FL",33614,27.9960035300001,-82.4973855539999,18,"3350 W HILLSBOROUGH AVE APT 914, TAMPA, FL, 33614","Match","Non_Exact","3350 W HILLSBOROUGH AVE, TAMPA, FL, 33614",647455134,"L"
525519,"3350 W HILLSBOROUGH AVENUE APT 221","TAMPA","FL",33614,27.9960035300001,-82.4973855539999,19,"3350 W HILLSBOROUGH AVENUE APT 221, TAMPA, FL, 33614","Match","Non_Exact","3350 W HILLSBOROUGH AVE, TAMPA, FL, 33614",647455134,"L"
525520,"3350 W WAGONTRAIL DR","ENGLEWOOD","CO",80110,39.63099492,-105.031551399,20,"3350 W WAGONTRAIL DR, ENGLEWOOD, CO, 80110","Match","Exact","3350 W WAGONTRAIL DR, ENGLEWOOD, CO, 80110",177329985,"L"
525521,"3350 WEST LANGUID LANE","PHOENIX","AZ",85086,33.808558733,-112.132365943,21,"3350 WEST LANGUID LANE, PHOENIX, AZ, 85086","Match","Exact","3350 W LANGUID LN, PHOENIX, AZ, 85086",128856190,"R"
525522,"3350 WEST MARIE DRIVE","CITRUS SPRINGS","FL",34433,29.0002891870001,-82.490868032,22,"3350 WEST MARIE DRIVE, CITRUS SPRINGS, FL, 34433","Match","Exact","3350 W MARIE DR, CITRUS SPRINGS, FL, 34433",86218163,"L"
525523,"3350 WEST PIMLICO AVE","ENGLEWOOD","CO",80110,39.632628771,-105.031576981,23,"3350 WEST PIMLICO AVE, ENGLEWOOD, CO, 80110","Match","Exact","3350 W PIMLICO AVE, ENGLEWOOD, CO, 80110",177330024,"L"
525524,"3350 WHISPER LANE","GRETNA","LA",70056,29.8623336220001,-90.035555383,24,"3350 WHISPER LANE, GRETNA, LA, 70056","Match","Exact","3350 WHISPER LN, GRETNA, LA, 70056",93529425,"L"
525525,"3350 WHISPERING PINES LANE","EAU CLAIRE","WI",54701,44.783642135,-91.505389515,25,"3350 WHISPERING PINES LANE, EAU CLAIRE, WI, 54701","Match","Exact","3350 WHISPERING PINES LN, EAU CLAIRE, WI, 54701",46072060,"L"
525526,"3350 WITHERBEE DRIVE","TROY","MI",48084,NA,NA,26,"3350 WITHERBEE DRIVE, TROY, MI, 48084","No_Match",NA,NA,NA,NA
525527,"3350 WOODSIDE DR","STOCKBRIDGE","GA",30281,NA,NA,27,"3350 WOODSIDE DR, STOCKBRIDGE, GA, 30281","No_Match",NA,NA,NA,NA
525528,"3350 YELLOW CREEK ROAD","BATH","OH",44333,41.157156409,-81.624601218,28,"3350 YELLOW CREEK ROAD, BATH, OH, 44333","Match","Non_Exact","3350 YELLOW CREEK RD, FAIRLAWN, OH, 44333",61393804,"L"
525529,"3350 YORBA LINDA BLVD","FULLERTON","CA",92831,NA,NA,29,"3350 YORBA LINDA BLVD, FULLERTON, CA, 92831","No_Match",NA,NA,NA,NA
525530,"3350 YORK PLACE","DECATUR","GA",30032,33.7188099960001,-84.2511270809999,30,"3350 YORK PLACE, DECATUR, GA, 30032","Match","Exact","3350 YORK PL, DECATUR, GA, 30032",23370703,"L"
525531,"33500 HWY 63 E","MARKED TREE","AR",72365,NA,NA,31,"33500 HWY 63 E, MARKED TREE, AR, 72365","No_Match",NA,NA,NA,NA
525532,"33500 S BALL RD","MOLALLA","OR",97038,45.1241706420001,-122.48530371,32,"33500 S BALL RD, MOLALLA, OR, 97038","Match","Exact","33500 S BALL RD, MOLALLA, OR, 97038",157928531,"R"
525533,"33500 W SIX MILE RD","LIVONIA","MI",48152,42.4116280050001,-83.374707626,33,"33500 W SIX MILE RD, LIVONIA, MI, 48152","Match","Exact","33500 6 MILE RD, LIVONIA, MI, 48152",95407076,"R"
525534,"33501 TERRAGONA DRIVE","SORRENTO","FL",32776,28.841600962,-81.5587620479999,34,"33501 TERRAGONA DRIVE, SORRENTO, FL, 32776","Match","Exact","33501 TERRAGONA DR, SORRENTO, FL, 32776",617496547,"L"
525535,"33502 ALDER CIR","SPANISH FORT","AL",36527,30.713329711,-87.894240596,35,"33502 ALDER CIR, SPANISH FORT, AL, 36527","Match","Exact","33502 ALDER CIR, SPANISH FORT, AL, 36527",131724278,"L"
525536,"33502 NO MANS LAKE ROAD","MINONG","WI",54859,46.1214466820001,-92.056435662,36,"33502 NO MANS LAKE ROAD, MINONG, WI, 54859","Match","Exact","33502 NO MANS LAKE RD, MINONG, WI, 54859",635773024,"R"
525537,"33502 SE 15TH ST","WASHOUGAL","WA",98671,45.6108163070001,-122.328512613,37,"33502 SE 15TH ST, WASHOUGAL, WA, 98671","Match","Exact","33502 SE 15TH ST, WASHOUGAL, WA, 98671",158353229,"L"
525538,"33503 NE 42ND STREET","CARNATION","WA",98104,47.645283427,-121.900847006,38,"33503 NE 42ND STREET, CARNATION, WA, 98104","Match","Non_Exact","33503 NE 42ND ST, CARNATION, WA, 98014",239777777,"R"
525539,"33504 NW PEKIN FERRY DRIVE","RIDGEFIELD","WA",98642,45.864337973,-122.725571143,39,"33504 NW PEKIN FERRY DRIVE, RIDGEFIELD, WA, 98642","Match","Exact","33504 NW PEKIN FERRY DR, RIDGEFIELD, WA, 98642",643982744,"R"
525540,"33504 SHOREWOOD DR","AVON","MN",56310,45.608243486,-94.472927183,40,"33504 SHOREWOOD DR, AVON, MN, 56310","Match","Exact","33504 SHOREWOOD DR, AVON, MN, 56310",649496783,"R"
525541,"33505 NORTH WINFIELD DRIVE","SCOTTSDALE","AZ",85266,33.7861468880001,-111.921946777,41,"33505 NORTH WINFIELD DRIVE, SCOTTSDALE, AZ, 85266","Match","Exact","33505 N WINFIELD DR, SCOTTSDALE, AZ, 85266",128598097,"R"
525542,"33507 9TH AVE S BLDG H","FEDERAL WAY","WA",98003,47.3015399080001,-122.322971757,42,"33507 9TH AVE S BLDG H, FEDERAL WAY, WA, 98003","Match","Exact","33507 9TH AVE S, FEDERAL WAY, WA, 98003",187014359,"L"
525543,"33507 9TH AVE S","FEDERAL WAY","WA",98003,47.3015399080001,-122.322971757,43,"33507 9TH AVE S, FEDERAL WAY, WA, 98003","Match","Exact","33507 9TH AVE S, FEDERAL WAY, WA, 98003",187014359,"L"
525544,"33507 S SPRING BAY RD","DETOUR VILLAGE","MI",49725,46.0179012740001,-83.9333343929999,44,"33507 S SPRING BAY RD, DETOUR VILLAGE, MI, 49725","Match","Non_Exact","33507 S SPRING BAY RD, DE TOUR VILLAGE, MI, 49725",647605949,"L"
525545,"33507 US HWY 31","SPANISH FORT","AL",36527,30.7131280740001,-87.8054346389999,45,"33507 US HWY 31, SPANISH FORT, AL, 36527","Match","Exact","33507 US HWY 31, SPANISH FORT, AL, 36527",650005783,"L"
525546,"33508 42ND AVE SW","FEDERAL  WAY","WA",98023,47.3021189150001,-122.386041281,46,"33508 42ND AVE SW, FEDERAL  WAY, WA, 98023","Match","Exact","33508 42ND AVE SW, FEDERAL WAY, WA, 98023",617957657,"L"
525547,"33508","FEDERAL WAY","WA",98023,NA,NA,47,"33508, FEDERAL WAY, WA, 98023","No_Match",NA,NA,NA,NA
525548,"33509 28TH AVE SW","FEDERAL WAY","WA",98023,47.3010631810001,-122.369180176,48,"33509 28TH AVE SW, FEDERAL WAY, WA, 98023","Match","Exact","33509 28TH AVE SW, FEDERAL WAY, WA, 98023",186651090,"R"
525549,"3351  BEAR WALLOW HILL RD","NASHVILLE","IN",47448,39.243105423,-86.224104768,49,"3351  BEAR WALLOW HILL RD, NASHVILLE, IN, 47448","Match","Exact","3351 BEAR WALLOW HILL RD, NASHVILLE, IN, 47448",43527133,"R"
525550,"3351 64TH ST","PALO","IA",52349,42.095073976,-91.841854369,50,"3351 64TH ST, PALO, IA, 52349","Match","Non_Exact","3351 64TH ST, PALO, IA, 52324",94719997,"R"
525551,"3351 73RD STREET 5E","QUEENS","NY",11372,NA,NA,51,"3351 73RD STREET 5E, QUEENS, NY, 11372","No_Match",NA,NA,NA,NA
525552,"3351 80TH STREET APARTMENT 32","QUEENS","NY",11372,NA,NA,52,"3351 80TH STREET APARTMENT 32, QUEENS, NY, 11372","No_Match",NA,NA,NA,NA
525553,"3351 ALMA ST  APT 204","PALO ALTO","CA",94306,NA,NA,53,"3351 ALMA ST  APT 204, PALO ALTO, CA, 94306","No_Match",NA,NA,NA,NA
525554,"3351 ARCHWOOD DRIVE","ATLANTA","GA",30340,33.8881453120001,-84.241834166,54,"3351 ARCHWOOD DRIVE, ATLANTA, GA, 30340","Match","Exact","3351 ARCHWOOD DR, ATLANTA, GA, 30340",642648278,"R"
525555,"3351 BRYANT AVE","ANOKA","MN",55303,45.2157916790001,-93.3738186419999,55,"3351 BRYANT AVE, ANOKA, MN, 55303","Match","Exact","3351 BRYANT AVE, ANOKA, MN, 55303",97482896,"L"
525556,"3351 CALLE LA VETA","SAN CLEMENTE","CA",92672,33.451816045,-117.653937396,56,"3351 CALLE LA VETA, SAN CLEMENTE, CA, 92672","Match","Non_Exact","3351 CLL LA VETA, SAN CLEMENTE, CA, 92672",649788773,"L"
525557,"3351 CASCADES CT NO 316","TYLER","TX",75709,32.322621704,-95.3516059839999,57,"3351 CASCADES CT NO 316, TYLER, TX, 75709","Match","Non_Exact","3351 CASCADES CT, TYLER, TX, 75709",645469740,"R"
525558,"3351 CHETWOOD PLACE","DUBLIN","OH",43017,40.0890368330001,-83.105891543,58,"3351 CHETWOOD PLACE, DUBLIN, OH, 43017","Match","Exact","3351 CHETWOOD PL, DUBLIN, OH, 43017",218660169,"R"
525559,"3351 CHURCHHILL LN APT 4","SAGINAW","MI",48603,NA,NA,59,"3351 CHURCHHILL LN APT 4, SAGINAW, MI, 48603","No_Match",NA,NA,NA,NA
525560,"3351 CLAXTOHHALL DRIVE APT 2","BRIDGETON","MO",63044,NA,NA,60,"3351 CLAXTOHHALL DRIVE APT 2, BRIDGETON, MO, 63044","No_Match",NA,NA,NA,NA
525561,"3351 COUNTY ROAD 238","MONROE CITY","MO",63456,39.7440733380001,-91.687368001,61,"3351 COUNTY ROAD 238, MONROE CITY, MO, 63456","Match","Exact","3351 CO RD 238, MONROE CITY, MO, 63456",35342510,"L"
525562,"3351 COVE LAKE DR APT 18","LEXINGTON","KY",40515,37.9951414510001,-84.444949648,62,"3351 COVE LAKE DR APT 18, LEXINGTON, KY, 40515","Match","Exact","3351 COVE LAKE DR, LEXINGTON, KY, 40515",612232284,"L"
525563,"3351 CR 339","EARLY","TX",76802,31.7841897970001,-98.926676361,63,"3351 CR 339, EARLY, TX, 76802","Match","Exact","3351 CO RD 339, EARLY, TX, 76802",627365701,"R"
525564,"3351 E 120TH AVE UNIT 31-204","THORNTON","CO",80233,39.9139097010001,-104.944404413,64,"3351 E 120TH AVE UNIT 31-204, THORNTON, CO, 80233","Match","Non_Exact","3351 E 120TH AVE, THORNTON, CO, 80233",177441269,"L"
525565,"3351 E 4TH ST","TULSA","OK",74112,36.155946398,-95.939635548,65,"3351 E 4TH ST, TULSA, OK, 74112","Match","Non_Exact","3351 E 4TH ST, TULSA, OK, 74112",166445860,"L"
525566,"3351 E TORREY PINES LANE","CHANDLER","AZ",85249,33.2176482570001,-111.782755611,66,"3351 E TORREY PINES LANE, CHANDLER, AZ, 85249","Match","Exact","3351 E TORREY PINES LN, CHANDLER, AZ, 85249",128855069,"R"
525567,"3351 EAGLE RUN DRIVE","GRAND RAPIDS","MI",49525,NA,NA,67,"3351 EAGLE RUN DRIVE, GRAND RAPIDS, MI, 49525","No_Match",NA,NA,NA,NA
525568,"3351 ELMWOOD AVE","OAKAND","CA",94601,37.7717363020001,-122.226423913,68,"3351 ELMWOOD AVE, OAKAND, CA, 94601","Match","Non_Exact","3351 ELMWOOD AVE, OAKLAND, CA, 94601",125006603,"R"
525569,"3351 ELMWOOD AVE","OAKLAND","CA",94601,37.7717363020001,-122.226423913,69,"3351 ELMWOOD AVE, OAKLAND, CA, 94601","Match","Exact","3351 ELMWOOD AVE, OAKLAND, CA, 94601",125006603,"R"
525570,"3351 GOVERNORS CT","DULUTH","GA",30096,33.9953145420001,-84.139613719,70,"3351 GOVERNORS CT, DULUTH, GA, 30096","Match","Exact","3351 GOVERNORS CT, DULUTH, GA, 30096",88902151,"R"
525571,"3351 HARLEY ROAD","TOLEDO","OH",43606,41.6817907590001,-83.604732896,71,"3351 HARLEY ROAD, TOLEDO, OH, 43606","Match","Exact","3351 HARLEY RD, TOLEDO, OH, 43606",33933312,"L"
525572,"3351 HYMAN PL","NEW ORLEANS","LA",70131,29.9202033060001,-90.007057838,72,"3351 HYMAN PL, NEW ORLEANS, LA, 70131","Match","Exact","3351 HYMAN PL, NEW ORLEANS, LA, 70131",191723312,"R"
525573,"3351 ILKA RD","SEGUIN","TX",78155,29.604850533,-97.9090858759999,73,"3351 ILKA RD, SEGUIN, TX, 78155","Match","Non_Exact","3351 OLD ILKA RD, SEGUIN, TX, 78155",640615868,"R"
525574,"3351 JONES BRIDGE ROAD","CHEVY CHASE","MD",20815,38.9986857800001,-77.068800521,74,"3351 JONES BRIDGE ROAD, CHEVY CHASE, MD, 20815","Match","Exact","3351 JONES BRIDGE RD, CHEVY CHASE, MD, 20815",62066517,"R"
525575,"3351 K STREET","EUREKA","CA",95503,40.7779224920001,-124.157855559,75,"3351 K STREET, EUREKA, CA, 95503","Match","Exact","3351 K ST, EUREKA, CA, 95503",112990594,"R"
525576,"3351 KABLE DR NUM F","NEW ORLEANS","LA",70131,29.921067814,-90.008214267,76,"3351 KABLE DR NUM F, NEW ORLEANS, LA, 70131","Match","Non_Exact","3351 KABEL DR, NEW ORLEANS, LA, 70131",191743126,"R"
525577,"3351 KEYSTONE AVE APT 102","LOS ANGELES","CA",90034,34.0273015970001,-118.412235945,77,"3351 KEYSTONE AVE APT 102, LOS ANGELES, CA, 90034","Match","Exact","3351 KEYSTONE AVE, LOS ANGELES, CA, 90034",141573615,"R"
525578,"3351 KILLINGSWORTH LN","PFLUGERVILLE","TX",78660,30.4063363770001,-97.604062243,78,"3351 KILLINGSWORTH LN, PFLUGERVILLE, TX, 78660","Match","Exact","3351 KILLINGSWORTH LN, PFLUGERVILLE, TX, 78660",649001693,"R"
525579,"3351 M ST STE 115","MERCED","CA",95348,37.3246869010001,-120.478345267,79,"3351 M ST STE 115, MERCED, CA, 95348","Match","Exact","3351 M ST, MERCED, CA, 95348",649775737,"L"
525580,"3351 MADISON RIDGE","SNELLVILLE","GA",30039,NA,NA,80,"3351 MADISON RIDGE, SNELLVILLE, GA, 30039","Tie",NA,NA,NA,NA
525581,"3351 MARSHALL RIDGE ROAD","GREENSBURG","KY",42743,37.316417132,-85.498522113,81,"3351 MARSHALL RIDGE ROAD, GREENSBURG, KY, 42743","Match","Exact","3351 MARSHALL RIDGE RD, GREENSBURG, KY, 42743",636745101,"L"
525582,"3351 N 300 E","HUNTINGTON","IN",46750,NA,NA,82,"3351 N 300 E, HUNTINGTON, IN, 46750","Tie",NA,NA,NA,NA
525583,"3351 N 40 STREET","HOLLYWOOD","FL",33021,26.0460611670001,-80.178013444,83,"3351 N 40 STREET, HOLLYWOOD, FL, 33021","Match","Exact","3351 N 40TH ST, HOLLYWOOD, FL, 33021",114728782,"R"
525584,"3351 N ANDREWS AVENUE SUITE 101","OAKLAND PARK","FL",33309,26.169320838,-80.1465333099999,84,"3351 N ANDREWS AVENUE SUITE 101, OAKLAND PARK, FL, 33309","Match","Non_Exact","3351 N ANDREWS AVE, OAKLAND PARK, FL, 33309",114719533,"L"
525585,"3351 N KILPATRICK AVE","CHICAGO","IL",60641,41.941641668,-87.7439626779999,85,"3351 N KILPATRICK AVE, CHICAGO, IL, 60641","Match","Exact","3351 N KILPATRICK AVE, CHICAGO, IL, 60641",111755975,"R"
525586,"3351 N LUMPKIN RD 2308","COLUMBUS","GA",31903,NA,NA,86,"3351 N LUMPKIN RD 2308, COLUMBUS, GA, 31903","Tie",NA,NA,NA,NA
525587,"3351 N PAGE AVE","CHICAGO","IL",60634,41.940297437,-87.827626937,87,"3351 N PAGE AVE, CHICAGO, IL, 60634","Match","Exact","3351 N PAGE AVE, CHICAGO, IL, 60634",111747181,"R"
525588,"3351 N SMEDLEY ST","PHILADELPHIA","PA",19140,40.004470966,-75.1563825279999,88,"3351 N SMEDLEY ST, PHILADELPHIA, PA, 19140","Match","Exact","3351 N SMEDLEY ST, PHILADELPHIA, PA, 19140",131417829,"R"
525589,"3351 NE 202 ST","LAKE FOREST PARK","WA",98155,47.7747891750001,-122.291479373,89,"3351 NE 202 ST, LAKE FOREST PARK, WA, 98155","Match","Exact","3351 NE 202ND ST, LAKE FOREST PARK, WA, 98155",627282579,"R"
525590,"3351 NEWTON AVE NORTH","MINNEAPOLIS","MN",55412,45.0159483100001,-93.305736295,90,"3351 NEWTON AVE NORTH, MINNEAPOLIS, MN, 55412","Match","Exact","3351 NEWTON AVE N, MINNEAPOLIS, MN, 55412",43622148,"L"
525591,"3351 NORTH LUMPKIN ROAD APT 3211","COLUMBUS","GA",31903,32.436151438,-84.953442954,91,"3351 NORTH LUMPKIN ROAD APT 3211, COLUMBUS, GA, 31903","Match","Exact","3351 N LUMPKIN RD, COLUMBUS, GA, 31903",98942028,"L"
525592,"3351 NORTH SEMINARY UNIT 3N","CHICAGO","IL",60657,41.9430987600001,-87.656619882,92,"3351 NORTH SEMINARY UNIT 3N, CHICAGO, IL, 60657","Match","Non_Exact","3351 N SEMINARY AVE, CHICAGO, IL, 60657",605162570,"R"
525593,"3351 NW 18TH AVE","POMPANO","FL",33309,26.1691554350001,-80.167003543,93,"3351 NW 18TH AVE, POMPANO, FL, 33309","Match","Non_Exact","3351 NW 18TH AVE, TAMARAC, FL, 33309",647885291,"L"
525594,"3351 NW 85TH WAY APT 312","CORAL SPRINGS","FL",33065,NA,NA,94,"3351 NW 85TH WAY APT 312, CORAL SPRINGS, FL, 33065","No_Match",NA,NA,NA,NA
525595,"3351 PINE HOLLOW PLACE","PERRY TWP","OH",44081,41.7808143330001,-81.12697657,95,"3351 PINE HOLLOW PLACE, PERRY TWP, OH, 44081","Match","Non_Exact","3351 PINE HOLLOW PL, PERRY, OH, 44081",137473172,"L"
525596,"3351 PITCH PINE","LAUREL","MD",20724,NA,NA,96,"3351 PITCH PINE, LAUREL, MD, 20724","No_Match",NA,NA,NA,NA
525597,"3351 RAYMOND DR","DORAVILLE","GA",30340,33.888341041,-84.284023077,97,"3351 RAYMOND DR, DORAVILLE, GA, 30340","Match","Exact","3351 RAYMOND DR, DORAVILLE, GA, 30340",23359290,"R"
525598,"3351 S ARCHER ST UNIT 2","CHICAGO","IL",60608,NA,NA,98,"3351 S ARCHER ST UNIT 2, CHICAGO, IL, 60608","No_Match",NA,NA,NA,NA
525599,"3351 S PLACITA SAN MARCIAL","Tucson","AZ",85713,NA,NA,99,"3351 S PLACITA SAN MARCIAL, Tucson, AZ, 85713","No_Match",NA,NA,NA,NA
525600,"3351 S PLACITA SAN MARCIAL","TUCSON","AZ",85713,NA,NA,100,"3351 S PLACITA SAN MARCIAL, TUCSON, AZ, 85713","No_Match",NA,NA,NA,NA
525601,"3351 SAGEWOOD CT","PLEASANTON","CA",94588,37.6815846850001,-121.8606447,101,"3351 SAGEWOOD CT, PLEASANTON, CA, 94588","Match","Exact","3351 SAGEWOOD CT, PLEASANTON, CA, 94588",606244607,"R"
525602,"3351 SOUTH 675 WEST","BOUNTIFUL","UT",84010,40.852976756,-111.897685633,102,"3351 SOUTH 675 WEST, BOUNTIFUL, UT, 84010","Match","Exact","3351 S 675 W, BOUNTIFUL, UT, 84010",229353956,"L"
525603,"3351 SUMMIT DRIVE","POCATELLO","ID",83201,42.9069602810001,-112.403198654,103,"3351 SUMMIT DRIVE, POCATELLO, ID, 83201","Match","Exact","3351 SUMMIT DR, POCATELLO, ID, 83201",204359889,"R"
525604,"3351 SUNSET BLVD","STEUBENVILLE","OH",43952,40.3761182870001,-80.665745288,104,"3351 SUNSET BLVD, STEUBENVILLE, OH, 43952","Match","Exact","3351 SUNSET BLVD, STEUBENVILLE, OH, 43952",615358383,"R"
525605,"3351 SW KESSLER  1105","LEES SUMMIT","MO",64081,NA,NA,105,"3351 SW KESSLER  1105, LEES SUMMIT, MO, 64081","No_Match",NA,NA,NA,NA
525606,"3351 SW SENSATION DRIVE APT 837","LEE'S SUMMIT","MO",64081,38.910373539,-94.4498836069999,106,"3351 SW SENSATION DRIVE APT 837, LEE'S SUMMIT, MO, 64081","Match","Non_Exact","3351 SW SENSATION DR, LEES SUMMIT, MO, 64081",617929785,"R"
525607,"3351 TIMBER CREEK DR","ROCKY MOUNT","NC",27804,NA,NA,107,"3351 TIMBER CREEK DR, ROCKY MOUNT, NC, 27804","No_Match",NA,NA,NA,NA
525608,"3351 WARRENTON ROAD","MONTGOMERY","AL",36111,32.34436858,-86.2657118229999,108,"3351 WARRENTON ROAD, MONTGOMERY, AL, 36111","Match","Exact","3351 WARRENTON RD, MONTGOMERY, AL, 36111",1488643,"L"
525609,"33514 29TH PL SW","FEDERAL WAY","WA",98023,47.300811718,-122.370335226,109,"33514 29TH PL SW, FEDERAL WAY, WA, 98023","Match","Exact","33514 29TH PL SW, FEDERAL WAY, WA, 98023",239774370,"L"
525610,"3352 85TH STREET       APT 305","JACKSON HEIGHTS","NY",11372,NA,NA,110,"3352 85TH STREET       APT 305, JACKSON HEIGHTS, NY, 11372","No_Match",NA,NA,NA,NA
525611,"3352 ABDY WAY","MARINA","CA",93933,36.6997205820001,-121.796050712,111,"3352 ABDY WAY, MARINA, CA, 93933","Match","Exact","3352 ABDY WAY, MARINA, CA, 93933",196844982,"R"
525612,"3352 APOLLO CIRCLE","ROSEVILLE","CA",95661,38.7514601450001,-121.230188489,112,"3352 APOLLO CIRCLE, ROSEVILLE, CA, 95661","Match","Exact","3352 APOLLO CIR, ROSEVILLE, CA, 95661",608087396,"L"
525613,"3352 BOARD DR","CUYAHOGA FALLS","OH",44223,41.1784232190001,-81.517911101,113,"3352 BOARD DR, CUYAHOGA FALLS, OH, 44223","Match","Exact","3352 BOARD DR, CUYAHOGA FALLS, OH, 44223",61336288,"L"
525614,"3352 BRAEBURN CIRCLE","ANN ARBOR","MI",48108,42.233520459,-83.708968867,114,"3352 BRAEBURN CIRCLE, ANN ARBOR, MI, 48108","Match","Exact","3352 BRAEBURN CIR, ANN ARBOR, MI, 48108",26017237,"R"
525615,"3352 COUNTY ROAD 43","CEDAR BLUFF","AL",35959,34.262726109,-85.716666144,115,"3352 COUNTY ROAD 43, CEDAR BLUFF, AL, 35959","Match","Exact","3352 CO RD 43, CEDAR BLUFF, AL, 35959",651788543,"L"
525616,"3352 CUDAHY ST","HUNTINGTON PARK","CA",90255,33.9640187640001,-118.207627421,116,"3352 CUDAHY ST, HUNTINGTON PARK, CA, 90255","Match","Exact","3352 CUDAHY ST, HUNTINGTON PARK, CA, 90255",241243982,"R"
525617,"3352 CURRY FORD ROAD","ORLANDO","FL",32806,28.5241788280001,-81.341241498,117,"3352 CURRY FORD ROAD, ORLANDO, FL, 32806","Match","Exact","3352 CURRY FORD RD, ORLANDO, FL, 32806",636399883,"R"
525618,"3352 DEAN ROAD","LAMBERTVILLE","MI",48144,41.763630531,-83.6273448219999,118,"3352 DEAN ROAD, LAMBERTVILLE, MI, 48144","Match","Exact","3352 DEAN RD, LAMBERTVILLE, MI, 48144",40496623,"L"
525619,"3352 EAST 100 SOUTH","KOKOMO","IN",46901,40.463150274,-86.063210871,119,"3352 EAST 100 SOUTH, KOKOMO, IN, 46901","Match","Non_Exact","3352 E 100 S, KOKOMO, IN, 46902",27266005,"L"
525620,"3352 FULL MOON DRIVE","PLACERVILLE","CA",95667,38.7242777820001,-120.71991095,120,"3352 FULL MOON DRIVE, PLACERVILLE, CA, 95667","Match","Non_Exact","3352 FULLMOON DR, PLACERVILLE, CA, 95667",133074699,"R"
525621,"3352 GOLDEN KEY RD","NEW TRIPOLI","PA",18066,40.6044247070001,-75.7214850399999,121,"3352 GOLDEN KEY RD, NEW TRIPOLI, PA, 18066","Match","Exact","3352 GOLDEN KEY RD, NEW TRIPOLI, PA, 18066",80753821,"L"
525622,"3352 GOODMAN ROAD","SOUTHAVEN","MS",38672,34.9624194400001,-89.933215935,122,"3352 GOODMAN ROAD, SOUTHAVEN, MS, 38672","Match","Exact","3352 GOODMAN RD, SOUTHAVEN, MS, 38672",91845914,"R"
525623,"3352 HANKERD TRAIL","TOMBSTONE","AZ",85638,NA,NA,123,"3352 HANKERD TRAIL, TOMBSTONE, AZ, 85638","No_Match",NA,NA,NA,NA
525624,"3352 HOWARD AVE","STEVENS POINT","WI",54481,44.4992132450001,-89.520121049,124,"3352 HOWARD AVE, STEVENS POINT, WI, 54481","Match","Exact","3352 HOWARD AVE, STEVENS POINT, WI, 54481",126799491,"L"
525625,"3352 KIMBERLY LN","GRAND PRAIRIE","TX",75052,32.6868888400001,-97.049080599,125,"3352 KIMBERLY LN, GRAND PRAIRIE, TX, 75052","Match","Exact","3352 KIMBERLY LN, GRAND PRAIRIE, TX, 75052",624359775,"R"
525626,"3352 LANDESS AVE APT C","SAN JOSE","CA",95132,37.420651492,-121.864181228,126,"3352 LANDESS AVE APT C, SAN JOSE, CA, 95132","Match","Exact","3352 LANDESS AVE, SAN JOSE, CA, 95132",123175887,"R"
525627,"3352 LANGSHIRE DR","MCDONOUGH","GA",30253,NA,NA,127,"3352 LANGSHIRE DR, MCDONOUGH, GA, 30253","No_Match",NA,NA,NA,NA
525628,"3352 N ALPINE VISTA WAY","LEHI","UT",84043,40.4296750290001,-111.827760513,128,"3352 N ALPINE VISTA WAY, LEHI, UT, 84043","Match","Exact","3352 N ALPINE VISTA WAY, LEHI, UT, 84043",227058987,"L"
525629,"3352 N CALLE LARGO","TUCSON","AZ",85750,32.268410433,-110.830422664,129,"3352 N CALLE LARGO, TUCSON, AZ, 85750","Match","Non_Exact","3352 N CLL LARGO, TUCSON, AZ, 85750",121178853,"R"
525630,"3352 PLAINVIEW DRIVE","TOLEDO","OH",43615,41.6797983540001,-83.6960279199999,130,"3352 PLAINVIEW DRIVE, TOLEDO, OH, 43615","Match","Exact","3352 PLAINVIEW DR, TOLEDO, OH, 43615",649987981,"R"
525631,"3352 RICCI LN","IRVING","TX",75062,32.850227838,-96.9328891869999,131,"3352 RICCI LN, IRVING, TX, 75062","Match","Exact","3352 RICCI LN, IRVING, TX, 75062",103000911,"R"
525632,"3352 ROFF AVE","MACON","GA",31204,32.850682168,-83.680390167,132,"3352 ROFF AVE, MACON, GA, 31204","Match","Exact","3352 ROFF AVE, MACON, GA, 31204",640442310,"L"
525633,"3352 SHADOW OAKS PARKWAY APT 6","HORN LAKE","MS",38637,34.9591804030001,-90.050298923,133,"3352 SHADOW OAKS PARKWAY APT 6, HORN LAKE, MS, 38637","Match","Exact","3352 SHADOW OAKS PKWY, HORN LAKE, MS, 38637",91832472,"R"
525634,"3352 SHADOW OAKS PARKWAY","HORN LAKE","MS",38637,34.9591804030001,-90.050298923,134,"3352 SHADOW OAKS PARKWAY, HORN LAKE, MS, 38637","Match","Exact","3352 SHADOW OAKS PKWY, HORN LAKE, MS, 38637",91832472,"R"
525635,"3352 SHERMAN CT SUITE 202","ST PAUL","MN",55121,44.8370487240001,-93.1644793999999,135,"3352 SHERMAN CT SUITE 202, ST PAUL, MN, 55121","Match","Exact","3352 SHERMAN CT, SAINT PAUL, MN, 55121",37908886,"L"
525636,"3352 TUALATIN WAY","RANCHO CORDOVA","CA",95670,38.5816905620001,-121.267782647,136,"3352 TUALATIN WAY, RANCHO CORDOVA, CA, 95670","Match","Exact","3352 TUALATIN WAY, RANCHO CORDOVA, CA, 95670",133436204,"R"
525637,"3352 W WILSON AVE","CHICAGO","IL",60625,41.9646751080001,-87.71224625,137,"3352 W WILSON AVE, CHICAGO, IL, 60625","Match","Non_Exact","3352 W WILSON AVE, CHICAGO, IL, 60625",111756578,"R"
525638,"3352 WATER TOWER RD","ENOSBURG FALLS","VT",5450,44.958508221,-72.787496112,138,"3352 WATER TOWER RD, ENOSBURG FALLS, VT, 5450","Match","Exact","3352 WATER TOWER RD, ENOSBURG FALLS, VT, 05450",136524759,"R"
525639,"3352","LOUDONVILLE","OH",44842,NA,NA,139,"3352, LOUDONVILLE, OH, 44842","No_Match",NA,NA,NA,NA
525640,"33520 BEVERLY DRIVE","HEMET","CA",92545,33.7425422380001,-117.075538772,140,"33520 BEVERLY DRIVE, HEMET, CA, 92545","Match","Exact","33520 BEVERLY DR, HEMET, CA, 92545",194754528,"L"
525641,"33520 TWIN CREEK WAY","RONAN","MT",59864,47.566097373,-114.060857335,141,"33520 TWIN CREEK WAY, RONAN, MT, 59864","Match","Non_Exact","33520 TWIN CREEKS WAY, RONAN, MT, 59864",206924075,"R"
525642,"33522 NIGUEL RD STE 100","DANA POINT","CA",92629,33.4761855580001,-117.715966493,142,"33522 NIGUEL RD STE 100, DANA POINT, CA, 92629","Match","Exact","33522 NIGUEL RD, DANA POINT, CA, 92629",616574929,"L"
525643,"33524 RD T NE","HARTLINE","WA",99135,47.575147906,-119.063970751,143,"33524 RD T NE, HARTLINE, WA, 99135","Match","Exact","33524 RD T NE, HARTLINE, WA, 99135",157081831,"L"
525644,"33528 STATE HIGHWAY 44","SHINGLETOWN","CA",96088,NA,NA,144,"33528 STATE HIGHWAY 44, SHINGLETOWN, CA, 96088","No_Match",NA,NA,NA,NA
525645,"3353 AIRPORT BLVD","HOUSTON","TX",77051,29.643874125,-95.374221531,145,"3353 AIRPORT BLVD, HOUSTON, TX, 77051","Match","Exact","3353 AIRPORT BLVD, HOUSTON, TX, 77051",96595853,"L"
525646,"3353 ALDEN PLACE  NE","WASHINGTON","DC",20019,38.891280882,-76.958779755,146,"3353 ALDEN PLACE  NE, WASHINGTON, DC, 20019","Match","Exact","3353 ALDEN PL NE, WASHINGTON, DC, 20019",76231497,"R"
525647,"3353 BALTIC DRIVE","NAPLES","FL",34119,26.2953231290001,-81.7115523049999,147,"3353 BALTIC DRIVE, NAPLES, FL, 34119","Match","Exact","3353 BALTIC DR, NAPLES, FL, 34119",646515895,"L"
525648,"3353 BETTY LANE","PITTSBURG","CA",94565,38.012421198,-121.895747855,148,"3353 BETTY LANE, PITTSBURG, CA, 94565","Match","Exact","3353 BETTY LN, PITTSBURG, CA, 94565",607713852,"L"
525649,"3353 BRADLEY RD","OMRO","WI",54963,44.0120670040001,-88.7347167789999,149,"3353 BRADLEY RD, OMRO, WI, 54963","Match","Exact","3353 BRADLEY RD, OMRO, WI, 54963",74483610,"L"
525650,"3353 BRADLEY ROAD","OMRO","WI",54963,44.0120670040001,-88.7347167789999,150,"3353 BRADLEY ROAD, OMRO, WI, 54963","Match","Exact","3353 BRADLEY RD, OMRO, WI, 54963",74483610,"L"
525651,"3353 CHESTER GROVE RD","UPPER MARLBORO","MD",20774,NA,NA,151,"3353 CHESTER GROVE RD, UPPER MARLBORO, MD, 20774","No_Match",NA,NA,NA,NA
525652,"3353 CLAIR CIRCLE","MARIETTA","GA",30066,34.03381376,-84.5109692949999,152,"3353 CLAIR CIRCLE, MARIETTA, GA, 30066","Match","Exact","3353 CLAIR CIR, MARIETTA, GA, 30066",17168910,"L"
525653,"3353 CLARENDON ROAD","CLEVELAND HEIGHTS","OH",44118,41.49311643,-81.560524415,153,"3353 CLARENDON ROAD, CLEVELAND HEIGHTS, OH, 44118","Match","Exact","3353 CLARENDON RD, CLEVELAND HEIGHTS, OH, 44118",61123580,"L"
525654,"3353 DEEP WELL CT","ABINGDON","MD",21009,39.471817055,-76.296870998,154,"3353 DEEP WELL CT, ABINGDON, MD, 21009","Match","Non_Exact","3353 DEEPWELL CT, ABINGDON, MD, 21009",191652529,"R"
525655,"3353 DONNELL DR","FORESTVILLE","MD",20747,38.845798642,-76.884900031,155,"3353 DONNELL DR, FORESTVILLE, MD, 20747","Match","Exact","3353 DONNELL DR, FORESTVILLE, MD, 20747",76386702,"R"
525656,"3353 DOUGLAS DR N","CRYSTAL","MN",55422,45.0172357330001,-93.3600382669999,156,"3353 DOUGLAS DR N, CRYSTAL, MN, 55422","Match","Exact","3353 DOUGLAS DR N, CRYSTAL, MN, 55422",43618465,"L"
525657,"3353 DOVE AVE","ROCK VALLEY","IA",51247,43.1645586390001,-96.33326336,157,"3353 DOVE AVE, ROCK VALLEY, IA, 51247","Match","Exact","3353 DOVE AVE, ROCK VALLEY, IA, 51247",93369321,"L"
525658,"3353 E SOUTH RANGE RD","NEW SPRINGFIELD","OH",44443,40.943649813,-80.589065953,158,"3353 E SOUTH RANGE RD, NEW SPRINGFIELD, OH, 44443","Match","Exact","3353 E SOUTH RANGE RD, NEW SPRINGFIELD, OH, 44443",64613974,"R"
525659,"3353 ELGIN","HOUSTON","TX",77004,NA,NA,159,"3353 ELGIN, HOUSTON, TX, 77004","Tie",NA,NA,NA,NA
525660,"3353 FOX DEN CIRCLE","LEXINGTON","KY",40515,37.9688378590001,-84.4604993739999,160,"3353 FOX DEN CIRCLE, LEXINGTON, KY, 40515","Match","Exact","3353 FOX DEN CIR, LEXINGTON, KY, 40515",31932697,"L"
525661,"3353 Glenwood Road","decatur","GA",NA,33.738536201,-84.280867136,161,"3353 Glenwood Road, decatur, GA, ","Match","Exact","3353 GLENWOOD RD, DECATUR, GA, 30032",23368465,"R"
525662,"3353 GLENWOOD ROAD","DECATUR","GA",NA,33.738536201,-84.280867136,162,"3353 GLENWOOD ROAD, DECATUR, GA, ","Match","Exact","3353 GLENWOOD RD, DECATUR, GA, 30032",23368465,"R"
525663,"3353 GREENVILLE DR","WINTER HAVEN","FL",33884,NA,NA,163,"3353 GREENVILLE DR, WINTER HAVEN, FL, 33884","No_Match",NA,NA,NA,NA
525664,"3353 HIGHWAY 49 SOUTH","MARIPOSA","CA",95338,NA,NA,164,"3353 HIGHWAY 49 SOUTH, MARIPOSA, CA, 95338","No_Match",NA,NA,NA,NA
525665,"3353 HILLTOP DRIVE","HUNTINGTON","WV",25702,38.42595865,-82.3788169319999,165,"3353 HILLTOP DRIVE, HUNTINGTON, WV, 25702","Match","Exact","3353 HILLTOP DR, HUNTINGTON, WV, 25702",101319742,"R"
525666,"3353 HUNTER ROAD","LEXINGTON","KY",40502,37.9977892360001,-84.510492275,166,"3353 HUNTER ROAD, LEXINGTON, KY, 40502","Match","Exact","3353 HUNTER RD, LEXINGTON, KY, 40502",652741778,"R"
525667,"3353 HWY P","OWENSVILLE","MO",65066,NA,NA,167,"3353 HWY P, OWENSVILLE, MO, 65066","No_Match",NA,NA,NA,NA
525668,"3353 INTERNATIONAL VILLAGE COURT","JACKSONVILLE","FL",32277,30.35985321,-81.568549079,168,"3353 INTERNATIONAL VILLAGE COURT, JACKSONVILLE, FL, 32277","Match","Exact","3353 INTERNATIONAL VILLAGE CT, JACKSONVILLE, FL, 32277",83959737,"L"
525669,"3353 LATHENVIEW CT","ALPHARETTA","GA",30004,34.1011779300001,-84.2627559439999,169,"3353 LATHENVIEW CT, ALPHARETTA, GA, 30004","Match","Exact","3353 LATHENVIEW CT, ALPHARETTA, GA, 30004",637428525,"L"
525670,"3353 LYON DR","LEXINGTON","IL",40513,NA,NA,170,"3353 LYON DR, LEXINGTON, IL, 40513","No_Match",NA,NA,NA,NA
525671,"3353 MARION OAKS WAY","PENSACOLA","FL",32507,30.3826570350001,-87.319719363,171,"3353 MARION OAKS WAY, PENSACOLA, FL, 32507","Match","Exact","3353 MARION OAKS WAY, PENSACOLA, FL, 32507",93282980,"L"
525672,"3353 MCROBERTS ROAD","PITTSBURGH","PA",15234,40.3661284470001,-80.009137053,172,"3353 MCROBERTS ROAD, PITTSBURGH, PA, 15234","Match","Exact","3353 MCROBERTS RD, PITTSBURGH, PA, 15234",51638660,"L"
525673,"3353 MEADOWMONT LANE","RICHMOND","VA",23223,37.5568267130001,-77.389670915,173,"3353 MEADOWMONT LANE, RICHMOND, VA, 23223","Match","Exact","3353 MEADOWMONT LN, RICHMOND, VA, 23223",106671850,"L"
525674,"3353 NEALS GULF RD","NEW HARTFORD","NY",13413,43.0220160700001,-75.2979383649999,174,"3353 NEALS GULF RD, NEW HARTFORD, NY, 13413","Match","Exact","3353 NEALS GULF RD, NEW HARTFORD, NY, 13413",171528764,"L"
525675,"3353 NEESES HWY","ORANGEBURG","SC",29115,33.5208866620001,-81.0112817579999,175,"3353 NEESES HWY, ORANGEBURG, SC, 29115","Match","Exact","3353 NEESES HWY, ORANGEBURG, SC, 29115",19215194,"R"
525676,"3353 NEW DIXSONVILLE ROAD","TRASKWOOD","AR",72167,NA,NA,176,"3353 NEW DIXSONVILLE ROAD, TRASKWOOD, AR, 72167","Tie",NA,NA,NA,NA
525677,"3353 NORTHRIDGE DR","AMANA","IA",52203,NA,NA,177,"3353 NORTHRIDGE DR, AMANA, IA, 52203","No_Match",NA,NA,NA,NA
525678,"3353 NORTHWOOD LN","PLANO","TX",75074,33.0411659050001,-96.694307021,178,"3353 NORTHWOOD LN, PLANO, TX, 75074","Match","Exact","3353 NORTHWOOD LN, PLANO, TX, 75074",123489109,"L"
525679,"3353 OAK BEND BLVD","CANAL WINCHESTER","OH",43110,39.9139071110001,-82.8177389909999,179,"3353 OAK BEND BLVD, CANAL WINCHESTER, OH, 43110","Match","Exact","3353 OAK BEND BLVD, CANAL WINCHESTER, OH, 43110",218677131,"R"
525680,"3353 PEACHTREE ROAD NE SUITE 555","ATLANTA","GA",30326,33.8430823300001,-84.362859245,180,"3353 PEACHTREE ROAD NE SUITE 555, ATLANTA, GA, 30326","Match","Non_Exact","3353 PEACHTREE DR NE, ATLANTA, GA, 30326",17397105,"L"
525681,"3353 SUMMIT RD","BIG CLIFTY","KY",42712,37.5140478980001,-86.103697003,181,"3353 SUMMIT RD, BIG CLIFTY, KY, 42712","Match","Exact","3353 SUMMIT RD, BIG CLIFTY, KY, 42712",15775323,"L"
525682,"3353 SW 20TH ST","OKEECHOBEE","FL",34974,27.2256055190001,-80.862517977,182,"3353 SW 20TH ST, OKEECHOBEE, FL, 34974","Match","Exact","3353 SW 20TH ST, OKEECHOBEE, FL, 34974",4939767,"R"
525683,"3353 SYCAMORE RD","CLARKSBURG","WV",26301,39.25534902,-80.4444519909999,183,"3353 SYCAMORE RD, CLARKSBURG, WV, 26301","Match","Exact","3353 SYCAMORE RD, CLARKSBURG, WV, 26301",53300279,"L"
525684,"3353 TAMIAMI TRAIL N","NAPLES","FL",34103,NA,NA,184,"3353 TAMIAMI TRAIL N, NAPLES, FL, 34103","No_Match",NA,NA,NA,NA
525685,"3353 TESORO CIRCLE","NEW SMYRNA","FL",32168,29.043513692,-81.028169339,185,"3353 TESORO CIRCLE, NEW SMYRNA, FL, 32168","Match","Exact","3353 TESORO CIR, NEW SMYRNA, FL, 32168",645366824,"R"
525686,"3353 W VIRGINIA DR UNIT B","DENVER","CO",80219,NA,NA,186,"3353 W VIRGINIA DR UNIT B, DENVER, CO, 80219","No_Match",NA,NA,NA,NA
525687,"3353 WEMBLEY WALK","TUCKER","GA",30084,33.8784490740001,-84.217427363,187,"3353 WEMBLEY WALK, TUCKER, GA, 30084","Match","Exact","3353 WEMBLEY WALK, TUCKER, GA, 30084",634040915,"R"
525688,"33530 1ST AVE WAY S","FEDERAL WAY","WA",98003,NA,NA,188,"33530 1ST AVE WAY S, FEDERAL WAY, WA, 98003","No_Match",NA,NA,NA,NA
525689,"33530 DRILL RD","AGUA DULCE","CA",91390,34.496978046,-118.332023187,189,"33530 DRILL RD, AGUA DULCE, CA, 91390","Match","Exact","33530 DRILL RD, AGUA DULCE, CA, 91390",142680126,"R"
525690,"33530 STEELE STREET","SANTA CLARITA","CA",91390,34.5132224020001,-118.360135675,190,"33530 STEELE STREET, SANTA CLARITA, CA, 91390","Match","Exact","33530 STEELE ST, SANTA CLARITA, CA, 91390",142828705,"R"
525691,"33531 MINERAL BRANCH RD","CALIFORNIA","MO",65018,38.583819308,-92.574541158,191,"33531 MINERAL BRANCH RD, CALIFORNIA, MO, 65018","Match","Exact","33531 MINERAL BRANCH RD, CALIFORNIA, MO, 65018",34480553,"R"
525692,"33535 N ROYAL OAK LN APT 204","GRAYSLAKE","IL",60030,42.350462201,-87.986973397,192,"33535 N ROYAL OAK LN APT 204, GRAYSLAKE, IL, 60030","Match","Non_Exact","33535 N ROYAL OAK LN, GRAYSLAKE, IL, 60030",119636693,"L"
525693,"33536 WEST DEER LAKE ROAD","DEER RIVER","MN",56636,47.359022458,-93.697723961,193,"33536 WEST DEER LAKE ROAD, DEER RIVER, MN, 56636","Match","Exact","33536 W DEER LAKE RD, DEER RIVER, MN, 56636",162958372,"L"
525694,"33538 PALMER RD","WESTLAND","MI",48186,42.29588145,-83.37043297,194,"33538 PALMER RD, WESTLAND, MI, 48186","Match","Exact","33538 PALMER RD, WESTLAND, MI, 48186",617582376,"R"
525695,"33538 PALMER ROAD","WESTLAND","MI",48186,42.29588145,-83.37043297,195,"33538 PALMER ROAD, WESTLAND, MI, 48186","Match","Exact","33538 PALMER RD, WESTLAND, MI, 48186",617582376,"R"
525696,"3353A HILLTOP DRIVE","HUNTINGTON","WV",25702,38.4259596530001,-82.378814775,196,"3353A HILLTOP DRIVE, HUNTINGTON, WV, 25702","Match","Exact","3353 HILLTOP DR, HUNTINGTON, WV, 25702",101319742,"R"
525697,"3354 123RD LANE NE","BLAINE","MN",55449,45.1933711180001,-93.1841661889999,197,"3354 123RD LANE NE, BLAINE, MN, 55449","Match","Exact","3354 123RD LN NE, BLAINE, MN, 55449",614150803,"L"
525698,"3354 89TH LN NE","MINNEAPOLIS","MN",55449,45.1327672350001,-93.185162882,198,"3354 89TH LN NE, MINNEAPOLIS, MN, 55449","Match","Exact","3354 89TH LN NE, MINNEAPOLIS, MN, 55449",97492481,"R"
525699,"3354 ALBANS LN","MONTGOMERY","AL",36116,32.3413507500001,-86.252805095,199,"3354 ALBANS LN, MONTGOMERY, AL, 36116","Match","Non_Exact","3354 ALBANS LN, MONTGOMERY, AL, 36111",1476462,"R"
525700,"3354 ANNE STREET","STOCKTON","CA",95206,37.9206582150001,-121.257173843,200,"3354 ANNE STREET, STOCKTON, CA, 95206","Match","Exact","3354 ANNE ST, STOCKTON, CA, 95206",133853035,"L"
525701,"3354 BALOMEDE","LANCASTER","TX",75134,32.630421568,-96.821240011,201,"3354 BALOMEDE, LANCASTER, TX, 75134","Match","Non_Exact","3354 BALOMEDE ST, LANCASTER, TX, 75134",102953401,"R"
525702,"3354 CANNES AVE","RIVERSIDE","CA",92501,34.012158207,-117.348623344,202,"3354 CANNES AVE, RIVERSIDE, CA, 92501","Match","Exact","3354 CANNES AVE, RIVERSIDE, CA, 92501",194734164,"L"
525703,"3354 COMSTOCK","HAMTRAMCK","MI",48212,42.3960269250001,-83.051837264,203,"3354 COMSTOCK, HAMTRAMCK, MI, 48212","Match","Non_Exact","3354 COMSTOCK ST, HAMTRAMCK, MI, 48212",95465345,"R"
525704,"3354 DUNBAR AVENUE","FORT COLLINS","CO",80526,40.5419628510001,-105.109495876,204,"3354 DUNBAR AVENUE, FORT COLLINS, CO, 80526","Match","Exact","3354 DUNBAR AVE, FORT COLLINS, CO, 80526",188505358,"L"
525705,"3354 E THORNTON AVE","GILBERT","AZ",85297,33.263809834,-111.717304762,205,"3354 E THORNTON AVE, GILBERT, AZ, 85297","Match","Exact","3354 E THORNTON AVE, GILBERT, AZ, 85297",128852208,"L"
525706,"3354 EAST MANOA ROAD","HONOLULU","HI",96822,21.315773419,-157.803881217,206,"3354 EAST MANOA ROAD, HONOLULU, HI, 96822","Match","Exact","3354 E MANOA RD, HONOLULU, HI, 96822",203238145,"L"
525707,"3354 EMILY DR","PORT ALLEN","LA",70767,30.407949322,-91.248197846,207,"3354 EMILY DR, PORT ALLEN, LA, 70767","Match","Exact","3354 EMILY DR, PORT ALLEN, LA, 70767",92291225,"R"
525708,"3354 FOREST GLEN DR","CORINTH","TX",76210,33.1316356680001,-97.079172195,208,"3354 FOREST GLEN DR, CORINTH, TX, 76210","Match","Exact","3354 FOREST GLEN DR, CORINTH, TX, 76210",103392408,"L"
525709,"3354 GURRERO DRIVE","VIERA","FL",32940,28.2333505330001,-80.748915328,209,"3354 GURRERO DRIVE, VIERA, FL, 32940","Match","Exact","3354 GURRERO DR, VIERA, FL, 32940",631560980,"L"
525710,"3354 HGHWAY 4 EAST","COLUMBIA","LA",71418,NA,NA,210,"3354 HGHWAY 4 EAST, COLUMBIA, LA, 71418","No_Match",NA,NA,NA,NA
525711,"3354 LEFEVRE ROAD","TROY","OH",45373,40.034277918,-84.143082335,211,"3354 LEFEVRE ROAD, TROY, OH, 45373","Match","Exact","3354 LEFEVRE RD, TROY, OH, 45373",207645341,"R"
525712,"3354 MEADOWSIDE DRIVE","SACHSE","TX",75048,32.9906172660001,-96.592029332,212,"3354 MEADOWSIDE DRIVE, SACHSE, TX, 75048","Match","Exact","3354 MEADOWSIDE DR, SACHSE, TX, 75048",642951912,"L"
525713,"3354 NE 127TH PLACE","ANTHONY","FL",32617,29.335419932,-82.091600027,213,"3354 NE 127TH PLACE, ANTHONY, FL, 32617","Match","Exact","3354 NE 127TH PL, ANTHONY, FL, 32617",116832599,"R"
525714,"3354 NORTH RIVER ROAD","AUGUSTA","WV",26704,39.2899376180001,-78.536596168,214,"3354 NORTH RIVER ROAD, AUGUSTA, WV, 26704","Match","Exact","3354 N RIVER RD, AUGUSTA, WV, 26704",245412072,"R"
525715,"3354 PARK RD","GREENLEAF","WI",54126,44.2844453010001,-87.9780580359999,215,"3354 PARK RD, GREENLEAF, WI, 54126","Match","Exact","3354 PARK RD, GREENLEAF, WI, 54126",148110003,"L"
525716,"3354 PEPPERHOUSE ROAD","GLOSTER","MS",39638,31.128482585,-91.02463297,216,"3354 PEPPERHOUSE ROAD, GLOSTER, MS, 39638","Match","Non_Exact","3354 PEPPER HOUSE RD, GLOSTER, MS, 39638",612205405,"L"
525717,"3354 PINAL ST","HONOLULU","HI",96822,NA,NA,217,"3354 PINAL ST, HONOLULU, HI, 96822","No_Match",NA,NA,NA,NA
525718,"3354 PRAIRIE PASS","APISON","TN",37302,NA,NA,218,"3354 PRAIRIE PASS, APISON, TN, 37302","No_Match",NA,NA,NA,NA
525719,"3354 PRESCOTT PLACE","CONCORD","NC",28027,35.404849272,-80.6350124049999,219,"3354 PRESCOTT PLACE, CONCORD, NC, 28027","Match","Non_Exact","3354 PRESCOTT PL NW, CONCORD, NC, 28027",24911992,"L"
525720,"3354 REILY MILLVILLE RD","HAMILTON","OH",45013,39.3990919300001,-84.673212275,220,"3354 REILY MILLVILLE RD, HAMILTON, OH, 45013","Match","Exact","3354 REILY MILLVILLE RD, HAMILTON, OH, 45013",640810424,"L"
525721,"3354 ROCHELLE LANE","CORONA","CA",92882,33.8391214550001,-117.575336498,221,"3354 ROCHELLE LANE, CORONA, CA, 92882","Match","Exact","3354 ROCHELLE LN, CORONA, CA, 92882",194872264,"R"
525722,"3354 RODGERDALE ROAD 525","HOUSTON","TX",77042,NA,NA,222,"3354 RODGERDALE ROAD 525, HOUSTON, TX, 77042","No_Match",NA,NA,NA,NA
525723,"3354 ROGERDALE RD APT 9311","HOUSTON","TX",77042,29.7229342370001,-95.559602252,223,"3354 ROGERDALE RD APT 9311, HOUSTON, TX, 77042","Match","Exact","3354 ROGERDALE RD, HOUSTON, TX, 77042",638594601,"L"
525724,"3354 ROGERDALE ROAD SUITE 817","HOUSTON","TX",77042,29.7229342370001,-95.559602252,224,"3354 ROGERDALE ROAD SUITE 817, HOUSTON, TX, 77042","Match","Exact","3354 ROGERDALE RD, HOUSTON, TX, 77042",638594601,"L"
525725,"3354 ROGERDALE ROAD","HOUSTON","TX",77042,29.7229342370001,-95.559602252,225,"3354 ROGERDALE ROAD, HOUSTON, TX, 77042","Match","Exact","3354 ROGERDALE RD, HOUSTON, TX, 77042",638594601,"L"
525726,"3354 SE 20TH AVENUE","LINCOLN CITY","OR",97367,NA,NA,226,"3354 SE 20TH AVENUE, LINCOLN CITY, OR, 97367","No_Match",NA,NA,NA,NA
525727,"3354 SHELLMOUND RD","JASPER","TN",37347,35.022916638,-85.6086851269999,227,"3354 SHELLMOUND RD, JASPER, TN, 37347","Match","Exact","3354 SHELLMOUND RD, JASPER, TN, 37347",58412767,"L"
525728,"3354 SHELLMOUND ROAD","JASPER","TN",37347,35.022916638,-85.6086851269999,228,"3354 SHELLMOUND ROAD, JASPER, TN, 37347","Match","Exact","3354 SHELLMOUND RD, JASPER, TN, 37347",58412767,"L"
525729,"3354 STOER RD","SHAKER HEIGHTS","OH",44122,NA,NA,229,"3354 STOER RD, SHAKER HEIGHTS, OH, 44122","No_Match",NA,NA,NA,NA
525730,"3354 STRAW BRIDGE RD","OLIVE BRANCH","MS",38654,34.909398966,-89.807153595,230,"3354 STRAW BRIDGE RD, OLIVE BRANCH, MS, 38654","Match","Exact","3354 STRAW BRIDGE RD, OLIVE BRANCH, MS, 38654",641112480,"L"
525731,"3354 W MONCRIEF PLACE","DENVER","CO",80211,39.7629910970001,-105.031277014,231,"3354 W MONCRIEF PLACE, DENVER, CO, 80211","Match","Non_Exact","3354 W MONCRIEFF PL, DENVER, CO, 80211",177300841,"L"
525732,"3354 W WAVE DR","MERIDIAN","ID",82642,43.614363187,-116.435950781,232,"3354 W WAVE DR, MERIDIAN, ID, 82642","Match","Non_Exact","3354 W WAVE DR, MERIDIAN, ID, 83642",117932442,"R"
525733,"3354 WILD OAK LANE","ESCONDIDO","CA",92027,33.128259681,-117.00833524,233,"3354 WILD OAK LANE, ESCONDIDO, CA, 92027","Match","Exact","3354 WILD OAK LN, ESCONDIDO, CA, 92027",636471660,"R"
525734,"3354 WILLOW LANE DR","MONTGOMERY","AL",36109,32.381616739,-86.2595329769999,234,"3354 WILLOW LANE DR, MONTGOMERY, AL, 36109","Match","Exact","3354 WILLOW LANE DR, MONTGOMERY, AL, 36109",1471658,"R"
525735,"3354 WILLOWDALE COURT","PORTAGE","IN",46368,41.556577718,-87.197453743,235,"3354 WILLOWDALE COURT, PORTAGE, IN, 46368","Match","Exact","3354 WILLOWDALE CT, PORTAGE, IN, 46368",119911014,"R"
525736,"3354 WUNDER AVENUE","CINCINNATI","OH",45211,39.1480656640001,-84.592433484,236,"3354 WUNDER AVENUE, CINCINNATI, OH, 45211","Match","Exact","3354 WUNDER AVE, CINCINNATI, OH, 45211",103947143,"R"
525737,"33540 LOOP RD","KIRKWOOD","CA",95646,38.689863087,-120.072021802,237,"33540 LOOP RD, KIRKWOOD, CA, 95646","Match","Exact","33540 LOOP RD, KIRKWOOD, CA, 95646",651656298,"R"
525738,"33541 GENE AUTRY CIRCLE","YUCAIPA","CA",92399,34.017497753,-117.072702015,238,"33541 GENE AUTRY CIRCLE, YUCAIPA, CA, 92399","Match","Exact","33541 GENE AUTRY CIR, YUCAIPA, CA, 92399",614816296,"R"
525739,"33544 WARWICK HILLS RD","YUCAIPA","CA",92399,34.038190985,-117.07231979,239,"33544 WARWICK HILLS RD, YUCAIPA, CA, 92399","Match","Exact","33544 WARWICK HILLS RD, YUCAIPA, CA, 92399",615015887,"L"
525740,"33545 N COUNTY HWY 2","LONDON MILLS","IL",61544,40.6771639880001,-90.271595938,240,"33545 N COUNTY HWY 2, LONDON MILLS, IL, 61544","Match","Non_Exact","33545 CO RD 2, LONDON MILLS, IL, 61544",635502469,"R"
525741,"3355 16TH ST NW","WASHINGTON","DC",20010,38.9328949310001,-77.036445804,241,"3355 16TH ST NW, WASHINGTON, DC, 20010","Match","Exact","3355 16TH ST NW, WASHINGTON, DC, 20010",76222857,"R"
525742,"3355 4TH AVE","SAN DIEGO","CA",92103,32.740321011,-117.161261643,242,"3355 4TH AVE, SAN DIEGO, CA, 92103","Match","Exact","3355 4TH AVE, SAN DIEGO, CA, 92103",195343121,"R"
525743,"3355 AVALON DR","HOOD RIVER","OR",97031,45.6962930500001,-121.531024946,243,"3355 AVALON DR, HOOD RIVER, OR, 97031","Match","Exact","3355 AVALON DR, HOOD RIVER, OR, 97031",632007180,"R"
525744,"3355 BELLINGHAM DR","ORLANDO","FL",32825,28.5035631220001,-81.23423367,244,"3355 BELLINGHAM DR, ORLANDO, FL, 32825","Match","Exact","3355 BELLINGHAM DR, ORLANDO, FL, 32825",94394217,"L"
525745,"3355 BLACKBURN STREET 4101","DALLAS","TX",75204,32.8110952390001,-96.798536338,245,"3355 BLACKBURN STREET 4101, DALLAS, TX, 75204","Match","Exact","3355 BLACKBURN ST, DALLAS, TX, 75204",102908966,"L"
525746,"3355 BRITTAN AVE UNIT 10","SAN CARLOS","CA",94070,37.4822337630001,-122.286359852,246,"3355 BRITTAN AVE UNIT 10, SAN CARLOS, CA, 94070","Match","Exact","3355 BRITTAN AVE, SAN CARLOS, CA, 94070",604988456,"L"
525747,"3355 CHERUB CT","LECANTO","FL",34461,28.799877687,-82.489579121,247,"3355 CHERUB CT, LECANTO, FL, 34461","Match","Non_Exact","3355 W CHERUB CT, LECANTO, FL, 34461",86202474,"R"
525748,"3355 CLAIRE LANE APT 610","JACKSONVILLE","FL",32223,30.1753545020001,-81.623135911,248,"3355 CLAIRE LANE APT 610, JACKSONVILLE, FL, 32223","Match","Exact","3355 CLAIRE LN, JACKSONVILLE, FL, 32223",642493368,"L"
525749,"3355 COLUMBIA DR","DECATUR","GA",30034,33.6932122170001,-84.258325025,249,"3355 COLUMBIA DR, DECATUR, GA, 30034","Match","Exact","3355 COLUMBIA DR, DECATUR, GA, 30034",23370831,"R"
525750,"3355 CORSA AVE","BRONX","NY",10469,40.8756784620001,-73.8467319539999,250,"3355 CORSA AVE, BRONX, NY, 10469","Match","Exact","3355 CORSA AVE, BRONX, NY, 10469",80310281,"L"
525751,"3355 DESCANSO DRIVE","LOS ANGELES","CA",90026,34.085270918,-118.276793148,251,"3355 DESCANSO DRIVE, LOS ANGELES, CA, 90026","Match","Exact","3355 DESCANSO DR, LOS ANGELES, CA, 90026",141604783,"R"
525752,"3355 E FERNWOOD AVE","NEWBURG","OR",97132,45.2989609320001,-122.945641888,252,"3355 E FERNWOOD AVE, NEWBURG, OR, 97132","Match","Non_Exact","3355 E FERNWOOD RD, NEWBERG, OR, 97132",653677811,"R"
525753,"3355 E GRAND CANYON DR","CHANDLER","AZ",85249,33.245919739,-111.785206327,253,"3355 E GRAND CANYON DR, CHANDLER, AZ, 85249","Match","Exact","3355 E GRAND CANYON DR, CHANDLER, AZ, 85249",614554858,"L"
525754,"3355 FOREST PARKWAY","DECATUR","IL",62521,39.8844882080001,-88.8742079689999,254,"3355 FOREST PARKWAY, DECATUR, IL, 62521","Match","Exact","3355 FOREST PKWY, DECATUR, IL, 62521",20751210,"L"
525755,"3355 FORT SUMTER ST","MELBOURNE","FL",32934,28.1687564690001,-80.679990093,255,"3355 FORT SUMTER ST, MELBOURNE, FL, 32934","Match","Exact","3355 FORT SUMTER ST, MELBOURNE, FL, 32934",93933344,"L"
525756,"3355 FORT SUMTER STREET","MELBOURNE","FL",32934,28.1687564690001,-80.679990093,256,"3355 FORT SUMTER STREET, MELBOURNE, FL, 32934","Match","Exact","3355 FORT SUMTER ST, MELBOURNE, FL, 32934",93933344,"L"
525757,"3355 GEORGE BUSBEE PKWY NW APT 404","KENNESAW","GA",30144,34.028753223,-84.568912267,257,"3355 GEORGE BUSBEE PKWY NW APT 404, KENNESAW, GA, 30144","Match","Exact","3355 GEORGE BUSBEE PKWY NW, KENNESAW, GA, 30144",642622129,"L"
525758,"3355 GRANDADDY ROAD","LAWRENCEBURG","TN",38464,35.2652149250001,-87.4434881179999,258,"3355 GRANDADDY ROAD, LAWRENCEBURG, TN, 38464","Match","Exact","3355 GRANDADDY RD, LAWRENCEBURG, TN, 38464",639205989,"L"
525759,"3355 HARVEY ROAD","HUNTINGTON","WV",25704,NA,NA,259,"3355 HARVEY ROAD, HUNTINGTON, WV, 25704","No_Match",NA,NA,NA,NA
525760,"3355 HERITAGE OAKS DRIVE","HILLIARD","OH",43026,40.019414361,-83.1722367199999,260,"3355 HERITAGE OAKS DRIVE, HILLIARD, OH, 43026","Match","Exact","3355 HERITAGE OAKS DR, HILLIARD, OH, 43026",218698830,"R"
525761,"3355 HIAWATHA AVENUE SOUTH 201","MINNEAPOLIS","MN",55406,44.942088272,-93.233966724,261,"3355 HIAWATHA AVENUE SOUTH 201, MINNEAPOLIS, MN, 55406","Match","Non_Exact","3355 HIAWATHA AVE, MINNEAPOLIS, MN, 55406",43639716,"L"
525762,"3355 KEITHSHIRE WAY","LEXINGTON","KY",40503,37.995681587,-84.551805669,262,"3355 KEITHSHIRE WAY, LEXINGTON, KY, 40503","Match","Exact","3355 KEITHSHIRE WAY, LEXINGTON, KY, 40503",31920194,"R"
525763,"3355 LADUE STREET","MEMPHIS","TN",38127,35.2174758350001,-89.9729826769999,263,"3355 LADUE STREET, MEMPHIS, TN, 38127","Match","Exact","3355 LADUE ST, MEMPHIS, TN, 38127",72911280,"L"
525764,"3355 LENOX RD NE 750","ATLANTA","GA",30326,33.8464413200001,-84.359172767,264,"3355 LENOX RD NE 750, ATLANTA, GA, 30326","Match","Non_Exact","3355 LENOX RD, ATLANTA, GA, 30326",17355651,"R"
525765,"3355 LENOX RD NE STE 750","ATLANTA","GA",30326,33.8464413200001,-84.359172767,265,"3355 LENOX RD NE STE 750, ATLANTA, GA, 30326","Match","Non_Exact","3355 LENOX RD, ATLANTA, GA, 30326",17355651,"R"
525766,"3355 LENOX RD NE SUITE 750","ATLANTA","GA",30326,33.8464413200001,-84.359172767,266,"3355 LENOX RD NE SUITE 750, ATLANTA, GA, 30326","Match","Non_Exact","3355 LENOX RD, ATLANTA, GA, 30326",17355651,"R"
525767,"3355 LENOX RD SUITE 750","ATLANTA","GA",30326,33.8464413200001,-84.359172767,267,"3355 LENOX RD SUITE 750, ATLANTA, GA, 30326","Match","Exact","3355 LENOX RD, ATLANTA, GA, 30326",17355651,"R"
525768,"3355 LENOX RD SUITE 750","ATLANTA","GA",30329,33.8464413200001,-84.359172767,268,"3355 LENOX RD SUITE 750, ATLANTA, GA, 30329","Match","Non_Exact","3355 LENOX RD, ATLANTA, GA, 30326",17355651,"R"
525769,"3355 LENOX RD","ATLANTA","GA",30326,33.8464413200001,-84.359172767,269,"3355 LENOX RD, ATLANTA, GA, 30326","Match","Exact","3355 LENOX RD, ATLANTA, GA, 30326",17355651,"R"
525770,"3355 LENOX RD","ATLANTA","GA",30519,33.8464413200001,-84.359172767,270,"3355 LENOX RD, ATLANTA, GA, 30519","Match","Non_Exact","3355 LENOX RD, ATLANTA, GA, 30326",17355651,"R"
525771,"3355 LENOX ROAD - SUITE 750","ATLANTA","GA",30326,33.8464413200001,-84.359172767,271,"3355 LENOX ROAD - SUITE 750, ATLANTA, GA, 30326","Match","Exact","3355 LENOX RD, ATLANTA, GA, 30326",17355651,"R"
525772,"3355 LENOX ROAD NE - SUITE 1000","ATLANTA","GA",30326,33.8464413200001,-84.359172767,272,"3355 LENOX ROAD NE - SUITE 1000, ATLANTA, GA, 30326","Match","Non_Exact","3355 LENOX RD, ATLANTA, GA, 30326",17355651,"R"
525773,"3355 LENOX ROAD NE SUITE 750","ATLANTA","GA",30326,33.8464413200001,-84.359172767,273,"3355 LENOX ROAD NE SUITE 750, ATLANTA, GA, 30326","Match","Non_Exact","3355 LENOX RD, ATLANTA, GA, 30326",17355651,"R"
525774,"3355 LENOX ROAD STE 750","ATLANTA","GA",30326,33.8464413200001,-84.359172767,274,"3355 LENOX ROAD STE 750, ATLANTA, GA, 30326","Match","Exact","3355 LENOX RD, ATLANTA, GA, 30326",17355651,"R"
525775,"3355 LENOX ROAD SUITE 750","ATLANTA","GA",30326,33.8464413200001,-84.359172767,275,"3355 LENOX ROAD SUITE 750, ATLANTA, GA, 30326","Match","Exact","3355 LENOX RD, ATLANTA, GA, 30326",17355651,"R"
525776,"3355 LENOX ROAD SUITE 925","ATLANTA","GA",30326,33.8464413200001,-84.359172767,276,"3355 LENOX ROAD SUITE 925, ATLANTA, GA, 30326","Match","Exact","3355 LENOX RD, ATLANTA, GA, 30326",17355651,"R"
525777,"3355 LENOX ROAD","ATLANTA","GA",30326,33.8464413200001,-84.359172767,277,"3355 LENOX ROAD, ATLANTA, GA, 30326","Match","Exact","3355 LENOX RD, ATLANTA, GA, 30326",17355651,"R"
525778,"3355 LOMA LINDA DRIVE","EUGENE","OR",97405,44.020256171,-123.099632698,278,"3355 LOMA LINDA DRIVE, EUGENE, OR, 97405","Match","Exact","3355 LOMA LINDA DR, EUGENE, OR, 97405",178168841,"L"
525779,"3355 LOMALINDA DRIVE","EUGENE","OR",97405,44.020256171,-123.099632698,279,"3355 LOMALINDA DRIVE, EUGENE, OR, 97405","Match","Non_Exact","3355 LOMA LINDA DR, EUGENE, OR, 97405",178168841,"L"
525780,"3355 MAN O WAR DRIVE","WELLINGTON","CO",80549,40.709746233,-105.01469634,280,"3355 MAN O WAR DRIVE, WELLINGTON, CO, 80549","Match","Exact","3355 MAN O WAR DR, WELLINGTON, CO, 80549",188608982,"L"
525781,"3355 MCDANIEL  ROAD","DULUTH","GA",30096,33.97503629,-84.119357822,281,"3355 MCDANIEL  ROAD, DULUTH, GA, 30096","Match","Exact","3355 MCDANIEL RD, DULUTH, GA, 30096",88941127,"R"
525782,"3355 MCDANIEL RD APT 11306","DULUTH","GA",30096,33.97503629,-84.119357822,282,"3355 MCDANIEL RD APT 11306, DULUTH, GA, 30096","Match","Exact","3355 MCDANIEL RD, DULUTH, GA, 30096",88941127,"R"
525783,"3355 MCDANIEL RD","DULUTH","GA",30096,33.97503629,-84.119357822,283,"3355 MCDANIEL RD, DULUTH, GA, 30096","Match","Exact","3355 MCDANIEL RD, DULUTH, GA, 30096",88941127,"R"
525784,"3355 MCDANIEL ROAD","DULUTH","GA",30096,33.97503629,-84.119357822,284,"3355 MCDANIEL ROAD, DULUTH, GA, 30096","Match","Exact","3355 MCDANIEL RD, DULUTH, GA, 30096",88941127,"R"
525785,"3355 MILLCREST DR","JACKSONVILLE","FL",32277,30.362875462,-81.578381757,285,"3355 MILLCREST DR, JACKSONVILLE, FL, 32277","Match","Exact","3355 MILLCREST DR, JACKSONVILLE, FL, 32277",83942277,"L"
525786,"3355 MOORHEAD AVE","BOULDER","CO",80305,39.9957848060001,-105.252440213,286,"3355 MOORHEAD AVE, BOULDER, CO, 80305","Match","Exact","3355 MOORHEAD AVE, BOULDER, CO, 80305",632631886,"L"
525787,"3355 N COTTONTAIL","CHINO VALLEY","AZ",86323,34.794451736,-112.495173699,287,"3355 N COTTONTAIL, CHINO VALLEY, AZ, 86323","Match","Non_Exact","3355 N COTTONTAIL DR, CHINO VALLEY, AZ, 86323",159485170,"R"
525788,"3355 N VIEW CREST DR","TUCSON","AZ",85745,32.2680633850001,-111.034103597,288,"3355 N VIEW CREST DR, TUCSON, AZ, 85745","Match","Exact","3355 N VIEW CREST DR, TUCSON, AZ, 85745",121241462,"L"
525789,"3355 NORTH DELTA HWY","EUGENE","OR",97408,44.1007617760001,-123.091377382,289,"3355 NORTH DELTA HWY, EUGENE, OR, 97408","Match","Exact","3355 N DELTA HWY, EUGENE, OR, 97408",618377460,"R"
525790,"3355 NORTHWEST 37TH STREET","LAUDERDALE LAKES","FL",33309,26.1723711540001,-80.1919831339999,290,"3355 NORTHWEST 37TH STREET, LAUDERDALE LAKES, FL, 33309","Match","Exact","3355 NW 37TH ST, LAUDERDALE LAKES, FL, 33309",114707454,"R"
525791,"3355 NW 213 TERRACE","MIAMI","FL",32174,NA,NA,291,"3355 NW 213 TERRACE, MIAMI, FL, 32174","No_Match",NA,NA,NA,NA
525792,"3355 NW 213 TERRACE","MIAMI","FL",33180,NA,NA,292,"3355 NW 213 TERRACE, MIAMI, FL, 33180","No_Match",NA,NA,NA,NA
525793,"3355 OTTER CREST LOOP","DEPOE BAY","OR",97341,44.777406566,-124.071314304,293,"3355 OTTER CREST LOOP, DEPOE BAY, OR, 97341","Match","Non_Exact","3355 OTTER CRST LP, DEPOE BAY, OR, 97341",155928761,"L"
525794,"3355 PATTON BRANCH ROAD","GOODLETTSVILLE","TN",37072,36.3745692800001,-86.689283627,294,"3355 PATTON BRANCH ROAD, GOODLETTSVILLE, TN, 37072","Match","Exact","3355 PATTON BRANCH RD, GOODLETTSVILLE, TN, 37072",29774050,"L"
525795,"3355 PIO NONO AVE STE 7","MACON","GA",31206,NA,NA,295,"3355 PIO NONO AVE STE 7, MACON, GA, 31206","No_Match",NA,NA,NA,NA
525796,"3355 POPLAR AVE STE300","MEMPHIS","TN",38111,35.1290276450001,-89.9499854479999,296,"3355 POPLAR AVE STE300, MEMPHIS, TN, 38111","Match","Exact","3355 POPLAR AVE, MEMPHIS, TN, 38111",72915771,"R"
525797,"3355 POPLAR AVENUE","MEMPHIS","TN",38111,35.1290276450001,-89.9499854479999,297,"3355 POPLAR AVENUE, MEMPHIS, TN, 38111","Match","Exact","3355 POPLAR AVE, MEMPHIS, TN, 38111",72915771,"R"
525798,"3355 PRESTON HILLS CIRCLE","PROSPER","TX",78078,33.2672236430001,-96.778550409,298,"3355 PRESTON HILLS CIRCLE, PROSPER, TX, 78078","Match","Non_Exact","3355 PRESTON HILLS CIR, PROSPER, TX, 75078",210512135,"L"
525799,"3355 RIDGEWOOD RD","FAIRLAWN","OH",44333,41.110189936,-81.632589143,299,"3355 RIDGEWOOD RD, FAIRLAWN, OH, 44333","Match","Exact","3355 RIDGEWOOD RD, FAIRLAWN, OH, 44333",630036283,"R"
525800,"3355 RIVERS EDGE DRIVE","ADDIS","LA",70710,NA,NA,300,"3355 RIVERS EDGE DRIVE, ADDIS, LA, 70710","No_Match",NA,NA,NA,NA
525801,"3355 ROCKINGHAM","ST LOUIS","MO",63033,NA,NA,301,"3355 ROCKINGHAM, ST LOUIS, MO, 63033","No_Match",NA,NA,NA,NA
525802,"3355 S 259 W","LAFAYETTE","IN",47909,NA,NA,302,"3355 S 259 W, LAFAYETTE, IN, 47909","No_Match",NA,NA,NA,NA
525803,"3355 S MEADOWLARK AVE","SPRINGFIELD","MO",65807,37.1538582960001,-93.34662191,303,"3355 S MEADOWLARK AVE, SPRINGFIELD, MO, 65807","Match","Exact","3355 S MEADOWLARK AVE, SPRINGFIELD, MO, 65807",76695951,"L"
525804,"3355 SAYBROOK DR","GRAHAM","NC",27253,36.0023112280001,-79.3828173489999,304,"3355 SAYBROOK DR, GRAHAM, NC, 27253","Match","Exact","3355 SAYBROOK DR, GRAHAM, NC, 27253",617453739,"R"
525805,"3355 SCHOONOVER ROAD","MORRISDALE","PA",16858,41.0206096310001,-78.2110090319999,305,"3355 SCHOONOVER ROAD, MORRISDALE, PA, 16858","Match","Exact","3355 SCHOONOVER RD, MORRISDALE, PA, 16858",50494295,"L"
525806,"3355 SE CONDOR LN","PORT ORCHARD","WA",98366,47.452476582,-122.606347397,306,"3355 SE CONDOR LN, PORT ORCHARD, WA, 98366","Match","Non_Exact","3355 SE CONDOR LN, PORT ORCHARD, WA, 98367",187654695,"L"
525807,"3355 SHADOW PARK PL","SAN JOSE","CA",95121,37.305124553,-121.816096272,307,"3355 SHADOW PARK PL, SAN JOSE, CA, 95121","Match","Exact","3355 SHADOW PARK PL, SAN JOSE, CA, 95121",123003405,"R"
525808,"3355 ST CATHERINE","FLORISSANT","MO",63033,38.7881298020001,-90.293712526,308,"3355 ST CATHERINE, FLORISSANT, MO, 63033","Match","Non_Exact","3355 SAINT CATHERINE ST, FLORISSANT, MO, 63033",100170857,"L"
525809,"3355 TONEY DRIVE","DECATUR","GA",30032,33.7198443180001,-84.254482959,309,"3355 TONEY DRIVE, DECATUR, GA, 30032","Match","Exact","3355 TONEY DR, DECATUR, GA, 30032",23370695,"R"
525810,"3355 UNIONTOWN RD","WESMINSTER","MD",21158,39.593857348,-77.112388545,310,"3355 UNIONTOWN RD, WESMINSTER, MD, 21158","Match","Non_Exact","3355 UNIONTOWN RD, WESTMINSTER, MD, 21158",61794854,"L"
525811,"3355 VIRGINIA RD","WHEATLAND","CA",95692,39.0528920350001,-121.487021081,311,"3355 VIRGINIA RD, WHEATLAND, CA, 95692","Match","Exact","3355 VIRGINIA RD, WHEATLAND, CA, 95692",106952481,"R"
525812,"3355 WAKEFIELD DRIVE","DECATUR","GA",30034,33.695498334,-84.232912552,312,"3355 WAKEFIELD DRIVE, DECATUR, GA, 30034","Match","Exact","3355 WAKEFIELD DR, DECATUR, GA, 30034",23371386,"R"
525813,"3355 WEST 68TH STREET UNIT 127","HIALEAH","FL",33018,25.884100292,-80.349025366,313,"3355 WEST 68TH STREET UNIT 127, HIALEAH, FL, 33018","Match","Exact","3355 W 68TH ST, HIALEAH, FL, 33018",116247158,"R"
525814,"3355 WEST 68TH STREET UNIT 127","HIALEAHF","FL",33018,25.884100292,-80.349025366,314,"3355 WEST 68TH STREET UNIT 127, HIALEAHF, FL, 33018","Match","Non_Exact","3355 W 68TH ST, HIALEAH, FL, 33018",116247158,"R"
525815,"3355 WILKINSVILLE RD","DRUMMONDS","TN",38023,35.40584926,-89.896537832,315,"3355 WILKINSVILLE RD, DRUMMONDS, TN, 38023","Match","Exact","3355 WILKINSVILLE RD, DRUMMONDS, TN, 38023",608028032,"L"
525816,"3355 WILSHIRE BLVD 1014","LOS ANGELES","CA",90010,34.0617726150001,-118.296782425,316,"3355 WILSHIRE BLVD 1014, LOS ANGELES, CA, 90010","Match","Exact","3355 WILSHIRE BLVD, LOS ANGELES, CA, 90010",141604936,"R"
525817,"3355 WILSHIRE BLVD APT 702","LOS ANGELES","CA",90010,34.0617726150001,-118.296782425,317,"3355 WILSHIRE BLVD APT 702, LOS ANGELES, CA, 90010","Match","Exact","3355 WILSHIRE BLVD, LOS ANGELES, CA, 90010",141604936,"R"
525818,"3355 WILSHIRE BLVD SUITE 1014","LOS ANGELES","CA",90010,34.0617726150001,-118.296782425,318,"3355 WILSHIRE BLVD SUITE 1014, LOS ANGELES, CA, 90010","Match","Exact","3355 WILSHIRE BLVD, LOS ANGELES, CA, 90010",141604936,"R"
525819,"3355-A SOUTH LEAWOOD","SPRINGFIELD","MO",65807,NA,NA,319,"3355-A SOUTH LEAWOOD, SPRINGFIELD, MO, 65807","No_Match",NA,NA,NA,NA
525820,"33552 N OAK DR","INGLESIDE","IL",60041,42.351462929,-88.1491660359999,320,"33552 N OAK DR, INGLESIDE, IL, 60041","Match","Exact","33552 N OAK DR, INGLESIDE, IL, 60041",641236447,"R"
525821,"33552 WESTVIEW DRIVE","BIGFORK","MT",59911,48.012663995,-114.063572314,321,"33552 WESTVIEW DRIVE, BIGFORK, MT, 59911","Match","Exact","33552 WESTVIEW DR, BIGFORK, MT, 59911",206892005,"L"
525822,"33555 S MAIN ST","TOWNVILLE","PA",16360,41.6761765040001,-79.877790644,322,"33555 S MAIN ST, TOWNVILLE, PA, 16360","Match","Exact","33555 S MAIN ST, TOWNVILLE, PA, 16360",98561462,"L"
525823,"335574 GEORGIA TECH STATION","ATLANTA","GA",30332,NA,NA,323,"335574 GEORGIA TECH STATION, ATLANTA, GA, 30332","No_Match",NA,NA,NA,NA
525824,"3356 AMABASSADOR DR APT 3","MADISON","WI",53718,43.1389849940001,-89.283688201,324,"3356 AMABASSADOR DR APT 3, MADISON, WI, 53718","Match","Non_Exact","3356 AMBASSADOR DR, MADISON, WI, 53718",635318713,"L"
525825,"3356 BARHAM BLVD","LOS ANGELES","CA",90068,34.132244928,-118.344337604,325,"3356 BARHAM BLVD, LOS ANGELES, CA, 90068","Match","Exact","3356 BARHAM BLVD, LOS ANGELES, CA, 90068",141594145,"R"
525826,"3356 CLOVERCRAFT DR","MURFREESBORO","TN",37130,35.9049213100001,-86.366235576,326,"3356 CLOVERCRAFT DR, MURFREESBORO, TN, 37130","Match","Non_Exact","3356 CLOVERCROFT DR, MURFREESBORO, TN, 37130",617751905,"R"
525827,"3356 COLLIER DRIVE","ATLANTA","GA",30331,33.768294016,-84.497961685,327,"3356 COLLIER DRIVE, ATLANTA, GA, 30331","Match","Non_Exact","3356 COLLIER DR NW, ATLANTA, GA, 30331",17336733,"L"
525828,"3356 CR 1033","GREENVILLE","TX",75401,33.2213259420001,-96.128090528,328,"3356 CR 1033, GREENVILLE, TX, 75401","Match","Exact","3356 CO RD 1033, GREENVILLE, TX, 75401",42868784,"L"
525829,"3356 E 1000 NORTH RD","WINDSOR","IL",61957,39.3601116560001,-88.509186568,329,"3356 E 1000 NORTH RD, WINDSOR, IL, 61957","Match","Exact","3356 1000 N, WINDSOR, IL, 61957",5855553,"R"
525830,"3356 E 350 S","BLUFFTON","IN",46714,NA,NA,330,"3356 E 350 S, BLUFFTON, IN, 46714","No_Match",NA,NA,NA,NA
525831,"3356 EAST GENESEE STREET ROAD","AUBURN","NY",13021,42.9372486230001,-76.5175493579999,331,"3356 EAST GENESEE STREET ROAD, AUBURN, NY, 13021","Match","Exact","3356 E GENESEE STREET RD, AUBURN, NY, 13021",33527181,"R"
525832,"3356 GLADYS DRIVE","ADDIS","LA",70710,30.37142778,-91.25160926,332,"3356 GLADYS DRIVE, ADDIS, LA, 70710","Match","Exact","3356 GLADYS DR, ADDIS, LA, 70710",92297935,"R"
525833,"3356 GREENLEAF STREET","SKOKIE","IL",60076,42.0372849140001,-87.7129150759999,333,"3356 GREENLEAF STREET, SKOKIE, IL, 60076","Match","Exact","3356 GREENLEAF ST, SKOKIE, IL, 60076",605256479,"R"
525834,"3356 HOLLYRIDGE TRL SW","MARIETTA","GA",30008,33.87433945,-84.612992251,334,"3356 HOLLYRIDGE TRL SW, MARIETTA, GA, 30008","Match","Exact","3356 HOLLYRIDGE TRL SW, MARIETTA, GA, 30008",17173672,"R"
525835,"3356 LA CADENA WAY","SACRAMENTO","CA",95835,38.6811789920001,-121.535656507,335,"3356 LA CADENA WAY, SACRAMENTO, CA, 95835","Match","Exact","3356 LA CADENA WAY, SACRAMENTO, CA, 95835",615447169,"L"
525836,"3356 LEIGH COURT","SACHSE","TX",75048,32.9543805120001,-96.585352078,336,"3356 LEIGH COURT, SACHSE, TX, 75048","Match","Exact","3356 LEIGH CT, SACHSE, TX, 75048",103173981,"R"
525837,"3356 MORRELL AVENUE","PHILADELPHIA","PA",19114,40.075191771,-74.989831994,337,"3356 MORRELL AVENUE, PHILADELPHIA, PA, 19114","Match","Exact","3356 MORRELL AVE, PHILADELPHIA, PA, 19114",131434086,"R"
525838,"3356 N 47TH STREET","MILWAUKEE","WI",53216,43.080400367,-87.9725555529999,338,"3356 N 47TH STREET, MILWAUKEE, WI, 53216","Match","Exact","3356 N 47TH ST, MILWAUKEE, WI, 53216",77732119,"R"
525839,"3356 N HALSTED SUITE 200","CHICAGO","IL",60657,NA,NA,339,"3356 N HALSTED SUITE 200, CHICAGO, IL, 60657","No_Match",NA,NA,NA,NA
525840,"3356 NORTH 22ND STREET","PHILADELPHIA","PA",19140,40.005906205,-75.16533292,340,"3356 NORTH 22ND STREET, PHILADELPHIA, PA, 19140","Match","Exact","3356 N 22ND ST, PHILADELPHIA, PA, 19140",131402443,"L"
525841,"3356 NORTH WISHON","FRESNO","CA",93704,36.7809043680001,-119.802386041,341,"3356 NORTH WISHON, FRESNO, CA, 93704","Match","Non_Exact","3356 N WISHON AVE, FRESNO, CA, 93704",197574496,"R"
525842,"3356 NORWOOD RD","HUNTINGTON","WV",25705,38.3973488080001,-82.38792011,342,"3356 NORWOOD RD, HUNTINGTON, WV, 25705","Match","Exact","3356 NORWOOD RD, HUNTINGTON, WV, 25705",101326379,"L"
525843,"3356 OHARA DRIVE S","MACON","GA",31206,32.7963782680001,-83.6913282259999,343,"3356 OHARA DRIVE S, MACON, GA, 31206","Match","Exact","3356 OHARA DR S, MACON, GA, 31206",81060030,"L"
525844,"3356 ROWENA AVENUE","LOS ANGELES","CA",90027,34.110798994,-118.278273991,344,"3356 ROWENA AVENUE, LOS ANGELES, CA, 90027","Match","Exact","3356 ROWENA AVE, LOS ANGELES, CA, 90027",141597843,"L"
525845,"3356 S EUCLID AVE","WICHITA","KS",67217,37.6340671510001,-97.362927844,345,"3356 S EUCLID AVE, WICHITA, KS, 67217","Match","Exact","3356 S EUCLID AVE, WICHITA, KS, 67217",115644587,"L"
525846,"3356 SILVER LAKE BLVD","LOS ANGELES","CA",90039,34.1159868,-118.253016099,346,"3356 SILVER LAKE BLVD, LOS ANGELES, CA, 90039","Match","Exact","3356 SILVER LAKE BLVD, LOS ANGELES, CA, 90039",141610752,"R"
525847,"3356 STAR CREEK COURT","SUFFOLK","VA",23435,36.8061274120001,-76.528472381,347,"3356 STAR CREEK COURT, SUFFOLK, VA, 23435","Match","Exact","3356 STAR CREEK CT, SUFFOLK, VA, 23435",624274448,"L"
525848,"3356 STATE ROUTE 43","MOGADORE","OH",44260,41.0805400360001,-81.3468268029999,348,"3356 STATE ROUTE 43, MOGADORE, OH, 44260","Match","Exact","3356 STATE RTE 43, MOGADORE, OH, 44260",649984585,"R"
525849,"3356 W IMPERIAL HWY","INGLEWOOD","CA",90303,33.9309755530001,-118.331578171,349,"3356 W IMPERIAL HWY, INGLEWOOD, CA, 90303","Match","Exact","3356 W IMPERIAL HWY, INGLEWOOD, CA, 90303",142752115,"L"
525850,"3356 WALNUT GROVE AVE","ROSEMEAD","CA",91770,34.069454712,-118.082046504,350,"3356 WALNUT GROVE AVE, ROSEMEAD, CA, 91770","Match","Exact","3356 WALNUT GROVE AVE, ROSEMEAD, CA, 91770",142739800,"R"
525851,"33560 WILDFLOWER LANE","YUCAIPA","CA",92399,34.0234176320001,-117.072646026,351,"33560 WILDFLOWER LANE, YUCAIPA, CA, 92399","Match","Exact","33560 WILDFLOWER LN, YUCAIPA, CA, 92399",144984206,"L"
525852,"33561 HWY DD","SMITHTON","MO",65350,NA,NA,352,"33561 HWY DD, SMITHTON, MO, 65350","No_Match",NA,NA,NA,NA
525853,"33562 YUCAIPA BLVD PMB 314","YUCAIPA","CA",92399,34.033929297,-117.074486289,353,"33562 YUCAIPA BLVD PMB 314, YUCAIPA, CA, 92399","Match","Exact","33562 YUCAIPA BLVD, YUCAIPA, CA, 92399",145227628,"L"
525854,"33564 ALDER CIR","SPANISH FORT","AL",36527,30.713950434,-87.89503345,354,"33564 ALDER CIR, SPANISH FORT, AL, 36527","Match","Exact","33564 ALDER CIR, SPANISH FORT, AL, 36527",131724278,"L"
525855,"33565 RUBY LANE","SAINT HELENS","OR",97051,45.8518490980001,-122.873565167,355,"33565 RUBY LANE, SAINT HELENS, OR, 97051","Match","Exact","33565 RUBY LN, SAINT HELENS, OR, 97051",158091812,"R"
525856,"33567 CR 22","HOLYOKE","CO",80734,40.585769483,-102.350053457,356,"33567 CR 22, HOLYOKE, CO, 80734","Match","Exact","33567 CO RD 22, HOLYOKE, CO, 80734",176790991,"L"
525857,"3357 AIRPORT RD","KAILSPELL","MT",59901,48.128267758,-114.314183563,357,"3357 AIRPORT RD, KAILSPELL, MT, 59901","Match","Non_Exact","3357 AIRPORT RD, KALISPELL, MT, 59901",642903203,"R"
525858,"3357 ANACONDA CT  APT A","NORTH POLE","AK",99705,64.7166527040001,-147.162012419,358,"3357 ANACONDA CT  APT A, NORTH POLE, AK, 99705","Match","Exact","3357 ANACONDA CT, NORTH POLE, AK, 99705",190916000,"L"
525859,"3357 ARBOR PATH DRIVE","ATLANTA","GA",30340,33.891277566,-84.252274571,359,"3357 ARBOR PATH DRIVE, ATLANTA, GA, 30340","Match","Exact","3357 ARBOR PATH DR, ATLANTA, GA, 30340",23393383,"L"
525860,"3357 BOXWOOD DRIVE","FAIRBORN","OH",45324,39.7865266000001,-84.04333124,360,"3357 BOXWOOD DRIVE, FAIRBORN, OH, 45324","Match","Exact","3357 BOXWOOD DR, FAIRBORN, OH, 45324",143384352,"L"
525861,"3357 BUFFALO ROAD","LEWISBURG","PA",17837,40.965498946,-76.956079928,361,"3357 BUFFALO ROAD, LEWISBURG, PA, 17837","Match","Exact","3357 BUFFALO RD, LEWISBURG, PA, 17837",48191499,"R"
525862,"3357 BURRITT WAY","LA CRESCENTA","CA",91214,34.240676841,-118.251995457,362,"3357 BURRITT WAY, LA CRESCENTA, CA, 91214","Match","Exact","3357 BURRITT WAY, LA CRESCENTA, CA, 91214",141589126,"R"
525863,"3357 CHANTILLY LN","HOPE MILLS","NC",28348,34.9967596130001,-78.915564154,363,"3357 CHANTILLY LN, HOPE MILLS, NC, 28348","Match","Exact","3357 CHANTILLY LN, HOPE MILLS, NC, 28348",64204379,"R"
525864,"3357 E 50N RD","SIGEL","IL",62462,NA,NA,364,"3357 E 50N RD, SIGEL, IL, 62462","No_Match",NA,NA,NA,NA
525865,"3357 EINSTEIN CT","SAN JOSE","CA",95148,37.3191012890001,-121.771706602,365,"3357 EINSTEIN CT, SAN JOSE, CA, 95148","Match","Exact","3357 EINSTEIN CT, SAN JOSE, CA, 95148",618191857,"L"
525866,"3357 HAWICK COMMONS DR","CONCORD","NC",28027,35.3453621300001,-80.6320496399999,366,"3357 HAWICK COMMONS DR, CONCORD, NC, 28027","Match","Exact","3357 HAWICK COMMONS DR, CONCORD, NC, 28027",24914673,"L"
525867,"3357 HAWICK COMMONS DRIVE","CONCORD","NC",28027,35.3453621300001,-80.6320496399999,367,"3357 HAWICK COMMONS DRIVE, CONCORD, NC, 28027","Match","Exact","3357 HAWICK COMMONS DR, CONCORD, NC, 28027",24914673,"L"
525868,"3357 HERMOSA WAY","LAFAYETTE","CA",94549,37.92787765,-122.107329791,368,"3357 HERMOSA WAY, LAFAYETTE, CA, 94549","Match","Exact","3357 HERMOSA WAY, LAFAYETTE, CA, 94549",192048501,"R"
525869,"3357 HIGHLAND FORGE TRAIL","DACULA","GA",30019,34.043557031,-83.9102975979999,369,"3357 HIGHLAND FORGE TRAIL, DACULA, GA, 30019","Match","Exact","3357 HIGHLAND FORGE TRL, DACULA, GA, 30019",651745271,"L"
525870,"3357 ISADOR","KINGMAN","AZ",86401,35.193460228,-114.003703696,370,"3357 ISADOR, KINGMAN, AZ, 86401","Match","Non_Exact","3357 ISADOR AVE, KINGMAN, AZ, 86401",190372373,"L"
525871,"3357 JERICHO ROAD","BISMARCK","ND",58503,NA,NA,371,"3357 JERICHO ROAD, BISMARCK, ND, 58503","No_Match",NA,NA,NA,NA
525872,"3357 MEDOW LANE","MOTGOMERY","AL",36116,32.3169244920001,-86.267754351,372,"3357 MEDOW LANE, MOTGOMERY, AL, 36116","Match","Non_Exact","3357 MEADOW LN, MONTGOMERY, AL, 36116",1476599,"L"
525873,"3357 MYERS COURT","WINSTON SALEM","NC",27103,36.0516751170001,-80.308016723,373,"3357 MYERS COURT, WINSTON SALEM, NC, 27103","Match","Exact","3357 MYERS CT, WINSTON SALEM, NC, 27103",84693836,"R"
525874,"3357 NEW DIXSONVILLE RD","TRASKWOOD","AR",72167,NA,NA,374,"3357 NEW DIXSONVILLE RD, TRASKWOOD, AR, 72167","Tie",NA,NA,NA,NA
525875,"3357 NEW DIXSONVILLE ROAD","TRASKWOOD","AR",72167,NA,NA,375,"3357 NEW DIXSONVILLE ROAD, TRASKWOOD, AR, 72167","Tie",NA,NA,NA,NA
525876,"3357 NINE MILE ROAD","MELBOURNE","KY",41059,39.0069607680001,-84.343339655,376,"3357 NINE MILE ROAD, MELBOURNE, KY, 41059","Match","Exact","3357 NINE MILE RD, MELBOURNE, KY, 41059",210242174,"L"
525877,"3357 P MONTE HERMOSA","LAGUNA WOODS","CA",92637,33.6098838880001,-117.747087355,377,"3357 P MONTE HERMOSA, LAGUNA WOODS, CA, 92637","Match","Non_Exact","3357 MONTE HERMOSO, LAGUNA WOODS, CA, 92637",648713010,"R"
525878,"3357 PEPPER TREE LANE","SAN JOSE","CA",95127,37.386605833,-121.83583162,378,"3357 PEPPER TREE LANE, SAN JOSE, CA, 95127","Match","Exact","3357 PEPPER TREE LN, SAN JOSE, CA, 95127",122964813,"L"
525879,"3357 PIERSON DRIVE","WILMINGTON","DE",19810,39.8132015030001,-75.5429032059999,379,"3357 PIERSON DRIVE, WILMINGTON, DE, 19810","Match","Exact","3357 PIERSON DR, WILMINGTON, DE, 19810",187255929,"R"
525880,"3357 RADCLIFF AVENUE","BRONX","NY",10469,40.87381738,-73.860289778,380,"3357 RADCLIFF AVENUE, BRONX, NY, 10469","Match","Exact","3357 RADCLIFF AVE, BRONX, NY, 10469",80303340,"L"
525881,"3357 ROYAL MEADOW LANE","SAN JOSE","CA",95135,37.282215664,-121.742693081,381,"3357 ROYAL MEADOW LANE, SAN JOSE, CA, 95135","Match","Exact","3357 ROYAL MEADOW LN, SAN JOSE, CA, 95135",123161445,"L"
525882,"3357 S FEDERAL HWY APT C","BOYNTON BEACH","FL",33435,26.4944276040001,-80.062263511,382,"3357 S FEDERAL HWY APT C, BOYNTON BEACH, FL, 33435","Match","Non_Exact","3357 S FEDERAL HWY, BOYNTON BEACH, FL, 33435",642539551,"L"
525883,"3357 SHELBURNE DR","ROCKFORD","IL",61109,42.228352199,-88.994588694,383,"3357 SHELBURNE DR, ROCKFORD, IL, 61109","Match","Exact","3357 SHELBURNE DR, ROCKFORD, IL, 61109",49263665,"R"
525884,"3357 SIMPSON ROAD SE","DENNISON","OH",44621,40.426664364,-81.3523171739999,384,"3357 SIMPSON ROAD SE, DENNISON, OH, 44621","Match","Exact","3357 SIMPSON RD SE, DENNISON, OH, 44621",44249804,"R"
525885,"3357 SOUTH COVE TRACE","VESTAVIA HILLS","AL",35216,33.4155216350001,-86.78309817,385,"3357 SOUTH COVE TRACE, VESTAVIA HILLS, AL, 35216","Match","Exact","3357 S COVE TRCE, VESTAVIA HILLS, AL, 35216",81646187,"R"
525886,"3357 SPRINGRIDGE CIRCLE","COLORADO SPRINGS","CO",80906,38.787541493,-104.834511028,386,"3357 SPRINGRIDGE CIRCLE, COLORADO SPRINGS, CO, 80906","Match","Exact","3357 SPRINGRIDGE CIR, COLORADO SPRINGS, CO, 80906",610749197,"R"
525887,"3357 STATE ROUTE 2270 W","GREENVILLE","KY",42345,NA,NA,387,"3357 STATE ROUTE 2270 W, GREENVILLE, KY, 42345","No_Match",NA,NA,NA,NA
525888,"3357 VASSAR STREET","PUNTA GORDA","FL",33980,26.979922733,-82.070036247,388,"3357 VASSAR STREET, PUNTA GORDA, FL, 33980","Match","Exact","3357 VASSAR ST, PUNTA GORDA, FL, 33980",4305510,"L"
525889,"3357 W 133RD ST","HAWTHORNE","CA",90250,33.911551085,-118.331851782,389,"3357 W 133RD ST, HAWTHORNE, CA, 90250","Match","Exact","3357 W 133RD ST, HAWTHORNE, CA, 90250",141657629,"R"
525890,"3357 W 83RD STREET","CHICAGO","IL",60652,41.742424457,-87.706346485,390,"3357 W 83RD STREET, CHICAGO, IL, 60652","Match","Non_Exact","3357 W 83RD ST, CHICAGO, IL, 60652",111817455,"L"
525891,"3357 WOODLAND DRIVE","TOBYHANNA","PA",18466,41.192133524,-75.3613612779999,391,"3357 WOODLAND DRIVE, TOBYHANNA, PA, 18466","Match","Exact","3357 WOODLAND DR, TOBYHANNA, PA, 18466",136753324,"R"
525892,"33573 COLGATE DRIVE","UNION CITY","CA",94587,37.5949260410001,-122.029731022,392,"33573 COLGATE DRIVE, UNION CITY, CA, 94587","Match","Exact","33573 COLGATE DR, UNION CITY, CA, 94587",125039864,"R"
525893,"33574 US HWY 69","HUXLEY","IA",50124,NA,NA,393,"33574 US HWY 69, HUXLEY, IA, 50124","No_Match",NA,NA,NA,NA
525894,"3358 148TH AVE","LYNN CENTER","IL",61262,NA,NA,394,"3358 148TH AVE, LYNN CENTER, IL, 61262","No_Match",NA,NA,NA,NA
525895,"3358 BAGLEY AVENUE","LOS ANGELES","CA",90034,34.030285431,-118.396333336,395,"3358 BAGLEY AVENUE, LOS ANGELES, CA, 90034","Match","Exact","3358 BAGLEY AVE, LOS ANGELES, CA, 90034",141574729,"L"
525896,"3358 CAMINITO VASTO","LA JOLLA","CA",92037,NA,NA,396,"3358 CAMINITO VASTO, LA JOLLA, CA, 92037","No_Match",NA,NA,NA,NA
525897,"3358 CURTIS DRIVE","HILCREST HEIGHTS","MD",20019,38.84905452,-76.9475238159999,397,"3358 CURTIS DRIVE, HILCREST HEIGHTS, MD, 20019","Match","Non_Exact","3358 CURTIS DR, HILLCREST HGTS, MD, 20746",608692337,"L"
525898,"3358 HANNAH COURT","POWDER SPRINGS","GA",30127,33.90828944,-84.644816498,398,"3358 HANNAH COURT, POWDER SPRINGS, GA, 30127","Match","Exact","3358 HANNAH CT, POWDER SPGS, GA, 30127",17216590,"L"
525899,"3358 IRISH MIST WAY","SACRAMENTO","CA",95826,38.556557995,-121.348313112,399,"3358 IRISH MIST WAY, SACRAMENTO, CA, 95826","Match","Exact","3358 IRISH MIST WAY, SACRAMENTO, CA, 95826",133339864,"L"
525900,"3358 LINDA MESA WAY","NAPA","CA",94558,38.3108443340001,-122.336914368,400,"3358 LINDA MESA WAY, NAPA, CA, 94558","Match","Exact","3358 LINDA MESA WAY, NAPA, CA, 94558",67414349,"R"
525901,"3358 MERLOT DRIVE","LAKELAND","FL",33811,27.9406317990001,-82.012590242,401,"3358 MERLOT DRIVE, LAKELAND, FL, 33811","Match","Exact","3358 MERLOT DR, LAKELAND, FL, 33811",618500610,"R"
525902,"3358 NADIA LOOP","WOODBRIDGE","VA",22193,38.6462875350001,-77.312935142,402,"3358 NADIA LOOP, WOODBRIDGE, VA, 22193","Match","Exact","3358 NADIA LOOP, WOODBRIDGE, VA, 22193",207160840,"L"
525903,"3358 PEAKWOOD DRIVE","ROANOKE","VA",24014,37.2368053480001,-79.960877392,403,"3358 PEAKWOOD DRIVE, ROANOKE, VA, 24014","Match","Non_Exact","3358 PEAKWOOD DR SW, ROANOKE, VA, 24014",62910001,"L"
525904,"3358 PROVINCE COURT","POWELL","OH",43065,40.167328061,-83.085500581,404,"3358 PROVINCE COURT, POWELL, OH, 43065","Match","Exact","3358 PROVINCE CT, POWELL, OH, 43065",648424188,"L"
525905,"3358 ROCKEFELLER ROAD","MORAVIA","NY",13118,42.7806674920001,-76.464645806,405,"3358 ROCKEFELLER ROAD, MORAVIA, NY, 13118","Match","Exact","3358 ROCKEFELLER RD, MORAVIA, NY, 13118",33500772,"R"
525906,"3358 S 50 W","PERU","IN",46970,40.7161428360001,-86.082102592,406,"3358 S 50 W, PERU, IN, 46970","Match","Exact","3358 S 50 W, PERU, IN, 46970",106398501,"L"
525907,"3358 SUGAR HILL RD","WALLINGFORD","VT",5773,NA,NA,407,"3358 SUGAR HILL RD, WALLINGFORD, VT, 5773","No_Match",NA,NA,NA,NA
525908,"3358 TWISP CARLTON ROAD","CARLTON","WA",98814,NA,NA,408,"3358 TWISP CARLTON ROAD, CARLTON, WA, 98814","No_Match",NA,NA,NA,NA
525909,"3358 W BARITE","FAYETTEVILLE","AR",72704,36.10838948,-94.2065191619999,409,"3358 W BARITE, FAYETTEVILLE, AR, 72704","Match","Non_Exact","3358 W BARITE DR, FAYETTEVILLE, AR, 72704",49060606,"L"
525910,"3358 WRIGHTSBORO RD STE 4","AUGUSTA","GA",30909,33.468551964,-82.0731556549999,410,"3358 WRIGHTSBORO RD STE 4, AUGUSTA, GA, 30909","Match","Exact","3358 WRIGHTSBORO RD, AUGUSTA, GA, 30909",55635322,"L"
525911,"33581 CLIFTON FARM LA","UPPERVILLE","VA",20184,39.0028253740001,-77.844291561,411,"33581 CLIFTON FARM LA, UPPERVILLE, VA, 20184","Match","Exact","33581 CLIFTON FARM LN, UPPERVILLE, VA, 20184",647733553,"L"
525912,"33581 VIEW CREST DR","WILDOMAR","CA",92595,33.633369784,-117.268459476,412,"33581 VIEW CREST DR, WILDOMAR, CA, 92595","Match","Exact","33581 VIEW CREST DR, WILDOMAR, CA, 92595",194838515,"R"
525913,"33582 FIVE POINTS RD","KINGSTON","IL",60145,42.1180315560001,-88.7593986219999,413,"33582 FIVE POINTS RD, KINGSTON, IL, 60145","Match","Exact","33582 FIVE POINTS RD, KINGSTON, IL, 60145",52268447,"R"
525914,"33585 AL HWY 22 EAST","VERBENA","AL",36091,32.7718496260001,-86.512366141,414,"33585 AL HWY 22 EAST, VERBENA, AL, 36091","Match","Non_Exact","33585 AL HIGHWAY 22, VERBENA, AL, 36091",1235157,"L"
525915,"33585 NORTH FINLEY POINT ROAD","POLSON","MT",59860,47.735881346,-114.054241384,415,"33585 NORTH FINLEY POINT ROAD, POLSON, MT, 59860","Match","Exact","33585 N FINLEY POINT RD, POLSON, MT, 59860",206921972,"R"
525916,"33586 PAIUTE","EUGENE","OR",97408,44.1564590770001,-123.071152662,416,"33586 PAIUTE, EUGENE, OR, 97408","Match","Non_Exact","33586 PAIUTE LN, EUGENE, OR, 97408",178183771,"R"
525917,"33587 N HIDDEN CANYON DR","SAN TAN VALLEY","AZ",85142,33.184620764,-111.581957878,417,"33587 N HIDDEN CANYON DR, SAN TAN VALLEY, AZ, 85142","Match","Exact","33587 N HIDDEN CANYON DR, SAN TAN VALLEY, AZ, 85142",627631730,"L"
525918,"3359  7TH STREET","MUSKEGON","MI",49444,43.1916926310001,-86.25071623,418,"3359  7TH STREET, MUSKEGON, MI, 49444","Match","Exact","3359 7TH ST, MUSKEGON, MI, 49444",77653445,"R"
525919,"3359 36TH AVENUE SOUTH","MINNEAPOLIS","MN",55406,44.942164076,-93.220386557,419,"3359 36TH AVENUE SOUTH, MINNEAPOLIS, MN, 55406","Match","Exact","3359 36TH AVE S, MINNEAPOLIS, MN, 55406",43640020,"L"
525920,"3359 7TH STREET","MUSKEGON","MI",49444,43.1916926310001,-86.25071623,420,"3359 7TH STREET, MUSKEGON, MI, 49444","Match","Exact","3359 7TH ST, MUSKEGON, MI, 49444",77653445,"R"
525921,"3359 ASH MAPLE CT","SOUTH BEND","IN",46628,41.721289122,-86.2906130869999,421,"3359 ASH MAPLE CT, SOUTH BEND, IN, 46628","Match","Exact","3359 ASH MAPLE CT, SOUTH BEND, IN, 46628",639133817,"R"
525922,"3359 CENTRAL AVE NE","MINNEAPOLIS","MN",55418,45.0286477770001,-93.247262892,422,"3359 CENTRAL AVE NE, MINNEAPOLIS, MN, 55418","Match","Exact","3359 CENTRAL AVE NE, MINNEAPOLIS, MN, 55418",43636064,"R"
525923,"3359 CROSS ROAD","CABOOL","MO",65689,37.164507773,-92.0385833569999,423,"3359 CROSS ROAD, CABOOL, MO, 65689","Match","Exact","3359 CROSS RD, CABOOL, MO, 65689",26470720,"R"
525924,"3359 CRUMPTON SOUTH","LAUREL","MD",20724,39.096344996,-76.816733346,424,"3359 CRUMPTON SOUTH, LAUREL, MD, 20724","Match","Exact","3359 CRUMPTON S, LAUREL, MD, 20724",68153092,"L"
525925,"3359 DELPHOS AVENUE","DAYTON","OH",45417,39.753724725,-84.244867448,425,"3359 DELPHOS AVENUE, DAYTON, OH, 45417","Match","Exact","3359 DELPHOS AVE, DAYTON, OH, 45417",143567374,"R"
525926,"3359 ELK RIDGE LANE","KATY","TX",77494,29.734463842,-95.8308273709999,426,"3359 ELK RIDGE LANE, KATY, TX, 77494","Match","Exact","3359 ELK RIDGE LN, KATY, TX, 77494",643703659,"R"
525927,"3359 FOREST RIDGE ROAD","ROANOKE","VA",24018,37.2151811640001,-79.9980835969999,427,"3359 FOREST RIDGE ROAD, ROANOKE, VA, 24018","Match","Exact","3359 FOREST RIDGE RD, ROANOKE, VA, 24018",62915803,"L"
525928,"3359 FUCHSIA STREET","COSTA MESA","CA",92626,33.692609712,-117.898284818,428,"3359 FUCHSIA STREET, COSTA MESA, CA, 92626","Match","Exact","3359 FUCHSIA ST, COSTA MESA, CA, 92626",144043231,"L"
525929,"3359 GONDOLIER WAY","LAKE WORTH","FL",33462,26.57581442,-80.0955289629999,429,"3359 GONDOLIER WAY, LAKE WORTH, FL, 33462","Match","Exact","3359 GONDOLIER WAY, LAKE WORTH, FL, 33462",115285393,"R"
525930,"3359 HIDDEN HAVEN CT","TAMPA","FL",33607,27.9755392650001,-82.497858384,430,"3359 HIDDEN HAVEN CT, TAMPA, FL, 33607","Match","Non_Exact","3359 W HIDDEN HAVEN CT, TAMPA, FL, 33607",104571873,"L"
525931,"3359 LAKE SHORE LANE","CLEARWATER","FL",33761,28.0447129630001,-82.729299284,431,"3359 LAKE SHORE LANE, CLEARWATER, FL, 33761","Match","Exact","3359 LAKE SHORE LN, CLEARWATER, FL, 33761",124680910,"L"
525932,"3359 LEMUEL STREET","MUSKEGON HEIGHTS","MI",49444,43.1917544070001,-86.258631306,432,"3359 LEMUEL STREET, MUSKEGON HEIGHTS, MI, 49444","Match","Exact","3359 LEMUEL ST, MUSKEGON HEIGHTS, MI, 49444",77653335,"R"
525933,"3359 LINETENDER DR","DAVIDSON","NC",28036,35.4619008600001,-80.7692251129999,433,"3359 LINETENDER DR, DAVIDSON, NC, 28036","Match","Non_Exact","3359 LINE TENDER DR, DAVIDSON, NC, 28036",648151782,"R"
525934,"3359 MILTON COURT","MOUNTAIN VIEW","CA",94040,37.3629751070001,-122.071836538,434,"3359 MILTON COURT, MOUNTAIN VIEW, CA, 94040","Match","Exact","3359 MILTON CT, MOUNTAIN VIEW, CA, 94040",123010548,"L"
525935,"3359 N 1225 W","LINTON","IN",47441,39.0730448750001,-87.171363404,435,"3359 N 1225 W, LINTON, IN, 47441","Match","Non_Exact","3359 CO RD 1225 W, LINTON, IN, 47441",39305081,"L"
525936,"3359 NORTH THOMAS ROAD","BLMGTN","IN",47404,39.2009006330001,-86.6302591959999,436,"3359 NORTH THOMAS ROAD, BLMGTN, IN, 47404","Match","Non_Exact","3359 N THOMAS RD, BLOOMINGTON, IN, 47404",42337246,"L"
525937,"3359 NORWICH ROAD","FORT MIL","SC",29715,35.069405203,-80.915042689,437,"3359 NORWICH ROAD, FORT MIL, SC, 29715","Match","Non_Exact","3359 NORWICH RD, FORT MILL, SC, 29715",640501268,"L"
525938,"3359 NORWICH ROAD","FORT MILL","SC",29715,35.069405203,-80.915042689,438,"3359 NORWICH ROAD, FORT MILL, SC, 29715","Match","Exact","3359 NORWICH RD, FORT MILL, SC, 29715",640501268,"L"
525939,"3359 NW POPPY DRIVE","CORVALLIS","OR",97330,44.600479066,-123.28633201,439,"3359 NW POPPY DRIVE, CORVALLIS, OR, 97330","Match","Exact","3359 NW POPPY DR, CORVALLIS, OR, 97330",155872962,"R"
525940,"3359 PARKER SPUR","FLORISSANT","MO",63033,38.7953597420001,-90.292569298,440,"3359 PARKER SPUR, FLORISSANT, MO, 63033","Match","Non_Exact","3359 PARKER SPR, FLORISSANT, MO, 63033",619027587,"L"
525941,"3359 PENELOPE DRIVE","STOCKTON","CA",95212,38.0425041770001,-121.272118733,441,"3359 PENELOPE DRIVE, STOCKTON, CA, 95212","Match","Exact","3359 PENELOPE DR, STOCKTON, CA, 95212",133893040,"L"
525942,"3359 PIERCE ST NE","MINNEAPOLIS","MN",55418,NA,NA,442,"3359 PIERCE ST NE, MINNEAPOLIS, MN, 55418","No_Match",NA,NA,NA,NA
525943,"3359 RAVINIA CIRCLE","AURORA","IL",60504,41.744393234,-88.232043006,443,"3359 RAVINIA CIRCLE, AURORA, IL, 60504","Match","Exact","3359 RAVINIA CIR, AURORA, IL, 60504",112687365,"R"
525944,"3359 ROOSEVELT ST","CARLSBAD","CA",92008,33.156280383,-117.344485689,444,"3359 ROOSEVELT ST, CARLSBAD, CA, 92008","Match","Exact","3359 ROOSEVELT ST, CARLSBAD, CA, 92008",195290414,"R"
525945,"3359 S 15 AVENUE","YUMA","AZ",85365,32.6668854810001,-114.638857935,445,"3359 S 15 AVENUE, YUMA, AZ, 85365","Match","Exact","3359 S 15TH AVE, YUMA, AZ, 85365",129643360,"L"
525946,"3359 S CALUMET","CHICAGO","IL",60616,41.8337379980001,-87.618165532,446,"3359 S CALUMET, CHICAGO, IL, 60616","Match","Non_Exact","3359 S CALUMET AVE, CHICAGO, IL, 60616",605589853,"L"
525947,"3359 SHETLAND WAY","CLARKSVILLE","TN",37043,36.495615936,-87.225664313,447,"3359 SHETLAND WAY, CLARKSVILLE, TN, 37043","Match","Exact","3359 SHETLAND WAY, CLARKSVILLE, TN, 37043",634696391,"L"
525948,"3359 SKIPPACK PIKE","LANSDALE","PA",19446,40.2114669000001,-75.3663827349999,448,"3359 SKIPPACK PIKE, LANSDALE, PA, 19446","Match","Exact","3359 SKIPPACK PIKE, LANSDALE, PA, 19446",605639988,"L"
525949,"3359 TEAYS VALLEY ROAD","HURRICANE","WV",25526,38.4368086280001,-82.0019049059999,449,"3359 TEAYS VALLEY ROAD, HURRICANE, WV, 25526","Match","Exact","3359 TEAYS VALLEY RD, HURRICANE, WV, 25526",640620950,"R"
525950,"3359 VAGABOND ROAD","LANTANA","FL",33462,26.5785777130001,-80.0948844169999,450,"3359 VAGABOND ROAD, LANTANA, FL, 33462","Match","Exact","3359 VAGABOND RD, LANTANA, FL, 33462",115285390,"R"
525951,"3359 VAGANOND ROAD","LANTANA","FL",33462,NA,NA,451,"3359 VAGANOND ROAD, LANTANA, FL, 33462","No_Match",NA,NA,NA,NA
525952,"3359 W 130TH ST","CLEVELAND","OH",44111,NA,NA,452,"3359 W 130TH ST, CLEVELAND, OH, 44111","No_Match",NA,NA,NA,NA
525953,"3359 W BYRON APT 1","CHICAGO","IL",60618,NA,NA,453,"3359 W BYRON APT 1, CHICAGO, IL, 60618","No_Match",NA,NA,NA,NA
525954,"33591 VIA LAGOS","DANA POINT","CA",92629,33.474357093,-117.69041667,454,"33591 VIA LAGOS, DANA POINT, CA, 92629","Match","Exact","33591 VIA LAGOS, DANA POINT, CA, 92629",144073267,"L"
525955,"33595 199TH ST","HIGHMORE","SD",57345,44.4983469970001,-99.467236811,455,"33595 199TH ST, HIGHMORE, SD, 57345","Match","Exact","33595 199TH ST, HIGHMORE, SD, 57345",200405258,"R"
525956,"33596 COLONY PARK DR","FARMINGTON HILLS","MI",48331,42.5081646360001,-83.381061549,456,"33596 COLONY PARK DR, FARMINGTON HILLS, MI, 48331","Match","Exact","33596 COLONY PARK DR, FARMINGTON HILLS, MI, 48331",69784434,"R"
525957,"33597 GLOBE DRIVE UNIT A","SPRINGVILLE","CA",93265,36.0880759720001,-118.816690289,457,"33597 GLOBE DRIVE UNIT A, SPRINGVILLE, CA, 93265","Match","Exact","33597 GLOBE DR, SPRINGVILLE, CA, 93265",202756043,"R"
525958,"33599 POVERTY POINT DR","AVON","MN",56310,45.610344603,-94.464299045,458,"33599 POVERTY POINT DR, AVON, MN, 56310","Match","Exact","33599 POVERTY POINT DR, AVON, MN, 56310",107424244,"L"
525959,"335A FM 474","BOERNE","TX",78006,29.847672624,-98.6905152369999,459,"335A FM 474, BOERNE, TX, 78006","Match","Exact","335 FM 474, BOERNE, TX, 78006",636801469,"R"
525960,"335B EAST 4TH STREET","RUSSELLVILLE","KY",42276,36.84617911,-86.884406441,460,"335B EAST 4TH STREET, RUSSELLVILLE, KY, 42276","Match","Exact","335 E 4TH ST, RUSSELLVILLE, KY, 42276",15831434,"L"
525961,"336  WALDEN STATION DRIVE","MACON","GA",31216,32.698906773,-83.687607796,461,"336  WALDEN STATION DRIVE, MACON, GA, 31216","Match","Exact","336 WALDEN STATION DR, MACON, GA, 31216",81073809,"R"
525962,"336 1/2 S GLENDORA AVENUE STE M","WEST COVINA","CA",91790,34.068752691,-117.923764456,462,"336 1/2 S GLENDORA AVENUE STE M, WEST COVINA, CA, 91790","Match","Exact","336 S GLENDORA AVE, WEST COVINA, CA, 91790",241245551,"L"
525963,"336 1/2 W 22ND STREET","HOUSTON","TX",77008,29.805942669,-95.402330702,463,"336 1/2 W 22ND STREET, HOUSTON, TX, 77008","Match","Exact","336 W 22ND ST, HOUSTON, TX, 77008",96055331,"L"
525964,"336 10TH STREET","MANHATTAN BEACH","CA",90266,33.884097357,-118.408165058,464,"336 10TH STREET, MANHATTAN BEACH, CA, 90266","Match","Exact","336 10TH ST, MANHATTAN BEACH, CA, 90266",642862108,"R"
525965,"336 12TH AVE","HUNTINGTON","WV",25701,38.4080239420001,-82.450360852,465,"336 12TH AVE, HUNTINGTON, WV, 25701","Match","Exact","336 12TH AVE, HUNTINGTON, WV, 25701",101317550,"L"
525966,"336 14TH STREET  APT 302","TOLEDO","OH",43604,41.656145974,-83.5434203679999,466,"336 14TH STREET  APT 302, TOLEDO, OH, 43604","Match","Exact","336 14TH ST, TOLEDO, OH, 43604",33943716,"R"
525967,"336 2ND AVE EAST","SHAKOPEE","MN",55379,44.7979199260001,-93.523018121,467,"336 2ND AVE EAST, SHAKOPEE, MN, 55379","Match","Exact","336 2ND AVE E, SHAKOPEE, MN, 55379",38140562,"R"
525968,"336 36TH STREET APT 196","BELLINGHAM","WA",98225,NA,NA,468,"336 36TH STREET APT 196, BELLINGHAM, WA, 98225","No_Match",NA,NA,NA,NA
525969,"336 3RD STREET","ASHTON","IA",51232,43.3117622560001,-95.793527189,469,"336 3RD STREET, ASHTON, IA, 51232","Match","Exact","336 3RD ST, ASHTON, IA, 51232",30287934,"L"
525970,"336 54TH AVENUE","NASHVILLE","TN",37209,36.1504241800001,-86.8533934559999,470,"336 54TH AVENUE, NASHVILLE, TN, 37209","Match","Non_Exact","336 54TH AVE N, NASHVILLE, TN, 37209",642343932,"R"
525971,"336 87TH STREET","BROOKLYN","NY",11209,40.6224755750001,-74.030303749,471,"336 87TH STREET, BROOKLYN, NY, 11209","Match","Exact","336 87TH ST, BROOKLYN, NY, 11209",59087456,"R"
525972,"336 89TH AVE N","ST PETERSBURG","FL",33702,27.8535586190001,-82.637870952,472,"336 89TH AVE N, ST PETERSBURG, FL, 33702","Match","Exact","336 89TH AVE N, SAINT PETERSBURG, FL, 33702",124689462,"L"
525973,"336 9TH STREET APT 1F","BROOKLYN","NY",11215,40.6687365380001,-73.985409843,473,"336 9TH STREET APT 1F, BROOKLYN, NY, 11215","Match","Exact","336 9TH ST, BROOKLYN, NY, 11215",59075711,"R"
525974,"336 ABBOTSFORD RD","KENILWORTH","IL",60043,42.087353303,-87.713177796,474,"336 ABBOTSFORD RD, KENILWORTH, IL, 60043","Match","Exact","336 ABBOTSFORD RD, KENILWORTH, IL, 60043",111738320,"L"
525975,"336 ALBANY AVENUE FLOOR 2","BARRINGTON","NJ",8007,39.873078838,-75.056665129,475,"336 ALBANY AVENUE FLOOR 2, BARRINGTON, NJ, 8007","Match","Exact","336 ALBANY AVE, BARRINGTON, NJ, 08007",134355344,"L"
525976,"336 ALDEN PLACE","ORANGE","NJ",7050,40.7810782490001,-74.225932197,476,"336 ALDEN PLACE, ORANGE, NJ, 7050","Match","Non_Exact","336 ALDEN ST, ORANGE, NJ, 07050",63449634,"L"
525977,"336 ANGLIN LN","JACKSON","TN",38301,35.618490373,-88.908234227,477,"336 ANGLIN LN, JACKSON, TN, 38301","Match","Exact","336 ANGLIN LN, JACKSON, TN, 38301",608823813,"R"
525978,"336 ANITA DRIVE","BOURBONNAIS","IL",60914,41.1803510990001,-87.881607923,478,"336 ANITA DRIVE, BOURBONNAIS, IL, 60914","Match","Exact","336 ANITA DR, BOURBONNAIS, IL, 60914",98354382,"R"
525979,"336 ARBEGAST DRIVE","BRIGANTINE","NJ",8203,39.390385141,-74.404010522,479,"336 ARBEGAST DRIVE, BRIGANTINE, NJ, 8203","Match","Exact","336 ARBEGAST DR, BRIGANTINE, NJ, 08203",202503209,"L"
525980,"336 AZALEA DR","WILMINGTON","NC",28409,34.202856142,-77.850075131,480,"336 AZALEA DR, WILMINGTON, NC, 28409","Match","Exact","336 AZALEA DR, WILMINGTON, NC, 28409",152755321,"L"
525981,"336 BARKER ROAD","DAWSONVILLE","GA",30534,34.347988963,-84.002657447,481,"336 BARKER ROAD, DAWSONVILLE, GA, 30534","Match","Exact","336 BARKER RD, DAWSONVILLE, GA, 30534",634080115,"R"
525982,"336 BARRINGTON CIR","LANSING","MI",48917,42.7367704380001,-84.6786711359999,482,"336 BARRINGTON CIR, LANSING, MI, 48917","Match","Exact","336 BARRINGTON CIR, LANSING, MI, 48917",617450543,"L"
525983,"336 BATESVIEW RD","TRAVELERS REST","SC",29690,35.0137494860001,-82.4858296259999,483,"336 BATESVIEW RD, TRAVELERS REST, SC, 29690","Match","Non_Exact","336 BATES VIEW DR, TRAVELERS REST, SC, 29690",38346871,"L"
525984,"336 BELLEFONTAINE AVENUE","KANSAS CITY","MO",64124,39.110006313,-94.546728623,484,"336 BELLEFONTAINE AVENUE, KANSAS CITY, MO, 64124","Match","Exact","336 BELLEFONTAINE AVE, KANSAS CITY, MO, 64124",91449235,"R"
525985,"336 BESSIE COLEMAN BLVD","WAXAHACHIE","TX",75165,32.4278751090001,-96.8314576499999,485,"336 BESSIE COLEMAN BLVD, WAXAHACHIE, TX, 75165","Match","Exact","336 BESSIE COLEMAN BLVD, WAXAHACHIE, TX, 75165",648582911,"R"
525986,"336 BEST PLACE RD","HELENA","MT",59602,46.696488554,-112.046409622,486,"336 BEST PLACE RD, HELENA, MT, 59602","Match","Exact","336 BEST PLACE RD, HELENA, MT, 59602",202384436,"R"
525987,"336 BINKLEY DRIVE","NASHVILLE","TN",37211,36.080039496,-86.742380279,487,"336 BINKLEY DRIVE, NASHVILLE, TN, 37211","Match","Exact","336 BINKLEY DR, NASHVILLE, TN, 37211",97193619,"R"
525988,"336 BLUBIRD AVENUE","CROWN POINT","IN",46307,41.4114125,-87.3694865479999,488,"336 BLUBIRD AVENUE, CROWN POINT, IN, 46307","Match","Non_Exact","336 BLUEBIRD AVE, CROWN POINT, IN, 46307",98432805,"L"
525989,"336 BON AIR CENTER    109","GREENBRAE","CA",94904,37.945399825,-122.521626829,489,"336 BON AIR CENTER    109, GREENBRAE, CA, 94904","Match","Exact","336 BON AIR CENTER, GREENBRAE, CA, 94904",605778189,"L"
525990,"336 BON AIR CENTER SUITE 361","GREENBRAE","CA",94904,37.945399825,-122.521626829,490,"336 BON AIR CENTER SUITE 361, GREENBRAE, CA, 94904","Match","Exact","336 BON AIR CENTER, GREENBRAE, CA, 94904",605778189,"L"
525991,"336 BRICKHOPE LANE","GOOSE CREEK","SC",29445,33.007562856,-80.00070056,491,"336 BRICKHOPE LANE, GOOSE CREEK, SC, 29445","Match","Exact","336 BRICKHOPE LN, GOOSE CREEK, SC, 29445",624564724,"R"
525992,"336 BROAD HILL ROAD","GROTON","CT",6340,NA,NA,492,"336 BROAD HILL ROAD, GROTON, CT, 6340","No_Match",NA,NA,NA,NA
525993,"336 BURNSIDE DR","GOLDEN VALLEY","MN",55442,NA,NA,493,"336 BURNSIDE DR, GOLDEN VALLEY, MN, 55442","No_Match",NA,NA,NA,NA
525994,"336 CALUMET AVE","ALTUS","OK",73521,34.655358468,-99.293748772,494,"336 CALUMET AVE, ALTUS, OK, 73521","Match","Exact","336 CALUMET AVE, ALTUS, OK, 73521",171806766,"L"
525995,"336 CALUMET LANE","MONROE","GA",30655,33.762410141,-83.741349567,495,"336 CALUMET LANE, MONROE, GA, 30655","Match","Exact","336 CALUMET LN, MONROE, GA, 30655",77621920,"L"
525996,"336 CAMBRIDGE ROAD","PLYMOUTH MEETING","PA",19462,40.136636713,-75.299698712,496,"336 CAMBRIDGE ROAD, PLYMOUTH MEETING, PA, 19462","Match","Exact","336 CAMBRIDGE RD, PLYMOUTH MEETING, PA, 19462",135084664,"R"
525997,"336 CANAL STREET","METARIE","LA",70005,29.9919974790001,-90.126718119,497,"336 CANAL STREET, METARIE, LA, 70005","Match","Non_Exact","336 CANAL ST, METAIRIE, LA, 70005",93504023,"L"
525998,"336 CANDLEWOOD PLACE","RICHARDSON","TN",75081,NA,NA,498,"336 CANDLEWOOD PLACE, RICHARDSON, TN, 75081","No_Match",NA,NA,NA,NA
525999,"336 CANDLEWOOD PLACE","RICHARDSON","TX",75081,32.9446306720001,-96.7170000739999,499,"336 CANDLEWOOD PLACE, RICHARDSON, TX, 75081","Match","Exact","336 CANDLEWOOD PL, RICHARDSON, TX, 75081",102914041,"R"
526000,"336 CANE CREEK DRIVE","STOCKBRIDGE","GA",30281,33.587988631,-84.243401504,500,"336 CANE CREEK DRIVE, STOCKBRIDGE, GA, 30281","Match","Exact","336 CANE CREEK DR, STOCKBRIDGE, GA, 30281",629822080,"L"
