"ID","Address","City","State","Zip","lat","long","id","input_address","match_indicator","match_type","matched_address","tiger_line_id","tiger_side"
229001,"1616 AMBER DRIVE","CORPUS CHRISTI","TX",78418,27.6611400530001,-97.289839724,1,"1616 AMBER DRIVE, CORPUS CHRISTI, TX, 78418","Match","Exact","1616 AMBER DR, CORPUS CHRISTI, TX, 78418",178523179,"R"
229002,"1616 APA ROAD","POINT ROBERTS","WA",98281,48.981019336,-123.066957563,2,"1616 APA ROAD, POINT ROBERTS, WA, 98281","Match","Exact","1616 APA RD, POINT ROBERTS, WA, 98281",183770503,"R"
229003,"1616 ASHLAND HWY NUMBER 2","TALLADEGA","AL",35160,33.4216641240001,-86.068400033,3,"1616 ASHLAND HWY NUMBER 2, TALLADEGA, AL, 35160","Match","Exact","1616 ASHLAND HWY, TALLADEGA, AL, 35160",66973029,"R"
229004,"1616 ATLANTA AVENUE","PORTSMOUTH","VA",23704,36.8265205960001,-76.3143702739999,4,"1616 ATLANTA AVENUE, PORTSMOUTH, VA, 23704","Match","Exact","1616 ATLANTA AVE, PORTSMOUTH, VA, 23704",122194412,"R"
229005,"1616 BAGLEY","DETROIT","MI",48216,42.3287674490001,-83.0672376369999,5,"1616 BAGLEY, DETROIT, MI, 48216","Match","Non_Exact","1616 BAGLEY ST, DETROIT, MI, 48216",95479557,"R"
229006,"1616 BAKER STREET","BAKERSFIELD","CA",93305,35.3854908320001,-118.989817565,6,"1616 BAKER STREET, BAKERSFIELD, CA, 93305","Match","Exact","1616 BAKER ST, BAKERSFIELD, CA, 93305",109504810,"L"
229007,"1616 BAYITA LN NW","ALBUQUERQUE","NM",87107,35.1374210970001,-106.656592069,7,"1616 BAYITA LN NW, ALBUQUERQUE, NM, 87107","Match","Exact","1616 BAYITA LN NW, ALBUQUERQUE, NM, 87107",206702397,"L"
229008,"1616 BAYLAND STREET","ROUND ROCK","TX",78664,30.5243208900001,-97.660858302,8,"1616 BAYLAND STREET, ROUND ROCK, TX, 78664","Match","Exact","1616 BAYLAND ST, ROUND ROCK, TX, 78664",640537010,"L"
229009,"1616 BEAR CROSSING CIRCLE","APOPKA","FL",32703,28.6542041070001,-81.441137474,9,"1616 BEAR CROSSING CIRCLE, APOPKA, FL, 32703","Match","Exact","1616 BEAR CROSSING CIR, APOPKA, FL, 32703",93767585,"R"
229010,"1616 BEASER AV APT 21","ASHLAND","WI",54806,46.571079135,-90.885571436,10,"1616 BEASER AV APT 21, ASHLAND, WI, 54806","Match","Exact","1616 BEASER AVE, ASHLAND, WI, 54806",165357033,"R"
229011,"1616 BEAVER MEADOW RD","NORWICH","VT",5055,43.7636572160001,-72.371084383,11,"1616 BEAVER MEADOW RD, NORWICH, VT, 5055","Match","Exact","1616 BEAVER MEADOW RD, NORWICH, VT, 05055",624865162,"R"
229012,"1616 BEEKMAN PLACE NW APT B","WASHINGTON","DC",20009,38.919625916,-77.037100643,12,"1616 BEEKMAN PLACE NW APT B, WASHINGTON, DC, 20009","Match","Exact","1616 BEEKMAN PL NW, WASHINGTON, DC, 20009",76240012,"L"
229013,"1616 BELL ROAD APT 120","NASHVILLE","TN",37211,36.0453095730001,-86.701833505,13,"1616 BELL ROAD APT 120, NASHVILLE, TN, 37211","Match","Exact","1616 BELL RD, NASHVILLE, TN, 37211",97198051,"L"
229014,"1616 BISCAY CIRCLE","AURORA","CO",80011,39.7418473340001,-104.768541972,14,"1616 BISCAY CIRCLE, AURORA, CO, 80011","Match","Exact","1616 BISCAY CIR, AURORA, CO, 80011",177415645,"R"
229015,"1616 BLUE DANUBE STREET","ARLINGTON","TX",76015,32.691451328,-97.134157619,15,"1616 BLUE DANUBE STREET, ARLINGTON, TX, 76015","Match","Exact","1616 BLUE DANUBE ST, ARLINGTON, TX, 76015",102134295,"L"
229016,"1616 BOGART AVENUE","BRONX","NY",10462,40.844623336,-73.855740576,16,"1616 BOGART AVENUE, BRONX, NY, 10462","Match","Exact","1616 BOGART AVE, BRONX, NY, 10462",80304592,"R"
229017,"1616 BOWERTON DR","AUSTIN","TX",78754,30.3767121720001,-97.6560957629999,17,"1616 BOWERTON DR, AUSTIN, TX, 78754","Match","Exact","1616 BOWERTON DR, AUSTIN, TX, 78754",624799088,"L"
229018,"1616 BRILEY RD","GREENVILLE","NC",27834,35.685072415,-77.4110195229999,18,"1616 BRILEY RD, GREENVILLE, NC, 27834","Match","Exact","1616 BRILEY RD, GREENVILLE, NC, 27834",80005664,"R"
229019,"1616 CACTUS DRIVE","LAKE CHARLES","LA",70607,30.1801987360001,-93.197747393,19,"1616 CACTUS DRIVE, LAKE CHARLES, LA, 70607","Match","Exact","1616 CACTUS DR, LAKE CHARLES, LA, 70607",88439058,"R"
229020,"1616 CAMPUS STREET","CEDAR FALLS","IA",50613,42.5237728710001,-92.460535697,20,"1616 CAMPUS STREET, CEDAR FALLS, IA, 50613","Match","Exact","1616 CAMPUS ST, CEDAR FALLS, IA, 50613",77248192,"L"
229021,"1616 CARNWISE ST SW","CANTON","OH",44706,40.7582472240001,-81.395399891,21,"1616 CARNWISE ST SW, CANTON, OH, 44706","Match","Exact","1616 CARNWISE ST SW, CANTON, OH, 44706",64681530,"L"
229022,"1616 CAYENNE COURT","BRENTWOOD","CA",94513,37.949164395,-121.704829434,22,"1616 CAYENNE COURT, BRENTWOOD, CA, 94513","Match","Non_Exact","1616 CAYENNE DR, BRENTWOOD, CA, 94513",627381531,"L"
229023,"1616 CEDAR DRIVE","BOULDER CITY","NV",89005,35.9685845450001,-114.85513744,23,"1616 CEDAR DRIVE, BOULDER CITY, NV, 89005","Match","Exact","1616 CEDAR DR, BOULDER CITY, NV, 89005",201884846,"L"
229024,"1616 CEDAR ST","NILES","MI",49120,41.828711738,-86.236909995,24,"1616 CEDAR ST, NILES, MI, 49120","Match","Exact","1616 CEDAR ST, NILES, MI, 49120",119979872,"R"
229025,"1616 CEDAR ST","RATON","NM",87740,36.8863950040001,-104.43120565,25,"1616 CEDAR ST, RATON, NM, 87740","Match","Non_Exact","1616 S CEDAR ST, RATON, NM, 87740",605188821,"L"
229026,"1616 CHACON CANYON DRIVE","DESOTO","TX",75115,32.610375945,-96.900205845,26,"1616 CHACON CANYON DRIVE, DESOTO, TX, 75115","Match","Exact","1616 CHACON CANYON DR, DESOTO, TX, 75115",642861530,"R"
229027,"1616 CHAMPAGNE RD","DAVENPORT","FL",33837,28.1396532970001,-81.5779258969999,27,"1616 CHAMPAGNE RD, DAVENPORT, FL, 33837","Match","Exact","1616 CHAMPAGNE RD, DAVENPORT, FL, 33837",104917103,"L"
229028,"1616 CHARLES STREET","ERIE","PA",16509,42.0721090150001,-80.087469132,28,"1616 CHARLES STREET, ERIE, PA, 16509","Match","Exact","1616 CHARLES ST, ERIE, PA, 16509",117522884,"R"
229029,"1616 CHERRY ST","NILES","MI",49120,41.8242594480001,-86.23663057,29,"1616 CHERRY ST, NILES, MI, 49120","Match","Exact","1616 CHERRY ST, NILES, MI, 49120",119979913,"R"
229030,"1616 CHERRY WAY","LOUISVILLE","KY",40216,38.1759027370001,-85.812593917,30,"1616 CHERRY WAY, LOUISVILLE, KY, 40216","Match","Exact","1616 CHERRY WAY, LOUISVILLE, KY, 40216",96839265,"L"
229031,"1616 CHERRY","LAKE CHARLES","LA",70611,30.3216456480001,-93.167547064,31,"1616 CHERRY, LAKE CHARLES, LA, 70611","Match","Non_Exact","1616 CHERRY ST, LAKE CHARLES, LA, 70611",88429164,"R"
229032,"1616 CHURCH STREET","NASHVILLE","TN",37203,36.1559965750001,-86.795656279,32,"1616 CHURCH STREET, NASHVILLE, TN, 37203","Match","Exact","1616 CHURCH ST, NASHVILLE, TN, 37203",638472407,"R"
229033,"1616 CLEAR LAKE CITY BLVD","HOUSTON","TX",77023,NA,NA,33,"1616 CLEAR LAKE CITY BLVD, HOUSTON, TX, 77023","No_Match",NA,NA,NA,NA
229034,"1616 CLEAR LAKE CITY BLVD","HOUSTON","TX",77062,NA,NA,34,"1616 CLEAR LAKE CITY BLVD, HOUSTON, TX, 77062","No_Match",NA,NA,NA,NA
229035,"1616 CLOVER DR","JUNCTION CITY","KS",66441,39.0072541960001,-96.88123594,35,"1616 CLOVER DR, JUNCTION CITY, KS, 66441","Match","Exact","1616 CLOVER DR, JUNCTION CITY, KS, 66441",627563191,"L"
229036,"1616 COLLEGE AVE","BLUEFIELD","WV",24701,37.2494956890001,-81.236965308,36,"1616 COLLEGE AVE, BLUEFIELD, WV, 24701","Match","Exact","1616 COLLEGE AVE, BLUEFIELD, WV, 24701",47707172,"L"
229037,"1616 COLORADO","MANHATTAN","KS",66502,39.1763922760001,-96.58200608,37,"1616 COLORADO, MANHATTAN, KS, 66502","Match","Non_Exact","1616 COLORADO ST, MANHATTAN, KS, 66502",27794744,"R"
229038,"1616 CONCORD AVENUE","MODESTO","CA",95350,37.6678976860001,-121.008890152,38,"1616 CONCORD AVENUE, MODESTO, CA, 95350","Match","Exact","1616 CONCORD AVE, MODESTO, CA, 95350",102602979,"R"
229039,"1616 COUNTRY CLUB RD","WILMINGTON","NC",28403,34.2185639,-77.916208174,39,"1616 COUNTRY CLUB RD, WILMINGTON, NC, 28403","Match","Exact","1616 COUNTRY CLUB RD, WILMINGTON, NC, 28403",152761465,"R"
229040,"1616 CRESCENT RIDGE ROAD","DAYTONA BEACH","FL",32118,NA,NA,40,"1616 CRESCENT RIDGE ROAD, DAYTONA BEACH, FL, 32118","No_Match",NA,NA,NA,NA
229041,"1616 CRESTMORE PLACE","FORT COLLINS","CO",80521,40.579169613,-105.103945498,41,"1616 CRESTMORE PLACE, FORT COLLINS, CO, 80521","Match","Exact","1616 CRESTMORE PL, FORT COLLINS, CO, 80521",188490163,"R"
229042,"1616 CRESTVIEW AVENUE","WILLOW GROVE","PA",19090,40.142402088,-75.138218753,42,"1616 CRESTVIEW AVENUE, WILLOW GROVE, PA, 19090","Match","Exact","1616 CRESTVIEW AVE, WILLOW GROVE, PA, 19090",135079323,"L"
229043,"1616 DANIELLE REBECCA AVENUE","LAS VEGAS","NV",89086,36.2831273730001,-115.123934447,43,"1616 DANIELLE REBECCA AVENUE, LAS VEGAS, NV, 89086","Match","Non_Exact","1616 DANIELLE REBECCA AVE, N LAS VEGAS, NV, 89086",632848216,"L"
229044,"1616 DAVISON RD","FLINT","MI",48506,43.0330699670001,-83.6697091199999,44,"1616 DAVISON RD, FLINT, MI, 48506","Match","Exact","1616 DAVISON RD, FLINT, MI, 48506",69569096,"R"
229045,"1616 DEER PARK AVE","LOUISVILLE","KY",40205,38.224097305,-85.710949252,45,"1616 DEER PARK AVE, LOUISVILLE, KY, 40205","Match","Exact","1616 DEER PARK AVE, LOUISVILLE, KY, 40205",96847398,"R"
229046,"1616 DEMPSEY RD","KNOXVILLE","TN",37932,35.9143924970001,-84.1832450379999,46,"1616 DEMPSEY RD, KNOXVILLE, TN, 37932","Match","Exact","1616 DEMPSEY RD, KNOXVILLE, TN, 37932",645573602,"R"
229047,"1616 E 142ND ST","EAST CHICAGO","IN",46312,41.6372307600001,-87.4518115389999,47,"1616 E 142ND ST, EAST CHICAGO, IN, 46312","Match","Exact","1616 E 142ND ST, EAST CHICAGO, IN, 46312",98418780,"L"
229048,"1616 E 50TH PLACE APT 11A","CHICAGO","IL",60615,41.8034175540001,-87.5862356329999,48,"1616 E 50TH PLACE APT 11A, CHICAGO, IL, 60615","Match","Non_Exact","1616 E 50TH PL, CHICAGO, IL, 60615",642836816,"L"
229049,"1616 E BEARSS AVENUE","TAMPA","FL",33613,28.0811398340001,-82.4425018599999,49,"1616 E BEARSS AVENUE, TAMPA, FL, 33613","Match","Exact","1616 E BEARSS AVE, TAMPA, FL, 33613",104512418,"L"
229050,"1616 E SUNVALE DR","OLATHE","KS",66062,38.8665105750001,-94.7917442579999,50,"1616 E SUNVALE DR, OLATHE, KS, 66062","Match","Exact","1616 E SUNVALE DR, OLATHE, KS, 66062",640603919,"L"
229051,"1616 EAS ROCK CREEK DRIVE SUITE 217","ORANGE","CA",92866,33.779072974,-117.836756739,51,"1616 EAS ROCK CREEK DRIVE SUITE 217, ORANGE, CA, 92866","Match","Non_Exact","1616 E ROCK CREEK DR, ORANGE, CA, 92866",144135098,"L"
229052,"1616 EAST 56TH ST APARTMENT 1904","CHICAGO","IL",60637,41.793407851,-87.585072251,52,"1616 EAST 56TH ST APARTMENT 1904, CHICAGO, IL, 60637","Match","Exact","1616 E 56TH ST, CHICAGO, IL, 60637",111772007,"L"
229053,"1616 EAST 56TH STREET","CHICAGO","IL",60637,41.793407851,-87.585072251,53,"1616 EAST 56TH STREET, CHICAGO, IL, 60637","Match","Exact","1616 E 56TH ST, CHICAGO, IL, 60637",111772007,"L"
229054,"1616 EAST 96TH ST","BROOKLYN","NY",11236,40.6343195860001,-73.891650151,54,"1616 EAST 96TH ST, BROOKLYN, NY, 11236","Match","Exact","1616 E 96TH ST, BROOKLYN, NY, 11236",59087097,"R"
229055,"1616 EAST 96TH STREET","BROOKLYN","NY",11236,40.6343195860001,-73.891650151,55,"1616 EAST 96TH STREET, BROOKLYN, NY, 11236","Match","Exact","1616 E 96TH ST, BROOKLYN, NY, 11236",59087097,"R"
229056,"1616 EAST GRIFFIN PARKWAY SUITE 121","MISSION","TX",78572,26.2263126340001,-98.299172992,56,"1616 EAST GRIFFIN PARKWAY SUITE 121, MISSION, TX, 78572","Match","Exact","1616 E GRIFFIN PKWY, MISSION, TX, 78572",71492815,"R"
229057,"1616 EAST HENRY ST","SAVANNAH","GA",31404,32.0563086010001,-81.071762119,57,"1616 EAST HENRY ST, SAVANNAH, GA, 31404","Match","Exact","1616 E HENRY ST, SAVANNAH, GA, 31404",641586577,"L"
229058,"1616 EAST MAIN STREET SUITE 105","MESA","AZ",85203,33.4152957640001,-111.795891334,58,"1616 EAST MAIN STREET SUITE 105, MESA, AZ, 85203","Match","Exact","1616 E MAIN ST, MESA, AZ, 85203",633220246,"L"
229059,"1616 EDMUND TERRACE","UNION","NJ",7083,40.711793394,-74.261376899,59,"1616 EDMUND TERRACE, UNION, NJ, 7083","Match","Exact","1616 EDMUND TER, UNION, NJ, 07083",60571342,"L"
229060,"1616 ELIZABETH PL","CINCINNATI","OH",45237,39.177718617,-84.468749346,60,"1616 ELIZABETH PL, CINCINNATI, OH, 45237","Match","Exact","1616 ELIZABETH PL, CINCINNATI, OH, 45237",103928641,"L"
229061,"1616 ELLINGTON ROAD","CONYERS","GA",30013,33.624143987,-83.993129064,61,"1616 ELLINGTON ROAD, CONYERS, GA, 30013","Match","Non_Exact","1616 ELLINGTON RD SE, CONYERS, GA, 30013",642557231,"R"
229062,"1616 EMERALD AVE","ATLANTA","GA",30310,33.7423704780001,-84.440908754,62,"1616 EMERALD AVE, ATLANTA, GA, 30310","Match","Non_Exact","1616 EMERALD AVE SW, ATLANTA, GA, 30310",17340547,"L"
229063,"1616 EMERY STREET","EAU CLAIRE","WI",54701,44.8108920980001,-91.4783065089999,63,"1616 EMERY STREET, EAU CLAIRE, WI, 54701","Match","Exact","1616 EMERY ST, EAU CLAIRE, WI, 54701",46068112,"L"
229064,"1616 EVERGREEN LANE","LAKE GENEVA","WI",53147,42.5883172430001,-88.4479463069999,64,"1616 EVERGREEN LANE, LAKE GENEVA, WI, 53147","Match","Exact","1616 EVERGREEN LN, LAKE GENEVA, WI, 53147",53671942,"R"
229065,"1616 FALLS BROOK RUN","CHESAPEAKE","VA",23322,36.654836249,-76.243302039,65,"1616 FALLS BROOK RUN, CHESAPEAKE, VA, 23322","Match","Exact","1616 FALLS BROOK RUN, CHESAPEAKE, VA, 23322",121799146,"L"
229066,"1616 FIR","PAMPA","TX",79065,NA,NA,66,"1616 FIR, PAMPA, TX, 79065","No_Match",NA,NA,NA,NA
229067,"1616 FOREST HILL DR","LOUISVILLE","KY",40205,38.213008938,-85.6967218089999,67,"1616 FOREST HILL DR, LOUISVILLE, KY, 40205","Match","Exact","1616 FOREST HILL DR, LOUISVILLE, KY, 40205",96853064,"R"
229068,"1616 FOUNTAINVIEW APT 666","HOUSTON","TX",77057,29.750784332,-95.485965043,68,"1616 FOUNTAINVIEW APT 666, HOUSTON, TX, 77057","Match","Non_Exact","1616 FOUNTAIN VIEW DR, HOUSTON, TX, 77057",647726623,"R"
229069,"1616 GALLERY AVENUE","VIRGINIA BEACH","VA",23454,36.7827746630001,-76.005139222,69,"1616 GALLERY AVENUE, VIRGINIA BEACH, VA, 23454","Match","Exact","1616 GALLERY AVE, VIRGINIA BCH, VA, 23454",122271549,"L"
229070,"1616 GAY EVANS RD","WINCHESTER","KY",40391,38.0668373,-84.1393530399999,70,"1616 GAY EVANS RD, WINCHESTER, KY, 40391","Match","Exact","1616 GAY EVANS RD, WINCHESTER, KY, 40391",31796283,"L"
229071,"1616 GLENBROOK AVENUE","MOON TOWNSHIP","PA",15108,40.502818679,-80.152590071,71,"1616 GLENBROOK AVENUE, MOON TOWNSHIP, PA, 15108","Match","Non_Exact","1616 GLENBROOK RD, MOON TOWNSHIP, PA, 15108",51613210,"R"
229072,"1616 GOSHEN DR","HUDSON","OH",44236,41.266494944,-81.454771299,72,"1616 GOSHEN DR, HUDSON, OH, 44236","Match","Exact","1616 GOSHEN DR, HUDSON, OH, 44236",61364125,"R"
229073,"1616 GOWAN DR","MEMPHIS","TN",38127,NA,NA,73,"1616 GOWAN DR, MEMPHIS, TN, 38127","No_Match",NA,NA,NA,NA
229074,"1616 GRANGER AVENUE","ANN ARBOR","MI",48104,42.264601435,-83.7261790219999,74,"1616 GRANGER AVENUE, ANN ARBOR, MI, 48104","Match","Exact","1616 GRANGER AVE, ANN ARBOR, MI, 48104",26015535,"R"
229075,"1616 GRAY HAVEN COURT","DUNDALK","MD",21222,39.2713023630001,-76.492646475,75,"1616 GRAY HAVEN COURT, DUNDALK, MD, 21222","Match","Exact","1616 GRAY HAVEN CT, DUNDALK, MD, 21222",191523467,"R"
229076,"1616 GREENBRIER BLVD","PENSACOLA","FL",32514,30.5470319560001,-87.2354175849999,76,"1616 GREENBRIER BLVD, PENSACOLA, FL, 32514","Match","Exact","1616 GREENBRIER BLVD, PENSACOLA, FL, 32514",93273241,"L"
229077,"1616 GROUSE GAP","MINNEOLA","FL",34715,28.5840501920001,-81.7348195819999,77,"1616 GROUSE GAP, MINNEOLA, FL, 34715","Match","Exact","1616 GROUSE GAP, MINNEOLA, FL, 34715",648416728,"R"
229078,"1616 H STREET NW SUITE 600","WASHINGTON DC","DC",20006,38.9001976970001,-77.038254605,78,"1616 H STREET NW SUITE 600, WASHINGTON DC, DC, 20006","Match","Exact","1616 H ST NW, WASHINGTON, DC, 20006",76225671,"L"
229079,"1616 H STREET NW","WASHINGTON","DC",20006,38.9001976970001,-77.038254605,79,"1616 H STREET NW, WASHINGTON, DC, 20006","Match","Exact","1616 H ST NW, WASHINGTON, DC, 20006",76225671,"L"
229080,"1616 HEMLOCK HILL DRIVE","DURHAM","NC",27703,35.950872507,-78.8244910609999,80,"1616 HEMLOCK HILL DRIVE, DURHAM, NC, 27703","Match","Exact","1616 HEMLOCK HILL DR, DURHAM, NC, 27703",618113209,"L"
229081,"1616 HERNDON FARM RD","ROCK HILL","SC",29732,34.9148320470001,-81.1141685539999,81,"1616 HERNDON FARM RD, ROCK HILL, SC, 29732","Match","Exact","1616 HERNDON FARM RD, ROCK HILL, SC, 29732",618913600,"R"
229082,"1616 HEROES DRIVE","SCOTTSBORO","AL",35768,NA,NA,82,"1616 HEROES DRIVE, SCOTTSBORO, AL, 35768","No_Match",NA,NA,NA,NA
229083,"1616 HILL RD","READING","PA",19602,40.333072266,-75.905444398,83,"1616 HILL RD, READING, PA, 19602","Match","Exact","1616 HILL RD, READING, PA, 19602",629122723,"R"
229084,"1616 HOLLINS ST","BALTIMORE","MD",21223,39.2873875180001,-76.6429716709999,84,"1616 HOLLINS ST, BALTIMORE, MD, 21223","Match","Exact","1616 HOLLINS ST, BALTIMORE, MD, 21223",206417587,"R"
229085,"1616 HONOUR RD","ORLANDO","FL",32839,28.490781154,-81.401351973,85,"1616 HONOUR RD, ORLANDO, FL, 32839","Match","Exact","1616 HONOUR RD, ORLANDO, FL, 32839",94342396,"L"
229086,"1616 HOPEFIELD RD","SILVER SPRING","MD",20905,39.105551533,-76.978475359,86,"1616 HOPEFIELD RD, SILVER SPRING, MD, 20905","Match","Exact","1616 HOPEFIELD RD, SILVER SPRING, MD, 20905",62072471,"L"
229087,"1616 JACE DR","MCKINNEY","TX",75071,33.2155364230001,-96.756359747,87,"1616 JACE DR, MCKINNEY, TX, 75071","Match","Exact","1616 JACE DR, MCKINNEY, TX, 75071",646744849,"L"
229088,"1616 KENDRICK DR","KISSIMMEE","FL",34741,28.323431305,-81.419373422,88,"1616 KENDRICK DR, KISSIMMEE, FL, 34741","Match","Exact","1616 KENDRICK DR, KISSIMMEE, FL, 34741",176685618,"R"
229089,"1616 LANGSTON DRIVE","JOHNS ISLAND","SC",29455,32.727007714,-80.0864793869999,89,"1616 LANGSTON DRIVE, JOHNS ISLAND, SC, 29455","Match","Exact","1616 LANGSTON DR, JOHNS ISLAND, SC, 29455",108810794,"L"
229090,"1616 LATIMER STREET","PHILADELPHIA","PA",19103,39.9482115490001,-75.168406938,90,"1616 LATIMER STREET, PHILADELPHIA, PA, 19103","Match","Exact","1616 LATIMER ST, PHILADELPHIA, PA, 19103",652293166,"L"
229091,"1616 LAVENDER DRIVE","ROMEOVILLE","IL",60446,41.610651669,-88.1387169129999,91,"1616 LAVENDER DRIVE, ROMEOVILLE, IL, 60446","Match","Exact","1616 LAVENDER DR, ROMEOVILLE, IL, 60446",111624468,"L"
229092,"1616 LEWIS DRIVE","LAKEWOOD","OH",44107,41.480271185,-81.7852451489999,92,"1616 LEWIS DRIVE, LAKEWOOD, OH, 44107","Match","Exact","1616 LEWIS DR, LAKEWOOD, OH, 44107",61100486,"R"
229093,"1616 LIHILIHO STREET APT 1102","HONOLULU","HI",96822,21.3062868920001,-157.838301076,93,"1616 LIHILIHO STREET APT 1102, HONOLULU, HI, 96822","Match","Non_Exact","1616 LIHOLIHO ST, HONOLULU, HI, 96822",203237416,"L"
229094,"1616 LOCUST STREET","PHILADELPHIA","PA",19103,39.9486450430001,-75.168110067,94,"1616 LOCUST STREET, PHILADELPHIA, PA, 19103","Match","Exact","1616 LOCUST ST, PHILADELPHIA, PA, 19103",131407825,"L"
229095,"1616 LOMA DRIVE","CAMARILLO","CA",93010,34.233908876,-119.028557823,95,"1616 LOMA DRIVE, CAMARILLO, CA, 93010","Match","Exact","1616 LOMA DR, CAMARILLO, CA, 93010",109960775,"R"
229096,"1616 MADDUX LANE","MCLEAN","VA",22101,38.9266828520001,-77.1436297069999,96,"1616 MADDUX LANE, MCLEAN, VA, 22101","Match","Exact","1616 MADDUX LN, MCLEAN, VA, 22101",76029932,"R"
229097,"1616 MAGNOLIA OAK PLACE","DURHAM","NC",27707,35.9335637880001,-78.821272866,97,"1616 MAGNOLIA OAK PLACE, DURHAM, NC, 27707","Match","Non_Exact","1616 MAGNOLIA OAK PL, DURHAM, NC, 27703",71766784,"L"
229098,"1616 MAIN STREET","SUMNER","WA",98390,47.2030871200001,-122.234402532,98,"1616 MAIN STREET, SUMNER, WA, 98390","Match","Exact","1616 MAIN ST, SUMNER, WA, 98390",184649144,"R"
229099,"1616 MAPMAKERS WAY","SAINT AUGUSTINE","FL",32092,29.963771986,-81.533255724,99,"1616 MAPMAKERS WAY, SAINT AUGUSTINE, FL, 32092","Match","Exact","1616 MAPMAKERS WAY, SAINT AUGUSTINE, FL, 32092",637644653,"L"
229100,"1616 MARBELA RIDGE CT","LAS VEGAS","NV",89117,36.1532992310001,-115.260102119,100,"1616 MARBELA RIDGE CT, LAS VEGAS, NV, 89117","Match","Non_Exact","1616 MARBELLA RIDGE CT, LAS VEGAS, NV, 89117",201960843,"L"
229101,"1616 MCCORMICK DRIVE","LARGO","MD",20774,38.909201158,-76.845765278,101,"1616 MCCORMICK DRIVE, LARGO, MD, 20774","Match","Exact","1616 MCCORMICK DR, LARGO, MD, 20774",76381335,"L"
229102,"1616 MCDOWELL BLVD","LEANDER","TX",78641,30.5492517380001,-97.819604034,102,"1616 MCDOWELL BLVD, LEANDER, TX, 78641","Match","Non_Exact","1616 MCDOWELL BEND, LEANDER, TX, 78641",126522859,"L"
229103,"1616 MCGEE ROAD","LAVOINA","GA",30553,34.4102613330001,-83.1279070429999,103,"1616 MCGEE ROAD, LAVOINA, GA, 30553","Match","Non_Exact","1616 MCGEE RD, LAVONIA, GA, 30553",642913491,"R"
229104,"1616 MCKINNON AVENUE","SAN FRANCISCO","CA",94124,37.7360738470001,-122.389584743,104,"1616 MCKINNON AVENUE, SAN FRANCISCO, CA, 94124","Match","Exact","1616 MCKINNON AVE, SAN FRANCISCO, CA, 94124",192289916,"R"
229105,"1616 MERCER AVE NW","ROANOKE","VA",24017,37.2877385630001,-79.962504555,105,"1616 MERCER AVE NW, ROANOKE, VA, 24017","Match","Exact","1616 MERCER AVE NW, ROANOKE, VA, 24017",62904236,"L"
229106,"1616 MOCKINGBIRD LN","DESOTO","TX",75115,32.5662924310001,-96.841485846,106,"1616 MOCKINGBIRD LN, DESOTO, TX, 75115","Match","Exact","1616 MOCKINGBIRD LN, DESOTO, TX, 75115",640538674,"L"
229107,"1616 MORNING GLORY AVE","SARTELL","MN",56377,45.5988222920001,-94.239586969,107,"1616 MORNING GLORY AVE, SARTELL, MN, 56377","Match","Non_Exact","1616 MORNING GLORY AVE S, SARTELL, MN, 56377",612017028,"L"
229108,"1616 MULBERRY LANE","LAKE VILLA","IL",60046,42.443954375,-88.071041022,108,"1616 MULBERRY LANE, LAKE VILLA, IL, 60046","Match","Non_Exact","1616 MULBERRY DR, LAKE VILLA, IL, 60046",119753670,"R"
229109,"1616 MYRTLE DR","LITTLE ELM","TX",75068,33.1657428450001,-96.908792373,109,"1616 MYRTLE DR, LITTLE ELM, TX, 75068","Match","Exact","1616 MYRTLE DR, LITTLE ELM, TX, 75068",614127388,"L"
229110,"1616 N BROAD ST","GALESBURG","IL",61401,40.9672049120001,-90.370865973,110,"1616 N BROAD ST, GALESBURG, IL, 61401","Match","Exact","1616 N BROAD ST, GALESBURG, IL, 61401",9039375,"L"
229111,"1616 N GREYCASTLE AVE","MONTEBELLO","CA",90640,34.038131316,-118.091690033,111,"1616 N GREYCASTLE AVE, MONTEBELLO, CA, 90640","Match","Exact","1616 N GREYCASTLE AVE, MONTEBELLO, CA, 90640",141642579,"R"
229112,"1616 N OAK","DANVILLE","IL",61832,NA,NA,112,"1616 N OAK, DANVILLE, IL, 61832","No_Match",NA,NA,NA,NA
229113,"1616 N PROSPECT AVE APT 1001","MILWAUKEE","WI",53202,43.051074677,-87.892409777,113,"1616 N PROSPECT AVE APT 1001, MILWAUKEE, WI, 53202","Match","Non_Exact","1616 N PROSPECT AVE, MILWAUKEE, WI, 53202",77744865,"R"
229114,"1616 N VERDUGO RD UNIT 10","GLENDALE","CA",91208,34.1707221620001,-118.227097793,114,"1616 N VERDUGO RD UNIT 10, GLENDALE, CA, 91208","Match","Non_Exact","1616 N VERDUGO RD, GLENDALE, CA, 91208",141609654,"R"
229115,"1616 N WALNUT","IOLA","KS",66749,37.938609781,-95.407124326,115,"1616 N WALNUT, IOLA, KS, 66749","Match","Non_Exact","1616 N WALNUT ST, IOLA, KS, 66749",27437480,"L"
229116,"1616 N WEBER ST","COLORADO SPRINGS","CO",80907,38.856601072,-104.818661762,116,"1616 N WEBER ST, COLORADO SPRINGS, CO, 80907","Match","Exact","1616 N WEBER ST, COLORADO SPRINGS, CO, 80907",105514213,"L"
229117,"1616 NORTHCLIFF DR","CHARLOTTE","NC",28216,35.2771263400001,-80.864005757,117,"1616 NORTHCLIFF DR, CHARLOTTE, NC, 28216","Match","Exact","1616 NORTHCLIFF DR, CHARLOTTE, NC, 28216",70525536,"R"
229118,"1616 NORTHCLIFF DRIVE","CHARLOTTE","NC",28216,35.2771263400001,-80.864005757,118,"1616 NORTHCLIFF DRIVE, CHARLOTTE, NC, 28216","Match","Exact","1616 NORTHCLIFF DR, CHARLOTTE, NC, 28216",70525536,"R"
229119,"1616 NORTHRIDGE DR","ARLINGTON","TX",76012,32.7580552740001,-97.142630417,119,"1616 NORTHRIDGE DR, ARLINGTON, TX, 76012","Match","Exact","1616 NORTHRIDGE DR, ARLINGTON, TX, 76012",101904942,"L"
229120,"1616 NORTHWICK RD","BALTIMORE","MD",21218,39.34354776,-76.588767388,120,"1616 NORTHWICK RD, BALTIMORE, MD, 21218","Match","Exact","1616 NORTHWICK RD, BALTIMORE, MD, 21218",206409456,"L"
229121,"1616 NW 75 STREET","GAINESVILLE","FL",32605,29.665579866,-82.422206382,121,"1616 NW 75 STREET, GAINESVILLE, FL, 32605","Match","Exact","1616 NW 75TH ST, GAINESVILLE, FL, 32605",6803399,"L"
229122,"1616 NW 7TH TERRACE","FORT LAUDERDALE","FL",33311,26.14760112,-80.152278141,122,"1616 NW 7TH TERRACE, FORT LAUDERDALE, FL, 33311","Match","Exact","1616 NW 7TH TER, FORT LAUDERDALE, FL, 33311",114721734,"R"
229123,"1616 NW CR 1020","CORSICANA","TX",75110,32.093002658,-96.524009663,123,"1616 NW CR 1020, CORSICANA, TX, 75110","Match","Exact","1616 NW CO RD 1020, CORSICANA, TX, 75110",183914098,"R"
229124,"1616 NW HILLCREST DR","CORVALLIS","OR",97330,44.5832323480001,-123.284937521,124,"1616 NW HILLCREST DR, CORVALLIS, OR, 97330","Match","Exact","1616 NW HILLCREST DR, CORVALLIS, OR, 97330",155846527,"L"
229125,"1616 ONSLOW DRIVE","CHARLOTTE","NC",28205,35.222039497,-80.80708105,125,"1616 ONSLOW DRIVE, CHARLOTTE, NC, 28205","Match","Exact","1616 ONSLOW DR, CHARLOTTE, NC, 28205",70488408,"L"
229126,"1616 ORCHARD AVE","GRAND JUNCTION","CO",81501,39.084610737,-108.546396401,126,"1616 ORCHARD AVE, GRAND JUNCTION, CO, 81501","Match","Exact","1616 ORCHARD AVE, GRAND JCT, CO, 81501",122432615,"L"
229127,"1616 OVIEDO GROVE CIR APT 16","OVIEDO","FL",32765,28.657881801,-81.182794163,127,"1616 OVIEDO GROVE CIR APT 16, OVIEDO, FL, 32765","Match","Exact","1616 OVIEDO GROVE CIR, OVIEDO, FL, 32765",635499436,"L"
229128,"1616 PACIFIC AVE SUITE 307","ATLANTIC CITY","NJ",8401,39.359256514,-74.4303213219999,128,"1616 PACIFIC AVE SUITE 307, ATLANTIC CITY, NJ, 8401","Match","Exact","1616 PACIFIC AVE, ATLANTIC CITY, NJ, 08401",202491227,"L"
229129,"1616 PARK AVENUE","MINNEAPOLIS","MN",55404,44.9669928070001,-93.2651192769999,129,"1616 PARK AVENUE, MINNEAPOLIS, MN, 55404","Match","Non_Exact","1616 PARK AVE S, MINNEAPOLIS, MN, 55404",43632523,"R"
229130,"1616 PARK STREET","RAHWAY","NJ",7065,40.603850998,-74.265869725,130,"1616 PARK STREET, RAHWAY, NJ, 7065","Match","Exact","1616 PARK ST, RAHWAY, NJ, 07065",60588369,"L"
229131,"1616 PECAN DR","IDABEL","TX",74745,NA,NA,131,"1616 PECAN DR, IDABEL, TX, 74745","No_Match",NA,NA,NA,NA
229132,"1616 PINNACLE DRIVE","DUNDAS","MN",55057,44.423691111,-93.176469476,132,"1616 PINNACLE DRIVE, DUNDAS, MN, 55057","Match","Non_Exact","1616 PINNACLE DR, DUNDAS, MN, 55019",643516960,"L"
229133,"1616 PONTY STREET","LOS ANGELES","CA",90047,33.9359924440001,-118.305156267,133,"1616 PONTY STREET, LOS ANGELES, CA, 90047","Match","Exact","1616 PONTY ST, LOS ANGELES, CA, 90047",141660796,"L"
229134,"1616 PORTAL DR NW","WASHINGTON","DC",20012,38.990525093,-77.037657883,134,"1616 PORTAL DR NW, WASHINGTON, DC, 20012","Match","Exact","1616 PORTAL DR NW, WASHINGTON, DC, 20012",76221344,"L"
229135,"1616 PROGRESS LANE","BELLEVILLE","IL",62221,38.523680767,-89.929340956,135,"1616 PROGRESS LANE, BELLEVILLE, IL, 62221","Match","Exact","1616 PROGRESS LN, BELLEVILLE, IL, 62221",107855904,"L"
229136,"1616 PROVIDENCE RD","WHIGHAM","GA",39897,30.8389346230001,-84.2655418749999,136,"1616 PROVIDENCE RD, WHIGHAM, GA, 39897","Match","Exact","1616 PROVIDENCE RD, WHIGHAM, GA, 39897",84361977,"L"
229137,"1616 R C BLAKES DRIVE","NEW ORLEANS","LA",70130,NA,NA,137,"1616 R C BLAKES DRIVE, NEW ORLEANS, LA, 70130","No_Match",NA,NA,NA,NA
229138,"1616 RANGELAND ROAD","LOUISVILLE","TX",40219,NA,NA,138,"1616 RANGELAND ROAD, LOUISVILLE, TX, 40219","No_Match",NA,NA,NA,NA
229139,"1616 REMINGTON AVE APT P","SANDUSKY","OH",44870,41.4389793450001,-82.670885353,139,"1616 REMINGTON AVE APT P, SANDUSKY, OH, 44870","Match","Exact","1616 REMINGTON AVE, SANDUSKY, OH, 44870",55325007,"R"
229140,"1616 RESIDENCE DR APT 104","COLUMBIA","MO",65201,38.9317501740001,-92.247211474,140,"1616 RESIDENCE DR APT 104, COLUMBIA, MO, 65201","Match","Exact","1616 RESIDENCE DR, COLUMBIA, MO, 65201",604988247,"R"
229141,"1616 RIDGE HAVEN DRIVE APT 524","ARLINGTON","TX",76011,32.7611192270001,-97.0875909219999,141,"1616 RIDGE HAVEN DRIVE APT 524, ARLINGTON, TX, 76011","Match","Exact","1616 RIDGE HAVEN DR, ARLINGTON, TX, 76011",648482631,"R"
229142,"1616 RIDGE RD","GREENWOOD","SC",29653,34.3252080250001,-82.167012421,142,"1616 RIDGE RD, GREENWOOD, SC, 29653","Match","Non_Exact","1616 RIDGE RD, HODGES, SC, 29653",653316534,"L"
229143,"1616 RIO VERDE CIR","BAY POINT","MI",94565,NA,NA,143,"1616 RIO VERDE CIR, BAY POINT, MI, 94565","No_Match",NA,NA,NA,NA
229144,"1616 RIVERA ST","CORTEZ","CO",81321,37.353778145,-108.564161384,144,"1616 RIVERA ST, CORTEZ, CO, 81321","Match","Exact","1616 RIVERA ST, CORTEZ, CO, 81321",91774823,"L"
229145,"1616 ROGERS RD","FRANKLINVILLE","NY",14737,42.397323655,-78.39602237,145,"1616 ROGERS RD, FRANKLINVILLE, NY, 14737","Match","Exact","1616 ROGERS RD, FRANKLINVILLE, NY, 14737",648961720,"R"
229146,"1616 ROMERENA DRIVE","RICE LAKE","WI",54868,45.5011089660001,-91.7587967709999,146,"1616 ROMERENA DRIVE, RICE LAKE, WI, 54868","Match","Exact","1616 ROMERENA DR, RICE LAKE, WI, 54868",611611044,"L"
229147,"1616 S 12TH STREET","WILMINGTON","NC",28401,34.2143329400001,-77.932962162,147,"1616 S 12TH STREET, WILMINGTON, NC, 28401","Match","Exact","1616 S 12TH ST, WILMINGTON, NC, 28401",152757319,"R"
229148,"1616 S ADAMS RD","EUREKA","IL",61530,40.7064731360001,-89.269130569,148,"1616 S ADAMS RD, EUREKA, IL, 61530","Match","Exact","1616 ADAMS RD, EUREKA, IL, 61530",605086123,"R"
229149,"1616 S CHIPLEY FORD RD","STATESVILLE","NC",28625,35.8080895150001,-80.9096364379999,149,"1616 S CHIPLEY FORD RD, STATESVILLE, NC, 28625","Match","Exact","1616 S CHIPLEY FORD RD, STATESVILLE, NC, 28625",636632624,"R"
229150,"1616 S CLUB DR","WELLINGTON","FL",33414,26.6589774980001,-80.2877875039999,150,"1616 S CLUB DR, WELLINGTON, FL, 33414","Match","Exact","1616 S CLUB DR, WELLINGTON, FL, 33414",115490295,"L"
229151,"1616 S MULRENNAN RD","VALRICO","FL",33594,27.9170525160001,-82.227872307,151,"1616 S MULRENNAN RD, VALRICO, FL, 33594","Match","Exact","1616 S MULRENNAN RD, VALRICO, FL, 33594",104599448,"R"
229152,"1616 S MULRENNANA RD","VALRICO","FL",33594,27.9170525160001,-82.227872307,152,"1616 S MULRENNANA RD, VALRICO, FL, 33594","Match","Non_Exact","1616 S MULRENNAN RD, VALRICO, FL, 33594",104599448,"R"
229153,"1616 S OWASSO AVE","TULSA","OK",74120,36.1387475810001,-95.976822964,153,"1616 S OWASSO AVE, TULSA, OK, 74120","Match","Exact","1616 S OWASSO AVE, TULSA, OK, 74120",166442089,"R"
229154,"1616 S POLK","AMARILLO","TX",79102,35.1969593600001,-101.839127431,154,"1616 S POLK, AMARILLO, TX, 79102","Match","Non_Exact","1616 S POLK ST, AMARILLO, TX, 79102",182471761,"R"
229155,"1616 SAGE BRUSH DRIVE","KILLEEN","TX",76549,31.1010692130001,-97.76103784,155,"1616 SAGE BRUSH DRIVE, KILLEEN, TX, 76549","Match","Non_Exact","1616 SAGEBRUSH DR, KILLEEN, TX, 76549",146151450,"R"
229156,"1616 SALEM RD","FARMERVILLE","LA",71241,NA,NA,156,"1616 SALEM RD, FARMERVILLE, LA, 71241","No_Match",NA,NA,NA,NA
229157,"1616 SALT SPRINGS ROAD","SYRACUSE","NY",13214,43.0447046240001,-76.08415099,157,"1616 SALT SPRINGS ROAD, SYRACUSE, NY, 13214","Match","Exact","1616 SALT SPRINGS RD, SYRACUSE, NY, 13214",46574370,"R"
229158,"1616 SCARLET OAK LOOP","WINTER GARDEN","FL",34787,28.5480865070001,-81.61652197,158,"1616 SCARLET OAK LOOP, WINTER GARDEN, FL, 34787","Match","Exact","1616 SCARLET OAK LOOP, WINTER GARDEN, FL, 34787",634027507,"R"
229159,"1616 SCHILLING ST APT D","MISSOULA","MT",59801,46.855888829,-114.032037293,159,"1616 SCHILLING ST APT D, MISSOULA, MT, 59801","Match","Exact","1616 SCHILLING ST, MISSOULA, MT, 59801",205237074,"L"
229160,"1616 SCHNORF JONES RD","ARCANUM","OH",45304,39.9654370170001,-84.4648937279999,160,"1616 SCHNORF JONES RD, ARCANUM, OH, 45304","Match","Non_Exact","1616 SCHNORF-JONES RD, ARCANUM, OH, 45304",54541455,"R"
229161,"1616 SHERBOURNE RD","VALLEY STREAM","NY",11580,40.6801061510001,-73.7089998499999,161,"1616 SHERBOURNE RD, VALLEY STREAM, NY, 11580","Match","Exact","1616 SHERBOURNE RD, VALLEY STREAM, NY, 11580",147668091,"R"
229162,"1616 SHERIDAN ROAD 9D","WILMETTE","IL",60091,42.0865777990001,-87.699753927,162,"1616 SHERIDAN ROAD 9D, WILMETTE, IL, 60091","Match","Exact","1616 SHERIDAN RD, WILMETTE, IL, 60091",639813630,"R"
229163,"1616 SHUNGA DR","TOPEKA","KS",66611,39.0248214220001,-95.7011548999999,163,"1616 SHUNGA DR, TOPEKA, KS, 66611","Match","Non_Exact","1616 SW SHUNGA DR, TOPEKA, KS, 66611",17887748,"R"
229164,"1616 SIX MILE HWY","CENTRAL","SC",29630,34.729393617,-82.830421971,164,"1616 SIX MILE HWY, CENTRAL, SC, 29630","Match","Exact","1616 SIX MILE HWY, CENTRAL, SC, 29630",26172495,"R"
229165,"1616 SNOWBERRY RIDGE ROAD","ANN ARBOR","MI",48103,42.2574535520001,-83.791666444,165,"1616 SNOWBERRY RIDGE ROAD, ANN ARBOR, MI, 48103","Match","Exact","1616 SNOWBERRY RIDGE RD, ANN ARBOR, MI, 48103",26042757,"R"
229166,"1616 SOUTH BALSAM COURT","LAKEWOOD","CO",80232,39.6882285500001,-105.089005195,166,"1616 SOUTH BALSAM COURT, LAKEWOOD, CO, 80232","Match","Exact","1616 S BALSAM CT, LAKEWOOD, CO, 80232",177319848,"L"
229167,"1616 SOUTH HARRISON","LITTLE ROCK","AR",72204,34.7372485380001,-92.3323852949999,167,"1616 SOUTH HARRISON, LITTLE ROCK, AR, 72204","Match","Non_Exact","1616 S HARRISON ST, LITTLE ROCK, AR, 72204",83506110,"R"
229168,"1616 SOUTH VOSS ROAD SUITE 885","HOUSTON","TX",77057,29.750258968,-95.501102931,168,"1616 SOUTH VOSS ROAD SUITE 885, HOUSTON, TX, 77057","Match","Exact","1616 S VOSS RD, HOUSTON, TX, 77057",639279590,"R"
229169,"1616 SPRING VALLEY DR APT 14","HUNTINGTON","WV",25704,38.383476977,-82.521567921,169,"1616 SPRING VALLEY DR APT 14, HUNTINGTON, WV, 25704","Match","Exact","1616 SPRING VALLEY DR, HUNTINGTON, WV, 25704",57203075,"L"
229170,"1616 SUTTON ST","HOUSTON","TX",77006,29.750786933,-95.3832402419999,170,"1616 SUTTON ST, HOUSTON, TX, 77006","Match","Exact","1616 SUTTON ST, HOUSTON, TX, 77006",96066874,"R"
229171,"1616 SW 8TH DR","GRESHAM","OR",97080,45.490722539,-122.448465444,171,"1616 SW 8TH DR, GRESHAM, OR, 97080","Match","Exact","1616 SW 8TH DR, GRESHAM, OR, 97080",157528239,"L"
229172,"1616 SW WATERFALL BLVD","PALM CITY","FL",34990,27.1833901460001,-80.29297028,172,"1616 SW WATERFALL BLVD, PALM CITY, FL, 34990","Match","Exact","1616 SW WATERFALL BLVD, PALM CITY, FL, 34990",120436283,"R"
229173,"1616 TAMMI LANE","TAYLOR","TX",76574,30.5780712280001,-97.43355608,173,"1616 TAMMI LANE, TAYLOR, TX, 76574","Match","Non_Exact","1616 TAMMIE LN, TAYLOR, TX, 76574",126486521,"R"
229174,"1616 TEXAS AVE","LUBBOCK","TX",79401,33.580570283,-101.845635123,174,"1616 TEXAS AVE, LUBBOCK, TX, 79401","Match","Exact","1616 TEXAS AVE, LUBBOCK, TX, 79401",185254660,"R"
229175,"1616 TINKER AVE","HONOLULU","HI",96818,21.3419491660001,-157.946763194,175,"1616 TINKER AVE, HONOLULU, HI, 96818","Match","Exact","1616 TINKER AVE, HONOLULU, HI, 96818",203232065,"R"
229176,"1616 TRAWLER LANE","ANNAPOLIS","MD",21409,39.018828157,-76.4250528759999,176,"1616 TRAWLER LANE, ANNAPOLIS, MD, 21409","Match","Exact","1616 TRAWLER LN, ANNAPOLIS, MD, 21409",617602721,"L"
229177,"1616 TREASURE ST SUITE A","NEW ORLEANS","LA",70119,29.988994431,-90.072337386,177,"1616 TREASURE ST SUITE A, NEW ORLEANS, LA, 70119","Match","Exact","1616 TREASURE ST, NEW ORLEANS, LA, 70119",191735345,"R"
229178,"1616 TRINIDAD DR","KEY WEST","FL",33040,24.5586915540001,-81.767109396,178,"1616 TRINIDAD DR, KEY WEST, FL, 33040","Match","Exact","1616 TRINIDAD DR, KEY WEST, FL, 33040",116475498,"R"
229179,"1616 TURNBERRY STREET","COSMOPOLIS","WA",98537,46.9474253160001,-123.775747318,179,"1616 TURNBERRY STREET, COSMOPOLIS, WA, 98537","Match","Exact","1616 TURNBERRY ST, COSMOPOLIS, WA, 98537",624520421,"L"
229180,"1616 US HWY 12","ETHEL","WA",98542,46.532054041,-122.720222251,180,"1616 US HWY 12, ETHEL, WA, 98542","Match","Exact","1616 US HWY 12, ETHEL, WA, 98542",180737165,"L"
229181,"1616 VALENCIA WAY","RESTON","VA",20190,38.960975127,-77.331501999,181,"1616 VALENCIA WAY, RESTON, VA, 20190","Match","Exact","1616 VALENCIA WAY, RESTON, VA, 20190",76035553,"R"
229182,"1616 VALLEYWOOD DRIVE","PARIS","TN",38242,36.304368208,-88.2950437059999,182,"1616 VALLEYWOOD DRIVE, PARIS, TN, 38242","Match","Exact","1616 VALLEYWOOD DR, PARIS, TN, 38242",19673315,"L"
229183,"1616 VASSAR STREET","HOUSTON","TX",77006,29.73043268,-95.400053414,183,"1616 VASSAR STREET, HOUSTON, TX, 77006","Match","Exact","1616 VASSAR ST, HOUSTON, TX, 77006",96064354,"R"
229184,"1616 VERMONT ST","HOUSTON","TX",77006,29.7493322490001,-95.400562518,184,"1616 VERMONT ST, HOUSTON, TX, 77006","Match","Exact","1616 VERMONT ST, HOUSTON, TX, 77006",96062470,"R"
229185,"1616 W 12800 S","RIVERTON","UT",84065,40.5186733900001,-111.936744023,185,"1616 W 12800 S, RIVERTON, UT, 84065","Match","Exact","1616 W 12800 S, RIVERTON, UT, 84065",176091781,"R"
229186,"1616 W 24TH STREET","NORTH LITTLE ROCK","AR",72114,34.7261784390001,-92.29122074,186,"1616 W 24TH STREET, NORTH LITTLE ROCK, AR, 72114","Match","Non_Exact","1616 W 24TH ST, LITTLE ROCK, AR, 72206",83509911,"R"
229187,"1616 W DELMAR ST","BROKEN ARROW","OK",74012,36.0242612060001,-95.80875272,187,"1616 W DELMAR ST, BROKEN ARROW, OK, 74012","Match","Exact","1616 W DELMAR ST, BROKEN ARROW, OK, 74012",625280248,"L"
229188,"1616 W GERMANN RD 3006","CHANDLER","AZ",85286,33.2763274370001,-111.867853026,188,"1616 W GERMANN RD 3006, CHANDLER, AZ, 85286","Match","Non_Exact","1616 W GERMANN RD, CHANDLER, AZ, 85286",128796091,"L"
229189,"1616 W LIBBY ST","PHOENIX","AZ",85023,33.6482021750001,-112.09435977,189,"1616 W LIBBY ST, PHOENIX, AZ, 85023","Match","Exact","1616 W LIBBY ST, PHOENIX, AZ, 85023",128180282,"R"
229190,"1616 W MAIN ST","MEDFORD","OR",97501,42.323673399,-122.890460522,190,"1616 W MAIN ST, MEDFORD, OR, 97501","Match","Exact","1616 W MAIN ST, MEDFORD, OR, 97501",155512425,"R"
229191,"1616 W NORTH SHORE AVENUE - 2","CHICAGO","IL",60626,NA,NA,191,"1616 W NORTH SHORE AVENUE - 2, CHICAGO, IL, 60626","No_Match",NA,NA,NA,NA
229192,"1616 W SHAW AVE SUITE B4","FRESNO","CA",93710,36.808607839,-119.758037644,192,"1616 W SHAW AVE SUITE B4, FRESNO, CA, 93710","Match","Non_Exact","1616 E SHAW AVE, FRESNO, CA, 93710",197575418,"L"
229193,"1616 WAVECREST DRIVE","GLENN HEIGHTS","TX",75154,32.561745219,-96.866952229,193,"1616 WAVECREST DRIVE, GLENN HEIGHTS, TX, 75154","Match","Non_Exact","1616 WAVECREST, GLENN HEIGHTS, TX, 75154",103279799,"L"
229194,"1616 WEST 6TH STREET APT 309","AUSTIN","TX",78703,30.2756894350001,-97.764094015,194,"1616 WEST 6TH STREET APT 309, AUSTIN, TX, 78703","Match","Exact","1616 W 6TH ST, AUSTIN, TX, 78703",63942799,"R"
229195,"1616 WEST AVE","NATIONAL CITY","CA",91950,32.667395319,-117.103902761,195,"1616 WEST AVE, NATIONAL CITY, CA, 91950","Match","Exact","1616 WEST AVE, NATIONAL CITY, CA, 91950",195699074,"R"
229196,"1616 WEST DALLAS STREET 402","HOUSTON","TX",77019,29.7576703770001,-95.383821653,196,"1616 WEST DALLAS STREET 402, HOUSTON, TX, 77019","Match","Exact","1616 W DALLAS ST, HOUSTON, TX, 77019",96624979,"R"
229197,"1616 WEST HILLS DRIVE","TARBORO","NC",27886,35.8979107280001,-77.557270318,197,"1616 WEST HILLS DRIVE, TARBORO, NC, 27886","Match","Non_Exact","1616 WESTHILLS DR, TARBORO, NC, 27886",90178858,"L"
229198,"1616 WEST HOLDEN AVENUE APT 148","ORLANDO","FL",32839,28.494377539,-81.404540058,198,"1616 WEST HOLDEN AVENUE APT 148, ORLANDO, FL, 32839","Match","Exact","1616 W HOLDEN AVE, ORLANDO, FL, 32839",611387835,"L"
229199,"1616 WEST LACEWOOD PL","PHOENIX","AZ",85045,33.293096604,-112.09535279,199,"1616 WEST LACEWOOD PL, PHOENIX, AZ, 85045","Match","Exact","1616 W LACEWOOD PL, PHOENIX, AZ, 85045",243997957,"L"
229200,"1616 WEST LITTLE CREEK ROAD APT 204","NORFOLK","VA",23505,36.9159855030001,-76.305755419,200,"1616 WEST LITTLE CREEK ROAD APT 204, NORFOLK, VA, 23505","Match","Exact","1616 W LITTLE CREEK RD, NORFOLK, VA, 23505",639822990,"R"
229201,"1616 WESTGATE CIR","BRENTWOOD","FL",37027,NA,NA,201,"1616 WESTGATE CIR, BRENTWOOD, FL, 37027","No_Match",NA,NA,NA,NA
229202,"1616 WESTGATE CIRCLE","BRENTWOOD","TN",37027,35.9666804760001,-86.803071073,202,"1616 WESTGATE CIRCLE, BRENTWOOD, TN, 37027","Match","Exact","1616 WESTGATE CIR, BRENTWOOD, TN, 37027",617941550,"L"
229203,"1616 WESTLAKE DR APT 1609","CONWAY","AR",72034,35.102881569,-92.49542566,203,"1616 WESTLAKE DR APT 1609, CONWAY, AR, 72034","Match","Exact","1616 WESTLAKE DR, CONWAY, AR, 72034",635777463,"R"
229204,"1616 WESTLAKE DT APT 1609","CONWAY","AR",72034,35.102881569,-92.49542566,204,"1616 WESTLAKE DT APT 1609, CONWAY, AR, 72034","Match","Non_Exact","1616 WESTLAKE DR, CONWAY, AR, 72034",635777463,"R"
229205,"1616 WILLIAMS","CAPE GIRARDEAU","MO",63701,NA,NA,205,"1616 WILLIAMS, CAPE GIRARDEAU, MO, 63701","No_Match",NA,NA,NA,NA
229206,"1616 WISTERIA","MCALLEN","TX",78504,26.2484468430001,-98.229456746,206,"1616 WISTERIA, MCALLEN, TX, 78504","Match","Non_Exact","1616 WISTERIA AVE, MCALLEN, TX, 78504",71493747,"R"
229207,"1616 YARBOROUGH DR","SHERMAN","TX",75092,33.6382146120001,-96.63209025,207,"1616 YARBOROUGH DR, SHERMAN, TX, 75092","Match","Exact","1616 YARBOROUGH DR, SHERMAN, TX, 75092",63353757,"L"
229208,"1616 YORK ROAD","LUTHERVILLE","FL",21093,NA,NA,208,"1616 YORK ROAD, LUTHERVILLE, FL, 21093","No_Match",NA,NA,NA,NA
229209,"1616","MCALLEN","TX",78504,NA,NA,209,"1616, MCALLEN, TX, 78504","No_Match",NA,NA,NA,NA
229210,"1616","PINE RIDGE","SD",57770,NA,NA,210,"1616, PINE RIDGE, SD, 57770","No_Match",NA,NA,NA,NA
229211,"16160 C R 1130","FLINT","TX",75762,32.285593798,-95.4387526529999,211,"16160 C R 1130, FLINT, TX, 75762","Match","Non_Exact","16160 CO RD 1130, FLINT, TX, 75762",141297209,"L"
229212,"16160 S 50TH STREET APT 228","PHOENIX","AZ",85048,33.298588597,-111.976053644,212,"16160 S 50TH STREET APT 228, PHOENIX, AZ, 85048","Match","Non_Exact","16160 S 50TH ST, PHOENIX, AZ, 85048",646535368,"R"
229213,"16160 SE 135TH AVE","CLACKAMAS","OR",97015,45.4062172320001,-122.524668607,213,"16160 SE 135TH AVE, CLACKAMAS, OR, 97015","Match","Exact","16160 SE 135TH AVE, CLACKAMAS, OR, 97015",651024092,"L"
229214,"16160 SE 13TH AVE","CLACKAMAS","OR",97015,NA,NA,214,"16160 SE 13TH AVE, CLACKAMAS, OR, 97015","No_Match",NA,NA,NA,NA
229215,"16160 SULTUS ST","CANYON COUNTY","CA",91387,34.398532581,-118.418508924,215,"16160 SULTUS ST, CANYON COUNTY, CA, 91387","Match","Non_Exact","16160 SULTUS ST, CANYON COUNTRY, CA, 91387",638621795,"R"
229216,"16160 SW 146 COURT","MIAMI","FL",33177,25.6171403060001,-80.429638826,216,"16160 SW 146 COURT, MIAMI, FL, 33177","Match","Exact","16160 SW 146TH CT, MIAMI, FL, 33177",116094609,"R"
229217,"16161 VENTURA BLVD SUITE 455","ENCINO","CA",91436,34.156559069,-118.484940709,217,"16161 VENTURA BLVD SUITE 455, ENCINO, CA, 91436","Match","Exact","16161 VENTURA BLVD, ENCINO, CA, 91436",637822097,"R"
229218,"16161 VENTURA BLVD SUITE 810","ENCINO","CA",91436,34.156559069,-118.484940709,218,"16161 VENTURA BLVD SUITE 810, ENCINO, CA, 91436","Match","Exact","16161 VENTURA BLVD, ENCINO, CA, 91436",637822097,"R"
229219,"16162 BEACH BLVD 207","HUNTINGTON BEACH","CA",92647,NA,NA,219,"16162 BEACH BLVD 207, HUNTINGTON BEACH, CA, 92647","No_Match",NA,NA,NA,NA
229220,"16162 CAREY RD","WESTFIELD","IN",46074,40.0229764360001,-86.10872756,220,"16162 CAREY RD, WESTFIELD, IN, 46074","Match","Exact","16162 CAREY RD, WESTFIELD, IN, 46074",650448088,"L"
229221,"16162 PRINCETON ST","DETROIT","MI",48221,42.410635228,-83.1289385169999,221,"16162 PRINCETON ST, DETROIT, MI, 48221","Match","Exact","16162 PRINCETON ST, DETROIT, MI, 48221",95461571,"R"
229222,"16163 E MAPLEWOOD PLACE","CENTENNIAL","CO",80016,39.605042268,-104.800643554,222,"16163 E MAPLEWOOD PLACE, CENTENNIAL, CO, 80016","Match","Exact","16163 E MAPLEWOOD PL, CENTENNIAL, CO, 80016",177541232,"L"
229223,"16163 GALEHOUSE ROAD","DOYLESTOWN","OH",44230,40.9438638020001,-81.6954735479999,223,"16163 GALEHOUSE ROAD, DOYLESTOWN, OH, 44230","Match","Exact","16163 GALEHOUSE RD, DOYLESTOWN, OH, 44230",58744254,"L"
229224,"16163 GUNFLINT CIRCLE","LAKEVILLE","MN",55044,44.71525411,-93.2374375379999,224,"16163 GUNFLINT CIRCLE, LAKEVILLE, MN, 55044","Match","Exact","16163 GUNFLINT CIR, LAKEVILLE, MN, 55044",37957661,"L"
229225,"16163 NORTHLAWN ST","DETROIT","MI",48221,42.410288376,-83.153370351,225,"16163 NORTHLAWN ST, DETROIT, MI, 48221","Match","Exact","16163 NORTHLAWN ST, DETROIT, MI, 48221",95426065,"L"
229226,"16163 NORTHLAWN","DETROIT","MI",48221,42.410288376,-83.153370351,226,"16163 NORTHLAWN, DETROIT, MI, 48221","Match","Non_Exact","16163 NORTHLAWN ST, DETROIT, MI, 48221",95426065,"L"
229227,"16163 SUSSEX AVENUE","MARKHAM","IL",60428,41.595527857,-87.686617665,227,"16163 SUSSEX AVENUE, MARKHAM, IL, 60428","Match","Non_Exact","16163 SUSSEX CT, MARKHAM, IL, 60428",111705050,"L"
229228,"16164 BUSH ST","REDDING","CA",96001,40.623594505,-122.459837699,228,"16164 BUSH ST, REDDING, CA, 96001","Match","Exact","16164 BUSH ST, REDDING, CA, 96001",126625857,"L"
229229,"16164 TACONIC CIRCLE","MONTCLAIR","VA",22025,38.5993868130001,-77.334783715,229,"16164 TACONIC CIRCLE, MONTCLAIR, VA, 22025","Match","Exact","16164 TACONIC CIR, MONTCLAIR, VA, 22025",76519897,"R"
229230,"16165 CRESPIN CT","VICTORVILLE","CA",92394,34.543877093,-117.323027116,230,"16165 CRESPIN CT, VICTORVILLE, CA, 92394","Match","Exact","16165 CRESPIN CT, VICTORVILLE, CA, 92394",614824837,"R"
229231,"16165 HAMPSHIRE DR S","PRIOR LAKE","MN",55372,44.7154878470001,-93.365320256,231,"16165 HAMPSHIRE DR S, PRIOR LAKE, MN, 55372","Match","Non_Exact","16165 HAMPSHIRE AVE S, PRIOR LAKE, MN, 55372",635094409,"R"
229232,"16165 LAUREL ROAD","CONNERSVILLE","IN",47331,39.5212786280001,-85.086936513,232,"16165 LAUREL ROAD, CONNERSVILLE, IN, 47331","Match","Exact","16165 LAUREL RD, CONNERSVILLE, IN, 47331",33194299,"L"
229233,"16165 MT GUSTIN STREET","FOUNTAIN VALLEY","CA",92708,33.728104844,-117.918536514,233,"16165 MT GUSTIN STREET, FOUNTAIN VALLEY, CA, 92708","Match","Exact","16165 MOUNT GUSTIN ST, FOUNTAIN VALLEY, CA, 92708",144039130,"R"
229234,"16165 PRINCETON","DETROIT","MI",48221,42.410645124,-83.12895385,234,"16165 PRINCETON, DETROIT, MI, 48221","Match","Non_Exact","16165 PRINCETON ST, DETROIT, MI, 48221",95461571,"L"
229235,"16165 SANDSTONE DRIVE","MORRISON","CO",80465,39.6013798170001,-105.181873398,235,"16165 SANDSTONE DRIVE, MORRISON, CO, 80465","Match","Exact","16165 SANDSTONE DR, MORRISON, CO, 80465",177731997,"R"
229236,"16165 WEST 11 MILE RD","SOUTHFIIELD","MI",48076,42.4882866300001,-83.2085971129999,236,"16165 WEST 11 MILE RD, SOUTHFIIELD, MI, 48076","Match","Non_Exact","16165 W 11 MILE RD, SOUTHFIELD, MI, 48076",69739992,"L"
229237,"16166 DUKE DRIVE","MILAN","MO",63556,40.2954550060001,-93.138101125,237,"16166 DUKE DRIVE, MILAN, MO, 63556","Match","Exact","16166 DUKE DR, MILAN, MO, 63556",25762181,"R"
229238,"16166 MURRY HILL","DETROIT","MI",48235,42.409264249,-83.207688731,238,"16166 MURRY HILL, DETROIT, MI, 48235","Match","Non_Exact","16166 MURRAY HILL ST, DETROIT, MI, 48235",652801224,"R"
229239,"16166 NW GRAF ST","PORTLAND","OR",97229,45.5626744080001,-122.844519371,239,"16166 NW GRAF ST, PORTLAND, OR, 97229","Match","Exact","16166 NW GRAF ST, PORTLAND, OR, 97229",158229187,"R"
229240,"16166 SW 4TH ST","PEMBROKE PINES","FL",33027,26.0024582880001,-80.364455445,240,"16166 SW 4TH ST, PEMBROKE PINES, FL, 33027","Match","Exact","16166 SW 4TH ST, PEMBROKE PINES, FL, 33027",114792160,"L"
229241,"16167 NW RYEGRASS STREET","PORTLAND","OR",97229,45.5636568640001,-122.84358221,241,"16167 NW RYEGRASS STREET, PORTLAND, OR, 97229","Match","Exact","16167 NW RYEGRASS ST, PORTLAND, OR, 97229",158225257,"L"
229242,"16167 PINKNEY ST","OMAHA","NE",68116,41.290149517,-96.166109477,242,"16167 PINKNEY ST, OMAHA, NE, 68116","Match","Exact","16167 PINKNEY ST, OMAHA, NE, 68116",117001493,"L"
229243,"16167 W 255TH ST","PAOLA","KS",66071,38.6650525040001,-94.772876732,243,"16167 W 255TH ST, PAOLA, KS, 66071","Match","Exact","16167 W 255TH ST, PAOLA, KS, 66071",85238263,"R"
229244,"16167 W ST","OMAHA","NE",68135,41.1992534730001,-96.167882458,244,"16167 W ST, OMAHA, NE, 68135","Match","Exact","16167 W ST, OMAHA, NE, 68135",646469231,"L"
229245,"16168 COW FACE RD","LOWELL","AR",72745,36.21137415,-94.02987703,245,"16168 COW FACE RD, LOWELL, AR, 72745","Match","Exact","16168 COW FACE RD, LOWELL, AR, 72745",619904504,"R"
229246,"16168 GOODVIEW CIRCLE","LAKEVILLE","MN",55044,44.7151555820001,-93.224460162,246,"16168 GOODVIEW CIRCLE, LAKEVILLE, MN, 55044","Match","Exact","16168 GOODVIEW CIR, LAKEVILLE, MN, 55044",37921403,"R"
229247,"16168 RADBURN ST","WOODBRIDGE","VA",22191,38.6017293900001,-77.290815806,247,"16168 RADBURN ST, WOODBRIDGE, VA, 22191","Match","Exact","16168 RADBURN ST, WOODBRIDGE, VA, 22191",619942981,"R"
229248,"16169 NORTHUP WAY","BELLEVUE","WA",98008,47.625391748,-122.124622299,248,"16169 NORTHUP WAY, BELLEVUE, WA, 98008","Match","Exact","16169 NORTHUP WAY, BELLEVUE, WA, 98008",186611738,"R"
229249,"16169 POPPYSEED CIRCLE UNIT 602","DELRAY BEACH","FL",33484,26.4365871840001,-80.1425518889999,249,"16169 POPPYSEED CIRCLE UNIT 602, DELRAY BEACH, FL, 33484","Match","Non_Exact","16169 POPPY SEED CIR, DELRAY BEACH, FL, 33484",629943378,"L"
229250,"16169 SE 51ST PL","BELLEVUE","WA",98006,47.5575411,-122.124595186,250,"16169 SE 51ST PL, BELLEVUE, WA, 98006","Match","Exact","16169 SE 51ST PL, BELLEVUE, WA, 98006",627287182,"L"
229251,"16169 W SUNSET BLVD UNIT 102","PACIFIC PALISADES","CA",90272,34.0486297150001,-118.537639056,251,"16169 W SUNSET BLVD UNIT 102, PACIFIC PALISADES, CA, 90272","Match","Exact","16169 SUNSET BLVD, PACIFIC PALISADES, CA, 90272",141557428,"R"
229252,"1617  161ST AVE","MARIETTA","MN",56257,44.8972170590001,-96.3296964689999,252,"1617  161ST AVE, MARIETTA, MN, 56257","Match","Exact","1617 161ST AVE, MARIETTA, MN, 56257",611713756,"L"
229253,"1617  PRINCETON AVE","SALT LAKE CITY","UT",NA,40.7436996500001,-111.844687558,253,"1617  PRINCETON AVE, SALT LAKE CITY, UT, ","Match","Non_Exact","1617 E PRINCETON AVE, SLC, UT, 84105",176080671,"L"
229254,"1617 1/2 WATERLOO STREET","LOS ANGELES","CA",90026,34.08537267,-118.263076112,254,"1617 1/2 WATERLOO STREET, LOS ANGELES, CA, 90026","Match","Exact","1617 WATERLOO ST, LOS ANGELES, CA, 90026",141615771,"L"
229255,"1617 10TH ST","WYANDOTTE","MI",48192,42.2175677990001,-83.165338639,255,"1617 10TH ST, WYANDOTTE, MI, 48192","Match","Exact","1617 10TH ST, WYANDOTTE, MI, 48192",95452406,"L"
229256,"1617 12 MILE RD","BITELY","MI",49309,43.727333124,-85.8404512339999,256,"1617 12 MILE RD, BITELY, MI, 49309","Match","Non_Exact","1617 W 12 MILE RD, BITELY, MI, 49309",635650057,"L"
229257,"1617 14TH AVENUE","GREELEY","CO",80631,40.4135164200001,-104.701761157,257,"1617 14TH AVENUE, GREELEY, CO, 80631","Match","Exact","1617 14TH AVE, GREELEY, CO, 80631",188677521,"R"
229258,"1617 14TH AVENUE","GREELEY","CO",80634,NA,NA,258,"1617 14TH AVENUE, GREELEY, CO, 80634","No_Match",NA,NA,NA,NA
229259,"1617 14TH STREET SE 203","WASHINGTON","DC",20020,NA,NA,259,"1617 14TH STREET SE 203, WASHINGTON, DC, 20020","No_Match",NA,NA,NA,NA
229260,"1617 16TH AVE S","ESCANABA","MI",49829,45.727877666,-87.071658165,260,"1617 16TH AVE S, ESCANABA, MI, 49829","Match","Exact","1617 16TH AVE S, ESCANABA, MI, 49829",181950654,"R"
229261,"1617 18TH STREET","BETTENDORF","IA",52753,41.5397870990001,-90.507013999,261,"1617 18TH STREET, BETTENDORF, IA, 52753","Match","Non_Exact","1617 18TH ST, BETTENDORF, IA, 52722",122711578,"R"
229262,"1617 27TH AVE S","ST PETERSBURG","FL",33712,27.743900549,-82.6549978629999,262,"1617 27TH AVE S, ST PETERSBURG, FL, 33712","Match","Exact","1617 27TH AVE S, SAINT PETERSBURG, FL, 33712",124710667,"R"
229263,"1617 28TH ST S - APT 2","ARLINGTON","VA",22206,38.849093947,-77.074383809,263,"1617 28TH ST S - APT 2, ARLINGTON, VA, 22206","Match","Exact","1617 28TH ST S, ARLINGTON, VA, 22206",652313516,"R"
229264,"1617 33RD AVENUE","SEATTLE","WA",98122,47.6154844810001,-122.290294366,264,"1617 33RD AVENUE, SEATTLE, WA, 98122","Match","Exact","1617 33RD AVE, SEATTLE, WA, 98122",186588673,"L"
229265,"1617 350TH ST N","MINNEOTA","MN",56264,44.6339162190001,-95.9516626019999,265,"1617 350TH ST N, MINNEOTA, MN, 56264","Match","Exact","1617 350TH ST N, MINNEOTA, MN, 56264",633594733,"L"
229266,"1617 4TH STREET APT 318","ROCHESTER","MN",55901,44.0279196660001,-92.486303071,266,"1617 4TH STREET APT 318, ROCHESTER, MN, 55901","Match","Non_Exact","1617 4TH ST NW, ROCHESTER, MN, 55901",649193440,"R"
229267,"1617 9TH CT NW","AUBURN","WA",98002,NA,NA,267,"1617 9TH CT NW, AUBURN, WA, 98002","No_Match",NA,NA,NA,NA
229268,"1617 9TH ST","EAU CLAIRE","WI",54703,44.815764051,-91.521965,268,"1617 9TH ST, EAU CLAIRE, WI, 54703","Match","Exact","1617 9TH ST, EAU CLAIRE, WI, 54703",46065934,"R"
229269,"1617 AIRPORT ROAD","ALPENA","MI",49707,45.0754463530001,-83.572333538,269,"1617 AIRPORT ROAD, ALPENA, MI, 49707","Match","Exact","1617 AIRPORT RD, ALPENA, MI, 49707",620614663,"R"
229270,"1617 AMARYLLIS DR","ROMEOVILLE","IL",60446,41.611137914,-88.1401438359999,270,"1617 AMARYLLIS DR, ROMEOVILLE, IL, 60446","Match","Exact","1617 AMARYLLIS DR, ROMEOVILLE, IL, 60446",648113068,"R"
229271,"1617 AMARYLLIS","ROMEOVILLE","IL",60446,41.611137914,-88.1401438359999,271,"1617 AMARYLLIS, ROMEOVILLE, IL, 60446","Match","Non_Exact","1617 AMARYLLIS DR, ROMEOVILLE, IL, 60446",648113068,"R"
229272,"1617 BALBOA STREET","SAN FRANCISCO","CA",94121,37.7766787580001,-122.476117792,272,"1617 BALBOA STREET, SAN FRANCISCO, CA, 94121","Match","Exact","1617 BALBOA ST, SAN FRANCISCO, CA, 94121",192277564,"L"
229273,"1617 BALVAIRD DR","LAWRENCEVILLE","GA",30045,33.9570972450001,-83.912893816,273,"1617 BALVAIRD DR, LAWRENCEVILLE, GA, 30045","Match","Exact","1617 BALVAIRD DR, LAWRENCEVILLE, GA, 30045",636310018,"L"
229274,"1617 BEDFORD AVENUE","PITTSBURGH","PA",15219,40.444522002,-79.987125277,274,"1617 BEDFORD AVENUE, PITTSBURGH, PA, 15219","Match","Exact","1617 BEDFORD AVE, PITTSBURGH, PA, 15219",51635574,"L"
229275,"1617 BELLEVUE AVE","SYRACUSE","NY",13204,43.0326278060001,-76.18096894,275,"1617 BELLEVUE AVE, SYRACUSE, NY, 13204","Match","Exact","1617 BELLEVUE AVE, SYRACUSE, NY, 13204",46570259,"L"
229276,"1617 BENZIE CIRCLE","ROMEOVILLE","IL",60446,41.602530921,-88.1377620379999,276,"1617 BENZIE CIRCLE, ROMEOVILLE, IL, 60446","Match","Exact","1617 BENZIE CIR, ROMEOVILLE, IL, 60446",652145893,"L"
229277,"1617 BILLY MITCHELL LOOP","TAMPA","FL",33621,NA,NA,277,"1617 BILLY MITCHELL LOOP, TAMPA, FL, 33621","No_Match",NA,NA,NA,NA
229278,"1617 BRAGDON AVENUE","PUEBLO","CO",81004,38.24004504,-104.631074543,278,"1617 BRAGDON AVENUE, PUEBLO, CO, 81004","Match","Exact","1617 BRAGDON AVE, PUEBLO, CO, 81004",105026826,"R"
229279,"1617 BRANCH STREET","ALEXANDRIA","LA",71301,31.2857866000001,-92.4495431129999,279,"1617 BRANCH STREET, ALEXANDRIA, LA, 71301","Match","Exact","1617 BRANCH ST, ALEXANDRIA, LA, 71301",11782652,"L"
229280,"1617 BRISTOL PLACE","ORANGE PARK","FL",32073,30.160221161,-81.729232805,280,"1617 BRISTOL PLACE, ORANGE PARK, FL, 32073","Match","Exact","1617 BRISTOL PL, ORANGE PARK, FL, 32073",636340085,"L"
229281,"1617 BUCKNER RD","BUMPASS","VA",23024,37.906968766,-77.8288146789999,281,"1617 BUCKNER RD, BUMPASS, VA, 23024","Match","Exact","1617 BUCKNER RD, BUMPASS, VA, 23024",84944900,"L"
229282,"1617 CANYON CREEK DR APT 289","TEMPLE","TX",76502,31.0614832530001,-97.3729084509999,282,"1617 CANYON CREEK DR APT 289, TEMPLE, TX, 76502","Match","Exact","1617 CANYON CREEK DR, TEMPLE, TX, 76502",146162671,"L"
229283,"1617 CARTER STREET","VIDALIA","LA",71373,NA,NA,283,"1617 CARTER STREET, VIDALIA, LA, 71373","No_Match",NA,NA,NA,NA
229284,"1617 CHASE STREET","ROCKY MOUNT","NC",27801,35.948404392,-77.769278302,284,"1617 CHASE STREET, ROCKY MOUNT, NC, 27801","Match","Exact","1617 CHASE ST, ROCKY MOUNT, NC, 27801",90176964,"R"
229285,"1617 CIRCLE OAK DRIVE","SCHERTZ","TX",78154,29.5940266740001,-98.2633296339999,285,"1617 CIRCLE OAK DRIVE, SCHERTZ, TX, 78154","Match","Exact","1617 CIRCLE OAK DR, SCHERTZ, TX, 78154",54845837,"L"
229286,"1617 CLARKE SPRINGS DR","ALLEN","TX",75002,33.1039202160001,-96.6272662379999,286,"1617 CLARKE SPRINGS DR, ALLEN, TX, 75002","Match","Exact","1617 CLARKE SPRINGS DR, ALLEN, TX, 75002",123568980,"R"
229287,"1617 CLARKSON CT","NAPERVILLE","IL",60565,41.739560145,-88.0996086869999,287,"1617 CLARKSON CT, NAPERVILLE, IL, 60565","Match","Exact","1617 CLARKSON CT, NAPERVILLE, IL, 60565",112538225,"L"
229288,"1617 CLARKSON CT","NAPERVILLE","IL",60585,41.739560145,-88.0996086869999,288,"1617 CLARKSON CT, NAPERVILLE, IL, 60585","Match","Non_Exact","1617 CLARKSON CT, NAPERVILLE, IL, 60565",112538225,"L"
229289,"1617 CLIFFWOOD DRIVE","VIRGINIA BEACH","VA",23456,36.7892600640001,-76.1436063639999,289,"1617 CLIFFWOOD DRIVE, VIRGINIA BEACH, VA, 23456","Match","Exact","1617 CLIFFWOOD DR, VA BCH, VA, 23456",122265434,"L"
229290,"1617 COLFAX","SCHUYLER","NE",68661,41.4532440730001,-97.059670765,290,"1617 COLFAX, SCHUYLER, NE, 68661","Match","Non_Exact","1617 COLFAX ST, SCHUYLER, NE, 68661",136041595,"L"
229291,"1617 DIAMOND SPRINGS ROAD","VIRGINIA BEACH","VA",23455,36.900786716,-76.180040578,291,"1617 DIAMOND SPRINGS ROAD, VIRGINIA BEACH, VA, 23455","Match","Exact","1617 DIAMOND SPRINGS RD, VIRGINIA BCH, VA, 23455",122305557,"L"
229292,"1617 DONALDSON ST","LOS ANGELES","CA",90026,34.0916277320001,-118.249684294,292,"1617 DONALDSON ST, LOS ANGELES, CA, 90026","Match","Exact","1617 DONALDSON ST, LOS ANGELES, CA, 90026",624568633,"R"
229293,"1617 DOTTERERS RUN","CHARLESTON","SC",29414,32.8153931910001,-80.0568595029999,293,"1617 DOTTERERS RUN, CHARLESTON, SC, 29414","Match","Exact","1617 DOTTERERS RUN, CHARLESTON, SC, 29414",108852275,"L"
229294,"1617 DRURY RD","PETERSBURG","VA",23805,37.182387175,-77.403764936,294,"1617 DRURY RD, PETERSBURG, VA, 23805","Match","Exact","1617 DRURY RD, PETERSBURG, VA, 23805",54213952,"R"
229295,"1617 DUE WEST HIGHWAY","ANDERSON","SC",29621,34.398336968,-82.55193023,295,"1617 DUE WEST HIGHWAY, ANDERSON, SC, 29621","Match","Exact","1617 DUE WEST HWY, ANDERSON, SC, 29621",25488033,"R"
229296,"1617 DUE WEST HWY","ANDERSON","SC",29621,34.398336968,-82.55193023,296,"1617 DUE WEST HWY, ANDERSON, SC, 29621","Match","Exact","1617 DUE WEST HWY, ANDERSON, SC, 29621",25488033,"R"
229297,"1617 E 12TH ST","GALENA","KS",66739,37.0703777040001,-94.6220674149999,297,"1617 E 12TH ST, GALENA, KS, 66739","Match","Exact","1617 E 12TH ST, GALENA, KS, 66739",65899683,"L"
229298,"1617 E 2ND ST","DULUTH","MN",55812,46.803725334,-92.080181655,298,"1617 E 2ND ST, DULUTH, MN, 55812","Match","Exact","1617 E 2ND ST, DULUTH, MN, 55812",163212467,"L"
229299,"1617 E 50TH PLACE","CHICAGO","IL",60615,41.8034175540001,-87.5862356329999,299,"1617 E 50TH PLACE, CHICAGO, IL, 60615","Match","Exact","1617 E 50TH PL, CHICAGO, IL, 60615",642836816,"L"
229300,"1617 E 55 STREET APT 2","CHICAGO","IL",60615,41.7952000180001,-87.585897815,300,"1617 E 55 STREET APT 2, CHICAGO, IL, 60615","Match","Non_Exact","1617 E 55TH ST, CHICAGO, IL, 60615",616793299,"R"
229301,"1617 E BEAUTIFUL LANE","CHANDLER","AZ",85226,NA,NA,301,"1617 E BEAUTIFUL LANE, CHANDLER, AZ, 85226","No_Match",NA,NA,NA,NA
229302,"1617 E CENTERTON BLVD","CENTERTON","AR",72719,36.3579171480001,-94.257255017,302,"1617 E CENTERTON BLVD, CENTERTON, AR, 72719","Match","Exact","1617 E CENTERTON BLVD, CENTERTON, AR, 72719",47853531,"L"
229303,"1617 E DARREL RD","PHOENIX","AZ",85042,33.384045137,-112.046492625,303,"1617 E DARREL RD, PHOENIX, AZ, 85042","Match","Exact","1617 E DARREL RD, PHOENIX, AZ, 85042",128266778,"R"
229304,"1617 E GOWEN AVENUE","PHILADELPHIA","PA",19150,40.081975492,-75.1735466389999,304,"1617 E GOWEN AVENUE, PHILADELPHIA, PA, 19150","Match","Exact","1617 E GOWEN AVE, PHILADELPHIA, PA, 19150",131394887,"L"
229305,"1617 E LAKE SAMMAMISH PKWY NE","SAMMAMISH","WA",98074,47.6244642500001,-122.070269897,305,"1617 E LAKE SAMMAMISH PKWY NE, SAMMAMISH, WA, 98074","Match","Exact","1617 E LAKE SAMMAMISH PKWY NE, SAMMAMISH, WA, 98074",186924557,"L"
229306,"1617 E MCMILLAN ST","CINCINNATI","OH",45206,39.1246642780001,-84.4756793509999,306,"1617 E MCMILLAN ST, CINCINNATI, OH, 45206","Match","Exact","1617 E MCMILLAN ST, CINCINNATI, OH, 45206",103930216,"R"
229307,"1617 E POPLAR","WYNNE","AR",72396,35.226747,-90.773033945,307,"1617 E POPLAR, WYNNE, AR, 72396","Match","Non_Exact","1617 E POPLAR AVE, WYNNE, AR, 72396",607585311,"L"
229308,"1617 E PRINCETON AVE","SLC","UT",84105,40.743699717,-111.844659034,308,"1617 E PRINCETON AVE, SLC, UT, 84105","Match","Exact","1617 E PRINCETON AVE, SLC, UT, 84105",176080671,"L"
229309,"1617 EAST 14 STREET","WINSTON SALEM","NC",27105,36.11285021,-80.225131607,309,"1617 EAST 14 STREET, WINSTON SALEM, NC, 27105","Match","Exact","1617 E 14TH ST, WINSTON SALEM, NC, 27105",84612335,"L"
229310,"1617 EAST 14TH STREET","WINSTON-SALEM","NC",27105,36.11285021,-80.225131607,310,"1617 EAST 14TH STREET, WINSTON-SALEM, NC, 27105","Match","Exact","1617 E 14TH ST, WINSTON SALEM, NC, 27105",84612335,"L"
229311,"1617 EAST 34TH STREET","LORAIN","OH",44055,41.4387939810001,-82.144631077,311,"1617 EAST 34TH STREET, LORAIN, OH, 44055","Match","Exact","1617 E 34TH ST, LORAIN, OH, 44055",55430212,"L"
229312,"1617 EAST 34TH STREET","MARR","OH",44055,41.4387939810001,-82.144631077,312,"1617 EAST 34TH STREET, MARR, OH, 44055","Match","Non_Exact","1617 E 34TH ST, LORAIN, OH, 44055",55430212,"L"
229313,"1617 EAST 73RD ST","CLEVELAND","OH",44103,41.510707256,-81.637396181,313,"1617 EAST 73RD ST, CLEVELAND, OH, 44103","Match","Exact","1617 E 73RD ST, CLEVELAND, OH, 44103",61113861,"L"
229314,"1617 EAST INDIAN RIVER ROAD","NORFOLK","VA",23523,36.8304252670001,-76.2621378059999,314,"1617 EAST INDIAN RIVER ROAD, NORFOLK, VA, 23523","Match","Exact","1617 E INDIAN RIVER RD, NORFOLK, VA, 23523",122151722,"R"
229315,"1617 EASTERN PARKWAY","BROOKLYN","NY",11233,40.671590017,-73.914841098,315,"1617 EASTERN PARKWAY, BROOKLYN, NY, 11233","Match","Exact","1617 EASTERN PKWY, BROOKLYN, NY, 11233",59083812,"L"
229316,"1617 ELIZABETH LN","EL CAJON","CA",92019,32.7837020430001,-116.9228762,316,"1617 ELIZABETH LN, EL CAJON, CA, 92019","Match","Non_Exact","1617 ELIZABETH WAY, EL CAJON, CA, 92019",195683825,"R"
229317,"1617 ELIZABETH LN","EL CAJONQ","CA",92019,32.7837020430001,-116.9228762,317,"1617 ELIZABETH LN, EL CAJONQ, CA, 92019","Match","Non_Exact","1617 ELIZABETH WAY, EL CAJON, CA, 92019",195683825,"R"
229318,"1617 ELM AVE","RICHMOND","CA",94805,37.9422871740001,-122.311906777,318,"1617 ELM AVE, RICHMOND, CA, 94805","Match","Exact","1617 ELM AVE, RICHMOND, CA, 94805",192042365,"L"
229319,"1617 ELMVIEW","HOUSTON","TX",77080,29.801580249,-95.528698854,319,"1617 ELMVIEW, HOUSTON, TX, 77080","Match","Non_Exact","1617 ELMVIEW DR, HOUSTON, TX, 77080",636975148,"L"
229320,"1617 EMERALD PLACE","AUBREY","TX",76227,NA,NA,320,"1617 EMERALD PLACE, AUBREY, TX, 76227","No_Match",NA,NA,NA,NA
229321,"1617 FAIR OAKS DR","WESTLAKE","TX",76262,32.97212346,-97.175596677,321,"1617 FAIR OAKS DR, WESTLAKE, TX, 76262","Match","Exact","1617 FAIR OAKS DR, WESTLAKE, TX, 76262",102114670,"L"
229322,"1617 FAIRVIEW ST","GREENSBORO","NC",27405,36.0984285810001,-79.773107406,322,"1617 FAIRVIEW ST, GREENSBORO, NC, 27405","Match","Exact","1617 FAIRVIEW ST, GREENSBORO, NC, 27405",131031334,"L"
229323,"1617 FANNIN ST APT 2909","HOUSTON","TX",77002,29.7517857670001,-95.3677201469999,323,"1617 FANNIN ST APT 2909, HOUSTON, TX, 77002","Match","Exact","1617 FANNIN ST, HOUSTON, TX, 77002",96067652,"L"
229324,"1617 FANNIN STREET 2803","HOUSTON","TX",77002,29.7517857670001,-95.3677201469999,324,"1617 FANNIN STREET 2803, HOUSTON, TX, 77002","Match","Exact","1617 FANNIN ST, HOUSTON, TX, 77002",96067652,"L"
229325,"1617 FANNIN STREET APT  2516","HOUSTON","TX",77002,29.7517857670001,-95.3677201469999,325,"1617 FANNIN STREET APT  2516, HOUSTON, TX, 77002","Match","Exact","1617 FANNIN ST, HOUSTON, TX, 77002",96067652,"L"
229326,"1617 FANNIN STREET APT 2516","HOUSTON","TX",77002,29.7517857670001,-95.3677201469999,326,"1617 FANNIN STREET APT 2516, HOUSTON, TX, 77002","Match","Exact","1617 FANNIN ST, HOUSTON, TX, 77002",96067652,"L"
229327,"1617 FANNIN STREET","HOUSTON","TX",77002,29.7517857670001,-95.3677201469999,327,"1617 FANNIN STREET, HOUSTON, TX, 77002","Match","Exact","1617 FANNIN ST, HOUSTON, TX, 77002",96067652,"L"
229328,"1617 FANNIN","HOUSTON","TX",77002,29.7517857670001,-95.3677201469999,328,"1617 FANNIN, HOUSTON, TX, 77002","Match","Non_Exact","1617 FANNIN ST, HOUSTON, TX, 77002",96067652,"L"
229329,"1617 FAXON AVENUE","MEMPHIS","TN",38112,35.154629297,-90.0048288039999,329,"1617 FAXON AVENUE, MEMPHIS, TN, 38112","Match","Exact","1617 FAXON AVE, MEMPHIS, TN, 38112",72911962,"R"
229330,"1617 FERNSTONE DRIVE NW","ACWORTH","GA",30101,33.994990774,-84.732761876,330,"1617 FERNSTONE DRIVE NW, ACWORTH, GA, 30101","Match","Exact","1617 FERNSTONE DR NW, ACWORTH, GA, 30101",614177675,"L"
229331,"1617 FRANKLIN","DENVER","CO",80218,39.7419871720001,-104.968453874,331,"1617 FRANKLIN, DENVER, CO, 80218","Match","Non_Exact","1617 FRANKLIN ST, DENVER, CO, 80218",177306094,"L"
229332,"1617 FREMONT STREET","LAS VEGAS","NV",89101,36.1635271870001,-115.12735052,332,"1617 FREMONT STREET, LAS VEGAS, NV, 89101","Match","Exact","1617 FREMONT ST, LAS VEGAS, NV, 89101",201867959,"L"
229333,"1617 GOLF CLUB DRIVE","LANTANA","TX",76226,33.087719258,-97.1116329289999,333,"1617 GOLF CLUB DRIVE, LANTANA, TX, 76226","Match","Exact","1617 GOLF CLUB DR, LANTANA, TX, 76226",641505935,"R"
229334,"1617 HABERSHAM STREET","AUBERY","TX",76227,33.2302334940001,-96.917094939,334,"1617 HABERSHAM STREET, AUBERY, TX, 76227","Match","Non_Exact","1617 HABERSHAM ST, AUBREY, TX, 76227",646841249,"R"
229335,"1617 HAPPY HOLLOW RD","HUNTINGTON","VT",5462,44.3434324680001,-72.953134222,335,"1617 HAPPY HOLLOW RD, HUNTINGTON, VT, 5462","Match","Exact","1617 HAPPY HOLLOW RD, HUNTINGTON, VT, 05462",653296712,"L"
229336,"1617 HASTINGS RD","BETHLEHEM","PA",18017,40.6563370210001,-75.348349317,336,"1617 HASTINGS RD, BETHLEHEM, PA, 18017","Match","Exact","1617 HASTINGS RD, BETHLEHEM, PA, 18017",136877345,"L"
229337,"1617 HAYDEN HILLS WEST","HINESBURG","VT",5461,NA,NA,337,"1617 HAYDEN HILLS WEST, HINESBURG, VT, 5461","No_Match",NA,NA,NA,NA
229338,"1617 HENDRY STREET SUITE 311","FORT MYERS, FL","FL",33901,26.6426941070001,-81.8687909659999,338,"1617 HENDRY STREET SUITE 311, FORT MYERS, FL, FL, 33901","Match","Non_Exact","1617 HENDRY ST, FORT MYERS, FL, 33901",118020180,"L"
229339,"1617 INDEPENDENCE AVE SE","WASHINGTON","DC",20003,38.887585093,-76.981610764,339,"1617 INDEPENDENCE AVE SE, WASHINGTON, DC, 20003","Match","Exact","1617 INDEPENDENCE AVE SE, WASHINGTON, DC, 20003",76230524,"R"
229340,"1617 ISLAND VIEW DRIVE","BILLINGS","MT",59101,45.740101312,-108.552823703,340,"1617 ISLAND VIEW DRIVE, BILLINGS, MT, 59101","Match","Exact","1617 ISLAND VIEW DR, BILLINGS, MT, 59101",645330405,"L"
229341,"1617 IVY LANE","WICHITA FALLS","TX",76306,33.9444447810001,-98.515868671,341,"1617 IVY LANE, WICHITA FALLS, TX, 76306","Match","Exact","1617 IVY LN, WICHITA FALLS, TX, 76306",169840185,"R"
229342,"1617 JFK BOULEVARD SUITE 1040","PHILADELPHIA","PA",19103,39.953851301,-75.166960137,342,"1617 JFK BOULEVARD SUITE 1040, PHILADELPHIA, PA, 19103","Match","Exact","1617 JOHN F KENNEDY BLVD, PHILADELPHIA, PA, 19103",131407491,"R"
229343,"1617 JULIE DRIVE","SCHERERVILLE","IN",46375,41.493683483,-87.4329136859999,343,"1617 JULIE DRIVE, SCHERERVILLE, IN, 46375","Match","Exact","1617 JULIE DR, SCHERERVILLE, IN, 46375",98429712,"L"
229344,"1617 KAPIOLANI BLVD UNIT 1206","HONOLULU","HI",96814,21.2916816690001,-157.839268792,344,"1617 KAPIOLANI BLVD UNIT 1206, HONOLULU, HI, 96814","Match","Exact","1617 KAPIOLANI BLVD, HONOLULU, HI, 96814",203241500,"R"
229345,"1617 KATIE COVE","SANFORD","FL",32771,28.7971602440001,-81.36414211,345,"1617 KATIE COVE, SANFORD, FL, 32771","Match","Exact","1617 KATIE COVE, SANFORD, FL, 32771",649121478,"R"
229346,"1617 KATIE CV","SANFORD","FL",32771,28.7971602440001,-81.36414211,346,"1617 KATIE CV, SANFORD, FL, 32771","Match","Exact","1617 KATIE COVE, SANFORD, FL, 32771",649121478,"R"
229347,"1617 KEAAUMOKU ST  APT 407","HONOLULU","HI",96822,21.304953987,-157.836009979,347,"1617 KEAAUMOKU ST  APT 407, HONOLULU, HI, 96822","Match","Non_Exact","1617 KEEAUMOKU ST, HONOLULU, HI, 96822",203237446,"R"
229348,"1617 KEEAUMOKU ST","HONOLULU","HI",96822,21.304953987,-157.836009979,348,"1617 KEEAUMOKU ST, HONOLULU, HI, 96822","Match","Exact","1617 KEEAUMOKU ST, HONOLULU, HI, 96822",203237446,"R"
229349,"1617 KEEAUMOKU STREET   NO 1207","HONOLULU","HI",96822,21.304953987,-157.836009979,349,"1617 KEEAUMOKU STREET   NO 1207, HONOLULU, HI, 96822","Match","Non_Exact","1617 KEEAUMOKU ST, HONOLULU, HI, 96822",203237446,"R"
229350,"1617 KEEAUMOKU STREET STE 1807","HONOLULU","HI",96822,21.304953987,-157.836009979,350,"1617 KEEAUMOKU STREET STE 1807, HONOLULU, HI, 96822","Match","Exact","1617 KEEAUMOKU ST, HONOLULU, HI, 96822",203237446,"R"
229351,"1617 KEEAUMOKU STREET","HONOLULU","HI",96822,21.304953987,-157.836009979,351,"1617 KEEAUMOKU STREET, HONOLULU, HI, 96822","Match","Exact","1617 KEEAUMOKU ST, HONOLULU, HI, 96822",203237446,"R"
229352,"1617 KEMBERLY AVENUE","TITUSVILLE","FL",32796,28.6402122000001,-80.8447021859999,352,"1617 KEMBERLY AVENUE, TITUSVILLE, FL, 32796","Match","Exact","1617 KEMBERLY AVE, TITUSVILLE, FL, 32796",643394032,"R"
229353,"1617 KING AVE","COLUMBUS","OH",43212,39.9918048210001,-83.0504011799999,353,"1617 KING AVE, COLUMBUS, OH, 43212","Match","Exact","1617 KING AVE, COLUMBUS, OH, 43212",135565974,"L"
229354,"1617 KING OF ARMS APT C","LOUISVILLE","KY",40222,38.271065805,-85.61117991,354,"1617 KING OF ARMS APT C, LOUISVILLE, KY, 40222","Match","Non_Exact","1617 KING OF ARMS CT, LOUISVILLE, KY, 40222",96855810,"R"
229355,"1617 LANCASTER DRIVE","MARRERO","LA",70072,29.8818581240001,-90.131273186,355,"1617 LANCASTER DRIVE, MARRERO, LA, 70072","Match","Exact","1617 LANCASTER DR, MARRERO, LA, 70072",93505643,"R"
229356,"1617 LANDER RD","MAYFIELD HEIGHTS","OH",44124,41.516541037,-81.463234116,356,"1617 LANDER RD, MAYFIELD HEIGHTS, OH, 44124","Match","Exact","1617 LANDER RD, MAYFIELD HEIGHTS, OH, 44124",61134475,"L"
229357,"1617 LARKWOOD DR","DEWITT","MI",48820,42.8291657730001,-84.591908051,357,"1617 LARKWOOD DR, DEWITT, MI, 48820","Match","Exact","1617 LARKWOOD DR, DEWITT, MI, 48820",17298707,"L"
229358,"1617 LIATRIS LANE","RALEIGH","NC",27613,35.934137837,-78.697101618,358,"1617 LIATRIS LANE, RALEIGH, NC, 27613","Match","Exact","1617 LIATRIS LN, RALEIGH, NC, 27613",208346009,"L"
229359,"1617 LILY WOOD CT","WILDWOOD","MO",63005,38.6328156880001,-90.638085609,359,"1617 LILY WOOD CT, WILDWOOD, MO, 63005","Match","Exact","1617 LILY WOOD CT, WILDWOOD, MO, 63005",100178568,"L"
229360,"1617 LIVE OAK APT B","SAN ANGELO","TX",76901,31.451107064,-100.455623481,360,"1617 LIVE OAK APT B, SAN ANGELO, TX, 76901","Match","Non_Exact","1617 LIVE OAK ST, SAN ANGELO, TX, 76901",190679781,"L"
229361,"1617 LOCUST AVENUE","BRANDON","SD",57005,43.576437044,-96.595206877,361,"1617 LOCUST AVENUE, BRANDON, SD, 57005","Match","Exact","1617 LOCUST AVE, BRANDON, SD, 57005",34994393,"L"
229362,"1617 LOCUST","ST LOUIS","MO",63103,38.631891899,-90.203014701,362,"1617 LOCUST, ST LOUIS, MO, 63103","Match","Non_Exact","1617 LOCUST ST, SAINT LOUIS, MO, 63103",107604540,"R"
229363,"1617 LOWRY AVE NE","MINNEAPOLIS","MN",55418,45.013193669,-93.2368747849999,363,"1617 LOWRY AVE NE, MINNEAPOLIS, MN, 55418","Match","Exact","1617 LOWRY AVE NE, MINNEAPOLIS, MN, 55418",43636345,"L"
229364,"1617 MADISON","EUREKA","KS",67045,37.81634053,-96.275018691,364,"1617 MADISON, EUREKA, KS, 67045","Match","Non_Exact","1617 MADISON ST, EUREKA, KS, 67045",10740065,"R"
229365,"1617 MAIDEN LANE SW","ROANOKE","VA",24015,37.264139411,-79.970615408,365,"1617 MAIDEN LANE SW, ROANOKE, VA, 24015","Match","Exact","1617 MAIDEN LN SW, ROANOKE, VA, 24015",62909383,"R"
229366,"1617 MAPLE STREET","OTTAWA","KS",66067,38.5920905070001,-95.2743483849999,366,"1617 MAPLE STREET, OTTAWA, KS, 66067","Match","Non_Exact","1617 S MAPLE ST, OTTAWA, KS, 66067",10603610,"L"
229367,"1617 MAPLE TERRACE 1N","LISLE","IL",60532,41.785200527,-88.0827369639999,367,"1617 MAPLE TERRACE 1N, LISLE, IL, 60532","Match","Exact","1617 MAPLE TER, LISLE, IL, 60532",112531497,"L"
229368,"1617 MARAIS STREET","NEW ORLEANS","LA",70116,29.9691823270001,-90.063348173,368,"1617 MARAIS STREET, NEW ORLEANS, LA, 70116","Match","Exact","1617 MARAIS ST, NEW ORLEANS, LA, 70116",191710589,"L"
229369,"1617 MARITIME COURT","BENSALEM","PA",19020,40.089687832,-74.954947491,369,"1617 MARITIME COURT, BENSALEM, PA, 19020","Match","Exact","1617 MARITIME CT, BENSALEM, PA, 19020",134732955,"R"
229370,"1617 MAYS LANDING RD","MILLEVILLE","NJ",8332,39.409250388,-75.001707036,370,"1617 MAYS LANDING RD, MILLEVILLE, NJ, 8332","Match","Non_Exact","1617 MAYS LANDING RD, MILLVILLE, NJ, 08332",642422731,"R"
229371,"1617 MEAD LANE","OKLAHOMA CITY","OK",73170,35.353304096,-97.514656509,371,"1617 MEAD LANE, OKLAHOMA CITY, OK, 73170","Match","Exact","1617 MEAD LN, OKLAHOMA CITY, OK, 73170",618095374,"R"
229372,"1617 MIMS ST","FORT WORTH","TX",76112,32.7556012150001,-97.20824813,372,"1617 MIMS ST, FORT WORTH, TX, 76112","Match","Exact","1617 MIMS ST, FORT WORTH, TX, 76112",101900312,"L"
229373,"1617 MONROE ST","SWEETWATER","TN",37874,35.6005464400001,-84.485279637,373,"1617 MONROE ST, SWEETWATER, TN, 37874","Match","Exact","1617 MONROE ST, SWEETWATER, TN, 37874",85312785,"R"
229374,"1617 MONUMENT AVENUE SUITE 202","RICHMOND","VA",23220,37.552656889,-77.4583813519999,374,"1617 MONUMENT AVENUE SUITE 202, RICHMOND, VA, 23220","Match","Exact","1617 MONUMENT AVE, RICHMOND, VA, 23220",616125564,"R"
229375,"1617 MORROW LANE","ABILENE","TX",79601,32.4656981000001,-99.7002388659999,375,"1617 MORROW LANE, ABILENE, TX, 79601","Match","Exact","1617 MORROW LN, ABILENE, TX, 79601",129962313,"R"
229376,"1617 MURPHY PARKWAY","EAGAN","MN",55122,44.8144543070001,-93.180840068,376,"1617 MURPHY PARKWAY, EAGAN, MN, 55122","Match","Exact","1617 MURPHY PKWY, EAGAN, MN, 55122",37934937,"L"
229377,"1617 MUSTANG COURT","CEDAR HILL","TX",75104,32.5545873560001,-96.998978114,377,"1617 MUSTANG COURT, CEDAR HILL, TX, 75104","Match","Exact","1617 MUSTANG CT, CEDAR HILL, TX, 75104",616801239,"L"
229378,"1617 N 50TH PLACE","GREENFIELD","WI",53208,43.0517092090001,-87.976748188,378,"1617 N 50TH PLACE, GREENFIELD, WI, 53208","Match","Non_Exact","1617 N 50TH PL, MILWAUKEE, WI, 53208",77733855,"L"
229379,"1617 N 50TH PLACE","MILWAUKEE","WI",53208,43.0517112420001,-87.976748188,379,"1617 N 50TH PLACE, MILWAUKEE, WI, 53208","Match","Exact","1617 N 50TH PL, MILWAUKEE, WI, 53208",77733855,"L"
229380,"1617 N CENTENNIAL ST","HIGH POINTE","NC",27262,35.98124978,-80.001237184,380,"1617 N CENTENNIAL ST, HIGH POINTE, NC, 27262","Match","Non_Exact","1617 N CENTENNIAL ST, HIGH POINT, NC, 27262",131038940,"L"
229381,"1617 N DELAWARE AVE","SPRINGFIELD","MO",65803,37.2270560040001,-93.2664981469999,381,"1617 N DELAWARE AVE, SPRINGFIELD, MO, 65803","Match","Exact","1617 N DELAWARE AVE, SPRINGFIELD, MO, 65803",76677822,"L"
229382,"1617 N DURKEE ST","APPLETON","WI",54911,44.275820513,-88.4027505179999,382,"1617 N DURKEE ST, APPLETON, WI, 54911","Match","Exact","1617 N DURKEE ST, APPLETON, WI, 54911",74885933,"L"
229383,"1617 N GRANT DRIVE","SHERMAN","TX",75092,33.650108663,-96.6381039299999,383,"1617 N GRANT DRIVE, SHERMAN, TX, 75092","Match","Exact","1617 N GRANT DR, SHERMAN, TX, 75092",63361927,"L"
229384,"1617 N PARRISH ST","PHILADELPHIA","PA",19130,39.9689003990001,-75.1636305609999,384,"1617 N PARRISH ST, PHILADELPHIA, PA, 19130","Match","Exact","1617 PARRISH ST, PHILADELPHIA, PA, 19130",131406239,"R"
229385,"1617 NE 38TH STREET","OKLAHOMA CITY","OK",73111,35.509065655,-97.482442895,385,"1617 NE 38TH STREET, OKLAHOMA CITY, OK, 73111","Match","Exact","1617 NE 38TH ST, OKLAHOMA CITY, OK, 73111",100411623,"L"
229386,"1617 NIAGARA BLVD","LEWISVILLE","TX",75077,33.065115409,-97.039473925,386,"1617 NIAGARA BLVD, LEWISVILLE, TX, 75077","Match","Exact","1617 NIAGARA BLVD, LEWISVILLE, TX, 75077",103388331,"L"
229387,"1617 NORTH POST ST","SPOKANE","WA",99205,47.6727550460001,-117.423649732,387,"1617 NORTH POST ST, SPOKANE, WA, 99205","Match","Exact","1617 N POST ST, SPOKANE, WA, 99205",605657244,"L"
229388,"1617 NORTH POST","SPOKANE","WA",99205,47.6727550460001,-117.423649732,388,"1617 NORTH POST, SPOKANE, WA, 99205","Match","Non_Exact","1617 N POST ST, SPOKANE, WA, 99205",605657244,"L"
229389,"1617 NORTH SYDENHAM STREET","PHILADEPHIA","PA",19121,39.9779005770001,-75.160574996,389,"1617 NORTH SYDENHAM STREET, PHILADEPHIA, PA, 19121","Match","Non_Exact","1617 N SYDENHAM ST, PHILADELPHIA, PA, 19121",131421623,"R"
229390,"1617 NORTHWEST BLVD APT 726","GEORGETOWN","TX",78628,30.65806589,-97.678365346,390,"1617 NORTHWEST BLVD APT 726, GEORGETOWN, TX, 78628","Match","Exact","1617 NORTHWEST BLVD, GEORGETOWN, TX, 78628",126454894,"R"
229391,"1617 NW 16TH TER","CAPE CORAL","FL",33909,26.6831958970001,-82.007445549,391,"1617 NW 16TH TER, CAPE CORAL, FL, 33909","Match","Non_Exact","1617 NW 16TH TER, CAPE CORAL, FL, 33993",118087557,"L"
229392,"1617 NW 24TH","PORTLAND","OR",97210,45.534182598,-122.700807844,392,"1617 NW 24TH, PORTLAND, OR, 97210","Match","Non_Exact","1617 NW 24TH AVE, PORTLAND, OR, 97210",157498072,"L"
229393,"1617 NW 39TH AVE","GAINESVILLE","FL",32605,29.6884236400001,-82.3439734849999,393,"1617 NW 39TH AVE, GAINESVILLE, FL, 32605","Match","Exact","1617 NW 39TH AVE, GAINESVILLE, FL, 32605",637954329,"R"
229394,"1617 NW 39TH AVENUE","GAINESVILLE","FL",32605,29.6884236400001,-82.3439734849999,394,"1617 NW 39TH AVENUE, GAINESVILLE, FL, 32605","Match","Exact","1617 NW 39TH AVE, GAINESVILLE, FL, 32605",637954329,"R"
229395,"1617 OCEAN BEACH ROAD","COAPLIS CROSSING","WA",98536,NA,NA,395,"1617 OCEAN BEACH ROAD, COAPLIS CROSSING, WA, 98536","No_Match",NA,NA,NA,NA
229396,"1617 OCEAN BEACH ROAD","COPALIS CROSSING","WA",98536,NA,NA,396,"1617 OCEAN BEACH ROAD, COPALIS CROSSING, WA, 98536","No_Match",NA,NA,NA,NA
229397,"1617 OSAGE ST","SIDNEY","NE",69162,41.1386570070001,-102.984191101,397,"1617 OSAGE ST, SIDNEY, NE, 69162","Match","Exact","1617 OSAGE ST, SIDNEY, NE, 69162",135916032,"R"
229398,"1617 OTTERSREST LANE","CAPE CORAL","FL",33990,26.6219679660001,-81.93418163,398,"1617 OTTERSREST LANE, CAPE CORAL, FL, 33990","Match","Exact","1617 OTTERSREST LN, CAPE CORAL, FL, 33990",118057148,"L"
229399,"1617 OVERLOOK TERRACE","KELLER","TX",76262,32.966075054,-97.2134399619999,399,"1617 OVERLOOK TERRACE, KELLER, TX, 76262","Match","Exact","1617 OVERLOOK TER, KELLER, TX, 76262",637138815,"R"
229400,"1617 PATTERSON DR","NEW ORLEANS","LA",70114,29.9538274350001,-90.0399613559999,400,"1617 PATTERSON DR, NEW ORLEANS, LA, 70114","Match","Exact","1617 PATTERSON DR, NEW ORLEANS, LA, 70114",191717416,"R"
229401,"1617 PINK AVE","CERES","CA",95307,37.5897337220001,-120.967329944,401,"1617 PINK AVE, CERES, CA, 95307","Match","Exact","1617 PINK AVE, CERES, CA, 95307",102611529,"L"
229402,"1617 POINT BREEZE","PHILADELPHIA","PA",19145,39.931839945,-75.1820359449999,402,"1617 POINT BREEZE, PHILADELPHIA, PA, 19145","Match","Non_Exact","1617 POINT BREEZE AVE, PHILADELPHIA, PA, 19145",131410850,"L"
229403,"1617 PRICKETT RD","BRYANT","AR",72022,34.6126974410001,-92.507302752,403,"1617 PRICKETT RD, BRYANT, AR, 72022","Match","Exact","1617 PRICKETT RD, BRYANT, AR, 72022",24204519,"R"
229404,"1617 PRINCETON AVE","SLC","UT",84105,40.7436996500001,-111.844687558,404,"1617 PRINCETON AVE, SLC, UT, 84105","Match","Non_Exact","1617 E PRINCETON AVE, SLC, UT, 84105",176080671,"L"
229405,"1617 PRINCETON AVENUE","SLC","UT",84105,40.7436996500001,-111.844687558,405,"1617 PRINCETON AVENUE, SLC, UT, 84105","Match","Non_Exact","1617 E PRINCETON AVE, SLC, UT, 84105",176080671,"L"
229406,"1617 QUINCY PLACE","HONOLULU","HI",96816,21.304306345,-157.799979818,406,"1617 QUINCY PLACE, HONOLULU, HI, 96816","Match","Exact","1617 QUINCY PL, HONOLULU, HI, 96816",203238286,"R"
229407,"1617 REDPOLL CT","NAPERVILLE","IL",60565,41.7397424000001,-88.1304673659999,407,"1617 REDPOLL CT, NAPERVILLE, IL, 60565","Match","Exact","1617 REDPOLL CT, NAPERVILLE, IL, 60565",112537296,"R"
229408,"1617 RIDGEVIEW ROAD","CHARLESTON","WV",25314,38.327117522,-81.6286410609999,408,"1617 RIDGEVIEW ROAD, CHARLESTON, WV, 25314","Match","Exact","1617 RIDGEVIEW RD, CHARLESTON, WV, 25314",78647755,"R"
229409,"1617 ROUTE 522","SELINSGROVE","PA",17870,40.8050941320001,-76.891429113,409,"1617 ROUTE 522, SELINSGROVE, PA, 17870","Match","Non_Exact","1617 US HWY 522, SELINSGROVE, PA, 17870",47777612,"L"
229410,"1617 RUTLEDGE STREET","MADISON","WI",53704,43.086656244,-89.3541105479999,410,"1617 RUTLEDGE STREET, MADISON, WI, 53704","Match","Exact","1617 RUTLEDGE ST, MADISON, WI, 53704",49473134,"R"
229411,"1617 S 255TH PLACE","DES MOINES","WA",98198,47.3728714330001,-122.312314975,411,"1617 S 255TH PLACE, DES MOINES, WA, 98198","Match","Exact","1617 S 255TH PL, DES MOINES, WA, 98198",186649105,"R"
229412,"1617 S ASPEN WAY","WASHINGTON","UT",84780,37.10822871,-113.484695837,412,"1617 S ASPEN WAY, WASHINGTON, UT, 84780","Match","Exact","1617 S ASPEN WAY, WASHINGTON, UT, 84780",166169187,"R"
229413,"1617 S ATLANTA PLACE","TULSA","OK",74136,NA,NA,413,"1617 S ATLANTA PLACE, TULSA, OK, 74136","No_Match",NA,NA,NA,NA
229414,"1617 S CALIFORNIA AVE APT 2","CHICAGO","IL",60608,41.858951717,-87.6956763319999,414,"1617 S CALIFORNIA AVE APT 2, CHICAGO, IL, 60608","Match","Non_Exact","1617 S CALIFORNIA AVE, CHICAGO, IL, 60608",637492874,"L"
229415,"1617 S CHEYENNE AVE","TULSA","OK",74119,36.1393149960001,-95.989594487,415,"1617 S CHEYENNE AVE, TULSA, OK, 74119","Match","Exact","1617 S CHEYENNE AVE, TULSA, OK, 74119",166441817,"L"
229416,"1617 S CLARA ST","APPLETON","WI",54915,44.2482765300001,-88.3651586239999,416,"1617 S CLARA ST, APPLETON, WI, 54915","Match","Exact","1617 S CLARA ST, APPLETON, WI, 54915",74888129,"R"
229417,"1617 S DURANGO AVE","LOS ANGELES","CA",90035,34.0505023150001,-118.388527374,417,"1617 S DURANGO AVE, LOS ANGELES, CA, 90035","Match","Exact","1617 S DURANGO AVE, LOS ANGELES, CA, 90035",141572779,"R"
229418,"1617 S FAIRMOUNT ST","SIOUX CITY","IA",51106,42.4744565760001,-96.374112817,418,"1617 S FAIRMOUNT ST, SIOUX CITY, IA, 51106","Match","Exact","1617 S FAIRMOUNT ST, SIOUX CITY, IA, 51106",93424034,"R"
229419,"1617 S GARY STREET","ANAHEIM","CA",92804,33.8082085200001,-117.949316691,419,"1617 S GARY STREET, ANAHEIM, CA, 92804","Match","Exact","1617 GARY ST, ANAHEIM, CA, 92804",144024159,"R"
229420,"1617 S LAKEMOOR WAY","EAGLE","ID",83616,43.6798037680001,-116.352222085,420,"1617 S LAKEMOOR WAY, EAGLE, ID, 83616","Match","Exact","1617 S LAKEMOOR WAY, EAGLE, ID, 83616",117973749,"L"
229421,"1617 S PALM AVE","ALHAMBRA","CA",91803,34.075244943,-118.146504834,421,"1617 S PALM AVE, ALHAMBRA, CA, 91803","Match","Exact","1617 S PALM AVE, ALHAMBRA, CA, 91803",141635680,"R"
229422,"1617 S TYLER ST","TACOMA","WA",98405,47.2458492850001,-122.492998162,422,"1617 S TYLER ST, TACOMA, WA, 98405","Match","Exact","1617 S TYLER ST, TACOMA, WA, 98405",184619995,"L"
229423,"1617 SANTA ANITA DRIVE","LYNN HAVEN","FL",32444,30.233961535,-85.6164378829999,423,"1617 SANTA ANITA DRIVE, LYNN HAVEN, FL, 32444","Match","Exact","1617 SANTA ANITA DR, LYNN HAVEN, FL, 32444",7043306,"L"
229424,"1617 SCHLOSS ROAD","NORTH CHESTERFIELD","VA",23225,37.4835529960001,-77.520006482,424,"1617 SCHLOSS ROAD, NORTH CHESTERFIELD, VA, 23225","Match","Exact","1617 SCHLOSS RD, NORTH CHESTERFIELD, VA, 23225",624048355,"R"
229425,"1617 SE 15TH ST 101","FT LAUDERDALE","FL",33316,26.1033112980001,-80.125586938,425,"1617 SE 15TH ST 101, FT LAUDERDALE, FL, 33316","Match","Non_Exact","1617 SE 15TH ST, FORT LAUDERDALE, FL, 33316",114731000,"L"
229426,"1617 SE 186TH PL","VANCOUVER","WA",98683,45.6076693850001,-122.481620155,426,"1617 SE 186TH PL, VANCOUVER, WA, 98683","Match","Exact","1617 SE 186TH PL, VANCOUVER, WA, 98683",158355298,"L"
229427,"1617 SE AIRES LANE","PORT ST. LUCIE","FL",34984,27.2928074930001,-80.347937562,427,"1617 SE AIRES LANE, PORT ST. LUCIE, FL, 34984","Match","Exact","1617 SE AIRES LN, PORT ST LUCIE, FL, 34984",120151962,"L"
229428,"1617 SE ALDER LANE DR","TOLEDO","OR",97391,44.6125791490001,-123.919792547,428,"1617 SE ALDER LANE DR, TOLEDO, OR, 97391","Match","Exact","1617 SE ALDER LANE DR, TOLEDO, OR, 97391",155942943,"R"
229429,"1617 SE HILLCREST AVE","LAWTON","OK",73501,34.5899708480001,-98.328924709,429,"1617 SE HILLCREST AVE, LAWTON, OK, 73501","Match","Non_Exact","1617 SE HILLCREST RD, LAWTON, OK, 73501",15006669,"R"
229430,"1617 SHERIDAN ROAD","SOUTH EUCLID","OH",44121,41.516036334,-81.512406356,430,"1617 SHERIDAN ROAD, SOUTH EUCLID, OH, 44121","Match","Exact","1617 SHERIDAN RD, SOUTH EUCLID, OH, 44121",61125767,"L"
229431,"1617 SLANE ROAD","WINSTON SALEM","NC",27105,NA,NA,431,"1617 SLANE ROAD, WINSTON SALEM, NC, 27105","No_Match",NA,NA,NA,NA
229432,"1617 SOUTH GRAND AVENUE","EVANSVILLE","IN",47713,37.955145444,-87.549086317,432,"1617 SOUTH GRAND AVENUE, EVANSVILLE, IN, 47713","Match","Exact","1617 S GRAND AVE, EVANSVILLE, IN, 47713",39785735,"R"
229433,"1617 SOUTH THIRD AVENUE","POCATELLO","ID",83201,42.853867833,-112.432369076,433,"1617 SOUTH THIRD AVENUE, POCATELLO, ID, 83201","Match","Exact","1617 S 3RD AVE, POCATELLO, ID, 83201",635725875,"R"
229434,"1617 SPRINGVILLE RD","NEW HOLLAND","PA",17557,40.0785630280001,-76.012942789,434,"1617 SPRINGVILLE RD, NEW HOLLAND, PA, 17557","Match","Non_Exact","1617 SPRINGVILE RD, NEW HOLLAND, PA, 17557",652292590,"L"
229435,"1617 ST ANDREWS CT","PITTSBURGH","PA",15237,40.563168841,-80.082727397,435,"1617 ST ANDREWS CT, PITTSBURGH, PA, 15237","Match","Exact","1617 SAINT ANDREWS CT, PITTSBURGH, PA, 15237",51933719,"L"
229436,"1617 ST MARYS LANE","FESTUS","MO",63028,38.225624275,-90.419925942,436,"1617 ST MARYS LANE, FESTUS, MO, 63028","Match","Exact","1617 SAINT MARYS LN, FESTUS, MO, 63028",607877900,"L"
229437,"1617 STACEY CT","RICHARDSON","TX",75081,32.9620851290001,-96.694261286,437,"1617 STACEY CT, RICHARDSON, TX, 75081","Match","Exact","1617 STACEY CT, RICHARDSON, TX, 75081",102915574,"L"
229438,"1617 SUMMIT EST","ST PAUL","MO",63366,NA,NA,438,"1617 SUMMIT EST, ST PAUL, MO, 63366","No_Match",NA,NA,NA,NA
229439,"1617 SUNSET PLACE","FORT MYERS","FL",33901,26.6215170940001,-81.8796391239999,439,"1617 SUNSET PLACE, FORT MYERS, FL, 33901","Match","Exact","1617 SUNSET PL, FORT MYERS, FL, 33901",118024652,"L"
229440,"1617 SW DAVIS STREET","PORT SAINT LUCIE","FL",34953,27.291631325,-80.39648118,440,"1617 SW DAVIS STREET, PORT SAINT LUCIE, FL, 34953","Match","Exact","1617 SW DAVIS ST, PORT ST LUCIE, FL, 34953",120137789,"R"
229441,"1617 SW MULVANE STREET","TOPEKA","KS",66604,39.038087508,-95.698957109,441,"1617 SW MULVANE STREET, TOPEKA, KS, 66604","Match","Exact","1617 SW MULVANE ST, TOPEKA, KS, 66604",17887646,"R"
229442,"1617 SWALLOW ST","NAPERVILLE","IL",60565,41.739769863,-88.128860015,442,"1617 SWALLOW ST, NAPERVILLE, IL, 60565","Match","Exact","1617 SWALLOW ST, NAPERVILLE, IL, 60565",112537301,"R"
229443,"1617 SYLVESTER ST SW","OLYMPIA","WA",98501,47.0338550720001,-122.904240273,443,"1617 SYLVESTER ST SW, OLYMPIA, WA, 98501","Match","Exact","1617 SYLVESTER ST SW, OLYMPIA, WA, 98501",180944273,"R"
229444,"1617 TACOMA POINT DRIVE","LAKE TAPPS","WA",98391,47.2433592030001,-122.183149507,444,"1617 TACOMA POINT DRIVE, LAKE TAPPS, WA, 98391","Match","Non_Exact","1617 TACOMA POINT DR E, LAKE TAPPS, WA, 98391",184715400,"L"
229445,"1617 TAMPA AVE","DAYTON","OH",45417,39.740018499,-84.222633665,445,"1617 TAMPA AVE, DAYTON, OH, 45417","Match","Exact","1617 TAMPA AVE, DAYTON, OH, 45417",143570561,"R"
229446,"1617 TWIN OAK LANE","MIDDLEBURG","FL",32068,30.112447979,-81.804199728,446,"1617 TWIN OAK LANE, MIDDLEBURG, FL, 32068","Match","Exact","1617 TWIN OAK LN, MIDDLEBURG, FL, 32068",83826838,"R"
229447,"1617 TYLER STREET FL2","ALIQUIPPA","PA",15001,40.611985879,-80.270980994,447,"1617 TYLER STREET FL2, ALIQUIPPA, PA, 15001","Match","Exact","1617 TYLER ST, ALIQUIPPA, PA, 15001",52566877,"L"
229448,"1617 VALLEY VIEW DR","BIG STONE GAP","VA",24219,NA,NA,448,"1617 VALLEY VIEW DR, BIG STONE GAP, VA, 24219","No_Match",NA,NA,NA,NA
229449,"1617 VIOLET ST","HONOLULU","HI",96819,21.3474266750001,-157.857361015,449,"1617 VIOLET ST, HONOLULU, HI, 96819","Match","Exact","1617 VIOLET ST, HONOLULU, HI, 96819",203234336,"L"
229450,"1617 VIOLET STREET","HONOLULU","HI",96819,21.3474266750001,-157.857361015,450,"1617 VIOLET STREET, HONOLULU, HI, 96819","Match","Exact","1617 VIOLET ST, HONOLULU, HI, 96819",203234336,"L"
229451,"1617 W 7TH ST","FORT WORTH","TX",76102,32.750992131,-97.3428256449999,451,"1617 W 7TH ST, FORT WORTH, TX, 76102","Match","Exact","1617 W 7TH ST, FORT WORTH, TX, 76102",101884725,"L"
229452,"1617 W DAISY BATES DRIVE","LITTLE ROCK","AR",72202,NA,NA,452,"1617 W DAISY BATES DRIVE, LITTLE ROCK, AR, 72202","No_Match",NA,NA,NA,NA
229453,"1617 W GARFIELD BLVD","CHICAGO","IL",60636,41.793657324,-87.665299219,453,"1617 W GARFIELD BLVD, CHICAGO, IL, 60636","Match","Exact","1617 W GARFIELD BLVD, CHICAGO, IL, 60636",111805732,"L"
229454,"1617 W SPRINGFIELD AVE","CHAMPAIGN","IL",61821,40.112801414,-88.2730555489999,454,"1617 W SPRINGFIELD AVE, CHAMPAIGN, IL, 61821","Match","Exact","1617 W SPRINGFIELD AVE, CHAMPAIGN, IL, 61821",8809278,"L"
229455,"1617 WEBSTER STREET","PHILADELPHIA","PA",19146,39.940875815,-75.169714551,455,"1617 WEBSTER STREET, PHILADELPHIA, PA, 19146","Match","Exact","1617 WEBSTER ST, PHILADELPHIA, PA, 19146",131407961,"R"
229456,"1617 WEST ADAMS STREET","SPRINGFIELD","IL",62704,39.800541142,-89.680507386,456,"1617 WEST ADAMS STREET, SPRINGFIELD, IL, 62704","Match","Exact","1617 W ADAMS ST, SPRINGFIELD, IL, 62704",97322118,"R"
229457,"1617 WEST BATTLE","FARWELL","MI",48622,43.7413303330001,-84.8802031559999,457,"1617 WEST BATTLE, FARWELL, MI, 48622","Match","Non_Exact","1617 W BATTLE RD, FARWELL, MI, 48622",110221649,"L"
229458,"1617 WEST KING LANE","NORMANNA","TX",78142,NA,NA,458,"1617 WEST KING LANE, NORMANNA, TX, 78142","No_Match",NA,NA,NA,NA
229459,"1617 WEST SARATOGA STREET","BALTIMORE","MD",21223,39.292129109,-76.643337994,459,"1617 WEST SARATOGA STREET, BALTIMORE, MD, 21223","Match","Exact","1617 W SARATOGA ST, BALTIMORE, MD, 21223",206417437,"L"
229460,"1617 WESTOVER ROAD","LINDEN","NJ",7036,40.630176442,-74.279061204,460,"1617 WESTOVER ROAD, LINDEN, NJ, 7036","Match","Exact","1617 WESTOVER RD, LINDEN, NJ, 07036",60575234,"L"
229461,"1617 WINDCHIME","DALLAS","TX",75224,32.6929608290001,-96.8484489269999,461,"1617 WINDCHIME, DALLAS, TX, 75224","Match","Non_Exact","1617 WINDCHIME DR, DALLAS, TX, 75224",102967219,"L"
229462,"1617 WITTENBERG BLVD E","SPRINGFIELD","OH",45506,NA,NA,462,"1617 WITTENBERG BLVD E, SPRINGFIELD, OH, 45506","No_Match",NA,NA,NA,NA
229463,"1617 WOODCREST DR","CONYERS","GA",30012,33.731219648,-83.99262154,463,"1617 WOODCREST DR, CONYERS, GA, 30012","Match","Non_Exact","1617 WOODCREST DR NE, CONYERS, GA, 30012",23740171,"R"
229464,"1617 WOODSPOINTE CIRCLE","MOBILE","AL",36609,30.657153522,-88.172034415,464,"1617 WOODSPOINTE CIRCLE, MOBILE, AL, 36609","Match","Exact","1617 WOODSPOINTE CIR, MOBILE, AL, 36609",61888305,"L"
229465,"1617 YOUNG STREET SUITE 206","HONOLULU","HI",96826,21.297626768,-157.835092942,465,"1617 YOUNG STREET SUITE 206, HONOLULU, HI, 96826","Match","Exact","1617 YOUNG ST, HONOLULU, HI, 96826",637750924,"R"
229466,"1617-A CARRIAGE HOUSE TERRACE","SILVER SPRING","MD",20904,39.049015071,-76.9794918649999,466,"1617-A CARRIAGE HOUSE TERRACE, SILVER SPRING, MD, 20904","Match","Exact","1617 CARRIAGE HOUSE TER, SILVER SPRING, MD, 20904",62078945,"L"
229467,"16170 COUNTY ROAD 97A","WOODLAND","CA",95695,38.7057839330001,-121.81440418,467,"16170 COUNTY ROAD 97A, WOODLAND, CA, 95695","Match","Exact","16170 CO RD 97A, WOODLAND, CA, 95695",67688647,"R"
229468,"16170 HURON CT","LAKEVILLE","MN",55044,44.7155658900001,-93.244266797,468,"16170 HURON CT, LAKEVILLE, MN, 55044","Match","Exact","16170 HURON CT, LAKEVILLE, MN, 55044",37925294,"L"
229469,"16170 HWY 51","HAZLEHURST","MS",39083,31.882276357,-90.400152697,469,"16170 HWY 51, HAZLEHURST, MS, 39083","Match","Exact","16170 HWY 51, HAZLEHURST, MS, 39083",612372694,"R"
229470,"16170 JONES MALTSBERGER RD STE 200","SAN ANTONIO","TX",78247,29.589693493,-98.438880629,470,"16170 JONES MALTSBERGER RD STE 200, SAN ANTONIO, TX, 78247","Match","Exact","16170 JONES MALTSBERGER RD, SAN ANTONIO, TX, 78247",101726271,"R"
229471,"16170 RENEE CT","ANDERSON","CA",96007,NA,NA,471,"16170 RENEE CT, ANDERSON, CA, 96007","No_Match",NA,NA,NA,NA
229472,"16171 CAMINO DEL SOL","LOS GATOS","CA",95032,NA,NA,472,"16171 CAMINO DEL SOL, LOS GATOS, CA, 95032","No_Match",NA,NA,NA,NA
229473,"16171 INDIANA ST","DETROIT","MI",48221,42.410282953,-83.157864526,473,"16171 INDIANA ST, DETROIT, MI, 48221","Match","Exact","16171 INDIANA ST, DETROIT, MI, 48221",95426012,"L"
229474,"16171 MAGNOLIA GROVE WAY","JACKSONVILLE","FL",32218,30.5351431130001,-81.615399709,474,"16171 MAGNOLIA GROVE WAY, JACKSONVILLE, FL, 32218","Match","Exact","16171 MAGNOLIA GROVE WAY, JACKSONVILLE, FL, 32218",640967043,"L"
229475,"16171 SHORT RD","LOS GATOS","CA",95032,37.233518308,-121.949136069,475,"16171 SHORT RD, LOS GATOS, CA, 95032","Match","Exact","16171 SHORT RD, LOS GATOS, CA, 95032",614044162,"L"
229476,"16171 ST HWY 87 S","KIRBYVILLE","TX",75956,30.62974991,-93.8087796309999,476,"16171 ST HWY 87 S, KIRBYVILLE, TX, 75956","Match","Non_Exact","16171 OLD HWY 87, KIRBYVILLE, TX, 75956",177224611,"R"
229477,"16173 HWY 126","SISTERS","OR",97759,44.287741381,-121.523071526,477,"16173 HWY 126, SISTERS, OR, 97759","Match","Exact","16173 HWY 126, SISTERS, OR, 97759",152564509,"R"
229478,"16173 N 700 W","ELWOOD","IN",46036,40.338774647,-85.804784473,478,"16173 N 700 W, ELWOOD, IN, 46036","Match","Non_Exact","16173 N CO RD 700 W, ELWOOD, IN, 46036",31105463,"L"
229479,"16174 SW 108TH AVE APT 175","TIGARD","OR",97224,45.403070368,-122.78783709,479,"16174 SW 108TH AVE APT 175, TIGARD, OR, 97224","Match","Non_Exact","16174 SW 108TH AVE, TIGARD, OR, 97224",627653745,"L"
229480,"16174 WATO ROAD","APPLE VALLEY","CA",92307,34.545303683,-117.274903334,480,"16174 WATO ROAD, APPLE VALLEY, CA, 92307","Match","Exact","16174 WATO RD, APPLE VALLEY, CA, 92307",614841187,"L"
229481,"16175 CLEVELAND ST APT 514","REDMOND","WA",98054,47.6737834570001,-122.124627631,481,"16175 CLEVELAND ST APT 514, REDMOND, WA, 98054","Match","Non_Exact","16175 CLEVELAND ST, REDMOND, WA, 98052",186610579,"R"
229482,"16175 HIGHWAY 49","MARVELL","AR",72366,NA,NA,482,"16175 HIGHWAY 49, MARVELL, AR, 72366","No_Match",NA,NA,NA,NA
229483,"16175 NW 22ND STREET","PEMBROKE PINES","FL",33028,26.0274997820001,-80.363101128,483,"16175 NW 22ND STREET, PEMBROKE PINES, FL, 33028","Match","Exact","16175 NW 22ND ST, PEMBROKE PINES, FL, 33028",114801534,"R"
229484,"16175 NW PUDDY GULCH RD","YAMHILL","OR",97148,45.31632804,-123.281653028,484,"16175 NW PUDDY GULCH RD, YAMHILL, OR, 97148","Match","Exact","16175 NW PUDDY GULCH RD, YAMHILL, OR, 97148",605768819,"R"
229485,"16175 SE 179TH ST","WEIRSDALE","FL",32195,28.961090884,-81.884720138,485,"16175 SE 179TH ST, WEIRSDALE, FL, 32195","Match","Exact","16175 SE 179TH ST, WEIRSDALE, FL, 32195",648204538,"L"
229486,"16175 SW BALER WAY","SHERWOOD","OR",97140,45.364288147,-122.842824539,486,"16175 SW BALER WAY, SHERWOOD, OR, 97140","Match","Exact","16175 SW BALER WAY, SHERWOOD, OR, 97140",158217920,"R"
229487,"16176 PEBBLE BEACH LANE","CHINO HILLS","CA",91709,33.959617199,-117.71615809,487,"16176 PEBBLE BEACH LANE, CHINO HILLS, CA, 91709","Match","Exact","16176 PEBBLE BEACH LN, CHINO HILLS, CA, 91709",144968469,"R"
229488,"16176 PINE LAKE FOREST DRIVE","LINDEN","MI",48451,42.7932900160001,-83.773872527,488,"16176 PINE LAKE FOREST DRIVE, LINDEN, MI, 48451","Match","Exact","16176 PINE LAKE FOREST DR, LINDEN, MI, 48451",647468035,"L"
229489,"16176 RADBURN ST","WOODBRIDGE","VA",22191,38.6015000580001,-77.290548921,489,"16176 RADBURN ST, WOODBRIDGE, VA, 22191","Match","Exact","16176 RADBURN ST, WOODBRIDGE, VA, 22191",619942981,"R"
229490,"16176 SW CAMPBELL RD","HILLSBORO","OR",97123,45.4026962350001,-122.992481269,490,"16176 SW CAMPBELL RD, HILLSBORO, OR, 97123","Match","Exact","16176 SW CAMPBELL RD, HILLSBORO, OR, 97123",158181514,"R"
229491,"16176 W SUNSET BLVD APT B","PACIFIC PALISADES","CA",90272,34.048540954,-118.538010127,491,"16176 W SUNSET BLVD APT B, PACIFIC PALISADES, CA, 90272","Match","Exact","16176 SUNSET BLVD, PACIFIC PALISADES, CA, 90272",141557428,"L"
229492,"16177 ASHMUN RD","BRIAINERD","MN",56401,46.385943825,-94.18380803,492,"16177 ASHMUN RD, BRIAINERD, MN, 56401","Match","Non_Exact","16177 ASHMUN RD, BRAINERD, MN, 56401",642134614,"L"
229493,"16177 CHARLETON DRIVE","HAMMOND","LA",70401,30.5444162680001,-90.457803998,493,"16177 CHARLETON DRIVE, HAMMOND, LA, 70401","Match","Exact","16177 CHARLETON DR, HAMMOND, LA, 70401",612187848,"L"
229494,"16177 HIGH TOR DR","HACIENDA HEIGHTS","CA",91745,33.9753918580001,-117.960497016,494,"16177 HIGH TOR DR, HACIENDA HEIGHTS, CA, 91745","Match","Exact","16177 HIGH TOR DR, HACIENDA HTS, CA, 91745",141756237,"R"
229495,"16177 N 158TH AVENUE","SURPRISE","AZ",85374,33.6307433530001,-112.39965477,495,"16177 N 158TH AVENUE, SURPRISE, AZ, 85374","Match","Exact","16177 N 158TH AVE, SURPRISE, AZ, 85374",128414096,"R"
229496,"16177 W WHITTON AVE","GOODYEAR","AZ",85395,33.488673524,-112.40632061,496,"16177 W WHITTON AVE, GOODYEAR, AZ, 85395","Match","Exact","16177 W WHITTON AVE, GOODYEAR, AZ, 85395",128850670,"L"
229497,"16177 WISCONSIN","DETROIT","MI",48221,42.4103249450001,-83.156772491,497,"16177 WISCONSIN, DETROIT, MI, 48221","Match","Non_Exact","16177 WISCONSIN ST, DETROIT, MI, 48221",95426014,"L"
229498,"16179 HILL FOREST DR","LINDEN","MI",48451,42.7917239290001,-83.774183361,498,"16179 HILL FOREST DR, LINDEN, MI, 48451","Match","Exact","16179 HILL FOREST DR, LINDEN, MI, 48451",631742115,"L"
229499,"16179 LAUREL DRIVE","WESTON","FL",33326,26.1126656710001,-80.368015369,499,"16179 LAUREL DRIVE, WESTON, FL, 33326","Match","Exact","16179 LAUREL DR, WESTON, FL, 33326",114698506,"L"
229500,"16179 OXLEY RD APT 102","SOUTHFIELD","MI",48075,42.462282257,-83.2080418369999,500,"16179 OXLEY RD APT 102, SOUTHFIELD, MI, 48075","Match","Exact","16179 OXLEY RD, SOUTHFIELD, MI, 48075",630371366,"L"
