"ID","Address","City","State","Zip","lat","long","id","input_address","match_indicator","match_type","matched_address","tiger_line_id","tiger_side"
23001,"1020 WEST  PEACE STREET APT T4","RALEIGH","NC",27605,35.788630299,-78.653050088,1,"1020 WEST  PEACE STREET APT T4, RALEIGH, NC, 27605","Match","Exact","1020 W PEACE ST, RALEIGH, NC, 27605",72503406,"R"
23002,"1020 WEST 6TH STREET","WEST PLAINS","MO",65775,36.736851245,-91.8677763479999,2,"1020 WEST 6TH STREET, WEST PLAINS, MO, 65775","Match","Exact","1020 W 6TH ST, WEST PLAINS, MO, 65775",33313527,"L"
23003,"1020 WEST ATHERTON DR SUITE 220","TAYLORSVILLE","UT",84123,40.6707668600001,-111.919132322,3,"1020 WEST ATHERTON DR SUITE 220, TAYLORSVILLE, UT, 84123","Match","Non_Exact","1020 ATHERTON DR, TAYLORSVILLE, UT, 84123",176110278,"R"
23004,"1020 WEST ATHERTON DRIVE SUITE 220","TAYLORSVILLE","UT",84123,40.6707668600001,-111.919132322,4,"1020 WEST ATHERTON DRIVE SUITE 220, TAYLORSVILLE, UT, 84123","Match","Non_Exact","1020 ATHERTON DR, TAYLORSVILLE, UT, 84123",176110278,"R"
23005,"1020 WEST GALBRAITH AVENUE","CINCINNATI","OH",45231,39.21595481,-84.523348762,5,"1020 WEST GALBRAITH AVENUE, CINCINNATI, OH, 45231","Match","Non_Exact","1020 W GALBRAITH RD, CINCINNATI, OH, 45231",103923276,"R"
23006,"1020 WEST HIGHLAND ACRES ROAD","BISMARCK","ND",58501,46.8149016620001,-100.814684396,6,"1020 WEST HIGHLAND ACRES ROAD, BISMARCK, ND, 58501","Match","Exact","1020 W HIGHLAND ACRES RD, BISMARCK, ND, 58501",198847341,"L"
23007,"1020 WEST JASMINE LANE","NORTH LAUDERDALE","FL",33068,26.21326133,-80.210288496,7,"1020 WEST JASMINE LANE, NORTH LAUDERDALE, FL, 33068","Match","Exact","1020 W JASMINE LN, N LAUDERDALE, FL, 33068",648353061,"R"
23008,"1020 WEST MEDICINE LAKE DR","PLYMOUTH","MN",55441,44.989237528,-93.423904412,8,"1020 WEST MEDICINE LAKE DR, PLYMOUTH, MN, 55441","Match","Exact","1020 W MEDICINE LAKE DR, PLYMOUTH, MN, 55441",640284412,"R"
23009,"1020 WEST MISSOURI AVE","PHOENIX","AZ",85013,33.5166821350001,-112.085760093,9,"1020 WEST MISSOURI AVE, PHOENIX, AZ, 85013","Match","Exact","1020 W MISSOURI AVE, PHOENIX, AZ, 85013",128322169,"R"
23010,"1020 WEST STREET","PANAMA CITY","FL",32404,30.1286901930001,-85.6078455099999,10,"1020 WEST STREET, PANAMA CITY, FL, 32404","Match","Exact","1020 WEST ST, PANAMA CITY, FL, 32404",7031660,"R"
23011,"1020 WEST SUPERIOR","ALMA","MI",48801,43.3790222120001,-84.675401791,11,"1020 WEST SUPERIOR, ALMA, MI, 48801","Match","Non_Exact","1020 W SUPERIOR ST, ALMA, MI, 48801",80160564,"R"
23012,"1020 WESTSIDE DRIVE","MT ZION","IL",62549,39.7804641980001,-88.8887380689999,12,"1020 WESTSIDE DRIVE, MT ZION, IL, 62549","Match","Exact","1020 WESTSIDE DR, MT ZION, IL, 62549",645471501,"L"
23013,"1020 WHITLOW BLVD","SUMMERVILLE","SC",29483,33.004500056,-80.258809291,13,"1020 WHITLOW BLVD, SUMMERVILLE, SC, 29483","Match","Exact","1020 WHITLOW BLVD, SUMMERVILLE, SC, 29483",646638804,"L"
23014,"1020 WINDWARD DRIVE","PEMBROKE PINES","FL",33026,26.015993198,-80.2954863749999,14,"1020 WINDWARD DRIVE, PEMBROKE PINES, FL, 33026","Match","Exact","1020 WINDWARD DR, PEMBROKE PINES, FL, 33026",114700933,"R"
23015,"1020 WOODFIELD CIRCLE","PALM BEACH GARDENS","FL",33418,26.814125704,-80.121718417,15,"1020 WOODFIELD CIRCLE, PALM BEACH GARDENS, FL, 33418","Match","Exact","1020 WOODFIELD CIR, PALM BEACH GARDENS, FL, 33418",115548728,"R"
23016,"1020 WOODGLEN LN","MATTHEW","NC",28104,35.0789426050001,-80.706630783,16,"1020 WOODGLEN LN, MATTHEW, NC, 28104","Match","Non_Exact","1020 WOODGLEN LN, MATTHEWS, NC, 28104",634087039,"R"
23017,"1020 WOODLANE ROAD","EDGEWATER","NJ",8019,NA,NA,17,"1020 WOODLANE ROAD, EDGEWATER, NJ, 8019","No_Match",NA,NA,NA,NA
23018,"1020 YUCCA","BURKBURNETT","TX",76354,34.0690435770001,-98.54988421,18,"1020 YUCCA, BURKBURNETT, TX, 76354","Match","Non_Exact","1020 YUCCA ST, BURKBURNETT, TX, 76354",169853497,"L"
23019,"1020","MEDINA","OH",44256,NA,NA,19,"1020, MEDINA, OH, 44256","No_Match",NA,NA,NA,NA
23020,"10200 BELLE RIVE BLVD APT 23","JACKSONVILLE","FL",32256,30.209915214,-81.551954139,20,"10200 BELLE RIVE BLVD APT 23, JACKSONVILLE, FL, 32256","Match","Exact","10200 BELLE RIVE BV, JACKSONVILLE, FL, 32256",83973239,"L"
23021,"10200 BELLE RIVE BLVD UNIT 30","JACKSONVILLE","FL",32256,30.209915214,-81.551954139,21,"10200 BELLE RIVE BLVD UNIT 30, JACKSONVILLE, FL, 32256","Match","Exact","10200 BELLE RIVE BV, JACKSONVILLE, FL, 32256",83973239,"L"
23022,"10200 BELLE RIVE BLVD UNIT 37","JACKSONVILLE","FL",32254,30.209915214,-81.551954139,22,"10200 BELLE RIVE BLVD UNIT 37, JACKSONVILLE, FL, 32254","Match","Non_Exact","10200 BELLE RIVE BV, JACKSONVILLE, FL, 32256",83973239,"L"
23023,"10200 BLACKBERRY ST","MCKINNEY","TX",75072,33.1969977090001,-96.7553174619999,23,"10200 BLACKBERRY ST, MCKINNEY, TX, 75072","Match","Exact","10200 BLACKBERRY ST, MCKINNEY, TX, 75072",642945628,"L"
23024,"10200 BOLSA  AVE SPC 64","WESTMINSTER","CA",92683,33.744959286,-117.951113199,24,"10200 BOLSA  AVE SPC 64, WESTMINSTER, CA, 92683","Match","Exact","10200 BOLSA AVE, WESTMINSTER, CA, 92683",630985178,"R"
23025,"10200 BOLSA AVE SPC 64","WESTMINSTER","CA",92683,33.744959286,-117.951113199,25,"10200 BOLSA AVE SPC 64, WESTMINSTER, CA, 92683","Match","Exact","10200 BOLSA AVE, WESTMINSTER, CA, 92683",630985178,"R"
23026,"10200 CAVE AVE","BAKERSFIELD","CA",93312,35.3918457400001,-119.116016416,26,"10200 CAVE AVE, BAKERSFIELD, CA, 93312","Match","Exact","10200 CAVE AVE, BAKERSFIELD, CA, 93312",109132549,"R"
23027,"10200 CHERRY TREE LANE","SILVER SPRING","MD",20901,39.0228218620001,-77.0052672309999,27,"10200 CHERRY TREE LANE, SILVER SPRING, MD, 20901","Match","Exact","10200 CHERRY TREE LN, SILVER SPRING, MD, 20901",62065231,"L"
23028,"10200 CIMA MESA RD","LITTLEROCK","CA",93543,34.446228793,-117.946970305,28,"10200 CIMA MESA RD, LITTLEROCK, CA, 93543","Match","Exact","10200 CIMA MESA RD, LITTLEROCK, CA, 93543",241108569,"R"
23029,"10200 CITY WALK DRIVE APT 341","WOODBURY","MN",55129,44.943743897,-92.899661506,29,"10200 CITY WALK DRIVE APT 341, WOODBURY, MN, 55129","Match","Exact","10200 CITY WALK DR, WOODBURY, MN, 55129",614153793,"L"
23030,"10200 CORAL CREEK RD","CORAL GABLES","FL",33156,25.676612349,-80.283021065,30,"10200 CORAL CREEK RD, CORAL GABLES, FL, 33156","Match","Exact","10200 CORAL CREEK RD, CORAL GABLES, FL, 33156",115985800,"R"
23031,"10200 DIXIE HWY","LOUISVILLE","KY",40272,38.1075101230001,-85.866808852,31,"10200 DIXIE HWY, LOUISVILLE, KY, 40272","Match","Exact","10200 DIXIE HWY, LOUISVILLE, KY, 40272",640120626,"R"
23032,"10200 DWELL COURT NUM 214","ORLANDO","FL",32832,28.381963254,-81.244276767,32,"10200 DWELL COURT NUM 214, ORLANDO, FL, 32832","Match","Exact","10200 DWELL CT, ORLANDO, FL, 32832",646615821,"R"
23033,"10200 DWELL CT APT 310","ORLANDO","FL",32832,28.381963254,-81.244276767,33,"10200 DWELL CT APT 310, ORLANDO, FL, 32832","Match","Exact","10200 DWELL CT, ORLANDO, FL, 32832",646615821,"R"
23034,"10200 E DRY CREEK RD UNIT 2-102","ENGLEWOOD","CO",80112,39.580787651,-104.87024913,34,"10200 E DRY CREEK RD UNIT 2-102, ENGLEWOOD, CO, 80112","Match","Non_Exact","10200 E DRY CREEK RD, ENGLEWOOD, CO, 80112",617958238,"R"
23035,"10200 E GIRARD AVE STE C204","DENVER","CO",80231,39.655735592,-104.869051442,35,"10200 E GIRARD AVE STE C204, DENVER, CO, 80231","Match","Non_Exact","10200 E GIRARD AVE, DENVER, CO, 80231",646605549,"R"
23036,"10200 E KENTUCKY CIR APT 306","DENVER","CO",80246,NA,NA,36,"10200 E KENTUCKY CIR APT 306, DENVER, CO, 80246","No_Match",NA,NA,NA,NA
23037,"10200 E VICKSBURG","TUCSON","AZ",85748,32.223285585,-110.774947718,37,"10200 E VICKSBURG, TUCSON, AZ, 85748","Match","Non_Exact","10200 E VICKSBURG ST, TUCSON, AZ, 85748",121188441,"R"
23038,"10200 FIRWOOD DRIVE","CUPERTINO","CA",95014,37.320063197,-122.074472897,38,"10200 FIRWOOD DRIVE, CUPERTINO, CA, 95014","Match","Exact","10200 FIRWOOD DR, CUPERTINO, CA, 95014",122936227,"L"
23039,"10200 FOREST GREEN ROAD","LOUISVILLE","KY",40222,NA,NA,39,"10200 FOREST GREEN ROAD, LOUISVILLE, KY, 40222","No_Match",NA,NA,NA,NA
23040,"10200 GOOSE CREEK LN","CONROE","TX",77384,NA,NA,40,"10200 GOOSE CREEK LN, CONROE, TX, 77384","No_Match",NA,NA,NA,NA
23041,"10200 GRANGER RD SUITE 209","GARFIELD HTS","OH",44125,41.4170505760001,-81.61262419,41,"10200 GRANGER RD SUITE 209, GARFIELD HTS, OH, 44125","Match","Exact","10200 GRANGER RD, GARFIELD HEIGHTS, OH, 44125",61157319,"R"
23042,"10200 HEMLOCK WAY","JONESBORO","GA",30238,33.4779631010001,-84.383392374,42,"10200 HEMLOCK WAY, JONESBORO, GA, 30238","Match","Exact","10200 HEMLOCK WAY, JONESBORO, GA, 30238",645216421,"L"
23043,"10200 HERTZFELD ROAD","WATERVILLE","OH",43566,NA,NA,43,"10200 HERTZFELD ROAD, WATERVILLE, OH, 43566","No_Match",NA,NA,NA,NA
23044,"10200 HOLLAND","TAYLOR","MI",48180,42.2318087260001,-83.298143093,44,"10200 HOLLAND, TAYLOR, MI, 48180","Match","Non_Exact","10200 HOLLAND RD, TAYLOR, MI, 48180",647881350,"R"
23045,"10200 INDEPENDENCE PARKWAY 612","PLANO","TX",75025,33.116466303,-96.7507115349999,45,"10200 INDEPENDENCE PARKWAY 612, PLANO, TX, 75025","Match","Exact","10200 INDEPENDENCE PKWY, PLANO, TX, 75025",632071440,"L"
23046,"10200 INDEPENDENCE PARKWAY 722","PLANO","TX",75025,33.116466303,-96.7507115349999,46,"10200 INDEPENDENCE PARKWAY 722, PLANO, TX, 75025","Match","Exact","10200 INDEPENDENCE PKWY, PLANO, TX, 75025",632071440,"L"
23047,"10200 INDEPENDENCE PKWY APT 122","PLANO","TX",75025,33.116466303,-96.7507115349999,47,"10200 INDEPENDENCE PKWY APT 122, PLANO, TX, 75025","Match","Exact","10200 INDEPENDENCE PKWY, PLANO, TX, 75025",632071440,"L"
23048,"10200 INDEPENDENCE PKWY APT 701","PLANO","TX",75025,33.116466303,-96.7507115349999,48,"10200 INDEPENDENCE PKWY APT 701, PLANO, TX, 75025","Match","Exact","10200 INDEPENDENCE PKWY, PLANO, TX, 75025",632071440,"L"
23049,"10200 INDEPENDENCE PKWY","PLANO","TX",75025,33.116466303,-96.7507115349999,49,"10200 INDEPENDENCE PKWY, PLANO, TX, 75025","Match","Exact","10200 INDEPENDENCE PKWY, PLANO, TX, 75025",632071440,"L"
23050,"10200 KENSINGTON PKWY","KENSINGTON","MD",20895,39.023458756,-77.071880794,50,"10200 KENSINGTON PKWY, KENSINGTON, MD, 20895","Match","Exact","10200 KENSINGTON PKWY, KENSINGTON, MD, 20895",62062546,"L"
23051,"10200 LINN STATION RD","LOUISVILLE","KY",40223,38.224633311,-85.5663505749999,51,"10200 LINN STATION RD, LOUISVILLE, KY, 40223","Match","Exact","10200 LINN STATION RD, LOUISVILLE, KY, 40223",96864727,"R"
23052,"10200 MEADOW RIDGES LANE","KNOXVILLE","TN",37922,35.8556344950001,-84.10528032,52,"10200 MEADOW RIDGES LANE, KNOXVILLE, TN, 37922","Match","Exact","10200 MEADOW RIDGES LN, KNOXVILLE, TN, 37922",604623918,"L"
23053,"10200 MEMPHIS AVE","BROOKLYN","OH",44044,41.4401702490001,-81.757620945,53,"10200 MEMPHIS AVE, BROOKLYN, OH, 44044","Match","Non_Exact","10200 MEMPHIS AVE, BROOKLYN, OH, 44144",61105040,"R"
23054,"10200 MILLER AVE APT 327","CUPERTINO","CA",95014,NA,NA,54,"10200 MILLER AVE APT 327, CUPERTINO, CA, 95014","No_Match",NA,NA,NA,NA
23055,"10200 MILLER AVE APT 401","CUPERTINO","CA",95014,NA,NA,55,"10200 MILLER AVE APT 401, CUPERTINO, CA, 95014","No_Match",NA,NA,NA,NA
23056,"10200 MOONEY LN","AMARILLO","TX",79119,35.0623519740001,-101.955427448,56,"10200 MOONEY LN, AMARILLO, TX, 79119","Match","Exact","10200 MOONEY LN, AMARILLO, TX, 79119",651950528,"L"
23057,"10200 N ARMENIA APT 3805","TAMPA","FL",33612,NA,NA,57,"10200 N ARMENIA APT 3805, TAMPA, FL, 33612","No_Match",NA,NA,NA,NA
23058,"10200 N LOOP ROAD","PENSACOLA","FL",32507,30.3513636270001,-87.358853355,58,"10200 N LOOP ROAD, PENSACOLA, FL, 32507","Match","Exact","10200 N LOOP RD, PENSACOLA, FL, 32507",638633398,"L"
23059,"10200 N PORT WASHINGTON RD STE 101","MEQUON","WI",53092,43.2058528740001,-87.9242815379999,59,"10200 N PORT WASHINGTON RD STE 101, MEQUON, WI, 53092","Match","Non_Exact","10200 N PORT WASHINGTON RD, MEQUON, WI, 53092",95903691,"R"
23060,"10200 N STELLING RD","CUPERTINO","CA",95014,37.3253125800001,-122.041513001,60,"10200 N STELLING RD, CUPERTINO, CA, 95014","Match","Exact","10200 N STELLING RD, CUPERTINO, CA, 95014",635453262,"R"
23061,"10200 NE 27TH CIRCLE","VANCOUVER","WA",98662,45.6416891650001,-122.567903284,61,"10200 NE 27TH CIRCLE, VANCOUVER, WA, 98662","Match","Exact","10200 NE 27TH CIR, VANCOUVER, WA, 98662",158328931,"L"
23062,"10200 NIGHTOWL CREEK PL","LAS VEGAS","NV",89144,36.1749954100001,-115.319914476,62,"10200 NIGHTOWL CREEK PL, LAS VEGAS, NV, 89144","Match","Exact","10200 NIGHTOWL CREEK PL, LAS VEGAS, NV, 89144",201924584,"L"
23063,"10200 NORTH ARMENIA AVE 2606","TAMPA","FL",33612,28.0418205620001,-82.479795516,63,"10200 NORTH ARMENIA AVE 2606, TAMPA, FL, 33612","Match","Exact","10200 N ARMENIA AVE, TAMPA, FL, 33612",104517311,"L"
23064,"10200 OLD COLCHESTER ROAD","LORTON","VA",22079,38.6816481110001,-77.219144319,64,"10200 OLD COLCHESTER ROAD, LORTON, VA, 22079","Match","Exact","10200 OLD COLCHESTER RD, LORTON, VA, 22079",653501351,"R"
23065,"10200 OXFORD MILL DRIVE","ALPHARETTA","GA",30022,34.0302798480001,-84.235444307,65,"10200 OXFORD MILL DRIVE, ALPHARETTA, GA, 30022","Match","Exact","10200 OXFORD MILL DR, ALPHARETTA, GA, 30022",17383635,"R"
23066,"10200 PYRAMID PEAK DR","BAKERSFIELD","CA",93311,35.3134991680001,-119.115466189,66,"10200 PYRAMID PEAK DR, BAKERSFIELD, CA, 93311","Match","Exact","10200 PYRAMID PEAK DR, BAKERSFIELD, CA, 93311",614126665,"R"
23067,"10200 RICHSMITH LN APT 213","MABLEVALE","AR",72103,34.663943348,-92.385699191,67,"10200 RICHSMITH LN APT 213, MABLEVALE, AR, 72103","Match","Non_Exact","10200 RICHSMITH LN, MABELVALE, AR, 72103",641822248,"L"
23068,"10200 ROAD 2808","PHILADELPHIA","MS",39350,NA,NA,68,"10200 ROAD 2808, PHILADELPHIA, MS, 39350","No_Match",NA,NA,NA,NA
23069,"10200 S 56TH ST","LINCOLN","NE",68516,40.708931878,-96.644421777,69,"10200 S 56TH ST, LINCOLN, NE, 68516","Match","Exact","10200 S 56TH ST, LINCOLN, NE, 68516",28274251,"L"
23070,"10200 S MCALISTER RD","ISLAND CITY","OR",97850,45.3399646460001,-118.045312909,70,"10200 S MCALISTER RD, ISLAND CITY, OR, 97850","Match","Exact","10200 S MCALISTER RD, ISLAND CITY, OR, 97850",138853722,"L"
23071,"10200 SE 120TH STREET","LEXINGTON","OK",73051,35.0944060460001,-97.265239793,71,"10200 SE 120TH STREET, LEXINGTON, OK, 73051","Match","Exact","10200 120TH ST, LEXINGTON, OK, 73051",99955037,"L"
23072,"10200 SE 129TH STREET","LEXINGTON","OK",73051,NA,NA,72,"10200 SE 129TH STREET, LEXINGTON, OK, 73051","No_Match",NA,NA,NA,NA
23073,"10200 SE 57 ST","OKLAHOMA CITY","OK",73150,35.408539037,-97.349945539,73,"10200 SE 57 ST, OKLAHOMA CITY, OK, 73150","Match","Exact","10200 SE 57TH ST, OKLAHOMA CITY, OK, 73150",100433302,"R"
23074,"10200 SPRING RUN ROAD","MIDLOTHIAN","VA",23832,37.3720561010001,-77.598749391,74,"10200 SPRING RUN ROAD, MIDLOTHIAN, VA, 23832","Match","Non_Exact","10200 SPRING RUN RD, CHESTERFIELD, VA, 23832",201527358,"L"
23075,"10200 SW 21ST STREET","MIRAMAR","FL",33025,25.9906662340001,-80.281686357,75,"10200 SW 21ST STREET, MIRAMAR, FL, 33025","Match","Exact","10200 SW 21ST ST, MIRAMAR, FL, 33025",114798348,"R"
23076,"10200 SW 21ST STREET","MIRARMAR","FL",33025,25.9906662340001,-80.281686357,76,"10200 SW 21ST STREET, MIRARMAR, FL, 33025","Match","Non_Exact","10200 SW 21ST ST, MIRAMAR, FL, 33025",114798348,"R"
23077,"10200 SW 49TH AVE","OCALA","FL",34476,29.0747653650001,-82.202144203,77,"10200 SW 49TH AVE, OCALA, FL, 34476","Match","Exact","10200 SW 49TH AVE, OCALA, FL, 34476",116717924,"L"
23078,"10200 UNICORN WAY","ROCKVILLE","MD",20850,39.0886435250001,-77.212799488,78,"10200 UNICORN WAY, ROCKVILLE, MD, 20850","Match","Exact","10200 UNICORN WAY, ROCKVILLE, MD, 20850",618605792,"R"
23079,"10200 US HWY 290 W 301","AUSTIN","TX",78736,NA,NA,79,"10200 US HWY 290 W 301, AUSTIN, TX, 78736","No_Match",NA,NA,NA,NA
23080,"10200 US HWY 290 W STE 301","AUSTIN","TX",78736,NA,NA,80,"10200 US HWY 290 W STE 301, AUSTIN, TX, 78736","No_Match",NA,NA,NA,NA
23081,"10200 WOLFTRAP DR","AUSTIN","TX",78749,30.183591263,-97.856827424,81,"10200 WOLFTRAP DR, AUSTIN, TX, 78749","Match","Exact","10200 WOLFTRAP DR, AUSTIN, TX, 78749",63991036,"R"
23082,"10200 WOODVIEW DR","OKLAHOMA CITY","OK",73175,35.365469343,-97.3078760129999,82,"10200 WOODVIEW DR, OKLAHOMA CITY, OK, 73175","Match","Non_Exact","10200 WOODVIEW DR, OKLAHOMA CITY, OK, 73165",99909504,"L"
23083,"10200","ISLAND CITY","OR",97850,NA,NA,83,"10200, ISLAND CITY, OR, 97850","No_Match",NA,NA,NA,NA
23084,"10201 AQUA AZUL CT","AUSTIN","TX",78733,30.3353112930001,-97.8762344309999,84,"10201 AQUA AZUL CT, AUSTIN, TX, 78733","Match","Exact","10201 AQUA AZUL CT, AUSTIN, TX, 78733",63924819,"L"
23085,"10201 BALTIMORE AVENUE  APT 5110","COLLEGE PARK","MD",20740,39.021044105,-76.925422117,85,"10201 BALTIMORE AVENUE  APT 5110, COLLEGE PARK, MD, 20740","Match","Exact","10201 BALTIMORE AVE, COLLEGE PARK, MD, 20740",613197640,"R"
23086,"10201 BALTIMORE AVENUE APT 5301","COLLEGE PARK","MD",20740,39.021044105,-76.925422117,86,"10201 BALTIMORE AVENUE APT 5301, COLLEGE PARK, MD, 20740","Match","Exact","10201 BALTIMORE AVE, COLLEGE PARK, MD, 20740",613197640,"R"
23087,"10201 BALTIMORE AVENUE APT 5407","COLLEGE PARK","MD",20740,39.021044105,-76.925422117,87,"10201 BALTIMORE AVENUE APT 5407, COLLEGE PARK, MD, 20740","Match","Exact","10201 BALTIMORE AVE, COLLEGE PARK, MD, 20740",613197640,"R"
23088,"10201 BLITZEN DR","LAREDO","TX",78045,27.592927516,-99.5144553009999,88,"10201 BLITZEN DR, LAREDO, TX, 78045","Match","Exact","10201 BLITZEN DR, LAREDO, TX, 78045",618462112,"L"
23089,"10201 BUFFALO RIDGE ROAD","EDMOND","OK",73025,NA,NA,89,"10201 BUFFALO RIDGE ROAD, EDMOND, OK, 73025","No_Match",NA,NA,NA,NA
23090,"10201 BUFFALO SPEEDWAY APT 5212","HOUSTON","TX",77054,29.6719170590001,-95.4247793659999,90,"10201 BUFFALO SPEEDWAY APT 5212, HOUSTON, TX, 77054","Match","Exact","10201 BUFFALO SPEEDWAY, HOUSTON, TX, 77054",649105313,"R"
23091,"10201 BUFFALO SPEEDWAY UNIT 4220","HOUSTON","TX",77054,29.6719170590001,-95.4247793659999,91,"10201 BUFFALO SPEEDWAY UNIT 4220, HOUSTON, TX, 77054","Match","Exact","10201 BUFFALO SPEEDWAY, HOUSTON, TX, 77054",649105313,"R"
23092,"10201 BUFFALO SPEEDWAY","HOUSTON","TX",77054,29.6719170590001,-95.4247793659999,92,"10201 BUFFALO SPEEDWAY, HOUSTON, TX, 77054","Match","Exact","10201 BUFFALO SPEEDWAY, HOUSTON, TX, 77054",649105313,"R"
23093,"10201 CHILLICOTHE ROAD","KIRTLAND","OH",44094,41.5946400780001,-81.348600018,93,"10201 CHILLICOTHE ROAD, KIRTLAND, OH, 44094","Match","Exact","10201 CHILLICOTHE RD, KIRTLAND, OH, 44094",137464175,"L"
23094,"10201 COLLINS AVE APT 807S","BAL HARBOUR","FL",33140,NA,NA,94,"10201 COLLINS AVE APT 807S, BAL HARBOUR, FL, 33140","No_Match",NA,NA,NA,NA
23095,"10201 COPPERLEAF DRIVE","BATON ROUGE","LA",70809,30.397578437,-91.066290323,95,"10201 COPPERLEAF DRIVE, BATON ROUGE, LA, 70809","Match","Exact","10201 COPPERLEAF DR, BATON ROUGE, LA, 70809",92211396,"R"
23096,"10201 DARDEN COURT","SPOTSYLVANIA","VA",22553,38.2344721760001,-77.606365148,96,"10201 DARDEN COURT, SPOTSYLVANIA, VA, 22553","Match","Exact","10201 DARDEN CT, SPOTSYLVANIA, VA, 22553",640919930,"R"
23097,"10201 E 750 RD","KINGFISHER","OK",73750,NA,NA,97,"10201 E 750 RD, KINGFISHER, OK, 73750","No_Match",NA,NA,NA,NA
23098,"10201 EXPLORER COURT","TAMPA","FL",33615,28.0167959130001,-82.5982668779999,98,"10201 EXPLORER COURT, TAMPA, FL, 33615","Match","Exact","10201 EXPLORER CT, TAMPA, FL, 33615",104602170,"L"
23099,"10201 FALCON PINE BLVD APT 108","ORLANDO","FL",32829,28.50033518,-81.238123324,99,"10201 FALCON PINE BLVD APT 108, ORLANDO, FL, 32829","Match","Non_Exact","10201 FALCON PINE DR, ORLANDO, FL, 32829",640904062,"L"
23100,"10201 FLATLAND AVENUE","BROOKLYN","NY",11236,NA,NA,100,"10201 FLATLAND AVENUE, BROOKLYN, NY, 11236","No_Match",NA,NA,NA,NA
23101,"10201 FM 920","WEATHERFORD","TX",76088,NA,NA,101,"10201 FM 920, WEATHERFORD, TX, 76088","No_Match",NA,NA,NA,NA
23102,"10201 GLENWOOD RD","BROOKLYN","NY",11236,40.6476175710001,-73.898499472,102,"10201 GLENWOOD RD, BROOKLYN, NY, 11236","Match","Exact","10201 GLENWOOD RD, BROOKLYN, NY, 11236",59086704,"L"
23103,"10201 GRAND CENTRAL AVE APT 421","OWINGS MILLS","MD",21117,39.4063326040001,-76.781813244,103,"10201 GRAND CENTRAL AVE APT 421, OWINGS MILLS, MD, 21117","Match","Exact","10201 GRAND CENTRAL AVE, OWINGS MILLS, MD, 21117",648409607,"R"
23104,"10201 GREEN CLOVER DRIVE","ELLICOTT CITY","MD",21042,39.308993226,-76.865561296,104,"10201 GREEN CLOVER DRIVE, ELLICOTT CITY, MD, 21042","Match","Exact","10201 GREEN CLOVER DR, ELLICOTT CITY, MD, 21042",158922241,"L"
23105,"10201 GROSVENOR PL","ROCKVILLE","MD",20852,39.0238017610001,-77.106291117,105,"10201 GROSVENOR PL, ROCKVILLE, MD, 20852","Match","Exact","10201 GROSVENOR PL, ROCKVILLE, MD, 20852",650130901,"L"
23106,"10201 GROSVENOR PLACE  STE 407","ROCKVILLE","MD",20852,39.0238017610001,-77.106291117,106,"10201 GROSVENOR PLACE  STE 407, ROCKVILLE, MD, 20852","Match","Exact","10201 GROSVENOR PL, ROCKVILLE, MD, 20852",650130901,"L"
23107,"10201 GROSVENOR PLACE APT 1221","ROCKVILLE","MD",20852,39.0238017610001,-77.106291117,107,"10201 GROSVENOR PLACE APT 1221, ROCKVILLE, MD, 20852","Match","Exact","10201 GROSVENOR PL, ROCKVILLE, MD, 20852",650130901,"L"
23108,"10201 GROSVENOR PLACE APT 1227","ROCKVILLE","MD",20852,39.0238017610001,-77.106291117,108,"10201 GROSVENOR PLACE APT 1227, ROCKVILLE, MD, 20852","Match","Exact","10201 GROSVENOR PL, ROCKVILLE, MD, 20852",650130901,"L"
23109,"10201 GROSVENOR PLACE APT 420","ROCKVILLE","MD",20852,39.0238017610001,-77.106291117,109,"10201 GROSVENOR PLACE APT 420, ROCKVILLE, MD, 20852","Match","Exact","10201 GROSVENOR PL, ROCKVILLE, MD, 20852",650130901,"L"
23110,"10201 GROSVENOR PLACE APT 507","ROCKVILLE","MD",20852,39.0238017610001,-77.106291117,110,"10201 GROSVENOR PLACE APT 507, ROCKVILLE, MD, 20852","Match","Exact","10201 GROSVENOR PL, ROCKVILLE, MD, 20852",650130901,"L"
23111,"10201 GROSVENOR PLACE APT 609","NORTH BETHESDA","MD",20852,39.0238017610001,-77.106291117,111,"10201 GROSVENOR PLACE APT 609, NORTH BETHESDA, MD, 20852","Match","Exact","10201 GROSVENOR PL, NORTH BETHESDA, MD, 20852",650130901,"L"
23112,"10201 GROSVENOR PLACE UNIT 1111","NORTH BETHESDA","MD",20852,39.0238017610001,-77.106291117,112,"10201 GROSVENOR PLACE UNIT 1111, NORTH BETHESDA, MD, 20852","Match","Exact","10201 GROSVENOR PL, NORTH BETHESDA, MD, 20852",650130901,"L"
23113,"10201 HARWIN DR APT 1414","HOUSTON","TX",77036,29.7180167110001,-95.544280392,113,"10201 HARWIN DR APT 1414, HOUSTON, TX, 77036","Match","Exact","10201 HARWIN DR, HOUSTON, TX, 77036",96024145,"L"
23114,"10201 HILLHAVEN CIRCLE","ANCHORAGE","AK",99507,61.129714924,-149.719185219,114,"10201 HILLHAVEN CIRCLE, ANCHORAGE, AK, 99507","Match","Exact","10201 HILLHAVEN CIR, ANCHORAGE, AK, 99507",190804792,"L"
23115,"10201 KANIS RD","LITTLE ROCK","AR",72205,34.7428600750001,-92.387914426,115,"10201 KANIS RD, LITTLE ROCK, AR, 72205","Match","Exact","10201 KANIS RD, LITTLE ROCK, AR, 72205",83501224,"L"
23116,"10201 LINDLEY APT 198","NORTH WOODS","CA",91325,34.2550445680001,-118.527425193,116,"10201 LINDLEY APT 198, NORTH WOODS, CA, 91325","Match","Non_Exact","10201 LINDLEY AVE, NORTHRIDGE, CA, 91325",141542283,"L"
23117,"10201 LINDLEY AVE  UNIT B25","NORTHRIDGE","CA",91325,34.2550445680001,-118.527425193,117,"10201 LINDLEY AVE  UNIT B25, NORTHRIDGE, CA, 91325","Match","Exact","10201 LINDLEY AVE, NORTHRIDGE, CA, 91325",141542283,"L"
23118,"10201 LINDLEY AVE APT 198","NORTHRIDGE","CA",91325,34.2550445680001,-118.527425193,118,"10201 LINDLEY AVE APT 198, NORTHRIDGE, CA, 91325","Match","Exact","10201 LINDLEY AVE, NORTHRIDGE, CA, 91325",141542283,"L"
23119,"10201 LINDLEY AVE NUM 151","NORTHRIDGE","CA",91325,34.2550445680001,-118.527425193,119,"10201 LINDLEY AVE NUM 151, NORTHRIDGE, CA, 91325","Match","Exact","10201 LINDLEY AVE, NORTHRIDGE, CA, 91325",141542283,"L"
23120,"10201 LINDLEY AVE","NORTHRIDGE","CA",91325,34.2550445680001,-118.527425193,120,"10201 LINDLEY AVE, NORTHRIDGE, CA, 91325","Match","Exact","10201 LINDLEY AVE, NORTHRIDGE, CA, 91325",141542283,"L"
23121,"10201 LITTLE POND DRIVE","OKLAHOMA CITY","OK",73162,35.5740843340001,-97.6213736459999,121,"10201 LITTLE POND DRIVE, OKLAHOMA CITY, OK, 73162","Match","Exact","10201 LITTLE POND DR, OKLAHOMA CITY, OK, 73162",100388187,"L"
23122,"10201 MARTIN LUTHER KING JR HWY","BOWIE","MD",20712,NA,NA,122,"10201 MARTIN LUTHER KING JR HWY, BOWIE, MD, 20712","No_Match",NA,NA,NA,NA
23123,"10201 MAVERICK DRIVE","FORT WORTH","TX",76108,32.750181535,-97.5044863859999,123,"10201 MAVERICK DRIVE, FORT WORTH, TX, 76108","Match","Exact","10201 MAVERICK DR, FORT WORTH, TX, 76108",102120353,"L"
23124,"10201 MCINTYRE ROAD","OWENSBORO","KY",42301,37.6893234200001,-87.3522270559999,124,"10201 MCINTYRE ROAD, OWENSBORO, KY, 42301","Match","Exact","10201 MCINTYRE RD, OWENSBORO, KY, 42301",37556255,"L"
23125,"10201 MCKEAN COURT","GREAT FALLS","VA",22066,39.032997702,-77.354940891,125,"10201 MCKEAN COURT, GREAT FALLS, VA, 22066","Match","Exact","10201 MCKEAN CT, GREAT FALLS, VA, 22066",62332984,"L"
23126,"10201 MEREDITH AVENUE","SILVER SPRING","MD",20910,39.021306307,-77.064905137,126,"10201 MEREDITH AVENUE, SILVER SPRING, MD, 20910","Match","Exact","10201 MEREDITH AVE, SILVER SPRING, MD, 20910",62062723,"R"
23127,"10201 N 44TH DRIVE APT 2109","GLENDALE","AZ",85302,33.577828647,-112.155425471,127,"10201 N 44TH DRIVE APT 2109, GLENDALE, AZ, 85302","Match","Non_Exact","10201 N 44TH DR, GLENDALE, AZ, 85302",128195706,"R"
23128,"10201 N 99TH AVE - 75C","PEORIA","AZ",85345,33.577389162,-112.272480854,128,"10201 N 99TH AVE - 75C, PEORIA, AZ, 85345","Match","Non_Exact","10201 N 99TH AVE, PEORIA, AZ, 85345",128405885,"R"
23129,"10201 N PARK AVE","KANSAS CITY","MO",64155,39.2778297950001,-94.550279702,129,"10201 N PARK AVE, KANSAS CITY, MO, 64155","Match","Exact","10201 N PARK AVE, KANSAS CITY, MO, 64155",89793087,"R"
23130,"10201 N ROWELL","FRESNO","CA",93730,36.884223483,-119.752954204,130,"10201 N ROWELL, FRESNO, CA, 93730","Match","Non_Exact","10201 N ROWELL AVE, FRESNO, CA, 93730",197621556,"R"
23131,"10201 NW 25TH AVENUE","MIAMI","FL",33147,25.8675141310001,-80.240419746,131,"10201 NW 25TH AVENUE, MIAMI, FL, 33147","Match","Exact","10201 NW 25TH AVE, MIAMI, FL, 33147",115998703,"R"
23132,"10201 PACIFIC AVENUE","FRANKLIN PARK","IL",60131,41.9412322370001,-87.880409626,132,"10201 PACIFIC AVENUE, FRANKLIN PARK, IL, 60131","Match","Exact","10201 PACIFIC AVE, FRANKLIN PARK, IL, 60131",111725512,"L"
23133,"10201 PARK ROWE AVE NUM 3217","BATON ROUGE","LA",70810,30.3791931800001,-91.093286495,133,"10201 PARK ROWE AVE NUM 3217, BATON ROUGE, LA, 70810","Match","Exact","10201 PARK ROWE AVE, BATON ROUGE, LA, 70810",618056729,"L"
23134,"10201 PARK ROWE AVENUE UNIT 4211","BATON ROUGE","LA",70810,30.3791931800001,-91.093286495,134,"10201 PARK ROWE AVENUE UNIT 4211, BATON ROUGE, LA, 70810","Match","Exact","10201 PARK ROWE AVE, BATON ROUGE, LA, 70810",618056729,"L"
23135,"10201 RENTON AVENUE SOUTH","SEATTLE","WA",98178,47.5095841460001,-122.258594584,135,"10201 RENTON AVENUE SOUTH, SEATTLE, WA, 98178","Match","Exact","10201 RENTON AVE S, SEATTLE, WA, 98178",186629478,"R"
23136,"10201 ROAD 1519","PHILADELPHIA","MS",39350,NA,NA,136,"10201 ROAD 1519, PHILADELPHIA, MS, 39350","No_Match",NA,NA,NA,NA
23137,"10201 S HOPI LN","GOODYEAR","AZ",85338,33.353470574,-112.437228188,137,"10201 S HOPI LN, GOODYEAR, AZ, 85338","Match","Exact","10201 HOPI LN, GOODYEAR, AZ, 85338",128390268,"L"
23138,"10201 S MANHATTAN PLACE","LOS ANGELES","CA",90047,33.9439925020001,-118.310164599,138,"10201 S MANHATTAN PLACE, LOS ANGELES, CA, 90047","Match","Exact","10201 S MANHATTAN PL, LOS ANGELES, CA, 90047",141660720,"R"
23139,"10201 S WESTERN AVENUE","OKLAHOMA CITY","OK",73139,35.3660193590001,-97.530039925,139,"10201 S WESTERN AVENUE, OKLAHOMA CITY, OK, 73139","Match","Exact","10201 S WESTERN AVE, OKLAHOMA CITY, OK, 73139",611235898,"R"
23140,"10201 SCHUSSLER ROAD","ST. LOUIS","MO",63128,38.5057289590001,-90.390574753,140,"10201 SCHUSSLER ROAD, ST. LOUIS, MO, 63128","Match","Non_Exact","10201 SCHUESSLER RD, SAINT LOUIS, MO, 63128",638707315,"R"
23141,"10201 SE 23RD STREET","BELLEVUE","WA",98004,47.590148497,-122.204253176,141,"10201 SE 23RD STREET, BELLEVUE, WA, 98004","Match","Exact","10201 SE 23RD ST, BELLEVUE, WA, 98004",186607397,"R"
23142,"10201 SE 54TH STREET","OKLAHOMA CITY","OK",73150,35.412015212,-97.3496936879999,142,"10201 SE 54TH STREET, OKLAHOMA CITY, OK, 73150","Match","Exact","10201 SE 54TH ST, OKLAHOMA CITY, OK, 73150",650407706,"L"
23143,"10201 SHEILA COURT","WELLINGTON","FL",33465,NA,NA,143,"10201 SHEILA COURT, WELLINGTON, FL, 33465","No_Match",NA,NA,NA,NA
23144,"10201 SORREL AVENUE","POTOMAC","MD",20854,39.023985183,-77.200815284,144,"10201 SORREL AVENUE, POTOMAC, MD, 20854","Match","Exact","10201 SORREL AVE, POTOMAC, MD, 20854",62053808,"R"
23145,"10201 SOUTH 51ST ST SUITE 240","PHOENIX","AZ",85044,33.3543506280001,-111.972685368,145,"10201 SOUTH 51ST ST SUITE 240, PHOENIX, AZ, 85044","Match","Exact","10201 S 51ST ST, PHOENIX, AZ, 85044",128811462,"R"
23146,"10201 SOUTH INDIANA AVENUE","CHICAGO","IL",60628,41.708952201,-87.618674325,146,"10201 SOUTH INDIANA AVENUE, CHICAGO, IL, 60628","Match","Exact","10201 S INDIANA AVE, CHICAGO, IL, 60628",605524927,"L"
23147,"10201 SOUTH PEEBLY ROAD","NEWALLA","OK",74857,35.3659451950001,-97.212832941,147,"10201 SOUTH PEEBLY ROAD, NEWALLA, OK, 74857","Match","Exact","10201 S PEEBLY RD, NEWALLA, OK, 74857",99932561,"L"
23148,"10201 SOUTH UNION","CHICAGO","IL",60628,41.7086683910001,-87.6404421079999,148,"10201 SOUTH UNION, CHICAGO, IL, 60628","Match","Non_Exact","10201 S UNION AVE, CHICAGO, IL, 60628",605582368,"L"
23149,"10201 SPRINGMERE DRIVE UNIT 302","LOUISVILLE","KY",40242,38.3003998980001,-85.5602292419999,149,"10201 SPRINGMERE DRIVE UNIT 302, LOUISVILLE, KY, 40242","Match","Non_Exact","10201 SPRINGMERE DR, LOUISVILLE, KY, 40241",96976391,"R"
23150,"10201 SW 20TH STREET","MIAMI","FL",33165,25.7506850770001,-80.360056835,150,"10201 SW 20TH STREET, MIAMI, FL, 33165","Match","Exact","10201 SW 20TH ST, MIAMI, FL, 33165",116088463,"R"
23151,"10201 TELEPHONE RD APT 148","HOUSTON","TX",77075,29.6176498240001,-95.285254749,151,"10201 TELEPHONE RD APT 148, HOUSTON, TX, 77075","Match","Exact","10201 TELEPHONE RD, HOUSTON, TX, 77075",96593967,"L"
23152,"10201 TELEPHONE RD APT 64A","HOUSTON","TX",77075,29.6176498240001,-95.285254749,152,"10201 TELEPHONE RD APT 64A, HOUSTON, TX, 77075","Match","Exact","10201 TELEPHONE RD, HOUSTON, TX, 77075",96593967,"L"
23153,"10201 TIMBER VALLEY DR","OKLAHOMA CITY","OK",73151,35.5735779930001,-97.415426844,153,"10201 TIMBER VALLEY DR, OKLAHOMA CITY, OK, 73151","Match","Exact","10201 TIMBER VALLEY DR, OKLAHOMA CITY, OK, 73151",626328791,"R"
23154,"10201 UNIVERSITY AVE SUITE A15-101","CLIVE","IA",50325,41.6004376380001,-93.758067511,154,"10201 UNIVERSITY AVE SUITE A15-101, CLIVE, IA, 50325","Match","Exact","10201 UNIVERSITY AVE, CLIVE, IA, 50325",65774856,"R"
23155,"10201 VARGO DRIVE","INDIANAPOLIS","IN",46239,39.704150719,-85.987091675,155,"10201 VARGO DRIVE, INDIANAPOLIS, IN, 46239","Match","Exact","10201 VARGO DR, INDIANAPOLIS, IN, 46239",647038778,"R"
23156,"10201 W 181ST AVE","GOODYEAR","AZ",85338,33.354322036,-112.439515342,156,"10201 W 181ST AVE, GOODYEAR, AZ, 85338","Match","Non_Exact","10201 S 181ST AVE, GOODYEAR, AZ, 85338",243924134,"L"
23157,"10201 W 89TH TERRACE","OVERLAND PARK","KS",66212,38.966720717,-94.703892513,157,"10201 W 89TH TERRACE, OVERLAND PARK, KS, 66212","Match","Exact","10201 W 89TH TER, OVERLAND PARK, KS, 66212",91275097,"L"
23158,"10201 W LINCOLN AVE STE 107","WEST ALLIS","WI",53227,43.002591017,-88.038940781,158,"10201 W LINCOLN AVE STE 107, WEST ALLIS, WI, 53227","Match","Non_Exact","10201 W LINCOLN AVE, WEST ALLIS, WI, 53227",77745341,"L"
23159,"10201 WANDERING CREEK ROAD","VIENNA","VA",22182,38.9677833220001,-77.300710151,159,"10201 WANDERING CREEK ROAD, VIENNA, VA, 22182","Match","Exact","10201 WANDERING CREEK RD, VIENNA, VA, 22182",75960184,"R"
23160,"10201 WAUNA SW","LAKEWOOD","WA",98498,47.1641078440001,-122.562948798,160,"10201 WAUNA SW, LAKEWOOD, WA, 98498","Match","Non_Exact","10201 WAUNA ST SW, LAKEWOOD, WA, 98498",184621000,"L"
23161,"10201 WETLAND TRAIL","ORLANDO","FL",32817,28.5769673500001,-81.240022699,161,"10201 WETLAND TRAIL, ORLANDO, FL, 32817","Match","Exact","10201 WETLAND TRL, ORLANDO, FL, 32817",94340826,"L"
23162,"10201 WINCOPIN CIRCLE 904","COLUMBIA","MD",21044,39.216640053,-76.857539585,162,"10201 WINCOPIN CIRCLE 904, COLUMBIA, MD, 21044","Match","Exact","10201 WINCOPIN CIR, COLUMBIA, MD, 21044",158935161,"R"
23163,"10201","BONITA SPRINGS","FL",34135,NA,NA,163,"10201, BONITA SPRINGS, FL, 34135","No_Match",NA,NA,NA,NA
23164,"10202 34TH AVE EAST","TACOMA","WA",98446,47.1642999800001,-122.383730032,164,"10202 34TH AVE EAST, TACOMA, WA, 98446","Match","Exact","10202 34TH AVE E, TACOMA, WA, 98446",184657527,"L"
23165,"10202 82ND STREET","PLEASANT PRAIRIE","WA",53158,NA,NA,165,"10202 82ND STREET, PLEASANT PRAIRIE, WA, 53158","No_Match",NA,NA,NA,NA
23166,"10202 BROADWAY","CROWN POINT","IN",46307,41.433074624,-87.3355173209999,166,"10202 BROADWAY, CROWN POINT, IN, 46307","Match","Exact","10202 BROADWAY, CROWN POINT, IN, 46307",98439515,"L"
23167,"10202 CEDARBEND DRIVE","SAN ANTONIO","TX",78245,29.4323711810001,-98.683318752,167,"10202 CEDARBEND DRIVE, SAN ANTONIO, TX, 78245","Match","Exact","10202 CEDARBEND DR, SAN ANTONIO, TX, 78245",101557741,"L"
23168,"10202 DEVONSHIRE LAKE DRIVE","TAMPA","FL",33647,28.1392683330001,-82.3200305399999,168,"10202 DEVONSHIRE LAKE DRIVE, TAMPA, FL, 33647","Match","Exact","10202 DEVONSHIRE LAKE DR, TAMPA, FL, 33647",104643369,"L"
23169,"10202 E 166TH STREET N","COLLINSVILLE","OK",74021,36.394649315,-95.8475753769999,169,"10202 E 166TH STREET N, COLLINSVILLE, OK, 74021","Match","Exact","10202 E 166TH ST N, COLLINSVILLE, OK, 74021",166428035,"L"
23170,"10202 E 40TH ST","REED CITY","MI",49677,43.9162965620001,-85.5985483169999,170,"10202 E 40TH ST, REED CITY, MI, 49677","Match","Exact","10202 E 40TH ST, REED CITY, MI, 49677",652790920,"L"
23171,"10202 EDGEWATER DRIVE","CLEVELAND","OH",44102,41.4874493360001,-81.7537832959999,171,"10202 EDGEWATER DRIVE, CLEVELAND, OH, 44102","Match","Exact","10202 EDGEWATER DR, CLEVELAND, OH, 44102",61100759,"R"
23172,"10202 FORUM PARK DR 236","HOUSTON","TX",77036,29.670439577,-95.55493009,172,"10202 FORUM PARK DR 236, HOUSTON, TX, 77036","Match","Exact","10202 FORUM PARK DR, HOUSTON, TX, 77036",642128642,"L"
23173,"10202 KESSLER COVE LN","KATY","TX",77494,29.709161609,-95.843297744,173,"10202 KESSLER COVE LN, KATY, TX, 77494","Match","Exact","10202 KESSLER COVE LN, KATY, TX, 77494",641060303,"R"
23174,"10202 LINKS FAIRWAY","ROWLETT","TX",75089,32.952349208,-96.535934319,174,"10202 LINKS FAIRWAY, ROWLETT, TX, 75089","Match","Non_Exact","10202 LINKS FAIRWAY DR, ROWLETT, TX, 75089",632691406,"L"
23175,"10202 LOUGHTON AVE","BAKERSFIELD","CA",93311,35.347648695,-119.115763496,175,"10202 LOUGHTON AVE, BAKERSFIELD, CA, 93311","Match","Exact","10202 LOUGHTON AVE, BAKERSFIELD, CA, 93311",109450653,"L"
23176,"10202 LOUGHTON AVENUE","BAKERSFIELD","CA",93311,35.347648695,-119.115763496,176,"10202 LOUGHTON AVENUE, BAKERSFIELD, CA, 93311","Match","Exact","10202 LOUGHTON AVE, BAKERSFIELD, CA, 93311",109450653,"L"
23177,"10202 MULBERRY LANE","GRANGER","IN",46530,41.7338923660001,-86.06896213,177,"10202 MULBERRY LANE, GRANGER, IN, 46530","Match","Exact","10202 MULBERRY LN, GRANGER, IN, 46530",8078195,"R"
23178,"10202 OLIVEWOOD WAY 158","ESTERO","FL",33928,26.441260883,-81.7858433499999,178,"10202 OLIVEWOOD WAY 158, ESTERO, FL, 33928","Match","Exact","10202 OLIVEWOOD WAY, ESTERO, FL, 33928",641068110,"L"
23179,"10202 ROCKVIEW TERRACE","CHELTENHAM","MD",20623,38.75070406,-76.830917615,179,"10202 ROCKVIEW TERRACE, CHELTENHAM, MD, 20623","Match","Exact","10202 ROCKVIEW TER, CHELTENHAM, MD, 20623",76345523,"L"
23180,"10202 RUTLAND ROUND ROAD","COLUMBIA","MD",21044,39.217184762,-76.866051184,180,"10202 RUTLAND ROUND ROAD, COLUMBIA, MD, 21044","Match","Exact","10202 RUTLAND ROUND RD, COLUMBIA, MD, 21044",619748461,"R"
23181,"10202 S CARPENTER ST","CHICAGO","IL",60643,41.708586627,-87.6489602729999,181,"10202 S CARPENTER ST, CHICAGO, IL, 60643","Match","Exact","10202 S CARPENTER ST, CHICAGO, IL, 60643",605582420,"R"
23182,"10202 TIMBERWOOD CIRCLE","LOUISVILLE","KY",40223,38.229618648,-85.566212278,182,"10202 TIMBERWOOD CIRCLE, LOUISVILLE, KY, 40223","Match","Exact","10202 TIMBERWOOD CIR, LOUISVILLE, KY, 40223",96864700,"R"
23183,"10202 WYLDE POINT LANE","MISSOURI CITY","TX",77459,29.4775511760001,-95.51577707,183,"10202 WYLDE POINT LANE, MISSOURI CITY, TX, 77459","Match","Exact","10202 WYLDE POINT LN, MISSOURI CITY, TX, 77459",648705119,"R"
23184,"10203 47TH AVE SW UNIT D 4","SEATTLE","WA",98146,47.5112458460001,-122.392242931,184,"10203 47TH AVE SW UNIT D 4, SEATTLE, WA, 98146","Match","Exact","10203 47TH AVE SW, SEATTLE, WA, 98146",629175618,"R"
23185,"10203 47TH AVE SW UNIT D-4","SEATTLE","WA",98146,47.5112458460001,-122.392242931,185,"10203 47TH AVE SW UNIT D-4, SEATTLE, WA, 98146","Match","Exact","10203 47TH AVE SW, SEATTLE, WA, 98146",629175618,"R"
23186,"10203 ALLVIEW DRIVE","FREDERICK","MD",21701,39.4488096870001,-77.3101315659999,186,"10203 ALLVIEW DRIVE, FREDERICK, MD, 21701","Match","Exact","10203 ALLVIEW DR, FREDERICK, MD, 21701",646636016,"R"
23187,"10203 BLANCHARD PARK TRL APT 2215","ORLANDO","FL",32817,28.5779092660001,-81.2404134459999,187,"10203 BLANCHARD PARK TRL APT 2215, ORLANDO, FL, 32817","Match","Exact","10203 BLANCHARD PARK TRL, ORLANDO, FL, 32817",94340818,"R"
23188,"10203 BROOKSTONE WAY","GOOSE CREEK","SC",29486,33.050494615,-80.087656363,188,"10203 BROOKSTONE WAY, GOOSE CREEK, SC, 29486","Match","Non_Exact","10203 BROOKSTONE WAY, SUMMERVILLE, SC, 29486",645445094,"R"
23189,"10203 COLLINS AVE APT1402N","BAL HARBOUR","FL",33154,25.8957532000001,-80.12436302,189,"10203 COLLINS AVE APT1402N, BAL HARBOUR, FL, 33154","Match","Exact","10203 COLLINS AVE, BAL HARBOUR, FL, 33154",651226179,"R"
23190,"10203 COUNT FLEET DR","RUSKIN","FL",33573,27.7709439020001,-82.342241067,190,"10203 COUNT FLEET DR, RUSKIN, FL, 33573","Match","Exact","10203 COUNT FLEET DR, RUSKIN, FL, 33573",646585720,"R"
23191,"10203 DAN CT","HIGHLANDS RANCH","CO",80130,39.5309953180001,-104.920582164,191,"10203 DAN CT, HIGHLANDS RANCH, CO, 80130","Match","Exact","10203 DAN CT, HIGHLANDS RANCH, CO, 80130",130819776,"R"
23192,"10203 DREW HILL LANE","CHAPEL HILL","NC",27514,35.952957627,-79.01151936,192,"10203 DREW HILL LANE, CHAPEL HILL, NC, 27514","Match","Exact","10203 DREW HILL LN, CHAPEL HILL, NC, 27514",634032834,"R"
23193,"10203 GOLDENVIEW PARK LANE","SUGAR LAND","TX",77498,29.666910714,-95.640475841,193,"10203 GOLDENVIEW PARK LANE, SUGAR LAND, TX, 77498","Match","Exact","10203 GOLDENVIEW PARK LN, SUGAR LAND, TX, 77498",625392041,"L"
23194,"10203 GREENFIELD PARK RD","LOUISVILLE","KY",40258,38.130161613,-85.877543051,194,"10203 GREENFIELD PARK RD, LOUISVILLE, KY, 40258","Match","Exact","10203 GREENFIELD PARK RD, LOUISVILLE, KY, 40258",96889724,"R"
23195,"10203 HARRISON GRANT DRIVE","WOODSTOCK","MD",21163,39.369731894,-76.839921676,195,"10203 HARRISON GRANT DRIVE, WOODSTOCK, MD, 21163","Match","Exact","10203 HARRISON GRANT DR, WOODSTOCK, MD, 21163",637294163,"L"
23196,"10203 HUNTINGTON VIEW DR","HOUSTON","TX",77099,29.671223232,-95.600094285,196,"10203 HUNTINGTON VIEW DR, HOUSTON, TX, 77099","Match","Exact","10203 HUNTINGTON VIEW DR, HOUSTON, TX, 77099",96035523,"L"
23197,"10203 KOTZEBUE ST / SUITE101","SAN ANTONIO","TX",78217,29.532790241,-98.452775961,197,"10203 KOTZEBUE ST / SUITE101, SAN ANTONIO, TX, 78217","Match","Exact","10203 KOTZEBUE ST, SAN ANTONIO, TX, 78217",101498841,"R"
23198,"10203 N CONNECHUSETT RD","TAMPA","FL",33617,28.0423503810001,-82.408322585,198,"10203 N CONNECHUSETT RD, TAMPA, FL, 33617","Match","Exact","10203 N CONNECHUSETT RD, TAMPA, FL, 33617",104625199,"R"
23199,"10203 OLD HUNT ROAD","VIENNA","VA",22181,38.9136440550001,-77.296104223,199,"10203 OLD HUNT ROAD, VIENNA, VA, 22181","Match","Exact","10203 OLD HUNT RD, VIENNA, VA, 22181",75997533,"L"
23200,"10203 SPICEWOOD MESA","AUSTIN","TX",78759,30.4195564790001,-97.789341205,200,"10203 SPICEWOOD MESA, AUSTIN, TX, 78759","Match","Exact","10203 SPICEWOOD MESA, AUSTIN, TX, 78759",64008464,"R"
23201,"10203 WELLHOUSE CT","JACKSONVILLE","FL",32220,30.3291902010001,-81.835081066,201,"10203 WELLHOUSE CT, JACKSONVILLE, FL, 32220","Match","Exact","10203 WELLHOUSE CT, JACKSONVILLE, FL, 32220",83949255,"L"
23202,"10203 WEST MELVINA STREET","WAUWATOSA","WI",53222,43.0877253040001,-88.040547843,202,"10203 WEST MELVINA STREET, WAUWATOSA, WI, 53222","Match","Exact","10203 W MELVINA ST, WAUWATOSA, WI, 53222",77727321,"L"
23203,"10204 BEVANS LANE","MIDDLE RIVER","MD",21117,NA,NA,203,"10204 BEVANS LANE, MIDDLE RIVER, MD, 21117","No_Match",NA,NA,NA,NA
23204,"10204 BEVANS LANE","MIDDLE RIVER","MD",21220,39.364126148,-76.415842336,204,"10204 BEVANS LANE, MIDDLE RIVER, MD, 21220","Match","Non_Exact","10204 BEVANS RD, MIDDLE RIVER, MD, 21220",648404717,"L"
23205,"10204 BLUE HERON WAY","PRINCETON JUNCTION","VA",8550,NA,NA,205,"10204 BLUE HERON WAY, PRINCETON JUNCTION, VA, 8550","No_Match",NA,NA,NA,NA
23206,"10204 CARSON PL","SILVER SPRING","MD",20901,39.0242019570001,-77.025040695,206,"10204 CARSON PL, SILVER SPRING, MD, 20901","Match","Exact","10204 CARSON PL, SILVER SPRING, MD, 20901",62064876,"L"
23207,"10204 CHURCHHILL CT","INDIANAPOLIS","IN",46229,NA,NA,207,"10204 CHURCHHILL CT, INDIANAPOLIS, IN, 46229","No_Match",NA,NA,NA,NA
23208,"10204 E ISLETA AVE","MESA","AZ",85209,33.385649163,-111.61094955,208,"10204 E ISLETA AVE, MESA, AZ, 85209","Match","Exact","10204 E ISLETA AVE, MESA, AZ, 85209",243959531,"L"
23209,"10204 E MT VERNON","WICHITA","KS",67207,37.658645607,-97.215994495,209,"10204 E MT VERNON, WICHITA, KS, 67207","Match","Exact","10204 MOUNT VERNON, WICHITA, KS, 67207",115675539,"L"
23210,"10204 EYELET COURT","CLINTON","MD",20735,38.7502081010001,-76.8928187399999,210,"10204 EYELET COURT, CLINTON, MD, 20735","Match","Exact","10204 EYELET CT, CLINTON, MD, 20735",76343094,"L"
23211,"10204 HARPERS CROSSING","LANGHORNE","PA",19047,NA,NA,211,"10204 HARPERS CROSSING, LANGHORNE, PA, 19047","No_Match",NA,NA,NA,NA
23212,"10204 HARVEST FIELDS DRIVE","WOODSTOCK","MD",21163,39.351136884,-76.838016849,212,"10204 HARVEST FIELDS DRIVE, WOODSTOCK, MD, 21163","Match","Exact","10204 HARVEST FIELDS DR, WOODSTOCK, MD, 21163",191551131,"R"
23213,"10204 HAWK STORM AVE","TAMPA","FL",33610,27.9864482290001,-82.334746174,213,"10204 HAWK STORM AVE, TAMPA, FL, 33610","Match","Exact","10204 HAWK STORM AVE, TAMPA, FL, 33610",651763456,"R"
23214,"10204 NE 128TH AVENUE","VANCOUVER","WA",98682,45.702147885,-122.541471593,214,"10204 NE 128TH AVENUE, VANCOUVER, WA, 98682","Match","Exact","10204 NE 128TH AVE, VANCOUVER, WA, 98682",158324359,"R"
23215,"10204 NE 28TH CIRCLE","VANCOUVER","WA",98662,45.6424811040001,-122.5680771,215,"10204 NE 28TH CIRCLE, VANCOUVER, WA, 98662","Match","Exact","10204 NE 28TH CIR, VANCOUVER, WA, 98662",158328929,"L"
23216,"10204 PEACEFUL CT","SANTEE","CA",92071,32.8574032430001,-116.97440047,216,"10204 PEACEFUL CT, SANTEE, CA, 92071","Match","Exact","10204 PEACEFUL CT, SANTEE, CA, 92071",195725735,"L"
23217,"10204 PRINCE PLACE UNIT 308","UPPER MARLBORO","MD",20774,38.890316813,-76.8391272649999,217,"10204 PRINCE PLACE UNIT 308, UPPER MARLBORO, MD, 20774","Match","Exact","10204 PRINCE PL, UPPER MARLBORO, MD, 20774",76367288,"R"
23218,"10204 RIDGELINE DRIVE","MONTGOMERY VILLAGE","MD",20886,39.1747115250001,-77.206932507,218,"10204 RIDGELINE DRIVE, MONTGOMERY VILLAGE, MD, 20886","Match","Exact","10204 RIDGELINE DR, MONTGOMERY VILLAGE, MD, 20886",62050036,"R"
23219,"10204 S GRANITE AVE","TULSA","OK",74137,36.0155123530001,-95.9151360719999,219,"10204 S GRANITE AVE, TULSA, OK, 74137","Match","Exact","10204 S GRANITE AVE, TULSA, OK, 74137",166472022,"R"
23220,"10204 S WILTON PL","LOS ANGELES","CA",90047,33.9438530580001,-118.314266531,220,"10204 S WILTON PL, LOS ANGELES, CA, 90047","Match","Exact","10204 S WILTON PL, LOS ANGELES, CA, 90047",141660552,"L"
23221,"10204-A NORTH 7TH PLACE","PHOENIX","AZ",85020,33.578716152,-112.063870771,221,"10204-A NORTH 7TH PLACE, PHOENIX, AZ, 85020","Match","Exact","10204 N 7TH PL, PHOENIX, AZ, 85020",128262185,"L"
23222,"10205 319TH AVE NE","CARNATION","WA",98014,47.6890045110001,-121.911885319,222,"10205 319TH AVE NE, CARNATION, WA, 98014","Match","Exact","10205 319TH AVE NE, CARNATION, WA, 98014",186678777,"L"
23223,"10205 44TH AVE E","TACOMA","WA",98446,47.1636470180001,-122.369466674,223,"10205 44TH AVE E, TACOMA, WA, 98446","Match","Exact","10205 44TH AVE E, TACOMA, WA, 98446",652690608,"L"
23224,"10205 ARK DRIVE","SEMMES","AL",36575,30.730996486,-88.2832061079999,224,"10205 ARK DRIVE, SEMMES, AL, 36575","Match","Non_Exact","10205 ARK DR S, SEMMES, AL, 36575",623854943,"R"
23225,"10205 ASHFORD CHASE","ORANGE","TX",77630,30.080840369,-93.865226352,225,"10205 ASHFORD CHASE, ORANGE, TX, 77630","Match","Non_Exact","10205 ASHFORD CHASE DR, ORANGE, TX, 77630",74048901,"R"
23226,"10205 BALTIMORE AVE APT 7103","COLLEGE PARK","MD",20740,39.021061371,-76.925411459,226,"10205 BALTIMORE AVE APT 7103, COLLEGE PARK, MD, 20740","Match","Exact","10205 BALTIMORE AVE, COLLEGE PARK, MD, 20740",613197640,"R"
23227,"10205 BEERS ROAD","SWARTZ CREEK","MI",48473,42.8784180750001,-83.819173456,227,"10205 BEERS ROAD, SWARTZ CREEK, MI, 48473","Match","Exact","10205 BEERS RD, SWARTZ CREEK, MI, 48473",69573048,"R"
23228,"10205 CATALPA RD","DALLAS","TX",75243,32.9153267720001,-96.708981335,228,"10205 CATALPA RD, DALLAS, TX, 75243","Match","Exact","10205 CATALPA RD, DALLAS, TX, 75243",102917105,"L"
23229,"10205 COURTNEY PALMS BLVD A104","TAMPA","FL",33619,27.9271700730001,-82.3475893299999,229,"10205 COURTNEY PALMS BLVD A104, TAMPA, FL, 33619","Match","Exact","10205 COURTNEY PALMS BLVD, TAMPA, FL, 33619",104666507,"L"
23230,"10205 DOGWOOD ST","FIRESTONE","CO",80504,40.1488952670001,-104.938522313,230,"10205 DOGWOOD ST, FIRESTONE, CO, 80504","Match","Exact","10205 DOGWOOD ST, FIRESTONE, CO, 80504",188752703,"R"
23231,"10205 DONLEY DRIVE","IRVING","TX",75063,32.943987878,-96.9493633169999,231,"10205 DONLEY DRIVE, IRVING, TX, 75063","Match","Exact","10205 DONLEY DR, IRVING, TX, 75063",102998618,"L"
23232,"10205 E ELM LAKE DR","FORBES","ND",58439,45.908112617,-98.6847069139999,232,"10205 E ELM LAKE DR, FORBES, ND, 58439","Match","Exact","10205 E ELM LAKE DR, FORBES, ND, 58439",605397081,"R"
23233,"10205 E ELM LAKE DR","FORBES","SD",58439,NA,NA,233,"10205 E ELM LAKE DR, FORBES, SD, 58439","No_Match",NA,NA,NA,NA
23234,"10205 ELLIOT AVENUE","CLEVELAND","OH",44104,41.466600774,-81.614469634,234,"10205 ELLIOT AVENUE, CLEVELAND, OH, 44104","Match","Non_Exact","10205 ELIOT AVE, CLEVELAND, OH, 44104",61118868,"L"
23235,"10205 GOLDENBROOK WAY","TAMPA","FL",33647,28.149856379,-82.32098309,235,"10205 GOLDENBROOK WAY, TAMPA, FL, 33647","Match","Exact","10205 GOLDENBROOK WAY, TAMPA, FL, 33647",104628036,"L"
23236,"10205 JOLIET STREET","SAINT JOHN","IN",46373,41.4424585100001,-87.458721861,236,"10205 JOLIET STREET, SAINT JOHN, IN, 46373","Match","Exact","10205 JOLIET ST, SAINT JOHN, IN, 46373",647752805,"L"
23237,"10205 LANARK STREET","SUN VALLEY","CA",91352,34.218212764,-118.353363285,237,"10205 LANARK STREET, SUN VALLEY, CA, 91352","Match","Exact","10205 LANARK ST, SUN VALLEY, CA, 91352",141587006,"R"
23238,"10205 MADISON GROVE AVENUE","LAS VEGAS","NV",89166,36.2961167120001,-115.317217467,238,"10205 MADISON GROVE AVENUE, LAS VEGAS, NV, 89166","Match","Exact","10205 MADISON GROVE AVE, LAS VEGAS, NV, 89166",627162573,"R"
23239,"10205 MARIA DR","FT WORTH","TX",76108,32.7513602070001,-97.502959678,239,"10205 MARIA DR, FT WORTH, TX, 76108","Match","Exact","10205 MARIA DR, FORT WORTH, TX, 76108",101875871,"R"
23240,"10205 N 119TH E AVE","OWASSO","OK",74055,NA,NA,240,"10205 N 119TH E AVE, OWASSO, OK, 74055","Tie",NA,NA,NA,NA
23241,"10205 NAPOLEAN STREET","FREDERICKSBURG","VA",22408,38.244216626,-77.4306033399999,241,"10205 NAPOLEAN STREET, FREDERICKSBURG, VA, 22408","Match","Non_Exact","10205 NAPOLEON ST, FREDERICKSBURG, VA, 22408",228806504,"L"
23242,"10205 OLD INDEPENDENCE RD","BRENHAM","TX",77833,30.296435279,-96.359388354,242,"10205 OLD INDEPENDENCE RD, BRENHAM, TX, 77833","Match","Exact","10205 OLD INDEPENDENCE RD, BRENHAM, TX, 77833",39247441,"L"
23243,"10205 PINEWOOD AVENUE APT 3","TUJUNGA","CA",91042,34.254298797,-118.285930139,243,"10205 PINEWOOD AVENUE APT 3, TUJUNGA, CA, 91042","Match","Exact","10205 PINEWOOD AVE, TUJUNGA, CA, 91042",638619792,"L"
23244,"10205 PINTAIL PLACE APT 103","CHARLOTTE","NC",28269,35.3400390090001,-80.771102484,244,"10205 PINTAIL PLACE APT 103, CHARLOTTE, NC, 28269","Match","Exact","10205 PINTAIL PL, CHARLOTTE, NC, 28269",619675297,"L"
23245,"10205 PRINCESS MARCIE DR","SANTEE","CA",90271,32.871823674,-116.974546341,245,"10205 PRINCESS MARCIE DR, SANTEE, CA, 90271","Match","Non_Exact","10205 PRINCESS MARCIE DR, SANTEE, CA, 92071",195324443,"R"
23246,"10205 S KING DR","CHICAGO","IL",60628,NA,NA,246,"10205 S KING DR, CHICAGO, IL, 60628","No_Match",NA,NA,NA,NA
23247,"10205 SHADYBROOK","WICHITA","KS",67206,NA,NA,247,"10205 SHADYBROOK, WICHITA, KS, 67206","No_Match",NA,NA,NA,NA
23248,"10205 WENTWORTH DRIVE","ROWLETT","TX",75089,32.957536157,-96.531360368,248,"10205 WENTWORTH DRIVE, ROWLETT, TX, 75089","Match","Exact","10205 WENTWORTH DR, ROWLETT, TX, 75089",103257119,"L"
23249,"10205 WINDSONG WAY","DYER","IN",46311,41.4338379600001,-87.498489815,249,"10205 WINDSONG WAY, DYER, IN, 46311","Match","Exact","10205 WINDSONG WAY, DYER, IN, 46311",628857116,"L"
23250,"10206 184TH AVE E","BONNEY LAKE","WA",98391,47.163338326,-122.184348859,250,"10206 184TH AVE E, BONNEY LAKE, WA, 98391","Match","Exact","10206 184TH AVE E, BONNEY LAKE, WA, 98391",624891501,"L"
23251,"10206 APPLETON RD","BREWTON","AL",36426,31.236492624,-87.126993842,251,"10206 APPLETON RD, BREWTON, AL, 36426","Match","Exact","10206 APPLETON RD, BREWTON, AL, 36426",1941705,"R"
23252,"10206 AQUA VERDE CT","AUSTIN","TX",78733,30.336105925,-97.875769737,252,"10206 AQUA VERDE CT, AUSTIN, TX, 78733","Match","Exact","10206 AQUA VERDE CT, AUSTIN, TX, 78733",63973799,"R"
23253,"10206 BRIGHTSTONE DR","MIDLOTHIAN","VA",23112,37.373187842,-77.6563294439999,253,"10206 BRIGHTSTONE DR, MIDLOTHIAN, VA, 23112","Match","Exact","10206 BRIGHTSTONE DR, MIDLOTHIAN, VA, 23112",616613361,"R"
23254,"10206 CENTENNIAL WOODS LN","ELLICOTT CITY","MH",21042,NA,NA,254,"10206 CENTENNIAL WOODS LN, ELLICOTT CITY, MH, 21042","No_Match",NA,NA,NA,NA
23255,"10206 CRESTED IRIS DRIVE","MONTGOMERY VILLAGE","MD",20874,39.179723413,-77.211852203,255,"10206 CRESTED IRIS DRIVE, MONTGOMERY VILLAGE, MD, 20874","Match","Non_Exact","10206 CRESTED IRIS DR, MONTGOMERY VILLAGE, MD, 20886",636221211,"L"
23256,"10206 CRESTED IRIS DRIVE","MONTGOMERY VILLAGE","MD",20886,39.179723413,-77.211852203,256,"10206 CRESTED IRIS DRIVE, MONTGOMERY VILLAGE, MD, 20886","Match","Exact","10206 CRESTED IRIS DR, MONTGOMERY VILLAGE, MD, 20886",636221211,"L"
23257,"10206 GRETCHEN COURT","MANASSAS","VA",20110,38.7359742580001,-77.488282393,257,"10206 GRETCHEN COURT, MANASSAS, VA, 20110","Match","Exact","10206 GRETCHEN CT, MANASSAS, VA, 20110",76505283,"R"
23258,"10206 LINNET STREET NORTHEAST","COON RAPIDS","MN",55433,45.1558712720001,-93.3154927159999,258,"10206 LINNET STREET NORTHEAST, COON RAPIDS, MN, 55433","Match","Non_Exact","10206 LINNET ST NW, COON RAPIDS, MN, 55433",625107308,"L"
23259,"10206 MOSSY ROCK CIRCLE","LOS ANGELES","CA",90077,34.121126304,-118.44322125,259,"10206 MOSSY ROCK CIRCLE, LOS ANGELES, CA, 90077","Match","Exact","10206 MOSSY ROCK CIR, LOS ANGELES, CA, 90077",640418321,"L"
23260,"10206 NASHUA DR","ST LOUIS","MO",63136,38.757516025,-90.272692315,260,"10206 NASHUA DR, ST LOUIS, MO, 63136","Match","Exact","10206 NASHUA DR, SAINT LOUIS, MO, 63136",100147017,"R"
23261,"10206 PRISM DRIVE","AUSTIN","TX",78726,30.434675091,-97.820992167,261,"10206 PRISM DRIVE, AUSTIN, TX, 78726","Match","Exact","10206 PRISM DR, AUSTIN, TX, 78726",63980415,"L"
23262,"10206 RED CURRANT CT","RIVERVIEW","FL",33578,27.8981164580001,-82.3330702489999,262,"10206 RED CURRANT CT, RIVERVIEW, FL, 33578","Match","Exact","10206 RED CURRANT CT, RIVERVIEW, FL, 33578",625727169,"L"
23263,"10206 SAGE CLUB DRIVE","HOUSTON","TX",77085,NA,NA,263,"10206 SAGE CLUB DRIVE, HOUSTON, TX, 77085","No_Match",NA,NA,NA,NA
23264,"10206 SHARON LANE","HEBRON","IL",60034,42.4735373010001,-88.4406548109999,264,"10206 SHARON LANE, HEBRON, IL, 60034","Match","Exact","10206 SHARON LN, HEBRON, IL, 60034",119869787,"R"
23265,"10206 SOUTH DENIER AVENUE","LOS ANGELES","CA",90047,NA,NA,265,"10206 SOUTH DENIER AVENUE, LOS ANGELES, CA, 90047","No_Match",NA,NA,NA,NA
23266,"10206 STATE ROUTE 249","BRYAN","OH",43506,41.383469109,-84.627589711,266,"10206 STATE ROUTE 249, BRYAN, OH, 43506","Match","Exact","10206 STATE RTE 249, BRYAN, OH, 43506",207559710,"R"
23267,"10206 TOSCANA DR","BAKERSFIELD","CA",93306,35.4090824090001,-118.890666377,267,"10206 TOSCANA DR, BAKERSFIELD, CA, 93306","Match","Exact","10206 TOSCANA DR, BAKERSFIELD, CA, 93306",616457897,"R"
23268,"10206 WALKERTON LANE","OAKTON","VA",22124,38.88320808,-77.296603476,268,"10206 WALKERTON LANE, OAKTON, VA, 22124","Match","Exact","10206 WALKERTON LN, OAKTON, VA, 22124",76025956,"R"
23269,"10206 WATERVIEW PARKWAY","ROWLETT","TX",75089,32.9527894440001,-96.533168804,269,"10206 WATERVIEW PARKWAY, ROWLETT, TX, 75089","Match","Exact","10206 WATERVIEW PKWY, ROWLETT, TX, 75089",648835252,"L"
23270,"10206 WATERVIEW PKWY","ROWLETT","TX",75089,32.9527894440001,-96.533168804,270,"10206 WATERVIEW PKWY, ROWLETT, TX, 75089","Match","Exact","10206 WATERVIEW PKWY, ROWLETT, TX, 75089",648835252,"L"
23271,"10206 WHITE ELM","DALLAS","TX",75243,32.916784509,-96.708231127,271,"10206 WHITE ELM, DALLAS, TX, 75243","Match","Non_Exact","10206 WHITE ELM RD, DALLAS, TX, 75243",102917107,"R"
23272,"10206 YELLOW  JASMINE DRIVE","SIMPONSVILLE","SC",29861,NA,NA,272,"10206 YELLOW  JASMINE DRIVE, SIMPONSVILLE, SC, 29861","No_Match",NA,NA,NA,NA
23273,"10206 ZENOBIA CIR","WESTMINSTER","CO",80031,39.881176317,-105.052369161,273,"10206 ZENOBIA CIR, WESTMINSTER, CO, 80031","Match","Exact","10206 ZENOBIA CIR, WESTMINSTER, CO, 80031",177438428,"L"
23274,"10206","AUSTIN","TX",78726,NA,NA,274,"10206, AUSTIN, TX, 78726","No_Match",NA,NA,NA,NA
23275,"10207 A","BAKERSFIELD","CA",93306,NA,NA,275,"10207 A, BAKERSFIELD, CA, 93306","No_Match",NA,NA,NA,NA
23276,"10207 BIGNONIA DRIVE","LAUREL","MD",20708,NA,NA,276,"10207 BIGNONIA DRIVE, LAUREL, MD, 20708","No_Match",NA,NA,NA,NA
23277,"10207 CAMDEN GARDEN LANE","KATY","TX",77494,NA,NA,277,"10207 CAMDEN GARDEN LANE, KATY, TX, 77494","No_Match",NA,NA,NA,NA
23278,"10207 CHILLICOTHE RD","KIRTLAND","OH",44094,41.5943889660001,-81.348633781,278,"10207 CHILLICOTHE RD, KIRTLAND, OH, 44094","Match","Exact","10207 CHILLICOTHE RD, KIRTLAND, OH, 44094",137464175,"L"
23279,"10207 CLOUDBURST COURT","RIVERVIEW","FL",33578,NA,NA,279,"10207 CLOUDBURST COURT, RIVERVIEW, FL, 33578","No_Match",NA,NA,NA,NA
23280,"10207 COLLETT AVENUE","NORTH HILLS","CA",91343,34.255181319,-118.483699381,280,"10207 COLLETT AVENUE, NORTH HILLS, CA, 91343","Match","Exact","10207 COLLETT AVE, NORTH HILLS, CA, 91343",141543381,"L"
23281,"10207 DANCING BRK","SAN ANTONIO","TX",78254,29.5394575620001,-98.669146502,281,"10207 DANCING BRK, SAN ANTONIO, TX, 78254","Match","Exact","10207 DANCING BROOK, SAN ANTONIO, TX, 78254",101589234,"R"
23282,"10207 FOX TRACE","ZIONSVILLE","IN",46077,NA,NA,282,"10207 FOX TRACE, ZIONSVILLE, IN, 46077","No_Match",NA,NA,NA,NA
23283,"10207 FRESHLEY ROAD","ALLIANCE","OH",44601,NA,NA,283,"10207 FRESHLEY ROAD, ALLIANCE, OH, 44601","No_Match",NA,NA,NA,NA
23284,"10207 FROST RD","PORTLAND","MI",48875,42.839034299,-84.8666498329999,284,"10207 FROST RD, PORTLAND, MI, 48875","Match","Exact","10207 FROST RD, PORTLAND, MI, 48875",12149754,"L"
23285,"10207 INWOOD DRIVE","WOBURN","MA",1801,42.5228781100001,-71.13190524,285,"10207 INWOOD DRIVE, WOBURN, MA, 1801","Match","Exact","10207 INWOOD DR, WOBURN, MA, 01801",87089112,"R"
23286,"10207 KASHMERE LANE","ESCONDIDO","CA",92029,33.093836002,-117.113270099,286,"10207 KASHMERE LANE, ESCONDIDO, CA, 92029","Match","Exact","10207 KASHMERE LN, ESCONDIDO, CA, 92029",195311978,"L"
23287,"10207 MEADE LANE","EDEN PRAIRIE","MN",55347,44.819679767,-93.413997878,287,"10207 MEADE LANE, EDEN PRAIRIE, MN, 55347","Match","Exact","10207 MEADE LN, EDEN PRAIRIE, MN, 55347",43854059,"L"
23288,"10207 NAVARRE CT","HENRICO","VA",23238,37.595158901,-77.6022593989999,288,"10207 NAVARRE CT, HENRICO, VA, 23238","Match","Exact","10207 NAVARRE CT, HENRICO, VA, 23238",106666088,"L"
23289,"10207 ORCHRD GRASS CORUT","CHARLOTTE","NC",28278,35.1251589,-80.991357674,289,"10207 ORCHRD GRASS CORUT, CHARLOTTE, NC, 28278","Match","Non_Exact","10207 ORCHARD GRASS CT, CHARLOTTE, NC, 28278",70552552,"R"
23290,"10207 PLUM CREEK LN UNIT E","CHARLOTTE","NC",28210,35.092814876,-80.861077569,290,"10207 PLUM CREEK LN UNIT E, CHARLOTTE, NC, 28210","Match","Exact","10207 PLUM CREEK LN, CHARLOTTE, NC, 28210",70570440,"L"
23291,"10207 RIVERPARK CIRCLE","STOCKTON","CA",95209,38.0468331540001,-121.346644103,291,"10207 RIVERPARK CIRCLE, STOCKTON, CA, 95209","Match","Non_Exact","10207 RIVER PARK CIR, STOCKTON, CA, 95209",133928727,"R"
23292,"10207 ROSECRANS AVE","BELLFLOWER","CA",90706,33.9020473480001,-118.116345239,292,"10207 ROSECRANS AVE, BELLFLOWER, CA, 90706","Match","Exact","10207 ROSECRANS AVE, BELLFLOWER, CA, 90706",241246622,"L"
23293,"10207 ROSEHILL RD","LENEXA","KS",66215,38.9434929440001,-94.732854823,293,"10207 ROSEHILL RD, LENEXA, KS, 66215","Match","Exact","10207 ROSEHILL RD, LENEXA, KS, 66215",91271653,"L"
23294,"10207 STATE ROUTE 88","GARRETTSVILLE","OH",44231,41.2699202760001,-81.101192471,294,"10207 STATE ROUTE 88, GARRETTSVILLE, OH, 44231","Match","Exact","10207 STATE RTE 88, GARRETTSVILLE, OH, 44231",137549093,"L"
23295,"10207 WREN LN","EAGLE RIVER","AK",99577,61.312684313,-149.502170427,295,"10207 WREN LN, EAGLE RIVER, AK, 99577","Match","Exact","10207 WREN LN, EAGLE RIVER, AK, 99577",190793430,"R"
23296,"10208 BENDERLOCH DRIVE","CHARLOTTE","NC",28277,35.02551405,-80.8217943239999,296,"10208 BENDERLOCH DRIVE, CHARLOTTE, NC, 28277","Match","Exact","10208 BENDERLOCH DR, CHARLOTTE, NC, 28277",625272224,"L"
23297,"10208 BLANSFORD WAY","MIDDLE RIVER","MD",21220,39.360009909,-76.434366704,297,"10208 BLANSFORD WAY, MIDDLE RIVER, MD, 21220","Match","Exact","10208 BLANSFORD WAY, MIDDLE RIVER, MD, 21220",650945606,"R"
23298,"10208 BRENNANHILL COURT","GREAT FALLS","VA",22066,38.9890883480001,-77.298835782,298,"10208 BRENNANHILL COURT, GREAT FALLS, VA, 22066","Match","Exact","10208 BRENNANHILL CT, GREAT FALLS, VA, 22066",75960055,"R"
23299,"10208 CARLTON RD","PORT ST LUCI","FL",34987,27.278404455,-80.529919741,299,"10208 CARLTON RD, PORT ST LUCI, FL, 34987","Match","Non_Exact","10208 CARLTON RD, PORT SAINT LUCIE, FL, 34987",120136892,"R"
23300,"10208 CARLTON RD","PORT ST LUCIE","FL",32987,27.278404455,-80.529919741,300,"10208 CARLTON RD, PORT ST LUCIE, FL, 32987","Match","Non_Exact","10208 CARLTON RD, PORT SAINT LUCIE, FL, 34987",120136892,"R"
23301,"10208 CARLTON RD","PORT ST LUCIE","FL",34987,27.278404455,-80.529919741,301,"10208 CARLTON RD, PORT ST LUCIE, FL, 34987","Match","Exact","10208 CARLTON RD, PORT ST LUCIE, FL, 34987",120136892,"R"
23302,"10208 CROSS HAVEN CT","ROCKVILLE","MD",20850,39.079985574,-77.210831476,302,"10208 CROSS HAVEN CT, ROCKVILLE, MD, 20850","Match","Exact","10208 CROSS HAVEN CT, ROCKVILLE, MD, 20850",62095869,"R"
23303,"10208 DEERCLIFF DR","TAMPA","FL",33647,28.130443647,-82.323360895,303,"10208 DEERCLIFF DR, TAMPA, FL, 33647","Match","Exact","10208 DEERCLIFF DR, TAMPA, FL, 33647",104627962,"L"
23304,"10208 DUNSFORD DRIVE","LONE TREE","CO",80124,39.531096383,-104.898907641,304,"10208 DUNSFORD DRIVE, LONE TREE, CO, 80124","Match","Exact","10208 DUNSFORD DR, LONE TREE, CO, 80124",130831240,"R"
23305,"10208 E 7TH ST","TULSA","OK",74128,36.1520249880001,-95.863750301,305,"10208 E 7TH ST, TULSA, OK, 74128","Match","Exact","10208 E 7TH ST, TULSA, OK, 74128",166448744,"R"
23306,"10208 E ELMWOOD DR","SUN LAKES","AZ",85248,33.226462283,-111.862918844,306,"10208 E ELMWOOD DR, SUN LAKES, AZ, 85248","Match","Exact","10208 E ELMWOOD DR, SUN LAKES, AZ, 85248",128859913,"L"
23307,"10208 EAGLE LANDING COURT","BURKE","VA",22015,38.7850427610001,-77.307875275,307,"10208 EAGLE LANDING COURT, BURKE, VA, 22015","Match","Exact","10208 EAGLE LANDING CT, BURKE, VA, 22015",76056141,"R"
23308,"10208 GARRISON ST","WESTMINSTER","CO",80021,39.8813620400001,-105.101313495,308,"10208 GARRISON ST, WESTMINSTER, CO, 80021","Match","Exact","10208 GARRISON ST, WESTMINSTER, CO, 80021",177738427,"R"
23309,"10208 GOLD DR","GRASS VALLEY","CA",95945,39.22515795,-121.086557961,309,"10208 GOLD DR, GRASS VALLEY, CA, 95945","Match","Exact","10208 GOLD DR, GRASS VALLEY, CA, 95945",106533668,"L"
23310,"10208 GRACKLE COURT","PENSACOLA","FL",32507,30.3355112880001,-87.3468316249999,310,"10208 GRACKLE COURT, PENSACOLA, FL, 32507","Match","Exact","10208 GRACKLE CT, PENSACOLA, FL, 32507",93247765,"L"
23311,"10208 IDLEWILD LN","HIGHLAND","IN",46322,41.5282647710001,-87.476983554,311,"10208 IDLEWILD LN, HIGHLAND, IN, 46322","Match","Exact","10208 IDLEWILD LN, HIGHLAND, IN, 46322",98448126,"L"
23312,"10208 JULIUS NORTHWAY","SAINT LOUIS","MO",63127,38.5546909880001,-90.400636671,312,"10208 JULIUS NORTHWAY, SAINT LOUIS, MO, 63127","Match","Exact","10208 JULIUS NORTHWAY, SAINT LOUIS, MO, 63127",100137778,"R"
23313,"10208 MALPAS POINT","ORLANDO","FL",32832,28.377553651,-81.240572634,313,"10208 MALPAS POINT, ORLANDO, FL, 32832","Match","Exact","10208 MALPAS PT, ORLANDO, FL, 32832",94418799,"L"
23314,"10208 NEW ORCHARD DR","LARGO","MD",20774,38.8761546690001,-76.829270728,314,"10208 NEW ORCHARD DR, LARGO, MD, 20774","Match","Exact","10208 NEW ORCHARD DR, LARGO, MD, 20774",76319711,"L"
23315,"10208 NW 63RD DR","PARKLAND","FL",33076,26.308807734,-80.262449418,315,"10208 NW 63RD DR, PARKLAND, FL, 33076","Match","Exact","10208 NW 63RD DR, PARKLAND, FL, 33076",114768374,"L"
23316,"10208 OPEN GATE DRIVE","AUSTIN","TX",78726,30.43503902,-97.821748559,316,"10208 OPEN GATE DRIVE, AUSTIN, TX, 78726","Match","Exact","10208 OPEN GATE DR, AUSTIN, TX, 78726",63980408,"L"
23317,"10208 OVERLAND CT","MINT HILL","NC",28227,35.1776739740001,-80.59556299,317,"10208 OVERLAND CT, MINT HILL, NC, 28227","Match","Exact","10208 OVERLAND CT, MINT HILL, NC, 28227",70517508,"R"
23318,"10208 PASEO DE LINDA","SAN DIEGO","CA",92127,33.0291791120001,-117.116980473,318,"10208 PASEO DE LINDA, SAN DIEGO, CA, 92127","Match","Non_Exact","10208 PSO DE LINDA, SAN DIEGO, CA, 92127",647701336,"R"
23319,"10208 PINEWOOD AVE APT 5","TUJUNGA","CA",91042,34.2543692940001,-118.285916874,319,"10208 PINEWOOD AVE APT 5, TUJUNGA, CA, 91042","Match","Exact","10208 PINEWOOD AVE, TUJUNGA, CA, 91042",638619792,"R"
23320,"10208 RASPBERRY RD","MCKINNEY","TX",75072,33.198158576,-96.756299628,320,"10208 RASPBERRY RD, MCKINNEY, TX, 75072","Match","Exact","10208 RASPBERRY RD, MCKINNEY, TX, 75072",642934001,"R"
23321,"10208 RAYMOND","LITTLE ROCK","AR",72205,34.755855566,-92.3877075519999,321,"10208 RAYMOND, LITTLE ROCK, AR, 72205","Match","Non_Exact","10208 RAYMOND DR, LITTLE ROCK, AR, 72205",83501147,"R"
23322,"10208 ROBERTS COMMON LN","BURKE","VA",22015,38.7905171310001,-77.29742628,322,"10208 ROBERTS COMMON LN, BURKE, VA, 22015","Match","Exact","10208 ROBERTS COMMON LN, BURKE, VA, 22015",619037795,"L"
23323,"10208 ROOSEVELT WAY NE","SEATTLE","WA",98125,47.702325613,-122.317713799,323,"10208 ROOSEVELT WAY NE, SEATTLE, WA, 98125","Match","Exact","10208 ROOSEVELT WAY NE, SEATTLE, WA, 98125",186584551,"R"
23324,"10208 S INDIANAPOLIS AVE 301","CHICAGO","IL",60617,41.7098520110001,-87.5321874049999,324,"10208 S INDIANAPOLIS AVE 301, CHICAGO, IL, 60617","Match","Non_Exact","10208 S INDIANAPOLIS AVE, CHICAGO, IL, 60617",616797074,"R"
23325,"10208 S INDIANAPOLIS AVE SUITE 400","CHICAGO","IL",60617,41.7098520110001,-87.5321874049999,325,"10208 S INDIANAPOLIS AVE SUITE 400, CHICAGO, IL, 60617","Match","Non_Exact","10208 S INDIANAPOLIS AVE, CHICAGO, IL, 60617",616797074,"R"
23326,"10208 SALEM COURT","WACO","TX",76708,31.6267678840001,-97.24167711,326,"10208 SALEM COURT, WACO, TX, 76708","Match","Exact","10208 SALEM CT, WACO, TX, 76708",617443103,"L"
23327,"10208 SOUTH LASALLE","CHICAGO","IL",60621,NA,NA,327,"10208 SOUTH LASALLE, CHICAGO, IL, 60621","No_Match",NA,NA,NA,NA
23328,"10208 SUMATRA ST","EL PASO","TX",79925,31.779400434,-106.345177534,328,"10208 SUMATRA ST, EL PASO, TX, 79925","Match","Exact","10208 SUMATRA ST, EL PASO, TX, 79925",189347225,"R"
23329,"10208 SUMMERVIEW CIRCLE","RIVERVIEW","FL",33578,27.79699558,-82.336763837,329,"10208 SUMMERVIEW CIRCLE, RIVERVIEW, FL, 33578","Match","Exact","10208 SUMMERVIEW CIR, RIVERVIEW, FL, 33578",633390064,"L"
23330,"10208 VERANDA COURT","BATON ROUGE","LA",70810,30.362743923,-91.1105206409999,330,"10208 VERANDA COURT, BATON ROUGE, LA, 70810","Match","Exact","10208 VERANDA CT, BATON ROUGE, LA, 70810",92197390,"R"
23331,"10208 YORK AVENUE","LUBBOCK","TX",79424,33.5011961820001,-101.920554033,331,"10208 YORK AVENUE, LUBBOCK, TX, 79424","Match","Exact","10208 YORK AVE, LUBBOCK, TX, 79424",185268907,"R"
23332,"10209 BALD HILL ROAD","BOWIE","MD",20721,38.9342551240001,-76.828119511,332,"10209 BALD HILL ROAD, BOWIE, MD, 20721","Match","Exact","10209 BALD HILL RD, BOWIE, MD, 20721",76310939,"R"
23333,"10209 CHESTNUT RIDGE RD","AUSTIN","TX",78726,30.4339244820001,-97.823231477,333,"10209 CHESTNUT RIDGE RD, AUSTIN, TX, 78726","Match","Exact","10209 CHESTNUT RIDGE RD, AUSTIN, TX, 78726",64027776,"R"
23334,"10209 CTY RD J","REEDSVILLE","WI",54230,NA,NA,334,"10209 CTY RD J, REEDSVILLE, WI, 54230","No_Match",NA,NA,NA,NA
23335,"10209 E LINCOLN","WICHITA","KS",67207,37.671560856,-97.2191191479999,335,"10209 E LINCOLN, WICHITA, KS, 67207","Match","Non_Exact","10209 E LINCOLN ST, WICHITA, KS, 67207",115704612,"R"
23336,"10209 ELWELL","CLEVELAND","OH",44104,41.4806846910001,-81.614281417,336,"10209 ELWELL, CLEVELAND, OH, 44104","Match","Non_Exact","10209 ELWELL AVE, CLEVELAND, OH, 44104",61115097,"L"
23337,"10209 GOLDEN LIGHT CT","RIVERVIEW","FL",33578,NA,NA,337,"10209 GOLDEN LIGHT CT, RIVERVIEW, FL, 33578","No_Match",NA,NA,NA,NA
23338,"10209 GOVERNORS DRIVE","CHAPEL HILL","NC",27517,35.8538578220001,-79.034253642,338,"10209 GOVERNORS DRIVE, CHAPEL HILL, NC, 27517","Match","Exact","10209 GOVERNORS DR, CHAPEL HILL, NC, 27517",651585622,"L"
23339,"10209 HERON WAY","JUNEAU","AK",99801,58.4022004710001,-134.604093687,339,"10209 HERON WAY, JUNEAU, AK, 99801","Match","Exact","10209 HERON WAY, JUNEAU, AK, 99801",190962538,"R"
23340,"10209 LEES CROSSING LANE","FREDERICKSBURG","VA",22408,38.242435164,-77.455617517,340,"10209 LEES CROSSING LANE, FREDERICKSBURG, VA, 22408","Match","Exact","10209 LEES CROSSING LN, FREDERICKSBURG, VA, 22408",632940786,"L"
23341,"10209 MALPAS POINT","ORLANDO","FL",32832,28.377564616,-81.240572603,341,"10209 MALPAS POINT, ORLANDO, FL, 32832","Match","Exact","10209 MALPAS PT, ORLANDO, FL, 32832",94418799,"R"
23342,"10209 N 57TH STREET","PARADISE VALLEY","AZ",85253,33.5793219130001,-111.958393639,342,"10209 N 57TH STREET, PARADISE VALLEY, AZ, 85253","Match","Exact","10209 N 57TH ST, PARADISE VALLEY, AZ, 85253",128220815,"R"
23343,"10209 N 5TH STREET","PARADISE VALLEY","AZ",85253,NA,NA,343,"10209 N 5TH STREET, PARADISE VALLEY, AZ, 85253","No_Match",NA,NA,NA,NA
23344,"10209 N 7TH PLACE APT B","PHOENIX","AZ",85020,33.578737378,-112.063861127,344,"10209 N 7TH PLACE APT B, PHOENIX, AZ, 85020","Match","Non_Exact","10209 N 7TH PL, PHOENIX, AZ, 85020",128262185,"R"
23345,"10209 NW 209 LANE","ALACHUA","FL",32616,29.846446438,-82.456922135,345,"10209 NW 209 LANE, ALACHUA, FL, 32616","Match","Non_Exact","10209 NW 209TH LN, ALACHUA, FL, 32615",6833799,"R"
23346,"10209 POINT LOBOS TRAIL","FORT WORTH","TX",76177,32.9236678020001,-97.324501049,346,"10209 POINT LOBOS TRAIL, FORT WORTH, TX, 76177","Match","Exact","10209 POINT LOBOS TRL, FORT WORTH, TX, 76177",641603674,"R"
23347,"10209 S DIXON AVE","INGLEWOOD","CA",90303,33.9428681260001,-118.332093233,347,"10209 S DIXON AVE, INGLEWOOD, CA, 90303","Match","Exact","10209 DIXON AVE, INGLEWOOD, CA, 90303",641503128,"R"
23348,"10209 SW 77 COURT","MIAMI","FL",33156,25.6759367340001,-80.320658152,348,"10209 SW 77 COURT, MIAMI, FL, 33156","Match","Exact","10209 SW 77TH CT, MIAMI, FL, 33156",640561127,"L"
23349,"10209 TUJUNGA CANYONBLVD 426","TUJUNGA","CA",91042,NA,NA,349,"10209 TUJUNGA CANYONBLVD 426, TUJUNGA, CA, 91042","No_Match",NA,NA,NA,NA
23350,"10209 VENTANA CT","CHARLOTTE","NC",28277,35.043783477,-80.831173732,350,"10209 VENTANA CT, CHARLOTTE, NC, 28277","Match","Exact","10209 VENTANA CT, CHARLOTTE, NC, 28277",70543112,"R"
23351,"10209 WASHBURN CIRCLE","BLOOMINGTON","MN",55431,44.818914073,-93.317798437,351,"10209 WASHBURN CIRCLE, BLOOMINGTON, MN, 55431","Match","Non_Exact","10209 WASHBURN CIR S, BLOOMINGTON, MN, 55431",43595352,"L"
23352,"10209 WEST RD","HARRISON","OH",45030,39.254717385,-84.785398626,352,"10209 WEST RD, HARRISON, OH, 45030","Match","Exact","10209 WEST RD, HARRISON, OH, 45030",103941730,"L"
23353,"1020A EXPORT STREET","LEXINGTON","KY",40506,38.0365660780001,-84.514432174,353,"1020A EXPORT STREET, LEXINGTON, KY, 40506","Match","Non_Exact","1020 EXPORT ST, LEXINGTON, KY, 40504",640449281,"L"
23354,"1020WHITLOW BLVD","SUMMERVILLE","SC",29483,NA,NA,354,"1020WHITLOW BLVD, SUMMERVILLE, SC, 29483","No_Match",NA,NA,NA,NA
23355,"1021 1/2 S GLENOAKS BLVD","BURBANK","CA",91502,34.176604395,-118.29736113,355,"1021 1/2 S GLENOAKS BLVD, BURBANK, CA, 91502","Match","Exact","1021 S GLENOAKS BLVD, BURBANK, CA, 91502",142727559,"R"
23356,"1021 11TH ST N","MOORHEAD","MN",56560,46.8865806260001,-96.762542141,356,"1021 11TH ST N, MOORHEAD, MN, 56560","Match","Exact","1021 11TH ST N, MOORHEAD, MN, 56560",168029553,"L"
23357,"1021 12TH AVENUE","PLEASANT GROVE","AL",35127,33.4830978370001,-86.99097084,357,"1021 12TH AVENUE, PLEASANT GROVE, AL, 35127","Match","Exact","1021 12TH AVE, PLEASANT GROVE, AL, 35127",81546046,"R"
23358,"1021 18TH ST","ROCKFORD","IL",61104,42.2567084670001,-89.06192164,358,"1021 18TH ST, ROCKFORD, IL, 61104","Match","Exact","1021 18TH ST, ROCKFORD, IL, 61104",605031763,"R"
23359,"1021 1ST AVE NE","CLARION","IA",50525,42.732740097,-93.721150197,359,"1021 1ST AVE NE, CLARION, IA, 50525","Match","Exact","1021 1ST AVE NE, CLARION, IA, 50525",90720116,"R"
23360,"1021 23 RD ST SW","NAPLES","FL",34117,26.2114032000001,-81.6528105799999,360,"1021 23 RD ST SW, NAPLES, FL, 34117","Match","Non_Exact","1021 23RD ST SW, NAPLES, FL, 34117",115150661,"L"
23361,"1021 23RD AVE NE APT 2","MINNEAPOLIS","MN",55418,45.010875405,-93.245100051,361,"1021 23RD AVE NE APT 2, MINNEAPOLIS, MN, 55418","Match","Exact","1021 23RD AVE NE, MINNEAPOLIS, MN, 55418",43636283,"L"
23362,"1021 31ST AVE","BELLWOOD","GA",60104,NA,NA,362,"1021 31ST AVE, BELLWOOD, GA, 60104","No_Match",NA,NA,NA,NA
23363,"1021 32ND AVENUE SOUTH 103","MOOREHEAD","MN",56560,46.8419237150001,-96.764307429,363,"1021 32ND AVENUE SOUTH 103, MOOREHEAD, MN, 56560","Match","Non_Exact","1021 32ND AVE S, MOORHEAD, MN, 56560",168030628,"R"
23364,"1021 34th Pl","Forest Grove","OR",97116,45.538049427,-123.129722669,364,"1021 34th Pl, Forest Grove, OR, 97116","Match","Exact","1021 34TH PL, FOREST GROVE, OR, 97116",627568536,"R"
23365,"1021 34TH PL","FOREST GROVE","OR",97116,45.538049427,-123.129722669,365,"1021 34TH PL, FOREST GROVE, OR, 97116","Match","Exact","1021 34TH PL, FOREST GROVE, OR, 97116",627568536,"R"
23366,"1021 3RD ST N","CARRINGTON","ND",58421,47.4525570230001,-99.126666942,366,"1021 3RD ST N, CARRINGTON, ND, 58421","Match","Exact","1021 3RD ST N, CARRINGTON, ND, 58421",173964551,"R"
23367,"1021 4TH STREET","LEAGUE CITY","TX",77573,29.515928596,-95.089428481,367,"1021 4TH STREET, LEAGUE CITY, TX, 77573","Match","Exact","1021 4TH ST, LEAGUE CITY, TX, 77573",96682466,"L"
23368,"1021 5TH ST BLDG 318","HOLLOMAN AFB","NM",88330,NA,NA,368,"1021 5TH ST BLDG 318, HOLLOMAN AFB, NM, 88330","No_Match",NA,NA,NA,NA
23369,"1021 66TH STREET","BROOKLYN","NY",11219,40.629041328,-74.0081953229999,369,"1021 66TH STREET, BROOKLYN, NY, 11219","Match","Exact","1021 66TH ST, BROOKLYN, NY, 11219",59094905,"L"
23370,"1021 6TH AVENUE","AUGUSTA","GA",30901,33.4499341640001,-81.9900784769999,370,"1021 6TH AVENUE, AUGUSTA, GA, 30901","Match","Exact","1021 6TH AVE, AUGUSTA, GA, 30901",55640323,"R"
23371,"1021 ABBIE GLENN LANE","SHREVEPORT","LA",71106,32.3543884900001,-93.68819759,371,"1021 ABBIE GLENN LANE, SHREVEPORT, LA, 71106","Match","Exact","1021 ABBIE GLENN LN, SHREVEPORT, LA, 71106",625656465,"R"
23372,"1021 ACORN HILL LANE","WEST CHICAGO","IL",60185,41.902446479,-88.2120241919999,372,"1021 ACORN HILL LANE, WEST CHICAGO, IL, 60185","Match","Exact","1021 ACORN HILL LN, WEST CHICAGO, IL, 60185",112591961,"L"
23373,"1021 ALDEN CIR","DEKALB","IL",60115,NA,NA,373,"1021 ALDEN CIR, DEKALB, IL, 60115","No_Match",NA,NA,NA,NA
23374,"1021 AMBER LANE","PINEVILLE","LA",71360,31.356169278,-92.310889442,374,"1021 AMBER LANE, PINEVILLE, LA, 71360","Match","Exact","1021 AMBER LN, PINEVILLE, LA, 71360",11803269,"L"
23375,"1021 ANDERSON STREET","DURHAM","NC",27705,35.99171598,-78.932965009,375,"1021 ANDERSON STREET, DURHAM, NC, 27705","Match","Exact","1021 ANDERSON ST, DURHAM, NC, 27705",71774109,"L"
23376,"1021 ANDERSON STRET","DURHAM","NC",27705,35.99171598,-78.932965009,376,"1021 ANDERSON STRET, DURHAM, NC, 27705","Match","Non_Exact","1021 ANDERSON ST, DURHAM, NC, 27705",71774109,"L"
23377,"1021 AQUA LANE","MADISON","GA",30650,33.5139755870001,-83.496908989,377,"1021 AQUA LANE, MADISON, GA, 30650","Match","Exact","1021 AQUA LN, MADISON, GA, 30650",77591880,"L"
23378,"1021 ARIEL COURT","SUMMERVILLE","SC",29485,32.9601767950001,-80.1918171,378,"1021 ARIEL COURT, SUMMERVILLE, SC, 29485","Match","Exact","1021 ARIEL CT, SUMMERVILLE, SC, 29485",178467937,"L"
23379,"1021 ARLINGTON BLVD APT 730","ARLINGTON","VA",22209,38.8909467820001,-77.0685436529999,379,"1021 ARLINGTON BLVD APT 730, ARLINGTON, VA, 22209","Match","Exact","1021 ARLINGTON BLVD, ARLINGTON, VA, 22209",635443880,"R"
23380,"1021 ARLINGTON BLVD","ARLINGTON","VA",22209,38.8909467820001,-77.0685436529999,380,"1021 ARLINGTON BLVD, ARLINGTON, VA, 22209","Match","Exact","1021 ARLINGTON BLVD, ARLINGTON, VA, 22209",635443880,"R"
23381,"1021 ASH ST","CROSSETT","AR",71635,33.1101502590001,-91.949693326,381,"1021 ASH ST, CROSSETT, AR, 71635","Match","Exact","1021 ASH ST, CROSSETT, AR, 71635",31450259,"L"
23382,"1021 ASHLAND RD APT 504","COLUMBIA","MO",65201,38.937721008,-92.319767698,382,"1021 ASHLAND RD APT 504, COLUMBIA, MO, 65201","Match","Exact","1021 ASHLAND RD, COLUMBIA, MO, 65201",604989833,"R"
23383,"1021 ASHPOLE SWAMP RD","NICHOLS","SC",29581,34.336823983,-79.1407919489999,383,"1021 ASHPOLE SWAMP RD, NICHOLS, SC, 29581","Match","Exact","1021 ASHPOLE SWAMP RD, NICHOLS, SC, 29581",28834780,"L"
23384,"1021 ASKHAM DR","CARY","NC",27511,35.7744710360001,-78.752138625,384,"1021 ASKHAM DR, CARY, NC, 27511","Match","Exact","1021 ASKHAM DR, CARY, NC, 27511",72499333,"R"
23385,"1021 ASPEN PLACE","WEST BEND","WI",53095,43.407515189,-88.1896801,385,"1021 ASPEN PLACE, WEST BEND, WI, 53095","Match","Exact","1021 ASPEN PL, WEST BEND, WI, 53095",79562755,"L"
23386,"1021 AUDREY WAY","ALLEN","TX",75013,33.104446454,-96.685336482,386,"1021 AUDREY WAY, ALLEN, TX, 75013","Match","Exact","1021 AUDREY WAY, ALLEN, TX, 75013",624271399,"R"
23387,"1021 AUGUSTA CIRCLE","NORTH HUNTINGDON","PA",15642,40.309690382,-79.681669447,387,"1021 AUGUSTA CIRCLE, NORTH HUNTINGDON, PA, 15642","Match","Exact","1021 AUGUSTA CIR, N HUNTINGDON, PA, 15642",52997643,"R"
23388,"1021 AVON ROAD","WEST PALM BEACH","FL",33401,26.691441786,-80.0649248559999,388,"1021 AVON ROAD, WEST PALM BEACH, FL, 33401","Match","Exact","1021 AVON RD, WEST PALM BEACH, FL, 33401",115562991,"R"
23389,"1021 AVONDALE  AVENUE","COLUMBUS","OH",43212,39.979252247,-83.042190515,389,"1021 AVONDALE  AVENUE, COLUMBUS, OH, 43212","Match","Exact","1021 AVONDALE AVE, COLUMBUS, OH, 43212",218681081,"L"
23390,"1021 BALDWIN COMMONS DR","ARDEN","NC",28704,NA,NA,390,"1021 BALDWIN COMMONS DR, ARDEN, NC, 28704","No_Match",NA,NA,NA,NA
23391,"1021 BANDELIER DR","ALLEN","TX",75013,33.126404483,-96.688328139,391,"1021 BANDELIER DR, ALLEN, TX, 75013","Match","Exact","1021 BANDELIER DR, ALLEN, TX, 75013",210520309,"L"
23392,"1021 BARCLAY ROAD","CHESTER SPRINGS","PA",19425,40.084525913,-75.682401453,392,"1021 BARCLAY ROAD, CHESTER SPRINGS, PA, 19425","Match","Non_Exact","1021 BARCLAY, CHESTER SPRINGS, PA, 19425",642921160,"L"
23393,"1021 BATTERS BOX COURT","O'FALLON","MO",63366,38.829812621,-90.681560584,393,"1021 BATTERS BOX COURT, O'FALLON, MO, 63366","Match","Non_Exact","1021 BATTERS BOX CT, O FALLON, MO, 63366",605525253,"R"
23394,"1021 BAYWOOD DR","WILLIAMSTOWN","NJ",8094,39.7029086040001,-75.004375173,394,"1021 BAYWOOD DR, WILLIAMSTOWN, NJ, 8094","Match","Exact","1021 BAYWOOD DR, WILLIAMSTOWN, NJ, 08094",134600826,"L"
23395,"1021 BAYWOOD DRIVE","WILLIAMTSOWN","NJ",8094,39.7029086040001,-75.004375173,395,"1021 BAYWOOD DRIVE, WILLIAMTSOWN, NJ, 8094","Match","Non_Exact","1021 BAYWOOD DR, WILLIAMSTOWN, NJ, 08094",134600826,"L"
23396,"1021 BEESON ROAD","TALENT","OR",97540,42.2331805590001,-122.806074937,396,"1021 BEESON ROAD, TALENT, OR, 97540","Match","Non_Exact","1021 BEESON LN, TALENT, OR, 97540",155540884,"R"
23397,"1021 BELLOWS AVE","COLUMBUS","OH",43223,39.9514804360001,-83.0262668459999,397,"1021 BELLOWS AVE, COLUMBUS, OH, 43223","Match","Exact","1021 BELLOWS AVE, COLUMBUS, OH, 43223",218648944,"L"
23398,"1021 BIRCH LANE","PHILLIPSBURG","NJ",8865,NA,NA,398,"1021 BIRCH LANE, PHILLIPSBURG, NJ, 8865","No_Match",NA,NA,NA,NA
23399,"1021 BRIGHTHURST DRIVE UNIT 306","RALEIGH","NC",27605,35.795781053,-78.6505016359999,399,"1021 BRIGHTHURST DRIVE UNIT 306, RALEIGH, NC, 27605","Match","Exact","1021 BRIGHTHURST DR, RALEIGH, NC, 27605",612818114,"L"
23400,"1021 BRITTEN AVE","LANSING","MI",48910,42.7169177230001,-84.566300486,400,"1021 BRITTEN AVE, LANSING, MI, 48910","Match","Exact","1021 BRITTEN AVE, LANSING, MI, 48910",17498802,"L"
23401,"1021 BROOKS LANE","DELRAY BEACH","FL",33483,26.4437995910001,-80.0635828819999,401,"1021 BROOKS LANE, DELRAY BEACH, FL, 33483","Match","Exact","1021 BROOKS LN, DELRAY BEACH, FL, 33483",115335894,"L"
23402,"1021 BROOKS RD","REIDSVILLE","NC",27320,36.353269212,-79.604830894,402,"1021 BROOKS RD, REIDSVILLE, NC, 27320","Match","Exact","1021 BROOKS RD, REIDSVILLE, NC, 27320",56219513,"R"
23403,"1021 BROOKSTONE CT","GEORGETOWN","IN",47122,38.290154923,-85.952860237,403,"1021 BROOKSTONE CT, GEORGETOWN, IN, 47122","Match","Exact","1021 BROOKSTONE CT, GEORGETOWN, IN, 47122",89551894,"R"
23404,"1021 BURDETTE ROAD","GRANDVIEW","TN",37337,35.745671288,-84.855091866,404,"1021 BURDETTE ROAD, GRANDVIEW, TN, 37337","Match","Exact","1021 BURDETTE RD, GRANDVIEW, TN, 37337",615207118,"L"
23405,"1021 BURLINGAME AVE","BURLINGAME","CA",94010,37.580809016,-122.34384315,405,"1021 BURLINGAME AVE, BURLINGAME, CA, 94010","Match","Exact","1021 BURLINGAME AVE, BURLINGAME, CA, 94010",192376461,"L"
23406,"1021 BURLINGAME AVENUE","BURLINGAME","CA",94010,37.580809016,-122.34384315,406,"1021 BURLINGAME AVENUE, BURLINGAME, CA, 94010","Match","Exact","1021 BURLINGAME AVE, BURLINGAME, CA, 94010",192376461,"L"
23407,"1021 CAMDEN HILL COURT","LAWRECEVILLE","GA",30046,33.940114738,-84.012762901,407,"1021 CAMDEN HILL COURT, LAWRECEVILLE, GA, 30046","Match","Non_Exact","1021 CAMDEN HILL CT, LAWRENCEVILLE, GA, 30046",88917574,"R"
23408,"1021 CAMDEN HILL COURT","LAWRENCEVILLE","GA",30046,33.940114738,-84.012762901,408,"1021 CAMDEN HILL COURT, LAWRENCEVILLE, GA, 30046","Match","Exact","1021 CAMDEN HILL CT, LAWRENCEVILLE, GA, 30046",88917574,"R"
23409,"1021 CANNONBALL RUN A-201","KNIGHTDALE","NC",27545,NA,NA,409,"1021 CANNONBALL RUN A-201, KNIGHTDALE, NC, 27545","No_Match",NA,NA,NA,NA
23410,"1021 CARLISLE AVE SUITE H","RICHMOND","VA",23231,37.5175754040001,-77.405845302,410,"1021 CARLISLE AVE SUITE H, RICHMOND, VA, 23231","Match","Exact","1021 CARLISLE AVE, RICHMOND, VA, 23231",625256855,"R"
23411,"1021 CARRINGTON AVE","VIRGINIA BEACH","VA",23464,36.814243397,-76.220234772,411,"1021 CARRINGTON AVE, VIRGINIA BEACH, VA, 23464","Match","Exact","1021 CARRINGTON AVE, VA BCH, VA, 23464",122257457,"R"
23412,"1021 CARRINGTON RIDGE","STOCKBRIDGE","GA",30281,NA,NA,412,"1021 CARRINGTON RIDGE, STOCKBRIDGE, GA, 30281","No_Match",NA,NA,NA,NA
23413,"1021 CASLON WAY APT 207","LANDOVER","MD",20785,NA,NA,413,"1021 CASLON WAY APT 207, LANDOVER, MD, 20785","No_Match",NA,NA,NA,NA
23414,"1021 CENTRAL AVE","HAWARDEN","IA",51023,42.9971233890001,-96.485229687,414,"1021 CENTRAL AVE, HAWARDEN, IA, 51023","Match","Exact","1021 CENTRAL AVE, HAWARDEN, IA, 51023",93366599,"L"
23415,"1021 CHAROLAIS DR","MCDONOUGH","GA",30252,NA,NA,415,"1021 CHAROLAIS DR, MCDONOUGH, GA, 30252","No_Match",NA,NA,NA,NA
23416,"1021 CHERRY ST 3-R","PHILADELPHIA","PA",19107,39.9546285120001,-75.157244899,416,"1021 CHERRY ST 3-R, PHILADELPHIA, PA, 19107","Match","Exact","1021 CHERRY ST, PHILADELPHIA, PA, 19107",131423457,"R"
23417,"1021 CHIEFTAIN LOOKOUT","MADISON","WI",53711,43.0414665810001,-89.4541494329999,417,"1021 CHIEFTAIN LOOKOUT, MADISON, WI, 53711","Match","Exact","1021 CHIEFTAIN LOOKOUT, MADISON, WI, 53711",49468239,"L"
23418,"1021 CHURCH STREET","MILLVILLE","NJ",8322,NA,NA,418,"1021 CHURCH STREET, MILLVILLE, NJ, 8322","No_Match",NA,NA,NA,NA
23419,"1021 COSTA PACIFICA WAY","OCEANSIDE","CA",92054,33.203881353,-117.384992776,419,"1021 COSTA PACIFICA WAY, OCEANSIDE, CA, 92054","Match","Exact","1021 COSTA PACIFICA WAY, OCEANSIDE, CA, 92054",624803220,"L"
23420,"1021 CRAGMONT AVE","BERKELEY","CA",94708,37.8903097680001,-122.264889613,420,"1021 CRAGMONT AVE, BERKELEY, CA, 94708","Match","Exact","1021 CRAGMONT AVE, BERKELEY, CA, 94708",634222377,"L"
23421,"1021 CRAVENS AVE UNIT 12","TORRANCE","CA",90501,33.837316624,-118.31924388,421,"1021 CRAVENS AVE UNIT 12, TORRANCE, CA, 90501","Match","Exact","1021 CRAVENS AVE, TORRANCE, CA, 90501",142758803,"R"
23422,"1021 CRESTVIEW CT","KINGSTON SPRINGS","TN",37082,36.0722480800001,-87.103762015,422,"1021 CRESTVIEW CT, KINGSTON SPRINGS, TN, 37082","Match","Exact","1021 CRESTVIEW CT, KINGSTON SPGS, TN, 37082",72880716,"L"
23423,"1021 CROCKET DR","FORT WORTH","TX",76028,32.5919953710001,-97.3017151449999,423,"1021 CROCKET DR, FORT WORTH, TX, 76028","Match","Non_Exact","1021 CROCKETT DR, BRIAROAKS, TX, 76028",101896112,"L"
23424,"1021 CTY RD 315","ASPERMONT",NA,NA,33.273319273,-100.267523009,424,"1021 CTY RD 315, ASPERMONT, , ","Match","Exact","1021 CO RD 315, ASPERMONT, TX, 79502",186365083,"R"
23425,"1021 CTY RD 315","ASPERMONT","TX",79502,33.273319273,-100.267523009,425,"1021 CTY RD 315, ASPERMONT, TX, 79502","Match","Exact","1021 CO RD 315, ASPERMONT, TX, 79502",186365083,"R"
23426,"1021 DARLINGTON STREET","TIMMONSVILLE","SC",29161,34.1502505980001,-79.941617058,426,"1021 DARLINGTON STREET, TIMMONSVILLE, SC, 29161","Match","Exact","1021 DARLINGTON ST, TIMMONSVILLE, SC, 29161",637231164,"L"
23427,"1021 DECATURE STREET NE","WASHINGTON","DC",20017,38.9482572530001,-76.992251604,427,"1021 DECATURE STREET NE, WASHINGTON, DC, 20017","Match","Non_Exact","1021 DECATUR ST NE, WASHINGTON, DC, 20017",76228256,"R"
23428,"1021 DELMAS AVE","NASHVILLE","TN",37216,36.199781714,-86.743034971,428,"1021 DELMAS AVE, NASHVILLE, TN, 37216","Match","Exact","1021 DELMAS AVE, NASHVILLE, TN, 37216",97212123,"L"
23429,"1021 DEVONSHIRE DR","PROVIDENCE VILLAGE","TX",76227,33.2275407670001,-96.96406082,429,"1021 DEVONSHIRE DR, PROVIDENCE VILLAGE, TX, 76227","Match","Exact","1021 DEVONSHIRE DR, PROVIDENCE VILLAGE, TX, 76227",218074490,"R"
23430,"1021 DIAMOND WAY","BOGART","GA",30622,NA,NA,430,"1021 DIAMOND WAY, BOGART, GA, 30622","No_Match",NA,NA,NA,NA
23431,"1021 DILLON CIRCLE","FOSTORIA","OH",44830,41.1458676610001,-83.394348324,431,"1021 DILLON CIRCLE, FOSTORIA, OH, 44830","Match","Exact","1021 DILLON CIR, FOSTORIA, OH, 44830",12974908,"R"
23432,"1021 DODGE AVE UNIT B","CHICAGO","IL",60202,42.036137689,-87.699246454,432,"1021 DODGE AVE UNIT B, CHICAGO, IL, 60202","Match","Non_Exact","1021 DODGE AVE, EVANSTON, IL, 60202",111743281,"R"
23433,"1021 DODGE AVE UNIT B","EVANSTON","IL",60202,42.036137689,-87.699246454,433,"1021 DODGE AVE UNIT B, EVANSTON, IL, 60202","Match","Exact","1021 DODGE AVE, EVANSTON, IL, 60202",111743281,"R"
23434,"1021 DOWNINGTON AVE","SALT LAKE CITY","UT",84105,40.7310560980001,-111.861931549,434,"1021 DOWNINGTON AVE, SALT LAKE CITY, UT, 84105","Match","Non_Exact","1021 E DOWNINGTON AVE, SALT LAKE CITY, UT, 84105",176080566,"L"
23435,"1021 DYRE ST","PHILADELPHIA","PA",19124,40.0267849480001,-75.089140819,435,"1021 DYRE ST, PHILADELPHIA, PA, 19124","Match","Exact","1021 DYRE ST, PHILADELPHIA, PA, 19124",131426818,"L"
23436,"1021 E 170TH PLACE","SOUTH HOLLAND","IL",60473,41.5854641500001,-87.5923721899999,436,"1021 E 170TH PLACE, SOUTH HOLLAND, IL, 60473","Match","Exact","1021 E 170TH PL, SOUTH HOLLAND, IL, 60473",111780718,"R"
23437,"1021 E 25TH AVENUE NORTH","KANSAS CITY","MO",64116,39.147232703,-94.5698918849999,437,"1021 E 25TH AVENUE NORTH, KANSAS CITY, MO, 64116","Match","Non_Exact","1021 E 25TH AVE, KANSAS CITY, MO, 64116",89756771,"R"
23438,"1021 E CARDINAL DRIVE","SUNNYVALE","CA",94087,37.363233316,-122.061377952,438,"1021 E CARDINAL DRIVE, SUNNYVALE, CA, 94087","Match","Exact","1021 E CARDINAL DR, SUNNYVALE, CA, 94087",122936853,"R"
23439,"1021 E HARRISON ST","TACOMA","WA",98404,47.229926274,-122.417378424,439,"1021 E HARRISON ST, TACOMA, WA, 98404","Match","Exact","1021 E HARRISON ST, TACOMA, WA, 98404",184626950,"L"
23440,"1021 EAST 87TH STREET APT 6-C","BROOKLYN","NY",11236,40.637049523,-73.906180074,440,"1021 EAST 87TH STREET APT 6-C, BROOKLYN, NY, 11236","Match","Exact","1021 E 87TH ST, BROOKLYN, NY, 11236",59086770,"L"
23441,"1021 EAST BROAD STREET","COLUMBUS","OH",43205,39.9653450180001,-82.973485728,441,"1021 EAST BROAD STREET, COLUMBUS, OH, 43205","Match","Exact","1021 E BROAD ST, COLUMBUS, OH, 43205",218649274,"R"
23442,"1021 EAST BROADWAY 5","MT. PLEASANT","MI",48858,43.6044970200001,-84.764791501,442,"1021 EAST BROADWAY 5, MT. PLEASANT, MI, 48858","Match","Non_Exact","1021 E BROADWAY ST, MOUNT PLEASANT, MI, 48858",110217821,"R"
23443,"1021 EAST ELMHURST AVE","PEORIA","IL",61603,40.7254690090001,-89.57868705,443,"1021 EAST ELMHURST AVE, PEORIA, IL, 61603","Match","Exact","1021 E ELMHURST AVE, PEORIA, IL, 61603",8719253,"L"
23444,"1021 EAST HOLLYWOOD AVE","SALT LAKE CITY","UT",84105,40.7273859410001,-111.861795801,444,"1021 EAST HOLLYWOOD AVE, SALT LAKE CITY, UT, 84105","Match","Exact","1021 E HOLLYWOOD AVE, SALT LAKE CITY, UT, 84105",176080927,"L"
23445,"1021 EAST MAIN STREET","WASHINGTON","IA",52353,41.2993077740001,-91.680941371,445,"1021 EAST MAIN STREET, WASHINGTON, IA, 52353","Match","Exact","1021 E MAIN ST, WASHINGTON, IA, 52353",84182376,"L"
23446,"1021 EAST PLEASANT STREET","WYNDMOOR","PA",19038,40.0832383920001,-75.186311943,446,"1021 EAST PLEASANT STREET, WYNDMOOR, PA, 19038","Match","Exact","1021 E PLEASANT ST, WYNDMOOR, PA, 19038",135090422,"L"
23447,"1021 EAST SHERIDAN STREET","PHOENIX","AZ",85006,33.474759181,-112.059476836,447,"1021 EAST SHERIDAN STREET, PHOENIX, AZ, 85006","Match","Exact","1021 E SHERIDAN ST, PHOENIX, AZ, 85006",128213159,"R"
23448,"1021 EAST WASHINGTON","NORTH LITTLE ROCK","AR",72114,34.75389561,-92.256735105,448,"1021 EAST WASHINGTON, NORTH LITTLE ROCK, AR, 72114","Match","Non_Exact","1021 E WASHINGTON AVE, N LITTLE ROCK, AR, 72114",83515282,"L"
23449,"1021 ELDER RIDGE DR","BISHOP","GA",30621,33.847221991,-83.487177065,449,"1021 ELDER RIDGE DR, BISHOP, GA, 30621","Match","Exact","1021 ELDER RIDGE DR, BISHOP, GA, 30621",5046944,"L"
23450,"1021 ELK RIDGE RD","PROSPER","TX",75078,33.245789959,-96.7719783639999,450,"1021 ELK RIDGE RD, PROSPER, TX, 75078","Match","Exact","1021 ELK RIDGE RD, PROSPER, TX, 75078",619940669,"R"
23451,"1021 EMBER CREST DRIVE","ROCKWALL","TX",75087,32.971507742,-96.448802337,451,"1021 EMBER CREST DRIVE, ROCKWALL, TX, 75087","Match","Exact","1021 EMBER CREST DR, ROCKWALL, TX, 75087",642816410,"R"
23452,"1021 ESTES PARK","TAYLOR","TX",76574,30.597639873,-97.4263058829999,452,"1021 ESTES PARK, TAYLOR, TX, 76574","Match","Exact","1021 ESTES PARK, TAYLOR, TX, 76574",648536105,"L"
23453,"1021 EVERRON CT","REDLANDS","CA",92374,34.0478850480001,-117.161983378,453,"1021 EVERRON CT, REDLANDS, CA, 92374","Match","Exact","1021 EVERRON CT, REDLANDS, CA, 92374",144664860,"L"
23454,"1021 F AVENUE","VIRGINIA BEACH","VA",23454,36.8118875810001,-76.020957905,454,"1021 F AVENUE, VIRGINIA BEACH, VA, 23454","Match","Exact","1021 F AVE, VIRGINIA BCH, VA, 23454",122271429,"L"
23455,"1021 FEATHERSTONE LANE","OVERBROOK","OK",73453,NA,NA,455,"1021 FEATHERSTONE LANE, OVERBROOK, OK, 73453","No_Match",NA,NA,NA,NA
23456,"1021 FIFTH ST","SANDUSKY","OH",44870,41.449256866,-82.695915245,456,"1021 FIFTH ST, SANDUSKY, OH, 44870","Match","Exact","1021 5TH ST, SANDUSKY, OH, 44870",55324499,"R"
23457,"1021 FIR LOOP","REPUBLIC","WA",99166,48.6551022610001,-118.734648806,457,"1021 FIR LOOP, REPUBLIC, WA, 99166","Match","Non_Exact","1021 FIR LOOP RD, REPUBLIC, WA, 99166",612294778,"R"
23458,"1021 FIRST ST","SPOONER","WI",54801,45.8300428320001,-91.898210983,458,"1021 FIRST ST, SPOONER, WI, 54801","Match","Exact","1021 1ST ST, SPOONER, WI, 54801",196342145,"L"
23459,"1021 FLAGTREE LANE","PIKESVILLE","MD",21208,39.364111199,-76.743512599,459,"1021 FLAGTREE LANE, PIKESVILLE, MD, 21208","Match","Exact","1021 FLAGTREE LN, PIKESVILLE, MD, 21208",191468201,"R"
23460,"1021 FLORIDA STREET","GROVELAND","FL",34736,28.55928678,-81.8451715039999,460,"1021 FLORIDA STREET, GROVELAND, FL, 34736","Match","Exact","1021 FLORIDA ST, GROVELAND, FL, 34736",94105670,"R"
23461,"1021 FORBISHIRE DRIVE","MATTHEWS","NC",28104,35.0567355490001,-80.721764948,461,"1021 FORBISHIRE DRIVE, MATTHEWS, NC, 28104","Match","Exact","1021 FORBISHIRE DR, MATTHEWS, NC, 28104",614175695,"L"
23462,"1021 FORDHAM RD","NEPTUNE","NJ",7753,40.213689173,-74.050238346,462,"1021 FORDHAM RD, NEPTUNE, NJ, 7753","Match","Exact","1021 FORDHAM RD, NEPTUNE, NJ, 07753",636495841,"L"
23463,"1021 FOREST BROOK DR","BIRMINGHAM","AL",35226,33.4342975320001,-86.8304545029999,463,"1021 FOREST BROOK DR, BIRMINGHAM, AL, 35226","Match","Exact","1021 FOREST BROOK DR, BIRMINGHAM, AL, 35226",640552303,"L"
23464,"1021 FOUNDERS LAKE DRIVE","ATHENS","GA",30606,33.9067852790001,-83.4533009899999,464,"1021 FOUNDERS LAKE DRIVE, ATHENS, GA, 30606","Match","Exact","1021 FOUNDERS LAKE DR, ATHENS, GA, 30606",637665471,"L"
23465,"1021 FOUNTAIN COIN LOOP","ORLANDO","FL",32828,28.550333134,-81.1551915909999,465,"1021 FOUNTAIN COIN LOOP, ORLANDO, FL, 32828","Match","Exact","1021 FOUNTAIN COIN LOOP, ORLANDO, FL, 32828",640903169,"R"
23466,"1021 FOURTH STREET","NEW ORLEANS","LA",70130,29.9260659130001,-90.0811181609999,466,"1021 FOURTH STREET, NEW ORLEANS, LA, 70130","Match","Exact","1021 4TH ST, NEW ORLEANS, LA, 70130",191714058,"R"
23467,"1021 FURNAS DR","VANDALIA","OH",45377,39.917566838,-84.273349866,467,"1021 FURNAS DR, VANDALIA, OH, 45377","Match","Non_Exact","1021 FURNAS RD, VANDALIA, OH, 45377",143609282,"L"
23468,"1021 GAGE","RICHLAND","WA",99352,NA,NA,468,"1021 GAGE, RICHLAND, WA, 99352","No_Match",NA,NA,NA,NA
23469,"1021 GAVELSTON AVENUE","PITTSBURGH","PA",15233,NA,NA,469,"1021 GAVELSTON AVENUE, PITTSBURGH, PA, 15233","No_Match",NA,NA,NA,NA
23470,"1021 GEORGINA AVE","SANTA MONICA","CA",90402,34.0351463320001,-118.504959222,470,"1021 GEORGINA AVE, SANTA MONICA, CA, 90402","Match","Exact","1021 GEORGINA AVE, SANTA MONICA, CA, 90402",142715284,"L"
23471,"1021 GERMAN SCHOOL RD","RICHMOND","VA",23225,37.516391582,-77.5122796329999,471,"1021 GERMAN SCHOOL RD, RICHMOND, VA, 23225","Match","Exact","1021 GERMAN SCHOOL RD, RICHMOND, VA, 23225",201536374,"R"
23472,"1021 GIFFORD COURT","UNION","NJ",7083,40.696495676,-74.2867689239999,472,"1021 GIFFORD COURT, UNION, NJ, 7083","Match","Exact","1021 GIFFORD CT, UNION, NJ, 07083",60593349,"R"
23473,"1021 GIRARD BOULEVARD","ALBUQUERQUE","NM",87106,NA,NA,473,"1021 GIRARD BOULEVARD, ALBUQUERQUE, NM, 87106","Tie",NA,NA,NA,NA
23474,"1021 GOLF COURT","MOUNTAIN VIEW","CA",94040,37.374509161,-122.061983725,474,"1021 GOLF COURT, MOUNTAIN VIEW, CA, 94040","Match","Exact","1021 GOLF CT, MOUNTAIN VIEW, CA, 94040",122935233,"L"
23475,"1021 GRAND CLUB PL","FORT PIERCE","FL",34982,27.41610795,-80.3233513819999,475,"1021 GRAND CLUB PL, FORT PIERCE, FL, 34982","Match","Exact","1021 GRAND CLUB PL, FORT PIERCE, FL, 34982",611642405,"L"
23476,"1021 GRANDE VIEW PASS","MAYLENE","AL",35114,33.198650582,-86.856083822,476,"1021 GRANDE VIEW PASS, MAYLENE, AL, 35114","Match","Exact","1021 GRANDE VIEW PASS, MAYLENE, AL, 35114",625087264,"L"
23477,"1021 GRANVILLE DRIVE","NEWPORT BEACH","CA",92660,33.614670044,-117.879029925,477,"1021 GRANVILLE DRIVE, NEWPORT BEACH, CA, 92660","Match","Exact","1021 GRANVILLE DR, NEWPORT BEACH, CA, 92660",645970113,"R"
23478,"1021 GREEN AVE","MOBILE","AL",36610,30.7497616570001,-88.081601807,478,"1021 GREEN AVE, MOBILE, AL, 36610","Match","Exact","1021 GREEN AVE, MOBILE, AL, 36610",61851260,"L"
23479,"1021 GREENE STREET","MARIETTA","OH",45750,39.4187400050001,-81.4308201699999,479,"1021 GREENE STREET, MARIETTA, OH, 45750","Match","Exact","1021 GREENE ST, MARIETTA, OH, 45750",45681797,"L"
23480,"1021 GREENWOOD AVENUE","TRENTON","NJ",8609,40.2226710510001,-74.7397283619999,480,"1021 GREENWOOD AVENUE, TRENTON, NJ, 8609","Match","Exact","1021 GREENWOOD AVE, TRENTON, NJ, 08609",60181176,"R"
23481,"1021 GRIFFIN STREET","TALLAHASSEE","FL",32304,30.455440292,-84.2992552439999,481,"1021 GRIFFIN STREET, TALLAHASSEE, FL, 32304","Match","Exact","1021 GRIFFIN ST, TALLAHASSEE, FL, 32304",82850094,"L"
23482,"1021 HALIFAX STREET","PETERSBURG","VA",23803,37.21255533,-77.410504271,482,"1021 HALIFAX STREET, PETERSBURG, VA, 23803","Match","Exact","1021 HALIFAX ST, PETERSBURG, VA, 23803",54214790,"R"
23483,"1021 HAMILTON LANE","WESSON","MS",39191,31.7385568350001,-90.3493500129999,483,"1021 HAMILTON LANE, WESSON, MS, 39191","Match","Exact","1021 HAMILTON LN, WESSON, MS, 39191",627303530,"R"
23484,"1021 HARMONY DR","CANTON","GA",30115,34.2483454580001,-84.40621638,484,"1021 HARMONY DR, CANTON, GA, 30115","Match","Exact","1021 HARMONY DR, CANTON, GA, 30115",641991958,"R"
23485,"1021 HASTINGS ST","BALDWIN","NY",11510,40.636146486,-73.6051128569999,485,"1021 HASTINGS ST, BALDWIN, NY, 11510","Match","Exact","1021 HASTINGS ST, BALDWIN, NY, 11510",147638009,"L"
23486,"1021 HAWTHORNE LOOP","DRIFTWOOD","TX",78619,30.1361403670001,-97.987182498,486,"1021 HAWTHORNE LOOP, DRIFTWOOD, TX, 78619","Match","Exact","1021 HAWTHORNE LOOP, DRIFTWOOD, TX, 78619",641082721,"L"
23487,"1021 HEATHER GLEN DRIVE","MINNEOLA","FL",34715,28.595781946,-81.766292446,487,"1021 HEATHER GLEN DRIVE, MINNEOLA, FL, 34715","Match","Exact","1021 HEATHER GLEN DR, MINNEOLA, FL, 34715",94194159,"R"
23488,"1021 HELMSDALE DR","WESLEY CHAPEL","FL",33543,28.171912643,-82.310425411,488,"1021 HELMSDALE DR, WESLEY CHAPEL, FL, 33543","Match","Exact","1021 HELMSDALE DR, WESLEY CHAPEL, FL, 33543",632514275,"R"
23489,"1021 HIGH MEADOWS DRIVE","GIBSONIA","PA",15044,40.619952035,-79.936225173,489,"1021 HIGH MEADOWS DRIVE, GIBSONIA, PA, 15044","Match","Exact","1021 HIGH MEADOWS DR, GIBSONIA, PA, 15044",51707623,"R"
23490,"1021 HIGHLAND RIDGE DRIVE","MANHATTAN","KS",66503,39.1812287980001,-96.642085731,490,"1021 HIGHLAND RIDGE DRIVE, MANHATTAN, KS, 66503","Match","Exact","1021 HIGHLAND RIDGE DR, MANHATTAN, KS, 66503",633161440,"L"
23491,"1021 HIGHWAY 71 SOUTH","CHENEYVILLE","LA",71325,NA,NA,491,"1021 HIGHWAY 71 SOUTH, CHENEYVILLE, LA, 71325","No_Match",NA,NA,NA,NA
23492,"1021 HOL HI DRIVE","KALAMAZOO","MI",49008,42.25922404,-85.598256357,492,"1021 HOL HI DRIVE, KALAMAZOO, MI, 49008","Match","Exact","1021 HOL HI DR, KALAMAZOO, MI, 49008",12229333,"L"
23493,"1021 HWY 171","GRACEVILLE","FL",32440,30.9910966080001,-85.538276868,493,"1021 HWY 171, GRACEVILLE, FL, 32440","Match","Non_Exact","1021 CO RD 171, GRACEVILLE, FL, 32440",32686088,"R"
23494,"1021 JESSICA DRIVE","BURLESON","TX",76028,32.5616822270001,-97.338147965,494,"1021 JESSICA DRIVE, BURLESON, TX, 76028","Match","Exact","1021 JESSICA DR, BURLESON, TX, 76028",101952257,"R"
23495,"1021 JESSIE RD STE J","LITTLE ROCK","AR",72202,34.758778212,-92.302899355,495,"1021 JESSIE RD STE J, LITTLE ROCK, AR, 72202","Match","Exact","1021 JESSIE RD, LITTLE ROCK, AR, 72202",83508708,"R"
23496,"1021 JOBS RUN ROAD","KERENS","WV",26276,39.0666991420001,-79.712314007,496,"1021 JOBS RUN ROAD, KERENS, WV, 26276","Match","Exact","1021 JOBS RUN, KERENS, WV, 26276",652002573,"L"
23497,"1021 JUNEAU ST","KEWAUNEE","WI",54216,44.4528638620001,-87.505908011,497,"1021 JUNEAU ST, KEWAUNEE, WI, 54216","Match","Exact","1021 JUNEAU ST, KEWAUNEE, WI, 54216",148177958,"L"
23498,"1021 KATHERINE LANE","GREENSBORO","GA",30642,33.441189654,-83.2462795229999,498,"1021 KATHERINE LANE, GREENSBORO, GA, 30642","Match","Exact","1021 KATHERINE LN, GREENSBORO, GA, 30642",16629325,"R"
23499,"1021 KELSO LN","BURLINGTON","NC",27215,36.0612149240001,-79.5245841459999,499,"1021 KELSO LN, BURLINGTON, NC, 27215","Match","Exact","1021 KELSO LN, BURLINGTON, NC, 27215",635791469,"R"
23500,"1021 KINGS COURT","WATKINSVILLE","GA",30677,33.873839451,-83.4595840109999,500,"1021 KINGS COURT, WATKINSVILLE, GA, 30677","Match","Exact","1021 KINGS CT, WATKINSVILLE, GA, 30677",5040130,"L"
