"ID","Address","City","State","Zip","lat","long","id","input_address","match_indicator","match_type","matched_address","tiger_line_id","tiger_side"
989501,"PO BOX 504","SHINER","TX",77984,NA,NA,1,"PO BOX 504, SHINER, TX, 77984","No_Match",NA,NA,NA,NA
989502,"PO BOX 504","SPIRIT LAKE","ID",83869,NA,NA,2,"PO BOX 504, SPIRIT LAKE, ID, 83869","No_Match",NA,NA,NA,NA
989503,"PO BOX 504","STANTON","NE",68779,NA,NA,3,"PO BOX 504, STANTON, NE, 68779","No_Match",NA,NA,NA,NA
989504,"PO BOX 504","SURREY","ND",58785,NA,NA,4,"PO BOX 504, SURREY, ND, 58785","No_Match",NA,NA,NA,NA
989505,"PO BOX 504","TESUQUE","NM",87574,NA,NA,5,"PO BOX 504, TESUQUE, NM, 87574","No_Match",NA,NA,NA,NA
989506,"PO BOX 504","WAUTOMA","WI",54982,NA,NA,6,"PO BOX 504, WAUTOMA, WI, 54982","No_Match",NA,NA,NA,NA
989507,"PO BOX 504","YORK","SC",29745,NA,NA,7,"PO BOX 504, YORK, SC, 29745","No_Match",NA,NA,NA,NA
989508,"PO BOX 5040","MANCHESTER","NH",3108,NA,NA,8,"PO BOX 5040, MANCHESTER, NH, 3108","No_Match",NA,NA,NA,NA
989509,"PO BOX 50422","KNOXVILLE","TN",37950,NA,NA,9,"PO BOX 50422, KNOXVILLE, TN, 37950","No_Match",NA,NA,NA,NA
989510,"PO BOX 50423","AMARILLO","TX",79159,NA,NA,10,"PO BOX 50423, AMARILLO, TX, 79159","No_Match",NA,NA,NA,NA
989511,"PO BOX 50423","PROVO","UT",84605,NA,NA,11,"PO BOX 50423, PROVO, UT, 84605","No_Match",NA,NA,NA,NA
989512,"PO BOX 50428","EUGENE","OR",97405,NA,NA,12,"PO BOX 50428, EUGENE, OR, 97405","No_Match",NA,NA,NA,NA
989513,"PO BOX 50430","FORT MYERS","FL",33994,NA,NA,13,"PO BOX 50430, FORT MYERS, FL, 33994","No_Match",NA,NA,NA,NA
989514,"PO BOX 504357","SAIPAN","MP",96950,NA,NA,14,"PO BOX 504357, SAIPAN, MP, 96950","No_Match",NA,NA,NA,NA
989515,"PO BOX 5044","ETNA","WY",83118,NA,NA,15,"PO BOX 5044, ETNA, WY, 83118","No_Match",NA,NA,NA,NA
989516,"PO BOX 504490","SAIPAN","MP",96950,NA,NA,16,"PO BOX 504490, SAIPAN, MP, 96950","No_Match",NA,NA,NA,NA
989517,"PO BOX 5045","LONG BEACH","CA",90805,NA,NA,17,"PO BOX 5045, LONG BEACH, CA, 90805","No_Match",NA,NA,NA,NA
989518,"PO BOX 504579","SAIPAN","MP",96950,NA,NA,18,"PO BOX 504579, SAIPAN, MP, 96950","No_Match",NA,NA,NA,NA
989519,"PO BOX 5048","BUFFALO GROVE","IL",60089,NA,NA,19,"PO BOX 5048, BUFFALO GROVE, IL, 60089","No_Match",NA,NA,NA,NA
989520,"PO BOX 504963","SAIPAN","MP",96950,NA,NA,20,"PO BOX 504963, SAIPAN, MP, 96950","No_Match",NA,NA,NA,NA
989521,"PO BOX 505 ROUTE 209","KERHONSON","NY",12446,NA,NA,21,"PO BOX 505 ROUTE 209, KERHONSON, NY, 12446","No_Match",NA,NA,NA,NA
989522,"PO BOX 505","ALTON","NH",3809,NA,NA,22,"PO BOX 505, ALTON, NH, 3809","No_Match",NA,NA,NA,NA
989523,"PO BOX 505","ATHENS","TX",75751,NA,NA,23,"PO BOX 505, ATHENS, TX, 75751","No_Match",NA,NA,NA,NA
989524,"PO BOX 505","BIG SANDY","MT",59520,NA,NA,24,"PO BOX 505, BIG SANDY, MT, 59520","No_Match",NA,NA,NA,NA
989525,"PO BOX 505","CHELSEA","OK",74016,NA,NA,25,"PO BOX 505, CHELSEA, OK, 74016","No_Match",NA,NA,NA,NA
989526,"PO BOX 505","DILLON","MT",59725,NA,NA,26,"PO BOX 505, DILLON, MT, 59725","No_Match",NA,NA,NA,NA
989527,"PO BOX 505","EXETER","CA",93221,NA,NA,27,"PO BOX 505, EXETER, CA, 93221","No_Match",NA,NA,NA,NA
989528,"PO BOX 505","HOOPA","CA",95546,NA,NA,28,"PO BOX 505, HOOPA, CA, 95546","No_Match",NA,NA,NA,NA
989529,"PO BOX 505","MABEN","MS",39750,NA,NA,29,"PO BOX 505, MABEN, MS, 39750","No_Match",NA,NA,NA,NA
989530,"PO BOX 505","NAALEHU","HI",96772,NA,NA,30,"PO BOX 505, NAALEHU, HI, 96772","No_Match",NA,NA,NA,NA
989531,"PO BOX 505","PATASKALA","OH",43062,NA,NA,31,"PO BOX 505, PATASKALA, OH, 43062","No_Match",NA,NA,NA,NA
989532,"PO BOX 505","PENN YAN","NY",14527,NA,NA,32,"PO BOX 505, PENN YAN, NY, 14527","No_Match",NA,NA,NA,NA
989533,"PO BOX 505","RICHFIELD SPRINGS","NY",13439,NA,NA,33,"PO BOX 505, RICHFIELD SPRINGS, NY, 13439","No_Match",NA,NA,NA,NA
989534,"PO BOX 505","SCHRIEVER","LA",70395,NA,NA,34,"PO BOX 505, SCHRIEVER, LA, 70395","No_Match",NA,NA,NA,NA
989535,"PO BOX 505","SEWARD","AK",99664,NA,NA,35,"PO BOX 505, SEWARD, AK, 99664","No_Match",NA,NA,NA,NA
989536,"PO BOX 505","TUNNEL HILL","GA",30755,NA,NA,36,"PO BOX 505, TUNNEL HILL, GA, 30755","No_Match",NA,NA,NA,NA
989537,"PO BOX 505","WATERPRROF","LA",71375,NA,NA,37,"PO BOX 505, WATERPRROF, LA, 71375","No_Match",NA,NA,NA,NA
989538,"PO BOX 505","WELLSVILLE","KS",66092,NA,NA,38,"PO BOX 505, WELLSVILLE, KS, 66092","No_Match",NA,NA,NA,NA
989539,"PO BOX 505","WHATELY","MA",1093,NA,NA,39,"PO BOX 505, WHATELY, MA, 1093","No_Match",NA,NA,NA,NA
989540,"PO BOX 505","WILTON","IA",52778,NA,NA,40,"PO BOX 505, WILTON, IA, 52778","No_Match",NA,NA,NA,NA
989541,"PO BOX 5050","WALNUT CREEK","CA",94596,NA,NA,41,"PO BOX 5050, WALNUT CREEK, CA, 94596","No_Match",NA,NA,NA,NA
989542,"PO BOX 505072","SAIPAN","WA",96950,NA,NA,42,"PO BOX 505072, SAIPAN, WA, 96950","No_Match",NA,NA,NA,NA
989543,"PO BOX 5051","CHICAGO","IL",60680,NA,NA,43,"PO BOX 5051, CHICAGO, IL, 60680","No_Match",NA,NA,NA,NA
989544,"PO BOX 5051","PASCO","WA",99301,NA,NA,44,"PO BOX 5051, PASCO, WA, 99301","No_Match",NA,NA,NA,NA
989545,"PO BOX 50516","SANTA BARBARA","CA",93150,NA,NA,45,"PO BOX 50516, SANTA BARBARA, CA, 93150","No_Match",NA,NA,NA,NA
989546,"PO BOX 505233","CHELSEA","MA",2150,NA,NA,46,"PO BOX 505233, CHELSEA, MA, 2150","No_Match",NA,NA,NA,NA
989547,"PO BOX 50527","KALAMAZOO","MI",49005,NA,NA,47,"PO BOX 50527, KALAMAZOO, MI, 49005","No_Match",NA,NA,NA,NA
989548,"PO BOX 5054","CULVER CITY","CA",90231,NA,NA,48,"PO BOX 5054, CULVER CITY, CA, 90231","No_Match",NA,NA,NA,NA
989549,"PO BOX 5054","GREENVILLE","SC",29606,NA,NA,49,"PO BOX 5054, GREENVILLE, SC, 29606","No_Match",NA,NA,NA,NA
989550,"PO BOX 50543","IRVINE","CA",92619,NA,NA,50,"PO BOX 50543, IRVINE, CA, 92619","No_Match",NA,NA,NA,NA
989551,"PO BOX 50546","IRVINE","CA",92619,NA,NA,51,"PO BOX 50546, IRVINE, CA, 92619","No_Match",NA,NA,NA,NA
989552,"PO BOX 50547","ATLANTA","GA",30302,NA,NA,52,"PO BOX 50547, ATLANTA, GA, 30302","No_Match",NA,NA,NA,NA
989553,"PO BOX 5055","ETNA","WY",83118,NA,NA,53,"PO BOX 5055, ETNA, WY, 83118","No_Match",NA,NA,NA,NA
989554,"PO BOX 5058","LARKSPUR","CA",94920,NA,NA,54,"PO BOX 5058, LARKSPUR, CA, 94920","No_Match",NA,NA,NA,NA
989555,"PO BOX 5058","LEUPP","AZ",86035,NA,NA,55,"PO BOX 5058, LEUPP, AZ, 86035","No_Match",NA,NA,NA,NA
989556,"PO BOX 50596","PHOENIX","AZ",85076,NA,NA,56,"PO BOX 50596, PHOENIX, AZ, 85076","No_Match",NA,NA,NA,NA
989557,"PO BOX 506 424 PEQUAWKET TRAIL","FREEDOM","NH",3836,43.78895449,-71.110979963,57,"PO BOX 506 424 PEQUAWKET TRAIL, FREEDOM, NH, 3836","Match","Exact","424 PEQUAWKET TRL, FREEDOM, NH, 03836",639684521,"L"
989558,"PO BOX 506","CHESTERFIELD","NJ",8515,NA,NA,58,"PO BOX 506, CHESTERFIELD, NJ, 8515","No_Match",NA,NA,NA,NA
989559,"PO BOX 506","CHRISTOVAL","TX",76935,NA,NA,59,"PO BOX 506, CHRISTOVAL, TX, 76935","No_Match",NA,NA,NA,NA
989560,"PO BOX 506","COTTONWOOD","ID",83522,NA,NA,60,"PO BOX 506, COTTONWOOD, ID, 83522","No_Match",NA,NA,NA,NA
989561,"PO BOX 506","FLORENCE","TX",76527,NA,NA,61,"PO BOX 506, FLORENCE, TX, 76527","No_Match",NA,NA,NA,NA
989562,"PO BOX 506","IRONTON","MN",56455,NA,NA,62,"PO BOX 506, IRONTON, MN, 56455","No_Match",NA,NA,NA,NA
989563,"PO BOX 506","IRONTON","OH",45638,NA,NA,63,"PO BOX 506, IRONTON, OH, 45638","No_Match",NA,NA,NA,NA
989564,"PO BOX 506","LEBANON","NH",3766,NA,NA,64,"PO BOX 506, LEBANON, NH, 3766","No_Match",NA,NA,NA,NA
989565,"PO BOX 506","NEW YORK","NY",10028,NA,NA,65,"PO BOX 506, NEW YORK, NY, 10028","No_Match",NA,NA,NA,NA
989566,"PO BOX 506","NORTH NEWTON","KS",67117,NA,NA,66,"PO BOX 506, NORTH NEWTON, KS, 67117","No_Match",NA,NA,NA,NA
989567,"PO BOX 506","OCEANO","CA",93475,NA,NA,67,"PO BOX 506, OCEANO, CA, 93475","No_Match",NA,NA,NA,NA
989568,"PO BOX 506","ST CLAIR","MN",56080,NA,NA,68,"PO BOX 506, ST CLAIR, MN, 56080","No_Match",NA,NA,NA,NA
989569,"PO BOX 50602","ATLANTA","GA",30302,NA,NA,69,"PO BOX 50602, ATLANTA, GA, 30302","No_Match",NA,NA,NA,NA
989570,"PO BOX 50602","SARASOTA","FL",34232,NA,NA,70,"PO BOX 50602, SARASOTA, FL, 34232","No_Match",NA,NA,NA,NA
989571,"PO BOX 506028","SAIPAN","MP",96950,NA,NA,71,"PO BOX 506028, SAIPAN, MP, 96950","No_Match",NA,NA,NA,NA
989572,"PO BOX 50604","IRVINE","CA",92619,NA,NA,72,"PO BOX 50604, IRVINE, CA, 92619","No_Match",NA,NA,NA,NA
989573,"PO BOX 5063","GROVE CITY","FL",34224,NA,NA,73,"PO BOX 5063, GROVE CITY, FL, 34224","No_Match",NA,NA,NA,NA
989574,"PO BOX 50635","MIDLAND","TX",79710,NA,NA,74,"PO BOX 50635, MIDLAND, TX, 79710","No_Match",NA,NA,NA,NA
989575,"PO BOX 5064","FORT LEE","VA",23801,NA,NA,75,"PO BOX 5064, FORT LEE, VA, 23801","No_Match",NA,NA,NA,NA
989576,"PO BOX 50641","FORT WORTH","TX",76105,NA,NA,76,"PO BOX 50641, FORT WORTH, TX, 76105","No_Match",NA,NA,NA,NA
989577,"PO BOX 5065","BRECKENRIDGE","CO",80424,NA,NA,77,"PO BOX 5065, BRECKENRIDGE, CO, 80424","No_Match",NA,NA,NA,NA
989578,"PO BOX 506555","SAIPAN","WA",96950,NA,NA,78,"PO BOX 506555, SAIPAN, WA, 96950","No_Match",NA,NA,NA,NA
989579,"PO BOX 5068","BERNALILLO","NM",87004,NA,NA,79,"PO BOX 5068, BERNALILLO, NM, 87004","No_Match",NA,NA,NA,NA
989580,"PO BOX 5068","SOUTHAMPTON","NY",11969,NA,NA,80,"PO BOX 5068, SOUTHAMPTON, NY, 11969","No_Match",NA,NA,NA,NA
989581,"PO BOX 50683","BELLEVUE","WA",98015,NA,NA,81,"PO BOX 50683, BELLEVUE, WA, 98015","No_Match",NA,NA,NA,NA
989582,"PO BOX 507","BUENA VISTA","VA",24416,NA,NA,82,"PO BOX 507, BUENA VISTA, VA, 24416","No_Match",NA,NA,NA,NA
989583,"PO BOX 507","CAMPO","CA",91906,NA,NA,83,"PO BOX 507, CAMPO, CA, 91906","No_Match",NA,NA,NA,NA
989584,"PO BOX 507","FOREST GROVE","OR",97116,NA,NA,84,"PO BOX 507, FOREST GROVE, OR, 97116","No_Match",NA,NA,NA,NA
989585,"PO BOX 507","FRUITA","CO",81521,NA,NA,85,"PO BOX 507, FRUITA, CO, 81521","No_Match",NA,NA,NA,NA
989586,"PO BOX 507","GASTON","OR",97119,NA,NA,86,"PO BOX 507, GASTON, OR, 97119","No_Match",NA,NA,NA,NA
989587,"PO BOX 507","LILLINGTON","NC",27546,NA,NA,87,"PO BOX 507, LILLINGTON, NC, 27546","No_Match",NA,NA,NA,NA
989588,"PO BOX 507","LILLINGTON","NC",28339,NA,NA,88,"PO BOX 507, LILLINGTON, NC, 28339","No_Match",NA,NA,NA,NA
989589,"PO BOX 507","LUMPKIN","GA",31815,NA,NA,89,"PO BOX 507, LUMPKIN, GA, 31815","No_Match",NA,NA,NA,NA
989590,"PO BOX 507","MONTICELLO","GA",31064,NA,NA,90,"PO BOX 507, MONTICELLO, GA, 31064","No_Match",NA,NA,NA,NA
989591,"PO BOX 507","SAXONBURG","PA",16056,NA,NA,91,"PO BOX 507, SAXONBURG, PA, 16056","No_Match",NA,NA,NA,NA
989592,"PO BOX 507","SEABOARD","NC",27876,NA,NA,92,"PO BOX 507, SEABOARD, NC, 27876","No_Match",NA,NA,NA,NA
989593,"PO BOX 507","STRAWN","TX",76475,NA,NA,93,"PO BOX 507, STRAWN, TX, 76475","No_Match",NA,NA,NA,NA
989594,"PO BOX 507","THONOTOSASSA","FL",33592,NA,NA,94,"PO BOX 507, THONOTOSASSA, FL, 33592","No_Match",NA,NA,NA,NA
989595,"PO BOX 507","WINCHESTER","ID",83555,NA,NA,95,"PO BOX 507, WINCHESTER, ID, 83555","No_Match",NA,NA,NA,NA
989596,"PO BOX 507","WOLFEBORO FALLS","NH",3896,NA,NA,96,"PO BOX 507, WOLFEBORO FALLS, NH, 3896","No_Match",NA,NA,NA,NA
989597,"PO BOX 5070","ANNISTON","AL",36205,NA,NA,97,"PO BOX 5070, ANNISTON, AL, 36205","No_Match",NA,NA,NA,NA
989598,"PO BOX 50703","SANTA BARBARA","CA",93150,NA,NA,98,"PO BOX 50703, SANTA BARBARA, CA, 93150","No_Match",NA,NA,NA,NA
989599,"PO BOX 5071","SPRINGFIELD","MO",65801,NA,NA,99,"PO BOX 5071, SPRINGFIELD, MO, 65801","No_Match",NA,NA,NA,NA
989600,"PO BOX 5072","BERKELEY","CA",94705,NA,NA,100,"PO BOX 5072, BERKELEY, CA, 94705","No_Match",NA,NA,NA,NA
989601,"PO BOX 5072","CHESAPEAKE","VA",23324,NA,NA,101,"PO BOX 5072, CHESAPEAKE, VA, 23324","No_Match",NA,NA,NA,NA
989602,"PO BOX 50730","NEW ORLEANS","LA",70150,NA,NA,102,"PO BOX 50730, NEW ORLEANS, LA, 70150","No_Match",NA,NA,NA,NA
989603,"PO BOX 50755","COLUMBIA","SC",29250,NA,NA,103,"PO BOX 50755, COLUMBIA, SC, 29250","No_Match",NA,NA,NA,NA
989604,"PO BOX 5077","CORDELE","GA",31010,NA,NA,104,"PO BOX 5077, CORDELE, GA, 31010","No_Match",NA,NA,NA,NA
989605,"PO BOX 5077","DAVIDSON","NC",28035,NA,NA,105,"PO BOX 5077, DAVIDSON, NC, 28035","No_Match",NA,NA,NA,NA
989606,"PO BOX 5077","ETNA","WY",83118,NA,NA,106,"PO BOX 5077, ETNA, WY, 83118","No_Match",NA,NA,NA,NA
989607,"PO BOX 50782","TUCSON","AZ",85703,NA,NA,107,"PO BOX 50782, TUCSON, AZ, 85703","No_Match",NA,NA,NA,NA
989608,"PO BOX 5079 ONE HARRISON PLAZA","FLORENCE","AL",35632,NA,NA,108,"PO BOX 5079 ONE HARRISON PLAZA, FLORENCE, AL, 35632","No_Match",NA,NA,NA,NA
989609,"PO BOX 5079","KLAMATH FALLS","OR",97601,NA,NA,109,"PO BOX 5079, KLAMATH FALLS, OR, 97601","No_Match",NA,NA,NA,NA
989610,"PO BOX 50790","CASPER","WY",82605,NA,NA,110,"PO BOX 50790, CASPER, WY, 82605","No_Match",NA,NA,NA,NA
989611,"PO BOX 508- 72 CALVERT STREET","PURCHASE","NY",10577,NA,NA,111,"PO BOX 508- 72 CALVERT STREET, PURCHASE, NY, 10577","No_Match",NA,NA,NA,NA
989612,"PO BOX 508","BROOKSTON","IN",47923,NA,NA,112,"PO BOX 508, BROOKSTON, IN, 47923","No_Match",NA,NA,NA,NA
989613,"PO BOX 508","COROLLA","NC",27927,NA,NA,113,"PO BOX 508, COROLLA, NC, 27927","No_Match",NA,NA,NA,NA
989614,"PO BOX 508","LIBERTY LAKE","WA",99019,NA,NA,114,"PO BOX 508, LIBERTY LAKE, WA, 99019","No_Match",NA,NA,NA,NA
989615,"PO BOX 508","MT WASHINGTON","KY",40047,NA,NA,115,"PO BOX 508, MT WASHINGTON, KY, 40047","No_Match",NA,NA,NA,NA
989616,"PO BOX 508","NAPOLEON","MI",49261,NA,NA,116,"PO BOX 508, NAPOLEON, MI, 49261","No_Match",NA,NA,NA,NA
989617,"PO BOX 508","PINE RIDGE","SD",57770,NA,NA,117,"PO BOX 508, PINE RIDGE, SD, 57770","No_Match",NA,NA,NA,NA
989618,"PO BOX 508","PURCHASE","NY",10577,NA,NA,118,"PO BOX 508, PURCHASE, NY, 10577","No_Match",NA,NA,NA,NA
989619,"PO BOX 508","SAN JOSE","CA",95103,NA,NA,119,"PO BOX 508, SAN JOSE, CA, 95103","No_Match",NA,NA,NA,NA
989620,"PO BOX 508","SOCORRO","NM",87801,NA,NA,120,"PO BOX 508, SOCORRO, NM, 87801","No_Match",NA,NA,NA,NA
989621,"PO BOX 508","TERRELL","TX",75160,NA,NA,121,"PO BOX 508, TERRELL, TX, 75160","No_Match",NA,NA,NA,NA
989622,"PO BOX 508","WAIANAE","HI",96792,NA,NA,122,"PO BOX 508, WAIANAE, HI, 96792","No_Match",NA,NA,NA,NA
989623,"PO BOX 5081","HILO","HI",96720,NA,NA,123,"PO BOX 5081, HILO, HI, 96720","No_Match",NA,NA,NA,NA
989624,"PO BOX 5081","KANEOHE","HI",96744,NA,NA,124,"PO BOX 5081, KANEOHE, HI, 96744","No_Match",NA,NA,NA,NA
989625,"PO BOX 5081","POLAND","OH",44514,NA,NA,125,"PO BOX 5081, POLAND, OH, 44514","No_Match",NA,NA,NA,NA
989626,"PO BOX 5082","GALT","CA",95632,NA,NA,126,"PO BOX 5082, GALT, CA, 95632","No_Match",NA,NA,NA,NA
989627,"PO BOX 5083","HALFMOON","NY",12065,NA,NA,127,"PO BOX 5083, HALFMOON, NY, 12065","No_Match",NA,NA,NA,NA
989628,"PO BOX 5083","NAVARRE","FL",32566,NA,NA,128,"PO BOX 5083, NAVARRE, FL, 32566","No_Match",NA,NA,NA,NA
989629,"PO BOX 5084","CABOT","AR",72023,NA,NA,129,"PO BOX 5084, CABOT, AR, 72023","No_Match",NA,NA,NA,NA
989630,"PO BOX 5086","CHARLESTON","WV",25361,NA,NA,130,"PO BOX 5086, CHARLESTON, WV, 25361","No_Match",NA,NA,NA,NA
989631,"PO BOX 50861","EUGENE","OR",97405,NA,NA,131,"PO BOX 50861, EUGENE, OR, 97405","No_Match",NA,NA,NA,NA
989632,"PO BOX 50874","Eugene","OR",97405,NA,NA,132,"PO BOX 50874, Eugene, OR, 97405","No_Match",NA,NA,NA,NA
989633,"PO BOX 50885","DENTON","TX",76206,NA,NA,133,"PO BOX 50885, DENTON, TX, 76206","No_Match",NA,NA,NA,NA
989634,"PO BOX 50894","ALBANY","GA",31703,NA,NA,134,"PO BOX 50894, ALBANY, GA, 31703","No_Match",NA,NA,NA,NA
989635,"PO BOX 509","BIRD ISLAND","MN",55310,NA,NA,135,"PO BOX 509, BIRD ISLAND, MN, 55310","No_Match",NA,NA,NA,NA
989636,"PO BOX 509","CLARKSBURG","CA",95612,NA,NA,136,"PO BOX 509, CLARKSBURG, CA, 95612","No_Match",NA,NA,NA,NA
989637,"PO BOX 509","CLEARWATER","SC",29822,NA,NA,137,"PO BOX 509, CLEARWATER, SC, 29822","No_Match",NA,NA,NA,NA
989638,"PO BOX 509","CRAIG","AK",99921,NA,NA,138,"PO BOX 509, CRAIG, AK, 99921","No_Match",NA,NA,NA,NA
989639,"PO BOX 509","FAIRFAX","MN",55332,NA,NA,139,"PO BOX 509, FAIRFAX, MN, 55332","No_Match",NA,NA,NA,NA
989640,"PO BOX 509","LAPORTE","CO",80535,NA,NA,140,"PO BOX 509, LAPORTE, CO, 80535","No_Match",NA,NA,NA,NA
989641,"PO BOX 509","LESLIE","AR",72645,NA,NA,141,"PO BOX 509, LESLIE, AR, 72645","No_Match",NA,NA,NA,NA
989642,"PO BOX 509","MILL CITY","OR",97360,NA,NA,142,"PO BOX 509, MILL CITY, OR, 97360","No_Match",NA,NA,NA,NA
989643,"PO BOX 509","PACKWOOD","WA",NA,NA,NA,143,"PO BOX 509, PACKWOOD, WA, ","No_Match",NA,NA,NA,NA
989644,"PO BOX 509","WATERVLIET","NY",12124,NA,NA,144,"PO BOX 509, WATERVLIET, NY, 12124","No_Match",NA,NA,NA,NA
989645,"PO BOX 5090","PINE BLUFF","AR",71611,NA,NA,145,"PO BOX 5090, PINE BLUFF, AR, 71611","No_Match",NA,NA,NA,NA
989646,"PO BOX 50935","ELEELE","HI",96705,NA,NA,146,"PO BOX 50935, ELEELE, HI, 96705","No_Match",NA,NA,NA,NA
989647,"PO BOX 50936","DENTON","TX",76206,NA,NA,147,"PO BOX 50936, DENTON, TX, 76206","No_Match",NA,NA,NA,NA
989648,"PO BOX 50939","OXNARD","CA",93031,NA,NA,148,"PO BOX 50939, OXNARD, CA, 93031","No_Match",NA,NA,NA,NA
989649,"PO BOX 50954","FORTH WORTH","TX",76105,NA,NA,149,"PO BOX 50954, FORTH WORTH, TX, 76105","No_Match",NA,NA,NA,NA
989650,"PO BOX 5096","BLOOMINGTON","IN",47407,NA,NA,150,"PO BOX 5096, BLOOMINGTON, IN, 47407","No_Match",NA,NA,NA,NA
989651,"PO BOX 5096","VALLEJO","CA",94591,NA,NA,151,"PO BOX 5096, VALLEJO, CA, 94591","No_Match",NA,NA,NA,NA
989652,"PO BOX 5097","FORT LEE","VA",23801,NA,NA,152,"PO BOX 5097, FORT LEE, VA, 23801","No_Match",NA,NA,NA,NA
989653,"PO BOX 50974","NEW BEDFORD","MA",2745,NA,NA,153,"PO BOX 50974, NEW BEDFORD, MA, 2745","No_Match",NA,NA,NA,NA
989654,"PO BOX 50975","ELEELE","HI",96705,NA,NA,154,"PO BOX 50975, ELEELE, HI, 96705","No_Match",NA,NA,NA,NA
989655,"PO BOX 5098","BELLFLOWER","CA",90707,NA,NA,155,"PO BOX 5098, BELLFLOWER, CA, 90707","No_Match",NA,NA,NA,NA
989656,"PO BOX 51-0361","MELBOURNE BEACH","FL",32951,NA,NA,156,"PO BOX 51-0361, MELBOURNE BEACH, FL, 32951","No_Match",NA,NA,NA,NA
989657,"PO BOX 51","ARAPAHO","OK",73620,NA,NA,157,"PO BOX 51, ARAPAHO, OK, 73620","No_Match",NA,NA,NA,NA
989658,"PO BOX 51","ARMA","KS",66712,NA,NA,158,"PO BOX 51, ARMA, KS, 66712","No_Match",NA,NA,NA,NA
989659,"PO BOX 51","AVOCA","IA",51521,NA,NA,159,"PO BOX 51, AVOCA, IA, 51521","No_Match",NA,NA,NA,NA
989660,"PO BOX 51","BARTLETT","TX",76511,NA,NA,160,"PO BOX 51, BARTLETT, TX, 76511","No_Match",NA,NA,NA,NA
989661,"PO BOX 51","CEDAR PARK","TX",78630,NA,NA,161,"PO BOX 51, CEDAR PARK, TX, 78630","No_Match",NA,NA,NA,NA
989662,"PO BOX 51","CLARKLAKE","MI",49234,NA,NA,162,"PO BOX 51, CLARKLAKE, MI, 49234","No_Match",NA,NA,NA,NA
989663,"PO BOX 51","COLTON","WA",99113,NA,NA,163,"PO BOX 51, COLTON, WA, 99113","No_Match",NA,NA,NA,NA
989664,"PO BOX 51","CONKLIN","NY",13748,NA,NA,164,"PO BOX 51, CONKLIN, NY, 13748","No_Match",NA,NA,NA,NA
989665,"PO BOX 51","COOKEVILLE","TN",38501,NA,NA,165,"PO BOX 51, COOKEVILLE, TN, 38501","No_Match",NA,NA,NA,NA
989666,"PO BOX 51","CROMONA","KY",41810,NA,NA,166,"PO BOX 51, CROMONA, KY, 41810","No_Match",NA,NA,NA,NA
989667,"PO BOX 51","DAYTON","OH",45322,NA,NA,167,"PO BOX 51, DAYTON, OH, 45322","No_Match",NA,NA,NA,NA
989668,"PO BOX 51","DENIO","NV",89404,NA,NA,168,"PO BOX 51, DENIO, NV, 89404","No_Match",NA,NA,NA,NA
989669,"PO BOX 51","DILLARD","OR",97432,NA,NA,169,"PO BOX 51, DILLARD, OR, 97432","No_Match",NA,NA,NA,NA
989670,"PO BOX 51","EARLY","IA",50535,NA,NA,170,"PO BOX 51, EARLY, IA, 50535","No_Match",NA,NA,NA,NA
989671,"PO BOX 51","EAST SPRINGFIELD","PA",16411,NA,NA,171,"PO BOX 51, EAST SPRINGFIELD, PA, 16411","No_Match",NA,NA,NA,NA
989672,"PO BOX 51","EAST STROUDSBURG","PA",10301,NA,NA,172,"PO BOX 51, EAST STROUDSBURG, PA, 10301","No_Match",NA,NA,NA,NA
989673,"PO BOX 51","FENTRESS","TX",78662,NA,NA,173,"PO BOX 51, FENTRESS, TX, 78662","No_Match",NA,NA,NA,NA
989674,"PO BOX 51","FORT THOMPSON","SD",57339,NA,NA,174,"PO BOX 51, FORT THOMPSON, SD, 57339","No_Match",NA,NA,NA,NA
989675,"PO BOX 51","GLENVILLE","NC",28736,NA,NA,175,"PO BOX 51, GLENVILLE, NC, 28736","No_Match",NA,NA,NA,NA
989676,"PO BOX 51","HAGERSTOWN","MD",21741,NA,NA,176,"PO BOX 51, HAGERSTOWN, MD, 21741","No_Match",NA,NA,NA,NA
989677,"PO BOX 51","HAYWOOD","WV",26366,NA,NA,177,"PO BOX 51, HAYWOOD, WV, 26366","No_Match",NA,NA,NA,NA
989678,"PO BOX 51","HOMERVILLE","GA",31634,NA,NA,178,"PO BOX 51, HOMERVILLE, GA, 31634","No_Match",NA,NA,NA,NA
989679,"PO BOX 51","HOOD","CA",95639,NA,NA,179,"PO BOX 51, HOOD, CA, 95639","No_Match",NA,NA,NA,NA
989680,"PO BOX 51","LOUISE","TX",77455,NA,NA,180,"PO BOX 51, LOUISE, TX, 77455","No_Match",NA,NA,NA,NA
989681,"PO BOX 51","LYONS","TX",77863,NA,NA,181,"PO BOX 51, LYONS, TX, 77863","No_Match",NA,NA,NA,NA
989682,"PO BOX 51","MANLEY HOT SPRINGS","AK",99756,NA,NA,182,"PO BOX 51, MANLEY HOT SPRINGS, AK, 99756","No_Match",NA,NA,NA,NA
989683,"PO BOX 51","MANSFIELD","WA",98830,NA,NA,183,"PO BOX 51, MANSFIELD, WA, 98830","No_Match",NA,NA,NA,NA
989684,"PO BOX 51","MCDOUGAL","AR",72441,NA,NA,184,"PO BOX 51, MCDOUGAL, AR, 72441","No_Match",NA,NA,NA,NA
989685,"PO BOX 51","MCINTOSH","AL",36553,NA,NA,185,"PO BOX 51, MCINTOSH, AL, 36553","No_Match",NA,NA,NA,NA
989686,"PO BOX 51","NASH","OK",73761,NA,NA,186,"PO BOX 51, NASH, OK, 73761","No_Match",NA,NA,NA,NA
989687,"PO BOX 51","NASHUA","IA",50658,NA,NA,187,"PO BOX 51, NASHUA, IA, 50658","No_Match",NA,NA,NA,NA
989688,"PO BOX 51","NENANA","AK",99760,NA,NA,188,"PO BOX 51, NENANA, AK, 99760","No_Match",NA,NA,NA,NA
989689,"PO BOX 51","NEOGA","IL",62447,NA,NA,189,"PO BOX 51, NEOGA, IL, 62447","No_Match",NA,NA,NA,NA
989690,"PO BOX 51","OVERTON","TX",75684,NA,NA,190,"PO BOX 51, OVERTON, TX, 75684","No_Match",NA,NA,NA,NA
989691,"PO BOX 51","PORTAGE","MI",49081,NA,NA,191,"PO BOX 51, PORTAGE, MI, 49081","No_Match",NA,NA,NA,NA
989692,"PO BOX 51","PRICE","TX",75687,NA,NA,192,"PO BOX 51, PRICE, TX, 75687","No_Match",NA,NA,NA,NA
989693,"PO BOX 51","PURCELL","OK",73080,NA,NA,193,"PO BOX 51, PURCELL, OK, 73080","No_Match",NA,NA,NA,NA
989694,"PO BOX 51","SAN MIGUEL","CA",93451,NA,NA,194,"PO BOX 51, SAN MIGUEL, CA, 93451","No_Match",NA,NA,NA,NA
989695,"PO BOX 51","TALLAHASSEE","FL",32302,NA,NA,195,"PO BOX 51, TALLAHASSEE, FL, 32302","No_Match",NA,NA,NA,NA
989696,"PO BOX 51","TEHUACANA","TX",76686,NA,NA,196,"PO BOX 51, TEHUACANA, TX, 76686","No_Match",NA,NA,NA,NA
989697,"PO BOX 51","TERRACE PARK","OH",45174,NA,NA,197,"PO BOX 51, TERRACE PARK, OH, 45174","No_Match",NA,NA,NA,NA
989698,"PO BOX 51","URBANA","IL",61803,NA,NA,198,"PO BOX 51, URBANA, IL, 61803","No_Match",NA,NA,NA,NA
989699,"PO BOX 51","VELMA","OK",73491,NA,NA,199,"PO BOX 51, VELMA, OK, 73491","No_Match",NA,NA,NA,NA
989700,"PO BOX 51","WATERFORD","ME",4088,NA,NA,200,"PO BOX 51, WATERFORD, ME, 4088","No_Match",NA,NA,NA,NA
989701,"PO BOX 51","WHITE BIRD","ID",83554,NA,NA,201,"PO BOX 51, WHITE BIRD, ID, 83554","No_Match",NA,NA,NA,NA
989702,"PO BOX 51","WOODBRIDGE","NJ",7095,NA,NA,202,"PO BOX 51, WOODBRIDGE, NJ, 7095","No_Match",NA,NA,NA,NA
989703,"PO BOX 51","WORTHINGTON","WV",26591,NA,NA,203,"PO BOX 51, WORTHINGTON, WV, 26591","No_Match",NA,NA,NA,NA
989704,"PO BOX 510","ARLINGTON","WA",98223,NA,NA,204,"PO BOX 510, ARLINGTON, WA, 98223","No_Match",NA,NA,NA,NA
989705,"PO BOX 510","EVANSVILLE","WY",82636,NA,NA,205,"PO BOX 510, EVANSVILLE, WY, 82636","No_Match",NA,NA,NA,NA
989706,"PO BOX 510","HEBRON","KY",41048,NA,NA,206,"PO BOX 510, HEBRON, KY, 41048","No_Match",NA,NA,NA,NA
989707,"PO BOX 510","JESUP","GA",31598,NA,NA,207,"PO BOX 510, JESUP, GA, 31598","No_Match",NA,NA,NA,NA
989708,"PO BOX 510","LAKE DELTON","WI",53940,NA,NA,208,"PO BOX 510, LAKE DELTON, WI, 53940","No_Match",NA,NA,NA,NA
989709,"PO BOX 510","PALMER","AK",99645,NA,NA,209,"PO BOX 510, PALMER, AK, 99645","No_Match",NA,NA,NA,NA
989710,"PO BOX 510","SPARTA","GA",31087,NA,NA,210,"PO BOX 510, SPARTA, GA, 31087","No_Match",NA,NA,NA,NA
989711,"PO BOX 5100","NORTH MUSKEGON","MI",49445,NA,NA,211,"PO BOX 5100, NORTH MUSKEGON, MI, 49445","No_Match",NA,NA,NA,NA
989712,"PO BOX 5100","PLEASANTON","CA",94566,NA,NA,212,"PO BOX 5100, PLEASANTON, CA, 94566","No_Match",NA,NA,NA,NA
989713,"PO BOX 51001","SUMMERVILLE","SC",29485,NA,NA,213,"PO BOX 51001, SUMMERVILLE, SC, 29485","No_Match",NA,NA,NA,NA
989714,"PO BOX 510014","MELBOURNE BEACH","FL",32951,NA,NA,214,"PO BOX 510014, MELBOURNE BEACH, FL, 32951","No_Match",NA,NA,NA,NA
989715,"PO BOX 51007","ELEELE","HI",96705,NA,NA,215,"PO BOX 51007, ELEELE, HI, 96705","No_Match",NA,NA,NA,NA
989716,"PO BOX 5101","CHARLOTTESVILLE","VA",22905,NA,NA,216,"PO BOX 5101, CHARLOTTESVILLE, VA, 22905","No_Match",NA,NA,NA,NA
989717,"PO BOX 5101","TALLAHASSEE","FL",32314,NA,NA,217,"PO BOX 5101, TALLAHASSEE, FL, 32314","No_Match",NA,NA,NA,NA
989718,"PO BOX 5101","WARREN","MI",48090,NA,NA,218,"PO BOX 5101, WARREN, MI, 48090","No_Match",NA,NA,NA,NA
989719,"PO BOX 5102","SIOUX FALLS","SD",57117,NA,NA,219,"PO BOX 5102, SIOUX FALLS, SD, 57117","No_Match",NA,NA,NA,NA
989720,"PO BOX 51027","ABQ","NM",87181,NA,NA,220,"PO BOX 51027, ABQ, NM, 87181","No_Match",NA,NA,NA,NA
989721,"PO BOX 51028","PHOENIX","AZ",85076,NA,NA,221,"PO BOX 51028, PHOENIX, AZ, 85076","No_Match",NA,NA,NA,NA
989722,"PO BOX 510286","MILWAUKEE","WI",53203,NA,NA,222,"PO BOX 510286, MILWAUKEE, WI, 53203","No_Match",NA,NA,NA,NA
989723,"PO BOX 51032","EUGENE","OR",97405,NA,NA,223,"PO BOX 51032, EUGENE, OR, 97405","No_Match",NA,NA,NA,NA
989724,"PO BOX 5104","FRISCO","TX",75035,NA,NA,224,"PO BOX 5104, FRISCO, TX, 75035","No_Match",NA,NA,NA,NA
989725,"PO BOX 51043","EUGENE","OR",97405,NA,NA,225,"PO BOX 51043, EUGENE, OR, 97405","No_Match",NA,NA,NA,NA
989726,"PO BOX 5105","HUDSON","FL",34674,NA,NA,226,"PO BOX 5105, HUDSON, FL, 34674","No_Match",NA,NA,NA,NA
989727,"PO BOX 510526","KEY COLONY BEACH","FL",33051,NA,NA,227,"PO BOX 510526, KEY COLONY BEACH, FL, 33051","No_Match",NA,NA,NA,NA
989728,"PO BOX 5108","ATLANTA","GA",30302,NA,NA,228,"PO BOX 5108, ATLANTA, GA, 30302","No_Match",NA,NA,NA,NA
989729,"PO BOX 510824","MILWAUKEE","WI",53203,NA,NA,229,"PO BOX 510824, MILWAUKEE, WI, 53203","No_Match",NA,NA,NA,NA
989730,"PO BOX 510871","PUNTA GORDA","FL",33951,NA,NA,230,"PO BOX 510871, PUNTA GORDA, FL, 33951","No_Match",NA,NA,NA,NA
989731,"PO BOX 510931","MILWAUKEE","WI",53203,NA,NA,231,"PO BOX 510931, MILWAUKEE, WI, 53203","No_Match",NA,NA,NA,NA
989732,"PO BOX 511","AUSTIN","TX",78680,NA,NA,232,"PO BOX 511, AUSTIN, TX, 78680","No_Match",NA,NA,NA,NA
989733,"PO BOX 511","BAYBORO","NC",28515,NA,NA,233,"PO BOX 511, BAYBORO, NC, 28515","No_Match",NA,NA,NA,NA
989734,"PO BOX 511","BUFFALO","NY",14231,NA,NA,234,"PO BOX 511, BUFFALO, NY, 14231","No_Match",NA,NA,NA,NA
989735,"PO BOX 511","COLEMAN","FL",33521,NA,NA,235,"PO BOX 511, COLEMAN, FL, 33521","No_Match",NA,NA,NA,NA
989736,"PO BOX 511","COLLINSVILLE","IL",62234,NA,NA,236,"PO BOX 511, COLLINSVILLE, IL, 62234","No_Match",NA,NA,NA,NA
989737,"PO BOX 511","CORNETTSVILLE","KY",41731,NA,NA,237,"PO BOX 511, CORNETTSVILLE, KY, 41731","No_Match",NA,NA,NA,NA
989738,"PO BOX 511","DAPHNE","AL",36526,NA,NA,238,"PO BOX 511, DAPHNE, AL, 36526","No_Match",NA,NA,NA,NA
989739,"PO BOX 511","DOYLESTOWN","PA",18901,NA,NA,239,"PO BOX 511, DOYLESTOWN, PA, 18901","No_Match",NA,NA,NA,NA
989740,"PO BOX 511","KITTITAS","WA",98934,NA,NA,240,"PO BOX 511, KITTITAS, WA, 98934","No_Match",NA,NA,NA,NA
989741,"PO BOX 511","LILBOURN","MO",63862,NA,NA,241,"PO BOX 511, LILBOURN, MO, 63862","No_Match",NA,NA,NA,NA
989742,"PO BOX 511","MARKHAM","TX",77456,NA,NA,242,"PO BOX 511, MARKHAM, TX, 77456","No_Match",NA,NA,NA,NA
989743,"PO BOX 511","MARLBORO","VT",5344,NA,NA,243,"PO BOX 511, MARLBORO, VT, 5344","No_Match",NA,NA,NA,NA
989744,"PO BOX 511","MERIDIAN","ID",83680,NA,NA,244,"PO BOX 511, MERIDIAN, ID, 83680","No_Match",NA,NA,NA,NA
989745,"PO BOX 511","MIDLAND","TX",79702,NA,NA,245,"PO BOX 511, MIDLAND, TX, 79702","No_Match",NA,NA,NA,NA
989746,"PO BOX 511","OAKRIDGE","OR",97463,NA,NA,246,"PO BOX 511, OAKRIDGE, OR, 97463","No_Match",NA,NA,NA,NA
989747,"PO BOX 511","ORANGE","VA",22960,NA,NA,247,"PO BOX 511, ORANGE, VA, 22960","No_Match",NA,NA,NA,NA
989748,"PO BOX 511","PUTNEY","VT",5346,NA,NA,248,"PO BOX 511, PUTNEY, VT, 5346","No_Match",NA,NA,NA,NA
989749,"PO BOX 511","WAILUKU","HI",96793,NA,NA,249,"PO BOX 511, WAILUKU, HI, 96793","No_Match",NA,NA,NA,NA
989750,"PO BOX 511","WATFORD CITY","ND",58854,NA,NA,250,"PO BOX 511, WATFORD CITY, ND, 58854","No_Match",NA,NA,NA,NA
989751,"PO BOX 51111","FORT MYERS","FL",33994,NA,NA,251,"PO BOX 51111, FORT MYERS, FL, 33994","No_Match",NA,NA,NA,NA
989752,"PO BOX 5113","HUDSON","FL",34674,NA,NA,252,"PO BOX 5113, HUDSON, FL, 34674","No_Match",NA,NA,NA,NA
989753,"PO BOX 511394","MILWAUKEE","WI",53203,NA,NA,253,"PO BOX 511394, MILWAUKEE, WI, 53203","No_Match",NA,NA,NA,NA
989754,"PO BOX 5114","ENGLEWOOD","CO",80155,NA,NA,254,"PO BOX 5114, ENGLEWOOD, CO, 80155","No_Match",NA,NA,NA,NA
989755,"PO BOX 511402","MILWAUKEE","WI",53203,NA,NA,255,"PO BOX 511402, MILWAUKEE, WI, 53203","No_Match",NA,NA,NA,NA
989756,"PO BOX 51141","DURHAM","NC",27717,NA,NA,256,"PO BOX 51141, DURHAM, NC, 27717","No_Match",NA,NA,NA,NA
989757,"PO BOX 51149","AMARILLO","TX",79159,NA,NA,257,"PO BOX 51149, AMARILLO, TX, 79159","No_Match",NA,NA,NA,NA
989758,"PO BOX 51155","PROVO","UT",84605,NA,NA,258,"PO BOX 51155, PROVO, UT, 84605","No_Match",NA,NA,NA,NA
989759,"PO BOX 5116","JINJA UGANDA",NA,NA,NA,NA,259,"PO BOX 5116, JINJA UGANDA, , ","No_Match",NA,NA,NA,NA
989760,"PO BOX 51161","KALAMAZOO","MI",49005,NA,NA,260,"PO BOX 51161, KALAMAZOO, MI, 49005","No_Match",NA,NA,NA,NA
989761,"PO BOX 5117","GALLUP","NM",87305,NA,NA,261,"PO BOX 5117, GALLUP, NM, 87305","No_Match",NA,NA,NA,NA
989762,"PO BOX 51175","ALBUQUERQUE","NM",87181,NA,NA,262,"PO BOX 51175, ALBUQUERQUE, NM, 87181","No_Match",NA,NA,NA,NA
989763,"PO BOX 5119","VENTURA","CA",93005,NA,NA,263,"PO BOX 5119, VENTURA, CA, 93005","No_Match",NA,NA,NA,NA
989764,"PO BOX 5119","WACO","TX",76708,NA,NA,264,"PO BOX 5119, WACO, TX, 76708","No_Match",NA,NA,NA,NA
989765,"PO BOX 51196","SARASOTA","FL",34232,NA,NA,265,"PO BOX 51196, SARASOTA, FL, 34232","No_Match",NA,NA,NA,NA
989766,"PO BOX 512","ARIVACA","AZ",85601,NA,NA,266,"PO BOX 512, ARIVACA, AZ, 85601","No_Match",NA,NA,NA,NA
989767,"PO BOX 512","ARROYO HONDO","NM",87513,NA,NA,267,"PO BOX 512, ARROYO HONDO, NM, 87513","No_Match",NA,NA,NA,NA
989768,"PO BOX 512","BARRE","MA",1005,NA,NA,268,"PO BOX 512, BARRE, MA, 1005","No_Match",NA,NA,NA,NA
989769,"PO BOX 512","BUCKHANNON","WV",26201,NA,NA,269,"PO BOX 512, BUCKHANNON, WV, 26201","No_Match",NA,NA,NA,NA
989770,"PO BOX 512","CLINTON","SC",29325,NA,NA,270,"PO BOX 512, CLINTON, SC, 29325","No_Match",NA,NA,NA,NA
989771,"PO BOX 512","DULCE","NM",87528,NA,NA,271,"PO BOX 512, DULCE, NM, 87528","No_Match",NA,NA,NA,NA
989772,"PO BOX 512","FLORISSANT","CO",80816,NA,NA,272,"PO BOX 512, FLORISSANT, CO, 80816","No_Match",NA,NA,NA,NA
989773,"PO BOX 512","GALT","CA",95632,NA,NA,273,"PO BOX 512, GALT, CA, 95632","No_Match",NA,NA,NA,NA
989774,"PO BOX 512","GRIMES","IA",50111,NA,NA,274,"PO BOX 512, GRIMES, IA, 50111","No_Match",NA,NA,NA,NA
989775,"PO BOX 512","HARLETON","TX",75651,NA,NA,275,"PO BOX 512, HARLETON, TX, 75651","No_Match",NA,NA,NA,NA
989776,"PO BOX 512","HINGHAM","MA",2043,NA,NA,276,"PO BOX 512, HINGHAM, MA, 2043","No_Match",NA,NA,NA,NA
989777,"PO BOX 512","LEWISTON","ME",4243,NA,NA,277,"PO BOX 512, LEWISTON, ME, 4243","No_Match",NA,NA,NA,NA
989778,"PO BOX 512","LONG BEACH","WA",98631,NA,NA,278,"PO BOX 512, LONG BEACH, WA, 98631","No_Match",NA,NA,NA,NA
989779,"PO BOX 512","LOS ALAMITOS","CA",90720,NA,NA,279,"PO BOX 512, LOS ALAMITOS, CA, 90720","No_Match",NA,NA,NA,NA
989780,"PO BOX 512","MOHAWK","MI",49950,NA,NA,280,"PO BOX 512, MOHAWK, MI, 49950","No_Match",NA,NA,NA,NA
989781,"PO BOX 512","NAVAJO","NM",87328,NA,NA,281,"PO BOX 512, NAVAJO, NM, 87328","No_Match",NA,NA,NA,NA
989782,"PO BOX 512","NORTH CHICAGO","IL",60064,NA,NA,282,"PO BOX 512, NORTH CHICAGO, IL, 60064","No_Match",NA,NA,NA,NA
989783,"PO BOX 512","ORANGEBURG","CA",29116,NA,NA,283,"PO BOX 512, ORANGEBURG, CA, 29116","No_Match",NA,NA,NA,NA
989784,"PO BOX 512","POULSBO","WA",98637,NA,NA,284,"PO BOX 512, POULSBO, WA, 98637","No_Match",NA,NA,NA,NA
989785,"PO BOX 512","SAUGATUCK","MI",49453,NA,NA,285,"PO BOX 512, SAUGATUCK, MI, 49453","No_Match",NA,NA,NA,NA
989786,"PO BOX 512","SOUTH BEND","WA",98586,NA,NA,286,"PO BOX 512, SOUTH BEND, WA, 98586","No_Match",NA,NA,NA,NA
989787,"PO BOX 512","SOUTH PEKIN","IL",61564,NA,NA,287,"PO BOX 512, SOUTH PEKIN, IL, 61564","No_Match",NA,NA,NA,NA
989788,"PO BOX 512","SUMMERTON","SC",29148,NA,NA,288,"PO BOX 512, SUMMERTON, SC, 29148","No_Match",NA,NA,NA,NA
989789,"PO BOX 51205","DENTON","TX",76206,NA,NA,289,"PO BOX 51205, DENTON, TX, 76206","No_Match",NA,NA,NA,NA
989790,"PO BOX 51205","SPARKS","NV",89435,NA,NA,290,"PO BOX 51205, SPARKS, NV, 89435","No_Match",NA,NA,NA,NA
989791,"PO BOX 51209","PHOENIX","AZ",85076,NA,NA,291,"PO BOX 51209, PHOENIX, AZ, 85076","No_Match",NA,NA,NA,NA
989792,"PO BOX 5121","SCOTTSDALE","AZ",85260,NA,NA,292,"PO BOX 5121, SCOTTSDALE, AZ, 85260","No_Match",NA,NA,NA,NA
989793,"PO BOX 51212","SPARKS","NV",89435,NA,NA,293,"PO BOX 51212, SPARKS, NV, 89435","No_Match",NA,NA,NA,NA
989794,"PO BOX 5123","GLENDALE","AZ",85312,NA,NA,294,"PO BOX 5123, GLENDALE, AZ, 85312","No_Match",NA,NA,NA,NA
989795,"PO BOX 5123","SALTON CITY","CA",92274,NA,NA,295,"PO BOX 5123, SALTON CITY, CA, 92274","No_Match",NA,NA,NA,NA
989796,"PO BOX 51234","DURHAM","NC",27717,NA,NA,296,"PO BOX 51234, DURHAM, NC, 27717","No_Match",NA,NA,NA,NA
989797,"PO BOX 5124","NORTH BRANCH","NJ",8876,NA,NA,297,"PO BOX 5124, NORTH BRANCH, NJ, 8876","No_Match",NA,NA,NA,NA
989798,"PO BOX 51248","DURHAM","NC",27717,NA,NA,298,"PO BOX 51248, DURHAM, NC, 27717","No_Match",NA,NA,NA,NA
989799,"PO BOX 5125","FITZGERALD","GA",31750,NA,NA,299,"PO BOX 5125, FITZGERALD, GA, 31750","No_Match",NA,NA,NA,NA
989800,"PO BOX 51251","SARASOTA","FL",34232,NA,NA,300,"PO BOX 51251, SARASOTA, FL, 34232","No_Match",NA,NA,NA,NA
989801,"PO BOX 512553","PUNTA GORDA","FL",33951,NA,NA,301,"PO BOX 512553, PUNTA GORDA, FL, 33951","No_Match",NA,NA,NA,NA
989802,"PO BOX 51260","FORT MYERS","FL",33994,NA,NA,302,"PO BOX 51260, FORT MYERS, FL, 33994","No_Match",NA,NA,NA,NA
989803,"PO BOX 51266","EUGENE","OR",97405,NA,NA,303,"PO BOX 51266, EUGENE, OR, 97405","No_Match",NA,NA,NA,NA
989804,"PO BOX 5127","ARCATA","CA",95518,NA,NA,304,"PO BOX 5127, ARCATA, CA, 95518","No_Match",NA,NA,NA,NA
989805,"PO BOX 5128","SNOWMASS VLG","CO",81615,NA,NA,305,"PO BOX 5128, SNOWMASS VLG, CO, 81615","No_Match",NA,NA,NA,NA
989806,"PO BOX 51288","DENTON","TX",76205,NA,NA,306,"PO BOX 51288, DENTON, TX, 76205","No_Match",NA,NA,NA,NA
989807,"PO BOX 513","AGENCY VILLAGE","SD",57262,NA,NA,307,"PO BOX 513, AGENCY VILLAGE, SD, 57262","No_Match",NA,NA,NA,NA
989808,"PO BOX 513","CIMARRON","NM",87714,NA,NA,308,"PO BOX 513, CIMARRON, NM, 87714","No_Match",NA,NA,NA,NA
989809,"PO BOX 513","GLORIETA","NM",87535,NA,NA,309,"PO BOX 513, GLORIETA, NM, 87535","No_Match",NA,NA,NA,NA
989810,"PO BOX 513","GREEN RIVER","WY",82935,NA,NA,310,"PO BOX 513, GREEN RIVER, WY, 82935","No_Match",NA,NA,NA,NA
989811,"PO BOX 513","LYNWOOD","CA",90262,NA,NA,311,"PO BOX 513, LYNWOOD, CA, 90262","No_Match",NA,NA,NA,NA
989812,"PO BOX 513","LYWOOD","CA",90262,NA,NA,312,"PO BOX 513, LYWOOD, CA, 90262","No_Match",NA,NA,NA,NA
989813,"PO BOX 513","MARLBORO","VT",5344,NA,NA,313,"PO BOX 513, MARLBORO, VT, 5344","No_Match",NA,NA,NA,NA
989814,"PO BOX 513","PANHANDLE","TX",79068,NA,NA,314,"PO BOX 513, PANHANDLE, TX, 79068","No_Match",NA,NA,NA,NA
989815,"PO BOX 513","PHILADELPHIA","NY",13673,NA,NA,315,"PO BOX 513, PHILADELPHIA, NY, 13673","No_Match",NA,NA,NA,NA
989816,"PO BOX 513","RANCHO SANTA FE","CA",92067,NA,NA,316,"PO BOX 513, RANCHO SANTA FE, CA, 92067","No_Match",NA,NA,NA,NA
989817,"PO BOX 513","SEASIDE","OR",97138,NA,NA,317,"PO BOX 513, SEASIDE, OR, 97138","No_Match",NA,NA,NA,NA
989818,"PO BOX 513","SELMA","OR",97538,NA,NA,318,"PO BOX 513, SELMA, OR, 97538","No_Match",NA,NA,NA,NA
989819,"PO BOX 513","SHIRLEY","IN",47384,NA,NA,319,"PO BOX 513, SHIRLEY, IN, 47384","No_Match",NA,NA,NA,NA
989820,"PO BOX 513","SUN PRAIRIE","WI",53590,NA,NA,320,"PO BOX 513, SUN PRAIRIE, WI, 53590","No_Match",NA,NA,NA,NA
989821,"PO BOX 513","SUTTON","AK",99674,NA,NA,321,"PO BOX 513, SUTTON, AK, 99674","No_Match",NA,NA,NA,NA
989822,"PO BOX 513","TOULON","IL",61483,NA,NA,322,"PO BOX 513, TOULON, IL, 61483","No_Match",NA,NA,NA,NA
989823,"PO BOX 513","WINTER PARK","CO",80482,NA,NA,323,"PO BOX 513, WINTER PARK, CO, 80482","No_Match",NA,NA,NA,NA
989824,"PO BOX 513","WINTHROP","WA",98862,NA,NA,324,"PO BOX 513, WINTHROP, WA, 98862","No_Match",NA,NA,NA,NA
989825,"PO BOX 5130","SALEM","OR",97304,NA,NA,325,"PO BOX 5130, SALEM, OR, 97304","No_Match",NA,NA,NA,NA
989826,"PO BOX 51303","FORT WORTH","TX",76105,NA,NA,326,"PO BOX 51303, FORT WORTH, TX, 76105","No_Match",NA,NA,NA,NA
989827,"PO BOX 5132","PETALUMA","CA",94955,NA,NA,327,"PO BOX 5132, PETALUMA, CA, 94955","No_Match",NA,NA,NA,NA
989828,"PO BOX 5132","PINE MOUNTAIN CLUB","CA",93222,NA,NA,328,"PO BOX 5132, PINE MOUNTAIN CLUB, CA, 93222","No_Match",NA,NA,NA,NA
989829,"PO BOX 5134","BEAUFORT","SC",29905,NA,NA,329,"PO BOX 5134, BEAUFORT, SC, 29905","No_Match",NA,NA,NA,NA
989830,"PO BOX 5134","KANEOHE","HI",96744,NA,NA,330,"PO BOX 5134, KANEOHE, HI, 96744","No_Match",NA,NA,NA,NA
989831,"PO BOX 51361","BOSTON","MA",2215,NA,NA,331,"PO BOX 51361, BOSTON, MA, 2215","No_Match",NA,NA,NA,NA
989832,"PO BOX 51364","DENTON","TX",76206,NA,NA,332,"PO BOX 51364, DENTON, TX, 76206","No_Match",NA,NA,NA,NA
989833,"PO BOX 51376","ALBUQUERQUE","NM",87181,NA,NA,333,"PO BOX 51376, ALBUQUERQUE, NM, 87181","No_Match",NA,NA,NA,NA
989834,"PO BOX 51383","LIVONIA","MI",48151,NA,NA,334,"PO BOX 51383, LIVONIA, MI, 48151","No_Match",NA,NA,NA,NA
989835,"PO BOX 51386","SUMMERVILLE","SC",29485,NA,NA,335,"PO BOX 51386, SUMMERVILLE, SC, 29485","No_Match",NA,NA,NA,NA
989836,"PO BOX 51396","PACIFIC GROVE","CA",93950,NA,NA,336,"PO BOX 51396, PACIFIC GROVE, CA, 93950","No_Match",NA,NA,NA,NA
989837,"PO BOX 514","AMSTERDAM","NY",12010,NA,NA,337,"PO BOX 514, AMSTERDAM, NY, 12010","No_Match",NA,NA,NA,NA
989838,"PO BOX 514","ANAHOLA","HI",96703,NA,NA,338,"PO BOX 514, ANAHOLA, HI, 96703","No_Match",NA,NA,NA,NA
989839,"PO BOX 514","BELTON","SC",29627,NA,NA,339,"PO BOX 514, BELTON, SC, 29627","No_Match",NA,NA,NA,NA
989840,"PO BOX 514","BLUE JAY","CA",92317,NA,NA,340,"PO BOX 514, BLUE JAY, CA, 92317","No_Match",NA,NA,NA,NA
989841,"PO BOX 514","BRIDGEVILLE","DE",19933,NA,NA,341,"PO BOX 514, BRIDGEVILLE, DE, 19933","No_Match",NA,NA,NA,NA
989842,"PO BOX 514","CHLORIDE","AZ",86431,NA,NA,342,"PO BOX 514, CHLORIDE, AZ, 86431","No_Match",NA,NA,NA,NA
989843,"PO BOX 514","CREEDE","CO",81130,NA,NA,343,"PO BOX 514, CREEDE, CO, 81130","No_Match",NA,NA,NA,NA
989844,"PO BOX 514","DAVENPORT","WA",99122,NA,NA,344,"PO BOX 514, DAVENPORT, WA, 99122","No_Match",NA,NA,NA,NA
989845,"PO BOX 514","DETROIT LAKES","MN",56502,NA,NA,345,"PO BOX 514, DETROIT LAKES, MN, 56502","No_Match",NA,NA,NA,NA
989846,"PO BOX 514","FREELAND","MI",48623,NA,NA,346,"PO BOX 514, FREELAND, MI, 48623","No_Match",NA,NA,NA,NA
989847,"PO BOX 514","LINTHICUM","MD",21090,NA,NA,347,"PO BOX 514, LINTHICUM, MD, 21090","No_Match",NA,NA,NA,NA
989848,"PO BOX 514","MALTA","MT",59538,NA,NA,348,"PO BOX 514, MALTA, MT, 59538","No_Match",NA,NA,NA,NA
989849,"PO BOX 514","MARION","MA",2738,NA,NA,349,"PO BOX 514, MARION, MA, 2738","No_Match",NA,NA,NA,NA
989850,"PO BOX 514","MEDORA","IN",47260,NA,NA,350,"PO BOX 514, MEDORA, IN, 47260","No_Match",NA,NA,NA,NA
989851,"PO BOX 514","MOUNDS","OK",74047,NA,NA,351,"PO BOX 514, MOUNDS, OK, 74047","No_Match",NA,NA,NA,NA
989852,"PO BOX 514","MOUNT HOLLY","NC",28210,NA,NA,352,"PO BOX 514, MOUNT HOLLY, NC, 28210","No_Match",NA,NA,NA,NA
989853,"PO BOX 514","NANUET","NY",10954,NA,NA,353,"PO BOX 514, NANUET, NY, 10954","No_Match",NA,NA,NA,NA
989854,"PO BOX 514","NEWPORT","WA",99156,NA,NA,354,"PO BOX 514, NEWPORT, WA, 99156","No_Match",NA,NA,NA,NA
989855,"PO BOX 514","PARSHALL","ND",58770,NA,NA,355,"PO BOX 514, PARSHALL, ND, 58770","No_Match",NA,NA,NA,NA
989856,"PO BOX 514","PIPER CITY","IL",60959,NA,NA,356,"PO BOX 514, PIPER CITY, IL, 60959","No_Match",NA,NA,NA,NA
989857,"PO BOX 514","RED RIVER","NM",87558,NA,NA,357,"PO BOX 514, RED RIVER, NM, 87558","No_Match",NA,NA,NA,NA
989858,"PO BOX 514","VEGA","TX",79092,NA,NA,358,"PO BOX 514, VEGA, TX, 79092","No_Match",NA,NA,NA,NA
989859,"PO BOX 514","WACO","TX",76643,NA,NA,359,"PO BOX 514, WACO, TX, 76643","No_Match",NA,NA,NA,NA
989860,"PO BOX 514","WHEELER","OR",97147,NA,NA,360,"PO BOX 514, WHEELER, OR, 97147","No_Match",NA,NA,NA,NA
989861,"PO BOX 5140","EL PASO","TX",79953,NA,NA,361,"PO BOX 5140, EL PASO, TX, 79953","No_Match",NA,NA,NA,NA
989862,"PO BOX 5141","ALPHARETTA","GA",30023,NA,NA,362,"PO BOX 5141, ALPHARETTA, GA, 30023","No_Match",NA,NA,NA,NA
989863,"PO BOX 51417","DURHAM","NC",27717,NA,NA,363,"PO BOX 51417, DURHAM, NC, 27717","No_Match",NA,NA,NA,NA
989864,"PO BOX 51421","EUGENE","OR",97405,NA,NA,364,"PO BOX 51421, EUGENE, OR, 97405","No_Match",NA,NA,NA,NA
989865,"PO BOX 5144","HAUPPAUGE","NY",11788,NA,NA,365,"PO BOX 5144, HAUPPAUGE, NY, 11788","No_Match",NA,NA,NA,NA
989866,"PO BOX 5145","KLAMATH FALLS","OR",97601,NA,NA,366,"PO BOX 5145, KLAMATH FALLS, OR, 97601","No_Match",NA,NA,NA,NA
989867,"PO BOX 51468","MESA","AZ",85208,NA,NA,367,"PO BOX 51468, MESA, AZ, 85208","No_Match",NA,NA,NA,NA
989868,"PO BOX 51471","GREENWOOD","SC",29649,NA,NA,368,"PO BOX 51471, GREENWOOD, SC, 29649","No_Match",NA,NA,NA,NA
989869,"PO BOX 5148","WOODBRIDGE","VA",22191,NA,NA,369,"PO BOX 5148, WOODBRIDGE, VA, 22191","No_Match",NA,NA,NA,NA
989870,"PO BOX 514839","LOS ANGELES","CA",90059,NA,NA,370,"PO BOX 514839, LOS ANGELES, CA, 90059","No_Match",NA,NA,NA,NA
989871,"PO BOX 5149","QUITMAN","GA",31643,NA,NA,371,"PO BOX 5149, QUITMAN, GA, 31643","No_Match",NA,NA,NA,NA
989872,"PO BOX 515","BELFAIR","WA",98528,NA,NA,372,"PO BOX 515, BELFAIR, WA, 98528","No_Match",NA,NA,NA,NA
989873,"PO BOX 515","CARNEGIE","PA",15106,NA,NA,373,"PO BOX 515, CARNEGIE, PA, 15106","No_Match",NA,NA,NA,NA
989874,"PO BOX 515","CULLMAN","AL",35056,NA,NA,374,"PO BOX 515, CULLMAN, AL, 35056","No_Match",NA,NA,NA,NA
989875,"PO BOX 515","HAMILTON","MT",59840,NA,NA,375,"PO BOX 515, HAMILTON, MT, 59840","No_Match",NA,NA,NA,NA
989876,"PO BOX 515","HAYS","MT",59527,NA,NA,376,"PO BOX 515, HAYS, MT, 59527","No_Match",NA,NA,NA,NA
989877,"PO BOX 515","HELENA","MT",NA,NA,NA,377,"PO BOX 515, HELENA, MT, ","No_Match",NA,NA,NA,NA
989878,"PO BOX 515","MEETEETSE","WY",82433,NA,NA,378,"PO BOX 515, MEETEETSE, WY, 82433","No_Match",NA,NA,NA,NA
989879,"PO BOX 515","MIDDLETON","ID",83644,NA,NA,379,"PO BOX 515, MIDDLETON, ID, 83644","No_Match",NA,NA,NA,NA
989880,"PO BOX 515","MILTON FREEWATER","OR",97862,NA,NA,380,"PO BOX 515, MILTON FREEWATER, OR, 97862","No_Match",NA,NA,NA,NA
989881,"PO BOX 515","NAPLES","FL",34106,NA,NA,381,"PO BOX 515, NAPLES, FL, 34106","No_Match",NA,NA,NA,NA
989882,"PO BOX 515","OXFORD","FL",34484,NA,NA,382,"PO BOX 515, OXFORD, FL, 34484","No_Match",NA,NA,NA,NA
989883,"PO BOX 515","PALM HARBOR","FL",34683,NA,NA,383,"PO BOX 515, PALM HARBOR, FL, 34683","No_Match",NA,NA,NA,NA
989884,"PO BOX 515","PLEASANT HILL","OR",97455,NA,NA,384,"PO BOX 515, PLEASANT HILL, OR, 97455","No_Match",NA,NA,NA,NA
989885,"PO BOX 515","SEAVIEW","WA",98644,NA,NA,385,"PO BOX 515, SEAVIEW, WA, 98644","No_Match",NA,NA,NA,NA
989886,"PO BOX 515","SEYMOUR","IN",47274,NA,NA,386,"PO BOX 515, SEYMOUR, IN, 47274","No_Match",NA,NA,NA,NA
989887,"PO BOX 515","SIMLA","CO",80835,NA,NA,387,"PO BOX 515, SIMLA, CO, 80835","No_Match",NA,NA,NA,NA
989888,"PO BOX 515","ST CLAIR","MO",63077,NA,NA,388,"PO BOX 515, ST CLAIR, MO, 63077","No_Match",NA,NA,NA,NA
989889,"PO BOX 515","WEED","CA",96094,NA,NA,389,"PO BOX 515, WEED, CA, 96094","No_Match",NA,NA,NA,NA
989890,"PO BOX 515","WEST KINGSTON","RI",2892,NA,NA,390,"PO BOX 515, WEST KINGSTON, RI, 2892","No_Match",NA,NA,NA,NA
989891,"PO BOX 515","WILLIAMSBURG","VA",23187,NA,NA,391,"PO BOX 515, WILLIAMSBURG, VA, 23187","No_Match",NA,NA,NA,NA
989892,"PO BOX 515","WILLIAMSBURG","VA",23188,NA,NA,392,"PO BOX 515, WILLIAMSBURG, VA, 23188","No_Match",NA,NA,NA,NA
989893,"PO BOX 515","WILSON","WY",83014,NA,NA,393,"PO BOX 515, WILSON, WY, 83014","No_Match",NA,NA,NA,NA
989894,"PO BOX 51501","KNOXVILLE","TN",37950,NA,NA,394,"PO BOX 51501, KNOXVILLE, TN, 37950","No_Match",NA,NA,NA,NA
989895,"PO BOX 5151","HELENA","MT",NA,NA,NA,395,"PO BOX 5151, HELENA, MT, ","No_Match",NA,NA,NA,NA
989896,"PO BOX 5153","LUBBOCK","TX",79408,NA,NA,396,"PO BOX 5153, LUBBOCK, TX, 79408","No_Match",NA,NA,NA,NA
989897,"PO BOX 51549","DURHAM","NC",27717,NA,NA,397,"PO BOX 51549, DURHAM, NC, 27717","No_Match",NA,NA,NA,NA
989898,"PO BOX 51563","KALAMAZOO","MI",49005,NA,NA,398,"PO BOX 51563, KALAMAZOO, MI, 49005","No_Match",NA,NA,NA,NA
989899,"PO BOX 5157","GRANBURY","TX",76049,NA,NA,399,"PO BOX 5157, GRANBURY, TX, 76049","No_Match",NA,NA,NA,NA
989900,"PO BOX 5158","OSWEGO","NY",13126,NA,NA,400,"PO BOX 5158, OSWEGO, NY, 13126","No_Match",NA,NA,NA,NA
989901,"PO BOX 516 8825 MAIN ST","HOOPER","CO",81136,37.746328007,-105.875579178,401,"PO BOX 516 8825 MAIN ST, HOOPER, CO, 81136","Match","Exact","8825 MAIN ST, HOOPER, CO, 81136",104173181,"R"
989902,"PO BOX 516","BEACH","ND",58621,NA,NA,402,"PO BOX 516, BEACH, ND, 58621","No_Match",NA,NA,NA,NA
989903,"PO BOX 516","BUFFALO GAP","TX",79508,NA,NA,403,"PO BOX 516, BUFFALO GAP, TX, 79508","No_Match",NA,NA,NA,NA
989904,"PO BOX 516","EDGEWOOD","NM",87015,NA,NA,404,"PO BOX 516, EDGEWOOD, NM, 87015","No_Match",NA,NA,NA,NA
989905,"PO BOX 516","FORT KENT","ME",4743,NA,NA,405,"PO BOX 516, FORT KENT, ME, 4743","No_Match",NA,NA,NA,NA
989906,"PO BOX 516","GREELEY","CO",80632,NA,NA,406,"PO BOX 516, GREELEY, CO, 80632","No_Match",NA,NA,NA,NA
989907,"PO BOX 516","MCHENRY","MD",21541,NA,NA,407,"PO BOX 516, MCHENRY, MD, 21541","No_Match",NA,NA,NA,NA
989908,"PO BOX 516","NEWTON","GA",39870,NA,NA,408,"PO BOX 516, NEWTON, GA, 39870","No_Match",NA,NA,NA,NA
989909,"PO BOX 516","OMAHA","NE",68101,NA,NA,409,"PO BOX 516, OMAHA, NE, 68101","No_Match",NA,NA,NA,NA
989910,"PO BOX 516","PINE MOUNTAIN","GA",31822,NA,NA,410,"PO BOX 516, PINE MOUNTAIN, GA, 31822","No_Match",NA,NA,NA,NA
989911,"PO BOX 516","RENVILLE","MN",56284,NA,NA,411,"PO BOX 516, RENVILLE, MN, 56284","No_Match",NA,NA,NA,NA
989912,"PO BOX 516","TARBORO","NC",27886,NA,NA,412,"PO BOX 516, TARBORO, NC, 27886","No_Match",NA,NA,NA,NA
989913,"PO BOX 516","VERNON","NJ",7462,NA,NA,413,"PO BOX 516, VERNON, NJ, 7462","No_Match",NA,NA,NA,NA
989914,"PO BOX 5163","BEAUMONT","TX",77726,NA,NA,414,"PO BOX 5163, BEAUMONT, TX, 77726","No_Match",NA,NA,NA,NA
989915,"PO BOX 5163","EUREKA","CA",95502,NA,NA,415,"PO BOX 5163, EUREKA, CA, 95502","No_Match",NA,NA,NA,NA
989916,"PO BOX 5164","UVALDE","TX",78802,NA,NA,416,"PO BOX 5164, UVALDE, TX, 78802","No_Match",NA,NA,NA,NA
989917,"PO BOX 5165","MIDLAND","TX",79704,NA,NA,417,"PO BOX 5165, MIDLAND, TX, 79704","No_Match",NA,NA,NA,NA
989918,"PO BOX 5167","RICHMOND","CA",94805,NA,NA,418,"PO BOX 5167, RICHMOND, CA, 94805","No_Match",NA,NA,NA,NA
989919,"PO BOX 51682","ALBUQUERQUE","NM",87181,NA,NA,419,"PO BOX 51682, ALBUQUERQUE, NM, 87181","No_Match",NA,NA,NA,NA
989920,"PO BOX 517","BATTLE MOUNTAIN","NV",89820,NA,NA,420,"PO BOX 517, BATTLE MOUNTAIN, NV, 89820","No_Match",NA,NA,NA,NA
989921,"PO BOX 517","EAST SETAUKET","NY",11733,NA,NA,421,"PO BOX 517, EAST SETAUKET, NY, 11733","No_Match",NA,NA,NA,NA
989922,"PO BOX 517","GREENWICH","CT",6836,NA,NA,422,"PO BOX 517, GREENWICH, CT, 6836","No_Match",NA,NA,NA,NA
989923,"PO BOX 517","ROSE HILL","VA",24281,NA,NA,423,"PO BOX 517, ROSE HILL, VA, 24281","No_Match",NA,NA,NA,NA
989924,"PO BOX 517","SCURRY","TX",75158,NA,NA,424,"PO BOX 517, SCURRY, TX, 75158","No_Match",NA,NA,NA,NA
989925,"PO BOX 517","SHOW LOW","AZ",85902,NA,NA,425,"PO BOX 517, SHOW LOW, AZ, 85902","No_Match",NA,NA,NA,NA
989926,"PO BOX 517","TRINITY CENTER","CA",96091,NA,NA,426,"PO BOX 517, TRINITY CENTER, CA, 96091","No_Match",NA,NA,NA,NA
989927,"PO BOX 517","WEAVERVILLE","CA",96093,NA,NA,427,"PO BOX 517, WEAVERVILLE, CA, 96093","No_Match",NA,NA,NA,NA
989928,"PO BOX 51706","FORT BENNING","GA",31995,NA,NA,428,"PO BOX 51706, FORT BENNING, GA, 31995","No_Match",NA,NA,NA,NA
989929,"PO BOX 5171","ASHEVILLE","NC",28813,NA,NA,429,"PO BOX 5171, ASHEVILLE, NC, 28813","No_Match",NA,NA,NA,NA
989930,"PO BOX 5173","EAST ORANGE","NJ",7019,NA,NA,430,"PO BOX 5173, EAST ORANGE, NJ, 7019","No_Match",NA,NA,NA,NA
989931,"PO BOX 5173","WILMINGTON","DE",19808,NA,NA,431,"PO BOX 5173, WILMINGTON, DE, 19808","No_Match",NA,NA,NA,NA
989932,"PO BOX 5174","BASKING RIDGE","NJ",7920,NA,NA,432,"PO BOX 5174, BASKING RIDGE, NJ, 7920","No_Match",NA,NA,NA,NA
989933,"PO BOX 5177","ETNA","WY",83118,NA,NA,433,"PO BOX 5177, ETNA, WY, 83118","No_Match",NA,NA,NA,NA
989934,"PO BOX 5177","KAMPALA, UGANDA",NA,NA,NA,NA,434,"PO BOX 5177, KAMPALA, UGANDA, , ","No_Match",NA,NA,NA,NA
989935,"PO BOX 51775","IRIVNE","CA",92619,NA,NA,435,"PO BOX 51775, IRIVNE, CA, 92619","No_Match",NA,NA,NA,NA
989936,"PO BOX 5178","BOZEMAN","MT",59717,NA,NA,436,"PO BOX 5178, BOZEMAN, MT, 59717","No_Match",NA,NA,NA,NA
989937,"PO BOX 5178","PITTSBURGH","PA",15206,NA,NA,437,"PO BOX 5178, PITTSBURGH, PA, 15206","No_Match",NA,NA,NA,NA
989938,"PO BOX 51791","LIVONIA","MI",48151,NA,NA,438,"PO BOX 51791, LIVONIA, MI, 48151","No_Match",NA,NA,NA,NA
989939,"PO BOX 518","AMBOY","WA",98601,NA,NA,439,"PO BOX 518, AMBOY, WA, 98601","No_Match",NA,NA,NA,NA
989940,"PO BOX 518","BAUDETTE","MN",56623,NA,NA,440,"PO BOX 518, BAUDETTE, MN, 56623","No_Match",NA,NA,NA,NA
989941,"PO BOX 518","BELLEVILLE","MI",NA,NA,NA,441,"PO BOX 518, BELLEVILLE, MI, ","No_Match",NA,NA,NA,NA
989942,"PO BOX 518","COPPERAS COVE","TX",76522,NA,NA,442,"PO BOX 518, COPPERAS COVE, TX, 76522","No_Match",NA,NA,NA,NA
989943,"PO BOX 518","DESTIN","FL",32540,NA,NA,443,"PO BOX 518, DESTIN, FL, 32540","No_Match",NA,NA,NA,NA
989944,"PO BOX 518","DIXON","NM",87527,NA,NA,444,"PO BOX 518, DIXON, NM, 87527","No_Match",NA,NA,NA,NA
989945,"PO BOX 518","FULTON","MS",38843,NA,NA,445,"PO BOX 518, FULTON, MS, 38843","No_Match",NA,NA,NA,NA
989946,"PO BOX 518","FUNKSTOWN","MD",21734,NA,NA,446,"PO BOX 518, FUNKSTOWN, MD, 21734","No_Match",NA,NA,NA,NA
989947,"PO BOX 518","GRANT","NE",69140,NA,NA,447,"PO BOX 518, GRANT, NE, 69140","No_Match",NA,NA,NA,NA
989948,"PO BOX 518","MAKAWAO","HI",96768,NA,NA,448,"PO BOX 518, MAKAWAO, HI, 96768","No_Match",NA,NA,NA,NA
989949,"PO BOX 518","MARSHFIELD HILLS","MA",2051,NA,NA,449,"PO BOX 518, MARSHFIELD HILLS, MA, 2051","No_Match",NA,NA,NA,NA
989950,"PO BOX 518","ORISKANY","NY",13424,NA,NA,450,"PO BOX 518, ORISKANY, NY, 13424","No_Match",NA,NA,NA,NA
989951,"PO BOX 518","RURAL HALL","NC",27045,NA,NA,451,"PO BOX 518, RURAL HALL, NC, 27045","No_Match",NA,NA,NA,NA
989952,"PO BOX 518","SOUTH PRAIRIE","WA",98385,NA,NA,452,"PO BOX 518, SOUTH PRAIRIE, WA, 98385","No_Match",NA,NA,NA,NA
989953,"PO BOX 518","SUNRAY","TX",79086,NA,NA,453,"PO BOX 518, SUNRAY, TX, 79086","No_Match",NA,NA,NA,NA
989954,"PO BOX 518","WILSON","NC",27894,NA,NA,454,"PO BOX 518, WILSON, NC, 27894","No_Match",NA,NA,NA,NA
989955,"PO BOX 518","WOODACRE","CA",94973,NA,NA,455,"PO BOX 518, WOODACRE, CA, 94973","No_Match",NA,NA,NA,NA
989956,"PO BOX 5181","PINE MTN CLUB","CA",93222,NA,NA,456,"PO BOX 5181, PINE MTN CLUB, CA, 93222","No_Match",NA,NA,NA,NA
989957,"PO BOX 5182","BENTON CITY","WA",99320,NA,NA,457,"PO BOX 5182, BENTON CITY, WA, 99320","No_Match",NA,NA,NA,NA
989958,"PO BOX 5184","ETNA","WY",83118,NA,NA,458,"PO BOX 5184, ETNA, WY, 83118","No_Match",NA,NA,NA,NA
989959,"PO BOX 5184","KETCHIKAN","AK",99901,NA,NA,459,"PO BOX 5184, KETCHIKAN, AK, 99901","No_Match",NA,NA,NA,NA
989960,"PO BOX 5188","EDGARTOWN","MA",2539,NA,NA,460,"PO BOX 5188, EDGARTOWN, MA, 2539","No_Match",NA,NA,NA,NA
989961,"PO BOX 5189","FAIRLAWN","OH",44334,NA,NA,461,"PO BOX 5189, FAIRLAWN, OH, 44334","No_Match",NA,NA,NA,NA
989962,"PO BOX 5189","FAIRLAWNQ","OH",44334,NA,NA,462,"PO BOX 5189, FAIRLAWNQ, OH, 44334","No_Match",NA,NA,NA,NA
989963,"PO BOX 5189","OCEAN ISLE BEACH","NC",28469,NA,NA,463,"PO BOX 5189, OCEAN ISLE BEACH, NC, 28469","No_Match",NA,NA,NA,NA
989964,"PO BOX 51896","PHOENIX","AZ",85076,NA,NA,464,"PO BOX 51896, PHOENIX, AZ, 85076","No_Match",NA,NA,NA,NA
989965,"PO BOX 519 5 NOLANS PT RD","LAKE HOPATCONG","NJ",7849,40.946587376,-74.618691231,465,"PO BOX 519 5 NOLANS PT RD, LAKE HOPATCONG, NJ, 7849","Match","Exact","5 NOLANS POINT RD, LAKE HOPATCONG, NJ, 07849",60434255,"R"
989966,"PO BOX 519 APT 241","PRAIRIE VIEW","TX",77446,NA,NA,466,"PO BOX 519 APT 241, PRAIRIE VIEW, TX, 77446","No_Match",NA,NA,NA,NA
989967,"PO BOX 519","ATHOL","MA",1331,NA,NA,467,"PO BOX 519, ATHOL, MA, 1331","No_Match",NA,NA,NA,NA
989968,"PO BOX 519","BURNS","CA",97220,NA,NA,468,"PO BOX 519, BURNS, CA, 97220","No_Match",NA,NA,NA,NA
989969,"PO BOX 519","DHANIS","TX",78850,NA,NA,469,"PO BOX 519, DHANIS, TX, 78850","No_Match",NA,NA,NA,NA
989970,"PO BOX 519","HUTCHINSON","MN",55350,NA,NA,470,"PO BOX 519, HUTCHINSON, MN, 55350","No_Match",NA,NA,NA,NA
989971,"PO BOX 519","MABANK","TX",75147,NA,NA,471,"PO BOX 519, MABANK, TX, 75147","No_Match",NA,NA,NA,NA
989972,"PO BOX 519","MARTINSVILLE","NJ",8836,NA,NA,472,"PO BOX 519, MARTINSVILLE, NJ, 8836","No_Match",NA,NA,NA,NA
989973,"PO BOX 519","MONTVILLE","NJ",7045,NA,NA,473,"PO BOX 519, MONTVILLE, NJ, 7045","No_Match",NA,NA,NA,NA
989974,"PO BOX 519","NIPOMO","CA",93444,NA,NA,474,"PO BOX 519, NIPOMO, CA, 93444","No_Match",NA,NA,NA,NA
989975,"PO BOX 519","ROSMAN","NC",28772,NA,NA,475,"PO BOX 519, ROSMAN, NC, 28772","No_Match",NA,NA,NA,NA
989976,"PO BOX 519","TELLICO PLAINS","TN",37385,NA,NA,476,"PO BOX 519, TELLICO PLAINS, TN, 37385","No_Match",NA,NA,NA,NA
989977,"PO BOX 519","TELLICO","TN",37385,NA,NA,477,"PO BOX 519, TELLICO, TN, 37385","No_Match",NA,NA,NA,NA
989978,"PO BOX 519","TRACY","CA",95378,NA,NA,478,"PO BOX 519, TRACY, CA, 95378","No_Match",NA,NA,NA,NA
989979,"PO BOX 5190","SAN PEDRO","CA",90733,NA,NA,479,"PO BOX 5190, SAN PEDRO, CA, 90733","No_Match",NA,NA,NA,NA
989980,"PO BOX 5191","ASHLAND","KY",41105,NA,NA,480,"PO BOX 5191, ASHLAND, KY, 41105","No_Match",NA,NA,NA,NA
989981,"PO BOX 5191","POUGHKEEPSIE","NY",12602,NA,NA,481,"PO BOX 5191, POUGHKEEPSIE, NY, 12602","No_Match",NA,NA,NA,NA
989982,"PO BOX 51954","BOSTON","MA",2205,NA,NA,482,"PO BOX 51954, BOSTON, MA, 2205","No_Match",NA,NA,NA,NA
989983,"PO BOX 51956","CASPER","WY",82605,NA,NA,483,"PO BOX 51956, CASPER, WY, 82605","No_Match",NA,NA,NA,NA
989984,"PO BOX 5196","VAIL","CO",81658,NA,NA,484,"PO BOX 5196, VAIL, CO, 81658","No_Match",NA,NA,NA,NA
989985,"PO BOX 5198","JASPER","TX",75951,NA,NA,485,"PO BOX 5198, JASPER, TX, 75951","No_Match",NA,NA,NA,NA
989986,"PO BOX 52","AUBREY","TX",76227,NA,NA,486,"PO BOX 52, AUBREY, TX, 76227","No_Match",NA,NA,NA,NA
989987,"PO BOX 52","AUTRYVILLE","NC",28318,NA,NA,487,"PO BOX 52, AUTRYVILLE, NC, 28318","No_Match",NA,NA,NA,NA
989988,"PO BOX 52","BARTLETT","OH",45713,NA,NA,488,"PO BOX 52, BARTLETT, OH, 45713","No_Match",NA,NA,NA,NA
989989,"PO BOX 52","BRAMWELL","WV",24715,NA,NA,489,"PO BOX 52, BRAMWELL, WV, 24715","No_Match",NA,NA,NA,NA
989990,"PO BOX 52","BROOKLYN","PA",18813,NA,NA,490,"PO BOX 52, BROOKLYN, PA, 18813","No_Match",NA,NA,NA,NA
989991,"PO BOX 52","COLDWATER","MS",38618,NA,NA,491,"PO BOX 52, COLDWATER, MS, 38618","No_Match",NA,NA,NA,NA
989992,"PO BOX 52","EATON","NY",13334,NA,NA,492,"PO BOX 52, EATON, NY, 13334","No_Match",NA,NA,NA,NA
989993,"PO BOX 52","EL GRANADA","CA",94018,NA,NA,493,"PO BOX 52, EL GRANADA, CA, 94018","No_Match",NA,NA,NA,NA
989994,"PO BOX 52","ELECTRIC CITY","WA",99123,NA,NA,494,"PO BOX 52, ELECTRIC CITY, WA, 99123","No_Match",NA,NA,NA,NA
989995,"PO BOX 52","FARMINGTON","IA",52626,NA,NA,495,"PO BOX 52, FARMINGTON, IA, 52626","No_Match",NA,NA,NA,NA
989996,"PO BOX 52","FENTON","MI",48430,NA,NA,496,"PO BOX 52, FENTON, MI, 48430","No_Match",NA,NA,NA,NA
989997,"PO BOX 52","FLORENCE","TX",76527,NA,NA,497,"PO BOX 52, FLORENCE, TX, 76527","No_Match",NA,NA,NA,NA
989998,"PO BOX 52","GAINESVILLE","AL",35464,NA,NA,498,"PO BOX 52, GAINESVILLE, AL, 35464","No_Match",NA,NA,NA,NA
989999,"PO BOX 52","GARNERVILLE","NY",10923,NA,NA,499,"PO BOX 52, GARNERVILLE, NY, 10923","No_Match",NA,NA,NA,NA
990000,"PO BOX 52","GEYSER","MT",59447,NA,NA,500,"PO BOX 52, GEYSER, MT, 59447","No_Match",NA,NA,NA,NA
