"ID","Address","City","State","Zip","lat","long","id","input_address","match_indicator","match_type","matched_address","tiger_line_id","tiger_side"
408001,"2502 N 1ST AVENUE","TUCSON","AZ",85719,32.2524013980001,-110.960943789,1,"2502 N 1ST AVENUE, TUCSON, AZ, 85719","Match","Exact","2502 N 1ST AVE, TUCSON, AZ, 85719",121170237,"R"
408002,"2502 N 25TH STREET","SHEBOYGAN","WI",53083,43.7718665090001,-87.738955389,2,"2502 N 25TH STREET, SHEBOYGAN, WI, 53083","Match","Exact","2502 N 25TH ST, SHEBOYGAN, WI, 53083",79496083,"L"
408003,"2502 N 51 AVE","OMAHA","NE",68104,41.2815702230001,-95.993754482,3,"2502 N 51 AVE, OMAHA, NE, 68104","Match","Exact","2502 N 51ST AVE, OMAHA, NE, 68104",116978369,"L"
408004,"2502 N HARRISON ST APT 2","DAVENPORT","IA",52803,41.544934546,-90.577004377,4,"2502 N HARRISON ST APT 2, DAVENPORT, IA, 52803","Match","Non_Exact","2502 N HARRISON ST, DAVENPORT, IA, 52803",122707340,"L"
408005,"2502 N NOBILE ST","PAULINA","LA",70763,30.0394058810001,-90.715116957,5,"2502 N NOBILE ST, PAULINA, LA, 70763","Match","Exact","2502 N NOBILE ST, PAULINA, LA, 70763",617269428,"R"
408006,"2502 N OLD MANOR","WICHITA","KS",67220,NA,NA,6,"2502 N OLD MANOR, WICHITA, KS, 67220","Tie",NA,NA,NA,NA
408007,"2502 N PALM DR STE L","SIGNAL HILL","CA",90755,33.8027123320001,-118.155914958,7,"2502 N PALM DR STE L, SIGNAL HILL, CA, 90755","Match","Non_Exact","2502 N PALM DR, SIGNAL HILL, CA, 90755",241245198,"R"
408008,"2502 N PARADISE CIRCLE","WICHITA","KS",67205,37.7287296170001,-97.39823181,8,"2502 N PARADISE CIRCLE, WICHITA, KS, 67205","Match","Exact","2502 N PARADISE CIR, WICHITA, KS, 67205",649046298,"L"
408009,"2502 N SAWYER AVE","CHICAGO","IL",60647,41.9266434940001,-87.7093518629999,9,"2502 N SAWYER AVE, CHICAGO, IL, 60647","Match","Exact","2502 N SAWYER AVE, CHICAGO, IL, 60647",605223755,"L"
408010,"2502 N SURREY CT","CHICAGO","IL",60614,41.9271903060001,-87.660587374,10,"2502 N SURREY CT, CHICAGO, IL, 60614","Match","Exact","2502 N SURREY CT, CHICAGO, IL, 60614",605234602,"L"
408011,"2502 N WRIGHT AVE","SIOUX FALLS","SD",57107,43.5742143210001,-96.784169562,11,"2502 N WRIGHT AVE, SIOUX FALLS, SD, 57107","Match","Exact","2502 N WRIGHT AVE, SIOUX FALLS, SD, 57107",34995745,"R"
408012,"2502 NORTH 110TH ST","KANSAS CITY","KS",66109,39.132900722,-94.834891512,12,"2502 NORTH 110TH ST, KANSAS CITY, KS, 66109","Match","Exact","2502 N 110TH ST, KANSAS CITY, KS, 66109",91146039,"L"
408013,"2502 NORTH MOUNTAIN AVE","CLAREMONT","CA",91711,34.1292096770001,-117.729059672,13,"2502 NORTH MOUNTAIN AVE, CLAREMONT, CA, 91711","Match","Exact","2502 N MOUNTAIN AVE, CLAREMONT, CA, 91711",624504114,"R"
408014,"2502 NSPAR LANE","ELLENSBURG","WA",98926,NA,NA,14,"2502 NSPAR LANE, ELLENSBURG, WA, 98926","No_Match",NA,NA,NA,NA
408015,"2502 NW 234TH ST","EDMOND","OK",73003,NA,NA,15,"2502 NW 234TH ST, EDMOND, OK, 73003","Tie",NA,NA,NA,NA
408016,"2502 NW 31ST AVE","GAINESVILLE","FL",32605,29.6813214410001,-82.359873749,16,"2502 NW 31ST AVE, GAINESVILLE, FL, 32605","Match","Exact","2502 NW 31ST AVE, GAINESVILLE, FL, 32605",650820687,"R"
408017,"2502 OAK MILL DR","KINGWOOD","TX",77345,30.0521831570001,-95.169982733,17,"2502 OAK MILL DR, KINGWOOD, TX, 77345","Match","Exact","2502 OAK MILL DR, KINGWOOD, TX, 77345",96049499,"R"
408018,"2502 ORELLA STREET A","SANTA BARBARA","CA",93101,34.43301675,-119.723988994,18,"2502 ORELLA STREET A, SANTA BARBARA, CA, 93101","Match","Non_Exact","2502 ORELLA ST, SANTA BARBARA, CA, 93105",108604103,"R"
408019,"2502 PASCO ST","TALLAHASSEE","FL",32310,30.4164000370001,-84.294039804,19,"2502 PASCO ST, TALLAHASSEE, FL, 32310","Match","Exact","2502 PASCO ST, TALLAHASSEE, FL, 32310",82851192,"R"
408020,"2502 QUACCO  ROAD","POOLER","GA",31322,NA,NA,20,"2502 QUACCO  ROAD, POOLER, GA, 31322","No_Match",NA,NA,NA,NA
408021,"2502 RIVERSIDE PARKWAY APT 534","GRAND PRAIRE","TX",75050,32.7933410480001,-97.0605101949999,21,"2502 RIVERSIDE PARKWAY APT 534, GRAND PRAIRE, TX, 75050","Match","Non_Exact","2502 RIVERSIDE PKWY, GRAND PRAIRIE, TX, 75050",650123869,"R"
408022,"2502 RIVERSIDE PARKWAY APT 823","GRAND PRAIRIE","TX",75050,32.7933410480001,-97.0605101949999,22,"2502 RIVERSIDE PARKWAY APT 823, GRAND PRAIRIE, TX, 75050","Match","Exact","2502 RIVERSIDE PKWY, GRAND PRAIRIE, TX, 75050",650123869,"R"
408023,"2502 ROBIN ST","SLIDELL","LA",70460,30.295076265,-89.847076592,23,"2502 ROBIN ST, SLIDELL, LA, 70460","Match","Exact","2502 ROBIN ST, SLIDELL, LA, 70460",111247869,"R"
408024,"2502 ROUND TABLE BLVD","LEWISVILLE","TX",75056,33.038797844,-96.900335646,24,"2502 ROUND TABLE BLVD, LEWISVILLE, TX, 75056","Match","Exact","2502 ROUND TABLE BLVD, LEWISVILLE, TX, 75056",103416331,"R"
408025,"2502 SAINT PARIS-JACKSON ROAD","SAINT PARIS","OH",43072,40.0875960000001,-83.962884021,25,"2502 SAINT PARIS-JACKSON ROAD, SAINT PARIS, OH, 43072","Match","Exact","2502 SAINT PARIS-JACKSON RD, SAINT PARIS, OH, 43072",606289507,"R"
408026,"2502 SANDSTONE DR","MCALLEN","TX",78504,NA,NA,26,"2502 SANDSTONE DR, MCALLEN, TX, 78504","No_Match",NA,NA,NA,NA
408027,"2502 SE WEST BLACKWELL DRIVE","PORT SAINT LUCIE","FL",34952,27.2671106080001,-80.265376655,27,"2502 SE WEST BLACKWELL DRIVE, PORT SAINT LUCIE, FL, 34952","Match","Exact","2502 SE WEST BLACKWELL DR, PORT ST LUCIE, FL, 34952",120181713,"R"
408028,"2502 SHORELINE DR","KELLER","TX",76248,32.9174134890001,-97.1946020459999,28,"2502 SHORELINE DR, KELLER, TX, 76248","Match","Exact","2502 SHORELINE DR, KELLER, TX, 76248",636757542,"R"
408029,"2502 SOUTH BRINK AVENUE","SARASOTA","FL",34239,27.3113481680001,-82.510975171,29,"2502 SOUTH BRINK AVENUE, SARASOTA, FL, 34239","Match","Exact","2502 S BRINK AVE, SARASOTA, FL, 34239",16352249,"R"
408030,"2502 SPARKLING BROOK CT","PEARLAND","TX",77584,29.564502577,-95.4071005869999,30,"2502 SPARKLING BROOK CT, PEARLAND, TX, 77584","Match","Exact","2502 SPARKLING BROOK CT, PEARLAND, TX, 77584",614114903,"L"
408031,"2502 STONE HEDGE DR","ALEXANDRIA","VA",22306,38.7610550100001,-77.07567763,31,"2502 STONE HEDGE DR, ALEXANDRIA, VA, 22306","Match","Exact","2502 STONE HEDGE DR, ALEXANDRIA, VA, 22306",75989821,"R"
408032,"2502 SUMMIT SPRING DR","SANDY SPRING","GA",30350,33.9915382560001,-84.346372649,32,"2502 SUMMIT SPRING DR, SANDY SPRING, GA, 30350","Match","Non_Exact","2502 SUMMIT SPRINGS DR, SANDY SPRINGS, GA, 30350",17395109,"R"
408033,"2502 SUNRIDGE CT","MISSOULA","MT",59803,46.821620409,-114.042781022,33,"2502 SUNRIDGE CT, MISSOULA, MT, 59803","Match","Exact","2502 SUNRIDGE CT, MISSOULA, MT, 59803",205262782,"L"
408034,"2502 SUTTER STREET","SAN FRANCISCO","CA",94115,37.7850250990001,-122.441695518,34,"2502 SUTTER STREET, SAN FRANCISCO, CA, 94115","Match","Exact","2502 SUTTER ST, SAN FRANCISCO, CA, 94115",192283223,"R"
408035,"2502 SYCAMORE LANE","PALMDALE","CA",93551,34.6003354870001,-118.174471001,35,"2502 SYCAMORE LANE, PALMDALE, CA, 93551","Match","Exact","2502 SYCAMORE LN, PALMDALE, CA, 93551",141822942,"L"
408036,"2502 TIPPECANOE RDG","TALLAHASSEE","FL",32303,30.4768745750001,-84.330905614,36,"2502 TIPPECANOE RDG, TALLAHASSEE, FL, 32303","Match","Exact","2502 TIPPECANOE RIDGE, TALLAHASSEE, FL, 32303",618819975,"L"
408037,"2502 TOURNAMENT CT","CASTLE ROCK","CO",80108,39.4431988330001,-104.896414416,37,"2502 TOURNAMENT CT, CASTLE ROCK, CO, 80108","Match","Exact","2502 TOURNAMENT CT, CASTLE ROCK, CO, 80108",130821186,"L"
408038,"2502 TRAIL MARKER PLACE","CHULA VISTA","CA",91914,32.6650551440001,-116.963867592,38,"2502 TRAIL MARKER PLACE, CHULA VISTA, CA, 91914","Match","Exact","2502 TRAIL MARKER PL, CHULA VISTA, CA, 91914",195766127,"R"
408039,"2502 TRAPSIDE COURT","KISSIMMEE","FL",34746,28.262104026,-81.428202895,39,"2502 TRAPSIDE COURT, KISSIMMEE, FL, 34746","Match","Exact","2502 TRAPSIDE CT, KISSIMMEE, FL, 34746",176692586,"L"
408040,"2502 TUCKER CT","FORT COLLINS","CO",80526,40.549725488,-105.123072915,40,"2502 TUCKER CT, FORT COLLINS, CO, 80526","Match","Exact","2502 TUCKER CT, FORT COLLINS, CO, 80526",188556029,"R"
408041,"2502 VANDALIA","COLLINSVILLE","IL",62234,38.7029120170001,-89.960397558,41,"2502 VANDALIA, COLLINSVILLE, IL, 62234","Match","Non_Exact","2502 VANDALIA ST, COLLINSVILLE, IL, 62234",647982288,"R"
408042,"2502 VERA AVE","CINCINNATI","OH",45237,39.19134719,-84.4427013659999,42,"2502 VERA AVE, CINCINNATI, OH, 45237","Match","Exact","2502 VERA AVE, CINCINNATI, OH, 45237",103929099,"L"
408043,"2502 W CATALPA APT G","CHICAGO","IL",60625,NA,NA,43,"2502 W CATALPA APT G, CHICAGO, IL, 60625","No_Match",NA,NA,NA,NA
408044,"2502 WABASH","KANSAS CITY","MO",64127,39.080582312,-94.553468914,44,"2502 WABASH, KANSAS CITY, MO, 64127","Match","Non_Exact","2502 WABASH AVE, KANSAS CITY, MO, 64127",91449973,"R"
408045,"2502 WALBROOK DRIVE","LOUISVILLE","KY",40222,38.2878549930001,-85.628401588,45,"2502 WALBROOK DRIVE, LOUISVILLE, KY, 40222","Match","Exact","2502 WALBROOK DR, LOUISVILLE, KY, 40222",96855205,"L"
408046,"2502 WEBSTER  APT 301","HOUSTON","TX",77003,29.740189974,-95.359080507,46,"2502 WEBSTER  APT 301, HOUSTON, TX, 77003","Match","Non_Exact","2502 WEBSTER ST, HOUSTON, TX, 77003",96072798,"R"
408047,"2502 WEBSTER ST APT 118","HOUSTON","TX",77003,29.740189974,-95.359080507,47,"2502 WEBSTER ST APT 118, HOUSTON, TX, 77003","Match","Exact","2502 WEBSTER ST, HOUSTON, TX, 77003",96072798,"R"
408048,"2502 WEBSTER ST APT 318","HOUSTON","TX",77003,29.740189974,-95.359080507,48,"2502 WEBSTER ST APT 318, HOUSTON, TX, 77003","Match","Exact","2502 WEBSTER ST, HOUSTON, TX, 77003",96072798,"R"
408049,"2502 WEBSTER STREET APT 318","HOUSTON","TX",77003,29.740189974,-95.359080507,49,"2502 WEBSTER STREET APT 318, HOUSTON, TX, 77003","Match","Exact","2502 WEBSTER ST, HOUSTON, TX, 77003",96072798,"R"
408050,"2502 WHITE EAGLE TRAIL SE","CEDAR RAPIDS","IA",52403,42.005273995,-91.6097540539999,50,"2502 WHITE EAGLE TRAIL SE, CEDAR RAPIDS, IA, 52403","Match","Exact","2502 WHITE EAGLE TRL SE, CEDAR RAPIDS, IA, 52403",17046314,"L"
408051,"2502 WOODRIDGE PLACE","CHAMPAIGN","IL",61822,40.079266982,-88.287527272,51,"2502 WOODRIDGE PLACE, CHAMPAIGN, IL, 61822","Match","Exact","2502 WOODRIDGE PL, CHAMPAIGN, IL, 61822",635570297,"L"
408052,"2502 WREN CREEK CT","FRESNO","TX",77545,29.54488193,-95.491347689,52,"2502 WREN CREEK CT, FRESNO, TX, 77545","Match","Exact","2502 WREN CREEK CT, FRESNO, TX, 77545",635208440,"L"
408053,"2502","NORTHBROOK","IL",60062,NA,NA,53,"2502, NORTHBROOK, IL, 60062","No_Match",NA,NA,NA,NA
408054,"2502","PORT SAINT LUCIE","FL",34952,NA,NA,54,"2502, PORT SAINT LUCIE, FL, 34952","No_Match",NA,NA,NA,NA
408055,"25020 45TH PL SOUTH NO F","KENT","WA",98032,47.3754498050001,-122.275298167,55,"25020 45TH PL SOUTH NO F, KENT, WA, 98032","Match","Exact","25020 45TH PL S, KENT, WA, 98032",186629392,"L"
408056,"25020 73RD AVE E","MYAKKA CITY","FL",34251,27.4088595600001,-82.2854897399999,56,"25020 73RD AVE E, MYAKKA CITY, FL, 34251","Match","Exact","25020 73RD AVE E, MYAKKA CITY, FL, 34251",16284265,"R"
408057,"25020 DONALD","REDFORD","MI",48239,42.3935605500001,-83.2865607379999,57,"25020 DONALD, REDFORD, MI, 48239","Match","Exact","25020 DONALD, REDFORD, MI, 48239",95420357,"R"
408058,"25020 HWY 6","BENTON","CA",93514,NA,NA,58,"25020 HWY 6, BENTON, CA, 93514","No_Match",NA,NA,NA,NA
408059,"25020 SHORE PARKWAY","ONLEY","VA",23418,NA,NA,59,"25020 SHORE PARKWAY, ONLEY, VA, 23418","No_Match",NA,NA,NA,NA
408060,"25021 112TH DR NE","ARLINGTON","WA",98223,48.2233933620001,-122.078728966,60,"25021 112TH DR NE, ARLINGTON, WA, 98223","Match","Exact","25021 112TH DR NE, ARLINGTON, WA, 98223",187741635,"R"
408061,"25021 HADLOCK DR","NOVI","MI",48374,42.473060393,-83.550769593,61,"25021 HADLOCK DR, NOVI, MI, 48374","Match","Exact","25021 HADLOCK DR, NOVI, MI, 48374",627104816,"L"
408062,"25021 SAARINEN ROAD","WATTON","MI",49970,46.54867434,-88.605636728,62,"25021 SAARINEN ROAD, WATTON, MI, 49970","Match","Non_Exact","25021 W SAARINEN RD, WATTON, MI, 49970",647628776,"R"
408063,"25021 W HIDALGO DR","BUCKEYE","AZ",85326,33.394708429,-112.588357016,63,"25021 W HIDALGO DR, BUCKEYE, AZ, 85326","Match","Exact","25021 W HIDALGO DR, BUCKEYE, AZ, 85326",619896370,"R"
408064,"25021 WOODVALE DR","SOUTHFIELD","MI",48034,NA,NA,64,"25021 WOODVALE DR, SOUTHFIELD, MI, 48034","Tie",NA,NA,NA,NA
408065,"25022 PATHWAY DR","LAGUNA NIGUEL","CA",92677,33.5593586680001,-117.693340724,65,"25022 PATHWAY DR, LAGUNA NIGUEL, CA, 92677","Match","Exact","25022 PATHWAY DR, LAGUNA NIGUEL, CA, 92677",144104751,"L"
408066,"25023  72ND AVENUE E","GRAHAM","WA",98338,47.0294218660001,-122.335340946,66,"25023  72ND AVENUE E, GRAHAM, WA, 98338","Match","Exact","25023 72ND AVE E, GRAHAM, WA, 98338",184716106,"R"
408067,"25023 COPERTI LN","SPRING","TX",77386,30.093278001,-95.374570546,67,"25023 COPERTI LN, SPRING, TX, 77386","Match","Exact","25023 COPERTI LN, SPRING, TX, 77386",651229572,"L"
408068,"25024 KETTLE RIVER BLVD","WYOMING","MN",55092,45.3118490160001,-93.0141053579999,68,"25024 KETTLE RIVER BLVD, WYOMING, MN, 55092","Match","Exact","25024 KETTLE RIVER BLVD, WYOMING, MN, 55092",634597220,"R"
408069,"25025 I-45 NORTH STE 575","THE WOODLANDS","TX",77380,NA,NA,69,"25025 I-45 NORTH STE 575, THE WOODLANDS, TX, 77380","No_Match",NA,NA,NA,NA
408070,"25026 CTY RD 133","DEERWOOD","MN",56444,46.4444038980001,-93.872452843,70,"25026 CTY RD 133, DEERWOOD, MN, 56444","Match","Exact","25026 CO RD 133, DEERWOOD, MN, 56444",636236325,"R"
408071,"25026 LAS BRISAS ROAD","MURRIETA","CA",92562,NA,NA,71,"25026 LAS BRISAS ROAD, MURRIETA, CA, 92562","No_Match",NA,NA,NA,NA
408072,"25027 21ST AVE S","KENT","WA",98032,47.3766368180001,-122.306794318,72,"25027 21ST AVE S, KENT, WA, 98032","Match","Exact","25027 21ST AVE S, KENT, WA, 98032",239766011,"R"
408073,"25027 E CR 1580","ELMORE CITY","OK",73433,NA,NA,73,"25027 E CR 1580, ELMORE CITY, OK, 73433","No_Match",NA,NA,NA,NA
408074,"25027 FAIR OAKS","SOUTH BEND","IN",46614,41.6186462950001,-86.351118876,74,"25027 FAIR OAKS, SOUTH BEND, IN, 46614","Match","Non_Exact","25027 FAIR OAKS DR, SOUTH BEND, IN, 46614",8051452,"L"
408075,"25027 MOHR DRIVE","HAYWARD","CA",94545,37.6412968670001,-122.112788981,75,"25027 MOHR DRIVE, HAYWARD, CA, 94545","Match","Exact","25027 MOHR DR, HAYWARD, CA, 94545",125020663,"R"
408076,"25027 SE 40TH DR","ISSAQUAH","WA",98029,47.5720592660001,-122.007021406,76,"25027 SE 40TH DR, ISSAQUAH, WA, 98029","Match","Exact","25027 SE 40TH DR, ISSAQUAH, WA, 98029",186922967,"R"
408077,"25029 KAINZ CT","CUSTER","SD",57730,43.7790982830001,-103.577593074,77,"25029 KAINZ CT, CUSTER, SD, 57730","Match","Exact","25029 KAINZ CT, CUSTER, SD, 57730",193012207,"R"
408078,"2503 - 23RD ST","SANTA MONICA","CA",90405,NA,NA,78,"2503 - 23RD ST, SANTA MONICA, CA, 90405","No_Match",NA,NA,NA,NA
408079,"2503 107TH DR","LUBBOCK","TX",79423,33.49619613,-101.870905726,79,"2503 107TH DR, LUBBOCK, TX, 79423","Match","Exact","2503 107TH DR, LUBBOCK, TX, 79423",185274308,"R"
408080,"2503 10TH AVE SW","AUSTIN","MN",55912,43.657598025,-93.007525392,80,"2503 10TH AVE SW, AUSTIN, MN, 55912","Match","Exact","2503 10TH AVE SW, AUSTIN, MN, 55912",635827190,"L"
408081,"2503 113TH WAY SW","OLYMPIA","WA",98512,46.923108008,-122.935412402,81,"2503 113TH WAY SW, OLYMPIA, WA, 98512","Match","Exact","2503 113TH WAY SW, OLYMPIA, WA, 98512",180933730,"L"
408082,"2503 14ST NE APT 6","WASINGTON","DC",20018,NA,NA,82,"2503 14ST NE APT 6, WASINGTON, DC, 20018","No_Match",NA,NA,NA,NA
408083,"2503 157TH AVE SE","BELLEVUE","WA",98008,47.588242091,-122.131218717,83,"2503 157TH AVE SE, BELLEVUE, WA, 98008","Match","Exact","2503 157TH AVE SE, BELLEVUE, WA, 98008",186614650,"R"
408084,"2503 167TH ST E","TACOMA","WA",98445,47.105056453,-122.396016171,84,"2503 167TH ST E, TACOMA, WA, 98445","Match","Exact","2503 167TH ST E, TACOMA, WA, 98445",624062881,"L"
408085,"2503 19TH STREET S","HOMEWOOD","AL",35209,33.486976284,-86.789608739,85,"2503 19TH STREET S, HOMEWOOD, AL, 35209","Match","Exact","2503 19TH ST S, HOMEWOOD, AL, 35209",81577001,"L"
408086,"2503 29TH AVE W","WILLISTON","ND",58801,48.1675668510001,-103.663121164,86,"2503 29TH AVE W, WILLISTON, ND, 58801","Match","Exact","2503 29TH AVE W, WILLISTON, ND, 58801",650365101,"R"
408087,"2503 4TH AVENUE","CANYON","TX",79015,34.979833421,-101.915679582,87,"2503 4TH AVENUE, CANYON, TX, 79015","Match","Exact","2503 4TH AVE, CANYON, TX, 79015",639730558,"R"
408088,"2503 64TH STREET","LUBBOCK","TX",79423,33.5360015210001,-101.870685224,88,"2503 64TH STREET, LUBBOCK, TX, 79423","Match","Non_Exact","2503 64TH ST, LUBBOCK, TX, 79413",185297669,"L"
408089,"2503 AMBER ORCHARD COURT W 201","ODENTON","MD",21113,39.0631424310001,-76.721813213,89,"2503 AMBER ORCHARD COURT W 201, ODENTON, MD, 21113","Match","Exact","2503 AMBER ORCHARD CT W, ODENTON, MD, 21113",606939659,"L"
408090,"2503 AMBER ORCHARD COURT","ODENTON","MD",21113,39.0631424310001,-76.721813213,90,"2503 AMBER ORCHARD COURT, ODENTON, MD, 21113","Match","Non_Exact","2503 AMBER ORCHARD CT W, ODENTON, MD, 21113",606939659,"L"
408091,"2503 AMHURST","MAGNOLIA","AR",71753,33.291194537,-93.25422385,91,"2503 AMHURST, MAGNOLIA, AR, 71753","Match","Non_Exact","2503 AMHURST ST, MAGNOLIA, AR, 71753",10673895,"L"
408092,"2503 BACHELOR BUTTON BLVD","KILLEEN","TX",76549,31.110210103,-97.792676096,92,"2503 BACHELOR BUTTON BLVD, KILLEEN, TX, 76549","Match","Exact","2503 BACHELOR BUTTON BLVD, KILLEEN, TX, 76549",146233066,"L"
408093,"2503 BAY HARBOR DR","GALENA","OH",43021,40.2314810880001,-82.942332181,93,"2503 BAY HARBOR DR, GALENA, OH, 43021","Match","Exact","2503 BAY HARBOR DR, GALENA, OH, 43021",213001483,"L"
408094,"2503 BERKLEY STREET","TEMPLE HILLS","MD",20748,38.843805778,-76.9624478329999,94,"2503 BERKLEY STREET, TEMPLE HILLS, MD, 20748","Match","Exact","2503 BERKLEY ST, TEMPLE HILLS, MD, 20748",76312300,"R"
408095,"2503 BEVERLY COVE","LEANDER","TX",78641,30.549111383,-97.833059394,95,"2503 BEVERLY COVE, LEANDER, TX, 78641","Match","Exact","2503 BEVERLY COVE, LEANDER, TX, 78641",126438272,"R"
408096,"2503 BLANCO RD","SAN ANTONIO","TX",78212,29.4697871750001,-98.507874348,96,"2503 BLANCO RD, SAN ANTONIO, TX, 78212","Match","Exact","2503 BLANCO RD, SAN ANTONIO, TX, 78212",101522832,"L"
408097,"2503 BLUE JAY DR","NAZARETH","PA",18064,40.7398495360001,-75.3424865659999,97,"2503 BLUE JAY DR, NAZARETH, PA, 18064","Match","Exact","2503 BLUE JAY DR, NAZARETH, PA, 18064",617442713,"L"
408098,"2503 BOTANY AVENUE","SARASOTA","FL",34239,27.3103121730001,-82.5043087939999,98,"2503 BOTANY AVENUE, SARASOTA, FL, 34239","Match","Exact","2503 BOTANY AVE, SARASOTA, FL, 34239",16353167,"L"
408099,"2503 CABRILLO ST","SAN FRANCISCO","CA",94121,37.7743807620001,-122.485499142,99,"2503 CABRILLO ST, SAN FRANCISCO, CA, 94121","Match","Exact","2503 CABRILLO ST, SAN FRANCISCO, CA, 94121",192277329,"L"
408100,"2503 CANARY ISLES DRIVE","MELBOURNE","FL",32901,28.0712069040001,-80.632180034,100,"2503 CANARY ISLES DRIVE, MELBOURNE, FL, 32901","Match","Exact","2503 CANARY ISLES DR, MELBOURNE, FL, 32901",93952197,"L"
408101,"2503 CAPTAIN BLOOM ROAD","SUNBURY","PA",17801,40.849711314,-76.682065468,101,"2503 CAPTAIN BLOOM ROAD, SUNBURY, PA, 17801","Match","Exact","2503 CAPTAIN BLOOM RD, SUNBURY, PA, 17801",636456622,"L"
408102,"2503 CARMEN DRIVE","BELLEVILLE","KS",66935,39.816913727,-97.640917123,102,"2503 CARMEN DRIVE, BELLEVILLE, KS, 66935","Match","Exact","2503 CARMEN DR, BELLEVILLE, KS, 66935",148391597,"L"
408103,"2503 CARNEGIE LANE","REDONDO BEACH","CA",90278,33.87095793,-118.366188612,103,"2503 CARNEGIE LANE, REDONDO BEACH, CA, 90278","Match","Exact","2503 CARNEGIE LN, REDONDO BEACH, CA, 90278",141662945,"L"
408104,"2503 COLUMBUS AVENUE","N BELLMORE","NY",11710,40.7004643240001,-73.5426678649999,104,"2503 COLUMBUS AVENUE, N BELLMORE, NY, 11710","Match","Exact","2503 COLUMBUS AVE, N BELLMORE, NY, 11710",147635900,"L"
408105,"2503 COPPERLEAF CT","HIGH POINT","NC",27265,36.0012328500001,-79.979307836,105,"2503 COPPERLEAF CT, HIGH POINT, NC, 27265","Match","Exact","2503 COPPERLEAF CT, HIGH POINT, NC, 27265",624315122,"L"
408106,"2503 CORNER SHOALS DRIVE","DECATUR","GA",30034,33.7063697880001,-84.287436328,106,"2503 CORNER SHOALS DRIVE, DECATUR, GA, 30034","Match","Exact","2503 CORNER SHOALS DR, DECATUR, GA, 30034",23382014,"L"
408107,"2503 CRAVENRIDGE PLACE","GARNER","NC",27529,35.674242141,-78.620889021,107,"2503 CRAVENRIDGE PLACE, GARNER, NC, 27529","Match","Non_Exact","2503 CRAVENRIDGE RD, GARNER, NC, 27529",72539170,"R"
408108,"2503 CREST AVE","CHEVERLY","MD",20785,38.9202558860001,-76.9213438309999,108,"2503 CREST AVE, CHEVERLY, MD, 20785","Match","Exact","2503 CREST AVE, CHEVERLY, MD, 20785",76307576,"R"
408109,"2503 CULBREATH COVE CT","VALRICO","FL",33594,27.878069919,-82.244126825,109,"2503 CULBREATH COVE CT, VALRICO, FL, 33594","Match","Non_Exact","2503 CULBREATH COVE CT, VALRICO, FL, 33596",104601899,"L"
408110,"2503 DEARBORNE ROAD","NORTH CHARLESTON","SC",29406,32.9517399050001,-80.053812909,110,"2503 DEARBORNE ROAD, NORTH CHARLESTON, SC, 29406","Match","Exact","2503 DEARBORNE RD, N CHARLESTON, SC, 29406",630121080,"R"
408111,"2503 DEARBORNE","NORTH CHARLESTON","SC",29406,32.9517399050001,-80.053812909,111,"2503 DEARBORNE, NORTH CHARLESTON, SC, 29406","Match","Non_Exact","2503 DEARBORNE RD, N CHARLESTON, SC, 29406",630121080,"R"
408112,"2503 DEER VALLEY DR","SHAWNEE","OK",74804,35.349388784,-96.8912770599999,112,"2503 DEER VALLEY DR, SHAWNEE, OK, 74804","Match","Exact","2503 DEER VALLEY DR, SHAWNEE, OK, 74804",623812718,"L"
408113,"2503 DEL PRADO BLVD S SUITE 410","CAPE CORAL","FL",33904,26.606126212,-81.941178281,113,"2503 DEL PRADO BLVD S SUITE 410, CAPE CORAL, FL, 33904","Match","Non_Exact","2503 DEL PRADO BLVD S, CAPE CORAL, FL, 33904",647945671,"L"
408114,"2503 DYRESON RD","MCFARLAND","WI",53558,42.979419282,-89.287889568,114,"2503 DYRESON RD, MCFARLAND, WI, 53558","Match","Exact","2503 DYRESON RD, MCFARLAND, WI, 53558",49546626,"L"
408115,"2503 E GRACE ST","RICHMOND","VA",23223,37.53070595,-77.419536756,115,"2503 E GRACE ST, RICHMOND, VA, 23223","Match","Exact","2503 E GRACE ST, RICHMOND, VA, 23223",201541290,"R"
408116,"2503 EAST IMPALA AVENUE","MESA","AS",85204,NA,NA,116,"2503 EAST IMPALA AVENUE, MESA, AS, 85204","No_Match",NA,NA,NA,NA
408117,"2503 EAST NARROWLEAF","GILBERT","AZ",85298,33.2508805530001,-111.731975151,117,"2503 EAST NARROWLEAF, GILBERT, AZ, 85298","Match","Non_Exact","2503 E NARROWLEAF DR, GILBERT, AZ, 85298",638560482,"L"
408118,"2503 ECHO WOOD PLACE","ROUND ROCK","TX",78681,30.5342390170001,-97.72308113,118,"2503 ECHO WOOD PLACE, ROUND ROCK, TX, 78681","Match","Exact","2503 ECHO WOOD PL, ROUND ROCK, TX, 78681",126474923,"L"
408119,"2503 EISENHOWER AVENUE","AMES","IA",50010,42.046396438,-93.6338643139999,119,"2503 EISENHOWER AVENUE, AMES, IA, 50010","Match","Exact","2503 EISENHOWER AVE, AMES, IA, 50010",65946207,"L"
408120,"2503 FAIRFAX RD  APT 3A","GREENSBORO","NC",27407,36.0350461200001,-79.875013639,120,"2503 FAIRFAX RD  APT 3A, GREENSBORO, NC, 27407","Match","Exact","2503 FAIRFAX RD, GREENSBORO, NC, 27407",131043708,"L"
408121,"2503 GERRY COURT","CLINTON","MD",20735,38.71130021,-76.964478747,121,"2503 GERRY COURT, CLINTON, MD, 20735","Match","Exact","2503 GERRY CT, CLINTON, MD, 20735",76316387,"R"
408122,"2503 GLEN EDEN DR","RALEIGH","NC",27512,35.8343809630001,-78.700558422,122,"2503 GLEN EDEN DR, RALEIGH, NC, 27512","Match","Non_Exact","2503 GLEN EDEN DR, RALEIGH, NC, 27612",634095696,"L"
408123,"2503 GREEN POND ROAD","JACKSON","SC",29831,33.3654684430001,-81.759337966,123,"2503 GREEN POND ROAD, JACKSON, SC, 29831","Match","Exact","2503 GREEN POND RD, JACKSON, SC, 29831",636582698,"R"
408124,"2503 GUNSMOKE STREET","SAN ANTONIO","TX",78227,29.4054208470001,-98.64565423,124,"2503 GUNSMOKE STREET, SAN ANTONIO, TX, 78227","Match","Exact","2503 GUNSMOKE ST, SAN ANTONIO, TX, 78227",101507028,"R"
408125,"2503 HAMILTON CROSSINGS DR","CHARLTOTE","NC",28214,35.3384046050001,-80.9576768009999,125,"2503 HAMILTON CROSSINGS DR, CHARLTOTE, NC, 28214","Match","Non_Exact","2503 HAMILTON CROSSINGS DR, CHARLOTTE, NC, 28214",614169767,"L"
408126,"2503 HAWKINS STREET","WESTVILLE","FL",32464,30.778427078,-85.852585474,126,"2503 HAWKINS STREET, WESTVILLE, FL, 32464","Match","Exact","2503 HAWKINS ST, WESTVILLE, FL, 32464",32655401,"R"
408127,"2503 HAYNOR HEIGHTS DR","CLIFTON PARK","NY",12065,42.841177686,-73.7413462169999,127,"2503 HAYNOR HEIGHTS DR, CLIFTON PARK, NY, 12065","Match","Non_Exact","2503 HAYNER HEIGHTS DR, CLIFTON PARK, NY, 12065",642841836,"R"
408128,"2503 HENDERSON  AVENUE","SILVER SPRING","MD",20902,39.050724245,-77.051809686,128,"2503 HENDERSON  AVENUE, SILVER SPRING, MD, 20902","Match","Exact","2503 HENDERSON AVE, SILVER SPRING, MD, 20902",637180683,"R"
408129,"2503 HENDERSON AVE","SILVER SPRING","MD",20902,39.050724245,-77.051809686,129,"2503 HENDERSON AVE, SILVER SPRING, MD, 20902","Match","Exact","2503 HENDERSON AVE, SILVER SPRING, MD, 20902",637180683,"R"
408130,"2503 HENDERSON AVENUE","SILVER SPRING","MD",20902,39.050724245,-77.051809686,130,"2503 HENDERSON AVENUE, SILVER SPRING, MD, 20902","Match","Exact","2503 HENDERSON AVE, SILVER SPRING, MD, 20902",637180683,"R"
408131,"2503 HIGH COURT","NAMPA","ID",83651,43.578787075,-116.6114521,131,"2503 HIGH COURT, NAMPA, ID, 83651","Match","Exact","2503 HIGH CT, NAMPA, ID, 83651",122789334,"L"
408132,"2503 HIGHWAY 72 WEST","GREENWOOD","SC",29649,34.190356814,-82.231885749,132,"2503 HIGHWAY 72 WEST, GREENWOOD, SC, 29649","Match","Exact","2503 HWY 72 W, GREENWOOD, SC, 29649",50819019,"L"
408133,"2503 HINKLESS FERRY ROAD","RICHMOND","TX",77406,29.642523512,-95.751182608,133,"2503 HINKLESS FERRY ROAD, RICHMOND, TX, 77406","Match","Non_Exact","2503 HINKLE'S FERRY, RICHMOND, TX, 77406",627293771,"L"
408134,"2503 HOLLY LAUREL MANOR","CONROE","TX",77304,30.3327591720001,-95.502411786,134,"2503 HOLLY LAUREL MANOR, CONROE, TX, 77304","Match","Exact","2503 HOLLY LAUREL MANOR, CONROE, TX, 77304",650702690,"L"
408135,"2503 HUFFINE MILL RD","MC LEANSVILLE","NC",27301,36.1151453850001,-79.686583647,135,"2503 HUFFINE MILL RD, MC LEANSVILLE, NC, 27301","Match","Exact","2503 HUFFINE MILL RD, MC LEANSVILLE, NC, 27301",131091917,"R"
408136,"2503 HUNTERS GLEN DRIVE","PLAINSBORO","NJ",8536,40.3313968410001,-74.567595044,136,"2503 HUNTERS GLEN DRIVE, PLAINSBORO, NJ, 8536","Match","Exact","2503 HUNTERS GLEN DR, PLAINSBORO, NJ, 08536",651261888,"R"
408137,"2503 HURSTBORNE VILLAGE DR STE 1200","LOUISVILLE","KY",40291,NA,NA,137,"2503 HURSTBORNE VILLAGE DR STE 1200, LOUISVILLE, KY, 40291","No_Match",NA,NA,NA,NA
408138,"2503 HUTCHINS LANE","EL CAMPO","TX",77437,29.205830672,-96.290173429,138,"2503 HUTCHINS LANE, EL CAMPO, TX, 77437","Match","Exact","2503 HUTCHINS LN, EL CAMPO, TX, 77437",42490366,"L"
408139,"2503 JACKSON KELLER RD","SAN ANTONIO","TX",78230,29.518934782,-98.531975963,139,"2503 JACKSON KELLER RD, SAN ANTONIO, TX, 78230","Match","Exact","2503 JACKSON KELLER RD, SAN ANTONIO, TX, 78230",101493290,"R"
408140,"2503 JACKSON","KANSAS CITY","MO",64127,39.0799302950001,-94.533905696,140,"2503 JACKSON, KANSAS CITY, MO, 64127","Match","Non_Exact","2503 JACKSON AVE, KANSAS CITY, MO, 64127",91451142,"L"
408141,"2503 JAMES MAURY DR","HERNDON","VA",20171,38.947437904,-77.414701056,141,"2503 JAMES MAURY DR, HERNDON, VA, 20171","Match","Exact","2503 JAMES MAURY DR, HERNDON, VA, 20171",618554987,"L"
408142,"2503 JOHN ST","GREENVILLE","TX",75402,33.088102899,-96.106955773,142,"2503 JOHN ST, GREENVILLE, TX, 75402","Match","Exact","2503 JOHN ST, GREENVILLE, TX, 75402",42845246,"L"
408143,"2503 KENORA PARKWAY","EAU CLAIRE","WI",54703,44.7963779840001,-91.550189313,143,"2503 KENORA PARKWAY, EAU CLAIRE, WI, 54703","Match","Exact","2503 KENORA PKWY, EAU CLAIRE, WI, 54703",606960348,"R"
408144,"2503 KIMBERLY DR","TOLEDO","OH",43615,41.667741864,-83.678339181,144,"2503 KIMBERLY DR, TOLEDO, OH, 43615","Match","Exact","2503 KIMBERLY DR, TOLEDO, OH, 43615",33929454,"L"
408145,"2503 LAKE DR","WALDORF","MD",20601,38.6452781940001,-76.896207752,145,"2503 LAKE DR, WALDORF, MD, 20601","Match","Exact","2503 LAKE DR, WALDORF, MD, 20601",25399535,"R"
408146,"2503 LARCHMONT COURT","ATLANTA","GA",30909,33.4789327870001,-82.095860979,146,"2503 LARCHMONT COURT, ATLANTA, GA, 30909","Match","Non_Exact","2503 LARCHMONT CT, AUGUSTA, GA, 30909",618717446,"R"
408147,"2503 LEGEND COURT","CEDAR HILL","TX",75104,32.556985658,-97.001977631,147,"2503 LEGEND COURT, CEDAR HILL, TX, 75104","Match","Exact","2503 LEGEND CT, CEDAR HILL, TX, 75104",616803222,"R"
408148,"2503 LEGEND CT","CEDAR HILL","TX",75104,32.556985658,-97.001977631,148,"2503 LEGEND CT, CEDAR HILL, TX, 75104","Match","Exact","2503 LEGEND CT, CEDAR HILL, TX, 75104",616803222,"R"
408149,"2503 LENAPE TERRACE","MANASQUAN","NJ",8736,NA,NA,149,"2503 LENAPE TERRACE, MANASQUAN, NJ, 8736","No_Match",NA,NA,NA,NA
408150,"2503 LINDEN AVE","IOWA FALLS","IA",50126,42.5185103200001,-93.2886240989999,150,"2503 LINDEN AVE, IOWA FALLS, IA, 50126","Match","Exact","2503 LINDEN AVE, IOWA FALLS, IA, 50126",77434607,"R"
408151,"2503 LITTLE DRY FORK ROAD","WHITESBURG","KY",41858,37.164755633,-82.837201056,151,"2503 LITTLE DRY FORK ROAD, WHITESBURG, KY, 41858","Match","Exact","2503 LITTLE DRY FORK RD, WHITESBURG, KY, 41858",88055891,"R"
408152,"2503 LITTLE FLOCK DRIVE","ROGERS","AR",72756,36.3681244730001,-94.155278271,152,"2503 LITTLE FLOCK DRIVE, ROGERS, AR, 72756","Match","Exact","2503 LITTLE FLOCK DR, ROGERS, AR, 72756",640550725,"R"
408153,"2503 LOVETT LANE","CEDAR PARK","TX",78613,30.4836881030001,-97.85522783,153,"2503 LOVETT LANE, CEDAR PARK, TX, 78613","Match","Exact","2503 LOVETT LN, CEDAR PARK, TX, 78613",617952192,"L"
408154,"2503 LYOLA DR","DALLAS","TX",75241,32.669546021,-96.780438864,154,"2503 LYOLA DR, DALLAS, TX, 75241","Match","Non_Exact","2503 LYOLA ST, DALLAS, TX, 75241",102952563,"L"
408155,"2503 MARBLE FALLS","SPRING","TX",77373,30.052722552,-95.396885049,155,"2503 MARBLE FALLS, SPRING, TX, 77373","Match","Non_Exact","2503 MARBLE FALLS DR, SPRING, TX, 77373",96042235,"L"
408156,"2503 MARJORIE LN","JHUNTSVILLE","AL",35803,34.6125045950001,-86.578507832,156,"2503 MARJORIE LN, JHUNTSVILLE, AL, 35803","Match","Non_Exact","2503 MARJORIE LN SW, HUNTSVILLE, AL, 35803",625257972,"L"
408157,"2503 MARLIN DR","KILLEEN","TX",76543,31.1274065760001,-97.6861492579999,157,"2503 MARLIN DR, KILLEEN, TX, 76543","Match","Exact","2503 MARLIN DR, KILLEEN, TX, 76543",146164369,"L"
408158,"2503 MCCUE ROAD APT 31","HOUSTON","TX",77056,29.741852614,-95.4642057309999,158,"2503 MCCUE ROAD APT 31, HOUSTON, TX, 77056","Match","Exact","2503 MCCUE RD, HOUSTON, TX, 77056",96584624,"L"
408159,"2503 MCVEARY COURT","SILVER SPRING","MD",20906,39.1029567140001,-77.0521993139999,159,"2503 MCVEARY COURT, SILVER SPRING, MD, 20906","Match","Exact","2503 MCVEARY CT, SILVER SPRING, MD, 20906",62108767,"L"
408160,"2503 MESA RD","WAYCROSS","GA",31501,31.251291914,-82.3708147569999,160,"2503 MESA RD, WAYCROSS, GA, 31501","Match","Exact","2503 MESA RD, WAYCROSS, GA, 31501",5234192,"L"
408161,"2503 MONICA LANE","BLOOMINGTON","IL",61705,40.4484736800001,-89.03337205,161,"2503 MONICA LANE, BLOOMINGTON, IL, 61705","Match","Exact","2503 MONICA LN, BLOOMINGTON, IL, 61705",653199485,"R"
408162,"2503 MOSSBERG COURT","HUMBLE","TX",77396,29.967163554,-95.229616469,162,"2503 MOSSBERG COURT, HUMBLE, TX, 77396","Match","Exact","2503 MOSSBERG CT, HUMBLE, TX, 77396",624860642,"L"
408163,"2503 MT ROYAL BLVD","GLENSHAW","PA",15116,40.537967151,-79.9721449259999,163,"2503 MT ROYAL BLVD, GLENSHAW, PA, 15116","Match","Exact","2503 MOUNT ROYAL BLVD, GLENSHAW, PA, 15116",642115174,"L"
408164,"2503 N 1220 W","CLINTON","UT",84015,41.150109285,-112.049491106,164,"2503 N 1220 W, CLINTON, UT, 84015","Match","Exact","2503 N 1220 W, CLINTON, UT, 84015",155327864,"L"
408165,"2503 N 37TH ST","MILWAUKEE","WI",53210,43.064430374,-87.959856714,165,"2503 N 37TH ST, MILWAUKEE, WI, 53210","Match","Exact","2503 N 37TH ST, MILWAUKEE, WI, 53210",77738010,"L"
408166,"2503 N 41ST STREET","MILWAUKEE","WI",53210,43.0644299860001,-87.96459215,166,"2503 N 41ST STREET, MILWAUKEE, WI, 53210","Match","Exact","2503 N 41ST ST, MILWAUKEE, WI, 53210",77732402,"L"
408167,"2503 N AVENIDA TABICA","GREEN VALLEY","AZ",85614,31.9067602440001,-110.980149887,167,"2503 N AVENIDA TABICA, GREEN VALLEY, AZ, 85614","Match","Exact","2503 N AVE TABICA, GREEN VALLEY, AZ, 85614",618217478,"L"
408168,"2503 NE 163RD CT","VANCOUVER","WA",98684,45.640732239,-122.505314577,168,"2503 NE 163RD CT, VANCOUVER, WA, 98684","Match","Exact","2503 NE 163RD CT, VANCOUVER, WA, 98684",158368762,"R"
408169,"2503 NEWFOUND HARBOR DRIVE","MERRITT ISLAND","FL",32952,28.314608025,-80.6596660549999,169,"2503 NEWFOUND HARBOR DRIVE, MERRITT ISLAND, FL, 32952","Match","Exact","2503 NEWFOUND HARBOR DR, MERRITT ISLAND, FL, 32952",93898958,"R"
408170,"2503 NINETEENTH AVE","KINGSBURG","CA",93631,36.5253823730001,-119.546740943,170,"2503 NINETEENTH AVE, KINGSBURG, CA, 93631","Match","Exact","2503 19TH AVE, KINGSBURG, CA, 93631",197618232,"L"
408171,"2503 NOBLE CREEK DR NW","ATLANTA","GA",30327,33.81542324,-84.425572054,171,"2503 NOBLE CREEK DR NW, ATLANTA, GA, 30327","Match","Exact","2503 NOBLE CREEK DR NW, ATLANTA, GA, 30327",642888454,"R"
408172,"2503 NORTH BEARD STREET","SHAWNEE","OK",74804,35.359436041,-96.9254685239999,172,"2503 NORTH BEARD STREET, SHAWNEE, OK, 74804","Match","Non_Exact","2503 N BEARD AVE, SHAWNEE, OK, 74804",607097839,"R"
408173,"2503 NOTTINGHAM DR","SAVANNAH","GA",31406,31.9998245140001,-81.0690995429999,173,"2503 NOTTINGHAM DR, SAVANNAH, GA, 31406","Match","Exact","2503 NOTTINGHAM DR, SAVANNAH, GA, 31406",6233728,"R"
408174,"2503 NW WINDWOOD DR","LEE'S SUMMIT","MO",64081,38.927677282,-94.428694762,174,"2503 NW WINDWOOD DR, LEE'S SUMMIT, MO, 64081","Match","Non_Exact","2503 NW WINDWOOD DR, LEES SUMMIT, MO, 64081",91503508,"L"
408175,"2503 OLD STEINE ROAD   1505","CHARLOTTE","NC",28269,35.3234488210001,-80.785153408,175,"2503 OLD STEINE ROAD   1505, CHARLOTTE, NC, 28269","Match","Non_Exact","2503 OLD STEINE RD, CHARLOTTE, NC, 28269",70539522,"L"
408176,"2503 PARK HAVEN","SUGAR LAND","TX",77478,29.6570484320001,-95.618468153,176,"2503 PARK HAVEN, SUGAR LAND, TX, 77478","Match","Non_Exact","2503 PARKHAVEN DR, SUGAR LAND, TX, 77478",78343489,"R"
408177,"2503 PARKWAY DR","AUGUSTA","GA",30904,33.4597032500001,-82.029197703,177,"2503 PARKWAY DR, AUGUSTA, GA, 30904","Match","Exact","2503 PARKWAY DR, AUGUSTA, GA, 30904",55636132,"R"
408178,"2503 PILGRIMS POINT","WEBSTER","TX",77598,29.5302383390001,-95.159808777,178,"2503 PILGRIMS POINT, WEBSTER, TX, 77598","Match","Non_Exact","2503 PILGRIMS POINT DR, WEBSTER, TX, 77598",96115091,"L"
408179,"2503 PLEASANT VALLEY DRIVE","SAINT CHARLES","MO",63303,38.7668824350001,-90.5207405739999,179,"2503 PLEASANT VALLEY DRIVE, SAINT CHARLES, MO, 63303","Match","Exact","2503 PLEASANT VALLEY DR, SAINT CHARLES, MO, 63303",100024684,"R"
408180,"2503 RIDGEMONT DR","BIRMINGHAM","AL",35244,33.376244365,-86.781731594,180,"2503 RIDGEMONT DR, BIRMINGHAM, AL, 35244","Match","Exact","2503 RIDGEMONT DR, BIRMINGHAM, AL, 35244",641896825,"R"
408181,"2503 RIVER RIDGE DRIVE","ORLANDO","FL",32825,28.5167839370001,-81.244466799,181,"2503 RIVER RIDGE DRIVE, ORLANDO, FL, 32825","Match","Exact","2503 RIVER RIDGE DR, ORLANDO, FL, 32825",94345942,"R"
408182,"2503 RIVERTON DRIVE","CONYERS","GA",30013,33.6040685350001,-84.007691698,182,"2503 RIVERTON DRIVE, CONYERS, GA, 30013","Match","Non_Exact","2503 RIVERTON DR SE, CONYERS, GA, 30013",619876387,"L"
408183,"2503 S BOXWOOD LN","SPOKANE","WA",99223,47.6315509560001,-117.371727201,183,"2503 S BOXWOOD LN, SPOKANE, WA, 99223","Match","Exact","2503 S BOXWOOD LN, SPOKANE, WA, 99223",605672855,"L"
408184,"2503 S CALUMET AVE","CHICAGO","IL",60616,41.846190714,-87.618866253,184,"2503 S CALUMET AVE, CHICAGO, IL, 60616","Match","Exact","2503 S CALUMET AVE, CHICAGO, IL, 60616",642123570,"L"
408185,"2503 S LINDEN ROAD","FLINT","MI",48532,42.9910793720001,-83.772403904,185,"2503 S LINDEN ROAD, FLINT, MI, 48532","Match","Exact","2503 LINDEN RD, FLINT, MI, 48532",652801284,"L"
408186,"2503 SE 16TH PL","CAPE CORAL","FL",33904,26.6062437000001,-81.9394184989999,186,"2503 SE 16TH PL, CAPE CORAL, FL, 33904","Match","Exact","2503 SE 16TH PL, CAPE CORAL, FL, 33904",118014598,"L"
408187,"2503 SENATOR AVE","DISTRICT HEIGHTS","MD",20747,38.855594803,-76.882184619,187,"2503 SENATOR AVE, DISTRICT HEIGHTS, MD, 20747","Match","Exact","2503 SENATOR AVE, DISTRICT HEIGHTS, MD, 20747",628124881,"R"
408188,"2503 SHERIDAN AVE APT 3","MIAMI BEACH","FL",33140,NA,NA,188,"2503 SHERIDAN AVE APT 3, MIAMI BEACH, FL, 33140","No_Match",NA,NA,NA,NA
408189,"2503 SMITH AVENUE","MARIETTA","GA",30064,33.891854462,-84.628443349,189,"2503 SMITH AVENUE, MARIETTA, GA, 30064","Match","Non_Exact","2503 SMITH AVE SW, MARIETTA, GA, 30064",17173513,"L"
408190,"2503 SOUTH BRYAN CIRCLE","EAST POINT","GA",30344,33.6884318400001,-84.4704984109999,190,"2503 SOUTH BRYAN CIRCLE, EAST POINT, GA, 30344","Match","Exact","2503 S BRYAN CIR, EAST POINT, GA, 30344",17347127,"R"
408191,"2503 SOUTH ST / APT 27","LEESBURG","FL",34748,28.8030466110001,-81.904811689,191,"2503 SOUTH ST / APT 27, LEESBURG, FL, 34748","Match","Exact","2503 SOUTH ST, LEESBURG, FL, 34748",617505821,"L"
408192,"2503 SPRINGFIELD AVE","LAWRENCEVILLE","IL",62439,38.734265104,-87.697046422,192,"2503 SPRINGFIELD AVE, LAWRENCEVILLE, IL, 62439","Match","Exact","2503 SPRINGFIELD AVE, LAWRENCEVILLE, IL, 62439",29662675,"L"
408193,"2503 SR 2023","CLIFFORD TWP","PA",18421,NA,NA,193,"2503 SR 2023, CLIFFORD TWP, PA, 18421","No_Match",NA,NA,NA,NA
408194,"2503 STATE STREET","SANTA BARBARA","CA",93105,34.435558583,-119.721147068,194,"2503 STATE STREET, SANTA BARBARA, CA, 93105","Match","Exact","2503 STATE ST, SANTA BARBARA, CA, 93105",108604114,"L"
408195,"2503 SUNBURST DR APT A","MIDLAND","TX",79707,32.0057983730001,-102.153115107,195,"2503 SUNBURST DR APT A, MIDLAND, TX, 79707","Match","Exact","2503 SUNBURST DR, MIDLAND, TX, 79707",139593750,"L"
408196,"2503 SWEETGUM LANE","AMARILLO","TX",79124,35.236910923,-101.907784479,196,"2503 SWEETGUM LANE, AMARILLO, TX, 79124","Match","Exact","2503 SWEETGUM LN, AMARILLO, TX, 79124",627939279,"L"
408197,"2503 THOMAS E HOWARD DR","SHREVEPORT","LA",71107,32.5541908800001,-93.811799831,197,"2503 THOMAS E HOWARD DR, SHREVEPORT, LA, 71107","Match","Exact","2503 THOMAS E HOWARD DR, SHREVEPORT, LA, 71107",57430495,"L"
408198,"2503 TISDALE DRIVE","THOMPSONS STATION","TN",37179,35.778328721,-86.887023171,198,"2503 TISDALE DRIVE, THOMPSONS STATION, TN, 37179","Match","Exact","2503 TISDALE DR, THOMPSONS STATION, TN, 37179",647242940,"R"
408199,"2503 TOLERIN","IRVING","TX",75062,NA,NA,199,"2503 TOLERIN, IRVING, TX, 75062","No_Match",NA,NA,NA,NA
408200,"2503 TREERIDGE PARKWAY","ALPHARETTA","GA",30022,33.992276917,-84.2777287929999,200,"2503 TREERIDGE PARKWAY, ALPHARETTA, GA, 30022","Match","Exact","2503 TREERIDGE PKWY, ALPHARETTA, GA, 30022",644988901,"R"
408201,"2503 W 40TH STREET","DAVENPORT","IA",52806,41.5614451450001,-90.6133493889999,201,"2503 W 40TH STREET, DAVENPORT, IA, 52806","Match","Exact","2503 W 40TH ST, DAVENPORT, IA, 52806",122705737,"L"
408202,"2503 W ALLEGHENEY AVE","PHILADELPHIA","PA",19132,40.003910547,-75.170817531,202,"2503 W ALLEGHENEY AVE, PHILADELPHIA, PA, 19132","Match","Non_Exact","2503 W ALLEGHENY AVE, PHILADELPHIA, PA, 19132",131402279,"R"
408203,"2503 W EASTWOOD AVE APT 3","CHICAGO","IL",60625,41.9657155730001,-87.691477635,203,"2503 W EASTWOOD AVE APT 3, CHICAGO, IL, 60625","Match","Non_Exact","2503 W EASTWOOD AVE, CHICAGO, IL, 60625",605151354,"L"
408204,"2503 W GRAY ST","TAMPA","FL",33609,27.9484662580001,-82.4864832069999,204,"2503 W GRAY ST, TAMPA, FL, 33609","Match","Exact","2503 W GRAY ST, TAMPA, FL, 33609",104526595,"R"
408205,"2503 WALDEN GLEN CIRCLE","CINCINNATI","OH",45231,39.2772919770001,-84.566842639,205,"2503 WALDEN GLEN CIRCLE, CINCINNATI, OH, 45231","Match","Exact","2503 WALDEN GLEN CIR, CINCINNATI, OH, 45231",103955910,"L"
408206,"2503 WEST 98TH STREET","BLOOMINGTON","MN",55431,NA,NA,206,"2503 WEST 98TH STREET, BLOOMINGTON, MN, 55431","No_Match",NA,NA,NA,NA
408207,"2503 WEST EASTWOOD AVENUE ORBIT 3","CHICAGO","IL",60625,41.965715593,-87.691475162,207,"2503 WEST EASTWOOD AVENUE ORBIT 3, CHICAGO, IL, 60625","Match","Exact","2503 W EASTWOOD AVE, CHICAGO, IL, 60625",605151354,"L"
408208,"2503 WHISPERING OAK DRIVE","DE PERE","WI",54115,44.403927621,-88.173262607,208,"2503 WHISPERING OAK DRIVE, DE PERE, WI, 54115","Match","Exact","2503 WHISPERING OAK DR, DE PERE, WI, 54115",148118716,"L"
408209,"2503 WHITNEY HILL RD","CHARLOTTE","NC",28226,35.123829292,-80.800918342,209,"2503 WHITNEY HILL RD, CHARLOTTE, NC, 28226","Match","Exact","2503 WHITNEY HILL RD, CHARLOTTE, NC, 28226",70533894,"L"
408210,"2503 WILLARD DRIVE","CHARLOTTESVILLE","VA",22903,38.0194354550001,-78.5106015379999,210,"2503 WILLARD DRIVE, CHARLOTTESVILLE, VA, 22903","Match","Exact","2503 WILLARD DR, CHARLOTTESVILLE, VA, 22903",83369253,"R"
408211,"2503 WINDING CREEK DR","FRESNO","TX",77545,29.519950018,-95.491918093,211,"2503 WINDING CREEK DR, FRESNO, TX, 77545","Match","Exact","2503 WINDING CREEK DR, FRESNO, TX, 77545",635221145,"R"
408212,"2503 WOODBINE","GLADEWATER","TX",75647,32.555309595,-94.968244757,212,"2503 WOODBINE, GLADEWATER, TX, 75647","Match","Non_Exact","2503 WOODBINE DR, GLADEWATER, TX, 75647",147590563,"R"
408213,"2503 WOODSTREAM BLVD","SUGAR LAND","TX",77479,29.579047836,-95.618757043,213,"2503 WOODSTREAM BLVD, SUGAR LAND, TX, 77479","Match","Exact","2503 WOODSTREAM BLVD, SUGAR LAND, TX, 77479",78268659,"R"
408214,"2503-C AMBASSADOR COURT","HIGH POINT","NC",27265,35.998018175,-79.990583495,214,"2503-C AMBASSADOR COURT, HIGH POINT, NC, 27265","Match","Exact","2503 AMBASSADOR CT, HIGH POINT, NC, 27265",131078391,"L"
408215,"25030 SE 43RD WAY","ISSAQUAH","WA",98029,47.568056916,-122.004869061,215,"25030 SE 43RD WAY, ISSAQUAH, WA, 98029","Match","Exact","25030 SE 43RD WAY, ISSAQUAH, WA, 98029",186930146,"L"
408216,"25031 103RD ST","PIERZ","MN",56364,45.9116832760001,-94.1345897049999,216,"25031 103RD ST, PIERZ, MN, 56364","Match","Exact","25031 103RD ST, PIERZ, MN, 56364",167395301,"R"
408217,"25031 CHAMBLY DR","SOUTHFIELD","MI",48034,42.5023850900001,-83.290654789,217,"25031 CHAMBLY DR, SOUTHFIELD, MI, 48034","Match","Non_Exact","25031 CHAMBLEY DR, SOUTHFIELD, MI, 48034",69755597,"R"
408218,"25031 COLUMBUS AVE APT 209","BEDFORD","OH",44146,41.4021380120001,-81.501332351,218,"25031 COLUMBUS AVE APT 209, BEDFORD, OH, 44146","Match","Non_Exact","25031 COLUMBUS ST, BEDFORD, OH, 44146",61135885,"L"
408219,"25031 COLUMBUS ROAD 220","BEDFORD HEIGHTS","OH",44146,41.4021380120001,-81.501332351,219,"25031 COLUMBUS ROAD 220, BEDFORD HEIGHTS, OH, 44146","Match","Non_Exact","25031 COLUMBUS ST, BEDFORD HEIGHTS, OH, 44146",61135885,"L"
408220,"25031 PINEWATER COVE LANE","BONITA SPRINGS","FL",34134,26.3740425330001,-81.81378525,220,"25031 PINEWATER COVE LANE, BONITA SPRINGS, FL, 34134","Match","Exact","25031 PINEWATER COVE LN, BONITA SPGS, FL, 34134",118169415,"L"
408221,"25031 RIDGE ROAD","CHAMBERLAIN","SD",57325,43.7561707940001,-99.3872677689999,221,"25031 RIDGE ROAD, CHAMBERLAIN, SD, 57325","Match","Exact","25031 RIDGE RD, CHAMBERLAIN, SD, 57325",612674407,"L"
408222,"25031 W DOVE TRAIL","BUCKEYE","AZ",85326,33.396144367,-112.588560695,222,"25031 W DOVE TRAIL, BUCKEYE, AZ, 85326","Match","Exact","25031 W DOVE TRL, BUCKEYE, AZ, 85326",243946710,"R"
408223,"25032 S MEADOWRANCH RD","CLAREMORE","OK",74019,36.2489818770001,-95.579993713,223,"25032 S MEADOWRANCH RD, CLAREMORE, OK, 74019","Match","Non_Exact","25032 S MEADOW RANCH RD, CLAREMORE, OK, 74019",648112483,"R"
408224,"25032 SW QUARRYVILLE DR","WILSONVILLE","OR",97070,NA,NA,224,"25032 SW QUARRYVILLE DR, WILSONVILLE, OR, 97070","No_Match",NA,NA,NA,NA
408225,"25034 MORRIS PARK COURT","SPRING","TX",77389,30.1218228120001,-95.527634742,225,"25034 MORRIS PARK COURT, SPRING, TX, 77389","Match","Exact","25034 MORRIS PARK CT, SPRING, TX, 77389",642133812,"R"
408226,"25035 FIVE MILE RD APT A","REDFORD","MI",48239,42.3997799160001,-83.287107046,226,"25035 FIVE MILE RD APT A, REDFORD, MI, 48239","Match","Exact","25035 5 MILE RD, REDFORD, MI, 48239",95420330,"L"
408227,"25036 ROUGE RIVER DR","DEARBORN HEIGHTS","MI",48127,42.345610359,-83.283840678,227,"25036 ROUGE RIVER DR, DEARBORN HEIGHTS, MI, 48127","Match","Exact","25036 ROUGE RIVER DR, DEARBORN HEIGHTS, MI, 48127",95430953,"R"
408228,"25036 RUE VERSAILLES","OAK PARK","MI",48237,NA,NA,228,"25036 RUE VERSAILLES, OAK PARK, MI, 48237","No_Match",NA,NA,NA,NA
408229,"25038 PLUM STREET","BELL CITY","MO",63735,37.020975955,-89.821825446,229,"25038 PLUM STREET, BELL CITY, MO, 63735","Match","Exact","25038 PLUM ST, BELL CITY, MO, 63735",35382095,"R"
408230,"25039 205TH ST","TARKIO","MO",64491,40.4301818120001,-95.386859746,230,"25039 205TH ST, TARKIO, MO, 64491","Match","Exact","25039 205 ST, TARKIO, MO, 64491",601638661,"L"
408231,"25039 FERN ST","ROSEVILLE","MI",48066,42.4805121970001,-82.959672074,231,"25039 FERN ST, ROSEVILLE, MI, 48066","Match","Exact","25039 FERN ST, ROSEVILLE, MI, 48066",110678615,"L"
408232,"2504  FAIRBANKS ST","ANCHORAGE","AK",99503,61.197625271,-149.872511463,232,"2504  FAIRBANKS ST, ANCHORAGE, AK, 99503","Match","Exact","2504 FAIRBANKS ST, ANCHORAGE, AK, 99503",190797838,"R"
408233,"2504 10TH AVE N APT C201","LAKE WORTH","FL",33461,26.6282594240001,-80.080463835,233,"2504 10TH AVE N APT C201, LAKE WORTH, FL, 33461","Match","Exact","2504 10TH AVE N, LAKE WORTH, FL, 33461",115274232,"L"
408234,"2504 164TH AVE NE","BELLEVUE","WA",98008,47.632463509,-122.121627562,234,"2504 164TH AVE NE, BELLEVUE, WA, 98008","Match","Exact","2504 164TH AVE NE, BELLEVUE, WA, 98008",186611630,"R"
408235,"2504 24TH ST","NORTH CHICAGO","IL",60064,42.3158150240001,-87.862525137,235,"2504 24TH ST, NORTH CHICAGO, IL, 60064","Match","Exact","2504 24TH ST, NORTH CHICAGO, IL, 60064",119642203,"R"
408236,"2504 36TH STREET","DES MOINES","IA",50310,41.6169171330001,-93.6658115119999,236,"2504 36TH STREET, DES MOINES, IA, 50310","Match","Exact","2504 36TH ST, DES MOINES, IA, 50310",65780244,"L"
408237,"2504 3RD STREET","SANTA MONICA","CA",90405,34.003963549,-118.48303922,237,"2504 3RD STREET, SANTA MONICA, CA, 90405","Match","Exact","2504 3RD ST, SANTA MONICA, CA, 90405",141559882,"R"
408238,"2504 45TH AVENUE","MERIDIAN","MS",39307,32.3840246720001,-88.723143941,238,"2504 45TH AVENUE, MERIDIAN, MS, 39307","Match","Exact","2504 45TH AVE, MERIDIAN, MS, 39307",189533,"R"
408239,"2504 9TH AVENUE","KEARNEY","NE",68849,40.7005032440001,-99.093971037,239,"2504 9TH AVENUE, KEARNEY, NE, 68849","Match","Non_Exact","2504 9TH AVE, KEARNEY, NE, 68845",137858684,"L"
408240,"2504 A ST","SAN DIEGO","CA",92102,32.718950283,-117.140106956,240,"2504 A ST, SAN DIEGO, CA, 92102","Match","Exact","2504 A ST, SAN DIEGO, CA, 92102",612889617,"L"
408241,"2504 ALLEN CIRCLE","WOODLAND","CA",95776,38.6543396530001,-121.735099883,241,"2504 ALLEN CIRCLE, WOODLAND, CA, 95776","Match","Exact","2504 ALLEN CIR, WOODLAND, CA, 95776",629872178,"R"
408242,"2504 ALTA VISTA CT","GRANBURY","TX",76049,32.487786849,-97.7655679699999,242,"2504 ALTA VISTA CT, GRANBURY, TX, 76049","Match","Exact","2504 ALTA VISTA CT, GRANBURY, TX, 76049",158811837,"L"
408243,"2504 AMELIA ROAD","CLAYTON","NC",27520,NA,NA,243,"2504 AMELIA ROAD, CLAYTON, NC, 27520","No_Match",NA,NA,NA,NA
408244,"2504 AVENUE D","WILSON","KS",67490,NA,NA,244,"2504 AVENUE D, WILSON, KS, 67490","No_Match",NA,NA,NA,NA
408245,"2504 BANEBERRY LN APT 638","INDIANAPOLIS","IN",46268,39.908301582,-86.204687983,245,"2504 BANEBERRY LN APT 638, INDIANAPOLIS, IN, 46268","Match","Exact","2504 BANEBERRY LN, INDIANAPOLIS, IN, 46268",108057825,"R"
408246,"2504 BATTLE CREEK VILLAGE DRIVE","JONESBORO","GA",30236,33.5543842970001,-84.351950787,246,"2504 BATTLE CREEK VILLAGE DRIVE, JONESBORO, GA, 30236","Match","Exact","2504 BATTLE CREEK VILLAGE DR, JONESBORO, GA, 30236",645819928,"L"
408247,"2504 BAY HARBOR DR","RALEIGH","NC",27604,35.814761343,-78.539202646,247,"2504 BAY HARBOR DR, RALEIGH, NC, 27604","Match","Exact","2504 BAY HARBOR DR, RALEIGH, NC, 27604",639842068,"R"
408248,"2504 BAYFRONT DRIVE","PEARLAND","TX",77584,29.565852798,-95.410458009,248,"2504 BAYFRONT DRIVE, PEARLAND, TX, 77584","Match","Exact","2504 BAYFRONT DR, PEARLAND, TX, 77584",627643452,"R"
408249,"2504 BAYKAL DRIVE","KISSIMMEE","FL",34746,28.2269424400001,-81.44940654,249,"2504 BAYKAL DRIVE, KISSIMMEE, FL, 34746","Match","Exact","2504 BAYKAL DR, KISSIMMEE, FL, 34746",176694421,"R"
408250,"2504 BIG PINEY GROVE RD","CLINTON","NC",28328,34.9175854260001,-78.421076267,250,"2504 BIG PINEY GROVE RD, CLINTON, NC, 28328","Match","Exact","2504 BIG PINEY GROVE RD, CLINTON, NC, 28328",14264608,"L"
408251,"2504 BLOSSOM TRAIL","MANSFIELD","TX",76063,32.5999979750001,-97.1357607319999,251,"2504 BLOSSOM TRAIL, MANSFIELD, TX, 76063","Match","Exact","2504 BLOSSOM TRL, MANSFIELD, TX, 76063",636192763,"L"
408252,"2504 BLUE CREEK ROAD","BILLINGS","MT",59101,NA,NA,252,"2504 BLUE CREEK ROAD, BILLINGS, MT, 59101","No_Match",NA,NA,NA,NA
408253,"2504 BRENTWOOD RD","BEACHWOOD","OH",44122,41.491096295,-81.5136160769999,253,"2504 BRENTWOOD RD, BEACHWOOD, OH, 44122","Match","Exact","2504 BRENTWOOD RD, BEACHWOOD, OH, 44122",61126069,"R"
408254,"2504 BROOKSIDE DR","LANCASTER","PA",17601,40.064025014,-76.375538154,254,"2504 BROOKSIDE DR, LANCASTER, PA, 17601","Match","Exact","2504 BROOKSIDE DR, LANCASTER, PA, 17601",179681764,"R"
408255,"2504 CAMINO ALFREDO","SANTA FE","NM",87505,NA,NA,255,"2504 CAMINO ALFREDO, SANTA FE, NM, 87505","No_Match",NA,NA,NA,NA
408256,"2504 CANDLELIGHT DRIVE","CHESAPEAKE","VA",23325,NA,NA,256,"2504 CANDLELIGHT DRIVE, CHESAPEAKE, VA, 23325","No_Match",NA,NA,NA,NA
408257,"2504 CENTRAL PARK BLVD APT 1011","BEDFORD","TX",76022,32.83289094,-97.126634571,257,"2504 CENTRAL PARK BLVD APT 1011, BEDFORD, TX, 76022","Match","Exact","2504 CENTRAL PARK BLVD, BEDFORD, TX, 76022",102142568,"L"
408258,"2504 CIMARRON DRIVE","LAWRENCE","KS",66046,38.938376928,-95.218020069,258,"2504 CIMARRON DRIVE, LAWRENCE, KS, 66046","Match","Exact","2504 CIMARRON DR, LAWRENCE, KS, 66046",17685933,"L"
408259,"2504 CIRCLE DRIVE","SANTA CLARA","UT",84765,37.1324537880001,-113.647554092,259,"2504 CIRCLE DRIVE, SANTA CLARA, UT, 84765","Match","Exact","2504 CIRCLE DR, SANTA CLARA, UT, 84765",166171067,"L"
408260,"2504 CLAY ST","SAN FRANCISCO","CA",94038,37.790693576,-122.434391041,260,"2504 CLAY ST, SAN FRANCISCO, CA, 94038","Match","Non_Exact","2504 CLAY ST, SAN FRANCISCO, CA, 94115",192279740,"R"
408261,"2504 COLE CIRCLE","BOSSIER CITY","LA",71111,32.577216455,-93.637436107,261,"2504 COLE CIRCLE, BOSSIER CITY, LA, 71111","Match","Exact","2504 COLE CIR, BOSSIER CITY, LA, 71111",645517551,"R"
408262,"2504 COLLIER DRIVE","MCKINNEY","TX",75071,33.207170998,-96.646255547,262,"2504 COLLIER DRIVE, MCKINNEY, TX, 75071","Match","Exact","2504 COLLIER DR, MCKINNEY, TX, 75071",619906982,"L"
408263,"2504 CORINTH DRIVE","GREENSBORO","NC",27406,36.0297465360001,-79.7614022239999,263,"2504 CORINTH DRIVE, GREENSBORO, NC, 27406","Match","Exact","2504 CORINTH DR, GREENSBORO, NC, 27406",131098915,"R"
408264,"2504 CORNSTALK DRIVE","FINKSBURG","MD",21048,39.5329789630001,-76.90508498,264,"2504 CORNSTALK DRIVE, FINKSBURG, MD, 21048","Match","Non_Exact","2504 CORNSTALK RD, FINKSBURG, MD, 21048",61753743,"L"
408265,"2504 COULTER LANE","OAKTON","VA",22124,38.915689716,-77.3327777819999,265,"2504 COULTER LANE, OAKTON, VA, 22124","Match","Exact","2504 COULTER LN, OAKTON, VA, 22124",636744577,"R"
408266,"2504 COULTER LN","OAKTON","VA",22124,38.915689716,-77.3327777819999,266,"2504 COULTER LN, OAKTON, VA, 22124","Match","Exact","2504 COULTER LN, OAKTON, VA, 22124",636744577,"R"
408267,"2504 CRESTMOOR COURT","ARLINGTON","TX",76016,32.7019046610001,-97.1721475159999,267,"2504 CRESTMOOR COURT, ARLINGTON, TX, 76016","Match","Exact","2504 CRESTMOOR CT, ARLINGTON, TX, 76016",101905934,"R"
408268,"2504 CRYSTAL FALLS DRIVE","MESQUITE","TX",75181,32.74140751,-96.542157789,268,"2504 CRYSTAL FALLS DRIVE, MESQUITE, TX, 75181","Match","Exact","2504 CRYSTAL FALLS DR, MESQUITE, TX, 75181",103166313,"L"
408269,"2504 CULBREATH CONE CT","VALRICO","FL",33596,NA,NA,269,"2504 CULBREATH CONE CT, VALRICO, FL, 33596","No_Match",NA,NA,NA,NA
408270,"2504 CULBREATH COVE COURT","VALRICO","FL",33596,27.8780583600001,-82.244090676,270,"2504 CULBREATH COVE COURT, VALRICO, FL, 33596","Match","Exact","2504 CULBREATH COVE CT, VALRICO, FL, 33596",104601899,"R"
408271,"2504 CULBREATH COVE CT","VALRICO","FL",33596,27.8780583600001,-82.244090676,271,"2504 CULBREATH COVE CT, VALRICO, FL, 33596","Match","Exact","2504 CULBREATH COVE CT, VALRICO, FL, 33596",104601899,"R"
408272,"2504 DAYTONA CT","FREINDSWOOD","TX",77546,29.481573269,-95.217060346,272,"2504 DAYTONA CT, FREINDSWOOD, TX, 77546","Match","Non_Exact","2504 DAYTONA CT, FRIENDSWOOD, TX, 77546",636959058,"L"
408273,"2504 DRESDEN ROAD","ZANESVILLE","OH",43701,39.9687165170001,-82.0046069109999,273,"2504 DRESDEN ROAD, ZANESVILLE, OH, 43701","Match","Exact","2504 DRESDEN RD, ZANESVILLE, OH, 43701",45596314,"L"
408274,"2504 DUNES DRIVE","PFLUGERVILLE","TX",78660,30.468761424,-97.581618374,274,"2504 DUNES DRIVE, PFLUGERVILLE, TX, 78660","Match","Exact","2504 DUNES DR, PFLUGERVILLE, TX, 78660",63986687,"L"
408275,"2504 DYER COVE","LEXINGTON","KY",40509,38.016620781,-84.3886377379999,275,"2504 DYER COVE, LEXINGTON, KY, 40509","Match","Exact","2504 DYER COVE, LEXINGTON, KY, 40509",612529496,"R"
408276,"2504 E FIESTA DRIVE","CASA GRANDE","AZ",85194,32.8667569150001,-111.679121941,276,"2504 E FIESTA DRIVE, CASA GRANDE, AZ, 85194","Match","Exact","2504 E FIESTA DR, CASA GRANDE, AZ, 85194",631188882,"R"
408277,"2504 E PIERCE ST","WAKEFIELD","MI",49968,NA,NA,277,"2504 E PIERCE ST, WAKEFIELD, MI, 49968","Tie",NA,NA,NA,NA
408278,"2504 E WALNUT GROVE ROAD","SEVIERVILLE","TN",37876,35.8871299740001,-83.459806381,278,"2504 E WALNUT GROVE ROAD, SEVIERVILLE, TN, 37876","Match","Exact","2504 E WALNUT GROVE RD, SEVIERVILLE, TN, 37876",107537923,"L"
408279,"2504 E WHISPER TRL","SIOUX FALLS","SD",57108,43.495525238,-96.6929032199999,279,"2504 E WHISPER TRL, SIOUX FALLS, SD, 57108","Match","Exact","2504 E WHISPER TRL, SIOUX FALLS, SD, 57108",632553105,"L"
408280,"2504 EARLY COURT","VIRGINIA BEACH","VA",23454,36.858086046,-76.0597014149999,280,"2504 EARLY COURT, VIRGINIA BEACH, VA, 23454","Match","Exact","2504 EARLY CT, VIRGINIA BCH, VA, 23454",122268987,"R"
408281,"2504 ELAND DOWNE","PHOENIXVILLE","PA",19460,40.1276566330001,-75.542905417,281,"2504 ELAND DOWNE, PHOENIXVILLE, PA, 19460","Match","Exact","2504 ELAND DOWNE, PHOENIXVILLE, PA, 19460",179554622,"R"
408282,"2504 ELLAMONT STREET","BALTIMORE","MD",21216,39.3155091610001,-76.67132406,282,"2504 ELLAMONT STREET, BALTIMORE, MD, 21216","Match","Non_Exact","2504 N ELLAMONT ST, BALTIMORE, MD, 21216",206413887,"L"
408283,"2504 ELLEN LANE","SANTA MARIA","CA",93455,34.914907369,-120.421051754,283,"2504 ELLEN LANE, SANTA MARIA, CA, 93455","Match","Exact","2504 ELLEN LN, SANTA MARIA, CA, 93455",108671216,"R"
408284,"2504 ENGLEWOOD RD","OCEAN SPRINGS","MS",39564,30.4061172310001,-88.7990015679999,284,"2504 ENGLEWOOD RD, OCEAN SPRINGS, MS, 39564","Match","Exact","2504 ENGLEWOOD RD, OCEAN SPRINGS, MS, 39564",89258647,"R"
408285,"2504 ENID COURT","BALDWIN","NY",11510,40.6493440890001,-73.607410875,285,"2504 ENID COURT, BALDWIN, NY, 11510","Match","Exact","2504 ENID CT, BALDWIN, NY, 11510",147637789,"L"
408286,"2504 EUCLID HTS BLVD","CLEVELAND HTS","OH",44106,41.504394102,-81.590748847,286,"2504 EUCLID HTS BLVD, CLEVELAND HTS, OH, 44106","Match","Exact","2504 EUCLID HEIGHTS BLVD, CLEVELAND HEIGHTS, OH, 44106",61122457,"R"
408287,"2504 FAIR OAKS BLVD APT 77","SACRAMENTO","CA",95825,38.5742533110001,-121.403847665,287,"2504 FAIR OAKS BLVD APT 77, SACRAMENTO, CA, 95825","Match","Exact","2504 FAIR OAKS BLVD, SACRAMENTO, CA, 95825",648184813,"R"
408288,"2504 FAIRBANKS ST","ANCHORAGE","AK",99503,61.197625271,-149.872511463,288,"2504 FAIRBANKS ST, ANCHORAGE, AK, 99503","Match","Exact","2504 FAIRBANKS ST, ANCHORAGE, AK, 99503",190797838,"R"
408289,"2504 FAIRLAWN STREET","TEMPLE HILLS","MD",20748,38.838456825,-76.956773647,289,"2504 FAIRLAWN STREET, TEMPLE HILLS, MD, 20748","Match","Exact","2504 FAIRLAWN ST, TEMPLE HILLS, MD, 20748",76312391,"L"
408290,"2504 FALCONS WAY STREET","SAINT CHARLES","MO",63303,38.7773472550001,-90.521287366,290,"2504 FALCONS WAY STREET, SAINT CHARLES, MO, 63303","Match","Exact","2504 FALCONS WAY, SAINT CHARLES, MO, 63303",605555913,"L"
408291,"2504 FERNWOOD DRIVE","VIENNA","VA",22181,38.8968537260001,-77.294187671,291,"2504 FERNWOOD DRIVE, VIENNA, VA, 22181","Match","Exact","2504 FERNWOOD DR, VIENNA, VA, 22181",75968093,"R"
408292,"2504 FLOYD AVE APT 2","RICHMOND","VA",23220,37.552589481,-77.471532393,292,"2504 FLOYD AVE APT 2, RICHMOND, VA, 23220","Match","Exact","2504 FLOYD AVE, RICHMOND, VA, 23220",201536033,"R"
408293,"2504 FRONTERA RD","MCALLEN","TX",78504,26.2825999830001,-98.2356606,293,"2504 FRONTERA RD, MCALLEN, TX, 78504","Match","Exact","2504 FRONTERA RD, MCALLEN, TX, 78504",647557469,"R"
408294,"2504 GARFIELD AVENUE S","MINNEAPOLIS","MN",55405,44.9571077780001,-93.286758793,294,"2504 GARFIELD AVENUE S, MINNEAPOLIS, MN, 55405","Match","Non_Exact","2504 GARFIELD AVE, MINNEAPOLIS, MN, 55405",43624764,"R"
408295,"2504 GARRETT POINT ROAD","LAGRANGE","KY",40031,38.4694030910001,-85.4072070719999,295,"2504 GARRETT POINT ROAD, LAGRANGE, KY, 40031","Match","Non_Exact","2504 GARRET PT RD, LAGRANGE, KY, 40031",614163832,"R"
408296,"2504 GLEN ST","GLEN COVE","NY",11542,40.859435063,-73.620763333,296,"2504 GLEN ST, GLEN COVE, NY, 11542","Match","Exact","2504 GLEN ST, GLEN COVE, NY, 11542",647170976,"R"
408297,"2504 GLENCLIFF DRIVE","PLANO","TX",75075,33.0137980550001,-96.741355975,297,"2504 GLENCLIFF DRIVE, PLANO, TX, 75075","Match","Exact","2504 GLENCLIFF DR, PLANO, TX, 75075",123488016,"L"
408298,"2504 GRAND AVENUE","BALDWIN","NY",11788,40.649163586,-73.612895091,298,"2504 GRAND AVENUE, BALDWIN, NY, 11788","Match","Non_Exact","2504 GRAND AVE, BALDWIN, NY, 11510",147637529,"R"
408299,"2504 GRAYSON LOOP","VILLA RICA","GA",30180,NA,NA,299,"2504 GRAYSON LOOP, VILLA RICA, GA, 30180","No_Match",NA,NA,NA,NA
408300,"2504 GREENWILLOW RD","ORLANDO","FL",32825,28.52223989,-81.254368588,300,"2504 GREENWILLOW RD, ORLANDO, FL, 32825","Match","Non_Exact","2504 GREENWILLOW DR, ORLANDO, FL, 32825",94396991,"L"
408301,"2504 GREENWOOD DR","LINDENWOLD","NJ",8021,39.811060841,-75.01823595,301,"2504 GREENWOOD DR, LINDENWOLD, NJ, 8021","Match","Exact","2504 GREENWOOD DR, LINDENWOLD, NJ, 08021",134420256,"L"
408302,"2504 HARLEM BOULEVARD","ROCKFORD","IL",61103,42.2961531010001,-89.064132859,302,"2504 HARLEM BOULEVARD, ROCKFORD, IL, 61103","Match","Exact","2504 HARLEM BLVD, ROCKFORD, IL, 61103",49256162,"L"
408303,"2504 HARRIS RD SW","ALBUQUERQUE","NM",87105,35.0155988860001,-106.705644783,303,"2504 HARRIS RD SW, ALBUQUERQUE, NM, 87105","Match","Exact","2504 HARRIS RD SW, ALBUQUERQUE, NM, 87105",206700714,"L"
408304,"2504 HICKORY DR","COLLEGE STATION","TX",77840,30.613478833,-96.301894789,304,"2504 HICKORY DR, COLLEGE STATION, TX, 77840","Match","Exact","2504 HICKORY DR, COLLEGE STATION, TX, 77840",640635271,"L"
408305,"2504 HIGHWAY 952","JACKSON","LA",70748,30.8697207480001,-91.202085106,305,"2504 HIGHWAY 952, JACKSON, LA, 70748","Match","Exact","2504 HWY 952, JACKSON, LA, 70748",639599868,"L"
408306,"2504 HUNTERS RUN","PLANO","TX",75025,33.0979071310001,-96.7405739709999,306,"2504 HUNTERS RUN, PLANO, TX, 75025","Match","Non_Exact","2504 HUNTERS RUN DR, PLANO, TX, 75025",123547320,"R"
408307,"2504 HUNTING BOW DR","HOPE MILLS","NC",28348,34.9922455930001,-78.916030545,307,"2504 HUNTING BOW DR, HOPE MILLS, NC, 28348","Match","Exact","2504 HUNTING BOW DR, HOPE MILLS, NC, 28348",646705510,"R"
408308,"2504 JACKSON STREET","PHILADELPHIA","PA",19145,39.9255194020001,-75.1883335749999,308,"2504 JACKSON STREET, PHILADELPHIA, PA, 19145","Match","Exact","2504 JACKSON ST, PHILADELPHIA, PA, 19145",131450595,"L"
408309,"2504 JOSEPH DR","COPPERAS COVE","TX",76522,31.159009675,-97.922960895,309,"2504 JOSEPH DR, COPPERAS COVE, TX, 76522","Match","Exact","2504 JOSEPH DR, COPPERAS COVE, TX, 76522",633817321,"R"
408310,"2504 KENSINGTON","ST MARYS","OH",45885,40.5543885020001,-84.420135777,310,"2504 KENSINGTON, ST MARYS, OH, 45885","Match","Non_Exact","2504 KENSINGTON DR, SAINT MARYS, OH, 45885",209204433,"R"
408311,"2504 KUTZTOWN RD","PENNSBURG","PA",18073,40.3767789240001,-75.5185435229999,311,"2504 KUTZTOWN RD, PENNSBURG, PA, 18073","Match","Exact","2504 KUTZTOWN RD, PENNSBURG, PA, 18073",135059875,"R"
408312,"2504 LARKIN RD","LEXINGTON","KY",40503,38.00012522,-84.51569454,312,"2504 LARKIN RD, LEXINGTON, KY, 40503","Match","Exact","2504 LARKIN RD, LEXINGTON, KY, 40503",31923157,"L"
408313,"2504 LASSEN BAY  PLACE","CHARLOTTE","NC",28215,35.2743853320001,-80.723348782,313,"2504 LASSEN BAY  PLACE, CHARLOTTE, NC, 28215","Match","Exact","2504 LASSEN BAY PL, CHARLOTTE, NC, 28215",70548016,"L"
408314,"2504 LAUDERDALE COURT","ORLANDO","FL",32805,28.516031925,-81.418663725,314,"2504 LAUDERDALE COURT, ORLANDO, FL, 32805","Match","Exact","2504 LAUDERDALE CT, ORLANDO, FL, 32805",94274553,"L"
408315,"2504 LAWRENCE","TOLEDO","OH",43620,NA,NA,315,"2504 LAWRENCE, TOLEDO, OH, 43620","No_Match",NA,NA,NA,NA
408316,"2504 LINDBERGH BLVE","SPRINGFIELD","IL",62704,39.751604333,-89.69939835,316,"2504 LINDBERGH BLVE, SPRINGFIELD, IL, 62704","Match","Non_Exact","2504 LINDBERGH BLVD, SPRINGFIELD, IL, 62704",97344422,"R"
408317,"2504 LORNE COURT","MARIETTA","GA",30064,33.9091998920001,-84.619617266,317,"2504 LORNE COURT, MARIETTA, GA, 30064","Match","Exact","2504 LORNE CT, MARIETTA, GA, 30064",17196298,"R"
408318,"2504 LOWELL LN","OFALLON","MO",63368,38.774373702,-90.70819083,318,"2504 LOWELL LN, OFALLON, MO, 63368","Match","Non_Exact","2504 LOWELL LN, O FALLON, MO, 63368",100025959,"L"
408319,"2504 MANGO TREE DRIVE","EDGEWATER","FL",32141,28.955436164,-80.9015774059999,319,"2504 MANGO TREE DRIVE, EDGEWATER, FL, 32141","Match","Exact","2504 MANGO TREE DR, EDGEWATER, FL, 32141",94533765,"R"
408320,"2504 MANOR RD APT 307","AUSTIN","TX",78722,30.2848734990001,-97.715577621,320,"2504 MANOR RD APT 307, AUSTIN, TX, 78722","Match","Exact","2504 MANOR RD, AUSTIN, TX, 78722",63946292,"L"
408321,"2504 MARSHALL DRIVE","VALPARAISO","IN",46385,41.464280741,-87.090474641,321,"2504 MARSHALL DRIVE, VALPARAISO, IN, 46385","Match","Exact","2504 MARSHALL DR, VALPARAISO, IN, 46385",119914095,"L"
408322,"2504 MCKINLEY AVE","WEST LAWN","PA",19609,40.3194287680001,-75.998388427,322,"2504 MCKINLEY AVE, WEST LAWN, PA, 19609","Match","Exact","2504 MCKINLEY AVE, WEST LAWN, PA, 19609",80438556,"R"
408323,"2504 MILAGRO RIDGE CT NE","RIO RANCHO","NM",87124,35.2628256310001,-106.686677214,323,"2504 MILAGRO RIDGE CT NE, RIO RANCHO, NM, 87124","Match","Non_Exact","2504 MILAGRO RIDGE CT, RIO RANCHO, NM, 87124",611362047,"L"
408324,"2504 MUSIC ST","NEW ORLEANS","LA",70117,29.9832128240001,-90.052136048,324,"2504 MUSIC ST, NEW ORLEANS, LA, 70117","Match","Exact","2504 MUSIC ST, NEW ORLEANS, LA, 70117",191715706,"L"
408325,"2504 N J ST STE 7","MCALLEN","TX",78501,26.223102667,-98.2055272269999,325,"2504 N J ST STE 7, MCALLEN, TX, 78501","Match","Non_Exact","2504 N J ST, MCALLEN, TX, 78501",635270295,"R"
408326,"2504 NAPERTON DR","PLANO","TX",75025,33.09405271,-96.739885913,326,"2504 NAPERTON DR, PLANO, TX, 75025","Match","Exact","2504 NAPERTON DR, PLANO, TX, 75025",123547309,"R"
408327,"2504 NE 52ND STREET","KANSAS CITY","MO",64118,39.188599154,-94.550123018,327,"2504 NE 52ND STREET, KANSAS CITY, MO, 64118","Match","Exact","2504 NE 52ND ST, KANSAS CITY, MO, 64118",629846723,"L"
408328,"2504 NE 61ST AVE","PORTLAND","OR",97213,45.5410915190001,-122.600479702,328,"2504 NE 61ST AVE, PORTLAND, OR, 97213","Match","Exact","2504 NE 61ST AVE, PORTLAND, OR, 97213",157511502,"R"
408329,"2504 NOGALES DRIVE","FORT WORTH","TX",76108,32.736956546,-97.509335861,329,"2504 NOGALES DRIVE, FORT WORTH, TX, 76108","Match","Exact","2504 NOGALES DR, FORT WORTH, TX, 76108",102157521,"L"
408330,"2504 NORTH MADISON STREET","WILMINGTON","DE",19802,39.758586639,-75.540097451,330,"2504 NORTH MADISON STREET, WILMINGTON, DE, 19802","Match","Exact","2504 N MADISON ST, WILMINGTON, DE, 19802",187258339,"R"
408331,"2504 NORTH MYRTLE AVENUE","DAVENPORT","IA",52804,41.5449059950001,-90.5887946029999,331,"2504 NORTH MYRTLE AVENUE, DAVENPORT, IA, 52804","Match","Non_Exact","2504 N MYRTLE ST, DAVENPORT, IA, 52804",122706986,"L"
408332,"2504 NW 143RD ST","VANCOUVER","WA",98685,45.72488085,-122.696842538,332,"2504 NW 143RD ST, VANCOUVER, WA, 98685","Match","Exact","2504 NW 143RD ST, VANCOUVER, WA, 98685",648996228,"L"
408333,"2504 OAKES AVE","ANACORTES","WA",98221,48.512709816,-122.636291507,333,"2504 OAKES AVE, ANACORTES, WA, 98221","Match","Exact","2504 OAKES AVE, ANACORTES, WA, 98221",183641105,"L"
408334,"2504 OAKMAN BLVD","DETROIT","MI",48228,42.3910349550001,-83.138394478,334,"2504 OAKMAN BLVD, DETROIT, MI, 48228","Match","Non_Exact","2504 OAKMAN BLVD, DETROIT, MI, 48238",95733603,"L"
408335,"2504 OAKMAN","DETROIT","MI",48238,42.3910349550001,-83.138394478,335,"2504 OAKMAN, DETROIT, MI, 48238","Match","Non_Exact","2504 OAKMAN BLVD, DETROIT, MI, 48238",95733603,"L"
408336,"2504 PALISADE DR","FORT WAYNE","IN",46806,41.0353404640001,-85.1037192059999,336,"2504 PALISADE DR, FORT WAYNE, IN, 46806","Match","Exact","2504 PALISADE DR, FORT WAYNE, IN, 46806",6383842,"R"
408337,"2504 PARKINSON RD","LAKESIDE","AZ",85929,34.162945027,-109.966556187,337,"2504 PARKINSON RD, LAKESIDE, AZ, 85929","Match","Exact","2504 PARKINSON RD, LAKESIDE, AZ, 85929",651635910,"L"
408338,"2504 Parkview","Fremont","NE",68025,41.4390346380001,-96.465253538,338,"2504 Parkview, Fremont, NE, 68025","Match","Non_Exact","2504 PARKVIEW DR, FREMONT, NE, 68025",136314694,"L"
408339,"2504 PARKVIEW","FREMONT","NE",68025,41.4390346380001,-96.465253538,339,"2504 PARKVIEW, FREMONT, NE, 68025","Match","Non_Exact","2504 PARKVIEW DR, FREMONT, NE, 68025",136314694,"L"
408340,"2504 PARKVIEW","PEARLAND","TX",77581,29.5479374780001,-95.260345697,340,"2504 PARKVIEW, PEARLAND, TX, 77581","Match","Non_Exact","2504 PARKVIEW DR, PEARLAND, TX, 77581",116569458,"R"
408341,"2504 PICKETT BRANCH RD","CARY","NC",27519,35.8567165270001,-78.8966200419999,341,"2504 PICKETT BRANCH RD, CARY, NC, 27519","Match","Exact","2504 PICKETT BRANCH RD, CARY, NC, 27519",612829156,"L"
408342,"2504 PIKE ST","PARKERSBURG","WV",26101,39.2310148660001,-81.541238661,342,"2504 PIKE ST, PARKERSBURG, WV, 26101","Match","Exact","2504 PIKE ST, PARKERSBURG, WV, 26101",90894723,"R"
408343,"2504 PINE RIDGE COURT","PORTAGE","WI",53901,43.558484348,-89.458658895,343,"2504 PINE RIDGE COURT, PORTAGE, WI, 53901","Match","Exact","2504 PINE RIDGE CT, PORTAGE, WI, 53901",73337600,"L"
408344,"2504 PORTLAND STREET","GRAPEVILLE","PA",15634,40.3243337440001,-79.6076731209999,344,"2504 PORTLAND STREET, GRAPEVILLE, PA, 15634","Match","Exact","2504 PORTLAND ST, GRAPEVILLE, PA, 15634",52973189,"L"
408345,"2504 PRESTON ST","COLUMBIA","SC",29205,34.0013120180001,-81.008481968,345,"2504 PRESTON ST, COLUMBIA, SC, 29205","Match","Exact","2504 PRESTON ST, COLUMBIA, SC, 29205",71822074,"R"
408346,"2504 PRINCETON AVENUE","BIRMINGHAM","AL",35211,33.481388533,-86.875930024,346,"2504 PRINCETON AVENUE, BIRMINGHAM, AL, 35211","Match","Non_Exact","2504 PRINCETON AVE SW, BIRMINGHAM, AL, 35211",81716809,"R"
408347,"2504 PRISCELLA DR","FORT WORTH","TX",76131,32.854373663,-97.3261214249999,347,"2504 PRISCELLA DR, FORT WORTH, TX, 76131","Match","Exact","2504 PRISCELLA DR, FORT WORTH, TX, 76131",638654835,"R"
408348,"2504 RAEFORD ROAD SUITE 207","FAYETTEVILLE","NC",28305,35.046294689,-78.91781958,348,"2504 RAEFORD ROAD SUITE 207, FAYETTEVILLE, NC, 28305","Match","Exact","2504 RAEFORD RD, FAYETTEVILLE, NC, 28305",64199908,"R"
408349,"2504 RANGELINE RD","RHINELANDER","WI",54501,NA,NA,349,"2504 RANGELINE RD, RHINELANDER, WI, 54501","No_Match",NA,NA,NA,NA
408350,"2504 RED BIRCH DR","CHARLOTTE","NC",28262,35.3393891530001,-80.753675551,350,"2504 RED BIRCH DR, CHARLOTTE, NC, 28262","Match","Exact","2504 RED BIRCH DR, CHARLOTTE, NC, 28262",70627841,"L"
408351,"2504 RIDGECREST RD","MARRERO","LA",70072,29.861335813,-90.104299167,351,"2504 RIDGECREST RD, MARRERO, LA, 70072","Match","Exact","2504 RIDGECREST RD, MARRERO, LA, 70072",93526868,"R"
408352,"2504 RIDGEWOOD WAY","PHENIX CITY","AL",36870,32.485218413,-85.047207841,352,"2504 RIDGEWOOD WAY, PHENIX CITY, AL, 36870","Match","Exact","2504 RIDGEWOOD WAY, PHENIX CITY, AL, 36870",642417367,"L"
408353,"2504 RIO GRANDE DR","GRAND PRAIRIE","TX",75052,32.6845480870001,-97.040848838,353,"2504 RIO GRANDE DR, GRAND PRAIRIE, TX, 75052","Match","Exact","2504 RIO GRANDE DR, GRAND PRAIRIE, TX, 75052",101962332,"R"
408354,"2504 RIO GRANDE DRIVE","GRAND PRAIRIE","TX",75052,32.6845480870001,-97.040848838,354,"2504 RIO GRANDE DRIVE, GRAND PRAIRIE, TX, 75052","Match","Exact","2504 RIO GRANDE DR, GRAND PRAIRIE, TX, 75052",101962332,"R"
408355,"2504 RIO GRANDE","GRAND PRAIRIE","TX",75052,32.6845480870001,-97.040848838,355,"2504 RIO GRANDE, GRAND PRAIRIE, TX, 75052","Match","Non_Exact","2504 RIO GRANDE DR, GRAND PRAIRIE, TX, 75052",101962332,"R"
408356,"2504 ROCKHILL RD","MCKINNEY","TX",75070,33.195030339,-96.6471194599999,356,"2504 ROCKHILL RD, MCKINNEY, TX, 75070","Match","Non_Exact","2504 ROCKHILL RD, MCKINNEY, TX, 75072",123513635,"R"
408357,"2504 S 78TH AVE","YAKIMA","WA",98903,46.5593894040001,-120.612726486,357,"2504 S 78TH AVE, YAKIMA, WA, 98903","Match","Exact","2504 78TH AVE, YAKIMA, WA, 98903",624342346,"R"
408358,"2504 S 91ST AVE","TOLLESON","AZ",85353,33.424145998,-112.255523894,358,"2504 S 91ST AVE, TOLLESON, AZ, 85353","Match","Exact","2504 S 91ST AVE, TOLLESON, AZ, 85353",243926135,"L"
408359,"2504 SAINT PAUL STREET","BALTIMORE","MD",21218,39.3185552080001,-76.6154534949999,359,"2504 SAINT PAUL STREET, BALTIMORE, MD, 21218","Match","Exact","2504 SAINT PAUL ST, BALTIMORE, MD, 21218",206432473,"L"
408360,"2504 SAINT PHILIP ST","NEW ORLEANS","LA",70119,29.971417855,-90.0783690979999,360,"2504 SAINT PHILIP ST, NEW ORLEANS, LA, 70119","Match","Exact","2504 SAINT PHILIP ST, NEW ORLEANS, LA, 70119",191709542,"L"
408361,"2504 SCOTTWOOD AVE","TOLEDO","OH",43620,41.671210273,-83.55932577,361,"2504 SCOTTWOOD AVE, TOLEDO, OH, 43620","Match","Non_Exact","2504 SCOTTWOOD AVE, TOLEDO, OH, 43610",33938478,"R"
408362,"2504 SE 3RD STREET","HOMESTEAD","FL",33033,25.467094698,-80.448643895,362,"2504 SE 3RD STREET, HOMESTEAD, FL, 33033","Match","Exact","2504 SE 3RD ST, HOMESTEAD, FL, 33033",641691364,"R"
408363,"2504 SEBASTIAN DR","GRAND BLANC","MI",48439,42.9110241170001,-83.6537208509999,363,"2504 SEBASTIAN DR, GRAND BLANC, MI, 48439","Match","Exact","2504 SEBASTIAN DR, GRAND BLANC, MI, 48439",69577503,"R"
408364,"2504 SEXTON RD","ROCKY MOUNT","NC",27804,35.973522357,-77.836370538,364,"2504 SEXTON RD, ROCKY MOUNT, NC, 27804","Match","Exact","2504 SEXTON RD, ROCKY MOUNT, NC, 27804",90390237,"L"
408365,"2504 SHELLYDALE DRIVE","BALTIMORE","MD",21209,39.3700695260001,-76.6807851409999,365,"2504 SHELLYDALE DRIVE, BALTIMORE, MD, 21209","Match","Non_Exact","2504 SHELLEYDALE DR, BALTIMORE, MD, 21209",206404715,"R"
408366,"2504 SHERI LANE","SHREVEPORT","LA",71109,32.4883357520001,-93.812297297,366,"2504 SHERI LANE, SHREVEPORT, LA, 71109","Match","Exact","2504 SHERI LN, SHREVEPORT, LA, 71109",640437303,"L"
408367,"2504 SKYLINE DRIVE","TEMPLE","TX",76504,31.079171892,-97.377418367,367,"2504 SKYLINE DRIVE, TEMPLE, TX, 76504","Match","Exact","2504 SKYLINE DR, TEMPLE, TX, 76504",647842516,"R"
408368,"2504 SMOKETREE LA","CROFTON","MD",21114,39.0219973540001,-76.679863771,368,"2504 SMOKETREE LA, CROFTON, MD, 21114","Match","Exact","2504 SMOKETREE LN, CROFTON, MD, 21114",68202683,"L"
408369,"2504 SOMERTON COURT","BOWIE","MD",20721,38.925138406,-76.8329313249999,369,"2504 SOMERTON COURT, BOWIE, MD, 20721","Match","Exact","2504 SOMERTON CT, BOWIE, MD, 20721",634483114,"L"
408370,"2504 SOUTH 67TH STREET","PHILADELPHIA","PA",19142,39.9202578810001,-75.23273291,370,"2504 SOUTH 67TH STREET, PHILADELPHIA, PA, 19142","Match","Exact","2504 S 67TH ST, PHILADELPHIA, PA, 19142",131409249,"R"
408371,"2504 SPRINGFIELD AVE","LAWRENCEVILLE","IL",62439,38.7342540700001,-87.697064339,371,"2504 SPRINGFIELD AVE, LAWRENCEVILLE, IL, 62439","Match","Exact","2504 SPRINGFIELD AVE, LAWRENCEVILLE, IL, 62439",29662675,"R"
408372,"2504 SUNBURST LN","PEARLAND","TX",77584,29.564220871,-95.356313781,372,"2504 SUNBURST LN, PEARLAND, TX, 77584","Match","Exact","2504 SUNBURST LN, PEARLAND, TX, 77584",116648396,"R"
408373,"2504 TAR HEEL DR","FORT WORTH","TX",76123,32.619380645,-97.3582170769999,373,"2504 TAR HEEL DR, FORT WORTH, TX, 76123","Match","Exact","2504 TAR HEEL DR, FORT WORTH, TX, 76123",102189846,"L"
408374,"2504 TARKINGTON COURT","CHESAPEAKE","VA",23322,NA,NA,374,"2504 TARKINGTON COURT, CHESAPEAKE, VA, 23322","Tie",NA,NA,NA,NA
408375,"2504 TETON STONE RUN","ORLANDO","FL",32828,28.520567299,-81.181098404,375,"2504 TETON STONE RUN, ORLANDO, FL, 32828","Match","Exact","2504 TETON STONE RUN, ORLANDO, FL, 32828",94407008,"R"
408376,"2504 THRURLESTON LN","DULUTH","GA",30097,NA,NA,376,"2504 THRURLESTON LN, DULUTH, GA, 30097","No_Match",NA,NA,NA,NA
408377,"2504 TIFFANY DR","LA PLACE","LA",70068,30.0857394450001,-90.508576341,377,"2504 TIFFANY DR, LA PLACE, LA, 70068","Match","Exact","2504 TIFFANY DR, LA PLACE, LA, 70068",636265956,"R"
408378,"2504 TIMBERLEAF DR","CARROLLTON","TX",75006,32.9787337270001,-96.86752957,378,"2504 TIMBERLEAF DR, CARROLLTON, TX, 75006","Match","Exact","2504 TIMBERLEAF DR, CARROLLTON, TX, 75006",102995336,"L"
408379,"2504 TRATMAN AVE APT 5B","BRONX","NY",10461,40.839268218,-73.845410353,379,"2504 TRATMAN AVE APT 5B, BRONX, NY, 10461","Match","Exact","2504 TRATMAN AVE, BRONX, NY, 10461",80305595,"R"
408380,"2504 TREASURERS COURT","PRINCE FREDERICK","MD",20678,38.4983663830001,-76.56133037,380,"2504 TREASURERS COURT, PRINCE FREDERICK, MD, 20678","Match","Exact","2504 TREASURERS CT, PRINCE FREDERICK, MD, 20678",648448762,"L"
408381,"2504 TUSCALOOSA TRL","WINTER PARK","FL",32789,28.6273299380001,-81.3294690129999,381,"2504 TUSCALOOSA TRL, WINTER PARK, FL, 32789","Match","Exact","2504 TUSCALOOSA TRL, WINTER PARK, FL, 32789",94326992,"R"
408382,"2504 TYLER ST","HUTCHINSON","KS",67502,38.081277422,-97.947876612,382,"2504 TYLER ST, HUTCHINSON, KS, 67502","Match","Exact","2504 TYLER ST, HUTCHINSON, KS, 67502",142933404,"R"
408383,"2504 UTAH ST","CARLSBAD","NM",88220,32.4201795810001,-104.258514854,383,"2504 UTAH ST, CARLSBAD, NM, 88220","Match","Exact","2504 UTAH ST, CARLSBAD, NM, 88220",131208457,"R"
408384,"2504 W GARTON RD","OZARK","MO",65721,37.0564661070001,-93.238383965,384,"2504 W GARTON RD, OZARK, MO, 65721","Match","Exact","2504 W GARTON RD, OZARK, MO, 65721",624068488,"R"
408385,"2504 W GRAND AVE APT A","ALHAMBRA","CA",91801,34.096395617,-118.150858998,385,"2504 W GRAND AVE APT A, ALHAMBRA, CA, 91801","Match","Non_Exact","2504 W GRAND AVE, ALHAMBRA, CA, 91801",141635452,"L"
408386,"2504 W HOUSTON AVE","SPOKANE","WA",99208,47.717051187,-117.446673358,386,"2504 W HOUSTON AVE, SPOKANE, WA, 99208","Match","Exact","2504 W HOUSTON AVE, SPOKANE, WA, 99208",189872540,"R"
408387,"2504 WALTERS AVENUE","NORTHBROOK","IL",60062,42.127429353,-87.841640554,387,"2504 WALTERS AVENUE, NORTHBROOK, IL, 60062","Match","Exact","2504 WALTERS AVE, NORTHBROOK, IL, 60062",111839583,"R"
408388,"2504 WARKWORTH","COLLEGE STATION","TX",77845,30.5455607910001,-96.287193225,388,"2504 WARKWORTH, COLLEGE STATION, TX, 77845","Match","Non_Exact","2504 WARKWORTH LN, COLLEGE STATION, TX, 77845",650649817,"R"
408389,"2504 WATERSGLEN DR","APEX","NC",27592,35.7288025280001,-78.815074806,389,"2504 WATERSGLEN DR, APEX, NC, 27592","Match","Non_Exact","2504 WATERSGLEN DR, APEX, NC, 27502",631146440,"L"
408390,"2504 WETHERBURN RD","BALTIMORE","MD",21209,39.367339244,-76.6788757159999,390,"2504 WETHERBURN RD, BALTIMORE, MD, 21209","Match","Exact","2504 WETHERBURN RD, BALTIMORE, MD, 21209",206404732,"R"
408391,"2504 WHITLEY ROAD","FORT MILL","SC",29708,35.0553815590001,-80.975428329,391,"2504 WHITLEY ROAD, FORT MILL, SC, 29708","Match","Exact","2504 WHITLEY RD, FORT MILL, SC, 29708",19789521,"R"
408392,"2504 WILDLIFE RUN","CEDAR PARK","TX",78613,30.5122672540001,-97.78382167,392,"2504 WILDLIFE RUN, CEDAR PARK, TX, 78613","Match","Exact","2504 WILDLIFE RUN, CEDAR PARK, TX, 78613",126483433,"R"
408393,"2504 WINDY HILL CRT","LAWRENCE","GA",60473,NA,NA,393,"2504 WINDY HILL CRT, LAWRENCE, GA, 60473","No_Match",NA,NA,NA,NA
408394,"2504 WOLF DEN LANE","ATLANTA","GA",30349,33.671009106,-84.580230554,394,"2504 WOLF DEN LANE, ATLANTA, GA, 30349","Match","Exact","2504 WOLF DEN LN, ATLANTA, GA, 30349",627745318,"R"
408395,"2504 WOODHAVEN CT","ORLANDO","FL",32818,28.5764933,-81.5015700719999,395,"2504 WOODHAVEN CT, ORLANDO, FL, 32818","Match","Exact","2504 WOODHAVEN CT, ORLANDO, FL, 32818",94342298,"R"
408396,"25040 FM 2004","ANGLETON","TX",77515,29.150615531,-95.306171502,396,"25040 FM 2004, ANGLETON, TX, 77515","Match","Exact","25040 FM 2004, ANGLETON, TX, 77515",116626499,"L"
408397,"25040 S TRYON ST","CHANNAHON","IL",60410,41.427839713,-88.226701267,397,"25040 S TRYON ST, CHANNAHON, IL, 60410","Match","Exact","25040 S TRYON ST, CHANNAHON, IL, 60410",111537855,"R"
408398,"25041 HIGHWAYNC561","ENFIELD","NC",27823,NA,NA,398,"25041 HIGHWAYNC561, ENFIELD, NC, 27823","No_Match",NA,NA,NA,NA
408399,"25041 NCHIGHWAY 561","ENFIELD","NC",27823,NA,NA,399,"25041 NCHIGHWAY 561, ENFIELD, NC, 27823","No_Match",NA,NA,NA,NA
408400,"25041HIGHWAYNC561","ENFIELD","NC",27823,NA,NA,400,"25041HIGHWAYNC561, ENFIELD, NC, 27823","No_Match",NA,NA,NA,NA
408401,"25042 EATON LANE","LAGUNA NIGUEL","CA",92677,33.529627985,-117.693470411,401,"25042 EATON LANE, LAGUNA NIGUEL, CA, 92677","Match","Exact","25042 EATON LN, LAGUNA NIGUEL, CA, 92677",144098781,"R"
408402,"25044 ROUGE RIVER DRIVE","DEARBORN HEIGHT","MI",48217,NA,NA,402,"25044 ROUGE RIVER DRIVE, DEARBORN HEIGHT, MI, 48217","No_Match",NA,NA,NA,NA
408403,"25044 STATE ROUTE 12","WATERTOWN","NY",13601,43.9639832330001,-75.869441835,403,"25044 STATE ROUTE 12, WATERTOWN, NY, 13601","Match","Non_Exact","25044 STATE ST, WATERTOWN, NY, 13601",154241752,"L"
408404,"25045 PORTSMOUTH","MISSION VIEJO","CA",92692,33.6010766250001,-117.641769647,404,"25045 PORTSMOUTH, MISSION VIEJO, CA, 92692","Match","Exact","25045 PORTSMOUTH, MISSION VIEJO, CA, 92692",144111413,"L"
408405,"25047 1/2 WALNUT ST","LOMITA","CA",90717,33.7969149100001,-118.312023192,405,"25047 1/2 WALNUT ST, LOMITA, CA, 90717","Match","Exact","25047 WALNUT ST, LOMITA, CA, 90717",142759517,"R"
408406,"25047 HARKER LN","MARINO VALLEY","CA",92551,33.8760170740001,-117.224947917,406,"25047 HARKER LN, MARINO VALLEY, CA, 92551","Match","Non_Exact","25047 HARKER LN, MORENO VALLEY, CA, 92551",194856529,"L"
408407,"25047 NEW GUILFORD RD","MARTINSBURG","OH",43037,40.281113953,-82.3007872749999,407,"25047 NEW GUILFORD RD, MARTINSBURG, OH, 43037","Match","Exact","25047 NEW GUILFORD RD, MARTINSBURG, OH, 43037",24640548,"L"
408408,"25047 TOUTANT BEAUREGARD","SAN  ANTONIO","TX",78255,29.677253358,-98.6819569629999,408,"25047 TOUTANT BEAUREGARD, SAN  ANTONIO, TX, 78255","Match","Non_Exact","25047 TOUTANT BEAUREGARD RD, SAN ANTONIO, TX, 78255",101701187,"R"
408409,"25048 GRAHAM","REDFORD","MI",48239,42.396491392,-83.286552887,409,"25048 GRAHAM, REDFORD, MI, 48239","Match","Non_Exact","25048 GRAHAM RD, REDFORD, MI, 48239",95420336,"R"
408410,"25048 N IVY","HAWTHORN WOODS","IL",60047,NA,NA,410,"25048 N IVY, HAWTHORN WOODS, IL, 60047","Tie",NA,NA,NA,NA
408411,"25048 NIAGRA CT","HEMET","CA",92544,33.757648977,-116.896147354,411,"25048 NIAGRA CT, HEMET, CA, 92544","Match","Exact","25048 NIAGRA CT, HEMET, CA, 92544",609001877,"R"
408412,"25049 PARKE LANE","GROSSE ILE","MI",48138,42.125717052,-83.1496238239999,412,"25049 PARKE LANE, GROSSE ILE, MI, 48138","Match","Exact","25049 PARKE LN, GROSSE ILE, MI, 48138",95686153,"L"
408413,"2505 10TH AVE","MOLINE","IL",61265,41.5045165280001,-90.5016162109999,413,"2505 10TH AVE, MOLINE, IL, 61265","Match","Exact","2505 10TH AVE, MOLINE, IL, 61265",9212688,"L"
408414,"2505 13TH STREET NW APT 404","WASHINGTON","DC",20009,38.922583425,-77.02970003,414,"2505 13TH STREET NW APT 404, WASHINGTON, DC, 20009","Match","Exact","2505 13TH ST NW, WASHINGTON, DC, 20009",76224237,"R"
408415,"2505 14TH ST SW","LEHIGH ACRES","FL",33976,26.6006015140001,-81.663033006,415,"2505 14TH ST SW, LEHIGH ACRES, FL, 33976","Match","Exact","2505 14TH ST SW, LEHIGH ACRES, FL, 33976",117987813,"R"
408416,"2505 14TH ST","LAKE CHARLES","LA",70601,30.2077335660001,-93.183014667,416,"2505 14TH ST, LAKE CHARLES, LA, 70601","Match","Exact","2505 14TH ST, LAKE CHARLES, LA, 70601",88438910,"L"
408417,"2505 20TH RD N","ARLINGTON","VA",22201,38.8968243940001,-77.091807445,417,"2505 20TH RD N, ARLINGTON, VA, 22201","Match","Exact","2505 20TH RD N, ARLINGTON, VA, 22201",76469646,"R"
408418,"2505 20TH STREET","TUSCALOOSA","AL",35404,33.1945382550001,-87.562578365,418,"2505 20TH STREET, TUSCALOOSA, AL, 35404","Match","Non_Exact","2505 20TH ST, TUSCALOOSA, AL, 35401",82148372,"L"
408419,"2505 22ND ST","SARASOTA","FL",34234,27.355987682,-82.524569621,419,"2505 22ND ST, SARASOTA, FL, 34234","Match","Exact","2505 22ND ST, SARASOTA, FL, 34234",16349490,"L"
408420,"2505 2ND AVENUE EAST","LA CROSSE","WI",54603,43.862520612,-91.25784264,420,"2505 2ND AVENUE EAST, LA CROSSE, WI, 54603","Match","Exact","2505 2ND AVE E, LA CROSSE, WI, 54603",51026152,"L"
408421,"2505 6TH AVE NORTH","BIRMINGHAM","AL",35203,33.52267634,-86.801694155,421,"2505 6TH AVE NORTH, BIRMINGHAM, AL, 35203","Match","Exact","2505 6TH AVE N, BIRMINGHAM, AL, 35203",627959019,"R"
408422,"2505 6TH","GALENA PARK","TX",77457,NA,NA,422,"2505 6TH, GALENA PARK, TX, 77457","No_Match",NA,NA,NA,NA
408423,"2505 A AND M AVE","SAN ANGELO","TX",76904,31.427628812,-100.466395216,423,"2505 A AND M AVE, SAN ANGELO, TX, 76904","Match","Exact","2505 A AND M AVE, SAN ANGELO, TX, 76904",190680969,"L"
408424,"2505 A ST 6","LINCOLN","NE",68502,NA,NA,424,"2505 A ST 6, LINCOLN, NE, 68502","No_Match",NA,NA,NA,NA
408425,"2505 AGUARIUS ROAD","MIDDLEBURG","FL",32068,NA,NA,425,"2505 AGUARIUS ROAD, MIDDLEBURG, FL, 32068","No_Match",NA,NA,NA,NA
408426,"2505 ALICIA ACRES LANE","SAINT AUGUSTINE","FL",32092,29.9180367880001,-81.569188649,426,"2505 ALICIA ACRES LANE, SAINT AUGUSTINE, FL, 32092","Match","Exact","2505 ALICIA ACRES LN, SAINT AUGUSTINE, FL, 32092",92604315,"L"
408427,"2505 ALISA AVENUE","BALTIMORE","MD",21214,NA,NA,427,"2505 ALISA AVENUE, BALTIMORE, MD, 21214","No_Match",NA,NA,NA,NA
408428,"2505 AMBER HILL LN","EULESS","TX",76039,32.8726333020001,-97.082474647,428,"2505 AMBER HILL LN, EULESS, TX, 76039","Match","Exact","2505 AMBER HILL LN, EULESS, TX, 76039",101869198,"L"
408429,"2505 ANTHEM VILLAGE DR E-602","HENDERSON","NV",89052,35.9787615110001,-115.09800829,429,"2505 ANTHEM VILLAGE DR E-602, HENDERSON, NV, 89052","Match","Non_Exact","2505 ANTHEM VILLAGE DR, HENDERSON, NV, 89052",201991633,"R"
408430,"2505 ANTHEM VILLAGE DR STE E-381","HENDERSON","NV",89052,35.9787615110001,-115.09800829,430,"2505 ANTHEM VILLAGE DR STE E-381, HENDERSON, NV, 89052","Match","Exact","2505 ANTHEM VILLAGE DR, HENDERSON, NV, 89052",201991633,"R"
408431,"2505 ANTHEM VILLAGE DR STE E633","HENDERSON","NV",89052,35.9787615110001,-115.09800829,431,"2505 ANTHEM VILLAGE DR STE E633, HENDERSON, NV, 89052","Match","Exact","2505 ANTHEM VILLAGE DR, HENDERSON, NV, 89052",201991633,"R"
408432,"2505 ANTHEM VILLAGE DR SUITE E633","HENDERSON","NV",89052,35.9787615110001,-115.09800829,432,"2505 ANTHEM VILLAGE DR SUITE E633, HENDERSON, NV, 89052","Match","Exact","2505 ANTHEM VILLAGE DR, HENDERSON, NV, 89052",201991633,"R"
408433,"2505 ANTHEM VILLAGE DRIVE UNIT 311","HENDERSON","NV",89031,35.9787615110001,-115.09800829,433,"2505 ANTHEM VILLAGE DRIVE UNIT 311, HENDERSON, NV, 89031","Match","Non_Exact","2505 ANTHEM VILLAGE DR, HENDERSON, NV, 89052",201991633,"R"
408434,"2505 ANTHEM VILLAGE DRIVE UNIT 311","HENDERSON","NV",89051,35.9787615110001,-115.09800829,434,"2505 ANTHEM VILLAGE DRIVE UNIT 311, HENDERSON, NV, 89051","Match","Non_Exact","2505 ANTHEM VILLAGE DR, HENDERSON, NV, 89052",201991633,"R"
408435,"2505 APPALOOSA LANE","MAHOMET","IL",51853,40.2282978060001,-88.3628272189999,435,"2505 APPALOOSA LANE, MAHOMET, IL, 51853","Match","Non_Exact","2505 APPALOOSA LN, MAHOMET, IL, 61853",8804759,"R"
408436,"2505 AQUARIUS ROAD","MIDDLEBURG","FL",32068,NA,NA,436,"2505 AQUARIUS ROAD, MIDDLEBURG, FL, 32068","No_Match",NA,NA,NA,NA
408437,"2505 ARBUTON AVENUE","BALTIMORE","MD",21230,39.2574006660001,-76.6469652279999,437,"2505 ARBUTON AVENUE, BALTIMORE, MD, 21230","Match","Exact","2505 ARBUTON AVE, BALTIMORE, MD, 21230",206465940,"L"
408438,"2505 ARLINGTON ROAD","CLEVELAND HEIGHTS","OH",44118,41.4909832920001,-81.5730737379999,438,"2505 ARLINGTON ROAD, CLEVELAND HEIGHTS, OH, 44118","Match","Exact","2505 ARLINGTON RD, CLEVELAND HEIGHTS, OH, 44118",61123541,"L"
408439,"2505 AZTEC DR","AUSTIN","TX",78703,30.295004491,-97.761046296,439,"2505 AZTEC DR, AUSTIN, TX, 78703","Match","Exact","2505 AZTEC DR, AUSTIN, TX, 78703",63942150,"R"
408440,"2505 BAYLOR AVENUE","ALAMOGORDO","NM",88310,32.92115505,-105.936870899,440,"2505 BAYLOR AVENUE, ALAMOGORDO, NM, 88310","Match","Exact","2505 BAYLOR AVE, ALAMOGORDO, NM, 88310",132289784,"L"
408441,"2505 BEAR PAW CT","ST AUGUSTINE","FL",32034,29.9720739260001,-81.519362047,441,"2505 BEAR PAW CT, ST AUGUSTINE, FL, 32034","Match","Non_Exact","2505 BEAR PAW CT, SAINT AUGUSTINE, FL, 32092",92622378,"L"
408442,"2505 BEAVER FALLS ROAD","MIDLOTHIAN","VA",23112,37.4562288440001,-77.618657453,442,"2505 BEAVER FALLS ROAD, MIDLOTHIAN, VA, 23112","Match","Exact","2505 BEAVER FALLS RD, MIDLOTHIAN, VA, 23112",201564490,"R"
408443,"2505 BEECH TREE CT","CONYERS","GA",30094,33.6498420360001,-84.062106222,443,"2505 BEECH TREE CT, CONYERS, GA, 30094","Match","Non_Exact","2505 BEECH TREE CT SW, CONYERS, GA, 30094",23742577,"L"
408444,"2505 BELMONT PLACE","PLANO","TX",75023,33.053316554,-96.743004656,444,"2505 BELMONT PLACE, PLANO, TX, 75023","Match","Exact","2505 BELMONT PL, PLANO, TX, 75023",123486265,"L"
408445,"2505 BERRINGER STATION LANE","KNOXVILLE","TN",37932,35.937024659,-84.1891824589999,445,"2505 BERRINGER STATION LANE, KNOXVILLE, TN, 37932","Match","Exact","2505 BERRINGER STATION LN, KNOXVILLE, TN, 37932",604624413,"L"
408446,"2505 BIRCH DRIVE","FERDINAND","IN",47532,NA,NA,446,"2505 BIRCH DRIVE, FERDINAND, IN, 47532","No_Match",NA,NA,NA,NA
408447,"2505 BOTTOM ROAD","COLUMBIA","IL",62236,38.4418802060001,-90.252380495,447,"2505 BOTTOM ROAD, COLUMBIA, IL, 62236","Match","Exact","2505 BOTTOM RD, COLUMBIA, IL, 62236",116431809,"L"
408448,"2505 BOWEN ROAD SE","WASHINGTON","DC",20020,38.85899212,-76.9932974819999,448,"2505 BOWEN ROAD SE, WASHINGTON, DC, 20020","Match","Exact","2505 BOWEN RD SE, WASHINGTON, DC, 20020",76232385,"R"
408449,"2505 BROADWAY APT 214","HOUSTON","TX",77012,29.7051712000001,-95.2779843759999,449,"2505 BROADWAY APT 214, HOUSTON, TX, 77012","Match","Non_Exact","2505 BROADWAY ST, HOUSTON, TX, 77012",96611003,"L"
408450,"2505 BROOK LAWN DRIVE","TEMPLE","TX",76502,31.0821579610001,-97.391274338,450,"2505 BROOK LAWN DRIVE, TEMPLE, TX, 76502","Match","Non_Exact","2505 BROOKLAWN DR, TEMPLE, TX, 76502",146146641,"L"
408451,"2505 BURRESS ST","UNION CITY","TN",38261,NA,NA,451,"2505 BURRESS ST, UNION CITY, TN, 38261","No_Match",NA,NA,NA,NA
408452,"2505 CALIFORNIA RD","OKEANA","OH",45053,39.355277926,-84.7952179169999,452,"2505 CALIFORNIA RD, OKEANA, OH, 45053","Match","Exact","2505 CALIFORNIA RD, OKEANA, OH, 45053",638708509,"R"
408453,"2505 CAMBELBACK RD","RICHMOND","VA",23236,NA,NA,453,"2505 CAMBELBACK RD, RICHMOND, VA, 23236","No_Match",NA,NA,NA,NA
408454,"2505 CAMILLA DRIVE","VALPARAISO","IN",46383,41.491042527,-87.058292276,454,"2505 CAMILLA DRIVE, VALPARAISO, IN, 46383","Match","Exact","2505 CAMILLA DR, VALPARAISO, IN, 46383",119913547,"L"
408455,"2505 CAMINITO MUIRFIELD","LA JOLLA","CA",92037,NA,NA,455,"2505 CAMINITO MUIRFIELD, LA JOLLA, CA, 92037","No_Match",NA,NA,NA,NA
408456,"2505 CARDINGTON DRIVE","COLUMBIA","SC",29209,33.9762626250001,-80.904921272,456,"2505 CARDINGTON DRIVE, COLUMBIA, SC, 29209","Match","Exact","2505 CARDINGTON DR, COLUMBIA, SC, 29209",653323242,"R"
408457,"2505 CARLTON WAY","THE VILLAGE","OK",73120,35.569475262,-97.558348279,457,"2505 CARLTON WAY, THE VILLAGE, OK, 73120","Match","Exact","2505 CARLTON WAY, THE VILLAGE, OK, 73120",100393585,"R"
408458,"2505 CENTER ROAD","NOVATO","CA",94947,38.1118352720001,-122.616629292,458,"2505 CENTER ROAD, NOVATO, CA, 94947","Match","Exact","2505 CENTER RD, NOVATO, CA, 94947",192778306,"R"
408459,"2505 CHAMPAIGN AVENUE","MATTOON","IL",61938,39.4862879340001,-88.3857730079999,459,"2505 CHAMPAIGN AVENUE, MATTOON, IL, 61938","Match","Exact","2505 CHAMPAIGN AVE, MATTOON, IL, 61938",5414458,"L"
408460,"2505 CHAPEL HILL DRIVE","ROWLETT","TX",75088,32.8841464110001,-96.5702774759999,460,"2505 CHAPEL HILL DRIVE, ROWLETT, TX, 75088","Match","Exact","2505 CHAPEL HILL DR, ROWLETT, TX, 75088",103167288,"L"
408461,"2505 CHELAN CIRCLE","COLUMBIA","MO",65203,38.880780267,-92.375768808,461,"2505 CHELAN CIRCLE, COLUMBIA, MO, 65203","Match","Exact","2505 CHELAN CIR, COLUMBIA, MO, 65203",604999450,"L"
408462,"2505 CHIPPENDALE DRIVE","BELLEVILLE","IL",62221,38.537086,-89.941043134,462,"2505 CHIPPENDALE DRIVE, BELLEVILLE, IL, 62221","Match","Exact","2505 CHIPPENDALE DR, BELLEVILLE, IL, 62221",640637529,"L"
408463,"2505 CHRISTI LANE","CADDO MILLS","TX",75135,33.072639372,-96.2223998109999,463,"2505 CHRISTI LANE, CADDO MILLS, TX, 75135","Match","Exact","2505 CHRISTI LN, CADDO MILLS, TX, 75135",42835595,"L"
408464,"2505 CORINTH DRIVE","GREENSBORO","NC",27406,36.0310421470001,-79.7613637919999,464,"2505 CORINTH DRIVE, GREENSBORO, NC, 27406","Match","Exact","2505 CORINTH DR, GREENSBORO, NC, 27406",131098915,"L"
408465,"2505 CORNING AVENUE 101","FT. WASHINGTON","MD",20477,38.8077803350001,-76.965217936,465,"2505 CORNING AVENUE 101, FT. WASHINGTON, MD, 20477","Match","Non_Exact","2505 CORNING AVE, FT WASHINGTON, MD, 20744",76391901,"R"
408466,"2505 CORREA ROAD WATANABE 404","HONOLULU","HI",96822,21.29861679,-157.816918771,466,"2505 CORREA ROAD WATANABE 404, HONOLULU, HI, 96822","Match","Exact","2505 CORREA RD, HONOLULU, HI, 96822",203238068,"R"
408467,"2505 COTTONTAIL RD","GALLATIN GATEWAY","MT",59730,45.5991204380001,-111.238220899,467,"2505 COTTONTAIL RD, GALLATIN GATEWAY, MT, 59730","Match","Exact","2505 COTTONTAIL RD, GALLATIN GATEWAY, MT, 59730",615073874,"R"
408468,"2505 COXSHIRE LANE","DAVIDSONVILLE","MD",21035,38.971871854,-76.646696939,468,"2505 COXSHIRE LANE, DAVIDSONVILLE, MD, 21035","Match","Exact","2505 COXSHIRE LN, DAVIDSONVILLE, MD, 21035",635580157,"R"
408469,"2505 CREEKSTONE CT","BALTIMORE","MD",21209,39.3917281500001,-76.686168396,469,"2505 CREEKSTONE CT, BALTIMORE, MD, 21209","Match","Exact","2505 CREEKSTONE CT, BALTIMORE, MD, 21209",632380925,"L"
408470,"2505 CREEL ROAD","COLLEGE PARK","GA",30349,33.5736199890001,-84.475310753,470,"2505 CREEL ROAD, COLLEGE PARK, GA, 30349","Match","Exact","2505 CREEL RD, COLLEGE PARK, GA, 30349",17377691,"R"
408471,"2505 CRESTLINE DRIVE","LANSDALE","PA",19446,40.1799796020001,-75.308292173,471,"2505 CRESTLINE DRIVE, LANSDALE, PA, 19446","Match","Exact","2505 CRESTLINE DR, LANSDALE, PA, 19446",135122076,"L"
408472,"2505 CRESTPARK ROAD","KNOXVILLE","TN",37912,35.99789256,-84.0095567239999,472,"2505 CRESTPARK ROAD, KNOXVILLE, TN, 37912","Match","Exact","2505 CRESTPARK RD, KNOXVILLE, TN, 37912",42660114,"R"
408473,"2505 CRESTWOOD CIR","PELHAM","AL",35124,33.3332218310001,-86.806120823,473,"2505 CRESTWOOD CIR, PELHAM, AL, 35124","Match","Exact","2505 CRESTWOOD CIR, PELHAM, AL, 35124",82083247,"L"
408474,"2505 DAMSEL BELLA BLVD","LEWISVILLE","TX",75056,33.029459736,-96.89112764,474,"2505 DAMSEL BELLA BLVD, LEWISVILLE, TX, 75056","Match","Exact","2505 DAMSEL BELLA BLVD, LEWISVILLE, TX, 75056",647048648,"R"
408475,"2505 DERITA AVE  NO 26424","CHARLOTTE","NC",28269,35.297085366,-80.799296773,475,"2505 DERITA AVE  NO 26424, CHARLOTTE, NC, 28269","Match","Non_Exact","2505 DERITA AVE, CHARLOTTE, NC, 28269",70582469,"L"
408476,"2505 DESPLAINES AVE","RIVERSIDE","IL",60546,41.844489078,-87.82294498,476,"2505 DESPLAINES AVE, RIVERSIDE, IL, 60546","Match","Exact","2505 DESPLAINES AVE, RIVERSIDE, IL, 60546",642123204,"L"
408477,"2505 DONNA DRIVE","GRAND PRAIRIE","TX",75051,32.707487907,-96.986550305,477,"2505 DONNA DRIVE, GRAND PRAIRIE, TX, 75051","Match","Exact","2505 DONNA DR, GRAND PRAIRIE, TX, 75051",102937687,"R"
408478,"2505 DRISCOLL STREET","HOUSTON","TX",77019,29.7436818950001,-95.4062692209999,478,"2505 DRISCOLL STREET, HOUSTON, TX, 77019","Match","Exact","2505 DRISCOLL ST, HOUSTON, TX, 77019",96064027,"L"
408479,"2505 DURLSTON COURT","CEDAR PARK","TX",78613,30.472005483,-97.8489216899999,479,"2505 DURLSTON COURT, CEDAR PARK, TX, 78613","Match","Exact","2505 DURLSTON CT, CEDAR PARK, TX, 78613",64080643,"R"
408480,"2505 E 2500 S","VERNAL","UT",84078,40.4196012680001,-109.480551775,480,"2505 E 2500 S, VERNAL, UT, 84078","Match","Exact","2505 E 2500 S, VERNAL, UT, 84078",126146818,"L"
408481,"2505 E ARKANSAS LN STE 119","ARLINGTON","TX",76010,NA,NA,481,"2505 E ARKANSAS LN STE 119, ARLINGTON, TX, 76010","No_Match",NA,NA,NA,NA
408482,"2505 E VILLA MARIA","BRYAN","TX",77802,30.659592264,-96.348721688,482,"2505 E VILLA MARIA, BRYAN, TX, 77802","Match","Non_Exact","2505 E VILLA MARIA RD, BRYAN, TX, 77802",640377538,"R"
408483,"2505 E WILLIAMS FIELD DRIVE APT2109","GILBERT","AZ",85295,NA,NA,483,"2505 E WILLIAMS FIELD DRIVE APT2109, GILBERT, AZ, 85295","No_Match",NA,NA,NA,NA
408484,"2505 EAST FEDERAL STRRET","BALTIMORE","MD",21213,39.3089738040001,-76.5823609879999,484,"2505 EAST FEDERAL STRRET, BALTIMORE, MD, 21213","Match","Non_Exact","2505 E FEDERAL ST, BALTIMORE, MD, 21213",206423570,"R"
408485,"2505 EAST ORANGE AVENUE SUITE B","EUSTIS","FL",32726,28.8530185710001,-81.6526258499999,485,"2505 EAST ORANGE AVENUE SUITE B, EUSTIS, FL, 32726","Match","Exact","2505 E ORANGE AVE, EUSTIS, FL, 32726",641419713,"R"
408486,"2505 EAST ORANGE AVENUE","EUSTIS","FL",32726,28.8530185710001,-81.6526258499999,486,"2505 EAST ORANGE AVENUE, EUSTIS, FL, 32726","Match","Exact","2505 E ORANGE AVE, EUSTIS, FL, 32726",641419713,"R"
408487,"2505 EAST YORK STREET","PHILADELPHIA","PA",19125,39.977107356,-75.123803687,487,"2505 EAST YORK STREET, PHILADELPHIA, PA, 19125","Match","Exact","2505 E YORK ST, PHILADELPHIA, PA, 19125",131425493,"L"
408488,"2505 EASTVIEW DR","CASTLE ROCK","CO",80104,39.3488835040001,-104.800947256,488,"2505 EASTVIEW DR, CASTLE ROCK, CO, 80104","Match","Exact","2505 EASTVIEW DR, CASTLE ROCK, CO, 80104",130844391,"R"
408489,"2505 ELMWOOD AVE","BERWYN","IL",60402,41.845053658,-87.784605673,489,"2505 ELMWOOD AVE, BERWYN, IL, 60402","Match","Exact","2505 ELMWOOD AVE, BERWYN, IL, 60402",605114974,"L"
408490,"2505 FARETTO LANE","RENO","NV",88511,39.4606675260001,-119.815346159,490,"2505 FARETTO LANE, RENO, NV, 88511","Match","Non_Exact","2505 FARETTO LN, RENO, NV, 89511",653211912,"R"
408491,"2505 FLAIR KNOLL CT NE","ATLANTA","GA",30345,33.859263648,-84.282277208,491,"2505 FLAIR KNOLL CT NE, ATLANTA, GA, 30345","Match","Exact","2505 FLAIR KNOLL CT NE, ATLANTA, GA, 30345",23359570,"R"
408492,"2505 FOREST HAVEN BLVD","EDISON","NJ",8817,40.5184941580001,-74.364121857,492,"2505 FOREST HAVEN BLVD, EDISON, NJ, 8817","Match","Exact","2505 FOREST HAVEN BLVD, EDISON, NJ, 08817",641739697,"R"
408493,"2505 FOREST VIEW","CONWAY","AR",72034,35.056686133,-92.464419748,493,"2505 FOREST VIEW, CONWAY, AR, 72034","Match","Exact","2505 FOREST VW, CONWAY, AR, 72034",141071848,"R"
408494,"2505 FORREST VIEW DRIVE","CONWAY","AR",72034,35.056686133,-92.464419748,494,"2505 FORREST VIEW DRIVE, CONWAY, AR, 72034","Match","Non_Exact","2505 FOREST VW, CONWAY, AR, 72034",141071848,"R"
408495,"2505 FOX RUN","MIDDLEBORO","MA",2346,41.9453438250001,-70.907321683,495,"2505 FOX RUN, MIDDLEBORO, MA, 2346","Match","Exact","2505 FOX RUN, MIDDLEBORO, MA, 02346",645620347,"R"
408496,"2505 FRANKLIN ST","PLANT CITY","FL",33563,28.034208672,-82.1307714169999,496,"2505 FRANKLIN ST, PLANT CITY, FL, 33563","Match","Exact","2505 FRANKLIN ST, PLANT CITY, FL, 33563",641392016,"L"
408497,"2505 FRESNO AVE","HIDALGO","TX",78557,26.1067860320001,-98.23217776,497,"2505 FRESNO AVE, HIDALGO, TX, 78557","Match","Non_Exact","2505 E FRESNO AVE, HIDALGO, TX, 78557",651939129,"L"
408498,"2505 FRUIT TREE DRIVE","SARASOTA","FL",34239,27.30913351,-82.519232189,498,"2505 FRUIT TREE DRIVE, SARASOTA, FL, 34239","Match","Exact","2505 FRUIT TREE DR, SARASOTA, FL, 34239",16377215,"L"
408499,"2505 GOLF RIDGE CIRCLE","HOUSTON","TX",77089,29.573122056,-95.237587134,499,"2505 GOLF RIDGE CIRCLE, HOUSTON, TX, 77089","Match","Exact","2505 GOLF RIDGE CIR, HOUSTON, TX, 77089",624097825,"L"
408500,"2505 GRANITE LANE","LINCOLN","CA",95648,38.8709472030001,-121.256702455,500,"2505 GRANITE LANE, LINCOLN, CA, 95648","Match","Exact","2505 GRANITE LN, LINCOLN, CA, 95648",608081945,"R"
