"ID","Address","City","State","Zip","lat","long","id","input_address","match_indicator","match_type","matched_address","tiger_line_id","tiger_side"
653001,"464 ST ANDREWS DR","BARBOURSVILLE","WV",25504,38.401398966,-82.3090864759999,1,"464 ST ANDREWS DR, BARBOURSVILLE, WV, 25504","Match","Exact","464 ST ANDREWS DR, BARBOURSVILLE, WV, 25504",101343102,"L"
653002,"464 SUNSET RD","WINNETKA","IL",60093,42.0964756290001,-87.7224487399999,2,"464 SUNSET RD, WINNETKA, IL, 60093","Match","Exact","464 SUNSET RD, WINNETKA, IL, 60093",111738205,"L"
653003,"464 SW TULIP BLVD","PORT ST. LUCIE","FL",34953,27.247796909,-80.354510358,3,"464 SW TULIP BLVD, PORT ST. LUCIE, FL, 34953","Match","Non_Exact","464 SW TULIP BLVD, PORT ST LUCIE, FL, 34953",120170568,"R"
653004,"464 THACKER RD","MINERAL","VA",23117,37.9899954360001,-77.916446003,4,"464 THACKER RD, MINERAL, VA, 23117","Match","Exact","464 THACKER RD, MINERAL, VA, 23117",84940770,"R"
653005,"464 THUNDER MOUNTAIN RD","CAMDENTON","MO",65020,38.0240973190001,-92.7796177719999,5,"464 THUNDER MOUNTAIN RD, CAMDENTON, MO, 65020","Match","Exact","464 THUNDER MOUNTAIN RD, CAMDENTON, MO, 65020",22856078,"R"
653006,"464 TORRINGTON ROAD","LITCHFIELD","CT",6759,41.77318581,-73.171203576,6,"464 TORRINGTON ROAD, LITCHFIELD, CT, 6759","Match","Exact","464 TORRINGTON RD, LITCHFIELD, CT, 06759",611521423,"R"
653007,"464 TOWNSEND ROAD","HENDERSONVILLE","NC",28792,35.385113791,-82.402687616,7,"464 TOWNSEND ROAD, HENDERSONVILLE, NC, 28792","Match","Exact","464 TOWNSEND RD, HENDERSONVILLE, NC, 28792",639238649,"R"
653008,"464 VILLAGE BLUFF COURT","LAWRENCEVILLE","GA",30046,33.956027545,-83.961695011,8,"464 VILLAGE BLUFF COURT, LAWRENCEVILLE, GA, 30046","Match","Exact","464 VILLAGE BLUFF CT, LAWRENCEVILLE, GA, 30046",628080391,"R"
653009,"464 W 23RD ST APT 4F","NEW YORK","NY",10011,40.747256905,-74.0031473779999,9,"464 W 23RD ST APT 4F, NEW YORK, NY, 10011","Match","Non_Exact","464 W 23RD ST, NEW YORK, NY, 10011",59659724,"L"
653010,"464 W 9TH STREET","AKRON","CO",80720,40.166548479,-103.218119973,10,"464 W 9TH STREET, AKRON, CO, 80720","Match","Exact","464 W 9TH ST, AKRON, CO, 80720",177852641,"L"
653011,"464 W CLAPIER ST","PHILADELPHIA","PA",19144,40.020922398,-75.170896978,11,"464 W CLAPIER ST, PHILADELPHIA, PA, 19144","Match","Exact","464 W CLAPIER ST, PHILADELPHIA, PA, 19144",131401514,"L"
653012,"464 W SUMAC CT","LOUISVILLE","CO",80027,39.9739672650001,-105.146260688,12,"464 W SUMAC CT, LOUISVILLE, CO, 80027","Match","Exact","464 W SUMAC CT, LOUISVILLE, CO, 80027",220749150,"L"
653013,"464 WEST 300 NORTH","RICHFIELD","UT",84701,38.772276409,-112.09302103,13,"464 WEST 300 NORTH, RICHFIELD, UT, 84701","Match","Exact","464 W 300 N, RICHFIELD, UT, 84701",175331895,"R"
653014,"464 WEST MAIN STREET 2ND FLOOR","WYCKOFF","NJ",7481,41.0140830180001,-74.177641762,14,"464 WEST MAIN STREET 2ND FLOOR, WYCKOFF, NJ, 7481","Match","Exact","464 W MAIN ST, WYCKOFF, NJ, 07481",64401869,"R"
653015,"464 WILLIAMS RD","CORRIGAN","TX",75939,31.0479590840001,-94.931433768,15,"464 WILLIAMS RD, CORRIGAN, TX, 75939","Match","Exact","464 WILLIAMS RD, CORRIGAN, TX, 75939",643020568,"R"
653016,"464 WOODLAND CHASE LN","VERNON HILLS","IL",60061,NA,NA,16,"464 WOODLAND CHASE LN, VERNON HILLS, IL, 60061","No_Match",NA,NA,NA,NA
653017,"464 WOODLAND DRIVE","DADEVILLE","AL",36853,NA,NA,17,"464 WOODLAND DRIVE, DADEVILLE, AL, 36853","Tie",NA,NA,NA,NA
653018,"464-22424 S ELLSWORTH LOOP RD","QUEEN CREEK","AZ",85142,NA,NA,18,"464-22424 S ELLSWORTH LOOP RD, QUEEN CREEK, AZ, 85142","No_Match",NA,NA,NA,NA
653019,"464-650 THOMPSON VIEW DRIVE","JANESVILLE","CA",96114,40.302581321,-120.481382021,19,"464-650 THOMPSON VIEW DRIVE, JANESVILLE, CA, 96114","Match","Exact","464 THOMPSON VIEW DR, JANESVILLE, CA, 96114",126977006,"R"
653020,"4640 1ST AVE SO","ST PETERSBURG","FL",33711,27.770054922,-82.6963061559999,20,"4640 1ST AVE SO, ST PETERSBURG, FL, 33711","Match","Exact","4640 1ST AVE S, SAINT PETERSBURG, FL, 33711",124700733,"L"
653021,"4640 230TH STREET E","FAIRIBAULT","MN",55021,44.2543346040001,-93.211554631,21,"4640 230TH STREET E, FAIRIBAULT, MN, 55021","Match","Non_Exact","4640 230TH ST E, FARIBAULT, MN, 55021",640621882,"R"
653022,"4640 288TH ST","TOLEDO","OH",43611,41.7080275960001,-83.488521482,22,"4640 288TH ST, TOLEDO, OH, 43611","Match","Exact","4640 288TH ST, TOLEDO, OH, 43611",33942418,"R"
653023,"4640 288TH STREET","TOLEDO","OH",43611,41.7080275960001,-83.488521482,23,"4640 288TH STREET, TOLEDO, OH, 43611","Match","Exact","4640 288TH ST, TOLEDO, OH, 43611",33942418,"R"
653024,"4640 ADMIRALTY WAY STE 500","MARINA DEL REY","CA",90292,33.9810865260001,-118.441028024,24,"4640 ADMIRALTY WAY STE 500, MARINA DEL REY, CA, 90292","Match","Exact","4640 ADMIRALTY WAY, MARINA DEL REY, CA, 90292",141577227,"L"
653025,"4640 APRIL CT","VALLEJO","CA",94591,38.1330328550001,-122.204007792,25,"4640 APRIL CT, VALLEJO, CA, 94591","Match","Exact","4640 APRIL CT, VALLEJO, CA, 94591",192564518,"R"
653026,"4640 BAY HILL DR","CONWAY","AR",72034,35.106960074,-92.50675789,26,"4640 BAY HILL DR, CONWAY, AR, 72034","Match","Exact","4640 BAY HILL DR, CONWAY, AR, 72034",650171522,"R"
653027,"4640 BONETA RD","MEDINA","OH",44256,41.1488374030001,-81.7747096799999,27,"4640 BONETA RD, MEDINA, OH, 44256","Match","Exact","4640 BONETA RD, MEDINA, OH, 44256",58694993,"R"
653028,"4640 BONETA RD","MEDINS","OH",44256,41.1488374030001,-81.7747096799999,28,"4640 BONETA RD, MEDINS, OH, 44256","Match","Non_Exact","4640 BONETA RD, MEDINA, OH, 44256",58694993,"R"
653029,"4640 BRADLEY ROAD","HUNTINGTON","WV",25704,38.3978280970001,-82.522252277,29,"4640 BRADLEY ROAD, HUNTINGTON, WV, 25704","Match","Exact","4640 BRADLEY RD, HUNTINGTON, WV, 25704",57202962,"R"
653030,"4640 BROOK HIGHLAND LN","TUSCALOOSA","AL",35406,33.2594735170001,-87.489938098,30,"4640 BROOK HIGHLAND LN, TUSCALOOSA, AL, 35406","Match","Exact","4640 BROOK HIGHLAND LN, TUSCALOOSA, AL, 35406",82233917,"R"
653031,"4640 CAMARGO RD","MOUNT STERLING","KY",40353,37.9920796660001,-83.882077545,31,"4640 CAMARGO RD, MOUNT STERLING, KY, 40353","Match","Exact","4640 CAMARGO RD, MT STERLING, KY, 40353",642586144,"L"
653032,"4640 CAROLYN LANE","WHITE BEAR LAKE","MN",55110,45.081193731,-93.031337604,32,"4640 CAROLYN LANE, WHITE BEAR LAKE, MN, 55110","Match","Exact","4640 CAROLYN LN, WHITE BEAR LAKE, MN, 55110",97636456,"R"
653033,"4640 CENTRAL CHURCH RD","DOUGLASSVILLE","GA",30135,33.6970451340001,-84.7281534219999,33,"4640 CENTRAL CHURCH RD, DOUGLASSVILLE, GA, 30135","Match","Non_Exact","4640 CENTRAL CHURCH RD, DOUGLASVILLE, GA, 30135",16648792,"R"
653034,"4640 COOK ROAD","ROCKWELL","NC",28248,NA,NA,34,"4640 COOK ROAD, ROCKWELL, NC, 28248","No_Match",NA,NA,NA,NA
653035,"4640 COOKS MILL RD NE","CORYDON","IN",47113,38.2688031530001,-86.065765121,35,"4640 COOKS MILL RD NE, CORYDON, IN, 47113","Match","Non_Exact","4640 COOKS MILL RD NE, CORYDON, IN, 47112",34815155,"R"
653036,"4640 CROSSVINE DRIVE","PROSPER","TX",75078,33.2252130370001,-96.87736086,36,"4640 CROSSVINE DRIVE, PROSPER, TX, 75078","Match","Exact","4640 CROSSVINE DR, PROSPER, TX, 75078",648128148,"L"
653037,"4640 DIANN DRIVE SW","ATL","GA",30349,33.633248898,-84.539361992,37,"4640 DIANN DRIVE SW, ATL, GA, 30349","Match","Exact","4640 DIANN DR SW, ATLANTA, GA, 30349",17338115,"R"
653038,"4640 DULEY DRIVE","WHITE PLAINS","MD",20695,38.5839281410001,-76.927051376,38,"4640 DULEY DRIVE, WHITE PLAINS, MD, 20695","Match","Exact","4640 DULEY DR, WHITE PLAINS, MD, 20695",25385338,"R"
653039,"4640 E WOODSMALL DR","TERRE HAUTE","IN",47802,39.375795297,-87.3456307719999,39,"4640 E WOODSMALL DR, TERRE HAUTE, IN, 47802","Match","Exact","4640 E WOODSMALL DR, TERRE HAUTE, IN, 47802",620570565,"L"
653040,"4640 EAGLES WING COURT","LITHONIA","GA",30038,33.681253833,-84.200716888,40,"4640 EAGLES WING COURT, LITHONIA, GA, 30038","Match","Exact","4640 EAGLES WING CT, LITHONIA, GA, 30038",619384286,"L"
653041,"4640 EAST TALMADGE DRIVE","SAN DIEGO","CA",92116,32.762603912,-117.100534309,41,"4640 EAST TALMADGE DRIVE, SAN DIEGO, CA, 92116","Match","Exact","4640 E TALMADGE DR, SAN DIEGO, CA, 92116",195346918,"L"
653042,"4640 EDWARD AVE","MISSOULA","MT",59804,46.8529436000001,-114.094343237,42,"4640 EDWARD AVE, MISSOULA, MT, 59804","Match","Exact","4640 EDWARD AVE, MISSOULA, MT, 59804",205316929,"R"
653043,"4640 FOX MEADOWS","MEMPHIS","TN",38135,NA,NA,43,"4640 FOX MEADOWS, MEMPHIS, TN, 38135","No_Match",NA,NA,NA,NA
653044,"4640 FOX POINTE DR-APT 429","BAY CITY","MI",48706,NA,NA,44,"4640 FOX POINTE DR-APT 429, BAY CITY, MI, 48706","No_Match",NA,NA,NA,NA
653045,"4640 HATHWAY","LEXINGTON","KY",40515,37.962907016,-84.485760512,45,"4640 HATHWAY, LEXINGTON, KY, 40515","Match","Non_Exact","4640 HATHWAY DR, LEXINGTON, KY, 40515",31934207,"R"
653046,"4640 HEDGECOX RAD APT 1522","PLANO","TX",75024,NA,NA,46,"4640 HEDGECOX RAD APT 1522, PLANO, TX, 75024","No_Match",NA,NA,NA,NA
653047,"4640 HINKLEY INDUSTRIAL PKWY","CLEVELAND","OH",44109,41.4284306910001,-81.679755052,47,"4640 HINKLEY INDUSTRIAL PKWY, CLEVELAND, OH, 44109","Match","Non_Exact","4640 HINCKLEY INDUSTRIAL PKWY, CLEVELAND, OH, 44109",61179650,"L"
653048,"4640 HOME PLACE","PLANO","TX",75024,33.0787847650001,-96.7897468099999,48,"4640 HOME PLACE, PLANO, TX, 75024","Match","Exact","4640 HOME PL, PLANO, TX, 75024",123530781,"R"
653049,"4640 HUGO AVENUE","HOLLADAY","UT",84117,NA,NA,49,"4640 HUGO AVENUE, HOLLADAY, UT, 84117","No_Match",NA,NA,NA,NA
653050,"4640 HUNTSMAN BEND","DECATUR","GA",30034,33.702928823,-84.200000001,50,"4640 HUNTSMAN BEND, DECATUR, GA, 30034","Match","Exact","4640 HUNTSMAN BEND, DECATUR, GA, 30034",23386749,"L"
653051,"4640 JOHNNYS WAY","MILTON","FL",32583,30.6020863860001,-87.004693819,51,"4640 JOHNNYS WAY, MILTON, FL, 32583","Match","Exact","4640 JOHNNYS WAY, MILTON, FL, 32583",74557887,"R"
653052,"4640 LACOSTA LN","WALDORF","MD",20602,NA,NA,52,"4640 LACOSTA LN, WALDORF, MD, 20602","No_Match",NA,NA,NA,NA
653053,"4640 LOUISE AVENUE","ENCINO","CA",91316,34.154192682,-118.509239724,53,"4640 LOUISE AVENUE, ENCINO, CA, 91316","Match","Exact","4640 LOUISE AVE, ENCINO, CA, 91316",141556156,"R"
653054,"4640 LOWER DR","LAKE OSWEGO","OR",97035,45.404294491,-122.724908233,54,"4640 LOWER DR, LAKE OSWEGO, OR, 97035","Match","Exact","4640 LOWER DR, LAKE OSWEGO, OR, 97035",647399054,"L"
653055,"4640 LUCERNE LAKES BLVD 404","LAKE WORTH","FL",33467,26.6109275520001,-80.1622556359999,55,"4640 LUCERNE LAKES BLVD 404, LAKE WORTH, FL, 33467","Match","Exact","4640 LUCERNE LAKES BLVD, LAKE WORTH, FL, 33467",115578405,"L"
653056,"4640 MAIN ST APT 218","HOUSTON","TX",77002,29.7326742650001,-95.384137283,56,"4640 MAIN ST APT 218, HOUSTON, TX, 77002","Match","Exact","4640 MAIN ST, HOUSTON, TX, 77002",96353051,"R"
653057,"4640 MAIN STREET","STRATFORD","CT",6614,41.2191532210001,-73.1194197789999,57,"4640 MAIN STREET, STRATFORD, CT, 6614","Match","Exact","4640 MAIN ST, STRATFORD, CT, 06614",3272581,"R"
653058,"4640 N DRAKE","CHICAGO","IL",60625,41.965508878,-87.716947343,58,"4640 N DRAKE, CHICAGO, IL, 60625","Match","Non_Exact","4640 N DRAKE AVE, CHICAGO, IL, 60625",111756530,"L"
653059,"4640 N HWY 13","CORINNE","UT",84307,41.589463713,-112.129804897,59,"4640 N HWY 13, CORINNE, UT, 84307","Match","Non_Exact","4640 STATE RTE 13, CORINNE, UT, 84307",153903607,"L"
653060,"4640 N SHARENDON ROAD","CHICAGO","IL",60640,NA,NA,60,"4640 N SHARENDON ROAD, CHICAGO, IL, 60640","No_Match",NA,NA,NA,NA
653061,"4640 N SHERIDAN APT 1407","CHICAGO","IL",60640,NA,NA,61,"4640 N SHERIDAN APT 1407, CHICAGO, IL, 60640","No_Match",NA,NA,NA,NA
653062,"4640 NORTH CREEK DRIVE","GREENVILLE","NC",27834,NA,NA,62,"4640 NORTH CREEK DRIVE, GREENVILLE, NC, 27834","No_Match",NA,NA,NA,NA
653063,"4640 PHEBE AVE","FREMONT","CA",94555,37.5698791460001,-122.049561139,63,"4640 PHEBE AVE, FREMONT, CA, 94555","Match","Exact","4640 PHEBE AVE, FREMONT, CA, 94555",125041997,"L"
653064,"4640 PINE VALLEY DRIVE","FRISCO","TX",75034,33.098576429,-96.848050563,64,"4640 PINE VALLEY DRIVE, FRISCO, TX, 75034","Match","Exact","4640 PINE VALLEY DR, FRISCO, TX, 75034",103372821,"R"
653065,"4640 PINTAIL CREEK DRIVE","CANAL WINCHESTER","OH",43110,NA,NA,65,"4640 PINTAIL CREEK DRIVE, CANAL WINCHESTER, OH, 43110","No_Match",NA,NA,NA,NA
653066,"4640 PLUMWOOD DRIVE","WEST DES MOINES","IA",50265,41.551532996,-93.767563847,66,"4640 PLUMWOOD DRIVE, WEST DES MOINES, IA, 50265","Match","Exact","4640 PLUMWOOD DR, W DES MOINES, IA, 50265",65811384,"L"
653067,"4640 POPLAR SPRINGS DR","MERIDIAN","MS",39307,32.4063952550001,-88.701464731,67,"4640 POPLAR SPRINGS DR, MERIDIAN, MS, 39307","Match","Non_Exact","4640 POPLAR SPRINGS DR, MERIDIAN, MS, 39305",188869,"R"
653068,"4640 PORTOFINO WAY APT 204","WEST PALM BEACH","FL",33409,26.744115381,-80.107922324,68,"4640 PORTOFINO WAY APT 204, WEST PALM BEACH, FL, 33409","Match","Exact","4640 PORTOFINO WAY, WEST PALM BEACH, FL, 33409",638633237,"R"
653069,"4640 REGENCY COURT","PENSACOA","FL",32504,30.4917525870001,-87.1613660899999,69,"4640 REGENCY COURT, PENSACOA, FL, 32504","Match","Non_Exact","4640 REGENCY CT, PENSACOLA, FL, 32504",93307551,"R"
653070,"4640 REKA ST APT 4","ANCHORAGE","AK",99508,61.204285896,-149.795219866,70,"4640 REKA ST APT 4, ANCHORAGE, AK, 99508","Match","Non_Exact","4640 REKA DR, ANCHORAGE, AK, 99508",641432769,"R"
653071,"4640 RIDGE ROAD","SHEPHERDSVILLE","KY",40165,37.9991472880001,-85.590021755,71,"4640 RIDGE ROAD, SHEPHERDSVILLE, KY, 40165","Match","Exact","4640 RIDGE RD, SHEPHERDSVILLE, KY, 40165",639772846,"R"
653072,"4640 ROUNDVIEW CT","LAND O LAKES","FL",34639,28.2225461960001,-82.4428015399999,72,"4640 ROUNDVIEW CT, LAND O LAKES, FL, 34639","Match","Exact","4640 ROUNDVIEW CT, LAND O LAKES, FL, 34639",86406102,"L"
653073,"4640 S CLARKSON ST","ENGLEWOOD","CO",80113,39.632369043,-104.978493446,73,"4640 S CLARKSON ST, ENGLEWOOD, CO, 80113","Match","Non_Exact","4640 S CLARKSON ST, ENGLEWOOD, CO, 80113",177334539,"L"
653074,"4640 S DETROIT","TOLEDO","OH",43614,NA,NA,74,"4640 S DETROIT, TOLEDO, OH, 43614","No_Match",NA,NA,NA,NA
653075,"4640 S ELLIS AVE APT 40-1","CHICAGO","IL",60653,NA,NA,75,"4640 S ELLIS AVE APT 40-1, CHICAGO, IL, 60653","No_Match",NA,NA,NA,NA
653076,"4640 SALADO CREEK ST","LAS CRUCES","NM",88012,32.374946913,-106.768429294,76,"4640 SALADO CREEK ST, LAS CRUCES, NM, 88012","Match","Exact","4640 SALADO CREEK ST, LAS CRUCES, NM, 88012",628019313,"R"
653077,"4640 SAN BERNARDINO STREET","MONTCLAIR","CA",91763,34.077786417,-117.703473556,77,"4640 SAN BERNARDINO STREET, MONTCLAIR, CA, 91763","Match","Exact","4640 SAN BERNARDINO ST, MONTCLAIR, CA, 91763",648259314,"L"
653078,"4640 SUNDANCE CIR","CUMMING","GA",30028,34.319531522,-84.070418017,78,"4640 SUNDANCE CIR, CUMMING, GA, 30028","Match","Exact","4640 SUNDANCE CIR, CUMMING, GA, 30028",629821702,"L"
653079,"4640 SW 14TH ST","MIAMI","FL",33134,25.7586284660001,-80.270607099,79,"4640 SW 14TH ST, MIAMI, FL, 33134","Match","Non_Exact","4640 SW 14TH ST, MIAMI, FL, 33134",116010282,"L"
653080,"4640 SW 25TH AVENUE","FORT LAUDERDALE","FL",33312,26.064523561,-80.1739378889999,80,"4640 SW 25TH AVENUE, FORT LAUDERDALE, FL, 33312","Match","Non_Exact","4640 SW 25TH AVE, FORT LAUDERDALE, FL, 33312",114727498,"L"
653081,"4640 SW EQUESTRIAN DRIVE","GRESHAM","OR",97080,45.4818630550001,-122.47897689,81,"4640 SW EQUESTRIAN DRIVE, GRESHAM, OR, 97080","Match","Exact","4640 SW EQUESTRIAN DR, GRESHAM, OR, 97080",636575950,"R"
653082,"4640 TOBIAS AVE","SHERMAN OAKS","CA",91403,34.1553925110001,-118.451975412,82,"4640 TOBIAS AVE, SHERMAN OAKS, CA, 91403","Match","Exact","4640 TOBIAS AVE, SHERMAN OAKS, CA, 91403",141560913,"R"
653083,"4640 US HWY 17","DE LEON SPGS","FL",32130,29.109791843,-81.347355321,83,"4640 US HWY 17, DE LEON SPGS, FL, 32130","Match","Exact","4640 US HWY 17, DE LEON SPRINGS, FL, 32130",639393627,"L"
653084,"4640 VEGAS VALLEY DR STE 1019","LAS VEGAS","NV",89121,36.136976788,-115.071869435,84,"4640 VEGAS VALLEY DR STE 1019, LAS VEGAS, NV, 89121","Match","Exact","4640 VEGAS VALLEY DR, LAS VEGAS, NV, 89121",635450130,"L"
653085,"4640 VINCENT AVE S","MINNEAPOLIS","MN",55410,44.9189405640001,-93.316347636,85,"4640 VINCENT AVE S, MINNEAPOLIS, MN, 55410","Match","Exact","4640 VINCENT AVE S, MINNEAPOLIS, MN, 55410",43628212,"R"
653086,"4640 W BERRY RD","STERLING","MI",48659,44.1273219230001,-83.993647111,86,"4640 W BERRY RD, STERLING, MI, 48659","Match","Exact","4640 BERRY RD, STERLING, MI, 48659",160919127,"L"
653087,"4640 W WILD HORSE DRIVE","TUCSON","AZ",85742,32.374561176,-111.064481655,87,"4640 W WILD HORSE DRIVE, TUCSON, AZ, 85742","Match","Exact","4640 W WILD HORSE DR, TUCSON, AZ, 85742",121156885,"L"
653088,"4640 WESTMONT AVE","CAMPBELL","CA",95008,37.2706660470001,-121.982655173,88,"4640 WESTMONT AVE, CAMPBELL, CA, 95008","Match","Exact","4640 WESTMONT AVE, CAMPBELL, CA, 95008",618192010,"L"
653089,"4640","DOUGLASSVILLE","GA",30135,NA,NA,89,"4640, DOUGLASSVILLE, GA, 30135","No_Match",NA,NA,NA,NA
653090,"4640","GRESHAM","OR",97080,NA,NA,90,"4640, GRESHAM, OR, 97080","No_Match",NA,NA,NA,NA
653091,"46402 KENT DRIVE","LEXINGTON PARK","MD",20653,38.2570624900001,-76.470491485,91,"46402 KENT DRIVE, LEXINGTON PARK, MD, 20653","Match","Exact","46402 KENT DR, LEXINGTON PARK, MD, 20653",36645910,"R"
653092,"46403 REGISTRY DR","CANTON","MI",48187,42.330240931,-83.5022244629999,92,"46403 REGISTRY DR, CANTON, MI, 48187","Match","Exact","46403 REGISTRY DR, CANTON, MI, 48187",95497757,"R"
653093,"46405 PINE MEADOW PLACE","KING CITY","CA",93930,36.174439276,-121.151370806,93,"46405 PINE MEADOW PLACE, KING CITY, CA, 93930","Match","Exact","46405 PINE MEADOW PL, KING CITY, CA, 93930",196841672,"L"
653094,"4641 CHALMERS DR","NASHVILLE","TN",37215,36.087047914,-86.818378545,94,"4641 CHALMERS DR, NASHVILLE, TN, 37215","Match","Exact","4641 CHALMERS DR, NASHVILLE, TN, 37215",97191240,"R"
653095,"4641 CHAMBLISS AVENUE","KNOXVILLE","TN",37919,35.9431787950001,-83.983836707,95,"4641 CHAMBLISS AVENUE, KNOXVILLE, TN, 37919","Match","Exact","4641 CHAMBLISS AVE, KNOXVILLE, TN, 37919",42614363,"R"
653096,"4641 CONNECTING ROAD","CHARLOTT","NC",28209,35.1766620860001,-80.874297095,96,"4641 CONNECTING ROAD, CHARLOTT, NC, 28209","Match","Non_Exact","4641 CONNECTING RD, CHARLOTTE, NC, 28209",70485112,"L"
653097,"4641 CRESTWOOD WARD","SACRAMENTO","CA",95823,NA,NA,97,"4641 CRESTWOOD WARD, SACRAMENTO, CA, 95823","No_Match",NA,NA,NA,NA
653098,"4641 CROSSVINE DR","PROSPER","TX",75078,33.225202558,-96.877364717,98,"4641 CROSSVINE DR, PROSPER, TX, 75078","Match","Exact","4641 CROSSVINE DR, PROSPER, TX, 75078",648128148,"R"
653099,"4641 E DOUGLAS AVE","WICHITA","KS",67218,37.6865047800001,-97.282051092,99,"4641 E DOUGLAS AVE, WICHITA, KS, 67218","Match","Exact","4641 E DOUGLAS AVE, WICHITA, KS, 67218",115638376,"R"
653100,"4641 FAIRPLAY WAY","DENVER","CO",80239,39.7785496980001,-104.81540339,100,"4641 FAIRPLAY WAY, DENVER, CO, 80239","Match","Exact","4641 FAIRPLAY WAY, DENVER, CO, 80239",177624130,"L"
653101,"4641 GROSVENOR AVENUE","BRONX","NY",10471,40.8946030760001,-73.9064061729999,101,"4641 GROSVENOR AVENUE, BRONX, NY, 10471","Match","Exact","4641 GROSVENOR AVE, BRONX, NY, 10471",80296236,"L"
653102,"4641 HARDING AVE","LAKELAND","FL",33813,27.980931673,-81.960092972,102,"4641 HARDING AVE, LAKELAND, FL, 33813","Match","Non_Exact","4641 S HARDING AVE, LAKELAND, FL, 33813",104812375,"R"
653103,"4641 HEATHER DR SW  APT 211","ROANOKE","VA",24018,37.246296005,-80.02552947,103,"4641 HEATHER DR SW  APT 211, ROANOKE, VA, 24018","Match","Exact","4641 HEATHER DR SW, ROANOKE, VA, 24018",62937137,"L"
653104,"4641 HEATHER DR SW APT 211","ROANOKE","VA",24018,37.246296005,-80.02552947,104,"4641 HEATHER DR SW APT 211, ROANOKE, VA, 24018","Match","Exact","4641 HEATHER DR SW, ROANOKE, VA, 24018",62937137,"L"
653105,"4641 HILLARD AVE","LA CANADA FLINTRIDGE","CA",91011,34.2144719550001,-118.215415757,105,"4641 HILLARD AVE, LA CANADA FLINTRIDGE, CA, 91011","Match","Exact","4641 HILLARD AVE, LA CANADA, CA, 91011",142724801,"L"
653106,"4641 HOME AVE APT 14","SAN DIEGO","CA",92105,32.7326135370001,-117.095573343,106,"4641 HOME AVE APT 14, SAN DIEGO, CA, 92105","Match","Exact","4641 HOME AVE, SAN DIEGO, CA, 92105",611821279,"R"
653107,"4641 HOPEWOOD DR","GRAHAM","NC",27253,35.900087107,-79.282376053,107,"4641 HOPEWOOD DR, GRAHAM, NC, 27253","Match","Exact","4641 HOPEWOOD DR, GRAHAM, NC, 27253",71675598,"R"
653108,"4641 HWY 77","CHILTON","TX",76632,NA,NA,108,"4641 HWY 77, CHILTON, TX, 76632","No_Match",NA,NA,NA,NA
653109,"4641 LASATER RD TRLR 175","MESQUITE","TX",75181,32.7086847780001,-96.58122377,109,"4641 LASATER RD TRLR 175, MESQUITE, TX, 75181","Match","Exact","4641 LASATER RD, MESQUITE, TX, 75181",102964554,"L"
653110,"4641 LAUREL AVE","GLENVIEW","IL",60025,42.08313894,-87.8726405629999,110,"4641 LAUREL AVE, GLENVIEW, IL, 60025","Match","Exact","4641 LAUREL AVE, GLENVIEW, IL, 60025",111722757,"L"
653111,"4641 LUCERNE VALLEY RD","LILBURN","GA",30047,33.8404376010001,-84.098214641,111,"4641 LUCERNE VALLEY RD, LILBURN, GA, 30047","Match","Non_Exact","4641 LUCERNE VALLEY RD SW, LILBURN, GA, 30047",88888055,"R"
653112,"4641 N 11TH ST","PHOENIX","AZ",85014,33.5045545410001,-112.058448708,112,"4641 N 11TH ST, PHOENIX, AZ, 85014","Match","Exact","4641 N 11TH ST, PHOENIX, AZ, 85014",128208901,"R"
653113,"4641 N PAULINA","CHICAGO","IL",60640,41.965999497,-87.670935245,113,"4641 N PAULINA, CHICAGO, IL, 60640","Match","Non_Exact","4641 N PAULINA ST, CHICAGO, IL, 60640",111761368,"R"
653114,"4641 OAKDELL AVE","DAYTON","OH",45432,39.7471872250001,-84.111951721,114,"4641 OAKDELL AVE, DAYTON, OH, 45432","Match","Exact","4641 OAKDELL AVE, DAYTON, OH, 45432",143576493,"L"
653115,"4641 PALLADIN STREET NUM 34","WEST PALM BEACH","FL",33417,26.7444401860001,-80.111925195,115,"4641 PALLADIN STREET NUM 34, WEST PALM BEACH, FL, 33417","Match","Exact","4641 PALLADIN ST, WEST PALM BEACH, FL, 33417",115343688,"L"
653116,"4641 PARAGON PARK RD","RALEIGH","NC",27616,35.889165351,-78.561606196,116,"4641 PARAGON PARK RD, RALEIGH, NC, 27616","Match","Exact","4641 PARAGON PARK RD, RALEIGH, NC, 27616",72572004,"L"
653117,"4641 POST ST BOX 4530","EL DORADO HILLS","CA",95762,NA,NA,117,"4641 POST ST BOX 4530, EL DORADO HILLS, CA, 95762","No_Match",NA,NA,NA,NA
653118,"4641 POST STREET 4484","EL DORADO HILLS","CA",95762,NA,NA,118,"4641 POST STREET 4484, EL DORADO HILLS, CA, 95762","No_Match",NA,NA,NA,NA
653119,"4641 REED STREET","FORT WORTH","TX",76119,32.709336711,-97.254893647,119,"4641 REED STREET, FORT WORTH, TX, 76119","Match","Exact","4641 REED ST, FORT WORTH, TX, 76119",101898727,"L"
653120,"4641 RIVER OAKS ROAD","CLOVER","SC",29710,35.1274594750001,-81.0692744409999,120,"4641 RIVER OAKS ROAD, CLOVER, SC, 29710","Match","Exact","4641 RIVER OAKS RD, CLOVER, SC, 29710",640544077,"R"
653121,"4641 ROBINSON LOOP E","OLIVE BRANCH","MS",38654,34.926812469,-89.91572128,121,"4641 ROBINSON LOOP E, OLIVE BRANCH, MS, 38654","Match","Exact","4641 ROBINSON LOOP E, OLIVE BRANCH, MS, 38654",649518894,"R"
653122,"4641 SALADO CREEK","LAS CRUCES","NM",88012,32.374920903,-106.768439286,122,"4641 SALADO CREEK, LAS CRUCES, NM, 88012","Match","Non_Exact","4641 SALADO CREEK ST, LAS CRUCES, NM, 88012",628019313,"L"
653123,"4641 TALLMADGE ROAD","ROOTSTOWN","OH",44272,41.098957564,-81.22558779,123,"4641 TALLMADGE ROAD, ROOTSTOWN, OH, 44272","Match","Exact","4641 TALLMADGE RD, ROOTSTOWN, OH, 44272",649988318,"L"
653124,"4641 VISTA DEL SANTA RITA","AMADO","AZ",85646,NA,NA,124,"4641 VISTA DEL SANTA RITA, AMADO, AZ, 85646","No_Match",NA,NA,NA,NA
653125,"4641 WESTPOINT","DEARBORN HEIGHTS","MI",48325,NA,NA,125,"4641 WESTPOINT, DEARBORN HEIGHTS, MI, 48325","No_Match",NA,NA,NA,NA
653126,"4641 WHITAKER PL","WOODBRIDGE","VA",22193,38.6406021870001,-77.3503690919999,126,"4641 WHITAKER PL, WOODBRIDGE, VA, 22193","Match","Exact","4641 WHITAKER PL, WOODBRIDGE, VA, 22193",207152394,"L"
653127,"4641 WILLOW GROVE DRIVE","ELLIOT CITY","MD",21043,NA,NA,127,"4641 WILLOW GROVE DRIVE, ELLIOT CITY, MD, 21043","No_Match",NA,NA,NA,NA
653128,"4641 WOODLAND BLVD 212","OKLAHOMA CITY","OK",73105,35.5196390190001,-97.502598006,128,"4641 WOODLAND BLVD 212, OKLAHOMA CITY, OK, 73105","Match","Exact","4641 WOODLAND BLVD, OKLAHOMA CITY, OK, 73105",100400952,"L"
653129,"4641 WOODLAND BLVD APT 212","OKLAHOMA CITY","OK",73105,35.5196390190001,-97.502598006,129,"4641 WOODLAND BLVD APT 212, OKLAHOMA CITY, OK, 73105","Match","Exact","4641 WOODLAND BLVD, OKLAHOMA CITY, OK, 73105",100400952,"L"
653130,"464106 HWY 141","GANS","OK",74936,35.3764374580001,-94.759173875,130,"464106 HWY 141, GANS, OK, 74936","Match","Exact","464106 HWY 141, GANS, OK, 74936",53740045,"L"
653131,"4642 ARAPAHO LOOKOUT","BILLINGS","MT",59106,45.8042273340001,-108.633606407,131,"4642 ARAPAHO LOOKOUT, BILLINGS, MT, 59106","Match","Exact","4642 ARAPAHO LOOKOUT, BILLINGS, MT, 59106",181473630,"L"
653132,"4642 ASH TERRACE","ELIZABETH","CO",80107,39.363824826,-104.577714472,132,"4642 ASH TERRACE, ELIZABETH, CO, 80107","Match","Exact","4642 ASH TER, ELIZABETH, CO, 80107",130881715,"L"
653133,"4642 ATHALIA DR","COLUMBUS","OH",43228,39.9129288840001,-83.115814228,133,"4642 ATHALIA DR, COLUMBUS, OH, 43228","Match","Exact","4642 ATHALIA DR, COLUMBUS, OH, 43228",218676085,"R"
653134,"4642 CAVENDISH ROAD","INDIANAPOLIS","IN",46220,39.861407442,-86.090453581,134,"4642 CAVENDISH ROAD, INDIANAPOLIS, IN, 46220","Match","Exact","4642 CAVENDISH RD, INDIANAPOLIS, IN, 46220",107995813,"L"
653135,"4642 CHERRY STREET","WINSTON SALEM","NC",27105,36.1536393600001,-80.26398592,135,"4642 CHERRY STREET, WINSTON SALEM, NC, 27105","Match","Non_Exact","4642 N CHERRY ST, WINSTON SALEM, NC, 27105",84683668,"L"
653136,"4642 CREPE MYRTLE CIR","MARIETTA","GA",30067,33.9419195410001,-84.417250931,136,"4642 CREPE MYRTLE CIR, MARIETTA, GA, 30067","Match","Non_Exact","4642 CREPE MYRTLE CIR SE, MARIETTA, GA, 30067",17184320,"R"
653137,"4642 CROSSING TRAIL","LORAIN","OH",44053,41.429680482,-82.2220154299999,137,"4642 CROSSING TRAIL, LORAIN, OH, 44053","Match","Exact","4642 CROSSING TRL, LORAIN, OH, 44053",631984989,"L"
653138,"4642 DEERFOOT PATH","PINSON","AL",35126,33.697894514,-86.641915734,138,"4642 DEERFOOT PATH, PINSON, AL, 35126","Match","Non_Exact","4642 DEER FOOT PATH, PINSON, AL, 35126",646688024,"R"
653139,"4642 E ST CATHERINE AVENUE","PHOENIX","AZ",85042,33.3887690500001,-111.981328184,139,"4642 E ST CATHERINE AVENUE, PHOENIX, AZ, 85042","Match","Exact","4642 E SAINT CATHERINE AVE, PHOENIX, AZ, 85042",128225101,"L"
653140,"4642 ELM TERRACE","SKOKIE","IL",60076,42.0348703810001,-87.743497674,140,"4642 ELM TERRACE, SKOKIE, IL, 60076","Match","Exact","4642 ELM TER, SKOKIE, IL, 60076",111740651,"R"
653141,"4642 EMPIRE AVENUE","JACKSONVILLE","FL",32207,30.3128328010001,-81.617348356,141,"4642 EMPIRE AVENUE, JACKSONVILLE, FL, 32207","Match","Exact","4642 EMPIRE AVE, JACKSONVILLE, FL, 32207",83901353,"R"
653142,"4642 FOREST SHADOW AVE","LAS VEGAS","NV",89139,36.029826584,-115.203045546,142,"4642 FOREST SHADOW AVE, LAS VEGAS, NV, 89139","Match","Exact","4642 FOREST SHADOW AVE, LAS VEGAS, NV, 89139",612686288,"R"
653143,"4642 HATFIELD STREET APMT 2","PITTSBURGH","PA",15201,40.4752606230001,-79.960538715,143,"4642 HATFIELD STREET APMT 2, PITTSBURGH, PA, 15201","Match","Exact","4642 HATFIELD ST, PITTSBURGH, PA, 15201",51641965,"R"
653144,"4642 HEATHERBEND CT","GROVE CITY","OH",43123,39.868143821,-83.061418257,144,"4642 HEATHERBEND CT, GROVE CITY, OH, 43123","Match","Non_Exact","4642 HEATHERBLEND CT, GROVE CITY, OH, 43123",135628212,"L"
653145,"4642 HIGHWAY 76 S","BROWNSVILLE","TN",38012,35.529026349,-89.251271437,145,"4642 HIGHWAY 76 S, BROWNSVILLE, TN, 38012","Match","Exact","4642 HWY 76 S, BROWNSVILLE, TN, 38012",639473174,"L"
653146,"4642 LEGACY LN","TURLOCK","CA",95382,37.535912051,-120.863602814,146,"4642 LEGACY LN, TURLOCK, CA, 95382","Match","Exact","4642 LEGACY LN, TURLOCK, CA, 95382",102643115,"R"
653147,"4642 LESLIE ANN LN","MOUNT PLEASANT","WI",53043,42.678624647,-87.8347727989999,147,"4642 LESLIE ANN LN, MOUNT PLEASANT, WI, 53043","Match","Non_Exact","4642 LESLIE ANN LN, MT PLEASANT, WI, 53403",77911625,"R"
653148,"4642 LILAC AVE","GLENVIEW","IL",60025,42.084246862,-87.872556751,148,"4642 LILAC AVE, GLENVIEW, IL, 60025","Match","Exact","4642 LILAC AVE, GLENVIEW, IL, 60025",111722755,"R"
653149,"4642 LOUISE AVENUE","ENCINO","CA",91316,34.1542252830001,-118.509263755,149,"4642 LOUISE AVENUE, ENCINO, CA, 91316","Match","Exact","4642 LOUISE AVE, ENCINO, CA, 91316",141556156,"R"
653150,"4642 MALONE COURT","RALEIGH","NC",27616,35.8634487850001,-78.565145399,150,"4642 MALONE COURT, RALEIGH, NC, 27616","Match","Exact","4642 MALONE CT, RALEIGH, NC, 27616",72660075,"R"
653151,"4642 MONUMENT CT","LAS CRUCES","NM",88011,32.3553164800001,-106.71923628,151,"4642 MONUMENT CT, LAS CRUCES, NM, 88011","Match","Exact","4642 MONUMENT CT, LAS CRUCES, NM, 88011",652158053,"R"
653152,"4642 N 40TH STREET","MILWAUKEE","WI",53209,43.1015675450001,-87.962734021,152,"4642 N 40TH STREET, MILWAUKEE, WI, 53209","Match","Exact","4642 N 40TH ST, MILWAUKEE, WI, 53209",77731516,"R"
653153,"4642 NE 29TH AVENUE","PORTLAND","OR",97211,45.5566609680001,-122.635864824,153,"4642 NE 29TH AVENUE, PORTLAND, OR, 97211","Match","Exact","4642 NE 29TH AVE, PORTLAND, OR, 97211",157506146,"R"
653154,"4642 NORTH BEECHWOOD DRIVE","MACON","GA",31210,32.8960399760001,-83.70924343,154,"4642 NORTH BEECHWOOD DRIVE, MACON, GA, 31210","Match","Exact","4642 N BEECHWOOD DR, MACON, GA, 31210",81056955,"L"
653155,"4642 NW 12TH PL","GAINESVILLE","FL",32605,29.66317209,-82.392706349,155,"4642 NW 12TH PL, GAINESVILLE, FL, 32605","Match","Exact","4642 NW 12TH PL, GAINESVILLE, FL, 32605",6812484,"R"
653156,"4642 ONTARIO DR","NEW PORT RICHEY","FL",34652,28.226139237,-82.7403811249999,156,"4642 ONTARIO DR, NEW PORT RICHEY, FL, 34652","Match","Exact","4642 ONTARIO DR, NEW PORT RICHEY, FL, 34652",86396574,"R"
653157,"4642 PINE STREET","ARKADELPHIA","AR",71923,34.1249505380001,-93.1250350019999,157,"4642 PINE STREET, ARKADELPHIA, AR, 71923","Match","Exact","4642 PINE ST, ARKADELPHIA, AR, 71923",10556809,"L"
653158,"4642 POND RUN","CANTON","MI",48188,42.271903674,-83.4974872349999,158,"4642 POND RUN, CANTON, MI, 48188","Match","Exact","4642 POND RUN, CANTON, MI, 48188",95695470,"R"
653159,"4642 ROBINS GROVE DR","ST LOUIS","MO",63034,38.8144290170001,-90.2696168269999,159,"4642 ROBINS GROVE DR, ST LOUIS, MO, 63034","Match","Non_Exact","4642 ROBBINS GROVE DR, FLORISSANT, MO, 63034",100198124,"L"
653160,"4642 SAWMILL LANE","PASADENA","TX",77505,29.640602793,-95.132306896,160,"4642 SAWMILL LANE, PASADENA, TX, 77505","Match","Exact","4642 SAWMILL LN, PASADENA, TX, 77505",96129168,"L"
653161,"4642 SE 43RD AVE","PORTLAND","OR",97206,45.488777451,-122.617778454,161,"4642 SE 43RD AVE, PORTLAND, OR, 97206","Match","Exact","4642 SE 43RD AVE, PORTLAND, OR, 97206",157515272,"L"
653162,"4642 STARVILLE","CHINA TOWNSHIP","MI",48054,42.7649275790001,-82.592118625,162,"4642 STARVILLE, CHINA TOWNSHIP, MI, 48054","Match","Non_Exact","4642 STARVILLE RD, CHINA, MI, 48054",110960384,"L"
653163,"4642 W MARKET STREET SUITE 316","GREENSBORO","NC",27407,36.0703446220001,-79.8664627919999,163,"4642 W MARKET STREET SUITE 316, GREENSBORO, NC, 27407","Match","Non_Exact","4642 W MARKET ST, GREENSBORO, NC, 27407",131028703,"R"
653164,"4642 WEST JEFFERSON BLVD","FORT WAYNE","IN",46804,NA,NA,164,"4642 WEST JEFFERSON BLVD, FORT WAYNE, IN, 46804","No_Match",NA,NA,NA,NA
653165,"4642 WILLIS AVE APT 210","SHERMAN OAKS","CA",91403,34.1547199120001,-118.455231314,165,"4642 WILLIS AVE APT 210, SHERMAN OAKS, CA, 91403","Match","Exact","4642 WILLIS AVE, SHERMAN OAKS, CA, 91403",141560898,"R"
653166,"46424 RUFUS BANKSTON RD","HAMMOND","LA",70401,30.530123883,-90.516612841,166,"46424 RUFUS BANKSTON RD, HAMMOND, LA, 70401","Match","Exact","46424 RUFUS BANKSTON RD, HAMMOND, LA, 70401",75775594,"R"
653167,"46425 MONTGOMERY PL","STERLING","VA",20165,39.042537602,-77.392080193,167,"46425 MONTGOMERY PL, STERLING, VA, 20165","Match","Exact","46425 MONTGOMERY PL, STERLING, VA, 20165",624540072,"L"
653168,"4643 192ND DR NE","SAMMAMISH","WA",98074,47.651613657,-122.082538515,168,"4643 192ND DR NE, SAMMAMISH, WA, 98074","Match","Exact","4643 192ND DR NE, SAMMAMISH, WA, 98074",186920774,"R"
653169,"4643 20TH ROAD 5","ARLINGTON","VA",22207,38.8973451050001,-77.120090843,169,"4643 20TH ROAD 5, ARLINGTON, VA, 22207","Match","Non_Exact","4643 20TH RD N, ARLINGTON, VA, 22207",76467918,"R"
653170,"4643 ALPINE SUITE B","COMSTOCK PARK","MI",49321,NA,NA,170,"4643 ALPINE SUITE B, COMSTOCK PARK, MI, 49321","No_Match",NA,NA,NA,NA
653171,"4643 CAMP COLEMAN ROAD 117","TRUSSVILLE","AL",35173,33.6377671550001,-86.5797886289999,171,"4643 CAMP COLEMAN ROAD 117, TRUSSVILLE, AL, 35173","Match","Exact","4643 CAMP COLEMAN RD, TRUSSVILLE, AL, 35173",635556276,"L"
653172,"4643 E 144TH PLACE S","BIXBY","OK",74008,35.953013974,-95.925212626,172,"4643 E 144TH PLACE S, BIXBY, OK, 74008","Match","Exact","4643 E 144TH PL S, BIXBY, OK, 74008",624535560,"L"
653173,"4643 E THOMAS ROAD   SUITE 5","PHOENIX","AZ",85018,33.480146087,-111.981435563,173,"4643 E THOMAS ROAD   SUITE 5, PHOENIX, AZ, 85018","Match","Non_Exact","4643 E THOMAS RD, PHOENIX, AZ, 85018",128223813,"R"
653174,"4643 E THOMAS ROAD SUITE 5","PHOENIX","AZ",85018,33.480146087,-111.981435563,174,"4643 E THOMAS ROAD SUITE 5, PHOENIX, AZ, 85018","Match","Non_Exact","4643 E THOMAS RD, PHOENIX, AZ, 85018",128223813,"R"
653175,"4643 E VIA AZUFRE","TUCSON","AZ",85712,32.2708259390001,-110.893539282,175,"4643 E VIA AZUFRE, TUCSON, AZ, 85712","Match","Exact","4643 E VIA AZUFRE, TUCSON, AZ, 85712",121398979,"L"
653176,"4643 EDDYSTONE CIRCLE","CLARKSTON","MI",48346,42.706110337,-83.420217661,176,"4643 EDDYSTONE CIRCLE, CLARKSTON, MI, 48346","Match","Exact","4643 EDDYSTONE CIR, CLARKSTON, MI, 48346",69692967,"L"
653177,"4643 GAYWOOD DRIVE","FORT WAYNE","IN",46806,41.0422363660001,-85.1225974019999,177,"4643 GAYWOOD DRIVE, FORT WAYNE, IN, 46806","Match","Exact","4643 GAYWOOD DR, FORT WAYNE, IN, 46806",6382907,"L"
653178,"4643 GEORGETOWN PLACE","VIRGINIA BEACH","VA",23455,36.862608084,-76.1360304569999,178,"4643 GEORGETOWN PLACE, VIRGINIA BEACH, VA, 23455","Match","Exact","4643 GEORGETOWN PL, VIRGINIA BCH, VA, 23455",122294080,"R"
653179,"4643 LOS FELIZ BLVD APT 406","LOS ANGELES","CA",90027,34.111339758,-118.290420307,179,"4643 LOS FELIZ BLVD APT 406, LOS ANGELES, CA, 90027","Match","Exact","4643 LOS FELIZ BLVD, LOS ANGELES, CA, 90027",141597543,"R"
653180,"4643 LOS FELIZ BOULEVARD","LOS ANGELES","CA",90027,34.111339758,-118.290420307,180,"4643 LOS FELIZ BOULEVARD, LOS ANGELES, CA, 90027","Match","Exact","4643 LOS FELIZ BLVD, LOS ANGELES, CA, 90027",141597543,"R"
653181,"4643 LYNDALE AVENUE NORTH APT 270","MINNEAPOLIS","MN",55412,45.0393343970001,-93.287337308,181,"4643 LYNDALE AVENUE NORTH APT 270, MINNEAPOLIS, MN, 55412","Match","Exact","4643 LYNDALE AVE N, MINNEAPOLIS, MN, 55412",43832590,"L"
653182,"4643 MUDDY FORD RD","GEORGETOWN","KY",40324,38.2778416940001,-84.5008970059999,182,"4643 MUDDY FORD RD, GEORGETOWN, KY, 40324","Match","Exact","4643 MUDDY FORD RD, GEORGETOWN, KY, 40324",41239196,"R"
653183,"4643 N CENTRAL PARK AVE","CHICAGO","IL",60625,41.9655270470001,-87.718157678,183,"4643 N CENTRAL PARK AVE, CHICAGO, IL, 60625","Match","Non_Exact","4643 N CENTRAL PARK AVE, CHICAGO, IL, 60625",111756531,"R"
653184,"4643 NE 29TH AVENUE","PORTLAND","OR",97211,45.556661037,-122.635880483,184,"4643 NE 29TH AVENUE, PORTLAND, OR, 97211","Match","Exact","4643 NE 29TH AVE, PORTLAND, OR, 97211",157506146,"L"
653185,"4643 PRISCILLA ST","MEMPHIS","TN",38128,35.208696747,-89.90866733,185,"4643 PRISCILLA ST, MEMPHIS, TN, 38128","Match","Non_Exact","4643 PRISCILLA AVE, MEMPHIS, TN, 38128",72914762,"R"
653186,"4643 S CLYDE MORRIS BLVD UNIT 302","PORT ORANGE","FL",32129,29.1278166320001,-81.0253378799999,186,"4643 S CLYDE MORRIS BLVD UNIT 302, PORT ORANGE, FL, 32129","Match","Non_Exact","4643 S CLYDE MORRIS BLVD, PORT ORANGE, FL, 32129",94543173,"L"
653187,"4643 S CLYDE MORRIS BLVD","PORT ORANGE","FL",32129,29.1278166320001,-81.0253378799999,187,"4643 S CLYDE MORRIS BLVD, PORT ORANGE, FL, 32129","Match","Exact","4643 S CLYDE MORRIS BLVD, PORT ORANGE, FL, 32129",94543173,"L"
653188,"4643 S WABASH APT 315","CHICAGO","IL",60653,NA,NA,188,"4643 S WABASH APT 315, CHICAGO, IL, 60653","No_Match",NA,NA,NA,NA
653189,"4643 S WABASH AVE UNIT 315","CHICAGO","IL",60653,41.8102643830001,-87.624475076,189,"4643 S WABASH AVE UNIT 315, CHICAGO, IL, 60653","Match","Non_Exact","4643 S WABASH AVE, CHICAGO, IL, 60653",111770571,"L"
653190,"4643 S WABASH UNIT 315","CHICAGO","IL",60653,NA,NA,190,"4643 S WABASH UNIT 315, CHICAGO, IL, 60653","No_Match",NA,NA,NA,NA
653191,"4643 SAINT FERDINAND AVENUE","SAINT LOUIS","MO",63113,38.6635819150001,-90.249449041,191,"4643 SAINT FERDINAND AVENUE, SAINT LOUIS, MO, 63113","Match","Exact","4643 SAINT FERDINAND AVE, SAINT LOUIS, MO, 63113",107595605,"R"
653192,"4643 SOUTH ATLANTIC AVENUE","NEW SMYRNA BEACH","FL",32169,28.986597821,-80.865288042,192,"4643 SOUTH ATLANTIC AVENUE, NEW SMYRNA BEACH, FL, 32169","Match","Exact","4643 S ATLANTIC AVE, NEW SMYRNA BEACH, FL, 32169",94576420,"L"
653193,"4643 SOUTH RIDGEWALK DRIVE","HOUSTON","TX",77053,29.5816393760001,-95.45659791,193,"4643 SOUTH RIDGEWALK DRIVE, HOUSTON, TX, 77053","Match","Exact","4643 S RIDGEWALK DR, HOUSTON, TX, 77053",78295519,"R"
653194,"4643 SOUTH ULSTER","DENVER","CO",80237,39.630896749,-104.896465123,194,"4643 SOUTH ULSTER, DENVER, CO, 80237","Match","Non_Exact","4643 S ULSTER ST, DENVER, CO, 80237",632903478,"R"
653195,"4643 STILL MEADOWS ST","LIBERTY","TX",77575,30.093446708,-94.7416126909999,195,"4643 STILL MEADOWS ST, LIBERTY, TX, 77575","Match","Exact","4643 STILL MEADOWS ST, LIBERTY, TX, 77575",637598369,"L"
653196,"4643 SUMMERHAYS PL","SANTA ROSA","CA",95405,38.440520662,-122.662599684,196,"4643 SUMMERHAYS PL, SANTA ROSA, CA, 95405","Match","Exact","4643 SUMMERHAYS PL, SANTA ROSA, CA, 95405",629428897,"R"
653197,"4643 W 189TH ST","COUNTRY CLUB HILLS","IL",60478,41.5457206,-87.729518602,197,"4643 W 189TH ST, COUNTRY CLUB HILLS, IL, 60478","Match","Exact","4643 189TH ST, COUNTRY CLUB HILLS, IL, 60478",111707590,"L"
653198,"46430 SD HWY 38","HARTFORD","SD",57033,43.616649216,-96.9247218,198,"46430 SD HWY 38, HARTFORD, SD, 57033","Match","Non_Exact","46430 STATE HWY 38, HARTFORD, SD, 57033",35011221,"R"
653199,"46438 LITTLE CREEK CT","KING CITY","CA",93930,36.1743982240001,-121.151774499,199,"46438 LITTLE CREEK CT, KING CITY, CA, 93930","Match","Exact","46438 LITTLE CREEK CT, KING CITY, CA, 93930",196855359,"R"
653200,"4644 141 ST","CHIPPEWA FALLS","WI",54729,44.910337231,-91.385958578,200,"4644 141 ST, CHIPPEWA FALLS, WI, 54729","Match","Exact","4644 141ST ST, CHIPPEWA FALLS, WI, 54729",635808225,"L"
653201,"4644 ALDRICH AVENUE SOUTH","MINNEAPOLIS","MN",55419,44.9187335770001,-93.289588325,201,"4644 ALDRICH AVENUE SOUTH, MINNEAPOLIS, MN, 55419","Match","Exact","4644 ALDRICH AVE S, MINNEAPOLIS, MN, 55419",43629083,"R"
653202,"4644 ALDRICH AVENUE","MINNEAPOLIS","MN",55419,44.9187335770001,-93.289588325,202,"4644 ALDRICH AVENUE, MINNEAPOLIS, MN, 55419","Match","Non_Exact","4644 ALDRICH AVE S, MINNEAPOLIS, MN, 55419",43629083,"R"
653203,"4644 CASTER AVE","PHILADELPHIA","PA",19124,40.0207441060001,-75.09479133,203,"4644 CASTER AVE, PHILADELPHIA, PA, 19124","Match","Non_Exact","4644 CASTOR AVE, PHILADELPHIA, PA, 19124",131426904,"L"
653204,"4644 CEDAR AVENUE SOUTH UNIT 306","MINNEAPOLIS","MN",55407,44.9188859880001,-93.247274991,204,"4644 CEDAR AVENUE SOUTH UNIT 306, MINNEAPOLIS, MN, 55407","Match","Exact","4644 CEDAR AVE S, MINNEAPOLIS, MN, 55407",43639359,"R"
653205,"4644 CHERUB WAY","TRACY","CA",95377,37.6980926430001,-121.42682109,205,"4644 CHERUB WAY, TRACY, CA, 95377","Match","Exact","4644 CHERUB WAY, TRACY, CA, 95377",133921369,"R"
653206,"4644 CHUTUOTA ROAD","ORLANDO","FL",32120,NA,NA,206,"4644 CHUTUOTA ROAD, ORLANDO, FL, 32120","No_Match",NA,NA,NA,NA
653207,"4644 DON ZAREMBO DR","LOS ANGELES","CA",90008,34.0043546370001,-118.356054148,207,"4644 DON ZAREMBO DR, LOS ANGELES, CA, 90008","Match","Exact","4644 DON ZAREMBO DR, LOS ANGELES, CA, 90008",141601503,"L"
653208,"4644 FLATLICK BRANCH DRIVE","CHANTILLY","VA",20151,38.8766141140001,-77.434412214,208,"4644 FLATLICK BRANCH DRIVE, CHANTILLY, VA, 20151","Match","Exact","4644 FLATLICK BRANCH DR, CHANTILLY, VA, 20151",215918662,"R"
653209,"4644 GUMWOOD DR","SALEM","VA",24153,37.248121951,-80.14055755,209,"4644 GUMWOOD DR, SALEM, VA, 24153","Match","Non_Exact","4644 GUMWOOD LN, SALEM, VA, 24153",62919766,"L"
653210,"4644 HARTS BROOK LANE","MULBERRY","FL",33860,27.9225383680001,-82.0360602059999,210,"4644 HARTS BROOK LANE, MULBERRY, FL, 33860","Match","Exact","4644 HARTS BROOK LN, MULBERRY, FL, 33860",619666922,"L"
653211,"4644 HOBSON DR","COLUMBUS","OH",43228,39.9121439460001,-83.115952911,211,"4644 HOBSON DR, COLUMBUS, OH, 43228","Match","Exact","4644 HOBSON DR, COLUMBUS, OH, 43228",218644297,"L"
653212,"4644 LOCUST ST","PHILADELPHIA","PA",19139,39.9544907690001,-75.215131985,212,"4644 LOCUST ST, PHILADELPHIA, PA, 19139","Match","Exact","4644 LOCUST ST, PHILADELPHIA, PA, 19139",131399775,"L"
653213,"4644 MANOR DRIVE","GAINESVILLE","GA",30506,34.4126151090001,-83.8349686289999,213,"4644 MANOR DRIVE, GAINESVILLE, GA, 30506","Match","Exact","4644 MANOR DR, GAINESVILLE, GA, 30506",618451395,"R"
653214,"4644 N 22ND STREET UNIT 2014","PHOENIX","AZ",85016,33.5032732550001,-112.034552222,214,"4644 N 22ND STREET UNIT 2014, PHOENIX, AZ, 85016","Match","Non_Exact","4644 N 22ND ST, PHOENIX, AZ, 85016",128209843,"L"
653215,"4644 NEWNAN RD","GRIFFIN","GA",30223,33.2409124160001,-84.3947563359999,215,"4644 NEWNAN RD, GRIFFIN, GA, 30223","Match","Exact","4644 NEWNAN RD, GRIFFIN, GA, 30223",642548602,"R"
653216,"4644 NORTH 22ND STREET UNIT 2123","PHOENIX","AZ",85016,33.503262254,-112.034552247,216,"4644 NORTH 22ND STREET UNIT 2123, PHOENIX, AZ, 85016","Match","Exact","4644 N 22ND ST, PHOENIX, AZ, 85016",128209843,"L"
653217,"4644 NORWAY DRIVE","JACKSON","MS",39206,32.37446128,-90.184504046,217,"4644 NORWAY DRIVE, JACKSON, MS, 39206","Match","Exact","4644 NORWAY DR, JACKSON, MS, 39206",65360164,"R"
653218,"4644 PARK HEIGHTS AVE","BALTMORE","MD",21215,39.3435140450001,-76.669835387,218,"4644 PARK HEIGHTS AVE, BALTMORE, MD, 21215","Match","Non_Exact","4644 PARK HEIGHTS AVE, BALTIMORE, MD, 21215",206406202,"L"
653219,"4644 PARKWAY CIRCLE","ATLANTA","GA",30349,33.634075696,-84.513685589,219,"4644 PARKWAY CIRCLE, ATLANTA, GA, 30349","Match","Exact","4644 PARKWAY CIR, ATLANTA, GA, 30349",635310730,"L"
653220,"4644 PLOUGH TAVERN ROAD","DOYLESTOWN","PA",18902,40.3709550900001,-75.109726672,220,"4644 PLOUGH TAVERN ROAD, DOYLESTOWN, PA, 18902","Match","Exact","4644 PLOUGH TAVERN RD, DOYLESTOWN, PA, 18902",647089966,"L"
653221,"4644 PORT SHELDON ST","HUDSONVILLE","MI",49426,42.885199587,-85.898001107,221,"4644 PORT SHELDON ST, HUDSONVILLE, MI, 49426","Match","Exact","4644 PORT SHELDON ST, HUDSONVILLE, MI, 49426",618702102,"L"
653222,"4644 POWDER SPRINGS DALLAS RD 151","POWDER SPRINGS","GA",30127,33.862671445,-84.6895737359999,222,"4644 POWDER SPRINGS DALLAS RD 151, POWDER SPRINGS, GA, 30127","Match","Non_Exact","4644 POWDER SPRINGS-DALLAS RD, POWDER SPGS, GA, 30127",643023803,"R"
653223,"4644 POWDER SPRINGS DALLAS RD 1516","POWDER SPRINGS","GA",30127,33.862671445,-84.6895737359999,223,"4644 POWDER SPRINGS DALLAS RD 1516, POWDER SPRINGS, GA, 30127","Match","Non_Exact","4644 POWDER SPRINGS-DALLAS RD, POWDER SPGS, GA, 30127",643023803,"R"
653224,"4644 POWDER SPRINGS DALLAS RD 2235","POWDER SPRINGS","GA",30127,33.862671445,-84.6895737359999,224,"4644 POWDER SPRINGS DALLAS RD 2235, POWDER SPRINGS, GA, 30127","Match","Non_Exact","4644 POWDER SPRINGS-DALLAS RD, POWDER SPGS, GA, 30127",643023803,"R"
653225,"4644 POWDER SPRINGS DALLAS RD 2542","POWDER SPRINGS","GA",30127,33.862671445,-84.6895737359999,225,"4644 POWDER SPRINGS DALLAS RD 2542, POWDER SPRINGS, GA, 30127","Match","Non_Exact","4644 POWDER SPRINGS-DALLAS RD, POWDER SPGS, GA, 30127",643023803,"R"
653226,"4644 POWDER SPRINGS DALLAS RD 396","POWDER SPRINGS","GA",30127,33.862671445,-84.6895737359999,226,"4644 POWDER SPRINGS DALLAS RD 396, POWDER SPRINGS, GA, 30127","Match","Non_Exact","4644 POWDER SPRINGS-DALLAS RD, POWDER SPGS, GA, 30127",643023803,"R"
653227,"4644 POWDER SPRINGS DALLAS RD 961","POWDER SPRINGS","GA",30127,33.862671445,-84.6895737359999,227,"4644 POWDER SPRINGS DALLAS RD 961, POWDER SPRINGS, GA, 30127","Match","Non_Exact","4644 POWDER SPRINGS-DALLAS RD, POWDER SPGS, GA, 30127",643023803,"R"
653228,"4644 POWER SPRINGS DALLAS ROAD","POWDER SPRINGS","GA",30127,33.862671445,-84.6895737359999,228,"4644 POWER SPRINGS DALLAS ROAD, POWDER SPRINGS, GA, 30127","Match","Non_Exact","4644 POWDER SPRINGS-DALLAS RD, POWDER SPGS, GA, 30127",643023803,"R"
653229,"4644 S DEARBORN","CHICAGO","IL",60609,41.8098035370001,-87.627183277,229,"4644 S DEARBORN, CHICAGO, IL, 60609","Match","Non_Exact","4644 S DEARBORN ST, CHICAGO, IL, 60609",111830560,"R"
653230,"4644 S SUNSTONE RD APT 256","MURRAY","UT",84123,40.6703293630001,-111.910630324,230,"4644 S SUNSTONE RD APT 256, MURRAY, UT, 84123","Match","Exact","4644 SUNSTONE RD, MURRAY, UT, 84123",645581975,"R"
653231,"4644 STANDARD WAY APT 516","FORT WORTH","TX",76179,NA,NA,231,"4644 STANDARD WAY APT 516, FORT WORTH, TX, 76179","No_Match",NA,NA,NA,NA
653232,"4644 SUNNYBROOK DR","PLANO","TX",75093,33.049751928,-96.787541236,232,"4644 SUNNYBROOK DR, PLANO, TX, 75093","Match","Exact","4644 SUNNYBROOK DR, PLANO, TX, 75093",123532271,"R"
653233,"4644 TIMBER WOLF TRL","COLORADO SPRINGS","CO",80920,38.964248065,-104.742099742,233,"4644 TIMBER WOLF TRL, COLORADO SPRINGS, CO, 80920","Match","Exact","4644 TIMBER WOLF TRL, CO SPGS, CO, 80920",105574463,"R"
653234,"4644 TWILIGHT COVE","PEARL","MS",39208,32.2898686020001,-90.103804915,234,"4644 TWILIGHT COVE, PEARL, MS, 39208","Match","Exact","4644 TWILIGHT COVE, PEARL, MS, 39208",116918173,"R"
653235,"4644 US HIGHWAY 301","ROWLAND","NC",28383,34.5798716250001,-79.175542416,235,"4644 US HIGHWAY 301, ROWLAND, NC, 28383","Match","Exact","4644 US HWY 301, ROWLAND, NC, 28383",608091642,"L"
653236,"4644 VISTA BUENA RD","SANTA BARBARA","CA",93110,34.436269125,-119.781721269,236,"4644 VISTA BUENA RD, SANTA BARBARA, CA, 93110","Match","Exact","4644 VISTA BUENA RD, SANTA BARBARA, CA, 93110",108602426,"R"
653237,"4644 W  M14","QUARTZ HILL","CA",93536,NA,NA,237,"4644 W  M14, QUARTZ HILL, CA, 93536","No_Match",NA,NA,NA,NA
653238,"4644 W M14","QUARTZ HILL","CA",93536,NA,NA,238,"4644 W M14, QUARTZ HILL, CA, 93536","No_Match",NA,NA,NA,NA
653239,"4644 WHITEHAVEN STREET","BATON ROUGE","LA",70808,30.4072500350001,-91.147083688,239,"4644 WHITEHAVEN STREET, BATON ROUGE, LA, 70808","Match","Exact","4644 WHITEHAVEN ST, BATON ROUGE, LA, 70808",92185504,"R"
653240,"46440 FISH LAKE RD","HALFWAY","OR",97834,44.8883441620001,-117.114141574,240,"46440 FISH LAKE RD, HALFWAY, OR, 97834","Match","Exact","46440 FISH LAKE RD, HALFWAY, OR, 97834",629925376,"L"
653241,"46444 S 591 RD","JAY","OK",74346,36.3457005070001,-94.8241397799999,241,"46444 S 591 RD, JAY, OK, 74346","Match","Exact","46444 S 591 RD, JAY, OK, 74346",627171289,"L"
653242,"46448 262ND STREET","HARTFORD","SD",57033,43.5872383190001,-96.925208842,242,"46448 262ND STREET, HARTFORD, SD, 57033","Match","Exact","46448 262ND ST, HARTFORD, SD, 57033",34965142,"R"
653243,"4645 3RD AVENUE SW","NAPLES","FL",34119,26.223199661,-81.700276125,243,"4645 3RD AVENUE SW, NAPLES, FL, 34119","Match","Exact","4645 3RD AVE SW, NAPLES, FL, 34119",636361805,"L"
653244,"4645 ALMA PLACE","SAN DIEGO","CA",92115,32.761888465,-117.080156465,244,"4645 ALMA PLACE, SAN DIEGO, CA, 92115","Match","Exact","4645 ALMA PL, SAN DIEGO, CA, 92115",195350221,"R"
653245,"4645 BEHLMANN ESTATES LANE","FLORISSANT","MO",63034,38.8158650510001,-90.260592959,245,"4645 BEHLMANN ESTATES LANE, FLORISSANT, MO, 63034","Match","Exact","4645 BEHLMANN ESTATES LN, FLORISSANT, MO, 63034",604551080,"R"
653246,"4645 BROADWAY APT 1","BOULDER","CO",80304,40.0591569960001,-105.282133757,246,"4645 BROADWAY APT 1, BOULDER, CO, 80304","Match","Non_Exact","4645 BROADWAY ST, BOULDER, CO, 80304",624078328,"L"
653247,"4645 CALDERON AVE UNIT 2","MOUNTAIN VIEW","CA",95041,NA,NA,247,"4645 CALDERON AVE UNIT 2, MOUNTAIN VIEW, CA, 95041","No_Match",NA,NA,NA,NA
653248,"4645 CAMPUS CIR","ANCHORAGE","AK",99507,61.178761863,-149.821351937,248,"4645 CAMPUS CIR, ANCHORAGE, AK, 99507","Match","Exact","4645 CAMPUS CIR, ANCHORAGE, AK, 99507",190799863,"L"
653249,"4645 COLISEUM ST  APT 2","LOS ANGELES","CA",90016,34.0173424020001,-118.347969443,249,"4645 COLISEUM ST  APT 2, LOS ANGELES, CA, 90016","Match","Exact","4645 COLISEUM ST, LOS ANGELES, CA, 90016",637366966,"R"
653250,"4645 DOLPHIN ROAD 113","DALLAS","TX",75223,32.779121119,-96.7377367289999,250,"4645 DOLPHIN ROAD 113, DALLAS, TX, 75223","Match","Exact","4645 DOLPHIN RD, DALLAS, TX, 75223",635764402,"L"
653251,"4645 E MARILYN RD","PHOENIX","AZ",85032,33.62069761,-111.981428643,251,"4645 E MARILYN RD, PHOENIX, AZ, 85032","Match","Exact","4645 E MARILYN RD, PHOENIX, AZ, 85032",128281051,"L"
653252,"4645 E NOCONA LANE","PHOENIX","AZ",85050,33.693418362,-111.971557116,252,"4645 E NOCONA LANE, PHOENIX, AZ, 85050","Match","Exact","4645 E NOCONA LN, PHOENIX, AZ, 85050",646789797,"R"
653253,"4645 E PHILADELPHIA","LAS VEGAS","NV",89104,36.1498038840001,-115.073283579,253,"4645 E PHILADELPHIA, LAS VEGAS, NV, 89104","Match","Non_Exact","4645 E PHILADELPHIA AVE, LAS VEGAS, NV, 89104",201875778,"R"
653254,"4645 ELM RIDGE COURT","STONE MOUNTAIN","GA",30083,NA,NA,254,"4645 ELM RIDGE COURT, STONE MOUNTAIN, GA, 30083","No_Match",NA,NA,NA,NA
653255,"4645 ELM RIDGE CT","STONE MOUNTAIN","GA",30083,NA,NA,255,"4645 ELM RIDGE CT, STONE MOUNTAIN, GA, 30083","No_Match",NA,NA,NA,NA
653256,"4645 ELM TERRACE","SKOKIE","IL",60076,42.0348594160001,-87.743536666,256,"4645 ELM TERRACE, SKOKIE, IL, 60076","Match","Exact","4645 ELM TER, SKOKIE, IL, 60076",111740651,"L"
653257,"4645 FOWLER DR","MORRISTOWN","TN",37814,36.282332066,-83.2559715089999,257,"4645 FOWLER DR, MORRISTOWN, TN, 37814","Match","Exact","4645 FOWLER DR, MORRISTOWN, TN, 37814",624014273,"L"
653258,"4645 GANN STORE ROAD","HIXSON","TN",37343,35.1155418710001,-85.208355134,258,"4645 GANN STORE ROAD, HIXSON, TN, 37343","Match","Exact","4645 GANN STORE RD, HIXSON, TN, 37343",616175980,"R"
653259,"4645 GREEN ROAD","WARRENSVILLE HTS.","OH",44128,41.433840768,-81.517023635,259,"4645 GREEN ROAD, WARRENSVILLE HTS., OH, 44128","Match","Exact","4645 GREEN RD, WARRENSVILLE HEIGHTS, OH, 44128",61167315,"L"
653260,"4645 HAWTHORNE LANE NW","WASHINGTON","DC",20016,38.92894434,-77.0916409659999,260,"4645 HAWTHORNE LANE NW, WASHINGTON, DC, 20016","Match","Exact","4645 HAWTHORNE LN NW, WASHINGTON, DC, 20016",76220094,"R"
653261,"4645 HEATHERWOOD WAY","PACE","FL",32571,30.6318127650001,-87.129333913,261,"4645 HEATHERWOOD WAY, PACE, FL, 32571","Match","Exact","4645 HEATHERWOOD WAY, PACE, FL, 32571",74578423,"L"
653262,"4645 HIGHLINE PLACE","DENVER","CO",80222,39.6598323440001,-104.933405317,262,"4645 HIGHLINE PLACE, DENVER, CO, 80222","Match","Exact","4645 HIGHLINE PL, DENVER, CO, 80222",177341047,"L"
653263,"4645 HILLVIEW DR","LA MESA","CA",91941,32.7614060820001,-116.975882516,263,"4645 HILLVIEW DR, LA MESA, CA, 91941","Match","Exact","4645 HILLVIEW DR, LA MESA, CA, 91941",195362416,"R"
653264,"4645 ISLAND VIEW DRIVE","MOUND","MN",55364,44.9194476150001,-93.641043888,264,"4645 ISLAND VIEW DRIVE, MOUND, MN, 55364","Match","Exact","4645 ISLAND VIEW DR, MOUND, MN, 55364",43653634,"L"
653265,"4645 JACKYBELL TRL","DECATUR","GA",30034,33.6852081760001,-84.202963827,265,"4645 JACKYBELL TRL, DECATUR, GA, 30034","Match","Exact","4645 JACKYBELL TRL, DECATUR, GA, 30034",23383593,"R"
653266,"4645 MARLOMA DR","ROLLING HILLS ESTATE","CA",90274,33.7904030170001,-118.36144612,266,"4645 MARLOMA DR, ROLLING HILLS ESTATE, CA, 90274","Match","Non_Exact","4645 MARLOMA DR, ROLLING HILLS, CA, 90274",141687477,"R"
653267,"4645 MC 3024","YELLVILLE","AR",72687,36.26634978,-92.785485266,267,"4645 MC 3024, YELLVILLE, AR, 72687","Match","Non_Exact","4645 CO RD 3024, YELLVILLE, AR, 72687",649398356,"R"
653268,"4645 MYSTIC DRIVE","SANDY SPRINGS","GA",30342,33.881363376,-84.383639515,268,"4645 MYSTIC DRIVE, SANDY SPRINGS, GA, 30342","Match","Non_Exact","4645 MYSTIC DR NE, SANDY SPRINGS, GA, 30342",17334561,"R"
653269,"4645 N MAGNOLIA AVE UNIT GS","CHICAGO","IL",60640,41.9661998120001,-87.661061654,269,"4645 N MAGNOLIA AVE UNIT GS, CHICAGO, IL, 60640","Match","Non_Exact","4645 N MAGNOLIA AVE, CHICAGO, IL, 60640",111761575,"R"
653270,"4645 NANNIE HELEN BURROUGHS AVENUE","WASHINGTON","DC",20019,38.899051807,-76.934232602,270,"4645 NANNIE HELEN BURROUGHS AVENUE, WASHINGTON, DC, 20019","Match","Non_Exact","4645 NANNIE HELEN BURROUGHS AVE NE, WASHINGTON, DC, 20019",76233524,"R"
653271,"4645 NANNIE HELEN BURROUGHS AVENUE","WASHINGTON, DC","DC",20019,38.899051807,-76.934232602,271,"4645 NANNIE HELEN BURROUGHS AVENUE, WASHINGTON, DC, DC, 20019","Match","Non_Exact","4645 NANNIE HELEN BURROUGHS AVE NE, WASHINGTON, DC, 20019",76233524,"R"
653272,"4645 NE JOHNS AVE UNIT 8","NEOTSU","OR",97364,44.9990275480001,-123.987629151,272,"4645 NE JOHNS AVE UNIT 8, NEOTSU, OR, 97364","Match","Non_Exact","4645 NE JOHNS AVE, NEOTSU, OR, 97364",604702888,"L"
653273,"4645 NH BURROUGHS AVE NE STE 20","WASHINGTON","DC",20019,NA,NA,273,"4645 NH BURROUGHS AVE NE STE 20, WASHINGTON, DC, 20019","No_Match",NA,NA,NA,NA
653274,"4645 NORTH MARILYN ROAD","PHOENIX","AZ",85032,33.6206979080001,-111.981443825,274,"4645 NORTH MARILYN ROAD, PHOENIX, AZ, 85032","Match","Non_Exact","4645 E MARILYN RD, PHOENIX, AZ, 85032",128281051,"L"
653275,"4645 PALACE AVE","WINSTON-SALEM","NC",27101,36.1337570580001,-80.171085477,275,"4645 PALACE AVE, WINSTON-SALEM, NC, 27101","Match","Exact","4645 PALACE AVE, WINSTON SALEM, NC, 27101",84688633,"R"
653276,"4645 PATRICIAN BLVD","WILMINGTON","DE",19808,39.720316149,-75.656315671,276,"4645 PATRICIAN BLVD, WILMINGTON, DE, 19808","Match","Exact","4645 PATRICIAN BLVD, WILMINGTON, DE, 19808",187266275,"L"
653277,"4645 PHILPOT HEIGHTS","PHILPOT","KY",42366,37.7304709950001,-86.9893382449999,277,"4645 PHILPOT HEIGHTS, PHILPOT, KY, 42366","Match","Exact","4645 PHILPOT HTS, PHILPOT, KY, 42366",37565014,"L"
653278,"4645 PLANO PARKWAY 13214","CARROLLTON","TX",75010,NA,NA,278,"4645 PLANO PARKWAY 13214, CARROLLTON, TX, 75010","No_Match",NA,NA,NA,NA
653279,"4645 PLANO PARKWAY 2204","CARROLLTON","TX",75010,NA,NA,279,"4645 PLANO PARKWAY 2204, CARROLLTON, TX, 75010","No_Match",NA,NA,NA,NA
653280,"4645 PLANO PARKWAY","CARROLLTON","TX",75010,NA,NA,280,"4645 PLANO PARKWAY, CARROLLTON, TX, 75010","No_Match",NA,NA,NA,NA
653281,"4645 PLANO PARKWAY","CARROLTON","TX",75010,NA,NA,281,"4645 PLANO PARKWAY, CARROLTON, TX, 75010","No_Match",NA,NA,NA,NA
653282,"4645 PLANTATION DRIVE","FAIR OAKS","CA",95628,38.6483444510001,-121.297108554,282,"4645 PLANTATION DRIVE, FAIR OAKS, CA, 95628","Match","Exact","4645 PLANTATION DR, FAIR OAKS, CA, 95628",133410014,"L"
653283,"4645 POPLAR RIDGE DR","FORT WORTH","TX",76123,32.6132557400001,-97.395689998,283,"4645 POPLAR RIDGE DR, FORT WORTH, TX, 76123","Match","Exact","4645 POPLAR RIDGE DR, FORT WORTH, TX, 76123",619865787,"L"
653284,"4645 RIDGEWOOD ROAD","JACKSON","MS",39211,32.3571661190001,-90.14183882,284,"4645 RIDGEWOOD ROAD, JACKSON, MS, 39211","Match","Exact","4645 RIDGEWOOD RD, JACKSON, MS, 39211",65373336,"L"
653285,"4645 RIVERMAN WAY","LEXINGTON","KY",40515,37.9574316910001,-84.489105323,285,"4645 RIVERMAN WAY, LEXINGTON, KY, 40515","Match","Exact","4645 RIVERMAN WAY, LEXINGTON, KY, 40515",31934240,"R"
653286,"4645 SEABISCUIT STREET","CARROLLTON","TX",75010,33.0366658390001,-96.870859589,286,"4645 SEABISCUIT STREET, CARROLLTON, TX, 75010","Match","Exact","4645 SEABISCUIT ST, CARROLLTON, TX, 75010",641518702,"L"
653287,"4645 SEMINARY RD APT 301","ALEXANDRIA","VA",22304,38.8267309060001,-77.109349257,287,"4645 SEMINARY RD APT 301, ALEXANDRIA, VA, 22304","Match","Exact","4645 SEMINARY RD, ALEXANDRIA, VA, 22304",76065598,"R"
653288,"4645 SOUTH PARK DRIVE","FORT WAYNE","IN",46806,41.0419967,-85.1246882739999,288,"4645 SOUTH PARK DRIVE, FORT WAYNE, IN, 46806","Match","Exact","4645 S PARK DR, FORT WAYNE, IN, 46806",6382892,"L"
653289,"4645 SOUTH TROPICAL TRAIL","MERRITT ISLAND","FL",32952,28.2752819780001,-80.665456992,289,"4645 SOUTH TROPICAL TRAIL, MERRITT ISLAND, FL, 32952","Match","Exact","4645 S TROPICAL TRL, MERRITT ISLAND, FL, 32952",93956550,"R"
653290,"4645 SPRING VALLEY CIRCLE  COLLEGE","COLLEGE PARK","GA",30349,33.629617797,-84.5058077589999,290,"4645 SPRING VALLEY CIRCLE  COLLEGE, COLLEGE PARK, GA, 30349","Match","Exact","4645 SPRING VALLEY CIR, COLLEGE PARK, GA, 30349",17338852,"R"
653291,"4645 TEMPE CT","INDIANAPOLIS","IN",46241,39.7169854200001,-86.241699865,291,"4645 TEMPE CT, INDIANAPOLIS, IN, 46241","Match","Exact","4645 TEMPE CT, INDIANAPOLIS, IN, 46241",108005006,"L"
653292,"4645 TRENTON CIRCLE","PLYMOUTH","MN",55442,45.037901649,-93.414347365,292,"4645 TRENTON CIRCLE, PLYMOUTH, MN, 55442","Match","Non_Exact","4645 TRENTON CIR N, PLYMOUTH, MN, 55442",43857173,"L"
653293,"4645 VALAIS COURT 123","ALPHARETTA","GA",30022,34.0470042790001,-84.225671662,293,"4645 VALAIS COURT 123, ALPHARETTA, GA, 30022","Match","Exact","4645 VALAIS CT, ALPHARETTA, GA, 30022",17397203,"L"
653294,"4645 VALAIS COURT UNIT 128","JOHNS CREEK","GA",30022,34.0470042790001,-84.225671662,294,"4645 VALAIS COURT UNIT 128, JOHNS CREEK, GA, 30022","Match","Exact","4645 VALAIS CT, JOHNS CREEK, GA, 30022",17397203,"L"
653295,"4645 VALAIS CT 74","ALPHARETTA","GA",30222,34.0470042790001,-84.225671662,295,"4645 VALAIS CT 74, ALPHARETTA, GA, 30222","Match","Non_Exact","4645 VALAIS CT, ALPHARETTA, GA, 30022",17397203,"L"
653296,"4645 W STILES ROAD","HOBBS","NM",88242,32.85644439,-103.199160223,296,"4645 W STILES ROAD, HOBBS, NM, 88242","Match","Exact","4645 W STILES RD, HOBBS, NM, 88242",647647336,"L"
653297,"4645 WASTON ST","LORIS","SC",29569,NA,NA,297,"4645 WASTON ST, LORIS, SC, 29569","No_Match",NA,NA,NA,NA
653298,"4645 WEST AVENUE L","QUARTZ HILL","CA",93536,34.6602494050001,-118.213151488,298,"4645 WEST AVENUE L, QUARTZ HILL, CA, 93536","Match","Exact","4645 W AVE L, QUARTZ HILL, CA, 93536",241249142,"L"
653299,"4645 WOODHURST DRIVE APT 6","YOUNGSTOWN","OH",44515,41.08919594,-80.740775844,299,"4645 WOODHURST DRIVE APT 6, YOUNGSTOWN, OH, 44515","Match","Exact","4645 WOODHURST DR, YOUNGSTOWN, OH, 44515",64591460,"L"
653300,"46455 JONATHAN CIRCLE","SHELBY TOWNSHIP","MI",48317,42.6364022820001,-83.0900939319999,300,"46455 JONATHAN CIRCLE, SHELBY TOWNSHIP, MI, 48317","Match","Exact","46455 JONATHAN CIR, SHELBY TOWNSHIP, MI, 48317",110696235,"L"
653301,"46458 SANTIAM HWY","FOSTER","OR",97345,44.4017669790001,-122.550297683,301,"46458 SANTIAM HWY, FOSTER, OR, 97345","Match","Exact","46458 SANTIAM HWY, FOSTER, OR, 97345",156048980,"L"
653302,"4646 163RD LN SE","BELLEVUE","WA",98006,NA,NA,302,"4646 163RD LN SE, BELLEVUE, WA, 98006","Tie",NA,NA,NA,NA
653303,"4646 171ST AVE SE","BELLEVUE","WA",98006,47.5626361160001,-122.111720602,303,"4646 171ST AVE SE, BELLEVUE, WA, 98006","Match","Exact","4646 171ST AVE SE, BELLEVUE, WA, 98006",186616049,"R"
653304,"4646 ALHAMA ST","ORLANDO","FL",32811,28.5103527260001,-81.4399362619999,304,"4646 ALHAMA ST, ORLANDO, FL, 32811","Match","Exact","4646 ALHAMA ST, ORLANDO, FL, 32811",94274088,"L"
653305,"4646 ALHAMA STREET","ORLANDO","FL",32811,28.5103527260001,-81.4399362619999,305,"4646 ALHAMA STREET, ORLANDO, FL, 32811","Match","Exact","4646 ALHAMA ST, ORLANDO, FL, 32811",94274088,"L"
653306,"4646 AURORA HIGHWAY","HARDIN","KY",42048,36.7644986510001,-88.2231299589999,306,"4646 AURORA HIGHWAY, HARDIN, KY, 42048","Match","Exact","4646 AURORA HWY, HARDIN, KY, 42048",648503001,"L"
653307,"4646 BIRD VIEW COURT","LAS VEGAS","NV",89129,36.2451968170001,-115.265759267,307,"4646 BIRD VIEW COURT, LAS VEGAS, NV, 89129","Match","Exact","4646 BIRD VIEW CT, LAS VEGAS, NV, 89129",201934654,"R"
653308,"4646 BRICKYARD RD","TILLAMOOK","OR",97141,45.4193709630001,-123.781019948,308,"4646 BRICKYARD RD, TILLAMOOK, OR, 97141","Match","Exact","4646 BRICKYARD RD, TILLAMOOK, OR, 97141",606589469,"L"
653309,"4646 BURNINGTREE LANE","PELHAM","AL",35124,33.3350909110001,-86.804919774,309,"4646 BURNINGTREE LANE, PELHAM, AL, 35124","Match","Exact","4646 BURNINGTREE LN, PELHAM, AL, 35124",82064631,"L"
653310,"4646 CLUB DR","PORT CHARLOTTE","FL",33953,26.971688267,-82.226564089,310,"4646 CLUB DR, PORT CHARLOTTE, FL, 33953","Match","Exact","4646 CLUB DR, PORT CHARLOTTE, FL, 33953",619835640,"L"
653311,"4646 COLEHERNE ROAD","BALTIMORE","MD",21229,39.2949313980001,-76.695211751,311,"4646 COLEHERNE ROAD, BALTIMORE, MD, 21229","Match","Exact","4646 COLEHERNE RD, BALTIMORE, MD, 21229",206413380,"R"
653312,"4646 COLORADO ST SE","PRIOR LAKE","MN",55372,44.713572024,-93.425865041,312,"4646 COLORADO ST SE, PRIOR LAKE, MN, 55372","Match","Exact","4646 COLORADO ST SE, PRIOR LAKE, MN, 55372",38141900,"L"
653313,"4646 DEERWATCH DRIVE","CHANTILLY","VA",20151,38.8763879680001,-77.4334061289999,313,"4646 DEERWATCH DRIVE, CHANTILLY, VA, 20151","Match","Exact","4646 DEERWATCH DR, CHANTILLY, VA, 20151",618695227,"R"
653314,"4646 E MOUNTAIN VISTA DR","PHOENIX","AZ",85048,33.3011193070001,-111.983692642,314,"4646 E MOUNTAIN VISTA DR, PHOENIX, AZ, 85048","Match","Exact","4646 E MOUNTAIN VISTA DR, PHOENIX, AZ, 85048",128891808,"L"
653315,"4646 FOX HOLLOW RD","EUGENE","OR",97405,44.0033997730001,-123.082992056,315,"4646 FOX HOLLOW RD, EUGENE, OR, 97405","Match","Exact","4646 FOX HOLLOW RD, EUGENE, OR, 97405",178175650,"R"
653316,"4646 GOLDEN WEST COVE","SOUTHHAVEN","MS",38671,34.9910873040001,-90.0709975359999,316,"4646 GOLDEN WEST COVE, SOUTHHAVEN, MS, 38671","Match","Non_Exact","4646 GOLDEN WEST COVE, SOUTHAVEN, MS, 38671",91848810,"R"
653317,"4646 HEDGEWOOD DR","STEVENSVILLE","MI",49127,42.0342534270001,-86.49707775,317,"4646 HEDGEWOOD DR, STEVENSVILLE, MI, 49127","Match","Exact","4646 HEDGEWOOD DR, STEVENSVILLE, MI, 49127",119995036,"R"
653318,"4646 HORROCKS ST","PHILADELPHIA","PA",19124,40.018491748,-75.090828882,318,"4646 HORROCKS ST, PHILADELPHIA, PA, 19124","Match","Exact","4646 HORROCKS ST, PHILADELPHIA, PA, 19124",131427030,"L"
653319,"4646 INDEPENDENCE DR","LUMBERTON","NC",28358,34.661775549,-79.0054750629999,319,"4646 INDEPENDENCE DR, LUMBERTON, NC, 28358","Match","Non_Exact","4646 INDEPENDENCE BLVD, LUMBERTON, NC, 28358",608089234,"L"
653320,"4646 JANSSEN DR","CORPUS CHRISTI","TX",78411,27.7220074370001,-97.382953645,320,"4646 JANSSEN DR, CORPUS CHRISTI, TX, 78411","Match","Exact","4646 JANSSEN DR, CORPUS CHRISTI, TX, 78411",178520055,"L"
653321,"4646 KALIDA AVENUE","BEAVERCREEK","OH",45431,NA,NA,321,"4646 KALIDA AVENUE, BEAVERCREEK, OH, 45431","No_Match",NA,NA,NA,NA
653322,"4646 KATHI DR","BETHLEHEM","PA",18017,40.6759847930001,-75.4056383079999,322,"4646 KATHI DR, BETHLEHEM, PA, 18017","Match","Exact","4646 KATHI DR, BETHLEHEM, PA, 18017",136891951,"R"
653323,"4646 MUELLER BLVD APT 1051","AUSTIN","TX",78723,30.2986479350001,-97.707129831,323,"4646 MUELLER BLVD APT 1051, AUSTIN, TX, 78723","Match","Exact","4646 MUELLER BLVD, AUSTIN, TX, 78723",627052713,"L"
653324,"4646 MUELLER BLVD APT 2061","AUSTIN","TX",78723,30.2986479350001,-97.707129831,324,"4646 MUELLER BLVD APT 2061, AUSTIN, TX, 78723","Match","Exact","4646 MUELLER BLVD, AUSTIN, TX, 78723",627052713,"L"
653325,"4646 MUELLER BLVD APTARTMENT 1011","AUSTIN","TX",78723,30.2986479350001,-97.707129831,325,"4646 MUELLER BLVD APTARTMENT 1011, AUSTIN, TX, 78723","Match","Exact","4646 MUELLER BLVD, AUSTIN, TX, 78723",627052713,"L"
653326,"4646 N DAMEN APT 301","CHICAGO","IL",60625,NA,NA,326,"4646 N DAMEN APT 301, CHICAGO, IL, 60625","No_Match",NA,NA,NA,NA
653327,"4646 NEWBERRY","OAK FOREST","IL",60452,41.5904155920001,-87.732523267,327,"4646 NEWBERRY, OAK FOREST, IL, 60452","Match","Non_Exact","4646 NEWBERRY AVE, OAK FOREST, IL, 60452",112203221,"L"
653328,"4646 NORTH BEACON STREET APT 102","CHICAGO","IL",60640,41.966173794,-87.663979639,328,"4646 NORTH BEACON STREET APT 102, CHICAGO, IL, 60640","Match","Exact","4646 N BEACON ST, CHICAGO, IL, 60640",111761562,"L"
653329,"4646 NORTH WILDWOOD","WHITEFISH BAY","WI",53211,43.1007135950001,-87.895972372,329,"4646 NORTH WILDWOOD, WHITEFISH BAY, WI, 53211","Match","Non_Exact","4646 N WILDWOOD AVE, WHITEFISH BAY, WI, 53211",77743026,"R"
653330,"4646 PARK AVENUE 1B","BRONX","NY",10458,40.858003651,-73.8928227709999,330,"4646 PARK AVENUE 1B, BRONX, NY, 10458","Match","Exact","4646 PARK AVE, BRONX, NY, 10458",80298949,"R"
653331,"4646 PATTERSON SCHOOL DRIVE","LENOIR","NC",28645,36.012363325,-81.51838334,331,"4646 PATTERSON SCHOOL DRIVE, LENOIR, NC, 28645","Match","Exact","4646 PATTERSON SCHOOL DR, LENOIR, NC, 28645",45851048,"L"
653332,"4646 POPLAR AVE STE 325","JACKSON","TN",38117,35.116317038,-89.907142892,332,"4646 POPLAR AVE STE 325, JACKSON, TN, 38117","Match","Non_Exact","4646 POPLAR AVE, MEMPHIS, TN, 38117",607435301,"L"
653333,"4646 POPLAR AVENUE","MEMPHIS","TN",38117,35.116317038,-89.907142892,333,"4646 POPLAR AVENUE, MEMPHIS, TN, 38117","Match","Exact","4646 POPLAR AVE, MEMPHIS, TN, 38117",607435301,"L"
653334,"4646 POPLAR AVEUE","MEMPHIS","TN",38117,35.116317038,-89.907142892,334,"4646 POPLAR AVEUE, MEMPHIS, TN, 38117","Match","Non_Exact","4646 POPLAR AVE, MEMPHIS, TN, 38117",607435301,"L"
653335,"4646 RHETT LANE UNIT B","CARROLLTON","TX",75010,33.036622376,-96.8628600439999,335,"4646 RHETT LANE UNIT B, CARROLLTON, TX, 75010","Match","Exact","4646 RHETT LN, CARROLLTON, TX, 75010",650728221,"R"
653336,"4646 ROAMING DR NE","GRAND RAPIDS","MI",49525,43.047786267,-85.626229468,336,"4646 ROAMING DR NE, GRAND RAPIDS, MI, 49525","Match","Exact","4646 ROAMING DR NE, GRAND RAPIDS, MI, 49525",646760955,"R"
653337,"4646 SAM HOUSTON PKY","HOUSTON","TX",77041,NA,NA,337,"4646 SAM HOUSTON PKY, HOUSTON, TX, 77041","No_Match",NA,NA,NA,NA
653338,"4646 SE ALLEN CT","TOPEKA","KS",66605,39.019437168,-95.588498175,338,"4646 SE ALLEN CT, TOPEKA, KS, 66605","Match","Exact","4646 SE ALLEN CT, TOPEKA, KS, 66605",17894088,"L"
653339,"4646 SHERER AVENUE SW","CANTON","OH",44706,40.7440252230001,-81.3907872249999,339,"4646 SHERER AVENUE SW, CANTON, OH, 44706","Match","Exact","4646 SHERER AVE SW, CANTON, OH, 44706",64686938,"L"
653340,"4646 SHERWOOD COMMON BLVD","BATON ROUGE","LA",70816,30.4063975990001,-91.0575405289999,340,"4646 SHERWOOD COMMON BLVD, BATON ROUGE, LA, 70816","Match","Exact","4646 SHERWOOD COMMON BLVD, BATON ROUGE, LA, 70816",92198894,"R"
653341,"4646 SOUTH PRAIRIE AVE APT 1S","CHICAGO","IL",60653,41.8104867230001,-87.619629178,341,"4646 SOUTH PRAIRIE AVE APT 1S, CHICAGO, IL, 60653","Match","Exact","4646 S PRAIRIE AVE, CHICAGO, IL, 60653",605539651,"R"
653342,"4646 SOUTH WALLACE LANE","HOLLADAY","UT",84117,40.6693933450001,-111.807247486,342,"4646 SOUTH WALLACE LANE, HOLLADAY, UT, 84117","Match","Non_Exact","4646 WALLACE LN, HOLLADAY, UT, 84117",176112842,"R"
653343,"4646 SW 48TH DR UNIT 145","GAINESVILLE","FL",32608,29.611132443,-82.3947336689999,343,"4646 SW 48TH DR UNIT 145, GAINESVILLE, FL, 32608","Match","Non_Exact","4646 SW 48 DR, GAINESVILLE, FL, 32608",624442256,"R"
653344,"4646 W HWY 56","BERYL","UT",84714,NA,NA,344,"4646 W HWY 56, BERYL, UT, 84714","No_Match",NA,NA,NA,NA
653345,"4646 W WAVELAND","CHICAGO","IL",60641,41.9479930430001,-87.743573263,345,"4646 W WAVELAND, CHICAGO, IL, 60641","Match","Non_Exact","4646 W WAVELAND AVE, CHICAGO, IL, 60641",111755838,"R"
653346,"4646 WALTHER AVE","BALTIMORE","MD",21214,39.3403705330001,-76.565944918,346,"4646 WALTHER AVE, BALTIMORE, MD, 21214","Match","Exact","4646 WALTHER AVE, BALTIMORE, MD, 21214",206411170,"L"
653347,"4646 WHISPERING WINDS PLACE","DOUGLASVILLE","GA",30135,33.6744815260001,-84.66104366,347,"4646 WHISPERING WINDS PLACE, DOUGLASVILLE, GA, 30135","Match","Exact","4646 WHISPERING WINDS PL, DOUGLASVILLE, GA, 30135",618466077,"L"
653348,"4646 WINERY WAY","COLUMBUS","OH",43230,40.070216762,-82.893474609,348,"4646 WINERY WAY, COLUMBUS, OH, 43230","Match","Exact","4646 WINERY WAY, COLUMBUS, OH, 43230",218695572,"L"
653349,"4646 WITHERS DRIVE","FORT COLLINS","CO",80524,40.5789390580001,-104.990077664,349,"4646 WITHERS DRIVE, FORT COLLINS, CO, 80524","Match","Exact","4646 WITHERS DR, FORT COLLINS, CO, 80524",188588086,"L"
653350,"4646 WOODBINE RD","PACE","FL",32571,NA,NA,350,"4646 WOODBINE RD, PACE, FL, 32571","No_Match",NA,NA,NA,NA
653351,"4646 WOODLAND AVE","DREXEL HILL","PA",19026,39.9484648870001,-75.312489963,351,"4646 WOODLAND AVE, DREXEL HILL, PA, 19026","Match","Exact","4646 WOODLAND AVE, DREXEL HILL, PA, 19026",134876150,"L"
653352,"4647 BARTHOLOW RD","SYKESVILLE","MD",21784,39.4471809550001,-76.9876560279999,352,"4647 BARTHOLOW RD, SYKESVILLE, MD, 21784","Match","Exact","4647 BARTHOLOW RD, SYKESVILLE, MD, 21784",209396077,"L"
653353,"4647 BRIDLE PASS DR","Colorado Springs","CO",80923,38.9357187270001,-104.747384843,353,"4647 BRIDLE PASS DR, Colorado Springs, CO, 80923","Match","Exact","4647 BRIDLE PASS DR, COLORADO SPRINGS, CO, 80923",636176779,"L"
653354,"4647 CAMDEN STREET","OAKLAND","CA",94619,37.7836139130001,-122.195404863,354,"4647 CAMDEN STREET, OAKLAND, CA, 94619","Match","Exact","4647 CAMDEN ST, OAKLAND, CA, 94619",125007772,"R"
653355,"4647 CONTI LANE","MONTGOMERY","AL",36116,32.3132116780001,-86.238081902,355,"4647 CONTI LANE, MONTGOMERY, AL, 36116","Match","Exact","4647 CONTI LN, MONTGOMERY, AL, 36116",1504346,"L"
653356,"4647 DEERMEADOW LANE","ANTIOCH","CA",94531,37.9717411030001,-121.764111364,356,"4647 DEERMEADOW LANE, ANTIOCH, CA, 94531","Match","Non_Exact","4647 DEERMEADOW WAY, ANTIOCH, CA, 94531",192080087,"L"
653357,"4647 DROSERA AVE","MAYS LANDING","NJ",8330,39.48721067,-74.619844562,357,"4647 DROSERA AVE, MAYS LANDING, NJ, 8330","Match","Exact","4647 DROSERA AVE, MAYS LANDING, NJ, 08330",202480362,"L"
653358,"4647 EAGLEVILLE PIKE","CHAPEL HILL","TN",37034,35.6508411390001,-86.673576526,358,"4647 EAGLEVILLE PIKE, CHAPEL HILL, TN, 37034","Match","Exact","4647 EAGLEVILLE PIKE, CHAPEL HILL, TN, 37034",639835874,"R"
653359,"4647 HALLMARK DRIVE","DALLAS","TX",75229,32.905431766,-96.828250369,359,"4647 HALLMARK DRIVE, DALLAS, TX, 75229","Match","Exact","4647 HALLMARK DR, DALLAS, TX, 75229",102899382,"L"
653360,"4647 HANNOVER","SAINT LOUIS","MO",63123,38.5576971420001,-90.291347683,360,"4647 HANNOVER, SAINT LOUIS, MO, 63123","Match","Non_Exact","4647 HANNOVER AVE, SAINT LOUIS, MO, 63123",100154007,"R"
653361,"4647 HARCOURT RD","BALTIMORE","MD",21214,39.3390243280001,-76.5643284459999,361,"4647 HARCOURT RD, BALTIMORE, MD, 21214","Match","Exact","4647 HARCOURT RD, BALTIMORE, MD, 21214",206411193,"R"
653362,"4647 IVYWOOD DR SW","ATLANTA","GA",30331,33.683145079,-84.539764524,362,"4647 IVYWOOD DR SW, ATLANTA, GA, 30331","Match","Exact","4647 IVYWOOD DR SW, ATLANTA, GA, 30331",17337849,"R"
653363,"4647 KINGSWELL AVE STE 137","LOS ANGELES","CA",90027,34.102698119,-118.290622815,363,"4647 KINGSWELL AVE STE 137, LOS ANGELES, CA, 90027","Match","Exact","4647 KINGSWELL AVE, LOS ANGELES, CA, 90027",141597587,"R"
653364,"4647 MEBANE OAKS ROAD","MEBANE","NC",27302,35.9931895890001,-79.263252229,364,"4647 MEBANE OAKS ROAD, MEBANE, NC, 27302","Match","Exact","4647 MEBANE OAKS RD, MEBANE, NC, 27302",640211532,"L"
653365,"4647 MERIDIAN RD","WILLIAMSTON","MI",48895,42.7167385230001,-84.363503195,365,"4647 MERIDIAN RD, WILLIAMSTON, MI, 48895","Match","Exact","4647 MERIDIAN RD, WILLIAMSTON, MI, 48895",17523933,"L"
653366,"4647 MILLHAVEN ROAD","MARTINEZ","GA",30907,33.4903682140001,-82.1555892969999,366,"4647 MILLHAVEN ROAD, MARTINEZ, GA, 30907","Match","Exact","4647 MILLHAVEN RD, MARTINEZ, GA, 30907",640750765,"R"
653367,"4647 N 3877","STUART","OK",74570,NA,NA,367,"4647 N 3877, STUART, OK, 74570","No_Match",NA,NA,NA,NA
653368,"4647 N AUTUMN COVE","ERDA","UT",84074,40.613959295,-112.304933408,368,"4647 N AUTUMN COVE, ERDA, UT, 84074","Match","Exact","4647 AUTUMN COVE, ERDA, UT, 84074",640845462,"L"
653369,"4647 NATURES CIR","SYRACUSE","NY",13215,42.993903716,-76.193787453,369,"4647 NATURES CIR, SYRACUSE, NY, 13215","Match","Exact","4647 NATURES CIR, SYRACUSE, NY, 13215",625599448,"R"
653370,"4647 NATURES CIRCLE","SYRACUSE","NY",13215,42.993903716,-76.193787453,370,"4647 NATURES CIRCLE, SYRACUSE, NY, 13215","Match","Exact","4647 NATURES CIR, SYRACUSE, NY, 13215",625599448,"R"
653371,"4647 REDFIELD CRT","ST.LOUIS","MO",63121,38.7124224340001,-90.2902453629999,371,"4647 REDFIELD CRT, ST.LOUIS, MO, 63121","Match","Exact","4647 REDFIELD CT, SAINT LOUIS, MO, 63121",100169520,"L"
653372,"4647 RENWORTH AVE NE","CANTON","OH",44714,40.8489722530001,-81.3548069729999,372,"4647 RENWORTH AVE NE, CANTON, OH, 44714","Match","Exact","4647 RENWORTH AVE NE, CANTON, OH, 44714",64715611,"L"
653373,"4647 RING NECK ROAD","ORLANDO","FL",32808,28.599293667,-81.44117683,373,"4647 RING NECK ROAD, ORLANDO, FL, 32808","Match","Exact","4647 RING NECK RD, ORLANDO, FL, 32808",94269840,"R"
653374,"4647 SE 33RD AVENUE","PORTLAND","OR",97202,45.489284109,-122.631421512,374,"4647 SE 33RD AVENUE, PORTLAND, OR, 97202","Match","Exact","4647 SE 33RD AVE, PORTLAND, OR, 97202",638569370,"R"
653375,"4647 SIENNA OAKS CT","SAINT LOUIS","MO",63128,38.504012636,-90.348530908,375,"4647 SIENNA OAKS CT, SAINT LOUIS, MO, 63128","Match","Exact","4647 SIENNA OAKS CT, SAINT LOUIS, MO, 63128",618225932,"R"
653376,"4647 SW 134TH STREET","MIRAMAR","FL",33027,NA,NA,376,"4647 SW 134TH STREET, MIRAMAR, FL, 33027","No_Match",NA,NA,NA,NA
653377,"4647 VISTA DEL MONTE AVE STE 208","SHERMAN OAKS","CA",91403,34.155275439,-118.449858224,377,"4647 VISTA DEL MONTE AVE STE 208, SHERMAN OAKS, CA, 91403","Match","Exact","4647 VISTA DEL MONTE AVE, SHERMAN OAKS, CA, 91403",141561637,"L"
653378,"4647 VISTA DEL MONTE","SHERMAN OAKS","CA",91403,34.155275439,-118.449858224,378,"4647 VISTA DEL MONTE, SHERMAN OAKS, CA, 91403","Match","Non_Exact","4647 VISTA DEL MONTE AVE, SHERMAN OAKS, CA, 91403",141561637,"L"
653379,"4647 WENDA STREET  B405","HOUSTON","TX",77051,29.652646643,-95.356814992,379,"4647 WENDA STREET  B405, HOUSTON, TX, 77051","Match","Exact","4647 WENDA ST, HOUSTON, TX, 77051",645179242,"R"
653380,"4647 YARROW STREET","ROCK HILL","SC",29732,34.993387371,-81.09213327,380,"4647 YARROW STREET, ROCK HILL, SC, 29732","Match","Exact","4647 YARROW ST, ROCK HILL, SC, 29732",645872647,"R"
653381,"4647 ZION RD","SAN DIEGO","CA",92120,32.7929675500001,-117.095504403,381,"4647 ZION RD, SAN DIEGO, CA, 92120","Match","Non_Exact","4647 ZION AVE, SAN DIEGO, CA, 92120",195322130,"R"
653382,"46471 CREEKSIDE COURT","CANTON","MI",48187,42.3353269610001,-83.50523082,382,"46471 CREEKSIDE COURT, CANTON, MI, 48187","Match","Exact","46471 CREEKSIDE CT, CANTON, MI, 48187",95685330,"L"
653383,"46472 CREEKSIDE CT","CANTON","MI",48187,42.3353364480001,-83.505244262,383,"46472 CREEKSIDE CT, CANTON, MI, 48187","Match","Exact","46472 CREEKSIDE CT, CANTON, MI, 48187",95685330,"R"
653384,"46474 MIDWAY DRIVE","LEXINGTON PARK","MD",20653,38.2639418200001,-76.467738109,384,"46474 MIDWAY DRIVE, LEXINGTON PARK, MD, 20653","Match","Exact","46474 MIDWAY DR, LEXINGTON PARK, MD, 20653",36609701,"L"
653385,"46475 HAMPHSIRE STATION DRIVE","STERLING","VA",20165,NA,NA,385,"46475 HAMPHSIRE STATION DRIVE, STERLING, VA, 20165","No_Match",NA,NA,NA,NA
653386,"46476 MONTGOMERY PLACE","STERLING","VA",20165,39.0420965760001,-77.3904278809999,386,"46476 MONTGOMERY PLACE, STERLING, VA, 20165","Match","Exact","46476 MONTGOMERY PL, STERLING, VA, 20165",624540081,"R"
653387,"46477 MIRAGE COURT","LEXINGTON PARK","MD",20653,38.2301976360001,-76.467794751,387,"46477 MIRAGE COURT, LEXINGTON PARK, MD, 20653","Match","Exact","46477 MIRAGE CT, LEXINGTON PARK, MD, 20653",36645102,"L"
653388,"4648 177TH AVE SE","BELLEVUE","WA",98006,47.562467306,-122.103374452,388,"4648 177TH AVE SE, BELLEVUE, WA, 98006","Match","Exact","4648 177TH AVE SE, BELLEVUE, WA, 98006",239773056,"R"
653389,"4648 ASHLEY VIEW LANE","CHARLESTON","SC",29405,32.8460937040001,-80.034190887,389,"4648 ASHLEY VIEW LANE, CHARLESTON, SC, 29405","Match","Exact","4648 ASHLEY VIEW LN, CHARLESTON, SC, 29405",108854092,"R"
653390,"4648 AUCKLAND CT","DENVER","CO",80239,39.7807027690001,-104.835408097,390,"4648 AUCKLAND CT, DENVER, CO, 80239","Match","Exact","4648 AUCKLAND CT, DENVER, CO, 80239",177350450,"R"
653391,"4648 BRANDYWINE COVE","SHERWOOD","AR",72120,34.82739803,-92.218226712,391,"4648 BRANDYWINE COVE, SHERWOOD, AR, 72120","Match","Exact","4648 BRANDYWINE COVE, SHERWOOD, AR, 72120",83601023,"R"
653392,"4648 BURNEY DRIVE","MARIPOSA","CA",95338,37.4528868350001,-120.000672102,392,"4648 BURNEY DRIVE, MARIPOSA, CA, 95338","Match","Exact","4648 BURNEY DR, MARIPOSA, CA, 95338",102470653,"R"
653393,"4648 CALLEJON LECHUZA","SANTA FE","NM",87507,NA,NA,393,"4648 CALLEJON LECHUZA, SANTA FE, NM, 87507","No_Match",NA,NA,NA,NA
653394,"4648 CEDAR DR","HILLSBORO","MO",63050,38.2211228140001,-90.556362209,394,"4648 CEDAR DR, HILLSBORO, MO, 63050","Match","Exact","4648 CEDAR DR, HILLSBORO, MO, 63050",62770357,"L"
653395,"4648 CEDAR LAKE ROAD S APT 1","ST LOUIS PARK","MN",55416,44.962893894,-93.3340787659999,395,"4648 CEDAR LAKE ROAD S APT 1, ST LOUIS PARK, MN, 55416","Match","Exact","4648 CEDAR LAKE RD S, SAINT LOUIS PARK, MN, 55416",43832857,"R"
653396,"4648 CORKTREE PLACE","CROWLEY","TX",76036,NA,NA,396,"4648 CORKTREE PLACE, CROWLEY, TX, 76036","No_Match",NA,NA,NA,NA
653397,"4648 CR 4300","INDEPENDENCE","KS",67301,37.2463333790001,-95.674830134,397,"4648 CR 4300, INDEPENDENCE, KS, 67301","Match","Exact","4648 CR 4300, INDEPENDENCE, KS, 67301",13784994,"R"
653398,"4648 DELORES CT","UNION CITY","CA",94587,37.5757890080001,-122.07171988,398,"4648 DELORES CT, UNION CITY, CA, 94587","Match","Exact","4648 DELORES CT, UNION CITY, CA, 94587",125023606,"R"
653399,"4648 E ALPINE DR","POST FALLS","ID",83854,47.7023615480001,-116.885525725,399,"4648 E ALPINE DR, POST FALLS, ID, 83854","Match","Exact","4648 E ALPINE DR, POST FALLS, ID, 83854",192900135,"L"
653400,"4648 E LA PUENTE AVE","PHOENIX","AZ",85044,33.349497753,-111.982235819,400,"4648 E LA PUENTE AVE, PHOENIX, AZ, 85044","Match","Exact","4648 E LA PUENTE AVE, PHOENIX, AZ, 85044",647436694,"L"
653401,"4648 FAIRVIEW RD","BETHLEHEM","PA",18020,NA,NA,401,"4648 FAIRVIEW RD, BETHLEHEM, PA, 18020","No_Match",NA,NA,NA,NA
653402,"4648 GRAND DELL DRIVE","CRESTWOOD","KY",40014,38.362809859,-85.345280137,402,"4648 GRAND DELL DRIVE, CRESTWOOD, KY, 40014","Match","Exact","4648 GRAND DELL DR, CRESTWOOD, KY, 40014",130922199,"R"
653403,"4648 GREEN FOREST CT","MOBILE","AL",36618,30.7175945020001,-88.147768677,403,"4648 GREEN FOREST CT, MOBILE, AL, 36618","Match","Exact","4648 GREEN FOREST CT, MOBILE, AL, 36618",640527060,"L"
653404,"4648 HESSEY ROAD","MT. JULIET","TN",37122,36.147009962,-86.566657434,404,"4648 HESSEY ROAD, MT. JULIET, TN, 37122","Match","Exact","4648 HESSEY RD, MOUNT JULIET, TN, 37122",623954974,"R"
653405,"4648 LIMESTONE LIN","MEMPHIS","TN",38141,35.0217651790001,-89.83381743,405,"4648 LIMESTONE LIN, MEMPHIS, TN, 38141","Match","Non_Exact","4648 LIMESTONE LN, MEMPHIS, TN, 38141",72934174,"L"
653406,"4648 LONG BAY RD NW","HACKENSACK","MN",56452,46.9782784340001,-94.5237853249999,406,"4648 LONG BAY RD NW, HACKENSACK, MN, 56452","Match","Exact","4648 LONG BAY RD NW, HACKENSACK, MN, 56452",162743427,"L"
653407,"4648 MAPLETREE LOOP","WESLEY CHAPEL","FL",33549,28.225827124,-82.3650619489999,407,"4648 MAPLETREE LOOP, WESLEY CHAPEL, FL, 33549","Match","Non_Exact","4648 MAPLETREE LOOP, WESLEY CHAPEL, FL, 33544",640554411,"L"
653408,"4648 MERCER ROAD","LITHONIA","GA",30083,33.7510780320001,-84.200269732,408,"4648 MERCER ROAD, LITHONIA, GA, 30083","Match","Non_Exact","4648 MERCER RD, STONE MOUNTAIN, GA, 30083",23389595,"L"
653409,"4648 MIDDLEBROOK ROAD APT J","ORLANDO","FL",32811,28.495930625,-81.452947104,409,"4648 MIDDLEBROOK ROAD APT J, ORLANDO, FL, 32811","Match","Exact","4648 MIDDLEBROOK RD, ORLANDO, FL, 32811",606118539,"R"
653410,"4648 PARKSIDE DRIVE","FRISCO","TX",75034,33.1180753520001,-96.845240353,410,"4648 PARKSIDE DRIVE, FRISCO, TX, 75034","Match","Exact","4648 PARKSIDE DR, FRISCO, TX, 75034",634085341,"R"
653411,"4648 POND RUN","CANTON","MI",48188,42.2718330500001,-83.497506249,411,"4648 POND RUN, CANTON, MI, 48188","Match","Exact","4648 POND RUN, CANTON, MI, 48188",95695470,"R"
653412,"4648 REDFIELD COURT SUITE 1A","ST. LOUIS","MO",63121,38.7124192700001,-90.290231074,412,"4648 REDFIELD COURT SUITE 1A, ST. LOUIS, MO, 63121","Match","Exact","4648 REDFIELD CT, SAINT LOUIS, MO, 63121",100169520,"R"
653413,"4648 ROSSER LOOP DR","BESSEMER","AL",35022,33.3489090520001,-86.990025202,413,"4648 ROSSER LOOP DR, BESSEMER, AL, 35022","Match","Exact","4648 ROSSER LOOP DR, BESSEMER, AL, 35022",627978012,"L"
653414,"4648 SHEARSBURG ROAD","NEW KENSINGTON","PA",15068,40.6123656870001,-79.662579459,414,"4648 SHEARSBURG ROAD, NEW KENSINGTON, PA, 15068","Match","Exact","4648 SHEARSBURG RD, NEW KENSINGTON, PA, 15068",52998228,"L"
653415,"4648 WEST ADAMS","CHICAGO","IL",60644,41.8780909600001,-87.741612628,415,"4648 WEST ADAMS, CHICAGO, IL, 60644","Match","Non_Exact","4648 W ADAMS ST, CHICAGO, IL, 60644",111765716,"R"
653416,"4648 WEST MONROE STREET","CHICAGO","IL",60644,41.87929695,-87.741654922,416,"4648 WEST MONROE STREET, CHICAGO, IL, 60644","Match","Exact","4648 W MONROE ST, CHICAGO, IL, 60644",111765729,"R"
653417,"4648 WEST SWIFT AVE","FRESNO","CA",93722,36.7960188530001,-119.877159484,417,"4648 WEST SWIFT AVE, FRESNO, CA, 93722","Match","Exact","4648 W SWIFT AVE, FRESNO, CA, 93722",197565879,"L"
653418,"4648 WOODLINE DRIVE","FAYETTVILLE","NC",28314,35.052269424,-79.039522178,418,"4648 WOODLINE DRIVE, FAYETTVILLE, NC, 28314","Match","Non_Exact","4648 WOODLINE DR, FAYETTEVILLE, NC, 28314",646717211,"R"
653419,"46481 CAMP GROUND ROAD","NEW LONDON","NC",28127,35.4657001780001,-80.194676075,419,"46481 CAMP GROUND ROAD, NEW LONDON, NC, 28127","Match","Non_Exact","46481 CAMPGROUND RD, NEW LONDON, NC, 28127",14097673,"L"
653420,"4649 157TH AVE","DAVENPORT","ND",58021,46.7390354120001,-97.178900504,420,"4649 157TH AVE, DAVENPORT, ND, 58021","Match","Non_Exact","4649 157TH AVE SE, DAVENPORT, ND, 58021",151465296,"L"
653421,"4649 74TH PLACE","SCOTTSDALE","AZ",85251,33.5046623060001,-111.920756325,421,"4649 74TH PLACE, SCOTTSDALE, AZ, 85251","Match","Non_Exact","4649 N 74TH PL, SCOTTSDALE, AZ, 85251",128229437,"R"
653422,"4649 76TH AVE NORTH","PINELLAS PARK","FL",33781,27.8410420970001,-82.697126289,422,"4649 76TH AVE NORTH, PINELLAS PARK, FL, 33781","Match","Exact","4649 76TH AVE N, PINELLAS PARK, FL, 33781",124696845,"R"
653423,"4649 ARTIP LANE","SALEM","VA",24153,NA,NA,423,"4649 ARTIP LANE, SALEM, VA, 24153","No_Match",NA,NA,NA,NA
653424,"4649 ASTER AVENUE","MCKINLEYVILLE","CA",95519,40.989517886,-124.092780777,424,"4649 ASTER AVENUE, MCKINLEYVILLE, CA, 95519","Match","Exact","4649 ASTER AVE, MCKINLEYVILLE, CA, 95519",113036389,"R"
653425,"4649 BEHLEMAN ESTATES LN","FLORISSANT","MO",63034,38.815853336,-90.2605817959999,425,"4649 BEHLEMAN ESTATES LN, FLORISSANT, MO, 63034","Match","Non_Exact","4649 BEHLMANN ESTATES LN, FLORISSANT, MO, 63034",604551080,"R"
653426,"4649 BROWNS MILL LANE","STONECREST","GA",30038,33.6416198060001,-84.107780681,426,"4649 BROWNS MILL LANE, STONECREST, GA, 30038","Match","Exact","4649 BROWNS MILL LN, STONECREST, GA, 30038",619388746,"R"
653427,"4649 CAVERNS DRIVE","KISSIMMEE","FL",34758,28.213172059,-81.467801971,427,"4649 CAVERNS DRIVE, KISSIMMEE, FL, 34758","Match","Exact","4649 CAVERNS DR, KISSIMMEE, FL, 34758",624647792,"R"
653428,"4649 CLOISTER CIRCLE","HAMPTON","GA",30228,33.4510146210001,-84.2625089269999,428,"4649 CLOISTER CIRCLE, HAMPTON, GA, 30228","Match","Exact","4649 CLOISTER CIR, HAMPTON, GA, 30228",619921981,"L"
653429,"4649 E ASHFORD AVENUE","ORANGE","CA",92867,33.8345501910001,-117.80370687,429,"4649 E ASHFORD AVENUE, ORANGE, CA, 92867","Match","Exact","4649 E ASHFORD AVE, ORANGE, CA, 92867",144124810,"R"
653430,"4649 FAIRFAX DRIVE NE","ALBUQUERQUE","NM",87114,35.188630201,-106.681595171,430,"4649 FAIRFAX DRIVE NE, ALBUQUERQUE, NM, 87114","Match","Non_Exact","4649 FAIRFAX DR NW, ALBUQUERQUE, NM, 87114",638064586,"R"
653431,"4649 FLOWER STREET","WHEAT RIDGE","CO",80033,39.781685284,-105.099341518,431,"4649 FLOWER STREET, WHEAT RIDGE, CO, 80033","Match","Exact","4649 FLOWER ST, WHEAT RIDGE, CO, 80033",177786561,"L"
653432,"4649 FLOWER STREET","WHEAT RIDGE",NA,NA,39.781685284,-105.099341518,432,"4649 FLOWER STREET, WHEAT RIDGE, , ","Match","Exact","4649 FLOWER ST, WHEAT RIDGE, CO, 80033",177786561,"L"
653433,"4649 FOREST RIDGE DR","MASON","OH",45040,39.3692922340001,-84.288650788,433,"4649 FOREST RIDGE DR, MASON, OH, 45040","Match","Exact","4649 FOREST RIDGE DR, MASON, OH, 45040",159042521,"R"
653434,"4649 FRANCE AVE S","DONNELLY","MN",56235,NA,NA,434,"4649 FRANCE AVE S, DONNELLY, MN, 56235","No_Match",NA,NA,NA,NA
653435,"4649 GUTHRIE HWY","CLARKSVILLE","TN",37040,36.6273991910001,-87.220175593,435,"4649 GUTHRIE HWY, CLARKSVILLE, TN, 37040","Match","Exact","4649 GUTHRIE HWY, CLARKSVILLE, TN, 37040",628045569,"R"
653436,"4649 HICKORY WOOD ROW","GREENWOOD","IN",46143,NA,NA,436,"4649 HICKORY WOOD ROW, GREENWOOD, IN, 46143","No_Match",NA,NA,NA,NA
653437,"4649 HOMESTEAD CIRCLE","GRAND FORKS","ND",58201,47.8758755860001,-97.0392008969999,437,"4649 HOMESTEAD CIRCLE, GRAND FORKS, ND, 58201","Match","Exact","4649 HOMESTEAD CIR, GRAND FORKS, ND, 58201",171288338,"L"
653438,"4649 LAKEVIEW CIRCLE","COLORADO CITY","CO",81019,NA,NA,438,"4649 LAKEVIEW CIRCLE, COLORADO CITY, CO, 81019","No_Match",NA,NA,NA,NA
653439,"4649 MABRY PARKWAY","ROCK HILL","SC",29732,34.962640322,-81.0876573799999,439,"4649 MABRY PARKWAY, ROCK HILL, SC, 29732","Match","Exact","4649 MABRY PKWY, ROCK HILL, SC, 29732",635871179,"L"
653440,"4649 PONCE DE LEON BLVD SUITE 404","CORAL GABLES","FL",33146,25.7263802480001,-80.2632547869999,440,"4649 PONCE DE LEON BLVD SUITE 404, CORAL GABLES, FL, 33146","Match","Exact","4649 PONCE DE LEON BLVD, CORAL GABLES, FL, 33146",116013802,"R"
653441,"4649 POPE AVENUE","ST. LOUIS","MO",63115,38.6801302540001,-90.226265511,441,"4649 POPE AVENUE, ST. LOUIS, MO, 63115","Match","Exact","4649 POPE AVE, SAINT LOUIS, MO, 63115",605098180,"L"
653442,"4649 RAYNOR COURT","MASON","OH",45040,39.3718690520001,-84.333021053,442,"4649 RAYNOR COURT, MASON, OH, 45040","Match","Exact","4649 RAYNOR CT, MASON, OH, 45040",159043347,"L"
653443,"4649 SEMINARY ROAD APT 204","ALEXANDRIA","VA",22304,38.826874177,-77.109525047,443,"4649 SEMINARY ROAD APT 204, ALEXANDRIA, VA, 22304","Match","Exact","4649 SEMINARY RD, ALEXANDRIA, VA, 22304",76065599,"R"
653444,"4649 SHANNON VIEW","ACTON","CA",93510,34.530770202,-118.218012422,444,"4649 SHANNON VIEW, ACTON, CA, 93510","Match","Non_Exact","4649 SHANNON VIEW RD, ACTON, CA, 93510",641534314,"R"
653445,"4649 STRATFORD LANE","COLUMBUS","OH",43232,39.90591771,-82.8729828369999,445,"4649 STRATFORD LANE, COLUMBUS, OH, 43232","Match","Exact","4649 STRATFORD LN, COLUMBUS, OH, 43232",218643869,"L"
653446,"4649 SW IMPORT DRIVE","PORT ST LUCIE","FL",34987,NA,NA,446,"4649 SW IMPORT DRIVE, PORT ST LUCIE, FL, 34987","No_Match",NA,NA,NA,NA
653447,"4649 W MOORESVILLE RD","INDIANAPOLIS","IN",46221,39.7098043720001,-86.24059913,447,"4649 W MOORESVILLE RD, INDIANAPOLIS, IN, 46221","Match","Exact","4649 W MOORESVILLE RD, INDIANAPOLIS, IN, 46221",108005028,"L"
653448,"4649 WEST OSLIN AVE","FRESNO","CA",93722,36.762720878,-119.876826566,448,"4649 WEST OSLIN AVE, FRESNO, CA, 93722","Match","Exact","4649 W OSLIN AVE, FRESNO, CA, 93722",618731988,"R"
653449,"46491 111TH ST","NEW EFFINGTON","SD",57255,45.775871378,-96.898765236,449,"46491 111TH ST, NEW EFFINGTON, SD, 57255","Match","Exact","46491 111TH ST, NEW EFFINGTON, SD, 57255",196109743,"R"
653450,"46491 SHARON STREET","TEMECULA","CA",92592,33.4527442080001,-117.086135101,450,"46491 SHARON STREET, TEMECULA, CA, 92592","Match","Exact","46491 SHARON ST, TEMECULA, CA, 92592",195097601,"L"
653451,"46495 US HIGHWAY 385","BURLINGTON","CO",80807,NA,NA,451,"46495 US HIGHWAY 385, BURLINGTON, CO, 80807","No_Match",NA,NA,NA,NA
653452,"46496 SWANMERE DRIVE","CANTON","MI",48187,42.3326462900001,-83.5044961899999,452,"46496 SWANMERE DRIVE, CANTON, MI, 48187","Match","Exact","46496 SWANMERE DR, CANTON, MI, 48187",95688187,"R"
653453,"464BOSTON POST RD NUMBER 40","AMHERST","NH",3031,NA,NA,453,"464BOSTON POST RD NUMBER 40, AMHERST, NH, 3031","No_Match",NA,NA,NA,NA
653454,"464O MT HWY 35","KALISPELL","MT",59901,NA,NA,454,"464O MT HWY 35, KALISPELL, MT, 59901","No_Match",NA,NA,NA,NA
653455,"465  DE LASALLE AVENUE","NAPERVILLE","IL",60565,41.7133368730001,-88.1515019399999,455,"465  DE LASALLE AVENUE, NAPERVILLE, IL, 60565","Match","Exact","465 DE LASALLE AVE, NAPERVILLE, IL, 60565",111583341,"L"
653456,"465 10TH STREET 401","SAN FRANCISCO","CA",94103,37.770812074,-122.410301411,456,"465 10TH STREET 401, SAN FRANCISCO, CA, 94103","Match","Exact","465 10TH ST, SAN FRANCISCO, CA, 94103",192287579,"L"
653457,"465 21ST AVE S RM 4280A","NASHVILLE","TN",37240,36.1475649010001,-86.799370736,457,"465 21ST AVE S RM 4280A, NASHVILLE, TN, 37240","Match","Exact","465 21ST AVE S, NASHVILLE, TN, 37240",606811130,"R"
653458,"465 21ST AVE SOUTH SUITE 5140","NASHVILLE","TN",37232,36.1475649010001,-86.799370736,458,"465 21ST AVE SOUTH SUITE 5140, NASHVILLE, TN, 37232","Match","Non_Exact","465 21ST AVE S, NASHVILLE, TN, 37240",606811130,"R"
653459,"465 33RD AVE SW","VERO BEACH","FL",32968,27.5951390270001,-80.4202751879999,459,"465 33RD AVE SW, VERO BEACH, FL, 32968","Match","Exact","465 33RD AVE SW, VERO BEACH, FL, 32968",619200585,"L"
653460,"465 33RD AVE","VERO BEACH","FL",32968,27.6102716820001,-80.419588602,460,"465 33RD AVE, VERO BEACH, FL, 32968","Match","Exact","465 33RD AVE, VERO BEACH, FL, 32968",120318089,"L"
653461,"465 AMBERLEY DR","LEXINGTON","KY",40515,37.9619907410001,-84.522608244,461,"465 AMBERLEY DR, LEXINGTON, KY, 40515","Match","Exact","465 AMBERLEY DR, LEXINGTON, KY, 40515",31941877,"L"
653462,"465 ANSON SMITH ROAD","KINGMAN","AZ",86409,35.2189320740001,-114.052902114,462,"465 ANSON SMITH ROAD, KINGMAN, AZ, 86409","Match","Exact","465 ANSON SMITH RD, KINGMAN, AZ, 86409",647613651,"L"
653463,"465 ANSON STREET","BRIDGEPORT","CT",6606,41.203895737,-73.203540032,463,"465 ANSON STREET, BRIDGEPORT, CT, 6606","Match","Exact","465 ANSON ST, BRIDGEPORT, CT, 06606",3223093,"L"
653464,"465 ARBOR CRICLE","YOUNGSTOWN","OH",44505,41.1482388740001,-80.658179189,464,"465 ARBOR CRICLE, YOUNGSTOWN, OH, 44505","Match","Non_Exact","465 ARBOR CIR, YOUNGSTOWN, OH, 44505",117425735,"R"
653465,"465 ARTHURS LANE","COVINGTON","GA",30016,33.517141646,-83.970433597,465,"465 ARTHURS LANE, COVINGTON, GA, 30016","Match","Exact","465 ARTHURS LN, COVINGTON, GA, 30016",619692190,"R"
653466,"465 ASH STREET","HENDERSON","NV",89015,36.0447835410001,-114.959609956,466,"465 ASH STREET, HENDERSON, NV, 89015","Match","Exact","465 ASH ST, HENDERSON, NV, 89015",201880782,"L"
653467,"465 BAKERS POND ROAD","BREWSTER","MA",2631,NA,NA,467,"465 BAKERS POND ROAD, BREWSTER, MA, 2631","No_Match",NA,NA,NA,NA
653468,"465 BEDFORD ROAD","EAST LANSING","MI",48823,NA,NA,468,"465 BEDFORD ROAD, EAST LANSING, MI, 48823","No_Match",NA,NA,NA,NA
653469,"465 BELMONT DRIVE","MASON","TN",38049,35.373847745,-89.492389854,469,"465 BELMONT DRIVE, MASON, TN, 38049","Match","Non_Exact","465 BELMONT RD, MASON, TN, 38049",608448939,"L"
653470,"465 BENNE DRIVE","FLORISSANT","MO",63031,38.817076001,-90.319446614,470,"465 BENNE DRIVE, FLORISSANT, MO, 63031","Match","Exact","465 BENNE DR, FLORISSANT, MO, 63031",100116506,"R"
653471,"465 BONITA DR","MEMPHIS","TN",38109,35.0369664460001,-90.0483180959999,471,"465 BONITA DR, MEMPHIS, TN, 38109","Match","Exact","465 BONITA DR, MEMPHIS, TN, 38109",72909712,"R"
653472,"465 BOULEVARD","ELMWOOD PARK","NJ",7407,40.901161039,-74.116356286,472,"465 BOULEVARD, ELMWOOD PARK, NJ, 7407","Match","Exact","465 BOULEVARD, ELMWOOD PARK, NJ, 07407",64381722,"L"
653473,"465 BOYD ROAD","RED ROCK","TX",78662,29.967739512,-97.51701364,473,"465 BOYD ROAD, RED ROCK, TX, 78662","Match","Exact","465 BOYD RD, RED ROCK, TX, 78662",45489516,"R"
653474,"465 BRICKELL AVENUE APT 5005","MIAMI","FL",33131,25.768913581,-80.190025256,474,"465 BRICKELL AVENUE APT 5005, MIAMI, FL, 33131","Match","Exact","465 BRICKELL AVE, MIAMI, FL, 33131",116018806,"L"
653475,"465 BRIGHTVIEW DR","LAKE MARY","FL",32746,28.7835535310001,-81.302358853,475,"465 BRIGHTVIEW DR, LAKE MARY, FL, 32746","Match","Exact","465 BRIGHTVIEW DR, LAKE MARY, FL, 32746",93766473,"L"
653476,"465 BROCKHAM DR","JACKSONVILLE","FL",32221,30.309697564,-81.8232496529999,476,"465 BROCKHAM DR, JACKSONVILLE, FL, 32221","Match","Exact","465 BROCKHAM DR, JACKSONVILLE, FL, 32221",83956123,"L"
653477,"465 BROOKLYN AVENUE","BROOKLYN","NY",11225,40.66356398,-73.945518692,477,"465 BROOKLYN AVENUE, BROOKLYN, NY, 11225","Match","Exact","465 BROOKLYN AVE, BROOKLYN, NY, 11225",59079575,"L"
653478,"465 BUCKLAND HILL DRIVE 27122","MANCHESTER","CT",6042,41.809220704,-72.5353831049999,478,"465 BUCKLAND HILL DRIVE 27122, MANCHESTER, CT, 6042","Match","Non_Exact","465 BUCKLAND HILLS DR, MANCHESTER, CT, 06042",648207386,"L"
653479,"465 BUOY DR","CROWLEY","TX",76036,32.564977346,-97.363229065,479,"465 BUOY DR, CROWLEY, TX, 76036","Match","Exact","465 BUOY DR, CROWLEY, TX, 76036",642148911,"R"
653480,"465 BUOY","CROWLEY","TX",76036,32.564977346,-97.363229065,480,"465 BUOY, CROWLEY, TX, 76036","Match","Non_Exact","465 BUOY DR, CROWLEY, TX, 76036",642148911,"R"
653481,"465 BURNS DRIVE NORTH","WESTERVILLE","OH",43082,40.138464936,-82.911022386,481,"465 BURNS DRIVE NORTH, WESTERVILLE, OH, 43082","Match","Non_Exact","465 BURNS DR, WESTERVILLE, OH, 43082",24591236,"L"
653482,"465 C STREET","CHULA VISTA","CA",91910,32.6498332520001,-117.090564406,482,"465 C STREET, CHULA VISTA, CA, 91910","Match","Exact","465 C ST, CHULA VISTA, CA, 91910",195355584,"R"
653483,"465 CALIFORNIA STREET SUITE 425","SAN FRANCISC","CA",94104,37.7929146810001,-122.40223666,483,"465 CALIFORNIA STREET SUITE 425, SAN FRANCISC, CA, 94104","Match","Non_Exact","465 CALIFORNIA ST, SAN FRANCISCO, CA, 94104",192281305,"L"
653484,"465 CALIFORNIA STREET SUITE 425","SAN FRANCISCO","CA",94104,37.7929146810001,-122.40223666,484,"465 CALIFORNIA STREET SUITE 425, SAN FRANCISCO, CA, 94104","Match","Exact","465 CALIFORNIA ST, SAN FRANCISCO, CA, 94104",192281305,"L"
653485,"465 CALLE PORTAL","SIERRA VISTA","AZ",85635,31.550349984,-110.266342615,485,"465 CALLE PORTAL, SIERRA VISTA, AZ, 85635","Match","Non_Exact","465 CLL PORTAL, SIERRA VISTA, AZ, 85635",120926108,"R"
653486,"465 CAPEADOR ST NW","PALM BAY","FL",32907,27.9993874520001,-80.6826387689999,486,"465 CAPEADOR ST NW, PALM BAY, FL, 32907","Match","Exact","465 CAPEADOR ST NW, PALM BAY, FL, 32907",93957465,"L"
653487,"465 CHAPEL ST APT 7","LEE","MA",1238,42.2970416420001,-73.22468694,487,"465 CHAPEL ST APT 7, LEE, MA, 1238","Match","Exact","465 CHAPEL ST, LEE, MA, 01238",3940606,"L"
653488,"465 CHAPEL STREET APT 5","LEE","MA",1238,42.2970416420001,-73.22468694,488,"465 CHAPEL STREET APT 5, LEE, MA, 1238","Match","Exact","465 CHAPEL ST, LEE, MA, 01238",3940606,"L"
653489,"465 CHATUGE SHORES CIRCLE","HAYESVILLE","NC",28904,35.002381262,-83.81385617,489,"465 CHATUGE SHORES CIRCLE, HAYESVILLE, NC, 28904","Match","Exact","465 CHATUGE SHORES CIR, HAYESVILLE, NC, 28904",608044315,"R"
653490,"465 CLAIRE DR NE","ATLANTA","GA",30307,33.767013918,-84.323690278,490,"465 CLAIRE DR NE, ATLANTA, GA, 30307","Match","Exact","465 CLAIRE DR NE, ATLANTA, GA, 30307",23366217,"R"
653491,"465 CLINTON AVE","BROOKLYN","NY",11238,40.684541197,-73.967091878,491,"465 CLINTON AVE, BROOKLYN, NY, 11238","Match","Exact","465 CLINTON AVE, BROOKLYN, NY, 11238",59077942,"L"
653492,"465 CLUB ACRE","ORANGEBURG","SC",29115,NA,NA,492,"465 CLUB ACRE, ORANGEBURG, SC, 29115","No_Match",NA,NA,NA,NA
653493,"465 COLONIAL PLACE","NIPOMO","CA",93444,35.0524539420001,-120.534023146,493,"465 COLONIAL PLACE, NIPOMO, CA, 93444","Match","Exact","465 COLONIAL PL, NIPOMO, CA, 93444",109773311,"R"
653494,"465 COMET LANE","CLINTON","OH",44216,40.9258929170001,-81.522113743,494,"465 COMET LANE, CLINTON, OH, 44216","Match","Exact","465 COMET LN, CLINTON, OH, 44216",61359532,"L"
653495,"465 CONTINENTAL DRIVE","DURHAM","NC",27712,36.066786257,-78.968823516,495,"465 CONTINENTAL DRIVE, DURHAM, NC, 27712","Match","Exact","465 CONTINENTAL DR, DURHAM, NC, 27712",71776348,"R"
653496,"465 COUNTY ROAD 526","POPLAR BLUFF","MO",63901,36.812320533,-90.447154472,496,"465 COUNTY ROAD 526, POPLAR BLUFF, MO, 63901","Match","Exact","465 CO RD 526, POPLAR BLUFF, MO, 63901",47417986,"L"
653497,"465 COUNTY STREET","SOMERSET","MA",2726,41.7399568540001,-71.1483075209999,497,"465 COUNTY STREET, SOMERSET, MA, 2726","Match","Exact","465 COUNTY ST, SOMERSET, MA, 02726",46768768,"L"
653498,"465 CR 213","ATHENS","TN",37303,35.510236918,-84.630755387,498,"465 CR 213, ATHENS, TN, 37303","Match","Exact","465 CO RD 213, ATHENS, TN, 37303",628005044,"L"
653499,"465 CR 510","NEGAUNEE","MI",49866,46.5808923930001,-87.5777945409999,499,"465 CR 510, NEGAUNEE, MI, 49866","Match","Exact","465 CO RD 510, NEGAUNEE, MI, 49866",182033888,"L"
653500,"465 DACULA ROAD SUITE G","DACULA","GA",30019,33.998415331,-83.904757036,500,"465 DACULA ROAD SUITE G, DACULA, GA, 30019","Match","Exact","465 DACULA RD, DACULA, GA, 30019",88944846,"R"
