"ID","Address","City","State","Zip","lat","long","id","input_address","match_indicator","match_type","matched_address","tiger_line_id","tiger_side"
14501,"101 CITADEL DRIVE","HAMPTON","GA",30228,33.3994626050001,-84.3060878379999,1,"101 CITADEL DRIVE, HAMPTON, GA, 30228","Match","Exact","101 CITADEL DR, HAMPTON, GA, 30228",619932290,"L"
14502,"101 CITERON CT","CARY","NC",27511,35.7481636210001,-78.812678459,2,"101 CITERON CT, CARY, NC, 27511","Match","Non_Exact","101 CITREON CT, CARY, NC, 27511",208369379,"L"
14503,"101 CITIZENS DOCK ROAD","CRESCENT CITY","CA",95531,41.7478954430001,-124.181996056,3,"101 CITIZENS DOCK ROAD, CRESCENT CITY, CA, 95531","Match","Exact","101 CITIZENS DOCK RD, CRESCENT CITY, CA, 95531",113175272,"L"
14504,"101 CITY PARK CIRCLE","HATTIESBURG","MS",39401,31.3275076410001,-89.312438193,4,"101 CITY PARK CIRCLE, HATTIESBURG, MS, 39401","Match","Exact","101 CITY PARK CIR, HATTIESBURG, MS, 39401",324763,"R"
14505,"101 CLARENDON PLACE","HENDERSONVILLE","TN",37075,36.2723371110001,-86.577912812,5,"101 CLARENDON PLACE, HENDERSONVILLE, TN, 37075","Match","Exact","101 CLARENDON PL, HENDERSONVILLE, TN, 37075",616763266,"L"
14506,"101 CLAREY PL","HONOLULU","HI",96818,21.365695325,-157.912516298,6,"101 CLAREY PL, HONOLULU, HI, 96818","Match","Exact","101 CLAREY PL, HONOLULU, HI, 96818",203231642,"L"
14507,"101 CLARK ST APT 14A","BROOKLYN","NY",11201,40.69744697,-73.9929457929999,7,"101 CLARK ST APT 14A, BROOKLYN, NY, 11201","Match","Exact","101 CLARK ST, BROOKLYN, NY, 11201",59074990,"L"
14508,"101 CLARK ST","BROOKLYN","NY",11201,40.69744697,-73.9929457929999,8,"101 CLARK ST, BROOKLYN, NY, 11201","Match","Exact","101 CLARK ST, BROOKLYN, NY, 11201",59074990,"L"
14509,"101 CLARKE PLACE","FREDERICK","MD",21705,39.407771838,-77.411659582,9,"101 CLARKE PLACE, FREDERICK, MD, 21705","Match","Exact","101 CLARKE PL, FREDERICK, MD, 21705",60672763,"L"
14510,"101 CLAUDIA DRIVE","STARKVILLE","MS",39759,33.4243853290001,-88.799737851,10,"101 CLAUDIA DRIVE, STARKVILLE, MS, 39759","Match","Exact","101 CLAUDIA DR, STARKVILLE, MS, 39759",607238346,"L"
14511,"101 CLAY ST","SAN FRANCISCO","CA",94111,37.7954499460001,-122.396864227,11,"101 CLAY ST, SAN FRANCISCO, CA, 94111","Match","Exact","101 CLAY ST, SAN FRANCISCO, CA, 94111",192281497,"L"
14512,"101 CLAY STREET","ANSTED","WV",25812,38.1369987190001,-81.098040168,12,"101 CLAY STREET, ANSTED, WV, 25812","Match","Exact","101 CLAY ST, ANSTED, WV, 25812",75068275,"R"
14513,"101 CLAY","SAN FRANCISCO","CA",94111,37.7954499460001,-122.396864227,13,"101 CLAY, SAN FRANCISCO, CA, 94111","Match","Non_Exact","101 CLAY ST, SAN FRANCISCO, CA, 94111",192281497,"L"
14514,"101 CLAYTON AVE","TRINITY","AL",35673,34.60227422,-87.0924509399999,14,"101 CLAYTON AVE, TRINITY, AL, 35673","Match","Exact","101 CLAYTON AVE, TRINITY, AL, 35673",97124716,"R"
14515,"101 CLAYTON AVENUE","WILMINGTON","DE",19809,39.7887522610001,-75.477841924,15,"101 CLAYTON AVENUE, WILMINGTON, DE, 19809","Match","Exact","101 CLAYTON AVE, WILMINGTON, DE, 19809",187261105,"R"
14516,"101 CLAYTON STREET","MANNINGTON","WV",26582,NA,NA,16,"101 CLAYTON STREET, MANNINGTON, WV, 26582","No_Match",NA,NA,NA,NA
14517,"101 CLEGG RD","PORT LAVACA","TX",77979,28.6662102970001,-96.682450118,17,"101 CLEGG RD, PORT LAVACA, TX, 77979","Match","Exact","101 CLEGG RD, PORT LAVACA, TX, 77979",624903324,"R"
14518,"101 CLIFTON PL","JERSEY CITY","NJ",7304,40.7209598100001,-74.0648531959999,18,"101 CLIFTON PL, JERSEY CITY, NJ, 7304","Match","Exact","101 CLIFTON PL, JERSEY CITY, NJ, 07304",624560701,"L"
14519,"101 CLINTON STREET APT 604","HOBOKEN","NJ",7030,40.738330853,-74.0353837009999,19,"101 CLINTON STREET APT 604, HOBOKEN, NJ, 7030","Match","Exact","101 CLINTON ST, HOBOKEN, NJ, 07030",59605598,"R"
14520,"101 CLINTON STREET","GOUVERNEUR","NY",13642,44.3384996500001,-75.470618872,20,"101 CLINTON STREET, GOUVERNEUR, NY, 13642","Match","Exact","101 CLINTON ST, GOUVERNEUR, NY, 13642",155170442,"L"
14521,"101 CLOVER HILL DRIVE","GREENVILLE","AL",36037,31.8516990970001,-86.6217255399999,21,"101 CLOVER HILL DRIVE, GREENVILLE, AL, 36037","Match","Non_Exact","101 CLOVERHILL DR, GREENVILLE, AL, 36037",1823556,"R"
14522,"101 CLOVERLEAF RD","LISMAN","AL",36912,32.225973099,-88.2481684749999,22,"101 CLOVERLEAF RD, LISMAN, AL, 36912","Match","Exact","101 CLOVERLEAF RD, LISMAN, AL, 36912",105694,"L"
14523,"101 CLOVERLY LANE","HAILEY","ID",83333,43.542275074,-114.320725736,23,"101 CLOVERLY LANE, HAILEY, ID, 83333","Match","Exact","101 CLOVERLY LN, HAILEY, ID, 83333",600591138,"R"
14524,"101 CLUB ROAD","SUFFOLK","NC",23435,NA,NA,24,"101 CLUB ROAD, SUFFOLK, NC, 23435","No_Match",NA,NA,NA,NA
14525,"101 CLUB ROAD","SUFFOLK","VA",23435,36.8733487050001,-76.485627192,25,"101 CLUB ROAD, SUFFOLK, VA, 23435","Match","Exact","101 CLUB RD, SUFFOLK, VA, 23435",122241431,"L"
14526,"101 COBBLESTONE DR","CLANTON","AL",35045,32.8139279980001,-86.6053908109999,26,"101 COBBLESTONE DR, CLANTON, AL, 35045","Match","Exact","101 COBBLESTONE DR, CLANTON, AL, 35045",650684234,"R"
14527,"101 COLLEEN COURT","WILMORE","KY",40390,37.8600105940001,-84.64958146,27,"101 COLLEEN COURT, WILMORE, KY, 40390","Match","Exact","101 COLLEEN CT, WILMORE, KY, 40390",38465471,"L"
14528,"101 COLLEGE AVE","MOBERLY","MO",65270,39.419606925,-92.452712725,28,"101 COLLEGE AVE, MOBERLY, MO, 65270","Match","Exact","101 COLLEGE AVE, MOBERLY, MO, 65270",607781591,"L"
14529,"101 COLLEGE PKWY","ARNOLD","MD",21012,NA,NA,29,"101 COLLEGE PKWY, ARNOLD, MD, 21012","No_Match",NA,NA,NA,NA
14530,"101 COLLINS ROAD","SELAH","WA",98942,46.6929490040001,-120.559159268,30,"101 COLLINS ROAD, SELAH, WA, 98942","Match","Exact","101 COLLINS RD, SELAH, WA, 98942",184941825,"R"
14531,"101 COLONEL HUNT DR","ABINGTON","MA",2351,42.113493347,-70.944955771,31,"101 COLONEL HUNT DR, ABINGTON, MA, 2351","Match","Exact","101 COLONEL HUNT DR, ABINGTON, MA, 02351",87458413,"R"
14532,"101 COLORADO ST 1508","AUSTIN","TX",78701,30.263834375,-97.74582115,32,"101 COLORADO ST 1508, AUSTIN, TX, 78701","Match","Exact","101 COLORADO ST, AUSTIN, TX, 78701",63943477,"R"
14533,"101 COLORADO ST APT 801","AUSTIN","TX",78701,30.263834375,-97.74582115,33,"101 COLORADO ST APT 801, AUSTIN, TX, 78701","Match","Exact","101 COLORADO ST, AUSTIN, TX, 78701",63943477,"R"
14534,"101 COLORADO STREET","AUSTIN","TX",78701,30.263834375,-97.74582115,34,"101 COLORADO STREET, AUSTIN, TX, 78701","Match","Exact","101 COLORADO ST, AUSTIN, TX, 78701",63943477,"R"
14535,"101 COMMONWEALTH AVE","HYDE PARK","VT",5655,NA,NA,35,"101 COMMONWEALTH AVE, HYDE PARK, VT, 5655","No_Match",NA,NA,NA,NA
14536,"101 CONCORD CHURCH ROAD","BADEN","PA",15005,40.6564464050001,-80.1893380509999,36,"101 CONCORD CHURCH ROAD, BADEN, PA, 15005","Match","Exact","101 CONCORD CHURCH RD, BADEN, PA, 15005",52583494,"R"
14537,"101 CONEWANGO ST PO BOX 304","RUSSELL","PA",16345,41.941369696,-79.133680627,37,"101 CONEWANGO ST PO BOX 304, RUSSELL, PA, 16345","Match","Exact","101 CONEWANGO ST, RUSSELL, PA, 16345",98674954,"L"
14538,"101 CONNELLSVILLE ST","FAYETTE CITY","PA",15438,40.101526301,-79.839946576,38,"101 CONNELLSVILLE ST, FAYETTE CITY, PA, 15438","Match","Non_Exact","101 CONNELLSVILLE RD, FAYETTE CITY, PA, 15438",51181999,"L"
14539,"101 CONNIE","EAGLE LAKE","MN",56024,44.157790065,-93.878750125,39,"101 CONNIE, EAGLE LAKE, MN, 56024","Match","Non_Exact","101 CONNIE LN, EAGLE LAKE, MN, 56024",28125937,"R"
14540,"101 CONNOR CT","BURLINGTON","NJ",8016,40.054207064,-74.815797373,40,"101 CONNOR CT, BURLINGTON, NJ, 8016","Match","Exact","101 CONNOR CT, BURLINGTON, NJ, 08016",617759008,"R"
14541,"101 CONSHOHOCKEN STATE RD","BALA CYNWYD","PA",19004,40.004583747,-75.2290661499999,41,"101 CONSHOHOCKEN STATE RD, BALA CYNWYD, PA, 19004","Match","Exact","101 CONSHOHOCKEN STATE RD, BALA CYNWYD, PA, 19004",636462261,"R"
14542,"101 CONSTITUTION AVE","WASHINGTON","DC",20001,38.892097687,-77.01321412,42,"101 CONSTITUTION AVE, WASHINGTON, DC, 20001","Match","Non_Exact","101 CONSTITUTION AVE NW, WASHINGTON, DC, 20001",76226735,"R"
14543,"101 COOPER  APARTMENT 6H","NEW YORK CITY","NY",10039,NA,NA,43,"101 COOPER  APARTMENT 6H, NEW YORK CITY, NY, 10039","No_Match",NA,NA,NA,NA
14544,"101 COOPER STREET APT 3D","NEW YORK","NY",NA,40.8685798920001,-73.92147855,44,"101 COOPER STREET APT 3D, NEW YORK, NY, ","Match","Exact","101 COOPER ST, NEW YORK, NY, 10034",59658861,"R"
14545,"101 COPPERAS CT","MURFREESBORO","TN",37128,35.84245773,-86.512916343,45,"101 COPPERAS CT, MURFREESBORO, TN, 37128","Match","Exact","101 COPPERAS CT, MURFREESBORO, TN, 37128",59040311,"L"
14546,"101 CORDWOOD","DRIPPING SPRINGS","TX",78620,30.2792005760001,-98.1035777009999,46,"101 CORDWOOD, DRIPPING SPRINGS, TX, 78620","Match","Non_Exact","101 CORDWOOD RD, DRIPPING SPRINGS, TX, 78620",63829365,"L"
14547,"101 CORNELL ST","FOUNTAIN","CO",80911,38.735924142,-104.722994686,47,"101 CORNELL ST, FOUNTAIN, CO, 80911","Match","Non_Exact","101 CORNELL ST, COLORADO SPRINGS, CO, 80911",105524946,"L"
14548,"101 COSMELL CIR","WHITE OAK","TX",75693,32.5505481820001,-94.8612947029999,48,"101 COSMELL CIR, WHITE OAK, TX, 75693","Match","Exact","101 COSMELL CIR, WHITE OAK, TX, 75693",141105061,"R"
14549,"101 COTERIE PL","BOERNE","TX",78006,NA,NA,49,"101 COTERIE PL, BOERNE, TX, 78006","No_Match",NA,NA,NA,NA
14550,"101 COTTAGE STREET","FAIRMONT","NC",28340,NA,NA,50,"101 COTTAGE STREET, FAIRMONT, NC, 28340","No_Match",NA,NA,NA,NA
14551,"101 COUNTRY CLUB DRIVE","CLINTONVILLE","WI",54929,44.635101992,-88.777313369,51,"101 COUNTRY CLUB DRIVE, CLINTONVILLE, WI, 54929","Match","Exact","101 COUNTRY CLUB DR, CLINTONVILLE, WI, 54929",74963498,"R"
14552,"101 COUNTRY CLUB DRIVE","MANKATO","MN",56001,44.19461125,-93.961074454,52,"101 COUNTRY CLUB DRIVE, MANKATO, MN, 56001","Match","Exact","101 COUNTRY CLUB DR, MANKATO, MN, 56001",635121963,"R"
14553,"101 COUNTRY GROVE RD","KINGS MOUNTAIN","NC",28086,35.2670474990001,-81.365581307,53,"101 COUNTRY GROVE RD, KINGS MOUNTAIN, NC, 28086","Match","Exact","101 COUNTRY GROVE RD, KINGS MOUNTAIN, NC, 28086",19344404,"L"
14554,"101 COUNTY LINE RD","RICHTON","MS",39476,NA,NA,54,"101 COUNTY LINE RD, RICHTON, MS, 39476","No_Match",NA,NA,NA,NA
14555,"101 COUNTY ROAD 623","ENTERPRISE","AL",36330,31.2823549510001,-85.8881035049999,55,"101 COUNTY ROAD 623, ENTERPRISE, AL, 36330","Match","Exact","101 CO RD 623, ENTERPRISE, AL, 36330",99548400,"L"
14556,"101 COUNTY ROUTE 28","OGDENSBURG","NY",13669,44.7213469100001,-75.422655143,56,"101 COUNTY ROUTE 28, OGDENSBURG, NY, 13669","Match","Non_Exact","101 CO RD 28, OGDENSBURG, NY, 13669",642866481,"R"
14557,"101 COURTNEYBROOK TRAIL","MAULDIN","SC",29662,NA,NA,57,"101 COURTNEYBROOK TRAIL, MAULDIN, SC, 29662","No_Match",NA,NA,NA,NA
14558,"101 COURTS OF HAMPTON","HAMPTON","GA",30228,33.4180411030001,-84.259787187,58,"101 COURTS OF HAMPTON, HAMPTON, GA, 30228","Match","Exact","101 COURTS OF HAMPTON, HAMPTON, GA, 30228",619933889,"L"
14559,"101 COVERED BRIDGE LANE","BELLEVILLE","IL",NA,38.4693335090001,-89.888230764,59,"101 COVERED BRIDGE LANE, BELLEVILLE, IL, ","Match","Exact","101 COVERED BRIDGE LN, BELLEVILLE, IL, 62221",107933426,"L"
14560,"101 COWARDIN AVENUE 204","RICHMOND","VA",23224,37.5192623,-77.4491245139999,60,"101 COWARDIN AVENUE 204, RICHMOND, VA, 23224","Match","Exact","101 COWARDIN AVE, RICHMOND, VA, 23224",647915421,"R"
14561,"101 COX MILL COURT","HOPKINSVILLE","KY",42240,36.8543310000001,-87.502188012,61,"101 COX MILL COURT, HOPKINSVILLE, KY, 42240","Match","Exact","101 COX MILL CT, HOPKINSVILLE, KY, 42240",11283534,"L"
14562,"101 CR 131","TISHOMINGO","MS",38873,34.6682260580001,-88.280477318,62,"101 CR 131, TISHOMINGO, MS, 38873","Match","Exact","101 CO RD 131, TISHOMINGO, MS, 38873",41437832,"L"
14563,"101 CR 4511","HONDO","TX",78861,29.3508431490001,-99.01486628,63,"101 CR 4511, HONDO, TX, 78861","Match","Exact","101 CO RD 4511, HONDO, TX, 78861",102819677,"R"
14564,"101 CRAIG STREET","HAZARD","KY",41701,37.2498515410001,-83.189469666,64,"101 CRAIG STREET, HAZARD, KY, 41701","Match","Exact","101 CRAIG ST, HAZARD, KY, 41701",88070846,"L"
14565,"101 CRAVEN STREET","NEW BERN","NC",28560,35.103677297,-77.0388128449999,65,"101 CRAVEN STREET, NEW BERN, NC, 28560","Match","Non_Exact","101 CRAVEN ST, NEW BERN, NC, 28563",34120705,"R"
14566,"101 CRAWFORD ST","HOUSTON","TX",77004,29.76057905,-95.354414019,66,"101 CRAWFORD ST, HOUSTON, TX, 77004","Match","Non_Exact","101 CRAWFORD ST, HOUSTON, TX, 77002",96069353,"L"
14567,"101 CREEK COURT","ELIZABETH CITY","NC",27909,36.3302112860001,-76.245789921,67,"101 CREEK COURT, ELIZABETH CITY, NC, 27909","Match","Exact","101 CREEK CT, ELIZABETH CITY, NC, 27909",18599204,"R"
14568,"101 CREEKSIDE  LANE","FISHERS","IN",46038,39.9631297280001,-86.0315381899999,68,"101 CREEKSIDE  LANE, FISHERS, IN, 46038","Match","Exact","101 CREEKSIDE LN, FISHERS, IN, 46038",647896915,"R"
14569,"101 CREEKVIEW DRIVE","PARADISE","PA",17562,40.007140699,-76.127164425,69,"101 CREEKVIEW DRIVE, PARADISE, PA, 17562","Match","Exact","101 CREEKVIEW DR, PARADISE, PA, 17562",625300008,"L"
14570,"101 CREIGHTON PLACE","SHELBYVILLE","TN",37160,35.468166033,-86.480854178,70,"101 CREIGHTON PLACE, SHELBYVILLE, TN, 37160","Match","Exact","101 CREIGHTON PL, SHELBYVILLE, TN, 37160",58851246,"R"
14571,"101 CRES","LOUISVILLE","KY",40204,NA,NA,71,"101 CRES, LOUISVILLE, KY, 40204","No_Match",NA,NA,NA,NA
14572,"101 CRESAP ROAD","CHARLOTTESVILLE","VA",22903,38.0406114840001,-78.508221831,72,"101 CRESAP ROAD, CHARLOTTESVILLE, VA, 22903","Match","Exact","101 CRESAP RD, CHARLOTTESVILLE, VA, 22903",83369133,"R"
14573,"101 CRESCENT AVE SUITE B","LOUISVILLE","KY",40206,38.254921616,-85.6867747319999,73,"101 CRESCENT AVE SUITE B, LOUISVILLE, KY, 40206","Match","Exact","101 CRESCENT AVE, LOUISVILLE, KY, 40206",96851781,"R"
14574,"101 CRESCENT DRIVE","BUDA","TX",78610,30.0840259930001,-97.832045417,74,"101 CRESCENT DRIVE, BUDA, TX, 78610","Match","Exact","101 CRESCENT DR, BUDA, TX, 78610",627663385,"R"
14575,"101 CREST VERDE DRIVE","ROLLING HILLS ESTATE","CA",90274,33.7607025180001,-118.390786158,75,"101 CREST VERDE DRIVE, ROLLING HILLS ESTATE, CA, 90274","Match","Non_Exact","101 CRESTA VERDE DR, ROLLING HILLS, CA, 90274",141585601,"L"
14576,"101 CRESTVIEW STREET","LANDRUM","SC",29356,35.1807982730001,-82.1741403249999,76,"101 CRESTVIEW STREET, LANDRUM, SC, 29356","Match","Non_Exact","101 E CRESTVIEW ST, LANDRUM, SC, 29356",19456375,"L"
14577,"101 CRESTWYCK CIRCLE","MOUNT JOY","PA",17552,40.1205684940001,-76.4833175209999,77,"101 CRESTWYCK CIRCLE, MOUNT JOY, PA, 17552","Match","Exact","101 CRESTWYCK CIR, MOUNT JOY, PA, 17552",624645303,"R"
14578,"101 CRIMSON QUEEN DR","BLYTHEWOOD","SC",29016,34.237045407,-81.0081640449999,78,"101 CRIMSON QUEEN DR, BLYTHEWOOD, SC, 29016","Match","Exact","101 CRIMSON QUEEN DR, BLYTHEWOOD, SC, 29016",642079122,"L"
14579,"101 CRIMSON QUEEN DRIVE","BLYTHEWOOD","SC",29016,34.237045407,-81.0081640449999,79,"101 CRIMSON QUEEN DRIVE, BLYTHEWOOD, SC, 29016","Match","Exact","101 CRIMSON QUEEN DR, BLYTHEWOOD, SC, 29016",642079122,"L"
14580,"101 CROCKERS NECK ROAD","COTUIT","MA",2635,41.6142699070001,-70.445138946,80,"101 CROCKERS NECK ROAD, COTUIT, MA, 2635","Match","Exact","101 CROCKERS NECK RD, COTUIT, MA, 02635",121576787,"L"
14581,"101 CROFTON DR","BRISTOL","TN",37620,36.5467309140001,-82.173816731,81,"101 CROFTON DR, BRISTOL, TN, 37620","Match","Exact","101 CROFTON DR, BRISTOL, TN, 37620",616535995,"L"
14582,"101 CROSS CREEK DRIVE","POOLER","GA",31322,32.089843026,-81.2466752239999,82,"101 CROSS CREEK DRIVE, POOLER, GA, 31322","Match","Exact","101 CROSS CREEK DR, POOLER, GA, 31322",640239467,"R"
14583,"101 CROSS PINT CT","YORKTOWN","VA",23693,NA,NA,83,"101 CROSS PINT CT, YORKTOWN, VA, 23693","No_Match",NA,NA,NA,NA
14584,"101 CROSSBOW CT","PEACHTREE CITY","GA",30269,NA,NA,84,"101 CROSSBOW CT, PEACHTREE CITY, GA, 30269","No_Match",NA,NA,NA,NA
14585,"101 CROWN RD","KENTFIELD","CA",94904,37.9500897230001,-122.569167964,85,"101 CROWN RD, KENTFIELD, CA, 94904","Match","Exact","101 CROWN RD, KENTFIELD, CA, 94904",192763915,"L"
14586,"101 CROWN ROAD","WILLOW PARK","TX",76087,32.7675989460001,-97.6606357319999,86,"101 CROWN ROAD, WILLOW PARK, TX, 76087","Match","Exact","101 CROWN RD, WILLOW PARK, TX, 76087",103577813,"L"
14587,"101 CROWNINSHIELD","BROOKLINE","MA",2446,42.3487711160001,-71.119822303,87,"101 CROWNINSHIELD, BROOKLINE, MA, 2446","Match","Non_Exact","101 CROWNINSHIELD RD, BROOKLINE, MA, 02446",87244426,"R"
14588,"101 CURRY RD","FAIRFIELD BAY","AR",72088,35.6271688410001,-92.2678887389999,88,"101 CURRY RD, FAIRFIELD BAY, AR, 72088","Match","Exact","101 CURRY RD, FAIRFIELD BAY, AR, 72088",43424393,"R"
14589,"101 CURRY UNIT 432","ROYAL OAK","MI",48067,42.490065966,-83.13816697,89,"101 CURRY UNIT 432, ROYAL OAK, MI, 48067","Match","Non_Exact","101 CURRY AVE, ROYAL OAK, MI, 48067",69745813,"L"
14590,"101 CURVE HILL ROAD","SOUTH YARMOUTH","MA",2664,41.6828535510001,-70.1726150599999,90,"101 CURVE HILL ROAD, SOUTH YARMOUTH, MA, 2664","Match","Exact","101 CURVE HILL RD, SOUTH YARMOUTH, MA, 02664",121628793,"R"
14591,"101 CUSHINGBERRY LANE","KEENE","KY",40339,37.9425524580001,-84.644688381,91,"101 CUSHINGBERRY LANE, KEENE, KY, 40339","Match","Exact","101 CUSHINGBERRY LN, KEENE, KY, 40339",38463604,"R"
14592,"101 CUVASION COURT","CARY","NC",27519,35.795097814,-78.878933869,92,"101 CUVASION COURT, CARY, NC, 27519","Match","Exact","101 CUVASION CT, CARY, NC, 27519",72641103,"L"
14593,"101 CYPRESS COURT","SAN MARCOS","TX",78666,29.898493955,-97.9496715929999,93,"101 CYPRESS COURT, SAN MARCOS, TX, 78666","Match","Exact","101 CYPRESS CT, SAN MARCOS, TX, 78666",63847018,"L"
14594,"101 CYPRESS DR","EDENTON","NC",27932,36.057350103,-76.631341154,94,"101 CYPRESS DR, EDENTON, NC, 27932","Match","Exact","101 CYPRESS DR, EDENTON, NC, 27932",18470205,"L"
14595,"101 D JOYCE DRIVE","LODI","WI",53555,43.3213991530001,-89.538750265,95,"101 D JOYCE DRIVE, LODI, WI, 53555","Match","Exact","101 JOYCE DR, LODI, WI, 53555",73340237,"R"
14596,"101 D PROSPERITY AVE SE","LEESBURG","VA",20175,39.1048430880001,-77.54918186,96,"101 D PROSPERITY AVE SE, LEESBURG, VA, 20175","Match","Exact","101 PROSPERITY AVE SE, LEESBURG, VA, 20175",632345967,"R"
14597,"101 DAKOTA CT","ANAMOSA","IA",52205,42.115696529,-91.274557866,97,"101 DAKOTA CT, ANAMOSA, IA, 52205","Match","Exact","101 DAKOTA CT, ANAMOSA, IA, 52205",635618445,"L"
14598,"101 DALLAS 275","SPARKMAN","AR",71763,33.860594206,-92.7725899329999,98,"101 DALLAS 275, SPARKMAN, AR, 71763","Match","Exact","101 DALLAS 275, SPARKMAN, AR, 71763",2395230,"R"
14599,"101 DAMON ST","FLINT","MI",48505,43.051794951,-83.7045265419999,99,"101 DAMON ST, FLINT, MI, 48505","Match","Exact","101 DAMON ST, FLINT, MI, 48505",69566783,"L"
14600,"101 DANE CT","HAVELOCK","NC",28532,34.907091123,-76.924933375,100,"101 DANE CT, HAVELOCK, NC, 28532","Match","Exact","101 DANE CT, HAVELOCK, NC, 28532",34150260,"L"
14601,"101 DANFORTH STREET","PORTLAND","ME",4101,43.651458861,-70.260397827,101,"101 DANFORTH STREET, PORTLAND, ME, 4101","Match","Exact","101 DANFORTH ST, PORTLAND, ME, 04101",78028278,"R"
14602,"101 DANIEL DRIVE","ALAMO","CA",94507,37.8374147690001,-122.021700958,102,"101 DANIEL DRIVE, ALAMO, CA, 94507","Match","Exact","101 DANIEL DR, ALAMO, CA, 94507",192063835,"L"
14603,"101 DANIEL DRIVE","CLEMSON","SC",29631,34.6814969370001,-82.833426275,103,"101 DANIEL DRIVE, CLEMSON, SC, 29631","Match","Exact","101 DANIEL DR, CLEMSON, SC, 29631",26212305,"L"
14604,"101 DANIEL DRIVE","HAZARD","KY",41701,37.2561918910001,-83.185017772,104,"101 DANIEL DRIVE, HAZARD, KY, 41701","Match","Exact","101 DANIEL DR, HAZARD, KY, 41701",88064765,"L"
14605,"101 DANTE CIR","SLIDELL","LA",70458,30.317308628,-89.7535195249999,105,"101 DANTE CIR, SLIDELL, LA, 70458","Match","Exact","101 DANTE CIR, SLIDELL, LA, 70458",111247258,"L"
14606,"101 DATES DR","ITHACA","NY",14850,42.4708739710001,-76.5375331819999,106,"101 DATES DR, ITHACA, NY, 14850","Match","Exact","101 DATES DR, ITHACA, NY, 14850",18865020,"L"
14607,"101 DAVIE RD","RUSSELLVILLE","AR",72802,35.3426873450001,-93.1675896369999,107,"101 DAVIE RD, RUSSELLVILLE, AR, 72802","Match","Exact","101 DAVIE RD, RUSSELLVILLE, AR, 72802",606048679,"L"
14608,"101 DAVIS CT","BERLIN","MD",21811,38.325423889,-75.228685508,108,"101 DAVIS CT, BERLIN, MD, 21811","Match","Exact","101 DAVIS CT, BERLIN, MD, 21811",114528093,"L"
14609,"101 DEAN ST","SOUTH POINT","OH",45680,38.4252696090001,-82.586315607,109,"101 DEAN ST, SOUTH POINT, OH, 45680","Match","Exact","101 DEAN ST, SOUTH POINT, OH, 45680",55011319,"R"
14610,"101 DEAN WAY","FOLSOM","CA",95630,38.6789302230001,-121.163603916,110,"101 DEAN WAY, FOLSOM, CA, 95630","Match","Exact","101 DEAN WAY, FOLSOM, CA, 95630",133358308,"L"
14611,"101 DEER CREEK PARKWAY","GRIFFIN","GA",30224,33.2172481440001,-84.2369965409999,111,"101 DEER CREEK PARKWAY, GRIFFIN, GA, 30224","Match","Non_Exact","101 DEERCREEK PKWY, GRIFFIN, GA, 30224",636797043,"R"
14612,"101 DEER RUN BLVD","GEORGETOWN","KY",40324,38.2967212830001,-84.5622130309999,112,"101 DEER RUN BLVD, GEORGETOWN, KY, 40324","Match","Exact","101 DEER RUN BLVD, GEORGETOWN, KY, 40324",618817651,"R"
14613,"101 DEER WALK TRAIL","TALKING ROCK","GA",30175,34.572781982,-84.4806943199999,113,"101 DEER WALK TRAIL, TALKING ROCK, GA, 30175","Match","Exact","101 DEER WALK TRL, TALKING ROCK, GA, 30175",634649810,"L"
14614,"101 DEERFIELD DRIVE","SELMA","AL",36701,32.4160888870001,-87.0984978129999,114,"101 DEERFIELD DRIVE, SELMA, AL, 36701","Match","Exact","101 DEERFIELD DR, SELMA, AL, 36701",1301189,"R"
14615,"101 DEERFIELD PLACE","ARCHDALE","NC",27263,35.8946761500001,-79.930593669,115,"101 DEERFIELD PLACE, ARCHDALE, NC, 27263","Match","Exact","101 DEERFIELD PL, ARCHDALE, NC, 27263",628959414,"L"
14616,"101 DEERFIELD RD","CROSSVILLE","TN",38555,35.946777237,-85.044297606,116,"101 DEERFIELD RD, CROSSVILLE, TN, 38555","Match","Exact","101 DEERFIELD RD, CROSSVILLE, TN, 38555",649944517,"R"
14617,"101 DEERFIELD ROAD","WAYNE","NJ",7470,40.967580006,-74.2765750189999,117,"101 DEERFIELD ROAD, WAYNE, NJ, 7470","Match","Exact","101 DEERFIELD RD, WAYNE, NJ, 07470",65256801,"R"
14618,"101 DELMAR LANE","LAFAYETTE","LA",70506,30.226132588,-92.0485217,118,"101 DELMAR LANE, LAFAYETTE, LA, 70506","Match","Exact","101 DELMAR LN, LAFAYETTE, LA, 70506",85614360,"L"
14619,"101 DENISE AVE","BAKERSFIELD","CA",93308,35.4048447110001,-119.004293086,119,"101 DENISE AVE, BAKERSFIELD, CA, 93308","Match","Exact","101 DENISE AVE, BAKERSFIELD, CA, 93308",109087611,"L"
14620,"101 DENISON AVE","ELYRIA","OH",44035,41.360331645,-82.100545843,120,"101 DENISON AVE, ELYRIA, OH, 44035","Match","Exact","101 DENISON AVE, ELYRIA, OH, 44035",55413246,"R"
14621,"101 DERBY STREET","OXFORD","NE",68967,40.256133903,-99.632918376,121,"101 DERBY STREET, OXFORD, NE, 68967","Match","Exact","101 DERBY ST, OXFORD, NE, 68967",138019334,"R"
14622,"101 DEVANT ST","FAYETTEVILLE","GA",30214,33.449282773,-84.4836508449999,122,"101 DEVANT ST, FAYETTEVILLE, GA, 30214","Match","Exact","101 DEVANT ST, FAYETTEVILLE, GA, 30214",75938183,"L"
14623,"101 DEVANT STREET SUITE 702","FAYETTEVILLE","GA",30214,33.449282773,-84.4836508449999,123,"101 DEVANT STREET SUITE 702, FAYETTEVILLE, GA, 30214","Match","Exact","101 DEVANT ST, FAYETTEVILLE, GA, 30214",75938183,"L"
14624,"101 DEVENHOLLOW DR","GREER","SC",29650,34.8655305360001,-82.2856533729999,124,"101 DEVENHOLLOW DR, GREER, SC, 29650","Match","Exact","101 DEVENHOLLOW DR, GREER, SC, 29650",38323163,"L"
14625,"101 DEVON ROAD","CHARLOTTESVILLE","VA",22903,38.0472345810001,-78.546429147,125,"101 DEVON ROAD, CHARLOTTESVILLE, VA, 22903","Match","Exact","101 DEVON RD, CHARLOTTESVILLE, VA, 22903",83368136,"R"
14626,"101 DEVONSHIRE COURT","WINCHESTER","KY",40391,37.964461848,-84.218047739,126,"101 DEVONSHIRE COURT, WINCHESTER, KY, 40391","Match","Exact","101 DEVONSHIRE CT, WINCHESTER, KY, 40391",31791996,"R"
14627,"101 DEWEESE RD","WAGGAMAN","LA",70094,NA,NA,127,"101 DEWEESE RD, WAGGAMAN, LA, 70094","No_Match",NA,NA,NA,NA
14628,"101 DEXTER ST","SPARTANBURG","SC",29303,34.974543216,-81.9645758569999,128,"101 DEXTER ST, SPARTANBURG, SC, 29303","Match","Non_Exact","101 DEXTER RD, SPARTANBURG, SC, 29303",19507982,"L"
14629,"101 DIAMOND COVE TERRACE","SAN FRANCISCO","CA",94134,37.713079328,-122.395120252,129,"101 DIAMOND COVE TERRACE, SAN FRANCISCO, CA, 94134","Match","Exact","101 DIAMOND COVE TER, SAN FRANCISCO, CA, 94134",640896427,"L"
14630,"101 DIAMOND RIDGE BLVD","AUBURNDALE","FL",33823,28.0997462280001,-81.7759459979999,130,"101 DIAMOND RIDGE BLVD, AUBURNDALE, FL, 33823","Match","Exact","101 DIAMOND RIDGE BLVD, AUBURNDALE, FL, 33823",104874630,"R"
14631,"101 DIANNE DRIVE","WEST UNION","IA",52175,NA,NA,131,"101 DIANNE DRIVE, WEST UNION, IA, 52175","No_Match",NA,NA,NA,NA
14632,"101 DIBBLE LANE","COLUMBIA","SC",29223,34.0993473570001,-80.878013149,132,"101 DIBBLE LANE, COLUMBIA, SC, 29223","Match","Exact","101 DIBBLE LN, COLUMBIA, SC, 29223",71826907,"L"
14633,"101 DILLON COURT","ROCKY MOUNT","NC",27803,35.946778769,-77.83565347,133,"101 DILLON COURT, ROCKY MOUNT, NC, 27803","Match","Exact","101 DILLON CT, ROCKY MOUNT, NC, 27803",90400612,"L"
14634,"101 DIVISION ST N","STEVENS POINT","WI",54481,NA,NA,134,"101 DIVISION ST N, STEVENS POINT, WI, 54481","No_Match",NA,NA,NA,NA
14635,"101 DIVISION ST","EAST JORDAN","MI",49727,45.1612382340001,-85.1269986249999,135,"101 DIVISION ST, EAST JORDAN, MI, 49727","Match","Exact","101 DIVISION ST, EAST JORDAN, MI, 49727",134494742,"L"
14636,"101 DOBBS PLACE","GOLDSBORO","NC",27534,35.3073460050001,-77.860987418,136,"101 DOBBS PLACE, GOLDSBORO, NC, 27534","Match","Exact","101 DOBBS PL, GOLDSBORO, NC, 27534",605717301,"L"
14637,"101 DODGE DR","SMYRNA","DE",19977,39.2461670590001,-75.591956205,137,"101 DODGE DR, SMYRNA, DE, 19977","Match","Exact","101 DODGE DR, SMYRNA, DE, 19977",68096777,"R"
14638,"101 DOGWOOD LANE","PASS CHRISTIAN","MS",39571,30.3292527180001,-89.270748408,138,"101 DOGWOOD LANE, PASS CHRISTIAN, MS, 39571","Match","Exact","101 DOGWOOD LN, PASS CHRISTIAN, MS, 39571",111374166,"L"
14639,"101 DON CONNOR BLVD","JACKSON","NJ",8527,40.108201186,-74.348696214,139,"101 DON CONNOR BLVD, JACKSON, NJ, 8527","Match","Exact","101 DON CONNOR BLVD, JACKSON, NJ, 08527",203810568,"R"
14640,"101 DONCASTER DRIVE","LAFAYETTE","IN",47909,40.351601531,-86.905747874,140,"101 DONCASTER DRIVE, LAFAYETTE, IN, 47909","Match","Exact","101 DONCASTER DR, LAFAYETTE, IN, 47909",27317481,"L"
14641,"101 DOUGLAS AVE","HENNING","MN",56551,46.3161572160001,-95.43724367,141,"101 DOUGLAS AVE, HENNING, MN, 56551","Match","Exact","101 DOUGLAS AVE, HENNING, MN, 56551",168298026,"L"
14642,"101 DOUTY CT","CARY","NC",27510,35.808526634,-78.907053487,142,"101 DOUTY CT, CARY, NC, 27510","Match","Non_Exact","101 DOUTY CT, CARY, NC, 27519",612819477,"L"
14643,"101 DOUTY CT","CARY","NC",27519,35.808526634,-78.907053487,143,"101 DOUTY CT, CARY, NC, 27519","Match","Exact","101 DOUTY CT, CARY, NC, 27519",612819477,"L"
14644,"101 DOVE COURT","HUMMELSTOWN","PA",17036,40.306675822,-76.695246422,144,"101 DOVE COURT, HUMMELSTOWN, PA, 17036","Match","Exact","101 DOVE CT, HUMMELSTOWN, PA, 17036",627623160,"R"
14645,"101 DOVE CT","HUMMELSTOWN","PA",17036,40.306675822,-76.695246422,145,"101 DOVE CT, HUMMELSTOWN, PA, 17036","Match","Exact","101 DOVE CT, HUMMELSTOWN, PA, 17036",627623160,"R"
14646,"101 DOVE LANDING CT","NAVASOTA","TX",77868,NA,NA,146,"101 DOVE LANDING CT, NAVASOTA, TX, 77868","Tie",NA,NA,NA,NA
14647,"101 DOVE MEADOW","BOERNE","TX",78006,29.8668562710001,-98.631668181,147,"101 DOVE MEADOW, BOERNE, TX, 78006","Match","Exact","101 DOVE MEADOW, BOERNE, TX, 78006",605903086,"R"
14648,"101 DOW RD  PO51","COLD BROOK","NY",13324,43.338820178,-75.0299720529999,148,"101 DOW RD  PO51, COLD BROOK, NY, 13324","Match","Exact","101 DOW RD, COLD BROOK, NY, 13324",153729024,"R"
14649,"101 DOWNEY AVE","FAIRMOUNT CITY","PA",16242,41.0101817720001,-79.31523528,149,"101 DOWNEY AVE, FAIRMOUNT CITY, PA, 16242","Match","Non_Exact","101 DOWNEY AVE, FAIRMOUNT CITY, PA, 16224",66235488,"L"
14650,"101 DOWNEY AVE","FARIMOUNT CITY","PA",16242,41.0101817720001,-79.31523528,150,"101 DOWNEY AVE, FARIMOUNT CITY, PA, 16242","Match","Non_Exact","101 DOWNEY AVE, FAIRMOUNT CITY, PA, 16224",66235488,"L"
14651,"101 DOWNING BROOK COURT","MORRISVILLE","NC",27560,35.8276000230001,-78.834969326,151,"101 DOWNING BROOK COURT, MORRISVILLE, NC, 27560","Match","Exact","101 DOWNING BROOK CT, MORRISVILLE, NC, 27560",208358580,"L"
14652,"101 DOWNING CREEK COURT","CANTON","GA",30114,34.2015075100001,-84.5381486209999,152,"101 DOWNING CREEK COURT, CANTON, GA, 30114","Match","Exact","101 DOWNING CREEK CT, CANTON, GA, 30114",627187565,"L"
14653,"101 DOWNING DRIVE","CORAOPOLIS","PA",15108,40.49486984,-80.1771345499999,153,"101 DOWNING DRIVE, CORAOPOLIS, PA, 15108","Match","Exact","101 DOWNING DR, CORAOPOLIS, PA, 15108",630026015,"R"
14654,"101 DRAKEWOOD PLACE","CARY","NC",27518,35.693337865,-78.793161173,154,"101 DRAKEWOOD PLACE, CARY, NC, 27518","Match","Exact","101 DRAKEWOOD PL, CARY, NC, 27518",72642064,"L"
14655,"101 DUNDALK AVENUE","DUNDALK","MD",21222,39.2621417120001,-76.52599226,155,"101 DUNDALK AVENUE, DUNDALK, MD, 21222","Match","Exact","101 DUNDALK AVE, DUNDALK, MD, 21222",191574649,"L"
14656,"101 DUNSTER STREET APT K21","CAMBRIDGE","MA",2138,NA,NA,156,"101 DUNSTER STREET APT K21, CAMBRIDGE, MA, 2138","No_Match",NA,NA,NA,NA
14657,"101 DUPONT STREET SUITE 22","PLAINVIEW","NY",11803,40.7980736700001,-73.4649341479999,157,"101 DUPONT STREET SUITE 22, PLAINVIEW, NY, 11803","Match","Exact","101 DUPONT ST, PLAINVIEW, NY, 11803",147841689,"R"
14658,"101 DUTCH ROAD","EAST BRUNSWICK","NJ",8816,40.4316338680001,-74.438466744,158,"101 DUTCH ROAD, EAST BRUNSWICK, NJ, 8816","Match","Exact","101 DUTCH RD, E BRUNSWICK, NJ, 08816",641766033,"L"
14659,"101 DUTTON RD","LYNDEBOROUGH","NH",3082,42.8962368480001,-71.750138686,159,"101 DUTTON RD, LYNDEBOROUGH, NH, 3082","Match","Exact","101 DUTTON RD, LYNDEBOROUGH, NH, 03082",633261300,"R"
14660,"101 E 10TH ST APT 5C","NEW YORK","NY",10003,NA,NA,160,"101 E 10TH ST APT 5C, NEW YORK, NY, 10003","No_Match",NA,NA,NA,NA
14661,"101 E 116TH STREET","CARMEL","IN",46032,39.9562684700001,-86.156373818,161,"101 E 116TH STREET, CARMEL, IN, 46032","Match","Exact","101 E 116TH ST, CARMEL, IN, 46032",29334294,"R"
14662,"101 E 11TH STREET","CHATTANOOGA","TN",37402,35.043376349,-85.30789334,162,"101 E 11TH STREET, CHATTANOOGA, TN, 37402","Match","Exact","101 E 11TH ST, CHATTANOOGA, TN, 37402",59304423,"L"
14663,"101 E 1ST AVE STE 207","MESA","AZ",85210,NA,NA,163,"101 E 1ST AVE STE 207, MESA, AZ, 85210","Tie",NA,NA,NA,NA
14664,"101 E 1ST","BRADY","TX",76825,31.134029297,-99.334857678,164,"101 E 1ST, BRADY, TX, 76825","Match","Non_Exact","101 E 1ST ST, BRADY, TX, 76825",129840123,"R"
14665,"101 E 21ST STREET S5453","AUSTIN","TX",78712,NA,NA,165,"101 E 21ST STREET S5453, AUSTIN, TX, 78712","No_Match",NA,NA,NA,NA
14666,"101 E 27TH ST","MERCED","CA",95340,37.308196695,-120.468964273,166,"101 E 27TH ST, MERCED, CA, 95340","Match","Exact","101 E 27TH ST, MERCED, CA, 95340",125282035,"R"
14667,"101 E 28TH TERR APT 4","KANSAS CITY","MO",64108,39.075163935,-94.583458187,167,"101 E 28TH TERR APT 4, KANSAS CITY, MO, 64108","Match","Non_Exact","101 E 28TH TER, KANSAS CITY, MO, 64108",91500745,"L"
14668,"101 E 2ND STREET","RUSHVILLE","IN",46173,39.6081941190001,-85.444644458,168,"101 E 2ND STREET, RUSHVILLE, IN, 46173","Match","Exact","101 E 2ND ST, RUSHVILLE, IN, 46173",31295893,"L"
14669,"101 E 33RD ST APT 3","BALTIMORE","MD",21218,39.328075531,-76.615382385,169,"101 E 33RD ST APT 3, BALTIMORE, MD, 21218","Match","Non_Exact","101 E 33RD ST, BALTIMORE, MD, 21218",206408797,"R"
14670,"101 E 35TH STREET","CHICAGO","IL",60616,41.8310397980001,-87.623201111,170,"101 E 35TH STREET, CHICAGO, IL, 60616","Match","Exact","101 E 35TH ST, CHICAGO, IL, 60616",605538158,"R"
14671,"101 E 41ST ST","JOPLIN","MO",64804,37.044240212,-94.514373624,171,"101 E 41ST ST, JOPLIN, MO, 64804","Match","Exact","101 E 41ST ST, JOPLIN, MO, 64804",56007482,"L"
14672,"101 E 4TH ST","HALBUR","IA",51444,42.0080159190001,-94.970693777,172,"101 E 4TH ST, HALBUR, IA, 51444","Match","Exact","101 4TH ST, HALBUR, IA, 51444",68638181,"R"
14673,"101 E 4TH STREET","OWENSBORO","KY",42303,37.7726858880001,-87.110934522,173,"101 E 4TH STREET, OWENSBORO, KY, 42303","Match","Exact","101 E 4TH ST, OWENSBORO, KY, 42303",37559080,"L"
14674,"101 E 68TH STREET","CHI","IL",60637,41.7710318210001,-87.621772337,174,"101 E 68TH STREET, CHI, IL, 60637","Match","Non_Exact","101 E 68TH ST, CHICAGO, IL, 60637",605543173,"R"
14675,"101 E 88TH AVE APT N 101","THORNTON","CO",80229,39.8563219590001,-104.98663774,175,"101 E 88TH AVE APT N 101, THORNTON, CO, 80229","Match","Non_Exact","101 E 88TH AVE, THORNTON, CO, 80229",177437415,"L"
14676,"101 E 8TH AVE STE 206","CONSHOHOCKEN","PA",19428,NA,NA,176,"101 E 8TH AVE STE 206, CONSHOHOCKEN, PA, 19428","Tie",NA,NA,NA,NA
14677,"101 E 8TH STREET","CLIFTON","NJ",7011,40.8870930640001,-74.136458127,177,"101 E 8TH STREET, CLIFTON, NJ, 7011","Match","Exact","101 E 8TH ST, CLIFTON, NJ, 07011",65270307,"L"
14678,"101 E 94TH STREET CIRCLE","BLOOMINGTON","MN",55420,44.83349293,-93.277082271,178,"101 E 94TH STREET CIRCLE, BLOOMINGTON, MN, 55420","Match","Non_Exact","101 E 94TH ST, BLOOMINGTON, MN, 55420",43596232,"R"
14679,"101 E 94TH STREET","BLOOMINGTON","MN",55420,44.83349293,-93.277082271,179,"101 E 94TH STREET, BLOOMINGTON, MN, 55420","Match","Exact","101 E 94TH ST, BLOOMINGTON, MN, 55420",43596232,"R"
14680,"101 E 9TH STREET","DELAVAN","IL",61734,40.3665874270001,-89.547038839,180,"101 E 9TH STREET, DELAVAN, IL, 61734","Match","Exact","101 E 9TH ST, DELAVAN, IL, 61734",22515236,"R"
14681,"101 E 9TH STREET","FOND DU LAC","WI",54935,43.769111106,-88.443114243,181,"101 E 9TH STREET, FOND DU LAC, WI, 54935","Match","Exact","101 E 9TH ST, FOND DU LAC, WI, 54935",74811291,"L"
14682,"101 E BERCKMAN STREET","FRUITLAND PARK","FL",34731,28.8578415380001,-81.906492427,182,"101 E BERCKMAN STREET, FRUITLAND PARK, FL, 34731","Match","Exact","101 E BERCKMAN ST, FRUITLAND PARK, FL, 34731",94096325,"L"
14683,"101 E BRIDGE ST STE A","KNOB NOSTER","MO",65336,NA,NA,183,"101 E BRIDGE ST STE A, KNOB NOSTER, MO, 65336","Tie",NA,NA,NA,NA
14684,"101 E BROADWAY STE 501","MISSOULA","MT",59802,NA,NA,184,"101 E BROADWAY STE 501, MISSOULA, MT, 59802","No_Match",NA,NA,NA,NA
14685,"101 E BRYAN","UNION","OR",97883,45.2169268260001,-117.865391201,185,"101 E BRYAN, UNION, OR, 97883","Match","Non_Exact","101 E BRYAN ST, UNION, OR, 97883",138843689,"R"
14686,"101 E CENTER STREET","DES MOINES","IA",50309,41.592666507,-93.615812942,186,"101 E CENTER STREET, DES MOINES, IA, 50309","Match","Exact","101 E CENTER ST, DES MOINES, IA, 50309",650584910,"L"
14687,"101 E CENTRAL ST","SIGEL","IL",62462,39.225022477,-88.494150066,187,"101 E CENTRAL ST, SIGEL, IL, 62462","Match","Exact","101 E CENTRAL ST, SIGEL, IL, 62462",604931696,"L"
14688,"101 E CHURCH ST   APT 3C","TUSKEGEE","AL",36083,NA,NA,188,"101 E CHURCH ST   APT 3C, TUSKEGEE, AL, 36083","Tie",NA,NA,NA,NA
14689,"101 E CHURCH ST APT 302","TARBORO","NC",27886,35.8901373410001,-77.5287290379999,189,"101 E CHURCH ST APT 302, TARBORO, NC, 27886","Match","Exact","101 CHURCH ST, TARBORO, NC, 27886",90179032,"R"
14690,"101 E CLAREMORE DR","LANSING","MI",48911,42.672392034,-84.552975219,190,"101 E CLAREMORE DR, LANSING, MI, 48911","Match","Exact","101 E CLAREMORE DR, LANSING, MI, 48911",624055577,"L"
14691,"101 E COLLEGE AVE","EUREKA","IL",61530,40.7144298440001,-89.2726451079999,191,"101 E COLLEGE AVE, EUREKA, IL, 61530","Match","Exact","101 E COLLEGE AVE, EUREKA, IL, 61530",8998822,"L"
14692,"101 E COLLEGE AVE","TALLAHASSEE","FL",32301,30.440735772,-84.2782253729999,192,"101 E COLLEGE AVE, TALLAHASSEE, FL, 32301","Match","Exact","101 E COLLEGE AVE, TALLAHASSEE, FL, 32301",82850817,"R"
14693,"101 E COLUMBIA DRIVE","FAIRBURY","IL",61739,40.753456005,-88.513275216,193,"101 E COLUMBIA DRIVE, FAIRBURY, IL, 61739","Match","Exact","101 E COLUMBIA DR, FAIRBURY, IL, 61739",22377397,"L"
14694,"101 E COLUMBIA ST","ATTICA","IN",47918,40.2962527130001,-87.246502832,194,"101 E COLUMBIA ST, ATTICA, IN, 47918","Match","Exact","101 E COLUMBIA ST, ATTICA, IN, 47918",55216553,"L"
14695,"101 E COLUMBIA ST","SPRINGFIELD","OH",45502,39.9257449770001,-83.8082756589999,195,"101 E COLUMBIA ST, SPRINGFIELD, OH, 45502","Match","Exact","101 E COLUMBIA ST, SPRINGFIELD, OH, 45502",135023206,"R"
14696,"101 E COLUMBIA STREET","SPRINGFIELD","OH",45502,39.9257449770001,-83.8082756589999,196,"101 E COLUMBIA STREET, SPRINGFIELD, OH, 45502","Match","Exact","101 E COLUMBIA ST, SPRINGFIELD, OH, 45502",135023206,"R"
14697,"101 E CRYSTAL VIEW","SANFORD","FL",32773,NA,NA,197,"101 E CRYSTAL VIEW, SANFORD, FL, 32773","Tie",NA,NA,NA,NA
14698,"101 E DALLAS","MOUNT VERNON","MO",65712,37.103063864,-93.8188761549999,198,"101 E DALLAS, MOUNT VERNON, MO, 65712","Match","Non_Exact","101 E DALLAS ST, MOUNT VERNON, MO, 65712",99857354,"L"
14699,"101 E DELAWARE STE B","FAIRFIELD","IL",62837,NA,NA,199,"101 E DELAWARE STE B, FAIRFIELD, IL, 62837","No_Match",NA,NA,NA,NA
14700,"101 E DREWRY LANE","RALEIGH","NC",27609,35.8250941520001,-78.6357543619999,200,"101 E DREWRY LANE, RALEIGH, NC, 27609","Match","Exact","101 E DREWRY LN, RALEIGH, NC, 27609",72507213,"L"
14701,"101 E EDWARD ST","BRACKETTVILLE","TX",78832,29.315312782,-100.414442695,201,"101 E EDWARD ST, BRACKETTVILLE, TX, 78832","Match","Non_Exact","101 W EDWARD ST, BRACKETTVILLE, TX, 78832",188039025,"L"
14702,"101 E EDWARDSVILLE ROAD","WOOD RIVER","IL",62095,38.873241077,-90.0974649999999,202,"101 E EDWARDSVILLE ROAD, WOOD RIVER, IL, 62095","Match","Exact","101 E EDWARDSVILLE RD, WOOD RIVER, IL, 62095",628718494,"L"
14703,"101 E ELM","RUSSELL","AR",72139,NA,NA,203,"101 E ELM, RUSSELL, AR, 72139","Tie",NA,NA,NA,NA
14704,"101 E EUCLID","HADDONFIELD","NJ",8033,NA,NA,204,"101 E EUCLID, HADDONFIELD, NJ, 8033","Tie",NA,NA,NA,NA
14705,"101 E FAWN ST","DIAMOND CITY","AR",72644,NA,NA,205,"101 E FAWN ST, DIAMOND CITY, AR, 72644","Tie",NA,NA,NA,NA
14706,"101 E FRONT ST SUITE 301","MISSOULA","MT",59802,NA,NA,206,"101 E FRONT ST SUITE 301, MISSOULA, MT, 59802","Tie",NA,NA,NA,NA
14707,"101 E GAMBIER STREET","MOUNT VERNON","OH",43050,40.3916622240001,-82.4840584679999,207,"101 E GAMBIER STREET, MOUNT VERNON, OH, 43050","Match","Exact","101 E GAMBIER ST, MOUNT VERNON, OH, 43050",24616336,"R"
14708,"101 E GARRISON ROAD","BROOKHAVEN","PA",19015,39.8688492250001,-75.380942171,208,"101 E GARRISON ROAD, BROOKHAVEN, PA, 19015","Match","Exact","101 E GARRISON RD, BROOKHAVEN, PA, 19015",134889474,"R"
14709,"101 E GIBBSBORO ROAD APT 701","LINDENWOLD","NJ",8021,NA,NA,209,"101 E GIBBSBORO ROAD APT 701, LINDENWOLD, NJ, 8021","No_Match",NA,NA,NA,NA
14710,"101 E GLADE RD APT 18205","GRAPEVINE","TX",76051,NA,NA,210,"101 E GLADE RD APT 18205, GRAPEVINE, TX, 76051","No_Match",NA,NA,NA,NA
14711,"101 E GOVERNMENT STREET","PENSACOLA","FL",32502,30.4095519160001,-87.2128599819999,211,"101 E GOVERNMENT STREET, PENSACOLA, FL, 32502","Match","Exact","101 E GOVERNMENT ST, PENSACOLA, FL, 32502",93238462,"R"
14712,"101 E HANING","HOWE","TX",75459,33.506022714,-96.612735694,212,"101 E HANING, HOWE, TX, 75459","Match","Non_Exact","101 E HANING ST, HOWE, TX, 75459",63359450,"R"
14713,"101 E HARDING AVENUE","MORTON","TX",79346,33.7163105400001,-102.759199501,213,"101 E HARDING AVENUE, MORTON, TX, 79346","Match","Exact","101 E HARDING AVE, MORTON, TX, 79346",171652473,"R"
14714,"101 E HEDDING ST","SAN JOSE","CA",95112,37.354421894,-121.901196721,214,"101 E HEDDING ST, SAN JOSE, CA, 95112","Match","Exact","101 E HEDDING ST, SAN JOSE, CA, 95112",122906993,"L"
14715,"101 E HIGH AVE ROOM 205","NEW PHILADELPHIA","OH",44663,NA,NA,215,"101 E HIGH AVE ROOM 205, NEW PHILADELPHIA, OH, 44663","Tie",NA,NA,NA,NA
14716,"101 E HIGHWAY ST","FREDERICKSBURG","TX",78624,30.2619540850001,-98.8782396239999,216,"101 E HIGHWAY ST, FREDERICKSBURG, TX, 78624","Match","Exact","101 E HIGHWAY ST, FREDERICKSBURG, TX, 78624",176835320,"L"
14717,"101 E HUNT STREET","MCKINNEY","TX",75069,33.1992599220001,-96.6174494479999,217,"101 E HUNT STREET, MCKINNEY, TX, 75069","Match","Non_Exact","101 W HUNT ST, MCKINNEY, TX, 75069",123492189,"R"
14718,"101 E HUNTINGTON DR STE 102","ARCADIA","CA",91006,34.140096724,-118.0280673,218,"101 E HUNTINGTON DR STE 102, ARCADIA, CA, 91006","Match","Non_Exact","101 E HUNTINGTON DR, ARCADIA, CA, 91006",640426056,"L"
14719,"101 E JEFFERSON ST","SPRING GREEN","WI",53588,43.1768342730001,-90.06805156,219,"101 E JEFFERSON ST, SPRING GREEN, WI, 53588","Match","Exact","101 E JEFFERSON ST, SPRING GREEN, WI, 53588",86531455,"R"
14720,"101 E JENNINGS ST","NEWBURGH","IN",47630,37.9444568120001,-87.404090443,220,"101 E JENNINGS ST, NEWBURGH, IN, 47630","Match","Exact","101 JENNINGS ST, NEWBURGH, IN, 47630",32210584,"R"
14721,"101 E KENNEDY BLVD STE 3300","TAMPA","FL",33602,27.947128057,-82.459581374,221,"101 E KENNEDY BLVD STE 3300, TAMPA, FL, 33602","Match","Non_Exact","101 E KENNEDY BLVD, TAMPA, FL, 33602",104530161,"R"
14722,"101 E KENNEDY BLVD SUITE 2700","TAMPA","FL",33602,27.947128057,-82.459581374,222,"101 E KENNEDY BLVD SUITE 2700, TAMPA, FL, 33602","Match","Non_Exact","101 E KENNEDY BLVD, TAMPA, FL, 33602",104530161,"R"
14723,"101 E KENNEDY BLVD SUITE 3700","TAMPA","FL",33602,27.947128057,-82.459581374,223,"101 E KENNEDY BLVD SUITE 3700, TAMPA, FL, 33602","Match","Non_Exact","101 E KENNEDY BLVD, TAMPA, FL, 33602",104530161,"R"
14724,"101 E LADIES MILE ROAD","RICHMOND","VA",23222,37.5794029360001,-77.431716469,224,"101 E LADIES MILE ROAD, RICHMOND, VA, 23222","Match","Exact","101 E LADIES MILE RD, RICHMOND, VA, 23222",201539592,"R"
14725,"101 E LAKEWAY DRIVE","SHELTON","WA",98584,47.2693083130001,-122.950534036,225,"101 E LAKEWAY DRIVE, SHELTON, WA, 98584","Match","Exact","101 E LAKEWAY DR, SHELTON, WA, 98584",635571353,"L"
14726,"101 E LINDEN ST","TURTON","SD",57477,45.047285947,-98.0975896,226,"101 E LINDEN ST, TURTON, SD, 57477","Match","Exact","101 LINDEN ST, TURTON, SD, 57477",201205389,"R"
14727,"101 E MADISON","CALIFORNIA","MO",65018,38.634674659,-92.566219648,227,"101 E MADISON, CALIFORNIA, MO, 65018","Match","Non_Exact","101 E MADISON ST, CALIFORNIA, MO, 65018",34470912,"L"
14728,"101 E MAIN PO BOX 543","WILLIAMSVILLE","IL",62693,NA,NA,228,"101 E MAIN PO BOX 543, WILLIAMSVILLE, IL, 62693","No_Match",NA,NA,NA,NA
14729,"101 E MAIN ST","GLEN ELDER","KS",67446,39.4990220190001,-98.3061282899999,229,"101 E MAIN ST, GLEN ELDER, KS, 67446","Match","Exact","101 E MAIN ST, GLEN ELDER, KS, 67446",148302303,"L"
14730,"101 E MAIN ST","HENDERSONVILLE","TN",37075,36.3063335840001,-86.609472323,230,"101 E MAIN ST, HENDERSONVILLE, TN, 37075","Match","Exact","101 E MAIN ST, HENDERSONVILLE, TN, 37075",29785705,"R"
14731,"101 E MAIN ST","TROTWOOD","OH",45426,39.797369444,-84.309231837,231,"101 E MAIN ST, TROTWOOD, OH, 45426","Match","Exact","101 E MAIN ST, TROTWOOD, OH, 45426",143562363,"L"
14732,"101 E MARKET STREET 55162","LONG BEACH","CA",90805,33.8542997700001,-118.193523534,232,"101 E MARKET STREET 55162, LONG BEACH, CA, 90805","Match","Exact","101 MARKET ST, LONG BEACH, CA, 90805",141684292,"L"
14733,"101 E MCNAB RD STE 203","POMPANO BEACH","FL",33062,NA,NA,233,"101 E MCNAB RD STE 203, POMPANO BEACH, FL, 33062","No_Match",NA,NA,NA,NA
14734,"101 E MENDENHALL","BOZEMAN","MT",59715,45.6803859440001,-111.035650051,234,"101 E MENDENHALL, BOZEMAN, MT, 59715","Match","Non_Exact","101 E MENDENHALL ST, BOZEMAN, MT, 59715",163498010,"L"
14735,"101 E MESA DR","HOBBS","NM",88240,32.717396369,-103.135352446,235,"101 E MESA DR, HOBBS, NM, 88240","Match","Exact","101 E MESA DR, HOBBS, NM, 88240",132017125,"L"
14736,"101 E MISHAWAKA AVE","MISHAWAKA","IN",46545,41.6662135890001,-86.181168446,236,"101 E MISHAWAKA AVE, MISHAWAKA, IN, 46545","Match","Exact","101 E MISHAWAKA AVE, MISHAWAKA, IN, 46545",8062384,"R"
14737,"101 E NELSON STREET","QUANAH","TX",79252,34.3014744120001,-99.7385784209999,237,"101 E NELSON STREET, QUANAH, TX, 79252","Match","Exact","101 E NELSON ST, QUANAH, TX, 79252",164795777,"R"
14738,"101 E NEW HAMPSHIRE AVE","DELAND","FL",32724,29.006282823,-81.301287838,238,"101 E NEW HAMPSHIRE AVE, DELAND, FL, 32724","Match","Exact","101 E NEW HAMPSHIRE AVE, DELAND, FL, 32724",639876959,"R"
14739,"101 E NEW HAMPSHIRE AVENUE","DELAND","FL",32724,29.006282823,-81.301287838,239,"101 E NEW HAMPSHIRE AVENUE, DELAND, FL, 32724","Match","Exact","101 E NEW HAMPSHIRE AVE, DELAND, FL, 32724",639876959,"R"
14740,"101 E PIERSON AVENUE","SOMERS POINT","NJ",8244,39.3222509130001,-74.5868135699999,240,"101 E PIERSON AVENUE, SOMERS POINT, NJ, 8244","Match","Exact","101 PIERSON AVE, SOMERS POINT, NJ, 08244",202483521,"L"
14741,"101 E PLEASANT ST","PORTAGE","WI",53901,43.5414527550001,-89.460642258,241,"101 E PLEASANT ST, PORTAGE, WI, 53901","Match","Exact","101 E PLEASANT ST, PORTAGE, WI, 53901",73329601,"L"
14742,"101 E PONTOTOC STREET","MILL CREEK","OK",74856,34.4000356380001,-96.82693065,242,"101 E PONTOTOC STREET, MILL CREEK, OK, 74856","Match","Exact","101 E PONTOTOC ST, MILL CREEK, OK, 74856",63197030,"R"
14743,"101 E SAFFORD STREET BOX1718","TOMBSTONE","AZ",85638,31.716401455,-110.071096541,243,"101 E SAFFORD STREET BOX1718, TOMBSTONE, AZ, 85638","Match","Exact","101 SAFFORD ST, TOMBSTONE, AZ, 85638",120923621,"L"
14744,"101 E SAN FERNANDO ST - APT 400","SAN JOSE","CA",95112,37.3353640930001,-121.887001469,244,"101 E SAN FERNANDO ST - APT 400, SAN JOSE, CA, 95112","Match","Non_Exact","101 E SAN FERNANDO ST, SAN JOSE, CA, 95112",122907933,"L"
14745,"101 E SAN FERNANDO ST APT 115","SAN JOSE","CA",95112,37.3353640930001,-121.887001469,245,"101 E SAN FERNANDO ST APT 115, SAN JOSE, CA, 95112","Match","Non_Exact","101 E SAN FERNANDO ST, SAN JOSE, CA, 95112",122907933,"L"
14746,"101 E SAN FERNANDO ST APT 509","SAN JOSE","CA",95112,37.3353640930001,-121.887001469,246,"101 E SAN FERNANDO ST APT 509, SAN JOSE, CA, 95112","Match","Non_Exact","101 E SAN FERNANDO ST, SAN JOSE, CA, 95112",122907933,"L"
14747,"101 E SLEEPER RD","OAK HARBOR","WA",98277,48.340116698,-122.609046549,247,"101 E SLEEPER RD, OAK HARBOR, WA, 98277","Match","Exact","101 E SLEEPER RD, OAK HARBOR, WA, 98277",187594933,"R"
14748,"101 E STONEBRIAR PLACE","SHELTON","WA",98684,47.2659091290001,-123.099285682,248,"101 E STONEBRIAR PLACE, SHELTON, WA, 98684","Match","Non_Exact","101 E STONEBRIAR PL, SHELTON, WA, 98584",636526271,"L"
14749,"101 E TEMPLE AVE","HOBBS","NM",88240,32.686000748,-103.13699927,249,"101 E TEMPLE AVE, HOBBS, NM, 88240","Match","Exact","101 E TEMPLE AVE, HOBBS, NM, 88240",646698044,"L"
14750,"101 E TREEMONT DR","SHELTON","WA",98584,47.257324376,-123.048458923,250,"101 E TREEMONT DR, SHELTON, WA, 98584","Match","Exact","101 E TREEMONT DR, SHELTON, WA, 98584",625327501,"L"
14751,"101 E VINE ST SUITE 202","REDLANDS","CA",92373,NA,NA,251,"101 E VINE ST SUITE 202, REDLANDS, CA, 92373","Tie",NA,NA,NA,NA
14752,"101 E VINE STREET","CRAWFORDSVILLE","IA",52621,41.2149661170001,-91.5386832309999,252,"101 E VINE STREET, CRAWFORDSVILLE, IA, 52621","Match","Exact","101 E VINE ST, CRAWFORDSVILLE, IA, 52621",84189090,"R"
14753,"101 E VIRGINIA","EFFINGHAM","IL",62401,39.1256372460001,-88.5419196839999,253,"101 E VIRGINIA, EFFINGHAM, IL, 62401","Match","Non_Exact","101 E VIRGINIA AVE, EFFINGHAM, IL, 62401",94758075,"L"
14754,"101 E WELLS ST A 500","BALTIMORE","MD",21230,39.268593647,-76.6093527799999,254,"101 E WELLS ST A 500, BALTIMORE, MD, 21230","Match","Non_Exact","101 E WELLS ST, BALTIMORE, MD, 21230",206422714,"R"
14755,"101 E WELLS ST A500","BALTIMORE","MD",21230,39.268593647,-76.6093527799999,255,"101 E WELLS ST A500, BALTIMORE, MD, 21230","Match","Non_Exact","101 E WELLS ST, BALTIMORE, MD, 21230",206422714,"R"
14756,"101 E WILLOW ST APT 5","NORMAL","IL",61761,NA,NA,256,"101 E WILLOW ST APT 5, NORMAL, IL, 61761","Tie",NA,NA,NA,NA
14757,"101 E41ST ST","JOPLIN","MO",64804,NA,NA,257,"101 E41ST ST, JOPLIN, MO, 64804","No_Match",NA,NA,NA,NA
14758,"101 E9TH ST","LAKEWOOD","NJ",8701,NA,NA,258,"101 E9TH ST, LAKEWOOD, NJ, 8701","No_Match",NA,NA,NA,NA
14759,"101 EAGLE ST","FREDONIA","NY",14063,42.4388906610001,-79.325254415,259,"101 EAGLE ST, FREDONIA, NY, 14063","Match","Exact","101 EAGLE ST, FREDONIA, NY, 14063",120757995,"L"
14760,"101 EAST 11TH STREET","CHATTANOOGA","TN",37402,35.043376349,-85.30789334,260,"101 EAST 11TH STREET, CHATTANOOGA, TN, 37402","Match","Exact","101 E 11TH ST, CHATTANOOGA, TN, 37402",59304423,"L"
14761,"101 EAST 36TH AVENUE","EUGENE","OR",97405,44.0161867890001,-123.091237972,261,"101 EAST 36TH AVENUE, EUGENE, OR, 97405","Match","Exact","101 E 36TH AVE, EUGENE, OR, 97405",178169104,"L"
14762,"101 EAST 46TH STREET","TACOMA","WA",98404,47.215203053,-122.431180559,262,"101 EAST 46TH STREET, TACOMA, WA, 98404","Match","Exact","101 E 46TH ST, TACOMA, WA, 98404",184626383,"L"
14763,"101 EAST 4TH ST","HALBUR","IA",51444,42.0080159190001,-94.970693777,263,"101 EAST 4TH ST, HALBUR, IA, 51444","Match","Non_Exact","101 4TH ST, HALBUR, IA, 51444",68638181,"R"
14764,"101 EAST 5TH STREET SUITE 1150","SAINT PAUL","MN",55101,44.9468933790001,-93.0919310479999,264,"101 EAST 5TH STREET SUITE 1150, SAINT PAUL, MN, 55101","Match","Exact","101 E 5TH ST, SAINT PAUL, MN, 55101",97648651,"L"
14765,"101 EAST 69TH ST","NEW YORK","NY",10021,40.7691213260001,-73.9651012689999,265,"101 EAST 69TH ST, NEW YORK, NY, 10021","Match","Exact","101 E 69TH ST, NEW YORK, NY, 10021",59657310,"L"
14766,"101 EAST 94TH STREET","BLOOMINGTON","MN",55420,44.83349293,-93.277082271,266,"101 EAST 94TH STREET, BLOOMINGTON, MN, 55420","Match","Exact","101 E 94TH ST, BLOOMINGTON, MN, 55420",43596232,"R"
14767,"101 EAST AVENUE D","ROBSTOWN","TX",78380,27.7931209500001,-97.668495144,267,"101 EAST AVENUE D, ROBSTOWN, TX, 78380","Match","Exact","101 E AVE D, ROBSTOWN, TX, 78380",178510622,"L"
14768,"101 EAST BEAVER STREET","ANDERSON","MO",64831,36.650275058,-94.44618825,268,"101 EAST BEAVER STREET, ANDERSON, MO, 64831","Match","Non_Exact","101 BEAVER ST, ANDERSON, MO, 64831",49418494,"L"
14769,"101 EAST BROAD STREET SUITE 200","MINEOLA","TX",75773,32.6635877300001,-95.489152581,269,"101 EAST BROAD STREET SUITE 200, MINEOLA, TX, 75773","Match","Exact","101 E BROAD ST, MINEOLA, TX, 75773",42980356,"R"
14770,"101 EAST BROAD STREET","RICHMOND","VA",23219,37.5450055330001,-77.441023106,270,"101 EAST BROAD STREET, RICHMOND, VA, 23219","Match","Exact","101 E BROAD ST, RICHMOND, VA, 23219",201539308,"R"
14771,"101 EAST BROADWAY STE 513/515","MISSOULA","MT",59802,46.8720842450001,-113.993915884,271,"101 EAST BROADWAY STE 513/515, MISSOULA, MT, 59802","Match","Non_Exact","101 E BROADWAY ST, MISSOULA, MT, 59802",205239436,"R"
14772,"101 EAST BROADWAY SUITE 101","EUGENE","OR",97401,44.049923333,-123.091147305,272,"101 EAST BROADWAY SUITE 101, EUGENE, OR, 97401","Match","Exact","101 E BROADWAY, EUGENE, OR, 97401",605385966,"L"
14773,"101 EAST BROADWAY SUITE 130","EUGENE","OR",97401,44.049923333,-123.091147305,273,"101 EAST BROADWAY SUITE 130, EUGENE, OR, 97401","Match","Exact","101 E BROADWAY, EUGENE, OR, 97401",605385966,"L"
14774,"101 EAST BROADWAY","HACKENSACK","NJ",7601,40.8749390040001,-74.0380532,274,"101 EAST BROADWAY, HACKENSACK, NJ, 7601","Match","Exact","101 E BROADWAY, HACKENSACK, NJ, 07601",637773091,"R"
14775,"101 EAST BROADWAY","MISSOULA","MT",59802,46.8720842450001,-113.993915884,275,"101 EAST BROADWAY, MISSOULA, MT, 59802","Match","Non_Exact","101 E BROADWAY ST, MISSOULA, MT, 59802",205239436,"R"
14776,"101 EAST CAMDEN AVE APT 42","MORRISTOWN","NJ",8057,39.958255825,-74.974294743,276,"101 EAST CAMDEN AVE APT 42, MORRISTOWN, NJ, 8057","Match","Non_Exact","101 E CAMDEN AVE, MOORESTOWN, NJ, 08057",617127103,"L"
14777,"101 EAST CARY STREET","RICHMOND","VA",23219,37.541607909,-77.444239266,277,"101 EAST CARY STREET, RICHMOND, VA, 23219","Match","Exact","101 E CARY ST, RICHMOND, VA, 23219",201539402,"R"
14778,"101 EAST CHOLLA STREET","CASA GRANDE","AZ",85122,32.8919838830001,-111.752634221,278,"101 EAST CHOLLA STREET, CASA GRANDE, AZ, 85122","Match","Exact","101 E CHOLLA ST, CASA GRANDE, AZ, 85122",129178098,"L"
14779,"101 EAST COLLEGE STREET","JONESBOROUGH","TN",37659,36.2953684350001,-82.4740696539999,279,"101 EAST COLLEGE STREET, JONESBOROUGH, TN, 37659","Match","Exact","101 E COLLEGE ST, JONESBOROUGH, TN, 37659",127919462,"L"
14780,"101 EAST DELAWARE","FAIRFIELD","IL",62837,38.378792161,-88.359806665,280,"101 EAST DELAWARE, FAIRFIELD, IL, 62837","Match","Non_Exact","101 E DELAWARE ST, FAIRFIELD, IL, 62837",39173342,"R"
14781,"101 EAST DIAMOND STREE","BUTLER","PA",16001,40.8585993410001,-79.894579349,281,"101 EAST DIAMOND STREE, BUTLER, PA, 16001","Match","Non_Exact","101 E DIAMOND ST, BUTLER, PA, 16001",628103019,"R"
14782,"101 EAST DOOLEY LANE","BELGRADE","MT",59714,45.7766116240001,-111.20780898,282,"101 EAST DOOLEY LANE, BELGRADE, MT, 59714","Match","Exact","101 E DOOLEY LN, BELGRADE, MT, 59714",615077806,"R"
14783,"101 EAST FIFTH STREET SUITE 2602","SAINT PAUL","MN",55101,44.9468933790001,-93.0919310479999,283,"101 EAST FIFTH STREET SUITE 2602, SAINT PAUL, MN, 55101","Match","Exact","101 E 5TH ST, SAINT PAUL, MN, 55101",97648651,"L"
14784,"101 EAST GIBBSBORO RD APT 2306","LINDENWOLD","NJ",8021,NA,NA,284,"101 EAST GIBBSBORO RD APT 2306, LINDENWOLD, NJ, 8021","No_Match",NA,NA,NA,NA
14785,"101 EAST JESS HINTON ROAD","KEMP","TX",75143,32.340651839,-96.212516329,285,"101 EAST JESS HINTON ROAD, KEMP, TX, 75143","Match","Non_Exact","101 W JESS HINTON RD, KEMP, TX, 75143",125829613,"R"
14786,"101 EAST KENNEDY BLVD SUITE 2350","TAMPA","FL",33602,27.947128057,-82.459581374,286,"101 EAST KENNEDY BLVD SUITE 2350, TAMPA, FL, 33602","Match","Exact","101 E KENNEDY BLVD, TAMPA, FL, 33602",104530161,"R"
14787,"101 EAST KENNEDY BOULEVARD","TAMPA","FL",33602,27.947128057,-82.459581374,287,"101 EAST KENNEDY BOULEVARD, TAMPA, FL, 33602","Match","Exact","101 E KENNEDY BLVD, TAMPA, FL, 33602",104530161,"R"
14788,"101 EAST LINCOLN STREET APT M","NORMAL","IL",61761,40.52033012,-88.98406105,288,"101 EAST LINCOLN STREET APT M, NORMAL, IL, 61761","Match","Exact","101 E LINCOLN ST, NORMAL, IL, 61761",642919976,"R"
14789,"101 EAST LOUISIANA","VIVIAN","LA",71082,32.872467011,-93.986492947,289,"101 EAST LOUISIANA, VIVIAN, LA, 71082","Match","Non_Exact","101 E LOUISIANA AVE, VIVIAN, LA, 71082",57444543,"L"
14790,"101 EAST MACEDONIA CHURCH RD","OXFORD","GA",30054,33.6699670830001,-83.847784898,290,"101 EAST MACEDONIA CHURCH RD, OXFORD, GA, 30054","Match","Exact","101 E MACEDONIA CHURCH RD, OXFORD, GA, 30054",23613773,"L"
14791,"101 EAST MAIN ROAD","LITTLE COMPTON","RI",2837,41.521779096,-71.161893315,291,"101 EAST MAIN ROAD, LITTLE COMPTON, RI, 2837","Match","Exact","101 E MAIN RD, LITTLE COMPTON, RI, 02837",47361712,"R"
14792,"101 EAST MAIN STREET","AGENCY","IA",52530,NA,NA,292,"101 EAST MAIN STREET, AGENCY, IA, 52530","Tie",NA,NA,NA,NA
14793,"101 EAST MARKET STREET  5085","LONG BEACH","CA",90805,NA,NA,293,"101 EAST MARKET STREET  5085, LONG BEACH, CA, 90805","Tie",NA,NA,NA,NA
14794,"101 EAST MIDDLEFIELD ROAD UNIT 10","MOUNTAIN VIEW","CA",94043,37.3980280320001,-122.063268533,294,"101 EAST MIDDLEFIELD ROAD UNIT 10, MOUNTAIN VIEW, CA, 94043","Match","Exact","101 E MIDDLEFIELD RD, MOUNTAIN VIEW, CA, 94043",624978844,"R"
14795,"101 EAST MILL ST","HOLLANDALE","MS",38748,33.1719773400001,-90.855075012,295,"101 EAST MILL ST, HOLLANDALE, MS, 38748","Match","Exact","101 E MILL ST, HOLLANDALE, MS, 38748",1164585,"R"
14796,"101 EAST PARK AVE","GREENVILLE","SC",29601,34.857924993,-82.394024083,296,"101 EAST PARK AVE, GREENVILLE, SC, 29601","Match","Exact","101 E PARK AVE, GREENVILLE, SC, 29601",38300835,"L"
14797,"101 EAST ROSA PARKS AVE SUITE 208","TUSKEGEE","AL",36083,NA,NA,297,"101 EAST ROSA PARKS AVE SUITE 208, TUSKEGEE, AL, 36083","No_Match",NA,NA,NA,NA
14798,"101 EAST ROSA PARKS","TUSKEGEE","AL",36083,NA,NA,298,"101 EAST ROSA PARKS, TUSKEGEE, AL, 36083","No_Match",NA,NA,NA,NA
14799,"101 EAST SAN FERNANDO APT 545","SAN JOSE","CA",95112,37.3353640930001,-121.887001469,299,"101 EAST SAN FERNANDO APT 545, SAN JOSE, CA, 95112","Match","Non_Exact","101 E SAN FERNANDO ST, SAN JOSE, CA, 95112",122907933,"L"
14800,"101 EAST SAN FERNANDO ST APT 343","SAN JOSE","CA",95112,37.3353640930001,-121.887001469,300,"101 EAST SAN FERNANDO ST APT 343, SAN JOSE, CA, 95112","Match","Exact","101 E SAN FERNANDO ST, SAN JOSE, CA, 95112",122907933,"L"
14801,"101 EAST SPRING STREET","RIPLEY","MS",38663,34.7310220520001,-88.949025105,301,"101 EAST SPRING STREET, RIPLEY, MS, 38663","Match","Exact","101 E SPRING ST, RIPLEY, MS, 38663",76566015,"L"
14802,"101 EAST ST","EDWARDS","MS",39066,32.33167302,-90.601881759,302,"101 EAST ST, EDWARDS, MS, 39066","Match","Exact","101 EAST ST, EDWARDS, MS, 39066",65352283,"L"
14803,"101 EAST ST","HICKSVILLE","NY",11801,40.772862364,-73.514242969,303,"101 EAST ST, HICKSVILLE, NY, 11801","Match","Exact","101 EAST ST, HICKSVILLE, NY, 11801",147684590,"R"
14804,"101 EAST VALENCIA MESA DRIVE","FULLERTON","CA",92835,33.893459873,-117.928315498,304,"101 EAST VALENCIA MESA DRIVE, FULLERTON, CA, 92835","Match","Exact","101 E VALENCIA MESA DR, FULLERTON, CA, 92835",144008702,"L"
14805,"101 EASTLINE RD","WAKE VILLAGE","TX",75501,NA,NA,305,"101 EASTLINE RD, WAKE VILLAGE, TX, 75501","No_Match",NA,NA,NA,NA
14806,"101 EASTWOOD DRIVE","FRANKLIN","LA",70538,29.792089488,-91.4973856939999,306,"101 EASTWOOD DRIVE, FRANKLIN, LA, 70538","Match","Exact","101 EASTWOOD DR, FRANKLIN, LA, 70538",85882893,"R"
14807,"101 ED MICHAEL DRIVE","JACKSON","OH",45640,39.0412467400001,-82.650936311,307,"101 ED MICHAEL DRIVE, JACKSON, OH, 45640","Match","Exact","101 ED MICHAEL DR, JACKSON, OH, 45640",54771506,"R"
14808,"101 EDDY ST","FORT BRAGG","CA",95437,39.4406404210001,-123.791059026,308,"101 EDDY ST, FORT BRAGG, CA, 95437","Match","Exact","101 EDDY ST, FORT BRAGG, CA, 95437",67256560,"R"
14809,"101 EDISON FURLONG ROAD","DOYLESTOWN","PA",18901,40.2806781630001,-75.125840889,309,"101 EDISON FURLONG ROAD, DOYLESTOWN, PA, 18901","Match","Exact","101 EDISON FURLONG RD, DOYLESTOWN, PA, 18901",134772517,"R"
14810,"101 EDMONSTON DR","PIEDMONT","SC",29673,34.780976191,-82.477075766,310,"101 EDMONSTON DR, PIEDMONT, SC, 29673","Match","Exact","101 EDMONSTON DR, PIEDMONT, SC, 29673",25501865,"L"
14811,"101 EDMUND RD","WEST PARK","FL",33023,25.981285407,-80.201031432,311,"101 EDMUND RD, WEST PARK, FL, 33023","Match","Exact","101 EDMUND RD, WEST PARK, FL, 33023",114735371,"L"
14812,"101 EDWARDS DRIVE","ANDERSON","SC",29626,34.4933956420001,-82.687067708,312,"101 EDWARDS DRIVE, ANDERSON, SC, 29626","Match","Exact","101 EDWARDS DR, ANDERSON, SC, 29626",25451936,"L"
14813,"101 EISENHOWER PARKWAY","ROSELAND","NJ",7068,40.8275236810001,-74.319483845,313,"101 EISENHOWER PARKWAY, ROSELAND, NJ, 7068","Match","Exact","101 EISENHOWER PKWY, ROSELAND, NJ, 07068",63496736,"L"
14814,"101 EISENHOWER WAY","PLACENTIA","CA",92870,33.8708689370001,-117.827146294,314,"101 EISENHOWER WAY, PLACENTIA, CA, 92870","Match","Exact","101 EISENHOWER WAY, PLACENTIA, CA, 92870",144112193,"L"
14815,"101 EISENHOWER WAY","PLACENTIA","CA",92879,33.8708689370001,-117.827146294,315,"101 EISENHOWER WAY, PLACENTIA, CA, 92879","Match","Non_Exact","101 EISENHOWER WAY, PLACENTIA, CA, 92870",144112193,"L"
14816,"101 ELDER LANE","BEEBE","AR",72012,NA,NA,316,"101 ELDER LANE, BEEBE, AR, 72012","No_Match",NA,NA,NA,NA
14817,"101 ELLIOTS WAY","WILMINGTON","DE",19802,39.753377546,-75.541802627,317,"101 ELLIOTS WAY, WILMINGTON, DE, 19802","Match","Exact","101 ELLIOTS WAY, WILMINGTON, DE, 19802",187288884,"R"
14818,"101 ELLWOOD AVE","MT VERNON","NY",10552,40.9196031930001,-73.820340083,318,"101 ELLWOOD AVE, MT VERNON, NY, 10552","Match","Exact","101 ELLWOOD AVE, MOUNT VERNON, NY, 10552",139748747,"L"
14819,"101 ELM AVE SE","ROANOKE","VA",24013,37.266915161,-79.939830565,319,"101 ELM AVE SE, ROANOKE, VA, 24013","Match","Exact","101 ELM AVE SE, ROANOKE, VA, 24013",62939858,"L"
14820,"101 ELM ST","TOWANDA","PA",18848,41.771010248,-76.448184625,320,"101 ELM ST, TOWANDA, PA, 18848","Match","Exact","101 ELM ST, TOWANDA, PA, 18848",176984126,"R"
14821,"101 ELM STREET","AMESBURY","MA",1913,42.8591879620001,-70.9259809009999,321,"101 ELM STREET, AMESBURY, MA, 1913","Match","Exact","101 ELM ST, AMESBURY, MA, 01913",86619526,"L"
14822,"101 ELM STREET","BONAIRE","GA",31005,NA,NA,322,"101 ELM STREET, BONAIRE, GA, 31005","No_Match",NA,NA,NA,NA
14823,"101 ELM STREET","TOWANDA","PA",18848,41.771010248,-76.448184625,323,"101 ELM STREET, TOWANDA, PA, 18848","Match","Exact","101 ELM ST, TOWANDA, PA, 18848",176984126,"R"
14824,"101 ELOUISE ROAD","GEORGETOWN","SC",29440,33.489240024,-79.369110784,324,"101 ELOUISE ROAD, GEORGETOWN, SC, 29440","Match","Exact","101 ELOUISE RD, GEORGETOWN, SC, 29440",28975648,"L"
14825,"101 EMERALD MEADOW DRIVE","WAYNESBORO","GA",30830,33.1021004470001,-81.869613083,325,"101 EMERALD MEADOW DRIVE, WAYNESBORO, GA, 30830","Match","Exact","101 EMERALD MEADOW DR, WAYNESBORO, GA, 30830",99372624,"R"
14826,"101 ENGLEWOOD DR","HUBERT","NC",28539,34.720410923,-77.2322613969999,326,"101 ENGLEWOOD DR, HUBERT, NC, 28539","Match","Exact","101 ENGLEWOOD DR, HUBERT, NC, 28539",14027217,"R"
14827,"101 ENTERPRISE","EMMETT","ID",83617,43.858878186,-116.49904887,327,"101 ENTERPRISE, EMMETT, ID, 83617","Match","Non_Exact","101 ENTERPRISE ST, EMMETT, ID, 83617",635460540,"R"
14828,"101 ESSEX COURT","WEST END","NC",27376,35.2659473050001,-79.5718880049999,328,"101 ESSEX COURT, WEST END, NC, 27376","Match","Exact","101 ESSEX CT, WEST END, NC, 27376",20288679,"L"
14829,"101 ETHAN HILL ROAD","HARRISVILLE","PA",16083,NA,NA,329,"101 ETHAN HILL ROAD, HARRISVILLE, PA, 16083","No_Match",NA,NA,NA,NA
14830,"101 ETHRIDGE DR","BRUNSWICK","GA",31525,31.226216784,-81.47722077,330,"101 ETHRIDGE DR, BRUNSWICK, GA, 31525","Match","Exact","101 ETHRIDGE DR, BRUNSWICK, GA, 31525",9133227,"L"
14831,"101 EUCALYPTUS ST 14201","LAKE JACKSON","TX",77566,29.0475556160001,-95.468905843,331,"101 EUCALYPTUS ST 14201, LAKE JACKSON, TX, 77566","Match","Exact","101 EUCALYPTUS ST, LAKE JACKSON, TX, 77566",627306229,"L"
14832,"101 EUNICE DRIVE","GUYTON","GA",31312,32.384398705,-81.4305709929999,332,"101 EUNICE DRIVE, GUYTON, GA, 31312","Match","Exact","101 EUNICE DR, GUYTON, GA, 31312",6276031,"L"
14833,"101 EUROPA BLVD","CHERRY HILL","NJ",8003,39.8993692610001,-74.9830606529999,333,"101 EUROPA BLVD, CHERRY HILL, NJ, 8003","Match","Exact","101 EUROPA BLVD, CHERRY HILL, NJ, 08003",134383431,"L"
14834,"101 EVENING SHADE","HARVEST","AL",35849,NA,NA,334,"101 EVENING SHADE, HARVEST, AL, 35849","No_Match",NA,NA,NA,NA
14835,"101 EVERGREEN DR","ALTA","IA",51002,42.6693065970001,-95.26965036,335,"101 EVERGREEN DR, ALTA, IA, 51002","Match","Exact","101 EVERGREEN DR, ALTA, IA, 51002",624845019,"L"
14836,"101 EWART ROAD","SCARSDALE","NY",10583,NA,NA,336,"101 EWART ROAD, SCARSDALE, NY, 10583","No_Match",NA,NA,NA,NA
14837,"101 EWEING DR","STOUGHTON","MA",2072,42.13810528,-71.098849663,337,"101 EWEING DR, STOUGHTON, MA, 2072","Match","Non_Exact","101 EWING DR, STOUGHTON, MA, 02072",87271358,"R"
14838,"101 EWING ROAD","OCEAN VIEW","DE",19970,38.5820779100001,-75.074425877,338,"101 EWING ROAD, OCEAN VIEW, DE, 19970","Match","Exact","101 EWING RD, OCEAN VIEW, DE, 19970",106099601,"L"
14839,"101 EXCHANGE STREET","LAWRENCE","MA",1841,42.717223726,-71.1721679039999,339,"101 EXCHANGE STREET, LAWRENCE, MA, 1841","Match","Exact","101 EXCHANGE ST, LAWRENCE, MA, 01841",86625145,"R"
14840,"101 EXECUTIVE CENTER DR  STE 120","COLUMBIA","SC",29210,34.034771172,-81.1206291079999,340,"101 EXECUTIVE CENTER DR  STE 120, COLUMBIA, SC, 29210","Match","Exact","101 EXECUTIVE CENTER DR, COLUMBIA, SC, 29210",70073512,"R"
14841,"101 EXECUTIVE CENTER DR STE 120","COLUMBIA","SC",29210,34.034771172,-81.1206291079999,341,"101 EXECUTIVE CENTER DR STE 120, COLUMBIA, SC, 29210","Match","Exact","101 EXECUTIVE CENTER DR, COLUMBIA, SC, 29210",70073512,"R"
14842,"101 EXECUTIVE CENTER DR SUITE 120","COLUMBIA","SC",29210,34.034771172,-81.1206291079999,342,"101 EXECUTIVE CENTER DR SUITE 120, COLUMBIA, SC, 29210","Match","Exact","101 EXECUTIVE CENTER DR, COLUMBIA, SC, 29210",70073512,"R"
14843,"101 F STREET SE","ARDMORE","OK",73401,34.1690612260001,-97.122321955,343,"101 F STREET SE, ARDMORE, OK, 73401","Match","Exact","101 F ST SE, ARDMORE, OK, 73401",14831425,"L"
14844,"101 FAIR HILL DRIVE","ELKTON","MD",21921,39.7016429020001,-75.8807079869999,344,"101 FAIR HILL DRIVE, ELKTON, MD, 21921","Match","Exact","101 FAIR HILL DR, ELKTON, MD, 21921",207857696,"L"
14845,"101 FAIRFIELD WAY","BLOOMINGDALE","IL",60108,41.9575951950001,-88.0729499669999,345,"101 FAIRFIELD WAY, BLOOMINGDALE, IL, 60108","Match","Exact","101 FAIRFIELD WAY, BLOOMINGDALE, IL, 60108",638155638,"R"
14846,"101 FAIROAKS DR","JACKSONVILE","AR",72076,34.8714342170001,-92.1549416889999,346,"101 FAIROAKS DR, JACKSONVILE, AR, 72076","Match","Non_Exact","101 FAIR OAKS DR, JACKSONVILLE, AR, 72076",83544022,"L"
14847,"101 FAIRVIEW AVENUE","MT. AIRY","MD",21771,39.3771772480001,-77.15264207,347,"101 FAIRVIEW AVENUE, MT. AIRY, MD, 21771","Match","Exact","101 FAIRVIEW AVE, MOUNT AIRY, MD, 21771",61762229,"L"
14848,"101 FAIRWAY DRIVE","HAINES CITY","FL",33844,28.0671297220001,-81.558077404,348,"101 FAIRWAY DRIVE, HAINES CITY, FL, 33844","Match","Exact","101 FAIRWAY DR, HAINES CITY, FL, 33844",104852282,"L"
14849,"101 FAIRWAY","HELENA","MT",59601,46.6108214160001,-112.042252382,349,"101 FAIRWAY, HELENA, MT, 59601","Match","Non_Exact","101 FAIRWAY DR, HELENA, MT, 59601",202371466,"R"
14850,"101 FALLS PARK DRIVE","GREENVILLE","SC",29601,NA,NA,350,"101 FALLS PARK DRIVE, GREENVILLE, SC, 29601","No_Match",NA,NA,NA,NA
14851,"101 FARMINGTON DRIVE","CALHOUN","GA",30701,34.4632056290001,-84.851166007,351,"101 FARMINGTON DRIVE, CALHOUN, GA, 30701","Match","Exact","101 FARMINGTON DR, CALHOUN, GA, 30701",637377113,"R"
14852,"101 FARMINGTON DRIVE","LEBANON","KY",40033,37.565680494,-85.2449986459999,352,"101 FARMINGTON DRIVE, LEBANON, KY, 40033","Match","Exact","101 FARMINGTON DR, LEBANON, KY, 40033",633939425,"R"
14853,"101 FARWELL ST N","VERNDALE","MN",56481,46.396126334,-95.014367312,353,"101 FARWELL ST N, VERNDALE, MN, 56481","Match","Non_Exact","101 FARWELL ST, VERNDALE, MN, 56481",168423288,"L"
14854,"101 FAYAL LANE","MIDDLETOWN","RI",2842,41.52373772,-71.255993818,354,"101 FAYAL LANE, MIDDLETOWN, RI, 2842","Match","Exact","101 FAYAL LN, MIDDLETOWN, RI, 02842",47347411,"R"
14855,"101 FAYETTE ST","BUCKHANNON","WV",26201,NA,NA,355,"101 FAYETTE ST, BUCKHANNON, WV, 26201","No_Match",NA,NA,NA,NA
14856,"101 FEATHER LANE","NORTH BRANFORD","CT",6471,41.3585486640001,-72.7458012449999,356,"101 FEATHER LANE, NORTH BRANFORD, CT, 6471","Match","Exact","101 FEATHER LN, N BRANFORD, CT, 06471",604742303,"L"
14857,"101 FEDERAL PLAZA","BOSTON","MA",2110,42.354994419,-71.0563497539999,357,"101 FEDERAL PLAZA, BOSTON, MA, 2110","Match","Non_Exact","101 FEDERAL ST, BOSTON, MA, 02110",85721687,"R"
14858,"101 FEDERAL ST","WISCASSET","ME",4578,44.0100874610001,-69.66240715,358,"101 FEDERAL ST, WISCASSET, ME, 4578","Match","Exact","101 FEDERAL ST, WISCASSET, ME, 04578",610466873,"R"
14859,"101 FELLS AVE","MEDFORD","MA",2155,42.427311638,-71.091532415,359,"101 FELLS AVE, MEDFORD, MA, 2155","Match","Exact","101 FELLS AVE, MEDFORD, MA, 02155",640146801,"L"
14860,"101 FELSPAR","CARY","NC",27518,35.706755184,-78.78985425,360,"101 FELSPAR, CARY, NC, 27518","Match","Non_Exact","101 FELSPAR WAY, CARY, NC, 27518",208362516,"R"
14861,"101 FENNINGTON CIRCLE","OWINGS MILLS","MD",21117,39.4401034110001,-76.801510917,361,"101 FENNINGTON CIRCLE, OWINGS MILLS, MD, 21117","Match","Exact","101 FENNINGTON CIR, OWINGS MILLS, MD, 21117",191462761,"R"
14862,"101 FERN GROVE COURT","THOMASVILLE","GA",31792,30.859783093,-83.982753067,362,"101 FERN GROVE COURT, THOMASVILLE, GA, 31792","Match","Exact","101 FERN GROVE CT, THOMASVILLE, GA, 31792",617527656,"L"
14863,"101 FERN LEAF COURT","WOODRUFF","SC",29388,34.8697562720001,-82.090505059,363,"101 FERN LEAF COURT, WOODRUFF, SC, 29388","Match","Exact","101 FERN LEAF CT, WOODRUFF, SC, 29388",19495569,"L"
14864,"101 FERNWOOD CIR","CAYCE","SC",29033,33.942639785,-81.071266689,364,"101 FERNWOOD CIR, CAYCE, SC, 29033","Match","Exact","101 FERNWOOD CIR, CAYCE, SC, 29033",70057049,"R"
14865,"101 FERRARIS ST","COPIAGUE","NY",11726,40.6846704060001,-73.402166189,365,"101 FERRARIS ST, COPIAGUE, NY, 11726","Match","Exact","101 FERRARIS ST, COPIAGUE, NY, 11726",113972665,"L"
14866,"101 FIELDCREST ST","ANN ARBOR","MI",48103,42.252158824,-83.75115181,366,"101 FIELDCREST ST, ANN ARBOR, MI, 48103","Match","Exact","101 FIELDCREST ST, ANN ARBOR, MI, 48103",627085136,"R"
14867,"101 FIELDCREST STREET 103","ANN ARBOR","MI",48103,42.252158824,-83.75115181,367,"101 FIELDCREST STREET 103, ANN ARBOR, MI, 48103","Match","Exact","101 FIELDCREST ST, ANN ARBOR, MI, 48103",627085136,"R"
14868,"101 FILLMORE WAY","RENO","NV",89512,39.508920044,-119.86688921,368,"101 FILLMORE WAY, RENO, NV, 89512","Match","Non_Exact","101 FILLMORE WAY, RENO, NV, 89519",107043921,"R"
14869,"101 FILLMORE WAY","RENO","NV",89519,39.508920044,-119.86688921,369,"101 FILLMORE WAY, RENO, NV, 89519","Match","Exact","101 FILLMORE WAY, RENO, NV, 89519",107043921,"R"
14870,"101 FINCHAM ROAD","CLARKSBURG","WV",26301,NA,NA,370,"101 FINCHAM ROAD, CLARKSBURG, WV, 26301","No_Match",NA,NA,NA,NA
14871,"101 FIRESIDE VILLAGE DR APT 16","KEENE","TX",76059,32.39462902,-97.331339607,371,"101 FIRESIDE VILLAGE DR APT 16, KEENE, TX, 76059","Match","Exact","101 FIRESIDE VILLAGE DR, KEENE, TX, 76059",637950361,"L"
14872,"101 FIRST ST  362","LOS ALTOS","CA",94024,37.38011061,-122.119498676,372,"101 FIRST ST  362, LOS ALTOS, CA, 94024","Match","Non_Exact","101 1ST ST, LOS ALTOS, CA, 94022",123016226,"L"
14873,"101 FIRST ST","SHIPMAN","IL",62685,39.1168892960001,-90.0432933879999,373,"101 FIRST ST, SHIPMAN, IL, 62685","Match","Non_Exact","101 E 1ST ST, SHIPMAN, IL, 62685",97910787,"R"
14874,"101 FIRST STREET","STERLINGTON","LA",71280,32.6926486840001,-92.077906497,374,"101 FIRST STREET, STERLINGTON, LA, 71280","Match","Exact","101 1ST ST, STERLINGTON, LA, 71280",161076056,"R"
14875,"101 FIRST TERRACE","PALM BEACH GARDENS","FL",33418,26.8342980790001,-80.135714327,375,"101 FIRST TERRACE, PALM BEACH GARDENS, FL, 33418","Match","Exact","101 1ST TER, PALM BEACH GARDENS, FL, 33418",115315331,"L"
14876,"101 FISHER DR","MONTGOMERY","AL",36115,32.407442944,-86.242541202,376,"101 FISHER DR, MONTGOMERY, AL, 36115","Match","Exact","101 FISHER DR, MONTGOMERY, AL, 36115",1471018,"R"
14877,"101 FIVE OAKS CT","SAVANNAH","GA",30406,NA,NA,377,"101 FIVE OAKS CT, SAVANNAH, GA, 30406","No_Match",NA,NA,NA,NA
14878,"101 FLANDERS DRIVE","HILLSBOROUGH","NJ",8844,40.508120025,-74.631354476,378,"101 FLANDERS DRIVE, HILLSBOROUGH, NJ, 8844","Match","Exact","101 FLANDERS DR, HILLSBOROUGH, NJ, 08844",59947848,"L"
14879,"101 FLETCHER DRIVE","LONDON","KY",40741,37.123286437,-84.0831836899999,379,"101 FLETCHER DRIVE, LONDON, KY, 40741","Match","Exact","101 FLETCHER DR, LONDON, KY, 40741",98764173,"R"
14880,"101 FLINTWOOD CT UNIT A7","WINSTON SALEM","NC",27106,36.163524581,-80.279005072,380,"101 FLINTWOOD CT UNIT A7, WINSTON SALEM, NC, 27106","Match","Exact","101 FLINTWOOD CT, WINSTON SALEM, NC, 27106",84674540,"R"
14881,"101 FLIP FLOP COURT","SUMMERVILLE","SC",29486,33.1297313580001,-80.104551567,381,"101 FLIP FLOP COURT, SUMMERVILLE, SC, 29486","Match","Exact","101 FLIP FLOP CT, SUMMERVILLE, SC, 29486",652159490,"R"
14882,"101 FLORENCE PLACE","STATEN ISLAND","NY",10309,40.5237244260001,-74.20411558,382,"101 FLORENCE PLACE, STATEN ISLAND, NY, 10309","Match","Exact","101 FLORENCE PL, STATEN ISLAND, NY, 10309",59874551,"R"
14883,"101 FM 1536","SULPHUR SPRINGS","TX",75482,33.3237155620001,-95.588342161,383,"101 FM 1536, SULPHUR SPRINGS, TX, 75482","Match","Exact","101 FM 1536, SULPHUR SPRINGS, TX, 75482",42782788,"L"
14884,"101 FONTHILLL DRIVE","COLUMBIA","SC",29229,NA,NA,384,"101 FONTHILLL DRIVE, COLUMBIA, SC, 29229","No_Match",NA,NA,NA,NA
14885,"101 FOOTBALL COURT APT 909","NASHVILLE","TN",37217,NA,NA,385,"101 FOOTBALL COURT APT 909, NASHVILLE, TN, 37217","No_Match",NA,NA,NA,NA
14886,"101 FOREMAN ROAD C38","MOBILE","AL",36608,30.6891850100001,-88.2011123629999,386,"101 FOREMAN ROAD C38, MOBILE, AL, 36608","Match","Exact","101 FOREMAN RD, MOBILE, AL, 36608",61928451,"L"
14887,"101 FOREST PL","STOCKBRIDGE","GA",30281,33.6128003370001,-84.196686099,387,"101 FOREST PL, STOCKBRIDGE, GA, 30281","Match","Exact","101 FOREST PL, STOCKBRIDGE, GA, 30281",23188319,"R"
14888,"101 FORKED TRAIL","CULLOWHEE","NC",28723,35.1620107790001,-83.1982119149999,388,"101 FORKED TRAIL, CULLOWHEE, NC, 28723","Match","Exact","101 FORKED TRL, CULLOWHEE, NC, 28723",630168903,"L"
14889,"101 FORT HOWELL DR","HILTON HEAD ISLAND","SC",29926,32.23062042,-80.709408701,389,"101 FORT HOWELL DR, HILTON HEAD ISLAND, SC, 29926","Match","Exact","101 FORT HOWELL DR, HILTON HEAD ISLAND, SC, 29926",635759362,"R"
14890,"101 FOSSIL CREEK CIR","SHERMAN","TX",75092,33.6236293220001,-96.707240235,390,"101 FOSSIL CREEK CIR, SHERMAN, TX, 75092","Match","Exact","101 FOSSIL CREEK CIR, SHERMAN, TX, 75092",634111988,"R"
14891,"101 FOSTER ROAD","LOS GATOS","CA",95030,37.2171569060001,-121.970193211,391,"101 FOSTER ROAD, LOS GATOS, CA, 95030","Match","Exact","101 FOSTER RD, LOS GATOS, CA, 95030",122944730,"L"
14892,"101 FOSTER STREET","HARRISVILLE","RI",2830,41.9667861460001,-71.6831495549999,392,"101 FOSTER STREET, HARRISVILLE, RI, 2830","Match","Exact","101 FOSTER ST, HARRISVILLE, RI, 02830",47443290,"L"
14893,"101 FOURTH AVENUE","ALIQUIPPA","PA",15001,40.615900262,-80.252058942,393,"101 FOURTH AVENUE, ALIQUIPPA, PA, 15001","Match","Exact","101 4TH AVE, ALIQUIPPA, PA, 15001",629859057,"R"
14894,"101 FRANCOLYN TERRACE","WEST POINT","GA",31833,32.8685049700001,-85.1802387019999,394,"101 FRANCOLYN TERRACE, WEST POINT, GA, 31833","Match","Exact","101 FRANCOLYN TER, WEST POINT, GA, 31833",1735185,"R"
14895,"101 FRANKLIN BLVD UNIT B","AUSTIN","TX",78751,30.318744312,-97.72192652,395,"101 FRANKLIN BLVD UNIT B, AUSTIN, TX, 78751","Match","Exact","101 FRANKLIN BLVD, AUSTIN, TX, 78751",63931724,"L"
14896,"101 FRANKLIN COURT","DECATUR","GA",30030,33.770015347,-84.302927914,396,"101 FRANKLIN COURT, DECATUR, GA, 30030","Match","Exact","101 FRANKLIN CT, DECATUR, GA, 30030",639159868,"R"
14897,"101 FRIENDSHIP CIRCLE","WEST TAWAKONI","TX",75474,32.890495124,-96.009435203,397,"101 FRIENDSHIP CIRCLE, WEST TAWAKONI, TX, 75474","Match","Exact","101 FRIENDSHIP CIR, WEST TAWAKONI, TX, 75474",42860092,"L"
14898,"101 FROST - 301","NEW BOSTON","TX",75570,NA,NA,398,"101 FROST - 301, NEW BOSTON, TX, 75570","No_Match",NA,NA,NA,NA
14899,"101 FROST STREET LOT 35","ALBANY","GA",31705,31.575611656,-84.101832988,399,"101 FROST STREET LOT 35, ALBANY, GA, 31705","Match","Exact","101 FROST ST, ALBANY, GA, 31705",636324215,"L"
14900,"101 FULTON AVENUE","JERSEY CITY","NJ",7305,40.702466803,-74.0835568689999,400,"101 FULTON AVENUE, JERSEY CITY, NJ, 7305","Match","Exact","101 FULTON AVE, JERSEY CITY, NJ, 07305",59606443,"L"
14901,"101 FULTON STREET","NORWOOD","MA",2062,42.200781889,-71.20013385,401,"101 FULTON STREET, NORWOOD, MA, 2062","Match","Exact","101 FULTON ST, NORWOOD, MA, 02062",87243557,"R"
14902,"101 G ST SW APT A110","WASHINGTON","DC",20024,NA,NA,402,"101 G ST SW APT A110, WASHINGTON, DC, 20024","No_Match",NA,NA,NA,NA
14903,"101 G STREET NW APT A107","WASHINGTON","DC",20024,38.8983016600001,-77.0123365969999,403,"101 G STREET NW APT A107, WASHINGTON, DC, 20024","Match","Non_Exact","101 G ST NW, WASHINGTON, DC, 20001",638282337,"R"
14904,"101 GABRIEL","WEST UNION","WV",26456,NA,NA,404,"101 GABRIEL, WEST UNION, WV, 26456","No_Match",NA,NA,NA,NA
14905,"101 GABRIELLE COURT","BROOMALL","PA",19008,NA,NA,405,"101 GABRIELLE COURT, BROOMALL, PA, 19008","No_Match",NA,NA,NA,NA
14906,"101 GAISLER RD","BLAIRSTOWN","NJ",7825,41.0251854160001,-74.995309302,406,"101 GAISLER RD, BLAIRSTOWN, NJ, 7825","Match","Exact","101 GAISLER RD, BLAIRSTOWN, NJ, 07825",625528493,"R"
14907,"101 GALILEO WAY","OVIEDO","FL",32765,28.689835653,-81.207312888,407,"101 GALILEO WAY, OVIEDO, FL, 32765","Match","Exact","101 GALILEO WAY, OVIEDO, FL, 32765",617967343,"L"
14908,"101 GALLERIA DR","DESOTO","TX",75115,32.5910041980001,-96.888592263,408,"101 GALLERIA DR, DESOTO, TX, 75115","Match","Exact","101 GALLERIA DR, DESOTO, TX, 75115",624155738,"R"
14909,"101 GARDEN CIRCLE","GREENEVILLE","TN",37743,36.192535542,-82.793199842,409,"101 GARDEN CIRCLE, GREENEVILLE, TN, 37743","Match","Non_Exact","101 GARDEN CIR, GREENEVILLE, TN, 37745",611351168,"L"
14910,"101 GARDENS DR APT 101","POMPANO BEACH","FL",33069,26.20970243,-80.1898711009999,410,"101 GARDENS DR APT 101, POMPANO BEACH, FL, 33069","Match","Exact","101 GARDENS DR, POMPANO BEACH, FL, 33069",114780200,"L"
14911,"101 GARDENS WAY -109","LYNCHBURG","VA",24502,37.3533150740001,-79.230281496,411,"101 GARDENS WAY -109, LYNCHBURG, VA, 24502","Match","Exact","101 GARDENS WAY, LYNCHBURG, VA, 24502",651944146,"R"
14912,"101 GASTON LANE","COATESVILLE","PA",19320,39.996545397,-75.8148561209999,412,"101 GASTON LANE, COATESVILLE, PA, 19320","Match","Exact","101 GASTON LN, COATESVILLE, PA, 19320",634175153,"L"
14913,"101 GATES AVENUE APT A7","MONTCLAIR","NJ",7043,NA,NA,413,"101 GATES AVENUE APT A7, MONTCLAIR, NJ, 7043","No_Match",NA,NA,NA,NA
14914,"101 GATEWAY DR","ENTERPRISE","AL",36330,31.3676776040001,-85.8506690839999,414,"101 GATEWAY DR, ENTERPRISE, AL, 36330","Match","Exact","101 GATEWAY DR, ENTERPRISE, AL, 36330",99555015,"L"
14915,"101 GAUNT DR","MICHLETON","PA",8056,NA,NA,415,"101 GAUNT DR, MICHLETON, PA, 8056","No_Match",NA,NA,NA,NA
14916,"101 GEDNEY STREET APT 1C","NYACK","NY",10960,NA,NA,416,"101 GEDNEY STREET APT 1C, NYACK, NY, 10960","No_Match",NA,NA,NA,NA
14917,"101 GEDNEY STREET APT 6X","NYACK","NY",10960,NA,NA,417,"101 GEDNEY STREET APT 6X, NYACK, NY, 10960","No_Match",NA,NA,NA,NA
14918,"101 GEOLOGY BUILDING","COLUMBIA","MO",65211,NA,NA,418,"101 GEOLOGY BUILDING, COLUMBIA, MO, 65211","No_Match",NA,NA,NA,NA
14919,"101 GEORGE STREET","EXCELSIOR","MN",55331,44.9042482720001,-93.574758565,419,"101 GEORGE STREET, EXCELSIOR, MN, 55331","Match","Exact","101 GEORGE ST, EXCELSIOR, MN, 55331",640440476,"L"
14920,"101 GEORGIAN OAKS","ROCKPORT","TX",78382,28.043142098,-97.054679621,420,"101 GEORGIAN OAKS, ROCKPORT, TX, 78382","Match","Exact","101 GEORGIAN OAKS, ROCKPORT, TX, 78382",624220660,"R"
14921,"101 GERMANTOWN","HALLSVILLE","TX",75650,32.496124625,-94.559499148,421,"101 GERMANTOWN, HALLSVILLE, TX, 75650","Match","Non_Exact","101 GERMANTOWN CIR, HALLSVILLE, TX, 75650",613759031,"L"
14922,"101 GEYSER PLACE","STOCKBRIDGE","GA",30281,33.6103023520001,-84.205340411,422,"101 GEYSER PLACE, STOCKBRIDGE, GA, 30281","Match","Exact","101 GEYSER PL, STOCKBRIDGE, GA, 30281",619940262,"L"
14923,"101 GILBERT DR","YAKIMA","WA",98902,46.5981650520001,-120.536213705,423,"101 GILBERT DR, YAKIMA, WA, 98902","Match","Exact","101 GILBERT DR, YAKIMA, WA, 98902",184934579,"R"
14924,"101 GILLESPIE DR APT 15103","FRANKLIN","TN",37067,35.950589581,-86.806054349,424,"101 GILLESPIE DR APT 15103, FRANKLIN, TN, 37067","Match","Exact","101 GILLESPIE DR, FRANKLIN, TN, 37067",617941338,"R"
14925,"101 GILLESPIE DRIVE APT 14107","FRANKLIN","TN",37067,35.950589581,-86.806054349,425,"101 GILLESPIE DRIVE APT 14107, FRANKLIN, TN, 37067","Match","Exact","101 GILLESPIE DR, FRANKLIN, TN, 37067",617941338,"R"
14926,"101 GLEN CROSS CIRCLE","TRUSSVILLE","AL",35173,33.596239331,-86.6213981879999,426,"101 GLEN CROSS CIRCLE, TRUSSVILLE, AL, 35173","Match","Exact","101 GLEN CROSS CIR, TRUSSVILLE, AL, 35173",646714760,"L"
14927,"101 GLEN EAGLE CIRCLE","IRMO","SC",29063,NA,NA,427,"101 GLEN EAGLE CIRCLE, IRMO, SC, 29063","No_Match",NA,NA,NA,NA
14928,"101 GLEN EAGLE CIRLCE","IRMO","SC",29063,NA,NA,428,"101 GLEN EAGLE CIRLCE, IRMO, SC, 29063","No_Match",NA,NA,NA,NA
14929,"101 GLENBROOK ROAD","MORRIS PLAINS","NJ",7950,40.8283354430001,-74.4890115919999,429,"101 GLENBROOK ROAD, MORRIS PLAINS, NJ, 7950","Match","Exact","101 GLENBROOK RD, MORRIS PLAINS, NJ, 07950",649374065,"R"
14930,"101 GLENDALE DR","SEQUIM","WA",98382,48.0677342370001,-123.142654862,430,"101 GLENDALE DR, SEQUIM, WA, 98382","Match","Exact","101 GLENDALE DR, SEQUIM, WA, 98382",150871134,"L"
14931,"101 GLENWOOD AVE","YONKERS","NY",10701,40.9472642480001,-73.895349418,431,"101 GLENWOOD AVE, YONKERS, NY, 10701","Match","Exact","101 GLENWOOD AVE, YONKERS, NY, 10701",139742955,"L"
14932,"101 GLENWOOD DR","WASHINGTON CROSSING","PA",18977,40.269218299,-74.871181313,432,"101 GLENWOOD DR, WASHINGTON CROSSING, PA, 18977","Match","Exact","101 GLENWOOD DR, WASHINGTON CROSSING, PA, 18977",134719413,"R"
14933,"101 GOLD RUN CIRCLE","DILLON","CO",80435,39.632068336,-106.040711908,433,"101 GOLD RUN CIRCLE, DILLON, CO, 80435","Match","Exact","101 GOLD RUN CIR, DILLON, CO, 80435",607442085,"R"
14934,"101 GOLFVIEW DR","PLEASANT HILL","MO",64080,NA,NA,434,"101 GOLFVIEW DR, PLEASANT HILL, MO, 64080","No_Match",NA,NA,NA,NA
14935,"101 GRACE AVENUE","PRESCOTT","AZ",86303,34.542170689,-112.486625266,435,"101 GRACE AVENUE, PRESCOTT, AZ, 86303","Match","Exact","101 GRACE AVE, PRESCOTT, AZ, 86303",624892057,"R"
14936,"101 GRACE MEADOWS DR","CLAYTON","NC",27520,35.59616914,-78.435654437,436,"101 GRACE MEADOWS DR, CLAYTON, NC, 27520","Match","Exact","101 GRACE MEADOWS DR, CLAYTON, NC, 27520",26547920,"L"
14937,"101 GRAMMAR ROAD","SANFORD","ME",4073,43.4533653240001,-70.7573152109999,437,"101 GRAMMAR ROAD, SANFORD, ME, 4073","Match","Exact","101 GRAMMAR RD, SANFORD, ME, 04073",92776886,"L"
14938,"101 GRAND AVE APT 1","CAPITOLA","CA",95010,36.972589597,-121.949535379,438,"101 GRAND AVE APT 1, CAPITOLA, CA, 95010","Match","Exact","101 GRAND AVE, CAPITOLA, CA, 95010",645483691,"R"
14939,"101 GRAND SLAM CIR","O FALLON","MO",63366,38.833820759,-90.686023194,439,"101 GRAND SLAM CIR, O FALLON, MO, 63366","Match","Exact","101 GRAND SLAM CIR, O FALLON, MO, 63366",647282379,"L"
14940,"101 GRAND VIEW ST","PROVIDENCE","RI",2906,41.844282294,-71.4033750419999,440,"101 GRAND VIEW ST, PROVIDENCE, RI, 2906","Match","Exact","101 GRAND VIEW ST, PROVIDENCE, RI, 02906",47463707,"R"
14941,"101 GRAND VIEW STREET","PROVIDENCE","RI",2906,41.844282294,-71.4033750419999,441,"101 GRAND VIEW STREET, PROVIDENCE, RI, 2906","Match","Exact","101 GRAND VIEW ST, PROVIDENCE, RI, 02906",47463707,"R"
14942,"101 GRANDVIEW DRIVE","ELLISVILLE","MS",39437,31.617477142,-89.2043113669999,442,"101 GRANDVIEW DRIVE, ELLISVILLE, MS, 39437","Match","Exact","101 GRANDVIEW DR, ELLISVILLE, MS, 39437",419299,"R"
14943,"101 GRANITE AVENUE","CINCINNATI","OH",45215,39.2168865830001,-84.445508758,443,"101 GRANITE AVENUE, CINCINNATI, OH, 45215","Match","Exact","101 GRANITE AVE, CINCINNATI, OH, 45215",103928949,"L"
14944,"101 GRANITE POINTE LN","WINFIELD","MO",63368,39.00440317,-90.863025522,444,"101 GRANITE POINTE LN, WINFIELD, MO, 63368","Match","Non_Exact","101 GRANITE POINTE LN, WINFIELD, MO, 63389",618452390,"R"
14945,"101 GRANT ROAD","LANSDALE","PA",19446,40.1989097950001,-75.306263042,445,"101 GRANT ROAD, LANSDALE, PA, 19446","Match","Exact","101 GRANT RD, LANSDALE, PA, 19446",135074882,"R"
14946,"101 GRANT","THAYER","MO",65791,36.5144798100001,-91.542339855,446,"101 GRANT, THAYER, MO, 65791","Match","Non_Exact","101 GRANT AVE, THAYER, MO, 65791",33381734,"L"
14947,"101 GRAY ST W","COMFREY","MN",56019,44.1109227150001,-94.904662941,447,"101 GRAY ST W, COMFREY, MN, 56019","Match","Exact","101 GRAY ST W, COMFREY, MN, 56019",28572892,"R"
14948,"101 GRAYHAWK CV","MADISON","MS",39110,32.540122206,-90.121168563,448,"101 GRAYHAWK CV, MADISON, MS, 39110","Match","Exact","101 GRAYHAWK COVE, MADISON, MS, 39110",648658284,"L"
14949,"101 GREEN COURT DRIVE","ELK POINT","SD",57025,42.6802659840001,-96.677184454,449,"101 GREEN COURT DRIVE, ELK POINT, SD, 57025","Match","Exact","101 GREEN COURT DR, ELK POINT, SD, 57025",176352739,"L"
14950,"101 GREEN CREST WAY","EASLEY","SC",29642,34.7294193330001,-82.552095344,450,"101 GREEN CREST WAY, EASLEY, SC, 29642","Match","Exact","101 GREEN CREST WAY, EASLEY, SC, 29642",25473341,"L"
14951,"101 GREENBRIAR","MAGNOLIA","TX",77355,30.177153543,-95.8217186109999,451,"101 GREENBRIAR, MAGNOLIA, TX, 77355","Match","Non_Exact","101 GREENBRIAR DR, MAGNOLIA, TX, 77355",78358382,"L"
14952,"101 GREENCASTLE CIRCLE","SPRINGFIELD","IL",62712,39.764828499,-89.5922708149999,452,"101 GREENCASTLE CIRCLE, SPRINGFIELD, IL, 62712","Match","Exact","101 GREENCASTLE CIR, SPRINGFIELD, IL, 62712",606961622,"R"
14953,"101 GREENLEAF AVE","LAKE PLACID","FL",33852,27.3491255960001,-81.4045457079999,453,"101 GREENLEAF AVE, LAKE PLACID, FL, 33852","Match","Exact","101 GREENLEAF AVE, LAKE PLACID, FL, 33852",4664290,"R"
14954,"101 GREENRIDGE COURT","LUTHERVILLE","MD",21093,39.4190027070001,-76.609550583,454,"101 GREENRIDGE COURT, LUTHERVILLE, MD, 21093","Match","Exact","101 GREENRIDGE CT, LUTHERVILLE, MD, 21093",191473134,"R"
14955,"101 GREENSBORO RD","HANOVER","NH",3755,43.6907876920001,-72.2481581489999,455,"101 GREENSBORO RD, HANOVER, NH, 3755","Match","Exact","101 GREENSBORO RD, HANOVER, NH, 03755",633257101,"L"
14956,"101 GREENWAY DRIVE","FARMINGDALE","NY",11735,40.7309765680001,-73.466025465,456,"101 GREENWAY DRIVE, FARMINGDALE, NY, 11735","Match","Exact","101 GREENWAY DR, FARMINGDALE, NY, 11735",147693225,"R"
14957,"101 GREGORY LANE","PLEASANT HILL","CA",94523,37.947947389,-122.062667336,457,"101 GREGORY LANE, PLEASANT HILL, CA, 94523","Match","Exact","101 GREGORY LN, PLEASANT HILL, CA, 94523",192048433,"R"
14958,"101 GREGORY STREET","FORREST CITY","AR",72335,34.992457872,-90.7853352559999,458,"101 GREGORY STREET, FORREST CITY, AR, 72335","Match","Exact","101 GREGORY ST, FORREST CITY, AR, 72335",12656093,"L"
14959,"101 GREYSTONE COURT","GOLDSBORO","NC",27530,35.3382881160001,-78.091960104,459,"101 GREYSTONE COURT, GOLDSBORO, NC, 27530","Match","Exact","101 GREYSTONE CT, GOLDSBORO, NC, 27530",14419783,"R"
14960,"101 GRIFFIN WAY","EGLIN AFB","FL",32542,NA,NA,460,"101 GRIFFIN WAY, EGLIN AFB, FL, 32542","No_Match",NA,NA,NA,NA
14961,"101 GROTON LONG POINT ROAD","GROTON","CT",6340,41.3404726140001,-72.009065119,461,"101 GROTON LONG POINT ROAD, GROTON, CT, 6340","Match","Exact","101 GROTON LONG POINT RD, GROTON, CT, 06340",653163297,"R"
14962,"101 GROVE PARK LANE","MADISON","AL",35758,34.7315211910001,-86.778523175,462,"101 GROVE PARK LANE, MADISON, AL, 35758","Match","Exact","101 GROVE PARK LN, MADISON, AL, 35758",625330971,"L"
14963,"101 GROVE STREET","ENGLEWOOD","NJ",7631,40.8977502810001,-73.977106729,463,"101 GROVE STREET, ENGLEWOOD, NJ, 7631","Match","Exact","101 GROVE ST, ENGLEWOOD, NJ, 07631",64375107,"R"
14964,"101 GULF COAST CIRCLE","PORT SAINT JOE","FL",32456,29.781738122,-85.282371756,464,"101 GULF COAST CIRCLE, PORT SAINT JOE, FL, 32456","Match","Exact","101 GULF COAST CIR, PORT SAINT JOE, FL, 32456",617090469,"L"
14965,"101 GULF","LAMAR","MO",64759,37.5077154040001,-94.277009146,465,"101 GULF, LAMAR, MO, 64759","Match","Non_Exact","101 GULF ST, LAMAR, MO, 64759",99036772,"L"
14966,"101 GUYMON CT","MORRISVILLE","NC",27560,35.8208243230001,-78.814085287,466,"101 GUYMON CT, MORRISVILLE, NC, 27560","Match","Exact","101 GUYMON CT, MORRISVILLE, NC, 27560",72641474,"L"
14967,"101 H STREET   PO  BOX 7","CENTRAL CITY","CO",80427,39.802847496,-105.521121402,467,"101 H STREET   PO  BOX 7, CENTRAL CITY, CO, 80427","Match","Exact","101 H ST, CENTRAL CITY, CO, 80427",186480992,"L"
14968,"101 H STREET SUITE E","PETALUMA","CA",94952,38.231846289,-122.631105553,468,"101 H STREET SUITE E, PETALUMA, CA, 94952","Match","Exact","101 H ST, PETALUMA, CA, 94952",67478089,"L"
14969,"101 H STREET","CENTRAL CITY","CO",80427,39.802847496,-105.521121402,469,"101 H STREET, CENTRAL CITY, CO, 80427","Match","Exact","101 H ST, CENTRAL CITY, CO, 80427",186480992,"L"
14970,"101 HABERSHAM COURT","ROCKY MOUNT","NC",27804,35.962487717,-77.8662795979999,470,"101 HABERSHAM COURT, ROCKY MOUNT, NC, 27804","Match","Exact","101 HABERSHAM CT, ROCKY MOUNT, NC, 27804",90392680,"L"
14971,"101 HAGERMAN COURT","BRIDGEWATER","NJ",8807,40.596155206,-74.633353617,471,"101 HAGERMAN COURT, BRIDGEWATER, NJ, 8807","Match","Exact","101 HAGERMAN CT, BRIDGEWATER, NJ, 08807",60001524,"L"
14972,"101 HAHN ST","SAN FRANCISCO","CA",94134,37.7134425200001,-122.415309593,472,"101 HAHN ST, SAN FRANCISCO, CA, 94134","Match","Exact","101 HAHN ST, SAN FRANCISCO, CA, 94134",192295360,"L"
14973,"101 HAHN STREET","SAN FRANCISCO","CA",94134,37.7134425200001,-122.415309593,473,"101 HAHN STREET, SAN FRANCISCO, CA, 94134","Match","Exact","101 HAHN ST, SAN FRANCISCO, CA, 94134",192295360,"L"
14974,"101 HALDANE CT","LA PLATA","MD",20646,38.5251346060001,-76.987253438,474,"101 HALDANE CT, LA PLATA, MD, 20646","Match","Exact","101 HALDANE CT, LA PLATA, MD, 20646",25383397,"L"
14975,"101 HALF PENNY CT","STEPHENS CITY","VA",22655,39.082309228,-78.222533756,475,"101 HALF PENNY CT, STEPHENS CITY, VA, 22655","Match","Exact","101 HALF PENNY CT, STEPHENS CITY, VA, 22655",641422170,"L"
14976,"101 HALIFAX DRIVE","BUCKHANNON","WV",26201,NA,NA,476,"101 HALIFAX DRIVE, BUCKHANNON, WV, 26201","No_Match",NA,NA,NA,NA
14977,"101 HALLS CREEK ROAD","NEW BERN","NC",28560,35.131090758,-76.9103602279999,477,"101 HALLS CREEK ROAD, NEW BERN, NC, 28560","Match","Exact","101 HALLS CREEK RD, NEW BERN, NC, 28560",67916864,"R"
14978,"101 HAMBURG TURNPIKE","BLOOMINGDALE","NJ",7403,41.0081478160001,-74.338999776,478,"101 HAMBURG TURNPIKE, BLOOMINGDALE, NJ, 7403","Match","Exact","101 HAMBURG TPKE, BLOOMINGDALE, NJ, 07403",65255721,"R"
14979,"101 HAMBURGER WAY","CENTERVILLE","UT",84014,NA,NA,479,"101 HAMBURGER WAY, CENTERVILLE, UT, 84014","No_Match",NA,NA,NA,NA
14980,"101 HAMLIN WAY","LAWRENCEBURG","KY",40342,38.049543235,-84.9015884309999,480,"101 HAMLIN WAY, LAWRENCEBURG, KY, 40342","Match","Exact","101 HAMLIN WAY, LAWRENCEBURG, KY, 40342",43458069,"R"
14981,"101 HAMMOND","HOT SPRINGS","AR",71914,NA,NA,481,"101 HAMMOND, HOT SPRINGS, AR, 71914","No_Match",NA,NA,NA,NA
14982,"101 HAMPSHIRE ST","DOTHAN","AL",36306,31.2383975820001,-85.484263782,482,"101 HAMPSHIRE ST, DOTHAN, AL, 36306","Match","Non_Exact","101 HAMPSHIRE ST, DOTHAN, AL, 36305",101222159,"R"
14983,"101 HAMPTONS WAY SE MEDICINE HAT","ALBERTA T1B 0C7 CAN",NA,NA,NA,NA,483,"101 HAMPTONS WAY SE MEDICINE HAT, ALBERTA T1B 0C7 CAN, , ","No_Match",NA,NA,NA,NA
14984,"101 HAND AVE","BAY MINETTE","AL",36507,30.882147124,-87.773750454,484,"101 HAND AVE, BAY MINETTE, AL, 36507","Match","Non_Exact","101 HAND ST, BAY MINETTE, AL, 36507",644842962,"L"
14985,"101 HARBOR CRESCENT","SEAFORD","VA",23696,37.203055319,-76.432844792,485,"101 HARBOR CRESCENT, SEAFORD, VA, 23696","Match","Exact","101 HARBOR CRES, SEAFORD, VA, 23696",103752383,"L"
14986,"101 HARBOUR TOWN CT","KATHLEEN","GA",31047,32.5059791370001,-83.676943938,486,"101 HARBOUR TOWN CT, KATHLEEN, GA, 31047","Match","Exact","101 HARBOUR TOWN CT, KATHLEEN, GA, 31047",217644408,"L"
14987,"101 HARDINGWOODS PLACE","NASHVILLE","TN",37205,36.0984718670001,-86.875611871,487,"101 HARDINGWOODS PLACE, NASHVILLE, TN, 37205","Match","Exact","101 HARDINGWOODS PL, NASHVILLE, TN, 37205",97180372,"L"
14988,"101 HARKINS YOUNG ROAD","BLAIRSVILLE","GA",30512,34.8799047570001,-83.976445837,488,"101 HARKINS YOUNG ROAD, BLAIRSVILLE, GA, 30512","Match","Exact","101 HARKINS YOUNG RD, BLAIRSVILLE, GA, 30512",85275689,"L"
14989,"101 HARRINGTON LANE","COLUMBIA","SC",29223,34.123225318,-80.8944471409999,489,"101 HARRINGTON LANE, COLUMBIA, SC, 29223","Match","Exact","101 HARRINGTON LN, COLUMBIA, SC, 29223",604788505,"L"
14990,"101 HARRINGTON RD","SYRACUSE","NY",13224,43.041308567,-76.102072614,490,"101 HARRINGTON RD, SYRACUSE, NY, 13224","Match","Exact","101 HARRINGTON RD, SYRACUSE, NY, 13224",46605803,"L"
14991,"101 HARRISON AVE","FAIR HAVEN","NJ",7704,40.3528127600001,-74.0505408029999,491,"101 HARRISON AVE, FAIR HAVEN, NJ, 7704","Match","Exact","101 HARRISON AVE, FAIR HAVEN, NJ, 07704",90534037,"L"
14992,"101 HARRISON DRIVE","EVANSTON","WY",82930,NA,NA,492,"101 HARRISON DRIVE, EVANSTON, WY, 82930","No_Match",NA,NA,NA,NA
14993,"101 HARRISON ST","DELAWARE","OH",43015,40.2921855590001,-83.0721416549999,493,"101 HARRISON ST, DELAWARE, OH, 43015","Match","Non_Exact","101 W HARRISON ST, DELAWARE, OH, 43015",24603043,"L"
14994,"101 HARVARD AVE","SMITHTOWN","NY",11787,40.850122361,-73.20370773,494,"101 HARVARD AVE, SMITHTOWN, NY, 11787","Match","Exact","101 HARVARD AVE, SMITHTOWN, NY, 11787",647301321,"R"
14995,"101 HARVEST ROAD","ROANOKE RAPIDS","NC",27870,36.4465205490001,-77.6344066509999,495,"101 HARVEST ROAD, ROANOKE RAPIDS, NC, 27870","Match","Exact","101 HARVEST RD, ROANOKE RAPIDS, NC, 27870",56730561,"R"
14996,"101 HARVEST SUGAR ROW","CARENCRO","LA",70520,30.3057720090001,-92.08124156,496,"101 HARVEST SUGAR ROW, CARENCRO, LA, 70520","Match","Non_Exact","101 HARVEST SUGAR, CARENCRO, LA, 70520",643978906,"L"
14997,"101 HASTINGS RD","SALEM","WV",26426,39.2664682450001,-80.600761602,497,"101 HASTINGS RD, SALEM, WV, 26426","Match","Exact","101 HASTINGS RD, SALEM, WV, 26426",55193950,"L"
14998,"101 HATCHET CREEK CT","MORRISVILLE","NC",27560,35.821960968,-78.841194211,498,"101 HATCHET CREEK CT, MORRISVILLE, NC, 27560","Match","Exact","101 HATCHET CREEK CT, MORRISVILLE, NC, 27560",612819609,"L"
14999,"101 HAWKINS ROAD","TABERNACLE","NJ",8088,NA,NA,499,"101 HAWKINS ROAD, TABERNACLE, NJ, 8088","No_Match",NA,NA,NA,NA
15000,"101 HAWTHORNE AVE","EWING","NJ",8638,40.2565791500001,-74.7719834439999,500,"101 HAWTHORNE AVE, EWING, NJ, 8638","Match","Exact","101 HAWTHORNE AVE, EWING, NJ, 08638",60177194,"R"
