"ID","Address","City","State","Zip","lat","long","id","input_address","match_indicator","match_type","matched_address","tiger_line_id","tiger_side"
102501,"1200 SUMMERSIDE DR","DESOTO","TX",75115,32.5829103500001,-96.887675625,1,"1200 SUMMERSIDE DR, DESOTO, TX, 75115","Match","Exact","1200 SUMMERSIDE DR, DESOTO, TX, 75115",103277730,"L"
102502,"1200 SW 136 AVE","DAVIE","FL",33325,26.1047465780001,-80.330071362,2,"1200 SW 136 AVE, DAVIE, FL, 33325","Match","Exact","1200 SW 136TH AVE, DAVIE, FL, 33325",114764243,"R"
102503,"1200 SW 136TH AVE","DAVIE","FL",33325,26.1047465780001,-80.330071362,3,"1200 SW 136TH AVE, DAVIE, FL, 33325","Match","Exact","1200 SW 136TH AVE, DAVIE, FL, 33325",114764243,"R"
102504,"1200 SW 20TH STREET","LEES SUMMIT","MO",64015,39.0050621770001,-94.287988491,4,"1200 SW 20TH STREET, LEES SUMMIT, MO, 64015","Match","Non_Exact","1200 SW 20TH ST, LAKE TAPAWINGO, MO, 64015",91475137,"L"
102505,"1200 SW 22ND STREET","BLUE SPRINGS","MO",64015,39.0053955930001,-94.290696914,5,"1200 SW 22ND STREET, BLUE SPRINGS, MO, 64015","Match","Exact","1200 SW 22ND ST, BLUE SPRINGS, MO, 64015",91475120,"L"
102506,"1200 SW 31ST ST","TOPEKA","KS",66611,39.0122315090001,-95.6935188689999,6,"1200 SW 31ST ST, TOPEKA, KS, 66611","Match","Exact","1200 SW 31ST ST, TOPEKA, KS, 66611",635264374,"R"
102507,"1200 SW MAIN STREET","PORTLAND","OR",97205,45.5179037030001,-122.685662573,7,"1200 SW MAIN STREET, PORTLAND, OR, 97205","Match","Exact","1200 SW MAIN ST, PORTLAND, OR, 97205",157498997,"L"
102508,"1200 SWEETWATER BLVD","LONGWOOD","FL",32779,NA,NA,8,"1200 SWEETWATER BLVD, LONGWOOD, FL, 32779","No_Match",NA,NA,NA,NA
102509,"1200 SYCAMORE ST 8283","WAXAHACHIE","TX",75165,32.4031408160001,-96.853441388,9,"1200 SYCAMORE ST 8283, WAXAHACHIE, TX, 75165","Match","Exact","1200 SYCAMORE ST, WAXAHACHIE, TX, 75165",103450378,"R"
102510,"1200 SYCAMORE STREET","WAXAHACHIE","TX",75165,32.4031408160001,-96.853441388,10,"1200 SYCAMORE STREET, WAXAHACHIE, TX, 75165","Match","Exact","1200 SYCAMORE ST, WAXAHACHIE, TX, 75165",103450378,"R"
102511,"1200 TAFT ROAD","CHESAPEAKE","VA",23322,NA,NA,11,"1200 TAFT ROAD, CHESAPEAKE, VA, 23322","No_Match",NA,NA,NA,NA
102512,"1200 TANLEY ROAD","SILVER SPRING","MD",20904,39.0530882940001,-76.986263557,12,"1200 TANLEY ROAD, SILVER SPRING, MD, 20904","Match","Exact","1200 TANLEY RD, SILVER SPRING, MD, 20904",62073328,"L"
102513,"1200 TARPON WOODS BLVD Q7","PALM HARBOR","FL",34685,28.088707992,-82.696298068,13,"1200 TARPON WOODS BLVD Q7, PALM HARBOR, FL, 34685","Match","Exact","1200 TARPON WOODS BLVD, PALM HARBOR, FL, 34685",639731652,"L"
102514,"1200 TARRINGTON AVE","CHARLOTTE","NC",28205,35.2039725650001,-80.770724059,14,"1200 TARRINGTON AVE, CHARLOTTE, NC, 28205","Match","Exact","1200 TARRINGTON AVE, CHARLOTTE, NC, 28205",70491702,"R"
102515,"1200 TAYLOR STREET","KENNER","LA",70062,29.982165234,-90.237294133,15,"1200 TAYLOR STREET, KENNER, LA, 70062","Match","Exact","1200 TAYLOR ST, KENNER, LA, 70062",93495492,"R"
102516,"1200 THE PLAZA SUITE D","CHARLOTTE","NC",28205,35.218353215,-80.8110628699999,16,"1200 THE PLAZA SUITE D, CHARLOTTE, NC, 28205","Match","Non_Exact","1200 THE PLAZA, CHARLOTTE, NC, 28205",70488421,"R"
102517,"1200 THIRD AVENUE SUITE 700","SAN DIEGO","CA",92101,32.718328145,-117.162029818,17,"1200 THIRD AVENUE SUITE 700, SAN DIEGO, CA, 92101","Match","Exact","1200 3RD AVE, SAN DIEGO, CA, 92101",195343582,"L"
102518,"1200 THOMAS DR","ANGLETON","TX",77515,29.1765623270001,-95.43846661,18,"1200 THOMAS DR, ANGLETON, TX, 77515","Match","Exact","1200 THOMAS DR, ANGLETON, TX, 77515",649885997,"R"
102519,"1200 THORNHILL COURT","SOUTHLAKE","TX",76092,NA,NA,19,"1200 THORNHILL COURT, SOUTHLAKE, TX, 76092","No_Match",NA,NA,NA,NA
102520,"1200 TICES LANE","EAST BRUNSWICK","NJ",8816,NA,NA,20,"1200 TICES LANE, EAST BRUNSWICK, NJ, 8816","No_Match",NA,NA,NA,NA
102521,"1200 TIERNEY ST","MARQUETTE","MI",49855,46.534542146,-87.411411798,21,"1200 TIERNEY ST, MARQUETTE, MI, 49855","Match","Exact","1200 TIERNEY ST, MARQUETTE, MI, 49855",182053932,"L"
102522,"1200 TIGER DRIVE","THIBODAUX","LA",70301,29.784101386,-90.838495586,22,"1200 TIGER DRIVE, THIBODAUX, LA, 70301","Match","Exact","1200 TIGER DR, THIBODAUX, LA, 70301",604583980,"L"
102523,"1200 TOWN SQUARE","SHAKOPEE","MN",55379,NA,NA,23,"1200 TOWN SQUARE, SHAKOPEE, MN, 55379","No_Match",NA,NA,NA,NA
102524,"1200 TOWNCENTER VILLAGE DR APT 1209","MCDONOUGH","GA",30253,NA,NA,24,"1200 TOWNCENTER VILLAGE DR APT 1209, MCDONOUGH, GA, 30253","No_Match",NA,NA,NA,NA
102525,"1200 TRAVIS ST","HOUSTON","TX",77002,29.755945421,-95.367027679,25,"1200 TRAVIS ST, HOUSTON, TX, 77002","Match","Exact","1200 TRAVIS ST, HOUSTON, TX, 77002",96067573,"R"
102526,"1200 TRAVIS STREET 20TH FLOOR","HOUSTON","TX",77002,29.755945421,-95.367027679,26,"1200 TRAVIS STREET 20TH FLOOR, HOUSTON, TX, 77002","Match","Exact","1200 TRAVIS ST, HOUSTON, TX, 77002",96067573,"R"
102527,"1200 TRIBAL COURT","ARNOLD","MD",21012,39.041693862,-76.4665229839999,27,"1200 TRIBAL COURT, ARNOLD, MD, 21012","Match","Exact","1200 TRIBAL CT, ARNOLD, MD, 21012",68199670,"R"
102528,"1200 TRINITY NORTH ROAD","WRIGHTSVILLE","PA",17368,39.994847506,-76.524212846,28,"1200 TRINITY NORTH ROAD, WRIGHTSVILLE, PA, 17368","Match","Exact","1200 TRINITY NORTH RD, WRIGHTSVILLE, PA, 17368",611409973,"L"
102529,"1200 TROHPY RIDGE ROAD APT 230","DECATUR","TX",76234,NA,NA,29,"1200 TROHPY RIDGE ROAD APT 230, DECATUR, TX, 76234","No_Match",NA,NA,NA,NA
102530,"1200 TROUTBROOK DRIVE","WEST HARTFORD","CT",6119,41.7718441970001,-72.736758569,30,"1200 TROUTBROOK DRIVE, WEST HARTFORD, CT, 6119","Match","Non_Exact","1200 TROUT BROOK DR, WEST HARTFORD, CT, 06119",3526432,"R"
102531,"1200 TRUMAN BAKER DRIVE","SEARCY","AR",72143,35.233932827,-91.698714557,31,"1200 TRUMAN BAKER DRIVE, SEARCY, AR, 72143","Match","Non_Exact","1200 TRUMMANN BAKER DR, SEARCY, AR, 72143",637329109,"L"
102532,"1200 TRUMPET LANE","UPPER MARLBORO","MD",20772,NA,NA,32,"1200 TRUMPET LANE, UPPER MARLBORO, MD, 20772","No_Match",NA,NA,NA,NA
102533,"1200 TRUXTUN AVENUE SUITE 120","BAKERSFIELD","CA",93301,35.37333046,-119.015356639,33,"1200 TRUXTUN AVENUE SUITE 120, BAKERSFIELD, CA, 93301","Match","Exact","1200 TRUXTUN AVE, BAKERSFIELD, CA, 93301",109088956,"R"
102534,"1200 UNIVERSITY AVE STE 100","DES MOINES","IA",50314,41.6004382300001,-93.6330913739999,34,"1200 UNIVERSITY AVE STE 100, DES MOINES, IA, 50314","Match","Exact","1200 UNIVERSITY AVE, DES MOINES, IA, 50314",65782047,"L"
102535,"1200 US HWY 180","SNYDER","TX",79549,32.717052224,-100.910140548,35,"1200 US HWY 180, SNYDER, TX, 79549","Match","Exact","1200 US HWY 180, SNYDER, TX, 79549",183176663,"L"
102536,"1200 VALLEY VISTA","WALLA WALLA","WA",99362,46.0294267520001,-118.307861953,36,"1200 VALLEY VISTA, WALLA WALLA, WA, 99362","Match","Non_Exact","1200 VALLEY VISTA AVE, WALLA WALLA, WA, 99362",608182468,"L"
102537,"1200 VARNUM ST NE","WASHINGTON","DC",20017,38.9428735280001,-76.991327858,37,"1200 VARNUM ST NE, WASHINGTON, DC, 20017","Match","Exact","1200 VARNUM ST NE, WASHINGTON, DC, 20017",639332801,"L"
102538,"1200 VICTOR BLVD SUITE 500","MORGAN CITY","LA",70380,NA,NA,38,"1200 VICTOR BLVD SUITE 500, MORGAN CITY, LA, 70380","No_Match",NA,NA,NA,NA
102539,"1200 VILLA PLACE STE 200","NASHVILLE","TN",37212,36.1430461050001,-86.791917548,39,"1200 VILLA PLACE STE 200, NASHVILLE, TN, 37212","Match","Exact","1200 VILLA PL, NASHVILLE, TN, 37212",97190586,"L"
102540,"1200 VILLA PLACE SUITE 200","NASHVILLE","TN",37212,36.1430461050001,-86.791917548,40,"1200 VILLA PLACE SUITE 200, NASHVILLE, TN, 37212","Match","Exact","1200 VILLA PL, NASHVILLE, TN, 37212",97190586,"L"
102541,"1200 VIRGILINA AVENUE","NORFOLK","VA",23503,36.9435089580001,-76.2387559059999,41,"1200 VIRGILINA AVENUE, NORFOLK, VA, 23503","Match","Exact","1200 VIRGILINA AVE, NORFOLK, VA, 23503",122123022,"L"
102542,"1200 W 30TH STREET 207","YANKTON","SD",57380,NA,NA,42,"1200 W 30TH STREET 207, YANKTON, SD, 57380","No_Match",NA,NA,NA,NA
102543,"1200 W 37TH PLACE","LOS ANGELES","CA",90007,34.019956403,-118.294680931,43,"1200 W 37TH PLACE, LOS ANGELES, CA, 90007","Match","Exact","1200 W 37TH PL, LOS ANGELES, CA, 90007",141607600,"L"
102544,"1200 W 58TH PL","LOS ANGELES","CA",90044,33.988343365,-118.296010851,44,"1200 W 58TH PL, LOS ANGELES, CA, 90044","Match","Exact","1200 W 58TH PL, LOS ANGELES, CA, 90044",141659180,"L"
102545,"1200 W 69TH STREET","LOS ANGELES","CA",90044,33.977018699,-118.296040569,45,"1200 W 69TH STREET, LOS ANGELES, CA, 90044","Match","Exact","1200 W 69TH ST, LOS ANGELES, CA, 90044",141659354,"L"
102546,"1200 W ALGONQUIN ROAD","PALATINE","IL",60067,NA,NA,46,"1200 W ALGONQUIN ROAD, PALATINE, IL, 60067","No_Match",NA,NA,NA,NA
102547,"1200 W ALGONQUIN","PALATINE","IL",60067,NA,NA,47,"1200 W ALGONQUIN, PALATINE, IL, 60067","No_Match",NA,NA,NA,NA
102548,"1200 W BIRCHWOOD ROAD","PAYSON","AZ",85541,34.241315366,-111.346892673,48,"1200 W BIRCHWOOD ROAD, PAYSON, AZ, 85541","Match","Exact","1200 W BIRCHWOOD RD, PAYSON, AZ, 85541",159323702,"L"
102549,"1200 W BRANNAN ISLAND RD UNIT 20","ISLETON","CA",95641,38.112449269,-121.614184288,49,"1200 W BRANNAN ISLAND RD UNIT 20, ISLETON, CA, 95641","Match","Non_Exact","1200 W BRANNAN ISLAND RD, ISLETON, CA, 95641",634358023,"L"
102550,"1200 W CHEYENNE AVE 1202","N LAS VEGAS","NV",89030,NA,NA,50,"1200 W CHEYENNE AVE 1202, N LAS VEGAS, NV, 89030","Tie",NA,NA,NA,NA
102551,"1200 W CHEYENNE RD","COLORADO SPRINGS","CO",80906,38.798867623,-104.849922207,51,"1200 W CHEYENNE RD, COLORADO SPRINGS, CO, 80906","Match","Exact","1200 W CHEYENNE RD, COLORADO SPRINGS, CO, 80906",105528554,"R"
102552,"1200 W CHEYENNE RD","COS","CO",80906,38.7988717480001,-104.849901273,52,"1200 W CHEYENNE RD, COS, CO, 80906","Match","Non_Exact","1200 W CHEYENNE RD, COLO SPGS, CO, 80906",105528554,"R"
102553,"1200 W CHYENNE AVENUE APT 1028","NORTH LAS VEGAS","NV",89030,NA,NA,53,"1200 W CHYENNE AVENUE APT 1028, NORTH LAS VEGAS, NV, 89030","Tie",NA,NA,NA,NA
102554,"1200 W COMMERCE","EASTLAND","TX",76448,32.401018487,-98.830794623,54,"1200 W COMMERCE, EASTLAND, TX, 76448","Match","Non_Exact","1200 W COMMERCE ST, EASTLAND, TX, 76448",158685827,"L"
102555,"1200 W CREEK COYOTE TRL","CLARKSVILLE","TN",37042,36.609879935,-87.382727916,55,"1200 W CREEK COYOTE TRL, CLARKSVILLE, TN, 37042","Match","Exact","1200 W CREEK COYOTE TRL, CLARKSVILLE, TN, 37042",645097283,"L"
102556,"1200 W DAVID KEMPF CT","SALINE","MI",48176,42.157026258,-83.7448352979999,56,"1200 W DAVID KEMPF CT, SALINE, MI, 48176","Match","Exact","1200 W DAVID KEMPF CT, SALINE, MI, 48176",26041134,"L"
102557,"1200 W GODFREY AVENUE","PHILADELPHIA","PA",19141,40.047017155,-75.139170657,57,"1200 W GODFREY AVENUE, PHILADELPHIA, PA, 19141","Match","Exact","1200 GODFREY AVE, PHILADELPHIA, PA, 19141",131413991,"L"
102558,"1200 W GRANADA BLVD","ORMOND BEACH","FL",32174,29.267382615,-81.101854168,58,"1200 W GRANADA BLVD, ORMOND BEACH, FL, 32174","Match","Exact","1200 W GRANADA BLVD, ORMOND BEACH, FL, 32174",640721749,"R"
102559,"1200 W HILL DR","SAN BERNARDINO","CA",92407,NA,NA,59,"1200 W HILL DR, SAN BERNARDINO, CA, 92407","Tie",NA,NA,NA,NA
102560,"1200 W INTERNATIONAL SPEEDWAY BLVD","DAYTONA BEACH","FL",32114,29.198474554,-81.052150877,60,"1200 W INTERNATIONAL SPEEDWAY BLVD, DAYTONA BEACH, FL, 32114","Match","Exact","1200 INTERNATIONAL SPEEDWAY BLVD, DAYTONA BEACH, FL, 32114",640738859,"R"
102561,"1200 W JEFFERY","KANKAKEE","IL",60901,41.106007343,-87.8852012789999,61,"1200 W JEFFERY, KANKAKEE, IL, 60901","Match","Non_Exact","1200 W JEFFERY ST, KANKAKEE, IL, 60901",98356630,"L"
102562,"1200 W LAMBERT RD","BREA","CA",92821,NA,NA,62,"1200 W LAMBERT RD, BREA, CA, 92821","No_Match",NA,NA,NA,NA
102563,"1200 W MAIN ST","GRIFFITH","IN",46319,41.522866981,-87.4413738439999,63,"1200 W MAIN ST, GRIFFITH, IN, 46319","Match","Exact","1200 W MAIN ST, GRIFFITH, IN, 46319",98429529,"R"
102564,"1200 W MARIPOSA RD 30","NOGALAS","AZ",85621,31.354522984,-110.959640585,64,"1200 W MARIPOSA RD 30, NOGALAS, AZ, 85621","Match","Non_Exact","1200 N MARIPOSA RD, NOGALES, AZ, 85621",653134157,"R"
102565,"1200 W MARIPOSA RD 30","NOOGALAS","AZ",85621,31.354522984,-110.959640585,65,"1200 W MARIPOSA RD 30, NOOGALAS, AZ, 85621","Match","Non_Exact","1200 N MARIPOSA RD, NOGALES, AZ, 85621",653134157,"R"
102566,"1200 W NORTHWEST HIGHWAY","PALATINE","IL",60067,42.1249081280001,-88.071439857,66,"1200 W NORTHWEST HIGHWAY, PALATINE, IL, 60067","Match","Exact","1200 W NORTHWEST HWY, PALATINE, IL, 60067",638710679,"R"
102567,"1200 W POLK AVE SUITE Q","PHARR","TX",78577,26.2065702130001,-98.197148549,67,"1200 W POLK AVE SUITE Q, PHARR, TX, 78577","Match","Non_Exact","1200 W POLK AVE, PHARR, TX, 78577",71532474,"R"
102568,"1200 W PRATT BLVD APT 214","CHICAGO","IL",60626,42.0055480080001,-87.660977942,68,"1200 W PRATT BLVD APT 214, CHICAGO, IL, 60626","Match","Non_Exact","1200 W PRATT BLVD, CHICAGO, IL, 60626",605265590,"R"
102569,"1200 W PRATT BLVD APT 317","CHICAGO","IL",60626,42.0055480080001,-87.660977942,69,"1200 W PRATT BLVD APT 317, CHICAGO, IL, 60626","Match","Non_Exact","1200 W PRATT BLVD, CHICAGO, IL, 60626",605265590,"R"
102570,"1200 W RIVER ROAD","SPARTA","WI",54656,NA,NA,70,"1200 W RIVER ROAD, SPARTA, WI, 54656","No_Match",NA,NA,NA,NA
102571,"1200 W SHULLENBARGER DRIVE","FLAGSTAFF","AZ",86005,35.173724555,-111.674006185,71,"1200 W SHULLENBARGER DRIVE, FLAGSTAFF, AZ, 86005","Match","Exact","1200 W SHULLENBARGER DR, FLAGSTAFF, AZ, 86005",188861411,"R"
102572,"1200 W SIXTH ST","TRAVERSE CITY","MI",49684,44.7616437180001,-85.6431498749999,72,"1200 W SIXTH ST, TRAVERSE CITY, MI, 49684","Match","Exact","1200 6TH ST, TRAVERSE CITY, MI, 49684",145514545,"L"
102573,"1200 W SYCAMORE ST","CARMI","IL",62821,38.094301274,-88.177991999,73,"1200 W SYCAMORE ST, CARMI, IL, 62821","Match","Exact","1200 W SYCAMORE ST, CARMI, IL, 62821",38205040,"L"
102574,"1200 W TERRITORIAL","RIVES JUNCTION","MI",49277,42.4113912980001,-84.417080232,74,"1200 W TERRITORIAL, RIVES JUNCTION, MI, 49277","Match","Non_Exact","1200 W TERRITORIAL RD, RIVES JUNCTION, MI, 49277",652801422,"L"
102575,"1200 W WASHINGTON ST","INDIANAPOLIS","IN",46222,39.767337765,-86.185729318,75,"1200 W WASHINGTON ST, INDIANAPOLIS, IN, 46222","Match","Exact","1200 W WASHINGTON ST, INDIANAPOLIS, IN, 46222",647257438,"R"
102576,"1200 WALNUT STREET","WILMINGTON","DE",19801,39.746266878,-75.5438490449999,76,"1200 WALNUT STREET, WILMINGTON, DE, 19801","Match","Non_Exact","1200 N WALNUT ST, WILMINGTON, DE, 19801",187258952,"R"
102577,"1200 WARBURTON AVE APT 23","YONKERS","NY",10701,40.974949784,-73.8870790129999,77,"1200 WARBURTON AVE APT 23, YONKERS, NY, 10701","Match","Exact","1200 WARBURTON AVE, YONKERS, NY, 10701",650134345,"R"
102578,"1200 WARBURTON AVE","YONKERS","NY",10701,40.974949784,-73.8870790129999,78,"1200 WARBURTON AVE, YONKERS, NY, 10701","Match","Exact","1200 WARBURTON AVE, YONKERS, NY, 10701",650134345,"R"
102579,"1200 WARBURTON AVENUE UNIT 21","YONKERS","NY",7101,NA,NA,79,"1200 WARBURTON AVENUE UNIT 21, YONKERS, NY, 7101","No_Match",NA,NA,NA,NA
102580,"1200 WASHINGTON STREET APT 1401","KANSAS CITY","MO",64105,39.1000500220001,-94.590042747,80,"1200 WASHINGTON STREET APT 1401, KANSAS CITY, MO, 64105","Match","Exact","1200 WASHINGTON ST, KANSAS CITY, MO, 64105",91445047,"R"
102581,"1200 WATERFORD DR","HICKORY","NC",28602,35.6617758350001,-81.331032181,81,"1200 WATERFORD DR, HICKORY, NC, 28602","Match","Exact","1200 WATERFORD DR, HICKORY, NC, 28602",45951104,"L"
102582,"1200 WATERFORD WAY","ALLEN","TX",75013,33.1281245210001,-96.699245988,82,"1200 WATERFORD WAY, ALLEN, TX, 75013","Match","Exact","1200 WATERFORD WAY, ALLEN, TX, 75013",123561110,"L"
102583,"1200 WATERLYN DRIVE","GREENSBORO","NC",27405,36.0617880020001,-79.711437785,83,"1200 WATERLYN DRIVE, GREENSBORO, NC, 27405","Match","Exact","1200 WATERLYN DR, GREENSBORO, NC, 27405",646452306,"R"
102584,"1200 WATERS PLACE STE 105 PMB 85801","BRONX","NY",10461,40.842647507,-73.8383803299999,84,"1200 WATERS PLACE STE 105 PMB 85801, BRONX, NY, 10461","Match","Exact","1200 WATERS PL, BRONX, NY, 10461",80305805,"R"
102585,"1200 WAYNE 335","PIEDMONT","MO",63957,NA,NA,85,"1200 WAYNE 335, PIEDMONT, MO, 63957","No_Match",NA,NA,NA,NA
102586,"1200 WELLINGTON ST","RICHMOND","MO",64085,NA,NA,86,"1200 WELLINGTON ST, RICHMOND, MO, 64085","Tie",NA,NA,NA,NA
102587,"1200 WEST  AVE   APT1112","MIAMI BEACH","FL",33139,25.7827105970001,-80.142205156,87,"1200 WEST  AVE   APT1112, MIAMI BEACH, FL, 33139","Match","Exact","1200 WEST AVE, MIAMI BEACH, FL, 33139",650066102,"L"
102588,"1200 WEST 35TH STREET   211","CHICAGO","IL",60609,41.830626657,-87.655835926,88,"1200 WEST 35TH STREET   211, CHICAGO, IL, 60609","Match","Exact","1200 W 35TH ST, CHICAGO, IL, 60609",641794838,"R"
102589,"1200 WEST AVE  APT 804","MIAMI BEACH","FL",33139,25.7827105970001,-80.142205156,89,"1200 WEST AVE  APT 804, MIAMI BEACH, FL, 33139","Match","Exact","1200 WEST AVE, MIAMI BEACH, FL, 33139",650066102,"L"
102590,"1200 WEST AVE 1226","MIAMI","FL",33139,25.7827105970001,-80.142205156,90,"1200 WEST AVE 1226, MIAMI, FL, 33139","Match","Non_Exact","1200 WEST AVE, MIAMI BEACH, FL, 33139",650066102,"L"
102591,"1200 WEST AVE APT 508","MIAMI BEACH","FL",33139,25.7827105970001,-80.142205156,91,"1200 WEST AVE APT 508, MIAMI BEACH, FL, 33139","Match","Exact","1200 WEST AVE, MIAMI BEACH, FL, 33139",650066102,"L"
102592,"1200 WEST BIRCHWOOD ROAD","PAYSON","AZ",85541,34.2413108600001,-111.346886665,92,"1200 WEST BIRCHWOOD ROAD, PAYSON, AZ, 85541","Match","Exact","1200 W BIRCHWOOD RD, PAYSON, AZ, 85541",159323702,"L"
102593,"1200 WEST CASS STREET","TAMPA","FL",33606,27.9498621860001,-82.470984051,93,"1200 WEST CASS STREET, TAMPA, FL, 33606","Match","Exact","1200 W CASS ST, TAMPA, FL, 33606",104529588,"L"
102594,"1200 WEST CHEYENNE APT 1025","NO LAS VEGAS","NV",89030,36.2177860890001,-115.155436576,94,"1200 WEST CHEYENNE APT 1025, NO LAS VEGAS, NV, 89030","Match","Non_Exact","1200 W CHEYENNE AVE, N LAS VEGAS, NV, 89030",201930455,"R"
102595,"1200 WEST CHEYENNE AVENUE APT 1109","LAS VEGAS","NV",89030,36.2177860890001,-115.155436576,95,"1200 WEST CHEYENNE AVENUE APT 1109, LAS VEGAS, NV, 89030","Match","Non_Exact","1200 W CHEYENNE AVE, N LAS VEGAS, NV, 89030",201930455,"R"
102596,"1200 WEST CHEYENNE AVENUEAPT 1109","LAS VEGAS","NV",89030,36.2177860890001,-115.155436576,96,"1200 WEST CHEYENNE AVENUEAPT 1109, LAS VEGAS, NV, 89030","Match","Non_Exact","1200 W CHEYENNE AVE, N LAS VEGAS, NV, 89030",201930455,"R"
102597,"1200 WEST COMMERCE STREET","EASTLAND","TX",76448,32.401018487,-98.830794623,97,"1200 WEST COMMERCE STREET, EASTLAND, TX, 76448","Match","Exact","1200 W COMMERCE ST, EASTLAND, TX, 76448",158685827,"L"
102598,"1200 WEST DIMOND BLVD 528","ANCHORAGE","AK",99515,61.1411049390001,-149.904956345,98,"1200 WEST DIMOND BLVD 528, ANCHORAGE, AK, 99515","Match","Exact","1200 W DIMOND BLVD, ANCHORAGE, AK, 99515",190798217,"L"
102599,"1200 WEST FOREST HILL BLVD","WELLINGTON","FL",33414,NA,NA,99,"1200 WEST FOREST HILL BLVD, WELLINGTON, FL, 33414","No_Match",NA,NA,NA,NA
102600,"1200 WEST HACKBERRY AVENUE","MCALLEN","TX",78501,26.2109688990001,-98.231062586,100,"1200 WEST HACKBERRY AVENUE, MCALLEN, TX, 78501","Match","Exact","1200 W HACKBERRY AVE, MCALLEN, TX, 78501",71501597,"R"
102601,"1200 WEST HACKBERRY","MCALLEN","TX",78501,26.2109688990001,-98.231062586,101,"1200 WEST HACKBERRY, MCALLEN, TX, 78501","Match","Non_Exact","1200 W HACKBERRY AVE, MCALLEN, TX, 78501",71501597,"R"
102602,"1200 WEST MARSHALL ST APT 326","RICHMOND","VA",23220,37.5527511780001,-77.4515796699999,102,"1200 WEST MARSHALL ST APT 326, RICHMOND, VA, 23220","Match","Exact","1200 W MARSHALL ST, RICHMOND, VA, 23220",201539010,"R"
102603,"1200 WEST MATTHEWS","ROSWELL","NM",88203,33.384655175,-104.53908215,103,"1200 WEST MATTHEWS, ROSWELL, NM, 88203","Match","Non_Exact","1200 W MATHEWS ST, ROSWELL, NM, 88203",131767928,"L"
102604,"1200 WEST MONTGOMERY RD","TUSKEGEE","AL",36088,32.4288377730001,-85.7082519639999,104,"1200 WEST MONTGOMERY RD, TUSKEGEE, AL, 36088","Match","Non_Exact","1200 W MONTGOMERY RD, TUSKEGEE INST, AL, 36088",640405261,"L"
102605,"1200 WEST PEARCE BLVD","WENTZVILLE","MO",63385,38.812935785,-90.876451694,105,"1200 WEST PEARCE BLVD, WENTZVILLE, MO, 63385","Match","Exact","1200 W PEARCE BLVD, WENTZVILLE, MO, 63385",605537032,"R"
102606,"1200 WEST QUEEN CREEK ROAD","CHANDLER","AZ",85248,33.261996583,-111.859273437,106,"1200 WEST QUEEN CREEK ROAD, CHANDLER, AZ, 85248","Match","Exact","1200 W QUEEN CREEK RD, CHANDLER, AZ, 85248",649781375,"L"
102607,"1200 WEST STATE STREET","ROCKFORD","IL",61102,42.2757927540001,-89.10736544,107,"1200 WEST STATE STREET, ROCKFORD, IL, 61102","Match","Exact","1200 W STATE ST, ROCKFORD, IL, 61102",49252719,"L"
102608,"1200 WEST STATE STREET","WEST LAFAYETTE","IN",47907,40.4242581620001,-86.921354273,108,"1200 WEST STATE STREET, WEST LAFAYETTE, IN, 47907","Match","Non_Exact","1200 W STATE ST, W LAFAYETTE, IN, 47906",27305123,"R"
102609,"1200 WEST TERRITORIAL RD","RIVES JUNCTION","MI",49277,42.4113910730001,-84.4170573339999,109,"1200 WEST TERRITORIAL RD, RIVES JUNCTION, MI, 49277","Match","Exact","1200 W TERRITORIAL RD, RIVES JUNCTION, MI, 49277",652801422,"L"
102610,"1200 WESTERLEE PLACE APT T2","CATONSVILLE","MD",21228,39.291644343,-76.7683248449999,110,"1200 WESTERLEE PLACE APT T2, CATONSVILLE, MD, 21228","Match","Exact","1200 WESTERLEE PL, CATONSVILLE, MD, 21228",647303037,"L"
102611,"1200 WESTWOOD DRIVE APT 22","ALBANY","GA",31721,31.5895220680001,-84.221784379,111,"1200 WESTWOOD DRIVE APT 22, ALBANY, GA, 31721","Match","Exact","1200 WESTWOOD DR, ALBANY, GA, 31721",84322791,"L"
102612,"1200 WHISPERING HILLS COURT","NAPERVILLE","IL",60540,41.7780561160001,-88.1749349999999,112,"1200 WHISPERING HILLS COURT, NAPERVILLE, IL, 60540","Match","Exact","1200 WHISPERING HILLS CT, NAPERVILLE, IL, 60540",112535556,"R"
102613,"1200 WHITE BLUFF TRAIL","BURNET","TX",78611,30.8495866330001,-98.3753768449999,113,"1200 WHITE BLUFF TRAIL, BURNET, TX, 78611","Match","Exact","1200 WHITE BLUFF TRL, BURNET, TX, 78611",146539500,"L"
102614,"1200 WHITE SANDS DR","SAN MARCOS","CA",92078,33.129856836,-117.22867506,114,"1200 WHITE SANDS DR, SAN MARCOS, CA, 92078","Match","Exact","1200 WHITE SANDS DR, SAN MARCOS, CA, 92078",195763371,"R"
102615,"1200 WILDWOOD STREET","LEAVENWORTH","KS",66048,39.2863949200001,-94.932695065,115,"1200 WILDWOOD STREET, LEAVENWORTH, KS, 66048","Match","Exact","1200 WILDWOOD ST, LEAVENWORTH, KS, 66048",91415918,"R"
102616,"1200 WILKINS RD","ALTON","VA",24520,36.6090991020001,-79.0463157089999,116,"1200 WILKINS RD, ALTON, VA, 24520","Match","Exact","1200 WILKINS RD, ALTON, VA, 24520",90340035,"L"
102617,"1200 WILLIAM ST  APT 612","BUFFALO","NY",14240,42.884876896,-78.826814011,117,"1200 WILLIAM ST  APT 612, BUFFALO, NY, 14240","Match","Non_Exact","1200 WILLIAM ST, BUFFALO, NY, 14206",639748352,"L"
102618,"1200 WILLIAMSBURG ROAD","MANSFIELD","TX",76063,32.59158596,-97.119257727,118,"1200 WILLIAMSBURG ROAD, MANSFIELD, TX, 76063","Match","Exact","1200 WILLIAMSBURG RD, MANSFIELD, TX, 76063",618507627,"L"
102619,"1200 WILLOW GROVE DRIVE","PEWAUKEE","WI",53072,43.0784533090001,-88.238677723,119,"1200 WILLOW GROVE DRIVE, PEWAUKEE, WI, 53072","Match","Exact","1200 WILLOW GROVE DR, PEWAUKEE, WI, 53072",53827546,"L"
102620,"1200 WILLS WAY","FOREST","VA",24551,37.3112962980001,-79.3196089039999,120,"1200 WILLS WAY, FOREST, VA, 24551","Match","Exact","1200 WILLS WAY, FOREST, VA, 24551",228450842,"R"
102621,"1200 WILMETTE AVENUE","WILMETTE","IL",60091,NA,NA,121,"1200 WILMETTE AVENUE, WILMETTE, IL, 60091","No_Match",NA,NA,NA,NA
102622,"1200 WILSHIRE BOULEVARD SUITE 610","LOS ANGELES","CA",90017,34.0530564950001,-118.264994461,122,"1200 WILSHIRE BOULEVARD SUITE 610, LOS ANGELES, CA, 90017","Match","Exact","1200 WILSHIRE BLVD, LOS ANGELES, CA, 90017",141616706,"L"
102623,"1200 WILSON RD APT B8","CONROE","TX",77301,30.3258711440001,-95.4712946929999,123,"1200 WILSON RD APT B8, CONROE, TX, 77301","Match","Exact","1200 WILSON RD, CONROE, TX, 77301",79334723,"L"
102624,"1200 WINDERMERE","OKLAHOMA CITY","OK",73117,NA,NA,124,"1200 WINDERMERE, OKLAHOMA CITY, OK, 73117","No_Match",NA,NA,NA,NA
102625,"1200 WINDROW WAY","MAGNOLIA","DE",19962,39.0566076060001,-75.519527862,125,"1200 WINDROW WAY, MAGNOLIA, DE, 19962","Match","Exact","1200 WINDROW WAY, MAGNOLIA, DE, 19962",617129691,"R"
102626,"1200 WINE SPRING LANE","BALTIMORE","MD",21204,39.4111319520001,-76.633666652,126,"1200 WINE SPRING LANE, BALTIMORE, MD, 21204","Match","Exact","1200 WINE SPRING LN, BALTIMORE, MD, 21204",191472733,"R"
102627,"1200 WING STREET UNIT 1","SANDY SPRINGS","GA",30350,33.9888178840001,-84.347560153,127,"1200 WING STREET UNIT 1, SANDY SPRINGS, GA, 30350","Match","Exact","1200 WING ST, SANDY SPRINGS, GA, 30350",628056918,"L"
102628,"1200 WINOKA RD","COLLIERVILLE","TN",38017,35.013051069,-89.6867843909999,128,"1200 WINOKA RD, COLLIERVILLE, TN, 38017","Match","Exact","1200 WINOKA RD, COLLIERVILLE, TN, 38017",72974641,"R"
102629,"1200 WISDOM DR","CEDAR HILL","TX",75104,32.5692541810001,-96.922254551,129,"1200 WISDOM DR, CEDAR HILL, TX, 75104","Match","Exact","1200 WISDOM DR, CEDAR HILL, TX, 75104",647948228,"L"
102630,"1200 WISTERIA DRIVE","CATONSVILLE","MD",21228,39.2907048070001,-76.759627402,130,"1200 WISTERIA DRIVE, CATONSVILLE, MD, 21228","Match","Exact","1200 WISTERIA DR, CATONSVILLE, MD, 21228",191483207,"L"
102631,"1200 WOFFORD DR","BURNET","TX",78611,30.7652116730001,-98.216429061,131,"1200 WOFFORD DR, BURNET, TX, 78611","Match","Exact","1200 WOFFORD DR, BURNET, TX, 78611",146486497,"R"
102632,"1200 WOLFE AVENUE","NORTH BRADDOCK","PA",15104,40.4061219110001,-79.846308944,132,"1200 WOLFE AVENUE, NORTH BRADDOCK, PA, 15104","Match","Non_Exact","1200 WOLFE AVE, BRADDOCK, PA, 15104",51812287,"R"
102633,"1200 WOODBRIDGE STREET","COLLINSVILLE","IL",62234,38.6830680910001,-89.987959357,133,"1200 WOODBRIDGE STREET, COLLINSVILLE, IL, 62234","Match","Exact","1200 WOODBRIDGE ST, COLLINSVILLE, IL, 62234",107703504,"R"
102634,"1200 WOODRUFF RD C-40","GREENVILLE","SC",29607,34.8308760080001,-82.305872837,134,"1200 WOODRUFF RD C-40, GREENVILLE, SC, 29607","Match","Exact","1200 WOODRUFF RD, GREENVILLE, SC, 29607",635858548,"R"
102635,"1200 WOODRUFF RD C-40","SIMPSONVILLE","SC",29681,34.8251332450001,-82.295264741,135,"1200 WOODRUFF RD C-40, SIMPSONVILLE, SC, 29681","Match","Exact","1200 WOODRUFF RD, SIMPSONVILLE, SC, 29681",640457646,"L"
102636,"1200 WOODS DRIVE","SEDALIA","MO",65301,38.676466475,-93.212700089,136,"1200 WOODS DRIVE, SEDALIA, MO, 65301","Match","Exact","1200 WOODS DR, SEDALIA, MO, 65301",624906564,"R"
102637,"1200 YORKSHIRE DRIVE","HANOVER PARK","IL",60133,42.012550074,-88.137127751,137,"1200 YORKSHIRE DRIVE, HANOVER PARK, IL, 60133","Match","Exact","1200 YORKSHIRE DR, HANOVER PARK, IL, 60133",111692327,"L"
102638,"1200-A CARVER TERRACE APT","PORT ARTHUR","TX",77640,NA,NA,138,"1200-A CARVER TERRACE APT, PORT ARTHUR, TX, 77640","No_Match",NA,NA,NA,NA
102639,"1200","ENID","OK",73701,NA,NA,139,"1200, ENID, OK, 73701","No_Match",NA,NA,NA,NA
102640,"1200","HELMETTA","NJ",8828,NA,NA,140,"1200, HELMETTA, NJ, 8828","No_Match",NA,NA,NA,NA
102641,"12000 4TH STREET N APT 12","ST. PETERSBURG","FL",33716,27.879537484,-82.638831787,141,"12000 4TH STREET N APT 12, ST. PETERSBURG, FL, 33716","Match","Exact","12000 4TH ST N, SAINT PETERSBURG, FL, 33716",650090859,"L"
102642,"12000 4TH STREET NORTH STE 146","ST PETERSBURG","FL",33716,27.879537484,-82.638831787,142,"12000 4TH STREET NORTH STE 146, ST PETERSBURG, FL, 33716","Match","Exact","12000 4TH ST N, SAINT PETERSBURG, FL, 33716",650090859,"L"
102643,"12000 ALTMAN RD","FT MEADE","FL",33841,27.66104368,-81.6072440149999,143,"12000 ALTMAN RD, FT MEADE, FL, 33841","Match","Exact","12000 ALTMAN RD, FORT MEADE, FL, 33841",104902356,"R"
102644,"12000 BISCAYNE BLVD - SUITE 704","MIAMI","FL",33181,NA,NA,144,"12000 BISCAYNE BLVD - SUITE 704, MIAMI, FL, 33181","No_Match",NA,NA,NA,NA
102645,"12000 BISCAYNE BLVD STE 503","MIAMI","FL",33181,NA,NA,145,"12000 BISCAYNE BLVD STE 503, MIAMI, FL, 33181","No_Match",NA,NA,NA,NA
102646,"12000 BISCAYNE BLVD SUITE 408","MIAMI","FL",33181,NA,NA,146,"12000 BISCAYNE BLVD SUITE 408, MIAMI, FL, 33181","No_Match",NA,NA,NA,NA
102647,"12000 CLIFFSIDE CIRCLE","RALEIGH","NC",27614,35.952649572,-78.6450046959999,147,"12000 CLIFFSIDE CIRCLE, RALEIGH, NC, 27614","Match","Exact","12000 CLIFFSIDE CIR, RALEIGH, NC, 27614",72580731,"L"
102648,"12000 CROWNPOINT DRIVE SUITE 120","SAN ANTONIO","TX",78233,29.5494597470001,-98.365634444,148,"12000 CROWNPOINT DRIVE SUITE 120, SAN ANTONIO, TX, 78233","Match","Exact","12000 CROWNPOINT DR, SAN ANTONIO, TX, 78233",101589589,"R"
102649,"12000 DESSAU RD","AUSTIN","TX",78754,30.379532107,-97.654073887,149,"12000 DESSAU RD, AUSTIN, TX, 78754","Match","Exact","12000 DESSAU RD, AUSTIN, TX, 78754",629673017,"L"
102650,"12000 DESSAU ROAD APT 612","AUSTIN","TX",78754,30.379532107,-97.654073887,150,"12000 DESSAU ROAD APT 612, AUSTIN, TX, 78754","Match","Exact","12000 DESSAU RD, AUSTIN, TX, 78754",629673017,"L"
102651,"12000 E PRINCE RD","TUCSON","AZ",85749,32.2728892850001,-110.736050242,151,"12000 E PRINCE RD, TUCSON, AZ, 85749","Match","Exact","12000 E PRINCE RD, TUCSON, AZ, 85749",121187818,"R"
102652,"12000 EAST 47TH AVENUE","DENVER","CO",80239,39.7823758380001,-104.849281011,152,"12000 EAST 47TH AVENUE, DENVER, CO, 80239","Match","Exact","12000 E 47TH AVE, DENVER, CO, 80239",177350345,"R"
102653,"12000 EAST GATFIELD RD","EMMETT","ID",83617,43.9115638310001,-116.275788547,153,"12000 EAST GATFIELD RD, EMMETT, ID, 83617","Match","Exact","12000 E GATFIELD RD, EMMETT, ID, 83617",122872635,"R"
102654,"12000 EDGEWATER DR UNIT 307","LAKEWOOD","OH",44107,41.491360937,-81.77323596,154,"12000 EDGEWATER DR UNIT 307, LAKEWOOD, OH, 44107","Match","Exact","12000 EDGEWATER DR, LAKEWOOD, OH, 44107",650124203,"R"
102655,"12000 ELM CREEK BLVD N SUITE 300","MAPLE GROVE","MN",55369,45.094350019,-93.434920845,155,"12000 ELM CREEK BLVD N SUITE 300, MAPLE GROVE, MN, 55369","Match","Non_Exact","12000 ELM CREEK BLVD, MAPLE GROVE, MN, 55369",640692362,"L"
102656,"12000 FRESHWELL ROAD","CHARLOTTE","NC",28273,35.105414996,-80.970116006,156,"12000 FRESHWELL ROAD, CHARLOTTE, NC, 28273","Match","Exact","12000 FRESHWELL RD, CHARLOTTE, NC, 28273",70517053,"R"
102657,"12000 GA HIGHWAY 99","DARIEN","GA",31305,NA,NA,157,"12000 GA HIGHWAY 99, DARIEN, GA, 31305","No_Match",NA,NA,NA,NA
102658,"12000 GARDEN MEADOW RD","AUSTIN","TX",78725,30.2245414170001,-97.628092335,158,"12000 GARDEN MEADOW RD, AUSTIN, TX, 78725","Match","Exact","12000 GARDEN MEADOW RD, AUSTIN, TX, 78725",63952485,"L"
102659,"12000 GRAND NATIONAL BOULEVARD","WALTON","KY",41094,NA,NA,159,"12000 GRAND NATIONAL BOULEVARD, WALTON, KY, 41094","No_Match",NA,NA,NA,NA
102660,"12000 HIGHWAY 47","CARLTON","OR",97111,45.303270796,-123.179697274,160,"12000 HIGHWAY 47, CARLTON, OR, 97111","Match","Exact","12000 HWY 47, CARLTON, OR, 97111",156507969,"R"
102661,"12000 KINGFIELD CT","UPPER MARLBORO","MD",20772,38.7748767150001,-76.7911113329999,161,"12000 KINGFIELD CT, UPPER MARLBORO, MD, 20772","Match","Exact","12000 KINGFIELD CT, UPPER MARLBORO, MD, 20772",76322838,"L"
102662,"12000 KINGSHEAD DR","FLORISSANT","MO",63033,38.793713972,-90.2459468229999,162,"12000 KINGSHEAD DR, FLORISSANT, MO, 63033","Match","Exact","12000 KINGSHEAD DR, FLORISSANT, MO, 63033",100147949,"R"
102663,"12000 LAKE NEWPORT ROAD","RESTON","VA",20194,38.9802486040001,-77.361921137,163,"12000 LAKE NEWPORT ROAD, RESTON, VA, 20194","Match","Exact","12000 LAKE NEWPORT RD, RESTON, VA, 20194",76028229,"R"
102664,"12000 LAWNVIEW AVE 2","CINCINNATI","OH",45246,39.2923076070001,-84.481672434,164,"12000 LAWNVIEW AVE 2, CINCINNATI, OH, 45246","Match","Exact","12000 LAWNVIEW AVE, CINCINNATI, OH, 45246",649546337,"L"
102665,"12000 LUCKS LANE","MIDLOTHIAN","VA",23114,37.47447421,-77.618347818,165,"12000 LUCKS LANE, MIDLOTHIAN, VA, 23114","Match","Exact","12000 LUCKS LN, MIDLOTHIAN, VA, 23114",223170496,"L"
102666,"12000 MARION LANE 1305","MINNETONKA","MN",55305,44.9726757970001,-93.4349773329999,166,"12000 MARION LANE 1305, MINNETONKA, MN, 55305","Match","Non_Exact","12000 MARION LN W, MINNETONKA, MN, 55305",641212560,"L"
102667,"12000 MARKET ST APT 187","RESTON","VA",20190,NA,NA,167,"12000 MARKET ST APT 187, RESTON, VA, 20190","No_Match",NA,NA,NA,NA
102668,"12000 MARKET STREET SUITE 208","RESTON","VA",20190,NA,NA,168,"12000 MARKET STREET SUITE 208, RESTON, VA, 20190","No_Match",NA,NA,NA,NA
102669,"12000 MARTIN LUTHER KING 1237","HOUSTON","TX",77048,29.630961912,-95.3393614079999,169,"12000 MARTIN LUTHER KING 1237, HOUSTON, TX, 77048","Match","Non_Exact","12000 MARTIN LUTHER KING JR BLVD, HOUSTON, TX, 77048",96593794,"R"
102670,"12000 MARTIN LUTHER KING BOULEVARD","HOUSTON","TX",77048,29.630961912,-95.3393614079999,170,"12000 MARTIN LUTHER KING BOULEVARD, HOUSTON, TX, 77048","Match","Exact","12000 MARTIN LUTHER KING JR BLVD, HOUSTON, TX, 77048",96593794,"R"
102671,"12000 MIRA MESA DRIVE","AUSTIN","TX",78732,30.376185117,-97.880678377,171,"12000 MIRA MESA DRIVE, AUSTIN, TX, 78732","Match","Exact","12000 MIRA MESA DR, AUSTIN, TX, 78732",63995180,"L"
102672,"12000 N 119TH ST","SCOTTSDALE","AZ",85259,33.59499515,-111.824421548,172,"12000 N 119TH ST, SCOTTSDALE, AZ, 85259","Match","Exact","12000 N 119TH ST, SCOTTSDALE, AZ, 85259",128958352,"L"
102673,"12000 N BAYSHORE DRIVE APT 308","MIAMI","FL",33181,25.8871703820001,-80.1529742279999,173,"12000 N BAYSHORE DRIVE APT 308, MIAMI, FL, 33181","Match","Non_Exact","12000 N BAYSHORE DR, MIAMI, FL, 33181",116038060,"R"
102674,"12000 NICHOLS ROAD","GREEN VALLEY","IL",61534,40.373913004,-89.695636892,174,"12000 NICHOLS ROAD, GREEN VALLEY, IL, 61534","Match","Exact","12000 NICHOLS RD, GREEN VALLEY, IL, 61534",22494211,"L"
102675,"12000 NW 29 STREET","SUNRISE","FL",33323,26.161138642,-80.30809743,175,"12000 NW 29 STREET, SUNRISE, FL, 33323","Match","Exact","12000 NW 29TH ST, SUNRISE, FL, 33323",114697616,"L"
102676,"12000 NW 7TH","YUKON","OK",73099,35.4739798150001,-97.738780471,176,"12000 NW 7TH, YUKON, OK, 73099","Match","Non_Exact","12000 NW 7TH ST, YUKON, OK, 73099",92528750,"L"
102677,"12000 OAK COVE LANE","SODDY DAISY","TN",37379,35.286381765,-85.09479157,177,"12000 OAK COVE LANE, SODDY DAISY, TN, 37379","Match","Exact","12000 OAK COVE LN, SODDY DAISY, TN, 37379",59339359,"L"
102678,"12000 RUSSELLVILLE RD","BELVIDERE","IL",61008,42.3251376380001,-88.783836093,178,"12000 RUSSELLVILLE RD, BELVIDERE, IL, 61008","Match","Exact","12000 RUSSELLVILLE RD, BELVIDERE, IL, 61008",92158141,"L"
102679,"12000 SAW MILL CT","SILVER SPRING","MD",20902,39.051925926,-77.0473110309999,179,"12000 SAW MILL CT, SILVER SPRING, MD, 20902","Match","Exact","12000 SAW MILL CT, SILVER SPRING, MD, 20902",62093574,"R"
102680,"12000 SAWMILL RD APT 213","SPRING","TX",77380,30.1326099460001,-95.4649617169999,180,"12000 SAWMILL RD APT 213, SPRING, TX, 77380","Match","Exact","12000 SAWMILL RD, SPRING, TX, 77380",79295123,"R"
102681,"12000 SAWMILL RD","SPRING","TX",77380,30.1326099460001,-95.4649617169999,181,"12000 SAWMILL RD, SPRING, TX, 77380","Match","Exact","12000 SAWMILL RD, SPRING, TX, 77380",79295123,"R"
102682,"12000 WEATHERVANE LANE","UPPER MARLBORO","MD",20772,38.76682371,-76.798607612,182,"12000 WEATHERVANE LANE, UPPER MARLBORO, MD, 20772","Match","Exact","12000 WEATHERVANE LN, UPPER MARLBORO, MD, 20772",646582459,"L"
102683,"12000 WEDDINGTON STREET","LOS ANGELES","CA",91607,34.1666813260001,-118.394396599,183,"12000 WEDDINGTON STREET, LOS ANGELES, CA, 91607","Match","Non_Exact","12000 WEDDINGTON ST, VALLEY VILLAGE, CA, 91607",141564619,"L"
102684,"12000 WEST LAKE ROAD","EAST SPRINGFIELD","PA",16441,42.000105413,-80.405018066,184,"12000 WEST LAKE ROAD, EAST SPRINGFIELD, PA, 16441","Match","Non_Exact","12000 W LAKE RD, E SPRINGFIELD, PA, 16411",117506885,"L"
102685,"12000 WHITE ACRES","PAMPA","TX",79065,NA,NA,185,"12000 WHITE ACRES, PAMPA, TX, 79065","No_Match",NA,NA,NA,NA
102686,"12000 WILCREST STE 203","HOUSTON","TX",77031,29.649350616,-95.566227904,186,"12000 WILCREST STE 203, HOUSTON, TX, 77031","Match","Non_Exact","12000 WILCREST DR, HOUSTON, TX, 77031",96595140,"R"
102687,"12000","LONGMONT","CO",80504,NA,NA,187,"12000, LONGMONT, CO, 80504","No_Match",NA,NA,NA,NA
102688,"120000 KINGSHEAD","FLORISSANT","MO",63033,NA,NA,188,"120000 KINGSHEAD, FLORISSANT, MO, 63033","No_Match",NA,NA,NA,NA
102689,"120001 S 4160 RD","EUFAULA","OK",74432,35.27193744,-95.610107387,189,"120001 S 4160 RD, EUFAULA, OK, 74432","Match","Exact","120001 S 4160 RD, EUFAULA, OK, 74432",106245491,"R"
102690,"12001 ABESS BLVD      8302","JACKSONVILLE","FL",32225,30.3238829740001,-81.492182574,190,"12001 ABESS BLVD      8302, JACKSONVILLE, FL, 32225","Match","Exact","12001 ABESS BLVD, JACKSONVILLE, FL, 32225",646895825,"R"
102691,"12001 AVALON LAKE DRIVE APT 401","ORLANDO","FL",32828,28.510259956,-81.156168684,191,"12001 AVALON LAKE DRIVE APT 401, ORLANDO, FL, 32828","Match","Exact","12001 AVALON LAKE DR, ORLANDO, FL, 32828",631078020,"R"
102692,"12001 BELCHER ROAD S APT C40","LARGO","FL",33773,27.8799655280001,-82.745691254,192,"12001 BELCHER ROAD S APT C40, LARGO, FL, 33773","Match","Exact","12001 BELCHER RD S, LARGO, FL, 33773",639722915,"R"
102693,"12001 BORK DR","CLINTON","MD",20735,38.725376871,-76.950547007,193,"12001 BORK DR, CLINTON, MD, 20735","Match","Exact","12001 BORK DR, CLINTON, MD, 20735",645473153,"L"
102694,"12001 BROOKWAY DR","CINCINNATI","OH",45240,39.301829786,-84.5586968489999,194,"12001 BROOKWAY DR, CINCINNATI, OH, 45240","Match","Exact","12001 BROOKWAY DR, CINCINNATI, OH, 45240",103942403,"L"
102695,"12001 CHALON RD","LOS ANGELES","CA",90049,34.0817695740001,-118.481030175,195,"12001 CHALON RD, LOS ANGELES, CA, 90049","Match","Exact","12001 CHALON RD, LOS ANGELES, CA, 90049",642870492,"R"
102696,"12001 COUNTY ROAD 3520","ADA","OK",74820,34.8108804240001,-96.7395962579999,196,"12001 COUNTY ROAD 3520, ADA, OK, 74820","Match","Exact","12001 CO RD 3520, ADA, OK, 74820",58504775,"R"
102697,"12001 DESSAU RD APT1415","AUSTIN","TX",78754,30.3801676300001,-97.653185453,197,"12001 DESSAU RD APT1415, AUSTIN, TX, 78754","Match","Exact","12001 DESSAU RD, AUSTIN, TX, 78754",629672970,"R"
102698,"12001 DESSAU RD","AUSTIN","TX",78754,30.3801676300001,-97.653185453,198,"12001 DESSAU RD, AUSTIN, TX, 78754","Match","Exact","12001 DESSAU RD, AUSTIN, TX, 78754",629672970,"R"
102699,"12001 DR MARTIN LUTHER KING JR ST","SAINT PETERSBURG","FL",33705,NA,NA,199,"12001 DR MARTIN LUTHER KING JR ST, SAINT PETERSBURG, FL, 33705","No_Match",NA,NA,NA,NA
102700,"12001 DR MLK JR STREET NORTH","ST PETERSBURG","FL",33716,27.8811968740001,-82.647005171,200,"12001 DR MLK JR STREET NORTH, ST PETERSBURG, FL, 33716","Match","Exact","12001 DR MARTIN LUTHER KING JR ST N, SAINT PETERSBURG, FL, 33716",124747126,"R"
102701,"12001 FIRESTONE POINT","KNOXVILLE","TN",37934,35.870991342,-84.185337079,201,"12001 FIRESTONE POINT, KNOXVILLE, TN, 37934","Match","Exact","12001 FIRESTONE PT, KNOXVILLE, TN, 37934",42602460,"L"
102702,"12001 GANDER ST","ANCHORAGE","AK",99516,61.11195216,-149.82653923,202,"12001 GANDER ST, ANCHORAGE, AK, 99516","Match","Exact","12001 GANDER ST, ANCHORAGE, AK, 99516",605179811,"L"
102703,"12001 INWOOD ROAD 1505","DALLAS","TX",75244,32.9126807710001,-96.818875404,203,"12001 INWOOD ROAD 1505, DALLAS, TX, 75244","Match","Non_Exact","12001 INWOOD CIR, DALLAS, TX, 75244",103272125,"L"
102704,"12001 JACOBSON COURT","BRIDGETON","MO",63044,38.744259635,-90.4320851479999,204,"12001 JACOBSON COURT, BRIDGETON, MO, 63044","Match","Exact","12001 JACOBSON CT, BRIDGETON, MO, 63044",100165246,"L"
102705,"12001 LAMANDA ST","LOS ANGELES","CA",90066,34.0007979540001,-118.424793428,205,"12001 LAMANDA ST, LOS ANGELES, CA, 90066","Match","Exact","12001 LAMANDA ST, LOS ANGELES, CA, 90066",141573984,"R"
102706,"12001 MAIDA VALE LANE","HASLET","TX",76052,NA,NA,206,"12001 MAIDA VALE LANE, HASLET, TX, 76052","No_Match",NA,NA,NA,NA
102707,"12001 MARKET STREET  APT 171","RESTON","VA",20190,NA,NA,207,"12001 MARKET STREET  APT 171, RESTON, VA, 20190","No_Match",NA,NA,NA,NA
102708,"12001 MARKET STREET APT 120","RESTON","VA",20190,NA,NA,208,"12001 MARKET STREET APT 120, RESTON, VA, 20190","No_Match",NA,NA,NA,NA
102709,"12001 MATTIODA ROAD","GROVELAND","FL",34736,28.5215783310001,-81.8743078159999,209,"12001 MATTIODA ROAD, GROVELAND, FL, 34736","Match","Exact","12001 MATTIODA RD, GROVELAND, FL, 34736",640797249,"L"
102710,"12001 N 96TH ST","OMAHA","NE",68122,41.369979846,-96.062206665,210,"12001 N 96TH ST, OMAHA, NE, 68122","Match","Exact","12001 N 96TH ST, OMAHA, NE, 68122",117006622,"R"
102711,"12001 NE 9TH ST","VANCOUVER","WA",98684,45.6282870100001,-122.549561566,211,"12001 NE 9TH ST, VANCOUVER, WA, 98684","Match","Non_Exact","12001 NE 9TH ST, VANCOUVER, WA, 98684",158329620,"R"
102712,"12001 OAK KNOLL DR SUITE 8","AUSTIN","TX",78759,NA,NA,212,"12001 OAK KNOLL DR SUITE 8, AUSTIN, TX, 78759","No_Match",NA,NA,NA,NA
102713,"12001 OLD COLUMBIA  PIKE  711","SILVER SPRING","MD",20904,39.052358172,-76.977347927,213,"12001 OLD COLUMBIA  PIKE  711, SILVER SPRING, MD, 20904","Match","Exact","12001 COLUMBIA PIKE, SILVER SPRING, MD, 20904",653273637,"R"
102714,"12001 OLD COLUMBIA PIKE 711","SILVER SPRING","MD",20904,39.052358172,-76.977347927,214,"12001 OLD COLUMBIA PIKE 711, SILVER SPRING, MD, 20904","Match","Exact","12001 COLUMBIA PIKE, SILVER SPRING, MD, 20904",653273637,"R"
102715,"12001 OLD COLUMBIA PIKE APT 700","SILVER SPRING","MD",20904,39.052358172,-76.977347927,215,"12001 OLD COLUMBIA PIKE APT 700, SILVER SPRING, MD, 20904","Match","Exact","12001 COLUMBIA PIKE, SILVER SPRING, MD, 20904",653273637,"R"
102716,"12001 OLD COLUMBIA PIKE","SILVER SPRING","MD",20904,NA,NA,216,"12001 OLD COLUMBIA PIKE, SILVER SPRING, MD, 20904","Tie",NA,NA,NA,NA
102717,"12001 RESEARCH PARKWAY STE344","ORLANDO","FL",32826,28.588322755,-81.2047213829999,217,"12001 RESEARCH PARKWAY STE344, ORLANDO, FL, 32826","Match","Exact","12001 RESEARCH PKWY, ORLANDO, FL, 32826",638090551,"L"
102718,"12001 RESEARCH PARKWAY STE344","ORLANDO","FL",32828,28.588322755,-81.2047213829999,218,"12001 RESEARCH PARKWAY STE344, ORLANDO, FL, 32828","Match","Non_Exact","12001 RESEARCH PKWY, ORLANDO, FL, 32826",638090551,"L"
102719,"12001 RESEARCH PARKWAY SUITE 236","ORLANDO","FL",32826,28.588322755,-81.2047213829999,219,"12001 RESEARCH PARKWAY SUITE 236, ORLANDO, FL, 32826","Match","Exact","12001 RESEARCH PKWY, ORLANDO, FL, 32826",638090551,"L"
102720,"12001 RESEARCH PARKWAY SUITE 236","ORLANDO","FL",32828,28.588322755,-81.2047213829999,220,"12001 RESEARCH PARKWAY SUITE 236, ORLANDO, FL, 32828","Match","Non_Exact","12001 RESEARCH PKWY, ORLANDO, FL, 32826",638090551,"L"
102721,"12001 SE ELENOR AVE","HOBE SOUND","FL",33455,27.057764799,-80.142044367,221,"12001 SE ELENOR AVE, HOBE SOUND, FL, 33455","Match","Exact","12001 SE ELENOR AVE, HOBE SOUND, FL, 33455",120438749,"L"
102722,"12001 SPOTTED ROAD","CHENEY","WA",99004,47.543963121,-117.518429494,222,"12001 SPOTTED ROAD, CHENEY, WA, 99004","Match","Non_Exact","12001 S SPOTTED RD, CHENEY, WA, 99004",641258464,"R"
102723,"12001 ST JAMES DRIVE","CONYERS","GA",30094,33.675648347,-84.0657563459999,223,"12001 ST JAMES DRIVE, CONYERS, GA, 30094","Match","Exact","12001 ST JAMES DR, CONYERS, GA, 30094",23750455,"R"
102724,"12001 TWIGHLIGHT ST","LONGMONT","CO",80503,NA,NA,224,"12001 TWIGHLIGHT ST, LONGMONT, CO, 80503","No_Match",NA,NA,NA,NA
102725,"12001 W SPRING RIVER","BOISE","ID",83709,43.553376788,-116.331891453,225,"12001 W SPRING RIVER, BOISE, ID, 83709","Match","Non_Exact","12001 W SPRING RIVER CT, BOISE, ID, 83709",117926952,"L"
102726,"12001 WEST 100TH TERRACE","LENEXA","KS",66215,38.9468816620001,-94.7247547809999,226,"12001 WEST 100TH TERRACE, LENEXA, KS, 66215","Match","Exact","12001 W 100TH TER, LENEXA, KS, 66215",91271701,"L"
102727,"12001 WINTERCREST DRIVE UNIT 352","LAKESIDE","CA",92040,32.8521328470001,-116.93297092,227,"12001 WINTERCREST DRIVE UNIT 352, LAKESIDE, CA, 92040","Match","Exact","12001 WINTERCREST DR, LAKESIDE, CA, 92040",645306404,"R"
102728,"12002 164TH STREET","NORWALK","CA",90650,33.8821781400001,-118.076905673,228,"12002 164TH STREET, NORWALK, CA, 90650","Match","Exact","12002 164TH ST, NORWALK, CA, 90650",141743981,"R"
102729,"12002 AISHTAR STREET","FORT WASHINGTON","MD",20744,NA,NA,229,"12002 AISHTAR STREET, FORT WASHINGTON, MD, 20744","No_Match",NA,NA,NA,NA
102730,"12002 ASHBURY AVENUE","CLEVELAND","OH",44106,41.517098381,-81.601602443,230,"12002 ASHBURY AVENUE, CLEVELAND, OH, 44106","Match","Exact","12002 ASHBURY AVE, CLEVELAND, OH, 44106",61122087,"R"
102731,"12002 BRANCHWATER STREET","FREDERICKSBURG","VA",22407,38.285236545,-77.5400438779999,231,"12002 BRANCHWATER STREET, FREDERICKSBURG, VA, 22407","Match","Exact","12002 BRANCHWATER ST, FREDERICKSBURG, VA, 22407",85003941,"L"
102732,"12002 COOK COURT","SILVER SPRING","MD",20902,39.0538790350001,-77.061824729,232,"12002 COOK COURT, SILVER SPRING, MD, 20902","Match","Exact","12002 COOK CT, SILVER SPRING, MD, 20902",62062105,"L"
102733,"12002 GARD AVE","NORWALK","CA",90650,33.922875635,-118.088749627,233,"12002 GARD AVE, NORWALK, CA, 90650","Match","Exact","12002 GARD AVE, NORWALK, CA, 90650",141741103,"L"
102734,"12002 HUNTCLIFF ROAD","HUNTSVILLE","AK",35803,NA,NA,234,"12002 HUNTCLIFF ROAD, HUNTSVILLE, AK, 35803","No_Match",NA,NA,NA,NA
102735,"12002 HUNTCLIFF ROAD","HUNTSVILLE","AL",35803,34.611330906,-86.552283781,235,"12002 HUNTCLIFF ROAD, HUNTSVILLE, AL, 35803","Match","Non_Exact","12002 HUNTCLIFF RD SE, HUNTSVILLE, AL, 35803",58129496,"R"
102736,"12002 ISLAND BAY CIRCLE","SANFORD","FL",32771,NA,NA,236,"12002 ISLAND BAY CIRCLE, SANFORD, FL, 32771","No_Match",NA,NA,NA,NA
102737,"12002 KNOBCREST DR","HOUSTON","TX",77070,29.983463575,-95.60174298,237,"12002 KNOBCREST DR, HOUSTON, TX, 77070","Match","Exact","12002 KNOBCREST DR, HOUSTON, TX, 77070",96004359,"R"
102738,"12002 OLD ONYX","SAN ANTONIO","TX",78245,NA,NA,238,"12002 OLD ONYX, SAN ANTONIO, TX, 78245","No_Match",NA,NA,NA,NA
102739,"12002 ORCHID LANE","ALPHARETTA","GA",30009,34.072992524,-84.2992506419999,239,"12002 ORCHID LANE, ALPHARETTA, GA, 30009","Match","Exact","12002 ORCHID LN, ALPHARETTA, GA, 30009",618449096,"L"
102740,"12002 PLANTERS ESTATES DRIVE","CHARLOTTE","NC",28278,35.1239566950001,-80.9895398899999,240,"12002 PLANTERS ESTATES DRIVE, CHARLOTTE, NC, 28278","Match","Exact","12002 PLANTERS ESTATES DR, CHARLOTTE, NC, 28278",70552568,"R"
102741,"12002 ROSEBROOK LANE","ARLINGTON","TN",38002,35.279577934,-89.662985304,241,"12002 ROSEBROOK LANE, ARLINGTON, TN, 38002","Match","Exact","12002 ROSEBROOK LN, ARLINGTON, TN, 38002",613174258,"R"
102742,"12002 S NANDINA ST","JENKS","OK",74037,35.990096093,-95.989838149,242,"12002 S NANDINA ST, JENKS, OK, 74037","Match","Exact","12002 S NANDINA ST, JENKS, OK, 74037",624932909,"R"
102743,"12002 SAMPLES ROAD","ALEXANDER","AR",72002,34.67470618,-92.5694237279999,243,"12002 SAMPLES ROAD, ALEXANDER, AR, 72002","Match","Exact","12002 SAMPLES RD, ALEXANDER, AR, 72002",24216751,"R"
102744,"12002 SE 157TH PLACE","RENTON","WA",98058,47.4619798040001,-122.180333533,244,"12002 SE 157TH PLACE, RENTON, WA, 98058","Match","Exact","12002 SE 157TH PL, RENTON, WA, 98058",186633599,"L"
102745,"12002 SELFRIDGE APT 276","HAMTRAMCK","MI",48212,42.4002365260001,-83.073831819,245,"12002 SELFRIDGE APT 276, HAMTRAMCK, MI, 48212","Match","Non_Exact","12002 SELFRIDGE ST, HAMTRAMCK, MI, 48212",95699348,"L"
102746,"12002 SPANISH BLVD","SPANISH LAKE","OH",63138,NA,NA,246,"12002 SPANISH BLVD, SPANISH LAKE, OH, 63138","No_Match",NA,NA,NA,NA
102747,"12002 SW 128 CT SUITE 208","MIAMI","FL",33186,NA,NA,247,"12002 SW 128 CT SUITE 208, MIAMI, FL, 33186","No_Match",NA,NA,NA,NA
102748,"12002 SW 128 CT","MIAMI","FL",33186,25.649350457,-80.388694807,248,"12002 SW 128 CT, MIAMI, FL, 33186","Match","Non_Exact","12002 SW 128TH ST, MIAMI, FL, 33186",116057433,"R"
102749,"12002 SW 128TH COURT","MIAMI","FL",33186,25.649350457,-80.388694807,249,"12002 SW 128TH COURT, MIAMI, FL, 33186","Match","Non_Exact","12002 SW 128TH ST, MIAMI, FL, 33186",116057433,"R"
102750,"12002 SWEET HALL LN","HOUSTON","TX",77067,29.9591424860001,-95.463497956,250,"12002 SWEET HALL LN, HOUSTON, TX, 77067","Match","Exact","12002 SWEET HALL LN, HOUSTON, TX, 77067",96572519,"R"
102751,"12002 TURTLE MILL ROAD","BISHOPVILLE","MD",21813,38.4115893630001,-75.2004787389999,251,"12002 TURTLE MILL ROAD, BISHOPVILLE, MD, 21813","Match","Exact","12002 TURTLE MILL RD, BISHOPVILLE, MD, 21813",114525723,"R"
102752,"12002 WALDEN RD","MONTGOMERY","TX",77356,30.3943700770001,-95.605868861,252,"12002 WALDEN RD, MONTGOMERY, TX, 77356","Match","Exact","12002 WALDEN RD, MONTGOMERY, TX, 77356",79300172,"R"
102753,"12002 WIND COVE PACE","HUMBLE","TX",77346,NA,NA,253,"12002 WIND COVE PACE, HUMBLE, TX, 77346","No_Match",NA,NA,NA,NA
102754,"12003  DAVISBURG ROAD","DAVISBURG","MI",48350,42.755237429,-83.526229889,254,"12003  DAVISBURG ROAD, DAVISBURG, MI, 48350","Match","Exact","12003 DAVISBURG RD, DAVISBURG, MI, 48350",69752505,"R"
102755,"12003 BENJAMIN STREET","BELTSVILLE","MD",20705,39.0586943120001,-76.9156317389999,255,"12003 BENJAMIN STREET, BELTSVILLE, MD, 20705","Match","Exact","12003 BENJAMIN ST, BELTSVILLE, MD, 20705",76353017,"L"
102756,"12003 BENJAMIN STREET","CONTEH","MD",20705,39.0586943120001,-76.9156317389999,256,"12003 BENJAMIN STREET, CONTEH, MD, 20705","Match","Non_Exact","12003 BENJAMIN ST, CALVERTON, MD, 20705",76353017,"L"
102757,"12003 CHERIE DR","AUSTIN","TX",78758,30.398761565,-97.6938748009999,257,"12003 CHERIE DR, AUSTIN, TX, 78758","Match","Exact","12003 CHERIE DR, AUSTIN, TX, 78758",63997915,"R"
102758,"12003 CHESTER CREEK RD","JACKSONVILLE","FL",32218,30.450089054,-81.6795901629999,258,"12003 CHESTER CREEK RD, JACKSONVILLE, FL, 32218","Match","Exact","12003 CHESTER CREEK RD, JACKSONVILLE, FL, 32218",627949799,"L"
102759,"12003 COUNTY ROAD 4040","HOLTS SUMMIT","MO",65043,38.617410975,-92.120690479,259,"12003 COUNTY ROAD 4040, HOLTS SUMMIT, MO, 65043","Match","Exact","12003 CO RD 4040, HOLTS SUMMIT, MO, 65043",34368288,"L"
102760,"12003 DAVISBURG ROAD","DAVISBURG","MI",48350,42.755237429,-83.526229889,260,"12003 DAVISBURG ROAD, DAVISBURG, MI, 48350","Match","Exact","12003 DAVISBURG RD, DAVISBURG, MI, 48350",69752505,"R"
102761,"12003 ELMWOOD DRIVE","BRANDYWINE","MD",20613,38.7257194520001,-76.874133237,261,"12003 ELMWOOD DRIVE, BRANDYWINE, MD, 20613","Match","Exact","12003 ELMWOOD DR, BRANDYWINE, MD, 20613",76417506,"R"
102762,"12003 ENSENADA CANYON LN","HOUSTON","TX",77041,29.863977757,-95.588102697,262,"12003 ENSENADA CANYON LN, HOUSTON, TX, 77041","Match","Exact","12003 ENSENADA CANYON LN, HOUSTON, TX, 77041",96575225,"R"
102763,"12003 FOUNTAIN BROOK DR","PEARLAND","TX",77584,29.5576528330001,-95.405524188,263,"12003 FOUNTAIN BROOK DR, PEARLAND, TX, 77584","Match","Exact","12003 FOUNTAIN BROOK DR, PEARLAND, TX, 77584",632052869,"R"
102764,"12003 GALENA ROAD","DEADWOOD","SD",57732,44.3257484440001,-103.652484123,264,"12003 GALENA ROAD, DEADWOOD, SD, 57732","Match","Exact","12003 GALENA RD, DEADWOOD, SD, 57732",633095053,"R"
102765,"12003 HARBOUR TOWN PKWY","FAYETTEVILLE","GA",30215,33.431789182,-84.39316149,265,"12003 HARBOUR TOWN PKWY, FAYETTEVILLE, GA, 30215","Match","Exact","12003 HARBOUR TOWN PKWY, FAYETTEVILLE, GA, 30215",23328773,"L"
102766,"12003 HARRISON AVENUE","HEBRON","IL",60034,42.4673992960001,-88.4309657049999,266,"12003 HARRISON AVENUE, HEBRON, IL, 60034","Match","Exact","12003 HARRISON AVE, HEBRON, IL, 60034",119815101,"R"
102767,"12003 HEATHERVIEW DRIVE -  APPT 210","RALEIGH","NC",27614,35.940951134,-78.5642844559999,267,"12003 HEATHERVIEW DRIVE -  APPT 210, RALEIGH, NC, 27614","Match","Exact","12003 HEATHERVIEW DR, RALEIGH, NC, 27614",208364632,"L"
102768,"12003 LAKEWAY CT","HOUSTON","TX",77071,29.6497663600001,-95.521330534,268,"12003 LAKEWAY CT, HOUSTON, TX, 77071","Match","Exact","12003 LAKEWAY CT, HOUSTON, TX, 77071",96037386,"L"
102769,"12003 MIDDLEBURY DR","TAMPA","FL",33626,28.057352919,-82.620201663,269,"12003 MIDDLEBURY DR, TAMPA, FL, 33626","Match","Exact","12003 MIDDLEBURY DR, TAMPA, FL, 33626",104572550,"R"
102770,"12003 MIMOSA LANE","CYPRESS","TX",77429,29.9758680940001,-95.608185423,270,"12003 MIMOSA LANE, CYPRESS, TX, 77429","Match","Exact","12003 MIMOSA LN, CYPRESS, TX, 77429",96004444,"L"
102771,"12003 NOVA DR","HOUSTON","TX",77077,29.7502718040001,-95.5928679639999,271,"12003 NOVA DR, HOUSTON, TX, 77077","Match","Exact","12003 NOVA DR, HOUSTON, TX, 77077",96021031,"L"
102772,"12003 PENROD ST","DETROIT","MI",48228,42.3745067310001,-83.2205562949999,272,"12003 PENROD ST, DETROIT, MI, 48228","Match","Exact","12003 PENROD ST, DETROIT, MI, 48228",95439442,"L"
102773,"12003 PRINCEWOOD DR","FISHERS","IN",46037,39.9636622560001,-85.910996971,273,"12003 PRINCEWOOD DR, FISHERS, IN, 46037","Match","Exact","12003 PRINCEWOOD DR, FISHERS, IN, 46037",29343693,"R"
102774,"12003 QUARTETTE LN","BOWIE","MD",20720,38.993092819,-76.797849554,274,"12003 QUARTETTE LN, BOWIE, MD, 20720","Match","Exact","12003 QUARTETTE LN, BOWIE, MD, 20720",76340514,"R"
102775,"12003 RUNNINGMEADE TRL SE","HUNTSVILLE","AL",35803,34.628586329,-86.536498111,275,"12003 RUNNINGMEADE TRL SE, HUNTSVILLE, AL, 35803","Match","Exact","12003 RUNNINGMEADE TRL SE, HUNTSVILLE, AL, 35803",58166886,"L"
102776,"12003 S MONTEZUMA CT","PHOENIX","AZ",85044,33.337553825,-112.012524042,276,"12003 S MONTEZUMA CT, PHOENIX, AZ, 85044","Match","Exact","12003 S MONTEZUMA CT, PHOENIX, AZ, 85044",128933321,"L"
102777,"12003 VERA AVE","TAMPA","FL",33618,28.0574052270001,-82.489536986,277,"12003 VERA AVE, TAMPA, FL, 33618","Match","Exact","12003 VERA AVE, TAMPA, FL, 33618",104630261,"R"
102778,"12003 ZANUBIA COURT","RICHMOND","TX",77406,29.6947978740001,-95.794660027,278,"12003 ZANUBIA COURT, RICHMOND, TX, 77406","Match","Exact","12003 ZANUBIA CT, RICHMOND, TX, 77406",648707480,"L"
102779,"12004 106TH STREET","OSKALOOSA","KS",66066,39.237721256,-95.375126204,279,"12004 106TH STREET, OSKALOOSA, KS, 66066","Match","Exact","12004 106TH ST, OSKALOOSA, KS, 66066",648491656,"R"
102780,"12004 81ST AVE NE","KRIKLAND","WA",98034,47.708100669,-122.233821804,280,"12004 81ST AVE NE, KRIKLAND, WA, 98034","Match","Non_Exact","12004 81ST AVE NE, KIRKLAND, WA, 98034",186602158,"R"
102781,"12004 BIRDWELL COURT","CHARLOTTE","NC",28269,35.3564299450001,-80.789646886,281,"12004 BIRDWELL COURT, CHARLOTTE, NC, 28269","Match","Exact","12004 BIRDWELL CT, CHARLOTTE, NC, 28269",70560670,"L"
102782,"12004 CONCOW RD","OROVILLE","CA",95965,39.742411829,-121.525006539,282,"12004 CONCOW RD, OROVILLE, CA, 95965","Match","Exact","12004 CONCOW RD, OROVILLE, CA, 95965",68441124,"R"
102783,"12004 DAVID CT","SILOAM SPRINGS","AR",72761,36.184474886,-94.4795129029999,283,"12004 DAVID CT, SILOAM SPRINGS, AR, 72761","Match","Non_Exact","12004 E DAVID CT, SILOAM SPRINGS, AR, 72761",641734318,"R"
102784,"12004 DEL REY","ALBUQUERQUE","NM",87122,NA,NA,284,"12004 DEL REY, ALBUQUERQUE, NM, 87122","No_Match",NA,NA,NA,NA
102785,"12004 E MAIN","SPOKANE VALLEY","WA",99206,47.6589029130001,-117.242845977,285,"12004 E MAIN, SPOKANE VALLEY, WA, 99206","Match","Non_Exact","12004 E MAIN AVE, SPOKANE VALLEY, WA, 99206",189894838,"R"
102786,"12004 GORDON AVE","BELTSVILLE","NY",20705,NA,NA,286,"12004 GORDON AVE, BELTSVILLE, NY, 20705","No_Match",NA,NA,NA,NA
102787,"12004 JACOBSON COURT","BRIDGETON","MO",63044,38.7442971670001,-90.432140509,287,"12004 JACOBSON COURT, BRIDGETON, MO, 63044","Match","Exact","12004 JACOBSON CT, BRIDGETON, MO, 63044",100165246,"R"
102788,"12004 LEISURE DR","DALLAS","TX",75243,32.9111793120001,-96.711728391,288,"12004 LEISURE DR, DALLAS, TX, 75243","Match","Exact","12004 LEISURE DR, DALLAS, TX, 75243",102917087,"R"
102789,"12004 NEW HAMPSHIRE AVENUE","SILVER SPRING","MD",20904,39.05219593,-76.993881721,289,"12004 NEW HAMPSHIRE AVENUE, SILVER SPRING, MD, 20904","Match","Exact","12004 NEW HAMPSHIRE AVE, SILVER SPRING, MD, 20904",62073194,"L"
102790,"12004 QUICK FOX LANE","BOWIE","MD",20720,38.989549046,-76.797416396,290,"12004 QUICK FOX LANE, BOWIE, MD, 20720","Match","Exact","12004 QUICK FOX LN, BOWIE, MD, 20720",76340336,"L"
102791,"12004 RED OAK DRIVE","FAYETTEVILLE","AR",72704,36.1279899310001,-94.253163665,291,"12004 RED OAK DRIVE, FAYETTEVILLE, AR, 72704","Match","Exact","12004 RED OAK DR, FAYETTEVILLE, AR, 72704",629841376,"R"
102792,"12004 RIVER CANYON ROAD","HUNTSVILLE","AL",35803,34.612105925,-86.557268038,292,"12004 RIVER CANYON ROAD, HUNTSVILLE, AL, 35803","Match","Exact","12004 RIVER CANYON RD, HUNTSVILLE, AL, 35803",58143697,"L"
102793,"12004 S EAGLE CREST DRIVE","LEE S SUMMIT","MO",64086,38.8985539270001,-94.2438308169999,293,"12004 S EAGLE CREST DRIVE, LEE S SUMMIT, MO, 64086","Match","Non_Exact","12004 S EAGLE CREST DR, LEES SUMMIT, MO, 64086",649542881,"R"
102794,"12004 SAYWELL AVE","CLEVELAND","OH",44108,41.529979854,-81.603366124,294,"12004 SAYWELL AVE, CLEVELAND, OH, 44108","Match","Exact","12004 SAYWELL AVE, CLEVELAND, OH, 44108",61120389,"R"
102795,"12004 SMALLEY AVE","GRANDVIEW","MO",64030,38.904445122,-94.502063597,295,"12004 SMALLEY AVE, GRANDVIEW, MO, 64030","Match","Non_Exact","12004 SMALLEY ST, GRANDVIEW, MO, 64030",91477696,"R"
102796,"12004 STABLE RIDGE TERRACE","GLEN ALLEN","VA",23059,37.688113119,-77.583835155,296,"12004 STABLE RIDGE TERRACE, GLEN ALLEN, VA, 23059","Match","Exact","12004 STABLE RIDGE TER, GLEN ALLEN, VA, 23059",642705659,"R"
102797,"12004 STONE CROSSING CIR","TAMPA","FL",33635,28.02812599,-82.61855932,297,"12004 STONE CROSSING CIR, TAMPA, FL, 33635","Match","Exact","12004 STONE CROSSING CIR, TAMPA, FL, 33635",104578109,"L"
102798,"12004 SUNRISE RD","HENRICO","VA",23233,37.635430957,-77.618678223,298,"12004 SUNRISE RD, HENRICO, VA, 23233","Match","Exact","12004 SUNRISE RD, HENRICO, VA, 23233",106667524,"R"
102799,"12004 TOBOSA CIRCLE","MCKINNEY","TX",75071,33.213355587,-96.762059049,299,"12004 TOBOSA CIRCLE, MCKINNEY, TX, 75071","Match","Exact","12004 TOBOSA CIR, MCKINNEY, TX, 75071",646744895,"L"
102800,"12004 WARNER RD","KEYMAR","MD",21757,39.5625863920001,-77.265756138,300,"12004 WARNER RD, KEYMAR, MD, 21757","Match","Exact","12004 WARNER RD, KEYMAR, MD, 21757",60709374,"L"
102801,"12004 WELLAND STREET","INDIANAPOLIS","IN",46229,39.778619817,-85.9549747459999,301,"12004 WELLAND STREET, INDIANAPOLIS, IN, 46229","Match","Exact","12004 WELLAND ST, INDIANAPOLIS, IN, 46229",646582143,"L"
102802,"12004 WILLIAMD AND MARY CIR","WOODBRIDGE","VA",22192,NA,NA,302,"12004 WILLIAMD AND MARY CIR, WOODBRIDGE, VA, 22192","No_Match",NA,NA,NA,NA
102803,"12005 41ST AVE N123","PLYMOUTH","MA",55441,NA,NA,303,"12005 41ST AVE N123, PLYMOUTH, MA, 55441","No_Match",NA,NA,NA,NA
102804,"12005 41ST AVE NORTH  317","PLYMOUTH","MN",55441,45.0276625230001,-93.432362346,304,"12005 41ST AVE NORTH  317, PLYMOUTH, MN, 55441","Match","Exact","12005 41ST AVE N, PLYMOUTH, MN, 55441",43852749,"R"
102805,"12005 41ST AVENUE NORTH","PLYMOUTH","MN",55441,45.0276625230001,-93.432362346,305,"12005 41ST AVENUE NORTH, PLYMOUTH, MN, 55441","Match","Exact","12005 41ST AVE N, PLYMOUTH, MN, 55441",43852749,"R"
102806,"12005 44TH AVENUE EAST","BRADENTON","FL",34211,NA,NA,306,"12005 44TH AVENUE EAST, BRADENTON, FL, 34211","No_Match",NA,NA,NA,NA
102807,"12005 ALBERS ST APT 112","VALLEY VILLAGE","CA",91607,34.1703346300001,-118.394437034,307,"12005 ALBERS ST APT 112, VALLEY VILLAGE, CA, 91607","Match","Exact","12005 ALBERS ST, VALLEY VLG, CA, 91607",141564579,"R"
102808,"12005 ALBERS ST APT 319","VALLEY VILLAGE","CA",91607,34.1703346300001,-118.394437034,308,"12005 ALBERS ST APT 319, VALLEY VILLAGE, CA, 91607","Match","Exact","12005 ALBERS ST, VALLEY VLG, CA, 91607",141564579,"R"
102809,"12005 AVALON DRIVE","NORTHBORO","MA",1532,42.2866495910001,-71.6767291049999,309,"12005 AVALON DRIVE, NORTHBORO, MA, 1532","Match","Non_Exact","12005 AVALON DR, NORTHBOROUGH, MA, 01532",648261796,"R"
102810,"12005 BELLAFONTE DRIVE","DALLAS","TX",75243,32.9129405520001,-96.7615888999999,310,"12005 BELLAFONTE DRIVE, DALLAS, TX, 75243","Match","Exact","12005 BELLAFONTE DR, DALLAS, TX, 75243",102914187,"L"
102811,"12005 EVERGREEN STREET NW","COON RAPIDS","MN",55448,45.1879476280001,-93.271862706,311,"12005 EVERGREEN STREET NW, COON RAPIDS, MN, 55448","Match","Exact","12005 EVERGREEN ST NW, COON RAPIDS, MN, 55448",97485676,"R"
102812,"12005 FEATHER PLACE","RAPID CITY","SD",57701,44.19724704,-103.251854122,312,"12005 FEATHER PLACE, RAPID CITY, SD, 57701","Match","Exact","12005 FEATHER PL, RAPID CITY, SD, 57701",200931268,"R"
102813,"12005 HAYWARD DR","MAURICE","LA",70555,NA,NA,313,"12005 HAYWARD DR, MAURICE, LA, 70555","No_Match",NA,NA,NA,NA
102814,"12005 HUNTING CREST DRIVE","PROSPECT","KY",40059,38.3587901550001,-85.590307541,314,"12005 HUNTING CREST DRIVE, PROSPECT, KY, 40059","Match","Exact","12005 HUNTING CREST DR, PROSPECT, KY, 40059",634320831,"L"
102815,"12005 IRWINDALE AVE","BAKERSFIELD","CA",93312,35.415646613,-119.135834099,315,"12005 IRWINDALE AVE, BAKERSFIELD, CA, 93312","Match","Exact","12005 IRWINDALE AVE, BAKERSFIELD, CA, 93312",109527204,"L"
102816,"12005 ISHTAR STREET","FORT WASHINGTON","MD",20744,38.729635682,-77.0089142639999,316,"12005 ISHTAR STREET, FORT WASHINGTON, MD, 20744","Match","Exact","12005 ISHTAR ST, FT WASHINGTON, MD, 20744",76302418,"R"
102817,"12005 LAUDER","DETROIT","MI",48227,42.375112589,-83.190025894,317,"12005 LAUDER, DETROIT, MI, 48227","Match","Non_Exact","12005 LAUDER ST, DETROIT, MI, 48227",95441616,"L"
102818,"12005 MARGARET COURT","MARRIOTTVILLE","MD",21104,39.3082761680001,-76.9302656839999,318,"12005 MARGARET COURT, MARRIOTTVILLE, MD, 21104","Match","Non_Exact","12005 MARGARET CT, MARRIOTTSVILLE, MD, 21104",619758867,"L"
102819,"12005 MILLENNIUM PARK COURT","HAWTHORNE","CA",90250,33.923291034,-118.31816358,319,"12005 MILLENNIUM PARK COURT, HAWTHORNE, CA, 90250","Match","Exact","12005 MILLENNIUM PARK CT, HAWTHORNE, CA, 90250",641502046,"R"
102820,"12005 MT TACOMA STREET","MACDOEL","CA",96058,41.829339669,-122.007674859,320,"12005 MT TACOMA STREET, MACDOEL, CA, 96058","Match","Exact","12005 MT TACOMA ST, MACDOEL, CA, 96058",113222935,"L"
102821,"12005 N TATUM BLVD","PHOENIX","AZ",85028,33.597216589,-111.98096796,321,"12005 N TATUM BLVD, PHOENIX, AZ, 85028","Match","Exact","12005 N TATUM BLVD, PHOENIX, AZ, 85028",128915457,"R"
102822,"12005 NORTH 17TH AVENUE","BOISE","ID",83714,43.7133824680001,-116.242107157,322,"12005 NORTH 17TH AVENUE, BOISE, ID, 83714","Match","Exact","12005 N 17TH AVE, BOISE, ID, 83714",652138516,"L"
102823,"12005 PAUL EELLS DR APT 202","N LITTLE ROCK","AR",72113,34.833464706,-92.389371575,323,"12005 PAUL EELLS DR APT 202, N LITTLE ROCK, AR, 72113","Match","Exact","12005 PAUL EELLS DR, N LITTLE ROCK, AR, 72113",630202891,"R"
102824,"12005 PLEASANT PROSPECT RD","MITCHELLVILLE","MD",20721,38.925190704,-76.798214931,324,"12005 PLEASANT PROSPECT RD, MITCHELLVILLE, MD, 20721","Match","Non_Exact","12005 PLEASANT PROSPECT, MITCHELLVILLE, MD, 20721",76311782,"R"
102825,"12005 PLEASANT PROSPECT ROAD","MITCHELLVILLE","MD",20721,38.925190704,-76.798214931,325,"12005 PLEASANT PROSPECT ROAD, MITCHELLVILLE, MD, 20721","Match","Non_Exact","12005 PLEASANT PROSPECT, MITCHELLVILLE, MD, 20721",76311782,"R"
102826,"12005 PLEASANT","MITCHELLVILLE","MD",20721,NA,NA,326,"12005 PLEASANT, MITCHELLVILLE, MD, 20721","No_Match",NA,NA,NA,NA
102827,"12005 QUARUM PLACE","BOWIE","MD",20720,38.995499523,-76.797683955,327,"12005 QUARUM PLACE, BOWIE, MD, 20720","Match","Exact","12005 QUARUM PL, BOWIE, MD, 20720",76340455,"L"
102828,"12005 RAYO DELUNA LANE","AUSTIN","TX",78732,30.359407833,-97.896673902,328,"12005 RAYO DELUNA LANE, AUSTIN, TX, 78732","Match","Non_Exact","12005 RAYO DE LUNA LN, AUSTIN, TX, 78732",64060546,"L"
102829,"12005 REEDS BLUFF LN","MIDLOTHIAN","VA",23113,37.531309164,-77.621728601,329,"12005 REEDS BLUFF LN, MIDLOTHIAN, VA, 23113","Match","Exact","12005 REEDS BLUFF LN, MIDLOTHIAN, VA, 23113",223165228,"L"
102830,"12005 ROAD 9K","OTTAWA","OH",45875,41.108253238,-84.093308768,330,"12005 ROAD 9K, OTTAWA, OH, 45875","Match","Non_Exact","12005 ROAD E, OTTAWA, OH, 45875",36563707,"R"
102831,"12005 ROBSON","DETROIT","MI",48227,42.375060105,-83.1922009789999,331,"12005 ROBSON, DETROIT, MI, 48227","Match","Non_Exact","12005 ROBSON ST, DETROIT, MI, 48227",95441592,"L"
102832,"12005 ROCKAWAY CT","SPOTSYLVANIA","VA",22553,38.289632775,-77.6322607719999,332,"12005 ROCKAWAY CT, SPOTSYLVANIA, VA, 22553","Match","Exact","12005 ROCKAWAY CT, SPOTSYLVANIA, VA, 22553",85025698,"L"
102833,"12005 SETTLE CT","FAIRFAX","VA",22033,38.8758072740001,-77.3625506229999,333,"12005 SETTLE CT, FAIRFAX, VA, 22033","Match","Exact","12005 SETTLE CT, FAIRFAX, VA, 22033",76017926,"R"
102834,"12005 SPARROW HAWK PLACE","ZIONSVILLE","IN",46077,39.961490396,-86.238247594,334,"12005 SPARROW HAWK PLACE, ZIONSVILLE, IN, 46077","Match","Exact","12005 SPARROW HAWK PL, ZIONSVILLE, IN, 46077",646716899,"L"
102835,"12005 SUMMERSPRING LAKES DR","ORLANDO","FL",32825,28.513426403,-81.213513496,335,"12005 SUMMERSPRING LAKES DR, ORLANDO, FL, 32825","Match","Exact","12005 SUMMERSPRING LAKES DR, ORLANDO, FL, 32825",94407813,"L"
102836,"12005 TURTLE MILL ROAD","BISHOPVILLE","MD",21813,38.41156862,-75.2004749179999,336,"12005 TURTLE MILL ROAD, BISHOPVILLE, MD, 21813","Match","Exact","12005 TURTLE MILL RD, BISHOPVILLE, MD, 21813",114525723,"L"
102837,"12006 10TH AVE SOUTH","SEATTLE","WA",98168,47.4956403790001,-122.320585862,337,"12006 10TH AVE SOUTH, SEATTLE, WA, 98168","Match","Exact","12006 10TH AVE S, SEATTLE, WA, 98168",187004054,"L"
102838,"12006 22ND ST NE","LAKE STEVENS","WA",98258,48.017447126,-122.068514949,338,"12006 22ND ST NE, LAKE STEVENS, WA, 98258","Match","Exact","12006 22ND ST NE, LAKE STEVENS, WA, 98258",187812023,"R"
102839,"12006 94TH ST NORTH","LARGO","FL",33773,27.8816341680001,-82.769353899,339,"12006 94TH ST NORTH, LARGO, FL, 33773","Match","Exact","12006 94TH ST N, LARGO, FL, 33773",124677804,"L"
102840,"12006 AGANA ST","ORLANDO","FL",32837,28.391567787,-81.4123582559999,340,"12006 AGANA ST, ORLANDO, FL, 32837","Match","Exact","12006 AGANA ST, ORLANDO, FL, 32837",94290410,"L"
102841,"12006 ARBOR MESA","SAN ANTONIO","TX",78249,29.556341177,-98.648397874,341,"12006 ARBOR MESA, SAN ANTONIO, TX, 78249","Match","Exact","12006 ARBOR MESA, SAN ANTONIO, TX, 78249",641608560,"R"
102842,"12006 ASH ST APT 15","OVERLAND PARK","KS",66209,38.911544866,-94.6464883039999,342,"12006 ASH ST APT 15, OVERLAND PARK, KS, 66209","Match","Exact","12006 ASH ST, OVERLAND PARK, KS, 66209",91298706,"R"
102843,"12006 BENTON LANE","CASSVILLE","MO",65625,36.702051801,-93.856846832,343,"12006 BENTON LANE, CASSVILLE, MO, 65625","Match","Exact","12006 BENTON LN, CASSVILLE, MO, 65625",648544618,"L"
102844,"12006 CHANDLER HEIGHTS RD","CHANDLER","AZ",85249,33.2333887500001,-111.823747551,344,"12006 CHANDLER HEIGHTS RD, CHANDLER, AZ, 85249","Match","Non_Exact","12006 W CHANDLER HEIGHTS RD, CHANDLER, AZ, 85249",128806496,"L"
102845,"12006 COTNER AVENUE","BAKERSFIELD","CA",93314,35.3970165490001,-119.135180836,345,"12006 COTNER AVENUE, BAKERSFIELD, CA, 93314","Match","Non_Exact","12006 COTNER AVE, BAKERSFIELD, CA, 93312",109146682,"R"
102846,"12006 DETROIT AVE","LAKEWOOD","OH",44107,41.4839959940001,-81.772771011,346,"12006 DETROIT AVE, LAKEWOOD, OH, 44107","Match","Non_Exact","12006 DETROIT RD, LAKEWOOD, OH, 44107",61100628,"R"
102847,"12006 E FARWELL RD","MEAD","WA",99021,NA,NA,347,"12006 E FARWELL RD, MEAD, WA, 99021","No_Match",NA,NA,NA,NA
102848,"12006 EAGLE PASS DRIVE","CHESTERFIELD","VA",23838,37.337579239,-77.5936061579999,348,"12006 EAGLE PASS DRIVE, CHESTERFIELD, VA, 23838","Match","Exact","12006 EAGLE PASS DR, CHESTERFIELD, VA, 23838",201590488,"L"
102849,"12006 HANSEN RD","SPLENDORA","TX",77372,30.2736317440001,-95.243107325,349,"12006 HANSEN RD, SPLENDORA, TX, 77372","Match","Exact","12006 HANSEN RD, SPLENDORA, TX, 77372",79298166,"L"
102850,"12006 LAKE JUNE RD TRLR 30","BALCH SPRINGS","TX",75180,32.7339232940001,-96.6197492809999,350,"12006 LAKE JUNE RD TRLR 30, BALCH SPRINGS, TX, 75180","Match","Exact","12006 LAKE JUNE RD, BALCH SPRINGS, TX, 75180",103266626,"L"
102851,"12006 LAKE MEAD LANE","HUMBLE","TX",77346,29.968979803,-95.199103405,351,"12006 LAKE MEAD LANE, HUMBLE, TX, 77346","Match","Exact","12006 LAKE MEAD LN, HUMBLE, TX, 77346",624862158,"R"
102852,"12006 LARIMORE RD","ST LOUIS","MO",63138,38.788470918,-90.195969267,352,"12006 LARIMORE RD, ST LOUIS, MO, 63138","Match","Exact","12006 LARIMORE RD, SAINT LOUIS, MO, 63138",100150904,"R"
102853,"12006 NATURAL BRIDGES LANE","SUGARLAND","TX",77498,29.640728215,-95.653938921,353,"12006 NATURAL BRIDGES LANE, SUGARLAND, TX, 77498","Match","Non_Exact","12006 NATURAL BRIDGES LN, SUGAR LAND, TX, 77498",78292229,"L"
102854,"12006 QUIET WATER COURT","HOUSTON","TX",77065,29.9190151710001,-95.598794115,354,"12006 QUIET WATER COURT, HOUSTON, TX, 77065","Match","Exact","12006 QUIET WATER CT, HOUSTON, TX, 77065",96230634,"L"
102855,"12006 RHONDA LANE","TOMBALL","TX",77362,30.139320232,-95.65401717,355,"12006 RHONDA LANE, TOMBALL, TX, 77362","Match","Non_Exact","12006 RHONDA LN, PINEHURST, TX, 77362",624155116,"R"
102856,"12006 ROYCE WATERFORD CIRCLE","TAMPA","FL",33626,28.086922692,-82.62404363,356,"12006 ROYCE WATERFORD CIRCLE, TAMPA, FL, 33626","Match","Exact","12006 ROYCE WATERFORD CIR, TAMPA, FL, 33626",649954458,"L"
102857,"12006 SCRIBE DR","AUSTIN","TX",78759,30.4152988700001,-97.718264023,357,"12006 SCRIBE DR, AUSTIN, TX, 78759","Match","Exact","12006 SCRIBE DR, AUSTIN, TX, 78759",63926827,"L"
102858,"12006 SEGREST DR","HOUSTON","TX",77047,29.6313095360001,-95.364180989,358,"12006 SEGREST DR, HOUSTON, TX, 77047","Match","Exact","12006 SEGREST DR, HOUSTON, TX, 77047",96593644,"R"
102859,"12006 SNOWCREST CT","TOMBALL","TX",77377,30.0340283690001,-95.614961379,359,"12006 SNOWCREST CT, TOMBALL, TX, 77377","Match","Exact","12006 SNOWCREST CT, TOMBALL, TX, 77377",628034220,"R"
102860,"12006 SOMERSET WAY E","CARMEL","IN",46033,39.9626268710001,-86.09196501,360,"12006 SOMERSET WAY E, CARMEL, IN, 46033","Match","Exact","12006 SOMERSET WAY E, CARMEL, IN, 46033",29334376,"R"
102861,"12006 STARBOARD DRIVE APT 104","RESTON","VA",20194,38.966681441,-77.3627698339999,361,"12006 STARBOARD DRIVE APT 104, RESTON, VA, 20194","Match","Exact","12006 STARBOARD DR, RESTON, VA, 20194",618456801,"L"
102862,"12006 SW 31 CT","MIRAMAR","FL",33025,25.9799519260001,-80.306324215,362,"12006 SW 31 CT, MIRAMAR, FL, 33025","Match","Exact","12006 SW 31ST CT, MIRAMAR, FL, 33025",640876892,"L"
102863,"12006 SW 31ST CT","MIRAMAR","FL",33025,25.9799519260001,-80.306324215,363,"12006 SW 31ST CT, MIRAMAR, FL, 33025","Match","Exact","12006 SW 31ST CT, MIRAMAR, FL, 33025",640876892,"L"
102864,"12006 TITIAN WAY","POTOMAC","MD",20854,39.0557702020001,-77.1609007709999,364,"12006 TITIAN WAY, POTOMAC, MD, 20854","Match","Exact","12006 TITIAN WAY, POTOMAC, MD, 20854",62054171,"L"
102865,"12006 TREGONING PL","CLARKSBURG","MD",20871,39.2464419350001,-77.247935303,365,"12006 TREGONING PL, CLARKSBURG, MD, 20871","Match","Non_Exact","12006 TREGONING, CLARKSBURG, MD, 20871",618604138,"L"
102866,"12006","SEATTLE","WA",98168,NA,NA,366,"12006, SEATTLE, WA, 98168","No_Match",NA,NA,NA,NA
102867,"12007 15TH AVE NE APT 206","SEATTLE","WA",98125,47.7159613580001,-122.312570217,367,"12007 15TH AVE NE APT 206, SEATTLE, WA, 98125","Match","Exact","12007 15TH AVE NE, SEATTLE, WA, 98125",186584422,"L"
102868,"12007 15TH AVE NE APT206","SEATTLE","WA",98125,47.7159613580001,-122.312570217,368,"12007 15TH AVE NE APT206, SEATTLE, WA, 98125","Match","Exact","12007 15TH AVE NE, SEATTLE, WA, 98125",186584422,"L"
102869,"12007 42ND DR SE","EVERETT","WA",98208,47.8883521610001,-122.175750191,369,"12007 42ND DR SE, EVERETT, WA, 98208","Match","Exact","12007 42ND DR SE, EVERETT, WA, 98208",187779833,"R"
102870,"12007 BERNARD DRIVE","SILVER SPRING","MD",20902,39.051714073,-77.045976748,370,"12007 BERNARD DRIVE, SILVER SPRING, MD, 20902","Match","Exact","12007 BERNARD DR, SILVER SPRING, MD, 20902",62117322,"R"
102871,"12007 BUCKMINSTER COURT","FREDERICKSBURG","VA",22407,38.2894847170001,-77.5739366989999,371,"12007 BUCKMINSTER COURT, FREDERICKSBURG, VA, 22407","Match","Exact","12007 BUCKMINSTER CT, FREDERICKSBURG, VA, 22407",85025086,"R"
102872,"12007 CORRAL DR","FAIRFAX STATION","VA",22039,38.768425241,-77.362400139,372,"12007 CORRAL DR, FAIRFAX STATION, VA, 22039","Match","Exact","12007 CORRAL DR, FAIRFAX STATION, VA, 22039",75967201,"R"
102873,"12007 E SKYVIEW AVE","SPOKANE VALLEY","WA",99206,47.6319957700001,-117.243466565,373,"12007 E SKYVIEW AVE, SPOKANE VALLEY, WA, 99206","Match","Exact","12007 E SKYVIEW AVE, SPOKANE VALLEY, WA, 99206",189889152,"L"
102874,"12007 JACKSON SQUARE COURT","HAWTHORNE","CA",90250,33.923468503,-118.320437354,374,"12007 JACKSON SQUARE COURT, HAWTHORNE, CA, 90250","Match","Exact","12007 JACKSON SQUARE CT, HAWTHORNE, CA, 90250",641502063,"R"
102875,"12007 KINGSBROOKE STREET","BOWIE","MD",20721,NA,NA,375,"12007 KINGSBROOKE STREET, BOWIE, MD, 20721","No_Match",NA,NA,NA,NA
102876,"12007 LAKEWAY COURT","HOUSTON","TX",77071,29.6497540930001,-95.521330258,376,"12007 LAKEWAY COURT, HOUSTON, TX, 77071","Match","Exact","12007 LAKEWAY CT, HOUSTON, TX, 77071",96037386,"L"
102877,"12007 LANDING WAY","COOPER  CITY","FL",33026,26.039543764,-80.3093689849999,377,"12007 LANDING WAY, COOPER  CITY, FL, 33026","Match","Non_Exact","12007 LANDING WAY, HOLLYWOOD, FL, 33026",114700164,"L"
102878,"12007 LOCKET RIDGE AVENUE","MIDLOTHIAN","VA",23114,37.471672664,-77.621360406,378,"12007 LOCKET RIDGE AVENUE, MIDLOTHIAN, VA, 23114","Match","Non_Exact","12007 LOCKETT RIDGE AVE, MIDLOTHIAN, VA, 23114",201529982,"R"
102879,"12007 QUINCY LANE","DALLAS","TX",75230,32.912834429,-96.8145958979999,379,"12007 QUINCY LANE, DALLAS, TX, 75230","Match","Exact","12007 QUINCY LN, DALLAS, TX, 75230",103208250,"L"
102880,"12007 RIVER GROVE ST","MOORPARK","CA",93021,34.266422145,-118.893240362,380,"12007 RIVER GROVE ST, MOORPARK, CA, 93021","Match","Non_Exact","12007 RIVERGROVE ST, MOORPARK, CA, 93021",110077399,"L"
102881,"12007 STRATFIELD PL","PINEVILLE","NC",28134,NA,NA,381,"12007 STRATFIELD PL, PINEVILLE, NC, 28134","No_Match",NA,NA,NA,NA
102882,"12007 W PEORIA AVE","EL MIRAGE","AZ",85335,33.579937977,-112.320672876,382,"12007 W PEORIA AVE, EL MIRAGE, AZ, 85335","Match","Exact","12007 W PEORIA AVE, EL MIRAGE, AZ, 85335",631188158,"R"
102883,"12008 AUBURN LANE","FRISCO","TX",75035,33.126083243,-96.7737197599999,383,"12008 AUBURN LANE, FRISCO, TX, 75035","Match","Exact","12008 AUBURN LN, FRISCO, TX, 75035",123528115,"L"
102884,"12008 B COUNTY C","VALDERS","WI",54245,NA,NA,384,"12008 B COUNTY C, VALDERS, WI, 54245","No_Match",NA,NA,NA,NA
102885,"12008 CLARIDGE CT","DENTON","TX",76207,33.140364307,-97.251741179,385,"12008 CLARIDGE CT, DENTON, TX, 76207","Match","Exact","12008 CLARIDGE CT, DENTON, TX, 76207",639413402,"L"
102886,"12008 CREEK TURN DRIVE","CHARLOTTE","NC",28078,35.127635781,-80.991880636,386,"12008 CREEK TURN DRIVE, CHARLOTTE, NC, 28078","Match","Non_Exact","12008 CREEK TURN DR, CHARLOTTE, NC, 28278",70552574,"L"
102887,"12008 EL GRECO CIR","EL PASO","TX",79936,31.7345741570001,-106.285559373,387,"12008 EL GRECO CIR, EL PASO, TX, 79936","Match","Exact","12008 EL GRECO CIR, EL PASO, TX, 79936",189378005,"L"
102888,"12008 FLAT ROCK CT NW","ALBUQUERQUE","NM",87114,35.2170152640001,-106.688765279,388,"12008 FLAT ROCK CT NW, ALBUQUERQUE, NM, 87114","Match","Exact","12008 FLAT ROCK CT NW, ALBUQUERQUE, NM, 87114",632096082,"R"
102889,"12008 HUDSON VIEW COURT","LOUISVILLE","KY",40299,38.173913257,-85.546934815,389,"12008 HUDSON VIEW COURT, LOUISVILLE, KY, 40299","Match","Exact","12008 HUDSON VIEW CT, LOUISVILLE, KY, 40299",96883701,"L"
102890,"12008 JASMINE COVE WAY","RALEIGH","NC",27614,35.958742052,-78.549987755,390,"12008 JASMINE COVE WAY, RALEIGH, NC, 27614","Match","Exact","12008 JASMINE COVE WAY, RALEIGH, NC, 27614",208364599,"R"
102891,"12008 METTEE ROAD","MARRIOTTSVILLE","MD",21104,39.3151429650001,-76.9291019569999,391,"12008 METTEE ROAD, MARRIOTTSVILLE, MD, 21104","Match","Exact","12008 METTEE RD, MARRIOTTSVILLE, MD, 21104",158921465,"L"
102892,"12008 OLD HENRY ROAD","LOUISVILLE","KY",40224,38.2522746270001,-85.531695371,392,"12008 OLD HENRY ROAD, LOUISVILLE, KY, 40224","Match","Non_Exact","12008 OLD HENRY RD, LOUISVILLE, KY, 40223",652746984,"R"
102893,"12008 RIVENDELL DR","OKLAHOMA CITY","OK",73170,35.347584182,-97.5572429699999,393,"12008 RIVENDELL DR, OKLAHOMA CITY, OK, 73170","Match","Exact","12008 RIVENDELL DR, OKLAHOMA CITY, OK, 73170",99920360,"L"
102894,"12008 S 185TH AVE","GOODYEAR","AZ",85338,33.337718194,-112.448889128,394,"12008 S 185TH AVE, GOODYEAR, AZ, 85338","Match","Exact","12008 S 185TH AVE, GOODYEAR, AZ, 85338",641892021,"L"
102895,"12008 SE91ST CIRCLE","SUMMERFIELD","FL",34491,NA,NA,395,"12008 SE91ST CIRCLE, SUMMERFIELD, FL, 34491","No_Match",NA,NA,NA,NA
102896,"12008 TITIAN WAY","POTOMAC","MD",20854,39.0557806850001,-77.1608957399999,396,"12008 TITIAN WAY, POTOMAC, MD, 20854","Match","Exact","12008 TITIAN WAY, POTOMAC, MD, 20854",62054171,"L"
102897,"12008 URBANK CIRCLE NE","BLAINE","MN",55449,45.18763124,-93.208223774,397,"12008 URBANK CIRCLE NE, BLAINE, MN, 55449","Match","Exact","12008 URBANK CIR NE, BLAINE, MN, 55449",642169326,"R"
102898,"12008 WHITEWATER DRIVE","ALTURA","MN",55910,44.07822221,-92.032468609,398,"12008 WHITEWATER DRIVE, ALTURA, MN, 55910","Match","Exact","12008 WHITEWATER DR, ALTURA, MN, 55910",611869551,"L"
102899,"12009 141ST STREET","JAMAICA","NY",11436,NA,NA,399,"12009 141ST STREET, JAMAICA, NY, 11436","No_Match",NA,NA,NA,NA
102900,"12009 174TH CT NE","REDMOND","WA",98052,47.7078412720001,-122.107901619,400,"12009 174TH CT NE, REDMOND, WA, 98052","Match","Exact","12009 174TH CT NE, REDMOND, WA, 98052",627330206,"R"
102901,"12009 ALLISONVILLE ROAD","FISHERS","IN",46038,39.9643172250001,-86.0374230259999,401,"12009 ALLISONVILLE ROAD, FISHERS, IN, 46038","Match","Exact","12009 ALLISONVILLE RD, FISHERS, IN, 46038",29329421,"L"
102902,"12009 ASBURY DR","FT WASHINGTON","MD",20744,38.7284071180001,-76.998885693,402,"12009 ASBURY DR, FT WASHINGTON, MD, 20744","Match","Exact","12009 ASBURY DR, FT WASHINGTON, MD, 20744",76338341,"L"
102903,"12009 CASHLENAN LANE","NEW LENOX","IL",60451,41.4711421740001,-87.911114901,403,"12009 CASHLENAN LANE, NEW LENOX, IL, 60451","Match","Exact","12009 CASHLENAN LN, NEW LENOX, IL, 60451",635517282,"R"
102904,"12009 COACHMAN LAKES WAY","JACKSONVILLE","FL",32246,30.2965289430001,-81.5019292539999,404,"12009 COACHMAN LAKES WAY, JACKSONVILLE, FL, 32246","Match","Exact","12009 COACHMAN LAKES WAY, JACKSONVILLE, FL, 32246",83981048,"L"
102905,"12009 COIT RD APT 1103M","DALLAS","TX",75251,32.911059584,-96.769336575,405,"12009 COIT RD APT 1103M, DALLAS, TX, 75251","Match","Exact","12009 COIT RD, DALLAS, TX, 75251",103206869,"L"
102906,"12009 COIT ROAD APT 1303","DALLAS","TX",75251,32.911059584,-96.769336575,406,"12009 COIT ROAD APT 1303, DALLAS, TX, 75251","Match","Exact","12009 COIT RD, DALLAS, TX, 75251",103206869,"L"
102907,"12009 E 55TH ST","KANSAS CITY","MO",64133,39.0221428500001,-94.439826233,407,"12009 E 55TH ST, KANSAS CITY, MO, 64133","Match","Non_Exact","12009 E 55TH ST, KANSAS CITY, MO, 64133",91464353,"R"
102908,"12009 FERNDALE STREET","PHILADELPHIA","PA",19116,40.1235469850001,-75.0204279549999,408,"12009 FERNDALE STREET, PHILADELPHIA, PA, 19116","Match","Exact","12009 FERNDALE ST, PHILADELPHIA, PA, 19116",131438576,"R"
102909,"12009 FOUNTAIN BROOK DRIVE","PEARLAND","TX",77584,29.557652078,-95.405574192,409,"12009 FOUNTAIN BROOK DRIVE, PEARLAND, TX, 77584","Match","Exact","12009 FOUNTAIN BROOK DR, PEARLAND, TX, 77584",632052869,"R"
102910,"12009 FRANKLIN STREET","BELTSVILLE","MD",20705,39.058001661,-76.9135770509999,410,"12009 FRANKLIN STREET, BELTSVILLE, MD, 20705","Match","Exact","12009 FRANKLIN ST, BELTSVILLE, MD, 20705",639587549,"R"
102911,"12009 GAINESWAY CT","HASLET","TX",76052,32.92998412,-97.3909276479999,411,"12009 GAINESWAY CT, HASLET, TX, 76052","Match","Exact","12009 GAINESWAY CT, HASLET, TX, 76052",624105660,"R"
102912,"12009 GRAHAM ROAD","SAINT FRANCISVILLE","LA",70775,NA,NA,412,"12009 GRAHAM ROAD, SAINT FRANCISVILLE, LA, 70775","No_Match",NA,NA,NA,NA
102913,"12009 HERB BROOKS DRIVE","AUSTIN","TX",78748,30.147115705,-97.844277658,413,"12009 HERB BROOKS DRIVE, AUSTIN, TX, 78748","Match","Exact","12009 HERB BROOKS DR, AUSTIN, TX, 78748",629674848,"L"
102914,"12009 MEDFORD RD","PHILADELPHIA","PA",19154,40.0956621300001,-74.981531852,414,"12009 MEDFORD RD, PHILADELPHIA, PA, 19154","Match","Exact","12009 MEDFORD RD, PHILADELPHIA, PA, 19154",639163098,"R"
102915,"12009 OVERBROOK ROAD","LEAWOOD","KS",66209,38.910973857,-94.608824188,415,"12009 OVERBROOK ROAD, LEAWOOD, KS, 66209","Match","Exact","12009 OVERBROOK RD, LEAWOOD, KS, 66209",91287040,"L"
102916,"12009 PALMDATE ST","HOUSTON","TX",77034,29.6288551370001,-95.211265961,416,"12009 PALMDATE ST, HOUSTON, TX, 77034","Match","Exact","12009 PALMDATE ST, HOUSTON, TX, 77034",96104768,"L"
102917,"12009 TARRAGON ROAD APT 1","REISTERTOWN","MD",21136,39.445467696,-76.822480495,417,"12009 TARRAGON ROAD APT 1, REISTERTOWN, MD, 21136","Match","Non_Exact","12009 TARRAGON RD, REISTERSTOWN, MD, 21136",191562524,"R"
102918,"12009 TREGONING PLACE","CLARKSBURG","MD",20871,39.246466379,-77.248003492,418,"12009 TREGONING PLACE, CLARKSBURG, MD, 20871","Match","Non_Exact","12009 TREGONING, CLARKSBURG, MD, 20871",618604138,"R"
102919,"12009 TREVINO PL","TAMPA","FL",33624,28.05746788,-82.521718031,419,"12009 TREVINO PL, TAMPA, FL, 33624","Match","Exact","12009 TREVINO PL, TAMPA, FL, 33624",104628580,"L"
102920,"12009 UPLAND RIDGE DR","BEECAVE","TX",78738,30.305507167,-97.927937958,420,"12009 UPLAND RIDGE DR, BEECAVE, TX, 78738","Match","Non_Exact","12009 UPLANDS RIDGE DR, BEE CAVE, TX, 78738",64018749,"R"
102921,"12009 UPLANDS RIDGE DR","BEE CAVE","TX",78738,30.305507167,-97.927937958,421,"12009 UPLANDS RIDGE DR, BEE CAVE, TX, 78738","Match","Exact","12009 UPLANDS RIDGE DR, BEE CAVE, TX, 78738",64018749,"R"
102922,"12009 WHITE OAK ST","PECULAIR","MO",64078,38.732720655,-94.455166796,422,"12009 WHITE OAK ST, PECULAIR, MO, 64078","Match","Non_Exact","12009 WHITE OAK ST, PECULIAR, MO, 64078",645505460,"R"
102923,"12009 YOUNG TREE COURT","BRISTOW","VA",20136,38.7435318290001,-77.5534855509999,423,"12009 YOUNG TREE COURT, BRISTOW, VA, 20136","Match","Non_Exact","12009 YOUNGTREE CT, BRISTOW, VA, 20136",207162257,"R"
102924,"12009 ZEBRA AVE","NYA","MN",55368,44.7889212810001,-94.010027647,424,"12009 ZEBRA AVE, NYA, MN, 55368","Match","Exact","12009 ZEBRA AVE, NORWOOD YOUNG AMERICA, MN, 55368",635577019,"L"
102925,"12009","LAKEWOOD RANCH","FL",34202,NA,NA,425,"12009, LAKEWOOD RANCH, FL, 34202","No_Match",NA,NA,NA,NA
102926,"1200C AGORA DRIVE NUM 168","BEL AIR","MD",21014,39.5471954500001,-76.3155908639999,426,"1200C AGORA DRIVE NUM 168, BEL AIR, MD, 21014","Match","Exact","1200 AGORA DR, BEL AIR, MD, 21014",191674110,"R"
102927,"1201 1 STREET  818","JACKSONVILLE BEACH","FL",32250,NA,NA,427,"1201 1 STREET  818, JACKSONVILLE BEACH, FL, 32250","Tie",NA,NA,NA,NA
102928,"1201 12TH AVE N APT 203","MINNEAPOLIS","MN",55411,NA,NA,428,"1201 12TH AVE N APT 203, MINNEAPOLIS, MN, 55411","No_Match",NA,NA,NA,NA
102929,"1201 12TH AVE N APT 605","MINNEAPOLIS","MN",55411,NA,NA,429,"1201 12TH AVE N APT 605, MINNEAPOLIS, MN, 55411","No_Match",NA,NA,NA,NA
102930,"1201 12TH AVE N","MINNEAPOLIS","MN",55411,44.99083534,-93.295854503,430,"1201 12TH AVE N, MINNEAPOLIS, MN, 55411","Match","Exact","1201 12TH AVE N, MINNEAPOLIS, MN, 55411",640001690,"L"
102931,"1201 14TH AVE UNIT 202","SAN FRANCISCO","CA",94122,37.7654816580001,-122.47178896,431,"1201 14TH AVE UNIT 202, SAN FRANCISCO, CA, 94122","Match","Exact","1201 14TH AVE, SAN FRANCISCO, CA, 94122",640956872,"R"
102932,"1201 19TH AVENUE NE","ROCHESTER","MN",55906,44.035173865,-92.439726109,432,"1201 19TH AVENUE NE, ROCHESTER, MN, 55906","Match","Exact","1201 19TH AVE NE, ROCHESTER, MN, 55906",30551932,"L"
102933,"1201 19TH STREET","TELL CITY","IN",47586,37.958402619,-86.755288788,433,"1201 19TH STREET, TELL CITY, IN, 47586","Match","Exact","1201 19TH ST, TELL CITY, IN, 47586",7682391,"L"
102934,"1201 24TH AVENUE SW","GREAT FALLS","MT",59404,47.4818457900001,-111.331979774,434,"1201 24TH AVENUE SW, GREAT FALLS, MT, 59404","Match","Exact","1201 24TH AVE SW, GREAT FALLS, MT, 59404",647732693,"R"
102935,"1201 24TH ST B110-105","BAKERSFIELD","CA",93301,NA,NA,435,"1201 24TH ST B110-105, BAKERSFIELD, CA, 93301","No_Match",NA,NA,NA,NA
102936,"1201 40TH AVE S","MOORHEAD","MN",56560,46.8330492160001,-96.766821546,436,"1201 40TH AVE S, MOORHEAD, MN, 56560","Match","Exact","1201 40TH AVE S, MOORHEAD, MN, 56560",168038781,"R"
102937,"1201 44TH STREET NORTH","BIRMINGHAM","AL",35212,33.5439396880001,-86.772375858,437,"1201 44TH STREET NORTH, BIRMINGHAM, AL, 35212","Match","Exact","1201 44TH ST N, BIRMINGHAM, AL, 35212",81577815,"R"
102938,"1201 47TH STREET N","SAINT PETERSBURG","FL",33713,27.7836858250001,-82.697134719,438,"1201 47TH STREET N, SAINT PETERSBURG, FL, 33713","Match","Exact","1201 47TH ST N, SAINT PETERSBURG, FL, 33713",124700014,"R"
102939,"1201 55TH STREET","OAKLAND","CA",94608,37.8381890260001,-122.284164134,439,"1201 55TH STREET, OAKLAND, CA, 94608","Match","Exact","1201 55TH ST, OAKLAND, CA, 94608",640280871,"L"
102940,"1201 5TH AVE","DEWITT","IA",52742,41.827271006,-90.5374765829999,440,"1201 5TH AVE, DEWITT, IA, 52742","Match","Non_Exact","1201 5TH AVE, DE WITT, IA, 52742",16804882,"L"
102941,"1201 5TH AVE","UPTON","WY",82836,44.0988622300001,-104.620533657,441,"1201 5TH AVE, UPTON, WY, 82836","Match","Non_Exact","1201 5TH AVE, UPTON, WY, 82730",147509162,"L"
102942,"1201 5TH CORSO","NEBRASKA CITY","NE",68410,40.6720224150001,-95.860412025,442,"1201 5TH CORSO, NEBRASKA CITY, NE, 68410","Match","Exact","1201 5TH CORSO, NEBRASKA CITY, NE, 68410",10395004,"L"
102943,"1201 5TH ST EXTENDED","CHARLOTTESVILLE","VA",22902,NA,NA,443,"1201 5TH ST EXTENDED, CHARLOTTESVILLE, VA, 22902","No_Match",NA,NA,NA,NA
102944,"1201 5TH ST SE","WINTERHAVEN","FL",33880,28.0103131270001,-81.720568395,444,"1201 5TH ST SE, WINTERHAVEN, FL, 33880","Match","Non_Exact","1201 5TH ST SE, WINTER HAVEN, FL, 33880",104824304,"L"
102945,"1201 5TH ST SW","SIDNEY","MT",59270,47.7128371410001,-104.17177986,445,"1201 5TH ST SW, SIDNEY, MT, 59270","Match","Exact","1201 5TH ST SW, SIDNEY, MT, 59270",161883689,"R"
102946,"1201 5TH STREET SE","MINNEAPOLIS","MN",55414,44.9825250590001,-93.2376138659999,446,"1201 5TH STREET SE, MINNEAPOLIS, MN, 55414","Match","Exact","1201 5TH ST SE, MINNEAPOLIS, MN, 55414",43836093,"L"
102947,"1201 5TH STREET","FORT LUPTON","CO",80621,40.0841975380001,-104.804474802,447,"1201 5TH STREET, FORT LUPTON, CO, 80621","Match","Exact","1201 5TH ST, FORT LUPTON, CO, 80621",188695559,"L"
102948,"1201 6TH AVENUE WEST SUITE 100","BRADENTON","FL",34205,NA,NA,448,"1201 6TH AVENUE WEST SUITE 100, BRADENTON, FL, 34205","No_Match",NA,NA,NA,NA
102949,"1201 7TH ST NW APT 404","WASHINGTON DC","DC",20001,38.905771884,-77.02190547,449,"1201 7TH ST NW APT 404, WASHINGTON DC, DC, 20001","Match","Exact","1201 7TH ST NW, WASHINGTON, DC, 20001",76226217,"R"
102950,"1201 7TH ST W","PALMETTO","FL",34221,27.517623155,-82.5784826839999,450,"1201 7TH ST W, PALMETTO, FL, 34221","Match","Exact","1201 7TH ST W, PALMETTO, FL, 34221",16243559,"R"
102951,"1201 8TH AVE SE","SAINT CLOUD","MN",56304,45.553113393,-94.141390482,451,"1201 8TH AVE SE, SAINT CLOUD, MN, 56304","Match","Exact","1201 8TH AVE SE, SAINT CLOUD, MN, 56304",97757964,"R"
102952,"1201 A HUGH WALLIS ROAD S","LAFAYETTE","LA",70518,30.18874944,-91.996834801,452,"1201 A HUGH WALLIS ROAD S, LAFAYETTE, LA, 70518","Match","Non_Exact","1201 HUGH WALLIS RD S, LAFAYETTE, LA, 70508",85636004,"R"
102953,"1201 A HUGH WALLIS ROAD","LAFAYETTE","LA",70508,30.199582021,-91.9997450659999,453,"1201 A HUGH WALLIS ROAD, LAFAYETTE, LA, 70508","Match","Exact","1201 HUGH WALLIS RD, LAFAYETTE, LA, 70508",85630289,"R"
102954,"1201 ADAMS STREET UNIT 611","HOBOKEN","NJ",7030,NA,NA,454,"1201 ADAMS STREET UNIT 611, HOBOKEN, NJ, 7030","No_Match",NA,NA,NA,NA
102955,"1201 ADAMS STREET","VICKSBURG","MS",39183,32.3504224280001,-90.877214038,455,"1201 ADAMS STREET, VICKSBURG, MS, 39183","Match","Exact","1201 ADAMS ST, VICKSBURG, MS, 39183",71291869,"R"
102956,"1201 AGORA DR  LB2","BEL AIR","MD",21014,39.5470109190001,-76.318054576,456,"1201 AGORA DR  LB2, BEL AIR, MD, 21014","Match","Non_Exact","1201 AGORA PL, BEL AIR, MD, 21014",191654787,"L"
102957,"1201 ALAMO STREET","MINERAL WELLS","TX",76067,32.810540491,-98.140838523,457,"1201 ALAMO STREET, MINERAL WELLS, TX, 76067","Match","Exact","1201 ALAMO ST, MINERAL WELLS, TX, 76067",158839673,"L"
102958,"1201 ALEXANDROS OAK PLACE","TAMPA","FL",33619,27.936983051,-82.3744940779999,458,"1201 ALEXANDROS OAK PLACE, TAMPA, FL, 33619","Match","Exact","1201 ALEXANDROS OAK PL, TAMPA, FL, 33619",104579227,"R"
102959,"1201 ALLEN ST","BURTON","MI",48529,42.9807246460001,-83.6855147379999,459,"1201 ALLEN ST, BURTON, MI, 48529","Match","Exact","1201 ALLEN ST, BURTON, MI, 48529",69575761,"L"
102960,"1201 ALPHA ST","WEST PALM BEACH","FL",33401,26.6981344160001,-80.0664055569999,460,"1201 ALPHA ST, WEST PALM BEACH, FL, 33401","Match","Exact","1201 ALPHA ST, WEST PALM BEACH, FL, 33401",115278844,"R"
102961,"1201 ALPHARETTA ST","ROSWELL","GA",30075,34.0316957850001,-84.3522510289999,461,"1201 ALPHARETTA ST, ROSWELL, GA, 30075","Match","Non_Exact","1201 ALPHARETTA HWY, ROSWELL, GA, 30075",17352360,"R"
102962,"1201 ALTGELD ST","SOUTH BEND","IN",46614,41.650139962,-86.231836696,462,"1201 ALTGELD ST, SOUTH BEND, IN, 46614","Match","Non_Exact","1201 E ALTGELD ST, SOUTH BEND, IN, 46614",8057777,"L"
102963,"1201 AMBRIDGE DRIVE","LOUISVILLE","KY",40207,NA,NA,463,"1201 AMBRIDGE DRIVE, LOUISVILLE, KY, 40207","No_Match",NA,NA,NA,NA
102964,"1201 AMIGO WAY","LAKE HAVASU","AZ",86404,34.5158823420001,-114.320177635,464,"1201 AMIGO WAY, LAKE HAVASU, AZ, 86404","Match","Non_Exact","1201 AMIGO WAY, LAKE HAVASU CITY, AZ, 86404",190278581,"L"
102965,"1201 ANN ST","ROCKINGHAM","NC",28379,34.944365152,-79.759487054,465,"1201 ANN ST, ROCKINGHAM, NC, 28379","Match","Exact","1201 ANN ST, ROCKINGHAM, NC, 28379",13917284,"L"
102966,"1201 ARIZONA AVE","LAS CRUCES","NM",88001,32.303905264,-106.764697979,466,"1201 ARIZONA AVE, LAS CRUCES, NM, 88001","Match","Exact","1201 ARIZONA AVE, LAS CRUCES, NM, 88001",612725338,"L"
102967,"1201 ARLINGTON APT 606","ALICE","TX",78332,27.754457802,-98.061512594,467,"1201 ARLINGTON APT 606, ALICE, TX, 78332","Match","Non_Exact","1201 ARLINGTON ST, ALICE, TX, 78332",21513887,"L"
102968,"1201 ARROYO BLANCO","FAIRVIEW","TX",75069,33.145350923,-96.6036639599999,468,"1201 ARROYO BLANCO, FAIRVIEW, TX, 75069","Match","Non_Exact","1201 ARROYO BLANCO ST, FAIRVIEW, TX, 75069",648359747,"R"
102969,"1201 ASHLAND AVE","COLUMBUS","OH",43212,39.9814721590001,-83.050512944,469,"1201 ASHLAND AVE, COLUMBUS, OH, 43212","Match","Exact","1201 ASHLAND AVE, COLUMBUS, OH, 43212",218689306,"L"
102970,"1201 AVENUE B 1631","SAN ANTONIO","TX",78215,NA,NA,470,"1201 AVENUE B 1631, SAN ANTONIO, TX, 78215","No_Match",NA,NA,NA,NA
102971,"1201 BAGLEY DRIVE","FAYETTEVILLE","TN",37334,35.1658323620001,-86.583598212,471,"1201 BAGLEY DRIVE, FAYETTEVILLE, TN, 37334","Match","Exact","1201 BAGLEY DR, FAYETTEVILLE, TN, 37334",58305020,"R"
102972,"1201 BAGLEY","DETROIT","MI",48226,42.331077156,-83.0618716499999,472,"1201 BAGLEY, DETROIT, MI, 48226","Match","Non_Exact","1201 BAGLEY ST, DETROIT, MI, 48226",95479503,"L"
102973,"1201 BALLARD RIDGE RD","JACKSONVILLE","FL",32211,30.333625655,-81.556576267,473,"1201 BALLARD RIDGE RD, JACKSONVILLE, FL, 32211","Match","Exact","1201 BALLARD RIDGE RD, JACKSONVILLE, FL, 32211",650037658,"R"
102974,"1201 BALSAM AVE UNIT 301","BOULDER","CO",80304,40.0267446600001,-105.281937722,474,"1201 BALSAM AVE UNIT 301, BOULDER, CO, 80304","Match","Exact","1201 BALSAM AVE, BOULDER, CO, 80304",188159568,"L"
102975,"1201 BANBURY CIRCLE","NAPERVILLE","IL",60540,41.7638908700001,-88.124374417,475,"1201 BANBURY CIRCLE, NAPERVILLE, IL, 60540","Match","Exact","1201 BANBURY CIR, NAPERVILLE, IL, 60540",112537008,"R"
102976,"1201 BARBARA DR","SEYMOUR","TX",76380,33.599718384,-99.2720568399999,476,"1201 BARBARA DR, SEYMOUR, TX, 76380","Match","Exact","1201 BARBARA DR, SEYMOUR, TX, 76380",182804102,"L"
102977,"1201 BARNETT SPRINGS ST","RUSTON","LA",71270,32.517159319,-92.678050304,477,"1201 BARNETT SPRINGS ST, RUSTON, LA, 71270","Match","Non_Exact","1201 S BARNETT SPRINGS ST, RUSTON, LA, 71270",164101556,"R"
102978,"1201 BAY ST - B","SANTA MONICA","CA",90405,34.0138927830001,-118.477832719,478,"1201 BAY ST - B, SANTA MONICA, CA, 90405","Match","Exact","1201 BAY ST, SANTA MONICA, CA, 90405",141568695,"L"
102979,"1201 BAY VIEW WAY","WELLINGTON","FL",33414,26.6669410050001,-80.2150300609999,479,"1201 BAY VIEW WAY, WELLINGTON, FL, 33414","Match","Exact","1201 BAY VIEW WAY, WELLINGTON, FL, 33414",618581763,"L"
102980,"1201 BAYLOR AVE","ROSWELL","NM",88203,33.360514922,-104.538782712,480,"1201 BAYLOR AVE, ROSWELL, NM, 88203","Match","Exact","1201 BAYLOR AVE, ROSWELL, NM, 88203",131813446,"L"
102981,"1201 BEECHWOOD BLVD","PITTSBURGH","PA",15206,40.4485307520001,-79.9190004019999,481,"1201 BEECHWOOD BLVD, PITTSBURGH, PA, 15206","Match","Exact","1201 BEECHWOOD BLVD, PITTSBURGH, PA, 15206",51683275,"L"
102982,"1201 BELL CREST DR","ARLINGTON","TX",76002,32.6408170170001,-97.0912390349999,482,"1201 BELL CREST DR, ARLINGTON, TX, 76002","Match","Non_Exact","1201 BELLCREST DR, ARLINGTON, TX, 76002",101960637,"R"
102983,"1201 BELL CREST DRIVE","ARLINGTON","TX",76002,32.6408170170001,-97.0912390349999,483,"1201 BELL CREST DRIVE, ARLINGTON, TX, 76002","Match","Non_Exact","1201 BELLCREST DR, ARLINGTON, TX, 76002",101960637,"R"
102984,"1201 BENNET AVE UNIT 3","LONG BEACH","CA",90804,33.781694181,-118.142629158,484,"1201 BENNET AVE UNIT 3, LONG BEACH, CA, 90804","Match","Non_Exact","1201 BENNETT AVE, LONG BEACH, CA, 90804",141702119,"L"
102985,"1201 BENNETT AVE 3","LONG BEACH","CA",90804,33.781694181,-118.142629158,485,"1201 BENNETT AVE 3, LONG BEACH, CA, 90804","Match","Exact","1201 BENNETT AVE, LONG BEACH, CA, 90804",141702119,"L"
102986,"1201 BERING DR APT 57","HOUSTON","TX",77057,29.7533309,-95.479580437,486,"1201 BERING DR APT 57, HOUSTON, TX, 77057","Match","Exact","1201 BERING DR, HOUSTON, TX, 77057",96620454,"L"
102987,"1201 BERNICE HUDSON DRIVE","MOBILE","AL",36605,30.664518061,-88.0654611799999,487,"1201 BERNICE HUDSON DRIVE, MOBILE, AL, 36605","Match","Exact","1201 BERNICE HUDSON DR, MOBILE, AL, 36605",61863101,"L"
102988,"1201 BIENVILLE  ST","NEW ORLEANS","LA",70112,29.9579316460001,-90.0720486879999,488,"1201 BIENVILLE  ST, NEW ORLEANS, LA, 70112","Match","Exact","1201 BIENVILLE ST, NEW ORLEANS, LA, 70112",191710764,"R"
102989,"1201 BIG ROCK ST","CANTON","TX",75103,32.5450868900001,-95.8702916569999,489,"1201 BIG ROCK ST, CANTON, TX, 75103","Match","Exact","1201 BIG ROCK ST, CANTON, TX, 75103",42919775,"L"
102990,"1201 BIRCH FALLS DRIVE","BELLINGHAM","WA",98229,48.743444245,-122.42490993,490,"1201 BIRCH FALLS DRIVE, BELLINGHAM, WA, 98229","Match","Exact","1201 BIRCH FALLS DR, BELLINGHAM, WA, 98229",627221401,"R"
102991,"1201 BIRCH","WEATHERFORD","OK",73096,35.538069589,-98.679047235,491,"1201 BIRCH, WEATHERFORD, OK, 73096","Match","Non_Exact","1201 BIRCH ST, WEATHERFORD, OK, 73096",150600974,"L"
102992,"1201 BIRD AVENUE","HARRISONILLE","MO",64701,38.646982689,-94.334030765,492,"1201 BIRD AVENUE, HARRISONILLE, MO, 64701","Match","Non_Exact","1201 BIRD AVE, HARRISONVILLE, MO, 64701",100911109,"R"
102993,"1201 BISHOP FARMS PARKWAY","WATKINSVILLE","GA",30677,33.855885077,-83.4266534879999,493,"1201 BISHOP FARMS PARKWAY, WATKINSVILLE, GA, 30677","Match","Non_Exact","1201 BISHOP FARMS PKWY S, WATKINSVILLE, GA, 30677",618759970,"L"
102994,"1201 BLACKBERRY COURT","PERKASIE","PA",18944,40.357199725,-75.273706112,494,"1201 BLACKBERRY COURT, PERKASIE, PA, 18944","Match","Exact","1201 BLACKBERRY CT, PERKASIE, PA, 18944",623990253,"R"
102995,"1201 BLUFFWAY DR","COLUMBUS","OH",43235,40.113453523,-83.048212655,495,"1201 BLUFFWAY DR, COLUMBUS, OH, 43235","Match","Exact","1201 BLUFFWAY DR, COLUMBUS, OH, 43235",624574865,"L"
102996,"1201 BRADDOCK PLACE APT 905","ALEXANDRIA","VA",22314,38.814886309,-77.050589783,496,"1201 BRADDOCK PLACE APT 905, ALEXANDRIA, VA, 22314","Match","Exact","1201 BRADDOCK PL, ALEXANDRIA, VA, 22314",76021423,"L"
102997,"1201 BRADDOCK PLACE","ALEXANDRIA","VA",22314,38.814886309,-77.050589783,497,"1201 BRADDOCK PLACE, ALEXANDRIA, VA, 22314","Match","Exact","1201 BRADDOCK PL, ALEXANDRIA, VA, 22314",76021423,"L"
102998,"1201 BRADLEY ROAD","LYNDEN","WA",98264,48.953123852,-122.425297183,498,"1201 BRADLEY ROAD, LYNDEN, WA, 98264","Match","Exact","1201 BRADLEY RD, LYNDEN, WA, 98264",640066250,"R"
102999,"1201 BRANDFORD ROAD","CATONSVILLE","MD",21228,39.256933088,-76.7382932,499,"1201 BRANDFORD ROAD, CATONSVILLE, MD, 21228","Match","Exact","1201 BRANDFORD RD, CATONSVILLE, MD, 21228",191485105,"L"
103000,"1201 BRENHAM LANE","LEANDER","TX",78641,30.55558756,-97.871658461,500,"1201 BRENHAM LANE, LEANDER, TX, 78641","Match","Exact","1201 BRENHAM LN, LEANDER, TX, 78641",648537218,"R"
