"ID","Address","City","State","Zip","lat","long","id","input_address","match_indicator","match_type","matched_address","tiger_line_id","tiger_side"
363501,"2227 ASBURY RD","KNOXVILLE","TN",37914,35.967174754,-83.8451699559999,1,"2227 ASBURY RD, KNOXVILLE, TN, 37914","Match","Exact","2227 ASBURY RD, KNOXVILLE, TN, 37914",642175135,"L"
363502,"2227 AVENIDA OLIVA","SAN CLEMENTE","CA",92673,33.444797555,-117.627320375,2,"2227 AVENIDA OLIVA, SAN CLEMENTE, CA, 92673","Match","Exact","2227 AVE OLIVA, SAN CLEMENTE, CA, 92673",609047916,"R"
363503,"2227 BATAAN ROAD","REDONDO BEACH","CA",90278,33.8846665730001,-118.37191658,3,"2227 BATAAN ROAD, REDONDO BEACH, CA, 90278","Match","Exact","2227 BATAAN RD, REDONDO BEACH, CA, 90278",141662720,"L"
363504,"2227 BEL PRE RD SUITE 124","SILVER SPRING","MD",20906,39.090522165,-77.0473532,4,"2227 BEL PRE RD SUITE 124, SILVER SPRING, MD, 20906","Match","Exact","2227 BEL PRE RD, SILVER SPRING, MD, 20906",640169581,"R"
363505,"2227 BERNIE DR","INDIANAPOLIS","IN",46229,39.799673603,-85.985689494,5,"2227 BERNIE DR, INDIANAPOLIS, IN, 46229","Match","Exact","2227 BERNIE DR, INDIANAPOLIS, IN, 46229",108012968,"R"
363506,"2227 BROADWAY ST","INDIANAPOLIS","IN",46205,39.7981725000001,-86.146353856,6,"2227 BROADWAY ST, INDIANAPOLIS, IN, 46205","Match","Exact","2227 BROADWAY ST, INDIANAPOLIS, IN, 46205",107989789,"R"
363507,"2227 BROKEN HILL ROAD","WAUKESHA","WI",53188,43.0330977940001,-88.2655738559999,7,"2227 BROKEN HILL ROAD, WAUKESHA, WI, 53188","Match","Exact","2227 BROKEN HILL RD, WAUKESHA, WI, 53188",53811157,"R"
363508,"2227 BUTTERCUP LANE","GROVE CITY","OH",43123,39.848253637,-83.0650765239999,8,"2227 BUTTERCUP LANE, GROVE CITY, OH, 43123","Match","Exact","2227 BUTTERCUP LN, GROVE CITY, OH, 43123",135632722,"R"
363509,"2227 CANYON ROAD","ARCADIA","CA",91006,34.1766699730001,-118.024236724,9,"2227 CANYON ROAD, ARCADIA, CA, 91006","Match","Exact","2227 CANYON RD, ARCADIA, CA, 91006",642864652,"L"
363510,"2227 CASCADE WAY","LONGVIEW","WA",98632,46.1497048630001,-122.937310338,10,"2227 CASCADE WAY, LONGVIEW, WA, 98632","Match","Exact","2227 CASCADE WAY, LONGVIEW, WA, 98632",184489162,"L"
363511,"2227 CATHERINE ST","NORTHBROOK","IL",60062,42.1291914710001,-87.834670806,11,"2227 CATHERINE ST, NORTHBROOK, IL, 60062","Match","Exact","2227 CATHERINE ST, NORTHBROOK, IL, 60062",111839634,"L"
363512,"2227 CHISM AVE","TULARE","CA",93274,36.215539785,-119.379002402,12,"2227 CHISM AVE, TULARE, CA, 93274","Match","Exact","2227 CHISM AVE, TULARE, CA, 93274",607611447,"R"
363513,"2227 CLARK RD","RICHMOND","KS",66080,38.4191589860001,-95.3139380489999,13,"2227 CLARK RD, RICHMOND, KS, 66080","Match","Exact","2227 CLARK RD, RICHMOND, KS, 66080",10598370,"R"
363514,"2227 CLIFF DRIVE","NEWPORT BEACH","CA",92663,33.6197110480001,-117.918874631,14,"2227 CLIFF DRIVE, NEWPORT BEACH, CA, 92663","Match","Exact","2227 CLIFF DR, NEWPORT BEACH, CA, 92663",144047394,"L"
363515,"2227 COLUMBIA RD 529","MAGNOLIA","AR",71753,33.267461014,-93.140534354,15,"2227 COLUMBIA RD 529, MAGNOLIA, AR, 71753","Match","Exact","2227 COLUMBIA RD, MAGNOLIA, AR, 71753",10675812,"L"
363516,"2227 CREEKSIDE DRIVE","LONGMONT","CO",80504,40.133709035,-105.122859133,16,"2227 CREEKSIDE DRIVE, LONGMONT, CO, 80504","Match","Exact","2227 CREEKSIDE DR, LONGMONT, CO, 80504",635354582,"R"
363517,"2227 CRESCENT STREET","BOURBONNAIS","IL",60914,41.178177029,-87.829942581,17,"2227 CRESCENT STREET, BOURBONNAIS, IL, 60914","Match","Exact","2227 CRESCENT ST, BOURBONNAIS, IL, 60914",618486173,"L"
363518,"2227 CRESCENT","BOURBONNAIS","IL",60914,41.178177029,-87.829942581,18,"2227 CRESCENT, BOURBONNAIS, IL, 60914","Match","Non_Exact","2227 CRESCENT ST, BOURBONNAIS, IL, 60914",618486173,"L"
363519,"2227 CURRY FORD ROAD","ORLANDO","FL",32806,28.524094533,-81.353408949,19,"2227 CURRY FORD ROAD, ORLANDO, FL, 32806","Match","Exact","2227 CURRY FORD RD, ORLANDO, FL, 32806",94285815,"L"
363520,"2227 DIAMOND ST NE","NORTH CANTON","OH",44721,40.896433137,-81.339189394,20,"2227 DIAMOND ST NE, NORTH CANTON, OH, 44721","Match","Exact","2227 DIAMOND ST NE, N CANTON, OH, 44721",64694290,"L"
363521,"2227 DRURY LANE","MISSION HILLS","KS",66208,39.018129376,-94.61111088,21,"2227 DRURY LANE, MISSION HILLS, KS, 66208","Match","Exact","2227 DRURY LN, MISSION HILLS, KS, 66208",91286418,"L"
363522,"2227 E 29TH ST","LORAIN","OH",44055,41.444736687,-82.1192354139999,22,"2227 E 29TH ST, LORAIN, OH, 44055","Match","Exact","2227 E 29TH ST, LORAIN, OH, 44055",55408026,"L"
363523,"2227 E LADENEY WAY","ONTARIO","CA",91764,34.0843270620001,-117.60454531,23,"2227 E LADENEY WAY, ONTARIO, CA, 91764","Match","Non_Exact","2227 E LA DENEY WAY, ONTARIO, CA, 91764",144637236,"L"
363524,"2227 E SUNNYSIDE DR","PHOENIX","AZ",85028,33.5926899730001,-112.033847787,24,"2227 E SUNNYSIDE DR, PHOENIX, AZ, 85028","Match","Exact","2227 E SUNNYSIDE DR, PHOENIX, AZ, 85028",128184170,"R"
363525,"2227 EAGLES NEST ROAD","JACKSONVILLE","FL",32246,30.31178728,-81.468829791,25,"2227 EAGLES NEST ROAD, JACKSONVILLE, FL, 32246","Match","Exact","2227 EAGLES NEST RD, JACKSONVILLE, FL, 32246",83930792,"R"
363526,"2227 FILBERT ST UNIT 8","SAN FRANCISCO","CA",94123,37.797954293,-122.436175372,26,"2227 FILBERT ST UNIT 8, SAN FRANCISCO, CA, 94123","Match","Exact","2227 FILBERT ST, SAN FRANCISCO, CA, 94123",192279672,"L"
363527,"2227 GINA","MEMPHIS","TN",38118,NA,NA,27,"2227 GINA, MEMPHIS, TN, 38118","No_Match",NA,NA,NA,NA
363528,"2227 GODBY ROAD","ATLANTA","GA",30134,33.616244034,-84.462694568,28,"2227 GODBY ROAD, ATLANTA, GA, 30134","Match","Non_Exact","2227 GODBY RD, ATLANTA, GA, 30349",17411323,"R"
363529,"2227 KENSINGTON WAY","NEW BRAUNFELS","TX",78130,29.6757725630001,-98.09646742,29,"2227 KENSINGTON WAY, NEW BRAUNFELS, TX, 78130","Match","Exact","2227 KENSINGTON WAY, NEW BRAUNFELS, TX, 78130",54856504,"L"
363530,"2227 LAKELAND LANE","FORT WAYNE","IN",46815,41.09979973,-85.0512704929999,30,"2227 LAKELAND LANE, FORT WAYNE, IN, 46815","Match","Exact","2227 LAKELAND LN, FORT WAYNE, IN, 46815",6385672,"L"
363531,"2227 LANCELOT PLACE","COLUMBUS","GA",31904,32.5081979170001,-84.960300225,31,"2227 LANCELOT PLACE, COLUMBUS, GA, 31904","Match","Exact","2227 LANCELOT PL, COLUMBUS, GA, 31904",98938475,"L"
363532,"2227 LENAY WAY","RIVERBANK","CA",95367,NA,NA,32,"2227 LENAY WAY, RIVERBANK, CA, 95367","No_Match",NA,NA,NA,NA
363533,"2227 LEO DR    APT D","AUBURNDALE","FL",33823,28.0630012720001,-81.816756482,33,"2227 LEO DR    APT D, AUBURNDALE, FL, 33823","Match","Exact","2227 LEO DR, AUBURNDALE, FL, 33823",104846965,"R"
363534,"2227 LONDON LN","GREENBRIER","TN",37073,36.4002238370001,-86.815731362,34,"2227 LONDON LN, GREENBRIER, TN, 37073","Match","Exact","2227 LONDON LN, GREENBRIER, TN, 37073",627658772,"L"
363535,"2227 LONGLEAF DRIVE","CHARLOTTE","NC",28210,35.109757496,-80.872181551,35,"2227 LONGLEAF DRIVE, CHARLOTTE, NC, 28210","Match","Exact","2227 LONGLEAF DR, CHARLOTTE, NC, 28210",70490163,"L"
363536,"2227 MC LAREN CR APT 55","KISSIMMEE","FL",34744,28.310844162,-81.4010654429999,36,"2227 MC LAREN CR APT 55, KISSIMMEE, FL, 34744","Match","Non_Exact","2227 MCLAREN CIR, KISSIMMEE, FL, 34744",176682766,"L"
363537,"2227 MCCLENDON STREET","HOUSTON","TX",77030,29.708508232,-95.410652134,37,"2227 MCCLENDON STREET, HOUSTON, TX, 77030","Match","Exact","2227 MCCLENDON ST, HOUSTON, TX, 77030",96065073,"L"
363538,"2227 MIRIAM LANE","DECATUR","GA",30032,33.7269772920001,-84.273092906,38,"2227 MIRIAM LANE, DECATUR, GA, 30032","Match","Exact","2227 MIRIAM LN, DECATUR, GA, 30032",23370506,"R"
363539,"2227 MYERS STREET","OROVILLE","CA",95966,39.5074921840001,-121.551687384,39,"2227 MYERS STREET, OROVILLE, CA, 95966","Match","Exact","2227 MYERS ST, OROVILLE, CA, 95966",639045302,"R"
363540,"2227 N 2650 E","LAYTON","UT",84040,41.091673343,-111.915645372,40,"2227 N 2650 E, LAYTON, UT, 84040","Match","Exact","2227 N 2650 E, LAYTON, UT, 84040",229354158,"L"
363541,"2227 N 300 W","PROVO","UT",84601,NA,NA,41,"2227 N 300 W, PROVO, UT, 84601","No_Match",NA,NA,NA,NA
363542,"2227 N 3650 E","LAYTON","UT",84040,NA,NA,42,"2227 N 3650 E, LAYTON, UT, 84040","No_Match",NA,NA,NA,NA
363543,"2227 N 75TH CT UNIT 2","ELMWOOD PARK","IL",60707,41.920271954,-87.8146820649999,43,"2227 N 75TH CT UNIT 2, ELMWOOD PARK, IL, 60707","Match","Non_Exact","2227 N 75TH CT, ELMWOOD PARK, IL, 60707",111749032,"R"
363544,"2227 N SAWYER","CHICAGO","IL",60647,41.9219968630001,-87.709061382,44,"2227 N SAWYER, CHICAGO, IL, 60647","Match","Non_Exact","2227 N SAWYER AVE, CHICAGO, IL, 60647",605207095,"R"
363545,"2227 NE 14TH AVENUE","PORTLAND","OR",97212,45.5383967590001,-122.651483856,45,"2227 NE 14TH AVENUE, PORTLAND, OR, 97212","Match","Exact","2227 NE 14TH AVE, PORTLAND, OR, 97212",157505102,"L"
363546,"2227 NEWBOLD AVE","BRONX","NY",10462,40.8334996030001,-73.8504514799999,46,"2227 NEWBOLD AVE, BRONX, NY, 10462","Match","Exact","2227 NEWBOLD AVE, BRONX, NY, 10462",80305633,"L"
363547,"2227 NOE BIXBY RD","COLUMBUS","OH",43232,39.9307809360001,-82.863051505,47,"2227 NOE BIXBY RD, COLUMBUS, OH, 43232","Match","Exact","2227 NOE BIXBY RD, COLUMBUS, OH, 43232",218645308,"R"
363548,"2227 OAK STREET","VIRGINIA BEACH","VA",23451,36.9104223360001,-76.06403116,48,"2227 OAK STREET, VIRGINIA BEACH, VA, 23451","Match","Exact","2227 OAK ST, VA BCH, VA, 23451",122295541,"L"
363549,"2227 OAKLAND WALK DRIVE","LAWRENCEVILLE","GA",30044,33.9450192140001,-84.064618729,49,"2227 OAKLAND WALK DRIVE, LAWRENCEVILLE, GA, 30044","Match","Exact","2227 OAKLAND WALK DR, LAWRENCEVILLE, GA, 30044",88938523,"R"
363550,"2227 PARSON ST","CHARLOTTE","NC",28205,35.2382399970001,-80.810857756,50,"2227 PARSON ST, CHARLOTTE, NC, 28205","Match","Exact","2227 PARSON ST, CHARLOTTE, NC, 28205",70580579,"L"
363551,"2227 PAYNE ST","EVANSTON","IL",60201,42.0568308900001,-87.703954585,51,"2227 PAYNE ST, EVANSTON, IL, 60201","Match","Exact","2227 PAYNE ST, EVANSTON, IL, 60201",605234929,"R"
363552,"2227 PAYNE STREET","EVANSTON","IL",60202,42.0568308900001,-87.703954585,52,"2227 PAYNE STREET, EVANSTON, IL, 60202","Match","Non_Exact","2227 PAYNE ST, EVANSTON, IL, 60201",605234929,"R"
363553,"2227 PICO LANE","MOUNT DORA","FL",32757,28.802171609,-81.6207173349999,53,"2227 PICO LANE, MOUNT DORA, FL, 32757","Match","Exact","2227 PICO LN, MOUNT DORA, FL, 32757",617494161,"L"
363554,"2227 PRAIRIE CENTER PKWY SUITE D","BRIGHTON","CO",80601,NA,NA,54,"2227 PRAIRIE CENTER PKWY SUITE D, BRIGHTON, CO, 80601","No_Match",NA,NA,NA,NA
363555,"2227 PRAIRIE CENTER PKWY","BRIGHTON","CO",80601,NA,NA,55,"2227 PRAIRIE CENTER PKWY, BRIGHTON, CO, 80601","No_Match",NA,NA,NA,NA
363556,"2227 RADCLIFFE DR","TROY","MI",48085,42.5938383490001,-83.105006842,56,"2227 RADCLIFFE DR, TROY, MI, 48085","Match","Exact","2227 RADCLIFFE DR, TROY, MI, 48085",69806839,"R"
363557,"2227 RIVER BASIN LANE","RALEIGH","NC",27610,35.8011893950001,-78.548536156,57,"2227 RIVER BASIN LANE, RALEIGH, NC, 27610","Match","Exact","2227 RIVER BASIN LN, RALEIGH, NC, 27610",612821475,"L"
363558,"2227 ROBINSON DRIVE","BELOIT","WI",53511,42.5329997520001,-89.0171979529999,58,"2227 ROBINSON DRIVE, BELOIT, WI, 53511","Match","Exact","2227 ROBINSON DR, BELOIT, WI, 53511",49857486,"R"
363559,"2227 S OHIO","SALINA","KS",67401,38.801766566,-97.5942640219999,59,"2227 S OHIO, SALINA, KS, 67401","Match","Non_Exact","2227 S OHIO ST, SALINA, KS, 67401",196686255,"R"
363560,"2227 S W PARK AVE CIR","BLUE SPRINGS","MO",64015,38.9819226870001,-94.2916428029999,60,"2227 S W PARK AVE CIR, BLUE SPRINGS, MO, 64015","Match","Exact","2227 SW PARK AVENUE CIR, BLUE SPRINGS, MO, 64015",91497617,"R"
363561,"2227 SE 20TH PLACE","CAPE CORAL","FL",33990,26.610917339,-81.9301313449999,61,"2227 SE 20TH PLACE, CAPE CORAL, FL, 33990","Match","Exact","2227 SE 20TH PL, CAPE CORAL, FL, 33990",118014725,"L"
363562,"2227 SEELY DRIVE","ORLANDO","FL",32808,28.5711585170001,-81.4659740389999,62,"2227 SEELY DRIVE, ORLANDO, FL, 32808","Match","Exact","2227 SEELY DR, ORLANDO, FL, 32808",94418561,"R"
363563,"2227 SHIMMERY LANE","LANTANA","FL",33462,26.5865527120001,-80.079864207,63,"2227 SHIMMERY LANE, LANTANA, FL, 33462","Match","Exact","2227 SHIMMERY LN, LANTANA, FL, 33462",625408908,"L"
363564,"2227 SUNSWEPT COURT","SUGARLAND","TX",77478,29.5958800270001,-95.612518313,64,"2227 SUNSWEPT COURT, SUGARLAND, TX, 77478","Match","Non_Exact","2227 SUNSWEPT CT, SUGAR LAND, TX, 77478",78330102,"R"
363565,"2227 TIDAL VIEW GARTH","ABINGDON","MD",21009,39.47359541,-76.3316560059999,65,"2227 TIDAL VIEW GARTH, ABINGDON, MD, 21009","Match","Exact","2227 TIDAL VIEW GARTH, ABINGDON, MD, 21009",191654607,"L"
363566,"2227 TYLER ROAD","CREWE","VA",23930,37.2008567840001,-78.1202402449999,66,"2227 TYLER ROAD, CREWE, VA, 23930","Match","Exact","2227 TYLER RD, CREWE, VA, 23930",54380261,"L"
363567,"2227 UNIVERSITY DRIVE","DURHAM","NC",27707,35.976410365,-78.9208621189999,67,"2227 UNIVERSITY DRIVE, DURHAM, NC, 27707","Match","Exact","2227 UNIVERSITY DR, DURHAM, NC, 27707",71740412,"L"
363568,"2227 US HWY 1 SUITE 204","NORTH BRUNSWICK","NJ",8902,NA,NA,68,"2227 US HWY 1 SUITE 204, NORTH BRUNSWICK, NJ, 8902","No_Match",NA,NA,NA,NA
363569,"2227 VINEMEAD CT","KATY","TX",77450,29.747847859,-95.722138462,69,"2227 VINEMEAD CT, KATY, TX, 77450","Match","Exact","2227 VINEMEAD CT, KATY, TX, 77450",96574714,"L"
363570,"2227 W HATFIELD ST","FAYETTEVILLE","AR",72703,36.0792938060001,-94.190621619,70,"2227 W HATFIELD ST, FAYETTEVILLE, AR, 72703","Match","Exact","2227 W HATFIELD ST, FAYETTEVILLE, AR, 72703",49044631,"L"
363571,"2227 W SHAW BUTTE DRIVE","PHOENIX","AZ",85029,33.5956842590001,-112.107145594,71,"2227 W SHAW BUTTE DRIVE, PHOENIX, AZ, 85029","Match","Exact","2227 W SHAW BUTTE DR, PHOENIX, AZ, 85029",128914431,"L"
363572,"2227 WALLACE ROAD","RICHMOND","IN",47374,39.9326271510001,-84.871353175,72,"2227 WALLACE ROAD, RICHMOND, IN, 47374","Match","Exact","2227 WALLACE RD, RICHMOND, IN, 47374",31335433,"L"
363573,"2227 WAVERLY DELL DRIVE","WINSTON SALEM","NC",27127,36.0362401720001,-80.2673172189999,73,"2227 WAVERLY DELL DRIVE, WINSTON SALEM, NC, 27127","Match","Non_Exact","2227 WAVERLY DELL DR SE, WINSTON SALEM, NC, 27127",627923827,"L"
363574,"2227 WEST 12TH STREET","DULUTH","MN",55806,46.7734973680001,-92.138719736,74,"2227 WEST 12TH STREET, DULUTH, MN, 55806","Match","Exact","2227 W 12TH ST, DULUTH, MN, 55806",163212964,"R"
363575,"2227 WEST 6TH COURT","HIALEAH","FL",33010,25.8420920410001,-80.294446593,75,"2227 WEST 6TH COURT, HIALEAH, FL, 33010","Match","Exact","2227 W 6TH CT, HIALEAH, FL, 33010",115958253,"R"
363576,"2227 WEST HOLMES ROAD","LANSING","MI",48911,42.697575611,-84.5824106699999,76,"2227 WEST HOLMES ROAD, LANSING, MI, 48911","Match","Exact","2227 W HOLMES RD, LANSING, MI, 48911",633511407,"L"
363577,"2227 WILLIAM T CIRCLE","LANCASTER","OH",43130,39.7496060670001,-82.583072379,77,"2227 WILLIAM T CIRCLE, LANCASTER, OH, 43130","Match","Exact","2227 WILLIAM T CIR, LANCASTER, OH, 43130",635873397,"L"
363578,"2227 WINTER BAY LANE","HOUSTON","TX",77088,29.8871176150001,-95.4392294309999,78,"2227 WINTER BAY LANE, HOUSTON, TX, 77088","Match","Exact","2227 WINTER BAY LN, HOUSTON, TX, 77088",96027403,"R"
363579,"2227 WOODS EDGE DR  NUMBER 5","BARTLETT","TN",38134,35.185610271,-89.872307884,79,"2227 WOODS EDGE DR  NUMBER 5, BARTLETT, TN, 38134","Match","Exact","2227 WOODS EDGE DR, BARTLETT, TN, 38134",72924452,"L"
363580,"2227 YATES SCHOOL ROAD","ASHLAND","IL",62612,39.8486783990001,-90.069382273,80,"2227 YATES SCHOOL ROAD, ASHLAND, IL, 62612","Match","Exact","2227 YATES SCHOOL RD, ASHLAND, IL, 62612",81441010,"L"
363581,"2227","SAN ANTONIO","TX",78222,NA,NA,81,"2227, SAN ANTONIO, TX, 78222","No_Match",NA,NA,NA,NA
363582,"22270 CYPRESS PL","SANTA CLARITA","CA",91390,34.471577172,-118.526035014,82,"22270 CYPRESS PL, SANTA CLARITA, CA, 91390","Match","Exact","22270 CYPRESS PL, SANTA CLARITA, CA, 91390",142823472,"R"
363583,"22270 ONTAGA","FARMINGTON HILLS","MI",48336,42.455495936,-83.3210378329999,83,"22270 ONTAGA, FARMINGTON HILLS, MI, 48336","Match","Non_Exact","22270 ONTAGA ST, FARMINGTON HILLS, MI, 48336",69777490,"R"
363584,"22270 SW 109TH AVE","MIAMI","FL",33170,25.560035355,-80.368117503,84,"22270 SW 109TH AVE, MIAMI, FL, 33170","Match","Exact","22270 SW 109TH AVE, MIAMI, FL, 33170",115995176,"R"
363585,"22270 WATERLAND DRIVE","NORTHVILLE","MI",48167,42.4475368880001,-83.551193269,85,"22270 WATERLAND DRIVE, NORTHVILLE, MI, 48167","Match","Exact","22270 WATERLAND DR, NORTHVILLE, MI, 48167",69824639,"R"
363586,"22271 NOMONI STREET","LEONARDTOWN","MD",20650,38.2791966290001,-76.704993799,86,"22271 NOMONI STREET, LEONARDTOWN, MD, 20650","Match","Exact","22271 NOMONI ST, LEONARDTOWN, MD, 20650",36606447,"L"
363587,"22271 US HWY 271","SPIRO","OK",74959,NA,NA,87,"22271 US HWY 271, SPIRO, OK, 74959","No_Match",NA,NA,NA,NA
363588,"22272 COUNTY ROAD 75 NW","BIG LAKE","MN",55309,45.3773889230001,-93.755103395,88,"22272 COUNTY ROAD 75 NW, BIG LAKE, MN, 55309","Match","Non_Exact","22272 CO RD 75, BIG LAKE, MN, 55309",97760967,"L"
363589,"22272 LOUPEE DR","CASSOPOLIS","MI",49031,NA,NA,89,"22272 LOUPEE DR, CASSOPOLIS, MI, 49031","No_Match",NA,NA,NA,NA
363590,"22272 OXFORD","DEARBORN","MI",48124,42.2917684970001,-83.254966579,90,"22272 OXFORD, DEARBORN, MI, 48124","Match","Non_Exact","22272 OXFORD ST, DEARBORN, MI, 48124",95433923,"R"
363591,"22272 ROYCE LANE","WAYNESVILLE","MO",65583,37.839615763,-92.2564955139999,91,"22272 ROYCE LANE, WAYNESVILLE, MO, 65583","Match","Exact","22272 ROYCE LN, WAYNESVILLE, MO, 65583",625277678,"R"
363592,"22273 DEL VALLE AVE","WOODLAND HILLS","CA",91364,34.1675152710001,-118.612013958,92,"22273 DEL VALLE AVE, WOODLAND HILLS, CA, 91364","Match","Non_Exact","22273 DEL VALLE ST, WOODLAND HILLS, CA, 91364",141534958,"R"
363593,"22274  183RD ST NW","BIG LAKE","MN",55309,45.3739986460001,-93.734111634,93,"22274  183RD ST NW, BIG LAKE, MN, 55309","Match","Exact","22274 183RD ST NW, BIG LAKE, MN, 55309",97767669,"L"
363594,"22275 N TRETHEWAY RD","ACAMPO","CA",95220,38.187218457,-121.179610931,94,"22275 N TRETHEWAY RD, ACAMPO, CA, 95220","Match","Exact","22275 TRETHEWAY RD, ACAMPO, CA, 95220",133862239,"L"
363595,"22276 E 151ST ST S","COWETA","OK",74429,35.9451533340001,-95.736098332,95,"22276 E 151ST ST S, COWETA, OK, 74429","Match","Exact","22276 E 151ST ST S, COWETA, OK, 74429",606223807,"L"
363596,"22276 PARNELL RD","SHAKER HEIGHTS","OH",44122,41.481529455,-81.522330053,96,"22276 PARNELL RD, SHAKER HEIGHTS, OH, 44122","Match","Exact","22276 PARNELL RD, SHAKER HEIGHTS, OH, 44122",61126096,"R"
363597,"22276 PARNELL ROAD","S","OH",44122,41.481529455,-81.522330053,97,"22276 PARNELL ROAD, S, OH, 44122","Match","Non_Exact","22276 PARNELL RD, BEACHWOOD, OH, 44122",61126096,"R"
363598,"22277 BRET LOOP","UNDERWOOD","IA",51576,41.3418063870001,-95.756843696,98,"22277 BRET LOOP, UNDERWOOD, IA, 51576","Match","Exact","22277 BRET LOOP, UNDERWOOD, IA, 51576",633368652,"R"
363599,"22277 DEL VALLE ST","WOODLAND HILLS","CA",91364,34.1675712160001,-118.612082035,99,"22277 DEL VALLE ST, WOODLAND HILLS, CA, 91364","Match","Exact","22277 DEL VALLE ST, WOODLAND HILLS, CA, 91364",141534958,"R"
363600,"22277 W12 MILE","SOUTHFIELD","MI",48034,NA,NA,100,"22277 W12 MILE, SOUTHFIELD, MI, 48034","No_Match",NA,NA,NA,NA
363601,"22278 CAPE COD WAY","FARMINGTON HILLS","MI",48336,NA,NA,101,"22278 CAPE COD WAY, FARMINGTON HILLS, MI, 48336","No_Match",NA,NA,NA,NA
363602,"22278 E ROUNDUP DRIVE","WALNUT","CA",91789,34.0370691890001,-117.828166536,102,"22278 E ROUNDUP DRIVE, WALNUT, CA, 91789","Match","Exact","22278 ROUNDUP DR, WALNUT, CA, 91789",647675162,"R"
363603,"22279 US HWY 271","SPIRO","OK",74959,NA,NA,103,"22279 US HWY 271, SPIRO, OK, 74959","No_Match",NA,NA,NA,NA
363604,"2228 109TH AVE SE","BELLEVUE","WA",98004,47.59035958,-122.194027064,104,"2228 109TH AVE SE, BELLEVUE, WA, 98004","Match","Exact","2228 109TH AVE SE, BELLEVUE, WA, 98004",186947490,"R"
363605,"2228 226TH PL NE","SAMMAMISH","WA",98074,47.6304121140001,-122.037515486,105,"2228 226TH PL NE, SAMMAMISH, WA, 98074","Match","Exact","2228 226TH PL NE, SAMMAMISH, WA, 98074",186617599,"L"
363606,"2228 2ND AVE N","IRONDALE","AL",35120,33.541476301,-86.705599723,106,"2228 2ND AVE N, IRONDALE, AL, 35120","Match","Non_Exact","2228 2ND AVE N, IRONDALE, AL, 35210",81587117,"L"
363607,"2228 ABBOTSFORD DR","VIENNA","VA",22181,38.9056967940001,-77.281270675,107,"2228 ABBOTSFORD DR, VIENNA, VA, 22181","Match","Exact","2228 ABBOTSFORD DR, VIENNA, VA, 22181",76020746,"R"
363608,"2228 ABBOTSFORD DRIVE","VIENNA","VA",22181,38.9056967940001,-77.281270675,108,"2228 ABBOTSFORD DRIVE, VIENNA, VA, 22181","Match","Exact","2228 ABBOTSFORD DR, VIENNA, VA, 22181",76020746,"R"
363609,"2228 AMERICANA DRIVE","ROSEVILLE","CA",95747,38.7545281710001,-121.317890718,109,"2228 AMERICANA DRIVE, ROSEVILLE, CA, 95747","Match","Exact","2228 AMERICANA DR, ROSEVILLE, CA, 95747",106782384,"L"
363610,"2228 B OAKWOOD LANE","FLORENCE","SC",29501,34.1929280350001,-79.813076719,110,"2228 B OAKWOOD LANE, FLORENCE, SC, 29501","Match","Exact","2228 OAKWOOD LN, FLORENCE, SC, 29501",28885061,"R"
363611,"2228 BERN AVE","GRANITE CITY","IL",62040,38.7377437920001,-90.1080962139999,111,"2228 BERN AVE, GRANITE CITY, IL, 62040","Match","Exact","2228 BERN AVE, GRANITE CITY, IL, 62040",107755696,"R"
363612,"2228 BLACKMAN STREET","MANSURA","LA",71350,31.0573121800001,-92.042203878,112,"2228 BLACKMAN STREET, MANSURA, LA, 71350","Match","Exact","2228 BLACKMAN ST, MANSURA, LA, 71350",13149175,"L"
363613,"2228 CAMBRIDGE DR","LAPLACE","LA",70068,30.08430134,-90.476371215,113,"2228 CAMBRIDGE DR, LAPLACE, LA, 70068","Match","Non_Exact","2228 CAMBRIDGE DR, LA PLACE, LA, 70068",93708863,"L"
363614,"2228 CEDARBROOK","SPRINGFIELD","MO",65804,NA,NA,114,"2228 CEDARBROOK, SPRINGFIELD, MO, 65804","No_Match",NA,NA,NA,NA
363615,"2228 CLOVERDALE AVE","BATON ROUGE","LA",70808,30.419614301,-91.1521251029999,115,"2228 CLOVERDALE AVE, BATON ROUGE, LA, 70808","Match","Exact","2228 CLOVERDALE AVE, BATON ROUGE, LA, 70808",92184692,"R"
363616,"2228 COLONY COURT","DALLAS","TX",75235,32.8335971610001,-96.858034549,116,"2228 COLONY COURT, DALLAS, TX, 75235","Match","Exact","2228 COLONY CT, DALLAS, TX, 75235",636119291,"R"
363617,"2228 COLONY RD","CHARLOTTE","NC",28209,35.1741812060001,-80.83520234,117,"2228 COLONY RD, CHARLOTTE, NC, 28209","Match","Exact","2228 COLONY RD, CHARLOTTE, NC, 28209",70489127,"R"
363618,"2228 COMSTOCK LANE","NAPERVILLE","IL",60564,41.7236507160001,-88.188069027,118,"2228 COMSTOCK LANE, NAPERVILLE, IL, 60564","Match","Exact","2228 COMSTOCK LN, NAPERVILLE, IL, 60564",620131922,"L"
363619,"2228 COTTONDALE LANE SUITE 200","LITTLE ROCK","AR",72202,34.760578331,-92.300148894,119,"2228 COTTONDALE LANE SUITE 200, LITTLE ROCK, AR, 72202","Match","Exact","2228 COTTONDALE LN, LITTLE ROCK, AR, 72202",641857092,"L"
363620,"2228 CULLEN RD","RICHMOND","VA",23224,37.487137155,-77.4772383709999,120,"2228 CULLEN RD, RICHMOND, VA, 23224","Match","Exact","2228 CULLEN RD, RICHMOND, VA, 23224",201538043,"R"
363621,"2228 DANUBE WAY","UPLAND","CA",91784,34.1437148890001,-117.665107564,121,"2228 DANUBE WAY, UPLAND, CA, 91784","Match","Exact","2228 DANUBE WAY, UPLAND, CA, 91784",144691777,"R"
363622,"2228 E 52ND PL","TULSA","OK",74105,36.086583278,-95.960346108,122,"2228 E 52ND PL, TULSA, OK, 74105","Match","Exact","2228 E 52ND PL, TULSA, OK, 74105",166444355,"R"
363623,"2228 E LA VIDA AVENUE","VISALIA","CA",93292,36.3025190600001,-119.268542401,123,"2228 E LA VIDA AVENUE, VISALIA, CA, 93292","Match","Exact","2228 E LA VIDA AVE, VISALIA, CA, 93292",607609100,"L"
363624,"2228 E OTTAWA LANE","PHOENIX","AZ",85024,33.6734750460001,-112.034687215,124,"2228 E OTTAWA LANE, PHOENIX, AZ, 85024","Match","Exact","2228 E OTTAWA LN, PHOENIX, AZ, 85024",646789456,"L"
363625,"2228 EAST 98TH AVE","THORNTON","CO",80229,39.874553624,-104.960672607,125,"2228 EAST 98TH AVE, THORNTON, CO, 80229","Match","Exact","2228 E 98TH AVE, THORNTON, CO, 80229",177422771,"L"
363626,"2228 EDELWEISS LOOP","TRINITY","FL",34655,28.191490806,-82.6488552229999,126,"2228 EDELWEISS LOOP, TRINITY, FL, 34655","Match","Exact","2228 EDELWEISS LOOP, TRINITY, FL, 34655",86401566,"L"
363627,"2228 ERIN WAY","BELAIR","MD",21015,39.4990364880001,-76.294760802,127,"2228 ERIN WAY, BELAIR, MD, 21015","Match","Non_Exact","2228 ERIN WAY, BEL AIR, MD, 21015",191655440,"L"
363628,"2228 FERNCLIFF AVE","ROYAL OAK","MI",48073,42.5077371560001,-83.168215001,128,"2228 FERNCLIFF AVE, ROYAL OAK, MI, 48073","Match","Exact","2228 FERNCLIFF AVE, ROYAL OAK, MI, 48073",69738443,"R"
363629,"2228 FORT PARK BLVD","LINCOLN PARK","MI",48146,42.247727766,-83.180316848,129,"2228 FORT PARK BLVD, LINCOLN PARK, MI, 48146","Match","Exact","2228 FORT PARK BLVD, LINCOLN PARK, MI, 48146",95449750,"R"
363630,"2228 FRENCH STREET","LIVERMORE","CA",94550,37.6730765350001,-121.728691055,130,"2228 FRENCH STREET, LIVERMORE, CA, 94550","Match","Exact","2228 FRENCH ST, LIVERMORE, CA, 94550",606299443,"L"
363631,"2228 GARLAND DRIVE","BIRMINGHAM","AL",35216,33.4351799190001,-86.779442864,131,"2228 GARLAND DRIVE, BIRMINGHAM, AL, 35216","Match","Exact","2228 GARLAND DR, BIRMINGHAM, AL, 35216",81584586,"L"
363632,"2228 GAYLORD DRIVE","SUITLAND","MD",20746,38.8608129570001,-76.930319329,132,"2228 GAYLORD DRIVE, SUITLAND, MD, 20746","Match","Exact","2228 GAYLORD DR, SUITLAND, MD, 20746",76312965,"L"
363633,"2228 GOLF CLUB LANE","COLUMBIA","TN",38401,35.5931490670001,-87.0709064059999,133,"2228 GOLF CLUB LANE, COLUMBIA, TN, 38401","Match","Exact","2228 GOLF CLUB LN, COLUMBIA, TN, 38401",26883882,"L"
363634,"2228 GOODING STREET","CONKLIN","MI",49403,43.1619672260001,-85.8453456299999,134,"2228 GOODING STREET, CONKLIN, MI, 49403","Match","Exact","2228 GOODING ST, CONKLIN, MI, 49403",638714977,"L"
363635,"2228 GREGG RD","BELLEVUE","NE",68123,41.1602438090001,-95.943668077,135,"2228 GREGG RD, BELLEVUE, NE, 68123","Match","Exact","2228 GREGG RD, BELLEVUE, NE, 68123",28499440,"L"
363636,"2228 GROVEMONT DRIVE","DULUTH","GA",30096,33.958128328,-84.1428536989999,136,"2228 GROVEMONT DRIVE, DULUTH, GA, 30096","Match","Exact","2228 GROVEMONT DR, DULUTH, GA, 30096",625138180,"R"
363637,"2228 HABORN DR","BELOIT","WI",53511,42.532574421,-89.046084493,137,"2228 HABORN DR, BELOIT, WI, 53511","Match","Exact","2228 HABORN DR, BELOIT, WI, 53511",638964232,"L"
363638,"2228 HIGHLAND CIRCLE","HARRISBURG","PA",17110,40.311623125,-76.856196832,138,"2228 HIGHLAND CIRCLE, HARRISBURG, PA, 17110","Match","Exact","2228 HIGHLAND CIR, HARRISBURG, PA, 17110",70839668,"R"
363639,"2228 HIKINO STREET","HONOLULU","HI",96821,21.2924802050001,-157.761031026,139,"2228 HIKINO STREET, HONOLULU, HI, 96821","Match","Exact","2228 HIKINO ST, HONOLULU, HI, 96821",203259100,"R"
363640,"2228 HUMBLE HOLLOW PL","NORTH LAS VEGAS","NV",89084,36.2889505750001,-115.174479187,140,"2228 HUMBLE HOLLOW PL, NORTH LAS VEGAS, NV, 89084","Match","Non_Exact","2228 W HUMBLE HOLLOW PL, N LAS VEGAS, NV, 89084",627613646,"R"
363641,"2228 JESSICA LANE","KISSIMMEE","FL",34744,28.2627189940001,-81.353359029,141,"2228 JESSICA LANE, KISSIMMEE, FL, 34744","Match","Exact","2228 JESSICA LN, KISSIMMEE, FL, 34744",176682640,"L"
363642,"2228 JOHNSTON WAY","WESTLAKE","OH",44145,NA,NA,142,"2228 JOHNSTON WAY, WESTLAKE, OH, 44145","No_Match",NA,NA,NA,NA
363643,"2228 KECKS ROAD","FOGLESVILLE","PA",18051,40.5838771570001,-75.6866849469999,143,"2228 KECKS ROAD, FOGLESVILLE, PA, 18051","Match","Non_Exact","2228 KECKS RD, FOGELSVILLE, PA, 18051",80827085,"L"
363644,"2228 LAKEWAY DRIVE","FRIENDSWOOD","TX",77546,29.4803940080001,-95.1995562659999,144,"2228 LAKEWAY DRIVE, FRIENDSWOOD, TX, 77546","Match","Exact","2228 LAKEWAY DR, FRIENDSWOOD, TX, 77546",641271779,"R"
363645,"2228 LESTERFIELD PLACE","NESBIT","MS",38651,34.892944819,-89.959861008,145,"2228 LESTERFIELD PLACE, NESBIT, MS, 38651","Match","Exact","2228 LESTERFIELD PL, NESBIT, MS, 38651",617660345,"L"
363646,"2228 LONGSPUR LN","LEAGUE CITY","TX",77573,29.4725469900001,-95.125105231,146,"2228 LONGSPUR LN, LEAGUE CITY, TX, 77573","Match","Exact","2228 LONGSPUR LN, LEAGUE CITY, TX, 77573",614185547,"L"
363647,"2228 LOOKOUT LN","DENTON","TX",76207,33.2374632720001,-97.1671781479999,147,"2228 LOOKOUT LN, DENTON, TX, 76207","Match","Exact","2228 LOOKOUT LN, DENTON, TX, 76207",103411315,"L"
363648,"2228 LUCKENBACH LN","IRVING","TX",75063,32.9233502170001,-96.974597438,148,"2228 LUCKENBACH LN, IRVING, TX, 75063","Match","Non_Exact","2228 LUCKENBACH, IRVING, TX, 75063",617054730,"L"
363649,"2228 MACDONALD LANE","FLOSSMOOR","IL",60422,41.5470301840001,-87.671213692,149,"2228 MACDONALD LANE, FLOSSMOOR, IL, 60422","Match","Exact","2228 MACDONALD LN, FLOSSMOOR, IL, 60422",111709831,"L"
363650,"2228 MAIDEN LANE","ALTADENA","CA",91001,34.1842112910001,-118.128599771,150,"2228 MAIDEN LANE, ALTADENA, CA, 91001","Match","Exact","2228 MAIDEN LN, ALTADENA, CA, 91001",141628404,"R"
363651,"2228 MALLARD LANDING DRIVE","FREDERICKSBURG","VA",22408,NA,NA,151,"2228 MALLARD LANDING DRIVE, FREDERICKSBURG, VA, 22408","No_Match",NA,NA,NA,NA
363652,"2228 MAYFAIR DR","ADA","OK",74820,NA,NA,152,"2228 MAYFAIR DR, ADA, OK, 74820","Tie",NA,NA,NA,NA
363653,"2228 MILLVILLE RD","CHESAPEAKE","VA",23323,36.729566306,-76.323039487,153,"2228 MILLVILLE RD, CHESAPEAKE, VA, 23323","Match","Exact","2228 MILLVILLE RD, CHESAPEAKE, VA, 23323",651963520,"R"
363654,"2228 MOUNT ROYAL TERRACE APT D","BALTIMORE","MD",21217,39.314936559,-76.628313197,154,"2228 MOUNT ROYAL TERRACE APT D, BALTIMORE, MD, 21217","Match","Exact","2228 MOUNT ROYAL TER, BALTIMORE, MD, 21217",206416775,"L"
363655,"2228 MOUNTAIN ROAD","ROCK SPRINGS","WY",82901,41.584853045,-109.256021218,155,"2228 MOUNTAIN ROAD, ROCK SPRINGS, WY, 82901","Match","Exact","2228 MOUNTAIN RD, ROCK SPRINGS, WY, 82901",618325221,"L"
363656,"2228 N MITRE AVENUE","FRESNO","CA",93722,36.7686841560001,-119.871918998,156,"2228 N MITRE AVENUE, FRESNO, CA, 93722","Match","Exact","2228 N MITRE AVE, FRESNO, CA, 93722",197615082,"R"
363657,"2228 N MOTICELLO","CHICAGO","IL",60647,NA,NA,157,"2228 N MOTICELLO, CHICAGO, IL, 60647","No_Match",NA,NA,NA,NA
363658,"2228 NAPLES DRIVE SOUTHWEST","DECATUR","AL",35603,34.5667026300001,-87.0264904639999,158,"2228 NAPLES DRIVE SOUTHWEST, DECATUR, AL, 35603","Match","Exact","2228 NAPLES DR SW, DECATUR, AL, 35603",645477303,"L"
363659,"2228 NE 112TH ST","KANSAS CITY","MO",64155,NA,NA,159,"2228 NE 112TH ST, KANSAS CITY, MO, 64155","No_Match",NA,NA,NA,NA
363660,"2228 NORTH MORSON STREET","SAGINAW","MI",48602,43.4382439720001,-83.9869007619999,160,"2228 NORTH MORSON STREET, SAGINAW, MI, 48602","Match","Exact","2228 N MORSON ST, SAGINAW, MI, 48602",80209328,"R"
363661,"2228 NORTH OWASSO AVENUE","TULSA","OK",74106,36.186328571,-95.976619154,161,"2228 NORTH OWASSO AVENUE, TULSA, OK, 74106","Match","Exact","2228 N OWASSO AVE, TULSA, OK, 74106",166437012,"L"
363662,"2228 PARKVIEW PL","SOUTH BEND","IN",46616,41.7073050380001,-86.270433488,162,"2228 PARKVIEW PL, SOUTH BEND, IN, 46616","Match","Exact","2228 PARKVIEW PL, SOUTH BEND, IN, 46616",8053470,"R"
363663,"2228 PEMBROKE LN","CHESTER SPRINGS","PA",19425,40.084191306,-75.671768845,163,"2228 PEMBROKE LN, CHESTER SPRINGS, PA, 19425","Match","Non_Exact","2228 PEMBROKE, CHESTER SPRINGS, PA, 19425",617733733,"R"
363664,"2228 PHYLLIS STREET","LA CRESCENTA","CA",91214,34.24097621,-118.225175804,164,"2228 PHYLLIS STREET, LA CRESCENTA, CA, 91214","Match","Exact","2228 PHYLLIS ST, LA CRESCENTA, CA, 91214",141589709,"L"
363665,"2228 PINE PARK TRAIL APT 2612","ORLANDO","FL",32817,28.5773164710001,-81.238968853,165,"2228 PINE PARK TRAIL APT 2612, ORLANDO, FL, 32817","Match","Exact","2228 PINE PARK TRL, ORLANDO, FL, 32817",647481168,"R"
363666,"2228 PODTBURG CIRCLE","JOHNSTOWN","CO",80534,40.338516487,-104.934634894,166,"2228 PODTBURG CIRCLE, JOHNSTOWN, CO, 80534","Match","Exact","2228 PODTBURG CIR, JOHNSTOWN, CO, 80534",188732956,"R"
363667,"2228 PONDBROOK DR","HILLSDALE","MI",49242,41.9283477370001,-84.687007872,167,"2228 PONDBROOK DR, HILLSDALE, MI, 49242","Match","Exact","2228 PONDBROOK DR, HILLSDALE, MI, 49242",8281363,"R"
363668,"2228 PONDBROOKE DR","HILLSDALE","MI",49242,41.9283477370001,-84.687007872,168,"2228 PONDBROOKE DR, HILLSDALE, MI, 49242","Match","Non_Exact","2228 PONDBROOK DR, HILLSDALE, MI, 49242",8281363,"R"
363669,"2228 QUAIL BLUFF LANE","SAN JOSE","CA",95121,37.298380084,-121.788002706,169,"2228 QUAIL BLUFF LANE, SAN JOSE, CA, 95121","Match","Exact","2228 QUAIL BLUFF LN, SAN JOSE, CA, 95121",123171433,"L"
363670,"2228 REVERE STREET","NORTH LAS VEGAS","NV",89030,36.2005078180001,-115.151794992,170,"2228 REVERE STREET, NORTH LAS VEGAS, NV, 89030","Match","Exact","2228 REVERE ST, N LAS VEGAS, NV, 89030",201864035,"R"
363671,"2228 ROBINWOOD AVENUE","TOLEDO","OH",43620,41.6645827740001,-83.5605884989999,171,"2228 ROBINWOOD AVENUE, TOLEDO, OH, 43620","Match","Exact","2228 ROBINWOOD AVE, TOLEDO, OH, 43620",33938491,"R"
363672,"2228 S 137TH E AVE APT D","TULSA","OK",74134,36.1314316040001,-95.823427543,172,"2228 S 137TH E AVE APT D, TULSA, OK, 74134","Match","Non_Exact","2228 S 137TH EAST AVE, TULSA, OK, 74134",166457145,"R"
363673,"2228 S 17TH STREET","PHILADELPHIA","PA",19145,39.923355342,-75.174880923,173,"2228 S 17TH STREET, PHILADELPHIA, PA, 19145","Match","Exact","2228 S 17TH ST, PHILADELPHIA, PA, 19145",131411275,"R"
363674,"2228 S DELAWARE AVE","SPRINGFIELD","MO",65804,37.1732391460001,-93.2676140089999,174,"2228 S DELAWARE AVE, SPRINGFIELD, MO, 65804","Match","Exact","2228 S DELAWARE AVE, SPRINGFIELD, MO, 65804",76679145,"L"
363675,"2228 S TELLURIDE CT","AURORA","CO",80013,39.6759397450001,-104.779715087,175,"2228 S TELLURIDE CT, AURORA, CO, 80013","Match","Exact","2228 S TELLURIDE CT, AURORA, CO, 80013",177358300,"L"
363676,"2228 SAINT LOUIS AVENUE","SAINT LOUIS","MO",63106,38.6518486250001,-90.205867282,176,"2228 SAINT LOUIS AVENUE, SAINT LOUIS, MO, 63106","Match","Exact","2228 SAINT LOUIS AVE, SAINT LOUIS, MO, 63106",107604216,"L"
363677,"2228 SANTA ANITA DRIVE","LEXINGTON","KY",40516,38.068534345,-84.4425635109999,177,"2228 SANTA ANITA DRIVE, LEXINGTON, KY, 40516","Match","Exact","2228 SANTA ANITA DR, LEXINGTON, KY, 40516",31937683,"R"
363678,"2228 SE DECADER CT","HILLSBORO",NA,NA,NA,NA,178,"2228 SE DECADER CT, HILLSBORO, , ","No_Match",NA,NA,NA,NA
363679,"2228 SE DECADER CT","HILLSBORO","OR",97123,NA,NA,179,"2228 SE DECADER CT, HILLSBORO, OR, 97123","No_Match",NA,NA,NA,NA
363680,"2228 SOUTHERLAND AVE","DALLAS","TX",75203,32.727570498,-96.7892210209999,180,"2228 SOUTHERLAND AVE, DALLAS, TX, 75203","Match","Exact","2228 SOUTHERLAND AVE, DALLAS, TX, 75203",102976941,"R"
363681,"2228 SW BRINK AVE","TROUTDALE","OR",97060,45.5257267470001,-122.409277625,181,"2228 SW BRINK AVE, TROUTDALE, OR, 97060","Match","Exact","2228 SW BRINK AVE, TROUTDALE, OR, 97060",157529600,"L"
363682,"2228 THRELKEL FERRY RD","BOWLING GREEN","KY",42101,37.1311253800001,-86.478756773,182,"2228 THRELKEL FERRY RD, BOWLING GREEN, KY, 42101","Match","Exact","2228 THRELKEL FERRY RD, BOWLING GREEN, KY, 42101",636632634,"R"
363683,"2228 TITANIUM DR","CRESTVIEW","FL",32536,30.7238236430001,-86.611043856,183,"2228 TITANIUM DR, CRESTVIEW, FL, 32536","Match","Exact","2228 TITANIUM DR, CRESTVIEW, FL, 32536",74419750,"L"
363684,"2228 VALLEY LAKE","EL CAJON","CA",92020,32.8188529180001,-116.995106733,184,"2228 VALLEY LAKE, EL CAJON, CA, 92020","Match","Non_Exact","2228 VALLEY LAKE DR, EL CAJON, CA, 92020",195325206,"R"
363685,"2228 W 110TH ST","CHICAGO","IL",60643,41.6940472200001,-87.677215319,185,"2228 W 110TH ST, CHICAGO, IL, 60643","Match","Exact","2228 W 110TH ST, CHICAGO, IL, 60643",111823222,"R"
363686,"2228 W 40TH ST UP","CLEVELAND","OH",44113,NA,NA,186,"2228 W 40TH ST UP, CLEVELAND, OH, 44113","No_Match",NA,NA,NA,NA
363687,"2228 W WALTON","CHICAGO","IL",60622,41.898550093,-87.6828171779999,187,"2228 W WALTON, CHICAGO, IL, 60622","Match","Non_Exact","2228 W WALTON ST, CHICAGO, IL, 60622",111763759,"R"
363688,"2228","LA CRESCENTA","CA",91214,NA,NA,188,"2228, LA CRESCENTA, CA, 91214","No_Match",NA,NA,NA,NA
363689,"22280 CITY CENTER DR APT 4315","HAYWARD","CA",94541,37.6803623500001,-122.082255866,189,"22280 CITY CENTER DR APT 4315, HAYWARD, CA, 94541","Match","Exact","22280 CITY CENTER DR, HAYWARD, CA, 94541",125083773,"R"
363690,"22280 IMAN STREET NW","NOWTHEN","MN",55330,45.3748217610001,-93.5071460409999,190,"22280 IMAN STREET NW, NOWTHEN, MN, 55330","Match","Exact","22280 IMAN ST NW, NOWTHEN, MN, 55330",617527541,"R"
363691,"22280 SOUTH 209TH WAY APT221","QUEEN CREEK","AZ",85142,33.245246778,-111.630798052,191,"22280 SOUTH 209TH WAY APT221, QUEEN CREEK, AZ, 85142","Match","Exact","22280 S 209TH WAY, QUEEN CREEK, AZ, 85142",617916784,"L"
363692,"22280 TWYCKINGHAM WAY","SOUTHFIELD","MI",48034,42.495946514,-83.26516118,192,"22280 TWYCKINGHAM WAY, SOUTHFIELD, MI, 48034","Match","Exact","22280 TWYCKINGHAM WAY, SOUTHFIELD, MI, 48034",69730374,"R"
363693,"22280 WATERS DR","CRESTLINE","CA",92325,NA,NA,193,"22280 WATERS DR, CRESTLINE, CA, 92325","No_Match",NA,NA,NA,NA
363694,"22280 YORKE RD","MORENO VALLEY","CA",92553,33.9322186470001,-117.273351331,194,"22280 YORKE RD, MORENO VALLEY, CA, 92553","Match","Exact","22280 YORKE RD, MORENO VALLEY, CA, 92553",625270494,"L"
363695,"22281 BOGIE ST","TEHACHAPI","CA",93561,35.143143245,-118.490324,195,"22281 BOGIE ST, TEHACHAPI, CA, 93561","Match","Exact","22281 BOGIE ST, TEHACHAPI, CA, 93561",108982939,"L"
363696,"22281 LAKE FRANCIS RD","ELYSIAN","MN",56028,44.224976177,-93.706573914,196,"22281 LAKE FRANCIS RD, ELYSIAN, MN, 56028","Match","Exact","22281 LAKE FRANCIS RD, ELYSIAN, MN, 56028",28656923,"R"
363697,"22281 PEOLA RD","CLARKSTON","WA",99403,46.338551776,-117.275951342,197,"22281 PEOLA RD, CLARKSTON, WA, 99403","Match","Exact","22281 PEOLA RD, CLARKSTON, WA, 99403",607261046,"R"
363698,"22283 OATMAN RD","ECKERT","CO",81418,38.8572348170001,-107.947107186,198,"22283 OATMAN RD, ECKERT, CO, 81418","Match","Exact","22283 OATMAN RD, ECKERT, CO, 81418",649366755,"L"
363699,"22285 ERWIN ST","WOODLAND HILLS","CA",91367,34.18283648,-118.61250237,199,"22285 ERWIN ST, WOODLAND HILLS, CA, 91367","Match","Exact","22285 ERWIN ST, WOODLAND HILLS, CA, 91367",142668574,"R"
363700,"22285 WAVECREST AVE NE","POULSBO","WA",98370,47.7640338960001,-122.546277561,200,"22285 WAVECREST AVE NE, POULSBO, WA, 98370","Match","Exact","22285 WAVECREST AVE NE, POULSBO, WA, 98370",187634210,"R"
363701,"22285 YELLOW GATE LANE","AURORA","OR",97002,NA,NA,201,"22285 YELLOW GATE LANE, AURORA, OR, 97002","No_Match",NA,NA,NA,NA
363702,"22286 VERMILLION ST","EAST BETHEL","MN",55011,45.3738115850001,-93.2085913939999,202,"22286 VERMILLION ST, EAST BETHEL, MN, 55011","Match","Non_Exact","22286 VERMILLION ST NE, EAST BETHEL, MN, 55011",97518053,"L"
363703,"22287 KITTYHAWK AVENUE","CARROLL","IA",51401,42.031585459,-94.8980969519999,203,"22287 KITTYHAWK AVENUE, CARROLL, IA, 51401","Match","Exact","22287 KITTYHAWK AVE, CARROLL, IA, 51401",68635354,"L"
363704,"22287 MULHOLLAND HIGHWAY STE 265","CALABASAS","CA",91302,34.1465210370001,-118.612365854,204,"22287 MULHOLLAND HIGHWAY STE 265, CALABASAS, CA, 91302","Match","Exact","22287 MULHOLLAND HWY, CALABASAS, CA, 91302",640850863,"R"
363705,"22287 MULHOLLAND HIGHWAY","CALABASAS","CA",91302,34.1465210370001,-118.612365854,205,"22287 MULHOLLAND HIGHWAY, CALABASAS, CA, 91302","Match","Exact","22287 MULHOLLAND HWY, CALABASAS, CA, 91302",640850863,"R"
363706,"22287 MULHOLLAND HWY - NO 385","CALABASAS","CA",91302,34.1465210370001,-118.612365854,206,"22287 MULHOLLAND HWY - NO 385, CALABASAS, CA, 91302","Match","Exact","22287 MULHOLLAND HWY, CALABASAS, CA, 91302",640850863,"R"
363707,"22287 MULHOLLAND HWY 178","CALABASAS","CA",91302,34.1465210370001,-118.612365854,207,"22287 MULHOLLAND HWY 178, CALABASAS, CA, 91302","Match","Exact","22287 MULHOLLAND HWY, CALABASAS, CA, 91302",640850863,"R"
363708,"22287 MULHOLLAND HWY 284","CALABASAS","CA",91302,34.1465210370001,-118.612365854,208,"22287 MULHOLLAND HWY 284, CALABASAS, CA, 91302","Match","Exact","22287 MULHOLLAND HWY, CALABASAS, CA, 91302",640850863,"R"
363709,"22287 MULHOLLAND HWY 401","CALABASAS","CA",91302,34.1465210370001,-118.612365854,209,"22287 MULHOLLAND HWY 401, CALABASAS, CA, 91302","Match","Exact","22287 MULHOLLAND HWY, CALABASAS, CA, 91302",640850863,"R"
363710,"22287 MULHOLLAND HWY 640","CALABASAS","CA",91302,34.1465210370001,-118.612365854,210,"22287 MULHOLLAND HWY 640, CALABASAS, CA, 91302","Match","Exact","22287 MULHOLLAND HWY, CALABASAS, CA, 91302",640850863,"R"
363711,"22287 MULHOLLAND HWY STE 360","CALABASAS","CA",91302,34.1465210370001,-118.612365854,211,"22287 MULHOLLAND HWY STE 360, CALABASAS, CA, 91302","Match","Exact","22287 MULHOLLAND HWY, CALABASAS, CA, 91302",640850863,"R"
363712,"22287 MULHOLLAND HWY UNIT 567","CALABASAS","CA",91302,34.1465210370001,-118.612365854,212,"22287 MULHOLLAND HWY UNIT 567, CALABASAS, CA, 91302","Match","Exact","22287 MULHOLLAND HWY, CALABASAS, CA, 91302",640850863,"R"
363713,"22287 MULHOLLAND HWY","CALABASAS","CA",91302,34.1465210370001,-118.612365854,213,"22287 MULHOLLAND HWY, CALABASAS, CA, 91302","Match","Exact","22287 MULHOLLAND HWY, CALABASAS, CA, 91302",640850863,"R"
363714,"22287 MULLHOLLAND HWY STE 315","CALABASAS","CA",91302,34.1465210370001,-118.612365854,214,"22287 MULLHOLLAND HWY STE 315, CALABASAS, CA, 91302","Match","Non_Exact","22287 MULHOLLAND HWY, CALABASAS, CA, 91302",640850863,"R"
363715,"22287 SW RIVER SPRING RD","LEE'S SUMMIT","MO",64082,NA,NA,215,"22287 SW RIVER SPRING RD, LEE'S SUMMIT, MO, 64082","No_Match",NA,NA,NA,NA
363716,"22288 E DOMINGO RD","QUEEN CREEK","AZ",85142,33.2498915130001,-111.601977533,216,"22288 E DOMINGO RD, QUEEN CREEK, AZ, 85142","Match","Exact","22288 E DOMINGO RD, QUEEN CREEK, AZ, 85142",640920721,"R"
363717,"22288 PEBBLEBROOK LANE","PARKER","CO",80138,39.510117155,-104.728599282,217,"22288 PEBBLEBROOK LANE, PARKER, CO, 80138","Match","Non_Exact","22288 PEBBLE BROOK LN, PARKER, CO, 80138",130840091,"L"
363718,"22288 SW 99TH AVENUE","CUTLER BAY","FL",33190,25.560681232,-80.3514074409999,218,"22288 SW 99TH AVENUE, CUTLER BAY, FL, 33190","Match","Exact","22288 SW 99TH AVE, CUTLER BAY, FL, 33190",116257822,"L"
363719,"2228A JAY ST","ARCATA","CA",95521,40.8801249310001,-124.084510742,219,"2228A JAY ST, ARCATA, CA, 95521","Match","Exact","2228 JAY ST, ARCATA, CA, 95521",112987227,"R"
363720,"2228B HIGHWAY 25","COTTONTOWN","TN",37048,36.449835079,-86.534835609,220,"2228B HIGHWAY 25, COTTONTOWN, TN, 37048","Match","Non_Exact","2228 STATE RTE 25, COTTONTOWN, TN, 37048",29782379,"R"
363721,"2228H MARBLE VALLEY BASIN RD","ADDY","WA",99101,48.411018664,-117.958583653,221,"2228H MARBLE VALLEY BASIN RD, ADDY, WA, 99101","Match","Exact","2228 MARBLE VALLEY BASIN RD, ADDY, WA, 99101",174824679,"R"
363722,"2229 10TH STREET","LAKE CHARLES","LA",70601,30.215482625,-93.187776076,222,"2229 10TH STREET, LAKE CHARLES, LA, 70601","Match","Exact","2229 10TH ST, LAKE CHARLES, LA, 70601",88436948,"L"
363723,"2229 137TH PL SE","BELLEVUE","WA",98005,47.590512645,-122.155935639,223,"2229 137TH PL SE, BELLEVUE, WA, 98005","Match","Exact","2229 137TH PL SE, BELLEVUE, WA, 98005",186613432,"R"
363724,"2229 137TH PLACE SE","BELLEVUE","WA",98005,47.590512645,-122.155935639,224,"2229 137TH PLACE SE, BELLEVUE, WA, 98005","Match","Exact","2229 137TH PL SE, BELLEVUE, WA, 98005",186613432,"R"
363725,"2229 14TH STREET SE","WASHINGTON","DC",20020,38.8633709060001,-76.986133878,225,"2229 14TH STREET SE, WASHINGTON, DC, 20020","Match","Exact","2229 14TH ST SE, WASHINGTON, DC, 20020",639373986,"R"
363726,"2229 22ND AVE E","SEATTLE","WA",98112,47.6387128310001,-122.303957923,226,"2229 22ND AVE E, SEATTLE, WA, 98112","Match","Exact","2229 22ND AVE E, SEATTLE, WA, 98112",186587714,"L"
363727,"2229 42ND AVE SW","SEATTLE","WA",98116,47.5836587420001,-122.385070252,227,"2229 42ND AVE SW, SEATTLE, WA, 98116","Match","Exact","2229 42ND AVE SW, SEATTLE, WA, 98116",186660831,"R"
363728,"2229 8TH ST","CUYAHOGA FALLS","OH",44221,41.137284687,-81.4932109969999,228,"2229 8TH ST, CUYAHOGA FALLS, OH, 44221","Match","Exact","2229 8TH ST, CUYAHOGA FALLS, OH, 44221",61348120,"R"
363729,"2229 AFTON GROVE ROAD","KENBRIDGE","VA",23944,36.907239121,-78.098368438,229,"2229 AFTON GROVE ROAD, KENBRIDGE, VA, 23944","Match","Exact","2229 AFTON GROVE RD, KENBRIDGE, VA, 23944",651722691,"L"
363730,"2229 ALLEN CREEK ROAD","WEST PALM BEACH","FL",33411,26.71210324,-80.157531692,230,"2229 ALLEN CREEK ROAD, WEST PALM BEACH, FL, 33411","Match","Exact","2229 ALLEN CREEK RD, WEST PALM BEACH, FL, 33411",115345884,"R"
363731,"2229 ARMADA WAY","SAN MATEO","CA",94404,37.5620242370001,-122.289366307,231,"2229 ARMADA WAY, SAN MATEO, CA, 94404","Match","Exact","2229 ARMADA WAY, SAN MATEO, CA, 94404",192380217,"L"
363732,"2229 AVENIDA PLATARA","SAN CLEMENTE","CA",92673,NA,NA,232,"2229 AVENIDA PLATARA, SAN CLEMENTE, CA, 92673","No_Match",NA,NA,NA,NA
363733,"2229 AVONDALE DRIVE","ALHAMBRA","CA",91803,34.0672221410001,-118.157144351,233,"2229 AVONDALE DRIVE, ALHAMBRA, CA, 91803","Match","Exact","2229 AVONDALE DR, ALHAMBRA, CA, 91803",141635957,"R"
363734,"2229 BARBER CREEK RD","BERNICE","LA",71222,NA,NA,234,"2229 BARBER CREEK RD, BERNICE, LA, 71222","Tie",NA,NA,NA,NA
363735,"2229 BETH RD 712","HASLET","TX",76052,32.9654259530001,-97.408201983,235,"2229 BETH RD 712, HASLET, TX, 76052","Match","Exact","2229 BETH RD, HASLET, TX, 76052",651890678,"L"
363736,"2229 BLAKE ST APT 508","DENVER","CO",80205,39.756469811,-104.991529706,236,"2229 BLAKE ST APT 508, DENVER, CO, 80205","Match","Exact","2229 BLAKE ST, DENVER, CO, 80205",177303946,"L"
363737,"2229 BRIANA DRIVE","BRANDON","FL",33511,27.91106282,-82.286409389,237,"2229 BRIANA DRIVE, BRANDON, FL, 33511","Match","Exact","2229 BRIANA DR, BRANDON, FL, 33511",104586097,"R"
363738,"2229 BROOHAVEN PASS","VISTA","CA",92081,33.1461507110001,-117.243069201,238,"2229 BROOHAVEN PASS, VISTA, CA, 92081","Match","Non_Exact","2229 BROOKHAVEN PASS, VISTA, CA, 92081",195431222,"R"
363739,"2229 CHAMPIONS CORNER DR","LEANDER","TX",78641,30.539643115,-97.8730087009999,239,"2229 CHAMPIONS CORNER DR, LEANDER, TX, 78641","Match","Exact","2229 CHAMPIONS CORNER DR, LEANDER, TX, 78641",641745924,"L"
363740,"2229 CHARLES ST N","ST PAUL","MN",55109,45.00881559,-92.9897987319999,240,"2229 CHARLES ST N, ST PAUL, MN, 55109","Match","Non_Exact","2229 CHARLES ST, SAINT PAUL, MN, 55109",97652901,"L"
363741,"2229 CHARLES STREET NORTH","SAINT PAUL","MN",55109,45.00881559,-92.9897987319999,241,"2229 CHARLES STREET NORTH, SAINT PAUL, MN, 55109","Match","Non_Exact","2229 CHARLES ST, SAINT PAUL, MN, 55109",97652901,"L"
363742,"2229 CHERRY ST","WOODWARD","OK",73801,36.4303477400001,-99.408156221,242,"2229 CHERRY ST, WOODWARD, OK, 73801","Match","Non_Exact","2229 CHERRY AVE, WOODWARD, OK, 73801",198725330,"L"
363743,"2229 CLEVELAND AVE","LOUISVILLE","KY",40212,38.265063743,-85.78515163,243,"2229 CLEVELAND AVE, LOUISVILLE, KY, 40212","Match","Exact","2229 CLEVELAND AVE, LOUISVILLE, KY, 40212",96841577,"R"
363744,"2229 COSTELLO STREET","ANDERSON","IN",46011,40.093777178,-85.723717569,244,"2229 COSTELLO STREET, ANDERSON, IN, 46011","Match","Exact","2229 COSTELLO ST, ANDERSON, IN, 46011",31111391,"R"
363745,"2229 CRESTON AVE APT 9","BRONX","GA",10453,NA,NA,245,"2229 CRESTON AVE APT 9, BRONX, GA, 10453","No_Match",NA,NA,NA,NA
363746,"2229 DALE VIEW DR","ANTIOCH","TN",37013,36.0487077080001,-86.6419324619999,246,"2229 DALE VIEW DR, ANTIOCH, TN, 37013","Match","Exact","2229 DALE VIEW DR, ANTIOCH, TN, 37013",627386038,"R"
363747,"2229 DAVENPORT AVE","BATON ROUGE","LA",70807,30.557633637,-91.17003271,247,"2229 DAVENPORT AVE, BATON ROUGE, LA, 70807","Match","Exact","2229 DAVENPORT AVE, BATON ROUGE, LA, 70807",92196961,"L"
363748,"2229 DEVERON DR","LOUISVILLE","KY",40216,38.1994429210001,-85.8190599009999,248,"2229 DEVERON DR, LOUISVILLE, KY, 40216","Match","Exact","2229 DEVERON DR, LOUISVILLE, KY, 40216",96837116,"R"
363749,"2229 DRAKESTONE","COLORADO SPRINGS","CO",80909,38.8638675440001,-104.774485205,249,"2229 DRAKESTONE, COLORADO SPRINGS, CO, 80909","Match","Non_Exact","2229 DRAKESTONE DR, COLORADO SPRINGS, CO, 80909",105516299,"R"
363750,"2229 DUNGIVEN CT","GARNER","NC",27529,35.6772497010001,-78.6423257439999,250,"2229 DUNGIVEN CT, GARNER, NC, 27529","Match","Exact","2229 DUNGIVEN CT, GARNER, NC, 27529",72562144,"L"
363751,"2229 E 128TH AVE","THORNTON","CO",80241,39.928488353,-104.9599828,251,"2229 E 128TH AVE, THORNTON, CO, 80241","Match","Exact","2229 E 128TH AVE, THORNTON, CO, 80241",633246026,"L"
363752,"2229 E 35TH STREET","LORAIN","OH",44055,41.4389324310001,-82.119032567,252,"2229 E 35TH STREET, LORAIN, OH, 44055","Match","Exact","2229 E 35TH ST, LORAIN, OH, 44055",55408062,"L"
363753,"2229 E 70TH PLACE","CHICAGO","IL",60649,41.767113313,-87.570898265,253,"2229 E 70TH PLACE, CHICAGO, IL, 60649","Match","Exact","2229 E 70TH PL, CHICAGO, IL, 60649",111775561,"R"
363754,"2229 E GARVEY AVE N","WEST COVINA","CA",91791,34.072655275,-117.898145828,254,"2229 E GARVEY AVE N, WEST COVINA, CA, 91791","Match","Exact","2229 E GARVEY AVE N, WEST COVINA, CA, 91791",241245739,"L"
363755,"2229 E MONTECITO AVE","PHOENIX","AZ",85050,33.49914334,-112.033687006,255,"2229 E MONTECITO AVE, PHOENIX, AZ, 85050","Match","Non_Exact","2229 E MONTECITO AVE, PHOENIX, AZ, 85016",128209878,"R"
363756,"2229 EAST EDNA","WILLIAMS","AZ",86046,NA,NA,256,"2229 EAST EDNA, WILLIAMS, AZ, 86046","No_Match",NA,NA,NA,NA
363757,"2229 EAST WINDBROOK RD","KNOXVILLE","TN",37923,35.9561535490001,-84.0609912529999,257,"2229 EAST WINDBROOK RD, KNOXVILLE, TN, 37923","Match","Exact","2229 E WINDBROOK RD, KNOXVILLE, TN, 37923",42630351,"L"
363758,"2229 EDGEMERE AVE","FAR ROCKAWAY","NY",11691,NA,NA,258,"2229 EDGEMERE AVE, FAR ROCKAWAY, NY, 11691","No_Match",NA,NA,NA,NA
363759,"2229 EDGEMERE AVENUE","FAR ROCKAWAY","NY",11691,NA,NA,259,"2229 EDGEMERE AVENUE, FAR ROCKAWAY, NY, 11691","No_Match",NA,NA,NA,NA
363760,"2229 EVERGREEN STREET","UNION CITY","TN",38261,36.41420408,-89.019874547,260,"2229 EVERGREEN STREET, UNION CITY, TN, 38261","Match","Exact","2229 EVERGREEN ST, UNION CITY, TN, 38261",30895452,"R"
363761,"2229 FAIRWAY CIRCLE NE","BROOKHAVEN","GA",30319,33.849454619,-84.337509653,261,"2229 FAIRWAY CIRCLE NE, BROOKHAVEN, GA, 30319","Match","Exact","2229 FAIRWAY CIR NE, BROOKHAVEN, GA, 30319",23358089,"R"
363762,"2229 FLASH CT","PERRIS","CA",92571,33.813169686,-117.219435975,262,"2229 FLASH CT, PERRIS, CA, 92571","Match","Exact","2229 FLASH CT, PERRIS, CA, 92571",195083041,"R"
363763,"2229 GATES DR","TALLAHASSEE","FL",32312,30.588383747,-84.2361512159999,263,"2229 GATES DR, TALLAHASSEE, FL, 32312","Match","Exact","2229 GATES DR, TALLAHASSEE, FL, 32312",82880382,"R"
363764,"2229 GATES DRIVE","TALLAHASSEE","FL",32312,30.588383747,-84.2361512159999,264,"2229 GATES DRIVE, TALLAHASSEE, FL, 32312","Match","Exact","2229 GATES DR, TALLAHASSEE, FL, 32312",82880382,"R"
363765,"2229 GLENALLAN AVENUE 202","SILVER SPRING","MD",20906,39.0620265680001,-77.046963993,265,"2229 GLENALLAN AVENUE 202, SILVER SPRING, MD, 20906","Match","Exact","2229 GLENALLAN AVE, SILVER SPRING, MD, 20906",638134039,"R"
363766,"2229 GREENWOOD","CEDAR FALLS","IA",50613,42.5224409850001,-92.419946108,266,"2229 GREENWOOD, CEDAR FALLS, IA, 50613","Match","Non_Exact","2229 GREENWOOD AVE, CEDAR FALLS, IA, 50613",77249169,"R"
363767,"2229 HARRIS AVE","RICHLAND","WA",99354,46.312358622,-119.263039519,267,"2229 HARRIS AVE, RICHLAND, WA, 99354","Match","Exact","2229 HARRIS AVE, RICHLAND, WA, 99354",174987289,"L"
363768,"2229 HOGAN COURT NORTH","BETTENDORF","IA",52722,41.547549342,-90.4855942139999,268,"2229 HOGAN COURT NORTH, BETTENDORF, IA, 52722","Match","Exact","2229 HOGAN CT N, BETTENDORF, IA, 52722",122718239,"R"
363769,"2229 INEZ LANE","NORMAL","IL",61761,40.549021397,-88.949027972,269,"2229 INEZ LANE, NORMAL, IL, 61761","Match","Exact","2229 INEZ LN, NORMAL, IL, 61761",20572486,"L"
363770,"2229 KAITLINS CT","ELLICOTT CITY","MD",21043,39.3123860850001,-76.796523313,270,"2229 KAITLINS CT, ELLICOTT CITY, MD, 21043","Match","Exact","2229 KAITLINS CT, ELLICOTT CITY, MD, 21043",619034047,"L"
363771,"2229 KENWOOD DRIVVE","LEXINGTON","KY",40509,38.0273626860001,-84.44197394,271,"2229 KENWOOD DRIVVE, LEXINGTON, KY, 40509","Match","Non_Exact","2229 KENWOOD DR, LEXINGTON, KY, 40509",31942114,"L"
363772,"2229 KIMBALL AVE 3W","CHICAGO","IL",60647,41.9220002330001,-87.7120134099999,272,"2229 KIMBALL AVE 3W, CHICAGO, IL, 60647","Match","Non_Exact","2229 N KIMBALL AVE, CHICAGO, IL, 60647",605206967,"R"
363773,"2229 LACROSS AVE","KALAMAZOO","MI",49006,NA,NA,273,"2229 LACROSS AVE, KALAMAZOO, MI, 49006","No_Match",NA,NA,NA,NA
363774,"2229 LESNER CRESCENT ST UNIT 100","VIRGINIA BEACH","VA",23451,36.9076899940001,-76.083849944,274,"2229 LESNER CRESCENT ST UNIT 100, VIRGINIA BEACH, VA, 23451","Match","Exact","2229 LESNER CRES, VA BCH, VA, 23451",122303411,"R"
363775,"2229 LINCOLN AVENUE SOUTHWEST","ROANOKE","VA",24015,37.2613176300001,-79.987251279,275,"2229 LINCOLN AVENUE SOUTHWEST, ROANOKE, VA, 24015","Match","Exact","2229 LINCOLN AVE SW, ROANOKE, VA, 24015",62938990,"R"
363776,"2229 LITTLE VALLEY ROAD APT B","HOOVER","AL",35216,33.4093813630001,-86.803965053,276,"2229 LITTLE VALLEY ROAD APT B, HOOVER, AL, 35216","Match","Exact","2229 LITTLE VALLEY RD, HOOVER, AL, 35216",81583291,"L"
363777,"2229 MICKLETHWAITE ROAD","PORTSMOUTH","OH",45662,38.749584251,-82.975958425,277,"2229 MICKLETHWAITE ROAD, PORTSMOUTH, OH, 45662","Match","Exact","2229 MICKLETHWAITE RD, PORTSMOUTH, OH, 45662",55113296,"L"
363778,"2229 MORNING DEW SW","CONYERS","GA",30094,33.552744273,-84.057781193,278,"2229 MORNING DEW SW, CONYERS, GA, 30094","Match","Non_Exact","2229 MORNING DEW, CONYERS, GA, 30094",614159566,"R"
363779,"2229 MORNING DEW","CONYERS","GA",30094,33.552744273,-84.057781193,279,"2229 MORNING DEW, CONYERS, GA, 30094","Match","Exact","2229 MORNING DEW, CONYERS, GA, 30094",614159566,"R"
363780,"2229 MOSS ST","LAFAYETTE","LA",70501,30.2526260380001,-92.005268596,280,"2229 MOSS ST, LAFAYETTE, LA, 70501","Match","Exact","2229 MOSS ST, LAFAYETTE, LA, 70501",85616920,"L"
363781,"2229 N DYMOND ST","BURBANK","CA",91505,34.1876525930001,-118.359468019,281,"2229 N DYMOND ST, BURBANK, CA, 91505","Match","Exact","2229 N DYMOND ST, BURBANK, CA, 91505",142725249,"L"
363782,"2229 N SPENCER ST","INDIANAPOLIS","IN",46218,39.798718611,-86.0809651279999,282,"2229 N SPENCER ST, INDIANAPOLIS, IN, 46218","Match","Non_Exact","2229 N SPENCER AVE, INDIANAPOLIS, IN, 46218",107999810,"R"
363783,"2229 N WHEELING AVE","TULSA","OK",74110,36.1860665790001,-95.964880557,283,"2229 N WHEELING AVE, TULSA, OK, 74110","Match","Exact","2229 N WHEELING AVE, TULSA, OK, 74110",166438442,"R"
363784,"2229 NORTH 142ND CIRCLE","OMAHA","NE",68164,41.2794491770001,-96.135649512,284,"2229 NORTH 142ND CIRCLE, OMAHA, NE, 68164","Match","Exact","2229 N 142ND CIR, OMAHA, NE, 68164",117025075,"R"
363785,"2229 NW 24TH RD","OCALA","FL",34475,29.2055439920001,-82.162404855,285,"2229 NW 24TH RD, OCALA, FL, 34475","Match","Exact","2229 NW 24TH RD, OCALA, FL, 34475",116724212,"R"
363786,"2229 NW 55TH WAY","LAUDERHILL","FL",33313,26.1556422630001,-80.2248265699999,286,"2229 NW 55TH WAY, LAUDERHILL, FL, 33313","Match","Exact","2229 NW 55TH WAY, LAUDERHILL, FL, 33313",608970482,"R"
363787,"2229 OAKDALE AVENUE","GLENSIDE","PA",19038,40.1044009390001,-75.148267791,287,"2229 OAKDALE AVENUE, GLENSIDE, PA, 19038","Match","Exact","2229 OAKDALE AVE, GLENSIDE, PA, 19038",135092363,"R"
363788,"2229 PALM DESERT DR","INGLESIDE","TX",78362,27.8579778210001,-97.212793332,288,"2229 PALM DESERT DR, INGLESIDE, TX, 78362","Match","Exact","2229 PALM DESERT DR, INGLESIDE, TX, 78362",36334478,"R"
363789,"2229 PENNSYLVANIA AVE","BALTIMORE","MD",21217,39.3078717930001,-76.6398726909999,289,"2229 PENNSYLVANIA AVE, BALTIMORE, MD, 21217","Match","Exact","2229 PENNSYLVANIA AVE, BALTIMORE, MD, 21217",206416339,"R"
363790,"2229 PETERSON DR","CHATTANOOGA","TN",37421,35.0325351820001,-85.141055169,290,"2229 PETERSON DR, CHATTANOOGA, TN, 37421","Match","Exact","2229 PETERSON DR, CHATTANOOGA, TN, 37421",59317786,"L"
363791,"2229 POLK AVE","OGDEN","UT",84404,41.2262373570001,-111.942585255,291,"2229 POLK AVE, OGDEN, UT, 84404","Match","Non_Exact","2229 POLK AVE, OGDEN, UT, 84401",155697842,"R"
363792,"2229 POWELL AVE","BRONX","NY",10462,40.8313480210001,-73.84989095,292,"2229 POWELL AVE, BRONX, NY, 10462","Match","Exact","2229 POWELL AVE, BRONX, NY, 10462",80306078,"L"
363793,"2229 RICKEL","AKRON","OH",44333,41.142189144,-81.58975422,293,"2229 RICKEL, AKRON, OH, 44333","Match","Non_Exact","2229 RICKEL DR, AKRON, OH, 44333",61336910,"R"
363794,"2229 S BEVERLY GLEN BLVD 207","LOS ANGELES","CA",90064,34.049705358,-118.420006202,294,"2229 S BEVERLY GLEN BLVD 207, LOS ANGELES, CA, 90064","Match","Non_Exact","2229 S BEVERLY GLEN BLVD, LOS ANGELES, CA, 90064",141571414,"R"
363795,"2229 S NETTLETON AVE","SPRINGFIELD","MO",65807,37.174512098,-93.311499485,295,"2229 S NETTLETON AVE, SPRINGFIELD, MO, 65807","Match","Exact","2229 S NETTLETON AVE, SPRINGFIELD, MO, 65807",76707387,"R"
363796,"2229 S PURDUE AVE","SIOUX FALLS","SD",57106,43.524446068,-96.825210608,296,"2229 S PURDUE AVE, SIOUX FALLS, SD, 57106","Match","Exact","2229 S PURDUE AVE, SIOUX FALLS, SD, 57106",35012460,"R"
363797,"2229 S TROOST AVE","TULSA","OK",74114,36.131563783,-95.968097503,297,"2229 S TROOST AVE, TULSA, OK, 74114","Match","Exact","2229 S TROOST AVE, TULSA, OK, 74114",166442833,"L"
363798,"2229 SHADYWOOD CT","ARLINGTON","TX",76012,32.749142099,-97.147932582,298,"2229 SHADYWOOD CT, ARLINGTON, TX, 76012","Match","Exact","2229 SHADYWOOD CT, ARLINGTON, TX, 76012",101905038,"R"
363799,"2229 SHANKIN DRIVE","WOLVERINE LAKE","MI",48390,42.5525778050001,-83.4865249109999,299,"2229 SHANKIN DRIVE, WOLVERINE LAKE, MI, 48390","Match","Exact","2229 SHANKIN DR, WOLVERINE LAKE, MI, 48390",69774417,"L"
363800,"2229 SHIRLINGTON RD","ARLINGTON","VA",22206,38.8495496730001,-77.0844669689999,300,"2229 SHIRLINGTON RD, ARLINGTON, VA, 22206","Match","Non_Exact","2229 S SHIRLINGTON RD, ARLINGTON, VA, 22206",76471722,"L"
363801,"2229 SOUTH SHIRLINGTON ROAD","ARLINGTON","VA",22206,38.8495496730001,-77.0844669689999,301,"2229 SOUTH SHIRLINGTON ROAD, ARLINGTON, VA, 22206","Match","Exact","2229 S SHIRLINGTON RD, ARLINGTON, VA, 22206",76471722,"L"
363802,"2229 SYMMES ST","CINCINNATI","OH",45211,39.122134901,-84.498413973,302,"2229 SYMMES ST, CINCINNATI, OH, 45211","Match","Non_Exact","2229 SYMMES ST, CINCINNATI, OH, 45206",103926086,"L"
363803,"2229 THORNTON LANSING ROAD","LANSING","IL",60438,41.5680612640001,-87.56238154,303,"2229 THORNTON LANSING ROAD, LANSING, IL, 60438","Match","Exact","2229 THORNTON LANSING RD, LANSING, IL, 60438",605647058,"R"
363804,"2229 VALENTINE AVENUE APT 2B","BRONX","NY",10475,40.8558119300001,-73.898594193,304,"2229 VALENTINE AVENUE APT 2B, BRONX, NY, 10475","Match","Non_Exact","2229 VALENTINE AVE, BRONX, NY, 10457",652205461,"L"
363805,"2229 VESTHAVEN WAY E","BIRMINGHAM","AL",35216,33.4389882460001,-86.7813809849999,305,"2229 VESTHAVEN WAY E, BIRMINGHAM, AL, 35216","Match","Exact","2229 VESTHAVEN WAY E, BIRMINGHAM, AL, 35216",81713655,"R"
363806,"2229 VILLAGE LAKE DR","CHARLOTTE","NC",28216,35.1615974270001,-80.742245533,306,"2229 VILLAGE LAKE DR, CHARLOTTE, NC, 28216","Match","Non_Exact","2229 VILLAGE LAKE DR, CHARLOTTE, NC, 28212",70557201,"L"
363807,"2229 VILLAGE LAKE DRIVE","CHARLOTTE","NC",28212,35.1615974270001,-80.742245533,307,"2229 VILLAGE LAKE DRIVE, CHARLOTTE, NC, 28212","Match","Exact","2229 VILLAGE LAKE DR, CHARLOTTE, NC, 28212",70557201,"L"
363808,"2229 W CARPENTER ROAD","FLINT","MI",48505,43.0750938080001,-83.730633513,308,"2229 W CARPENTER ROAD, FLINT, MI, 48505","Match","Exact","2229 W CARPENTER RD, FLINT, MI, 48505",639431533,"L"
363809,"2229 W WAPOOT DR","MERIDIAN","ID",83646,43.6516139130001,-116.421696888,309,"2229 W WAPOOT DR, MERIDIAN, ID, 83646","Match","Exact","2229 W WAPOOT DR, MERIDIAN, ID, 83646",647585323,"L"
363810,"2229 WALGROVE AVE","LOS ANGELES","CA",90066,33.9992223940001,-118.447877762,310,"2229 WALGROVE AVE, LOS ANGELES, CA, 90066","Match","Exact","2229 WALGROVE AVE, LOS ANGELES, CA, 90066",141570414,"R"
363811,"2229 WASHINGTON AVE","NORWOOD","OH",45212,39.1583981680001,-84.45291335,311,"2229 WASHINGTON AVE, NORWOOD, OH, 45212","Match","Exact","2229 WASHINGTON AVE, NORWOOD, OH, 45212",103930505,"R"
363812,"2229 WATER DANCE CIR","ARLINGTON","TX",77601,32.707807227,-97.106042638,312,"2229 WATER DANCE CIR, ARLINGTON, TX, 77601","Match","Non_Exact","2229 WATERDANCE CIR, ARLINGTON, TX, 76010",101946478,"R"
363813,"2229 WEST LAWN AVE","MADISON","WI",53711,43.0624275690001,-89.422605701,313,"2229 WEST LAWN AVE, MADISON, WI, 53711","Match","Exact","2229 W LAWN AVE, MADISON, WI, 53711",49469062,"L"
363814,"2229 WEST PUEBLO STREET","YUMA","AZ",85364,32.694444934,-114.647425745,314,"2229 WEST PUEBLO STREET, YUMA, AZ, 85364","Match","Exact","2229 W PUEBLO ST, YUMA, AZ, 85364",129624422,"L"
363815,"2229 WOOD LAWN DRIVE","BALTIMORE","MD",21239,NA,NA,315,"2229 WOOD LAWN DRIVE, BALTIMORE, MD, 21239","No_Match",NA,NA,NA,NA
363816,"2229 WOODFORD DR","RICHMOND","KY",40475,37.770665303,-84.3231927429999,316,"2229 WOODFORD DR, RICHMOND, KY, 40475","Match","Exact","2229 WOODFORD DR, RICHMOND, KY, 40475",31998685,"L"
363817,"22290 SANDY LANE","FAIRVIEW PARK","OH",44126,41.431155441,-81.867393701,317,"22290 SANDY LANE, FAIRVIEW PARK, OH, 44126","Match","Exact","22290 SANDY LN, FAIRVIEW PARK, OH, 44126",61098057,"L"
363818,"22290 WOODWILL","SOUTHFIELD","MI",48075,42.455935213,-83.230094491,318,"22290 WOODWILL, SOUTHFIELD, MI, 48075","Match","Non_Exact","22290 WOODWILL ST, SOUTHFIELD, MI, 48075",69739627,"R"
363819,"22291 LUJON DRIVE","NORTHVILLE","MI",48167,42.4519469910001,-83.423365971,319,"22291 LUJON DRIVE, NORTHVILLE, MI, 48167","Match","Exact","22291 LUJON DR, NORTHVILLE, MI, 48167",641012538,"L"
363820,"22291 US ROUTE 11","WATERTOWN","NY",13601,44.000149939,-75.900801556,320,"22291 US ROUTE 11, WATERTOWN, NY, 13601","Match","Non_Exact","22291 US HWY 11, WATERTOWN, NY, 13601",154240626,"L"
363821,"22291 VALLEY VIEW DRIVE","WEST LAFAYETE","OH",43845,40.267457875,-81.6817573769999,321,"22291 VALLEY VIEW DRIVE, WEST LAFAYETE, OH, 43845","Match","Non_Exact","22291 VALLEY VIEW DR, W LAFAYETTE, OH, 43845",52106907,"L"
363822,"22292 367TH AVENUE SW","FISHER","MN",56723,47.8420830540001,-96.8394606419999,322,"22292 367TH AVENUE SW, FISHER, MN, 56723","Match","Exact","22292 367TH AVE SW, FISHER, MN, 56723",171439472,"R"
363823,"22292 STORYS STATION ROAD","COURTLAND","VA",23837,36.7204320060001,-77.000737068,323,"22292 STORYS STATION ROAD, COURTLAND, VA, 23837","Match","Exact","22292 STORYS STATION RD, COURTLAND, VA, 23837",82715103,"L"
363824,"22293 DERTING ROAD","HAYDEN","ID",83835,47.8656644750001,-116.718124358,324,"22293 DERTING ROAD, HAYDEN, ID, 83835","Match","Non_Exact","22293 N DERTING RD, HAYDEN, ID, 83835",192942651,"R"
363825,"22293 NORTH DEANZA CIRCLE","CUPERTINO","CA",95401,37.3100703170001,-122.065186442,325,"22293 NORTH DEANZA CIRCLE, CUPERTINO, CA, 95401","Match","Non_Exact","22293 N DE ANZA CIR, CUPERTINO, CA, 95014",624978889,"R"
363826,"22294 ANASAZI WAY","GOLDEN","CO",80401,39.7006714770001,-105.250774722,326,"22294 ANASAZI WAY, GOLDEN, CO, 80401","Match","Exact","22294 ANASAZI WAY, GOLDEN, CO, 80401",177738617,"R"
363827,"22295 CTY RD 2","BRAINERD","MN",56401,46.2143925730001,-93.931419797,327,"22295 CTY RD 2, BRAINERD, MN, 56401","Match","Exact","22295 CO RD 2, BRAINERD, MN, 56401",611822783,"L"
363828,"22295 WISE OWL RD","BROOKSVILLE","FL",34602,28.4414382730001,-82.36456402,328,"22295 WISE OWL RD, BROOKSVILLE, FL, 34602","Match","Exact","22295 WISE OWL RD, BROOKSVILLE, FL, 34602",85468586,"L"
363829,"22296 N 1551TH AVE","ATKINSON","IL",61235,NA,NA,329,"22296 N 1551TH AVE, ATKINSON, IL, 61235","No_Match",NA,NA,NA,NA
363830,"22296 S DOGWOOD PL","CLAREMORE","OK",74019,36.284666923,-95.5764490719999,330,"22296 S DOGWOOD PL, CLAREMORE, OK, 74019","Match","Non_Exact","22296 S DOGWOOD CT, CLAREMORE, OK, 74019",20698660,"L"
363831,"22297 ARBOR LN","FARMINGTON HILLS","MI",48366,42.455402228,-83.326005917,331,"22297 ARBOR LN, FARMINGTON HILLS, MI, 48366","Match","Non_Exact","22297 ARBOR LN, FARMINGTON HLS, MI, 48336",69794600,"R"
363832,"22297 SUMMIT VUE LN","WOODLAND HILLS","CA",91367,34.180408604,-118.612843871,332,"22297 SUMMIT VUE LN, WOODLAND HILLS, CA, 91367","Match","Exact","22297 SUMMIT VUE LN, WOODLAND HILLS, CA, 91367",141824486,"L"
363833,"222983 CHESTNUT HILL LANE","COLBY","WI",54421,44.8969499990001,-90.258424345,333,"222983 CHESTNUT HILL LANE, COLBY, WI, 54421","Match","Exact","222983 CHESTNUT HILL LN, COLBY, WI, 54421",117120972,"R"
363834,"22299 DERBY RD","WOODHAVEN","MI",48192,42.125721975,-83.251094543,334,"22299 DERBY RD, WOODHAVEN, MI, 48192","Match","Non_Exact","22299 DERBY RD, WOODHAVEN, MI, 48183",95505432,"L"
363835,"222A FAIRMOUNT AVE","SAUGUS","MA",1906,42.466299017,-70.991098301,335,"222A FAIRMOUNT AVE, SAUGUS, MA, 1906","Match","Exact","222 FAIRMOUNT AVE, SAUGUS, MA, 01906",637460197,"L"
363836,"222A WEST COUNTY LINE RD","LUTZ","FL",33548,28.1718310590001,-82.462347902,336,"222A WEST COUNTY LINE RD, LUTZ, FL, 33548","Match","Exact","222 W COUNTY LINE RD, LUTZ, FL, 33548",86366562,"R"
363837,"222ND PLACE","SAUK VILLAGE","IL",60411,NA,NA,337,"222ND PLACE, SAUK VILLAGE, IL, 60411","No_Match",NA,NA,NA,NA
363838,"223 1/2 OLIVE STREET","CLAREMONT","CA",91711,34.091721014,-117.717960243,338,"223 1/2 OLIVE STREET, CLAREMONT, CA, 91711","Match","Exact","223 OLIVE ST, CLAREMONT, CA, 91711",141734712,"R"
363839,"223 10TH STREET","DEL MAR","CA",92014,32.9540861560001,-117.264457358,339,"223 10TH STREET, DEL MAR, CA, 92014","Match","Exact","223 10TH ST, DEL MAR, CA, 92014",195297825,"R"
363840,"223 11TH AVE N","ST CLOUD","MN",56303,45.560344639,-94.166857669,340,"223 11TH AVE N, ST CLOUD, MN, 56303","Match","Exact","223 11TH AVE N, SAINT CLOUD, MN, 56303",107415192,"L"
363841,"223 128TH AVE","MARATHON","WI",54448,44.948482271,-89.798369687,341,"223 128TH AVE, MARATHON, WI, 54448","Match","Non_Exact","223 N 128TH AVE, MARATHON, WI, 54448",117161842,"R"
363842,"223 13TH STREET APARTMENT 8","BROOKLYN","NY",11215,40.6676077910001,-73.990021681,342,"223 13TH STREET APARTMENT 8, BROOKLYN, NY, 11215","Match","Exact","223 13TH ST, BROOKLYN, NY, 11215",59075644,"L"
363843,"223 13TH STREET APT 8","BROOKLYN","NY",11215,40.6676077910001,-73.990021681,343,"223 13TH STREET APT 8, BROOKLYN, NY, 11215","Match","Exact","223 13TH ST, BROOKLYN, NY, 11215",59075644,"L"
363844,"223 19TH STREET","BROOKLYN","NY",11232,40.66285291,-73.9928770499999,344,"223 19TH STREET, BROOKLYN, NY, 11232","Match","Exact","223 19TH ST, BROOKLYN, NY, 11232",642653933,"L"
363845,"223 1ST STREET","SOUTH FORK","PA",15956,40.3709354260001,-78.778128016,345,"223 1ST STREET, SOUTH FORK, PA, 15956","Match","Exact","223 1ST ST, SOUTH FORK, PA, 15956",50235503,"R"
363846,"223 23RD AVE","ST CLOUD","MN",56303,45.557212158,-94.185318762,346,"223 23RD AVE, ST CLOUD, MN, 56303","Match","Non_Exact","223 23RD AVE N, SAINT CLOUD, MN, 56303",107414595,"L"
363847,"223 240TH AVE","HAYS","KS",67601,38.715459578,-99.3385411789999,347,"223 240TH AVE, HAYS, KS, 67601","Match","Exact","223 240TH AVE, HAYS, KS, 67601",149827946,"L"
363848,"223 26TH COURT","PHENIX CITY","AL",36869,32.449911322,-85.030907451,348,"223 26TH COURT, PHENIX CITY, AL, 36869","Match","Exact","223 26TH CT, PHENIX CITY, AL, 36869",627966422,"L"
363849,"223 39TH ST","SACRAMENTO","CA",95816,38.5790824220001,-121.454150354,349,"223 39TH ST, SACRAMENTO, CA, 95816","Match","Exact","223 39TH ST, SACRAMENTO, CA, 95816",133324844,"L"
363850,"223 3RD STREET EAST","CHESTER","MT",59522,48.5115841620001,-110.961383014,350,"223 3RD STREET EAST, CHESTER, MT, 59522","Match","Exact","223 3RD ST E, CHESTER, MT, 59522",162569156,"R"
363851,"223 47TH AVE","BELLWOOD","IL",60104,41.8880691730001,-87.890736306,351,"223 47TH AVE, BELLWOOD, IL, 60104","Match","Exact","223 47TH AVE, BELLWOOD, IL, 60104",605133490,"L"
363852,"223 47TH","BELLWOOD","IL",60104,41.8880691730001,-87.890736306,352,"223 47TH, BELLWOOD, IL, 60104","Match","Non_Exact","223 47TH AVE, BELLWOOD, IL, 60104",605133490,"L"
363853,"223 4TH AVE APT 4F","BROOKLYN","NY",11215,40.6770972030001,-73.983247107,353,"223 4TH AVE APT 4F, BROOKLYN, NY, 11215","Match","Exact","223 4TH AVE, BROOKLYN, NY, 11215",59078091,"L"
363854,"223 7TH ST NW","MOUNT VERNON","IA",52314,41.927676363,-91.414782886,354,"223 7TH ST NW, MOUNT VERNON, IA, 52314","Match","Exact","223 7TH ST NW, MOUNT VERNON, IA, 52314",17015530,"R"
363855,"223 7TH STREET   APT 1H","GARDEN CITY","NY",11530,40.7254539780001,-73.6334672519999,355,"223 7TH STREET   APT 1H, GARDEN CITY, NY, 11530","Match","Exact","223 7TH ST, GARDEN CITY, NY, 11530",147841784,"L"
363856,"223 8TH AVE NW","ROCHESTER","MN",55901,44.0256209090001,-92.473802582,356,"223 8TH AVE NW, ROCHESTER, MN, 55901","Match","Exact","223 8TH AVE NW, ROCHESTER, MN, 55901",30552703,"L"
363857,"223 9TH STREET","ST PAUL","NE",68873,41.207947989,-98.460133656,357,"223 9TH STREET, ST PAUL, NE, 68873","Match","Exact","223 9TH ST, SAINT PAUL, NE, 68873",198189004,"L"
363858,"223 ACME DRIVE","MIDDLEBURY","CT",6762,41.5472882760001,-73.10586946,358,"223 ACME DRIVE, MIDDLEBURY, CT, 6762","Match","Exact","223 ACME DR, MIDDLEBURY, CT, 06762",3727558,"R"
363859,"223 ACRE ST","GUTTENBERG","IA",52052,42.800337627,-91.11280935,359,"223 ACRE ST, GUTTENBERG, IA, 52052","Match","Exact","223 ACRE ST, GUTTENBERG, IA, 52052",624281308,"R"
363860,"223 ADAMS AVENUE","BARRINGTON","NJ",8007,39.8662150600001,-75.05710578,360,"223 ADAMS AVENUE, BARRINGTON, NJ, 8007","Match","Exact","223 ADAMS AVE, BARRINGTON, NJ, 08007",134419104,"R"
363861,"223 ADOBE RD","TAOS","NM",87571,36.38255451,-105.581669563,361,"223 ADOBE RD, TAOS, NM, 87571","Match","Exact","223 ADOBE RD, TAOS, NM, 87571",159919485,"R"
363862,"223 ALDRICH AVENUE","ALTOONA","PA",16602,40.4842885140001,-78.4056446279999,362,"223 ALDRICH AVENUE, ALTOONA, PA, 16602","Match","Exact","223 ALDRICH AVE, ALTOONA, PA, 16602",634141092,"R"
363863,"223 ALLEN ROAD","FRANKLIN","KY",42134,36.726254468,-86.602198282,363,"223 ALLEN ROAD, FRANKLIN, KY, 42134","Match","Exact","223 ALLEN RD, FRANKLIN, KY, 42134",29603294,"L"
363864,"223 AMHERST STREET","WINCHESTER","VA",22601,39.185846687,-78.168631881,364,"223 AMHERST STREET, WINCHESTER, VA, 22601","Match","Exact","223 AMHERST ST, WINCHESTER, VA, 22601",55578333,"L"
363865,"223 ANDREWS AVE","SO SUTTON","NH",3221,NA,NA,365,"223 ANDREWS AVE, SO SUTTON, NH, 3221","No_Match",NA,NA,NA,NA
363866,"223 ANNA COURT","BARNESVILLE","GA",30204,NA,NA,366,"223 ANNA COURT, BARNESVILLE, GA, 30204","No_Match",NA,NA,NA,NA
363867,"223 ANTHONY STREET","NASHVILLE","TN",37138,36.2422967140001,-86.628970253,367,"223 ANTHONY STREET, NASHVILLE, TN, 37138","Match","Non_Exact","223 ANTHONY ST, LAKEWOOD, TN, 37138",97209073,"L"
363868,"223 ANTRIM AVE","MOORE","SC",29369,34.8970650380001,-82.0221522749999,368,"223 ANTRIM AVE, MOORE, SC, 29369","Match","Exact","223 ANTRIM AVE, MOORE, SC, 29369",19528937,"L"
363869,"223 ARAPAHOE ST","GOLDEN","CO",80403,39.7632487560001,-105.230257696,369,"223 ARAPAHOE ST, GOLDEN, CO, 80403","Match","Exact","223 ARAPAHOE ST, GOLDEN, CO, 80403",177278927,"L"
363870,"223 ARBALLA DR","SAN FRANCISCO","CA",94312,37.721269761,-122.482759222,370,"223 ARBALLA DR, SAN FRANCISCO, CA, 94312","Match","Non_Exact","223 ARBALLO DR, SAN FRANCISCO, CA, 94132",192299268,"L"
363871,"223 ARCADIA PL","LODI","CA",95240,38.1038500080001,-121.269038793,371,"223 ARCADIA PL, LODI, CA, 95240","Match","Exact","223 ARCADIA PL, LODI, CA, 95240",133891572,"R"
363872,"223 ARNOLD A","ARLINGTON","TX",76109,NA,NA,372,"223 ARNOLD A, ARLINGTON, TX, 76109","No_Match",NA,NA,NA,NA
363873,"223 ARNOLD AVE APT A","ARLINGTON","TX",76010,32.7350660330001,-97.093964076,373,"223 ARNOLD AVE APT A, ARLINGTON, TX, 76010","Match","Exact","223 ARNOLD AVE, ARLINGTON, TX, 76010",101908649,"L"
363874,"223 ARNOLD AVE","ARLINGTON","TX",76010,32.7350660330001,-97.093964076,374,"223 ARNOLD AVE, ARLINGTON, TX, 76010","Match","Exact","223 ARNOLD AVE, ARLINGTON, TX, 76010",101908649,"L"
363875,"223 ASBURY RD","ITHACA","NY",14850,42.526071888,-76.4800088389999,375,"223 ASBURY RD, ITHACA, NY, 14850","Match","Non_Exact","223 ASBURY RD, ITHACA, NY, 14882",18852867,"L"
363876,"223 ASHLAND AVE","CHERRY HILL","NJ",8003,39.8654636860001,-75.010232665,376,"223 ASHLAND AVE, CHERRY HILL, NJ, 8003","Match","Exact","223 ASHLAND AVE, CHERRY HILL, NJ, 08003",134356592,"L"
363877,"223 ASHLEY PLACE RD","COLUMBIA","SC",29229,34.1505367880001,-80.915289015,377,"223 ASHLEY PLACE RD, COLUMBIA, SC, 29229","Match","Exact","223 ASHLEY PLACE RD, COLUMBIA, SC, 29229",604789544,"L"
363878,"223 ASPINWALL AVENUE","BROOKLINE","MA",2446,42.335836935,-71.114025439,378,"223 ASPINWALL AVENUE, BROOKLINE, MA, 2446","Match","Exact","223 ASPINWALL AVE, BROOKLINE, MA, 02446",87245690,"R"
363879,"223 AUTUMN WOODS COURT","DILLSBURG","PA",17019,40.1100467030001,-77.03215101,379,"223 AUTUMN WOODS COURT, DILLSBURG, PA, 17019","Match","Exact","223 AUTUMN WOODS CT, DILLSBURG, PA, 17019",611412790,"L"
363880,"223 BACK BELMONT RD","BELFAST","ME",4915,44.3853932650001,-69.0676595579999,380,"223 BACK BELMONT RD, BELFAST, ME, 4915","Match","Exact","223 BACK BELMONT RD, BELFAST, ME, 04915",75651379,"L"
363881,"223 BAILEE AVENUE","RINCON","GA",31326,32.2905887970001,-81.218351591,381,"223 BAILEE AVENUE, RINCON, GA, 31326","Match","Exact","223 BAILEE AVE, RINCON, GA, 31326",619033091,"L"
363882,"223 BAKER RD","SELAH","WA",98942,46.6798758950001,-120.544367181,382,"223 BAKER RD, SELAH, WA, 98942","Match","Exact","223 BAKER RD, SELAH, WA, 98942",184961797,"L"
363883,"223 BASSWOOD AVENUE","SUMMERVILLE","SC",29483,32.9724113550001,-80.2060160899999,383,"223 BASSWOOD AVENUE, SUMMERVILLE, SC, 29483","Match","Exact","223 BASSWOOD AVE, SUMMERVILLE, SC, 29483",178464922,"L"
363884,"223 BATTLE GROVE AVENUE","CYNTHIANA","KY",41031,38.38524899,-84.2846322029999,384,"223 BATTLE GROVE AVENUE, CYNTHIANA, KY, 41031","Match","Exact","223 BATTLE GROVE AVE, CYNTHIANA, KY, 41031",57893662,"L"
363885,"223 BAY DRIVE","POINCIANA","FL",34759,28.126548944,-81.4769852489999,385,"223 BAY DRIVE, POINCIANA, FL, 34759","Match","Exact","223 BAY DR, POINCIANA, FL, 34759",653185672,"R"
363886,"223 BAYBERRY COMMON","FREMONT","CA",94539,37.4749742750001,-121.919619078,386,"223 BAYBERRY COMMON, FREMONT, CA, 94539","Match","Exact","223 BAYBERRY CMN, FREMONT, CA, 94539",645548382,"R"
363887,"223 BEACH 140TH STREET","BELLE HABOR","NY",11694,40.572784051,-73.8570014059999,387,"223 BEACH 140TH STREET, BELLE HABOR, NY, 11694","Match","Non_Exact","223 BEACH 140TH ST, BELLE HARBOR, NY, 11694",59709319,"L"
363888,"223 BEAUMONT DR","OXFORD","PA",19363,39.7850127780001,-75.989717855,388,"223 BEAUMONT DR, OXFORD, PA, 19363","Match","Exact","223 BEAUMONT DR, OXFORD, PA, 19363",179557714,"R"
363889,"223 BEAVER ROAD","MORSE","LA",70559,30.123204721,-92.539781744,389,"223 BEAVER ROAD, MORSE, LA, 70559","Match","Exact","223 BEAVER RD, MORSE, LA, 70559",88309803,"R"
363890,"223 BEDFORD AVENUE","BROOKLYN","NY",11211,40.716448938,-73.9592049779999,390,"223 BEDFORD AVENUE, BROOKLYN, NY, 11211","Match","Exact","223 BEDFORD AVE, BROOKLYN, NY, 11211",59076100,"L"
363891,"223 BELLA VISTA ROAD","DEVON","PA",19333,40.0445419810001,-75.418291703,391,"223 BELLA VISTA ROAD, DEVON, PA, 19333","Match","Exact","223 BELLA VISTA RD, DEVON, PA, 19333",179499366,"L"
363892,"223 BENSON ROAD","MINDEN","LA",71055,32.7258978470001,-93.3285595839999,392,"223 BENSON ROAD, MINDEN, LA, 71055","Match","Exact","223 BENSON RD, MINDEN, LA, 71055",73410271,"R"
363893,"223 BENTON STATION ROAD","BENTON","TN",37307,35.1664115300001,-84.700290088,393,"223 BENTON STATION ROAD, BENTON, TN, 37307","Match","Exact","223 BENTON STATION RD, BENTON, TN, 37307",57623329,"L"
363894,"223 BESHIRES RD","HENDRIX","OK",74741,33.772892169,-96.253479509,394,"223 BESHIRES RD, HENDRIX, OK, 74741","Match","Non_Exact","223 BESHIRS RD, HENDRIX, OK, 74741",62512927,"R"
363895,"223 BLACKS BLUFF RD","ROME","GA",30161,34.2239180330001,-85.195119827,395,"223 BLACKS BLUFF RD, ROME, GA, 30161","Match","Non_Exact","223 BLACKS BLUFF RD SW, ROME, GA, 30161",653863861,"L"
363896,"223 BLANCO DRIVE","YOUNGSVILLE","LA",70592,30.06475729,-92.026477405,396,"223 BLANCO DRIVE, YOUNGSVILLE, LA, 70592","Match","Exact","223 BLANCO DR, YOUNGSVILLE, LA, 70592",624352210,"L"
363897,"223 BLENHEIM RD","COLUMBUSS","OH",43214,40.043524731,-83.012605588,397,"223 BLENHEIM RD, COLUMBUSS, OH, 43214","Match","Non_Exact","223 BLENHEIM RD, COLUMBUS, OH, 43214",218693552,"R"
363898,"223 BODINE AVE","EVANSTON","WY",82930,41.2515130850001,-110.977321744,398,"223 BODINE AVE, EVANSTON, WY, 82930","Match","Non_Exact","223 BODINE DR, EVANSTON, WY, 82930",160272901,"L"
363899,"223 BOLTON STREET","SOUTH BOSTON","MA",2127,42.3384072690001,-71.047355592,399,"223 BOLTON STREET, SOUTH BOSTON, MA, 2127","Match","Exact","223 BOLTON ST, SOUTH BOSTON, MA, 02127",85712746,"R"
363900,"223 BONANZA DRIVE","ERIE","CO",80516,40.040991843,-105.037467864,400,"223 BONANZA DRIVE, ERIE, CO, 80516","Match","Exact","223 BONANZA DR, ERIE, CO, 80516",188752943,"R"
363901,"223 BOULEVARD AVENUE","PITMAN","NJ",8071,39.7295440600001,-75.130806395,401,"223 BOULEVARD AVENUE, PITMAN, NJ, 8071","Match","Exact","223 BOULEVARD AVE, PITMAN, NJ, 08071",134588177,"L"
363902,"223 BRADLEY STREET","NEW HAVEN","CT",6510,41.313447882,-72.919061536,402,"223 BRADLEY STREET, NEW HAVEN, CT, 6510","Match","Exact","223 BRADLEY ST, NEW HAVEN, CT, 06510",3701424,"R"
363903,"223 BRENTWOOD ST","BAYSHORE","NY",11706,40.7551915020001,-73.28789061,403,"223 BRENTWOOD ST, BAYSHORE, NY, 11706","Match","Non_Exact","223 BRENTWOOD ST, BAY SHORE, NY, 11706",113994036,"L"
363904,"223 BRIARCLIFF DRIVE","WEST MONROE","LA",71291,32.5440650420001,-92.185503318,404,"223 BRIARCLIFF DRIVE, WEST MONROE, LA, 71291","Match","Exact","223 BRIARCLIFF DR, WEST MONROE, LA, 71291",161097493,"L"
363905,"223 BRIARPATCH LANE","SHERWOOD","AR",72120,NA,NA,405,"223 BRIARPATCH LANE, SHERWOOD, AR, 72120","No_Match",NA,NA,NA,NA
363906,"223 BRIARWOOD CIRCLE","DENTON","MD",21629,38.8916084680001,-75.818464026,406,"223 BRIARWOOD CIRCLE, DENTON, MD, 21629","Match","Exact","223 BRIARWOOD CIR, DENTON, MD, 21629",68316904,"L"
363907,"223 BRIARWOOD PLACE","FRANKFORT","KY",40601,38.172153746,-84.9052375959999,407,"223 BRIARWOOD PLACE, FRANKFORT, KY, 40601","Match","Exact","223 BRIARWOOD PL, FRANKFORT, KY, 40601",97046215,"R"
363908,"223 BRITTANY DRIVE","WAYNE","NJ",7470,40.965243297,-74.241830448,408,"223 BRITTANY DRIVE, WAYNE, NJ, 7470","Match","Exact","223 BRITTANY DR, WAYNE, NJ, 07470",648493510,"L"
363909,"223 BUFFALO TRAIL","LAKE JACKSON","TX",77566,29.0680303080001,-95.482462458,409,"223 BUFFALO TRAIL, LAKE JACKSON, TX, 77566","Match","Exact","223 BUFFALO TRL, LAKE JACKSON, TX, 77566",116574172,"L"
363910,"223 BURRITT RD","HINESBURG","VT",5461,44.312354907,-73.1381140029999,410,"223 BURRITT RD, HINESBURG, VT, 5461","Match","Exact","223 BURRITT RD, HINESBURG, VT, 05461",135851925,"R"
363911,"223 BUTCH CASSIDY DR","ANNA","TX",75409,33.348780563,-96.561624866,411,"223 BUTCH CASSIDY DR, ANNA, TX, 75409","Match","Exact","223 BUTCH CASSIDY DR, ANNA, TX, 75409",616585967,"L"
363912,"223 BYRD AVE","SCOTCH PLAINS","NJ",7076,40.661197676,-74.393339834,412,"223 BYRD AVE, SCOTCH PLAINS, NJ, 7076","Match","Exact","223 BYRD AVE, SCOTCH PLAINS, NJ, 07076",60589511,"L"
363913,"223 CALLE CORTEZ","SAN CLEMENTE","CA",92672,33.431567515,-117.608172773,413,"223 CALLE CORTEZ, SAN CLEMENTE, CA, 92672","Match","Non_Exact","223 CLL CORTEZ, SAN CLEMENTE, CA, 92672",144076082,"L"
363914,"223 CALVIN DRIVE","COLUMBIA","MO",65201,38.9533592280001,-92.3043709309999,414,"223 CALVIN DRIVE, COLUMBIA, MO, 65201","Match","Exact","223 CALVIN DR, COLUMBIA, MO, 65201",23482287,"L"
363915,"223 CANAAN RD","BROOKTONDALE","NY",14817,42.41459697,-76.2940572689999,415,"223 CANAAN RD, BROOKTONDALE, NY, 14817","Match","Exact","223 CANAAN RD, BROOKTONDALE, NY, 14817",622576102,"R"
363916,"223 CANTERBURY","AURORA","OH",44202,41.3200434770001,-81.350502147,416,"223 CANTERBURY, AURORA, OH, 44202","Match","Exact","223 CANTERBURY, AURORA, OH, 44202",137528861,"R"
363917,"223 CAROLYN RD","NOCONA","TX",76255,33.780349426,-97.733227814,417,"223 CAROLYN RD, NOCONA, TX, 76255","Match","Exact","223 CAROLYN RD, NOCONA, TX, 76255",636335936,"R"
363918,"223 CARRIAGE CROSSING LN","MIDDLETOWN","CT",6457,41.5864251940001,-72.7100788289999,418,"223 CARRIAGE CROSSING LN, MIDDLETOWN, CT, 6457","Match","Exact","223 CARRIAGE CROSSING LN, MIDDLETOWN, CT, 06457",624703460,"R"
363919,"223 CARTLEDGE LN","MILLERSVILLE","PA",17551,39.9957662750001,-76.365977245,419,"223 CARTLEDGE LN, MILLERSVILLE, PA, 17551","Match","Exact","223 CARTLEDGE LN, MILLERSVILLE, PA, 17551",627001352,"L"
363920,"223 CATTLEMAN COVE","RICHMOND","TX",77469,29.565235613,-95.73776385,420,"223 CATTLEMAN COVE, RICHMOND, TX, 77469","Match","Exact","223 CATTLEMAN COVE, RICHMOND, TX, 77469",642937928,"R"
363921,"223 CEDAR DRIVE","FRANKLIN","TN",37064,35.933919201,-86.849603009,421,"223 CEDAR DRIVE, FRANKLIN, TN, 37064","Match","Exact","223 CEDAR DR, FRANKLIN, TN, 37064",73104113,"L"
363922,"223 CHAMBLIN DRIVE","CEDAR HILL","TX",75104,32.595972053,-96.921852929,422,"223 CHAMBLIN DRIVE, CEDAR HILL, TX, 75104","Match","Exact","223 CHAMBLIN DR, CEDAR HILL, TX, 75104",639258940,"R"
363923,"223 CHESTNUT ST","SALEM","NJ",8079,39.5640810690001,-75.4799441229999,423,"223 CHESTNUT ST, SALEM, NJ, 8079","Match","Exact","223 CHESTNUT ST, SALEM, NJ, 08079",174412586,"L"
363924,"223 CHESTNUT ST","WINCHESTER","VA",22601,39.1827372610001,-78.150640257,424,"223 CHESTNUT ST, WINCHESTER, VA, 22601","Match","Exact","223 CHESTNUT ST, WINCHESTER, VA, 22601",55609615,"L"
363925,"223 CHESTNUT STREET","FRANKLIN","WV",26807,38.6415763090001,-79.332362222,425,"223 CHESTNUT STREET, FRANKLIN, WV, 26807","Match","Exact","223 CHESTNUT ST, FRANKLIN, WV, 26807",56182107,"L"
363926,"223 CHESTNUT STREET","SALEM","NJ",8079,39.5640810690001,-75.4799441229999,426,"223 CHESTNUT STREET, SALEM, NJ, 8079","Match","Exact","223 CHESTNUT ST, SALEM, NJ, 08079",174412586,"L"
363927,"223 CHUCKANUT PT DR","BELLINGHAM","WA",98229,48.665867662,-122.493164864,427,"223 CHUCKANUT PT DR, BELLINGHAM, WA, 98229","Match","Non_Exact","223 CHUCKANUT POINT RD, BELLINGHAM, WA, 98229",647270951,"L"
363928,"223 CHURCH RD","BENSENVILE","IL",60106,41.9508502300001,-87.951528047,428,"223 CHURCH RD, BENSENVILE, IL, 60106","Match","Non_Exact","223 CHURCH RD, BENSENVILLE, IL, 60106",112722646,"R"
363929,"223 CLAY STREET","NOCONA","TX",76255,33.7888457820001,-97.727261464,429,"223 CLAY STREET, NOCONA, TX, 76255","Match","Exact","223 CLAY ST, NOCONA, TX, 76255",152109505,"L"
363930,"223 CODY AVE","HURLBURT FIELD","FL",32544,NA,NA,430,"223 CODY AVE, HURLBURT FIELD, FL, 32544","No_Match",NA,NA,NA,NA
363931,"223 CODY ST","ST ALBANS","WV",25177,38.3858388890001,-81.8196301249999,431,"223 CODY ST, ST ALBANS, WV, 25177","Match","Exact","223 CODY ST, SAINT ALBANS, WV, 25177",78583810,"L"
363932,"223 COLES WAY","LAKEWOOD","NJ",8701,40.068909078,-74.2034090929999,432,"223 COLES WAY, LAKEWOOD, NJ, 8701","Match","Exact","223 COLES WAY, LAKEWOOD, NJ, 08701",641910428,"R"
363933,"223 COMMODORE DR","RICHMOND","CA",94804,37.9138559150001,-122.344932006,433,"223 COMMODORE DR, RICHMOND, CA, 94804","Match","Exact","223 COMMODORE DR, RICHMOND, CA, 94804",607824716,"R"
363934,"223 COOPER RUN ROAD","BLUFFTON","SC",29909,32.26069591,-80.975914197,434,"223 COOPER RUN ROAD, BLUFFTON, SC, 29909","Match","Exact","223 COOPER RUN RD, BLUFFTON, SC, 29909",645291009,"L"
363935,"223 CORBIN DR","COLUMBUS","GA",31907,32.4479791850001,-84.9230998149999,435,"223 CORBIN DR, COLUMBUS, GA, 31907","Match","Exact","223 CORBIN DR, COLUMBUS, GA, 31907",98943046,"L"
363936,"223 COTTONWOOD PLACE","RAINELLE","WV",25962,37.9676097540001,-80.785789874,436,"223 COTTONWOOD PLACE, RAINELLE, WV, 25962","Match","Exact","223 COTTONWOOD PL, RAINELLE, WV, 25962",639964257,"R"
363937,"223 COUNTRY LN","LEBANON JNCT","KY",40150,37.874073261,-85.705707452,437,"223 COUNTRY LN, LEBANON JNCT, KY, 40150","Match","Non_Exact","223 COUNTRY LN, LEBANON JUNCTION, KY, 40150",47740882,"L"
363938,"223 COUNTY HWY 11","ONEONTA","NY",13820,42.495754124,-75.111782634,438,"223 COUNTY HWY 11, ONEONTA, NY, 13820","Match","Non_Exact","223 CO RD 11, ONEONTA, NY, 13820",635606864,"L"
363939,"223 COUNTY ROAD 346","JONESBORO","AR",72401,35.876825566,-90.7687573439999,439,"223 COUNTY ROAD 346, JONESBORO, AR, 72401","Match","Exact","223 CO RD 346, JONESBORO, AR, 72401",46925494,"L"
363940,"223 COUNTY ROAD 4444","TRENTON","TX",75490,33.452319736,-96.338745914,440,"223 COUNTY ROAD 4444, TRENTON, TX, 75490","Match","Exact","223 CO RD 4444, TRENTON, TX, 75490",638932392,"L"
363941,"223 CR 4026","SAVOY","TX",75479,33.579409249,-96.29001253,441,"223 CR 4026, SAVOY, TX, 75479","Match","Exact","223 CO RD 4026, SAVOY, TX, 75479",63283690,"L"
363942,"223 CRAWFORD DR","MARTIN","TN",38237,36.329175202,-88.8826587739999,442,"223 CRAWFORD DR, MARTIN, TN, 38237","Match","Exact","223 CRAWFORD DR, MARTIN, TN, 38237",40877795,"L"
363943,"223 CREEK VIEW DRIVE","HOPKINSVILLE","KY",42240,36.8345455850001,-87.511619255,443,"223 CREEK VIEW DRIVE, HOPKINSVILLE, KY, 42240","Match","Non_Exact","223 CREEKVIEW DR, HOPKINSVILLE, KY, 42240",11281395,"L"
363944,"223 CREEKSIDE DR","JEFFERSONVILLE","IN",47130,38.313659204,-85.7006688279999,444,"223 CREEKSIDE DR, JEFFERSONVILLE, IN, 47130","Match","Exact","223 CREEKSIDE DR, JEFFERSONVILLE, IN, 47130",64900274,"L"
363945,"223 CREEKWOOD LANE","RIVERDALE","GA",30274,33.514227991,-84.3979837099999,445,"223 CREEKWOOD LANE, RIVERDALE, GA, 30274","Match","Exact","223 CREEKWOOD LN, RIVERDALE, GA, 30274",23313741,"R"
363946,"223 CREST HILL RD","TOMS RIVER","NJ",8755,40.025686765,-74.2370650949999,446,"223 CREST HILL RD, TOMS RIVER, NJ, 8755","Match","Exact","223 CREST HILL RD, TOMS RIVER, NJ, 08755",203763902,"L"
363947,"223 CREST STREET","LANSING","MI",48910,42.6991498670001,-84.550282263,447,"223 CREST STREET, LANSING, MI, 48910","Match","Exact","223 CREST ST, LANSING, MI, 48910",17502756,"L"
363948,"223 CUTLER ST","ALLEGAN","MI",49010,42.529660468,-85.851226345,448,"223 CUTLER ST, ALLEGAN, MI, 49010","Match","Exact","223 CUTLER ST, ALLEGAN, MI, 49010",11418991,"L"
363949,"223 DATE ST","TIGERTON","WI",54486,44.7399438030001,-89.0669997269999,449,"223 DATE ST, TIGERTON, WI, 54486","Match","Exact","223 DATE ST, TIGERTON, WI, 54486",636686629,"L"
363950,"223 DEBORAH CIRCLE","EXPORT","PA",15632,40.446508027,-79.5733117939999,450,"223 DEBORAH CIRCLE, EXPORT, PA, 15632","Match","Exact","223 DEBORAH CIR, EXPORT, PA, 15632",53024312,"L"
363951,"223 DEERTRACK RUN","LEXINGTON","SC",29073,33.940231931,-81.209579478,451,"223 DEERTRACK RUN, LEXINGTON, SC, 29073","Match","Exact","223 DEERTRACK RUN, LEXINGTON, SC, 29073",650426471,"R"
363952,"223 DENTON ROAD","FREDERALSBURG","MD",21632,38.6997730310001,-75.7760226839999,452,"223 DENTON ROAD, FREDERALSBURG, MD, 21632","Match","Non_Exact","223 DENTON RD, FEDERALSBURG, MD, 21632",68314991,"R"
363953,"223 DOUBLE ARROW RD","SANTA FE","NM",87505,35.639976027,-105.899694191,453,"223 DOUBLE ARROW RD, SANTA FE, NM, 87505","Match","Non_Exact","223 N DOUBLE ARROW RD, SANTA FE, NM, 87505",169420286,"L"
363954,"223 E 14TH ST","CONNERSVILLE","IN",47331,39.6492932350001,-85.130536074,454,"223 E 14TH ST, CONNERSVILLE, IN, 47331","Match","Exact","223 E 14TH ST, CONNERSVILLE, IN, 47331",606869835,"L"
363955,"223 E 17TH ST","LOCKPORT","IL",60441,41.580571589,-88.059576437,455,"223 E 17TH ST, LOCKPORT, IL, 60441","Match","Exact","223 E 17TH ST, LOCKPORT, IL, 60441",111545021,"R"
363956,"223 E 2ND STREET APT 4","TIFTON","GA",31794,NA,NA,456,"223 E 2ND STREET APT 4, TIFTON, GA, 31794","Tie",NA,NA,NA,NA
363957,"223 E 4TH STREET STE 15","PORT ANGELES","WA",98362,NA,NA,457,"223 E 4TH STREET STE 15, PORT ANGELES, WA, 98362","Tie",NA,NA,NA,NA
363958,"223 E 51ST STREET","SAN BERNARDINO","CA",NA,34.174926896,-117.282258219,458,"223 E 51ST STREET, SAN BERNARDINO, CA, ","Match","Exact","223 E 51ST ST, SAN BERNARDINO, CA, 92404",144653931,"R"
363959,"223 E 6TH","MOSCOW","ID",83843,46.7301561790001,-116.999169625,459,"223 E 6TH, MOSCOW, ID, 83843","Match","Non_Exact","223 E 6TH ST, MOSCOW, ID, 83843",625198283,"R"
363960,"223 E 80TH ST APT 6","NEW YORK","NY",10075,40.774579208,-73.955863248,460,"223 E 80TH ST APT 6, NEW YORK, NY, 10075","Match","Non_Exact","223 E 80TH ST, NEW YORK, NY, 10075",652208206,"L"
363961,"223 E 900 S","LAYTON","UT",84041,41.0519246470001,-111.963948569,461,"223 E 900 S, LAYTON, UT, 84041","Match","Exact","223 E 900 S, LAYTON, UT, 84041",229351746,"L"
363962,"223 E ALLEN ST","PHILADELPHIA","PA",19125,39.96650241,-75.131593907,462,"223 E ALLEN ST, PHILADELPHIA, PA, 19125","Match","Exact","223 E ALLEN ST, PHILADELPHIA, PA, 19125",635468034,"L"
363963,"223 E BLOOMINGTON ST","IOWA CITY","IA",52245,41.6646785940001,-91.532651276,463,"223 E BLOOMINGTON ST, IOWA CITY, IA, 52245","Match","Exact","223 E BLOOMINGTON ST, IOWA CITY, IA, 52245",84495381,"R"
363964,"223 E ELM ST","RICH HILL","MO",64779,38.0933985510001,-94.367622819,464,"223 E ELM ST, RICH HILL, MO, 64779","Match","Exact","223 E ELM ST, RICH HILL, MO, 64779",44785653,"L"
363965,"223 E FALCON HILL WAY","GREEN BAY","WI",54302,44.500078811,-87.945082417,465,"223 E FALCON HILL WAY, GREEN BAY, WI, 54302","Match","Exact","223 FALCON HILL WAY, GREEN BAY, WI, 54302",148112894,"L"
363966,"223 E FOREST AVE","COALINGA","CA",93210,36.14037925,-120.357968314,466,"223 E FOREST AVE, COALINGA, CA, 93210","Match","Exact","223 E FOREST AVE, COALINGA, CA, 93210",197533490,"L"
363967,"223 E HOFFMAN AVE","KINGSVILLE","TX",78363,27.505661429,-97.8670941189999,467,"223 E HOFFMAN AVE, KINGSVILLE, TX, 78363","Match","Exact","223 E HOFFMAN AVE, KINGSVILLE, TX, 78363",72102079,"R"
363968,"223 E MARKET STREET","JOHNSON CITY","TN",37601,36.3184141770001,-82.349403459,468,"223 E MARKET STREET, JOHNSON CITY, TN, 37601","Match","Exact","223 E MARKET ST, JOHNSON CITY, TN, 37601",127924522,"L"
363969,"223 E NEW ST","LANCASTER","PA",17602,40.049431229,-76.3021495529999,469,"223 E NEW ST, LANCASTER, PA, 17602","Match","Exact","223 E NEW ST, LANCASTER, PA, 17602",179662728,"L"
363970,"223 E ROCKWOOD BLVD","SPOKANE","WA",99224,47.6457724700001,-117.407076641,470,"223 E ROCKWOOD BLVD, SPOKANE, WA, 99224","Match","Non_Exact","223 E ROCKWOOD BLVD, SPOKANE, WA, 99202",617149473,"L"
363971,"223 E SECTIONLINE RD","LAURNS","IA",50554,42.8498419430001,-94.846952943,471,"223 E SECTIONLINE RD, LAURNS, IA, 50554","Match","Non_Exact","223 E SECTION LINE RD, LAURENS, IA, 50554",77473035,"R"
363972,"223 E THOUSAND OAKS BLVD 313","THOUSAND OAKS","CA",91360,34.1792695070001,-118.873861649,472,"223 E THOUSAND OAKS BLVD 313, THOUSAND OAKS, CA, 91360","Match","Non_Exact","223 E THOUSAND OAKS BLVD, THOUSAND OAKS, CA, 91360",110122485,"L"
363973,"223 E WATER ST APT 3","OAK HARBOR","OH",43449,NA,NA,473,"223 E WATER ST APT 3, OAK HARBOR, OH, 43449","Tie",NA,NA,NA,NA
363974,"223 EAGLE CIRCLE","ELYRIA","OH",44035,41.3957886900001,-82.1211497479999,474,"223 EAGLE CIRCLE, ELYRIA, OH, 44035","Match","Exact","223 EAGLE CIR, ELYRIA, OH, 44035",55408550,"R"
363975,"223 EAST 30TH ST","KEARNEY","NE",68847,40.7054067760001,-99.078416913,475,"223 EAST 30TH ST, KEARNEY, NE, 68847","Match","Exact","223 E 30TH ST, KEARNEY, NE, 68847",137870767,"R"
363976,"223 EAST 61ST STREET APARTMENT 5A","NEW YORK","NY",10065,40.7625577220001,-73.9650615049999,476,"223 EAST 61ST STREET APARTMENT 5A, NEW YORK, NY, 10065","Match","Exact","223 E 61ST ST, NEW YORK, NY, 10065",59657478,"L"
363977,"223 EAST 61ST STREET APT 2C","NEW YORK","NY",10065,40.7625577220001,-73.9650615049999,477,"223 EAST 61ST STREET APT 2C, NEW YORK, NY, 10065","Match","Exact","223 E 61ST ST, NEW YORK, NY, 10065",59657478,"L"
363978,"223 EAST 95TH ST","BROOKLYN","NY",11212,40.660767251,-73.922595147,478,"223 EAST 95TH ST, BROOKLYN, NY, 11212","Match","Exact","223 E 95TH ST, BROOKLYN, NY, 11212",59083609,"L"
363979,"223 EAST ENID DRIVE","KEY BISCAYNE","FL",33149,25.6892130900001,-80.1616313339999,479,"223 EAST ENID DRIVE, KEY BISCAYNE, FL, 33149","Match","Exact","223 E ENID DR, KEY BISCAYNE, FL, 33149",116021397,"L"
363980,"223 EAST FLAGLER ST 502A","MIAMI","FL",33131,25.7742575130001,-80.189923591,480,"223 EAST FLAGLER ST 502A, MIAMI, FL, 33131","Match","Exact","223 E FLAGLER ST, MIAMI, FL, 33131",116018768,"L"
363981,"223 EAST FLAGLER STREET 502A","MIAMI","FL",33131,25.7742575130001,-80.189923591,481,"223 EAST FLAGLER STREET 502A, MIAMI, FL, 33131","Match","Exact","223 E FLAGLER ST, MIAMI, FL, 33131",116018768,"L"
363982,"223 EAST LYTLE STREET APT 3","MURFREESBORO","TN",37130,35.847937975,-86.38952541,482,"223 EAST LYTLE STREET APT 3, MURFREESBORO, TN, 37130","Match","Exact","223 E LYTLE ST, MURFREESBORO, TN, 37130",59013935,"R"
363983,"223 EAST MAIN STREET","MARSHVILLE","NC",28103,34.9873172490001,-80.3664216729999,483,"223 EAST MAIN STREET, MARSHVILLE, NC, 28103","Match","Exact","223 E MAIN ST, MARSHVILLE, NC, 28103",14177880,"L"
363984,"223 EAST MOUNT PLEASANT AVE","LIVINGSTON","NJ",7039,40.7975989500001,-74.303387834,484,"223 EAST MOUNT PLEASANT AVE, LIVINGSTON, NJ, 7039","Match","Exact","223 E MOUNT PLEASANT AVE, LIVINGSTON, NJ, 07039",63458595,"L"
363985,"223 EAST MYRTLE DRIVE","MIDWEST CITY","OK",73110,35.447896314,-97.399559246,485,"223 EAST MYRTLE DRIVE, MIDWEST CITY, OK, 73110","Match","Exact","223 E MYRTLE DR, MIDWEST CITY, OK, 73110",100414726,"L"
363986,"223 EAST NORTH STREET APT 3","KALAMAZOO","MI",49007,42.2979433850001,-85.581270385,486,"223 EAST NORTH STREET APT 3, KALAMAZOO, MI, 49007","Match","Exact","223 E NORTH ST, KALAMAZOO, MI, 49007",12227444,"L"
363987,"223 EAST SECOND STREET","CHILLICOTHE","MO",64601,39.7890606820001,-93.540642509,487,"223 EAST SECOND STREET, CHILLICOTHE, MO, 64601","Match","Exact","223 E 2ND ST, CHILLICOTHE, MO, 64601",18107338,"L"
363988,"223 EAST SPRING STREET","NEW ALBANY","IN",47150,38.2864621150001,-85.8217024959999,488,"223 EAST SPRING STREET, NEW ALBANY, IN, 47150","Match","Exact","223 E SPRING ST, NEW ALBANY, IN, 47150",89546993,"L"
363989,"223 EASTWOOD STREET","DEER PARK","NY",11729,40.772938631,-73.3227800729999,489,"223 EASTWOOD STREET, DEER PARK, NY, 11729","Match","Non_Exact","223 EASTWOOD AVE, DEER PARK, NY, 11729",113970164,"R"
363990,"223 EDGE WATER DRIVE","BRUNSWICK","GA",31525,31.2583153160001,-81.4942253469999,490,"223 EDGE WATER DRIVE, BRUNSWICK, GA, 31525","Match","Exact","223 EDGE WATER DR, BRUNSWICK, GA, 31525",636324796,"L"
363991,"223 EGREMONT PLAIN RD PMB 566","GT BARRINGTON","MA",1230,42.198362638,-73.438248528,491,"223 EGREMONT PLAIN RD PMB 566, GT BARRINGTON, MA, 1230","Match","Exact","223 EGREMONT PLAIN RD, GREAT BARRINGTON, MA, 01230",3941146,"L"
363992,"223 ELECTION HOUSE HILL RD","HUGHESVILLE","PA",17737,41.2776711180001,-76.6464003259999,492,"223 ELECTION HOUSE HILL RD, HUGHESVILLE, PA, 17737","Match","Exact","223 ELECTION HOUSE HILL RD, HUGHESVILLE, PA, 17737",59434819,"R"
363993,"223 ELLERBE GROVE RD","ROCKINGHAM","NC",28379,34.9594401370001,-79.786358636,493,"223 ELLERBE GROVE RD, ROCKINGHAM, NC, 28379","Match","Non_Exact","223 ELLERBE RD, ROCKINGHAM, NC, 28379",600315556,"L"
363994,"223 ELM CT","BURR RIDGE","IL",60527,41.77252753,-87.9216408789999,494,"223 ELM CT, BURR RIDGE, IL, 60527","Match","Exact","223 ELM CT, BURR RIDGE, IL, 60527",112682223,"L"
363995,"223 ELM DRIVE","COLEMAN","WI",54112,45.0633174390001,-88.038750136,495,"223 ELM DRIVE, COLEMAN, WI, 54112","Match","Exact","223 ELM DR, COLEMAN, WI, 54112",169989739,"R"
363996,"223 ELMER AVE BOX 58","READLYN","IA",50668,42.701897457,-92.2212617009999,496,"223 ELMER AVE BOX 58, READLYN, IA, 50668","Match","Exact","223 ELMER AVE, READLYN, IA, 50668",77365318,"L"
363997,"223 EVERGREEN LANE","MIDDLEBURG","FL",32068,30.1120664910001,-81.786791143,497,"223 EVERGREEN LANE, MIDDLEBURG, FL, 32068","Match","Exact","223 EVERGREEN LN, MIDDLEBURG, FL, 32068",83813619,"R"
363998,"223 FAIRFIELD STATION RD","FAIRFIELD","PA",17325,39.791026351,-77.3802123629999,498,"223 FAIRFIELD STATION RD, FAIRFIELD, PA, 17325","Match","Non_Exact","223 FAIRFIELD STATION RD, FAIRFIELD, PA, 17320",60861860,"R"
363999,"223 FAIRWAY DR","CAMPBELLSVILLE","KY",42718,37.363019616,-85.379544789,499,"223 FAIRWAY DR, CAMPBELLSVILLE, KY, 42718","Match","Exact","223 FAIRWAY DR, CAMPBELLSVILLE, KY, 42718",35252308,"R"
364000,"223 FAIRWAY DR","CAMPBELLSVILLE","LA",42718,NA,NA,500,"223 FAIRWAY DR, CAMPBELLSVILLE, LA, 42718","No_Match",NA,NA,NA,NA
