"ID","Address","City","State","Zip","lat","long","id","input_address","match_indicator","match_type","matched_address","tiger_line_id","tiger_side"
440001,"274 WASHINGTON STREET","QUINCY","MA",2169,42.2495346790001,-70.9913385039999,1,"274 WASHINGTON STREET, QUINCY, MA, 2169","Match","Exact","274 WASHINGTON ST, QUINCY, MA, 02169",87250040,"L"
440002,"274 WEST COMO AVENUE","COLUMBUS","OH",43202,40.029021621,-83.0228552459999,2,"274 WEST COMO AVENUE, COLUMBUS, OH, 43202","Match","Exact","274 W COMO AVE, COLUMBUS, OH, 43202",218682911,"R"
440003,"274 WEST SURRY RD","KEENE","NH",3431,42.982401743,-72.313988662,3,"274 WEST SURRY RD, KEENE, NH, 3431","Match","Exact","274 W SURRY RD, KEENE, NH, 03431",124085223,"L"
440004,"274 WEST WATER STREET","FLEMINGSBURG","KY",41041,38.426322688,-83.738118576,4,"274 WEST WATER STREET, FLEMINGSBURG, KY, 41041","Match","Exact","274 W WATER ST, FLEMINGSBURG, KY, 41041",54408233,"R"
440005,"274 WILLOUGHBY AVENUE    APT  BQ","BROOKLYN","NY",11205,40.6924963270001,-73.9601014199999,5,"274 WILLOUGHBY AVENUE    APT  BQ, BROOKLYN, NY, 11205","Match","Exact","274 WILLOUGHBY AVE, BROOKLYN, NY, 11205",59077917,"R"
440006,"274 WILSHIRE BLVD SUITE 257","CASSELBERRY","FL",32707,28.649446991,-81.3305087369999,6,"274 WILSHIRE BLVD SUITE 257, CASSELBERRY, FL, 32707","Match","Exact","274 WILSHIRE BLVD, CASSELBERRY, FL, 32707",647548002,"L"
440007,"274 WINTERSWEET WAY","SHARPSBURG","GA",30277,33.4810546740001,-84.636294191,7,"274 WINTERSWEET WAY, SHARPSBURG, GA, 30277","Match","Exact","274 WINTERSWEET WAY, SHARPSBURG, GA, 30277",618998047,"L"
440008,"274 WOLTZ AVE","BUFFALO","NY",14211,42.9007074530001,-78.835526725,8,"274 WOLTZ AVE, BUFFALO, NY, 14211","Match","Exact","274 WOLTZ AVE, BUFFALO, NY, 14211",48300326,"L"
440009,"274 YEARLING TRACE","PLEASANT VIEW","TN",37146,36.3996263000001,-87.0649100269999,9,"274 YEARLING TRACE, PLEASANT VIEW, TN, 37146","Match","Non_Exact","274 YEARLING TRL, PLEASANT VIEW, TN, 37146",608451600,"R"
440010,"274","ST. ANSGAR","IA",50472,NA,NA,10,"274, ST. ANSGAR, IA, 50472","No_Match",NA,NA,NA,NA
440011,"2740 38TH AVENUE","SAN FRANCISCO","CA",94116,37.735778526,-122.49559676,11,"2740 38TH AVENUE, SAN FRANCISCO, CA, 94116","Match","Exact","2740 38TH AVE, SAN FRANCISCO, CA, 94116",192277946,"L"
440012,"2740 68TH AVE","OAKLAND","CA",94605,37.7679578130001,-122.181161682,12,"2740 68TH AVE, OAKLAND, CA, 94605","Match","Exact","2740 68TH AVE, OAKLAND, CA, 94605",125008726,"R"
440013,"2740 6TH ST CT NE","HICKORY","NC",28601,35.770997052,-81.3170367399999,13,"2740 6TH ST CT NE, HICKORY, NC, 28601","Match","Exact","2740 6TH STREET CT NE, HICKORY, NC, 28601",45944984,"L"
440014,"2740 AXE FACTORY ROAD APT 206C","PHILADELPHIA","PA",19152,NA,NA,14,"2740 AXE FACTORY ROAD APT 206C, PHILADELPHIA, PA, 19152","No_Match",NA,NA,NA,NA
440015,"2740 BAYOU DES CANNES DRIVE","MARRERO","LA",70072,29.82506713,-90.104026716,15,"2740 BAYOU DES CANNES DRIVE, MARRERO, LA, 70072","Match","Exact","2740 BAYOU DES CANNES DR, MARRERO, LA, 70072",631947162,"R"
440016,"2740 BERRY ROAD","MABEN","MS",39750,33.6160958620001,-89.0325144619999,16,"2740 BERRY ROAD, MABEN, MS, 39750","Match","Exact","2740 BERRY RD, MABEN, MS, 39750",77053624,"R"
440017,"2740 BOURN RD","ALEXANDER","IL",62601,39.8145623230001,-90.092477359,17,"2740 BOURN RD, ALEXANDER, IL, 62601","Match","Exact","2740 BOURN RD, ALEXANDER, IL, 62601",81439149,"L"
440018,"2740 BUTCH CASSIDY COURT","PARK CITY","NY",84060,NA,NA,18,"2740 BUTCH CASSIDY COURT, PARK CITY, NY, 84060","No_Match",NA,NA,NA,NA
440019,"2740 CAROLINA AVE","REDWOOD CITY","CA",94061,37.452533143,-122.233349909,19,"2740 CAROLINA AVE, REDWOOD CITY, CA, 94061","Match","Exact","2740 CAROLINA AVE, REDWOOD CITY, CA, 94061",192362843,"R"
440020,"2740 CARTER LANE","LOGANVILLE","GA",30052,33.816936717,-83.8349355139999,20,"2740 CARTER LANE, LOGANVILLE, GA, 30052","Match","Exact","2740 CARTER LN, LOGANVILLE, GA, 30052",77621985,"R"
440021,"2740 CASCADE CIRCLE","FAIRFIELD","CA",94533,38.2775831860001,-121.967376827,21,"2740 CASCADE CIRCLE, FAIRFIELD, CA, 94533","Match","Non_Exact","2740 CASCADE LN, FAIRFIELD, CA, 94533",649682280,"R"
440022,"2740 CHURCHILL DRIVE","HILLSBOROUGH","CA",94010,37.5702590990001,-122.382329308,22,"2740 CHURCHILL DRIVE, HILLSBOROUGH, CA, 94010","Match","Exact","2740 CHURCHILL DR, HILLSBOROUGH, CA, 94010",192411406,"L"
440023,"2740 CLARKES LANDING DRIVE","OAKTON","VA",22124,38.901064508,-77.336298072,23,"2740 CLARKES LANDING DRIVE, OAKTON, VA, 22124","Match","Exact","2740 CLARKES LANDING DR, OAKTON, VA, 22124",75965744,"R"
440024,"2740 CLAY ST","HOUSTON","TX",77003,29.7449581720001,-95.352363743,24,"2740 CLAY ST, HOUSTON, TX, 77003","Match","Exact","2740 CLAY ST, HOUSTON, TX, 77003",96072901,"R"
440025,"2740 CLUB HOUSE DRIVE","GERING","NE",69341,41.8398908780001,-103.682239315,25,"2740 CLUB HOUSE DRIVE, GERING, NE, 69341","Match","Non_Exact","2740 CLUBHOUSE DR, GERING, NE, 69341",160057937,"L"
440026,"2740 COLLEGE HEIGHTS RD","PRESCOTT","AZ",86301,34.59003718,-112.466700636,26,"2740 COLLEGE HEIGHTS RD, PRESCOTT, AZ, 86301","Match","Exact","2740 COLLEGE HEIGHTS RD, PRESCOTT, AZ, 86301",159507932,"R"
440027,"2740 COLUMBUS STREET","OTTAWA","IL",61350,41.368919615,-88.835611936,27,"2740 COLUMBUS STREET, OTTAWA, IL, 61350","Match","Exact","2740 COLUMBUS ST, OTTAWA, IL, 61350",638702768,"R"
440028,"2740 CORINNE DR","MARRERO","LA",70072,29.833088011,-90.108732013,28,"2740 CORINNE DR, MARRERO, LA, 70072","Match","Exact","2740 CORINNE DR, MARRERO, LA, 70072",93510037,"R"
440029,"2740 CRADLEROCK","AUSTIN","TX",78748,30.1530064290001,-97.853312284,29,"2740 CRADLEROCK, AUSTIN, TX, 78748","Match","Non_Exact","2740 CRADLEROCK TER, AUSTIN, TX, 78748",63994759,"R"
440030,"2740 CREEK MEADOWS PL APT 108","FAYETTEVILLE","NC",28304,35.0122820010001,-78.981406813,30,"2740 CREEK MEADOWS PL APT 108, FAYETTEVILLE, NC, 28304","Match","Exact","2740 CREEK MEADOWS PL, FAYETTEVILLE, NC, 28304",646513910,"L"
440031,"2740 CROPSEY AVE APT 13A","BROOKLYN","NY",11214,40.5873026140001,-73.9890627509999,31,"2740 CROPSEY AVE APT 13A, BROOKLYN, NY, 11214","Match","Exact","2740 CROPSEY AVE, BROOKLYN, NY, 11214",59089036,"R"
440032,"2740 DE LA BRANDAIS COURT","PINOLE","CA",94564,37.9901100650001,-122.267160734,32,"2740 DE LA BRANDAIS COURT, PINOLE, CA, 94564","Match","Non_Exact","2740 DE LA BRIANDAIS CT, PINOLE, CA, 94564",192094278,"L"
440033,"2740 DERBY STREET","BERKELEY","CA",94705,37.8622181220001,-122.252107785,33,"2740 DERBY STREET, BERKELEY, CA, 94705","Match","Exact","2740 DERBY ST, BERKELEY, CA, 94705",124998561,"R"
440034,"2740 DOMINION AVENUE","NORFOLK","VA",23518,36.9183849720001,-76.208500535,34,"2740 DOMINION AVENUE, NORFOLK, VA, 23518","Match","Exact","2740 DOMINION AVE, NORFOLK, VA, 23518",122141462,"L"
440035,"2740 E 2ND STREET NORTH","WICHITA","KS",67214,37.690045205,-97.303203305,35,"2740 E 2ND STREET NORTH, WICHITA, KS, 67214","Match","Exact","2740 E 2ND ST N, WICHITA, KS, 67214",115637931,"L"
440036,"2740 E COLLEGE AVENUE UNIT 414","DECATUR","GA",30030,33.7749224230001,-84.2776306539999,36,"2740 E COLLEGE AVENUE UNIT 414, DECATUR, GA, 30030","Match","Non_Exact","2740 E COLLEGE AVE, DECATUR, GA, 30030",23367380,"L"
440037,"2740 E CORONA AVE","PHOENIX","AZ",85040,33.4060484020001,-112.022073979,37,"2740 E CORONA AVE, PHOENIX, AZ, 85040","Match","Exact","2740 E CORONA AVE, PHOENIX, AZ, 85040",128224396,"L"
440038,"2740 EAST RIVER ROAD","BAINBRIDGE","GA",39817,30.9810749100001,-84.528491075,38,"2740 EAST RIVER ROAD, BAINBRIDGE, GA, 39817","Match","Exact","2740 E RIVER RD, BAINBRIDGE, GA, 39817",639860594,"R"
440039,"2740 ELIZABETH PLACE","LAKELAND","FL",33812,27.9729280990001,-81.913136188,39,"2740 ELIZABETH PLACE, LAKELAND, FL, 33812","Match","Exact","2740 ELIZABETH PL, LAKELAND, FL, 33812",104925383,"R"
440040,"2740 ELKHORN CT","CUMMING","GA",30041,34.1226751840001,-84.181897965,40,"2740 ELKHORN CT, CUMMING, GA, 30041","Match","Exact","2740 ELKHORN CT, CUMMING, GA, 30041",637433255,"R"
440041,"2740 ELVYRA WAY APT 35","SACRAMENTO","CA",95826,38.6129246880001,-121.397924778,41,"2740 ELVYRA WAY APT 35, SACRAMENTO, CA, 95826","Match","Non_Exact","2740 ELVYRA WAY, SACRAMENTO, CA, 95821",133331181,"R"
440042,"2740 ENGLISH RD","PACIFIC","MO",63069,38.464285008,-90.72564354,42,"2740 ENGLISH RD, PACIFIC, MO, 63069","Match","Exact","2740 ENGLISH RD, PACIFIC, MO, 63069",607829144,"R"
440043,"2740 ESSEX RD","PIERRE","SD",57501,44.406058667,-100.306430994,43,"2740 ESSEX RD, PIERRE, SD, 57501","Match","Exact","2740 ESSEX RD, PIERRE, SD, 57501",200332804,"R"
440044,"2740 EVERGREEN LN","EAST CHICAGO","IN",46312,41.6375943910001,-87.4382221279999,44,"2740 EVERGREEN LN, EAST CHICAGO, IN, 46312","Match","Exact","2740 EVERGREEN LN, EAST CHICAGO, IN, 46312",98440757,"L"
440045,"2740 FM 2238","SCHULENBURG","TX",78956,29.7185162870001,-97.00717006,45,"2740 FM 2238, SCHULENBURG, TX, 78956","Match","Exact","2740 FM 2238, SCHULENBURG, TX, 78956",42009601,"L"
440046,"2740 FOREST CLOSE DRIVE","DULUTH","GA",30097,34.002601907,-84.088859295,46,"2740 FOREST CLOSE DRIVE, DULUTH, GA, 30097","Match","Exact","2740 FOREST CLOSE DR, DULUTH, GA, 30097",88931864,"L"
440047,"2740 GEORGIA AVENUE S","ST LOUIS PARK","MN",55426,44.95418906,-93.36453527,47,"2740 GEORGIA AVENUE S, ST LOUIS PARK, MN, 55426","Match","Exact","2740 GEORGIA AVE S, SAINT LOUIS PARK, MN, 55426",43619605,"R"
440048,"2740 GLADDICE HWY","WHITLEYVILLE","TN",38588,36.359202569,-85.746457671,48,"2740 GLADDICE HWY, WHITLEYVILLE, TN, 38588","Match","Exact","2740 GLADDICE HWY, WHITLEYVILLE, TN, 38588",643290954,"R"
440049,"2740 GREEN ASH LOOP APT 107","WOODBRIDGE","VA",22192,38.6594390020001,-77.2943701409999,49,"2740 GREEN ASH LOOP APT 107, WOODBRIDGE, VA, 22192","Match","Exact","2740 GREEN ASH LOOP, WOODBRIDGE, VA, 22192",634573682,"R"
440050,"2740 HILLCREST AVENUE","TITUSVILLLE","FL",32796,28.604941076,-80.837234859,50,"2740 HILLCREST AVENUE, TITUSVILLLE, FL, 32796","Match","Non_Exact","2740 HILLCREST AVE, TITUSVILLE, FL, 32796",93954524,"R"
440051,"2740 INDIGO LNDG RD","SCRANTON","SC",29591,NA,NA,51,"2740 INDIGO LNDG RD, SCRANTON, SC, 29591","No_Match",NA,NA,NA,NA
440052,"2740 JASMINE","NEW ORLEANS","LA",70122,30.001075068,-90.0469306589999,52,"2740 JASMINE, NEW ORLEANS, LA, 70122","Match","Non_Exact","2740 JASMINE ST, NEW ORLEANS, LA, 70122",191715794,"R"
440053,"2740 KIMBERLEY DRIVE","LIMA","OH",45807,40.7769557330001,-84.1344501419999,53,"2740 KIMBERLEY DRIVE, LIMA, OH, 45807","Match","Non_Exact","2740 KIMBERLY DR, LIMA, OH, 45807",35574798,"L"
440054,"2740 LAUREL VALLEY LANE","ARLINGTON","TX",76006,32.780658486,-97.087709573,54,"2740 LAUREL VALLEY LANE, ARLINGTON, TX, 76006","Match","Exact","2740 LAUREL VALLEY LN, ARLINGTON, TX, 76006",101873687,"L"
440055,"2740 LE HOMME DIEU HEIGHTS","ALEXANDRIA","MN",56308,NA,NA,55,"2740 LE HOMME DIEU HEIGHTS, ALEXANDRIA, MN, 56308","No_Match",NA,NA,NA,NA
440056,"2740 LEEDS LANE","CHARLOTTESVILLE","VA",22901,38.0597048750001,-78.594528569,56,"2740 LEEDS LANE, CHARLOTTESVILLE, VA, 22901","Match","Exact","2740 LEEDS LN, CHARLOTTESVILLE, VA, 22901",83401518,"L"
440057,"2740 MAEGEN CIRCLE","FORT WORTH","TX",76112,32.7402712640001,-97.1839019989999,57,"2740 MAEGEN CIRCLE, FORT WORTH, TX, 76112","Match","Exact","2740 MAEGEN CIR, FORT WORTH, TX, 76112",637604332,"R"
440058,"2740 MAITLAND CROSSING WAY APT 2301","ORLANDO","FL",32810,28.6381776750001,-81.411896693,58,"2740 MAITLAND CROSSING WAY APT 2301, ORLANDO, FL, 32810","Match","Exact","2740 MAITLAND CROSSING WAY, ORLANDO, FL, 32810",647054043,"L"
440059,"2740 MARION ROAD","JACKSON","MI",49201,42.1822319830001,-84.388338516,59,"2740 MARION ROAD, JACKSON, MI, 49201","Match","Exact","2740 MARION RD, JACKSON, MI, 49201",652791876,"L"
440060,"2740 MEDICINE RIDGE RD","PLYMOUTH","MN",55441,45.009866431,-93.4111833969999,60,"2740 MEDICINE RIDGE RD, PLYMOUTH, MN, 55441","Match","Exact","2740 MEDICINE RIDGE RD, PLYMOUTH, MN, 55441",43823990,"L"
440061,"2740 MINNEHAHA AVE STE 130-7","MINNEAPOLIS","MN",55406,44.9522853600001,-93.2363039909999,61,"2740 MINNEHAHA AVE STE 130-7, MINNEAPOLIS, MN, 55406","Match","Exact","2740 MINNEHAHA AVE, MINNEAPOLIS, MN, 55406",43850645,"R"
440062,"2740 MOUNTAINVIEW DR","WACO","TX",76710,31.5439877860001,-97.211480219,62,"2740 MOUNTAINVIEW DR, WACO, TX, 76710","Match","Exact","2740 MOUNTAINVIEW DR, WACO, TX, 76710",146732406,"L"
440063,"2740 N 75TH TERRACE","KANSAS CITY","KS",66109,39.1370968690001,-94.753595536,63,"2740 N 75TH TERRACE, KANSAS CITY, KS, 66109","Match","Exact","2740 N 75TH TER, KANSAS CITY, KS, 66109",640445081,"L"
440064,"2740 N MAYFAIR AVE SUITE I260","SPRINGFIELD","MO",65803,37.2456066460001,-93.2290904709999,64,"2740 N MAYFAIR AVE SUITE I260, SPRINGFIELD, MO, 65803","Match","Non_Exact","2740 N MAYFAIR AVE, SPRINGFIELD, MO, 65803",605862934,"R"
440065,"2740 N WILLIAMS LAKE RD","WATERFORD","MI",48329,NA,NA,65,"2740 N WILLIAMS LAKE RD, WATERFORD, MI, 48329","No_Match",NA,NA,NA,NA
440066,"2740 NATHAN TIMOTHY CT","DACULA","GA",30019,33.969837538,-83.875037428,66,"2740 NATHAN TIMOTHY CT, DACULA, GA, 30019","Match","Exact","2740 NATHAN TIMOTHY CT, DACULA, GA, 30019",627724389,"R"
440067,"2740 NE 143RD PL","SEATTLE","WA",98125,47.7327189380001,-122.297634575,67,"2740 NE 143RD PL, SEATTLE, WA, 98125","Match","Exact","2740 NE 143RD PL, SEATTLE, WA, 98125",186576425,"L"
440068,"2740 NE 143RD PLACE","SEATTLE","WA",98125,47.7327189380001,-122.297634575,68,"2740 NE 143RD PLACE, SEATTLE, WA, 98125","Match","Exact","2740 NE 143RD PL, SEATTLE, WA, 98125",186576425,"L"
440069,"2740 NE 23RD STREET","POMPANO BEACH","FL",33062,26.259086032,-80.094571209,69,"2740 NE 23RD STREET, POMPANO BEACH, FL, 33062","Match","Non_Exact","2740 NE 23RD ST, POMPANO BEACH, FL, 33062",114744784,"R"
440070,"2740 NORTH CROSSKEY STREET","PHILADELPHIA","PA",19132,39.996365585,-75.167998315,70,"2740 NORTH CROSSKEY STREET, PHILADELPHIA, PA, 19132","Match","Non_Exact","2740 N CROSKEY ST, PHILADELPHIA, PA, 19132",131402730,"L"
440071,"2740 NW 15TH ST","FORT LAUDERDALE","FL",33311,NA,NA,71,"2740 NW 15TH ST, FORT LAUDERDALE, FL, 33311","No_Match",NA,NA,NA,NA
440072,"2740 NW 168TH TERRACE","MIAMI GARDENS","GA",33056,NA,NA,72,"2740 NW 168TH TERRACE, MIAMI GARDENS, GA, 33056","No_Match",NA,NA,NA,NA
440073,"2740 NW 175TH STREET","MIAMI GARDENS","FL",33056,25.9336118910001,-80.246678271,73,"2740 NW 175TH STREET, MIAMI GARDENS, FL, 33056","Match","Exact","2740 NW 175TH ST, MIAMI GARDENS, FL, 33056",116027809,"L"
440074,"2740 NW 209TH TER","MIAMI GARDENS","FL",33056,25.9667787830001,-80.247886222,74,"2740 NW 209TH TER, MIAMI GARDENS, FL, 33056","Match","Exact","2740 NW 209TH TER, MIAMI GARDENS, FL, 33056",116026047,"L"
440075,"2740 PAINT DRIVE","AUBURN","CA",95603,38.9333722380001,-121.110175346,75,"2740 PAINT DRIVE, AUBURN, CA, 95603","Match","Exact","2740 PAINT DR, AUBURN, CA, 95603",624909354,"R"
440076,"2740 PLEASANT VIEW DRIVE","DUBUQUE","IA",52001,42.5205815840001,-90.6787792489999,76,"2740 PLEASANT VIEW DRIVE, DUBUQUE, IA, 52001","Match","Exact","2740 PLEASANT VIEW DR, DUBUQUE, IA, 52001",16921459,"R"
440077,"2740 PONCE DE LEON","GRAND PRAIRIE","TX",75054,32.5888761950001,-97.0401161199999,77,"2740 PONCE DE LEON, GRAND PRAIRIE, TX, 75054","Match","Exact","2740 PONCE DE LEON, GRAND PRAIRIE, TX, 75054",617672067,"R"
440078,"2740 R ST APT 2","LINCOLN","NE",68503,40.8171034860001,-96.681715051,78,"2740 R ST APT 2, LINCOLN, NE, 68503","Match","Exact","2740 R ST, LINCOLN, NE, 68503",28292872,"L"
440079,"2740 R STREET  APT 2","LINCOLN","NE",68503,NA,NA,79,"2740 R STREET  APT 2, LINCOLN, NE, 68503","No_Match",NA,NA,NA,NA
440080,"2740 R STREET  APT 4","LINCOLN","NE",68503,NA,NA,80,"2740 R STREET  APT 4, LINCOLN, NE, 68503","No_Match",NA,NA,NA,NA
440081,"2740 R STREET A 4","LINCOLN","NE",68503,NA,NA,81,"2740 R STREET A 4, LINCOLN, NE, 68503","No_Match",NA,NA,NA,NA
440082,"2740 RTE 106","READING","VT",5062,43.4788133710001,-72.5449171929999,82,"2740 RTE 106, READING, VT, 5062","Match","Non_Exact","2740 STATE RTE 106, READING, VT, 05062",641173696,"R"
440083,"2740 S HUMBOLDT ST","DENVER","CO",80210,39.666899152,-104.969964653,83,"2740 S HUMBOLDT ST, DENVER, CO, 80210","Match","Exact","2740 S HUMBOLDT ST, DENVER, CO, 80210",177334063,"L"
440084,"2740 S KITLEY AVE","INDIANAPOLIS","IN",46203,39.728888838,-86.054751235,84,"2740 S KITLEY AVE, INDIANAPOLIS, IN, 46203","Match","Exact","2740 S KITLEY AVE, INDIANAPOLIS, IN, 46203",108010415,"R"
440085,"2740 S SUNLAND DRIVE","CHANDLER","AZ",85286,33.266934764,-111.843968438,85,"2740 S SUNLAND DRIVE, CHANDLER, AZ, 85286","Match","Exact","2740 S SUNLAND DR, CHANDLER, AZ, 85286",128805434,"L"
440086,"2740 SANTA ANA LANE","ROUND ROCK","TX",78665,30.552039366,-97.6213467749999,86,"2740 SANTA ANA LANE, ROUND ROCK, TX, 78665","Match","Exact","2740 SANTA ANA LN, ROUND ROCK, TX, 78665",641107539,"R"
440087,"2740 SEPULVEDA BLVD","TORRANCE","CA",90505,33.8228471520001,-118.33306648,87,"2740 SEPULVEDA BLVD, TORRANCE, CA, 90505","Match","Exact","2740 SEPULVEDA BLVD, TORRANCE, CA, 90505",142845262,"L"
440088,"2740 SEWANEE PLACE","MURFREESBORO","TN",37128,35.7973981870001,-86.414309539,88,"2740 SEWANEE PLACE, MURFREESBORO, TN, 37128","Match","Exact","2740 SEWANEE PL, MURFREESBORO, TN, 37128",606780916,"R"
440089,"2740 SHANNON DRIVE","SOUTH SAN FRANCISCO","CA",94080,37.6358081710001,-122.449231412,89,"2740 SHANNON DRIVE, SOUTH SAN FRANCISCO, CA, 94080","Match","Exact","2740 SHANNON DR, S SAN FRAN, CA, 94080",192371685,"R"
440090,"2740 SHIRLEY ST","EUGENE","OR",97404,44.104191385,-123.142445785,90,"2740 SHIRLEY ST, EUGENE, OR, 97404","Match","Exact","2740 SHIRLEY ST, EUGENE, OR, 97404",178163459,"L"
440091,"2740 SILVER CREEK DRIVE SUTIE 218","ARLINGTON","CA",76006,NA,NA,91,"2740 SILVER CREEK DRIVE SUTIE 218, ARLINGTON, CA, 76006","No_Match",NA,NA,NA,NA
440092,"2740 SLEEPY HOLLOW TRL","FRICSO","TX",75033,33.167931616,-96.867725324,92,"2740 SLEEPY HOLLOW TRL, FRICSO, TX, 75033","Match","Non_Exact","2740 SLEEPY HOLLOW TRL, FRISCO, TX, 75033",103412432,"L"
440093,"2740 SLEEPY HOLLOW TRL","FRISCO","TX",75033,33.167931616,-96.867725324,93,"2740 SLEEPY HOLLOW TRL, FRISCO, TX, 75033","Match","Exact","2740 SLEEPY HOLLOW TRL, FRISCO, TX, 75033",103412432,"L"
440094,"2740 SOUTH BROAD ST","HAMILTON","NJ",8610,40.191060566,-74.711700574,94,"2740 SOUTH BROAD ST, HAMILTON, NJ, 8610","Match","Exact","2740 S BROAD ST, HAMILTON, NJ, 08610",60183771,"L"
440095,"2740 SOUTH RD","POUGHKEEPSIE","NY",12601,41.676489937,-73.928360857,95,"2740 SOUTH RD, POUGHKEEPSIE, NY, 12601","Match","Exact","2740 SOUTH RD, POUGHKEEPSIE, NY, 12601",4218015,"L"
440096,"2740 STEVENS AVE","MINNEAPOLIS","MN",55408,44.9529751410001,-93.275367048,96,"2740 STEVENS AVE, MINNEAPOLIS, MN, 55408","Match","Non_Exact","2740 STEVENS AVE S, MINNEAPOLIS, MN, 55408",43632320,"R"
440097,"2740 SW 6TH COURT","FT LAUDERDALE","FL",33312,26.112953002,-80.178611243,97,"2740 SW 6TH COURT, FT LAUDERDALE, FL, 33312","Match","Exact","2740 SW 6TH CT, FORT LAUDERDALE, FL, 33312",114774739,"L"
440098,"2740 SW FAIRVIEW BLVD","PORTLAND","OR",97205,45.520487362,-122.708722557,98,"2740 SW FAIRVIEW BLVD, PORTLAND, OR, 97205","Match","Exact","2740 SW FAIRVIEW BLVD, PORTLAND, OR, 97205",157573053,"L"
440099,"2740 SW MARTIN DOWNS BLVD SUITE 171","PALM CITY","FL",34990,27.1724462650001,-80.2906626119999,99,"2740 SW MARTIN DOWNS BLVD SUITE 171, PALM CITY, FL, 34990","Match","Non_Exact","2740 SW MARTIN DOWNS BLVD, PALM CITY, FL, 34990",619595989,"L"
440100,"2740 SW MARTIN DOWNS BLVD UNIT 310","PALM CITY","FL",34990,27.1724462650001,-80.2906626119999,100,"2740 SW MARTIN DOWNS BLVD UNIT 310, PALM CITY, FL, 34990","Match","Non_Exact","2740 SW MARTIN DOWNS BLVD, PALM CITY, FL, 34990",619595989,"L"
440101,"2740 TIMBERLINE DRIVE","CORTLAND","OH",44410,41.2931450620001,-80.7536082079999,101,"2740 TIMBERLINE DRIVE, CORTLAND, OH, 44410","Match","Exact","2740 TIMBERLINE DR, CORTLAND, OH, 44410",642177135,"R"
440102,"2740 TOLWORTH AVE","ORLANDO","FL",32827,28.3817034080001,-81.419347328,102,"2740 TOLWORTH AVE, ORLANDO, FL, 32827","Match","Non_Exact","2740 TOLWORTH AVE, ORLANDO, FL, 32837",94338897,"R"
440103,"2740 UNION BOULEVARD","ISLIP","NY",11751,40.734179721,-73.209579601,103,"2740 UNION BOULEVARD, ISLIP, NY, 11751","Match","Exact","2740 UNION BLVD, ISLIP, NY, 11751",113997997,"R"
440104,"2740 VALLEY VIEW RD","BELLEFONTE","PA",16823,40.86832716,-77.884999696,104,"2740 VALLEY VIEW RD, BELLEFONTE, PA, 16823","Match","Exact","2740 VALLEY VIEW RD, BELLEFONTE, PA, 16823",647690193,"R"
440105,"2740 VASSAR PLACE","UPPER ARLINGTON","OH",43221,40.01348067,-83.05058027,105,"2740 VASSAR PLACE, UPPER ARLINGTON, OH, 43221","Match","Exact","2740 VASSAR PL, UPPER ARLINGTON, OH, 43221",135565487,"R"
440106,"2740 VIA VENADO","SANTA FE","NM",87505,35.6320046540001,-105.970727229,106,"2740 VIA VENADO, SANTA FE, NM, 87505","Match","Exact","2740 VIA VENADO, SANTA FE, NM, 87505",169399338,"R"
440107,"2740 W 85TH PL","CHICAGO","IL",60652,41.738559052,-87.690854104,107,"2740 W 85TH PL, CHICAGO, IL, 60652","Match","Exact","2740 W 85TH PL, CHICAGO, IL, 60652",111820299,"R"
440108,"2740 W ARMITAGE UNIT 307S","CHICAGO","IL",60647,NA,NA,108,"2740 W ARMITAGE UNIT 307S, CHICAGO, IL, 60647","No_Match",NA,NA,NA,NA
440109,"2740 WARBLER STREET","FEDERAL HEIGHTS","CO",80260,39.8715280800001,-105.017650631,109,"2740 WARBLER STREET, FEDERAL HEIGHTS, CO, 80260","Match","Exact","2740 WARBLER ST, FEDERAL HEIGHTS, CO, 80260",177294142,"L"
440110,"2740 WATERS EDGE DR","GRAND PRAIRIE","TX",75054,32.6045982580001,-97.0506267659999,110,"2740 WATERS EDGE DR, GRAND PRAIRIE, TX, 75054","Match","Exact","2740 WATERS EDGE DR, GRAND PRAIRIE, TX, 75054",618711819,"R"
440111,"2740 WATERS EDGE DRIVE","GRAND PRAIRIE","TX",75054,32.6045982580001,-97.0506267659999,111,"2740 WATERS EDGE DRIVE, GRAND PRAIRIE, TX, 75054","Match","Exact","2740 WATERS EDGE DR, GRAND PRAIRIE, TX, 75054",618711819,"R"
440112,"2740 WATERS EDGE","GRAND PRAIRIE","TX",75054,32.6045982580001,-97.0506267659999,112,"2740 WATERS EDGE, GRAND PRAIRIE, TX, 75054","Match","Non_Exact","2740 WATERS EDGE DR, GRAND PRAIRIE, TX, 75054",618711819,"R"
440113,"2740 WEST 36TH STREET","CHICAGO","IL",60632,41.8273851210001,-87.69306849,113,"2740 WEST 36TH STREET, CHICAGO, IL, 60632","Match","Non_Exact","2740 W 36TH PL, CHICAGO, IL, 60632",605589328,"R"
440114,"2740 WEST 5700 S","WELLSVILLE","UT",84339,41.629491547,-111.900272719,114,"2740 WEST 5700 S, WELLSVILLE, UT, 84339","Match","Exact","2740 W 5700 S, WELLSVILLE, UT, 84339",155107141,"L"
440115,"2740 WINDMILL DR","SUMTER","SC",29150,33.9425960620001,-80.409735919,115,"2740 WINDMILL DR, SUMTER, SC, 29150","Match","Exact","2740 WINDMILL DR, SUMTER, SC, 29150",202686296,"R"
440116,"2740 WRIGHT AVE","PINOLE","CA",94564,37.983523361,-122.252406874,116,"2740 WRIGHT AVE, PINOLE, CA, 94564","Match","Exact","2740 WRIGHT AVE, PINOLE, CA, 94564",192044610,"R"
440117,"2740 WYANDOT DRIVE","DOVER","OH",44622,40.5497291130001,-81.48598126,117,"2740 WYANDOT DRIVE, DOVER, OH, 44622","Match","Exact","2740 WYANDOT DR, DOVER, OH, 44622",44235612,"R"
440118,"2740 ZELDA ROAD SUITE 5B","MONTGOMERY","AL",36107,32.364049032,-86.268316537,118,"2740 ZELDA ROAD SUITE 5B, MONTGOMERY, AL, 36107","Match","Non_Exact","2740 ZELDA RD, MONTGOMERY, AL, 36106",1488956,"L"
440119,"2740 ZELDA ROAD","MONTGOMERY","AL",36106,32.364049032,-86.268316537,119,"2740 ZELDA ROAD, MONTGOMERY, AL, 36106","Match","Exact","2740 ZELDA RD, MONTGOMERY, AL, 36106",1488956,"L"
440120,"27400 CHARDON ROAD APT 1107","WILLOUGHBY HILLS","OH",44092,41.582529622,-81.486888107,120,"27400 CHARDON ROAD APT 1107, WILLOUGHBY HILLS, OH, 44092","Match","Exact","27400 CHARDON RD, WILLOUGHBY HILLS, OH, 44092",137459332,"R"
440121,"27400 CHARDON ROAD STE 1107","WILLOUGHBY HILLS","OH",44092,41.582529622,-81.486888107,121,"27400 CHARDON ROAD STE 1107, WILLOUGHBY HILLS, OH, 44092","Match","Exact","27400 CHARDON RD, WILLOUGHBY HILLS, OH, 44092",137459332,"R"
440122,"27400 CHARDON ROAD","WILLOUGHBY HILLS","OH",44092,41.582529622,-81.486888107,122,"27400 CHARDON ROAD, WILLOUGHBY HILLS, OH, 44092","Match","Exact","27400 CHARDON RD, WILLOUGHBY HILLS, OH, 44092",137459332,"R"
440123,"27401 OAK ROAD","HENSLEY","AR",72065,34.4994693580001,-92.201417716,123,"27401 OAK ROAD, HENSLEY, AR, 72065","Match","Exact","27401 OAK RD, HENSLEY, AR, 72065",83556931,"R"
440124,"27402 MALCHINE RD","WATERFORD","WI",53185,42.7926515570001,-88.175624577,124,"27402 MALCHINE RD, WATERFORD, WI, 53185","Match","Exact","27402 MALCHINE RD, WATERFORD, WI, 53185",77933657,"L"
440125,"27402 TOWNLINE RD","TREMONT","IL",61568,40.479414472,-89.4124148399999,125,"27402 TOWNLINE RD, TREMONT, IL, 61568","Match","Exact","27402 TOWNLINE RD, TREMONT, IL, 61568",617331230,"L"
440126,"27403 N SOPHIA LN STE 203","SANTA CLARITA","CA",91387,34.4095251420001,-118.441717856,126,"27403 N SOPHIA LN STE 203, SANTA CLARITA, CA, 91387","Match","Non_Exact","27403 N SOPHIA LN, SANTA CLARITA, CA, 91387",624423030,"R"
440127,"27404 PUMPKIN ST","MURIETTA","CA",92562,NA,NA,127,"27404 PUMPKIN ST, MURIETTA, CA, 92562","No_Match",NA,NA,NA,NA
440128,"27406 BRAYDEN HILL TRAIL","KATY","TX",77494,29.746165736,-95.841228094,128,"27406 BRAYDEN HILL TRAIL, KATY, TX, 77494","Match","Exact","27406 BRAYDEN HILL TRL, KATY, TX, 77494",648705336,"R"
440129,"27406 RIO CIR","BOERNE","TX",78015,29.706214092,-98.636235319,129,"27406 RIO CIR, BOERNE, TX, 78015","Match","Exact","27406 RIO CIR, BOERNE, TX, 78015",648961789,"L"
440130,"27406 ROYAL PALM WAY","BOCA RATON","FL",33432,NA,NA,130,"27406 ROYAL PALM WAY, BOCA RATON, FL, 33432","No_Match",NA,NA,NA,NA
440131,"27406 WINEBROOK CREEK LANE","KATY","TX",77494,29.7358994910001,-95.845592003,131,"27406 WINEBROOK CREEK LANE, KATY, TX, 77494","Match","Exact","27406 WINEBROOK CREEK LN, KATY, TX, 77494",641049454,"R"
440132,"27408 101ST AVENUE NW","STANWOOD","WA",98292,48.2450666710001,-122.369594601,132,"27408 101ST AVENUE NW, STANWOOD, WA, 98292","Match","Exact","27408 101ST AVE NW, STANWOOD, WA, 98292",187737233,"L"
440133,"27408 CHURCH RD","BURLINGTON","WI",53105,42.712813338,-88.1782183,133,"27408 CHURCH RD, BURLINGTON, WI, 53105","Match","Exact","27408 CHURCH RD, BURLINGTON, WI, 53105",77934148,"R"
440134,"27409 144TH AVE SE","KENT","WA",98042,47.3559970850001,-122.14953216,134,"27409 144TH AVE SE, KENT, WA, 98042","Match","Exact","27409 144TH AVE SE, KENT, WA, 98042",186654835,"L"
440135,"27409 ARLA ST","MORENO VALLEY","CA",92555,33.8946955010001,-117.184421868,135,"27409 ARLA ST, MORENO VALLEY, CA, 92555","Match","Non_Exact","27409 ARLA CT, MORENO VALLEY, CA, 92555",633951567,"L"
440136,"27409 E CO HWY 23","CANTON","IL",61520,40.5433797320001,-89.9423830489999,136,"27409 E CO HWY 23, CANTON, IL, 61520","Match","Non_Exact","27409 CO RD 23, CANTON, IL, 61520",635502442,"R"
440137,"2741 35TH ST","TWO RIVERS","WI",54241,44.1659023600001,-87.586815873,137,"2741 35TH ST, TWO RIVERS, WI, 54241","Match","Exact","2741 35TH ST, TWO RIVERS, WI, 54241",147969875,"L"
440138,"2741 70TH AVENUE SE","MERCER ISLAND","WA",98040,47.586206352,-122.244808269,138,"2741 70TH AVENUE SE, MERCER ISLAND, WA, 98040","Match","Exact","2741 70TH AVE SE, MERCER ISLAND, WA, 98040",239764018,"R"
440139,"2741 ABBEY GLEN","ESCONDIDO","CA",92027,33.1426760140001,-117.036801866,139,"2741 ABBEY GLEN, ESCONDIDO, CA, 92027","Match","Exact","2741 ABBEY GLEN, ESCONDIDO, CA, 92027",195316895,"R"
440140,"2741 ADAMS STREET","INDIANAPOLIS","IN",46218,39.806185966,-86.109632085,140,"2741 ADAMS STREET, INDIANAPOLIS, IN, 46218","Match","Exact","2741 ADAMS ST, INDIANAPOLIS, IN, 46218",107998753,"R"
440141,"2741 APRIL SPRINGS VIEW","CARMEL","IN",46074,39.9900101690001,-86.2091392629999,141,"2741 APRIL SPRINGS VIEW, CARMEL, IN, 46074","Match","Exact","2741 APRIL SPRINGS VW, CARMEL, IN, 46074",618464945,"L"
440142,"2741 ASBURY","EVANSTON","IL",60201,42.0676522800001,-87.6892654979999,142,"2741 ASBURY, EVANSTON, IL, 60201","Match","Non_Exact","2741 ASBURY AVE, EVANSTON, IL, 60201",111742972,"R"
440143,"2741 BREVARD AVE","MONTGOMERY","AL",36109,32.389827564,-86.270373352,143,"2741 BREVARD AVE, MONTGOMERY, AL, 36109","Match","Exact","2741 BREVARD AVE, MONTGOMERY, AL, 36109",652578896,"L"
440144,"2741 BYRD MILLS RD","ERWIN","NC",28339,NA,NA,144,"2741 BYRD MILLS RD, ERWIN, NC, 28339","No_Match",NA,NA,NA,NA
440145,"2741 CAMP WAHSEGA RD","DAHLONEGA","GA",30533,34.5885861520001,-84.0345667139999,145,"2741 CAMP WAHSEGA RD, DAHLONEGA, GA, 30533","Match","Exact","2741 CAMP WAHSEGA RD, DAHLONEGA, GA, 30533",642481212,"L"
440146,"2741 CHICKORY HILL","SNELLVILLE","GA",30039,33.8296146260001,-84.043979443,146,"2741 CHICKORY HILL, SNELLVILLE, GA, 30039","Match","Exact","2741 CHICKORY HILL, SNELLVILLE, GA, 30039",88922030,"R"
440147,"2741 CHICKORY HILL","SNELLVILLE","GA",30339,33.8296146260001,-84.043979443,147,"2741 CHICKORY HILL, SNELLVILLE, GA, 30339","Match","Non_Exact","2741 CHICKORY HILL, SNELLVILLE, GA, 30039",88922030,"R"
440148,"2741 COSTA MESA DRIVE","LITTLE ELM","TX",75068,33.1971307790001,-96.8885724149999,148,"2741 COSTA MESA DRIVE, LITTLE ELM, TX, 75068","Match","Exact","2741 COSTA MESA DR, LITTLE ELM, TX, 75068",634084894,"L"
440149,"2741 COTTONWOOD LANE","PENSACOLA","FL",32514,30.5202434120001,-87.20692257,149,"2741 COTTONWOOD LANE, PENSACOLA, FL, 32514","Match","Exact","2741 COTTONWOOD LN, PENSACOLA, FL, 32514",93227754,"R"
440150,"2741 DEER BERRY CT","LONGWOOD","FL",32779,28.737709481,-81.390204286,150,"2741 DEER BERRY CT, LONGWOOD, FL, 32779","Match","Exact","2741 DEER BERRY CT, LONGWOOD, FL, 32779",93767178,"L"
440151,"2741 DELANEY CT","CASTRO VALLEY","CA",94546,NA,NA,151,"2741 DELANEY CT, CASTRO VALLEY, CA, 94546","No_Match",NA,NA,NA,NA
440152,"2741 FENTON","BRONX","NY",10469,40.865789668,-73.844352595,152,"2741 FENTON, BRONX, NY, 10469","Match","Non_Exact","2741 FENTON AVE, BRONX, NY, 10469",80303865,"L"
440153,"2741 FLINTRIDGE DRIVE","MYERSVILLE","MD",21773,39.512249888,-77.5739642469999,153,"2741 FLINTRIDGE DRIVE, MYERSVILLE, MD, 21773","Match","Exact","2741 FLINTRIDGE DR, MYERSVILLE, MD, 21773",60749360,"R"
440154,"2741 GRIFFIN ROAD","DANIA","FL",33312,NA,NA,154,"2741 GRIFFIN ROAD, DANIA, FL, 33312","No_Match",NA,NA,NA,NA
440155,"2741 HAMNER AVE  212","NORCO","CA",92860,33.9216041390001,-117.559251939,155,"2741 HAMNER AVE  212, NORCO, CA, 92860","Match","Exact","2741 HAMNER AVE, NORCO, CA, 92860",639948512,"R"
440156,"2741 HAWLEY","WESTLAND","MI",48186,42.288348908,-83.413259124,156,"2741 HAWLEY, WESTLAND, MI, 48186","Match","Non_Exact","2741 HAWLEY BLVD, WESTLAND, MI, 48186",95684516,"R"
440157,"2741 KATY CIR","LINCOLN","NE",68506,40.7846860820001,-96.627819177,157,"2741 KATY CIR, LINCOLN, NE, 68506","Match","Exact","2741 KATY CIR, LINCOLN, NE, 68506",28264993,"L"
440158,"2741 KATY CIRCLE","LINCOLN","NE",68506,40.7846860820001,-96.627819177,158,"2741 KATY CIRCLE, LINCOLN, NE, 68506","Match","Exact","2741 KATY CIR, LINCOLN, NE, 68506",28264993,"L"
440159,"2741 LAKE JODECO ROAD","JONESBORO","GA",30236,33.509388401,-84.30138406,159,"2741 LAKE JODECO ROAD, JONESBORO, GA, 30236","Match","Exact","2741 LAKE JODECO RD, JONESBORO, GA, 30236",640611735,"R"
440160,"2741 LEMON GROVE AVE 202","LEMON GROVE","CA",91945,32.7354539780001,-117.031389325,160,"2741 LEMON GROVE AVE 202, LEMON GROVE, CA, 91945","Match","Exact","2741 LEMON GROVE AVE, LEMON GROVE, CA, 91945",195359893,"R"
440161,"2741 LINDSAY HILL ROAD","QUILCENE","WA",98376,47.800473004,-122.825031689,161,"2741 LINDSAY HILL ROAD, QUILCENE, WA, 98376","Match","Exact","2741 LINDSAY HILL RD, QUILCENE, WA, 98376",152044341,"R"
440162,"2741 LULLINGTON DR","GREENSBORO","NC",27103,NA,NA,162,"2741 LULLINGTON DR, GREENSBORO, NC, 27103","No_Match",NA,NA,NA,NA
440163,"2741 MARSHALL TRAIL","ROUND ROCK","TX",78665,30.5530724400001,-97.61951828,163,"2741 MARSHALL TRAIL, ROUND ROCK, TX, 78665","Match","Exact","2741 MARSHALL TRL, ROUND ROCK, TX, 78665",641107525,"R"
440164,"2741 MAYFAIR AVENUE","CHARLOTTE","NC",28208,35.213733587,-80.90828141,164,"2741 MAYFAIR AVENUE, CHARLOTTE, NC, 28208","Match","Exact","2741 MAYFAIR AVE, CHARLOTTE, NC, 28208",70550009,"L"
440165,"2741 N HAMLIN AVE","CHICAGO","IL",60647,41.930629518,-87.722046866,165,"2741 N HAMLIN AVE, CHICAGO, IL, 60647","Match","Non_Exact","2741 N HAMLIN AVE, CHICAGO, IL, 60647",605188051,"R"
440166,"2741 N RIDGEWAY","CHICAGO","IL",60647,NA,NA,166,"2741 N RIDGEWAY, CHICAGO, IL, 60647","No_Match",NA,NA,NA,NA
440167,"2741 N SHEFFIELD AVE APT 3N","CHICAGO","IL",60614,41.9314088360001,-87.6538049709999,167,"2741 N SHEFFIELD AVE APT 3N, CHICAGO, IL, 60614","Match","Non_Exact","2741 N SHEFFIELD AVE, CHICAGO, IL, 60614",111892327,"R"
440168,"2741 NC HWY 58 SOUTH","POLLOCKSVILLE",NA,NA,NA,NA,168,"2741 NC HWY 58 SOUTH, POLLOCKSVILLE, , ","No_Match",NA,NA,NA,NA
440169,"2741 NC HWY 58 SOUTHQ","POLLOCKSVILLE","NC",28573,35.017858097,-77.300189425,169,"2741 NC HWY 58 SOUTHQ, POLLOCKSVILLE, NC, 28573","Match","Non_Exact","2741 STATE RD 58, POLLOCKSVILLE, NC, 28573",13853476,"R"
440170,"2741 NE 58 ST","FORT LAUDERDALE","FL",33308,26.200342778,-80.108273128,170,"2741 NE 58 ST, FORT LAUDERDALE, FL, 33308","Match","Non_Exact","2741 NE 58TH ST, FORT LAUDERDALE, FL, 33308",639263151,"L"
440171,"2741 NORTH OSPREY AVENUE","SARASOTA","FL",34234,27.3601060660001,-82.53460003,171,"2741 NORTH OSPREY AVENUE, SARASOTA, FL, 34234","Match","Exact","2741 N OSPREY AVE, SARASOTA, FL, 34234",16347121,"L"
440172,"2741 NW 68TH AVENUE","GAINESVILLE","FL",32653,29.7170835380001,-82.3636351919999,172,"2741 NW 68TH AVENUE, GAINESVILLE, FL, 32653","Match","Exact","2741 NW 68 AVE, GAINESVILLE, FL, 32653",610879792,"L"
440173,"2741 OLD COACH RD","DULUTH","GA",30096,34.017065243,-84.139650425,173,"2741 OLD COACH RD, DULUTH, GA, 30096","Match","Exact","2741 OLD COACH RD, DULUTH, GA, 30096",88902475,"L"
440174,"2741 OLD STAGE ROAD","YADKINVILLE","NC",27055,36.0997540490001,-80.60543718,174,"2741 OLD STAGE ROAD, YADKINVILLE, NC, 27055","Match","Exact","2741 OLD STAGE RD, YADKINVILLE, NC, 27055",84768635,"L"
440175,"2741 PALO DURO DRIVE","SAN ANGELO","TX",76904,31.4113984460001,-100.482181021,175,"2741 PALO DURO DRIVE, SAN ANGELO, TX, 76904","Match","Exact","2741 PALO DURO DR, SAN ANGELO, TX, 76904",190680602,"L"
440176,"2741 PATRCK HENRY 305","AUBURN HILLS","MI",48326,42.6837033530001,-83.227501047,176,"2741 PATRCK HENRY 305, AUBURN HILLS, MI, 48326","Match","Non_Exact","2741 PATRICK HENRY ST, AUBURN HILLS, MI, 48326",641240731,"L"
440177,"2741 PRAIRIE OAK DR","DICKINSON","ND",58601,46.9105822940001,-102.806438777,177,"2741 PRAIRIE OAK DR, DICKINSON, ND, 58601","Match","Exact","2741 PRAIRIE OAK DR, DICKINSON, ND, 58601",640731610,"L"
440178,"2741 RISING SUN ROAD","SLATINGTON","PA",18080,40.7032359090001,-75.582401363,178,"2741 RISING SUN ROAD, SLATINGTON, PA, 18080","Match","Exact","2741 RISING SUN RD, SLATINGTON, PA, 18080",80755713,"L"
440179,"2741 ROCK WALL RD","NASHVILLE","TN",37221,36.0510997040001,-86.921210416,179,"2741 ROCK WALL RD, NASHVILLE, TN, 37221","Match","Exact","2741 ROCK WALL RD, NASHVILLE, TN, 37221",73121850,"L"
440180,"2741 SHEPHERDS GLEN","WITCHITA FALLS","TX",76308,33.849498161,-98.533426868,180,"2741 SHEPHERDS GLEN, WITCHITA FALLS, TX, 76308","Match","Non_Exact","2741 SHEPHERDS GLEN, WICHITA FALLS, TX, 76308",169858551,"R"
440181,"2741 SW 30TH AVENUE","MIAMI","FL",33133,25.7410231980001,-80.241963388,181,"2741 SW 30TH AVENUE, MIAMI, FL, 33133","Match","Non_Exact","2741 SW 30TH AVE, MIAMI, FL, 33133",116014665,"L"
440182,"2741 VT RTE 100","LOWELL","VT",5847,NA,NA,182,"2741 VT RTE 100, LOWELL, VT, 5847","No_Match",NA,NA,NA,NA
440183,"2741 W FOND DU LAC AVE","MILWAUKEE","WI",53210,43.0679888110001,-87.9481469309999,183,"2741 W FOND DU LAC AVE, MILWAUKEE, WI, 53210","Match","Exact","2741 W FOND DU LAC AVE, MILWAUKEE, WI, 53210",77738342,"L"
440184,"2741 W MONROE","CHIACGO","IL",60612,NA,NA,184,"2741 W MONROE, CHIACGO, IL, 60612","No_Match",NA,NA,NA,NA
440185,"2741 WEST FOND DU LAC","MILWAUKEE","WI",53210,43.0679873500001,-87.948145025,185,"2741 WEST FOND DU LAC, MILWAUKEE, WI, 53210","Match","Non_Exact","2741 W FOND DU LAC AVE, MILWAUKEE, WI, 53210",77738342,"L"
440186,"2741 WILDROSE DRIVE","MOSCOW","ID",83843,46.7212192440001,-116.967802289,186,"2741 WILDROSE DRIVE, MOSCOW, ID, 83843","Match","Exact","2741 WILDROSE DR, MOSCOW, ID, 83843",193860324,"R"
440187,"2741 WINTER STREET","LOS ANGELES","CA",90033,34.048658403,-118.200691412,187,"2741 WINTER STREET, LOS ANGELES, CA, 90033","Match","Exact","2741 WINTER ST, LOS ANGELES, CA, 90033",141622882,"L"
440188,"2741 WOODRUFF CT","GREEN BAY","WI",54311,44.4816029560001,-87.945981656,188,"2741 WOODRUFF CT, GREEN BAY, WI, 54311","Match","Exact","2741 WOODRUFF CT, GREEN BAY, WI, 54311",148104801,"L"
440189,"27410 JUPITER LANDING COURT","SPRING","TX",77386,30.068539657,-95.3255294639999,189,"27410 JUPITER LANDING COURT, SPRING, TX, 77386","Match","Exact","27410 JUPITER LANDING CT, SPRING, TX, 77386",641130517,"R"
440190,"27410 S HICKORY STREET","BEECHER","IL",60401,41.3926676250001,-87.6388439739999,190,"27410 S HICKORY STREET, BEECHER, IL, 60401","Match","Exact","27410 HICKORY ST, BEECHER, IL, 60401",111553293,"R"
440191,"27410 STARLIT LANE DRIVE","KATY","TX",77494,NA,NA,191,"27410 STARLIT LANE DRIVE, KATY, TX, 77494","No_Match",NA,NA,NA,NA
440192,"27411 145TH AVE SE","KENT","WA",98042,47.356628996,-122.14814397,192,"27411 145TH AVE SE, KENT, WA, 98042","Match","Exact","27411 145TH AVE SE, KENT, WA, 98042",186654842,"L"
440193,"27411 CR 3","PLESSIS","NY",13675,44.2880399050001,-75.830725022,193,"27411 CR 3, PLESSIS, NY, 13675","Match","Exact","27411 CO RD 3, PLESSIS, NY, 13675",154232374,"L"
440194,"27411 O KENT DR","SAN ANTONIO","TX",78260,29.706551231,-98.517526357,194,"27411 O KENT DR, SAN ANTONIO, TX, 78260","Match","Non_Exact","27411 OKENT DR, SAN ANTONIO, TX, 78260",101487883,"R"
440195,"27412 S HILLOCKBURN RD","ESTACADA","OR",97023,45.214870826,-122.303269249,195,"27412 S HILLOCKBURN RD, ESTACADA, OR, 97023","Match","Exact","27412 S HILLOCKBURN RD, ESTACADA, OR, 97023",157904120,"R"
440196,"27413 10TH DR NE","ARLINGTON","WA",98223,48.242520083,-122.218612245,196,"27413 10TH DR NE, ARLINGTON, WA, 98223","Match","Exact","27413 10TH DR NE, ARLINGTON, WA, 98223",187739685,"R"
440197,"27414 N 60TH DRIVE","PHOENIX","AZ",85083,33.733599075,-112.189815001,197,"27414 N 60TH DRIVE, PHOENIX, AZ, 85083","Match","Exact","27414 N 60TH DR, PHOENIX, AZ, 85083",128863034,"L"
440198,"27414 N 66TH LN","PHOENIX","AZ",85083,33.734823115,-112.202086455,198,"27414 N 66TH LN, PHOENIX, AZ, 85083","Match","Exact","27414 N 66TH LN, PHOENIX, AZ, 85083",128862856,"L"
440199,"27414 NE HWY 316","SALT SPRINGS","FL",32134,NA,NA,199,"27414 NE HWY 316, SALT SPRINGS, FL, 32134","No_Match",NA,NA,NA,NA
440200,"27415 281ST STREET SUITE A","HOLCOMBE","WI",54745,45.2416836090001,-91.107931503,200,"27415 281ST STREET SUITE A, HOLCOMBE, WI, 54745","Match","Exact","27415 281ST ST, HOLCOMBE, WI, 54745",632513912,"R"
440201,"27415 790TH AVE","RACINE","MN",55967,43.7532272330001,-92.469212498,201,"27415 790TH AVE, RACINE, MN, 55967","Match","Exact","27415 790TH AVE, RACINE, MN, 55967",610509809,"L"
440202,"27415 BLINKWOOD PARK","KATY","TX",77494,29.7540391810001,-95.845140457,202,"27415 BLINKWOOD PARK, KATY, TX, 77494","Match","Exact","27415 BLINKWOOD PARK, KATY, TX, 77494",641048100,"R"
440203,"27415 FINLAND AVE","WYOMING","MN",55092,45.3453239660001,-92.994490726,203,"27415 FINLAND AVE, WYOMING, MN, 55092","Match","Exact","27415 FINLAND AVE, WYOMING, MN, 55092",97572699,"R"
440204,"27416 N 19TH DRIVE","PHOENIX","AZ",85085,33.7335740980001,-112.100888647,204,"27416 N 19TH DRIVE, PHOENIX, AZ, 85085","Match","Exact","27416 N 19TH DR, PHOENIX, AZ, 85085",627483629,"R"
440205,"27416 N 63RD DR","PHOENIX","AZ",85083,33.734837272,-112.195623019,205,"27416 N 63RD DR, PHOENIX, AZ, 85083","Match","Exact","27416 N 63RD DR, PHOENIX, AZ, 85083",128862971,"L"
440206,"27417 195TH ST","HONNEY CREEK","IA",51542,41.4104801220001,-95.8131801759999,206,"27417 195TH ST, HONNEY CREEK, IA, 51542","Match","Non_Exact","27417 195TH ST, HONEY CREEK, IA, 51542",43920315,"R"
440207,"27418 LIBERTY DR","WARREN","MI",48092,42.4942666060001,-83.06998915,207,"27418 LIBERTY DR, WARREN, MI, 48092","Match","Exact","27418 LIBERTY DR, WARREN, MI, 48092",110669912,"R"
440208,"27418 SUNVIEW PLACE","HAYWARD","CA",94544,37.6354547220001,-122.071141906,208,"27418 SUNVIEW PLACE, HAYWARD, CA, 94544","Match","Exact","27418 SUNVIEW PL, HAYWARD, CA, 94544",623950371,"R"
440209,"27418 VILLA MOUNTAIN COURT","FULSHEAR","TX",77441,29.703009405,-95.85161712,209,"27418 VILLA MOUNTAIN COURT, FULSHEAR, TX, 77441","Match","Exact","27418 VILLA MOUNTAIN CT, FULSHEAR, TX, 77441",641060456,"L"
440210,"27419 NORTH STREET","HOTCHKISS","CO",81409,NA,NA,210,"27419 NORTH STREET, HOTCHKISS, CO, 81409","No_Match",NA,NA,NA,NA
440211,"27419 TRACY RIDGE CT","SPRING","TX",77386,30.092162214,-95.3812474869999,211,"27419 TRACY RIDGE CT, SPRING, TX, 77386","Match","Non_Exact","27419 TRACY RIDGE LN, SPRING, TX, 77386",629615643,"L"
440212,"2742 ASHMONT TER","SILVER SPRING","MD",20151,39.10227416,-77.0562455739999,212,"2742 ASHMONT TER, SILVER SPRING, MD, 20151","Match","Non_Exact","2742 ASHMONT TER, SILVER SPRING, MD, 20906",62078415,"L"
440213,"2742 AVALON LOOP RD","CHARLOTTE","NC",28269,35.3051100230001,-80.798613129,213,"2742 AVALON LOOP RD, CHARLOTTE, NC, 28269","Match","Exact","2742 AVALON LOOP RD, CHARLOTTE, NC, 28269",70560480,"L"
440214,"2742 BLADES","BEAVERTON","MI",48612,43.872383439,-84.474330932,214,"2742 BLADES, BEAVERTON, MI, 48612","Match","Non_Exact","2742 BLADES RD, BEAVERTON, MI, 48612",644921305,"R"
440215,"2742 BLAYDON DRIVE","RALEIGH","NC",27606,35.6842536830001,-78.733667461,215,"2742 BLAYDON DRIVE, RALEIGH, NC, 27606","Match","Exact","2742 BLAYDON DR, RALEIGH, NC, 27606",652176201,"R"
440216,"2742 BRET","SALINA","KS",67401,38.7893222920001,-97.6003637059999,216,"2742 BRET, SALINA, KS, 67401","Match","Non_Exact","2742 BRET AVE, SALINA, KS, 67401",196686441,"L"
440217,"2742 BUCKHORN PRESERVE BLVD","VALRICO","FL",33596,27.9054047220001,-82.2316846419999,217,"2742 BUCKHORN PRESERVE BLVD, VALRICO, FL, 33596","Match","Exact","2742 BUCKHORN PRESERVE BLVD, VALRICO, FL, 33596",104641598,"L"
440218,"2742 CHANDLER RD","PIFFARD","NY",14533,42.820329611,-77.8844062749999,218,"2742 CHANDLER RD, PIFFARD, NY, 14533","Match","Exact","2742 CHANDLER RD, PIFFARD, NY, 14533",639180770,"L"
440219,"2742 CHILI AVE","ROCHESTER","NY",14624,43.1213739940001,-77.7122342449999,219,"2742 CHILI AVE, ROCHESTER, NY, 14624","Match","Exact","2742 CHILI AVE, ROCHESTER, NY, 14624",14530511,"R"
440220,"2742 COLUMBIA AVE","PITTSBURGH","PA",15221,40.423032274,-79.87225934,220,"2742 COLUMBIA AVE, PITTSBURGH, PA, 15221","Match","Exact","2742 COLUMBIA AVE, PITTSBURGH, PA, 15221",51669186,"R"
440221,"2742 COOLIDGE STREET","MADISON","WI",53704,43.1092056190001,-89.346512757,221,"2742 COOLIDGE STREET, MADISON, WI, 53704","Match","Exact","2742 COOLIDGE ST, MADISON, WI, 53704",49472943,"L"
440222,"2742 DAMASCUS CHURCH ROAD","LONG CREEK","SC",29658,34.7504612480001,-83.285223759,222,"2742 DAMASCUS CHURCH ROAD, LONG CREEK, SC, 29658","Match","Exact","2742 DAMASCUS CHURCH RD, LONG CREEK, SC, 29658",25665162,"R"
440223,"2742 EAST RIVER ROCK ROAD","LIVINGSTON","MT",59047,45.5383836440001,-110.55848834,223,"2742 EAST RIVER ROCK ROAD, LIVINGSTON, MT, 59047","Match","Non_Exact","2742 E RIVER RD, LIVINGSTON, MT, 59047",166787403,"R"
440224,"2742 EDMONDS ST","BEAUMONT","TX",77705,30.0492433700001,-94.1135948359999,224,"2742 EDMONDS ST, BEAUMONT, TX, 77705","Match","Exact","2742 EDMONDS ST, BEAUMONT, TX, 77705",73855481,"L"
440225,"2742 EMBER PASS LANE","KATY","TX",77494,29.7452820440001,-95.8522127109999,225,"2742 EMBER PASS LANE, KATY, TX, 77494","Match","Exact","2742 EMBER PASS LN, KATY, TX, 77494",642953536,"L"
440226,"2742 FAIR OAKS CIRCLE","ODESSA","TX",79762,31.879101932,-102.335481323,226,"2742 FAIR OAKS CIRCLE, ODESSA, TX, 79762","Match","Exact","2742 FAIR OAKS CIR, ODESSA, TX, 79762",139431236,"R"
440227,"2742 FLORAL ROAD","LANTANA","FL",33462,26.573045017,-80.085696938,227,"2742 FLORAL ROAD, LANTANA, FL, 33462","Match","Exact","2742 FLORAL RD, LANTANA, FL, 33462",115335027,"L"
440228,"2742 GARRISON AVE","EVANSTON","IL",60201,42.067864668,-87.684170905,228,"2742 GARRISON AVE, EVANSTON, IL, 60201","Match","Exact","2742 GARRISON AVE, EVANSTON, IL, 60201",111743037,"L"
440229,"2742 GIDDINGS AVENUE","CHICAGO","IL",60625,NA,NA,229,"2742 GIDDINGS AVENUE, CHICAGO, IL, 60625","No_Match",NA,NA,NA,NA
440230,"2742 HWY 70 EAST","JACKSON","TN",38305,35.719657468,-88.716779526,230,"2742 HWY 70 EAST, JACKSON, TN, 38305","Match","Exact","2742 HWY 70 E, JACKSON, TN, 38305",608805271,"R"
440231,"2742 KIMBERLY DRIVE","DELTONA","FL",32738,28.9354136360001,-81.191188752,231,"2742 KIMBERLY DRIVE, DELTONA, FL, 32738","Match","Exact","2742 KIMBERLY DR, DELTONA, FL, 32738",94501491,"L"
440232,"2742 LAKE HOWELL LANE","WINTER PARK","FL",32792,28.6326302740001,-81.3095658459999,232,"2742 LAKE HOWELL LANE, WINTER PARK, FL, 32792","Match","Exact","2742 LAKE HOWELL LN, WINTER PARK, FL, 32792",605412045,"L"
440233,"2742 LUKE DR","ELLENWOOD","GA",30294,33.598754947,-84.300855344,233,"2742 LUKE DR, ELLENWOOD, GA, 30294","Match","Exact","2742 LUKE DR, ELLENWOOD, GA, 30294",23336710,"L"
440234,"2742 LYNNVILLE CT","LINDENWOOD","IL",61049,42.0614016690001,-89.031764851,234,"2742 LYNNVILLE CT, LINDENWOOD, IL, 61049","Match","Exact","2742 LYNNVILLE CT, LINDENWOOD, IL, 61049",52322623,"L"
440235,"2742 MARIGNY DRIVE","HOUSTON","TX",77014,29.969064496,-95.4630597829999,235,"2742 MARIGNY DRIVE, HOUSTON, TX, 77014","Match","Exact","2742 MARIGNY DR, HOUSTON, TX, 77014",627978922,"L"
440236,"2742 MEMORIAL DR","MUSKEGON","MI",49445,43.2483963450001,-86.311069947,236,"2742 MEMORIAL DR, MUSKEGON, MI, 49445","Match","Exact","2742 MEMORIAL DR, MUSKEGON, MI, 49445",77660650,"L"
440237,"2742 MISTY OAK CIR","ROYAL PALM BEACH","FL",33411,26.724415392,-80.2404822409999,237,"2742 MISTY OAK CIR, ROYAL PALM BEACH, FL, 33411","Match","Non_Exact","2742 MISTY OAKS CIR, ROYAL PALM BEACH, FL, 33411",115583707,"R"
440238,"2742 MOHAWK ST","SANTA ROSA","CA",95403,38.4619795200001,-122.747966246,238,"2742 MOHAWK ST, SANTA ROSA, CA, 95403","Match","Exact","2742 MOHAWK ST, SANTA ROSA, CA, 95403",67467015,"L"
440239,"2742 PARK AVENUE","MEMPHIS","TN",38114,35.1080923550001,-89.970477396,239,"2742 PARK AVENUE, MEMPHIS, TN, 38114","Match","Exact","2742 PARK AVE, MEMPHIS, TN, 38114",72918220,"L"
440240,"2742 PHILIPS AVENUE","CHARLOTTE","NC",28208,35.2128229940001,-80.881597658,240,"2742 PHILIPS AVENUE, CHARLOTTE, NC, 28208","Match","Non_Exact","2742 PHILLIPS AVE, CHARLOTTE, NC, 28208",70484670,"R"
440241,"2742 PIERCE ST","SAN FRANCISCO","CA",94123,37.7952213,-122.438475081,241,"2742 PIERCE ST, SAN FRANCISCO, CA, 94123","Match","Exact","2742 PIERCE ST, SAN FRANCISCO, CA, 94123",192279654,"R"
440242,"2742 QUARRY BROWNS LAKE RD","Chewelah","WA",99109,48.244594616,-117.773377199,242,"2742 QUARRY BROWNS LAKE RD, Chewelah, WA, 99109","Match","Non_Exact","2742 QUARRY-BROWNS LAKE RD, CHEWELAH, WA, 99109",174829153,"L"
440243,"2742 S 23RD STREET 315","MANITOWOC","WI",54220,44.066017344,-87.677449824,243,"2742 S 23RD STREET 315, MANITOWOC, WI, 54220","Match","Non_Exact","2742 S 23RD ST, MANITOWOC, WI, 54220",147967166,"R"
440244,"2742 S MARSALIS AVE","DALLAS","TX",75216,32.71416279,-96.814565046,244,"2742 S MARSALIS AVE, DALLAS, TX, 75216","Match","Exact","2742 S MARSALIS AVE, DALLAS, TX, 75216",102950995,"L"
440245,"2742 SAWGRASS LN","PHENIX CITY","AL",36867,32.5021052870001,-85.030472865,245,"2742 SAWGRASS LN, PHENIX CITY, AL, 36867","Match","Exact","2742 SAWGRASS LN, PHENIX CITY, AL, 36867",632835057,"R"
440246,"2742 SHEARER ROAD","Bucyrus","OH",44820,40.761129065,-82.982237238,246,"2742 SHEARER ROAD, Bucyrus, OH, 44820","Match","Exact","2742 SHEARER RD, BUCYRUS, OH, 44820",640287637,"L"
440247,"2742 SHEARER ROAD","BUCYRUS","OH",44820,40.761129065,-82.982237238,247,"2742 SHEARER ROAD, BUCYRUS, OH, 44820","Match","Exact","2742 SHEARER RD, BUCYRUS, OH, 44820",640287637,"L"
440248,"2742 SHETLAND DR","DECATUR","GA",30033,33.8152270200001,-84.278208773,248,"2742 SHETLAND DR, DECATUR, GA, 30033","Match","Exact","2742 SHETLAND DR, DECATUR, GA, 30033",23360547,"L"
440249,"2742 SW 8 STREET SUITE 6","MIAMI","FL",33135,NA,NA,249,"2742 SW 8 STREET SUITE 6, MIAMI, FL, 33135","No_Match",NA,NA,NA,NA
440250,"2742 TANGBOURNE DR","MEMPHIS","TN",38119,35.074033603,-89.8312559519999,250,"2742 TANGBOURNE DR, MEMPHIS, TN, 38119","Match","Exact","2742 TANGBOURNE DR, MEMPHIS, TN, 38119",72929688,"L"
440251,"2742 TAUNTON ST","PHILADELPHIA","PA",19152,40.061860714,-75.030223911,251,"2742 TAUNTON ST, PHILADELPHIA, PA, 19152","Match","Exact","2742 TAUNTON ST, PHILADELPHIA, PA, 19152",131441370,"R"
440252,"2742 TAUNTON STREET","PHILADELPHIA","PA",19152,40.061860714,-75.030223911,252,"2742 TAUNTON STREET, PHILADELPHIA, PA, 19152","Match","Exact","2742 TAUNTON ST, PHILADELPHIA, PA, 19152",131441370,"R"
440253,"2742 VAN BUREN AVE","OGDEN","UT",84403,41.215077616,-111.951109984,253,"2742 VAN BUREN AVE, OGDEN, UT, 84403","Match","Exact","2742 VAN BUREN AVE, OGDEN, UT, 84403",155698385,"L"
440254,"2742 W 131ST ST","OLATHE","KS",66061,38.8908785580001,-94.873334787,254,"2742 W 131ST ST, OLATHE, KS, 66061","Match","Exact","2742 W 131ST ST, OLATHE, KS, 66061",91323641,"R"
440255,"2742 WATERHAVEN DRIVE","CHATTANOOGA","TN",37406,35.0845780270001,-85.230716945,255,"2742 WATERHAVEN DRIVE, CHATTANOOGA, TN, 37406","Match","Exact","2742 WATERHAVEN DR, CHATTANOOGA, TN, 37406",635301055,"R"
440256,"27420 N 176TH STREET","RIO VERDE","AZ",85263,NA,NA,256,"27420 N 176TH STREET, RIO VERDE, AZ, 85263","No_Match",NA,NA,NA,NA
440257,"27420 S 88TH AVE","MONEE","IL",60449,NA,NA,257,"27420 S 88TH AVE, MONEE, IL, 60449","No_Match",NA,NA,NA,NA
440258,"27420 SENECA TRAIL NORTH","RENICK","WV",24966,37.9953561670001,-80.3625224739999,258,"27420 SENECA TRAIL NORTH, RENICK, WV, 24966","Match","Exact","27420 SENECA TRL N, RENICK, WV, 24966",74759556,"R"
440259,"27420 SENECA TRL N","RENICK","WV",24966,37.9953561670001,-80.3625224739999,259,"27420 SENECA TRL N, RENICK, WV, 24966","Match","Exact","27420 SENECA TRL N, RENICK, WV, 24966",74759556,"R"
440260,"27421 BETANZOS","MISSION VIEJO","CA",92692,33.583581516,-117.653134823,260,"27421 BETANZOS, MISSION VIEJO, CA, 92692","Match","Exact","27421 BETANZOS, MISSION VIEJO, CA, 92692",144074192,"L"
440261,"27422 CARRIE RD","SPIRIT LAKE","ID",83869,47.9157961590001,-116.849931477,261,"27422 CARRIE RD, SPIRIT LAKE, ID, 83869","Match","Non_Exact","27422 N CARRIE RD, SPIRIT LAKE, ID, 83869",192945810,"R"
440262,"27422 SILVER CREEK","SAN JUAN CAPISTRANO","CA",92675,33.528569884,-117.651754636,262,"27422 SILVER CREEK, SAN JUAN CAPISTRANO, CA, 92675","Match","Non_Exact","27422 SILVER CREEK DR, SAN JUAN CAPISTRANO, CA, 92675",144113794,"L"
440263,"27423 ERICKSON ROAD","EUGENE","OR",97402,43.9977690520001,-123.259113718,263,"27423 ERICKSON ROAD, EUGENE, OR, 97402","Match","Exact","27423 ERICKSON RD, EUGENE, OR, 97402",639219254,"R"
440264,"27423B WELLS CREEK ROAD","WAMEGO","KS",66547,NA,NA,264,"27423B WELLS CREEK ROAD, WAMEGO, KS, 66547","Tie",NA,NA,NA,NA
440265,"27425 BERKSHIRE DRIVE","SOUTHFIELD","MI",48076,42.490062499,-83.2459278709999,265,"27425 BERKSHIRE DRIVE, SOUTHFIELD, MI, 48076","Match","Exact","27425 BERKSHIRE DR, SOUTHFIELD, MI, 48076",69738962,"L"
440266,"27425 LYFORD ST","HAYWARD","CA",94544,37.6325861990001,-122.080349697,266,"27425 LYFORD ST, HAYWARD, CA, 94544","Match","Exact","27425 LYFORD ST, HAYWARD, CA, 94544",125021855,"R"
440267,"27425 SWEETSPIRE TERRACE PL","MURRIETA","CA",92562,33.586672745,-117.182633352,267,"27425 SWEETSPIRE TERRACE PL, MURRIETA, CA, 92562","Match","Exact","27425 SWEETSPIRE TERRACE PL, MURRIETA, CA, 92562",608994454,"L"
440268,"27425 WILDWOOD DRIVE","ADEL","IA",50003,41.5655502480001,-93.946582291,268,"27425 WILDWOOD DRIVE, ADEL, IA, 50003","Match","Exact","27425 WILDWOOD DR, ADEL, IA, 50003",640609544,"L"
440269,"27426 CEDAR ROAD","HOT SPRINGS","SD",57747,43.4305123290001,-103.496829584,269,"27426 CEDAR ROAD, HOT SPRINGS, SD, 57747","Match","Exact","27426 CEDAR RD, HOT SPRINGS, SD, 57747",174180680,"R"
440270,"27428 CHARLOTTE ST","LACOMBE","LA",70445,30.3427885130001,-89.9436884739999,270,"27428 CHARLOTTE ST, LACOMBE, LA, 70445","Match","Exact","27428 CHARLOTTE ST, LACOMBE, LA, 70445",111245161,"L"
440271,"27428 PINYON STREET","MURIETTA","CA",92562,33.5909099740001,-117.181532916,271,"27428 PINYON STREET, MURIETTA, CA, 92562","Match","Non_Exact","27428 PINYON ST, MURRIETA, CA, 92562",608994473,"L"
440272,"2743 1ST AVE S NO 311","MINNEAPOLIS","MN",55408,44.9529425760001,-93.2766238149999,272,"2743 1ST AVE S NO 311, MINNEAPOLIS, MN, 55408","Match","Exact","2743 1ST AVE S, MINNEAPOLIS, MN, 55408",43632313,"L"
440273,"2743 1ST ST UNIT 2402","FORT MYERS","FL",33916,26.6508251490001,-81.858244629,273,"2743 1ST ST UNIT 2402, FORT MYERS, FL, 33916","Match","Exact","2743 1ST ST, FORT MYERS, FL, 33916",118102505,"L"
440274,"2743 25TH AVENUE UNIT 1","DENVER","CO",80211,39.7536172540001,-105.021206741,274,"2743 25TH AVENUE UNIT 1, DENVER, CO, 80211","Match","Non_Exact","2743 W 25TH AVE, DENVER, CO, 80211",177301758,"R"
440275,"2743 ALDERSGATE WAY","CHARLOTTESVILE","VA",22911,38.1300001450001,-78.446932933,275,"2743 ALDERSGATE WAY, CHARLOTTESVILE, VA, 22911","Match","Non_Exact","2743 ALDERSGATE WAY, CHARLOTTESVILLE, VA, 22911",641146457,"L"
440276,"2743 ARLINGTON AVE","BRONX","NY",10463,40.88043816,-73.915027633,276,"2743 ARLINGTON AVE, BRONX, NY, 10463","Match","Exact","2743 ARLINGTON AVE, BRONX, NY, 10463",80296101,"L"
440277,"2743 BOB WHITE TRAIL","DULUTH","GA",30096,33.9821537650001,-84.130386621,277,"2743 BOB WHITE TRAIL, DULUTH, GA, 30096","Match","Non_Exact","2743 BOB WHITE TRL NW, DULUTH, GA, 30096",88885413,"L"
440278,"2743 BREEZY MEADOW ROAD","APOPKA","FL",32712,28.7190084040001,-81.554450271,278,"2743 BREEZY MEADOW ROAD, APOPKA, FL, 32712","Match","Exact","2743 BREEZY MEADOW RD, APOPKA, FL, 32712",640588303,"R"
440279,"2743 CATERHAM DR","WATERFORD","MI",48329,42.6769900560001,-83.4346380439999,279,"2743 CATERHAM DR, WATERFORD, MI, 48329","Match","Exact","2743 CATERHAM DR, WATERFORD, MI, 48329",69769023,"L"
440280,"2743 CORTINA LANE","EVERGREEN","CO",80439,39.6646944840001,-105.331979345,280,"2743 CORTINA LANE, EVERGREEN, CO, 80439","Match","Exact","2743 CORTINA LN, EVERGREEN, CO, 80439",649715863,"R"
440281,"2743 CURRY ROAD","SCHENECTADY","NY",12303,42.7560131390001,-73.925823931,281,"2743 CURRY ROAD, SCHENECTADY, NY, 12303","Match","Exact","2743 CURRY RD, SCHENECTADY, NY, 12303",636079064,"R"
440282,"2743 DENVER AVE","LONGMONT","CO",80503,40.18803875,-105.137428774,282,"2743 DENVER AVE, LONGMONT, CO, 80503","Match","Exact","2743 DENVER AVE, LONGMONT, CO, 80503",188170575,"L"
440283,"2743 E 3580 S","SAINT GEORGE","UT",84790,37.0473426610001,-113.527685899,283,"2743 E 3580 S, SAINT GEORGE, UT, 84790","Match","Exact","2743 E 3580 S, SAINT GEORGE, UT, 84790",641621358,"L"
440284,"2743 E COUNTY ROAD 725 S","PAOLI","IN",47454,38.4529594210001,-86.408026014,284,"2743 E COUNTY ROAD 725 S, PAOLI, IN, 47454","Match","Exact","2743 E CO RD 725 S, PAOLI, IN, 47454",32148555,"L"
440285,"2743 FIRESIDE COURT","ORLANDO","FL",32839,28.474747274,-81.414124756,285,"2743 FIRESIDE COURT, ORLANDO, FL, 32839","Match","Exact","2743 FIRESIDE CT, ORLANDO, FL, 32839",94274981,"R"
440286,"2743 FIRST STREET UNIT 2205","FORT MYERS","FL",33916,26.6508251490001,-81.858244629,286,"2743 FIRST STREET UNIT 2205, FORT MYERS, FL, 33916","Match","Exact","2743 1ST ST, FORT MYERS, FL, 33916",118102505,"L"
440287,"2743 GLENHAVEN AVE APT D","AKRON","OH",44321,41.09747285,-81.616643725,287,"2743 GLENHAVEN AVE APT D, AKRON, OH, 44321","Match","Exact","2743 GLENHAVEN AVE, AKRON, OH, 44321",61374907,"L"
440288,"2743 GRANEY ROAD","CALEDONIA","NY",14423,42.9679080070001,-77.879840072,288,"2743 GRANEY ROAD, CALEDONIA, NY, 14423","Match","Exact","2743 GRANEY RD, CALEDONIA, NY, 14423",14475873,"L"
440289,"2743 HALLMARK DRIVE","Belmont","CA",94002,37.50508412,-122.315306786,289,"2743 HALLMARK DRIVE, Belmont, CA, 94002","Match","Exact","2743 HALLMARK DR, BELMONT, CA, 94002",636423099,"R"
440290,"2743 HARRINGTON COVE","ROUND ROCK","TX",78665,NA,NA,290,"2743 HARRINGTON COVE, ROUND ROCK, TX, 78665","No_Match",NA,NA,NA,NA
440291,"2743 HORNET AVE","CLOVIS","CA",93611,36.802086224,-119.657916586,291,"2743 HORNET AVE, CLOVIS, CA, 93611","Match","Exact","2743 HORNET AVE, CLOVIS, CA, 93611",606267345,"R"
440292,"2743 ISLAND RD","BLOUNTVILLE","TN",37617,36.5565204760001,-82.343585978,292,"2743 ISLAND RD, BLOUNTVILLE, TN, 37617","Match","Exact","2743 ISLAND RD, BLOUNTVILLE, TN, 37617",647292551,"L"
440293,"2743 KAYNE AVE","MINDEN","NV",89423,39.03705359,-119.730931169,293,"2743 KAYNE AVE, MINDEN, NV, 89423","Match","Exact","2743 KAYNE AVE, MINDEN, NV, 89423",173754799,"R"
440294,"2743 MARL OAK DR","HIGHLAND PARK","IL",60035,42.2022615600001,-87.8235481039999,294,"2743 MARL OAK DR, HIGHLAND PARK, IL, 60035","Match","Exact","2743 MARL OAK DR, HIGHLAND PARK, IL, 60035",119678183,"R"
440295,"2743 MAYO ROAD","AUGUSTA","GA",30907,33.5211564620001,-82.0552183039999,295,"2743 MAYO ROAD, AUGUSTA, GA, 30907","Match","Exact","2743 MAYO RD, AUGUSTA, GA, 30907",619732608,"R"
440296,"2743 MERRIMAN RD","MEDFORD","OR",97501,42.3578248470001,-122.889410734,296,"2743 MERRIMAN RD, MEDFORD, OR, 97501","Match","Exact","2743 MERRIMAN RD, MEDFORD, OR, 97501",155511960,"L"
440297,"2743 MOHAWK ST","SANTA ROSA","CA",95403,38.461988137,-122.748424615,297,"2743 MOHAWK ST, SANTA ROSA, CA, 95403","Match","Exact","2743 MOHAWK ST, SANTA ROSA, CA, 95403",67467015,"R"
440298,"2743 MURA ST","BALTIMORE","MD",21213,39.305427625,-76.579267151,298,"2743 MURA ST, BALTIMORE, MD, 21213","Match","Exact","2743 MURA ST, BALTIMORE, MD, 21213",206424218,"R"
440299,"2743 N 20TH ST","PHILADELPHIA","PA",19132,39.9958778590001,-75.163924487,299,"2743 N 20TH ST, PHILADELPHIA, PA, 19132","Match","Exact","2743 N 20TH ST, PHILADELPHIA, PA, 19132",131402786,"R"
440300,"2743 N ALBANY","CHICAGO","IL",60647,41.9308507200001,-87.704938009,300,"2743 N ALBANY, CHICAGO, IL, 60647","Match","Non_Exact","2743 N ALBANY AVE, CHICAGO, IL, 60647",605194511,"R"
440301,"2743 N GREENWOOD AVENUE","CHICAGO","IL",60614,NA,NA,301,"2743 N GREENWOOD AVENUE, CHICAGO, IL, 60614","No_Match",NA,NA,NA,NA
440302,"2743 NE 14TH ST","FORT LAUDERDALE","FL",33304,26.1452439190001,-80.110639393,302,"2743 NE 14TH ST, FORT LAUDERDALE, FL, 33304","Match","Exact","2743 NE 14TH ST, FORT LAUDERDALE, FL, 33304",114725838,"L"
440303,"2743 NORTH 2ND","LINCOLN","NE",68520,NA,NA,303,"2743 NORTH 2ND, LINCOLN, NE, 68520","No_Match",NA,NA,NA,NA
440304,"2743 NW COLUMBINE DRIVE","LINCOLN","NE",68524,40.840374474,-96.79907282,304,"2743 NW COLUMBINE DRIVE, LINCOLN, NE, 68524","Match","Exact","2743 NW COLUMBINE DR, LINCOLN, NE, 68524",636083027,"R"
440305,"2743 ODLUM DR","SCHAUMBURG","IL",60194,42.0298707690001,-88.1468437189999,305,"2743 ODLUM DR, SCHAUMBURG, IL, 60194","Match","Exact","2743 ODLUM DR, SCHAUMBURG, IL, 60194",111878600,"L"
440306,"2743 OLD MILL TRAIL","MARIETTA","GA",30062,34.015251775,-84.411650703,306,"2743 OLD MILL TRAIL, MARIETTA, GA, 30062","Match","Exact","2743 OLD MILL TRL, MARIETTA, GA, 30062",17170741,"L"
440307,"2743 OLD WASHINGTON ROAD","WESTMINSTER","MD",21157,39.4979732250001,-76.998963913,307,"2743 OLD WASHINGTON ROAD, WESTMINSTER, MD, 21157","Match","Exact","2743 OLD WASHINGTON RD, WESTMINSTER, MD, 21157",61786228,"L"
440308,"2743 PARKWOOD AVE","TOLEDO","OH",43610,41.674909728,-83.557448372,308,"2743 PARKWOOD AVE, TOLEDO, OH, 43610","Match","Exact","2743 PARKWOOD AVE, TOLEDO, OH, 43610",33943130,"L"
440309,"2743 PERIMETER PKWY BLDG 200","AUGUSTA","GA",30909,33.4838504320001,-82.0856830449999,309,"2743 PERIMETER PKWY BLDG 200, AUGUSTA, GA, 30909","Match","Exact","2743 PERIMETER PKWY, AUGUSTA, GA, 30909",604924270,"L"
440310,"2743 S IVES ST","ARLINGTON","VA",22202,38.8472245720001,-77.061365322,310,"2743 S IVES ST, ARLINGTON, VA, 22202","Match","Exact","2743 S IVES ST, ARLINGTON, VA, 22202",76477998,"L"
440311,"2743 SAMS CREEK RD","NEW WINDSOR","MD",21776,39.4797816450001,-77.095457729,311,"2743 SAMS CREEK RD, NEW WINDSOR, MD, 21776","Match","Exact","2743 SAMS CREEK RD, NEW WINDSOR, MD, 21776",61771009,"L"
440312,"2743 SLOAN ST","FLINT","MI",48504,43.0243356550001,-83.7274755029999,312,"2743 SLOAN ST, FLINT, MI, 48504","Match","Exact","2743 SLOAN ST, FLINT, MI, 48504",69565051,"L"
440313,"2743 SOUTH STATE ROUTE 4","ATTICA","OH",44807,41.084371848,-82.878312549,313,"2743 SOUTH STATE ROUTE 4, ATTICA, OH, 44807","Match","Non_Exact","2743 STATE RTE 4, ATTICA, OH, 44807",12969949,"R"
440314,"2743 SOUTH UHLE STREET","ARLINGTON","VA",22193,38.845451676,-77.0731286079999,314,"2743 SOUTH UHLE STREET, ARLINGTON, VA, 22193","Match","Non_Exact","2743 S UHLE ST, ARLINGTON, VA, 22206",76472049,"L"
440315,"2743 STONY FORD RD","WELLSBORO","PA",16901,NA,NA,315,"2743 STONY FORD RD, WELLSBORO, PA, 16901","No_Match",NA,NA,NA,NA
440316,"2743 STRATTON DR","EUDORA","KS",66025,38.913981999,-95.0982456689999,316,"2743 STRATTON DR, EUDORA, KS, 66025","Match","Exact","2743 STRATTON DR, EUDORA, KS, 66025",17708085,"R"
440317,"2743 STUART DRIVE","FORT WORTH","TX",76104,32.712245189,-97.324261196,317,"2743 STUART DRIVE, FORT WORTH, TX, 76104","Match","Exact","2743 STUART DR, FORT WORTH, TX, 76104",101892034,"L"
440318,"2743 SUMMIT ROAD","RAVENNA","OH",44266,41.139426105,-81.2941199489999,318,"2743 SUMMIT ROAD, RAVENNA, OH, 44266","Match","Exact","2743 SUMMIT RD, RAVENNA, OH, 44266",638679020,"L"
440319,"2743 TURNBERRY CT","HOWELL","MI",48843,42.6167580690001,-83.900429436,319,"2743 TURNBERRY CT, HOWELL, MI, 48843","Match","Non_Exact","2743 TURNBERRY LN, HOWELL, MI, 48843",23563647,"L"
440320,"2743 VALLEY VIEW AVENUE","WEST COVINA","CA",91792,34.004641613,-117.885254617,320,"2743 VALLEY VIEW AVENUE, WEST COVINA, CA, 91792","Match","Non_Exact","2743 E VALLEY VIEW AVE, WEST COVINA, CA, 91792",627048794,"L"
440321,"27430 ARLINGTON DR","SOUTHFIELD","MI",48076,42.490957683,-83.249103771,321,"27430 ARLINGTON DR, SOUTHFIELD, MI, 48076","Match","Exact","27430 ARLINGTON DR, SOUTHFIELD, MI, 48076",69738945,"R"
440322,"27430 ELDORADO PLACE","LATHRUP VILLAGE","MI",48076,42.4912365860001,-83.223335471,322,"27430 ELDORADO PLACE, LATHRUP VILLAGE, MI, 48076","Match","Exact","27430 ELDORADO PL, LATHRUP VILLAGE, MI, 48076",69739692,"R"
440323,"27430 EVANS DR","MARION STATION","MD",21838,38.03356696,-75.80444119,323,"27430 EVANS DR, MARION STATION, MD, 21838","Match","Exact","27430 EVANS DR, MARION STATION, MD, 21838",104162617,"R"
440324,"27430 SNOWBERRY CT","SANTA CLARITA","CA",91350,34.4335100480001,-118.497022322,324,"27430 SNOWBERRY CT, SANTA CLARITA, CA, 91350","Match","Exact","27430 SNOWBERRY CT, SANTA CLARITA, CA, 91350",648604201,"R"
440325,"27431 S WILDWOOD DRIVE","MONEE","IL",60449,41.3911764370001,-87.7972677819999,325,"27431 S WILDWOOD DRIVE, MONEE, IL, 60449","Match","Exact","27431 S WILDWOOD DR, MONEE, IL, 60449",633576684,"L"
440326,"27432 COLDWATER DRIVE","VALENCIA","CA",91354,34.438487658,-118.55762867,326,"27432 COLDWATER DRIVE, VALENCIA, CA, 91354","Match","Exact","27432 COLDWATER DR, VALENCIA, CA, 91354",627285085,"L"
440327,"27432 DORTCH AVE","BONITA SPRINGS","FL",34135,26.3395231050001,-81.773519769,327,"27432 DORTCH AVE, BONITA SPRINGS, FL, 34135","Match","Exact","27432 DORTCH AVE, BONITA SPGS, FL, 34135",118079233,"L"
440328,"27433 DAMERAU","NEW BRAUNFELS","TX",78132,29.7023673750001,-98.25628088,328,"27433 DAMERAU, NEW BRAUNFELS, TX, 78132","Match","Non_Exact","27433 DAMERAU LN, NEW BRAUNFELS, TX, 78132",651878821,"R"
440329,"27435 PAID EEN OGS RD","BEAVER ISLAND","MI",49782,45.6886308690001,-85.546786273,329,"27435 PAID EEN OGS RD, BEAVER ISLAND, MI, 49782","Match","Non_Exact","27435 PAIDEENOG RD, BEAVER ISLAND, MI, 49782",642578239,"R"
440330,"27435 VIA PETRA","SAN JUAN CAPISTRANO","CA",92675,33.488370516,-117.651400634,330,"27435 VIA PETRA, SAN JUAN CAPISTRANO, CA, 92675","Match","Exact","27435 VIA PETRA, SAN JUAN CAPISTRANO, CA, 92675",144391426,"R"
440331,"27436","INKSTER","MI",48141,NA,NA,331,"27436, INKSTER, MI, 48141","No_Match",NA,NA,NA,NA
440332,"27437 YELLOW WOOD WAY","MURRIETA","CA",92562,NA,NA,332,"27437 YELLOW WOOD WAY, MURRIETA, CA, 92562","No_Match",NA,NA,NA,NA
440333,"27438 MORTENSEN COURT","MENIFEE","CA",92584,33.6565934170001,-117.181408084,333,"27438 MORTENSEN COURT, MENIFEE, CA, 92584","Match","Exact","27438 MORTENSEN CT, MENIFEE, CA, 92584",640880738,"R"
440334,"27438 US HWY 283","EDMOND","KS",67645,39.602214082,-99.852516629,334,"27438 US HWY 283, EDMOND, KS, 67645","Match","Exact","27438 US HWY 283, EDMOND, KS, 67645",196472650,"L"
440335,"27439 COUNTY ROAD 107","PEQUOT LAKES","MN",56472,46.551833205,-94.298112864,335,"27439 COUNTY ROAD 107, PEQUOT LAKES, MN, 56472","Match","Exact","27439 CO RD 107, PEQUOT LAKES, MN, 56472",649712754,"R"
440336,"27439","MUSCODA","WI",53573,NA,NA,336,"27439, MUSCODA, WI, 53573","No_Match",NA,NA,NA,NA
440337,"27439","RICHLAND CENTER","WI",53581,NA,NA,337,"27439, RICHLAND CENTER, WI, 53581","No_Match",NA,NA,NA,NA
440338,"2744 1/2 SOUTH REDONDO BOULEVARD","LOS ANGELES","CA",90066,34.0296850510001,-118.357443628,338,"2744 1/2 SOUTH REDONDO BOULEVARD, LOS ANGELES, CA, 90066","Match","Non_Exact","2744 S REDONDO BLVD, LOS ANGELES, CA, 90016",141601154,"L"
440339,"2744 ARNOLD RD","DES MOINES","IA",50310,41.621050451,-93.654717988,339,"2744 ARNOLD RD, DES MOINES, IA, 50310","Match","Exact","2744 ARNOLD RD, DES MOINES, IA, 50310",65780273,"L"
440340,"2744 ASCHINGER BLVD","COLUMBUS","OH",43212,39.990813159,-83.028926413,340,"2744 ASCHINGER BLVD, COLUMBUS, OH, 43212","Match","Exact","2744 ASCHINGER BLVD, COLUMBUS, OH, 43212",218484952,"R"
440341,"2744 BAKER ST","SAN FRANCISCO","CA",94123,37.7962565560001,-122.445487162,341,"2744 BAKER ST, SAN FRANCISCO, CA, 94123","Match","Exact","2744 BAKER ST, SAN FRANCISCO, CA, 94123",192279543,"R"
440342,"2744 BIRMINGHAM RD","ALAMO","TN",38001,35.820950489,-89.212860803,342,"2744 BIRMINGHAM RD, ALAMO, TN, 38001","Match","Exact","2744 BIRMINGHAM RD, ALAMO, TN, 38001",639099207,"R"
440343,"2744 BRANTLEY DRIVE","APEX","NC",27539,35.651679904,-78.727612624,343,"2744 BRANTLEY DRIVE, APEX, NC, 27539","Match","Exact","2744 BRANTLEY DR, APEX, NC, 27539",72537209,"R"
440344,"2744 BULKHEAD DRIVE","WOODBRIDGE","VA",22191,38.601455179,-77.291571711,344,"2744 BULKHEAD DRIVE, WOODBRIDGE, VA, 22191","Match","Exact","2744 BULKHEAD DR, WOODBRIDGE, VA, 22191",632945386,"L"
440345,"2744 CANYON RIDGE DR","DALLAS","TX",75227,NA,NA,345,"2744 CANYON RIDGE DR, DALLAS, TX, 75227","No_Match",NA,NA,NA,NA
440346,"2744 CARAMBOLA CIRCLE SOUTH","COCONUT CREEK","FL",33066,26.268272718,-80.175770093,346,"2744 CARAMBOLA CIRCLE SOUTH, COCONUT CREEK, FL, 33066","Match","Exact","2744 CARAMBOLA CIR S, COCONUT CREEK, FL, 33066",648307429,"R"
440347,"2744 CHEVY CHASE DR","MONTGOMERY","AL",36107,32.3581465030001,-86.267672736,347,"2744 CHEVY CHASE DR, MONTGOMERY, AL, 36107","Match","Exact","2744 CHEVY CHASE DR, MONTGOMERY, AL, 36107",1505143,"R"
440348,"2744 COLLEGE AVE APT 7","LIVERMORE","CA",94550,37.6744370800001,-121.759062251,348,"2744 COLLEGE AVE APT 7, LIVERMORE, CA, 94550","Match","Exact","2744 COLLEGE AVE, LIVERMORE, CA, 94550",125055242,"L"
440349,"2744 COUNTY RD 600 NORTH RD","EL PASO","IL",61738,40.679097819,-89.0149940859999,349,"2744 COUNTY RD 600 NORTH RD, EL PASO, IL, 61738","Match","Exact","2744 CO RD 600 N, EL PASO, IL, 61738",605091829,"L"
440350,"2744 DEBRA LANE","HOMEWOOD","IL",60430,41.5630160040001,-87.683064037,350,"2744 DEBRA LANE, HOMEWOOD, IL, 60430","Match","Exact","2744 DEBRA LN, HOMEWOOD, IL, 60430",111708707,"R"
440351,"2744 E TERESA DR","MARTINSVILLE","IN",46151,39.411759971,-86.377655047,351,"2744 E TERESA DR, MARTINSVILLE, IN, 46151","Match","Exact","2744 E TERESA DR, MARTINSVILLE, IN, 46151",43578912,"L"
440352,"2744 EAST 11TH STREET C1","OAKLAND","CA",94601,37.7782941200001,-122.233706165,352,"2744 EAST 11TH STREET C1, OAKLAND, CA, 94601","Match","Exact","2744 E 11TH ST, OAKLAND, CA, 94601",125006026,"L"
440353,"2744 EAST 11TH STREET","OAKLAND","CA",94601,37.7782941200001,-122.233706165,353,"2744 EAST 11TH STREET, OAKLAND, CA, 94601","Match","Exact","2744 E 11TH ST, OAKLAND, CA, 94601",125006026,"L"
440354,"2744 EAST 66TH ST","BROOKLYN","NY",11234,40.605359234,-73.912022764,354,"2744 EAST 66TH ST, BROOKLYN, NY, 11234","Match","Exact","2744 E 66TH ST, BROOKLYN, NY, 11234",59092826,"R"
440355,"2744 FOREST GLEN PARKWAY","W","IL",60517,41.7491552550001,-88.049503848,355,"2744 FOREST GLEN PARKWAY, W, IL, 60517","Match","Non_Exact","2744 FOREST GLEN PKWY, WOODRIDGE, IL, 60517",112539184,"R"
440356,"2744 GARNET RIDGE DR","LEANDER","TX",78641,30.531223638,-97.871977573,356,"2744 GARNET RIDGE DR, LEANDER, TX, 78641","Match","Exact","2744 GARNET RIDGE DR, LEANDER, TX, 78641",641746175,"L"
440357,"2744 GRANDVIEW STREET","SAN DIEGO","CA",92110,32.7909096930001,-117.193527285,357,"2744 GRANDVIEW STREET, SAN DIEGO, CA, 92110","Match","Exact","2744 GRANDVIEW ST, SAN DIEGO, CA, 92110",195305686,"L"
440358,"2744 LAURETTA PARK","HIGHLAND PARK","IL",60035,42.202607266,-87.8067810059999,358,"2744 LAURETTA PARK, HIGHLAND PARK, IL, 60035","Match","Non_Exact","2744 LAURETTA PL, HIGHLAND PARK, IL, 60035",640095169,"L"
440359,"2744 LOWREY AVENUE","HONOLULU","HI",96822,21.312634202,-157.809917918,359,"2744 LOWREY AVENUE, HONOLULU, HI, 96822","Match","Exact","2744 LOWREY AVE, HONOLULU, HI, 96822",203237981,"L"
440360,"2744 MAIN STREET","FRANKLINVILLE","NJ",8322,39.590814858,-75.008549188,360,"2744 MAIN STREET, FRANKLINVILLE, NJ, 8322","Match","Non_Exact","2744 MAIN RD, FRANKLINVILLE, NJ, 08322",134625080,"R"
440361,"2744 MARCONI AVE","SACRAMENTO","CA",95821,38.6179672280001,-121.398018589,361,"2744 MARCONI AVE, SACRAMENTO, CA, 95821","Match","Exact","2744 MARCONI AVE, SACRAMENTO, CA, 95821",133424017,"R"
440362,"2744 MILLERS WAY DRIVE","ELLICOTT CITY","MD",21043,39.303970674,-76.809507809,362,"2744 MILLERS WAY DRIVE, ELLICOTT CITY, MD, 21043","Match","Exact","2744 MILLERS WAY DR, ELLICOTT CITY, MD, 21043",635795791,"R"
440363,"2744 MISSION AVE","CARMICHAEL","CA",95608,38.615570377,-121.355216679,363,"2744 MISSION AVE, CARMICHAEL, CA, 95608","Match","Exact","2744 MISSION AVE, CARMICHAEL, CA, 95608",133334394,"R"
440364,"2744 MISTY BROOK LANE","CORDOVA","TN",38016,35.20020816,-89.74369095,364,"2744 MISTY BROOK LANE, CORDOVA, TN, 38016","Match","Exact","2744 MISTY BROOK LN, CORDOVA, TN, 38016",72954756,"R"
440365,"2744 N FRANCISCO AVE APT 1","CHICAGO","IL",60647,41.9314876880001,-87.700065369,365,"2744 N FRANCISCO AVE APT 1, CHICAGO, IL, 60647","Match","Non_Exact","2744 N FRANCISCO AVE, CHICAGO, IL, 60647",605207302,"L"
440366,"2744 NE 54TH ST","SEATTLE","WA",98105,47.6678621470001,-122.297917923,366,"2744 NE 54TH ST, SEATTLE, WA, 98105","Match","Exact","2744 NE 54TH ST, SEATTLE, WA, 98105",186585779,"L"
440367,"2744 ONAWAY AVE","PORT ST LUCIE","FL",34987,27.2861923730001,-80.430815245,367,"2744 ONAWAY AVE, PORT ST LUCIE, FL, 34987","Match","Exact","2744 ONAWAY AVE, PORT ST LUCIE, FL, 34987",120180375,"L"
440368,"2744 OTSEGO AVE","COSHOCTON","OH",43812,40.2390017210001,-81.858055898,368,"2744 OTSEGO AVE, COSHOCTON, OH, 43812","Match","Exact","2744 OTSEGO AVE, COSHOCTON, OH, 43812",52108680,"R"
440369,"2744 PARKWAY COVE","LITHONIA","GA",30058,33.7151601950001,-84.119726713,369,"2744 PARKWAY COVE, LITHONIA, GA, 30058","Match","Exact","2744 PARKWAY COVE, LITHONIA, GA, 30058",619388594,"R"
440370,"2744 PRIMROSE TRAIL","COLUMBUS","OH",43231,40.0620042910001,-82.9467711459999,370,"2744 PRIMROSE TRAIL, COLUMBUS, OH, 43231","Match","Non_Exact","2744 PRIMROSE TRCE, COLUMBUS, OH, 43231",640031947,"L"
440371,"2744 PYTHAGORAS CIRCLE","OCOEE","FL",34761,28.6086517300001,-81.5295364689999,371,"2744 PYTHAGORAS CIRCLE, OCOEE, FL, 34761","Match","Exact","2744 PYTHAGORAS CIR, OCOEE, FL, 34761",627201745,"R"
440372,"2744 PYTHAGORAS CIRCLE","PERRY","FL",34761,28.6086517300001,-81.5295364689999,372,"2744 PYTHAGORAS CIRCLE, PERRY, FL, 34761","Match","Non_Exact","2744 PYTHAGORAS CIR, OCOEE, FL, 34761",627201745,"R"
440373,"2744 RAINBOW FOREST DRIVE","DECATUR","GA",30034,33.7066171270001,-84.241022168,373,"2744 RAINBOW FOREST DRIVE, DECATUR, GA, 30034","Match","Exact","2744 RAINBOW FOREST DR, DECATUR, GA, 30034",23371223,"L"
440374,"2744 RAINBOW FOREST DRIVE","DECTAUR","GA",30034,33.7066171270001,-84.241022168,374,"2744 RAINBOW FOREST DRIVE, DECTAUR, GA, 30034","Match","Non_Exact","2744 RAINBOW FOREST DR, DECATUR, GA, 30034",23371223,"L"
440375,"2744 RALEIGH AVENUE SOUTH","SAINT LOUIS PARK","MN",55416,44.953062786,-93.3441751839999,375,"2744 RALEIGH AVENUE SOUTH, SAINT LOUIS PARK, MN, 55416","Match","Exact","2744 RALEIGH AVE S, SAINT LOUIS PARK, MN, 55416",43620321,"R"
440376,"2744 ROCKFORD ROAD","YADKINVILLE","NC",27055,36.193839424,-80.648716956,376,"2744 ROCKFORD ROAD, YADKINVILLE, NC, 27055","Match","Exact","2744 ROCKFORD RD, YADKINVILLE, NC, 27055",84751255,"R"
440377,"2744 ROCKWALL ROAD","NASHVILLE","TN",37221,36.0512376990001,-86.921308644,377,"2744 ROCKWALL ROAD, NASHVILLE, TN, 37221","Match","Non_Exact","2744 ROCK WALL RD, NASHVILLE, TN, 37221",73121850,"R"
440378,"2744 S 49TH STREET","MILWAUKEE","WI",53219,42.994804598,-87.975234616,378,"2744 S 49TH STREET, MILWAUKEE, WI, 53219","Match","Exact","2744 S 49TH ST, MILWAUKEE, WI, 53219",77748495,"L"
440379,"2744 SIZEMORE ROAD","YADKINVILLE","NC",27055,36.187962697,-80.632394988,379,"2744 SIZEMORE ROAD, YADKINVILLE, NC, 27055","Match","Exact","2744 SIZEMORE RD, YADKINVILLE, NC, 27055",637575478,"R"
440380,"2744 SOUTH PLEASANT OAK COURT","PANAMA CITY BEACH","FL",32408,30.166954779,-85.767658822,380,"2744 SOUTH PLEASANT OAK COURT, PANAMA CITY BEACH, FL, 32408","Match","Exact","2744 S PLEASANT OAK CT, PANAMA CITY BEACH, FL, 32408",7034085,"R"
440381,"2744 SOUTHERN OAKS DR","CANTONMENT","FL",32533,30.5522433,-87.288693581,381,"2744 SOUTHERN OAKS DR, CANTONMENT, FL, 32533","Match","Exact","2744 SOUTHERN OAKS DR, CANTONMENT, FL, 32533",93245043,"R"
440382,"2744 SPRING RAIN","MESQUITE","TX",75181,32.738243895,-96.539818695,382,"2744 SPRING RAIN, MESQUITE, TX, 75181","Match","Non_Exact","2744 SPRING RAIN DR, MESQUITE, TX, 75181",103166308,"L"
440383,"2744 SPRING","MESQUITE","TX",75181,NA,NA,383,"2744 SPRING, MESQUITE, TX, 75181","No_Match",NA,NA,NA,NA
440384,"2744 VILLAGE GREEN DR","MACON","GA",31204,32.782130802,-83.710539346,384,"2744 VILLAGE GREEN DR, MACON, GA, 31204","Match","Non_Exact","2744 VILLAGE GREEN DR, MACON, GA, 31206",81060076,"L"
440385,"2744 W 38TH STREET","CHICAGO","IL",60632,41.824647428,-87.693378507,385,"2744 W 38TH STREET, CHICAGO, IL, 60632","Match","Exact","2744 W 38TH ST, CHICAGO, IL, 60632",604982094,"R"
440386,"2744 W 96TH ST","EVERGREEN PARK","IL",60805,41.7190417800001,-87.690949895,386,"2744 W 96TH ST, EVERGREEN PARK, IL, 60805","Match","Exact","2744 W 96TH ST, EVERGREEN PARK, IL, 60805",605476014,"R"
440387,"2744 WATTS DRIVE","KENNESAW","GA",30144,34.021067112,-84.6190982259999,387,"2744 WATTS DRIVE, KENNESAW, GA, 30144","Match","Exact","2744 WATTS DR, KENNESAW, GA, 30144",645370736,"R"
440388,"2744 WEST AB AVE","PLAINWELL","MI",49080,42.4129984740001,-85.625216231,388,"2744 WEST AB AVE, PLAINWELL, MI, 49080","Match","Exact","2744 W AB AVE, PLAINWELL, MI, 49080",642604677,"L"
440389,"2744 WEST INTERSTATE 20 APT A339","GRAND PRAIRIE","TX",75052,NA,NA,389,"2744 WEST INTERSTATE 20 APT A339, GRAND PRAIRIE, TX, 75052","No_Match",NA,NA,NA,NA
440390,"27440 HAMMOCK VIEW CT","YALAHA","FL",34797,28.7461284930001,-81.8321661579999,390,"27440 HAMMOCK VIEW CT, YALAHA, FL, 34797","Match","Exact","27440 HAMMOCK VIEW CT, YALAHA, FL, 34797",94168551,"L"
440391,"27440 KUYKENDAHL RD","TOMBAL","TX",77375,NA,NA,391,"27440 KUYKENDAHL RD, TOMBAL, TX, 77375","No_Match",NA,NA,NA,NA
440392,"27440 KUYKENDAHL RD","TOMBALL","TX",77375,NA,NA,392,"27440 KUYKENDAHL RD, TOMBALL, TX, 77375","No_Match",NA,NA,NA,NA
440393,"27440 SR 71 NORTH","ALTHA","FL",32421,NA,NA,393,"27440 SR 71 NORTH, ALTHA, FL, 32421","No_Match",NA,NA,NA,NA
440394,"27445 BIG SRPINGS RANCH RD","HEMET","CA",92544,NA,NA,394,"27445 BIG SRPINGS RANCH RD, HEMET, CA, 92544","No_Match",NA,NA,NA,NA
440395,"27446 SUGAR LOAF DRIVE","WESLEY CHAPEL","FL",33544,28.179902338,-82.362353485,395,"27446 SUGAR LOAF DRIVE, WESLEY CHAPEL, FL, 33544","Match","Exact","27446 SUGAR LOAF DR, WESLEY CHAPEL, FL, 33544",86406273,"L"
440396,"27447 SANDTOWN ROAD","GOLDSBORO","MD",21636,39.0289954180001,-75.7483102369999,396,"27447 SANDTOWN ROAD, GOLDSBORO, MD, 21636","Match","Exact","27447 SANDTOWN RD, GOLDSBORO, MD, 21636",68309643,"L"
440397,"27447 VALLE BLUFF","BOERNE","TX",78015,29.707640762,-98.631071155,397,"27447 VALLE BLUFF, BOERNE, TX, 78015","Match","Exact","27447 VALLE BLUFF, BOERNE, TX, 78015",642213875,"R"
440398,"27448 122ND AVE SE","KENT","WA",98030,47.355758037,-122.179310587,398,"27448 122ND AVE SE, KENT, WA, 98030","Match","Exact","27448 122ND AVE SE, KENT, WA, 98030",186654245,"L"
440399,"27448 212TH PL SE","MAPLE VALLEY","WA",98038,47.3556602400001,-122.058048956,399,"27448 212TH PL SE, MAPLE VALLEY, WA, 98038","Match","Exact","27448 212 PL SE, MAPLE VALLEY, WA, 98038",632537589,"L"
440400,"2745  PEARSALL AVE  APT 2","BRONX","NY",10469,40.8659672810001,-73.851941919,400,"2745  PEARSALL AVE  APT 2, BRONX, NY, 10469","Match","Exact","2745 PEARSALL AVE, BRONX, NY, 10469",80303730,"L"
440401,"2745 1ST AVE","MARION","IA",52302,42.027832113,-91.582828988,401,"2745 1ST AVE, MARION, IA, 52302","Match","Exact","2745 1ST AVE, MARION, IA, 52302",17023565,"R"
440402,"2745 58TH AVENUE SOUTH UNIT 257","SAINT PETERSBURG","FL",33712,27.715614858,-82.670034071,402,"2745 58TH AVENUE SOUTH UNIT 257, SAINT PETERSBURG, FL, 33712","Match","Exact","2745 58TH AVE S, SAINT PETERSBURG, FL, 33712",124760265,"R"
440403,"2745 8TH AVENUE","NEW YORK","NY",10039,40.8236566040001,-73.9413252369999,403,"2745 8TH AVENUE, NEW YORK, NY, 10039","Match","Exact","2745 8TH AVE, NEW YORK, NY, 10039",59656304,"L"
440404,"2745 ANDERSON FERRY RD SUITE 3","CINCINNATI","OH",45238,39.1355497370001,-84.614105576,404,"2745 ANDERSON FERRY RD SUITE 3, CINCINNATI, OH, 45238","Match","Exact","2745 ANDERSON FERRY RD, CINCINNATI, OH, 45238",103917325,"L"
440405,"2745 ARANCIA DRIVE","FORT COLLINS","CO",80521,40.5744104560001,-105.127487656,405,"2745 ARANCIA DRIVE, FORT COLLINS, CO, 80521","Match","Exact","2745 ARANCIA DR, FORT COLLINS, CO, 80521",188625094,"R"
440406,"2745 ARBOR AVENUE","CINCINNATI","OH",45209,39.1476164090001,-84.441304289,406,"2745 ARBOR AVENUE, CINCINNATI, OH, 45209","Match","Exact","2745 ARBOR AVE, CINCINNATI, OH, 45209",103930780,"R"
440407,"2745 ATLAS AVE","THOUSAND OAKS","CA",91360,34.2165901400001,-118.874792727,407,"2745 ATLAS AVE, THOUSAND OAKS, CA, 91360","Match","Exact","2745 ATLAS AVE, THOUSAND OAKS, CA, 91360",110012854,"L"
440408,"2745 BERRY HILLS ROAD","WALDORF","MD",20603,38.6368397090001,-77.017600334,408,"2745 BERRY HILLS ROAD, WALDORF, MD, 20603","Match","Exact","2745 BERRY HILLS RD, WALDORF, MD, 20603",25384771,"L"
440409,"2745 BIRCHCREST DR APT 708","GRAND RAPIDS","MI",49506,42.913692514,-85.613718591,409,"2745 BIRCHCREST DR APT 708, GRAND RAPIDS, MI, 49506","Match","Non_Exact","2745 BIRCHCREST DR SE, GRAND RAPIDS, MI, 49506",653387589,"R"
440410,"2745 BIRCHCREST DRIVE APT NO 807","GRAND RAPIDS","MI",49506,42.913692514,-85.613718591,410,"2745 BIRCHCREST DRIVE APT NO 807, GRAND RAPIDS, MI, 49506","Match","Non_Exact","2745 BIRCHCREST DR SE, GRAND RAPIDS, MI, 49506",653387589,"R"
440411,"2745 BLUE GOOSE RD","FRIENDSVILLE","MD",21531,39.685557659,-79.4531319979999,411,"2745 BLUE GOOSE RD, FRIENDSVILLE, MD, 21531","Match","Exact","2745 BLUE GOOSE RD, FRIENDSVILLE, MD, 21531",648249493,"R"
440412,"2745 BORCHCREST DRIVE 706","GRAND RAPIDS","MI",49506,NA,NA,412,"2745 BORCHCREST DRIVE 706, GRAND RAPIDS, MI, 49506","No_Match",NA,NA,NA,NA
440413,"2745 CANYON VIEW DRIVE","SANTA CLARA","UT",84765,37.137299209,-113.647956333,413,"2745 CANYON VIEW DRIVE, SANTA CLARA, UT, 84765","Match","Exact","2745 CANYON VIEW DR, SANTA CLARA, UT, 84765",166171062,"L"
440414,"2745 CENTRAL AVE","FORT MYERS","FL",33901,26.6273272620001,-81.8641855669999,414,"2745 CENTRAL AVE, FORT MYERS, FL, 33901","Match","Exact","2745 CENTRAL AVE, FORT MYERS, FL, 33901",118021598,"L"
440415,"2745 CORRIE ADRIAN LANE","TALLAHASSEE","FL",32303,30.505843966,-84.341258911,415,"2745 CORRIE ADRIAN LANE, TALLAHASSEE, FL, 32303","Match","Exact","2745 CORRIE ADRIAN LN, TALLAHASSEE, FL, 32303",82866159,"L"
440416,"2745 CRESSET DRIVE","WINTERVILLE","NC",28590,35.521315906,-77.395296157,416,"2745 CRESSET DRIVE, WINTERVILLE, NC, 28590","Match","Exact","2745 CRESSET DR, WINTERVILLE, NC, 28590",633907591,"L"
440417,"2745 CURTIS","TYLER","TX",75701,32.319326335,-95.285219602,417,"2745 CURTIS, TYLER, TX, 75701","Match","Non_Exact","2745 CURTIS DR, TYLER, TX, 75701",141272234,"R"
440418,"2745 DAHLONEGA TRAIL","AUSTELL","GA",30106,33.8436330650001,-84.637557569,418,"2745 DAHLONEGA TRAIL, AUSTELL, GA, 30106","Match","Exact","2745 DAHLONEGA TRL, AUSTELL, GA, 30106",17247623,"R"
440419,"2745 DELIVERANCE DRIVE","COLORADO SPRINGS","CO",80918,38.929043226,-104.776084643,419,"2745 DELIVERANCE DRIVE, COLORADO SPRINGS, CO, 80918","Match","Exact","2745 DELIVERANCE DR, COLORADO SPRINGS, CO, 80918",105510439,"L"
440420,"2745 DOUGLAS AVE","DES MOINES","IA",50310,41.629180805,-93.656511049,420,"2745 DOUGLAS AVE, DES MOINES, IA, 50310","Match","Exact","2745 DOUGLAS AVE, DES MOINES, IA, 50310",638754372,"R"
440421,"2745 DOUGLAS AVE","DES","IA",50310,41.629180805,-93.656511049,421,"2745 DOUGLAS AVE, DES, IA, 50310","Match","Non_Exact","2745 DOUGLAS AVE, DES MOINES, IA, 50310",638754372,"R"
440422,"2745 E 31 STREET","BROWNSVILLE","TX",78520,25.899388609,-97.462338898,422,"2745 E 31 STREET, BROWNSVILLE, TX, 78520","Match","Non_Exact","2745 E 31ST ST, BROWNSVILLE, TX, 78521",89968239,"L"
440423,"2745 E PEGASUS ST","GILBERT","AZ",85234,33.3664594250001,-111.732208766,423,"2745 E PEGASUS ST, GILBERT, AZ, 85234","Match","Exact","2745 E PEGASUS ST, GILBERT, AZ, 85234",128839718,"R"
440424,"2745 EAST 10TH ST","OAKLAND","CA",94601,37.7776954830001,-122.234211941,424,"2745 EAST 10TH ST, OAKLAND, CA, 94601","Match","Exact","2745 E 10TH ST, OAKLAND, CA, 94601",125006028,"R"
440425,"2745 EL PRADO ROAD","SANTA BARBARA","CA",93105,34.434095858,-119.728289854,425,"2745 EL PRADO ROAD, SANTA BARBARA, CA, 93105","Match","Exact","2745 EL PRADO RD, SANTA BARBARA, CA, 93105",108604024,"L"
440426,"2745 ENGLEWOOD DR","CUMMING","GA",30040,34.236796917,-84.101143797,426,"2745 ENGLEWOOD DR, CUMMING, GA, 30040","Match","Exact","2745 ENGLEWOOD DR, CUMMING, GA, 30040",637507182,"L"
440427,"2745 FIRST STREET APARTMENT 606","FORT MYERS","FL",33916,26.650841757,-81.858214652,427,"2745 FIRST STREET APARTMENT 606, FORT MYERS, FL, 33916","Match","Exact","2745 1ST ST, FORT MYERS, FL, 33916",118102505,"L"
440428,"2745 FIRST STREET APT 606","FORT MYERS","FL",33916,26.650841757,-81.858214652,428,"2745 FIRST STREET APT 606, FORT MYERS, FL, 33916","Match","Exact","2745 1ST ST, FORT MYERS, FL, 33916",118102505,"L"
440429,"2745 HOPKINS AVENUE","LANSING","MI",48912,42.748412445,-84.512931749,429,"2745 HOPKINS AVENUE, LANSING, MI, 48912","Match","Exact","2745 HOPKINS AVE, LANSING, MI, 48912",628837787,"L"
440430,"2745 HUNTSVILLE HWY LOT 1","FAYETTEVILLE","TN",37334,35.0777611930001,-86.571582883,430,"2745 HUNTSVILLE HWY LOT 1, FAYETTEVILLE, TN, 37334","Match","Exact","2745 HUNTSVILLE HWY, FAYETTEVILLE, TN, 37334",58311132,"L"
440431,"2745 LAS VENTANAS TRAIL","FORT WORTH","TX",76131,32.869842894,-97.321336692,431,"2745 LAS VENTANAS TRAIL, FORT WORTH, TX, 76131","Match","Exact","2745 LAS VENTANAS TRL, FORT WORTH, TX, 76131",619871600,"L"
440432,"2745 LENOX RD NE STE 2","ATLANTA","GA",30324,33.83045551,-84.355596089,432,"2745 LENOX RD NE STE 2, ATLANTA, GA, 30324","Match","Non_Exact","2745 LENOX RD, ATLANTA, GA, 30324",17391684,"R"
440433,"2745 LINCOLN AVE","ST ALBANS","WV",25177,38.3785651100001,-81.798536767,433,"2745 LINCOLN AVE, ST ALBANS, WV, 25177","Match","Exact","2745 LINCOLN AVE, SAINT ALBANS, WV, 25177",78585437,"R"
440434,"2745 LYNN DR","MARION","IA",52302,42.049328589,-91.58957651,434,"2745 LYNN DR, MARION, IA, 52302","Match","Exact","2745 LYNN DR, MARION, IA, 52302",17035090,"L"
440435,"2745 MARLENE STREET","MEMPHIS","TN",38118,35.0739170960001,-89.944095273,435,"2745 MARLENE STREET, MEMPHIS, TN, 38118","Match","Exact","2745 MARLENE ST, MEMPHIS, TN, 38118",72920268,"R"
440436,"2745 MERIDIAN DRIVE","DACULA","GA",30019,34.054046063,-83.930751771,436,"2745 MERIDIAN DRIVE, DACULA, GA, 30019","Match","Exact","2745 MERIDIAN DR, DACULA, GA, 30019",88954137,"L"
440437,"2745 MERRIEWEATHER LN","KISSIMMEE","FL",34743,28.3360162600001,-81.332283578,437,"2745 MERRIEWEATHER LN, KISSIMMEE, FL, 34743","Match","Exact","2745 MERRIEWEATHER LN, KISSIMMEE, FL, 34743",624812649,"R"
440438,"2745 MESA DR","OCEAN SIDE","CA",92054,33.2047065250001,-117.351535388,438,"2745 MESA DR, OCEAN SIDE, CA, 92054","Match","Non_Exact","2745 MESA DR, OCEANSIDE, CA, 92054",195280577,"R"
440439,"2745 MIDWAY CHURCH ROAD","BLACKSHEAR","GA",31516,31.251545245,-82.285188444,439,"2745 MIDWAY CHURCH ROAD, BLACKSHEAR, GA, 31516","Match","Exact","2745 MIDWAY CHURCH RD, BLACKSHEAR, GA, 31516",636403176,"L"
440440,"2745 MOREFIELD ROAD","HERMITAGE","PA",16148,41.226569322,-80.4584748239999,440,"2745 MOREFIELD ROAD, HERMITAGE, PA, 16148","Match","Exact","2745 MOREFIELD RD, HERMITAGE, PA, 16148",70654632,"L"
440441,"2745 MOUNT ROSE AVENUE","YORK","PA",17402,39.9584667840001,-76.668493015,441,"2745 MOUNT ROSE AVENUE, YORK, PA, 17402","Match","Exact","2745 MOUNT ROSE AVE, YORK, PA, 17402",88733927,"L"
440442,"2745 N CHATHAM CT","WINTERVILLE","NC",28590,35.5580268470001,-77.431328424,442,"2745 N CHATHAM CT, WINTERVILLE, NC, 28590","Match","Exact","2745 N CHATHAM CT, WINTERVILLE, NC, 28590",80048550,"R"
440443,"2745 N DOCTOR MKL DRIVE SUITE 203","MILWAUKEE","WI",53212,NA,NA,443,"2745 N DOCTOR MKL DRIVE SUITE 203, MILWAUKEE, WI, 53212","No_Match",NA,NA,NA,NA
440444,"2745 N MARTIN LUTHER KING DR","MILWAUKEE","WI",53212,43.0685763560001,-87.91405522,444,"2745 N MARTIN LUTHER KING DR, MILWAUKEE, WI, 53212","Match","Exact","2745 N DR MARTIN LUTHER KING DR, MILWAUKEE, WI, 53212",77739651,"L"
440445,"2745 N PHILADELPHIA RD","BOKCHITO","OK",74726,33.964258192,-96.251087819,445,"2745 N PHILADELPHIA RD, BOKCHITO, OK, 74726","Match","Exact","2745 N PHILADELPHIA RD, BOKCHITO, OK, 74726",62511267,"L"
440446,"2745 NE 25TH AVE","PORTLAND","OR",97212,45.542472822,-122.640111444,446,"2745 NE 25TH AVE, PORTLAND, OR, 97212","Match","Exact","2745 NE 25TH AVE, PORTLAND, OR, 97212",157506065,"L"
440447,"2745 NW 69TH AVE","SUNRISE","FL",33313,26.1608510610001,-80.241981046,447,"2745 NW 69TH AVE, SUNRISE, FL, 33313","Match","Exact","2745 NW 69TH AVE, SUNRISE, FL, 33313",114704370,"L"
440448,"2745 NW AVOCET LANE","PORTLAND","OR",97229,45.5429292750001,-122.766793343,448,"2745 NW AVOCET LANE, PORTLAND, OR, 97229","Match","Exact","2745 NW AVOCET LN, PORTLAND, OR, 97229",157592886,"L"
440449,"2745 NW PETTYGROVE 3","PORTLAND","OR",97210,NA,NA,449,"2745 NW PETTYGROVE 3, PORTLAND, OR, 97210","No_Match",NA,NA,NA,NA
440450,"2745 OAK CANYON ROAD","LAFAYETTE","CA",94549,37.8608340480001,-122.080756447,450,"2745 OAK CANYON ROAD, LAFAYETTE, CA, 94549","Match","Exact","2745 OAK CANYON RD, LAFAYETTE, CA, 94549",192106586,"R"
440451,"2745 ORCHARD LANE APT 4303","SACRAMENTO","CA",95833,38.6155459280001,-121.530070851,451,"2745 ORCHARD LANE APT 4303, SACRAMENTO, CA, 95833","Match","Exact","2745 ORCHARD LN, SACRAMENTO, CA, 95833",133365681,"L"
440452,"2745 PAVONIA","MANSFIELD","OH",44903,NA,NA,452,"2745 PAVONIA, MANSFIELD, OH, 44903","No_Match",NA,NA,NA,NA
440453,"2745 PESTALOZZI ST 2FL","ST LOUIS","MO",63118,38.6020173650001,-90.227402394,453,"2745 PESTALOZZI ST 2FL, ST LOUIS, MO, 63118","Match","Exact","2745 PESTALOZZI ST, SAINT LOUIS, MO, 63118",107602276,"R"
440454,"2745 PINEGATE DR","NORTON","OH",44203,41.028146588,-81.624809222,454,"2745 PINEGATE DR, NORTON, OH, 44203","Match","Exact","2745 PINEGATE DR, NORTON, OH, 44203",624028617,"R"
440455,"2745 PINERIDGE DRIVE NW APT F","GRAND RAPIDS","MI",49534,NA,NA,455,"2745 PINERIDGE DRIVE NW APT F, GRAND RAPIDS, MI, 49534","Tie",NA,NA,NA,NA
440456,"2745 PRAIRIE AVE UNIT 19","BELOIT","WI",53511,42.5451596830001,-89.01162899,456,"2745 PRAIRIE AVE UNIT 19, BELOIT, WI, 53511","Match","Exact","2745 PRAIRIE AVE, BELOIT, WI, 53511",49900607,"R"
440457,"2745 REEL STREET","HARRISBURG","PA",17110,40.290346722,-76.896744595,457,"2745 REEL STREET, HARRISBURG, PA, 17110","Match","Exact","2745 REEL ST, HARRISBURG, PA, 17110",70816413,"R"
440458,"2745 RIVER MOUNTAIN ROAD","LEBANON","VA",24266,36.9315046680001,-82.0667550589999,458,"2745 RIVER MOUNTAIN ROAD, LEBANON, VA, 24266","Match","Exact","2745 RIVER MOUNTAIN RD, LEBANON, VA, 24266",647886832,"L"
440459,"2745 S 44TH ST","MILWAUKEE","WI",53219,42.994811193,-87.9690325619999,459,"2745 S 44TH ST, MILWAUKEE, WI, 53219","Match","Exact","2745 S 44TH ST, MILWAUKEE, WI, 53219",77748659,"R"
440460,"2745 S BABCOCK STREET","MELBOURNE","FL",32901,28.068405135,-80.62122382,460,"2745 S BABCOCK STREET, MELBOURNE, FL, 32901","Match","Exact","2745 S BABCOCK ST, MELBOURNE, FL, 32901",637993628,"L"
440461,"2745 S BRIDGE RD","WASHINGTON","PA",15301,40.123184253,-80.335367377,461,"2745 S BRIDGE RD, WASHINGTON, PA, 15301","Match","Exact","2745 S BRIDGE RD, WASHINGTON, PA, 15301",52830284,"L"
440462,"2745 S DELSEA DRIVE","VINELAND","NJ",8360,39.4476420670001,-75.042112104,462,"2745 S DELSEA DRIVE, VINELAND, NJ, 8360","Match","Exact","2745 S DELSEA DR, VINELAND, NJ, 08360",174157465,"L"
440463,"2745 S HIGHLAND DR UPPER UNIT","SALT LAKE CITY","UT",84106,40.711800071,-111.855057385,463,"2745 S HIGHLAND DR UPPER UNIT, SALT LAKE CITY, UT, 84106","Match","Non_Exact","2745 S HIGHLAND DR, SALT LAKE CITY, UT, 84106",176081275,"L"
440464,"2745 SAMPSON AVENUE","BRONX","NY",10465,40.818633268,-73.823489087,464,"2745 SAMPSON AVENUE, BRONX, NY, 10465","Match","Exact","2745 SAMPSON AVE, BRONX, NY, 10465",80309157,"L"
440465,"2745 SHREWSBURY RD","COLUMBUS","OH",43221,40.026686059,-83.087926796,465,"2745 SHREWSBURY RD, COLUMBUS, OH, 43221","Match","Exact","2745 SHREWSBURY RD, COLUMBUS, OH, 43221",218691278,"L"
440466,"2745 SOUTH KITCHEN","PORT NECHES","TX",77651,29.9637772830001,-93.958713572,466,"2745 SOUTH KITCHEN, PORT NECHES, TX, 77651","Match","Non_Exact","2745 S KITCHEN DR, PORT NECHES, TX, 77651",73861604,"L"
440467,"2745 SW VILLA W DR APT 2513","TOPEKA","KS",66614,39.019081752,-95.767131204,467,"2745 SW VILLA W DR APT 2513, TOPEKA, KS, 66614","Match","Non_Exact","2745 SW VILLA WEST DR, TOPEKA, KS, 66614",17902099,"R"
440468,"2745 SW VILLA WEST DR APT 2302","TOPEKA","KS",66614,39.019081752,-95.767131204,468,"2745 SW VILLA WEST DR APT 2302, TOPEKA, KS, 66614","Match","Non_Exact","2745 SW VILLA WEST DR, TOPEKA, KS, 66614",17902099,"R"
440469,"2745 TECH DR","BETTENDORF","IA",52722,41.550363417,-90.494356851,469,"2745 TECH DR, BETTENDORF, IA, 52722","Match","Exact","2745 TECH DR, BETTENDORF, IA, 52722",122728004,"R"
440470,"2745 VIRGINIA PKWY STE 100","MCKINNEY","TX",75074,33.1988069280001,-96.652023118,470,"2745 VIRGINIA PKWY STE 100, MCKINNEY, TX, 75074","Match","Non_Exact","2745 VIRGINIA PKWY, MCKINNEY, TX, 75071",210481727,"L"
440471,"2745 W LE MOYNE ST APT 2","CHICAGO","IL",60622,NA,NA,471,"2745 W LE MOYNE ST APT 2, CHICAGO, IL, 60622","No_Match",NA,NA,NA,NA
440472,"2745 W PLAZA SERENA DR","RIALTO","CA",92377,34.166305138,-117.428368239,472,"2745 W PLAZA SERENA DR, RIALTO, CA, 92377","Match","Exact","2745 W PLAZA SERENA DR, RIALTO, CA, 92377",144966167,"R"
440473,"2745 WARRENSVILLE CENTER ROAD","SHAKER HEIGHTS","OH",44122,41.4813461800001,-81.5362182539999,473,"2745 WARRENSVILLE CENTER ROAD, SHAKER HEIGHTS, OH, 44122","Match","Exact","2745 WARRENSVILLE CENTER RD, SHAKER HEIGHTS, OH, 44122",61167004,"L"
440474,"2745 WELTON ST","DENVER","CO",80205,39.755228226,-104.977499644,474,"2745 WELTON ST, DENVER, CO, 80205","Match","Exact","2745 WELTON ST, DENVER, CO, 80205",647266260,"L"
440475,"2745 WEST 44TH STREET","CHICAGO","IL",60632,41.8137531620001,-87.693426742,475,"2745 WEST 44TH STREET, CHICAGO, IL, 60632","Match","Exact","2745 W 44TH ST, CHICAGO, IL, 60632",604983175,"L"
440476,"2745 WESTWIND RD","LAS VEGAS","NV",89146,36.1397512400001,-115.21884425,476,"2745 WESTWIND RD, LAS VEGAS, NV, 89146","Match","Exact","2745 WESTWIND RD, LAS VEGAS, NV, 89146",201902091,"R"
440477,"2745 WOODHULL AVENUE","BRONX","NY",10469,40.8665537200001,-73.8416439329999,477,"2745 WOODHULL AVENUE, BRONX, NY, 10469","Match","Exact","2745 WOODHULL AVE, BRONX, NY, 10469",80304011,"L"
440478,"27450 GLASS ROAD UNIT 68","ROBERTSDALE","AL",36567,30.6226335100001,-87.606955006,478,"27450 GLASS ROAD UNIT 68, ROBERTSDALE, AL, 36567","Match","Exact","27450 GLASS RD, ROBERTSDALE, AL, 36567",131634893,"R"
440479,"27450 RAVEN RD","BELLE PLAINE","MN",56011,44.5510586560001,-93.81886119,479,"27450 RAVEN RD, BELLE PLAINE, MN, 56011","Match","Exact","27450 RAVEN RD, BELLE PLAINE, MN, 56011",38139454,"L"
440480,"27451 PASTO DR","PUNTA GORDA","FL",33983,27.0191473420001,-81.995217531,480,"27451 PASTO DR, PUNTA GORDA, FL, 33983","Match","Exact","27451 PASTO DR, PUNTA GORDA, FL, 33983",4320184,"R"
440481,"27452 MOORE CIRCLE","INKSTER","MI",48141,42.276511736,-83.310520888,481,"27452 MOORE CIRCLE, INKSTER, MI, 48141","Match","Exact","27452 MOORE CIR, INKSTER, MI, 48141",95503549,"R"
440482,"27452 SLOAN ST","NOVI","MI",48374,42.4911590570001,-83.5507037409999,482,"27452 SLOAN ST, NOVI, MI, 48374","Match","Exact","27452 SLOAN ST, NOVI, MI, 48374",624398838,"L"
440483,"27453 POLK ST NE","ISANTI","MN",55040,45.466980219,-93.2451651279999,483,"27453 POLK ST NE, ISANTI, MN, 55040","Match","Exact","27453 POLK ST NE, ISANTI, MN, 55040",97624711,"R"
440484,"27454 ANNETE JO CIR","SANTA CLARITA","CA",91350,34.438359699,-118.512154639,484,"27454 ANNETE JO CIR, SANTA CLARITA, CA, 91350","Match","Non_Exact","27454 ANNETTE JO CIR, SANTA CLARITA, CA, 91350",141797672,"R"
440485,"27454 CARLTON OAKS","MURRIETA","CA",92562,33.594939207,-117.181298011,485,"27454 CARLTON OAKS, MURRIETA, CA, 92562","Match","Non_Exact","27454 CARLTON OAKS ST, MURRIETA, CA, 92562",608994458,"L"
440486,"27454 OLD SCHOOL HOUSE RD","ARDMORE","AL",35739,34.953489807,-86.801398192,486,"27454 OLD SCHOOL HOUSE RD, ARDMORE, AL, 35739","Match","Exact","27454 OLD SCHOOL HOUSE RD, ARDMORE, AL, 35739",95256522,"L"
440487,"27454 STATE HIGHWAY 16","CANTON","MO",63435,40.1331139050001,-91.62405635,487,"27454 STATE HIGHWAY 16, CANTON, MO, 63435","Match","Exact","27454 STATE HWY 16, CANTON, MO, 63435",607736143,"L"
440488,"27455 CARDINAL COURT","SANTA CLARITA","CA",91350,34.434510382,-118.497274902,488,"27455 CARDINAL COURT, SANTA CLARITA, CA, 91350","Match","Exact","27455 CARDINAL CT, SANTA CLARITA, CA, 91350",648606604,"L"
440489,"27456 CABEZA","MISSION VIEJO","CA",92691,33.6519169110001,-117.651793703,489,"27456 CABEZA, MISSION VIEJO, CA, 92691","Match","Exact","27456 CABEZA, MISSION VIEJO, CA, 92691",144065968,"R"
440490,"27456 HARRINGTON WAY","NOVI","MI",48374,42.4912386600001,-83.55255027,490,"27456 HARRINGTON WAY, NOVI, MI, 48374","Match","Exact","27456 HARRINGTON WAY, NOVI, MI, 48374",624398910,"R"
440491,"27457 STANFORD DRIVE","TEMECULA","CA",92591,33.5313178760001,-117.147582873,491,"27457 STANFORD DRIVE, TEMECULA, CA, 92591","Match","Exact","27457 STANFORD DR, TEMECULA, CA, 92591",194878422,"R"
440492,"27458 254TH WAY SE","MAPLE VALLEY","WA",98038,47.3552476950001,-122.004401132,492,"27458 254TH WAY SE, MAPLE VALLEY, WA, 98038","Match","Exact","27458 254TH WAY SE, MAPLE VALLEY, WA, 98038",635738722,"L"
440493,"2746 BELMONT AVENUE - APT 524","PHILADELPHIA","PA",19131,40.0006499690001,-75.2197799159999,493,"2746 BELMONT AVENUE - APT 524, PHILADELPHIA, PA, 19131","Match","Exact","2746 BELMONT AVE, PHILADELPHIA, PA, 19131",131396778,"L"
440494,"2746 BELMONT AVENUE","PHILADELPHIA","PA",19131,40.0006499690001,-75.2197799159999,494,"2746 BELMONT AVENUE, PHILADELPHIA, PA, 19131","Match","Exact","2746 BELMONT AVE, PHILADELPHIA, PA, 19131",131396778,"L"
440495,"2746 BRENTWOOD DR","ODESSA","NM",79762,NA,NA,495,"2746 BRENTWOOD DR, ODESSA, NM, 79762","No_Match",NA,NA,NA,NA
440496,"2746 BRENTWOOD DR","ODESSA","TX",79762,31.873517104,-102.365665731,496,"2746 BRENTWOOD DR, ODESSA, TX, 79762","Match","Exact","2746 BRENTWOOD DR, ODESSA, TX, 79762",139429913,"R"
440497,"2746 BURTON BLVD","HOBOKEN","GA",31542,31.1826598760001,-82.143258181,497,"2746 BURTON BLVD, HOBOKEN, GA, 31542","Match","Exact","2746 BURTON BLVD, HOBOKEN, GA, 31542",9110266,"R"
440498,"2746 CENTRAL STREET","EVANSTON","IL",60201,42.0644405730001,-87.712658298,498,"2746 CENTRAL STREET, EVANSTON, IL, 60201","Match","Exact","2746 CENTRAL ST, EVANSTON, IL, 60201",111739850,"L"
440499,"2746 CROSSVINE DRIVE","HELENA","AL",35022,33.297994128,-86.924638618,499,"2746 CROSSVINE DRIVE, HELENA, AL, 35022","Match","Non_Exact","2746 CROSSVINE LN, HELENA, AL, 35022",81738794,"L"
440500,"2746 DECATUR AVENUE    APT C-3","BRONX","NY",10458,40.8657136030001,-73.887808434,500,"2746 DECATUR AVENUE    APT C-3, BRONX, NY, 10458","Match","Exact","2746 DECATUR AVE, BRONX, NY, 10458",80312804,"R"
