"ID","Address","City","State","Zip","lat","long","id","input_address","match_indicator","match_type","matched_address","tiger_line_id","tiger_side"
853001,"7621 HOLLY RIDGE DRIVE","GLEN BURNIE","MD",21060,39.1545335800001,-76.578990302,1,"7621 HOLLY RIDGE DRIVE, GLEN BURNIE, MD, 21060","Match","Exact","7621 HOLLY RIDGE DR, GLEN BURNIE, MD, 21060",649060559,"L"
853002,"7621 LABYRINTH ROAD","PIKESVILLE","MD",21208,39.376102003,-76.700427742,2,"7621 LABYRINTH ROAD, PIKESVILLE, MD, 21208","Match","Exact","7621 LABYRINTH RD, PIKESVILLE, MD, 21208",647290015,"R"
853003,"7621 N DEL MAR AVENUE SUITE 102","FRESNO","CA",93711,36.8482877020001,-119.795871086,3,"7621 N DEL MAR AVENUE SUITE 102, FRESNO, CA, 93711","Match","Non_Exact","7621 N DEL MAR AVE, FRESNO, CA, 93711",197614536,"L"
853004,"7621 N RICHLAND BLVD","NORTH RICHLAND HILLS","TX",76180,32.8526004220001,-97.2198693459999,4,"7621 N RICHLAND BLVD, NORTH RICHLAND HILLS, TX, 76180","Match","Exact","7621 N RICHLAND BLVD, NORTH RICHLAND HILLS, TX, 76180",101864593,"L"
853005,"7621 OTTO DR","CHARLOTTE","MI",48813,42.6784535780001,-84.797960937,5,"7621 OTTO DR, CHARLOTTE, MI, 48813","Match","Non_Exact","7621 OTTO RD, CHARLOTTE, MI, 48813",12033228,"R"
853006,"7621 PENNSYLVANIA DRIVE","TAMPA","FL",33619,27.971945793,-82.370665607,6,"7621 PENNSYLVANIA DRIVE, TAMPA, FL, 33619","Match","Exact","7621 PENNSYLVANIA DR, TAMPA, FL, 33619",104537045,"R"
853007,"7621 S EBERHART","CHICAGO","IL",60619,41.7561651600001,-87.612613443,7,"7621 S EBERHART, CHICAGO, IL, 60619","Match","Non_Exact","7621 S EBERHART AVE, CHICAGO, IL, 60619",111772582,"L"
853008,"7621 S LAUREL WILLOW DRIVE","TUCSON","AZ",85747,32.1131877080001,-110.765289431,8,"7621 S LAUREL WILLOW DRIVE, TUCSON, AZ, 85747","Match","Exact","7621 S LAUREL WILLOW DR, TUCSON, AZ, 85747",653158656,"L"
853009,"7621 S PERRY AVE UNIT 2","CHICAGO","IL",60620,41.7558947970001,-87.6279415289999,9,"7621 S PERRY AVE UNIT 2, CHICAGO, IL, 60620","Match","Non_Exact","7621 S PERRY AVE, CHICAGO, IL, 60620",111832319,"L"
853010,"7621 S PERRY","CHICAGO","IL",60637,NA,NA,10,"7621 S PERRY, CHICAGO, IL, 60637","No_Match",NA,NA,NA,NA
853011,"7621 SOUTH 273RD EAST AVE","BROKEN ARROW","OK",74014,36.052772266,-95.6724147739999,11,"7621 SOUTH 273RD EAST AVE, BROKEN ARROW, OK, 74014","Match","Exact","7621 S 273RD E AVE, BROKEN ARROW, OK, 74014",651787445,"L"
853012,"7621 SOUTH 273RD EAST AVE","BROKWN ARROW","OK",74014,36.052772266,-95.6724147739999,12,"7621 SOUTH 273RD EAST AVE, BROKWN ARROW, OK, 74014","Match","Non_Exact","7621 S 273RD E AVE, BROKEN ARROW, OK, 74014",651787445,"L"
853013,"7621 STAR GAZING LANE","KNOXVILLE","TN",37938,36.0771792150001,-83.9594620139999,13,"7621 STAR GAZING LANE, KNOXVILLE, TN, 37938","Match","Exact","7621 STAR GAZING LN, KNOXVILLE, TN, 37938",604667825,"L"
853014,"7621 STILLHAVEN CT SE","OWENS CROSSROADS","AL",35763,34.614091622,-86.489077648,14,"7621 STILLHAVEN CT SE, OWENS CROSSROADS, AL, 35763","Match","Exact","7621 STILLHAVEN CT SE, OWENS CROSS ROADS, AL, 35763",650669212,"L"
853015,"7621 STRATFORD PL","DARIEN","IL",60561,41.7491062290001,-87.968273187,15,"7621 STRATFORD PL, DARIEN, IL, 60561","Match","Exact","7621 STRATFORD PL, DARIEN, IL, 60561",112551487,"R"
853016,"7621 SW 57TH AVE    APT 2","MIAMI","FL",33146,NA,NA,16,"7621 SW 57TH AVE    APT 2, MIAMI, FL, 33146","No_Match",NA,NA,NA,NA
853017,"7621 SW 61 AVE","MIAMI","FL",33143,25.700164726,-80.292251727,17,"7621 SW 61 AVE, MIAMI, FL, 33143","Match","Non_Exact","7621 SW 61ST AVE, MIAMI, FL, 33143",115985537,"L"
853018,"7621 TARA LANE","JACKSONVILLE","FL",32216,30.2917449780001,-81.5785361969999,18,"7621 TARA LANE, JACKSONVILLE, FL, 32216","Match","Exact","7621 TARA LN, JACKSONVILLE, FL, 32216",83919266,"L"
853019,"7621 W LEAH STREET","SIOUX FALLS","SD",57106,43.526100947,-96.822429563,19,"7621 W LEAH STREET, SIOUX FALLS, SD, 57106","Match","Exact","7621 W LEAH ST, SIOUX FALLS, SD, 57106",35012464,"R"
853020,"7621 W PECK DR","GLENDALE","AZ",85303,33.526791879,-112.22305292,20,"7621 W PECK DR, GLENDALE, AZ, 85303","Match","Exact","7621 PECK DR, GLENDALE, AZ, 85303",638561617,"L"
853021,"7621 W ROCKHAMPTON","LAS VEGAS","NV",89113,NA,NA,21,"7621 W ROCKHAMPTON, LAS VEGAS, NV, 89113","No_Match",NA,NA,NA,NA
853022,"7621 YARMOUTH DR","N CHESTERFIELD","VA",23225,37.5218228190001,-77.537460585,22,"7621 YARMOUTH DR, N CHESTERFIELD, VA, 23225","Match","Exact","7621 YARMOUTH DR, NORTH CHESTERFIELD, VA, 23225",201533210,"L"
853023,"7622 ARBOR RIDGE DRIVE","NEWBURGH","IN",47630,37.9867795010001,-87.388579712,23,"7622 ARBOR RIDGE DRIVE, NEWBURGH, IN, 47630","Match","Exact","7622 ARBOR RIDGE DR, NEWBURGH, IN, 47630",32215821,"L"
853024,"7622 BIDWELL ROAD","JOELTON","TN",37080,36.347358743,-86.8952526689999,24,"7622 BIDWELL ROAD, JOELTON, TN, 37080","Match","Exact","7622 BIDWELL RD, JOELTON, TN, 37080",97177255,"R"
853025,"7622 BLOSSOM MIST LANE","RICHMOND","TX",77407,29.6943803350001,-95.6888427599999,25,"7622 BLOSSOM MIST LANE, RICHMOND, TX, 77407","Match","Non_Exact","7622 BLOSSOMMIST LN, RICHMOND, TX, 77407",627295840,"L"
853026,"7622 BRAESDALE LN","HOUSTON","TX",77071,29.6700130850001,-95.510857249,26,"7622 BRAESDALE LN, HOUSTON, TX, 77071","Match","Exact","7622 BRAESDALE LN, HOUSTON, TX, 77071",96037936,"R"
853027,"7622 CARTERET ROAD","BETHESDA","MD",20817,39.005692674,-77.155411688,27,"7622 CARTERET ROAD, BETHESDA, MD, 20817","Match","Exact","7622 CARTERET RD, BETHESDA, MD, 20817",62057379,"L"
853028,"7622 DUNLAP CREEK RD","COVINGTON","VA",24426,37.7891605790001,-80.100939894,28,"7622 DUNLAP CREEK RD, COVINGTON, VA, 24426","Match","Exact","7622 DUNLAP CREEK RD, COVINGTON, VA, 24426",649994923,"L"
853029,"7622 E CALLISTO CIR UNIT 206","TUCSON","AZ",85715,NA,NA,29,"7622 E CALLISTO CIR UNIT 206, TUCSON, AZ, 85715","Tie",NA,NA,NA,NA
853030,"7622 EAST EDISON STREET","TUCSON","AZ",85715,32.2484845490001,-110.829665746,30,"7622 EAST EDISON STREET, TUCSON, AZ, 85715","Match","Exact","7622 E EDISON ST, TUCSON, AZ, 85715",121182261,"R"
853031,"7622 EUNICE DRIVE","RAEFORD","NC",28306,34.9830263210001,-79.042614412,31,"7622 EUNICE DRIVE, RAEFORD, NC, 28306","Match","Non_Exact","7622 EUNICE DR, FAYETTEVILLE, NC, 28306",64190650,"R"
853032,"7622 FARM VIEW CIRCLE EAST","INDIANAOPLIS","IN",46256,39.892530836,-86.034237058,32,"7622 FARM VIEW CIRCLE EAST, INDIANAOPLIS, IN, 46256","Match","Non_Exact","7622 FARM VIEW CIR E, INDIANAPOLIS, IN, 46256",640795056,"R"
853033,"7622 FOOTHILL RD","MIDDLETON","ID",83644,43.7158617910001,-116.54501491,33,"7622 FOOTHILL RD, MIDDLETON, ID, 83644","Match","Exact","7622 FOOTHILL RD, MIDDLETON, ID, 83644",652674279,"R"
853034,"7622 GALVIN ST","CHARLOTTE","NC",28215,35.243293855,-80.680379902,34,"7622 GALVIN ST, CHARLOTTE, NC, 28215","Match","Exact","7622 GALVIN ST, CHARLOTTE, NC, 28215",70596791,"R"
853035,"7622 GENTLE BEND DRIVE","SAN ANTONIO","TX",78250,29.511130559,-98.6483027,35,"7622 GENTLE BEND DRIVE, SAN ANTONIO, TX, 78250","Match","Exact","7622 GENTLE BEND DR, SAN ANTONIO, TX, 78250",101705043,"R"
853036,"7622 HGHWAY 481","ENFIELD","NC",27823,36.205780636,-77.607091479,36,"7622 HGHWAY 481, ENFIELD, NC, 27823","Match","Non_Exact","7622 STATE HWY 481, ENFIELD, NC, 27823",56719787,"L"
853037,"7622 HIGH RD","SIMS","NC",27880,35.7291533380001,-78.101093638,37,"7622 HIGH RD, SIMS, NC, 27880","Match","Exact","7622 HIGH RD, SIMS, NC, 27880",26716278,"L"
853038,"7622 HWY 585","OAK GROVE","LA",71263,32.828195468,-91.562081716,38,"7622 HWY 585, OAK GROVE, LA, 71263","Match","Non_Exact","7622 STATE RTE 585, OAK GROVE, LA, 71263",71254389,"R"
853039,"7622 IL ROUTE 2 SOUTH","OREGON","IL",61061,NA,NA,39,"7622 IL ROUTE 2 SOUTH, OREGON, IL, 61061","No_Match",NA,NA,NA,NA
853040,"7622 N 500 W","ROSSVILLE","IN",46065,40.438535632,-86.618421283,40,"7622 N 500 W, ROSSVILLE, IN, 46065","Match","Non_Exact","7622 S 500 W, ROSSVILLE, IN, 46065",27047196,"L"
853041,"7622 N 650 E","MONTGOMERY","IN",47558,38.7675381830001,-87.045825109,41,"7622 N 650 E, MONTGOMERY, IN, 47558","Match","Exact","7622 N 650 E, MONTGOMERY, IN, 47558",32081281,"R"
853042,"7622 NC HWY 481","ENFIELD","NC",NA,36.2057634870001,-77.607140837,42,"7622 NC HWY 481, ENFIELD, NC, ","Match","Non_Exact","7622 STATE HWY 481, ENFIELD, NC, 27823",56719787,"L"
853043,"7622 OLD MILFORD ROAD","MILFROD","KS",66514,39.1019225790001,-96.886970919,43,"7622 OLD MILFORD ROAD, MILFROD, KS, 66514","Match","Non_Exact","7622 OLD MILFORD RD, MILFORD, KS, 66514",28401023,"L"
853044,"7622 OVERTON STREET SE","OWENS CROSS ROADS","AL",35763,34.613873035,-86.4921975619999,44,"7622 OVERTON STREET SE, OWENS CROSS ROADS, AL, 35763","Match","Exact","7622 OVERTON ST SE, OWENS CROSS ROADS, AL, 35763",650668724,"R"
853045,"7622 PERCY AVENUE","BATON ROUGE","LA",70812,30.501156537,-91.111826311,45,"7622 PERCY AVENUE, BATON ROUGE, LA, 70812","Match","Exact","7622 PERCY AVE, BATON ROUGE, LA, 70812",92188850,"R"
853046,"7622 RAVEN PLACE","PHILADELPHIA","PA",19153,39.906842844,-75.242288795,46,"7622 RAVEN PLACE, PHILADELPHIA, PA, 19153","Match","Exact","7622 RAVEN PL, PHILADELPHIA, PA, 19153",131408827,"L"
853047,"7622 RING NECK DR","WATERFORD","MI",48327,42.633398782,-83.436606243,47,"7622 RING NECK DR, WATERFORD, MI, 48327","Match","Exact","7622 RING NECK DR, WATERFORD, MI, 48327",69798335,"L"
853048,"7622 S AVALON BLVD","LOS ANGELES","CA",90003,33.9707373790001,-118.265144269,48,"7622 S AVALON BLVD, LOS ANGELES, CA, 90003","Match","Exact","7622 AVALON BLVD, LOS ANGELES, CA, 90003",141670880,"L"
853049,"7622 S VERNON ST","CHICAGO","IL",60619,NA,NA,49,"7622 S VERNON ST, CHICAGO, IL, 60619","No_Match",NA,NA,NA,NA
853050,"7622 S VERNON ST","CHICAGO","IL",60620,NA,NA,50,"7622 S VERNON ST, CHICAGO, IL, 60620","No_Match",NA,NA,NA,NA
853051,"7622 SAINT ANDREWS DR","RIVERSIDE","CA",92508,33.91316478,-117.316350503,51,"7622 SAINT ANDREWS DR, RIVERSIDE, CA, 92508","Match","Exact","7622 ST ANDREWS DR, RIVERSIDE, CA, 92508",194872021,"L"
853052,"7622 SOUTH SEELEY","CHICAGO","IL",60621,NA,NA,52,"7622 SOUTH SEELEY, CHICAGO, IL, 60621","No_Match",NA,NA,NA,NA
853053,"7622 TARAGREEN DR","LANSING","MI",48917,42.7506957410001,-84.663139128,53,"7622 TARAGREEN DR, LANSING, MI, 48917","Match","Exact","7622 TARAGREEN DR, LANSING, MI, 48917",617450494,"R"
853054,"7622 VISTA DEL RAY LANE","RALEIGH","NC",27613,35.8845166790001,-78.729578014,54,"7622 VISTA DEL RAY LANE, RALEIGH, NC, 27613","Match","Non_Exact","7622 VISTA DEL REY LN, RALEIGH, NC, 27612",612822351,"R"
853055,"7622 W COMET AVE","PEORIA","AZ",85345,33.579098968,-112.222924861,55,"7622 W COMET AVE, PEORIA, AZ, 85345","Match","Exact","7622 W COMET AVE, PEORIA, AZ, 85345",243916782,"R"
853056,"7622 W ELMHURST DRIVE","LITTLETON","CO",80128,39.572801435,-105.081346419,56,"7622 W ELMHURST DRIVE, LITTLETON, CO, 80128","Match","Exact","7622 W ELMHURST DR, LITTLETON, CO, 80128",177325106,"L"
853057,"76226","THE COLONY","TX",75056,NA,NA,57,"76226, THE COLONY, TX, 75056","No_Match",NA,NA,NA,NA
853058,"76229 TIDEVIEW LANE","YULEE","FL",32097,30.610947138,-81.668382596,58,"76229 TIDEVIEW LANE, YULEE, FL, 32097","Match","Exact","76229 TIDEVIEW LN, YULEE, FL, 32097",610862206,"L"
853059,"7623 BIRDIE COURT","SACRAMENTO","CA",95828,38.480941349,-121.415062879,59,"7623 BIRDIE COURT, SACRAMENTO, CA, 95828","Match","Exact","7623 BIRDIE CT, SACRAMENTO, CA, 95828",133353639,"L"
853060,"7623 CHEYENNE STREET","PGH","PA",15218,40.4199744220001,-79.881711106,60,"7623 CHEYENNE STREET, PGH, PA, 15218","Match","Non_Exact","7623 CHEYENNE ST, PITTSBURGH, PA, 15218",51654474,"R"
853061,"7623 DYEWOOD","SAN ANTONIO","TX",78249,29.5556976880001,-98.636519015,61,"7623 DYEWOOD, SAN ANTONIO, TX, 78249","Match","Exact","7623 DYEWOOD, SAN ANTONIO, TX, 78249",101569936,"R"
853062,"7623 EAST ANDREW JOHNSON HWY","WHITESBURG","TN",37891,36.2697260460001,-83.148115374,62,"7623 EAST ANDREW JOHNSON HWY, WHITESBURG, TN, 37891","Match","Exact","7623 E ANDREW JOHNSON HWY, WHITESBURG, TN, 37891",42212932,"L"
853063,"7623 ENMAR DRIVE","LITTLE ROCK","AR",72209,34.681249957,-92.3492598779999,63,"7623 ENMAR DRIVE, LITTLE ROCK, AR, 72209","Match","Exact","7623 ENMAR DR, LITTLE ROCK, AR, 72209",83548063,"L"
853064,"7623 FLOWER BLUFF","SAN ANTONIO","TX",78240,29.538502438,-98.637156816,64,"7623 FLOWER BLUFF, SAN ANTONIO, TX, 78240","Match","Exact","7623 FLOWER BLUFF, SAN ANTONIO, TX, 78240",101569240,"R"
853065,"7623 HARTLEY RD","DAVIS","CA",95688,38.4335604010001,-121.943138955,65,"7623 HARTLEY RD, DAVIS, CA, 95688","Match","Non_Exact","7623 HARTLEY RD, VACAVILLE, CA, 95688",192609740,"L"
853066,"7623 HARTLEY ROAD","VACAVILLE","CA",95688,38.4335604010001,-121.943138955,66,"7623 HARTLEY ROAD, VACAVILLE, CA, 95688","Match","Exact","7623 HARTLEY RD, VACAVILLE, CA, 95688",192609740,"L"
853067,"7623 JOHN PELHAM TRL","MC CALLA","AL",35111,33.2843406260001,-87.0476206279999,67,"7623 JOHN PELHAM TRL, MC CALLA, AL, 35111","Match","Exact","7623 JOHN PELHAM TRL, MC CALLA, AL, 35111",81544216,"L"
853068,"7623 KESTREL WAY W","DUBLIN","OH",43017,40.1238263130001,-83.154488455,68,"7623 KESTREL WAY W, DUBLIN, OH, 43017","Match","Exact","7623 KESTREL WAY W, DUBLIN, OH, 43017",135632650,"L"
853069,"7623 LOST CREEK GAP","BOERNE","TX",78015,29.6830223040001,-98.6344091989999,69,"7623 LOST CREEK GAP, BOERNE, TX, 78015","Match","Exact","7623 LOST CREEK GAP, BOERNE, TX, 78015",627889255,"R"
853070,"7623 MONARCH BIRCH LANE","CHARLOTTE","NC",28215,35.2324300860001,-80.6800354329999,70,"7623 MONARCH BIRCH LANE, CHARLOTTE, NC, 28215","Match","Exact","7623 MONARCH BIRCH LN, CHARLOTTE, NC, 28215",70627553,"L"
853071,"7623 NICOLLET AVE","MINNEAPOLIS","MN",55423,44.865020266,-93.278245104,71,"7623 NICOLLET AVE, MINNEAPOLIS, MN, 55423","Match","Non_Exact","7623 NICOLLET AVE S, MINNEAPOLIS, MN, 55423",43593043,"L"
853072,"7623 NW 47TH WAY","GAINESVILLE","FL",32653,29.725013582,-82.393372136,72,"7623 NW 47TH WAY, GAINESVILLE, FL, 32653","Match","Exact","7623 NW 47TH WAY, GAINESVILLE, FL, 32653",6856738,"R"
853073,"7623 NW 60TH LANE","PARKLAND","FL",33067,26.325317861,-80.207480303,73,"7623 NW 60TH LANE, PARKLAND, FL, 33067","Match","Exact","7623 NW 60TH LN, PARKLAND, FL, 33067",114777248,"L"
853074,"7623 PHOENIX PEAK","LAS VEGAS","NV",89166,NA,NA,74,"7623 PHOENIX PEAK, LAS VEGAS, NV, 89166","No_Match",NA,NA,NA,NA
853075,"7623 RATHBURN LANE","CHARLOTTE","NC",28277,35.051345542,-80.803054338,75,"7623 RATHBURN LANE, CHARLOTTE, NC, 28277","Match","Exact","7623 RATHBURN LN, CHARLOTTE, NC, 28277",70561288,"R"
853076,"7623 S ST LAWRENCE AVE","CHICAGO","IL",60619,41.7561753910001,-87.610192605,76,"7623 S ST LAWRENCE AVE, CHICAGO, IL, 60619","Match","Exact","7623 S ST LAWRENCE AVE, CHICAGO, IL, 60619",111772590,"L"
853077,"7623 SNI A BAR RD","KANSAS CITY","MO",64129,39.034390751,-94.494402058,77,"7623 SNI A BAR RD, KANSAS CITY, MO, 64129","Match","Exact","7623 SNI A BAR RD, KANSAS CITY, MO, 64129",91527235,"R"
853078,"7623 SOUTH HARVARD BLVD","LOS ANGELES","CA",90047,33.9705947940001,-118.306810805,78,"7623 SOUTH HARVARD BLVD, LOS ANGELES, CA, 90047","Match","Exact","7623 S HARVARD BLVD, LOS ANGELES, CA, 90047",141658831,"R"
853079,"7623 SOUTH ROSEMARY CIRCLE","CENTENNIAL","CO",80112,39.5795873100001,-104.899033304,79,"7623 SOUTH ROSEMARY CIRCLE, CENTENNIAL, CO, 80112","Match","Exact","7623 S ROSEMARY CIR, CENTENNIAL, CO, 80112",177534900,"R"
853080,"7623 SUSSEX DR APT 201","DARIEN","IL",60561,NA,NA,80,"7623 SUSSEX DR APT 201, DARIEN, IL, 60561","No_Match",NA,NA,NA,NA
853081,"7623 SYCAMORE DRIVE","ORLAND PARK","IL",60462,41.6148900150001,-87.805316374,81,"7623 SYCAMORE DRIVE, ORLAND PARK, IL, 60462","Match","Exact","7623 SYCAMORE DR, ORLAND PARK, IL, 60462",111701927,"L"
853082,"7623 WEST ATLANTIC BLVD","MARGATE","FL",33063,NA,NA,82,"7623 WEST ATLANTIC BLVD, MARGATE, FL, 33063","No_Match",NA,NA,NA,NA
853083,"76234 BLUE MOUNTAIN SCHOOL ROAD","COTTAGE GROVE","OR",97424,43.732212894,-122.982896815,83,"76234 BLUE MOUNTAIN SCHOOL ROAD, COTTAGE GROVE, OR, 97424","Match","Exact","76234 BLUE MOUNTAIN SCHOOL RD, COTTAGE GROVE, OR, 97424",636595464,"L"
853084,"76234 CHESHAM CT","WHITE PLAINS","MD",20695,NA,NA,84,"76234 CHESHAM CT, WHITE PLAINS, MD, 20695","No_Match",NA,NA,NA,NA
853085,"7624 189TH ST CT E","PUYALLUP","WA",98375,47.0840751010001,-122.327651178,85,"7624 189TH ST CT E, PUYALLUP, WA, 98375","Match","Exact","7624 189TH ST CT E, PUYALLUP, WA, 98375",184710899,"L"
853086,"7624 239TH STREET NORTH","PORT BYRON","IL",61275,41.5949544490001,-90.291726024,86,"7624 239TH STREET NORTH, PORT BYRON, IL, 61275","Match","Exact","7624 239TH ST N, PORT BYRON, IL, 61275",647083099,"R"
853087,"7624 48TH AVE W","MULKITEO","WA",98275,47.929130334,-122.298533978,87,"7624 48TH AVE W, MULKITEO, WA, 98275","Match","Non_Exact","7624 48TH AVE W, MUKILTEO, WA, 98275",187739437,"R"
853088,"7624 BAYHILL DRIVE","INDIANAPOLIS","IN",46236,39.893051945,-85.9701295149999,88,"7624 BAYHILL DRIVE, INDIANAPOLIS, IN, 46236","Match","Exact","7624 BAYHILL DR, INDIANAPOLIS, IN, 46236",108035574,"R"
853089,"7624 BRIDGES AVE","RICHLAND HILLS","TX",76118,32.810653158,-97.213425853,89,"7624 BRIDGES AVE, RICHLAND HILLS, TX, 76118","Match","Exact","7624 BRIDGES AVE, RICHLAND HILLS, TX, 76118",101866286,"R"
853090,"7624 BUFORD DR","DALLAS","TX",75241,32.656063735,-96.813235122,90,"7624 BUFORD DR, DALLAS, TX, 75241","Match","Exact","7624 BUFORD DR, DALLAS, TX, 75241",619138315,"L"
853091,"7624 CALDWEL ROAD","MUKWONAGO","WI",53149,42.8247016540001,-88.277072726,91,"7624 CALDWEL ROAD, MUKWONAGO, WI, 53149","Match","Non_Exact","7624 CALDWELL DR, MUKWONAGO, WI, 53149",77914680,"R"
853092,"7624 COACHLIGHT LANE","ELLICOTT CITY","MD",21043,39.1995173780001,-76.782670544,92,"7624 COACHLIGHT LANE, ELLICOTT CITY, MD, 21043","Match","Exact","7624 COACHLIGHT LN, ELLICOTT CITY, MD, 21043",158965480,"R"
853093,"7624 DOVES DRIVE","FOUNTAIN","CO",80817,NA,NA,93,"7624 DOVES DRIVE, FOUNTAIN, CO, 80817","No_Match",NA,NA,NA,NA
853094,"7624 EAGLE ROCK AVE NE","ALBUQUERQUE","NM",87122,35.187333761,-106.558867832,94,"7624 EAGLE ROCK AVE NE, ALBUQUERQUE, NM, 87122","Match","Exact","7624 EAGLE ROCK AVE NE, ALBUQUERQUE, NM, 87122",206742641,"R"
853095,"7624 EAST HIGHWAY 60","SALT LICK","KY",40371,NA,NA,95,"7624 EAST HIGHWAY 60, SALT LICK, KY, 40371","No_Match",NA,NA,NA,NA
853096,"7624 EAST HIGHWAY 60","SALTLICK","KY",40371,NA,NA,96,"7624 EAST HIGHWAY 60, SALTLICK, KY, 40371","No_Match",NA,NA,NA,NA
853097,"7624 ELMCREST RD","HANOVER","MD",21076,39.1482735290001,-76.745223869,97,"7624 ELMCREST RD, HANOVER, MD, 21076","Match","Exact","7624 ELMCREST RD, HANOVER, MD, 21076",618561623,"R"
853098,"7624 FAIRBANKS CT","HANOVER","MD",21076,39.1392274520001,-76.698563061,98,"7624 FAIRBANKS CT, HANOVER, MD, 21076","Match","Exact","7624 FAIRBANKS CT, HANOVER, MD, 21076",68189613,"L"
853099,"7624 FAYETTE STREET","PHILADELPHIA","PA",19150,40.0700516150001,-75.160973231,99,"7624 FAYETTE STREET, PHILADELPHIA, PA, 19150","Match","Exact","7624 FAYETTE ST, PHILADELPHIA, PA, 19150",131395133,"L"
853100,"7624 LODGE POLE TRAIL","WINTER PARK","FL",32792,28.605991353,-81.284287862,100,"7624 LODGE POLE TRAIL, WINTER PARK, FL, 32792","Match","Exact","7624 LODGE POLE TRL, WINTER PARK, FL, 32792",94292613,"R"
853101,"7624 MAXWELL RD","STEDMAN","NC",28391,35.0740462730001,-78.685412965,101,"7624 MAXWELL RD, STEDMAN, NC, 28391","Match","Exact","7624 MAXWELL RD, STEDMAN, NC, 28391",64271551,"R"
853102,"7624 MISSION VALLEY DRIVE","SAINT LOUIS","MO",63123,38.5715573630001,-90.316774814,102,"7624 MISSION VALLEY DRIVE, SAINT LOUIS, MO, 63123","Match","Exact","7624 MISSION VALLEY DR, SAINT LOUIS, MO, 63123",100153716,"L"
853103,"7624 OYSTER COVE","LAS VEGAS","NV",89128,36.2143314250001,-115.261575705,103,"7624 OYSTER COVE, LAS VEGAS, NV, 89128","Match","Non_Exact","7624 OYSTER COVE DR, LAS VEGAS, NV, 89128",201917129,"L"
853104,"7624 PLEASANT LAKE RD","ANN ARBOR","MI",48103,42.2114179910001,-83.878049676,104,"7624 PLEASANT LAKE RD, ANN ARBOR, MI, 48103","Match","Exact","7624 PLEASANT LAKE RD, ANN ARBOR, MI, 48103",26010946,"R"
853105,"7624 S GOOSEBERRY WAY","TUCSON","AZ",85747,32.1132107290001,-110.79430209,105,"7624 S GOOSEBERRY WAY, TUCSON, AZ, 85747","Match","Exact","7624 S GOOSEBERRY WAY, TUCSON, AZ, 85747",121387014,"L"
853106,"7624 S OGLESBY ST","CHICAGO","IL",60649,41.756633191,-87.567548605,106,"7624 S OGLESBY ST, CHICAGO, IL, 60649","Match","Non_Exact","7624 S OGLESBY AVE, CHICAGO, IL, 60649",111775723,"R"
853107,"7624 SE OGDEN ST","PORTLAND","OR",97206,45.4709827450001,-122.585034397,107,"7624 SE OGDEN ST, PORTLAND, OR, 97206","Match","Exact","7624 SE OGDEN ST, PORTLAND, OR, 97206",157517607,"R"
853108,"7624 SERENE PL","CUSTER","WA",98240,48.9188089140001,-122.598074166,108,"7624 SERENE PL, CUSTER, WA, 98240","Match","Exact","7624 SERENE PL, CUSTER, WA, 98240",645989446,"R"
853109,"7624 ST CHARLES AVE","NEW ORLEANS","LA",70118,29.939996282,-90.130460403,109,"7624 ST CHARLES AVE, NEW ORLEANS, LA, 70118","Match","Exact","7624 SAINT CHARLES AVE, NEW ORLEANS, LA, 70118",191734657,"L"
853110,"7624 US HWY 441 SE","OKEECHOBEE","FL",34974,27.1881231830001,-80.7467071579999,110,"7624 US HWY 441 SE, OKEECHOBEE, FL, 34974","Match","Non_Exact","7624 US HWY 441, OKEECHOBEE, FL, 34974",635581004,"L"
853111,"7624 WEST BANFF LANE","PEORIA","AZ",85381,33.618911627,-112.222734469,111,"7624 WEST BANFF LANE, PEORIA, AZ, 85381","Match","Exact","7624 W BANFF LN, PEORIA, AZ, 85381",649003021,"R"
853112,"7624 WINONA AVE N","SEATTLE","WA",98103,47.6842307900001,-122.341099356,112,"7624 WINONA AVE N, SEATTLE, WA, 98103","Match","Exact","7624 WINONA AVE N, SEATTLE, WA, 98103",239761602,"R"
853113,"7625 132ND WAY","SEMINOLE","FL",33776,27.84252588,-82.822493187,113,"7625 132ND WAY, SEMINOLE, FL, 33776","Match","Exact","7625 132ND WAY, SEMINOLE, FL, 33776",124690120,"R"
853114,"7625 66TH PL NE","MARYSVILLE","WA",98270,48.0556572850001,-122.12778476,114,"7625 66TH PL NE, MARYSVILLE, WA, 98270","Match","Exact","7625 66TH PL NE, MARYSVILLE, WA, 98270",187817696,"L"
853115,"7625 BADER RD NW","BALTIMORE","OH",43105,39.839159352,-82.6544730689999,115,"7625 BADER RD NW, BALTIMORE, OH, 43105","Match","Exact","7625 BADER RD NW, BALTIMORE, OH, 43105",37216779,"L"
853116,"7625 BRITISH GARDENS LANE","CHARLOTTE","NC",28277,35.062448368,-80.809057347,116,"7625 BRITISH GARDENS LANE, CHARLOTTE, NC, 28277","Match","Exact","7625 BRITISH GARDENS LN, CHARLOTTE, NC, 28277",70506145,"L"
853117,"7625 BROOKLYN AVENUE","KANSAS CITY","OH",64132,NA,NA,117,"7625 BROOKLYN AVENUE, KANSAS CITY, OH, 64132","No_Match",NA,NA,NA,NA
853118,"7625 BROOKLYN","KANSAS CITY","MO",64132,38.9886670820001,-94.562378209,118,"7625 BROOKLYN, KANSAS CITY, MO, 64132","Match","Non_Exact","7625 BROOKLYN AVE, KANSAS CITY, MO, 64132",91456675,"L"
853119,"7625 CLOVERBROOK PARK DR","CENTERVILLE","OH",45459,39.6340213870001,-84.1177848249999,119,"7625 CLOVERBROOK PARK DR, CENTERVILLE, OH, 45459","Match","Exact","7625 CLOVERBROOK PARK DR, CENTERVILLE, OH, 45459",143585031,"L"
853120,"7625 CORRECTIONVILLE RD","LAWTON","IA",51030,42.4795485320001,-96.25062609,120,"7625 CORRECTIONVILLE RD, LAWTON, IA, 51030","Match","Exact","7625 CORRECTIONVILLE RD, LAWTON, IA, 51030",93429578,"R"
853121,"7625 CUMBERLAND CT","Mobile",NA,NA,30.636235087,-88.220478568,121,"7625 CUMBERLAND CT, Mobile, , ","Match","Exact","7625 CUMBERLAND CT, MOBILE, AL, 36695",61960647,"R"
853122,"7625 E 51ST STREET","TULSA","OK",74101,36.0898901370001,-95.8928105969999,122,"7625 E 51ST STREET, TULSA, OK, 74101","Match","Non_Exact","7625 E 51ST ST, TULSA, OK, 74145",166478821,"L"
853123,"7625 E CAMELBACK ROAD - 249B","SCOTTSDALE","AZ",85251,33.5021855860001,-111.916859595,123,"7625 E CAMELBACK ROAD - 249B, SCOTTSDALE, AZ, 85251","Match","Non_Exact","7625 E CAMELBACK RD, SCOTTSDALE, AZ, 85251",128229563,"R"
853124,"7625 GREENLEAF ROAD","LANDOVER","MD",20785,38.920127247,-76.873973533,124,"7625 GREENLEAF ROAD, LANDOVER, MD, 20785","Match","Exact","7625 GREENLEAF RD, LANDOVER, MD, 20785",76309919,"R"
853125,"7625 HALCYON FOREST TRAIL","MONTGOMERY","AL",36117,32.3599435460001,-86.1755854529999,125,"7625 HALCYON FOREST TRAIL, MONTGOMERY, AL, 36117","Match","Exact","7625 HALCYON FOREST TRL, MONTGOMERY, AL, 36117",1524555,"R"
853126,"7625 HAMILTON PARK DR STE 15","CHATTANOOGA","TN",37421,35.0587370530001,-85.134995611,126,"7625 HAMILTON PARK DR STE 15, CHATTANOOGA, TN, 37421","Match","Exact","7625 HAMILTON PARK DR, CHATTANOOGA, TN, 37421",605435325,"R"
853127,"7625 HICKORY","NEW ORLEANS","LA",70118,29.948617573,-90.1215534149999,127,"7625 HICKORY, NEW ORLEANS, LA, 70118","Match","Non_Exact","7625 HICKORY ST, NEW ORLEANS, LA, 70118",191734392,"R"
853128,"7625 HIGHBRIDGE ROAD APT 10","MANLIUS","NY",13104,43.0065867440001,-75.9860083419999,128,"7625 HIGHBRIDGE ROAD APT 10, MANLIUS, NY, 13104","Match","Exact","7625 HIGHBRIDGE RD, MANLIUS, NY, 13104",46607599,"L"
853129,"7625 HOLLY GLEN COVE","MEMPHIS","TN",38133,35.1921592200001,-89.808016504,129,"7625 HOLLY GLEN COVE, MEMPHIS, TN, 38133","Match","Exact","7625 HOLLY GLEN COVE, MEMPHIS, TN, 38133",72945268,"L"
853130,"7625 IRONWOOD KNOLL AVE","LAS VEGAS","NV",89113,36.04546035,-115.257683743,130,"7625 IRONWOOD KNOLL AVE, LAS VEGAS, NV, 89113","Match","Exact","7625 IRONWOOD KNOLL AVE, LAS VEGAS, NV, 89113",632842080,"L"
853131,"7625 J GRAPHIC RD","ALMA","AR",72921,NA,NA,131,"7625 J GRAPHIC RD, ALMA, AR, 72921","Tie",NA,NA,NA,NA
853132,"7625 LANI DAWN STREET","LAS VEGAS","NV",89149,36.300006873,-115.304553865,132,"7625 LANI DAWN STREET, LAS VEGAS, NV, 89149","Match","Exact","7625 LANI DAWN ST, LAS VEGAS, NV, 89149",632847714,"L"
853133,"7625 LEXINGTON","CLEVELAND","OH",44103,41.511081206,-81.63533346,133,"7625 LEXINGTON, CLEVELAND, OH, 44103","Match","Non_Exact","7625 LEXINGTON AVE, CLEVELAND, OH, 44103",61113865,"L"
853134,"7625 MAPLESHIRE DR","RALEIGH","NC",27616,35.839321076,-78.50682025,134,"7625 MAPLESHIRE DR, RALEIGH, NC, 27616","Match","Exact","7625 MAPLESHIRE DR, RALEIGH, NC, 27616",641564068,"R"
853135,"7625 MARTINDALE ROAD","TIPP CITY","OH",45371,39.9325967120001,-84.252260328,135,"7625 MARTINDALE ROAD, TIPP CITY, OH, 45371","Match","Exact","7625 MARTINDALE RD, TIPP CITY, OH, 45371",207643960,"L"
853136,"7625 N EASTLAKE TERR","CHICAGO","IL",60626,42.0197433450001,-87.664697836,136,"7625 N EASTLAKE TERR, CHICAGO, IL, 60626","Match","Exact","7625 N EASTLAKE TER, CHICAGO, IL, 60626",111745275,"R"
853137,"7625 N HIGHWAY 1247","SCIENCE HILL","KY",42553,37.1894832360001,-84.630490467,137,"7625 N HIGHWAY 1247, SCIENCE HILL, KY, 42553","Match","Non_Exact","7625 STATE HWY 1247, SCIENCE HILL, KY, 42553",642491267,"L"
853138,"7625 N PALM AVE STE 106","FRESNO","CA",93711,36.8484927900001,-119.807248907,138,"7625 N PALM AVE STE 106, FRESNO, CA, 93711","Match","Non_Exact","7625 N PALM AVE, FRESNO, CA, 93711",642722924,"L"
853139,"7625 N SHERMAN DRIVE","INDIANAPOLIS","IN",46240,39.8922587810001,-86.1028751119999,139,"7625 N SHERMAN DRIVE, INDIANAPOLIS, IN, 46240","Match","Exact","7625 N SHERMAN DR, INDIANAPOLIS, IN, 46240",108014248,"R"
853140,"7625 N SULTAN PLACE","TUCSON","AZ",85704,32.3443870780001,-111.006383893,140,"7625 N SULTAN PLACE, TUCSON, AZ, 85704","Match","Exact","7625 N SULTAN PL, TUCSON, AZ, 85704",121159815,"L"
853141,"7625 NE EARLWOOD RD","NEWBERG","OR",97132,45.271137454,-122.87378853,141,"7625 NE EARLWOOD RD, NEWBERG, OR, 97132","Match","Exact","7625 NE EARLWOOD RD, NEWBERG, OR, 97132",156501434,"R"
853142,"7625 NORTH HIGH STREET","COLUMBUS","OH",43235,40.118969,-83.016159963,142,"7625 NORTH HIGH STREET, COLUMBUS, OH, 43235","Match","Exact","7625 N HIGH ST, COLUMBUS, OH, 43235",218663638,"L"
853143,"7625 NORTH HWY 1247","SCIENCE HILL","KY",42553,NA,NA,143,"7625 NORTH HWY 1247, SCIENCE HILL, KY, 42553","No_Match",NA,NA,NA,NA
853144,"7625 NORTHCREST DR APT C","INDIANAPOLIS","IN",46256,39.909966759,-86.0348747309999,144,"7625 NORTHCREST DR APT C, INDIANAPOLIS, IN, 46256","Match","Exact","7625 NORTHCREST DR, INDIANAPOLIS, IN, 46256",108017846,"L"
853145,"7625 OAK TREE LANE","KECHI","KS",67067,37.7904648860001,-97.249270838,145,"7625 OAK TREE LANE, KECHI, KS, 67067","Match","Non_Exact","7625 E OAK TREE LN, KECHI, KS, 67067",115705798,"R"
853146,"7625 OAKFERN PLACE","BATON ROUGE","LA",70811,30.5527396640001,-91.112451037,146,"7625 OAKFERN PLACE, BATON ROUGE, LA, 70811","Match","Non_Exact","7625 OAK FERN PL, BATON ROUGE, LA, 70811",606173300,"L"
853147,"7625 OLD RAILROAD ROAD","HARRISON","AR",72601,36.2538026770001,-93.2187302739999,147,"7625 OLD RAILROAD ROAD, HARRISON, AR, 72601","Match","Exact","7625 OLD RAILROAD RD, HARRISON, AR, 72601",19990901,"L"
853148,"7625 PINECREST LN","SOLON","OH",44139,41.3530251770001,-81.48012403,148,"7625 PINECREST LN, SOLON, OH, 44139","Match","Exact","7625 PINECREST LN, SOLON, OH, 44139",618412758,"L"
853149,"7625 PLAINFIELD DR","PICKERINGTON","OH",43147,39.9209556280001,-82.7964787019999,149,"7625 PLAINFIELD DR, PICKERINGTON, OH, 43147","Match","Exact","7625 PLAINFIELD DR, PICKERINGTON, OH, 43147",37233775,"R"
853150,"7625 S EMERALD ST","CHICAGO","IL",60620,NA,NA,150,"7625 S EMERALD ST, CHICAGO, IL, 60620","No_Match",NA,NA,NA,NA
853151,"7625 S GRAPHIC DRIVE","ALMA","AR",72921,35.5567707810001,-94.1487201149999,151,"7625 S GRAPHIC DRIVE, ALMA, AR, 72921","Match","Exact","7625 GRAPHIC DR, ALMA, AR, 72921",53482955,"L"
853152,"7625 S PERRY STREET","CHICAGO","IL",60620,41.755831061,-87.627940124,152,"7625 S PERRY STREET, CHICAGO, IL, 60620","Match","Non_Exact","7625 S PERRY AVE, CHICAGO, IL, 60620",111832319,"L"
853153,"7625 SE HAWTHORNE","PORTLAND","OR",97215,45.5122070420001,-122.584718388,153,"7625 SE HAWTHORNE, PORTLAND, OR, 97215","Match","Non_Exact","7625 SE HAWTHORNE BLVD, PORTLAND, OR, 97215",157516492,"L"
853154,"7625 SPEAR DR","SHEPHERD","MT",59079,45.9373570400001,-108.305889361,154,"7625 SPEAR DR, SHEPHERD, MT, 59079","Match","Exact","7625 SPEAR DR, SHEPHERD, MT, 59079",181456473,"R"
853155,"7625 STAGE ROAD","MCCLURE","PA",17841,40.732367987,-77.347211006,155,"7625 STAGE ROAD, MCCLURE, PA, 17841","Match","Non_Exact","7625 STAGE RD, MC CLURE, PA, 17841",47792892,"R"
853156,"7625 TEAL RUN","HOUSTON","TX",77071,29.6529807380001,-95.511418282,156,"7625 TEAL RUN, HOUSTON, TX, 77071","Match","Non_Exact","7625 TEAL RUN DR, HOUSTON, TX, 77071",96038027,"R"
853157,"7625 TERN CT SE","OLYMPIA","WA",98513,46.973140653,-122.776945717,157,"7625 TERN CT SE, OLYMPIA, WA, 98513","Match","Exact","7625 TERN CT SE, OLYMPIA, WA, 98513",180949315,"L"
853158,"7625 TIMBERVIEW","KALAMAZOO","MI",49009,42.2425614470001,-85.6980542379999,158,"7625 TIMBERVIEW, KALAMAZOO, MI, 49009","Match","Non_Exact","7625 TIMBERVIEW AVE, KALAMAZOO, MI, 49009",645557665,"L"
853159,"7625 VESTAL BLVD","NORTH LITTLE ROCK","AR",72113,34.8255579190001,-92.367850714,159,"7625 VESTAL BLVD, NORTH LITTLE ROCK, AR, 72113","Match","Non_Exact","7625 VESTAL CT, N LITTLE ROCK, AR, 72113",83570780,"L"
853160,"7625 W KEIM DR","GLENDALE","AZ",85303,33.5259769410001,-112.223088043,160,"7625 W KEIM DR, GLENDALE, AZ, 85303","Match","Exact","7625 W KEIM DR, GLENDALE, AZ, 85303",637440862,"R"
853161,"7625 W SAND LAKE RD STE 204","ORLANDO","FL",32819,28.4499665930001,-81.4856777809999,161,"7625 W SAND LAKE RD STE 204, ORLANDO, FL, 32819","Match","Non_Exact","7625 W SAND LAKE RD, ORLANDO, FL, 32819",611452346,"R"
853162,"7625 W VON DETTE CIR","CENTERVILLE","OH",45459,39.635871642,-84.1253272179999,162,"7625 W VON DETTE CIR, CENTERVILLE, OH, 45459","Match","Exact","7625 W VON DETTE CIR, CENTERVILLE, OH, 45459",143584515,"R"
853163,"7625 WISCONSIN AVE SUITE 300","BETHESDA","MD",20814,38.9862109810001,-77.0945478369999,163,"7625 WISCONSIN AVE SUITE 300, BETHESDA, MD, 20814","Match","Exact","7625 WISCONSIN AVE, BETHESDA, MD, 20814",62065853,"R"
853164,"7625 WISCONSIN AVENUE STE 200","BETHESDA","MD",20814,38.9862109810001,-77.0945478369999,164,"7625 WISCONSIN AVENUE STE 200, BETHESDA, MD, 20814","Match","Exact","7625 WISCONSIN AVE, BETHESDA, MD, 20814",62065853,"R"
853165,"7626 49TH ST W","UNIVERSITY PLACE","WA",98467,NA,NA,165,"7626 49TH ST W, UNIVERSITY PLACE, WA, 98467","No_Match",NA,NA,NA,NA
853166,"7626 ALICIA AVENUE","ST. LOUIS","MO",63143,38.620461128,-90.324335489,166,"7626 ALICIA AVENUE, ST. LOUIS, MO, 63143","Match","Exact","7626 ALICIA AVE, SAINT LOUIS, MO, 63143",100136529,"L"
853167,"7626 BARBERTON DR","HOUSTON","TX",77036,29.698377007,-95.521271239,167,"7626 BARBERTON DR, HOUSTON, TX, 77036","Match","Exact","7626 BARBERTON DR, HOUSTON, TX, 77036",96031301,"R"
853168,"7626 BARNSBURY","WEST BLOOMFIELD","MI",48324,42.6015965720001,-83.4347234269999,168,"7626 BARNSBURY, WEST BLOOMFIELD, MI, 48324","Match","Non_Exact","7626 BARNSBURY DR, W BLOOMFIELD, MI, 48324",69769299,"R"
853169,"7626 BIRDIE COURT","SACRAMENTO","CA",95828,38.480944493,-121.414075606,169,"7626 BIRDIE COURT, SACRAMENTO, CA, 95828","Match","Exact","7626 BIRDIE CT, SACRAMENTO, CA, 95828",133353639,"R"
853170,"7626 BLACK HAWK LANE","FORT MILL","SC",29708,35.0483877410001,-81.013150633,170,"7626 BLACK HAWK LANE, FORT MILL, SC, 29708","Match","Exact","7626 BLACK HAWK LN, FORT MILL, SC, 29708",19837823,"R"
853171,"7626 CANTERBURY STREET","PRAIRIE VILLAGE","KS",66208,38.9903448860001,-94.622710194,171,"7626 CANTERBURY STREET, PRAIRIE VILLAGE, KS, 66208","Match","Exact","7626 CANTERBURY ST, PRAIRIE VLG, KS, 66208",91279066,"R"
853172,"7626 CORAL MEADOWS DR","SOUTHAVEN","MS",38671,34.9728448230001,-90.019558944,172,"7626 CORAL MEADOWS DR, SOUTHAVEN, MS, 38671","Match","Exact","7626 CORAL MEADOWS DR, SOUTHAVEN, MS, 38671",91830360,"R"
853173,"7626 DAPHNE PLACE","LINCOLN","NE",68516,40.734158832,-96.647054404,173,"7626 DAPHNE PLACE, LINCOLN, NE, 68516","Match","Exact","7626 DAPHNE PL, LINCOLN, NE, 68516",28282476,"L"
853174,"7626 DAWNRIDGE DR","HOUSTON","TX",77071,29.6480509530001,-95.511429208,174,"7626 DAWNRIDGE DR, HOUSTON, TX, 77071","Match","Exact","7626 DAWNRIDGE DR, HOUSTON, TX, 77071",96038063,"R"
853175,"7626 FOX KNOLL","HUMBLE","TX",77338,30.0140499020001,-95.309254653,175,"7626 FOX KNOLL, HUMBLE, TX, 77338","Match","Non_Exact","7626 FOX KNOLL LN, HUMBLE, TX, 77338",624798566,"R"
853176,"7626 GOLF CLUB ROAD","HOWELL","MI",48843,42.601942706,-83.802757823,176,"7626 GOLF CLUB ROAD, HOWELL, MI, 48843","Match","Exact","7626 GOLF CLUB RD, HOWELL, MI, 48843",23545513,"R"
853177,"7626 GRETNA AVE","WHITTIER","CA",90606,33.974045103,-118.062033088,177,"7626 GRETNA AVE, WHITTIER, CA, 90606","Match","Exact","7626 GRETNA AVE, WHITTIER, CA, 90606",141747039,"L"
853178,"7626 HEAVENS ESTATE WAY","LOUISVILLE","KY",40291,38.14060511,-85.5565896369999,178,"7626 HEAVENS ESTATE WAY, LOUISVILLE, KY, 40291","Match","Non_Exact","7626 HEAVENS ESTATES WAY, LOUISVILLE, KY, 40291",96905224,"R"
853179,"7626 LAKE BOLSENA DRIVE","CORPUS CHRISTI","TX",78413,27.672610843,-97.411850289,179,"7626 LAKE BOLSENA DRIVE, CORPUS CHRISTI, TX, 78413","Match","Exact","7626 LAKE BOLSENA DR, CORPUS CHRISTI, TX, 78413",178535792,"L"
853180,"7626 MANASTASH RD","ELLENSBURG","WA",98926,46.9670219550001,-120.668983726,180,"7626 MANASTASH RD, ELLENSBURG, WA, 98926","Match","Exact","7626 MANASTASH RD, ELLENSBURG, WA, 98926",157210261,"R"
853181,"7626 MICHELLE COURT","MANASSAS","VA",20109,38.7912274290001,-77.50771143,181,"7626 MICHELLE COURT, MANASSAS, VA, 20109","Match","Exact","7626 MICHELLE CT, MANASSAS, VA, 20109",76504115,"R"
853182,"7626 N LINKS WAY","FOX POINT","WI",53217,43.1553819150001,-87.898305685,182,"7626 N LINKS WAY, FOX POINT, WI, 53217","Match","Exact","7626 N LINKS WAY, FOX POINT, WI, 53217",77736882,"R"
853183,"7626 OLD TRACK LANE","MECHANICSVILLE","VA",23111,37.611003456,-77.3045087099999,183,"7626 OLD TRACK LANE, MECHANICSVILLE, VA, 23111","Match","Exact","7626 OLD TRACK LN, MECHANICSVILLE, VA, 23111",84976393,"L"
853184,"7626 ORCHARD AVE","DEARBORN","MI",48126,42.3477475290001,-83.187937169,184,"7626 ORCHARD AVE, DEARBORN, MI, 48126","Match","Exact","7626 ORCHARD AVE, DEARBORN, MI, 48126",95442106,"R"
853185,"7626 PINE LAKES BLVD","PORT SAINT LUCIE","FL",34952,27.3324901510001,-80.321636785,185,"7626 PINE LAKES BLVD, PORT SAINT LUCIE, FL, 34952","Match","Exact","7626 PINE LAKES BLVD, PORT ST LUCIE, FL, 34952",610725397,"R"
853186,"7626 PROSPECT AVE","WARREN","MI",48091,42.453197403,-83.028010932,186,"7626 PROSPECT AVE, WARREN, MI, 48091","Match","Exact","7626 PROSPECT AVE, WARREN, MI, 48091",652795727,"R"
853187,"7626 RIDGEVIEW WAY","CHANHASSEN","MN",55317,44.866389284,-93.584401407,187,"7626 RIDGEVIEW WAY, CHANHASSEN, MN, 55317","Match","Exact","7626 RIDGEVIEW WAY, CHANHASSEN, MN, 55317",647476648,"L"
853188,"7626 RODER PARKWAY","ONTARIO","NY",14519,43.272832673,-77.347954257,188,"7626 RODER PARKWAY, ONTARIO, NY, 14519","Match","Exact","7626 RODER PKWY, ONTARIO, NY, 14519",14927348,"R"
853189,"7626 ROGERS STREET","ARVADA","CO",80007,39.8350624780001,-105.186436991,189,"7626 ROGERS STREET, ARVADA, CO, 80007","Match","Exact","7626 ROGERS ST, ARVADA, CO, 80007",637537884,"R"
853190,"7626 S COUNTRY MILL ROAD","WEST JORDAN","UT",84084,40.6125704030001,-111.932244743,190,"7626 S COUNTRY MILL ROAD, WEST JORDAN, UT, 84084","Match","Non_Exact","7626 COUNTRY MILL CT, WEST JORDAN, UT, 84084",176132599,"L"
853191,"7626 SE 29TH ST","SEATTLE","WA",98040,47.5843393110001,-122.237312429,191,"7626 SE 29TH ST, SEATTLE, WA, 98040","Match","Non_Exact","7626 SE 29TH ST, MERCER ISLAND, WA, 98040",629674833,"R"
853192,"7626 SHAWNEE LN APT 103","WEST CHESTER","OH",45069,39.3623267630001,-84.3981453,192,"7626 SHAWNEE LN APT 103, WEST CHESTER, OH, 45069","Match","Exact","7626 SHAWNEE LN, WEST CHESTER, OH, 45069",113810874,"L"
853193,"7626 SOLIMAR CIR","BOCA RATON","FL",33433,26.356674282,-80.16312677,193,"7626 SOLIMAR CIR, BOCA RATON, FL, 33433","Match","Exact","7626 SOLIMAR CIR, BOCA RATON, FL, 33433",648403697,"R"
853194,"7626 W ASTER DR","PEORIA","AZ",85381,33.601373912,-112.22306253,194,"7626 W ASTER DR, PEORIA, AZ, 85381","Match","Exact","7626 W ASTER DR, PEORIA, AZ, 85381",128830579,"R"
853195,"7626 W CONGRESS ST","MILWAUKEE","WI",53218,43.097207849,-88.007498009,195,"7626 W CONGRESS ST, MILWAUKEE, WI, 53218","Match","Exact","7626 W CONGRESS ST, MILWAUKEE, WI, 53218",77730270,"R"
853196,"7627 46 PL W","MUKILTEO","WA",98275,47.92903181,-122.297107658,196,"7627 46 PL W, MUKILTEO, WA, 98275","Match","Exact","7627 46TH PL W, MUKILTEO, WA, 98275",187739439,"L"
853197,"7627 79TH AVE SE","MERCER ISLAND","WA",98040,47.534254952,-122.233804907,197,"7627 79TH AVE SE, MERCER ISLAND, WA, 98040","Match","Exact","7627 79TH AVE SE, MERCER ISLAND, WA, 98040",186998354,"R"
853198,"7627 ACEE LN","WHITESBORO","NY",13492,43.0948370680001,-75.382197354,198,"7627 ACEE LN, WHITESBORO, NY, 13492","Match","Non_Exact","7627 ACEE RD, WHITESBORO, NY, 13492",171524746,"L"
853199,"7627 BAY ST","PASADENA","MD",21122,39.1550593090001,-76.472393712,199,"7627 BAY ST, PASADENA, MD, 21122","Match","Exact","7627 BAY ST, PASADENA, MD, 21122",68166441,"L"
853200,"7627 CHESAPEAKE DRIVE","SHREVEPORT","LA",71105,32.432333231,-93.722230847,200,"7627 CHESAPEAKE DRIVE, SHREVEPORT, LA, 71105","Match","Exact","7627 CHESAPEAKE DR, SHREVEPORT, LA, 71105",57452801,"L"
853201,"7627 CIRCULO SEQUOIA","CARLSBAD","CA",92009,33.0770662400001,-117.224692763,201,"7627 CIRCULO SEQUOIA, CARLSBAD, CA, 92009","Match","Exact","7627 CIR SEQUOIA, CARLSBAD, CA, 92009",195767834,"L"
853202,"7627 COLD MTN","CONVERSE","TX",78109,NA,NA,202,"7627 COLD MTN, CONVERSE, TX, 78109","No_Match",NA,NA,NA,NA
853203,"7627 E 54TH PL","TULSA","OK",74145,36.085641148,-95.8901149119999,203,"7627 E 54TH PL, TULSA, OK, 74145","Match","Exact","7627 E 54TH PL, TULSA, OK, 74145",166454602,"L"
853204,"7627 E MESQUITE OVERLOOK DR","TUCSON","AZ",85710,32.208898344,-110.829661125,204,"7627 E MESQUITE OVERLOOK DR, TUCSON, AZ, 85710","Match","Exact","7627 E MESQUITE OVERLOOK DR, TUCSON, AZ, 85710",623817075,"R"
853205,"7627 ELLINGTON PLACE","MENTOR","OH",44060,41.6644133790001,-81.387584015,205,"7627 ELLINGTON PLACE, MENTOR, OH, 44060","Match","Exact","7627 ELLINGTON PL, MENTOR, OH, 44060",137472034,"L"
853206,"7627 ELMWOOD AVENUE","PHILADELPHIA","PA",19153,39.909562254,-75.248295927,206,"7627 ELMWOOD AVENUE, PHILADELPHIA, PA, 19153","Match","Exact","7627 ELMWOOD AVE, PHILADELPHIA, PA, 19153",131408724,"R"
853207,"7627 HESSLER DR","ROCKFORD","MI",49341,43.137711299,-85.4815171979999,207,"7627 HESSLER DR, ROCKFORD, MI, 49341","Match","Non_Exact","7627 HESSLER DR NE, ROCKFORD, MI, 49341",12448207,"R"
853208,"7627 HUMMINGBIRD DRIVE","OLIVE BRANCH","MS",38654,34.9714824370001,-89.873670794,208,"7627 HUMMINGBIRD DRIVE, OLIVE BRANCH, MS, 38654","Match","Exact","7627 HUMMINGBIRD DR, OLIVE BRANCH, MS, 38654",612952766,"L"
853209,"7627 ISLAND CLUB DR APT I","INDIANAPOLIS","IN",46228,39.814122852,-86.301911719,209,"7627 ISLAND CLUB DR APT I, INDIANAPOLIS, IN, 46228","Match","Non_Exact","7627 ISLAND CLUB DR, INDIANAPOLIS, IN, 46214",640845132,"R"
853210,"7627 KENISCO","HOUSTON","TX",77036,NA,NA,210,"7627 KENISCO, HOUSTON, TX, 77036","No_Match",NA,NA,NA,NA
853211,"7627 LAKE MARSHA DRIVE","ORLANDO","FL",32819,28.4771625230001,-81.488137103,211,"7627 LAKE MARSHA DRIVE, ORLANDO, FL, 32819","Match","Exact","7627 LAKE MARSHA DR, ORLANDO, FL, 32819",652549303,"R"
853212,"7627 LAUREL CANYON BLVD 208","NORTH HOLLYWOOD","CA",91605,34.209021712,-118.396521256,212,"7627 LAUREL CANYON BLVD 208, NORTH HOLLYWOOD, CA, 91605","Match","Exact","7627 LAUREL CANYON BLVD, N HOLLYWOOD, CA, 91605",141553060,"L"
853213,"7627 MATERA ST 2","FALLS CHURCH","VA",22043,38.9001327620001,-77.208296207,213,"7627 MATERA ST 2, FALLS CHURCH, VA, 22043","Match","Exact","7627 MATERA ST, FALLS CHURCH, VA, 22043",650127742,"L"
853214,"7627 MUIRWOOD LN","HOUSTON","TX",77041,29.8897074970001,-95.617496481,214,"7627 MUIRWOOD LN, HOUSTON, TX, 77041","Match","Exact","7627 MUIRWOOD LN, HOUSTON, TX, 77041",96017965,"L"
853215,"7627 PAR AVE N","ST PETERSBURG","FL",NA,27.7853765180001,-82.7440432779999,215,"7627 PAR AVE N, ST PETERSBURG, FL, ","Match","Exact","7627 PAR AVE N, SAINT PETERSBURG, FL, 33710",124693932,"R"
853216,"7627 PETREA LANE","CHARLOTTE","NC",28227,35.2174637480001,-80.721974104,216,"7627 PETREA LANE, CHARLOTTE, NC, 28227","Match","Exact","7627 PETREA LN, CHARLOTTE, NC, 28227",70546646,"R"
853217,"7627 QUINCEWOOD CT","ROCKVILLE","MD",20855,39.12457922,-77.155587937,217,"7627 QUINCEWOOD CT, ROCKVILLE, MD, 20855","Match","Exact","7627 QUINCEWOOD CT, ROCKVILLE, MD, 20855",62077691,"R"
853218,"7627 QUINCEWOOD","ROCKVILLE","MD",20855,39.12457922,-77.155587937,218,"7627 QUINCEWOOD, ROCKVILLE, MD, 20855","Match","Non_Exact","7627 QUINCEWOOD CT, ROCKVILLE, MD, 20855",62077691,"R"
853219,"7627 ROCKFALLS DRIVE","RICHMOND","VA",23225,37.553881828,-77.5291317159999,219,"7627 ROCKFALLS DRIVE, RICHMOND, VA, 23225","Match","Exact","7627 ROCKFALLS DR, RICHMOND, VA, 23225",201532445,"L"
853220,"7627 ROYAL TIMBERS LANE","WATERVILLE","OH",43566,41.5349572390001,-83.7231647249999,220,"7627 ROYAL TIMBERS LANE, WATERVILLE, OH, 43566","Match","Exact","7627 ROYAL TIMBERS LN, WATERVILLE, OH, 43566",33954847,"R"
853221,"7627 S PAXTON","CHICAGO","IL",60649,41.756560435,-87.5711984229999,221,"7627 S PAXTON, CHICAGO, IL, 60649","Match","Non_Exact","7627 S PAXTON AVE, CHICAGO, IL, 60649",111775650,"L"
853222,"7627 SE 37TH PL","MERCER ISLAND","WA",98040,47.577066245,-122.237265886,222,"7627 SE 37TH PL, MERCER ISLAND, WA, 98040","Match","Exact","7627 SE 37TH PL, MERCER ISLAND, WA, 98040",239772622,"R"
853223,"7627 SHIRE TRAIL CT","HUMBLE","TX",77338,30.014933225,-95.3092331999999,223,"7627 SHIRE TRAIL CT, HUMBLE, TX, 77338","Match","Exact","7627 SHIRE TRAIL CT, HUMBLE, TX, 77338",624798593,"L"
853224,"7627 SOUTH MERRILL AVENUE","CHICAGO","IL",60649,41.756555355,-87.5724243509999,224,"7627 SOUTH MERRILL AVENUE, CHICAGO, IL, 60649","Match","Exact","7627 S MERRILL AVE, CHICAGO, IL, 60649",111775648,"L"
853225,"7627 STICKNEY AVENUE","MILWAUKEE","WI",53213,43.0586695910001,-88.0081917589999,225,"7627 STICKNEY AVENUE, MILWAUKEE, WI, 53213","Match","Exact","7627 STICKNEY AVE, MILWAUKEE, WI, 53213",77729447,"L"
853226,"7627 TEAL STREET","LA VISTA","NE",68128,41.182884673,-96.033595465,226,"7627 TEAL STREET, LA VISTA, NE, 68128","Match","Exact","7627 TEAL ST, LA VISTA, NE, 68128",28467349,"L"
853227,"7627 WATERLACE DRIVE","FAIRBURN","GA",30213,33.580092028,-84.635304501,227,"7627 WATERLACE DRIVE, FAIRBURN, GA, 30213","Match","Exact","7627 WATERLACE DR, FAIRBURN, GA, 30213",629549877,"L"
853228,"7627 WOODRIDGE DRIVE","SAN ANTONIO","TX",78209,29.504297034,-98.454869027,228,"7627 WOODRIDGE DRIVE, SAN ANTONIO, TX, 78209","Match","Exact","7627 WOODRIDGE DR, SAN ANTONIO, TX, 78209",101499194,"L"
853229,"7627 WYDOWN 2W","SAINT LOUIS","MO",63105,38.6429757810001,-90.3341097219999,229,"7627 WYDOWN 2W, SAINT LOUIS, MO, 63105","Match","Non_Exact","7627 WYDOWN BLVD, SAINT LOUIS, MO, 63105",100135708,"R"
853230,"76272 ROBINSON ROAD","FOLSOM","LA",70437,30.5412903490001,-90.201854077,230,"76272 ROBINSON ROAD, FOLSOM, LA, 70437","Match","Exact","76272 ROBINSON RD, FOLSOM, LA, 70437",111298652,"R"
853231,"7628 AUSTIN DR","CHATTANOOGA","TN",37416,35.0705954810001,-85.171113398,231,"7628 AUSTIN DR, CHATTANOOGA, TN, 37416","Match","Exact","7628 AUSTIN DR, CHATTANOOGA, TN, 37416",59316825,"R"
853232,"7628 CALLOW COVE LANE","POWELL","TN",37849,36.0178958830001,-84.05886276,232,"7628 CALLOW COVE LANE, POWELL, TN, 37849","Match","Exact","7628 CALLOW COVE LN, POWELL, TN, 37849",42661610,"R"
853233,"7628 CASA VERDE STREET","MIDVALE","UT",84047,40.6127142080001,-111.866868251,233,"7628 CASA VERDE STREET, MIDVALE, UT, 84047","Match","Exact","7628 CASA VERDE ST, MIDVALE, UT, 84047",176087632,"R"
853234,"7628 CLIFTON BRIDGE LANE","CAMBY","IN",46113,39.652414268,-86.313800433,234,"7628 CLIFTON BRIDGE LANE, CAMBY, IN, 46113","Match","Exact","7628 CLIFTON BRIDGE LN, CAMBY, IN, 46113",647237230,"L"
853235,"7628 GREENFIELD AVE","MOUNDS VIEW","MN",55112,45.106685756,-93.2025923259999,235,"7628 GREENFIELD AVE, MOUNDS VIEW, MN, 55112","Match","Exact","7628 GREENFIELD AVE, MOUNDS VIEW, MN, 55112",97633463,"L"
853236,"7628 HAYFIELD RD","ALEXANDRIA","VA",22315,38.7498652210001,-77.136944805,236,"7628 HAYFIELD RD, ALEXANDRIA, VA, 22315","Match","Exact","7628 HAYFIELD RD, ALEXANDRIA, VA, 22315",615664570,"R"
853237,"7628 HILLSBORO DRIVE","NEWBURGH","IN",47630,37.9834243660001,-87.389513646,237,"7628 HILLSBORO DRIVE, NEWBURGH, IN, 47630","Match","Exact","7628 HILLSBORO DR, NEWBURGH, IN, 47630",32215798,"L"
853238,"7628 NORTH 56TH STREET SUITE 8","TAMPA","FL",33617,28.017388296,-82.39345946,238,"7628 NORTH 56TH STREET SUITE 8, TAMPA, FL, 33617","Match","Exact","7628 N 56TH ST, TAMPA, FL, 33617",104532911,"L"
853239,"7628 S MORGAN STR","CHICAGO","IL",60620,41.7554415120001,-87.64902492,239,"7628 S MORGAN STR, CHICAGO, IL, 60620","Match","Non_Exact","7628 S MORGAN ST, CHICAGO, IL, 60620",111830984,"R"
853240,"7628 S ZANTE CT","AURORA","CO",80016,39.577921545,-104.717687453,240,"7628 S ZANTE CT, AURORA, CO, 80016","Match","Exact","7628 S ZANTE CT, AURORA, CO, 80016",650191172,"R"
853241,"7628 SE BLANTON STREET","HILLSBORO","OR",97123,NA,NA,241,"7628 SE BLANTON STREET, HILLSBORO, OR, 97123","No_Match",NA,NA,NA,NA
853242,"7628 SPRING RIDGE WAY","INDIANAPOLIS","IN",46278,39.8905827450001,-86.3092338869999,242,"7628 SPRING RIDGE WAY, INDIANAPOLIS, IN, 46278","Match","Exact","7628 SPRING RIDGE WAY, INDIANAPOLIS, IN, 46278",633861592,"R"
853243,"7628 THE COMMONS","ZIONSVILLE","IN",46077,39.95586446,-86.327849306,243,"7628 THE COMMONS, ZIONSVILLE, IN, 46077","Match","Exact","7628 THE COMMONS, ZIONSVILLE, IN, 46077",610973933,"L"
853244,"7628 W COURTLAND AVENUE","MILWAUKEE","WI",53218,43.103040542,-88.007362563,244,"7628 W COURTLAND AVENUE, MILWAUKEE, WI, 53218","Match","Exact","7628 W COURTLAND AVE, MILWAUKEE, WI, 53218",77730162,"R"
853245,"7628 WEST R AVENUE","KALAMAZOO","MI",49009,42.186527234,-85.69932211,245,"7628 WEST R AVENUE, KALAMAZOO, MI, 49009","Match","Exact","7628 W R AVE, KALAMAZOO, MI, 49009",633512891,"L"
853246,"7628 WESTDALE DRIVE","KNOXVILLE","TN",37919,35.9318235380001,-84.040386683,246,"7628 WESTDALE DRIVE, KNOXVILLE, TN, 37919","Match","Non_Exact","7628 WESTDALE DR, KNOXVILLE, TN, 37909",42630087,"L"
853247,"7628 WINDBRIDGE DRIVE","SACRAMENTO","CA",95831,38.483270088,-121.534254703,247,"7628 WINDBRIDGE DRIVE, SACRAMENTO, CA, 95831","Match","Exact","7628 WINDBRIDGE DR, SACRAMENTO, CA, 95831",133374783,"R"
853248,"7629 180TH ST E","PUYALLUP","WA",98375,NA,NA,248,"7629 180TH ST E, PUYALLUP, WA, 98375","No_Match",NA,NA,NA,NA
853249,"7629 ANDERSON AVENUE","BATON ROUGE","LA",70811,30.5505402580001,-91.107697977,249,"7629 ANDERSON AVENUE, BATON ROUGE, LA, 70811","Match","Exact","7629 ANDERSON AVE, BATON ROUGE, LA, 70811",92186684,"L"
853250,"7629 ARAGORN LANE","CHARLOTTE","NC",28212,35.1710853170001,-80.725744603,250,"7629 ARAGORN LANE, CHARLOTTE, NC, 28212","Match","Exact","7629 ARAGORN LN, CHARLOTTE, NC, 28212",70589766,"L"
853251,"7629 BRADFORD ST","PHILADELPHIA","PA",19152,40.0520995250001,-75.0538029849999,251,"7629 BRADFORD ST, PHILADELPHIA, PA, 19152","Match","Exact","7629 BRADFORD ST, PHILADELPHIA, PA, 19152",131431814,"R"
853252,"7629 BROOKHAVEN WAY","SHREVEPORT","LA",71105,32.432217193,-93.718737142,252,"7629 BROOKHAVEN WAY, SHREVEPORT, LA, 71105","Match","Exact","7629 BROOKHAVEN WAY, SHREVEPORT, LA, 71105",57441960,"L"
853253,"7629 CHANCELLOR WAY","SPRINGFIELD","VA",22153,38.749368238,-77.2191611389999,253,"7629 CHANCELLOR WAY, SPRINGFIELD, VA, 22153","Match","Exact","7629 CHANCELLOR WAY, SPRINGFIELD, VA, 22153",76047082,"R"
853254,"7629 EAST 21ST ST","TULSA","OK",74129,36.133462815,-95.892251646,254,"7629 EAST 21ST ST, TULSA, OK, 74129","Match","Exact","7629 E 21ST ST, TULSA, OK, 74129",642918774,"L"
853255,"7629 HAYFIELD ROAD","ALEXANDRIA","VA",22315,38.749848489,-77.136918943,255,"7629 HAYFIELD ROAD, ALEXANDRIA, VA, 22315","Match","Exact","7629 HAYFIELD RD, ALEXANDRIA, VA, 22315",615664570,"L"
853256,"7629 HEYWARD CIRCLE","BRANDENTON","FL",34201,27.408766852,-82.461945626,256,"7629 HEYWARD CIRCLE, BRANDENTON, FL, 34201","Match","Non_Exact","7629 HEYWARD CIR, BRADENTON, FL, 34201",16294137,"R"
853257,"7629 JOHNNYCAKE RD","WINDSOR","MD",21244,39.3153212060001,-76.774285989,257,"7629 JOHNNYCAKE RD, WINDSOR, MD, 21244","Match","Non_Exact","7629 JOHNNYCAKE RD, WINDSOR MILL, MD, 21244",645108558,"L"
853258,"7629 JOHNNYCAKE ROAD","WINDSOR MILL","MD",21244,39.3153212060001,-76.774285989,258,"7629 JOHNNYCAKE ROAD, WINDSOR MILL, MD, 21244","Match","Exact","7629 JOHNNYCAKE RD, WINDSOR MILL, MD, 21244",645108558,"L"
853259,"7629 LUEDERS AVE","JACKSONVILLE","FL",32208,30.39017834,-81.67623056,259,"7629 LUEDERS AVE, JACKSONVILLE, FL, 32208","Match","Exact","7629 LUEDERS AVE, JACKSONVILLE, FL, 32208",83892636,"R"
853260,"7629 N HALSTEAD RD","MOUNDRIDGE","KS",67107,38.1329739940001,-97.518937664,260,"7629 N HALSTEAD RD, MOUNDRIDGE, KS, 67107","Match","Exact","7629 N HALSTEAD RD, MOUNDRIDGE, KS, 67107",120650844,"L"
853261,"7629 PURFOY ROAD","FUQUAY-VARINA","NC",27526,35.590207686,-78.7734091629999,261,"7629 PURFOY ROAD, FUQUAY-VARINA, NC, 27526","Match","Exact","7629 PURFOY RD, FUQUAY VARINA, NC, 27526",639844395,"R"
853262,"7629 SOUTH CLIFF DRIVE","FAIR OAKS","CA",95628,38.6357845730001,-121.283847573,262,"7629 SOUTH CLIFF DRIVE, FAIR OAKS, CA, 95628","Match","Non_Exact","7629 SOUTHCLIFF DR, FAIR OAKS, CA, 95628",133345995,"L"
853263,"7629 SOUTH HALL","HOUSTON","TX",77028,29.8358218020001,-95.290230086,263,"7629 SOUTH HALL, HOUSTON, TX, 77028","Match","Non_Exact","7629 S HALL ST, HOUSTON, TX, 77028",96147555,"L"
853264,"7629 SWAN TERRACE","LANDOVER","MD",20785,38.8982432400001,-76.874095698,264,"7629 SWAN TERRACE, LANDOVER, MD, 20785","Match","Exact","7629 SWAN TER, LANDOVER, MD, 20785",76354446,"R"
853265,"7629 VERONA DRIVE","FORT WAYNE","IN",46816,41.016577258,-85.089654415,265,"7629 VERONA DRIVE, FORT WAYNE, IN, 46816","Match","Exact","7629 VERONA DR, FORT WAYNE, IN, 46816",6386984,"L"
853266,"7629 W 66TH ST","BEDFORD PARK","IL",60501,NA,NA,266,"7629 W 66TH ST, BEDFORD PARK, IL, 60501","Tie",NA,NA,NA,NA
853267,"7629 WEST LAKE BLVD","KENT","OH",44240,41.1983233070001,-81.347946938,267,"7629 WEST LAKE BLVD, KENT, OH, 44240","Match","Exact","7629 W LAKE BLVD, KENT, OH, 44240",137515064,"L"
853268,"763 33RD AVE NE","GREAT FALLS","MT",59404,47.536005822,-111.293157474,268,"763 33RD AVE NE, GREAT FALLS, MT, 59404","Match","Exact","763 33RD AVE NE, GREAT FALLS, MT, 59404",202223388,"L"
853269,"763 BARLOW ROAD","HUDSON","OH",44236,41.2194908440001,-81.465070204,269,"763 BARLOW ROAD, HUDSON, OH, 44236","Match","Exact","763 BARLOW RD, HUDSON, OH, 44236",624062006,"L"
853270,"763 BITTERROOT","POCATELLO","ID",83201,42.8748843490001,-112.416609362,270,"763 BITTERROOT, POCATELLO, ID, 83201","Match","Non_Exact","763 BITTERROOT DR, POCATELLO, ID, 83201",204352928,"R"
853271,"763 BLACKBERRY LANE","YORKTOWN HIEGHTS","NY",10598,41.312501839,-73.8091488219999,271,"763 BLACKBERRY LANE, YORKTOWN HIEGHTS, NY, 10598","Match","Non_Exact","763 BLACKBERRY LN, YORKTOWN HEIGHTS, NY, 10598",139774341,"R"
853272,"763 BRANDON LANE","OTTO","NC",28763,35.0526931750001,-83.393322461,272,"763 BRANDON LANE, OTTO, NC, 28763","Match","Exact","763 BRANDON LN, OTTO, NC, 28763",35508110,"R"
853273,"763 BRENTWOOD BLVD","COPLEY","OH",44321,41.1153362900001,-81.673824512,273,"763 BRENTWOOD BLVD, COPLEY, OH, 44321","Match","Exact","763 BRENTWOOD BLVD, COPLEY, OH, 44321",61378842,"L"
853274,"763 BRUNNERVILLE ROAD","LITITZ","PA",17543,40.169939098,-76.294856527,274,"763 BRUNNERVILLE ROAD, LITITZ, PA, 17543","Match","Exact","763 BRUNNERVILLE RD, LITITZ, PA, 17543",623936044,"R"
853275,"763 BURSON MADDOX RD","WINDER","GA",30680,33.979248301,-83.781089364,275,"763 BURSON MADDOX RD, WINDER, GA, 30680","Match","Exact","763 BURSON MADDOX RD, WINDER, GA, 30680",642555135,"R"
853276,"763 CAFFEE ROAD","DAHLGREN","VA",22448,38.3240560900001,-77.043882003,276,"763 CAFFEE ROAD, DAHLGREN, VA, 22448","Match","Non_Exact","763 CAFFEE CIR, DAHLGREN, VA, 22448",22056290,"L"
853277,"763 CANADY RD","PARKTON","NC",28371,34.918386975,-78.9701597929999,277,"763 CANADY RD, PARKTON, NC, 28371","Match","Exact","763 CANADY RD, PARKTON, NC, 28371",643401889,"L"
853278,"763 CAPP STREET","SAN FRANCISCO","CA",94122,37.7545280590001,-122.417555868,278,"763 CAPP STREET, SAN FRANCISCO, CA, 94122","Match","Non_Exact","763 CAPP ST, SAN FRANCISCO, CA, 94110",192288311,"L"
853279,"763 COMMONWEALTH","ATLANTA","GA",30312,33.7288991300001,-84.3637345779999,279,"763 COMMONWEALTH, ATLANTA, GA, 30312","Match","Non_Exact","763 COMMONWEALTH AVE, ATLANTA, GA, 30312",618352060,"L"
853280,"763 COUNTY ROAD 414","KILLEN","AL",35645,34.830239895,-87.402432434,280,"763 COUNTY ROAD 414, KILLEN, AL, 35645","Match","Exact","763 CO RD 414, KILLEN, AL, 35645",41317376,"R"
853281,"763 CR 1170","DECATUR","TX",76234,33.2644993530001,-97.6294436749999,281,"763 CR 1170, DECATUR, TX, 76234","Match","Exact","763 CO RD 1170, DECATUR, TX, 76234",103683894,"R"
853282,"763 E 7TH ST","DELTA","CO",81416,38.737688733,-108.061570194,282,"763 E 7TH ST, DELTA, CO, 81416","Match","Exact","763 E 7TH ST, DELTA, CO, 81416",122387206,"R"
853283,"763 E 93RD DRIVE APT D","INDIANAPOLIS","IN",46240,39.9231763600001,-86.143336518,283,"763 E 93RD DRIVE APT D, INDIANAPOLIS, IN, 46240","Match","Non_Exact","763 93RD DR E, INDIANAPOLIS, IN, 46240",108057391,"R"
853284,"763 E ANAHIEM ST","LONG BEACH","CA",90813,33.7826084550001,-118.183224291,284,"763 E ANAHIEM ST, LONG BEACH, CA, 90813","Match","Non_Exact","763 E ANAHEIM ST, LONG BEACH, CA, 90813",141694566,"L"
853285,"763 EDGEWATER LN","KENNESAW","GA",30144,34.0565286940001,-84.5748193109999,285,"763 EDGEWATER LN, KENNESAW, GA, 30144","Match","Exact","763 EDGEWATER LN, KENNESAW, GA, 30144",17195513,"L"
853286,"763 FORREST PARK DR","DIXON","IL",61021,41.895890561,-89.484278406,286,"763 FORREST PARK DR, DIXON, IL, 61021","Match","Non_Exact","763 FOREST PARK DR, DIXON, IL, 61021",48741464,"R"
853287,"763 FOXTROTTER WAY","GALT","CA",95632,38.2906201690001,-121.302383273,287,"763 FOXTROTTER WAY, GALT, CA, 95632","Match","Exact","763 FOXTROTTER WAY, GALT, CA, 95632",133385796,"L"
853288,"763 HARBORTOWN BLVD PERTH AMBOY","NJ","NJ",8861,40.519793738,-74.259885326,288,"763 HARBORTOWN BLVD PERTH AMBOY, NJ, NJ, 8861","Match","Non_Exact","763 HARBORTOWN BLVD, HOPELAWN, NJ, 08861",649711916,"R"
853289,"763 HIGH COUNTRY TRAIL","MOUNTAIN HOME","AR",72653,36.2393154220001,-92.342904448,289,"763 HIGH COUNTRY TRAIL, MOUNTAIN HOME, AR, 72653","Match","Exact","763 HIGH COUNTRY TRL, MOUNTAIN HOME, AR, 72653",2956770,"L"
853290,"763 HILL STREET","YORK","PA",17403,39.9584063250001,-76.698842505,290,"763 HILL STREET, YORK, PA, 17403","Match","Exact","763 HILL ST, YORK, PA, 17403",88732791,"L"
853291,"763 HILL VIEW WAY","CHICO","CA",95926,39.7395068210001,-121.831951072,291,"763 HILL VIEW WAY, CHICO, CA, 95926","Match","Exact","763 HILL VIEW WAY, CHICO, CA, 95926",68427673,"R"
853292,"763 HOLBROOK PLACE","SUNNYVALE","CA",94087,37.3625281700001,-122.045528636,292,"763 HOLBROOK PLACE, SUNNYVALE, CA, 94087","Match","Exact","763 HOLBROOK PL, SUNNYVALE, CA, 94087",122937263,"R"
853293,"763 HOLLY AVENUE","SAINT PAUL","MN",55104,44.9431704410001,-93.132397263,293,"763 HOLLY AVENUE, SAINT PAUL, MN, 55104","Match","Non_Exact","763 W HOLLY AVE, SAINT PAUL, MN, 55104",97646751,"R"
853294,"763 J CLYDE MORRIS BLVD-SUITE 1A","NEWPORT NEWS","VA",23601,37.0801332840001,-76.46134612,294,"763 J CLYDE MORRIS BLVD-SUITE 1A, NEWPORT NEWS, VA, 23601","Match","Non_Exact","763 J CLYDE MORRIS BLVD, NEWPORT NEWS, VA, 23601",103753210,"L"
853295,"763 JENNING STREET UNIT 1B","BRONX","NY",10459,NA,NA,295,"763 JENNING STREET UNIT 1B, BRONX, NY, 10459","No_Match",NA,NA,NA,NA
853296,"763 JOLSON AVE","AKRON","OH",44319,40.9929680490001,-81.5494560829999,296,"763 JOLSON AVE, AKRON, OH, 44319","Match","Exact","763 JOLSON AVE, AKRON, OH, 44319",61357348,"R"
853297,"763 KENSINGTON WAY","COPLEY","OH",44321,41.1158529470001,-81.666296727,297,"763 KENSINGTON WAY, COPLEY, OH, 44321","Match","Exact","763 KENSINGTON WAY, COPLEY, OH, 44321",61378867,"L"
853298,"763 KIRBY GRAVES RD","SULPHUR","OK",73086,NA,NA,298,"763 KIRBY GRAVES RD, SULPHUR, OK, 73086","No_Match",NA,NA,NA,NA
853299,"763 LAKE RIDGE LANE","PENSACOLA","FL",32514,30.52186319,-87.245872709,299,"763 LAKE RIDGE LANE, PENSACOLA, FL, 32514","Match","Exact","763 LAKE RIDGE LN, PENSACOLA, FL, 32514",617456355,"R"
853300,"763 LANRECO BLVD","LANCASTER","OH",43130,39.7183197160001,-82.575038333,300,"763 LANRECO BLVD, LANCASTER, OH, 43130","Match","Exact","763 LANRECO BLVD, LANCASTER, OH, 43130",37222479,"L"
853301,"763 LASHLEY ST","LONGMONT","CO",80504,40.1721704180001,-105.088297212,301,"763 LASHLEY ST, LONGMONT, CO, 80504","Match","Exact","763 LASHLEY ST, LONGMONT, CO, 80504",188156868,"L"
853302,"763 LAUREL LN","NEW  BRAUNFELS","TX",78130,29.708855299,-98.149788442,302,"763 LAUREL LN, NEW  BRAUNFELS, TX, 78130","Match","Exact","763 LAUREL LN, NEW BRAUNFELS, TX, 78130",72244712,"R"
853303,"763 LEA DRIVE","HAMPSTEAD","NC",28443,34.3619391820001,-77.692007998,303,"763 LEA DRIVE, HAMPSTEAD, NC, 28443","Match","Exact","763 LEA DR, HAMPSTEAD, NC, 28443",14140640,"R"
853304,"763 LINCOLN STREET","FRANKLIN","MA",2038,42.127509296,-71.3991366929999,304,"763 LINCOLN STREET, FRANKLIN, MA, 2038","Match","Exact","763 LINCOLN ST, FRANKLIN, MA, 02038",87305730,"L"
853305,"763 LONGWOOD DRIVE NORTHWEST","ATLANTA","GA",30305,33.8172607000001,-84.4130491939999,305,"763 LONGWOOD DRIVE NORTHWEST, ATLANTA, GA, 30305","Match","Exact","763 LONGWOOD DR NW, ATLANTA, GA, 30305",17415777,"R"
853306,"763 MANCILL RD","WAYNE","PA",19087,40.0686594310001,-75.400460344,306,"763 MANCILL RD, WAYNE, PA, 19087","Match","Exact","763 MANCILL RD, WAYNE, PA, 19087",179513323,"R"
853307,"763 MARSHALL AVENUE","MEDFORD","OR",97501,42.306829195,-122.879217541,307,"763 MARSHALL AVENUE, MEDFORD, OR, 97501","Match","Exact","763 MARSHALL AVE, MEDFORD, OR, 97501",640628187,"L"
853308,"763 N CHERRY STREET","OAKDALE","IL",62268,38.2673947750001,-89.4930857799999,308,"763 N CHERRY STREET, OAKDALE, IL, 62268","Match","Exact","763 N CHERRY ST, OAKDALE, IL, 62268",648818445,"L"
853309,"763 NORTH CLINTON AVENUE","TRENTON","NJ",8638,40.2333735180001,-74.740641845,309,"763 NORTH CLINTON AVENUE, TRENTON, NJ, 8638","Match","Exact","763 N CLINTON AVE, TRENTON, NJ, 08638",60225987,"L"
853310,"763 NORWOOD AVE","LONG BRANCH","NJ",7740,40.2743820040001,-74.002789258,310,"763 NORWOOD AVE, LONG BRANCH, NJ, 7740","Match","Exact","763 NORWOOD AVE, LONG BRANCH, NJ, 07740",90461640,"L"
853311,"763 OLD BRUNDAGE RD","HOT SPRINGS","AR",71913,34.4421071730001,-93.1106532429999,311,"763 OLD BRUNDAGE RD, HOT SPRINGS, AR, 71913","Match","Exact","763 OLD BRUNDAGE RD, HOT SPRINGS, AR, 71913",22760959,"L"
853312,"763 OVERLOOK TERRACE","EFFORT","PA",18330,NA,NA,312,"763 OVERLOOK TERRACE, EFFORT, PA, 18330","No_Match",NA,NA,NA,NA
853313,"763 PEEL ROAD","SHIRLEY","AR",72153,35.617358073,-92.3794648319999,313,"763 PEEL ROAD, SHIRLEY, AR, 72153","Match","Exact","763 PEEL RD, SHIRLEY, AR, 72153",43403328,"R"
853314,"763 PINEY WOODS ROAD","SCOOBA","MS",39358,32.867376549,-88.462759566,314,"763 PINEY WOODS ROAD, SCOOBA, MS, 39358","Match","Exact","763 PINEY WOODS RD, SCOOBA, MS, 39358",632739286,"L"
853315,"763 POPE CHURCH RD","SPRINGPORT","MI",49284,NA,NA,315,"763 POPE CHURCH RD, SPRINGPORT, MI, 49284","No_Match",NA,NA,NA,NA
853316,"763 PORTAGE ROAD","NIAGARA FALLS","NY",14301,43.0962967520001,-79.0497458849999,316,"763 PORTAGE ROAD, NIAGARA FALLS, NY, 14301","Match","Exact","763 PORTAGE RD, NIAGARA FALLS, NY, 14301",48699612,"R"
853317,"763 PROVINCIAL","CHELSEA","MI",48118,42.3193079060001,-84.004162616,317,"763 PROVINCIAL, CHELSEA, MI, 48118","Match","Non_Exact","763 PROVINCIAL DR, CHELSEA, MI, 48118",26038126,"R"
853318,"763 RIESLING STREET","HEMET","CA",92545,33.759682599,-117.011838865,318,"763 RIESLING STREET, HEMET, CA, 92545","Match","Exact","763 RIESLING ST, HEMET, CA, 92545",609002741,"L"
853319,"763 S NEW BALLAS RD STE 300","ST LOUIS","MO",63141,38.669340049,-90.438551731,319,"763 S NEW BALLAS RD STE 300, ST LOUIS, MO, 63141","Match","Non_Exact","763 OLD BALLAS RD, SAINT LOUIS, MO, 63141",100124995,"L"
853320,"763 S SUPERIOR AVE","CALUMET CITY","IL",60409,41.612208744,-87.5443507479999,320,"763 S SUPERIOR AVE, CALUMET CITY, IL, 60409","Match","Exact","763 SUPERIOR AVE, CALUMET CITY, IL, 60409",647598189,"L"
853321,"763 SEDONA PINES DR","BATON ROUGE","LA",70816,30.4586738680001,-91.009471694,321,"763 SEDONA PINES DR, BATON ROUGE, LA, 70816","Match","Exact","763 SEDONA PINES DR, BATON ROUGE, LA, 70816",646663082,"L"
853322,"763 SEMINOLE CT","CROWN POINT","IN",46307,41.4035042300001,-87.344345991,322,"763 SEMINOLE CT, CROWN POINT, IN, 46307","Match","Exact","763 SEMINOLE CT, CROWN POINT, IN, 46307",98442669,"L"
853323,"763 SETTLERS DRIVE","MILLIKEN","CO",80543,40.3245868670001,-104.839682489,323,"763 SETTLERS DRIVE, MILLIKEN, CO, 80543","Match","Exact","763 SETTLERS DR, MILLIKEN, CO, 80543",188753432,"R"
853324,"763 SMITH CREED ROAD","SPRAGGS","PA",15362,NA,NA,324,"763 SMITH CREED ROAD, SPRAGGS, PA, 15362","No_Match",NA,NA,NA,NA
853325,"763 SOUTH 12TH STREET","PHILADELPHIA","PA",19147,39.9408044800001,-75.162288933,325,"763 SOUTH 12TH STREET, PHILADELPHIA, PA, 19147","Match","Exact","763 S 12TH ST, PHILADELPHIA, PA, 19147",623871876,"L"
853326,"763 SPINNAKER BEACHHOUSE VL","SEABROOK ISLAND","SC",29455,32.560882088,-80.177463314,326,"763 SPINNAKER BEACHHOUSE VL, SEABROOK ISLAND, SC, 29455","Match","Non_Exact","763 SPINNAKER CT, SEABROOK ISLAND, SC, 29455",108887504,"R"
853327,"763 ST NICHOLAS AVE","NEW YORK","NY",10031,40.826172124,-73.943271501,327,"763 ST NICHOLAS AVE, NEW YORK, NY, 10031","Match","Exact","763 ST NICHOLAS AVE, NEW YORK, NY, 10031",640813680,"L"
853328,"763 STARR RIDGE ST SE","MASSILLON","OH",44646,40.7885591960001,-81.484476706,328,"763 STARR RIDGE ST SE, MASSILLON, OH, 44646","Match","Exact","763 STARR RIDGE ST SE, MASSILLON, OH, 44646",641770213,"R"
853329,"763 STOCKADE ROAD","ABSAROKEE","MT",59001,NA,NA,329,"763 STOCKADE ROAD, ABSAROKEE, MT, 59001","No_Match",NA,NA,NA,NA
853330,"763 THOMAS AVE W","SAINT PAUL","MN",55104,NA,NA,330,"763 THOMAS AVE W, SAINT PAUL, MN, 55104","No_Match",NA,NA,NA,NA
853331,"763 VICTORIA CIRCLE","MEDINA","OH",44256,41.1212458570001,-81.849339379,331,"763 VICTORIA CIRCLE, MEDINA, OH, 44256","Match","Exact","763 VICTORIA CIR, MEDINA, OH, 44256",58693178,"L"
853332,"763 W 1330 N","OREM","UT",84057,40.3215131200001,-111.71446723,332,"763 W 1330 N, OREM, UT, 84057","Match","Exact","763 W 1330 N, OREM, UT, 84057",134204622,"L"
853333,"763 W GRANADA BLVD","ORMOND BEACH","FL",32174,NA,NA,333,"763 W GRANADA BLVD, ORMOND BEACH, FL, 32174","Tie",NA,NA,NA,NA
853334,"763 WHITEHALL PKWY","MONTGOMERY","AL",36109,32.3947368570001,-86.256862567,334,"763 WHITEHALL PKWY, MONTGOMERY, AL, 36109","Match","Exact","763 WHITEHALL PKWY, MONTGOMERY, AL, 36109",1547501,"R"
853335,"763 WILLOW GREEK DRIVE","MACON","GA",31204,32.8758868410001,-83.684322305,335,"763 WILLOW GREEK DRIVE, MACON, GA, 31204","Match","Non_Exact","763 WILLOW CREEK DR, MACON, GA, 31204",81066995,"R"
853336,"763 WOODLAWN AVENUE","HAMMONTON","NJ",8037,39.643274112,-74.78683403,336,"763 WOODLAWN AVENUE, HAMMONTON, NJ, 8037","Match","Exact","763 WOODLAWN AVE, HAMMONTON, NJ, 08037",202511396,"R"
853337,"763 WOODSTOCK RD","EASTLAKE","OH",44095,41.652651968,-81.454607881,337,"763 WOODSTOCK RD, EASTLAKE, OH, 44095","Match","Exact","763 WOODSTOCK RD, EASTLAKE, OH, 44095",137459810,"L"
853338,"7630 160TH STREET W","LAKEVILE","MN",55044,44.7174174780001,-93.220953547,338,"7630 160TH STREET W, LAKEVILE, MN, 55044","Match","Non_Exact","7630 160TH ST W, LAKEVILLE, MN, 55044",37907325,"L"
853339,"7630 BELBAY ST","HOUSTON","TX",77033,29.6708109300001,-95.3238418,339,"7630 BELBAY ST, HOUSTON, TX, 77033","Match","Exact","7630 BELBAY ST, HOUSTON, TX, 77033",96091055,"R"
853340,"7630 BRENTWOOD DRIVE","STOCKTON","CA",95207,38.018759952,-121.333224757,340,"7630 BRENTWOOD DRIVE, STOCKTON, CA, 95207","Match","Exact","7630 BRENTWOOD DR, STOCKTON, CA, 95207",133843931,"R"
853341,"7630 BRIARWOOD DRIVE","NEW ORLEANS","LA",70128,30.062409428,-89.952738712,341,"7630 BRIARWOOD DRIVE, NEW ORLEANS, LA, 70128","Match","Exact","7630 BRIARWOOD DR, NEW ORLEANS, LA, 70128",191721953,"R"
853342,"7630 BURFORD DR","MCLEAN","VA",22102,38.952568059,-77.209576294,342,"7630 BURFORD DR, MCLEAN, VA, 22102","Match","Exact","7630 BURFORD DR, MCLEAN, VA, 22102",215924001,"R"
853343,"7630 CYPRESS DRIVE","NEW PORT RICHIE","FL",34653,28.2558592400001,-82.6887839409999,343,"7630 CYPRESS DRIVE, NEW PORT RICHIE, FL, 34653","Match","Non_Exact","7630 CYPRESS DR, NEW PORT RICHEY, FL, 34653",86337538,"L"
853344,"7630 DRIFTWOOD DRIVE","AVON","IN",46123,NA,NA,344,"7630 DRIFTWOOD DRIVE, AVON, IN, 46123","No_Match",NA,NA,NA,NA
853345,"7630 GIVEN ROAD","CINCINNATI","OH",45243,39.194486022,-84.325287322,345,"7630 GIVEN ROAD, CINCINNATI, OH, 45243","Match","Exact","7630 GIVEN RD, CINCINNATI, OH, 45243",103972333,"R"
853346,"7630 GLEN PRAIRIE ST","HOUSTON","TX",77061,29.6739493270001,-95.2841678889999,346,"7630 GLEN PRAIRIE ST, HOUSTON, TX, 77061","Match","Exact","7630 GLEN PRAIRIE ST, HOUSTON, TX, 77061",96605977,"R"
853347,"7630 HARRIS LN","BRYAN","TX",77808,30.7895914210001,-96.335125297,347,"7630 HARRIS LN, BRYAN, TX, 77808","Match","Exact","7630 HARRIS LN, BRYAN, TX, 77808",21835911,"R"
853348,"7630 LIPPINCOTT WAY","INDIANAPOLIS","IN",46268,39.892462016,-86.222867304,348,"7630 LIPPINCOTT WAY, INDIANAPOLIS, IN, 46268","Match","Exact","7630 LIPPINCOTT WAY, INDIANAPOLIS, IN, 46268",108025306,"R"
853349,"7630 LITTLE RIVER TURNPIKE","ANNANDALE","VA",22003,38.832736116,-77.2096498129999,349,"7630 LITTLE RIVER TURNPIKE, ANNANDALE, VA, 22003","Match","Exact","7630 LITTLE RIVER TPKE, ANNANDALE, VA, 22003",638089639,"R"
853350,"7630 LORAIN AVE","CLEVELAND","OH",44102,41.4725574390001,-81.736469439,350,"7630 LORAIN AVE, CLEVELAND, OH, 44102","Match","Exact","7630 LORAIN AVE, CLEVELAND, OH, 44102",61101294,"R"
853351,"7630 MARIE AVE","LA MESA","CA",91942,32.7655305580001,-117.033311184,351,"7630 MARIE AVE, LA MESA, CA, 91942","Match","Exact","7630 MARIE AVE, LA MESA, CA, 91942",195359119,"L"
853352,"7630 MITCHELL PARK DR","CLEVES","OH",45002,39.1775241350001,-84.695524134,352,"7630 MITCHELL PARK DR, CLEVES, OH, 45002","Match","Exact","7630 MITCHELL PARK DR, CLEVES, OH, 45002",103956508,"L"
853353,"7630 MYRTLE ST","LINCOLN","NE",68506,40.787135666,-96.615781919,353,"7630 MYRTLE ST, LINCOLN, NE, 68506","Match","Exact","7630 MYRTLE ST, LINCOLN, NE, 68506",28262079,"L"
853354,"7630 N WICKHAM RD SUITE 105","VIERA","FL",32940,28.2305899630001,-80.6949918729999,354,"7630 N WICKHAM RD SUITE 105, VIERA, FL, 32940","Match","Non_Exact","7630 N WICKHAM RD, VIERA, FL, 32940",611445569,"R"
853355,"7630 NW 16TH","ANKENY","IA",50023,41.699613324,-93.638792208,355,"7630 NW 16TH, ANKENY, IA, 50023","Match","Non_Exact","7630 NW 16TH ST, ANKENY, IA, 50023",65811586,"L"
853356,"7630 NW 2ND COURT","MIAMI","FL",33158,25.844743754,-80.201837369,356,"7630 NW 2ND COURT, MIAMI, FL, 33158","Match","Non_Exact","7630 NW 2ND CT, MIAMI, FL, 33150",116006081,"L"
853357,"7630 OMNI LANE 205","FORT MYERS","FL",33905,26.6345713790001,-81.789466655,357,"7630 OMNI LANE 205, FORT MYERS, FL, 33905","Match","Exact","7630 OMNI LN, FORT MYERS, FL, 33905",618025345,"L"
853358,"7630 PARKWOOD WAY","SAN ANTOINO","TX",78249,29.544916517,-98.637463645,358,"7630 PARKWOOD WAY, SAN ANTOINO, TX, 78249","Match","Non_Exact","7630 PARKWOOD WAY, SAN ANTONIO, TX, 78249",101735489,"R"
853359,"7630 PARKWOOD WAY","SAN ANTONIO","TX",78249,29.544916517,-98.637463645,359,"7630 PARKWOOD WAY, SAN ANTONIO, TX, 78249","Match","Exact","7630 PARKWOOD WAY, SAN ANTONIO, TX, 78249",101735489,"R"
853360,"7630 PONDBROOK LANE","MACEDONIA","OH",44056,41.2856509690001,-81.4815397579999,360,"7630 PONDBROOK LANE, MACEDONIA, OH, 44056","Match","Non_Exact","7630 POND BROOK LN, MACEDONIA, OH, 44056",61389050,"L"
853361,"7630 S THOMPSON AVE","TACOMA","WA",98408,47.187903512,-122.444506885,361,"7630 S THOMPSON AVE, TACOMA, WA, 98408","Match","Exact","7630 S THOMPSON AVE, TACOMA, WA, 98408",184628521,"R"
853362,"7630 SOUTH HALL STREET","HOUSTON","TX",77028,29.835810865,-95.290225962,362,"7630 SOUTH HALL STREET, HOUSTON, TX, 77028","Match","Exact","7630 S HALL ST, HOUSTON, TX, 77028",96147555,"R"
853363,"7630 SW 54TH AVE","MIAMI","FL",33143,25.7004291270001,-80.281597405,363,"7630 SW 54TH AVE, MIAMI, FL, 33143","Match","Exact","7630 SW 54TH AVE, MIAMI, FL, 33143",115985665,"R"
853364,"7630 TIGER LILY CT","VERONA","WI",53593,43.0668910410001,-89.579455727,364,"7630 TIGER LILY CT, VERONA, WI, 53593","Match","Exact","7630 TIGER LILY CT, VERONA, WI, 53593",641679640,"L"
853365,"7630 WOOD HOLLOW DRIVE 247","AUSTON","TX",78731,30.3599476040001,-97.749968724,365,"7630 WOOD HOLLOW DRIVE 247, AUSTON, TX, 78731","Match","Non_Exact","7630 WOOD HOLLOW DR, AUSTIN, TX, 78731",64023753,"L"
853366,"763027 HOLUALOA HUI ROAD","KAILUA KONA","HI",96740,NA,NA,366,"763027 HOLUALOA HUI ROAD, KAILUA KONA, HI, 96740","No_Match",NA,NA,NA,NA
853367,"7631 174TH AVE SE","WAHPETON","ND",58075,46.3068806800001,-96.778481868,367,"7631 174TH AVE SE, WAHPETON, ND, 58075","Match","Exact","7631 174TH AVE SE, WAHPETON, ND, 58075",181255923,"L"
853368,"7631 ADDISEN COURT","INVER GROVE HEIGHTS","MN",55077,44.838299911,-93.0884627409999,368,"7631 ADDISEN COURT, INVER GROVE HEIGHTS, MN, 55077","Match","Exact","7631 ADDISEN CT, INVER GROVE HEIGHTS, MN, 55077",642974182,"R"
853369,"7631 AMAZON DRIVE APT 1","HUNTINGTON BEACH","CA",92647,33.7270560310001,-117.995602095,369,"7631 AMAZON DRIVE APT 1, HUNTINGTON BEACH, CA, 92647","Match","Exact","7631 AMAZON DR, HUNTINGTON BEACH, CA, 92647",144017321,"L"
853370,"7631 CINEBAR DR","BOCA RATON","FL",33433,26.3338174940001,-80.163573523,370,"7631 CINEBAR DR, BOCA RATON, FL, 33433","Match","Exact","7631 CINEBAR DR, BOCA RATON, FL, 33433",640993113,"L"
853371,"7631 CRIMSON COURT","MENTOR","OH",44060,41.662632268,-81.306163732,371,"7631 CRIMSON COURT, MENTOR, OH, 44060","Match","Exact","7631 CRIMSON CT, MENTOR, OH, 44060",137470454,"L"
853372,"7631 DALLAS HWY C16","DOUGLASVILLE","GA",30134,33.7708945360001,-84.747923101,372,"7631 DALLAS HWY C16, DOUGLASVILLE, GA, 30134","Match","Exact","7631 DALLAS HWY, DOUGLASVILLE, GA, 30134",647289251,"R"
853373,"7631 DELLINGER RD","DENVER","NC",28037,35.532612193,-80.980904874,373,"7631 DELLINGER RD, DENVER, NC, 28037","Match","Exact","7631 DELLINGER RD, DENVER, NC, 28037",69530997,"L"
853374,"7631 E ABORY CT","LAUREL","MD",20707,NA,NA,374,"7631 E ABORY CT, LAUREL, MD, 20707","No_Match",NA,NA,NA,NA
853375,"7631 GLEN MEADOW DR","LAKELAND","FL",33810,28.1391935250001,-82.051592376,375,"7631 GLEN MEADOW DR, LAKELAND, FL, 33810","Match","Exact","7631 GLEN MEADOW DR, LAKELAND, FL, 33810",104884455,"R"
853376,"7631 MAPLE ST","DEARBORN","MI",48126,42.3481950450001,-83.1794939,376,"7631 MAPLE ST, DEARBORN, MI, 48126","Match","Exact","7631 MAPLE ST, DEARBORN, MI, 48126",95442292,"L"
853377,"7631 MONOGRAMM LANE","MINT HILL","NC",28227,35.187463026,-80.661431479,377,"7631 MONOGRAMM LANE, MINT HILL, NC, 28227","Match","Exact","7631 MONOGRAMM LN, MINT HILL, NC, 28227",618152952,"L"
853378,"7631 NORTH SANTA MONICA BLVD","FOX POINT","WI",53217,NA,NA,378,"7631 NORTH SANTA MONICA BLVD, FOX POINT, WI, 53217","No_Match",NA,NA,NA,NA
853379,"7631 RIVER OAKS DRIVE","LAPLACE","LA",70068,NA,NA,379,"7631 RIVER OAKS DRIVE, LAPLACE, LA, 70068","No_Match",NA,NA,NA,NA
853380,"7631 S SEELEY AVENUE","CHICAGO","IL",60620,41.7550601460001,-87.674475367,380,"7631 S SEELEY AVENUE, CHICAGO, IL, 60620","Match","Exact","7631 S SEELEY AVE, CHICAGO, IL, 60620",111820646,"L"
853381,"7631 SALE AVE","WEST HILLS","CA",91304,34.209338604,-118.618596556,381,"7631 SALE AVE, WEST HILLS, CA, 91304","Match","Exact","7631 SALE AVE, WEST HILLS, CA, 91304",141532720,"L"
853382,"7631 SAUSALITO AVENUE","WEST HILLS","CA",91304,34.209695965,-118.615699241,382,"7631 SAUSALITO AVENUE, WEST HILLS, CA, 91304","Match","Exact","7631 SAUSALITO AVE, WEST HILLS, CA, 91304",141532725,"L"
853383,"7631 SE RAYMOND ST","PORTLAND","OR",97206,45.4865587140001,-122.584917493,383,"7631 SE RAYMOND ST, PORTLAND, OR, 97206","Match","Exact","7631 SE RAYMOND ST, PORTLAND, OR, 97206",638569502,"L"
853384,"7631 SHELLMONT COURT","CYPRESS","TX",77433,29.888383961,-95.710261799,384,"7631 SHELLMONT COURT, CYPRESS, TX, 77433","Match","Exact","7631 SHELLMONT CT, CYPRESS, TX, 77433",633572374,"L"
853385,"7631 SOUTHBRANCH PARKWAY","OLIVE BRANCH","MS",38654,NA,NA,385,"7631 SOUTHBRANCH PARKWAY, OLIVE BRANCH, MS, 38654","No_Match",NA,NA,NA,NA
853386,"7631 SWEETBRIER WAY","SACRAMENTO","CA",95832,38.4792501650001,-121.490648861,386,"7631 SWEETBRIER WAY, SACRAMENTO, CA, 95832","Match","Exact","7631 SWEETBRIER WAY, SACRAMENTO, CA, 95832",133350834,"L"
853387,"7631 TIMBERWOOD DR","JACKSONVILLE","FL",32256,30.1713641440001,-81.5402995709999,387,"7631 TIMBERWOOD DR, JACKSONVILLE, FL, 32256","Match","Exact","7631 TIMBERWOOD DR, JACKSONVILLE, FL, 32256",83958390,"L"
853388,"7631 W BERWYN","CHICAGO","IL",60656,NA,NA,388,"7631 W BERWYN, CHICAGO, IL, 60656","No_Match",NA,NA,NA,NA
853389,"7631 W NESTLE RD","HOUGHTON LAKE","MI",48629,44.291084798,-84.769707949,389,"7631 W NESTLE RD, HOUGHTON LAKE, MI, 48629","Match","Exact","7631 W NESTLE RD, HOUGHTON LAKE, MI, 48629",179425689,"L"
853390,"7631 WOODKNOLL DRIVE","CHARLOTTE","NC",28217,35.1456468150001,-80.918919481,390,"7631 WOODKNOLL DRIVE, CHARLOTTE, NC, 28217","Match","Exact","7631 WOODKNOLL DR, CHARLOTTE, NC, 28217",70531254,"L"
853391,"76317 COLUMBIA STREET","ROSEMEAD","CA",91770,NA,NA,391,"76317 COLUMBIA STREET, ROSEMEAD, CA, 91770","No_Match",NA,NA,NA,NA
853392,"7632 10TH ST","BUENA PARK","CA",90621,33.8635039860001,-118.000383973,392,"7632 10TH ST, BUENA PARK, CA, 90621","Match","Exact","7632 10TH ST, BUENA PARK, CA, 90621",609052136,"R"
853393,"7632 A WEEDON RD","ADAMSTOWN","MD",21710,39.322759659,-77.400463639,393,"7632 A WEEDON RD, ADAMSTOWN, MD, 21710","Match","Exact","7632 WEEDON RD, ADAMSTOWN, MD, 21710",60736120,"L"
853394,"7632 ADORNMENT COURT","Las Vegas","NV",89131,36.2991946130001,-115.26121921,394,"7632 ADORNMENT COURT, Las Vegas, NV, 89131","Match","Exact","7632 ADORNMENT CT, LAS VEGAS, NV, 89131",201950887,"R"
853395,"7632 ADORNMENT COURT","LAS VEGAS","NV",89131,36.2991946130001,-115.26121921,395,"7632 ADORNMENT COURT, LAS VEGAS, NV, 89131","Match","Exact","7632 ADORNMENT CT, LAS VEGAS, NV, 89131",201950887,"R"
853396,"7632 ALDERWOOD AVE","EASTVALE","CA",92880,33.949429771,-117.588040781,396,"7632 ALDERWOOD AVE, EASTVALE, CA, 92880","Match","Exact","7632 ALDERWOOD AVE, EASTVALE, CA, 92880",195095512,"L"
853397,"7632 ALLENDALE DR","HYATTSVILLE","MD",20785,38.9153080630001,-76.8746745189999,397,"7632 ALLENDALE DR, HYATTSVILLE, MD, 20785","Match","Exact","7632 ALLENDALE DR, HYATTSVILLE, MD, 20785",76381108,"L"
853398,"7632 APACHE TRAIL","TEMPERANCE","MI",48182,41.754768384,-83.574340937,398,"7632 APACHE TRAIL, TEMPERANCE, MI, 48182","Match","Exact","7632 APACHE TRL, TEMPERANCE, MI, 48182",40484204,"R"
853399,"7632 CHARLESMONT ST","HOUSTON","TX",77016,29.8598914240001,-95.290792251,399,"7632 CHARLESMONT ST, HOUSTON, TX, 77016","Match","Exact","7632 CHARLESMONT ST, HOUSTON, TX, 77016",96075731,"R"
853400,"7632 CIRCLE DR","NORTH RICHLAND HILLS","TX",76180,32.848556054,-97.219905732,400,"7632 CIRCLE DR, NORTH RICHLAND HILLS, TX, 76180","Match","Exact","7632 CIRCLE DR, NORTH RICHLAND HILLS, TX, 76180",101864622,"R"
853401,"7632 COUNTY ROAD 308","GRANDVIEW","TX",76050,32.320626626,-97.252192088,401,"7632 COUNTY ROAD 308, GRANDVIEW, TX, 76050","Match","Exact","7632 CO RD 308, GRANDVIEW, TX, 76050",103552840,"R"
853402,"7632 DOUGLAS ST SE","SNOQUALMIE","WA",98065,47.5320046310001,-121.878366051,402,"7632 DOUGLAS ST SE, SNOQUALMIE, WA, 98065","Match","Non_Exact","7632 DOUGLAS AVE SE, SNOQUALMIE, WA, 98065",186947826,"R"
853403,"7632 EL PASO STREET","LA MESA","CA",91942,32.7903836630001,-117.032870887,403,"7632 EL PASO STREET, LA MESA, CA, 91942","Match","Exact","7632 EL PASO ST, LA MESA, CA, 91942",195325524,"L"
853404,"7632 FAIRFIELD STREET","PHILADELPHIA","PA",19152,40.050956264,-75.0497027229999,404,"7632 FAIRFIELD STREET, PHILADELPHIA, PA, 19152","Match","Exact","7632 FAIRFIELD ST, PHILADELPHIA, PA, 19152",131431889,"L"
853405,"7632 LOCKE ROAD","VACAVILLE","CA",95688,38.4343154050001,-121.948155085,405,"7632 LOCKE ROAD, VACAVILLE, CA, 95688","Match","Exact","7632 LOCKE RD, VACAVILLE, CA, 95688",192609746,"R"
853406,"7632 MAPLE TRUNK DR","CANAL WINCHESTER","OH",43110,39.903592073,-82.80205985,406,"7632 MAPLE TRUNK DR, CANAL WINCHESTER, OH, 43110","Match","Exact","7632 MAPLE TRUNK DR, CANAL WINCHESTER, OH, 43110",641120848,"L"
853407,"7632 MILLICENT WAY","SHREVEPORT","LA",71105,32.4313044080001,-93.72278224,407,"7632 MILLICENT WAY, SHREVEPORT, LA, 71105","Match","Exact","7632 MILLICENT WAY, SHREVEPORT, LA, 71105",57452799,"R"
853408,"7632 NE 14TH STREET","MEDINA","WA",98039,47.6229485980001,-122.236946375,408,"7632 NE 14TH STREET, MEDINA, WA, 98039","Match","Exact","7632 NE 14TH ST, MEDINA, WA, 98039",641259145,"L"
853409,"7632 PEACEFUL TRELLIS","LAS VEGAS","NV",89179,35.9962726210001,-115.258403663,409,"7632 PEACEFUL TRELLIS, LAS VEGAS, NV, 89179","Match","Non_Exact","7632 PEACEFUL TRELLIS DR, LAS VEGAS, NV, 89179",641454861,"L"
853410,"7632 S 134TH ST","SEATTLE","WA",98178,47.4835964160001,-122.237467461,410,"7632 S 134TH ST, SEATTLE, WA, 98178","Match","Exact","7632 S 134TH ST, SEATTLE, WA, 98178",186630651,"L"
853411,"7632 S E TAYLOR ST","PORTLAND","OR",97215,45.515237685,-122.58482665,411,"7632 S E TAYLOR ST, PORTLAND, OR, 97215","Match","Exact","7632 SE TAYLOR ST, PORTLAND, OR, 97215",157516473,"R"
853412,"7632 S EUCLID AVE","CHICAGO","IL",60649,41.7563922580001,-87.577317539,412,"7632 S EUCLID AVE, CHICAGO, IL, 60649","Match","Exact","7632 S EUCLID AVE, CHICAGO, IL, 60649",111775629,"R"
853413,"7632 S US HWY 41","ROSEDALE","IN",47874,39.657021109,-87.3761131109999,413,"7632 S US HWY 41, ROSEDALE, IN, 47874","Match","Exact","7632 US HWY 41, ROSEDALE, IN, 47874",66401037,"L"
853414,"7632 SEINE DR","HUNTINGTON BEACH","CA",92647,33.721717359,-117.994983506,414,"7632 SEINE DR, HUNTINGTON BEACH, CA, 92647","Match","Exact","7632 SEINE DR, HUNTINGTON BEACH, CA, 92647",144017364,"R"
853415,"7632 STIRLING BRIDGE BLVD N","DELRAY BEACH","FL",33446,26.4682320110001,-80.1692585339999,415,"7632 STIRLING BRIDGE BLVD N, DELRAY BEACH, FL, 33446","Match","Exact","7632 STIRLING BRIDGE BLVD N, DELRAY BEACH, FL, 33446",115482324,"R"
853416,"7632 SUMMERS PL","ONTARIO","NY",14519,43.2719843260001,-77.3523347459999,416,"7632 SUMMERS PL, ONTARIO, NY, 14519","Match","Exact","7632 SUMMERS PL, ONTARIO, NY, 14519",648984122,"R"
853417,"7632 TALL PIN OAK DRIVE","ELKRIDGE","MD",21075,39.181654619,-76.779042631,417,"7632 TALL PIN OAK DRIVE, ELKRIDGE, MD, 21075","Match","Exact","7632 TALL PIN OAK DR, ELKRIDGE, MD, 21075",618960475,"L"
853418,"7632 TOPANGA CANYON BLVD","CANOGA PARK","CA",91304,34.209052683,-118.605865784,418,"7632 TOPANGA CANYON BLVD, CANOGA PARK, CA, 91304","Match","Exact","7632 TOPANGA CANYON BLVD, CANOGA PARK, CA, 91304",141533180,"R"
853419,"7632 WASHINGTON AVE SOUTH","EDEN PRAIRIE","MN",55344,44.8645193770001,-93.398661525,419,"7632 WASHINGTON AVE SOUTH, EDEN PRAIRIE, MN, 55344","Match","Exact","7632 WASHINGTON AVE S, EDEN PRAIRIE, MN, 55344",43647622,"R"
853420,"7632 WEEDON RD","ADAMSTOWN","MD",21710,39.3227500890001,-77.400462477,420,"7632 WEEDON RD, ADAMSTOWN, MD, 21710","Match","Exact","7632 WEEDON RD, ADAMSTOWN, MD, 21710",60736120,"L"
853421,"7632 WESTON COURT","NEW PORT RICHEY","FL",34654,28.267812695,-82.627596035,421,"7632 WESTON COURT, NEW PORT RICHEY, FL, 34654","Match","Exact","7632 WESTON CT, NEW PORT RICHEY, FL, 34654",86397078,"R"
853422,"76327 HAVEN DR","SOUTH HAVEN","MI",49090,42.380598537,-86.286592522,422,"76327 HAVEN DR, SOUTH HAVEN, MI, 49090","Match","Exact","76327 HAVEN DR, SOUTH HAVEN, MI, 49090",637127973,"R"
853423,"7633 BOBCAT CIRCLE","LINCOLN","NE",68523,40.735281215,-96.756061519,423,"7633 BOBCAT CIRCLE, LINCOLN, NE, 68523","Match","Exact","7633 BOBCAT CIR, LINCOLN, NE, 68523",28274438,"R"
853424,"7633 CAMBRIDGE ST","HOUSTON","TX",77054,29.693736444,-95.392147048,424,"7633 CAMBRIDGE ST, HOUSTON, TX, 77054","Match","Exact","7633 CAMBRIDGE ST, HOUSTON, TX, 77054",624592559,"R"
853425,"7633 COUNTY ROAD 100","HESPERUS","CO",81326,37.1119856440001,-108.17874663,425,"7633 COUNTY ROAD 100, HESPERUS, CO, 81326","Match","Exact","7633 CO RD 100, HESPERUS, CO, 81326",91729269,"L"
853426,"7633 EAST 63RD PLACE STE 300","TULSA","OK",74133,36.0718116130001,-95.89222819,426,"7633 EAST 63RD PLACE STE 300, TULSA, OK, 74133","Match","Exact","7633 E 63RD PL, TULSA, OK, 74133",166454705,"L"
853427,"7633 FLEETA ST","SAINT LOUIS","MO",63123,38.5705125580001,-90.308452901,427,"7633 FLEETA ST, SAINT LOUIS, MO, 63123","Match","Non_Exact","7633 FLETA ST, SAINT LOUIS, MO, 63123",100186473,"R"
853428,"7633 GILCHRIST DR","ORLANDO","FL",32822,28.5343279150001,-81.283599738,428,"7633 GILCHRIST DR, ORLANDO, FL, 32822","Match","Exact","7633 GILCHRIST DR, ORLANDO, FL, 32822",94331604,"L"
853429,"7633 HORNBEAM DR","NINEVEH","IN",46164,39.305235984,-86.1108818179999,429,"7633 HORNBEAM DR, NINEVEH, IN, 46164","Match","Exact","7633 HORNBEAM DR, NINEVEH, IN, 46164",43524438,"R"
853430,"7633 HULL ST RD ROAD 203","CHESTERFIELD","VA",23235,NA,NA,430,"7633 HULL ST RD ROAD 203, CHESTERFIELD, VA, 23235","No_Match",NA,NA,NA,NA
853431,"7633 JAMACHA RD","SAN DIEGO","CA",92114,32.713094196,-117.036094528,431,"7633 JAMACHA RD, SAN DIEGO, CA, 92114","Match","Exact","7633 JAMACHA RD, SAN DIEGO, CA, 92114",195360935,"R"
853432,"7633 MAYO BLVD","NEW ORLEANS","LA",70126,30.035315935,-90.005921281,432,"7633 MAYO BLVD, NEW ORLEANS, LA, 70126","Match","Exact","7633 MAYO BLVD, NEW ORLEANS, LA, 70126",191749715,"L"
853433,"7633 MENDOTA PL","SPRINGFIELD","VA",22150,38.78106733,-77.20618257,433,"7633 MENDOTA PL, SPRINGFIELD, VA, 22150","Match","Exact","7633 MENDOTA PL, SPRINGFIELD, VA, 22150",75983465,"R"
853434,"7633 NORTH BROOKLYN","GLADSTONE","MO",64118,39.232253062,-94.5533755069999,434,"7633 NORTH BROOKLYN, GLADSTONE, MO, 64118","Match","Non_Exact","7633 N BROOKLYN AVE, GLADSTONE, MO, 64118",89755165,"R"
853435,"7633 PICKERING AVE","WHITTIER","CA",90602,33.9730113470001,-118.042045641,435,"7633 PICKERING AVE, WHITTIER, CA, 90602","Match","Exact","7633 PICKERING AVE, WHITTIER, CA, 90602",141747856,"R"
853436,"7633 S FRANKLIN WAY","CENTENNIAL","CO",80122,39.579349461,-104.962700615,436,"7633 S FRANKLIN WAY, CENTENNIAL, CO, 80122","Match","Exact","7633 S FRANKLIN WAY, CENTENNIAL, CO, 80122",177337818,"R"
853437,"7633 S KINGSTON AVE 3C","CHICAGO","IL",60649,41.75656673,-87.5626784999999,437,"7633 S KINGSTON AVE 3C, CHICAGO, IL, 60649","Match","Non_Exact","7633 S KINGSTON AVE, CHICAGO, IL, 60649",111775802,"L"
853438,"7633 SW COPLEY RD","POWELL BUTTE","OR",97753,44.2336752050001,-121.007788066,438,"7633 SW COPLEY RD, POWELL BUTTE, OR, 97753","Match","Exact","7633 SW COPLEY RD, POWELL BUTTE, OR, 97753",152395310,"L"
853439,"7633 TORTOLA BAY LN","LAS VEGAS","NV",89128,36.211587416,-115.261866907,439,"7633 TORTOLA BAY LN, LAS VEGAS, NV, 89128","Match","Exact","7633 TORTOLA BAY LN, LAS VEGAS, NV, 89128",201917175,"R"
853440,"7633 VESTAL BLVD APT 22","MAUMELLE","AR",72113,34.825769445,-92.367772501,440,"7633 VESTAL BLVD APT 22, MAUMELLE, AR, 72113","Match","Non_Exact","7633 VESTAL CT, MAUMELLE, AR, 72113",83570780,"L"
853441,"7633 WESTMORELAND AVENUE","PITTSBURGH","PA",15218,40.4222009040001,-79.884048292,441,"7633 WESTMORELAND AVENUE, PITTSBURGH, PA, 15218","Match","Exact","7633 WESTMORELAND AVE, PITTSBURGH, PA, 15218",51654024,"L"
853442,"7634 CAMBRIDGE DR","BOISE","ID",83704,43.6215488870001,-116.277331917,442,"7634 CAMBRIDGE DR, BOISE, ID, 83704","Match","Exact","7634 CAMBRIDGE DR, BOISE, ID, 83704",117857538,"R"
853443,"7634 HEATHERLY DR","SAN DIEGO","CA",92130,32.9656938890001,-117.164363472,443,"7634 HEATHERLY DR, SAN DIEGO, CA, 92130","Match","Non_Exact","7634 HEATHERLY LN, SAN DIEGO, CA, 92130",195756568,"R"
853444,"7634 HILLSIDE ST","OAKLAND","CA",94605,37.7663678770001,-122.171454082,444,"7634 HILLSIDE ST, OAKLAND, CA, 94605","Match","Exact","7634 HILLSIDE ST, OAKLAND, CA, 94605",125008967,"L"
853445,"7634 HOPE DRIVE","FORT WAYNE","IN",46815,41.120093851,-85.044790236,445,"7634 HOPE DRIVE, FORT WAYNE, IN, 46815","Match","Exact","7634 HOPE DR, FORT WAYNE, IN, 46815",624527459,"L"
853446,"7634 LEGACY RD","FLOWERY BRANCH","GA",30542,34.1395240150001,-83.907323355,446,"7634 LEGACY RD, FLOWERY BRANCH, GA, 30542","Match","Exact","7634 LEGACY RD, FLOWERY BR, GA, 30542",618449736,"R"
853447,"7634 N GREENVIEW AVE APT 3S","CHICAGO","IL",60637,NA,NA,447,"7634 N GREENVIEW AVE APT 3S, CHICAGO, IL, 60637","No_Match",NA,NA,NA,NA
853448,"7634 RAMBLE RDG","SAN ANTONIO","TX",78266,29.711916525,-98.337939782,448,"7634 RAMBLE RDG, SAN ANTONIO, TX, 78266","Match","Exact","7634 RAMBLE RIDGE, SAN ANTONIO, TX, 78266",641470070,"R"
853449,"7634 RAWHIDE STREET","SILVER SPRINGS","NV",89429,NA,NA,449,"7634 RAWHIDE STREET, SILVER SPRINGS, NV, 89429","No_Match",NA,NA,NA,NA
853450,"7634 RESEDA BLVD APT 15","RESEDA","CA",91335,34.2090628400001,-118.536051841,450,"7634 RESEDA BLVD APT 15, RESEDA, CA, 91335","Match","Exact","7634 RESEDA BLVD, RESEDA, CA, 91335",141541681,"R"
853451,"7634 S CORNELL AVE APT 1","CHICAGO","IL",60649,41.756274541,-87.5845284819999,451,"7634 S CORNELL AVE APT 1, CHICAGO, IL, 60649","Match","Non_Exact","7634 S CORNELL AVE, CHICAGO, IL, 60649",111774720,"R"
853452,"7634 SE MORRISON ST","PORTLAND","OR",97215,45.516805441,-122.584799078,452,"7634 SE MORRISON ST, PORTLAND, OR, 97215","Match","Exact","7634 SE MORRISON ST, PORTLAND, OR, 97215",157514046,"R"
853453,"7634 TALL PIN OAK DR","ELKRIDGE","MD",21075,39.1816584950001,-76.779070595,453,"7634 TALL PIN OAK DR, ELKRIDGE, MD, 21075","Match","Exact","7634 TALL PIN OAK DR, ELKRIDGE, MD, 21075",618960475,"L"
853454,"7634 TEESDALE DR","HOUSTON","TX",70028,29.845916435,-95.290466784,454,"7634 TEESDALE DR, HOUSTON, TX, 70028","Match","Non_Exact","7634 TEESDALE DR, HOUSTON, TX, 77028",96076902,"R"
853455,"7634 TUCKER HILL RD","HOUGHTON","NY",14744,42.4211480160001,-78.170965183,455,"7634 TUCKER HILL RD, HOUGHTON, NY, 14744","Match","Exact","7634 TUCKER HILL RD, HOUGHTON, NY, 14744",641262771,"R"
853456,"7634 VOLCLAY DRIVE","SAN DIEGO","CA",92119,32.81356321,-117.043733537,456,"7634 VOLCLAY DRIVE, SAN DIEGO, CA, 92119","Match","Exact","7634 VOLCLAY DR, SAN DIEGO, CA, 92119",195323264,"L"
853457,"7634 W KATSILOMETES RD","POCATELLO","NY",83204,NA,NA,457,"7634 W KATSILOMETES RD, POCATELLO, NY, 83204","No_Match",NA,NA,NA,NA
853458,"7634 WEXFORD CLUB DRIVE EAST","JACKSONVILLE","FL",32256,30.239733804,-81.532830878,458,"7634 WEXFORD CLUB DRIVE EAST, JACKSONVILLE, FL, 32256","Match","Exact","7634 WEXFORD CLUB DR E, JACKSONVILLE, FL, 32256",83956168,"R"
853459,"7634 WOODROW WILSON DR","LOS ANGELES","CA",90046,34.1224864700001,-118.362651663,459,"7634 WOODROW WILSON DR, LOS ANGELES, CA, 90046","Match","Exact","7634 WOODROW WILSON DR, LOS ANGELES, CA, 90046",642870013,"L"
853460,"7634 YARMOUTH DRIVE","NORTH CHESTERFIELD","VA",23225,37.5218318350001,-77.53747191,460,"7634 YARMOUTH DRIVE, NORTH CHESTERFIELD, VA, 23225","Match","Exact","7634 YARMOUTH DR, NORTH CHESTERFIELD, VA, 23225",201533210,"R"
853461,"7635 1/2 N GREENVIEW UNITE 15","CHICAGO","IL",60626,42.020127277,-87.668233578,461,"7635 1/2 N GREENVIEW UNITE 15, CHICAGO, IL, 60626","Match","Non_Exact","7635 N GREENVIEW AVE, CHICAGO, IL, 60626",605265046,"R"
853462,"7635 148TH ST W SUITE 262","APPLE VALLEY","MN",55124,44.7337379430001,-93.2209365429999,462,"7635 148TH ST W SUITE 262, APPLE VALLEY, MN, 55124","Match","Exact","7635 148TH ST W, APPLE VALLEY, MN, 55124",642429863,"L"
853463,"7635 148TH ST W","APPLE VALLEY","MN",55124,44.7337379430001,-93.2209365429999,463,"7635 148TH ST W, APPLE VALLEY, MN, 55124","Match","Exact","7635 148TH ST W, APPLE VALLEY, MN, 55124",642429863,"L"
853464,"7635 165TH STREET W","LAKEVILLE","MN",55044,44.709683324,-93.220342779,464,"7635 165TH STREET W, LAKEVILLE, MN, 55044","Match","Exact","7635 165TH ST W, LAKEVILLE, MN, 55044",37928148,"L"
853465,"7635 ALDEN ROAD","LENEXA","KS",66217,38.9894326680001,-94.756905623,465,"7635 ALDEN ROAD, LENEXA, KS, 66217","Match","Non_Exact","7635 ALDEN RD, LENEXA, KS, 66216",91310524,"L"
853466,"7635 ARMSTRONG ROAD","MANSFIELD","OH",44906,NA,NA,466,"7635 ARMSTRONG ROAD, MANSFIELD, OH, 44906","No_Match",NA,NA,NA,NA
853467,"7635 CHELWYNE AVENUE","PHILADELPHIA","PA",19153,NA,NA,467,"7635 CHELWYNE AVENUE, PHILADELPHIA, PA, 19153","No_Match",NA,NA,NA,NA
853468,"7635 CREEKWOOD ESTATES","ONTARIO","NY",14519,43.273953911,-77.2723769099999,468,"7635 CREEKWOOD ESTATES, ONTARIO, NY, 14519","Match","Non_Exact","7635 CREEKWOOD EST, ONTARIO, NY, 14519",607794476,"L"
853469,"7635 DAVELIN STREET","BATON ROUGE","LA",70812,30.499325577,-91.111765093,469,"7635 DAVELIN STREET, BATON ROUGE, LA, 70812","Match","Non_Exact","7635 DAVLIN AVE, BATON ROUGE, LA, 70812",92188535,"L"
853470,"7635 FAYETTE STREET","PHILADELPHIA","PA",19150,40.0700809470001,-75.1609992099999,470,"7635 FAYETTE STREET, PHILADELPHIA, PA, 19150","Match","Exact","7635 FAYETTE ST, PHILADELPHIA, PA, 19150",131395133,"R"
853471,"7635 FOREST AVE","PHILADELPHIA","PA",19150,40.0687662720001,-75.162418245,471,"7635 FOREST AVE, PHILADELPHIA, PA, 19150","Match","Non_Exact","7635 FORREST AVE, PHILADELPHIA, PA, 19150",131395127,"R"
853472,"7635 FOUNTAIN MESA RD","FOUNTAIN","CO",80817,38.7216323430001,-104.700090774,472,"7635 FOUNTAIN MESA RD, FOUNTAIN, CO, 80817","Match","Non_Exact","7635 FOUNTAIN MESSA RD, FOUNTAIN, CO, 80817",610761520,"R"
853473,"7635 HILLARD DR","DALLAS","TX",75217,32.738298978,-96.691066269,473,"7635 HILLARD DR, DALLAS, TX, 75217","Match","Exact","7635 HILLARD DR, DALLAS, TX, 75217",102958295,"L"
853474,"7635 HILLWAY AVE NW","NORTH CANTON","OH",44720,40.8913018480001,-81.4713663329999,474,"7635 HILLWAY AVE NW, NORTH CANTON, OH, 44720","Match","Exact","7635 HILLWAY AVE NW, NORTH CANTON, OH, 44720",64692437,"L"
853475,"7635 LAKE GANDY CIRCLE","LOCKHART","FL",32810,28.6260692110001,-81.428450979,475,"7635 LAKE GANDY CIRCLE, LOCKHART, FL, 32810","Match","Exact","7635 LAKE GANDY CIR, LOCKHART, FL, 32810",94333020,"L"
853476,"7635 LAKEMOOR DR","RIVERDALE","GA",30296,33.546921239,-84.425059416,476,"7635 LAKEMOOR DR, RIVERDALE, GA, 30296","Match","Exact","7635 LAKEMOOR DR, RIVERDALE, GA, 30296",646183370,"L"
853477,"7635 LAS PALMAS WAY","JACKSONVILLE","FL",32256,30.2313538000001,-81.56262679,477,"7635 LAS PALMAS WAY, JACKSONVILLE, FL, 32256","Match","Exact","7635 LAS PALMAS WAY, JACKSONVILLE, FL, 32256",83967082,"R"
853478,"7635 MUIRFIELD CT","INDIANAPOLIS","IN",46237,39.6570321130001,-86.052676354,478,"7635 MUIRFIELD CT, INDIANAPOLIS, IN, 46237","Match","Exact","7635 MUIRFIELD CT, INDIANAPOLIS, IN, 46237",108010787,"R"
853479,"7635 OAK GARDEN TRAIL","DALLAS","TX",75232,32.656049776,-96.8497040829999,479,"7635 OAK GARDEN TRAIL, DALLAS, TX, 75232","Match","Exact","7635 OAK GARDEN TRL, DALLAS, TX, 75232",102952739,"R"
853480,"7635 OWEN STREET","TUJUNGA","CA",91042,NA,NA,480,"7635 OWEN STREET, TUJUNGA, CA, 91042","No_Match",NA,NA,NA,NA
853481,"7635 SANTA MONICA DRIVE APT A","INDIANAPOLIS","IN",46268,39.891926541,-86.240119985,481,"7635 SANTA MONICA DRIVE APT A, INDIANAPOLIS, IN, 46268","Match","Non_Exact","7635 SANTA MONICA, INDIANAPOLIS, IN, 46268",108045990,"R"
853482,"7635 SOUTH ROCHELLE CIRCLE","WEST VALLEY CITY","UT",84128,NA,NA,482,"7635 SOUTH ROCHELLE CIRCLE, WEST VALLEY CITY, UT, 84128","No_Match",NA,NA,NA,NA
853483,"7635 SOUTH STATE ROAD 327","HUDSON","IN",46747,41.5317216350001,-85.170647201,483,"7635 SOUTH STATE ROAD 327, HUDSON, IN, 46747","Match","Exact","7635 S STATE RD 327, HUDSON, IN, 46747",7713650,"L"
853484,"7635 SR 327","HUDSON","IN",46747,41.5317216350001,-85.170647201,484,"7635 SR 327, HUDSON, IN, 46747","Match","Non_Exact","7635 S STATE RD 327, HUDSON, IN, 46747",7713650,"L"
853485,"7635 STATE HWY 154","SESSER","IL",62884,NA,NA,485,"7635 STATE HWY 154, SESSER, IL, 62884","No_Match",NA,NA,NA,NA
853486,"7635 SW 79TH ST","OCALA","FL",34476,29.1080219850001,-82.2459206779999,486,"7635 SW 79TH ST, OCALA, FL, 34476","Match","Exact","7635 SW 79TH ST, OCALA, FL, 34476",116833662,"R"
853487,"7635 TANGLECREST DR","DALLAS","TX",75254,32.946957481,-96.775086664,487,"7635 TANGLECREST DR, DALLAS, TX, 75254","Match","Exact","7635 TANGLECREST DR, DALLAS, TX, 75254",634282481,"L"
853488,"7635 TIMBERLIN PARK BLVD APT 1117","JACKSONVILLE","FL",32256,30.197267395,-81.547662249,488,"7635 TIMBERLIN PARK BLVD APT 1117, JACKSONVILLE, FL, 32256","Match","Exact","7635 TIMBERLIN PARK BLVD, JACKSONVILLE, FL, 32256",647403553,"R"
853489,"7635 TOWNSHIP HIGHWAY 104","UPPER SANDUSKY","OH",43351,40.881135799,-83.3426338629999,489,"7635 TOWNSHIP HIGHWAY 104, UPPER SANDUSKY, OH, 43351","Match","Exact","7635 TWP HWY 104, UPPER SANDUSKY, OH, 43351",13044116,"R"
853490,"7635 W 114TH TERRACE","OVERLAND PARK","KS",66210,38.9202145190001,-94.673881256,490,"7635 W 114TH TERRACE, OVERLAND PARK, KS, 66210","Match","Exact","7635 W 114TH TER, OVERLAND PARK, KS, 66210",91277763,"R"
853491,"7635 W BLUEMOUND ROAD","MILWAUKEE","WI",53213,43.035164487,-88.007801354,491,"7635 W BLUEMOUND ROAD, MILWAUKEE, WI, 53213","Match","Exact","7635 W BLUEMOUND RD, MILWAUKEE, WI, 53213",639918375,"L"
853492,"7635 W FARRAGUT AVE","CHICAGO","IL",60656,41.9751589300001,-87.81817265,492,"7635 W FARRAGUT AVE, CHICAGO, IL, 60656","Match","Exact","7635 W FARRAGUT AVE, CHICAGO, IL, 60656",605264271,"L"
853493,"7635 WARSAW ROAD 101","NORTH CHARLESTON","SC",29418,32.9043980270001,-80.080925637,493,"7635 WARSAW ROAD 101, NORTH CHARLESTON, SC, 29418","Match","Exact","7635 WARSAW RD, N CHARLESTON, SC, 29418",605890897,"R"
853494,"7635 WOODCREST DRIVE","STANLEY","NC",28164,35.430102,-80.982562549,494,"7635 WOODCREST DRIVE, STANLEY, NC, 28164","Match","Exact","7635 WOODCREST DR, STANLEY, NC, 28164",625180085,"L"
853495,"7636 ANGELINE DR","NEW HOPE","MN",55428,45.048181594,-93.3775159149999,495,"7636 ANGELINE DR, NEW HOPE, MN, 55428","Match","Exact","7636 ANGELINE DR, NEW HOPE, MN, 55428",43830549,"R"
853496,"7636 APPLE HILL CT SE","ADA","MI",49301,42.9003064290001,-85.4784850789999,496,"7636 APPLE HILL CT SE, ADA, MI, 49301","Match","Exact","7636 APPLE HILL CT SE, ADA, MI, 49301",12441420,"L"
853497,"7636 ARC","ANCHORAGE","AK",99518,NA,NA,497,"7636 ARC, ANCHORAGE, AK, 99518","No_Match",NA,NA,NA,NA
853498,"7636 COUNTY ROAD 308","GRANDVIEW","TX",76050,32.3206512940001,-97.252092461,498,"7636 COUNTY ROAD 308, GRANDVIEW, TX, 76050","Match","Exact","7636 CO RD 308, GRANDVIEW, TX, 76050",103552840,"R"
853499,"7636 CRAIG DRIVE","FT. BENNING","GA",31905,NA,NA,499,"7636 CRAIG DRIVE, FT. BENNING, GA, 31905","No_Match",NA,NA,NA,NA
853500,"7636 FRANKFORT ST","NAVARRE","FL",32566,30.413158546,-86.904067359,500,"7636 FRANKFORT ST, NAVARRE, FL, 32566","Match","Exact","7636 FRANKFORT ST, NAVARRE, FL, 32566",74573533,"L"
