"ID","Address","City","State","Zip","lat","long","id","input_address","match_indicator","match_type","matched_address","tiger_line_id","tiger_side"
26501,"1029 N HARLEM AVE","OAK PARK","IL",60302,41.898485856,-87.80538998,1,"1029 N HARLEM AVE, OAK PARK, IL, 60302","Match","Exact","1029 N HARLEM AVE, OAK PARK, IL, 60302",111752594,"R"
26502,"1029 N JASMINE AVE","ONTARIO","CA",91762,34.076313799,-117.679844517,2,"1029 N JASMINE AVE, ONTARIO, CA, 91762","Match","Exact","1029 N JASMINE AVE, ONTARIO, CA, 91762",144671924,"L"
26503,"1029 N PEACHTREE PARKWAY","PEACHTREE","GA",30269,33.440999436,-84.587877523,3,"1029 N PEACHTREE PARKWAY, PEACHTREE, GA, 30269","Match","Non_Exact","1029 N PEACHTREE PKWY, PEACHTREE CITY, GA, 30269",75941451,"R"
26504,"1029 N SAGINAW BLVD STE F-10 260","SAGINAW","TX",76179,32.8754215870001,-97.376983932,4,"1029 N SAGINAW BLVD STE F-10 260, SAGINAW, TX, 76179","Match","Exact","1029 SAGINAW BLVD, SAGINAW, TX, 76179",101853846,"L"
26505,"1029 N STUART NO 214","ARLINGTON","VA",22201,NA,NA,5,"1029 N STUART NO 214, ARLINGTON, VA, 22201","No_Match",NA,NA,NA,NA
26506,"1029 N VINCENT ST","WICHITA","KS",67206,37.703583682,-97.2578044049999,6,"1029 N VINCENT ST, WICHITA, KS, 67206","Match","Exact","1029 VINCENT ST, WICHITA, KS, 67206",115639840,"L"
26507,"1029 NE 8TH AVENUE","GAINESVILLE","FL",32601,29.6593295220001,-82.3122425289999,7,"1029 NE 8TH AVENUE, GAINESVILLE, FL, 32601","Match","Exact","1029 NE 8TH AVE, GAINESVILLE, FL, 32601",6809092,"R"
26508,"1029 NEW MACNEIL","LAWRENCE","NY",11559,40.6062821150001,-73.7415430729999,8,"1029 NEW MACNEIL, LAWRENCE, NY, 11559","Match","Non_Exact","1029 NEW MCNEIL AVE, LAWRENCE, NY, 11559",147657251,"L"
26509,"1029 NORTH ALEMEDA BLVD","LAS CRUCES","NM",88004,NA,NA,9,"1029 NORTH ALEMEDA BLVD, LAS CRUCES, NM, 88004","No_Match",NA,NA,NA,NA
26510,"1029 NORTH DORGENOIS ST","NEW ORLEANS","LA",70119,29.9723713330001,-90.079210652,10,"1029 NORTH DORGENOIS ST, NEW ORLEANS, LA, 70119","Match","Exact","1029 N DORGENOIS ST, NEW ORLEANS, LA, 70119",191737550,"L"
26511,"1029 NORTH ROAD PMB 171","WESTFIELD","MA",1085,NA,NA,11,"1029 NORTH ROAD PMB 171, WESTFIELD, MA, 1085","No_Match",NA,NA,NA,NA
26512,"1029 NORTH SAGINAW BLVD F10615","FORT WORTH","TX",76179,32.8753945880001,-97.3769600099999,12,"1029 NORTH SAGINAW BLVD F10615, FORT WORTH, TX, 76179","Match","Non_Exact","1029 SAGINAW BLVD, FORT WORTH, TX, 76179",101853846,"L"
26513,"1029 OAK FOREST DR","ONALASKA","WI",54650,43.8709826190001,-91.2209712759999,13,"1029 OAK FOREST DR, ONALASKA, WI, 54650","Match","Exact","1029 OAK FOREST DR, ONALASKA, WI, 54650",51020451,"R"
26514,"1029 OAKTON STREET","EVANSTON","IL",60202,42.026728894,-87.686599561,14,"1029 OAKTON STREET, EVANSTON, IL, 60202","Match","Exact","1029 OAKTON ST, EVANSTON, IL, 60202",605251794,"R"
26515,"1029 PARK AVENUE","RIPLEY","OH",45167,38.728293212,-83.841015038,15,"1029 PARK AVENUE, RIPLEY, OH, 45167","Match","Exact","1029 PARK AVE, RIPLEY, OH, 45167",634395474,"L"
26516,"1029 PARKVIEW DRIVE","FORT COLLINS","CO",80525,40.5441121760001,-105.059528172,16,"1029 PARKVIEW DRIVE, FORT COLLINS, CO, 80525","Match","Exact","1029 PARKVIEW DR, FORT COLLINS, CO, 80525",188620189,"R"
26517,"1029 PATIENCE DRIVE","FLORISSANT","MO",63034,38.8361107750001,-90.311773957,17,"1029 PATIENCE DRIVE, FLORISSANT, MO, 63034","Match","Exact","1029 PATIENCE DR, FLORISSANT, MO, 63034",100180261,"R"
26518,"1029 PAWNEE TRAIL","MADISON","TN",37115,36.2451093870001,-86.6648301989999,18,"1029 PAWNEE TRAIL, MADISON, TN, 37115","Match","Exact","1029 PAWNEE TRL, MADISON, TN, 37115",625851091,"R"
26519,"1029 PEACHTREE PKWY 261","PEACHTREE","GA",30269,33.440998941,-84.587871279,19,"1029 PEACHTREE PKWY 261, PEACHTREE, GA, 30269","Match","Non_Exact","1029 N PEACHTREE PKWY, PEACHTREE CITY, GA, 30269",75941451,"R"
26520,"1029 PEACHTREE PKWY N STE 106","PEACHTREE CITY","GA",30269,NA,NA,20,"1029 PEACHTREE PKWY N STE 106, PEACHTREE CITY, GA, 30269","No_Match",NA,NA,NA,NA
26521,"1029 PEACHTREE PKWY STE 338","PEACHTREE CITY","GA",30269,33.440998941,-84.587871279,21,"1029 PEACHTREE PKWY STE 338, PEACHTREE CITY, GA, 30269","Match","Non_Exact","1029 N PEACHTREE PKWY, PEACHTREE CITY, GA, 30269",75941451,"R"
26522,"1029 PENNSYLVANIA AVE","SUFFOLK","VA",23434,36.726071727,-76.601187135,22,"1029 PENNSYLVANIA AVE, SUFFOLK, VA, 23434","Match","Exact","1029 PENNSYLVANIA AVE, SUFFOLK, VA, 23434",122238178,"L"
26523,"1029 PERRY ST NE APT 205","WASHINGTON","DC",20017,38.9361734710001,-76.9921131839999,23,"1029 PERRY ST NE APT 205, WASHINGTON, DC, 20017","Match","Exact","1029 PERRY ST NE, WASHINGTON, DC, 20017",76228479,"R"
26524,"1029 PERRY STREET NE APT 205","WASHINGTON","DC",20017,38.9361734710001,-76.9921131839999,24,"1029 PERRY STREET NE APT 205, WASHINGTON, DC, 20017","Match","Exact","1029 PERRY ST NE, WASHINGTON, DC, 20017",76228479,"R"
26525,"1029 POTTAWATOMIE","LEAVENWORTH","KS",66048,39.321356505,-94.929141257,25,"1029 POTTAWATOMIE, LEAVENWORTH, KS, 66048","Match","Non_Exact","1029 POTTAWATOMIE ST, LEAVENWORTH, KS, 66048",619291692,"L"
26526,"1029 POTTAWATOMIE","WILSON","KS",66048,NA,NA,26,"1029 POTTAWATOMIE, WILSON, KS, 66048","No_Match",NA,NA,NA,NA
26527,"1029 QUEENS PLACE","SPRING HILL","TN",37174,35.737202079,-86.897456134,27,"1029 QUEENS PLACE, SPRING HILL, TN, 37174","Match","Non_Exact","1029 QUEEN'S PL, SPRING HILL, TN, 37174",627340206,"L"
26528,"1029 REGAL MANOR LANE","FORT MILL","SC",29715,35.0537165540001,-80.916518647,28,"1029 REGAL MANOR LANE, FORT MILL, SC, 29715","Match","Exact","1029 REGAL MANOR LN, FORT MILL, SC, 29715",646615888,"L"
26529,"1029 REGINA AVE","CINCINNATI","OH",45205,39.110525943,-84.579850941,29,"1029 REGINA AVE, CINCINNATI, OH, 45205","Match","Exact","1029 REGINA AVE, CINCINNATI, OH, 45205",103934270,"L"
26530,"1029 REVERE AVE","THROGGS NECK","NY",10465,40.8311859300001,-73.827891541,30,"1029 REVERE AVE, THROGGS NECK, NY, 10465","Match","Non_Exact","1029 REVERE AVE, BRONX, NY, 10465",80306893,"L"
26531,"1029 RIDDLEWOOD LANE","HIGHLANDS RANCH","CO",80129,39.537328798,-105.00063034,31,"1029 RIDDLEWOOD LANE, HIGHLANDS RANCH, CO, 80129","Match","Exact","1029 RIDDLEWOOD LN, HIGHLANDS RANCH, CO, 80129",130816627,"L"
26532,"1029 RIVERPOINTE DR","EAST BEND","NC",27018,36.1355256480001,-80.4500207899999,32,"1029 RIVERPOINTE DR, EAST BEND, NC, 27018","Match","Exact","1029 RIVERPOINTE DR, EAST BEND, NC, 27018",84770593,"L"
26533,"1029 ROCK SPRINGS DRIVE","BURLESON","TX",76028,32.5465727770001,-97.354244783,33,"1029 ROCK SPRINGS DRIVE, BURLESON, TX, 76028","Match","Exact","1029 ROCK SPRINGS DR, BURLESON, TX, 76028",103545433,"R"
26534,"1029 ROLLING FARM DR","RALEIGH","NC",27603,35.6495520330001,-78.6691991609999,34,"1029 ROLLING FARM DR, RALEIGH, NC, 27603","Match","Exact","1029 ROLLING FARM DR, RALEIGH, NC, 27603",72646472,"L"
26535,"1029 ROSARY TREE CT","FLORISSANT","MO",63031,38.799422527,-90.366078046,35,"1029 ROSARY TREE CT, FLORISSANT, MO, 63031","Match","Exact","1029 ROSARY TREE CT, FLORISSANT, MO, 63031",100172953,"L"
26536,"1029 S 7TH STREET NO 1","PHILADELPHIA","PA",19147,NA,NA,36,"1029 S 7TH STREET NO 1, PHILADELPHIA, PA, 19147","No_Match",NA,NA,NA,NA
26537,"1029 S BREVARD AVE","COCOA BEACH","FL",32931,28.2999779420001,-80.6105807819999,37,"1029 S BREVARD AVE, COCOA BEACH, FL, 32931","Match","Exact","1029 S BREVARD AVE, COCOA BEACH, FL, 32931",93899641,"L"
26538,"1029 S JACKSON STREET APT 721","SEATTLE","WA",98104,47.5991762310001,-122.319156058,38,"1029 S JACKSON STREET APT 721, SEATTLE, WA, 98104","Match","Non_Exact","1029 S JACKSON ST, SEATTLE, WA, 98104",186592765,"R"
26539,"1029 S MAIN ST","ROCKFORD","IL",61101,42.2627259280001,-89.100255503,39,"1029 S MAIN ST, ROCKFORD, IL, 61101","Match","Exact","1029 S MAIN ST, ROCKFORD, IL, 61101",49253574,"R"
26540,"1029 S PEARSON ST","GREENSBORO","NC",24706,NA,NA,40,"1029 S PEARSON ST, GREENSBORO, NC, 24706","No_Match",NA,NA,NA,NA
26541,"1029 S SHORE DR","WASHINGTON ISLAND","WI",54246,45.3364787960001,-86.886217797,41,"1029 S SHORE DR, WASHINGTON ISLAND, WI, 54246","Match","Exact","1029 S SHORE DR, WASHINGTON ISLAND, WI, 54246",167252704,"R"
26542,"1029 SAGINAW BLVD F10615","FORT WORTH","TX",76179,32.8753945880001,-97.3769600099999,42,"1029 SAGINAW BLVD F10615, FORT WORTH, TX, 76179","Match","Exact","1029 SAGINAW BLVD, FORT WORTH, TX, 76179",101853846,"L"
26543,"1029 SE ROUNDELAY ST","HILLSBORO","OR",97123,45.507450068,-122.974765595,43,"1029 SE ROUNDELAY ST, HILLSBORO, OR, 97123","Match","Exact","1029 SE ROUNDELAY ST, HILLSBORO, OR, 97123",627419705,"L"
26544,"1029 SHANESVILLE ROAD","SUGARCREEK","OH",44681,40.469415262,-81.638609355,44,"1029 SHANESVILLE ROAD, SUGARCREEK, OH, 44681","Match","Non_Exact","1029 SHANESVILLE RD SW, SUGARCREEK, OH, 44681",612288150,"R"
26545,"1029 SONOMA AVENUE","MODESTO","CA",95355,37.656720577,-120.948337518,45,"1029 SONOMA AVENUE, MODESTO, CA, 95355","Match","Exact","1029 SONOMA AVE, MODESTO, CA, 95355",102606693,"L"
26546,"1029 SOQUE RIDGE","DEMOREST","GA",30535,34.590530104,-83.5786994489999,46,"1029 SOQUE RIDGE, DEMOREST, GA, 30535","Match","Non_Exact","1029 SOQUE RIDGE CIR, DEMOREST, GA, 30535",632543593,"R"
26547,"1029 SOUTH 10TH STREET","LEBANON","OR",97355,44.535304771,-122.920906228,47,"1029 SOUTH 10TH STREET, LEBANON, OR, 97355","Match","Exact","1029 S 10TH ST, LEBANON, OR, 97355",606053181,"L"
26548,"1029 SOUTH LOMBARD AVE","OAK PARK","IL",60304,41.870226594,-87.779216494,48,"1029 SOUTH LOMBARD AVE, OAK PARK, IL, 60304","Match","Exact","1029 S LOMBARD AVE, OAK PARK, IL, 60304",111794882,"R"
26549,"1029 SOUTH PUEBLO STREET","SALT LAKE CITY","UT",84104,40.747425831,-111.932176699,49,"1029 SOUTH PUEBLO STREET, SALT LAKE CITY, UT, 84104","Match","Non_Exact","1029 PUEBLO ST, SALT LAKE CITY, UT, 84104",176071429,"L"
26550,"1029 SPIVEY AVE","MYRTLE BEACH","SC",29295,33.701092509,-78.884282212,50,"1029 SPIVEY AVE, MYRTLE BEACH, SC, 29295","Match","Non_Exact","1029 SPIVEY AVE, MYRTLE BEACH, SC, 29577",635644657,"R"
26551,"1029 SPRUCE STREET","BRENTWOOD","CA",94513,37.938215272,-121.686177658,51,"1029 SPRUCE STREET, BRENTWOOD, CA, 94513","Match","Exact","1029 SPRUCE ST, BRENTWOOD, CA, 94513",627229088,"R"
26552,"1029 ST PAUL ST","DENVER","CO",80206,39.732579382,-104.950587093,52,"1029 ST PAUL ST, DENVER, CO, 80206","Match","Exact","1029 SAINT PAUL ST, DENVER, CO, 80206",177311095,"L"
26553,"1029 SUMMIT FALLS","LEES SUMMIT","MO",64082,NA,NA,53,"1029 SUMMIT FALLS, LEES SUMMIT, MO, 64082","No_Match",NA,NA,NA,NA
26554,"1029 SUNDANCE DRIVE","GASTONIA","NC",28054,35.2806810450001,-81.1695839929999,54,"1029 SUNDANCE DRIVE, GASTONIA, NC, 28054","Match","Exact","1029 SUNDANCE DR, GASTONIA, NC, 28054",650903317,"L"
26555,"1029 SUNDERLAND LANE FORT WORTH","FORT WORTH","TX",76134,32.64609153,-97.333643813,55,"1029 SUNDERLAND LANE FORT WORTH, FORT WORTH, TX, 76134","Match","Exact","1029 SUNDERLAND LN, FORT WORTH, TX, 76134",619868987,"L"
26556,"1029 SUNDERLAND LANE","FORT WORTH","TX",76134,32.64609153,-97.333643813,56,"1029 SUNDERLAND LANE, FORT WORTH, TX, 76134","Match","Exact","1029 SUNDERLAND LN, FORT WORTH, TX, 76134",619868987,"L"
26557,"1029 SUPERBA AVENUE","VENICE","CA",90291,33.9970639650001,-118.457001781,57,"1029 SUPERBA AVENUE, VENICE, CA, 90291","Match","Exact","1029 SUPERBA AVE, VENICE, CA, 90291",141569408,"L"
26558,"1029 SW 132ND ST","BURIEN","WA",98146,47.4848017670001,-122.348177064,58,"1029 SW 132ND ST, BURIEN, WA, 98146","Match","Exact","1029 SW 132ND ST, BURIEN, WA, 98146",186682685,"L"
26559,"1029 SW 4TH AVE","HOMESTEAD","FL",33030,NA,NA,59,"1029 SW 4TH AVE, HOMESTEAD, FL, 33030","Tie",NA,NA,NA,NA
26560,"1029 SWEET BRIAR PL","WELLINGTON","FL",33414,26.665813767,-80.2517329039999,60,"1029 SWEET BRIAR PL, WELLINGTON, FL, 33414","Match","Exact","1029 SWEET BRIAR PL, WELLINGTON, FL, 33414",115579117,"L"
26561,"1029 SWINFORD STREET","SHELBYVILLE","IN",46176,39.502940444,-85.79174932,61,"1029 SWINFORD STREET, SHELBYVILLE, IN, 46176","Match","Exact","1029 SWINFORD ST, SHELBYVILLE, IN, 46176",33217827,"R"
26562,"1029 TALL OAK DR","VA BCH","VA",23462,36.806598874,-76.121772985,62,"1029 TALL OAK DR, VA BCH, VA, 23462","Match","Exact","1029 TALL OAK DR, VA BCH, VA, 23462",122267599,"R"
26563,"1029 TAYLOR ST","MOBERLY","MO",65270,39.4224529260001,-92.4215591829999,63,"1029 TAYLOR ST, MOBERLY, MO, 65270","Match","Exact","1029 TAYLOR ST, MOBERLY, MO, 65270",23801855,"R"
26564,"1029 TIMBER WOOD CT","MATTHEWS","NC",28105,35.133564472,-80.694560498,64,"1029 TIMBER WOOD CT, MATTHEWS, NC, 28105","Match","Exact","1029 TIMBER WOOD CT, MATTHEWS, NC, 28105",70495030,"R"
26565,"1029 TOPAZ ST","SUPERIOR","CO",80027,39.9282765090001,-105.155173547,65,"1029 TOPAZ ST, SUPERIOR, CO, 80027","Match","Exact","1029 TOPAZ ST, SUPERIOR, CO, 80027",644212697,"L"
26566,"1029 TRACI DRIVE","ELIZABETH CITY","NC",27909,36.363215063,-76.281101281,66,"1029 TRACI DRIVE, ELIZABETH CITY, NC, 27909","Match","Exact","1029 TRACI DR, ELIZABETH CITY, NC, 27909",18596146,"L"
26567,"1029 TWIN BERRY CT","HENDERSON","NV",89002,35.9958958660001,-114.979854329,67,"1029 TWIN BERRY CT, HENDERSON, NV, 89002","Match","Exact","1029 TWIN BERRY CT, HENDERSON, NV, 89002",201927916,"R"
26568,"1029 ULU KANU STREET","WAILUKU","HI",96793,20.859945898,-156.501446248,68,"1029 ULU KANU STREET, WAILUKU, HI, 96793","Match","Exact","1029 ULU KANU ST, WAILUKU, HI, 96793",618694619,"L"
26569,"1029 UNIVERSITY AVENUE SUITE 101","MORGANTOWN","WV",26505,39.6288149100001,-79.959211486,69,"1029 UNIVERSITY AVENUE SUITE 101, MORGANTOWN, WV, 26505","Match","Exact","1029 UNIVERSITY AVE, MORGANTOWN, WV, 26505",50744848,"L"
26570,"1029 UTULEI ROAD","PAGO PAGO","AS",96799,NA,NA,70,"1029 UTULEI ROAD, PAGO PAGO, AS, 96799","No_Match",NA,NA,NA,NA
26571,"1029 V STREET","SACRAMENTO","CA",95818,38.5670010650001,-121.498753497,71,"1029 V STREET, SACRAMENTO, CA, 95818","Match","Exact","1029 V ST, SACRAMENTO, CA, 95818",133321928,"L"
26572,"1029 VALDES AVENUE","AKRON","OH",44320,41.0813308250001,-81.5739419889999,72,"1029 VALDES AVENUE, AKRON, OH, 44320","Match","Exact","1029 VALDES AVE, AKRON, OH, 44320",61338504,"L"
26573,"1029 VALLEY FORGE ROAD","TUSCALOOSA","AL",35406,33.2431929090001,-87.522732009,73,"1029 VALLEY FORGE ROAD, TUSCALOOSA, AL, 35406","Match","Exact","1029 VALLEY FORGE RD, TUSCALOOSA, AL, 35406",82195143,"R"
26574,"1029 VERMONT AVE NW","WASHINGTON","DC",20005,38.902923038,-77.0335319389999,74,"1029 VERMONT AVE NW, WASHINGTON, DC, 20005","Match","Exact","1029 VERMONT AVE NW, WASHINGTON, DC, 20005",76225764,"R"
26575,"1029 VERMONT AVENUE NW SUITE 800","WASHINGTON","DC",20005,38.902923038,-77.0335319389999,75,"1029 VERMONT AVENUE NW SUITE 800, WASHINGTON, DC, 20005","Match","Exact","1029 VERMONT AVE NW, WASHINGTON, DC, 20005",76225764,"R"
26576,"1029 VIA DE LA PAZ UNIT 323","PACIFIC PALISADES","CA",90272,34.0482755460001,-118.526828488,76,"1029 VIA DE LA PAZ UNIT 323, PACIFIC PALISADES, CA, 90272","Match","Exact","1029 VIA DE LA PAZ, PACIFIC PALISADES, CA, 90272",141557837,"L"
26577,"1029 VIA GANDALFI","HENDERSON","NV",89011,36.079896461,-114.959244368,77,"1029 VIA GANDALFI, HENDERSON, NV, 89011","Match","Exact","1029 VIA GANDALFI, HENDERSON, NV, 89011",641508702,"L"
26578,"1029 VIA LOS PADRES","SANTA BARBARA","CA",93111,34.4573740480001,-119.791310693,78,"1029 VIA LOS PADRES, SANTA BARBARA, CA, 93111","Match","Exact","1029 VIA LOS PADRES, SANTA BARBARA, CA, 93111",108694144,"L"
26579,"1029 VICTORIA APT 2","NORTH CHICAGO","IL",60064,42.3407263620001,-87.843530121,79,"1029 VICTORIA APT 2, NORTH CHICAGO, IL, 60064","Match","Non_Exact","1029 VICTORIA AVE, NORTH CHICAGO, IL, 60064",119645901,"L"
26580,"1029 W 2ND ST APT 1","WILMINGTON","DE",19805,39.742953067,-75.562660891,80,"1029 W 2ND ST APT 1, WILMINGTON, DE, 19805","Match","Non_Exact","1029 W 2ND ST, WILMINGTON, DE, 19805",187257399,"R"
26581,"1029 W 35TH STREET SUITE 200","CHICAGO","IL",60609,41.830666627,-87.65216373,81,"1029 W 35TH STREET SUITE 200, CHICAGO, IL, 60609","Match","Non_Exact","1029 W 35TH ST, CHICAGO, IL, 60609",111846415,"L"
26582,"1029 W 6TH ST","MESA","AZ",85201,33.4258263790001,-111.853358107,82,"1029 W 6TH ST, MESA, AZ, 85201","Match","Exact","1029 W 6TH ST, MESA, AZ, 85201",128234248,"L"
26583,"1029 W GOLD ST","BUTTE","MT",59701,46.0077330890001,-112.551274719,83,"1029 W GOLD ST, BUTTE, MT, 59701","Match","Exact","1029 W GOLD ST, BUTTE, MT, 59701",153586698,"R"
26584,"1029 W MANZANITA ST","APACHE JUNCTION","AZ",85120,33.426851787,-111.557115015,84,"1029 W MANZANITA ST, APACHE JUNCTION, AZ, 85120","Match","Exact","1029 W MANZANITA ST, APACHE JUNCTION, AZ, 85120",647405134,"R"
26585,"1029 WASHINGTON AVE APT 701","ST LOUIS","MO",63103,38.6312398800001,-90.194113634,85,"1029 WASHINGTON AVE APT 701, ST LOUIS, MO, 63103","Match","Non_Exact","1029 WASHINGTON AVE, SAINT LOUIS, MO, 63101",107605089,"R"
26586,"1029 WEST 35TH STREET","CHICAGO","IL",60609,41.830666734,-87.6521568219999,86,"1029 WEST 35TH STREET, CHICAGO, IL, 60609","Match","Exact","1029 W 35TH ST, CHICAGO, IL, 60609",111846415,"L"
26587,"1029 WEST 5TH STREET UNIT 105","TEMPE","AZ",85281,33.4254988380001,-111.953089465,87,"1029 WEST 5TH STREET UNIT 105, TEMPE, AZ, 85281","Match","Exact","1029 W 5TH ST, TEMPE, AZ, 85281",128349348,"L"
26588,"1029 WEST GRANT DRIVE","DES PLAINES","IL",60016,42.0338375160001,-87.9065442259999,88,"1029 WEST GRANT DRIVE, DES PLAINES, IL, 60016","Match","Exact","1029 W GRANT DR, DES PLAINES, IL, 60016",111723269,"L"
26589,"1029 WEST ROUNDBUNCH RD","BRIDGE CITY","TX",77611,30.0351142700001,-93.8527538549999,89,"1029 WEST ROUNDBUNCH RD, BRIDGE CITY, TX, 77611","Match","Non_Exact","1029 W ROUND BUNCH RD, BRIDGE CITY, TX, 77611",642978445,"R"
26590,"1029 WILKISON CAMPHOR ROAD","PORT GIBSON","MS",39150,NA,NA,90,"1029 WILKISON CAMPHOR ROAD, PORT GIBSON, MS, 39150","No_Match",NA,NA,NA,NA
26591,"1029 WILLIAM CAMPHOR RD","PORT GIBSON","MS",39150,31.965630817,-90.9701510259999,91,"1029 WILLIAM CAMPHOR RD, PORT GIBSON, MS, 39150","Match","Non_Exact","1029 WILLIAM CAMPHOR AVE, PORT GIBSON, MS, 39150",65139964,"L"
26592,"1029 WINDSOR DRIVE","WAUKESHA","WI",53186,42.9984391620001,-88.215524737,92,"1029 WINDSOR DRIVE, WAUKESHA, WI, 53186","Match","Exact","1029 WINDSOR DR, WAUKESHA, WI, 53186",53821209,"R"
26593,"1029 WOODLAWN STREET","SCRANTON","PA",18509,41.43380188,-75.6404319819999,93,"1029 WOODLAWN STREET, SCRANTON, PA, 18509","Match","Exact","1029 WOODLAWN ST, SCRANTON, PA, 18509",618242812,"L"
26594,"1029 WOODSIDE DRIVE","NAPA","CA",94558,38.3276130530001,-122.270536927,94,"1029 WOODSIDE DRIVE, NAPA, CA, 94558","Match","Exact","1029 WOODSIDE DR, NAPA, CA, 94558",67415727,"R"
26595,"10290 240TH STREET","SPIRIT LAKE","IA",51360,NA,NA,95,"10290 240TH STREET, SPIRIT LAKE, IA, 51360","No_Match",NA,NA,NA,NA
26596,"10290 CENTRAL AVENUE STE 127","MONTCLAIR","CA",91763,34.06718471,-117.689558363,96,"10290 CENTRAL AVENUE STE 127, MONTCLAIR, CA, 91763","Match","Exact","10290 CENTRAL AVE, MONTCLAIR, CA, 91763",144671613,"R"
26597,"10290 DAVISON RD STE 13","DAVISON","MI",48423,43.034975925,-83.505525141,97,"10290 DAVISON RD STE 13, DAVISON, MI, 48423","Match","Exact","10290 DAVISON RD, DAVISON, MI, 48423",644931292,"R"
26598,"10290 GREATWOOD PT","HIGHLANDS RANCH","CO",80126,39.5256328290001,-104.957820558,98,"10290 GREATWOOD PT, HIGHLANDS RANCH, CO, 80126","Match","Exact","10290 GREATWOOD PT, HIGHLANDS RANCH, CO, 80126",130832622,"L"
26599,"10290 MEADOW POINT DR","JACKSONVILLE","FL",32221,NA,NA,99,"10290 MEADOW POINT DR, JACKSONVILLE, FL, 32221","No_Match",NA,NA,NA,NA
26600,"10290 PINTO RIVER CT","FOUNTAIN VALLEY","CA",92708,33.7006282030001,-117.949079972,100,"10290 PINTO RIVER CT, FOUNTAIN VALLEY, CA, 92708","Match","Exact","10290 PINTO RIVER CT, FOUNTAIN VALLEY, CA, 92708",144038446,"R"
26601,"10290 WUNDERLICH DRIVE","CUPERTINO","CA",95014,37.3178633860001,-122.000674701,101,"10290 WUNDERLICH DRIVE, CUPERTINO, CA, 95014","Match","Exact","10290 WUNDERLICH DR, CUPERTINO, CA, 95014",122899671,"L"
26602,"10291 BLACK GUM LANE","OCEAN SPRINGS","MS",39565,NA,NA,102,"10291 BLACK GUM LANE, OCEAN SPRINGS, MS, 39565","No_Match",NA,NA,NA,NA
26603,"10291 HART BRANCH CIRCLE","ORLANDO","FL",32832,28.3945443160001,-81.2182061889999,103,"10291 HART BRANCH CIRCLE, ORLANDO, FL, 32832","Match","Exact","10291 HART BRANCH CIR, ORLANDO, FL, 32832",94418675,"L"
26604,"10291 LARIAT DRIVE","SANTEE","CA",92071,32.8644814560001,-116.983232033,104,"10291 LARIAT DRIVE, SANTEE, CA, 92071","Match","Exact","10291 LARIAT DR, SANTEE, CA, 92071",195672386,"R"
26605,"10291 MIDLAND TRAIL W","CRAWLEY","WV",24931,37.953333232,-80.674448344,105,"10291 MIDLAND TRAIL W, CRAWLEY, WV, 24931","Match","Exact","10291 MIDLAND TRL W, CRAWLEY, WV, 24931",646969122,"R"
26606,"10291 NOTTINGHAM DRIVE","WESTMINSTER","CA",92683,33.7385490460001,-117.949490642,106,"10291 NOTTINGHAM DRIVE, WESTMINSTER, CA, 92683","Match","Non_Exact","10291 NOTTINGHAM AVE, WESTMINSTER, CA, 92683",144037698,"L"
26607,"10291 PRICILLA ST","DOWNEY","CA",90242,NA,NA,107,"10291 PRICILLA ST, DOWNEY, CA, 90242","No_Match",NA,NA,NA,NA
26608,"10291 SUNSET STRIP","SUNRISE","FL",33322,26.1528662850001,-80.28682085,108,"10291 SUNSET STRIP, SUNRISE, FL, 33322","Match","Exact","10291 SUNSET STRIP, SUNRISE, FL, 33322",114698202,"R"
26609,"10292 CENTRAL APT 103","MONTCLAIR","CA",91763,34.06715374,-117.689558465,109,"10292 CENTRAL APT 103, MONTCLAIR, CA, 91763","Match","Non_Exact","10292 CENTRAL AVE, MONTCLAIR, CA, 91763",144671613,"R"
26610,"10292 CENTRAL AVE  APT 330","MONTCLAIR","CA",91763,34.06715374,-117.689558465,110,"10292 CENTRAL AVE  APT 330, MONTCLAIR, CA, 91763","Match","Exact","10292 CENTRAL AVE, MONTCLAIR, CA, 91763",144671613,"R"
26611,"10292 CENTRAL AVENUE STE 127","MONTCLAIR","CA",91763,34.06715374,-117.689558465,111,"10292 CENTRAL AVENUE STE 127, MONTCLAIR, CA, 91763","Match","Exact","10292 CENTRAL AVE, MONTCLAIR, CA, 91763",144671613,"R"
26612,"10292 MEAD HALL COURT","MECHANICSVILLE","VA",23116,37.6872710430001,-77.4094967199999,112,"10292 MEAD HALL COURT, MECHANICSVILLE, VA, 23116","Match","Exact","10292 MEAD HALL CT, MECHANICSVILLE, VA, 23116",84970387,"R"
26613,"10292 NW 9TH ST CIR APT 203","MIAMI","FL",33172,NA,NA,113,"10292 NW 9TH ST CIR APT 203, MIAMI, FL, 33172","No_Match",NA,NA,NA,NA
26614,"10292 PAVNES CREEK DR","JACKSONVILLE","FL",32222,30.2216065580001,-81.830905581,114,"10292 PAVNES CREEK DR, JACKSONVILLE, FL, 32222","Match","Exact","10292 PAVNES CREEK DR, JACKSONVILLE, FL, 32222",650583222,"L"
26615,"10292 TERRY WAY APT 1","CUPERTINO","CA",95014,37.3184049450001,-122.033857929,115,"10292 TERRY WAY APT 1, CUPERTINO, CA, 95014","Match","Exact","10292 TERRY WAY, CUPERTINO, CA, 95014",122940268,"L"
26616,"10293 BOSLOE DRIVE","CARMEL","IN",46032,39.932307087,-86.225645303,116,"10293 BOSLOE DRIVE, CARMEL, IN, 46032","Match","Exact","10293 BOSLOE DR, CARMEL, IN, 46032",29311576,"L"
26617,"10293 HWY 129","ELDRIDGE","AK",35554,NA,NA,117,"10293 HWY 129, ELDRIDGE, AK, 35554","No_Match",NA,NA,NA,NA
26618,"10293 HWY 129","ELDRIDGE","AL",35554,33.8673279860001,-87.7417411169999,118,"10293 HWY 129, ELDRIDGE, AL, 35554","Match","Non_Exact","10293 STATE RTE 129, ELDRIDGE, AL, 35554",120515618,"L"
26619,"10293 NORTH MERIDIAN STREET STE 300","INDIANAPOLIS","IN",46290,NA,NA,119,"10293 NORTH MERIDIAN STREET STE 300, INDIANAPOLIS, IN, 46290","No_Match",NA,NA,NA,NA
26620,"10293 PARKWAY DRIVE","FISHERS","IN",46037,39.9370637660001,-85.9896147809999,120,"10293 PARKWAY DRIVE, FISHERS, IN, 46037","Match","Exact","10293 PARKWAY DR, FISHERS, IN, 46037",29306761,"R"
26621,"10293 S JORDAN CREEK DRIVE","SOUTH JORDAN","UT",84095,40.561646636,-111.915013311,121,"10293 S JORDAN CREEK DRIVE, SOUTH JORDAN, UT, 84095","Match","Exact","10293 JORDAN CREEK DR, SOUTH JORDAN, UT, 84095",618147361,"R"
26622,"10293 S MICHIGAN AVE","HAYWARD","WI",54843,46.0052832280001,-91.480642271,122,"10293 S MICHIGAN AVE, HAYWARD, WI, 54843","Match","Exact","10293 S MICHIGAN AVE, HAYWARD, WI, 54843",194430072,"R"
26623,"10293 WINDOW ROCK TRAIL","RENO","NV",89511,39.4058592910001,-119.809536778,123,"10293 WINDOW ROCK TRAIL, RENO, NV, 89511","Match","Exact","10293 WINDOW ROCK TRL, RENO, NV, 89511",632650262,"R"
26624,"10294 LITTLE RICHMOND ROAD","BROOKVILLE","OH",45309,39.7746346010001,-84.372208449,124,"10294 LITTLE RICHMOND ROAD, BROOKVILLE, OH, 45309","Match","Exact","10294 LITTLE RICHMOND RD, BROOKVILLE, OH, 45309",143562078,"L"
26625,"10294 PIPPIN RD","CINCINNATI","OH",45231,39.2606579550001,-84.573443335,125,"10294 PIPPIN RD, CINCINNATI, OH, 45231","Match","Exact","10294 PIPPIN RD, CINCINNATI, OH, 45231",103948223,"R"
26626,"10295 BEACHCOMBER STREET","MORENO VALLEY","CA",92557,33.9714698810001,-117.253693082,126,"10295 BEACHCOMBER STREET, MORENO VALLEY, CA, 92557","Match","Exact","10295 BEACHCOMBER ST, MORENO VALLEY, CA, 92557",618340239,"R"
26627,"10295 CENTER ROAD","TRAVERSE CITY","MI",49686,44.8376606100001,-85.536543805,127,"10295 CENTER ROAD, TRAVERSE CITY, MI, 49686","Match","Exact","10295 CENTER RD, TRAVERSE CITY, MI, 49686",145515455,"L"
26628,"10295 CRESCENT RIDGE DRIVE","ROSWELL","GA",30318,34.0318294140001,-84.282822642,128,"10295 CRESCENT RIDGE DRIVE, ROSWELL, GA, 30318","Match","Non_Exact","10295 CRESCENT RIDGE DR, ROSWELL, GA, 30076",640546473,"R"
26629,"10295 CROOP RD","CLARENCE CENTER","NY",14032,43.0281167840001,-78.603630783,129,"10295 CROOP RD, CLARENCE CENTER, NY, 14032","Match","Exact","10295 CROOP RD, CLARENCE CENTER, NY, 14032",48349090,"R"
26630,"10295 MOTT DRIVE","RENO","NV",89521,39.429695468,-119.733257925,130,"10295 MOTT DRIVE, RENO, NV, 89521","Match","Exact","10295 MOTT DR, RENO, NV, 89521",649127607,"R"
26631,"10295 PROSPECTOR LANE","MORENO VALLEY","CA",92557,33.971621794,-117.22790848,131,"10295 PROSPECTOR LANE, MORENO VALLEY, CA, 92557","Match","Exact","10295 PROSPECTOR LN, MORENO VALLEY, CA, 92557",650896627,"R"
26632,"10295 SHADY RIDGE LANE","PINCKNEY","MI",48169,42.4502111640001,-83.867703145,132,"10295 SHADY RIDGE LANE, PINCKNEY, MI, 48169","Match","Non_Exact","10295 SHADYRIDGE LN, PINCKNEY, MI, 48169",23570448,"L"
26633,"10295 SMOKETOWN ROAD","NEWARK","OH",43055,40.203074277,-82.50018274,133,"10295 SMOKETOWN ROAD, NEWARK, OH, 43055","Match","Exact","10295 SMOKETOWN RD, NEWARK, OH, 43055",61541809,"L"
26634,"10295 STEWARDS CHANCE LANE","WHITE PLAINS","MD",20695,38.6111969290001,-76.953293349,134,"10295 STEWARDS CHANCE LANE, WHITE PLAINS, MD, 20695","Match","Exact","10295 STEWARDS CHANCE LN, WHITE PLAINS, MD, 20695",636750869,"R"
26635,"10295 US 52","BROOKVILLE","IN",47012,39.40060879,-85.00229296,135,"10295 US 52, BROOKVILLE, IN, 47012","Match","Non_Exact","10295 US HWY 52, BROOKVILLE, IN, 47012",33182128,"R"
26636,"10295 US HIGHWAY 52","BROOKVILLE","IN",47012,39.40060879,-85.00229296,136,"10295 US HIGHWAY 52, BROOKVILLE, IN, 47012","Match","Exact","10295 US HWY 52, BROOKVILLE, IN, 47012",33182128,"R"
26637,"10296 CO RD 637","DEXTER","MO",63841,36.7654162440001,-90.003349554,137,"10296 CO RD 637, DEXTER, MO, 63841","Match","Exact","10296 CO RD 637, DEXTER, MO, 63841",35398832,"R"
26638,"10296 DOWLING CT","HIGHLANDS RANCH","CO",80126,NA,NA,138,"10296 DOWLING CT, HIGHLANDS RANCH, CO, 80126","Tie",NA,NA,NA,NA
26639,"10296 JENNY LYNN WAY","ELK GROVE","CA",95757,38.3838618340001,-121.42987763,139,"10296 JENNY LYNN WAY, ELK GROVE, CA, 95757","Match","Exact","10296 JENNY LYNN WAY, ELK GROVE, CA, 95757",133435879,"R"
26640,"10296 KESTREL DR","ASHLAND","VA",23005,NA,NA,140,"10296 KESTREL DR, ASHLAND, VA, 23005","No_Match",NA,NA,NA,NA
26641,"10296 ST RT 46","NORTH BLOOMFIELD","OH",44450,41.4973358990001,-80.7489719879999,141,"10296 ST RT 46, NORTH BLOOMFIELD, OH, 44450","Match","Non_Exact","10296 STATE RTE 46, N BLOOMFIELD, OH, 44450",117424331,"R"
26642,"10296 TRAILWAY ROAD","POTOSI","MO",63664,37.876120959,-90.7310316049999,142,"10296 TRAILWAY ROAD, POTOSI, MO, 63664","Match","Exact","10296 TRAILWAY RD, POTOSI, MO, 63664",605453948,"R"
26643,"10296 VINTAGE DRIVE","PENSACOLA","FL",32514,30.5459934090001,-87.245704401,143,"10296 VINTAGE DRIVE, PENSACOLA, FL, 32514","Match","Exact","10296 VINTAGE DR, PENSACOLA, FL, 32514",93283227,"R"
26644,"10297 DESCHUTES RD","PALO CEDRO","CA",96073,40.5874615870001,-122.239013209,144,"10297 DESCHUTES RD, PALO CEDRO, CA, 96073","Match","Exact","10297 DESCHUTES RD, PALO CEDRO, CA, 96073",126638829,"R"
26645,"10297 SONG SPARROW LANE","HIGHLANDS RANCH","CO",80129,39.5293617830001,-105.003594335,145,"10297 SONG SPARROW LANE, HIGHLANDS RANCH, CO, 80129","Match","Non_Exact","10297 S SONG SPARROW LN, HIGHLANDS RANCH, CO, 80129",130816718,"R"
26646,"10297 SOUTHWEST PKWY 205","PORT LUCIE","FL",34987,NA,NA,146,"10297 SOUTHWEST PKWY 205, PORT LUCIE, FL, 34987","No_Match",NA,NA,NA,NA
26647,"10298 BLACKBERRY LANE","GRAVETTE","AR",72736,36.3723025560001,-94.3977590599999,147,"10298 BLACKBERRY LANE, GRAVETTE, AR, 72736","Match","Exact","10298 BLACKBERRY LN, GRAVETTE, AR, 72736",47826905,"R"
26648,"10298 HYALITE CANYON ROAD","BOZEMAN","MT",59718,45.5730005780001,-111.073281518,148,"10298 HYALITE CANYON ROAD, BOZEMAN, MT, 59718","Match","Exact","10298 HYALITE CANYON RD, BOZEMAN, MT, 59718",646456511,"R"
26649,"10298 LEMMON AVE NW","CONCORD","NC",28027,35.405253273,-80.747927765,149,"10298 LEMMON AVE NW, CONCORD, NC, 28027","Match","Exact","10298 LEMMON AVE NW, CONCORD, NC, 28027",619081257,"R"
26650,"10298 OAK CREEK LANE","HIGHLAND","UT",84003,40.42006459,-111.780162141,150,"10298 OAK CREEK LANE, HIGHLAND, UT, 84003","Match","Exact","10298 OAK CREEK LN, HIGHLAND, UT, 84003",134263982,"L"
26651,"10298 S TURKEY CREEK RD","MORRISON","CO",80465,39.542670824,-105.255890999,151,"10298 S TURKEY CREEK RD, MORRISON, CO, 80465","Match","Exact","10298 S TURKEY CREEK RD, MORRISON, CO, 80465",650050901,"L"
26652,"10298 TRAILWOOD CIRCLE","JUPITER","FL",33478,26.9360829670001,-80.202607996,152,"10298 TRAILWOOD CIRCLE, JUPITER, FL, 33478","Match","Exact","10298 TRAILWOOD CIR, JUPITER, FL, 33478",115566026,"L"
26653,"10298 WESTERN OAKS ROAD","FORT WORTH","TX",76108,32.7953892560001,-97.5015639169999,153,"10298 WESTERN OAKS ROAD, FORT WORTH, TX, 76108","Match","Non_Exact","10298 WESTERN OAKS RD, FT WORTH, TX, 76135",647888455,"R"
26654,"10299 BENNETT LAKE RD","FENTON","MI",48430,42.778514353,-83.76075481,154,"10299 BENNETT LAKE RD, FENTON, MI, 48430","Match","Exact","10299 BENNETT LAKE RD, FENTON, MI, 48430",23556921,"L"
26655,"10299 BUCKS WAY","EDEN PRAIRIE","MN",55347,44.8176140100001,-93.413050329,155,"10299 BUCKS WAY, EDEN PRAIRIE, MN, 55347","Match","Exact","10299 BUCKS WAY, EDEN PRAIRIE, MN, 55347",43845776,"L"
26656,"10299 CR 309","NAVASOTA","TX",77868,30.354056529,-95.913948477,156,"10299 CR 309, NAVASOTA, TX, 77868","Match","Exact","10299 CO RD 309, NAVASOTA, TX, 77868",21892145,"R"
26657,"10299 N US HWY 59","NACOGDOCHES","TX",75965,31.694091482,-94.651112229,157,"10299 N US HWY 59, NACOGDOCHES, TX, 75965","Match","Exact","10299 US HWY 59, NACOGDOCHES, TX, 75965",637618459,"R"
26658,"10299 VETERANS MEM HYW","VILLE PLATTE","LA",70586,30.772985718,-92.4268064,158,"10299 VETERANS MEM HYW, VILLE PLATTE, LA, 70586","Match","Non_Exact","10299 VETERANS MEMORIAL HWY, VILLE PLATTE, LA, 70586",13188358,"R"
26659,"10299 WOODMAN RD","HENRICO","VA",23228,NA,NA,159,"10299 WOODMAN RD, HENRICO, VA, 23228","No_Match",NA,NA,NA,NA
26660,"1029A 2ND AVENUE","JASPER","IN",47546,38.3874953700001,-86.914185859,160,"1029A 2ND AVENUE, JASPER, IN, 47546","Match","Exact","1029 2ND AVE, JASPER, IN, 47546",7871288,"L"
26661,"1029N SUGARTREE LANE","GALLATIN","TN",37066,36.37937714,-86.5335467369999,161,"1029N SUGARTREE LANE, GALLATIN, TN, 37066","Match","Non_Exact","1029 N SUGARTREE LN, GALLATIN, TN, 37066",29797745,"R"
26662,"102A FLINT STREET","ASHEVILLE","NC",28801,NA,NA,162,"102A FLINT STREET, ASHEVILLE, NC, 28801","Tie",NA,NA,NA,NA
26663,"102A MARYBETH PL","GOLDSBORO","NC",27534,NA,NA,163,"102A MARYBETH PL, GOLDSBORO, NC, 27534","No_Match",NA,NA,NA,NA
26664,"102B PINELAND CIRCLE","RALEIGH","NC",27606,35.787027562,-78.709220853,164,"102B PINELAND CIRCLE, RALEIGH, NC, 27606","Match","Exact","102 PINELAND CIR, RALEIGH, NC, 27606",648796097,"L"
26665,"102K DEF BUILDING COLLEGE PLACE","DUBOIS","PA",15801,NA,NA,165,"102K DEF BUILDING COLLEGE PLACE, DUBOIS, PA, 15801","No_Match",NA,NA,NA,NA
26666,"102O N BLACKSTONE ST","JACKSON","MI",49202,42.2475476280001,-84.4117994329999,166,"102O N BLACKSTONE ST, JACKSON, MI, 49202","Match","Non_Exact","102 N BLACKSTONE ST, JACKSON, MI, 49201",17616827,"L"
26667,"102P EASTGATE DRIVE","CARLISLE","PA",17015,40.175869118,-77.210116258,167,"102P EASTGATE DRIVE, CARLISLE, PA, 17015","Match","Exact","102 EASTGATE DR, CARLISLE, PA, 17015",221283307,"R"
26668,"103  43RD STREET","COPIAGUE","NY",11726,40.6990483530001,-73.404599581,168,"103  43RD STREET, COPIAGUE, NY, 11726","Match","Exact","103 43RD ST, COPIAGUE, NY, 11726",113972489,"L"
26669,"103 - 12TH AVENUE - APT 311","SEATTLE","WA",98122,NA,NA,169,"103 - 12TH AVENUE - APT 311, SEATTLE, WA, 98122","No_Match",NA,NA,NA,NA
26670,"103 1/2 BELLE ISLES PLACE","BOONVILLE","NY",13309,43.4880733250001,-75.3336398289999,170,"103 1/2 BELLE ISLES PLACE, BOONVILLE, NY, 13309","Match","Exact","103 BELLE ISLES PL, BOONVILLE, NY, 13309",171534316,"L"
26671,"103 1/2 MAIN STREET","GAYLORD","MI",49735,NA,NA,171,"103 1/2 MAIN STREET, GAYLORD, MI, 49735","Tie",NA,NA,NA,NA
26672,"103 102ND AVE SE","BELLEVUE","WA",98004,47.6093600930001,-122.204154533,172,"103 102ND AVE SE, BELLEVUE, WA, 98004","Match","Exact","103 102ND AVE SE, BELLEVUE, WA, 98004",239764140,"R"
26673,"103 10TH AVE SE","GRAVETTE","AR",72736,36.4231916480001,-94.442664164,173,"103 10TH AVE SE, GRAVETTE, AR, 72736","Match","Exact","103 10TH AVE SE, GRAVETTE, AR, 72736",47841925,"L"
26674,"103 12TH AVE APT 213","SEATTLE","WA",98122,47.601803503,-122.316789259,174,"103 12TH AVE APT 213, SEATTLE, WA, 98122","Match","Exact","103 12TH AVE, SEATTLE, WA, 98122",186592748,"L"
26675,"103 16TH ST APT 4","BROOKLYN","NY",11215,40.6665013080001,-73.9929793809999,175,"103 16TH ST APT 4, BROOKLYN, NY, 11215","Match","Exact","103 16TH ST, BROOKLYN, NY, 11215",59075622,"L"
26676,"103 19TH STREET","SPIRIT LAKE","IA",51360,43.421704473,-95.090614411,176,"103 19TH STREET, SPIRIT LAKE, IA, 51360","Match","Exact","103 19TH ST, SPIRIT LAKE, IA, 51360",9805235,"L"
26677,"103 1ST AVE SE","GRAND RAPIDS","MN",55744,NA,NA,177,"103 1ST AVE SE, GRAND RAPIDS, MN, 55744","No_Match",NA,NA,NA,NA
26678,"103 1ST ST","MILLTOWN","NJ",8850,40.446095584,-74.436159988,178,"103 1ST ST, MILLTOWN, NJ, 8850","Match","Exact","103 1ST ST, MILLTOWN, NJ, 08850",60361179,"L"
26679,"103 1ST STREET","COLCHESTER","VT",5466,NA,NA,179,"103 1ST STREET, COLCHESTER, VT, 5466","No_Match",NA,NA,NA,NA
26680,"103 1ST STREET","NEWPORT","VT",5855,NA,NA,180,"103 1ST STREET, NEWPORT, VT, 5855","No_Match",NA,NA,NA,NA
26681,"103 24 ROOSEVELT AVE SUITE 203","QUEENS","NY",11368,NA,NA,181,"103 24 ROOSEVELT AVE SUITE 203, QUEENS, NY, 11368","No_Match",NA,NA,NA,NA
26682,"103 24TH AVENUE SOUTH","NASHVILLE","TN",37212,36.1467484510001,-86.8056502649999,182,"103 24TH AVENUE SOUTH, NASHVILLE, TN, 37212","Match","Exact","103 24TH AVE S, NASHVILLE, TN, 37212",97190339,"R"
26683,"103 2ND AVE","FREDERIKA","IA",50631,42.8837607130001,-92.306651704,183,"103 2ND AVE, FREDERIKA, IA, 50631","Match","Exact","103 2ND AVE, FREDERIKA, IA, 50631",77342158,"R"
26684,"103 2ND STREET","BOERNE","TX",78006,29.783389034,-98.7238290069999,184,"103 2ND STREET, BOERNE, TX, 78006","Match","Exact","103 2ND ST, BOERNE, TX, 78006",102757542,"R"
26685,"103 30TH STREET","BELLE CHASSE","LA",70037,29.8415706710001,-89.997552377,185,"103 30TH STREET, BELLE CHASSE, LA, 70037","Match","Exact","103 30TH ST, BELLE CHASSE, LA, 70037",639606349,"R"
26686,"103 330TH AVE","CHARLOTTE","IA",52731,41.9595071750001,-90.4609268469999,186,"103 330TH AVE, CHARLOTTE, IA, 52731","Match","Exact","103 330TH AVE, CHARLOTTE, IA, 52731",617103965,"L"
26687,"103 3RD ST   APT 3","CLARISSA","MN",56440,NA,NA,187,"103 3RD ST   APT 3, CLARISSA, MN, 56440","Tie",NA,NA,NA,NA
26688,"103 3RD STREET","LAKOTA","IA",50451,43.376348745,-94.09356884,188,"103 3RD STREET, LAKOTA, IA, 50451","Match","Exact","103 3RD ST, LAKOTA, IA, 50451",9834546,"L"
26689,"103 4TH AVE APT 4R","BROOKLYN","NY",11217,40.6811326870001,-73.9805155129999,189,"103 4TH AVE APT 4R, BROOKLYN, NY, 11217","Match","Exact","103 4TH AVE, BROOKLYN, NY, 11217",59077611,"L"
26690,"103 4TH AVENUE","BROOKLYN PARK","MD",21225,39.2302183100001,-76.6148015649999,190,"103 4TH AVENUE, BROOKLYN PARK, MD, 21225","Match","Exact","103 4TH AVE, BROOKLYN PARK, MD, 21225",68154631,"L"
26691,"103 4TH ST NE","GRAND MEADOW","MN",55936,43.7047833670001,-92.566540791,191,"103 4TH ST NE, GRAND MEADOW, MN, 55936","Match","Exact","103 4TH ST NE, GRAND MEADOW, MN, 55936",27635996,"L"
26692,"103 4TH ST NW","NORTON","VA",24273,36.9368620170001,-82.623922626,192,"103 4TH ST NW, NORTON, VA, 24273","Match","Exact","103 4TH ST NW, NORTON, VA, 24273",83442300,"L"
26693,"103 4TH STREET","NICEVILLE","FL",32578,30.5273640450001,-86.479927222,193,"103 4TH STREET, NICEVILLE, FL, 32578","Match","Exact","103 4TH ST, NICEVILLE, FL, 32578",74390013,"L"
26694,"103 5TH AVE SW","BELMOND","IA",50421,42.845764,-93.624735624,194,"103 5TH AVE SW, BELMOND, IA, 50421","Match","Exact","103 5TH AVE SW, BELMOND, IA, 50421",90722643,"L"
26695,"103 5TH JPV STREET","WINTER HAVEN","FL",33880,28.017607609,-81.772380911,195,"103 5TH JPV STREET, WINTER HAVEN, FL, 33880","Match","Exact","103 5TH JPV ST, WINTER HAVEN, FL, 33880",104822333,"L"
26696,"103 5TH STREET","BROOKLAWN","NJ",8030,39.87894363,-75.11681106,196,"103 5TH STREET, BROOKLAWN, NJ, 8030","Match","Exact","103 5TH ST, BROOKLAWN, NJ, 08030",134347486,"L"
26697,"103 8TH ST W","BROOKINGS","SD",57006,44.314331624,-96.803676797,197,"103 8TH ST W, BROOKINGS, SD, 57006","Match","Exact","103 8TH ST W, BROOKINGS, SD, 57006",193622767,"L"
26698,"103 A GULFWINDS","MARATHON","FL",33050,24.729806114,-81.05049001,198,"103 A GULFWINDS, MARATHON, FL, 33050","Match","Non_Exact","103 GULFWINDS LN, MARATHON, FL, 33050",116473366,"L"
26699,"103 ABUNDANCE CT","LAFAYETTE","LA",70506,30.1926203090001,-92.0855021519999,199,"103 ABUNDANCE CT, LAFAYETTE, LA, 70506","Match","Exact","103 ABUNDANCE CT, LAFAYETTE, LA, 70506",85612151,"L"
26700,"103 ACADEMY STREET","MANLIUS","NY",13104,43.0010875200001,-75.9714114879999,200,"103 ACADEMY STREET, MANLIUS, NY, 13104","Match","Exact","103 ACADEMY ST, MANLIUS, NY, 13104",46578959,"L"
26701,"103 ACCOLADE DRIVE","CARY","NC",27513,35.7811671970001,-78.84474691,201,"103 ACCOLADE DRIVE, CARY, NC, 27513","Match","Exact","103 ACCOLADE DR, CARY, NC, 27513",208360018,"L"
26702,"103 ADAM LANE","HOUSTON","TX",77003,29.756734255,-95.3479488,202,"103 ADAM LANE, HOUSTON, TX, 77003","Match","Exact","103 ADAM LN, HOUSTON, TX, 77003",646599566,"R"
26703,"103 ADAMS CT","COLLEYVILLE","TX",76034,32.9160155610001,-97.1658372379999,203,"103 ADAMS CT, COLLEYVILLE, TX, 76034","Match","Exact","103 ADAMS CT, COLLEYVILLE, TX, 76034",101933393,"L"
26704,"103 ADAMS DRIVE","KELSO","WA",98626,46.1848199680001,-122.908073327,204,"103 ADAMS DRIVE, KELSO, WA, 98626","Match","Exact","103 ADAMS DR, KELSO, WA, 98626",184517460,"L"
26705,"103 ADDISON AVE","ROCKAWAY","NJ",7866,40.8985462750001,-74.523409153,205,"103 ADDISON AVE, ROCKAWAY, NJ, 7866","Match","Exact","103 ADDISON AVE, ROCKAWAY, NJ, 07866",60459876,"R"
26706,"103 ADRIANNA CIRCLE","CONWAY","SC",29526,33.923190149,-79.022959494,206,"103 ADRIANNA CIRCLE, CONWAY, SC, 29526","Match","Exact","103 ADRIANNA CIR, CONWAY, SC, 29526",607105697,"R"
26707,"103 AEGEAN WAY","VACAVILLE","CA",95687,38.3545563970001,-121.974793515,207,"103 AEGEAN WAY, VACAVILLE, CA, 95687","Match","Exact","103 AEGEAN WAY, VACAVILLE, CA, 95687",192534736,"L"
26708,"103 ALAMEDA CIRCLE","VICTORIA","TX",77904,28.8533740940001,-97.0001991089999,208,"103 ALAMEDA CIRCLE, VICTORIA, TX, 77904","Match","Exact","103 ALAMEDA CIR, VICTORIA, TX, 77904",44558020,"L"
26709,"103 ALETHA RD","NEEDHAM","MA",2492,42.2828626240001,-71.214356069,209,"103 ALETHA RD, NEEDHAM, MA, 2492","Match","Exact","103 ALETHA RD, NEEDHAM, MA, 02492",87242505,"R"
26710,"103 ALEXANDER WOODS DRIVE","PLANT CITY","FL",33563,27.9921812480001,-82.1245258,210,"103 ALEXANDER WOODS DRIVE, PLANT CITY, FL, 33563","Match","Exact","103 ALEXANDER WOODS DR, PLANT CITY, FL, 33563",631792129,"R"
26711,"103 ALLEGHANY LN","CARLISLE","PA",17013,40.254369996,-77.1971708459999,211,"103 ALLEGHANY LN, CARLISLE, PA, 17013","Match","Non_Exact","103 ALLEGHENY LN, CARLISLE, PA, 17013",640719117,"R"
26712,"103 ALLIS DR","SUFFOLK","VA",23434,NA,NA,212,"103 ALLIS DR, SUFFOLK, VA, 23434","No_Match",NA,NA,NA,NA
26713,"103 ALMATT DRIVE","PHILADELPHIA","PA",19115,40.1067465630001,-75.055734792,213,"103 ALMATT DRIVE, PHILADELPHIA, PA, 19115","Match","Exact","103 ALMATT DR, PHILADELPHIA, PA, 19115",131430196,"L"
26714,"103 ALMERE AVENUE","CHARLOTTESVILLE","VA",22902,38.0246140180001,-78.487320927,214,"103 ALMERE AVENUE, CHARLOTTESVILLE, VA, 22902","Match","Exact","103 ALMERE AVE, CHARLOTTESVILLE, VA, 22902",651941860,"L"
26715,"103 ALPHONSE DR","LAFAYETTE","LA",70506,30.228546318,-92.040593793,215,"103 ALPHONSE DR, LAFAYETTE, LA, 70506","Match","Exact","103 ALPHONSE DR, LAFAYETTE, LA, 70506",85614501,"L"
26716,"103 ALTA WOODS BLVD","JACKSON","MS",39204,NA,NA,216,"103 ALTA WOODS BLVD, JACKSON, MS, 39204","No_Match",NA,NA,NA,NA
26717,"103 ALTA WOODS BOULEVARD","JACKSON","MS",39204,NA,NA,217,"103 ALTA WOODS BOULEVARD, JACKSON, MS, 39204","No_Match",NA,NA,NA,NA
26718,"103 ALTIER AVE","BRICK","NJ",8723,40.0452243080001,-74.111229183,218,"103 ALTIER AVE, BRICK, NJ, 8723","Match","Exact","103 ALTIER AVE, BRICK, NJ, 08723",203844953,"L"
26719,"103 AMBER CT","CARRBORO","NC",27510,35.925039332,-79.077016376,219,"103 AMBER CT, CARRBORO, NC, 27510","Match","Exact","103 AMBER CT, CARRBORO, NC, 27510",72384120,"L"
26720,"103 AMIABLE LOOP","CARY","NC",27519,35.7744882330001,-78.8769464659999,220,"103 AMIABLE LOOP, CARY, NC, 27519","Match","Exact","103 AMIABLE LOOP, CARY, NC, 27519",651058802,"L"
26721,"103 ANDERSON ROAD","LAKE ARIEL","PA",18436,41.4737164580001,-75.4356398099999,221,"103 ANDERSON ROAD, LAKE ARIEL, PA, 18436","Match","Exact","103 ANDERSON RD, LAKE ARIEL, PA, 18436",140161147,"R"
26722,"103 ANDERSON ST","POTTSVILLE","PA",17901,40.6895634750001,-76.1862336419999,222,"103 ANDERSON ST, POTTSVILLE, PA, 17901","Match","Exact","103 ANDERSON ST, POTTSVILLE, PA, 17901",70948279,"L"
26723,"103 ANNE JENNINGS WAY","GEORGETOWN","KY",40324,38.206220785,-84.580642379,223,"103 ANNE JENNINGS WAY, GEORGETOWN, KY, 40324","Match","Exact","103 ANNE JENNINGS WAY, GEORGETOWN, KY, 40324",631710251,"L"
26724,"103 APACHE DR","STARKVILLE","MS",39759,33.47765646,-88.825810119,224,"103 APACHE DR, STARKVILLE, MS, 39759","Match","Exact","103 APACHE DR, STARKVILLE, MS, 39759",802778,"L"
26725,"103 APPLE BLOSSOM DRIVE","RUPERT","ID",83350,42.6343872640001,-113.666556324,225,"103 APPLE BLOSSOM DRIVE, RUPERT, ID, 83350","Match","Exact","103 APPLE BLOSSOM DR, RUPERT, ID, 83350",105194618,"R"
26726,"103 ARANSAS COVE","GEORGETOWN","TX",78633,30.707962783,-97.727802122,226,"103 ARANSAS COVE, GEORGETOWN, TX, 78633","Match","Exact","103 ARANSAS COVE, GEORGETOWN, TX, 78633",126476048,"R"
26727,"103 ARAPAHOE TRAIL","RUIDOSO","NM",88345,33.3268182840001,-105.674901548,227,"103 ARAPAHOE TRAIL, RUIDOSO, NM, 88345","Match","Exact","103 ARAPAHOE TRL, RUIDOSO, NM, 88345",169113907,"R"
26728,"103 ARBOR AVE","WEST CHICAGO","IL",60185,41.885005219,-88.2041644029999,228,"103 ARBOR AVE, WEST CHICAGO, IL, 60185","Match","Exact","103 ARBOR AVE, WEST CHICAGO, IL, 60185",112516198,"R"
26729,"103 ARDEN CIR","LANSDALE","PA",19446,40.2637000120001,-75.227285533,229,"103 ARDEN CIR, LANSDALE, PA, 19446","Match","Exact","103 ARDEN CIR, LANSDALE, PA, 19446",135101145,"L"
26730,"103 ARDEN DR","SYRACUSE","NY",13207,43.021452878,-76.173179327,230,"103 ARDEN DR, SYRACUSE, NY, 13207","Match","Exact","103 ARDEN DR, SYRACUSE, NY, 13207",46570339,"L"
26731,"103 ARLINGTON AVENUE","JERSEY CITY","NJ",7305,40.7056965840001,-74.076210708,231,"103 ARLINGTON AVENUE, JERSEY CITY, NJ, 7305","Match","Exact","103 ARLINGTON AVE, JERSEY CITY, NJ, 07305",59604458,"L"
26732,"103 ARMSTRONG ROAD","PASCO","WA",99301,46.256989811,-118.971559786,232,"103 ARMSTRONG ROAD, PASCO, WA, 99301","Match","Exact","103 ARMSTRONG RD, PASCO, WA, 99301",175240690,"L"
26733,"103 ARNET","YPSILANTI","MI",48198,42.2393131700001,-83.599574032,233,"103 ARNET, YPSILANTI, MI, 48198","Match","Non_Exact","103 ARNET ST, YPSILANTI, MI, 48198",26021841,"L"
26734,"103 ARPIKEA AVE","ST AUGUSTINE","FL",32080,29.894777805,-81.303021482,234,"103 ARPIKEA AVE, ST AUGUSTINE, FL, 32080","Match","Non_Exact","103 ARPIEKA AVE, SAINT AUGUSTINE, FL, 32080",92582103,"R"
26735,"103 ARROYO VERDE DR","FRITCH","TX",79036,35.62977713,-101.564296216,235,"103 ARROYO VERDE DR, FRITCH, TX, 79036","Match","Exact","103 ARROYO VERDE DR, FRITCH, TX, 79036",185354862,"R"
26736,"103 ASHLEY RD","PHOENIXVILLE","PA",19460,40.126546616,-75.549714528,236,"103 ASHLEY RD, PHOENIXVILLE, PA, 19460","Match","Exact","103 ASHLEY RD, PHOENIXVILLE, PA, 19460",179516618,"L"
26737,"103 ASHMONT COURT","TUPELO","MS",38801,34.211021352,-88.822916269,237,"103 ASHMONT COURT, TUPELO, MS, 38801","Match","Exact","103 ASHMONT CT, TUPELO, MS, 38801",90672653,"L"
26738,"103 ASPEN CIRCLE","WOODVILLE","OH",43469,41.4520426030001,-83.377890091,238,"103 ASPEN CIRCLE, WOODVILLE, OH, 43469","Match","Exact","103 ASPEN CIR, WOODVILLE, OH, 43469",38678084,"R"
26739,"103 ATKINS TERRACE","EAST RUTHERFORD","NJ",7073,40.8414351750001,-74.109698263,239,"103 ATKINS TERRACE, EAST RUTHERFORD, NJ, 7073","Match","Exact","103 ATKINS TER, E RUTHERFORD, NJ, 07073",64394797,"R"
26740,"103 AUDUBON STREET","STAUNTON","VA",24401,38.168651901,-79.098297465,240,"103 AUDUBON STREET, STAUNTON, VA, 24401","Match","Exact","103 AUDUBON ST, STAUNTON, VA, 24401",98813411,"R"
26741,"103 AURORA CIRCLE","ROCKWELL","TX",75032,32.879309053,-96.473861748,241,"103 AURORA CIRCLE, ROCKWELL, TX, 75032","Match","Non_Exact","103 AURORA CIR, ROCKWALL, TX, 75032",123779488,"R"
26742,"103 AUSTIN STREET APT D","YOAKUM","TX",77995,29.295134364,-97.14492387,242,"103 AUSTIN STREET APT D, YOAKUM, TX, 77995","Match","Exact","103 AUSTIN ST, YOAKUM, TX, 77995",42261898,"R"
26743,"103 AUTUMN FOREST LN","CONROE","TX",77384,30.239646689,-95.493084042,243,"103 AUTUMN FOREST LN, CONROE, TX, 77384","Match","Exact","103 AUTUMN FOREST LN, CONROE, TX, 77384",638060645,"L"
26744,"103 AUTUMN MIST RD","STATESVILLE","NC",28677,35.7305270090001,-80.918968541,244,"103 AUTUMN MIST RD, STATESVILLE, NC, 28677","Match","Exact","103 AUTUMN MIST RD, STATESVILLE, NC, 28677",635036259,"L"
26745,"103 AUTUMNBROOK DRIVE","BROUSSARD","LA",70518,30.1136156110001,-91.972216406,245,"103 AUTUMNBROOK DRIVE, BROUSSARD, LA, 70518","Match","Exact","103 AUTUMNBROOK DR, BROUSSARD, LA, 70518",642936240,"L"
26746,"103 AVONDALE DRIVE","GAFFNEY","SC",29341,35.081654142,-81.680569932,246,"103 AVONDALE DRIVE, GAFFNEY, SC, 29341","Match","Exact","103 AVONDALE DR, GAFFNEY, SC, 29341",18988211,"R"
26747,"103 AZALEA CT","UPPER MARLBORO","MD",20774,38.889156316,-76.8062366189999,247,"103 AZALEA CT, UPPER MARLBORO, MD, 20774","Match","Exact","103 AZALEA CT, UPPER MARLBORO, MD, 20774",76393478,"L"
26748,"103 B RUTLEDGE LANE","GOLDSBORO","NC",27534,35.4683734000001,-77.8845934249999,248,"103 B RUTLEDGE LANE, GOLDSBORO, NC, 27534","Match","Exact","103 RUTLEDGE LN, GOLDSBORO, NC, 27534",605718972,"L"
26749,"103 BAILEY CIRCLE","THOMASVILLE","GA",31757,30.906950038,-83.832760927,249,"103 BAILEY CIRCLE, THOMASVILLE, GA, 31757","Match","Exact","103 BAILEY CIR, THOMASVILLE, GA, 31757",617526987,"L"
26750,"103 BAJA SOL DR","SCOTTS VALLEY","CA",95066,37.0398848680001,-122.038429475,250,"103 BAJA SOL DR, SCOTTS VALLEY, CA, 95066","Match","Exact","103 BAJA SOL DR, SCOTTS VALLEY, CA, 95066",125527591,"R"
26751,"103 BANK ST","SNOW HILL","MD",21863,38.176737309,-75.3938314,251,"103 BANK ST, SNOW HILL, MD, 21863","Match","Exact","103 BANK ST, SNOW HILL, MD, 21863",114528254,"L"
26752,"103 BANNERMAN LN","CARY","NC",27519,35.8097226680001,-78.848881693,252,"103 BANNERMAN LN, CARY, NC, 27519","Match","Exact","103 BANNERMAN LN, CARY, NC, 27519",72587934,"L"
26753,"103 BARCLADINE CT","CARY","NC",27511,35.751952015,-78.8181031939999,253,"103 BARCLADINE CT, CARY, NC, 27511","Match","Exact","103 BARCLADINE CT, CARY, NC, 27511",208362447,"L"
26754,"103 BARKER ROAD","RED BANK","TN",37415,35.1350191670001,-85.280684697,254,"103 BARKER ROAD, RED BANK, TN, 37415","Match","Non_Exact","103 BARKER LN, RED BANK, TN, 37415",59305062,"L"
26755,"103 BARN RD","POLLOCK","ID",83547,45.288838189,-116.355772575,255,"103 BARN RD, POLLOCK, ID, 83547","Match","Exact","103 BARN RD, POLLOCK, ID, 83547",195933996,"L"
26756,"103 BARNHILL DRIVE","SHIPPENSBURG","PA",17257,40.036037134,-77.4817512449999,256,"103 BARNHILL DRIVE, SHIPPENSBURG, PA, 17257","Match","Exact","103 BARNHILL DR, SHIPPENSBURG, PA, 17257",60992559,"L"
26757,"103 BARNWELL LANE","DOTHAN","AL",36305,31.204893215,-85.452912322,257,"103 BARNWELL LANE, DOTHAN, AL, 36305","Match","Exact","103 BARNWELL LN, DOTHAN, AL, 36305",623846842,"L"
26758,"103 BASHOR LANE","JOHNSON CITY","TN",37601,36.3831469830001,-82.3876901309999,258,"103 BASHOR LANE, JOHNSON CITY, TN, 37601","Match","Exact","103 BASHOR LN, JOHNSON CITY, TN, 37601",127946284,"L"
26759,"103 BASSET HALL DRIVE","DURHAM","NC",27713,35.915135686,-78.913444026,259,"103 BASSET HALL DRIVE, DURHAM, NC, 27713","Match","Exact","103 BASSET HALL DR, DURHAM, NC, 27713",71769353,"L"
26760,"103 BATH STREET","PROVIDENCE","RI",2906,NA,NA,260,"103 BATH STREET, PROVIDENCE, RI, 2906","No_Match",NA,NA,NA,NA
26761,"103 BATSON ST","ASHLAND CITY","TN",37015,36.278449654,-87.0668359479999,261,"103 BATSON ST, ASHLAND CITY, TN, 37015","Match","Exact","103 BATSON ST, ASHLAND CITY, TN, 37015",72874536,"L"
26762,"103 BAY 37TH STREET","BROOKLYN","NY",11214,40.5967019810001,-73.9908321509999,262,"103 BAY 37TH STREET, BROOKLYN, NY, 11214","Match","Exact","103 BAY 37TH ST, BROOKLYN, NY, 11214",59088845,"L"
26763,"103 BAYARD AVE","RICES LANDING","PA",15357,39.946383961,-79.9949605049999,263,"103 BAYARD AVE, RICES LANDING, PA, 15357","Match","Exact","103 BAYARD AVE, RICES LANDING, PA, 15357",51378856,"R"
26764,"103 BEATTIE ST","STARKVILLE","MS",39759,33.464745803,-88.823831835,264,"103 BEATTIE ST, STARKVILLE, MS, 39759","Match","Exact","103 BEATTIE ST, STARKVILLE, MS, 39759",796815,"L"
26765,"103 BEAULEIU BND","SAVANNAH","GA",31419,31.9362947540001,-81.110297266,265,"103 BEAULEIU BND, SAVANNAH, GA, 31419","Match","Non_Exact","103 BEAULIEU BEND, SAVANNAH, GA, 31406",636353554,"L"
26766,"103 BECKER STREET","SYRACUSE","NY",13208,43.071221522,-76.145797167,266,"103 BECKER STREET, SYRACUSE, NY, 13208","Match","Exact","103 BECKER ST, SYRACUSE, NY, 13208",46569289,"L"
26767,"103 BEDROCK DRIVE","WHITE HOUSE","TN",37188,36.4477987430001,-86.658519573,267,"103 BEDROCK DRIVE, WHITE HOUSE, TN, 37188","Match","Exact","103 BEDROCK DR, WHITE HOUSE, TN, 37188",635869967,"L"
26768,"103 BEECH AVENUE","EATONTON","GA",31024,33.318658396,-83.382701415,268,"103 BEECH AVENUE, EATONTON, GA, 31024","Match","Exact","103 BEECH AVE, EATONTON, GA, 31024",16670767,"R"
26769,"103 BEECH DRIVE","RAEFORD","NC",28376,35.0029063970001,-79.1683939169999,269,"103 BEECH DRIVE, RAEFORD, NC, 28376","Match","Exact","103 BEECH DR, RAEFORD, NC, 28376",76191381,"L"
26770,"103 BELFLOWER ROAD","TIFTON","GA",31794,31.483484323,-83.483485859,270,"103 BELFLOWER ROAD, TIFTON, GA, 31794","Match","Exact","103 BELFLOWER RD, TIFTON, GA, 31794",87779982,"L"
26771,"103 BELLAGIO DR","AUSTIN","TX",78734,30.366833123,-97.955412747,271,"103 BELLAGIO DR, AUSTIN, TX, 78734","Match","Exact","103 BELLAGIO DR, AUSTIN, TX, 78734",640987872,"L"
26772,"103 BELLE MEADOW DRIVE","MARIETTA","OH",45750,39.4517772520001,-81.432555126,272,"103 BELLE MEADOW DRIVE, MARIETTA, OH, 45750","Match","Non_Exact","103 BELLE MEADOWS DR, MARIETTA, OH, 45750",45694119,"L"
26773,"103 BELLIN STREET","LODI","WI",53555,43.306768316,-89.5256149799999,273,"103 BELLIN STREET, LODI, WI, 53555","Match","Exact","103 BELLIN ST, LODI, WI, 53555",646414625,"R"
26774,"103 BETTY CIRCLE","REEDSVILLE","PA",17084,40.6809145870001,-77.6034725329999,274,"103 BETTY CIRCLE, REEDSVILLE, PA, 17084","Match","Exact","103 BETTY CIR, REEDSVILLE, PA, 17084",48013442,"R"
26775,"103 BEXLEY COURT","WAXHAW","NC",28173,35.0022715900001,-80.75790792,275,"103 BEXLEY COURT, WAXHAW, NC, 28173","Match","Exact","103 BEXLEY CT, WAXHAW, NC, 28173",14196630,"L"
26776,"103 BIGELOW ST","MARLBOROUGH","MA",1752,42.349064378,-71.582901362,276,"103 BIGELOW ST, MARLBOROUGH, MA, 1752","Match","Exact","103 BIGELOW ST, MARLBOROUGH, MA, 01752",636264998,"L"
26777,"103 BIRCH AVENUE","EGG HARBOR TOWNSHIP","NJ",8234,39.4101219710001,-74.6305015569999,277,"103 BIRCH AVENUE, EGG HARBOR TOWNSHIP, NJ, 8234","Match","Exact","103 BIRCH AVE, EGG HARBOR TOWNSHIP, NJ, 08234",202481393,"R"
26778,"103 BIRCH STREET","CENTERTON","AR",72719,36.3680265630001,-94.285211394,278,"103 BIRCH STREET, CENTERTON, AR, 72719","Match","Exact","103 BIRCH ST, CENTERTON, AR, 72719",47878652,"L"
26779,"103 BIRCH STREET","MOSINEE","WI",54455,44.788584073,-89.722722269,279,"103 BIRCH STREET, MOSINEE, WI, 54455","Match","Exact","103 BIRCH ST, MOSINEE, WI, 54455",117128724,"L"
26780,"103 BIRCH WAY","AMERICUS","GA",31719,32.0661833840001,-84.190160758,280,"103 BIRCH WAY, AMERICUS, GA, 31719","Match","Non_Exact","103 BIRCH WAY, AMERICUS, GA, 31709",30745965,"L"
26781,"103 BIRCHWOOD COURT","FORNEY","TX",75126,32.7328176820001,-96.471639967,281,"103 BIRCHWOOD COURT, FORNEY, TX, 75126","Match","Exact","103 BIRCHWOOD CT, FORNEY, TX, 75126",614184597,"L"
26782,"103 BISHOPS GATE LANE","DOYLESTOWN","PA",18901,40.330860977,-75.140344409,282,"103 BISHOPS GATE LANE, DOYLESTOWN, PA, 18901","Match","Exact","103 BISHOPS GATE LN, DOYLESTOWN, PA, 18901",134733277,"L"
26783,"103 BLAINE ST","PASSAIC","NJ",7055,40.8543737750001,-74.1421933999999,283,"103 BLAINE ST, PASSAIC, NJ, 7055","Match","Exact","103 BLAINE ST, PASSAIC, NJ, 07055",65251692,"L"
26784,"103 BLAKE STREET","BOSTON","MA",2136,42.2681614730001,-71.1055659149999,284,"103 BLAKE STREET, BOSTON, MA, 2136","Match","Exact","103 BLAKE ST, BOSTON, MA, 02136",85705000,"R"
26785,"103 BLANCHARD ST","FUQUAY-VARINA","NC",27526,35.5841462880001,-78.7913454229999,285,"103 BLANCHARD ST, FUQUAY-VARINA, NC, 27526","Match","Non_Exact","103 BLANCHARD, FUQUAY VARINA, NC, 27526",72490865,"R"
26786,"103 BLUE BELL STREET","GREENEVILLE","TN",37743,36.1510343730001,-82.848618968,286,"103 BLUE BELL STREET, GREENEVILLE, TN, 37743","Match","Exact","103 BLUE BELL ST, GREENEVILLE, TN, 37743",127755799,"R"
26787,"103 BLUE BOAR COURT","CARY","NC",27519,35.7701725200001,-78.849119361,287,"103 BLUE BOAR COURT, CARY, NC, 27519","Match","Exact","103 BLUE BOAR CT, CARY, NC, 27519",72650079,"L"
26788,"103 BLUE CHIP FARM RD","LEITCHFIELD","KY",42754,37.4657479140001,-86.325313055,288,"103 BLUE CHIP FARM RD, LEITCHFIELD, KY, 42754","Match","Exact","103 BLUE CHIP FARM RD, LEITCHFIELD, KY, 42754",633700287,"R"
26789,"103 BLUE GRANITE CT","CHAPEL HILL","NC",27514,35.9588529920001,-79.051676141,289,"103 BLUE GRANITE CT, CHAPEL HILL, NC, 27514","Match","Exact","103 BLUE GRANITE CT, CHAPEL HILL, NC, 27514",72416205,"L"
26790,"103 BLUE RIBBON","STEPHENVILLE","TX",76401,32.256858929,-98.220043737,290,"103 BLUE RIBBON, STEPHENVILLE, TX, 76401","Match","Non_Exact","103 BLUE RIBBON LN, STEPHENVILLE, TX, 76401",642820972,"L"
26791,"103 BLUE RIDGE STREET","BLAIRSVILLE","GA",30512,34.8753595950001,-83.960129367,291,"103 BLUE RIDGE STREET, BLAIRSVILLE, GA, 30512","Match","Exact","103 BLUE RIDGE ST, BLAIRSVILLE, GA, 30512",637421805,"R"
26792,"103 BLUERIDGE ROAD","CARRBORO","NC",27510,35.9223230050001,-79.087635037,292,"103 BLUERIDGE ROAD, CARRBORO, NC, 27510","Match","Exact","103 BLUERIDGE RD, CARRBORO, NC, 27510",72378182,"R"
26793,"103 BLUESTONE COURT","CAMDEN","DE",19934,39.104895975,-75.526080674,293,"103 BLUESTONE COURT, CAMDEN, DE, 19934","Match","Exact","103 BLUESTONE CT, CAMDEN, DE, 19934",68100455,"L"
26794,"103 BOARDWALK PLACE","DOTHAN","AL",36303,31.247426024,-85.456810398,294,"103 BOARDWALK PLACE, DOTHAN, AL, 36303","Match","Exact","103 BOARDWALK PL, DOTHAN, AL, 36303",101227250,"L"
26795,"103 BOGEY CT","MILLIKEN","CO",80543,40.354210133,-104.871977623,295,"103 BOGEY CT, MILLIKEN, CO, 80543","Match","Exact","103 BOGEY CT, MILLIKEN, CO, 80543",188727297,"R"
26796,"103 BOGEY ESTATES","SAINT CHARLES","MO",63303,38.7713030640001,-90.5404536039999,296,"103 BOGEY ESTATES, SAINT CHARLES, MO, 63303","Match","Non_Exact","103 BOGEY ESTATES DR, SAINT CHARLES, MO, 63303",100054329,"R"
26797,"103 BONITA PLACE","ORMOND","FL",32174,29.280958388,-81.0856630389999,297,"103 BONITA PLACE, ORMOND, FL, 32174","Match","Non_Exact","103 BONITA PL, ORMOND BEACH, FL, 32174",94521071,"L"
26798,"103 BONNIE BLVD","HUDSON","IA",50643,42.4011574400001,-92.4479710109999,298,"103 BONNIE BLVD, HUDSON, IA, 50643","Match","Exact","103 BONNIE BLVD, HUDSON, IA, 50643",77250867,"L"
26799,"103 BORDEAUX CT","COPPEL","TX",75019,32.952934387,-96.9939461129999,299,"103 BORDEAUX CT, COPPEL, TX, 75019","Match","Non_Exact","103 BORDEAUX CT, COPPELL, TX, 75019",625001156,"R"
26800,"103 BORDEAUX DR","WEST MONROE","LA",71291,32.5625007730001,-92.167623395,300,"103 BORDEAUX DR, WEST MONROE, LA, 71291","Match","Exact","103 BORDEAUX DR, WEST MONROE, LA, 71291",161101009,"L"
26801,"103 BORDENTOWN CROSSWICKS ROAD","CROSSWICKS","NJ",8515,40.145377308,-74.660966087,301,"103 BORDENTOWN CROSSWICKS ROAD, CROSSWICKS, NJ, 8515","Match","Exact","103 BORDENTOWN CROSSWICKS RD, CROSSWICKS, NJ, 08515",617131655,"R"
26802,"103 BORMAN","AVENEL","NJ",7001,40.582249813,-74.266060233,302,"103 BORMAN, AVENEL, NJ, 7001","Match","Non_Exact","103 BORMAN AVE, AVENEL, NJ, 07001",626224140,"L"
26803,"103 BOWIE STREET","FORNEY","TX",75126,32.7561545180001,-96.457339024,303,"103 BOWIE STREET, FORNEY, TX, 75126","Match","Exact","103 BOWIE ST, FORNEY, TX, 75126",614178047,"R"
26804,"103 BRADEN DRIVE","LULING","LA",70070,29.897308121,-90.353776371,304,"103 BRADEN DRIVE, LULING, LA, 70070","Match","Non_Exact","103 BRADEN, LULING, LA, 70070",649618995,"L"
26805,"103 BRADLEY AVENUE","EAST HAVEN","CT",6512,41.279214972,-72.875485821,305,"103 BRADLEY AVENUE, EAST HAVEN, CT, 6512","Match","Exact","103 BRADLEY AVE, EAST HAVEN, CT, 06512",618696338,"R"
26806,"103 BRAMBLEBUSH LN","LAUREL","MD",20724,39.108564335,-76.802243287,306,"103 BRAMBLEBUSH LN, LAUREL, MD, 20724","Match","Exact","103 BRAMBLEBUSH LN, LAUREL, MD, 20724",68198924,"L"
26807,"103 BRAMBLEBUSH LN","LAUREL","MD",NA,39.108564335,-76.802243287,307,"103 BRAMBLEBUSH LN, LAUREL, MD, ","Match","Exact","103 BRAMBLEBUSH LN, LAUREL, MD, 20724",68198924,"L"
26808,"103 BRAXLO LANE","WILMINGTON","NC",28409,34.184030641,-77.855537189,308,"103 BRAXLO LANE, WILMINGTON, NC, 28409","Match","Exact","103 BRAXLO LN, WILMINGTON, NC, 28409",152750686,"L"
26809,"103 BRIARCLIFF DRIVE","CASTLE HILLS","TX",78213,29.5216095910001,-98.512082148,309,"103 BRIARCLIFF DRIVE, CASTLE HILLS, TX, 78213","Match","Exact","103 BRIARCLIFF DR, CASTLE HILLS, TX, 78213",101494092,"L"
26810,"103 BRIARMEADE DRIVE","CLINTON","MS",39056,32.351775565,-90.305552668,310,"103 BRIARMEADE DRIVE, CLINTON, MS, 39056","Match","Exact","103 BRIARMEADE DR, CLINTON, MS, 39056",65386248,"R"
26811,"103 BRIARWOOD DR","WARNER ROBINS","GA",31093,32.639194478,-83.635227959,311,"103 BRIARWOOD DR, WARNER ROBINS, GA, 31093","Match","Exact","103 BRIARWOOD DR, WARNER ROBINS, GA, 31093",91233946,"R"
26812,"103 BRIDGE STREET","MANCHESTER","CT",6040,41.7614995640001,-72.542942605,312,"103 BRIDGE STREET, MANCHESTER, CT, 6040","Match","Exact","103 BRIDGE ST, MANCHESTER, CT, 06040",3498472,"L"
26813,"103 BRIDGEVIEW COURT","BINGEN","WA",98605,45.71927271,-121.468268574,313,"103 BRIDGEVIEW COURT, BINGEN, WA, 98605","Match","Exact","103 BRIDGEVIEW CT, BINGEN, WA, 98605",633069284,"R"
26814,"103 BRIDGEWAY CT","JACKSONVILLE","NC",28540,34.843329054,-77.503697866,314,"103 BRIDGEWAY CT, JACKSONVILLE, NC, 28540","Match","Exact","103 BRIDGEWAY CT, JACKSONVILLE, NC, 28540",620026236,"R"
26815,"103 BRIDLETRAIL LANE","UNION","SC",29379,34.6976410840001,-81.5972981529999,315,"103 BRIDLETRAIL LANE, UNION, SC, 29379","Match","Exact","103 BRIDLETRAIL LN, UNION, SC, 29379",19724993,"L"
26816,"103 BRIGHTON CIRCLE","SEAFORD","VA",23696,37.19633952,-76.437665076,316,"103 BRIGHTON CIRCLE, SEAFORD, VA, 23696","Match","Exact","103 BRIGHTON CIR, SEAFORD, VA, 23696",103786869,"L"
26817,"103 BRIGHTVIEW COURT","GOODVIEW","VA",24095,37.262255312,-79.7970029109999,317,"103 BRIGHTVIEW COURT, GOODVIEW, VA, 24095","Match","Exact","103 BRIGHTVIEW CT, GOODVIEW, VA, 24095",62671927,"R"
26818,"103 BRILEY AVE","OAKLAND","FL",34760,28.558425996,-81.6293659519999,318,"103 BRILEY AVE, OAKLAND, FL, 34760","Match","Exact","103 BRILEY AVE, OAKLAND, FL, 34760",94262639,"L"
26819,"103 BRISTOLWOOD CIR","MORRISVILLE","NC",27560,35.839575343,-78.8690493299999,319,"103 BRISTOLWOOD CIR, MORRISVILLE, NC, 27560","Match","Exact","103 BRISTOLWOOD CIR, MORRISVILLE, NC, 27560",208363870,"L"
26820,"103 BRITT ST","FLORENCE","AL",35633,34.853228292,-87.6999921999999,320,"103 BRITT ST, FLORENCE, AL, 35633","Match","Exact","103 BRITT ST, FLORENCE, AL, 35633",41319583,"R"
26821,"103 BRITT STREET","FLORENCE","AL",35633,34.853228292,-87.6999921999999,321,"103 BRITT STREET, FLORENCE, AL, 35633","Match","Exact","103 BRITT ST, FLORENCE, AL, 35633",41319583,"R"
26822,"103 BRITTANY TERRACE","ROCK TAVERN","NY",12575,41.4615812000001,-74.1323140009999,322,"103 BRITTANY TERRACE, ROCK TAVERN, NY, 12575","Match","Exact","103 BRITTANY TER, ROCK TAVERN, NY, 12575",124442637,"L"
26823,"103 BROAD ST","BERLIN","MD",21811,38.3256031330001,-75.221212825,323,"103 BROAD ST, BERLIN, MD, 21811","Match","Exact","103 BROAD ST, BERLIN, MD, 21811",114540248,"R"
26824,"103 BROAD ST","BLUFFTON","GA",39824,31.5219228350001,-84.867681702,324,"103 BROAD ST, BLUFFTON, GA, 39824","Match","Exact","103 BROAD ST, BLUFFTON, GA, 39824",93860980,"L"
26825,"103 BROADWAY MALL","HICKSVILLE","NY",11801,40.7668894400001,-73.5229506919999,325,"103 BROADWAY MALL, HICKSVILLE, NY, 11801","Match","Non_Exact","103 BROADWAY, HICKSVILLE, NY, 11801",637935600,"R"
26826,"103 BROADWAY","BANGOR","PA",18013,40.865833093,-75.206403209,326,"103 BROADWAY, BANGOR, PA, 18013","Match","Exact","103 BROADWAY, BANGOR, PA, 18013",136871059,"R"
26827,"103 BROCAN COURT","NOLEVILLE","TN",37135,35.9603734610001,-86.6189832589999,327,"103 BROCAN COURT, NOLEVILLE, TN, 37135","Match","Non_Exact","103 BROGAN CT, NOLENSVILLE, TN, 37135",606767619,"R"
26828,"103 BROOK VALLEY ROAD","WILMINGTON","DE",19807,39.781798548,-75.602866674,328,"103 BROOK VALLEY ROAD, WILMINGTON, DE, 19807","Match","Exact","103 BROOK VALLEY RD, WILMINGTON, DE, 19807",187253955,"R"
26829,"103 BROOKVIEW COURT","WAXAHACHIE","TX",75165,32.4756042390001,-96.820328567,329,"103 BROOKVIEW COURT, WAXAHACHIE, TX, 75165","Match","Exact","103 BROOKVIEW CT, WAXAHACHIE, TX, 75165",648617786,"R"
26830,"103 BROWN AVE","ATLANTA","GA",30315,33.7137318740001,-84.384868986,330,"103 BROWN AVE, ATLANTA, GA, 30315","Match","Non_Exact","103 BROWN AVE SE, ATLANTA, GA, 30315",17346914,"R"
26831,"103 BROWNSRIDGE LANE","MADISON","AL",35758,34.7088715740001,-86.7115063099999,331,"103 BROWNSRIDGE LANE, MADISON, AL, 35758","Match","Exact","103 BROWNSRIDGE LN, MADISON, AL, 35758",636440196,"L"
26832,"103 BROWNSTONE DRIVE","MADISON","AL",35728,34.743579165,-86.759534077,332,"103 BROWNSTONE DRIVE, MADISON, AL, 35728","Match","Non_Exact","103 BROWNSTONE DR, MADISON, AL, 35758",58159820,"L"
26833,"103 BRUCE DR","VIVIAN","LA",71082,NA,NA,333,"103 BRUCE DR, VIVIAN, LA, 71082","No_Match",NA,NA,NA,NA
26834,"103 BRYAN DR","BEAUFORT","SC",29902,32.4211150840001,-80.71095238,334,"103 BRYAN DR, BEAUFORT, SC, 29902","Match","Exact","103 BRYAN DR, BEAUFORT, SC, 29902",87637653,"L"
26835,"103 BRYAN STREET","PRATTVILLE","AL",36066,32.469308513,-86.437421224,335,"103 BRYAN STREET, PRATTVILLE, AL, 36066","Match","Exact","103 BRYAN ST, PRATTVILLE, AL, 36066",2832478,"R"
26836,"103 BUCKEYE TRAIL","AUSTIN","TX",78746,30.290226924,-97.803194729,336,"103 BUCKEYE TRAIL, AUSTIN, TX, 78746","Match","Exact","103 BUCKEYE TRL, AUSTIN, TX, 78746",649103656,"L"
26837,"103 BUCKINGHAM RD","PITTSBURGH","PA",15215,40.502046281,-79.900849636,337,"103 BUCKINGHAM RD, PITTSBURGH, PA, 15215","Match","Exact","103 BUCKINGHAM RD, PITTSBURGH, PA, 15215",51645566,"L"
26838,"103 BULIAN LN UNIT A","AUSTIN","TX",78746,30.2758281640001,-97.80121853,338,"103 BULIAN LN UNIT A, AUSTIN, TX, 78746","Match","Exact","103 BULIAN LN, AUSTIN, TX, 78746",623740488,"R"
26839,"103 BULKLEY DRIVE","FAIRFIELD","CT",6825,41.1953925110001,-73.2464166939999,339,"103 BULKLEY DRIVE, FAIRFIELD, CT, 6825","Match","Exact","103 BULKLEY DR, FAIRFIELD, CT, 06825",3220562,"L"
26840,"103 BUNKER CT","FOLSOM","CA",95630,38.679849387,-121.148210163,340,"103 BUNKER CT, FOLSOM, CA, 95630","Match","Exact","103 BUNKER CT, FOLSOM, CA, 95630",133358424,"L"
26841,"103 BUTLER LANE","CALVERT CITY","KY",42029,36.961356519,-88.361639576,341,"103 BUTLER LANE, CALVERT CITY, KY, 42029","Match","Exact","103 BUTLER LN, CALVERT CITY, KY, 42029",99503652,"L"
26842,"103 BUTLER STREET","KINGSTON","PA",18704,41.26544883,-75.8880282229999,342,"103 BUTLER STREET, KINGSTON, PA, 18704","Match","Exact","103 BUTLER ST, KINGSTON, PA, 18704",80913970,"R"
26843,"103 BUTTERCUP LANE","ANDERSON","SC",29621,34.6005121540001,-82.62524715,343,"103 BUTTERCUP LANE, ANDERSON, SC, 29621","Match","Non_Exact","103 BUTTERCUP TRL, ANDERSON, SC, 29621",25511911,"L"
26844,"103 C HAMBY LANE","WESTMINSTER","SC",29693,34.5999954810001,-83.027813376,344,"103 C HAMBY LANE, WESTMINSTER, SC, 29693","Match","Exact","103 C HAMBY LN, WESTMINSTER, SC, 29693",25682735,"L"
26845,"103 CALHOUN STREET","HUNTSVILLE","AL",35801,NA,NA,345,"103 CALHOUN STREET, HUNTSVILLE, AL, 35801","Tie",NA,NA,NA,NA
26846,"103 CALLAGHAN AVE","SAN ANTONIO","TX",78210,29.4142099790001,-98.487892862,346,"103 CALLAGHAN AVE, SAN ANTONIO, TX, 78210","Match","Exact","103 CALLAGHAN AVE, SAN ANTONIO, TX, 78210",101527206,"L"
26847,"103 CALVARESE LANE","WAYNE","PA",19087,40.039232102,-75.4105238069999,347,"103 CALVARESE LANE, WAYNE, PA, 19087","Match","Exact","103 CALVARESE LN, WAYNE, PA, 19087",134865877,"L"
26848,"103 CALVERY CIRCLE","LONOKE","AR",72086,34.8066109660001,-92.03202895,348,"103 CALVERY CIRCLE, LONOKE, AR, 72086","Match","Non_Exact","103 CALVARY CIR, LONOKE, AR, 72086",651898310,"R"
26849,"103 CALVIN CIRCLE","VALLEY GRANDE","AL",36703,32.4692792050001,-87.00247811,349,"103 CALVIN CIRCLE, VALLEY GRANDE, AL, 36703","Match","Exact","103 CALVIN CIR, VALLEY GRANDE, AL, 36703",1302316,"L"
26850,"103 CAMBERLI DRIVE","MONROEVILLE","PA",15146,40.4430533020001,-79.7467029869999,350,"103 CAMBERLI DRIVE, MONROEVILLE, PA, 15146","Match","Non_Exact","103 CAMBERLY DR, MONROEVILLE, PA, 15146",51816543,"R"
26851,"103 CAMBERLY DRIVE","MONROEVILLE","PA",15146,40.4430533020001,-79.7467029869999,351,"103 CAMBERLY DRIVE, MONROEVILLE, PA, 15146","Match","Exact","103 CAMBERLY DR, MONROEVILLE, PA, 15146",51816543,"R"
26852,"103 CAMBRIDGE AVE","HOLBROOK","NY",11741,40.79707288,-73.086870905,352,"103 CAMBRIDGE AVE, HOLBROOK, NY, 11741","Match","Exact","103 CAMBRIDGE AVE, HOLBROOK, NY, 11741",114041479,"R"
26853,"103 CAMBRIDGE DR","MIDWEST CITY","OK",73110,35.484662761,-97.3958446079999,353,"103 CAMBRIDGE DR, MIDWEST CITY, OK, 73110","Match","Exact","103 CAMBRIDGE DR, MIDWEST CITY, OK, 73110",639573727,"R"
26854,"103 CAMBRIDGE","BOSSIER CITY","LA",71111,32.5698647200001,-93.714109607,354,"103 CAMBRIDGE, BOSSIER CITY, LA, 71111","Match","Non_Exact","103 CAMBRIDGE CIR, BOSSIER CITY, LA, 71111",108522312,"L"
26855,"103 CANDLEWOOD ROAD","ROCKY MOUNT","NC",27804,35.964480032,-77.858082735,355,"103 CANDLEWOOD ROAD, ROCKY MOUNT, NC, 27804","Match","Exact","103 CANDLEWOOD RD, ROCKY MOUNT, NC, 27804",90382311,"R"
26856,"103 CANDLEWYCK TERRACE","PORTLAND","ME",4102,43.6783857500001,-70.31368472,356,"103 CANDLEWYCK TERRACE, PORTLAND, ME, 4102","Match","Exact","103 CANDLEWYCK TER, PORTLAND, ME, 04102",78025152,"R"
26857,"103 CANDOVER COURT","SUMMERVILLE","SC",29485,32.9883992000001,-80.135424037,357,"103 CANDOVER COURT, SUMMERVILLE, SC, 29485","Match","Exact","103 CANDOVER CT, SUMMERVILLE, SC, 29485",178467525,"R"
26858,"103 CANDY APPLY COURT","CARY","NC",14546,NA,NA,358,"103 CANDY APPLY COURT, CARY, NC, 14546","No_Match",NA,NA,NA,NA
26859,"103 CAPEN STREET","MILTON","MA",2186,42.268711554,-71.0886246869999,359,"103 CAPEN STREET, MILTON, MA, 2186","Match","Exact","103 CAPEN ST, MILTON, MA, 02186",87295480,"R"
26860,"103 CARAGANA CT","STERLING","VA",20164,38.9914596460001,-77.4040504229999,360,"103 CARAGANA CT, STERLING, VA, 20164","Match","Exact","103 CARAGANA CT, STERLING, VA, 20164",62328087,"R"
26861,"103 CARDINAL LANE","HUMMELSTOWN","PA",17036,40.307527759,-76.6940345089999,361,"103 CARDINAL LANE, HUMMELSTOWN, PA, 17036","Match","Exact","103 CARDINAL LN, HUMMELSTOWN, PA, 17036",624402249,"R"
26862,"103 CARMALT ROAD","HAMDEN","CT",6517,41.3587746200001,-72.9046716939999,362,"103 CARMALT ROAD, HAMDEN, CT, 6517","Match","Exact","103 CARMALT RD, HAMDEN, CT, 06517",3702574,"R"
26863,"103 CAROLINE COURT","BEAVER DAM","WI",53916,43.4630521990001,-88.809281402,363,"103 CAROLINE COURT, BEAVER DAM, WI, 53916","Match","Exact","103 CAROLINE CT, BEAVER DAM, WI, 53916",53553975,"R"
26864,"103 CARRIAGE TERRANCE","PALATKA","FL",32177,NA,NA,364,"103 CARRIAGE TERRANCE, PALATKA, FL, 32177","Tie",NA,NA,NA,NA
26865,"103 CASTLETOWN LANE NW","MADISON","AL",35757,34.7715125120001,-86.777789207,365,"103 CASTLETOWN LANE NW, MADISON, AL, 35757","Match","Exact","103 CASTLETOWN LN NW, MADISON, AL, 35757",649150578,"R"
26866,"103 CATRON STREET UNIT 63","SANTA FE","NM",87501,35.691156511,-105.940582105,366,"103 CATRON STREET UNIT 63, SANTA FE, NM, 87501","Match","Exact","103 CATRON ST, SANTA FE, NM, 87501",169377472,"R"
26867,"103 CAVALRY COURT","CHESTERBROOK","PA",19087,40.0742057680001,-75.461609518,367,"103 CAVALRY COURT, CHESTERBROOK, PA, 19087","Match","Exact","103 CAVALRY CT, CHESTERBROOK, PA, 19087",624282111,"L"
26868,"103 CEDAR CIRCLE","WASHINGTON","NC",27889,35.5143876320001,-77.0053397459999,368,"103 CEDAR CIRCLE, WASHINGTON, NC, 27889","Match","Exact","103 CEDAR CIR, WASHINGTON, NC, 27889",67953827,"R"
26869,"103 CEDAR CREST LANE","BELLEVUE","WA",98004,47.599766668,-122.203111885,369,"103 CEDAR CREST LANE, BELLEVUE, WA, 98004","Match","Exact","103 CEDAR CREST LN, BELLEVUE, WA, 98004",239764168,"R"
26870,"103 CEDAR DRIVE","KITTANNING","PA",16201,40.833876714,-79.542374041,370,"103 CEDAR DRIVE, KITTANNING, PA, 16201","Match","Exact","103 CEDAR DR, KITTANNING, PA, 16201",52463479,"L"
26871,"103 CEDAR PATH","EAGLE LAKE","MN",56024,44.164859941,-93.8759460799999,371,"103 CEDAR PATH, EAGLE LAKE, MN, 56024","Match","Exact","103 CEDAR PATH, EAGLE LAKE, MN, 56024",647942434,"R"
26872,"103 CEDAR RIDGE DRIVE","PERRY","GA",31069,32.4796474550001,-83.725012125,372,"103 CEDAR RIDGE DRIVE, PERRY, GA, 31069","Match","Exact","103 CEDAR RIDGE DR, PERRY, GA, 31069",642633985,"R"
26873,"103 CEDAR STREET","WALLACE","ID",83873,47.4724156520001,-115.931326416,373,"103 CEDAR STREET, WALLACE, ID, 83873","Match","Exact","103 CEDAR ST, WALLACE, ID, 83873",203522765,"L"
26874,"103 CEDARWOOD DR","HENDERSONVILLE","TN",37075,36.2769885020001,-86.606480322,374,"103 CEDARWOOD DR, HENDERSONVILLE, TN, 37075","Match","Exact","103 CEDARWOOD DR, HENDERSONVILLE, TN, 37075",29775678,"L"
26875,"103 CELESTINO COURT","BLACKWOOD","NJ",8012,NA,NA,375,"103 CELESTINO COURT, BLACKWOOD, NJ, 8012","No_Match",NA,NA,NA,NA
26876,"103 CELLA STREET","GOLDSBORO","NC",27534,35.3925795480001,-77.9656177589999,376,"103 CELLA STREET, GOLDSBORO, NC, 27534","Match","Exact","103 CELLA ST, GOLDSBORO, NC, 27534",14404681,"L"
26877,"103 CENTER STREET SUITE 2","MEYERSDALE","PA",15552,NA,NA,377,"103 CENTER STREET SUITE 2, MEYERSDALE, PA, 15552","No_Match",NA,NA,NA,NA
26878,"103 CENTER STREET","REINBECK","IA",50669,42.3255751840001,-92.596271158,378,"103 CENTER STREET, REINBECK, IA, 50669","Match","Exact","103 CENTER ST, REINBECK, IA, 50669",77415356,"L"
26879,"103 CENTRAL AVE APT A2","GOOSE CREEK","NV",29445,NA,NA,379,"103 CENTRAL AVE APT A2, GOOSE CREEK, NV, 29445","No_Match",NA,NA,NA,NA
26880,"103 CENTRAL PIKE","FOSTER","RI",2825,41.799567014,-71.729364827,380,"103 CENTRAL PIKE, FOSTER, RI, 2825","Match","Exact","103 CENTRAL PIKE, FOSTER, RI, 02825",47445612,"L"
26881,"103 CENTURY 21 DRIVE","JACKSONVILLE","FL",32216,30.3123160430001,-81.572289944,381,"103 CENTURY 21 DRIVE, JACKSONVILLE, FL, 32216","Match","Exact","103 CENTURY 21 DR, JACKSONVILLE, FL, 32216",83904503,"R"
26882,"103 CHANCELLOR AVE","NEWARK","NJ",7112,40.7044813360001,-74.2131482299999,382,"103 CHANCELLOR AVE, NEWARK, NJ, 7112","Match","Exact","103 CHANCELLOR AVE, NEWARK, NJ, 07112",63465327,"R"
26883,"103 CHANUTE RD","GOLDSBORO","NC",27534,35.3674111890001,-77.955442948,383,"103 CHANUTE RD, GOLDSBORO, NC, 27534","Match","Exact","103 CHANUTE RD, GOLDSBORO, NC, 27534",14405411,"L"
26884,"103 CHAPIN PLACE","GRANVILLE","OH",43023,40.0728186000001,-82.5308005699999,384,"103 CHAPIN PLACE, GRANVILLE, OH, 43023","Match","Exact","103 CHAPIN PL, GRANVILLE, OH, 43023",61521988,"L"
26885,"103 CHAPLIN LN","DALTON","PA",18414,NA,NA,385,"103 CHAPLIN LN, DALTON, PA, 18414","No_Match",NA,NA,NA,NA
26886,"103 CHAPMAN RD","SUTTON","VT",5867,44.6037748530001,-72.01041194,386,"103 CHAPMAN RD, SUTTON, VT, 5867","Match","Exact","103 CHAPMAN RD, SUTTON, VT, 05867",181083974,"L"
26887,"103 CHARLES DR SUITE B","DALTON","PA",18414,41.5294823290001,-75.7410113,387,"103 CHARLES DR SUITE B, DALTON, PA, 18414","Match","Exact","103 CHARLES DR, DALTON, PA, 18414",139340050,"L"
26888,"103 CHATHAM CT SW","POPULAR GROVE","IL",61065,42.355597468,-88.886379113,388,"103 CHATHAM CT SW, POPULAR GROVE, IL, 61065","Match","Non_Exact","103 CHATHAM CT SW, POPLAR GROVE, IL, 61065",92154975,"R"
26889,"103 CHATTERLY COVE","MADISON","MS",39110,32.4830211080001,-90.1590813,389,"103 CHATTERLY COVE, MADISON, MS, 39110","Match","Exact","103 CHATTERLY COVE, MADISON, MS, 39110",152485600,"R"
26890,"103 CHERRY POINT DR","ST MARY","GA",31558,30.808973612,-81.58201575,390,"103 CHERRY POINT DR, ST MARY, GA, 31558","Match","Non_Exact","103 CHERRY POINT DR, SAINT MARYS, GA, 31558",210951067,"R"
26891,"103 CHERRY RD","BEREA","KY",40403,37.5659518950001,-84.300696392,391,"103 CHERRY RD, BEREA, KY, 40403","Match","Exact","103 CHERRY RD, BEREA, KY, 40403",31988710,"R"
26892,"103 CHERRYWOOD PARC DRIVE","O'FALLON","MO",63376,38.769736322,-90.6986797769999,392,"103 CHERRYWOOD PARC DRIVE, O'FALLON, MO, 63376","Match","Non_Exact","103 CHERRYWOOD PARC DR, O FALLON, MO, 63368",100048187,"R"
26893,"103 CHERYL DRIVE","DUDLEY","NC",28333,35.2810437700001,-77.996538775,393,"103 CHERYL DRIVE, DUDLEY, NC, 28333","Match","Exact","103 CHERYL DR, DUDLEY, NC, 28333",605717406,"R"
26894,"103 CHESAPEAKE HARBOE BLVD","HENDERSONVILLE","TN",37075,NA,NA,394,"103 CHESAPEAKE HARBOE BLVD, HENDERSONVILLE, TN, 37075","No_Match",NA,NA,NA,NA
26895,"103 CHESTNUT GROVE DRIVE","OLD FORT","NC",28762,35.5455444150001,-82.174136857,395,"103 CHESTNUT GROVE DRIVE, OLD FORT, NC, 28762","Match","Non_Exact","103 CHESTNUT DR, OLD FORT, NC, 28762",35924814,"L"
26896,"103 CHESTNUT HILL","BRATTLEBORO","VT",5301,42.8552568710001,-72.5662619459999,396,"103 CHESTNUT HILL, BRATTLEBORO, VT, 5301","Match","Exact","103 CHESTNUT HILL, BRATTLEBORO, VT, 05301",171091105,"R"
26897,"103 CHESTNUT STREET","PEPPERELL","MA",1463,42.682288219,-71.6422257899999,397,"103 CHESTNUT STREET, PEPPERELL, MA, 1463","Match","Exact","103 CHESTNUT ST, PEPPERELL, MA, 01463",87128398,"R"
26898,"103 CHICAGO AVENUE","POINT PLEASANT BEACH","NJ",8742,40.100093036,-74.044445399,398,"103 CHICAGO AVENUE, POINT PLEASANT BEACH, NJ, 8742","Match","Exact","103 CHICAGO AVE, PT PLEASANT BEACH, NJ, 08742",203734521,"L"
26899,"103 CHICKASAW DRIVE","HATTIESBURG","MS",39401,31.3402776570001,-89.318970371,399,"103 CHICKASAW DRIVE, HATTIESBURG, MS, 39401","Match","Exact","103 CHICKASAW DR, HATTIESBURG, MS, 39401",323265,"R"
26900,"103 CHIVAS LN","SANTA ROSA BEACH","FL",32459,30.304945285,-86.0896382299999,400,"103 CHIVAS LN, SANTA ROSA BEACH, FL, 32459","Match","Exact","103 CHIVAS LN, SANTA ROSA BEACH, FL, 32459",32983830,"L"
26901,"103 CHURCH STREET","NANUET","NY",10954,41.0896023440001,-74.004479395,401,"103 CHURCH STREET, NANUET, NY, 10954","Match","Exact","103 CHURCH ST, NANUET, NY, 10954",124596781,"R"
26902,"103 CHURCH STREET","WARE","MA",1082,42.267636978,-72.2333318669999,402,"103 CHURCH STREET, WARE, MA, 1082","Match","Exact","103 CHURCH ST, WARE, MA, 01082",39847419,"R"
26903,"103 CHUTE ROAD","WINDHAM","ME",4062,43.7517133110001,-70.4050623319999,403,"103 CHUTE ROAD, WINDHAM, ME, 4062","Match","Exact","103 CHUTE RD, WINDHAM, ME, 04062",78062544,"L"
26904,"103 CLAIRE ROAD","SYRACUSE","NY",13214,43.0433077060001,-76.088306361,404,"103 CLAIRE ROAD, SYRACUSE, NY, 13214","Match","Exact","103 CLAIRE RD, SYRACUSE, NY, 13214",46605922,"L"
26905,"103 CLAPP ST","MILTON","MA",2169,NA,NA,405,"103 CLAPP ST, MILTON, MA, 2169","No_Match",NA,NA,NA,NA
26906,"103 CLARENDON DR","ANDERSON","SC",29621,34.549638986,-82.6298700839999,406,"103 CLARENDON DR, ANDERSON, SC, 29621","Match","Exact","103 CLARENDON DR, ANDERSON, SC, 29621",640545225,"L"
26907,"103 CLARIDGE COURT","PRINCETON","NJ",8540,40.323249984,-74.655729433,407,"103 CLARIDGE COURT, PRINCETON, NJ, 8540","Match","Exact","103 CLARIDGE CT, PRINCETON, NJ, 08540",60191135,"R"
26908,"103 CLARK DRIVE","BROOKLAND","AR",72417,35.919375158,-90.5724603799999,408,"103 CLARK DRIVE, BROOKLAND, AR, 72417","Match","Exact","103 CLARK DR, BROOKLAND, AR, 72417",650703506,"L"
26909,"103 CLEAR CREEK COURT","PRATTVILLE","AL",36066,NA,NA,409,"103 CLEAR CREEK COURT, PRATTVILLE, AL, 36066","No_Match",NA,NA,NA,NA
26910,"103 CLEAR CREEK COURT","PRATTVILLE","AL",36067,32.425893081,-86.538440835,410,"103 CLEAR CREEK COURT, PRATTVILLE, AL, 36067","Match","Non_Exact","103 CLEAR CREEK VW, PRATTVILLE, AL, 36067",2850719,"L"
26911,"103 CLEOPATRA LANE","YOUNGSVILLE","LA",70592,30.1363163500001,-92.0179528209999,411,"103 CLEOPATRA LANE, YOUNGSVILLE, LA, 70592","Match","Exact","103 CLEOPATRA LN, YOUNGSVILLE, LA, 70592",85630477,"L"
26912,"103 CLEVER LANE","LEXINGTON","OH",44904,40.67395628,-82.586816649,412,"103 CLEVER LANE, LEXINGTON, OH, 44904","Match","Exact","103 CLEVER LN, LEXINGTON, OH, 44904",207217876,"L"
26913,"103 CLINTON ST","NORTH EAST","PA",16428,42.211239692,-79.844455754,413,"103 CLINTON ST, NORTH EAST, PA, 16428","Match","Exact","103 CLINTON ST, NORTH EAST, PA, 16428",117501979,"R"
26914,"103 CLUBHOUSE DRIVE","WILLINGBORO","NJ",8046,40.019608363,-74.9035784339999,414,"103 CLUBHOUSE DRIVE, WILLINGBORO, NJ, 8046","Match","Non_Exact","103 CLUB HOUSE DR, WILLINGBORO, NJ, 08046",134031428,"R"
26915,"103 CLYDESDALE","ARCHDALE","NC",27263,35.8900406920001,-79.930800677,415,"103 CLYDESDALE, ARCHDALE, NC, 27263","Match","Non_Exact","103 CLYDESDALE DR, ARCHDALE, NC, 27263",20448733,"L"
26916,"103 COACH DRIVE","WHITE BLUFF","TN",37187,36.0973763590001,-87.220200371,416,"103 COACH DRIVE, WHITE BLUFF, TN, 37187","Match","Exact","103 COACH DR, WHITE BLUFF, TN, 37187",607202499,"L"
26917,"103 COCELLI DRIVE","BRIDGETON","NJ",8302,39.4331339880001,-75.213397341,417,"103 COCELLI DRIVE, BRIDGETON, NJ, 8302","Match","Exact","103 COCELLI DR, BRIDGETON, NJ, 08302",174108293,"L"
26918,"103 COLLEGE RD EAST","PRINCETON","NJ",8540,40.3569363450001,-74.6011130329999,418,"103 COLLEGE RD EAST, PRINCETON, NJ, 8540","Match","Exact","103 COLLEGE RD E, PRINCETON, NJ, 08540",641740425,"R"
26919,"103 COLLEGE STREET","ANSTED","WV",25812,38.1357229860001,-81.0917004519999,419,"103 COLLEGE STREET, ANSTED, WV, 25812","Match","Exact","103 COLLEGE ST, ANSTED, WV, 25812",75068284,"L"
26920,"103 COLLINS DRIVER","MARTIN","TN",38237,36.363885972,-88.857345317,420,"103 COLLINS DRIVER, MARTIN, TN, 38237","Match","Non_Exact","103 COLLINS DR, MARTIN, TN, 38237",40889148,"R"
26921,"103 COLUMBIA RD S","GLASSBORO","NJ",8028,39.7060577730001,-75.125359776,421,"103 COLUMBIA RD S, GLASSBORO, NJ, 8028","Match","Non_Exact","103 COLUMBIA RD N, GLASSBORO, NJ, 08028",134588428,"L"
26922,"103 CONAEFER LANE","UNITY","ME",4988,44.626421409,-69.323654182,422,"103 CONAEFER LANE, UNITY, ME, 4988","Match","Exact","103 CONAEFER LN, UNITY, ME, 04988",75633061,"L"
26923,"103 Concord Drive","McMurray","PA",15317,40.2755886090001,-80.0831887749999,423,"103 Concord Drive, McMurray, PA, 15317","Match","Exact","103 CONCORD DR, MCMURRAY, PA, 15317",52820254,"R"
26924,"103 CONCORD PLACE","THIENSVILLE","WI",53092,43.2434050030001,-87.986114863,424,"103 CONCORD PLACE, THIENSVILLE, WI, 53092","Match","Exact","103 CONCORD PL, THIENSVILLE, WI, 53092",95900857,"R"
26925,"103 CONFEDERATE CIRCLE","TAYLORS","SC",29687,34.9051292940001,-82.307907916,425,"103 CONFEDERATE CIRCLE, TAYLORS, SC, 29687","Match","Exact","103 CONFEDERATE CIR, TAYLORS, SC, 29687",38309213,"L"
26926,"103 CONNIE ST","CAMP HILL","AL",36850,32.794761964,-85.648225381,426,"103 CONNIE ST, CAMP HILL, AL, 36850","Match","Non_Exact","103 CONINE ST, CAMP HILL, AL, 36850",1690796,"L"
26927,"103 CONTINENTAL PLACE SUITE 200","BRENTWOOD","TN",37027,36.0374416440001,-86.810553302,427,"103 CONTINENTAL PLACE SUITE 200, BRENTWOOD, TN, 37027","Match","Exact","103 CONTINENTAL PL, BRENTWOOD, TN, 37027",73116143,"L"
26928,"103 COOK AVENUE","WINCHESTER","KY",40391,38.0002004900001,-84.1713499639999,428,"103 COOK AVENUE, WINCHESTER, KY, 40391","Match","Exact","103 COOK AVE, WINCHESTER, KY, 40391",31788698,"R"
26929,"103 COOSAW RUN","GREENWOOD","SC",29649,34.2211705500001,-82.195903567,429,"103 COOSAW RUN, GREENWOOD, SC, 29649","Match","Exact","103 COOSAW RUN, GREENWOOD, SC, 29649",50814085,"L"
26930,"103 CORNSTALK TRAIL","WINCHESTER","VA",22602,39.1857830220001,-78.351907449,430,"103 CORNSTALK TRAIL, WINCHESTER, VA, 22602","Match","Exact","103 CORNSTALK TRL, WINCHESTER, VA, 22602",55577357,"L"
26931,"103 CORPORATE DRIVE SUITE 102","MORGANTOWN","WV",26501,NA,NA,431,"103 CORPORATE DRIVE SUITE 102, MORGANTOWN, WV, 26501","No_Match",NA,NA,NA,NA
26932,"103 COTTAGE DRIVE","NATCHEZ","MS",39120,31.5757122850001,-91.3498114399999,432,"103 COTTAGE DRIVE, NATCHEZ, MS, 39120","Match","Exact","103 COTTAGE DR, NATCHEZ, MS, 39120",79848583,"R"
26933,"103 COUNCILMAN COURT","MORRISVILLE","NC",27560,35.83624552,-78.842756543,433,"103 COUNCILMAN COURT, MORRISVILLE, NC, 27560","Match","Exact","103 COUNCILMAN CT, MORRISVILLE, NC, 27560",208358715,"L"
26934,"103 COUNTRY LANE","KATHLEEN","GA",31047,32.525018534,-83.640170767,434,"103 COUNTRY LANE, KATHLEEN, GA, 31047","Match","Exact","103 COUNTRY LN, KATHLEEN, GA, 31047",91250249,"L"
26935,"103 COUNTRY MANOR CT","EAGLE LAKE","MN",54024,NA,NA,435,"103 COUNTRY MANOR CT, EAGLE LAKE, MN, 54024","No_Match",NA,NA,NA,NA
26936,"103 COUNTRY MANOR CT","EAGLE LAKE","MN",56024,NA,NA,436,"103 COUNTRY MANOR CT, EAGLE LAKE, MN, 56024","No_Match",NA,NA,NA,NA
26937,"103 COUNTRYSIDE DR","HACKETTSTOWN","NJ",7840,40.864075831,-74.829482452,437,"103 COUNTRYSIDE DR, HACKETTSTOWN, NJ, 7840","Match","Non_Exact","103 COUNTRYSIDE LN, HACKETTSTOWN, NJ, 07840",98091672,"R"
26938,"103 COUNTRYSIDE LANE","HACKETTSTOWN","NJ",7840,40.864075831,-74.829482452,438,"103 COUNTRYSIDE LANE, HACKETTSTOWN, NJ, 7840","Match","Exact","103 COUNTRYSIDE LN, HACKETTSTOWN, NJ, 07840",98091672,"R"
26939,"103 COUNTRYVIEW LANE","MCMURRAY","PA",15317,40.2633636480001,-80.103571519,439,"103 COUNTRYVIEW LANE, MCMURRAY, PA, 15317","Match","Exact","103 COUNTRYVIEW LN, MCMURRAY, PA, 15317",52831795,"L"
26940,"103 COUNTY RD 123","WHARTON","TX",77488,29.315220702,-96.0345906159999,440,"103 COUNTY RD 123, WHARTON, TX, 77488","Match","Exact","103 CO RD 123, WHARTON, TX, 77488",636443482,"R"
26941,"103 COUNTY ROAD 180 UNIT 22","CEDAR PARK","TX",78641,30.5465946850001,-97.7951209939999,441,"103 COUNTY ROAD 180 UNIT 22, CEDAR PARK, TX, 78641","Match","Exact","103 CO RD 180, CEDAR PARK, TX, 78641",647862802,"R"
26942,"103 CRABAPPLE DR","WINDSOR","CO",80550,40.4713267020001,-104.897082006,442,"103 CRABAPPLE DR, WINDSOR, CO, 80550","Match","Exact","103 CRABAPPLE DR, WINDSOR, CO, 80550",188712057,"R"
26943,"103 CRANBERRY ROAD","DRACUT","MA",1826,42.6713445010001,-71.276240436,443,"103 CRANBERRY ROAD, DRACUT, MA, 1826","Match","Exact","103 CRANBERRY RD, DRACUT, MA, 01826",86878032,"L"
26944,"103 CREEK POINT CT","COLONIAL HEIGHTS","VA",23834,37.286019513,-77.3731221909999,444,"103 CREEK POINT CT, COLONIAL HEIGHTS, VA, 23834","Match","Exact","103 CREEK POINT CT, COLONIAL HEIGHTS, VA, 23834",201635356,"R"
26945,"103 CREEKMORE","GREENVILLE","MS",38701,NA,NA,445,"103 CREEKMORE, GREENVILLE, MS, 38701","No_Match",NA,NA,NA,NA
26946,"103 CRESCENT RIDGE COURT","ARKADELPHIA","AR",71923,34.1318664030001,-93.0780697879999,446,"103 CRESCENT RIDGE COURT, ARKADELPHIA, AR, 71923","Match","Exact","103 CRESCENT RIDGE CT, ARKADELPHIA, AR, 71923",10556285,"L"
26947,"103 CRESTVIEW DR","HAMILTON","IL",62341,40.401518905,-91.340229435,447,"103 CRESTVIEW DR, HAMILTON, IL, 62341","Match","Exact","103 CRESTVIEW DR, HAMILTON, IL, 62341",5322198,"L"
26948,"103 CRESTVIEW DRIVE","WOOD RIVER","IL",62095,38.8458753520001,-90.040130076,448,"103 CRESTVIEW DRIVE, WOOD RIVER, IL, 62095","Match","Exact","103 CRESTVIEW DR, WOOD RIVER, IL, 62095",107687358,"L"
26949,"103 CROSLAND AVE APT 1","DANVILLE","VA",24540,36.6324718660001,-79.397443692,449,"103 CROSLAND AVE APT 1, DANVILLE, VA, 24540","Match","Exact","103 CROSLAND AVE, DANVILLE, VA, 24540",649738826,"L"
26950,"103 CROSS ST","BRIDGEPORT","CT",6610,41.1865326290001,-73.15866719,450,"103 CROSS ST, BRIDGEPORT, CT, 6610","Match","Exact","103 CROSS ST, BRIDGEPORT, CT, 06610",3227255,"L"
26951,"103 CROSSCREEK LANE","FLORENCE","AL",35634,34.825320505,-87.596283848,451,"103 CROSSCREEK LANE, FLORENCE, AL, 35634","Match","Exact","103 CROSSCREEK LN, FLORENCE, AL, 35634",41327883,"L"
26952,"103 CRYSTAL COURT","OZARK","AL",36360,31.385726936,-85.666067377,452,"103 CRYSTAL COURT, OZARK, AL, 36360","Match","Exact","103 CRYSTAL CT, OZARK, AL, 36360",99608096,"R"
26953,"103 CUFF ROAD","SALEM","NH",3079,NA,NA,453,"103 CUFF ROAD, SALEM, NH, 3079","No_Match",NA,NA,NA,NA
26954,"103 CUMMING AVENUE","OPP","AL",36467,NA,NA,454,"103 CUMMING AVENUE, OPP, AL, 36467","No_Match",NA,NA,NA,NA
26955,"103 CURTIS DRIVE","HAMILTON","OH",45013,39.408564932,-84.606501244,455,"103 CURTIS DRIVE, HAMILTON, OH, 45013","Match","Exact","103 CURTIS DR, HAMILTON, OH, 45013",113787640,"R"
26956,"103 CURWEN CIRCLE","ROSEMONT","PA",19010,40.0352711360001,-75.332613221,456,"103 CURWEN CIRCLE, ROSEMONT, PA, 19010","Match","Non_Exact","103 CURWEN CIR, BRYN MAWR, PA, 19010",135086488,"L"
26957,"103 CUYLER ST","NEWARK","NY",14513,43.04475926,-77.081364548,457,"103 CUYLER ST, NEWARK, NY, 14513","Match","Exact","103 CUYLER ST, NEWARK, NY, 14513",14914503,"L"
26958,"103 CYPRESS ST","CENTERTON","AR",72719,36.3688148050001,-94.2851240589999,458,"103 CYPRESS ST, CENTERTON, AR, 72719","Match","Exact","103 CYPRESS ST, CENTERTON, AR, 72719",47878654,"R"
26959,"103 CYPRESS SUNSET DR","BROUSSARD","LA",70518,30.1158780490001,-91.967344858,459,"103 CYPRESS SUNSET DR, BROUSSARD, LA, 70518","Match","Exact","103 CYPRESS SUNSET DR, BROUSSARD, LA, 70518",616281883,"L"
26960,"103 CYRUS AVENUE","PITMAN","NJ",8071,39.739756018,-75.133538873,460,"103 CYRUS AVENUE, PITMAN, NJ, 8071","Match","Exact","103 CYRUS AVE, PITMAN, NJ, 08071",134585843,"R"
26961,"103 D SINGLETON AVENUE","ALAMEDA","CA",94501,37.7869932570001,-122.288775421,461,"103 D SINGLETON AVENUE, ALAMEDA, CA, 94501","Match","Exact","103 SINGLETON AVE, ALAMEDA, CA, 94501",125066852,"L"
26962,"103 DAHLIA STREET","WALTERBORO","SC",29488,32.92715659,-80.676795541,462,"103 DAHLIA STREET, WALTERBORO, SC, 29488","Match","Exact","103 DAHLIA ST, WALTERBORO, SC, 29488",19155484,"L"
26963,"103 DAILEY CT","RADCLIFF","KY",40160,37.8100438970001,-85.908204884,463,"103 DAILEY CT, RADCLIFF, KY, 40160","Match","Exact","103 DAILEY CT, RADCLIFF, KY, 40160",34633879,"L"
26964,"103 DAISEY RD","BEREA","KY",40403,37.648520046,-84.27758464,464,"103 DAISEY RD, BEREA, KY, 40403","Match","Exact","103 DAISEY RD, BEREA, KY, 40403",31991444,"L"
26965,"103 DALE AVE","KANNAPOLIS","NC",28081,35.5028997750001,-80.637593178,465,"103 DALE AVE, KANNAPOLIS, NC, 28081","Match","Exact","103 DALE AVE, KANNAPOLIS, NC, 28081",24895999,"L"
26966,"103 DALE DR","JONESBORO","LA",71251,32.2400580130001,-92.7238438539999,466,"103 DALE DR, JONESBORO, LA, 71251","Match","Exact","103 DALE DR, JONESBORO, LA, 71251",161010099,"R"
26967,"103 DALE DRIVE","CALIFORNIA","MO",65018,38.6329295150001,-92.5763590879999,467,"103 DALE DRIVE, CALIFORNIA, MO, 65018","Match","Non_Exact","103 DALE LN, CALIFORNIA, MO, 65018",623950348,"L"
26968,"103 DANIELS STREET","CARTERET","NJ",7008,NA,NA,468,"103 DANIELS STREET, CARTERET, NJ, 7008","No_Match",NA,NA,NA,NA
26969,"103 DARTMOUTH STREET","TRENTON","OH",45067,39.492769341,-84.459012937,469,"103 DARTMOUTH STREET, TRENTON, OH, 45067","Match","Exact","103 DARTMOUTH ST, TRENTON, OH, 45067",113820089,"R"
26970,"103 DAVIS RD","LEAGUE CITY","TX",77573,29.529549119,-95.072658839,470,"103 DAVIS RD, LEAGUE CITY, TX, 77573","Match","Exact","103 DAVIS RD, LEAGUE CITY, TX, 77573",96682785,"L"
26971,"103 DAVIS ST","AUBURNDALE","FL",33823,28.066423808,-81.797803867,471,"103 DAVIS ST, AUBURNDALE, FL, 33823","Match","Exact","103 DAVIS ST, AUBURNDALE, FL, 33823",104816765,"L"
26972,"103 DAW DR","LA GRANGE","NC",28551,35.404513824,-77.832404654,472,"103 DAW DR, LA GRANGE, NC, 28551","Match","Exact","103 DAW DR, LA GRANGE, NC, 28551",14424369,"L"
26973,"103 DAWN PLACE","BRISTOL","VA",24201,36.6160492160001,-82.148710766,473,"103 DAWN PLACE, BRISTOL, VA, 24201","Match","Exact","103 DAWN PL, BRISTOL, VA, 24201",154348416,"R"
26974,"103 DEAN FARM ROAD","JAFFREY","NH",3452,42.835607483,-72.012500484,474,"103 DEAN FARM ROAD, JAFFREY, NH, 3452","Match","Exact","103 DEAN FARM RD, JAFFREY, NH, 03452",124074550,"L"
26975,"103 DEAN RIDGE COURT","CRANSTON","RI",2920,41.7626110690001,-71.4719619489999,475,"103 DEAN RIDGE COURT, CRANSTON, RI, 2920","Match","Non_Exact","103 DEAN RIDGE DR, CRANSTON, RI, 02920",624067623,"L"
26976,"103 DEBBIE DRIVE","VINE GROVE","KY",40175,37.816031767,-85.995711512,476,"103 DEBBIE DRIVE, VINE GROVE, KY, 40175","Match","Exact","103 DEBBIE DR, VINE GROVE, KY, 40175",34616925,"L"
26977,"103 DEBRA ANN DRIVE","MOUNTAIN HOME","TX",78058,30.185940519,-99.309587414,477,"103 DEBRA ANN DRIVE, MOUNTAIN HOME, TX, 78058","Match","Exact","103 DEBRA ANN DR, MOUNTAIN HOME, TX, 78058",636860414,"L"
26978,"103 DEBRA ANN","MT HOME","TX",78028,NA,NA,478,"103 DEBRA ANN, MT HOME, TX, 78028","No_Match",NA,NA,NA,NA
26979,"103 DEEPDALE RD","WAYNE","PA",19087,40.053672034,-75.400504916,479,"103 DEEPDALE RD, WAYNE, PA, 19087","Match","Exact","103 DEEPDALE RD, WAYNE, PA, 19087",179539281,"R"
26980,"103 DEER CREEK CROSSING","KENNET SQUARE","PA",19348,39.8536504590001,-75.744588694,480,"103 DEER CREEK CROSSING, KENNET SQUARE, PA, 19348","Match","Non_Exact","103 DEER CREEK CROSSING, KENNETT SQUARE, PA, 19348",179515652,"R"
26981,"103 DEERFIELD ROAD APT B","ELKTON","MD",21921,39.6314836290001,-75.803076719,481,"103 DEERFIELD ROAD APT B, ELKTON, MD, 21921","Match","Exact","103 DEERFIELD RD, ELKTON, MD, 21921",187389141,"L"
26982,"103 DEERWOOD CROSSING","CANTON","MS",39046,32.5449203950001,-90.10914156,482,"103 DEERWOOD CROSSING, CANTON, MS, 39046","Match","Exact","103 DEERWOOD CROSSING, CANTON, MS, 39046",652217657,"R"
26983,"103 DEKALB DRIVE","GREER","SC",29651,NA,NA,483,"103 DEKALB DRIVE, GREER, SC, 29651","No_Match",NA,NA,NA,NA
26984,"103 DELPHINE ST","LAFAYETTE","LA",70506,30.2063698580001,-92.060593589,484,"103 DELPHINE ST, LAFAYETTE, LA, 70506","Match","Exact","103 DELPHINE ST, LAFAYETTE, LA, 70506",85612468,"R"
26985,"103 DELTA BLUES","INDIANOLA","MS",38751,33.4364212620001,-90.642994174,485,"103 DELTA BLUES, INDIANOLA, MS, 38751","Match","Non_Exact","103 DELTA BLUES ST, INDIANOLA, MS, 38751",2735449,"R"
26986,"103 DEPOT STREET","GREER","SC",29651,34.9376801500001,-82.225172447,486,"103 DEPOT STREET, GREER, SC, 29651","Match","Exact","103 DEPOT ST, GREER, SC, 29651",38311060,"L"
26987,"103 DERRY HILL RD","UNCASVILLE","CT",6382,41.460007664,-72.095836182,487,"103 DERRY HILL RD, UNCASVILLE, CT, 6382","Match","Exact","103 DERRY HILL RD, UNCASVILLE, CT, 06382",56841083,"R"
26988,"103 DESIRABLE LANE","MONROE","LA",71203,32.524336571,-91.956505196,488,"103 DESIRABLE LANE, MONROE, LA, 71203","Match","Exact","103 DESIRABLE LN, MONROE, LA, 71203",624306944,"L"
26989,"103 DESOTO DR","NASHVILLE","TN",37210,36.1246415900001,-86.730197683,489,"103 DESOTO DR, NASHVILLE, TN, 37210","Match","Exact","103 DESOTO DR, NASHVILLE, TN, 37210",97205420,"L"
26990,"103 DEWALT RD","NEWARK","DE",19711,39.714332336,-75.707332068,490,"103 DEWALT RD, NEWARK, DE, 19711","Match","Exact","103 DEWALT RD, NEWARK, DE, 19711",187263975,"R"
26991,"103 DICKINSON BAYOU COVE","HUTTO","TX",78634,NA,NA,491,"103 DICKINSON BAYOU COVE, HUTTO, TX, 78634","No_Match",NA,NA,NA,NA
26992,"103 DOCK STREET","UNION BEACH","NJ",7735,40.454262795,-74.1749910079999,492,"103 DOCK STREET, UNION BEACH, NJ, 7735","Match","Exact","103 DOCK ST, UNION BEACH, NJ, 07735",90589761,"R"
26993,"103 DODD ST","EAST ORANGE","NJ",7017,40.781071307,-74.206763617,493,"103 DODD ST, EAST ORANGE, NJ, 7017","Match","Exact","103 DODD ST, EAST ORANGE, NJ, 07017",63450894,"L"
26994,"103 DOGWOOD CIRCLE","MONROE","NC",28110,35.029300048,-80.57034351,494,"103 DOGWOOD CIRCLE, MONROE, NC, 28110","Match","Exact","103 DOGWOOD CIR, MONROE, NC, 28110",14181607,"L"
26995,"103 DONNIE DR APT 2","BLOOMINGTON","IL",61704,NA,NA,495,"103 DONNIE DR APT 2, BLOOMINGTON, IL, 61704","No_Match",NA,NA,NA,NA
26996,"103 DORSET POINT","CHAPEL HILL","NC",27516,35.8954715630001,-79.067252493,496,"103 DORSET POINT, CHAPEL HILL, NC, 27516","Match","Non_Exact","103 DORSET PL, CHAPEL HILL, NC, 27516",72387800,"L"
26997,"103 DORSEY AVENUE","DEFUNIAK SPRINGS","FL",32435,30.720363633,-86.1002420039999,497,"103 DORSEY AVENUE, DEFUNIAK SPRINGS, FL, 32435","Match","Exact","103 DORSEY AVE, DEFUNIAK SPRINGS, FL, 32435",636391141,"R"
26998,"103 DOWNING COURT","BOSSIER CITY","LA",71111,32.5689842690001,-93.7129686339999,498,"103 DOWNING COURT, BOSSIER CITY, LA, 71111","Match","Exact","103 DOWNING CT, BOSSIER CITY, LA, 71111",108522311,"L"
26999,"103 DREW LN","CARMEL","NY",10512,41.3861333,-73.6678688,499,"103 DREW LN, CARMEL, NY, 10512","Match","Exact","103 DREW LN, CARMEL, NY, 10512",642865890,"L"
27000,"103 DRUID COURT","DANVILLE","VA",24541,36.562331015,-79.4228556579999,500,"103 DRUID COURT, DANVILLE, VA, 24541","Match","Exact","103 DRUID CT, DANVILLE, VA, 24541",56588624,"L"
