"ID","Address","City","State","Zip","lat","long","id","input_address","match_indicator","match_type","matched_address","tiger_line_id","tiger_side"
316501,"20200 SHERMAN WAY APT 207","WINNETKA","CA",91306,34.200941121,-118.57319111,1,"20200 SHERMAN WAY APT 207, WINNETKA, CA, 91306","Match","Exact","20200 SHERMAN WAY, WINNETKA, CA, 91306",141553404,"L"
316502,"20200 SMOKEY RD","FRENCHTOWN","MT",59834,47.062698374,-114.280030824,2,"20200 SMOKEY RD, FRENCHTOWN, MT, 59834","Match","Exact","20200 SMOKEY RD, FRENCHTOWN, MT, 59834",205270483,"L"
316503,"20200 SMOKEY ROAD","FRENCHTOWN","MT",59834,47.062698374,-114.280030824,3,"20200 SMOKEY ROAD, FRENCHTOWN, MT, 59834","Match","Exact","20200 SMOKEY RD, FRENCHTOWN, MT, 59834",205270483,"L"
316504,"20200 WEST DIXIE HWY STE 902","AVENTURA","FL",33180,25.962808824,-80.147658223,4,"20200 WEST DIXIE HWY STE 902, AVENTURA, FL, 33180","Match","Exact","20200 W DIXIE HWY, AVENTURA, FL, 33180",116273878,"L"
316505,"20200 WESTMORELAND","DETROIT","MI",48219,42.440526844,-83.2368335959999,5,"20200 WESTMORELAND, DETROIT, MI, 48219","Match","Non_Exact","20200 WESTMORELAND RD, DETROIT, MI, 48219",95421693,"R"
316506,"20201 116TH AVE","ST ALBANS","NY",11412,NA,NA,6,"20201 116TH AVE, ST ALBANS, NY, 11412","No_Match",NA,NA,NA,NA
316507,"20201 BARNETT GLEN RD","SPICEWOOD","TX",78669,30.3664267080001,-98.036833848,7,"20201 BARNETT GLEN RD, SPICEWOOD, TX, 78669","Match","Exact","20201 BARNETT GLEN RD, SPICEWOOD, TX, 78669",63966261,"R"
316508,"20201 E COUNTRY CLUB DR APT 2701","MIAMI","FL",33180,25.9644488170001,-80.126546949,8,"20201 E COUNTRY CLUB DR APT 2701, MIAMI, FL, 33180","Match","Non_Exact","20201 E COUNTRY CLUB DR, MIAMI, FL, 33180",610862269,"R"
316509,"20201 EAST COUNTRY CLUB DRIVE","AVENTURA","FL",33180,25.9644488170001,-80.126546949,9,"20201 EAST COUNTRY CLUB DRIVE, AVENTURA, FL, 33180","Match","Exact","20201 E COUNTRY CLUB DR, AVENTURA, FL, 33180",610862269,"R"
316510,"20201 FRONT STREET NE","POULSBO","WA",98370,47.746197818,-122.650598793,10,"20201 FRONT STREET NE, POULSBO, WA, 98370","Match","Exact","20201 FRONT ST NE, POULSBO, WA, 98370",636490505,"L"
316511,"20201 HUNTINGTON RD","DETROIT","MI",48219,42.4405784630001,-83.2344164149999,11,"20201 HUNTINGTON RD, DETROIT, MI, 48219","Match","Exact","20201 HUNTINGTON RD, DETROIT, MI, 48219",95421708,"L"
316512,"20201 HUNTINGTON","DETROIT","MI",48219,42.4405784630001,-83.2344164149999,12,"20201 HUNTINGTON, DETROIT, MI, 48219","Match","Non_Exact","20201 HUNTINGTON RD, DETROIT, MI, 48219",95421708,"L"
316513,"20201 NE 29TH CT STE D213","AVENTURA","FL",33180,25.962868524,-80.142456808,13,"20201 NE 29TH CT STE D213, AVENTURA, FL, 33180","Match","Non_Exact","20201 NE 29TH CT, AVENTURA, FL, 33180",629024288,"R"
316514,"20201 NW 9TH DR","PEMBROKE PINES","FL",33029,26.0151259460001,-80.416728034,14,"20201 NW 9TH DR, PEMBROKE PINES, FL, 33029","Match","Exact","20201 NW 9TH DR, PEMBROKE PINES, FL, 33029",114771223,"L"
316515,"20201 PLYMOUTH RD APT 1004","DETROIT","MI",48228,42.3718680580001,-83.238348555,15,"20201 PLYMOUTH RD APT 1004, DETROIT, MI, 48228","Match","Exact","20201 PLYMOUTH RD, DETROIT, MI, 48228",95438785,"L"
316516,"20201 SHERMAN WAY STE 107","WINNETKA","CA",91306,34.2011892580001,-118.573191125,16,"20201 SHERMAN WAY STE 107, WINNETKA, CA, 91306","Match","Non_Exact","20201 W SHERMAN WAY, WINNETKA, CA, 91306",241188405,"R"
316517,"20202 MAHOGANY CIRCLE","HAGERSTOWN","MD",21742,39.6207354750001,-77.6675644749999,17,"20202 MAHOGANY CIRCLE, HAGERSTOWN, MD, 21742","Match","Exact","20202 MAHOGANY CIR, HAGERSTOWN, MD, 21742",60798477,"R"
316518,"20202 PLANTATION ROAD","LEWES","DE",19958,38.7420826920001,-75.168575608,18,"20202 PLANTATION ROAD, LEWES, DE, 19958","Match","Exact","20202 PLANTATION RD, LEWES, DE, 19958",106087768,"R"
316519,"20202 QUAIL RUN DR","DUNNELLON","FL",34432,29.0535174680001,-82.454445267,19,"20202 QUAIL RUN DR, DUNNELLON, FL, 34432","Match","Exact","20202 QUAIL RUN DR, DUNNELLON, FL, 34432",116791350,"L"
316520,"20202 SPRING HAVEN COURT","MONTGOMERY VILLAGE","MD",20886,39.188807899,-77.190975072,20,"20202 SPRING HAVEN COURT, MONTGOMERY VILLAGE, MD, 20886","Match","Exact","20202 SPRING HAVEN CT, MONTGOMERY VILLAGE, MD, 20886",62050171,"R"
316521,"20203 77TH ST CT E","BONNEY LAKE","WA",98391,47.187453814,-122.159532938,21,"20203 77TH ST CT E, BONNEY LAKE, WA, 98391","Match","Exact","20203 77TH STREET CT E, BONNEY LAKE, WA, 98391",647938400,"L"
316522,"20203 CORTINA VALLEY DR","CYPRESS","TX",77433,29.902609618,-95.7167860279999,22,"20203 CORTINA VALLEY DR, CYPRESS, TX, 77433","Match","Exact","20203 CORTINA VALLEY DR, CYPRESS, TX, 77433",626962337,"R"
316523,"20203 GOSHEN RD 146","GAITHERSBURG","MD",20879,39.1879552500001,-77.1866855919999,23,"20203 GOSHEN RD 146, GAITHERSBURG, MD, 20879","Match","Exact","20203 GOSHEN RD, GAITHERSBURG, MD, 20879",62050241,"L"
316524,"20203 RUSTY ROCK LN","CYPRESS","TX",77433,29.900838575,-95.7170094269999,24,"20203 RUSTY ROCK LN, CYPRESS, TX, 77433","Match","Exact","20203 RUSTY ROCK LN, CYPRESS, TX, 77433",626962189,"R"
316525,"20203 SAINT ANDREWS DRIVE","OLYMPIA FIELDS","IL",60461,41.5222394190001,-87.678647225,25,"20203 SAINT ANDREWS DRIVE, OLYMPIA FIELDS, IL, 60461","Match","Exact","20203 SAINT ANDREWS DR, OLYMPIA FIELDS, IL, 60461",635485376,"L"
316526,"20203 W 93RD ST","LENEXA","KS",66220,38.9598574820001,-94.820166238,26,"20203 W 93RD ST, LENEXA, KS, 66220","Match","Exact","20203 W 93RD ST, LENEXA, KS, 66220",91315129,"R"
316527,"20204 15TH AVE S","SEATAC","WA",98198,47.42073516,-122.31450503,27,"20204 15TH AVE S, SEATAC, WA, 98198","Match","Exact","20204 15TH AVE S, SEATAC, WA, 98198",186627457,"L"
316528,"20204 195TH AVE E","ORTING","WA",98360,47.0740816310001,-122.171364182,28,"20204 195TH AVE E, ORTING, WA, 98360","Match","Exact","20204 195TH AVE E, ORTING, WA, 98360",632272320,"R"
316529,"20204 ALEXA","WALLED LAKE","MI",48390,42.5360538560001,-83.4646632819999,29,"20204 ALEXA, WALLED LAKE, MI, 48390","Match","Non_Exact","20204 ALEXA DR, WALLED LAKE, MI, 48390",624208698,"R"
316530,"20204 COX ROAD","SUTHERLAND","VA",23885,37.195403861,-77.5557023069999,30,"20204 COX ROAD, SUTHERLAND, VA, 23885","Match","Exact","20204 COX RD, SUTHERLAND, VA, 23885",54170114,"R"
316531,"20204 GLEN RUSS LANE","EUCLID","OH",44117,41.552418726,-81.538237997,31,"20204 GLEN RUSS LANE, EUCLID, OH, 44117","Match","Exact","20204 GLEN RUSS LN, EUCLID, OH, 44117",61144416,"L"
316532,"20204 LAUREL RD","SOUTH CHESTERFEILD","VA",23803,37.246613332,-77.427833704,32,"20204 LAUREL RD, SOUTH CHESTERFEILD, VA, 23803","Match","Non_Exact","20204 LAUREL RD, SOUTH CHESTERFIELD, VA, 23803",625164245,"R"
316533,"20204 W GOODWIN RD","REEDSVILLE","WI",54230,44.1385054400001,-87.970672507,33,"20204 W GOODWIN RD, REEDSVILLE, WI, 54230","Match","Exact","20204 W GOODWIN RD, REEDSVILLE, WI, 54230",147955926,"R"
316534,"20205 2ND AVE SW","NORMANDY PARK","WA",98166,47.4207889100001,-122.337733886,34,"20205 2ND AVE SW, NORMANDY PARK, WA, 98166","Match","Exact","20205 2ND AVE SW, NORMANDY PARK, WA, 98166",629178940,"R"
316535,"20205 48TH CIRCLE","VANCOUVER","WA",98682,45.6571131920001,-122.465920962,35,"20205 48TH CIRCLE, VANCOUVER, WA, 98682","Match","Non_Exact","20205 NE 48TH CIR, VANCOUVER, WA, 98682",158353071,"R"
316536,"20205 JENNIFER COURT","CANYON COUNTRY","CA",91351,34.411618769,-118.48813935,36,"20205 JENNIFER COURT, CANYON COUNTRY, CA, 91351","Match","Exact","20205 JENNIFER CT, CANYON COUNTRY, CA, 91351",141853877,"R"
316537,"20205 MALLARD WAY","ROGERS","MN",55374,45.2075533990001,-93.5361651969999,37,"20205 MALLARD WAY, ROGERS, MN, 55374","Match","Exact","20205 MALLARD WAY, ROGERS, MN, 55374",43853464,"L"
316538,"20205 NORTH CREEK PARKWAY","BOTHELL","WA",98011,47.7742056870001,-122.187023185,38,"20205 NORTH CREEK PARKWAY, BOTHELL, WA, 98011","Match","Exact","20205 N CREEK PKWY, BOTHELL, WA, 98011",642836687,"R"
316539,"20205 S SPRUCE STREET","KENNEWICK","WA",99336,46.1798670250001,-119.091730783,39,"20205 S SPRUCE STREET, KENNEWICK, WA, 99336","Match","Non_Exact","20205 S SPRUCE ST, KENNEWICK, WA, 99337",174993713,"L"
316540,"20205 S SPRUCE STREET","KENNEWICK","WA",99337,46.1798670250001,-119.091730783,40,"20205 S SPRUCE STREET, KENNEWICK, WA, 99337","Match","Exact","20205 S SPRUCE ST, KENNEWICK, WA, 99337",174993713,"L"
316541,"20205 SHAKERWOOD ROAD","WARRENSVILLE HEIGHTS","OH",44122,41.4549090130001,-81.537614981,41,"20205 SHAKERWOOD ROAD, WARRENSVILLE HEIGHTS, OH, 44122","Match","Exact","20205 SHAKERWOOD RD, WARRENSVILLE HEIGHTS, OH, 44122",61129081,"L"
316542,"20205 SHIPLEY TERRACE","GERMANTOWN","MD",20874,39.186753428,-77.274790184,42,"20205 SHIPLEY TERRACE, GERMANTOWN, MD, 20874","Match","Exact","20205 SHIPLEY TER, GERMANTOWN, MD, 20874",647249453,"R"
316543,"20205 SPOTSWOOD TRAIL","ELKTON","VA",22827,38.3673408770001,-78.579800055,43,"20205 SPOTSWOOD TRAIL, ELKTON, VA, 22827","Match","Exact","20205 SPOTSWOOD TRL, ELKTON, VA, 22827",647661907,"L"
316544,"20205 W BURT RD","BRANT","MI",48614,43.229463018,-84.3111238829999,44,"20205 W BURT RD, BRANT, MI, 48614","Match","Exact","20205 W BURT RD, BRANT, MI, 48614",80221140,"R"
316545,"20205N E 104 AVE","BATTLEGRUOND","WA",98604,45.767639419,-122.566167996,45,"20205N E 104 AVE, BATTLEGRUOND, WA, 98604","Match","Non_Exact","20205 NE 104TH AVE, BATTLE GROUND, WA, 98604",158363888,"R"
316546,"20206 COOPERS GULCH TRAIL","KATY","TX",77449,29.8591931710001,-95.724255001,46,"20206 COOPERS GULCH TRAIL, KATY, TX, 77449","Match","Exact","20206 COOPERS GULCH TRL, KATY, TX, 77449",624657981,"L"
316547,"20206 FAIRFIELD TRACE DR","CYPRESS","TX",77433,30.0091228040001,-95.7405796639999,47,"20206 FAIRFIELD TRACE DR, CYPRESS, TX, 77433","Match","Exact","20206 FAIRFIELD TRACE DR, CYPRESS, TX, 77433",96167778,"R"
316548,"20206 NE 166TH ST","WOODINVILLE","WA",98077,47.748537162,-122.067809202,48,"20206 NE 166TH ST, WOODINVILLE, WA, 98077","Match","Exact","20206 NE 166TH ST, WOODINVILLE, WA, 98077",239777078,"R"
316549,"20206 SILO LANE","ZUNI","VA",23898,36.8650968580001,-76.830516181,49,"20206 SILO LANE, ZUNI, VA, 23898","Match","Exact","20206 SILO LN, ZUNI, VA, 23898",198639983,"R"
316550,"20207 84TH AVENUE WEST","EDMONDS","WA",98026,47.815916756,-122.346808087,50,"20207 84TH AVENUE WEST, EDMONDS, WA, 98026","Match","Exact","20207 84TH AVE W, EDMONDS, WA, 98026",187777210,"L"
316551,"20207 E 8TH AVE","GREENACRES","WA",99016,47.6495886500001,-117.133421686,51,"20207 E 8TH AVE, GREENACRES, WA, 99016","Match","Exact","20207 E 8TH AVE, GREENACRES, WA, 99016",189891629,"L"
316552,"20207 NE 50TH AVE","RIDGEFIELD","WA",98642,NA,NA,52,"20207 NE 50TH AVE, RIDGEFIELD, WA, 98642","No_Match",NA,NA,NA,NA
316553,"20207 OAK PANACHE","SAN ANTONIO","TX",78259,29.629384395,-98.3987584339999,53,"20207 OAK PANACHE, SAN ANTONIO, TX, 78259","Match","Exact","20207 OAK PANACHE, SAN ANTONIO, TX, 78259",645414664,"R"
316554,"20207 PINEHURST TRAIL DRIVE","HUMBLE","TX",77346,30.011076503,-95.163591194,54,"20207 PINEHURST TRAIL DRIVE, HUMBLE, TX, 77346","Match","Exact","20207 PINEHURST TRAIL DR, HUMBLE, TX, 77346",233456413,"R"
316555,"20207 SOLADERA WAY","SANTA CLARITA","CA",91351,34.4159052840001,-118.490530818,55,"20207 SOLADERA WAY, SANTA CLARITA, CA, 91351","Match","Exact","20207 SOLADERA WAY, SANTA CLARITA, CA, 91351",141853902,"L"
316556,"20207 STEVENS WAY","MOUNT LAUREL","NJ",8054,NA,NA,56,"20207 STEVENS WAY, MOUNT LAUREL, NJ, 8054","No_Match",NA,NA,NA,NA
316557,"20207 WATER DANCE CT","CYPRESS","TX",77433,30.0055652460001,-95.7358826619999,57,"20207 WATER DANCE CT, CYPRESS, TX, 77433","Match","Exact","20207 WATER DANCE CT, CYPRESS, TX, 77433",96167802,"R"
316558,"20208 EDDINGTON DRIVE","CARSON","CA",90746,33.8485582750001,-118.257668124,58,"20208 EDDINGTON DRIVE, CARSON, CA, 90746","Match","Exact","20208 EDDINGTON DR, CARSON, CA, 90746",141680628,"L"
316559,"20208 TRALEE DR","PORT CHARLOTTE","FL",33952,27.008660736,-82.115524743,59,"20208 TRALEE DR, PORT CHARLOTTE, FL, 33952","Match","Exact","20208 TRALEE DR, PORT CHARLOTTE, FL, 33952",4288082,"R"
316560,"20209 103rd pl ne","Bothell","WA",98011,47.775216577,-122.203496846,60,"20209 103rd pl ne, Bothell, WA, 98011","Match","Exact","20209 103RD PL NE, BOTHELL, WA, 98011",186598623,"L"
316561,"20209 DAYTON AVE N","SHORELINE","WA",98133,47.7757242120001,-122.353648751,61,"20209 DAYTON AVE N, SHORELINE, WA, 98133","Match","Exact","20209 DAYTON AVE N, SHORELINE, WA, 98133",186670298,"L"
316562,"20209 GREIST RD","STOUTSVILLE","OH",43154,39.6337142140001,-82.855156635,62,"20209 GREIST RD, STOUTSVILLE, OH, 43154","Match","Exact","20209 GREIST RD, STOUTSVILLE, OH, 43154",37459319,"L"
316563,"20209 HILLBORO AVE","CARSON","CA",90746,NA,NA,63,"20209 HILLBORO AVE, CARSON, CA, 90746","No_Match",NA,NA,NA,NA
316564,"20209 LOGGING CREEK TRL","GRANTSBURG","WI",54840,45.6506291110001,-92.7470706189999,64,"20209 LOGGING CREEK TRL, GRANTSBURG, WI, 54840","Match","Exact","20209 LOGGING CREEK TRL, GRANTSBURG, WI, 54840",607268514,"L"
316565,"20209 N 29TH STREET","PHOENIX","AZ",85050,33.670424025,-112.021293731,65,"20209 N 29TH STREET, PHOENIX, AZ, 85050","Match","Exact","20209 N 29TH ST, PHOENIX, AZ, 85050",128580418,"R"
316566,"20209 NE 15 COURT","MIAMI","FL",33179,25.9617216990001,-80.171052693,66,"20209 NE 15 COURT, MIAMI, FL, 33179","Match","Exact","20209 NE 15TH CT, MIAMI, FL, 33179",116034902,"R"
316567,"20209 RIVERCHASE DRIVE","CORNELIUS","NC",28031,35.4914868910001,-80.894329004,67,"20209 RIVERCHASE DRIVE, CORNELIUS, NC, 28031","Match","Exact","20209 RIVERCHASE DR, CORNELIUS, NC, 28031",648379541,"R"
316568,"20209 SHIRE OAK DRIVE","SOUTH CHESTERFIELD","VA",23803,37.247066848,-77.479092636,68,"20209 SHIRE OAK DRIVE, SOUTH CHESTERFIELD, VA, 23803","Match","Exact","20209 SHIRE OAK DR, SOUTH CHESTERFIELD, VA, 23803",201551432,"L"
316569,"20209 WIRT ST","ELKHORN","NE",68022,41.2865096400001,-96.22968635,69,"20209 WIRT ST, ELKHORN, NE, 68022","Match","Exact","20209 WIRT ST, ELKHORN, NE, 68022",651659581,"R"
316570,"2020A 14TH ST N","ARLINGTON","VA",22201,38.889648913,-77.082944335,70,"2020A 14TH ST N, ARLINGTON, VA, 22201","Match","Exact","2020 14TH ST N, ARLINGTON, VA, 22201",76469864,"L"
316571,"2021  SPERRY AVENUE SUITE 24","VENTURA","CA",93003,34.2540639580001,-119.217752176,71,"2021  SPERRY AVENUE SUITE 24, VENTURA, CA, 93003","Match","Exact","2021 SPERRY AVE, VENTURA, CA, 93003",109953642,"R"
316572,"2021 168TH ROAD","GARLAND","NE",68360,40.97915665,-96.9488528809999,72,"2021 168TH ROAD, GARLAND, NE, 68360","Match","Non_Exact","2021 168TH, GARLAND, NE, 68360",39476970,"L"
316573,"2021 201ST PL SE APT 308","BOTHELL","WA",98012,47.8152882750001,-122.2114221,73,"2021 201ST PL SE APT 308, BOTHELL, WA, 98012","Match","Exact","2021 201ST PL SE, BOTHELL, WA, 98012",635560456,"L"
316574,"2021 27TH AVE S -1","MINNEAPOLIS","MN",55406,44.9620674760001,-93.232998929,74,"2021 27TH AVE S -1, MINNEAPOLIS, MN, 55406","Match","Exact","2021 27TH AVE S, MINNEAPOLIS, MN, 55406",624940517,"L"
316575,"2021 48TH STREET","ASTORIA","NY",11105,NA,NA,75,"2021 48TH STREET, ASTORIA, NY, 11105","No_Match",NA,NA,NA,NA
316576,"2021 4TH AVE","LOS ANGELES","CA",90018,34.038776678,-118.321264216,76,"2021 4TH AVE, LOS ANGELES, CA, 90018","Match","Exact","2021 4TH AVE, LOS ANGELES, CA, 90018",141605563,"R"
316577,"2021 4TH NW APT 4","ARDMORE","OK",73401,34.180212156,-97.154174433,77,"2021 4TH NW APT 4, ARDMORE, OK, 73401","Match","Non_Exact","2021 4TH AVE NW, ARDMORE, OK, 73401",615073081,"R"
316578,"2021 4TH STREE SW","MASON CITY","IA",52601,NA,NA,78,"2021 4TH STREE SW, MASON CITY, IA, 52601","No_Match",NA,NA,NA,NA
316579,"2021 4TH STREET NE","WASHINGTON","DC",20002,38.9175066970001,-77.0005598669999,79,"2021 4TH STREET NE, WASHINGTON, DC, 20002","Match","Exact","2021 4TH ST NE, WASHINGTON, DC, 20002",76228634,"R"
316580,"2021 69TH AVE SE","TUMWATER","WA",98501,46.9860541680001,-122.873405974,80,"2021 69TH AVE SE, TUMWATER, WA, 98501","Match","Exact","2021 69TH AVE SE, TUMWATER, WA, 98501",624796829,"L"
316581,"2021 8TH STREET","EAST MOLINE","IL",61244,41.511680895,-90.441768254,81,"2021 8TH STREET, EAST MOLINE, IL, 61244","Match","Exact","2021 8TH ST, EAST MOLINE, IL, 61244",9215078,"R"
316582,"2021 ALAMEDA STREET APT 910","NORMAN","OK",73071,35.218359461,-97.4115431179999,82,"2021 ALAMEDA STREET APT 910, NORMAN, OK, 73071","Match","Exact","2021 ALAMEDA ST, NORMAN, OK, 73071",99942255,"L"
316583,"2021 ALBION ST","DENVER","CO",80207,39.7477010710001,-104.939466467,83,"2021 ALBION ST, DENVER, CO, 80207","Match","Exact","2021 ALBION ST, DENVER, CO, 80207",177311172,"L"
316584,"2021 ALDRICH AVE","BOONE","IA",50036,42.05358067,-93.869083568,84,"2021 ALDRICH AVE, BOONE, IA, 50036","Match","Exact","2021 ALDRICH AVE, BOONE, IA, 50036",64936308,"R"
316585,"2021 ARCH ST","PHILADELPHIA","PA",19103,39.9556723530001,-75.173244142,85,"2021 ARCH ST, PHILADELPHIA, PA, 19103","Match","Exact","2021 ARCH ST, PHILADELPHIA, PA, 19103",131459774,"R"
316586,"2021 ARCH STREET","PHILADELPHIA","PA",19103,39.9556723530001,-75.173244142,86,"2021 ARCH STREET, PHILADELPHIA, PA, 19103","Match","Exact","2021 ARCH ST, PHILADELPHIA, PA, 19103",131459774,"R"
316587,"2021 ASHLEY DR","GLADEWATER","TX",75647,32.550925265,-94.892878958,87,"2021 ASHLEY DR, GLADEWATER, TX, 75647","Match","Non_Exact","2021 ASHLEY LN, GLADEWATER, TX, 75647",141117871,"R"
316588,"2021 B APPLE VALLEY RD","COLUMBIA","SC",29210,NA,NA,88,"2021 B APPLE VALLEY RD, COLUMBIA, SC, 29210","No_Match",NA,NA,NA,NA
316589,"2021 B WEST CARY STREET","RICHMOND","VA",23220,37.5482232320001,-77.466842637,89,"2021 B WEST CARY STREET, RICHMOND, VA, 23220","Match","Exact","2021 W CARY ST, RICHMOND, VA, 23220",201536175,"L"
316590,"2021 BARKWOOD CT","MOBILE","AL",36609,30.64914523,-88.186607983,90,"2021 BARKWOOD CT, MOBILE, AL, 36609","Match","Exact","2021 BARKWOOD CT, MOBILE, AL, 36609",61929022,"L"
316591,"2021 BECK ST","SIOUX CITY","IA",51109,42.5139172550001,-96.487124071,91,"2021 BECK ST, SIOUX CITY, IA, 51109","Match","Exact","2021 BECK ST, SIOUX CITY, IA, 51109",93419513,"L"
316592,"2021 BELLEFONTAINE STREET","INDIANAPOLIS","IN",46202,39.7944668650001,-86.1423524369999,92,"2021 BELLEFONTAINE STREET, INDIANAPOLIS, IN, 46202","Match","Exact","2021 BELLEFONTAINE ST, INDIANAPOLIS, IN, 46202",107990497,"R"
316593,"2021 BENT TWIG ROAD","EDMOND","OK",73013,35.632288519,-97.457885257,93,"2021 BENT TWIG ROAD, EDMOND, OK, 73013","Match","Exact","2021 BENT TWIG RD, EDMOND, OK, 73013",100410594,"R"
316594,"2021 BRIDGER DRIVE","BOZEMAN","MT",59715,45.7026726460001,-111.009435258,94,"2021 BRIDGER DRIVE, BOZEMAN, MT, 59715","Match","Exact","2021 BRIDGER DR, BOZEMAN, MT, 59715",640968329,"L"
316595,"2021 BROOKS DRIVE 704","DISTRICT HEIGHTS","MD",20747,38.864830496,-76.916282993,95,"2021 BROOKS DRIVE 704, DISTRICT HEIGHTS, MD, 20747","Match","Exact","2021 BROOKS DR, DISTRICT HEIGHTS, MD, 20747",76349183,"R"
316596,"2021 BROWN STREET","LITTLE ROCK","AR",72204,34.732649506,-92.3105424829999,96,"2021 BROWN STREET, LITTLE ROCK, AR, 72204","Match","Exact","2021 BROWN ST, LITTLE ROCK, AR, 72204",83509417,"L"
316597,"2021 CARPENTER DRIVE","CINCINNATI","OH",45239,39.216594307,-84.562045382,97,"2021 CARPENTER DRIVE, CINCINNATI, OH, 45239","Match","Exact","2021 CARPENTER DR, CINCINNATI, OH, 45239",103920616,"L"
316598,"2021 CENTRE AVE","PITTSBURGH","PA",15219,40.443920103,-79.979909396,98,"2021 CENTRE AVE, PITTSBURGH, PA, 15219","Match","Exact","2021 CENTRE AVE, PITTSBURGH, PA, 15219",51635810,"L"
316599,"2021 CENTRE AVENUE","PITTSBURGH","PA",15219,40.443920103,-79.979909396,99,"2021 CENTRE AVENUE, PITTSBURGH, PA, 15219","Match","Exact","2021 CENTRE AVE, PITTSBURGH, PA, 15219",51635810,"L"
316600,"2021 CHANDLER","COLUMBIA","SC",29210,34.0496743690001,-81.086368334,100,"2021 CHANDLER, COLUMBIA, SC, 29210","Match","Non_Exact","2021 CHANDLER AVE, COLUMBIA, SC, 29210",71817282,"L"
316601,"2021 CHEROKEE DRIVE","ESTES PARK","CO",80517,40.3471255040001,-105.522597246,101,"2021 CHEROKEE DRIVE, ESTES PARK, CO, 80517","Match","Exact","2021 CHEROKEE DR, ESTES PARK, CO, 80517",634462711,"R"
316602,"2021 CHESTNUT ST 507","PHILADELPHIA","PA",19103,39.952118064,-75.1739690329999,102,"2021 CHESTNUT ST 507, PHILADELPHIA, PA, 19103","Match","Exact","2021 CHESTNUT ST, PHILADELPHIA, PA, 19103",639163652,"R"
316603,"2021 CICERO AVE","BRONX","FL",10473,NA,NA,103,"2021 CICERO AVE, BRONX, FL, 10473","No_Match",NA,NA,NA,NA
316604,"2021 CLEARVIEW DR","MIDLOTHIAN","TX",76065,32.463317175,-97.0102550559999,104,"2021 CLEARVIEW DR, MIDLOTHIAN, TX, 76065","Match","Exact","2021 CLEARVIEW DR, MIDLOTHIAN, TX, 76065",642835406,"R"
316605,"2021 CLINTON AVE APT C","ALAMEDA","CA",94501,37.7638142050001,-122.25491267,105,"2021 CLINTON AVE APT C, ALAMEDA, CA, 94501","Match","Exact","2021 CLINTON AVE, ALAMEDA, CA, 94501",606851993,"L"
316606,"2021 CLUBHOUSE DRIVE STE 100","GREELEY","CO",80634,40.4058115120001,-104.76833414,106,"2021 CLUBHOUSE DRIVE STE 100, GREELEY, CO, 80634","Match","Exact","2021 CLUBHOUSE DR, GREELEY, CO, 80634",188674130,"R"
316607,"2021 COLDWATER CT","INDIANAPOLIS","IN",46239,39.7414269810001,-86.0287567299999,107,"2021 COLDWATER CT, INDIANAPOLIS, IN, 46239","Match","Exact","2021 COLDWATER CT, INDIANAPOLIS, IN, 46239",108030054,"L"
316608,"2021 COMMONWEALTH AVE UNIT B","BOSTON","MA",2135,42.3400128970001,-71.15939573,108,"2021 COMMONWEALTH AVE UNIT B, BOSTON, MA, 2135","Match","Exact","2021 COMMONWEALTH AVE, BOSTON, MA, 02135",85741679,"L"
316609,"2021 CONTINENTAL AVE","HAYWARD","CA",94545,37.643033895,-122.116440822,109,"2021 CONTINENTAL AVE, HAYWARD, CA, 94545","Match","Exact","2021 CONTINENTAL AVE, HAYWARD, CA, 94545",125056041,"L"
316610,"2021 COPCO RD","HORNBROOK","CA",96044,41.8976530200001,-122.52955235,110,"2021 COPCO RD, HORNBROOK, CA, 96044","Match","Exact","2021 COPCO RD, HORNBROOK, CA, 96044",113217398,"L"
316611,"2021 COPPER LEAF PARKWAY APT 304","DURHAM","NC",27703,35.946965375,-78.823746931,111,"2021 COPPER LEAF PARKWAY APT 304, DURHAM, NC, 27703","Match","Non_Exact","2021 COPPER LEAF WAY, DURHAM, NC, 27703",651394645,"R"
316612,"2021 COUNTRY ACRES ROAD","VENUS","TX",76084,32.3529510280001,-97.046466946,112,"2021 COUNTRY ACRES ROAD, VENUS, TX, 76084","Match","Exact","2021 COUNTRY ACRES RD, VENUS, TX, 76084",625664575,"L"
316613,"2021 CTY HWY 22","RICHFIELD SPRINGS","NY",13439,42.803788981,-74.9992067279999,113,"2021 CTY HWY 22, RICHFIELD SPRINGS, NY, 13439","Match","Exact","2021 CO HWY 22, RICHFIELD SPRINGS, NY, 13439",125923763,"L"
316614,"2021 CUNNINGHAM DRIVE SUITE 216","HAMPTON","VA",23666,37.046521011,-76.382238516,114,"2021 CUNNINGHAM DRIVE SUITE 216, HAMPTON, VA, 23666","Match","Exact","2021 CUNNINGHAM DR, HAMPTON, VA, 23666",103808546,"L"
316615,"2021 CUNNINGHAM DRIVE SUITE 3","HAMPTON","VA",23666,37.046521011,-76.382238516,115,"2021 CUNNINGHAM DRIVE SUITE 3, HAMPTON, VA, 23666","Match","Exact","2021 CUNNINGHAM DR, HAMPTON, VA, 23666",103808546,"L"
316616,"2021 DEER HAVEN DR","MENASHA","WI",54952,44.2225835790001,-88.399368922,116,"2021 DEER HAVEN DR, MENASHA, WI, 54952","Match","Exact","2021 DEER HAVEN DR, MENASHA, WI, 54952",74805143,"R"
316617,"2021 DELAWARE DRIVE","STAFFORD","VA",22554,38.4661068250001,-77.387609487,117,"2021 DELAWARE DRIVE, STAFFORD, VA, 22554","Match","Exact","2021 DELAWARE DR, STAFFORD, VA, 22554",647901712,"L"
316618,"2021 DILTON MANKIN RD","MURFREESBORO","TN",37127,35.7911002650001,-86.325001194,118,"2021 DILTON MANKIN RD, MURFREESBORO, TN, 37127","Match","Exact","2021 DILTON MANKIN RD, MURFREESBORO, TN, 37127",636647287,"R"
316619,"2021 DUBLIN-GRANVILLE ROAD STE 230","COLUMBUS","OH",43229,40.0866231370001,-82.96296284,119,"2021 DUBLIN-GRANVILLE ROAD STE 230, COLUMBUS, OH, 43229","Match","Non_Exact","2021 E DUBLIN GRANVILLE RD, COLUMBUS, OH, 43229",640023332,"R"
316620,"2021 E 1ST ST","DULUTH","MN",55812,46.8068939770001,-92.074093971,120,"2021 E 1ST ST, DULUTH, MN, 55812","Match","Exact","2021 E 1ST ST, DULUTH, MN, 55812",163212536,"L"
316621,"2021 E 71ST ST","TULSA","OK",74136,36.0607980340001,-95.961709097,121,"2021 E 71ST ST, TULSA, OK, 74136","Match","Exact","2021 E 71ST ST, TULSA, OK, 74136",166444694,"L"
316622,"2021 E 72ND STREET","CHICAGO","IL",60649,41.764354848,-87.573842482,122,"2021 E 72ND STREET, CHICAGO, IL, 60649","Match","Exact","2021 E 72ND ST, CHICAGO, IL, 60649",605536131,"R"
316623,"2021 E HENNEPIN AVE STE 187","MINNEAPOLIS","MN",55413,44.9914815270001,-93.2237697579999,123,"2021 E HENNEPIN AVE STE 187, MINNEAPOLIS, MN, 55413","Match","Non_Exact","2021 E HENNEPIN AVE, MINNEAPOLIS, MN, 55413",43638042,"L"
316624,"2021 E HENNEPIN AVE SUITE 193","MINNEAPOLIS","MN",55413,44.9914815270001,-93.2237697579999,124,"2021 E HENNEPIN AVE SUITE 193, MINNEAPOLIS, MN, 55413","Match","Non_Exact","2021 E HENNEPIN AVE, MINNEAPOLIS, MN, 55413",43638042,"L"
316625,"2021 E JAMES ST","SEATTLE","WA",98122,47.607161918,-122.305994341,125,"2021 E JAMES ST, SEATTLE, WA, 98122","Match","Exact","2021 E JAMES ST, SEATTLE, WA, 98122",186592999,"R"
316626,"2021 E JUANITA AVE","MESA","AZ",85204,33.383623282,-111.787685977,126,"2021 E JUANITA AVE, MESA, AZ, 85204","Match","Exact","2021 E JUANITA AVE, MESA, AZ, 85204",637418273,"R"
316627,"2021 E MARSA DR","SPRINGFIELD","MO",65804,37.18679797,-93.257195673,127,"2021 E MARSA DR, SPRINGFIELD, MO, 65804","Match","Exact","2021 E MARSA DR, SPRINGFIELD, MO, 65804",76679491,"L"
316628,"2021 E TANO LN","MT PROSPECT","IL",60056,42.0917888910001,-87.892047861,128,"2021 E TANO LN, MT PROSPECT, IL, 60056","Match","Exact","2021 E TANO LN, MOUNT PROSPECT, IL, 60056",111718998,"R"
316629,"2021 E UNIVERSITY DR 121","TEMPE","AZ",85281,NA,NA,129,"2021 E UNIVERSITY DR 121, TEMPE, AZ, 85281","Tie",NA,NA,NA,NA
316630,"2021 EAST NORSHIRE","SPRINGFIELD","MO",65804,37.1220996270001,-93.257797354,130,"2021 EAST NORSHIRE, SPRINGFIELD, MO, 65804","Match","Non_Exact","2021 E NORSHIRE ST, SPRINGFIELD, MO, 65804",76695278,"L"
316631,"2021 EAST WOODROW CT","TULSA","OK",74110,36.1866541680001,-95.962407723,131,"2021 EAST WOODROW CT, TULSA, OK, 74110","Match","Exact","2021 E WOODROW CT, TULSA, OK, 74110",166438690,"L"
316632,"2021 EDGERTON ST NO 102","MAPLEWOOD","MN",55117,45.001108248,-93.0762970009999,132,"2021 EDGERTON ST NO 102, MAPLEWOOD, MN, 55117","Match","Non_Exact","2021 EDGERTON ST, MAPLEWOOD, MN, 55117",97649941,"L"
316633,"2021 ELM STREET","DAVENPORT","IA",52803,41.541492143,-90.5477369549999,133,"2021 ELM STREET, DAVENPORT, IA, 52803","Match","Exact","2021 ELM ST, DAVENPORT, IA, 52803",122717185,"R"
316634,"2021 ESSEX ST","BERKELEY","CA",94703,37.8536368640001,-122.267886009,134,"2021 ESSEX ST, BERKELEY, CA, 94703","Match","Exact","2021 ESSEX ST, BERKELEY, CA, 94703",652211327,"L"
316635,"2021 FANNING COURT","LELAND","NC",28451,34.2230010380001,-78.020536529,135,"2021 FANNING COURT, LELAND, NC, 28451","Match","Exact","2021 FANNING CT, LELAND, NC, 28451",638004784,"L"
316636,"2021 FERN CREST LANE","GRANITEVILLE","SC",29829,33.5926275590001,-81.8334051099999,136,"2021 FERN CREST LANE, GRANITEVILLE, SC, 29829","Match","Exact","2021 FERN CREST LN, GRANITEVILLE, SC, 29829",644924393,"L"
316637,"2021 FILLMORE ST STE 1081","SAN FRANCISCO","CA",94115,37.7881900780001,-122.433698639,137,"2021 FILLMORE ST STE 1081, SAN FRANCISCO, CA, 94115","Match","Exact","2021 FILLMORE ST, SAN FRANCISCO, CA, 94115",192279745,"L"
316638,"2021 FISHERMENS BEND","PALM HARBOR","FL",34685,28.0787159600001,-82.6996130209999,138,"2021 FISHERMENS BEND, PALM HARBOR, FL, 34685","Match","Exact","2021 FISHERMENS BEND, PALM HARBOR, FL, 34685",124754701,"L"
316639,"2021 FITZROY DR C11","COLUMBUS","OH",43224,40.057202912,-82.961832,139,"2021 FITZROY DR C11, COLUMBUS, OH, 43224","Match","Exact","2021 FITZROY DR, COLUMBUS, OH, 43224",624558039,"R"
316640,"2021 FOOTHILL BLVD SUITE 200","LA VERNE","CA",91750,34.1141320020001,-117.767655899,140,"2021 FOOTHILL BLVD SUITE 200, LA VERNE, CA, 91750","Match","Exact","2021 FOOTHILL BLVD, LA VERNE, CA, 91750",637364513,"L"
316641,"2021 FRANKIE PLACE","MOUNT PLESANT","WI",53406,42.707608302,-87.854602018,141,"2021 FRANKIE PLACE, MOUNT PLESANT, WI, 53406","Match","Non_Exact","2021 FRANKIE PL, MOUNT PLEASANT, WI, 53406",77914612,"R"
316642,"2021 FRINGEWOOD DRIVE","MIDLAND","TX",79707,31.9986205820001,-102.164153606,142,"2021 FRINGEWOOD DRIVE, MIDLAND, TX, 79707","Match","Exact","2021 FRINGEWOOD DR, MIDLAND, TX, 79707",139598710,"L"
316643,"2021 GABLE AVE","CORCORAN","CA",93212,36.107175066,-119.57258665,143,"2021 GABLE AVE, CORCORAN, CA, 93212","Match","Exact","2021 GABLE AVE, CORCORAN, CA, 93212",651641077,"L"
316644,"2021 GALLATIN PIKE","MADISON","TN",37115,36.301132855,-86.6942641529999,144,"2021 GALLATIN PIKE, MADISON, TN, 37115","Match","Non_Exact","2021 GALLATIN PIKE N, MADISON, TN, 37115",636663477,"L"
316645,"2021 GARRS LN","LOUISVILLE","KY",40216,38.1898100010001,-85.8165070429999,145,"2021 GARRS LN, LOUISVILLE, KY, 40216","Match","Exact","2021 GARRS LN, LOUISVILLE, KY, 40216",96839123,"R"
316646,"2021 GLISTENING SANDS DR","LAS VEGAS","NV",89119,36.061666878,-115.124086437,146,"2021 GLISTENING SANDS DR, LAS VEGAS, NV, 89119","Match","Exact","2021 GLISTENING SANDS DR, LAS VEGAS, NV, 89119",201914930,"L"
316647,"2021 GREEN WING DRIVE","GRANBURY","TX",76049,32.458022767,-97.750019934,147,"2021 GREEN WING DRIVE, GRANBURY, TX, 76049","Match","Exact","2021 GREEN WING DR, GRANBURY, TX, 76049",636776503,"L"
316648,"2021 GREENBROOK BLVD","RICHLAND","WA",99352,46.2227671140001,-119.260979453,148,"2021 GREENBROOK BLVD, RICHLAND, WA, 99352","Match","Exact","2021 GREENBROOK BLVD, RICHLAND, WA, 99352",174989057,"R"
316649,"2021 GREYMONT STREET","PHILADELPHIA","PA",19116,40.0977116230001,-75.0153892009999,149,"2021 GREYMONT STREET, PHILADELPHIA, PA, 19116","Match","Exact","2021 GREYMONT ST, PHILADELPHIA, PA, 19116",131431250,"L"
316650,"2021 GUADALUPE STREET SUITE 620","AUSTIN","TX",78705,30.2829088400001,-97.741961961,150,"2021 GUADALUPE STREET SUITE 620, AUSTIN, TX, 78705","Match","Exact","2021 GUADALUPE ST, AUSTIN, TX, 78705",63943228,"R"
316651,"2021 GUADALUPE STREET","AUSTIN","TX",78705,30.2829088400001,-97.741961961,151,"2021 GUADALUPE STREET, AUSTIN, TX, 78705","Match","Exact","2021 GUADALUPE ST, AUSTIN, TX, 78705",63943228,"R"
316652,"2021 H STREET NW","WASHINGTON","DC",20006,38.8995866970001,-77.045341971,152,"2021 H STREET NW, WASHINGTON, DC, 20006","Match","Exact","2021 H ST NW, WASHINGTON, DC, 20006",76225529,"R"
316653,"2021 HANSON RD","EDGEWOOD","MD",21040,39.4249816820001,-76.301768082,153,"2021 HANSON RD, EDGEWOOD, MD, 21040","Match","Exact","2021 HANSON RD, EDGEWOOD, MD, 21040",191643966,"R"
316654,"2021 HIGHLAND AVENUE","DURANGO","CO",81301,37.2862775340001,-107.885578358,154,"2021 HIGHLAND AVENUE, DURANGO, CO, 81301","Match","Exact","2021 HIGHLAND AVE, DURANGO, CO, 81301",91728491,"L"
316655,"2021 HILLCREST ST","SELMA","CA",93662,36.585873817,-119.611094395,155,"2021 HILLCREST ST, SELMA, CA, 93662","Match","Exact","2021 HILLCREST ST, SELMA, CA, 93662",197645835,"L"
316656,"2021 HOLCROFT DR","JACKSONVILLE","FL",32208,30.3935554490001,-81.697026189,156,"2021 HOLCROFT DR, JACKSONVILLE, FL, 32208","Match","Exact","2021 HOLCROFT DR, JACKSONVILLE, FL, 32208",83891732,"R"
316657,"2021 HOLCROFT DR","JACKSONVILLE","FL",32225,30.3935554490001,-81.697026189,157,"2021 HOLCROFT DR, JACKSONVILLE, FL, 32225","Match","Non_Exact","2021 HOLCROFT DR, JACKSONVILLE, FL, 32208",83891732,"R"
316658,"2021 HOLLAND AVE APT 4I","BRONX","NY",10462,40.8511782890001,-73.8658528879999,158,"2021 HOLLAND AVE APT 4I, BRONX, NY, 10462","Match","Exact","2021 HOLLAND AVE, BRONX, NY, 10462",80304364,"L"
316659,"2021 JACK COUNTY RD","FORNEY","TX",75126,32.794841927,-96.4765827209999,159,"2021 JACK COUNTY RD, FORNEY, TX, 75126","Match","Non_Exact","2021 JACK COUNTY DR, FORNEY, TX, 75126",614179606,"L"
316660,"2021 JASPER CT APT B","AUGUSTA","GA",30905,33.3989182110001,-82.128511024,160,"2021 JASPER CT APT B, AUGUSTA, GA, 30905","Match","Exact","2021 JASPER CT, AUGUSTA, GA, 30905",55652142,"L"
316661,"2021 KEY STREET APT E","MAUMEE","OH",43537,41.5887466410001,-83.645596998,161,"2021 KEY STREET APT E, MAUMEE, OH, 43537","Match","Exact","2021 KEY ST, MAUMEE, OH, 43537",33958139,"R"
316662,"2021 KILCHOAN WAY","SAN JOSE","CA",95122,37.3234145640001,-121.838556095,162,"2021 KILCHOAN WAY, SAN JOSE, CA, 95122","Match","Exact","2021 KILCHOAN WAY, SAN JOSE, CA, 95122",122914294,"R"
316663,"2021 KING JAMES PARKWAY APT 208","WESTLAKE","OH",44145,41.458615191,-81.897629359,163,"2021 KING JAMES PARKWAY APT 208, WESTLAKE, OH, 44145","Match","Exact","2021 KING JAMES PKWY, WESTLAKE, OH, 44145",653481958,"L"
316664,"2021 L ST NW STE 101-277","WASHINGTON","DC",20036,38.903747965,-77.045337891,164,"2021 L ST NW STE 101-277, WASHINGTON, DC, 20036","Match","Exact","2021 L ST NW, WASHINGTON, DC, 20036",76225352,"R"
316665,"2021 L ST NW STE 101-296","WASHINGTON","DC",20036,38.903747965,-77.045337891,165,"2021 L ST NW STE 101-296, WASHINGTON, DC, 20036","Match","Exact","2021 L ST NW, WASHINGTON, DC, 20036",76225352,"R"
316666,"2021 LA VISTA AVENUE","MCALLEN","TX",78501,26.2271575090001,-98.2375067149999,166,"2021 LA VISTA AVENUE, MCALLEN, TX, 78501","Match","Exact","2021 LA VISTA AVE, MCALLEN, TX, 78501",71494283,"L"
316667,"2021 LAKEVIEW AVE","MIDDLETON","WI",53562,43.0946012360001,-89.492481211,167,"2021 LAKEVIEW AVE, MIDDLETON, WI, 53562","Match","Exact","2021 LAKEVIEW AVE, MIDDLETON, WI, 53562",49466552,"R"
316668,"2021 LEE HILL DRIVE","BOULDER","CO",80302,40.070020663,-105.309225458,168,"2021 LEE HILL DRIVE, BOULDER, CO, 80302","Match","Exact","2021 LEE HILL DR, BOULDER, CO, 80302",642890481,"L"
316669,"2021 LEES AVENUE","LONG BEACH","CA",90815,33.792730981,-118.098200039,169,"2021 LEES AVENUE, LONG BEACH, CA, 90815","Match","Exact","2021 LEES AVE, LONG BEACH, CA, 90815",141746047,"L"
316670,"2021 LYNDWAY ROAD","CLEVELAND","OH",44124,41.5036273600001,-81.5123012889999,170,"2021 LYNDWAY ROAD, CLEVELAND, OH, 44124","Match","Non_Exact","2021 LYNDWAY RD, CLEVELAND, OH, 44121",637580855,"R"
316671,"2021 M STREET","ORD","NE",68862,41.6021919360001,-98.934457991,171,"2021 M STREET, ORD, NE, 68862","Match","Exact","2021 M ST, ORD, NE, 68862",198315702,"L"
316672,"2021 MADISON ST","METAIRIE","LA",70001,29.9916770730001,-90.170148723,172,"2021 MADISON ST, METAIRIE, LA, 70001","Match","Exact","2021 MADISON ST, METAIRIE, LA, 70001",93500504,"R"
316673,"2021 MALLARD DR","NORTHBROOK","IL",60062,42.116259482,-87.838298712,173,"2021 MALLARD DR, NORTHBROOK, IL, 60062","Match","Exact","2021 MALLARD DR, NORTHBROOK, IL, 60062",111728336,"R"
316674,"2021 MCKINNEY AVE SUITE 900","DALLAS","TX",75201,32.790950776,-96.803492562,174,"2021 MCKINNEY AVE SUITE 900, DALLAS, TX, 75201","Match","Exact","2021 MCKINNEY AVE, DALLAS, TX, 75201",102909681,"L"
316675,"2021 MEADE ST","NORTH BEND","OR",97459,43.4061073770001,-124.227197845,175,"2021 MEADE ST, NORTH BEND, OR, 97459","Match","Exact","2021 MEADE ST, NORTH BEND, OR, 97459",137028414,"R"
316676,"2021 MIAMI TRAIL","HUNTINGTON","IN",46750,40.86200102,-85.511941306,176,"2021 MIAMI TRAIL, HUNTINGTON, IN, 46750","Match","Exact","2021 MIAMI TRL, HUNTINGTON, IN, 46750",633729331,"L"
316677,"2021 MONTEGO COURT","RALEIGH","NC",27603,35.74831987,-78.694058357,177,"2021 MONTEGO COURT, RALEIGH, NC, 27603","Match","Exact","2021 MONTEGO CT, RALEIGH, NC, 27603",612816824,"L"
316678,"2021 MORTON ST","CHARLOTTE","NC",28208,NA,NA,178,"2021 MORTON ST, CHARLOTTE, NC, 28208","No_Match",NA,NA,NA,NA
316679,"2021 MUSIC STREET","NEW ORLEANS","LA",70117,29.978272799,-90.051737002,179,"2021 MUSIC STREET, NEW ORLEANS, LA, 70117","Match","Exact","2021 MUSIC ST, NEW ORLEANS, LA, 70117",191715733,"R"
316680,"2021 MYRTLEWOOD DR","MONTGOMERY","AL",36111,32.3476221270001,-86.276023403,180,"2021 MYRTLEWOOD DR, MONTGOMERY, AL, 36111","Match","Exact","2021 MYRTLEWOOD DR, MONTGOMERY, AL, 36111",1513494,"L"
316681,"2021 N  ROLLING RIDGE","BETHANY","OK",73008,35.489384935,-97.642417987,181,"2021 N  ROLLING RIDGE, BETHANY, OK, 73008","Match","Exact","2021 N ROLLING RIDGE, BETHANY, OK, 73008",100389602,"L"
316682,"2021 N 60TH STREET","MILWAUKEE","WI",53208,43.0564147900001,-87.987563063,182,"2021 N 60TH STREET, MILWAUKEE, WI, 53208","Match","Exact","2021 N 60TH ST, MILWAUKEE, WI, 53208",77732853,"L"
316683,"2021 N ATLANTIC AVE SUITE 105","COCOA BEACH","FL",32931,NA,NA,183,"2021 N ATLANTIC AVE SUITE 105, COCOA BEACH, FL, 32931","Tie",NA,NA,NA,NA
316684,"2021 N BROADMOOR AV 102","WICHITA","KS",67206,NA,NA,184,"2021 N BROADMOOR AV 102, WICHITA, KS, 67206","No_Match",NA,NA,NA,NA
316685,"2021 N GRAND AVENUE","NOGALES","AZ",85621,31.3762143320001,-110.938094091,185,"2021 N GRAND AVENUE, NOGALES, AZ, 85621","Match","Exact","2021 N GRAND AVE, NOGALES, AZ, 85621",636472862,"R"
316686,"2021 N LEMANS BLVD APT 4105","TAMPA","FL",33607,NA,NA,186,"2021 N LEMANS BLVD APT 4105, TAMPA, FL, 33607","No_Match",NA,NA,NA,NA
316687,"2021 N LEMANS BLVD APT 6104","TAMPA","FL",33607,NA,NA,187,"2021 N LEMANS BLVD APT 6104, TAMPA, FL, 33607","No_Match",NA,NA,NA,NA
316688,"2021 N LEMANS BLVD","TAMPA","FL",33607,27.960497241,-82.511811511,188,"2021 N LEMANS BLVD, TAMPA, FL, 33607","Match","Non_Exact","2021 N LE MANS DR, TAMPA, FL, 33607",640440686,"L"
316689,"2021 N SLAPPEY PMB 110","ALBANY","GA",31701,NA,NA,189,"2021 N SLAPPEY PMB 110, ALBANY, GA, 31701","No_Match",NA,NA,NA,NA
316690,"2021 N WESTERN AVE","LIBERAL","KS",67901,37.061810576,-100.940455693,190,"2021 N WESTERN AVE, LIBERAL, KS, 67901","Match","Exact","2021 N WESTERN AVE, LIBERAL, KS, 67901",649038972,"R"
316691,"2021 N WYCOFF AVENUE","BREMERTON","WA",98312,47.5793291840001,-122.654391535,191,"2021 N WYCOFF AVENUE, BREMERTON, WA, 98312","Match","Exact","2021 N WYCOFF AVE, BREMERTON, WA, 98312",187671773,"L"
316692,"2021 NAUDAIN STREET","PHILADELPHIA","PA",19146,39.945427683,-75.1754200079999,192,"2021 NAUDAIN STREET, PHILADELPHIA, PA, 19146","Match","Exact","2021 NAUDAIN ST, PHILADELPHIA, PA, 19146",131407167,"R"
316693,"2021 NE 135TH STREET","SEATTLE","WA",98125,47.7265787270001,-122.306906387,193,"2021 NE 135TH STREET, SEATTLE, WA, 98125","Match","Exact","2021 NE 135TH ST, SEATTLE, WA, 98125",186688400,"R"
316694,"2021 NE 90TH ST APT B316","SEATTLE","WA",98115,47.693930224,-122.306615988,194,"2021 NE 90TH ST APT B316, SEATTLE, WA, 98115","Match","Non_Exact","2021 NE 90TH ST, SEATTLE, WA, 98115",186584696,"R"
316695,"2021 NORTH ATLANTIC AVE 310","COCOA BEACH","FL",32931,28.343022107,-80.6099274539999,195,"2021 NORTH ATLANTIC AVE 310, COCOA BEACH, FL, 32931","Match","Exact","2021 N ATLANTIC AVE, COCOA BEACH, FL, 32931",93899382,"L"
316696,"2021 NORTH BROADMOOR AVE","WICHTA","KS",67206,37.720043827,-97.249867115,196,"2021 NORTH BROADMOOR AVE, WICHTA, KS, 67206","Match","Non_Exact","2021 N BROADMOOR AVE, WICHITA, KS, 67206",115640127,"L"
316697,"2021 NORTH VILLAGE GREEN","HARVEY","LA",70058,NA,NA,197,"2021 NORTH VILLAGE GREEN, HARVEY, LA, 70058","No_Match",NA,NA,NA,NA
316698,"2021 NORTHWEST 136TH AVE UNIT 396","SUNRISE","FL",33323,26.1491970930001,-80.33013354,198,"2021 NORTHWEST 136TH AVE UNIT 396, SUNRISE, FL, 33323","Match","Exact","2021 NW 136TH AVE, SUNRISE, FL, 33323",637252589,"L"
316699,"2021 NW 20TH STREET","GAINESVILLE","FL",32605,29.6750833020001,-82.349634155,199,"2021 NW 20TH STREET, GAINESVILLE, FL, 32605","Match","Exact","2021 NW 20 ST, GAINESVILLE, FL, 32605",6805641,"L"
316700,"2021 NW 36TH ST","OKLAHOMA CITY","OK",73118,35.5077712510001,-97.546682172,200,"2021 NW 36TH ST, OKLAHOMA CITY, OK, 73118","Match","Exact","2021 NW 36TH ST, OKLAHOMA CITY, OK, 73118",652823171,"R"
316701,"2021 NW 59TH WAY","LAUDERHILL","FL",33313,26.1517364050001,-80.2303318149999,201,"2021 NW 59TH WAY, LAUDERHILL, FL, 33313","Match","Exact","2021 NW 59TH WAY, LAUDERHILL, FL, 33313",114704585,"L"
316702,"2021 NW 5TH AVENUE","GAINESVILLE","FL",32603,29.655849387,-82.349848002,202,"2021 NW 5TH AVENUE, GAINESVILLE, FL, 32603","Match","Exact","2021 NW 5TH AVE, GAINESVILLE, FL, 32603",6806170,"L"
316703,"2021 NW 63RD STREET APT 201","MAIMI","FL",33147,25.8321053670001,-80.230260554,203,"2021 NW 63RD STREET APT 201, MAIMI, FL, 33147","Match","Non_Exact","2021 NW 63RD ST, MIAMI, FL, 33147",116043255,"L"
316704,"2021 NW 63RD STREET APT 201","MIAMI","FL",33147,25.8321053670001,-80.230260554,204,"2021 NW 63RD STREET APT 201, MIAMI, FL, 33147","Match","Non_Exact","2021 NW 63RD ST, MIAMI, FL, 33147",116043255,"L"
316705,"2021 OCEAN PARKWAY","BROOKLYN","NY",11223,40.5995566670001,-73.965504,205,"2021 OCEAN PARKWAY, BROOKLYN, NY, 11223","Match","Exact","2021 OCEAN PKWY, BROOKLYN, NY, 11223",640848459,"L"
316706,"2021 PAPER BIRCH CV","GRAYSON","GA",30017,33.882122404,-83.989180055,206,"2021 PAPER BIRCH CV, GRAYSON, GA, 30017","Match","Exact","2021 PAPER BIRCH COVE, GRAYSON, GA, 30017",88931442,"R"
316707,"2021 PHEASANT RUN ST","SHAKOPE","MN",55379,44.7659606240001,-93.493075639,207,"2021 PHEASANT RUN ST, SHAKOPE, MN, 55379","Match","Non_Exact","2021 PHEASANT RUN ST, SHAKOPEE, MN, 55379",38154190,"L"
316708,"2021 PHEASANT RUN ST","SHAKOPEE","MN",55379,44.7659606240001,-93.493075639,208,"2021 PHEASANT RUN ST, SHAKOPEE, MN, 55379","Match","Exact","2021 PHEASANT RUN ST, SHAKOPEE, MN, 55379",38154190,"L"
316709,"2021 PIN OAK ROAD","EDINBURG","TX",78539,26.2939621410001,-98.1858449279999,209,"2021 PIN OAK ROAD, EDINBURG, TX, 78539","Match","Exact","2021 PIN OAK RD, EDINBURG, TX, 78539",71527389,"L"
316710,"2021 PINEHURST RD","DUNEDIN","FL",34698,28.038417076,-82.771748476,210,"2021 PINEHURST RD, DUNEDIN, FL, 34698","Match","Exact","2021 PINEHURST RD, DUNEDIN, FL, 34698",124665012,"R"
316711,"2021 PLANTATION DR APT 215","CONROE","TX",77301,30.3310489130001,-95.474330115,211,"2021 PLANTATION DR APT 215, CONROE, TX, 77301","Match","Exact","2021 PLANTATION DR, CONROE, TX, 77301",641271178,"L"
316712,"2021 PLEASENT VIEW DRIVE","FORD CITY","PA",16226,40.7654438390001,-79.528654635,212,"2021 PLEASENT VIEW DRIVE, FORD CITY, PA, 16226","Match","Non_Exact","2021 PLEASANTVIEW DR, FORD CITY, PA, 16226",634115065,"R"
316713,"2021 PORTCASTLE CIRCLE","WINTER GARDEN","FL",34787,28.511062511,-81.619497254,213,"2021 PORTCASTLE CIRCLE, WINTER GARDEN, FL, 34787","Match","Exact","2021 PORTCASTLE CIR, WINTER GARDEN, FL, 34787",639781276,"L"
316714,"2021 PULASKI HIGHWAY SUITE E","HAVRE DE GRACE","MD",21078,39.5288167260001,-76.1294104369999,214,"2021 PULASKI HIGHWAY SUITE E, HAVRE DE GRACE, MD, 21078","Match","Exact","2021 PULASKI HWY, HAVRE DE GRACE, MD, 21078",653591798,"R"
316715,"2021 RED MAPLE DR","TROY","MI",48098,42.6107173070001,-83.189416383,215,"2021 RED MAPLE DR, TROY, MI, 48098","Match","Exact","2021 RED MAPLE DR, TROY, MI, 48098",69711652,"R"
316716,"2021 RENAISSANCE BLVD","MIRAMAR","FL",33025,25.9889826150001,-80.306885929,216,"2021 RENAISSANCE BLVD, MIRAMAR, FL, 33025","Match","Exact","2021 RENAISSANCE BLVD, MIRAMAR, FL, 33025",648202917,"R"
316717,"2021 RIGG STREET","DUNMORE","PA",18512,41.4212754870001,-75.6337389179999,217,"2021 RIGG STREET, DUNMORE, PA, 18512","Match","Exact","2021 RIGG ST, DUNMORE, PA, 18512",139326736,"L"
316718,"2021 RIPON AVE","LEWISTON","ID",83501,46.366034676,-116.926935806,218,"2021 RIPON AVE, LEWISTON, ID, 83501","Match","Exact","2021 RIPON AVE, LEWISTON, ID, 83501",173142341,"L"
316719,"2021 RIVER ROCK WAY","REYNOLDSBURG","OH",43068,39.943578217,-82.79203769,219,"2021 RIVER ROCK WAY, REYNOLDSBURG, OH, 43068","Match","Exact","2021 RIVER ROCK WAY, REYNOLDSBURG, OH, 43068",623814201,"R"
316720,"2021 ROSEBUD DR","IRVING","TX",75060,32.804207955,-96.9147778669999,220,"2021 ROSEBUD DR, IRVING, TX, 75060","Match","Exact","2021 ROSEBUD DR, IRVING, TX, 75060",102894591,"R"
316721,"2021 ROUTE 9","OCEAN VIEW","NJ",8230,39.214021427,-74.6970722999999,221,"2021 ROUTE 9, OCEAN VIEW, NJ, 8230","Match","Exact","2021 RTE 9, OCEAN VIEW, NJ, 08230",174350716,"R"
316722,"2021 S 19TH ST","TACOMA","WA",98405,47.2426887010001,-122.463710495,222,"2021 S 19TH ST, TACOMA, WA, 98405","Match","Exact","2021 S 19TH ST, TACOMA, WA, 98405",184624387,"R"
316723,"2021 S 5TH ST W","MISSOULA","MT",59801,46.8650385350001,-114.02863732,223,"2021 S 5TH ST W, MISSOULA, MT, 59801","Match","Exact","2021 S 5TH ST W, MISSOULA, MT, 59801",205258938,"L"
316724,"2021 S 67TH STREET","PHILADELPHIA","PA",19142,39.9252829910001,-75.238660639,224,"2021 S 67TH STREET, PHILADELPHIA, PA, 19142","Match","Exact","2021 S 67TH ST, PHILADELPHIA, PA, 19142",131408422,"L"
316725,"2021 S 7TH AVE","MAYWOOD","IL",60153,41.867519187,-87.84088515,225,"2021 S 7TH AVE, MAYWOOD, IL, 60153","Match","Exact","2021 S 7TH AVE, MAYWOOD, IL, 60153",111791295,"L"
316726,"2021 S CAMPUS UNIT E","ONTARIO","CA",91761,NA,NA,226,"2021 S CAMPUS UNIT E, ONTARIO, CA, 91761","No_Match",NA,NA,NA,NA
316727,"2021 S EDGEMOOR","WICHITA","KS",67218,37.65656432,-97.271279823,227,"2021 S EDGEMOOR, WICHITA, KS, 67218","Match","Non_Exact","2021 S EDGEMOOR ST, WICHITA, KS, 67218",115675420,"R"
316728,"2021 S GRAND BLVD UNIT 102","ST LOUIS","MO",63104,38.613747926,-90.239938407,228,"2021 S GRAND BLVD UNIT 102, ST LOUIS, MO, 63104","Match","Non_Exact","2021 S GRAND BLVD, SAINT LOUIS, MO, 63104",652557308,"R"
316729,"2021 S HOLLY STREET","DENVER","CO",80222,39.679901785,-104.922275894,229,"2021 S HOLLY STREET, DENVER, CO, 80222","Match","Exact","2021 S HOLLY ST, DENVER, CO, 80222",177631115,"R"
316730,"2021 S MOUNTAIN AVE APT 20","ONTARIO","CA",91762,34.0363094840001,-117.669861932,230,"2021 S MOUNTAIN AVE APT 20, ONTARIO, CA, 91762","Match","Non_Exact","2021 S MOUNTAIN AVE, ONTARIO, CA, 91762",144673587,"L"
316731,"2021 S PASEO LOMA CIR","MESA","AZ",85202,33.378169944,-111.879723673,231,"2021 S PASEO LOMA CIR, MESA, AZ, 85202","Match","Exact","2021 S PASEO LOMA CIR, MESA, AZ, 85202",128239702,"R"
316732,"2021 S RILEY HWY","SHELBYVILLE","IN",46176,39.505815039,-85.770914767,232,"2021 S RILEY HWY, SHELBYVILLE, IN, 46176","Match","Exact","2021 S RILEY HWY, SHELBYVILLE, IN, 46176",33228175,"L"
316733,"2021 S SARA DR","LAKE CITY","MI",49651,44.3091856870001,-85.22691407,233,"2021 S SARA DR, LAKE CITY, MI, 49651","Match","Exact","2021 S SARA DR, LAKE CITY, MI, 49651",146064307,"R"
316734,"2021 S WOLF ROAD","HILLSIDE","IL",60162,41.850448181,-87.9014761449999,234,"2021 S WOLF ROAD, HILLSIDE, IL, 60162","Match","Exact","2021 S WOLF RD, HILLSIDE, IL, 60162",111876341,"L"
316735,"2021 SAN ANTONIO AVE APT D","ALAMEDA","CA",94501,37.765170675,-122.252859261,235,"2021 SAN ANTONIO AVE APT D, ALAMEDA, CA, 94501","Match","Exact","2021 SAN ANTONIO AVE, ALAMEDA, CA, 94501",125005241,"L"
316736,"2021 SANFORD DR APT 5","LITTLE ROCK","AR",72227,34.771113649,-92.379720746,236,"2021 SANFORD DR APT 5, LITTLE ROCK, AR, 72227","Match","Exact","2021 SANFORD DR, LITTLE ROCK, AR, 72227",83597553,"R"
316737,"2021 SANTA MONICA BLVD SUITE 335E","SANTA MONICA","CA",90404,34.028854134,-118.479797433,237,"2021 SANTA MONICA BLVD SUITE 335E, SANTA MONICA, CA, 90404","Match","Exact","2021 SANTA MONICA BLVD, SANTA MONICA, CA, 90404",615103523,"L"
316738,"2021 SCARBROUGH AVENUE EXTENDED","REHOBETH BEACH","DE",19971,NA,NA,238,"2021 SCARBROUGH AVENUE EXTENDED, REHOBETH BEACH, DE, 19971","No_Match",NA,NA,NA,NA
316739,"2021 SCENIC DR","JEFFERSON CITY","MO",65101,38.555747884,-92.139003735,239,"2021 SCENIC DR, JEFFERSON CITY, MO, 65101","Match","Exact","2021 SCENIC DR, JEFFERSON CITY, MO, 65101",34413884,"R"
316740,"2021 SERVICEBERRY ROAD","DUMFRIES","VA",22026,38.5606345200001,-77.2785157819999,240,"2021 SERVICEBERRY ROAD, DUMFRIES, VA, 22026","Match","Exact","2021 SERVICEBERRY RD, DUMFRIES, VA, 22026",650756076,"R"
316741,"2021 SNEAD ST","LA HABRA","CA",90631,33.909439337,-117.969585532,241,"2021 SNEAD ST, LA HABRA, CA, 90631","Match","Non_Exact","2021 W SNEAD ST, LA HABRA, CA, 90631",144133603,"R"
316742,"2021 SOUTH 19TH STREET","TACOMA","WA",98405,47.242688678,-122.4637071,242,"2021 SOUTH 19TH STREET, TACOMA, WA, 98405","Match","Exact","2021 S 19TH ST, TACOMA, WA, 98405",184624387,"R"
316743,"2021 SOUTH ASTER AVE","BROKEN ARRON","OK",74012,36.0330086340001,-95.8425242439999,243,"2021 SOUTH ASTER AVE, BROKEN ARRON, OK, 74012","Match","Non_Exact","2021 S ASTER AVE, BROKEN ARROW, OK, 74012",166502415,"L"
316744,"2021 SOUTH ASTER AVE","BROKEN ARROW","OK",74012,36.0330086340001,-95.8425242439999,244,"2021 SOUTH ASTER AVE, BROKEN ARROW, OK, 74012","Match","Exact","2021 S ASTER AVE, BROKEN ARROW, OK, 74012",166502415,"L"
316745,"2021 SPEEDWELL CT","CHARLOTTE","NC",28213,35.3089056110001,-80.707672399,245,"2021 SPEEDWELL CT, CHARLOTTE, NC, 28213","Match","Exact","2021 SPEEDWELL CT, CHARLOTTE, NC, 28213",70557991,"R"
316746,"2021 SPERRY AVENUE SUITE 24","VENTURA","CA",93003,34.2540639580001,-119.217752176,246,"2021 SPERRY AVENUE SUITE 24, VENTURA, CA, 93003","Match","Exact","2021 SPERRY AVE, VENTURA, CA, 93003",109953642,"R"
316747,"2021 SPINNAKER DR","LEAGUE CITY","TX",77573,29.531748346,-95.043177209,247,"2021 SPINNAKER DR, LEAGUE CITY, TX, 77573","Match","Exact","2021 SPINNAKER DR, LEAGUE CITY, TX, 77573",96738871,"L"
316748,"2021 STIERS CT","BATAVIA","IL",60510,41.8219577300001,-88.2901851729999,248,"2021 STIERS CT, BATAVIA, IL, 60510","Match","Exact","2021 STIERS CT, BATAVIA, IL, 60510",119569486,"R"
316749,"2021 STONEBRIAR ROAD","FORT WAYNE","IN",46814,41.0646152840001,-85.327422671,249,"2021 STONEBRIAR ROAD, FORT WAYNE, IN, 46814","Match","Exact","2021 STONEBRIAR RD, FORT WAYNE, IN, 46814",6405880,"R"
316750,"2021 STONEMONT COURT","ALLEN","TX",75013,33.111114104,-96.7314769829999,250,"2021 STONEMONT COURT, ALLEN, TX, 75013","Match","Exact","2021 STONEMONT CT, ALLEN, TX, 75013",123568515,"R"
316751,"2021 STONEY BROOK CT","FLINT","MI",48507,42.9851159620001,-83.703488545,251,"2021 STONEY BROOK CT, FLINT, MI, 48507","Match","Exact","2021 STONEY BROOK CT, FLINT, MI, 48507",69574574,"L"
316752,"2021 SUMMERTIME DRIVE APT 2211","CHARLOTTE","NC",28262,NA,NA,252,"2021 SUMMERTIME DRIVE APT 2211, CHARLOTTE, NC, 28262","No_Match",NA,NA,NA,NA
316753,"2021 SW 2ND STREET","OCALA","FL",34471,29.184718623,-82.15891429,253,"2021 SW 2ND STREET, OCALA, FL, 34471","Match","Exact","2021 SW 2ND ST, OCALA, FL, 34471",116724468,"R"
316754,"2021 SW MAIN ST UNIT 36","PORTLAND","OR",97205,45.5199676410001,-122.694242143,254,"2021 SW MAIN ST UNIT 36, PORTLAND, OR, 97205","Match","Non_Exact","2021 SW MAIN ST, PORTLAND, OR, 97205",157498476,"R"
316755,"2021 TALL OAK RD","LENOIR","NC",28645,35.8402462290001,-81.54947974,255,"2021 TALL OAK RD, LENOIR, NC, 28645","Match","Non_Exact","2021 TALL OAK DR, LENOIR, NC, 28645",605286260,"L"
316756,"2021 TALLER RD","MORRIS","IL",60450,41.3746123760001,-88.464853292,256,"2021 TALLER RD, MORRIS, IL, 60450","Match","Exact","2021 TALLER RD, MORRIS, IL, 60450",54464976,"L"
316757,"2021 TANUR CASCADE DR","ANNA","TX",75409,33.349335377,-96.573596715,257,"2021 TANUR CASCADE DR, ANNA, TX, 75409","Match","Exact","2021 TANUR CASCADE DR, ANNA, TX, 75409",614167926,"R"
316758,"2021 TARRANT HUFFMAN RD","BIRMINGHAM","AL",35217,33.589080783,-86.746927892,258,"2021 TARRANT HUFFMAN RD, BIRMINGHAM, AL, 35217","Match","Exact","2021 TARRANT HUFFMAN RD, BIRMINGHAM, AL, 35217",647570694,"R"
316759,"2021 TEMPLE GROVE ROAD","CRANDALL","GA",30711,34.928340668,-84.789757244,259,"2021 TEMPLE GROVE ROAD, CRANDALL, GA, 30711","Match","Exact","2021 TEMPLE GROVE RD, CRANDALL, GA, 30711",57109697,"R"
316760,"2021 THE ALAMEDA SUITE 310","SAN JOSE","CA",95126,NA,NA,260,"2021 THE ALAMEDA SUITE 310, SAN JOSE, CA, 95126","Tie",NA,NA,NA,NA
316761,"2021 THORNDYKE AVE W APT 1","SEATTLE","WA",98199,47.6371662720001,-122.388985847,261,"2021 THORNDYKE AVE W APT 1, SEATTLE, WA, 98199","Match","Exact","2021 THORNDYKE AVE W, SEATTLE, WA, 98199",186660101,"L"
316762,"2021 TORTUGA ST","ACTON","CA",93510,34.484528315,-118.156068794,262,"2021 TORTUGA ST, ACTON, CA, 93510","Match","Exact","2021 TORTUGA ST, ACTON, CA, 93510",141825305,"L"
316763,"2021 VICTORIA DR","STAFFORD","VA",22554,38.477043318,-77.3812175369999,263,"2021 VICTORIA DR, STAFFORD, VA, 22554","Match","Exact","2021 VICTORIA DR, STAFFORD, VA, 22554",25569585,"R"
316764,"2021 W 27 ST N","TULSA","OK",74127,36.1879893120001,-96.014582757,264,"2021 W 27 ST N, TULSA, OK, 74127","Match","Exact","2021 W 27TH ST N, TULSA, OK, 74127",82347404,"R"
316765,"2021 W 35TH PLACE","LOS ANGELES","CA",90018,34.023644921,-118.316032805,265,"2021 W 35TH PLACE, LOS ANGELES, CA, 90018","Match","Exact","2021 W 35TH PL, LOS ANGELES, CA, 90018",141605823,"R"
316766,"2021 W IOWA ST 2","CHICAGO","IL",60622,41.897714245,-87.678019599,266,"2021 W IOWA ST 2, CHICAGO, IL, 60622","Match","Non_Exact","2021 W IOWA ST, CHICAGO, IL, 60622",616787090,"L"
316767,"2021 W JONQUIL AVE","MCALLEN","TX",78501,26.2378143770001,-98.236069537,267,"2021 W JONQUIL AVE, MCALLEN, TX, 78501","Match","Exact","2021 W JONQUIL AVE, MCALLEN, TX, 78501",71494144,"R"
316768,"2021 WAGNER ST","NEW ORLEANS","LA",70114,29.93044179,-90.040719197,268,"2021 WAGNER ST, NEW ORLEANS, LA, 70114","Match","Exact","2021 WAGNER ST, NEW ORLEANS, LA, 70114",191735876,"R"
316769,"2021 WALKER AVE","GREENSBORO","NC",27403,36.068688852,-79.8239589139999,269,"2021 WALKER AVE, GREENSBORO, NC, 27403","Match","Exact","2021 WALKER AVE, GREENSBORO, NC, 27403",131029954,"L"
316770,"2021 WANAMAKER STREET","PHILADELPHIA","PA",19131,39.985159835,-75.23745435,270,"2021 WANAMAKER STREET, PHILADELPHIA, PA, 19131","Match","Non_Exact","2021 N WANAMAKER ST, PHILADELPHIA, PA, 19131",131397210,"R"
316771,"2021 WATSON STREET 2ND FLOOR","CAMDEN","NJ",8105,39.9437131450001,-75.094498557,271,"2021 WATSON STREET 2ND FLOOR, CAMDEN, NJ, 8105","Match","Exact","2021 WATSON ST, CAMDEN, NJ, 08105",134387615,"R"
316772,"2021 WEST 7TH STREET","CHESTER","PA",19013,39.8392489940001,-75.386019217,272,"2021 WEST 7TH STREET, CHESTER, PA, 19013","Match","Exact","2021 W 7TH ST, CHESTER, PA, 19013",134889937,"L"
316773,"2021 WHISTLING SWAN CIRCLE","DE PERE","WI",54115,44.4262182460001,-88.04002363,273,"2021 WHISTLING SWAN CIRCLE, DE PERE, WI, 54115","Match","Exact","2021 WHISTLING SWAN CIR, DE PERE, WI, 54115",148120784,"R"
316774,"2021 WIDENER PLACE","PHILADELPHIA","PA",19138,40.0446779660001,-75.154153783,274,"2021 WIDENER PLACE, PHILADELPHIA, PA, 19138","Match","Exact","2021 WIDENER PL, PHILADELPHIA, PA, 19138",131413588,"R"
316775,"2021 WOODLAND DRIVE","SEGUIN","TX",78155,29.5895204730001,-97.961477368,275,"2021 WOODLAND DRIVE, SEGUIN, TX, 78155","Match","Exact","2021 WOODLAND DR, SEGUIN, TX, 78155",54827483,"L"
316776,"2021 WOODS RUN","MT JULIET","CA",37122,NA,NA,276,"2021 WOODS RUN, MT JULIET, CA, 37122","No_Match",NA,NA,NA,NA
316777,"2021 WORCESTER AVE","SAINT PAUL","MN",55116,44.9036591770001,-93.185901359,277,"2021 WORCESTER AVE, SAINT PAUL, MN, 55116","Match","Exact","2021 WORCESTER AVE, SAINT PAUL, MN, 55116",97639717,"R"
316778,"2021","LEWISTON","ID",83501,NA,NA,278,"2021, LEWISTON, ID, 83501","No_Match",NA,NA,NA,NA
316779,"20210 71ST STREET EAST UNIT B","BONNEY LAKE","WA",98391,47.1924472160001,-122.159648807,279,"20210 71ST STREET EAST UNIT B, BONNEY LAKE, WA, 98391","Match","Exact","20210 71ST ST E, BONNEY LAKE, WA, 98391",184650409,"L"
316780,"20210 ASH GLEN","SPRING","TX",77388,30.0542170640001,-95.4751422429999,280,"20210 ASH GLEN, SPRING, TX, 77388","Match","Non_Exact","20210 ASH GLEN CT, SPRING, TX, 77388",628041482,"L"
316781,"20210 BERTRAND","SPRING","TX",77388,NA,NA,281,"20210 BERTRAND, SPRING, TX, 77388","No_Match",NA,NA,NA,NA
316782,"20210 CYPRESSWOOD ESTATE RUN","SPRING","TX",77373,30.060578504,-95.42886213,282,"20210 CYPRESSWOOD ESTATE RUN, SPRING, TX, 77373","Match","Non_Exact","20210 CYPRESSWOOD ESTATES RUN, SPRING, TX, 77373",635078711,"R"
316783,"20210 DOEWOOD DR","MONUMENT","CO",80132,39.1255410210001,-104.858518458,283,"20210 DOEWOOD DR, MONUMENT, CO, 80132","Match","Exact","20210 DOEWOOD DR, MONUMENT, CO, 80132",105552516,"L"
316784,"20210 EAST ADMIRAL PLACE APT 314","CATOSSA","OK",74015,36.159980137,-95.7495132779999,284,"20210 EAST ADMIRAL PLACE APT 314, CATOSSA, OK, 74015","Match","Non_Exact","20210 E ADMIRAL BLVD, CATOOSA, OK, 74015",83149402,"L"
316785,"20210 HWY 24","LEXINGTON","MO",64067,39.189455643,-93.7276866669999,285,"20210 HWY 24, LEXINGTON, MO, 64067","Match","Non_Exact","20210 US HWY 24, LEXINGTON, MO, 64067",20924122,"R"
316786,"20210 MAKAH STREET NORTHWEST","OAK GROVE","MN",55303,45.3372081800001,-93.3811952619999,286,"20210 MAKAH STREET NORTHWEST, OAK GROVE, MN, 55303","Match","Exact","20210 MAKAH ST NW, OAK GROVE, MN, 55303",617246126,"R"
316787,"20210 MIDDLEBELT RD","LIVONIA","MI",48152,42.4369894820001,-83.3364076569999,287,"20210 MIDDLEBELT RD, LIVONIA, MI, 48152","Match","Exact","20210 MIDDLEBELT RD, LIVONIA, MI, 48152",95418221,"R"
316788,"20210 NATURE SPIRIT DR","TAMPA","FL",33647,28.157166756,-82.278381574,288,"20210 NATURE SPIRIT DR, TAMPA, FL, 33647","Match","Non_Exact","20210 NATURES SPIRIT DR, TAMPA, FL, 33647",624515761,"L"
316789,"20210 RODEO CT","SOUTHFIELD","MI",48075,42.478547882,-83.242365562,289,"20210 RODEO CT, SOUTHFIELD, MI, 48075","Match","Exact","20210 RODEO CT, SOUTHFIELD, MI, 48075",69840755,"L"
316790,"20210 SANDWITH DR","KATY","TX",77449,29.790890598,-95.729319515,290,"20210 SANDWITH DR, KATY, TX, 77449","Match","Exact","20210 SANDWITH DR, KATY, TX, 77449",638592213,"R"
316791,"20210 STRATFORD","DETROIT","MI",48221,42.442414639,-83.136426301,291,"20210 STRATFORD, DETROIT, MI, 48221","Match","Non_Exact","20210 STRATFORD RD, DETROIT, MI, 48221",95460844,"R"
316792,"20210 STRATFORD","JOAN BROWN","TN",48221,NA,NA,292,"20210 STRATFORD, JOAN BROWN, TN, 48221","No_Match",NA,NA,NA,NA
316793,"20210 VANCES MILL RD","ABINGDON","VA",24211,36.6795882170001,-82.007357865,293,"20210 VANCES MILL RD, ABINGDON, VA, 24211","Match","Exact","20210 VANCES MILL RD, ABINGDON, VA, 24211",637520755,"R"
316794,"20210 WESTHAMPTON AVE","SOUTHFIELD","MI",48075,42.4456529720001,-83.24089284,294,"20210 WESTHAMPTON AVE, SOUTHFIELD, MI, 48075","Match","Exact","20210 WESTHAMPTON AVE, SOUTHFIELD, MI, 48075",69739479,"R"
316795,"20211 369TH AVENUE","WESSINGTON","SD",57381,44.456766148,-98.801422104,295,"20211 369TH AVENUE, WESSINGTON, SD, 57381","Match","Exact","20211 369TH AVE, WESSINGTON, SD, 57381",201083725,"L"
316796,"20211 72ND AVE EAST","SPANAWAY","WA",98387,47.0726458570001,-122.334102527,296,"20211 72ND AVE EAST, SPANAWAY, WA, 98387","Match","Exact","20211 72ND AVE E, SPANAWAY, WA, 98387",184700709,"R"
316797,"20211 77TH AVE NE","KENMORE","WA",98028,47.774837544,-122.236578246,297,"20211 77TH AVE NE, KENMORE, WA, 98028","Match","Exact","20211 77TH AVE NE, KENMORE, WA, 98028",186597313,"L"
316798,"20211 EGYPT ROAD","ABERDEEN","MS",39730,33.8901308040001,-88.685541507,298,"20211 EGYPT ROAD, ABERDEEN, MS, 39730","Match","Exact","20211 EGYPT RD, ABERDEEN, MS, 39730",611751309,"R"
316799,"20211 HIGHLAND PARK DRIVE","CYPRESS","TX",77433,NA,NA,299,"20211 HIGHLAND PARK DRIVE, CYPRESS, TX, 77433","No_Match",NA,NA,NA,NA
316800,"20211 HUEBNER RD APT 1016","SAN ANTONIO","TX",78258,NA,NA,300,"20211 HUEBNER RD APT 1016, SAN ANTONIO, TX, 78258","No_Match",NA,NA,NA,NA
316801,"20211 HUEBNER RD NUMBER 323","SAN ANTONIO","TX",78232,NA,NA,301,"20211 HUEBNER RD NUMBER 323, SAN ANTONIO, TX, 78232","No_Match",NA,NA,NA,NA
316802,"20211 NE 23RD CT","MIAMI","FL",33180,25.96238263,-80.155000741,302,"20211 NE 23RD CT, MIAMI, FL, 33180","Match","Non_Exact","20211 NE 23RD CT, MIAMI, FL, 33180",116042948,"R"
316803,"20211 PINEHURST","DETROIT","MI",48221,42.441691043,-83.167861277,303,"20211 PINEHURST, DETROIT, MI, 48221","Match","Non_Exact","20211 PINEHURST AVE, DETROIT, MI, 48221",95425082,"L"
316804,"20212 18TH AVE CT E","SPANAWAY","WA",98387,NA,NA,304,"20212 18TH AVE CT E, SPANAWAY, WA, 98387","No_Match",NA,NA,NA,NA
316805,"20212 87TH ST SE","SNOHOMISH","WA",98290,47.9170782190001,-121.960789217,305,"20212 87TH ST SE, SNOHOMISH, WA, 98290","Match","Exact","20212 87TH ST SE, SNOHOMISH, WA, 98290",187727104,"L"
316806,"20212 COUNTRY CLUB DRIVE","HARPER WOODS","MI",48225,42.442530172,-82.926523813,306,"20212 COUNTRY CLUB DRIVE, HARPER WOODS, MI, 48225","Match","Exact","20212 COUNTRY CLUB DR, HARPER WOODS, MI, 48225",95486723,"R"
316807,"20212 GARTLAND DR","CANYON COUNTRY","CA",91351,34.4150984300001,-118.487992058,307,"20212 GARTLAND DR, CANYON COUNTRY, CA, 91351","Match","Non_Exact","20212 GRATLAND DR, CANYON COUNTRY, CA, 91351",141853889,"R"
316808,"20212 GRAND BANKS LANE","PFLUGERVILLE","TX",78660,30.4761831660001,-97.5686481119999,308,"20212 GRAND BANKS LANE, PFLUGERVILLE, TX, 78660","Match","Exact","20212 GRAND BANKS LN, PFLUGERVILLE, TX, 78660",641803021,"L"
316809,"20212 MADA AVE","SOUTHFIELD","MI",48075,42.452542093,-83.242259029,309,"20212 MADA AVE, SOUTHFIELD, MI, 48075","Match","Exact","20212 MADA AVE, SOUTHFIELD, MI, 48075",69793447,"R"
316810,"20212 RD19","ATWOOD","KS",67730,NA,NA,310,"20212 RD19, ATWOOD, KS, 67730","No_Match",NA,NA,NA,NA
316811,"20213 83RD PL NE","KENMORE","WA",98028,47.7744428180001,-122.228231005,311,"20213 83RD PL NE, KENMORE, WA, 98028","Match","Exact","20213 83RD PL NE, KENMORE, WA, 98028",627369488,"R"
316812,"20213 83RD PLACE NE","KENMORE","WA",98028,47.7744428180001,-122.228231005,312,"20213 83RD PLACE NE, KENMORE, WA, 98028","Match","Exact","20213 83RD PL NE, KENMORE, WA, 98028",627369488,"R"
316813,"20213 CHARLOTTE RD","SUTHERLAND","VA",23885,37.1474739450001,-77.555090145,313,"20213 CHARLOTTE RD, SUTHERLAND, VA, 23885","Match","Exact","20213 CHARLOTTE RD, SUTHERLAND, VA, 23885",54168163,"R"
316814,"20213 GREEN ACRES DRIVE","HAMMOND","LA",70401,30.5344796950001,-90.394550328,314,"20213 GREEN ACRES DRIVE, HAMMOND, LA, 70401","Match","Exact","20213 GREEN ACRES DR, HAMMOND, LA, 70401",636505753,"R"
316815,"20213 LAUREL RD","SOUTH CHESTERFIELD","VA",23803,37.2471194120001,-77.428088969,315,"20213 LAUREL RD, SOUTH CHESTERFIELD, VA, 23803","Match","Exact","20213 LAUREL RD, SOUTH CHESTERFIELD, VA, 23803",625164245,"L"
316816,"20214 MANSFIELD","DETROTI","MI",48235,42.4412988730001,-83.206726359,316,"20214 MANSFIELD, DETROTI, MI, 48235","Match","Non_Exact","20214 MANSFIELD ST, DETROIT, MI, 48235",95422886,"R"
316817,"20214 MARKET STREET","ONANCOCK","VA",23417,37.7050887600001,-75.727942044,317,"20214 MARKET STREET, ONANCOCK, VA, 23417","Match","Exact","20214 MARKET ST, ONANCOCK, VA, 23417",642616288,"L"
316818,"20214 SE 152ND ST","RENTON","WA",98059,47.4663964550001,-122.071113909,318,"20214 SE 152ND ST, RENTON, WA, 98059","Match","Exact","20214 SE 152ND ST, RENTON, WA, 98059",239766859,"R"
316819,"20214 SENDERA OAKS LN","CYPRESS","TX",77433,29.8864235820001,-95.7172662249999,319,"20214 SENDERA OAKS LN, CYPRESS, TX, 77433","Match","Exact","20214 SENDERA OAKS LN, CYPRESS, TX, 77433",626963133,"L"
316820,"20214 STONE RD","HEBRON","IN",46341,41.2508814970001,-87.246517363,320,"20214 STONE RD, HEBRON, IN, 46341","Match","Exact","20214 STONE RD, HEBRON, IN, 46341",98414502,"R"
316821,"20215 104TH PL SE","KENT","WA",98031,47.420838981,-122.201809074,321,"20215 104TH PL SE, KENT, WA, 98031","Match","Exact","20215 104TH PL SE, KENT, WA, 98031",186713437,"R"
316822,"20215 125TH STREET COURT EAST","BONNEY LAKE","WA",98391,47.142357288,-122.160450976,322,"20215 125TH STREET COURT EAST, BONNEY LAKE, WA, 98391","Match","Exact","20215 125TH STREET CT E, BONNEY LAKE, WA, 98391",184710980,"R"
316823,"20215 ANNALEE AVE","CARSON","CA",90746,33.8483464540001,-118.2527723,323,"20215 ANNALEE AVE, CARSON, CA, 90746","Match","Exact","20215 ANNALEE AVE, CARSON, CA, 90746",141680693,"R"
316824,"20215 AROBOLADA GREEN CT","HUMBLE","TX",77346,30.0072498010001,-95.176458576,324,"20215 AROBOLADA GREEN CT, HUMBLE, TX, 77346","Match","Non_Exact","20215 ARBOLADA GREEN CT, HUMBLE, TX, 77346",627919659,"L"
316825,"20215 LANDIG CIRCLE","YORBA LINDA","CA",92887,33.870348655,-117.778880035,325,"20215 LANDIG CIRCLE, YORBA LINDA, CA, 92887","Match","Exact","20215 LANDIG CIR, YORBA LINDA, CA, 92887",651705431,"L"
316826,"20215 LAWNDALE","SAINT CLAIR SHORES","MI",48080,42.4720030670001,-82.9124760449999,326,"20215 LAWNDALE, SAINT CLAIR SHORES, MI, 48080","Match","Non_Exact","20215 LAWNDALE ST, SAINT CLAIR SHORES, MI, 48080",110685827,"L"
316827,"20215 LOUETTA CROSSING DR","SPRING","TX",77388,30.0568898400001,-95.4437387849999,327,"20215 LOUETTA CROSSING DR, SPRING, TX, 77388","Match","Exact","20215 LOUETTA CROSSING DR, SPRING, TX, 77388",636811098,"R"
316828,"20215 PASEO LORENZO","YORBA LINDA","CA",92886,33.881749776,-117.782748205,328,"20215 PASEO LORENZO, YORBA LINDA, CA, 92886","Match","Non_Exact","20215 PSO LORENZO, YORBA LINDA, CA, 92886",143996713,"L"
316829,"20215 SATICOY STREET","CONGA PARK","CA",91306,34.208334114,-118.573468767,329,"20215 SATICOY STREET, CONGA PARK, CA, 91306","Match","Non_Exact","20215 SATICOY ST, CANOGA PARK, CA, 91306",141540433,"R"
316830,"20216 ASH LN","ESCONDIDO","CA",92029,33.078698724,-117.116196846,330,"20216 ASH LN, ESCONDIDO, CA, 92029","Match","Exact","20216 ASH LN, ESCONDIDO, CA, 92029",195421392,"R"
316831,"20216 GIFFORD ST","WINNETKA","CA",91306,34.205059512,-118.57402523,331,"20216 GIFFORD ST, WINNETKA, CA, 91306","Match","Exact","20216 GIFFORD ST, WINNETKA, CA, 91306",141540494,"L"
316832,"20216 INDIAN ROSEWOOD DRIVE","TAMPA","FL",33647,28.1618616590001,-82.367226762,332,"20216 INDIAN ROSEWOOD DRIVE, TAMPA, FL, 33647","Match","Exact","20216 INDIAN ROSEWOOD DR, TAMPA, FL, 33647",624516116,"L"
316833,"20216 N STAR RD","KEOTA","OK",74941,NA,NA,333,"20216 N STAR RD, KEOTA, OK, 74941","No_Match",NA,NA,NA,NA
316834,"20217 BALTAR STREET","WINNETKA","CA",91306,34.2164240340001,-118.573894178,334,"20217 BALTAR STREET, WINNETKA, CA, 91306","Match","Exact","20217 BALTAR ST, WINNETKA, CA, 91306",141816798,"R"
316835,"20217 N INDIAN MERIDIAN","LUTHER","OK",73054,35.6754175130001,-97.247071735,335,"20217 N INDIAN MERIDIAN, LUTHER, OK, 73054","Match","Exact","20217 N INDIAN MERIDIAN, LUTHER, OK, 73054",606119017,"R"
316836,"20218 BELSHAW AVE","CARSON","CA",90746,33.8480848510001,-118.2552294,336,"20218 BELSHAW AVE, CARSON, CA, 90746","Match","Exact","20218 BELSHAW AVE, CARSON, CA, 90746",141680610,"L"
316837,"20218 ELIZABETH","ST CLAIR SHORES","MI",48080,42.4635717720001,-82.9149098199999,337,"20218 ELIZABETH, ST CLAIR SHORES, MI, 48080","Match","Non_Exact","20218 ELIZABETH ST, SAINT CLAIR SHORES, MI, 48080",110686105,"R"
316838,"20218 ENSLOW DRIVE","CARSON","CA",90746,33.848296743,-118.256049142,338,"20218 ENSLOW DRIVE, CARSON, CA, 90746","Match","Exact","20218 ENSLOW DR, CARSON, CA, 90746",141680609,"L"
316839,"20218 HERITAGE POINT DRIVE","TAMPA","FL",33647,28.165309683,-82.384368061,339,"20218 HERITAGE POINT DRIVE, TAMPA, FL, 33647","Match","Exact","20218 HERITAGE POINT DR, TAMPA, FL, 33647",624516359,"R"
316840,"20218 HIGHFIELD PARK DR","CYPRESS","TX",77433,29.9074306050001,-95.719835842,340,"20218 HIGHFIELD PARK DR, CYPRESS, TX, 77433","Match","Exact","20218 HIGHFIELD PARK DR, CYPRESS, TX, 77433",652122323,"L"
316841,"20218 NORTHPORT DR","CORNELIUS","NC",28031,35.483238586,-80.895161749,341,"20218 NORTHPORT DR, CORNELIUS, NC, 28031","Match","Exact","20218 NORTHPORT DR, CORNELIUS, NC, 28031",70540252,"L"
316842,"20218 NORTHWEST SQUARE","CUPERTINO","CA",95014,NA,NA,342,"20218 NORTHWEST SQUARE, CUPERTINO, CA, 95014","No_Match",NA,NA,NA,NA
316843,"20219 IVORY VALLEY LANE","CYPRESS","TX",77433,29.9098628360001,-95.718620083,343,"20219 IVORY VALLEY LANE, CYPRESS, TX, 77433","Match","Exact","20219 IVORY VALLEY LN, CYPRESS, TX, 77433",652136973,"R"
316844,"20219 MANOR","DETROIT","MI",48221,42.4417036930001,-83.170018022,344,"20219 MANOR, DETROIT, MI, 48221","Match","Non_Exact","20219 MANOR ST, DETROIT, MI, 48221",95425079,"L"
316845,"20219 NINA STREET","OMAHA","NE",68130,41.221179197,-96.230679104,345,"20219 NINA STREET, OMAHA, NE, 68130","Match","Exact","20219 NINA ST, OMAHA, NE, 68130",624290039,"R"
316846,"2021B CUNNINGHAM DRIVE STE 3","HAMPTON","VA",23666,37.046858682,-76.38234657,346,"2021B CUNNINGHAM DRIVE STE 3, HAMPTON, VA, 23666","Match","Exact","2021 CUNNINGHAM DR, HAMPTON, VA, 23666",103808546,"L"
316847,"2022 140TH ST","TRIPOLI","IA",50676,42.847817133,-92.352119134,347,"2022 140TH ST, TRIPOLI, IA, 50676","Match","Exact","2022 140TH ST, TRIPOLI, IA, 50676",77364033,"L"
316848,"2022 2ND AVENUE NORTH","SEATTLE","WA",98109,47.6367866670001,-122.353162874,348,"2022 2ND AVENUE NORTH, SEATTLE, WA, 98109","Match","Exact","2022 2ND AVE N, SEATTLE, WA, 98109",186582260,"R"
316849,"2022 68TH AVENUE SOUTH","SAINT PETERSBURG","FL",33712,27.706956797,-82.659259372,349,"2022 68TH AVENUE SOUTH, SAINT PETERSBURG, FL, 33712","Match","Exact","2022 68TH AVE S, SAINT PETERSBURG, FL, 33712",124711332,"L"
316850,"2022 ABBEY RD","HEARTLAND","TX",75126,32.6942241520001,-96.4529484019999,350,"2022 ABBEY RD, HEARTLAND, TX, 75126","Match","Exact","2022 ABBEY RD, HEARTLAND, TX, 75126",635290121,"L"
316851,"2022 ALAMOS AVE","CLOVIS","CA",93611,36.8061698770001,-119.67674252,351,"2022 ALAMOS AVE, CLOVIS, CA, 93611","Match","Exact","2022 ALAMOS AVE, CLOVIS, CA, 93611",197585694,"R"
316852,"2022 ALLYSON DR","HEARTLAND","TX",75126,32.6910613740001,-96.457361835,352,"2022 ALLYSON DR, HEARTLAND, TX, 75126","Match","Exact","2022 ALLYSON DR, HEARTLAND, TX, 75126",627562990,"L"
316853,"2022 ASPEN BROOK DR","HENDERSON","NV",89074,36.028027261,-115.073071938,353,"2022 ASPEN BROOK DR, HENDERSON, NV, 89074","Match","Exact","2022 ASPEN BROOK DR, HENDERSON, NV, 89074",201911056,"R"
316854,"2022 AUDUBON COURT","GLENDALE","IL",60139,41.9331768070001,-88.0852421549999,354,"2022 AUDUBON COURT, GLENDALE, IL, 60139","Match","Non_Exact","2022 AUDUBON DR, GLENDALE HEIGHTS, IL, 60139",112519597,"L"
316855,"2022 AUTUMN RIDGE DRIVE","SELLERSBURG","IN",47172,38.4276350910001,-85.8015938,355,"2022 AUTUMN RIDGE DRIVE, SELLERSBURG, IN, 47172","Match","Exact","2022 AUTUMN RIDGE DR, SELLERSBURG, IN, 47172",647076844,"R"
316856,"2022 BALMORAL DR","ROCK HILL","SC",29732,34.9724562930001,-81.125781403,356,"2022 BALMORAL DR, ROCK HILL, SC, 29732","Match","Exact","2022 BALMORAL DR, ROCK HILL, SC, 29732",19807987,"R"
316857,"2022 BARONWOOD COURT","GASTONIA","NC",28052,35.2525048300001,-81.21831108,357,"2022 BARONWOOD COURT, GASTONIA, NC, 28052","Match","Exact","2022 BARONWOOD CT, GASTONIA, NC, 28052",70403338,"L"
316858,"2022 BEACON HILL DR","NEWTON","PA",18940,40.2613087240001,-74.901991601,358,"2022 BEACON HILL DR, NEWTON, PA, 18940","Match","Non_Exact","2022 BEACON HILL DR, NEWTOWN, PA, 18940",134747616,"R"
316859,"2022 BEAUTYBERRY COURT","JACKSONVILLE","FL",32246,NA,NA,359,"2022 BEAUTYBERRY COURT, JACKSONVILLE, FL, 32246","No_Match",NA,NA,NA,NA
316860,"2022 BECKER ROAD","MARSHFIELD","WI",54449,44.6696764390001,-90.14662085,360,"2022 BECKER ROAD, MARSHFIELD, WI, 54449","Match","Non_Exact","2022 E BECKER RD, MARSHFIELD, WI, 54449",51299814,"L"
316861,"2022 BENEDICT AVENUE APT 4G","BRONX","NY",10462,40.8344006030001,-73.857075391,361,"2022 BENEDICT AVENUE APT 4G, BRONX, NY, 10462","Match","Exact","2022 BENEDICT AVE, BRONX, NY, 10462",80305483,"R"
316862,"2022 BENSON AVE","KLAMATH FALLS","OR",97601,42.2437452770001,-121.775328967,362,"2022 BENSON AVE, KLAMATH FALLS, OR, 97601","Match","Exact","2022 BENSON AVE, KLAMATH FALLS, OR, 97601",156656917,"L"
316863,"2022 BOSTON ROAD","WILBRAHAM","MA",1095,42.1492097140001,-72.4759732049999,363,"2022 BOSTON ROAD, WILBRAHAM, MA, 1095","Match","Exact","2022 BOSTON RD, WILBRAHAM, MA, 01095",4067786,"L"
316864,"2022 CARROLL DRIVE - APT D","RALEIGH","NC",27608,35.808202646,-78.6402398179999,364,"2022 CARROLL DRIVE - APT D, RALEIGH, NC, 27608","Match","Exact","2022 CARROLL DR, RALEIGH, NC, 27608",72507395,"R"
316865,"2022 COLUMBIA RD NO 105","WASHINGTON","DC",20009,38.917497369,-77.045756753,365,"2022 COLUMBIA RD NO 105, WASHINGTON, DC, 20009","Match","Non_Exact","2022 COLUMBIA RD NW, WASHINGTON, DC, 20009",76242855,"L"
316866,"2022 COLUMBIA ROAD NO 118","WASHINGTON","DC",20009,38.917497369,-77.045756753,366,"2022 COLUMBIA ROAD NO 118, WASHINGTON, DC, 20009","Match","Non_Exact","2022 COLUMBIA RD NW, WASHINGTON, DC, 20009",76242855,"L"
316867,"2022 COLUMBIA ROAD NW SUITE 202","WASHINGTON","DC",20009,38.917497369,-77.045756753,367,"2022 COLUMBIA ROAD NW SUITE 202, WASHINGTON, DC, 20009","Match","Exact","2022 COLUMBIA RD NW, WASHINGTON, DC, 20009",76242855,"L"
316868,"2022 COUNTRY OAKS DR","GARLAND","TX",75040,32.938145417,-96.5963959059999,368,"2022 COUNTRY OAKS DR, GARLAND, TX, 75040","Match","Exact","2022 COUNTRY OAKS DR, GARLAND, TX, 75040",102928778,"L"
316869,"2022 COUNTY ROUTE 12","CENTRAL SQUARE","NY",13036,43.2819772010001,-76.1577893429999,369,"2022 COUNTY ROUTE 12, CENTRAL SQUARE, NY, 13036","Match","Exact","2022 CO RTE 12, CENTRAL SQUARE, NY, 13036",57828140,"R"
316870,"2022 CYCLING LANE","INDIANAPOLIS","IN",46260,39.8778201380001,-86.195723648,370,"2022 CYCLING LANE, INDIANAPOLIS, IN, 46260","Match","Exact","2022 CYCLING LN, INDIANAPOLIS, IN, 46260",108024973,"L"
316871,"2022 DEERHURST DRIVE","HOUSTON","TX",77088,29.8865747070001,-95.4336706569999,371,"2022 DEERHURST DRIVE, HOUSTON, TX, 77088","Match","Non_Exact","2022 DEERHURST LN, HOUSTON, TX, 77088",96052426,"L"
316872,"2022 DENISE DR","STERLING HTS","MI",48310,42.5680216970001,-83.087796817,372,"2022 DENISE DR, STERLING HTS, MI, 48310","Match","Exact","2022 DENISE DR, STERLING HEIGHTS, MI, 48310",110667538,"R"
316873,"2022 DOUBLE TOP RD","JAMESTOWN","TN",38556,36.4972021230001,-85.0087129779999,373,"2022 DOUBLE TOP RD, JAMESTOWN, TN, 38556","Match","Exact","2022 DOUBLE TOP RD, JAMESTOWN, TN, 38556",25025944,"L"
316874,"2022 DUNHAM COURT","AUGUSTA","GA",30906,33.414149804,-82.021592327,374,"2022 DUNHAM COURT, AUGUSTA, GA, 30906","Match","Exact","2022 DUNHAM CT, AUGUSTA, GA, 30906",55637387,"L"
316875,"2022 E 56TH ST","BROOKLYN","NY",11234,40.6133089780001,-73.92033015,375,"2022 E 56TH ST, BROOKLYN, NY, 11234","Match","Exact","2022 E 56TH ST, BROOKLYN, NY, 11234",59092546,"R"
316876,"2022 E PARKVIEW CIECLE","HOFFMAN ESTATES","IL",60169,NA,NA,376,"2022 E PARKVIEW CIECLE, HOFFMAN ESTATES, IL, 60169","No_Match",NA,NA,NA,NA
316877,"2022 E RADCLIFFE","TEMPE","AZ",85283,33.374731829,-111.89928625,377,"2022 E RADCLIFFE, TEMPE, AZ, 85283","Match","Non_Exact","2022 E RADCLIFFE DR, TEMPE, AZ, 85283",128239375,"L"
316878,"2022 EAST SLAUGHTER LANE APT 1335","AUSTIN","TX",78747,NA,NA,378,"2022 EAST SLAUGHTER LANE APT 1335, AUSTIN, TX, 78747","No_Match",NA,NA,NA,NA
316879,"2022 EKA LANE APT 4","MADISON","WI",53704,NA,NA,379,"2022 EKA LANE APT 4, MADISON, WI, 53704","No_Match",NA,NA,NA,NA
316880,"2022 ELEVADA STREET","OCEANSIDE","CA",92054,33.1856240270001,-117.338345423,380,"2022 ELEVADA STREET, OCEANSIDE, CA, 92054","Match","Exact","2022 ELEVADA ST, OCEANSIDE, CA, 92054",195284674,"L"
316881,"2022 ERIE","RACINE","WI",53402,42.7463355620001,-87.7870901639999,381,"2022 ERIE, RACINE, WI, 53402","Match","Non_Exact","2022 ERIE ST, RACINE, WI, 53402",77910159,"L"
316882,"2022 FILHIOL AVENUE","MONROE","LA",71203,32.542193501,-92.07430714,382,"2022 FILHIOL AVENUE, MONROE, LA, 71203","Match","Exact","2022 FILHIOL AVE, MONROE, LA, 71203",612362401,"R"
316883,"2022 FLAGLER PLACE 101","WASHINGTON DC","DC",20001,38.91729909,-77.0135461359999,383,"2022 FLAGLER PLACE 101, WASHINGTON DC, DC, 20001","Match","Non_Exact","2022 FLAGLER PL NW, WASHINGTON, DC, 20001",76224633,"L"
316884,"2022 FM 1840","NEW BOSTON","TX",75570,33.435819893,-94.4661793509999,384,"2022 FM 1840, NEW BOSTON, TX, 75570","Match","Exact","2022 FM 1840, NEW BOSTON, TX, 75570",57683438,"L"
316885,"2022 FOOTHILLS","LEANDER","TX",78641,30.549203123,-97.8544842479999,385,"2022 FOOTHILLS, LEANDER, TX, 78641","Match","Exact","2022 FOOTHILLS, LEANDER, TX, 78641",627307931,"R"
316886,"2022 GLENBROOK MEADOWS DR","GARLAND","TX",75040,32.9314158620001,-96.636572458,386,"2022 GLENBROOK MEADOWS DR, GARLAND, TX, 75040","Match","Exact","2022 GLENBROOK MEADOWS DR, GARLAND, TX, 75040",103210615,"R"
316887,"2022 GREENBRIAR BLVD","LYNN HAVEN","FL",32444,30.2277190660001,-85.658471898,387,"2022 GREENBRIAR BLVD, LYNN HAVEN, FL, 32444","Match","Exact","2022 GREENBRIAR BLVD, LYNN HAVEN, FL, 32444",650579612,"R"
316888,"2022 HEINKE DRIVE","NAPA","CA",94558,38.2979577840001,-122.252477693,388,"2022 HEINKE DRIVE, NAPA, CA, 94558","Match","Exact","2022 HEINKE DR, NAPA, CA, 94558",67417847,"L"
316889,"2022 HWY 12","BALDWIN","WI",54002,44.9780624030001,-92.3903737589999,389,"2022 HWY 12, BALDWIN, WI, 54002","Match","Non_Exact","2022 US HWY 12, BALDWIN, WI, 54002",110920821,"R"
316890,"2022 INNSFAIL DR","SNELLVILLE","GA",30078,33.885811645,-84.016005089,390,"2022 INNSFAIL DR, SNELLVILLE, GA, 30078","Match","Exact","2022 INNSFAIL DR, SNELLVILLE, GA, 30078",88949355,"R"
316891,"2022 JEFFERSON ST","HOLLYWOOD","FL",33020,26.0058280910001,-80.148116463,391,"2022 JEFFERSON ST, HOLLYWOOD, FL, 33020","Match","Exact","2022 JEFFERSON ST, HOLLYWOOD, FL, 33020",114732533,"L"
316892,"2022 JULIAN AVENUE","SAN DIEGO","CA",92113,32.70164757,-117.140604859,392,"2022 JULIAN AVENUE, SAN DIEGO, CA, 92113","Match","Exact","2022 JULIAN AVE, SAN DIEGO, CA, 92113",195347944,"L"
316893,"2022 LA MESA DRIVE","RATON","NM",87740,36.8643272460001,-104.446279664,393,"2022 LA MESA DRIVE, RATON, NM, 87740","Match","Exact","2022 LA MESA DR, RATON, NM, 87740",605190719,"R"
316894,"2022 LAKE FOREST DRIVE","FORT MILL","SC",29708,35.0370213530001,-81.016352365,394,"2022 LAKE FOREST DRIVE, FORT MILL, SC, 29708","Match","Exact","2022 LAKE FOREST DR, FORT MILL, SC, 29708",636317934,"R"
316895,"2022 LAKELINE OAKS DRIVE","CEDAR PARK","TX",78613,30.478185862,-97.8250799259999,395,"2022 LAKELINE OAKS DRIVE, CEDAR PARK, TX, 78613","Match","Exact","2022 LAKELINE OAKS DR, CEDAR PARK, TX, 78613",126459617,"L"
316896,"2022 LAKEVIEW CT","ATLANTIC BEACH","FL",32233,30.3399129540001,-81.422965411,396,"2022 LAKEVIEW CT, ATLANTIC BEACH, FL, 32233","Match","Exact","2022 LAKEVIEW CT, ATLANTIC BCH, FL, 32233",83960346,"L"
316897,"2022 LONE ROCK DRIVE","KINGWOOD","TX",77339,30.063702517,-95.219552635,397,"2022 LONE ROCK DRIVE, KINGWOOD, TX, 77339","Match","Exact","2022 LONE ROCK DR, KINGWOOD, TX, 77339",96048035,"R"
316898,"2022 M AVE","ANACORTES","WA",98221,48.505719861,-122.617379677,398,"2022 M AVE, ANACORTES, WA, 98221","Match","Exact","2022 M AVE, ANACORTES, WA, 98221",183641880,"L"
316899,"2022 MCDOWELL ST","AUGUSTA","GA",30904,33.4708131790001,-82.008425583,399,"2022 MCDOWELL ST, AUGUSTA, GA, 30904","Match","Exact","2022 MCDOWELL ST, AUGUSTA, GA, 30904",55638636,"L"
316900,"2022 MEADOWRIDGE DRIVE","WASHINGTON","PA",15301,40.227944931,-80.18836678,400,"2022 MEADOWRIDGE DRIVE, WASHINGTON, PA, 15301","Match","Exact","2022 MEADOWRIDGE DR, WASHINGTON, PA, 15301",623782647,"R"
316901,"2022 MEDINA RD","MEDINA","MN",55356,45.0168010150001,-93.5749313589999,401,"2022 MEDINA RD, MEDINA, MN, 55356","Match","Non_Exact","2022 MEDINA RD, ORONO, MN, 55356",43857815,"L"
316902,"2022 MORRIS STREET","DALLAS","TX",75212,32.7834091920001,-96.853779477,402,"2022 MORRIS STREET, DALLAS, TX, 75212","Match","Exact","2022 MORRIS ST, DALLAS, TX, 75212",102904514,"L"
316903,"2022 N 5TH WAY","RIDGEFIELD","WA",98642,45.8195921350001,-122.728318177,403,"2022 N 5TH WAY, RIDGEFIELD, WA, 98642","Match","Exact","2022 N 5TH WAY, RIDGEFIELD, WA, 98642",158372418,"R"
316904,"2022 N 7TH ST","KANSAS CITY","KS",66101,39.128904365,-94.6267991569999,404,"2022 N 7TH ST, KANSAS CITY, KS, 66101","Match","Non_Exact","2022 N 7TH ST, KANSAS CITY, KS, 66101",91136434,"L"
316905,"2022 N 8TH STREET","BOISE","ID",83702,43.6321767690001,-116.197521964,405,"2022 N 8TH STREET, BOISE, ID, 83702","Match","Exact","2022 N 8TH ST, BOISE, ID, 83702",117860177,"R"
316906,"2022 N BOOTH ST","MILWAUKEE","WI",53212,43.0567436480001,-87.9040803189999,406,"2022 N BOOTH ST, MILWAUKEE, WI, 53212","Match","Exact","2022 N BOOTH ST, MILWAUKEE, WI, 53212",77744376,"R"
316907,"2022 N JUNIPER AVE","SILVER CITY","NM",88061,32.785646317,-108.272799756,407,"2022 N JUNIPER AVE, SILVER CITY, NM, 88061","Match","Exact","2022 N JUNIPER AVE, SILVER CITY, NM, 88061",192653991,"R"
316908,"2022 N NEVADA ST 1005","CHANDLER","AZ",85225,33.336235276,-111.835320421,408,"2022 N NEVADA ST 1005, CHANDLER, AZ, 85225","Match","Non_Exact","2022 N NEVADA ST, CHANDLER, AZ, 85225",601636342,"L"
316909,"2022 N NEVADA STREET APT 2077","CHANDLER","AZ",85225,33.336235276,-111.835320421,409,"2022 N NEVADA STREET APT 2077, CHANDLER, AZ, 85225","Match","Non_Exact","2022 N NEVADA ST, CHANDLER, AZ, 85225",601636342,"L"
316910,"2022 N ROFF AVE","OKLAHOMA CITY","OK",73107,35.489496607,-97.588264507,410,"2022 N ROFF AVE, OKLAHOMA CITY, OK, 73107","Match","Exact","2022 N ROFF AVE, OKLAHOMA CITY, OK, 73107",606083912,"R"
316911,"2022 N WOODROW ST","ARLINGTON","VA",22207,38.8969804650001,-77.119641015,411,"2022 N WOODROW ST, ARLINGTON, VA, 22207","Match","Exact","2022 N WOODROW ST, ARLINGTON, VA, 22207",76468119,"L"
316912,"2022 NORTH COTNER BOULEVARD","LINCOLN","NE",68505,40.83259658,-96.630399058,412,"2022 NORTH COTNER BOULEVARD, LINCOLN, NE, 68505","Match","Exact","2022 N COTNER BLVD, LINCOLN, NE, 68505",28259192,"R"
316913,"2022 NORTH NEVADA STREET","CHANDLER","AZ",85225,33.336221516,-111.835315123,413,"2022 NORTH NEVADA STREET, CHANDLER, AZ, 85225","Match","Exact","2022 N NEVADA ST, CHANDLER, AZ, 85225",601636342,"L"
316914,"2022 NORTH RIVER VIEW CIRCLE","ALBANY","GA",31705,31.606048291,-84.105909189,414,"2022 NORTH RIVER VIEW CIRCLE, ALBANY, GA, 31705","Match","Non_Exact","2022 N RIVERVIEW CIR, ALBANY, GA, 31705",84316126,"R"
316915,"2022 OHIO ST","MICHIGAN CITY","IN",46360,41.702297001,-86.90387749,415,"2022 OHIO ST, MICHIGAN CITY, IN, 46360","Match","Exact","2022 OHIO ST, MICHIGAN CITY, IN, 46360",15410807,"L"
316916,"2022 ORCHARD TRL","GARLAND","TX",75040,32.932532485,-96.602699591,416,"2022 ORCHARD TRL, GARLAND, TX, 75040","Match","Exact","2022 ORCHARD TRL, GARLAND, TX, 75040",103164481,"R"
316917,"2022 OSWALT ROAD","COLUMBUS","MS",39702,33.445668223,-88.360107197,417,"2022 OSWALT ROAD, COLUMBUS, MS, 39702","Match","Exact","2022 OSWALT RD, COLUMBUS, MS, 39702",649510243,"L"
316918,"2022 PEACH ORCHARD DRIVE","FALLS CHURCH","WV",22043,NA,NA,418,"2022 PEACH ORCHARD DRIVE, FALLS CHURCH, WV, 22043","No_Match",NA,NA,NA,NA
316919,"2022 PENN AVE","WEST LAWN","PA",19609,40.327572536,-75.9880126099999,419,"2022 PENN AVE, WEST LAWN, PA, 19609","Match","Non_Exact","2022 W PENN AVE, WEST LAWN, PA, 19609",80372393,"R"
316920,"2022 PHILOMENA DR","SCHENECTADY","NY",12303,42.7304416010001,-73.930332833,420,"2022 PHILOMENA DR, SCHENECTADY, NY, 12303","Match","Exact","2022 PHILOMENA DR, SCHENECTADY, NY, 12303",18365323,"R"
316921,"2022 POORHOUSE ROAD","LAWRENCEVILLE","VA",23868,36.792586628,-77.8500498659999,421,"2022 POORHOUSE ROAD, LAWRENCEVILLE, VA, 23868","Match","Non_Exact","2022 POOR HOUSE RD, LAWRENCEVILLE, VA, 23868",54040588,"R"
316922,"2022 RIVERHAVEN LANE","HOOVER","AL",35244,33.373691906,-86.7917574959999,422,"2022 RIVERHAVEN LANE, HOOVER, AL, 35244","Match","Non_Exact","2022 RIVER HAVEN LN, HOOVER, AL, 35244",646721778,"R"
316923,"2022 RIVERWOOD DR","GAINESVILLE","GA",30501,34.3404319220001,-83.810368156,423,"2022 RIVERWOOD DR, GAINESVILLE, GA, 30501","Match","Exact","2022 RIVERWOOD DR, GAINESVILLE, GA, 30501",636367635,"R"
316924,"2022 S 19TH AVE","BROADVIEW","IL",60155,NA,NA,424,"2022 S 19TH AVE, BROADVIEW, IL, 60155","Tie",NA,NA,NA,NA
316925,"2022 S 8TH AVENUE","YUMA","AZ",85364,32.6911847310001,-114.62896212,425,"2022 S 8TH AVENUE, YUMA, AZ, 85364","Match","Exact","2022 S 8TH AVE, YUMA, AZ, 85364",129668384,"R"
316926,"2022 S DORRANCE STREET","PHILADELPHIA","PA",19145,39.926217835,-75.176912506,426,"2022 S DORRANCE STREET, PHILADELPHIA, PA, 19145","Match","Exact","2022 S DORRANCE ST, PHILADELPHIA, PA, 19145",131411236,"R"
316927,"2022 S FRAZIER ST","PHILADELPHIA","PA",19143,39.935675578,-75.224980608,427,"2022 S FRAZIER ST, PHILADELPHIA, PA, 19143","Match","Exact","2022 S FRAZIER ST, PHILADELPHIA, PA, 19143",131409126,"R"
316928,"2022 S PUEBLO BLVD","PUEBLO","CO",81005,38.2315469160001,-104.662377602,428,"2022 S PUEBLO BLVD, PUEBLO, CO, 81005","Match","Exact","2022 S PUEBLO BLVD, PUEBLO, CO, 81005",637541594,"R"
316929,"2022 SALEM ROAD","ELGIN","IL",60123,42.0399073,-88.32806964,429,"2022 SALEM ROAD, ELGIN, IL, 60123","Match","Exact","2022 SALEM RD, ELGIN, IL, 60123",640637172,"R"
316930,"2022 SE HUDSON BLVD","TOPEKA","KS",66607,39.0305682320001,-95.6651893649999,430,"2022 SE HUDSON BLVD, TOPEKA, KS, 66607","Match","Exact","2022 SE HUDSON BLVD, TOPEKA, KS, 66607",17890609,"L"
316931,"2022 SINGLETREE LANE","ROCKY MOUNT","NC",27804,35.994609117,-77.876227221,431,"2022 SINGLETREE LANE, ROCKY MOUNT, NC, 27804","Match","Exact","2022 SINGLETREE LN, ROCKY MOUNT, NC, 27804",90388280,"R"
316932,"2022 SKYHAWK DRIVE","FORT WAYNE","IN",46815,41.0991271410001,-85.0498429419999,432,"2022 SKYHAWK DRIVE, FORT WAYNE, IN, 46815","Match","Exact","2022 SKYHAWK DR, FORT WAYNE, IN, 46815",6409508,"R"
316933,"2022 SNOW PINE LANE","HOUSTON","TX",77089,29.5722989540001,-95.243620284,433,"2022 SNOW PINE LANE, HOUSTON, TX, 77089","Match","Exact","2022 SNOW PINE LN, HOUSTON, TX, 77089",645178146,"R"
316934,"2022 SOUTH WOODLAWN ROAD","SPOKANE VALLEY","WA",99216,47.6386568390001,-117.232259949,434,"2022 SOUTH WOODLAWN ROAD, SPOKANE VALLEY, WA, 99216","Match","Exact","2022 S WOODLAWN RD, SPOKANE VALLEY, WA, 99216",189889288,"R"
316935,"2022 SOUTHERN OAKS","CARROLLTON","TX",75007,32.9934208350001,-96.884529322,435,"2022 SOUTHERN OAKS, CARROLLTON, TX, 75007","Match","Exact","2022 SOUTHERN OAKS, CARROLLTON, TX, 75007",103352402,"R"
316936,"2022 ST KITTS DR","EAGLE MOUNTAIN","UT",84005,40.3865687480001,-112.005262001,436,"2022 ST KITTS DR, EAGLE MOUNTAIN, UT, 84005","Match","Non_Exact","2022 E ST KITTS DR, EAGLE MOUNTAIN, UT, 84005",641816971,"R"
316937,"2022 STORK RD","TALLAHASSEE","FL",32305,30.3037979430001,-84.314040755,437,"2022 STORK RD, TALLAHASSEE, FL, 32305","Match","Exact","2022 STORK RD, TALLAHASSEE, FL, 32305",82867494,"L"
316938,"2022 SUMMERHILL LN","HENDERSON","KY",42420,37.8597642140001,-87.54586203,438,"2022 SUMMERHILL LN, HENDERSON, KY, 42420","Match","Non_Exact","2022 SUMMER HILL LN, HENDERSON, KY, 42420",57926997,"L"
316939,"2022 SUNNYSIDE","BRENTWOOD","TN",37027,36.0211939050001,-86.875065693,439,"2022 SUNNYSIDE, BRENTWOOD, TN, 37027","Match","Non_Exact","2022 SUNNY SIDE DR, BRENTWOOD, TN, 37027",73116914,"R"
316940,"2022 SW 43RD AVENUE","GAINESVILLE","FL",32608,29.61227754,-82.349706042,440,"2022 SW 43RD AVENUE, GAINESVILLE, FL, 32608","Match","Exact","2022 SW 43RD AVE, GAINESVILLE, FL, 32608",6807438,"R"
316941,"2022 TWIN LEAF COURT","INDIANAPOLIS","IN",46229,39.7959012650001,-85.964650986,441,"2022 TWIN LEAF COURT, INDIANAPOLIS, IN, 46229","Match","Exact","2022 TWIN LEAF CT, INDIANAPOLIS, IN, 46229",108040830,"R"
316942,"2022 TWINLEAF CT","INDIANAPOLIS","IN",46229,39.7959012650001,-85.964650986,442,"2022 TWINLEAF CT, INDIANAPOLIS, IN, 46229","Match","Non_Exact","2022 TWIN LEAF CT, INDIANAPOLIS, IN, 46229",108040830,"R"
316943,"2022 VARDON LANE","FLOSSMOOR","IL",60422,41.546499382,-87.666100899,443,"2022 VARDON LANE, FLOSSMOOR, IL, 60422","Match","Exact","2022 VARDON LN, FLOSSMOOR, IL, 60422",111709951,"L"
316944,"2022 W ASTER DR","PHOENIX","AZ",85029,33.6027429870001,-112.10219801,444,"2022 W ASTER DR, PHOENIX, AZ, 85029","Match","Exact","2022 W ASTER DR, PHOENIX, AZ, 85029",128181441,"R"
316945,"2022 W BLUE VIOLET CT","ANAHEIM","CA",92801,NA,NA,445,"2022 W BLUE VIOLET CT, ANAHEIM, CA, 92801","Tie",NA,NA,NA,NA
316946,"2022 W RESERVE CIRCLE","AVON","OH",44011,41.462745909,-82.029004723,446,"2022 W RESERVE CIRCLE, AVON, OH, 44011","Match","Exact","2022 W RESERVE CIR, AVON, OH, 44011",55422689,"R"
316947,"2022 W SUNSET AVE","SPRINGDALE","AR",72764,36.174801937,-94.152350395,447,"2022 W SUNSET AVE, SPRINGDALE, AR, 72764","Match","Non_Exact","2022 W SUNSET AVE, SPRINGDALE, AR, 72762",49043107,"R"
316948,"2022 WATT STREET","RENO","NV",89509,39.5030846060001,-119.809496846,448,"2022 WATT STREET, RENO, NV, 89509","Match","Exact","2022 WATT ST, RENO, NV, 89509",107045459,"L"
316949,"2022 WAVERLY GLEN DR","KATY","TX",77450,NA,NA,449,"2022 WAVERLY GLEN DR, KATY, TX, 77450","No_Match",NA,NA,NA,NA
316950,"2022 WEST ADAMS BLVD","LOS ANGELES","CA",90018,34.032687024,-118.309470884,450,"2022 WEST ADAMS BLVD, LOS ANGELES, CA, 90018","Match","Exact","2022 W ADAMS BLVD, LOS ANGELES, CA, 90018",141606026,"L"
316951,"2022 WEST HIGH STREET","HADDON HEIGHTS","NJ",8035,39.8747003220001,-75.081336923,451,"2022 WEST HIGH STREET, HADDON HEIGHTS, NJ, 8035","Match","Exact","2022 W HIGH ST, HADDON HEIGHTS, NJ, 08035",134351426,"L"
316952,"2022 WEST PENSACOLA AVENUE","CHICAGO","IL",60618,41.960532432,-87.6799684969999,452,"2022 WEST PENSACOLA AVENUE, CHICAGO, IL, 60618","Match","Exact","2022 W PENSACOLA AVE, CHICAGO, IL, 60618",605196295,"R"
316953,"2022 WEST RANDOLPH ST","CHICAGO","IL",60612,41.884616153,-87.677877643,453,"2022 WEST RANDOLPH ST, CHICAGO, IL, 60612","Match","Exact","2022 W RANDOLPH ST, CHICAGO, IL, 60612",111892047,"R"
316954,"2022 WEST VALLEY PLACE","ROUND ROCK","TX",78665,30.574038869,-97.6557212,454,"2022 WEST VALLEY PLACE, ROUND ROCK, TX, 78665","Match","Non_Exact","2022 WESTVALLEY PL, ROUND ROCK, TX, 78665",619960470,"R"
316955,"2022 WETHERSFIELD DR","FLORENCE","SC",29501,34.1634846200001,-79.817573419,455,"2022 WETHERSFIELD DR, FLORENCE, SC, 29501","Match","Exact","2022 WETHERSFIELD DR, FLORENCE, SC, 29501",642899943,"L"
316956,"2022 WHITEFORD ROAD","WHITEFORD","MD",21160,39.6922861150001,-76.306856513,456,"2022 WHITEFORD ROAD, WHITEFORD, MD, 21160","Match","Exact","2022 WHITEFORD RD, WHITEFORD, MD, 21160",647529131,"L"
316957,"2022 WIGGINGTON ROAD","LYNCHBURG","VA",24502,37.4314996140001,-79.260092173,457,"2022 WIGGINGTON ROAD, LYNCHBURG, VA, 24502","Match","Exact","2022 WIGGINGTON RD, LYNCHBURG, VA, 24502",62740979,"L"
316958,"2022 WRANGLER DRIVE","BRANDON","FL",33511,27.9025622670001,-82.329534536,458,"2022 WRANGLER DRIVE, BRANDON, FL, 33511","Match","Exact","2022 WRANGLER DR, BRANDON, FL, 33511",104576946,"R"
316959,"2022","FOOTHILLS","TX",78641,NA,NA,459,"2022, FOOTHILLS, TX, 78641","No_Match",NA,NA,NA,NA
316960,"20220 143RD LN SE","YELM","WA",98597,46.878860161,-122.514633852,460,"20220 143RD LN SE, YELM, WA, 98597","Match","Exact","20220 143RD LN SE, YELM, WA, 98597",627464624,"L"
316961,"20220 HARBOR LANE","SOUTHFIELD","MI",48076,42.4918495090001,-83.2432323899999,461,"20220 HARBOR LANE, SOUTHFIELD, MI, 48076","Match","Exact","20220 HARBOR LN, SOUTHFIELD, MI, 48076",69739005,"R"
316962,"20220 NE 104TH AVE","BATTLE GROUND","WA",98604,45.767713068,-122.566183192,462,"20220 NE 104TH AVE, BATTLE GROUND, WA, 98604","Match","Exact","20220 NE 104TH AVE, BATTLE GROUND, WA, 98604",158363888,"L"
316963,"20220 NE 50TH ST","HERRAH","OK",73045,35.521388442,-97.1726552969999,463,"20220 NE 50TH ST, HERRAH, OK, 73045","Match","Non_Exact","20220 NE 50TH ST, HARRAH, OK, 73045",100439416,"L"
316964,"20221 374TH AVENUE","WESSINGTON","SD",57381,44.453695114,-98.701345529,464,"20221 374TH AVENUE, WESSINGTON, SD, 57381","Match","Exact","20221 374TH AVE, WESSINGTON, SD, 57381",201062116,"L"
316965,"20221 ARMADA RIDGE ROAD","ARMADA","MI",48005,42.8162859020001,-82.925836202,465,"20221 ARMADA RIDGE ROAD, ARMADA, MI, 48005","Match","Exact","20221 ARMADA RIDGE RD, ARMADA, MI, 48005",110661647,"R"
316966,"20221 BEECHAVEN","SOUTHFIELD","MI",48076,42.508547623,-83.2452281449999,466,"20221 BEECHAVEN, SOUTHFIELD, MI, 48076","Match","Non_Exact","20221 BEECHAVEN ST, SOUTHFIELD, MI, 48076",69734872,"R"
316967,"20221 DEERVALE LANE","HUNTINGTON BEACH","CA",92646,33.6688068560001,-117.963051458,467,"20221 DEERVALE LANE, HUNTINGTON BEACH, CA, 92646","Match","Exact","20221 DEERVALE LN, HUNTINGTON BEACH, CA, 92646",144044598,"R"
316968,"20221 KENSINGTON WAY","LAKEVILLE","MN",55044,44.6571852000001,-93.286695077,468,"20221 KENSINGTON WAY, LAKEVILLE, MN, 55044","Match","Exact","20221 KENSINGTON WAY, LAKEVILLE, MN, 55044",37924869,"R"
316969,"20221 NW 33RD AVENUE","MIAMI","FL",33056,25.957517968,-80.256967096,469,"20221 NW 33RD AVENUE, MIAMI, FL, 33056","Match","Non_Exact","20221 NW 33RD AVE, MIAMI GARDENS, FL, 33056",116260285,"L"
316970,"20221 PLAZA DE MADRID","CERRITOS","CA",90703,33.8470626000001,-118.073589468,470,"20221 PLAZA DE MADRID, CERRITOS, CA, 90703","Match","Non_Exact","20221 PLZ DE MADRID, CERRITOS, CA, 90703",141744918,"R"
316971,"20222 ANDORRA POINTE TRACE","RICHMOND","TX",77407,29.6789122070001,-95.7332552399999,471,"20222 ANDORRA POINTE TRACE, RICHMOND, TX, 77407","Match","Exact","20222 ANDORRA POINTE TRCE, RICHMOND, TX, 77407",648705678,"R"
316972,"20222 CALLIOPE KNOLLS DR","SPRING","TX",77379,NA,NA,472,"20222 CALLIOPE KNOLLS DR, SPRING, TX, 77379","No_Match",NA,NA,NA,NA
316973,"20222 CAMPAIGN DRIVE","CARSON","CA",90746,33.8482047030001,-118.25685574,473,"20222 CAMPAIGN DRIVE, CARSON, CA, 90746","Match","Exact","20222 CAMPAIGN DR, CARSON, CA, 90746",141680607,"L"
316974,"20222 DEQUINDRE","DETROIT","MI",48234,42.4435280170001,-83.083247004,474,"20222 DEQUINDRE, DETROIT, MI, 48234","Match","Non_Exact","20222 DEQUINDRE ST, DETROIT, MI, 48234",95462810,"R"
316975,"20222 RODRIGUES AVE","CUPERTINO","CA",95014,37.319677541,-122.026749075,475,"20222 RODRIGUES AVE, CUPERTINO, CA, 95014","Match","Exact","20222 RODRIGUES AVE, CUPERTINO, CA, 95014",122991633,"L"
316976,"20223 BELLA SKY","SAN ANTONIO","TX",78257,NA,NA,476,"20223 BELLA SKY, SAN ANTONIO, TX, 78257","No_Match",NA,NA,NA,NA
316977,"20223 SCOBEY AVENUE","CARSON","CA",90746,33.848217635,-118.254433913,477,"20223 SCOBEY AVENUE, CARSON, CA, 90746","Match","Exact","20223 SCOBEY AVE, CARSON, CA, 90746",141680612,"R"
316978,"20225 BEACONSFIELD ST","HARPER WOODS","MI",48225,42.444100264,-82.93145351,478,"20225 BEACONSFIELD ST, HARPER WOODS, MI, 48225","Match","Exact","20225 BEACONSFIELD ST, HARPER WOODS, MI, 48225",642524782,"L"
316979,"20225 BOTHEL EVERETT HWY 1734","BOTHELL","WA",98012,47.8165211400001,-122.207486013,479,"20225 BOTHEL EVERETT HWY 1734, BOTHELL, WA, 98012","Match","Non_Exact","20225 BOTHELL EVERETT HWY, BOTHELL, WA, 98012",629051524,"R"
316980,"20225 BOTHELL EVERETT HWY","BOTHELL","WA",98012,47.8165211400001,-122.207486013,480,"20225 BOTHELL EVERETT HWY, BOTHELL, WA, 98012","Match","Exact","20225 BOTHELL EVERETT HWY, BOTHELL, WA, 98012",629051524,"R"
316981,"20225 BUFFALO TRL","NEWALLA","OK",74857,NA,NA,481,"20225 BUFFALO TRL, NEWALLA, OK, 74857","No_Match",NA,NA,NA,NA
316982,"20225 N 150TH DRIVE","SUN CITY WEST","AZ",85375,33.667871715,-112.383922552,482,"20225 N 150TH DRIVE, SUN CITY WEST, AZ, 85375","Match","Exact","20225 N 150TH DR, SUN CITY WEST, AZ, 85375",128361792,"R"
316983,"20225 NATURES SPIRIT DR","TAMPA","FL",33647,28.157705261,-82.277788066,483,"20225 NATURES SPIRIT DR, TAMPA, FL, 33647","Match","Exact","20225 NATURES SPIRIT DR, TAMPA, FL, 33647",624515762,"R"
316984,"20225 NE 34 COURT APT 1714","AVENTURA","FL",33180,25.964940497,-80.133480709,484,"20225 NE 34 COURT APT 1714, AVENTURA, FL, 33180","Match","Non_Exact","20225 NE 34TH CT, AVENTURA, FL, 33180",116043446,"R"
316985,"20225 NE 34 CT","AVENTURA","FL",33180,25.964940497,-80.133480709,485,"20225 NE 34 CT, AVENTURA, FL, 33180","Match","Exact","20225 NE 34TH CT, AVENTURA, FL, 33180",116043446,"R"
316986,"20225 SPARTA HIGHWAY","CORRY","PA",16407,NA,NA,486,"20225 SPARTA HIGHWAY, CORRY, PA, 16407","No_Match",NA,NA,NA,NA
316987,"20226 JEWELL AVE","SOUTH BEND","IN",46614,41.619700041,-86.2576592089999,487,"20226 JEWELL AVE, SOUTH BEND, IN, 46614","Match","Exact","20226 JEWELL AVE, SOUTH BEND, IN, 46614",8079605,"L"
316988,"20227 BEARD ST","CORNELIUS","NC",28031,35.489031713,-80.8636819819999,488,"20227 BEARD ST, CORNELIUS, NC, 28031","Match","Exact","20227 BEARD ST, CORNELIUS, NC, 28031",70559251,"L"
316989,"20227 CONCORD HILL DR","CYPRESS","TX",77433,29.9909691410001,-95.734287587,489,"20227 CONCORD HILL DR, CYPRESS, TX, 77433","Match","Exact","20227 CONCORD HILL DR, CYPRESS, TX, 77433",96161828,"L"
316990,"20227 COUNTY ROAD 510","BRAZORIA","TX",77422,28.9937898420001,-95.583543176,490,"20227 COUNTY ROAD 510, BRAZORIA, TX, 77422","Match","Exact","20227 CO RD 510, BRAZORIA, TX, 77422",116610429,"R"
316991,"20227 FREELAND STREET","DETROIT","MI",48235,42.4415424910001,-83.186899091,491,"20227 FREELAND STREET, DETROIT, MI, 48235","Match","Exact","20227 FREELAND ST, DETROIT, MI, 48235",95424233,"L"
316992,"20227 MILLVILLE DR LOWER LEVEL","MACOMB","MI",48044,42.633907084,-82.92032075,492,"20227 MILLVILLE DR LOWER LEVEL, MACOMB, MI, 48044","Match","Exact","20227 MILLVILLE DR, MACOMB, MI, 48044",110720318,"R"
316993,"20228 NINA ST","OMAHA","NE",68130,41.2211125850001,-96.230853079,493,"20228 NINA ST, OMAHA, NE, 68130","Match","Exact","20228 NINA ST, OMAHA, NE, 68130",624290039,"L"
316994,"20228 ROWE","DETROIT","MI",48205,42.4456184110001,-83.003870873,494,"20228 ROWE, DETROIT, MI, 48205","Match","Non_Exact","20228 ROWE AVE, DETROIT, MI, 48205",95465466,"R"
316995,"20229 PINE LAKE RD","BATTLE CREEK","MI",49014,42.367875342,-85.101726917,495,"20229 PINE LAKE RD, BATTLE CREEK, MI, 49014","Match","Exact","20229 PINE LAKE RD, BATTLE CREEK, MI, 49014",11715568,"L"
316996,"20229 SILVER SAGE STREET","BEND","OR",97702,44.0211862530001,-121.312048981,496,"20229 SILVER SAGE STREET, BEND, OR, 97702","Match","Exact","20229 SILVER SAGE ST, BEND, OR, 97702",152554959,"R"
316997,"20229 VIEWCREST DRIVE","ALMADEN","CA",95120,37.2147459220001,-121.832708643,497,"20229 VIEWCREST DRIVE, ALMADEN, CA, 95120","Match","Non_Exact","20229 VIEWCREST DR, SAN JOSE, CA, 95120",122925995,"L"
316998,"20229 VIEWCREST DRIVE","SAN JOSE","CA",95120,37.2147459220001,-121.832708643,498,"20229 VIEWCREST DRIVE, SAN JOSE, CA, 95120","Match","Exact","20229 VIEWCREST DR, SAN JOSE, CA, 95120",122925995,"L"
316999,"2023 11TH AVE E","TWIN FALLS","ID",83301,42.5621871440001,-114.444851634,499,"2023 11TH AVE E, TWIN FALLS, ID, 83301","Match","Exact","2023 11TH AVE E, TWIN FALLS, ID, 83301",118761736,"R"
317000,"2023 153RD PLACE","SHEROLINE","IL",63112,NA,NA,500,"2023 153RD PLACE, SHEROLINE, IL, 63112","No_Match",NA,NA,NA,NA
