"ID","Address","City","State","Zip","lat","long","id","input_address","match_indicator","match_type","matched_address","tiger_line_id","tiger_side"
137001,"130 BLAKELEY DRIVE","SAN ANTONIO","TX",78209,29.4856554850001,-98.446380536,1,"130 BLAKELEY DRIVE, SAN ANTONIO, TX, 78209","Match","Exact","130 BLAKELEY DR, SAN ANTONIO, TX, 78209",101529863,"R"
137002,"130 BLEVINS HOLLOW RD","ELIZABETHTON","TN",37643,NA,NA,2,"130 BLEVINS HOLLOW RD, ELIZABETHTON, TN, 37643","No_Match",NA,NA,NA,NA
137003,"130 BLOOMFIELD AVENUE","NUTLEY","NJ",7110,40.8134713810001,-74.172662142,3,"130 BLOOMFIELD AVENUE, NUTLEY, NJ, 7110","Match","Exact","130 BLOOMFIELD AVE, NUTLEY, NJ, 07110",63476447,"R"
137004,"130 BLUE WATER DRIVE","READFORD","NC",28376,35.044726364,-79.146457829,4,"130 BLUE WATER DRIVE, READFORD, NC, 28376","Match","Non_Exact","130 BLUE WATER DR, RAEFORD, NC, 28376",76191712,"R"
137005,"130 BLUEBIRD LANE","WAXHAW","NC",28173,35.017993258,-80.766458109,5,"130 BLUEBIRD LANE, WAXHAW, NC, 28173","Match","Exact","130 BLUEBIRD LN, WAXHAW, NC, 28173",631205425,"R"
137006,"130 BLUSHING GROOM","MONTGOMERY","AL",36117,32.385887328,-86.17246865,6,"130 BLUSHING GROOM, MONTGOMERY, AL, 36117","Match","Non_Exact","130 BLUSHING GROOM ST, MONTGOMERY, AL, 36117",1495776,"L"
137007,"130 BOB WHITE RD","AXSON","GA",31624,NA,NA,7,"130 BOB WHITE RD, AXSON, GA, 31624","No_Match",NA,NA,NA,NA
137008,"130 BONNIEVEW AVE","MINERVA","OH",44657,40.7308483350001,-81.097355513,8,"130 BONNIEVEW AVE, MINERVA, OH, 44657","Match","Non_Exact","130 BONNIEVIEW AVE, MINERVA, OH, 44657",64723733,"R"
137009,"130 BOWMAN LANE","BATESVILLE","AR",72501,35.7084963340001,-91.628027639,9,"130 BOWMAN LANE, BATESVILLE, AR, 72501","Match","Exact","130 BOWMAN LN, BATESVILLE, AR, 72501",41647112,"R"
137010,"130 BOYLE DR","EUREKA","CA",95503,40.756091789,-124.166177361,10,"130 BOYLE DR, EUREKA, CA, 95503","Match","Exact","130 BOYLE DR, EUREKA, CA, 95503",112990906,"R"
137011,"130 BRADLEY AVENUE APT 302","MERIDEN","CT",6451,41.5371426,-72.817730105,11,"130 BRADLEY AVENUE APT 302, MERIDEN, CT, 6451","Match","Exact","130 BRADLEY AVE, MERIDEN, CT, 06451",3723233,"L"
137012,"130 BRAHMS CIRCLE","WHEATON","IL",60189,41.832354041,-88.105714387,12,"130 BRAHMS CIRCLE, WHEATON, IL, 60189","Match","Exact","130 BRAHMS CIR, WHEATON, IL, 60189",637436081,"L"
137013,"130 BRANCH COURT","SHEPHERDSVILLE","KY",40165,38.009510146,-85.713332981,13,"130 BRANCH COURT, SHEPHERDSVILLE, KY, 40165","Match","Exact","130 BRANCH CT, SHEPHERDSVILLE, KY, 40165",47743697,"R"
137014,"130 BRANK COVE RD","WEAVERVILLE","NC",28787,35.7335653540001,-82.53597275,14,"130 BRANK COVE RD, WEAVERVILLE, NC, 28787","Match","Exact","130 BRANK COVE RD, WEAVERVILLE, NC, 28787",632144941,"R"
137015,"130 BRAZIL AVENUE","SAN FRANCISCO","CA",94112,37.724184807,-122.433763092,15,"130 BRAZIL AVENUE, SAN FRANCISCO, CA, 94112","Match","Exact","130 BRAZIL AVE, SAN FRANCISCO, CA, 94112",192286458,"R"
137016,"130 BREEDLOVE RD","BRYSON CITY","NC",28713,35.4147957800001,-83.445614136,16,"130 BREEDLOVE RD, BRYSON CITY, NC, 28713","Match","Exact","130 BREEDLOVE RD, BRYSON CITY, NC, 28713",36119682,"R"
137017,"130 BRENLEIGH PARK","STOCKBRIDGE","GA",30281,NA,NA,17,"130 BRENLEIGH PARK, STOCKBRIDGE, GA, 30281","No_Match",NA,NA,NA,NA
137018,"130 BRIDGE ST","SAN GABRIEL","CA",91775,34.10304261,-118.112254969,18,"130 BRIDGE ST, SAN GABRIEL, CA, 91775","Match","Exact","130 BRIDGE ST, SAN GABRIEL, CA, 91775",141633718,"R"
137019,"130 BRIGADOON BLVD","SEQUIM","WA",98382,48.130038848,-123.118996819,19,"130 BRIGADOON BLVD, SEQUIM, WA, 98382","Match","Exact","130 BRIGADOON BLVD, SEQUIM, WA, 98382",150866785,"L"
137020,"130 BROAD ST","SUMTER","SC",29150,33.9293554070001,-80.34754799,20,"130 BROAD ST, SUMTER, SC, 29150","Match","Exact","130 BROAD ST, SUMTER, SC, 29150",202710258,"L"
137021,"130 BROADWAY","HAGERSTOWN","MD",21740,39.6466984530001,-77.711877895,21,"130 BROADWAY, HAGERSTOWN, MD, 21740","Match","Exact","130 BROADWAY, HAGERSTOWN, MD, 21740",612158050,"L"
137022,"130 BROKHAVEN DRIVE","WYTHEVILLE","VA",24382,36.9718405720001,-81.1149135169999,22,"130 BROKHAVEN DRIVE, WYTHEVILLE, VA, 24382","Match","Non_Exact","130 BROOKHAVEN DR, WYTHEVILLE, VA, 24382",47641709,"R"
137023,"130 BRONWOOD ST","NEW LEBANON","OH",45345,39.743802966,-84.3806424799999,23,"130 BRONWOOD ST, NEW LEBANON, OH, 45345","Match","Exact","130 BRONWOOD ST, NEW LEBANON, OH, 45345",143560213,"L"
137024,"130 BROOKHAVEN DRIVE","WYTHEVILLE","VA",24382,36.9718405720001,-81.1149135169999,24,"130 BROOKHAVEN DRIVE, WYTHEVILLE, VA, 24382","Match","Exact","130 BROOKHAVEN DR, WYTHEVILLE, VA, 24382",47641709,"R"
137025,"130 BROOKLYN WAY","POOLER","GA",31322,32.0897548630001,-81.266074862,25,"130 BROOKLYN WAY, POOLER, GA, 31322","Match","Exact","130 BROOKLYN WAY, POOLER, GA, 31322",6236366,"L"
137026,"130 BROUGHAM AVENUE","MANTUA","NJ",8051,39.7838407290001,-75.171632399,26,"130 BROUGHAM AVENUE, MANTUA, NJ, 8051","Match","Exact","130 BROUGHAM AVE, MANTUA, NJ, 08051",134603728,"L"
137027,"130 BUCKSHIRE DR","HOLLAND","PA",18966,40.183900269,-74.962299195,27,"130 BUCKSHIRE DR, HOLLAND, PA, 18966","Match","Exact","130 BUCKSHIRE DR, HOLLAND, PA, 18966",134709872,"L"
137028,"130 BUCKSKIN CT","DADEVILLE","AL",36853,32.759900955,-85.799296016,28,"130 BUCKSKIN CT, DADEVILLE, AL, 36853","Match","Non_Exact","130 BUCK SKIN CT, DADEVILLE, AL, 36853",653332012,"R"
137029,"130 BUENA VISTA ESTATES","CAVE CITY","KY",42127,37.0907463780001,-85.970433546,29,"130 BUENA VISTA ESTATES, CAVE CITY, KY, 42127","Match","Non_Exact","130 BUENA VISTA EST, CAVE CITY, KY, 42127",29523953,"L"
137030,"130 BUENA VISTA","MILL VALLEY","CA",94941,37.9064839420001,-122.541019333,30,"130 BUENA VISTA, MILL VALLEY, CA, 94941","Match","Non_Exact","130 BUENA VISTA AVE, MILL VALLEY, CA, 94941",192766442,"R"
137031,"130 BUNKIES RD","ROCKINGHAM","NC",28379,34.8956219990001,-79.781653434,31,"130 BUNKIES RD, ROCKINGHAM, NC, 28379","Match","Exact","130 BUNKIES RD, ROCKINGHAM, NC, 28379",13919498,"R"
137032,"130 BURGHER AVE","STATEN ISLAND","NY",10304,40.59328004,-74.0932515069999,32,"130 BURGHER AVE, STATEN ISLAND, NY, 10304","Match","Exact","130 BURGHER AVE, STATEN ISLAND, NY, 10304",59868516,"R"
137033,"130 BURNCOAT STREET","WORCESTER","MA",1605,42.2949867460001,-71.7902150789999,33,"130 BURNCOAT STREET, WORCESTER, MA, 1605","Match","Exact","130 BURNCOAT ST, WORCESTER, MA, 01605",40006882,"L"
137034,"130 BUTLER COURT","DALEVILLE","VA",24083,37.4458010770001,-79.894085586,34,"130 BUTLER COURT, DALEVILLE, VA, 24083","Match","Exact","130 BUTLER CT, DALEVILLE, VA, 24083",632677670,"L"
137035,"130 BUTTERNUT HOLLOW","GREENWICH","CT",6830,41.0939166370001,-73.643098488,35,"130 BUTTERNUT HOLLOW, GREENWICH, CT, 6830","Match","Non_Exact","130 BUTTERNUT HOLLOW RD, GREENWICH, CT, 06830",3278124,"L"
137036,"130 CAGLE RD","HUNTSVILLE","AL",35811,34.814755227,-86.5024914049999,36,"130 CAGLE RD, HUNTSVILLE, AL, 35811","Match","Exact","130 CAGLE RD, HUNTSVILLE, AL, 35811",58218180,"R"
137037,"130 CALEB COURT","ANDERSON","SC",29625,34.520683739,-82.706082102,37,"130 CALEB COURT, ANDERSON, SC, 29625","Match","Exact","130 CALEB CT, ANDERSON, SC, 29625",624023755,"R"
137038,"130 CALIENTE ST","RENO","NV",89509,39.5125006550001,-119.80852695,38,"130 CALIENTE ST, RENO, NV, 89509","Match","Exact","130 CALIENTE ST, RENO, NV, 89509",107045416,"L"
137039,"130 CALLAWAY LN","CLEVELAND","TN",37323,35.1494985530001,-84.801545453,39,"130 CALLAWAY LN, CLEVELAND, TN, 37323","Match","Non_Exact","130 CALLAWAY LN NE, CLEVELAND, TN, 37323",624104847,"R"
137040,"130 CAMBRIDGE PARK DR APT 447","CAMBRIDGE","MA",2140,42.394775286,-71.1455472179999,40,"130 CAMBRIDGE PARK DR APT 447, CAMBRIDGE, MA, 2140","Match","Exact","130 CAMBRIDGE PARK DR, CAMBRIDGE, MA, 02140",650123459,"L"
137041,"130 CAMDIKE STREET","VALLEY STREAM","NY",11580,40.664615376,-73.7124217589999,41,"130 CAMDIKE STREET, VALLEY STREAM, NY, 11580","Match","Exact","130 CAMDIKE ST, VALLEY STREAM, NY, 11580",147668799,"R"
137042,"130 CAMELOT DRIVE","HUNTINGTON","WV",25701,38.3984145810001,-82.4164577019999,42,"130 CAMELOT DRIVE, HUNTINGTON, WV, 25701","Match","Exact","130 CAMELOT DR, HUNTINGTON, WV, 25701",101318847,"R"
137043,"130 CAMERON STATION BLVD","ALEXANDRIA","VA",22304,38.809599222,-77.118435705,43,"130 CAMERON STATION BLVD, ALEXANDRIA, VA, 22304","Match","Exact","130 CAMERON STATION BLVD, ALEXANDRIA, VA, 22304",638937513,"L"
137044,"130 CAMP AVE","BRADDOCK","PA",15104,40.409044323,-79.871895135,44,"130 CAMP AVE, BRADDOCK, PA, 15104","Match","Exact","130 CAMP AVE, BRADDOCK, PA, 15104",51817181,"R"
137045,"130 CAMPAIGN TRAIL","FAYETTEVILLE","GA",30214,33.4518904720001,-84.464387819,45,"130 CAMPAIGN TRAIL, FAYETTEVILLE, GA, 30214","Match","Exact","130 CAMPAIGN TRL, FAYETTEVILLE, GA, 30214",637375995,"L"
137046,"130 CANARY LANE","GRAND JUNCTION","CO",81507,39.0692053550001,-108.601815199,46,"130 CANARY LANE, GRAND JUNCTION, CO, 81507","Match","Exact","130 CANARY LN, GRAND JCT, CO, 81507",624986328,"R"
137047,"130 CARDELL FARMS","LOCUST GROVE","GA",30248,33.3639145130001,-84.065825305,47,"130 CARDELL FARMS, LOCUST GROVE, GA, 30248","Match","Non_Exact","130 CARDELL FARMS RD, LOCUST GROVE, GA, 30248",645555429,"R"
137048,"130 CARI LANE","MATTHEWS","NC",28104,35.0545585570001,-80.733092383,48,"130 CARI LANE, MATTHEWS, NC, 28104","Match","Exact","130 CARI LN, MATTHEWS, NC, 28104",639744773,"L"
137049,"130 CARRIAGE CROSSING WAY","TROY","OH",45373,40.065356132,-84.25578597,49,"130 CARRIAGE CROSSING WAY, TROY, OH, 45373","Match","Exact","130 CARRIAGE CROSSING WAY, TROY, OH, 45373",135307228,"L"
137050,"130 CARTER RANCH ROAD","THERMOPOLIS","WY",82443,43.6333695770001,-108.191984035,50,"130 CARTER RANCH ROAD, THERMOPOLIS, WY, 82443","Match","Exact","130 CARTER RANCH RD, THERMOPOLIS, WY, 82443",645555914,"L"
137051,"130 CASPER STREET","NYA","MN",55368,44.765031176,-93.923739687,51,"130 CASPER STREET, NYA, MN, 55368","Match","Exact","130 CASPER ST, NORWOOD YOUNG AMERICA, MN, 55368",43511395,"L"
137052,"130 CASTLE BLVD","AKRON","OH",44313,41.1096077020001,-81.561435919,52,"130 CASTLE BLVD, AKRON, OH, 44313","Match","Exact","130 CASTLE BLVD, AKRON, OH, 44313",61338178,"L"
137053,"130 CASTLE ROAD","CHAPPAQUA","NY",10514,41.1648861790001,-73.767031055,53,"130 CASTLE ROAD, CHAPPAQUA, NY, 10514","Match","Exact","130 CASTLE RD, CHAPPAQUA, NY, 10514",636426312,"L"
137054,"130 CASTLE ROCK","ASHEVILLE","NC",28806,35.508027059,-82.609581608,54,"130 CASTLE ROCK, ASHEVILLE, NC, 28806","Match","Non_Exact","130 CASTLEROCK DR, ASHEVILLE, NC, 28806",36847108,"R"
137055,"130 CASWELL BEACH RD","CASWELL BEACH","NC",28465,33.891575871,-78.030324962,55,"130 CASWELL BEACH RD, CASWELL BEACH, NC, 28465","Match","Exact","130 CASWELL BEACH RD, CASWELL BEACH, NC, 28465",153188162,"R"
137056,"130 CATSKILL AVE","YONKERS","NY",10704,40.928631092,-73.8627793319999,56,"130 CATSKILL AVE, YONKERS, NY, 10704","Match","Exact","130 CATSKILL AVE, YONKERS, NY, 10704",139745164,"R"
137057,"130 CEDAR COURT","SWEDESBORO","NJ",8085,39.7526243680001,-75.297667944,57,"130 CEDAR COURT, SWEDESBORO, NJ, 8085","Match","Exact","130 CEDAR CT, SWEDESBORO, NJ, 08085",625025216,"L"
137058,"130 CEDAR CREEK COURT","WINDER","GA",30680,33.9991700740001,-83.74780651,58,"130 CEDAR CREEK COURT, WINDER, GA, 30680","Match","Exact","130 CEDAR CREEK CT, WINDER, GA, 30680",77572670,"L"
137059,"130 CEDAR POINT LOOP","SAN RAMON","CA",94583,NA,NA,59,"130 CEDAR POINT LOOP, SAN RAMON, CA, 94583","No_Match",NA,NA,NA,NA
137060,"130 CEDAR SPRINGS DRIVE","CHURCH HILL","MD",21623,39.143073427,-75.978964677,60,"130 CEDAR SPRINGS DRIVE, CHURCH HILL, MD, 21623","Match","Exact","130 CEDAR SPRING DR, CHURCH HILL, MD, 21623",625745347,"L"
137061,"130 CEDAR","ONALASKA","TX",77360,30.8293598860001,-95.0913061859999,61,"130 CEDAR, ONALASKA, TX, 77360","Match","Exact","130 CEDAR, ONALASKA, TX, 77360",23227971,"R"
137062,"130 CEDARWOOD DR","LAFLIN","PA",18702,41.291902615,-75.797034368,62,"130 CEDARWOOD DR, LAFLIN, PA, 18702","Match","Non_Exact","130 CEDARWOOD DR, HILLDALE, PA, 18702",80919048,"R"
137063,"130 CENTER STREET","KEYSER","WV",26726,39.4395357920001,-78.974286059,63,"130 CENTER STREET, KEYSER, WV, 26726","Match","Exact","130 CENTER ST, KEYSER, WV, 26726",74297170,"L"
137064,"130 CENTRAL AVE STE 105","DOVER","NH",3820,43.1862106090001,-70.8737961959999,64,"130 CENTRAL AVE STE 105, DOVER, NH, 3820","Match","Exact","130 CENTRAL AVE, DOVER, NH, 03820",117806646,"L"
137065,"130 CENTRAL AVENUE","DOVER","NH",3820,43.1862106090001,-70.8737961959999,65,"130 CENTRAL AVENUE, DOVER, NH, 3820","Match","Exact","130 CENTRAL AVE, DOVER, NH, 03820",117806646,"L"
137066,"130 CHAMPION HILL ROAD","BOLTON","MS",39041,NA,NA,66,"130 CHAMPION HILL ROAD, BOLTON, MS, 39041","No_Match",NA,NA,NA,NA
137067,"130 CHANCELLOR AVE APT 5B","NEWARK","NJ",7112,40.7054051850001,-74.2145252999999,67,"130 CHANCELLOR AVE APT 5B, NEWARK, NJ, 7112","Match","Exact","130 CHANCELLOR AVE, NEWARK, NJ, 07112",63465323,"L"
137068,"130 CHANNEL ROAD 2","ALPENA","MI",49707,45.029264412,-83.458798975,68,"130 CHANNEL ROAD 2, ALPENA, MI, 49707","Match","Exact","130 CHANNEL ROAD 2, ALPENA, MI, 49707",135791681,"R"
137069,"130 CHANSON CT","ROSWELL","GA",30075,34.074147861,-84.408924772,69,"130 CHANSON CT, ROSWELL, GA, 30075","Match","Exact","130 CHANSON CT, ROSWELL, GA, 30075",17385534,"R"
137070,"130 CHARWILL DRIVE","CLINTON CORNERS","NY",12514,41.890481815,-73.7541677729999,70,"130 CHARWILL DRIVE, CLINTON CORNERS, NY, 12514","Match","Exact","130 CHARWILL DR, CLINTON CORNERS, NY, 12514",4187826,"R"
137071,"130 CHAUNCEY STREET","BROOKLYN","NY",11233,40.6803987810001,-73.9294709279999,71,"130 CHAUNCEY STREET, BROOKLYN, NY, 11233","Match","Exact","130 CHAUNCEY ST, BROOKLYN, NY, 11233",59082805,"R"
137072,"130 CHEEKWOOD","MADISON","AL",35758,34.7319902620001,-86.7311677289999,72,"130 CHEEKWOOD, MADISON, AL, 35758","Match","Non_Exact","130 CHEEKWOOD DR, MADISON, AL, 35758",58145170,"R"
137073,"130 CHESS STREET","MONONGAHELA","PA",15063,40.200184791,-79.923919417,73,"130 CHESS STREET, MONONGAHELA, PA, 15063","Match","Exact","130 CHESS ST, MONONGAHELA, PA, 15063",636461529,"R"
137074,"130 CHESTNUT STREET","SALISBURY","NC",28144,35.660586488,-80.4801184419999,74,"130 CHESTNUT STREET, SALISBURY, NC, 28144","Match","Exact","130 CHESTNUT ST, SALISBURY, NC, 28144",25268749,"R"
137075,"130 CHIFFON","IRVINE","CA",92618,33.699972546,-117.724668475,75,"130 CHIFFON, IRVINE, CA, 92618","Match","Exact","130 CHIFFON, IRVINE, CA, 92618",650719543,"R"
137076,"130 CHOCTAW BEND","CLINTON","MS",39056,32.3598406770001,-90.32021946,76,"130 CHOCTAW BEND, CLINTON, MS, 39056","Match","Exact","130 CHOCTAW BEND, CLINTON, MS, 39056",638787936,"L"
137077,"130 CHURCH ST","RICHFIELD","PA",17086,40.688901582,-77.106132523,77,"130 CHURCH ST, RICHFIELD, PA, 17086","Match","Exact","130 CHURCH ST, RICHFIELD, PA, 17086",47933889,"L"
137078,"130 CHURCHILL DOWNS","CAPE CHARLES","VA",23310,37.2590466560001,-76.0073696429999,78,"130 CHURCHILL DOWNS, CAPE CHARLES, VA, 23310","Match","Exact","130 CHURCHILL DOWNS, CAPE CHARLES, VA, 23310",640913280,"L"
137079,"130 CINEMA DRIVE - UNIT 2308","HENDERSONVILLE","TN",37075,36.328819035,-86.587730952,79,"130 CINEMA DRIVE - UNIT 2308, HENDERSONVILLE, TN, 37075","Match","Exact","130 CINEMA DR, HENDERSONVILLE, TN, 37075",650566327,"L"
137080,"130 CINNAMON WAY","CLEMMONS","NC",27012,35.9844892580001,-80.2926482519999,80,"130 CINNAMON WAY, CLEMMONS, NC, 27012","Match","Exact","130 CINNAMON WAY, CLEMMONS, NC, 27012",617911144,"R"
137081,"130 CLARKSON AVE APT 7F","BROOKLYN","NY",11226,40.655107016,-73.955282886,81,"130 CLARKSON AVE APT 7F, BROOKLYN, NY, 11226","Match","Exact","130 CLARKSON AVE, BROOKLYN, NY, 11226",650072981,"R"
137082,"130 CLARKSON AVE","BROOKLYN","NY",11226,40.655107016,-73.955282886,82,"130 CLARKSON AVE, BROOKLYN, NY, 11226","Match","Exact","130 CLARKSON AVE, BROOKLYN, NY, 11226",650072981,"R"
137083,"130 CLARKSON AVENUE","BROOKLYN","NY",11226,40.655107016,-73.955282886,83,"130 CLARKSON AVENUE, BROOKLYN, NY, 11226","Match","Exact","130 CLARKSON AVE, BROOKLYN, NY, 11226",650072981,"R"
137084,"130 CLEARVIEW ROAD","LONG POND","PA",18334,41.057122077,-75.4927267419999,84,"130 CLEARVIEW ROAD, LONG POND, PA, 18334","Match","Exact","130 CLEARVIEW RD, LONG POND, PA, 18334",648011756,"L"
137085,"130 CLEVELAND ST","LEBANON","OR",97355,44.5442048190001,-122.899618316,85,"130 CLEVELAND ST, LEBANON, OR, 97355","Match","Exact","130 CLEVELAND ST, LEBANON, OR, 97355",639086445,"L"
137086,"130 CLINTON ST","MONTGOMERY","NY",12549,41.5263489450001,-74.236206879,86,"130 CLINTON ST, MONTGOMERY, NY, 12549","Match","Exact","130 CLINTON ST, MONTGOMERY, NY, 12549",124407679,"R"
137087,"130 CLOVER RD","LUDLOW","MA",1056,42.182198021,-72.4644691939999,87,"130 CLOVER RD, LUDLOW, MA, 1056","Match","Exact","130 CLOVER RD, LUDLOW, MA, 01056",4026403,"R"
137088,"130 CO RD 700 N","NEOGA","IL",62447,39.272939534,-88.448250576,88,"130 CO RD 700 N, NEOGA, IL, 62447","Match","Exact","130 CO RD 700 N, NEOGA, IL, 62447",5710497,"L"
137089,"130 COFFEE BLUFF ROAD","LACEYS SPRING","AL",35754,34.5517763330001,-86.552765154,89,"130 COFFEE BLUFF ROAD, LACEYS SPRING, AL, 35754","Match","Exact","130 COFFEE BLUFF RD, LACEYS SPRING, AL, 35754",97111605,"L"
137090,"130 COLD SPRING STREET","NEW HAVEN","CT",6511,41.32546932,-72.913199939,90,"130 COLD SPRING STREET, NEW HAVEN, CT, 6511","Match","Exact","130 COLD SPRING ST, NEW HAVEN, CT, 06511",3700014,"L"
137091,"130 COLGATE COURT","CATONSVILLE","MD",21228,NA,NA,91,"130 COLGATE COURT, CATONSVILLE, MD, 21228","No_Match",NA,NA,NA,NA
137092,"130 COLLEGE AVE APARTMENT A","SOMERVILLE","MA",2144,42.4009679110001,-71.116607739,92,"130 COLLEGE AVE APARTMENT A, SOMERVILLE, MA, 2144","Match","Exact","130 COLLEGE AVE, SOMERVILLE, MA, 02144",86856058,"L"
137093,"130 COLLEGE PLACE","STATEN ISLAND","NY",10304,40.592941679,-74.108924668,93,"130 COLLEGE PLACE, STATEN ISLAND, NY, 10304","Match","Exact","130 COLLEGE PL, STATEN ISLAND, NY, 10304",59868114,"L"
137094,"130 COLONIAL DRIVE","WAYNESBURG","PA",15370,39.887295179,-80.14740625,94,"130 COLONIAL DRIVE, WAYNESBURG, PA, 15370","Match","Exact","130 COLONIAL DR, WAYNESBURG, PA, 15370",51390126,"R"
137095,"130 COLONY CIRCLE SOUTH","WILMINGTON","NC",28409,34.174620523,-77.874969687,95,"130 COLONY CIRCLE SOUTH, WILMINGTON, NC, 28409","Match","Exact","130 COLONY CIR S, WILMINGTON, NC, 28409",152751399,"L"
137096,"130 COLONY ROAD","BELLE CHASSE","LA",70037,29.8528463050001,-89.993314455,96,"130 COLONY ROAD, BELLE CHASSE, LA, 70037","Match","Exact","130 COLONY RD, BELLE CHASSE, LA, 70037",191952612,"R"
137097,"130 COLUMBIA LN NW","CRESTVIEW","FL",32536,30.7701586530001,-86.582812818,97,"130 COLUMBIA LN NW, CRESTVIEW, FL, 32536","Match","Non_Exact","130 COLUMBIA LN, CRESTVIEW, FL, 32536",74379657,"L"
137098,"130 COLUMBINE LANE","SHEBOYGAN FALLS","WI",53085,43.7248169550001,-87.842181093,98,"130 COLUMBINE LANE, SHEBOYGAN FALLS, WI, 53085","Match","Exact","130 COLUMBINE LN, SHEBOYGAN FALLS, WI, 53085",79511662,"L"
137099,"130 COLUMBUS AVE","TRENTON","NJ",8629,40.2168315490001,-74.7396718369999,99,"130 COLUMBUS AVE, TRENTON, NJ, 8629","Match","Exact","130 COLUMBUS AVE, TRENTON, NJ, 08629",60181694,"L"
137100,"130 COMBINE LN SE","LELAND","NC",28451,34.1841961690001,-78.073550656,100,"130 COMBINE LN SE, LELAND, NC, 28451","Match","Exact","130 COMBINE LN SE, LELAND, NC, 28451",627425203,"R"
137101,"130 CONCORD TRCE","ALPHARETTA","GA",30005,34.0895776950001,-84.2007885579999,101,"130 CONCORD TRCE, ALPHARETTA, GA, 30005","Match","Exact","130 CONCORD TRCE, ALPHARETTA, GA, 30005",17374819,"L"
137102,"130 CONGDON STREET","PROVIDENCE","RI",2906,41.8324587590001,-71.407292072,102,"130 CONGDON STREET, PROVIDENCE, RI, 2906","Match","Exact","130 CONGDON ST, PROVIDENCE, RI, 02906",47463874,"L"
137103,"130 CONTANT SOUTH QUARTER","ST. THOMAS","VI",802,NA,NA,103,"130 CONTANT SOUTH QUARTER, ST. THOMAS, VI, 802","No_Match",NA,NA,NA,NA
137104,"130 COOK AVE SUITE 101","PASADENA","CA",91107,34.1488390440001,-118.099785302,104,"130 COOK AVE SUITE 101, PASADENA, CA, 91107","Match","Exact","130 COOK AVE, PASADENA, CA, 91107",141633230,"R"
137105,"130 CORAL REEF WAY","DAYTONA BEACH","FL",32124,29.211272159,-81.12497322,105,"130 CORAL REEF WAY, DAYTONA BEACH, FL, 32124","Match","Exact","130 CORAL REEF WAY, DAYTONA BEACH, FL, 32124",650727546,"L"
137106,"130 CORRIDOR RD / PO BOX 2482","PONTE VEDRA BEACH","FL",32082,30.194424666,-81.381982253,106,"130 CORRIDOR RD / PO BOX 2482, PONTE VEDRA BEACH, FL, 32082","Match","Exact","130 CORRIDOR RD, PONTE VEDRA BEACH, FL, 32082",92612617,"R"
137107,"130 COUNTRY CLUB DR","MOORESTOWN","NJ",8057,39.991118144,-74.904782008,107,"130 COUNTRY CLUB DR, MOORESTOWN, NJ, 8057","Match","Exact","130 COUNTRY CLUB DR, MOORESTOWN, NJ, 08057",134077255,"R"
137108,"130 COUNTRY LANE","ALTO","NM",88312,33.4264921490001,-105.63410131,108,"130 COUNTRY LANE, ALTO, NM, 88312","Match","Exact","130 COUNTRY LN, ALTO, NM, 88312",169157116,"R"
137109,"130 COUNTRY RD 624","ETOWAH","TN",37331,35.3454500450001,-84.553474824,109,"130 COUNTRY RD 624, ETOWAH, TN, 37331","Match","Non_Exact","130 CO RD 624, ETOWAH, TN, 37331",88540049,"R"
137110,"130 COUNTY HIGHWAY 18C","WEST EDMESTON","NY",13485,42.763646884,-75.2773484429999,110,"130 COUNTY HIGHWAY 18C, WEST EDMESTON, NY, 13485","Match","Non_Exact","130 CO RD 18C, WEST EDMESTON, NY, 13485",125905538,"R"
137111,"130 COUNTY LINE ROAD","TYNER","NC",27980,36.2176147120001,-76.6041392509999,111,"130 COUNTY LINE ROAD, TYNER, NC, 27980","Match","Exact","130 COUNTY LINE RD, TYNER, NC, 27980",635648619,"R"
137112,"130 COUNTY ROAD 2121","BOONEVILLE","MS",38829,34.6414197280001,-88.4356185349999,112,"130 COUNTY ROAD 2121, BOONEVILLE, MS, 38829","Match","Exact","130 CO RD 2121, BOONEVILLE, MS, 38829",610554612,"L"
137113,"130 COVERED COURT","CLAYTON","NC",27527,35.6902103790001,-78.3853080539999,113,"130 COVERED COURT, CLAYTON, NC, 27527","Match","Exact","130 COVERED CT, CLAYTON, NC, 27527",26552929,"R"
137114,"130 COVINGTON ROAD","LAWNDALE","NC",28090,35.4373280290001,-81.592504234,114,"130 COVINGTON ROAD, LAWNDALE, NC, 28090","Match","Exact","130 COVINGTON RD, LAWNDALE, NC, 28090",19345705,"R"
137115,"130 CR 229","FLORENCE","TX",76527,30.8642197180001,-97.750757726,115,"130 CR 229, FLORENCE, TX, 76527","Match","Exact","130 CO RD 229, FLORENCE, TX, 76527",126461946,"L"
137116,"130 CR 2722","MICO","TX",78056,29.536243606,-98.8495196979999,116,"130 CR 2722, MICO, TX, 78056","Match","Exact","130 CO RD 2722, MICO, TX, 78056",102836472,"L"
137117,"130 CREEKSIDE DRIVE","BOERNE","TX",78006,29.798440294,-98.717985438,117,"130 CREEKSIDE DRIVE, BOERNE, TX, 78006","Match","Exact","130 CREEKSIDE DR, BOERNE, TX, 78006",102757210,"R"
137118,"130 CREST LANE","ITHACA","NY",14850,42.4536084910001,-76.467796531,118,"130 CREST LANE, ITHACA, NY, 14850","Match","Exact","130 CREST LN, ITHACA, NY, 14850",18858915,"L"
137119,"130 CROCKETT ROAD","DEXTER","ME",4930,45.0425728020001,-69.3040488509999,119,"130 CROCKETT ROAD, DEXTER, ME, 4930","Match","Exact","130 CROCKETT RD, DEXTER, ME, 04930",123609119,"L"
137120,"130 CRYSTAL RD","CARBONDALE","CO",81623,39.3997300300001,-107.224475629,120,"130 CRYSTAL RD, CARBONDALE, CO, 81623","Match","Exact","130 CRYSTAL RD, CARBONDALE, CO, 81623",105780854,"L"
137121,"130 CURREY AVENUE","SAUSALITO","CA",94965,37.857040457,-122.493180555,121,"130 CURREY AVENUE, SAUSALITO, CA, 94965","Match","Exact","130 CURREY AVE, SAUSALITO, CA, 94965",192770146,"R"
137122,"130 CYPRESS DRIVE","NORTH PALM BEACH","FL",33403,26.79439403,-80.05500151,122,"130 CYPRESS DRIVE, NORTH PALM BEACH, FL, 33403","Match","Exact","130 CYPRESS DR, NORTH PALM BEACH, FL, 33403",115516868,"L"
137123,"130 CYPRESS POINT DR","OAKLAND","TN",38060,35.194635181,-89.5100825379999,123,"130 CYPRESS POINT DR, OAKLAND, TN, 38060","Match","Non_Exact","130 CYPRESS POINT RD, OAKLAND, TN, 38060",627505606,"R"
137124,"130 D THOMAS ST","MIDDLETOWN","CT",6457,41.5542080050001,-72.667838703,124,"130 D THOMAS ST, MIDDLETOWN, CT, 6457","Match","Exact","130 THOMAS ST, MIDDLETOWN, CT, 06457",113896795,"L"
137125,"130 DAKOTA DRIVE","JACKSONVILLE","AR",72076,34.8879452520001,-92.163678235,125,"130 DAKOTA DRIVE, JACKSONVILLE, AR, 72076","Match","Exact","130 DAKOTA DR, JACKSONVILLE, AR, 72076",83498191,"L"
137126,"130 DANA AVE APT 2","HYDE PARK","MA",2136,42.2487475550001,-71.1211067149999,126,"130 DANA AVE APT 2, HYDE PARK, MA, 2136","Match","Exact","130 DANA AVE, HYDE PARK, MA, 02136",85715833,"L"
137127,"130 DANVILLE WAY","SACRAMENTO","CA",95838,38.6253135970001,-121.46540947,127,"130 DANVILLE WAY, SACRAMENTO, CA, 95838","Match","Exact","130 DANVILLE WAY, SACRAMENTO, CA, 95838",133320971,"R"
137128,"130 DARTMOUTH DR","BOURBONNAIS","IL",60914,41.1744928590001,-87.872996697,128,"130 DARTMOUTH DR, BOURBONNAIS, IL, 60914","Match","Exact","130 DARTMOUTH DR, BOURBONNAIS, IL, 60914",98363982,"R"
137129,"130 DARTMOUTH ST APT 1006","BOSTON","MA",2116,42.347021333,-71.075824871,129,"130 DARTMOUTH ST APT 1006, BOSTON, MA, 2116","Match","Exact","130 DARTMOUTH ST, BOSTON, MA, 02116",85698048,"L"
137130,"130 DAVID DRIVE","BELGRADE","MT",59714,45.8045853420001,-111.224899466,130,"130 DAVID DRIVE, BELGRADE, MT, 59714","Match","Exact","130 DAVID DR, BELGRADE, MT, 59714",163578021,"L"
137131,"130 DAVIDSON STREET","WYANDANCH","NY",11798,40.7403355770001,-73.360157957,131,"130 DAVIDSON STREET, WYANDANCH, NY, 11798","Match","Exact","130 DAVIDSON ST, WYANDANCH, NY, 11798",113974957,"R"
137132,"130 DAVIS HILL ROAD","HYDE PARK","VT",5655,44.6054406380001,-72.5445003139999,132,"130 DAVIS HILL ROAD, HYDE PARK, VT, 5655","Match","Exact","130 DAVIS HILL RD, HYDE PARK, VT, 05655",232731607,"L"
137133,"130 DAWES AVE","TORRINGTON","CT",6790,41.8165652280001,-73.118071029,133,"130 DAWES AVE, TORRINGTON, CT, 6790","Match","Exact","130 DAWES AVE, TORRINGTON, CT, 06790",3102885,"R"
137134,"130 DAYTON STREET APT 10G","NEWARK","NJ",7114,40.6976935070001,-74.200758419,134,"130 DAYTON STREET APT 10G, NEWARK, NJ, 7114","Match","Exact","130 DAYTON ST, NEWARK, NJ, 07114",63496112,"L"
137135,"130 DAYTONA AVE","ALBANY","NY",12203,42.6676242510001,-73.814505562,135,"130 DAYTONA AVE, ALBANY, NY, 12203","Match","Exact","130 DAYTONA AVE, ALBANY, NY, 12203",18307720,"R"
137136,"130 DEBORAH STREET","VALLEJO","CA",94589,38.1485778850001,-122.232214496,136,"130 DEBORAH STREET, VALLEJO, CA, 94589","Match","Exact","130 DEBORAH ST, VALLEJO, CA, 94589",192531891,"R"
137137,"130 DEEP RIVER RD","FAYETTEVILLE","GA",30214,33.505443536,-84.4817410649999,137,"130 DEEP RIVER RD, FAYETTEVILLE, GA, 30214","Match","Exact","130 DEEP RIVER RD, FAYETTEVILLE, GA, 30214",75937371,"L"
137138,"130 DEWEY STREET","WORCESTER","MA",1610,42.257836318,-71.821525843,138,"130 DEWEY STREET, WORCESTER, MA, 1610","Match","Exact","130 DEWEY ST, WORCESTER, MA, 01610",40009436,"R"
137139,"130 DICKERSON ROAD","FRANKLIN","GA",30217,33.3769194430001,-85.205713666,139,"130 DICKERSON ROAD, FRANKLIN, GA, 30217","Match","Exact","130 DICKERSON RD, FRANKLIN, GA, 30217",9414093,"R"
137140,"130 DOGWOOD STREET","ALTAMONTE SPRINGS","FL",32714,28.6724196960001,-81.425633756,140,"130 DOGWOOD STREET, ALTAMONTE SPRINGS, FL, 32714","Match","Exact","130 DOGWOOD ST, ALTAMONTE SPRINGS, FL, 32714",93735188,"L"
137141,"130 DOGWOOD TERRACE","MARIETTA","SC",29661,35.0141811400001,-82.513292787,141,"130 DOGWOOD TERRACE, MARIETTA, SC, 29661","Match","Exact","130 DOGWOOD TER, MARIETTA, SC, 29661",38356375,"L"
137142,"130 DOMINIC DR","COATESVILE","PA",19320,40.0107838420001,-75.925833261,142,"130 DOMINIC DR, COATESVILE, PA, 19320","Match","Non_Exact","130 DOMINIC DR, COATESVILLE, PA, 19320",624071609,"R"
137143,"130 DONELSON PIKE","NASHVILLE","TN",37214,36.1657770250001,-86.663634617,143,"130 DONELSON PIKE, NASHVILLE, TN, 37214","Match","Exact","130 DONELSON PIKE, NASHVILLE, TN, 37214",97196005,"R"
137144,"130 DONMOND DRIVE","HENDERSONVILLE","TN",37075,36.2645473870001,-86.614198361,144,"130 DONMOND DRIVE, HENDERSONVILLE, TN, 37075","Match","Exact","130 DONMOND DR, HENDERSONVILLE, TN, 37075",29775788,"R"
137145,"130 DORAL DR","JEROME","ID",83338,42.6339541300001,-114.509605487,145,"130 DORAL DR, JEROME, ID, 83338","Match","Exact","130 DORAL DR, JEROME, ID, 83338",105454000,"R"
137146,"130 DORSEY ROAD","FORT FAIRFIELD","ME",4742,46.751882709,-67.818792414,146,"130 DORSEY ROAD, FORT FAIRFIELD, ME, 4742","Match","Exact","130 DORSEY RD, FORT FAIRFIELD, ME, 04742",630559273,"L"
137147,"130 DOUGLAS ST SUITE 201","LANGLEY AFB","VA",23665,37.0817459020001,-76.344826975,147,"130 DOUGLAS ST SUITE 201, LANGLEY AFB, VA, 23665","Match","Exact","130 DOUGLAS ST, LANGLEY AFB, VA, 23665",103761861,"L"
137148,"130 DUDLEY RD","NEWTON","MA",2459,42.3158980000001,-71.1841326379999,148,"130 DUDLEY RD, NEWTON, MA, 2459","Match","Exact","130 DUDLEY RD, NEWTON, MA, 02459",87107907,"L"
137149,"130 DUNBERRY PASS","HUDSON","WI",54016,NA,NA,149,"130 DUNBERRY PASS, HUDSON, WI, 54016","No_Match",NA,NA,NA,NA
137150,"130 DUSTIN LANE","ROXBORO","NC",27574,36.3312987640001,-79.027214586,150,"130 DUSTIN LANE, ROXBORO, NC, 27574","Match","Exact","130 DUSTIN LN, ROXBORO, NC, 27574",606780881,"R"
137151,"130 E 10TH STREET","REPUBLIC","WA",99166,48.6438955930001,-118.736057805,151,"130 E 10TH STREET, REPUBLIC, WA, 99166","Match","Exact","130 E 10TH ST, REPUBLIC, WA, 99166",174607991,"L"
137152,"130 E 1ST ST","MOREHEAD","KY",40351,38.1814602330001,-83.433515082,152,"130 E 1ST ST, MOREHEAD, KY, 40351","Match","Exact","130 E FIRST ST, MOREHEAD, KY, 40351",39624099,"R"
137153,"130 E 25TH ST","HOLLAND","MI",49423,42.7749229290001,-86.101688982,153,"130 E 25TH ST, HOLLAND, MI, 49423","Match","Exact","130 E 25TH ST, HOLLAND, MI, 49423",71077905,"L"
137154,"130 E 35TH ST","NEW YORK","NY",10016,40.74711975,-73.979368467,154,"130 E 35TH ST, NEW YORK, NY, 10016","Match","Exact","130 E 35TH ST, NEW YORK, NY, 10016",59654402,"R"
137155,"130 E 3RD AVE","SPOKANE","WA",99202,47.6535323940001,-117.409375584,155,"130 E 3RD AVE, SPOKANE, WA, 99202","Match","Exact","130 E 3RD AVE, SPOKANE, WA, 99202",189877153,"R"
137156,"130 E 3RD","HINSDALE","IL",60521,41.799791354,-87.9262531269999,156,"130 E 3RD, HINSDALE, IL, 60521","Match","Non_Exact","130 E 3RD ST, HINSDALE, IL, 60521",112550276,"R"
137157,"130 E 49TH AVENUE","EUGENE","OR",97405,44.004098646,-123.092638476,157,"130 E 49TH AVENUE, EUGENE, OR, 97405","Match","Exact","130 E 49TH AVE, EUGENE, OR, 97405",178211894,"R"
137158,"130 E 76TH ST","LOS ANGELES","CA",90003,33.971295195,-118.272998154,158,"130 E 76TH ST, LOS ANGELES, CA, 90003","Match","Exact","130 E 76TH ST, LOS ANGELES, CA, 90003",141670432,"R"
137159,"130 E 7TH ST","AUBURN","IN",46706,41.366908579,-85.055404091,159,"130 E 7TH ST, AUBURN, IN, 46706","Match","Exact","130 E 7TH ST, AUBURN, IN, 46706",6520230,"R"
137160,"130 E 8TH ST","LOCKPORT","IL",60441,41.5902618210001,-88.056490697,160,"130 E 8TH ST, LOCKPORT, IL, 60441","Match","Exact","130 E 8TH ST, LOCKPORT, IL, 60441",111544908,"L"
137161,"130 E 9 MILE RD APT 14","PENSACOLA","FL",32534,30.533172102,-87.2682056199999,161,"130 E 9 MILE RD APT 14, PENSACOLA, FL, 32534","Match","Non_Exact","130 E NINE MILE RD, PENSACOLA, FL, 32534",93273942,"L"
137162,"130 E 9 MILE RD","FERNDALE","MI",48220,42.4605886750001,-83.133782934,162,"130 E 9 MILE RD, FERNDALE, MI, 48220","Match","Exact","130 E 9 MILE RD, FERNDALE, MI, 48220",69746640,"R"
137163,"130 E 9 MILE ROAD APT 14","PENSACOLA","FL",NA,30.533172102,-87.2682056199999,163,"130 E 9 MILE ROAD APT 14, PENSACOLA, FL, ","Match","Non_Exact","130 E NINE MILE RD, PENSACOLA, FL, 32534",93273942,"L"
137164,"130 E 93RD ST APT 2E","NEW YORK","NY",10128,40.7841883180001,-73.952945029,164,"130 E 93RD ST APT 2E, NEW YORK, NY, 10128","Match","Non_Exact","130 E 93RD ST, NEW YORK, NY, 10128",59657861,"R"
137165,"130 E BISMARK ST","TACOMA","WA",98404,47.198612154,-122.430405813,165,"130 E BISMARK ST, TACOMA, WA, 98404","Match","Exact","130 E BISMARK ST, TACOMA, WA, 98404",184628672,"R"
137166,"130 E BLOOMINGDALE","TMAPA","FL",33511,NA,NA,166,"130 E BLOOMINGDALE, TMAPA, FL, 33511","No_Match",NA,NA,NA,NA
137167,"130 E CAMINO DE MANANA","HUACHUCA CITY","AZ",85616,NA,NA,167,"130 E CAMINO DE MANANA, HUACHUCA CITY, AZ, 85616","No_Match",NA,NA,NA,NA
137168,"130 E CHAPMAN AVE APT 357","FULLERTON","CA",92832,NA,NA,168,"130 E CHAPMAN AVE APT 357, FULLERTON, CA, 92832","Tie",NA,NA,NA,NA
137169,"130 E CHURCH STREET","BELLEVILLE","WI",53508,42.8578128180001,-89.532229457,169,"130 E CHURCH STREET, BELLEVILLE, WI, 53508","Match","Exact","130 E CHURCH ST, BELLEVILLE, WI, 53508",49455511,"L"
137170,"130 E COMMERCIAL","HILLSBORO","IA",52630,40.835383533,-91.711105564,170,"130 E COMMERCIAL, HILLSBORO, IA, 52630","Match","Non_Exact","130 E COMMERCIAL ST, HILLSBORO, IA, 52630",16086726,"L"
137171,"130 E DEL-AVENUE","CARNEYS POINT","NJ",8069,NA,NA,171,"130 E DEL-AVENUE, CARNEYS POINT, NJ, 8069","No_Match",NA,NA,NA,NA
137172,"130 E FARISTON DR","PHILA","PA",19120,40.048659071,-75.115961731,172,"130 E FARISTON DR, PHILA, PA, 19120","Match","Exact","130 E FARISTON DR, PHILA, PA, 19120",131440994,"R"
137173,"130 E GRAND BLVD","CHEEKTOWAGA","NY",14225,NA,NA,173,"130 E GRAND BLVD, CHEEKTOWAGA, NY, 14225","Tie",NA,NA,NA,NA
137174,"130 E GRAND VIEW","CAPITAN","NM",88316,33.5330188300001,-105.601792531,174,"130 E GRAND VIEW, CAPITAN, NM, 88316","Match","Non_Exact","130 E GRANDVIEW RD, CAPITAN, NM, 88316",169143202,"R"
137175,"130 E HILLCREST DR","EUGENE","OR",97404,44.0799811260001,-123.118652982,175,"130 E HILLCREST DR, EUGENE, OR, 97404","Match","Exact","130 HILLCREST DR, EUGENE, OR, 97404",178202942,"R"
137176,"130 E MAIN ST SUITE 201","ROCK HILL","SC",29730,NA,NA,176,"130 E MAIN ST SUITE 201, ROCK HILL, SC, 29730","Tie",NA,NA,NA,NA
137177,"130 E MAIN STREET","ROCHESTER","NY",14604,43.1566302090001,-77.60872767,177,"130 E MAIN STREET, ROCHESTER, NY, 14604","Match","Non_Exact","130 MAIN ST E, ROCHESTER, NY, 14604",14539859,"L"
137178,"130 E NORTH DAM ROAD","MANTUA","UT",84324,41.5166311830001,-111.939039203,178,"130 E NORTH DAM ROAD, MANTUA, UT, 84324","Match","Exact","130 E NORTH DAM RD, MANTUA, UT, 84324",639109738,"R"
137179,"130 E RIO VISTA AVE","BURLINGTON","WA",98233,NA,NA,179,"130 E RIO VISTA AVE, BURLINGTON, WA, 98233","Tie",NA,NA,NA,NA
137180,"130 E ROMIE LN STE A","SALINAS","CA",93901,NA,NA,180,"130 E ROMIE LN STE A, SALINAS, CA, 93901","Tie",NA,NA,NA,NA
137181,"130 E TENTH ST APT A","HANFORD","CA",93230,36.3300954870001,-119.645463881,181,"130 E TENTH ST APT A, HANFORD, CA, 93230","Match","Non_Exact","130 E 10TH ST, HANFORD, CA, 93230",197961823,"L"
137182,"130 E UNION STREET","ASHLAND","MA",1721,NA,NA,182,"130 E UNION STREET, ASHLAND, MA, 1721","Tie",NA,NA,NA,NA
137183,"130 E UPSAL STREET","PHILADELPHIA","PA",19119,40.049513425,-75.1821108409999,183,"130 E UPSAL STREET, PHILADELPHIA, PA, 19119","Match","Exact","130 E UPSAL ST, PHILADELPHIA, PA, 19119",131395405,"R"
137184,"130 E WASHINGTON AVE STE 9","ATHENS","TN",37303,35.443111795,-84.5925998549999,184,"130 E WASHINGTON AVE STE 9, ATHENS, TN, 37303","Match","Non_Exact","130 E WASHINGTON AVE, ATHENS, TN, 37303",88534579,"L"
137185,"130 E WASHINGTON ST","HARTFORD","KY",42347,37.4500797860001,-86.908316826,185,"130 E WASHINGTON ST, HARTFORD, KY, 42347","Match","Non_Exact","130 W WASHINGTON ST, HARTFORD, KY, 42347",27956403,"R"
137186,"130 E12TH ST","OAKLAND","CA",94606,NA,NA,186,"130 E12TH ST, OAKLAND, CA, 94606","No_Match",NA,NA,NA,NA
137187,"130 EAST 1083RD LANE","PAYSON","IL",62360,39.7736475200001,-91.287857443,187,"130 EAST 1083RD LANE, PAYSON, IL, 62360","Match","Exact","130 E 1083RD LN, PAYSON, IL, 62360",35085398,"R"
137188,"130 EAST 10TH STREET","COVINGTON","KY",41011,39.081042693,-84.506904834,188,"130 EAST 10TH STREET, COVINGTON, KY, 41011","Match","Exact","130 E 10TH ST, COVINGTON, KY, 41011",103894174,"L"
137189,"130 EAST 162 LANE","SOUTH HOLLAND","IL",60473,41.600194119,-87.613745411,189,"130 EAST 162 LANE, SOUTH HOLLAND, IL, 60473","Match","Exact","130 E 162 LN, SOUTH HOLLAND, IL, 60473",112216364,"R"
137190,"130 EAST BLUEGILL LANE","SUFFIELD","CT",6078,41.9918874040001,-72.609167209,190,"130 EAST BLUEGILL LANE, SUFFIELD, CT, 6078","Match","Exact","130 E BLUEGILL LN, SUFFIELD, CT, 06078",627469980,"R"
137191,"130 EAST CHELSEA CIRCLE","NEWTOWN SQUARE","PA",19073,40.0060253440001,-75.389859288,191,"130 EAST CHELSEA CIRCLE, NEWTOWN SQUARE, PA, 19073","Match","Exact","130 E CHELSEA CIR, NEWTOWN SQUARE, PA, 19073",134900177,"L"
137192,"130 EAST CORSICANA","ATHENS","TX",75751,32.204340324,-95.853331602,192,"130 EAST CORSICANA, ATHENS, TX, 75751","Match","Non_Exact","130 E CORSICANA ST, ATHENS, TX, 75751",125803497,"L"
137193,"130 EAST DOROTHY LANE","DAYTON","OH",45419,39.704207823,-84.1691163,193,"130 EAST DOROTHY LANE, DAYTON, OH, 45419","Match","Exact","130 E DOROTHY LN, DAYTON, OH, 45419",143581980,"R"
137194,"130 EAST FELL STREET","SUMMIT HILL","PA",18250,40.82798767,-75.8698269509999,194,"130 EAST FELL STREET, SUMMIT HILL, PA, 18250","Match","Exact","130 E FELL ST, SUMMIT HILL, PA, 18250",80618934,"L"
137195,"130 EAST FOURTH ST - SUITE 160","SANTA ANA","CA",92705,33.748004506,-117.867283299,195,"130 EAST FOURTH ST - SUITE 160, SANTA ANA, CA, 92705","Match","Non_Exact","130 E 4TH ST, SANTA ANA, CA, 92701",144042080,"R"
137196,"130 EAST FRENCHMANS BEND ROAD","MONROE","LA",71203,32.6398778440001,-92.0388806779999,196,"130 EAST FRENCHMANS BEND ROAD, MONROE, LA, 71203","Match","Exact","130 E FRENCHMANS BEND RD, MONROE, LA, 71203",616291732,"R"
137197,"130 EAST LIBERTY STREET","SALISBURY","NC",28144,35.668808117,-80.4672691549999,197,"130 EAST LIBERTY STREET, SALISBURY, NC, 28144","Match","Exact","130 E LIBERTY ST, SALISBURY, NC, 28144",25269025,"L"
137198,"130 EAST NORTH DAM ROAD","MANTUA","UT",84324,41.5166228300001,-111.939060086,198,"130 EAST NORTH DAM ROAD, MANTUA, UT, 84324","Match","Exact","130 E NORTH DAM RD, MANTUA, UT, 84324",639109738,"R"
137199,"130 EAST SELWOOD LANE","COLUMBIA","SC",29212,34.076111821,-81.2264908399999,199,"130 EAST SELWOOD LANE, COLUMBIA, SC, 29212","Match","Exact","130 E SELWOOD LN, COLUMBIA, SC, 29212",70048315,"L"
137200,"130 EAST SILVERADO RANCH BLVD","LAS VEGAS","NV",89183,36.0136045830001,-115.166903358,200,"130 EAST SILVERADO RANCH BLVD, LAS VEGAS, NV, 89183","Match","Exact","130 E SILVERADO RANCH BLVD, LAS VEGAS, NV, 89183",201881923,"L"
137201,"130 EAST STATE STREET APT 404","ITHACA","NY",14850,42.4395647700001,-76.498272555,201,"130 EAST STATE STREET APT 404, ITHACA, NY, 14850","Match","Exact","130 E STATE ST, ITHACA, NY, 14850",18857717,"L"
137202,"130 EAST VINE STREET","LANCASTER","PA",17602,40.036695953,-76.3021932249999,202,"130 EAST VINE STREET, LANCASTER, PA, 17602","Match","Exact","130 E VINE ST, LANCASTER, PA, 17602",179664636,"R"
137203,"130 EASTERN AVE 301","LYNN","MA",1902,42.471471249,-70.925338696,203,"130 EASTERN AVE 301, LYNN, MA, 1902","Match","Exact","130 EASTERN AVE, LYNN, MA, 01902",86646366,"L"
137204,"130 EASTERN AVE","LYNN","MA",1902,42.471471249,-70.925338696,204,"130 EASTERN AVE, LYNN, MA, 1902","Match","Exact","130 EASTERN AVE, LYNN, MA, 01902",86646366,"L"
137205,"130 EASTWOODLAND DRIVE","MONTGOMERY","AL",36105,NA,NA,205,"130 EASTWOODLAND DRIVE, MONTGOMERY, AL, 36105","No_Match",NA,NA,NA,NA
137206,"130 EDGE WATER DRIVE","BRUNSWICK","GA",31525,31.2583453400001,-81.492192286,206,"130 EDGE WATER DRIVE, BRUNSWICK, GA, 31525","Match","Exact","130 EDGE WATER DR, BRUNSWICK, GA, 31525",636324805,"R"
137207,"130 EDGEWATER DR","MILPITAS","CA",95035,37.4377096170001,-121.903121965,207,"130 EDGEWATER DR, MILPITAS, CA, 95035","Match","Exact","130 EDGEWATER DR, MILPITAS, CA, 95035",123175884,"R"
137208,"130 EDWARD AVENUE","PASS CHRISTIAN","MS",39571,NA,NA,208,"130 EDWARD AVENUE, PASS CHRISTIAN, MS, 39571","No_Match",NA,NA,NA,NA
137209,"130 EGGLESTON AVE","HAMPTON","VA",23669,37.009152794,-76.352241982,209,"130 EGGLESTON AVE, HAMPTON, VA, 23669","Match","Exact","130 EGGLESTON AVE, HAMPTON, VA, 23669",103759250,"R"
137210,"130 EGLIN STREET","HANSCOM AFB","MA",1731,42.46239308,-71.2843534529999,210,"130 EGLIN STREET, HANSCOM AFB, MA, 1731","Match","Exact","130 EGLIN ST, HANSCOM AFB, MA, 01731",623538869,"L"
137211,"130 ELIOT ST","ASHLAND","MA",1721,42.239877447,-71.446184159,211,"130 ELIOT ST, ASHLAND, MA, 1721","Match","Exact","130 ELIOT ST, ASHLAND, MA, 01721",86849777,"L"
137212,"130 ELLINGWOOD DR","ROCHESTER","NY",14618,43.1160703460001,-77.520192473,212,"130 ELLINGWOOD DR, ROCHESTER, NY, 14618","Match","Exact","130 ELLINGWOOD DR, ROCHESTER, NY, 14618",14543829,"L"
137213,"130 ELM AVE","KALISPELL","MT",59901,48.221913758,-114.267553424,213,"130 ELM AVE, KALISPELL, MT, 59901","Match","Exact","130 ELM AVE, KALISPELL, MT, 59901",204131923,"R"
137214,"130 ELM AVENUE","OAKLYN","NJ",8107,39.9194957780001,-75.093828769,214,"130 ELM AVENUE, OAKLYN, NJ, 8107","Match","Exact","130 ELM AVE, OAKLYN, NJ, 08107",134348203,"L"
137215,"130 ELM AVENUE","OAKLYN","PA",8107,NA,NA,215,"130 ELM AVENUE, OAKLYN, PA, 8107","No_Match",NA,NA,NA,NA
137216,"130 ELM ST","EAST LONGMEADOW","MA",1028,42.0718495310001,-72.510068121,216,"130 ELM ST, EAST LONGMEADOW, MA, 1028","Match","Exact","130 ELM ST, E LONGMEADOW, MA, 01028",4039941,"L"
137217,"130 ELMSFORD ST","DURHAM","NC",27703,35.9606516150001,-78.829652228,217,"130 ELMSFORD ST, DURHAM, NC, 27703","Match","Exact","130 ELMSFORD ST, DURHAM, NC, 27703",648119028,"L"
137218,"130 ELY PLACE","PALO ALTO","CA",94306,37.4140704220001,-122.115831602,218,"130 ELY PLACE, PALO ALTO, CA, 94306","Match","Exact","130 ELY PL, PALO ALTO, CA, 94306",122952635,"R"
137219,"130 EMILY DRIVE","FRUITLAND","MD",21804,38.328195599,-75.604024087,219,"130 EMILY DRIVE, FRUITLAND, MD, 21804","Match","Non_Exact","130 EMILY DR, SALISBURY, MD, 21804",641540341,"L"
137220,"130 ENFIELD DOWNS RD","ITHACA","NY",14850,NA,NA,220,"130 ENFIELD DOWNS RD, ITHACA, NY, 14850","No_Match",NA,NA,NA,NA
137221,"130 ENTERPRISE DRIVE","SOMERSET","KY",42501,37.033747733,-84.622244069,221,"130 ENTERPRISE DRIVE, SOMERSET, KY, 42501","Match","Exact","130 ENTERPRISE DR, SOMERSET, KY, 42501",39086533,"L"
137222,"130 ESMA ST","SAN ANTONIO","TX",78223,29.327949975,-98.431842654,222,"130 ESMA ST, SAN ANTONIO, TX, 78223","Match","Exact","130 ESMA ST, SAN ANTONIO, TX, 78223",101535758,"R"
137223,"130 ESSEX ST   537","S HAMILTON","MA",1987,NA,NA,223,"130 ESSEX ST   537, S HAMILTON, MA, 1987","No_Match",NA,NA,NA,NA
137224,"130 ESSEX ST   BOX 490","SOUTH HAMILTON","MA",1982,42.606373746,-70.845152238,224,"130 ESSEX ST   BOX 490, SOUTH HAMILTON, MA, 1982","Match","Exact","130 ESSEX ST, SOUTH HAMILTON, MA, 01982",86711854,"R"
137225,"130 ESSEX ST  359B","S HAMILTON","MA",1987,NA,NA,225,"130 ESSEX ST  359B, S HAMILTON, MA, 1987","No_Match",NA,NA,NA,NA
137226,"130 ESSEX ST 359B","S HAMILTON","MA",1982,42.606373746,-70.845152238,226,"130 ESSEX ST 359B, S HAMILTON, MA, 1982","Match","Exact","130 ESSEX ST, SOUTH HAMILTON, MA, 01982",86711854,"R"
137227,"130 ESTATES LANE","YOUNGSVILLE","LA",70592,30.1322750150001,-91.982136198,227,"130 ESTATES LANE, YOUNGSVILLE, LA, 70592","Match","Exact","130 ESTATES LN, YOUNGSVILLE, LA, 70592",85631734,"R"
137228,"130 EUSTON ROAD","GARDEN CITY","NY",11530,40.7267672410001,-73.6618848479999,228,"130 EUSTON ROAD, GARDEN CITY, NY, 11530","Match","Exact","130 EUSTON RD, GARDEN CITY, NY, 11530",147672221,"L"
137229,"130 EXCHANGE STREET","GENEVA","NY",14456,42.8733539290001,-76.979118904,229,"130 EXCHANGE STREET, GENEVA, NY, 14456","Match","Exact","130 EXCHANGE ST, GENEVA, NY, 14456",13469870,"L"
137230,"130 EXLEY SPUR ROAD","CLYO","GA",31303,32.4390566380001,-81.257613716,230,"130 EXLEY SPUR ROAD, CLYO, GA, 31303","Match","Non_Exact","130 EXLEY SPR, CLYO, GA, 31303",6269747,"R"
137231,"130 FAIRWAY CT","ONALASKA","WI",54650,43.8835272090001,-91.2043350929999,231,"130 FAIRWAY CT, ONALASKA, WI, 54650","Match","Exact","130 FAIRWAY CT, ONALASKA, WI, 54650",51020323,"L"
137232,"130 FALCONS RIDGE DRIVE","COVINGTON","GA",30016,33.5584170430001,-83.972737509,232,"130 FALCONS RIDGE DRIVE, COVINGTON, GA, 30016","Match","Non_Exact","130 FALCON RIDGE DR, COVINGTON, GA, 30016",653472524,"L"
137233,"130 FARMER DR","MURPHY","NC",28906,35.20939314,-84.097748112,233,"130 FARMER DR, MURPHY, NC, 28906","Match","Exact","130 FARMER DR, MURPHY, NC, 28906",645578730,"R"
137234,"130 FAWN MEADOWS LANE","WILSONVILLE","AL",35186,33.2241927320001,-86.506491259,234,"130 FAWN MEADOWS LANE, WILSONVILLE, AL, 35186","Match","Non_Exact","130 FAWN MEADOW LN, WILSONVILLE, AL, 35186",636734813,"R"
137235,"130 FENIMORE ST APT 3I","BROOKLYN","NY",11225,40.6582342310001,-73.957732657,235,"130 FENIMORE ST APT 3I, BROOKLYN, NY, 11225","Match","Exact","130 FENIMORE ST, BROOKLYN, NY, 11225",59079514,"R"
137236,"130 FENIMORE STREET","BROOKLYN","NY",11225,40.6582342310001,-73.957732657,236,"130 FENIMORE STREET, BROOKLYN, NY, 11225","Match","Exact","130 FENIMORE ST, BROOKLYN, NY, 11225",59079514,"R"
137237,"130 FERNHILL AVENUE","LAFAYETTE","LA",70506,30.20893009,-92.0493591809999,237,"130 FERNHILL AVENUE, LAFAYETTE, LA, 70506","Match","Exact","130 FERNHILL AVE, LAFAYETTE, LA, 70506",85614453,"R"
137238,"130 FERNWOOD DRIVE","SAN FRANCISCO","CA",94127,37.7323904780001,-122.460456472,238,"130 FERNWOOD DRIVE, SAN FRANCISCO, CA, 94127","Match","Exact","130 FERNWOOD DR, SAN FRANCISCO, CA, 94127",192285390,"R"
137239,"130 FIGUREA AVENUE","STATEN ISLAND","NY",10312,40.5506446630001,-74.172668271,239,"130 FIGUREA AVENUE, STATEN ISLAND, NY, 10312","Match","Exact","130 FIGUREA AVE, STATEN ISLAND, NY, 10312",59872176,"L"
137240,"130 FIORE LANE","HOLLIDAYSBURG","PA",16648,40.4253429350001,-78.361545978,240,"130 FIORE LANE, HOLLIDAYSBURG, PA, 16648","Match","Exact","130 FIORE LN, HOLLIDAYSBURG, PA, 16648",49731510,"R"
137241,"130 FLYNN AVENUE","MOUNTAIN VIEW","CA",94043,37.3988315,-122.061384096,241,"130 FLYNN AVENUE, MOUNTAIN VIEW, CA, 94043","Match","Exact","130 FLYNN AVE, MOUNTAIN VIEW, CA, 94043",629456677,"L"
137242,"130 FOLSOM AVE","FOLSOM","PA",19033,39.891715581,-75.318210638,242,"130 FOLSOM AVE, FOLSOM, PA, 19033","Match","Exact","130 FOLSOM AVE, FOLSOM, PA, 19033",134880686,"R"
137243,"130 FOREST DRIVE","ONA","WV",25545,38.4227468780001,-82.242308108,243,"130 FOREST DRIVE, ONA, WV, 25545","Match","Exact","130 FOREST DR, ONA, WV, 25545",101327581,"L"
137244,"130 FOREST ST","FRANKLIN","MA",2038,42.0509351690001,-71.412033282,244,"130 FOREST ST, FRANKLIN, MA, 2038","Match","Exact","130 FOREST ST, FRANKLIN, MA, 02038",87306773,"R"
137245,"130 FORESTVIEW DRIVE","WINTERSVILLE","OH",43953,40.3712947380001,-80.721524523,245,"130 FORESTVIEW DRIVE, WINTERSVILLE, OH, 43953","Match","Exact","130 FORESTVIEW DR, WINTERSVILLE, OH, 43953",614881173,"R"
137246,"130 FORT WASHINGTON AVE APT 2H","NEW YORK","NY",10032,40.839623483,-73.943280628,246,"130 FORT WASHINGTON AVE APT 2H, NEW YORK, NY, 10032","Match","Exact","130 FORT WASHINGTON AVE, NEW YORK, NY, 10032",59655681,"R"
137247,"130 FORT WASHINGTON AVENUE 2F","NEW YORK","NY",10032,40.839623483,-73.943280628,247,"130 FORT WASHINGTON AVENUE 2F, NEW YORK, NY, 10032","Match","Exact","130 FORT WASHINGTON AVE, NEW YORK, NY, 10032",59655681,"R"
137248,"130 FOUR SEASONS WAY","KETCHUM","ID",83340,NA,NA,248,"130 FOUR SEASONS WAY, KETCHUM, ID, 83340","Tie",NA,NA,NA,NA
137249,"130 FOX RIDGE DR","DILLON","MT",59725,45.2153861480001,-112.597611018,249,"130 FOX RIDGE DR, DILLON, MT, 59725","Match","Exact","130 FOX RIDGE DR, DILLON, MT, 59725",653252039,"R"
137250,"130 FOX RUN","MCCOMB","MS",39648,31.2451829450001,-90.4893474199999,250,"130 FOX RUN, MCCOMB, MS, 39648","Match","Non_Exact","130 FOX RUN DR, MCCOMB, MS, 39648",614827989,"R"
137251,"130 FOXLAIR DRIVE","ATLANTA","GA",30349,33.577027371,-84.497155794,251,"130 FOXLAIR DRIVE, ATLANTA, GA, 30349","Match","Non_Exact","130 FOX LAIR DR, ATLANTA, GA, 30349",17351310,"L"
137252,"130 FREDS WAY","GATLINBURG","TN",37738,35.758071322,-83.3544201139999,252,"130 FREDS WAY, GATLINBURG, TN, 37738","Match","Exact","130 FREDS WAY, GATLINBURG, TN, 37738",619991076,"L"
137253,"130 FRONT STREET","MILTON","WI",53563,42.7822310060001,-88.963732749,253,"130 FRONT STREET, MILTON, WI, 53563","Match","Exact","130 FRONT ST, MILTON, WI, 53563",49849449,"R"
137254,"130 GALE BLVD APT 301","MELVINDALE","MI",48122,42.2731739170001,-83.18802077,254,"130 GALE BLVD APT 301, MELVINDALE, MI, 48122","Match","Exact","130 GALE BLVD, MELVINDALE, MI, 48122",95504661,"R"
137255,"130 GARDENRIDGE CT APT 108","WINTER SPINGS","FL",32708,NA,NA,255,"130 GARDENRIDGE CT APT 108, WINTER SPINGS, FL, 32708","No_Match",NA,NA,NA,NA
137256,"130 GARDNERS CIRCLE PMB 135","JOHNS ISLAND","SC",29455,32.6079779500001,-80.1480735759999,256,"130 GARDNERS CIRCLE PMB 135, JOHNS ISLAND, SC, 29455","Match","Non_Exact","130 GARDENERS CIR, JOHNS ISLAND, SC, 29455",645439321,"R"
137257,"130 GARIBALDI DR","VALLEJO","CA",94589,38.1322965740001,-122.25146906,257,"130 GARIBALDI DR, VALLEJO, CA, 94589","Match","Exact","130 GARIBALDI DR, VALLEJO, CA, 94589",192532087,"L"
137258,"130 GENERAL BULLARD AVENUE","MOBILE","AL",36608,30.682646015,-88.173703888,258,"130 GENERAL BULLARD AVENUE, MOBILE, AL, 36608","Match","Exact","130 GENERAL BULLARD AVE, MOBILE, AL, 36608",61853983,"R"
137259,"130 GERARD DRIVE","EAST HAMPTON","NY",11937,41.040488673,-72.139530652,259,"130 GERARD DRIVE, EAST HAMPTON, NY, 11937","Match","Exact","130 GERARD DR, EAST HAMPTON, NY, 11937",114077706,"L"
137260,"130 GIERA COURT","PARLIN","NJ",8859,40.4561180860001,-74.28127205,260,"130 GIERA COURT, PARLIN, NJ, 8859","Match","Exact","130 GIERA CT, PARLIN, NJ, 08859",60319792,"L"
137261,"130 GILMORE ST","RED BLUFF","CA",96080,40.1769406240001,-122.226603606,261,"130 GILMORE ST, RED BLUFF, CA, 96080","Match","Non_Exact","130 GILMORE RD, RED BLUFF, CA, 96080",119384542,"R"
137262,"130 GIVEN SHIPYARD ROAD","BRUNSWICK","ME",4011,43.885201158,-69.898588205,262,"130 GIVEN SHIPYARD ROAD, BRUNSWICK, ME, 4011","Match","Exact","130 GIVEN SHIPYARD RD, BRUNSWICK, ME, 04011",78008233,"R"
137263,"130 GLEN CIRCLE","WORTHINGTON","OH",43085,40.0959524290001,-83.0125464,263,"130 GLEN CIRCLE, WORTHINGTON, OH, 43085","Match","Exact","130 GLEN CIR, WORTHINGTON, OH, 43085",218662151,"R"
137264,"130 GLENBROOK PKWY 8D","ENGLEWOOD","NY",7631,NA,NA,264,"130 GLENBROOK PKWY 8D, ENGLEWOOD, NY, 7631","No_Match",NA,NA,NA,NA
137265,"130 GLENWOOD AVE UNIT 58","YONKERS","NY",10703,40.9468061000001,-73.893402578,265,"130 GLENWOOD AVE UNIT 58, YONKERS, NY, 10703","Match","Exact","130 GLENWOOD AVE, YONKERS, NY, 10703",652206719,"R"
137266,"130 GLENWOOD AVENUE","YONKERS","NY",10703,40.9468061000001,-73.893402578,266,"130 GLENWOOD AVENUE, YONKERS, NY, 10703","Match","Exact","130 GLENWOOD AVE, YONKERS, NY, 10703",652206719,"R"
137267,"130 GOELETTA DRIVE","EAST FALMOUTH","MA",2536,41.6303098440001,-70.582657108,267,"130 GOELETTA DRIVE, EAST FALMOUTH, MA, 2536","Match","Exact","130 GOELETTA DR, EAST FALMOUTH, MA, 02536",121549431,"R"
137268,"130 GOLF COURT","TEANECK","NJ",7666,40.8833882160001,-74.0020560409999,268,"130 GOLF COURT, TEANECK, NJ, 7666","Match","Exact","130 GOLF CT, TEANECK, NJ, 07666",64389626,"R"
137269,"130 GOODRICH AVE","LEXINGTON","KY",40503,38.0147196070001,-84.519693278,269,"130 GOODRICH AVE, LEXINGTON, KY, 40503","Match","Exact","130 GOODRICH AVE, LEXINGTON, KY, 40503",31945488,"L"
137270,"130 GOVERNORS CIRCLE","DOWNINGTOWN","PA",19335,40.027911126,-75.716626521,270,"130 GOVERNORS CIRCLE, DOWNINGTOWN, PA, 19335","Match","Exact","130 GOVERNORS CIR, DOWNINGTOWN, PA, 19335",179485595,"R"
137271,"130 GRANBY STREET SUITE 101","NORFOLK","VA",23510,36.8470474590001,-76.291980896,271,"130 GRANBY STREET SUITE 101, NORFOLK, VA, 23510","Match","Exact","130 GRANBY ST, NORFOLK, VA, 23510",122127423,"R"
137272,"130 GRANT STREET","HAWORTH","NJ",7641,40.9588939760001,-73.9776304499999,272,"130 GRANT STREET, HAWORTH, NJ, 7641","Match","Exact","130 GRANT ST, HAWORTH, NJ, 07641",64370644,"L"
137273,"130 GRAYMOOR","OLYMPIA FIELDS","IL",60422,NA,NA,273,"130 GRAYMOOR, OLYMPIA FIELDS, IL, 60422","No_Match",NA,NA,NA,NA
137274,"130 GREEN POND ROAD","BLOUNTSVILLE","AL",35031,34.0928166240001,-86.625443633,274,"130 GREEN POND ROAD, BLOUNTSVILLE, AL, 35031","Match","Non_Exact","130 GREENPOND RD, BLOUNTSVILLE, AL, 35031",99092346,"R"
137275,"130 GREENE AVENUE","BROOKLYN","NY",11238,40.686554776,-73.967130878,275,"130 GREENE AVENUE, BROOKLYN, NY, 11238","Match","Exact","130 GREENE AVE, BROOKLYN, NY, 11238",59077959,"R"
137276,"130 GREENFIELD AVE","SAN ANSELMO","CA",94960,37.9762911070001,-122.559529901,276,"130 GREENFIELD AVE, SAN ANSELMO, CA, 94960","Match","Exact","130 GREENFIELD AVE, SAN ANSELMO, CA, 94960",192763712,"R"
137277,"130 GREENWOOD ST","GARDEN CITY","MI",48135,42.311943108,-83.32896555,277,"130 GREENWOOD ST, GARDEN CITY, MI, 48135","Match","Exact","130 GREENWOOD ST, GARDEN CITY, MI, 48135",95428811,"R"
137278,"130 GRENOBLE RD","PEACHTREE CITY","GA",30269,33.408030877,-84.564092128,278,"130 GRENOBLE RD, PEACHTREE CITY, GA, 30269","Match","Exact","130 GRENOBLE RD, PEACHTREE CITY, GA, 30269",75935089,"L"
137279,"130 GREYSTONE TERRACE","ATHENS","GA",30606,33.9214304170001,-83.4092201509999,279,"130 GREYSTONE TERRACE, ATHENS, GA, 30606","Match","Exact","130 GREYSTONE TER, ATHENS, GA, 30606",619386872,"L"
137280,"130 GROVE STREET","MONTCLAIR","NJ",7042,40.8166068510001,-74.20645724,280,"130 GROVE STREET, MONTCLAIR, NJ, 7042","Match","Exact","130 GROVE ST, MONTCLAIR, NJ, 07042",63448966,"L"
137281,"130 HACKBERRY DRIVE","STEPHENS CITY","VA",22655,39.104781045,-78.19171471,281,"130 HACKBERRY DRIVE, STEPHENS CITY, VA, 22655","Match","Exact","130 HACKBERRY DR, STEPHENS CITY, VA, 22655",55591210,"L"
137282,"130 HAHN WAY","COTATI","CA",94931,38.322295464,-122.693611526,282,"130 HAHN WAY, COTATI, CA, 94931","Match","Exact","130 HAHN WAY, COTATI, CA, 94931",67489124,"L"
137283,"130 HALL PROFESSIONAL CENTER","KYLE","TX",78640,30.0145589890001,-97.8908194109999,283,"130 HALL PROFESSIONAL CENTER, KYLE, TX, 78640","Match","Exact","130 HALL PROFESSIONAL CENTER, KYLE, TX, 78640",63847400,"R"
137284,"130 HALLVILLE RD","EXETER","RI",2822,41.5713943870001,-71.571884868,284,"130 HALLVILLE RD, EXETER, RI, 2822","Match","Exact","130 HALLVILLE RD, EXETER, RI, 02822",624253228,"R"
137285,"130 HALO","IRVINE","CA",92618,NA,NA,285,"130 HALO, IRVINE, CA, 92618","No_Match",NA,NA,NA,NA
137286,"130 HAMILTON WAY","ROSWELL","GA",30075,34.084274362,-84.371693879,286,"130 HAMILTON WAY, ROSWELL, GA, 30075","Match","Exact","130 HAMILTON WAY, ROSWELL, GA, 30075",17397331,"L"
137287,"130 HAMPSHIRE DRIVE","PLAINSBORO","NJ",8536,40.327828251,-74.561900994,287,"130 HAMPSHIRE DRIVE, PLAINSBORO, NJ, 8536","Match","Exact","130 HAMPSHIRE DR, PLAINSBORO, NJ, 08536",645379589,"R"
137288,"130 HANCOCK DR NE","ATLANTA","GA",30306,NA,NA,288,"130 HANCOCK DR NE, ATLANTA, GA, 30306","No_Match",NA,NA,NA,NA
137289,"130 HANNAH LANE","WACO","TX",76706,31.454403175,-97.066457569,289,"130 HANNAH LANE, WACO, TX, 76706","Match","Exact","130 HANNAH LN, WACO, TX, 76706",146771160,"R"
137290,"130 HARBINGER DRIVE","LEWES","DE",19958,38.7354604340001,-75.178270858,290,"130 HARBINGER DRIVE, LEWES, DE, 19958","Match","Exact","130 HARBINGER DR, LEWES, DE, 19958",106113023,"R"
137291,"130 HARBOR ISLE CIRCLE N","MEMPHIS","TN",38103,35.1656978880001,-90.05205104,291,"130 HARBOR ISLE CIRCLE N, MEMPHIS, TN, 38103","Match","Exact","130 HARBOR ISLE CIR N, MEMPHIS, TN, 38103",72966415,"L"
137292,"130 HARMON DR","PULASKI","TN",38478,35.206164539,-87.052996881,292,"130 HARMON DR, PULASKI, TN, 38478","Match","Exact","130 HARMON DR, PULASKI, TN, 38478",643076670,"L"
137293,"130 HARVARD AVE E UNIT 306","SEATTLE","WA",98102,47.6191227150001,-122.322186521,293,"130 HARVARD AVE E UNIT 306, SEATTLE, WA, 98102","Match","Exact","130 HARVARD AVE E, SEATTLE, WA, 98102",186584345,"R"
137294,"130 HARVARD STREET","CAMBRIDGE","MA",2139,42.3655290020001,-71.094189195,294,"130 HARVARD STREET, CAMBRIDGE, MA, 2139","Match","Exact","130 HARVARD ST, CAMBRIDGE, MA, 02139",86870201,"L"
137295,"130 HARVEY AVE","WESTFIELD","PA",16950,41.9196422360001,-77.55142173,295,"130 HARVEY AVE, WESTFIELD, PA, 16950","Match","Exact","130 HARVEY AVE, WESTFIELD, PA, 16950",639178355,"R"
137296,"130 HAVITURE","VALLEJO","CA",94534,NA,NA,296,"130 HAVITURE, VALLEJO, CA, 94534","No_Match",NA,NA,NA,NA
137297,"130 HAWLEY ST","GRAYSLAKE","IL",60030,42.3453980630001,-88.041921107,297,"130 HAWLEY ST, GRAYSLAKE, IL, 60030","Match","Exact","130 HAWLEY ST, GRAYSLAKE, IL, 60030",119636005,"L"
137298,"130 HEAVENLY VIEW LANE","FANCY GAP","VA",24328,36.662943204,-80.655698733,298,"130 HEAVENLY VIEW LANE, FANCY GAP, VA, 24328","Match","Exact","130 HEAVENLY VW, FANCY GAP, VA, 24328",153814743,"L"
137299,"130 HEMPSTEAD AVE APT 231","WEST HEMPSTEAD","NY",11552,40.7028545790001,-73.641923477,299,"130 HEMPSTEAD AVE APT 231, WEST HEMPSTEAD, NY, 11552","Match","Exact","130 HEMPSTEAD AVE, W HEMPSTEAD, NY, 11552",147675891,"L"
137300,"130 HEMPSTEAD AVE APT 235","WEST HEMPSTEAD","NY",11552,40.7028545790001,-73.641923477,300,"130 HEMPSTEAD AVE APT 235, WEST HEMPSTEAD, NY, 11552","Match","Exact","130 HEMPSTEAD AVE, W HEMPSTEAD, NY, 11552",147675891,"L"
137301,"130 HEMPSTEAD AVE APT 236","WEST HEMPSTEAD","NY",11552,40.7028545790001,-73.641923477,301,"130 HEMPSTEAD AVE APT 236, WEST HEMPSTEAD, NY, 11552","Match","Exact","130 HEMPSTEAD AVE, W HEMPSTEAD, NY, 11552",147675891,"L"
137302,"130 HEMPSTEAD AVE UNIT 409","WEST HEMPSTEAD","NY",11552,40.7028545790001,-73.641923477,302,"130 HEMPSTEAD AVE UNIT 409, WEST HEMPSTEAD, NY, 11552","Match","Exact","130 HEMPSTEAD AVE, W HEMPSTEAD, NY, 11552",147675891,"L"
137303,"130 HEMPSTEAD AVENUE APT 429","WEST HEMPSTEAD","NY",11552,40.7028545790001,-73.641923477,303,"130 HEMPSTEAD AVENUE APT 429, WEST HEMPSTEAD, NY, 11552","Match","Exact","130 HEMPSTEAD AVE, W HEMPSTEAD, NY, 11552",147675891,"L"
137304,"130 HERITAGE POINT","MORGANTOWN","WV",26505,NA,NA,304,"130 HERITAGE POINT, MORGANTOWN, WV, 26505","No_Match",NA,NA,NA,NA
137305,"130 HICKS STREET APT 3C","BROOKLYN","NY",11201,40.697536389,-73.994779987,305,"130 HICKS STREET APT 3C, BROOKLYN, NY, 11201","Match","Exact","130 HICKS ST, BROOKLYN, NY, 11201",59074921,"R"
137306,"130 HIDDEN BROOK LANE","NEWNAN","GA",30265,33.4761349520001,-84.6777036939999,306,"130 HIDDEN BROOK LANE, NEWNAN, GA, 30265","Match","Exact","130 HIDDEN BROOK LN, NEWNAN, GA, 30265",639790407,"R"
137307,"130 HIDDEN VALLEY RD","MONROEVILLE","PA",15146,40.4357977330001,-79.7058808789999,307,"130 HIDDEN VALLEY RD, MONROEVILLE, PA, 15146","Match","Exact","130 HIDDEN VALLEY RD, MONROEVILLE, PA, 15146",51936974,"R"
137308,"130 HIGH STREET","MECHANICSBURG","OH",43044,40.0775125700001,-83.5555222249999,308,"130 HIGH STREET, MECHANICSBURG, OH, 43044","Match","Exact","130 HIGH ST, MECHANICSBURG, OH, 43044",606293689,"L"
137309,"130 HIGHLAND AVENUE","HAMDEN","CT",6518,41.389966649,-72.9018058629999,309,"130 HIGHLAND AVENUE, HAMDEN, CT, 6518","Match","Exact","130 HIGHLAND AVE, HAMDEN, CT, 06518",651692194,"L"
137310,"130 HILL ROAD","HARWINTON","CT",6791,41.7580998560001,-73.08329903,310,"130 HILL ROAD, HARWINTON, CT, 6791","Match","Exact","130 HILL RD, HARWINTON, CT, 06791",624409252,"R"
137311,"130 HILL ST","SUPERIOR","WY",82945,41.762416515,-108.966799305,311,"130 HILL ST, SUPERIOR, WY, 82945","Match","Exact","130 HILL ST, SUPERIOR, WY, 82945",653283839,"L"
137312,"130 HILL TOP DRIVE","EUREKA","MT",59917,NA,NA,312,"130 HILL TOP DRIVE, EUREKA, MT, 59917","No_Match",NA,NA,NA,NA
137313,"130 HILLCREST DR S-108B","CLARKSVILLE","TN",37043,36.5159851990001,-87.3047807089999,313,"130 HILLCREST DR S-108B, CLARKSVILLE, TN, 37043","Match","Non_Exact","130 HILLCREST DR, CLARKSVILLE, TN, 37043",635026812,"R"
137314,"130 HILLSIDE TERRACE","NEBRASKA CITY","NE",68410,40.6670679380001,-95.844679759,314,"130 HILLSIDE TERRACE, NEBRASKA CITY, NE, 68410","Match","Exact","130 HILLSIDE TER, NEBRASKA CITY, NE, 68410",10395162,"L"
137315,"130 HILLSON AVE","PITTSBUGH","PA",15227,40.3746491380001,-79.977958636,315,"130 HILLSON AVE, PITTSBUGH, PA, 15227","Match","Non_Exact","130 HILLSON AVE, PITTSBURGH, PA, 15227",51639652,"R"
137316,"130 HILLSON AVENUE","PITTSBURGH","PA",15227,40.3746491380001,-79.977958636,316,"130 HILLSON AVENUE, PITTSBURGH, PA, 15227","Match","Exact","130 HILLSON AVE, PITTSBURGH, PA, 15227",51639652,"R"
137317,"130 HILLTOP DRIVE","HART","MI",49420,43.707340952,-86.364067838,317,"130 HILLTOP DRIVE, HART, MI, 49420","Match","Exact","130 HILLTOP DR, HART, MI, 49420",163690538,"R"
137318,"130 HILLVIEW ST","ROSEVILLE","MI",48206,NA,NA,318,"130 HILLVIEW ST, ROSEVILLE, MI, 48206","No_Match",NA,NA,NA,NA
137319,"130 HOLDEN RD","PAXTON","MA",1612,42.3192790050001,-71.906945094,319,"130 HOLDEN RD, PAXTON, MA, 1612","Match","Exact","130 HOLDEN RD, PAXTON, MA, 01612",642603504,"R"
137320,"130 HOLGATE","LA HABRA","CA",90631,33.9325494710001,-117.922141213,320,"130 HOLGATE, LA HABRA, CA, 90631","Match","Non_Exact","130 HOLGATE ST, LA HABRA, CA, 90631",144006346,"R"
137321,"130 HOLIDAY CIRCLE","W. DES MOINES","IA",50265,41.570338699,-93.727590817,321,"130 HOLIDAY CIRCLE, W. DES MOINES, IA, 50265","Match","Exact","130 HOLIDAY CIR, W DES MOINES, IA, 50265",65793057,"L"
137322,"130 HOLLAND ST","SYRACUSE","NY",13204,43.0397487220001,-76.1609957219999,322,"130 HOLLAND ST, SYRACUSE, NY, 13204","Match","Exact","130 HOLLAND ST, SYRACUSE, NY, 13204",46570216,"R"
137323,"130 HOLLY STREET","ROME","GA",30161,34.2208133130001,-85.16627822,323,"130 HOLLY STREET, ROME, GA, 30161","Match","Non_Exact","130 HOLLY ST SE, ROME, GA, 30161",30677599,"R"
137324,"130 HOLLYWOOD AVE","BUFFALO","NY",14220,42.8389906560001,-78.810207372,324,"130 HOLLYWOOD AVE, BUFFALO, NY, 14220","Match","Exact","130 HOLLYWOOD AVE, BUFFALO, NY, 14220",48303002,"L"
137325,"130 HONEYSUCKLE DR","GREENVILLE","SC",29609,34.9246712790001,-82.423460489,325,"130 HONEYSUCKLE DR, GREENVILLE, SC, 29609","Match","Exact","130 HONEYSUCKLE DR, GREENVILLE, SC, 29609",38297323,"R"
137326,"130 HONONEGAH ROAD","ROCKTON","IL",61072,42.4423069470001,-89.041947351,326,"130 HONONEGAH ROAD, ROCKTON, IL, 61072","Match","Exact","130 HONONEGAH RD, ROCKTON, IL, 61072",49274781,"L"
137327,"130 HOPKINS ST","DANVILLE","VA",24541,36.589535423,-79.434301464,327,"130 HOPKINS ST, DANVILLE, VA, 24541","Match","Exact","130 HOPKINS ST, DANVILLE, VA, 24541",56588091,"R"
137328,"130 HUDSON STREET","EAU CLAIRE","WI",54703,44.806015905,-91.501871694,328,"130 HUDSON STREET, EAU CLAIRE, WI, 54703","Match","Exact","130 HUDSON ST, EAU CLAIRE, WI, 54703",46066748,"R"
137329,"130 HUNTER AVE","FANWOOD","NJ",7023,40.642126757,-74.393707762,329,"130 HUNTER AVE, FANWOOD, NJ, 7023","Match","Exact","130 HUNTER AVE, FANWOOD, NJ, 07023",60567310,"R"
137330,"130 HUNTER LANE","CHARLOTTE","NC",28211,35.1684008,-80.7941810299999,330,"130 HUNTER LANE, CHARLOTTE, NC, 28211","Match","Exact","130 HUNTER LN, CHARLOTTE, NC, 28211",70492619,"R"
137331,"130 HWY 101 N","ROCKAWAY BEACH","OR",97136,45.6132302460001,-123.943789212,331,"130 HWY 101 N, ROCKAWAY BEACH, OR, 97136","Match","Non_Exact","130 US HWY 101 N, ROCKAWAY BEACH, OR, 97136",606451613,"R"
137332,"130 IMPERIAL STREET","NEW LEXINGTON","OH",43764,39.722680838,-82.2230587609999,332,"130 IMPERIAL STREET, NEW LEXINGTON, OH, 43764","Match","Exact","130 IMPERIAL ST, NEW LEXINGTON, OH, 43764",37366205,"R"
137333,"130 INDIAN DR","SPRAKERS","NY",12166,42.8890564450001,-74.511083691,333,"130 INDIAN DR, SPRAKERS, NY, 12166","Match","Exact","130 INDIAN DR, SPRAKERS, NY, 12166",18613387,"R"
137334,"130 INDIAN DRIVE SUITE 202","FORT PIERCE","FL",34950,NA,NA,334,"130 INDIAN DRIVE SUITE 202, FORT PIERCE, FL, 34950","No_Match",NA,NA,NA,NA
137335,"130 INDIAN DRIVE","FORT PIERCE","FL",34950,NA,NA,335,"130 INDIAN DRIVE, FORT PIERCE, FL, 34950","No_Match",NA,NA,NA,NA
137336,"130 INDIAN DRIVE","SPRAKERS","NY",12166,42.8890564450001,-74.511083691,336,"130 INDIAN DRIVE, SPRAKERS, NY, 12166","Match","Exact","130 INDIAN DR, SPRAKERS, NY, 12166",18613387,"R"
137337,"130 INDIAN RIVER DRIVE","FORT PIERCE","FL",34950,NA,NA,337,"130 INDIAN RIVER DRIVE, FORT PIERCE, FL, 34950","Tie",NA,NA,NA,NA
137338,"130 INDIAN SPRING RD","WOODSTOCK","CT",6281,41.9490184210001,-72.0694040509999,338,"130 INDIAN SPRING RD, WOODSTOCK, CT, 6281","Match","Exact","130 INDIAN SPRING RD, WOODSTOCK, CT, 06281",56438771,"L"
137339,"130 INDUSTRIAL BLVD ROOM 110","SUGAR LAND","TX",77478,29.627150988,-95.605927263,339,"130 INDUSTRIAL BLVD ROOM 110, SUGAR LAND, TX, 77478","Match","Exact","130 INDUSTRIAL BLVD, SUGAR LAND, TX, 77478",78348437,"L"
137340,"130 INFIELD COURT","MOORESVILLE","NC",28117,35.600100776,-80.8525898,340,"130 INFIELD COURT, MOORESVILLE, NC, 28117","Match","Exact","130 INFIELD CT, MOORESVILLE, NC, 28117",46019166,"R"
137341,"130 INKBERRY DR","JUPITER","FL",33458,26.914696377,-80.096517238,341,"130 INKBERRY DR, JUPITER, FL, 33458","Match","Exact","130 INKBERRY DR, JUPITER, FL, 33458",636096219,"L"
137342,"130 INSPIRATION DR","PAGOSA SPRINGS","CO",81147,37.277686137,-107.090332146,342,"130 INSPIRATION DR, PAGOSA SPRINGS, CO, 81147","Match","Exact","130 INSPIRATION DR, PAGOSA SPRINGS, CO, 81147",127323095,"L"
137343,"130 INVERNESS PLAZA NUMNER 145","BIRMINGHAM","AL",35242,NA,NA,343,"130 INVERNESS PLAZA NUMNER 145, BIRMINGHAM, AL, 35242","Tie",NA,NA,NA,NA
137344,"130 JACLYN DR","SYRACUSE","NY",13205,42.986136602,-76.144721034,344,"130 JACLYN DR, SYRACUSE, NY, 13205","Match","Exact","130 JACLYN DR, SYRACUSE, NY, 13205",46624858,"R"
137345,"130 JARED DRIVE","ANGIER","NC",27501,35.4919469290001,-78.6330292809999,345,"130 JARED DRIVE, ANGIER, NC, 27501","Match","Exact","130 JARED DR, ANGIER, NC, 27501",26555868,"R"
137346,"130 JEFFERSON ST","BROOKLYN","NY",11206,40.7000390960001,-73.930446406,346,"130 JEFFERSON ST, BROOKLYN, NY, 11206","Match","Exact","130 JEFFERSON ST, BROOKLYN, NY, 11206",59082516,"R"
137347,"130 JEFFERSON","PRINCETON","NJ",NA,40.3579363050001,-74.658877535,347,"130 JEFFERSON, PRINCETON, NJ, ","Match","Non_Exact","130 JEFFERSON RD, PRINCETON, NJ, 08540",60187067,"L"
137348,"130 JERICHO AVE SE","RENTON","WA",98059,47.4836588950001,-122.148279901,348,"130 JERICHO AVE SE, RENTON, WA, 98059","Match","Non_Exact","130 JERICHO AVE NE, RENTON, WA, 98059",651362067,"L"
137349,"130 JERUSALEM AVENUE","HEMPSTEAD","NY",11550,40.7020069500001,-73.613261802,349,"130 JERUSALEM AVENUE, HEMPSTEAD, NY, 11550","Match","Exact","130 JERUSALEM AVE, HEMPSTEAD, NY, 11550",147629113,"R"
137350,"130 JOHN STREET UNIT 247","LOWELL","MA",1852,NA,NA,350,"130 JOHN STREET UNIT 247, LOWELL, MA, 1852","No_Match",NA,NA,NA,NA
137351,"130 JOHN STREET","LOWELL","MA",1854,NA,NA,351,"130 JOHN STREET, LOWELL, MA, 1854","No_Match",NA,NA,NA,NA
137352,"130 JOHNSON AVE","PORT TOWNSEND","WA",98368,48.090658444,-122.858460858,352,"130 JOHNSON AVE, PORT TOWNSEND, WA, 98368","Match","Exact","130 JOHNSON AVE, PORT TOWNSEND, WA, 98368",152008657,"R"
137353,"130 JOHNSON ST","PORT TOWNSEND","WA",98368,48.090658444,-122.858460858,353,"130 JOHNSON ST, PORT TOWNSEND, WA, 98368","Match","Non_Exact","130 JOHNSON AVE, PORT TOWNSEND, WA, 98368",152008657,"R"
137354,"130 JUBILEE CT","BONAIRE","GA",31005,32.562469892,-83.644797522,354,"130 JUBILEE CT, BONAIRE, GA, 31005","Match","Non_Exact","130 JUBILEE CIR, BONAIRE, GA, 31005",642633614,"R"
137355,"130 JUDWIN AVE","NEW HAVEN","CT",6515,41.3245493410001,-72.980138339,355,"130 JUDWIN AVE, NEW HAVEN, CT, 6515","Match","Exact","130 JUDWIN AVE, NEW HAVEN, CT, 06515",3697214,"L"
137356,"130 JULIE LYNNE LANE","JASPER","TN",37347,NA,NA,356,"130 JULIE LYNNE LANE, JASPER, TN, 37347","No_Match",NA,NA,NA,NA
137357,"130 JUNO COURT","RICE","MN",56367,45.6891005890001,-94.162702071,357,"130 JUNO COURT, RICE, MN, 56367","Match","Exact","130 JUNO CT, RICE, MN, 56367",638530072,"R"
137358,"130 Kakahiaka St","Kailua","HI",96734,21.395315311,-157.730114991,358,"130 Kakahiaka St, Kailua, HI, 96734","Match","Exact","130 KAKAHIAKA ST, KAILUA, HI, 96734",203240304,"R"
137359,"130 KARBY TERRACE - UNIT 203","SUNNYVALE","CA",94089,NA,NA,359,"130 KARBY TERRACE - UNIT 203, SUNNYVALE, CA, 94089","No_Match",NA,NA,NA,NA
137360,"130 KENNER AVE","NASHVILLE","TN",37205,36.123638381,-86.844400384,360,"130 KENNER AVE, NASHVILLE, TN, 37205","Match","Exact","130 KENNER AVE, NASHVILLE, TN, 37205",97180731,"L"
137361,"130 KERCHEVAL AVENUE","GROSSE POINTE FARMS","MI",48236,42.3957099690001,-82.9023722429999,361,"130 KERCHEVAL AVENUE, GROSSE POINTE FARMS, MI, 48236","Match","Exact","130 KERCHEVAL AVE, GROSSE POINTE FARMS, MI, 48236",95488357,"R"
137362,"130 KING HENRY ROAD","DALLAS","GA",30132,33.8723425580001,-84.829903569,362,"130 KING HENRY ROAD, DALLAS, GA, 30132","Match","Non_Exact","130 KING HENRY RD, DALLAS, GA, 30157",207991884,"L"
137363,"130 KINGS GRANT LANE","GREENWOOD","SC",29649,34.204523008,-82.2368094029999,363,"130 KINGS GRANT LANE, GREENWOOD, SC, 29649","Match","Exact","130 KINGS GRANT LN, GREENWOOD, SC, 29649",50813988,"R"
137364,"130 KINTIGH LANE","JEANNETTE","PA",15644,40.3483869410001,-79.595694886,364,"130 KINTIGH LANE, JEANNETTE, PA, 15644","Match","Exact","130 KINTIGH LN, JEANNETTE, PA, 15644",53003001,"R"
137365,"130 KIRBY LN","RYE","NY",10580,40.978921739,-73.6681745989999,365,"130 KIRBY LN, RYE, NY, 10580","Match","Exact","130 KIRBY LN, RYE, NY, 10580",649728821,"R"
137366,"130 KNIBBE AVENUE","SAN ANTONIO","TX",78209,29.501467302,-98.4652554199999,366,"130 KNIBBE AVENUE, SAN ANTONIO, TX, 78209","Match","Exact","130 KNIBBE AVE, SAN ANTONIO, TX, 78209",101497945,"R"
137367,"130 KNOX ROAD","FAIRLEE","VT",5045,43.9041792990001,-72.165235149,367,"130 KNOX ROAD, FAIRLEE, VT, 5045","Match","Exact","130 KNOX RD, FAIRLEE, VT, 05045",181136145,"R"
137368,"130 L TURNBERRY","ST PETERS","MO",63376,NA,NA,368,"130 L TURNBERRY, ST PETERS, MO, 63376","No_Match",NA,NA,NA,NA
137369,"130 LACROSSE STREET APT D4","PITTSBURGH","PA",15218,40.426879538,-79.885083405,369,"130 LACROSSE STREET APT D4, PITTSBURGH, PA, 15218","Match","Exact","130 LACROSSE ST, PITTSBURGH, PA, 15218",51654003,"R"
137370,"130 LAKE CALOOSA LANDING","FROSTPROOF","FL",33843,27.7639044790001,-81.598424479,370,"130 LAKE CALOOSA LANDING, FROSTPROOF, FL, 33843","Match","Exact","130 LAKE CALOOSA LNDG, FROSTPROOF, FL, 33843",651853487,"L"
137371,"130 LAKE COURT","CEDAR GROVE","WI",53013,43.5607430630001,-87.826862773,371,"130 LAKE COURT, CEDAR GROVE, WI, 53013","Match","Exact","130 LAKE CT, CEDAR GROVE, WI, 53013",79526900,"L"
137372,"130 LAKE DR","DALTON","OH",44618,40.7975371950001,-81.734263465,372,"130 LAKE DR, DALTON, OH, 44618","Match","Exact","130 LAKE DR, DALTON, OH, 44618",649599016,"R"
137373,"130 LAKE VISTA","CARLYLE","IL",62231,38.608838871,-89.346048674,373,"130 LAKE VISTA, CARLYLE, IL, 62231","Match","Non_Exact","130 LAKE VISTA DR, CARLYLE, IL, 62231",94812477,"L"
137374,"130 LAKESIDE DRIVE","LAWRENCEVILLE","NJ",8648,NA,NA,374,"130 LAKESIDE DRIVE, LAWRENCEVILLE, NJ, 8648","No_Match",NA,NA,NA,NA
137375,"130 LAKEVIEW LN","KERRVILLE","TX",78028,30.02084117,-99.154932382,375,"130 LAKEVIEW LN, KERRVILLE, TX, 78028","Match","Non_Exact","130 LAKEVIEW, KERRVILLE, TX, 78028",176904688,"L"
137376,"130 LAKEVIEW PL","NEDERLAND","CO",80466,39.9606099270001,-105.507097537,376,"130 LAKEVIEW PL, NEDERLAND, CO, 80466","Match","Exact","130 LAKEVIEW PL, NEDERLAND, CO, 80466",188157716,"R"
137377,"130 LAKEWOOD BLVD","MAPLE BLUFF","WI",53704,43.1056465770001,-89.3667532589999,377,"130 LAKEWOOD BLVD, MAPLE BLUFF, WI, 53704","Match","Non_Exact","130 LAKEWOOD BLVD, MADISON, WI, 53704",49472592,"R"
137378,"130 LAMBERT ROAD","WHITESBURG","GA",30185,33.535742973,-84.83819542,378,"130 LAMBERT ROAD, WHITESBURG, GA, 30185","Match","Exact","130 LAMBERT RD, WHITESBURG, GA, 30185",17118738,"L"
137379,"130 LAMPUS LN","TARENTUM","PA",15084,40.6181515710001,-79.783431346,379,"130 LAMPUS LN, TARENTUM, PA, 15084","Match","Exact","130 LAMPUS LN, TARENTUM, PA, 15084",51709339,"R"
137380,"130 LANGTREE DR","WENTZVILLE","MO",63385,38.805819839,-90.902684559,380,"130 LANGTREE DR, WENTZVILLE, MO, 63385","Match","Exact","130 LANGTREE DR, WENTZVILLE, MO, 63385",653446534,"R"
137381,"130 LANTERN LANE","PLAIN CITY","OH",43064,40.0998989570001,-83.270607572,381,"130 LANTERN LANE, PLAIN CITY, OH, 43064","Match","Exact","130 LANTERN LN, PLAIN CITY, OH, 43064",135267646,"R"
137382,"130 LANTERN LN","PLAIN CITY","OH",43064,40.0998989570001,-83.270607572,382,"130 LANTERN LN, PLAIN CITY, OH, 43064","Match","Exact","130 LANTERN LN, PLAIN CITY, OH, 43064",135267646,"R"
137383,"130 LARNEY COURT","ROSWELL","GA",30075,34.077420444,-84.3690631599999,383,"130 LARNEY COURT, ROSWELL, GA, 30075","Match","Exact","130 LARNEY CT, ROSWELL, GA, 30075",17373358,"L"
137384,"130 LAS PALMAS AVE","MODESTO","CA",95354,37.639366742,-120.978815754,384,"130 LAS PALMAS AVE, MODESTO, CA, 95354","Match","Exact","130 LAS PALMAS AVE, MODESTO, CA, 95354",102606115,"R"
137385,"130 LAST CHANCE DRIVE","STAR VALLEY RANCH","WY",83127,42.9667522,-110.950918868,385,"130 LAST CHANCE DRIVE, STAR VALLEY RANCH, WY, 83127","Match","Exact","130 LAST CHANCE DR, STAR VALLEY RANCH, WY, 83127",649946396,"L"
137386,"130 LAWRENCE","DETROIT","MI",48202,42.3907879970001,-83.0880868309999,386,"130 LAWRENCE, DETROIT, MI, 48202","Match","Non_Exact","130 LAWRENCE ST, DETROIT, MI, 48202",95475159,"R"
137387,"130 LEA AVE","FREDERICA","DE",19946,39.0298143110001,-75.510934268,387,"130 LEA AVE, FREDERICA, DE, 19946","Match","Exact","130 LEA AVE, FREDERICA, DE, 19946",68106231,"R"
137388,"130 LECENDRE","PORT EDWARDS","WI",54469,NA,NA,388,"130 LECENDRE, PORT EDWARDS, WI, 54469","No_Match",NA,NA,NA,NA
137389,"130 LECOMPTE PL","SAN ANTONIO","TX",78214,29.3803065550001,-98.499918153,389,"130 LECOMPTE PL, SAN ANTONIO, TX, 78214","Match","Exact","130 LECOMPTE PL, SAN ANTONIO, TX, 78214",101532722,"R"
137390,"130 LEE ROAD 2002","PHENIX CITY","AL",36870,32.4996551470001,-85.067743901,390,"130 LEE ROAD 2002, PHENIX CITY, AL, 36870","Match","Exact","130 LEE ROAD 2002, PHENIX CITY, AL, 36870",635360829,"R"
137391,"130 LEE ST","WINSTON SALEM","NC",27107,35.9799232410001,-80.1971742859999,391,"130 LEE ST, WINSTON SALEM, NC, 27107","Match","Exact","130 LEE ST, WINSTON SALEM, NC, 27107",20214691,"R"
137392,"130 LEGACY TRACE DRIVE","HUNTSVILLE","AL",35806,34.7996352500001,-86.7225302909999,392,"130 LEGACY TRACE DRIVE, HUNTSVILLE, AL, 35806","Match","Exact","130 LEGACY TRACE DR, HUNTSVILLE, AL, 35806",650783563,"R"
137393,"130 LENOX AVENUE SUITE 802","NEW YORK","NY",10026,40.8022797190001,-73.949483204,393,"130 LENOX AVENUE SUITE 802, NEW YORK, NY, 10026","Match","Exact","130 LENOX AVE, NEW YORK, NY, 10026",59657733,"R"
137394,"130 LENOX CT","PISCATAWAY","NJ",8854,40.5651641380001,-74.4599856679999,394,"130 LENOX CT, PISCATAWAY, NJ, 8854","Match","Exact","130 LENOX CT, PISCATAWAY, NJ, 08854",60260081,"L"
137395,"130 LEWIS STREET","SAN ANTONIO","TX",78212,29.438778905,-98.496704703,395,"130 LEWIS STREET, SAN ANTONIO, TX, 78212","Match","Exact","130 LEWIS ST, SAN ANTONIO, TX, 78212",101525563,"R"
137396,"130 LIBERTY ST","COLDWATER","MI",49036,41.9485468600001,-85.0030734379999,396,"130 LIBERTY ST, COLDWATER, MI, 49036","Match","Exact","130 LIBERTY ST, COLDWATER, MI, 49036",8211707,"R"
137397,"130 LIGHTHOUSE WAY","MIDWAY","KY",40347,38.18197259,-84.703612691,397,"130 LIGHTHOUSE WAY, MIDWAY, KY, 40347","Match","Exact","130 LIGHTHOUSE WAY, MIDWAY, KY, 40347",211984913,"R"
137398,"130 LILLY AVE","SALISBURY","NC",28144,35.6869130110001,-80.48146509,398,"130 LILLY AVE, SALISBURY, NC, 28144","Match","Exact","130 LILLY AVE, SALISBURY, NC, 28144",25268141,"L"
137399,"130 LINDEN ST STE B","RENO","NV",89502,39.499965817,-119.79777047,399,"130 LINDEN ST STE B, RENO, NV, 89502","Match","Exact","130 LINDEN ST, RENO, NV, 89502",107052527,"R"
137400,"130 LINDENWOOD AVE","ST CHARLES","MO",63301,38.787969866,-90.496260116,400,"130 LINDENWOOD AVE, ST CHARLES, MO, 63301","Match","Exact","130 LINDENWOOD AVE, SAINT CHARLES, MO, 63301",633266408,"R"
137401,"130 LOCUST AVENUE","CONWAY","AR",72034,35.077757046,-92.4403461639999,401,"130 LOCUST AVENUE, CONWAY, AR, 72034","Match","Non_Exact","130 LOCUST ST, CONWAY, AR, 72034",141044470,"R"
137402,"130 LONG HILL ROAD","BROOKFIELD","MA",1506,42.197430997,-72.140164534,402,"130 LONG HILL ROAD, BROOKFIELD, MA, 1506","Match","Exact","130 LONG HILL RD, BROOKFIELD, MA, 01506",40063835,"R"
137403,"130 LONGFELLOW","DETROIT","MI",48202,42.3851826760001,-83.084308666,403,"130 LONGFELLOW, DETROIT, MI, 48202","Match","Non_Exact","130 LONGFELLOW ST, DETROIT, MI, 48202",95475371,"R"
137404,"130 LONGLEAT DRIVE","NORTH WALES","PA",19454,40.247367442,-75.2189497379999,404,"130 LONGLEAT DRIVE, NORTH WALES, PA, 19454","Match","Exact","130 LONGLEAT DR, NORTH WALES, PA, 19454",135107500,"R"
137405,"130 LONGVIEW DRIVE","IRWIN","PA",15642,40.3448834320001,-79.67520647,405,"130 LONGVIEW DRIVE, IRWIN, PA, 15642","Match","Exact","130 LONGVIEW DR, IRWIN, PA, 15642",52967608,"R"
137406,"130 LORRIN LANE","STERRETT","AL",35147,33.3383958320001,-86.5585507609999,406,"130 LORRIN LANE, STERRETT, AL, 35147","Match","Exact","130 LORRIN LN, STERRETT, AL, 35147",629202517,"R"
137407,"130 LOUISIANA AVE S","GOLDEN VALLEY","MN",55426,44.9771424690001,-93.370177099,407,"130 LOUISIANA AVE S, GOLDEN VALLEY, MN, 55426","Match","Exact","130 LOUISIANA AVE S, GOLDEN VALLEY, MN, 55426",43831693,"R"
137408,"130 LYNN DR","SPARTA","WI",54656,43.9450627900001,-90.829906845,408,"130 LYNN DR, SPARTA, WI, 54656","Match","Exact","130 LYNN DR, SPARTA, WI, 54656",51081733,"R"
137409,"130 M STREET 426","WASHINGTON","DC",20002,38.905653391,-77.0050287569999,409,"130 M STREET 426, WASHINGTON, DC, 20002","Match","Non_Exact","130 M ST NE, WASHINGTON, DC, 20002",76229672,"L"
137410,"130 M STREET NE APT 920","WASHINGTON","DC",20002,38.905653391,-77.0050287569999,410,"130 M STREET NE APT 920, WASHINGTON, DC, 20002","Match","Exact","130 M ST NE, WASHINGTON, DC, 20002",76229672,"L"
137411,"130 MACE STREET","STATEN ISLAND","NY",10306,40.5746867030001,-74.131484292,411,"130 MACE STREET, STATEN ISLAND, NY, 10306","Match","Exact","130 MACE ST, STATEN ISLAND, NY, 10306",59876659,"L"
137412,"130 MAGNOLIA DR","SAN ANTONIO","TX",78249,29.453275778,-98.479621634,412,"130 MAGNOLIA DR, SAN ANTONIO, TX, 78249","Match","Non_Exact","130 MAGNOLIA DR, SAN ANTONIO, TX, 78212",101524858,"R"
137413,"130 MAIN ST  PMB 269","RANCOCUS","NJ",8073,40.011084667,-74.86794535,413,"130 MAIN ST  PMB 269, RANCOCUS, NJ, 8073","Match","Non_Exact","130 MAIN ST, RANCOCAS, NJ, 08073",134032445,"L"
137414,"130 MAIN ST APT 685","RANCOCAS","NJ",8073,40.011084667,-74.86794535,414,"130 MAIN ST APT 685, RANCOCAS, NJ, 8073","Match","Exact","130 MAIN ST, RANCOCAS, NJ, 08073",134032445,"L"
137415,"130 MAIN ST","GRANTSVILLE","MD",21536,39.6962504620001,-79.153880981,415,"130 MAIN ST, GRANTSVILLE, MD, 21536","Match","Exact","130 MAIN ST, GRANTSVILLE, MD, 21536",74187917,"L"
137416,"130 MAIN ST","WEST UPTON","MA",1568,42.1698238480001,-71.622319353,416,"130 MAIN ST, WEST UPTON, MA, 1568","Match","Non_Exact","130 MAIN ST, UPTON, MA, 01568",40098545,"R"
137417,"130 MAIN STREET APT 270","NEWPORT","ME",4953,44.835188739,-69.277139327,417,"130 MAIN STREET APT 270, NEWPORT, ME, 4953","Match","Exact","130 MAIN ST, NEWPORT, ME, 04953",123624301,"R"
137418,"130 MAIN STREET","SLATINGTON","PA",18080,40.7526692590001,-75.605297567,418,"130 MAIN STREET, SLATINGTON, PA, 18080","Match","Exact","130 MAIN ST, SLATINGTON, PA, 18080",80811301,"L"
137419,"130 MALCOLM X BLVD   802","NEW YORK CITY","NY",10026,40.8022797190001,-73.949483204,419,"130 MALCOLM X BLVD   802, NEW YORK CITY, NY, 10026","Match","Exact","130 MALCOLM X BLVD, NEW YORK, NY, 10026",59657733,"R"
137420,"130 MALCOLM X BLVD","NEW YORK","NY",10026,40.8022797190001,-73.949483204,420,"130 MALCOLM X BLVD, NEW YORK, NY, 10026","Match","Exact","130 MALCOLM X BLVD, NEW YORK, NY, 10026",59657733,"R"
137421,"130 MALLOY HALL","NOTRE DAME","IN",46556,NA,NA,421,"130 MALLOY HALL, NOTRE DAME, IN, 46556","No_Match",NA,NA,NA,NA
137422,"130 MALONE AVE","BELLEVILLE","NJ",7109,40.798064697,-74.154728419,422,"130 MALONE AVE, BELLEVILLE, NJ, 7109","Match","Exact","130 MALONE AVE, BELLEVILLE, NJ, 07109",648108966,"R"
137423,"130 MANNING BLVD","ALBANY","NY",12203,42.67143429,-73.7923039409999,423,"130 MANNING BLVD, ALBANY, NY, 12203","Match","Exact","130 MANNING BLVD, ALBANY, NY, 12203",18354104,"L"
137424,"130 MAPLE AVENUE","VERSAILLES","KY",40383,38.045488338,-84.735027553,424,"130 MAPLE AVENUE, VERSAILLES, KY, 40383","Match","Exact","130 MAPLE AVE, VERSAILLES, KY, 40383",38508080,"R"
137425,"130 MAPLE DR W","NEW HYDE PARK","NY",11040,40.7422676800001,-73.687320026,425,"130 MAPLE DR W, NEW HYDE PARK, NY, 11040","Match","Exact","130 MAPLE DR W, NEW HYDE PARK, NY, 11040",147665927,"R"
137426,"130 MAPLE DR","DECATUR","TX",76234,33.1946971290001,-97.5476874079999,426,"130 MAPLE DR, DECATUR, TX, 76234","Match","Exact","130 MAPLE DR, DECATUR, TX, 76234",103681086,"R"
137427,"130 MAPLE DR","SATELLITE BEACH","FL",32937,28.1688965550001,-80.591107278,427,"130 MAPLE DR, SATELLITE BEACH, FL, 32937","Match","Exact","130 MAPLE DR, SATELLITE BEACH, FL, 32937",93901486,"R"
137428,"130 MAPLE DRIVE","HENDERSONVILLE","TN",37075,36.305501427,-86.595059092,428,"130 MAPLE DRIVE, HENDERSONVILLE, TN, 37075","Match","Exact","130 MAPLE DR, HENDERSONVILLE, TN, 37075",29780643,"R"
137429,"130 MAPLE ST","SPRINGPORT","MI",49284,42.377263622,-84.6988954609999,429,"130 MAPLE ST, SPRINGPORT, MI, 49284","Match","Exact","130 MAPLE ST, SPRINGPORT, MI, 49284",17609576,"L"
137430,"130 MARATHON WAY","MANCHESTER","NH",3109,42.957294561,-71.40412401,430,"130 MARATHON WAY, MANCHESTER, NH, 3109","Match","Exact","130 MARATHON WAY, MANCHESTER, NH, 03109",650552915,"L"
137431,"130 MARBLE CROSSING DRIVE","WENTZVILLE","MO",63385,38.8341986510001,-90.8384355489999,431,"130 MARBLE CROSSING DRIVE, WENTZVILLE, MO, 63385","Match","Exact","130 MARBLE CROSSING DR, WENTZVILLE, MO, 63385",647315412,"L"
137432,"130 MARIAN CIRCLE","CHEYENNE","WY",82001,41.1318976630001,-104.749405016,432,"130 MARIAN CIRCLE, CHEYENNE, WY, 82001","Match","Exact","130 MARIAN CIR, CHEYENNE, WY, 82001",160152866,"L"
137433,"130 MARQUETTE STREET","PONTIAC","MI",48342,42.653463801,-83.2880347299999,433,"130 MARQUETTE STREET, PONTIAC, MI, 48342","Match","Exact","130 MARQUETTE ST, PONTIAC, MI, 48342",69704759,"R"
137434,"130 MARSHALL","MEADOWLANDS","PA",15347,40.21563525,-80.2298756389999,434,"130 MARSHALL, MEADOWLANDS, PA, 15347","Match","Non_Exact","130 MARSHALL AVE, MEADOW LANDS, PA, 15347",52817450,"R"
137435,"130 MARY STREET","TROY","ID",83871,46.741662583,-116.767010605,435,"130 MARY STREET, TROY, ID, 83871","Match","Exact","130 MARY ST, TROY, ID, 83871",635614416,"R"
137436,"130 MASSEY DRIVE","COLDWATER","MS",38618,34.736220238,-89.886184247,436,"130 MASSEY DRIVE, COLDWATER, MS, 38618","Match","Exact","130 MASSEY DR, COLDWATER, MS, 38618",608107736,"L"
137437,"130 MATT PHILLIPS ROAD","HUNTSVILLE","AL",35806,34.7935585180001,-86.701214995,437,"130 MATT PHILLIPS ROAD, HUNTSVILLE, AL, 35806","Match","Non_Exact","130 MATT PHILLIPS RD NW, HUNTSVILLE, AL, 35806",58194668,"R"
137438,"130 MATTHEW DRIVE","READING","PA",19608,40.2915812200001,-76.012605064,438,"130 MATTHEW DRIVE, READING, PA, 19608","Match","Exact","130 MATTHEW DR, READING, PA, 19608",645581151,"L"
137439,"130 MATTHEWS STATION STREET","MATTHEWS","NC",28105,35.11722695,-80.7203002369999,439,"130 MATTHEWS STATION STREET, MATTHEWS, NC, 28105","Match","Exact","130 MATTHEWS STATION ST, MATTHEWS, NC, 28105",70563303,"L"
137440,"130 MCCOY ROAD","MAYNARDVILLE","TN",37807,36.237612917,-83.903605941,440,"130 MCCOY ROAD, MAYNARDVILLE, TN, 37807","Match","Exact","130 MCCOY RD, MAYNARDVILLE, TN, 37807",42744285,"R"
137441,"130 MCCOY ROAD","PEEBLES","OH",45660,38.994091682,-83.3736292149999,441,"130 MCCOY ROAD, PEEBLES, OH, 45660","Match","Exact","130 MCCOY RD, PEEBLES, OH, 45660",640296593,"L"
137442,"130 MCHENRY LANE","WARD","AR",72176,34.9764489140001,-91.927871357,442,"130 MCHENRY LANE, WARD, AR, 72176","Match","Exact","130 MCHENRY LN, WARD, AR, 72176",79695902,"L"
137443,"130 MCMILLEN RD","FERRIDAY","LA",71334,31.6160792790001,-91.592746926,443,"130 MCMILLEN RD, FERRIDAY, LA, 71334","Match","Non_Exact","130 MCMILLON RD, FERRIDAY, LA, 71334",84869682,"L"
137444,"130 MCNAMARA RD","SPRING VALLEY","NY",10977,41.1568334250001,-74.05396848,444,"130 MCNAMARA RD, SPRING VALLEY, NY, 10977","Match","Exact","130 MCNAMARA RD, SPRING VALLEY, NY, 10977",124619469,"R"
137445,"130 MEADOW LANE","GROSSE POINTE FARMS","MI",48236,42.392322677,-82.90135287,445,"130 MEADOW LANE, GROSSE POINTE FARMS, MI, 48236","Match","Exact","130 MEADOW LN, GROSSE POINTE FARMS, MI, 48236",95704995,"R"
137446,"130 MEADOWLARK DR","BELLEVUE","OH",44811,41.286133019,-82.844464719,446,"130 MEADOWLARK DR, BELLEVUE, OH, 44811","Match","Exact","130 MEADOWLARK DR, BELLEVUE, OH, 44811",38677280,"R"
137447,"130 MEADOWS","HENRY","TN",38231,36.2033999340001,-88.404206694,447,"130 MEADOWS, HENRY, TN, 38231","Match","Non_Exact","130 MEADOWS RD, HENRY, TN, 38231",646345606,"R"
137448,"130 MELROSE CT","VACAVILLE","CA",95687,38.341384147,-121.950386366,448,"130 MELROSE CT, VACAVILLE, CA, 95687","Match","Exact","130 MELROSE CT, VACAVILLE, CA, 95687",192535888,"R"
137449,"130 MELVILLE ROAD","HUNTINGTON STA.","NY",11746,40.823085194,-73.3994826909999,449,"130 MELVILLE ROAD, HUNTINGTON STA., NY, 11746","Match","Exact","130 MELVILLE RD, HUNTINGTON STATION, NY, 11746",113966431,"L"
137450,"130 MEMORY PLZ","WHITEVILLE","NC",28472,34.3393457440001,-78.7044507969999,450,"130 MEMORY PLZ, WHITEVILLE, NC, 28472","Match","Exact","130 MEMORY PLZ, WHITEVILLE, NC, 28472",606747706,"R"
137451,"130 MERCHANT AVE","MARION","OH",43302,40.5890950690001,-83.102344069,451,"130 MERCHANT AVE, MARION, OH, 43302","Match","Exact","130 MERCHANT AVE, MARION, OH, 43302",12710297,"R"
137452,"130 MERRIMACK WAY","ARNOLD","MD",21012,NA,NA,452,"130 MERRIMACK WAY, ARNOLD, MD, 21012","No_Match",NA,NA,NA,NA
137453,"130 MICHIGAN AVE N E  APT 24","WASHINGTON","DC",20017,38.928178217,-77.005022948,453,"130 MICHIGAN AVE N E  APT 24, WASHINGTON, DC, 20017","Match","Non_Exact","130 MICHIGAN AVE NE, WASHINGTON, DC, 20017",635190432,"L"
137454,"130 MICHIGAN AVENUE NE","WASHINGTON","DC",20017,38.928178217,-77.005022948,454,"130 MICHIGAN AVENUE NE, WASHINGTON, DC, 20017","Match","Exact","130 MICHIGAN AVE NE, WASHINGTON, DC, 20017",635190432,"L"
137455,"130 MILDRED LANE","COVINGTON","GA",30016,33.5186350860001,-84.033876197,455,"130 MILDRED LANE, COVINGTON, GA, 30016","Match","Exact","130 MILDRED LN, COVINGTON, GA, 30016",635647343,"L"
137456,"130 MILL ST","GAHANNA","OH",43230,40.0211624740001,-82.8795058159999,456,"130 MILL ST, GAHANNA, OH, 43230","Match","Exact","130 MILL ST, GAHANNA, OH, 43230",617924470,"R"
137457,"130 MILL STREET","FREEVILLE","NY",13068,42.514548479,-76.362522666,457,"130 MILL STREET, FREEVILLE, NY, 13068","Match","Exact","130 MILL ST, FREEVILLE, NY, 13068",18875585,"R"
137458,"130 MILL TRAIL DRIVE","SUGAR LAND","TX",77498,29.631979426,-95.63390226,458,"130 MILL TRAIL DRIVE, SUGAR LAND, TX, 77498","Match","Exact","130 MILL TRAIL DR, SUGAR LAND, TX, 77498",78266523,"R"
137459,"130 MILLER ROAD","PRESTON","CT",6365,41.5160894100001,-72.013708063,459,"130 MILLER ROAD, PRESTON, CT, 6365","Match","Exact","130 MILLER RD, PRESTON, CT, 06365",611689735,"L"
137460,"130 MILLRACE CIRCLE","AIKEN","SC",29805,33.6136722580001,-81.6767123179999,460,"130 MILLRACE CIRCLE, AIKEN, SC, 29805","Match","Exact","130 MILLRACE CIR, AIKEN, SC, 29805",64986527,"L"
137461,"130 MILLS STREET","MALDEN","MA",2148,42.4222476580001,-71.052673319,461,"130 MILLS STREET, MALDEN, MA, 2148","Match","Exact","130 MILLS ST, MALDEN, MA, 02148",636268603,"L"
137462,"130 MIMOS DRIVE","ROSLYN","NY",11576,NA,NA,462,"130 MIMOS DRIVE, ROSLYN, NY, 11576","No_Match",NA,NA,NA,NA
137463,"130 MIMOSA DRIVE","ROSLYN","NY",11576,40.7966775960001,-73.643118879,463,"130 MIMOSA DRIVE, ROSLYN, NY, 11576","Match","Exact","130 MIMOSA DR, ROSLYN, NY, 11576",147663527,"L"
137464,"130 MINE LAKE COURT SUITE 200","RALEIGH","NC",27615,35.875822548,-78.64454696,464,"130 MINE LAKE COURT SUITE 200, RALEIGH, NC, 27615","Match","Exact","130 MINE LAKE CT, RALEIGH, NC, 27615",72516974,"R"
137465,"130 MOCKINGBIRD COURT","THREE BRIDGES","NJ",8887,40.5300120800001,-74.778628429,465,"130 MOCKINGBIRD COURT, THREE BRIDGES, NJ, 8887","Match","Exact","130 MOCKINGBIRD CT, THREE BRIDGES, NJ, 08887",60038074,"R"
137466,"130 MOCKINGBIRD DR","CRANSTON","RI",2920,41.7832927850001,-71.488711888,466,"130 MOCKINGBIRD DR, CRANSTON, RI, 2920","Match","Exact","130 MOCKINGBIRD DR, CRANSTON, RI, 02920",47452020,"L"
137467,"130 MOHONK ROAD","HIGH FALLS","NY",12440,41.8192065650001,-74.130696098,467,"130 MOHONK ROAD, HIGH FALLS, NY, 12440","Match","Exact","130 MOHONK RD, HIGH FALLS, NY, 12440",41869551,"L"
137468,"130 MONACO ST","BUTLER","PA",16002,40.745674858,-79.919467361,468,"130 MONACO ST, BUTLER, PA, 16002","Match","Exact","130 MONACO ST, BUTLER, PA, 16002",607362065,"R"
137469,"130 MONEY LANE","SAN ANTONIO","TX",78227,29.432961306,-98.588555123,469,"130 MONEY LANE, SAN ANTONIO, TX, 78227","Match","Exact","130 MONEY LN, SAN ANTONIO, TX, 78227",101510710,"L"
137470,"130 MONTADALE DRIVE","PRINCETON","NJ",8540,40.3760243510001,-74.66913149,470,"130 MONTADALE DRIVE, PRINCETON, NJ, 8540","Match","Exact","130 MONTADALE DR, PRINCETON, NJ, 08540",60227219,"L"
137471,"130 MONTEREY RD","SOUTH PASADENA","CA",91030,34.1100469740001,-118.175013845,471,"130 MONTEREY RD, SOUTH PASADENA, CA, 91030","Match","Exact","130 MONTEREY RD, SOUTH PASADENA, CA, 91030",141615575,"L"
137472,"130 MOORE DRIVE","ROCKVILLE","MD",20850,39.0958230620001,-77.146519115,472,"130 MOORE DRIVE, ROCKVILLE, MD, 20850","Match","Exact","130 MOORE DR, ROCKVILLE, MD, 20850",62054648,"L"
137473,"130 MORNINGSIDE DR","NEW YORK","NY",10027,40.8098953140001,-73.957139586,473,"130 MORNINGSIDE DR, NEW YORK, NY, 10027","Match","Exact","130 MORNINGSIDE DR, NEW YORK, NY, 10027",642471505,"L"
137474,"130 MORSE AVE","NILES","OH",44446,41.1843637750001,-80.7546156879999,474,"130 MORSE AVE, NILES, OH, 44446","Match","Non_Exact","130 MORSE AVE SE, NILES, OH, 44446",117409266,"L"
137475,"130 MOUNT VERNON AVENUE","MOUNT VERNON","NY",10550,40.912690733,-73.848547396,475,"130 MOUNT VERNON AVENUE, MOUNT VERNON, NY, 10550","Match","Exact","130 MOUNT VERNON AVE, MOUNT VERNON, NY, 10550",139746622,"L"
137476,"130 MOUNTAINVIEW ROAD","MOUNT LAUREL","NJ",8054,39.9180094810001,-74.904261898,476,"130 MOUNTAINVIEW ROAD, MOUNT LAUREL, NJ, 8054","Match","Exact","130 MOUNTAINVIEW RD, MOUNT LAUREL, NJ, 08054",134062625,"R"
137477,"130 MOZELLE ROAD","CHERRYVILLE","NC",28021,35.3464242160001,-81.3815579389999,477,"130 MOZELLE ROAD, CHERRYVILLE, NC, 28021","Match","Exact","130 MOZELLE RD, CHERRYVILLE, NC, 28021",70437309,"R"
137478,"130 MT LEWIS DRIVE","BATTLE MOUNTIAN","NV",89820,40.6258693710001,-116.947407128,478,"130 MT LEWIS DRIVE, BATTLE MOUNTIAN, NV, 89820","Match","Non_Exact","130 MT LEWIS DR, BATTLE MOUNTAIN, NV, 89820",140250405,"R"
137479,"130 MUADE DRIVE","REIDSVILLE","NC",27320,36.353530521,-79.6070272059999,479,"130 MUADE DRIVE, REIDSVILLE, NC, 27320","Match","Non_Exact","130 MAUDE DR, REIDSVILLE, NC, 27320",56219797,"L"
137480,"130 MUD CREEK RD","CHICO","CA",95973,39.9458569810001,-121.716761361,480,"130 MUD CREEK RD, CHICO, CA, 95973","Match","Exact","130 MUD CREEK RD, CHICO, CA, 95973",68474469,"R"
137481,"130 MULBERRY ST APT 8","NEW YORK","NY",10013,40.718248223,-73.997866323,481,"130 MULBERRY ST APT 8, NEW YORK, NY, 10013","Match","Exact","130 MULBERRY ST, NEW YORK, NY, 10013",59653800,"R"
137482,"130 MULLHERRIN DRIVE","MADISON","MS",39110,32.5390780930001,-90.1853030189999,482,"130 MULLHERRIN DRIVE, MADISON, MS, 39110","Match","Exact","130 MULLHERRIN DR, MADISON, MS, 39110",627554345,"R"
137483,"130 MULLIGAN LANE","AZLE","TX",76020,32.8737504790001,-97.5685964579999,483,"130 MULLIGAN LANE, AZLE, TX, 76020","Match","Exact","130 MULLIGAN LN, AZLE, TX, 76020",622115150,"R"
137484,"130 MYSTIC RIDGE","SNEADS FERRY","NC",28460,34.5209466040001,-77.465833216,484,"130 MYSTIC RIDGE, SNEADS FERRY, NC, 28460","Match","Exact","130 MYSTIC RIDGE, SNEADS FERRY, NC, 28460",605411363,"R"
137485,"130 N 32ND STREET","CAMDEN","NJ",8105,39.949771178,-75.077728048,485,"130 N 32ND STREET, CAMDEN, NJ, 8105","Match","Exact","130 N 32ND ST, CAMDEN, NJ, 08105",134342831,"R"
137486,"130 N AVELLINO PL","SIERRA VISTA","AZ",85635,31.5559453130001,-110.246467964,486,"130 N AVELLINO PL, SIERRA VISTA, AZ, 85635","Match","Exact","130 N AVELLINO PL, SIERRA VISTA, AZ, 85635",121039652,"L"
137487,"130 N BEECH AVE","HENRICO","VA",23075,37.5511943500001,-77.328030929,487,"130 N BEECH AVE, HENRICO, VA, 23075","Match","Exact","130 N BEECH AVE, HENRICO, VA, 23075",106651327,"L"
137488,"130 N BLACK BRIDGE ROAD","CAMP VERDE","AZ",86322,NA,NA,488,"130 N BLACK BRIDGE ROAD, CAMP VERDE, AZ, 86322","No_Match",NA,NA,NA,NA
137489,"130 N CHERRY STREET SUITE 103","OLATHE","KS",66061,NA,NA,489,"130 N CHERRY STREET SUITE 103, OLATHE, KS, 66061","Tie",NA,NA,NA,NA
137490,"130 N FORT THOMAS AVE","FORT THOMAS","KY",41075,39.081127859,-84.449407405,490,"130 N FORT THOMAS AVE, FORT THOMAS, KY, 41075","Match","Exact","130 N FORT THOMAS AVE, FORT THOMAS, KY, 41075",104448883,"R"
137491,"130 N GARLAND CT APT 3804","CHICAGO","IL",60602,41.883662459,-87.625338321,491,"130 N GARLAND CT APT 3804, CHICAGO, IL, 60602","Match","Non_Exact","130 N GARLAND CT, CHICAGO, IL, 60602",111769124,"L"
137492,"130 N GARLAND CT UNIT 2209","CHICAGO","IL",60602,41.883662459,-87.625338321,492,"130 N GARLAND CT UNIT 2209, CHICAGO, IL, 60602","Match","Non_Exact","130 N GARLAND CT, CHICAGO, IL, 60602",111769124,"L"
137493,"130 N GREENWOOD AVE STE 500","TULSA","OK",74120,36.1600959470001,-95.9862471009999,493,"130 N GREENWOOD AVE STE 500, TULSA, OK, 74120","Match","Non_Exact","130 N GREENWOOD AVE, TULSA, OK, 74120",166437774,"L"
137494,"130 N GREENWOOD AVE SUITE 420","TULSA","OK",74120,36.1600959470001,-95.9862471009999,494,"130 N GREENWOOD AVE SUITE 420, TULSA, OK, 74120","Match","Non_Exact","130 N GREENWOOD AVE, TULSA, OK, 74120",166437774,"L"
137495,"130 N LOS ROBLES STE 7","PASADENA","CA",91101,NA,NA,495,"130 N LOS ROBLES STE 7, PASADENA, CA, 91101","No_Match",NA,NA,NA,NA
137496,"130 N MABLE","PINCONNING","MI",48650,43.8590562960001,-83.966139401,496,"130 N MABLE, PINCONNING, MI, 48650","Match","Non_Exact","130 N MABLE ST, PINCONNING, MI, 48650",81136202,"R"
137497,"130 N MARTINWOOD ROAD","KNOXVILLE","TN",37923,35.919217723,-84.0727152809999,497,"130 N MARTINWOOD ROAD, KNOXVILLE, TN, 37923","Match","Exact","130 N MARTINWOOD RD, KNOXVILLE, TN, 37923",640164177,"R"
137498,"130 N MILDRED ST","DEARBORN","MI",48128,42.3132113280001,-83.266919275,498,"130 N MILDRED ST, DEARBORN, MI, 48128","Match","Exact","130 MILDRED ST, DEARBORN, MI, 48128",652800473,"R"
137499,"130 N MONROE","WILLIAMSPORT","IN",47993,40.287438744,-87.294093253,499,"130 N MONROE, WILLIAMSPORT, IN, 47993","Match","Non_Exact","130 N MONROE ST, WILLIAMSPORT, IN, 47993",55251754,"L"
137500,"130 N O KEEFE ST","CASSOPOLIS","MI",49031,41.912499976,-86.010008117,500,"130 N O KEEFE ST, CASSOPOLIS, MI, 49031","Match","Exact","130 N O KEEFE ST, CASSOPOLIS, MI, 49031",22572421,"R"
