"ID","Address","City","State","Zip","lat","long","id","input_address","match_indicator","match_type","matched_address","tiger_line_id","tiger_side"
2001,"1 POSSUM LANE","NORWALK","CT",6854,41.0829549370001,-73.438546162,1,"1 POSSUM LANE, NORWALK, CT, 6854","Match","Exact","1 POSSUM LN, NORWALK, CT, 06854",3250220,"L"
2002,"1 POTTER PARK","CAMBRIDGE","MA",2138,42.3842756020001,-71.1202630499999,2,"1 POTTER PARK, CAMBRIDGE, MA, 2138","Match","Exact","1 POTTER PARK, CAMBRIDGE, MA, 02138",86867934,"L"
2003,"1 POTTER ROAD","HUDSON","NH",3051,42.703177215,-71.403734556,3,"1 POTTER ROAD, HUDSON, NH, 3051","Match","Exact","1 POTTER RD, HUDSON, NH, 03051",113555309,"R"
2004,"1 POWDER CREEK DRIVE","BELLEVILLE","IL",62223,38.5713864260001,-90.0612380169999,4,"1 POWDER CREEK DRIVE, BELLEVILLE, IL, 62223","Match","Exact","1 POWDER CREEK DR, BELLEVILLE, IL, 62223",107837962,"R"
2005,"1 POWDERHOUSE TERRACE","SOMERVILLE","MA",2144,42.399040841,-71.117472401,5,"1 POWDERHOUSE TERRACE, SOMERVILLE, MA, 2144","Match","Non_Exact","1 POWDER HOUSE TER, SOMERVILLE, MA, 02144",86921852,"R"
2006,"1 POWER AVENUE","GRANITE FALLS","NC",28630,35.7889753870001,-81.4315251149999,6,"1 POWER AVENUE, GRANITE FALLS, NC, 28630","Match","Non_Exact","1 POWER DR, GRANITE FALLS, NC, 28630",625200769,"L"
2007,"1 PPG PLACE 31ST FL STE 77","PITTSBURGH","PA",15222,NA,NA,7,"1 PPG PLACE 31ST FL STE 77, PITTSBURGH, PA, 15222","No_Match",NA,NA,NA,NA
2008,"1 PRESERVATION DR","MONROE","NJ",8831,40.2852396070001,-74.463507898,8,"1 PRESERVATION DR, MONROE, NJ, 8831","Match","Exact","1 PRESERVATION DR, MONROE, NJ, 08831",626996317,"R"
2009,"1 PRESIDENTIAL BLVD","BALA CYNWYD","PA",19004,40.0091783550001,-75.2112163479999,9,"1 PRESIDENTIAL BLVD, BALA CYNWYD, PA, 19004","Match","Exact","1 PRESIDENTIAL BLVD, BALA CYNWYD, PA, 19004",635654144,"R"
2010,"1 PRESTWICK TERRACE","GLEN COVE","NY",11542,40.8727093640001,-73.6212664509999,10,"1 PRESTWICK TERRACE, GLEN COVE, NY, 11542","Match","Exact","1 PRESTWICK TER, GLEN COVE, NY, 11542",147692630,"L"
2011,"1 PRICE ROAD","CHESTER","NY",10918,41.3709344490001,-74.268527284,11,"1 PRICE ROAD, CHESTER, NY, 10918","Match","Exact","1 PRICE RD, CHESTER, NY, 10918",124398643,"R"
2012,"1 PRIMUS AVE 9","BOSTON","MA",2114,42.360231678,-71.06970031,12,"1 PRIMUS AVE 9, BOSTON, MA, 2114","Match","Exact","1 PRIMUS AVE, BOSTON, MA, 02114",85723618,"R"
2013,"1 PRINCE ST","BORDENTOWN","NJ",8505,40.1498191810001,-74.715888787,13,"1 PRINCE ST, BORDENTOWN, NJ, 8505","Match","Exact","1 PRINCE ST, BORDENTOWN, NJ, 08505",134050179,"L"
2014,"1 PRIVATE ADDITION ROAD","MITCHELL","IN",47446,38.7235254500001,-86.510948592,14,"1 PRIVATE ADDITION ROAD, MITCHELL, IN, 47446","Match","Non_Exact","1 PVT ADDITION RD, MITCHELL, IN, 47446",606751261,"R"
2015,"1 PRO SHOP ROAD","CHEROKEE VILLAGE","AR",72529,36.3172128200001,-91.55428806,15,"1 PRO SHOP ROAD, CHEROKEE VILLAGE, AR, 72529","Match","Exact","1 PRO SHOP RD, CHEROKEE VLG, AR, 72529",33267330,"L"
2016,"1 PROCTOR RD","PEPPERELL","MA",1463,42.6509512270001,-71.657521359,16,"1 PROCTOR RD, PEPPERELL, MA, 1463","Match","Exact","1 PROCTOR RD, PEPPERELL, MA, 01463",86839207,"L"
2017,"1 PROSPECT PARK SW APT 1A","BROOKLYN","NY",11215,40.6607715920001,-73.9794155819999,17,"1 PROSPECT PARK SW APT 1A, BROOKLYN, NY, 11215","Match","Exact","1 PROSPECT PARK SW, BROOKLYN, NY, 11215",59078286,"R"
2018,"1 PUBLIC SQUARE","WILLOUGHBY","OH",44094,41.6396839120001,-81.40515326,18,"1 PUBLIC SQUARE, WILLOUGHBY, OH, 44094","Match","Exact","1 PUBLIC SQ, WILLOUGHBY, OH, 44094",637889246,"R"
2019,"1 PUCKETT ROAD","ROGERS","AR",72756,36.343457291,-93.994190847,19,"1 PUCKETT ROAD, ROGERS, AR, 72756","Match","Exact","1 PUCKETT RD, ROGERS, AR, 72756",47817443,"L"
2020,"1 PURLIEU PLACE STE 100","WINTER PARK","FL",32792,28.5992688150001,-81.304039807,20,"1 PURLIEU PLACE STE 100, WINTER PARK, FL, 32792","Match","Exact","1 PURLIEU PL, WINTER PARK, FL, 32792",94292496,"R"
2021,"1 PURTNEAR LANE","CHAPEL HILL","NC",27514,35.9099125660001,-79.035266884,21,"1 PURTNEAR LANE, CHAPEL HILL, NC, 27514","Match","Exact","1 PURTNEAR LN, CHAPEL HILL, NC, 27514",72408640,"L"
2022,"1 PUTTER LANE","PALATKA","FL",32177,29.6294605310001,-81.6495625429999,22,"1 PUTTER LANE, PALATKA, FL, 32177","Match","Exact","1 PUTTER LN, PALATKA, FL, 32177",86073292,"R"
2023,"1 QUAIL RIDGE DR","READING","PA",19607,40.26191426,-75.929502436,23,"1 QUAIL RIDGE DR, READING, PA, 19607","Match","Exact","1 QUAIL RIDGE DR, READING, PA, 19607",80403543,"L"
2024,"1 QUALITY STREET","LEXINGTON","KY",40507,38.0429671790001,-84.4951850589999,24,"1 QUALITY STREET, LEXINGTON, KY, 40507","Match","Exact","1 QUALITY ST, LEXINGTON, KY, 40507",31921857,"L"
2025,"1 QUARRY ROAD","ROCKPORT","MA",1966,42.662286571,-70.627412667,25,"1 QUARRY ROAD, ROCKPORT, MA, 1966","Match","Non_Exact","1 QUARRY RUN, ROCKPORT, MA, 01966",86670554,"L"
2026,"1 QUEENSBURY COURT","CLIFTON PARK","NY",12065,42.8587559920001,-73.82558311,26,"1 QUEENSBURY COURT, CLIFTON PARK, NY, 12065","Match","Exact","1 QUEENSBURY CT, CLIFTON PARK, NY, 12065",18782793,"R"
2027,"1 QUEENTREE COURT APT D","WINDSOR MILL","MD",21244,39.3087722060001,-76.765285972,27,"1 QUEENTREE COURT APT D, WINDSOR MILL, MD, 21244","Match","Exact","1 QUEENTREE CT, WINDSOR MILL, MD, 21244",191503569,"R"
2028,"1 QUINCY PLACE","BOSTON","MA",2121,42.316005569,-71.081817956,28,"1 QUINCY PLACE, BOSTON, MA, 2121","Match","Exact","1 QUINCY PL, BOSTON, MA, 02121",85701450,"L"
2029,"1 RACING WIND","IRVINE","CA",92614,33.669514022,-117.81526584,29,"1 RACING WIND, IRVINE, CA, 92614","Match","Exact","1 RACING WIND, IRVINE, CA, 92614",144410009,"R"
2030,"1 RAIDER BLVD","ALBANY","NY",12205,42.7079617810001,-73.8112574749999,30,"1 RAIDER BLVD, ALBANY, NY, 12205","Match","Exact","1 RAIDER BLVD, ALBANY, NY, 12205",651809844,"L"
2031,"1 RAIDER PLACE","PLANT CITY","FL",33563,27.9914450100001,-82.129650622,31,"1 RAIDER PLACE, PLANT CITY, FL, 33563","Match","Exact","1 RAIDER PL, PLANT CITY, FL, 33563",104668125,"R"
2032,"1 RAIDER PLACEE","PLANT CITY","FL",33563,27.9914450100001,-82.129650622,32,"1 RAIDER PLACEE, PLANT CITY, FL, 33563","Match","Non_Exact","1 RAIDER PL, PLANT CITY, FL, 33563",104668125,"R"
2033,"1 RAILROAD AVE","GEORGETOWN","MA",1833,42.7259707370001,-70.995697548,33,"1 RAILROAD AVE, GEORGETOWN, MA, 1833","Match","Exact","1 RAILROAD AVE, GEORGETOWN, MA, 01833",86663817,"L"
2034,"1 RAINBOW LN","MALABAR","FL",32950,NA,NA,34,"1 RAINBOW LN, MALABAR, FL, 32950","No_Match",NA,NA,NA,NA
2035,"1 RAINBOW WAY","MALTA","NY",12020,NA,NA,35,"1 RAINBOW WAY, MALTA, NY, 12020","No_Match",NA,NA,NA,NA
2036,"1 RALPH ROAD","MARBLEHEAD","MA",1945,42.4900492240001,-70.877728729,36,"1 RALPH ROAD, MARBLEHEAD, MA, 1945","Match","Exact","1 RALPH RD, MARBLEHEAD, MA, 01945",86647989,"R"
2037,"1 RAM WAY","SARASOTA","FL",34231,27.2827440620001,-82.517404191,37,"1 RAM WAY, SARASOTA, FL, 34231","Match","Exact","1 RAM WAY, SARASOTA, FL, 34231",640581824,"R"
2038,"1 RAMBLETON DR APT F-5","NEW CASTLE","DE",19720,39.664140704,-75.622376593,38,"1 RAMBLETON DR APT F-5, NEW CASTLE, DE, 19720","Match","Exact","1 RAMBLETON DR, NEW CASTLE, DE, 19720",187295375,"L"
2039,"1 RAMSEY ROAD","LEBANON","NJ",8833,40.653636669,-74.8161529779999,39,"1 RAMSEY ROAD, LEBANON, NJ, 8833","Match","Exact","1 RAMSEY RD, LEBANON, NJ, 08833",60009949,"R"
2040,"1 RANDAL COVE","MAUMELLE","AR",72113,34.83944776,-92.411925894,40,"1 RANDAL COVE, MAUMELLE, AR, 72113","Match","Exact","1 RANDAL COVE, MAUMELLE, AR, 72113",83495868,"L"
2041,"1 RAPP RD","MILFORD","NJ",8848,40.606287417,-75.048549206,41,"1 RAPP RD, MILFORD, NJ, 8848","Match","Exact","1 RAPP RD, MILFORD, NJ, 08848",60032753,"L"
2042,"1 RATTLER DRIVE","NAVASOTA","TX",77363,NA,NA,42,"1 RATTLER DRIVE, NAVASOTA, TX, 77363","No_Match",NA,NA,NA,NA
2043,"1 RAVENWOOD","OFALLON","IL",62269,38.598823431,-89.9067271179999,43,"1 RAVENWOOD, OFALLON, IL, 62269","Match","Non_Exact","1 RAVENWOOD CIR, O FALLON, IL, 62269",107844874,"L"
2044,"1 RAVINIA COURT","ARKANSAS CITY","KS",67005,37.058030811,-97.0152247139999,44,"1 RAVINIA COURT, ARKANSAS CITY, KS, 67005","Match","Non_Exact","1 RAVINA CT, ARKANSAS CITY, KS, 67005",44344120,"R"
2045,"1 RAYMOND DRIVE","ESSEX JCT","VT",5452,44.4837797210001,-73.0695115469999,45,"1 RAYMOND DRIVE, ESSEX JCT, VT, 5452","Match","Exact","1 RAYMOND DR, ESSEX JCT, VT, 05452",135838304,"L"
2046,"1 RAYMOND DRIVE","ESSEX JUNCTION","VT",5452,44.4837797210001,-73.0695115469999,46,"1 RAYMOND DRIVE, ESSEX JUNCTION, VT, 5452","Match","Exact","1 RAYMOND DR, ESSEX JCT, VT, 05452",135838304,"L"
2047,"1 REBECCA STREET","GREENVILLE","SC",29607,34.8430038870001,-82.378462,47,"1 REBECCA STREET, GREENVILLE, SC, 29607","Match","Exact","1 REBECCA ST, GREENVILLE, SC, 29607",38303115,"L"
2048,"1 REBER ROAD","CROTON ON HUDSON","NY",10520,41.2352464100001,-73.89248781,48,"1 REBER ROAD, CROTON ON HUDSON, NY, 10520","Match","Exact","1 REBER RD, CROTON ON HUDSON, NY, 10520",139725864,"R"
2049,"1 RED ARROW RD","WEST TISBURY","MA",2575,41.43096797,-70.6339621449999,49,"1 RED ARROW RD, WEST TISBURY, MA, 2575","Match","Exact","1 RED ARROW RD, WEST TISBURY, MA, 02575",634830127,"L"
2050,"1 RED CREEK CIRCLE","HAMPTON BAYS","NY",11946,NA,NA,50,"1 RED CREEK CIRCLE, HAMPTON BAYS, NY, 11946","Tie",NA,NA,NA,NA
2051,"1 RED MAPE","LITTLETON","CO",80127,NA,NA,51,"1 RED MAPE, LITTLETON, CO, 80127","No_Match",NA,NA,NA,NA
2052,"1 RED MAPLE","LITTLETON","CO",80127,39.575129561,-105.154469491,52,"1 RED MAPLE, LITTLETON, CO, 80127","Match","Non_Exact","1 RED MAPLE PL, LITTLETON, CO, 80127",177322290,"L"
2053,"1 RED OAK DRIVE APT 2C","SOUTH PORTLAND","ME",4092,NA,NA,53,"1 RED OAK DRIVE APT 2C, SOUTH PORTLAND, ME, 4092","No_Match",NA,NA,NA,NA
2054,"1 RED PRIDE DRIVE","PLAINFIELD","IN",46168,NA,NA,54,"1 RED PRIDE DRIVE, PLAINFIELD, IN, 46168","No_Match",NA,NA,NA,NA
2055,"1 REDBRUSH COURT","CHAPIN","SC",29063,34.140073418,-81.282493275,55,"1 REDBRUSH COURT, CHAPIN, SC, 29063","Match","Non_Exact","1 REDBRUSH CT, CHAPIN, SC, 29036",624779513,"L"
2056,"1 REDBUD CT","BOLINGBROOK","IL",60440,41.695218288,-88.148051332,56,"1 REDBUD CT, BOLINGBROOK, IL, 60440","Match","Non_Exact","1 RED BUD CT, BOLINGBROOK, IL, 60490",645769483,"R"
2057,"1 Redondo Ct","Santa Fe","NM",87508,35.526956253,-105.939400007,57,"1 Redondo Ct, Santa Fe, NM, 87508","Match","Exact","1 REDONDO CT, SANTA FE, NM, 87508",169397368,"R"
2058,"1 REDWISH AVE","MARMORA","NJ",8223,39.270723462,-74.642925248,58,"1 REDWISH AVE, MARMORA, NJ, 8223","Match","Exact","1 REDWISH AVE, MARMORA, NJ, 08223",174342005,"R"
2059,"1 REDWOOD ROAD","MARTINSVILLE","NJ",8836,40.585838955,-74.533250869,59,"1 REDWOOD ROAD, MARTINSVILLE, NJ, 8836","Match","Exact","1 REDWOOD RD, MARTINSVILLE, NJ, 08836",59940304,"L"
2060,"1 REED STREET","LYNN","MA",1905,42.4579984750001,-70.979530735,60,"1 REED STREET, LYNN, MA, 1905","Match","Exact","1 REED ST, LYNN, MA, 01905",86638082,"R"
2061,"1 REGATTA BAY COURT","LAKE ST. LOUIS","MO",63367,38.793365878,-90.768601921,61,"1 REGATTA BAY COURT, LAKE ST. LOUIS, MO, 63367","Match","Exact","1 REGATTA BAY CT, LAKE SAINT LOUIS, MO, 63367",100034183,"L"
2062,"1 REGENT ST","SAN FRANCISCO","CA",94112,37.7092801200001,-122.45591419,62,"1 REGENT ST, SAN FRANCISCO, CA, 94112","Match","Exact","1 REGENT ST, SAN FRANCISCO, CA, 94112",192285973,"L"
2063,"1 REPTON PLACE APT 1204","WATERTOWN","MA",2472,42.3677208140001,-71.212647373,63,"1 REPTON PLACE APT 1204, WATERTOWN, MA, 2472","Match","Non_Exact","1 REPTON CIR, WATERTOWN, MA, 02472",652082639,"R"
2064,"1 RESEARCH COURT  SUITE 145","ROCKVILLE","MD",20850,39.1063118690001,-77.186643875,64,"1 RESEARCH COURT  SUITE 145, ROCKVILLE, MD, 20850","Match","Exact","1 RESEARCH CT, ROCKVILLE, MD, 20850",62100099,"R"
2065,"1 RESEARCH COURT SUITE 145","ROCKVILLE","MD",20850,39.1063118690001,-77.186643875,65,"1 RESEARCH COURT SUITE 145, ROCKVILLE, MD, 20850","Match","Exact","1 RESEARCH CT, ROCKVILLE, MD, 20850",62100099,"R"
2066,"1 RESERVATION COURT","GRAY","LA",70359,29.6747607990001,-90.778244372,66,"1 RESERVATION COURT, GRAY, LA, 70359","Match","Exact","1 RESERVATION CT, GRAY, LA, 70359",92057851,"R"
2067,"1 REVOLUTIONARY ROAD","CONCORD","MA",1742,42.4609965710001,-71.337856163,67,"1 REVOLUTIONARY ROAD, CONCORD, MA, 1742","Match","Exact","1 REVOLUTIONARY RD, CONCORD, MA, 01742",639009136,"R"
2068,"1 RIBALT DRIVE","HILTON HEAD","SC",29926,NA,NA,68,"1 RIBALT DRIVE, HILTON HEAD, SC, 29926","No_Match",NA,NA,NA,NA
2069,"1 RICH AVENUE","MOUNT VERNON","NY",10552,40.9125807130001,-73.830674786,69,"1 RICH AVENUE, MOUNT VERNON, NY, 10552","Match","Non_Exact","1 RICH AVE, MOUNT VERNON, NY, 10550",139747197,"R"
2070,"1 RICHARD LANE","SYOSSET","NY",11791,40.8237453090001,-73.492420556,70,"1 RICHARD LANE, SYOSSET, NY, 11791","Match","Exact","1 RICHARD LN, SYOSSET, NY, 11791",147640356,"L"
2071,"1 RICHARD PEARCE COVE","GEORGETOWN","TX",78626,30.6271683640001,-97.57333369,71,"1 RICHARD PEARCE COVE, GEORGETOWN, TX, 78626","Match","Exact","1 RICHARD PEARCE COVE, GEORGETOWN, TX, 78626",126462565,"L"
2072,"1 RICHMOND PARK","WOBURN","MA",1801,42.4740006590001,-71.1512581929999,72,"1 RICHMOND PARK, WOBURN, MA, 1801","Match","Exact","1 RICHMOND PARK, WOBURN, MA, 01801",86886327,"R"
2073,"1 RICHMOND ST","NEW BRUNSWICK","NJ",8901,40.494186228,-74.439503843,73,"1 RICHMOND ST, NEW BRUNSWICK, NJ, 8901","Match","Exact","1 RICHMOND ST, NEW BRUNSWICK, NJ, 08901",60266578,"L"
2074,"1 RICHMOND STREET APT 4003","NEW BRUNSWICK","NJ",8901,40.494186228,-74.439503843,74,"1 RICHMOND STREET APT 4003, NEW BRUNSWICK, NJ, 8901","Match","Exact","1 RICHMOND ST, NEW BRUNSWICK, NJ, 08901",60266578,"L"
2075,"1 RICHMOND STREET NO 2064","NEW BRUNSWICK","NJ",8901,40.494186228,-74.439503843,75,"1 RICHMOND STREET NO 2064, NEW BRUNSWICK, NJ, 8901","Match","Non_Exact","1 RICHMOND ST, NEW BRUNSWICK, NJ, 08901",60266578,"L"
2076,"1 RIDER MILL CT","OWINGS MILLS","MD",21117,39.433224717,-76.8053421389999,76,"1 RIDER MILL CT, OWINGS MILLS, MD, 21117","Match","Exact","1 RIDER MILL CT, OWINGS MILLS, MD, 21117",191501448,"R"
2077,"1 RIDGE HILL DRIVE 73 MARKET ST 376","YONKERS","NY",10710,NA,NA,77,"1 RIDGE HILL DRIVE 73 MARKET ST 376, YONKERS, NY, 10710","No_Match",NA,NA,NA,NA
2078,"1 RIDGE ROAD","SIMSBURY","CT",6070,41.877329343,-72.8140625949999,78,"1 RIDGE ROAD, SIMSBURY, CT, 6070","Match","Exact","1 RIDGE RD, SIMSBURY, CT, 06070",3478457,"L"
2079,"1 RIDGEWAY ROAD","PORT WASHINGTON","NY",11050,40.8342635130001,-73.698272687,79,"1 RIDGEWAY ROAD, PORT WASHINGTON, NY, 11050","Match","Exact","1 RIDGEWAY RD, PORT WASHINGTON, NY, 11050",147658839,"L"
2080,"1 RIGBY ROAD","CENTER MORICHES","NY",11934,40.8038038060001,-72.78529968,80,"1 RIGBY ROAD, CENTER MORICHES, NY, 11934","Match","Exact","1 RIGBY RD, CENTER MORICHES, NY, 11934",114041880,"R"
2081,"1 RIGGINS CT","POQUOSON","VA",23662,37.1378612020001,-76.4103028489999,81,"1 RIGGINS CT, POQUOSON, VA, 23662","Match","Exact","1 RIGGINS CT, POQUOSON, VA, 23662",103824850,"L"
2082,"1 RITA LANE","LITTLETON","MA",1460,42.537870029,-71.4728825839999,82,"1 RITA LANE, LITTLETON, MA, 1460","Match","Exact","1 RITA LN, LITTLETON, MA, 01460",86880228,"R"
2083,"1 RIVER COURT APT 225","AMESBURY","MA",1913,42.8528803500001,-70.92393699,83,"1 RIVER COURT APT 225, AMESBURY, MA, 1913","Match","Exact","1 RIVER CT, AMESBURY, MA, 01913",639986535,"R"
2084,"1 RIVER COURT","AMESBURY","MA",1913,42.8528803500001,-70.92393699,84,"1 RIVER COURT, AMESBURY, MA, 1913","Match","Exact","1 RIVER CT, AMESBURY, MA, 01913",639986535,"R"
2085,"1 RIVER CREST CIRCLE","BENTON","AR",72019,34.586890576,-92.60437738,85,"1 RIVER CREST CIRCLE, BENTON, AR, 72019","Match","Non_Exact","1 RIVERCREST CIR, BENTON, AR, 72019",24219478,"R"
2086,"1 RIVER OAKS DRIVE","STAMFORD","CT",6902,41.092971628,-73.5584234029999,86,"1 RIVER OAKS DRIVE, STAMFORD, CT, 6902","Match","Exact","1 RIVER OAKS DR, STAMFORD, CT, 06902",650460057,"L"
2087,"1 RIVER PLACE APT 1611","NEW YORK","NY",10036,NA,NA,87,"1 RIVER PLACE APT 1611, NEW YORK, NY, 10036","No_Match",NA,NA,NA,NA
2088,"1 RIVER PLACE APT 716","NEW YORK","NY",10036,NA,NA,88,"1 RIVER PLACE APT 716, NEW YORK, NY, 10036","No_Match",NA,NA,NA,NA
2089,"1 RIVER POINTE CT","SAVANNAH","GA",31410,32.028985032,-80.961758072,89,"1 RIVER POINTE CT, SAVANNAH, GA, 31410","Match","Non_Exact","1 RIVER POINTE DR, SAVANNAH, GA, 31410",627382922,"L"
2090,"1 RIVER ROAD","DENNYSVILLE","ME",4628,44.8979873010001,-67.2263117059999,90,"1 RIVER ROAD, DENNYSVILLE, ME, 4628","Match","Exact","1 RIVER RD, DENNYSVILLE, ME, 04628",124229918,"R"
2091,"1 RIVER ROAD","EDMUNDS","ME",4628,44.8979873010001,-67.2263117059999,91,"1 RIVER ROAD, EDMUNDS, ME, 4628","Match","Non_Exact","1 RIVER RD, EDMUNDS TWP, ME, 04628",124229918,"R"
2092,"1 RIVER ROAD","HYDE PARK","NY",12538,NA,NA,92,"1 RIVER ROAD, HYDE PARK, NY, 12538","No_Match",NA,NA,NA,NA
2093,"1 RIVER ROAD","NUTLEY","NJ",7110,40.8056736820001,-74.140875936,93,"1 RIVER ROAD, NUTLEY, NJ, 7110","Match","Exact","1 RIVER RD, NUTLEY, NJ, 07110",63487787,"L"
2094,"1 RIVER STREET","BRYSON CITY","NC",28713,35.427236464,-83.4467767149999,94,"1 RIVER STREET, BRYSON CITY, NC, 28713","Match","Exact","1 RIVER ST, BRYSON CITY, NC, 28713",36127703,"R"
2095,"1 RIVER STREET","COLRAIN","MA",1340,42.674634977,-72.6960457819999,95,"1 RIVER STREET, COLRAIN, MA, 1340","Match","Exact","1 RIVER ST, COLRAIN, MA, 01340",39930885,"R"
2096,"1 RIVERCREST DR","REXFORD","NY",12148,42.8561522960001,-73.8928532369999,96,"1 RIVERCREST DR, REXFORD, NY, 12148","Match","Exact","1 RIVERCREST DR, REXFORD, NY, 12148",18815088,"R"
2097,"1 RIVERMERE APT 5A","BRONXVILLE","NY",10708,NA,NA,97,"1 RIVERMERE APT 5A, BRONXVILLE, NY, 10708","No_Match",NA,NA,NA,NA
2098,"1 RIVERSIDE CIRCLE 4TH FLOOR","ROANOKE","VA",24018,NA,NA,98,"1 RIVERSIDE CIRCLE 4TH FLOOR, ROANOKE, VA, 24018","No_Match",NA,NA,NA,NA
2099,"1 RIVERVIEW DRIVE","NORTH PROVIDENCE","RI",2904,41.866580346,-71.470761951,99,"1 RIVERVIEW DRIVE, NORTH PROVIDENCE, RI, 2904","Match","Exact","1 RIVERVIEW DR, N PROVIDENCE, RI, 02904",47456080,"R"
2100,"1 RIVERVIEW TERRACE","SMITHTOWN","NY",11787,40.8819400200001,-73.197430507,100,"1 RIVERVIEW TERRACE, SMITHTOWN, NY, 11787","Match","Exact","1 RIVERVIEW TER, SMITHTOWN, NY, 11787",113986127,"R"
2101,"1 ROBIN RD","SPRING VALLEY","NY",10977,41.095118949,-74.059205488,101,"1 ROBIN RD, SPRING VALLEY, NY, 10977","Match","Exact","1 ROBIN RD, SPRING VALLEY, NY, 10977",124594200,"R"
2102,"1 ROBIN ROAD","BEVERLY","MA",1915,42.5617301460001,-70.849288459,102,"1 ROBIN ROAD, BEVERLY, MA, 1915","Match","Exact","1 ROBIN RD, BEVERLY, MA, 01915",86648532,"R"
2103,"1 ROBIN ROAD","SEYMOUR","CT",6483,41.3682768200001,-73.082634674,103,"1 ROBIN ROAD, SEYMOUR, CT, 6483","Match","Exact","1 ROBIN RD, SEYMOUR, CT, 06483",3734236,"R"
2104,"1 ROBLE RD","SUFFERN","NY",10901,41.162255067,-74.0809783249999,104,"1 ROBLE RD, SUFFERN, NY, 10901","Match","Exact","1 ROBLE RD, SUFFERN, NY, 10901",124629067,"L"
2105,"1 ROCK ISLAND ARSENAL - ASC","ROCK ISLAND","IL",61299,NA,NA,105,"1 ROCK ISLAND ARSENAL - ASC, ROCK ISLAND, IL, 61299","No_Match",NA,NA,NA,NA
2106,"1 ROCK ISLAND CIRCLE","WICHITA FALLS","TX",76308,33.84945757,-98.5459699629999,106,"1 ROCK ISLAND CIRCLE, WICHITA FALLS, TX, 76308","Match","Exact","1 ROCK ISLAND CIR, WICHITA FALLS, TX, 76308",169842517,"L"
2107,"1 ROCKEFELLER PLAZA FLR 11","NEW YORK","NY",10020,40.7578622400001,-73.97931791,107,"1 ROCKEFELLER PLAZA FLR 11, NEW YORK, NY, 10020","Match","Exact","1 ROCKEFELLER PLZ, NEW YORK, NY, 10020",59657162,"R"
2108,"1 ROCKLAND STREET","HAVERHILL","MA",1830,NA,NA,108,"1 ROCKLAND STREET, HAVERHILL, MA, 1830","No_Match",NA,NA,NA,NA
2109,"1 ROCKWELL PLACE 2C","BROOKLYN","NV",11217,NA,NA,109,"1 ROCKWELL PLACE 2C, BROOKLYN, NV, 11217","No_Match",NA,NA,NA,NA
2110,"1 ROCKWOOD LANE","UPTON","MA",1568,42.1931326870001,-71.5720545619999,110,"1 ROCKWOOD LANE, UPTON, MA, 1568","Match","Exact","1 ROCKWOOD LN, UPTON, MA, 01568",648392399,"R"
2111,"1 ROCKY POINT ROAD","MORRILTON","AR",72110,35.1828336790001,-92.7275320109999,111,"1 ROCKY POINT ROAD, MORRILTON, AR, 72110","Match","Exact","1 ROCKY POINT RD, MORRILTON, AR, 72110",118907611,"R"
2112,"1 ROCKY RIDGE ROAD","FARMINGTON","CT",6032,41.7214174280001,-72.868068974,112,"1 ROCKY RIDGE ROAD, FARMINGTON, CT, 6032","Match","Non_Exact","1 ROCKY RIDGE LN, FARMINGTON, CT, 06032",3512461,"L"
2113,"1 RODMAN AVE - BUILDING 68","ROCK ISLAND","IL",61299,NA,NA,113,"1 RODMAN AVE - BUILDING 68, ROCK ISLAND, IL, 61299","No_Match",NA,NA,NA,NA
2114,"1 ROEBLING WAY 904","COVINGTON","KY",41011,NA,NA,114,"1 ROEBLING WAY 904, COVINGTON, KY, 41011","No_Match",NA,NA,NA,NA
2115,"1 ROLLING HILLS RD","WIMBERLEY","TX",78676,30.02440606,-98.134893706,115,"1 ROLLING HILLS RD, WIMBERLEY, TX, 78676","Match","Exact","1 ROLLING HILLS RD, WIMBERLEY, TX, 78676",63816940,"L"
2116,"1 ROLLING HILLS","IRVINE","CA",92602,33.728368867,-117.768073657,116,"1 ROLLING HILLS, IRVINE, CA, 92602","Match","Exact","1 ROLLING HILLS, IRVINE, CA, 92602",144139438,"R"
2117,"1 ROLLINGWOOD TRAIL","ORMOND BEACH","FL",32174,29.2842087760001,-81.0956422369999,117,"1 ROLLINGWOOD TRAIL, ORMOND BEACH, FL, 32174","Match","Exact","1 ROLLINGWOOD TRL, ORMOND BEACH, FL, 32174",94520916,"L"
2118,"1 RONDEL DRIVE","WEWOKA","OK",74884,35.1386822590001,-96.492609826,118,"1 RONDEL DRIVE, WEWOKA, OK, 74884","Match","Exact","1 RONDEL DR, WEWOKA, OK, 74884",639211804,"L"
2119,"1 ROOSEVELT AVE","PORT JEFFERSON STATI","NY",11776,40.9223445040001,-73.048407298,119,"1 ROOSEVELT AVE, PORT JEFFERSON STATI, NY, 11776","Match","Non_Exact","1 ROOSEVELT AVE, PORT JEFFERSON STATION, NY, 11776",114002952,"L"
2120,"1 ROSA ST APT 2B","HYDE PARK","MA",2136,42.2615002140001,-71.11216067,120,"1 ROSA ST APT 2B, HYDE PARK, MA, 2136","Match","Exact","1 ROSA ST, HYDE PARK, MA, 02136",85705353,"R"
2121,"1 ROSANNE CT","NESCONSET","NY",11767,40.8477943560001,-73.132830756,121,"1 ROSANNE CT, NESCONSET, NY, 11767","Match","Non_Exact","1 ROSEANNE CT, NESCONSET, NY, 11767",113991419,"L"
2122,"1 ROSE MARIE LANE","CLIBTON","CT",6413,41.327732665,-72.5287472909999,122,"1 ROSE MARIE LANE, CLIBTON, CT, 6413","Match","Non_Exact","1 ROSE MARIE LN, CLINTON, CT, 06413",113902640,"L"
2123,"1 ROSE PARK CRES","LAKEWOOD","NJ",8701,40.0817318060001,-74.212059977,123,"1 ROSE PARK CRES, LAKEWOOD, NJ, 8701","Match","Exact","1 ROSE PARK CRES, LAKEWOOD, NJ, 08701",641910154,"L"
2124,"1 ROSEDOWN CT","NEW ORLEANS","LA",70131,29.8987255060001,-89.9414676439999,124,"1 ROSEDOWN CT, NEW ORLEANS, LA, 70131","Match","Exact","1 ROSEDOWN CT, NEW ORLEANS, LA, 70131",191747010,"R"
2125,"1 ROSELAND ST","FOXBORO","MA",2035,NA,NA,125,"1 ROSELAND ST, FOXBORO, MA, 2035","No_Match",NA,NA,NA,NA
2126,"1 ROSEMERE DRIVE","EAST PRONDENCE","RI",2911,NA,NA,126,"1 ROSEMERE DRIVE, EAST PRONDENCE, RI, 2911","No_Match",NA,NA,NA,NA
2127,"1 ROSEMONT LANE","WOODVILLE","MS",39669,NA,NA,127,"1 ROSEMONT LANE, WOODVILLE, MS, 39669","No_Match",NA,NA,NA,NA
2128,"1 ROSNER AVENUE","NORTH PROVIDENCE","RI",2904,NA,NA,128,"1 ROSNER AVENUE, NORTH PROVIDENCE, RI, 2904","No_Match",NA,NA,NA,NA
2129,"1 ROSS ADE DR APT 11","WEST LAFAYETTE","IN",47906,40.4343161150001,-86.9207548859999,129,"1 ROSS ADE DR APT 11, WEST LAFAYETTE, IN, 47906","Match","Exact","1 ROSS ADE DR, W LAFAYETTE, IN, 47906",27318017,"L"
2130,"1 ROSS ROAD","ALAMEDA","CA",94502,37.7386550140001,-122.255463777,130,"1 ROSS ROAD, ALAMEDA, CA, 94502","Match","Exact","1 ROSS RD, ALAMEDA, CA, 94502",125053925,"L"
2131,"1 ROSSI COURT 2FL","SOUTH HACKENSACK","NJ",7606,40.8627316220001,-74.043320157,131,"1 ROSSI COURT 2FL, SOUTH HACKENSACK, NJ, 7606","Match","Exact","1 ROSSI CT, S HACKENSACK, NJ, 07606",64393839,"R"
2132,"1 ROSSMOOR DRIVE","MONROE TOWNSHIP","NJ",8831,NA,NA,132,"1 ROSSMOOR DRIVE, MONROE TOWNSHIP, NJ, 8831","No_Match",NA,NA,NA,NA
2133,"1 ROTONDO AVENUE","CRANSTON","RI",2920,41.7887918540001,-71.4804711049999,133,"1 ROTONDO AVENUE, CRANSTON, RI, 2920","Match","Exact","1 ROTONDO AVE, CRANSTON, RI, 02920",47452266,"R"
2134,"1 ROUGHRIDER DRIVE","WEST JEFFERSEON","OH",43162,NA,NA,134,"1 ROUGHRIDER DRIVE, WEST JEFFERSEON, OH, 43162","No_Match",NA,NA,NA,NA
2135,"1 ROUGHRIDER DRIVE","WEST JEFFERSON","OH",43162,NA,NA,135,"1 ROUGHRIDER DRIVE, WEST JEFFERSON, OH, 43162","No_Match",NA,NA,NA,NA
2136,"1 ROY COURT","NEWARK","DE",19711,39.7012530320001,-75.7372277649999,136,"1 ROY COURT, NEWARK, DE, 19711","Match","Exact","1 ROY CT, NEWARK, DE, 19711",187278980,"L"
2137,"1 ROYCROFT DR","RANDOLPH","MA",2368,42.1703318530001,-71.0299857589999,137,"1 ROYCROFT DR, RANDOLPH, MA, 2368","Match","Exact","1 ROYCROFT DR, RANDOLPH, MA, 02368",87275953,"L"
2138,"1 RUDI CIR","MADISON","WI",53719,43.0120614050001,-89.494605861,138,"1 RUDI CIR, MADISON, WI, 53719","Match","Exact","1 RUDI CIR, MADISON, WI, 53719",49500340,"R"
2139,"1 RUE DOMAINES","LONG BEACH","MS",39560,30.3614331540001,-89.203186194,139,"1 RUE DOMAINES, LONG BEACH, MS, 39560","Match","Exact","1 RUE DOMAINES, LONG BEACH, MS, 39560",613171530,"L"
2140,"1 RUSSELL RD","NEW CASTLE","DE",19720,39.6945649950001,-75.568152604,140,"1 RUSSELL RD, NEW CASTLE, DE, 19720","Match","Exact","1 RUSSELL RD, NEW CASTLE, DE, 19720",187269903,"L"
2141,"1 RUST LANE","SAGINAW","MI",48602,43.4102213350001,-84.000910402,141,"1 RUST LANE, SAGINAW, MI, 48602","Match","Exact","1 RUST LN, SAGINAW, MI, 48602",80214259,"L"
2142,"1 RUSTIC PINE","PITTSFORD","NY",14534,43.0800452120001,-77.504469011,142,"1 RUSTIC PINE, PITTSFORD, NY, 14534","Match","Non_Exact","1 RUSTIC PINES, PITTSFORD, NY, 14534",14573380,"R"
2143,"1 RUSTIC RIDGE APT C35","LITTLE FALLS","NJ",7424,40.8766423540001,-74.2032576989999,143,"1 RUSTIC RIDGE APT C35, LITTLE FALLS, NJ, 7424","Match","Non_Exact","1 RUSTIC RIDGE RD, LITTLE FALLS, NJ, 07424",650904016,"L"
2144,"1 RUSTIC RIDGE ROAD","LITTLE FALLS","NJ",7424,40.8766423540001,-74.2032576989999,144,"1 RUSTIC RIDGE ROAD, LITTLE FALLS, NJ, 7424","Match","Exact","1 RUSTIC RIDGE RD, LITTLE FALLS, NJ, 07424",650904016,"L"
2145,"1 RUSTLERS FORK","CLANCY","MT",59634,46.5047852170001,-111.943915753,145,"1 RUSTLERS FORK, CLANCY, MT, 59634","Match","Exact","1 RUSTLERS FORK, CLANCY, MT, 59634",153388580,"L"
2146,"1 RUSTY SPUR PLACE","SANTA FE","NM",87508,35.5947937720001,-106.012580807,146,"1 RUSTY SPUR PLACE, SANTA FE, NM, 87508","Match","Exact","1 RUSTY SPUR PL, SANTA FE, NM, 87508",628061737,"R"
2147,"1 RUTH CIRCLE","HAMPTON","VA",23666,37.0567688030001,-76.4386400449999,147,"1 RUTH CIRCLE, HAMPTON, VA, 23666","Match","Exact","1 RUTH CIR, HAMPTON, VA, 23666",103766882,"L"
2148,"1 RUTHERFORD LANE","CHENOA","IL",61726,NA,NA,148,"1 RUTHERFORD LANE, CHENOA, IL, 61726","No_Match",NA,NA,NA,NA
2149,"1 RUTLAND LANE","MELVILLE","NY",11747,40.7928152440001,-73.411224064,149,"1 RUTLAND LANE, MELVILLE, NY, 11747","Match","Exact","1 RUTLAND LN, MELVILLE, NY, 11747",113967432,"R"
2150,"1 RUTLEDGE ROAD","PINE BROOK","NJ",7058,40.872299621,-74.3463782109999,150,"1 RUTLEDGE ROAD, PINE BROOK, NJ, 7058","Match","Exact","1 RUTLEDGE RD, PINE BROOK, NJ, 07058",60446563,"L"
2151,"1 RUXTON AVE","MANITOU SPRINGS","CO",80829,38.859126862,-104.919569765,151,"1 RUXTON AVE, MANITOU SPRINGS, CO, 80829","Match","Exact","1 RUXTON AVE, MANITOU SPRINGS, CO, 80829",105505855,"L"
2152,"1 RYMEN LANE","PALM COAST","FL",32164,29.5039732920001,-81.2248281299999,152,"1 RYMEN LANE, PALM COAST, FL, 32164","Match","Exact","1 RYMEN LN, PALM COAST, FL, 32164",94963038,"L"
2153,"1 S 304 STRATFORD LANE","VILLA PARK","IL",60181,NA,NA,153,"1 S 304 STRATFORD LANE, VILLA PARK, IL, 60181","Tie",NA,NA,NA,NA
2154,"1 S 304 STRATFORD LN","VILLA PARK","IL",60181,NA,NA,154,"1 S 304 STRATFORD LN, VILLA PARK, IL, 60181","Tie",NA,NA,NA,NA
2155,"1 S 6TH ST","TERRE HAUTE","IN",47807,39.4664030810001,-87.4099911019999,155,"1 S 6TH ST, TERRE HAUTE, IN, 47807","Match","Exact","1 S 6TH ST, TERRE HAUTE, IN, 47807",27114193,"R"
2156,"1 S CLEVELAND AVENUE","MOGADORE","OH",44260,41.0510204390001,-81.393110972,156,"1 S CLEVELAND AVENUE, MOGADORE, OH, 44260","Match","Exact","1 S CLEVELAND AVE, MOGADORE, OH, 44260",61392798,"L"
2157,"1 S COLONIAL DRIVE","MANCHESTER","NJ",8759,NA,NA,157,"1 S COLONIAL DRIVE, MANCHESTER, NJ, 8759","Tie",NA,NA,NA,NA
2158,"1 S DEARBORN ST FLR 18","CHICAGO","IL",60603,NA,NA,158,"1 S DEARBORN ST FLR 18, CHICAGO, IL, 60603","No_Match",NA,NA,NA,NA
2159,"1 S DUNCAN AVE","CLEARWATER","FL",33755,27.9653614740001,-82.767028168,159,"1 S DUNCAN AVE, CLEARWATER, FL, 33755","Match","Exact","1 S DUNCAN AVE, CLEARWATER, FL, 33755",124668641,"L"
2160,"1 S ENDSQUICK CT","NORTH LITTLE ROCK","AR",72116,34.8065656360001,-92.258326747,160,"1 S ENDSQUICK CT, NORTH LITTLE ROCK, AR, 72116","Match","Exact","1 ENDSQUICK CT, N LITTLE ROCK, AR, 72116",83514012,"L"
2161,"1 S FORT RINGGOLD ST","RIO GRANDE CITY","TX",78582,NA,NA,161,"1 S FORT RINGGOLD ST, RIO GRANDE CITY, TX, 78582","No_Match",NA,NA,NA,NA
2162,"1 S POTOMAC ST","HAGERSTOWN","MD",21740,39.6419054020001,-77.72041236,162,"1 S POTOMAC ST, HAGERSTOWN, MD, 21740","Match","Exact","1 S POTOMAC ST, HAGERSTOWN, MD, 21740",653248601,"R"
2163,"1 S TREMONT ROAD","BALTIMORE","MD",21229,39.283445306,-76.6949134879999,163,"1 S TREMONT ROAD, BALTIMORE, MD, 21229","Match","Exact","1 S TREMONT RD, BALTIMORE, MD, 21229",206413411,"L"
2164,"1 S WOLFE ST - 204","BALTIMORE","MD",21231,NA,NA,164,"1 S WOLFE ST - 204, BALTIMORE, MD, 21231","Tie",NA,NA,NA,NA
2165,"1 S WOLFE ST - 205","BALTIMORE","MD",21231,NA,NA,165,"1 S WOLFE ST - 205, BALTIMORE, MD, 21231","Tie",NA,NA,NA,NA
2166,"1 SACCO DRIVE","WESTERLY","RI",2891,41.3476678210001,-71.7735107359999,166,"1 SACCO DRIVE, WESTERLY, RI, 2891","Match","Exact","1 SACCO DR, WESTERLY, RI, 02891",647188083,"R"
2167,"1 SADDLE CT","SOMERSET","NJ",8873,40.4596293220001,-74.510295245,167,"1 SADDLE CT, SOMERSET, NJ, 8873","Match","Exact","1 SADDLE CT, SOMERSET, NJ, 08873",59962382,"R"
2168,"1 SADDLEWOOD COURT","MANSFIELD","TX",76063,32.562751846,-97.06197126,168,"1 SADDLEWOOD COURT, MANSFIELD, TX, 76063","Match","Exact","1 SADDLEWOOD CT, MANSFIELD, TX, 76063",102117986,"L"
2169,"1 SAGE LN","LIMINGTON","ME",4049,43.7901216820001,-70.7098178849999,169,"1 SAGE LN, LIMINGTON, ME, 4049","Match","Exact","1 SAGE LN, LIMINGTON, ME, 04049",624623163,"R"
2170,"1 SAGEBRUSH LANE","HILTON HEAD ISLAND","SC",29926,NA,NA,170,"1 SAGEBRUSH LANE, HILTON HEAD ISLAND, SC, 29926","No_Match",NA,NA,NA,NA
2171,"1 SAINT ANDREWS HILL","PITTSFORD","NY",14534,43.0810572130001,-77.5562104429999,171,"1 SAINT ANDREWS HILL, PITTSFORD, NY, 14534","Match","Exact","1 SAINT ANDREWS HILL, PITTSFORD, NY, 14534",14552169,"R"
2172,"1 SAINT ANDREWS PL","HILTON HEAD ISLAND","SC",29928,32.133360952,-80.806423952,172,"1 SAINT ANDREWS PL, HILTON HEAD ISLAND, SC, 29928","Match","Exact","1 SAINT ANDREWS PL, HILTON HEAD ISLAND, SC, 29928",87615578,"R"
2173,"1 SAINT CLAIR STREET","MIDDLEPORT","PA",17953,NA,NA,173,"1 SAINT CLAIR STREET, MIDDLEPORT, PA, 17953","No_Match",NA,NA,NA,NA
2174,"1 SAINT FRANCIS PLACE APT 2601","SAN FRANCISCO","CA",94107,37.7832425240001,-122.39764054,174,"1 SAINT FRANCIS PLACE APT 2601, SAN FRANCISCO, CA, 94107","Match","Exact","1 SAINT FRANCIS PL, SAN FRANCISCO, CA, 94107",192292431,"R"
2175,"1 SAINT JAMES GATE","MEDFORD","NJ",8055,NA,NA,175,"1 SAINT JAMES GATE, MEDFORD, NJ, 8055","No_Match",NA,NA,NA,NA
2176,"1 Saint James Gate",NA,NA,NA,NA,NA,176,"1 Saint James Gate, , , ","No_Match",NA,NA,NA,NA
2177,"1 SALEM ESTATES DR","ST LOUIS","MO",63124,38.6543678150001,-90.4007998179999,177,"1 SALEM ESTATES DR, ST LOUIS, MO, 63124","Match","Exact","1 SALEM ESTATES DR, SAINT LOUIS, MO, 63124",100131500,"R"
2178,"1 SALEM ST STE 202","MALDEN","MA",2148,42.4277777880001,-71.064578168,178,"1 SALEM ST STE 202, MALDEN, MA, 2148","Match","Exact","1 SALEM ST, MALDEN, MA, 02148",86872414,"R"
2179,"1 SALEM STREET UNIT 2B","WAKEFIELD","MA",1880,42.508027004,-71.0711646679999,179,"1 SALEM STREET UNIT 2B, WAKEFIELD, MA, 1880","Match","Exact","1 SALEM ST, WAKEFIELD, MA, 01880",86903750,"L"
2180,"1 SALT CREEK WASH","SANTA FE","NM",87508,35.5891897270001,-105.991501401,180,"1 SALT CREEK WASH, SANTA FE, NM, 87508","Match","Exact","1 SALT CREEK WASH, SANTA FE, NM, 87508",612416675,"R"
2181,"1 SAMANTHA COURT","OWINGS MILLS","MD",21117,39.4401313290001,-76.791678776,181,"1 SAMANTHA COURT, OWINGS MILLS, MD, 21117","Match","Exact","1 SAMANTHA CT, OWINGS MILLS, MD, 21117",191501032,"R"
2182,"1 SAMUEL HANOSN AVE","DOVER","NH",3820,43.184667935,-70.8610589579999,182,"1 SAMUEL HANOSN AVE, DOVER, NH, 3820","Match","Non_Exact","1 SAMUEL HANSON AVE, DOVER, NH, 03820",117808901,"R"
2183,"1 SAN ANTONIO CT","MOSCOW MILLS","MO",63362,NA,NA,183,"1 SAN ANTONIO CT, MOSCOW MILLS, MO, 63362","No_Match",NA,NA,NA,NA
2184,"1 SANDPIPER LANE","DORCHESTER","MA",2124,42.29214061,-71.0931365659999,184,"1 SANDPIPER LANE, DORCHESTER, MA, 2124","Match","Exact","1 SANDPIPER LN, DORCHESTER, MA, 02124",645359773,"R"
2185,"1 SANDSTONE ROAD","WESTFORD","MA",1886,42.6400242490001,-71.444837535,185,"1 SANDSTONE ROAD, WESTFORD, MA, 1886","Match","Exact","1 SANDSTONE RD, WESTFORD, MA, 01886",653283999,"L"
2186,"1 SANDY LAKE RD","ENGLEWOOD","CO",80113,39.649567957,-104.953572614,186,"1 SANDY LAKE RD, ENGLEWOOD, CO, 80113","Match","Exact","1 SANDY LAKE RD, ENGLEWOOD, CO, 80113",177559160,"R"
2187,"1 SANDY SPRING COURT APARTMENT 11","THURMONT","MD",21788,39.6317158050001,-77.413361949,187,"1 SANDY SPRING COURT APARTMENT 11, THURMONT, MD, 21788","Match","Exact","1 SANDY SPRING CT, THURMONT, MD, 21788",60714328,"R"
2188,"1 SANTA MARIA","ODESSA","TX",79765,31.906586901,-102.27748555,188,"1 SANTA MARIA, ODESSA, TX, 79765","Match","Exact","1 SANTA MARIA, ODESSA, TX, 79765",139593607,"R"
2189,"1 SANTA ROSA COURT","ST CHARLES","MO",63303,38.765585071,-90.533224208,189,"1 SANTA ROSA COURT, ST CHARLES, MO, 63303","Match","Exact","1 SANTA ROSA CT, SAINT CHARLES, MO, 63303",100019419,"L"
2190,"1 SANTINI ST","N PROVIDENCE","RI",2904,41.870827471,-71.4286480929999,190,"1 SANTINI ST, N PROVIDENCE, RI, 2904","Match","Exact","1 SANTINI ST, N PROVIDENCE, RI, 02904",640315432,"R"
2191,"1 SARACCO DRIVE","BENLD","IL",62009,39.0984322040001,-89.8114898219999,191,"1 SARACCO DRIVE, BENLD, IL, 62009","Match","Exact","1 SARACCO DR, BENLD, IL, 62009",97941285,"R"
2192,"1 SARALYN CT","WAYNE","NJ",7470,40.9557201270001,-74.268048586,192,"1 SARALYN CT, WAYNE, NJ, 7470","Match","Exact","1 SARALYN CT, WAYNE, NJ, 07470",65276522,"L"
2193,"1 SARY LANE","NEW RICHMOND","OH",45157,38.979005375,-84.23043911,193,"1 SARY LANE, NEW RICHMOND, OH, 45157","Match","Non_Exact","1 SARI LN, NEW RICHMOND, OH, 45157",118459496,"R"
2194,"1 SASQUA ROAD","NORWALK","CT",6855,41.101120419,-73.387514127,194,"1 SASQUA ROAD, NORWALK, CT, 6855","Match","Exact","1 SASQUA RD, NORWALK, CT, 06855",3251739,"R"
2195,"1 SAVANNAH HILL DR","ST PETERS","MO",63376,38.776149694,-90.631420631,195,"1 SAVANNAH HILL DR, ST PETERS, MO, 63376","Match","Exact","1 SAVANNAH HILL DR, SAINT PETERS, MO, 63376",633460469,"L"
2196,"1 SAW MILL ROAD","BEACON FALLS","CT",6403,NA,NA,196,"1 SAW MILL ROAD, BEACON FALLS, CT, 6403","No_Match",NA,NA,NA,NA
2197,"1 SCALE AVENUE","RUTLAND","VT",5701,43.59834598,-72.974321785,197,"1 SCALE AVENUE, RUTLAND, VT, 5701","Match","Exact","1 SCALE AVE, RUTLAND, VT, 05701",138959965,"R"
2198,"1 SCENIC CENTRAL UNIT 103","LAKE WALES","FL",33853,27.901614855,-81.5864762699999,198,"1 SCENIC CENTRAL UNIT 103, LAKE WALES, FL, 33853","Match","Exact","1 SCENIC CENTRAL, LAKE WALES, FL, 33853",648236703,"L"
2199,"1 SCENIC DRIVE UNIT 1404","HIGHLANDS","NJ",7732,40.4064982290001,-74.003330352,199,"1 SCENIC DRIVE UNIT 1404, HIGHLANDS, NJ, 7732","Match","Exact","1 SCENIC DR, HIGHLANDS, NJ, 07732",90579896,"L"
2200,"1 SCENIC VIEW DR","SICKLERVILLE","NJ",8081,39.734367917,-74.997525448,200,"1 SCENIC VIEW DR, SICKLERVILLE, NJ, 8081","Match","Exact","1 SCENIC VIEW DR, SICKLERVILLE, NJ, 08081",134375132,"R"
2201,"1 SCENIC VISTA DRIVE","NEW CITY","NY",10956,41.164900452,-74.018168077,201,"1 SCENIC VISTA DRIVE, NEW CITY, NY, 10956","Match","Exact","1 SCENIC VISTA DR, NEW CITY, NY, 10956",124602494,"R"
2202,"1 SCENIC WAY","MONROE","NJ",8831,40.2726936230001,-74.414883603,202,"1 SCENIC WAY, MONROE, NJ, 8831","Match","Non_Exact","1 SCENIC DR, MONROE, NJ, 08831",626996627,"L"
2203,"1 SCHOLAR LANE","COMMACK","NY",11725,40.85879505,-73.289434027,203,"1 SCHOLAR LANE, COMMACK, NY, 11725","Match","Exact","1 SCHOLAR LN, COMMACK, NY, 11725",113979816,"L"
2204,"1 SCHOOLHOUSE LANE","SOMERVILLE","NJ",8876,40.5737982050001,-74.600814339,204,"1 SCHOOLHOUSE LANE, SOMERVILLE, NJ, 8876","Match","Exact","1 SCHOOLHOUSE LN, SOMERVILLE, NJ, 08876",59938254,"L"
2205,"1 SCHOOLHOUSE LN","SOMERVILLE","NJ",8876,40.5737982050001,-74.600814339,205,"1 SCHOOLHOUSE LN, SOMERVILLE, NJ, 8876","Match","Exact","1 SCHOOLHOUSE LN, SOMERVILLE, NJ, 08876",59938254,"L"
2206,"1 SCHROEDER STREET APT 1-18","YONKERS","NY",10701,NA,NA,206,"1 SCHROEDER STREET APT 1-18, YONKERS, NY, 10701","Tie",NA,NA,NA,NA
2207,"1 SCOTT CIR","WASHINGTON","DC",20036,38.9074654680001,-77.036496563,207,"1 SCOTT CIR, WASHINGTON, DC, 20036","Match","Non_Exact","1 SCOTT CIR NW, WASHINGTON, DC, 20036",76225692,"L"
2208,"1 SCOTTS WAY","ACUSHNET","MA",2743,41.70725115,-70.889438684,208,"1 SCOTTS WAY, ACUSHNET, MA, 2743","Match","Exact","1 SCOTTS WAY, ACUSHNET, MA, 02743",46787259,"L"
2209,"1 SCRIBNER ROAD","RAYMOND","NH",3077,43.030243549,-71.21049952,209,"1 SCRIBNER ROAD, RAYMOND, NH, 3077","Match","Exact","1 SCRIBNER RD, RAYMOND, NH, 03077",113662052,"R"
2210,"1 SE 3RD AVEUNE","MIAMI","FL",33131,NA,NA,210,"1 SE 3RD AVEUNE, MIAMI, FL, 33131","No_Match",NA,NA,NA,NA
2211,"1 SEA PINES CT","OFALLON","MO",63368,38.774764921,-90.686828968,211,"1 SEA PINES CT, OFALLON, MO, 63368","Match","Non_Exact","1 SEA PINES CT, O FALLON, MO, 63368",605573364,"R"
2212,"1 SEA SHELL SHORES","ROCKPORT","TX",78382,28.1020931950001,-97.027708676,212,"1 SEA SHELL SHORES, ROCKPORT, TX, 78382","Match","Non_Exact","1 SEA SHELL SHORES DR, ROCKPORT, TX, 78382",640824962,"R"
2213,"1 SEABORNE DRIVE","PASADENA","MD",21122,39.1160877740001,-76.526023972,213,"1 SEABORNE DRIVE, PASADENA, MD, 21122","Match","Exact","1 SEABORNE DR, PASADENA, MD, 21122",68198107,"R"
2214,"1 SEABREEZE PLACE","NORWALK","CT",6854,41.084960752,-73.4111394189999,214,"1 SEABREEZE PLACE, NORWALK, CT, 6854","Match","Exact","1 SEABREEZE PL, NORWALK, CT, 06854",618526901,"R"
2215,"1 SEAVER FARM LANE","SOUTH GRAFTON","MA",1560,42.1665041420001,-71.650388714,215,"1 SEAVER FARM LANE, SOUTH GRAFTON, MA, 1560","Match","Exact","1 SEAVER FARM LN, SOUTH GRAFTON, MA, 01560",40108125,"L"
2216,"1 SEAVER STREET","EAST TAUNTON, MA","MA",2718,41.8799397940001,-71.008553138,216,"1 SEAVER STREET, EAST TAUNTON, MA, MA, 2718","Match","Non_Exact","1 SEAVER ST, EAST TAUNTON, MA, 02718",46847603,"L"
2217,"1 SECOR COURT","POMONA","NY",10970,41.1886131360001,-74.061475587,217,"1 SECOR COURT, POMONA, NY, 10970","Match","Exact","1 SECOR CT, POMONA, NY, 10970",124605172,"L"
2218,"1 SEMINOLE WAY","WEST MILFORD","NJ",7480,41.0298796320001,-74.3922413189999,218,"1 SEMINOLE WAY, WEST MILFORD, NJ, 7480","Match","Exact","1 SEMINOLE WAY, WEST MILFORD, NJ, 07480",624279187,"L"
2219,"1 SETON ROAD","LARCHMONT","NY",10538,40.9386672640001,-73.7668818619999,219,"1 SETON ROAD, LARCHMONT, NY, 10538","Match","Exact","1 SETON RD, LARCHMONT, NY, 10538",139751737,"L"
2220,"1 SETTLEMENT COURT","EAST HAMPTON","NY",11937,NA,NA,220,"1 SETTLEMENT COURT, EAST HAMPTON, NY, 11937","No_Match",NA,NA,NA,NA
2221,"1 SEYMOUR AVE SE","MINNEAPOLIS","MN",55414,44.968207835,-93.211635331,221,"1 SEYMOUR AVE SE, MINNEAPOLIS, MN, 55414","Match","Exact","1 SEYMOUR AVE SE, MINNEAPOLIS, MN, 55414",43836426,"L"
2222,"1 SEYMOUR AVENUE SE","MINNEAPOLIS","MN",55414,44.968207835,-93.211635331,222,"1 SEYMOUR AVENUE SE, MINNEAPOLIS, MN, 55414","Match","Exact","1 SEYMOUR AVE SE, MINNEAPOLIS, MN, 55414",43836426,"L"
2223,"1 SHAD CT","BALTIMORE","MD",21220,39.3680828540001,-76.3657381359999,223,"1 SHAD CT, BALTIMORE, MD, 21220","Match","Exact","1 SHAD CT, BALTIMORE, MD, 21220",191507108,"R"
2224,"1 SHAD CT","MIDDLE RIVER","MD",21220,39.3680828540001,-76.3657381359999,224,"1 SHAD CT, MIDDLE RIVER, MD, 21220","Match","Exact","1 SHAD CT, MIDDLE RIVER, MD, 21220",191507108,"R"
2225,"1 SHADOW RIDGE CT","WICHITA FALLS","TX",76308,NA,NA,225,"1 SHADOW RIDGE CT, WICHITA FALLS, TX, 76308","No_Match",NA,NA,NA,NA
2226,"1 SHALE CT","EAST WINDSOR","NJ",8520,40.2780569560001,-74.522749316,226,"1 SHALE CT, EAST WINDSOR, NJ, 8520","Match","Exact","1 SHALE CT, EAST WINDSOR, NJ, 08520",60197777,"L"
2227,"1 SHALE LANE","CLIFTON","NJ",7013,40.8782093570001,-74.1848335889999,227,"1 SHALE LANE, CLIFTON, NJ, 7013","Match","Exact","1 SHALE LN, CLIFTON, NJ, 07013",642930442,"L"
2228,"1 SHAMROCK DRIVE","LAMAR","MO",64759,37.5043589630001,-94.281971631,228,"1 SHAMROCK DRIVE, LAMAR, MO, 64759","Match","Exact","1 SHAMROCK DR, LAMAR, MO, 64759",99042168,"L"
2229,"1 SHANDON RD APT 407","DORCHESTER","MA",2124,42.2960304980001,-71.089992055,229,"1 SHANDON RD APT 407, DORCHESTER, MA, 2124","Match","Exact","1 SHANDON RD, DORCHESTER, MA, 02124",85701636,"R"
2230,"1 SHANNON COURT","CENTER MORICHES","NY",11934,40.794113785,-72.813437015,230,"1 SHANNON COURT, CENTER MORICHES, NY, 11934","Match","Exact","1 SHANNON CT, CENTER MORICHES, NY, 11934",114041831,"L"
2231,"1 SHANNON DRIVE","EPPING","NH",3042,43.021863259,-71.1492962679999,231,"1 SHANNON DRIVE, EPPING, NH, 3042","Match","Exact","1 SHANNON DR, EPPING, NH, 03042",113686262,"R"
2232,"1 SHARON TERRACE","ORMOND BEACH","FL",32174,29.3142648050001,-81.070099215,232,"1 SHARON TERRACE, ORMOND BEACH, FL, 32174","Match","Exact","1 SHARON TER, ORMOND BEACH, FL, 32174",94520225,"R"
2233,"1 SHARYL DRIVE","CENTAL SQUARE","NY",13036,43.3226820570001,-76.15084297,233,"1 SHARYL DRIVE, CENTAL SQUARE, NY, 13036","Match","Non_Exact","1 SHARYL DR, CENTRAL SQUARE, NY, 13036",57812272,"L"
2234,"1 SHAW CIRCLE","GARNET VALLEY","PA",19060,39.8514672490001,-75.527508064,234,"1 SHAW CIRCLE, GARNET VALLEY, PA, 19060","Match","Exact","1 SHAW CIR, GARNET VALLEY, PA, 19060",134901281,"R"
2235,"1 SHELDON ROAD","DERRY","NH",3038,42.903744616,-71.232425252,235,"1 SHELDON ROAD, DERRY, NH, 3038","Match","Exact","1 SHELDON RD, DERRY, NH, 03038",113694692,"R"
2236,"1 SHEPARD AVENUE","SACO","ME",4072,43.503275462,-70.4312590599999,236,"1 SHEPARD AVENUE, SACO, ME, 4072","Match","Exact","1 SHEPARD AVE, SACO, ME, 04072",92757913,"L"
2237,"1 SHEPHERDS WAY SUITE 207","WARMINSTER","PA",18974,40.211008212,-75.115530995,237,"1 SHEPHERDS WAY SUITE 207, WARMINSTER, PA, 18974","Match","Exact","1 SHEPHERDS WAY, WARMINSTER, PA, 18974",647089481,"L"
2238,"1 SHERIDAN AVE","WEST ORANGE","NJ",7052,40.775725155,-74.2768640469999,238,"1 SHERIDAN AVE, WEST ORANGE, NJ, 7052","Match","Exact","1 SHERIDAN AVE, WEST ORANGE, NJ, 07052",63495493,"R"
2239,"1 SHERINGTON CT","BOLINGBROOK","IL",60440,41.696651516,-88.060301947,239,"1 SHERINGTON CT, BOLINGBROOK, IL, 60440","Match","Exact","1 SHERINGTON CT, BOLINGBROOK, IL, 60440",111574996,"L"
2240,"1 SHERMAN PLACE NORTH","PLATTSBURGH","NY",12901,44.7199734120001,-73.5582908169999,240,"1 SHERMAN PLACE NORTH, PLATTSBURGH, NY, 12901","Match","Exact","1 SHERMAN PL N, PLATTSBURGH, NY, 12901",136083821,"L"
2241,"1 SHERMAN STREET","NEW HARTFORD","NY",13413,43.067456856,-75.2854371029999,241,"1 SHERMAN STREET, NEW HARTFORD, NY, 13413","Match","Exact","1 SHERMAN ST, NEW HARTFORD, NY, 13413",171564908,"L"
2242,"1 SHERWOOD DR","WASHINGTON","MO",63090,38.4955592680001,-90.9982512569999,242,"1 SHERWOOD DR, WASHINGTON, MO, 63090","Match","Exact","1 SHERWOOD DR, WASHINGTON, MO, 63090",99741315,"L"
2243,"1 SHIELDS AVE","DAVIS","CA",95616,NA,NA,243,"1 SHIELDS AVE, DAVIS, CA, 95616","No_Match",NA,NA,NA,NA
2244,"1 SHIELDS AVENUE","DAVIS","CA",95616,NA,NA,244,"1 SHIELDS AVENUE, DAVIS, CA, 95616","No_Match",NA,NA,NA,NA
2245,"1 SHIELDS CT","TROPHY CLUB","TX",76262,32.99451758,-97.1678061379999,245,"1 SHIELDS CT, TROPHY CLUB, TX, 76262","Match","Exact","1 SHIELDS CT, TROPHY CLUB, TX, 76262",103423377,"L"
2246,"1 SHILEY ST","ANNAPOLIS","MD",21409,38.9918027030001,-76.498701318,246,"1 SHILEY ST, ANNAPOLIS, MD, 21409","Match","Non_Exact","1 SHILEY ST, ANNAPOLIS, MD, 21401",68172488,"L"
2247,"1 SHIP STREET","PROVIDENCE","RI",2903,41.819286536,-71.408329512,247,"1 SHIP STREET, PROVIDENCE, RI, 2903","Match","Exact","1 SHIP ST, PROVIDENCE, RI, 02903",47502335,"R"
2248,"1 SHIRA LANE","MANALAPAN","NJ",7726,40.2141183090001,-74.346539763,248,"1 SHIRA LANE, MANALAPAN, NJ, 7726","Match","Exact","1 SHIRA LN, MANALAPAN, NJ, 07726",90493636,"L"
2249,"1 SHIRLEY ANN DR","OCEAN","NJ",7712,40.238704006,-74.068463078,249,"1 SHIRLEY ANN DR, OCEAN, NJ, 7712","Match","Exact","1 SHIRLEY ANN DR, OCEAN, NJ, 07712",90456817,"L"
2250,"1 SHIRLEY AVE","PLATTSBURGH","NY",12901,44.7171068530001,-73.491339677,250,"1 SHIRLEY AVE, PLATTSBURGH, NY, 12901","Match","Exact","1 SHIRLEY AVE, PLATTSBURGH, NY, 12901",136069582,"L"
2251,"1 SHIRLEY CT","MINOT","ND",58703,48.242160992,-101.292138553,251,"1 SHIRLEY CT, MINOT, ND, 58703","Match","Non_Exact","1 SHIRLEY CT NE, MINOT, ND, 58703",200489294,"L"
2252,"1 SHONNARD TERR","YONKERS","NY",10701,NA,NA,252,"1 SHONNARD TERR, YONKERS, NY, 10701","No_Match",NA,NA,NA,NA
2253,"1 SHONNARD TERRACE","YONKERS","NY",10701,NA,NA,253,"1 SHONNARD TERRACE, YONKERS, NY, 10701","No_Match",NA,NA,NA,NA
2254,"1 SHORE AVE NUMBER 332","OYSTER BAY","NY",11771,NA,NA,254,"1 SHORE AVE NUMBER 332, OYSTER BAY, NY, 11771","No_Match",NA,NA,NA,NA
2255,"1 SHORE AVENUE NUMBER 332","OYSTER BAY","NY",11771,NA,NA,255,"1 SHORE AVENUE NUMBER 332, OYSTER BAY, NY, 11771","No_Match",NA,NA,NA,NA
2256,"1 SHORE LANE APT 1502","JERSEY CITY","NJ",7310,40.7306709170001,-74.03277898,256,"1 SHORE LANE APT 1502, JERSEY CITY, NJ, 7310","Match","Exact","1 SHORE LN, JERSEY CITY, NJ, 07310",624581294,"R"
2257,"1 SHORE LANE APT 2101","JERSEY CITY","NJ",7310,40.7306709170001,-74.03277898,257,"1 SHORE LANE APT 2101, JERSEY CITY, NJ, 7310","Match","Exact","1 SHORE LN, JERSEY CITY, NJ, 07310",624581294,"R"
2258,"1 SHORE LANE","CLINTON","MA",1510,42.4121016130001,-71.7062474909999,258,"1 SHORE LANE, CLINTON, MA, 1510","Match","Exact","1 SHORE LN, CLINTON, MA, 01510",40114620,"R"
2259,"1 SHORE LN SUITE 1210","JERSEY CITY","NJ",7310,40.7306709170001,-74.03277898,259,"1 SHORE LN SUITE 1210, JERSEY CITY, NJ, 7310","Match","Exact","1 SHORE LN, JERSEY CITY, NJ, 07310",624581294,"R"
2260,"1 SHORECREST CT","SAVANNAH","GA",31410,32.03903582,-81.0208225709999,260,"1 SHORECREST CT, SAVANNAH, GA, 31410","Match","Exact","1 SHORECREST CT, SAVANNAH, GA, 31410",6195727,"R"
2261,"1 SHREWSBURY LAVE","RIVERTON","NJ",8077,NA,NA,261,"1 SHREWSBURY LAVE, RIVERTON, NJ, 8077","No_Match",NA,NA,NA,NA
2262,"1 SHUMAN CIRCLE","URBANA","IL",61801,40.092453585,-88.2016284279999,262,"1 SHUMAN CIRCLE, URBANA, IL, 61801","Match","Exact","1 SHUMAN CIR, URBANA, IL, 61801",8813731,"R"
2263,"1 SIENA DRIVE","JACKSON","NC",8527,NA,NA,263,"1 SIENA DRIVE, JACKSON, NC, 8527","No_Match",NA,NA,NA,NA
2264,"1 SIENA DRIVE","JACKSON","NJ",8527,40.1060343930001,-74.330175636,264,"1 SIENA DRIVE, JACKSON, NJ, 8527","Match","Exact","1 SIENA DR, JACKSON, NJ, 08527",203777451,"R"
2265,"1 SIGNATURE CT","HEATH","TX",75032,32.862963461,-96.454921214,265,"1 SIGNATURE CT, HEATH, TX, 75032","Match","Exact","1 SIGNATURE CT, HEATH, TX, 75032",123793160,"R"
2266,"1 SIGNATURE POINT DR","LEAGUE CITY","TX",77573,29.5345545490001,-95.07398619,266,"1 SIGNATURE POINT DR, LEAGUE CITY, TX, 77573","Match","Exact","1 SIGNATURE POINT DR, LEAGUE CITY, TX, 77573",96707864,"R"
2267,"1 SILVER FOX TRAIL","ORMOND BEACH","FL",32174,NA,NA,267,"1 SILVER FOX TRAIL, ORMOND BEACH, FL, 32174","No_Match",NA,NA,NA,NA
2268,"1 SILVER LAKE DRIVE","CREEDE","CO",81130,NA,NA,268,"1 SILVER LAKE DRIVE, CREEDE, CO, 81130","Tie",NA,NA,NA,NA
2269,"1 SILVER LANE","SPARTA","NJ",7871,41.0904975830001,-74.614574944,269,"1 SILVER LANE, SPARTA, NJ, 7871","Match","Exact","1 SILVER LN, SPARTA, NJ, 07871",98012817,"L"
2270,"1 SILVER MAPLE DR","BOILING SPRINGS","PA",17007,40.1589692470001,-77.145158389,270,"1 SILVER MAPLE DR, BOILING SPRINGS, PA, 17007","Match","Exact","1 SILVER MAPLE DR, BOILING SPGS, PA, 17007",60953521,"L"
2271,"1 SILVER MEADOW LANE","ENID","OK",73703,NA,NA,271,"1 SILVER MEADOW LANE, ENID, OK, 73703","No_Match",NA,NA,NA,NA
2272,"1 SILVER SPRUCE DRIVE","SALIDA","CO",81201,38.535644383,-106.01450873,272,"1 SILVER SPRUCE DRIVE, SALIDA, CO, 81201","Match","Exact","1 SILVER SPRUCE DR, SALIDA, CO, 81201",108253897,"R"
2273,"1 SIMPSON COURT","REISTERSTOWN","MD",21136,39.4578934940001,-76.806672143,273,"1 SIMPSON COURT, REISTERSTOWN, MD, 21136","Match","Exact","1 SIMPSON CT, REISTERSTOWN, MD, 21136",191503981,"L"
2274,"1 SINCLAIR ROAD","SHREWSBURY","MA",1545,42.264099494,-71.719298544,274,"1 SINCLAIR ROAD, SHREWSBURY, MA, 1545","Match","Exact","1 SINCLAIR RD, SHREWSBURY, MA, 01545",40068464,"R"
2275,"1 SINGINGWOOD DR","STONY BROOK","NY",11790,40.8854037400001,-73.1347607599999,275,"1 SINGINGWOOD DR, STONY BROOK, NY, 11790","Match","Exact","1 SINGINGWOOD DR, STONY BROOK, NY, 11790",113987840,"R"
2276,"1 SINGLEY DRIVE","GREAT NECK","NY",11021,40.790953072,-73.7169864209999,276,"1 SINGLEY DRIVE, GREAT NECK, NY, 11021","Match","Non_Exact","1 SINGLEY CT, GREAT NECK, NY, 11021",147659854,"R"
2277,"1 SIPPORTA LANE","PARAMUS","NJ",7652,NA,NA,277,"1 SIPPORTA LANE, PARAMUS, NJ, 7652","No_Match",NA,NA,NA,NA
2278,"1 SIPPORTA LANE","PARAMUS","NJ",7852,NA,NA,278,"1 SIPPORTA LANE, PARAMUS, NJ, 7852","No_Match",NA,NA,NA,NA
2279,"1 SIPPORTA LANE","PARAMUS","NJ",NA,NA,NA,279,"1 SIPPORTA LANE, PARAMUS, NJ, ","No_Match",NA,NA,NA,NA
2280,"1 SIXTH STREET","PARK RIDGE","NJ",7656,41.0372354130001,-74.045137816,280,"1 SIXTH STREET, PARK RIDGE, NJ, 7656","Match","Exact","1 SIXTH ST, PARK RIDGE, NJ, 07656",64419957,"R"
2281,"1 SKILES DRIVE","MOUNT CARMEL","IL",62863,38.4333408540001,-87.776928894,281,"1 SKILES DRIVE, MOUNT CARMEL, IL, 62863","Match","Exact","1 SKILES DR, MOUNT CARMEL, IL, 62863",30038538,"L"
2282,"1 SKYLINE BLVD","MERRITT ISLAND","FL",32953,28.394759365,-80.7003696369999,282,"1 SKYLINE BLVD, MERRITT ISLAND, FL, 32953","Match","Exact","1 SKYLINE BLVD, MERRITT ISLAND, FL, 32953",93893199,"L"
2283,"1 SLEEPY HOLLOW ROAD","ATKINSON","NH",3811,42.819784009,-71.15219898,283,"1 SLEEPY HOLLOW ROAD, ATKINSON, NH, 3811","Match","Exact","1 SLEEPY HOLLOW RD, ATKINSON, NH, 03811",113680719,"L"
2284,"1 SLITERS LN","WYNANTSKILL","NY",12198,42.6694789590001,-73.673943976,284,"1 SLITERS LN, WYNANTSKILL, NY, 12198","Match","Exact","1 SLITERS LN, WYNANTSKILL, NY, 12198",35758760,"L"
2285,"1 SMITH HILL ROAD","NEWTON","NJ",7860,NA,NA,285,"1 SMITH HILL ROAD, NEWTON, NJ, 7860","No_Match",NA,NA,NA,NA
2286,"1 SMITH LANE","MANCHESTER","MA",1944,42.575487093,-70.767828306,286,"1 SMITH LANE, MANCHESTER, MA, 1944","Match","Exact","1 SMITH LN, MANCHESTER, MA, 01944",86677569,"L"
2287,"1 SMITH ROAD","RUTLEDGE","MO",63563,NA,NA,287,"1 SMITH ROAD, RUTLEDGE, MO, 63563","No_Match",NA,NA,NA,NA
2288,"1 SMITH SCHOOL RD W","NEW HARMONY","IN",47631,38.0313490870001,-87.9149320229999,288,"1 SMITH SCHOOL RD W, NEW HARMONY, IN, 47631","Match","Non_Exact","1 SMITH SCHOOL RD, NEW HARMONY, IN, 47631",645802811,"R"
2289,"1 SMITHFIELD STREET","PITTSBURGH","PA",15222,40.4367660840001,-80.00086871,289,"1 SMITHFIELD STREET, PITTSBURGH, PA, 15222","Match","Exact","1 SMITHFIELD ST, PITTSBURGH, PA, 15222",51633823,"L"
2290,"1 SNOW BUSH ST","LADERA RANCH","CA",92694,33.5433327600001,-117.648642178,290,"1 SNOW BUSH ST, LADERA RANCH, CA, 92694","Match","Exact","1 SNOW BUSH ST, LADERA RANCH, CA, 92694",608142000,"L"
2291,"1 SO PROSPECT ST","BURLINGTON","VT",5401,44.480515031,-73.2005812849999,291,"1 SO PROSPECT ST, BURLINGTON, VT, 5401","Match","Exact","1 S PROSPECT ST, BURLINGTON, VT, 05401",653297594,"R"
2292,"1 SOCIETY HILL DRIVE NORTH","JERSEY CITY","NJ",7305,40.706509655,-74.101616093,292,"1 SOCIETY HILL DRIVE NORTH, JERSEY CITY, NJ, 7305","Match","Exact","1 SOCIETY HILL DR N, JERSEY CITY, NJ, 07305",651779122,"L"
2293,"1 SOLDIERS FIELD PARK - APT 405","BOSTON","MA",2163,42.365966481,-71.1180581899999,293,"1 SOLDIERS FIELD PARK - APT 405, BOSTON, MA, 2163","Match","Non_Exact","1 SOLDIERS FIELD RD, BOSTON, MA, 02163",85727215,"L"
2294,"1 SOLOMON PIERCE RD","LEXINGTON","MA",2420,42.439064617,-71.204734973,294,"1 SOLOMON PIERCE RD, LEXINGTON, MA, 2420","Match","Exact","1 SOLOMON PIERCE RD, LEXINGTON, MA, 02420",86883876,"R"
2295,"1 SONOMA DRIVE","ROMEOVILLE","IL",60446,41.6229624860001,-88.142758849,295,"1 SONOMA DRIVE, ROMEOVILLE, IL, 60446","Match","Non_Exact","1 SONOMA CT, ROMEOVILLE, IL, 60446",111624594,"R"
2296,"1 SONREL STREET","WOBRUN","MA",1801,42.474593794,-71.142363258,296,"1 SONREL STREET, WOBRUN, MA, 1801","Match","Non_Exact","1 SONREL ST, WOBURN, MA, 01801",86886435,"R"
2297,"1 SONREL STREET","WOBURN","MA",1801,42.474593794,-71.142363258,297,"1 SONREL STREET, WOBURN, MA, 1801","Match","Exact","1 SONREL ST, WOBURN, MA, 01801",86886435,"R"
2298,"1 SOUTH  FIRST ST","ELDORADO SPRGS","MO",64744,37.87696283,-94.030091577,298,"1 SOUTH  FIRST ST, ELDORADO SPRGS, MO, 64744","Match","Non_Exact","1 S 1ST ST, EL DORADO SPG, MO, 64744",44897815,"R"
2299,"1 SOUTH 045 SPRING RD","OAKBROOK TERRACE","IL",60181,NA,NA,299,"1 SOUTH 045 SPRING RD, OAKBROOK TERRACE, IL, 60181","No_Match",NA,NA,NA,NA
2300,"1 SOUTH BELLS ST","ALAMO","TN",38006,35.784712832,-89.11728443,300,"1 SOUTH BELLS ST, ALAMO, TN, 38006","Match","Non_Exact","1 S BELLS ST, ALAMO, TN, 38001",63319727,"R"
2301,"1 SOUTH BLVD E          NUMBER 3131","DAVENPORT","FL",33836,28.1540047820001,-81.599591677,301,"1 SOUTH BLVD E          NUMBER 3131, DAVENPORT, FL, 33836","Match","Non_Exact","1 SOUTH BLVD E, DAVENPORT, FL, 33837",104805623,"R"
2302,"1 SOUTH BLVD E         NUMBER 3131","DAVENPORT","FL",33836,28.1540047820001,-81.599591677,302,"1 SOUTH BLVD E         NUMBER 3131, DAVENPORT, FL, 33836","Match","Non_Exact","1 SOUTH BLVD E, DAVENPORT, FL, 33837",104805623,"R"
2303,"1 SOUTH CLINTON AVENUE-2008","ROCHESTER","NY",14604,NA,NA,303,"1 SOUTH CLINTON AVENUE-2008, ROCHESTER, NY, 14604","No_Match",NA,NA,NA,NA
2304,"1 SOUTH DODGE STREET","GILBERT","AZ",85233,33.349265802,-111.803162589,304,"1 SOUTH DODGE STREET, GILBERT, AZ, 85233","Match","Exact","1 S DODGE ST, GILBERT, AZ, 85233",128329476,"L"
2305,"1 SOUTH FEDERAL STREET","SARATOGA SPRINGS","NY",12866,43.0759408590001,-73.7895985219999,305,"1 SOUTH FEDERAL STREET, SARATOGA SPRINGS, NY, 12866","Match","Exact","1 S FEDERAL ST, SARATOGA SPGS, NY, 12866",18816516,"L"
2306,"1 SOUTH FORT RINGGOLD","RIO GRANDE CITY","TX",78582,NA,NA,306,"1 SOUTH FORT RINGGOLD, RIO GRANDE CITY, TX, 78582","No_Match",NA,NA,NA,NA
2307,"1 SOUTH JERSEY PLACE","ATLANTIC CITY","NJ",8401,NA,NA,307,"1 SOUTH JERSEY PLACE, ATLANTIC CITY, NJ, 8401","No_Match",NA,NA,NA,NA
2308,"1 SOUTH MAIN STREET","FORTVILLE","IN",46040,39.9339851170001,-85.849723044,308,"1 SOUTH MAIN STREET, FORTVILLE, IN, 46040","Match","Exact","1 S MAIN ST, FORTVILLE, IN, 46040",641168451,"R"
2309,"1 SOUTH MAIN STREET","GLASSBORO","NJ",8028,39.702722254,-75.111964123,309,"1 SOUTH MAIN STREET, GLASSBORO, NJ, 8028","Match","Exact","1 S MAIN ST, GLASSBORO, NJ, 08028",134615171,"R"
2310,"1 SOUTH MARKET STREET APT 2302","SAN JOSE","CA",95113,37.3353949780001,-121.892005672,310,"1 SOUTH MARKET STREET APT 2302, SAN JOSE, CA, 95113","Match","Exact","1 S MARKET ST, SAN JOSE, CA, 95113",122907844,"R"
2311,"1 SOUTH MARKET STREET","SAN JOSE","CA",95111,37.3353949780001,-121.892005672,311,"1 SOUTH MARKET STREET, SAN JOSE, CA, 95111","Match","Non_Exact","1 S MARKET ST, SAN JOSE, CA, 95113",122907844,"R"
2312,"1 SOUTH NEVADA AVE STE 105","COLORADO SPRINGS","CO",80903,38.8336472940001,-104.821672019,312,"1 SOUTH NEVADA AVE STE 105, COLORADO SPRINGS, CO, 80903","Match","Exact","1 S NEVADA AVE, COLORADO SPRINGS, CO, 80903",105514677,"L"
2313,"1 SOUTH RIVER ROAD","BUENA VISTA","VA",24416,37.7772847580001,-79.3689652479999,313,"1 SOUTH RIVER ROAD, BUENA VISTA, VA, 24416","Match","Exact","1 S RIVER RD, BUENA VISTA, VA, 24416",63110965,"L"
2314,"1 SOUTH ST 27TH FLR","BALTIMORE","MD",21202,39.2896476880001,-76.611035977,314,"1 SOUTH ST 27TH FLR, BALTIMORE, MD, 21202","Match","Exact","1 SOUTH ST, BALTIMORE, MD, 21202",206420708,"L"
2315,"1 SOUTH STREET APT 301","BUFFALO","NY",14204,42.865173258,-78.8666026659999,315,"1 SOUTH STREET APT 301, BUFFALO, NY, 14204","Match","Exact","1 SOUTH ST, BUFFALO, NY, 14204",48291750,"R"
2316,"1 SOUTH STREET SUITE 1000","BALTIMORE","MD",21202,39.2896476880001,-76.611035977,316,"1 SOUTH STREET SUITE 1000, BALTIMORE, MD, 21202","Match","Exact","1 SOUTH ST, BALTIMORE, MD, 21202",206420708,"L"
2317,"1 SOUTH STREET","PEEKSKILL","NY",10566,41.285825349,-73.928608083,317,"1 SOUTH STREET, PEEKSKILL, NY, 10566","Match","Exact","1 SOUTH ST, PEEKSKILL, NY, 10566",139839220,"R"
2318,"1 SOUTH VAN NESS 5TH FLOOR","SAN FRANCISCO","CA",94103,NA,NA,318,"1 SOUTH VAN NESS 5TH FLOOR, SAN FRANCISCO, CA, 94103","No_Match",NA,NA,NA,NA
2319,"1 SOUTH WACKER DRIVE - FLOOR 38","CHICAGO","IL",60606,41.881909756,-87.63675505,319,"1 SOUTH WACKER DRIVE - FLOOR 38, CHICAGO, IL, 60606","Match","Exact","1 S WACKER DR, CHICAGO, IL, 60606",641805832,"L"
2320,"1 SOUTH WATLINGTON","TEXARKANA","TX",75501,33.3843337550001,-94.093101936,320,"1 SOUTH WATLINGTON, TEXARKANA, TX, 75501","Match","Non_Exact","1 S WATLINGTON DR, TEXARKANA, TX, 75501",57684874,"R"
2321,"1 SOUTH WHITNEY ST APT2","BOSTON","MA",2120,42.3331687680001,-71.1019877209999,321,"1 SOUTH WHITNEY ST APT2, BOSTON, MA, 2120","Match","Exact","1 S WHITNEY ST, BOSTON, MA, 02120",85698805,"L"
2322,"1 SOUTH WOLFE STREET NUMBER 202","BALTIMORE","MD",21231,39.2915903260001,-76.590453181,322,"1 SOUTH WOLFE STREET NUMBER 202, BALTIMORE, MD, 21231","Match","Exact","1 S WOLFE ST, BALTIMORE, MD, 21231",206424522,"L"
2323,"1 SOUTH WYANDOTTE STREET","PANA","IL",62557,NA,NA,323,"1 SOUTH WYANDOTTE STREET, PANA, IL, 62557","No_Match",NA,NA,NA,NA
2324,"1 SOUTHCREST COURT","HUNTINGTON","NY",11743,40.8834137170001,-73.431331888,324,"1 SOUTHCREST COURT, HUNTINGTON, NY, 11743","Match","Exact","1 SOUTHCREST CT, HUNTINGTON, NY, 11743",114229396,"L"
2325,"1 SOUTHEAST COURT","MORGANTOWN","WV",26505,NA,NA,325,"1 SOUTHEAST COURT, MORGANTOWN, WV, 26505","No_Match",NA,NA,NA,NA
2326,"1 SOUTHWATCH DRIVE","MECHANICSBURG","PA",17050,40.2487780000001,-77.054634757,326,"1 SOUTHWATCH DRIVE, MECHANICSBURG, PA, 17050","Match","Non_Exact","1 SOUTHWATCH LN, MECHANICSBURG, PA, 17050",221249592,"R"
2327,"1 SOUTHWICK PLACE","DANVILLE","CA",94526,37.8219353640001,-122.011985264,327,"1 SOUTHWICK PLACE, DANVILLE, CA, 94526","Match","Exact","1 SOUTHWICK PL, DANVILLE, CA, 94526",192104942,"R"
2328,"1 SPARROW LANE","GREENWICH","CT",6303,NA,NA,328,"1 SPARROW LANE, GREENWICH, CT, 6303","No_Match",NA,NA,NA,NA
2329,"1 SPORTSMAN LN","FRANKFORT","KY",40601,NA,NA,329,"1 SPORTSMAN LN, FRANKFORT, KY, 40601","No_Match",NA,NA,NA,NA
2330,"1 SPORTSMANS LANE","FRANKFORT","KY",40601,NA,NA,330,"1 SPORTSMANS LANE, FRANKFORT, KY, 40601","No_Match",NA,NA,NA,NA
2331,"1 SPOTSWOOD COURT","SOUTH CHARLESTON","WV",25303,38.352779572,-81.6647357149999,331,"1 SPOTSWOOD COURT, SOUTH CHARLESTON, WV, 25303","Match","Exact","1 SPOTSWOOD CT, S CHARLESTON, WV, 25303",78590432,"R"
2332,"1 SPRING CREEK HIGHWAY","MEDINA","TN",38355,35.8054357410001,-88.766679276,332,"1 SPRING CREEK HIGHWAY, MEDINA, TN, 38355","Match","Exact","1 SPRING CREEK HWY, MEDINA, TN, 38355",40822658,"R"
2333,"1 SPRING GARDEN STREET","VALLEY STREAM","NY",11580,40.6750066600001,-73.7220239919999,333,"1 SPRING GARDEN STREET, VALLEY STREAM, NY, 11580","Match","Exact","1 SPRING GARDEN ST, VALLEY STREAM, NY, 11580",147668261,"L"
2334,"1 SPRING LAKE DR","FLETCHER","NC",28732,35.485144329,-82.436660365,334,"1 SPRING LAKE DR, FLETCHER, NC, 28732","Match","Exact","1 SPRING LAKE DR, FLETCHER, NC, 28732",36868011,"L"
2335,"1 SPRING MEADOW LANE","CLANCY","MT",59634,46.5557523960001,-111.974126361,335,"1 SPRING MEADOW LANE, CLANCY, MT, 59634","Match","Non_Exact","1 SPRINGMEADOW LN, CLANCY, MT, 59634",617280191,"L"
2336,"1 SPRINGFIELD STREET - NO 419","CHICOPEE","MA",1023,NA,NA,336,"1 SPRINGFIELD STREET - NO 419, CHICOPEE, MA, 1023","No_Match",NA,NA,NA,NA
2337,"1 SPRUCE COURT","QUEENSBURY","NY",12804,43.3160992590001,-73.6691312519999,337,"1 SPRUCE COURT, QUEENSBURY, NY, 12804","Match","Exact","1 SPRUCE CT, QUEENSBURY, NY, 12804",173897150,"R"
2338,"1 SPRUCE DR","HIGHLAN MILLS","NY",10930,41.3610406000001,-74.1398057179999,338,"1 SPRUCE DR, HIGHLAN MILLS, NY, 10930","Match","Non_Exact","1 SPRUCE DR, HIGHLAND MILLS, NY, 10930",124474183,"L"
2339,"1 SPRUCE HILL ROAD","WESTON","MA",2090,NA,NA,339,"1 SPRUCE HILL ROAD, WESTON, MA, 2090","No_Match",NA,NA,NA,NA
2340,"1 SPRUCE PLACE","DENVILLE","NJ",7834,40.895853189,-74.478224115,340,"1 SPRUCE PLACE, DENVILLE, NJ, 7834","Match","Exact","1 SPRUCE PL, DENVILLE, NJ, 07834",60440145,"L"
2341,"1 SPRUCE STREE -34","WRANGELL","AK",99929,56.4679473790001,-132.375782318,341,"1 SPRUCE STREE -34, WRANGELL, AK, 99929","Match","Non_Exact","1 SPRUCE ST, WRANGELL, AK, 99929",650074657,"R"
2342,"1 SPRUCE TERR","FREDERICKSON","NJ",7470,40.9327981610001,-74.2510522759999,342,"1 SPRUCE TERR, FREDERICKSON, NJ, 7470","Match","Non_Exact","1 SPRUCE TER, WAYNE, NJ, 07470",65258584,"R"
2343,"1 SPRUCE TERR","WAYNE","NJ",7470,40.9327981610001,-74.2510522759999,343,"1 SPRUCE TERR, WAYNE, NJ, 7470","Match","Exact","1 SPRUCE TER, WAYNE, NJ, 07470",65258584,"R"
2344,"1 SQUAM  HOLLOW","ROCKPORT","MA",1966,42.662444932,-70.6326758869999,344,"1 SQUAM  HOLLOW, ROCKPORT, MA, 1966","Match","Exact","1 SQUAM HOLLOW, ROCKPORT, MA, 01966",86633402,"L"
2345,"1 SQUIRE LANE","KINGS PARK","NY",11754,40.894299979,-73.2311056199999,345,"1 SQUIRE LANE, KINGS PARK, NY, 11754","Match","Exact","1 SQUIRE LN, KINGS PARK, NY, 11754",113980539,"R"
2346,"1 ST FRANCIS PLACE  APT 2112","SAN FRANCISCO","CA",94107,NA,NA,346,"1 ST FRANCIS PLACE  APT 2112, SAN FRANCISCO, CA, 94107","No_Match",NA,NA,NA,NA
2347,"1 ST GEORGE GLEN DRIVE","SETAUKET","NY",11733,40.9252706410001,-73.112149743,347,"1 ST GEORGE GLEN DRIVE, SETAUKET, NY, 11733","Match","Exact","1 SAINT GEORGE GLEN DR, SETAUKET, NY, 11733",114058040,"L"
2348,"1 STABLE POINT DRIVE","CHARESTON","WV",25526,NA,NA,348,"1 STABLE POINT DRIVE, CHARESTON, WV, 25526","No_Match",NA,NA,NA,NA
2349,"1 STAMY DRIVE","EWING","NJ",8618,40.2459140830001,-74.788861942,349,"1 STAMY DRIVE, EWING, NJ, 8618","Match","Exact","1 STAMY DR, EWING, NJ, 08618",60207281,"L"
2350,"1 STANDISH ROAD","MONROE","NY",10950,NA,NA,350,"1 STANDISH ROAD, MONROE, NY, 10950","No_Match",NA,NA,NA,NA
2351,"1 STANHOPE CT","STAFFORD","VA",22554,38.4537904200001,-77.4584819139999,351,"1 STANHOPE CT, STAFFORD, VA, 22554","Match","Exact","1 STANHOPE CT, STAFFORD, VA, 22554",228327233,"R"
2352,"1 STARK CT","FLANDERS","NJ",7836,40.8739568490001,-74.7109743409999,352,"1 STARK CT, FLANDERS, NJ, 7836","Match","Exact","1 STARK CT, FLANDERS, NJ, 07836",617295043,"L"
2353,"1 STATE STREET","GUILFORD","CT",6437,41.2843750430001,-72.681101446,353,"1 STATE STREET, GUILFORD, CT, 6437","Match","Exact","1 STATE ST, GUILFORD, CT, 06437",3708888,"R"
2354,"1 STATELINER BOULEVARD","PHILLIPSBURG","NJ",8865,NA,NA,354,"1 STATELINER BOULEVARD, PHILLIPSBURG, NJ, 8865","No_Match",NA,NA,NA,NA
2355,"1 STATION HOUSE COURT","GAITHERSBURG","MD",20877,39.152231638,-77.18212059,355,"1 STATION HOUSE COURT, GAITHERSBURG, MD, 20877","Match","Non_Exact","1 STATIONHOUSE CT, GAITHERSBURG, MD, 20877",62084930,"R"
2356,"1 STEINMEYER WOODS","EDWARDSVILLE","IL",62025,38.809518107,-89.969225119,356,"1 STEINMEYER WOODS, EDWARDSVILLE, IL, 62025","Match","Exact","1 STEINMEYER WOODS, EDWARDSVILLE, IL, 62025",107726636,"L"
2357,"1 STEPHEN PL","SPRING VALLEY","NY",10977,NA,NA,357,"1 STEPHEN PL, SPRING VALLEY, NY, 10977","No_Match",NA,NA,NA,NA
2358,"1 STEPPING STONE LANE","GREENWICH","CT",6830,41.0658148740001,-73.606561574,358,"1 STEPPING STONE LANE, GREENWICH, CT, 6830","Match","Exact","1 STEPPING STONE LN, GREENWICH, CT, 06830",3284525,"R"
2359,"1 STERLING DRIVE UNIT 315","PISCATAWAY","NJ",8854,40.536846268,-74.474414446,359,"1 STERLING DRIVE UNIT 315, PISCATAWAY, NJ, 8854","Match","Exact","1 STERLING DR, PISCATAWAY, NJ, 08854",60311828,"L"
2360,"1 STEVEN CIRCLE","NATICK","MA",1760,42.290179358,-71.335401439,360,"1 STEVEN CIRCLE, NATICK, MA, 1760","Match","Exact","1 STEVEN CIR, NATICK, MA, 01760",86853990,"R"
2361,"1 STEVEN COURT","MOUNT SINAI","NY",11766,40.946298863,-73.018827555,361,"1 STEVEN COURT, MOUNT SINAI, NY, 11766","Match","Exact","1 STEVEN CT, MOUNT SINAI, NY, 11766",114060361,"R"
2362,"1 STEVENS RD","WALLINGTON","NJ",7507,NA,NA,362,"1 STEVENS RD, WALLINGTON, NJ, 7507","No_Match",NA,NA,NA,NA
2363,"1 STILES DRIVE","MELVILLE","NY",11747,40.8072088070001,-73.4101716609999,363,"1 STILES DRIVE, MELVILLE, NY, 11747","Match","Exact","1 STILES DR, MELVILLE, NY, 11747",638600284,"R"
2364,"1 STILL POND CT","NEW FREEDOM","PA",17349,39.7256178010001,-76.64172781,364,"1 STILL POND CT, NEW FREEDOM, PA, 17349","Match","Exact","1 STILL POND CT, NEW FREEDOM, PA, 17349",88724630,"L"
2365,"1 STOCKTON ST","DORCHESTER","MA",2124,42.2830389980001,-71.071768576,365,"1 STOCKTON ST, DORCHESTER, MA, 2124","Match","Exact","1 STOCKTON ST, DORCHESTER, MA, 02124",85706064,"R"
2366,"1 STONE LANE","FAYETTEVILLE","WV",25840,38.0746783770001,-81.1359162369999,366,"1 STONE LANE, FAYETTEVILLE, WV, 25840","Match","Non_Exact","1 STONE DR, FAYETTEVILLE, WV, 25840",75116328,"R"
2367,"1 STONE LN APT 2418","MALDEN","MA",2148,42.4407822900001,-71.022594489,367,"1 STONE LN APT 2418, MALDEN, MA, 2148","Match","Exact","1 STONE LN, MALDEN, MA, 02148",646919411,"L"
2368,"1 STONE MEADOW FARM DR","SHREWSBURY","MA",1545,42.302376591,-71.716115035,368,"1 STONE MEADOW FARM DR, SHREWSBURY, MA, 1545","Match","Exact","1 STONE MEADOW FARM DR, SHREWSBURY, MA, 01545",40107853,"L"
2369,"1 STONE TAVERN DRIVE","CLARKSBURG","NJ",8510,40.20040371,-74.433641908,369,"1 STONE TAVERN DRIVE, CLARKSBURG, NJ, 8510","Match","Exact","1 STONE TAVERN DR, CLARKSBURG, NJ, 08510",617271680,"R"
2370,"1 STONECREEK CT UNIT 1","GREENSBORO","NC",27455,36.143375314,-79.824218464,370,"1 STONECREEK CT UNIT 1, GREENSBORO, NC, 27455","Match","Exact","1 STONECREEK CT, GREENSBORO, NC, 27455",131078608,"L"
2371,"1 STONEHAM LANE","WOLFEBORO","NH",3894,NA,NA,371,"1 STONEHAM LANE, WOLFEBORO, NH, 3894","No_Match",NA,NA,NA,NA
2372,"1 STONEHEDGE ROAD","CHESHIRE","MA",1225,42.5751268550001,-73.150103265,372,"1 STONEHEDGE ROAD, CHESHIRE, MA, 1225","Match","Exact","1 STONEHEDGE RD, CHESHIRE, MA, 01225",3961273,"R"
2373,"1 STONEHENGE LANE APT 9D","ALBANY","NY",12203,42.666151717,-73.807443554,373,"1 STONEHENGE LANE APT 9D, ALBANY, NY, 12203","Match","Exact","1 STONEHENGE LN, ALBANY, NY, 12203",18307789,"R"
2374,"1 STONELEA PLACE C22","NEW ROCHELLE","NY",10801,40.9179358270001,-73.769133983,374,"1 STONELEA PLACE C22, NEW ROCHELLE, NY, 10801","Match","Exact","1 STONELEA PL, NEW ROCHELLE, NY, 10801",139752314,"R"
2375,"1 STONEY CREEK RD","WILKES-BARRE","PA",18702,41.2643796460001,-75.805816305,375,"1 STONEY CREEK RD, WILKES-BARRE, PA, 18702","Match","Exact","1 STONEY CREEK RD, WILKES BARRE, PA, 18702",604524863,"L"
2376,"1 STORYTELLING ROCK ROAD","WOLFEBORO","NH",3894,43.583177301,-71.2522554179999,376,"1 STORYTELLING ROCK ROAD, WOLFEBORO, NH, 3894","Match","Exact","1 STORYTELLING ROCK RD, WOLFEBORO, NH, 03894",145598713,"L"
2377,"1 STRATFORD ROAD","SCARSDALE","NY",10583,40.9759272630001,-73.81271101,377,"1 STRATFORD ROAD, SCARSDALE, NY, 10583","Match","Exact","1 STRATFORD RD, SCARSDALE, NY, 10583",139739817,"L"
2378,"1 STRATHMORE RD APT 3","BROOKLINE","MA",2445,42.33626265,-71.1449638509999,378,"1 STRATHMORE RD APT 3, BROOKLINE, MA, 2445","Match","Exact","1 STRATHMORE RD, BROOKLINE, MA, 02445",642609740,"R"
2379,"1 STRATTON COURT","HACKETTSTOWN","NJ",7840,40.8663640300001,-74.789758338,379,"1 STRATTON COURT, HACKETTSTOWN, NJ, 7840","Match","Exact","1 STRATTON CT, HACKETTSTOWN, NJ, 07840",60475556,"L"
2380,"1 STRAWBERRY LANE","MIDDLEBURG","PA",17842,40.83561231,-76.972697841,380,"1 STRAWBERRY LANE, MIDDLEBURG, PA, 17842","Match","Exact","1 STRAWBERRY LN, MIDDLEBURG, PA, 17842",627075970,"R"
2381,"1 STUYVESANT OVAL APT 1E","NEW YORK","NY",10009,NA,NA,381,"1 STUYVESANT OVAL APT 1E, NEW YORK, NY, 10009","No_Match",NA,NA,NA,NA
2382,"1 STUYVESANT OVAL APT 7C","NEW YORK","NY",10009,NA,NA,382,"1 STUYVESANT OVAL APT 7C, NEW YORK, NY, 10009","No_Match",NA,NA,NA,NA
2383,"1 STUYVESANT OVAL","NEW YORK","NY",10009,NA,NA,383,"1 STUYVESANT OVAL, NEW YORK, NY, 10009","No_Match",NA,NA,NA,NA
2384,"1 SUASVILLE LANE","ETNA","NH",3750,43.7136618220001,-72.200769135,384,"1 SUASVILLE LANE, ETNA, NH, 3750","Match","Non_Exact","1 SAUSVILLE RD, ETNA, NH, 03750",145688874,"R"
2385,"1 SUFFERN PL","MONSEY","NY",10952,41.1085330830001,-74.079596916,385,"1 SUFFERN PL, MONSEY, NY, 10952","Match","Exact","1 SUFFERN PL, MONSEY, NY, 10952",124593750,"L"
2386,"1 SUFFOLK PLACE","HUNTINGTON STATION","NY",11746,40.8385887110001,-73.399648143,386,"1 SUFFOLK PLACE, HUNTINGTON STATION, NY, 11746","Match","Exact","1 SUFFOLK PL, HUNTINGTON STATION, NY, 11746",113966072,"L"
2387,"1 SUGAR CREEK LN","WAUKEE","IA",50263,NA,NA,387,"1 SUGAR CREEK LN, WAUKEE, IA, 50263","No_Match",NA,NA,NA,NA
2388,"1 SUGAR LOAF LANE","FORT MITCHELL","AL",36856,32.2690071170001,-84.98548039,388,"1 SUGAR LOAF LANE, FORT MITCHELL, AL, 36856","Match","Exact","1 SUGAR LOAF LN, FORT MITCHELL, AL, 36856",642434105,"L"
2389,"1 SUMMER ST","KENNEBUNK","MA",4043,NA,NA,389,"1 SUMMER ST, KENNEBUNK, MA, 4043","No_Match",NA,NA,NA,NA
2390,"1 SUMMER ST","KENNEBUNK","ME",4043,43.3877398660001,-70.5361693949999,390,"1 SUMMER ST, KENNEBUNK, ME, 4043","Match","Exact","1 SUMMER ST, KENNEBUNK, ME, 04043",92740697,"L"
2391,"1 SUNCOOK DR","PEPPERELL","MA",1463,42.6824950610001,-71.56214246,391,"1 SUNCOOK DR, PEPPERELL, MA, 1463","Match","Exact","1 SUNCOOK DR, PEPPERELL, MA, 01463",86927489,"R"
2392,"1 SUNDALE CIR","PARAGOULD","AR",72450,36.0560527760001,-90.512817951,392,"1 SUNDALE CIR, PARAGOULD, AR, 72450","Match","Exact","1 SUNDALE CIR, PARAGOULD, AR, 72450",47062644,"R"
2393,"1 SUNDALE CIRCLE","PARAGOULD","AR",72450,36.0560527760001,-90.512817951,393,"1 SUNDALE CIRCLE, PARAGOULD, AR, 72450","Match","Exact","1 SUNDALE CIR, PARAGOULD, AR, 72450",47062644,"R"
2394,"1 SUNFISH RD","THOREAU","NM",87323,35.2754464120001,-108.127506291,394,"1 SUNFISH RD, THOREAU, NM, 87323","Match","Non_Exact","1 SUNFISH DR, THOREAU, NM, 87323",179185890,"R"
2395,"1 SUNNY ROAD","ORMOND BEACH","FL",32174,29.264726517,-81.212478544,395,"1 SUNNY ROAD, ORMOND BEACH, FL, 32174","Match","Exact","1 SUNNY RD, ORMOND BEACH, FL, 32174",610636657,"R"
2396,"1 SUNRISE","TULAROSA","NM",88352,33.0174307950001,-106.029783079,396,"1 SUNRISE, TULAROSA, NM, 88352","Match","Exact","1 SUNRISE, TULAROSA, NM, 88352",132328580,"R"
2397,"1 SUNSET COURT","LA CENTER","KY",42056,37.0713166090001,-88.9770700559999,397,"1 SUNSET COURT, LA CENTER, KY, 42056","Match","Exact","1 SUNSET CT, LA CENTER, KY, 42056",633740004,"R"
2398,"1 SUNSET DRIVE","WELLINGTON","KS",67152,NA,NA,398,"1 SUNSET DRIVE, WELLINGTON, KS, 67152","No_Match",NA,NA,NA,NA
2399,"1 SUNSET DRIVE","WEST HAVEN","CT",6516,41.295449595,-72.961845733,399,"1 SUNSET DRIVE, WEST HAVEN, CT, 6516","Match","Exact","1 SUNSET DR, W HAVEN, CT, 06516",637857405,"R"
2400,"1 SUNSET PARK","FESTUS","MO",63028,38.2198870550001,-90.3996139939999,400,"1 SUNSET PARK, FESTUS, MO, 63028","Match","Non_Exact","1 SUNSET, FESTUS, MO, 63028",62801237,"L"
2401,"1 SUPERLOOP CIRCLE","MCCARRAN","NV",89437,NA,NA,401,"1 SUPERLOOP CIRCLE, MCCARRAN, NV, 89437","No_Match",NA,NA,NA,NA
2402,"1 SUSAN COURT","FLORIDA","NY",10921,41.3356177580001,-74.350747185,402,"1 SUSAN COURT, FLORIDA, NY, 10921","Match","Exact","1 SUSAN CT, FLORIDA, NY, 10921",614131208,"R"
2403,"1 SUSAN COURT","LONG BEACH","MS",39560,30.361606802,-89.1564506729999,403,"1 SUSAN COURT, LONG BEACH, MS, 39560","Match","Exact","1 SUSAN CT, LONG BEACH, MS, 39560",111376747,"L"
2404,"1 SUTTON BROOKS COURT","MIDDLETOWN","OH",45044,39.447453169,-84.413756373,404,"1 SUTTON BROOKS COURT, MIDDLETOWN, OH, 45044","Match","Non_Exact","1 SUTTON BROOK CT, MIDDLETOWN, OH, 45044",113816799,"L"
2405,"1 SUTTON ROAD","ROCKY HILL","CT",6067,41.6798144270001,-72.646993322,405,"1 SUTTON ROAD, ROCKY HILL, CT, 6067","Match","Exact","1 SUTTON RD, ROCKY HILL, CT, 06067",3517906,"L"
2406,"1 SW 32 TERRACE","MIAMI","FL",33155,NA,NA,406,"1 SW 32 TERRACE, MIAMI, FL, 33155","No_Match",NA,NA,NA,NA
2407,"1 SW COLUMBIA STE 1200","PORTLAND","OR",97258,NA,NA,407,"1 SW COLUMBIA STE 1200, PORTLAND, OR, 97258","No_Match",NA,NA,NA,NA
2408,"1 SWANNEE COURT","ASHLAND","VA",23005,37.749912771,-77.474814814,408,"1 SWANNEE COURT, ASHLAND, VA, 23005","Match","Exact","1 SWANNEE CT, ASHLAND, VA, 23005",84965209,"L"
2409,"1 SWEET MEADOW","NASHUA","NH",3063,42.798657357,-71.513503047,409,"1 SWEET MEADOW, NASHUA, NH, 3063","Match","Non_Exact","1 SWEET MEADOW DR, NASHUA, NH, 03063",113573813,"R"
2410,"1 SWEET WATER LANE","PITTSBURGH","PA",15238,40.5324729440001,-79.884379874,410,"1 SWEET WATER LANE, PITTSBURGH, PA, 15238","Match","Exact","1 SWEET WATER LN, PITTSBURGH, PA, 15238",617240603,"L"
2411,"1 SWIFT DRIVE","EGG HARBOR TOWNSHIP","NJ",8234,39.3718504940001,-74.6253166609999,411,"1 SWIFT DRIVE, EGG HARBOR TOWNSHIP, NJ, 8234","Match","Exact","1 SWIFT DR, EGG HARBOR TOWNSHIP, NJ, 08234",202510862,"L"
2412,"1 SWIFT TER","BOSTON","MA",2128,42.380463207,-71.021797229,412,"1 SWIFT TER, BOSTON, MA, 2128","Match","Exact","1 SWIFT TER, BOSTON, MA, 02128",85711859,"R"
2413,"1 SWINBURNE STREET","JAMESTOWN","RI",2835,41.497238962,-71.372890152,413,"1 SWINBURNE STREET, JAMESTOWN, RI, 2835","Match","Exact","1 SWINBURNE ST, JAMESTOWN, RI, 02835",47348485,"L"
2414,"1 SYCAMORE LN","PISCATAWAY","NJ",8854,40.5367595820001,-74.4252792679999,414,"1 SYCAMORE LN, PISCATAWAY, NJ, 8854","Match","Exact","1 SYCAMORE LN, PISCATAWAY, NJ, 08854",60297909,"L"
2415,"1 SYLVAN COURT","NEW YORK","NY",10035,40.801555373,-73.9385917829999,415,"1 SYLVAN COURT, NEW YORK, NY, 10035","Match","Exact","1 SYLVAN CT, NEW YORK, NY, 10035",59661094,"L"
2416,"1 SYLVAN WAY","WAYLAND","MA",1778,42.361536684,-71.339423755,416,"1 SYLVAN WAY, WAYLAND, MA, 1778","Match","Exact","1 SYLVAN WAY, WAYLAND, MA, 01778",86851546,"L"
2417,"1 SYLVIA STREET","JAMAICA PLAIN","MA",2130,42.310665902,-71.1032310259999,417,"1 SYLVIA STREET, JAMAICA PLAIN, MA, 2130","Match","Exact","1 SYLVIA ST, JAMAICA PLAIN, MA, 02130",85699553,"L"
2418,"1 SYMPHONY LN","DERRY","NH",3038,42.9330533230001,-71.3125830119999,418,"1 SYMPHONY LN, DERRY, NH, 3038","Match","Exact","1 SYMPHONY LN, DERRY, NH, 03038",113720287,"R"
2419,"1 T ITAN TRACE","MANDEVILLE","LA",70448,NA,NA,419,"1 T ITAN TRACE, MANDEVILLE, LA, 70448","No_Match",NA,NA,NA,NA
2420,"1 TAFT AVENUE","ONEONTA","NY",13820,42.4589727160001,-75.052763275,420,"1 TAFT AVENUE, ONEONTA, NY, 13820","Match","Exact","1 TAFT AVE, ONEONTA, NY, 13820",125917689,"L"
2421,"1 TAFT PL","PARLIN","NJ",8859,40.473449842,-74.306316094,421,"1 TAFT PL, PARLIN, NJ, 8859","Match","Exact","1 TAFT PL, PARLIN, NJ, 08859",60283663,"L"
2422,"1 TALMAGE DRIVE","LITTLE ROCK","AR",72204,34.7238245500001,-92.353853956,422,"1 TALMAGE DRIVE, LITTLE ROCK, AR, 72204","Match","Exact","1 TALMAGE DR, LITTLE ROCK, AR, 72204",83504952,"L"
2423,"1 TAMPA GENERALCIRCLE","TAMPA","FL",33601,NA,NA,423,"1 TAMPA GENERALCIRCLE, TAMPA, FL, 33601","No_Match",NA,NA,NA,NA
2424,"1 TANGLEWOOD LANE","NORTH PROVIDENCE","RI",2904,NA,NA,424,"1 TANGLEWOOD LANE, NORTH PROVIDENCE, RI, 2904","No_Match",NA,NA,NA,NA
2425,"1 TASH CT","SACRAMENTO","CA",95831,38.4876115910001,-121.53635644,425,"1 TASH CT, SACRAMENTO, CA, 95831","Match","Exact","1 TASH CT, SACRAMENTO, CA, 95831",133364246,"L"
2426,"1 TATNUCK TERRACE","WORCESTER","MA",1602,42.2774021640001,-71.852033965,426,"1 TATNUCK TERRACE, WORCESTER, MA, 1602","Match","Exact","1 TATNUCK TER, WORCESTER, MA, 01602",40007340,"L"
2427,"1 TAYLOR CT 301","MONROE","NY",10950,41.3430208,-74.167416197,427,"1 TAYLOR CT 301, MONROE, NY, 10950","Match","Exact","1 TAYLOR CT, MONROE, NY, 10950",124401983,"R"
2428,"1 TEA ROSE CT","ST. LOUIS","MO",63126,38.55044458,-90.3749087419999,428,"1 TEA ROSE CT, ST. LOUIS, MO, 63126","Match","Exact","1 TEA ROSE CT, SAINT LOUIS, MO, 63126",604551600,"L"
2429,"1 TEACHER HOUSE LN","MONHEGAN","ME",4852,NA,NA,429,"1 TEACHER HOUSE LN, MONHEGAN, ME, 4852","No_Match",NA,NA,NA,NA
2430,"1 TEAL RD","WAKEFIELD","MA",1880,42.5181961330001,-71.045626683,430,"1 TEAL RD, WAKEFIELD, MA, 1880","Match","Exact","1 TEAL RD, WAKEFIELD, MA, 01880",86904088,"R"
2431,"1 TECHNOLOGY CT STE E","MONTGOMERY","AL",36116,32.3255666650001,-86.244346566,431,"1 TECHNOLOGY CT STE E, MONTGOMERY, AL, 36116","Match","Exact","1 TECHNOLOGY CT, MONTGOMERY, AL, 36116",611642094,"R"
2432,"1 TECHNOLOGY WAY","INDIANAPOLIS","IN",46268,39.8840354970001,-86.250573834,432,"1 TECHNOLOGY WAY, INDIANAPOLIS, IN, 46268","Match","Exact","1 TECHNOLOGY WAY, INDIANAPOLIS, IN, 46268",108025179,"R"
2433,"1 TEMPO ROAD","NEW CITY","NY",10956,41.162101851,-74.018284127,433,"1 TEMPO ROAD, NEW CITY, NY, 10956","Match","Exact","1 TEMPO RD, NEW CITY, NY, 10956",124602492,"R"
2434,"1 TENNEY HILL ROAD","DUNBARTON","NH",3046,43.1249634820001,-71.6041407279999,434,"1 TENNEY HILL ROAD, DUNBARTON, NH, 3046","Match","Exact","1 TENNEY HILL RD, DUNBARTON, NH, 03046",117724995,"R"
2435,"1 TERRY LN","JERICHO","NY",11753,NA,NA,435,"1 TERRY LN, JERICHO, NY, 11753","No_Match",NA,NA,NA,NA
2436,"1 THE DRAW BRIDGE","WOODBURY","NY",11797,40.828716318,-73.480702057,436,"1 THE DRAW BRIDGE, WOODBURY, NY, 11797","Match","Non_Exact","1 THE DRAWBRIDGE, WOODBURY, NY, 11797",147694576,"L"
2437,"1 THETFORD AVE","DORCHESTER","MA",2124,42.2860723520001,-71.079355573,437,"1 THETFORD AVE, DORCHESTER, MA, 2124","Match","Exact","1 THETFORD AVE, DORCHESTER, MA, 02124",85705702,"R"
2438,"1 THIRD STREET UNIT 306","ASTORIA","OR",97103,46.1911729990001,-123.839581755,438,"1 THIRD STREET UNIT 306, ASTORIA, OR, 97103","Match","Exact","1 3RD ST, ASTORIA, OR, 97103",159221330,"L"
2439,"1 THOMAS RD","MIRANDA","CA",95553,NA,NA,439,"1 THOMAS RD, MIRANDA, CA, 95553","No_Match",NA,NA,NA,NA
2440,"1 THOMAS STREET APARTMENT 5B","NEW YORK","NY",10007,40.715810784,-74.005066481,440,"1 THOMAS STREET APARTMENT 5B, NEW YORK, NY, 10007","Match","Exact","1 THOMAS ST, NEW YORK, NY, 10007",59660357,"R"
2441,"1 THOMPSON AVENUE","GLOUCESTER CITY","NJ",8030,39.887608949,-75.118708247,441,"1 THOMPSON AVENUE, GLOUCESTER CITY, NJ, 8030","Match","Exact","1 THOMPSON AVE, GLOUCESTER CITY, NJ, 08030",134347201,"L"
2442,"1 THORNBERRY DR","AUGUSTA","GA",30909,33.4996306790001,-82.065788229,442,"1 THORNBERRY DR, AUGUSTA, GA, 30909","Match","Exact","1 THORNBERRY DR, AUGUSTA, GA, 30909",638642467,"L"
2443,"1 THORNTON LANE","LEE","NH",3861,43.1043057620001,-71.034000475,443,"1 THORNTON LANE, LEE, NH, 3861","Match","Exact","1 THORNTON LN, LEE, NH, 03861",117818209,"L"
2444,"1 THORNTON ST","PATCHOGUE","NY",11772,40.7808825810001,-73.027200765,444,"1 THORNTON ST, PATCHOGUE, NY, 11772","Match","Exact","1 THORNTON ST, PATCHOGUE, NY, 11772",114008835,"L"
2445,"1 THORNTON STREET","PATCHOGUE","NY",11772,40.7808825810001,-73.027200765,445,"1 THORNTON STREET, PATCHOGUE, NY, 11772","Match","Exact","1 THORNTON ST, PATCHOGUE, NY, 11772",114008835,"L"
2446,"1 THOROBRED LANE","MONONGAHELA","PA",15063,NA,NA,446,"1 THOROBRED LANE, MONONGAHELA, PA, 15063","No_Match",NA,NA,NA,NA
2447,"1 THORPE AVENUE","HAMMONDSPORT","NY",14840,42.4051984990001,-77.2265666979999,447,"1 THORPE AVENUE, HAMMONDSPORT, NY, 14840","Match","Exact","1 THORPE AVE, HAMMONDSPORT, NY, 14840",14708385,"L"
2448,"1 TIBERI COURT","HAMILTON","NJ",8690,40.215693114,-74.640016314,448,"1 TIBERI COURT, HAMILTON, NJ, 8690","Match","Exact","1 TIBERI CT, HAMILTON, NJ, 08690",60187175,"R"
2449,"1 TIBERON DRIVE","HOLMDEL","NJ",7733,NA,NA,449,"1 TIBERON DRIVE, HOLMDEL, NJ, 7733","No_Match",NA,NA,NA,NA
2450,"1 TIFFANY PLACE 5B","BROOKLYN","NY",11231,40.687310256,-74.0005793019999,450,"1 TIFFANY PLACE 5B, BROOKLYN, NY, 11231","Match","Exact","1 TIFFANY PL, BROOKLYN, NY, 11231",59093740,"L"
2451,"1 TIFFANY POINTE SUITE 206","BLOOMINGDALE","IL",60108,NA,NA,451,"1 TIFFANY POINTE SUITE 206, BLOOMINGDALE, IL, 60108","No_Match",NA,NA,NA,NA
2452,"1 TIFFANY POINTE","BLOOMINGDALE","IL",60108,NA,NA,452,"1 TIFFANY POINTE, BLOOMINGDALE, IL, 60108","No_Match",NA,NA,NA,NA
2453,"1 TIGER LILY TRAIL","REHOBOTH","MA",2769,41.796823585,-71.232348227,453,"1 TIGER LILY TRAIL, REHOBOTH, MA, 2769","Match","Exact","1 TIGER LILY TRL, REHOBOTH, MA, 02769",46846241,"R"
2454,"1 TIGER WAY","ROSEVILLE","CA",95678,NA,NA,454,"1 TIGER WAY, ROSEVILLE, CA, 95678","No_Match",NA,NA,NA,NA
2455,"1 TILLMAN ST","LIBERTY","SC",29657,34.7777771240001,-82.698156152,455,"1 TILLMAN ST, LIBERTY, SC, 29657","Match","Exact","1 TILLMAN ST, LIBERTY, SC, 29657",26190104,"R"
2456,"1 TIMBER CT NW","ELKADER","IA",52043,42.8591353200001,-91.4174038039999,456,"1 TIMBER CT NW, ELKADER, IA, 52043","Match","Non_Exact","1 TIMBER CT, ELKADER, IA, 52043",48477231,"R"
2457,"1 TIMBERLANE","SPRINGFIELD","ID",62704,NA,NA,457,"1 TIMBERLANE, SPRINGFIELD, ID, 62704","No_Match",NA,NA,NA,NA
2458,"1 TIMOTHY ROAD","LAKEVILLE","MA",2347,41.810035843,-70.979676947,458,"1 TIMOTHY ROAD, LAKEVILLE, MA, 2347","Match","Exact","1 TIMOTHY RD, LAKEVILLE, MA, 02347",87463515,"L"
2459,"1 TINNEY LANE","CHARLESTON","WV",25312,NA,NA,459,"1 TINNEY LANE, CHARLESTON, WV, 25312","No_Match",NA,NA,NA,NA
2460,"1 TIPPLING ROCK ROAD","GREENVILLE","RI",2828,41.8747869800001,-71.527447275,460,"1 TIPPLING ROCK ROAD, GREENVILLE, RI, 2828","Match","Exact","1 TIPPLING ROCK RD, GREENVILLE, RI, 02828",47449872,"L"
2461,"1 TIVOLI LAKE CT","SILVER SPRING","MD",20906,39.0685305330001,-77.0338714759999,461,"1 TIVOLI LAKE CT, SILVER SPRING, MD, 20906","Match","Exact","1 TIVOLI LAKE CT, SILVER SPRING, MD, 20906",651700536,"R"
2462,"1 TOMAHAWK DRIVE","WHITE PLAINS","NY",10603,41.0515453020001,-73.78932149,462,"1 TOMAHAWK DRIVE, WHITE PLAINS, NY, 10603","Match","Exact","1 TOMAHAWK DR, WHITE PLAINS, NY, 10603",139737759,"R"
2463,"1 TOMOKA COVE WAY","ORMOND BEACH","FL",32174,29.2635258170001,-81.140220544,463,"1 TOMOKA COVE WAY, ORMOND BEACH, FL, 32174","Match","Exact","1 TOMOKA COVE WAY, ORMOND BEACH, FL, 32174",94564719,"R"
2464,"1 TOMS POINT LANE APT 1-I","PORT WASHINGTON","NY",11050,NA,NA,464,"1 TOMS POINT LANE APT 1-I, PORT WASHINGTON, NY, 11050","No_Match",NA,NA,NA,NA
2465,"1 TOP OF THE WORLD WAY","WARREN","NJ",7059,40.6071687150001,-74.4981882659999,465,"1 TOP OF THE WORLD WAY, WARREN, NJ, 7059","Match","Exact","1 TOP OF THE WORLD WAY, WARREN, NJ, 07059",59958927,"R"
2466,"1 TOP SPRING LANE","BOULDER","UT",84716,NA,NA,466,"1 TOP SPRING LANE, BOULDER, UT, 84716","No_Match",NA,NA,NA,NA
2467,"1 TORBET DRIVE","HILLSBOROUGH","NJ",8844,40.474180093,-74.6739316599999,467,"1 TORBET DRIVE, HILLSBOROUGH, NJ, 8844","Match","Non_Exact","1 TORBET RD, HILLSBOROUGH, NJ, 08844",627512330,"L"
2468,"1 TORBET ROAD","HILLSBOROUGH","NJ",8844,40.474180093,-74.6739316599999,468,"1 TORBET ROAD, HILLSBOROUGH, NJ, 8844","Match","Exact","1 TORBET RD, HILLSBOROUGH, NJ, 08844",627512330,"L"
2469,"1 TORRANCE STREET","PENN HILLS","PA",15235,NA,NA,469,"1 TORRANCE STREET, PENN HILLS, PA, 15235","No_Match",NA,NA,NA,NA
2470,"1 TORRANCE STREET","PITTSBURGH","PA",15235,NA,NA,470,"1 TORRANCE STREET, PITTSBURGH, PA, 15235","No_Match",NA,NA,NA,NA
2471,"1 TOW PATH LANE WEST","RICHMOND","VA",23221,37.540202676,-77.487880463,471,"1 TOW PATH LANE WEST, RICHMOND, VA, 23221","Match","Non_Exact","1 TOW PATH LN, RICHMOND, VA, 23221",201597464,"L"
2472,"1 TOWER DRIVE","SIMSBURY","CT",6070,NA,NA,472,"1 TOWER DRIVE, SIMSBURY, CT, 6070","No_Match",NA,NA,NA,NA
2473,"1 TOWNE CENTRE APT 920","CLIFFSIDE PARK","NJ",7010,NA,NA,473,"1 TOWNE CENTRE APT 920, CLIFFSIDE PARK, NJ, 7010","No_Match",NA,NA,NA,NA
2474,"1 TOWNE SQUARE SUITE 1700","SOUTHFIELD","MI",48076,42.4816742960001,-83.255085193,474,"1 TOWNE SQUARE SUITE 1700, SOUTHFIELD, MI, 48076","Match","Exact","1 TOWNE SQ, SOUTHFIELD, MI, 48076",69805026,"L"
2475,"1 TOWNSEND RD","NEW HAVEN","CT",6512,41.27472665,-72.89628608,475,"1 TOWNSEND RD, NEW HAVEN, CT, 6512","Match","Non_Exact","1 TOWNSEND TER, NEW HAVEN, CT, 06512",652430163,"R"
2476,"1 TREASURE LAKE","DUBOIS","PA",15801,41.158715262,-78.716719676,476,"1 TREASURE LAKE, DUBOIS, PA, 15801","Match","Exact","1 TREASURE LAKE, DUBOIS, PA, 15801",50470384,"L"
2477,"1 TREE LANE","LEVITTOWN","PA",19054,40.173268546,-74.819326589,477,"1 TREE LANE, LEVITTOWN, PA, 19054","Match","Exact","1 TREE LN, LEVITTOWN, PA, 19054",134722812,"L"
2478,"1 TRENTON STREET","PROVIDENCE","RI",2906,41.820812668,-71.39366052,478,"1 TRENTON STREET, PROVIDENCE, RI, 2906","Match","Exact","1 TRENTON ST, PROVIDENCE, RI, 02906",652774008,"R"
2479,"1 TRICOUNT COURT 2A","OWINGS MILLS","MD",21117,39.4150649650001,-76.790587514,479,"1 TRICOUNT COURT 2A, OWINGS MILLS, MD, 21117","Match","Exact","1 TRICOUNT CT, OWINGS MILLS, MD, 21117",191466001,"R"
2480,"1 TRINITY PL","SAN ANTONIO","TX",78212,29.4630513750001,-98.4813299039999,480,"1 TRINITY PL, SAN ANTONIO, TX, 78212","Match","Exact","1 TRINITY PL, SAN ANTONIO, TX, 78212",101738439,"L"
2481,"1 TRINITY WAY","SAN RAFAEL","CA",94903,38.0086462720001,-122.55420175,481,"1 TRINITY WAY, SAN RAFAEL, CA, 94903","Match","Exact","1 TRINITY WAY, SAN RAFAEL, CA, 94903",605764087,"L"
2482,"1 TRINITY WAY","SAN RAFEL","CA",94903,38.0086462720001,-122.55420175,482,"1 TRINITY WAY, SAN RAFEL, CA, 94903","Match","Non_Exact","1 TRINITY WAY, SAN RAFAEL, CA, 94903",605764087,"L"
2483,"1 TRINITY WAY","SEYMOUR","IN",47274,NA,NA,483,"1 TRINITY WAY, SEYMOUR, IN, 47274","No_Match",NA,NA,NA,NA
2484,"1 TULIP CT","OAKHURST","NJ",7755,40.2734597210001,-74.012989174,484,"1 TULIP CT, OAKHURST, NJ, 7755","Match","Exact","1 TULIP CT, OAKHURST, NJ, 07755",90461089,"L"
2485,"1 TUMBLEWEED COURT","WICHITA FALLS","TX",76310,33.848091777,-98.576310779,485,"1 TUMBLEWEED COURT, WICHITA FALLS, TX, 76310","Match","Exact","1 TUMBLEWEED CT, WICHITA FALLS, TX, 76310",169851031,"R"
2486,"1 TUMBLEWEED TER","TAYLORS","SC",29687,34.9340112180001,-82.290561461,486,"1 TUMBLEWEED TER, TAYLORS, SC, 29687","Match","Exact","1 TUMBLEWEED TER, TAYLORS, SC, 29687",38307675,"R"
2487,"1 TUPPERWARE DRIVE UNIT 220","NORTH SMITHFIELD","RI",2894,NA,NA,487,"1 TUPPERWARE DRIVE UNIT 220, NORTH SMITHFIELD, RI, 2894","No_Match",NA,NA,NA,NA
2488,"1 TURF LANE","ROSLYN HEIGHTS","NY",11577,40.7747986110001,-73.6297391269999,488,"1 TURF LANE, ROSLYN HEIGHTS, NY, 11577","Match","Exact","1 TURF LN, ROSLYN HEIGHTS, NY, 11577",147664471,"L"
2489,"1 TURKS WAY","WOBURN","MA",1801,42.483364635,-71.1250215119999,489,"1 TURKS WAY, WOBURN, MA, 1801","Match","Exact","1 TURKS WAY, WOBURN, MA, 01801",87171778,"R"
2490,"1 TURNBERRY DR","NEWPORT BEACH","CA",92660,33.631376677,-117.86895308,490,"1 TURNBERRY DR, NEWPORT BEACH, CA, 92660","Match","Exact","1 TURNBERRY DR, NEWPORT BEACH, CA, 92660",144400763,"R"
2491,"1 TURNER HILL ROAD","AVERILL PARK","NY",12018,42.561395782,-73.489864957,491,"1 TURNER HILL ROAD, AVERILL PARK, NY, 12018","Match","Exact","1 TURNER HILL RD, AVERILL PARK, NY, 12018",35726180,"R"
2492,"1 TURNER RIDGE RD","MARLBOROUGH","MA",1752,42.370733214,-71.490208884,492,"1 TURNER RIDGE RD, MARLBOROUGH, MA, 1752","Match","Exact","1 TURNER RIDGE RD, MARLBOROUGH, MA, 01752",86841799,"L"
2493,"1 TURTLE CLAN COURT","MILLSTONE TOWNSHIP","NJ",8510,40.205002897,-74.432007168,493,"1 TURTLE CLAN COURT, MILLSTONE TOWNSHIP, NJ, 8510","Match","Exact","1 TURTLE CLAN CT, MILLSTONE TOWNSHIP, NJ, 08510",617271567,"R"
2494,"1 TWILLER ST","ALBANY","NY",12009,42.637328686,-73.7774253009999,494,"1 TWILLER ST, ALBANY, NY, 12009","Match","Non_Exact","1 TWILLER ST, ALBANY, NY, 12209",18309574,"R"
2495,"1 TWIN TURNS LANE","CHADDS FORD","PA",19317,39.864734406,-75.616865863,495,"1 TWIN TURNS LANE, CHADDS FORD, PA, 19317","Match","Exact","1 TWIN TURNS LN, CHADDS FORD, PA, 19317",179517660,"R"
2496,"1 TYLER DRIVE","PRESTON","CT",6365,41.530975126,-71.969246883,496,"1 TYLER DRIVE, PRESTON, CT, 6365","Match","Exact","1 TYLER DR, PRESTON, CT, 06365",56859866,"L"
2497,"1 UNDERHILL TERRACE","RINGWOOD","NJ",7456,41.0987115730001,-74.255596069,497,"1 UNDERHILL TERRACE, RINGWOOD, NJ, 7456","Match","Exact","1 UNDERHILL TER, RINGWOOD, NJ, 07456",65254994,"L"
2498,"1 UNF DR BLDG 3 RM 2210","JACKSONVILLE","FL",32224,NA,NA,498,"1 UNF DR BLDG 3 RM 2210, JACKSONVILLE, FL, 32224","No_Match",NA,NA,NA,NA
2499,"1 UNF DR C/O MVRC BLDG 2 STE 1100","JACKONVILLE","FL",32224,NA,NA,499,"1 UNF DR C/O MVRC BLDG 2 STE 1100, JACKONVILLE, FL, 32224","No_Match",NA,NA,NA,NA
2500,"1 UNF DR C/O MVRC BLDG 2 STE 1100","JACKSONVILLE","FL",32224,NA,NA,500,"1 UNF DR C/O MVRC BLDG 2 STE 1100, JACKSONVILLE, FL, 32224","No_Match",NA,NA,NA,NA
