"ID","Address","City","State","Zip","lat","long","id","input_address","match_indicator","match_type","matched_address","tiger_line_id","tiger_side"
742501,"5839 TAFT COURT","ARVADA","CO",80004,39.8033353450001,-105.131774287,1,"5839 TAFT COURT, ARVADA, CO, 80004","Match","Exact","5839 TAFT CT, ARVADA, CO, 80004",177285054,"L"
742502,"5839 W CORNELIA AVE","CHICAGO","IL",60634,41.943980147,-87.772562309,2,"5839 W CORNELIA AVE, CHICAGO, IL, 60634","Match","Exact","5839 W CORNELIA AVE, CHICAGO, IL, 60634",111751668,"L"
742503,"5839 W PARK AVE","SAINT LOUIS","MO",63110,38.626080905,-90.2845128599999,3,"5839 W PARK AVE, SAINT LOUIS, MO, 63110","Match","Exact","5839 W PARK AVE, SAINT LOUIS, MO, 63110",107594328,"R"
742504,"5839 WILLOW BREEZE","LAKE CHARLES","LA",70605,30.1526521960001,-93.288553835,4,"5839 WILLOW BREEZE, LAKE CHARLES, LA, 70605","Match","Non_Exact","5839 WILLOW BREEZE DR, LAKE CHARLES, LA, 70605",646610018,"L"
742505,"584 ACADEMY","EDGERTON","WI",54720,NA,NA,5,"584 ACADEMY, EDGERTON, WI, 54720","No_Match",NA,NA,NA,NA
742506,"584 ADAM AVE","MEMPHIS","TN",38103,NA,NA,6,"584 ADAM AVE, MEMPHIS, TN, 38103","No_Match",NA,NA,NA,NA
742507,"584 ALABAMA AVENUE","BROOKLYN","NY",11207,40.6617065670001,-73.896170618,7,"584 ALABAMA AVENUE, BROOKLYN, NY, 11207","Match","Exact","584 ALABAMA AVE, BROOKLYN, NY, 11207",59084883,"R"
742508,"584 ANDERSON AVE   APT 2E","CLIFFSIDE PARK","NJ",7010,40.824063675,-73.988797,8,"584 ANDERSON AVE   APT 2E, CLIFFSIDE PARK, NJ, 7010","Match","Exact","584 ANDERSON AVE, CLIFFSIDE PARK, NJ, 07010",64391477,"R"
742509,"584 ANDERSON AVE APT 2F","CLIFFSIDE PARK","NJ",7010,40.824063675,-73.988797,9,"584 ANDERSON AVE APT 2F, CLIFFSIDE PARK, NJ, 7010","Match","Exact","584 ANDERSON AVE, CLIFFSIDE PARK, NJ, 07010",64391477,"R"
742510,"584 ARBORS CIRCLE","ELGIN","TX",78621,30.2931751460001,-97.3337463679999,10,"584 ARBORS CIRCLE, ELGIN, TX, 78621","Match","Exact","584 ARBORS CIR, ELGIN, TX, 78621",45480577,"L"
742511,"584 ARDEN PARK","DETROIT","MI",48202,42.388949016,-83.0767575309999,11,"584 ARDEN PARK, DETROIT, MI, 48202","Match","Non_Exact","584 ARDEN PARK BLVD, DETROIT, MI, 48202",95732696,"R"
742512,"584 AUGUSTA","NEW LENOX","IL",60451,NA,NA,12,"584 AUGUSTA, NEW LENOX, IL, 60451","No_Match",NA,NA,NA,NA
742513,"584 BALDWIN HEIGHTS CIRCLE","HOWARD","OH",43028,40.4438879840001,-82.344942482,13,"584 BALDWIN HEIGHTS CIRCLE, HOWARD, OH, 43028","Match","Exact","584 BALDWIN HEIGHTS CIR, HOWARD, OH, 43028",24635908,"L"
742514,"584 BELLA ST","SEDRO WOOLLEY","WA",98284,48.529216562,-121.989433768,14,"584 BELLA ST, SEDRO WOOLLEY, WA, 98284","Match","Exact","584 BELLA ST, SEDRO WOOLLEY, WA, 98284",183673775,"L"
742515,"584 BLENN LAKE ROAD","PARKERSBURG","WV",26101,39.2579153670001,-81.613475783,15,"584 BLENN LAKE ROAD, PARKERSBURG, WV, 26101","Match","Exact","584 BLENN LAKE RD, PARKERSBURG, WV, 26101",90888241,"R"
742516,"584 BOUNDS ROAD","BYRAM","MS",39272,32.19552322,-90.237883832,16,"584 BOUNDS ROAD, BYRAM, MS, 39272","Match","Exact","584 BOUNDS RD, BYRAM, MS, 39272",65369070,"L"
742517,"584 BRIARWOOD TERRACE","VENTURA","CA",93001,34.282824405,-119.261672889,17,"584 BRIARWOOD TERRACE, VENTURA, CA, 93001","Match","Exact","584 BRIARWOOD TER, VENTURA, CA, 93001",110025808,"R"
742518,"584 BROADWAY SUITE 608","NEW YORK","NY",10012,40.724777008,-73.9973180979999,18,"584 BROADWAY SUITE 608, NEW YORK, NY, 10012","Match","Exact","584 BROADWAY, NEW YORK, NY, 10012",59653754,"R"
742519,"584 BUCKHEAD CT","AVON LAKE","OH",44012,41.488550961,-82.004410577,19,"584 BUCKHEAD CT, AVON LAKE, OH, 44012","Match","Non_Exact","584 BUCKHEAD, AVON LAKE, OH, 44012",617592885,"L"
742520,"584 CASTRO STREET 233","SAN FRANCISCO","CA",94114,37.75945147,-122.434874581,20,"584 CASTRO STREET 233, SAN FRANCISCO, CA, 94114","Match","Exact","584 CASTRO ST, SAN FRANCISCO, CA, 94114",192283648,"R"
742521,"584 CASTRO STREET 3024","SAN FRANCISCO","CA",94114,37.75945147,-122.434874581,21,"584 CASTRO STREET 3024, SAN FRANCISCO, CA, 94114","Match","Exact","584 CASTRO ST, SAN FRANCISCO, CA, 94114",192283648,"R"
742522,"584 CASTRO STREET APT 139","SAN FRANCISCO","CA",94114,37.75945147,-122.434874581,22,"584 CASTRO STREET APT 139, SAN FRANCISCO, CA, 94114","Match","Exact","584 CASTRO ST, SAN FRANCISCO, CA, 94114",192283648,"R"
742523,"584 CASTRO STREET NUMBER 624","SAN FRANCISCO","CA",94114,37.75945147,-122.434874581,23,"584 CASTRO STREET NUMBER 624, SAN FRANCISCO, CA, 94114","Match","Exact","584 CASTRO ST, SAN FRANCISCO, CA, 94114",192283648,"R"
742524,"584 CASTRO STREET SUITE 404","SAN FRANCISCO","CA",94114,37.75945147,-122.434874581,24,"584 CASTRO STREET SUITE 404, SAN FRANCISCO, CA, 94114","Match","Exact","584 CASTRO ST, SAN FRANCISCO, CA, 94114",192283648,"R"
742525,"584 CLUB ROAD","CAMDEN","AR",71701,33.527595863,-92.841071674,25,"584 CLUB ROAD, CAMDEN, AR, 71701","Match","Non_Exact","584 CLUB RD SW, CAMDEN, AR, 71701",610625686,"R"
742526,"584 CONVERSE AVENUE","CLAREMONT","CA",91711,34.085577464,-117.711351132,26,"584 CONVERSE AVENUE, CLAREMONT, CA, 91711","Match","Exact","584 CONVERSE AVE, CLAREMONT, CA, 91711",141734775,"L"
742527,"584 COUNTY LINE RD WEST","WESTERVILLE","OH",43082,40.137343032,-82.949686863,27,"584 COUNTY LINE RD WEST, WESTERVILLE, OH, 43082","Match","Exact","584 COUNTY LINE RD W, WESTERVILLE, OH, 43082",24610981,"R"
742528,"584 DEERFIELD RD","GRETNA","LA",70056,29.904192725,-90.0273840519999,28,"584 DEERFIELD RD, GRETNA, LA, 70056","Match","Exact","584 DEERFIELD RD, GRETNA, LA, 70056",93508149,"R"
742529,"584 E 100 S","SPANISH FORK","UT",84660,40.108397536,-111.644521853,29,"584 E 100 S, SPANISH FORK, UT, 84660","Match","Exact","584 E 100 S, SPANISH FORK, UT, 84660",134199077,"L"
742530,"584 E 700 N","OGDEN","UT",84404,41.2706775980001,-111.964404178,30,"584 E 700 N, OGDEN, UT, 84404","Match","Exact","584 E 700 N, OGDEN, UT, 84404",155717021,"R"
742531,"584 E BULLARD","CLOVIS","CA",93710,NA,NA,31,"584 E BULLARD, CLOVIS, CA, 93710","No_Match",NA,NA,NA,NA
742532,"584 E CREST RIDGE DR","MERIDIAN","ID",83642,43.566285124,-116.386756461,32,"584 E CREST RIDGE DR, MERIDIAN, ID, 83642","Match","Exact","584 E CREST RIDGE DR, MERIDIAN, ID, 83642",648979510,"L"
742533,"584 E MOLER","COLUMBUS","OH",43207,39.934534437,-82.9803381199999,33,"584 E MOLER, COLUMBUS, OH, 43207","Match","Non_Exact","584 E MOLER ST, COLUMBUS, OH, 43207",135585616,"L"
742534,"584 EAGLES VIEW","LANCASTER","PA",17601,40.0563586000001,-76.4161742379999,34,"584 EAGLES VIEW, LANCASTER, PA, 17601","Match","Exact","584 EAGLES VW, LANCASTER, PA, 17601",624498293,"R"
742535,"584 EAST FRONT STREET BOX 186","PEMBERVILLE","OH",43450,41.414942029,-83.449770652,35,"584 EAST FRONT STREET BOX 186, PEMBERVILLE, OH, 43450","Match","Exact","584 E FRONT ST, PEMBERVILLE, OH, 43450",38718515,"R"
742536,"584 EDEN BAY DRIVE","EDDYVILLE","KY",43038,37.023373442,-88.0415430589999,36,"584 EDEN BAY DRIVE, EDDYVILLE, KY, 43038","Match","Non_Exact","584 EDEN BAY DR, EDDYVILLE, KY, 42038",625200590,"R"
742537,"584 EPIRUS HILL RD","SOUTH ABINGTON TWP","PA",18411,41.505613107,-75.682142319,37,"584 EPIRUS HILL RD, SOUTH ABINGTON TWP, PA, 18411","Match","Exact","584 EPIRUS HILL, SOUTH ABINGTON TOWNSHIP, PA, 18411",139341134,"L"
742538,"584 FELDER ST","ORANGEBURG","SC",29115,33.5137359400001,-80.837955079,38,"584 FELDER ST, ORANGEBURG, SC, 29115","Match","Exact","584 FELDER ST, ORANGEBURG, SC, 29115",19248921,"L"
742539,"584 GUNSTON COURT","DAVENPORT","FL",33837,28.2238900200001,-81.56035064,39,"584 GUNSTON COURT, DAVENPORT, FL, 33837","Match","Exact","584 GUNSTON CT, DAVENPORT, FL, 33837",618500030,"R"
742540,"584 HALSEY AVENUE SE","BUFFALO","MN",55313,45.1432962550001,-93.7433014009999,40,"584 HALSEY AVENUE SE, BUFFALO, MN, 55313","Match","Exact","584 HALSEY AVE SE, BUFFALO, MN, 55313",646256538,"R"
742541,"584 HAMMOND STREET","BANGOR","ME",4401,44.7997398900001,-68.791705727,41,"584 HAMMOND STREET, BANGOR, ME, 4401","Match","Exact","584 HAMMOND ST, BANGOR, ME, 04401",123628776,"L"
742542,"584 HARRISWOOD CT","DAVENPORT","FL",33837,28.226722146,-81.562246892,42,"584 HARRISWOOD CT, DAVENPORT, FL, 33837","Match","Exact","584 HARRISWOOD CT, DAVENPORT, FL, 33837",631840205,"R"
742543,"584 HAWKINS-FUCHS ROAD","ST LOUIS","MO",63129,NA,NA,43,"584 HAWKINS-FUCHS ROAD, ST LOUIS, MO, 63129","No_Match",NA,NA,NA,NA
742544,"584 HEDDEN AVE","AKRON","OH",44311,41.0636713270001,-81.506704197,44,"584 HEDDEN AVE, AKRON, OH, 44311","Match","Exact","584 HEDDEN AVE, AKRON, OH, 44311",61350078,"R"
742545,"584 HORSE FERRY RD","LAWRENCEVILLE","GA",30044,33.8893816840001,-84.0760257919999,45,"584 HORSE FERRY RD, LAWRENCEVILLE, GA, 30044","Match","Non_Exact","584 HORSE FERRY RD SW, LAWRENCEVILLE, GA, 30044",88901068,"R"
742546,"584 HUNTERS DRIVE EAST UNIT C","CARMEL","IN",46032,NA,NA,46,"584 HUNTERS DRIVE EAST UNIT C, CARMEL, IN, 46032","Tie",NA,NA,NA,NA
742547,"584 HWY 806","EOLIA","KY",40826,NA,NA,47,"584 HWY 806, EOLIA, KY, 40826","Tie",NA,NA,NA,NA
742548,"584 INVERNESS DRIVE","PACIFICA","CA",94044,37.64707973,-122.474293508,48,"584 INVERNESS DRIVE, PACIFICA, CA, 94044","Match","Exact","584 INVERNESS DR, PACIFICA, CA, 94044",192369411,"R"
742549,"584 KAANINI ST","HILO","HI",96720,19.708773179,-155.093295684,49,"584 KAANINI ST, HILO, HI, 96720","Match","Exact","584 KAANINI ST, HILO, HI, 96720",203001624,"L"
742550,"584 LLOYD ROAD","EUCLID","OH",44132,41.6192170530001,-81.489580367,50,"584 LLOYD ROAD, EUCLID, OH, 44132","Match","Exact","584 LLOYD RD, EUCLID, OH, 44132",61133080,"R"
742551,"584 LOCUST AVE","WASHINGTON","PA",15301,40.1853613480001,-80.241961783,51,"584 LOCUST AVE, WASHINGTON, PA, 15301","Match","Exact","584 LOCUST AVE, WASHINGTON, PA, 15301",52803218,"L"
742552,"584 LOUISIANA DR","RAEFORD","NC",28376,34.9972370180001,-79.1053858619999,52,"584 LOUISIANA DR, RAEFORD, NC, 28376","Match","Exact","584 LOUISIANA DR, RAEFORD, NC, 28376",76192206,"L"
742553,"584 MAIN STREET","SAINT HELENA","CA",94574,NA,NA,53,"584 MAIN STREET, SAINT HELENA, CA, 94574","No_Match",NA,NA,NA,NA
742554,"584 N 3RD W","RIGBY","ID",83442,43.68237844,-111.923472928,54,"584 N 3RD W, RIGBY, ID, 83442","Match","Exact","584 N 3RD W, RIGBY, ID, 83442",119305665,"R"
742555,"584 N DAYBREAK DR","ST GEORGE","UT",84770,37.1188441730001,-113.625062367,55,"584 N DAYBREAK DR, ST GEORGE, UT, 84770","Match","Exact","584 N DAYBREAK DR, SAINT GEORGE, UT, 84770",166178681,"L"
742556,"584 N PICKAWAY ST","WAVERLY","OH",43113,39.6091415510001,-82.938277113,56,"584 N PICKAWAY ST, WAVERLY, OH, 43113","Match","Non_Exact","584 N PICKAWAY ST, CIRCLEVILLE, OH, 43113",37448715,"R"
742557,"584 NW 30 ST","MIAMI","FL",33127,25.804573094,-80.2048814729999,57,"584 NW 30 ST, MIAMI, FL, 33127","Match","Exact","584 NW 30TH ST, MIAMI, FL, 33127",116017232,"L"
742558,"584 OLD POST RD","TOLLAND","CT",6084,41.8613793050001,-72.410097357,58,"584 OLD POST RD, TOLLAND, CT, 6084","Match","Exact","584 OLD POST RD, TOLLAND, CT, 06084",625497541,"R"
742559,"584 OTTER WAY","FREDERICA","DE",19946,NA,NA,59,"584 OTTER WAY, FREDERICA, DE, 19946","No_Match",NA,NA,NA,NA
742560,"584 PASTURE BROOK RD","SEVERN","MD",21144,39.121210654,-76.661133897,60,"584 PASTURE BROOK RD, SEVERN, MD, 21144","Match","Exact","584 PASTURE BROOK RD, SEVERN, MD, 21144",68202818,"R"
742561,"584 PAYTON HOLLOW RD","CUB RUN","KY",42729,37.259987745,-86.0709317659999,61,"584 PAYTON HOLLOW RD, CUB RUN, KY, 42729","Match","Exact","584 PAYTON HOLLOW RD, CUB RUN, KY, 42729",635469157,"L"
742562,"584 PENELOPE PL NE","CONCORD","NC",28025,35.4297897110001,-80.589239044,62,"584 PENELOPE PL NE, CONCORD, NC, 28025","Match","Exact","584 PENELOPE PL NE, CONCORD, NC, 28025",24903051,"R"
742563,"584 POTOMAC AVENUE","BUFFALO","NY",14222,42.924200742,-78.877601638,63,"584 POTOMAC AVENUE, BUFFALO, NY, 14222","Match","Exact","584 POTOMAC AVE, BUFFALO, NY, 14222",48289137,"L"
742564,"584 RICHARDS RD","COLUMBUS","OH",43214,40.0394513900001,-83.002721983,64,"584 RICHARDS RD, COLUMBUS, OH, 43214","Match","Exact","584 RICHARDS RD, COLUMBUS, OH, 43214",218693816,"L"
742565,"584 RICHARDS ROAD","COLUMBUS","OH",43214,40.0394513900001,-83.002721983,65,"584 RICHARDS ROAD, COLUMBUS, OH, 43214","Match","Exact","584 RICHARDS RD, COLUMBUS, OH, 43214",218693816,"L"
742566,"584 RICHLAND ROAD","BLAINE","TN",37709,36.1318566360001,-83.6793528219999,66,"584 RICHLAND ROAD, BLAINE, TN, 37709","Match","Exact","584 RICHLAND RD, BLAINE, TN, 37709",41783241,"L"
742567,"584 ROCKDALE AVE","NEW BEDFORD","MA",2740,41.627698906,-70.9472592779999,67,"584 ROCKDALE AVE, NEW BEDFORD, MA, 2740","Match","Exact","584 ROCKDALE AVE, NEW BEDFORD, MA, 02740",46751941,"R"
742568,"584 S CAMILLA ST","MEMPHIS","TN",38104,35.1303110000001,-90.027296588,68,"584 S CAMILLA ST, MEMPHIS, TN, 38104","Match","Exact","584 S CAMILLA ST, MEMPHIS, TN, 38104",607429628,"L"
742569,"584 S STATE ST / SUITE 501","OREM","UT",84058,40.2864212320001,-111.690310441,69,"584 S STATE ST / SUITE 501, OREM, UT, 84058","Match","Non_Exact","584 S STATE ST, OREM, UT, 84058",651132562,"R"
742570,"584 S STATE ST/ SUITE 501","OREM","UT",84058,NA,NA,70,"584 S STATE ST/ SUITE 501, OREM, UT, 84058","No_Match",NA,NA,NA,NA
742571,"584 S STATE ST/SUITE 501","OREM","UT",84058,NA,NA,71,"584 S STATE ST/SUITE 501, OREM, UT, 84058","No_Match",NA,NA,NA,NA
742572,"584 S W 5TH TREET APARTMENT 1","BELLE GLADE","FL",33430,NA,NA,72,"584 S W 5TH TREET APARTMENT 1, BELLE GLADE, FL, 33430","No_Match",NA,NA,NA,NA
742573,"584 SARATOGA","AURORA","IL",60502,41.763052063,-88.248223894,73,"584 SARATOGA, AURORA, IL, 60502","Match","Non_Exact","584 SARATOGA DR, AURORA, IL, 60502",112687364,"R"
742574,"584 SCHILLER AVE","AKRON","OH",44310,41.1012349590001,-81.5138593409999,74,"584 SCHILLER AVE, AKRON, OH, 44310","Match","Exact","584 SCHILLER AVE, AKRON, OH, 44310",61340928,"L"
742575,"584 SEAGIRT STREET","PITTSBURGH","PA",15221,40.4519795030001,-79.87921109,75,"584 SEAGIRT STREET, PITTSBURGH, PA, 15221","Match","Exact","584 SEAGIRT ST, PITTSBURGH, PA, 15221",51648335,"R"
742576,"584 SHADOW VALLEY COURT","LITHONIA","GA",30058,33.767768286,-84.1361904949999,76,"584 SHADOW VALLEY COURT, LITHONIA, GA, 30058","Match","Exact","584 SHADOW VALLEY CT, LITHONIA, GA, 30058",619387911,"L"
742577,"584 SHAWNEE RUN","TAYLORSVILLE","KY",40071,38.081697579,-85.247860752,77,"584 SHAWNEE RUN, TAYLORSVILLE, KY, 40071","Match","Exact","584 SHAWNEE RUN, TAYLORSVILLE, KY, 40071",634048644,"R"
742578,"584 SHERMAN STREET","TECUMSEH","NE",68450,40.373531337,-96.1917345699999,78,"584 SHERMAN STREET, TECUMSEH, NE, 68450","Match","Exact","584 SHERMAN ST, TECUMSEH, NE, 68450",32447548,"R"
742579,"584 SPARKS AVENUE","TWIN FALLS","ID",83301,NA,NA,79,"584 SPARKS AVENUE, TWIN FALLS, ID, 83301","No_Match",NA,NA,NA,NA
742580,"584 STARK ROAD","CLOQUET","MN",55720,46.7501348110001,-92.465838963,80,"584 STARK ROAD, CLOQUET, MN, 55720","Match","Exact","584 STARK RD, CLOQUET, MN, 55720",632008776,"L"
742581,"584 STORRS ROAD","MANSFIELD CENTER","CT",6250,41.766959376,-72.199490364,81,"584 STORRS ROAD, MANSFIELD CENTER, CT, 6250","Match","Exact","584 STORRS RD, MANSFIELD CENTER, CT, 06250",56992945,"R"
742582,"584 TETON CANYON ROAD","CHOTEAU","MT",59422,47.8871874440001,-112.398615434,82,"584 TETON CANYON ROAD, CHOTEAU, MT, 59422","Match","Exact","584 TETON CANYON RD, CHOTEAU, MT, 59422",624759128,"R"
742583,"584 THE BOULEVARD","NEWNAN","GA",30263,33.412369519,-84.796893142,83,"584 THE BOULEVARD, NEWNAN, GA, 30263","Match","Exact","584 THE BOULEVARD, NEWNAN, GA, 30263",9344915,"L"
742584,"584 TILLMAN STREET","HILLSIDE","NJ",7205,40.7006059570001,-74.242488039,84,"584 TILLMAN STREET, HILLSIDE, NJ, 7205","Match","Exact","584 TILLMAN ST, HILLSIDE, NJ, 07205",60577293,"L"
742585,"584 VERDAE DRIVE","SPARTANBURG","SC",29301,34.91840839,-82.023314962,85,"584 VERDAE DRIVE, SPARTANBURG, SC, 29301","Match","Exact","584 VERDAE DR, SPARTANBURG, SC, 29301",628039730,"L"
742586,"584 VZCR 3421","WILLS POINT","TX",75169,NA,NA,86,"584 VZCR 3421, WILLS POINT, TX, 75169","No_Match",NA,NA,NA,NA
742587,"584 W BROAD ST","COLUMBUS","OH",43215,39.9603009080001,-83.0162529039999,87,"584 W BROAD ST, COLUMBUS, OH, 43215","Match","Exact","584 W BROAD ST, COLUMBUS, OH, 43215",135576207,"R"
742588,"584 WASHINGTON AVENUE APT 3","BROOKLYN","NY",11238,40.6824051290001,-73.9646751929999,88,"584 WASHINGTON AVENUE APT 3, BROOKLYN, NY, 11238","Match","Exact","584 WASHINGTON AVE, BROOKLYN, NY, 11238",59077996,"R"
742589,"584 WEST BROAD STREET","COLUMBUS","OH",43215,39.9603049340001,-83.016220956,89,"584 WEST BROAD STREET, COLUMBUS, OH, 43215","Match","Exact","584 W BROAD ST, COLUMBUS, OH, 43215",135576207,"R"
742590,"5840 15TH AVE","SACRAMENTO","CA",95820,38.5386330700001,-121.437709175,90,"5840 15TH AVE, SACRAMENTO, CA, 95820","Match","Exact","5840 15TH AVE, SACRAMENTO, CA, 95820",133336351,"R"
742591,"5840 AUTUMN DAMASK ST","LAS VEGAS","NV",89081,36.2666104360001,-115.101470971,91,"5840 AUTUMN DAMASK ST, LAS VEGAS, NV, 89081","Match","Non_Exact","5840 AUTUMN DAMASK ST, N LAS VEGAS, NV, 89081",626862059,"R"
742592,"5840 BEAVER RUN LN","KNOXVILLE","TN",37931,35.977836315,-84.069363188,92,"5840 BEAVER RUN LN, KNOXVILLE, TN, 37931","Match","Exact","5840 BEAVER RUN LN, KNOXVILLE, TN, 37931",635224311,"L"
742593,"5840 BENNER STREET UNIT 307","LOS ANGELES","CA",90042,34.107452972,-118.189727089,93,"5840 BENNER STREET UNIT 307, LOS ANGELES, CA, 90042","Match","Exact","5840 BENNER ST, LOS ANGELES, CA, 90042",638619270,"R"
742594,"5840 BENT PINE DR","VERO BEACH","FL",32967,27.6983778960001,-80.425762452,94,"5840 BENT PINE DR, VERO BEACH, FL, 32967","Match","Exact","5840 BENT PINE DR, VERO BEACH, FL, 32967",120338946,"R"
742595,"5840 BUCKNELL AVE","NORTH HOLLYWOOD","CA",91601,34.1759656630001,-118.391841798,95,"5840 BUCKNELL AVE, NORTH HOLLYWOOD, CA, 91601","Match","Non_Exact","5840 BUCKNELL AVE, N HOLLYWOOD, CA, 91607",141779497,"R"
742596,"5840 CABOOSE AVE","RAVENEL","SC",29470,32.7848664790001,-80.144551592,96,"5840 CABOOSE AVE, RAVENEL, SC, 29470","Match","Exact","5840 CABOOSE AVE, RAVENEL, SC, 29470",108893111,"R"
742597,"5840 CALUMET CT","CRESTVIEW","FL",32536,30.79953642,-86.575082819,97,"5840 CALUMET CT, CRESTVIEW, FL, 32536","Match","Exact","5840 CALUMET CT, CRESTVIEW, FL, 32536",74419640,"L"
742598,"5840 CAMERON RUN TER  UNIT 1632","ALEXANDRIA","VA",22303,38.792493279,-77.061793597,98,"5840 CAMERON RUN TER  UNIT 1632, ALEXANDRIA, VA, 22303","Match","Exact","5840 CAMERON RUN TER, ALEXANDRIA, VA, 22303",650110868,"L"
742599,"5840 CAMERON RUN TER SUITE 1622","ALEXANDRIA","VA",22303,38.792493279,-77.061793597,99,"5840 CAMERON RUN TER SUITE 1622, ALEXANDRIA, VA, 22303","Match","Exact","5840 CAMERON RUN TER, ALEXANDRIA, VA, 22303",650110868,"L"
742600,"5840 CAMERON RUN TER UNIT 1632","ALEXANDRIA","VA",22303,38.792493279,-77.061793597,100,"5840 CAMERON RUN TER UNIT 1632, ALEXANDRIA, VA, 22303","Match","Exact","5840 CAMERON RUN TER, ALEXANDRIA, VA, 22303",650110868,"L"
742601,"5840 CAMERON RUN TERR APT 814","ALEXANDRIA","VA",22303,38.792493279,-77.061793597,101,"5840 CAMERON RUN TERR APT 814, ALEXANDRIA, VA, 22303","Match","Exact","5840 CAMERON RUN TER, ALEXANDRIA, VA, 22303",650110868,"L"
742602,"5840 CANTON STREET SOUTH","ST PETERSBURG","FL",33712,27.714277135,-82.672581572,102,"5840 CANTON STREET SOUTH, ST PETERSBURG, FL, 33712","Match","Exact","5840 CANTON ST S, SAINT PETERSBURG, FL, 33712",124749699,"R"
742603,"5840 DOG BRANCH HOLLOW","HORNBEAK","TN",38232,36.3469638180001,-89.3626099749999,103,"5840 DOG BRANCH HOLLOW, HORNBEAK, TN, 38232","Match","Non_Exact","5840 DOG BRANCH HOLLOW RD, HORNBEAK, TN, 38232",30896084,"L"
742604,"5840 E VIA CABALLOS","PARADISE VALLEY","AZ",85253,NA,NA,104,"5840 E VIA CABALLOS, PARADISE VALLEY, AZ, 85253","No_Match",NA,NA,NA,NA
742605,"5840 FOREST CREEK DRIVE","EAST AMHERST","NY",14051,43.006503981,-78.689626312,105,"5840 FOREST CREEK DRIVE, EAST AMHERST, NY, 14051","Match","Exact","5840 FOREST CREEK DR, EAST AMHERST, NY, 14051",48348605,"R"
742606,"5840 GULFTON STREET 1735","HOUSTON","TX",77081,29.7164510760001,-95.4835623609999,106,"5840 GULFTON STREET 1735, HOUSTON, TX, 77081","Match","Exact","5840 GULFTON ST, HOUSTON, TX, 77081",96614912,"R"
742607,"5840 HADDINGTON DRIVE","CHARLOTTE","NC",28215,35.256558173,-80.748166812,107,"5840 HADDINGTON DRIVE, CHARLOTTE, NC, 28215","Match","Exact","5840 HADDINGTON DR, CHARLOTTE, NC, 28215",70481765,"R"
742608,"5840 HADFIELD ST","PHILADELPHIA","PA",19143,39.9404122760001,-75.234993822,108,"5840 HADFIELD ST, PHILADELPHIA, PA, 19143","Match","Exact","5840 HADFIELD ST, PHILADELPHIA, PA, 19143",131399398,"L"
742609,"5840 HILL SIDE DR","LEWISTON","MI",49756,44.85258937,-84.309649397,109,"5840 HILL SIDE DR, LEWISTON, MI, 49756","Match","Non_Exact","5840 HILLSIDE DR, LEWISTON, MI, 49756",135993314,"R"
742610,"5840 HOPPER RD","BURLESON","TX",76028,32.5689603880001,-97.218810983,110,"5840 HOPPER RD, BURLESON, TX, 76028","Match","Exact","5840 HOPPER RD, BURLESON, TX, 76028",101930078,"R"
742611,"5840 ISLETA BLVD SW","ALBUQUERQUE","NM",87109,34.9953931920001,-106.693759223,111,"5840 ISLETA BLVD SW, ALBUQUERQUE, NM, 87109","Match","Non_Exact","5840 ISLETA BLVD SW, ALBUQUERQUE, NM, 87105",206722155,"L"
742612,"5840 JADE CT","MIDLOTHIAN","TX",76065,32.5119129610001,-96.919652341,112,"5840 JADE CT, MIDLOTHIAN, TX, 76065","Match","Exact","5840 JADE CT, MIDLOTHIAN, TX, 76065",616468464,"L"
742613,"5840 JEWELL RD","GRAHAM","NC",27253,35.933451878,-79.36092861,113,"5840 JEWELL RD, GRAHAM, NC, 27253","Match","Exact","5840 JEWELL RD, GRAHAM, NC, 27253",71725074,"R"
742614,"5840 LAKESIDE MANOR AVE","INDIANAPOLIS","IN",46254,39.8463252230001,-86.2636590119999,114,"5840 LAKESIDE MANOR AVE, INDIANAPOLIS, IN, 46254","Match","Exact","5840 LAKESIDE MANOR AVE, INDIANAPOLIS, IN, 46254",108040658,"R"
742615,"5840 LENOX ROAD","LISLE","IL",60532,41.7788714500001,-88.069783085,115,"5840 LENOX ROAD, LISLE, IL, 60532","Match","Exact","5840 LENOX RD, LISLE, IL, 60532",112538375,"R"
742616,"5840 LOCH POINTE LOOP ROAD","RALEIGH","NC",27604,NA,NA,116,"5840 LOCH POINTE LOOP ROAD, RALEIGH, NC, 27604","No_Match",NA,NA,NA,NA
742617,"5840 LORENZO DR","GRAND PRAIRIE","TX",75052,32.628815488,-97.057006385,117,"5840 LORENZO DR, GRAND PRAIRIE, TX, 75052","Match","Exact","5840 LORENZO DR, GRAND PRAIRIE, TX, 75052",648465998,"L"
742618,"5840 MARLOW DRIVE","EAST SYRACUSE","NY",13057,43.0516074700001,-76.0251632769999,118,"5840 MARLOW DRIVE, EAST SYRACUSE, NY, 13057","Match","Exact","5840 MARLOW DR, EAST SYRACUSE, NY, 13057",46623449,"R"
742619,"5840 N CANTON CENTER RD STE 270","CANTON","MI",48187,42.3245412420001,-83.48806017,119,"5840 N CANTON CENTER RD STE 270, CANTON, MI, 48187","Match","Non_Exact","5840 N CANTON CENTER RD, CANTON, MI, 48187",95688310,"R"
742620,"5840 N DAUGHTERY RD","LAKELAND","FL",33809,28.120088541,-81.9565042259999,120,"5840 N DAUGHTERY RD, LAKELAND, FL, 33809","Match","Exact","5840 N DAUGHTERY RD, LAKELAND, FL, 33809",104807479,"L"
742621,"5840 N WILLOW BEND","MORGAN","UT",84050,41.1432764040001,-111.769238996,121,"5840 N WILLOW BEND, MORGAN, UT, 84050","Match","Non_Exact","5840 WILLOWBEND, MORGAN, UT, 84050",624736756,"L"
742622,"5840 NATURE TERRACE COVE","TAMPA","FL",33617,NA,NA,122,"5840 NATURE TERRACE COVE, TAMPA, FL, 33617","No_Match",NA,NA,NA,NA
742623,"5840 NAUGHTOR AVENUE NE","SAINT MICHAEL","MN",55376,45.236166294,-93.615294987,123,"5840 NAUGHTOR AVENUE NE, SAINT MICHAEL, MN, 55376","Match","Exact","5840 NAUGHTOR AVE NE, SAINT MICHAEL, MN, 55376",43999591,"L"
742624,"5840 NORTH 45TH PLACE","PHOENIX","AZ",85018,33.521110333,-111.983244103,124,"5840 NORTH 45TH PLACE, PHOENIX, AZ, 85018","Match","Exact","5840 N 45TH PL, PHOENIX, AZ, 85018",128220040,"L"
742625,"5840 NW 31ST AVE","MIAMI","FL",33142,25.8277858810001,-80.247085332,125,"5840 NW 31ST AVE, MIAMI, FL, 33142","Match","Exact","5840 NW 31ST AVE, MIAMI, FL, 33142",116001730,"L"
742626,"5840 NW 52ND STREET","JOHNSTON","IA",50131,41.668299733,-93.689727509,126,"5840 NW 52ND STREET, JOHNSTON, IA, 50131","Match","Exact","5840 NW 52ND ST, JOHNSTON, IA, 50131",641716843,"R"
742627,"5840 PLUNKETT LN","KELSEYVILLE","CA",95451,38.9683147280001,-122.86317213,127,"5840 PLUNKETT LN, KELSEYVILLE, CA, 95451","Match","Exact","5840 PLUNKETT LN, KELSEYVILLE, CA, 95451",67063315,"R"
742628,"5840 QUAIL AVENUE NORTH","CRYSTAL","MN",55429,45.059023698,-93.343527291,128,"5840 QUAIL AVENUE NORTH, CRYSTAL, MN, 55429","Match","Exact","5840 QUAIL AVE N, CRYSTAL, MN, 55429",43615156,"R"
742629,"5840 RED APPLE RIDGE","COLUMBUS","OH",43232,39.9437619930001,-82.843179353,129,"5840 RED APPLE RIDGE, COLUMBUS, OH, 43232","Match","Exact","5840 RED APPLE RIDGE, COLUMBUS, OH, 43232",135601651,"L"
742630,"5840 RED BUG LAKE RD 1573","WINTER SPRINGS","FL",32708,28.6476757390001,-81.267114271,130,"5840 RED BUG LAKE RD 1573, WINTER SPRINGS, FL, 32708","Match","Exact","5840 RED BUG LAKE RD, WINTER SPRINGS, FL, 32708",652700541,"R"
742631,"5840 RED BUG LAKE RD NO- 375","WINTER SPRINGS","FL",32708,28.6476757390001,-81.267114271,131,"5840 RED BUG LAKE RD NO- 375, WINTER SPRINGS, FL, 32708","Match","Non_Exact","5840 RED BUG LAKE RD, WINTER SPRINGS, FL, 32708",652700541,"R"
742632,"5840 RED BUG LAKE RD SUITE 5","WINTER SPRINGS","FL",32708,28.6476757390001,-81.267114271,132,"5840 RED BUG LAKE RD SUITE 5, WINTER SPRINGS, FL, 32708","Match","Exact","5840 RED BUG LAKE RD, WINTER SPRINGS, FL, 32708",652700541,"R"
742633,"5840 RED BUG LAKE RD UNIT 385","WINTER SPRINGS","FL",32708,28.6476757390001,-81.267114271,133,"5840 RED BUG LAKE RD UNIT 385, WINTER SPRINGS, FL, 32708","Match","Exact","5840 RED BUG LAKE RD, WINTER SPRINGS, FL, 32708",652700541,"R"
742634,"5840 RED BUG LAKE ROAD SUITE 1536","WINTER SPRINGS","FL",32708,28.6476757390001,-81.267114271,134,"5840 RED BUG LAKE ROAD SUITE 1536, WINTER SPRINGS, FL, 32708","Match","Exact","5840 RED BUG LAKE RD, WINTER SPRINGS, FL, 32708",652700541,"R"
742635,"5840 RED BUG LAKE ROAD UNIT 1571","WINTER SPRINGS","FL",32708,28.6476757390001,-81.267114271,135,"5840 RED BUG LAKE ROAD UNIT 1571, WINTER SPRINGS, FL, 32708","Match","Exact","5840 RED BUG LAKE RD, WINTER SPRINGS, FL, 32708",652700541,"R"
742636,"5840 RIDGE LANE","RENO","NV",89523,39.5330949250001,-119.879174205,136,"5840 RIDGE LANE, RENO, NV, 89523","Match","Exact","5840 RIDGE LN, RENO, NV, 89523",107088092,"R"
742637,"5840 S  GOLDSMITH PLACE","GREENWOOD VILLAGE","CO",80111,39.6108853040001,-104.880051845,137,"5840 S  GOLDSMITH PLACE, GREENWOOD VILLAGE, CO, 80111","Match","Exact","5840 S GOLDSMITH PL, GREENWOOD VILLAGE, CO, 80111",177347113,"L"
742638,"5840 S MEMORIAL SUITE 300","TULSA","OK",74153,NA,NA,138,"5840 S MEMORIAL SUITE 300, TULSA, OK, 74153","No_Match",NA,NA,NA,NA
742639,"5840 S WHIPPLE","CHICAGO","IL",60629,41.787100321,-87.699718989,139,"5840 S WHIPPLE, CHICAGO, IL, 60629","Match","Non_Exact","5840 S WHIPPLE ST, CHICAGO, IL, 60629",605306574,"R"
742640,"5840 SAN FELIPE ST","HOUSTON","TX",77057,29.750036735,-95.4836600799999,140,"5840 SAN FELIPE ST, HOUSTON, TX, 77057","Match","Exact","5840 SAN FELIPE ST, HOUSTON, TX, 77057",96620240,"R"
742641,"5840 SAN FELIPE","HOUSTON","TX",77057,29.750036735,-95.4836600799999,141,"5840 SAN FELIPE, HOUSTON, TX, 77057","Match","Non_Exact","5840 SAN FELIPE ST, HOUSTON, TX, 77057",96620240,"R"
742642,"5840 SE 56TH STREET","CARLISLE","IA",50047,41.5305319780001,-93.500730778,142,"5840 SE 56TH STREET, CARLISLE, IA, 50047","Match","Exact","5840 SE 56TH ST, CARLISLE, IA, 50047",625302897,"R"
742643,"5840 SPRING VALLEY RD","DALLAS","TX",75254,32.93865886,-96.80778614,143,"5840 SPRING VALLEY RD, DALLAS, TX, 75254","Match","Exact","5840 SPRING VALLEY RD, DALLAS, TX, 75254",103251030,"R"
742644,"5840 SW 113TH PLACE","WEBSTER","FL",33597,28.590711959,-82.200808545,144,"5840 SW 113TH PLACE, WEBSTER, FL, 33597","Match","Exact","5840 SW 113TH PL, WEBSTER, FL, 33597",634059440,"L"
742645,"5840 TIMER RIDGE ROAD","STURGEON BAY","WI",54235,44.8656948780001,-87.3586926409999,145,"5840 TIMER RIDGE ROAD, STURGEON BAY, WI, 54235","Match","Non_Exact","5840 TIMBER RIDGE RD, STURGEON BAY, WI, 54235",167268882,"L"
742646,"5840 W 104TH ST UNT 14","OAK LAWN","IL",60453,41.703284415,-87.765158421,146,"5840 W 104TH ST UNT 14, OAK LAWN, IL, 60453","Match","Exact","5840 104TH ST, OAK LAWN, IL, 60453",111813160,"R"
742647,"5840 W 104TH STREET APT 104","OAK LAWN","IL",60453,41.703284415,-87.765158421,147,"5840 W 104TH STREET APT 104, OAK LAWN, IL, 60453","Match","Exact","5840 104TH ST, OAK LAWN, IL, 60453",111813160,"R"
742648,"5840 W FIR AVE","FRESNO","CA",93722,36.8387438930001,-119.897216239,148,"5840 W FIR AVE, FRESNO, CA, 93722","Match","Exact","5840 W FIR AVE, FRESNO, CA, 93722",197614920,"R"
742649,"5840 W WARWICK AVE","CHICAGO","IL",60634,41.9485532140001,-87.772778014,149,"5840 W WARWICK AVE, CHICAGO, IL, 60634","Match","Exact","5840 W WARWICK AVE, CHICAGO, IL, 60634",111751560,"R"
742650,"5840 WADE ROAD","MILFORD","OH",45150,39.183484822,-84.2063302129999,150,"5840 WADE ROAD, MILFORD, OH, 45150","Match","Exact","5840 WADE RD, MILFORD, OH, 45150",636610064,"R"
742651,"5840 WESTOWER DRIVE APT F","RICHMOND","VA",23225,37.5236132210001,-77.505773221,151,"5840 WESTOWER DRIVE APT F, RICHMOND, VA, 23225","Match","Exact","5840 WESTOWER DR, RICHMOND, VA, 23225",201536448,"R"
742652,"58407 185TH STREET","MANKATO","MN",56001,44.080084873,-93.947337263,152,"58407 185TH STREET, MANKATO, MN, 56001","Match","Exact","58407 185TH ST, MANKATO, MN, 56001",28103219,"L"
742653,"58408 SUNNYSLOPE DR","YUCCA VALLEY","CA",92284,34.1277680430001,-116.388916961,153,"58408 SUNNYSLOPE DR, YUCCA VALLEY, CA, 92284","Match","Exact","58408 SUNNYSLOPE DR, YUCCA VALLEY, CA, 92284",144617021,"R"
742654,"5841 4TH AVE NW","SEATLE","WA",98107,47.6712419500001,-122.361862255,154,"5841 4TH AVE NW, SEATLE, WA, 98107","Match","Non_Exact","5841 4TH AVE NW, SEATTLE, WA, 98107",186579212,"L"
742655,"5841 73RD AVE N","BROOKLYN PARK","MN",55429,45.087248319,-93.3544671929999,155,"5841 73RD AVE N, BROOKLYN PARK, MN, 55429","Match","Exact","5841 73RD AVE N, BROOKLYN PARK, MN, 55429",611885803,"L"
742656,"5841 ALLENTOWN ROAD","CAMP SPRINGS","MD",20746,38.8067432390001,-76.902691756,156,"5841 ALLENTOWN ROAD, CAMP SPRINGS, MD, 20746","Match","Exact","5841 ALLENTOWN RD, CAMP SPRINGS, MD, 20746",637895333,"L"
742657,"5841 ARROWLEAF LANE","CARMEL","IN",46033,39.986500698,-86.053616531,157,"5841 ARROWLEAF LANE, CARMEL, IN, 46033","Match","Exact","5841 ARROWLEAF LN, CARMEL, IN, 46033",29312888,"R"
742658,"5841 ARUBA WAY","WEST PALM BEACH","FL",33407,26.763115686,-80.112846525,158,"5841 ARUBA WAY, WEST PALM BEACH, FL, 33407","Match","Exact","5841 ARUBA WAY, WEST PALM BEACH, FL, 33407",115267949,"L"
742659,"5841 DIALTON RD","SPRINGFIELD","OH",45502,40.0171382350001,-83.9415569029999,159,"5841 DIALTON RD, SPRINGFIELD, OH, 45502","Match","Exact","5841 DIALTON RD, SPRINGFIELD, OH, 45502",135005137,"L"
742660,"5841 E CHARLESTON BLVD 217","LAS VEGAS","NV",89142,36.1594037020001,-115.046398233,160,"5841 E CHARLESTON BLVD 217, LAS VEGAS, NV, 89142","Match","Non_Exact","5841 E CHARLESTON BLVD, LAS VEGAS, NV, 89142",201876884,"R"
742661,"5841 E CHARLESTON BLVD 230","LAS VEGAS","NV",89142,36.1594037020001,-115.046398233,161,"5841 E CHARLESTON BLVD 230, LAS VEGAS, NV, 89142","Match","Non_Exact","5841 E CHARLESTON BLVD, LAS VEGAS, NV, 89142",201876884,"R"
742662,"5841 E CHARLESTON BLVD SUITE 230 22","LAS VEGAS","NV",89142,36.1594037020001,-115.046398233,162,"5841 E CHARLESTON BLVD SUITE 230 22, LAS VEGAS, NV, 89142","Match","Non_Exact","5841 E CHARLESTON BLVD, LAS VEGAS, NV, 89142",201876884,"R"
742663,"5841 E ELKHORN DR","EDEN","UT",84310,NA,NA,163,"5841 E ELKHORN DR, EDEN, UT, 84310","Tie",NA,NA,NA,NA
742664,"5841 EL MONTE ST","FAIRWAY","KS",66205,39.023232465,-94.634358321,164,"5841 EL MONTE ST, FAIRWAY, KS, 66205","Match","Exact","5841 EL MONTE ST, FAIRWAY, KS, 66205",91274165,"L"
742665,"5841 FITZTOWN ROAD","VIRGINIA BEACH","VA",23457,36.5928647440001,-76.0214050879999,165,"5841 FITZTOWN ROAD, VIRGINIA BEACH, VA, 23457","Match","Exact","5841 FITZTOWN RD, VA BCH, VA, 23457",122299159,"R"
742666,"5841 HOLTON-WHITEHALL RD","HOLTON","MI",49425,NA,NA,166,"5841 HOLTON-WHITEHALL RD, HOLTON, MI, 49425","No_Match",NA,NA,NA,NA
742667,"5841 KENSINGTON BLVD","NEW ORLEANS","LA",70127,30.035370248,-89.966608042,167,"5841 KENSINGTON BLVD, NEW ORLEANS, LA, 70127","Match","Exact","5841 KENSINGTON BLVD, NEW ORLEANS, LA, 70127",191749515,"R"
742668,"5841 MARIPOSA DRIVE","HOLIDAY","FL",34690,28.1855305290001,-82.7181930249999,168,"5841 MARIPOSA DRIVE, HOLIDAY, FL, 34690","Match","Exact","5841 MARIPOSA DR, HOLIDAY, FL, 34690",641442806,"L"
742669,"5841 MORROWFIELD AVENUE APT 102","PITTSBURGH","PA",15217,40.427881411,-79.924679235,169,"5841 MORROWFIELD AVENUE APT 102, PITTSBURGH, PA, 15217","Match","Exact","5841 MORROWFIELD AVE, PITTSBURGH, PA, 15217",51699398,"L"
742670,"5841 NW 122 DR","CORAL SPRINGS","FL",33076,NA,NA,170,"5841 NW 122 DR, CORAL SPRINGS, FL, 33076","Tie",NA,NA,NA,NA
742671,"5841 NW 61ST AVE UNIT 303","TAMARAC","FL",33319,26.1965433350001,-80.23204512,171,"5841 NW 61ST AVE UNIT 303, TAMARAC, FL, 33319","Match","Non_Exact","5841 NW 61ST AVE, TAMARAC, FL, 33319",650108714,"L"
742672,"5841 RECREATION DR  APT 2234","FORT","TX",76109,32.7010064620001,-97.413408374,172,"5841 RECREATION DR  APT 2234, FORT, TX, 76109","Match","Non_Exact","5841 RECREATION DR, FT WORTH, TX, 76109",651931733,"L"
742673,"5841 RIDGEPOINT DRIVE","ANTELOPE","CA",95843,38.720002069,-121.329017881,173,"5841 RIDGEPOINT DRIVE, ANTELOPE, CA, 95843","Match","Exact","5841 RIDGEPOINT DR, ANTELOPE, CA, 95843",133406799,"L"
742674,"5841 S BLACKSTONE APT 101","CHICAGO","IL",60637,NA,NA,174,"5841 S BLACKSTONE APT 101, CHICAGO, IL, 60637","No_Match",NA,NA,NA,NA
742675,"5841 S MARYLAND AV MC 1030","CHICAGO","IL",60637,41.788746002,-87.604924669,175,"5841 S MARYLAND AV MC 1030, CHICAGO, IL, 60637","Match","Non_Exact","5841 S MARYLAND AVE, CHICAGO, IL, 60637",112046086,"L"
742676,"5841 S MARYLAND AVE MC 2050 RM R311","CHICAGO","IL",60637,41.788746002,-87.604924669,176,"5841 S MARYLAND AVE MC 2050 RM R311, CHICAGO, IL, 60637","Match","Non_Exact","5841 S MARYLAND AVE, CHICAGO, IL, 60637",112046086,"L"
742677,"5841 SALTSBURG ROAD","VERONA","PA",15147,40.4828296970001,-79.824649118,177,"5841 SALTSBURG ROAD, VERONA, PA, 15147","Match","Exact","5841 SALTSBURG RD, VERONA, PA, 15147",606377542,"L"
742678,"5841 SHARON DRIVE","BOARDMAN","OH",44512,41.039835399,-80.704841489,178,"5841 SHARON DRIVE, BOARDMAN, OH, 44512","Match","Exact","5841 SHARON DR, BOARDMAN, OH, 44512",64606907,"R"
742679,"5841 SOUTH MARYLAND AVENUE","CHICAGO","IL",60637,41.7887589810001,-87.604925157,179,"5841 SOUTH MARYLAND AVENUE, CHICAGO, IL, 60637","Match","Exact","5841 S MARYLAND AVE, CHICAGO, IL, 60637",112046086,"L"
742680,"5841 SUMMIT","SYLVANIA","OH",43560,41.7204755710001,-83.701839993,180,"5841 SUMMIT, SYLVANIA, OH, 43560","Match","Non_Exact","5841 SUMMIT ST, SYLVANIA, OH, 43560",33927239,"L"
742681,"5841 TEAL LANE","EL PASO","TX",79924,31.8840611040001,-106.404841278,181,"5841 TEAL LANE, EL PASO, TX, 79924","Match","Exact","5841 TEAL LN, EL PASO, TX, 79924",189339886,"L"
742682,"5841 W 4600 S","HOOPER","UT",84315,41.178892815,-112.121006354,182,"5841 W 4600 S, HOOPER, UT, 84315","Match","Exact","5841 W 4600 S, HOOPER, UT, 84315",651918759,"L"
742683,"5841 W GLENVIEW PL","CHANDLER","AZ",85226,33.3047978600001,-111.942349062,183,"5841 W GLENVIEW PL, CHANDLER, AZ, 85226","Match","Exact","5841 W GLENVIEW PL, CHANDLER, AZ, 85226",128803875,"L"
742684,"5841 WYNDHAM COURT","MOUNT PLEASANT","WI",53406,42.7533658950001,-87.852146824,184,"5841 WYNDHAM COURT, MOUNT PLEASANT, WI, 53406","Match","Exact","5841 WYNDHAM CT, MOUNT PLEASANT, WI, 53406",77937003,"R"
742685,"5842 41ST DRIVE","WOODSIDE","NY",11377,NA,NA,185,"5842 41ST DRIVE, WOODSIDE, NY, 11377","No_Match",NA,NA,NA,NA
742686,"5842 CROCUS CIR","LA PALMA","CA",90623,33.845628478,-118.030930939,186,"5842 CROCUS CIR, LA PALMA, CA, 90623","Match","Exact","5842 CROCUS CIR, LA PALMA, CA, 90623",143998506,"R"
742687,"5842 DEVORO RD","FITCHBURG","WI",53711,43.002676776,-89.4484785719999,187,"5842 DEVORO RD, FITCHBURG, WI, 53711","Match","Exact","5842 DEVORO RD, FITCHBURG, WI, 53711",49537872,"R"
742688,"5842 EAGLEWOOD","SYLVANIA","OH",43560,41.718819184,-83.721724105,188,"5842 EAGLEWOOD, SYLVANIA, OH, 43560","Match","Non_Exact","5842 EAGLEWOOD LN, SYLVANIA, OH, 43560",33950903,"R"
742689,"5842 ELEGANT ORCHID WAY","SARASOTA","FL",34232,NA,NA,189,"5842 ELEGANT ORCHID WAY, SARASOTA, FL, 34232","No_Match",NA,NA,NA,NA
742690,"5842 FAYETTEVILLE ROAD SUITE 204","DURHAM","NC",27713,35.9202281290001,-78.929156635,190,"5842 FAYETTEVILLE ROAD SUITE 204, DURHAM, NC, 27713","Match","Exact","5842 FAYETTEVILLE RD, DURHAM, NC, 27713",71772419,"R"
742691,"5842 JAMES STREET UNIT B","PARASIDE","CA",95969,NA,NA,191,"5842 JAMES STREET UNIT B, PARASIDE, CA, 95969","No_Match",NA,NA,NA,NA
742692,"5842 JAMIAH DR","MURRAY","UT",84123,40.6439842570001,-111.908291013,192,"5842 JAMIAH DR, MURRAY, UT, 84123","Match","Exact","5842 JAMIAH DR, MURRAY, UT, 84123",176157470,"R"
742693,"5842 LUND ST","JUNEAU","AK",99801,58.3593720850001,-134.496797263,193,"5842 LUND ST, JUNEAU, AK, 99801","Match","Exact","5842 LUND ST, JUNEAU, AK, 99801",190963833,"L"
742694,"5842 MONTROSE STREET","PHILADELPHIA","PA",19143,39.9485016090001,-75.240410987,194,"5842 MONTROSE STREET, PHILADELPHIA, PA, 19143","Match","Exact","5842 MONTROSE ST, PHILADELPHIA, PA, 19143",131397893,"L"
742695,"5842 N DUXBURY CT","GARDEN CITY","ID",83714,NA,NA,195,"5842 N DUXBURY CT, GARDEN CITY, ID, 83714","No_Match",NA,NA,NA,NA
742696,"5842 PADDON CIRCLE","SAN JOSE","CA",95123,37.245509129,-121.81890144,196,"5842 PADDON CIRCLE, SAN JOSE, CA, 95123","Match","Exact","5842 PADDON CIR, SAN JOSE, CA, 95123",122925285,"L"
742697,"5842 ROY HEIGHTS","COLORADO SPRINGS","CO",80918,NA,NA,197,"5842 ROY HEIGHTS, COLORADO SPRINGS, CO, 80918","No_Match",NA,NA,NA,NA
742698,"5842 S SANGAMON","CHICAGO","IL",60621,41.787879887,-87.648643178,198,"5842 S SANGAMON, CHICAGO, IL, 60621","Match","Non_Exact","5842 S SANGAMON ST, CHICAGO, IL, 60621",605486438,"R"
742699,"5842 SAINT PTRICKS","MARSHFIELD","WI",54449,NA,NA,199,"5842 SAINT PTRICKS, MARSHFIELD, WI, 54449","No_Match",NA,NA,NA,NA
742700,"5842 SAXTON RD","MILLSTADT","IL",62260,NA,NA,200,"5842 SAXTON RD, MILLSTADT, IL, 62260","No_Match",NA,NA,NA,NA
742701,"5842 TIOGA DR","BATON ROUGE","LA",70812,30.5045776000001,-91.10894963,201,"5842 TIOGA DR, BATON ROUGE, LA, 70812","Match","Exact","5842 TIOGA DR, BATON ROUGE, LA, 70812",92188839,"R"
742702,"5842 VINE STREET","PHILADELPHIA","PA",19139,39.966261887,-75.237265669,202,"5842 VINE STREET, PHILADELPHIA, PA, 19139","Match","Exact","5842 VINE ST, PHILADELPHIA, PA, 19139",131398275,"L"
742703,"5842 WEST ERIE","CHICAGO","IL",60644,41.891930421,-87.770982201,203,"5842 WEST ERIE, CHICAGO, IL, 60644","Match","Non_Exact","5842 W ERIE ST, CHICAGO, IL, 60644",111753920,"R"
742704,"5842 WINSLOW RD","WHITEHOUSE","OH",43571,41.5342500040001,-83.8011945389999,204,"5842 WINSLOW RD, WHITEHOUSE, OH, 43571","Match","Exact","5842 WINSLOW RD, WHITEHOUSE, OH, 43571",33926128,"R"
742705,"58427 44TH AVENUE","LAWRENCE","MI",49064,42.2583972360001,-86.119225897,205,"58427 44TH AVENUE, LAWRENCE, MI, 49064","Match","Exact","58427 44TH AVE, LAWRENCE, MI, 49064",34761364,"R"
742706,"58428 DEERFIELD DR","WASHINGTON TWP","MI",48094,42.7231464110001,-83.0503488959999,206,"58428 DEERFIELD DR, WASHINGTON TWP, MI, 48094","Match","Exact","58428 DEERFIELD DR, WASHINGTON TOWNSHIP, MI, 48094",110702342,"L"
742707,"5843 150 STREET","FLUSHING","NY",11355,NA,NA,207,"5843 150 STREET, FLUSHING, NY, 11355","No_Match",NA,NA,NA,NA
742708,"5843 ABBEY CHURCH RD","DUBLIN","OH",43017,40.0741036470001,-83.0948463289999,208,"5843 ABBEY CHURCH RD, DUBLIN, OH, 43017","Match","Exact","5843 ABBEY CHURCH RD, DUBLIN, OH, 43017",625033763,"L"
742709,"5843 ANDERSON ST","PHILADELPHIA","PA",19138,40.0524153700001,-75.161179707,209,"5843 ANDERSON ST, PHILADELPHIA, PA, 19138","Match","Exact","5843 ANDERSON ST, PHILADELPHIA, PA, 19138",131395703,"R"
742710,"5843 ARROWHEAD LAKE RD","HESPERIA","CA",92345,NA,NA,210,"5843 ARROWHEAD LAKE RD, HESPERIA, CA, 92345","No_Match",NA,NA,NA,NA
742711,"5843 BRAZOS RIVER RD CR 400","FREEPORT","TX",77541,29.019181238,-95.462829292,211,"5843 BRAZOS RIVER RD CR 400, FREEPORT, TX, 77541","Match","Exact","5843 BRAZOS RIVER RD, FREEPORT, TX, 77541",647834917,"R"
742712,"5843 CALI GLEN LN","WESTERVILLE","OH",43082,40.1746467240001,-82.924878318,212,"5843 CALI GLEN LN, WESTERVILLE, OH, 43082","Match","Exact","5843 CALI GLEN LN, WESTERVILLE, OH, 43082",213002359,"L"
742713,"5843 CALUMET ROAD","SOUTH HAVEN","MN",55382,45.3464068640001,-94.231503765,213,"5843 CALUMET ROAD, SOUTH HAVEN, MN, 55382","Match","Exact","5843 CALUMET RD, SOUTH HAVEN, MN, 55382",612005867,"L"
742714,"5843 CARRIBEAN CIRCLE","STOCKTON","CA",95210,38.0105470980001,-121.290901653,214,"5843 CARRIBEAN CIRCLE, STOCKTON, CA, 95210","Match","Non_Exact","5843 CARIBBEAN CIR, STOCKTON, CA, 95210",614163852,"R"
742715,"5843 DELMAR COURT","INDIANAPOLIS","IN",46241,39.7563363250001,-86.2621818119999,215,"5843 DELMAR COURT, INDIANAPOLIS, IN, 46241","Match","Exact","5843 DELMAR CT, INDIANAPOLIS, IN, 46241",107979718,"R"
742716,"5843 GANGPLANK ST","N LAS VEGAS","NV",89031,36.2668089950001,-115.205334976,216,"5843 GANGPLANK ST, N LAS VEGAS, NV, 89031","Match","Exact","5843 GANGPLANK ST, N LAS VEGAS, NV, 89031",624621783,"L"
742717,"5843 GRAND REUNION DR","HOSCHTON","GA",30548,34.1193757710001,-83.8620899759999,217,"5843 GRAND REUNION DR, HOSCHTON, GA, 30548","Match","Exact","5843 GRAND REUNION DR, HOSCHTON, GA, 30548",618454533,"L"
742718,"5843 HAAG RD","LANSING","MI",48911,42.673504317,-84.5726692379999,218,"5843 HAAG RD, LANSING, MI, 48911","Match","Exact","5843 HAAG RD, LANSING, MI, 48911",17520361,"L"
742719,"5843 LOS VERDES CT","BRADENTON","FL",34210,27.4384313840001,-82.601507725,219,"5843 LOS VERDES CT, BRADENTON, FL, 34210","Match","Exact","5843 LOS VERDES CT, BRADENTON, FL, 34210",16263520,"R"
742720,"5843 MAEYSTOWN RD","WATERLOO","IL",62298,38.29221267,-90.1950542,220,"5843 MAEYSTOWN RD, WATERLOO, IL, 62298","Match","Exact","5843 MAEYSTOWN RD, WATERLOO, IL, 62298",116427281,"L"
742721,"5843 MONTICELLO AVENUE","DALLAS","TX",75206,32.8269937480001,-96.7669857399999,221,"5843 MONTICELLO AVENUE, DALLAS, TX, 75206","Match","Exact","5843 MONTICELLO AVE, DALLAS, TX, 75206",102918496,"L"
742722,"5843 N 77TH ST","MILWAUKEE","WI",53218,43.1241159530001,-88.0072916939999,222,"5843 N 77TH ST, MILWAUKEE, WI, 53218","Match","Exact","5843 N 77TH ST, MILWAUKEE, WI, 53218",77725990,"L"
742723,"5843 OAKVIEW RD","MODOC","IL",62261,38.020010621,-89.9600871709999,223,"5843 OAKVIEW RD, MODOC, IL, 62261","Match","Exact","5843 OAKVIEW RD, MODOC, IL, 62261",95190272,"L"
742724,"5843 OSAGE AVENUE","PHILADELPHIA","PA",19143,39.954594044,-75.239139252,224,"5843 OSAGE AVENUE, PHILADELPHIA, PA, 19143","Match","Exact","5843 OSAGE AVE, PHILADELPHIA, PA, 19143",131397796,"R"
742725,"5843 POWDERMILL ROAD","KENT","OH",44240,41.1493229440001,-81.3096717499999,225,"5843 POWDERMILL ROAD, KENT, OH, 44240","Match","Exact","5843 POWDERMILL RD, KENT, OH, 44240",137516662,"L"
742726,"5843 PRAIRIE RIDGE DRIVE","SHOREVIEW","MN",55126,45.1166305130001,-93.181791615,226,"5843 PRAIRIE RIDGE DRIVE, SHOREVIEW, MN, 55126","Match","Exact","5843 PRAIRIE RIDGE DR, SHOREVIEW, MN, 55126",97666394,"L"
742727,"5843 RAMSEY STREET","FAYETTEVILLE","NC",28311,35.1405866380001,-78.873933655,227,"5843 RAMSEY STREET, FAYETTEVILLE, NC, 28311","Match","Exact","5843 RAMSEY ST, FAYETTEVILLE, NC, 28311",64229969,"L"
742728,"5843 SARATOGA DRIVE","CRESTVIEW","FL",32536,30.7992759000001,-86.573053342,228,"5843 SARATOGA DRIVE, CRESTVIEW, FL, 32536","Match","Exact","5843 SARATOGA DR, CRESTVIEW, FL, 32536",639594093,"R"
742729,"5843 SOUTH BOND DRIVE","WEST PALM BEACH","FL",33415,26.6464751880001,-80.1341173009999,229,"5843 SOUTH BOND DRIVE, WEST PALM BEACH, FL, 33415","Match","Exact","5843 S BOND DR, WEST PALM BEACH, FL, 33415",115270391,"R"
742730,"5843 TORIA DR","ALEXANDRIA","LA",71307,NA,NA,230,"5843 TORIA DR, ALEXANDRIA, LA, 71307","No_Match",NA,NA,NA,NA
742731,"5843 VISTA AVE","SACRAMENTO","CA",95824,38.520445212,-121.450171913,231,"5843 VISTA AVE, SACRAMENTO, CA, 95824","Match","Exact","5843 VISTA AVE, SACRAMENTO, CA, 95824",133411392,"L"
742732,"5843 WEST RICE STREET","CHICAGO","IL",60651,41.895672426,-87.771184363,232,"5843 WEST RICE STREET, CHICAGO, IL, 60651","Match","Exact","5843 W RICE ST, CHICAGO, IL, 60651",111753820,"L"
742733,"58434 N PR NE","BENTON CITY","WA",99320,NA,NA,233,"58434 N PR NE, BENTON CITY, WA, 99320","No_Match",NA,NA,NA,NA
742734,"5844 AINSLEE LANE","LAKE VIEW","NY",14085,42.7282978600001,-78.940777477,234,"5844 AINSLEE LANE, LAKE VIEW, NY, 14085","Match","Exact","5844 AINSLEE LN, LAKE VIEW, NY, 14085",48292952,"R"
742735,"5844 BELAIR RD","BALTIMORE","MD",21206,39.344581405,-76.542428006,235,"5844 BELAIR RD, BALTIMORE, MD, 21206","Match","Exact","5844 BELAIR RD, BALTIMORE, MD, 21206",647420521,"L"
742736,"5844 BIRCHWOOD LN","BOULDER JUNCTION","WI",54512,46.1302702150001,-89.646766938,236,"5844 BIRCHWOOD LN, BOULDER JUNCTION, WI, 54512","Match","Exact","5844 BIRCHWOOD LN, BOULDER JUNCTION, WI, 54512",165566033,"R"
742737,"5844 BIRCHWOOD","BOULDER JUNCTION","WI",54512,46.1302702150001,-89.646766938,237,"5844 BIRCHWOOD, BOULDER JUNCTION, WI, 54512","Match","Non_Exact","5844 BIRCHWOOD LN, BOULDER JUNCTION, WI, 54512",165566033,"R"
742738,"5844 BROOKVIEW AVE","EDINA","MN",55424,44.8962784550001,-93.3354018319999,238,"5844 BROOKVIEW AVE, EDINA, MN, 55424","Match","Exact","5844 BROOKVIEW AVE, EDINA, MN, 55424",43795253,"L"
742739,"5844 CEDAR ST APT B","FERNDALE","WA",98248,48.8541019800001,-122.586555432,239,"5844 CEDAR ST APT B, FERNDALE, WA, 98248","Match","Exact","5844 CEDAR ST, FERNDALE, WA, 98248",183764120,"R"
742740,"5844 CHAPARRAL TRAIL","BEEVILLE","TX",78102,28.4768056120001,-97.817808081,240,"5844 CHAPARRAL TRAIL, BEEVILLE, TX, 78102","Match","Exact","5844 CHAPARRAL TRL, BEEVILLE, TX, 78102",35625174,"R"
742741,"5844 CLEMATIS DR","BATON ROUGE","LA",70808,30.4009593580001,-91.133443116,241,"5844 CLEMATIS DR, BATON ROUGE, LA, 70808","Match","Exact","5844 CLEMATIS DR, BATON ROUGE, LA, 70808",92192204,"R"
742742,"5844 COLUMBUS AVENUE SOUTH","MINNEAPOLIS","MN",55417,44.8971459900001,-93.264117922,242,"5844 COLUMBUS AVENUE SOUTH, MINNEAPOLIS, MN, 55417","Match","Exact","5844 COLUMBUS AVE S, MINNEAPOLIS, MN, 55417",43836006,"R"
742743,"5844 LAURETTA ST","SAN DIEGO","CA",92110,32.768236921,-117.188374735,243,"5844 LAURETTA ST, SAN DIEGO, CA, 92110","Match","Exact","5844 LAURETTA ST, SAN DIEGO, CA, 92110",195305881,"L"
742744,"5844 MERIWETHER PLACE","SARASOTA","FL",34232,27.3009003070001,-82.488403099,244,"5844 MERIWETHER PLACE, SARASOTA, FL, 34232","Match","Exact","5844 MERIWETHER PL, SARASOTA, FL, 34232",630274859,"R"
742745,"5844 NE 75TH ST","SEATTLE","WA",98115,47.682928684,-122.264530633,245,"5844 NE 75TH ST, SEATTLE, WA, 98115","Match","Exact","5844 NE 75TH ST, SEATTLE, WA, 98115",645389470,"L"
742746,"5844 OAKLAWN AVE","EDINA","MN",55424,44.8972568030001,-93.336603087,246,"5844 OAKLAWN AVE, EDINA, MN, 55424","Match","Exact","5844 OAKLAWN AVE, EDINA, MN, 55424",43629263,"R"
742747,"5844 OCTOBER HILL RD","PLACERVILLE","CA",95667,38.7045729930001,-120.880261828,247,"5844 OCTOBER HILL RD, PLACERVILLE, CA, 95667","Match","Exact","5844 OCTOBER HILL RD, PLACERVILLE, CA, 95667",607164006,"L"
742748,"5844 PILAR CT","SAN JOSE","CA",95120,37.238611056,-121.882499313,248,"5844 PILAR CT, SAN JOSE, CA, 95120","Match","Exact","5844 PILAR CT, SAN JOSE, CA, 95120",122947216,"L"
742749,"5844 RED DRUM DR","FORT WORTH","TX",76179,32.8468563100001,-97.411896349,249,"5844 RED DRUM DR, FORT WORTH, TX, 76179","Match","Exact","5844 RED DRUM DR, FORT WORTH, TX, 76179",619869892,"R"
742750,"5844 ROBERT DRIVE","BROOK PARK","OH",44142,41.404788125,-81.815547857,250,"5844 ROBERT DRIVE, BROOK PARK, OH, 44142","Match","Exact","5844 ROBERT DR, BROOK PARK, OH, 44142",61103645,"R"
742751,"5844 S 245 E","HUNTINGBURG","IN",47542,38.2954916830001,-86.857388043,251,"5844 S 245 E, HUNTINGBURG, IN, 47542","Match","Exact","5844 S 245 E, HUNTINGBURG, IN, 47542",7886701,"R"
742752,"5844 W MARIGOLD LN","ESKO","MN",55733,46.720664572,-92.298576831,252,"5844 W MARIGOLD LN, ESKO, MN, 55733","Match","Exact","5844 W MARIGOLD LN, ESKO, MN, 55733",163207870,"R"
742753,"5844 WILLIAMS CIRCLE","CAMILLA","GA",30168,31.2739866910001,-84.2415135589999,253,"5844 WILLIAMS CIRCLE, CAMILLA, GA, 30168","Match","Non_Exact","5844 WILLIAMS CIR, CAMILLA, GA, 31730",84158423,"R"
742754,"5844","PLACERVILLE","CA",95667,NA,NA,254,"5844, PLACERVILLE, CA, 95667","No_Match",NA,NA,NA,NA
742755,"5845 240TH STREET N","FOREST LAKE","MN",55025,45.2968106160001,-92.988919277,255,"5845 240TH STREET N, FOREST LAKE, MN, 55025","Match","Exact","5845 240TH ST N, FOREST LAKE, MN, 55025",97596482,"R"
742756,"5845 69TH STREET","SACRAMENTO","CA",95824,38.5202913960001,-121.423397935,256,"5845 69TH STREET, SACRAMENTO, CA, 95824","Match","Exact","5845 69TH ST, SACRAMENTO, CA, 95824",133337098,"L"
742757,"5845 ABBOTT AVE S","EDINA","MN",55410,44.897198368,-93.322640782,257,"5845 ABBOTT AVE S, EDINA, MN, 55410","Match","Exact","5845 ABBOTT AVE S, EDINA, MN, 55410",43629470,"L"
742758,"5845 BARTRAM CIRCLE NORTH","JACKSONVILLE","FL",32207,30.3115638900001,-81.6013384199999,258,"5845 BARTRAM CIRCLE NORTH, JACKSONVILLE, FL, 32207","Match","Exact","5845 BARTRAM CIR N, JACKSONVILLE, FL, 32207",83903335,"L"
742759,"5845 BARTRAM CIRCLE NORTH","JACKSOVILLE","FL",32207,30.3115638900001,-81.6013384199999,259,"5845 BARTRAM CIRCLE NORTH, JACKSOVILLE, FL, 32207","Match","Non_Exact","5845 BARTRAM CIR N, JACKSONVILLE, FL, 32207",83903335,"L"
742760,"5845 BELL ROAD","AUBURN","CA",95602,38.9952605300001,-121.135392494,260,"5845 BELL ROAD, AUBURN, CA, 95602","Match","Exact","5845 BELL RD, AUBURN, CA, 95602",639848778,"R"
742761,"5845 BOURKE DRIVE","COLORADO SPRINGS","CO",80911,38.9151341730001,-104.859633771,261,"5845 BOURKE DRIVE, COLORADO SPRINGS, CO, 80911","Match","Non_Exact","5845 BOURKE DR, COLO SPGS, CO, 80919",105505473,"R"
742762,"5845 BROOKFLOWER CIRCLE LANE E","LAKE CHARLES","LA",70605,30.1528968530001,-93.297794639,262,"5845 BROOKFLOWER CIRCLE LANE E, LAKE CHARLES, LA, 70605","Match","Non_Exact","5845 W BROOKFLOWER CIR, LAKE CHARLES, LA, 70605",646608910,"L"
742763,"5845 BRUSHWOOD CT","CHINO HILLS","CA",91709,33.9506015270001,-117.67779543,263,"5845 BRUSHWOOD CT, CHINO HILLS, CA, 91709","Match","Exact","5845 BRUSHWOOD CT, CHINO HILLS, CA, 91709",144982636,"R"
742764,"5845 CEDAR LAKE DR S","WALLS","MS",38680,34.9830493800001,-90.092945033,264,"5845 CEDAR LAKE DR S, WALLS, MS, 38680","Match","Exact","5845 CEDAR LAKE DR S, WALLS, MS, 38680",91832456,"R"
742765,"5845 CHABOT COURT","OAKLAND","CA",94618,37.8489205610001,-122.244326646,265,"5845 CHABOT COURT, OAKLAND, CA, 94618","Match","Exact","5845 CHABOT CT, OAKLAND, CA, 94618",124999331,"L"
742766,"5845 CLARET STREET","TIMNATH","CO",80547,40.505053248,-104.957427124,266,"5845 CLARET STREET, TIMNATH, CO, 80547","Match","Exact","5845 CLARET ST, TIMNATH, CO, 80547",639984722,"L"
742767,"5845 COLBURN MOUNTAIN RD","TUSCUMBIA","AL",35674,34.6205383820001,-87.621742379,267,"5845 COLBURN MOUNTAIN RD, TUSCUMBIA, AL, 35674","Match","Exact","5845 COLBURN MTN RD, TUSCUMBIA, AL, 35674",40757552,"L"
742768,"5845 COOPER LAKE","JACKSONVILLE","FL",32218,30.4336130410001,-81.7429525749999,268,"5845 COOPER LAKE, JACKSONVILLE, FL, 32218","Match","Non_Exact","5845 COPPER LAKE DR, JACKSONVILLE, FL, 32218",83939433,"R"
742769,"5845 CRANE PL","ORLANDO","FL",32807,28.5376636510001,-81.307992944,269,"5845 CRANE PL, ORLANDO, FL, 32807","Match","Exact","5845 CRANE PL, ORLANDO, FL, 32807",94287010,"L"
742770,"5845 CRANE PLACE","ORLANDO","FL",32807,28.5376636510001,-81.307992944,270,"5845 CRANE PLACE, ORLANDO, FL, 32807","Match","Exact","5845 CRANE PL, ORLANDO, FL, 32807",94287010,"L"
742771,"5845 CRANE PLACE","ORLANDO","FL",32822,28.5376636510001,-81.307992944,271,"5845 CRANE PLACE, ORLANDO, FL, 32822","Match","Non_Exact","5845 CRANE PL, ORLANDO, FL, 32807",94287010,"L"
742772,"5845 CROMO STE 1","EL PASO","TX",79912,31.8169550920001,-106.538774029,272,"5845 CROMO STE 1, EL PASO, TX, 79912","Match","Non_Exact","5845 CROMO DR, EL PASO, TX, 79912",189336199,"L"
742773,"5845 E KIMBRYER LANE","INVERNESS","FL",34452,28.811038937,-82.3370612589999,273,"5845 E KIMBRYER LANE, INVERNESS, FL, 34452","Match","Exact","5845 E KIMBRYER LN, INVERNESS, FL, 34452",86206720,"R"
742774,"5845 E MICHIGAN ST","INDIANAPOLIS","IN",46219,39.774977,-86.0664185639999,274,"5845 E MICHIGAN ST, INDIANAPOLIS, IN, 46219","Match","Exact","5845 E MICHIGAN ST, INDIANAPOLIS, IN, 46219",108003282,"R"
742775,"5845 EAST MICHIGAN STREET","INDIANAPOLIS","IN",46219,39.774976495,-86.0664323349999,275,"5845 EAST MICHIGAN STREET, INDIANAPOLIS, IN, 46219","Match","Exact","5845 E MICHIGAN ST, INDIANAPOLIS, IN, 46219",108003282,"R"
742776,"5845 EL CAMINO RD","LAS VEGAS","NV",89118,36.082674818,-115.229530678,276,"5845 EL CAMINO RD, LAS VEGAS, NV, 89118","Match","Exact","5845 EL CAMINO RD, LAS VEGAS, NV, 89118",201918630,"R"
742777,"5845 FLOYD CT","WEED","CA",96094,41.501772327,-122.377781217,277,"5845 FLOYD CT, WEED, CA, 96094","Match","Exact","5845 FLOYD CT, WEED, CA, 96094",113231439,"R"
742778,"5845 FOOTHILL DR","MT PLEASANT","WI",53403,42.6779810940001,-87.849756368,278,"5845 FOOTHILL DR, MT PLEASANT, WI, 53403","Match","Exact","5845 FOOTHILL DR, MOUNT PLEASANT, WI, 53403",77911336,"L"
742779,"5845 FORK MOUNTAIN ROAD","ROCKY MOUNT","VA",24151,36.8887134920001,-79.9145447659999,279,"5845 FORK MOUNTAIN ROAD, ROCKY MOUNT, VA, 24151","Match","Exact","5845 FORK MOUNTAIN RD, ROCKY MOUNT, VA, 24151",56418790,"L"
742780,"5845 FRIARS ROAD 1216","SAN DIEGO","CA",92110,NA,NA,280,"5845 FRIARS ROAD 1216, SAN DIEGO, CA, 92110","No_Match",NA,NA,NA,NA
742781,"5845 FRIARS ROAD UNIT 1306","SAN DIEGO","CA",92110,NA,NA,281,"5845 FRIARS ROAD UNIT 1306, SAN DIEGO, CA, 92110","No_Match",NA,NA,NA,NA
742782,"5845 GRANDVISTA DR","INDIANAPOLIS","IN",46234,39.849667352,-86.3415978959999,282,"5845 GRANDVISTA DR, INDIANAPOLIS, IN, 46234","Match","Non_Exact","5845 GRAND VISTA DR, INDIANAPOLIS, IN, 46234",89235577,"R"
742783,"5845 HIGH CLIFF COURT","WESTLAKE VILLAGE","CA",91362,34.196841208,-118.786334264,283,"5845 HIGH CLIFF COURT, WESTLAKE VILLAGE, CA, 91362","Match","Non_Exact","5845 HIGHCLIFF CT, WESTLAKE VILLAGE, CA, 91362",110023070,"R"
742784,"5845 IRVING AVE","LA CRESCENTA","CA",91214,34.241859913,-118.225934812,284,"5845 IRVING AVE, LA CRESCENTA, CA, 91214","Match","Exact","5845 IRVING AVE, LA CRESCENTA, CA, 91214",141589705,"L"
742785,"5845 KERSHAW ROAD","ORIENTAL","NC",28571,35.0369591850001,-76.796575876,285,"5845 KERSHAW ROAD, ORIENTAL, NC, 28571","Match","Exact","5845 KERSHAW RD, ORIENTAL, NC, 28571",67919589,"L"
742786,"5845 LANTERN COURT","LOS ANGELES","CA",90094,33.9740686100001,-118.418570616,286,"5845 LANTERN COURT, LOS ANGELES, CA, 90094","Match","Non_Exact","5845 N LANTERN CT, LOS ANGELES, CA, 90094",648173691,"R"
742787,"5845 MAUD HUGHES RD","LIBERTY TOWNSHIP","OH",45011,39.4061268940001,-84.408914974,287,"5845 MAUD HUGHES RD, LIBERTY TOWNSHIP, OH, 45011","Match","Exact","5845 MAUD HUGHES RD, LIBERTY TWP, OH, 45011",649557607,"R"
742788,"5845 MCKINLEY AVENUE","EXPORT","PA",15632,40.4172477400001,-79.625847327,288,"5845 MCKINLEY AVENUE, EXPORT, PA, 15632","Match","Exact","5845 MCKINLEY AVE, EXPORT, PA, 15632",52970220,"R"
742789,"5845 MEADOW DR","RHINELANDER","WI",54501,45.6485643250001,-89.453309137,289,"5845 MEADOW DR, RHINELANDER, WI, 54501","Match","Exact","5845 MEADOW DR, RHINELANDER, WI, 54501",196588522,"L"
742790,"5845 MORNINGSIDE DR","FAIRFIELD","OH",45014,39.3210256040001,-84.55369747,290,"5845 MORNINGSIDE DR, FAIRFIELD, OH, 45014","Match","Exact","5845 MORNINGSIDE DR, FAIRFIELD, OH, 45014",113798198,"R"
742791,"5845 N PASEO OTONO","TUCSON","AZ",85750,32.313351159,-110.852324792,291,"5845 N PASEO OTONO, TUCSON, AZ, 85750","Match","Non_Exact","5845 N PSO OTONO, TUCSON, AZ, 85750",121192955,"L"
742792,"5845 NE HOYT ST","PORTLAND","OR",97213,45.527223894,-122.602519546,292,"5845 NE HOYT ST, PORTLAND, OR, 97213","Match","Exact","5845 NE HOYT ST, PORTLAND, OR, 97213",157574792,"R"
742793,"5845 NORTH OCEAN BLVD","OCEAN RIDGE","FL",33435,26.518421959,-80.050109533,293,"5845 NORTH OCEAN BLVD, OCEAN RIDGE, FL, 33435","Match","Exact","5845 N OCEAN BLVD, OCEAN RIDGE, FL, 33435",115499328,"R"
742794,"5845 PEARL OYSTER LN","FORT WORTH","TX",76179,32.8387031280001,-97.415812005,294,"5845 PEARL OYSTER LN, FORT WORTH, TX, 76179","Match","Exact","5845 PEARL OYSTER LN, FORT WORTH, TX, 76179",619872390,"L"
742795,"5845 SOUTH KILLARNEY WAY","CENTENNIAL","CO",80015,39.610895756,-104.74836839,295,"5845 SOUTH KILLARNEY WAY, CENTENNIAL, CO, 80015","Match","Exact","5845 S KILLARNEY WAY, CENTENNIAL, CO, 80015",653308798,"R"
742796,"5845 STEELE ROAD","MURRYSVILLE","PA",15668,40.4648163350001,-79.629102657,296,"5845 STEELE ROAD, MURRYSVILLE, PA, 15668","Match","Exact","5845 STEELE RD, MURRYSVILLE, PA, 15668",52969668,"R"
742797,"5845 THURGOOD CIRCLE NORTH","JACKSONVILLE","FL",32219,30.3758451910001,-81.7324807969999,297,"5845 THURGOOD CIRCLE NORTH, JACKSONVILLE, FL, 32219","Match","Exact","5845 THURGOOD CIR N, JACKSONVILLE, FL, 32219",83887952,"R"
742798,"5845 W BARRY ST UNIT 1F","CHICAGO","IL",60634,NA,NA,298,"5845 W BARRY ST UNIT 1F, CHICAGO, IL, 60634","No_Match",NA,NA,NA,NA
742799,"5845 W FOSTER AVE","CHICAGO","IL",60630,41.9756695570001,-87.7748537529999,299,"5845 W FOSTER AVE, CHICAGO, IL, 60630","Match","Exact","5845 W FOSTER AVE, CHICAGO, IL, 60630",111750906,"L"
742800,"5845 W RACE","CHICAGO","IL",60644,41.8900537310001,-87.770969414,300,"5845 W RACE, CHICAGO, IL, 60644","Match","Non_Exact","5845 W RACE AVE, CHICAGO, IL, 60644",111753932,"L"
742801,"5845 WEST 510 SOUTH","TOPEKA","IN",46571,NA,NA,301,"5845 WEST 510 SOUTH, TOPEKA, IN, 46571","No_Match",NA,NA,NA,NA
742802,"5845 YAWL STREET","DISCOVERY BAY","CA",94505,37.9019126380001,-121.589483381,302,"5845 YAWL STREET, DISCOVERY BAY, CA, 94505","Match","Exact","5845 YAWL ST, DISCOVERY BAY, CA, 94505",192033442,"L"
742803,"5845 YERBA BUENA AVE","SANTA ROSA","CA",95409,38.470914179,-122.639242621,303,"5845 YERBA BUENA AVE, SANTA ROSA, CA, 95409","Match","Non_Exact","5845 YERBA BUENA RD, SANTA ROSA, CA, 95409",639986583,"L"
742804,"5845","INDIANAPOLIS","IN",46234,NA,NA,304,"5845, INDIANAPOLIS, IN, 46234","No_Match",NA,NA,NA,NA
742805,"58452 110TH STREET","MENAHGA","MN",56464,46.732439696,-95.175659541,305,"58452 110TH STREET, MENAHGA, MN, 56464","Match","Exact","58452 110TH ST, MENAHGA, MN, 56464",167957976,"L"
742806,"58454 BUENA VISTA DR","YUCCA VALLEY","CA",92284,34.1640022130001,-116.388559431,306,"58454 BUENA VISTA DR, YUCCA VALLEY, CA, 92284","Match","Exact","58454 BUENA VISTA DR, YUCCA VALLEY, CA, 92284",144616490,"R"
742807,"58455 LARSON RD","ANZA","CA",92539,33.463231224,-116.644099728,307,"58455 LARSON RD, ANZA, CA, 92539","Match","Exact","58455 LARSON RD, ANZA, CA, 92539",195074852,"L"
742808,"58456 ROCKY POINT LN","NEW LONDON","MO",63459,39.556321172,-91.369459647,308,"58456 ROCKY POINT LN, NEW LONDON, MO, 63459","Match","Exact","58456 ROCKY POINT LN, NEW LONDON, MO, 63459",37993589,"R"
742809,"5846 CHATFORD DRIVE","COLUMBUS","OH",43232,39.9335901050001,-82.836007727,309,"5846 CHATFORD DRIVE, COLUMBUS, OH, 43232","Match","Exact","5846 CHATFORD DR, COLUMBUS, OH, 43232",135597513,"R"
742810,"5846 CLEMENTS","SAINT LOUIS","MO",63112,NA,NA,310,"5846 CLEMENTS, SAINT LOUIS, MO, 63112","No_Match",NA,NA,NA,NA
742811,"5846 COBBLESTONE LN","WAUNAKEE","WI",53597,43.160029319,-89.443077102,311,"5846 COBBLESTONE LN, WAUNAKEE, WI, 53597","Match","Exact","5846 COBBLESTONE LN, WAUNAKEE, WI, 53597",645581675,"R"
742812,"5846 CRAVEN ROAD","EMMETT","MI",48022,43.0679119320001,-82.8234473209999,312,"5846 CRAVEN ROAD, EMMETT, MI, 48022","Match","Exact","5846 CRAVEN RD, EMMETT, MI, 48022",623784150,"R"
742813,"5846 DA VINCI WAY","SACRAMENTO","CA",95835,38.683706794,-121.530690908,313,"5846 DA VINCI WAY, SACRAMENTO, CA, 95835","Match","Exact","5846 DA VINCI WAY, SACRAMENTO, CA, 95835",614155613,"R"
742814,"5846 DEMOCRACY DR","INDIANAPOLIS","IN",46254,39.859368499,-86.255188344,314,"5846 DEMOCRACY DR, INDIANAPOLIS, IN, 46254","Match","Exact","5846 DEMOCRACY DR, INDIANAPOLIS, IN, 46254",108017451,"L"
742815,"5846 HARRIS AVE","JACKSONVILLE","FL",32211,30.33176689,-81.599136657,315,"5846 HARRIS AVE, JACKSONVILLE, FL, 32211","Match","Exact","5846 HARRIS AVE, JACKSONVILLE, FL, 32211",639970328,"R"
742816,"5846 LILLIAN LANE","MORROW","GA",30260,33.596213725,-84.3201802519999,316,"5846 LILLIAN LANE, MORROW, GA, 30260","Match","Non_Exact","5846 LILIAN LN, MORROW, GA, 30260",624816408,"L"
742817,"5846 LLOYD STREET NW","ROCHESTER","MN",55901,44.074542218,-92.555208503,317,"5846 LLOYD STREET NW, ROCHESTER, MN, 55901","Match","Exact","5846 LLOYD ST NW, ROCHESTER, MN, 55901",30573522,"L"
742818,"5846 N 81ST STREET","MILWAUKEE","WI",53218,43.1240898390001,-88.0121086239999,318,"5846 N 81ST STREET, MILWAUKEE, WI, 53218","Match","Exact","5846 N 81ST ST, MILWAUKEE, WI, 53218",77725964,"R"
742819,"5846 NORTH KOSTNER AVENUE","CHICAGO","IL",60514,41.9875004670001,-87.738308387,319,"5846 NORTH KOSTNER AVENUE, CHICAGO, IL, 60514","Match","Non_Exact","5846 N KOSTNER AVE, CHICAGO, IL, 60646",616886766,"L"
742820,"5846 PALA MESA DRIVE","SAN JOSE","CA",95123,37.2426581920001,-121.813472243,320,"5846 PALA MESA DRIVE, SAN JOSE, CA, 95123","Match","Exact","5846 PALA MESA DR, SAN JOSE, CA, 95123",618193000,"L"
742821,"5846 RED COAT LANE","WEST BLOOMFIELD","MI",48322,42.552868249,-83.366666997,321,"5846 RED COAT LANE, WEST BLOOMFIELD, MI, 48322","Match","Exact","5846 RED COAT LN, W BLOOMFIELD, MI, 48322",69722157,"R"
742822,"5846 S 3230 W","TAYLORSVILLE","UT",84129,40.644897239,-111.968218768,322,"5846 S 3230 W, TAYLORSVILLE, UT, 84129","Match","Exact","5846 S 3230 W, TAYLORSVILLE, UT, 84129",176122017,"R"
742823,"5846 S FLAMINGO RD STE 263","COOPER CITY","FL",33330,26.0481863370001,-80.31298945,323,"5846 S FLAMINGO RD STE 263, COOPER CITY, FL, 33330","Match","Non_Exact","5846 S FLAMINGO RD, COOPER CITY, FL, 33330",636923148,"L"
742824,"5846 SHRIMPERS ROW","HOUMA","LA",70360,29.443792984,-90.704456551,324,"5846 SHRIMPERS ROW, HOUMA, LA, 70360","Match","Non_Exact","5846 SHRIMPERS ROW, HOUMA, LA, 70363",92066043,"L"
742825,"5846 SOUTH FLAMINGO RD SUITE 501","COOPER CITY","FL",33330,26.048189456,-80.312989568,325,"5846 SOUTH FLAMINGO RD SUITE 501, COOPER CITY, FL, 33330","Match","Exact","5846 S FLAMINGO RD, COOPER CITY, FL, 33330",636923148,"L"
742826,"5846 SUNDROPS AVENUE","GALLOWAY","OH",43119,39.9220932480001,-83.150152409,326,"5846 SUNDROPS AVENUE, GALLOWAY, OH, 43119","Match","Exact","5846 SUNDROPS AVE, GALLOWAY, OH, 43119",218675866,"L"
742827,"5846 W BLOOMFIELD ROAD","GLENDALE","AZ",85304,33.5986942660001,-112.184167044,327,"5846 W BLOOMFIELD ROAD, GLENDALE, AZ, 85304","Match","Exact","5846 W BLOOMFIELD RD, GLENDALE, AZ, 85304",128389120,"L"
742828,"5847 AGRA STREET","BELL GARDENS","CA",90201,33.976223158,-118.160726827,328,"5847 AGRA STREET, BELL GARDENS, CA, 90201","Match","Exact","5847 AGRA ST, BELL GARDENS, CA, 90201",142771453,"L"
742829,"5847 BLUE SAGE DRIVE","PALMDALE","CA",93552,34.5657135810001,-118.024323682,329,"5847 BLUE SAGE DRIVE, PALMDALE, CA, 93552","Match","Exact","5847 BLUE SAGE DR, PALMDALE, CA, 93552",141837220,"L"
742830,"5847 DOUBLE BRIDGE RD","ELLENWOOD","GA",30281,33.5948541280001,-84.294909275,330,"5847 DOUBLE BRIDGE RD, ELLENWOOD, GA, 30281","Match","Non_Exact","5847 DOUBLE BRIDGE RD, ELLENWOOD, GA, 30294",652433237,"R"
742831,"5847 E PLAYER PLACE","MESA","AZ",85215,33.4623788850001,-111.704847219,331,"5847 E PLAYER PLACE, MESA, AZ, 85215","Match","Exact","5847 E PLAYER PL, MESA, AZ, 85215",128250884,"R"
742832,"5847 E POST OAK LANE","HOUSTON","TX",77055,NA,NA,332,"5847 E POST OAK LANE, HOUSTON, TX, 77055","No_Match",NA,NA,NA,NA
742833,"5847 FRANK GAILEY RD","CLERMONT","GA",30527,34.4663503790001,-83.796877874,333,"5847 FRANK GAILEY RD, CLERMONT, GA, 30527","Match","Exact","5847 FRANK GAILEY RD, CLERMONT, GA, 30527",98280291,"L"
742834,"5847 GOLDING DRIVE","LANCASTER","CA",93536,34.688817467,-118.23588887,334,"5847 GOLDING DRIVE, LANCASTER, CA, 93536","Match","Exact","5847 GOLDING DR, LANCASTER, CA, 93536",627894639,"R"
742835,"5847 GRAND HARBOUR CIR","BOYNTON BEACH","FL",33437,26.516519099,-80.138048625,335,"5847 GRAND HARBOUR CIR, BOYNTON BEACH, FL, 33437","Match","Exact","5847 GRAND HARBOUR CIR, BOYNTON BEACH, FL, 33437",115497788,"R"
742836,"5847 HAAHEO RD","KAPAA","HI",96746,NA,NA,336,"5847 HAAHEO RD, KAPAA, HI, 96746","Tie",NA,NA,NA,NA
742837,"5847 KANSAS STREET","HOUSTON","TX",77007,29.781913763,-95.427691835,337,"5847 KANSAS STREET, HOUSTON, TX, 77007","Match","Exact","5847 KANSAS ST, HOUSTON, TX, 77007",96059858,"L"
742838,"5847 KILONA DRIVE","BATON ROUGE","LA",70812,30.5051454530001,-91.1099751839999,338,"5847 KILONA DRIVE, BATON ROUGE, LA, 70812","Match","Exact","5847 KILONA DR, BATON ROUGE, LA, 70812",92188837,"L"
742839,"5847 MACINNESS DRIVE","MEMPHIS","TN",38119,35.081307381,-89.868564579,339,"5847 MACINNESS DRIVE, MEMPHIS, TN, 38119","Match","Exact","5847 MACINNESS DR, MEMPHIS, TN, 38119",72927672,"R"
742840,"5847 N 200 E","LEESBURG","IN",46538,41.3207153000001,-85.805463678,340,"5847 N 200 E, LEESBURG, IN, 46538","Match","Exact","5847 N 200 E, LEESBURG, IN, 46538",7934594,"L"
742841,"5847 N 231ST W","ANDALE","KS",67001,37.787259265,-97.608011033,341,"5847 N 231ST W, ANDALE, KS, 67001","Match","Non_Exact","5847 N 231ST ST W, ANDALE, KS, 67001",115623315,"L"
742842,"5847 NW 120 AVE","CORAL SPRINGS","FL",33076,26.3060220190001,-80.286378632,342,"5847 NW 120 AVE, CORAL SPRINGS, FL, 33076","Match","Exact","5847 NW 120TH AVE, CORAL SPRINGS, FL, 33076",614701766,"L"
742843,"5847 PHEASANT RD","BETHLEHEM","PA",18017,40.6798321470001,-75.422809523,343,"5847 PHEASANT RD, BETHLEHEM, PA, 18017","Match","Exact","5847 PHEASANT RD, BETHLEHEM, PA, 18017",136891577,"L"
742844,"5847 STONEVILLE ROAD","WINDSOR","OH",44099,41.5569897720001,-80.960604996,344,"5847 STONEVILLE ROAD, WINDSOR, OH, 44099","Match","Exact","5847 STONEVILLE RD, WINDSOR, OH, 44099",117320581,"R"
742845,"5847 STRONG CREEK DR","HOUSTON","TX",77084,29.862559047,-95.659693879,345,"5847 STRONG CREEK DR, HOUSTON, TX, 77084","Match","Exact","5847 STRONG CREEK DR, HOUSTON, TX, 77084",624593271,"R"
742846,"5847 SUN COVE APT 1","MEMPHIS","TN",38134,35.1814945470001,-89.8677955909999,346,"5847 SUN COVE APT 1, MEMPHIS, TN, 38134","Match","Exact","5847 SUN COVE, MEMPHIS, TN, 38134",72954721,"R"
742847,"5847 W MELROSE STREET","CHICAGO","IL",60634,41.9394076610001,-87.772387521,347,"5847 W MELROSE STREET, CHICAGO, IL, 60634","Match","Exact","5847 W MELROSE ST, CHICAGO, IL, 60634",111751676,"L"
742848,"5847 WEST 6TH STREET","LOS ANGELES","CA",90036,34.0648842740001,-118.355549145,348,"5847 WEST 6TH STREET, LOS ANGELES, CA, 90036","Match","Exact","5847 W 6TH ST, LOS ANGELES, CA, 90036",141788636,"R"
742849,"5848 ALPHINE RD","SAN PABLO","CA",94806,NA,NA,349,"5848 ALPHINE RD, SAN PABLO, CA, 94806","No_Match",NA,NA,NA,NA
742850,"5848 ANGLING ROAD","PORTAGE","MI",49024,42.232194124,-85.62870749,350,"5848 ANGLING ROAD, PORTAGE, MI, 49024","Match","Exact","5848 ANGLING RD, PORTAGE, MI, 49024",12244624,"R"
742851,"5848 ARCH STREET","PHILADELPHIA","PA",19139,39.9632210780001,-75.237940268,351,"5848 ARCH STREET, PHILADELPHIA, PA, 19139","Match","Exact","5848 ARCH ST, PHILADELPHIA, PA, 19139",131397574,"L"
742852,"5848 COBBLESTONE CREEK","MABLETON","GA",30126,NA,NA,352,"5848 COBBLESTONE CREEK, MABLETON, GA, 30126","Tie",NA,NA,NA,NA
742853,"5848 CONSTITUTION ST","AVE MARIA","FL",34142,26.3146308980001,-81.441827812,353,"5848 CONSTITUTION ST, AVE MARIA, FL, 34142","Match","Exact","5848 CONSTITUTION ST, AVE MARIA, FL, 34142",648662295,"L"
742854,"5848 COUNTRY DRIVE RD","VERONA","NY",13478,43.1483076320001,-75.57042885,354,"5848 COUNTRY DRIVE RD, VERONA, NY, 13478","Match","Exact","5848 COUNTRY DR, VERONA, NY, 13478",171579702,"R"
742855,"5848 DIGGERS LANE","ELKRIDGE","MD",21075,39.210542993,-76.732738287,355,"5848 DIGGERS LANE, ELKRIDGE, MD, 21075","Match","Exact","5848 DIGGERS LN, ELKRIDGE, MD, 21075",158928295,"R"
742856,"5848 E 145TH ST S","BIXBY","OK",74008,35.9530592880001,-95.911515948,356,"5848 E 145TH ST S, BIXBY, OK, 74008","Match","Exact","5848 E 145TH ST S, BIXBY, OK, 74008",638766776,"R"
742857,"5848 FOOTHILL BLVD SUITE 210","OAKLAND","CA",90037,37.7717686620001,-122.191288345,357,"5848 FOOTHILL BLVD SUITE 210, OAKLAND, CA, 90037","Match","Non_Exact","5848 FOOTHILL BLVD, OAKLAND, CA, 94605",618783462,"L"
742858,"5848 GLEN HAVEN DR","GREENDALE","WI",53129,42.937724625,-88.0204086539999,358,"5848 GLEN HAVEN DR, GREENDALE, WI, 53129","Match","Exact","5848 GLEN HAVEN DR, GREENDALE, WI, 53129",77764951,"L"
742859,"5848 GLEN HAVEN DRIVE","GREENDALE","WI",53129,42.937724625,-88.0204086539999,359,"5848 GLEN HAVEN DRIVE, GREENDALE, WI, 53129","Match","Exact","5848 GLEN HAVEN DR, GREENDALE, WI, 53129",77764951,"L"
742860,"5848 GREEN MEADOW DR","HELENA","MT",59602,46.656739294,-112.048611339,360,"5848 GREEN MEADOW DR, HELENA, MT, 59602","Match","Exact","5848 GREEN MEADOW DR, HELENA, MT, 59602",202381397,"L"
742861,"5848 IRWIN SIMPSON ROAD","MASON","OH",45040,39.3079343420001,-84.3271602299999,361,"5848 IRWIN SIMPSON ROAD, MASON, OH, 45040","Match","Exact","5848 IRWIN SIMPSON RD, MASON, OH, 45040",159031669,"R"
742862,"5848 MONTROSE STREET","PHILADELPHIA","PA",19143,39.9485138060001,-75.2405118739999,362,"5848 MONTROSE STREET, PHILADELPHIA, PA, 19143","Match","Exact","5848 MONTROSE ST, PHILADELPHIA, PA, 19143",131397893,"L"
742863,"5848 NORTH 40TH STREET","MILWAUKEE","WI",53209,43.124002627,-87.962191554,363,"5848 NORTH 40TH STREET, MILWAUKEE, WI, 53209","Match","Exact","5848 N 40TH ST, MILWAUKEE, WI, 53209",77726898,"R"
742864,"5848 NORTH ILLINOIS ROUTE 2","OREGON","IL",61061,42.1017361250001,-89.316720722,364,"5848 NORTH ILLINOIS ROUTE 2, OREGON, IL, 61061","Match","Exact","5848 N STATE RTE 2, OREGON, IL, 61061",624717093,"L"
742865,"5848 PETALUMA HILL RD","SANTA ROSA","CA",95404,38.3610641220001,-122.667034962,365,"5848 PETALUMA HILL RD, SANTA ROSA, CA, 95404","Match","Exact","5848 PETALUMA HILL RD, SANTA ROSA, CA, 95404",67475226,"L"
742866,"5848 PLUNKETT ST","HOLLYWOOD","FL",33023,25.998949091,-80.204204846,366,"5848 PLUNKETT ST, HOLLYWOOD, FL, 33023","Match","Exact","5848 PLUNKETT ST, HOLLYWOOD, FL, 33023",639373695,"L"
742867,"5848 RACEHORSE LOOP","HELENA","MT",59602,46.7450383030001,-112.158517552,367,"5848 RACEHORSE LOOP, HELENA, MT, 59602","Match","Exact","5848 RACEHORSE LOOP, HELENA, MT, 59602",653275921,"R"
742868,"5848 S DELAWARE AVE","CUDAHY","WI",53110,42.9380535280001,-87.8773944009999,368,"5848 S DELAWARE AVE, CUDAHY, WI, 53110","Match","Exact","5848 S DELAWARE AVE, CUDAHY, WI, 53110",77755082,"L"
742869,"5848 SEGENETT DR","MARRERO","LA",70072,NA,NA,369,"5848 SEGENETT DR, MARRERO, LA, 70072","No_Match",NA,NA,NA,NA
742870,"5848 SEGENETTE DR","MARRERO","LA",70072,29.866761657,-90.113868522,370,"5848 SEGENETTE DR, MARRERO, LA, 70072","Match","Non_Exact","5848 SEGNETTE DR, MARRERO, LA, 70072",93506042,"R"
742871,"5848 SEGNETTE DR","MARRERO","LA",70072,29.866761657,-90.113868522,371,"5848 SEGNETTE DR, MARRERO, LA, 70072","Match","Exact","5848 SEGNETTE DR, MARRERO, LA, 70072",93506042,"R"
742872,"5848 SOMERTON DR","GRAND PRAIRIE","TX",75052,32.6416842400001,-97.052373613,372,"5848 SOMERTON DR, GRAND PRAIRIE, TX, 75052","Match","Exact","5848 SOMERTON DR, GRAND PRAIRIE, TX, 75052",102187566,"L"
742873,"5848 SOUTH LAWNDALE AVE","CHICAGO","IL",60629,41.786284569,-87.715620691,373,"5848 SOUTH LAWNDALE AVE, CHICAGO, IL, 60629","Match","Exact","5848 S LAWNDALE AVE, CHICAGO, IL, 60629",605304803,"R"
742874,"5848 TILDEN HILL RD","VERONA","NY",13478,43.142384613,-75.558951991,374,"5848 TILDEN HILL RD, VERONA, NY, 13478","Match","Exact","5848 TILDEN HILL RD, VERONA, NY, 13478",171541066,"R"
742875,"5848 VISTA AVE","SACRAMENTO","CA",95824,38.5203785460001,-121.450185518,375,"5848 VISTA AVE, SACRAMENTO, CA, 95824","Match","Exact","5848 VISTA AVE, SACRAMENTO, CA, 95824",133411392,"R"
742876,"58480 MAIN ST  480187","NEW HAVEN","MI",48048,42.730262123,-82.802185841,376,"58480 MAIN ST  480187, NEW HAVEN, MI, 48048","Match","Exact","58480 MAIN ST, NEW HAVEN, MI, 48048",110726727,"L"
742877,"5849 1ST AVE N","DENBIGH","ND",58788,NA,NA,377,"5849 1ST AVE N, DENBIGH, ND, 58788","No_Match",NA,NA,NA,NA
742878,"5849 BELMONT RIDGE CIR","LITHONIA","GA",30038,33.6632924260001,-84.156738,378,"5849 BELMONT RIDGE CIR, LITHONIA, GA, 30038","Match","Exact","5849 BELMONT RIDGE CIR, LITHONIA, GA, 30038",23398452,"L"
742879,"5849 BOUNTY CIRCLE","TAVARES","FL",32778,28.7496939120001,-81.759852918,379,"5849 BOUNTY CIRCLE, TAVARES, FL, 32778","Match","Exact","5849 BOUNTY CIR, TAVARES, FL, 32778",617502198,"L"
742880,"5849 COLFAX AVENUE NORTH","MINNEAPOLIS","MN",55430,45.0610872560001,-93.292432793,380,"5849 COLFAX AVENUE NORTH, MINNEAPOLIS, MN, 55430","Match","Exact","5849 COLFAX AVE N, MINNEAPOLIS, MN, 55430",43616860,"L"
742881,"5849 COMMONWEALTH AVENUE","JACKSONVILLE","FL",32254,30.335798804,-81.748322064,381,"5849 COMMONWEALTH AVENUE, JACKSONVILLE, FL, 32254","Match","Exact","5849 COMMONWEALTH AVE, JACKSONVILLE, FL, 32254",83888504,"R"
742882,"5849 DAPPLE TRACE","INDIANAPOLIS","IN",46228,39.858478104,-86.220228993,382,"5849 DAPPLE TRACE, INDIANAPOLIS, IN, 46228","Match","Exact","5849 DAPPLE TRCE, INDIANAPOLIS, IN, 46228",108028260,"R"
742883,"5849 E JUSTINE ROAD","SCOTTSDALE","AZ",85254,33.6291414720001,-111.953864347,383,"5849 E JUSTINE ROAD, SCOTTSDALE, AZ, 85254","Match","Exact","5849 E JUSTINE RD, SCOTTSDALE, AZ, 85254",128915511,"L"
742884,"5849 E NIGHT GLOW CIRCLE","SCOTTSDALE","AZ",85266,33.7938752790001,-111.954967845,384,"5849 E NIGHT GLOW CIRCLE, SCOTTSDALE, AZ, 85266","Match","Exact","5849 E NIGHT GLOW CIR, SCOTTSDALE, AZ, 85266",128606632,"R"
742885,"5849 FAIRMONT DR","REDDING","CA",96002,40.624152909,-122.357302124,385,"5849 FAIRMONT DR, REDDING, CA, 96002","Match","Non_Exact","5849 FAIRMONT DR, REDDING, CA, 96003",126658801,"R"
742886,"5849 FIDLER AVENUE","LAKEWOOD","CA",90712,33.8615119930001,-118.131766343,386,"5849 FIDLER AVENUE, LAKEWOOD, CA, 90712","Match","Exact","5849 FIDLER AVE, LAKEWOOD, CA, 90712",241245157,"L"
742887,"5849 GRANADA LANE","FAIRWAY","KS",66205,39.0230304090001,-94.638670861,387,"5849 GRANADA LANE, FAIRWAY, KS, 66205","Match","Exact","5849 GRANADA LN, FAIRWAY, KS, 66205",91297858,"L"
742888,"5849 KINGSFIELD","WEST BLOOMFIELD","MI",48322,42.5545825470001,-83.390274021,388,"5849 KINGSFIELD, WEST BLOOMFIELD, MI, 48322","Match","Non_Exact","5849 KINGSFIELD DR, W BLOOMFIELD, MI, 48322",69721730,"R"
742889,"5849 LENGWOOD DRIVE","CINCINNATI","OH",45244,39.1121591250001,-84.385520666,389,"5849 LENGWOOD DRIVE, CINCINNATI, OH, 45244","Match","Exact","5849 LENGWOOD DR, CINCINNATI, OH, 45244",103937671,"R"
742890,"5849 LYNN LAKE DR S UNIT A","ST PETERSBURG","FL",33712,27.7180100630001,-82.663140218,390,"5849 LYNN LAKE DR S UNIT A, ST PETERSBURG, FL, 33712","Match","Exact","5849 LYNN LAKE DR S, SAINT PETERSBURG, FL, 33712",639736946,"R"
742891,"5849 N 74TH STREET","MILWAUKEE","WI",53218,43.1241016390001,-88.003424184,391,"5849 N 74TH STREET, MILWAUKEE, WI, 53218","Match","Exact","5849 N 74TH ST, MILWAUKEE, WI, 53218",77726018,"L"
742892,"5849 RIVERSTONE CIRCLE","ATLANTA","GA",30339,33.912276096,-84.463002401,392,"5849 RIVERSTONE CIRCLE, ATLANTA, GA, 30339","Match","Exact","5849 RIVERSTONE CIR, ATLANTA, GA, 30339",634051415,"L"
742893,"5849 SANDBURG DR","NORTH FORT MYERS","FL",33903,26.64795989,-81.922787269,393,"5849 SANDBURG DR, NORTH FORT MYERS, FL, 33903","Match","Exact","5849 SANDBURG DR, N FORT MYERS, FL, 33903",118054433,"L"
742894,"5849 SHETLAND CIRCLE","FRISCO","TX",75034,33.133923343,-96.83611962,394,"5849 SHETLAND CIRCLE, FRISCO, TX, 75034","Match","Exact","5849 SHETLAND CIR, FRISCO, TX, 75034",123563660,"L"
742895,"5849 SOUTH MANSFIELD AVE","LOS ANGELES","CA",90043,33.987897177,-118.357471893,395,"5849 SOUTH MANSFIELD AVE, LOS ANGELES, CA, 90043","Match","Exact","5849 S MANSFIELD AVE, LOS ANGELES, CA, 90043",141653720,"R"
742896,"5849 SW 44TH ST","PORT ORCHARD","WA",98367,47.5085483940001,-122.730034098,396,"5849 SW 44TH ST, PORT ORCHARD, WA, 98367","Match","Exact","5849 SW 44TH ST, PORT ORCHARD, WA, 98367",187671540,"R"
742897,"5849 SYCAMORE RIDGE DRIVE","SUGAR HILL","GA",30518,34.131474134,-84.04976135,397,"5849 SYCAMORE RIDGE DRIVE, SUGAR HILL, GA, 30518","Match","Exact","5849 SYCAMORE RIDGE DR, SUGAR HILL, GA, 30518",88944282,"R"
742898,"5849 VISTA DRIVE","FERNDALE","WA",98248,48.8538928940001,-122.597136158,398,"5849 VISTA DRIVE, FERNDALE, WA, 98248","Match","Exact","5849 VISTA DR, FERNDALE, WA, 98248",644178285,"L"
742899,"5849 W KING ARTHUR DR","SIOUX FALLS","SD",57106,43.524391607,-96.798921965,399,"5849 W KING ARTHUR DR, SIOUX FALLS, SD, 57106","Match","Exact","5849 W KING ARTHUR DR, SIOUX FALLS, SD, 57106",34970041,"L"
742900,"5849 W RACE AVENUE","CHICAGO","IL",60644,41.890053025,-87.771044968,400,"5849 W RACE AVENUE, CHICAGO, IL, 60644","Match","Exact","5849 W RACE AVE, CHICAGO, IL, 60644",111753932,"L"
742901,"5849 WASHINGTON ST APT 79","HOLLYWOOD","FL",33023,26.002645135,-80.203656813,401,"5849 WASHINGTON ST APT 79, HOLLYWOOD, FL, 33023","Match","Exact","5849 WASHINGTON ST, HOLLYWOOD, FL, 33023",639373707,"R"
742902,"5849 WINWOOD DRIVE","JOHNSTON","IA",50131,41.669111629,-93.700582357,402,"5849 WINWOOD DRIVE, JOHNSTON, IA, 50131","Match","Exact","5849 WINWOOD DR, JOHNSTON, IA, 50131",65856717,"R"
742903,"5849 XERXES AVE S","MINNEAPOLIS","MN",55410,44.8971144700001,-93.318819569,403,"5849 XERXES AVE S, MINNEAPOLIS, MN, 55410","Match","Exact","5849 XERXES AVE S, MINNEAPOLIS, MN, 55410",43629494,"L"
742904,"5849 YORKTOWN RD","LORAIN","OH",44053,41.4240423160001,-82.235971848,404,"5849 YORKTOWN RD, LORAIN, OH, 44053","Match","Exact","5849 YORKTOWN RD, LORAIN, OH, 44053",55403269,"L"
742905,"5849","SAINT LOUIS","MO",63112,NA,NA,405,"5849, SAINT LOUIS, MO, 63112","No_Match",NA,NA,NA,NA
742906,"58494 S 530 RD","ROSE","OK",74364,36.1670059730001,-94.9402634579999,406,"58494 S 530 RD, ROSE, OK, 74364","Match","Exact","58494 S 530 RD, ROSE, OK, 74364",613652399,"R"
742907,"585 127TH LANE NW","COON RAPIDS","MN",55448,45.201080162,-93.280504695,407,"585 127TH LANE NW, COON RAPIDS, MN, 55448","Match","Exact","585 127TH LN NW, COON RAPIDS, MN, 55448",97509696,"R"
742908,"585 127TH LN NW","COON RAPIDS","MN",55448,45.201080162,-93.280504695,408,"585 127TH LN NW, COON RAPIDS, MN, 55448","Match","Exact","585 127TH LN NW, COON RAPIDS, MN, 55448",97509696,"R"
742909,"585 55TH AVE NE","ST. PETERSBURG","FL",33703,27.821824867,-82.6286288649999,409,"585 55TH AVE NE, ST. PETERSBURG, FL, 33703","Match","Exact","585 55TH AVE NE, SAINT PETERSBURG, FL, 33703",124712321,"L"
742910,"585 ACKER RD","MANSFIELD","OH",44905,40.774253349,-82.485435595,410,"585 ACKER RD, MANSFIELD, OH, 44905","Match","Non_Exact","585 ACKER DR, MANSFIELD, OH, 44905",207219715,"L"
742911,"585 ALTURAS DRIVE NORTH","TWIN FALLS","ID",83301,42.5720565410001,-114.449798323,411,"585 ALTURAS DRIVE NORTH, TWIN FALLS, ID, 83301","Match","Exact","585 ALTURAS DR N, TWIN FALLS, ID, 83301",118790008,"L"
742912,"585 AUGUSTA DR","HERNANDO","MS",38632,34.84488573,-89.979776525,412,"585 AUGUSTA DR, HERNANDO, MS, 38632","Match","Exact","585 AUGUSTA DR, HERNANDO, MS, 38632",91832055,"R"
742913,"585 BARKWORTH ROAD","CLEMMONS","NC",27012,36.009515822,-80.392563363,413,"585 BARKWORTH ROAD, CLEMMONS, NC, 27012","Match","Exact","585 BARKWORTH RD, CLEMMONS, NC, 27012",84630635,"L"
742914,"585 BARNES RD","AURORA","IL",60506,NA,NA,414,"585 BARNES RD, AURORA, IL, 60506","No_Match",NA,NA,NA,NA
742915,"585 BECKER CT","ZIONSVILLE","IN",46077,39.9644391370001,-86.258876032,415,"585 BECKER CT, ZIONSVILLE, IN, 46077","Match","Exact","585 BECKER CT, ZIONSVILLE, IN, 46077",29254663,"L"
742916,"585 BELANGER DRIVE","NIPOMO","CA",93444,35.025671129,-120.477437726,416,"585 BELANGER DRIVE, NIPOMO, CA, 93444","Match","Exact","585 BELANGER DR, NIPOMO, CA, 93444",109744155,"R"
742917,"585 BELANGER","NIPOMO","CA",93444,35.025671129,-120.477437726,417,"585 BELANGER, NIPOMO, CA, 93444","Match","Non_Exact","585 BELANGER DR, NIPOMO, CA, 93444",109744155,"R"
742918,"585 BERNICE ROAD","FRANKLIN SQUARE","NY",11010,40.6905290920001,-73.6774293619999,418,"585 BERNICE ROAD, FRANKLIN SQUARE, NY, 11010","Match","Exact","585 BERNICE RD, FRANKLIN SQUARE, NY, 11010",147669691,"L"
742919,"585 BLACK POND ROAD","BOWMAN","SC",29018,33.280241259,-80.609893397,419,"585 BLACK POND ROAD, BOWMAN, SC, 29018","Match","Exact","585 BLACK POND RD, BOWMAN, SC, 29018",19224400,"L"
742920,"585 BOUNDS RD","BYRAM","MS",39272,32.195517803,-90.237498705,420,"585 BOUNDS RD, BYRAM, MS, 39272","Match","Exact","585 BOUNDS RD, BYRAM, MS, 39272",65369070,"R"
742921,"585 BROCKWAY ROAD","OWENS CROSS ROADS","AL",35763,34.5623837850001,-86.450570759,421,"585 BROCKWAY ROAD, OWENS CROSS ROADS, AL, 35763","Match","Exact","585 BROCKWAY RD, OWENS CROSS ROADS, AL, 35763",650001659,"R"
742922,"585 BROOKSTONE DR","ATHENS","GA",30605,33.8994237700001,-83.334783618,422,"585 BROOKSTONE DR, ATHENS, GA, 30605","Match","Exact","585 BROOKSTONE DR, ATHENS, GA, 30605",4807759,"L"
742923,"585 BUCKS CHURCH RD","NEWPORT","PA",17074,40.4913410080001,-77.005031864,423,"585 BUCKS CHURCH RD, NEWPORT, PA, 17074","Match","Exact","585 BUCKS CHURCH RD, NEWPORT, PA, 17074",61084313,"R"
742924,"585 BUENA VISTA DR","HALIFAX","VA",24558,36.772320483,-78.927127161,424,"585 BUENA VISTA DR, HALIFAX, VA, 24558","Match","Exact","585 BUENA VISTA DR, HALIFAX, VA, 24558",90324228,"R"
742925,"585 CASSIA ST APT 3","REDWOOD CITY","CA",94063,37.4842971890001,-122.224291976,425,"585 CASSIA ST APT 3, REDWOOD CITY, CA, 94063","Match","Exact","585 CASSIA ST, REDWOOD CITY, CA, 94063",192361366,"L"
742926,"585 CENTRAL AVE","JEFFERSON","LA",70121,29.962448072,-90.172255031,426,"585 CENTRAL AVE, JEFFERSON, LA, 70121","Match","Exact","585 CENTRAL AVE, JEFFERSON, LA, 70121",93539839,"R"
742927,"585 CENTRAL AVENUE","JEFFERSON","WA",70121,NA,NA,427,"585 CENTRAL AVENUE, JEFFERSON, WA, 70121","No_Match",NA,NA,NA,NA
742928,"585 CHASTLETON DRIVE","HAMPTON","GA",30228,33.3646257880001,-84.375034205,428,"585 CHASTLETON DRIVE, HAMPTON, GA, 30228","Match","Exact","585 CHASTLETON DR, HAMPTON, GA, 30228",632403761,"R"
742929,"585 CLAREMONT AVE","ROCKINGHAM","VA",22801,38.389909022,-78.820985464,429,"585 CLAREMONT AVE, ROCKINGHAM, VA, 22801","Match","Exact","585 CLAREMONT AVE, ROCKINGHAM, VA, 22801",635366575,"R"
742930,"585 COVERED BRIDGE PARKWAY APT 108","PRATTVILLE","AL",36066,32.476306896,-86.415166396,430,"585 COVERED BRIDGE PARKWAY APT 108, PRATTVILLE, AL, 36066","Match","Exact","585 COVERED BRIDGE PKWY, PRATTVILLE, AL, 36066",641837237,"L"
742931,"585 CREEK DR","WATSONVILLE","CA",95076,36.9213378700001,-121.744572477,431,"585 CREEK DR, WATSONVILLE, CA, 95076","Match","Exact","585 CREEK DR, WATSONVILLE, CA, 95076",125514219,"L"
742932,"585 CUMMINGS RD","GREENE","NY",13778,42.3777389480001,-75.7706622599999,432,"585 CUMMINGS RD, GREENE, NY, 13778","Match","Exact","585 CUMMINGS RD, GREENE, NY, 13778",46426452,"L"
742933,"585 DIAGNOL","AKRON","OH",44320,NA,NA,433,"585 DIAGNOL, AKRON, OH, 44320","No_Match",NA,NA,NA,NA
742934,"585 DOGWOOD LN","MCCONNELLSBURG","PA",17233,39.990002227,-77.9823946189999,434,"585 DOGWOOD LN, MCCONNELLSBURG, PA, 17233","Match","Non_Exact","585 DOGWOOD LN, MC CONNELLSBURG, PA, 17233",626990153,"L"
742935,"585 DONNA DR","MATTITUCK","NY",11952,40.9915715230001,-72.508948174,435,"585 DONNA DR, MATTITUCK, NY, 11952","Match","Exact","585 DONNA DR, MATTITUCK, NY, 11952",113955898,"L"
742936,"585 E ADAMS ST","HUNTINGTON","OR",97907,44.3509609480001,-117.259496245,436,"585 E ADAMS ST, HUNTINGTON, OR, 97907","Match","Non_Exact","585 ADAMS ST E, HUNTINGTON, OR, 97907",137656893,"L"
742937,"585 E BATTISTA DRIVE","COAL CITY","IL",60416,41.275088059,-88.277587175,437,"585 E BATTISTA DRIVE, COAL CITY, IL, 60416","Match","Exact","585 E BATTISTA DR, COAL CITY, IL, 60416",627092635,"L"
742938,"585 E FERRY ST","BUFFALO","NY",14211,42.9146506970001,-78.841879757,438,"585 E FERRY ST, BUFFALO, NY, 14211","Match","Exact","585 E FERRY ST, BUFFALO, NY, 14211",48296539,"R"
742939,"585 EAST 32ND STREET APT C8","BROOKLYN","NY",11210,40.6366014160001,-73.9461648879999,439,"585 EAST 32ND STREET APT C8, BROOKLYN, NY, 11210","Match","Exact","585 E 32ND ST, BROOKLYN, NY, 11210",59081733,"L"
742940,"585 EAST 51ST STREET","BROOKLYN","NY",11203,40.647294747,-73.928883277,440,"585 EAST 51ST STREET, BROOKLYN, NY, 11203","Match","Exact","585 E 51ST ST, BROOKLYN, NY, 11203",59085755,"L"
742941,"585 EAST 93RD STREET APT 4","BROOKLYN","NY",11236,40.6528970800001,-73.916281907,441,"585 EAST 93RD STREET APT 4, BROOKLYN, NY, 11236","Match","Exact","585 E 93RD ST, BROOKLYN, NY, 11236",640860044,"L"
742942,"585 EAST IRENE ROAD","ZACHARY","LA",70791,30.6107969380001,-91.222142815,442,"585 EAST IRENE ROAD, ZACHARY, LA, 70791","Match","Exact","585 E IRENE RD, ZACHARY, LA, 70791",635971373,"L"
742943,"585 EAST QUAIL ROAD","OREM","UT",84097,40.328603549,-111.682323861,443,"585 EAST QUAIL ROAD, OREM, UT, 84097","Match","Exact","585 E QUAIL RD, OREM, UT, 84097",134205242,"L"
742944,"585 ESSEX DRIVE","GLOUCESTER","MA",1930,42.6246033690001,-70.739168406,444,"585 ESSEX DRIVE, GLOUCESTER, MA, 1930","Match","Non_Exact","585 ESSEX AVE, GLOUCESTER, MA, 01930",86673479,"L"
742945,"585 EZZARD ST SE","ATLANTA","GA",30312,33.7535113820001,-84.3681684059999,445,"585 EZZARD ST SE, ATLANTA, GA, 30312","Match","Exact","585 EZZARD ST SE, ATLANTA, GA, 30312",17357467,"R"
742946,"585 FULLER AVE","SAINT PAUL","MN",55103,44.9539463720001,-93.1250560239999,446,"585 FULLER AVE, SAINT PAUL, MN, 55103","Match","Exact","585 FULLER AVE, SAINT PAUL, MN, 55103",97643930,"R"
742947,"585 GORMONT DRIVE","FRENCHVILLE","PA",16836,41.1070404820001,-78.188092199,447,"585 GORMONT DRIVE, FRENCHVILLE, PA, 16836","Match","Exact","585 GORMONT DR, FRENCHVILLE, PA, 16836",50532961,"R"
742948,"585 GRANDE RIO DRIVE","WOODBRIDGE","CA",95258,38.1595228890001,-121.308430452,448,"585 GRANDE RIO DRIVE, WOODBRIDGE, CA, 95258","Match","Non_Exact","585 GRAND RIO DR, WOODBRIDGE, CA, 95258",133876488,"L"
742949,"585 GRANDVIEW DRIVE","SMITHVILLE","TN",37166,35.9797329450001,-85.7744190719999,449,"585 GRANDVIEW DRIVE, SMITHVILLE, TN, 37166","Match","Exact","585 GRANDVIEW DR, SMITHVILLE, TN, 37166",635465521,"L"
742950,"585 GREASY COVE ROAD","HUNTLAND","TN",37345,35.0196886320001,-86.287532783,450,"585 GREASY COVE ROAD, HUNTLAND, TN, 37345","Match","Exact","585 GREASY COVE RD, HUNTLAND, TN, 37345",57964669,"R"
742951,"585 GREENVIEW SW","CONYERS","GA",30094,NA,NA,451,"585 GREENVIEW SW, CONYERS, GA, 30094","No_Match",NA,NA,NA,NA
742952,"585 GRIMM PLACE","BALDWIN","NY",11510,40.655253868,-73.614810617,452,"585 GRIMM PLACE, BALDWIN, NY, 11510","Match","Exact","585 GRIMM PL, BALDWIN, NY, 11510",147629808,"L"
742953,"585 HAMILTON STREET","SPRINGFIELD","OR",97477,44.0536691710001,-123.034601269,453,"585 HAMILTON STREET, SPRINGFIELD, OR, 97477","Match","Exact","585 HAMILTON ST, SPRINGFIELD, OR, 97477",178172504,"L"
742954,"585 HARROGATE ROAD","PITTSBURGH","PA",15241,40.355676934,-80.069016295,454,"585 HARROGATE ROAD, PITTSBURGH, PA, 15241","Match","Exact","585 HARROGATE RD, PITTSBURGH, PA, 15241",649326635,"L"
742955,"585 HAY STREET","MONTEBELLO","CA",90640,34.023941871,-118.128607399,455,"585 HAY STREET, MONTEBELLO, CA, 90640","Match","Non_Exact","585 N HAY ST, MONTEBELLO, CA, 90640",141639046,"L"
742956,"585 HETRICK RIDGE RD","BEAVERTWON","PA",17813,40.760361152,-77.186167746,456,"585 HETRICK RIDGE RD, BEAVERTWON, PA, 17813","Match","Non_Exact","585 HETRICK RIDGE RD, BEAVERTOWN, PA, 17813",47773346,"R"
742957,"585 HICKAM AVE BLDG 181","TRAVIS AFB","CA",95687,NA,NA,457,"585 HICKAM AVE BLDG 181, TRAVIS AFB, CA, 95687","No_Match",NA,NA,NA,NA
742958,"585 HIDDEN MEADOW LN","PAINT BANK","VA",24131,37.5713493710001,-80.250712178,458,"585 HIDDEN MEADOW LN, PAINT BANK, VA, 24131","Match","Exact","585 HIDDEN MEADOW LN, PAINT BANK, VA, 24131",62892831,"L"
742959,"585 HILLCREST AVE","PACIFIC GROVE","CA",93950,36.6133604870001,-121.920896265,459,"585 HILLCREST AVE, PACIFIC GROVE, CA, 93950","Match","Exact","585 HILLCREST AVE, PACIFIC GROVE, CA, 93950",196866676,"L"
742960,"585 ISLAND DRIVE","WHITE LAKE","MI",48386,42.6319799290001,-83.484487211,460,"585 ISLAND DRIVE, WHITE LAKE, MI, 48386","Match","Exact","585 ISLAND DR, WHITE LAKE, MI, 48386",69837766,"L"
742961,"585 ISSAQUEENA TRL","CLEMSON","SC",29631,34.6842922970001,-82.787484778,461,"585 ISSAQUEENA TRL, CLEMSON, SC, 29631","Match","Exact","585 ISSAQUEENA TRL, CLEMSON, SC, 29631",651690431,"L"
742962,"585 JAMES HUFF RD","MONROE","GA",30656,33.8191748690001,-83.683678577,462,"585 JAMES HUFF RD, MONROE, GA, 30656","Match","Exact","585 JAMES HUFF RD, MONROE, GA, 30656",649919121,"R"
742963,"585 JEFFERSON AVE","FAYETTEVILLE","GA",30214,33.458558985,-84.4430242609999,463,"585 JEFFERSON AVE, FAYETTEVILLE, GA, 30214","Match","Exact","585 JEFFERSON AVE, FAYETTEVILLE, GA, 30214",75949548,"R"
742964,"585 JOEFFIE RD","GRANT","AL",35747,34.4594310150001,-86.3335626269999,464,"585 JOEFFIE RD, GRANT, AL, 35747","Match","Exact","585 JOEFFIE RD, GRANT, AL, 35747",99238203,"L"
742965,"585 JUNIPER LANE","BRUNSWICK","OH",44212,41.2579037790001,-81.869948085,465,"585 JUNIPER LANE, BRUNSWICK, OH, 44212","Match","Exact","585 JUNIPER LN, BRUNSWICK, OH, 44212",636550484,"L"
742966,"585 KAPAKALUA RD","HAIKU","HI",96708,20.9074002720001,-156.275704645,466,"585 KAPAKALUA RD, HAIKU, HI, 96708","Match","Non_Exact","585 KAUPAKALUA RD, HAIKU, HI, 96708",85087996,"L"
742967,"585 KING RD","GOLDSBORO","NC",27530,35.2989987490001,-78.229270103,467,"585 KING RD, GOLDSBORO, NC, 27530","Match","Exact","585 KING RD, GOLDSBORO, NC, 27530",14409421,"L"
742968,"585 LIST AVENUE","ROCHESTER","NY",14617,43.22311512,-77.592834415,468,"585 LIST AVENUE, ROCHESTER, NY, 14617","Match","Exact","585 LIST AVE, ROCHESTER, NY, 14617",14536154,"L"
742969,"585 LOGAN DRIVE","HAMMOND","IN",76320,NA,NA,469,"585 LOGAN DRIVE, HAMMOND, IN, 76320","No_Match",NA,NA,NA,NA
742970,"585 LONGSHORE DR","FLORENCE","AL",35634,34.8952558550001,-87.568709929,470,"585 LONGSHORE DR, FLORENCE, AL, 35634","Match","Exact","585 LONGSHORE DR, FLORENCE, AL, 35634",41326846,"L"
742971,"585 MALLORY","Memphis","TN",38116,NA,NA,471,"585 MALLORY, Memphis, TN, 38116","No_Match",NA,NA,NA,NA
742972,"585 MANDANA BLVD STE 10","OAKLAND","CA",94610,37.81181975,-122.242706796,472,"585 MANDANA BLVD STE 10, OAKLAND, CA, 94610","Match","Exact","585 MANDANA BLVD, OAKLAND, CA, 94610",618784669,"R"
742973,"585 MAPLEWOOD RD","WEST NEWFIELD","ME",4095,43.6733058830001,-70.911515278,473,"585 MAPLEWOOD RD, WEST NEWFIELD, ME, 4095","Match","Exact","585 MAPLEWOOD RD, WEST NEWFIELD, ME, 04095",92749318,"L"
742974,"585 MARC SMILEY RD","CHESAPEAKE","VA",23324,36.779982863,-76.287109376,474,"585 MARC SMILEY RD, CHESAPEAKE, VA, 23324","Match","Exact","585 MARC SMILEY RD, CHESAPEAKE, VA, 23324",652109683,"L"
742975,"585 MARTIN STREET SOUTH EAST","ATLANTA","GA",30312,33.7386454850001,-84.384069822,475,"585 MARTIN STREET SOUTH EAST, ATLANTA, GA, 30312","Match","Non_Exact","585 MARTIN ST SE, ATLANTA, GA, 30312",17346358,"R"
742976,"585 MCDANIEL ST APT 8201","ATLANTA","GA",30312,33.7388755850001,-84.401916354,476,"585 MCDANIEL ST APT 8201, ATLANTA, GA, 30312","Match","Non_Exact","585 MCDANIEL ST SW, ATLANTA, GA, 30312",643282723,"R"
742977,"585 MCWILLIAMS RD SE UNIT 1105","ATLANTA","GA",30315,33.6887776930001,-84.369796671,477,"585 MCWILLIAMS RD SE UNIT 1105, ATLANTA, GA, 30315","Match","Exact","585 MCWILLIAMS RD SE, ATLANTA, GA, 30315",610217657,"R"
742978,"585 MCWILLIAMS ROAD UNIT 1107","ATLANTA","GA",30315,33.6887776930001,-84.369796671,478,"585 MCWILLIAMS ROAD UNIT 1107, ATLANTA, GA, 30315","Match","Non_Exact","585 MCWILLIAMS RD SE, ATLANTA, GA, 30315",610217657,"R"
742979,"585 MINI DRIVE","VALLEJO","CA",94590,38.1483878350001,-122.245631149,479,"585 MINI DRIVE, VALLEJO, CA, 94590","Match","Non_Exact","585 MINI DR, VALLEJO, CA, 94589",192571781,"L"
742980,"585 MONTGOMERY ROAD","HILLSBOROUGH","NJ",8844,40.480638701,-74.754731541,480,"585 MONTGOMERY ROAD, HILLSBOROUGH, NJ, 8844","Match","Exact","585 MONTGOMERY RD, HILLSBOROUGH, NJ, 08844",59974315,"L"
742981,"585 MOON CREEK ROAD","GREENEVILLE","TN",37745,36.1606174120001,-82.731934479,481,"585 MOON CREEK ROAD, GREENEVILLE, TN, 37745","Match","Exact","585 MOON CREEK RD, GREENEVILLE, TN, 37745",648054785,"R"
742982,"585 N HOPPER ROAD","MODESTO","CA",95357,37.6458628290001,-120.829468682,482,"585 N HOPPER ROAD, MODESTO, CA, 95357","Match","Exact","585 N HOPPER RD, MODESTO, CA, 95357",102593430,"L"
742983,"585 N PERRY PKWY","OREGON","WI",53575,42.9337196640001,-89.373455247,483,"585 N PERRY PKWY, OREGON, WI, 53575","Match","Exact","585 N PERRY PKWY, OREGON, WI, 53575",49477597,"L"
742984,"585 N STATE ST","UKIAH","CA",95482,39.154937359,-123.208172188,484,"585 N STATE ST, UKIAH, CA, 95482","Match","Exact","585 N STATE ST, UKIAH, CA, 95482",67266992,"R"
742985,"585 NEILL CEMETERY DRIVE","SAVANNAH","TN",38372,35.2161268310001,-88.189217177,485,"585 NEILL CEMETERY DRIVE, SAVANNAH, TN, 38372","Match","Exact","585 NEILL CEMETERY DR, SAVANNAH, TN, 38372",611951612,"R"
742986,"585 NEWARK AVE APT 4A","ELIZABETH","NJ",7208,40.676391815,-74.2121853089999,486,"585 NEWARK AVE APT 4A, ELIZABETH, NJ, 7208","Match","Exact","585 NEWARK AVE, ELIZABETH, NJ, 07208",60578742,"R"
742987,"585 NIAGARA STREET","BUFFALO","NY",14213,42.8993226430001,-78.890323375,487,"585 NIAGARA STREET, BUFFALO, NY, 14213","Match","Non_Exact","585 NIAGARA ST, BUFFALO, NY, 14201",48290236,"R"
742988,"585 NICK YOUNG RD","EAGLE POINT","OR",97524,42.4618611810001,-122.826323576,488,"585 NICK YOUNG RD, EAGLE POINT, OR, 97524","Match","Exact","585 NICK YOUNG RD, EAGLE POINT, OR, 97524",155597407,"R"
742989,"585 NICK YOUNG ROAD","EAGLE POINT","OR",97524,42.4618611810001,-122.826323576,489,"585 NICK YOUNG ROAD, EAGLE POINT, OR, 97524","Match","Exact","585 NICK YOUNG RD, EAGLE POINT, OR, 97524",155597407,"R"
742990,"585 NORTH DUSK DRIVE","ST. GEORGE","UT",84770,37.1194031540001,-113.62624295,490,"585 NORTH DUSK DRIVE, ST. GEORGE, UT, 84770","Match","Exact","585 N DUSK DR, SAINT GEORGE, UT, 84770",166178705,"R"
742991,"585 NORTH RAILROAD AVE APT 30","STATEN ISLAND","NY",10314,40.5900067110001,-74.0947938159999,491,"585 NORTH RAILROAD AVE APT 30, STATEN ISLAND, NY, 10314","Match","Non_Exact","585 N RAILROAD AVE, STATEN ISLAND, NY, 10304",59868526,"R"
742992,"585 NOTTINGHAM DR","DOUGLASVILLE","GA",30134,33.800445165,-84.843441613,492,"585 NOTTINGHAM DR, DOUGLASVILLE, GA, 30134","Match","Exact","585 NOTTINGHAM DR, DOUGLASVILLE, GA, 30134",207992466,"R"
742993,"585 NW 46TH AVENUE","DELRAY BEACH","FL",33445,26.4715263640001,-80.11625824,493,"585 NW 46TH AVENUE, DELRAY BEACH, FL, 33445","Match","Exact","585 NW 46TH AVE, DELRAY BEACH, FL, 33445",115523312,"R"
742994,"585 NW 9TH AVE","CANBY","OR",97013,45.268984877,-122.7019568,494,"585 NW 9TH AVE, CANBY, OR, 97013","Match","Exact","585 NW 9TH AVE, CANBY, OR, 97013",157933641,"R"
742995,"585 OAKMONT DRIVE E","TELFORD","PA",18969,40.31610843,-75.358223177,495,"585 OAKMONT DRIVE E, TELFORD, PA, 18969","Match","Non_Exact","585 OAKMONT DR, TELFORD, PA, 18969",629909221,"L"
742996,"585 OCEAN SHORE BLVD","ORMOND BEACH","FL",32176,29.307097824,-81.047428172,496,"585 OCEAN SHORE BLVD, ORMOND BEACH, FL, 32176","Match","Exact","585 OCEAN SHORE BLVD, ORMOND BEACH, FL, 32176",94520795,"R"
742997,"585 OCELOT","INEZ","TX",77968,28.885860187,-96.784223052,497,"585 OCELOT, INEZ, TX, 77968","Match","Non_Exact","585 OCELOT RD, INEZ, TX, 77968",44562421,"R"
742998,"585 OVER RIDGE DR","FREDERICK","MA",21703,NA,NA,498,"585 OVER RIDGE DR, FREDERICK, MA, 21703","No_Match",NA,NA,NA,NA
742999,"585 PAJARO LN","LITCHFIELD PARK","AZ",85340,33.504127258,-112.348698088,499,"585 PAJARO LN, LITCHFIELD PARK, AZ, 85340","Match","Non_Exact","585 N PAJARO LN, LITCHFIELD PARK, AZ, 85340",128167275,"R"
743000,"585 PARK ST","LEBANON","OK",97355,NA,NA,500,"585 PARK ST, LEBANON, OK, 97355","No_Match",NA,NA,NA,NA
