"ID","Address","City","State","Zip","lat","long","id","input_address","match_indicator","match_type","matched_address","tiger_line_id","tiger_side"
174001,"1410 SALTER PATH RD","INDIAN BEACH","NC",28512,34.6871326150001,-76.890250679,1,"1410 SALTER PATH RD, INDIAN BEACH, NC, 28512","Match","Exact","1410 SALTER PATH RD, INDIAN BEACH, NC, 28512",634628567,"L"
174002,"1410 SAN PONTE RD","CORONA","CA",92882,33.8759504720001,-117.647624209,2,"1410 SAN PONTE RD, CORONA, CA, 92882","Match","Exact","1410 SAN PONTE RD, CORONA, CA, 92882",194798541,"R"
174003,"1410 SCOTT ST","VINCENNES","IN",47591,38.673739175,-87.5167169169999,3,"1410 SCOTT ST, VINCENNES, IN, 47591","Match","Non_Exact","1410 E SCOTT ST, VINCENNES, IN, 47591",30059378,"R"
174004,"1410 SE 29TH AVE","PORTLAND","OR",97214,45.5127348300001,-122.636101763,4,"1410 SE 29TH AVE, PORTLAND, OR, 97214","Match","Exact","1410 SE 29TH AVE, PORTLAND, OR, 97214",157509682,"L"
174005,"1410 SE 43RD TERRACE","CAPE CORAL","FL",33904,26.5714703100001,-81.946720998,5,"1410 SE 43RD TERRACE, CAPE CORAL, FL, 33904","Match","Exact","1410 SE 43RD TER, CAPE CORAL, FL, 33904",118089263,"R"
174006,"1410 SE 44TH ST","CHOCTAW","OK",73020,NA,NA,6,"1410 SE 44TH ST, CHOCTAW, OK, 73020","No_Match",NA,NA,NA,NA
174007,"1410 SE BELMONT APT 101","PORTLAND","OR",97214,NA,NA,7,"1410 SE BELMONT APT 101, PORTLAND, OR, 97214","No_Match",NA,NA,NA,NA
174008,"1410 SEQUOIA DRIVE","TYLER","TX",75703,32.3014924460001,-95.285426332,8,"1410 SEQUOIA DRIVE, TYLER, TX, 75703","Match","Exact","1410 SEQUOIA DR, TYLER, TX, 75703",141306833,"L"
174009,"1410 SHADYCREEK CT","SAINT LOUIS","MO",63146,38.6865621520001,-90.466883287,9,"1410 SHADYCREEK CT, SAINT LOUIS, MO, 63146","Match","Exact","1410 SHADYCREEK CT, SAINT LOUIS, MO, 63146",625018090,"R"
174010,"1410 SIGLER ST","NASHVILLE","TN",37203,36.1504658320001,-86.7888263739999,10,"1410 SIGLER ST, NASHVILLE, TN, 37203","Match","Exact","1410 SIGLER ST, NASHVILLE, TN, 37203",97231582,"R"
174011,"1410 SILVERSTONE TRAIL - APT 1","DE PERE","WI",54115,44.426586059,-88.054968889,11,"1410 SILVERSTONE TRAIL - APT 1, DE PERE, WI, 54115","Match","Exact","1410 SILVERSTONE TRL, DE PERE, WI, 54115",148112521,"R"
174012,"1410 SIMMONS AVENUE","LOS ANGELES","CA",90022,34.0115872330001,-118.146861561,12,"1410 SIMMONS AVENUE, LOS ANGELES, CA, 90022","Match","Exact","1410 SIMMONS AVE, LOS ANGELES, CA, 90022",141638437,"L"
174013,"1410 SOUTH 7TH STREET","ATCHISON","KS",66002,39.546643578,-95.1219017499999,13,"1410 SOUTH 7TH STREET, ATCHISON, KS, 66002","Match","Exact","1410 S 7TH ST, ATCHISON, KS, 66002",10062831,"R"
174014,"1410 SOUTH BUSSE RD / 2G","MOUNT PROSPECT","IL",60056,42.0416876040001,-87.960769015,14,"1410 SOUTH BUSSE RD / 2G, MOUNT PROSPECT, IL, 60056","Match","Exact","1410 S BUSSE RD, MOUNT PROSPECT, IL, 60056",639786434,"R"
174015,"1410 SOUTH MAIN STREET","NASHVILLE","AR",71852,33.930659893,-93.847093908,15,"1410 SOUTH MAIN STREET, NASHVILLE, AR, 71852","Match","Exact","1410 S MAIN ST, NASHVILLE, AR, 71852",73571178,"L"
174016,"1410 SPANISH TRAIL","GRANBURY","TX",76048,32.4233460630001,-97.8028754869999,16,"1410 SPANISH TRAIL, GRANBURY, TX, 76048","Match","Non_Exact","1410 SPANISH TRAIL DR, GRANBURY, TX, 76048",158797734,"R"
174017,"1410 ST PAUL AVE APT 12","ST PAUL","MN",55116,NA,NA,17,"1410 ST PAUL AVE APT 12, ST PAUL, MN, 55116","No_Match",NA,NA,NA,NA
174018,"1410 STATE ROUTE 56","APOLLO","PA",15613,NA,NA,18,"1410 STATE ROUTE 56, APOLLO, PA, 15613","No_Match",NA,NA,NA,NA
174019,"1410 STEEL STREET","BUTTE","MT",59701,NA,NA,19,"1410 STEEL STREET, BUTTE, MT, 59701","No_Match",NA,NA,NA,NA
174020,"1410 STONEWALL BLVD","MURFREESBORO","TN",37130,35.8616004740001,-86.3707397169999,20,"1410 STONEWALL BLVD, MURFREESBORO, TN, 37130","Match","Exact","1410 STONEWALL BLVD, MURFREESBORO, TN, 37130",59015656,"R"
174021,"1410 SUMMER SWEET LANE","MT. AIRY","MD",21771,39.3890249560001,-77.150187085,21,"1410 SUMMER SWEET LANE, MT. AIRY, MD, 21771","Match","Exact","1410 SUMMER SWEET LN, MOUNT AIRY, MD, 21771",209397699,"R"
174022,"1410 SUMMIT PLACE DRIVE","ATLANTA","GA",30350,33.9937070400001,-84.3421184059999,22,"1410 SUMMIT PLACE DRIVE, ATLANTA, GA, 30350","Match","Exact","1410 SUMMIT PLACE DR, ATLANTA, GA, 30350",624608482,"L"
174023,"1410 SWEET STONE CT","PASADENA","TX",77586,29.5848309,-95.055316483,23,"1410 SWEET STONE CT, PASADENA, TX, 77586","Match","Non_Exact","1410 SWEET STONE CT, SEABROOK, TX, 77586",96547565,"L"
174024,"1410 TAYLOR AVENUE","CLANTON","AL",35045,32.836257394,-86.6422311539999,24,"1410 TAYLOR AVENUE, CLANTON, AL, 35045","Match","Exact","1410 TAYLOR AVE, CLANTON, AL, 35045",1240073,"L"
174025,"1410 TAYLOR AVENUE","CORONA","CA",92882,33.867219649,-117.573359462,25,"1410 TAYLOR AVENUE, CORONA, CA, 92882","Match","Exact","1410 TAYLOR AVE, CORONA, CA, 92882",194777828,"R"
174026,"1410 TAYLOR ST APT 9","SAN FRANCISCO","CA",94133,37.795346319,-122.413208524,26,"1410 TAYLOR ST APT 9, SAN FRANCISCO, CA, 94133","Match","Exact","1410 TAYLOR ST, SAN FRANCISCO, CA, 94133",192280742,"R"
174027,"1410 TEN MILE CREED","CEDAR HILL","TX",75104,NA,NA,27,"1410 TEN MILE CREED, CEDAR HILL, TX, 75104","No_Match",NA,NA,NA,NA
174028,"1410 TERRACE DR","DOWNERS GROVE","IL",60516,41.761509254,-88.019041653,28,"1410 TERRACE DR, DOWNERS GROVE, IL, 60516","Match","Exact","1410 TERRACE DR, DOWNERS GROVE, IL, 60516",112580548,"R"
174029,"1410 THIRD STREET SUITE 12","RIVERSIDE","CA",92507,NA,NA,29,"1410 THIRD STREET SUITE 12, RIVERSIDE, CA, 92507","No_Match",NA,NA,NA,NA
174030,"1410 TIMBER RIDGE DRIVE","SEDALIA","MO",65301,38.701030143,-93.3025242639999,30,"1410 TIMBER RIDGE DRIVE, SEDALIA, MO, 65301","Match","Exact","1410 TIMBER RIDGE DR, SEDALIA, MO, 65301",54721366,"R"
174031,"1410 TRADITION CIR","MELBOURNE","FL",32901,28.088099077,-80.6253958089999,31,"1410 TRADITION CIR, MELBOURNE, FL, 32901","Match","Exact","1410 TRADITION CIR, MELBOURNE, FL, 32901",633846945,"L"
174032,"1410 TRAEGER ST","GREEN BAY","WI",54304,44.516420882,-88.078514571,32,"1410 TRAEGER ST, GREEN BAY, WI, 54304","Match","Exact","1410 TRAEGER ST, GREEN BAY, WI, 54304",148097006,"R"
174033,"1410 TREASURE LAKE","DUBOIS","PA",15801,41.1655184700001,-78.706418261,33,"1410 TREASURE LAKE, DUBOIS, PA, 15801","Match","Exact","1410 TREASURE LAKE, DUBOIS, PA, 15801",50470280,"R"
174034,"1410 VININGS PARKWAY","SMYRNA","GA",30080,33.871521425,-84.488683554,34,"1410 VININGS PARKWAY, SMYRNA, GA, 30080","Match","Non_Exact","1410 VININGS PKWY SE, SMYRNA, GA, 30080",17259501,"L"
174035,"1410 W  RIDGEWAY DRIVE","FAYETTEVILLE","MA",72701,NA,NA,35,"1410 W  RIDGEWAY DRIVE, FAYETTEVILLE, MA, 72701","No_Match",NA,NA,NA,NA
174036,"1410 W 12TH AVE","BROOMFIELD","CO",80020,39.934205094,-105.085370435,36,"1410 W 12TH AVE, BROOMFIELD, CO, 80020","Match","Exact","1410 W 12TH AVE, BROOMFIELD, CO, 80020",210040132,"R"
174037,"1410 W 6TH ST","CEDAR FALLS","IA",50613,42.5332659270001,-92.461854599,37,"1410 W 6TH ST, CEDAR FALLS, IA, 50613","Match","Exact","1410 W 6TH ST, CEDAR FALLS, IA, 50613",77248106,"L"
174038,"1410 W 72ND ST","CHICAGO","IL",60636,41.7631635230001,-87.6594030099999,38,"1410 W 72ND ST, CHICAGO, IL, 60636","Match","Exact","1410 W 72ND ST, CHICAGO, IL, 60636",111820966,"R"
174039,"1410 W CAMEL BACK LN APT 127","Boise","ID",83702,43.6396185070001,-116.204790292,39,"1410 W CAMEL BACK LN APT 127, Boise, ID, 83702","Match","Exact","1410 CAMEL BACK LN, BOISE, ID, 83702",117859780,"R"
174040,"1410 W HERMOSA DR","ARTESIA","NM",88210,32.82809379,-104.413848121,40,"1410 W HERMOSA DR, ARTESIA, NM, 88210","Match","Exact","1410 W HERMOSA DR, ARTESIA, NM, 88210",131233054,"L"
174041,"1410 W MICHIGAN ST","ORLANDO","FL",32805,28.514533096,-81.3993718409999,41,"1410 W MICHIGAN ST, ORLANDO, FL, 32805","Match","Exact","1410 W MICHIGAN ST, ORLANDO, FL, 32805",641064944,"L"
174042,"1410 W WASHINGTON ST","BOISE","ID",83702,43.623134077,-116.207058177,42,"1410 W WASHINGTON ST, BOISE, ID, 83702","Match","Exact","1410 W WASHINGTON ST, BOISE, ID, 83702",117859955,"R"
174043,"1410 W WRIGHTWOOD AVE APT J","CHICAGO","IL",60614,41.928849219,-87.663723201,43,"1410 W WRIGHTWOOD AVE APT J, CHICAGO, IL, 60614","Match","Non_Exact","1410 W WRIGHTWOOD AVE, CHICAGO, IL, 60614",605237207,"R"
174044,"1410 WAGON CT","WILMINGTON","NC",28412,34.172453977,-77.9114943439999,44,"1410 WAGON CT, WILMINGTON, NC, 28412","Match","Exact","1410 WAGON CT, WILMINGTON, NC, 28412",152748797,"R"
174045,"1410 WALDROP COVE","AUSTIN","TX",78748,30.1841600240001,-97.8106127899999,45,"1410 WALDROP COVE, AUSTIN, TX, 78748","Match","Exact","1410 WALDROP COVE, AUSTIN, TX, 78748",63986305,"L"
174046,"1410 WALDROP DRIVE","LANCASTER","TX",75146,32.594625668,-96.784090954,46,"1410 WALDROP DRIVE, LANCASTER, TX, 75146","Match","Exact","1410 WALDROP DR, LANCASTER, TX, 75146",619586963,"R"
174047,"1410 WALSH ACRES DR","WEST BEND","WI",53095,43.4026320290001,-88.159157148,47,"1410 WALSH ACRES DR, WEST BEND, WI, 53095","Match","Exact","1410 WALSH ACRES DR, WEST BEND, WI, 53095",79569302,"L"
174048,"1410 WATSON PLACE","MANHATTAN","KS",66502,39.194494004,-96.597633988,48,"1410 WATSON PLACE, MANHATTAN, KS, 66502","Match","Exact","1410 WATSON PL, MANHATTAN, KS, 66502",27806272,"L"
174049,"1410 WEBSTER ST","BALTIMORE","MD",21230,39.2732798690001,-76.603718536,49,"1410 WEBSTER ST, BALTIMORE, MD, 21230","Match","Exact","1410 WEBSTER ST, BALTIMORE, MD, 21230",206421962,"R"
174050,"1410 WEDGEWOOD DRIVE","MONTGOMERY","AL",36111,32.3368675880001,-86.285319138,50,"1410 WEDGEWOOD DRIVE, MONTGOMERY, AL, 36111","Match","Exact","1410 WEDGEWOOD DR, MONTGOMERY, AL, 36111",1498102,"R"
174051,"1410 WELLGATE LANE","MECHANICSBURG","PA",17055,40.1715101890001,-76.926689645,51,"1410 WELLGATE LANE, MECHANICSBURG, PA, 17055","Match","Exact","1410 WELLGATE LN, MECHANICSBURG, PA, 17055",60955903,"L"
174052,"1410 WEST 4TH ST","WINONA","MN",55987,44.054987768,-91.674498697,52,"1410 WEST 4TH ST, WINONA, MN, 55987","Match","Exact","1410 W 4TH ST, WINONA, MN, 55987",31663878,"R"
174053,"1410 WEST 6TH STREET","TYLER","TX",75701,32.3298544210001,-95.316374549,53,"1410 WEST 6TH STREET, TYLER, TX, 75701","Match","Exact","1410 W 6TH ST, TYLER, TX, 75701",141270553,"L"
174054,"1410 WEST CAMELLIA DRIVE","THIBODAUX","LA",70301,29.782768608,-90.847524919,54,"1410 WEST CAMELLIA DRIVE, THIBODAUX, LA, 70301","Match","Exact","1410 W CAMELLIA DR, THIBODAUX, LA, 70301",92329305,"L"
174055,"1410 WEST OAKLEY PARK","COMMERCE TWP","MI",48390,42.568980428,-83.4990700399999,55,"1410 WEST OAKLEY PARK, COMMERCE TWP, MI, 48390","Match","Non_Exact","1410 W OAKLEY PARK RD, COMMERCE TOWNSHIP, MI, 48390",69717821,"R"
174056,"1410 WEST OLIVE AVE","REDLANDS","CA",92373,34.0424139720001,-117.201292546,56,"1410 WEST OLIVE AVE, REDLANDS, CA, 92373","Match","Exact","1410 W OLIVE AVE, REDLANDS, CA, 92373",144663660,"R"
174057,"1410 WEST POINT ROAD","LANCASTER","VA",22503,37.7070884390001,-76.4711469709999,57,"1410 WEST POINT ROAD, LANCASTER, VA, 22503","Match","Exact","1410 W POINT RD, LANCASTER, VA, 22503",30803199,"L"
174058,"1410 WEST ST","WOOD RIVER","NE",68883,40.827015359,-98.6029715449999,58,"1410 WEST ST, WOOD RIVER, NE, 68883","Match","Exact","1410 WEST ST, WOOD RIVER, NE, 68883",196275544,"L"
174059,"1410 WESTBURY DRIVE","HOFFMAN ESTATES","IL",60192,42.1033974010001,-88.114405276,59,"1410 WESTBURY DRIVE, HOFFMAN ESTATES, IL, 60192","Match","Exact","1410 WESTBURY DR, HOFFMAN EST, IL, 60192",624552742,"R"
174060,"1410 WESTGLEN DRIVE","SASHES","TX",75048,32.984762409,-96.610568922,60,"1410 WESTGLEN DRIVE, SASHES, TX, 75048","Match","Non_Exact","1410 WESTGLEN DR, SACHSE, TX, 75048",123555293,"L"
174061,"1410 WHEELER RD APT G","MADISON","WI",53704,43.1483032260001,-89.37007649,61,"1410 WHEELER RD APT G, MADISON, WI, 53704","Match","Exact","1410 WHEELER RD, MADISON, WI, 53704",49471003,"L"
174062,"1410 WIBLE ROAD SUITE 106","BAKERSFIELD","CA",93304,35.341735107,-119.038950223,62,"1410 WIBLE ROAD SUITE 106, BAKERSFIELD, CA, 93304","Match","Exact","1410 WIBLE RD, BAKERSFIELD, CA, 93304",109445418,"L"
174063,"1410 WILD HORSE DRIVE","GROVE CITY","OH",43123,39.828445577,-83.044444379,63,"1410 WILD HORSE DRIVE, GROVE CITY, OH, 43123","Match","Exact","1410 WILD HORSE DR, GROVE CITY, OH, 43123",135627032,"R"
174064,"1410 WILLOW AVENUE","CHESAPEAKE","VA",23325,36.813937298,-76.2294347919999,64,"1410 WILLOW AVENUE, CHESAPEAKE, VA, 23325","Match","Exact","1410 WILLOW AVE, CHESAPEAKE, VA, 23325",121772606,"L"
174065,"1410 WILLOW DRIVE","RIVERDALE","GA",30296,33.59277303,-84.435972636,65,"1410 WILLOW DRIVE, RIVERDALE, GA, 30296","Match","Exact","1410 WILLOW DR, RIVERDALE, GA, 30296",23311408,"L"
174066,"1410 WOODLAND HILLS","WHITEHOUSE","TX",75791,32.208911819,-95.213585865,66,"1410 WOODLAND HILLS, WHITEHOUSE, TX, 75791","Match","Non_Exact","1410 WOODLAND HILLS DR, WHITEHOUSE, TX, 75791",141307420,"R"
174067,"1410 WOODSTOCK DR","DAYTON","OH",45419,39.7186539780001,-84.175332084,67,"1410 WOODSTOCK DR, DAYTON, OH, 45419","Match","Exact","1410 WOODSTOCK DR, DAYTON, OH, 45419",143580025,"L"
174068,"1410 WRIGHT STREET","SAINT LOUIS","MO",63107,38.652114571,-90.198587188,68,"1410 WRIGHT STREET, SAINT LOUIS, MO, 63107","Match","Exact","1410 WRIGHT ST, SAINT LOUIS, MO, 63107",605108182,"L"
174069,"1410 YOUNG STREET SE APT 12","WASHINGTON","DC",20020,38.873909172,-76.9763442779999,69,"1410 YOUNG STREET SE APT 12, WASHINGTON, DC, 20020","Match","Exact","1410 YOUNG ST SE, WASHINGTON, DC, 20020",624430684,"L"
174070,"1410 YOUNG STREET SE APT 9","WASHINGTON","DC",20020,38.873909172,-76.9763442779999,70,"1410 YOUNG STREET SE APT 9, WASHINGTON, DC, 20020","Match","Exact","1410 YOUNG ST SE, WASHINGTON, DC, 20020",624430684,"L"
174071,"1410","MIAMI","GA",33169,NA,NA,71,"1410, MIAMI, GA, 33169","No_Match",NA,NA,NA,NA
174072,"1410","SPRING","TX",77373,NA,NA,72,"1410, SPRING, TX, 77373","No_Match",NA,NA,NA,NA
174073,"1410","ST. CHARLES","IL",60174,NA,NA,73,"1410, ST. CHARLES, IL, 60174","No_Match",NA,NA,NA,NA
174074,"1410","ZUMBROTA","MN",55992,NA,NA,74,"1410, ZUMBROTA, MN, 55992","No_Match",NA,NA,NA,NA
174075,"14100 90TH AVE NW","PENNOCK","MN",56279,45.2105781490001,-95.233286313,75,"14100 90TH AVE NW, PENNOCK, MN, 56279","Match","Exact","14100 90TH AVE NW, PENNOCK, MN, 56279",637177993,"L"
174076,"14100 ALLORO DR","AUSTIN","TX",78717,30.476821644,-97.773537099,76,"14100 ALLORO DR, AUSTIN, TX, 78717","Match","Exact","14100 ALLORO DR, AUSTIN, TX, 78717",651911745,"L"
174077,"14100 BALFOUR","OAK PARK","MI",48237,42.4778014340001,-83.186949329,77,"14100 BALFOUR, OAK PARK, MI, 48237","Match","Non_Exact","14100 BALFOUR ST, OAK PARK, MI, 48237",69740849,"R"
174078,"14100 BARDWELL","EAST CLEVELAND","OH",44112,41.5337724180001,-81.584452103,78,"14100 BARDWELL, EAST CLEVELAND, OH, 44112","Match","Non_Exact","14100 BARDWELL AVE, EAST CLEVELAND, OH, 44112",61121604,"R"
174079,"14100 CEDAR RD SUITE 260","CLEVELAND","OH",44121,41.50136932,-81.532540146,79,"14100 CEDAR RD SUITE 260, CLEVELAND, OH, 44121","Match","Non_Exact","14100 CEDAR RD, CLEVELAND, OH, 44118",61125665,"R"
174080,"14100 CEDAR ROAD SUITE 160","UNIVERSITY HEIGHTS","OH",44121,41.50136932,-81.532540146,80,"14100 CEDAR ROAD SUITE 160, UNIVERSITY HEIGHTS, OH, 44121","Match","Non_Exact","14100 CEDAR RD, UNIVERSITY HT, OH, 44118",61125665,"R"
174081,"14100 COVENTRY WAY UNIT 303","TUSTIN","CA",92782,NA,NA,81,"14100 COVENTRY WAY UNIT 303, TUSTIN, CA, 92782","No_Match",NA,NA,NA,NA
174082,"14100 DEL PAPA - UNIT 115","HOUSTON","TX",77047,NA,NA,82,"14100 DEL PAPA - UNIT 115, HOUSTON, TX, 77047","No_Match",NA,NA,NA,NA
174083,"14100 DICKENS ST STE 1","SHERMAN OAKS","CA",91423,34.1482368700001,-118.440691178,83,"14100 DICKENS ST STE 1, SHERMAN OAKS, CA, 91423","Match","Exact","14100 DICKENS ST, SHERMAN OAKS, CA, 91423",141562433,"L"
174084,"14100 FM 916","GRANDVIEW","TX",76050,32.302321227,-97.067125603,84,"14100 FM 916, GRANDVIEW, TX, 76050","Match","Exact","14100 FM 916, GRANDVIEW, TX, 76050",103487949,"R"
174085,"14100 GLEN HIGH ROAD","BALDWIN","MD",21013,39.5086677840001,-76.491471067,85,"14100 GLEN HIGH ROAD, BALDWIN, MD, 21013","Match","Exact","14100 GLEN HIGH RD, BALDWIN, MD, 21013",647287888,"L"
174086,"14100 GOLETA","ARLETA","CA",91331,34.2379489900001,-118.440415653,86,"14100 GOLETA, ARLETA, CA, 91331","Match","Non_Exact","14100 GOLETA ST, ARLETA, CA, 91331",141549748,"L"
174087,"14100 LARAMIE AVE","CRESTWOOD","IL",60418,41.636328226,-87.74738618,87,"14100 LARAMIE AVE, CRESTWOOD, IL, 60418","Match","Non_Exact","14100 LARAMIE AVE, CRESTWOOD, IL, 60445",111885892,"R"
174088,"14100 LINDEN AVE N APT 342","SEATTLE","WA",98133,47.731142865,-122.347729809,88,"14100 LINDEN AVE N APT 342, SEATTLE, WA, 98133","Match","Exact","14100 LINDEN AVE N, SEATTLE, WA, 98133",186574166,"R"
174089,"14100 LITTLE RANCH ROAD","SPRING HILL","FL",34610,28.399369366,-82.582374737,89,"14100 LITTLE RANCH ROAD, SPRING HILL, FL, 34610","Match","Exact","14100 LITTLE RANCH RD, SPRING HILL, FL, 34610",86375895,"L"
174090,"14100 MERRYWOOD CIRCLE","GRANDVIEW","MO",64030,38.867717715,-94.5207473739999,90,"14100 MERRYWOOD CIRCLE, GRANDVIEW, MO, 64030","Match","Exact","14100 MERRYWOOD CIR, GRANDVIEW, MO, 64030",639221951,"R"
174091,"14100 MONTFORT DRIVE 2150","DALLAS","TX",75254,32.9397272750001,-96.813914822,91,"14100 MONTFORT DRIVE 2150, DALLAS, TX, 75254","Match","Exact","14100 MONTFORT DR, DALLAS, TX, 75254",650065788,"L"
174092,"14100 MURPHY AVE","SAN MARTIN","CA",95046,37.098195262,-121.608072894,92,"14100 MURPHY AVE, SAN MARTIN, CA, 95046","Match","Exact","14100 MURPHY AVE, SAN MARTIN, CA, 95046",618183803,"R"
174093,"14100 N 246 RD","OKMULGEE","OK",74447,35.6511651610001,-95.9319505129999,93,"14100 N 246 RD, OKMULGEE, OK, 74447","Match","Exact","14100 N 246 RD, OKMULGEE, OK, 74447",166263783,"R"
174094,"14100 OSBORNE AVE NE","ALLIANCE","OH",44601,40.975866878,-81.2318162509999,94,"14100 OSBORNE AVE NE, ALLIANCE, OH, 44601","Match","Exact","14100 OSBORNE AVE NE, ALLIANCE, OH, 44601",64691429,"R"
174095,"14100 PETER NOYES","HORIZON CITY","TX",79928,31.690866516,-106.194651701,95,"14100 PETER NOYES, HORIZON CITY, TX, 79928","Match","Non_Exact","14100 PETER NOYES DR, HORIZON CITY, TX, 79928",630151000,"R"
174096,"14100 RIO BONITO RD APT 163","HOUSTON","TX",77083,NA,NA,96,"14100 RIO BONITO RD APT 163, HOUSTON, TX, 77083","No_Match",NA,NA,NA,NA
174097,"14100 RITTER PLACE","BENNET","NE",68317,40.6711155580001,-96.529755168,97,"14100 RITTER PLACE, BENNET, NE, 68317","Match","Exact","14100 RITTER PL, BENNET, NE, 68317",28298634,"L"
174098,"14100 SAN PEDRO AVE","SAN ANTONIO","TX",78232,NA,NA,98,"14100 SAN PEDRO AVE, SAN ANTONIO, TX, 78232","No_Match",NA,NA,NA,NA
174099,"14100 SNEAD CIR","ORLANDO","FL",32837,28.3603584960001,-81.416372424,99,"14100 SNEAD CIR, ORLANDO, FL, 32837","Match","Exact","14100 SNEAD CIR, ORLANDO, FL, 32837",94324777,"R"
174100,"14100 SOUTHWEST FREEWAY","SUGAR LAND","TX",77478,NA,NA,100,"14100 SOUTHWEST FREEWAY, SUGAR LAND, TX, 77478","No_Match",NA,NA,NA,NA
174101,"14100 STATE ROUTE 739","REDWOOD","OH",43344,40.482236723,-83.336782192,101,"14100 STATE ROUTE 739, REDWOOD, OH, 43344","Match","Non_Exact","14100 STATE RTE 739, RICHWOOD, OH, 43344",135352917,"L"
174102,"14100 SW 144TH AVE","MIAMI","FL",33186,NA,NA,102,"14100 SW 144TH AVE, MIAMI, FL, 33186","No_Match",NA,NA,NA,NA
174103,"14100 TAMIAMI TRAIL EAST","NAPLES","FL",34113,26.0450926010001,-81.670593547,103,"14100 TAMIAMI TRAIL EAST, NAPLES, FL, 34113","Match","Non_Exact","14100 TAMIAMI TRL E, NAPLES, FL, 34114",647796497,"L"
174104,"14100 TURAH ROAD","CLINTON","MT",59825,46.8117485700001,-113.801893224,104,"14100 TURAH ROAD, CLINTON, MT, 59825","Match","Exact","14100 TURAH RD, CLINTON, MT, 59825",205316987,"R"
174105,"14100 WARNER ST","EVANSVILLE","IN",47725,38.1068641690001,-87.562345506,105,"14100 WARNER ST, EVANSVILLE, IN, 47725","Match","Exact","14100 WARNER ST, EVANSVILLE, IN, 47725",39778147,"R"
174106,"14100 WEST PARSLEY DRIVE","MADEIRA BEACH","FL",33708,NA,NA,106,"14100 WEST PARSLEY DRIVE, MADEIRA BEACH, FL, 33708","No_Match",NA,NA,NA,NA
174107,"14100 WESTERN ROAD","APPLE CREEK","OH",44606,40.719238569,-81.7317676179999,107,"14100 WESTERN ROAD, APPLE CREEK, OH, 44606","Match","Exact","14100 WESTERN RD, APPLE CREEK, OH, 44606",58754645,"R"
174108,"14100 WHEAT PLACE","OKLAHOMA CITY","OK",73170,35.3299814270001,-97.553777907,108,"14100 WHEAT PLACE, OKLAHOMA CITY, OK, 73170","Match","Exact","14100 WHEAT PL, OKLAHOMA CITY, OK, 73170",627467150,"L"
174109,"14100 WILL CLAYTON PKWY APT 5207","HUMBLE","TX",77346,29.9798062180001,-95.164341759,109,"14100 WILL CLAYTON PKWY APT 5207, HUMBLE, TX, 77346","Match","Exact","14100 WILL CLAYTON PKWY, HUMBLE, TX, 77346",646665603,"L"
174110,"14100 WILL CLAYTON","HUMBLE","TX",77346,29.9798062180001,-95.164341759,110,"14100 WILL CLAYTON, HUMBLE, TX, 77346","Match","Non_Exact","14100 WILL CLAYTON PKWY, HUMBLE, TX, 77346",646665603,"L"
174111,"14100 WOOSTER RD","MOUNT VERNON","OH",43050,40.440233929,-82.4457556899999,111,"14100 WOOSTER RD, MOUNT VERNON, OH, 43050","Match","Exact","14100 WOOSTER RD, MOUNT VERNON, OH, 43050",24647259,"R"
174112,"14100N ELMORE RD","ELMWOOD","IL",61529,40.8612888170001,-89.965769678,112,"14100N ELMORE RD, ELMWOOD, IL, 61529","Match","Exact","14100 ELMORE RD, ELMWOOD, IL, 61529",8706045,"R"
174113,"14101 ARCHWOOD ST","VAN NUYS","CA",91405,34.192950195,-118.440154539,113,"14101 ARCHWOOD ST, VAN NUYS, CA, 91405","Match","Exact","14101 ARCHWOOD ST, VAN NUYS, CA, 91405",141561031,"R"
174114,"14101 BLUFF MANOR","SAN ANTONIO","TX",78216,29.575481811,-98.501807845,114,"14101 BLUFF MANOR, SAN ANTONIO, TX, 78216","Match","Non_Exact","14101 BLUFF MANOR DR, SAN ANTONIO, TX, 78216",101566896,"R"
174115,"14101 CHRISTIAN ST","UPPER MARLBORO","MD",20772,38.8403573260001,-76.7613111379999,115,"14101 CHRISTIAN ST, UPPER MARLBORO, MD, 20772","Match","Exact","14101 CHRISTIAN ST, UPPER MARLBORO, MD, 20772",76344159,"R"
174116,"14101 DEER POINT COURT","MILTON","GA",30004,34.1038396710001,-84.267336841,116,"14101 DEER POINT COURT, MILTON, GA, 30004","Match","Exact","14101 DEER POINT CT, MILTON, GA, 30004",624984949,"R"
174117,"14101 E 14TH ST APT 106","SAN LEANDRO","CA",94578,37.713359558,-122.140180165,117,"14101 E 14TH ST APT 106, SAN LEANDRO, CA, 94578","Match","Non_Exact","14101 E 14TH ST, SAN LEANDRO, CA, 94578",606313905,"R"
174118,"14101 E BRUNS","MANHATTAN","IL",60442,NA,NA,118,"14101 E BRUNS, MANHATTAN, IL, 60442","No_Match",NA,NA,NA,NA
174119,"14101 JAMES AVE","MAPLE HEIGHTS","OH",44137,41.400353915,-81.583565252,119,"14101 JAMES AVE, MAPLE HEIGHTS, OH, 44137","Match","Exact","14101 JAMES AVE, MAPLE HEIGHTS, OH, 44137",61128449,"L"
174120,"14101 LA MESITA RD NE","ALBUQUERQUE","NM",87112,35.0894548110001,-106.484199801,120,"14101 LA MESITA RD NE, ALBUQUERQUE, NM, 87112","Match","Exact","14101 LA MESITA RD NE, ALBUQUERQUE, NM, 87112",206723851,"L"
174121,"14101 LAKE POINTE DR","CLIVE","IA",50325,41.6062481760001,-93.812042097,121,"14101 LAKE POINTE DR, CLIVE, IA, 50325","Match","Exact","14101 LAKE POINTE DR, CLIVE, IA, 50325",65853694,"L"
174122,"14101 LANGLEY PL","DAVIE","FL",33325,26.114420748,-80.337067109,122,"14101 LANGLEY PL, DAVIE, FL, 33325","Match","Exact","14101 LANGLEY PL, DAVIE, FL, 33325",114766328,"L"
174123,"14101 MENDON ROAD","VAN WERT","OH",45891,40.7994210420001,-84.551877111,123,"14101 MENDON ROAD, VAN WERT, OH, 45891","Match","Exact","14101 MENDON RD, VAN WERT, OH, 45891",6762600,"R"
174124,"14101 MISTY BROOK LANE","CHARLOTTE","NC",28273,35.0976309810001,-80.9702825799999,124,"14101 MISTY BROOK LANE, CHARLOTTE, NC, 28273","Match","Exact","14101 MISTY BROOK LN, CHARLOTTE, NC, 28273",70530436,"L"
174125,"14101 NIEMAN RD","OVERLAND PARK","KS",66221,38.8712489750001,-94.713711587,125,"14101 NIEMAN RD, OVERLAND PARK, KS, 66221","Match","Non_Exact","14101 NIEMAN, OVERLAND PARK, KS, 66221",91333306,"L"
174126,"14101 NW 5 AVENUE","MIAMI","FL",33168,25.903815621,-80.2074436029999,126,"14101 NW 5 AVENUE, MIAMI, FL, 33168","Match","Exact","14101 NW 5TH AVE, MIAMI, FL, 33168",116033335,"R"
174127,"14101 RIO BONITO 292","HOUSTON","TX",77083,NA,NA,127,"14101 RIO BONITO 292, HOUSTON, TX, 77083","No_Match",NA,NA,NA,NA
174128,"14101 RIO BONITO RD APT 285","HOUSTON","TX",77083,NA,NA,128,"14101 RIO BONITO RD APT 285, HOUSTON, TX, 77083","No_Match",NA,NA,NA,NA
174129,"14101 RIO BONITO RD SUITE 268","HOUSTON","TX",77083,NA,NA,129,"14101 RIO BONITO RD SUITE 268, HOUSTON, TX, 77083","No_Match",NA,NA,NA,NA
174130,"14101 RIO BONITO ROAD UNIT 274","HOUSTON","TX",77083,NA,NA,130,"14101 RIO BONITO ROAD UNIT 274, HOUSTON, TX, 77083","No_Match",NA,NA,NA,NA
174131,"14101 SOUTH MICHIGAN AVENUE","RIVERDALE","IL",60827,41.6388579640001,-87.6196330829999,131,"14101 SOUTH MICHIGAN AVENUE, RIVERDALE, IL, 60827","Match","Exact","14101 S MICHIGAN AVE, RIVERDALE, IL, 60827",111778061,"L"
174132,"14101 VILLA GREEN CT","FLORISSANT","MO",63034,38.813965286,-90.287071915,132,"14101 VILLA GREEN CT, FLORISSANT, MO, 63034","Match","Exact","14101 VILLA GREEN CT, FLORISSANT, MO, 63034",604550921,"L"
174133,"14101 W BRUNS","MANHATTAN","IL",60442,41.4098723600001,-87.9585800469999,133,"14101 W BRUNS, MANHATTAN, IL, 60442","Match","Non_Exact","14101 W BRUNS RD, MANHATTAN, IL, 60442",111550342,"R"
174134,"14101 WALTERS ROAD APT 416","HOUSTON","TX",77014,29.988139339,-95.479722771,134,"14101 WALTERS ROAD APT 416, HOUSTON, TX, 77014","Match","Exact","14101 WALTERS RD, HOUSTON, TX, 77014",96226136,"L"
174135,"14101","MARINA DEL REY","CA",90292,NA,NA,135,"14101, MARINA DEL REY, CA, 90292","No_Match",NA,NA,NA,NA
174136,"14102 AUTUMN RIDGE TRIAL","HOUSTON","TX",77048,29.603958876,-95.354201554,136,"14102 AUTUMN RIDGE TRIAL, HOUSTON, TX, 77048","Match","Non_Exact","14102 AUTUMN RIDGE TRAIL DR, HOUSTON, TX, 77048",653220284,"R"
174137,"14102 CARDINAL LANE","HOUSTON","TX",77079,29.7667604480001,-95.590289237,137,"14102 CARDINAL LANE, HOUSTON, TX, 77079","Match","Exact","14102 CARDINAL LN, HOUSTON, TX, 77079",96291273,"L"
174138,"14102 CLEAR LANDING LN","ROSHARON","TX",77583,29.506539306,-95.4413735369999,138,"14102 CLEAR LANDING LN, ROSHARON, TX, 77583","Match","Exact","14102 CLEAR LANDING LN, ROSHARON, TX, 77583",645513619,"R"
174139,"14102 E 87TH ST N","OWASSO","OK",74055,36.279892841,-95.815668938,139,"14102 E 87TH ST N, OWASSO, OK, 74055","Match","Exact","14102 E 87TH ST N, OWASSO, OK, 74055",166495120,"R"
174140,"14102 KREMS AVENUE","MAPLE HEIGHTS","OH",44137,41.406650518,-81.583672722,140,"14102 KREMS AVENUE, MAPLE HEIGHTS, OH, 44137","Match","Exact","14102 KREMS AVE, MAPLE HEIGHTS, OH, 44137",61128423,"R"
174141,"14102 KREMS AVENUE","MAPLE","OH",44137,41.406650518,-81.583672722,141,"14102 KREMS AVENUE, MAPLE, OH, 44137","Match","Non_Exact","14102 KREMS AVE, MAPLE HEIGHTS, OH, 44137",61128423,"R"
174142,"14102 LA FORGE STREET","WHITTIER","CA",90605,33.9523305640001,-118.025494648,142,"14102 LA FORGE STREET, WHITTIER, CA, 90605","Match","Exact","14102 LA FORGE ST, WHITTIER, CA, 90605",141748602,"R"
174143,"14102 N CLINE RD","DUNLAP","IL",61525,40.855238236,-89.6399894739999,143,"14102 N CLINE RD, DUNLAP, IL, 61525","Match","Exact","14102 N CLINE RD, DUNLAP, IL, 61525",8710997,"R"
174144,"14102 NE 42ND AVE","VANCOUVER","WA",98686,45.7234488610001,-122.627728311,144,"14102 NE 42ND AVE, VANCOUVER, WA, 98686","Match","Exact","14102 NE 42ND AVE, VANCOUVER, WA, 98686",158348566,"L"
174145,"14102 RECTORY LANE","UPPER MARLBORO","MD",20772,38.816735914,-76.761013667,145,"14102 RECTORY LANE, UPPER MARLBORO, MD, 20772","Match","Exact","14102 RECTORY LN, UPPER MARLBORO, MD, 20772",76338625,"R"
174146,"14102 SE CEDAR AVE","MILWAUKIE","OR",97267,45.4212634240001,-122.644176386,146,"14102 SE CEDAR AVE, MILWAUKIE, OR, 97267","Match","Exact","14102 SE CEDAR AVE, MILWAUKIE, OR, 97267",157913132,"L"
174147,"14102 SE SUMMERFIELD LOOP","HAPPY VALLEY","OR",97086,45.427193797,-122.517951876,147,"14102 SE SUMMERFIELD LOOP, HAPPY VALLEY, OR, 97086","Match","Exact","14102 SE SUMMERFIELD LOOP, HAPPY VALLEY, OR, 97086",157958997,"R"
174148,"14102 SILENT WOOD WAY","NORTH POTOMAC","MD",20878,39.0863011750001,-77.224361105,148,"14102 SILENT WOOD WAY, NORTH POTOMAC, MD, 20878","Match","Exact","14102 SILENT WOOD WAY, N POTOMAC, MD, 20878",62093121,"L"
174149,"14102 SUSAN CT","SUGAR LAND","TX",77498,29.6432850640001,-95.6336142869999,149,"14102 SUSAN CT, SUGAR LAND, TX, 77498","Match","Exact","14102 SUSAN CT, SUGAR LAND, TX, 77498",78266483,"R"
174150,"14102 TOEFPER","WARREN","MI",48089,NA,NA,150,"14102 TOEFPER, WARREN, MI, 48089","No_Match",NA,NA,NA,NA
174151,"14103 CERISE AVENUE APT 4","HAWHORNE","CA",90250,33.9032188890001,-118.332998973,151,"14103 CERISE AVENUE APT 4, HAWHORNE, CA, 90250","Match","Non_Exact","14103 CERISE AVE, HAWTHORNE, CA, 90250",142752989,"R"
174152,"14103 CHELSEAHURST LN","HOUSTON","TX",77047,29.606099053,-95.37874759,152,"14103 CHELSEAHURST LN, HOUSTON, TX, 77047","Match","Exact","14103 CHELSEAHURST LN, HOUSTON, TX, 77047",624603466,"L"
174153,"14103 CHERRY ORCHARD RUN","TAMPA","FL",33618,28.0829288460001,-82.491589753,153,"14103 CHERRY ORCHARD RUN, TAMPA, FL, 33618","Match","Exact","14103 CHERRY ORCHARD RUN, TAMPA, FL, 33618",104510606,"R"
174154,"14103 COUNTRY VALE","SAN ANTONIO","TX",78216,29.5577638500001,-98.474816995,154,"14103 COUNTRY VALE, SAN ANTONIO, TX, 78216","Match","Exact","14103 COUNTRY VALE, SAN ANTONIO, TX, 78216",101553038,"L"
174155,"14103 FANNO CREEK PLACE","TIGARD","OR",97224,45.41745582,-122.761279558,155,"14103 FANNO CREEK PLACE, TIGARD, OR, 97224","Match","Non_Exact","14103 SW FANNO CREEK PL, TIGARD, OR, 97224",158196270,"L"
174156,"14103 FREDERICK CIR","OMAHA","NE",68138,41.186611568,-96.136341414,156,"14103 FREDERICK CIR, OMAHA, NE, 68138","Match","Exact","14103 FREDERICK CIR, OMAHA, NE, 68138",28487299,"L"
174157,"14103 MAPLE AVENUE","LOS ANGELES","CA",90061,33.9037514080001,-118.27340806,157,"14103 MAPLE AVENUE, LOS ANGELES, CA, 90061","Match","Exact","14103 MAPLE AVE, LOS ANGELES, CA, 90061",141662663,"R"
174158,"14103 MUD FORK ROAD","FALLS MILLS","VA",24613,37.2713341510001,-81.325199485,158,"14103 MUD FORK ROAD, FALLS MILLS, VA, 24613","Match","Exact","14103 MUD FORK RD, FALLS MILLS, VA, 24613",47312110,"L"
174159,"14103 MYRTLEA","HOUSTON","TX",77079,29.7803333580001,-95.592269632,159,"14103 MYRTLEA, HOUSTON, TX, 77079","Match","Non_Exact","14103 MYRTLEA DR, HOUSTON, TX, 77079",96022092,"L"
174160,"14103 PIPEVINE CT","WINTER GARDEN","FL",34787,28.5066264290001,-81.5879970839999,160,"14103 PIPEVINE CT, WINTER GARDEN, FL, 34787","Match","Exact","14103 PIPEVINE CT, WINTER GARDEN, FL, 34787",94409379,"L"
174161,"14103 PROSPERITY RIDGE DR","HOUSTON","TX",77048,29.604303816,-95.352025721,161,"14103 PROSPERITY RIDGE DR, HOUSTON, TX, 77048","Match","Exact","14103 PROSPERITY RIDGE DR, HOUSTON, TX, 77048",638594043,"R"
174162,"14103 PROSPERITY RIDGE","HOUSTON","TX",77048,29.604303816,-95.352025721,162,"14103 PROSPERITY RIDGE, HOUSTON, TX, 77048","Match","Non_Exact","14103 PROSPERITY RIDGE DR, HOUSTON, TX, 77048",638594043,"R"
174163,"14103 ROCKY PINE WOODS","SAN ANTONIO","TX",78249,29.5732529200001,-98.5791904229999,163,"14103 ROCKY PINE WOODS, SAN ANTONIO, TX, 78249","Match","Non_Exact","14103 ROCKY PINE WOODS ST, SAN ANTONIO, TX, 78249",101490872,"L"
174164,"14103 WEST BLOOMFIELD ROAD","SURPRISE","AZ",85379,33.59674484,-112.363516138,164,"14103 WEST BLOOMFIELD ROAD, SURPRISE, AZ, 85379","Match","Exact","14103 W BLOOMFIELD RD, SURPRISE, AZ, 85379",244000565,"R"
174165,"14103 WHITCOMB ST","DETROIT","MI",48227,42.389702953,-83.19631832,165,"14103 WHITCOMB ST, DETROIT, MI, 48227","Match","Exact","14103 WHITCOMB ST, DETROIT, MI, 48227",95441430,"L"
174166,"14103 WOODCREST LOOP","SILVERDALE","WA",98383,47.688978096,-122.672590169,166,"14103 WOODCREST LOOP, SILVERDALE, WA, 98383","Match","Non_Exact","14103 WOODCREST LOOP NW, SILVERDALE, WA, 98383",187649874,"L"
174167,"14104 BRIARWOOD LANE","URBANDALE","IA",50323,41.6190901040001,-93.813041031,167,"14104 BRIARWOOD LANE, URBANDALE, IA, 50323","Match","Exact","14104 BRIARWOOD LN, URBANDALE, IA, 50323",65854728,"R"
174168,"14104 CASTLE BLVD APT 402","SILVER SPRING","MD",20904,39.087492755,-76.9400119439999,168,"14104 CASTLE BLVD APT 402, SILVER SPRING, MD, 20904","Match","Exact","14104 CASTLE BLVD, SILVER SPRING, MD, 20904",650358923,"L"
174169,"14104 ELDER AVE","GRANT","MI",49327,43.2980557110001,-85.790412901,169,"14104 ELDER AVE, GRANT, MI, 49327","Match","Non_Exact","14104 S ELDER AVE, GRANT, MI, 49327",150237616,"R"
174170,"14104 HIDDEN VIEW RD NE","PRIOR LAKE","MN",55372,44.744854597,-93.3967723929999,170,"14104 HIDDEN VIEW RD NE, PRIOR LAKE, MN, 55372","Match","Exact","14104 HIDDEN VIEW RD NE, PRIOR LAKE, MN, 55372",38147993,"R"
174171,"14104 HOWE DRIVE","LEAWOOD","KS",66224,38.873716863,-94.6299491939999,171,"14104 HOWE DRIVE, LEAWOOD, KS, 66224","Match","Exact","14104 HOWE DR, LEAWOOD, KS, 66224",632526317,"R"
174172,"14104 JEFFERSON","ALPHARETTA","GA",30005,NA,NA,172,"14104 JEFFERSON, ALPHARETTA, GA, 30005","No_Match",NA,NA,NA,NA
174173,"14104 JONES BRIDGE RD","UPPER MARLBORO","MD",20774,38.896084794,-76.763409654,173,"14104 JONES BRIDGE RD, UPPER MARLBORO, MD, 20774","Match","Exact","14104 JONES BRIDGE RD, UPPER MARLBORO, MD, 20774",638664878,"R"
174174,"14104 LOUISE DRIVE","CRESAPTOWN","MD",21502,39.586700009,-78.846362469,174,"14104 LOUISE DRIVE, CRESAPTOWN, MD, 21502","Match","Non_Exact","14104 LOUISE DR SW, CRESAPTOWN, MD, 21502",123337364,"R"
174175,"14104 NE 30TH PL","BELLEVUE","WA",98007,47.6374064330001,-122.151970362,175,"14104 NE 30TH PL, BELLEVUE, WA, 98007","Match","Exact","14104 NE 30TH PL, BELLEVUE, WA, 98007",187070500,"L"
174176,"14104 NORTHHAMPTON CT","GRANGER","IN",46530,NA,NA,176,"14104 NORTHHAMPTON CT, GRANGER, IN, 46530","No_Match",NA,NA,NA,NA
174177,"14104 NORWOOD POND LANE","MIDLOTHIAN","VA",23112,37.4004298180001,-77.667739844,177,"14104 NORWOOD POND LANE, MIDLOTHIAN, VA, 23112","Match","Exact","14104 NORWOOD POND LN, MIDLOTHIAN, VA, 23112",616579147,"R"
174178,"14104 PINE VALLEY COURT","BASEHOR","KS",66007,39.1662215430001,-94.9048702969999,178,"14104 PINE VALLEY COURT, BASEHOR, KS, 66007","Match","Exact","14104 PINE VALLEY CT, BASEHOR, KS, 66007",91416410,"R"
174179,"14104 RUTLAND ST","DETROIT","MI",48170,42.3894062790001,-83.213351308,179,"14104 RUTLAND ST, DETROIT, MI, 48170","Match","Non_Exact","14104 RUTLAND ST, DETROIT, MI, 48227",95439381,"R"
174180,"14105 CHADRON  AVENUE","HAWTHORNE","CA",90250,33.903168721,-118.328657494,180,"14105 CHADRON  AVENUE, HAWTHORNE, CA, 90250","Match","Exact","14105 CHADRON AVE, HAWTHORNE, CA, 90250",648188968,"R"
174181,"14105 CHADRON AVENUE 405","HAWTHORNE","CA",90250,33.903168721,-118.328657494,181,"14105 CHADRON AVENUE 405, HAWTHORNE, CA, 90250","Match","Exact","14105 CHADRON AVE, HAWTHORNE, CA, 90250",648188968,"R"
174182,"14105 CHADRON AVENUE","HAWTHORNE","CA",90250,33.903168721,-118.328657494,182,"14105 CHADRON AVENUE, HAWTHORNE, CA, 90250","Match","Exact","14105 CHADRON AVE, HAWTHORNE, CA, 90250",648188968,"R"
174183,"14105 DOS PINION TR","REDDING","CA",96003,40.6996878950001,-122.213499983,183,"14105 DOS PINION TR, REDDING, CA, 96003","Match","Non_Exact","14105 DOS PINON TRL, REDDING, CA, 96003",126636931,"R"
174184,"14105 E 250TH AVE","FLAT ROCK","IL",62427,38.88919106,-87.682861752,184,"14105 E 250TH AVE, FLAT ROCK, IL, 62427","Match","Exact","14105 E 250TH AVE, FLAT ROCK, IL, 62427",26963943,"R"
174185,"14105 E BUFFALO STREET","GILBERT","AZ",85295,33.305119291,-111.779237048,185,"14105 E BUFFALO STREET, GILBERT, AZ, 85295","Match","Non_Exact","14105 E BUFFALO ST, GILBERT, AZ, 85296",616773480,"R"
174186,"14105 NW 58TH CT","MIAMI LAKES","FL",33014,25.901313101,-80.295454972,186,"14105 NW 58TH CT, MIAMI LAKES, FL, 33014","Match","Exact","14105 NW 58TH CT, MIAMI LAKES, FL, 33014",116025153,"R"
174187,"14105 SALEM","REDFORD","MI",48239,42.3887825950001,-83.284448095,187,"14105 SALEM, REDFORD, MI, 48239","Match","Exact","14105 SALEM, REDFORD, MI, 48239",95430323,"L"
174188,"14105 SE MATILDA DRIVE","MILWAUKIE","OR",97267,45.420917484,-122.589281014,188,"14105 SE MATILDA DRIVE, MILWAUKIE, OR, 97267","Match","Exact","14105 SE MATILDA DR, MILWAUKIE, OR, 97267",157953201,"R"
174189,"14105 SHEPARD DR","LITTLE ROCK","AR",72223,34.7962921860001,-92.428629756,189,"14105 SHEPARD DR, LITTLE ROCK, AR, 72223","Match","Exact","14105 SHEPARD DR, LITTLE ROCK, AR, 72223",83543568,"R"
174190,"14105 SKYLINE DRIVE","ALEXANDER","AR",72002,34.6224435670001,-92.4384670539999,190,"14105 SKYLINE DRIVE, ALEXANDER, AR, 72002","Match","Exact","14105 SKYLINE DR, ALEXANDER, AR, 72002",639932464,"R"
174191,"14105 SUMMERWOOD LANE","ALPHARETTA","GA",30005,34.063925499,-84.239505532,191,"14105 SUMMERWOOD LANE, ALPHARETTA, GA, 30005","Match","Exact","14105 SUMMERWOOD LN, ALPHARETTA, GA, 30005",17420124,"R"
174192,"14105 WILLOW TANK DRIVE","AUSTIN","TX",78717,30.491027107,-97.7930333529999,192,"14105 WILLOW TANK DRIVE, AUSTIN, TX, 78717","Match","Exact","14105 WILLOW TANK DR, AUSTIN, TX, 78717",627701616,"L"
174193,"14106 ACME RD","SHAWNEE","OK",75841,35.360167087,-96.965251702,193,"14106 ACME RD, SHAWNEE, OK, 75841","Match","Non_Exact","14106 ACME RD, SHAWNEE, OK, 74804",649516667,"L"
174194,"14106 ASHLER LANE","GAINESVILLE","VA",20155,38.808388624,-77.612978224,194,"14106 ASHLER LANE, GAINESVILLE, VA, 20155","Match","Exact","14106 ASHLER LN, GAINESVILLE, VA, 20155",76522006,"L"
174195,"14106 BRAMBLE COURT APT T2","LAUREL","MD",20708,39.0847878750001,-76.852431198,195,"14106 BRAMBLE COURT APT T2, LAUREL, MD, 20708","Match","Exact","14106 BRAMBLE CT, LAUREL, MD, 20708",76376852,"L"
174196,"14106 CINDYWOOD CIRCLE","HOUSTON","TX",77079,29.765634328,-95.5910830879999,196,"14106 CINDYWOOD CIRCLE, HOUSTON, TX, 77079","Match","Exact","14106 CINDYWOOD CIR, HOUSTON, TX, 77079",96020934,"R"
174197,"14106 COUNTY ROAD 320","NAVASOTA","TX",77868,NA,NA,197,"14106 COUNTY ROAD 320, NAVASOTA, TX, 77868","No_Match",NA,NA,NA,NA
174198,"14106 COVENEY DRIVE","HOUSTON","TX",77090,29.9875838470001,-95.442046439,198,"14106 COVENEY DRIVE, HOUSTON, TX, 77090","Match","Exact","14106 COVENEY DR, HOUSTON, TX, 77090",635231075,"R"
174199,"14106 KENNERDOWN AVE","MAPLE","OH",44137,41.4074627790001,-81.583644434,199,"14106 KENNERDOWN AVE, MAPLE, OH, 44137","Match","Non_Exact","14106 KENNERDOWN AVE, MAPLE HEIGHTS, OH, 44137",61128420,"R"
174200,"14106 MANDA CT","ODESSA","FL",33556,28.1732454670001,-82.582257667,200,"14106 MANDA CT, ODESSA, FL, 33556","Match","Exact","14106 MANDA CT, ODESSA, FL, 33556",86395387,"R"
174201,"14106 MODENA CIR","UPPER MARLBORO","MD",20774,38.8872484080001,-76.761364148,201,"14106 MODENA CIR, UPPER MARLBORO, MD, 20774","Match","Exact","14106 MODENA CIR, UPPER MARLBORO, MD, 20774",624853911,"L"
174202,"14106 PEDDICORD ROAD","MOUNT AIRY","MD",21771,39.4461321430001,-77.1723326809999,202,"14106 PEDDICORD ROAD, MOUNT AIRY, MD, 21771","Match","Exact","14106 PEDDICORD RD, MOUNT AIRY, MD, 21771",60723942,"L"
174203,"14106 PEDICORD ROAD","MOUNT AIRY","MD",21771,39.4461321430001,-77.1723326809999,203,"14106 PEDICORD ROAD, MOUNT AIRY, MD, 21771","Match","Non_Exact","14106 PEDDICORD RD, MOUNT AIRY, MD, 21771",60723942,"L"
174204,"14106 QUEENSBURY LANE","HOUSTON","TX",77079,29.7778788890001,-95.592287587,204,"14106 QUEENSBURY LANE, HOUSTON, TX, 77079","Match","Exact","14106 QUEENSBURY LN, HOUSTON, TX, 77079",96022119,"R"
174205,"14106 ROYAL FOREST LANE","SILVER SPRING","MD",20905,39.087873297,-77.013555515,205,"14106 ROYAL FOREST LANE, SILVER SPRING, MD, 20905","Match","Non_Exact","14106 ROYAL FOREST LN, SILVER SPRING, MD, 20904",62097989,"L"
174206,"14106 SPRUCE AVENUE","CHESTER","VA",23836,37.33217245,-77.3126506789999,206,"14106 SPRUCE AVENUE, CHESTER, VA, 23836","Match","Exact","14106 SPRUCE AVE, CHESTER, VA, 23836",648452419,"R"
174207,"14107 18TH PLACE EAST","BRADENTON","FL",34212,27.4809446520001,-82.400047609,207,"14107 18TH PLACE EAST, BRADENTON, FL, 34212","Match","Exact","14107 18TH PL E, BRADENTON, FL, 34212",625727732,"L"
174208,"14107 E LONGFELLOW AVE","SPOKANE","WA",99216,47.698117897,-117.214109985,208,"14107 E LONGFELLOW AVE, SPOKANE, WA, 99216","Match","Exact","14107 E LONGFELLOW AVE, SPOKANE, WA, 99216",189888573,"L"
174209,"14107 EMERALD HILL DR","SAN ANTONIO","TX",78231,29.577104406,-98.535627927,209,"14107 EMERALD HILL DR, SAN ANTONIO, TX, 78231","Match","Exact","14107 EMERALD HILL DR, SAN ANTONIO, TX, 78231",101576913,"L"
174210,"14107 FARADAY PL","CHESTER","VA",23831,37.3243774590001,-77.454128281,210,"14107 FARADAY PL, CHESTER, VA, 23831","Match","Exact","14107 FARADAY PL, CHESTER, VA, 23831",201593802,"L"
174211,"14107 FREDERICK CIR","OMAHA","NE",68138,41.1866134690001,-96.136375258,211,"14107 FREDERICK CIR, OMAHA, NE, 68138","Match","Exact","14107 FREDERICK CIR, OMAHA, NE, 68138",28487299,"L"
174212,"14107 MAIER DR","LAKE ODESSA","MI",48849,42.7759830540001,-85.125430207,212,"14107 MAIER DR, LAKE ODESSA, MI, 48849","Match","Exact","14107 MAIER DR, LAKE ODESSA, MI, 48849",12146926,"R"
174213,"14107 MORNING FROST DR","ORLANDO","FL",32828,NA,NA,213,"14107 MORNING FROST DR, ORLANDO, FL, 32828","No_Match",NA,NA,NA,NA
174214,"14107 PORT TOWN ROAD","ACCOKEEK","MD",20607,38.694951222,-76.962283866,214,"14107 PORT TOWN ROAD, ACCOKEEK, MD, 20607","Match","Exact","14107 PORT TOWN RD, ACCOKEEK, MD, 20607",638291953,"L"
174215,"14107 SE 11TH ST","VANCOUVER","WA",98664,NA,NA,215,"14107 SE 11TH ST, VANCOUVER, WA, 98664","No_Match",NA,NA,NA,NA
174216,"14107 SE 49 TH PL","BELLEVUE","WA",98006,47.5594026410001,-122.151259285,216,"14107 SE 49 TH PL, BELLEVUE, WA, 98006","Match","Non_Exact","14107 SE 49TH PL, BELLEVUE, WA, 98006",186671974,"R"
174217,"14107 SE 49TH PL","BELLEVUE","WA",98006,47.5594026410001,-122.151259285,217,"14107 SE 49TH PL, BELLEVUE, WA, 98006","Match","Exact","14107 SE 49TH PL, BELLEVUE, WA, 98006",186671974,"R"
174218,"14107 TREMONT PARK COURT","ROSHARON","TX",77583,29.5056626090001,-95.441584634,218,"14107 TREMONT PARK COURT, ROSHARON, TX, 77583","Match","Exact","14107 TREMONT PARK CT, ROSHARON, TX, 77583",116649909,"L"
174219,"14107 WAINWRIGHT CT","BOWIE","MD",20715,38.987749561,-76.761118509,219,"14107 WAINWRIGHT CT, BOWIE, MD, 20715","Match","Exact","14107 WAINWRIGHT CT, BOWIE, MD, 20715",76333397,"R"
174220,"14108 423RD AVE","BRISTOL","SD",57219,45.3585102860001,-97.7556212539999,220,"14108 423RD AVE, BRISTOL, SD, 57219","Match","Exact","14108 423RD AVE, BRISTOL, SD, 57219",653267461,"R"
174221,"14108 53RD AVE N","PLYMOUTH","MN",55345,45.049842288,-93.4591486909999,221,"14108 53RD AVE N, PLYMOUTH, MN, 55345","Match","Non_Exact","14108 53RD AVE N, PLYMOUTH, MN, 55446",43859674,"L"
174222,"14108 BEAR CREEK DRIVE","BOYDS","MD",20841,39.161742915,-77.289519118,222,"14108 BEAR CREEK DRIVE, BOYDS, MD, 20841","Match","Exact","14108 BEAR CREEK DR, BOYDS, MD, 20841",62127877,"R"
174223,"14108 COUNTY ROAD 59","WOODLAND","AL",30040,33.3466539880001,-85.396450481,223,"14108 COUNTY ROAD 59, WOODLAND, AL, 30040","Match","Non_Exact","14108 CO RD 59, WOODLAND, AL, 36280",1630771,"R"
174224,"14108 COUNTY ROAD 59","WOODLAND","AL",32174,33.3466539880001,-85.396450481,224,"14108 COUNTY ROAD 59, WOODLAND, AL, 32174","Match","Non_Exact","14108 CO RD 59, WOODLAND, AL, 36280",1630771,"R"
174225,"14108 COUNTY ROAD 59","WOODLAND","AL",32926,33.3466539880001,-85.396450481,225,"14108 COUNTY ROAD 59, WOODLAND, AL, 32926","Match","Non_Exact","14108 CO RD 59, WOODLAND, AL, 36280",1630771,"R"
174226,"14108 COUNTY ROAD 59","WOODLAND","AL",36280,33.3466539880001,-85.396450481,226,"14108 COUNTY ROAD 59, WOODLAND, AL, 36280","Match","Exact","14108 CO RD 59, WOODLAND, AL, 36280",1630771,"R"
174227,"14108 DENEEN ROAD","DIBERVILLE","MS",39565,30.4685402590001,-88.845475073,227,"14108 DENEEN ROAD, DIBERVILLE, MS, 39565","Match","Non_Exact","14108 DENEEN RD, VANCLEAVE, MS, 39565",89256707,"L"
174228,"14108 DOTY AVENUE APT 10","HAWTHORNE","CA",90250,33.9030174270001,-118.33948994,228,"14108 DOTY AVENUE APT 10, HAWTHORNE, CA, 90250","Match","Exact","14108 DOTY AVE, HAWTHORNE, CA, 90250",142752713,"L"
174229,"14108 GUARDIAN COURT","BOWIE","MD",20715,38.984562881,-76.760657893,229,"14108 GUARDIAN COURT, BOWIE, MD, 20715","Match","Exact","14108 GUARDIAN CT, BOWIE, MD, 20715",76401289,"R"
174230,"14108 HAMLIN ST UNIT 1","VAN NUYS","CA",91401,34.188666412,-118.440305971,230,"14108 HAMLIN ST UNIT 1, VAN NUYS, CA, 91401","Match","Exact","14108 HAMLIN ST, VAN NUYS, CA, 91401",141561143,"L"
174231,"14108 HOWE DR","LEAWOOD","KS",66224,38.873688164,-94.6299356,231,"14108 HOWE DR, LEAWOOD, KS, 66224","Match","Exact","14108 HOWE DR, LEAWOOD, KS, 66224",632526317,"R"
174232,"14108 JONES BRIDGE ROAD","UPPER MARLBORO","MD",20774,38.896184109,-76.76332561,232,"14108 JONES BRIDGE ROAD, UPPER MARLBORO, MD, 20774","Match","Exact","14108 JONES BRIDGE RD, UPPER MARLBORO, MD, 20774",638664878,"R"
174233,"14108 LARSEN STREET","OVERLAND PARK","KS",66221,38.870901207,-94.7039411109999,233,"14108 LARSEN STREET, OVERLAND PARK, KS, 66221","Match","Exact","14108 LARSEN ST, OVERLAND PARK, KS, 66221",638201575,"L"
174234,"14108 SERFASS RD","DOYLESTOWN","OH",44230,40.971209378,-81.715297415,234,"14108 SERFASS RD, DOYLESTOWN, OH, 44230","Match","Exact","14108 SERFASS RD, DOYLESTOWN, OH, 44230",58751930,"R"
174235,"14108NW 124TH ST","YUKON","OK",73099,35.596314385,-97.787684316,235,"14108NW 124TH ST, YUKON, OK, 73099","Match","Non_Exact","14108 NW 124TH ST, YUKON, OK, 73099",642898261,"R"
174236,"14109 181 STREET","SPRINGFIELD GARDENS","NY",11413,NA,NA,236,"14109 181 STREET, SPRINGFIELD GARDENS, NY, 11413","No_Match",NA,NA,NA,NA
174237,"14109 ARMILLA COURT","BURTONSVILLE","MD",20866,39.0874038170001,-76.942641313,237,"14109 ARMILLA COURT, BURTONSVILLE, MD, 20866","Match","Exact","14109 ARMILLA CT, BURTONSVILLE, MD, 20866",62074319,"L"
174238,"14109 E KENTUCKY PLACE APT 2","AURORA","CO",80012,39.7003489420001,-104.823956315,238,"14109 E KENTUCKY PLACE APT 2, AURORA, CO, 80012","Match","Non_Exact","14109 E KENTUCKY PL, AURORA, CO, 80012",177522304,"L"
174239,"14109 E KENTUCKY PLACE","AURORA","CO",80012,39.7003489420001,-104.823956315,239,"14109 E KENTUCKY PLACE, AURORA, CO, 80012","Match","Exact","14109 E KENTUCKY PL, AURORA, CO, 80012",177522304,"L"
174240,"14109 HAMMERMILL FIELD DRIVE","BOWIE","MD",20720,38.950135108,-76.7653086509999,240,"14109 HAMMERMILL FIELD DRIVE, BOWIE, MD, 20720","Match","Exact","14109 HAMMERMILL FIELD DR, BOWIE, MD, 20720",648072884,"R"
174241,"14109 KESSLER ST","OVERLAND PARK","KS",66221,38.8729282740001,-94.6929208029999,241,"14109 KESSLER ST, OVERLAND PARK, KS, 66221","Match","Exact","14109 KESSLER ST, OVERLAND PARK, KS, 66221",91300565,"L"
174242,"14109 N 83 AVE UNIT 118","PEORIA","AZ",85381,33.6125135390001,-112.237526078,242,"14109 N 83 AVE UNIT 118, PEORIA, AZ, 85381","Match","Non_Exact","14109 N 83RD AVE, PEORIA, AZ, 85381",619133974,"R"
174243,"14109 PELICAN STREET","PANAMA CITY BEACH","FL",32413,30.2049129590001,-85.8495397889999,243,"14109 PELICAN STREET, PANAMA CITY BEACH, FL, 32413","Match","Exact","14109 PELICAN ST, PANAMA CITY BEACH, FL, 32413",7020523,"L"
174244,"14109 SE 198TH ST","RENTON","WA",98034,47.4245817240001,-122.152666028,244,"14109 SE 198TH ST, RENTON, WA, 98034","Match","Non_Exact","14109 SE 198TH ST, RENTON, WA, 98058",186713987,"R"
174245,"14109 SE 198TH ST","RENTON","WA",98058,47.4245817240001,-122.152666028,245,"14109 SE 198TH ST, RENTON, WA, 98058","Match","Exact","14109 SE 198TH ST, RENTON, WA, 98058",186713987,"R"
174246,"14109 SE HARNEY ST","PORTLAND","OR",97236,45.462492368,-122.517794644,246,"14109 SE HARNEY ST, PORTLAND, OR, 97236","Match","Exact","14109 SE HARNEY ST, PORTLAND, OR, 97236",157547096,"R"
174247,"14109 STATE ROUTE 116","ST. MARYS","OH",45885,40.5553802380001,-84.398236837,247,"14109 STATE ROUTE 116, ST. MARYS, OH, 45885","Match","Exact","14109 STATE RTE 116, SAINT MARYS, OH, 45885",209202561,"L"
174248,"14109 TATTERSHALL PLACE","GERMANTOWN","MD",20874,39.177143362,-77.2948289839999,248,"14109 TATTERSHALL PLACE, GERMANTOWN, MD, 20874","Match","Exact","14109 TATTERSHALL PL, GERMANTOWN, MD, 20874",62096314,"R"
174249,"14109 W 770 RD","TAHLEQUAH","OK",74464,35.9007364340001,-95.056409835,249,"14109 W 770 RD, TAHLEQUAH, OK, 74464","Match","Exact","14109 W 770 RD, TAHLEQUAH, OK, 74464",53623765,"L"
174250,"14109 WESTMEATH DR","LAUREL","MD",20707,39.083774685,-76.8756489209999,250,"14109 WESTMEATH DR, LAUREL, MD, 20707","Match","Exact","14109 WESTMEATH DR, LAUREL, MD, 20707",76417966,"L"
174251,"1411 -A  MILGATE DR","WINSTON SALEM","NC",27103,36.0740782840001,-80.31430805,251,"1411 -A  MILGATE DR, WINSTON SALEM, NC, 27103","Match","Non_Exact","1411 MILLGATE DR, WINSTON SALEM, NC, 27103",84683026,"L"
174252,"1411 101ST AVE WEST","DULUTH","MN",55808,46.671981143,-92.227666991,252,"1411 101ST AVE WEST, DULUTH, MN, 55808","Match","Exact","1411 101ST AVE W, DULUTH, MN, 55808",163216624,"L"
174253,"1411 129TH ST","NEW RICHMOND","WI",54017,45.06682399,-92.5398947579999,253,"1411 129TH ST, NEW RICHMOND, WI, 54017","Match","Exact","1411 129TH ST, NEW RICHMOND, WI, 54017",612046539,"L"
174254,"1411 14TH STREET","MAYSVILLE","OK",73057,34.8100277730001,-97.4202491619999,254,"1411 14TH STREET, MAYSVILLE, OK, 73057","Match","Exact","1411 14TH ST, MAYSVILLE, OK, 73057",15138608,"L"
174255,"1411 18TH PLACE","WASHINGTON","DC",20020,38.8729285110001,-76.978544062,255,"1411 18TH PLACE, WASHINGTON, DC, 20020","Match","Non_Exact","1411 18TH PL SE, WASHINGTON, DC, 20020",76231707,"R"
174256,"1411 190TH STREET","DIAGONAL","IA",50845,40.769338557,-94.3799805689999,256,"1411 190TH STREET, DIAGONAL, IA, 50845","Match","Exact","1411 190TH ST, DIAGONAL, IA, 50845",81410732,"L"
174257,"1411 36TH ST S","MOORHEAD","MN",56560,46.860222456,-96.723205734,257,"1411 36TH ST S, MOORHEAD, MN, 56560","Match","Exact","1411 36TH ST S, MOORHEAD, MN, 56560",625835977,"R"
174258,"1411 3RD STREET NORTHWEST","ATTALLA","AL",35954,34.029417461,-86.080439386,258,"1411 3RD STREET NORTHWEST, ATTALLA, AL, 35954","Match","Exact","1411 3RD ST NW, ATTALLA, AL, 35954",66765765,"R"
174259,"1411 47TH ST","BROOKLYN","NY",11219,40.6346023250001,-73.9883811829999,259,"1411 47TH ST, BROOKLYN, NY, 11219","Match","Exact","1411 47TH ST, BROOKLYN, NY, 11219",59080292,"L"
174260,"1411 4TH STE 1101","SEATTLE","WA",98101,47.6093802290001,-122.335932568,260,"1411 4TH STE 1101, SEATTLE, WA, 98101","Match","Non_Exact","1411 4TH AVE, SEATTLE, WA, 98101",186589476,"L"
174261,"1411 4TH STREET WEST","PALMETTO","FL",34221,27.513993197,-82.581358558,261,"1411 4TH STREET WEST, PALMETTO, FL, 34221","Match","Exact","1411 4TH ST W, PALMETTO, FL, 34221",16243533,"R"
174262,"1411 56TH STREET","BROOKLYN","NY",11219,40.6295613840001,-73.993623778,262,"1411 56TH STREET, BROOKLYN, NY, 11219","Match","Exact","1411 56TH ST, BROOKLYN, NY, 11219",59080254,"L"
174263,"1411 ABBEYHILL DR","WORTHINGTON","OH",43085,40.1168741440001,-82.9782685499999,263,"1411 ABBEYHILL DR, WORTHINGTON, OH, 43085","Match","Exact","1411 ABBEYHILL DR, WORTHINGTON, OH, 43085",642841128,"R"
174264,"1411 ACORN AVE","DOWNERS GROVE","IL",60515,41.8257741640001,-88.0201606539999,264,"1411 ACORN AVE, DOWNERS GROVE, IL, 60515","Match","Exact","1411 ACORN AVE, DOWNERS GROVE, IL, 60515",112580162,"R"
174265,"1411 AGER DR","LONG BEACH","WA",98631,46.361566386,-124.054852905,265,"1411 AGER DR, LONG BEACH, WA, 98631","Match","Non_Exact","1411 AGER DR N, LONG BEACH, WA, 98631",635443339,"R"
174266,"1411 ALAMO ST","SAN MARCOS","TX",78666,29.893700638,-97.954443226,266,"1411 ALAMO ST, SAN MARCOS, TX, 78666","Match","Exact","1411 ALAMO ST, SAN MARCOS, TX, 78666",623852650,"L"
174267,"1411 ALKI ST NE","OLYMPIA","WA",98516,47.0636771330001,-122.748488899,267,"1411 ALKI ST NE, OLYMPIA, WA, 98516","Match","Exact","1411 ALKI ST NE, OLYMPIA, WA, 98516",180949730,"L"
174268,"1411 ALLIES COURT","FLORENCE","SC",29506,34.17133053,-79.729760325,268,"1411 ALLIES COURT, FLORENCE, SC, 29506","Match","Exact","1411 ALLIES CT, FLORENCE, SC, 29506",627152807,"L"
174269,"1411 ARNOW AVE","BRONX","NY",10469,40.86750189,-73.845738753,269,"1411 ARNOW AVE, BRONX, NY, 10469","Match","Exact","1411 ARNOW AVE, BRONX, NY, 10469",80303834,"L"
174270,"1411 ASH OAK DRIVE","MISSOURI CITY","TX",77489,29.608794647,-95.5258972669999,270,"1411 ASH OAK DRIVE, MISSOURI CITY, TX, 77489","Match","Exact","1411 ASH OAK DR, MISSOURI CITY, TX, 77489",227773344,"R"
174271,"1411 ASHEVILLE HIGHWAY","HENDERSONVILLE","NC",28791,35.3285995860001,-82.468113799,271,"1411 ASHEVILLE HIGHWAY, HENDERSONVILLE, NC, 28791","Match","Exact","1411 ASHEVILLE HWY, HENDERSONVILLE, NC, 28791",152308866,"L"
174272,"1411 ASHTEAD LANE","WILLIAMSTOWN","NJ",8094,39.668788083,-74.96853077,272,"1411 ASHTEAD LANE, WILLIAMSTOWN, NJ, 8094","Match","Exact","1411 ASHTEAD LN, WILLIAMSTOWN, NJ, 08094",618723415,"L"
174273,"1411 ASPEN DR","HARRISBURG","PA",17109,40.296914798,-76.788625794,273,"1411 ASPEN DR, HARRISBURG, PA, 17109","Match","Exact","1411 ASPEN DR, HARRISBURG, PA, 17109",70823669,"L"
174274,"1411 AUGUSTA DR","MARION","IL",62959,37.7504769940001,-88.968159821,274,"1411 AUGUSTA DR, MARION, IL, 62959","Match","Exact","1411 AUGUSTA DR, MARION, IL, 62959",627815945,"L"
174275,"1411 AUSTIN RD","SPRINGVILLE","IA",52236,42.12242264,-91.50236548,275,"1411 AUSTIN RD, SPRINGVILLE, IA, 52236","Match","Non_Exact","1411 AUSTIN RD, SPRINGVILLE, IA, 52336",17052063,"L"
174276,"1411 AVALON BLVD","CASSLEBERRY","FL",32707,28.6642497710001,-81.308082815,276,"1411 AVALON BLVD, CASSLEBERRY, FL, 32707","Match","Non_Exact","1411 AVALON BLVD, CASSELBERRY, FL, 32707",93744244,"R"
174277,"1411 AVENUE C","NEDERLAND","TX",77627,29.9710007850001,-93.988111983,277,"1411 AVENUE C, NEDERLAND, TX, 77627","Match","Exact","1411 AVE C, NEDERLAND, TX, 77627",73860592,"L"
174278,"1411 BANK STREET","KALAMAZOO","MI",49001,42.2773300060001,-85.574655609,278,"1411 BANK STREET, KALAMAZOO, MI, 49001","Match","Exact","1411 BANK ST, KALAMAZOO, MI, 49001",12229942,"L"
174279,"1411 BARBERRY CT","TROY","OH",45373,40.056788097,-84.183578494,279,"1411 BARBERRY CT, TROY, OH, 45373","Match","Exact","1411 BARBERRY CT, TROY, OH, 45373",600554710,"R"
174280,"1411 BAY VIEW COURT","FORT MYERS","FL",33901,26.644731505,-81.8704511459999,280,"1411 BAY VIEW COURT, FORT MYERS, FL, 33901","Match","Non_Exact","1411 BAYVIEW CT, FORT MYERS, FL, 33901",118020114,"L"
174281,"1411 BEACON STREET","WABAN","MA",2461,NA,NA,281,"1411 BEACON STREET, WABAN, MA, 2461","No_Match",NA,NA,NA,NA
174282,"1411 BENTON AVE","WAYLAND","IA",52654,NA,NA,282,"1411 BENTON AVE, WAYLAND, IA, 52654","No_Match",NA,NA,NA,NA
174283,"1411 BIARRITZ STREET","TRACY","CA",95304,37.7176044920001,-121.403695622,283,"1411 BIARRITZ STREET, TRACY, CA, 95304","Match","Exact","1411 BIARRITZ ST, TRACY, CA, 95304",600314924,"L"
174284,"1411 BIRCH STREET","YELLOW SPRINGS","OH",45387,39.788590963,-83.885449761,284,"1411 BIRCH STREET, YELLOW SPRINGS, OH, 45387","Match","Exact","1411 BIRCH ST, YELLOW SPGS, OH, 45387",143419021,"L"
174285,"1411 BIRDLAND ROAD","HOWARDS GROVE","WI",53083,43.8190485480001,-87.8208453839999,285,"1411 BIRDLAND ROAD, HOWARDS GROVE, WI, 53083","Match","Exact","1411 BIRDLAND RD, HOWARDS GROVE, WI, 53083",79505474,"L"
174286,"1411 BLOSSOM CIRCLE","DAYTON","NJ",8810,40.3797348200001,-74.509765004,286,"1411 BLOSSOM CIRCLE, DAYTON, NJ, 8810","Match","Exact","1411 BLOSSOM CIR, DAYTON, NJ, 08810",626867525,"L"
174287,"1411 BOLIVAR","DENTON","TX",76201,33.2262253970001,-97.13486987,287,"1411 BOLIVAR, DENTON, TX, 76201","Match","Non_Exact","1411 BOLIVAR ST, DENTON, TX, 76201",103338871,"R"
174288,"1411 BONNETT PLACE M","BEL AIR","MD",21015,39.5393345700001,-76.3163301399999,288,"1411 BONNETT PLACE M, BEL AIR, MD, 21015","Match","Exact","1411 BONNETT PL, BEL AIR, MD, 21015",191674419,"R"
174289,"1411 BONNETT","BEL AIR","MD",21015,39.5393345700001,-76.3163301399999,289,"1411 BONNETT, BEL AIR, MD, 21015","Match","Non_Exact","1411 BONNETT PL, BEL AIR, MD, 21015",191674419,"R"
174290,"1411 BRADFORD COURT","EVANSVILLE","IN",47715,37.9569729500001,-87.458319423,290,"1411 BRADFORD COURT, EVANSVILLE, IN, 47715","Match","Exact","1411 BRADFORD CT, EVANSVILLE, IN, 47715",39788053,"R"
174291,"1411 BROADWAY 33RD FLOOR","NEW YORK","NY",10018,40.7536684230001,-73.987075529,291,"1411 BROADWAY 33RD FLOOR, NEW YORK, NY, 10018","Match","Exact","1411 BROADWAY, NEW YORK, NY, 10018",59658600,"L"
174292,"1411 CAGE STREET","HOUSTON","TX",77020,29.773719375,-95.3350516309999,292,"1411 CAGE STREET, HOUSTON, TX, 77020","Match","Exact","1411 CAGE ST, HOUSTON, TX, 77020",96069215,"L"
174293,"1411 CAMERON PARK LANE","SPRING","TX",77386,30.0910264570001,-95.382733507,293,"1411 CAMERON PARK LANE, SPRING, TX, 77386","Match","Exact","1411 CAMERON PARK LN, SPRING, TX, 77386",653240875,"R"
174294,"1411 CAMERON PARK LN","SPRING","TX",77386,30.0910264570001,-95.382733507,294,"1411 CAMERON PARK LN, SPRING, TX, 77386","Match","Exact","1411 CAMERON PARK LN, SPRING, TX, 77386",653240875,"R"
174295,"1411 CAMPGROUND ROAD","TROY","TN",38260,36.316952305,-89.21068589,295,"1411 CAMPGROUND ROAD, TROY, TN, 38260","Match","Exact","1411 CAMPGROUND RD, TROY, TN, 38260",30897469,"R"
174296,"1411 CARROLL AVE","LOS ANGELES","CA",90026,34.06983268,-118.25533666,296,"1411 CARROLL AVE, LOS ANGELES, CA, 90026","Match","Exact","1411 CARROLL AVE, LOS ANGELES, CA, 90026",141616864,"R"
174297,"1411 CASA BUENA DRIVE  APT 41","CORTE MADERA","CA",94925,37.9156173120001,-122.511948366,297,"1411 CASA BUENA DRIVE  APT 41, CORTE MADERA, CA, 94925","Match","Exact","1411 CASA BUENA DR, CORTE MADERA, CA, 94925",605779797,"R"
174298,"1411 CASA BUENA DRIVE APT 35","CORTE MADERA","CA",94925,37.9156173120001,-122.511948366,298,"1411 CASA BUENA DRIVE APT 35, CORTE MADERA, CA, 94925","Match","Exact","1411 CASA BUENA DR, CORTE MADERA, CA, 94925",605779797,"R"
174299,"1411 CASA BUENA UNIT 41","CORTE MADERA","CA",94925,37.9156173120001,-122.511948366,299,"1411 CASA BUENA UNIT 41, CORTE MADERA, CA, 94925","Match","Non_Exact","1411 CASA BUENA DR, CORTE MADERA, CA, 94925",605779797,"R"
174300,"1411 CELEBRATION AVE UNIT 207","CELEBRATION","FL",34747,28.3004520050001,-81.557331828,300,"1411 CELEBRATION AVE UNIT 207, CELEBRATION, FL, 34747","Match","Exact","1411 CELEBRATION AVE, CELEBRATION, FL, 34747",176696606,"R"
174301,"1411 CENTAUR CIRCLE","LAFAYETTE","CO",80026,39.9830095570001,-105.110655912,301,"1411 CENTAUR CIRCLE, LAFAYETTE, CO, 80026","Match","Exact","1411 CENTAUR CIR, LAFAYETTE, CO, 80026",188167357,"R"
174302,"1411 CENTER AVENUE","FEASTERVILLE","PA",19053,40.151006184,-74.9906315489999,302,"1411 CENTER AVENUE, FEASTERVILLE, PA, 19053","Match","Non_Exact","1411 CENTER AVE, FEASTERVILLE TREVOSE, PA, 19053",134709653,"R"
174303,"1411 CENTER AVENUE","MARTINEZ","CA",94553,37.9845679760001,-122.098587933,303,"1411 CENTER AVENUE, MARTINEZ, CA, 94553","Match","Exact","1411 CENTER AVE, MARTINEZ, CA, 94553",192088933,"L"
174304,"1411 CENTER STREET","LITTLE ROCK","AR",72202,34.735503861,-92.275249709,304,"1411 CENTER STREET, LITTLE ROCK, AR, 72202","Match","Exact","1411 CENTER ST, LITTLE ROCK, AR, 72202",83511505,"L"
174305,"1411 CHESTNUT ST","CANON CITY","CO",81212,38.427774089,-105.208734469,305,"1411 CHESTNUT ST, CANON CITY, CO, 81212","Match","Exact","1411 CHESTNUT ST, CANON CITY, CO, 81212",108289386,"L"
174306,"1411 CLARK STREET","PORT ALLEN","LA",70767,30.4619540630001,-91.218627593,306,"1411 CLARK STREET, PORT ALLEN, LA, 70767","Match","Exact","1411 CLARK ST, PORT ALLEN, LA, 70767",92296284,"L"
174307,"1411 CLUB DRIVE","LYNCHBURG","VA",24503,37.430420767,-79.189640192,307,"1411 CLUB DRIVE, LYNCHBURG, VA, 24503","Match","Exact","1411 CLUB DR, LYNCHBURG, VA, 24503",62623442,"R"
174308,"1411 COALITION CIRCLE","HINESVILLE","GA",31313,31.806773515,-81.6183276099999,308,"1411 COALITION CIRCLE, HINESVILLE, GA, 31313","Match","Exact","1411 COALITION CIR, HINESVILLE, GA, 31313",634086260,"R"
174309,"1411 COLE ROAD","PORTSMOUTH","VA",23701,36.7972765850001,-76.37449204,309,"1411 COLE ROAD, PORTSMOUTH, VA, 23701","Match","Exact","1411 COLE RD, PORTSMOUTH, VA, 23701",122192887,"L"
174310,"1411 COLUMBIA DRIVE","GLENDALE","CA",91205,34.128406044,-118.24197606,310,"1411 COLUMBIA DRIVE, GLENDALE, CA, 91205","Match","Exact","1411 COLUMBIA DR, GLENDALE, CA, 91205",141611176,"R"
174311,"1411 COMMONWEALTH AVE UNIT 104","BRIGHTON","MA",2135,42.349036986,-71.138899395,311,"1411 COMMONWEALTH AVE UNIT 104, BRIGHTON, MA, 2135","Match","Exact","1411 COMMONWEALTH AVE, BRIGHTON, MA, 02135",633012928,"R"
174312,"1411 CRESCENT LAKE DRIVE","WINDERMERE","FL",34786,28.510196266,-81.555425384,312,"1411 CRESCENT LAKE DRIVE, WINDERMERE, FL, 34786","Match","Exact","1411 CRESCENT LAKE DR, WINDERMERE, FL, 34786",94265996,"R"
174313,"1411 CRESO RD S","SPANAWAY","WA",98387,47.1106740640001,-122.454284777,313,"1411 CRESO RD S, SPANAWAY, WA, 98387","Match","Exact","1411 CRESO RD S, SPANAWAY, WA, 98387",184703860,"R"
174314,"1411 CROWS LANDING RD","MODESTO","CA",95351,37.610085236,-120.993607281,314,"1411 CROWS LANDING RD, MODESTO, CA, 95351","Match","Exact","1411 CROWS LANDING RD, MODESTO, CA, 95351",102591337,"R"
174315,"1411 CUMBERLAND CREEK LANE","MARIETTA","GA",30008,33.8992744330001,-84.5946003879999,315,"1411 CUMBERLAND CREEK LANE, MARIETTA, GA, 30008","Match","Exact","1411 CUMBERLAND CREEK LN, MARIETTA, GA, 30008",634051271,"L"
174316,"1411 CUMBERLAND CREEK LANE","MARRIETTA","GA",30008,33.8992744330001,-84.5946003879999,316,"1411 CUMBERLAND CREEK LANE, MARRIETTA, GA, 30008","Match","Non_Exact","1411 CUMBERLAND CREEK LN, MARIETTA, GA, 30008",634051271,"L"
174317,"1411 DANDRIDGE STREET","FREDERICKSBURG","VA",22401,38.2990662030001,-77.479275391,317,"1411 DANDRIDGE STREET, FREDERICKSBURG, VA, 22401","Match","Exact","1411 DANDRIDGE ST, FREDERICKSBURG, VA, 22401",85005382,"R"
174318,"1411 DEMAR PL","ROCK ISLAND","WA",98850,47.380294151,-120.155551648,318,"1411 DEMAR PL, ROCK ISLAND, WA, 98850","Match","Exact","1411 DEMAR PL, ROCK ISLAND, WA, 98850",156885731,"L"
174319,"1411 DICKERSON PIKE","NASHVILLE","TN",37207,36.197502677,-86.771285409,319,"1411 DICKERSON PIKE, NASHVILLE, TN, 37207","Match","Exact","1411 DICKERSON PIKE, NASHVILLE, TN, 37207",647616069,"R"
174320,"1411 E 174TH ST","CLEVELAND","OH",44103,41.5660397710001,-81.5579589009999,320,"1411 E 174TH ST, CLEVELAND, OH, 44103","Match","Non_Exact","1411 E 174TH ST, CLEVELAND, OH, 44110",61123693,"L"
174321,"1411 E 6TH","OKMULGEE","OK",74447,35.6234043740001,-95.952464305,321,"1411 E 6TH, OKMULGEE, OK, 74447","Match","Non_Exact","1411 E 6TH ST, OKMULGEE, OK, 74447",166247799,"R"
174322,"1411 E CLINTON WAY","FRESNO","CA",93703,NA,NA,322,"1411 E CLINTON WAY, FRESNO, CA, 93703","No_Match",NA,NA,NA,NA
174323,"1411 E DIANA AVE","ANAHEIM","CA",92805,33.8296696460001,-117.894868584,323,"1411 E DIANA AVE, ANAHEIM, CA, 92805","Match","Exact","1411 E DIANA AVE, ANAHEIM, CA, 92805",144027524,"L"
174324,"1411 E FRANKLIN","INDIANOLA","IA",50125,41.3661182870001,-93.541291224,324,"1411 E FRANKLIN, INDIANOLA, IA, 50125","Match","Non_Exact","1411 E FRANKLIN AVE, INDIANOLA, IA, 50125",83769907,"R"
174325,"1411 EAST 10TH STREET  ST","ST CLOUD","FL",34771,28.2495441450001,-81.2537967119999,325,"1411 EAST 10TH STREET  ST, ST CLOUD, FL, 34771","Match","Exact","1411 E 10TH ST, SAINT CLOUD, FL, 34771",646385541,"R"
174326,"1411 EAST 25TH AVE","TAMPA","FL",33605,27.97342881,-82.444012835,326,"1411 EAST 25TH AVE, TAMPA, FL, 33605","Match","Exact","1411 E 25TH AVE, TAMPA, FL, 33605",104523747,"R"
174327,"1411 EAST 39TH STREET","SAVANNAH","GA",31404,32.049428133,-81.078275929,327,"1411 EAST 39TH STREET, SAVANNAH, GA, 31404","Match","Exact","1411 E 39TH ST, SAVANNAH, GA, 31404",6178628,"R"
174328,"1411 EAST 7425 SOUTH","SOUTH WEBER","UT",84405,41.1321077040001,-111.943275704,328,"1411 EAST 7425 SOUTH, SOUTH WEBER, UT, 84405","Match","Exact","1411 E 7425 S, SOUTH WEBER, UT, 84405",627215628,"L"
174329,"1411 EAST CROWN AVENUE","SPOKANE","WA",99207,47.7048265810001,-117.389554234,329,"1411 EAST CROWN AVENUE, SPOKANE, WA, 99207","Match","Exact","1411 E CROWN AVE, SPOKANE, WA, 99207",189878238,"L"
174330,"1411 EAST GOLFVIEW DR","PEMBROKE PINES","FL",33026,NA,NA,330,"1411 EAST GOLFVIEW DR, PEMBROKE PINES, FL, 33026","No_Match",NA,NA,NA,NA
174331,"1411 EAST LAWNDALE DRIVE","SHELBYVILLE","IN",46176,39.5516165540001,-85.749680348,331,"1411 EAST LAWNDALE DRIVE, SHELBYVILLE, IN, 46176","Match","Exact","1411 E LAWNDALE DR, SHELBYVILLE, IN, 46176",33219306,"R"
174332,"1411 EAST MOODY AVENUE APT 30","KNOXVILLE","TN",37920,35.952424883,-83.895684138,332,"1411 EAST MOODY AVENUE APT 30, KNOXVILLE, TN, 37920","Match","Exact","1411 E MOODY AVE, KNOXVILLE, TN, 37920",42672729,"L"
174333,"1411 EAST POWELL STREET","BAINBRIDGE","GA",39817,30.90736464,-84.555803407,333,"1411 EAST POWELL STREET, BAINBRIDGE, GA, 39817","Match","Non_Exact","1411 POWELL ST, BAINBRIDGE, GA, 39817",84278811,"R"
174334,"1411 EASTMAN LANE","PETALUMA","CA",94952,38.2354168420001,-122.684404261,334,"1411 EASTMAN LANE, PETALUMA, CA, 94952","Match","Exact","1411 EASTMAN LN, PETALUMA, CA, 94952",67531289,"R"
174335,"1411 EASTVIEW COURT","OCEANSIDE","CA",92056,33.2260931700001,-117.262695327,335,"1411 EASTVIEW COURT, OCEANSIDE, CA, 92056","Match","Exact","1411 EASTVIEW CT, OCEANSIDE, CA, 92056",195286118,"R"
174336,"1411 EDGEWATER DR STE 103","ORLANDO","FL",32804,28.564013898,-81.389331629,336,"1411 EDGEWATER DR STE 103, ORLANDO, FL, 32804","Match","Exact","1411 EDGEWATER DR, ORLANDO, FL, 32804",94280502,"R"
174337,"1411 ELDORADO DRIVE","ST PETERS","MO",63376,NA,NA,337,"1411 ELDORADO DRIVE, ST PETERS, MO, 63376","No_Match",NA,NA,NA,NA
174338,"1411 F ST NE","WASHINGTON, D.C.","DC",20002,38.8973293,-76.985038088,338,"1411 F ST NE, WASHINGTON, D.C., DC, 20002","Match","Non_Exact","1411 F ST NE, WASHINGTON, DC, 20002",76230415,"R"
174339,"1411 FAIRFIELD AVE","SHREVEPORT","LA",71101,32.4985537950001,-93.752415873,339,"1411 FAIRFIELD AVE, SHREVEPORT, LA, 71101","Match","Exact","1411 FAIRFIELD AVE, SHREVEPORT, LA, 71101",57482355,"L"
174340,"1411 FAIRFIELD AVENUE","SHREVEPORT","LA",71101,32.4985537950001,-93.752415873,340,"1411 FAIRFIELD AVENUE, SHREVEPORT, LA, 71101","Match","Exact","1411 FAIRFIELD AVE, SHREVEPORT, LA, 71101",57482355,"L"
174341,"1411 FALLS AVE","TWIN FALLS","ID",83301,42.5776859370001,-114.456876211,341,"1411 FALLS AVE, TWIN FALLS, ID, 83301","Match","Non_Exact","1411 FALLS AVE E, TWIN FALLS, ID, 83301",118761181,"R"
174342,"1411 FENTON ST APT F","LAKEWOOD","CO",80214,39.7388303120001,-105.060272831,342,"1411 FENTON ST APT F, LAKEWOOD, CO, 80214","Match","Exact","1411 FENTON ST, LAKEWOOD, CO, 80214",639432959,"L"
174343,"1411 FIELDCREST DR","BLAIR","NE",68008,41.5593184260001,-96.1485706139999,343,"1411 FIELDCREST DR, BLAIR, NE, 68008","Match","Exact","1411 FIELDCREST DR, BLAIR, NE, 68008",636526044,"L"
174344,"1411 FIR LANE","AVON","IN",46123,39.741789354,-86.416183571,344,"1411 FIR LANE, AVON, IN, 46123","Match","Exact","1411 FIR LN, AVON, IN, 46123",637350363,"L"
174345,"1411 FLOUNDER CT UNIT B","SAN FRANCISCO","CA",94130,37.8263225910001,-122.374593155,345,"1411 FLOUNDER CT UNIT B, SAN FRANCISCO, CA, 94130","Match","Exact","1411 FLOUNDER CT, SAN FRANCISCO, CA, 94130",192294466,"R"
174346,"1411 FLOUNDER CT","SAN FRANCISCO","CA",94130,37.8263225910001,-122.374593155,346,"1411 FLOUNDER CT, SAN FRANCISCO, CA, 94130","Match","Exact","1411 FLOUNDER CT, SAN FRANCISCO, CA, 94130",192294466,"R"
174347,"1411 FRANKLIN AVE","RIVER FOREST","IL",60305,41.90527688,-87.8186290629999,347,"1411 FRANKLIN AVE, RIVER FOREST, IL, 60305","Match","Exact","1411 FRANKLIN AVE, RIVER FOREST, IL, 60305",111749413,"R"
174348,"1411 FREEMONT STREET","MCKEESPORT","PA",15132,40.343603337,-79.8422553729999,348,"1411 FREEMONT STREET, MCKEESPORT, PA, 15132","Match","Exact","1411 FREEMONT ST, MCKEESPORT, PA, 15132",51678266,"L"
174349,"1411 FRIENDLY AVENUE","PORTAGE","MI",49002,42.233864162,-85.573208412,349,"1411 FRIENDLY AVENUE, PORTAGE, MI, 49002","Match","Exact","1411 FRIENDLY AVE, PORTAGE, MI, 49002",12231137,"L"
174350,"1411 GANDY","DIBOLL","TX",75941,31.2064850510001,-94.7796363209999,350,"1411 GANDY, DIBOLL, TX, 75941","Match","Non_Exact","1411 GANDY ST, DIBOLL, TX, 75941",23852938,"L"
174351,"1411 GEORGETOWN PARKWAY","FENTON","MI",48430,42.809391099,-83.7223360789999,351,"1411 GEORGETOWN PARKWAY, FENTON, MI, 48430","Match","Exact","1411 GEORGETOWN PKWY, FENTON, MI, 48430",69585277,"L"
174352,"1411 GEORGIA","WEST MEMPHIS","AR",72301,35.12891911,-90.186769759,352,"1411 GEORGIA, WEST MEMPHIS, AR, 72301","Match","Non_Exact","1411 GEORGIA LN, WEST MEMPHIS, AR, 72301",69380289,"R"
174353,"1411 GETTSYBURG DR","CHEYENNE","WY",82001,41.137439106,-104.74401468,353,"1411 GETTSYBURG DR, CHEYENNE, WY, 82001","Match","Non_Exact","1411 GETTYSBURG DR, CHEYENNE, WY, 82001",646696781,"R"
174354,"1411 GHOLSON AVENUE","WINSTON SALEM","NC",27107,36.0821454810001,-80.22675909,354,"1411 GHOLSON AVENUE, WINSTON SALEM, NC, 27107","Match","Exact","1411 GHOLSON AVE, WINSTON SALEM, NC, 27107",84613459,"L"
174355,"1411 GINN WAY","LUFKIN","TX",75901,31.304084264,-94.711280196,355,"1411 GINN WAY, LUFKIN, TX, 75901","Match","Non_Exact","1411 GINN WAY ST, LUFKIN, TX, 75901",23841355,"R"
174356,"1411 GLASTONBURY ROAD","MAITLAND","FL",32751,28.642249,-81.344596086,356,"1411 GLASTONBURY ROAD, MAITLAND, FL, 32751","Match","Non_Exact","1411 GLASTONBERRY RD, MAITLAND, FL, 32751",93752743,"L"
174357,"1411 GOLDEN EAGLE DR","DURHAM","NC",27704,36.0121992300001,-78.816492442,357,"1411 GOLDEN EAGLE DR, DURHAM, NC, 27704","Match","Exact","1411 GOLDEN EAGLE DR, DURHAM, NC, 27704",618109375,"L"
174358,"1411 GORDON RD","MORELAND","GA",30259,33.305113008,-84.7381682719999,358,"1411 GORDON RD, MORELAND, GA, 30259","Match","Exact","1411 GORDON RD, MORELAND, GA, 30259",9325150,"L"
174359,"1411 GRAND JUNCTION DRIVE","KATY","TX",77450,29.7616235680001,-95.753725802,359,"1411 GRAND JUNCTION DRIVE, KATY, TX, 77450","Match","Exact","1411 GRAND JUNCTION DR, KATY, TX, 77450",96013851,"R"
174360,"1411 GRANDVIEW AVE 702","PITTSBURGH","PA",15211,40.439026992,-80.020926117,360,"1411 GRANDVIEW AVE 702, PITTSBURGH, PA, 15211","Match","Exact","1411 GRANDVIEW AVE, PITTSBURGH, PA, 15211",51701601,"L"
174361,"1411 GRAVEL PIT RD","SEGUIN","TX",78155,29.660191797,-97.8439315369999,361,"1411 GRAVEL PIT RD, SEGUIN, TX, 78155","Match","Exact","1411 GRAVEL PIT RD, SEGUIN, TX, 78155",54821000,"R"
174362,"1411 GREEN OAKS DRIVE","ARCADIA","CA",91006,34.1561330230001,-118.066768688,362,"1411 GREEN OAKS DRIVE, ARCADIA, CA, 91006","Match","Exact","1411 GREEN OAKS DR, ARCADIA, CA, 91006",141643395,"L"
174363,"1411 GREENE ST","BEAUFORT","SC",29902,32.437899858,-80.6775193299999,363,"1411 GREENE ST, BEAUFORT, SC, 29902","Match","Exact","1411 GREENE ST, BEAUFORT, SC, 29902",87605931,"R"
174364,"1411 GRINNELL ST","DALLAS","TX",75216,32.6967336220001,-96.805491096,364,"1411 GRINNELL ST, DALLAS, TX, 75216","Match","Exact","1411 GRINNELL ST, DALLAS, TX, 75216",102951444,"L"
174365,"1411 GROESBECK","STEPHENVILLE","TX",76401,32.208877935,-98.211910072,365,"1411 GROESBECK, STEPHENVILLE, TX, 76401","Match","Non_Exact","1411 GROESBECK ST, STEPHENVILLE, TX, 76401",158515570,"L"
174366,"1411 GUILFORD ROAD","DELAWARE","OH",43015,40.192403341,-83.055353537,366,"1411 GUILFORD ROAD, DELAWARE, OH, 43015","Match","Exact","1411 GUILFORD RD, DELAWARE, OH, 43015",648092237,"R"
174367,"1411 HAMILTON HILLS DR","CHAMBERSBURG","PA",17202,39.9547615920001,-77.682447134,367,"1411 HAMILTON HILLS DR, CHAMBERSBURG, PA, 17202","Match","Exact","1411 HAMILTON HILLS DR, CHAMBERSBURG, PA, 17202",605492538,"R"
174368,"1411 HARNESS HORSE LANE 201","BRANDON","FL",33511,27.923994282,-82.305124597,368,"1411 HARNESS HORSE LANE 201, BRANDON, FL, 33511","Match","Exact","1411 HARNESS HORSE LN, BRANDON, FL, 33511",104590405,"R"
174369,"1411 HAROLD ELLEN ST","EL DORADO","AR",71730,33.2271997940001,-92.682006389,369,"1411 HAROLD ELLEN ST, EL DORADO, AR, 71730","Match","Non_Exact","1411 HAROLD ELLEN DR, EL DORADO, AR, 71730",28171618,"L"
174370,"1411 HERKIMER STREET APT 1","BROOKLYN","NY",11233,40.6773023440001,-73.906715178,370,"1411 HERKIMER STREET APT 1, BROOKLYN, NY, 11233","Match","Exact","1411 HERKIMER ST, BROOKLYN, NY, 11233",59084481,"L"
174371,"1411 HIGHWAY 270 EAST","SHERIDAN","AR",72150,NA,NA,371,"1411 HIGHWAY 270 EAST, SHERIDAN, AR, 72150","Tie",NA,NA,NA,NA
174372,"1411 HOBSON","BUTTE","MT",59701,45.9850126850001,-112.518630398,372,"1411 HOBSON, BUTTE, MT, 59701","Match","Non_Exact","1411 HOBSON AVE, BUTTE, MT, 59701",153580349,"R"
174373,"1411 HUNTCLIFF VILLAGE COURT","SANDY SPRINGS","GA",30350,33.9987662770001,-84.3527058449999,373,"1411 HUNTCLIFF VILLAGE COURT, SANDY SPRINGS, GA, 30350","Match","Exact","1411 HUNTCLIFF VILLAGE CT, SANDY SPRINGS, GA, 30350",645573302,"R"
174374,"1411 HWY 14","ELMORE","AL",36025,NA,NA,374,"1411 HWY 14, ELMORE, AL, 36025","No_Match",NA,NA,NA,NA
174375,"1411 HWY 67 SO","POCAHONTAS","AR",72455,36.26795114,-90.962025979,375,"1411 HWY 67 SO, POCAHONTAS, AR, 72455","Match","Non_Exact","1411 HWY 67 N, POCAHONTAS, AR, 72455",52388030,"R"
174376,"1411 I M TERRELL CIR S","FORT WORTH","TX",76102,32.7488516070001,-97.314824771,376,"1411 I M TERRELL CIR S, FORT WORTH, TX, 76102","Match","Exact","1411 I M TERRELL CIR S, FORT WORTH, TX, 76102",101889485,"L"
174377,"1411 ISABELLA COURT","TOMS RIVER","NJ",8753,39.9960526730001,-74.203520224,377,"1411 ISABELLA COURT, TOMS RIVER, NJ, 8753","Match","Exact","1411 ISABELLA CT, TOMS RIVER, NJ, 08753",627791374,"R"
174378,"1411 KALA DR","LITHONIA","GA",30058,33.7556928500001,-84.095982861,378,"1411 KALA DR, LITHONIA, GA, 30058","Match","Exact","1411 KALA DR, LITHONIA, GA, 30058",634040992,"R"
174379,"1411 KALA DRIVE","LITHONIA","GA",30058,33.7556928500001,-84.095982861,379,"1411 KALA DRIVE, LITHONIA, GA, 30058","Match","Exact","1411 KALA DR, LITHONIA, GA, 30058",634040992,"R"
174380,"1411 KEYSTONE","RIVER FOREST","IL",60305,41.9055618580001,-87.823489131,380,"1411 KEYSTONE, RIVER FOREST, IL, 60305","Match","Non_Exact","1411 KEYSTONE AVE, RIVER FOREST, IL, 60305",111749288,"R"
174381,"1411 KILCHIS FALLS WAY","BRASELTON","GA",30517,34.1176499330001,-83.820201178,381,"1411 KILCHIS FALLS WAY, BRASELTON, GA, 30517","Match","Exact","1411 KILCHIS FALLS WAY, BRASELTON, GA, 30517",77588977,"R"
174382,"1411 KINGSTREAM DR","HERNDON","VA",20170,38.9908981940001,-77.374662498,382,"1411 KINGSTREAM DR, HERNDON, VA, 20170","Match","Exact","1411 KINGSTREAM DR, HERNDON, VA, 20170",76006979,"L"
174383,"1411 KIRKFARM LANE APT 202","CHARLOTTE","NC",28213,NA,NA,383,"1411 KIRKFARM LANE APT 202, CHARLOTTE, NC, 28213","No_Match",NA,NA,NA,NA
174384,"1411 LAKE ROAD","LAKE FOREST","IL",60045,42.264701664,-87.828645438,384,"1411 LAKE ROAD, LAKE FOREST, IL, 60045","Match","Exact","1411 LAKE RD, LAKE FOREST, IL, 60045",119647272,"R"
174385,"1411 LAKECLIFF DR","HOUSTON","TX",77077,29.753485723,-95.591825506,385,"1411 LAKECLIFF DR, HOUSTON, TX, 77077","Match","Exact","1411 LAKECLIFF DR, HOUSTON, TX, 77077",96021027,"L"
174386,"1411 LAKEVIEW AVENUE","KISSIMMEE","FL",34744,28.2907169650001,-81.387641661,386,"1411 LAKEVIEW AVENUE, KISSIMMEE, FL, 34744","Match","Exact","1411 LAKEVIEW AVE, KISSIMMEE, FL, 34744",176657879,"L"
174387,"1411 LAKEWOOD DRIVE","WESTOVER","AL",35147,33.372688188,-86.494309642,387,"1411 LAKEWOOD DRIVE, WESTOVER, AL, 35147","Match","Exact","1411 LAKEWOOD DR, WESTOVER, AL, 35147",82097114,"L"
174388,"1411 LECKIE STREET","PORTSMOUTH","VA",23704,36.842007933,-76.315047659,388,"1411 LECKIE STREET, PORTSMOUTH, VA, 23704","Match","Exact","1411 LECKIE ST, PORTSMOUTH, VA, 23704",122193841,"L"
174389,"1411 LILAC LANE","DOVER","NH",3820,43.1776244370001,-70.9026000869999,389,"1411 LILAC LANE, DOVER, NH, 3820","Match","Exact","1411 LILAC LN, DOVER, NH, 03820",638520795,"R"
174390,"1411 LINDEN BLVD APT 5E","BROOKLYN","NY",11212,NA,NA,390,"1411 LINDEN BLVD APT 5E, BROOKLYN, NY, 11212","No_Match",NA,NA,NA,NA
174391,"1411 LINDEN BLVD","BROOKLYN","NY",11212,NA,NA,391,"1411 LINDEN BLVD, BROOKLYN, NY, 11212","No_Match",NA,NA,NA,NA
174392,"1411 LINNER RD","WAYZATA","MN",55391,44.9687693870001,-93.469296506,392,"1411 LINNER RD, WAYZATA, MN, 55391","Match","Exact","1411 LINNER RD, WAYZATA, MN, 55391",649635538,"L"
174393,"1411 LITTLE ELK RD","WADDY","KY",40076,38.07040829,-85.210739798,393,"1411 LITTLE ELK RD, WADDY, KY, 40076","Match","Exact","1411 LITTLE ELK RD, WADDY, KY, 40076",47762499,"L"
174394,"1411 LITTON AVENUE","NASHVILLE","TN",37216,36.2015852980001,-86.731542939,394,"1411 LITTON AVENUE, NASHVILLE, TN, 37216","Match","Exact","1411 LITTON AVE, NASHVILLE, TN, 37216",647613479,"L"
174395,"1411 LOMA ALTO","SAN ANTONIO","TX",78232,29.5766038880001,-98.4751218709999,395,"1411 LOMA ALTO, SAN ANTONIO, TX, 78232","Match","Non_Exact","1411 LOMA ALTO RD, SAN ANTONIO, TX, 78232",101496019,"L"
174396,"1411 LORELEI DR","ZION","IL",60099,42.4695095540001,-87.872906621,396,"1411 LORELEI DR, ZION, IL, 60099","Match","Exact","1411 LORELEI DR, ZION, IL, 60099",119685639,"L"
174397,"1411 LYNNWOOD DR","ELK CITY","OK",73644,35.4201076850001,-99.4209618,397,"1411 LYNNWOOD DR, ELK CITY, OK, 73644","Match","Exact","1411 LYNNWOOD DR, ELK CITY, OK, 73644",151556672,"L"
174398,"1411 MADRID TRACE","SAN MARCOS","ND",78666,NA,NA,398,"1411 MADRID TRACE, SAN MARCOS, ND, 78666","No_Match",NA,NA,NA,NA
174399,"1411 MADRID TRACE","SAN MARCOS","TX",78666,29.8773644400001,-97.9767620389999,399,"1411 MADRID TRACE, SAN MARCOS, TX, 78666","Match","Exact","1411 MADRID TRCE, SAN MARCOS, TX, 78666",649117405,"L"
174400,"1411 MAPLE CT","TRACY","CA",95377,37.736529454,-121.443009915,400,"1411 MAPLE CT, TRACY, CA, 95377","Match","Non_Exact","1411 MAPLE CT, TRACY, CA, 95376",133853732,"R"
174401,"1411 MARINER DR","ARNOLD","MD",21012,39.032185735,-76.4979406049999,401,"1411 MARINER DR, ARNOLD, MD, 21012","Match","Exact","1411 MARINER DR, ARNOLD, MD, 21012",68170309,"L"
174402,"1411 MARLEIGH LANE","SOUTH ELGIN","IL",60177,42.0021788500001,-88.323104176,402,"1411 MARLEIGH LANE, SOUTH ELGIN, IL, 60177","Match","Exact","1411 MARLEIGH LN, SOUTH ELGIN, IL, 60177",119542045,"L"
174403,"1411 MARSHALL STREET","HOUSTON","TX",77006,29.7395690050001,-95.3960192219999,403,"1411 MARSHALL STREET, HOUSTON, TX, 77006","Match","Exact","1411 MARSHALL ST, HOUSTON, TX, 77006",96064504,"L"
174404,"1411 MEDINA DR","BETTENDORF","IA",52722,41.558554358,-90.5129128039999,404,"1411 MEDINA DR, BETTENDORF, IA, 52722","Match","Exact","1411 MEDINA DR, BETTENDORF, IA, 52722",122711027,"R"
174405,"1411 MISTY LANE","SPRING BRANCH","TX",78070,29.8599644130001,-98.456028213,405,"1411 MISTY LANE, SPRING BRANCH, TX, 78070","Match","Exact","1411 MISTY LN, SPRING BRANCH, TX, 78070",72239674,"R"
174406,"1411 MULIKIAN COURT","BALTIMORE","MD",21231,39.2944794650001,-76.598659331,406,"1411 MULIKIAN COURT, BALTIMORE, MD, 21231","Match","Non_Exact","1411 MULLIKIN CT, BALTIMORE, MD, 21231",206421583,"R"
174407,"1411 MUTZ DRIVE","INDIANAPOLIS","IN",46229,39.787965947,-85.962540294,407,"1411 MUTZ DRIVE, INDIANAPOLIS, IN, 46229","Match","Exact","1411 MUTZ DR, INDIANAPOLIS, IN, 46229",108013456,"R"
174408,"1411 MYRTLE RD","WESTVILLE","FL",32464,30.9374162720001,-85.940256108,408,"1411 MYRTLE RD, WESTVILLE, FL, 32464","Match","Exact","1411 MYRTLE RD, WESTVILLE, FL, 32464",32685332,"R"
174409,"1411 N ALTADENA AVE","ROYAL OAK","MI",48067,42.5016380320001,-83.13306734,409,"1411 N ALTADENA AVE, ROYAL OAK, MI, 48067","Match","Exact","1411 N ALTADENA AVE, ROYAL OAK, MI, 48067",69744361,"L"
174410,"1411 N BUENA VISTA AVE","ORLANDO","FL",32818,28.5585373370001,-81.469697713,410,"1411 N BUENA VISTA AVE, ORLANDO, FL, 32818","Match","Exact","1411 N BUENA VISTA AVE, ORLANDO, FL, 32818",94420446,"R"
174411,"1411 N COCKRELL HILL RD","DALLAS","TX",75211,32.7263143370001,-96.891495929,411,"1411 N COCKRELL HILL RD, DALLAS, TX, 75211","Match","Exact","1411 N COCKRELL HILL RD, DALLAS, TX, 75211",102940304,"R"
174412,"1411 N LIBERTY ST APT C","BOISE","ID",83704,NA,NA,412,"1411 N LIBERTY ST APT C, BOISE, ID, 83704","Tie",NA,NA,NA,NA
174413,"1411 N LOS ROBLES AVE","PASADENA","CA",91104,34.1700363750001,-118.141633829,413,"1411 N LOS ROBLES AVE, PASADENA, CA, 91104","Match","Exact","1411 N LOS ROBLES AVE, PASADENA, CA, 91104",141628524,"L"
174414,"1411 N STATE STREET","BIG RAPIDS","MI",49307,43.714849658,-85.490167734,414,"1411 N STATE STREET, BIG RAPIDS, MI, 49307","Match","Exact","1411 N STATE ST, BIG RAPIDS, MI, 49307",110537775,"L"
174415,"1411 N WEBER ST","COLORADO SPRINGS","CO",80907,38.8539796520001,-104.818776053,415,"1411 N WEBER ST, COLORADO SPRINGS, CO, 80907","Match","Exact","1411 N WEBER ST, COLORADO SPRINGS, CO, 80907",105514215,"R"
174416,"1411 NATIONAL AVE","ROCKFORD","IL",61103,42.2835753960001,-89.076174884,416,"1411 NATIONAL AVE, ROCKFORD, IL, 61103","Match","Exact","1411 NATIONAL AVE, ROCKFORD, IL, 61103",49258545,"R"
174417,"1411 NE 155 TERR","NORTH MIAMI BEACH","FL",33162,25.918667521,-80.171364578,417,"1411 NE 155 TERR, NORTH MIAMI BEACH, FL, 33162","Match","Exact","1411 NE 155TH TER, N MIAMI BEACH, FL, 33162",116036156,"L"
174418,"1411 NE 16TH AVE APT 403","PORTLAND","OR",97232,45.5330137560001,-122.649486226,418,"1411 NE 16TH AVE APT 403, PORTLAND, OR, 97232","Match","Non_Exact","1411 NE 16TH AVE, PORTLAND, OR, 97232",157506628,"L"
174419,"1411 NE LEHMAN DR","MADRAS","OR",97741,44.65565889,-121.098900191,419,"1411 NE LEHMAN DR, MADRAS, OR, 97741","Match","Exact","1411 NE LEHMAN DR, MADRAS, OR, 97741",153237774,"R"
174420,"1411 NE SKIDMORE ST","PORTLAND","OR",97220,45.5543815870001,-122.65152449,420,"1411 NE SKIDMORE ST, PORTLAND, OR, 97220","Match","Non_Exact","1411 NE SKIDMORE ST, PORTLAND, OR, 97211",157505837,"L"
174421,"1411 NEW YORK AVE APT 6E","BROOKLYN","NY",11210,40.6384029220001,-73.9453236269999,421,"1411 NEW YORK AVE APT 6E, BROOKLYN, NY, 11210","Match","Non_Exact","1411 NEW YORK AVE, BROOKLYN, NY, 11210",59081966,"L"
174422,"1411 NEW YORK AVENUE APT 6E","BROOKLYN","NY",11210,40.6384029220001,-73.9453236269999,422,"1411 NEW YORK AVENUE APT 6E, BROOKLYN, NY, 11210","Match","Non_Exact","1411 NEW YORK AVE, BROOKLYN, NY, 11210",59081966,"L"
174423,"1411 NEWTON AVENUE NORTH","MINNEAPOLIS","MN",55411,44.993251027,-93.305709416,423,"1411 NEWTON AVENUE NORTH, MINNEAPOLIS, MN, 55411","Match","Exact","1411 NEWTON AVE N, MINNEAPOLIS, MN, 55411",43623466,"L"
174424,"1411 NORTH SUPERIOR AVENUE","TOMAH","WI",54660,44.008361135,-90.504864337,424,"1411 NORTH SUPERIOR AVENUE, TOMAH, WI, 54660","Match","Exact","1411 N SUPERIOR AVE, TOMAH, WI, 54660",51065244,"R"
174425,"1411 NW 175TH STEET","MIAMI","FL",33169,25.9343975510001,-80.2251762719999,425,"1411 NW 175TH STEET, MIAMI, FL, 33169","Match","Exact","1411 NW 175TH ST, MIAMI, FL, 33169",116029400,"R"
174426,"1411 NW 175TH STREET APT1-3","HOMESTEAD","FL",33033,NA,NA,426,"1411 NW 175TH STREET APT1-3, HOMESTEAD, FL, 33033","No_Match",NA,NA,NA,NA
174427,"1411 NW 175TH STREET","MIAMI","FL",33169,25.9343975510001,-80.2251762719999,427,"1411 NW 175TH STREET, MIAMI, FL, 33169","Match","Exact","1411 NW 175TH ST, MIAMI, FL, 33169",116029400,"R"
174428,"1411 OAKWOOD AVENUE","VALLEJO","CA",94591,38.115387248,-122.215101334,428,"1411 OAKWOOD AVENUE, VALLEJO, CA, 94591","Match","Exact","1411 OAKWOOD AVE, VALLEJO, CA, 94591",192543479,"L"
174429,"1411 OLD HWY 10","WEST POINT","MS",39773,33.6150167500001,-88.7648657839999,429,"1411 OLD HWY 10, WEST POINT, MS, 39773","Match","Exact","1411 OLD HWY 10, WEST POINT, MS, 39773",607689759,"L"
174430,"1411 PEACH STREET","DUBLIN","GA",31021,32.5685685230001,-82.914715041,430,"1411 PEACH STREET, DUBLIN, GA, 31021","Match","Exact","1411 PEACH ST, DUBLIN, GA, 31021",100651777,"R"
174431,"1411 PEARTREE LANE","BOWIE","MD",20721,38.910261532,-76.747780749,431,"1411 PEARTREE LANE, BOWIE, MD, 20721","Match","Exact","1411 PEARTREE LN, BOWIE, MD, 20721",76342474,"L"
174432,"1411 PECOS ST","DALLAS","TX",75204,32.7952692490001,-96.784099337,432,"1411 PECOS ST, DALLAS, TX, 75204","Match","Exact","1411 PECOS ST, DALLAS, TX, 75204",102910820,"L"
174433,"1411 PELTIER","POINT ROBERTS","WA",98281,48.982522955,-123.07803537,433,"1411 PELTIER, POINT ROBERTS, WA, 98281","Match","Non_Exact","1411 PELTIER DR, POINT ROBERTS, WA, 98281",183783511,"R"
174434,"1411 PENROSE AVENUE","ATLANTIC CITY","NJ",8401,39.374425697,-74.4449233669999,434,"1411 PENROSE AVENUE, ATLANTIC CITY, NJ, 8401","Match","Exact","1411 PENROSE AVE, ATLANTIC CITY, NJ, 08401",202488060,"R"
174435,"1411 PERKINS ST","RICHLAND","WA",99354,46.2886014470001,-119.292456889,435,"1411 PERKINS ST, RICHLAND, WA, 99354","Match","Non_Exact","1411 PERKINS AVE, RICHLAND, WA, 99354",174986869,"L"
174436,"1411 PLACID DR","ELDERSBURG","MD",21784,39.418617871,-76.945881604,436,"1411 PLACID DR, ELDERSBURG, MD, 21784","Match","Exact","1411 PLACID DR, ELDERSBURG, MD, 21784",61781226,"R"
174437,"1411 PONDERAY RD","BOISE","ID",83705,43.5911825690001,-116.215604673,437,"1411 PONDERAY RD, BOISE, ID, 83705","Match","Non_Exact","1411 S PONDERAY RD, BOISE, ID, 83705",117865100,"R"
174438,"1411 PRAIRIE DR","BRYAN","TX",77802,30.675537736,-96.348022369,438,"1411 PRAIRIE DR, BRYAN, TX, 77802","Match","Exact","1411 PRAIRIE DR, BRYAN, TX, 77802",633523187,"L"
174439,"1411 REVERE AVENUE","SAN FRANCISCO","CA",94124,37.729716855,-122.386732101,439,"1411 REVERE AVENUE, SAN FRANCISCO, CA, 94124","Match","Exact","1411 REVERE AVE, SAN FRANCISCO, CA, 94124",192291001,"L"
174440,"1411 RIDGECREST AVE","BURLINGTON","NC",27215,36.1007741870001,-79.4705833739999,440,"1411 RIDGECREST AVE, BURLINGTON, NC, 27215","Match","Exact","1411 RIDGECREST AVE, BURLINGTON, NC, 27215",71670109,"R"
174441,"1411 RIMPAU AVENUE SUITE 109-1031","CORONA","CA",92879,33.869763891,-117.549656832,441,"1411 RIMPAU AVENUE SUITE 109-1031, CORONA, CA, 92879","Match","Exact","1411 RIMPAU AVE, CORONA, CA, 92879",194778181,"L"
174442,"1411 RIVERVIEW DRIVE","LITTLE FALLS","MN",56345,45.9906327510001,-94.35279066,442,"1411 RIVERVIEW DRIVE, LITTLE FALLS, MN, 56345","Match","Exact","1411 RIVERVIEW DR, LITTLE FALLS, MN, 56345",642173120,"L"
174443,"1411 ROCKDALE ST","UPLAND","CA",91784,34.133382575,-117.675790113,443,"1411 ROCKDALE ST, UPLAND, CA, 91784","Match","Exact","1411 ROCKDALE ST, UPLAND, CA, 91784",144669248,"L"
174444,"1411 ROCKY BROOK RD","OPELIKA","AL",36801,32.665075593,-85.379779135,444,"1411 ROCKY BROOK RD, OPELIKA, AL, 36801","Match","Non_Exact","1411 ROCKYBROOK RD, OPELIKA, AL, 36801",1571206,"R"
174445,"1411 ROOSEVELT AVENUE","LEHIGH","FL",33972,26.65206977,-81.5934177839999,445,"1411 ROOSEVELT AVENUE, LEHIGH, FL, 33972","Match","Non_Exact","1411 ROOSEVELT AVE, LEHIGH ACRES, FL, 33972",117985632,"L"
174446,"1411 ROOSEVELT DRIVE","WOODLAND","CA",95776,38.662313011,-121.756021085,446,"1411 ROOSEVELT DRIVE, WOODLAND, CA, 95776","Match","Exact","1411 ROOSEVELT DR, WOODLAND, CA, 95776",67702915,"L"
174447,"1411 RUSSELL DRIVE","BAINBRIDGE","GA",39819,30.8901572090001,-84.5581131499999,447,"1411 RUSSELL DRIVE, BAINBRIDGE, GA, 39819","Match","Non_Exact","1411 E RUSSELL DR, BAINBRIDGE, GA, 39819",84285869,"L"
174448,"1411 S 10TH ST","COUNCIL BLUFFS","IA",51501,41.248475484,-95.858995178,448,"1411 S 10TH ST, COUNCIL BLUFFS, IA, 51501","Match","Exact","1411 S 10TH ST, COUNCIL BLUFFS, IA, 51501",43901296,"L"
174449,"1411 S 10TH ST","MONROE","LA",71202,32.490812933,-92.094152783,449,"1411 S 10TH ST, MONROE, LA, 71202","Match","Exact","1411 S 10TH ST, MONROE, LA, 71202",161087623,"L"
174450,"1411 S 14TH ST D","FERNANDINA BEACH","FL",32034,NA,NA,450,"1411 S 14TH ST D, FERNANDINA BEACH, FL, 32034","No_Match",NA,NA,NA,NA
174451,"1411 S 54TH ST","OMAHA","NE",68106,41.245716535,-95.9964619039999,451,"1411 S 54TH ST, OMAHA, NE, 68106","Match","Exact","1411 S 54TH ST, OMAHA, NE, 68106",117008621,"L"
174452,"1411 S GORDON STREET","ATLANTA","GA",30310,33.7395081770001,-84.434410639,452,"1411 S GORDON STREET, ATLANTA, GA, 30310","Match","Non_Exact","1411 S GORDON ST SW, ATLANTA, GA, 30310",17341225,"R"
174453,"1411 S LIEBOLD ST","DETROIT","MI",48217,42.278641518,-83.149812046,453,"1411 S LIEBOLD ST, DETROIT, MI, 48217","Match","Exact","1411 S LIEBOLD ST, DETROIT, MI, 48217",95450144,"L"
174454,"1411 S OAKWOOD RD","ENID","OK",73703,36.382335045,-97.925720744,454,"1411 S OAKWOOD RD, ENID, OK, 73703","Match","Exact","1411 S OAKWOOD RD, ENID, OK, 73703",154081021,"L"
174455,"1411 S ORCHARD ST","JANESVILLE","WI",53546,42.660432961,-89.044952315,455,"1411 S ORCHARD ST, JANESVILLE, WI, 53546","Match","Exact","1411 S ORCHARD ST, JANESVILLE, WI, 53546",49853022,"L"
174456,"1411 S RIMPAU SUITE 114","CORONA","CA",92879,33.8697491410001,-117.549642731,456,"1411 S RIMPAU SUITE 114, CORONA, CA, 92879","Match","Non_Exact","1411 RIMPAU AVE, CORONA, CA, 92879",194778181,"L"
174457,"1411 S SIERRA HILLS","WICHITA","KS",67230,37.667640191,-97.185036579,457,"1411 S SIERRA HILLS, WICHITA, KS, 67230","Match","Exact","1411 S SIERRA HILLS, WICHITA, KS, 67230",653249549,"R"
174458,"1411 S SUNSET","TACOMA","WA",98465,47.24742102,-122.544986078,458,"1411 S SUNSET, TACOMA, WA, 98465","Match","Non_Exact","1411 S SUNSET DR, TACOMA, WA, 98465",184618804,"R"
174459,"1411 S UTAH ST UNIT 12","SALT LAKE CITY","UT",84104,40.7389099430001,-111.936588619,459,"1411 S UTAH ST UNIT 12, SALT LAKE CITY, UT, 84104","Match","Exact","1411 UTAH ST, SALT LAKE CITY, UT, 84104",635615095,"L"
174460,"1411 SAND LAKE LN","RICHMOND","TX",77407,29.6613687810001,-95.726840881,460,"1411 SAND LAKE LN, RICHMOND, TX, 77407","Match","Exact","1411 SAND LAKE LN, RICHMOND, TX, 77407",635421562,"R"
174461,"1411 SE 33RD STREET","CAPE CORAL","FL",33904,26.5910063590001,-81.945832013,461,"1411 SE 33RD STREET, CAPE CORAL, FL, 33904","Match","Exact","1411 SE 33RD ST, CAPE CORAL, FL, 33904",118014928,"L"
174462,"1411 SECOND AVENUE NW","CULLMAN","AL",35055,NA,NA,462,"1411 SECOND AVENUE NW, CULLMAN, AL, 35055","Tie",NA,NA,NA,NA
174463,"1411 SOUTH GORDON STREET","ATLANTA","GA",30310,33.739508335,-84.4344057289999,463,"1411 SOUTH GORDON STREET, ATLANTA, GA, 30310","Match","Non_Exact","1411 S GORDON ST SW, ATLANTA, GA, 30310",17341225,"R"
174464,"1411 SOUTH INDIAN RIVER DRIVE","FORT PIERCE","FL",34950,27.432950922,-80.318229873,464,"1411 SOUTH INDIAN RIVER DRIVE, FORT PIERCE, FL, 34950","Match","Exact","1411 S INDIAN RIVER DR, FORT PIERCE, FL, 34950",610739394,"R"
174465,"1411 SOUTH LAMAR BLVD","OXFORD","MS",38655,34.357918221,-89.520513179,465,"1411 SOUTH LAMAR BLVD, OXFORD, MS, 38655","Match","Exact","1411 S LAMAR BLVD, OXFORD, MS, 38655",76963034,"R"
174466,"1411 SOUTH SIERRA HILLS","WICHITA","KS",67230,37.667649022,-97.185044631,466,"1411 SOUTH SIERRA HILLS, WICHITA, KS, 67230","Match","Exact","1411 S SIERRA HILLS, WICHITA, KS, 67230",653249549,"R"
174467,"1411 SPRING ROAD NW","WASHINGTON","DC",20010,38.9372968100001,-77.0334973449999,467,"1411 SPRING ROAD NW, WASHINGTON, DC, 20010","Match","Exact","1411 SPRING RD NW, WASHINGTON, DC, 20010",635190438,"R"
174468,"1411 STATE","EMPORIA","KS",66801,38.4145911090001,-96.1852249949999,468,"1411 STATE, EMPORIA, KS, 66801","Match","Non_Exact","1411 STATE ST, EMPORIA, KS, 66801",10957667,"L"
174469,"1411 STEVENS CT","ROSENBERG","TX",77471,29.5527074840001,-95.769776328,469,"1411 STEVENS CT, ROSENBERG, TX, 77471","Match","Exact","1411 STEVENS CT, ROSENBERG, TX, 77471",616470487,"L"
174470,"1411 STONECREST DRIVE","RICHARDSON","TX",75081,32.938036846,-96.698659348,470,"1411 STONECREST DRIVE, RICHARDSON, TX, 75081","Match","Exact","1411 STONECREST DR, RICHARDSON, TX, 75081",102915912,"L"
174471,"1411 STURGIS MABEN R","STURGIS","MS",39769,NA,NA,471,"1411 STURGIS MABEN R, STURGIS, MS, 39769","No_Match",NA,NA,NA,NA
174472,"1411 SUNNYHILLS DR","BRANDON","FL",33510,27.960230036,-82.312461721,472,"1411 SUNNYHILLS DR, BRANDON, FL, 33510","Match","Exact","1411 SUNNYHILLS DR, BRANDON, FL, 33510",104595353,"R"
174473,"1411 SUNSET DR","WEAVER","AL",36267,33.75385821,-85.841182767,473,"1411 SUNSET DR, WEAVER, AL, 36267","Match","Non_Exact","1411 SUNSET DR, WEAVER, AL, 36277",66580490,"L"
174474,"1411 SUNSET TERRACE","WESTERN SPRINGS","IL",60558,41.810389549,-87.908896724,474,"1411 SUNSET TERRACE, WESTERN SPRINGS, IL, 60558","Match","Exact","1411 SUNSET TER, WESTERN SPRINGS, IL, 60558",112208378,"L"
174475,"1411 SW 13ST","TOPEKA","KS",66604,NA,NA,475,"1411 SW 13ST, TOPEKA, KS, 66604","No_Match",NA,NA,NA,NA
174476,"1411 SW 87TH TERRACE","PEMBROKE PINES","FL",33025,25.997137266,-80.260212423,476,"1411 SW 87TH TERRACE, PEMBROKE PINES, FL, 33025","Match","Exact","1411 SW 87TH TER, PEMBROKE PINES, FL, 33025",114770259,"L"
174477,"1411 SW 98 AVENUE","PEMBROKE PINES","FL",33025,25.9964879930001,-80.275810475,477,"1411 SW 98 AVENUE, PEMBROKE PINES, FL, 33025","Match","Exact","1411 SW 98TH AVE, PEMBROKE PINES, FL, 33025",114763830,"L"
174478,"1411 SWEETBAY LN","WEST CHICAGO","IL",60185,41.909105825,-88.2083829809999,478,"1411 SWEETBAY LN, WEST CHICAGO, IL, 60185","Match","Exact","1411 SWEETBAY LN, WEST CHICAGO, IL, 60185",112686002,"L"
174479,"1411 TANWOOD DRIVE","BALDWIN","NY",11510,40.6764661120001,-73.605847803,479,"1411 TANWOOD DRIVE, BALDWIN, NY, 11510","Match","Exact","1411 TANWOOD DR, BALDWIN, NY, 11510",147629940,"L"
174480,"1411 TEEWAY DRIVE","COLUMBUS","OH",43220,40.041932172,-83.058823828,480,"1411 TEEWAY DRIVE, COLUMBUS, OH, 43220","Match","Exact","1411 TEEWAY DR, COLUMBUS, OH, 43220",135562963,"L"
174481,"1411 TRADD COURT","FLORENCE","SC",29501,34.2146918970001,-79.754768744,481,"1411 TRADD COURT, FLORENCE, SC, 29501","Match","Non_Exact","1411 TRADD CT, FLORENCE, SC, 29506",28876605,"L"
174482,"1411 TRESTLEWOOD DR","SAN JOSE","CA",95138,37.289977627,-121.805680573,482,"1411 TRESTLEWOOD DR, SAN JOSE, CA, 95138","Match","Exact","1411 TRESTLEWOOD DR, SAN JOSE, CA, 95138",633873806,"L"
174483,"1411 UNION VILLAGE RD","NORWICH","VT",5055,43.7679776270001,-72.25870508,483,"1411 UNION VILLAGE RD, NORWICH, VT, 5055","Match","Exact","1411 UNION VILLAGE RD, NORWICH, VT, 05055",635473268,"L"
174484,"1411 UTAH STREET NO 16","SALT LAKE CITY","UT",84104,40.7389132810001,-111.936588619,484,"1411 UTAH STREET NO 16, SALT LAKE CITY, UT, 84104","Match","Non_Exact","1411 UTAH ST, SALT LAKE CITY, UT, 84104",635615095,"L"
174485,"1411 VALLEY AV","WINCHESTER","VA",22601,39.172806865,-78.1745236679999,485,"1411 VALLEY AV, WINCHESTER, VA, 22601","Match","Exact","1411 VALLEY AVE, WINCHESTER, VA, 22601",55578773,"L"
174486,"1411 VINTAGE POINTE DRIVE","LAWRENCEVILLE","GA",30044,33.930033542,-84.106138878,486,"1411 VINTAGE POINTE DRIVE, LAWRENCEVILLE, GA, 30044","Match","Exact","1411 VINTAGE POINTE DR, LAWRENCEVILLE, GA, 30044",88936934,"L"
174487,"1411 VIXON CT","NEW ALBANY","IN",47150,38.368997032,-85.793495215,487,"1411 VIXON CT, NEW ALBANY, IN, 47150","Match","Non_Exact","1411 VIXEN CT, NEW ALBANY, IN, 47150",89550738,"R"
174488,"1411 W 51ST ST","AUSTIN","TX",78756,30.3218135380001,-97.737782152,488,"1411 W 51ST ST, AUSTIN, TX, 78756","Match","Exact","1411 W 51ST ST, AUSTIN, TX, 78756",63931461,"L"
174489,"1411 W CHICAGO AVE STE 1","CHICAGO","IL",60642,41.8961371,-87.662874541,489,"1411 W CHICAGO AVE STE 1, CHICAGO, IL, 60642","Match","Non_Exact","1411 W CHICAGO AVE, CHICAGO, IL, 60642",111765231,"L"
174490,"1411 W MAIN ST","MARION","IL",62959,37.7307772610001,-88.9412642889999,490,"1411 W MAIN ST, MARION, IL, 62959","Match","Exact","1411 W MAIN ST, MARION, IL, 62959",6011931,"L"
174491,"1411 W MICHIGAN AVE","MIDLAND","TX",79701,32.0005854030001,-102.090932314,491,"1411 W MICHIGAN AVE, MIDLAND, TX, 79701","Match","Exact","1411 W MICHIGAN AVE, MIDLAND, TX, 79701",139581991,"L"
174492,"1411 W SAINT GERMAIN ST STE 101","SAINT CLOUD","MN",56301,45.556659774,-94.1686337799999,492,"1411 W SAINT GERMAIN ST STE 101, SAINT CLOUD, MN, 56301","Match","Non_Exact","1411 SAINT GERMAIN ST W, SAINT CLOUD, MN, 56301",107415201,"R"
174493,"1411 W TEMPERANCE","TEMPERANCE","MI",48182,41.7790889410001,-83.579167624,493,"1411 W TEMPERANCE, TEMPERANCE, MI, 48182","Match","Non_Exact","1411 W TEMPERANCE RD, TEMPERANCE, MI, 48182",40500386,"R"
174494,"1411 W WEILAND RD","LANSING","MI",48906,42.7807186730001,-84.552382617,494,"1411 W WEILAND RD, LANSING, MI, 48906","Match","Non_Exact","1411 W WIELAND RD, LANSING, MI, 48906",17305206,"L"
174495,"1411 WEST 59TH STREET","LOS ANGELES","CA",90047,33.9875315850001,-118.300559152,495,"1411 WEST 59TH STREET, LOS ANGELES, CA, 90047","Match","Exact","1411 W 59TH ST, LOS ANGELES, CA, 90047",141658278,"R"
174496,"1411 WEST AVENUE  SUITE 100","AUSTIN","TX",78701,NA,NA,496,"1411 WEST AVENUE  SUITE 100, AUSTIN, TX, 78701","No_Match",NA,NA,NA,NA
174497,"1411 WEST BROADWAY","ARDMORE","OK",73401,34.1744757930001,-97.147346741,497,"1411 WEST BROADWAY, ARDMORE, OK, 73401","Match","Non_Exact","1411 W BROADWAY ST, ARDMORE, OK, 73401",640190976,"L"
174498,"1411 WEST INNES STREET","SALISBURY","NC",28144,35.6807108350001,-80.4814396089999,498,"1411 WEST INNES STREET, SALISBURY, NC, 28144","Match","Exact","1411 W INNES ST, SALISBURY, NC, 28144",25268568,"L"
174499,"1411 WEST LAKESHORE DRIVE","NATCHITOCHES","TX",71457,NA,NA,499,"1411 WEST LAKESHORE DRIVE, NATCHITOCHES, TX, 71457","No_Match",NA,NA,NA,NA
174500,"1411 WEST MICHIGAN AVE","MIDLAND","TX",79701,32.00058592,-102.090930096,500,"1411 WEST MICHIGAN AVE, MIDLAND, TX, 79701","Match","Exact","1411 W MICHIGAN AVE, MIDLAND, TX, 79701",139581991,"L"
