"ID","Address","City","State","Zip","lat","long","id","input_address","match_indicator","match_type","matched_address","tiger_line_id","tiger_side"
978001,"PO BOX 2119","MOSES LAKE","WA",98837,NA,NA,1,"PO BOX 2119, MOSES LAKE, WA, 98837","No_Match",NA,NA,NA,NA
978002,"PO BOX 21193","SARASOTA","FL",34276,NA,NA,2,"PO BOX 21193, SARASOTA, FL, 34276","No_Match",NA,NA,NA,NA
978003,"PO BOX 212","ARGYLE","MN",56713,NA,NA,3,"PO BOX 212, ARGYLE, MN, 56713","No_Match",NA,NA,NA,NA
978004,"PO BOX 212","BRADENTON BEACH","FL",34217,NA,NA,4,"PO BOX 212, BRADENTON BEACH, FL, 34217","No_Match",NA,NA,NA,NA
978005,"PO BOX 212","BURGIN","KY",40310,NA,NA,5,"PO BOX 212, BURGIN, KY, 40310","No_Match",NA,NA,NA,NA
978006,"PO BOX 212","CALISTOGA","CA",94515,NA,NA,6,"PO BOX 212, CALISTOGA, CA, 94515","No_Match",NA,NA,NA,NA
978007,"PO BOX 212","CARLTON","OR",97111,NA,NA,7,"PO BOX 212, CARLTON, OR, 97111","No_Match",NA,NA,NA,NA
978008,"PO BOX 212","CIALES","PR",638,NA,NA,8,"PO BOX 212, CIALES, PR, 638","No_Match",NA,NA,NA,NA
978009,"PO BOX 212","DENMARK","IA",52624,NA,NA,9,"PO BOX 212, DENMARK, IA, 52624","No_Match",NA,NA,NA,NA
978010,"PO BOX 212","DILLON","SC",29536,NA,NA,10,"PO BOX 212, DILLON, SC, 29536","No_Match",NA,NA,NA,NA
978011,"PO BOX 212","FORT ATKINSON","IA",52144,NA,NA,11,"PO BOX 212, FORT ATKINSON, IA, 52144","No_Match",NA,NA,NA,NA
978012,"PO BOX 212","GREENCASTLE","PA",17225,NA,NA,12,"PO BOX 212, GREENCASTLE, PA, 17225","No_Match",NA,NA,NA,NA
978013,"PO BOX 212","JAMAICA","VT",5343,NA,NA,13,"PO BOX 212, JAMAICA, VT, 5343","No_Match",NA,NA,NA,NA
978014,"PO BOX 212","KAUNAKAKAI","HI",96748,NA,NA,14,"PO BOX 212, KAUNAKAKAI, HI, 96748","No_Match",NA,NA,NA,NA
978015,"PO BOX 212","KNOXVILLE","IL",61448,NA,NA,15,"PO BOX 212, KNOXVILLE, IL, 61448","No_Match",NA,NA,NA,NA
978016,"PO BOX 212","LEWELLEN","NE",69147,NA,NA,16,"PO BOX 212, LEWELLEN, NE, 69147","No_Match",NA,NA,NA,NA
978017,"PO BOX 212","LOS LUNAS","NM",87031,NA,NA,17,"PO BOX 212, LOS LUNAS, NM, 87031","No_Match",NA,NA,NA,NA
978018,"PO BOX 212","MARKHAM","TX",77456,NA,NA,18,"PO BOX 212, MARKHAM, TX, 77456","No_Match",NA,NA,NA,NA
978019,"PO BOX 212","MOORHEAD","MN",56561,NA,NA,19,"PO BOX 212, MOORHEAD, MN, 56561","No_Match",NA,NA,NA,NA
978020,"PO BOX 212","NEW HAVEN","MO",63068,NA,NA,20,"PO BOX 212, NEW HAVEN, MO, 63068","No_Match",NA,NA,NA,NA
978021,"PO BOX 212","NEW PRAGUE","MN",56071,NA,NA,21,"PO BOX 212, NEW PRAGUE, MN, 56071","No_Match",NA,NA,NA,NA
978022,"PO BOX 212","NEW VERNON","NJ",7976,NA,NA,22,"PO BOX 212, NEW VERNON, NJ, 7976","No_Match",NA,NA,NA,NA
978023,"PO BOX 212","OKANOGAN","WA",98840,NA,NA,23,"PO BOX 212, OKANOGAN, WA, 98840","No_Match",NA,NA,NA,NA
978024,"PO BOX 212","ORTONVILLE","MI",48462,NA,NA,24,"PO BOX 212, ORTONVILLE, MI, 48462","No_Match",NA,NA,NA,NA
978025,"PO BOX 212","PARSONS","TN",37096,NA,NA,25,"PO BOX 212, PARSONS, TN, 37096","No_Match",NA,NA,NA,NA
978026,"PO BOX 212","PIQUA","OH",45356,NA,NA,26,"PO BOX 212, PIQUA, OH, 45356","No_Match",NA,NA,NA,NA
978027,"PO BOX 212","REDONDO BEACH","CA",90277,NA,NA,27,"PO BOX 212, REDONDO BEACH, CA, 90277","No_Match",NA,NA,NA,NA
978028,"PO BOX 212","STANTON","KY",40380,NA,NA,28,"PO BOX 212, STANTON, KY, 40380","No_Match",NA,NA,NA,NA
978029,"PO BOX 212","STAR","NC",27356,NA,NA,29,"PO BOX 212, STAR, NC, 27356","No_Match",NA,NA,NA,NA
978030,"PO BOX 212","TOMALES","CA",94971,NA,NA,30,"PO BOX 212, TOMALES, CA, 94971","No_Match",NA,NA,NA,NA
978031,"PO BOX 212","WARE SHOALS","SC",29692,NA,NA,31,"PO BOX 212, WARE SHOALS, SC, 29692","No_Match",NA,NA,NA,NA
978032,"PO BOX 212","WASHINGTON","OK",73093,NA,NA,32,"PO BOX 212, WASHINGTON, OK, 73093","No_Match",NA,NA,NA,NA
978033,"PO BOX 212","WILLIAMS BAY","WI",53191,NA,NA,33,"PO BOX 212, WILLIAMS BAY, WI, 53191","No_Match",NA,NA,NA,NA
978034,"PO BOX 2120","ARLINGTON","VA",22202,NA,NA,34,"PO BOX 2120, ARLINGTON, VA, 22202","No_Match",NA,NA,NA,NA
978035,"PO BOX 2120","ASPEN","CO",81612,NA,NA,35,"PO BOX 2120, ASPEN, CO, 81612","No_Match",NA,NA,NA,NA
978036,"PO BOX 2120","GEARHART","OR",97138,NA,NA,36,"PO BOX 2120, GEARHART, OR, 97138","No_Match",NA,NA,NA,NA
978037,"PO BOX 21206","RIVERSIDE","CA",92516,NA,NA,37,"PO BOX 21206, RIVERSIDE, CA, 92516","No_Match",NA,NA,NA,NA
978038,"PO BOX 21207","KEIZER","OR",97307,NA,NA,38,"PO BOX 21207, KEIZER, OR, 97307","No_Match",NA,NA,NA,NA
978039,"PO BOX 2121","BIRMINGHAM","AL",35201,NA,NA,39,"PO BOX 2121, BIRMINGHAM, AL, 35201","No_Match",NA,NA,NA,NA
978040,"PO BOX 2121","ESPANOLA","NM",87506,NA,NA,40,"PO BOX 2121, ESPANOLA, NM, 87506","No_Match",NA,NA,NA,NA
978041,"PO BOX 2121","MILAN","NM",87021,NA,NA,41,"PO BOX 2121, MILAN, NM, 87021","No_Match",NA,NA,NA,NA
978042,"PO BOX 2121","VAIL","CO",81658,NA,NA,42,"PO BOX 2121, VAIL, CO, 81658","No_Match",NA,NA,NA,NA
978043,"PO BOX 21212","BAKERSFIELD","CA",93390,NA,NA,43,"PO BOX 21212, BAKERSFIELD, CA, 93390","No_Match",NA,NA,NA,NA
978044,"PO BOX 2122","ANDREWS","TX",79714,NA,NA,44,"PO BOX 2122, ANDREWS, TX, 79714","No_Match",NA,NA,NA,NA
978045,"PO BOX 2122","DAVIS","CA",95616,NA,NA,45,"PO BOX 2122, DAVIS, CA, 95616","No_Match",NA,NA,NA,NA
978046,"PO BOX 2122","EASLEY","SC",29641,NA,NA,46,"PO BOX 2122, EASLEY, SC, 29641","No_Match",NA,NA,NA,NA
978047,"PO BOX 2122","FAIRFIELD","CA",94533,NA,NA,47,"PO BOX 2122, FAIRFIELD, CA, 94533","No_Match",NA,NA,NA,NA
978048,"PO BOX 2122","OKEECHOBEE","FL",34973,NA,NA,48,"PO BOX 2122, OKEECHOBEE, FL, 34973","No_Match",NA,NA,NA,NA
978049,"PO BOX 2122","SALEM","OR",97308,NA,NA,49,"PO BOX 2122, SALEM, OR, 97308","No_Match",NA,NA,NA,NA
978050,"PO BOX 2122","SAN FRANCISCO","CA",94126,NA,NA,50,"PO BOX 2122, SAN FRANCISCO, CA, 94126","No_Match",NA,NA,NA,NA
978051,"PO BOX 2122","WEST PALM BEACH","FL",33402,NA,NA,51,"PO BOX 2122, WEST PALM BEACH, FL, 33402","No_Match",NA,NA,NA,NA
978052,"PO BOX 2123","BROOKLYN","NY",11209,NA,NA,52,"PO BOX 2123, BROOKLYN, NY, 11209","No_Match",NA,NA,NA,NA
978053,"PO BOX 2123","KIHEI","HI",96753,NA,NA,53,"PO BOX 2123, KIHEI, HI, 96753","No_Match",NA,NA,NA,NA
978054,"PO BOX 21232","CHARLESTON","SC",29413,NA,NA,54,"PO BOX 21232, CHARLESTON, SC, 29413","No_Match",NA,NA,NA,NA
978055,"PO BOX 21235","DETOIT","MI",48221,NA,NA,55,"PO BOX 21235, DETOIT, MI, 48221","No_Match",NA,NA,NA,NA
978056,"PO BOX 2124","JACKSONVILLE","FL",32203,NA,NA,56,"PO BOX 2124, JACKSONVILLE, FL, 32203","No_Match",NA,NA,NA,NA
978057,"PO BOX 2124","LANCASTER","CA",93539,NA,NA,57,"PO BOX 2124, LANCASTER, CA, 93539","No_Match",NA,NA,NA,NA
978058,"PO BOX 2124","SUMTER","SC",29151,NA,NA,58,"PO BOX 2124, SUMTER, SC, 29151","No_Match",NA,NA,NA,NA
978059,"PO BOX 212427","AUGUSTA","GA",30917,NA,NA,59,"PO BOX 212427, AUGUSTA, GA, 30917","No_Match",NA,NA,NA,NA
978060,"PO BOX 2125","MANSFIELD","TX",76063,NA,NA,60,"PO BOX 2125, MANSFIELD, TX, 76063","No_Match",NA,NA,NA,NA
978061,"PO BOX 2125","WATSONVILLE","CA",95076,NA,NA,61,"PO BOX 2125, WATSONVILLE, CA, 95076","No_Match",NA,NA,NA,NA
978062,"PO BOX 2126","BRISTOL","PA",19007,NA,NA,62,"PO BOX 2126, BRISTOL, PA, 19007","No_Match",NA,NA,NA,NA
978063,"PO BOX 2126","GREENSBORO","NC",27402,NA,NA,63,"PO BOX 2126, GREENSBORO, NC, 27402","No_Match",NA,NA,NA,NA
978064,"PO BOX 2126","JULIAN","CA",92036,NA,NA,64,"PO BOX 2126, JULIAN, CA, 92036","No_Match",NA,NA,NA,NA
978065,"PO BOX 2126","PRAIRIEVILLE","LA",70769,NA,NA,65,"PO BOX 2126, PRAIRIEVILLE, LA, 70769","No_Match",NA,NA,NA,NA
978066,"PO BOX 2127","BELLINGHAM","WA",98227,NA,NA,66,"PO BOX 2127, BELLINGHAM, WA, 98227","No_Match",NA,NA,NA,NA
978067,"PO BOX 2127","GREENPORT","NY",11944,NA,NA,67,"PO BOX 2127, GREENPORT, NY, 11944","No_Match",NA,NA,NA,NA
978068,"PO BOX 2127","LEAVENWORTH","WA",98826,NA,NA,68,"PO BOX 2127, LEAVENWORTH, WA, 98826","No_Match",NA,NA,NA,NA
978069,"PO BOX 2127","VOLCANO","HI",96785,NA,NA,69,"PO BOX 2127, VOLCANO, HI, 96785","No_Match",NA,NA,NA,NA
978070,"PO BOX 212726","ROYAL PALM BEACH","FL",33421,NA,NA,70,"PO BOX 212726, ROYAL PALM BEACH, FL, 33421","No_Match",NA,NA,NA,NA
978071,"PO BOX 21273","RENO","NV",89515,NA,NA,71,"PO BOX 21273, RENO, NV, 89515","No_Match",NA,NA,NA,NA
978072,"PO BOX 2128","AUBURNDALE","FL",33823,NA,NA,72,"PO BOX 2128, AUBURNDALE, FL, 33823","No_Match",NA,NA,NA,NA
978073,"PO BOX 212829","CHULA VISTA","CA",91921,NA,NA,73,"PO BOX 212829, CHULA VISTA, CA, 91921","No_Match",NA,NA,NA,NA
978074,"PO BOX 21286","ROANOKE","VA",24018,NA,NA,74,"PO BOX 21286, ROANOKE, VA, 24018","No_Match",NA,NA,NA,NA
978075,"PO BOX 2129","BROWNING","MT",59417,NA,NA,75,"PO BOX 2129, BROWNING, MT, 59417","No_Match",NA,NA,NA,NA
978076,"PO BOX 2129","LUSBY","MD",20657,NA,NA,76,"PO BOX 2129, LUSBY, MD, 20657","No_Match",NA,NA,NA,NA
978077,"PO BOX 21294","HILTON HEAD ISLAND","SC",29925,NA,NA,77,"PO BOX 21294, HILTON HEAD ISLAND, SC, 29925","No_Match",NA,NA,NA,NA
978078,"PO BOX 212941","COLUMBIA","SC",29221,NA,NA,78,"PO BOX 212941, COLUMBIA, SC, 29221","No_Match",NA,NA,NA,NA
978079,"PO BOX 21295","BROOKLYN","NY",11202,NA,NA,79,"PO BOX 21295, BROOKLYN, NY, 11202","No_Match",NA,NA,NA,NA
978080,"PO BOX 213 634 SWIFT ROAD","WEST POINT","NY",10996,41.379899376,-73.9624255639999,80,"PO BOX 213 634 SWIFT ROAD, WEST POINT, NY, 10996","Match","Exact","634 SWIFT RD, WEST POINT, NY, 10996",124417040,"L"
978081,"PO BOX 213","ARDSLEY ON HUDSON","NY",10503,NA,NA,81,"PO BOX 213, ARDSLEY ON HUDSON, NY, 10503","No_Match",NA,NA,NA,NA
978082,"PO BOX 213","ARLINGTON","NE",68002,NA,NA,82,"PO BOX 213, ARLINGTON, NE, 68002","No_Match",NA,NA,NA,NA
978083,"PO BOX 213","BOISE CITY","OK",73933,NA,NA,83,"PO BOX 213, BOISE CITY, OK, 73933","No_Match",NA,NA,NA,NA
978084,"PO BOX 213","BOWMAN","GA",30624,NA,NA,84,"PO BOX 213, BOWMAN, GA, 30624","No_Match",NA,NA,NA,NA
978085,"PO BOX 213","DOVER","ID",83825,NA,NA,85,"PO BOX 213, DOVER, ID, 83825","No_Match",NA,NA,NA,NA
978086,"PO BOX 213","EAST GREENBUSH","NY",12061,NA,NA,86,"PO BOX 213, EAST GREENBUSH, NY, 12061","No_Match",NA,NA,NA,NA
978087,"PO BOX 213","EASTVILLE","VA",23347,NA,NA,87,"PO BOX 213, EASTVILLE, VA, 23347","No_Match",NA,NA,NA,NA
978088,"PO BOX 213","FOWLER","CA",93625,NA,NA,88,"PO BOX 213, FOWLER, CA, 93625","No_Match",NA,NA,NA,NA
978089,"PO BOX 213","FREDERICKSBURG","VA",22404,NA,NA,89,"PO BOX 213, FREDERICKSBURG, VA, 22404","No_Match",NA,NA,NA,NA
978090,"PO BOX 213","FREDERICKTOWN","OH",43019,NA,NA,90,"PO BOX 213, FREDERICKTOWN, OH, 43019","No_Match",NA,NA,NA,NA
978091,"PO BOX 213","FRENCHBURG","KY",40322,NA,NA,91,"PO BOX 213, FRENCHBURG, KY, 40322","No_Match",NA,NA,NA,NA
978092,"PO BOX 213","GEORGETOWN","CT",6829,NA,NA,92,"PO BOX 213, GEORGETOWN, CT, 6829","No_Match",NA,NA,NA,NA
978093,"PO BOX 213","GRANTS PASS","OR",97528,NA,NA,93,"PO BOX 213, GRANTS PASS, OR, 97528","No_Match",NA,NA,NA,NA
978094,"PO BOX 213","INDIANOLA","IL",61850,NA,NA,94,"PO BOX 213, INDIANOLA, IL, 61850","No_Match",NA,NA,NA,NA
978095,"PO BOX 213","JACKSONVILLE","OR",97530,NA,NA,95,"PO BOX 213, JACKSONVILLE, OR, 97530","No_Match",NA,NA,NA,NA
978096,"PO BOX 213","JOSEPH","OR",97846,NA,NA,96,"PO BOX 213, JOSEPH, OR, 97846","No_Match",NA,NA,NA,NA
978097,"PO BOX 213","LAMBERTON","MN",56152,NA,NA,97,"PO BOX 213, LAMBERTON, MN, 56152","No_Match",NA,NA,NA,NA
978098,"PO BOX 213","MAXWELL","IA",50161,NA,NA,98,"PO BOX 213, MAXWELL, IA, 50161","No_Match",NA,NA,NA,NA
978099,"PO BOX 213","MCHENRY","MD",21541,NA,NA,99,"PO BOX 213, MCHENRY, MD, 21541","No_Match",NA,NA,NA,NA
978100,"PO BOX 213","MILROY","MN",56263,NA,NA,100,"PO BOX 213, MILROY, MN, 56263","No_Match",NA,NA,NA,NA
978101,"PO BOX 213","MORRO BAY","CA",93443,NA,NA,101,"PO BOX 213, MORRO BAY, CA, 93443","No_Match",NA,NA,NA,NA
978102,"PO BOX 213","MUSCOTAH","KS",66058,NA,NA,102,"PO BOX 213, MUSCOTAH, KS, 66058","No_Match",NA,NA,NA,NA
978103,"PO BOX 213","PARK CITY","KY",42160,NA,NA,103,"PO BOX 213, PARK CITY, KY, 42160","No_Match",NA,NA,NA,NA
978104,"PO BOX 213","SONOITA","AZ",85637,NA,NA,104,"PO BOX 213, SONOITA, AZ, 85637","No_Match",NA,NA,NA,NA
978105,"PO BOX 213","VIDOR","TX",77662,NA,NA,105,"PO BOX 213, VIDOR, TX, 77662","No_Match",NA,NA,NA,NA
978106,"PO BOX 213","WALTERS","OK",73572,NA,NA,106,"PO BOX 213, WALTERS, OK, 73572","No_Match",NA,NA,NA,NA
978107,"PO BOX 213","WEST CHESTERFIELD","NH",3466,NA,NA,107,"PO BOX 213, WEST CHESTERFIELD, NH, 3466","No_Match",NA,NA,NA,NA
978108,"PO BOX 213","WORLEY","ID",83876,NA,NA,108,"PO BOX 213, WORLEY, ID, 83876","No_Match",NA,NA,NA,NA
978109,"PO BOX 213","YORK","ME",3909,NA,NA,109,"PO BOX 213, YORK, ME, 3909","No_Match",NA,NA,NA,NA
978110,"PO BOX 2130","CHRISTIANSBURG","VA",24073,NA,NA,110,"PO BOX 2130, CHRISTIANSBURG, VA, 24073","No_Match",NA,NA,NA,NA
978111,"PO BOX 2130","CHULA VISTA","CA",91915,NA,NA,111,"PO BOX 2130, CHULA VISTA, CA, 91915","No_Match",NA,NA,NA,NA
978112,"PO BOX 2130","LOVELOCK","NV",89419,NA,NA,112,"PO BOX 2130, LOVELOCK, NV, 89419","No_Match",NA,NA,NA,NA
978113,"PO BOX 21304","OWENSBORO","KY",42304,NA,NA,113,"PO BOX 21304, OWENSBORO, KY, 42304","No_Match",NA,NA,NA,NA
978114,"PO BOX 213082","ROYAL PALM BEACH","FL",33411,NA,NA,114,"PO BOX 213082, ROYAL PALM BEACH, FL, 33411","No_Match",NA,NA,NA,NA
978115,"PO BOX 213082","ROYAL PALM BEACH","FL",33431,NA,NA,115,"PO BOX 213082, ROYAL PALM BEACH, FL, 33431","No_Match",NA,NA,NA,NA
978116,"PO BOX 213093","CHULA VISTA","CA",91921,NA,NA,116,"PO BOX 213093, CHULA VISTA, CA, 91921","No_Match",NA,NA,NA,NA
978117,"PO BOX 2131","DAVENPORT","IA",52809,NA,NA,117,"PO BOX 2131, DAVENPORT, IA, 52809","No_Match",NA,NA,NA,NA
978118,"PO BOX 2131","JACKSON","WY",83001,NA,NA,118,"PO BOX 2131, JACKSON, WY, 83001","No_Match",NA,NA,NA,NA
978119,"PO BOX 2131","KETTERING","OH",45429,NA,NA,119,"PO BOX 2131, KETTERING, OH, 45429","No_Match",NA,NA,NA,NA
978120,"PO BOX 2131","KINSTON","NC",28502,NA,NA,120,"PO BOX 2131, KINSTON, NC, 28502","No_Match",NA,NA,NA,NA
978121,"PO BOX 2131","SACRAMENTO","CA",95812,NA,NA,121,"PO BOX 2131, SACRAMENTO, CA, 95812","No_Match",NA,NA,NA,NA
978122,"PO BOX 2131","STAFFORD","VA",22555,NA,NA,122,"PO BOX 2131, STAFFORD, VA, 22555","No_Match",NA,NA,NA,NA
978123,"PO BOX 21315","BEAUMONT","TX",77720,NA,NA,123,"PO BOX 21315, BEAUMONT, TX, 77720","No_Match",NA,NA,NA,NA
978124,"PO BOX 2132","ESTES PARK","CO",80517,NA,NA,124,"PO BOX 2132, ESTES PARK, CO, 80517","No_Match",NA,NA,NA,NA
978125,"PO BOX 2132","SOUTHAVEN","MS",38671,NA,NA,125,"PO BOX 2132, SOUTHAVEN, MS, 38671","No_Match",NA,NA,NA,NA
978126,"PO BOX 2133","GLEN ROSE","TX",76043,NA,NA,126,"PO BOX 2133, GLEN ROSE, TX, 76043","No_Match",NA,NA,NA,NA
978127,"PO BOX 2133","GREENSBORO","NC",27402,NA,NA,127,"PO BOX 2133, GREENSBORO, NC, 27402","No_Match",NA,NA,NA,NA
978128,"PO BOX 2133","SHIPROCK","NM",87420,NA,NA,128,"PO BOX 2133, SHIPROCK, NM, 87420","No_Match",NA,NA,NA,NA
978129,"PO BOX 2133","STAUNTON","VA",24401,NA,NA,129,"PO BOX 2133, STAUNTON, VA, 24401","No_Match",NA,NA,NA,NA
978130,"PO BOX 21333","SOUTH EUCLID","OH",44121,NA,NA,130,"PO BOX 21333, SOUTH EUCLID, OH, 44121","No_Match",NA,NA,NA,NA
978131,"PO BOX 21335","HOUSTON","TX",77226,NA,NA,131,"PO BOX 21335, HOUSTON, TX, 77226","No_Match",NA,NA,NA,NA
978132,"PO BOX 2134","KETCHUM","ID",83340,NA,NA,132,"PO BOX 2134, KETCHUM, ID, 83340","No_Match",NA,NA,NA,NA
978133,"PO BOX 21346","TALLAHASSEE","FL",32316,NA,NA,133,"PO BOX 21346, TALLAHASSEE, FL, 32316","No_Match",NA,NA,NA,NA
978134,"PO BOX 2135","WILMINGTON","NC",28402,NA,NA,134,"PO BOX 2135, WILMINGTON, NC, 28402","No_Match",NA,NA,NA,NA
978135,"PO BOX 21351","RENO","NV",89515,NA,NA,135,"PO BOX 21351, RENO, NV, 89515","No_Match",NA,NA,NA,NA
978136,"PO BOX 21359","WHITE HALL","AR",71612,NA,NA,136,"PO BOX 21359, WHITE HALL, AR, 71612","No_Match",NA,NA,NA,NA
978137,"PO BOX 2136","QUEEN CREEK","AZ",85142,NA,NA,137,"PO BOX 2136, QUEEN CREEK, AZ, 85142","No_Match",NA,NA,NA,NA
978138,"PO BOX 2136","RAMONA","CA",92065,NA,NA,138,"PO BOX 2136, RAMONA, CA, 92065","No_Match",NA,NA,NA,NA
978139,"PO BOX 21365","JUNEAU","AK",99802,NA,NA,139,"PO BOX 21365, JUNEAU, AK, 99802","No_Match",NA,NA,NA,NA
978140,"PO BOX 21367","SAN JUAN","PR",931,NA,NA,140,"PO BOX 21367, SAN JUAN, PR, 931","No_Match",NA,NA,NA,NA
978141,"PO BOX 2137","LANCASTER","SC",29721,NA,NA,141,"PO BOX 2137, LANCASTER, SC, 29721","No_Match",NA,NA,NA,NA
978142,"PO BOX 2137","VERO BEACH","FL",32961,NA,NA,142,"PO BOX 2137, VERO BEACH, FL, 32961","No_Match",NA,NA,NA,NA
978143,"PO BOX 21371","TALLAHASSEE","FL",32316,NA,NA,143,"PO BOX 21371, TALLAHASSEE, FL, 32316","No_Match",NA,NA,NA,NA
978144,"PO BOX 2138","BEAVER","UT",84713,NA,NA,144,"PO BOX 2138, BEAVER, UT, 84713","No_Match",NA,NA,NA,NA
978145,"PO BOX 2139","FAIRMONT","WV",26555,NA,NA,145,"PO BOX 2139, FAIRMONT, WV, 26555","No_Match",NA,NA,NA,NA
978146,"PO BOX 2139","OROVILLE","WA",98844,NA,NA,146,"PO BOX 2139, OROVILLE, WA, 98844","No_Match",NA,NA,NA,NA
978147,"PO BOX 214","ALPHA","MI",49902,NA,NA,147,"PO BOX 214, ALPHA, MI, 49902","No_Match",NA,NA,NA,NA
978148,"PO BOX 214","ALTO","GA",30510,NA,NA,148,"PO BOX 214, ALTO, GA, 30510","No_Match",NA,NA,NA,NA
978149,"PO BOX 214","BELZONI","MS",39038,NA,NA,149,"PO BOX 214, BELZONI, MS, 39038","No_Match",NA,NA,NA,NA
978150,"PO BOX 214","BRIGHTON","IA",52540,NA,NA,150,"PO BOX 214, BRIGHTON, IA, 52540","No_Match",NA,NA,NA,NA
978151,"PO BOX 214","CAMAK","GA",30807,NA,NA,151,"PO BOX 214, CAMAK, GA, 30807","No_Match",NA,NA,NA,NA
978152,"PO BOX 214","CAPEVILLE","VA",23313,NA,NA,152,"PO BOX 214, CAPEVILLE, VA, 23313","No_Match",NA,NA,NA,NA
978153,"PO BOX 214","CLAFLIN","KS",67525,NA,NA,153,"PO BOX 214, CLAFLIN, KS, 67525","No_Match",NA,NA,NA,NA
978154,"PO BOX 214","EAST MONTPELIER","VT",5651,NA,NA,154,"PO BOX 214, EAST MONTPELIER, VT, 5651","No_Match",NA,NA,NA,NA
978155,"PO BOX 214","ELK CITY","ID",83525,NA,NA,155,"PO BOX 214, ELK CITY, ID, 83525","No_Match",NA,NA,NA,NA
978156,"PO BOX 214","FORT THOMPSON","SD",57339,NA,NA,156,"PO BOX 214, FORT THOMPSON, SD, 57339","No_Match",NA,NA,NA,NA
978157,"PO BOX 214","GLADEWATER","TX",75647,NA,NA,157,"PO BOX 214, GLADEWATER, TX, 75647","No_Match",NA,NA,NA,NA
978158,"PO BOX 214","GRAMPIAN","PA",16838,NA,NA,158,"PO BOX 214, GRAMPIAN, PA, 16838","No_Match",NA,NA,NA,NA
978159,"PO BOX 214","GREENFIELD","NH",3047,NA,NA,159,"PO BOX 214, GREENFIELD, NH, 3047","No_Match",NA,NA,NA,NA
978160,"PO BOX 214","HAMER","SC",29547,NA,NA,160,"PO BOX 214, HAMER, SC, 29547","No_Match",NA,NA,NA,NA
978161,"PO BOX 214","HOYT LAKES","MN",55750,NA,NA,161,"PO BOX 214, HOYT LAKES, MN, 55750","No_Match",NA,NA,NA,NA
978162,"PO BOX 214","LEESBURG","TX",75451,NA,NA,162,"PO BOX 214, LEESBURG, TX, 75451","No_Match",NA,NA,NA,NA
978163,"PO BOX 214","LONDON","AR",72847,NA,NA,163,"PO BOX 214, LONDON, AR, 72847","No_Match",NA,NA,NA,NA
978164,"PO BOX 214","LYNDON CENTER","VT",5850,NA,NA,164,"PO BOX 214, LYNDON CENTER, VT, 5850","No_Match",NA,NA,NA,NA
978165,"PO BOX 214","MERIDEN","NH",3770,NA,NA,165,"PO BOX 214, MERIDEN, NH, 3770","No_Match",NA,NA,NA,NA
978166,"PO BOX 214","MERRILL","OR",97633,NA,NA,166,"PO BOX 214, MERRILL, OR, 97633","No_Match",NA,NA,NA,NA
978167,"PO BOX 214","MEXICO","NY",13114,NA,NA,167,"PO BOX 214, MEXICO, NY, 13114","No_Match",NA,NA,NA,NA
978168,"PO BOX 214","MITCHELLVILLE","IA",50169,NA,NA,168,"PO BOX 214, MITCHELLVILLE, IA, 50169","No_Match",NA,NA,NA,NA
978169,"PO BOX 214","MORAN","WY",83013,NA,NA,169,"PO BOX 214, MORAN, WY, 83013","No_Match",NA,NA,NA,NA
978170,"PO BOX 214","NEWAYGO","MI",49337,NA,NA,170,"PO BOX 214, NEWAYGO, MI, 49337","No_Match",NA,NA,NA,NA
978171,"PO BOX 214","OCONOMOWOC","WI",53066,NA,NA,171,"PO BOX 214, OCONOMOWOC, WI, 53066","No_Match",NA,NA,NA,NA
978172,"PO BOX 214","OKOBOJI","IA",51355,NA,NA,172,"PO BOX 214, OKOBOJI, IA, 51355","No_Match",NA,NA,NA,NA
978173,"PO BOX 214","ORLAND","IN",46776,NA,NA,173,"PO BOX 214, ORLAND, IN, 46776","No_Match",NA,NA,NA,NA
978174,"PO BOX 214","RHODODENDRON","OR",97049,NA,NA,174,"PO BOX 214, RHODODENDRON, OR, 97049","No_Match",NA,NA,NA,NA
978175,"PO BOX 214","SEBASTOPOL","CA",95473,NA,NA,175,"PO BOX 214, SEBASTOPOL, CA, 95473","No_Match",NA,NA,NA,NA
978176,"PO BOX 214","SOUTH RIVER","NJ",8882,NA,NA,176,"PO BOX 214, SOUTH RIVER, NJ, 8882","No_Match",NA,NA,NA,NA
978177,"PO BOX 214","ST LUCAS","IA",52166,NA,NA,177,"PO BOX 214, ST LUCAS, IA, 52166","No_Match",NA,NA,NA,NA
978178,"PO BOX 214","SUNDANCE","WY",82729,NA,NA,178,"PO BOX 214, SUNDANCE, WY, 82729","No_Match",NA,NA,NA,NA
978179,"PO BOX 214","SUPERIOR","MT",59872,NA,NA,179,"PO BOX 214, SUPERIOR, MT, 59872","No_Match",NA,NA,NA,NA
978180,"PO BOX 214","TANGENT","OR",97389,NA,NA,180,"PO BOX 214, TANGENT, OR, 97389","No_Match",NA,NA,NA,NA
978181,"PO BOX 214","UNION CITY","GA",30291,NA,NA,181,"PO BOX 214, UNION CITY, GA, 30291","No_Match",NA,NA,NA,NA
978182,"PO BOX 214","VALDEZ","AK",99686,NA,NA,182,"PO BOX 214, VALDEZ, AK, 99686","No_Match",NA,NA,NA,NA
978183,"PO BOX 214","WAKE","VA",23176,NA,NA,183,"PO BOX 214, WAKE, VA, 23176","No_Match",NA,NA,NA,NA
978184,"PO BOX 214","WINNETT","MT",59087,NA,NA,184,"PO BOX 214, WINNETT, MT, 59087","No_Match",NA,NA,NA,NA
978185,"PO BOX 21411","CHATTANOOGA","TN",37424,NA,NA,185,"PO BOX 21411, CHATTANOOGA, TN, 37424","No_Match",NA,NA,NA,NA
978186,"PO BOX 21414","LITTLE ROCK","AR",72221,NA,NA,186,"PO BOX 21414, LITTLE ROCK, AR, 72221","No_Match",NA,NA,NA,NA
978187,"PO BOX 2142","CLACKAMAS","OR",97015,NA,NA,187,"PO BOX 2142, CLACKAMAS, OR, 97015","No_Match",NA,NA,NA,NA
978188,"PO BOX 2142","ELIZABETH TOWN","NC",28337,NA,NA,188,"PO BOX 2142, ELIZABETH TOWN, NC, 28337","No_Match",NA,NA,NA,NA
978189,"PO BOX 2142","HIGHLANDS","NC",28741,NA,NA,189,"PO BOX 2142, HIGHLANDS, NC, 28741","No_Match",NA,NA,NA,NA
978190,"PO BOX 2142","LARAMIE","WY",82073,NA,NA,190,"PO BOX 2142, LARAMIE, WY, 82073","No_Match",NA,NA,NA,NA
978191,"PO BOX 2142","LOWELL","AR",72745,NA,NA,191,"PO BOX 2142, LOWELL, AR, 72745","No_Match",NA,NA,NA,NA
978192,"PO BOX 2142","PAHOA","HI",96778,NA,NA,192,"PO BOX 2142, PAHOA, HI, 96778","No_Match",NA,NA,NA,NA
978193,"PO BOX 2142","PONTE VEDRA","FL",32004,NA,NA,193,"PO BOX 2142, PONTE VEDRA, FL, 32004","No_Match",NA,NA,NA,NA
978194,"PO BOX 2142","SEWARD","AK",99664,NA,NA,194,"PO BOX 2142, SEWARD, AK, 99664","No_Match",NA,NA,NA,NA
978195,"PO BOX 2143","KAILUA KONA","HI",96745,NA,NA,195,"PO BOX 2143, KAILUA KONA, HI, 96745","No_Match",NA,NA,NA,NA
978196,"PO BOX 214324","SACRAMENTO","CA",95821,NA,NA,196,"PO BOX 214324, SACRAMENTO, CA, 95821","No_Match",NA,NA,NA,NA
978197,"PO BOX 2144","ASTON","PA",19014,NA,NA,197,"PO BOX 2144, ASTON, PA, 19014","No_Match",NA,NA,NA,NA
978198,"PO BOX 2144","PENN VALLEY","CA",95946,NA,NA,198,"PO BOX 2144, PENN VALLEY, CA, 95946","No_Match",NA,NA,NA,NA
978199,"PO BOX 2145","ATHENS","TX",75751,NA,NA,199,"PO BOX 2145, ATHENS, TX, 75751","No_Match",NA,NA,NA,NA
978200,"PO BOX 2145","CASTRO VALLEY","CA",94546,NA,NA,200,"PO BOX 2145, CASTRO VALLEY, CA, 94546","No_Match",NA,NA,NA,NA
978201,"PO BOX 2145","CRYSTAL BEACH","TX",77650,NA,NA,201,"PO BOX 2145, CRYSTAL BEACH, TX, 77650","No_Match",NA,NA,NA,NA
978202,"PO BOX 21453","CHATTANOOGA","TN",NA,NA,NA,202,"PO BOX 21453, CHATTANOOGA, TN, ","No_Match",NA,NA,NA,NA
978203,"PO BOX 21454","LOUISVILLE","KY",40221,NA,NA,203,"PO BOX 21454, LOUISVILLE, KY, 40221","No_Match",NA,NA,NA,NA
978204,"PO BOX 21456","BOULDER","CO",80308,NA,NA,204,"PO BOX 21456, BOULDER, CO, 80308","No_Match",NA,NA,NA,NA
978205,"PO BOX 2146","TARPON SPRINGS","FL",34688,NA,NA,205,"PO BOX 2146, TARPON SPRINGS, FL, 34688","No_Match",NA,NA,NA,NA
978206,"PO BOX 2146","WASHINGTON","DC",20013,NA,NA,206,"PO BOX 2146, WASHINGTON, DC, 20013","No_Match",NA,NA,NA,NA
978207,"PO BOX 214681","SOUTH DAYTONA","FL",32121,NA,NA,207,"PO BOX 214681, SOUTH DAYTONA, FL, 32121","No_Match",NA,NA,NA,NA
978208,"PO BOX 21469","CARSON CITY","NV",89721,NA,NA,208,"PO BOX 21469, CARSON CITY, NV, 89721","No_Match",NA,NA,NA,NA
978209,"PO BOX 2147","PASCO","WA",99302,NA,NA,209,"PO BOX 2147, PASCO, WA, 99302","No_Match",NA,NA,NA,NA
978210,"PO BOX 2148","HURST","TX",76053,NA,NA,210,"PO BOX 2148, HURST, TX, 76053","No_Match",NA,NA,NA,NA
978211,"PO BOX 21482","BILLINGS","MT",59101,NA,NA,211,"PO BOX 21482, BILLINGS, MT, 59101","No_Match",NA,NA,NA,NA
978212,"PO BOX 215 312 COLISEUM DRIVE","SNYDER","TX",79550,32.7140935240001,-100.896232481,212,"PO BOX 215 312 COLISEUM DRIVE, SNYDER, TX, 79550","Match","Non_Exact","312 COLISEUM DR, SNYDER, TX, 79549",183178725,"R"
978213,"PO BOX 215","ANDOVER","NH",3216,NA,NA,213,"PO BOX 215, ANDOVER, NH, 3216","No_Match",NA,NA,NA,NA
978214,"PO BOX 215","CENTRAL VILLAGE","CT",6233,NA,NA,214,"PO BOX 215, CENTRAL VILLAGE, CT, 6233","No_Match",NA,NA,NA,NA
978215,"PO BOX 215","EAST GLACIER","WA",59434,NA,NA,215,"PO BOX 215, EAST GLACIER, WA, 59434","No_Match",NA,NA,NA,NA
978216,"PO BOX 215","FIARFIELD","WA",99012,NA,NA,216,"PO BOX 215, FIARFIELD, WA, 99012","No_Match",NA,NA,NA,NA
978217,"PO BOX 215","GIBBSBORO","NJ",8026,NA,NA,217,"PO BOX 215, GIBBSBORO, NJ, 8026","No_Match",NA,NA,NA,NA
978218,"PO BOX 215","HIGHMOUNT","NY",12441,NA,NA,218,"PO BOX 215, HIGHMOUNT, NY, 12441","No_Match",NA,NA,NA,NA
978219,"PO BOX 215","HOLLISTER","NC",27844,NA,NA,219,"PO BOX 215, HOLLISTER, NC, 27844","No_Match",NA,NA,NA,NA
978220,"PO BOX 215","HONDO","TX",78861,NA,NA,220,"PO BOX 215, HONDO, TX, 78861","No_Match",NA,NA,NA,NA
978221,"PO BOX 215","KYKOTSMOVI","AZ",86039,NA,NA,221,"PO BOX 215, KYKOTSMOVI, AZ, 86039","No_Match",NA,NA,NA,NA
978222,"PO BOX 215","LOGANSPORT","LA",71049,NA,NA,222,"PO BOX 215, LOGANSPORT, LA, 71049","No_Match",NA,NA,NA,NA
978223,"PO BOX 215","MINOOKA","IL",60447,NA,NA,223,"PO BOX 215, MINOOKA, IL, 60447","No_Match",NA,NA,NA,NA
978224,"PO BOX 215","MOUNT HOREB","WI",53572,NA,NA,224,"PO BOX 215, MOUNT HOREB, WI, 53572","No_Match",NA,NA,NA,NA
978225,"PO BOX 215","NAPOLEON","ND",58561,NA,NA,225,"PO BOX 215, NAPOLEON, ND, 58561","No_Match",NA,NA,NA,NA
978226,"PO BOX 215","NECHES","TX",75779,NA,NA,226,"PO BOX 215, NECHES, TX, 75779","No_Match",NA,NA,NA,NA
978227,"PO BOX 215","OGDENSBURG","NJ",7439,NA,NA,227,"PO BOX 215, OGDENSBURG, NJ, 7439","No_Match",NA,NA,NA,NA
978228,"PO BOX 215","RURAL RETREAT","VA",24368,NA,NA,228,"PO BOX 215, RURAL RETREAT, VA, 24368","No_Match",NA,NA,NA,NA
978229,"PO BOX 215","SAVANNAH","OH",44874,NA,NA,229,"PO BOX 215, SAVANNAH, OH, 44874","No_Match",NA,NA,NA,NA
978230,"PO BOX 215","SHAWNEE ON DELAWARE","PA",18356,NA,NA,230,"PO BOX 215, SHAWNEE ON DELAWARE, PA, 18356","No_Match",NA,NA,NA,NA
978231,"PO BOX 215","SHELL LAKE","WI",54871,NA,NA,231,"PO BOX 215, SHELL LAKE, WI, 54871","No_Match",NA,NA,NA,NA
978232,"PO BOX 215","TRACYTON","WA",98393,NA,NA,232,"PO BOX 215, TRACYTON, WA, 98393","No_Match",NA,NA,NA,NA
978233,"PO BOX 215","VALLEY STREAM","NY",11582,NA,NA,233,"PO BOX 215, VALLEY STREAM, NY, 11582","No_Match",NA,NA,NA,NA
978234,"PO BOX 215","VIDA","OR",97488,NA,NA,234,"PO BOX 215, VIDA, OR, 97488","No_Match",NA,NA,NA,NA
978235,"PO BOX 215","VINCENNES","IN",47591,NA,NA,235,"PO BOX 215, VINCENNES, IN, 47591","No_Match",NA,NA,NA,NA
978236,"PO BOX 215","WAYNETOWN","IN",47990,NA,NA,236,"PO BOX 215, WAYNETOWN, IN, 47990","No_Match",NA,NA,NA,NA
978237,"PO BOX 2150","HYATTSVILLE","MD",20785,NA,NA,237,"PO BOX 2150, HYATTSVILLE, MD, 20785","No_Match",NA,NA,NA,NA
978238,"PO BOX 2150","TEANECK","NJ",7666,NA,NA,238,"PO BOX 2150, TEANECK, NJ, 7666","No_Match",NA,NA,NA,NA
978239,"PO BOX 21500","COLUMBUS","OH",43221,NA,NA,239,"PO BOX 21500, COLUMBUS, OH, 43221","No_Match",NA,NA,NA,NA
978240,"PO BOX 21509","MESA","AZ",85277,NA,NA,240,"PO BOX 21509, MESA, AZ, 85277","No_Match",NA,NA,NA,NA
978241,"PO BOX 2151","FORT COLINS","CO",80522,NA,NA,241,"PO BOX 2151, FORT COLINS, CO, 80522","No_Match",NA,NA,NA,NA
978242,"PO BOX 2151","KYLE","TX",78640,NA,NA,242,"PO BOX 2151, KYLE, TX, 78640","No_Match",NA,NA,NA,NA
978243,"PO BOX 2151","POQUSON","VA",23662,NA,NA,243,"PO BOX 2151, POQUSON, VA, 23662","No_Match",NA,NA,NA,NA
978244,"PO BOX 2151","TUALATIN","OR",97062,NA,NA,244,"PO BOX 2151, TUALATIN, OR, 97062","No_Match",NA,NA,NA,NA
978245,"PO BOX 21513","ANCHORAGE","AK",99513,NA,NA,245,"PO BOX 21513, ANCHORAGE, AK, 99513","No_Match",NA,NA,NA,NA
978246,"PO BOX 2152","BIRMINGHAM","MI",48012,NA,NA,246,"PO BOX 2152, BIRMINGHAM, MI, 48012","No_Match",NA,NA,NA,NA
978247,"PO BOX 2152","BIRMINGHAN","MI",48012,NA,NA,247,"PO BOX 2152, BIRMINGHAN, MI, 48012","No_Match",NA,NA,NA,NA
978248,"PO BOX 2152","MOSES LAKE","WA",98837,NA,NA,248,"PO BOX 2152, MOSES LAKE, WA, 98837","No_Match",NA,NA,NA,NA
978249,"PO BOX 2152","SPLENDDORA","TX",77372,NA,NA,249,"PO BOX 2152, SPLENDDORA, TX, 77372","No_Match",NA,NA,NA,NA
978250,"PO BOX 21522","BILLINGS","MT",59104,NA,NA,250,"PO BOX 21522, BILLINGS, MT, 59104","No_Match",NA,NA,NA,NA
978251,"PO BOX 2153","CAMPTON","NH",3223,NA,NA,251,"PO BOX 2153, CAMPTON, NH, 3223","No_Match",NA,NA,NA,NA
978252,"PO BOX 2153","EDINBURG","TX",78540,NA,NA,252,"PO BOX 2153, EDINBURG, TX, 78540","No_Match",NA,NA,NA,NA
978253,"PO BOX 21531","CHARLESTON","SC",29413,NA,NA,253,"PO BOX 21531, CHARLESTON, SC, 29413","No_Match",NA,NA,NA,NA
978254,"PO BOX 2154","ARDMORE","OK",73402,NA,NA,254,"PO BOX 2154, ARDMORE, OK, 73402","No_Match",NA,NA,NA,NA
978255,"PO BOX 2154","EUREKA","MT",59917,NA,NA,255,"PO BOX 2154, EUREKA, MT, 59917","No_Match",NA,NA,NA,NA
978256,"PO BOX 2154","FERNDALE","WA",98248,NA,NA,256,"PO BOX 2154, FERNDALE, WA, 98248","No_Match",NA,NA,NA,NA
978257,"PO BOX 2154","LANDOVER HLS","MD",20784,NA,NA,257,"PO BOX 2154, LANDOVER HLS, MD, 20784","No_Match",NA,NA,NA,NA
978258,"PO BOX 21549","LONG BEACH","CA",90801,NA,NA,258,"PO BOX 21549, LONG BEACH, CA, 90801","No_Match",NA,NA,NA,NA
978259,"PO BOX 2155","CODY","WY",82414,NA,NA,259,"PO BOX 2155, CODY, WY, 82414","No_Match",NA,NA,NA,NA
978260,"PO BOX 2155","SELMA","AL",36702,NA,NA,260,"PO BOX 2155, SELMA, AL, 36702","No_Match",NA,NA,NA,NA
978261,"PO BOX 2155","SOUTH PADRE ISLAND","TX",78597,NA,NA,261,"PO BOX 2155, SOUTH PADRE ISLAND, TX, 78597","No_Match",NA,NA,NA,NA
978262,"PO BOX 2155","WINDSOR","CA",95492,NA,NA,262,"PO BOX 2155, WINDSOR, CA, 95492","No_Match",NA,NA,NA,NA
978263,"PO BOX 21550","HOUSTON","TX",77226,NA,NA,263,"PO BOX 21550, HOUSTON, TX, 77226","No_Match",NA,NA,NA,NA
978264,"PO BOX 21553","DETROIT","MI",48221,NA,NA,264,"PO BOX 21553, DETROIT, MI, 48221","No_Match",NA,NA,NA,NA
978265,"PO BOX 2156","MADISON","MS",39130,NA,NA,265,"PO BOX 2156, MADISON, MS, 39130","No_Match",NA,NA,NA,NA
978266,"PO BOX 2156","WESTMINSTER","CA",92683,NA,NA,266,"PO BOX 2156, WESTMINSTER, CA, 92683","No_Match",NA,NA,NA,NA
978267,"PO BOX 21562","BOULDER","CO",80308,NA,NA,267,"PO BOX 21562, BOULDER, CO, 80308","No_Match",NA,NA,NA,NA
978268,"PO BOX 21569","CHATTANOOGA","TN",37424,NA,NA,268,"PO BOX 21569, CHATTANOOGA, TN, 37424","No_Match",NA,NA,NA,NA
978269,"PO BOX 215713","SACRAMENTO","CA",95821,NA,NA,269,"PO BOX 215713, SACRAMENTO, CA, 95821","No_Match",NA,NA,NA,NA
978270,"PO BOX 21584","COLUMBIA","SC",29221,NA,NA,270,"PO BOX 21584, COLUMBIA, SC, 29221","No_Match",NA,NA,NA,NA
978271,"PO BOX 216 - 409 E ERIE ST","LINESVILE","PA",16424,41.6561679120001,-80.418462203,271,"PO BOX 216 - 409 E ERIE ST, LINESVILE, PA, 16424","Match","Non_Exact","216 E ERIE ST, LINESVILLE, PA, 16424",98569506,"L"
978272,"PO BOX 216 PMB 157","DUVALL","WA",98019,NA,NA,272,"PO BOX 216 PMB 157, DUVALL, WA, 98019","No_Match",NA,NA,NA,NA
978273,"PO BOX 216","ALMO","ID",83312,NA,NA,273,"PO BOX 216, ALMO, ID, 83312","No_Match",NA,NA,NA,NA
978274,"PO BOX 216","BETHEL","NC",27812,NA,NA,274,"PO BOX 216, BETHEL, NC, 27812","No_Match",NA,NA,NA,NA
978275,"PO BOX 216","CLARKSTON","GA",30021,NA,NA,275,"PO BOX 216, CLARKSTON, GA, 30021","No_Match",NA,NA,NA,NA
978276,"PO BOX 216","CLINTON","WA",98236,NA,NA,276,"PO BOX 216, CLINTON, WA, 98236","No_Match",NA,NA,NA,NA
978277,"PO BOX 216","DECATUR","AL",35609,NA,NA,277,"PO BOX 216, DECATUR, AL, 35609","No_Match",NA,NA,NA,NA
978278,"PO BOX 216","DODD CITY","TX",75438,NA,NA,278,"PO BOX 216, DODD CITY, TX, 75438","No_Match",NA,NA,NA,NA
978279,"PO BOX 216","ENGLAND","AR",72046,NA,NA,279,"PO BOX 216, ENGLAND, AR, 72046","No_Match",NA,NA,NA,NA
978280,"PO BOX 216","GILBERTSVILLE","NY",13776,NA,NA,280,"PO BOX 216, GILBERTSVILLE, NY, 13776","No_Match",NA,NA,NA,NA
978281,"PO BOX 216","KEVIN","MT",59454,NA,NA,281,"PO BOX 216, KEVIN, MT, 59454","No_Match",NA,NA,NA,NA
978282,"PO BOX 216","LANSING","IL",60438,NA,NA,282,"PO BOX 216, LANSING, IL, 60438","No_Match",NA,NA,NA,NA
978283,"PO BOX 216","LEDYARD","CT",6339,NA,NA,283,"PO BOX 216, LEDYARD, CT, 6339","No_Match",NA,NA,NA,NA
978284,"PO BOX 216","LOS ALAMOS","NM",87544,NA,NA,284,"PO BOX 216, LOS ALAMOS, NM, 87544","No_Match",NA,NA,NA,NA
978285,"PO BOX 216","MERIT","TX",75458,NA,NA,285,"PO BOX 216, MERIT, TX, 75458","No_Match",NA,NA,NA,NA
978286,"PO BOX 216","MORTON","WA",98356,NA,NA,286,"PO BOX 216, MORTON, WA, 98356","No_Match",NA,NA,NA,NA
978287,"PO BOX 216","NAZARETH","TX",79063,NA,NA,287,"PO BOX 216, NAZARETH, TX, 79063","No_Match",NA,NA,NA,NA
978288,"PO BOX 216","OAKDALE","CT",6370,NA,NA,288,"PO BOX 216, OAKDALE, CT, 6370","No_Match",NA,NA,NA,NA
978289,"PO BOX 216","OREM","UT",84059,NA,NA,289,"PO BOX 216, OREM, UT, 84059","No_Match",NA,NA,NA,NA
978290,"PO BOX 216","PAULDEN","AZ",86334,NA,NA,290,"PO BOX 216, PAULDEN, AZ, 86334","No_Match",NA,NA,NA,NA
978291,"PO BOX 216","PULTNEYVILLE","NY",14538,NA,NA,291,"PO BOX 216, PULTNEYVILLE, NY, 14538","No_Match",NA,NA,NA,NA
978292,"PO BOX 216","SUMNER","WA",98390,NA,NA,292,"PO BOX 216, SUMNER, WA, 98390","No_Match",NA,NA,NA,NA
978293,"PO BOX 216","ULYSSES","KS",67880,NA,NA,293,"PO BOX 216, ULYSSES, KS, 67880","No_Match",NA,NA,NA,NA
978294,"PO BOX 216","WAUSEON","OH",43567,NA,NA,294,"PO BOX 216, WAUSEON, OH, 43567","No_Match",NA,NA,NA,NA
978295,"PO BOX 216","WINCHESTER","ID",83555,NA,NA,295,"PO BOX 216, WINCHESTER, ID, 83555","No_Match",NA,NA,NA,NA
978296,"PO BOX 216","YORK","NY",14592,NA,NA,296,"PO BOX 216, YORK, NY, 14592","No_Match",NA,NA,NA,NA
978297,"PO BOX 216","YOUNGSVILLE","PA",16371,NA,NA,297,"PO BOX 216, YOUNGSVILLE, PA, 16371","No_Match",NA,NA,NA,NA
978298,"PO BOX 2160","KINGSHILL","VI",851,NA,NA,298,"PO BOX 2160, KINGSHILL, VI, 851","No_Match",NA,NA,NA,NA
978299,"PO BOX 21603","BILLINGS","MT",59104,NA,NA,299,"PO BOX 21603, BILLINGS, MT, 59104","No_Match",NA,NA,NA,NA
978300,"PO BOX 2161","TELLURIDE","CO",81435,NA,NA,300,"PO BOX 2161, TELLURIDE, CO, 81435","No_Match",NA,NA,NA,NA
978301,"PO BOX 21616","CHEYENNE","WY",82003,NA,NA,301,"PO BOX 21616, CHEYENNE, WY, 82003","No_Match",NA,NA,NA,NA
978302,"PO BOX 2162","BUCKLEY","WA",98321,NA,NA,302,"PO BOX 2162, BUCKLEY, WA, 98321","No_Match",NA,NA,NA,NA
978303,"PO BOX 2162","CALIFORNIA","MD",20619,NA,NA,303,"PO BOX 2162, CALIFORNIA, MD, 20619","No_Match",NA,NA,NA,NA
978304,"PO BOX 21627","CLEVELAND","OH",44121,NA,NA,304,"PO BOX 21627, CLEVELAND, OH, 44121","No_Match",NA,NA,NA,NA
978305,"PO BOX 2163","COLTON","CA",92324,NA,NA,305,"PO BOX 2163, COLTON, CA, 92324","No_Match",NA,NA,NA,NA
978306,"PO BOX 2163","EVANSVILLE","IN",47728,NA,NA,306,"PO BOX 2163, EVANSVILLE, IN, 47728","No_Match",NA,NA,NA,NA
978307,"PO BOX 21632","WASHINGTON","DC",20009,NA,NA,307,"PO BOX 21632, WASHINGTON, DC, 20009","No_Match",NA,NA,NA,NA
978308,"PO BOX 2164","FARGO","ND",58107,NA,NA,308,"PO BOX 2164, FARGO, ND, 58107","No_Match",NA,NA,NA,NA
978309,"PO BOX 2165","DILLEY","TX",78017,NA,NA,309,"PO BOX 2165, DILLEY, TX, 78017","No_Match",NA,NA,NA,NA
978310,"PO BOX 21650","ST. SIMONS ISLAND","GA",31522,NA,NA,310,"PO BOX 21650, ST. SIMONS ISLAND, GA, 31522","No_Match",NA,NA,NA,NA
978311,"PO BOX 2166","KALAMAZOO","MI",49003,NA,NA,311,"PO BOX 2166, KALAMAZOO, MI, 49003","No_Match",NA,NA,NA,NA
978312,"PO BOX 2166","PAGOSA SPRINGS","CO",81147,NA,NA,312,"PO BOX 2166, PAGOSA SPRINGS, CO, 81147","No_Match",NA,NA,NA,NA
978313,"PO BOX 2166","SUN VALLEY","ID",83353,NA,NA,313,"PO BOX 2166, SUN VALLEY, ID, 83353","No_Match",NA,NA,NA,NA
978314,"PO BOX 2166","VISTA","CA",92085,NA,NA,314,"PO BOX 2166, VISTA, CA, 92085","No_Match",NA,NA,NA,NA
978315,"PO BOX 2167","ALBEMARLE","NC",28001,NA,NA,315,"PO BOX 2167, ALBEMARLE, NC, 28001","No_Match",NA,NA,NA,NA
978316,"PO BOX 2168","SUN VALLEY","ID",83353,NA,NA,316,"PO BOX 2168, SUN VALLEY, ID, 83353","No_Match",NA,NA,NA,NA
978317,"PO BOX 21691","COLUMBIA","SC",29221,NA,NA,317,"PO BOX 21691, COLUMBIA, SC, 29221","No_Match",NA,NA,NA,NA
978318,"PO BOX 217","ALPINE","NJ",7620,NA,NA,318,"PO BOX 217, ALPINE, NJ, 7620","No_Match",NA,NA,NA,NA
978319,"PO BOX 217","ANNAPOLIS JUNCTION","MD",20701,NA,NA,319,"PO BOX 217, ANNAPOLIS JUNCTION, MD, 20701","No_Match",NA,NA,NA,NA
978320,"PO BOX 217","ATHENA","OR",97813,NA,NA,320,"PO BOX 217, ATHENA, OR, 97813","No_Match",NA,NA,NA,NA
978321,"PO BOX 217","BELHAVEN","NC",27810,NA,NA,321,"PO BOX 217, BELHAVEN, NC, 27810","No_Match",NA,NA,NA,NA
978322,"PO BOX 217","BERLIN","NY",12022,NA,NA,322,"PO BOX 217, BERLIN, NY, 12022","No_Match",NA,NA,NA,NA
978323,"PO BOX 217","BLOOMINGDALE","MI",49026,NA,NA,323,"PO BOX 217, BLOOMINGDALE, MI, 49026","No_Match",NA,NA,NA,NA
978324,"PO BOX 217","COST","TX",78614,NA,NA,324,"PO BOX 217, COST, TX, 78614","No_Match",NA,NA,NA,NA
978325,"PO BOX 217","EL GRANADA","CA",94018,NA,NA,325,"PO BOX 217, EL GRANADA, CA, 94018","No_Match",NA,NA,NA,NA
978326,"PO BOX 217","ELY","IA",52227,NA,NA,326,"PO BOX 217, ELY, IA, 52227","No_Match",NA,NA,NA,NA
978327,"PO BOX 217","HEDGESVILLE","WV",25427,NA,NA,327,"PO BOX 217, HEDGESVILLE, WV, 25427","No_Match",NA,NA,NA,NA
978328,"PO BOX 217","HINGHAM","WI",53031,NA,NA,328,"PO BOX 217, HINGHAM, WI, 53031","No_Match",NA,NA,NA,NA
978329,"PO BOX 217","JOURDANTON","TX",78026,NA,NA,329,"PO BOX 217, JOURDANTON, TX, 78026","No_Match",NA,NA,NA,NA
978330,"PO BOX 217","MARTINSVILLE","IL",62442,NA,NA,330,"PO BOX 217, MARTINSVILLE, IL, 62442","No_Match",NA,NA,NA,NA
978331,"PO BOX 217","NEW MELLE","MO",63365,NA,NA,331,"PO BOX 217, NEW MELLE, MO, 63365","No_Match",NA,NA,NA,NA
978332,"PO BOX 217","PEGGS","OK",74452,NA,NA,332,"PO BOX 217, PEGGS, OK, 74452","No_Match",NA,NA,NA,NA
978333,"PO BOX 217","SEWICKLEY","PA",15143,NA,NA,333,"PO BOX 217, SEWICKLEY, PA, 15143","No_Match",NA,NA,NA,NA
978334,"PO BOX 217","SPRINGFIELD","VA",22150,NA,NA,334,"PO BOX 217, SPRINGFIELD, VA, 22150","No_Match",NA,NA,NA,NA
978335,"PO BOX 217","TROPIC","UT",84776,NA,NA,335,"PO BOX 217, TROPIC, UT, 84776","No_Match",NA,NA,NA,NA
978336,"PO BOX 217","UKIAH","OR",97880,NA,NA,336,"PO BOX 217, UKIAH, OR, 97880","No_Match",NA,NA,NA,NA
978337,"PO BOX 217","VEGA","TX",79092,NA,NA,337,"PO BOX 217, VEGA, TX, 79092","No_Match",NA,NA,NA,NA
978338,"PO BOX 217","VIEQUES","PR",765,NA,NA,338,"PO BOX 217, VIEQUES, PR, 765","No_Match",NA,NA,NA,NA
978339,"PO BOX 21703","PHILADELPHIA","PA",19146,NA,NA,339,"PO BOX 21703, PHILADELPHIA, PA, 19146","No_Match",NA,NA,NA,NA
978340,"PO BOX 2171","DILLON","CO",80435,NA,NA,340,"PO BOX 2171, DILLON, CO, 80435","No_Match",NA,NA,NA,NA
978341,"PO BOX 217134","CHARLOTTE","NC",28221,NA,NA,341,"PO BOX 217134, CHARLOTTE, NC, 28221","No_Match",NA,NA,NA,NA
978342,"PO BOX 2172","DURANGO","CO",81302,NA,NA,342,"PO BOX 2172, DURANGO, CO, 81302","No_Match",NA,NA,NA,NA
978343,"PO BOX 2172","DURANGO","CO",82301,NA,NA,343,"PO BOX 2172, DURANGO, CO, 82301","No_Match",NA,NA,NA,NA
978344,"PO BOX 2172","MALIBU","CA",90265,NA,NA,344,"PO BOX 2172, MALIBU, CA, 90265","No_Match",NA,NA,NA,NA
978345,"PO BOX 2172","SALT LAKE CITY","UT",84110,NA,NA,345,"PO BOX 2172, SALT LAKE CITY, UT, 84110","No_Match",NA,NA,NA,NA
978346,"PO BOX 217290","CHARLOTTE","NC",28221,NA,NA,346,"PO BOX 217290, CHARLOTTE, NC, 28221","No_Match",NA,NA,NA,NA
978347,"PO BOX 2173","LEESVILLE","SC",29070,NA,NA,347,"PO BOX 2173, LEESVILLE, SC, 29070","No_Match",NA,NA,NA,NA
978348,"PO BOX 2173","SARASOTA","FL",34230,NA,NA,348,"PO BOX 2173, SARASOTA, FL, 34230","No_Match",NA,NA,NA,NA
978349,"PO BOX 2173","THOMASVILLE","GA",31799,NA,NA,349,"PO BOX 2173, THOMASVILLE, GA, 31799","No_Match",NA,NA,NA,NA
978350,"PO BOX 21738","CAJON","CA",92021,NA,NA,350,"PO BOX 21738, CAJON, CA, 92021","No_Match",NA,NA,NA,NA
978351,"PO BOX 2174","CLINTON","MD",20735,NA,NA,351,"PO BOX 2174, CLINTON, MD, 20735","No_Match",NA,NA,NA,NA
978352,"PO BOX 2174","COLUMBIA FALLS","MT",59912,NA,NA,352,"PO BOX 2174, COLUMBIA FALLS, MT, 59912","No_Match",NA,NA,NA,NA
978353,"PO BOX 2174","VINELAND","NJ",8360,NA,NA,353,"PO BOX 2174, VINELAND, NJ, 8360","No_Match",NA,NA,NA,NA
978354,"PO BOX 21745","BAKERSFIELD","CA",93390,NA,NA,354,"PO BOX 21745, BAKERSFIELD, CA, 93390","No_Match",NA,NA,NA,NA
978355,"PO BOX 2175","KIRKLAND","WA",98083,NA,NA,355,"PO BOX 2175, KIRKLAND, WA, 98083","No_Match",NA,NA,NA,NA
978356,"PO BOX 2177","PLS VRDS PNSL","CA",90274,NA,NA,356,"PO BOX 2177, PLS VRDS PNSL, CA, 90274","No_Match",NA,NA,NA,NA
978357,"PO BOX 21770","LEXINGTON","KY",40522,NA,NA,357,"PO BOX 21770, LEXINGTON, KY, 40522","No_Match",NA,NA,NA,NA
978358,"PO BOX 2179","LA JOLLA","CA",92038,NA,NA,358,"PO BOX 2179, LA JOLLA, CA, 92038","No_Match",NA,NA,NA,NA
978359,"PO BOX 21790","DETROIT","MI",48221,NA,NA,359,"PO BOX 21790, DETROIT, MI, 48221","No_Match",NA,NA,NA,NA
978360,"PO BOX 218","CATLETTSBURG","KY",41129,NA,NA,360,"PO BOX 218, CATLETTSBURG, KY, 41129","No_Match",NA,NA,NA,NA
978361,"PO BOX 218","CEDARVILLE","CA",96104,NA,NA,361,"PO BOX 218, CEDARVILLE, CA, 96104","No_Match",NA,NA,NA,NA
978362,"PO BOX 218","CHICAGO PARK","CA",95712,NA,NA,362,"PO BOX 218, CHICAGO PARK, CA, 95712","No_Match",NA,NA,NA,NA
978363,"PO BOX 218","ELLENDALE","MN",56026,NA,NA,363,"PO BOX 218, ELLENDALE, MN, 56026","No_Match",NA,NA,NA,NA
978364,"PO BOX 218","ELLSWORTH","PA",15331,NA,NA,364,"PO BOX 218, ELLSWORTH, PA, 15331","No_Match",NA,NA,NA,NA
978365,"PO BOX 218","GRAND RONDE","OR",97347,NA,NA,365,"PO BOX 218, GRAND RONDE, OR, 97347","No_Match",NA,NA,NA,NA
978366,"PO BOX 218","HENDERSON","MN",56044,NA,NA,366,"PO BOX 218, HENDERSON, MN, 56044","No_Match",NA,NA,NA,NA
978367,"PO BOX 218","HORSESHOE BEND","ID",83617,NA,NA,367,"PO BOX 218, HORSESHOE BEND, ID, 83617","No_Match",NA,NA,NA,NA
978368,"PO BOX 218","HORSESHOE BEND","ID",83629,NA,NA,368,"PO BOX 218, HORSESHOE BEND, ID, 83629","No_Match",NA,NA,NA,NA
978369,"PO BOX 218","MADRAS","OR",97741,NA,NA,369,"PO BOX 218, MADRAS, OR, 97741","No_Match",NA,NA,NA,NA
978370,"PO BOX 218","MCCOOK LAKE","SD",57049,NA,NA,370,"PO BOX 218, MCCOOK LAKE, SD, 57049","No_Match",NA,NA,NA,NA
978371,"PO BOX 218","MCLAUGHLIN","SD",57642,NA,NA,371,"PO BOX 218, MCLAUGHLIN, SD, 57642","No_Match",NA,NA,NA,NA
978372,"PO BOX 218","OWENSVILLE","MO",65066,NA,NA,372,"PO BOX 218, OWENSVILLE, MO, 65066","No_Match",NA,NA,NA,NA
978373,"PO BOX 218","PINE","AZ",85544,NA,NA,373,"PO BOX 218, PINE, AZ, 85544","No_Match",NA,NA,NA,NA
978374,"PO BOX 218","PUT IN BAY","OH",43456,NA,NA,374,"PO BOX 218, PUT IN BAY, OH, 43456","No_Match",NA,NA,NA,NA
978375,"PO BOX 218","REDMOND","WA",98073,NA,NA,375,"PO BOX 218, REDMOND, WA, 98073","No_Match",NA,NA,NA,NA
978376,"PO BOX 218","REDWOOD CITY","CA",94064,NA,NA,376,"PO BOX 218, REDWOOD CITY, CA, 94064","No_Match",NA,NA,NA,NA
978377,"PO BOX 218","SOPER","OK",74759,NA,NA,377,"PO BOX 218, SOPER, OK, 74759","No_Match",NA,NA,NA,NA
978378,"PO BOX 218","STAYTON","OR",97383,NA,NA,378,"PO BOX 218, STAYTON, OR, 97383","No_Match",NA,NA,NA,NA
978379,"PO BOX 218","SUN PRAIRIE","WI",53590,NA,NA,379,"PO BOX 218, SUN PRAIRIE, WI, 53590","No_Match",NA,NA,NA,NA
978380,"PO BOX 218","VINCENT","AL",35178,NA,NA,380,"PO BOX 218, VINCENT, AL, 35178","No_Match",NA,NA,NA,NA
978381,"PO BOX 218","WINTON","NC",27986,NA,NA,381,"PO BOX 218, WINTON, NC, 27986","No_Match",NA,NA,NA,NA
978382,"PO BOX 2180","COLUMBIA FALLS","MT",59912,NA,NA,382,"PO BOX 2180, COLUMBIA FALLS, MT, 59912","No_Match",NA,NA,NA,NA
978383,"PO BOX 2180","DECATUR","GA",30031,NA,NA,383,"PO BOX 2180, DECATUR, GA, 30031","No_Match",NA,NA,NA,NA
978384,"PO BOX 21801","LITTLE ROCK","AR",72221,NA,NA,384,"PO BOX 21801, LITTLE ROCK, AR, 72221","No_Match",NA,NA,NA,NA
978385,"PO BOX 21804","BEAUMONT","TX",77720,NA,NA,385,"PO BOX 21804, BEAUMONT, TX, 77720","No_Match",NA,NA,NA,NA
978386,"PO BOX 2181","BUCKHANNON","WV",26201,NA,NA,386,"PO BOX 2181, BUCKHANNON, WV, 26201","No_Match",NA,NA,NA,NA
978387,"PO BOX 2181","SALT LAKE CITY","UT",84110,NA,NA,387,"PO BOX 2181, SALT LAKE CITY, UT, 84110","No_Match",NA,NA,NA,NA
978388,"PO BOX 2181","TAPPAHANNOCK","VA",22560,NA,NA,388,"PO BOX 2181, TAPPAHANNOCK, VA, 22560","No_Match",NA,NA,NA,NA
978389,"PO BOX 2181","WENATCHEE","WA",98807,NA,NA,389,"PO BOX 2181, WENATCHEE, WA, 98807","No_Match",NA,NA,NA,NA
978390,"PO BOX 2182","CUBA","NM",87013,NA,NA,390,"PO BOX 2182, CUBA, NM, 87013","No_Match",NA,NA,NA,NA
978391,"PO BOX 2182","WOODRUFF","WI",54568,NA,NA,391,"PO BOX 2182, WOODRUFF, WI, 54568","No_Match",NA,NA,NA,NA
978392,"PO BOX 218248","HOUSTON","TX",77218,NA,NA,392,"PO BOX 218248, HOUSTON, TX, 77218","No_Match",NA,NA,NA,NA
978393,"PO BOX 2183","HIGLEY","AZ",85236,NA,NA,393,"PO BOX 2183, HIGLEY, AZ, 85236","No_Match",NA,NA,NA,NA
978394,"PO BOX 2184","CALIFORNIA CITY","CA",93504,NA,NA,394,"PO BOX 2184, CALIFORNIA CITY, CA, 93504","No_Match",NA,NA,NA,NA
978395,"PO BOX 2184","DAVIS","CA",95617,NA,NA,395,"PO BOX 2184, DAVIS, CA, 95617","No_Match",NA,NA,NA,NA
978396,"PO BOX 2184","TOMBALL","TX",77377,NA,NA,396,"PO BOX 2184, TOMBALL, TX, 77377","No_Match",NA,NA,NA,NA
978397,"PO BOX 21849","LEXINGTON","KY",40522,NA,NA,397,"PO BOX 21849, LEXINGTON, KY, 40522","No_Match",NA,NA,NA,NA
978398,"PO BOX 2185","DECATUR","GA",30031,NA,NA,398,"PO BOX 2185, DECATUR, GA, 30031","No_Match",NA,NA,NA,NA
978399,"PO BOX 2185","SACATON","AZ",85147,NA,NA,399,"PO BOX 2185, SACATON, AZ, 85147","No_Match",NA,NA,NA,NA
978400,"PO BOX 2185","WOLFEBORO","NH",3894,NA,NA,400,"PO BOX 2185, WOLFEBORO, NH, 3894","No_Match",NA,NA,NA,NA
978401,"PO BOX 21871","LINCOLN","NE",68542,NA,NA,401,"PO BOX 21871, LINCOLN, NE, 68542","No_Match",NA,NA,NA,NA
978402,"PO BOX 218763","HOUSTON","TX",77218,NA,NA,402,"PO BOX 218763, HOUSTON, TX, 77218","No_Match",NA,NA,NA,NA
978403,"PO BOX 2188","ADVANCE","NC",27006,NA,NA,403,"PO BOX 2188, ADVANCE, NC, 27006","No_Match",NA,NA,NA,NA
978404,"PO BOX 2188","KAMUELA","HI",96743,NA,NA,404,"PO BOX 2188, KAMUELA, HI, 96743","No_Match",NA,NA,NA,NA
978405,"PO BOX 2188","PULASKI","VA",24301,NA,NA,405,"PO BOX 2188, PULASKI, VA, 24301","No_Match",NA,NA,NA,NA
978406,"PO BOX 21883","JUNEAU","AK",99801,NA,NA,406,"PO BOX 21883, JUNEAU, AK, 99801","No_Match",NA,NA,NA,NA
978407,"PO BOX 218857","NASHVILLE","TN",37221,NA,NA,407,"PO BOX 218857, NASHVILLE, TN, 37221","No_Match",NA,NA,NA,NA
978408,"PO BOX 21893","C HARLESTON","SC",29413,NA,NA,408,"PO BOX 21893, C HARLESTON, SC, 29413","No_Match",NA,NA,NA,NA
978409,"PO BOX 21893","CHARLESTON","SC",29413,NA,NA,409,"PO BOX 21893, CHARLESTON, SC, 29413","No_Match",NA,NA,NA,NA
978410,"PO BOX 219","ARIVACA","AZ",85601,NA,NA,410,"PO BOX 219, ARIVACA, AZ, 85601","No_Match",NA,NA,NA,NA
978411,"PO BOX 219","BEREA","KY",40475,NA,NA,411,"PO BOX 219, BEREA, KY, 40475","No_Match",NA,NA,NA,NA
978412,"PO BOX 219","CANNON BEAC","OR",97110,NA,NA,412,"PO BOX 219, CANNON BEAC, OR, 97110","No_Match",NA,NA,NA,NA
978413,"PO BOX 219","CEDARVILLE","CA",96104,NA,NA,413,"PO BOX 219, CEDARVILLE, CA, 96104","No_Match",NA,NA,NA,NA
978414,"PO BOX 219","CHARLESTOWN","NH",3603,NA,NA,414,"PO BOX 219, CHARLESTOWN, NH, 3603","No_Match",NA,NA,NA,NA
978415,"PO BOX 219","DANVILLE","PA",17821,NA,NA,415,"PO BOX 219, DANVILLE, PA, 17821","No_Match",NA,NA,NA,NA
978416,"PO BOX 219","DUVALL","WA",98019,NA,NA,416,"PO BOX 219, DUVALL, WA, 98019","No_Match",NA,NA,NA,NA
978417,"PO BOX 219","LAKE GROVE",NA,NA,NA,NA,417,"PO BOX 219, LAKE GROVE, , ","No_Match",NA,NA,NA,NA
978418,"PO BOX 219","LAKE GROVE","NY",11755,NA,NA,418,"PO BOX 219, LAKE GROVE, NY, 11755","No_Match",NA,NA,NA,NA
978419,"PO BOX 219","MELSTONE","MT",59054,NA,NA,419,"PO BOX 219, MELSTONE, MT, 59054","No_Match",NA,NA,NA,NA
978420,"PO BOX 219","MOODUS","CT",6469,NA,NA,420,"PO BOX 219, MOODUS, CT, 6469","No_Match",NA,NA,NA,NA
978421,"PO BOX 219","NETARTS","OR",97143,NA,NA,421,"PO BOX 219, NETARTS, OR, 97143","No_Match",NA,NA,NA,NA
978422,"PO BOX 219","OWINGS MILLS","MD",21117,NA,NA,422,"PO BOX 219, OWINGS MILLS, MD, 21117","No_Match",NA,NA,NA,NA
978423,"PO BOX 219","PINETOPS","NC",27864,NA,NA,423,"PO BOX 219, PINETOPS, NC, 27864","No_Match",NA,NA,NA,NA
978424,"PO BOX 219","WESTON","VT",5161,NA,NA,424,"PO BOX 219, WESTON, VT, 5161","No_Match",NA,NA,NA,NA
978425,"PO BOX 219014","HOUSTON","TX",77218,NA,NA,425,"PO BOX 219014, HOUSTON, TX, 77218","No_Match",NA,NA,NA,NA
978426,"PO BOX 2191","COUNTRY CLUB HILLS","IL",60478,NA,NA,426,"PO BOX 2191, COUNTRY CLUB HILLS, IL, 60478","No_Match",NA,NA,NA,NA
978427,"PO BOX 2191","WEST COVINA","CA",91793,NA,NA,427,"PO BOX 2191, WEST COVINA, CA, 91793","No_Match",NA,NA,NA,NA
978428,"PO BOX 219145","HOUSTON","TX",77218,NA,NA,428,"PO BOX 219145, HOUSTON, TX, 77218","No_Match",NA,NA,NA,NA
978429,"PO BOX 2192","WASHINGTON","MO",63090,NA,NA,429,"PO BOX 2192, WASHINGTON, MO, 63090","No_Match",NA,NA,NA,NA
978430,"PO BOX 219264","PORTLAND","OR",97225,NA,NA,430,"PO BOX 219264, PORTLAND, OR, 97225","No_Match",NA,NA,NA,NA
978431,"PO BOX 2193","ATLANTA","GA",30301,NA,NA,431,"PO BOX 2193, ATLANTA, GA, 30301","No_Match",NA,NA,NA,NA
978432,"PO BOX 2193","ELK GROVE","CA",95759,NA,NA,432,"PO BOX 2193, ELK GROVE, CA, 95759","No_Match",NA,NA,NA,NA
978433,"PO BOX 2193","GEARHART","OR",97138,NA,NA,433,"PO BOX 2193, GEARHART, OR, 97138","No_Match",NA,NA,NA,NA
978434,"PO BOX 2193","PERRY","GA",31069,NA,NA,434,"PO BOX 2193, PERRY, GA, 31069","No_Match",NA,NA,NA,NA
978435,"PO BOX 2193","TEHACHAPI","CA",93581,NA,NA,435,"PO BOX 2193, TEHACHAPI, CA, 93581","No_Match",NA,NA,NA,NA
978436,"PO BOX 2194","SARASOTA","FL",34230,NA,NA,436,"PO BOX 2194, SARASOTA, FL, 34230","No_Match",NA,NA,NA,NA
978437,"PO BOX 2194","ST. LOUIS","MO",63158,NA,NA,437,"PO BOX 2194, ST. LOUIS, MO, 63158","No_Match",NA,NA,NA,NA
978438,"PO BOX 2195","COLUMBIA","MD",21045,NA,NA,438,"PO BOX 2195, COLUMBIA, MD, 21045","No_Match",NA,NA,NA,NA
978439,"PO BOX 2195","KAMUELA","HI",96743,NA,NA,439,"PO BOX 2195, KAMUELA, HI, 96743","No_Match",NA,NA,NA,NA
978440,"PO BOX 2195","NEVADA CITY","CA",95959,NA,NA,440,"PO BOX 2195, NEVADA CITY, CA, 95959","No_Match",NA,NA,NA,NA
978441,"PO BOX 2196","KAPAA","HI",96746,NA,NA,441,"PO BOX 2196, KAPAA, HI, 96746","No_Match",NA,NA,NA,NA
978442,"PO BOX 2196","LEAVENWORTH","WA",98826,NA,NA,442,"PO BOX 2196, LEAVENWORTH, WA, 98826","No_Match",NA,NA,NA,NA
978443,"PO BOX 2197","FREEPORT","TX",77542,NA,NA,443,"PO BOX 2197, FREEPORT, TX, 77542","No_Match",NA,NA,NA,NA
978444,"PO BOX 2197","GLENROCK","WY",82637,NA,NA,444,"PO BOX 2197, GLENROCK, WY, 82637","No_Match",NA,NA,NA,NA
978445,"PO BOX 2198","BRYAN","TX",77806,NA,NA,445,"PO BOX 2198, BRYAN, TX, 77806","No_Match",NA,NA,NA,NA
978446,"PO BOX 2198","MARION","NC",28752,NA,NA,446,"PO BOX 2198, MARION, NC, 28752","No_Match",NA,NA,NA,NA
978447,"PO BOX 22","ALMA","CO",80420,NA,NA,447,"PO BOX 22, ALMA, CO, 80420","No_Match",NA,NA,NA,NA
978448,"PO BOX 22","AMITY","OR",97101,NA,NA,448,"PO BOX 22, AMITY, OR, 97101","No_Match",NA,NA,NA,NA
978449,"PO BOX 22","BATH","NC",27808,NA,NA,449,"PO BOX 22, BATH, NC, 27808","No_Match",NA,NA,NA,NA
978450,"PO BOX 22","BLACK DIAMOND","WA",98010,NA,NA,450,"PO BOX 22, BLACK DIAMOND, WA, 98010","No_Match",NA,NA,NA,NA
978451,"PO BOX 22","BRITTANY","LA",70718,NA,NA,451,"PO BOX 22, BRITTANY, LA, 70718","No_Match",NA,NA,NA,NA
978452,"PO BOX 22","BROADWAY","VA",22850,NA,NA,452,"PO BOX 22, BROADWAY, VA, 22850","No_Match",NA,NA,NA,NA
978453,"PO BOX 22","BROOKFIELD","IL",60513,NA,NA,453,"PO BOX 22, BROOKFIELD, IL, 60513","No_Match",NA,NA,NA,NA
978454,"PO BOX 22","CANTWELL","AK",99729,NA,NA,454,"PO BOX 22, CANTWELL, AK, 99729","No_Match",NA,NA,NA,NA
978455,"PO BOX 22","CARLTON","TX",76436,NA,NA,455,"PO BOX 22, CARLTON, TX, 76436","No_Match",NA,NA,NA,NA
978456,"PO BOX 22","CLEVES","OH",45002,NA,NA,456,"PO BOX 22, CLEVES, OH, 45002","No_Match",NA,NA,NA,NA
978457,"PO BOX 22","COLLBRAN","CO",81624,NA,NA,457,"PO BOX 22, COLLBRAN, CO, 81624","No_Match",NA,NA,NA,NA
978458,"PO BOX 22","COVINGTON","VA",24426,NA,NA,458,"PO BOX 22, COVINGTON, VA, 24426","No_Match",NA,NA,NA,NA
978459,"PO BOX 22","DAVIS","WV",26263,NA,NA,459,"PO BOX 22, DAVIS, WV, 26263","No_Match",NA,NA,NA,NA
978460,"PO BOX 22","EL PRADO","NM",87529,NA,NA,460,"PO BOX 22, EL PRADO, NM, 87529","No_Match",NA,NA,NA,NA
978461,"PO BOX 22","EMERSON","AR",71740,NA,NA,461,"PO BOX 22, EMERSON, AR, 71740","No_Match",NA,NA,NA,NA
978462,"PO BOX 22","ESTER","AK",99725,NA,NA,462,"PO BOX 22, ESTER, AK, 99725","No_Match",NA,NA,NA,NA
978463,"PO BOX 22","FORT LEONARD WOOD","MO",65473,NA,NA,463,"PO BOX 22, FORT LEONARD WOOD, MO, 65473","No_Match",NA,NA,NA,NA
978464,"PO BOX 22","GRACEMONT","OK",73042,NA,NA,464,"PO BOX 22, GRACEMONT, OK, 73042","No_Match",NA,NA,NA,NA
978465,"PO BOX 22","HAWI","HI",96719,NA,NA,465,"PO BOX 22, HAWI, HI, 96719","No_Match",NA,NA,NA,NA
978466,"PO BOX 22","HAWKEYE","IA",52147,NA,NA,466,"PO BOX 22, HAWKEYE, IA, 52147","No_Match",NA,NA,NA,NA
978467,"PO BOX 22","HIGHLLLANDVILLE","MO",65669,NA,NA,467,"PO BOX 22, HIGHLLLANDVILLE, MO, 65669","No_Match",NA,NA,NA,NA
978468,"PO BOX 22","HOWARD","CO",81233,NA,NA,468,"PO BOX 22, HOWARD, CO, 81233","No_Match",NA,NA,NA,NA
978469,"PO BOX 22","INDANTOWN","FL",34956,NA,NA,469,"PO BOX 22, INDANTOWN, FL, 34956","No_Match",NA,NA,NA,NA
978470,"PO BOX 22","JOHNSON","VT",5656,NA,NA,470,"PO BOX 22, JOHNSON, VT, 5656","No_Match",NA,NA,NA,NA
978471,"PO BOX 22","JONESBOROO","IL",62952,NA,NA,471,"PO BOX 22, JONESBOROO, IL, 62952","No_Match",NA,NA,NA,NA
978472,"PO BOX 22","LA VILLA","TX",78562,NA,NA,472,"PO BOX 22, LA VILLA, TX, 78562","No_Match",NA,NA,NA,NA
978473,"PO BOX 22","RURAL RETREAT","VA",24368,NA,NA,473,"PO BOX 22, RURAL RETREAT, VA, 24368","No_Match",NA,NA,NA,NA
978474,"PO BOX 22","SALINE","LA",71070,NA,NA,474,"PO BOX 22, SALINE, LA, 71070","No_Match",NA,NA,NA,NA
978475,"PO BOX 22","SMITHVILLE","TX",78957,NA,NA,475,"PO BOX 22, SMITHVILLE, TX, 78957","No_Match",NA,NA,NA,NA
978476,"PO BOX 22","SOUTH HAVEN","MI",49090,NA,NA,476,"PO BOX 22, SOUTH HAVEN, MI, 49090","No_Match",NA,NA,NA,NA
978477,"PO BOX 22","ST IGNATIUS","MT",59865,NA,NA,477,"PO BOX 22, ST IGNATIUS, MT, 59865","No_Match",NA,NA,NA,NA
978478,"PO BOX 22","TYE","TX",79563,NA,NA,478,"PO BOX 22, TYE, TX, 79563","No_Match",NA,NA,NA,NA
978479,"PO BOX 22","VERNAL","UT",84078,NA,NA,479,"PO BOX 22, VERNAL, UT, 84078","No_Match",NA,NA,NA,NA
978480,"PO BOX 22","VICTORIA","KS",67671,NA,NA,480,"PO BOX 22, VICTORIA, KS, 67671","No_Match",NA,NA,NA,NA
978481,"PO BOX 22","WALTON","IN",46994,NA,NA,481,"PO BOX 22, WALTON, IN, 46994","No_Match",NA,NA,NA,NA
978482,"PO BOX 22","WESTLAKE","OR",97439,NA,NA,482,"PO BOX 22, WESTLAKE, OR, 97439","No_Match",NA,NA,NA,NA
978483,"PO BOX 22","WHITEFACE","TX",79379,NA,NA,483,"PO BOX 22, WHITEFACE, TX, 79379","No_Match",NA,NA,NA,NA
978484,"PO BOX 22","ZANESFIELD","OH",43360,NA,NA,484,"PO BOX 22, ZANESFIELD, OH, 43360","No_Match",NA,NA,NA,NA
978485,"PO BOX 220 25 TRACYS LANE","TRACYS LANDING","MD",20779,38.775093241,-76.593264765,485,"PO BOX 220 25 TRACYS LANE, TRACYS LANDING, MD, 20779","Match","Non_Exact","25 TRACY'S LN, TRACYS LANDING, MD, 20779",68183319,"R"
978486,"PO BOX 220","BOWBELLS","ND",58721,NA,NA,486,"PO BOX 220, BOWBELLS, ND, 58721","No_Match",NA,NA,NA,NA
978487,"PO BOX 220","BREWTON","AL",36427,NA,NA,487,"PO BOX 220, BREWTON, AL, 36427","No_Match",NA,NA,NA,NA
978488,"PO BOX 220","BRIGHTON","CO",80601,NA,NA,488,"PO BOX 220, BRIGHTON, CO, 80601","No_Match",NA,NA,NA,NA
978489,"PO BOX 220","CALICO ROCK","AR",72519,NA,NA,489,"PO BOX 220, CALICO ROCK, AR, 72519","No_Match",NA,NA,NA,NA
978490,"PO BOX 220","CAREY","ID",83320,NA,NA,490,"PO BOX 220, CAREY, ID, 83320","No_Match",NA,NA,NA,NA
978491,"PO BOX 220","COTTAGE GROVE","MN",55016,NA,NA,491,"PO BOX 220, COTTAGE GROVE, MN, 55016","No_Match",NA,NA,NA,NA
978492,"PO BOX 220","FALLING WATERS","WV",25419,NA,NA,492,"PO BOX 220, FALLING WATERS, WV, 25419","No_Match",NA,NA,NA,NA
978493,"PO BOX 220","GRIGGSVILLE","IL",62340,NA,NA,493,"PO BOX 220, GRIGGSVILLE, IL, 62340","No_Match",NA,NA,NA,NA
978494,"PO BOX 220","HUMACAO","PR",792,NA,NA,494,"PO BOX 220, HUMACAO, PR, 792","No_Match",NA,NA,NA,NA
978495,"PO BOX 220","KETTLE FALLS","WA",99141,NA,NA,495,"PO BOX 220, KETTLE FALLS, WA, 99141","No_Match",NA,NA,NA,NA
978496,"PO BOX 220","LAKE GEOGE","CO",80827,NA,NA,496,"PO BOX 220, LAKE GEOGE, CO, 80827","No_Match",NA,NA,NA,NA
978497,"PO BOX 220","LAUREL","MD",20725,NA,NA,497,"PO BOX 220, LAUREL, MD, 20725","No_Match",NA,NA,NA,NA
978498,"PO BOX 220","OLD FORGE","NY",13420,NA,NA,498,"PO BOX 220, OLD FORGE, NY, 13420","No_Match",NA,NA,NA,NA
978499,"PO BOX 220","PAHOKEE","FL",33476,NA,NA,499,"PO BOX 220, PAHOKEE, FL, 33476","No_Match",NA,NA,NA,NA
978500,"PO BOX 220","RENO","OH",45773,NA,NA,500,"PO BOX 220, RENO, OH, 45773","No_Match",NA,NA,NA,NA
