"ID","Address","City","State","Zip","lat","long","id","input_address","match_indicator","match_type","matched_address","tiger_line_id","tiger_side"
339501,"2115 SEQUOIA AVE","SANGER","CA",93657,36.7171876140001,-119.565823187,1,"2115 SEQUOIA AVE, SANGER, CA, 93657","Match","Exact","2115 SEQUOIA AVE, SANGER, CA, 93657",197590559,"R"
339502,"2115 SHERMAN CREEK AVENUE","EAU CLAIRE","WI",54701,NA,NA,2,"2115 SHERMAN CREEK AVENUE, EAU CLAIRE, WI, 54701","No_Match",NA,NA,NA,NA
339503,"2115 SILVERHEELS DR","LARKSPUR","CO",80118,39.243937004,-104.924278818,3,"2115 SILVERHEELS DR, LARKSPUR, CO, 80118","Match","Exact","2115 SILVERHEELS DR, LARKSPUR, CO, 80118",130829280,"R"
339504,"2115 SKYLINE DRIVE","BARTLESVILLE","OK",74006,36.7203283470001,-95.960195732,4,"2115 SKYLINE DRIVE, BARTLESVILLE, OK, 74006","Match","Exact","2115 SKYLINE DR, BARTLESVILLE, OK, 74006",18707654,"L"
339505,"2115 SOUTH 214TH STREET","EAGLE","NE",68347,40.787704735,-96.426329278,5,"2115 SOUTH 214TH STREET, EAGLE, NE, 68347","Match","Exact","2115 S 214TH ST, EAGLE, NE, 68347",10364051,"L"
339506,"2115 SPARROW RD","CHESAPEAKE","VA",23320,36.803017997,-76.218414093,6,"2115 SPARROW RD, CHESAPEAKE, VA, 23320","Match","Exact","2115 SPARROW RD, CHESAPEAKE, VA, 23320",121775766,"R"
339507,"2115 SQUIRREL RUN","MINERAL RIDGE","OH",44440,41.1362728020001,-80.7440047649999,7,"2115 SQUIRREL RUN, MINERAL RIDGE, OH, 44440","Match","Non_Exact","2115 SQUIRREL RUN CT, MINERAL RIDGE, OH, 44440",616676668,"L"
339508,"2115 STATE ROUTE 49","ARCANUM","OH",45304,39.9798364420001,-84.4971457729999,8,"2115 STATE ROUTE 49, ARCANUM, OH, 45304","Match","Exact","2115 STATE RTE 49, ARCANUM, OH, 45304",615295755,"R"
339509,"2115 STEM CREEK TRAIL","POWHATAN","VA",23139,37.53255719,-78.052727201,9,"2115 STEM CREEK TRAIL, POWHATAN, VA, 23139","Match","Exact","2115 STEM CREEK TRL, POWHATAN, VA, 23139",642807741,"L"
339510,"2115 STONE RD","ANN ARBOR","MI",48105,42.294206876,-83.7002495959999,10,"2115 STONE RD, ANN ARBOR, MI, 48105","Match","Exact","2115 STONE RD, ANN ARBOR, MI, 48105",26013900,"R"
339511,"2115 STOWE HOLLOW ROAD","STOWE","VT",5672,44.440130873,-72.679171071,11,"2115 STOWE HOLLOW ROAD, STOWE, VT, 5672","Match","Exact","2115 STOWE HOLLOW RD, STOWE, VT, 05672",136633345,"R"
339512,"2115 SUMMIT AVE SCB 201","ST PAUL","MN",55105,44.941662927,-93.188246631,12,"2115 SUMMIT AVE SCB 201, ST PAUL, MN, 55105","Match","Exact","2115 SUMMIT AVE, SAINT PAUL, MN, 55105",97639328,"R"
339513,"2115 SUMMIT AVE","ST PAUL","MN",55105,44.941662927,-93.188246631,13,"2115 SUMMIT AVE, ST PAUL, MN, 55105","Match","Exact","2115 SUMMIT AVE, SAINT PAUL, MN, 55105",97639328,"R"
339514,"2115 SUNRISE CIRCLE WEST","UPLAND","CA",91784,34.1403758170001,-117.675856305,14,"2115 SUNRISE CIRCLE WEST, UPLAND, CA, 91784","Match","Exact","2115 SUNRISE CIR W, UPLAND, CA, 91784",144669181,"R"
339515,"2115 SW 13TH ST","GAINESVILLE","FL",32608,29.6325991050001,-82.339248379,15,"2115 SW 13TH ST, GAINESVILLE, FL, 32608","Match","Exact","2115 SW 13TH ST, GAINESVILLE, FL, 32608",652507656,"L"
339516,"2115 TURTLE POND CT","SUFFOLK","VA",23434,NA,NA,16,"2115 TURTLE POND CT, SUFFOLK, VA, 23434","No_Match",NA,NA,NA,NA
339517,"2115 VICTORIA GARDEN DRIVE","RICHMOND","TX",77406,29.6416374820001,-95.7386869649999,17,"2115 VICTORIA GARDEN DRIVE, RICHMOND, TX, 77406","Match","Exact","2115 VICTORIA GARDEN DR, RICHMOND, TX, 77406",78324952,"R"
339518,"2115 VIRGIL PLACE","BRONX","NY",10473,40.8221772110001,-73.851287137,18,"2115 VIRGIL PLACE, BRONX, NY, 10473","Match","Exact","2115 VIRGIL PL, BRONX, NY, 10473",80306158,"L"
339519,"2115 W MARKET ST","POTTSVILLE","PA",17901,40.6760355960001,-76.223157137,19,"2115 W MARKET ST, POTTSVILLE, PA, 17901","Match","Exact","2115 W MARKET ST, POTTSVILLE, PA, 17901",70945158,"R"
339520,"2115 WARRENS WAY","WANAQUE","NJ",7465,41.0465916640001,-74.2829960449999,20,"2115 WARRENS WAY, WANAQUE, NJ, 7465","Match","Non_Exact","2115 WARREN'S WAY, WANAQUE, NJ, 07465",641160673,"R"
339521,"2115 WHIRLAWAY DRIVE","STAFFORD","TX",77477,29.6060489380001,-95.537947102,21,"2115 WHIRLAWAY DRIVE, STAFFORD, TX, 77477","Match","Exact","2115 WHIRLAWAY DR, STAFFORD, TX, 77477",78269951,"R"
339522,"2115 WOODBINE","CANTON","MI",48187,NA,NA,22,"2115 WOODBINE, CANTON, MI, 48187","No_Match",NA,NA,NA,NA
339523,"2115 WYDA WAY APT","SACRAMENTO","CA",95825,38.599967694,-121.417070833,23,"2115 WYDA WAY APT, SACRAMENTO, CA, 95825","Match","Exact","2115 WYDA WAY, SACRAMENTO, CA, 95825",629159335,"L"
339524,"2115 YANDES APT 305","INDIANAPOLIS","IN",46202,39.796475108,-86.138065669,24,"2115 YANDES APT 305, INDIANAPOLIS, IN, 46202","Match","Non_Exact","2115 YANDES ST, INDIANAPOLIS, IN, 46202",107990523,"R"
339525,"2115 YEAMAN PLACE APT 513","NASHVILLE","TN",37206,NA,NA,25,"2115 YEAMAN PLACE APT 513, NASHVILLE, TN, 37206","No_Match",NA,NA,NA,NA
339526,"2115-301 CLAREGLEN CT","CRESCENT SPRINGS","KY",41017,NA,NA,26,"2115-301 CLAREGLEN CT, CRESCENT SPRINGS, KY, 41017","Tie",NA,NA,NA,NA
339527,"2115","DA","TX",75203,NA,NA,27,"2115, DA, TX, 75203","No_Match",NA,NA,NA,NA
339528,"21150 COUNTRY PLACE LANE","BUCYRUS","KS",66013,38.743191805,-94.624206503,28,"21150 COUNTRY PLACE LANE, BUCYRUS, KS, 66013","Match","Exact","21150 COUNTRY PLACE LN, BUCYRUS, KS, 66013",91296382,"L"
339529,"21150 CREIGHTON RD","CREIGHTON","SD",57790,44.3619978140001,-102.200796512,29,"21150 CREIGHTON RD, CREIGHTON, SD, 57790","Match","Exact","21150 CREIGHTON RD, CREIGHTON, SD, 57790",205532014,"L"
339530,"21150 GERTRUDE AVE Q1","PORT CHARLOTTE","FL",33952,26.992213281,-82.101707182,30,"21150 GERTRUDE AVE Q1, PORT CHARLOTTE, FL, 33952","Match","Exact","21150 GERTRUDE AVE, PORT CHARLOTTE, FL, 33952",4338513,"R"
339531,"21150 GRAPEVINE DRIVE","PATTERSON","CA",95363,37.397145735,-121.260595348,31,"21150 GRAPEVINE DRIVE, PATTERSON, CA, 95363","Match","Exact","21150 GRAPEVINE DR, PATTERSON, CA, 95363",627568684,"R"
339532,"21150 KENWOOD AVENUE","ROCKY RIVER","OH",44116,41.481108239,-81.8536325159999,32,"21150 KENWOOD AVENUE, ROCKY RIVER, OH, 44116","Match","Exact","21150 KENWOOD AVE, ROCKY RIVER, OH, 44116",61097410,"R"
339533,"21150 NE 20TH AVE","NORTH MIAMI BEACH","FL",33179,25.9709282600001,-80.161788424,33,"21150 NE 20TH AVE, NORTH MIAMI BEACH, FL, 33179","Match","Non_Exact","21150 NE 20TH AVE, N MIAMI BEACH, FL, 33179",116034947,"L"
339534,"21150 NE 22ND COURT","MIAMI","FL",33180,25.970940612,-80.1575123169999,34,"21150 NE 22ND COURT, MIAMI, FL, 33180","Match","Non_Exact","21150 NE 22ND CT, MIAMI, FL, 33180",116035020,"L"
339535,"21150 NE 38TH AVENUE APT 2206","AVENTURA","FL",33180,NA,NA,35,"21150 NE 38TH AVENUE APT 2206, AVENTURA, FL, 33180","No_Match",NA,NA,NA,NA
339536,"21150 POINT PLACE APT 2805","AVENTURA","FL",33180,NA,NA,36,"21150 POINT PLACE APT 2805, AVENTURA, FL, 33180","No_Match",NA,NA,NA,NA
339537,"21150 POTOMAC DR","SOUTHFIELD","MI",48076,42.496919893,-83.253455666,37,"21150 POTOMAC DR, SOUTHFIELD, MI, 48076","Match","Non_Exact","21150 POTOMAC ST, SOUTHFIELD, MI, 48076",69730551,"R"
339538,"21150 RT 19","CRANBERRY TWP","PA",16066,40.737601903,-80.110743753,38,"21150 RT 19, CRANBERRY TWP, PA, 16066","Match","Exact","21150 RTE 19, CRANBERRY TOWNSHIP, PA, 16066",52670876,"L"
339539,"21150 RT 19","CRANBERRY TWP","PR",16066,NA,NA,39,"21150 RT 19, CRANBERRY TWP, PR, 16066","No_Match",NA,NA,NA,NA
339540,"21151 S WESTERN AVE","TORRANCE","CA",90501,33.8381728640001,-118.309291033,40,"21151 S WESTERN AVE, TORRANCE, CA, 90501","Match","Exact","21151 S WESTERN AVE, TORRANCE, CA, 90501",142650607,"R"
339541,"21152 S FORREST DR","TAHLEQUAH","OK",74464,35.8680827910001,-95.001219968,41,"21152 S FORREST DR, TAHLEQUAH, OK, 74464","Match","Exact","21152 S FORREST DR, TAHLEQUAH, OK, 74464",53629663,"L"
339542,"21153 450TH STREET","PELICAN RAPIDS","MN",56572,46.6151082760001,-96.0485413219999,42,"21153 450TH STREET, PELICAN RAPIDS, MN, 56572","Match","Exact","21153 450TH ST, PELICAN RAPIDS, MN, 56572",168303886,"L"
339543,"21153 OLD COVINGTON HWY","HAMMOND","LA",70403,30.4941999070001,-90.3764265999999,43,"21153 OLD COVINGTON HWY, HAMMOND, LA, 70403","Match","Exact","21153 OLD COVINGTON HWY, HAMMOND, LA, 70403",75773390,"L"
339544,"21153 STATE HIGHWAY","ADVANCE","MO",63730,NA,NA,44,"21153 STATE HIGHWAY, ADVANCE, MO, 63730","No_Match",NA,NA,NA,NA
339545,"21153 WOODBRIDGE DR","FRANKFORT","IL",60423,41.505527789,-87.83690541,45,"21153 WOODBRIDGE DR, FRANKFORT, IL, 60423","Match","Exact","21153 WOODBRIDGE DR, FRANKFORT, IL, 60423",111585998,"L"
339546,"21154 MAYAPPLE PLACE","STERLING","VA",20164,39.0295129530001,-77.378087394,46,"21154 MAYAPPLE PLACE, STERLING, VA, 20164","Match","Exact","21154 MAYAPPLE PL, STERLING, VA, 20164",62335291,"L"
339547,"21155 MANCHESTER BLVD","HAPER WOODS","MI",48225,42.4318252030001,-82.916881872,47,"21155 MANCHESTER BLVD, HAPER WOODS, MI, 48225","Match","Non_Exact","21155 MANCHESTER BLVD, HARPER WOODS, MI, 48225",95486815,"L"
339548,"21155 SPANISH GRANT","SAN ANTONIO","TX",78264,29.206579565,-98.468781737,48,"21155 SPANISH GRANT, SAN ANTONIO, TX, 78264","Match","Non_Exact","21155 SPANISH GRANT RD, SAN ANTONIO, TX, 78264",638591618,"L"
339549,"21155 WHITNEY DR","MATTESON","IL",60443,41.504079914,-87.766095288,49,"21155 WHITNEY DR, MATTESON, IL, 60443","Match","Non_Exact","21155 WHITNEY AVE, MATTESON, IL, 60443",638525964,"R"
339550,"21156 E VIA DEL ORO","QUEEN CREEK","AZ",85142,33.23930942,-111.625359408,50,"21156 E VIA DEL ORO, QUEEN CREEK, AZ, 85142","Match","Exact","21156 E VIA DEL ORO, QUEEN CREEK, AZ, 85142",244034330,"L"
339551,"21156 MILLWOOD SQUARE","POTOMAC FALLS","VA",20165,39.0298765260001,-77.360604205,51,"21156 MILLWOOD SQUARE, POTOMAC FALLS, VA, 20165","Match","Exact","21156 MILLWOOD SQ, POTOMAC FALLS, VA, 20165",62364554,"L"
339552,"21157 CR 1250","GRACEMONT","OK",73042,35.203893464,-98.257861581,52,"21157 CR 1250, GRACEMONT, OK, 73042","Match","Exact","21157 CO RD 1250, GRACEMONT, OK, 73042",92467354,"R"
339553,"21157 ISOTOPE TRAIL","LAKEVILLE","MN",55044,44.6419403610001,-93.263805482,53,"21157 ISOTOPE TRAIL, LAKEVILLE, MN, 55044","Match","Exact","21157 ISOTOPE TRL, LAKEVILLE, MN, 55044",624733361,"L"
339554,"21158 E PROSPECTOR PL","RED ROCK","AZ",85145,32.571520907,-111.341962907,54,"21158 E PROSPECTOR PL, RED ROCK, AZ, 85145","Match","Exact","21158 PROSPECTOR PL, RED ROCK, AZ, 85145",624704690,"R"
339555,"21158 HANSEN ROAD","TRACY","CA",95304,37.7665160060001,-121.513214951,55,"21158 HANSEN ROAD, TRACY, CA, 95304","Match","Exact","21158 HANSEN RD, TRACY, CA, 95304",133932681,"L"
339556,"21159 VIA NORIEGA","YORBA LINDA","CA",92887,33.8880211270001,-117.762127374,56,"21159 VIA NORIEGA, YORBA LINDA, CA, 92887","Match","Exact","21159 VIA NORIEGA, YORBA LINDA, CA, 92887",143997025,"R"
339557,"2115B WALLACE STREET","PHILADELPHIA","PA",19130,39.9666250860001,-75.1725862879999,57,"2115B WALLACE STREET, PHILADELPHIA, PA, 19130","Match","Exact","2115 WALLACE ST, PHILADELPHIA, PA, 19130",131406077,"R"
339558,"2116 15TH ST","SACRAMENTO","CA",95818,38.565765324,-121.492066544,58,"2116 15TH ST, SACRAMENTO, CA, 95818","Match","Exact","2116 15TH ST, SACRAMENTO, CA, 95818",133419883,"R"
339559,"2116 16TH STREET","GREELEY","CO",80631,NA,NA,59,"2116 16TH STREET, GREELEY, CO, 80631","Tie",NA,NA,NA,NA
339560,"2116 20TH ST APT 3","SANTA MONICA","CA",90405,34.018850484,-118.468929722,60,"2116 20TH ST APT 3, SANTA MONICA, CA, 90405","Match","Exact","2116 20TH ST, SANTA MONICA, CA, 90405",142717775,"R"
339561,"2116 20TH ST","RACINE","WI",53403,42.7059495020001,-87.804364715,61,"2116 20TH ST, RACINE, WI, 53403","Match","Exact","2116 20TH ST, RACINE, WI, 53403",77910720,"R"
339562,"2116 32ND STREET","ANACORTES","WA",98221,48.4963860410001,-122.630356895,62,"2116 32ND STREET, ANACORTES, WA, 98221","Match","Exact","2116 32ND ST, ANACORTES, WA, 98221",629133118,"R"
339563,"2116 58TH STREET","BROOKLYN","NY",11204,40.6189747830001,-73.979145729,63,"2116 58TH STREET, BROOKLYN, NY, 11204","Match","Exact","2116 58TH ST, BROOKLYN, NY, 11204",59089303,"R"
339564,"2116 69TH ST","WINDSOR HEIGHTS","IA",50324,41.6131040330001,-93.7115361359999,64,"2116 69TH ST, WINDSOR HEIGHTS, IA, 50324","Match","Exact","2116 69TH ST, WINDSOR HEIGHTS, IA, 50324",65810450,"L"
339565,"2116 73RD AVE","OAKLAND","CA",94621,37.7630968080001,-122.180996527,65,"2116 73RD AVE, OAKLAND, CA, 94621","Match","Non_Exact","2116 73RD, OAKLAND, CA, 94621",617283028,"R"
339566,"2116 ADAMS BLVD","SAGINAW","MI",48602,43.425914135,-83.979037658,66,"2116 ADAMS BLVD, SAGINAW, MI, 48602","Match","Exact","2116 ADAMS BLVD, SAGINAW, MI, 48602",80209633,"R"
339567,"2116 ALAELOA STREET","HONOLULU","HI",96744,21.291598627,-157.777219192,67,"2116 ALAELOA STREET, HONOLULU, HI, 96744","Match","Non_Exact","2116 ALAELOA ST, HONOLULU, HI, 96821",203243221,"L"
339568,"2116 ANTIGUA DRIVE","LEXINGTON","KY",40509,38.0229705620001,-84.386628746,68,"2116 ANTIGUA DRIVE, LEXINGTON, KY, 40509","Match","Exact","2116 ANTIGUA DR, LEXINGTON, KY, 40509",31945786,"L"
339569,"2116 BARRACKS DR","FT WORTH","TX",76177,32.9132988040001,-97.330284923,69,"2116 BARRACKS DR, FT WORTH, TX, 76177","Match","Exact","2116 BARRACKS DR, FORT WORTH, TX, 76177",619868699,"R"
339570,"2116 BARRACKS DRIVE","FORT WORTH","TX",76177,32.9132988040001,-97.330284923,70,"2116 BARRACKS DRIVE, FORT WORTH, TX, 76177","Match","Exact","2116 BARRACKS DR, FORT WORTH, TX, 76177",619868699,"R"
339571,"2116 BENNETT CIRCLE","GAINESVILLE","GA",30504,34.28527946,-83.8566579879999,71,"2116 BENNETT CIRCLE, GAINESVILLE, GA, 30504","Match","Exact","2116 BENNETT CIR, GAINESVILLE, GA, 30504",98249844,"R"
339572,"2116 BIRDIE RD","GRIFFIN","GA",30223,33.317413882,-84.3531286309999,72,"2116 BIRDIE RD, GRIFFIN, GA, 30223","Match","Exact","2116 BIRDIE RD, GRIFFIN, GA, 30223",23757755,"L"
339573,"2116 BRENTWOOD DR","SAVANNAH","GA",31404,32.020515608,-81.073890993,73,"2116 BRENTWOOD DR, SAVANNAH, GA, 31404","Match","Exact","2116 BRENTWOOD DR, SAVANNAH, GA, 31404",6179785,"L"
339574,"2116 BRIARCLIFF ROAD","RICHMOND","VA",23225,37.530542374,-77.5105668269999,74,"2116 BRIARCLIFF ROAD, RICHMOND, VA, 23225","Match","Exact","2116 BRIARCLIFF RD, RICHMOND, VA, 23225",201534863,"L"
339575,"2116 BROKEN RAIL LN","ROCKLIN","CA",95765,38.831934926,-121.278567154,75,"2116 BROKEN RAIL LN, ROCKLIN, CA, 95765","Match","Exact","2116 BROKEN RAIL LN, ROCKLIN, CA, 95765",633815790,"R"
339576,"2116 BROOKHURST AVENUE","COLUMBUS","OH",43229,40.1029891380001,-82.960237034,76,"2116 BROOKHURST AVENUE, COLUMBUS, OH, 43229","Match","Exact","2116 BROOKHURST AVE, COLUMBUS, OH, 43229",218662355,"L"
339577,"2116 CASTLEBERRY LANE","LAS VEGAS","NV",89156,36.1984366200001,-115.050526459,77,"2116 CASTLEBERRY LANE, LAS VEGAS, NV, 89156","Match","Non_Exact","2116 N CASTLEBERRY LN, LAS VEGAS, NV, 89156",636792070,"R"
339578,"2116 CEDAR LANE","ATHENS","TX",75751,32.2215908150001,-95.817091528,78,"2116 CEDAR LANE, ATHENS, TX, 75751","Match","Exact","2116 CEDAR LN, ATHENS, TX, 75751",633924478,"L"
339579,"2116 CEDAR RUN DR  APT 301","CAMP HILL","PA",17011,40.2280929290001,-76.916101284,79,"2116 CEDAR RUN DR  APT 301, CAMP HILL, PA, 17011","Match","Exact","2116 CEDAR RUN DR, CAMP HILL, PA, 17011",647961130,"R"
339580,"2116 CENTRAL STREET","STOUGHTON","MA",2072,42.133880456,-71.140876011,80,"2116 CENTRAL STREET, STOUGHTON, MA, 2072","Match","Exact","2116 CENTRAL ST, STOUGHTON, MA, 02072",87298200,"L"
339581,"2116 CHESTNUT STREET UNIT 1603","PHILADELPHIA","PA",19103,39.9523933510001,-75.176255423,81,"2116 CHESTNUT STREET UNIT 1603, PHILADELPHIA, PA, 19103","Match","Exact","2116 CHESTNUT ST, PHILADELPHIA, PA, 19103",131406731,"L"
339582,"2116 CLEVELAND AVE N","ROSEVILLE","MN",55113,45.00650467,-93.187066162,82,"2116 CLEVELAND AVE N, ROSEVILLE, MN, 55113","Match","Exact","2116 CLEVELAND AVE N, ROSEVILLE, MN, 55113",635554707,"R"
339583,"2116 CLUB VISTA PL","LOUISVILLE","KY",40245,38.2673966630001,-85.482107274,83,"2116 CLUB VISTA PL, LOUISVILLE, KY, 40245","Match","Exact","2116 CLUB VISTA PL, LOUISVILLE, KY, 40245",96883166,"L"
339584,"2116 CLUBHOUSE WAY","BILLINGS","MT",59105,45.837313603,-108.503995598,84,"2116 CLUBHOUSE WAY, BILLINGS, MT, 59105","Match","Exact","2116 CLUBHOUSE WAY, BILLINGS, MT, 59105",638918263,"L"
339585,"2116 COBBLESTONE STREET","SPRINGDALE","AR",72762,36.1672891010001,-94.180996761,85,"2116 COBBLESTONE STREET, SPRINGDALE, AR, 72762","Match","Exact","2116 COBBLESTONE ST, SPRINGDALE, AR, 72762",49090739,"R"
339586,"2116 COOK RD","RUSTON","LA",71270,32.561720429,-92.571233546,86,"2116 COOK RD, RUSTON, LA, 71270","Match","Exact","2116 COOK RD, RUSTON, LA, 71270",648241731,"R"
339587,"2116 CR801B","CLEBURNE","TX",76031,32.391216281,-97.3601882739999,87,"2116 CR801B, CLEBURNE, TX, 76031","Match","Exact","2116 CO RD 801B, CLEBURNE, TX, 76031",649319489,"L"
339588,"2116 CRANBERRY WOODS CT","CHARLOTTE","NC",28208,35.25405956,-80.918800516,88,"2116 CRANBERRY WOODS CT, CHARLOTTE, NC, 28208","Match","Exact","2116 CRANBERRY WOODS CT, CHARLOTTE, NC, 28208",624283588,"L"
339589,"2116 CREEKVIEW CT","REYNOLDSBURG","OH",43068,39.941403623,-82.794581133,89,"2116 CREEKVIEW CT, REYNOLDSBURG, OH, 43068","Match","Exact","2116 CREEKVIEW CT, REYNOLDSBURG, OH, 43068",135601689,"L"
339590,"2116 DANIELS AVE","AKRON","OH",44312,41.050598038,-81.4514829,90,"2116 DANIELS AVE, AKRON, OH, 44312","Match","Exact","2116 DANIELS AVE, AKRON, OH, 44312",61354886,"R"
339591,"2116 DARTMOUTH COURT","MCDONOUGH","GA",30253,NA,NA,91,"2116 DARTMOUTH COURT, MCDONOUGH, GA, 30253","No_Match",NA,NA,NA,NA
339592,"2116 DEAN STREET","BROOKLYN","NY",11233,40.67511008,-73.917592084,92,"2116 DEAN STREET, BROOKLYN, NY, 11233","Match","Exact","2116 DEAN ST, BROOKLYN, NY, 11233",59083413,"R"
339593,"2116 DIMAS AVE APT 4C","BROOKLYN","NY",11226,NA,NA,93,"2116 DIMAS AVE APT 4C, BROOKLYN, NY, 11226","No_Match",NA,NA,NA,NA
339594,"2116 DISCOVERY WAY","TOMS RIVER","NJ",8755,40.028315352,-74.216817754,94,"2116 DISCOVERY WAY, TOMS RIVER, NJ, 8755","Match","Exact","2116 DISCOVERY WAY, TOMS RIVER, NJ, 08755",625190593,"L"
339595,"2116 DITMAS AVE APT 3G","BROOKLYN","NY",11226,40.6398464710001,-73.9578077,95,"2116 DITMAS AVE APT 3G, BROOKLYN, NY, 11226","Match","Exact","2116 DITMAS AVE, BROOKLYN, NY, 11226",59081429,"R"
339596,"2116 DITMAS AVE APT 4E","BROOKLYN","NY",11226,40.6398464710001,-73.9578077,96,"2116 DITMAS AVE APT 4E, BROOKLYN, NY, 11226","Match","Exact","2116 DITMAS AVE, BROOKLYN, NY, 11226",59081429,"R"
339597,"2116 DONOVAN DRIVE","LINCOLN","CA",95648,38.8979157910001,-121.316727577,97,"2116 DONOVAN DRIVE, LINCOLN, CA, 95648","Match","Exact","2116 DONOVAN DR, LINCOLN, CA, 95648",636417581,"R"
339598,"2116 E BISMARK","SPOKANE","WA",99207,NA,NA,98,"2116 E BISMARK, SPOKANE, WA, 99207","No_Match",NA,NA,NA,NA
339599,"2116 E BISMARK","SPOKANE","WA",99208,47.7122398170001,-117.378319899,99,"2116 E BISMARK, SPOKANE, WA, 99208","Match","Non_Exact","2116 E BISMARK AVE, SPOKANE, WA, 99208",189879205,"R"
339600,"2116 E BROAD ST","STATESVILLE","NC",28625,NA,NA,100,"2116 E BROAD ST, STATESVILLE, NC, 28625","No_Match",NA,NA,NA,NA
339601,"2116 E HIGHWAY 377","GRANBURY","TX",76049,NA,NA,101,"2116 E HIGHWAY 377, GRANBURY, TX, 76049","No_Match",NA,NA,NA,NA
339602,"2116 E KATHLEEN","PHOENIX","AZ",85022,33.630095662,-112.037332127,102,"2116 E KATHLEEN, PHOENIX, AZ, 85022","Match","Non_Exact","2116 E KATHLEEN RD, PHOENIX, AZ, 85022",128183693,"L"
339603,"2116 E PARK DRIVE","UNIONTOWN","OH",44685,40.972438352,-81.4432212419999,103,"2116 E PARK DRIVE, UNIONTOWN, OH, 44685","Match","Exact","2116 E PARK DR, UNIONTOWN, OH, 44685",648227771,"L"
339604,"2116 EAST AVE","ERIE","PA",16503,42.1240737790001,-80.053993323,104,"2116 EAST AVE, ERIE, PA, 16503","Match","Exact","2116 EAST AVE, ERIE, PA, 16503",117497632,"R"
339605,"2116 EAST BRYAN AVE","SALT LAKE CITY","UT",84108,40.73568799,-111.830125342,105,"2116 EAST BRYAN AVE, SALT LAKE CITY, UT, 84108","Match","Non_Exact","2116 BRYAN AVE, SALT LAKE CITY, UT, 84108",176081791,"R"
339606,"2116 EAST HELENA DRIVE","PHOENIX","AZ",85022,33.6449413720001,-112.037082483,106,"2116 EAST HELENA DRIVE, PHOENIX, AZ, 85022","Match","Exact","2116 E HELENA DR, PHOENIX, AZ, 85022",640589250,"R"
339607,"2116 EBANO ST","HIDALGO","TX",78557,26.102761179,-98.236719393,107,"2116 EBANO ST, HIDALGO, TX, 78557","Match","Non_Exact","2116 E EBANO ST, HIDALGO, TX, 78557",71529593,"L"
339608,"2116 ECTOR PL NW","KENNESAW","GA",30152,33.976690848,-84.611217616,108,"2116 ECTOR PL NW, KENNESAW, GA, 30152","Match","Exact","2116 ECTOR PL NW, KENNESAW, GA, 30152",614168540,"R"
339609,"2116 EDSON CT","LEANDER","TX",78641,30.565677937,-97.811201991,109,"2116 EDSON CT, LEANDER, TX, 78641","Match","Exact","2116 EDSON CT, LEANDER, TX, 78641",641090274,"L"
339610,"2116 ELLIOTT AVE","NASHVILLE","TN",37204,36.130322662,-86.7804585119999,110,"2116 ELLIOTT AVE, NASHVILLE, TN, 37204","Match","Exact","2116 ELLIOTT AVE, NASHVILLE, TN, 37204",606371993,"L"
339611,"2116 FLAGSTONE CT D11","GREENVILLE","NC",27834,35.584855028,-77.430824474,111,"2116 FLAGSTONE CT D11, GREENVILLE, NC, 27834","Match","Exact","2116 FLAGSTONE CT, GREENVILLE, NC, 27834",80048673,"R"
339612,"2116 GLASGO ROAD","GRISWOLD","CT",6351,41.5427336600001,-71.882577872,112,"2116 GLASGO ROAD, GRISWOLD, CT, 6351","Match","Exact","2116 GLASGO RD, GRISWOLD, CT, 06351",56836212,"R"
339613,"2116 GLENHAVEN WAY","PENNSBURG","PA",18073,40.403097664,-75.48643786,113,"2116 GLENHAVEN WAY, PENNSBURG, PA, 18073","Match","Exact","2116 GLENHAVEN WAY, PENNSBURG, PA, 18073",645851350,"L"
339614,"2116 GRANITE DRIVE","WALLA WALLA","WA",99362,46.0431833380001,-118.34485175,114,"2116 GRANITE DRIVE, WALLA WALLA, WA, 99362","Match","Exact","2116 GRANITE DR, WALLA WALLA, WA, 99362",174684246,"R"
339615,"2116 GRENOBLE DR STE 267","ARLINGTON","TX",76006,32.766650043,-97.071731149,115,"2116 GRENOBLE DR STE 267, ARLINGTON, TX, 76006","Match","Exact","2116 GRENOBLE DR, ARLINGTON, TX, 76006",101919649,"R"
339616,"2116 GRENOBLE DRIVE 262","ARLINGTON","TX",76006,32.766650043,-97.071731149,116,"2116 GRENOBLE DRIVE 262, ARLINGTON, TX, 76006","Match","Exact","2116 GRENOBLE DR, ARLINGTON, TX, 76006",101919649,"R"
339617,"2116 HADLIEGH HILLS COURT","NAVARRE","FL",32566,30.4112385670001,-86.813015021,117,"2116 HADLIEGH HILLS COURT, NAVARRE, FL, 32566","Match","Non_Exact","2116 HADLEIGH HILLS CT, NAVARRE, FL, 32566",633744806,"R"
339618,"2116 HAGER","ELK GROVE","CA",95758,NA,NA,118,"2116 HAGER, ELK GROVE, CA, 95758","No_Match",NA,NA,NA,NA
339619,"2116 HIGH STREET","DES MOINES","IA",50312,41.587107411,-93.64534804,119,"2116 HIGH STREET, DES MOINES, IA, 50312","Match","Exact","2116 HIGH ST, DES MOINES, IA, 50312",65781079,"L"
339620,"2116 HIGHWAY 41 NORTH","CORDELE","GA",31015,NA,NA,120,"2116 HIGHWAY 41 NORTH, CORDELE, GA, 31015","No_Match",NA,NA,NA,NA
339621,"2116 HONEYBROOK ST","STOCKTON","CA",95209,38.055718959,-121.340948091,121,"2116 HONEYBROOK ST, STOCKTON, CA, 95209","Match","Exact","2116 HONEYBROOK ST, STOCKTON, CA, 95209",133892873,"R"
339622,"2116 INDA AVE","PENSACOLA","FL",32526,30.5004169010001,-87.2940317429999,122,"2116 INDA AVE, PENSACOLA, FL, 32526","Match","Exact","2116 INDA AVE, PENSACOLA, FL, 32526",93212649,"R"
339623,"2116 IRONWOOD AVE","STEVENS POINT","WI",54482,44.514171887,-89.510290307,123,"2116 IRONWOOD AVE, STEVENS POINT, WI, 54482","Match","Exact","2116 IRONWOOD AVE, STEVENS POINT, WI, 54482",126810572,"L"
339624,"2116 JARROD PLACE SE","SMYRNA","GA",30080,33.8596317860001,-84.508666349,124,"2116 JARROD PLACE SE, SMYRNA, GA, 30080","Match","Non_Exact","2116 JARROD PL, SMYRNA, GA, 30080",17218759,"L"
339625,"2116 JULIUS DR","AUGUSTA","GA",30906,NA,NA,125,"2116 JULIUS DR, AUGUSTA, GA, 30906","No_Match",NA,NA,NA,NA
339626,"2116 KANE PARK WAY","WINDERMERE","FL",34786,28.5133677260001,-81.5516204629999,126,"2116 KANE PARK WAY, WINDERMERE, FL, 34786","Match","Exact","2116 KANE PARK WAY, WINDERMERE, FL, 34786",606125000,"R"
339627,"2116 KLEMER ST","BAKERSFIELD","CA",93314,35.3783274470001,-119.16527518,127,"2116 KLEMER ST, BAKERSFIELD, CA, 93314","Match","Exact","2116 KLEMER ST, BAKERSFIELD, CA, 93314",109138388,"L"
339628,"2116 LIBERTY DRIVE","FORT COLLINS","CO",80521,40.5987444680001,-105.115843883,128,"2116 LIBERTY DRIVE, FORT COLLINS, CO, 80521","Match","Exact","2116 LIBERTY DR, FORT COLLINS, CO, 80521",188489230,"L"
339629,"2116 LUCILLE ST","ROCKFORD","IL",61104,42.2444394520001,-89.1011560699999,129,"2116 LUCILLE ST, ROCKFORD, IL, 61104","Match","Exact","2116 LUCILLE ST, ROCKFORD, IL, 61104",647231269,"L"
339630,"2116 LUFKIN DRIVE","HUNTSVILLE","AL",35810,34.7535454370001,-86.622527764,130,"2116 LUFKIN DRIVE, HUNTSVILLE, AL, 35810","Match","Non_Exact","2116 LUFKIN DR NW, HUNTSVILLE, AL, 35810",58116220,"R"
339631,"2116 LYMAN AVENUE","BIILINGS","MT",59102,45.7931848740001,-108.569990959,131,"2116 LYMAN AVENUE, BIILINGS, MT, 59102","Match","Non_Exact","2116 LYMAN AVE, BILLINGS, MT, 59102",181474458,"L"
339632,"2116 MADELIN DRIVE","ALEXANDRIA","LA",71301,NA,NA,132,"2116 MADELIN DRIVE, ALEXANDRIA, LA, 71301","No_Match",NA,NA,NA,NA
339633,"2116 MADELINE DRIVE","ALEXANDRIA","LA",71301,31.2670111370001,-92.474627198,133,"2116 MADELINE DRIVE, ALEXANDRIA, LA, 71301","Match","Exact","2116 MADELINE DR, ALEXANDRIA, LA, 71301",11810817,"R"
339634,"2116 MAPLE ST","BALDWIN","NY",11510,40.6589832940001,-73.62025263,134,"2116 MAPLE ST, BALDWIN, NY, 11510","Match","Exact","2116 MAPLE ST, BALDWIN, NY, 11510",147629666,"R"
339635,"2116 MARSH LN APT 1005","CARROLLTON","TX",75006,NA,NA,135,"2116 MARSH LN APT 1005, CARROLLTON, TX, 75006","No_Match",NA,NA,NA,NA
339636,"2116 MARSHALL CT","LANSDALE","PA",19446,40.250783315,-75.328364123,136,"2116 MARSHALL CT, LANSDALE, PA, 19446","Match","Exact","2116 MARSHALL CT, LANSDALE, PA, 19446",135112960,"R"
339637,"2116 MEREDITH WAY","ANTIOCH","CA",94509,37.985823601,-121.832958655,137,"2116 MEREDITH WAY, ANTIOCH, CA, 94509","Match","Exact","2116 MEREDITH WAY, ANTIOCH, CA, 94509",192068090,"R"
339638,"2116 MONTE CARLO TRAIL","ORLANDO","FL",32805,28.529450636,-81.407758701,138,"2116 MONTE CARLO TRAIL, ORLANDO, FL, 32805","Match","Exact","2116 MONTE CARLO TRL, ORLANDO, FL, 32805",94280978,"L"
339639,"2116 N 28TH STREET","PHOENIX","AZ",85008,33.4713966410001,-112.021574806,139,"2116 N 28TH STREET, PHOENIX, AZ, 85008","Match","Non_Exact","2116 N 28TH ST, PHOENIX, AZ, 85008",128222845,"L"
339640,"2116 N ALBRIGHT AVE","UPLAND","CA",91784,34.1402999640001,-117.662138183,140,"2116 N ALBRIGHT AVE, UPLAND, CA, 91784","Match","Exact","2116 ALBRIGHT AVE, UPLAND, CA, 91784",144669434,"R"
339641,"2116 N JOHN RUSSELL CIR APT B","ELKINS PARK","PA",19027,NA,NA,141,"2116 N JOHN RUSSELL CIR APT B, ELKINS PARK, PA, 19027","Tie",NA,NA,NA,NA
339642,"2116 N NATCHEZ AVENEUE APT 1N","CHCIAGO","IL",60707,NA,NA,142,"2116 N NATCHEZ AVENEUE APT 1N, CHCIAGO, IL, 60707","No_Match",NA,NA,NA,NA
339643,"2116 N NATCHEZ AVENUE  APT 1N","CHICAGO","IL",60707,41.918543379,-87.7877404989999,143,"2116 N NATCHEZ AVENUE  APT 1N, CHICAGO, IL, 60707","Match","Non_Exact","2116 N NATCHEZ AVE, CHICAGO, IL, 60707",650459665,"L"
339644,"2116 N NATCHEZ AVENUE APT 1N","CHICAGO","IL",60707,41.918543379,-87.7877404989999,144,"2116 N NATCHEZ AVENUE APT 1N, CHICAGO, IL, 60707","Match","Non_Exact","2116 N NATCHEZ AVE, CHICAGO, IL, 60707",650459665,"L"
339645,"2116 NE 18TH AVE","PORTLAND","OR",97212,45.5376668480001,-122.647334895,145,"2116 NE 18TH AVE, PORTLAND, OR, 97212","Match","Non_Exact","2116 NE 18TH AVE, PORTLAND, OR, 97212",157506596,"R"
339646,"2116 NE 8TH STREET","GAINESVILLE","FL",32609,NA,NA,146,"2116 NE 8TH STREET, GAINESVILLE, FL, 32609","Tie",NA,NA,NA,NA
339647,"2116 NORTH MARQUETTE","DAVENPORT","IA",52804,41.540942882,-90.591353009,147,"2116 NORTH MARQUETTE, DAVENPORT, IA, 52804","Match","Non_Exact","2116 N MARQUETTE ST, DAVENPORT, IA, 52804",122707005,"L"
339648,"2116 NW 99TH TERRACE","MIAMI","FL",33147,25.8651064160001,-80.23253912,148,"2116 NW 99TH TERRACE, MIAMI, FL, 33147","Match","Exact","2116 NW 99TH TER, MIAMI, FL, 33147",115998851,"R"
339649,"2116 OLIVE ST","TEXARKANA","TX",75501,33.4376619660001,-94.049425503,149,"2116 OLIVE ST, TEXARKANA, TX, 75501","Match","Exact","2116 OLIVE ST, TEXARKANA, TX, 75501",57670813,"R"
339650,"2116 PARKWOOD DR","BEDFORD","TX",76021,32.8400702660001,-97.137291306,150,"2116 PARKWOOD DR, BEDFORD, TX, 76021","Match","Exact","2116 PARKWOOD DR, BEDFORD, TX, 76021",102121383,"R"
339651,"2116 PENN AVE SOUTH","MINNEAPOLIS","MN",55405,44.9613673200001,-93.30837829,151,"2116 PENN AVE SOUTH, MINNEAPOLIS, MN, 55405","Match","Exact","2116 PENN AVE S, MINNEAPOLIS, MN, 55405",43624308,"R"
339652,"2116 POLYNESIA CIR","HENDERSON","NV",89074,36.031658414,-115.085298006,152,"2116 POLYNESIA CIR, HENDERSON, NV, 89074","Match","Exact","2116 POLYNESIA CIR, HENDERSON, NV, 89074",201911105,"R"
339653,"2116 PONDMEADE LN","MATTHEWS","NY",28104,NA,NA,153,"2116 PONDMEADE LN, MATTHEWS, NY, 28104","No_Match",NA,NA,NA,NA
339654,"2116 ROLLING HILLS DR","PEARLAND","TX",77581,29.5721226520001,-95.3342353039999,154,"2116 ROLLING HILLS DR, PEARLAND, TX, 77581","Match","Exact","2116 ROLLING HILLS DR, PEARLAND, TX, 77581",641915712,"L"
339655,"2116 RUSKIN AVE","THOUSAND OAKS","CA",91360,34.2070433260001,-118.868854407,155,"2116 RUSKIN AVE, THOUSAND OAKS, CA, 91360","Match","Exact","2116 RUSKIN AVE, THOUSAND OAKS, CA, 91360",109975182,"R"
339656,"2116 S EMERSON STREET","DEMING","NM",88030,32.248290308,-107.739452559,156,"2116 S EMERSON STREET, DEMING, NM, 88030","Match","Non_Exact","2116 S EMERSON DR, DEMING, NM, 88030",201343560,"L"
339657,"2116 S HARRIET LANE","ANAHEIM","CA",92804,33.812096873,-117.955800396,157,"2116 S HARRIET LANE, ANAHEIM, CA, 92804","Match","Non_Exact","2116 W HARRIET LN, ANAHEIM, CA, 92804",144023836,"L"
339658,"2116 S LINCOLN STREET","ARLINGTON","VA",22204,38.8500608430001,-77.0873701259999,158,"2116 S LINCOLN STREET, ARLINGTON, VA, 22204","Match","Exact","2116 S LINCOLN ST, ARLINGTON, VA, 22204",76471702,"R"
339659,"2116 SAGEBRUSH DR","FLOWER MOUND","TX",75028,33.0302442510001,-97.0604993159999,159,"2116 SAGEBRUSH DR, FLOWER MOUND, TX, 75028","Match","Exact","2116 SAGEBRUSH DR, FLOWER MOUND, TX, 75028",103424799,"L"
339660,"2116 SAINT ANDREWS COURT","DISCOVERY BAY","CA",94505,37.8950323990001,-121.600190387,160,"2116 SAINT ANDREWS COURT, DISCOVERY BAY, CA, 94505","Match","Exact","2116 SAINT ANDREWS CT, DISCOVERY BAY, CA, 94505",192079130,"R"
339661,"2116 SAWYERS BAR ROAD","ETNA","CA",96027,41.438029084,-122.908900286,161,"2116 SAWYERS BAR ROAD, ETNA, CA, 96027","Match","Exact","2116 SAWYERS BAR RD, ETNA, CA, 96027",113235617,"R"
339662,"2116 SEVEN OAKS DR","MEMPHIS","TN",38116,35.00582738,-89.993564611,162,"2116 SEVEN OAKS DR, MEMPHIS, TN, 38116","Match","Exact","2116 SEVEN OAKS DR, MEMPHIS, TN, 38116",636694164,"L"
339663,"2116 SEXTON DRIVE","NORTH LAS VEGAS","NV",89031,36.2711590800001,-115.172756595,163,"2116 SEXTON DRIVE, NORTH LAS VEGAS, NV, 89031","Match","Non_Exact","2116 SEXTON AVE, N LAS VEGAS, NV, 89031",201930932,"R"
339664,"2116 SHAWNEE DR","WASHINGTON","PA",15301,40.2075174340001,-80.209584358,164,"2116 SHAWNEE DR, WASHINGTON, PA, 15301","Match","Exact","2116 SHAWNEE DR, WASHINGTON, PA, 15301",651578631,"R"
339665,"2116 SHERBROOKE CIR","VIRGINIA BEACH","VA",23454,36.8688265440001,-76.0406109259999,165,"2116 SHERBROOKE CIR, VIRGINIA BEACH, VA, 23454","Match","Exact","2116 SHERBROOKE CIR, VIRGINIA BCH, VA, 23454",122275716,"R"
339666,"2116 SIDNEY ST","ST. LOUIS","MO",63104,38.604070386,-90.21920812,166,"2116 SIDNEY ST, ST. LOUIS, MO, 63104","Match","Exact","2116 SIDNEY ST, SAINT LOUIS, MO, 63104",107602599,"L"
339667,"2116 SOUTH 182ND CIRCLE","OMAHA","NE",68130,41.2388019590001,-96.199674306,167,"2116 SOUTH 182ND CIRCLE, OMAHA, NE, 68130","Match","Exact","2116 S 182ND CIR, OMAHA, NE, 68130",117000498,"R"
339668,"2116 SOUTHWINDS CIRCLE","HOOVER","AL",35244,33.3781222200001,-86.7674999979999,168,"2116 SOUTHWINDS CIRCLE, HOOVER, AL, 35244","Match","Exact","2116 SOUTHWINDS CIR, HOOVER, AL, 35244",82072730,"R"
339669,"2116 SPRING OAK COURT","MODESTO","CA",95355,37.694796425,-120.959634434,169,"2116 SPRING OAK COURT, MODESTO, CA, 95355","Match","Exact","2116 SPRING OAK CT, MODESTO, CA, 95355",102601180,"R"
339670,"2116 ST HEATHER LANE","GAMBRILLS","MD",21054,38.987353356,-76.66106896,170,"2116 ST HEATHER LANE, GAMBRILLS, MD, 21054","Match","Exact","2116 ST HEATHER LN, GAMBRILLS, MD, 21054",68182717,"R"
339671,"2116 SW WALDEN DRIVE","LEE SUMMIT","MO",64081,38.9065658590001,-94.416951147,171,"2116 SW WALDEN DRIVE, LEE SUMMIT, MO, 64081","Match","Non_Exact","2116 SW WALDEN DR, LEES SUMMIT, MO, 64081",91511774,"L"
339672,"2116 SWAN LANE","SAFETY HARBOR","FL",34695,28.02038115,-82.694156102,172,"2116 SWAN LANE, SAFETY HARBOR, FL, 34695","Match","Exact","2116 SWAN LN, SAFETY HARBOR, FL, 34695",124682544,"R"
339673,"2116 TOWER DRIVE","JEFFERSON CITY","MO",65109,38.5712402610001,-92.20847199,173,"2116 TOWER DRIVE, JEFFERSON CITY, MO, 65109","Match","Exact","2116 TOWER DR, JEFFERSON CITY, MO, 65109",34414862,"R"
339674,"2116 TRINIDAD DRIVE","DALLAS","TX",75232,32.6728008530001,-96.8524273579999,174,"2116 TRINIDAD DRIVE, DALLAS, TX, 75232","Match","Exact","2116 TRINIDAD DR, DALLAS, TX, 75232",102947639,"L"
339675,"2116 UTICA RD","CRYSTAL SPRINGS","MS",39059,32.012408382,-90.378704327,175,"2116 UTICA RD, CRYSTAL SPRINGS, MS, 39059","Match","Exact","2116 UTICA RD, CRYSTAL SPGS, MS, 39059",612364305,"R"
339676,"2116 VANDERBILT LN","AUSTIN","TX",78723,30.32026605,-97.681679031,176,"2116 VANDERBILT LN, AUSTIN, TX, 78723","Match","Exact","2116 VANDERBILT LN, AUSTIN, TX, 78723",63934985,"L"
339677,"2116 VICTORIA LANE","PRINCETON","TX",75407,33.1913548090001,-96.539556578,177,"2116 VICTORIA LANE, PRINCETON, TX, 75407","Match","Exact","2116 VICTORIA LN, PRINCETON, TX, 75407",649117789,"R"
339678,"2116 W 16TH ST","PUEBLO","CO",81003,38.281665796,-104.642883542,178,"2116 W 16TH ST, PUEBLO, CO, 81003","Match","Exact","2116 W 16TH ST, PUEBLO, CO, 81003",105024116,"L"
339679,"2116 W HARRIET LANE","ANAHEIM","CA",92804,33.812096873,-117.955800396,179,"2116 W HARRIET LANE, ANAHEIM, CA, 92804","Match","Exact","2116 W HARRIET LN, ANAHEIM, CA, 92804",144023836,"L"
339680,"2116 W SPRUCE ST","TAMPA","FL",33607,27.9593316510001,-82.4815662889999,180,"2116 W SPRUCE ST, TAMPA, FL, 33607","Match","Exact","2116 W SPRUCE ST, TAMPA, FL, 33607",104517142,"L"
339681,"2116 WATERFORD ROAD","SACRAMENTO","CA",95815,38.60453513,-121.423918615,181,"2116 WATERFORD ROAD, SACRAMENTO, CA, 95815","Match","Exact","2116 WATERFORD RD, SACRAMENTO, CA, 95815",133377829,"R"
339682,"2116 WEMBLEY PLACE","OVIEDO","FL",32765,28.6386292990001,-81.223095641,182,"2116 WEMBLEY PLACE, OVIEDO, FL, 32765","Match","Exact","2116 WEMBLEY PL, OVIEDO, FL, 32765",653180424,"R"
339683,"2116 WEST MEADOW","CARBONDALE","IL",62902,NA,NA,183,"2116 WEST MEADOW, CARBONDALE, IL, 62902","No_Match",NA,NA,NA,NA
339684,"2116 WHITE OAK LANE","AUBURN","AL",36830,32.562922558,-85.4702364,184,"2116 WHITE OAK LANE, AUBURN, AL, 36830","Match","Exact","2116 WHITE OAK LN, AUBURN, AL, 36830",1574743,"R"
339685,"2116 WILDWOOD DRIVE","Pekin","IL",61554,40.5376592600001,-89.6129283719999,185,"2116 WILDWOOD DRIVE, Pekin, IL, 61554","Match","Exact","2116 WILDWOOD DR, PEKIN, IL, 61554",22504531,"L"
339686,"2116 WILDWOOD DRIVE","PEKIN","IL",61554,40.5376592600001,-89.6129283719999,186,"2116 WILDWOOD DRIVE, PEKIN, IL, 61554","Match","Exact","2116 WILDWOOD DR, PEKIN, IL, 61554",22504531,"L"
339687,"2116 WINDSOR BLVD","BALTIMORE","MD",21207,39.3317364220001,-76.7369734119999,187,"2116 WINDSOR BLVD, BALTIMORE, MD, 21207","Match","Exact","2116 WINDSOR BLVD, BALTIMORE, MD, 21207",191508710,"L"
339688,"2116 WINSTON AVE","LOUISVILLE","KY",40205,38.2176336250001,-85.6819692609999,188,"2116 WINSTON AVE, LOUISVILLE, KY, 40205","Match","Exact","2116 WINSTON AVE, LOUISVILLE, KY, 40205",96884972,"R"
339689,"2116 WINTERSTONE WAY","BOWLING GREEN","KY",42104,36.9199415160001,-86.46575298,189,"2116 WINTERSTONE WAY, BOWLING GREEN, KY, 42104","Match","Non_Exact","2116 WINTERSTONE AVE, BOWLING GREEN, KY, 42104",651537703,"R"
339690,"2116 WOLF RIDGE LANE","MOUNT DORA","FL",32757,28.816393856,-81.620204125,190,"2116 WOLF RIDGE LANE, MOUNT DORA, FL, 32757","Match","Exact","2116 WOLF RIDGE LN, MOUNT DORA, FL, 32757",618477340,"R"
339691,"2116 ZABEL DRIVE","CHARLESTON","WV",25387,38.3877157410001,-81.680199176,191,"2116 ZABEL DRIVE, CHARLESTON, WV, 25387","Match","Exact","2116 ZABEL DR, CHARLESTON, WV, 25387",78659760,"R"
339692,"2116","M","FL",32757,NA,NA,192,"2116, M, FL, 32757","No_Match",NA,NA,NA,NA
339693,"21160 S 2375TH RD","FAIR PLAY","MO",65649,37.587181055,-93.642928354,193,"21160 S 2375TH RD, FAIR PLAY, MO, 65649","Match","Exact","21160 S 2375TH RD, FAIR PLAY, MO, 65649",651294594,"R"
339694,"21161 ISOTOPE TRAIL","LAKEVILLE","MN",55044,44.6419129720001,-93.2638669039999,194,"21161 ISOTOPE TRAIL, LAKEVILLE, MN, 55044","Match","Exact","21161 ISOTOPE TRL, LAKEVILLE, MN, 55044",624733361,"L"
339695,"21161 ISOTOPE TRL","LAKEVILLE","MN",55044,44.6419129720001,-93.2638669039999,195,"21161 ISOTOPE TRL, LAKEVILLE, MN, 55044","Match","Exact","21161 ISOTOPE TRL, LAKEVILLE, MN, 55044",624733361,"L"
339696,"21161 MALSBARY STREET","RIVERDALE","CA",93656,36.4291438220001,-119.861412699,196,"21161 MALSBARY STREET, RIVERDALE, CA, 93656","Match","Exact","21161 MALSBARY ST, RIVERDALE, CA, 93656",197589622,"R"
339697,"21162 GREENBORO LANE","HUNTINGTON BEACH","CA",92646,33.6557028280001,-117.978302048,197,"21162 GREENBORO LANE, HUNTINGTON BEACH, CA, 92646","Match","Exact","21162 GREENBORO LN, HUNTINGTON BEACH, CA, 92646",144021292,"L"
339698,"21162 SW 112TH  AVENUE APT109","MIAMI","FL",33189,NA,NA,198,"21162 SW 112TH  AVENUE APT109, MIAMI, FL, 33189","No_Match",NA,NA,NA,NA
339699,"21163 BRAXFIELD LOOP","ESTERO","FL",33928,26.4353870360001,-81.759000487,199,"21163 BRAXFIELD LOOP, ESTERO, FL, 33928","Match","Exact","21163 BRAXFIELD LOOP, ESTERO, FL, 33928",118113829,"L"
339700,"21163 E ASPEN VALLEY DR","QUEEN CREEK","AZ",85142,33.242738699,-111.625071228,200,"21163 E ASPEN VALLEY DR, QUEEN CREEK, AZ, 85142","Match","Exact","21163 E ASPEN VALLEY DR, QUEEN CREEK, AZ, 85142",244002458,"R"
339701,"21163 NEWPORT COAST DR STE 47","NEWPORT COAST","CA",92657,NA,NA,201,"21163 NEWPORT COAST DR STE 47, NEWPORT COAST, CA, 92657","No_Match",NA,NA,NA,NA
339702,"21163 W 118TH TERR","OLATHE","KS",66061,38.9135911920001,-94.831899349,202,"21163 W 118TH TERR, OLATHE, KS, 66061","Match","Exact","21163 W 118TH TER, OLATHE, KS, 66061",91327871,"R"
339703,"21165 CR4147","LINDALE","TX",75771,32.58114956,-95.51975652,203,"21165 CR4147, LINDALE, TX, 75771","Match","Exact","21165 CO RD 4147, LINDALE, TX, 75771",141302220,"L"
339704,"21165 GARDEN AVE 15","HAYWARD","CA",94541,37.668708075,-122.111528027,204,"21165 GARDEN AVE 15, HAYWARD, CA, 94541","Match","Exact","21165 GARDEN AVE, HAYWARD, CA, 94541",125020060,"R"
339705,"21165 MAIN RD","ORIENT","NY",11957,41.1438238000001,-72.307772648,205,"21165 MAIN RD, ORIENT, NY, 11957","Match","Exact","21165 MAIN RD, ORIENT, NY, 11957",114066220,"R"
339706,"21166 AVENUE 304","EXETER","CA",93221,36.340196387,-119.1002885,206,"21166 AVENUE 304, EXETER, CA, 93221","Match","Exact","21166 AVE 304, EXETER, CA, 93221",647251128,"R"
339707,"21167 CCC MEMORIAL HIGHWAY","EMPORIUM","PA",15834,41.4464045990001,-78.176650454,207,"21167 CCC MEMORIAL HIGHWAY, EMPORIUM, PA, 15834","Match","Exact","21167 CCC MEMORIAL HWY, EMPORIUM, PA, 15834",126263767,"R"
339708,"21167 PERMIT LANE","MIAMI","FL",33189,25.5709660630001,-80.347557743,208,"21167 PERMIT LANE, MIAMI, FL, 33189","Match","Exact","21167 PERMIT LN, MIAMI, FL, 33189",116084961,"L"
339709,"21167 RTIZ PLACE","BEND","OR",97702,NA,NA,209,"21167 RTIZ PLACE, BEND, OR, 97702","No_Match",NA,NA,NA,NA
339710,"21167 SAN MIGUEL ST","WOODLAND HILLS","CA",90089,34.159694142,-118.592501224,210,"21167 SAN MIGUEL ST, WOODLAND HILLS, CA, 90089","Match","Non_Exact","21167 SAN MIGUEL ST, WOODLAND HLS, CA, 91364",638622157,"R"
339711,"2117 10TH STREET PLACE","NEVADA","IA",50201,42.0311676150001,-93.445332558,211,"2117 10TH STREET PLACE, NEVADA, IA, 50201","Match","Exact","2117 10TH STREET PL, NEVADA, IA, 50201",65943232,"R"
339712,"2117 110TH ST","CRESTON","IA",50801,41.1432065930001,-94.257168882,212,"2117 110TH ST, CRESTON, IA, 50801","Match","Exact","2117 110TH ST, CRESTON, IA, 50801",75243337,"R"
339713,"2117 11TH ST","WYANDOTTE","MI",48192,42.2126459340001,-83.1663683309999,213,"2117 11TH ST, WYANDOTTE, MI, 48192","Match","Exact","2117 11TH ST, WYANDOTTE, MI, 48192",95452860,"L"
339714,"2117 1ST AVENUE NORTH","BIRMINGHAM","AL",35203,33.5152465240001,-86.803961859,214,"2117 1ST AVENUE NORTH, BIRMINGHAM, AL, 35203","Match","Exact","2117 1ST AVE N, BIRMINGHAM, AL, 35203",81575901,"R"
339715,"2117 201ST PL SW","LYNNWOOD","WA",98036,47.8157429940001,-122.262240331,215,"2117 201ST PL SW, LYNNWOOD, WA, 98036","Match","Exact","2117 201ST PL SW, LYNNWOOD, WA, 98036",625102777,"R"
339716,"2117 212TH STREET LOOP","MILFORD","IA",51351,NA,NA,216,"2117 212TH STREET LOOP, MILFORD, IA, 51351","No_Match",NA,NA,NA,NA
339717,"2117 24TH AVENUE N","TEXAS CITY","TX",77590,29.4069779280001,-94.9262310559999,217,"2117 24TH AVENUE N, TEXAS CITY, TX, 77590","Match","Exact","2117 24TH AVE N, TEXAS CITY, TX, 77590",96687102,"L"
339718,"2117 57TH AVENUE","SACRAMENTO","CA",95822,38.498993226,-121.489650413,218,"2117 57TH AVENUE, SACRAMENTO, CA, 95822","Match","Exact","2117 57TH AVE, SACRAMENTO, CA, 95822",133350666,"L"
339719,"2117 ALTA AVE","LOUISVILLE","KY",40205,38.233278645,-85.702874553,219,"2117 ALTA AVE, LOUISVILLE, KY, 40205","Match","Exact","2117 ALTA AVE, LOUISVILLE, KY, 40205",618508208,"L"
339720,"2117 AMERICANA AVE","MUSCATINE","IA",52761,41.4281313270001,-91.068857254,220,"2117 AMERICANA AVE, MUSCATINE, IA, 52761","Match","Exact","2117 AMERICANA AVE, MUSCATINE, IA, 52761",99006179,"R"
339721,"2117 ANGEL FISH LOOP","LEESBURG","FL",34748,28.813274236,-81.8445004879999,221,"2117 ANGEL FISH LOOP, LEESBURG, FL, 34748","Match","Exact","2117 ANGEL FISH LOOP, LEESBURG, FL, 34748",651197211,"R"
339722,"2117 APPOMATTOX","EDWARDSVILLE","IL",62025,38.7863770390001,-89.937404425,222,"2117 APPOMATTOX, EDWARDSVILLE, IL, 62025","Match","Non_Exact","2117 APPOMATTOX CT, EDWARDSVILLE, IL, 62025",107726832,"L"
339723,"2117 ARMADA DRIVE","CHESAPEAKE","VA",23321,NA,NA,223,"2117 ARMADA DRIVE, CHESAPEAKE, VA, 23321","Tie",NA,NA,NA,NA
339724,"2117 ASHLAND AVE","RACINE","WI",53403,42.7040444020001,-87.8094447409999,224,"2117 ASHLAND AVE, RACINE, WI, 53403","Match","Exact","2117 ASHLAND AVE, RACINE, WI, 53403",77909717,"L"
339725,"2117 ASILOMAR DRIVE","ANTIOCH","CA",94509,37.9726687850001,-121.789275161,225,"2117 ASILOMAR DRIVE, ANTIOCH, CA, 94509","Match","Exact","2117 ASILOMAR DR, ANTIOCH, CA, 94509",192099819,"R"
339726,"2117 AUTUMN MEADOW TRAIL","DALLAS","TX",75232,32.658286585,-96.854050532,226,"2117 AUTUMN MEADOW TRAIL, DALLAS, TX, 75232","Match","Exact","2117 AUTUMN MEADOW TRL, DALLAS, TX, 75232",102971711,"R"
339727,"2117 BANE RD","EFLAND","NC",27243,36.117045767,-79.157628911,227,"2117 BANE RD, EFLAND, NC, 27243","Match","Exact","2117 BANE RD, EFLAND, NC, 27243",72411952,"R"
339728,"2117 BARTOLOME ROAD","NEPTUNE BEACH","FL",32266,30.3214638740001,-81.422449117,228,"2117 BARTOLOME ROAD, NEPTUNE BEACH, FL, 32266","Match","Exact","2117 BARTOLOME RD, NEPTUNE BEACH, FL, 32266",83963357,"R"
339729,"2117 BARTON AVE","WEST BEND","WI",53090,43.4461369650001,-88.1761930979999,229,"2117 BARTON AVE, WEST BEND, WI, 53090","Match","Exact","2117 BARTON AVE, WEST BEND, WI, 53090",600618323,"R"
339730,"2117 BEDFORD WAY","COLUMBIA","SC",29209,33.968377119,-80.907789526,230,"2117 BEDFORD WAY, COLUMBIA, SC, 29209","Match","Exact","2117 BEDFORD WAY, COLUMBIA, SC, 29209",71830855,"L"
339731,"2117 BELCOURT AVENUE","NASHVILLE","TN",37212,36.1368781350001,-86.803544473,231,"2117 BELCOURT AVENUE, NASHVILLE, TN, 37212","Match","Exact","2117 BELCOURT AVE, NASHVILLE, TN, 37212",606825792,"L"
339732,"2117 BLUEBIRD STREET","SAN DIEGO","CA",92114,32.7275534510001,-117.056335797,232,"2117 BLUEBIRD STREET, SAN DIEGO, CA, 92114","Match","Exact","2117 BLUEBIRD ST, SAN DIEGO, CA, 92114",195351590,"R"
339733,"2117 BRAINSTORM RD","BRAINTREE","VT",5060,43.99839703,-72.663553731,233,"2117 BRAINSTORM RD, BRAINTREE, VT, 5060","Match","Exact","2117 BRAINSTORM RD, BRAINTREE, VT, 05060",639580840,"L"
339734,"2117 BRAYHILL COURT","EDMOND","OK",73003,35.675934424,-97.501020594,234,"2117 BRAYHILL COURT, EDMOND, OK, 73003","Match","Exact","2117 BRAYHILL CT, EDMOND, OK, 73003",617261106,"L"
339735,"2117 BRISTOL AVENUE","LAKELAND","FL",33803,28.018332618,-81.9622300509999,235,"2117 BRISTOL AVENUE, LAKELAND, FL, 33803","Match","Exact","2117 BRISTOL AVE, LAKELAND, FL, 33803",104811054,"R"
339736,"2117 BUCOLIC CT","NOLENSVILLE","TN",37135,35.9598046830001,-86.687539226,236,"2117 BUCOLIC CT, NOLENSVILLE, TN, 37135","Match","Exact","2117 BUCOLIC CT, NOLENSVILLE, TN, 37135",614927719,"R"
339737,"2117 CAMINO LA VIS","FULLERTON","CA",92833,33.8934952170001,-117.949096792,237,"2117 CAMINO LA VIS, FULLERTON, CA, 92833","Match","Exact","2117 CAMINO LA VIS, FULLERTON, CA, 92833",144008394,"L"
339738,"2117 CANARSIE RD","BROOKLYN","NY",11236,40.6311422150001,-73.889618904,238,"2117 CANARSIE RD, BROOKLYN, NY, 11236","Match","Exact","2117 CANARSIE RD, BROOKLYN, NY, 11236",59087138,"L"
339739,"2117 CANYON DRIVE","WINTERVILLE","NC",28590,35.5478153450001,-77.426848566,239,"2117 CANYON DRIVE, WINTERVILLE, NC, 28590","Match","Exact","2117 CANYON DR, WINTERVILLE, NC, 28590",80040624,"R"
339740,"2117 CARLSON RD APT B","VANCOUVER","WA",98661,45.6373299580001,-122.617683831,240,"2117 CARLSON RD APT B, VANCOUVER, WA, 98661","Match","Exact","2117 CARLSON RD, VANCOUVER, WA, 98661",158334260,"R"
339741,"2117 CARLSON RD APTB","VANCOUVER","WA",98661,45.6373299580001,-122.617683831,241,"2117 CARLSON RD APTB, VANCOUVER, WA, 98661","Match","Exact","2117 CARLSON RD, VANCOUVER, WA, 98661",158334260,"R"
339742,"2117 CAROL DRIVE","LEWISTON","ID",83501,46.39939467,-117.032022257,242,"2117 CAROL DRIVE, LEWISTON, ID, 83501","Match","Exact","2117 CAROL DR, LEWISTON, ID, 83501",173150436,"R"
339743,"2117 CATHEDRAL OF LEARNING","PITTSBURGH","PA",15260,NA,NA,243,"2117 CATHEDRAL OF LEARNING, PITTSBURGH, PA, 15260","No_Match",NA,NA,NA,NA
339744,"2117 CHARINGWOOD DRIVE WEST","MOBILE","AL",36695,30.6464078720001,-88.195266435,244,"2117 CHARINGWOOD DRIVE WEST, MOBILE, AL, 36695","Match","Exact","2117 CHARINGWOOD DR W, MOBILE, AL, 36695",61872281,"L"
339745,"2117 CHARMARIE CT","MARIETTA","GA",30062,34.0096932610001,-84.4819360929999,245,"2117 CHARMARIE CT, MARIETTA, GA, 30062","Match","Exact","2117 CHARMARIE CT, MARIETTA, GA, 30062",17263084,"R"
339746,"2117 CHESTER ST","KANSAS CITY","KS",66103,39.0645597610001,-94.610156999,246,"2117 CHESTER ST, KANSAS CITY, KS, 66103","Match","Non_Exact","2117 CHESTER AVE, KANSAS CITY, KS, 66103",91143128,"L"
339747,"2117 CLARK LANE UNIT A","REDONDO BEACH","CA",90278,33.866162687,-118.374354749,247,"2117 CLARK LANE UNIT A, REDONDO BEACH, CA, 90278","Match","Exact","2117 CLARK LN, REDONDO BEACH, CA, 90278",141663304,"L"
339748,"2117 CLOVER SPRINGS DR","HASLET","TX",76052,32.982060818,-97.406678404,248,"2117 CLOVER SPRINGS DR, HASLET, TX, 76052","Match","Exact","2117 CLOVER SPRINGS DR, HASLET, TX, 76052",102114180,"R"
339749,"2117 CLYDETON ROAD","WAVERLY","TN",37185,36.1104843300001,-87.81112018,249,"2117 CLYDETON ROAD, WAVERLY, TN, 37185","Match","Exact","2117 CLYDETON RD, WAVERLY, TN, 37185",607867225,"L"
339750,"2117 COLFAX AVE SOUTH APT 5","MINNEAPOLIS","MN",55405,44.961895473,-93.291809638,250,"2117 COLFAX AVE SOUTH APT 5, MINNEAPOLIS, MN, 55405","Match","Exact","2117 COLFAX AVE S, MINNEAPOLIS, MN, 55405",43624672,"L"
339751,"2117 CRIGAN BLUFF DR","CARY","NC",27513,35.7947221680001,-78.8129742639999,251,"2117 CRIGAN BLUFF DR, CARY, NC, 27513","Match","Exact","2117 CRIGAN BLUFF DR, CARY, NC, 27513",612819625,"L"
339752,"2117 CUNNINGHAM DRIVE 203","HAMPTON","VA",23666,37.0467988010001,-76.390210316,252,"2117 CUNNINGHAM DRIVE 203, HAMPTON, VA, 23666","Match","Exact","2117 CUNNINGHAM DR, HAMPTON, VA, 23666",103757388,"L"
339753,"2117 DIAMOND BROOK CT","LAS VEGAS","NV",89117,36.148532715,-115.278697651,253,"2117 DIAMOND BROOK CT, LAS VEGAS, NV, 89117","Match","Exact","2117 DIAMOND BROOK CT, LAS VEGAS, NV, 89117",201982700,"R"
339754,"2117 E 60TH ST","TULSA","OK",74105,36.0772675360001,-95.9618593599999,254,"2117 E 60TH ST, TULSA, OK, 74105","Match","Exact","2117 E 60TH ST, TULSA, OK, 74105",166508641,"R"
339755,"2117 E 98TH PLACE","CHICAGO","IL",60617,41.7161552760001,-87.573576599,255,"2117 E 98TH PLACE, CHICAGO, IL, 60617","Match","Non_Exact","2117 E 98TH PL, CHICAGO, IL, 60617",111777038,"R"
339756,"2117 E CATHEDRAL ROCK","PHOENIX","AZ",85048,33.306393959,-112.037719696,256,"2117 E CATHEDRAL ROCK, PHOENIX, AZ, 85048","Match","Non_Exact","2117 E CATHEDRAL ROCK DR, PHOENIX, AZ, 85048",128369028,"L"
339757,"2117 E TERRACE ST","SEATTLE","WA",98122,47.605152999,-122.304760862,257,"2117 E TERRACE ST, SEATTLE, WA, 98122","Match","Exact","2117 E TERRACE ST, SEATTLE, WA, 98122",186593021,"R"
339758,"2117 EAST 65TH ST","TACOMA","WA",98404,47.1984572320001,-122.401101588,258,"2117 EAST 65TH ST, TACOMA, WA, 98404","Match","Exact","2117 E 65TH ST, TACOMA, WA, 98404",184630665,"L"
339759,"2117 EAST HELEN STREET","FAYETTEVILLE","AR",72701,36.0512100350001,-94.131403195,259,"2117 EAST HELEN STREET, FAYETTEVILLE, AR, 72701","Match","Exact","2117 E HELEN ST, FAYETTEVILLE, AR, 72701",49046944,"R"
339760,"2117 EASY AVENUE","LONG BEACH","CA",90810,33.795694079,-118.210009638,260,"2117 EASY AVENUE, LONG BEACH, CA, 90810","Match","Exact","2117 EASY AVE, LONG BEACH, CA, 90810",141685653,"L"
339761,"2117 ELKINS ROAD","KODAK","TN",37964,35.9774840160001,-83.667952379,261,"2117 ELKINS ROAD, KODAK, TN, 37964","Match","Non_Exact","2117 ELKINS RD, KODAK, TN, 37764",42636536,"L"
339762,"2117 EMANUEL STREET","GEORGETOWN","SC",29440,33.374826451,-79.303514713,262,"2117 EMANUEL STREET, GEORGETOWN, SC, 29440","Match","Exact","2117 EMANUEL ST, GEORGETOWN, SC, 29440",28966380,"L"
339763,"2117 ESTAUGH STREET","PHILADELPHIA","PA",19140,40.0069473830001,-75.163800572,263,"2117 ESTAUGH STREET, PHILADELPHIA, PA, 19140","Match","Exact","2117 ESTAUGH ST, PHILADELPHIA, PA, 19140",131402402,"R"
339764,"2117 FAIRMONT","MCALLEN","TX",78504,26.280149673,-98.229887761,264,"2117 FAIRMONT, MCALLEN, TX, 78504","Match","Non_Exact","2117 FAIRMONT AVE, MCALLEN, TX, 78504",71559129,"L"
339765,"2117 FIRST ST NW","WASHINGTON","DC",20020,38.9183448960001,-77.012141162,265,"2117 FIRST ST NW, WASHINGTON, DC, 20020","Match","Non_Exact","2117 1ST ST NW, WASHINGTON, DC, 20001",76224587,"R"
339766,"2117 FOREST HILLS RD","WILSON","NC",27893,NA,NA,266,"2117 FOREST HILLS RD, WILSON, NC, 27893","No_Match",NA,NA,NA,NA
339767,"2117 FRANKLIN PLACE","CANTON","OH",44709,NA,NA,267,"2117 FRANKLIN PLACE, CANTON, OH, 44709","No_Match",NA,NA,NA,NA
339768,"2117 GALLANT FOX COURT","WAXHAW","NC",28173,34.9960476140001,-80.801720195,268,"2117 GALLANT FOX COURT, WAXHAW, NC, 28173","Match","Exact","2117 GALLANT FOX CT, WAXHAW, NC, 28173",14206351,"L"
339769,"2117 HALLWOOD DRIVE","MEMPHIS","TN",38107,35.161278361,-89.9880247789999,269,"2117 HALLWOOD DRIVE, MEMPHIS, TN, 38107","Match","Exact","2117 HALLWOOD DR, MEMPHIS, TN, 38107",72979498,"R"
339770,"2117 HARTLAND BLVD","INDEPENDENCE","KY",41051,38.939211073,-84.5364151109999,270,"2117 HARTLAND BLVD, INDEPENDENCE, KY, 41051","Match","Exact","2117 HARTLAND BLVD, INDEPENDENCE, KY, 41051",103886767,"R"
339771,"2117 HIDDEN VALLEY DRIVE","CROWN POINT","IN",46307,41.403982613,-87.210875836,271,"2117 HIDDEN VALLEY DRIVE, CROWN POINT, IN, 46307","Match","Exact","2117 HIDDEN VALLEY DR, CROWN POINT, IN, 46307",119911883,"R"
339772,"2117 HIGH RIDGE ROAD","STAMFORD","CT",6903,41.1419584590001,-73.545937592,272,"2117 HIGH RIDGE ROAD, STAMFORD, CT, 6903","Match","Exact","2117 HIGH RIDGE RD, STAMFORD, CT, 06903",613959517,"R"
339773,"2117 HIGHWAY 80 EAST 201","MESQUITE","TX",75150,32.7933589350001,-96.628496551,273,"2117 HIGHWAY 80 EAST 201, MESQUITE, TX, 75150","Match","Non_Exact","2117 US HWY 80 E, MESQUITE, TX, 75150",103200138,"R"
339774,"2117 HIRAM LANE","HUDSON","OH",44236,41.278773653,-81.438179583,274,"2117 HIRAM LANE, HUDSON, OH, 44236","Match","Exact","2117 HIRAM LN, HUDSON, OH, 44236",61391053,"R"
339775,"2117 HOBKIRKS HILL","MCKINNEY","TX",75070,33.163081988,-96.6492610559999,275,"2117 HOBKIRKS HILL, MCKINNEY, TX, 75070","Match","Exact","2117 HOBKIRKS HILL, MCKINNEY, TX, 75070",614138053,"L"
339776,"2117 HOLLOW SPRINGS RD","WOODBURY","TN",37190,35.727475359,-86.0721618329999,276,"2117 HOLLOW SPRINGS RD, WOODBURY, TN, 37190","Match","Exact","2117 HOLLOW SPRINGS RD, WOODBURY, TN, 37190",87948521,"R"
339777,"2117 HOLLYWOOD BLVD","HOLLYWOOD","FL",33020,26.0114175630001,-80.149651702,277,"2117 HOLLYWOOD BLVD, HOLLYWOOD, FL, 33020","Match","Exact","2117 HOLLYWOOD BLVD, HOLLYWOOD, FL, 33020",114730579,"R"
339778,"2117 HOPE DR","FLORENCE","SC",29501,34.233242918,-79.785604522,278,"2117 HOPE DR, FLORENCE, SC, 29501","Match","Non_Exact","2117 NEW HOPE DR, FLORENCE, SC, 29501",28875947,"L"
339779,"2117 JOCKEY HOLLOW DR NW","KENNESAW","GA",30152,34.007403212,-84.664983669,279,"2117 JOCKEY HOLLOW DR NW, KENNESAW, GA, 30152","Match","Exact","2117 JOCKEY HOLLOW DR NW, KENNESAW, GA, 30152",17207834,"L"
339780,"2117 JOMAR ST","SAN ANGELO","TX",76901,31.4682530850001,-100.47440469,280,"2117 JOMAR ST, SAN ANGELO, TX, 76901","Match","Exact","2117 JOMAR ST, SAN ANGELO, TX, 76901",190678766,"L"
339781,"2117 KEEGAN CT","MATTHEWS","NC",28104,35.0375622820001,-80.752639406,281,"2117 KEEGAN CT, MATTHEWS, NC, 28104","Match","Exact","2117 KEEGAN CT, MATTHEWS, NC, 28104",14186311,"L"
339782,"2117 KEEGAN CT","MATTHEWS","NC",NA,35.0375622820001,-80.752639406,282,"2117 KEEGAN CT, MATTHEWS, NC, ","Match","Exact","2117 KEEGAN CT, MATTHEWS, NC, 28104",14186311,"L"
339783,"2117 KENWOOD PKWY","MINNEAPOLIS","MN",55405,44.9607456590001,-93.310751811,283,"2117 KENWOOD PKWY, MINNEAPOLIS, MN, 55405","Match","Exact","2117 KENWOOD PKWY, MINNEAPOLIS, MN, 55405",43833238,"L"
339784,"2117 KUEHNLE AVE","ATLANTIC CITY","NJ",8401,39.3727666250001,-74.451603698,284,"2117 KUEHNLE AVE, ATLANTIC CITY, NJ, 8401","Match","Exact","2117 KUEHNLE AVE, ATLANTIC CITY, NJ, 08401",202488009,"R"
339785,"2117 LINDEN AVE","MEMPHIS","TN",38104,35.1331948910001,-89.991714107,285,"2117 LINDEN AVE, MEMPHIS, TN, 38104","Match","Exact","2117 LINDEN AVE, MEMPHIS, TN, 38104",72912704,"R"
339786,"2117 LYNDON AVE","RED BANK","TN",37415,35.0908914570001,-85.309688778,286,"2117 LYNDON AVE, RED BANK, TN, 37415","Match","Non_Exact","2117 LYNDON AVE W, RED BANK, TN, 37415",59303144,"L"
339787,"2117 MANDAN TRAIL","BAR NUNN","WY",82601,42.923487284,-106.348345803,287,"2117 MANDAN TRAIL, BAR NUNN, WY, 82601","Match","Exact","2117 MANDAN TRL, BAR NUNN, WY, 82601",635984678,"R"
339788,"2117 MANHATTAN PKWY","DECATUR","GA",30035,33.7331110270001,-84.197755211,288,"2117 MANHATTAN PKWY, DECATUR, GA, 30035","Match","Exact","2117 MANHATTAN PKWY, DECATUR, GA, 30035",629763052,"L"
339789,"2117 MONTEREY PKWY","ATLANTA","GA",30350,33.9622618990001,-84.3759104119999,289,"2117 MONTEREY PKWY, ATLANTA, GA, 30350","Match","Exact","2117 MONTEREY PKWY, ATLANTA, GA, 30350",17431197,"L"
339790,"2117 MT EPHRAIM AVENUE","CAMDEN","NJ",8104,39.918007464,-75.101977494,290,"2117 MT EPHRAIM AVENUE, CAMDEN, NJ, 8104","Match","Exact","2117 MOUNT EPHRAIM AVE, CAMDEN, NJ, 08104",134348039,"R"
339791,"2117 N 59TH STREET","PHILADELPHIA","PA",19131,39.9854843160001,-75.240343949,291,"2117 N 59TH STREET, PHILADELPHIA, PA, 19131","Match","Exact","2117 N 59TH ST, PHILADELPHIA, PA, 19131",131397200,"R"
339792,"2117 N CLEVELAND AVE","CHICAGO","IL",60614,41.92050994,-87.64130797,292,"2117 N CLEVELAND AVE, CHICAGO, IL, 60614","Match","Exact","2117 N CLEVELAND AVE, CHICAGO, IL, 60614",111767326,"R"
339793,"2117 N HOWARD ST","BALTIMORE","MD",21218,39.3133526570001,-76.619466051,293,"2117 N HOWARD ST, BALTIMORE, MD, 21218","Match","Exact","2117 N HOWARD ST, BALTIMORE, MD, 21218",206464564,"R"
339794,"2117 N KEDZIE BLVD APT 3F","CHICAGO","IL",60647,41.9196996320001,-87.706971976,294,"2117 N KEDZIE BLVD APT 3F, CHICAGO, IL, 60647","Match","Non_Exact","2117 KEDZIE AVE, CHICAGO, IL, 60647",604958009,"L"
339795,"2117 N PERRY ST","SPOKANE","WA",99207,47.6772022500001,-117.389850746,295,"2117 N PERRY ST, SPOKANE, WA, 99207","Match","Exact","2117 N PERRY ST, SPOKANE, WA, 99207",619324356,"L"
339796,"2117 NC HWY 37 S","HOBBSVILLE","NC",27946,36.353774737,-76.639395243,296,"2117 NC HWY 37 S, HOBBSVILLE, NC, 27946","Match","Non_Exact","2117 STATE HWY 37 S, HOBBSVILLE, NC, 27946",18577992,"L"
339797,"2117 NEW CASTLE CT","DAVENPORT","IA",52807,41.5616159040001,-90.545984006,297,"2117 NEW CASTLE CT, DAVENPORT, IA, 52807","Match","Exact","2117 NEW CASTLE CT, DAVENPORT, IA, 52807",122714711,"R"
339798,"2117 NEWTON LN","MCKINNEY","TX",75071,33.2224016210001,-96.688919374,298,"2117 NEWTON LN, MCKINNEY, TX, 75071","Match","Exact","2117 NEWTON LN, MCKINNEY, TX, 75071",650326707,"L"
339799,"2117 NORTH 11TH STREET","MILWAUKEE","WI",53208,43.0581397,-87.925558451,299,"2117 NORTH 11TH STREET, MILWAUKEE, WI, 53208","Match","Non_Exact","2117 N 11TH ST, MILWAUKEE, WI, 53205",77739368,"L"
339800,"2117 NW 49TH AVENUE","COCONUT CREEK","FL",33063,26.2531994440001,-80.1917806979999,300,"2117 NW 49TH AVENUE, COCONUT CREEK, FL, 33063","Match","Exact","2117 NW 49TH AVE, COCONUT CREEK, FL, 33063",114798612,"R"
339801,"2117 O AVENUE","ANACORTES","WA",98221,48.505143423,-122.614248729,301,"2117 O AVENUE, ANACORTES, WA, 98221","Match","Exact","2117 O AVE, ANACORTES, WA, 98221",183641885,"R"
339802,"2117 OAK RIDGE DRIVE","AVA","MO",65608,36.967702574,-92.6869552159999,302,"2117 OAK RIDGE DRIVE, AVA, MO, 65608","Match","Non_Exact","2117 OAKRIDGE DR, AVA, MO, 65608",46284190,"L"
339803,"2117 OAKMONT DRIVE","RIVIERA BEACH","FL",33404,26.7899221540001,-80.088094063,303,"2117 OAKMONT DRIVE, RIVIERA BEACH, FL, 33404","Match","Exact","2117 OAKMONT DR, RIVIERA BEACH, FL, 33404",624443218,"R"
339804,"2117 PAILET STREET","HARVEY","LA",70058,29.8804292620001,-90.068513764,304,"2117 PAILET STREET, HARVEY, LA, 70058","Match","Non_Exact","2117 PAILET AVE, HARVEY, LA, 70058",93509571,"L"
339805,"2117 PENNSYLVANIA AVE","WEST MIFFLIN","PA",15122,40.3614537720001,-79.868147542,305,"2117 PENNSYLVANIA AVE, WEST MIFFLIN, PA, 15122","Match","Exact","2117 PENNSYLVANIA AVE, WEST MIFFLIN, PA, 15122",51671794,"L"
339806,"2117 PERLINE CT","GRAND BLANC","MI",48439,42.8928996000001,-83.6670009329999,306,"2117 PERLINE CT, GRAND BLANC, MI, 48439","Match","Non_Exact","2117 PERLIN CT, GRAND BLANC, MI, 48439",69595315,"L"
339807,"2117 PHILADELPHIA STREET SUITE 100","AMES","IA",50010,42.035415582,-93.5847932459999,307,"2117 PHILADELPHIA STREET SUITE 100, AMES, IA, 50010","Match","Exact","2117 PHILADELPHIA ST, AMES, IA, 50010",65963887,"R"
339808,"2117 PORTE DELEAU CT","HIGHLAND","IN",46322,41.5378678800001,-87.4788323669999,308,"2117 PORTE DELEAU CT, HIGHLAND, IN, 46322","Match","Non_Exact","2117 PORTE DE LEAU CT, HIGHLAND, IN, 46322",98446848,"L"
339809,"2117 POST OAK RD","ABILENE","TX",79605,32.422858783,-99.776840603,309,"2117 POST OAK RD, ABILENE, TX, 79605","Match","Exact","2117 POST OAK RD, ABILENE, TX, 79605",129958957,"L"
339810,"2117 RANCHVIEW CT","DUNCAN","OK",73533,NA,NA,310,"2117 RANCHVIEW CT, DUNCAN, OK, 73533","No_Match",NA,NA,NA,NA
339811,"2117 RANDALL RD","INDIANAPOLIS","IN",46240,39.8890195770001,-86.125194958,311,"2117 RANDALL RD, INDIANAPOLIS, IN, 46240","Match","Exact","2117 RANDALL RD, INDIANAPOLIS, IN, 46240",107983653,"R"
339812,"2117 RIDGEBROOK LN","KNOXVILLE","TN",37921,35.971196193,-83.9499706509999,312,"2117 RIDGEBROOK LN, KNOXVILLE, TN, 37921","Match","Exact","2117 RIDGEBROOK LN, KNOXVILLE, TN, 37921",42618409,"R"
339813,"2117 RIDING RIDGE ROAD","COLUMBIA","SC",29223,34.1151356720001,-80.912872426,313,"2117 RIDING RIDGE ROAD, COLUMBIA, SC, 29223","Match","Exact","2117 RIDING RIDGE RD, COLUMBIA, SC, 29223",71836442,"R"
339814,"2117 ROCKY POINT CT","HENRICO","VA",23238,37.622607751,-77.594974183,314,"2117 ROCKY POINT CT, HENRICO, VA, 23238","Match","Exact","2117 ROCKY POINT CT, HENRICO, VA, 23238",106654720,"R"
339815,"2117 S FAIRFIELD DRIVE","PENSACOLA","FL",32507,30.375614006,-87.3092950069999,315,"2117 S FAIRFIELD DRIVE, PENSACOLA, FL, 32507","Match","Exact","2117 S FAIRFIELD DR, PENSACOLA, FL, 32507",642894703,"R"
339816,"2117 S MINNESOTA AVE","SIOUX FALLS","SD",57105,43.5249155710001,-96.731278531,316,"2117 S MINNESOTA AVE, SIOUX FALLS, SD, 57105","Match","Exact","2117 S MINNESOTA AVE, SIOUX FALLS, SD, 57105",34972796,"R"
339817,"2117 SENECA RIDGE DRIVE","MYRTLE BEACH","SC",29579,33.767198696,-78.917431547,317,"2117 SENECA RIDGE DRIVE, MYRTLE BEACH, SC, 29579","Match","Exact","2117 SENECA RIDGE DR, MYRTLE BEACH, SC, 29579",630413358,"L"
339818,"2117 SHED RD SUIT C","BOSSIER CITY","LA",71111,32.5321582920001,-93.722505962,318,"2117 SHED RD SUIT C, BOSSIER CITY, LA, 71111","Match","Exact","2117 SHED RD, BOSSIER CITY, LA, 71111",108521007,"L"
339819,"2117 SHED ROAD SUITE C","BOSSIER CITY","LA",71111,32.5321582920001,-93.722505962,319,"2117 SHED ROAD SUITE C, BOSSIER CITY, LA, 71111","Match","Exact","2117 SHED RD, BOSSIER CITY, LA, 71111",108521007,"L"
339820,"2117 SILVERBERRY DR APT 203","CHESAPEAKE","VA",23321,36.819393222,-76.448526767,320,"2117 SILVERBERRY DR APT 203, CHESAPEAKE, VA, 23321","Match","Exact","2117 SILVERBERRY DR, CHESAPEAKE, VA, 23321",651943842,"L"
339821,"2117 SOUTH CHESTNUT ST","NAMPA","ID",83686,43.548320145,-116.557239866,321,"2117 SOUTH CHESTNUT ST, NAMPA, ID, 83686","Match","Exact","2117 S CHESTNUT ST, NAMPA, ID, 83686",122796132,"L"
339822,"2117 SOUTH LYON STREET","SANTA  ANA","CA",92705,33.720142663,-117.845799549,322,"2117 SOUTH LYON STREET, SANTA  ANA, CA, 92705","Match","Exact","2117 S LYON ST, SANTA ANA, CA, 92705",144054163,"L"
339823,"2117 SOUTH RENFRO","SPRINGFIELD","IL",62703,39.7788552320001,-89.63463302,323,"2117 SOUTH RENFRO, SPRINGFIELD, IL, 62703","Match","Non_Exact","2117 S RENFRO ST, SPRINGFIELD, IL, 62703",97327159,"R"
339824,"2117 ST CLAIR ST","BELLINGHAM","WA",98229,48.7579676230001,-122.436984088,324,"2117 ST CLAIR ST, BELLINGHAM, WA, 98229","Match","Exact","2117 ST CLAIR ST, BELLINGHAM, WA, 98229",183773058,"L"
339825,"2117 SUMMERTIME DR APT 4409","CHARLOTTE","NC",28262,NA,NA,325,"2117 SUMMERTIME DR APT 4409, CHARLOTTE, NC, 28262","No_Match",NA,NA,NA,NA
339826,"2117 TALBOT DR","FRISCO","TX",75033,33.184856321,-96.870365615,326,"2117 TALBOT DR, FRISCO, TX, 75033","Match","Exact","2117 TALBOT DR, FRISCO, TX, 75033",614125590,"R"
339827,"2117 TECHWOOD ST","ALBANY","GA",31707,31.562784144,-84.2015469089999,327,"2117 TECHWOOD ST, ALBANY, GA, 31707","Match","Non_Exact","2117 TECHWOOD DR, ALBANY, GA, 31707",618685177,"R"
339828,"2117 THREE FORKS DRIVE","PLAINFIELD","IL",60586,41.559281098,-88.251781777,328,"2117 THREE FORKS DRIVE, PLAINFIELD, IL, 60586","Match","Exact","2117 THREE FORKS, PLAINFIELD, IL, 60586",111627084,"R"
339829,"2117 US HIGHWAY 80 EAST APT 304","MESQUITE","TX",75150,32.7933589350001,-96.628496551,329,"2117 US HIGHWAY 80 EAST APT 304, MESQUITE, TX, 75150","Match","Non_Exact","2117 US HWY 80 E, MESQUITE, TX, 75150",103200138,"R"
339830,"2117 VALLEY VIEW DR","WOODLAND PARK","CO",80863,39.011734812,-105.053515999,330,"2117 VALLEY VIEW DR, WOODLAND PARK, CO, 80863","Match","Exact","2117 VALLEY VIEW DR, WOODLAND PARK, CO, 80863",130946420,"R"
339831,"2117 VETERANS BLVD 221","METAIRIE","LA",70002,NA,NA,331,"2117 VETERANS BLVD 221, METAIRIE, LA, 70002","No_Match",NA,NA,NA,NA
339832,"2117 VETERANS DRIVE SE","DECATUR","AL",35601,NA,NA,332,"2117 VETERANS DRIVE SE, DECATUR, AL, 35601","No_Match",NA,NA,NA,NA
339833,"2117 VETERANS MEMORIAL DRIVE","METAIRIE","LA",70002,NA,NA,333,"2117 VETERANS MEMORIAL DRIVE, METAIRIE, LA, 70002","No_Match",NA,NA,NA,NA
339834,"2117 W 180TH PL","TORRANCE","CA",90504,33.867070309,-118.315976774,334,"2117 W 180TH PL, TORRANCE, CA, 90504","Match","Exact","2117 180TH PL, TORRANCE, CA, 90504",141666977,"R"
339835,"2117 W DOWNING ST","FLORENCE","SC",29501,34.1706958300001,-79.806455779,335,"2117 W DOWNING ST, FLORENCE, SC, 29501","Match","Exact","2117 DOWNING ST, FLORENCE, SC, 29501",28877714,"R"
339836,"2117 W ESCONDIDO CANYON DR","GREEN VALLEY","AZ",85622,31.7852928730001,-111.028968374,336,"2117 W ESCONDIDO CANYON DR, GREEN VALLEY, AZ, 85622","Match","Exact","2117 W ESCONDIDO CANYON DR, GREEN VALLEY, AZ, 85622",606827817,"L"
339837,"2117 W HADDON AVE APT 11","CHICAGO","IL",60622,41.902196062,-87.680505598,337,"2117 W HADDON AVE APT 11, CHICAGO, IL, 60622","Match","Non_Exact","2117 W HADDON AVE, CHICAGO, IL, 60622",605069052,"L"
339838,"2117 W MAIN ST","NORRISTOWN","PA",19403,40.1360306760001,-75.38219929,338,"2117 W MAIN ST, NORRISTOWN, PA, 19403","Match","Non_Exact","2117 W MAIN ST, NORRISTOWN, PA, 19403",135070425,"R"
339839,"2117 W MCLEAN AVE","CHICAGO","IL",60647,41.918450681,-87.6811902379999,339,"2117 W MCLEAN AVE, CHICAGO, IL, 60647","Match","Exact","2117 W MCLEAN AVE, CHICAGO, IL, 60647",605207700,"L"
339840,"2117 W MCLEAN","CHICAGO","IL",60647,NA,NA,340,"2117 W MCLEAN, CHICAGO, IL, 60647","No_Match",NA,NA,NA,NA
339841,"2117 W PALMETTO ST","FLORENCE","SC",29501,34.186493704,-79.81065311,341,"2117 W PALMETTO ST, FLORENCE, SC, 29501","Match","Exact","2117 W PALMETTO ST, FLORENCE, SC, 29501",28877492,"R"
339842,"2117 W SPRUCE STREET","TAMPA","FL",33607,27.959342615,-82.481566153,342,"2117 W SPRUCE STREET, TAMPA, FL, 33607","Match","Exact","2117 W SPRUCE ST, TAMPA, FL, 33607",104517142,"R"
339843,"2117 WASHINGTON CIR APT 208","ARLINGTON","TX",76011,NA,NA,343,"2117 WASHINGTON CIR APT 208, ARLINGTON, TX, 76011","No_Match",NA,NA,NA,NA
339844,"2117 WASHINGTON CIRCLE","ARLINGTON","TX",76011,NA,NA,344,"2117 WASHINGTON CIRCLE, ARLINGTON, TX, 76011","No_Match",NA,NA,NA,NA
339845,"2117 WATERCREST DRIVE","AUBURN","AL",36830,32.6519944240001,-85.4701853619999,345,"2117 WATERCREST DRIVE, AUBURN, AL, 36830","Match","Non_Exact","2117 WATERCREST BLVD, AUBURN, AL, 36830",1606887,"R"
339846,"2117 WAYNE ST","SANDUSKY","OH",44870,41.4375606080001,-82.698791663,346,"2117 WAYNE ST, SANDUSKY, OH, 44870","Match","Exact","2117 WAYNE ST, SANDUSKY, OH, 44870",55325058,"L"
339847,"2117 WEBER AVENUE","CHESAPEAKE","VA",23320,36.8039041380001,-76.218255794,347,"2117 WEBER AVENUE, CHESAPEAKE, VA, 23320","Match","Exact","2117 WEBER AVE, CHESAPEAKE, VA, 23320",121775767,"R"
339848,"2117 WEST SPRUCE","TAMPA","FL",33607,27.9593425580001,-82.481560238,348,"2117 WEST SPRUCE, TAMPA, FL, 33607","Match","Non_Exact","2117 W SPRUCE ST, TAMPA, FL, 33607",104517142,"R"
339849,"2117 WEST SPUR DRIVE","PHOENIX","AZ",85085,33.7263884340001,-112.105220936,349,"2117 WEST SPUR DRIVE, PHOENIX, AZ, 85085","Match","Exact","2117 W SPUR DR, PHOENIX, AZ, 85085",243976531,"R"
339850,"2117 WHARTON ST","PITTSBURGH","PA",15203,40.430286627,-79.9756864349999,350,"2117 WHARTON ST, PITTSBURGH, PA, 15203","Match","Exact","2117 WHARTON ST, PITTSBURGH, PA, 15203",51636166,"L"
339851,"2117 WHITE OAK CIRCLE NE","ALEXANDRIA","MN",56308,NA,NA,351,"2117 WHITE OAK CIRCLE NE, ALEXANDRIA, MN, 56308","No_Match",NA,NA,NA,NA
339852,"2117 WILLHAVEN DR","AUGUSTA","GA",30909,33.443772159,-82.131513619,352,"2117 WILLHAVEN DR, AUGUSTA, GA, 30909","Match","Exact","2117 WILLHAVEN DR, AUGUSTA, GA, 30909",636185108,"R"
339853,"2117 WILLOW DR","EL CENTRO","CA",92243,32.7753072240001,-115.559496729,353,"2117 WILLOW DR, EL CENTRO, CA, 92243","Match","Exact","2117 WILLOW DR, EL CENTRO, CA, 92243",194495966,"L"
339854,"2117 WINNING COLORS LN","LEXINGTON","KY",40509,38.011155332,-84.3841427359999,354,"2117 WINNING COLORS LN, LEXINGTON, KY, 40509","Match","Exact","2117 WINNING COLORS LN, LEXINGTON, KY, 40509",31952390,"L"
339855,"2117 WINSLOW DRIVE","PLANO","TX",75023,33.0695407380001,-96.737402566,355,"2117 WINSLOW DRIVE, PLANO, TX, 75023","Match","Exact","2117 WINSLOW DR, PLANO, TX, 75023",123486854,"L"
339856,"2117 WOODLAND RIDGE DR","ORANGE","TX",77632,30.2293074070001,-93.772114197,356,"2117 WOODLAND RIDGE DR, ORANGE, TX, 77632","Match","Exact","2117 WOODLAND RIDGE DR, ORANGE, TX, 77632",74032975,"L"
339857,"2117 WYDA WAY UNIT 18","SACRAMENTO","CA",95825,38.599967351,-121.417024818,357,"2117 WYDA WAY UNIT 18, SACRAMENTO, CA, 95825","Match","Exact","2117 WYDA WAY, SACRAMENTO, CA, 95825",629159335,"L"
339858,"2117","WITCHITA","KS",67204,NA,NA,358,"2117, WITCHITA, KS, 67204","No_Match",NA,NA,NA,NA
339859,"21170 W LINWOOD DR NE","WYOMING","MN",55092,45.3524771250001,-93.130554352,359,"21170 W LINWOOD DR NE, WYOMING, MN, 55092","Match","Non_Exact","21170 W LINWOOD DR, WYOMING, MN, 55092",647501643,"L"
339860,"21170 W WAGER CIRCLE","ROCKY RIVER","OH",44116,41.47034295,-81.853919596,360,"21170 W WAGER CIRCLE, ROCKY RIVER, OH, 44116","Match","Non_Exact","21170 W WAGAR CIR, ROCKY RIVER, OH, 44116",61147942,"R"
339861,"21171 HANDLANGE RD","WARRENTON","MO",63383,38.8542935670001,-91.171134909,361,"21171 HANDLANGE RD, WARRENTON, MO, 63383","Match","Non_Exact","21171 HANDLANG RD, WARRENTON, MO, 63383",90121836,"R"
339862,"21171 MEYERS","OAK PARK","MI",48237,42.449893462,-83.171556782,362,"21171 MEYERS, OAK PARK, MI, 48237","Match","Non_Exact","21171 MEYERS RD, OAK PARK, MI, 48237",69742176,"L"
339863,"21171 N GRANTHAM ROAD","MARICOPA","AZ",85138,NA,NA,363,"21171 N GRANTHAM ROAD, MARICOPA, AZ, 85138","Tie",NA,NA,NA,NA
339864,"21171 TRACY AVE","EUCLID","OH",44123,41.5941237690001,-81.5322854349999,364,"21171 TRACY AVE, EUCLID, OH, 44123","Match","Exact","21171 TRACY AVE, EUCLID, OH, 44123",61108521,"L"
339865,"21171 WALLAPAI DR","LAKE HAVASU CITY","AZ",86403,NA,NA,365,"21171 WALLAPAI DR, LAKE HAVASU CITY, AZ, 86403","No_Match",NA,NA,NA,NA
339866,"21172 ALLEN RD","WARSAW","MO",65355,38.3125662350001,-93.305758673,366,"21172 ALLEN RD, WARSAW, MO, 65355","Match","Exact","21172 ALLEN RD, WARSAW, MO, 65355",22690187,"L"
339867,"21172 LYNN ST","BRISTOL","VA",24202,NA,NA,367,"21172 LYNN ST, BRISTOL, VA, 24202","No_Match",NA,NA,NA,NA
339868,"21173 COVERDALE ROAD","BRIDGEVILLE","DE",19933,38.6923609830001,-75.549146134,368,"21173 COVERDALE ROAD, BRIDGEVILLE, DE, 19933","Match","Exact","21173 COVERDALE RD, BRIDGEVILLE, DE, 19933",106083841,"R"
339869,"21173 NORTH PRESTON HWY","BRUCETON MILLS","WV",26525,39.697458843,-79.54177385,369,"21173 NORTH PRESTON HWY, BRUCETON MILLS, WV, 26525","Match","Exact","21173 N PRESTON HWY, BRUCETON MILLS, WV, 26525",611584849,"L"
339870,"21174 FOX STREET","CASSOPOLIS","MI",49031,41.9259976710001,-85.97764053,370,"21174 FOX STREET, CASSOPOLIS, MI, 49031","Match","Exact","21174 FOX ST, CASSOPOLIS, MI, 49031",22579097,"L"
339871,"21174 STAHELIN","SOUTHFIELD","MI",40875,NA,NA,371,"21174 STAHELIN, SOUTHFIELD, MI, 40875","No_Match",NA,NA,NA,NA
339872,"21174 STAHELIN","SOUTHFIELD","MI",48075,42.447621515,-83.228915254,372,"21174 STAHELIN, SOUTHFIELD, MI, 48075","Match","Non_Exact","21174 STAHELIN RD, SOUTHFIELD, MI, 48075",69839279,"R"
339873,"21175 15 MILE RD","BIG RAPIDS","MI",49307,43.6844575630001,-85.5068914299999,373,"21175 15 MILE RD, BIG RAPIDS, MI, 49307","Match","Exact","21175 15 MILE RD, BIG RAPIDS, MI, 49307",110529968,"L"
339874,"21175 BANK MILL RD","SARATOGA","CA",95070,37.2563568160001,-122.042255354,374,"21175 BANK MILL RD, SARATOGA, CA, 95070","Match","Exact","21175 BANK MILL RD, SARATOGA, CA, 95070",627622402,"L"
339875,"21175 BRAXFIELD LOOP","ESTERO","FL",33928,26.43506548,-81.758632699,375,"21175 BRAXFIELD LOOP, ESTERO, FL, 33928","Match","Exact","21175 BRAXFIELD LOOP, ESTERO, FL, 33928",118113829,"L"
339876,"21175 OHIO RIVER ROAD","MASON","WV",25260,39.0071949210001,-82.040002218,376,"21175 OHIO RIVER ROAD, MASON, WV, 25260","Match","Exact","21175 OHIO RIVER RD, MASON, WV, 25260",101824408,"L"
339877,"21175 TOMBALL PARKWAY SUITE 725","HOUSTON","TX",77070,NA,NA,377,"21175 TOMBALL PARKWAY SUITE 725, HOUSTON, TX, 77070","No_Match",NA,NA,NA,NA
339878,"21175 TOMBALL PKWY APT 115","HOUSTON","TX",77070,NA,NA,378,"21175 TOMBALL PKWY APT 115, HOUSTON, TX, 77070","No_Match",NA,NA,NA,NA
339879,"21175 TOMBALL PKWY SUITE 127","HOUSTON","TX",77070,NA,NA,379,"21175 TOMBALL PKWY SUITE 127, HOUSTON, TX, 77070","No_Match",NA,NA,NA,NA
339880,"21176 BOSTON CROSSCUT RD","HANCOCK","MI",49930,NA,NA,380,"21176 BOSTON CROSSCUT RD, HANCOCK, MI, 49930","No_Match",NA,NA,NA,NA
339881,"21176 LISA LANE","STEGER","IL",60475,41.478218471,-87.598546031,381,"21176 LISA LANE, STEGER, IL, 60475","Match","Exact","21176 LISA LN, STEGER, IL, 60475",639811451,"L"
339882,"21177 SE 6TH PLACE","SAMMAMISH","WA",98074,NA,NA,382,"21177 SE 6TH PLACE, SAMMAMISH, WA, 98074","No_Match",NA,NA,NA,NA
339883,"21178 ANTRIM DR","GREENLEAF","ID",83626,43.673015639,-116.816138293,383,"21178 ANTRIM DR, GREENLEAF, ID, 83626","Match","Exact","21178 ANTRIM DR, GREENLEAF, ID, 83626",122823489,"R"
339884,"21178 N CAMPER RD","RATHDRUM","ID",83858,47.862852208,-116.851069358,384,"21178 N CAMPER RD, RATHDRUM, ID, 83858","Match","Exact","21178 N CAMPER RD, RATHDRUM, ID, 83858",192944195,"R"
339885,"2117WYDA WAY","SACRAMENTO","CA",95825,NA,NA,385,"2117WYDA WAY, SACRAMENTO, CA, 95825","No_Match",NA,NA,NA,NA
339886,"2118 1/2 SOUTH VERITY PKWY","MIDDLETOWN","OH",45044,NA,NA,386,"2118 1/2 SOUTH VERITY PKWY, MIDDLETOWN, OH, 45044","No_Match",NA,NA,NA,NA
339887,"2118 12TH PLACE NW","WASHINGTON DC","DC",20009,38.9183651050001,-77.028850099,387,"2118 12TH PLACE NW, WASHINGTON DC, DC, 20009","Match","Exact","2118 12TH PL NW, WASHINGTON, DC, 20009",632871095,"R"
339888,"2118 4TH STREET","LAKE CHARLES","LA",70605,30.222703714,-93.190371942,388,"2118 4TH STREET, LAKE CHARLES, LA, 70605","Match","Non_Exact","2118 4TH ST, LAKE CHARLES, LA, 70601",88436833,"R"
339889,"2118 AMANDA DRIVE","REEDSBURG","WI",53959,43.551548337,-89.997919047,389,"2118 AMANDA DRIVE, REEDSBURG, WI, 53959","Match","Exact","2118 AMANDA DR, REEDSBURG, WI, 53959",86553241,"R"
339890,"2118 ANTSLA","SAN ANTONIO","TX",78251,NA,NA,390,"2118 ANTSLA, SAN ANTONIO, TX, 78251","No_Match",NA,NA,NA,NA
339891,"2118 APPLE DRIVE","EUCLID","OH",44143,41.5620545420001,-81.51881486,391,"2118 APPLE DRIVE, EUCLID, OH, 44143","Match","Exact","2118 APPLE DR, EUCLID, OH, 44143",61124521,"L"
339892,"2118 ARBOR CREEK DR","CARROLLTON","TX",75010,33.033796995,-96.873558046,392,"2118 ARBOR CREEK DR, CARROLLTON, TX, 75010","Match","Exact","2118 ARBOR CREEK DR, CARROLLTON, TX, 75010",103384219,"L"
339893,"2118 AUGUSTA ST","LANCASTER","TX",75146,32.6006983510001,-96.7972527859999,393,"2118 AUGUSTA ST, LANCASTER, TX, 75146","Match","Exact","2118 AUGUSTA ST, LANCASTER, TX, 75146",646804861,"R"
339894,"2118 AVEBURY COURT","KATY","TX",77450,29.749356043,-95.7220466319999,394,"2118 AVEBURY COURT, KATY, TX, 77450","Match","Exact","2118 AVEBURY CT, KATY, TX, 77450",96299470,"L"
339895,"2118 BEACON LIGHT LANE","FRENSO","TX",77545,29.534440352,-95.485383215,395,"2118 BEACON LIGHT LANE, FRENSO, TX, 77545","Match","Non_Exact","2118 BEACON LIGHT LN, FRESNO, TX, 77545",635216604,"R"
339896,"2118 BELLE AIRE RD","NAMPA","ID",83686,43.5487815970001,-116.545763086,396,"2118 BELLE AIRE RD, NAMPA, ID, 83686","Match","Non_Exact","2118 BELLE AIRE DR, NAMPA, ID, 83686",122787792,"R"
339897,"2118 BIEKER RAOD","WASHINGTON","MO",63090,38.487241866,-90.989783867,397,"2118 BIEKER RAOD, WASHINGTON, MO, 63090","Match","Non_Exact","2118 BIEKER RD, WASHINGTON, MO, 63090",605161102,"R"
339898,"2118 BIEKER ROAD","WASHINGTON","MO",63090,38.487241866,-90.989783867,398,"2118 BIEKER ROAD, WASHINGTON, MO, 63090","Match","Exact","2118 BIEKER RD, WASHINGTON, MO, 63090",605161102,"R"
339899,"2118 BIEKER","WASHINGTON","MO",63909,NA,NA,399,"2118 BIEKER, WASHINGTON, MO, 63909","No_Match",NA,NA,NA,NA
339900,"2118 BRIGHT MEADOWS DRIVE","MISSOURI CITY","TX",77459,29.587617815,-95.5356762,400,"2118 BRIGHT MEADOWS DRIVE, MISSOURI CITY, TX, 77459","Match","Non_Exact","2118 BRIGHT MEADOWS DR, MISSOURI CITY, TX, 77489",78270906,"L"
339901,"2118 BROOKBERRY ROAD","GASTONIA","NC",28052,NA,NA,401,"2118 BROOKBERRY ROAD, GASTONIA, NC, 28052","No_Match",NA,NA,NA,NA
339902,"2118 CAMDON DR","DEER PARK","TX",77536,29.690535889,-95.101201493,402,"2118 CAMDON DR, DEER PARK, TX, 77536","Match","Exact","2118 CAMDON DR, DEER PARK, TX, 77536",616960128,"L"
339903,"2118 CANOAS GARDEN APT 88","SAN JOSE","CA",95125,37.2966052570001,-121.879009089,403,"2118 CANOAS GARDEN APT 88, SAN JOSE, CA, 95125","Match","Non_Exact","2118 CANOAS GARDEN AVE, SAN JOSE, CA, 95125",122911032,"L"
339904,"2118 CANOAS GARDEN AVENUE- APT 256","SAN JOSE","CA",95125,37.2966052570001,-121.879009089,404,"2118 CANOAS GARDEN AVENUE- APT 256, SAN JOSE, CA, 95125","Match","Non_Exact","2118 CANOAS GARDEN AVE, SAN JOSE, CA, 95125",122911032,"L"
339905,"2118 CARRIE AVENUE","SHREVEPORT","LA",71103,32.491265991,-93.774434221,405,"2118 CARRIE AVENUE, SHREVEPORT, LA, 71103","Match","Exact","2118 CARRIE AVE, SHREVEPORT, LA, 71103",57435207,"R"
339906,"2118 CATALONIA WAY S","ST.PETERSBURG","FL",33712,27.730330016,-82.6621973049999,406,"2118 CATALONIA WAY S, ST.PETERSBURG, FL, 33712","Match","Exact","2118 CATALONIA WAY S, SAINT PETERSBURG, FL, 33712",124710204,"L"
339907,"2118 CATALONIA WAY","ST PETERSBURG","FL",33712,27.730330016,-82.6621973049999,407,"2118 CATALONIA WAY, ST PETERSBURG, FL, 33712","Match","Non_Exact","2118 CATALONIA WAY S, SAINT PETERSBURG, FL, 33712",124710204,"L"
339908,"2118 CATON WAY SW","OLYMPIA","WA",98502,47.0295920190001,-122.926065611,408,"2118 CATON WAY SW, OLYMPIA, WA, 98502","Match","Exact","2118 CATON WAY SW, OLYMPIA, WA, 98502",180974112,"L"
339909,"2118 CEDAR BARN WAY","WINDSOR MILL","MD",21244,39.312362315,-76.7796661789999,409,"2118 CEDAR BARN WAY, WINDSOR MILL, MD, 21244","Match","Exact","2118 CEDAR BARN WAY, WINDSOR MILL, MD, 21244",191504506,"L"
339910,"2118 CLUSTER LANE","GRAYSON","GA",30017,33.9030765530001,-83.9354731459999,410,"2118 CLUSTER LANE, GRAYSON, GA, 30017","Match","Exact","2118 CLUSTER LN, GRAYSON, GA, 30017",88927571,"R"
339911,"2118 CORTELYOU ROAD 2R","BROOKLYN","NY",11226,40.6440326900001,-73.95815586,411,"2118 CORTELYOU ROAD 2R, BROOKLYN, NY, 11226","Match","Exact","2118 CORTELYOU RD, BROOKLYN, NY, 11226",59081412,"R"
339912,"2118 CREEKWALK DR","MURFREESBORO","TN",37130,35.875101886,-86.347467286,412,"2118 CREEKWALK DR, MURFREESBORO, TN, 37130","Match","Exact","2118 CREEKWALK DR, MURFREESBORO, TN, 37130",59036285,"L"
339913,"2118 CYPRESS STREET","LANCASTER","CA",93535,34.690224791,-118.092230577,413,"2118 CYPRESS STREET, LANCASTER, CA, 93535","Match","Exact","2118 CYPRESS ST, LANCASTER, CA, 93535",141833143,"R"
339914,"2118 DESCO DRIVE","AUSTIN","TX",78748,30.157922666,-97.836297529,414,"2118 DESCO DRIVE, AUSTIN, TX, 78748","Match","Exact","2118 DESCO DR, AUSTIN, TX, 78748",63998731,"L"
339915,"2118 DUROUX","LAMARQUE","TX",77568,NA,NA,415,"2118 DUROUX, LAMARQUE, TX, 77568","No_Match",NA,NA,NA,NA
339916,"2118 E ASHDOWN LANE","DRAPER","UT",84020,40.4621187650001,-111.828413618,416,"2118 E ASHDOWN LANE, DRAPER, UT, 84020","Match","Non_Exact","2118 ASH DOWN LN, DRAPER, UT, 84020",619736188,"R"
339917,"2118 E BIRCH ST","PHILADELPHIA","PA",19134,39.9888212020001,-75.115689722,417,"2118 E BIRCH ST, PHILADELPHIA, PA, 19134","Match","Exact","2118 E BIRCH ST, PHILADELPHIA, PA, 19134",131421476,"R"
339918,"2118 E ORANGEWOOD AVE","PHOENIX","AZ",85020,33.545542089,-112.03583539,418,"2118 E ORANGEWOOD AVE, PHOENIX, AZ, 85020","Match","Exact","2118 E ORANGEWOOD AVE, PHOENIX, AZ, 85020",128208054,"L"
339919,"2118 EAST ASH","LAREDO","TX",78043,27.527179393,-99.4761243299999,419,"2118 EAST ASH, LAREDO, TX, 78043","Match","Non_Exact","2118 E ASH ST, LAREDO, TX, 78043",21672855,"L"
339920,"2118 EASTLAKE AVENUE","LOS ANGELES","CA",90031,34.0693752650001,-118.207687492,420,"2118 EASTLAKE AVENUE, LOS ANGELES, CA, 90031","Match","Exact","2118 EASTLAKE AVE, LOS ANGELES, CA, 90031",141622622,"R"
339921,"2118 ESTHER DRIVE","ONALASKA","WI",54650,43.877367959,-91.204000088,421,"2118 ESTHER DRIVE, ONALASKA, WI, 54650","Match","Exact","2118 ESTHER DR, ONALASKA, WI, 54650",645570350,"L"
339922,"2118 FAWN DR","WILLIAMSTOWN","NJ",8094,39.7220948450001,-75.016799829,422,"2118 FAWN DR, WILLIAMSTOWN, NJ, 8094","Match","Exact","2118 FAWN DR, WILLIAMSTOWN, NJ, 08094",650034955,"R"
339923,"2118 GARFIAS DRIVE","PASADENA","CA",91104,34.171297737,-118.10723655,423,"2118 GARFIAS DRIVE, PASADENA, CA, 91104","Match","Exact","2118 GARFIAS DR, PASADENA, CA, 91104",141631923,"R"
339924,"2118 GILLETTE DRIVE","CLOVER","SC",29710,35.101052624,-81.1779198409999,424,"2118 GILLETTE DRIVE, CLOVER, SC, 29710","Match","Exact","2118 GILLETTE DR, CLOVER, SC, 29710",645274149,"R"
339925,"2118 HACIENDA TERRACE","WESTON","FL",33327,26.1327800030001,-80.4233033909999,425,"2118 HACIENDA TERRACE, WESTON, FL, 33327","Match","Exact","2118 HACIENDA TER, WESTON, FL, 33327",114814263,"R"
339926,"2118 HAZELHURST COURT","ELKHART","IN",46516,41.6769932030001,-85.931205322,426,"2118 HAZELHURST COURT, ELKHART, IN, 46516","Match","Exact","2118 HAZELHURST CT, ELKHART, IN, 46516",7764284,"R"
339927,"2118 HERITAGE COLONY DRIVE","FRIENDSWOOD","TX",77546,29.5370813100001,-95.163769895,427,"2118 HERITAGE COLONY DRIVE, FRIENDSWOOD, TX, 77546","Match","Exact","2118 HERITAGE COLONY DR, FRIENDSWOOD, TX, 77546",96115045,"R"
339928,"2118 HIGH PINES RD","29732","SC",29732,34.955165251,-81.070351433,428,"2118 HIGH PINES RD, 29732, SC, 29732","Match","Non_Exact","2118 HIGH PINES RD, ROCK HILL, SC, 29732",19839602,"R"
339929,"2118 HIGHWOOD AVENUE","ST. PAUL","WI",55119,NA,NA,429,"2118 HIGHWOOD AVENUE, ST. PAUL, WI, 55119","No_Match",NA,NA,NA,NA
339930,"2118 HOGAN ROAD","OAKLAND","OR",97462,43.4954446620001,-123.261840186,430,"2118 HOGAN ROAD, OAKLAND, OR, 97462","Match","Exact","2118 HOGAN RD, OAKLAND, OR, 97462",613866460,"L"
339931,"2118 HOLLOW WAY","GARLAND","TX",75041,32.8919788220001,-96.6112090349999,431,"2118 HOLLOW WAY, GARLAND, TX, 75041","Match","Exact","2118 HOLLOW WAY, GARLAND, TX, 75041",627365642,"L"
339932,"2118 HOWARD RD","AUGUSTA","GA",30906,33.4054207190001,-82.029144537,432,"2118 HOWARD RD, AUGUSTA, GA, 30906","Match","Exact","2118 HOWARD RD, AUGUSTA, GA, 30906",55637542,"L"
339933,"2118 HUNDRED OAKS COVE","GERMANTOWN","TN",38138,35.090921752,-89.779038849,433,"2118 HUNDRED OAKS COVE, GERMANTOWN, TN, 38138","Match","Non_Exact","2118 HUNDRED OAKS COVE, GERMANTOWN, TN, 38139",72932167,"L"
339934,"2118 HUNGERFORD","FLORISSANT","MO",63031,38.828612363,-90.341775591,434,"2118 HUNGERFORD, FLORISSANT, MO, 63031","Match","Non_Exact","2118 HUNGERFORD DR, FLORISSANT, MO, 63031",624464343,"L"
339935,"2118 INTERVALE ROAD","BETHEL","ME",4217,44.4776876060001,-70.699428413,435,"2118 INTERVALE ROAD, BETHEL, ME, 4217","Match","Exact","2118 INTERVALE RD, BETHEL, ME, 04217",92682018,"L"
339936,"2118 KARA DR","BAY CITY","MI",48706,43.52727122,-83.9701732089999,436,"2118 KARA DR, BAY CITY, MI, 48706","Match","Non_Exact","2118 S KARA DR, BAY CITY, MI, 48706",81156936,"R"
339937,"2118 KEARNY ST NE","WASHINGTON","DC",20018,38.9311515370001,-76.975034476,437,"2118 KEARNY ST NE, WASHINGTON, DC, 20018","Match","Non_Exact","2118 KEARNEY ST NE, WASHINGTON, DC, 20018",76229188,"L"
339938,"2118 KENSINGTON DRIVE","ST. MARYS","OH",45885,40.554345224,-84.416283451,438,"2118 KENSINGTON DRIVE, ST. MARYS, OH, 45885","Match","Exact","2118 KENSINGTON DR, SAINT MARYS, OH, 45885",209204088,"R"
339939,"2118 LA GRANADA DR","THOUSAND OAKS","CA",91362,34.192365798,-118.840615262,439,"2118 LA GRANADA DR, THOUSAND OAKS, CA, 91362","Match","Exact","2118 LA GRANADA DR, THOUSAND OAKS, CA, 91362",109976969,"R"
339940,"2118 LENNNON ST","GROSSE POINTE WOODS","MI",48236,42.442810739,-82.912055026,440,"2118 LENNNON ST, GROSSE POINTE WOODS, MI, 48236","Match","Non_Exact","2118 LENNON AVE, GROSSE POINTE WOODS, MI, 48236",95487595,"R"
339941,"2118 LIBERTY VALLEY RD","GREENSBORO","NC",27405,36.0202276970001,-79.755134794,441,"2118 LIBERTY VALLEY RD, GREENSBORO, NC, 27405","Match","Non_Exact","2118 LIBERTY VALLEY RD, GREENSBORO, NC, 27406",131052814,"R"
339942,"2118 MAIN STREET","SPEEDWAY","IN",46224,39.7968439840001,-86.241262567,442,"2118 MAIN STREET, SPEEDWAY, IN, 46224","Match","Exact","2118 MAIN ST, SPEEDWAY, IN, 46224",107979026,"L"
339943,"2118 MARCHFIELD TRAIL","BEAVER CREEK","OH",45434,39.721527485,-84.012463657,443,"2118 MARCHFIELD TRAIL, BEAVER CREEK, OH, 45434","Match","Non_Exact","2118 MARCHFIELD WAY, BEAVERCREEK, OH, 45434",630212127,"L"
339944,"2118 MENAHAN ST APT 3","RIDGEWOOD","NY",11385,NA,NA,444,"2118 MENAHAN ST APT 3, RIDGEWOOD, NY, 11385","No_Match",NA,NA,NA,NA
339945,"2118 MOUNTAIN LAKE DR","KINGWOOD","TX",77345,30.0530676390001,-95.153195537,445,"2118 MOUNTAIN LAKE DR, KINGWOOD, TX, 77345","Match","Exact","2118 MOUNTAIN LAKE DR, KINGWOOD, TX, 77345",96141509,"R"
339946,"2118 MOUNTSHIRE DRIVE","MISSOURI CITY","TX",77489,29.5974842750001,-95.51601564,446,"2118 MOUNTSHIRE DRIVE, MISSOURI CITY, TX, 77489","Match","Exact","2118 MOUNTSHIRE DR, MISSOURI CITY, TX, 77489",78297348,"L"
339947,"2118 N 130TH AVE","FALL CREEK","WI",54742,44.8398303810001,-91.267197417,447,"2118 N 130TH AVE, FALL CREEK, WI, 54742","Match","Exact","2118 N 130TH AVE, FALL CREEK, WI, 54742",46073410,"L"
339948,"2118 N 75TH AVENUE","ELMWOOD PARK","IL",60707,41.9183284810001,-87.8134142499999,448,"2118 N 75TH AVENUE, ELMWOOD PARK, IL, 60707","Match","Exact","2118 N 75TH AVE, ELMWOOD PARK, IL, 60707",111749211,"L"
339949,"2118 NE 89TH ST","SEATTLE","WA",98115,47.6930188750001,-122.304870537,449,"2118 NE 89TH ST, SEATTLE, WA, 98115","Match","Exact","2118 NE 89TH ST, SEATTLE, WA, 98115",239762052,"L"
339950,"2118 OAKDALE ST","HOUSTON","TX",77004,29.7220575010001,-95.3786992349999,450,"2118 OAKDALE ST, HOUSTON, TX, 77004","Match","Exact","2118 OAKDALE ST, HOUSTON, TX, 77004",96071384,"R"
339951,"2118 OLD BRIDGE RD","VERMILLION","SD",57069,42.8020920280001,-96.948162516,451,"2118 OLD BRIDGE RD, VERMILLION, SD, 57069","Match","Exact","2118 OLD BRIDGE RD, VERMILLION, SD, 57069",172956032,"L"
339952,"2118 OLD BRIDGE ROAD","VERMILLION","SD",57069,42.8020920280001,-96.948162516,452,"2118 OLD BRIDGE ROAD, VERMILLION, SD, 57069","Match","Exact","2118 OLD BRIDGE RD, VERMILLION, SD, 57069",172956032,"L"
339953,"2118 OPAL RIDGE","VISTA","CA",92081,33.1474784440001,-117.240623035,453,"2118 OPAL RIDGE, VISTA, CA, 92081","Match","Exact","2118 OPAL RIDGE, VISTA, CA, 92081",195431210,"R"
339954,"2118 OREGON AVE","LOUISVILLE","KY",40210,38.221205168,-85.7960911819999,454,"2118 OREGON AVE, LOUISVILLE, KY, 40210","Match","Exact","2118 OREGON AVE, LOUISVILLE, KY, 40210",96842894,"L"
339955,"2118 PICADILLY BLVD","MESQUITE","TX",75149,32.757500667,-96.629717861,455,"2118 PICADILLY BLVD, MESQUITE, TX, 75149","Match","Exact","2118 PICADILLY BLVD, MESQUITE, TX, 75149",102972257,"R"
339956,"2118 PORT ROYAL DRIVE","LAUGHLIN","NV",89029,35.1485416030001,-114.627863532,456,"2118 PORT ROYAL DRIVE, LAUGHLIN, NV, 89029","Match","Exact","2118 PORT ROYAL DR, LAUGHLIN, NV, 89029",650777626,"L"
339957,"2118 PROVIDENCE DR","AUGUSTA","GA",30904,33.4609643910001,-82.035465921,457,"2118 PROVIDENCE DR, AUGUSTA, GA, 30904","Match","Exact","2118 PROVIDENCE DR, AUGUSTA, GA, 30904",55636111,"L"
339958,"2118 PROVIDENCE ST","AUGUSTA","GA",30904,33.4609643910001,-82.035465921,458,"2118 PROVIDENCE ST, AUGUSTA, GA, 30904","Match","Non_Exact","2118 PROVIDENCE DR, AUGUSTA, GA, 30904",55636111,"L"
339959,"2118 REDCLIFFF ST","LOS ANGELES","CA",90039,34.098369561,-118.268979906,459,"2118 REDCLIFFF ST, LOS ANGELES, CA, 90039","Match","Non_Exact","2118 REDCLIFF ST, LOS ANGELES, CA, 90039",141610583,"R"
339960,"2118 REDCOAT LANE","MISSOURI CITY","TX",77489,29.5988242550001,-95.513557379,460,"2118 REDCOAT LANE, MISSOURI CITY, TX, 77489","Match","Non_Exact","2118 REDCOAT DR, MISSOURI CITY, TX, 77489",78297376,"R"
339961,"2118 REVEREND RICHARD WILSON BLVD","KENNER","LA",70062,NA,NA,461,"2118 REVEREND RICHARD WILSON BLVD, KENNER, LA, 70062","No_Match",NA,NA,NA,NA
339962,"2118 S 38TH AVE","OMAHA","NE",68105,41.2396554540001,-95.971450824,462,"2118 S 38TH AVE, OMAHA, NE, 68105","Match","Exact","2118 S 38TH AVE, OMAHA, NE, 68105",116984961,"R"
339963,"2118 S 59TH CT","CICERO","IL",60804,41.852142175,-87.77253666,463,"2118 S 59TH CT, CICERO, IL, 60804","Match","Exact","2118 S 59TH CT, CICERO, IL, 60804",605268031,"R"
339964,"2118 S DIXIELAND RD","ROGERS","AR",72758,36.3056511980001,-94.144381561,464,"2118 S DIXIELAND RD, ROGERS, AR, 72758","Match","Exact","2118 S DIXIELAND RD, ROGERS, AR, 72758",47893226,"R"
339965,"2118 SAGAMORE RD","CHARLOTTE","NC",28209,35.1632726710001,-80.83865479,465,"2118 SAGAMORE RD, CHARLOTTE, NC, 28209","Match","Exact","2118 SAGAMORE RD, CHARLOTTE, NC, 28209",70489118,"R"
339966,"2118 SCOTT ROAD","BROWN SUMMIT","NC",27214,36.1550565750001,-79.747364396,466,"2118 SCOTT ROAD, BROWN SUMMIT, NC, 27214","Match","Non_Exact","2118 SCOTT RD, BROWNS SUMMIT, NC, 27214",653619309,"R"
339967,"2118 SE 111TH AVENUE","CAPE CORAL","FL",33990,NA,NA,467,"2118 SE 111TH AVENUE, CAPE CORAL, FL, 33990","No_Match",NA,NA,NA,NA
339968,"2118 SECOND STREET","LEWISTON","ID",83501,46.399021227,-117.03080699,468,"2118 SECOND STREET, LEWISTON, ID, 83501","Match","Exact","2118 2ND ST, LEWISTON, ID, 83501",173131064,"L"
339969,"2118 SHILLING CHASE DR","KENNESAW","GA",30152,34.0031201990001,-84.633745925,469,"2118 SHILLING CHASE DR, KENNESAW, GA, 30152","Match","Exact","2118 SHILLING CHASE DR, KENNESAW, GA, 30152",17239898,"R"
339970,"2118 SKULL VALLEY DRIVE","SAN ANTONIO","TX",78245,29.407234558,-98.6991725299999,470,"2118 SKULL VALLEY DRIVE, SAN ANTONIO, TX, 78245","Match","Exact","2118 SKULL VALLEY DR, SAN ANTONIO, TX, 78245",101684696,"R"
339971,"2118 SMITH STREET","HOUSTON","TX",77002,29.7506576820001,-95.375015739,471,"2118 SMITH STREET, HOUSTON, TX, 77002","Match","Exact","2118 SMITH ST, HOUSTON, TX, 77002",96067146,"R"
339972,"2118 SMITH","HOUSTON","TX",77002,29.7506576820001,-95.375015739,472,"2118 SMITH, HOUSTON, TX, 77002","Match","Non_Exact","2118 SMITH ST, HOUSTON, TX, 77002",96067146,"R"
339973,"2118 SOUTH SHELLY DR","DEMING","NM",88030,32.2482905410001,-107.74032635,473,"2118 SOUTH SHELLY DR, DEMING, NM, 88030","Match","Exact","2118 S SHELLY DR, DEMING, NM, 88030",201343557,"L"
339974,"2118 SOUTH SMITH ROAD","BLOOMINGTON","IN",47401,39.146841646,-86.480422768,474,"2118 SOUTH SMITH ROAD, BLOOMINGTON, IN, 47401","Match","Exact","2118 S SMITH RD, BLOOMINGTON, IN, 47401",625244241,"R"
339975,"2118 ST NICK DRIVE","NEW ORLEANS","LA",70131,29.932559611,-90.010008534,475,"2118 ST NICK DRIVE, NEW ORLEANS, LA, 70131","Match","Exact","2118 SAINT NICK DR, NEW ORLEANS, LA, 70131",191719928,"L"
339976,"2118 STILLWATER RIVER RD","NYE","MT",59061,45.437643092,-109.808821241,476,"2118 STILLWATER RIVER RD, NYE, MT, 59061","Match","Exact","2118 STILLWATER RIVER RD, NYE, MT, 59061",181753504,"L"
339977,"2118 STILLWATER RIVER ROAD","NYE","MT",59061,45.437643092,-109.808821241,477,"2118 STILLWATER RIVER ROAD, NYE, MT, 59061","Match","Exact","2118 STILLWATER RIVER RD, NYE, MT, 59061",181753504,"L"
339978,"2118 SW 60TH AVE","MIAMI","FL",33155,25.7510806390001,-80.2924719769999,478,"2118 SW 60TH AVE, MIAMI, FL, 33155","Match","Exact","2118 SW 60TH AVE, MIAMI, FL, 33155",115977799,"R"
339979,"2118 TAOS DRIVE","SIERRA VISTA","AZ",85635,31.5311231860001,-110.273900345,479,"2118 TAOS DRIVE, SIERRA VISTA, AZ, 85635","Match","Exact","2118 TAOS DR, SIERRA VISTA, AZ, 85635",120988384,"L"
339980,"2118 TERRACE VIEW PLACE","ESCONDIDO","CA",92026,33.156922998,-117.096846339,480,"2118 TERRACE VIEW PLACE, ESCONDIDO, CA, 92026","Match","Exact","2118 TERRACE VIEW PL, ESCONDIDO, CA, 92026",195311404,"R"
339981,"2118 TORENA WAY","OXNARD","CA",93030,34.2155514180001,-119.151121288,481,"2118 TORENA WAY, OXNARD, CA, 93030","Match","Exact","2118 TORENA WAY, OXNARD, CA, 93030",110126359,"R"
339982,"2118 TREASURE MOUNTAIN DR","SPRING","TX",77388,30.058499657,-95.447157192,482,"2118 TREASURE MOUNTAIN DR, SPRING, TX, 77388","Match","Exact","2118 TREASURE MOUNTAIN DR, SPRING, TX, 77388",645002110,"R"
339983,"2118 TRICKLING CREEK DRIVE","GARLAND","TX",75040,32.8917078490001,-96.61304004,483,"2118 TRICKLING CREEK DRIVE, GARLAND, TX, 75040","Match","Non_Exact","2118 TRICKLING CREEK DR, GARLAND, TX, 75041",627365391,"L"
339984,"2118 VALLEY CREEK LN","SHAKOPEE","MN",55379,44.7638428750001,-93.5099166479999,484,"2118 VALLEY CREEK LN, SHAKOPEE, MN, 55379","Match","Exact","2118 VALLEY CREEK LN, SHAKOPEE, MN, 55379",606965608,"L"
339985,"2118 W 109TH STREET","LOS ANGELES","CA",90047,33.937330995,-118.316059341,485,"2118 W 109TH STREET, LOS ANGELES, CA, 90047","Match","Exact","2118 W 109TH ST, LOS ANGELES, CA, 90047",141660583,"L"
339986,"2118 W 75TH PL","CHICAGO","IL",60620,41.756955491,-87.676715294,486,"2118 W 75TH PL, CHICAGO, IL, 60620","Match","Exact","2118 W 75TH PL, CHICAGO, IL, 60620",111820634,"R"
339987,"2118 W CALEY PL","LITTLETON","CO",80120,39.601746909,-105.012972656,487,"2118 W CALEY PL, LITTLETON, CO, 80120","Match","Exact","2118 W CALEY PL, LITTLETON, CO, 80120",177335749,"L"
339988,"2118 W OLD SPANISH TRAIL APT I12","NEW IBERIA","LA",70560,NA,NA,488,"2118 W OLD SPANISH TRAIL APT I12, NEW IBERIA, LA, 70560","No_Match",NA,NA,NA,NA
339989,"2118 W RESERVE DR","PHILADELPHIA","PA",19145,39.9083804590001,-75.185418499,489,"2118 W RESERVE DR, PHILADELPHIA, PA, 19145","Match","Exact","2118 RESERVE DR, PHILADELPHIA, PA, 19145",625532972,"L"
339990,"2118 WELLINGTON LANE","SLIDELL","LA",70461,30.2540170870001,-89.742331301,490,"2118 WELLINGTON LANE, SLIDELL, LA, 70461","Match","Exact","2118 WELLINGTON LN, SLIDELL, LA, 70461",635284688,"L"
339991,"2118 WEST 90TH STREET","CHICAGO","IL",60643,41.730178106,-87.675029899,491,"2118 WEST 90TH STREET, CHICAGO, IL, 60643","Match","Exact","2118 W 90TH ST, CHICAGO, IL, 60643",111821206,"R"
339992,"2118 WILCOX STREET","CAMARILLO","CA",93010,34.22840275,-119.042342769,492,"2118 WILCOX STREET, CAMARILLO, CA, 93010","Match","Exact","2118 WILCOX ST, CAMARILLO, CA, 93010",109960678,"R"
339993,"2118 WILLOWMERE DR","DES MOINES","IA",50321,41.5569572270001,-93.645601631,493,"2118 WILLOWMERE DR, DES MOINES, IA, 50321","Match","Exact","2118 WILLOWMERE DR, DES MOINES, IA, 50321",65821926,"L"
339994,"2118 WILLOWMERE DRIVE","DES MOINES","IA",50321,41.5569572270001,-93.645601631,494,"2118 WILLOWMERE DRIVE, DES MOINES, IA, 50321","Match","Exact","2118 WILLOWMERE DR, DES MOINES, IA, 50321",65821926,"L"
339995,"2118 WILSHIRE BLVD NUM 514","SANTA MONICA","CA",90403,34.0323411210001,-118.48194532,495,"2118 WILSHIRE BLVD NUM 514, SANTA MONICA, CA, 90403","Match","Exact","2118 WILSHIRE BLVD, SANTA MONICA, CA, 90403",141559369,"R"
339996,"2118 WILSHIRE BLVD NUM 826","SANTA MONICA","CA",90403,34.0323411210001,-118.48194532,496,"2118 WILSHIRE BLVD NUM 826, SANTA MONICA, CA, 90403","Match","Exact","2118 WILSHIRE BLVD, SANTA MONICA, CA, 90403",141559369,"R"
339997,"2118 WILSHIRE BLVD SUITE 1098","SANTA MOINCA","CA",90403,34.0323411210001,-118.48194532,497,"2118 WILSHIRE BLVD SUITE 1098, SANTA MOINCA, CA, 90403","Match","Non_Exact","2118 WILSHIRE BLVD, SANTA MONICA, CA, 90403",141559369,"R"
339998,"2118 WILSHIRE BLVD SUITE 1098","SANTA MONICA","CA",90403,34.0323411210001,-118.48194532,498,"2118 WILSHIRE BLVD SUITE 1098, SANTA MONICA, CA, 90403","Match","Exact","2118 WILSHIRE BLVD, SANTA MONICA, CA, 90403",141559369,"R"
339999,"2118 WINTERLOCHEN ROAD","FAYETTEVILLE","NC",28305,35.0495497430001,-78.913135605,499,"2118 WINTERLOCHEN ROAD, FAYETTEVILLE, NC, 28305","Match","Exact","2118 WINTERLOCHEN RD, FAYETTEVILLE, NC, 28305",64199922,"R"
340000,"2118 WYNTERBROOK DRIVE","LITTLETON","CO",80126,39.5401556620001,-104.963914246,500,"2118 WYNTERBROOK DRIVE, LITTLETON, CO, 80126","Match","Non_Exact","2118 E WYNTERBROOK DR, LITTLETON, CO, 80126",130818318,"L"
