"ID","Address","City","State","Zip","lat","long","id","input_address","match_indicator","match_type","matched_address","tiger_line_id","tiger_side"
269501,"1809 DRIFTWOOD LN","GALVESTON","TX",77551,29.2775616120001,-94.8402031479999,1,"1809 DRIFTWOOD LN, GALVESTON, TX, 77551","Match","Exact","1809 DRIFTWOOD LN, GALVESTON, TX, 77551",96678411,"R"
269502,"1809 E 71ST STREET","CHICAGO","IL",60649,41.7660263080001,-87.5808818789999,2,"1809 E 71ST STREET, CHICAGO, IL, 60649","Match","Exact","1809 E 71ST ST, CHICAGO, IL, 60649",641753704,"L"
269503,"1809 E ALABAMA ST","PLANT CITY","FL",33563,28.011180213,-82.1068368429999,3,"1809 E ALABAMA ST, PLANT CITY, FL, 33563","Match","Exact","1809 E ALABAMA ST, PLANT CITY, FL, 33563",104503906,"R"
269504,"1809 E BROADWAY STREET SUITE 206","OVIEDO","FL",32765,NA,NA,4,"1809 E BROADWAY STREET SUITE 206, OVIEDO, FL, 32765","Tie",NA,NA,NA,NA
269505,"1809 E HANCEVILLE RD SE","CULLMAN","AL",35055,34.1542386580001,-86.813961244,5,"1809 E HANCEVILLE RD SE, CULLMAN, AL, 35055","Match","Exact","1809 HANCEVILLE RD SE, CULLMAN, AL, 35055",648036492,"L"
269506,"1809 E KELSEY DR","STILLWATER","OK",74075,36.1265426260001,-97.0361986939999,6,"1809 E KELSEY DR, STILLWATER, OK, 74075","Match","Exact","1809 E KELSEY DR, STILLWATER, OK, 74075",166385055,"L"
269507,"1809 E MARION ST APT 107","SHOREWOOD","WI",53211,43.094606239,-87.887156343,7,"1809 E MARION ST APT 107, SHOREWOOD, WI, 53211","Match","Non_Exact","1809 E MARION ST, SHOREWOOD, WI, 53211",77743235,"R"
269508,"1809 E MARKET ST","CHARLOTTESVILLE","VA",22902,38.0222496660001,-78.457224261,8,"1809 E MARKET ST, CHARLOTTESVILLE, VA, 22902","Match","Non_Exact","1809 MARKET ST E, CHARLOTTESVILLE, VA, 22902",83371520,"L"
269509,"1809 E MOORE STREET","DECATUR","IL",62522,39.834549392,-88.9321335929999,9,"1809 E MOORE STREET, DECATUR, IL, 62522","Match","Non_Exact","1809 E MOORE ST, DECATUR, IL, 62521",20748052,"R"
269510,"1809 E MOUNTAIN VIEW RD","PHOENIX","AZ",85020,33.5752439350001,-112.044201338,10,"1809 E MOUNTAIN VIEW RD, PHOENIX, AZ, 85020","Match","Exact","1809 E MOUNTAIN VIEW RD, PHOENIX, AZ, 85020",128382866,"R"
269511,"1809 EAST 71ST STREET","CHICAGO","IL",60649,41.766026272,-87.5808851629999,11,"1809 EAST 71ST STREET, CHICAGO, IL, 60649","Match","Exact","1809 E 71ST ST, CHICAGO, IL, 60649",641753704,"L"
269512,"1809 EAST BAGEND ST","SALT LAKE CITY","UT",84106,40.700382092,-111.839533292,12,"1809 EAST BAGEND ST, SALT LAKE CITY, UT, 84106","Match","Non_Exact","1809 BAGEND ST, SALT LAKE CITY, UT, 84106",176135778,"R"
269513,"1809 EAST BROADWAY","OVIEDO","FL",32765,28.6632252970001,-81.1821119969999,13,"1809 EAST BROADWAY, OVIEDO, FL, 32765","Match","Non_Exact","1809 E BROADWAY ST, OVIEDO, FL, 32765",635938207,"R"
269514,"1809 EAST E STREET","TORRINGTON","WY",82240,42.062225777,-104.177716493,14,"1809 EAST E STREET, TORRINGTON, WY, 82240","Match","Exact","1809 E E ST, TORRINGTON, WY, 82240",159775101,"R"
269515,"1809 EAST INDIAN WELLS LANE","DRAPER","UT",84020,40.5286022010001,-111.839815748,15,"1809 EAST INDIAN WELLS LANE, DRAPER, UT, 84020","Match","Non_Exact","1809 INDIAN WELLS LN, DRAPER, UT, 84020",646730049,"L"
269516,"1809 EVANS LN","LOCHBUIE","CO",80603,40.003193046,-104.748259226,16,"1809 EVANS LN, LOCHBUIE, CO, 80603","Match","Exact","1809 EVANS LN, LOCHBUIE, CO, 80603",635645829,"L"
269517,"1809 FAIRVIEW STREET","ANDERSON","IN",46016,40.0981144200001,-85.687351464,17,"1809 FAIRVIEW STREET, ANDERSON, IN, 46016","Match","Exact","1809 FAIRVIEW ST, ANDERSON, IN, 46016",636454726,"R"
269518,"1809 FAST FILLY AVE","PFLUGERVILLE","TX",78660,30.4910290190001,-97.575389822,18,"1809 FAST FILLY AVE, PFLUGERVILLE, TX, 78660","Match","Exact","1809 FAST FILLY AVE, PFLUGERVILLE, TX, 78660",63983463,"R"
269519,"1809 FIRST ST N UNIT 502","JACKSONVILLE BEACH","FL",32250,30.305382819,-81.39288871,19,"1809 FIRST ST N UNIT 502, JACKSONVILLE BEACH, FL, 32250","Match","Exact","1809 1ST ST N, JACKSONVILLE BEACH, FL, 32250",83923411,"R"
269520,"1809 FLATIRON AVE","IOWA CITY","IA",52240,41.6378319880001,-91.510034465,20,"1809 FLATIRON AVE, IOWA CITY, IA, 52240","Match","Exact","1809 FLATIRON AVE, IOWA CITY, IA, 52240",84496434,"R"
269521,"1809 FLORENCE VISTA","ORLANDO","FL",32818,28.567508205,-81.508688998,21,"1809 FLORENCE VISTA, ORLANDO, FL, 32818","Match","Non_Exact","1809 FLORENCE VISTA BLVD, ORLANDO, FL, 32818",94371822,"R"
269522,"1809 FLOWER DRIVE","PALM BEACH GARDENS","FL",33410,26.8791537590001,-80.0969199529999,22,"1809 FLOWER DRIVE, PALM BEACH GARDENS, FL, 33410","Match","Exact","1809 FLOWER DR, PALM BEACH GARDENS, FL, 33410",115544545,"R"
269523,"1809 FM 359 SOUTH","BROOKSHIRE","TX",77423,29.7631956970001,-95.9510052479999,23,"1809 FM 359 SOUTH, BROOKSHIRE, TX, 77423","Match","Non_Exact","1809 FM 359, BROOKSHIRE, TX, 77423",625659205,"R"
269524,"1809 FOREST DRIVE","BIRMINGHAM","AL",35235,33.6231739300001,-86.6501074239999,24,"1809 FOREST DRIVE, BIRMINGHAM, AL, 35235","Match","Exact","1809 FOREST DR, BIRMINGHAM, AL, 35235",81569862,"R"
269525,"1809 FORNEY DR","HUNTSVILLE","AL",35816,34.7469337640001,-86.6416997919999,25,"1809 FORNEY DR, HUNTSVILLE, AL, 35816","Match","Non_Exact","1809 FORNEY DR NW, HUNTSVILLE, AL, 35816",58113220,"L"
269526,"1809 FRANKLIN ST N","DEARBORN","MI",48128,NA,NA,26,"1809 FRANKLIN ST N, DEARBORN, MI, 48128","No_Match",NA,NA,NA,NA
269527,"1809 FRENCH CREEK ROAD","TAMPA","FL",33613,28.0718375820001,-82.439751868,27,"1809 FRENCH CREEK ROAD, TAMPA, FL, 33613","Match","Exact","1809 FRENCH CREEK RD, TAMPA, FL, 33613",104512453,"R"
269528,"1809 FULLER AVENUE","KANSAS CITY","MO",64126,39.088198193,-94.5070205229999,28,"1809 FULLER AVENUE, KANSAS CITY, MO, 64126","Match","Exact","1809 FULLER AVE, KANSAS CITY, MO, 64126",91458996,"L"
269529,"1809 FULLERS OAK LOOP","WINTER GARDEN","FL",34787,28.5909479330001,-81.564318617,29,"1809 FULLERS OAK LOOP, WINTER GARDEN, FL, 34787","Match","Exact","1809 FULLERS OAK LOOP, WINTER GARDEN, FL, 34787",649052224,"R"
269530,"1809 FUST AVE","LOUISVILLE","KY",40216,38.2157683770001,-85.7959658839999,30,"1809 FUST AVE, LOUISVILLE, KY, 40216","Match","Exact","1809 FUST AVE, LOUISVILLE, KY, 40216",96893393,"R"
269531,"1809 GARDEN STREET","NEW BERN","NC",28560,35.1186124600001,-77.058248911,31,"1809 GARDEN STREET, NEW BERN, NC, 28560","Match","Exact","1809 GARDEN ST, NEW BERN, NC, 28560",34112080,"L"
269532,"1809 GLENPARK DR","SILVER SPRING","MD",20902,39.035595662,-77.0390403,32,"1809 GLENPARK DR, SILVER SPRING, MD, 20902","Match","Exact","1809 GLENPARK DR, SILVER SPRING, MD, 20902",62064233,"R"
269533,"1809 GLOUCHESTER","BAKERSFIELD","CA",93311,35.3381327970001,-119.132162718,33,"1809 GLOUCHESTER, BAKERSFIELD, CA, 93311","Match","Non_Exact","1809 GLOUCHESTER DR, BAKERSFIELD, CA, 93311",109530712,"R"
269534,"1809 GREGORY COVE","CLARKSDALE","MS",38614,34.1910009330001,-90.5538468509999,34,"1809 GREGORY COVE, CLARKSDALE, MS, 38614","Match","Exact","1809 GREGORY COVE, CLARKSDALE, MS, 38614",952948,"R"
269535,"1809 GREYMOUTH RD","CHARLOTTE","NC",28262,35.3371914730001,-80.712509003,35,"1809 GREYMOUTH RD, CHARLOTTE, NC, 28262","Match","Exact","1809 GREYMOUTH RD, CHARLOTTE, NC, 28262",648379647,"L"
269536,"1809 GUILFORD LANE","OKLAHOMA CITY","OK",73120,35.5530626890001,-97.553932276,36,"1809 GUILFORD LANE, OKLAHOMA CITY, OK, 73120","Match","Exact","1809 GUILFORD LN, OKLAHOMA CITY, OK, 73120",100393934,"R"
269537,"1809 GUILFORD","OKLAHOMA CITY","OK",73120,35.5530626890001,-97.553932276,37,"1809 GUILFORD, OKLAHOMA CITY, OK, 73120","Match","Non_Exact","1809 GUILFORD LN, OKLAHOMA CITY, OK, 73120",100393934,"R"
269538,"1809 GUM ROAD","WOODBINE","MD",21797,39.3667673320001,-77.05880357,38,"1809 GUM ROAD, WOODBINE, MD, 21797","Match","Exact","1809 GUM RD, WOODBINE, MD, 21797",209391036,"L"
269539,"1809 HARPSTER ST","PITTSBURGH","PA",15212,40.4651966690001,-79.982965085,39,"1809 HARPSTER ST, PITTSBURGH, PA, 15212","Match","Exact","1809 HARPSTER ST, PITTSBURGH, PA, 15212",51628234,"R"
269540,"1809 HEATHER GLEN","DALLAS","TX",75232,32.674862773,-96.84988322,40,"1809 HEATHER GLEN, DALLAS, TX, 75232","Match","Non_Exact","1809 HEATHER GLEN DR, DALLAS, TX, 75232",102947664,"R"
269541,"1809 HIGDON AVE UNIT 2","MOUNTAIN VIEW","CA",94041,NA,NA,41,"1809 HIGDON AVE UNIT 2, MOUNTAIN VIEW, CA, 94041","No_Match",NA,NA,NA,NA
269542,"1809 HIGH STREET","NEW BERN","NC",28560,35.124982441,-77.051012256,42,"1809 HIGH STREET, NEW BERN, NC, 28560","Match","Exact","1809 HIGH ST, NEW BERN, NC, 28560",34114402,"L"
269543,"1809 HIGHLAND AVENUE","WAUKESHA","WI",53186,43.025553132,-88.2128004739999,43,"1809 HIGHLAND AVENUE, WAUKESHA, WI, 53186","Match","Exact","1809 HIGHLAND AVE, WAUKESHA, WI, 53186",53812468,"R"
269544,"1809 HISLE WAY APT B","LEXINGTON","KY",40505,38.051242888,-84.451535217,44,"1809 HISLE WAY APT B, LEXINGTON, KY, 40505","Match","Exact","1809 HISLE WAY, LEXINGTON, KY, 40505",31946209,"L"
269545,"1809 HOLLISTER ST","HOUSTON","TX",77080,29.803252876,-95.5065275439999,45,"1809 HOLLISTER ST, HOUSTON, TX, 77080","Match","Exact","1809 HOLLISTER ST, HOUSTON, TX, 77080",96635716,"L"
269546,"1809 HONEY CREEK COMMONS","CONYERS","GA",30013,33.5927112630001,-84.012883575,46,"1809 HONEY CREEK COMMONS, CONYERS, GA, 30013","Match","Non_Exact","1809 HONEY CREEK CMNS SE, CONYERS, GA, 30013",645519159,"R"
269547,"1809 HOWARD","B","MT",59701,NA,NA,47,"1809 HOWARD, B, MT, 59701","No_Match",NA,NA,NA,NA
269548,"1809 HOWARD","BUTTE","MT",59701,45.996640067,-112.506013799,48,"1809 HOWARD, BUTTE, MT, 59701","Match","Non_Exact","1809 HOWARD ST, BUTTE, MT, 59701",153578976,"L"
269549,"1809 HUNTINGTON STREET A","HUNTINGTON BEACH","CA",92648,33.6731664530001,-117.995169542,49,"1809 HUNTINGTON STREET A, HUNTINGTON BEACH, CA, 92648","Match","Exact","1809 HUNTINGTON ST, HUNTINGTON BEACH, CA, 92648",144019804,"L"
269550,"1809 INLET DR","MARCO ISLAND","FL",34145,25.9139083600001,-81.699214405,50,"1809 INLET DR, MARCO ISLAND, FL, 34145","Match","Exact","1809 INLET DR, MARCO ISLAND, FL, 34145",115122710,"R"
269551,"1809 INTEL DR","MARCO ISLAND","FL",34145,NA,NA,51,"1809 INTEL DR, MARCO ISLAND, FL, 34145","No_Match",NA,NA,NA,NA
269552,"1809 IVORY GULL DRIVE","MOREHEAD CITY","NC",28557,34.74669206,-76.719789267,52,"1809 IVORY GULL DRIVE, MOREHEAD CITY, NC, 28557","Match","Exact","1809 IVORY GULL DR, MOREHEAD CITY, NC, 28557",644127284,"L"
269553,"1809 JENNINGS RD","GRANVILLE SUMMIT","PA",16926,41.681907021,-76.7617117029999,53,"1809 JENNINGS RD, GRANVILLE SUMMIT, PA, 16926","Match","Exact","1809 JENNINGS RD, GRANVILLE SUMMIT, PA, 16926",176985701,"L"
269554,"1809 JOYCE STREET","GREENSBORO","NC",27405,36.099671012,-79.760113539,54,"1809 JOYCE STREET, GREENSBORO, NC, 27405","Match","Exact","1809 JOYCE ST, GREENSBORO, NC, 27405",131034776,"L"
269555,"1809 KINSALE DR","KELLER","TX",76262,32.9648322890001,-97.200692611,55,"1809 KINSALE DR, KELLER, TX, 76262","Match","Exact","1809 KINSALE DR, KELLER, TX, 76262",102146606,"L"
269556,"1809 KINSMERE DR","TRINITY","FL",34655,28.1840345200001,-82.674899913,56,"1809 KINSMERE DR, TRINITY, FL, 34655","Match","Exact","1809 KINSMERE DR, TRINITY, FL, 34655",86379976,"R"
269557,"1809 L STREET","AURORA","NE",68818,40.8675756580001,-97.995069039,57,"1809 L STREET, AURORA, NE, 68818","Match","Exact","1809 L ST, AURORA, NE, 68818",639920862,"L"
269558,"1809 LAKE TAWAKONI DRIVE","ALLEN","TX",75002,33.088059109,-96.622171554,58,"1809 LAKE TAWAKONI DRIVE, ALLEN, TX, 75002","Match","Exact","1809 LAKE TAWAKONI DR, ALLEN, TX, 75002",123567446,"R"
269559,"1809 LAKEWOOD DR","ELIZABETHTOWN","KY",42701,37.7369314100001,-85.87702934,59,"1809 LAKEWOOD DR, ELIZABETHTOWN, KY, 42701","Match","Exact","1809 LAKEWOOD DR, ELIZABETHTOWN, KY, 42701",34646328,"R"
269560,"1809 LAKEWOOD DRIVE SOUTH","ST PETERSBURG","FL",33712,27.721174309,-82.657327903,60,"1809 LAKEWOOD DRIVE SOUTH, ST PETERSBURG, FL, 33712","Match","Exact","1809 LAKEWOOD DR S, SAINT PETERSBURG, FL, 33712",124711231,"R"
269561,"1809 LEAD MINE RD","AUSTINVILLE","VA",24312,36.849744894,-80.858796132,61,"1809 LEAD MINE RD, AUSTINVILLE, VA, 24312","Match","Exact","1809 LEAD MINE RD, AUSTINVILLE, VA, 24312",47654221,"L"
269562,"1809 LINCOLN AVENUE SOUTH","ST. PAUL","MN",55105,NA,NA,62,"1809 LINCOLN AVENUE SOUTH, ST. PAUL, MN, 55105","No_Match",NA,NA,NA,NA
269563,"1809 LOCHWOOD DRIVE","GREENSBORO","NC",27406,36.048973333,-79.7120133929999,63,"1809 LOCHWOOD DRIVE, GREENSBORO, NC, 27406","Match","Exact","1809 LOCHWOOD DR, GREENSBORO, NC, 27406",131098724,"R"
269564,"1809 LOUISIANA AVE S","SAINT LOUIS PARK","MN",55426,44.9652038,-93.37097714,64,"1809 LOUISIANA AVE S, SAINT LOUIS PARK, MN, 55426","Match","Exact","1809 LOUISIANA AVE S, SAINT LOUIS PARK, MN, 55426",43619512,"L"
269565,"1809 MADISON AV","BALTIMORE","MD",21217,39.3072222660001,-76.632010914,65,"1809 MADISON AV, BALTIMORE, MD, 21217","Match","Exact","1809 MADISON AVE, BALTIMORE, MD, 21217",206417010,"R"
269566,"1809 MARILYN DRIVE","CARUTHERSVILLE","MO",63830,36.1795728590001,-89.673746315,66,"1809 MARILYN DRIVE, CARUTHERSVILLE, MO, 63830","Match","Exact","1809 MARILYN DR, CARUTHERSVILLE, MO, 63830",38900028,"L"
269567,"1809 MASON WAY","LANCASTER","TX",75134,32.6146623450001,-96.798504055,67,"1809 MASON WAY, LANCASTER, TX, 75134","Match","Exact","1809 MASON WAY, LANCASTER, TX, 75134",619094192,"L"
269568,"1809 MEADOW RIDGE COURT","BETHLEHEM","PA",18015,40.5708202430001,-75.353379982,68,"1809 MEADOW RIDGE COURT, BETHLEHEM, PA, 18015","Match","Exact","1809 MEADOW RIDGE CT, BETHLEHEM, PA, 18015",136893967,"L"
269569,"1809 MEEKER LOOP","LAPLACE","LA",70068,30.0794257690001,-90.503725474,69,"1809 MEEKER LOOP, LAPLACE, LA, 70068","Match","Non_Exact","1809 MEEKER LOOP, LA PLACE, LA, 70068",93708965,"R"
269570,"1809 MEETING STREET APT 10133","LEXINGTON","KY",40509,38.040169549,-84.441093532,70,"1809 MEETING STREET APT 10133, LEXINGTON, KY, 40509","Match","Exact","1809 MEETING ST, LEXINGTON, KY, 40509",650847069,"L"
269571,"1809 MONROE ST NE","WASHINGTON","DC",20018,38.933113732,-76.979225226,71,"1809 MONROE ST NE, WASHINGTON, DC, 20018","Match","Exact","1809 MONROE ST NE, WASHINGTON, DC, 20018",76229135,"R"
269572,"1809 MONTAUK WAY","DESOTO","TX",75115,32.609101508,-96.90468243,72,"1809 MONTAUK WAY, DESOTO, TX, 75115","Match","Exact","1809 MONTAUK WAY, DESOTO, TX, 75115",629574252,"L"
269573,"1809 MOSSBERG DRIVE","SUMTER","SC",29150,33.9718951880001,-80.408015018,73,"1809 MOSSBERG DRIVE, SUMTER, SC, 29150","Match","Exact","1809 MOSSBERG DR, SUMTER, SC, 29150",647245695,"R"
269574,"1809 MULLIGAN CT","WENTZVILLE","MO",63385,38.8144522220001,-90.889904472,74,"1809 MULLIGAN CT, WENTZVILLE, MO, 63385","Match","Exact","1809 MULLIGAN CT, WENTZVILLE, MO, 63385",100067048,"R"
269575,"1809 N 3RD ST","YAKIMA","WA",98901,46.623923398,-120.507963532,75,"1809 N 3RD ST, YAKIMA, WA, 98901","Match","Exact","1809 N 3RD ST, YAKIMA, WA, 98901",184936356,"R"
269576,"1809 N 81ST STREET","LINCOLN","NE",68505,40.8310357780001,-96.6115964479999,76,"1809 N 81ST STREET, LINCOLN, NE, 68505","Match","Exact","1809 N 81ST ST, LINCOLN, NE, 68505",28283304,"L"
269577,"1809 N BLACK HORSE PIKE 12","WILLIAMSTOWN","NJ",8094,NA,NA,77,"1809 N BLACK HORSE PIKE 12, WILLIAMSTOWN, NJ, 8094","Tie",NA,NA,NA,NA
269578,"1809 N EVERGREEN ST","CHANDLER","AZ",85225,33.3339554520001,-111.854069299,78,"1809 N EVERGREEN ST, CHANDLER, AZ, 85225","Match","Exact","1809 N EVERGREEN ST, CHANDLER, AZ, 85225",128242265,"R"
269579,"1809 N GRATZ ST","PHILADELPHIA","PA",19121,39.981595172,-75.164616746,79,"1809 N GRATZ ST, PHILADELPHIA, PA, 19121","Match","Exact","1809 N GRATZ ST, PHILADELPHIA, PA, 19121",131405894,"R"
269580,"1809 N MANNHEIM RD","STONE PARK","IL",60165,NA,NA,80,"1809 N MANNHEIM RD, STONE PARK, IL, 60165","Tie",NA,NA,NA,NA
269581,"1809 N OCONNOR ROAD","IRVING","TX",75061,32.8336479880001,-96.951097481,81,"1809 N OCONNOR ROAD, IRVING, TX, 75061","Match","Non_Exact","1809 N O CONNOR RD, IRVING, TX, 75061",102891569,"L"
269582,"1809 N SALISBURY STREET","WEST LAFAYETTE","IN",47906,40.443742623,-86.9131898809999,82,"1809 N SALISBURY STREET, WEST LAFAYETTE, IN, 47906","Match","Exact","1809 N SALISBURY ST, W LAFAYETTE, IN, 47906",615711472,"L"
269583,"1809 N VINE","SANTA MARIA","CA",93454,34.973693601,-120.432972978,83,"1809 N VINE, SANTA MARIA, CA, 93454","Match","Non_Exact","1809 VINE ST, SANTA MARIA, CA, 93454",108594516,"R"
269584,"1809 N WASHINGTON STREET","WILMINGTON","DE",19802,39.7539121930001,-75.545571265,84,"1809 N WASHINGTON STREET, WILMINGTON, DE, 19802","Match","Exact","1809 N WASHINGTON ST, WILMINGTON, DE, 19802",187258829,"L"
269585,"1809 N WASHINGTON","WILMINGTON","DE",19802,39.7539121930001,-75.545571265,85,"1809 N WASHINGTON, WILMINGTON, DE, 19802","Match","Non_Exact","1809 N WASHINGTON ST, WILMINGTON, DE, 19802",187258829,"L"
269586,"1809 N WISCONSIN ST","MITCHELL","SD",57301,43.727227198,-98.032698076,86,"1809 N WISCONSIN ST, MITCHELL, SD, 57301","Match","Exact","1809 N WISCONSIN ST, MITCHELL, SD, 57301",200661560,"L"
269587,"1809 NE 1ST TERRACE","CAPE CORAL","FL",33909,26.655225424,-81.93750579,87,"1809 NE 1ST TERRACE, CAPE CORAL, FL, 33909","Match","Exact","1809 NE 1ST TER, CAPE CORAL, FL, 33909",118009428,"L"
269588,"1809 NEW YORK AVENUE","BELLMORE","NY",11710,40.678576981,-73.537533147,88,"1809 NEW YORK AVENUE, BELLMORE, NY, 11710","Match","Exact","1809 NEW YORK AVE, BELLMORE, NY, 11710",147636212,"L"
269589,"1809 NEW YORK AVENUE","BROOKLYN","NY",11210,40.627935983,-73.944169207,89,"1809 NEW YORK AVENUE, BROOKLYN, NY, 11210","Match","Exact","1809 NEW YORK AVE, BROOKLYN, NY, 11210",59082025,"L"
269590,"1809 NICHOLSON ST","CRESTHILL","IL",60403,41.5562406550001,-88.094692502,90,"1809 NICHOLSON ST, CRESTHILL, IL, 60403","Match","Non_Exact","1809 NICHOLSON ST, CREST HILL, IL, 60403",111540431,"L"
269591,"1809 NORTH WASHINGTON STREET","WILMINGTON","DE",19802,39.75391159,-75.545572614,91,"1809 NORTH WASHINGTON STREET, WILMINGTON, DE, 19802","Match","Exact","1809 N WASHINGTON ST, WILMINGTON, DE, 19802",187258829,"L"
269592,"1809 NORTH YUCCA STREET","SILVER CITY","NM",88061,32.783477663,-108.271852922,92,"1809 NORTH YUCCA STREET, SILVER CITY, NM, 88061","Match","Exact","1809 N YUCCA ST, SILVER CITY, NM, 88061",192654051,"L"
269593,"1809 OCONEE CR","CORDELLE","GA",31015,31.9503814600001,-83.794402611,93,"1809 OCONEE CR, CORDELLE, GA, 31015","Match","Non_Exact","1809 OCONEE CIR, CORDELE, GA, 31015",15662348,"R"
269594,"1809 OLD BARN RD","ROCKY MOUNT","NC",27804,35.9931823040001,-77.8142677819999,94,"1809 OLD BARN RD, ROCKY MOUNT, NC, 27804","Match","Exact","1809 OLD BARN RD, ROCKY MOUNT, NC, 27804",90384829,"L"
269595,"1809 ONE LOVE STREET","CHARLESTON","SC",29412,32.7263391010001,-79.981930483,95,"1809 ONE LOVE STREET, CHARLESTON, SC, 29412","Match","Exact","1809 ONE LOVE ST, CHARLESTON, SC, 29412",108811795,"L"
269596,"1809 ONE LOVE STREET","CHARLETSON","SC",29412,32.7263391010001,-79.981930483,96,"1809 ONE LOVE STREET, CHARLETSON, SC, 29412","Match","Non_Exact","1809 ONE LOVE ST, CHARLESTON, SC, 29412",108811795,"L"
269597,"1809 OSBORN ROAD","LANSING","MI",48915,42.7387521300001,-84.576043866,97,"1809 OSBORN ROAD, LANSING, MI, 48915","Match","Exact","1809 OSBORN RD, LANSING, MI, 48915",17497996,"L"
269598,"1809 OVERLAND AVE UNIT 1","LOS ANGELES","CA",90025,34.0511501770001,-118.432600522,98,"1809 OVERLAND AVE UNIT 1, LOS ANGELES, CA, 90025","Match","Exact","1809 OVERLAND AVE, LOS ANGELES, CA, 90025",141568012,"R"
269599,"1809 OVERLAND AVE","LOS ANGELES","CA",90025,34.0511501770001,-118.432600522,99,"1809 OVERLAND AVE, LOS ANGELES, CA, 90025","Match","Exact","1809 OVERLAND AVE, LOS ANGELES, CA, 90025",141568012,"R"
269600,"1809 PALOS VERDES DRIVE WEST","PALOS VERDES ESTATES","CA",90274,33.780603736,-118.415263021,100,"1809 PALOS VERDES DRIVE WEST, PALOS VERDES ESTATES, CA, 90274","Match","Exact","1809 PALOS VERDES DR W, PALOS VERDES ESTATES, CA, 90274",142722665,"R"
269601,"1809 PENNFIELD DR","COLUMBIA","SC",29223,34.0663038480001,-80.9135182859999,101,"1809 PENNFIELD DR, COLUMBIA, SC, 29223","Match","Exact","1809 PENNFIELD DR, COLUMBIA, SC, 29223",71826039,"L"
269602,"1809 PEPPERTREE LANE","LANSING","MI",48912,42.757272168,-84.525238098,102,"1809 PEPPERTREE LANE, LANSING, MI, 48912","Match","Exact","1809 PEPPERTREE LN, LANSING, MI, 48912",17500439,"L"
269603,"1809 PINEDALE DR","RALEIGH","NC",27603,35.699690366,-78.670064166,103,"1809 PINEDALE DR, RALEIGH, NC, 27603","Match","Exact","1809 PINEDALE DR, RALEIGH, NC, 27603",72504411,"L"
269604,"1809 PORTLAND DR","PORTLAND","TX",78374,27.889387802,-97.322782917,104,"1809 PORTLAND DR, PORTLAND, TX, 78374","Match","Exact","1809 PORTLAND DR, PORTLAND, TX, 78374",36325132,"R"
269605,"1809 POWERS ROAD","WOODSTOCK","IL",60098,42.3367925740001,-88.434360179,105,"1809 POWERS ROAD, WOODSTOCK, IL, 60098","Match","Exact","1809 POWERS RD, WOODSTOCK, IL, 60098",627550058,"R"
269606,"1809 QUIETT LANE","MITCHELL","SD",57301,43.7077005530001,-97.9988352559999,106,"1809 QUIETT LANE, MITCHELL, SD, 57301","Match","Exact","1809 QUIETT LN, MITCHELL, SD, 57301",200665326,"R"
269607,"1809 REGENCY","KEARNEY","MO",64060,39.3538977750001,-94.367318488,107,"1809 REGENCY, KEARNEY, MO, 64060","Match","Non_Exact","1809 REGENCY DR, KEARNEY, MO, 64060",89766748,"R"
269608,"1809 RENCH RD","BAKERSFIELD","CA",93308,35.4222794790001,-119.050611455,108,"1809 RENCH RD, BAKERSFIELD, CA, 93308","Match","Exact","1809 RENCH RD, BAKERSFIELD, CA, 93308",109084138,"L"
269609,"1809 RIDGEFIELD WAY","DALTON","GA",30720,34.811257491,-84.9978028739999,109,"1809 RIDGEFIELD WAY, DALTON, GA, 30720","Match","Exact","1809 RIDGEFIELD WAY, DALTON, GA, 30720",57385321,"R"
269610,"1809 RIVERCHASE DRIVE UNIT 361061","HOOVER","AL",35236,33.3735932070001,-86.810522683,110,"1809 RIVERCHASE DRIVE UNIT 361061, HOOVER, AL, 35236","Match","Non_Exact","1809 RIVERCHASE DR, HOOVER, AL, 35244",81589483,"L"
269611,"1809 RIVERVIEW CIRCLE","SCOTTSBORO","AL",35769,34.640209041,-86.02718168,111,"1809 RIVERVIEW CIRCLE, SCOTTSBORO, AL, 35769","Match","Exact","1809 RIVERVIEW CIR, SCOTTSBORO, AL, 35769",58047203,"R"
269612,"1809 ROSEDALE AVE","KNOXVILLE","TN",37915,35.973291987,-83.901900466,112,"1809 ROSEDALE AVE, KNOXVILLE, TN, 37915","Match","Non_Exact","1809 ROSEDALE AVE SE, KNOXVILLE, TN, 37915",42622483,"L"
269613,"1809 ROSEWELL DR","ROCK HILL","NC",29732,NA,NA,113,"1809 ROSEWELL DR, ROCK HILL, NC, 29732","No_Match",NA,NA,NA,NA
269614,"1809 RUSHLEY ROAD","BALTIMORE","MD",21234,39.403494439,-76.5547859489999,114,"1809 RUSHLEY ROAD, BALTIMORE, MD, 21234","Match","Exact","1809 RUSHLEY RD, BALTIMORE, MD, 21234",191475846,"R"
269615,"1809 RUSTICA DRIVE","DURHAM","NC",27713,35.946863942,-78.881956455,115,"1809 RUSTICA DRIVE, DURHAM, NC, 27713","Match","Exact","1809 RUSTICA DR, DURHAM, NC, 27713",648140231,"L"
269616,"1809 S 22ND STREET","LOUISVILLE","KY",40210,38.2248598310001,-85.79447387,116,"1809 S 22ND STREET, LOUISVILLE, KY, 40210","Match","Exact","1809 S 22ND ST, LOUISVILLE, KY, 40210",96868180,"L"
269617,"1809 S DOVER POINT RD","HENRICO","VA",23238,NA,NA,117,"1809 S DOVER POINT RD, HENRICO, VA, 23238","No_Match",NA,NA,NA,NA
269618,"1809 S GIDDINGS ST","VISALIA","CA",93277,36.314596151,-119.305357662,118,"1809 S GIDDINGS ST, VISALIA, CA, 93277","Match","Exact","1809 S GIDDINGS ST, VISALIA, CA, 93277",202780583,"R"
269619,"1809 S HERVEY","BOISE","ID",83705,NA,NA,119,"1809 S HERVEY, BOISE, ID, 83705","Tie",NA,NA,NA,NA
269620,"1809 S KEARNEY STREET","DENVER","CO",80224,39.683629276,-104.917076215,120,"1809 S KEARNEY STREET, DENVER, CO, 80224","Match","Exact","1809 S KEARNEY ST, DENVER, CO, 80224",177340450,"R"
269621,"1809 S MULBERRY STREET","MUNCIE","IN",47302,40.1792397200001,-85.385241153,121,"1809 S MULBERRY STREET, MUNCIE, IN, 47302","Match","Exact","1809 S MULBERRY ST, MUNCIE, IN, 47302",30837690,"R"
269622,"1809 S RIVERSIDE DR","AMES","IA",50011,NA,NA,122,"1809 S RIVERSIDE DR, AMES, IA, 50011","No_Match",NA,NA,NA,NA
269623,"1809 SABRE ST","HAYWARD","CA",94545,37.6565672890001,-122.130777789,123,"1809 SABRE ST, HAYWARD, CA, 94545","Match","Exact","1809 SABRE ST, HAYWARD, CA, 94545",125019651,"R"
269624,"1809 SESSILE OAK COURT","VIRGINIA BEACH","VA",23456,36.759000047,-76.036053689,124,"1809 SESSILE OAK COURT, VIRGINIA BEACH, VA, 23456","Match","Exact","1809 SESSILE OAK CT, VA BCH, VA, 23456",122311406,"R"
269625,"1809 SHADOW KNOLL PLACE","EL CAJON","CA",92020,32.766462301,-116.933906616,125,"1809 SHADOW KNOLL PLACE, EL CAJON, CA, 92020","Match","Non_Exact","1809 SHADOW KNOLLS PL, EL CAJON, CA, 92020",195365265,"R"
269626,"1809 SHADYGLEN","ARLINGTON","TX",76003,NA,NA,126,"1809 SHADYGLEN, ARLINGTON, TX, 76003","No_Match",NA,NA,NA,NA
269627,"1809 SHERWOOD PLACE","KINGSPORT","TN",37664,36.5278337870001,-82.526207773,127,"1809 SHERWOOD PLACE, KINGSPORT, TN, 37664","Match","Exact","1809 SHERWOOD PL, KINGSPORT, TN, 37664",127830261,"R"
269628,"1809 SHOSHONE DRIVE / APT 33","LAFAYETTE","IN",47909,40.3934067550001,-86.875746222,128,"1809 SHOSHONE DRIVE / APT 33, LAFAYETTE, IN, 47909","Match","Exact","1809 SHOSHONE DR, LAFAYETTE, IN, 47909",27308820,"R"
269629,"1809 SNOW CREST TRAIL","DURHAM","NC",27707,35.960084888,-78.964738987,129,"1809 SNOW CREST TRAIL, DURHAM, NC, 27707","Match","Exact","1809 SNOW CREST TRL, DURHAM, NC, 27707",609057503,"L"
269630,"1809 SOUTH HOSMER STREET","TACOMA","WA",98405,47.2437929320001,-122.461526883,130,"1809 SOUTH HOSMER STREET, TACOMA, WA, 98405","Match","Exact","1809 S HOSMER ST, TACOMA, WA, 98405",184624418,"L"
269631,"1809 SW ATHENS AVENUE","PENDLETON","OR",97801,45.64764956,-118.794243836,131,"1809 SW ATHENS AVENUE, PENDLETON, OR, 97801","Match","Exact","1809 SW ATHENS AVE, PENDLETON, OR, 97801",170434359,"R"
269632,"1809 SW DEREK AVE","LINCOLN","NE",68522,40.7953837950001,-96.763099602,132,"1809 SW DEREK AVE, LINCOLN, NE, 68522","Match","Exact","1809 SW DEREK AVE, LINCOLN, NE, 68522",631143996,"L"
269633,"1809 SW OPEN VIEW DR","PORT SAINT LUCIE","FL",34953,27.23537773,-80.4041168209999,133,"1809 SW OPEN VIEW DR, PORT SAINT LUCIE, FL, 34953","Match","Exact","1809 SW OPEN VIEW DR, PORT ST LUCIE, FL, 34953",120143120,"L"
269634,"1809 TILLETSON PLACE","WOODBRIDGE","VA",22191,38.623847921,-77.269597059,134,"1809 TILLETSON PLACE, WOODBRIDGE, VA, 22191","Match","Exact","1809 TILLETSON PL, WOODBRIDGE, VA, 22191",76514156,"L"
269635,"1809 VAN BUSKIRK ROAD","ANDERSON","IN",46011,40.119988087,-85.702177836,135,"1809 VAN BUSKIRK ROAD, ANDERSON, IN, 46011","Match","Exact","1809 VAN BUSKIRK RD, ANDERSON, IN, 46011",31112906,"L"
269636,"1809 VETTA DRIVE","LIVERMORE","CA",94550,37.657480574,-121.804646771,136,"1809 VETTA DRIVE, LIVERMORE, CA, 94550","Match","Exact","1809 VETTA DR, LIVERMORE, CA, 94550",606133021,"R"
269637,"1809 W 16TH","ASHTABULA","OH",44004,41.8845360760001,-80.8085783939999,137,"1809 W 16TH, ASHTABULA, OH, 44004","Match","Non_Exact","1809 W 16TH ST, ASHTABULA, OH, 44004",117307850,"L"
269638,"1809 W 6TH","STORM LAKE","IA",50588,42.645393385,-95.227229365,138,"1809 W 6TH, STORM LAKE, IA, 50588","Match","Non_Exact","1809 W 6TH ST, STORM LAKE, IA, 50588",77382294,"L"
269639,"1809 W BOND ST","DENISON","TX",75020,33.7620759280001,-96.561653447,139,"1809 W BOND ST, DENISON, TX, 75020","Match","Exact","1809 W BOND ST, DENISON, TX, 75020",63352837,"L"
269640,"1809 W CRAWFORD ST","WICHITA","KS",67217,37.6478277150001,-97.36064758,140,"1809 W CRAWFORD ST, WICHITA, KS, 67217","Match","Exact","1809 CRAWFORD ST, WICHITA, KS, 67217",115644435,"L"
269641,"1809 W DIVISION","CHICAGO","IL",60622,41.9032569840001,-87.672826265,141,"1809 W DIVISION, CHICAGO, IL, 60622","Match","Non_Exact","1809 W DIVISION ST, CHICAGO, IL, 60622",616886271,"L"
269642,"1809 W MAIN ST","RICHMOND","VA",23220,37.548394924,-77.463578129,142,"1809 W MAIN ST, RICHMOND, VA, 23220","Match","Exact","1809 W MAIN ST, RICHMOND, VA, 23220",201538691,"L"
269643,"1809 W MARTHA LANE","SANTA ANA","CA",92706,33.7567571550001,-117.893140048,143,"1809 W MARTHA LANE, SANTA ANA, CA, 92706","Match","Exact","1809 W MARTHA LN, SANTA ANA, CA, 92706",144040563,"R"
269644,"1809 W NOB HILL BLVD","YAKIMA","WA",98902,46.5852850960001,-120.533720823,144,"1809 W NOB HILL BLVD, YAKIMA, WA, 98902","Match","Exact","1809 W NOB HILL BLVD, YAKIMA, WA, 98902",184935734,"R"
269645,"1809 W SR 32","WINCHESTER","IN",47394,40.171828378,-85.012623667,145,"1809 W SR 32, WINCHESTER, IN, 47394","Match","Exact","1809 STATE RD 32, WINCHESTER, IN, 47394",31225430,"R"
269646,"1809 W STATE ST","OLEAN","NY",14760,42.077333546,-78.450721238,146,"1809 W STATE ST, OLEAN, NY, 14760","Match","Exact","1809 W STATE ST, OLEAN, NY, 14760",122031792,"L"
269647,"1809 WADDILL WAY","HENDERSON","NC",27536,36.322167628,-78.4445018169999,147,"1809 WADDILL WAY, HENDERSON, NC, 27536","Match","Exact","1809 WADDILL WAY, HENDERSON, NC, 27536",90280990,"L"
269648,"1809 WARWICK AVENUE  APT 19 NW","Warwick","RI",2889,41.729027188,-71.406082079,148,"1809 WARWICK AVENUE  APT 19 NW, Warwick, RI, 2889","Match","Exact","1809 WARWICK AVE, WARWICK, RI, 02889",159160040,"R"
269649,"1809 WARWICK AVENUE APT 19 NW","WARWICK","RI",2889,41.729027188,-71.406082079,149,"1809 WARWICK AVENUE APT 19 NW, WARWICK, RI, 2889","Match","Exact","1809 WARWICK AVE, WARWICK, RI, 02889",159160040,"R"
269650,"1809 WELSBY AVENUE","STEVENS POINT","WI",54481,44.519248804,-89.5620774449999,150,"1809 WELSBY AVENUE, STEVENS POINT, WI, 54481","Match","Exact","1809 WELSBY AVE, STEVENS POINT, WI, 54481",126794878,"R"
269651,"1809 WENTWORTH DRIVE","CANTON","MI",48188,42.290168829,-83.490371658,151,"1809 WENTWORTH DRIVE, CANTON, MI, 48188","Match","Exact","1809 WENTWORTH DR, CANTON, MI, 48188",95689540,"L"
269652,"1809 WEST 6TH ST","ABERDEEN","WA",98520,46.978969497,-123.837747755,152,"1809 WEST 6TH ST, ABERDEEN, WA, 98520","Match","Exact","1809 W 6TH ST, ABERDEEN, WA, 98520",180581735,"L"
269653,"1809 WEST DALLAS AVE","SELMA","AL",36701,32.3980830190001,-87.064544992,153,"1809 WEST DALLAS AVE, SELMA, AL, 36701","Match","Exact","1809 W DALLAS AVE, SELMA, AL, 36701",1284425,"R"
269654,"1809 WEST ROMANA STREET","PENSACOLA","FL",32503,NA,NA,154,"1809 WEST ROMANA STREET, PENSACOLA, FL, 32503","No_Match",NA,NA,NA,NA
269655,"1809 WESTOVER AVE SW","ROANOKE","VA",24015,37.26450957,-79.97412873,155,"1809 WESTOVER AVE SW, ROANOKE, VA, 24015","Match","Exact","1809 WESTOVER AVE SW, ROANOKE, VA, 24015",62909360,"R"
269656,"1809 WESTWOOD DR","WARREN","OH",44485,NA,NA,156,"1809 WESTWOOD DR, WARREN, OH, 44485","No_Match",NA,NA,NA,NA
269657,"1809 WINDING RIVER","MANTECA","CA",95337,37.7868935770001,-121.247442418,157,"1809 WINDING RIVER, MANTECA, CA, 95337","Match","Non_Exact","1809 WINDING RIVER CT, MANTECA, CA, 95337",133889396,"L"
269658,"1809 WINNEPEG CIRCLE","BIRMINGHAM","AL",35022,33.4065880090001,-86.8922254409999,158,"1809 WINNEPEG CIRCLE, BIRMINGHAM, AL, 35022","Match","Non_Exact","1809 WINNIPEG CIR, BESSEMER, AL, 35022",618803947,"L"
269659,"1809 WORDSWORTH AVENUE","SAINT PAUL","MN",55116,44.900758345,-93.17611391,159,"1809 WORDSWORTH AVENUE, SAINT PAUL, MN, 55116","Match","Non_Exact","1809 W WORDSWORTH AVE, SAINT PAUL, MN, 55116",97647352,"R"
269660,"1809 YALE DR","LOUISVILLE","KY",40205,38.2200938290001,-85.6961738689999,160,"1809 YALE DR, LOUISVILLE, KY, 40205","Match","Exact","1809 YALE DR, LOUISVILLE, KY, 40205",96853049,"L"
269661,"1809 YALE","CORPUS CHRISTI","TX",78416,27.7557325180001,-97.427844857,161,"1809 YALE, CORPUS CHRISTI, TX, 78416","Match","Non_Exact","1809 YALE ST, CORPUS CHRISTI, TX, 78416",178515797,"R"
269662,"1809 YOEMAN RD","FRANKFORT","KS",66427,39.642926243,-96.4803799329999,162,"1809 YOEMAN RD, FRANKFORT, KS, 66427","Match","Exact","1809 YOEMAN RD, FRANKFORT, KS, 66427",28427774,"R"
269663,"1809 YUILLE LANE","DAPHNE","AL",36526,30.604211412,-87.9107665939999,163,"1809 YUILLE LANE, DAPHNE, AL, 36526","Match","Exact","1809 YUILLE LN, DAPHNE, AL, 36526",131657022,"L"
269664,"1809-2A WEST ARGYLE ST","CHICAGO","IL",60640,41.9724620740001,-87.67489798,164,"1809-2A WEST ARGYLE ST, CHICAGO, IL, 60640","Match","Exact","1809 W ARGYLE ST, CHICAGO, IL, 60640",605185095,"L"
269665,"1809","PFLUGERVILLE","TX",78691,NA,NA,165,"1809, PFLUGERVILLE, TX, 78691","No_Match",NA,NA,NA,NA
269666,"18090 KAREN DRIVE","ENCINO","CA",91316,34.155257616,-118.527871885,166,"18090 KAREN DRIVE, ENCINO, CA, 91316","Match","Exact","18090 KAREN DR, ENCINO, CA, 91316",141555963,"L"
269667,"18091 OHIO ST","DETROIT","MI",48221,42.42325558,-83.156314751,167,"18091 OHIO ST, DETROIT, MI, 48221","Match","Exact","18091 OHIO ST, DETROIT, MI, 48221",95425560,"L"
269668,"18091 OHIO STREET","DETROIT","MI",48221,42.42325558,-83.156314751,168,"18091 OHIO STREET, DETROIT, MI, 48221","Match","Exact","18091 OHIO ST, DETROIT, MI, 48221",95425560,"L"
269669,"18091 OHIO","DETROIT","MI",48221,42.42325558,-83.156314751,169,"18091 OHIO, DETROIT, MI, 48221","Match","Non_Exact","18091 OHIO ST, DETROIT, MI, 48221",95425560,"L"
269670,"18091 RANDALL AVE","FONTANA","CA",92335,34.084949298,-117.409845276,170,"18091 RANDALL AVE, FONTANA, CA, 92335","Match","Exact","18091 RANDALL AVE, FONTANA, CA, 92335",144646011,"R"
269671,"18092 SHADBURY LANE","PARKER","CO",80134,39.4985144180001,-104.779387795,171,"18092 SHADBURY LANE, PARKER, CO, 80134","Match","Exact","18092 SHADBURY LN, PARKER, CO, 80134",624996213,"R"
269672,"18093 HERITAGE TRAIL","STRONGSVILLE","OH",44136,41.2878255520001,-81.829157064,172,"18093 HERITAGE TRAIL, STRONGSVILLE, OH, 44136","Match","Exact","18093 HERITAGE TRL, STRONGSVILLE, OH, 44136",61150301,"L"
269673,"18093 MESCAL ST","ROWLAND HEIGHTS","CA",91748,33.976963444,-117.912697673,173,"18093 MESCAL ST, ROWLAND HEIGHTS, CA, 91748","Match","Exact","18093 MESCAL ST, ROWLAND HEIGHTS, CA, 91748",141757140,"L"
269674,"18093 PARKSIDE ST","DETROIT","MI",48221,42.423572404,-83.131943198,174,"18093 PARKSIDE ST, DETROIT, MI, 48221","Match","Exact","18093 PARKSIDE ST, DETROIT, MI, 48221",95461180,"L"
269675,"18094 GLADSTONE BLVD NORTH","MAPLE GROVE","MN",55311,45.1260291400001,-93.51043158,175,"18094 GLADSTONE BLVD NORTH, MAPLE GROVE, MN, 55311","Match","Non_Exact","18094 GLADSTONE BLVD, MAPLE GROVE, MN, 55311",43865012,"L"
269676,"18094 HIDDEN TRAIL DRIVE","SPRING LAKE","MI",49456,43.0973258770001,-86.1727205729999,176,"18094 HIDDEN TRAIL DRIVE, SPRING LAKE, MI, 49456","Match","Exact","18094 HIDDEN TRAIL DR, SPRING LAKE, MI, 49456",71112359,"L"
269677,"18094 WARRINGTON DR","DETROIT","MI",48221,42.4234755310001,-83.139689547,177,"18094 WARRINGTON DR, DETROIT, MI, 48221","Match","Exact","18094 WARRINGTON DR, DETROIT, MI, 48221",95461016,"R"
269678,"18094","SAN ANTONIO","TX",78218,NA,NA,178,"18094, SAN ANTONIO, TX, 78218","No_Match",NA,NA,NA,NA
269679,"18095 AIRPORT ROAD","GORDONSVILLE","VA",22942,38.158101689,-78.167082852,179,"18095 AIRPORT ROAD, GORDONSVILLE, VA, 22942","Match","Exact","18095 AIRPORT RD, GORDONSVILLE, VA, 22942",29891365,"L"
269680,"18095 NORTH COYOTE LAKES PARKWAY","SUPRRISE","AZ",85378,33.6490218920001,-112.311311183,180,"18095 NORTH COYOTE LAKES PARKWAY, SUPRRISE, AZ, 85378","Match","Non_Exact","18095 N COYOTE LAKES PKWY, SURPRISE, AZ, 85378",647720087,"L"
269681,"18096 Hwy 99","WELSH","LA",70591,30.2935671750001,-92.825988809,181,"18096 Hwy 99, WELSH, LA, 70591","Match","Exact","18096 HWY 99, WELSH, LA, 70591",88219321,"R"
269682,"18096 HWY 99","WELSH","LA",70591,30.2935671750001,-92.825988809,182,"18096 HWY 99, WELSH, LA, 70591","Match","Exact","18096 HWY 99, WELSH, LA, 70591",88219321,"R"
269683,"18096 OLD COVINGTON HWY","HAMMOND","LA",70403,30.493891471,-90.424177223,183,"18096 OLD COVINGTON HWY, HAMMOND, LA, 70403","Match","Exact","18096 OLD COVINGTON HWY, HAMMOND, LA, 70403",612187123,"R"
269684,"18099 RED BRUSH ROAD","ELKTON","VA",22827,38.4362063410001,-78.584923137,184,"18099 RED BRUSH ROAD, ELKTON, VA, 22827","Match","Exact","18099 RED BRUSH RD, ELKTON, VA, 22827",649985952,"R"
269685,"1809B CR 1700","CANEY","KS",67333,37.03826216,-95.910322078,185,"1809B CR 1700, CANEY, KS, 67333","Match","Exact","1809 CR 1700, CANEY, KS, 67333",649914157,"L"
269686,"180A ECKFORD STREET","BROOKLYN","NY",11222,40.7254564560001,-73.9497098209999,186,"180A ECKFORD STREET, BROOKLYN, NY, 11222","Match","Exact","180 ECKFORD ST, BROOKLYN, NY, 11222",59076498,"R"
269687,"180A PHEASANT STREET","MANCHESTER","NJ",8759,40.038385098,-74.293477025,187,"180A PHEASANT STREET, MANCHESTER, NJ, 8759","Match","Exact","180 PHEASANT ST, MANCHESTER, NJ, 08759",203791208,"R"
269688,"180B MATTISON RESERVOIR AVENUE","BRANCHVILLE","NJ",7826,41.1861825930001,-74.7452950209999,188,"180B MATTISON RESERVOIR AVENUE, BRANCHVILLE, NJ, 7826","Match","Exact","180 MATTISON RESERVOIR AVE, BRANCHVILLE, NJ, 07826",98018400,"R"
269689,"180TH AVENUE","UNION GROVE","WI",53182,NA,NA,189,"180TH AVENUE, UNION GROVE, WI, 53182","No_Match",NA,NA,NA,NA
269690,"181 18TH AVE NE","ST PETERSBURG","FL",33703,27.788950513,-82.633274178,190,"181 18TH AVE NE, ST PETERSBURG, FL, 33703","Match","Non_Exact","181 18TH AVE NE, SAINT PETERSBURG, FL, 33704",124713202,"L"
269691,"181 290TH STREET","WEST BRANCH","IA",52358,41.67131971,-91.331769457,191,"181 290TH STREET, WEST BRANCH, IA, 52358","Match","Exact","181 290TH ST, WEST BRANCH, IA, 52358",647340442,"R"
269692,"181 7TH STREET","BONITA SPRINGS","FL",34134,26.324247466,-81.826732853,192,"181 7TH STREET, BONITA SPRINGS, FL, 34134","Match","Exact","181 7TH ST, BONITA SPGS, FL, 34134",115136289,"L"
269693,"181 ACUSHNET ROAD","MATTAPOISETT","MA",2739,41.681645938,-70.850307873,193,"181 ACUSHNET ROAD, MATTAPOISETT, MA, 2739","Match","Exact","181 ACUSHNET RD, MATTAPOISETT, MA, 02739",87423191,"L"
269694,"181 ADAMS LANE","NEW CANAAN","CT",6840,41.1246735660001,-73.517501459,194,"181 ADAMS LANE, NEW CANAAN, CT, 6840","Match","Exact","181 ADAMS LN, NEW CANAAN, CT, 06840",653162607,"R"
269695,"181 ADMION PARK","ASHEVILLE","NC",28801,NA,NA,195,"181 ADMION PARK, ASHEVILLE, NC, 28801","No_Match",NA,NA,NA,NA
269696,"181 ALEXANDER AVENUE","HARTSDALE","NY",10530,41.025154716,-73.791133805,196,"181 ALEXANDER AVENUE, HARTSDALE, NY, 10530","Match","Exact","181 ALEXANDER AVE, HARTSDALE, NY, 10530",139802699,"L"
269697,"181 ANALOMINK STREET","EAST STROUDSBURG","PA",18301,41.0017038710001,-75.177031932,197,"181 ANALOMINK STREET, EAST STROUDSBURG, PA, 18301","Match","Exact","181 ANALOMINK ST, E STROUDSBURG, PA, 18301",136797043,"R"
269698,"181 APPLE COURT","CRESCENT CITY","CA",95531,41.810317168,-124.156286372,198,"181 APPLE COURT, CRESCENT CITY, CA, 95531","Match","Exact","181 APPLE CT, CRESCENT CITY, CA, 95531",648363296,"R"
269699,"181 ARTESIA DR","CHICO","CA",95973,39.7643302070001,-121.830359922,199,"181 ARTESIA DR, CHICO, CA, 95973","Match","Exact","181 ARTESIA DR, CHICO, CA, 95973",68460661,"R"
269700,"181 BASTIAN RD","ROCHESTER","NY",14623,43.110872629,-77.645336856,200,"181 BASTIAN RD, ROCHESTER, NY, 14623","Match","Exact","181 BASTIAN RD, ROCHESTER, NY, 14623",14534379,"R"
269701,"181 BAYOU GROOVE DRIVE","LAPLACE","LA",70068,NA,NA,201,"181 BAYOU GROOVE DRIVE, LAPLACE, LA, 70068","No_Match",NA,NA,NA,NA
269702,"181 BAYVIEW AVE","BAYPORT","NY",11705,40.73203972,-73.059800223,202,"181 BAYVIEW AVE, BAYPORT, NY, 11705","Match","Non_Exact","181 BAYVIEW LN, BAYPORT, NY, 11705",114015979,"L"
269703,"181 BEACON STREET--APT 1","CLINTON","MA",1510,42.412066657,-71.6845976019999,203,"181 BEACON STREET--APT 1, CLINTON, MA, 1510","Match","Non_Exact","181 BEACON ST, CLINTON, MA, 01510",40097109,"L"
269704,"181 BEECHWOOD LAKES DRIVE","HENDERSONVILLE","NC",28792,35.3861462450001,-82.461563978,204,"181 BEECHWOOD LAKES DRIVE, HENDERSONVILLE, NC, 28792","Match","Exact","181 BEECHWOOD LAKES DR, HENDERSONVILLE, NC, 28792",152264221,"R"
269705,"181 BELMONT AVE APT 1","JERSEY CITY","NJ",7304,40.7211897010001,-74.0734633129999,205,"181 BELMONT AVE APT 1, JERSEY CITY, NJ, 7304","Match","Exact","181 BELMONT AVE, JERSEY CITY, NJ, 07304",59604246,"L"
269706,"181 BELMONT ROAD","KING OF PRUSSIA","PA",19406,40.1045374330001,-75.366847655,206,"181 BELMONT ROAD, KING OF PRUSSIA, PA, 19406","Match","Exact","181 BELMONT RD, KING OF PRUSSIA, PA, 19406",135070902,"R"
269707,"181 BELWOOD GATEWAY","LOS GATOS","CA",95032,37.233493749,-121.914468155,207,"181 BELWOOD GATEWAY, LOS GATOS, CA, 95032","Match","Exact","181 BELWOOD GATEWAY, LOS GATOS, CA, 95032",122946409,"R"
269708,"181 BLACKFOOT TRAIL","BANDERA","TX",78003,29.647593344,-99.000215001,208,"181 BLACKFOOT TRAIL, BANDERA, TX, 78003","Match","Exact","181 BLACKFOOT TRL, BANDERA, TX, 78003",634957591,"R"
269709,"181 BLOOM STREET","HACKENSACK","NJ",7601,40.872047206,-74.04677212,209,"181 BLOOM STREET, HACKENSACK, NJ, 7601","Match","Exact","181 BLOOM ST, HACKENSACK, NJ, 07601",64393679,"R"
269710,"181 BLUE RIDGE DRIVE","VERNON","CT",6066,41.821893829,-72.463900324,210,"181 BLUE RIDGE DRIVE, VERNON, CT, 6066","Match","Exact","181 BLUE RIDGE DR, VERNON, CT, 06066",57004767,"L"
269711,"181 BLUFF AVENUE","CRANSTON","RI",2905,41.773361062,-71.396344906,211,"181 BLUFF AVENUE, CRANSTON, RI, 2905","Match","Exact","181 BLUFF AVE, CRANSTON, RI, 02905",47472123,"R"
269712,"181 BOTANY STREET","GARFIELD","NJ",7026,40.878253198,-74.106357395,212,"181 BOTANY STREET, GARFIELD, NJ, 7026","Match","Exact","181 BOTANY ST, GARFIELD, NJ, 07026",64382741,"L"
269713,"181 BRANCIFORTE BRIDGE","SANTA CRUZ","CA",95065,36.992055243,-122.011410212,213,"181 BRANCIFORTE BRIDGE, SANTA CRUZ, CA, 95065","Match","Non_Exact","181 BRANCIFORTE DR, SANTA CRUZ, CA, 95065",125539215,"R"
269714,"181 BRANDLE ROAD","ALTAMONT","NY",12009,42.6951155300001,-74.020662011,214,"181 BRANDLE ROAD, ALTAMONT, NY, 12009","Match","Exact","181 BRANDLE RD, ALTAMONT, NY, 12009",623906391,"R"
269715,"181 BRAZIL LN","JOHNSTOWN","PA",15909,40.3926059880001,-78.8554867509999,215,"181 BRAZIL LN, JOHNSTOWN, PA, 15909","Match","Exact","181 BRAZIL LN, JOHNSTOWN, PA, 15909",634189921,"L"
269716,"181 BRICKYARD HILL RD","RUFFSDALE","PA",15679,40.1933419330001,-79.6346366779999,216,"181 BRICKYARD HILL RD, RUFFSDALE, PA, 15679","Match","Non_Exact","181 BRICKYARD HILL RD, RUFFS DALE, PA, 15679",634174396,"R"
269717,"181 BRODY LN","LEXINGTON","NC",27295,35.94242388,-80.2181231869999,217,"181 BRODY LN, LEXINGTON, NC, 27295","Match","Exact","181 BRODY LN, LEXINGTON, NC, 27295",624815821,"R"
269718,"181 BROOK WAY","WAYNESBURG","KY",40489,37.3285075210001,-84.659589032,218,"181 BROOK WAY, WAYNESBURG, KY, 40489","Match","Exact","181 BROOK WAY, WAYNESBURG, KY, 40489",32561871,"L"
269719,"181 BROOKHILL DR","GAHANNA","OH",43230,40.052077384,-82.881561816,219,"181 BROOKHILL DR, GAHANNA, OH, 43230","Match","Exact","181 BROOKHILL DR, GAHANNA, OH, 43230",218685785,"R"
269720,"181 BROOKLEIGH PLACE","BYRAM","MS",39272,32.209386239,-90.256029069,220,"181 BROOKLEIGH PLACE, BYRAM, MS, 39272","Match","Exact","181 BROOKLEIGH PL, BYRAM, MS, 39272",65382139,"L"
269721,"181 BROTHERS ROAD","HARTLAND","VT",5048,43.598850186,-72.4223210329999,221,"181 BROTHERS ROAD, HARTLAND, VT, 5048","Match","Exact","181 BROTHERS RD, HARTLAND, VT, 05048",635473066,"L"
269722,"181 BROWN DRIVE","RUTHERFORDTON","NC",28139,35.408153934,-81.9717975459999,222,"181 BROWN DRIVE, RUTHERFORDTON, NC, 28139","Match","Exact","181 BROWN DR, RUTHERFORDTON, NC, 28139",19385157,"L"
269723,"181 BUCKINGHAM STREET","WATERBURY","CT",6710,41.5629970200001,-73.0450149119999,223,"181 BUCKINGHAM STREET, WATERBURY, CT, 6710","Match","Exact","181 BUCKINGHAM ST, WATERBURY, CT, 06710",3728887,"L"
269724,"181 BURLINGTON AVE","PATERSON","NJ",7502,40.916186108,-74.200328929,224,"181 BURLINGTON AVE, PATERSON, NJ, 7502","Match","Exact","181 BURLINGTON AVE, PATERSON, NJ, 07502",65260449,"L"
269725,"181 BUTTONWOOD DRIVE","BRATTLEBORO","VT",5301,42.8816407100001,-72.565462296,225,"181 BUTTONWOOD DRIVE, BRATTLEBORO, VT, 5301","Match","Non_Exact","181 BUTTONWOOD HILL, BRATTLEBORO, VT, 05301",171091022,"R"
269726,"181 BUTTONWOOD","BRATTLEBORO","VT",5351,NA,NA,226,"181 BUTTONWOOD, BRATTLEBORO, VT, 5351","No_Match",NA,NA,NA,NA
269727,"181 CAIN ST","BATTLE CREEK","MI",49014,NA,NA,227,"181 CAIN ST, BATTLE CREEK, MI, 49014","No_Match",NA,NA,NA,NA
269728,"181 CARACARA ST","SARATOGA SPRINGS","UT",84045,40.2970794610001,-111.887882765,228,"181 CARACARA ST, SARATOGA SPRINGS, UT, 84045","Match","Exact","181 CARACARA ST, SARATOGA SPRINGS, UT, 84045",601265529,"L"
269729,"181 CELESTE LN","MADISONVILLE","KY",42431,37.3680591610001,-87.496235529,229,"181 CELESTE LN, MADISONVILLE, KY, 42431","Match","Exact","181 CELESTE LN, MADISONVILLE, KY, 42431",11515457,"L"
269730,"181 CENTRAL ST","STONEHAM","MA",2180,42.4890588480001,-71.098967752,230,"181 CENTRAL ST, STONEHAM, MA, 2180","Match","Exact","181 CENTRAL ST, STONEHAM, MA, 02180",86856431,"R"
269731,"181 CENTRAL STREET","STONEHAM","MA",2180,42.4890588480001,-71.098967752,231,"181 CENTRAL STREET, STONEHAM, MA, 2180","Match","Exact","181 CENTRAL ST, STONEHAM, MA, 02180",86856431,"R"
269732,"181 CHAD CRAWFORD RD","SYLVA","NC",28779,35.4221647260001,-83.0870528039999,232,"181 CHAD CRAWFORD RD, SYLVA, NC, 28779","Match","Exact","181 CHAD CRAWFORD RD, SYLVA, NC, 28779",36003802,"R"
269733,"181 CHARLESTON LANE","FATE","TX",75189,32.924723972,-96.376787185,233,"181 CHARLESTON LANE, FATE, TX, 75189","Match","Exact","181 CHARLESTON LN, FATE, TX, 75189",624794218,"L"
269734,"181 CHESTNUT STREET","RANDOLPH","MA",2368,42.1809320360001,-71.061003209,234,"181 CHESTNUT STREET, RANDOLPH, MA, 2368","Match","Exact","181 CHESTNUT ST, RANDOLPH, MA, 02368",87267946,"L"
269735,"181 CHIMNEY CREEK ROAD","SOQUEL","CA",95073,37.022863021,-121.9621068,235,"181 CHIMNEY CREEK ROAD, SOQUEL, CA, 95073","Match","Exact","181 CHIMNEY CREEK RD, SOQUEL, CA, 95073",125529188,"L"
269736,"181 CHIPPENDALE TERRACE","OVIEDO","FL",32765,28.6685052560001,-81.22262261,236,"181 CHIPPENDALE TERRACE, OVIEDO, FL, 32765","Match","Exact","181 CHIPPENDALE TER, OVIEDO, FL, 32765",642153348,"R"
269737,"181 CIRCLE DRIVE","FAIRMONT","WV",26554,39.478109793,-80.1706164029999,237,"181 CIRCLE DRIVE, FAIRMONT, WV, 26554","Match","Exact","181 CIRCLE DR, FAIRMONT, WV, 26554",51429266,"L"
269738,"181 CITATION DRIVE","HENRIETTA","NY",14467,43.042726514,-77.609723027,238,"181 CITATION DRIVE, HENRIETTA, NY, 14467","Match","Exact","181 CITATION DR, HENRIETTA, NY, 14467",14544535,"R"
269739,"181 CLARKSON AVE","BKLYN","NY",11226,40.6551956610001,-73.954009141,239,"181 CLARKSON AVE, BKLYN, NY, 11226","Match","Non_Exact","181 CLARKSON AVE, BROOKLYN, NY, 11226",650072981,"L"
269740,"181 CLINTON DR","STONEWALL","LA",71078,NA,NA,240,"181 CLINTON DR, STONEWALL, LA, 71078","No_Match",NA,NA,NA,NA
269741,"181 CLUB HOUSE CIRCLE","MELLVILLE","NY",11747,40.761988005,-73.4108164689999,241,"181 CLUB HOUSE CIRCLE, MELLVILLE, NY, 11747","Match","Non_Exact","181 CLUBHOUSE CIR, MELVILLE, NY, 11747",649196036,"R"
269742,"181 COGGINS FARM RD","SPARTANBURG","SC",29307,34.973015823,-81.840585771,242,"181 COGGINS FARM RD, SPARTANBURG, SC, 29307","Match","Exact","181 COGGINS FARM RD, SPARTANBURG, SC, 29307",19529792,"L"
269743,"181 COLEMAN DRIVE","WATERFORD","MI",48328,42.6369457710001,-83.337625631,243,"181 COLEMAN DRIVE, WATERFORD, MI, 48328","Match","Non_Exact","181 COLEMAN RD, WATERFORD, MI, 48328",641240903,"L"
269744,"181 COLLINS LN","LEXINGTON","KY",40503,38.0124048980001,-84.5182776359999,244,"181 COLLINS LN, LEXINGTON, KY, 40503","Match","Exact","181 COLLINS LN, LEXINGTON, KY, 40503",643108159,"L"
269745,"181 CONGER AVE","WATERTOWN","NY",13601,43.979284041,-75.9289227899999,245,"181 CONGER AVE, WATERTOWN, NY, 13601","Match","Exact","181 CONGER AVE, WATERTOWN, NY, 13601",154280084,"R"
269746,"181 CORDELIA CT","FAYETTEVILLE","NC",28306,34.9847204530001,-79.049043156,246,"181 CORDELIA CT, FAYETTEVILLE, NC, 28306","Match","Exact","181 CORDELIA CT, FAYETTEVILLE, NC, 28306",76194086,"L"
269747,"181 CORIELL AVENUE","FANWOOD","NJ",7023,40.6360788380001,-74.380216118,247,"181 CORIELL AVENUE, FANWOOD, NJ, 7023","Match","Exact","181 CORIELL AVE, FANWOOD, NJ, 07023",60567874,"L"
269748,"181 CORSTEN ROAD","PLEASANT HILL","CA",94523,NA,NA,248,"181 CORSTEN ROAD, PLEASANT HILL, CA, 94523","No_Match",NA,NA,NA,NA
269749,"181 COTTONWOOD DR","VADNAIS HEIGHTS","MN",55127,45.070571246,-93.0929754319999,249,"181 COTTONWOOD DR, VADNAIS HEIGHTS, MN, 55127","Match","Exact","181 COTTONWOOD DR, VADNAIS HEIGHTS, MN, 55127",97657512,"L"
269750,"181 COUNTY ROAD 3781","ADDISON","AL",33540,34.1843273220001,-87.128155524,250,"181 COUNTY ROAD 3781, ADDISON, AL, 33540","Match","Non_Exact","181 CO RD 3781, ADDISON, AL, 35540",637221821,"L"
269751,"181 COUNTY ROAD 76","WOODLAND","MS",39776,33.763301019,-89.1021203449999,251,"181 COUNTY ROAD 76, WOODLAND, MS, 39776","Match","Exact","181 CO RD 76, WOODLAND, MS, 39776",76927126,"L"
269752,"181 CR 683","HOLLY POND","AL",35083,34.1680519990001,-86.58788486,252,"181 CR 683, HOLLY POND, AL, 35083","Match","Exact","181 CO RD 683, HOLLY POND, AL, 35083",130224668,"R"
269753,"181 CRANDON BLVD APT 109","KEY BISCAYNE","FL",33149,25.6983919200001,-80.162664707,253,"181 CRANDON BLVD APT 109, KEY BISCAYNE, FL, 33149","Match","Exact","181 CRANDON BLVD, KEY BISCAYNE, FL, 33149",624570503,"L"
269754,"181 CRYSTAL SPRINGS DRIVE","LEXINGTON","SC",29073,33.843542341,-81.222079589,254,"181 CRYSTAL SPRINGS DRIVE, LEXINGTON, SC, 29073","Match","Exact","181 CRYSTAL SPRINGS DR, LEXINGTON, SC, 29073",70041220,"R"
269755,"181 D STREET","SOUTH BOSTON","MA",2127,42.3369978360001,-71.0529782739999,255,"181 D STREET, SOUTH BOSTON, MA, 2127","Match","Exact","181 D ST, SOUTH BOSTON, MA, 02127",85712276,"R"
269756,"181 DALLES LANE","LARAMIE","WY",82070,41.363333056,-105.936417529,256,"181 DALLES LANE, LARAMIE, WY, 82070","Match","Exact","181 DALLES LN, LARAMIE, WY, 82070",168738287,"L"
269757,"181 DALTON COURT","LAKE LURE","NC",28746,35.4539383870001,-82.179581792,257,"181 DALTON COURT, LAKE LURE, NC, 28746","Match","Exact","181 DALTON CT, LAKE LURE, NC, 28746",19406956,"L"
269758,"181 DESKIN DR","SOUTH DAYTONA","FL",32119,29.1495812900001,-81.012885936,258,"181 DESKIN DR, SOUTH DAYTONA, FL, 32119","Match","Exact","181 DESKIN DR, S DAYTONA, FL, 32119",94558667,"L"
269759,"181 DIVISION ST- P O BOX 871","MANSON","WA",98831,47.891020584,-120.160907672,259,"181 DIVISION ST- P O BOX 871, MANSON, WA, 98831","Match","Non_Exact","181 DIVISION ST, MANSON, WA, 98831",641532133,"R"
269760,"181 DOE RUN ROAD","MARION JUNCTION","AL",36759,32.4084902060001,-87.111460452,260,"181 DOE RUN ROAD, MARION JUNCTION, AL, 36759","Match","Exact","181 DOE RUN RD, MARION JCT, AL, 36759",1301735,"R"
269761,"181 DUNK ROCK ROAD","GUILFORD","CT",6437,41.2881943140001,-72.7008511029999,261,"181 DUNK ROCK ROAD, GUILFORD, CT, 6437","Match","Exact","181 DUNK ROCK RD, GUILFORD, CT, 06437",3708790,"R"
269762,"181 DURHAM LOOP","HOT SPRINGS","AR",71913,34.4489154720001,-93.1369637669999,262,"181 DURHAM LOOP, HOT SPRINGS, AR, 71913","Match","Exact","181 DURHAM LOOP, HOT SPRINGS, AR, 71913",637226505,"L"
269763,"181 E 119TH ST 4F","NEW YORK","NY",10035,40.8001234970001,-73.939158571,263,"181 E 119TH ST 4F, NEW YORK, NY, 10035","Match","Non_Exact","181 E 119TH ST, NEW YORK, NY, 10035",59658034,"L"
269764,"181 E 12TH AVE","COLUMBUS","OH",43201,39.9965582130001,-83.00201789,264,"181 E 12TH AVE, COLUMBUS, OH, 43201","Match","Exact","181 E 12TH AVE, COLUMBUS, OH, 43201",135573933,"R"
269765,"181 E 90TH ST APT 22C","NEW YORK","NY",10128,40.781601704,-73.952615483,265,"181 E 90TH ST APT 22C, NEW YORK, NY, 10128","Match","Non_Exact","181 E 90TH ST, NEW YORK, NY, 10128",59657875,"L"
269766,"181 E EVANS STREET BTC 006","FLORENCE","SC",29501,34.1972605010001,-79.7677533739999,266,"181 E EVANS STREET BTC 006, FLORENCE, SC, 29501","Match","Non_Exact","181 W EVANS ST, FLORENCE, SC, 29501",652911363,"R"
269767,"181 E NOYES ST","BERLIN","WI",54923,43.970206766,-88.943254961,267,"181 E NOYES ST, BERLIN, WI, 54923","Match","Exact","181 E NOYES ST, BERLIN, WI, 54923",73448212,"R"
269768,"181 E REED AVE UNIT 312","ALEXANDRIA","VA",22305,NA,NA,268,"181 E REED AVE UNIT 312, ALEXANDRIA, VA, 22305","Tie",NA,NA,NA,NA
269769,"181 EAST 1ST AVE APT H 72","SALT LAKE CITY","UT",84103,40.770559543,-111.884475203,269,"181 EAST 1ST AVE APT H 72, SALT LAKE CITY, UT, 84103","Match","Exact","181 E 1ST AVE, SALT LAKE CITY, UT, 84103",650146852,"L"
269770,"181 EAST DENA STREET","BOONEVILLE","AR",72927,35.1260177440001,-93.920823711,270,"181 EAST DENA STREET, BOONEVILLE, AR, 72927","Match","Exact","181 E DENA ST, BOONEVILLE, AR, 72927",81485665,"R"
269771,"181 EAST EVANS STREET BTC 006","FLORENCE","SC",29501,34.1971718890001,-79.764211457,271,"181 EAST EVANS STREET BTC 006, FLORENCE, SC, 29501","Match","Non_Exact","181 E EVANS ST, FLORENCE, SC, 29506",651045200,"L"
269772,"181 EAST REED AVENUE","ALEXANDRIA","VA",22305,38.837030714,-77.0524584619999,272,"181 EAST REED AVENUE, ALEXANDRIA, VA, 22305","Match","Exact","181 E REED AVE, ALEXANDRIA, VA, 22305",638933949,"R"
269773,"181 EAST STAGECOACH ROAD","MEBANE","NC",27302,36.107661557,-79.265731017,273,"181 EAST STAGECOACH ROAD, MEBANE, NC, 27302","Match","Exact","181 E STAGECOACH RD, MEBANE, NC, 27302",640214690,"R"
269774,"181 EISENHOWER DRIVE","BROADWAY","VA",22815,38.609441953,-78.805174043,274,"181 EISENHOWER DRIVE, BROADWAY, VA, 22815","Match","Exact","181 EISENHOWER DR, BROADWAY, VA, 22815",634113440,"R"
269775,"181 EL MONTE ST","UMATILLA","OR",97882,45.9218938550001,-119.293624692,275,"181 EL MONTE ST, UMATILLA, OR, 97882","Match","Exact","181 EL MONTE ST, UMATILLA, OR, 97882",647533124,"L"
269776,"181 ELAINE DR","FRANKLIN","OH",45005,39.5699286810001,-84.2927908949999,276,"181 ELAINE DR, FRANKLIN, OH, 45005","Match","Exact","181 ELAINE DR, FRANKLIN, OH, 45005",159018292,"L"
269777,"181 ELIZABETH STREET","HARTFORD","CT",6105,41.7742193660001,-72.7124905429999,277,"181 ELIZABETH STREET, HARTFORD, CT, 6105","Match","Exact","181 ELIZABETH ST, HARTFORD, CT, 06105",3494085,"L"
269778,"181 ELLERSLIE PARK BLVD","LEXINGTON","KY",40515,37.9838798860001,-84.430149558,278,"181 ELLERSLIE PARK BLVD, LEXINGTON, KY, 40515","Match","Exact","181 ELLERSLIE PARK BLVD, LEXINGTON, KY, 40515",618017219,"R"
269779,"181 ELLICOTT STREET","BUFFALO","NY",14203,42.883170998,-78.87283604,279,"181 ELLICOTT STREET, BUFFALO, NY, 14203","Match","Exact","181 ELLICOTT ST, BUFFALO, NY, 14203",647637321,"R"
269780,"181 ELM AVE","BOGOTA","NJ",7603,40.8740024850001,-74.0308213879999,280,"181 ELM AVE, BOGOTA, NJ, 7603","Match","Exact","181 ELM AVE, BOGOTA, NJ, 07603",64397428,"R"
269781,"181 EMERSON DRIVE","PALM BAY","FL",32907,28.032151561,-80.703872251,281,"181 EMERSON DRIVE, PALM BAY, FL, 32907","Match","Non_Exact","181 EMERSON DR NW, PALM BAY, FL, 32907",93932861,"R"
269782,"181 ERIE ST APT 110","JERSEY CITY","NJ",7302,40.728572978,-74.043269604,282,"181 ERIE ST APT 110, JERSEY CITY, NJ, 7302","Match","Exact","181 ERIE ST, JERSEY CITY, NJ, 07302",59606146,"L"
269783,"181 ERIE STREET APT CT12","JERSEY CITY","NJ",7302,40.728572978,-74.043269604,283,"181 ERIE STREET APT CT12, JERSEY CITY, NJ, 7302","Match","Exact","181 ERIE ST, JERSEY CITY, NJ, 07302",59606146,"L"
269784,"181 ERIE STREET APT CT9","JERSEY CITY","NJ",7302,40.728572978,-74.043269604,284,"181 ERIE STREET APT CT9, JERSEY CITY, NJ, 7302","Match","Exact","181 ERIE ST, JERSEY CITY, NJ, 07302",59606146,"L"
269785,"181 FACTORY RD","FULTON","NY",13069,43.3772295430001,-76.269787873,285,"181 FACTORY RD, FULTON, NY, 13069","Match","Exact","181 FACTORY RD, FULTON, NY, 13069",57806292,"L"
269786,"181 FAIRMOUNT AVE","HYDE PARK","MA",2136,42.251620636,-71.1173206289999,286,"181 FAIRMOUNT AVE, HYDE PARK, MA, 2136","Match","Exact","181 FAIRMOUNT AVE, HYDE PARK, MA, 02136",85704629,"R"
269787,"181 FARM GATE LANE","BOLINGBROOK","IL",60440,41.694858233,-88.1203550289999,287,"181 FARM GATE LANE, BOLINGBROOK, IL, 60440","Match","Exact","181 FARM GATE LN, BOLINGBROOK, IL, 60440",111534508,"L"
269788,"181 FEARING ST","AMHERST","MA",1004,NA,NA,288,"181 FEARING ST, AMHERST, MA, 1004","No_Match",NA,NA,NA,NA
269789,"181 FERN DRIVE","SOMERSET","KY",42501,37.0852771350001,-84.573727617,289,"181 FERN DRIVE, SOMERSET, KY, 42501","Match","Exact","181 FERN DR, SOMERSET, KY, 42501",39090551,"R"
269790,"181 FOX RD","ROCKINGHAM","NC",28379,34.961000508,-79.6627264429999,290,"181 FOX RD, ROCKINGHAM, NC, 28379","Match","Exact","181 FOX RD, ROCKINGHAM, NC, 28379",639947903,"R"
269791,"181 FOXGLEN LANE","ANDERSONVILLE","TN",37705,36.2380013600001,-84.010661113,291,"181 FOXGLEN LANE, ANDERSONVILLE, TN, 37705","Match","Non_Exact","181 FOX GLEN LN, ANDERSONVILLE, TN, 37705",90138961,"L"
269792,"181 FRANKLIN STREET","BUFFALO","NY",14202,42.8884182790001,-78.8758351019999,292,"181 FRANKLIN STREET, BUFFALO, NY, 14202","Match","Exact","181 FRANKLIN ST, BUFFALO, NY, 14202",48290597,"R"
269793,"181 FREEMONT ST","HARRISON","NY",10528,40.9668019750001,-73.7149043219999,293,"181 FREEMONT ST, HARRISON, NY, 10528","Match","Non_Exact","181 FREMONT ST, HARRISON, NY, 10528",139810025,"R"
269794,"181 FREMONT CT","COLUMBUS","OH",43204,NA,NA,294,"181 FREMONT CT, COLUMBUS, OH, 43204","No_Match",NA,NA,NA,NA
269795,"181 FRIENDSHIP RD EXT","CHATHAM","VA",24531,36.852767575,-79.398949896,295,"181 FRIENDSHIP RD EXT, CHATHAM, VA, 24531","Match","Non_Exact","181 FRIENDSHIP RD EXD, CHATHAM, VA, 24531",56621478,"R"
269796,"181 GEORGIA AVE","FOREST CITY","NC",28043,35.3287972460001,-81.852052021,296,"181 GEORGIA AVE, FOREST CITY, NC, 28043","Match","Exact","181 GEORGIA AVE, FOREST CITY, NC, 28043",19389876,"R"
269797,"181 GOULD ROAD","WEARE","NH",3281,43.0371810620001,-71.69296996,297,"181 GOULD ROAD, WEARE, NH, 3281","Match","Exact","181 GOULD RD, WEARE, NH, 03281",113565254,"R"
269798,"181 GRAND ISLAND DR","ALBANY","GA",31707,31.628100857,-84.201891403,298,"181 GRAND ISLAND DR, ALBANY, GA, 31707","Match","Exact","181 GRAND ISLAND DR, ALBANY, GA, 31707",124577337,"R"
269799,"181 GRAYWOOD DRIVE","MINDEN","LA",71055,32.588323523,-93.199967831,299,"181 GRAYWOOD DRIVE, MINDEN, LA, 71055","Match","Non_Exact","181 GRAYWOOD RD, MINDEN, LA, 71055",73396327,"R"
269800,"181 GUTTA PERCHA LANE","SUMMERFIELD","NC",27358,36.261117029,-79.817426745,300,"181 GUTTA PERCHA LANE, SUMMERFIELD, NC, 27358","Match","Exact","181 GUTTA PERCHA LN, SUMMERFIELD, NC, 27358",56229149,"R"
269801,"181 HALSEY ST","BROOKLYN","NY",11216,40.68226192,-73.945955694,301,"181 HALSEY ST, BROOKLYN, NY, 11216","Match","Exact","181 HALSEY ST, BROOKLYN, NY, 11216",59079206,"L"
269802,"181 HAMILTON AVENUE","NEW ROCHELLE","NY",10801,40.9236087530001,-73.779861712,302,"181 HAMILTON AVENUE, NEW ROCHELLE, NY, 10801","Match","Exact","181 HAMILTON AVE, NEW ROCHELLE, NY, 10801",139750193,"R"
269803,"181 HAMPTON LAKE CROSSING","BLUFFTON","SC",29910,32.2537926630001,-80.942591981,303,"181 HAMPTON LAKE CROSSING, BLUFFTON, SC, 29910","Match","Exact","181 HAMPTON LAKE CROSSING, BLUFFTON, SC, 29910",628066146,"R"
269804,"181 HAMPTON WAY","RISING FAWN","GA",30738,34.8497920630001,-85.452895425,304,"181 HAMPTON WAY, RISING FAWN, GA, 30738","Match","Exact","181 HAMPTON WAY, RISING FAWN, GA, 30738",79402908,"L"
269805,"181 HAROLD MURPHY DR","MADISON","AL",35756,34.601019922,-86.748147708,305,"181 HAROLD MURPHY DR, MADISON, AL, 35756","Match","Exact","181 HAROLD MURPHY DR, MADISON, AL, 35756",652361212,"L"
269806,"181 HARTLAKE DRIVE","FREDERICKSBURG","VA",22406,38.4320936730001,-77.615434974,306,"181 HARTLAKE DRIVE, FREDERICKSBURG, VA, 22406","Match","Exact","181 HARTLAKE DR, FREDERICKSBURG, VA, 22406",636653073,"R"
269807,"181 HARTMAN CIRCLE NE","FRIDLEY","MN",55432,45.0923374390001,-93.2763036489999,307,"181 HARTMAN CIRCLE NE, FRIDLEY, MN, 55432","Match","Exact","181 HARTMAN CIR NE, FRIDLEY, MN, 55432",97550330,"R"
269808,"181 HEMPSTEAD AVE","ROCKVILLE CENTRE","NY",11570,40.6656190940001,-73.6425084379999,308,"181 HEMPSTEAD AVE, ROCKVILLE CENTRE, NY, 11570","Match","Exact","181 HEMPSTEAD AVE, ROCKVILLE CENTRE, NY, 11570",147676393,"R"
269809,"181 HENRY TISDALE LOOP","KINGSTREE","SC",29556,NA,NA,309,"181 HENRY TISDALE LOOP, KINGSTREE, SC, 29556","No_Match",NA,NA,NA,NA
269810,"181 HIGH STREET","HAMPTON","NH",3842,42.939330581,-70.829179371,310,"181 HIGH STREET, HAMPTON, NH, 3842","Match","Exact","181 HIGH ST, HAMPTON, NH, 03842",113676155,"L"
269811,"181 HILLVIEW DRIVE","VALLEJO","CA",94591,38.116589703,-122.204907376,311,"181 HILLVIEW DRIVE, VALLEJO, CA, 94591","Match","Exact","181 HILLVIEW DR, VALLEJO, CA, 94591",192528897,"L"
269812,"181 HOLIDAY BLVD","CENTER MORICHES","NY",11934,40.7854582090001,-72.80954063,312,"181 HOLIDAY BLVD, CENTER MORICHES, NY, 11934","Match","Exact","181 HOLIDAY BLVD, CENTER MORICHES, NY, 11934",647297987,"L"
269813,"181 HOLLOWELL ST","BURLINGTON","CO",80807,39.301984051,-102.285387115,313,"181 HOLLOWELL ST, BURLINGTON, CO, 80807","Match","Exact","181 HOLLOWELL ST, BURLINGTON, CO, 80807",132236705,"L"
269814,"181 HOOK ROAD","BEDFORD","NY",10506,41.2238012270001,-73.646108194,314,"181 HOOK ROAD, BEDFORD, NY, 10506","Match","Exact","181 HOOK RD, BEDFORD, NY, 10506",139845677,"L"
269815,"181 HOWARD HILL RD","FOSTER","RI",2825,41.7741543120001,-71.722796079,315,"181 HOWARD HILL RD, FOSTER, RI, 2825","Match","Exact","181 HOWARD HILL RD, FOSTER, RI, 02825",47498474,"L"
269816,"181 HUDSON ST APT5A","NEW YORK","NY",10013,40.722681886,-74.0081110679999,316,"181 HUDSON ST APT5A, NEW YORK, NY, 10013","Match","Exact","181 HUDSON ST, NEW YORK, NY, 10013",59660140,"L"
269817,"181 IOWA PLACE","DEMOREST","GA",30535,34.563648931,-83.528992395,317,"181 IOWA PLACE, DEMOREST, GA, 30535","Match","Exact","181 IOWA PL, DEMOREST, GA, 30535",639766065,"L"
269818,"181 IRISHTOWN ROAD","KERSEY","PA",15846,41.37401032,-78.594176684,318,"181 IRISHTOWN ROAD, KERSEY, PA, 15846","Match","Exact","181 IRISHTOWN RD, KERSEY, PA, 15846",157848303,"L"
269819,"181 JACKS RUN ROAD","PITTSBURGH","PA",15229,40.499638158,-80.030706741,319,"181 JACKS RUN ROAD, PITTSBURGH, PA, 15229","Match","Non_Exact","181 JACKS RUN RD, PITTSBURGH, PA, 15214",639084438,"L"
269820,"181 JAMES RIVER LANDING","NIXA","MO",65714,37.044101846,-93.380008184,320,"181 JAMES RIVER LANDING, NIXA, MO, 65714","Match","Non_Exact","181 S JAMES RIVER LNDG, NIXA, MO, 65714",99847941,"R"
269821,"181 JEFERSON ST APT 1R","BRONX","NY",11206,40.70122279,-73.929296392,321,"181 JEFERSON ST APT 1R, BRONX, NY, 11206","Match","Non_Exact","181 JEFFERSON ST, BROOKLYN, NY, 11206",652212576,"L"
269822,"181 JOHNSON LANE","MOYOCK","NC",27958,36.5493764770001,-76.227300989,322,"181 JOHNSON LANE, MOYOCK, NC, 27958","Match","Exact","181 JOHNSON LN, MOYOCK, NC, 27958",642975263,"L"
269823,"181 JOHNSON ROAD","WINGDALE","NY",12594,41.6288313530001,-73.561435121,323,"181 JOHNSON ROAD, WINGDALE, NY, 12594","Match","Exact","181 JOHNSON RD, WINGDALE, NY, 12594",4200630,"L"
269824,"181 KADE HOLLOW RD","BLUEFIELD","WV",24701,37.339691004,-81.25001682,324,"181 KADE HOLLOW RD, BLUEFIELD, WV, 24701","Match","Exact","181 KADE HOLLOW RD, BLUEFIELD, WV, 24701",648058676,"R"
269825,"181 KARA DRIVE","NORTH ANDOVER","MA",1845,42.6698459130001,-71.107299494,325,"181 KARA DRIVE, NORTH ANDOVER, MA, 1845","Match","Exact","181 KARA DR, NORTH ANDOVER, MA, 01845",86650916,"R"
269826,"181 KEY DEER BLVD","BIG PINE KEY","FL",33043,24.67173483,-81.3574980189999,326,"181 KEY DEER BLVD, BIG PINE KEY, FL, 33043","Match","Exact","181 KEY DEER BLVD, BIG PINE KEY, FL, 33043",612192663,"L"
269827,"181 KIMMER RIDGE DRIVE","MACON","GA",31220,NA,NA,327,"181 KIMMER RIDGE DRIVE, MACON, GA, 31220","No_Match",NA,NA,NA,NA
269828,"181 KINGSWOOD DRIVE","DALLAS","PA",18612,41.3371412020001,-75.945931563,328,"181 KINGSWOOD DRIVE, DALLAS, PA, 18612","Match","Exact","181 KINGSWOOD DR, DALLAS, PA, 18612",80945308,"R"
269829,"181 KIWI CT","RIO RICO","AZ",85648,31.5196918340001,-111.005876852,329,"181 KIWI CT, RIO RICO, AZ, 85648","Match","Exact","181 KIWI CT, RIO RICO, AZ, 85648",120892399,"L"
269830,"181 LAHAINALUNA ROAD SUITE A","LAHAINA","HI",96761,20.8761716110001,-156.678481808,330,"181 LAHAINALUNA ROAD SUITE A, LAHAINA, HI, 96761","Match","Exact","181 LAHAINALUNA RD, LAHAINA, HI, 96761",85087595,"R"
269831,"181 LANDING AVENUE","SMITHTOWN","NY",11787,40.860934034,-73.196362886,331,"181 LANDING AVENUE, SMITHTOWN, NY, 11787","Match","Exact","181 LANDING AVE, SMITHTOWN, NY, 11787",113986173,"L"
269832,"181 LEATHERWOOD DR","LONDON","KY",40741,37.153974722,-84.057812502,332,"181 LEATHERWOOD DR, LONDON, KY, 40741","Match","Exact","181 LEATHERWOOD DR, LONDON, KY, 40741",624448605,"L"
269833,"181 LEATHERWOOD DRIVE","LONDON","KY",40741,37.153974722,-84.057812502,333,"181 LEATHERWOOD DRIVE, LONDON, KY, 40741","Match","Exact","181 LEATHERWOOD DR, LONDON, KY, 40741",624448605,"L"
269834,"181 LEFFERTS AVE","BROOKLYN","NY",11225,40.662085856,-73.955257806,334,"181 LEFFERTS AVE, BROOKLYN, NY, 11225","Match","Exact","181 LEFFERTS AVE, BROOKLYN, NY, 11225",59079504,"L"
269835,"181 LEFFERTS AVENUE","BROOKLYN","NY",11225,40.662085856,-73.955257806,335,"181 LEFFERTS AVENUE, BROOKLYN, NY, 11225","Match","Exact","181 LEFFERTS AVE, BROOKLYN, NY, 11225",59079504,"L"
269836,"181 LENOX RD APT B3","BROOKLYN","NY",11226,40.6539445920001,-73.9535236249999,336,"181 LENOX RD APT B3, BROOKLYN, NY, 11226","Match","Exact","181 LENOX RD, BROOKLYN, NY, 11226",650074263,"L"
269837,"181 LEXINGTON ST","BELMONT","MA",2478,42.3820309640001,-71.189097541,337,"181 LEXINGTON ST, BELMONT, MA, 2478","Match","Exact","181 LEXINGTON ST, BELMONT, MA, 02478",86891090,"R"
269838,"181 LIGHTHOUSE COVE LOOP","CAROLINA SHORES","NC",28467,33.909281021,-78.559444813,338,"181 LIGHTHOUSE COVE LOOP, CAROLINA SHORES, NC, 28467","Match","Exact","181 LIGHTHOUSE COVE LOOP, CAROLINA SHORES, NC, 28467",638032430,"R"
269839,"181 LIMBAUGH VALLEY DR","MCDONOUGH","GA",30252,33.530421774,-84.056744295,339,"181 LIMBAUGH VALLEY DR, MCDONOUGH, GA, 30252","Match","Exact","181 LIMBAUGH VALLEY DR, MCDONOUGH, GA, 30252",619913691,"L"
269840,"181 LIONSGATE ROAD","SAVANNAH","GA",31419,31.9738270180001,-81.2323212649999,340,"181 LIONSGATE ROAD, SAVANNAH, GA, 31419","Match","Non_Exact","181 LIONS GATE RD, SAVANNAH, GA, 31419",641578887,"R"
269841,"181 LITTLE BRIDGE LANE","GLADE VALLEY","NC",28627,36.4144926760001,-81.004133877,341,"181 LITTLE BRIDGE LANE, GLADE VALLEY, NC, 28627","Match","Exact","181 LITTLE BRIDGE LN, GLADE VALLEY, NC, 28627",154014028,"L"
269842,"181 LITTLE CLABE DRIVE","HAZARD","KY",41701,37.3412103840001,-83.3306622379999,342,"181 LITTLE CLABE DRIVE, HAZARD, KY, 41701","Match","Exact","181 LITTLE CLABE DR, HAZARD, KY, 41701",88087685,"L"
269843,"181 LITTLE RIVER RD","CARROLLLTON","GA",30177,33.6233550090001,-85.1306742579999,343,"181 LITTLE RIVER RD, CARROLLLTON, GA, 30177","Match","Non_Exact","181 LITTLE RIVER RD, CARROLLTON, GA, 30117",17112286,"L"
269844,"181 LITTLE RIVER RD","CARROLLTON","GA",30177,33.6233550090001,-85.1306742579999,344,"181 LITTLE RIVER RD, CARROLLTON, GA, 30177","Match","Non_Exact","181 LITTLE RIVER RD, CARROLLTON, GA, 30117",17112286,"L"
269845,"181 LITTLETON RD UNIT 338","CHELMSFORD","MA",1824,42.5901476610001,-71.372195673,345,"181 LITTLETON RD UNIT 338, CHELMSFORD, MA, 1824","Match","Exact","181 LITTLETON RD, CHELMSFORD, MA, 01824",87129993,"R"
269846,"181 LIVE OAK DRIVE","THIBODAUX","LA",70301,29.904005258,-90.74482231,346,"181 LIVE OAK DRIVE, THIBODAUX, LA, 70301","Match","Exact","181 LIVE OAK DR, THIBODAUX, LA, 70301",92352104,"L"
269847,"181 LONGVIEW DRIVE","DALY CITY","CA",94015,37.6620199330001,-122.489481907,347,"181 LONGVIEW DRIVE, DALY CITY, CA, 94015","Match","Exact","181 LONGVIEW DR, DALY CITY, CA, 94015",192368721,"L"
269848,"181 LOUDON ROAD APT 201","CONCORD","NH",3301,43.218352284,-71.502358871,348,"181 LOUDON ROAD APT 201, CONCORD, NH, 3301","Match","Exact","181 LOUDON RD, CONCORD, NH, 03301",635865142,"L"
269849,"181 LOWELL AVENUE","FLORAL PARK","NY",11001,40.7300773920001,-73.7048334959999,349,"181 LOWELL AVENUE, FLORAL PARK, NY, 11001","Match","Exact","181 LOWELL AVE, FLORAL PARK, NY, 11001",147664764,"L"
269850,"181 LUVAN BLVD","GEORGTOWN","SC",29440,33.3753959640001,-79.2123447129999,350,"181 LUVAN BLVD, GEORGTOWN, SC, 29440","Match","Non_Exact","181 LUVAN BLVD, GEORGETOWN, SC, 29440",29005626,"R"
269851,"181 MADISON PARK DRIVE","LEXINGTON","SC",29072,33.9876097000001,-81.269555681,351,"181 MADISON PARK DRIVE, LEXINGTON, SC, 29072","Match","Exact","181 MADISON PARK DR, LEXINGTON, SC, 29072",646560008,"L"
269852,"181 MAGNOLIA AVE UNIT A","COSTA MESA","CA",92627,33.6393388070001,-117.915892607,352,"181 MAGNOLIA AVE UNIT A, COSTA MESA, CA, 92627","Match","Non_Exact","181 MAGNOLIA ST, COSTA MESA, CA, 92627",144046424,"R"
269853,"181 MAGNOLIA ST","ATLANTIC BEACH","FL",32233,30.326561113,-81.4042080849999,353,"181 MAGNOLIA ST, ATLANTIC BEACH, FL, 32233","Match","Exact","181 MAGNOLIA ST, ATLANTIC BCH, FL, 32233",83960618,"R"
269854,"181 MAHOGANY LANE","ORANGEBURG","SC",29115,33.4150760260001,-80.7596852309999,354,"181 MAHOGANY LANE, ORANGEBURG, SC, 29115","Match","Exact","181 MAHOGANY LN, ORANGEBURG, SC, 29115",19218453,"R"
269855,"181 MAIN ST","BRIDGEPORT","CT",6604,41.167237024,-73.1858311789999,355,"181 MAIN ST, BRIDGEPORT, CT, 6604","Match","Exact","181 MAIN ST, BRIDGEPORT, CT, 06604",3225480,"L"
269856,"181 MAIN ST","FREEPORT","ME",4032,43.861617596,-70.100568923,356,"181 MAIN ST, FREEPORT, ME, 4032","Match","Exact","181 MAIN ST, FREEPORT, ME, 04032",78046696,"L"
269857,"181 MAIN ST","NORWAY","ME",4268,44.2103186670001,-70.53355271,357,"181 MAIN ST, NORWAY, ME, 4268","Match","Exact","181 MAIN ST, NORWAY, ME, 04268",619414330,"R"
269858,"181 MAIN ST","PRESQUE ISLE","ME",4769,46.672421028,-68.0151238999999,358,"181 MAIN ST, PRESQUE ISLE, ME, 4769","Match","Exact","181 MAIN ST, PRESQUE ISLE, ME, 04769",614378624,"L"
269859,"181 MAIN STREET","WINONA","MN",55987,44.052020923,-91.6382982439999,359,"181 MAIN STREET, WINONA, MN, 55987","Match","Exact","181 MAIN ST, WINONA, MN, 55987",611872675,"L"
269860,"181 MANUEL LONG RD","WINNFIELD","LA",71483,31.8737281410001,-92.580927759,360,"181 MANUEL LONG RD, WINNFIELD, LA, 71483","Match","Exact","181 MANUEL LONG RD, WINNFIELD, LA, 71483",119017713,"R"
269861,"181 MAPLE AVENUE","ROCKVILLE CENTRE","NY",11570,40.6585349580001,-73.636617486,361,"181 MAPLE AVENUE, ROCKVILLE CENTRE, NY, 11570","Match","Exact","181 MAPLE AVE, ROCKVILLE CENTRE, NY, 11570",147676871,"L"
269862,"181 MARGARET AVE","SAN FRANCISCO","CA",94112,37.7164046300001,-122.453445015,362,"181 MARGARET AVE, SAN FRANCISCO, CA, 94112","Match","Exact","181 MARGARET AVE, SAN FRANCISCO, CA, 94112",192285948,"L"
269863,"181 MARKWOOD DR","BEDFORD","PA",15522,40.0348103580001,-78.524374259,363,"181 MARKWOOD DR, BEDFORD, PA, 15522","Match","Exact","181 MARKWOOD DR, BEDFORD, PA, 15522",50152576,"L"
269864,"181 MARSHALL RD","SALT POINT","NY",12578,41.804271774,-73.848467329,364,"181 MARSHALL RD, SALT POINT, NY, 12578","Match","Exact","181 MARSHALL RD, SALT POINT, NY, 12578",647181105,"L"
269865,"181 MCKINLEY AVE NORTH","BATTLE CREEK","MI",49017,42.3292951020001,-85.166544335,365,"181 MCKINLEY AVE NORTH, BATTLE CREEK, MI, 49017","Match","Exact","181 MCKINLEY AVE N, BATTLE CREEK, MI, 49017",11714730,"L"
269866,"181 MEADOW WOOD DRIVE","GAFFNEY","SC",29341,35.137421434,-81.698845096,366,"181 MEADOW WOOD DRIVE, GAFFNEY, SC, 29341","Match","Exact","181 MEADOW WOOD DR, GAFFNEY, SC, 29341",18986445,"L"
269867,"181 MEADOWLAKE DR","HENDERSONVILLE","TN",37075,NA,NA,367,"181 MEADOWLAKE DR, HENDERSONVILLE, TN, 37075","No_Match",NA,NA,NA,NA
269868,"181 MEADOWRIDGE","JASPER","TX",75951,30.903477917,-94.0123388649999,368,"181 MEADOWRIDGE, JASPER, TX, 75951","Match","Non_Exact","181 MEADOW RIDGE LN, JASPER, TX, 75951",32393209,"L"
269869,"181 MIDLINE RD","SLATERVILLE SPRINGS","NY",14881,42.4074190250001,-76.350732479,369,"181 MIDLINE RD, SLATERVILLE SPRINGS, NY, 14881","Match","Exact","181 MIDLINE RD, SLATERVILLE SPRINGS, NY, 14881",18883438,"R"
269870,"181 MINTURN STREET","PORT EWEN","NY",12466,41.907160456,-73.9718161339999,370,"181 MINTURN STREET, PORT EWEN, NY, 12466","Match","Exact","181 MINTURN ST, PORT EWEN, NY, 12466",41880237,"L"
269871,"181 MISSOURI AVENUE","BAY SHORE","NY",11706,40.747788217,-73.238544484,371,"181 MISSOURI AVENUE, BAY SHORE, NY, 11706","Match","Exact","181 MISSOURI AVE, BAY SHORE, NY, 11706",114053595,"L"
269872,"181 MORNINGSIDE LANE E","BUFFALO GROVE","IL",60089,42.170989628,-87.9599977249999,372,"181 MORNINGSIDE LANE E, BUFFALO GROVE, IL, 60089","Match","Exact","181 MORNINGSIDE LN E, BUFFALO GROVE, IL, 60089",119649470,"R"
269873,"181 MORNINGSIDE LINE E","BUFFALO FROVE","IL",60089,NA,NA,373,"181 MORNINGSIDE LINE E, BUFFALO FROVE, IL, 60089","No_Match",NA,NA,NA,NA
269874,"181 MOUNTAIN VIEW DRIVE","CONWAY","NH",3818,43.964769727,-71.139607234,374,"181 MOUNTAIN VIEW DRIVE, CONWAY, NH, 3818","Match","Exact","181 MOUNTAIN VIEW DR, CONWAY, NH, 03818",636294650,"R"
269875,"181 MOUNTAIN VIEW DRIVE","STEPHENSON","VA",22656,39.200802041,-78.07411744,375,"181 MOUNTAIN VIEW DRIVE, STEPHENSON, VA, 22656","Match","Exact","181 MOUNTAIN VIEW DR, STEPHENSON, VA, 22656",55581406,"L"
269876,"181 MOUNTAINVIEW AVE","SYRACUSE","NY",13224,43.0502943970001,-76.1042367319999,376,"181 MOUNTAINVIEW AVE, SYRACUSE, NY, 13224","Match","Exact","181 MOUNTAINVIEW AVE, SYRACUSE, NY, 13224",46574075,"L"
269877,"181 N 200 E","LOGAN","UT",84321,41.734771703,-111.829680633,377,"181 N 200 E, LOGAN, UT, 84321","Match","Exact","181 N 200 E, LOGAN, UT, 84321",155094071,"L"
269878,"181 N BAY LN UNIT 4","PORT LUDLOW","WA",98365,NA,NA,378,"181 N BAY LN UNIT 4, PORT LUDLOW, WA, 98365","Tie",NA,NA,NA,NA
269879,"181 N BAY LN UNIT 4","PORT LUDLOW","WA",98370,NA,NA,379,"181 N BAY LN UNIT 4, PORT LUDLOW, WA, 98370","No_Match",NA,NA,NA,NA
269880,"181 N BRADLEY RD","CHARLOTTE","MI",48813,42.5710355680001,-84.9552915089999,380,"181 N BRADLEY RD, CHARLOTTE, MI, 48813","Match","Exact","181 N BRADLEY RD, CHARLOTTE, MI, 48813",12029659,"L"
269881,"181 N COUNTY ROAD 260","CLYDE","OH",43410,41.332238268,-82.955210677,381,"181 N COUNTY ROAD 260, CLYDE, OH, 43410","Match","Non_Exact","181 S CO RD 260, CLYDE, OH, 43410",38672389,"R"
269882,"181 N DELAWARE AVENUE","N MASSAPEQUA","NY",11758,40.710470693,-73.458628384,382,"181 N DELAWARE AVENUE, N MASSAPEQUA, NY, 11758","Match","Exact","181 N DELAWARE AVE, N MASSAPEQUA, NY, 11758",147650253,"R"
269883,"181 N ELKHART AVE APT 718","ELKHART","IN",46515,NA,NA,383,"181 N ELKHART AVE APT 718, ELKHART, IN, 46515","No_Match",NA,NA,NA,NA
269884,"181 N FAIRVIEW ST","NAZARETH","PA",18064,40.7450256290001,-75.3041146469999,384,"181 N FAIRVIEW ST, NAZARETH, PA, 18064","Match","Exact","181 N FAIRVIEW ST, NAZARETH, PA, 18064",136908721,"R"
269885,"181 N GRANT ST STE 212","CANBY","OR",97013,NA,NA,385,"181 N GRANT ST STE 212, CANBY, OR, 97013","Tie",NA,NA,NA,NA
269886,"181 N MANSFIELD","LOS ANGELES","CA",90036,34.0746835480001,-118.340783188,386,"181 N MANSFIELD, LOS ANGELES, CA, 90036","Match","Non_Exact","181 N MANSFIELD AVE, LOS ANGELES, CA, 90036",141599672,"L"
269887,"181 N SALTAIR AVE","LOS ANGELES","CA",90049,34.063726892,-118.475050228,387,"181 N SALTAIR AVE, LOS ANGELES, CA, 90049","Match","Exact","181 N SALTAIR AVE, LOS ANGELES, CA, 90049",142452825,"L"
269888,"181 NANCI KAREN DRIVE","WARWICK","RI",2806,NA,NA,388,"181 NANCI KAREN DRIVE, WARWICK, RI, 2806","No_Match",NA,NA,NA,NA
269889,"181 NANCI KAREN DRIVE","WARWICK","RI",2886,41.68627379,-71.467766513,389,"181 NANCI KAREN DRIVE, WARWICK, RI, 2886","Match","Exact","181 NANCI KAREN DR, WARWICK, RI, 02886",159163382,"R"
269890,"181 NASHUA RD","GROTON","MA",1450,42.6444108270001,-71.5604523819999,390,"181 NASHUA RD, GROTON, MA, 1450","Match","Exact","181 NASHUA RD, GROTON, MA, 01450",87089883,"R"
269891,"181 NE 82ND ST   STE100","MIAMI","FL",33138,25.867072767,-80.1217214919999,391,"181 NE 82ND ST   STE100, MIAMI, FL, 33138","Match","Non_Exact","181 82ND ST, MIAMI, FL, 33141",116289420,"R"
269892,"181 NE 82ND ST  STE 100","MIAMI","FL",33138,25.867072767,-80.1217214919999,392,"181 NE 82ND ST  STE 100, MIAMI, FL, 33138","Match","Non_Exact","181 82ND ST, MIAMI, FL, 33141",116289420,"R"
269893,"181 NE 82ND ST  STE100","MIAMI","FL",33138,25.867072767,-80.1217214919999,393,"181 NE 82ND ST  STE100, MIAMI, FL, 33138","Match","Non_Exact","181 82ND ST, MIAMI, FL, 33141",116289420,"R"
269894,"181 NE 82ND ST STE100","MIAMI","FL",33138,25.867072767,-80.1217214919999,394,"181 NE 82ND ST STE100, MIAMI, FL, 33138","Match","Non_Exact","181 82ND ST, MIAMI, FL, 33141",116289420,"R"
269895,"181 NEIL ST","SARANAC LAKE","NY",12983,44.3287227770001,-74.137385963,395,"181 NEIL ST, SARANAC LAKE, NY, 12983","Match","Exact","181 NEIL ST, SARANAC LAKE, NY, 12983",173825796,"L"
269896,"181 NEW ROAD STE 304","PARSIPPANY","NJ",7054,NA,NA,396,"181 NEW ROAD STE 304, PARSIPPANY, NJ, 7054","No_Match",NA,NA,NA,NA
269897,"181 NEWTON ST","NEW BEDFORD","MA",2740,41.637980903,-70.940320345,397,"181 NEWTON ST, NEW BEDFORD, MA, 2740","Match","Exact","181 NEWTON ST, NEW BEDFORD, MA, 02740",46752071,"L"
269898,"181 NORTH FRONT STREET","LANSING","IA",52151,43.3636752630001,-91.215671107,398,"181 NORTH FRONT STREET, LANSING, IA, 52151","Match","Exact","181 N FRONT ST, LANSING, IA, 52151",48223045,"L"
269899,"181 NORTH PARK DRIVE","POINT PLEASANT","WV",25550,38.8678522320001,-82.1216517299999,399,"181 NORTH PARK DRIVE, POINT PLEASANT, WV, 25550","Match","Exact","181 N PARK DR, POINT PLEASANT, WV, 25550",101817632,"L"
269900,"181 NORTH WASHINGTON ST SUITE A","SONORA","CA",95370,37.9876989460001,-120.384559447,400,"181 NORTH WASHINGTON ST SUITE A, SONORA, CA, 95370","Match","Exact","181 N WASHINGTON ST, SONORA, CA, 95370",101411245,"R"
269901,"181 NRED OAK LANE","STUART","VA",24171,NA,NA,401,"181 NRED OAK LANE, STUART, VA, 24171","No_Match",NA,NA,NA,NA
269902,"181 NW 41ST WY","DEERFIELD BEACH","FL",33442,26.31995935,-80.1604923089999,402,"181 NW 41ST WY, DEERFIELD BEACH, FL, 33442","Match","Exact","181 NW 41ST WAY, DEERFIELD BEACH, FL, 33442",114739396,"R"
269903,"181 OAK DRIVE","SAN RAFAEL","CA",94901,37.975657239,-122.475838137,403,"181 OAK DRIVE, SAN RAFAEL, CA, 94901","Match","Exact","181 OAK DR, SAN RAFAEL, CA, 94901",647377623,"L"
269904,"181 OAK RIDGE DRIVE","FARMVILLE","NC",27828,35.5396677030001,-77.622690641,404,"181 OAK RIDGE DRIVE, FARMVILLE, NC, 27828","Match","Non_Exact","181 OAKRIDGE DR, FARMVILLE, NC, 27828",26512006,"L"
269905,"181 OAKRIDGE DRIVE","FARMVILLE","NC",27828,35.5396677030001,-77.622690641,405,"181 OAKRIDGE DRIVE, FARMVILLE, NC, 27828","Match","Exact","181 OAKRIDGE DR, FARMVILLE, NC, 27828",26512006,"L"
269906,"181 OLD GROVETON RD","ONALASKA","TX",77360,NA,NA,406,"181 OLD GROVETON RD, ONALASKA, TX, 77360","No_Match",NA,NA,NA,NA
269907,"181 OLD LEAD MINE VALLEY RD SW","CLEVELAND","TN",37311,NA,NA,407,"181 OLD LEAD MINE VALLEY RD SW, CLEVELAND, TN, 37311","Tie",NA,NA,NA,NA
269908,"181 OPAL LAKE DR","KYLE","TX",78640,29.999863143,-97.84678415,408,"181 OPAL LAKE DR, KYLE, TX, 78640","Match","Exact","181 OPAL LAKE DR, KYLE, TX, 78640",634080705,"L"
269909,"181 OPHELIA STREET","PROVIDENCE","RI",2909,41.822362126,-71.463103206,409,"181 OPHELIA STREET, PROVIDENCE, RI, 2909","Match","Exact","181 OPHELIA ST, PROVIDENCE, RI, 02909",47458885,"R"
269910,"181 ORANGEBURG ROAD","SUMMERVILLE","SC",29483,32.993533332,-80.226076963,410,"181 ORANGEBURG ROAD, SUMMERVILLE, SC, 29483","Match","Exact","181 ORANGEBURG RD, SUMMERVILLE, SC, 29483",178479718,"R"
269911,"181 ORCHARD DRIVE","DOYLESTOWN","OH",44230,40.9694997350001,-81.6866676129999,411,"181 ORCHARD DRIVE, DOYLESTOWN, OH, 44230","Match","Exact","181 ORCHARD DR, DOYLESTOWN, OH, 44230",58732349,"R"
269912,"181 OTTAWA WAY","FREMONT","CA",94133,37.468787085,-121.915867242,412,"181 OTTAWA WAY, FREMONT, CA, 94133","Match","Non_Exact","181 OTTAWA WAY, FREMONT, CA, 94539",639033645,"R"
269913,"181 OVERHILL","BASTROP","TX",78602,30.1868610940001,-97.3037559209999,413,"181 OVERHILL, BASTROP, TX, 78602","Match","Non_Exact","181 OVERHILL RD, BASTROP, TX, 78602",45486398,"R"
269914,"181 PALLOTTINE DRIVE","BUCKHANNON","WV",26505,NA,NA,414,"181 PALLOTTINE DRIVE, BUCKHANNON, WV, 26505","No_Match",NA,NA,NA,NA
269915,"181 PATTERSON ROAD","HAMPDEN","ME",4444,44.72865425,-68.8969199649999,415,"181 PATTERSON ROAD, HAMPDEN, ME, 4444","Match","Exact","181 PATTERSON RD, HAMPDEN, ME, 04444",123631890,"R"
269916,"181 PEA RIDGE RD","SUNBRIGHT","TN",37872,36.21837623,-84.6616417019999,416,"181 PEA RIDGE RD, SUNBRIGHT, TN, 37872","Match","Exact","181 PEA RIDGE RD, SUNBRIGHT, TN, 37872",26298094,"L"
269917,"181 PEACH LAKE ROAD","BREWSTER","NY",10509,41.37382188,-73.577820026,417,"181 PEACH LAKE ROAD, BREWSTER, NY, 10509","Match","Exact","181 PEACH LAKE RD, BREWSTER, NY, 10509",139711967,"L"
269918,"181 PIERCE AVENUE","SAN JOSE","CA",95110,37.3263417970001,-121.887260617,418,"181 PIERCE AVENUE, SAN JOSE, CA, 95110","Match","Exact","181 PIERCE AVE, SAN JOSE, CA, 95110",122907984,"R"
269919,"181 PINEVIEW TERRACE","PLAINFIELD","NJ",7062,40.639005674,-74.404979011,419,"181 PINEVIEW TERRACE, PLAINFIELD, NJ, 7062","Match","Exact","181 PINEVIEW TER, PLAINFIELD, NJ, 07062",60567315,"L"
269920,"181 POWERS ST","BROOKLYN","NY",11211,40.7124505690001,-73.943331383,420,"181 POWERS ST, BROOKLYN, NY, 11211","Match","Exact","181 POWERS ST, BROOKLYN, NY, 11211",59077194,"L"
269921,"181 PRESCOTT STREET","WEST BOYLSTON","MA",1583,42.3900700940001,-71.779947041,421,"181 PRESCOTT STREET, WEST BOYLSTON, MA, 1583","Match","Exact","181 PRESCOTT ST, WEST BOYLSTON, MA, 01583",646587744,"L"
269922,"181 PROMENADE ST","POMONA","CA",91767,34.0850579560001,-117.752632859,422,"181 PROMENADE ST, POMONA, CA, 91767","Match","Exact","181 PROMENADE ST, POMONA, CA, 91767",650618637,"L"
269923,"181 PROSPECT STREET","RIDGEWOOD","NJ",7450,40.9757321750001,-74.117608936,423,"181 PROSPECT STREET, RIDGEWOOD, NJ, 7450","Match","Exact","181 PROSPECT ST, RIDGEWOOD, NJ, 07450",64376495,"L"
269924,"181 PROSPERITY DRIVE","BAXTER","TN",38544,36.1765385570001,-85.610427966,424,"181 PROSPERITY DRIVE, BAXTER, TN, 38544","Match","Exact","181 PROSPERITY DR, BAXTER, TN, 38544",627265774,"R"
269925,"181 QUINTARD ST","STATEN ISLAND","NY",10305,40.5925226350001,-74.081874896,425,"181 QUINTARD ST, STATEN ISLAND, NY, 10305","Match","Exact","181 QUINTARD ST, STATEN ISLAND, NY, 10305",59870060,"R"
269926,"181 RAINIER CIRCLE","VACAVILLE","CA",95687,38.3654937900001,-121.952131156,426,"181 RAINIER CIRCLE, VACAVILLE, CA, 95687","Match","Exact","181 RAINIER CIR, VACAVILLE, CA, 95687",192535591,"R"
269927,"181 RAMSAY HILL RD","NASHVILLE","AR",71852,33.9326054750001,-93.8665008419999,427,"181 RAMSAY HILL RD, NASHVILLE, AR, 71852","Match","Non_Exact","181 RANSEY HILL RD, NASHVILLE, AR, 71852",73580443,"L"
269928,"181 RAYNER CIRCLE","SPRING BRANCH","TX",78070,29.9096131160001,-98.3721373819999,428,"181 RAYNER CIRCLE, SPRING BRANCH, TX, 78070","Match","Exact","181 RAYNER CIR, SPRING BRANCH, TX, 78070",72278718,"L"
269929,"181 REA AVE  SUITE 202","EL CAJON","CA",92020,32.7956867820001,-116.960676041,429,"181 REA AVE  SUITE 202, EL CAJON, CA, 92020","Match","Exact","181 REA AVE, EL CAJON, CA, 92020",195329050,"R"
269930,"181 RESERVATION RD","HYDE PARK","MA",2136,42.251632612,-71.1304827119999,430,"181 RESERVATION RD, HYDE PARK, MA, 2136","Match","Exact","181 RESERVATION RD, HYDE PARK, MA, 02136",85704277,"R"
269931,"181 RICE TERRACE DRIVE","COLUMBIA","SC",29229,34.1553552450001,-80.913703692,431,"181 RICE TERRACE DRIVE, COLUMBIA, SC, 29229","Match","Exact","181 RICE TERRACE DR, COLUMBIA, SC, 29229",628054421,"L"
269932,"181 RIDGE ROAD","WETHERSFIELD","CT",6109,41.7192713220001,-72.691552308,432,"181 RIDGE ROAD, WETHERSFIELD, CT, 6109","Match","Exact","181 RIDGE RD, WETHERSFIELD, CT, 06109",3516352,"R"
269933,"181 RIVER RIDGE CIRCLE SOUTH","BURNSVILLE","MN",55337,44.7773541070001,-93.282923743,433,"181 RIVER RIDGE CIRCLE SOUTH, BURNSVILLE, MN, 55337","Match","Exact","181 RIVER RIDGE CIR S, BURNSVILLE, MN, 55337",37903977,"L"
269934,"181 RIVER WALK WAY","CLIFTON","NJ",7014,40.8274457540001,-74.131477702,434,"181 RIVER WALK WAY, CLIFTON, NJ, 7014","Match","Non_Exact","181 RIVER RD, CLIFTON, NJ, 07014",65252660,"L"
269935,"181 ROBBINS AVENUE APT K4","PENNDEL","PA",19047,40.1590839990001,-74.909295347,435,"181 ROBBINS AVENUE APT K4, PENNDEL, PA, 19047","Match","Exact","181 ROBBINS AVE, PENNDEL, PA, 19047",134712351,"R"
269936,"181 ROLLINGWOOD ST","WILLIAMSVILLE","NY",14221,43.0088131730001,-78.718783103,436,"181 ROLLINGWOOD ST, WILLIAMSVILLE, NY, 14221","Match","Exact","181 ROLLINGWOOD ST, WILLIAMSVILLE, NY, 14221",48285653,"R"
269937,"181 ROUTE 206","FLANDERS","NJ",7836,40.8796081080001,-74.693915023,437,"181 ROUTE 206, FLANDERS, NJ, 7836","Match","Non_Exact","181 US HWY 206, FLANDERS, NJ, 07836",642712709,"L"
269938,"181 RYERSON AVE","MANORVILLE","NY",11949,40.8566703330001,-72.810717381,438,"181 RYERSON AVE, MANORVILLE, NY, 11949","Match","Exact","181 RYERSON AVE, MANORVILLE, NY, 11949",642663376,"R"
269939,"181 S C STREET  PO BOX 1317","BUCKLEY","WA",98321,47.1617523210001,-122.023897089,439,"181 S C STREET  PO BOX 1317, BUCKLEY, WA, 98321","Match","Exact","181 C ST, BUCKLEY, WA, 98321",613805842,"R"
269940,"181 S MAIN ST","MARION","OH",43302,40.5869731700001,-83.12873746,440,"181 S MAIN ST, MARION, OH, 43302","Match","Exact","181 S MAIN ST, MARION, OH, 43302",12707675,"L"
269941,"181 S OLD SPRINGS ROAD 2ND FL","ANAEHIM","CA",92808,33.8639914950001,-117.741947782,441,"181 S OLD SPRINGS ROAD 2ND FL, ANAEHIM, CA, 92808","Match","Non_Exact","181 S OLD SPRINGS RD, ANAHEIM, CA, 92808",144125492,"R"
269942,"181 S OLD SPRINGS ROAD 2ND FL","ANAHEIM","CA",92808,33.8639914950001,-117.741947782,442,"181 S OLD SPRINGS ROAD 2ND FL, ANAHEIM, CA, 92808","Match","Non_Exact","181 S OLD SPRINGS RD, ANAHEIM, CA, 92808",144125492,"R"
269943,"181 S WASHINGTON STREET","ORMOND BEACH","FL",32174,29.2787657700001,-81.058083671,443,"181 S WASHINGTON STREET, ORMOND BEACH, FL, 32174","Match","Exact","181 S WASHINGTON ST, ORMOND BEACH, FL, 32174",94521633,"L"
269944,"181 SAGAMORE STREET","SAN FRANCISCO","CA",94112,37.711388862,-122.458176004,444,"181 SAGAMORE STREET, SAN FRANCISCO, CA, 94112","Match","Exact","181 SAGAMORE ST, SAN FRANCISCO, CA, 94112",192285714,"L"
269945,"181 SALEM RD","SCHWENKSVILLE","PA",19473,40.2473928640001,-75.4589929969999,445,"181 SALEM RD, SCHWENKSVILLE, PA, 19473","Match","Exact","181 SALEM RD, SCHWENKSVILLE, PA, 19473",605641629,"L"
269946,"181 SARANN CT NW","LILBURN","GA",30047,33.8916222990001,-84.130881842,446,"181 SARANN CT NW, LILBURN, GA, 30047","Match","Exact","181 SARANN CT NW, LILBURN, GA, 30047",88946682,"L"
269947,"181 SATURDAY DRIVE","BUTLER","AL",36904,32.0857362260001,-88.252001714,447,"181 SATURDAY DRIVE, BUTLER, AL, 36904","Match","Non_Exact","181 SATURDAY RD, BUTLER, AL, 36904",106700,"L"
269948,"181 SCHIEBEL  ROAD","BUTLER","PA",16002,40.8210928440001,-79.7724626199999,448,"181 SCHIEBEL  ROAD, BUTLER, PA, 16002","Match","Exact","181 SCHIEBEL RD, BUTLER, PA, 16002",52685552,"L"
269949,"181 SCHOLLS SCHOOL ROAD","QUAKERTOWN","PA",18951,40.4106890080001,-75.355051271,449,"181 SCHOLLS SCHOOL ROAD, QUAKERTOWN, PA, 18951","Match","Exact","181 SCHOLLS SCHOOL RD, QUAKERTOWN, PA, 18951",134770263,"R"
269950,"181 SCHOOL ST","NORTHFIELD","MA",1360,42.696793821,-72.43764465,450,"181 SCHOOL ST, NORTHFIELD, MA, 1360","Match","Exact","181 SCHOOL ST, NORTHFIELD, MA, 01360",39941082,"R"
269951,"181 SCHUYLER AVE","NEWARK","NJ",7112,40.712000935,-74.213197325,451,"181 SCHUYLER AVE, NEWARK, NJ, 7112","Match","Exact","181 SCHUYLER AVE, NEWARK, NJ, 07112",63466132,"R"
269952,"181 SE MORGAN RD","SHELTON","WA",98584,47.2016177180001,-123.011419703,452,"181 SE MORGAN RD, SHELTON, WA, 98584","Match","Exact","181 SE MORGAN RD, SHELTON, WA, 98584",180854807,"L"
269953,"181 SEAGLASS DRIVE","MELBOURNE BEACH","FL",32951,27.978055898,-80.515253999,453,"181 SEAGLASS DRIVE, MELBOURNE BEACH, FL, 32951","Match","Exact","181 SEAGLASS DR, MELBOURNE BCH, FL, 32951",93937698,"L"
269954,"181 SECOND AVE SUITE 600","SAN MATEO","CA",94401,37.565549887,-122.324305212,454,"181 SECOND AVE SUITE 600, SAN MATEO, CA, 94401","Match","Exact","181 2ND AVE, SAN MATEO, CA, 94401",192377882,"L"
269955,"181 SHERWOOD LANE","FAIRMOUNT","GA",30139,34.417127393,-84.694474574,455,"181 SHERWOOD LANE, FAIRMOUNT, GA, 30139","Match","Exact","181 SHERWOOD LN, FAIRMOUNT, GA, 30139",634081249,"R"
269956,"181 SIMSBURY ROAD","WEST HARTFORD","CT",6117,41.8015636110001,-72.736549424,456,"181 SIMSBURY ROAD, WEST HARTFORD, CT, 6117","Match","Exact","181 SIMSBURY RD, WEST HARTFORD, CT, 06117",3485988,"L"
269957,"181 SOUTH BROADLEIGH","COLUMBUS","OH",43209,39.9670406660001,-82.922392357,457,"181 SOUTH BROADLEIGH, COLUMBUS, OH, 43209","Match","Non_Exact","181 S BROADLEIGH RD, COLUMBUS, OH, 43209",135590850,"R"
269958,"181 SOUTH FRANKLIN AVENUE STE 607","VALLEY STREAM","NY",11581,40.6601078570001,-73.703680801,458,"181 SOUTH FRANKLIN AVENUE STE 607, VALLEY STREAM, NY, 11581","Match","Exact","181 S FRANKLIN AVE, VALLEY STREAM, NY, 11581",638238599,"L"
269959,"181 SOUTH GRAHAM STREET","STEPHENVILLE","TX",76401,NA,NA,459,"181 SOUTH GRAHAM STREET, STEPHENVILLE, TX, 76401","Tie",NA,NA,NA,NA
269960,"181 SOUTH MAIN AVE","ALBANY","NY",12208,42.658030458,-73.7959923349999,460,"181 SOUTH MAIN AVE, ALBANY, NY, 12208","Match","Exact","181 S MAIN AVE, ALBANY, NY, 12208",18352185,"R"
269961,"181 SOUTH ST A2","MORRISTOWN","NJ",7960,40.7889292410001,-74.472343659,461,"181 SOUTH ST A2, MORRISTOWN, NJ, 7960","Match","Exact","181 SOUTH ST, MORRISTOWN, NJ, 07960",60443461,"R"
269962,"181 SOUTH ST","SEAGROVE","NC",27341,35.5394349490001,-79.7773002,462,"181 SOUTH ST, SEAGROVE, NC, 27341","Match","Exact","181 SOUTH ST, SEAGROVE, NC, 27341",20411827,"R"
269963,"181 SOUTH ST","SHREWSBURY","MA",1545,42.2834028,-71.699448092,463,"181 SOUTH ST, SHREWSBURY, MA, 1545","Match","Exact","181 SOUTH ST, SHREWSBURY, MA, 01545",636368601,"L"
269964,"181 SPARTA WAY","JBER","AK",99501,NA,NA,464,"181 SPARTA WAY, JBER, AK, 99501","No_Match",NA,NA,NA,NA
269965,"181 STARK COURT","MARION","OH",43302,40.585253783,-83.12598801,465,"181 STARK COURT, MARION, OH, 43302","Match","Exact","181 STARK CT, MARION, OH, 43302",12709208,"R"
269966,"181 STEIS DRIVE","RIDGEAY","PA",15853,41.411413225,-78.71093294,466,"181 STEIS DRIVE, RIDGEAY, PA, 15853","Match","Non_Exact","181 STEIS DR, RIDGWAY, PA, 15853",157856874,"L"
269967,"181 STREETLAND DR","CADIZ","KY",42211,36.859994219,-87.823557378,467,"181 STREETLAND DR, CADIZ, KY, 42211","Match","Exact","181 STREETLAND DR, CADIZ, KY, 42211",633882776,"R"
269968,"181 SUMMERWIND CIR S","CRAWFORDVILLE","FL",32327,30.2604371570001,-84.2566226769999,468,"181 SUMMERWIND CIR S, CRAWFORDVILLE, FL, 32327","Match","Exact","181 SUMMERWIND CIR S, CRAWFORDVILLE, FL, 32327",610438110,"R"
269969,"181 SUMMIT ASH WAY","APOPKA","FL",32703,28.679345385,-81.4647784909999,469,"181 SUMMIT ASH WAY, APOPKA, FL, 32703","Match","Exact","181 SUMMIT ASH WAY, APOPKA, FL, 32703",94408844,"R"
269970,"181 TANGLEWOOD DRIVE","HAMDEN","CT",6518,41.396686291,-72.90651574,470,"181 TANGLEWOOD DRIVE, HAMDEN, CT, 6518","Match","Exact","181 TANGLEWOOD DR, HAMDEN, CT, 06518",3711829,"R"
269971,"181 THIRD STREET","SAN FRANCISCO","CA",94103,37.785282346,-122.400778844,471,"181 THIRD STREET, SAN FRANCISCO, CA, 94103","Match","Exact","181 3RD ST, SAN FRANCISCO, CA, 94103",640405787,"L"
269972,"181 THOMPSON STREET","NEW YORK","NY",10012,40.7278849,-74.000138192,472,"181 THOMPSON STREET, NEW YORK, NY, 10012","Match","Exact","181 THOMPSON ST, NEW YORK, NY, 10012",59660268,"L"
269973,"181 THORNDIKE ST APT D","BROOKLINE","MA",2446,42.349633005,-71.1260308769999,473,"181 THORNDIKE ST APT D, BROOKLINE, MA, 2446","Match","Exact","181 THORNDIKE ST, BROOKLINE, MA, 02446",87244347,"R"
269974,"181 THYME AVENUE","MORGAN HILL","CA",95037,37.149616617,-121.674410461,474,"181 THYME AVENUE, MORGAN HILL, CA, 95037","Match","Exact","181 THYME AVE, MORGAN HILL, CA, 95037",618178365,"L"
269975,"181 TOBIN LANE","EDWARDSVILLE","PA",18704,41.260602277,-75.9130828149999,475,"181 TOBIN LANE, EDWARDSVILLE, PA, 18704","Match","Exact","181 TOBIN LN, EDWARDSVILLE, PA, 18704",80937616,"R"
269976,"181 TOMPKINS AVENUE 1","BROOKLYN","NY",11206,40.693056595,-73.945836189,476,"181 TOMPKINS AVENUE 1, BROOKLYN, NY, 11206","Match","Exact","181 TOMPKINS AVE, BROOKLYN, NY, 11206",59078763,"L"
269977,"181 TRENTON ST APT 2","MELROSE","MA",2176,42.4547849140001,-71.0716130119999,477,"181 TRENTON ST APT 2, MELROSE, MA, 2176","Match","Exact","181 TRENTON ST, MELROSE, MA, 02176",86857773,"R"
269978,"181 TURBYFILL","MOORESVILLE","NC",28117,35.5585398320001,-80.901821839,478,"181 TURBYFILL, MOORESVILLE, NC, 28117","Match","Non_Exact","181 TURBYFILL RD, MOORESVILLE, NC, 28117",46010664,"R"
269979,"181 TURKEY RUN","MEADOWLAKES","TX",78654,30.562816555,-98.3019546209999,479,"181 TURKEY RUN, MEADOWLAKES, TX, 78654","Match","Exact","181 TURKEY RUN, MEADOWLAKES, TX, 78654",146492025,"R"
269980,"181 UPPER PRAIRIE DOG RD","SHERIDAN","WY",82832,44.619917747,-106.845196925,480,"181 UPPER PRAIRIE DOG RD, SHERIDAN, WY, 82832","Match","Non_Exact","181 UPPER PRAIRIE DOG RD, STORY, WY, 82832",147420105,"L"
269981,"181 UPPERVILLE RD","VIRGINIA BEACH","VA",23462,36.835858785,-76.173333918,481,"181 UPPERVILLE RD, VIRGINIA BEACH, VA, 23462","Match","Exact","181 UPPERVILLE RD, VA BCH, VA, 23462",122262921,"R"
269982,"181 VENETIAN DRIVE","ISLAMORADA","FL",33036,24.8591947460001,-80.734525775,482,"181 VENETIAN DRIVE, ISLAMORADA, FL, 33036","Match","Exact","181 VENETIAN DR, ISLAMORADA, FL, 33036",116468275,"L"
269983,"181 VIA CONDADO WAY","PALM BEACH GARDENS","FL",33467,26.86019122,-80.135177271,483,"181 VIA CONDADO WAY, PALM BEACH GARDENS, FL, 33467","Match","Non_Exact","181 VIA CONDADO WAY, PALM BCH GDNS, FL, 33418",115581820,"L"
269984,"181 W 200 N","GUNNISON","UT",84634,39.1585403350001,-111.823852507,484,"181 W 200 N, GUNNISON, UT, 84634","Match","Exact","181 W 200 N, GUNNISON, UT, 84634",133779748,"L"
269985,"181 W CENTER STREET","KANAB","UT",84741,37.048104741,-112.532606499,485,"181 W CENTER STREET, KANAB, UT, 84741","Match","Exact","181 W CENTER ST, KANAB, UT, 84741",166120891,"L"
269986,"181 W KING STREET","STRASBURG","VA",22657,38.9896433540001,-78.363153183,486,"181 W KING STREET, STRASBURG, VA, 22657","Match","Exact","181 W KING ST, STRASBURG, VA, 22657",55927775,"L"
269987,"181 W NORTH","EAGLE HARBOR","MI",49950,47.4581145330001,-88.1619002319999,487,"181 W NORTH, EAGLE HARBOR, MI, 49950","Match","Non_Exact","181 W NORTH ST, EAGLE HARBOR, MI, 49950",182007613,"R"
269988,"181 WALLACE ROAD","VALATIE","NY",12184,42.38373152,-73.67160632,488,"181 WALLACE ROAD, VALATIE, NY, 12184","Match","Exact","181 WALLACE RD, VALATIE, NY, 12184",41481542,"R"
269989,"181 WARNER STREET","OCEANSIDE","CA",92085,33.226128117,-117.337248051,489,"181 WARNER STREET, OCEANSIDE, CA, 92085","Match","Non_Exact","181 WARNER ST, OCEANSIDE, CA, 92058",195412527,"L"
269990,"181 WASHINGTON AVE N","BALATON","MN",56115,44.2350737530001,-95.8764540829999,490,"181 WASHINGTON AVE N, BALATON, MN, 56115","Match","Non_Exact","181 WASHINGTON AVE, BALATON, MN, 56115",605210942,"L"
269991,"181 WATERS PT","LIZELLA","GA",31052,NA,NA,491,"181 WATERS PT, LIZELLA, GA, 31052","No_Match",NA,NA,NA,NA
269992,"181 WEBSTER STREET","BOSTON","MA",2128,42.365499148,-71.034260316,492,"181 WEBSTER STREET, BOSTON, MA, 2128","Match","Exact","181 WEBSTER ST, BOSTON, MA, 02128",85711919,"R"
269993,"181 WEDNESDAY HILL RD","LEE","NH",3861,43.116748844,-70.972470884,493,"181 WEDNESDAY HILL RD, LEE, NH, 3861","Match","Exact","181 WEDNESDAY HILL RD, LEE, NH, 03861",117812810,"R"
269994,"181 WENTWORTH AVE","GLENCOE","IL",60022,42.125966125,-87.7454350419999,494,"181 WENTWORTH AVE, GLENCOE, IL, 60022","Match","Exact","181 WENTWORTH AVE, GLENCOE, IL, 60022",111840623,"R"
269995,"181 WEST 238TH STREET APT 55E","BRONX","NY",10465,40.8840632700001,-73.89800102,495,"181 WEST 238TH STREET APT 55E, BRONX, NY, 10465","Match","Non_Exact","181 W 238TH ST, BRONX, NY, 10463",638768088,"R"
269996,"181 WEST PIEDMONT STREET","KEYSER","WV",26726,39.442108208,-78.980778936,496,"181 WEST PIEDMONT STREET, KEYSER, WV, 26726","Match","Exact","181 W PIEDMONT ST, KEYSER, WV, 26726",74306556,"L"
269997,"181 WEST PIEDMONT STREETS","KEYSER","WV",26726,39.442108208,-78.980778936,497,"181 WEST PIEDMONT STREETS, KEYSER, WV, 26726","Match","Non_Exact","181 W PIEDMONT ST, KEYSER, WV, 26726",74306556,"L"
269998,"181 WEST STREET","QUINCY","MA",2169,42.2382044030001,-71.025439462,498,"181 WEST STREET, QUINCY, MA, 2169","Match","Exact","181 WEST ST, QUINCY, MA, 02169",635748951,"R"
269999,"181 WESTVIEW STREET","FOREST CITY","NC",28043,35.3388081520001,-81.8804858569999,499,"181 WESTVIEW STREET, FOREST CITY, NC, 28043","Match","Exact","181 WESTVIEW ST, FOREST CITY, NC, 28043",19387415,"R"
270000,"181 WESTWOOD ROAD","DAYTONA BEACH","FL",32119,29.16576975,-81.0395349789999,500,"181 WESTWOOD ROAD, DAYTONA BEACH, FL, 32119","Match","Non_Exact","181 WESTWOOD DR, DAYTONA BEACH, FL, 32119",94526300,"L"
