"ID","Address","City","State","Zip","lat","long","id","input_address","match_indicator","match_type","matched_address","tiger_line_id","tiger_side"
18001,"1012 LANIE LN","MOORE","OK",73160,35.3293944110001,-97.447264422,1,"1012 LANIE LN, MOORE, OK, 73160","Match","Exact","1012 LANIE LN, MOORE, OK, 73160",618157306,"L"
18002,"1012 LANIE LN","MOORE","OK",76160,35.3293944110001,-97.447264422,2,"1012 LANIE LN, MOORE, OK, 76160","Match","Non_Exact","1012 LANIE LN, MOORE, OK, 73160",618157306,"L"
18003,"1012 LAPORTE DR","WACO","TX",76710,NA,NA,3,"1012 LAPORTE DR, WACO, TX, 76710","No_Match",NA,NA,NA,NA
18004,"1012 LAURELLEAF DR","PFLUGERVILLE","TX",78660,30.456029616,-97.634119692,4,"1012 LAURELLEAF DR, PFLUGERVILLE, TX, 78660","Match","Exact","1012 LAURELLEAF DR, PFLUGERVILLE, TX, 78660",640587332,"L"
18005,"1012 LAW LANE","MT PLEASANT","SC",29464,32.8361109300001,-79.844335024,5,"1012 LAW LANE, MT PLEASANT, SC, 29464","Match","Exact","1012 LAW LN, MOUNT PLEASANT, SC, 29464",605518750,"L"
18006,"1012 LIMPKIN DRIVE","CONWAY","SC",29526,33.7904370000001,-78.979826223,6,"1012 LIMPKIN DRIVE, CONWAY, SC, 29526","Match","Exact","1012 LIMPKIN DR, CONWAY, SC, 29526",639639119,"L"
18007,"1012 LISTON LN","PORTSMOUTH","VA",23701,36.7903977720001,-76.3615483689999,7,"1012 LISTON LN, PORTSMOUTH, VA, 23701","Match","Exact","1012 LISTON LN, PORTSMOUTH, VA, 23701",122199316,"R"
18008,"1012 MAGGIE LN","TEHACHAPI","CA",93561,35.1192008720001,-118.428871627,8,"1012 MAGGIE LN, TEHACHAPI, CA, 93561","Match","Exact","1012 MAGGIE LN, TEHACHAPI, CA, 93561",612219028,"L"
18009,"1012 MAIN ST","DANVILLE","VA",24541,36.580766053,-79.4013875099999,9,"1012 MAIN ST, DANVILLE, VA, 24541","Match","Exact","1012 MAIN ST, DANVILLE, VA, 24541",56590041,"R"
18010,"1012 MAIN ST","MOULTRIE","GA",31768,NA,NA,10,"1012 MAIN ST, MOULTRIE, GA, 31768","Tie",NA,NA,NA,NA
18011,"1012 MAIN ST","OAKLAND","TX",78951,29.60280593,-96.8314523019999,11,"1012 MAIN ST, OAKLAND, TX, 78951","Match","Exact","1012 MAIN ST, OAKLAND, TX, 78951",41187743,"R"
18012,"1012 MAIN STREET","CANON CITY","CO",81212,38.443718244,-105.233997457,12,"1012 MAIN STREET, CANON CITY, CO, 81212","Match","Exact","1012 MAIN ST, CANON CITY, CO, 81212",108288539,"R"
18013,"1012 MARGARET DR","MC KINNEY","TX",75071,33.2072013060001,-96.642631418,13,"1012 MARGARET DR, MC KINNEY, TX, 75071","Match","Exact","1012 MARGARET DR, MC KINNEY, TX, 75071",619906985,"L"
18014,"1012 MARGARET DR","MCKINNEY","TX",75071,33.2072013060001,-96.642631418,14,"1012 MARGARET DR, MCKINNEY, TX, 75071","Match","Exact","1012 MARGARET DR, MCKINNEY, TX, 75071",619906985,"L"
18015,"1012 MARGARET STREET","JACKSONVILLE","FL",32204,30.3154408950001,-81.6818583529999,15,"1012 MARGARET STREET, JACKSONVILLE, FL, 32204","Match","Exact","1012 MARGARET ST, JACKSONVILLE, FL, 32204",83896782,"R"
18016,"1012 MARIS LANE","MCDONOUGH","GA",30253,33.3890836080001,-84.200595592,16,"1012 MARIS LANE, MCDONOUGH, GA, 30253","Match","Exact","1012 MARIS LN, MCDONOUGH, GA, 30253",627695270,"L"
18017,"1012 MARQUEZ PLACE SUITE 207A","SANTA FE","NM",87505,35.6746723040001,-105.950004741,17,"1012 MARQUEZ PLACE SUITE 207A, SANTA FE, NM, 87505","Match","Exact","1012 MARQUEZ PL, SANTA FE, NM, 87505",169378613,"L"
18018,"1012 MCCAMERON","LOCKPORT","IL",60441,41.6011067330001,-88.038030973,18,"1012 MCCAMERON, LOCKPORT, IL, 60441","Match","Non_Exact","1012 MCCAMERON AVE, LOCKPORT, IL, 60441",111545381,"L"
18019,"1012 MCCLUNG AVE","HUNTSVILLE","AL",35801,34.7295119410001,-86.573917261,19,"1012 MCCLUNG AVE, HUNTSVILLE, AL, 35801","Match","Non_Exact","1012 MCCLUNG AVE SE, HUNTSVILLE, AL, 35801",58119129,"R"
18020,"1012 MCFARLAND STREET","NORMAN","OK",73069,35.206554673,-97.454851134,20,"1012 MCFARLAND STREET, NORMAN, OK, 73069","Match","Exact","1012 MCFARLAND ST, NORMAN, OK, 73069",99911166,"L"
18021,"1012 MCNAUGHTEN RD","COLUMBUS","OH",43213,39.9582060760001,-82.838142475,21,"1012 MCNAUGHTEN RD, COLUMBUS, OH, 43213","Match","Exact","1012 MCNAUGHTEN RD, COLUMBUS, OH, 43213",135764347,"L"
18022,"1012 MCNAUGHTEN ROAD","COLUMBUS","OH",43213,39.9582060760001,-82.838142475,22,"1012 MCNAUGHTEN ROAD, COLUMBUS, OH, 43213","Match","Exact","1012 MCNAUGHTEN RD, COLUMBUS, OH, 43213",135764347,"L"
18023,"1012 MEADOWBROOK ST","DERIDDER","LA",70634,30.8824738440001,-93.292293194,23,"1012 MEADOWBROOK ST, DERIDDER, LA, 70634","Match","Exact","1012 MEADOWBROOK ST, DERIDDER, LA, 70634",88375744,"L"
18024,"1012 MESILLA NE","ALBUQUERQUE","NM",87110,35.089497463,-106.565468265,24,"1012 MESILLA NE, ALBUQUERQUE, NM, 87110","Match","Non_Exact","1012 MESILLA ST NE, ALBUQUERQUE, NM, 87110",206717591,"R"
18025,"1012 MICHAEL AVE","LEHIGH ACRES","FL",33936,26.63680687,-81.602476434,25,"1012 MICHAEL AVE, LEHIGH ACRES, FL, 33936","Match","Exact","1012 MICHAEL AVE, LEHIGH ACRES, FL, 33936",117985946,"R"
18026,"1012 MILAGRO LN","MISSION","TX",78572,26.222436556,-98.3620591649999,26,"1012 MILAGRO LN, MISSION, TX, 78572","Match","Exact","1012 MILAGRO LN, MISSION, TX, 78572",641210268,"R"
18027,"1012 MILL CREEK DRIVE","SALADO","TX",76571,30.9536497490001,-97.525064511,27,"1012 MILL CREEK DRIVE, SALADO, TX, 76571","Match","Exact","1012 MILL CREEK DR, SALADO, TX, 76571",653211833,"L"
18028,"1012 MONO STREET","MANTECA","CA",95337,37.765955735,-121.199535117,28,"1012 MONO STREET, MANTECA, CA, 95337","Match","Exact","1012 MONO ST, MANTECA, CA, 95337",645186947,"R"
18029,"1012 MOORE STREET","MESQUITE","TX",75149,32.777758131,-96.60546214,29,"1012 MOORE STREET, MESQUITE, TX, 75149","Match","Non_Exact","1012 MOORE DR, MESQUITE, TX, 75149",102933860,"R"
18030,"1012 N 20TH STREET","RICHMOND","VA",23223,37.540650799,-77.4173848789999,30,"1012 N 20TH STREET, RICHMOND, VA, 23223","Match","Exact","1012 N 20TH ST, RICHMOND, VA, 23223",201541213,"L"
18031,"1012 N 400 W","LOGAN","UT",84341,41.7506779490001,-111.844771875,31,"1012 N 400 W, LOGAN, UT, 84341","Match","Exact","1012 N 400 W, LOGAN, UT, 84341",653271230,"L"
18032,"1012 N BALDWIN ST","KENNETT","MO",63857,36.247048299,-90.05893406,32,"1012 N BALDWIN ST, KENNETT, MO, 63857","Match","Exact","1012 N BALDWIN ST, KENNETT, MO, 63857",38799478,"L"
18033,"1012 N BRYAN AVE","LAMESA","TX",79331,32.7393210920001,-101.963127744,33,"1012 N BRYAN AVE, LAMESA, TX, 79331","Match","Exact","1012 N BRYAN AVE, LAMESA, TX, 79331",182746242,"L"
18034,"1012 N FARVIEW DRIVE","INDEPENDENCE","MO",64056,NA,NA,34,"1012 N FARVIEW DRIVE, INDEPENDENCE, MO, 64056","Tie",NA,NA,NA,NA
18035,"1012 N LINKS ROAD","WINAMAC","IN",46996,41.070691896,-86.577230575,35,"1012 N LINKS ROAD, WINAMAC, IN, 46996","Match","Exact","1012 N LINKS RD, WINAMAC, IN, 46996",15486657,"R"
18036,"1012 N MARION AVE","WASHINGTON","IA",52353,41.3078425300001,-91.692962735,36,"1012 N MARION AVE, WASHINGTON, IA, 52353","Match","Exact","1012 N MARION AVE, WASHINGTON, IA, 52353",84182161,"R"
18037,"1012 N MISSISSIPPI AVE","ADA","OK",74820,34.7852627620001,-96.669907485,37,"1012 N MISSISSIPPI AVE, ADA, OK, 74820","Match","Exact","1012 N MISSISSIPPI AVE, ADA, OK, 74820",647537169,"L"
18038,"1012 N OCEAN BOULEVARD APT 1402","POMPANO BEACH","FL",33062,NA,NA,38,"1012 N OCEAN BOULEVARD APT 1402, POMPANO BEACH, FL, 33062","Tie",NA,NA,NA,NA
18039,"1012 N PRAIRIE ST APT 5","BLOOMINGTON","IL",61701,40.487025793,-88.991130426,39,"1012 N PRAIRIE ST APT 5, BLOOMINGTON, IL, 61701","Match","Non_Exact","1012 N PRAIRIE ST, BLOOMINGTON, IL, 61701",20545627,"L"
18040,"1012 N ROCK HILL ROAD","SAINT LOUIS","MO",63119,38.609854436,-90.3653218159999,40,"1012 N ROCK HILL ROAD, SAINT LOUIS, MO, 63119","Match","Exact","1012 N ROCK HILL RD, SAINT LOUIS, MO, 63119",100135007,"R"
18041,"1012 NATHANIEL","CLEVELAND","OH",44110,41.552766121,-81.5695698499999,41,"1012 NATHANIEL, CLEVELAND, OH, 44110","Match","Non_Exact","1012 NATHANIEL RD, CLEVELAND, OH, 44110",61121350,"R"
18042,"1012 NE 5TH ST","ANKENY","IA",50021,41.735804982,-93.582295713,42,"1012 NE 5TH ST, ANKENY, IA, 50021","Match","Exact","1012 NE 5TH ST, ANKENY, IA, 50021",65857833,"L"
18043,"1012 NEWRY LANE","DUNCANSVILLE","PA",16635,40.4186006580001,-78.410720721,43,"1012 NEWRY LANE, DUNCANSVILLE, PA, 16635","Match","Exact","1012 NEWRY LN, DUNCANSVILLE, PA, 16635",49733948,"L"
18044,"1012 NEWTON ROAD","IOWA CITY","IA",52246,41.6638595470001,-91.552961182,44,"1012 NEWTON ROAD, IOWA CITY, IA, 52246","Match","Exact","1012 NEWTON RD, IOWA CITY, IA, 52246",84494501,"R"
18045,"1012 NORRIS AVE","MCCOOK","NE",69001,40.206914806,-100.625613529,45,"1012 NORRIS AVE, MCCOOK, NE, 69001","Match","Exact","1012 NORRIS AVE, MCCOOK, NE, 69001",164134215,"L"
18046,"1012 NORTH 67TH STREET","PHILADELPHIA","PA",19151,39.9772645420001,-75.2540001579999,46,"1012 NORTH 67TH STREET, PHILADELPHIA, PA, 19151","Match","Exact","1012 N 67TH ST, PHILADELPHIA, PA, 19151",131396972,"L"
18047,"1012 NORTH FAIRVIEW","PITTSBURG","KS",66762,37.417426606,-94.685204008,47,"1012 NORTH FAIRVIEW, PITTSBURG, KS, 66762","Match","Non_Exact","1012 N FAIRVIEW ST, PITTSBURG, KS, 66762",33438721,"R"
18048,"1012 NORTH HOUSTON STREET","LORENA","TX",76655,31.398596657,-97.2246866469999,48,"1012 NORTH HOUSTON STREET, LORENA, TX, 76655","Match","Exact","1012 N HOUSTON ST, LORENA, TX, 76655",653825301,"L"
18049,"1012 NORTH MADISON AVENUE","CLEARWATER","FL",33755,27.975769099,-82.789274488,49,"1012 NORTH MADISON AVENUE, CLEARWATER, FL, 33755","Match","Exact","1012 N MADISON AVE, CLEARWATER, FL, 33755",124667904,"L"
18050,"1012 NORTH MARQUETTE STREET","DAVENPORT","IL",52804,NA,NA,50,"1012 NORTH MARQUETTE STREET, DAVENPORT, IL, 52804","No_Match",NA,NA,NA,NA
18051,"1012 NORTH ORKNEY ST","PHILADELPHIA","PA",19123,39.9683935960001,-75.144874073,51,"1012 NORTH ORKNEY ST, PHILADELPHIA, PA, 19123","Match","Exact","1012 N ORKNEY ST, PHILADELPHIA, PA, 19123",131422810,"L"
18052,"1012 NORTH SHORE DRIVE NE UNIT 22","ST. PETERSBURG","FL",33701,27.7823653630001,-82.6268541749999,52,"1012 NORTH SHORE DRIVE NE UNIT 22, ST. PETERSBURG, FL, 33701","Match","Exact","1012 N SHORE DR NE, SAINT PETERSBURG, FL, 33701",124713461,"L"
18053,"1012 NORTH TERRIL STREET","ALEXANDRIA","VA",22304,38.8229641880001,-77.121807382,53,"1012 NORTH TERRIL STREET, ALEXANDRIA, VA, 22304","Match","Non_Exact","1012 N TERRILL ST, ALEXANDRIA, VA, 22304",75982716,"L"
18054,"1012 NORTH WARSON ROAD","OLIVETTE","MO",63132,38.6763602190001,-90.3947225969999,54,"1012 NORTH WARSON ROAD, OLIVETTE, MO, 63132","Match","Exact","1012 N WARSON RD, OLIVETTE, MO, 63132",640053713,"R"
18055,"1012 NW 11TH PL","FT. LAUDERDALE","FL",33311,26.140154437,-80.1570983,55,"1012 NW 11TH PL, FT. LAUDERDALE, FL, 33311","Match","Exact","1012 NW 11TH PL, FORT LAUDERDALE, FL, 33311",114762895,"L"
18056,"1012 NW 1ST AVE","MIAMI","FL",33136,25.783879434,-80.196398831,56,"1012 NW 1ST AVE, MIAMI, FL, 33136","Match","Exact","1012 NW 1ST AVE, MIAMI, FL, 33136",116017776,"L"
18057,"1012 OAKLAND LANE","LAKE ARIEL","PA",18436,41.397542097,-75.28180782,57,"1012 OAKLAND LANE, LAKE ARIEL, PA, 18436","Match","Exact","1012 OAKLAND LN, LAKE ARIEL, PA, 18436",140140201,"L"
18058,"1012 Old Ware Road","Wetumpka","AL",36093,32.4624420640001,-86.112205037,58,"1012 Old Ware Road, Wetumpka, AL, 36093","Match","Exact","1012 OLD WARE RD, WETUMPKA, AL, 36093",651305496,"R"
18059,"1012 Old Ware Road","WETUMPKA","AL",36093,32.4624420640001,-86.112205037,59,"1012 Old Ware Road, WETUMPKA, AL, 36093","Match","Exact","1012 OLD WARE RD, WETUMPKA, AL, 36093",651305496,"R"
18060,"1012 OLIVER ROAD","MONROE","LA",71201,32.5235315990001,-92.104708401,60,"1012 OLIVER ROAD, MONROE, LA, 71201","Match","Exact","1012 OLIVER RD, MONROE, LA, 71201",161085864,"R"
18061,"1012 OSCEOLA TRAIL","CASSELBERRY","FL",32707,28.6909406990001,-81.317154597,61,"1012 OSCEOLA TRAIL, CASSELBERRY, FL, 32707","Match","Exact","1012 OSCEOLA TRL, CASSELBERRY, FL, 32707",93739490,"L"
18062,"1012 OVERLOOK DRIVE","BECKLEY","WV",25801,37.8058216090001,-81.140500956,62,"1012 OVERLOOK DRIVE, BECKLEY, WV, 25801","Match","Exact","1012 OVERLOOK DR, BECKLEY, WV, 25801",78817318,"R"
18063,"1012 PALMETTO STREET","BIRMINGHAM","AL",35209,33.4725739080001,-86.808280719,63,"1012 PALMETTO STREET, BIRMINGHAM, AL, 35209","Match","Exact","1012 PALMETTO ST, BIRMINGHAM, AL, 35209",81717407,"L"
18064,"1012 PALMETTO STREET","MOBILE","AL",36604,30.682946674,-88.05698676,64,"1012 PALMETTO STREET, MOBILE, AL, 36604","Match","Exact","1012 PALMETTO ST, MOBILE, AL, 36604",61908227,"R"
18065,"1012 PARK CT","ST. CHARLES","MO",63303,38.7798036250001,-90.532892799,65,"1012 PARK CT, ST. CHARLES, MO, 63303","Match","Exact","1012 PARK CT, SAINT CHARLES, MO, 63303",100024591,"L"
18066,"1012 PARK LANE CT","MARYVILLE","TN",37803,35.7253579910001,-83.9711313829999,66,"1012 PARK LANE CT, MARYVILLE, TN, 37803","Match","Exact","1012 PARK LANE CT, MARYVILLE, TN, 37803",89836810,"L"
18067,"1012 PATTON AVENUE","ALBEMARLE","NC",28001,35.359410543,-80.228732497,67,"1012 PATTON AVENUE, ALBEMARLE, NC, 28001","Match","Exact","1012 PATTON AVE, ALBEMARLE, NC, 28001",14079847,"R"
18068,"1012 PECAN ST","DEL RIO","TX",78840,29.3521679940001,-100.896913344,68,"1012 PECAN ST, DEL RIO, TX, 78840","Match","Exact","1012 PECAN ST, DEL RIO, TX, 78840",173588013,"R"
18069,"1012 PENN BLVD","OSKALOOSA","IA",52577,41.306527868,-92.648244822,69,"1012 PENN BLVD, OSKALOOSA, IA, 52577","Match","Exact","1012 PENN BLVD, OSKALOOSA, IA, 52577",89377267,"R"
18070,"1012 PETROLEUM PARKWAY","BROUSSARD","LA",70518,NA,NA,70,"1012 PETROLEUM PARKWAY, BROUSSARD, LA, 70518","No_Match",NA,NA,NA,NA
18071,"1012 PETWAY AVENUE","NASHVILLE","TN",37206,36.1869963120001,-86.750703491,71,"1012 PETWAY AVENUE, NASHVILLE, TN, 37206","Match","Exact","1012 PETWAY AVE, NASHVILLE, TN, 37206",635876644,"R"
18072,"1012 PINE LAKE ROAD","COLLINSVILLE","IL",62234,38.690274946,-89.9574133849999,72,"1012 PINE LAKE ROAD, COLLINSVILLE, IL, 62234","Match","Exact","1012 PINE LAKE RD, COLLINSVILLE, IL, 62234",107766604,"L"
18073,"1012 PLACITA DON ANDRES","SANTA FE","NM",87501,NA,NA,73,"1012 PLACITA DON ANDRES, SANTA FE, NM, 87501","No_Match",NA,NA,NA,NA
18074,"1012 PLEASANT STREET","TONGANOXIE","KS",66086,39.103039901,-95.0842301759999,74,"1012 PLEASANT STREET, TONGANOXIE, KS, 66086","Match","Exact","1012 PLEASANT ST, TONGANOXIE, KS, 66086",91397881,"L"
18075,"1012 PLYMOUTH STREET","GASTONIA","NC",28054,35.2494379120001,-81.180481323,75,"1012 PLYMOUTH STREET, GASTONIA, NC, 28054","Match","Exact","1012 PLYMOUTH ST, GASTONIA, NC, 28054",70391218,"L"
18076,"1012 PRESTON DR","NORTH VERSAILLES","PA",15137,40.3667966450001,-79.780175307,76,"1012 PRESTON DR, NORTH VERSAILLES, PA, 15137","Match","Exact","1012 PRESTON DR, N VERSAILLES, PA, 15137",607588795,"R"
18077,"1012 RACHELS DRIVE","SUFFOLK","VA",23434,36.7180028500001,-76.630861668,77,"1012 RACHELS DRIVE, SUFFOLK, VA, 23434","Match","Exact","1012 RACHELS DR, SUFFOLK, VA, 23434",626992992,"R"
18078,"1012 RAINBOW DRIVE","ALBANY","KY",42602,36.700152781,-85.126386463,78,"1012 RAINBOW DRIVE, ALBANY, KY, 42602","Match","Exact","1012 RAINBOW DR, ALBANY, KY, 42602",29467520,"R"
18079,"1012 RAMSEY ROAD","MORRISON","TN",37357,35.549117375,-85.9735446719999,79,"1012 RAMSEY ROAD, MORRISON, TN, 37357","Match","Exact","1012 RAMSEY RD, MORRISON, TN, 37357",605357338,"L"
18080,"1012 RICHMOND RD","BROOMALL","PA",19008,39.9568332050001,-75.358766942,80,"1012 RICHMOND RD, BROOMALL, PA, 19008","Match","Exact","1012 RICHMOND RD, BROOMALL, PA, 19008",134898526,"L"
18081,"1012 RIDGEWAY DR","LIBERTY","MO",64068,39.2584657470001,-94.430396512,81,"1012 RIDGEWAY DR, LIBERTY, MO, 64068","Match","Exact","1012 RIDGEWAY DR, LIBERTY, MO, 64068",89765104,"L"
18082,"1012 RIVER RD","AGAWAM","MA",1001,42.074625245,-72.590002774,82,"1012 RIVER RD, AGAWAM, MA, 1001","Match","Exact","1012 RIVER RD, AGAWAM, MA, 01001",4037734,"R"
18083,"1012 ROBERTSON BLVD","LOS ANGELES","CA",90035,34.0589535240001,-118.383617013,83,"1012 ROBERTSON BLVD, LOS ANGELES, CA, 90035","Match","Non_Exact","1012 S ROBERTSON BLVD, LOS ANGELES, CA, 90035",141573004,"L"
18084,"1012 ROCHESTER WAY","PLANO","TX",75094,33.006428536,-96.623037493,84,"1012 ROCHESTER WAY, PLANO, TX, 75094","Match","Exact","1012 ROCHESTER WAY, PLANO, TX, 75094",123561884,"R"
18085,"1012 ROGERS AVE","SAN ANTONIO","TX",78202,29.431696016,-98.462000256,85,"1012 ROGERS AVE, SAN ANTONIO, TX, 78202","Match","Exact","1012 ROGERS AVE, SAN ANTONIO, TX, 78202",101528325,"R"
18086,"1012 ROSE ST","BASTROP","LA",71220,32.7909084460001,-91.9255837439999,86,"1012 ROSE ST, BASTROP, LA, 71220","Match","Non_Exact","1012 ROSE AVE, BASTROP, LA, 71220",75377171,"R"
18087,"1012 RTE 211 WEST","MIDDLETOWN","NY",10940,NA,NA,87,"1012 RTE 211 WEST, MIDDLETOWN, NY, 10940","No_Match",NA,NA,NA,NA
18088,"1012 RUBY DRIVE","PERRIS","CA",92571,33.79589966,-117.221741305,88,"1012 RUBY DRIVE, PERRIS, CA, 92571","Match","Exact","1012 RUBY DR, PERRIS, CA, 92571",194813794,"R"
18089,"1012 RUE MAISON D","HOMEWOOD","AL",35209,NA,NA,89,"1012 RUE MAISON D, HOMEWOOD, AL, 35209","No_Match",NA,NA,NA,NA
18090,"1012 S BALDWIN AVE STE A","ARCADIA","CA",91007,34.1284856410001,-118.054703041,90,"1012 S BALDWIN AVE STE A, ARCADIA, CA, 91007","Match","Non_Exact","1012 S BALDWIN AVE, ARCADIA, CA, 91007",141644399,"L"
18091,"1012 S BROCKWAY ST","OLATHE","KS",66061,38.868720679,-94.841394775,91,"1012 S BROCKWAY ST, OLATHE, KS, 66061","Match","Exact","1012 S BROCKWAY ST, OLATHE, KS, 66061",640605029,"L"
18092,"1012 S DIVISION ST","WAUNAKEE","WI",53597,43.1833749100001,-89.446900747,92,"1012 S DIVISION ST, WAUNAKEE, WI, 53597","Match","Exact","1012 S DIVISION ST, WAUNAKEE, WI, 53597",49466019,"R"
18093,"1012 S FRONT ST","HAMILTON","OH",45011,39.3902601460001,-84.568347606,93,"1012 S FRONT ST, HAMILTON, OH, 45011","Match","Exact","1012 S FRONT ST, HAMILTON, OH, 45011",113789654,"L"
18094,"1012 S KENILWORTH AVE","OAK PARK","IL",60304,41.8702538480001,-87.796530849,94,"1012 S KENILWORTH AVE, OAK PARK, IL, 60304","Match","Exact","1012 S KENILWORTH AVE, OAK PARK, IL, 60304",111793860,"L"
18095,"1012 S WILLIAMS ST","WESTMONT","IL",60559,41.7765342640001,-87.984362146,95,"1012 S WILLIAMS ST, WESTMONT, IL, 60559","Match","Exact","1012 S WILLIAMS ST, WESTMONT, IL, 60559",639891826,"R"
18096,"1012 SAINT CROX AVE","APOPKA","FL",32703,28.6654282390001,-81.45902369,96,"1012 SAINT CROX AVE, APOPKA, FL, 32703","Match","Non_Exact","1012 ST CROIX AVE, APOPKA, FL, 32703",93752560,"L"
18097,"1012 SAINT JULIEN DRIVE  APT F4","KENNER","LA",70065,NA,NA,97,"1012 SAINT JULIEN DRIVE  APT F4, KENNER, LA, 70065","Tie",NA,NA,NA,NA
18098,"1012 SANDIA DR","CLOVIS","NM",88051,34.4262149310001,-103.217859704,98,"1012 SANDIA DR, CLOVIS, NM, 88051","Match","Non_Exact","1012 SANDIA DR, CLOVIS, NM, 88101",163759449,"R"
18099,"1012 SANDWICK WAY","DAVIS","CA",95630,38.675767598,-121.109664953,99,"1012 SANDWICK WAY, DAVIS, CA, 95630","Match","Non_Exact","1012 SANDWICK WAY, FOLSOM, CA, 95630",133408849,"L"
18100,"1012 SANDWICK WAY","FOLSOM","CA",95630,38.675767598,-121.109664953,100,"1012 SANDWICK WAY, FOLSOM, CA, 95630","Match","Exact","1012 SANDWICK WAY, FOLSOM, CA, 95630",133408849,"L"
18101,"1012 SANFORD AVE","IRVINGTON","NJ",7111,40.7275530860001,-74.240958082,101,"1012 SANFORD AVE, IRVINGTON, NJ, 7111","Match","Exact","1012 SANFORD AVE, IRVINGTON, NJ, 07111",63463637,"L"
18102,"1012 SANTA ANITA DR","BELEN","NM",87002,34.6676322220001,-106.779181492,102,"1012 SANTA ANITA DR, BELEN, NM, 87002","Match","Exact","1012 SANTA ANITA DR, BELEN, NM, 87002",179195954,"R"
18103,"1012 SEXTON DRIVE APT 5","STONE MOUNTAIN","GA",30083,33.807521212,-84.1772760169999,103,"1012 SEXTON DRIVE APT 5, STONE MOUNTAIN, GA, 30083","Match","Exact","1012 SEXTON DR, STONE MOUNTAIN, GA, 30083",23386574,"L"
18104,"1012 SNOWBIRD DRIVE","FRAZIER PARK","CA",93225,34.827999837,-119.039277023,104,"1012 SNOWBIRD DRIVE, FRAZIER PARK, CA, 93225","Match","Exact","1012 SNOWBIRD DR, FRAZIER PARK, CA, 93225",109079462,"R"
18105,"1012 SNOWBIRD DRIVER","FRAZIER PARK","CA",93225,34.827999837,-119.039277023,105,"1012 SNOWBIRD DRIVER, FRAZIER PARK, CA, 93225","Match","Non_Exact","1012 SNOWBIRD DR, FRAZIER PARK, CA, 93225",109079462,"R"
18106,"1012 SOMERSET CIRCLE","FORNEY","TX",75126,32.772686009,-96.420825755,106,"1012 SOMERSET CIRCLE, FORNEY, TX, 75126","Match","Exact","1012 SOMERSET CIR, FORNEY, TX, 75126",635272362,"L"
18107,"1012 SOUTH 197TH CIRCLE","ELKHORN","NE",68022,41.2490956980001,-96.223767251,107,"1012 SOUTH 197TH CIRCLE, ELKHORN, NE, 68022","Match","Exact","1012 S 197TH CIR, ELKHORN, NE, 68022",117030325,"R"
18108,"1012 SOUTH 2ND STREET","KALAMAZOO","MI",49009,42.27879304,-85.750404626,108,"1012 SOUTH 2ND STREET, KALAMAZOO, MI, 49009","Match","Exact","1012 S 2ND ST, KALAMAZOO, MI, 49009",12221413,"R"
18109,"1012 SOUTH 3RD STREET","WATERTOWN","WI",53094,43.1862397310001,-88.723906517,109,"1012 SOUTH 3RD STREET, WATERTOWN, WI, 53094","Match","Exact","1012 S 3RD ST, WATERTOWN, WI, 53094",53234879,"L"
18110,"1012 SOUTH EIGHTH STREET","IRONTON","OH",45638,38.5307322140001,-82.674403378,110,"1012 SOUTH EIGHTH STREET, IRONTON, OH, 45638","Match","Exact","1012 S 8TH ST, IRONTON, OH, 45638",55009906,"R"
18111,"1012 SOUTH JACKSON STREET","BOONE","IA",50036,42.04664834,-93.8646171619999,111,"1012 SOUTH JACKSON STREET, BOONE, IA, 50036","Match","Exact","1012 S JACKSON ST, BOONE, IA, 50036",649957954,"L"
18112,"1012 SPRINGFIELD","LAREDO","TX",78046,NA,NA,112,"1012 SPRINGFIELD, LAREDO, TX, 78046","No_Match",NA,NA,NA,NA
18113,"1012 SPRUCE ST NO 1R","PHILADELPHIA","PA",19107,39.9462024010001,-75.158534302,113,"1012 SPRUCE ST NO 1R, PHILADELPHIA, PA, 19107","Match","Non_Exact","1012 SPRUCE ST, PHILADELPHIA, PA, 19107",131423759,"L"
18114,"1012 SPRUCE ST","PHILADELPHIA","PA",19107,39.9462024010001,-75.158534302,114,"1012 SPRUCE ST, PHILADELPHIA, PA, 19107","Match","Exact","1012 SPRUCE ST, PHILADELPHIA, PA, 19107",131423759,"L"
18115,"1012 STARITA COURT","APEX","NC",27502,35.731143506,-78.9092779329999,115,"1012 STARITA COURT, APEX, NC, 27502","Match","Exact","1012 STARITA CT, APEX, NC, 27502",72640427,"R"
18116,"1012 STEUBING OAKS","SAN ANTONIO","TX",78258,29.620983145,-98.478639417,116,"1012 STEUBING OAKS, SAN ANTONIO, TX, 78258","Match","Exact","1012 STEUBING OAKS, SAN ANTONIO, TX, 78258",101703030,"L"
18117,"1012 SW 21ST","CAPE CORAL","FL",33991,26.612386814,-81.995230593,117,"1012 SW 21ST, CAPE CORAL, FL, 33991","Match","Non_Exact","1012 SW 21ST LN, CAPE CORAL, FL, 33991",118011613,"R"
18118,"1012 SW 4TH PL","RENTON","WA",98057,47.4785868430001,-122.230508125,118,"1012 SW 4TH PL, RENTON, WA, 98057","Match","Exact","1012 SW 4TH PL, RENTON, WA, 98057",239773637,"R"
18119,"1012 SW 5TH ST","JASPER","FL",32052,30.514530248,-82.95591145,119,"1012 SW 5TH ST, JASPER, FL, 32052","Match","Non_Exact","1012 5TH ST SW, JASPER, FL, 32052",41001787,"R"
18120,"1012 TALL OAK LANE","CHATTANOOGA","TN",37421,34.996909305,-85.1426506829999,120,"1012 TALL OAK LANE, CHATTANOOGA, TN, 37421","Match","Exact","1012 TALL OAK LN, CHATTANOOGA, TN, 37421",59324238,"R"
18121,"1012 TALL OAK LANE","CHATTNOOGA","TN",37421,34.996909305,-85.1426506829999,121,"1012 TALL OAK LANE, CHATTNOOGA, TN, 37421","Match","Non_Exact","1012 TALL OAK LN, CHATTANOOGA, TN, 37421",59324238,"R"
18122,"1012 TANAGER DRIVE","COLUMBUS","IN",47203,39.2473518560001,-85.914887693,122,"1012 TANAGER DRIVE, COLUMBUS, IN, 47203","Match","Exact","1012 TANAGER DR, COLUMBUS, IN, 47203",606493762,"R"
18123,"1012 TANNA LN","SUMMIT","MS",39666,31.3084003600001,-90.433812043,123,"1012 TANNA LN, SUMMIT, MS, 39666","Match","Exact","1012 TANNA LN, SUMMIT, MS, 39666",75864986,"R"
18124,"1012 THACKER STREET","SCHAUMBURG","IL",60173,42.035779905,-88.054889485,124,"1012 THACKER STREET, SCHAUMBURG, IL, 60173","Match","Exact","1012 THACKER ST, SCHAUMBURG, IL, 60173",111876431,"L"
18125,"1012 TRACEY LN","PEA RIDGE","AR",72751,NA,NA,125,"1012 TRACEY LN, PEA RIDGE, AR, 72751","No_Match",NA,NA,NA,NA
18126,"1012 TRAVIS LANE","GAITHERSBURG","MD",17821,39.160882671,-77.2163747019999,126,"1012 TRAVIS LANE, GAITHERSBURG, MD, 17821","Match","Non_Exact","1012 TRAVIS LN, GAITHERSBURG, MD, 20879",62088586,"R"
18127,"1012 TRUMBULL HIGHWAY","LEBANON","CT",6249,41.630174369,-72.202831684,127,"1012 TRUMBULL HIGHWAY, LEBANON, CT, 6249","Match","Exact","1012 TRUMBULL HWY, LEBANON, CT, 06249",636470345,"R"
18128,"1012 V STREET/4","SACRAMENTO","CA",95818,38.567039202,-121.498939952,128,"1012 V STREET/4, SACRAMENTO, CA, 95818","Match","Non_Exact","1012 V ST, SACRAMENTO, CA, 95818",133321928,"R"
18129,"1012 VALHALLA DR APT A","BAKERSFIELD","CA",93309,35.345355897,-119.055097789,129,"1012 VALHALLA DR APT A, BAKERSFIELD, CA, 93309","Match","Exact","1012 VALHALLA DR, BAKERSFIELD, CA, 93309",109085885,"L"
18130,"1012 VALLEY ST","KANNAPOLIS","NC",28081,35.5049028080001,-80.6373091899999,130,"1012 VALLEY ST, KANNAPOLIS, NC, 28081","Match","Exact","1012 VALLEY ST, KANNAPOLIS, NC, 28081",24923478,"R"
18131,"1012 VALLEY VIEW RD","YORK","PA",17406,39.9822321600001,-76.59220197,131,"1012 VALLEY VIEW RD, YORK, PA, 17406","Match","Exact","1012 VALLEY VIEW RD, YORK, PA, 17406",88744349,"L"
18132,"1012 VASQUEZ ST","AUSTIN","TX",78741,30.2312690410001,-97.69354479,132,"1012 VASQUEZ ST, AUSTIN, TX, 78741","Match","Exact","1012 VASQUEZ ST, AUSTIN, TX, 78741",63949300,"R"
18133,"1012 VERDE WAY","GARDNERVILLE","NV",89460,38.898463517,-119.77069444,133,"1012 VERDE WAY, GARDNERVILLE, NV, 89460","Match","Exact","1012 VERDE WAY, GARDNERVILLE, NV, 89460",173752593,"L"
18134,"1012 VERDUNVILLE ROAD 131","FRANKLIN","LA",70538,NA,NA,134,"1012 VERDUNVILLE ROAD 131, FRANKLIN, LA, 70538","No_Match",NA,NA,NA,NA
18135,"1012 W 12TH STREET","LAKELAND","FL",33805,28.063804395,-81.970150167,135,"1012 W 12TH STREET, LAKELAND, FL, 33805","Match","Exact","1012 W 12TH ST, LAKELAND, FL, 33805",104807252,"L"
18136,"1012 W 4TH ST","ANACONDA","MT",59711,46.1295162650001,-112.966747974,136,"1012 W 4TH ST, ANACONDA, MT, 59711","Match","Exact","1012 W 4TH ST, ANACONDA, MT, 59711",152705941,"R"
18137,"1012 W 81ST ST","KEARNEY","NE",68845,40.754184278,-99.094564293,137,"1012 W 81ST ST, KEARNEY, NE, 68845","Match","Exact","1012 W 81ST ST, KEARNEY, NE, 68845",137859047,"L"
18138,"1012 W 8TH ST","SIOUX FALLS","SD",57104,43.5485640270001,-96.741542732,138,"1012 W 8TH ST, SIOUX FALLS, SD, 57104","Match","Exact","1012 W 8TH ST, SIOUX FALLS, SD, 57104",34971319,"R"
18139,"1012 W BERRY AVE","LITTLETON","CO",80120,39.616913255,-104.999257533,139,"1012 W BERRY AVE, LITTLETON, CO, 80120","Match","Exact","1012 W BERRY AVE, LITTLETON, CO, 80120",177336193,"L"
18140,"1012 W BEVERLY BLVD STE 255","MONTEBELLO","CA",90640,NA,NA,140,"1012 W BEVERLY BLVD STE 255, MONTEBELLO, CA, 90640","No_Match",NA,NA,NA,NA
18141,"1012 W CUCHARRAS ST","COLORADO SPRINGS","CO",80904,38.834167807,-104.842624476,141,"1012 W CUCHARRAS ST, COLORADO SPRINGS, CO, 80904","Match","Exact","1012 W CUCHARRAS ST, COLORADO SPRINGS, CO, 80904",105513704,"R"
18142,"1012 W DONINGTON ST","GLENDORA","CA",91741,NA,NA,142,"1012 W DONINGTON ST, GLENDORA, CA, 91741","Tie",NA,NA,NA,NA
18143,"1012 W GEORGE","KIRKSVILLE","MO",63501,40.185066958,-92.592251464,143,"1012 W GEORGE, KIRKSVILLE, MO, 63501","Match","Non_Exact","1012 W GEORGE ST, KIRKSVILLE, MO, 63501",607770836,"L"
18144,"1012 W MAIN ST","WATERTOWN","WI",53098,43.197724189,-88.746769208,144,"1012 W MAIN ST, WATERTOWN, WI, 53098","Match","Exact","1012 W MAIN ST, WATERTOWN, WI, 53098",642893099,"R"
18145,"1012 W OREGON AVE","PHILADELPHIA","PA",19148,39.916028333,-75.165711487,145,"1012 W OREGON AVE, PHILADELPHIA, PA, 19148","Match","Exact","1012 OREGON AVE, PHILADELPHIA, PA, 19148",131412517,"L"
18146,"1012 W WASHINGTON ST","SULLIVAN","IN",47882,39.093741767,-87.4290588439999,146,"1012 W WASHINGTON ST, SULLIVAN, IN, 47882","Match","Exact","1012 W WASHINGTON ST, SULLIVAN, IN, 47882",27074940,"L"
18147,"1012 WALNUT","DECORAH","IA",52101,43.297936109,-91.7980465959999,147,"1012 WALNUT, DECORAH, IA, 52101","Match","Non_Exact","1012 WALNUT ST, DECORAH, IA, 52101",27521366,"R"
18148,"1012 WELLINGTON AVENUE","LIBERTYVILLE","IL",60048,42.2960939060001,-87.971583911,148,"1012 WELLINGTON AVENUE, LIBERTYVILLE, IL, 60048","Match","Exact","1012 WELLINGTON AVE, LIBERTYVILLE, IL, 60048",119733604,"R"
18149,"1012 WEST CHEROKEE STREET","CENTREVILLE","MS",39631,NA,NA,149,"1012 WEST CHEROKEE STREET, CENTREVILLE, MS, 39631","No_Match",NA,NA,NA,NA
18150,"1012 WEST COBBS CREEK PARKWAY","YEADON","PA",19050,39.9300339640001,-75.245281989,150,"1012 WEST COBBS CREEK PARKWAY, YEADON, PA, 19050","Match","Exact","1012 W COBBS CREEK PKWY, YEADON, PA, 19050",134886764,"R"
18151,"1012 WEST PAFFORD ST","FORT WORTH","TX",76110,32.6919998770001,-97.335709272,151,"1012 WEST PAFFORD ST, FORT WORTH, TX, 76110","Match","Exact","1012 W PAFFORD ST, FORT WORTH, TX, 76110",101887784,"R"
18152,"1012 WESTBURY DRIVE","MATTHEWS","NC",28104,35.0597030810001,-80.7093511799999,152,"1012 WESTBURY DRIVE, MATTHEWS, NC, 28104","Match","Non_Exact","1012 WESTBURY RD, MATTHEWS, NC, 28104",615507520,"L"
18153,"1012 WESTCHESTER DR","OKLAHOMA CITY","OK",73114,35.5596068790001,-97.53462403,153,"1012 WESTCHESTER DR, OKLAHOMA CITY, OK, 73114","Match","Exact","1012 WESTCHESTER DR, OKLAHOMA CITY, OK, 73114",100394813,"L"
18154,"1012 WHITE WATER CIRCLE","BELMONT","NC",28012,35.282997579,-81.0488797369999,154,"1012 WHITE WATER CIRCLE, BELMONT, NC, 28012","Match","Exact","1012 WHITE WATER CIR, BELMONT, NC, 28012",642909915,"L"
18155,"1012 WHITEOAK RIDGE ROAD","BLYTHEWOOD","SC",29016,34.1900181340001,-81.011263205,155,"1012 WHITEOAK RIDGE ROAD, BLYTHEWOOD, SC, 29016","Match","Exact","1012 WHITEOAK RIDGE RD, BLYTHEWOOD, SC, 29016",71873501,"R"
18156,"1012 WHITETAIL CROSSING","FESTUS","MO",63028,38.1172147400001,-90.3108313019999,156,"1012 WHITETAIL CROSSING, FESTUS, MO, 63028","Match","Exact","1012 WHITETAIL CROSSING, FESTUS, MO, 63028",62809174,"R"
18157,"1012 WHITETAIL XING","FESTUS","MO",63028,38.1172147400001,-90.3108313019999,157,"1012 WHITETAIL XING, FESTUS, MO, 63028","Match","Exact","1012 WHITETAIL CROSSING, FESTUS, MO, 63028",62809174,"R"
18158,"1012 WHITTON PL","SOUTH LAKE","TX",76092,NA,NA,158,"1012 WHITTON PL, SOUTH LAKE, TX, 76092","No_Match",NA,NA,NA,NA
18159,"1012 WICHITA STREET","HARLINGEN","TX",78550,26.200211573,-97.706527002,159,"1012 WICHITA STREET, HARLINGEN, TX, 78550","Match","Non_Exact","1012 WICHITA AVE, HARLINGEN, TX, 78550",89954699,"R"
18160,"1012 WILCOX STREET","PETERBSURG","VA",23803,37.220246757,-77.417392408,160,"1012 WILCOX STREET, PETERBSURG, VA, 23803","Match","Non_Exact","1012 WILCOX ST, PETERSBURG, VA, 23803",54148418,"L"
18161,"1012 WILKINSON STREET","ORLANDO","FL",32803,28.5800602950001,-81.365932222,161,"1012 WILKINSON STREET, ORLANDO, FL, 32803","Match","Exact","1012 WILKINSON ST, ORLANDO, FL, 32803",94277786,"R"
18162,"1012 WIMBERLY CT","ALLEN","TX",75013,33.1123112930001,-96.708210421,162,"1012 WIMBERLY CT, ALLEN, TX, 75013","Match","Exact","1012 WIMBERLY CT, ALLEN, TX, 75013",123561328,"L"
18163,"1012 WINSTON DRIVE","EULESS","TX",76039,32.8511755920001,-97.077123257,163,"1012 WINSTON DRIVE, EULESS, TX, 76039","Match","Exact","1012 WINSTON DR, EULESS, TX, 76039",102102318,"R"
18164,"1012-3 VARELA ST","KEY WEST","FL",33040,24.5555647460001,-81.7917546039999,164,"1012-3 VARELA ST, KEY WEST, FL, 33040","Match","Exact","1012 VARELA ST, KEY WEST, FL, 33040",639076963,"R"
18165,"1012","CHARLOTTE","NC",28214,NA,NA,165,"1012, CHARLOTTE, NC, 28214","No_Match",NA,NA,NA,NA
18166,"1012","PINE RIDGE","SD",57770,NA,NA,166,"1012, PINE RIDGE, SD, 57770","No_Match",NA,NA,NA,NA
18167,"10120 CHANCERY STATION CIRCLE","RESTON","VA",20190,NA,NA,167,"10120 CHANCERY STATION CIRCLE, RESTON, VA, 20190","No_Match",NA,NA,NA,NA
18168,"10120 COLMAN PATH","INVER GROVE HEIGHTS","MN",55076,NA,NA,168,"10120 COLMAN PATH, INVER GROVE HEIGHTS, MN, 55076","No_Match",NA,NA,NA,NA
18169,"10120 DOGWOOD LANDE","PHILADELPHIA","MS",39350,32.7571573110001,-89.057623215,169,"10120 DOGWOOD LANDE, PHILADELPHIA, MS, 39350","Match","Non_Exact","10120 DOGWOOD LN, PHILADELPHIA, MS, 39350",610547938,"R"
18170,"10120 FLORIDA CIRCLE NORTH","BROOKLYN PARK","MN",55445,45.137974587,-93.360952515,170,"10120 FLORIDA CIRCLE NORTH, BROOKLYN PARK, MN, 55445","Match","Non_Exact","10120 FLORIDA CIR, BROOKLYN PARK, MN, 55445",641220523,"L"
18171,"10120 HAGE DRIVE","CORCORAN","MN",55374,45.1400297380001,-93.616851084,171,"10120 HAGE DRIVE, CORCORAN, MN, 55374","Match","Non_Exact","10120 HAGE DR, ROGERS, MN, 55374",43841557,"L"
18172,"10120 KINROSS AVENUE","SILVER SPRING","MD",20901,39.021868795,-77.0192300149999,172,"10120 KINROSS AVENUE, SILVER SPRING, MD, 20901","Match","Exact","10120 KINROSS AVE, SILVER SPRING, MD, 20901",62064963,"L"
18173,"10120 LAMBEAU CT","ELK GROVE","CA",95757,38.3902392540001,-121.448028615,173,"10120 LAMBEAU CT, ELK GROVE, CA, 95757","Match","Exact","10120 LAMBEAU CT, ELK GROVE, CA, 95757",624537360,"R"
18174,"10120 LASCASSAS PIKE","LASCASSAS","TN",37085,35.926166853,-86.20841898,174,"10120 LASCASSAS PIKE, LASCASSAS, TN, 37085","Match","Exact","10120 LASCASSAS PIKE, LASCASSAS, TN, 37085",59012501,"L"
18175,"10120 LEMON ROAD","ZACHARY","LA",70791,30.7035316070001,-91.072494272,175,"10120 LEMON ROAD, ZACHARY, LA, 70791","Match","Exact","10120 LEMON RD, ZACHARY, LA, 70791",92201758,"L"
18176,"10120 LINDALE AVE","GREENCASTLE","PA",17225,39.797947584,-77.780728094,176,"10120 LINDALE AVE, GREENCASTLE, PA, 17225","Match","Exact","10120 LINDALE AVE, GREENCASTLE, PA, 17225",651763793,"L"
18177,"10120 LONGMIRE RD","CONROE","TX",77304,30.3891679130001,-95.537600477,177,"10120 LONGMIRE RD, CONROE, TX, 77304","Match","Exact","10120 LONGMIRE RD, CONROE, TX, 77304",643899884,"R"
18178,"10120 LYNDALE CIR APT 307","BLOOMINGTON","MN",55420,44.820757841,-93.2893710879999,178,"10120 LYNDALE CIR APT 307, BLOOMINGTON, MN, 55420","Match","Non_Exact","10120 LYNDALE CIR S, BLOOMINGTON, MN, 55420",43660609,"R"
18179,"10120 MEADOW VIEW CIRCLE","SALINAS","CA",93907,36.770662542,-121.648657467,179,"10120 MEADOW VIEW CIRCLE, SALINAS, CA, 93907","Match","Exact","10120 MEADOW VIEW CIR, SALINAS, CA, 93907",196840054,"L"
18180,"10120 NELSON ROAD","PARTLOW","VA",22534,38.040007727,-77.687690737,180,"10120 NELSON ROAD, PARTLOW, VA, 22534","Match","Exact","10120 NELSON RD, PARTLOW, VA, 22534",85021951,"L"
18181,"10120 NW 22ND COURT","PEMBROKE PINES","FL",33026,26.027887245,-80.2813626459999,181,"10120 NW 22ND COURT, PEMBROKE PINES, FL, 33026","Match","Exact","10120 NW 22ND CT, PEMBROKE PINES, FL, 33026",114754220,"R"
18182,"10120 NW 318 HWY","REDDICK","FL",32686,NA,NA,182,"10120 NW 318 HWY, REDDICK, FL, 32686","No_Match",NA,NA,NA,NA
18183,"10120 OLD CONCORD ROAD","CHINA GROVE","NC",28023,35.532793644,-80.525904636,183,"10120 OLD CONCORD ROAD, CHINA GROVE, NC, 28023","Match","Exact","10120 OLD CONCORD RD, CHINA GROVE, NC, 28023",25294600,"L"
18184,"10120 PARKINGTON CT","MANASSA","VA",20109,38.7813157850001,-77.500031722,184,"10120 PARKINGTON CT, MANASSA, VA, 20109","Match","Non_Exact","10120 PARKINGTON CT, MANASSAS, VA, 20109",76516087,"R"
18185,"10120 S LASALLE","CHICAGO","IL",60628,41.710302079,-87.627196484,185,"10120 S LASALLE, CHICAGO, IL, 60628","Match","Non_Exact","10120 S LA SALLE ST, CHICAGO, IL, 60628",111833913,"R"
18186,"10120 S WESTPORT DRIVE","PALOS PARK","IL",60464,41.654748796,-87.867831815,186,"10120 S WESTPORT DRIVE, PALOS PARK, IL, 60464","Match","Exact","10120 WESTPORT DR, PALOS PARK, IL, 60464",111808107,"L"
18187,"10120 SORREL AVE","POTOMAC","MD",20854,39.021800195,-77.201083098,187,"10120 SORREL AVE, POTOMAC, MD, 20854","Match","Exact","10120 SORREL AVE, POTOMAC, MD, 20854",62053809,"L"
18188,"10120 SW 45TH AVE","OCALA","FL",34476,29.0755522430001,-82.196558206,188,"10120 SW 45TH AVE, OCALA, FL, 34476","Match","Exact","10120 SW 45TH AVE, OCALA, FL, 34476",116717921,"L"
18189,"10120 SW 74TH CT","OCALA","FL",34476,29.075757863,-82.2430713109999,189,"10120 SW 74TH CT, OCALA, FL, 34476","Match","Exact","10120 SW 74TH CT, OCALA, FL, 34476",116842947,"R"
18190,"10120 SYCAMORE HOLLOW LANE","GERMANTOWN","MD",20876,39.210046607,-77.211387794,190,"10120 SYCAMORE HOLLOW LANE, GERMANTOWN, MD, 20876","Match","Exact","10120 SYCAMORE HOLLOW LN, GERMANTOWN, MD, 20876",624707522,"L"
18191,"10120 TWO NOTCH RD STE 2-152","COLUMBIA","SC",29223,NA,NA,191,"10120 TWO NOTCH RD STE 2-152, COLUMBIA, SC, 29223","No_Match",NA,NA,NA,NA
18192,"10120 TWO NOTCH RD STE 2-301","COLUMBIA","SC",29223,NA,NA,192,"10120 TWO NOTCH RD STE 2-301, COLUMBIA, SC, 29223","No_Match",NA,NA,NA,NA
18193,"10120 TWO NOTCH RD SUITE 2","COLUMBIA","SC",29223,NA,NA,193,"10120 TWO NOTCH RD SUITE 2, COLUMBIA, SC, 29223","No_Match",NA,NA,NA,NA
18194,"10120 W FLAMINGO RD 4-344","LAS VEGAS","NV",89147,36.115260134,-115.313288723,194,"10120 W FLAMINGO RD 4-344, LAS VEGAS, NV, 89147","Match","Non_Exact","10120 W FLAMINGO RD, LAS VEGAS, NV, 89147",641512086,"R"
18195,"10120 W FLAMINGO RD 4","LAS VEGAS","NV",89147,36.115260134,-115.313288723,195,"10120 W FLAMINGO RD 4, LAS VEGAS, NV, 89147","Match","Non_Exact","10120 W FLAMINGO RD, LAS VEGAS, NV, 89147",641512086,"R"
18196,"10120 W FLAMINGO RD STE 4","LAS VEGAS","NV",89147,36.115260134,-115.313288723,196,"10120 W FLAMINGO RD STE 4, LAS VEGAS, NV, 89147","Match","Non_Exact","10120 W FLAMINGO RD, LAS VEGAS, NV, 89147",641512086,"R"
18197,"10120 W FLAMINGO RD SUITE 4501","LAS VEGAS","NV",89147,36.115260134,-115.313288723,197,"10120 W FLAMINGO RD SUITE 4501, LAS VEGAS, NV, 89147","Match","Non_Exact","10120 W FLAMINGO RD, LAS VEGAS, NV, 89147",641512086,"R"
18198,"10120 W FLAMINGO ROAD  4-344","LAS VEGAS","NV",89147,36.115260134,-115.313288723,198,"10120 W FLAMINGO ROAD  4-344, LAS VEGAS, NV, 89147","Match","Non_Exact","10120 W FLAMINGO RD, LAS VEGAS, NV, 89147",641512086,"R"
18199,"10121 BUFORD AVE APT 7","LENNOX","CA",90304,NA,NA,199,"10121 BUFORD AVE APT 7, LENNOX, CA, 90304","No_Match",NA,NA,NA,NA
18200,"10121 BUFORD AVE APT 7","LENNOX","CA",90732,NA,NA,200,"10121 BUFORD AVE APT 7, LENNOX, CA, 90732","No_Match",NA,NA,NA,NA
18201,"10121 BURNET AVE","MISSION HILLS","CA",91345,34.2540829220001,-118.462989193,201,"10121 BURNET AVE, MISSION HILLS, CA, 91345","Match","Exact","10121 BURNET AVE, MISSION HILLS, CA, 91345",141547325,"L"
18202,"10121 CARLINGTON VALLEY COURT","MANASSAS","VA",20111,38.7353050840001,-77.4224856339999,202,"10121 CARLINGTON VALLEY COURT, MANASSAS, VA, 20111","Match","Exact","10121 CARLINGTON VALLEY CT, MANASSAS, VA, 20111",619937558,"L"
18203,"10121 CHESTER ROAD","CINCINNATI","OH",45215,39.24987809,-84.459622969,203,"10121 CHESTER ROAD, CINCINNATI, OH, 45215","Match","Exact","10121 CHESTER RD, CINCINNATI, OH, 45215",103926565,"L"
18204,"10121 CR 173","IOLA","TX",77861,30.6316542210001,-96.1232110399999,204,"10121 CR 173, IOLA, TX, 77861","Match","Exact","10121 CO RD 173, IOLA, TX, 77861",639752473,"L"
18205,"10121 E HERON VIEW LANE","MEAD","WA",99021,47.7767423760001,-117.266210873,205,"10121 E HERON VIEW LANE, MEAD, WA, 99021","Match","Exact","10121 E HERON VIEW LN, MEAD, WA, 99021",637626368,"R"
18206,"10121 EVELYN AVENUE","CALIFORNIA CITY","CA",93505,35.138638891,-117.948084353,206,"10121 EVELYN AVENUE, CALIFORNIA CITY, CA, 93505","Match","Exact","10121 EVELYN AVE, CALIF CITY, CA, 93505",109016632,"R"
18207,"10121 EVERGREEN WAY PMB 25-466","EVERETT","WA",98204,47.906283875,-122.242662022,207,"10121 EVERGREEN WAY PMB 25-466, EVERETT, WA, 98204","Match","Exact","10121 EVERGREEN WAY, EVERETT, WA, 98204",187757933,"L"
18208,"10121 EVERGREEN WAY STE 25-277","EVERETT","WA",98204,47.906283875,-122.242662022,208,"10121 EVERGREEN WAY STE 25-277, EVERETT, WA, 98204","Match","Exact","10121 EVERGREEN WAY, EVERETT, WA, 98204",187757933,"L"
18209,"10121 FLANNER AVE","GARDEN GROVE","CA",92840,33.8018019960001,-117.956643655,209,"10121 FLANNER AVE, GARDEN GROVE, CA, 92840","Match","Exact","10121 FLANNER AVE, GARDEN GROVE, CA, 92840",144024028,"L"
18210,"10121 GLEN ARBOR STREET","EL PASO","TX",79924,31.9033954860001,-106.428675817,210,"10121 GLEN ARBOR STREET, EL PASO, TX, 79924","Match","Exact","10121 GLEN ARBOR ST, EL PASO, TX, 79924",189400862,"L"
18211,"10121 INTERNATIONAL BLVD","OAKLAND","CA",94603,37.7418681340001,-122.168740559,211,"10121 INTERNATIONAL BLVD, OAKLAND, CA, 94603","Match","Exact","10121 INTERNATIONAL BLVD, OAKLAND, CA, 94603",633925973,"R"
18212,"10121 IVYBRIDGE CIRCLE","LOUISVILLE","KY",40241,38.304438195,-85.566642477,212,"10121 IVYBRIDGE CIRCLE, LOUISVILLE, KY, 40241","Match","Exact","10121 IVYBRIDGE CIR, LOUISVILLE, KY, 40241",96935202,"L"
18213,"10121 KIBLER DR","SAN DIEGO","CA",92126,32.9013582790001,-117.153253509,213,"10121 KIBLER DR, SAN DIEGO, CA, 92126","Match","Exact","10121 KIBLER DR, SAN DIEGO, CA, 92126",195301095,"R"
18214,"10121 KIBLER DRIVE","SAN DIEGO","CA",92126,32.9013582790001,-117.153253509,214,"10121 KIBLER DRIVE, SAN DIEGO, CA, 92126","Match","Exact","10121 KIBLER DR, SAN DIEGO, CA, 92126",195301095,"R"
18215,"10121 LINGO LANE","DALLAS","TX",75228,32.83030911,-96.678440284,215,"10121 LINGO LANE, DALLAS, TX, 75228","Match","Exact","10121 LINGO LN, DALLAS, TX, 75228",102923613,"L"
18216,"10121 MERRIWEATHER DR UNIT C","BAKERSFIELD","CA",93311,35.3101958940001,-119.115002431,216,"10121 MERRIWEATHER DR UNIT C, BAKERSFIELD, CA, 93311","Match","Exact","10121 MERRIWEATHER DR, BAKERSFIELD, CA, 93311",636013058,"R"
18217,"10121 N 149TH STREET","WAVERLY","NE",68462,40.9104196810001,-96.520124639,217,"10121 N 149TH STREET, WAVERLY, NE, 68462","Match","Exact","10121 N 149TH ST, WAVERLY, NE, 68462",28295039,"L"
18218,"10121 NW 58TH COURT","PARK LAND","FL",33076,26.303346388,-80.261444054,218,"10121 NW 58TH COURT, PARK LAND, FL, 33076","Match","Non_Exact","10121 NW 58TH CT, PARKLAND, FL, 33076",114768407,"R"
18219,"10121 ROYAL MINT AVE","LAS VEGAS","NV",89166,36.2935326750001,-115.315871185,219,"10121 ROYAL MINT AVE, LAS VEGAS, NV, 89166","Match","Non_Exact","10121 W ROYAL MINT AVE, LAS VEGAS, NV, 89166",627162587,"R"
18220,"10121 SCHOOL HOUSE RD","GRAND BAY","AL",36541,30.4803266690001,-88.3433365559999,220,"10121 SCHOOL HOUSE RD, GRAND BAY, AL, 36541","Match","Exact","10121 SCHOOL HOUSE RD, GRAND BAY, AL, 36541",61916981,"R"
18221,"10121 SE SUNNYSIDE RD SUITE 300","CLACKAMAS","OR",97015,45.4334425640001,-122.560534638,221,"10121 SE SUNNYSIDE RD SUITE 300, CLACKAMAS, OR, 97015","Match","Non_Exact","10121 SE SUNNYSIDE RD, CLACKAMAS, OR, 97015",157981634,"L"
18222,"10121 SORREL AVENUE","POTOMAC","MD",20854,39.02180236,-77.201069263,222,"10121 SORREL AVENUE, POTOMAC, MD, 20854","Match","Exact","10121 SORREL AVE, POTOMAC, MD, 20854",62053809,"R"
18223,"10121 SW 5TH STREET","PLANTATION","FL",33324,26.1141220710001,-80.283144684,223,"10121 SW 5TH STREET, PLANTATION, FL, 33324","Match","Exact","10121 SW 5TH ST, PLANTATION, FL, 33324",114698419,"L"
18224,"10121 WEST BONNIWELL ROAD","MEQUON","WI",53097,43.2649732,-88.037932676,224,"10121 WEST BONNIWELL ROAD, MEQUON, WI, 53097","Match","Exact","10121 W BONNIWELL RD, MEQUON, WI, 53097",95904433,"L"
18225,"10121 WHISPER POINTE DR","TAMPA","FL",33647,28.134195273,-82.324616974,225,"10121 WHISPER POINTE DR, TAMPA, FL, 33647","Match","Exact","10121 WHISPER POINTE DR, TAMPA, FL, 33647",642587286,"L"
18226,"10121 WINDMILL LAKES BLVD 603","HOUSTON","TX",77075,29.619971053,-95.241767849,226,"10121 WINDMILL LAKES BLVD 603, HOUSTON, TX, 77075","Match","Exact","10121 WINDMILL LAKES BLVD, HOUSTON, TX, 77075",649081419,"R"
18227,"10121 WINDMILL LAKES BLVD 617","HOUSTON","TX",77075,29.619971053,-95.241767849,227,"10121 WINDMILL LAKES BLVD 617, HOUSTON, TX, 77075","Match","Exact","10121 WINDMILL LAKES BLVD, HOUSTON, TX, 77075",649081419,"R"
18228,"10121 WINDMILL LAKES BLVD","HOUSTON","TX",77075,29.619971053,-95.241767849,228,"10121 WINDMILL LAKES BLVD, HOUSTON, TX, 77075","Match","Exact","10121 WINDMILL LAKES BLVD, HOUSTON, TX, 77075",649081419,"R"
18229,"10122 ALLYSON PARK DRIVE","CHARLOTTE","NC",28277,35.033409604,-80.83359755,229,"10122 ALLYSON PARK DRIVE, CHARLOTTE, NC, 28277","Match","Exact","10122 ALLYSON PARK DR, CHARLOTTE, NC, 28277",640628011,"L"
18230,"10122 BIRD RIVER ROAD","MIDDLE RIVER","MD",21220,39.359446029,-76.427565272,230,"10122 BIRD RIVER ROAD, MIDDLE RIVER, MD, 21220","Match","Exact","10122 BIRD RIVER RD, MIDDLE RIVER, MD, 21220",191529487,"L"
18231,"10122 BURGOYNE RD","HOUSTON","TX",77042,29.7417158530001,-95.552020499,231,"10122 BURGOYNE RD, HOUSTON, TX, 77042","Match","Exact","10122 BURGOYNE RD, HOUSTON, TX, 77042",96024015,"R"
18232,"10122 DEEPBROOK DR","RIVERVIEW","FL",33569,27.8515918620001,-82.270600869,232,"10122 DEEPBROOK DR, RIVERVIEW, FL, 33569","Match","Exact","10122 DEEPBROOK DR, RIVERVIEW, FL, 33569",648455971,"L"
18233,"10122 DEEPBROOK DR","RIVERVIEW","GA",33569,NA,NA,233,"10122 DEEPBROOK DR, RIVERVIEW, GA, 33569","No_Match",NA,NA,NA,NA
18234,"10122 EDGEWOOD LN","GARDEN GROVE","CA",92840,33.791824908,-117.956400294,234,"10122 EDGEWOOD LN, GARDEN GROVE, CA, 92840","Match","Exact","10122 EDGEWOOD LN, GARDEN GROVE, CA, 92840",144034881,"R"
18235,"10122 GLEN AUTUMN RD","RALEIGH","NC",27617,35.8993098030001,-78.803349156,235,"10122 GLEN AUTUMN RD, RALEIGH, NC, 27617","Match","Exact","10122 GLEN AUTUMN RD, RALEIGH, NC, 27617",639845863,"R"
18236,"10122 MAPLELAWN","DETROIT","MI",48204,42.3697620680001,-83.1611683959999,236,"10122 MAPLELAWN, DETROIT, MI, 48204","Match","Non_Exact","10122 MAPLELAWN ST, DETROIT, MI, 48204",95442918,"R"
18237,"10122 MIDDLE MOUNT VERNON RD","EVANSVILLE","IN",47620,37.9718552140001,-87.733585316,237,"10122 MIDDLE MOUNT VERNON RD, EVANSVILLE, IN, 47620","Match","Non_Exact","10122 MIDDLE MOUNT VERNON RD, MOUNT VERNON, IN, 47620",39749518,"R"
18238,"10122 ROYAL PALM BLVD","CORAL SPRINGS","FL",33065,26.259126699,-80.260273054,238,"10122 ROYAL PALM BLVD, CORAL SPRINGS, FL, 33065","Match","Exact","10122 ROYAL PALM BLVD, CORAL SPRINGS, FL, 33065",648337960,"R"
18239,"10122 S UNION AVE","CHICAGO","IL",60628,41.7101003490001,-87.640496577,239,"10122 S UNION AVE, CHICAGO, IL, 60628","Match","Exact","10122 S UNION AVE, CHICAGO, IL, 60628",111833004,"R"
18240,"10122 S WOOD","CHICAGO","IL",60643,41.7095056530001,-87.667198178,240,"10122 S WOOD, CHICAGO, IL, 60643","Match","Non_Exact","10122 S WOOD ST, CHICAGO, IL, 60643",604993843,"R"
18241,"10122 SPRING GATE DRIVE","LOUISVILLE","KY",40241,38.3114446870001,-85.5613773439999,241,"10122 SPRING GATE DRIVE, LOUISVILLE, KY, 40241","Match","Exact","10122 SPRING GATE DR, LOUISVILLE, KY, 40241",96935541,"R"
18242,"10122 SUNDROP PASS","SAN ANTONIO","TX",78245,29.399841388,-98.691584274,242,"10122 SUNDROP PASS, SAN ANTONIO, TX, 78245","Match","Exact","10122 SUNDROP PASS, SAN ANTONIO, TX, 78245",101703952,"L"
18243,"10122 TIMMONS ROAD","THONOTASASSA","FL",33592,28.044079003,-82.3190459579999,243,"10122 TIMMONS ROAD, THONOTASASSA, FL, 33592","Match","Non_Exact","10122 TIMMONS RD, THONOTOSASSA, FL, 33592",104540372,"L"
18244,"10122 WATERBROOK LANE","CHARLOTTE","NC",28277,35.071249408,-80.77533742,244,"10122 WATERBROOK LANE, CHARLOTTE, NC, 28277","Match","Exact","10122 WATERBROOK LN, CHARLOTTE, NC, 28277",70518451,"L"
18245,"10122 WAYCROSS HWY","SCREVEN","GA",31560,31.5097938370001,-81.9970047859999,245,"10122 WAYCROSS HWY, SCREVEN, GA, 31560","Match","Exact","10122 WAYCROSS HWY, SCREVEN, GA, 31560",4835456,"L"
18246,"10123 40TH AVENUE SOUTHEAST","EVERETT","WA",98208,47.9051325730001,-122.175264828,246,"10123 40TH AVENUE SOUTHEAST, EVERETT, WA, 98208","Match","Exact","10123 40TH AVE SE, EVERETT, WA, 98208",644877630,"R"
18247,"10123 95TH ST NE","LANGDON","ND",58249,48.7902612500001,-98.470242433,247,"10123 95TH ST NE, LANGDON, ND, 58249","Match","Exact","10123 95TH ST NE, LANGDON, ND, 58249",181375954,"L"
18248,"10123 ATKINS RIDGE DR","CHARLOTTE","NC",28213,35.299369988,-80.709367808,248,"10123 ATKINS RIDGE DR, CHARLOTTE, NC, 28213","Match","Exact","10123 ATKINS RIDGE DR, CHARLOTTE, NC, 28213",649736376,"L"
18249,"10123 BON VISTA COURT","SAN JOSE","CA",95127,37.3779103420001,-121.797643396,249,"10123 BON VISTA COURT, SAN JOSE, CA, 95127","Match","Exact","10123 BON VISTA CT, SAN JOSE, CA, 95127",122965447,"L"
18250,"10123 CAMPUS WAY SOUTH","LARGO","MD",20774,38.888585118,-76.832476444,250,"10123 CAMPUS WAY SOUTH, LARGO, MD, 20774","Match","Exact","10123 CAMPUS WAY S, LARGO, MD, 20774",76382299,"R"
18251,"10123 E SLIGH AVE","TAMPA","FL",33610,28.010568415,-82.3205940719999,251,"10123 E SLIGH AVE, TAMPA, FL, 33610","Match","Exact","10123 E SLIGH AVE, TAMPA, FL, 33610",104540471,"R"
18252,"10123 FARRIS AVE","SHERWOOD","AR",72120,34.846703813,-92.224733882,252,"10123 FARRIS AVE, SHERWOOD, AR, 72120","Match","Exact","10123 FARRIS AVE, SHERWOOD, AR, 72120",83497582,"L"
18253,"10123 HAREWOOD DRIVE N","NOBLESVILLE","IN",46060,40.0333329860001,-85.988519332,253,"10123 HAREWOOD DRIVE N, NOBLESVILLE, IN, 46060","Match","Exact","10123 HAREWOOD DR N, NOBLESVILLE, IN, 46060",649118349,"L"
18254,"10123 KAITLIN AVE","HANOVER","MN",55341,45.1607300150001,-93.684063126,254,"10123 KAITLIN AVE, HANOVER, MN, 55341","Match","Exact","10123 KAITLIN AVE, HANOVER, MN, 55341",44022844,"R"
18255,"10123 N WHIMBREL CIR","CONROE","TN",77385,NA,NA,255,"10123 N WHIMBREL CIR, CONROE, TN, 77385","No_Match",NA,NA,NA,NA
18256,"10123 N WHIMBREL CIR","CONROE","TX",77385,30.2183850260001,-95.420829928,256,"10123 N WHIMBREL CIR, CONROE, TX, 77385","Match","Non_Exact","10123 E WHIMBREL CIR, CONROE, TX, 77385",651174439,"L"
18257,"10123 RIMFIRE ROAD","LOUISVILLE","KY",40242,38.159948527,-85.582548962,257,"10123 RIMFIRE ROAD, LOUISVILLE, KY, 40242","Match","Non_Exact","10123 RIMFIRE RD, LOUISVILLE, KY, 40291",96887479,"R"
18258,"10123 S PEONY WAY","SANDY","UT",84094,40.5670369160001,-111.87136274,258,"10123 S PEONY WAY, SANDY, UT, 84094","Match","Exact","10123 S PEONY WAY, SANDY, UT, 84094",176089400,"L"
18259,"10123 SANDY HOLLOW LN APT 802","BONITA SPRINGS","FL",34135,26.3572217780001,-81.784716082,259,"10123 SANDY HOLLOW LN APT 802, BONITA SPRINGS, FL, 34135","Match","Exact","10123 SANDY HOLLOW LN, BONITA SPGS, FL, 34135",118003531,"L"
18260,"10123 TRIO","SAINT LOUIS","MO",63136,NA,NA,260,"10123 TRIO, SAINT LOUIS, MO, 63136","No_Match",NA,NA,NA,NA
18261,"10123 W 126TH ST","OVERLAND PARK","KS",66213,38.9006464220001,-94.703999018,261,"10123 W 126TH ST, OVERLAND PARK, KS, 66213","Match","Exact","10123 W 126TH ST, OVERLAND PARK, KS, 66213",91292193,"R"
18262,"10123 W MCNICHOLS RD","DETROIT","MI",48221,42.4168886910001,-83.161689472,262,"10123 W MCNICHOLS RD, DETROIT, MI, 48221","Match","Exact","10123 W MCNICHOLS RD, DETROIT, MI, 48221",95425768,"L"
18263,"10123 WEST PALM LAKE DR","HOUSTON","TX",77034,29.620022062,-95.208419732,263,"10123 WEST PALM LAKE DR, HOUSTON, TX, 77034","Match","Exact","10123 W PALM LAKE DR, HOUSTON, TX, 77034",636968222,"L"
18264,"10124  SOUTH BROADWAY AVE SUITE200B","LOS ANGELES","CA",90303,NA,NA,264,"10124  SOUTH BROADWAY AVE SUITE200B, LOS ANGELES, CA, 90303","No_Match",NA,NA,NA,NA
18265,"10124 ARBORWOOD DR","CINCINNATI","OH",45251,39.253461056,-84.587731938,265,"10124 ARBORWOOD DR, CINCINNATI, OH, 45251","Match","Exact","10124 ARBORWOOD DR, CINCINNATI, OH, 45251",103955894,"R"
18266,"10124 BLUEPOINT JUNIPER DR","HOUSTON","TX",77075,29.6192367260001,-95.2472931139999,266,"10124 BLUEPOINT JUNIPER DR, HOUSTON, TX, 77075","Match","Non_Exact","10124 BLUE POINT JUNIPER DR, HOUSTON, TX, 77075",649212582,"R"
18267,"10124 CHAMPA DR","DALLAS","TX",75218,32.8572904440001,-96.7092593249999,267,"10124 CHAMPA DR, DALLAS, TX, 75218","Match","Exact","10124 CHAMPA DR, DALLAS, TX, 75218",102922009,"R"
18268,"10124 HUTTON RD","KANSAS CITY","KS",66109,39.1866523080001,-94.8142787739999,268,"10124 HUTTON RD, KANSAS CITY, KS, 66109","Match","Exact","10124 HUTTON RD, KANSAS CITY, KS, 66109",619587244,"R"
18269,"10124 ROYAL MINT AVE","LAS VEGAS","NV",89166,36.293545706,-115.315708766,269,"10124 ROYAL MINT AVE, LAS VEGAS, NV, 89166","Match","Non_Exact","10124 W ROYAL MINT AVE, LAS VEGAS, NV, 89166",627162587,"L"
18270,"10124 SANTA FE LANE","MINT HILL","NC",28277,35.182315385,-80.673034054,270,"10124 SANTA FE LANE, MINT HILL, NC, 28277","Match","Non_Exact","10124 SANTA FE LN, MINT HILL, NC, 28227",70496328,"R"
18271,"10124 SCENIC VIEW DR","OOLTEWAH","TN",37363,35.026490129,-85.058790984,271,"10124 SCENIC VIEW DR, OOLTEWAH, TN, 37363","Match","Exact","10124 SCENIC VIEW DR, OOLTEWAH, TN, 37363",59342962,"R"
18272,"10124 SOUTH BROADWAY AVE SUITE 200B","LOS ANGELES","CA",90303,NA,NA,272,"10124 SOUTH BROADWAY AVE SUITE 200B, LOS ANGELES, CA, 90303","No_Match",NA,NA,NA,NA
18273,"10124 THOMPSON AVE","YUKON","OK",73099,35.44532758,-97.697111919,273,"10124 THOMPSON AVE, YUKON, OK, 73099","Match","Exact","10124 THOMPSON AVE, YUKON, OK, 73099",92529128,"L"
18274,"10124 WALKERS FERRY ROAD","CHARLOTTE","NC",28278,35.2168547000001,-80.9845657339999,274,"10124 WALKERS FERRY ROAD, CHARLOTTE, NC, 28278","Match","Exact","10124 WALKERS FERRY RD, CHARLOTTE, NC, 28278",637573302,"R"
18275,"10124 WENDOVER DRIVE","VIENNA","VA",22181,38.9204753830001,-77.295693592,275,"10124 WENDOVER DRIVE, VIENNA, VA, 22181","Match","Exact","10124 WENDOVER DR, VIENNA, VA, 22181",76014051,"L"
18276,"10125 CARLINGTON VALLEY COURT","MANASSAS","VA",20111,38.7352894540001,-77.422447161,276,"10125 CARLINGTON VALLEY COURT, MANASSAS, VA, 20111","Match","Exact","10125 CARLINGTON VALLEY CT, MANASSAS, VA, 20111",619937558,"L"
18277,"10125 COLESVILLE RD APT 105","SILVER SPRING","MD",20901,39.02062807,-77.012368551,277,"10125 COLESVILLE RD APT 105, SILVER SPRING, MD, 20901","Match","Exact","10125 COLESVILLE RD, SILVER SPRING, MD, 20901",62065156,"R"
18278,"10125 COUNTY RD 2020","ROLLA","MO",65401,37.9792197190001,-91.742809564,278,"10125 COUNTY RD 2020, ROLLA, MO, 65401","Match","Exact","10125 CO RD 2020, ROLLA, MO, 65401",45077259,"R"
18279,"10125 EBERT RD","ROGERS","MN",55374,45.137387555,-93.574084683,279,"10125 EBERT RD, ROGERS, MN, 55374","Match","Exact","10125 EBERT RD, ROGERS, MN, 55374",43662475,"L"
18280,"10125 FIDELITY AVE","CLEVELAND","OH",44111,41.461245611,-81.753672336,280,"10125 FIDELITY AVE, CLEVELAND, OH, 44111","Match","Exact","10125 FIDELITY AVE, CLEVELAND, OH, 44111",61104595,"L"
18281,"10125 FOX HUNTERS RD","BENTON","IL",62812,38.0105164650001,-89.067553803,281,"10125 FOX HUNTERS RD, BENTON, IL, 62812","Match","Exact","10125 FOX HUNTERS RD, BENTON, IL, 62812",92945202,"L"
18282,"10125 IDLEWILD LN","HIGHLAND","IN",46322,41.529277393,-87.476975806,282,"10125 IDLEWILD LN, HIGHLAND, IN, 46322","Match","Exact","10125 IDLEWILD LN, HIGHLAND, IN, 46322",98448127,"R"
18283,"10125 IRWIN ROAD","BLOOMINGTON","MN",55437,44.820662364,-93.3339137419999,283,"10125 IRWIN ROAD, BLOOMINGTON, MN, 55437","Match","Exact","10125 IRWIN RD, BLOOMINGTON, MN, 55437",43595125,"L"
18284,"10125 JEFFERSON HIGHWAY","RIVER RIDGE","LA",70123,29.962696377,-90.2222009989999,284,"10125 JEFFERSON HIGHWAY, RIVER RIDGE, LA, 70123","Match","Exact","10125 JEFFERSON HWY, RIVER RIDGE, LA, 70123",93496388,"R"
18285,"10125 JUNCTION DR APT 237","ANNAPOLIS JUNCTION","MD",20701,39.124411186,-76.7946698279999,285,"10125 JUNCTION DR APT 237, ANNAPOLIS JUNCTION, MD, 20701","Match","Exact","10125 JUNCTION DR, ANNAPOLIS JCT, MD, 20701",158959917,"R"
18286,"10125 JUNCTION DR UNIT 318","ANNAPOLIS JUNCTION","MD",20701,39.124411186,-76.7946698279999,286,"10125 JUNCTION DR UNIT 318, ANNAPOLIS JUNCTION, MD, 20701","Match","Exact","10125 JUNCTION DR, ANNAPOLIS JCT, MD, 20701",158959917,"R"
18287,"10125 KING SHIRE WAY","TAMPA","FL",33647,28.1459309850001,-82.325103207,287,"10125 KING SHIRE WAY, TAMPA, FL, 33647","Match","Non_Exact","10125 KINGSHYRE WAY, TAMPA, FL, 33647",104584892,"R"
18288,"10125 LAKEWOOD DRIVE","ZIONSVILLE","IN",46077,39.977045886,-86.276596958,288,"10125 LAKEWOOD DRIVE, ZIONSVILLE, IN, 46077","Match","Exact","10125 LAKEWOOD DR, ZIONSVILLE, IN, 46077",29256837,"R"
18289,"10125 LAND O LAKES BLVD","LAND O LAKES","FL",34638,28.303080714,-82.497508801,289,"10125 LAND O LAKES BLVD, LAND O LAKES, FL, 34638","Match","Exact","10125 LAND O LAKES BLVD, LAND O LAKES, FL, 34638",86383446,"L"
18290,"10125 LUCENTE WAY","RENO","NV",89521,39.4338234190001,-119.736150565,290,"10125 LUCENTE WAY, RENO, NV, 89521","Match","Exact","10125 LUCENTE WAY, RENO, NV, 89521",636346720,"L"
18291,"10125 OAK CREEK LANE","KNOXVILLE","TN",37932,35.9470426600001,-84.132968252,291,"10125 OAK CREEK LANE, KNOXVILLE, TN, 37932","Match","Exact","10125 OAK CREEK LN, KNOXVILLE, TN, 37932",42609668,"R"
18292,"10125 OAKLEY POINTE DRIVE","HENRICO","VA",23233,37.631025573,-77.571904344,292,"10125 OAKLEY POINTE DRIVE, HENRICO, VA, 23233","Match","Exact","10125 OAKLEY POINTE DR, HENRICO, VA, 23233",106667620,"L"
18293,"10125 PALMS BLVD APT 305","LOS ANGELES","CA",90034,34.0281509160001,-118.405282711,293,"10125 PALMS BLVD APT 305, LOS ANGELES, CA, 90034","Match","Exact","10125 PALMS BLVD, LOS ANGELES, CA, 90034",141573706,"R"
18294,"10125 S STATE STREET","CHICAGO","IL",60628,41.7100292590001,-87.623569072,294,"10125 S STATE STREET, CHICAGO, IL, 60628","Match","Exact","10125 S STATE ST, CHICAGO, IL, 60628",111773300,"L"
18295,"10125 SE 200TH ST","KENT","WA",98031,47.4231244600001,-122.205482427,295,"10125 SE 200TH ST, KENT, WA, 98031","Match","Exact","10125 SE 200TH ST, KENT, WA, 98031",628078876,"R"
18296,"10125 SW 16TH STREET  APT 103","PEMBROKE PINES","FL",33025,25.995033563,-80.282856914,296,"10125 SW 16TH STREET  APT 103, PEMBROKE PINES, FL, 33025","Match","Non_Exact","10125 SW 16TH ST, PEMBROKE PINES, FL, 33025",114782996,"R"
18297,"10125 UNIVERSITY PARK LANE","CHARLOTTE","NC",28213,35.307195753,-80.712973891,297,"10125 UNIVERSITY PARK LANE, CHARLOTTE, NC, 28213","Match","Exact","10125 UNIVERSITY PARK LN, CHARLOTTE, NC, 28213",70542945,"R"
18298,"10125 VERREE RD STE 202","PHILADELPHIA","PA",19116,40.106296033,-75.0305204319999,298,"10125 VERREE RD STE 202, PHILADELPHIA, PA, 19116","Match","Exact","10125 VERREE RD, PHILADELPHIA, PA, 19116",131430973,"R"
18299,"10125 WEST COLONIAL DR SUITE 216","OCOEE","FL",34761,28.551796127,-81.528331742,299,"10125 WEST COLONIAL DR SUITE 216, OCOEE, FL, 34761","Match","Exact","10125 W COLONIAL DR, OCOEE, FL, 34761",647530838,"L"
18300,"10126 BISHOP LAKE RD W","JACKSONVILLE","FL",32256,30.1804033830001,-81.536243843,300,"10126 BISHOP LAKE RD W, JACKSONVILLE, FL, 32256","Match","Exact","10126 BISHOP LAKE RD W, JACKSONVILLE, FL, 32256",83951639,"R"
18301,"10126 BROOKS SCHOOL RD","FISHERS","IN",46037,39.9455909850001,-85.943650847,301,"10126 BROOKS SCHOOL RD, FISHERS, IN, 46037","Match","Exact","10126 BROOKS SCHOOL RD, FISHERS, IN, 46037",29306654,"R"
18302,"10126 CENTURY DR","ELLICOTT CITY","MD",21042,39.2522856950001,-76.865395554,302,"10126 CENTURY DR, ELLICOTT CITY, MD, 21042","Match","Exact","10126 CENTURY DR, ELLICOTT CITY, MD, 21042",158932114,"R"
18303,"10126 EAST 12000 N","GRANT PARK","IL",60940,NA,NA,303,"10126 EAST 12000 N, GRANT PARK, IL, 60940","No_Match",NA,NA,NA,NA
18304,"10126 ELGIN","HUNTINGTON WOODS","MI",48070,42.483326403,-83.164336452,304,"10126 ELGIN, HUNTINGTON WOODS, MI, 48070","Match","Non_Exact","10126 ELGIN AVE, HUNTINGTON WOODS, MI, 48070",69741693,"R"
18305,"10126 GRASTY GOLD MINE RD","RHOADESVILLE","VA",22542,38.2647523030001,-77.870153789,305,"10126 GRASTY GOLD MINE RD, RHOADESVILLE, VA, 22542","Match","Exact","10126 GRASTY GOLD MINE RD, RHOADESVILLE, VA, 22542",626642841,"L"
18306,"10126 HUTTON PARK DR","KATY","TX",77494,29.709422234,-95.837749526,306,"10126 HUTTON PARK DR, KATY, TX, 77494","Match","Exact","10126 HUTTON PARK DR, KATY, TX, 77494",641060381,"L"
18307,"10126 N ANDREW ST","SPOKANE","WA",99218,47.7502687960001,-117.402281722,307,"10126 N ANDREW ST, SPOKANE, WA, 99218","Match","Exact","10126 N ANDREW ST, SPOKANE, WA, 99218",189869305,"R"
18308,"10126 NW ASH CT","PORTLAND","OR",97231,45.5969125020001,-122.830910939,308,"10126 NW ASH CT, PORTLAND, OR, 97231","Match","Exact","10126 NW ASH CT, PORTLAND, OR, 97231",624959375,"R"
18309,"10126 OUTER DRIVE WEST","DETROIT","MI",48223,NA,NA,309,"10126 OUTER DRIVE WEST, DETROIT, MI, 48223","No_Match",NA,NA,NA,NA
18310,"10126 PAXTON RUN RD","CHARLOTTE","NC",28277,35.0179245780001,-80.8309189999999,310,"10126 PAXTON RUN RD, CHARLOTTE, NC, 28277","Match","Exact","10126 PAXTON RUN RD, CHARLOTTE, NC, 28277",630162960,"R"
18311,"10126 SE 304TH PL","AUBURN","WA",98092,47.3295377860001,-122.206486775,311,"10126 SE 304TH PL, AUBURN, WA, 98092","Match","Exact","10126 SE 304TH PL, AUBURN, WA, 98092",239776361,"L"
18312,"10126 SW 104TH ST","VASHON","WA",98070,NA,NA,312,"10126 SW 104TH ST, VASHON, WA, 98070","No_Match",NA,NA,NA,NA
18313,"10126 WOODSBORO RD","WOODSBORO","MD",21798,39.512991266,-77.2827322909999,313,"10126 WOODSBORO RD, WOODSBORO, MD, 21798","Match","Exact","10126 WOODSBORO RD, WOODSBORO, MD, 21798",638668279,"R"
18314,"10127 ARDOON DR","BAKER","LA",70714,30.539568651,-91.090649479,314,"10127 ARDOON DR, BAKER, LA, 70714","Match","Exact","10127 ARDOON DR, BAKER, LA, 70714",92186781,"R"
18315,"10127 BOYNTON PLACE CIRCLE","BOYNTON BEACH","FL",33437,26.5232762850001,-80.131972576,315,"10127 BOYNTON PLACE CIRCLE, BOYNTON BEACH, FL, 33437","Match","Exact","10127 BOYNTON PLACE CIR, BOYNTON BEACH, FL, 33437",115555788,"R"
18316,"10127 DEERCLIF DR","TAMPA","FL",33647,28.128657316,-82.325394162,316,"10127 DEERCLIF DR, TAMPA, FL, 33647","Match","Non_Exact","10127 DEERCLIFF DR, TAMPA, FL, 33647",104627961,"R"
18317,"10127 HALSEY","LENEXA","KS",66215,38.944542961,-94.725367945,317,"10127 HALSEY, LENEXA, KS, 66215","Match","Non_Exact","10127 HALSEY ST, LENEXA, KS, 66215",91271700,"R"
18318,"10127 LEGOLAS LANE","CHARLOTTE","NC",28269,35.386249165,-80.748374715,318,"10127 LEGOLAS LANE, CHARLOTTE, NC, 28269","Match","Exact","10127 LEGOLAS LN, CHARLOTTE, NC, 28269",619595574,"L"
18319,"10127 LUMANE LANE","TWINSBURG","OH",44087,41.345564134,-81.43091949,319,"10127 LUMANE LANE, TWINSBURG, OH, 44087","Match","Non_Exact","10127 LUMAN LN, TWINSBURG, OH, 44087",61370865,"L"
18320,"10127 SHADYGLEN","SAN ANTONIO","TX",78240,29.5316047920001,-98.61692091,320,"10127 SHADYGLEN, SAN ANTONIO, TX, 78240","Match","Exact","10127 SHADYGLEN, SAN ANTONIO, TX, 78240",101555156,"L"
18321,"10127TH AVE","SEATTLE","WA",98122,NA,NA,321,"10127TH AVE, SEATTLE, WA, 98122","No_Match",NA,NA,NA,NA
18322,"10128 132 STREET","SOUTH RICHMOND HILL","NY",11419,NA,NA,322,"10128 132 STREET, SOUTH RICHMOND HILL, NY, 11419","No_Match",NA,NA,NA,NA
18323,"10128 CAMPBELL LN E","EATONVILLE","WA",98328,46.880559781,-122.299162272,323,"10128 CAMPBELL LN E, EATONVILLE, WA, 98328","Match","Exact","10128 CAMPBELL LN E, EATONVILLE, WA, 98328",184760802,"R"
18324,"10128 E 2300 ST","KEWANEE","IL",61443,NA,NA,324,"10128 E 2300 ST, KEWANEE, IL, 61443","No_Match",NA,NA,NA,NA
18325,"10128 EAST AVENUE S","LITTLE ROCK","CA",93543,34.5579521490001,-117.948846184,325,"10128 EAST AVENUE S, LITTLE ROCK, CA, 93543","Match","Non_Exact","10128 E AVE S, LITTLEROCK, CA, 93543",141704978,"L"
18326,"10128 HIDDEN OAKS LANE N","CHAMPLIN","MN",55316,45.155634025,-93.409040423,326,"10128 HIDDEN OAKS LANE N, CHAMPLIN, MN, 55316","Match","Exact","10128 HIDDEN OAKS LN N, CHAMPLIN, MN, 55316",43853167,"R"
18327,"10128 HIGHLAND CREEK CIRCLE","INDIAN LAND","SC",29707,34.9558373260001,-80.824481621,327,"10128 HIGHLAND CREEK CIRCLE, INDIAN LAND, SC, 29707","Match","Exact","10128 HIGHLAND CREEK CIR, INDIAN LAND, SC, 29707",646661957,"R"
18328,"10128 KAUFFMAN AVE","SOUTH GATE","CA",90280,33.9407705780001,-118.19092361,328,"10128 KAUFFMAN AVE, SOUTH GATE, CA, 90280","Match","Exact","10128 KAUFFMAN AVE, SOUTH GATE, CA, 90280",142765040,"L"
18329,"10128 LINDESMITH AVE","WHITTIER","CA",90603,33.9449178340001,-117.981824479,329,"10128 LINDESMITH AVE, WHITTIER, CA, 90603","Match","Exact","10128 LINDESMITH AVE, WHITTIER, CA, 90603",142799783,"L"
18330,"10128 NE 135 LANE","KIRKLAND","WA",98034,47.7215952020001,-122.204837115,330,"10128 NE 135 LANE, KIRKLAND, WA, 98034","Match","Exact","10128 NE 135TH LN, KIRKLAND, WA, 98034",186924085,"L"
18331,"10128 OCICAT AVE","LAS VEGAS","NV",89166,36.3018921410001,-115.31624096,331,"10128 OCICAT AVE, LAS VEGAS, NV, 89166","Match","Non_Exact","10128 W OCICAT AVE, LAS VEGAS, NV, 89166",627162046,"L"
18332,"10128 RIFLE ST","MONROE","IA",50170,41.5588685750001,-93.050044497,332,"10128 RIFLE ST, MONROE, IA, 50170","Match","Exact","10128 RIFLE ST, MONROE, IA, 50170",89433501,"R"
18333,"10128 S 186TH AVE","GOODYEAR","TX",85338,NA,NA,333,"10128 S 186TH AVE, GOODYEAR, TX, 85338","No_Match",NA,NA,NA,NA
18334,"10128 S 186TH LANE","GOODYEAR","TX",85338,NA,NA,334,"10128 S 186TH LANE, GOODYEAR, TX, 85338","No_Match",NA,NA,NA,NA
18335,"10128 S EMMA CREEK RD","SEDGWICK","KS",67135,37.9237567320001,-97.445488343,335,"10128 S EMMA CREEK RD, SEDGWICK, KS, 67135","Match","Exact","10128 S EMMA CREEK RD, SEDGWICK, KS, 67135",648764001,"R"
18336,"10128 S YALE AVE","CHICAGO","IL",60628,41.710146772,-87.629593552,336,"10128 S YALE AVE, CHICAGO, IL, 60628","Match","Exact","10128 S YALE AVE, CHICAGO, IL, 60628",111833135,"R"
18337,"10128 SOUTH HUDSON AVENUE","TULSA","OK",74137,36.0163647360001,-95.913755021,337,"10128 SOUTH HUDSON AVENUE, TULSA, OK, 74137","Match","Exact","10128 S HUDSON AVE, TULSA, OK, 74137",166484970,"R"
18338,"10129 ALTABRISA WAY","MORENO VALLEY","CA",92557,33.9736005780001,-117.271952777,338,"10129 ALTABRISA WAY, MORENO VALLEY, CA, 92557","Match","Exact","10129 ALTABRISA WAY, MORENO VALLEY, CA, 92557",194820245,"R"
18339,"10129 BEAR RUN","DOYLESTOWN","OH",44230,40.9981343690001,-81.692238021,339,"10129 BEAR RUN, DOYLESTOWN, OH, 44230","Match","Exact","10129 BEAR RUN, DOYLESTOWN, OH, 44230",58692892,"R"
18340,"10129 BRIMFIELD DR","AUSTIN","TX",78726,30.4322766610001,-97.817740849,340,"10129 BRIMFIELD DR, AUSTIN, TX, 78726","Match","Exact","10129 BRIMFIELD DR, AUSTIN, TX, 78726",64027778,"L"
18341,"10129 CHEZELLE","EL PASO","TX",79925,31.7811351500001,-106.348498075,341,"10129 CHEZELLE, EL PASO, TX, 79925","Match","Non_Exact","10129 CHEZELLE DR, EL PASO, TX, 79925",189347205,"L"
18342,"10129 HEFNER VILLAGE TERRACE","OKC","OK",73162,35.572558568,-97.618158208,342,"10129 HEFNER VILLAGE TERRACE, OKC, OK, 73162","Match","Non_Exact","10129 HEFNER VILLAGE TER, OKLAHOMA CITY, OK, 73162",639082987,"L"
18343,"10129 HIGH EAGLE TRL","FORT WORTH","TX",76108,32.7662820690001,-97.496727027,343,"10129 HIGH EAGLE TRL, FORT WORTH, TX, 76108","Match","Exact","10129 HIGH EAGLE TRL, FORT WORTH, TX, 76108",631028976,"L"
18344,"10129 HWY 41","DILLON","MT",59725,45.3374092860001,-112.515083064,344,"10129 HWY 41, DILLON, MT, 59725","Match","Non_Exact","10129 STATE HWY 41, DILLON, MT, 59725",153004433,"L"
18345,"10129 N VOORHEES","EDWARDS","IL",61528,40.811522697,-89.747621684,345,"10129 N VOORHEES, EDWARDS, IL, 61528","Match","Non_Exact","10129 N VOORHEES RD, EDWARDS, IL, 61528",652588401,"L"
18346,"10129 PARK STREAM DRIVE","INDIANAPOLIS","IN",46229,39.7881088870001,-85.986501329,346,"10129 PARK STREAM DRIVE, INDIANAPOLIS, IN, 46229","Match","Exact","10129 PARK STREAM DR, INDIANAPOLIS, IN, 46229",108021422,"R"
18347,"10129 PROMONTORY DRIVE","FRISCO","TX",75035,33.124319257,-96.791996,347,"10129 PROMONTORY DRIVE, FRISCO, TX, 75035","Match","Exact","10129 PROMONTORY DR, FRISCO, TX, 75035",638659943,"R"
18348,"10129 RIDGEWAY DRIVE","CUPERTINO","CA",95014,37.3208651080001,-122.076591902,348,"10129 RIDGEWAY DRIVE, CUPERTINO, CA, 95014","Match","Exact","10129 RIDGEWAY DR, CUPERTINO, CA, 95014",122936152,"R"
18349,"10129 S WESTERN AVE","CHICAGO","IL",60643,41.709432855,-87.681703106,349,"10129 S WESTERN AVE, CHICAGO, IL, 60643","Match","Exact","10129 S WESTERN AVE, CHICAGO, IL, 60643",111822149,"L"
18350,"10129 TWO NOTCH RD SUITE 2","COLUMBIA","SC",29223,NA,NA,350,"10129 TWO NOTCH RD SUITE 2, COLUMBIA, SC, 29223","No_Match",NA,NA,NA,NA
18351,"10129 UNIVERSITY PARK LANE","CHARLOTTE","NC",28213,35.3071331560001,-80.71292038,351,"10129 UNIVERSITY PARK LANE, CHARLOTTE, NC, 28213","Match","Exact","10129 UNIVERSITY PARK LN, CHARLOTTE, NC, 28213",70542945,"R"
18352,"1012A DON DIEGO AVENUE","SANT FE","NM",87505,35.6745677500001,-105.948461983,352,"1012A DON DIEGO AVENUE, SANT FE, NM, 87505","Match","Non_Exact","1012 DON DIEGO AVE, SANTA FE, NM, 87505",169378644,"R"
18353,"1013  NATALIE CT","ALLEN","TX",75013,33.106112599,-96.685700491,353,"1013  NATALIE CT, ALLEN, TX, 75013","Match","Exact","1013 NATALIE CT, ALLEN, TX, 75013",640725586,"R"
18354,"1013 1/2 SUCCESS AVE","LAKELAND","FL",33803,28.03063366,-81.9530760649999,354,"1013 1/2 SUCCESS AVE, LAKELAND, FL, 33803","Match","Exact","1013 SUCCESS AVE, LAKELAND, FL, 33803",104811150,"R"
18355,"1013 10TH STREET","CORNING","IA",50841,40.991922625,-94.742720353,355,"1013 10TH STREET, CORNING, IA, 50841","Match","Exact","1013 10TH ST, CORNING, IA, 50841",61701719,"L"
18356,"1013 13TH AVENUE SOUTH","ST. CLOUD","MN",NA,45.5491435850001,-94.165976112,356,"1013 13TH AVENUE SOUTH, ST. CLOUD, MN, ","Match","Exact","1013 13TH AVE S, SAINT CLOUD, MN, 56301",107415367,"R"
18357,"1013 14TH AVENUE SW","DECATUR","AL",35601,34.5915667850001,-87.006066867,357,"1013 14TH AVENUE SW, DECATUR, AL, 35601","Match","Exact","1013 14TH AVE SW, DECATUR, AL, 35601",97139991,"R"
18358,"1013 15TH AVE SE","SAINT CLOUD","MN",56304,45.555252173,-94.131771827,358,"1013 15TH AVE SE, SAINT CLOUD, MN, 56304","Match","Exact","1013 15TH AVE SE, SAINT CLOUD, MN, 56304",97757954,"R"
18359,"1013 15TH PLACE 357","PLANO","TX",75074,33.0202757320001,-96.700556583,359,"1013 15TH PLACE 357, PLANO, TX, 75074","Match","Exact","1013 15TH PL, PLANO, TX, 75074",210523373,"L"
18360,"1013 17TH STREET","KEY WEST","FL",33040,24.569910055,-81.759383376,360,"1013 17TH STREET, KEY WEST, FL, 33040","Match","Exact","1013 17TH ST, KEY WEST, FL, 33040",116475688,"R"
18361,"1013 17TH TERRACE","KEY WEST","FL",33040,24.5681487210001,-81.758523204,361,"1013 17TH TERRACE, KEY WEST, FL, 33040","Match","Exact","1013 17TH TER, KEY WEST, FL, 33040",116475687,"R"
18362,"1013 240TH STREET","NODAWAWY","IA",50857,40.958531549,-94.925964742,362,"1013 240TH STREET, NODAWAWY, IA, 50857","Match","Non_Exact","1013 240TH ST, NODAWAY, IA, 50857",61700794,"R"
18363,"1013 2ND AVENUE","VINTON","IA",52349,42.161797349,-92.023001138,363,"1013 2ND AVENUE, VINTON, IA, 52349","Match","Exact","1013 2ND AVE, VINTON, IA, 52349",94711263,"L"
18364,"1013 3RD STREET","FARMINGTON","MN",55024,44.6317119010001,-93.145322898,364,"1013 3RD STREET, FARMINGTON, MN, 55024","Match","Exact","1013 3RD ST, FARMINGTON, MN, 55024",37912471,"L"
18365,"1013 42 1 2 AVE NE","COLUMBIA HEIGHTS","MN",55421,NA,NA,365,"1013 42 1 2 AVE NE, COLUMBIA HEIGHTS, MN, 55421","No_Match",NA,NA,NA,NA
18366,"1013 8TH STREET","LAUREL","MD",20707,39.0990229240001,-76.859123287,366,"1013 8TH STREET, LAUREL, MD, 20707","Match","Exact","1013 8TH ST, LAUREL, MD, 20707",76325594,"R"
18367,"1013 ADKINS RD","BURLISTON","TN",38015,35.5110644100001,-89.8230256529999,367,"1013 ADKINS RD, BURLISTON, TN, 38015","Match","Non_Exact","1013 ADKINS RD, BURLISON, TN, 38015",73161839,"L"
18368,"1013 ALEXANDRIA AVE","GARLAND","TX",75040,32.935235703,-96.619665691,368,"1013 ALEXANDRIA AVE, GARLAND, TX, 75040","Match","Exact","1013 ALEXANDRIA AVE, GARLAND, TX, 75040",102926420,"L"
18369,"1013 ASPEN LANE","COLUMBUS","IN",47203,39.257134846,-85.9149458209999,369,"1013 ASPEN LANE, COLUMBUS, IN, 47203","Match","Exact","1013 ASPEN LN, COLUMBUS, IN, 47203",606499502,"R"
18370,"1013 AVENUE M","BROOKLYN","NY",11230,40.6175093210001,-73.9646262379999,370,"1013 AVENUE M, BROOKLYN, NY, 11230","Match","Exact","1013 AVE M, BROOKLYN, NY, 11230",59089680,"L"
18371,"1013 BARSTOW AVENUE","EUGENE","OR",97404,44.112353834,-123.152002958,371,"1013 BARSTOW AVENUE, EUGENE, OR, 97404","Match","Exact","1013 BARSTOW AVE, EUGENE, OR, 97404",178163079,"R"
18372,"1013 BAYWATER ROAD","BRUNSWICK","GA",31525,NA,NA,372,"1013 BAYWATER ROAD, BRUNSWICK, GA, 31525","No_Match",NA,NA,NA,NA
18373,"1013 BEECH RD","NETHER PROVIDENCE TO","PA",19086,39.875123504,-75.36767653,373,"1013 BEECH RD, NETHER PROVIDENCE TO, PA, 19086","Match","Non_Exact","1013 BEECH RD, WALLINGFORD, PA, 19086",134898319,"L"
18374,"1013 BEECH RD","WALLINGFORD","PA",19086,39.875123504,-75.36767653,374,"1013 BEECH RD, WALLINGFORD, PA, 19086","Match","Exact","1013 BEECH RD, WALLINGFORD, PA, 19086",134898319,"L"
18375,"1013 BELVOIR RD","PLYMOUTH MEETING","PA",19462,40.1164633830001,-75.307195088,375,"1013 BELVOIR RD, PLYMOUTH MEETING, PA, 19462","Match","Exact","1013 BELVOIR RD, PLYMOUTH MEETING, PA, 19462",135084639,"L"
18376,"1013 BENGAL DRIVE","DURHAM","NC",27703,36.0059878180001,-78.810971099,376,"1013 BENGAL DRIVE, DURHAM, NC, 27703","Match","Non_Exact","1013 BENGEL DR, DURHAM, NC, 27703",649751983,"L"
18377,"1013 BILTMORE AVE","TORONTO","OH",43964,40.4573872820001,-80.611674909,377,"1013 BILTMORE AVE, TORONTO, OH, 43964","Match","Exact","1013 BILTMORE AVE, TORONTO, OH, 43964",37799816,"L"
18378,"1013 BOWMAN ST","BORGER","TX",79007,35.6770531340001,-101.404387047,378,"1013 BOWMAN ST, BORGER, TX, 79007","Match","Non_Exact","1013 BOWMAN DR, BORGER, TX, 79007",185356895,"L"
18379,"1013 BOXWOOD DR","FRANKLIN","TN",37069,36.0126564190001,-86.892415665,379,"1013 BOXWOOD DR, FRANKLIN, TN, 37069","Match","Exact","1013 BOXWOOD DR, FRANKLIN, TN, 37069",73116892,"R"
18380,"1013 BRAMWELL LANE","STONE MOUNTAIN","GA",30083,33.808693588,-84.208999407,380,"1013 BRAMWELL LANE, STONE MOUNTAIN, GA, 30083","Match","Exact","1013 BRAMWELL LN, STONE MOUNTAIN, GA, 30083",23364236,"R"
18381,"1013 BRIGHTFIELD MANOR COURT","CHESTERFIELD","MO",63017,38.6616111920001,-90.539198008,381,"1013 BRIGHTFIELD MANOR COURT, CHESTERFIELD, MO, 63017","Match","Exact","1013 BRIGHTFIELD MANOR CT, CHESTERFIELD, MO, 63017",100195928,"R"
18382,"1013 BROADMOOR DR","NASHVILLE","TN",37216,36.229292555,-86.727193281,382,"1013 BROADMOOR DR, NASHVILLE, TN, 37216","Match","Exact","1013 BROADMOOR DR, NASHVILLE, TN, 37216",97193942,"L"
18383,"1013 BROOKFIELD DRIVE","BETHEL PARK","PA",15102,40.336603831,-80.001411687,383,"1013 BROOKFIELD DRIVE, BETHEL PARK, PA, 15102","Match","Exact","1013 BROOKFIELD DR, BETHEL PARK, PA, 15102",617274000,"L"
18384,"1013 BROOKSIDE ROAD - SUITE 203","WESCOSVILLE","PA",18106,40.5630998500001,-75.553514779,384,"1013 BROOKSIDE ROAD - SUITE 203, WESCOSVILLE, PA, 18106","Match","Exact","1013 BROOKSIDE RD, WESCOSVILLE, PA, 18106",80759336,"L"
18385,"1013 BULLS BAY ROAD","COLUMBIA","NC",27925,35.9409183160001,-76.350796445,385,"1013 BULLS BAY ROAD, COLUMBIA, NC, 27925","Match","Exact","1013 BULLS BAY RD, COLUMBIA, NC, 27925",632347921,"L"
18386,"1013 CALDWELL STREET","APLINGTON","IA",50604,42.5810407760001,-92.8848829459999,386,"1013 CALDWELL STREET, APLINGTON, IA, 50604","Match","Exact","1013 CALDWELL ST, APLINGTON, IA, 50604",9611004,"L"
18387,"1013 CALLE DE SUENOS","SANTA FE","NM",87507,35.6494721120001,-105.989195887,387,"1013 CALLE DE SUENOS, SANTA FE, NM, 87507","Match","Non_Exact","1013 CLL DE SUENOS, SANTA FE, NM, 87507",169376879,"R"
18388,"1013 CAMPBELL AVENUE","LAKE WALES","FL",33853,27.8969601270001,-81.5681778319999,388,"1013 CAMPBELL AVENUE, LAKE WALES, FL, 33853","Match","Exact","1013 CAMPBELL AVE, LAKE WALES, FL, 33853",104832359,"L"
18389,"1013 CANYON RIDGE ROAD APT 304","BLACKSBURG","VA",24060,37.1859124120001,-80.4212706549999,389,"1013 CANYON RIDGE ROAD APT 304, BLACKSBURG, VA, 24060","Match","Exact","1013 CANYON RIDGE RD, BLACKSBURG, VA, 24060",650234196,"R"
18390,"1013 CEDAR STREET","BEAUFORT","NC",28516,34.71645218,-76.6551026929999,390,"1013 CEDAR STREET, BEAUFORT, NC, 28516","Match","Exact","1013 CEDAR ST, BEAUFORT, NC, 28516",33869119,"L"
18391,"1013 CENTIPEDE DRIVE","ROCKY MOUNT","NC",27801,35.9498094670001,-77.7449557589999,391,"1013 CENTIPEDE DRIVE, ROCKY MOUNT, NC, 27801","Match","Exact","1013 CENTIPEDE DR, ROCKY MOUNT, NC, 27801",90194617,"L"
18392,"1013 CENTRE RD STE 403-A","WILMINGTON","DE",19805,39.756660804,-75.606846337,392,"1013 CENTRE RD STE 403-A, WILMINGTON, DE, 19805","Match","Exact","1013 CENTRE RD, WILMINGTON, DE, 19805",187301835,"R"
18393,"1013 CENTRE ROAD SUITE 302","WILMINGTON","DE",19805,39.756660804,-75.606846337,393,"1013 CENTRE ROAD SUITE 302, WILMINGTON, DE, 19805","Match","Exact","1013 CENTRE RD, WILMINGTON, DE, 19805",187301835,"R"
18394,"1013 CHAPEL CREEK LANE","FULTONDALE","AL",35068,33.5969255430001,-86.812787928,394,"1013 CHAPEL CREEK LANE, FULTONDALE, AL, 35068","Match","Exact","1013 CHAPEL CREEK LN, FULTONDALE, AL, 35068",627393607,"R"
18395,"1013 CHARING CROSS","CAVE SPRINGS","AR",72718,36.2770227,-94.214746249,395,"1013 CHARING CROSS, CAVE SPRINGS, AR, 72718","Match","Exact","1013 CHARING CROSS, CAVE SPRINGS, AR, 72718",616216509,"R"
18396,"1013 CHARLES THOMAS DRIVE","CLARKSVILLE","TN",37042,36.615351692,-87.355522647,396,"1013 CHARLES THOMAS DRIVE, CLARKSVILLE, TN, 37042","Match","Exact","1013 CHARLES THOMAS DR, CLARKSVILLE, TN, 37042",651869844,"R"
18397,"1013 CHURCH ST","LEISENRING","PA",15455,39.999285957,-79.6408726939999,397,"1013 CHURCH ST, LEISENRING, PA, 15455","Match","Exact","1013 CHURCH ST, LEISENRING, PA, 15455",51134755,"L"
18398,"1013 CLINTON COURT","ALEXANDER","AR",72202,34.6201423100001,-92.430663286,398,"1013 CLINTON COURT, ALEXANDER, AR, 72202","Match","Non_Exact","1013 CLINTON CT, ALEXANDER, AR, 72002",625555463,"L"
18399,"1013 COBBLER LN","ST CHARLES","MO",63303,38.7430891700001,-90.560328522,399,"1013 COBBLER LN, ST CHARLES, MO, 63303","Match","Exact","1013 COBBLER LN, SAINT CHARLES, MO, 63303",100028321,"R"
18400,"1013 COLLINGTREE COURT","MCDONOUGH","GA",30253,33.5070118740001,-84.203224344,400,"1013 COLLINGTREE COURT, MCDONOUGH, GA, 30253","Match","Exact","1013 COLLINGTREE CT, MCDONOUGH, GA, 30253",647594673,"L"
18401,"1013 COLMA WAY","ROSEVILLE","CA",95661,38.7342599180001,-121.27886294,401,"1013 COLMA WAY, ROSEVILLE, CA, 95661","Match","Non_Exact","1013 COLOMA WAY, ROSEVILLE, CA, 95661",106765028,"L"
18402,"1013 CONNECTICUT AVE S","SARTELL","MN",56377,45.6020509690001,-94.200866946,402,"1013 CONNECTICUT AVE S, SARTELL, MN, 56377","Match","Exact","1013 CONNECTICUT AVE S, SARTELL, MN, 56377",107447216,"L"
18403,"1013 COOPER STREET","CHILLICOTHE","MO",64601,39.7959368100001,-93.5561264739999,403,"1013 COOPER STREET, CHILLICOTHE, MO, 64601","Match","Exact","1013 COOPER ST, CHILLICOTHE, MO, 64601",18118315,"L"
18404,"1013 COOPERS RUN","AMHERST","OH",44001,41.3857842030001,-82.24535603,404,"1013 COOPERS RUN, AMHERST, OH, 44001","Match","Exact","1013 COOPERS RUN, AMHERST, OH, 44001",55423272,"R"
18405,"1013 COUNTRY SIDE LN","YADKINVILLE","NC",27055,36.130948548,-80.686687992,405,"1013 COUNTRY SIDE LN, YADKINVILLE, NC, 27055","Match","Exact","1013 COUNTRY SIDE LN, YADKINVILLE, NC, 27055",645513733,"L"
18406,"1013 COUNTY ROAD 456","LANETT","AL",36863,32.909119478,-85.196943115,406,"1013 COUNTY ROAD 456, LANETT, AL, 36863","Match","Exact","1013 CO RD 456, LANETT, AL, 36863",3060290,"L"
18407,"1013 COURT ST","UTICA","NY",13502,43.103879998,-75.247692716,407,"1013 COURT ST, UTICA, NY, 13502","Match","Exact","1013 COURT ST, UTICA, NY, 13502",171581276,"L"
18408,"1013 COURT STREET","UTICA","NY",13502,43.103879998,-75.247692716,408,"1013 COURT STREET, UTICA, NY, 13502","Match","Exact","1013 COURT ST, UTICA, NY, 13502",171581276,"L"
18409,"1013 CRESTWOOD LANE","ATLANTA","GA",30339,33.86166587,-84.470958497,409,"1013 CRESTWOOD LANE, ATLANTA, GA, 30339","Match","Exact","1013 CRESTWOOD LN, ATLANTA, GA, 30339",17251428,"L"
18410,"1013 CROOKED STICK LN","NORMAL","IL",61761,40.527535034,-88.9710642859999,410,"1013 CROOKED STICK LN, NORMAL, IL, 61761","Match","Exact","1013 CROOKED STICK LN, NORMAL, IL, 61761",20563519,"R"
18411,"1013 CUMULUS DRIVE","BROWNSVILLE","TX",78526,25.9599105950001,-97.4739020599999,411,"1013 CUMULUS DRIVE, BROWNSVILLE, TX, 78526","Match","Exact","1013 CUMULUS DR, BROWNSVILLE, TX, 78526",633749410,"L"
18412,"1013 DELAWARE AVE SE","WASHINGTON","DC",20024,38.8782265090001,-77.013330793,412,"1013 DELAWARE AVE SE, WASHINGTON, DC, 20024","Match","Non_Exact","1013 DELAWARE AVE SW, WASHINGTON, DC, 20024",76227093,"R"
18413,"1013 DESHIRE LN","MORRISVILLE","NC",27560,35.857041313,-78.845042892,413,"1013 DESHIRE LN, MORRISVILLE, NC, 27560","Match","Exact","1013 DESHIRE LN, MORRISVILLE, NC, 27560",612816219,"L"
18414,"1013 DILL AVE SW","ATLANTA","GA",30310,33.7183379260001,-84.420290822,414,"1013 DILL AVE SW, ATLANTA, GA, 30310","Match","Exact","1013 DILL AVE SW, ATLANTA, GA, 30310",17345216,"R"
18415,"1013 DON DIEGO AVENUE","SANTA FE","NM",87505,35.6745665540001,-105.948448566,415,"1013 DON DIEGO AVENUE, SANTA FE, NM, 87505","Match","Exact","1013 DON DIEGO AVE, SANTA FE, NM, 87505",169378644,"L"
18416,"1013 DORTHEA CT","FREDERICKSBURG","VA",22401,38.308415301,-77.494970807,416,"1013 DORTHEA CT, FREDERICKSBURG, VA, 22401","Match","Exact","1013 DORTHEA CT, FREDERICKSBURG, VA, 22401",616389742,"L"
18417,"1013 DOWDY FERRY ROAD","DALLAS","TX",75217,32.7016366730001,-96.6785213909999,417,"1013 DOWDY FERRY ROAD, DALLAS, TX, 75217","Match","Exact","1013 DOWDY FERRY RD, DALLAS, TX, 75217",102958955,"R"
18418,"1013 DOWNER AVE APT 1","UTICA","NY",13502,43.107554738,-75.2609565449999,418,"1013 DOWNER AVE APT 1, UTICA, NY, 13502","Match","Exact","1013 DOWNER AVE, UTICA, NY, 13502",171530116,"L"
18419,"1013 DOWNER AVE","UTICA","NY",13502,43.107554738,-75.2609565449999,419,"1013 DOWNER AVE, UTICA, NY, 13502","Match","Exact","1013 DOWNER AVE, UTICA, NY, 13502",171530116,"L"
18420,"1013 DRESDEN MEADOW CT","CARY","NC",27519,35.8212494520001,-78.8902753689999,420,"1013 DRESDEN MEADOW CT, CARY, NC, 27519","Match","Exact","1013 DRESDEN MEADOW CT, CARY, NC, 27519",612819952,"L"
18421,"1013 DUKE ST","GEORGETOWN","SC",29440,33.3716849670001,-79.282889035,421,"1013 DUKE ST, GEORGETOWN, SC, 29440","Match","Exact","1013 DUKE ST, GEORGETOWN, SC, 29440",28965262,"L"
18422,"1013 DUMFRIES DRIVE","SEGUIN","TX",78155,29.5518870560001,-97.940018117,422,"1013 DUMFRIES DRIVE, SEGUIN, TX, 78155","Match","Exact","1013 DUMFRIES DR, SEGUIN, TX, 78155",647891686,"L"
18423,"1013 E 11TH ST","WILMINGTON","DE",19802,39.7418979550001,-75.536004578,423,"1013 E 11TH ST, WILMINGTON, DE, 19802","Match","Exact","1013 E 11TH ST, WILMINGTON, DE, 19802",187259315,"L"
18424,"1013 E ALAN ST","PHARR","TX",78572,26.2080964400001,-98.17146796,424,"1013 E ALAN ST, PHARR, TX, 78572","Match","Non_Exact","1013 E ALAN ST, PHARR, TX, 78577",71504433,"L"
18425,"1013 E BROADWAY HWY","CHARLOTTE","MI",48813,42.524030456,-84.816538903,425,"1013 E BROADWAY HWY, CHARLOTTE, MI, 48813","Match","Exact","1013 E BROADWAY HWY, CHARLOTTE, MI, 48813",12046059,"R"
18426,"1013 E BROADWAY ST","HELENA","MT",59601,46.5844929880001,-112.023901741,426,"1013 E BROADWAY ST, HELENA, MT, 59601","Match","Exact","1013 E BROADWAY ST, HELENA, MT, 59601",202349932,"R"
18427,"1013 E CARY ST","PAPILLION","NE",68046,41.172192631,-96.0274949659999,427,"1013 E CARY ST, PAPILLION, NE, 68046","Match","Non_Exact","1015 E CARY ST, PAPILLION, NE, 68046",28480536,"L"
18428,"1013 E CENTERVILLE RD APT 1106","GARLAND","TX",75041,NA,NA,428,"1013 E CENTERVILLE RD APT 1106, GARLAND, TX, 75041","Tie",NA,NA,NA,NA
18429,"1013 E CHARLESTON BLVD","LAS VEGAS","NV",89104,36.158859722,-115.139838753,429,"1013 E CHARLESTON BLVD, LAS VEGAS, NV, 89104","Match","Exact","1013 E CHARLESTON BLVD, LAS VEGAS, NV, 89104",201867730,"L"
18430,"1013 E GLADE AVE","MESA","AZ",85204,33.3904421440001,-111.809394244,430,"1013 E GLADE AVE, MESA, AZ, 85204","Match","Exact","1013 E GLADE AVE, MESA, AZ, 85204",128245808,"R"
18431,"1013 E GRENADINE RD","PHOENIX","AZ",85040,33.39937359,-112.05777767,431,"1013 E GRENADINE RD, PHOENIX, AZ, 85040","Match","Exact","1013 E GRENADINE RD, PHOENIX, AZ, 85040",637537523,"R"
18432,"1013 E INDIANA OAKS","HOLLY HILL","FL",32117,29.2402313160001,-81.051570532,432,"1013 E INDIANA OAKS, HOLLY HILL, FL, 32117","Match","Non_Exact","1013 INDIAN OAKS, HOLLY HILL, FL, 32117",94522310,"L"
18433,"1013 E MAIN STREET","COBLESKILL","NY",12043,42.6797864330001,-74.464656841,433,"1013 E MAIN STREET, COBLESKILL, NY, 12043","Match","Exact","1013 E MAIN ST, COBLESKILL, NY, 12043",638501710,"R"
18434,"1013 E UNIVERSITY BLVD","TUCSON","AZ",85721,32.2316977400001,-110.956062619,434,"1013 E UNIVERSITY BLVD, TUCSON, AZ, 85721","Match","Non_Exact","1013 E UNIVERSITY BLVD, TUCSON, AZ, 85719",121193327,"L"
18435,"1013 EAST 11TH STREET","WILMINGTON","DE",19801,39.74189856,-75.5360061329999,435,"1013 EAST 11TH STREET, WILMINGTON, DE, 19801","Match","Non_Exact","1013 E 11TH ST, WILMINGTON, DE, 19802",187259315,"L"
18436,"1013 EAST 85TH STREET","BROOKLYN","NY",11236,40.6359808390001,-73.907507386,436,"1013 EAST 85TH STREET, BROOKLYN, NY, 11236","Match","Exact","1013 E 85TH ST, BROOKLYN, NY, 11236",59086478,"L"
18437,"1013 EAST KALEY","ORLANDO","FL",32806,28.520356368,-81.36560651,437,"1013 EAST KALEY, ORLANDO, FL, 32806","Match","Non_Exact","1013 E KALEY ST, ORLANDO, FL, 32806",94426529,"L"
18438,"1013 EAST KENSINGTON CIRCLE","FREDERICKSBURG","VA",22401,38.285127345,-77.4799208749999,438,"1013 EAST KENSINGTON CIRCLE, FREDERICKSBURG, VA, 22401","Match","Exact","1013 E KENSINGTON CIR, FREDERICKSBURG, VA, 22401",616376365,"R"
18439,"1013 EAST SIMMONS ST  HOUSE 1","TUCSON","AZ",85719,32.275311151,-110.956374521,439,"1013 EAST SIMMONS ST  HOUSE 1, TUCSON, AZ, 85719","Match","Exact","1013 E SIMMONS ST, TUCSON, AZ, 85719",121167235,"L"
18440,"1013 EAST SIMMONS ST HOUSE 1","TUCSON","AZ",85719,32.275311151,-110.956374521,440,"1013 EAST SIMMONS ST HOUSE 1, TUCSON, AZ, 85719","Match","Exact","1013 E SIMMONS ST, TUCSON, AZ, 85719",121167235,"L"
18441,"1013 EASTOVER PARKWAY","LOCUST GROVE","VA",22508,38.325546155,-77.7460914869999,441,"1013 EASTOVER PARKWAY, LOCUST GROVE, VA, 22508","Match","Exact","1013 EASTOVER PKWY, LOCUST GROVE, VA, 22508",29881715,"L"
18442,"1013 EDITH STREET","BURLINGTON","NC",27215,36.0966076510001,-79.4640202859999,442,"1013 EDITH STREET, BURLINGTON, NC, 27215","Match","Exact","1013 EDITH ST, BURLINGTON, NC, 27215",71661636,"R"
18443,"1013 ELLSWORTH ST","PHILADELPHIA","PA",19147,39.935706312,-75.160782937,443,"1013 ELLSWORTH ST, PHILADELPHIA, PA, 19147","Match","Exact","1013 ELLSWORTH ST, PHILADELPHIA, PA, 19147",131435974,"R"
18444,"1013 ELMWOOD AVR","SHARON HILL","PA",19079,39.9045433740001,-75.268678149,444,"1013 ELMWOOD AVR, SHARON HILL, PA, 19079","Match","Non_Exact","1013 ELMWOOD AVE, SHARON HILL, PA, 19079",647658806,"L"
18445,"1013 EUPHONY LN","MORRISVILLE","NC",27560,35.862365765,-78.857767044,445,"1013 EUPHONY LN, MORRISVILLE, NC, 27560","Match","Exact","1013 EUPHONY LN, MORRISVILLE, NC, 27560",627425257,"L"
18446,"1013 F AVE","NORFOLK","VA",23504,NA,NA,446,"1013 F AVE, NORFOLK, VA, 23504","No_Match",NA,NA,NA,NA
18447,"1013 FAIRWOOD LN","ACWORTH","GA",30101,NA,NA,447,"1013 FAIRWOOD LN, ACWORTH, GA, 30101","Tie",NA,NA,NA,NA
18448,"1013 FALCON CREST","GALLATIN","TN",37066,36.430844983,-86.3960732039999,448,"1013 FALCON CREST, GALLATIN, TN, 37066","Match","Exact","1013 FALCON CRST, GALLATIN, TN, 37066",29785131,"R"
18449,"1013 FALLING RIVER WALK","ROCKY MOUNT","NC",27804,35.9601054340001,-77.8086040649999,449,"1013 FALLING RIVER WALK, ROCKY MOUNT, NC, 27804","Match","Exact","1013 FALLING RIVER WALK, ROCKY MOUNT, NC, 27804",90392884,"L"
18450,"1013 FLAMING OAKS DRIVE","NORMAN","OK",73026,35.2058881880001,-97.350351253,450,"1013 FLAMING OAKS DRIVE, NORMAN, OK, 73026","Match","Exact","1013 FLAMING OAKS DR, NORMAN, OK, 73026",99913020,"R"
18451,"1013 FOUNTAINBROOK DR","INDIAN TRAIL","NC",28079,35.042565251,-80.662265345,451,"1013 FOUNTAINBROOK DR, INDIAN TRAIL, NC, 28079","Match","Exact","1013 FOUNTAINBROOK DR, INDIAN TRAIL, NC, 28079",618498371,"L"
18452,"1013 FRANKLIN AVE","FREMONT","OH",43420,41.3566102290001,-83.1246141999999,452,"1013 FRANKLIN AVE, FREMONT, OH, 43420","Match","Exact","1013 FRANKLIN AVE, FREMONT, OH, 43420",38669930,"R"
18453,"1013 GLACIER HILL DRIVE","MADISON","WI",53704,43.113072489,-89.290185508,453,"1013 GLACIER HILL DRIVE, MADISON, WI, 53704","Match","Exact","1013 GLACIER HILL DR, MADISON, WI, 53704",624895628,"L"
18454,"1013 GOLDEN BEAR LANE","MCKINNEY","TX",75072,33.194731323,-96.743147692,454,"1013 GOLDEN BEAR LANE, MCKINNEY, TX, 75072","Match","Exact","1013 GOLDEN BEAR LN, MCKINNEY, TX, 75072",619911507,"L"
18455,"1013 GRAY DR","PICKERINGTON","OH",43147,39.904369681,-82.784439215,455,"1013 GRAY DR, PICKERINGTON, OH, 43147","Match","Exact","1013 GRAY DR, PICKERINGTON, OH, 43147",647375698,"L"
18456,"1013 GREAT PLAINS AVE","MATTESON","IL",60443,41.507424438,-87.7667078429999,456,"1013 GREAT PLAINS AVE, MATTESON, IL, 60443","Match","Exact","1013 GREAT PLAINS AVE, MATTESON, IL, 60443",638712562,"R"
18457,"1013 GREAT PLAINS AVENUE","MATTESON","IL",60443,41.507424438,-87.7667078429999,457,"1013 GREAT PLAINS AVENUE, MATTESON, IL, 60443","Match","Exact","1013 GREAT PLAINS AVE, MATTESON, IL, 60443",638712562,"R"
18458,"1013 GREENBRIAR DRIVE","GARLAND","TX",75043,32.8496354380001,-96.636040511,458,"1013 GREENBRIAR DRIVE, GARLAND, TX, 75043","Match","Exact","1013 GREENBRIAR DR, GARLAND, TX, 75043",103202310,"R"
18459,"1013 GREENFIELD CIRCLE","STATE COLLEGE","PA",16801,40.7779625750001,-77.862893281,459,"1013 GREENFIELD CIRCLE, STATE COLLEGE, PA, 16801","Match","Exact","1013 GREENFIELD CIR, STATE COLLEGE, PA, 16801",50371016,"L"
18460,"1013 GREENHOUSE DR","HOPE MILLS","NC",28348,34.923604805,-78.912932209,460,"1013 GREENHOUSE DR, HOPE MILLS, NC, 28348","Match","Exact","1013 GREENHOUSE DR, HOPE MILLS, NC, 28348",64264217,"L"
18461,"1013 HANOVER","WEATHERFORD","TX",76086,32.770021523,-97.798976755,461,"1013 HANOVER, WEATHERFORD, TX, 76086","Match","Non_Exact","1013 HANOVER ST, WEATHERFORD, TX, 76086",103575566,"L"
18462,"1013 HARBOR BLVD - UNIT 12","OXNARD","CA",93035,NA,NA,462,"1013 HARBOR BLVD - UNIT 12, OXNARD, CA, 93035","No_Match",NA,NA,NA,NA
18463,"1013 HARTLEY COURT","SICKLERVILLE","NJ",8081,39.7612718610001,-75.0317089719999,463,"1013 HARTLEY COURT, SICKLERVILLE, NJ, 8081","Match","Exact","1013 HARTLEY CT, SICKLERVILLE, NJ, 08081",134419900,"L"
18464,"1013 HARVARD DRIVE","GREENVILLE","SC",29605,NA,NA,464,"1013 HARVARD DRIVE, GREENVILLE, SC, 29605","No_Match",NA,NA,NA,NA
18465,"1013 HAWKINS WAY","GLEN BURNIE","MD",21061,39.1522614680001,-76.633183489,465,"1013 HAWKINS WAY, GLEN BURNIE, MD, 21061","Match","Exact","1013 HAWKINS WAY, GLEN BURNIE, MD, 21061",646653075,"R"
18466,"1013 HAZEL DR","LANTANA","TX",76226,33.111094167,-97.121743082,466,"1013 HAZEL DR, LANTANA, TX, 76226","Match","Exact","1013 HAZEL DR, LANTANA, TX, 76226",641493043,"L"
18467,"1013 HERITAGE DRIVE","BRANDON","MS",39042,32.2749508000001,-89.963125167,467,"1013 HERITAGE DRIVE, BRANDON, MS, 39042","Match","Exact","1013 HERITAGE DR, BRANDON, MS, 39042",627498185,"L"
18468,"1013 HICKMAN STREET","WESTLAKE","LA",70669,30.2596825890001,-93.2631340679999,468,"1013 HICKMAN STREET, WESTLAKE, LA, 70669","Match","Exact","1013 HICKMAN ST, WESTLAKE, LA, 70669",88433490,"R"
18469,"1013 HIGH DRIVE","CARMEL","IN",46033,39.966979263,-86.1079297269999,469,"1013 HIGH DRIVE, CARMEL, IN, 46033","Match","Exact","1013 HIGH DR, CARMEL, IN, 46033",29295245,"L"
18470,"1013 HIGHPOINT CIRCLE","HUGER","SC",29450,33.055010641,-79.8070802729999,470,"1013 HIGHPOINT CIRCLE, HUGER, SC, 29450","Match","Exact","1013 HIGHPOINT CIR, HUGER, SC, 29450",100744367,"L"
18471,"1013 HILLCREST ST SE","VALDESE","NC",28690,35.735538331,-81.550637762,471,"1013 HILLCREST ST SE, VALDESE, NC, 28690","Match","Exact","1013 HILLCREST ST SE, VALDESE, NC, 28690",37164553,"L"
18472,"1013 HILLSBORO STREET","PITTSBORO","NC",27312,35.735147714,-79.174081432,472,"1013 HILLSBORO STREET, PITTSBORO, NC, 27312","Match","Exact","1013 HILLSBORO ST, PITTSBORO, NC, 27312",71380297,"L"
18473,"1013 HILLSIDE AVE","EASTON","PA",18042,40.7096720860001,-75.206226468,473,"1013 HILLSIDE AVE, EASTON, PA, 18042","Match","Exact","1013 HILLSIDE AVE, EASTON, PA, 18042",136908627,"R"
18474,"1013 HODGE STREET","MCKINNEY","TX",75071,33.2484283800001,-96.601005351,474,"1013 HODGE STREET, MCKINNEY, TX, 75071","Match","Exact","1013 HODGE ST, MCKINNEY, TX, 75071",650326479,"L"
18475,"1013 HOLLIDAY DR","NORTH AUGUSTA","SC",29841,33.5095654080001,-81.977913933,475,"1013 HOLLIDAY DR, NORTH AUGUSTA, SC, 29841","Match","Non_Exact","1013 HOLIDAY DR, NORTH AUGUSTA, SC, 29841",64984276,"R"
18476,"1013 HOLLIDAY DRIVE","NORTH AUGUSTA","SC",29841,33.5095654080001,-81.977913933,476,"1013 HOLLIDAY DRIVE, NORTH AUGUSTA, SC, 29841","Match","Non_Exact","1013 HOLIDAY DR, NORTH AUGUSTA, SC, 29841",64984276,"R"
18477,"1013 HOODER ST","ESCONDIDO","CA",92027,33.1411930250001,-117.07162139,477,"1013 HOODER ST, ESCONDIDO, CA, 92027","Match","Non_Exact","1013 HOOVER ST, ESCONDIDO, CA, 92027",195312577,"L"
18478,"1013 HORTON DRIVE SE","CLEVELAND","TN",37323,35.083217285,-84.787814754,478,"1013 HORTON DRIVE SE, CLEVELAND, TN, 37323","Match","Non_Exact","1013 HORTON RD SE, CLEVELAND, TN, 37323",57579089,"L"
18479,"1013 HORTON RD","CLEVELAND","TN",37323,35.083217285,-84.787814754,479,"1013 HORTON RD, CLEVELAND, TN, 37323","Match","Non_Exact","1013 HORTON RD SE, CLEVELAND, TN, 37323",57579089,"L"
18480,"1013 HOUSTON PARK","SELMA","AL",36701,32.40315244,-87.050705178,480,"1013 HOUSTON PARK, SELMA, AL, 36701","Match","Exact","1013 HOUSTON PARK, SELMA, AL, 36701",1284278,"R"
18481,"1013 HWY 603","CHEHALIS","WA",98532,46.607281003,-122.951699238,481,"1013 HWY 603, CHEHALIS, WA, 98532","Match","Non_Exact","1013 STATE RTE 603, CHEHALIS, WA, 98532",640617622,"R"
18482,"1013 INLET COURT","WESTERVILLE","OH",43082,40.1413201230001,-82.8922477089999,482,"1013 INLET COURT, WESTERVILLE, OH, 43082","Match","Exact","1013 INLET CT, WESTERVILLE, OH, 43082",24591442,"L"
18483,"1013 INNES NE","GRAND RAPIDS","MI",49503,42.9678817320001,-85.644088239,483,"1013 INNES NE, GRAND RAPIDS, MI, 49503","Match","Non_Exact","1013 INNES ST NE, GRAND RAPIDS, MI, 49503",12460628,"L"
18484,"1013 JEFFERSON AVE","WAYNESBORO","VA",22980,38.056760341,-78.89912988,484,"1013 JEFFERSON AVE, WAYNESBORO, VA, 22980","Match","Exact","1013 JEFFERSON AVE, WAYNESBORO, VA, 22980",98871658,"L"
18485,"1013 KEYSTONE CT","CHARLOTTE","NC",28210,35.1636847870001,-80.8602420509999,485,"1013 KEYSTONE CT, CHARLOTTE, NC, 28210","Match","Exact","1013 KEYSTONE CT, CHARLOTTE, NC, 28210",70486860,"L"
18486,"1013 KING STREET","SANDUSKY","OH",44870,41.4461124760001,-82.731430444,486,"1013 KING STREET, SANDUSKY, OH, 44870","Match","Exact","1013 KING ST, SANDUSKY, OH, 44870",55324746,"L"
18487,"1013 KINGSTON LOOP","IRMO","SC",29063,NA,NA,487,"1013 KINGSTON LOOP, IRMO, SC, 29063","No_Match",NA,NA,NA,NA
18488,"1013 LAKE FORK ROAD","BLOOMINGTON","IL",61704,40.4553965860001,-89.004839303,488,"1013 LAKE FORK ROAD, BLOOMINGTON, IL, 61704","Match","Exact","1013 LAKE FORK RD, BLOOMINGTON, IL, 61704",20546084,"R"
18489,"1013 LAKEWOOD DRIVE","OTTAWA","IL",61350,41.3628159040001,-88.856459039,489,"1013 LAKEWOOD DRIVE, OTTAWA, IL, 61350","Match","Exact","1013 LAKEWOOD DR, OTTAWA, IL, 61350",605789819,"R"
18490,"1013 LEE TREVINO DR","BELEN","NM",87002,34.627816443,-106.724864838,490,"1013 LEE TREVINO DR, BELEN, NM, 87002","Match","Exact","1013 LEE TREVINO DR, BELEN, NM, 87002",179338289,"L"
18491,"1013 LIGONIER ST","LATROBE","PA",15650,40.3156916560001,-79.383706449,491,"1013 LIGONIER ST, LATROBE, PA, 15650","Match","Exact","1013 LIGONIER ST, LATROBE, PA, 15650",623939033,"L"
18492,"1013 LINDEN ST","OAKLAND","CA",94607,37.8063226260001,-122.285006949,492,"1013 LINDEN ST, OAKLAND, CA, 94607","Match","Exact","1013 LINDEN ST, OAKLAND, CA, 94607",606305649,"L"
18493,"1013 LINEHALL WAY","WAKE FOREST","NC",27587,NA,NA,493,"1013 LINEHALL WAY, WAKE FOREST, NC, 27587","No_Match",NA,NA,NA,NA
18494,"1013 LOPEZVILLE RD","SOCORRO","NM",87801,34.0704783750001,-106.906234206,494,"1013 LOPEZVILLE RD, SOCORRO, NM, 87801","Match","Exact","1013 LOPEZVILLE RD, SOCORRO, NM, 87801",638149853,"L"
18495,"1013 MAIN ST","PELLA","IA",50219,41.4105796090001,-92.9164297899999,495,"1013 MAIN ST, PELLA, IA, 50219","Match","Exact","1013 MAIN ST, PELLA, IA, 50219",89472554,"L"
18496,"1013 MAIN STREET","MUMFORD","NY",14511,42.9925757120001,-77.860621242,496,"1013 MAIN STREET, MUMFORD, NY, 14511","Match","Exact","1013 MAIN ST, MUMFORD, NY, 14511",14524986,"R"
18497,"1013 MANHATTAN BLVD","HARVEY","LA",70058,29.8990986900001,-90.0631599559999,497,"1013 MANHATTAN BLVD, HARVEY, LA, 70058","Match","Exact","1013 MANHATTAN BLVD, HARVEY, LA, 70058",93542689,"R"
18498,"1013 MAPLETON AVE","OAK PARK","IL",60302,41.9041900720001,-87.781545019,498,"1013 MAPLETON AVE, OAK PARK, IL, 60302","Match","Exact","1013 MAPLETON AVE, OAK PARK, IL, 60302",111753679,"L"
18499,"1013 MARCIA LANE","BURLESON","TX",76028,32.5419552230001,-97.359901861,499,"1013 MARCIA LANE, BURLESON, TX, 76028","Match","Non_Exact","1013 MARCIA, BURLESON, TX, 76028",225920397,"L"
18500,"1013 MASTERS WAY","LONGVIEW","TX",75605,32.5432863620001,-94.763813467,500,"1013 MASTERS WAY, LONGVIEW, TX, 75605","Match","Exact","1013 MASTERS WAY, LONGVIEW, TX, 75605",648198125,"R"
