"ID","Address","City","State","Zip","lat","long","id","input_address","match_indicator","match_type","matched_address","tiger_line_id","tiger_side"
985001,"PO BOX 35893","PANAMA CITY","FL",32412,NA,NA,1,"PO BOX 35893, PANAMA CITY, FL, 32412","No_Match",NA,NA,NA,NA
985002,"PO BOX 359","BIG TIMBER","MT",59011,NA,NA,2,"PO BOX 359, BIG TIMBER, MT, 59011","No_Match",NA,NA,NA,NA
985003,"PO BOX 359","DIXFIELD","ME",4224,NA,NA,3,"PO BOX 359, DIXFIELD, ME, 4224","No_Match",NA,NA,NA,NA
985004,"PO BOX 359","GRAND SALINE","TX",75140,NA,NA,4,"PO BOX 359, GRAND SALINE, TX, 75140","No_Match",NA,NA,NA,NA
985005,"PO BOX 359","HAILEY","ID",83333,NA,NA,5,"PO BOX 359, HAILEY, ID, 83333","No_Match",NA,NA,NA,NA
985006,"PO BOX 359","SALVO","NC",27972,NA,NA,6,"PO BOX 359, SALVO, NC, 27972","No_Match",NA,NA,NA,NA
985007,"PO BOX 359","SHELTER ISLAND","NY",11964,NA,NA,7,"PO BOX 359, SHELTER ISLAND, NY, 11964","No_Match",NA,NA,NA,NA
985008,"PO BOX 359","SNOQUALMIE","WA",98065,NA,NA,8,"PO BOX 359, SNOQUALMIE, WA, 98065","No_Match",NA,NA,NA,NA
985009,"PO BOX 359","TAHOKA","TX",79373,NA,NA,9,"PO BOX 359, TAHOKA, TX, 79373","No_Match",NA,NA,NA,NA
985010,"PO BOX 359005","GAINESVILLE","FL",32635,NA,NA,10,"PO BOX 359005, GAINESVILLE, FL, 32635","No_Match",NA,NA,NA,NA
985011,"PO BOX 359026","GAINESVILLE","FL",32635,NA,NA,11,"PO BOX 359026, GAINESVILLE, FL, 32635","No_Match",NA,NA,NA,NA
985012,"PO BOX 3591","BOONE","NC",28607,NA,NA,12,"PO BOX 3591, BOONE, NC, 28607","No_Match",NA,NA,NA,NA
985013,"PO BOX 3591","SUWANEE","GA",30024,NA,NA,13,"PO BOX 3591, SUWANEE, GA, 30024","No_Match",NA,NA,NA,NA
985014,"PO BOX 3595","VALDOSTA","GA",31604,NA,NA,14,"PO BOX 3595, VALDOSTA, GA, 31604","No_Match",NA,NA,NA,NA
985015,"PO BOX 35972","TULSA","OK",74153,NA,NA,15,"PO BOX 35972, TULSA, OK, 74153","No_Match",NA,NA,NA,NA
985016,"PO BOX 36","ADIN","CA",96006,NA,NA,16,"PO BOX 36, ADIN, CA, 96006","No_Match",NA,NA,NA,NA
985017,"PO BOX 36","BANGOR","PA",18013,NA,NA,17,"PO BOX 36, BANGOR, PA, 18013","No_Match",NA,NA,NA,NA
985018,"PO BOX 36","BIGGSVILLE","IL",61418,NA,NA,18,"PO BOX 36, BIGGSVILLE, IL, 61418","No_Match",NA,NA,NA,NA
985019,"PO BOX 36","BLACK HAWK","CO",80422,NA,NA,19,"PO BOX 36, BLACK HAWK, CO, 80422","No_Match",NA,NA,NA,NA
985020,"PO BOX 36","BROKEN BOW","NE",68822,NA,NA,20,"PO BOX 36, BROKEN BOW, NE, 68822","No_Match",NA,NA,NA,NA
985021,"PO BOX 36","BUENA","NJ",8310,NA,NA,21,"PO BOX 36, BUENA, NJ, 8310","No_Match",NA,NA,NA,NA
985022,"PO BOX 36","CAMPBELLTON","TX",78008,NA,NA,22,"PO BOX 36, CAMPBELLTON, TX, 78008","No_Match",NA,NA,NA,NA
985023,"PO BOX 36","CASEY","IA",50048,NA,NA,23,"PO BOX 36, CASEY, IA, 50048","No_Match",NA,NA,NA,NA
985024,"PO BOX 36","CAVE JUNCTION","OR",97523,NA,NA,24,"PO BOX 36, CAVE JUNCTION, OR, 97523","No_Match",NA,NA,NA,NA
985025,"PO BOX 36","CHERRYFIELD","ME",4622,NA,NA,25,"PO BOX 36, CHERRYFIELD, ME, 4622","No_Match",NA,NA,NA,NA
985026,"PO BOX 36","COWEN","WV",26206,NA,NA,26,"PO BOX 36, COWEN, WV, 26206","No_Match",NA,NA,NA,NA
985027,"PO BOX 36","CYPRESS","TX",77410,NA,NA,27,"PO BOX 36, CYPRESS, TX, 77410","No_Match",NA,NA,NA,NA
985028,"PO BOX 36","DRASCO","AR",72530,NA,NA,28,"PO BOX 36, DRASCO, AR, 72530","No_Match",NA,NA,NA,NA
985029,"PO BOX 36","EAGLE BUTTE","SD",57605,NA,NA,29,"PO BOX 36, EAGLE BUTTE, SD, 57605","No_Match",NA,NA,NA,NA
985030,"PO BOX 36","EDEN","NY",14057,NA,NA,30,"PO BOX 36, EDEN, NY, 14057","No_Match",NA,NA,NA,NA
985031,"PO BOX 36","EL PASO","TX",79940,NA,NA,31,"PO BOX 36, EL PASO, TX, 79940","No_Match",NA,NA,NA,NA
985032,"PO BOX 36","EUDORA","KS",66025,NA,NA,32,"PO BOX 36, EUDORA, KS, 66025","No_Match",NA,NA,NA,NA
985033,"PO BOX 36","FRANKLIN","NH",3235,NA,NA,33,"PO BOX 36, FRANKLIN, NH, 3235","No_Match",NA,NA,NA,NA
985034,"PO BOX 36","GILBERT","AZ",85299,NA,NA,34,"PO BOX 36, GILBERT, AZ, 85299","No_Match",NA,NA,NA,NA
985035,"PO BOX 36","GREENSBORO","NC",27402,NA,NA,35,"PO BOX 36, GREENSBORO, NC, 27402","No_Match",NA,NA,NA,NA
985036,"PO BOX 36","HALLANDALE","FL",33008,NA,NA,36,"PO BOX 36, HALLANDALE, FL, 33008","No_Match",NA,NA,NA,NA
985037,"PO BOX 36","HARDIN","MT",59034,NA,NA,37,"PO BOX 36, HARDIN, MT, 59034","No_Match",NA,NA,NA,NA
985038,"PO BOX 36","HARRODSBURG","KY",40330,NA,NA,38,"PO BOX 36, HARRODSBURG, KY, 40330","No_Match",NA,NA,NA,NA
985039,"PO BOX 36","INGRAM","KY",40955,NA,NA,39,"PO BOX 36, INGRAM, KY, 40955","No_Match",NA,NA,NA,NA
985040,"PO BOX 36","JORDANVILLE","NY",13361,NA,NA,40,"PO BOX 36, JORDANVILLE, NY, 13361","No_Match",NA,NA,NA,NA
985041,"PO BOX 36","KENT","NY",14477,NA,NA,41,"PO BOX 36, KENT, NY, 14477","No_Match",NA,NA,NA,NA
985042,"PO BOX 36","LAKE CITY","FL",32056,NA,NA,42,"PO BOX 36, LAKE CITY, FL, 32056","No_Match",NA,NA,NA,NA
985043,"PO BOX 36","LEXINGTON","NY",12492,NA,NA,43,"PO BOX 36, LEXINGTON, NY, 12492","No_Match",NA,NA,NA,NA
985044,"PO BOX 36","LINCOLN","IA",50652,NA,NA,44,"PO BOX 36, LINCOLN, IA, 50652","No_Match",NA,NA,NA,NA
985045,"PO BOX 36","LONE WOLF","OK",73655,NA,NA,45,"PO BOX 36, LONE WOLF, OK, 73655","No_Match",NA,NA,NA,NA
985046,"PO BOX 36","MT EPHIRAM","NJ",8059,NA,NA,46,"PO BOX 36, MT EPHIRAM, NJ, 8059","No_Match",NA,NA,NA,NA
985047,"PO BOX 36","PHILMONT","NY",12565,NA,NA,47,"PO BOX 36, PHILMONT, NY, 12565","No_Match",NA,NA,NA,NA
985048,"PO BOX 36","POUND RIDGE","NY",10576,NA,NA,48,"PO BOX 36, POUND RIDGE, NY, 10576","No_Match",NA,NA,NA,NA
985049,"PO BOX 36","POWHATAN","AR",72458,NA,NA,49,"PO BOX 36, POWHATAN, AR, 72458","No_Match",NA,NA,NA,NA
985050,"PO BOX 36","ROUND ROCK","TX",78680,NA,NA,50,"PO BOX 36, ROUND ROCK, TX, 78680","No_Match",NA,NA,NA,NA
985051,"PO BOX 36","SALADO","TX",76571,NA,NA,51,"PO BOX 36, SALADO, TX, 76571","No_Match",NA,NA,NA,NA
985052,"PO BOX 36","SHELDON SPRINGS","VT",5485,NA,NA,52,"PO BOX 36, SHELDON SPRINGS, VT, 5485","No_Match",NA,NA,NA,NA
985053,"PO BOX 36","STONINGTON","ME",4681,NA,NA,53,"PO BOX 36, STONINGTON, ME, 4681","No_Match",NA,NA,NA,NA
985054,"PO BOX 36","TIMBO","AR",72680,NA,NA,54,"PO BOX 36, TIMBO, AR, 72680","No_Match",NA,NA,NA,NA
985055,"PO BOX 36","TISHOMINGO","OK",73460,NA,NA,55,"PO BOX 36, TISHOMINGO, OK, 73460","No_Match",NA,NA,NA,NA
985056,"PO BOX 36","UNDERWOOD","IA",51576,NA,NA,56,"PO BOX 36, UNDERWOOD, IA, 51576","No_Match",NA,NA,NA,NA
985057,"PO BOX 36","UNION CITY","GA",30291,NA,NA,57,"PO BOX 36, UNION CITY, GA, 30291","No_Match",NA,NA,NA,NA
985058,"PO BOX 36","WAPITI","WY",82450,NA,NA,58,"PO BOX 36, WAPITI, WY, 82450","No_Match",NA,NA,NA,NA
985059,"PO BOX 36","WEST KILL","NY",12492,NA,NA,59,"PO BOX 36, WEST KILL, NY, 12492","No_Match",NA,NA,NA,NA
985060,"PO BOX 36","YORK","ME",3909,NA,NA,60,"PO BOX 36, YORK, ME, 3909","No_Match",NA,NA,NA,NA
985061,"PO BOX 360","DUMAS","TX",79029,NA,NA,61,"PO BOX 360, DUMAS, TX, 79029","No_Match",NA,NA,NA,NA
985062,"PO BOX 360","FREDERICKSBURG","VA",22404,NA,NA,62,"PO BOX 360, FREDERICKSBURG, VA, 22404","No_Match",NA,NA,NA,NA
985063,"PO BOX 360","HARDIN","TX",77561,NA,NA,63,"PO BOX 360, HARDIN, TX, 77561","No_Match",NA,NA,NA,NA
985064,"PO BOX 360","HILL CITY","SD",57745,NA,NA,64,"PO BOX 360, HILL CITY, SD, 57745","No_Match",NA,NA,NA,NA
985065,"PO BOX 360","NAALEHU","HI",96772,NA,NA,65,"PO BOX 360, NAALEHU, HI, 96772","No_Match",NA,NA,NA,NA
985066,"PO BOX 360","NEW YORK","NY",10163,NA,NA,66,"PO BOX 360, NEW YORK, NY, 10163","No_Match",NA,NA,NA,NA
985067,"PO BOX 360","NIOTA","TN",37826,NA,NA,67,"PO BOX 360, NIOTA, TN, 37826","No_Match",NA,NA,NA,NA
985068,"PO BOX 360","UNDERHILL","VT",5489,NA,NA,68,"PO BOX 360, UNDERHILL, VT, 5489","No_Match",NA,NA,NA,NA
985069,"PO Box 360","WRIGHTWOOD","CA",92397,NA,NA,69,"PO Box 360, WRIGHTWOOD, CA, 92397","No_Match",NA,NA,NA,NA
985070,"PO BOX 360138","STRONGSVILLE","OH",44136,NA,NA,70,"PO BOX 360138, STRONGSVILLE, OH, 44136","No_Match",NA,NA,NA,NA
985071,"PO BOX 3602","POUGHKEEPSIE","NY",12603,NA,NA,71,"PO BOX 3602, POUGHKEEPSIE, NY, 12603","No_Match",NA,NA,NA,NA
985072,"PO BOX 360218","MELBOURNE","FL",32936,NA,NA,72,"PO BOX 360218, MELBOURNE, FL, 32936","No_Match",NA,NA,NA,NA
985073,"PO BOX 3603","WILMINGTON","DE",19807,NA,NA,73,"PO BOX 3603, WILMINGTON, DE, 19807","No_Match",NA,NA,NA,NA
985074,"PO BOX 36030","GREENSBORO","NC",27416,NA,NA,74,"PO BOX 36030, GREENSBORO, NC, 27416","No_Match",NA,NA,NA,NA
985075,"PO BOX 3604","SEWARD","AK",99664,NA,NA,75,"PO BOX 3604, SEWARD, AK, 99664","No_Match",NA,NA,NA,NA
985076,"PO BOX 36061","CHARLOTTE","NC",28236,NA,NA,76,"PO BOX 36061, CHARLOTTE, NC, 28236","No_Match",NA,NA,NA,NA
985077,"PO BOX 36062","GROSSE POINTE FARMS","MI",48236,NA,NA,77,"PO BOX 36062, GROSSE POINTE FARMS, MI, 48236","No_Match",NA,NA,NA,NA
985078,"PO BOX 360645","MELBOURNE","FL",32936,NA,NA,78,"PO BOX 360645, MELBOURNE, FL, 32936","No_Match",NA,NA,NA,NA
985079,"PO BOX 360671","SAN JUAN","PR",936,NA,NA,79,"PO BOX 360671, SAN JUAN, PR, 936","No_Match",NA,NA,NA,NA
985080,"PO BOX 36068","INDIANAPOLIAS","IN",46055,NA,NA,80,"PO BOX 36068, INDIANAPOLIAS, IN, 46055","No_Match",NA,NA,NA,NA
985081,"PO BOX 36077","GREENSBORO","NC",27416,NA,NA,81,"PO BOX 36077, GREENSBORO, NC, 27416","No_Match",NA,NA,NA,NA
985082,"PO BOX 360861","MELBOURNE","FL",32936,NA,NA,82,"PO BOX 360861, MELBOURNE, FL, 32936","No_Match",NA,NA,NA,NA
985083,"PO BOX 360906","LOS ANGELES","CA",90036,NA,NA,83,"PO BOX 360906, LOS ANGELES, CA, 90036","No_Match",NA,NA,NA,NA
985084,"PO BOX 360909","DECATUR","GA",30036,NA,NA,84,"PO BOX 360909, DECATUR, GA, 30036","No_Match",NA,NA,NA,NA
985085,"PO BOX 361","ARCADIA","OK",73007,NA,NA,85,"PO BOX 361, ARCADIA, OK, 73007","No_Match",NA,NA,NA,NA
985086,"PO BOX 361","BARKHAMSTED","CT",6063,NA,NA,86,"PO BOX 361, BARKHAMSTED, CT, 6063","No_Match",NA,NA,NA,NA
985087,"PO BOX 361","BONDUEL","WI",54107,NA,NA,87,"PO BOX 361, BONDUEL, WI, 54107","No_Match",NA,NA,NA,NA
985088,"PO BOX 361","CARSON","WA",98610,NA,NA,88,"PO BOX 361, CARSON, WA, 98610","No_Match",NA,NA,NA,NA
985089,"PO BOX 361","CHECOTAH","OK",74426,NA,NA,89,"PO BOX 361, CHECOTAH, OK, 74426","No_Match",NA,NA,NA,NA
985090,"PO BOX 361","CRESTED BUTTE","CO",81224,NA,NA,90,"PO BOX 361, CRESTED BUTTE, CO, 81224","No_Match",NA,NA,NA,NA
985091,"PO BOX 361","HOLLY","MI",48442,NA,NA,91,"PO BOX 361, HOLLY, MI, 48442","No_Match",NA,NA,NA,NA
985092,"PO BOX 361","KAUFMAN","TX",75142,NA,NA,92,"PO BOX 361, KAUFMAN, TX, 75142","No_Match",NA,NA,NA,NA
985093,"PO BOX 361","LEBANON","IN",46052,NA,NA,93,"PO BOX 361, LEBANON, IN, 46052","No_Match",NA,NA,NA,NA
985094,"PO BOX 361","MAUGENSVILLE","MD",21767,NA,NA,94,"PO BOX 361, MAUGENSVILLE, MD, 21767","No_Match",NA,NA,NA,NA
985095,"PO BOX 361","MAYSVILLE","WV",26833,NA,NA,95,"PO BOX 361, MAYSVILLE, WV, 26833","No_Match",NA,NA,NA,NA
985096,"PO BOX 361","MENTOR","OH",44061,NA,NA,96,"PO BOX 361, MENTOR, OH, 44061","No_Match",NA,NA,NA,NA
985097,"PO BOX 361","MONROE","WA",98272,NA,NA,97,"PO BOX 361, MONROE, WA, 98272","No_Match",NA,NA,NA,NA
985098,"PO BOX 361","NICHOLASVILLE","KY",40340,NA,NA,98,"PO BOX 361, NICHOLASVILLE, KY, 40340","No_Match",NA,NA,NA,NA
985099,"PO BOX 361","NORTHFORK","WV",24868,NA,NA,99,"PO BOX 361, NORTHFORK, WV, 24868","No_Match",NA,NA,NA,NA
985100,"PO BOX 361","PROSSER","WA",99350,NA,NA,100,"PO BOX 361, PROSSER, WA, 99350","No_Match",NA,NA,NA,NA
985101,"PO BOX 361","SCOTLAND","PA",17254,NA,NA,101,"PO BOX 361, SCOTLAND, PA, 17254","No_Match",NA,NA,NA,NA
985102,"PO BOX 361","WHITESBURG","GA",30185,NA,NA,102,"PO BOX 361, WHITESBURG, GA, 30185","No_Match",NA,NA,NA,NA
985103,"PO BOX 361","WINTER PARK","CO",80482,NA,NA,103,"PO BOX 361, WINTER PARK, CO, 80482","No_Match",NA,NA,NA,NA
985104,"PO BOX 3610","INCLINE VILLAGE","NV",89450,NA,NA,104,"PO BOX 3610, INCLINE VILLAGE, NV, 89450","No_Match",NA,NA,NA,NA
985105,"PO BOX 3610","PINEHURST","NC",28374,NA,NA,105,"PO BOX 3610, PINEHURST, NC, 28374","No_Match",NA,NA,NA,NA
985106,"PO BOX 36101","GREENSBORO","NC",27416,NA,NA,106,"PO BOX 36101, GREENSBORO, NC, 27416","No_Match",NA,NA,NA,NA
985107,"PO BOX 361029","DACATUR","GA",30036,NA,NA,107,"PO BOX 361029, DACATUR, GA, 30036","No_Match",NA,NA,NA,NA
985108,"PO BOX 3611","ENGLEWOOD","CO",80155,NA,NA,108,"PO BOX 3611, ENGLEWOOD, CO, 80155","No_Match",NA,NA,NA,NA
985109,"PO BOX 36112","DENVER","CO",80236,NA,NA,109,"PO BOX 36112, DENVER, CO, 80236","No_Match",NA,NA,NA,NA
985110,"PO BOX 361158","STRONGSVILLE","OH",44136,NA,NA,110,"PO BOX 361158, STRONGSVILLE, OH, 44136","No_Match",NA,NA,NA,NA
985111,"PO BOX 36123","ALBUQUERQUE","NM",87176,NA,NA,111,"PO BOX 36123, ALBUQUERQUE, NM, 87176","No_Match",NA,NA,NA,NA
985112,"PO BOX 361416","MELBOURNE","FL",32936,NA,NA,112,"PO BOX 361416, MELBOURNE, FL, 32936","No_Match",NA,NA,NA,NA
985113,"PO BOX 36144","LOUISVILLE","KY",40233,NA,NA,113,"PO BOX 36144, LOUISVILLE, KY, 40233","No_Match",NA,NA,NA,NA
985114,"PO BOX 361483","LOS ANGELES","CA",90036,NA,NA,114,"PO BOX 361483, LOS ANGELES, CA, 90036","No_Match",NA,NA,NA,NA
985115,"PO BOX 361503","DECATUR","GA",30036,NA,NA,115,"PO BOX 361503, DECATUR, GA, 30036","No_Match",NA,NA,NA,NA
985116,"PO BOX 361895","DECATUR","GA",30036,NA,NA,116,"PO BOX 361895, DECATUR, GA, 30036","No_Match",NA,NA,NA,NA
985117,"PO BOX 361969","DECATUR","GA",30034,NA,NA,117,"PO BOX 361969, DECATUR, GA, 30034","No_Match",NA,NA,NA,NA
985118,"PO BOX 362","ADAMSTOWN","PA",19501,NA,NA,118,"PO BOX 362, ADAMSTOWN, PA, 19501","No_Match",NA,NA,NA,NA
985119,"PO BOX 362","ALBURGH","VT",5440,NA,NA,119,"PO BOX 362, ALBURGH, VT, 5440","No_Match",NA,NA,NA,NA
985120,"PO BOX 362","BALATON","MN",56115,NA,NA,120,"PO BOX 362, BALATON, MN, 56115","No_Match",NA,NA,NA,NA
985121,"PO BOX 362","BELLE","MO",65013,NA,NA,121,"PO BOX 362, BELLE, MO, 65013","No_Match",NA,NA,NA,NA
985122,"PO BOX 362","BOVINA","TX",79009,NA,NA,122,"PO BOX 362, BOVINA, TX, 79009","No_Match",NA,NA,NA,NA
985123,"PO BOX 362","CADDO MILLS","TX",75135,NA,NA,123,"PO BOX 362, CADDO MILLS, TX, 75135","No_Match",NA,NA,NA,NA
985124,"PO BOX 362","CALHOUN","GA",30703,NA,NA,124,"PO BOX 362, CALHOUN, GA, 30703","No_Match",NA,NA,NA,NA
985125,"PO BOX 362","CATAUMET","MA",2534,NA,NA,125,"PO BOX 362, CATAUMET, MA, 2534","No_Match",NA,NA,NA,NA
985126,"PO BOX 362","ELKO","NV",89803,NA,NA,126,"PO BOX 362, ELKO, NV, 89803","No_Match",NA,NA,NA,NA
985127,"PO BOX 362","FITZGERALD","GA",31750,NA,NA,127,"PO BOX 362, FITZGERALD, GA, 31750","No_Match",NA,NA,NA,NA
985128,"PO BOX 362","HALIFAX","NC",24558,NA,NA,128,"PO BOX 362, HALIFAX, NC, 24558","No_Match",NA,NA,NA,NA
985129,"PO BOX 362","HALIFAX","VA",24558,NA,NA,129,"PO BOX 362, HALIFAX, VA, 24558","No_Match",NA,NA,NA,NA
985130,"PO BOX 362","HARPERS FERRY","WV",25425,NA,NA,130,"PO BOX 362, HARPERS FERRY, WV, 25425","No_Match",NA,NA,NA,NA
985131,"PO BOX 362","HAWTHORNE","NJ",7507,NA,NA,131,"PO BOX 362, HAWTHORNE, NJ, 7507","No_Match",NA,NA,NA,NA
985132,"PO BOX 362","HERON LAKE","MN",56137,NA,NA,132,"PO BOX 362, HERON LAKE, MN, 56137","No_Match",NA,NA,NA,NA
985133,"PO BOX 362","KIMMER","WY",82576,NA,NA,133,"PO BOX 362, KIMMER, WY, 82576","No_Match",NA,NA,NA,NA
985134,"PO BOX 362","LEXINGTON","TX",78947,NA,NA,134,"PO BOX 362, LEXINGTON, TX, 78947","No_Match",NA,NA,NA,NA
985135,"PO BOX 362","MIDDLEFIELD","OH",44062,NA,NA,135,"PO BOX 362, MIDDLEFIELD, OH, 44062","No_Match",NA,NA,NA,NA
985136,"PO BOX 362","NINETY SIZ","SC",29666,NA,NA,136,"PO BOX 362, NINETY SIZ, SC, 29666","No_Match",NA,NA,NA,NA
985137,"PO BOX 362","RACINE","OH",45771,NA,NA,137,"PO BOX 362, RACINE, OH, 45771","No_Match",NA,NA,NA,NA
985138,"PO BOX 362","ROWLETT","TX",75030,NA,NA,138,"PO BOX 362, ROWLETT, TX, 75030","No_Match",NA,NA,NA,NA
985139,"PO BOX 362","SAN DIMAS","CA",91773,NA,NA,139,"PO BOX 362, SAN DIMAS, CA, 91773","No_Match",NA,NA,NA,NA
985140,"PO BOX 362","SHOSHONI","WY",82649,NA,NA,140,"PO BOX 362, SHOSHONI, WY, 82649","No_Match",NA,NA,NA,NA
985141,"PO BOX 362","SOUTH CHARLESON","OH",45368,NA,NA,141,"PO BOX 362, SOUTH CHARLESON, OH, 45368","No_Match",NA,NA,NA,NA
985142,"PO BOX 362","WRANGELL","AK",99929,NA,NA,142,"PO BOX 362, WRANGELL, AK, 99929","No_Match",NA,NA,NA,NA
985143,"PO BOX 36202","CINCINNATI","OH",45236,NA,NA,143,"PO BOX 36202, CINCINNATI, OH, 45236","No_Match",NA,NA,NA,NA
985144,"PO BOX 362034","SAN JUAN","PR",936,NA,NA,144,"PO BOX 362034, SAN JUAN, PR, 936","No_Match",NA,NA,NA,NA
985145,"PO BOX 362038","DECATUR","GA",30034,NA,NA,145,"PO BOX 362038, DECATUR, GA, 30034","No_Match",NA,NA,NA,NA
985146,"PO BOX 36211","SAN JOSE","CA",95158,NA,NA,146,"PO BOX 36211, SAN JOSE, CA, 95158","No_Match",NA,NA,NA,NA
985147,"PO BOX 362151","BIRMINGHAM","AL",35236,NA,NA,147,"PO BOX 362151, BIRMINGHAM, AL, 35236","No_Match",NA,NA,NA,NA
985148,"PO BOX 362331","MILPITAS","CA",95036,NA,NA,148,"PO BOX 362331, MILPITAS, CA, 95036","No_Match",NA,NA,NA,NA
985149,"PO BOX 362351","SAN JUAN","PR",936,NA,NA,149,"PO BOX 362351, SAN JUAN, PR, 936","No_Match",NA,NA,NA,NA
985150,"PO BOX 3624","JACKSON","WY",83001,NA,NA,150,"PO BOX 3624, JACKSON, WY, 83001","No_Match",NA,NA,NA,NA
985151,"PO BOX 362573","SAN JUAN","PR",936,NA,NA,151,"PO BOX 362573, SAN JUAN, PR, 936","No_Match",NA,NA,NA,NA
985152,"PO BOX 3627","HIGHLAND PARK","MI",48203,NA,NA,152,"PO BOX 3627, HIGHLAND PARK, MI, 48203","No_Match",NA,NA,NA,NA
985153,"PO BOX 3628","MARTINSVILLE","VA",24115,NA,NA,153,"PO BOX 3628, MARTINSVILLE, VA, 24115","No_Match",NA,NA,NA,NA
985154,"PO BOX 362855","SAN JUAN","PR",936,NA,NA,154,"PO BOX 362855, SAN JUAN, PR, 936","No_Match",NA,NA,NA,NA
985155,"PO BOX 3629","SUNRIVER","OR",97707,NA,NA,155,"PO BOX 3629, SUNRIVER, OR, 97707","No_Match",NA,NA,NA,NA
985156,"PO BOX 363","BARTLESVILLE","OK",74005,NA,NA,156,"PO BOX 363, BARTLESVILLE, OK, 74005","No_Match",NA,NA,NA,NA
985157,"PO BOX 363","CLIFTON PARK","NY",12065,NA,NA,157,"PO BOX 363, CLIFTON PARK, NY, 12065","No_Match",NA,NA,NA,NA
985158,"PO BOX 363","COBDEN","IL",62920,NA,NA,158,"PO BOX 363, COBDEN, IL, 62920","No_Match",NA,NA,NA,NA
985159,"PO BOX 363","DUMAS","TX",79029,NA,NA,159,"PO BOX 363, DUMAS, TX, 79029","No_Match",NA,NA,NA,NA
985160,"PO BOX 363","HARRODSBURG","KY",40330,NA,NA,160,"PO BOX 363, HARRODSBURG, KY, 40330","No_Match",NA,NA,NA,NA
985161,"PO BOX 363","HAYFIELD","MN",55940,NA,NA,161,"PO BOX 363, HAYFIELD, MN, 55940","No_Match",NA,NA,NA,NA
985162,"PO BOX 363","LOUISBURG","NC",27549,NA,NA,162,"PO BOX 363, LOUISBURG, NC, 27549","No_Match",NA,NA,NA,NA
985163,"PO BOX 363","MELVIN VILLAGE","NH",3850,NA,NA,163,"PO BOX 363, MELVIN VILLAGE, NH, 3850","No_Match",NA,NA,NA,NA
985164,"PO BOX 363","MISSOURI CITY","TX",77459,NA,NA,164,"PO BOX 363, MISSOURI CITY, TX, 77459","No_Match",NA,NA,NA,NA
985165,"PO BOX 363","PALMER","AK",99645,NA,NA,165,"PO BOX 363, PALMER, AK, 99645","No_Match",NA,NA,NA,NA
985166,"PO BOX 363","PALOUSE","WA",99161,NA,NA,166,"PO BOX 363, PALOUSE, WA, 99161","No_Match",NA,NA,NA,NA
985167,"PO BOX 363","STAR CITY","AR",71667,NA,NA,167,"PO BOX 363, STAR CITY, AR, 71667","No_Match",NA,NA,NA,NA
985168,"PO BOX 363","TOLLESBORO","KY",44189,NA,NA,168,"PO BOX 363, TOLLESBORO, KY, 44189","No_Match",NA,NA,NA,NA
985169,"PO BOX 363","VAUGHN","WA",98394,NA,NA,169,"PO BOX 363, VAUGHN, WA, 98394","No_Match",NA,NA,NA,NA
985170,"PO BOX 363","ZIONSVILLE","IN",46077,NA,NA,170,"PO BOX 363, ZIONSVILLE, IN, 46077","No_Match",NA,NA,NA,NA
985171,"PO BOX 363086","SAN JUAN","PR",936,NA,NA,171,"PO BOX 363086, SAN JUAN, PR, 936","No_Match",NA,NA,NA,NA
985172,"PO BOX 363162","NORTH LAS VEGAS","NV",89036,NA,NA,172,"PO BOX 363162, NORTH LAS VEGAS, NV, 89036","No_Match",NA,NA,NA,NA
985173,"PO BOX 363183","NORTH LAS VEGAS","NV",89131,NA,NA,173,"PO BOX 363183, NORTH LAS VEGAS, NV, 89131","No_Match",NA,NA,NA,NA
985174,"PO BOX 3632","NAMPA","ID",83653,NA,NA,174,"PO BOX 3632, NAMPA, ID, 83653","No_Match",NA,NA,NA,NA
985175,"PO BOX 3633","ARIZONA CITY","AZ",85123,NA,NA,175,"PO BOX 3633, ARIZONA CITY, AZ, 85123","No_Match",NA,NA,NA,NA
985176,"PO BOX 3633","HUNTINGTON BEACH","CA",92605,NA,NA,176,"PO BOX 3633, HUNTINGTON BEACH, CA, 92605","No_Match",NA,NA,NA,NA
985177,"PO BOX 36341","DES MOINES","IA",50315,NA,NA,177,"PO BOX 36341, DES MOINES, IA, 50315","No_Match",NA,NA,NA,NA
985178,"PO BOX 3635","HUNTSVILLE","AL",35810,NA,NA,178,"PO BOX 3635, HUNTSVILLE, AL, 35810","No_Match",NA,NA,NA,NA
985179,"PO BOX 3635","QUINLAN","TX",75474,NA,NA,179,"PO BOX 3635, QUINLAN, TX, 75474","No_Match",NA,NA,NA,NA
985180,"PO BOX 36354","GROSSE POINTE FARMS","MI",48236,NA,NA,180,"PO BOX 36354, GROSSE POINTE FARMS, MI, 48236","No_Match",NA,NA,NA,NA
985181,"PO BOX 3636","AMARILLO","TX",79116,NA,NA,181,"PO BOX 3636, AMARILLO, TX, 79116","No_Match",NA,NA,NA,NA
985182,"PO BOX 3636","GRAPEVINE","TX",76099,NA,NA,182,"PO BOX 3636, GRAPEVINE, TX, 76099","No_Match",NA,NA,NA,NA
985183,"PO BOX 3636","KETCHUM","ID",83340,NA,NA,183,"PO BOX 3636, KETCHUM, ID, 83340","No_Match",NA,NA,NA,NA
985184,"PO BOX 3636","PHILADELPHIA","PA",19122,NA,NA,184,"PO BOX 3636, PHILADELPHIA, PA, 19122","No_Match",NA,NA,NA,NA
985185,"PO BOX 3638","BRANDON","FL",33509,NA,NA,185,"PO BOX 3638, BRANDON, FL, 33509","No_Match",NA,NA,NA,NA
985186,"PO BOX 3638","MIDWAY","KY",40347,NA,NA,186,"PO BOX 3638, MIDWAY, KY, 40347","No_Match",NA,NA,NA,NA
985187,"PO BOX 36382","LOUISVILLE","KY",40232,NA,NA,187,"PO BOX 36382, LOUISVILLE, KY, 40232","No_Match",NA,NA,NA,NA
985188,"PO BOX 364","BATTLE GROUND","WA",98604,NA,NA,188,"PO BOX 364, BATTLE GROUND, WA, 98604","No_Match",NA,NA,NA,NA
985189,"PO BOX 364","BURNS","OR",97720,NA,NA,189,"PO BOX 364, BURNS, OR, 97720","No_Match",NA,NA,NA,NA
985190,"PO BOX 364","CANTON","TX",75103,NA,NA,190,"PO BOX 364, CANTON, TX, 75103","No_Match",NA,NA,NA,NA
985191,"PO BOX 364","CHINCHILLA","PA",18410,NA,NA,191,"PO BOX 364, CHINCHILLA, PA, 18410","No_Match",NA,NA,NA,NA
985192,"PO BOX 364","DAWSON","IL",62520,NA,NA,192,"PO BOX 364, DAWSON, IL, 62520","No_Match",NA,NA,NA,NA
985193,"PO BOX 364","FARMERVILLE","LA",71241,NA,NA,193,"PO BOX 364, FARMERVILLE, LA, 71241","No_Match",NA,NA,NA,NA
985194,"PO BOX 364","GOLIAD","TX",77963,NA,NA,194,"PO BOX 364, GOLIAD, TX, 77963","No_Match",NA,NA,NA,NA
985195,"PO BOX 364","GUILFORD","ME",4443,NA,NA,195,"PO BOX 364, GUILFORD, ME, 4443","No_Match",NA,NA,NA,NA
985196,"PO BOX 364","JAMISON","PA",18929,NA,NA,196,"PO BOX 364, JAMISON, PA, 18929","No_Match",NA,NA,NA,NA
985197,"PO BOX 364","MAXWELL","IA",50161,NA,NA,197,"PO BOX 364, MAXWELL, IA, 50161","No_Match",NA,NA,NA,NA
985198,"PO BOX 364","MORA","NM",87732,NA,NA,198,"PO BOX 364, MORA, NM, 87732","No_Match",NA,NA,NA,NA
985199,"PO BOX 364","NORTH MANCHESTER","IN",46962,NA,NA,199,"PO BOX 364, NORTH MANCHESTER, IN, 46962","No_Match",NA,NA,NA,NA
985200,"PO BOX 364","NOWATA","OK",74053,NA,NA,200,"PO BOX 364, NOWATA, OK, 74053","No_Match",NA,NA,NA,NA
985201,"PO BOX 364","NYACK","NY",10960,NA,NA,201,"PO BOX 364, NYACK, NY, 10960","No_Match",NA,NA,NA,NA
985202,"PO BOX 364","OOLOGAH","OK",74053,NA,NA,202,"PO BOX 364, OOLOGAH, OK, 74053","No_Match",NA,NA,NA,NA
985203,"PO BOX 364","ORGAN","NM",88052,NA,NA,203,"PO BOX 364, ORGAN, NM, 88052","No_Match",NA,NA,NA,NA
985204,"PO BOX 364","OURAY","CO",81427,NA,NA,204,"PO BOX 364, OURAY, CO, 81427","No_Match",NA,NA,NA,NA
985205,"PO BOX 364","OWINGS","MD",20736,NA,NA,205,"PO BOX 364, OWINGS, MD, 20736","No_Match",NA,NA,NA,NA
985206,"PO BOX 364","PABLO","MT",59855,NA,NA,206,"PO BOX 364, PABLO, MT, 59855","No_Match",NA,NA,NA,NA
985207,"PO BOX 364","PALOUSE","WA",99161,NA,NA,207,"PO BOX 364, PALOUSE, WA, 99161","No_Match",NA,NA,NA,NA
985208,"PO BOX 364","ROSEVILLE","MI",48066,NA,NA,208,"PO BOX 364, ROSEVILLE, MI, 48066","No_Match",NA,NA,NA,NA
985209,"PO BOX 364","SENOIA","GA",30276,NA,NA,209,"PO BOX 364, SENOIA, GA, 30276","No_Match",NA,NA,NA,NA
985210,"PO BOX 364","TISHOMINGO","OK",73460,NA,NA,210,"PO BOX 364, TISHOMINGO, OK, 73460","No_Match",NA,NA,NA,NA
985211,"PO BOX 364","VACAVILLE","CA",95696,NA,NA,211,"PO BOX 364, VACAVILLE, CA, 95696","No_Match",NA,NA,NA,NA
985212,"PO BOX 364","VALDOSTA","GA",31601,NA,NA,212,"PO BOX 364, VALDOSTA, GA, 31601","No_Match",NA,NA,NA,NA
985213,"PO BOX 364","WACO","NC",28120,NA,NA,213,"PO BOX 364, WACO, NC, 28120","No_Match",NA,NA,NA,NA
985214,"PO BOX 364","WACO","NC",28169,NA,NA,214,"PO BOX 364, WACO, NC, 28169","No_Match",NA,NA,NA,NA
985215,"PO BOX 364","YAMHILL","OR",97148,NA,NA,215,"PO BOX 364, YAMHILL, OR, 97148","No_Match",NA,NA,NA,NA
985216,"PO BOX 364014","NORTH LAS VEGAS","NV",89036,NA,NA,216,"PO BOX 364014, NORTH LAS VEGAS, NV, 89036","No_Match",NA,NA,NA,NA
985217,"PO BOX 36402","CINCINNATI","OH",45236,NA,NA,217,"PO BOX 36402, CINCINNATI, OH, 45236","No_Match",NA,NA,NA,NA
985218,"PO BOX 36403","DENVER","CO",80236,NA,NA,218,"PO BOX 36403, DENVER, CO, 80236","No_Match",NA,NA,NA,NA
985219,"PO BOX 364087","SAN JUAN","PR",936,NA,NA,219,"PO BOX 364087, SAN JUAN, PR, 936","No_Match",NA,NA,NA,NA
985220,"PO BOX 364148","SAN JUAN","PR",936,NA,NA,220,"PO BOX 364148, SAN JUAN, PR, 936","No_Match",NA,NA,NA,NA
985221,"PO BOX 36442","CHARLOTTE","NC",28236,NA,NA,221,"PO BOX 36442, CHARLOTTE, NC, 28236","No_Match",NA,NA,NA,NA
985222,"PO BOX 364433","NORTH LAS VEGAS","NV",89036,NA,NA,222,"PO BOX 364433, NORTH LAS VEGAS, NV, 89036","No_Match",NA,NA,NA,NA
985223,"PO BOX 364447","SAN JUAN","PR",936,NA,NA,223,"PO BOX 364447, SAN JUAN, PR, 936","No_Match",NA,NA,NA,NA
985224,"PO BOX 3645","SIERRA VISTA","AZ",85636,NA,NA,224,"PO BOX 3645, SIERRA VISTA, AZ, 85636","No_Match",NA,NA,NA,NA
985225,"PO BOX 3646","PHOENIX","AZ",85030,NA,NA,225,"PO BOX 3646, PHOENIX, AZ, 85030","No_Match",NA,NA,NA,NA
985226,"PO BOX 3648","WENATCHEE","WA",98807,NA,NA,226,"PO BOX 3648, WENATCHEE, WA, 98807","No_Match",NA,NA,NA,NA
985227,"PO BOX 365","AMSTERDAM","NY",12010,NA,NA,227,"PO BOX 365, AMSTERDAM, NY, 12010","No_Match",NA,NA,NA,NA
985228,"PO BOX 365","BATESVILLE","IN",47006,NA,NA,228,"PO BOX 365, BATESVILLE, IN, 47006","No_Match",NA,NA,NA,NA
985229,"PO BOX 365","CATAUMET","MA",2534,NA,NA,229,"PO BOX 365, CATAUMET, MA, 2534","No_Match",NA,NA,NA,NA
985230,"PO BOX 365","CHAUMONT","NY",13622,NA,NA,230,"PO BOX 365, CHAUMONT, NY, 13622","No_Match",NA,NA,NA,NA
985231,"PO BOX 365","CHESTERTOWN","NY",12817,NA,NA,231,"PO BOX 365, CHESTERTOWN, NY, 12817","No_Match",NA,NA,NA,NA
985232,"PO BOX 365","COEUR D ALENE","ID",83816,NA,NA,232,"PO BOX 365, COEUR D ALENE, ID, 83816","No_Match",NA,NA,NA,NA
985233,"PO BOX 365","GLOBE","AZ",85502,NA,NA,233,"PO BOX 365, GLOBE, AZ, 85502","No_Match",NA,NA,NA,NA
985234,"PO BOX 365","HARTSHORNE","OK",74547,NA,NA,234,"PO BOX 365, HARTSHORNE, OK, 74547","No_Match",NA,NA,NA,NA
985235,"PO BOX 365","HOLYOKE","CO",80734,NA,NA,235,"PO BOX 365, HOLYOKE, CO, 80734","No_Match",NA,NA,NA,NA
985236,"PO BOX 365","KNIGHTS LANDING","CA",95645,NA,NA,236,"PO BOX 365, KNIGHTS LANDING, CA, 95645","No_Match",NA,NA,NA,NA
985237,"PO BOX 365","LAWTON","OK",73502,NA,NA,237,"PO BOX 365, LAWTON, OK, 73502","No_Match",NA,NA,NA,NA
985238,"PO BOX 365","LITTLEROCK","CA",93543,NA,NA,238,"PO BOX 365, LITTLEROCK, CA, 93543","No_Match",NA,NA,NA,NA
985239,"PO BOX 365","LITTLETON","NC",27850,NA,NA,239,"PO BOX 365, LITTLETON, NC, 27850","No_Match",NA,NA,NA,NA
985240,"PO BOX 365","MABLETON","GA",30126,NA,NA,240,"PO BOX 365, MABLETON, GA, 30126","No_Match",NA,NA,NA,NA
985241,"PO BOX 365","MATHER","PA",15346,NA,NA,241,"PO BOX 365, MATHER, PA, 15346","No_Match",NA,NA,NA,NA
985242,"PO BOX 365","PETERSBURG","AK",99833,NA,NA,242,"PO BOX 365, PETERSBURG, AK, 99833","No_Match",NA,NA,NA,NA
985243,"PO BOX 365","SILVERTON","CO",81433,NA,NA,243,"PO BOX 365, SILVERTON, CO, 81433","No_Match",NA,NA,NA,NA
985244,"PO BOX 365","SOMERS","MT",59932,NA,NA,244,"PO BOX 365, SOMERS, MT, 59932","No_Match",NA,NA,NA,NA
985245,"PO BOX 365","SOUTH HERO","VT",5486,NA,NA,245,"PO BOX 365, SOUTH HERO, VT, 5486","No_Match",NA,NA,NA,NA
985246,"PO BOX 365","TUNKHANNOCK","PA",18657,NA,NA,246,"PO BOX 365, TUNKHANNOCK, PA, 18657","No_Match",NA,NA,NA,NA
985247,"PO BOX 365","VAIL","CO",81658,NA,NA,247,"PO BOX 365, VAIL, CO, 81658","No_Match",NA,NA,NA,NA
985248,"PO BOX 3650","LIHUE","HI",96766,NA,NA,248,"PO BOX 3650, LIHUE, HI, 96766","No_Match",NA,NA,NA,NA
985249,"PO BOX 3650","OXFORD","AL",36203,NA,NA,249,"PO BOX 3650, OXFORD, AL, 36203","No_Match",NA,NA,NA,NA
985250,"PO BOX 3650","WRIGHTWOOD","CA",92397,NA,NA,250,"PO BOX 3650, WRIGHTWOOD, CA, 92397","No_Match",NA,NA,NA,NA
985251,"PO BOX 3651","LAKE JACKSON","TX",77566,NA,NA,251,"PO BOX 3651, LAKE JACKSON, TX, 77566","No_Match",NA,NA,NA,NA
985252,"PO BOX 3652","SILVER SPRING","MD",20918,NA,NA,252,"PO BOX 3652, SILVER SPRING, MD, 20918","No_Match",NA,NA,NA,NA
985253,"PO BOX 3652","VIRGINIA BEACH","VA",23454,NA,NA,253,"PO BOX 3652, VIRGINIA BEACH, VA, 23454","No_Match",NA,NA,NA,NA
985254,"PO BOX 3652","WILMINGTON","NC",28406,NA,NA,254,"PO BOX 3652, WILMINGTON, NC, 28406","No_Match",NA,NA,NA,NA
985255,"PO BOX 3653","LEWISTOWN","MT",59457,NA,NA,255,"PO BOX 3653, LEWISTOWN, MT, 59457","No_Match",NA,NA,NA,NA
985256,"PO BOX 3653","SAN ANGELO","TX",76902,NA,NA,256,"PO BOX 3653, SAN ANGELO, TX, 76902","No_Match",NA,NA,NA,NA
985257,"PO BOX 3657","MANKATO","MN",56001,NA,NA,257,"PO BOX 3657, MANKATO, MN, 56001","No_Match",NA,NA,NA,NA
985258,"PO BOX 36575","ROCK HILL","SC",29732,NA,NA,258,"PO BOX 36575, ROCK HILL, SC, 29732","No_Match",NA,NA,NA,NA
985259,"PO BOX 366","BERLIN","NY",12022,NA,NA,259,"PO BOX 366, BERLIN, NY, 12022","No_Match",NA,NA,NA,NA
985260,"PO BOX 366","CAPON BRIDGE","WV",26711,NA,NA,260,"PO BOX 366, CAPON BRIDGE, WV, 26711","No_Match",NA,NA,NA,NA
985261,"PO BOX 366","COKATO","MN",55321,NA,NA,261,"PO BOX 366, COKATO, MN, 55321","No_Match",NA,NA,NA,NA
985262,"PO BOX 366","COLUMBIA STATION","OH",44028,NA,NA,262,"PO BOX 366, COLUMBIA STATION, OH, 44028","No_Match",NA,NA,NA,NA
985263,"PO BOX 366","CROWS LANDING","CA",95313,NA,NA,263,"PO BOX 366, CROWS LANDING, CA, 95313","No_Match",NA,NA,NA,NA
985264,"PO BOX 366","DILLON","MT",59725,NA,NA,264,"PO BOX 366, DILLON, MT, 59725","No_Match",NA,NA,NA,NA
985265,"PO BOX 366","FINLEY","TN",38030,NA,NA,265,"PO BOX 366, FINLEY, TN, 38030","No_Match",NA,NA,NA,NA
985266,"PO BOX 366","GOLDTHWAITE","TX",76844,NA,NA,266,"PO BOX 366, GOLDTHWAITE, TX, 76844","No_Match",NA,NA,NA,NA
985267,"PO BOX 366","HAMBURG","AR",71646,NA,NA,267,"PO BOX 366, HAMBURG, AR, 71646","No_Match",NA,NA,NA,NA
985268,"PO BOX 366","IVY","VA",22945,NA,NA,268,"PO BOX 366, IVY, VA, 22945","No_Match",NA,NA,NA,NA
985269,"PO BOX 366","KALISPELL","MT",59912,NA,NA,269,"PO BOX 366, KALISPELL, MT, 59912","No_Match",NA,NA,NA,NA
985270,"PO BOX 366","LA JARA","CO",81140,NA,NA,270,"PO BOX 366, LA JARA, CO, 81140","No_Match",NA,NA,NA,NA
985271,"PO BOX 366","LOUISE","TX",77455,NA,NA,271,"PO BOX 366, LOUISE, TX, 77455","No_Match",NA,NA,NA,NA
985272,"PO BOX 366","MAVISDALE","VA",24627,NA,NA,272,"PO BOX 366, MAVISDALE, VA, 24627","No_Match",NA,NA,NA,NA
985273,"PO BOX 366","MILLBROOK","NY",12545,NA,NA,273,"PO BOX 366, MILLBROOK, NY, 12545","No_Match",NA,NA,NA,NA
985274,"PO BOX 366","PENN VALLEY","CA",95946,NA,NA,274,"PO BOX 366, PENN VALLEY, CA, 95946","No_Match",NA,NA,NA,NA
985275,"PO BOX 366","PLAINS","TX",79355,NA,NA,275,"PO BOX 366, PLAINS, TX, 79355","No_Match",NA,NA,NA,NA
985276,"PO BOX 366","RAYMOND","NH",3077,NA,NA,276,"PO BOX 366, RAYMOND, NH, 3077","No_Match",NA,NA,NA,NA
985277,"PO BOX 366","ROCKSPRINGD","TX",78880,NA,NA,277,"PO BOX 366, ROCKSPRINGD, TX, 78880","No_Match",NA,NA,NA,NA
985278,"PO BOX 366","ROSWELL","NM",88202,NA,NA,278,"PO BOX 366, ROSWELL, NM, 88202","No_Match",NA,NA,NA,NA
985279,"PO BOX 366","TAOS PUEBLO","NM",87571,NA,NA,279,"PO BOX 366, TAOS PUEBLO, NM, 87571","No_Match",NA,NA,NA,NA
985280,"PO BOX 366","VAN BUREN","IN",46991,NA,NA,280,"PO BOX 366, VAN BUREN, IN, 46991","No_Match",NA,NA,NA,NA
985281,"PO BOX 366","WHEELERSBURG","OH",45694,NA,NA,281,"PO BOX 366, WHEELERSBURG, OH, 45694","No_Match",NA,NA,NA,NA
985282,"PO BOX 3660","ROSWELL","NM",88202,NA,NA,282,"PO BOX 3660, ROSWELL, NM, 88202","No_Match",NA,NA,NA,NA
985283,"PO BOX 366116","BONITA SPRINGS","FL",34136,NA,NA,283,"PO BOX 366116, BONITA SPRINGS, FL, 34136","No_Match",NA,NA,NA,NA
985284,"PO BOX 36612","SAN JUAN","PR",936,NA,NA,284,"PO BOX 36612, SAN JUAN, PR, 936","No_Match",NA,NA,NA,NA
985285,"PO BOX 366252","SAN JUAN","PR",936,NA,NA,285,"PO BOX 366252, SAN JUAN, PR, 936","No_Match",NA,NA,NA,NA
985286,"PO BOX 3663","MORIARTY","NM",87035,NA,NA,286,"PO BOX 3663, MORIARTY, NM, 87035","No_Match",NA,NA,NA,NA
985287,"PO BOX 3663","PAGO PAGO","AS",96799,NA,NA,287,"PO BOX 3663, PAGO PAGO, AS, 96799","No_Match",NA,NA,NA,NA
985288,"PO BOX 3664","BEVERLY HILLS","CA",90210,NA,NA,288,"PO BOX 3664, BEVERLY HILLS, CA, 90210","No_Match",NA,NA,NA,NA
985289,"PO BOX 366407","SAN JUAN","PR",936,NA,NA,289,"PO BOX 366407, SAN JUAN, PR, 936","No_Match",NA,NA,NA,NA
985290,"PO BOX 3665","GREAT FALLS","MT",59403,NA,NA,290,"PO BOX 3665, GREAT FALLS, MT, 59403","No_Match",NA,NA,NA,NA
985291,"PO BOX 3665","SAN LEANDRO","CA",94578,NA,NA,291,"PO BOX 3665, SAN LEANDRO, CA, 94578","No_Match",NA,NA,NA,NA
985292,"PO BOX 3666","SEWARD","AK",99664,NA,NA,292,"PO BOX 3666, SEWARD, AK, 99664","No_Match",NA,NA,NA,NA
985293,"PO BOX 3667","MIDWAY","KY",40347,NA,NA,293,"PO BOX 3667, MIDWAY, KY, 40347","No_Match",NA,NA,NA,NA
985294,"PO BOX 366815","SAN JUAN","PR",936,NA,NA,294,"PO BOX 366815, SAN JUAN, PR, 936","No_Match",NA,NA,NA,NA
985295,"PO BOX 3669","BIG SPRING","TX",79721,NA,NA,295,"PO BOX 3669, BIG SPRING, TX, 79721","No_Match",NA,NA,NA,NA
985296,"PO BOX 3669","TRUCKEE","CA",96160,NA,NA,296,"PO BOX 3669, TRUCKEE, CA, 96160","No_Match",NA,NA,NA,NA
985297,"PO BOX 36692","PHOENIX","AZ",85067,NA,NA,297,"PO BOX 36692, PHOENIX, AZ, 85067","No_Match",NA,NA,NA,NA
985298,"PO BOX 367","ALBURNETT","IA",52202,NA,NA,298,"PO BOX 367, ALBURNETT, IA, 52202","No_Match",NA,NA,NA,NA
985299,"PO BOX 367","BERRYVILLE","AR",72616,NA,NA,299,"PO BOX 367, BERRYVILLE, AR, 72616","No_Match",NA,NA,NA,NA
985300,"PO BOX 367","CALAIS","ME",4619,NA,NA,300,"PO BOX 367, CALAIS, ME, 4619","No_Match",NA,NA,NA,NA
985301,"PO BOX 367","CHOTEAU","MT",59422,NA,NA,301,"PO BOX 367, CHOTEAU, MT, 59422","No_Match",NA,NA,NA,NA
985302,"PO BOX 367","COLUMBIA","CA",95310,NA,NA,302,"PO BOX 367, COLUMBIA, CA, 95310","No_Match",NA,NA,NA,NA
985303,"PO BOX 367","EAST WINTHROP","ME",4343,NA,NA,303,"PO BOX 367, EAST WINTHROP, ME, 4343","No_Match",NA,NA,NA,NA
985304,"PO BOX 367","HERNANDO","FL",34441,NA,NA,304,"PO BOX 367, HERNANDO, FL, 34441","No_Match",NA,NA,NA,NA
985305,"PO BOX 367","KAILUA KONA","HI",96740,NA,NA,305,"PO BOX 367, KAILUA KONA, HI, 96740","No_Match",NA,NA,NA,NA
985306,"PO BOX 367","KOLOA","HI",96756,NA,NA,306,"PO BOX 367, KOLOA, HI, 96756","No_Match",NA,NA,NA,NA
985307,"PO BOX 367","LUVERNE","AL",36049,NA,NA,307,"PO BOX 367, LUVERNE, AL, 36049","No_Match",NA,NA,NA,NA
985308,"PO BOX 367","MILLBROOK","AL",36054,NA,NA,308,"PO BOX 367, MILLBROOK, AL, 36054","No_Match",NA,NA,NA,NA
985309,"PO BOX 367","NAPLES","TX",75568,NA,NA,309,"PO BOX 367, NAPLES, TX, 75568","No_Match",NA,NA,NA,NA
985310,"PO BOX 367","OAKRIDGE","OR",97463,NA,NA,310,"PO BOX 367, OAKRIDGE, OR, 97463","No_Match",NA,NA,NA,NA
985311,"PO BOX 367","PALMYRA","WI",53156,NA,NA,311,"PO BOX 367, PALMYRA, WI, 53156","No_Match",NA,NA,NA,NA
985312,"PO BOX 367","RIDGE","NY",11961,NA,NA,312,"PO BOX 367, RIDGE, NY, 11961","No_Match",NA,NA,NA,NA
985313,"PO BOX 367","TURKEY CREEK","LA",70585,NA,NA,313,"PO BOX 367, TURKEY CREEK, LA, 70585","No_Match",NA,NA,NA,NA
985314,"PO BOX 367","WASECA","MN",56093,NA,NA,314,"PO BOX 367, WASECA, MN, 56093","No_Match",NA,NA,NA,NA
985315,"PO BOX 367","WINTERS","CA",95694,NA,NA,315,"PO BOX 367, WINTERS, CA, 95694","No_Match",NA,NA,NA,NA
985316,"PO BOX 3670","SANTA CRUZ","CA",95063,NA,NA,316,"PO BOX 3670, SANTA CRUZ, CA, 95063","No_Match",NA,NA,NA,NA
985317,"PO BOX 3673","FORT PIERCE","FL",34948,NA,NA,317,"PO BOX 3673, FORT PIERCE, FL, 34948","No_Match",NA,NA,NA,NA
985318,"PO BOX 36735","RICHMOND","VA",23235,NA,NA,318,"PO BOX 36735, RICHMOND, VA, 23235","No_Match",NA,NA,NA,NA
985319,"PO BOX 367362","SAN JUAN","PR",936,NA,NA,319,"PO BOX 367362, SAN JUAN, PR, 936","No_Match",NA,NA,NA,NA
985320,"PO BOX 3674","BROKEN ARROW","OK",74013,NA,NA,320,"PO BOX 3674, BROKEN ARROW, OK, 74013","No_Match",NA,NA,NA,NA
985321,"PO BOX 36741","DES MOINES","IA",50315,NA,NA,321,"PO BOX 36741, DES MOINES, IA, 50315","No_Match",NA,NA,NA,NA
985322,"PO BOX 367511","BONITA SPRINGS","FL",34136,NA,NA,322,"PO BOX 367511, BONITA SPRINGS, FL, 34136","No_Match",NA,NA,NA,NA
985323,"PO BOX 3676","ABILENE","TX",79604,NA,NA,323,"PO BOX 3676, ABILENE, TX, 79604","No_Match",NA,NA,NA,NA
985324,"PO BOX 36782","CANTON","OH",44735,NA,NA,324,"PO BOX 36782, CANTON, OH, 44735","No_Match",NA,NA,NA,NA
985325,"PO BOX 36782","LOS ANGELES","CA",90036,NA,NA,325,"PO BOX 36782, LOS ANGELES, CA, 90036","No_Match",NA,NA,NA,NA
985326,"PO BOX 368","ALPHARETTA","GA",30009,NA,NA,326,"PO BOX 368, ALPHARETTA, GA, 30009","No_Match",NA,NA,NA,NA
985327,"PO BOX 368","BIG PINEY","WY",83113,NA,NA,327,"PO BOX 368, BIG PINEY, WY, 83113","No_Match",NA,NA,NA,NA
985328,"PO BOX 368","BRADDOCK","PA",15104,NA,NA,328,"PO BOX 368, BRADDOCK, PA, 15104","No_Match",NA,NA,NA,NA
985329,"PO BOX 368","FRENCH GULCH","CA",96033,NA,NA,329,"PO BOX 368, FRENCH GULCH, CA, 96033","No_Match",NA,NA,NA,NA
985330,"PO BOX 368","HEBRON","NH",3241,NA,NA,330,"PO BOX 368, HEBRON, NH, 3241","No_Match",NA,NA,NA,NA
985331,"PO BOX 368","HELIX","OR",97835,NA,NA,331,"PO BOX 368, HELIX, OR, 97835","No_Match",NA,NA,NA,NA
985332,"PO BOX 368","JENKS","OK",74037,NA,NA,332,"PO BOX 368, JENKS, OK, 74037","No_Match",NA,NA,NA,NA
985333,"PO BOX 368","LEAVENWORTH","WA",98826,NA,NA,333,"PO BOX 368, LEAVENWORTH, WA, 98826","No_Match",NA,NA,NA,NA
985334,"PO BOX 368","MAUPIN","OR",97037,NA,NA,334,"PO BOX 368, MAUPIN, OR, 97037","No_Match",NA,NA,NA,NA
985335,"PO BOX 368","MELBOURNE","AR",72556,NA,NA,335,"PO BOX 368, MELBOURNE, AR, 72556","No_Match",NA,NA,NA,NA
985336,"PO BOX 368","MINCO","OK",73059,NA,NA,336,"PO BOX 368, MINCO, OK, 73059","No_Match",NA,NA,NA,NA
985337,"PO BOX 368","MURPHYS","CA",95247,NA,NA,337,"PO BOX 368, MURPHYS, CA, 95247","No_Match",NA,NA,NA,NA
985338,"PO BOX 368","PEARCY","AR",71964,NA,NA,338,"PO BOX 368, PEARCY, AR, 71964","No_Match",NA,NA,NA,NA
985339,"PO BOX 368","PRINCETON","MN",55371,NA,NA,339,"PO BOX 368, PRINCETON, MN, 55371","No_Match",NA,NA,NA,NA
985340,"PO BOX 368","REDWOOD VALLEY","CA",95470,NA,NA,340,"PO BOX 368, REDWOOD VALLEY, CA, 95470","No_Match",NA,NA,NA,NA
985341,"PO BOX 368","ROSEVILLE","NC",27571,NA,NA,341,"PO BOX 368, ROSEVILLE, NC, 27571","No_Match",NA,NA,NA,NA
985342,"PO BOX 368","SCOBEY","MT",59263,NA,NA,342,"PO BOX 368, SCOBEY, MT, 59263","No_Match",NA,NA,NA,NA
985343,"PO BOX 3680","VISALIA","CA",93278,NA,NA,343,"PO BOX 3680, VISALIA, CA, 93278","No_Match",NA,NA,NA,NA
985344,"PO BOX 368058","SAN JUAN","PR",936,NA,NA,344,"PO BOX 368058, SAN JUAN, PR, 936","No_Match",NA,NA,NA,NA
985345,"PO BOX 36817","ROCK HILL","SC",29732,NA,NA,345,"PO BOX 36817, ROCK HILL, SC, 29732","No_Match",NA,NA,NA,NA
985346,"PO BOX 36819","HOUSTON","TX",77234,NA,NA,346,"PO BOX 36819, HOUSTON, TX, 77234","No_Match",NA,NA,NA,NA
985347,"PO BOX 3682","PAGO PAGO","AS",96799,NA,NA,347,"PO BOX 3682, PAGO PAGO, AS, 96799","No_Match",NA,NA,NA,NA
985348,"PO BOX 3683","MANHATTAN BEACH","CA",90266,NA,NA,348,"PO BOX 3683, MANHATTAN BEACH, CA, 90266","No_Match",NA,NA,NA,NA
985349,"PO BOX 36836","LOS ANGELES","CA",90036,NA,NA,349,"PO BOX 36836, LOS ANGELES, CA, 90036","No_Match",NA,NA,NA,NA
985350,"PO BOX 3686","OCALA","FL",34478,NA,NA,350,"PO BOX 3686, OCALA, FL, 34478","No_Match",NA,NA,NA,NA
985351,"PO BOX 3686","OCALA","FL",34486,NA,NA,351,"PO BOX 3686, OCALA, FL, 34486","No_Match",NA,NA,NA,NA
985352,"PO BOX 3687","CLEBURNE","TX",76033,NA,NA,352,"PO BOX 3687, CLEBURNE, TX, 76033","No_Match",NA,NA,NA,NA
985353,"PO BOX 3687","TONOPAH","NV",89049,NA,NA,353,"PO BOX 3687, TONOPAH, NV, 89049","No_Match",NA,NA,NA,NA
985354,"PO BOX 3689","ALPINE","WY",83128,NA,NA,354,"PO BOX 3689, ALPINE, WY, 83128","No_Match",NA,NA,NA,NA
985355,"PO BOX 369","BIG SANDY","TX",75755,NA,NA,355,"PO BOX 369, BIG SANDY, TX, 75755","No_Match",NA,NA,NA,NA
985356,"PO BOX 369","BRAWLEY","CA",92227,NA,NA,356,"PO BOX 369, BRAWLEY, CA, 92227","No_Match",NA,NA,NA,NA
985357,"PO BOX 369","CONTOOCOOK","NH",3229,NA,NA,357,"PO BOX 369, CONTOOCOOK, NH, 3229","No_Match",NA,NA,NA,NA
985358,"PO BOX 369","DECATUR","AL",35602,NA,NA,358,"PO BOX 369, DECATUR, AL, 35602","No_Match",NA,NA,NA,NA
985359,"PO BOX 369","FAIRHOPE","AL",36533,NA,NA,359,"PO BOX 369, FAIRHOPE, AL, 36533","No_Match",NA,NA,NA,NA
985360,"PO BOX 369","FIDDLETOWN","CA",95629,NA,NA,360,"PO BOX 369, FIDDLETOWN, CA, 95629","No_Match",NA,NA,NA,NA
985361,"PO BOX 369","GLENEDEN BEACH","OR",97388,NA,NA,361,"PO BOX 369, GLENEDEN BEACH, OR, 97388","No_Match",NA,NA,NA,NA
985362,"PO BOX 369","HOCKLEY","TX",77447,NA,NA,362,"PO BOX 369, HOCKLEY, TX, 77447","No_Match",NA,NA,NA,NA
985363,"PO BOX 369","HUNDRED","WV",26575,NA,NA,363,"PO BOX 369, HUNDRED, WV, 26575","No_Match",NA,NA,NA,NA
985364,"PO BOX 369","INDIANOLA","MS",38751,NA,NA,364,"PO BOX 369, INDIANOLA, MS, 38751","No_Match",NA,NA,NA,NA
985365,"PO BOX 369","LAPORTE","CO",80535,NA,NA,365,"PO BOX 369, LAPORTE, CO, 80535","No_Match",NA,NA,NA,NA
985366,"PO BOX 369","MEDFORD","OR",97501,NA,NA,366,"PO BOX 369, MEDFORD, OR, 97501","No_Match",NA,NA,NA,NA
985367,"PO BOX 369","MT. PLEASANT","TN",38474,NA,NA,367,"PO BOX 369, MT. PLEASANT, TN, 38474","No_Match",NA,NA,NA,NA
985368,"PO BOX 369","SELAH","WA",98942,NA,NA,368,"PO BOX 369, SELAH, WA, 98942","No_Match",NA,NA,NA,NA
985369,"PO BOX 369","SISTERS","OR",97759,NA,NA,369,"PO BOX 369, SISTERS, OR, 97759","No_Match",NA,NA,NA,NA
985370,"PO BOX 369","TONTO BASIN","AZ",85553,NA,NA,370,"PO BOX 369, TONTO BASIN, AZ, 85553","No_Match",NA,NA,NA,NA
985371,"PO BOX 369","WATERBURY CENTER","VT",5677,NA,NA,371,"PO BOX 369, WATERBURY CENTER, VT, 5677","No_Match",NA,NA,NA,NA
985372,"PO BOX 3691","IRMO","SC",29063,NA,NA,372,"PO BOX 3691, IRMO, SC, 29063","No_Match",NA,NA,NA,NA
985373,"PO BOX 3691","LAWRENCEBURG","IN",47025,NA,NA,373,"PO BOX 3691, LAWRENCEBURG, IN, 47025","No_Match",NA,NA,NA,NA
985374,"PO BOX 36928","GROSSE POINTE","MI",48230,NA,NA,374,"PO BOX 36928, GROSSE POINTE, MI, 48230","No_Match",NA,NA,NA,NA
985375,"PO BOX 3693","LISLE","IL",60532,NA,NA,375,"PO BOX 3693, LISLE, IL, 60532","No_Match",NA,NA,NA,NA
985376,"PO BOX 3693","REDWOOD CITY","CA",94064,NA,NA,376,"PO BOX 3693, REDWOOD CITY, CA, 94064","No_Match",NA,NA,NA,NA
985377,"PO BOX 3693","TORRANCE","CA",90510,NA,NA,377,"PO BOX 3693, TORRANCE, CA, 90510","No_Match",NA,NA,NA,NA
985378,"PO BOX 36931","PANAMA CITY","FL",32412,NA,NA,378,"PO BOX 36931, PANAMA CITY, FL, 32412","No_Match",NA,NA,NA,NA
985379,"PO BOX 3694","GALLUP","NM",87305,NA,NA,379,"PO BOX 3694, GALLUP, NM, 87305","No_Match",NA,NA,NA,NA
985380,"PO BOX 3694","LA HABRA","CA",90638,NA,NA,380,"PO BOX 3694, LA HABRA, CA, 90638","No_Match",NA,NA,NA,NA
985381,"PO BOX 3697","AUBURN","ME",4212,NA,NA,381,"PO BOX 3697, AUBURN, ME, 4212","No_Match",NA,NA,NA,NA
985382,"PO BOX 3699","ARIZONA CITY","AZ",85123,NA,NA,382,"PO BOX 3699, ARIZONA CITY, AZ, 85123","No_Match",NA,NA,NA,NA
985383,"PO BOX 3699","TUBA CITY","AZ",86045,NA,NA,383,"PO BOX 3699, TUBA CITY, AZ, 86045","No_Match",NA,NA,NA,NA
985384,"PO BOX 37 702 N SPRING","MARFA","TX",79843,30.3184064110001,-104.018450068,384,"PO BOX 37 702 N SPRING, MARFA, TX, 79843","Match","Non_Exact","702 N SPRING ST, MARFA, TX, 79843",637610065,"R"
985385,"PO BOX 37 CENTRAL AVE","BARBOURSVILLE","WV",25504,NA,NA,385,"PO BOX 37 CENTRAL AVE, BARBOURSVILLE, WV, 25504","No_Match",NA,NA,NA,NA
985386,"PO BOX 37","ADEL","OR",97620,NA,NA,386,"PO BOX 37, ADEL, OR, 97620","No_Match",NA,NA,NA,NA
985387,"PO BOX 37","ALGER","MI",48116,NA,NA,387,"PO BOX 37, ALGER, MI, 48116","No_Match",NA,NA,NA,NA
985388,"PO BOX 37","ALLEN","NE",68710,NA,NA,388,"PO BOX 37, ALLEN, NE, 68710","No_Match",NA,NA,NA,NA
985389,"PO BOX 37","BOURNEVILLE","OH",45617,NA,NA,389,"PO BOX 37, BOURNEVILLE, OH, 45617","No_Match",NA,NA,NA,NA
985390,"PO BOX 37","BURLEY","WA",98322,NA,NA,390,"PO BOX 37, BURLEY, WA, 98322","No_Match",NA,NA,NA,NA
985391,"PO BOX 37","CARVER","MN",55315,NA,NA,391,"PO BOX 37, CARVER, MN, 55315","No_Match",NA,NA,NA,NA
985392,"PO BOX 37","CLARKSTON","WA",99403,NA,NA,392,"PO BOX 37, CLARKSTON, WA, 99403","No_Match",NA,NA,NA,NA
985393,"PO BOX 37","CRESTED BUTTE","CO",81224,NA,NA,393,"PO BOX 37, CRESTED BUTTE, CO, 81224","No_Match",NA,NA,NA,NA
985394,"PO BOX 37","DEXTER","MI",48130,NA,NA,394,"PO BOX 37, DEXTER, MI, 48130","No_Match",NA,NA,NA,NA
985395,"PO BOX 37","EASTON","MN",56025,NA,NA,395,"PO BOX 37, EASTON, MN, 56025","No_Match",NA,NA,NA,NA
985396,"PO BOX 37","ELEELE","HI",96705,NA,NA,396,"PO BOX 37, ELEELE, HI, 96705","No_Match",NA,NA,NA,NA
985397,"PO BOX 37","FALLSTON","NC",28042,NA,NA,397,"PO BOX 37, FALLSTON, NC, 28042","No_Match",NA,NA,NA,NA
985398,"PO BOX 37","GLASSBORO","NJ",8028,NA,NA,398,"PO BOX 37, GLASSBORO, NJ, 8028","No_Match",NA,NA,NA,NA
985399,"PO BOX 37","GREENFIELD","OH",45123,NA,NA,399,"PO BOX 37, GREENFIELD, OH, 45123","No_Match",NA,NA,NA,NA
985400,"PO BOX 37","HARLOWTON","MT",59036,NA,NA,400,"PO BOX 37, HARLOWTON, MT, 59036","No_Match",NA,NA,NA,NA
985401,"PO BOX 37","HEBRON","NH",3241,NA,NA,401,"PO BOX 37, HEBRON, NH, 3241","No_Match",NA,NA,NA,NA
985402,"PO BOX 37","MARIETTA","OK",73448,NA,NA,402,"PO BOX 37, MARIETTA, OK, 73448","No_Match",NA,NA,NA,NA
985403,"PO BOX 37","MCHENRY","MD",21541,NA,NA,403,"PO BOX 37, MCHENRY, MD, 21541","No_Match",NA,NA,NA,NA
985404,"PO BOX 37","MIDDLETOWN","CA",95461,NA,NA,404,"PO BOX 37, MIDDLETOWN, CA, 95461","No_Match",NA,NA,NA,NA
985405,"PO BOX 37","MORGANTOWN","IN",46160,NA,NA,405,"PO BOX 37, MORGANTOWN, IN, 46160","No_Match",NA,NA,NA,NA
985406,"PO BOX 37","MOYOCK","NC",27958,NA,NA,406,"PO BOX 37, MOYOCK, NC, 27958","No_Match",NA,NA,NA,NA
985407,"PO BOX 37","NORA SPRINGS","IA",50458,NA,NA,407,"PO BOX 37, NORA SPRINGS, IA, 50458","No_Match",NA,NA,NA,NA
985408,"PO BOX 37","NORTH GRANBY","CT",6060,NA,NA,408,"PO BOX 37, NORTH GRANBY, CT, 6060","No_Match",NA,NA,NA,NA
985409,"PO BOX 37","OCCIDENTAL","CA",95465,NA,NA,409,"PO BOX 37, OCCIDENTAL, CA, 95465","No_Match",NA,NA,NA,NA
985410,"PO BOX 37","ONTARIO","OR",97914,NA,NA,410,"PO BOX 37, ONTARIO, OR, 97914","No_Match",NA,NA,NA,NA
985411,"PO BOX 37","PANHANDLE","TX",79068,NA,NA,411,"PO BOX 37, PANHANDLE, TX, 79068","No_Match",NA,NA,NA,NA
985412,"PO BOX 37","PENN VALLEY","CA",95946,NA,NA,412,"PO BOX 37, PENN VALLEY, CA, 95946","No_Match",NA,NA,NA,NA
985413,"PO BOX 37","PORT HADLOCK","WA",98339,NA,NA,413,"PO BOX 37, PORT HADLOCK, WA, 98339","No_Match",NA,NA,NA,NA
985414,"PO BOX 37","RAINBOW","TX",76077,NA,NA,414,"PO BOX 37, RAINBOW, TX, 76077","No_Match",NA,NA,NA,NA
985415,"PO BOX 37","RISING STAR","TX",76471,NA,NA,415,"PO BOX 37, RISING STAR, TX, 76471","No_Match",NA,NA,NA,NA
985416,"PO BOX 37","RODUCO","NC",27969,NA,NA,416,"PO BOX 37, RODUCO, NC, 27969","No_Match",NA,NA,NA,NA
985417,"PO BOX 37","SHADY SIDE","MD",20764,NA,NA,417,"PO BOX 37, SHADY SIDE, MD, 20764","No_Match",NA,NA,NA,NA
985418,"PO BOX 37","SHERWOOD","MI",49089,NA,NA,418,"PO BOX 37, SHERWOOD, MI, 49089","No_Match",NA,NA,NA,NA
985419,"PO BOX 37","SPENCER","SD",57374,NA,NA,419,"PO BOX 37, SPENCER, SD, 57374","No_Match",NA,NA,NA,NA
985420,"PO BOX 37","STILLWATER","ME",4489,NA,NA,420,"PO BOX 37, STILLWATER, ME, 4489","No_Match",NA,NA,NA,NA
985421,"PO BOX 37","THOMPSON FALLS","MT",59873,NA,NA,421,"PO BOX 37, THOMPSON FALLS, MT, 59873","No_Match",NA,NA,NA,NA
985422,"PO BOX 37","TONAWANDA","NY",14150,NA,NA,422,"PO BOX 37, TONAWANDA, NY, 14150","No_Match",NA,NA,NA,NA
985423,"PO BOX 37","TONAWNDA","NY",14150,NA,NA,423,"PO BOX 37, TONAWNDA, NY, 14150","No_Match",NA,NA,NA,NA
985424,"PO BOX 37","TROUT CREEK","MT",59874,NA,NA,424,"PO BOX 37, TROUT CREEK, MT, 59874","No_Match",NA,NA,NA,NA
985425,"PO BOX 37","VIRGINIA CITY","NV",89440,NA,NA,425,"PO BOX 37, VIRGINIA CITY, NV, 89440","No_Match",NA,NA,NA,NA
985426,"PO BOX 37","WAVERLY","MN",55390,NA,NA,426,"PO BOX 37, WAVERLY, MN, 55390","No_Match",NA,NA,NA,NA
985427,"PO BOX 37","WINNETT","MT",59087,NA,NA,427,"PO BOX 37, WINNETT, MT, 59087","No_Match",NA,NA,NA,NA
985428,"PO BOX 37","WOODLAND PARK","CO",80866,NA,NA,428,"PO BOX 37, WOODLAND PARK, CO, 80866","No_Match",NA,NA,NA,NA
985429,"PO BOX 370","BETHLEHEM","NH",3574,NA,NA,429,"PO BOX 370, BETHLEHEM, NH, 3574","No_Match",NA,NA,NA,NA
985430,"PO BOX 370","COLFAX","WI",54730,NA,NA,430,"PO BOX 370, COLFAX, WI, 54730","No_Match",NA,NA,NA,NA
985431,"PO BOX 370","EDGEWOOD","NM",87015,NA,NA,431,"PO BOX 370, EDGEWOOD, NM, 87015","No_Match",NA,NA,NA,NA
985432,"PO BOX 370","GAINESVILLE","GA",30503,NA,NA,432,"PO BOX 370, GAINESVILLE, GA, 30503","No_Match",NA,NA,NA,NA
985433,"PO BOX 370","GLADE SPRING","VA",24340,NA,NA,433,"PO BOX 370, GLADE SPRING, VA, 24340","No_Match",NA,NA,NA,NA
985434,"PO BOX 370","LEAKEY","TX",78873,NA,NA,434,"PO BOX 370, LEAKEY, TX, 78873","No_Match",NA,NA,NA,NA
985435,"PO BOX 370","MARS HILL","NC",28754,NA,NA,435,"PO BOX 370, MARS HILL, NC, 28754","No_Match",NA,NA,NA,NA
985436,"PO BOX 370","NORTH MANCHESTER","IN",46962,NA,NA,436,"PO BOX 370, NORTH MANCHESTER, IN, 46962","No_Match",NA,NA,NA,NA
985437,"PO BOX 370","REDWAY","CA",95560,NA,NA,437,"PO BOX 370, REDWAY, CA, 95560","No_Match",NA,NA,NA,NA
985438,"PO BOX 370","TIGER","GA",30576,NA,NA,438,"PO BOX 370, TIGER, GA, 30576","No_Match",NA,NA,NA,NA
985439,"PO BOX 370","TIMBERON","NM",88350,NA,NA,439,"PO BOX 370, TIMBERON, NM, 88350","No_Match",NA,NA,NA,NA
985440,"PO BOX 370","WALWORTH","WI",53184,NA,NA,440,"PO BOX 370, WALWORTH, WI, 53184","No_Match",NA,NA,NA,NA
985441,"PO BOX 370","WILLIAMS BAY","WI",53191,NA,NA,441,"PO BOX 370, WILLIAMS BAY, WI, 53191","No_Match",NA,NA,NA,NA
985442,"PO BOX 370003","LAS VEGAS","NV",89137,NA,NA,442,"PO BOX 370003, LAS VEGAS, NV, 89137","No_Match",NA,NA,NA,NA
985443,"PO BOX 370015","DENVER","CO",80237,NA,NA,443,"PO BOX 370015, DENVER, CO, 80237","No_Match",NA,NA,NA,NA
985444,"PO BOX 37003","DECATUR","GA",30037,NA,NA,444,"PO BOX 37003, DECATUR, GA, 30037","No_Match",NA,NA,NA,NA
985445,"PO BOX 370042","DECATUR","GA",30037,NA,NA,445,"PO BOX 370042, DECATUR, GA, 30037","No_Match",NA,NA,NA,NA
985446,"PO BOX 370066","MAPLE HEIGHTS","OH",44137,NA,NA,446,"PO BOX 370066, MAPLE HEIGHTS, OH, 44137","No_Match",NA,NA,NA,NA
985447,"PO BOX 370069","MONTARA","CA",94037,NA,NA,447,"PO BOX 370069, MONTARA, CA, 94037","No_Match",NA,NA,NA,NA
985448,"PO BOX 370121","LAS VEGAS","NV",89124,NA,NA,448,"PO BOX 370121, LAS VEGAS, NV, 89124","No_Match",NA,NA,NA,NA
985449,"PO BOX 370141","DENVER","CO",80237,NA,NA,449,"PO BOX 370141, DENVER, CO, 80237","No_Match",NA,NA,NA,NA
985450,"PO BOX 370185","KEY LARGO","FL",33037,NA,NA,450,"PO BOX 370185, KEY LARGO, FL, 33037","No_Match",NA,NA,NA,NA
985451,"PO BOX 3702","MERCED","CA",95344,NA,NA,451,"PO BOX 3702, MERCED, CA, 95344","No_Match",NA,NA,NA,NA
985452,"PO BOX 37025","FT WORTH","TX",76117,NA,NA,452,"PO BOX 37025, FT WORTH, TX, 76117","No_Match",NA,NA,NA,NA
985453,"PO BOX 370250","DENVER","CO",80237,NA,NA,453,"PO BOX 370250, DENVER, CO, 80237","No_Match",NA,NA,NA,NA
985454,"PO BOX 370294","MONTARA","CA",94037,NA,NA,454,"PO BOX 370294, MONTARA, CA, 94037","No_Match",NA,NA,NA,NA
985455,"PO BOX 370325","WEST HARTFORD","CT",6117,NA,NA,455,"PO BOX 370325, WEST HARTFORD, CT, 6117","No_Match",NA,NA,NA,NA
985456,"PO BOX 370343","DENVER","CO",80237,NA,NA,456,"PO BOX 370343, DENVER, CO, 80237","No_Match",NA,NA,NA,NA
985457,"PO BOX 370454","MIAMI","FL",33137,NA,NA,457,"PO BOX 370454, MIAMI, FL, 33137","No_Match",NA,NA,NA,NA
985458,"PO BOX 3705","SANTA ANA","CA",92703,NA,NA,458,"PO BOX 3705, SANTA ANA, CA, 92703","No_Match",NA,NA,NA,NA
985459,"PO BOX 370541","KEY LARGO","FL",33037,NA,NA,459,"PO BOX 370541, KEY LARGO, FL, 33037","No_Match",NA,NA,NA,NA
985460,"PO BOX 370584","RESEDA","CA",91335,NA,NA,460,"PO BOX 370584, RESEDA, CA, 91335","No_Match",NA,NA,NA,NA
985461,"PO BOX 370627","DENVER","CO",80237,NA,NA,461,"PO BOX 370627, DENVER, CO, 80237","No_Match",NA,NA,NA,NA
985462,"PO BOX 370690","DENVER","CO",80237,NA,NA,462,"PO BOX 370690, DENVER, CO, 80237","No_Match",NA,NA,NA,NA
985463,"PO BOX 3707 MC 06-90","SEATTLE","WA",98124,NA,NA,463,"PO BOX 3707 MC 06-90, SEATTLE, WA, 98124","No_Match",NA,NA,NA,NA
985464,"PO BOX 3707 MC 08-90","SEATTLE","WA",98124,NA,NA,464,"PO BOX 3707 MC 08-90, SEATTLE, WA, 98124","No_Match",NA,NA,NA,NA
985465,"PO BOX 3707 MC 42-31","SEATTLE","WA",98124,NA,NA,465,"PO BOX 3707 MC 42-31, SEATTLE, WA, 98124","No_Match",NA,NA,NA,NA
985466,"PO BOX 3707","SEATTLE","WA",98124,NA,NA,466,"PO BOX 3707, SEATTLE, WA, 98124","No_Match",NA,NA,NA,NA
985467,"PO BOX 3707","TONOPAH","NV",89049,NA,NA,467,"PO BOX 3707, TONOPAH, NV, 89049","No_Match",NA,NA,NA,NA
985468,"PO BOX 370750","DENVER","CO",80207,NA,NA,468,"PO BOX 370750, DENVER, CO, 80207","No_Match",NA,NA,NA,NA
985469,"PO BOX 3708","EL PASO","TX",79923,NA,NA,469,"PO BOX 3708, EL PASO, TX, 79923","No_Match",NA,NA,NA,NA
985470,"PO BOX 370818","LAS VEGAS","NV",89137,NA,NA,470,"PO BOX 370818, LAS VEGAS, NV, 89137","No_Match",NA,NA,NA,NA
985471,"PO BOX 37083","RALEIGH","NC",27627,NA,NA,471,"PO BOX 37083, RALEIGH, NC, 27627","No_Match",NA,NA,NA,NA
985472,"PO BOX 370871","DENVER","CO",80237,NA,NA,472,"PO BOX 370871, DENVER, CO, 80237","No_Match",NA,NA,NA,NA
985473,"PO BOX 370913","MONTARA","CA",94037,NA,NA,473,"PO BOX 370913, MONTARA, CA, 94037","No_Match",NA,NA,NA,NA
985474,"PO BOX 370976","CAYEY","PR",737,NA,NA,474,"PO BOX 370976, CAYEY, PR, 737","No_Match",NA,NA,NA,NA
985475,"PO BOX 370984","DECATUR","GA",30037,NA,NA,475,"PO BOX 370984, DECATUR, GA, 30037","No_Match",NA,NA,NA,NA
985476,"PO BOX 371 KXA","KASAAN","AK",99950,NA,NA,476,"PO BOX 371 KXA, KASAAN, AK, 99950","No_Match",NA,NA,NA,NA
985477,"PO BOX 371","ALTO","NM",88312,NA,NA,477,"PO BOX 371, ALTO, NM, 88312","No_Match",NA,NA,NA,NA
985478,"PO BOX 371","AMESBURY","MA",1913,NA,NA,478,"PO BOX 371, AMESBURY, MA, 1913","No_Match",NA,NA,NA,NA
985479,"PO BOX 371","ARCADIA","FL",34265,NA,NA,479,"PO BOX 371, ARCADIA, FL, 34265","No_Match",NA,NA,NA,NA
985480,"PO BOX 371","BLACK RIVER FALLS","WI",54615,NA,NA,480,"PO BOX 371, BLACK RIVER FALLS, WI, 54615","No_Match",NA,NA,NA,NA
985481,"PO BOX 371","DUMFRIES","VA",22026,NA,NA,481,"PO BOX 371, DUMFRIES, VA, 22026","No_Match",NA,NA,NA,NA
985482,"PO BOX 371","EAGLE","NE",68347,NA,NA,482,"PO BOX 371, EAGLE, NE, 68347","No_Match",NA,NA,NA,NA
985483,"PO BOX 371","ENGLEWOOD","OH",45322,NA,NA,483,"PO BOX 371, ENGLEWOOD, OH, 45322","No_Match",NA,NA,NA,NA
985484,"PO BOX 371","HANALEI","HI",96714,NA,NA,484,"PO BOX 371, HANALEI, HI, 96714","No_Match",NA,NA,NA,NA
985485,"PO BOX 371","HARDIN","MT",59034,NA,NA,485,"PO BOX 371, HARDIN, MT, 59034","No_Match",NA,NA,NA,NA
985486,"PO BOX 371","HAWTHORNE","NV",89415,NA,NA,486,"PO BOX 371, HAWTHORNE, NV, 89415","No_Match",NA,NA,NA,NA
985487,"PO BOX 371","INDEPENDENCE","KS",67301,NA,NA,487,"PO BOX 371, INDEPENDENCE, KS, 67301","No_Match",NA,NA,NA,NA
985488,"PO BOX 371","JACKSON","GA",30233,NA,NA,488,"PO BOX 371, JACKSON, GA, 30233","No_Match",NA,NA,NA,NA
985489,"PO BOX 371","LANCASTER","KY",40444,NA,NA,489,"PO BOX 371, LANCASTER, KY, 40444","No_Match",NA,NA,NA,NA
985490,"PO BOX 371","MARION","SD",57043,NA,NA,490,"PO BOX 371, MARION, SD, 57043","No_Match",NA,NA,NA,NA
985491,"PO BOX 371","MECHANICSVILLE","VA",23111,NA,NA,491,"PO BOX 371, MECHANICSVILLE, VA, 23111","No_Match",NA,NA,NA,NA
985492,"PO BOX 371","NASHVILLE","IN",47448,NA,NA,492,"PO BOX 371, NASHVILLE, IN, 47448","No_Match",NA,NA,NA,NA
985493,"PO BOX 371","PATEROS","WA",98846,NA,NA,493,"PO BOX 371, PATEROS, WA, 98846","No_Match",NA,NA,NA,NA
985494,"PO BOX 371","POLACCA","AZ",86042,NA,NA,494,"PO BOX 371, POLACCA, AZ, 86042","No_Match",NA,NA,NA,NA
985495,"PO BOX 371","PORT EWEN","NY",12466,NA,NA,495,"PO BOX 371, PORT EWEN, NY, 12466","No_Match",NA,NA,NA,NA
985496,"PO BOX 371","PRINEVILLE","OR",97754,NA,NA,496,"PO BOX 371, PRINEVILLE, OR, 97754","No_Match",NA,NA,NA,NA
985497,"PO BOX 371","RED RIVER","NM",87558,NA,NA,497,"PO BOX 371, RED RIVER, NM, 87558","No_Match",NA,NA,NA,NA
985498,"PO BOX 371","SALADO","TX",76571,NA,NA,498,"PO BOX 371, SALADO, TX, 76571","No_Match",NA,NA,NA,NA
985499,"PO BOX 371","SANDPOINT","ID",83864,NA,NA,499,"PO BOX 371, SANDPOINT, ID, 83864","No_Match",NA,NA,NA,NA
985500,"PO BOX 371","VIEQUES","PR",765,NA,NA,500,"PO BOX 371, VIEQUES, PR, 765","No_Match",NA,NA,NA,NA
