"ID","Address","City","State","Zip","lat","long","id","input_address","match_indicator","match_type","matched_address","tiger_line_id","tiger_side"
110501,"1215 S SAN ANTONIO AVE C","ONTARIO","CA",91762,NA,NA,1,"1215 S SAN ANTONIO AVE C, ONTARIO, CA, 91762","Tie",NA,NA,NA,NA
110502,"1215 S WASHINGTON ST","BLOOMINGTON","IN",47401,39.15317421,-86.5324846029999,2,"1215 S WASHINGTON ST, BLOOMINGTON, IN, 47401","Match","Exact","1215 S WASHINGTON ST, BLOOMINGTON, IN, 47401",42322849,"L"
110503,"1215 S WILLSON AVE","BOZEMAN","MT",59715,45.6669636840001,-111.03888016,3,"1215 S WILLSON AVE, BOZEMAN, MT, 59715","Match","Exact","1215 S WILLSON AVE, BOZEMAN, MT, 59715",163498554,"L"
110504,"1215 SADDLEBROOK DR","INDIANAPOLIS","IN",46240,NA,NA,4,"1215 SADDLEBROOK DR, INDIANAPOLIS, IN, 46240","No_Match",NA,NA,NA,NA
110505,"1215 SAN ELIJO ROAD SUITE 210","SAN MARCOS","CA",92078,33.098381295,-117.199328652,5,"1215 SAN ELIJO ROAD SUITE 210, SAN MARCOS, CA, 92078","Match","Exact","1215 SAN ELIJO RD, SAN MARCOS, CA, 92078",647686669,"L"
110506,"1215 SCHOOL STREET","TWO RIVERS","WI",54241,44.144380395,-87.574628538,6,"1215 SCHOOL STREET, TWO RIVERS, WI, 54241","Match","Exact","1215 SCHOOL ST, TWO RIVERS, WI, 54241",147951552,"R"
110507,"1215 SE 12 AVENUE","GAINESVILLE","FL",32641,29.6397925420001,-82.310433007,7,"1215 SE 12 AVENUE, GAINESVILLE, FL, 32641","Match","Exact","1215 SE 12TH AVE, GAINESVILLE, FL, 32641",6810226,"R"
110508,"1215 SECRETARIAT DRIVE","ROCK SPRINGS","WY",82901,41.6010416490001,-109.258955495,8,"1215 SECRETARIAT DRIVE, ROCK SPRINGS, WY, 82901","Match","Exact","1215 SECRETARIAT DR, ROCK SPRINGS, WY, 82901",612163561,"R"
110509,"1215 SELMA STREET","MOBILE","AL",36604,30.6804014480001,-88.063553295,9,"1215 SELMA STREET, MOBILE, AL, 36604","Match","Exact","1215 SELMA ST, MOBILE, AL, 36604",61861782,"L"
110510,"1215 SEYMOUR DRIVE","FRISCO","TX",75033,33.188493684,-96.881343057,10,"1215 SEYMOUR DRIVE, FRISCO, TX, 75033","Match","Exact","1215 SEYMOUR DR, FRISCO, TX, 75033",640504926,"L"
110511,"1215 SILVER HILLS DR","BOERNE","TX",78006,29.784369552,-98.5967037999999,11,"1215 SILVER HILLS DR, BOERNE, TX, 78006","Match","Exact","1215 SILVER HILLS DR, BOERNE, TX, 78006",72264931,"R"
110512,"1215 SIMMS PLACE NE APT 3","WASHINGTON","DC",20002,38.909391822,-76.984824343,12,"1215 SIMMS PLACE NE APT 3, WASHINGTON, DC, 20002","Match","Exact","1215 SIMMS PL NE, WASHINGTON, DC, 20002",76230105,"R"
110513,"1215 SIMMS PLACE NE","WASHINGTON","DC",20002,38.909391822,-76.984824343,13,"1215 SIMMS PLACE NE, WASHINGTON, DC, 20002","Match","Exact","1215 SIMMS PL NE, WASHINGTON, DC, 20002",76230105,"R"
110514,"1215 SLEDGE AVE","MEMPHIS","TN",38104,35.1256430830001,-90.021612762,14,"1215 SLEDGE AVE, MEMPHIS, TN, 38104","Match","Exact","1215 SLEDGE AVE, MEMPHIS, TN, 38104",72905195,"R"
110515,"1215 SLEEPY WATER COURT","GRANBURY","TX",76048,32.4124990600001,-97.7706992939999,15,"1215 SLEEPY WATER COURT, GRANBURY, TX, 76048","Match","Exact","1215 SLEEPY WATER CT, GRANBURY, TX, 76048",158790664,"R"
110516,"1215 SO 4TH ST","SPRINGFIELD","IL",62703,39.788076001,-89.6510775309999,16,"1215 SO 4TH ST, SPRINGFIELD, IL, 62703","Match","Exact","1215 S 4TH ST, SPRINGFIELD, IL, 62703",97325359,"R"
110517,"1215 SOUTH 119TH DRIVE","AVONDALE","AZ",85323,33.4346631220001,-112.315627981,17,"1215 SOUTH 119TH DRIVE, AVONDALE, AZ, 85323","Match","Exact","1215 S 119TH DR, AVONDALE, AZ, 85323",128848277,"R"
110518,"1215 SOUTH 45TH STREET","MILWAUKEE","WI",53214,43.0186580770001,-87.9700522589999,18,"1215 SOUTH 45TH STREET, MILWAUKEE, WI, 53214","Match","Exact","1215 S 45TH ST, MILWAUKEE, WI, 53214",77734676,"R"
110519,"1215 SOUTH 5TH STREET","LARAMIE","WY",82070,41.3022357300001,-105.591891378,19,"1215 SOUTH 5TH STREET, LARAMIE, WY, 82070","Match","Exact","1215 S 5TH ST, LARAMIE, WY, 82070",168740715,"R"
110520,"1215 SOUTH CAGE BLVD","PHARR","TX",78577,26.181645055,-98.1861245109999,20,"1215 SOUTH CAGE BLVD, PHARR, TX, 78577","Match","Exact","1215 S CAGE BLVD, PHARR, TX, 78577",607632991,"L"
110521,"1215 SOUTH MAIN STREET","ATMORE","AL",36502,31.0097554290001,-87.493785023,21,"1215 SOUTH MAIN STREET, ATMORE, AL, 36502","Match","Exact","1215 S MAIN ST, ATMORE, AL, 36502",1928655,"R"
110522,"1215 SOUTH PENINSULA DR","DAYTONA BEACH","FL",32118,NA,NA,22,"1215 SOUTH PENINSULA DR, DAYTONA BEACH, FL, 32118","No_Match",NA,NA,NA,NA
110523,"1215 SPRING ST","HOUSTON","TX",77007,29.775220463,-95.369221087,23,"1215 SPRING ST, HOUSTON, TX, 77007","Match","Exact","1215 SPRING ST, HOUSTON, TX, 77007",96066207,"L"
110524,"1215 ST MONET DR","IRVING","TX",75038,NA,NA,24,"1215 ST MONET DR, IRVING, TX, 75038","Tie",NA,NA,NA,NA
110525,"1215 SUMMIT ROAD","MCLEAN","VA",22101,38.9396772040001,-77.181295096,25,"1215 SUMMIT ROAD, MCLEAN, VA, 22101","Match","Exact","1215 SUMMIT RD, MCLEAN, VA, 22101",638075408,"L"
110526,"1215 SUNSET VISTA CT","SPARKS","NV",89441,39.656358041,-119.674315256,26,"1215 SUNSET VISTA CT, SPARKS, NV, 89441","Match","Exact","1215 SUNSET VISTA CT, SPARKS, NV, 89441",107112568,"R"
110527,"1215 SWEZY ST","MARYSVILLE","CA",95901,39.149132228,-121.581178813,27,"1215 SWEZY ST, MARYSVILLE, CA, 95901","Match","Exact","1215 SWEZY ST, MARYSVILLE, CA, 95901",106940862,"R"
110528,"1215 SYCAMORE DRIVE","SHELBYVILLE","IN",46176,39.503372341,-85.796580535,28,"1215 SYCAMORE DRIVE, SHELBYVILLE, IN, 46176","Match","Exact","1215 SYCAMORE DR, SHELBYVILLE, IN, 46176",33217825,"R"
110529,"1215 TARTAN PLACE","COLUMBIA","MO",65203,38.895914217,-92.3582646359999,29,"1215 TARTAN PLACE, COLUMBIA, MO, 65203","Match","Exact","1215 TARTAN PL, COLUMBIA, MO, 65203",604996873,"R"
110530,"1215 TATUM BLVD","NEW SMYRNA BEACH","FL",32168,29.0002215540001,-80.932756879,30,"1215 TATUM BLVD, NEW SMYRNA BEACH, FL, 32168","Match","Exact","1215 TATUM BLVD, NEW SMYRNA BEACH, FL, 32168",94532498,"L"
110531,"1215 TAZEWOOD RD","EUREKA","IL",61530,40.7467891570001,-89.308108486,31,"1215 TAZEWOOD RD, EUREKA, IL, 61530","Match","Exact","1215 TAZEWOOD RD, EUREKA, IL, 61530",606605008,"R"
110532,"1215 TENNESSEE STREET","LAWRENCE","KS",66044,38.9615058430001,-95.239417109,32,"1215 TENNESSEE STREET, LAWRENCE, KS, 66044","Match","Exact","1215 TENNESSEE ST, LAWRENCE, KS, 66044",17684765,"R"
110533,"1215 TINTIN AVE","BRONX","NY",10456,40.829485253,-73.90029538,33,"1215 TINTIN AVE, BRONX, NY, 10456","Match","Non_Exact","1215 TINTON AVE, BRONX, NY, 10456",642558993,"L"
110534,"1215 TOWNSHIP ROAD 1433","ASHLAND","OH",44805,NA,NA,34,"1215 TOWNSHIP ROAD 1433, ASHLAND, OH, 44805","No_Match",NA,NA,NA,NA
110535,"1215 TWIN LAKES DRIVE","LITTLE ROCK","AR",72204,34.742362031,-92.3798587589999,35,"1215 TWIN LAKES DRIVE, LITTLE ROCK, AR, 72204","Match","Non_Exact","1215 TWIN LAKES DR, LITTLE ROCK, AR, 72205",83501278,"L"
110536,"1215 TWIN VIEW DR","MURFREESBORO","TN",37128,35.781667456,-86.439259947,36,"1215 TWIN VIEW DR, MURFREESBORO, TN, 37128","Match","Exact","1215 TWIN VIEW DR, MURFREESBORO, TN, 37128",635424581,"L"
110537,"1215 VAGABOND LANE NORTH","PLYMOUTH","MN",55447,44.991112796,-93.51472796,37,"1215 VAGABOND LANE NORTH, PLYMOUTH, MN, 55447","Match","Exact","1215 VAGABOND LN N, PLYMOUTH, MN, 55447",43819474,"L"
110538,"1215 VANDERBILT AVE","NIAGARA FALLS","NY",14305,43.12347707,-79.048945518,38,"1215 VANDERBILT AVE, NIAGARA FALLS, NY, 14305","Match","Exact","1215 VANDERBILT AVE, NIAGARA FALLS, NY, 14305",48685064,"R"
110539,"1215 VANDERBILT","NIAGARA FALLS","NY",14305,43.12347707,-79.048945518,39,"1215 VANDERBILT, NIAGARA FALLS, NY, 14305","Match","Non_Exact","1215 VANDERBILT AVE, NIAGARA FALLS, NY, 14305",48685064,"R"
110540,"1215 VINTAGE GREEN DR","WINDSOR","CA",95492,38.5344418560001,-122.809977984,40,"1215 VINTAGE GREEN DR, WINDSOR, CA, 95492","Match","Non_Exact","1215 VINTAGE GREENS DR, WINDSOR, CA, 95492",67532554,"R"
110541,"1215 VISTA DRIVE","SOCORRO","NM",87801,34.0636419040001,-106.90863211,41,"1215 VISTA DRIVE, SOCORRO, NM, 87801","Match","Exact","1215 VISTA DR, SOCORRO, NM, 87801",193200209,"L"
110542,"1215 W 107TH PLACE","CHICAGO","IL",60629,NA,NA,42,"1215 W 107TH PLACE, CHICAGO, IL, 60629","No_Match",NA,NA,NA,NA
110543,"1215 W 10TH CT","PANAMA CITY","FL",32401,30.166782755,-85.679781363,43,"1215 W 10TH CT, PANAMA CITY, FL, 32401","Match","Exact","1215 10TH CT, PANAMA CITY, FL, 32401",7029007,"L"
110544,"1215 W 27TH ST","NORFOLK","VA",23508,36.8779821480001,-76.3042433589999,44,"1215 W 27TH ST, NORFOLK, VA, 23508","Match","Exact","1215 W 27TH ST, NORFOLK, VA, 23508",122131937,"L"
110545,"1215 W 30TH ST","HOUSTON","TX",77018,29.8136054350001,-95.4230029889999,45,"1215 W 30TH ST, HOUSTON, TX, 77018","Match","Exact","1215 W 30TH ST, HOUSTON, TX, 77018",96054383,"L"
110546,"1215 W 6TH ST","STORM LAKE","IA",50588,42.645459089,-95.2161762279999,46,"1215 W 6TH ST, STORM LAKE, IA, 50588","Match","Exact","1215 W 6TH ST, STORM LAKE, IA, 50588",77378532,"R"
110547,"1215 W 85TH STREET","LOS ANGELES","CA",90044,33.9609467380001,-118.296230035,47,"1215 W 85TH STREET, LOS ANGELES, CA, 90044","Match","Exact","1215 W 85TH ST, LOS ANGELES, CA, 90044",141659920,"R"
110548,"1215 W ADDISON ST","CHICAGO","IL",60613,41.947133152,-87.659740289,48,"1215 W ADDISON ST, CHICAGO, IL, 60613","Match","Exact","1215 W ADDISON ST, CHICAGO, IL, 60613",111762232,"L"
110549,"1215 W ARTHUR AVE APT 2","CHICAGO","IL",60626,42.0004285210001,-87.661394233,49,"1215 W ARTHUR AVE APT 2, CHICAGO, IL, 60626","Match","Non_Exact","1215 W ARTHUR AVE, CHICAGO, IL, 60626",605166139,"L"
110550,"1215 W CHERRYWOOD CT","SPOKANE","WA",99218,47.767579439,-117.426277934,50,"1215 W CHERRYWOOD CT, SPOKANE, WA, 99218","Match","Exact","1215 W CHERRYWOOD CT, SPOKANE, WA, 99218",189868147,"L"
110551,"1215 W CUMBERLAND AVE","KNOXVILLE","TN",37996,35.9589633260001,-83.925454665,51,"1215 W CUMBERLAND AVE, KNOXVILLE, TN, 37996","Match","Non_Exact","1215 CUMBERLAND AVE, KNOXVILLE, TN, 37916",636701067,"R"
110552,"1215 W GLENWOOD AVE","PHILADELPHIA","PA",19133,39.9982479060001,-75.150049667,52,"1215 W GLENWOOD AVE, PHILADELPHIA, PA, 19133","Match","Exact","1215 W GLENWOOD AVE, PHILADELPHIA, PA, 19133",131418369,"R"
110553,"1215 W HARPER","CLARK","MO",65243,39.215679193,-92.3530442919999,53,"1215 W HARPER, CLARK, MO, 65243","Match","Non_Exact","1215 HARPER RD, CLARK, MO, 65243",23475777,"L"
110554,"1215 W HAYS STREET","BOISE","ID",83702,43.6234803930001,-116.203285055,54,"1215 W HAYS STREET, BOISE, ID, 83702","Match","Exact","1215 W HAYS ST, BOISE, ID, 83702",117860044,"L"
110555,"1215 W RANDOL MILL RD","ARLINGTON","TX",76011,32.7501566670001,-97.123526544,55,"1215 W RANDOL MILL RD, ARLINGTON, TX, 76011","Match","Non_Exact","1215 W RANDOL MILL RD, ARLINGTON, TX, 76012",101907396,"R"
110556,"1215 WAKEFIELD TRAIL","RENO","NV",89523,39.5156767730001,-119.946316982,56,"1215 WAKEFIELD TRAIL, RENO, NV, 89523","Match","Exact","1215 WAKEFIELD TRL, RENO, NV, 89523",618260690,"R"
110557,"1215 WALKER ROAD","POTLATCH","ID",83872,46.8882823930001,-116.953794642,57,"1215 WALKER ROAD, POTLATCH, ID, 83872","Match","Non_Exact","1215 WALKER RD, VIOLA, ID, 83872",193865013,"L"
110558,"1215 WALKER","SPANISH LAKE","MO",63138,NA,NA,58,"1215 WALKER, SPANISH LAKE, MO, 63138","No_Match",NA,NA,NA,NA
110559,"1215 WASHINGTON ST","ROCHESTER","IN",46975,NA,NA,59,"1215 WASHINGTON ST, ROCHESTER, IN, 46975","No_Match",NA,NA,NA,NA
110560,"1215 WASHINGTON STREET","HUNTINGDON","PA",16652,40.492484217,-78.0182749319999,60,"1215 WASHINGTON STREET, HUNTINGDON, PA, 16652","Match","Exact","1215 WASHINGTON ST, HUNTINGDON, PA, 16652",50609247,"R"
110561,"1215 WEDGEWOOD DR","FORNEY","TX",75126,32.774751189,-96.425051309,61,"1215 WEDGEWOOD DR, FORNEY, TX, 75126","Match","Exact","1215 WEDGEWOOD DR, FORNEY, TX, 75126",635272473,"L"
110562,"1215 WENSLEY","EL CENTRO","CA",92243,32.7840253570001,-115.566046569,62,"1215 WENSLEY, EL CENTRO, CA, 92243","Match","Non_Exact","1215 WENSLEY AVE, EL CENTRO, CA, 92243",194494319,"L"
110563,"1215 WERTLAND ST","CHARLOTTESVILLE","VA",22903,38.034411645,-78.4967219279999,63,"1215 WERTLAND ST, CHARLOTTESVILLE, VA, 22903","Match","Exact","1215 WERTLAND ST, CHARLOTTESVILLE, VA, 22903",83406611,"R"
110564,"1215 WEST 110TH STREET","CHICAGO","IL",60643,41.6940573700001,-87.65264588,64,"1215 WEST 110TH STREET, CHICAGO, IL, 60643","Match","Exact","1215 W 110TH ST, CHICAGO, IL, 60643",111833204,"L"
110565,"1215 WEST 27TH STREET","LAWRENCE","KS",66046,38.934776603,-95.249451635,65,"1215 WEST 27TH STREET, LAWRENCE, KS, 66046","Match","Exact","1215 W 27TH ST, LAWRENCE, KS, 66046",17685103,"L"
110566,"1215 WEST 35 TERRACE","INDEPENDENCE","MO",64055,NA,NA,66,"1215 WEST 35 TERRACE, INDEPENDENCE, MO, 64055","Tie",NA,NA,NA,NA
110567,"1215 WEST 5TH STREET","PLAINFIELD","NJ",7063,40.5995878420001,-74.438692902,67,"1215 WEST 5TH STREET, PLAINFIELD, NJ, 7063","Match","Exact","1215 W 5TH ST, PLAINFIELD, NJ, 07063",60560939,"L"
110568,"1215 WEST 85TH AVENUE","SAINT JOHN","IN",46373,NA,NA,68,"1215 WEST 85TH AVENUE, SAINT JOHN, IN, 46373","No_Match",NA,NA,NA,NA
110569,"1215 WEST ACACIA ST","STOCKTON","CA",95203,37.959689358,-121.309667351,69,"1215 WEST ACACIA ST, STOCKTON, CA, 95203","Match","Non_Exact","1215 ACACIA ST, STOCKTON, CA, 95203",133848810,"R"
110570,"1215 WEST HWY 101 TRLR 38","PORT ANGELES","WA",98363,48.1059173840001,-123.47122841,70,"1215 WEST HWY 101 TRLR 38, PORT ANGELES, WA, 98363","Match","Non_Exact","1215 W HWY 101, PORT ANGELES, WA, 98363",150866317,"L"
110571,"1215 WEST LAWRENCE STREET","APPLETON","WI",54914,44.2606951610001,-88.424417063,71,"1215 WEST LAWRENCE STREET, APPLETON, WI, 54914","Match","Exact","1215 W LAWRENCE ST, APPLETON, WI, 54914",74920016,"L"
110572,"1215 WEST LOVERS LANE","ARLINGTON","TX",76013,32.7153067720001,-97.1238286719999,72,"1215 WEST LOVERS LANE, ARLINGTON, TX, 76013","Match","Exact","1215 W LOVERS LN, ARLINGTON, TX, 76013",101909079,"R"
110573,"1215 WHITBY AVE","YEADON","PA",19050,39.937250443,-75.2446917619999,73,"1215 WHITBY AVE, YEADON, PA, 19050","Match","Exact","1215 WHITBY AVE, YEADON, PA, 19050",134878751,"L"
110574,"1215 WHITTEN RD","BARTLETT","TN",38134,35.1583258110001,-89.837111109,74,"1215 WHITTEN RD, BARTLETT, TN, 38134","Match","Exact","1215 WHITTEN RD, BARTLETT, TN, 38134",610915491,"L"
110575,"1215 WILD HAWTHORNE WAY","RESTON","VA",20194,38.9909785770001,-77.343793209,75,"1215 WILD HAWTHORNE WAY, RESTON, VA, 20194","Match","Non_Exact","1215 WILD HAWTHORN WAY, RESTON, VA, 20194",618549316,"L"
110576,"1215 WINDING MEADOWS ROAD","ROCKLEDGE","FL",32955,28.2986418,-80.727191042,76,"1215 WINDING MEADOWS ROAD, ROCKLEDGE, FL, 32955","Match","Exact","1215 WINDING MEADOWS RD, ROCKLEDGE, FL, 32955",93954724,"L"
110577,"1215 WOLFTRAP ROAD","YORKTOWN","VA",23693,37.1783811060001,-76.461310071,77,"1215 WOLFTRAP ROAD, YORKTOWN, VA, 23693","Match","Non_Exact","1215 WOLF TRAP RD, YORKTOWN, VA, 23692",103796664,"L"
110578,"1215 WOODRIDGE LN","MOBERLY","MO",65270,39.404666725,-92.4265339679999,78,"1215 WOODRIDGE LN, MOBERLY, MO, 65270","Match","Exact","1215 WOODRIDGE LN, MOBERLY, MO, 65270",23804092,"L"
110579,"1215 WOODVIEW DIRVE","WAUKESHA","WI",53189,42.973294078,-88.2589293889999,79,"1215 WOODVIEW DIRVE, WAUKESHA, WI, 53189","Match","Non_Exact","1215 WOODVIEW DR, WAUKESHA, WI, 53189",53841398,"R"
110580,"1215 YARROW ST","STALLINGS","NC",28104,35.0647366370001,-80.72069463,80,"1215 YARROW ST, STALLINGS, NC, 28104","Match","Exact","1215 YARROW ST, STALLINGS, NC, 28104",651860752,"L"
110581,"1215-53 STREET","BROOKLYN","NY",11219,NA,NA,81,"1215-53 STREET, BROOKLYN, NY, 11219","No_Match",NA,NA,NA,NA
110582,"12150 ANNAPOLIS ROAD SUITE 208","GLENNDALE","DC",20769,NA,NA,82,"12150 ANNAPOLIS ROAD SUITE 208, GLENNDALE, DC, 20769","No_Match",NA,NA,NA,NA
110583,"12150 COBBLE MILL DRIVE","WIMAMA","FL",33598,NA,NA,83,"12150 COBBLE MILL DRIVE, WIMAMA, FL, 33598","No_Match",NA,NA,NA,NA
110584,"12150 E 96TH STREET SUITE 202","OWASSO","OK",74055,NA,NA,84,"12150 E 96TH STREET SUITE 202, OWASSO, OK, 74055","No_Match",NA,NA,NA,NA
110585,"12150 E 96TH STREET","OWASSO","OK",74055,36.2930206940001,-95.838868546,85,"12150 E 96TH STREET, OWASSO, OK, 74055","Match","Non_Exact","12150 E 96TH ST N, OWASSO, OK, 74055",166478235,"R"
110586,"12150 EAST 11TH STREET","TULSA","OK",74128,36.147967448,-95.838888797,86,"12150 EAST 11TH STREET, TULSA, OK, 74128","Match","Exact","12150 E 11TH ST, TULSA, OK, 74128",166456400,"R"
110587,"12150 INDUSTRY BLVD STE 45","JACKSO","CA",95642,NA,NA,87,"12150 INDUSTRY BLVD STE 45, JACKSO, CA, 95642","No_Match",NA,NA,NA,NA
110588,"12150 INDUSTRY BLVD STE 45","JACKSON","CA",95642,NA,NA,88,"12150 INDUSTRY BLVD STE 45, JACKSON, CA, 95642","No_Match",NA,NA,NA,NA
110589,"12150 JADE POINT CT","JACKSONVILLE","FL",32218,30.456381078,-81.6095093229999,89,"12150 JADE POINT CT, JACKSONVILLE, FL, 32218","Match","Exact","12150 JADE POINT CT, JACKSONVILLE, FL, 32218",641026059,"R"
110590,"12150 MILESTONE DR APT 413","FINDLAY","OH",45840,NA,NA,90,"12150 MILESTONE DR APT 413, FINDLAY, OH, 45840","No_Match",NA,NA,NA,NA
110591,"12150 NE 77TH COURT","BRONSON","FL",32621,29.509412754,-82.643785067,91,"12150 NE 77TH COURT, BRONSON, FL, 32621","Match","Exact","12150 NE 77TH CT, BRONSON, FL, 32621",612311873,"R"
110592,"12150 PIGEON PASS ROAD","MORENO VALLEY","CA",92557,33.945102008,-117.26145721,92,"12150 PIGEON PASS ROAD, MORENO VALLEY, CA, 92557","Match","Exact","12150 PIGEON PASS RD, MORENO VALLEY, CA, 92557",194747159,"L"
110593,"12150 RENAISSANCE COURT","ORLANDO","FL",32826,28.579243245,-81.2069190829999,93,"12150 RENAISSANCE COURT, ORLANDO, FL, 32826","Match","Exact","12150 RENAISSANCE CT, ORLANDO, FL, 32826",94423991,"R"
110594,"12150 ROSELAND AVENUE","ROSELAND","LA",70456,30.759054287,-90.5278564389999,94,"12150 ROSELAND AVENUE, ROSELAND, LA, 70456","Match","Exact","12150 ROSELAND AVE, ROSELAND, LA, 70456",75745189,"R"
110595,"12150 SE 62 PL","BELLEVUE","WA",98006,NA,NA,95,"12150 SE 62 PL, BELLEVUE, WA, 98006","No_Match",NA,NA,NA,NA
110596,"12150 SE 97TH PLACE","DUNNELLON","FL",34431,29.1891926770001,-82.5666196459999,96,"12150 SE 97TH PLACE, DUNNELLON, FL, 34431","Match","Exact","12150 SE 97TH PL, DUNNELLON, FL, 34431",624625211,"R"
110597,"12150 STONEGATE LANE","GARDEN GROVE","CA",92845,33.7874325060001,-118.030501519,97,"12150 STONEGATE LANE, GARDEN GROVE, CA, 92845","Match","Exact","12150 STONEGATE LN, GARDEN GROVE, CA, 92845",144003312,"L"
110598,"12150 SUNSHINE GROVE ROAD","BROOKSVILLE","FL",34614,28.6012036400001,-82.502709979,98,"12150 SUNSHINE GROVE ROAD, BROOKSVILLE, FL, 34614","Match","Exact","12150 SUNSHINE GROVE RD, BROOKSVILLE, FL, 34614",85421954,"R"
110599,"12150 TURNSTON CT","SILVER SPRING","MD",20904,NA,NA,99,"12150 TURNSTON CT, SILVER SPRING, MD, 20904","No_Match",NA,NA,NA,NA
110600,"12150 W DAKOTA DR","LAKEWOOD","CO",80228,39.7030201050001,-105.133885323,100,"12150 W DAKOTA DR, LAKEWOOD, CO, 80228","Match","Exact","12150 WEST DAKOTA DR, LAKEWOOD, CO, 80228",177317393,"L"
110601,"12150 WASHINGTON CENTER PARKWAY","THORNTON","CO",80241,39.916136013,-104.971361872,101,"12150 WASHINGTON CENTER PARKWAY, THORNTON, CO, 80241","Match","Exact","12150 WASHINGTON CENTER PKWY, THORNTON, CO, 80241",633232429,"R"
110602,"12150 WEAVER","EL MONTE","CA",91731,NA,NA,102,"12150 WEAVER, EL MONTE, CA, 91731","No_Match",NA,NA,NA,NA
110603,"12150 WOOD RD","DEWITT","MI",48820,42.8393459660001,-84.5231746969999,103,"12150 WOOD RD, DEWITT, MI, 48820","Match","Exact","12150 WOOD RD, DEWITT, MI, 48820",17299512,"R"
110604,"12151 167TH PL NE","REDMOND","WA",98052,47.7082876850001,-122.117069213,104,"12151 167TH PL NE, REDMOND, WA, 98052","Match","Exact","12151 167TH PL NE, REDMOND, WA, 98052",627282756,"L"
110605,"12151 E MAGUIRE RD","NOBLE","OK",73068,35.131350981,-97.263830903,105,"12151 E MAGUIRE RD, NOBLE, OK, 73068","Match","Exact","12151 E MAGUIRE RD, NOBLE, OK, 73068",99952169,"L"
110606,"12151 FALCON CREST WAY","NORTHRIDGE","CA",91326,34.293430286,-118.568085739,106,"12151 FALCON CREST WAY, NORTHRIDGE, CA, 91326","Match","Exact","12151 FALCON CREST WAY, NORTHRIDGE, CA, 91326",141788296,"L"
110607,"12151 FOREST CT UNIT 1","HOLLAND","MI",49424,42.8225495230001,-86.0817428619999,107,"12151 FOREST CT UNIT 1, HOLLAND, MI, 49424","Match","Exact","12151 FOREST CT, HOLLAND, MI, 49424",71096803,"L"
110608,"12151 I-10 SERVICE RD APT 337","NEW ORLEANS","LA",70128,NA,NA,108,"12151 I-10 SERVICE RD APT 337, NEW ORLEANS, LA, 70128","No_Match",NA,NA,NA,NA
110609,"12151 I-10 SERVICES RD APT 337","NEW ORLEANS","LA",70128,NA,NA,109,"12151 I-10 SERVICES RD APT 337, NEW ORLEANS, LA, 70128","No_Match",NA,NA,NA,NA
110610,"12151 RAIN SLICKER PLACE","BRISTOL","VA",20181,38.736367312,-77.5556673039999,110,"12151 RAIN SLICKER PLACE, BRISTOL, VA, 20181","Match","Non_Exact","12151 RAIN SLICKER PL, NOKESVILLE, VA, 20181",619914634,"R"
110611,"12151 REMIGER DR","ST. LOUIS","MO",63138,38.794167261,-90.189292775,111,"12151 REMIGER DR, ST. LOUIS, MO, 63138","Match","Exact","12151 REMIGER DR, SAINT LOUIS, MO, 63138",100184455,"L"
110612,"12151 SOUTH SAGINAW STREET","GRAND BLANC","MI",48439,42.9221656400001,-83.623371284,112,"12151 SOUTH SAGINAW STREET, GRAND BLANC, MI, 48439","Match","Exact","12151 S SAGINAW ST, GRAND BLANC, MI, 48439",69590766,"L"
110613,"12151 SWORDS CREEK RD","HOUSTON","TX",77067,29.962421943,-95.459356325,113,"12151 SWORDS CREEK RD, HOUSTON, TX, 77067","Match","Exact","12151 SWORDS CREEK RD, HOUSTON, TX, 77067",96011426,"L"
110614,"12151 WOODWAY CIRCLE","ANCHORAGE","AK",99516,61.1113204900001,-149.828147652,114,"12151 WOODWAY CIRCLE, ANCHORAGE, AK, 99516","Match","Exact","12151 WOODWAY CIR, ANCHORAGE, AK, 99516",190801197,"L"
110615,"12152 14 MILE RD","CERESCO","MI",49033,42.249070895,-85.022538433,115,"12152 14 MILE RD, CERESCO, MI, 49033","Match","Exact","12152 14 MILE RD, CERESCO, MI, 49033",11728425,"L"
110616,"12152 ADRIAN STREET 8-107","GARDEN GROVE","CA",92840,33.7866180780001,-117.904996259,116,"12152 ADRIAN STREET 8-107, GARDEN GROVE, CA, 92840","Match","Exact","12152 ADRIAN ST, GARDEN GROVE, CA, 92840",144039706,"L"
110617,"12152 MARBLE AVE","DOWNEY","CA",90242,33.924553572,-118.13343828,117,"12152 MARBLE AVE, DOWNEY, CA, 90242","Match","Non_Exact","12152 MARBEL AVE, DOWNEY, CA, 90242",141697764,"L"
110618,"12152 WEST CALLE HERMOSA LANE","AVONDALE","AZ",85323,33.42394067,-112.321459298,118,"12152 WEST CALLE HERMOSA LANE, AVONDALE, AZ, 85323","Match","Exact","12152 W CALLE HERMOSA LN, AVONDALE, AZ, 85323",601630206,"L"
110619,"12153 PLOWDEN MILL ROAD","ALCOLU","SC",29001,33.7843596880001,-80.193930677,119,"12153 PLOWDEN MILL ROAD, ALCOLU, SC, 29001","Match","Exact","12153 PLOWDEN MILL RD, ALCOLU, SC, 29001",71429246,"R"
110620,"12153 RICHLAND LANE","HERNDON","VA",20171,38.901408442,-77.3676729649999,120,"12153 RICHLAND LANE, HERNDON, VA, 20171","Match","Exact","12153 RICHLAND LN, HERNDON, VA, 20171",76024224,"L"
110621,"12154 CHERRYLEE DRIVE","EL MONTE","CA",91732,34.091354487,-118.001151803,121,"12154 CHERRYLEE DRIVE, EL MONTE, CA, 91732","Match","Exact","12154 CHERRYLEE DR, EL MONTE, CA, 91732",142747256,"R"
110622,"12154 E OHIO AVE","AURORA","CO",80012,39.70260489,-104.846233564,122,"12154 E OHIO AVE, AURORA, CO, 80012","Match","Exact","12154 E OHIO AVE, AURORA, CO, 80012",177353901,"R"
110623,"12154 HANNIBAL ST","BRIGHTON","CO",80603,39.917040081,-104.807467227,123,"12154 HANNIBAL ST, BRIGHTON, CO, 80603","Match","Exact","12154 HANNIBAL ST, BRIGHTON, CO, 80603",177424300,"R"
110624,"12154 WALNUT PT W","HAGERSTOWN","MD",21740,39.6473902220001,-77.826893904,124,"12154 WALNUT PT W, HAGERSTOWN, MD, 21740","Match","Exact","12154 WALNUT PT W, HAGERSTOWN, MD, 21740",60801370,"R"
110625,"121541 JOSEPHINE ST","GARDEN GROVE","CA",92841,NA,NA,125,"121541 JOSEPHINE ST, GARDEN GROVE, CA, 92841","No_Match",NA,NA,NA,NA
110626,"12155 AMBROSIA COURT","JACKSONVILLE","FL",32223,30.1533927560001,-81.606276473,126,"12155 AMBROSIA COURT, JACKSONVILLE, FL, 32223","Match","Exact","12155 AMBROSIA CT, JACKSONVILLE, FL, 32223",650037463,"L"
110627,"12155 ARBORWOOD WAY","CHARDON","OH",44024,41.5392311630001,-81.262661131,127,"12155 ARBORWOOD WAY, CHARDON, OH, 44024","Match","Exact","12155 ARBORWOOD WAY, CHARDON, OH, 44024",647441147,"R"
110628,"12155 BAXLEY STREET","SPRING HILL","FL",34609,28.474006715,-82.523561635,128,"12155 BAXLEY STREET, SPRING HILL, FL, 34609","Match","Exact","12155 BAXLEY ST, SPRING HILL, FL, 34609",85431602,"L"
110629,"12155 EDMUND  SAUL CT","NOKESVILLE","VA",20181,38.69112499,-77.571977894,129,"12155 EDMUND  SAUL CT, NOKESVILLE, VA, 20181","Match","Exact","12155 EDMUND SAUL CT, NOKESVILLE, VA, 20181",652128907,"L"
110630,"12155 JOHNSON ST","GRAND HAVEN","MI",49417,43.0158854590001,-86.08849329,130,"12155 JOHNSON ST, GRAND HAVEN, MI, 49417","Match","Exact","12155 JOHNSON ST, GRAND HAVEN, MI, 49417",643040108,"R"
110631,"12155 JONES RD","HOUSTON","TX",77070,29.950862488,-95.584838414,131,"12155 JONES RD, HOUSTON, TX, 77070","Match","Exact","12155 JONES RD, HOUSTON, TX, 77070",642108763,"L"
110632,"12155 LOFT COURT","BRISTOW","VA",20136,38.746211418,-77.558181455,132,"12155 LOFT COURT, BRISTOW, VA, 20136","Match","Exact","12155 LOFT CT, BRISTOW, VA, 20136",76521920,"L"
110633,"12155 MORRISON STREET","VALLEY VILLAGE","CA",90240,34.1603272930001,-118.397673603,133,"12155 MORRISON STREET, VALLEY VILLAGE, CA, 90240","Match","Non_Exact","12155 MORRISON ST, VALLEY VLG, CA, 91607",141564652,"R"
110634,"12155 MORRISON STREET","VALLEY VILLAGE","CA",91607,34.1603272930001,-118.397673603,134,"12155 MORRISON STREET, VALLEY VILLAGE, CA, 91607","Match","Exact","12155 MORRISON ST, VALLEY VLG, CA, 91607",141564652,"R"
110635,"12155 NE MIAMI CT","NORTH MIAMI","FL",33161,25.8865320630001,-80.197666107,135,"12155 NE MIAMI CT, NORTH MIAMI, FL, 33161","Match","Non_Exact","12155 NE MIAMI CT, NORTH MIAMI, FL, 33161",116034091,"R"
110636,"12155 NW 83RD PL","PARKLAND","FL",33076,26.333632579,-80.288318712,136,"12155 NW 83RD PL, PARKLAND, FL, 33076","Match","Exact","12155 NW 83RD PL, PARKLAND, FL, 33076",640840889,"R"
110637,"12155 PARTRIDGE ST NW","COON RAPIDS","MN",55448,45.191453488,-93.320243856,137,"12155 PARTRIDGE ST NW, COON RAPIDS, MN, 55448","Match","Exact","12155 PARTRIDGE ST NW, COON RAPIDS, MN, 55448",97500342,"R"
110638,"12155 SHADOW CREAK PARKWAY","PEARLAND","TX",77584,29.577694351,-95.403040451,138,"12155 SHADOW CREAK PARKWAY, PEARLAND, TX, 77584","Match","Non_Exact","12155 SHADOW CREEK PKWY, PEARLAND, TX, 77584",647832187,"R"
110639,"12155 SHADOW CREEK PARKWAY STE 101","PEARLAND","TX",77584,29.577694351,-95.403040451,139,"12155 SHADOW CREEK PARKWAY STE 101, PEARLAND, TX, 77584","Match","Exact","12155 SHADOW CREEK PKWY, PEARLAND, TX, 77584",647832187,"R"
110640,"12155 SHADOW CREEK PARKWAY","PEARLAND","TX",77584,29.577694351,-95.403040451,140,"12155 SHADOW CREEK PARKWAY, PEARLAND, TX, 77584","Match","Exact","12155 SHADOW CREEK PKWY, PEARLAND, TX, 77584",647832187,"R"
110641,"12155 SW LANEWOOD ST","PORTLAND","OR",97225,45.5122787440001,-122.801980467,141,"12155 SW LANEWOOD ST, PORTLAND, OR, 97225","Match","Exact","12155 SW LANEWOOD ST, PORTLAND, OR, 97225",158185285,"R"
110642,"12155 SYCAMORE TERRACE DRIVE","CINCINNATI","OH",45249,39.290331468,-84.328687539,142,"12155 SYCAMORE TERRACE DRIVE, CINCINNATI, OH, 45249","Match","Exact","12155 SYCAMORE TERRACE DR, CINCINNATI, OH, 45249",103962308,"R"
110643,"12155 TRIBUTARY POINT DR APT 209","GOLD RIVER","CA",95670,38.6312583860001,-121.220249024,143,"12155 TRIBUTARY POINT DR APT 209, GOLD RIVER, CA, 95670","Match","Exact","12155 TRIBUTARY PT DR, GOLD RIVER, CA, 95670",133386115,"R"
110644,"12156 3RD ST NE","BLAINE","MN",55434,45.191799137,-93.264876116,144,"12156 3RD ST NE, BLAINE, MN, 55434","Match","Exact","12156 3RD ST NE, BLAINE, MN, 55434",647496001,"L"
110645,"12156 FLOWING WATER TRAIL","CLARKSVILLE","MD",21029,39.2085181940001,-76.9299281799999,145,"12156 FLOWING WATER TRAIL, CLARKSVILLE, MD, 21029","Match","Exact","12156 FLOWING WATER TRL, CLARKSVILLE, MD, 21029",614147812,"R"
110646,"12156 LAUREL TERRACE DR","STUDIO CITY","CA",91604,34.138599501,-118.398190242,146,"12156 LAUREL TERRACE DR, STUDIO CITY, CA, 91604","Match","Exact","12156 LAUREL TERRACE DR, STUDIO CITY, CA, 91604",141565775,"L"
110647,"12156 MARINE VIEW DRIVE SW","SEATTLE","WA",98146,47.494355426,-122.367006073,147,"12156 MARINE VIEW DRIVE SW, SEATTLE, WA, 98146","Match","Exact","12156 MARINE VIEW DR SW, SEATTLE, WA, 98146",239765359,"L"
110648,"12156 NCR 17","FT COLLINS","CO",80524,NA,NA,148,"12156 NCR 17, FT COLLINS, CO, 80524","No_Match",NA,NA,NA,NA
110649,"12156 OAK TREE LANE","LEMONT","IL",60439,41.6716617910001,-87.954971089,149,"12156 OAK TREE LANE, LEMONT, IL, 60439","Match","Exact","12156 OAK TREE LN, LEMONT, IL, 60439",112382647,"L"
110650,"12156 W MOHAVE","AVONDALE","AZ",85323,33.4301120980001,-112.320514627,150,"12156 W MOHAVE, AVONDALE, AZ, 85323","Match","Non_Exact","12156 W MOHAVE ST, AVONDALE, AZ, 85323",128848003,"L"
110651,"12157 CRITERION AVE","ST LOUIS","MO",63138,38.79488904,-90.206138505,151,"12157 CRITERION AVE, ST LOUIS, MO, 63138","Match","Exact","12157 CRITERION AVE, SAINT LOUIS, MO, 63138",100150785,"L"
110652,"12157 GLEN GARY CIRCLE","RICHMOND","VA",23233,37.6399008000001,-77.6263778109999,152,"12157 GLEN GARY CIRCLE, RICHMOND, VA, 23233","Match","Exact","12157 GLEN GARY CIR, RICHMOND, VA, 23233",106683164,"L"
110653,"12157 MCKELVEY PLACE DRIVE","BRIDGETON","MO",63044,38.742219119,-90.4366405549999,153,"12157 MCKELVEY PLACE DRIVE, BRIDGETON, MO, 63044","Match","Exact","12157 MCKELVEY PLACE DR, BRIDGETON, MO, 63044",647330879,"R"
110654,"12157 NATALIES COVE ROAD","COOPER CITY","FL",33330,26.0591312390001,-80.310351559,154,"12157 NATALIES COVE ROAD, COOPER CITY, FL, 33330","Match","Exact","12157 NATALIES COVE RD, COOPER CITY, FL, 33330",114817383,"R"
110655,"12157 OXFORD COURT","LEMONT","IL",60439,41.666744328,-87.9531540099999,155,"12157 OXFORD COURT, LEMONT, IL, 60439","Match","Exact","12157 OXFORD CT, LEMONT, IL, 60439",636963742,"R"
110656,"12157 S WALLACE","CHICAGO","IL",60628,41.6731275240001,-87.636931702,156,"12157 S WALLACE, CHICAGO, IL, 60628","Match","Non_Exact","12157 S WALLACE ST, CHICAGO, IL, 60628",605514524,"L"
110657,"12157 SW MOCKINGBIRD RD","ANDOVER","KS",67002,37.647845622,-97.1422631029999,157,"12157 SW MOCKINGBIRD RD, ANDOVER, KS, 67002","Match","Exact","12157 SW MOCKINGBIRD RD, ANDOVER, KS, 67002",32285845,"R"
110658,"12157 VALIANT","SAN ANTONIO","TX",78216,29.552091789,-98.497440492,158,"12157 VALIANT, SAN ANTONIO, TX, 78216","Match","Non_Exact","12157 VALLIANT ST, SAN ANTONIO, TX, 78216",101495723,"L"
110659,"12157 W LINEBAUGH  UNIT 186","TAMPA","FL",33626,NA,NA,159,"12157 W LINEBAUGH  UNIT 186, TAMPA, FL, 33626","No_Match",NA,NA,NA,NA
110660,"12157 W LINEBAUGH AVE NO 181","TAMPA","FL",33626,NA,NA,160,"12157 W LINEBAUGH AVE NO 181, TAMPA, FL, 33626","No_Match",NA,NA,NA,NA
110661,"12157 WEST LINEBAUGH AVENUE 186","TAMPA","FL",33626,28.0558081900001,-82.625914087,161,"12157 WEST LINEBAUGH AVENUE 186, TAMPA, FL, 33626","Match","Exact","12157 W LINEBAUGH AVE, TAMPA, FL, 33626",649954483,"R"
110662,"12158 ADAMS ST","THORNTON","CO",80241,39.9175335690001,-104.948016831,162,"12158 ADAMS ST, THORNTON, CO, 80241","Match","Exact","12158 ADAMS ST, THORNTON, CO, 80241",177454634,"R"
110663,"12158 ADAMS STREET","THORNTON","CO",80241,39.9175335690001,-104.948016831,163,"12158 ADAMS STREET, THORNTON, CO, 80241","Match","Exact","12158 ADAMS ST, THORNTON, CO, 80241",177454634,"R"
110664,"12158 ALEXANDRA DRIVE","JACKSONVILLE","FL",32218,30.452057531,-81.691513884,164,"12158 ALEXANDRA DRIVE, JACKSONVILLE, FL, 32218","Match","Exact","12158 ALEXANDRA DR, JACKSONVILLE, FL, 32218",653188132,"L"
110665,"12158 INDIAN CREEK BLVD","LAWRENCEVILLE","IL",62439,NA,NA,165,"12158 INDIAN CREEK BLVD, LAWRENCEVILLE, IL, 62439","No_Match",NA,NA,NA,NA
110666,"12158 INDIAN CREEK BLVD","PLAINFIELD","IL",62439,NA,NA,166,"12158 INDIAN CREEK BLVD, PLAINFIELD, IL, 62439","No_Match",NA,NA,NA,NA
110667,"12158 LAUREL LN","CALEDONIA","IL",61011,42.32901328,-88.90877941,167,"12158 LAUREL LN, CALEDONIA, IL, 61011","Match","Exact","12158 LAUREL LN, CALEDONIA, IL, 61011",92164771,"L"
110668,"12158 W DESERT MOON WAY","PEORIA","AZ",85383,33.7201916180001,-112.32234098,168,"12158 W DESERT MOON WAY, PEORIA, AZ, 85383","Match","Exact","12158 W DESERT MOON WAY, PEORIA, AZ, 85383",640927328,"L"
110669,"12159 CEDAR TRACE DRIVE N","JACKSONVILLE","FL",32246,30.299452676,-81.491977449,169,"12159 CEDAR TRACE DRIVE N, JACKSONVILLE, FL, 32246","Match","Exact","12159 CEDAR TRACE DR N, JACKSONVILLE, FL, 32246",83962640,"L"
110670,"12159 CUDDINGTON CT","WELLINGTON","FL",33414,26.6569636140001,-80.2384161049999,170,"12159 CUDDINGTON CT, WELLINGTON, FL, 33414","Match","Exact","12159 CUDDINGTON CT, WELLINGTON, FL, 33414",115490692,"L"
110671,"12159 EDGEWATER DRIVE","HAMPTON","GA",30228,33.424078932,-84.366889613,171,"12159 EDGEWATER DRIVE, HAMPTON, GA, 30228","Match","Exact","12159 EDGEWATER DR, HAMPTON, GA, 30228",23328811,"L"
110672,"1215B CROSSHILL COURT","LANSDALE","PA",19446,40.2490476350001,-75.326069242,172,"1215B CROSSHILL COURT, LANSDALE, PA, 19446","Match","Exact","1215 CROSSHILL CT, LANSDALE, PA, 19446",135128360,"L"
110673,"1215W HWY 101","PORT ANGELES","WA",98363,48.1059135290001,-123.471266791,173,"1215W HWY 101, PORT ANGELES, WA, 98363","Match","Non_Exact","1215 W HWY 101, PORT ANGELES, WA, 98363",150866317,"L"
110674,"1216  48TH ST NW","CANTON","OH",44709,40.8510094220001,-81.382908992,174,"1216  48TH ST NW, CANTON, OH, 44709","Match","Exact","1216 48TH ST NW, CANTON, OH, 44709",64704510,"L"
110675,"1216 102ND DR SE","LAKE STEVENS","WA",98258,47.985385883,-122.093508198,175,"1216 102ND DR SE, LAKE STEVENS, WA, 98258","Match","Exact","1216 102ND DR SE, LAKE STEVENS, WA, 98258",187780145,"L"
110676,"1216 11ST NW","CEDAR RAPIDS","IA",52405,NA,NA,176,"1216 11ST NW, CEDAR RAPIDS, IA, 52405","No_Match",NA,NA,NA,NA
110677,"1216 11TH AVE","GREEN BAY","WI",54304,44.506789317,-88.038877374,177,"1216 11TH AVE, GREEN BAY, WI, 54304","Match","Exact","1216 11TH AVE, GREEN BAY, WI, 54304",148099679,"R"
110678,"1216 14TH ST NW","CANTON","OH",44703,40.8129789640001,-81.384626125,178,"1216 14TH ST NW, CANTON, OH, 44703","Match","Exact","1216 14TH ST NW, CANTON, OH, 44703",64678149,"L"
110679,"1216 18TH AVE W","SPENCER","IA",51301,43.1495095820001,-95.17038637,179,"1216 18TH AVE W, SPENCER, IA, 51301","Match","Exact","1216 18TH AVE W, SPENCER, IA, 51301",82792981,"R"
110680,"1216 19TH AVE SE","DECATUR","AL",35601,34.588597248,-86.962862393,180,"1216 19TH AVE SE, DECATUR, AL, 35601","Match","Exact","1216 19TH AVE SE, DECATUR, AL, 35601",97140966,"L"
110681,"1216 1ST ST","WEBSTER CITY","IA",50595,42.4686016100001,-93.8337346609999,181,"1216 1ST ST, WEBSTER CITY, IA, 50595","Match","Exact","1216 1ST ST, WEBSTER CITY, IA, 50595",65741605,"L"
110682,"1216 290TH STREET","TIPTON","IA",52772,41.6701969700001,-91.130322684,182,"1216 290TH STREET, TIPTON, IA, 52772","Match","Exact","1216 290TH ST, TIPTON, IA, 52772",16703697,"L"
110683,"1216 2ND AVENUE SW","ROCHESTER","MN",55902,44.0216244210001,-92.481735798,183,"1216 2ND AVENUE SW, ROCHESTER, MN, 55902","Match","Non_Exact","1216 2ND ST SW, ROCHESTER, MN, 55902",30552540,"L"
110684,"1216 2ND ST","KEY WEST","FL",33040,24.5590651430001,-81.7817038319999,184,"1216 2ND ST, KEY WEST, FL, 33040","Match","Exact","1216 2ND ST, KEY WEST, FL, 33040",116475699,"L"
110685,"1216 46TH STREET","DES MOINES","IA",50311,41.6007553740001,-93.680132283,185,"1216 46TH STREET, DES MOINES, IA, 50311","Match","Exact","1216 46TH ST, DES MOINES, IA, 50311",65779801,"L"
110686,"1216 47TH STREET","BROOKLYN","NY",11219,40.6371856170001,-73.992679552,186,"1216 47TH STREET, BROOKLYN, NY, 11219","Match","Exact","1216 47TH ST, BROOKLYN, NY, 11219",59080208,"R"
110687,"1216 53RD STREET","BROOKLYN","NY",11219,40.6338702040001,-73.9962541099999,187,"1216 53RD STREET, BROOKLYN, NY, 11219","Match","Exact","1216 53RD ST, BROOKLYN, NY, 11219",59080033,"R"
110688,"1216 58TH STREET","BROOKLYN","NY",11219,40.631023994,-73.999086366,188,"1216 58TH STREET, BROOKLYN, NY, 11219","Match","Exact","1216 58TH ST, BROOKLYN, NY, 11219",59080034,"R"
110689,"1216 5TH AVE S","LEWISTOWN","MT",59457,47.0583057960001,-109.419860298,189,"1216 5TH AVE S, LEWISTOWN, MT, 59457","Match","Exact","1216 5TH AVE S, LEWISTOWN, MT, 59457",170590807,"R"
110690,"1216 5TH AVE","NY","NY",10029,40.7920336550001,-73.952744309,190,"1216 5TH AVE, NY, NY, 10029","Match","Exact","1216 5TH AVE, NEW YORK, NY, 10029",59657809,"R"
110691,"1216 6TH AVENUE N APT 1","SEATTLE","WA",98109,47.6299265820001,-122.344930031,191,"1216 6TH AVENUE N APT 1, SEATTLE, WA, 98109","Match","Exact","1216 6TH AVE N, SEATTLE, WA, 98109",186582484,"R"
110692,"1216 8TH ST","MANHATTAN BEACH","CA",90266,33.8837338370001,-118.393359544,192,"1216 8TH ST, MANHATTAN BEACH, CA, 90266","Match","Exact","1216 8TH ST, MANHATTAN BEACH, CA, 90266",141582486,"R"
110693,"1216 8TH STREET","HIGHLAND","IL",62249,38.74245912,-89.6762331149999,193,"1216 8TH STREET, HIGHLAND, IL, 62249","Match","Exact","1216 8TH ST, HIGHLAND, IL, 62249",107674794,"L"
110694,"1216 9TH AVE E","TWIN FALLS","ID",83301,42.559509248,-114.458794323,194,"1216 9TH AVE E, TWIN FALLS, ID, 83301","Match","Exact","1216 9TH AVE E, TWIN FALLS, ID, 83301",118761872,"R"
110695,"1216 ABERDEEN RD","PASADENA","TX",77502,29.6759439590001,-95.196015978,195,"1216 ABERDEEN RD, PASADENA, TX, 77502","Match","Exact","1216 ABERDEEN RD, PASADENA, TX, 77502",96104262,"R"
110696,"1216 ADEL STREET","MODESTO","CA",95350,37.6740052210001,-121.010643502,196,"1216 ADEL STREET, MODESTO, CA, 95350","Match","Exact","1216 ADEL ST, MODESTO, CA, 95350",102602956,"R"
110697,"1216 ANNAPOLIS ROAD","ODENTON","MD",21113,39.083855746,-76.69319304,197,"1216 ANNAPOLIS ROAD, ODENTON, MD, 21113","Match","Exact","1216 ANNAPOLIS RD, ODENTON, MD, 21113",649323791,"R"
110698,"1216 ARKANSAS AVE","LYNN HAVEN","FL",32444,30.2402016660001,-85.6396374719999,198,"1216 ARKANSAS AVE, LYNN HAVEN, FL, 32444","Match","Exact","1216 ARKANSAS AVE, LYNN HAVEN, FL, 32444",7027445,"R"
110699,"1216 ARNOLD COURT","FREMONT","CA",94539,37.54136759,-121.942100906,199,"1216 ARNOLD COURT, FREMONT, CA, 94539","Match","Exact","1216 ARNOLD CT, FREMONT, CA, 94539",125033559,"L"
110700,"1216 ASHFORD GABLES DRIVES","DUNWOODY","GA",30338,33.9361551480001,-84.338750615,200,"1216 ASHFORD GABLES DRIVES, DUNWOODY, GA, 30338","Match","Exact","1216 ASHFORD GABLES DR, DUNWOODY, GA, 30338",23389375,"L"
110701,"1216 ASHTON ROAD","ASHTON","MD",20861,39.16097548,-76.985230169,201,"1216 ASHTON ROAD, ASHTON, MD, 20861","Match","Exact","1216 ASHTON RD, ASHTON, MD, 20861",641074746,"L"
110702,"1216 AVENUE G ENSLEY","BIRMINGHAM","AL",35218,33.5178295810001,-86.890230486,202,"1216 AVENUE G ENSLEY, BIRMINGHAM, AL, 35218","Match","Exact","1216 AVE G, BIRMINGHAM, AL, 35218",81722170,"R"
110703,"1216 BANANA RIVER DRIVE","INDIAN HARBOUR BEACH","FL",32937,28.152005934,-80.5973724569999,203,"1216 BANANA RIVER DRIVE, INDIAN HARBOUR BEACH, FL, 32937","Match","Exact","1216 BANANA RIVER DR, INDIAN HARBOUR BEACH, FL, 32937",93938547,"R"
110704,"1216 BAXLEY LANE","LONGVIEW","TX",75604,32.5225840270001,-94.816293209,204,"1216 BAXLEY LANE, LONGVIEW, TX, 75604","Match","Exact","1216 BAXLEY LN, LONGVIEW, TX, 75604",141107285,"L"
110705,"1216 BAYRIDGE DRIVE","DETROIT LAKES","MN",56501,46.7854928530001,-95.8468703629999,205,"1216 BAYRIDGE DRIVE, DETROIT LAKES, MN, 56501","Match","Exact","1216 BAYRIDGE DR, DETROIT LAKES, MN, 56501",167971309,"L"
110706,"1216 BEACH LAKE HWY","BEACH LAKE","PA",18405,41.605092223,-75.137353777,206,"1216 BEACH LAKE HWY, BEACH LAKE, PA, 18405","Match","Exact","1216 BEACH LAKE HWY, BEACH LAKE, PA, 18405",140153864,"R"
110707,"1216 BEATTY DRIVE","CEDAR HILL","TX",75104,32.5684994040001,-96.921725807,207,"1216 BEATTY DRIVE, CEDAR HILL, TX, 75104","Match","Exact","1216 BEATTY DR, CEDAR HILL, TX, 75104",647952464,"L"
110708,"1216 BEGOVICH ST","FULLERTON","CA",92833,33.8817038820001,-117.959434137,208,"1216 BEGOVICH ST, FULLERTON, CA, 92833","Match","Exact","1216 BEGOVICH ST, FULLERTON, CA, 92833",144413865,"L"
110709,"1216 BEGOVICH","FULLERTON","CA",92833,33.8817038820001,-117.959434137,209,"1216 BEGOVICH, FULLERTON, CA, 92833","Match","Non_Exact","1216 BEGOVICH ST, FULLERTON, CA, 92833",144413865,"L"
110710,"1216 BELROSE ROAD","CLEVELAND","OH",44124,41.5275109230001,-81.468350157,210,"1216 BELROSE ROAD, CLEVELAND, OH, 44124","Match","Exact","1216 BELROSE RD, CLEVELAND, OH, 44124",61133957,"R"
110711,"1216 BEOVICH ST","FULLERTON","CA",92833,NA,NA,211,"1216 BEOVICH ST, FULLERTON, CA, 92833","No_Match",NA,NA,NA,NA
110712,"1216 BERRY STREET","OLD HICKORY","TN",37138,36.2587912710001,-86.650285373,212,"1216 BERRY STREET, OLD HICKORY, TN, 37138","Match","Exact","1216 BERRY ST, OLD HICKORY, TN, 37138",97183775,"R"
110713,"1216 BERWICK ROAD","BALTIMORE","MD",21204,39.401594,-76.63637619,213,"1216 BERWICK ROAD, BALTIMORE, MD, 21204","Match","Exact","1216 BERWICK RD, BALTIMORE, MD, 21204",191512320,"R"
110714,"1216 BEVERLY DRIVE","ARDMORE","OK",73401,34.1580619650001,-97.1472754609999,214,"1216 BEVERLY DRIVE, ARDMORE, OK, 73401","Match","Non_Exact","1216 BEAVERLY DR, ARDMORE, OK, 73401",14829435,"R"
110715,"1216 BIG BEND DR","MCKINNEY","TX",75069,33.1866520890001,-96.6260897449999,215,"1216 BIG BEND DR, MCKINNEY, TX, 75069","Match","Exact","1216 BIG BEND DR, MCKINNEY, TX, 75069",210482205,"R"
110716,"1216 BILL HOOKS ROAD","WHITEVILLE","NC",28472,34.40734803,-78.746564617,216,"1216 BILL HOOKS ROAD, WHITEVILLE, NC, 28472","Match","Exact","1216 BILL HOOKS RD, WHITEVILLE, NC, 28472",64150621,"R"
110717,"1216 BLAND CIRCLE","SANFORD","NC",27330,35.4696981370001,-79.1814005109999,217,"1216 BLAND CIRCLE, SANFORD, NC, 27330","Match","Exact","1216 BLAND CIR, SANFORD, NC, 27330",72059479,"L"
110718,"1216 BRIGADOON TRAIL","BALTIMORE","MD",21207,39.2989935570001,-76.732605088,218,"1216 BRIGADOON TRAIL, BALTIMORE, MD, 21207","Match","Exact","1216 BRIGADOON TRL, BALTIMORE, MD, 21207",191494496,"L"
110719,"1216 BRIGHTON RD","NAPERVILLE","IL",60563,41.7890957760001,-88.1246331419999,219,"1216 BRIGHTON RD, NAPERVILLE, IL, 60563","Match","Exact","1216 BRIGHTON RD, NAPERVILLE, IL, 60563",112529041,"R"
110720,"1216 BROAD RIVER ROAD","COLUMBIA","SC",29210,34.0270803870001,-81.083401105,220,"1216 BROAD RIVER ROAD, COLUMBIA, SC, 29210","Match","Exact","1216 BROAD RIVER RD, COLUMBIA, SC, 29210",71817818,"R"
110721,"1216 BURKE AVE UNIT 4D","BRONX","NY",10469,40.871155575,-73.851830825,221,"1216 BURKE AVE UNIT 4D, BRONX, NY, 10469","Match","Exact","1216 BURKE AVE, BRONX, NY, 10469",650119066,"R"
110722,"1216 BUTTERNUT CT","FENTON","MI",48430,42.849974135,-83.697474438,222,"1216 BUTTERNUT CT, FENTON, MI, 48430","Match","Exact","1216 BUTTERNUT CT, FENTON, MI, 48430",618059902,"R"
110723,"1216 CADIZ ST  URB PUERTO NUEVO","SAN JUAN","PR",920,NA,NA,223,"1216 CADIZ ST  URB PUERTO NUEVO, SAN JUAN, PR, 920","No_Match",NA,NA,NA,NA
110724,"1216 CAMBRIDGE STREET","RIVER OAKS","TX",76114,32.779475817,-97.403596371,224,"1216 CAMBRIDGE STREET, RIVER OAKS, TX, 76114","Match","Exact","1216 CAMBRIDGE ST, RIVER OAKS, TX, 76114",101853361,"R"
110725,"1216 CARRIAGE PARK DR","VALRICO","FL",33594,27.919762211,-82.241861387,225,"1216 CARRIAGE PARK DR, VALRICO, FL, 33594","Match","Exact","1216 CARRIAGE PARK DR, VALRICO, FL, 33594",627202444,"R"
110726,"1216 CARRIAGE PARK DRIVE","VALRICO","FL",33594,27.919762211,-82.241861387,226,"1216 CARRIAGE PARK DRIVE, VALRICO, FL, 33594","Match","Exact","1216 CARRIAGE PARK DR, VALRICO, FL, 33594",627202444,"R"
110727,"1216 CASA DEL REY DR","LA HABRA HEIGHTS","CA",90631,33.9465701450001,-117.959206296,227,"1216 CASA DEL REY DR, LA HABRA HEIGHTS, CA, 90631","Match","Exact","1216 CASA DEL REY DR, LA HABRA HEIGHTS, CA, 90631",625735845,"R"
110728,"1216 CELY ROAD","EASLEY","SC",29642,34.776630293,-82.51211877,228,"1216 CELY ROAD, EASLEY, SC, 29642","Match","Exact","1216 CELY RD, EASLEY, SC, 29642",639234561,"L"
110729,"1216 CHERRYTREE LN","CHESAPEAKE","VA",23320,36.7420127340001,-76.284162377,229,"1216 CHERRYTREE LN, CHESAPEAKE, VA, 23320","Match","Exact","1216 CHERRYTREE LN, CHESAPEAKE, VA, 23320",121790517,"L"
110730,"1216 CHESTNUT STREET","MONACA","PA",15061,40.6800756540001,-80.2793596559999,230,"1216 CHESTNUT STREET, MONACA, PA, 15061","Match","Exact","1216 CHESTNUT ST, MONACA, PA, 15061",52565264,"R"
110731,"1216 CITRUS DRIVE","KINGMAN","AZ",86409,35.2717813240001,-114.036698325,231,"1216 CITRUS DRIVE, KINGMAN, AZ, 86409","Match","Exact","1216 CITRUS DR, KINGMAN, AZ, 86409",190360809,"L"
110732,"1216 CLAGUE","ANN ARBOR","MI",48103,42.267397836,-83.762144596,232,"1216 CLAGUE, ANN ARBOR, MI, 48103","Match","Non_Exact","1216 CLAGUE AVE, ANN ARBOR, MI, 48103",26014345,"R"
110733,"1216 CLOVIS AVE","GRANTS","NM",87020,35.152187457,-107.823881334,233,"1216 CLOVIS AVE, GRANTS, NM, 87020","Match","Exact","1216 CLOVIS AVE, GRANTS, NM, 87020",179180450,"R"
110734,"1216 CLUB HOUSE DRIVE","CHESAPEAKE","VA",23322,36.7142751540001,-76.290579764,234,"1216 CLUB HOUSE DRIVE, CHESAPEAKE, VA, 23322","Match","Exact","1216 CLUB HOUSE DR, CHESAPEAKE, VA, 23322",121799775,"R"
110735,"1216 COLD SPRING ROAD","LINCOLN","NE",68512,40.758025983,-96.7042080959999,235,"1216 COLD SPRING ROAD, LINCOLN, NE, 68512","Match","Exact","1216 COLD SPRING RD, LINCOLN, NE, 68512",28255305,"L"
110736,"1216 COLE BOULEVARD","GLEN ALLEN","VA",23060,37.6554179130001,-77.460805223,236,"1216 COLE BOULEVARD, GLEN ALLEN, VA, 23060","Match","Exact","1216 COLE BLVD, GLEN ALLEN, VA, 23060",636813410,"R"
110737,"1216 COLTRANE DR","PORTSMOUTH","VA",23701,36.792336236,-76.367464825,237,"1216 COLTRANE DR, PORTSMOUTH, VA, 23701","Match","Exact","1216 COLTRANE DR, PORTSMOUTH, VA, 23701",122197002,"R"
110738,"1216 CONTINENTAL DRIVE","DAYTONA BEACH","FL",32117,29.224048166,-81.063113426,238,"1216 CONTINENTAL DRIVE, DAYTONA BEACH, FL, 32117","Match","Exact","1216 CONTINENTAL DR, DAYTONA BEACH, FL, 32117",94522499,"L"
110739,"1216 COUNTY ROAD 4620","KEMPNER","TX",76539,31.061857516,-97.995165906,239,"1216 COUNTY ROAD 4620, KEMPNER, TX, 76539","Match","Exact","1216 CO RD 4620, KEMPNER, TX, 76539",146699443,"L"
110740,"1216 CRAWFORD ST","BOONE","IA",50036,42.0681631510001,-93.8867573489999,240,"1216 CRAWFORD ST, BOONE, IA, 50036","Match","Exact","1216 CRAWFORD ST, BOONE, IA, 50036",64934372,"R"
110741,"1216 CROWN POINTE LANE","ORMOND BEACH","FL",32174,29.359786768,-81.14488271,241,"1216 CROWN POINTE LANE, ORMOND BEACH, FL, 32174","Match","Exact","1216 CROWN POINTE LN, ORMOND BEACH, FL, 32174",94600780,"R"
110742,"1216 CURIE COURT","NORFOLK","VA",23513,36.8976795,-76.238402208,242,"1216 CURIE COURT, NORFOLK, VA, 23513","Match","Exact","1216 CURIE CT, NORFOLK, VA, 23513",122124182,"L"
110743,"1216 DANUBE","HOUSTOM","TX",77051,29.6752168800001,-95.365246642,243,"1216 DANUBE, HOUSTOM, TX, 77051","Match","Non_Exact","1216 DANUBE ST, HOUSTON, TX, 77051",96550902,"R"
110744,"1216 DARROW","EVANSTON","IL",60202,42.0396013380001,-87.697626729,244,"1216 DARROW, EVANSTON, IL, 60202","Match","Non_Exact","1216 DARROW AVE, EVANSTON, IL, 60202",111743321,"L"
110745,"1216 DAWNVIEW DR","LOCUST GROVE","GA",30248,33.335359548,-84.200279623,245,"1216 DAWNVIEW DR, LOCUST GROVE, GA, 30248","Match","Exact","1216 DAWNVIEW DR, LOCUST GROVE, GA, 30248",645777242,"R"
110746,"1216 DECOY CT","MOUNT PLEASANT","SC",29464,32.802862098,-79.851505484,246,"1216 DECOY CT, MOUNT PLEASANT, SC, 29464","Match","Exact","1216 DECOY CT, MOUNT PLEASANT, SC, 29464",108850627,"L"
110747,"1216 DUNSTON DRIVE","SAINT LOUIS","MO",63146,38.6831716500001,-90.4149911329999,247,"1216 DUNSTON DRIVE, SAINT LOUIS, MO, 63146","Match","Exact","1216 DUNSTON DR, SAINT LOUIS, MO, 63146",100170775,"L"
110748,"1216 DUPLIN RD","RALEIGH","NC",27607,35.8013825730001,-78.672314217,248,"1216 DUPLIN RD, RALEIGH, NC, 27607","Match","Exact","1216 DUPLIN RD, RALEIGH, NC, 27607",72501903,"R"
110749,"1216 DURHAM DR","HOUSTON","TX",77007,29.772075774,-95.4106070019999,249,"1216 DURHAM DR, HOUSTON, TX, 77007","Match","Exact","1216 DURHAM DR, HOUSTON, TX, 77007",96061713,"R"
110750,"1216 E 2750 N","NORTH LOGAN","UT",84341,41.781390662,-111.803747377,250,"1216 E 2750 N, NORTH LOGAN, UT, 84341","Match","Exact","1216 E 2750 N, NORTH LOGAN, UT, 84341",155110577,"L"
110751,"1216 E 7TH STREET","AUSTIN","TX",78702,30.265270156,-97.729879174,251,"1216 E 7TH STREET, AUSTIN, TX, 78702","Match","Exact","1216 E 7TH ST, AUSTIN, TX, 78702",63946755,"L"
110752,"1216 E CHAMBERS ST","PHOENIX","AZ",85040,33.3979667350001,-112.055991347,252,"1216 E CHAMBERS ST, PHOENIX, AZ, 85040","Match","Exact","1216 E CHAMBERS ST, PHOENIX, AZ, 85040",243997336,"L"
110753,"1216 E CUMBERLAND APT 308","TAMPA","FL",33602,NA,NA,253,"1216 E CUMBERLAND APT 308, TAMPA, FL, 33602","No_Match",NA,NA,NA,NA
110754,"1216 E EVA BLVD","CHESAPEAKE","VA",23320,36.7660664140001,-76.274884532,254,"1216 E EVA BLVD, CHESAPEAKE, VA, 23320","Match","Exact","1216 E EVA BLVD, CHESAPEAKE, VA, 23320",121771578,"L"
110755,"1216 E HANSON DRIVE","APPLETON","WI",54915,44.2428847420001,-88.386267794,255,"1216 E HANSON DRIVE, APPLETON, WI, 54915","Match","Exact","1216 E HANSON DR, APPLETON, WI, 54915",74784674,"L"
110756,"1216 E INDIANA","SPOKANE","WA",99207,NA,NA,256,"1216 E INDIANA, SPOKANE, WA, 99207","No_Match",NA,NA,NA,NA
110757,"1216 E KEYSTONE PL APT 59","BRANDON","SD",57005,43.59943329,-96.5738395549999,257,"1216 E KEYSTONE PL APT 59, BRANDON, SD, 57005","Match","Exact","1216 KEYSTONE PL, BRANDON, SD, 57005",641474931,"R"
110758,"1216 E NEWTON ST","SEATTLE","WA",98102,47.637242665,-122.31697723,258,"1216 E NEWTON ST, SEATTLE, WA, 98102","Match","Exact","1216 E NEWTON ST, SEATTLE, WA, 98102",186587317,"L"
110759,"1216 E ROSS AVE","ALHAMBRA","CA",91801,34.0725148220001,-118.110361738,259,"1216 E ROSS AVE, ALHAMBRA, CA, 91801","Match","Exact","1216 E ROSS AVE, ALHAMBRA, CA, 91801",141640179,"R"
110760,"1216 E VISTA DEL CERRO DR APT 1042","TEMPE","AZ",85281,33.4095109670001,-111.919404679,260,"1216 E VISTA DEL CERRO DR APT 1042, TEMPE, AZ, 85281","Match","Non_Exact","1216 E VISTA DEL CERRO DR, TEMPE, AZ, 85281",128942602,"L"
110761,"1216 EAST 5TH STREET","CONNERSVILLE","IN",47331,39.6391659340001,-85.119575388,261,"1216 EAST 5TH STREET, CONNERSVILLE, IN, 47331","Match","Exact","1216 E 5TH ST, CONNERSVILLE, IN, 47331",606863471,"L"
110762,"1216 EAST CUMBERLAND AVE APT 204","TAMPA","FL",33602,27.9450340770001,-82.447886465,262,"1216 EAST CUMBERLAND AVE APT 204, TAMPA, FL, 33602","Match","Exact","1216 E CUMBERLAND AVE, TAMPA, FL, 33602",104530869,"L"
110763,"1216 EAST NORTH","NORTH OGDEN","UT",84414,NA,NA,263,"1216 EAST NORTH, NORTH OGDEN, UT, 84414","No_Match",NA,NA,NA,NA
110764,"1216 EASTLAND AVENUE","KINGSTREE","SC",29556,33.69182591,-79.8137612369999,264,"1216 EASTLAND AVENUE, KINGSTREE, SC, 29556","Match","Exact","1216 EASTLAND AVE, KINGSTREE, SC, 29556",29224256,"R"
110765,"1216 ENGLEWOOD AVE","ROYAL OAK","MI",48073,42.5230510310001,-83.130503769,265,"1216 ENGLEWOOD AVE, ROYAL OAK, MI, 48073","Match","Exact","1216 ENGLEWOOD AVE, ROYAL OAK, MI, 48073",69744024,"R"
110766,"1216 EVERGREEN TRL","ADRIAN","MI",49221,41.9085787280001,-84.073488663,266,"1216 EVERGREEN TRL, ADRIAN, MI, 49221","Match","Exact","1216 EVERGREEN TRL, ADRIAN, MI, 49221",634770767,"R"
110767,"1216 FERNDALE ST N","MAPLEWOOD","MN",55119,44.9780882760001,-92.989797773,267,"1216 FERNDALE ST N, MAPLEWOOD, MN, 55119","Match","Non_Exact","1216 FERNDALE ST, MAPLEWOOD, MN, 55119",653428511,"L"
110768,"1216 FIRTH OF LORNE CIRCLE","FT WASHINGTON","MD",20774,38.7237743950001,-77.026168179,268,"1216 FIRTH OF LORNE CIRCLE, FT WASHINGTON, MD, 20774","Match","Non_Exact","1216 FIRTH OF LORNE CIR, FT WASHINGTON, MD, 20744",76302285,"L"
110769,"1216 FOXCROFT LANE","CUMMING","GA",30041,34.214159244,-84.114266367,269,"1216 FOXCROFT LANE, CUMMING, GA, 30041","Match","Exact","1216 FOXCROFT LN, CUMMING, GA, 30041",650879854,"R"
110770,"1216 FUJII FARM LANE","KNOXVILLE","TN",37931,35.938487837,-84.12151949,270,"1216 FUJII FARM LANE, KNOXVILLE, TN, 37931","Match","Exact","1216 FUJII FARM LN, KNOXVILLE, TN, 37931",42663638,"R"
110771,"1216 GAITHER RD","ROCKVILLE","MD",20850,39.115315809,-77.178646359,271,"1216 GAITHER RD, ROCKVILLE, MD, 20850","Match","Exact","1216 GAITHER RD, ROCKVILLE, MD, 20850",617450245,"R"
110772,"1216 GARDEN RD","MARRERO","LA",70072,29.889744739,-90.120081774,272,"1216 GARDEN RD, MARRERO, LA, 70072","Match","Exact","1216 GARDEN RD, MARRERO, LA, 70072",93505768,"R"
110773,"1216 GARFIELD AVE","DELL RAPIDS","SD",57022,43.8312544840001,-96.70652547,273,"1216 GARFIELD AVE, DELL RAPIDS, SD, 57022","Match","Exact","1216 GARFIELD AVE, DELL RAPIDS, SD, 57022",34961699,"R"
110774,"1216 GARTH COURT","VIRGINIA BEACH","VA",23454,36.774541793,-75.998246406,274,"1216 GARTH COURT, VIRGINIA BEACH, VA, 23454","Match","Exact","1216 GARTH CT, VIRGINIA BCH, VA, 23454",122277286,"R"
110775,"1216 GIESSE DRIVE","MAYFIELD HTS","OH",44124,41.527219148,-81.451051596,275,"1216 GIESSE DRIVE, MAYFIELD HTS, OH, 44124","Match","Exact","1216 GIESSE DR, MAYFIELD HEIGHTS, OH, 44124",61134761,"R"
110776,"1216 GOFFIN DRIVE","DESOTO","TX",75115,32.570949716,-96.85619903,276,"1216 GOFFIN DRIVE, DESOTO, TX, 75115","Match","Exact","1216 GOFFIN DR, DESOTO, TX, 75115",635068356,"L"
110777,"1216 GOLDENWOOD DR","WEST FARGO","ND",58078,46.8917537980001,-96.9066059039999,277,"1216 GOLDENWOOD DR, WEST FARGO, ND, 58078","Match","Exact","1216 GOLDENWOOD DR, WEST FARGO, ND, 58078",624916056,"L"
110778,"1216 GOVERNOR STREET","SPRINGFIELD","IL",62704,39.7978288140001,-89.673440984,278,"1216 GOVERNOR STREET, SPRINGFIELD, IL, 62704","Match","Non_Exact","1216 W GOVERNOR ST, SPRINGFIELD, IL, 62704",97322729,"L"
110779,"1216 GRANADA STREET","ACCOKEEK","MD",20607,38.675548861,-76.9857085479999,279,"1216 GRANADA STREET, ACCOKEEK, MD, 20607","Match","Exact","1216 GRANADA ST, ACCOKEEK, MD, 20607",76418311,"L"
110780,"1216 GRANADA","ACCOKEEK","MD",30607,NA,NA,280,"1216 GRANADA, ACCOKEEK, MD, 30607","No_Match",NA,NA,NA,NA
110781,"1216 GREENFIELD DRIVE","MESQUITE","TX",75181,32.7510455780001,-96.549256498,281,"1216 GREENFIELD DRIVE, MESQUITE, TX, 75181","Match","Exact","1216 GREENFIELD DR, MESQUITE, TX, 75181",103166399,"L"
110782,"1216 GREENFIELD PL  APT 306","O FALLON","IL",62269,38.571599184,-89.933603853,282,"1216 GREENFIELD PL  APT 306, O FALLON, IL, 62269","Match","Exact","1216 GREENFIELD PL, O FALLON, IL, 62269",648124545,"L"
110783,"1216 GREENFIELD PLACE APT 204","OFALLON","IL",62269,38.571599184,-89.933603853,283,"1216 GREENFIELD PLACE APT 204, OFALLON, IL, 62269","Match","Non_Exact","1216 GREENFIELD PL, O FALLON, IL, 62269",648124545,"L"
110784,"1216 HAMMOND DRIVE","LAURINBURG","NC",28352,34.7605479040001,-79.4635483819999,284,"1216 HAMMOND DRIVE, LAURINBURG, NC, 28352","Match","Exact","1216 HAMMOND DR, LAURINBURG, NC, 28352",25798824,"L"
110785,"1216 HARTFORD DR","VIRGINIA BEACH","VA",23464,36.797939629,-76.137938423,285,"1216 HARTFORD DR, VIRGINIA BEACH, VA, 23464","Match","Exact","1216 HARTFORD DR, VA BCH, VA, 23464",122265444,"L"
110786,"1216 HAWKHILL DR","FRIENDSWOOD","TX",77546,29.493094741,-95.189688659,286,"1216 HAWKHILL DR, FRIENDSWOOD, TX, 77546","Match","Exact","1216 HAWKHILL DR, FRIENDSWOOD, TX, 77546",96700443,"L"
110787,"1216 HIGHLAND PARK BLVD","WAUSAU","WI",54403,44.96640137,-89.612099299,287,"1216 HIGHLAND PARK BLVD, WAUSAU, WI, 54403","Match","Exact","1216 HIGHLAND PARK BLVD, WAUSAU, WI, 54403",117137485,"L"
110788,"1216 HIGHWAY H","HERMANN","MO",65041,NA,NA,288,"1216 HIGHWAY H, HERMANN, MO, 65041","No_Match",NA,NA,NA,NA
110789,"1216 HILL STREET","GREENSBORO","NC",27408,36.0907247710001,-79.799451319,289,"1216 HILL STREET, GREENSBORO, NC, 27408","Match","Exact","1216 HILL ST, GREENSBORO, NC, 27408",131031756,"R"
110790,"1216 HILL STREET","SANTA MONICA","CA",90405,34.0076049260001,-118.470956378,290,"1216 HILL STREET, SANTA MONICA, CA, 90405","Match","Exact","1216 HILL ST, SANTA MONICA, CA, 90405",141568976,"R"
110791,"1216 HILLSIDE AVE APT4","NORFOLK","VA",23503,36.944132057,-76.237686652,291,"1216 HILLSIDE AVE APT4, NORFOLK, VA, 23503","Match","Exact","1216 HILLSIDE AVE, NORFOLK, VA, 23503",122140800,"L"
110792,"1216 HONEYSUCKLE DRIVE","LIBERTY","MO",64068,39.229556771,-94.4017320459999,292,"1216 HONEYSUCKLE DRIVE, LIBERTY, MO, 64068","Match","Exact","1216 HONEYSUCKLE DR, LIBERTY, MO, 64068",616143479,"R"
110793,"1216 HUNTER COURT","CREEDMOOR","NC",27522,36.1161702740001,-78.7295397079999,293,"1216 HUNTER COURT, CREEDMOOR, NC, 27522","Match","Exact","1216 HUNTER CT, CREEDMOOR, NC, 27522",637913372,"R"
110794,"1216 IDAHO STREET","LEWISTON","ID",83501,46.4167008950001,-117.017128859,294,"1216 IDAHO STREET, LEWISTON, ID, 83501","Match","Exact","1216 IDAHO ST, LEWISTON, ID, 83501",173130443,"L"
110795,"1216 ISLAND DRIVE","LUMMI ISLAND","WA",98262,48.686496477,-122.641793724,295,"1216 ISLAND DRIVE, LUMMI ISLAND, WA, 98262","Match","Exact","1216 ISLAND DR, LUMMI ISLAND, WA, 98262",183767242,"R"
110796,"1216 JACKSON ST","LA CROSSE","WI",54601,43.801455004,-91.239161211,296,"1216 JACKSON ST, LA CROSSE, WI, 54601","Match","Exact","1216 JACKSON ST, LA CROSSE, WI, 54601",51022422,"R"
110797,"1216 JAMESTOWN","EDMOND","OK",73003,35.650540081,-97.499932417,297,"1216 JAMESTOWN, EDMOND, OK, 73003","Match","Exact","1216 JAMESTOWN, EDMOND, OK, 73003",635873453,"R"
110798,"1216 JANAF PLACE","NORFOLK","VA",23502,36.863454656,-76.2051635459999,298,"1216 JANAF PLACE, NORFOLK, VA, 23502","Match","Exact","1216 JANAF PL, NORFOLK, VA, 23502",122126951,"R"
110799,"1216 JASMINE LANE","LONGVIEW","TX",75604,32.529552096,-94.768159614,299,"1216 JASMINE LANE, LONGVIEW, TX, 75604","Match","Exact","1216 JASMINE LN, LONGVIEW, TX, 75604",141140378,"L"
110800,"1216 JEFF ROAD NW","HUNTSVILLE","AL",35806,34.790201095,-86.7140386999999,300,"1216 JEFF ROAD NW, HUNTSVILLE, AL, 35806","Match","Exact","1216 JEFF RD NW, HUNTSVILLE, AL, 35806",58197487,"R"
110801,"1216 K ST NE","AUBURN","WA",98002,47.3188698920001,-122.215909001,301,"1216 K ST NE, AUBURN, WA, 98002","Match","Exact","1216 K ST NE, AUBURN, WA, 98002",186653900,"R"
110802,"1216 KIMERY DR","HIGH POINT","NC",27260,35.976891591,-79.980948332,302,"1216 KIMERY DR, HIGH POINT, NC, 27260","Match","Exact","1216 KIMERY DR, HIGH POINT, NC, 27260",633834923,"R"
110803,"1216 LA RUE DE BROUSSARD","NEW IBERIA","LA",70560,29.965653624,-91.876602217,303,"1216 LA RUE DE BROUSSARD, NEW IBERIA, LA, 70560","Match","Exact","1216 LA RUE DE BROUSSARD, NEW IBERIA, LA, 70560",85367048,"L"
110804,"1216 LAKELAND BLVD","MATTOON","IL",61938,39.4710232890001,-88.3765154009999,304,"1216 LAKELAND BLVD, MATTOON, IL, 61938","Match","Non_Exact","1216 LAKE LAND BLVD, MATTOON, IL, 61938",5414791,"R"
110805,"1216 LAMA COURT","VENTURA","CA",93003,34.2661563400001,-119.194787937,305,"1216 LAMA COURT, VENTURA, CA, 93003","Match","Non_Exact","1216 LLAMA CT, VENTURA, CA, 93003",110036860,"L"
110806,"1216 LAUREL PARK DRIVE","ROBINSON","TX",76706,31.4605052250001,-97.134141976,306,"1216 LAUREL PARK DRIVE, ROBINSON, TX, 76706","Match","Exact","1216 LAUREL PARK DR, ROBINSON, TX, 76706",627701890,"R"
110807,"1216 LEISURE LN","DESOTO","TX",75115,32.6127410940001,-96.891964608,307,"1216 LEISURE LN, DESOTO, TX, 75115","Match","Exact","1216 LEISURE LN, DESOTO, TX, 75115",102994501,"R"
110808,"1216 LEMOYNE AVE","SYRACUSE","NY",13208,43.0803759720001,-76.153057185,308,"1216 LEMOYNE AVE, SYRACUSE, NY, 13208","Match","Exact","1216 LEMOYNE AVE, SYRACUSE, NY, 13208",46569094,"R"
110809,"1216 LIFFEY DRIVE","PFLUGERVILLE","TX",78660,30.472426139,-97.639103004,309,"1216 LIFFEY DRIVE, PFLUGERVILLE, TX, 78660","Match","Exact","1216 LIFFEY DR, PFLUGERVILLE, TX, 78660",63991671,"R"
110810,"1216 LOG CABIN ROAD","CHARLOTTE","NC",28213,35.2746991380001,-80.785163267,310,"1216 LOG CABIN ROAD, CHARLOTTE, NC, 28213","Match","Exact","1216 LOG CABIN RD, CHARLOTTE, NC, 28213",640628675,"R"
110811,"1216 LOGGERS WAY SW","DECATUR","AL",35603,34.545814395,-87.0086271769999,311,"1216 LOGGERS WAY SW, DECATUR, AL, 35603","Match","Exact","1216 LOGGERS WAY SW, DECATUR, AL, 35603",97118481,"R"
110812,"1216 MAJESTY TERRACE","WESTON","FL",33327,26.122296137,-80.420581898,312,"1216 MAJESTY TERRACE, WESTON, FL, 33327","Match","Exact","1216 MAJESTY TER, WESTON, FL, 33327",114812819,"L"
110813,"1216 MARAVILLA DR","EDINBURG","TX",78539,NA,NA,313,"1216 MARAVILLA DR, EDINBURG, TX, 78539","No_Match",NA,NA,NA,NA
110814,"1216 MATTHEW HILLS LN","SPRING","TX",77386,30.090550454,-95.376716212,314,"1216 MATTHEW HILLS LN, SPRING, TX, 77386","Match","Exact","1216 MATTHEW HILLS LN, SPRING, TX, 77386",641136243,"R"
110815,"1216 MCKINNIE STREET","FORT WAYNE","IN",46806,41.0461922420001,-85.1197490169999,315,"1216 MCKINNIE STREET, FORT WAYNE, IN, 46806","Match","Non_Exact","1216 MCKINNIE AVE, FORT WAYNE, IN, 46806",6383397,"R"
110816,"1216 MERIDENE DR","BALTIMORE","MD",21239,39.3683105690001,-76.592090425,316,"1216 MERIDENE DR, BALTIMORE, MD, 21239","Match","Exact","1216 MERIDENE DR, BALTIMORE, MD, 21239",206446009,"L"
110817,"1216 MILTON AVENUE","KANNAPOLIS","NC",28081,35.477497907,-80.630437166,317,"1216 MILTON AVENUE, KANNAPOLIS, NC, 28081","Match","Exact","1216 MILTON AVE, KANNAPOLIS, NC, 28081",647179816,"R"
110818,"1216 MITCHELL AVE","MOSES LAKE","WA",98837,47.1691123350001,-119.32197161,318,"1216 MITCHELL AVE, MOSES LAKE, WA, 98837","Match","Exact","1216 MITCHELL AVE, MOSES LAKE, WA, 98837",157089656,"R"
110819,"1216 MONCOEUR DRIVE","ST LOUIS","MO",63146,38.6782494880001,-90.431940647,319,"1216 MONCOEUR DRIVE, ST LOUIS, MO, 63146","Match","Exact","1216 MONCOEUR DR, SAINT LOUIS, MO, 63146",640056086,"L"
110820,"1216 MONTE SANO BLVD","HUNTSVILLE","AL",35801,34.734480798,-86.5317081329999,320,"1216 MONTE SANO BLVD, HUNTSVILLE, AL, 35801","Match","Non_Exact","1216 MONTE SANO BLVD SE, HUNTSVILLE, AL, 35801",58137854,"R"
110821,"1216 N AUSTIN BLVD","OAK PARK","IL",60302,41.902699318,-87.7753886519999,321,"1216 N AUSTIN BLVD, OAK PARK, IL, 60302","Match","Exact","1216 N AUSTIN BLVD, OAK PARK, IL, 60302",605042344,"L"
110822,"1216 N BANGOR AVE","LUBBOCK","TX",79416,NA,NA,322,"1216 N BANGOR AVE, LUBBOCK, TX, 79416","Tie",NA,NA,NA,NA
110823,"1216 N LANSING AVE SUITE A","TULSA","OK",74106,36.1722741880001,-95.980596362,323,"1216 N LANSING AVE SUITE A, TULSA, OK, 74106","Match","Non_Exact","1216 N LANSING AVE, TULSA, OK, 74106",166511960,"L"
110824,"1216 N RIDGE RD","MCHENRY","IL",60050,42.3457218020001,-88.345499403,324,"1216 N RIDGE RD, MCHENRY, IL, 60050","Match","Exact","1216 N RIDGE RD, MCHENRY, IL, 60050",119856930,"R"
110825,"1216 N TYLER CT","LAFAYETTE","OR",97127,45.2499193350001,-123.113652447,325,"1216 N TYLER CT, LAFAYETTE, OR, 97127","Match","Exact","1216 N TYLER CT, LAFAYETTE, OR, 97127",627138946,"R"
110826,"1216 NE 13TH ST","GAINESVILLE","FL",32601,29.663640054,-82.308458853,326,"1216 NE 13TH ST, GAINESVILLE, FL, 32601","Match","Exact","1216 NE 13TH ST, GAINESVILLE, FL, 32601",6855212,"L"
110827,"1216 NE 93RD STREET","KANSAS CITY","MO",64155,39.263714511,-94.564513563,327,"1216 NE 93RD STREET, KANSAS CITY, MO, 64155","Match","Exact","1216 NE 93RD ST, KANSAS CITY, MO, 64155",89775092,"L"
110828,"1216 NORMANDIE AVE","LOS ANGELES","CA",90006,34.0486663250001,-118.299961503,328,"1216 NORMANDIE AVE, LOS ANGELES, CA, 90006","Match","Non_Exact","1216 S NORMANDIE AVE, LOS ANGELES, CA, 90006",141604103,"L"
110829,"1216 NORTH CAMPBELL AVE","CHICAGO","IL",60622,41.9036311610001,-87.689510226,329,"1216 NORTH CAMPBELL AVE, CHICAGO, IL, 60622","Match","Exact","1216 N CAMPBELL AVE, CHICAGO, IL, 60622",605058910,"L"
110830,"1216 NORTH ST FRANCIS","WICHITA","KS",67214,37.704828703,-97.3316674019999,330,"1216 NORTH ST FRANCIS, WICHITA, KS, 67214","Match","Non_Exact","1216 N SAINT FRANCIS ST, WICHITA, KS, 67214",115635103,"R"
110831,"1216 NORTH VELASCO STREET SUITE F","ANGLETON","TX",77515,29.184522443,-95.43308124,331,"1216 NORTH VELASCO STREET SUITE F, ANGLETON, TX, 77515","Match","Exact","1216 N VELASCO ST, ANGLETON, TX, 77515",648084957,"R"
110832,"1216 NORTH VELASCO SUITE F","ANGLETON","TX",77515,29.184522443,-95.43308124,332,"1216 NORTH VELASCO SUITE F, ANGLETON, TX, 77515","Match","Non_Exact","1216 N VELASCO ST, ANGLETON, TX, 77515",648084957,"R"
110833,"1216 NORTH VELASCO","ANGLETON","TX",77515,29.184522443,-95.43308124,333,"1216 NORTH VELASCO, ANGLETON, TX, 77515","Match","Non_Exact","1216 N VELASCO ST, ANGLETON, TX, 77515",648084957,"R"
110834,"1216 NW 13TH ST","GAINESVILLE","FL",32601,NA,NA,334,"1216 NW 13TH ST, GAINESVILLE, FL, 32601","Tie",NA,NA,NA,NA
110835,"1216 NW 148TH CIRCLE","VANCOUVER","WA",98685,45.728242381,-122.683081489,335,"1216 NW 148TH CIRCLE, VANCOUVER, WA, 98685","Match","Exact","1216 NW 148TH CIR, VANCOUVER, WA, 98685",158372248,"R"
110836,"1216 NW 17TH AVE","BATTLE GROUND","WA",98604,NA,NA,336,"1216 NW 17TH AVE, BATTLE GROUND, WA, 98604","Tie",NA,NA,NA,NA
110837,"1216 NW 9TH AVE","GAINSVILLE","FL",32601,NA,NA,337,"1216 NW 9TH AVE, GAINSVILLE, FL, 32601","Tie",NA,NA,NA,NA
110838,"1216 NW ROLLING ROCK ROAD","ANKENY","IA",50023,41.741655032,-93.644895103,338,"1216 NW ROLLING ROCK ROAD, ANKENY, IA, 50023","Match","Exact","1216 NW ROLLING ROCK RD, ANKENY, IA, 50023",640379699,"L"
110839,"1216 OAK KNOLL AVE","NAPA","CA",94558,38.358737879,-122.319220351,339,"1216 OAK KNOLL AVE, NAPA, CA, 94558","Match","Exact","1216 OAK KNOLL AVE, NAPA, CA, 94558",624752726,"R"
110840,"1216 OAK KNOLL AVENUE","NAPA","CA",94558,38.358737879,-122.319220351,340,"1216 OAK KNOLL AVENUE, NAPA, CA, 94558","Match","Exact","1216 OAK KNOLL AVE, NAPA, CA, 94558",624752726,"R"
110841,"1216 OAKMONT AVE","ERIE","PA",16505,42.090493634,-80.169608734,341,"1216 OAKMONT AVE, ERIE, PA, 16505","Match","Exact","1216 OAKMONT AVE, ERIE, PA, 16505",117492457,"R"
110842,"1216 OAKMONT DRIVE UNIT 8","WALNUT CREEK","CA",94595,37.8700783080001,-122.077629261,342,"1216 OAKMONT DRIVE UNIT 8, WALNUT CREEK, CA, 94595","Match","Exact","1216 OAKMONT DR, WALNUT CREEK, CA, 94595",636425939,"R"
110843,"1216 OXFORD RD","CLEVELAND HTS","OH",44121,41.527529386,-81.545358843,343,"1216 OXFORD RD, CLEVELAND HTS, OH, 44121","Match","Exact","1216 OXFORD RD, CLEVELAND HEIGHTS, OH, 44121",61124311,"R"
110844,"1216 PALMETTO AVE","BRUNSWICK","GA",31520,31.148558533,-81.481440307,344,"1216 PALMETTO AVE, BRUNSWICK, GA, 31520","Match","Exact","1216 PALMETTO AVE, BRUNSWICK, GA, 31520",9153314,"R"
110845,"1216 PALMETTO STREET","PINEVILLE","LA",71360,31.3362563330001,-92.413797487,345,"1216 PALMETTO STREET, PINEVILLE, LA, 71360","Match","Exact","1216 PALMETTO ST, PINEVILLE, LA, 71360",11778684,"R"
110846,"1216 PALMETTO","PINEVILLE","LA",71360,31.3362563330001,-92.413797487,346,"1216 PALMETTO, PINEVILLE, LA, 71360","Match","Non_Exact","1216 PALMETTO ST, PINEVILLE, LA, 71360",11778684,"R"
110847,"1216 PARK AVE","MALVERN","AR",72104,34.3505466190001,-92.798641845,347,"1216 PARK AVE, MALVERN, AR, 72104","Match","Exact","1216 PARK AVE, MALVERN, AR, 72104",23908075,"L"
110848,"1216 PERRINE","RAWLINS","WY",82301,41.7995819830001,-107.233571704,348,"1216 PERRINE, RAWLINS, WY, 82301","Match","Non_Exact","1216 PERRINE ST, RAWLINS, WY, 82301",148741507,"L"
110849,"1216 PET SITES RD","CHAPIN","SC",29036,34.180035875,-81.280009639,349,"1216 PET SITES RD, CHAPIN, SC, 29036","Match","Exact","1216 PET SITES RD, CHAPIN, SC, 29036",71837831,"R"
110850,"1216 PHILLIPS DR","DUMAS","TX",79029,35.8527905760001,-101.957815296,350,"1216 PHILLIPS DR, DUMAS, TX, 79029","Match","Exact","1216 PHILLIPS DR, DUMAS, TX, 79029",164660114,"L"
110851,"1216 PINGREE","DETROIT","MI",48202,42.374716603,-83.088939674,351,"1216 PINGREE, DETROIT, MI, 48202","Match","Non_Exact","1216 PINGREE ST, DETROIT, MI, 48202",95475288,"R"
110852,"1216 PORCHES DR","WILMINGTON","NC",28409,34.0877026960001,-77.890327766,352,"1216 PORCHES DR, WILMINGTON, NC, 28409","Match","Exact","1216 PORCHES DR, WILMINGTON, NC, 28409",630156616,"R"
110853,"1216 QUESADA AVENUE","SAN FRANCISCO","CA",94124,37.728288966,-122.382526249,353,"1216 QUESADA AVENUE, SAN FRANCISCO, CA, 94124","Match","Exact","1216 QUESADA AVE, SAN FRANCISCO, CA, 94124",192291091,"R"
110854,"1216 RHODES WALK","CONYERS","GA",30094,33.651738192,-84.0773825059999,354,"1216 RHODES WALK, CONYERS, GA, 30094","Match","Non_Exact","1216 RHODES WALK SW, CONYERS, GA, 30094",639890364,"L"
110855,"1216 RICHARD PL","GLENDALE","CA",91206,34.1525765600001,-118.23887687,355,"1216 RICHARD PL, GLENDALE, CA, 91206","Match","Exact","1216 RICHARD PL, GLENDALE, CA, 91206",141609571,"R"
110856,"1216 RICHMOND ST NW","GRAND RAPIDS","MI",49504,42.9928306670001,-85.698916321,356,"1216 RICHMOND ST NW, GRAND RAPIDS, MI, 49504","Match","Exact","1216 RICHMOND ST NW, GRAND RAPIDS, MI, 49504",12455464,"L"
110857,"1216 RIVERCREST DR","NEW BRAUNFELS","TX",78130,29.719790528,-98.110069521,357,"1216 RIVERCREST DR, NEW BRAUNFELS, TX, 78130","Match","Exact","1216 RIVERCREST DR, NEW BRAUNFELS, TX, 78130",72245483,"R"
110858,"1216 ROCKY MTN DRIVE NORTH","EFFORT","PA",18330,40.9935412670001,-75.4446637359999,358,"1216 ROCKY MTN DRIVE NORTH, EFFORT, PA, 18330","Match","Exact","1216 ROCKY MOUNTAIN DR N, EFFORT, PA, 18330",136764490,"R"
110859,"1216 ROME PR","LEBANON","TN",37087,36.2202924010001,-86.242904561,359,"1216 ROME PR, LEBANON, TN, 37087","Match","Non_Exact","1216 ROME PIKE, LEBANON, TN, 37087",89697891,"L"
110860,"1216 ROUND HILL DRIVE","BATON ROUGE","LA",70810,30.379376226,-91.1046568369999,360,"1216 ROUND HILL DRIVE, BATON ROUGE, LA, 70810","Match","Non_Exact","1216 ROUNDHILL DR, BATON ROUGE, LA, 70810",92192829,"R"
110861,"1216 ROYAL STREET NUMBER 1","NEW ORLEANS","LA",70116,29.9621515480001,-90.0610076729999,361,"1216 ROYAL STREET NUMBER 1, NEW ORLEANS, LA, 70116","Match","Exact","1216 ROYAL ST, NEW ORLEANS, LA, 70116",191716744,"R"
110862,"1216 S 15TH AVE","YAKIMA","WA",98902,46.582873437,-120.528976103,362,"1216 S 15TH AVE, YAKIMA, WA, 98902","Match","Exact","1216 S 15TH AVE, YAKIMA, WA, 98902",184935806,"R"
110863,"1216 S 18TH ST","PEKIN","IL",61554,40.5573056960001,-89.626595102,363,"1216 S 18TH ST, PEKIN, IL, 61554","Match","Exact","1216 S 18TH ST, PEKIN, IL, 61554",608221148,"L"
110864,"1216 S BERNHARDT AVE","GERALD","MO",63037,38.390234837,-91.329106687,364,"1216 S BERNHARDT AVE, GERALD, MO, 63037","Match","Exact","1216 S BERNHARDT AVE, GERALD, MO, 63037",605183080,"R"
110865,"1216 S BOLIVAR LANE","SPOKANE VALLEY","WA",99037,47.6457901540001,-117.216030586,365,"1216 S BOLIVAR LANE, SPOKANE VALLEY, WA, 99037","Match","Exact","1216 S BOLIVAR LN, SPOKANE VALLEY, WA, 99037",641102428,"L"
110866,"1216 S CAROLINA AVE","AVON PARK","FL",33825,27.582625143,-81.4960956799999,366,"1216 S CAROLINA AVE, AVON PARK, FL, 33825","Match","Exact","1216 SOUTH CAROLINA AVE, AVON PARK, FL, 33825",4629843,"L"
110867,"1216 S CLARA RD","GREENACRES","WA",99016,47.6445694940001,-117.150159041,367,"1216 S CLARA RD, GREENACRES, WA, 99016","Match","Exact","1216 S CLARA RD, GREENACRES, WA, 99016",653501045,"R"
110868,"1216 S HOYT AVE","LAKEWOOD","CO",80232,39.6949556010001,-105.104412866,368,"1216 S HOYT AVE, LAKEWOOD, CO, 80232","Match","Non_Exact","1216 S HOYT ST, LAKEWOOD, CO, 80232",177319452,"L"
110869,"1216 S NEW WILKE ROAD STE 403","ARLINGTON HEIGHTS","IL",60005,NA,NA,369,"1216 S NEW WILKE ROAD STE 403, ARLINGTON HEIGHTS, IL, 60005","No_Match",NA,NA,NA,NA
110870,"1216 S ROLFE ST","ARLINGTON","VA",22204,38.862905025,-77.074694592,370,"1216 S ROLFE ST, ARLINGTON, VA, 22204","Match","Exact","1216 S ROLFE ST, ARLINGTON, VA, 22204",650276402,"R"
110871,"1216 SCARLET OAK","MANDEVILLE","LA",70448,NA,NA,371,"1216 SCARLET OAK, MANDEVILLE, LA, 70448","No_Match",NA,NA,NA,NA
110872,"1216 SCHEFFER AVE","ST PAUL","MN",55116,44.9214955460001,-93.15156572,372,"1216 SCHEFFER AVE, ST PAUL, MN, 55116","Match","Non_Exact","1216 W SCHEFFER AVE, SAINT PAUL, MN, 55116",97647015,"L"
110873,"1216 SEWARD DRIVE","OFALLON","IL",62269,38.6113100320001,-89.926997613,373,"1216 SEWARD DRIVE, OFALLON, IL, 62269","Match","Non_Exact","1216 SEWARD DR, O FALLON, IL, 62269",107934674,"R"
110874,"1216 SHAW STREET","BURLINGTON","NC",27217,36.111120166,-79.429111986,374,"1216 SHAW STREET, BURLINGTON, NC, 27217","Match","Exact","1216 SHAW ST, BURLINGTON, NC, 27217",636564942,"L"
110875,"1216 SILVER HAWK CT","PUEBLO","CO",81008,38.3209849950001,-104.624214536,375,"1216 SILVER HAWK CT, PUEBLO, CO, 81008","Match","Exact","1216 SILVER HAWK CT, PUEBLO, CO, 81008",637477777,"L"
110876,"1216 SOLSTICE LANE","FORT COLLINS","CO",80525,40.562152311,-105.056314713,376,"1216 SOLSTICE LANE, FORT COLLINS, CO, 80525","Match","Exact","1216 SOLSTICE LN, FORT COLLINS, CO, 80525",188539076,"L"
110877,"1216 SOUTH MAIN STREET","MEADVILLE","PA",16335,41.6310453250001,-80.152847101,377,"1216 SOUTH MAIN STREET, MEADVILLE, PA, 16335","Match","Exact","1216 S MAIN ST, MEADVILLE, PA, 16335",98571479,"L"
110878,"1216 SOUTHERN AVENUE APT 301","WASHINGTON","DC",20032,38.833677261,-76.985325829,378,"1216 SOUTHERN AVENUE APT 301, WASHINGTON, DC, 20032","Match","Exact","1216 SOUTHERN AVE, WASHINGTON, DC, 20032",635190521,"L"
110879,"1216 SPEER DRIVE","MODESTO","CA",95358,37.651334664,-121.036981057,379,"1216 SPEER DRIVE, MODESTO, CA, 95358","Match","Exact","1216 SPEER DR, MODESTO, CA, 95358",102630974,"L"
110880,"1216 ST JOHN ST","LAFAYETTE","LA",70506,30.2199389730001,-92.022979654,380,"1216 ST JOHN ST, LAFAYETTE, LA, 70506","Match","Exact","1216 ST JOHN ST, LAFAYETTE, LA, 70506",85615808,"R"
110881,"1216 STATE ROUTE 80","TULLY","NY",13159,42.831679971,-76.198543112,381,"1216 STATE ROUTE 80, TULLY, NY, 13159","Match","Exact","1216 STATE RTE 80, TULLY, NY, 13159",46557019,"R"
110882,"1216 STOCKTON RD","CLARK","NJ",7066,40.6322013340001,-74.2824275259999,382,"1216 STOCKTON RD, CLARK, NJ, 7066","Match","Exact","1216 STOCKTON RD, CLARK, NJ, 07066",60575189,"R"
110883,"1216 STUMPFS RD","MIDDLE RIVER","MD",21220,39.375267969,-76.401132423,383,"1216 STUMPFS RD, MIDDLE RIVER, MD, 21220","Match","Exact","1216 STUMPFS RD, MIDDLE RIVER, MD, 21220",645533001,"L"
110884,"1216 SUNSET ROAD","CHARLOTTE","NC",28216,35.322326715,-80.899761735,384,"1216 SUNSET ROAD, CHARLOTTE, NC, 28216","Match","Exact","1216 SUNSET RD, CHARLOTTE, NC, 28216",70555457,"L"
110885,"1216 SW RUSS LN","MCMINNVILLE","OR",97128,45.2035275800001,-123.210428499,385,"1216 SW RUSS LN, MCMINNVILLE, OR, 97128","Match","Exact","1216 SW RUSS LN, MCMINNVILLE, OR, 97128",156508798,"R"
110886,"1216 THAYER ST","ALGIERS","LA",70114,29.9428817690001,-90.043275415,386,"1216 THAYER ST, ALGIERS, LA, 70114","Match","Non_Exact","1216 THAYER ST, NEW ORLEANS, LA, 70114",191718984,"L"
110887,"1216 THIRD STREET SE","INDEPENDENCE","IA",50644,42.4666661190001,-91.878484288,387,"1216 THIRD STREET SE, INDEPENDENCE, IA, 50644","Match","Exact","1216 3RD ST SE, INDEPENDENCE, IA, 50644",101136722,"R"
110888,"1216 TOLMAN CREEK ROAD","ASHLAND","OR",97520,42.1726261490001,-122.671500651,388,"1216 TOLMAN CREEK ROAD, ASHLAND, OR, 97520","Match","Exact","1216 TOLMAN CREEK RD, ASHLAND, OR, 97520",649914832,"R"
110889,"1216 TRICK AVE","FT WAYNE","IN",46808,41.1158475140001,-85.1590631129999,389,"1216 TRICK AVE, FT WAYNE, IN, 46808","Match","Exact","1216 TRICK AVE, FORT WAYNE, IN, 46808",6376458,"R"
110890,"1216 TRUMAN ST SE","ALBUQUERQUE","NM",87108,35.063409322,-106.587419954,390,"1216 TRUMAN ST SE, ALBUQUERQUE, NM, 87108","Match","Exact","1216 TRUMAN ST SE, ALBUQUERQUE, NM, 87108",206718237,"L"
110891,"1216 VALLEY ROAD","VILLANOVA","PA",19085,40.0614251050001,-75.318636496,391,"1216 VALLEY ROAD, VILLANOVA, PA, 19085","Match","Exact","1216 VALLEY RD, VILLANOVA, PA, 19085",135118573,"L"
110892,"1216 VINTAGE DR","KENNER","LA",70065,30.0315831710001,-90.25130907,392,"1216 VINTAGE DR, KENNER, LA, 70065","Match","Exact","1216 VINTAGE DR, KENNER, LA, 70065",93546956,"L"
110893,"1216 W  ALABAMA ST","HOUSTON","TX",77006,29.738759084,-95.393955824,393,"1216 W  ALABAMA ST, HOUSTON, TX, 77006","Match","Exact","1216 W ALABAMA ST, HOUSTON, TX, 77006",96064534,"R"
110894,"1216 W 1200 N","LAYTON","UT",84041,41.0779241380001,-111.988246847,394,"1216 W 1200 N, LAYTON, UT, 84041","Match","Exact","1216 W 1200 N, LAYTON, UT, 84041",155315629,"L"
110895,"1216 W 9TH STREET","RUSSELLVILLE","KY",42276,36.828445324,-86.9086804579999,395,"1216 W 9TH STREET, RUSSELLVILLE, KY, 42276","Match","Exact","1216 W 9TH ST, RUSSELLVILLE, KY, 42276",636238869,"L"
110896,"1216 W FIRST AVE","COLUMBUS","OH",43212,39.9808982230001,-83.037249149,396,"1216 W FIRST AVE, COLUMBUS, OH, 43212","Match","Exact","1216 W 1ST AVE, COLUMBUS, OH, 43212",218689416,"R"
110897,"1216 W HIGH STREET APT A","JEFFERSON CITY","MO",65109,38.5868483680001,-92.1870975149999,397,"1216 W HIGH STREET APT A, JEFFERSON CITY, MO, 65109","Match","Non_Exact","1216 W HIGH ST, JEFFERSON CITY, MO, 65109",34407515,"R"
110898,"1216 W HIGH STREET","HADDON HEIGHTS","NJ",8035,39.875014542,-75.063424207,398,"1216 W HIGH STREET, HADDON HEIGHTS, NJ, 8035","Match","Exact","1216 W HIGH ST, HADDON HEIGHTS, NJ, 08035",134351827,"L"
110899,"1216 W KING ST","SPEARFISH","SD",57783,44.4921711040001,-103.876257402,399,"1216 W KING ST, SPEARFISH, SD, 57783","Match","Exact","1216 KING ST, SPEARFISH, SD, 57783",193361935,"R"
110900,"1216 W NASHVILLE ST","BROKEN ARROW","OK",74012,36.041089867,-95.802393184,400,"1216 W NASHVILLE ST, BROKEN ARROW, OK, 74012","Match","Exact","1216 W NASHVILLE ST, BROKEN ARROW, OK, 74012",642071508,"L"
110901,"1216 W STATE STREET","MARSHALLTOWN","IA",50158,42.050347634,-92.9329156639999,401,"1216 W STATE STREET, MARSHALLTOWN, IA, 50158","Match","Exact","1216 W STATE ST, MARSHALLTOWN, IA, 50158",90920674,"L"
110902,"1216 W STRAFORD DR","CHANDLER","AZ",85224,33.3531923470001,-111.862379416,402,"1216 W STRAFORD DR, CHANDLER, AZ, 85224","Match","Exact","1216 W STRAFORD DR, CHANDLER, AZ, 85224",637417605,"R"
110903,"1216 W WEBSTER AVE 3W","CHICAGO","IL",60614,41.9216608290001,-87.659078116,403,"1216 W WEBSTER AVE 3W, CHICAGO, IL, 60614","Match","Non_Exact","1216 W WEBSTER AVE, CHICAGO, IL, 60614",605167281,"R"
110904,"1216 W WICKHAM DRIVE","ST GEORGE","UT",84790,37.0275002810001,-113.6089485,404,"1216 W WICKHAM DRIVE, ST GEORGE, UT, 84790","Match","Exact","1216 W WICKHAM DR, SAINT GEORGE, UT, 84790",652125009,"L"
110905,"1216 WALKUP AVENUE","MONROE","NC",28110,34.984128877,-80.533858814,405,"1216 WALKUP AVENUE, MONROE, NC, 28110","Match","Exact","1216 WALKUP AVE, MONROE, NC, 28110",14194460,"R"
110906,"1216 WEBSTER ST","SANTA CRUZ","CA",95062,36.979774696,-121.98608642,406,"1216 WEBSTER ST, SANTA CRUZ, CA, 95062","Match","Exact","1216 WEBSTER ST, SANTA CRUZ, CA, 95062",606003175,"R"
110907,"1216 WEST 50TH SYTREET","CAPE CORAL","FL",33908,NA,NA,407,"1216 WEST 50TH SYTREET, CAPE CORAL, FL, 33908","No_Match",NA,NA,NA,NA
110908,"1216 WEST 700 SOUTH","PENDLETON","IN",46064,40.004036882,-85.69625546,408,"1216 WEST 700 SOUTH, PENDLETON, IN, 46064","Match","Exact","1216 W 700 S, PENDLETON, IN, 46064",31130676,"L"
110909,"1216 WEST CROSS STREET","BALTIMORE","MD",21230,39.2822020240001,-76.631583602,409,"1216 WEST CROSS STREET, BALTIMORE, MD, 21230","Match","Exact","1216 W CROSS ST, BALTIMORE, MD, 21230",206418518,"R"
110910,"1216 WEST HUDGINS ST","GRAPEVINE","TX",76051,32.932813519,-97.0880924799999,410,"1216 WEST HUDGINS ST, GRAPEVINE, TX, 76051","Match","Exact","1216 W HUDGINS ST, GRAPEVINE, TX, 76051",102121214,"L"
110911,"1216 WEST MENK DRIVE","SAINT PETER","MN",56082,44.312443171,-93.9837282349999,411,"1216 WEST MENK DRIVE, SAINT PETER, MN, 56082","Match","Exact","1216 W MENK DR, SAINT PETER, MN, 56082",610531808,"L"
110912,"1216 WEST ROAD","BOWDOIN","ME",4287,44.1227154870001,-69.999914023,412,"1216 WEST ROAD, BOWDOIN, ME, 4287","Match","Exact","1216 WEST RD, BOWDOIN, ME, 04287",75609481,"L"
110913,"1216 WEST WESSON STREET","EL DORADO","AR",71730,33.2093648360001,-92.677932186,413,"1216 WEST WESSON STREET, EL DORADO, AR, 71730","Match","Exact","1216 W WESSON ST, EL DORADO, AR, 71730",28162292,"R"
110914,"1216 WEST WOOD","ROSENBERG","TX",77471,29.5725393220001,-95.772137872,414,"1216 WEST WOOD, ROSENBERG, TX, 77471","Match","Non_Exact","1216 WESTWOOD DR, ROSENBERG, TX, 77471",78263474,"R"
110915,"1216 WESTWOOD DR  1107","ROSENBERG","TX",77471,29.5725393220001,-95.772137872,415,"1216 WESTWOOD DR  1107, ROSENBERG, TX, 77471","Match","Exact","1216 WESTWOOD DR, ROSENBERG, TX, 77471",78263474,"R"
110916,"1216 WHITBY ROAD","RICHMOND","VA",23227,37.5737054960001,-77.4501095049999,416,"1216 WHITBY ROAD, RICHMOND, VA, 23227","Match","Exact","1216 WHITBY RD, RICHMOND, VA, 23227",201538412,"R"
110917,"1216 WILLIAMS STREET","DIGHTON","MA",2715,41.8410257830001,-71.1584099949999,417,"1216 WILLIAMS STREET, DIGHTON, MA, 2715","Match","Exact","1216 WILLIAMS ST, DIGHTON, MA, 02715",633036687,"L"
110918,"1216 WILLOWDALE LANE","IRVING","TX",75063,32.9286337020001,-96.963926773,418,"1216 WILLOWDALE LANE, IRVING, TX, 75063","Match","Exact","1216 WILLOWDALE LN, IRVING, TX, 75063",617054455,"L"
110919,"1216 WILLOWDALE LN","IRVING","TX",75063,32.9286337020001,-96.963926773,419,"1216 WILLOWDALE LN, IRVING, TX, 75063","Match","Exact","1216 WILLOWDALE LN, IRVING, TX, 75063",617054455,"L"
110920,"1216 WREN PLACE","NEW RICHMOND","WI",54017,45.106527838,-92.520005999,420,"1216 WREN PLACE, NEW RICHMOND, WI, 54017","Match","Exact","1216 WREN PL, NEW RICHMOND, WI, 54017",110920975,"R"
110921,"1216 WYANDOTTE","ROYAL OAK","MI",48067,42.479709691,-83.132132766,421,"1216 WYANDOTTE, ROYAL OAK, MI, 48067","Match","Non_Exact","1216 WYANDOTTE AVE, ROYAL OAK, MI, 48067",69746198,"R"
110922,"1216 WYLIE ST SE","ATLANTA","GA",30317,33.752366426,-84.347795807,422,"1216 WYLIE ST SE, ATLANTA, GA, 30317","Match","Exact","1216 WYLIE ST SE, ATLANTA, GA, 30317",23365226,"L"
110923,"1216 YORKSHIRE DR","PRATTVILLE","AL",36067,32.495584814,-86.473338687,423,"1216 YORKSHIRE DR, PRATTVILLE, AL, 36067","Match","Exact","1216 YORKSHIRE DR, PRATTVILLE, AL, 36067",2831849,"L"
110924,"12160 10TH STREET SOUTH","AFTON","MN",55001,44.9345920010001,-92.860811091,424,"12160 10TH STREET SOUTH, AFTON, MN, 55001","Match","Exact","12160 10TH ST S, AFTON, MN, 55001",97826751,"L"
110925,"12160 ALDER LANE","WELLINGTON","FL",33414,26.665748127,-80.2398275159999,425,"12160 ALDER LANE, WELLINGTON, FL, 33414","Match","Exact","12160 ALDER LN, WELLINGTON, FL, 33414",115505784,"R"
110926,"12160 BUD CROSS ROAD","FORT WORTH","TX",76179,32.948452246,-97.504143619,426,"12160 BUD CROSS ROAD, FORT WORTH, TX, 76179","Match","Exact","12160 BUD CROSS RD, FORT WORTH, TX, 76179",102145938,"R"
110927,"12160 COUNTY ROAD 41","ALTURA","MN",55910,44.1930390900001,-92.041835119,427,"12160 COUNTY ROAD 41, ALTURA, MN, 55910","Match","Exact","12160 CO RD 41, ALTURA, MN, 55910",628061232,"L"
110928,"12160 N EAST VALLEY ROAD","VALLEY CENTER","KS",67135,37.903971733,-97.367022973,428,"12160 N EAST VALLEY ROAD, VALLEY CENTER, KS, 67135","Match","Non_Exact","12160 N EAST VALLEY RD, SEDGWICK, KS, 67135",115716103,"R"
110929,"12160 NW 22 PLACE","MIAMI","FL",33167,25.885005097,-80.236418186,429,"12160 NW 22 PLACE, MIAMI, FL, 33167","Match","Exact","12160 NW 22ND PL, MIAMI, FL, 33167",116032639,"L"
110930,"12160 SADDLE CLUB DR","FORNEY","TX",75126,32.8087639840001,-96.462565098,430,"12160 SADDLE CLUB DR, FORNEY, TX, 75126","Match","Exact","12160 SADDLE CLUB DR, FORNEY, TX, 75126",123767960,"R"
110931,"12160 SPUR 364 W","TYLER","TX",75709,NA,NA,431,"12160 SPUR 364 W, TYLER, TX, 75709","No_Match",NA,NA,NA,NA
110932,"12160 WILD HORSE","TYLER","TX",75706,32.4431038860001,-95.379727572,432,"12160 WILD HORSE, TYLER, TX, 75706","Match","Exact","12160 WILD HORSE, TYLER, TX, 75706",627689048,"L"
110933,"12161 62ND STREET UNIT 400","LARGO","FL",33773,27.8824912600001,-82.72068947,433,"12161 62ND STREET UNIT 400, LARGO, FL, 33773","Match","Non_Exact","12161 62ND ST N, LARGO, FL, 33773",124723927,"R"
110934,"12161 ALEXANDRA DRIVE","JACKSONVILLE","FL",32218,30.44820844,-81.691500988,434,"12161 ALEXANDRA DRIVE, JACKSONVILLE, FL, 32218","Match","Exact","12161 ALEXANDRA DR, JACKSONVILLE, FL, 32218",653188132,"R"
110935,"12161 EASTBOURNE RD","SAN DIEGO","CA",92128,32.9825140720001,-117.07102006,435,"12161 EASTBOURNE RD, SAN DIEGO, CA, 92128","Match","Exact","12161 EASTBOURNE RD, SAN DIEGO, CA, 92128",195679605,"L"
110936,"12161 FLATLANDS AVENUE","BROOKLYN","NY",11207,40.6533111370001,-73.88499508,436,"12161 FLATLANDS AVENUE, BROOKLYN, NY, 11207","Match","Exact","12161 FLATLANDS AVE, BROOKLYN, NY, 11207",609039453,"L"
110937,"12161 STRATFIELD PLACE CIR","PINEVILLE","NC",28134,35.07535476,-80.888522345,437,"12161 STRATFIELD PLACE CIR, PINEVILLE, NC, 28134","Match","Exact","12161 STRATFIELD PLACE CIR, PINEVILLE, NC, 28134",70586683,"L"
110938,"12161 W LAKE AVE","LITTLETON","CO",80127,39.607099035,-105.134769473,438,"12161 W LAKE AVE, LITTLETON, CO, 80127","Match","Exact","12161 W LAKE AVE, LITTLETON, CO, 80127",177322439,"R"
110939,"12161 WAVELAND ST","FAIRFAX","VA",22033,38.864733067,-77.3660507019999,439,"12161 WAVELAND ST, FAIRFAX, VA, 22033","Match","Exact","12161 WAVELAND ST, FAIRFAX, VA, 22033",624432341,"L"
110940,"12162 central valley rd ne",NA,NA,NA,NA,NA,440,"12162 central valley rd ne, , , ","No_Match",NA,NA,NA,NA
110941,"12162 CENTRAL VALLEY RD NE","POULSBO","WA",98370,47.6738335380001,-122.649846024,441,"12162 CENTRAL VALLEY RD NE, POULSBO, WA, 98370","Match","Exact","12162 CENTRAL VALLEY RD NE, POULSBO, WA, 98370",642447211,"R"
110942,"12162 E GREGG BLVD","MOMENCE","IL",60954,41.158820829,-87.639770008,442,"12162 E GREGG BLVD, MOMENCE, IL, 60954","Match","Exact","12162 E GREGG BLVD, MOMENCE, IL, 60954",98348810,"L"
110943,"12162 HIGHVIEW SHORES","VICKSBURG","MI",49097,42.141716171,-85.4951983779999,443,"12162 HIGHVIEW SHORES, VICKSBURG, MI, 49097","Match","Exact","12162 HIGHVIEW SHORES, VICKSBURG, MI, 49097",12234132,"R"
110944,"12162 NUGENT DRIVE","GRANADA HILLS","CA",91344,34.291949479,-118.514977572,444,"12162 NUGENT DRIVE, GRANADA HILLS, CA, 91344","Match","Exact","12162 NUGENT DR, GRANADA HILLS, CA, 91344",141816815,"L"
110945,"12162 PEACOCK CT","GARDEN GROVE","CA",92841,33.786766906,-117.963896196,445,"12162 PEACOCK CT, GARDEN GROVE, CA, 92841","Match","Exact","12162 PEACOCK CT, GARDEN GROVE, CA, 92841",623689629,"L"
110946,"12163 W STANFORD DRIVE","MORRISON","CO",80465,39.634022891,-105.138236805,446,"12163 W STANFORD DRIVE, MORRISON, CO, 80465","Match","Exact","12163 W STANFORD DR, MORRISON, CO, 80465",653326255,"R"
110947,"12163 WOODSON LANE","WOODFORD","VA",22580,NA,NA,447,"12163 WOODSON LANE, WOODFORD, VA, 22580","No_Match",NA,NA,NA,NA
110948,"12164 BLACK DIAMOND ROAD","DOYLESTOWN","OH",44230,40.9471850030001,-81.687330572,448,"12164 BLACK DIAMOND ROAD, DOYLESTOWN, OH, 44230","Match","Exact","12164 BLACK DIAMOND RD, DOYLESTOWN, OH, 44230",58743352,"L"
110949,"12164 EAST SAHUARO","SCOTTSDALE","AZ",85259,33.5845979310001,-111.818595945,449,"12164 EAST SAHUARO, SCOTTSDALE, AZ, 85259","Match","Non_Exact","12164 E SAHUARO DR, SCOTTSDALE, AZ, 85259",128364025,"L"
110950,"12164 FIVE OAKS DRIVE","GULFPORT","MS",39503,30.460231078,-89.112363979,450,"12164 FIVE OAKS DRIVE, GULFPORT, MS, 39503","Match","Exact","12164 FIVE OAKS DR, GULFPORT, MS, 39503",111434465,"L"
110951,"12164 LONGVIEW LAKE CIR","BRADENTON","FL",34211,27.4587783590001,-82.4173858679999,451,"12164 LONGVIEW LAKE CIR, BRADENTON, FL, 34211","Match","Exact","12164 LONGVIEW LAKE CIR, BRADENTON, FL, 34211",645942043,"R"
110952,"12164 PEPPER TREE LANE","SAN DIEGO","CA",92064,32.939185513,-117.064025864,452,"12164 PEPPER TREE LANE, SAN DIEGO, CA, 92064","Match","Non_Exact","12164 PEPPER TREE LN, POWAY, CA, 92064",195675292,"L"
110953,"12164 READERS POINTE DR","MANAKIN SABOT","VA",23103,NA,NA,453,"12164 READERS POINTE DR, MANAKIN SABOT, VA, 23103","No_Match",NA,NA,NA,NA
110954,"12164 READERS POINTE DRIVE","MANAKIN-SABOT","VA",23103,NA,NA,454,"12164 READERS POINTE DRIVE, MANAKIN-SABOT, VA, 23103","No_Match",NA,NA,NA,NA
110955,"12164 WESTMORLAND DR","FISHERS","IN",46037,39.966061193,-85.958387334,455,"12164 WESTMORLAND DR, FISHERS, IN, 46037","Match","Exact","12164 WESTMORLAND DR, FISHERS, IN, 46037",640738385,"R"
110956,"12165 HUNTERGREEN DRIVE","CINCINNATI","OH",45251,39.3059540470001,-84.581288628,456,"12165 HUNTERGREEN DRIVE, CINCINNATI, OH, 45251","Match","Exact","12165 HUNTERGREEN DR, CINCINNATI, OH, 45251",103973911,"L"
110957,"12165 MCCOURTNEY ROAD","GRASS VALLEY","CA",95949,39.201763826,-121.089372739,457,"12165 MCCOURTNEY ROAD, GRASS VALLEY, CA, 95949","Match","Exact","12165 MCCOURTNEY RD, GRASS VALLEY, CA, 95949",106534328,"L"
110958,"12165 SW AMES LANE","TIGARD","OR",97224,45.4181848960001,-122.803016753,458,"12165 SW AMES LANE, TIGARD, OR, 97224","Match","Exact","12165 SW AMES LN, TIGARD, OR, 97224",158215728,"R"
110959,"12166 COLORADO BLVD APT 126","THORNTON","CO",80241,39.9178721750001,-104.940178617,459,"12166 COLORADO BLVD APT 126, THORNTON, CO, 80241","Match","Exact","12166 COLORADO BLVD, THORNTON, CO, 80241",177426942,"R"
110960,"12166 CONIFER RIDGE DR","CONIFER","CO",80433,39.492418636,-105.314438883,460,"12166 CONIFER RIDGE DR, CONIFER, CO, 80433","Match","Exact","12166 CONIFER RIDGE DR, CONIFER, CO, 80433",177748392,"L"
110961,"12166 HIBLER DRIVE","SAINT LOUIS","MO",63141,38.6621515950001,-90.451913656,461,"12166 HIBLER DRIVE, SAINT LOUIS, MO, 63141","Match","Exact","12166 HIBLER DR, SAINT LOUIS, MO, 63141",649640218,"L"
110962,"12166 JAY RD","ERIE","CO",80516,40.0515981300001,-105.061193559,462,"12166 JAY RD, ERIE, CO, 80516","Match","Exact","12166 JAY RD, ERIE, CO, 80516",646262420,"R"
110963,"12166 ROAD G","CORTEZ","CO",81321,37.33952149,-108.823291108,463,"12166 ROAD G, CORTEZ, CO, 81321","Match","Exact","12166 RD G, CORTEZ, CO, 81321",91765072,"R"
110964,"12166 SW PALERMO ST","WILSONVILLE","OR",97070,45.3108661140001,-122.798191741,464,"12166 SW PALERMO ST, WILSONVILLE, OR, 97070","Match","Exact","12166 SW PALERMO ST, WILSONVILLE, OR, 97070",641403048,"L"
110965,"12166 WARFIELD ESTATES DRIVE","CHESTER","VA",23831,37.3613982150001,-77.426225463,465,"12166 WARFIELD ESTATES DRIVE, CHESTER, VA, 23831","Match","Non_Exact","12166 WARFIELD ESTATE DR, CHESTER, VA, 23831",201579182,"R"
110966,"12167 CENTRAL PARK DRIVE","GEISMAR","LA",70734,30.2430817530001,-90.9818330319999,466,"12167 CENTRAL PARK DRIVE, GEISMAR, LA, 70734","Match","Exact","12167 CENTRAL PARK DR, GEISMAR, LA, 70734",628476790,"L"
110967,"12167 HIGHWAY 241","COOS BAY","OR",97420,43.4395411900001,-124.005082461,467,"12167 HIGHWAY 241, COOS BAY, OR, 97420","Match","Exact","12167 HWY 241, COOS BAY, OR, 97420",137018258,"L"
110968,"12167 N 152ND AVE","PHOENIX","AZ",85035,NA,NA,468,"12167 N 152ND AVE, PHOENIX, AZ, 85035","No_Match",NA,NA,NA,NA
110969,"12167 N 152ND AVE","SURPRISE","AZ",85379,33.594154556,-112.386848705,469,"12167 N 152ND AVE, SURPRISE, AZ, 85379","Match","Exact","12167 N 152ND AVE, SURPRISE, AZ, 85379",243967244,"R"
110970,"12167 TOSCANA","FRISCO","TX",75035,33.178366242,-96.8009180559999,470,"12167 TOSCANA, FRISCO, TX, 75035","Match","Non_Exact","12167 TOSCANA WAY, FRISCO, TX, 75035",618088585,"L"
110971,"12168 SOUTH 2795 WEST","RIVERTON","UT",84065,40.530274924,-111.960070239,471,"12168 SOUTH 2795 WEST, RIVERTON, UT, 84065","Match","Exact","12168 S 2795 W, RIVERTON, UT, 84065",176120959,"R"
110972,"12168 W 106TH LANE","SAINT JOHN","IN",46373,41.42615541,-87.482097341,472,"12168 W 106TH LANE, SAINT JOHN, IN, 46373","Match","Exact","12168 W 106TH LN, SAINT JOHN, IN, 46373",98458054,"R"
110973,"12169 12 NORTH POINTE LANE","HOLLAND","MI",49424,NA,NA,473,"12169 12 NORTH POINTE LANE, HOLLAND, MI, 49424","No_Match",NA,NA,NA,NA
110974,"12169 72ND ST NE","OTSEGO","MN",55330,45.256850242,-93.637843102,474,"12169 72ND ST NE, OTSEGO, MN, 55330","Match","Exact","12169 72ND ST NE, OTSEGO, MN, 55330",633448652,"R"
110975,"12169 94TH WAY","LARGO","FL",33773,27.8829021340001,-82.7699512739999,475,"12169 94TH WAY, LARGO, FL, 33773","Match","Exact","12169 94TH WAY, LARGO, FL, 33773",124806676,"L"
110976,"12169 BLACK POWDER DR","HERRIMAN","UT",84096,40.528846962,-111.999554253,476,"12169 BLACK POWDER DR, HERRIMAN, UT, 84096","Match","Non_Exact","12169 S BLACK POWDER DR, HERRIMAN, UT, 84096",619751684,"R"
110977,"12169 DAWN LANE","LOS ALTOS HILLS","CA",94022,37.3721427470001,-122.149688344,477,"12169 DAWN LANE, LOS ALTOS HILLS, CA, 94022","Match","Exact","12169 DAWN LN, LOS ALTOS HILLS, CA, 94022",614036027,"L"
110978,"12169 NORTH 137TH WAY","SCOTTSDALE","AZ",85259,33.5966999680001,-111.784247492,478,"12169 NORTH 137TH WAY, SCOTTSDALE, AZ, 85259","Match","Exact","12169 N 137TH WAY, SCOTTSDALE, AZ, 85259",128584414,"R"
110979,"1216A MCDONOUGH STREET","RICHMOND","VA",23224,37.5242444530001,-77.44764864,479,"1216A MCDONOUGH STREET, RICHMOND, VA, 23224","Match","Exact","1216 MCDONOUGH ST, RICHMOND, VA, 23224",201541746,"L"
110980,"1217 12TH ST NW","WASHINGTON","DC",20005,38.906252497,-77.028075997,480,"1217 12TH ST NW, WASHINGTON, DC, 20005","Match","Exact","1217 12TH ST NW, WASHINGTON, DC, 20005",645508779,"R"
110981,"1217 12TH STEET","WEST BABYLON","NY",11704,40.723114143,-73.371494828,481,"1217 12TH STEET, WEST BABYLON, NY, 11704","Match","Exact","1217 12TH ST, WEST BABYLON, NY, 11704",113971935,"R"
110982,"1217 12TH STREET","WEST BABYLON","NY",11704,40.723114143,-73.371494828,482,"1217 12TH STREET, WEST BABYLON, NY, 11704","Match","Exact","1217 12TH ST, WEST BABYLON, NY, 11704",113971935,"R"
110983,"1217 14TH AVENUE","LONGVIEW","WA",98632,46.1360343750001,-122.936198435,483,"1217 14TH AVENUE, LONGVIEW, WA, 98632","Match","Exact","1217 14TH AVE, LONGVIEW, WA, 98632",184489270,"L"
110984,"1217 162ND LN NE","BELLEVUE","WA",98008,47.6206527840001,-122.124454977,484,"1217 162ND LN NE, BELLEVUE, WA, 98008","Match","Exact","1217 162ND LN NE, BELLEVUE, WA, 98008",187032754,"L"
110985,"1217 201ST ST CT EA","SPANAWAY","WA",98387,NA,NA,485,"1217 201ST ST CT EA, SPANAWAY, WA, 98387","No_Match",NA,NA,NA,NA
110986,"1217 21ST STREET NUM C","SANTA MONICA","CA",90404,34.0318207760001,-118.481899431,486,"1217 21ST STREET NUM C, SANTA MONICA, CA, 90404","Match","Exact","1217 21ST ST, SANTA MONICA, CA, 90404",141559368,"L"
110987,"1217 22ND AVE W","WEST FARGO","ND",58078,46.845961163,-96.920889567,487,"1217 22ND AVE W, WEST FARGO, ND, 58078","Match","Exact","1217 22ND AVE W, WEST FARGO, ND, 58078",646548172,"R"
110988,"1217 24TH STREET APT 32","DES MOINES","IA",50311,41.600693645,-93.649698007,488,"1217 24TH STREET APT 32, DES MOINES, IA, 50311","Match","Exact","1217 24TH ST, DES MOINES, IA, 50311",65780608,"R"
110989,"1217 26TH AVE APT 206","GREELEY","CO",80634,NA,NA,489,"1217 26TH AVE APT 206, GREELEY, CO, 80634","No_Match",NA,NA,NA,NA
110990,"1217 2ND AVE","SCHENECTADY","NY",12303,42.8013755600001,-73.951351438,490,"1217 2ND AVE, SCHENECTADY, NY, 12303","Match","Exact","1217 2ND AVE, SCHENECTADY, NY, 12303",18027671,"L"
110991,"1217 49TH STREET","BROOKLYN","NY",11219,40.6360703670001,-73.9938363109999,491,"1217 49TH STREET, BROOKLYN, NY, 11219","Match","Exact","1217 49TH ST, BROOKLYN, NY, 11219",59080198,"L"
110992,"1217 5TH ST","PACIFIC GROVE","CA",93950,NA,NA,492,"1217 5TH ST, PACIFIC GROVE, CA, 93950","No_Match",NA,NA,NA,NA
110993,"1217 7TH ST","PAWNEE","IL",62558,39.5974094910001,-89.581397887,493,"1217 7TH ST, PAWNEE, IL, 62558","Match","Exact","1217 7TH ST, PAWNEE, IL, 62558",97319332,"L"
110994,"1217 9TH ST","GREEN BAY","WI",54304,44.5107651870001,-88.0542216869999,494,"1217 9TH ST, GREEN BAY, WI, 54304","Match","Exact","1217 9TH ST, GREEN BAY, WI, 54304",148099428,"L"
110995,"1217 ALICE LANE","PHARR","TX",78577,26.1821301890001,-98.175823008,495,"1217 ALICE LANE, PHARR, TX, 78577","Match","Non_Exact","1217 S ALICE LN, PHARR, TX, 78577",641375821,"L"
110996,"1217 ARKANSAS","LAKE CHARLES","LA",70607,30.1903920130001,-93.2037883,496,"1217 ARKANSAS, LAKE CHARLES, LA, 70607","Match","Non_Exact","1217 ARKANSAS ST, LAKE CHARLES, LA, 70607",88438804,"L"
110997,"1217 AVE I","FORT MADISON","IA",52627,40.6290885080001,-91.319444316,497,"1217 AVE I, FORT MADISON, IA, 52627","Match","Exact","1217 AVE I, FORT MADISON, IA, 52627",5593372,"L"
110998,"1217 BAFFIN BAY RD","COLUMBIA","SC",29212,34.066455288,-81.1492199689999,498,"1217 BAFFIN BAY RD, COLUMBIA, SC, 29212","Match","Exact","1217 BAFFIN BAY RD, COLUMBIA, SC, 29212",70070944,"L"
110999,"1217 BALBOA CIRCLE","PLANO","TX",75075,33.015211209,-96.731917949,499,"1217 BALBOA CIRCLE, PLANO, TX, 75075","Match","Exact","1217 BALBOA CIR, PLANO, TX, 75075",123520926,"L"
111000,"1217 BANCROFT RD","BECKET","MA",1223,42.304925145,-73.0378415719999,500,"1217 BANCROFT RD, BECKET, MA, 1223","Match","Exact","1217 BANCROFT RD, BECKET, MA, 01223",649723939,"L"
