"ID","Address","City","State","Zip","lat","long","id","input_address","match_indicator","match_type","matched_address","tiger_line_id","tiger_side"
137501,"130 N PRESTON RD 100-424","PROSPER","TX",75078,33.2412730020001,-96.787268134,1,"130 N PRESTON RD 100-424, PROSPER, TX, 75078","Match","Non_Exact","130 N PRESTON RD, PROSPER, TX, 75078",123565797,"R"
137502,"130 N SCHOOL LANE","SOUDERTON","PA",18964,NA,NA,2,"130 N SCHOOL LANE, SOUDERTON, PA, 18964","Tie",NA,NA,NA,NA
137503,"130 N SECOND STREET","CHAMBERSBURG","PA",17201,39.9395504760001,-77.658703315,3,"130 N SECOND STREET, CHAMBERSBURG, PA, 17201","Match","Exact","130 N 2ND ST, CHAMBERSBURG, PA, 17201",60100063,"R"
137504,"130 N SILVER SPUR","CEDAR CITY","UT",84720,37.6795731230001,-113.09117251,4,"130 N SILVER SPUR, CEDAR CITY, UT, 84720","Match","Non_Exact","130 N SILVERSPUR DR, CEDAR CITY, UT, 84720",165416428,"L"
137505,"130 N WASHINGTON STREET","EASTON","MD",21601,38.7764789760001,-76.076294993,5,"130 N WASHINGTON STREET, EASTON, MD, 21601","Match","Exact","130 N WASHINGTON ST, EASTON, MD, 21601",68402971,"R"
137506,"130 N WEST STREET","HARTFORD","IA",50118,41.459645058,-93.405282788,6,"130 N WEST STREET, HARTFORD, IA, 50118","Match","Exact","130 N WEST ST, HARTFORD, IA, 50118",83761882,"L"
137507,"130 N WHITE HORSE PIKE","LWNSIDE","NJ",8045,NA,NA,7,"130 N WHITE HORSE PIKE, LWNSIDE, NJ, 8045","No_Match",NA,NA,NA,NA
137508,"130 NASH ROAD","SUMMERTOWN","TN",38483,35.4016577510001,-87.357719973,8,"130 NASH ROAD, SUMMERTOWN, TN, 38483","Match","Exact","130 NASH RD, SUMMERTOWN, TN, 38483",26820571,"R"
137509,"130 NASH ST","SUMTER","SC",29150,33.9281806020001,-80.385070802,9,"130 NASH ST, SUMTER, SC, 29150","Match","Exact","130 NASH ST, SUMTER, SC, 29150",202666253,"R"
137510,"130 NATIONAL PARK WAY","CRESCENT CITY","CA",95531,41.7903467730001,-124.140270161,10,"130 NATIONAL PARK WAY, CRESCENT CITY, CA, 95531","Match","Exact","130 NATIONAL PARK WAY, CRESCENT CITY, CA, 95531",113161188,"R"
137511,"130 NE 192 STREET","MIAMI","FL",33179,25.9509634250001,-80.199220053,11,"130 NE 192 STREET, MIAMI, FL, 33179","Match","Exact","130 NE 192ND ST, MIAMI, FL, 33179",116030483,"R"
137512,"130 NE DULALIP LANDING","BELFAIR","WA",98528,47.426919938,-122.886242454,12,"130 NE DULALIP LANDING, BELFAIR, WA, 98528","Match","Exact","130 NE DULALIP LNDG, BELFAIR, WA, 98528",180869331,"R"
137513,"130 NEW JERSEY AVE","BELLPORT","NY",11713,40.7719919470001,-72.939648114,13,"130 NEW JERSEY AVE, BELLPORT, NY, 11713","Match","Exact","130 NEW JERSEY AVE, BELLPORT, NY, 11713",114074621,"R"
137514,"130 NEW RD APT M1","PARSIPPANY","NJ",7054,NA,NA,14,"130 NEW RD APT M1, PARSIPPANY, NJ, 7054","No_Match",NA,NA,NA,NA
137515,"130 NEW RD APT R6","PARSIPPANY","NJ",7054,NA,NA,15,"130 NEW RD APT R6, PARSIPPANY, NJ, 7054","No_Match",NA,NA,NA,NA
137516,"130 NEWTON DRIVE","BURLINGAME","CA",94010,37.5788177860001,-122.385449488,16,"130 NEWTON DRIVE, BURLINGAME, CA, 94010","Match","Exact","130 NEWTON DR, BURLINGAME, CA, 94010",647257659,"R"
137517,"130 NICOLE DRIVE","YOUNGSVILLE","LA",70592,30.08925938,-91.983728089,17,"130 NICOLE DRIVE, YOUNGSVILLE, LA, 70592","Match","Exact","130 NICOLE DR, YOUNGSVILLE, LA, 70592",85641806,"R"
137518,"130 NOLL STREET","PLEASANT GAP","PA",16823,40.8649386440001,-77.737223888,18,"130 NOLL STREET, PLEASANT GAP, PA, 16823","Match","Exact","130 NOLL ST, PLEASANT GAP, PA, 16823",647691783,"L"
137519,"130 NORTH 18TH STREET","PHILADELPHIA","PA",19103,39.956182977,-75.169358673,19,"130 NORTH 18TH STREET, PHILADELPHIA, PA, 19103","Match","Exact","130 N 18TH ST, PHILADELPHIA, PA, 19103",642036021,"L"
137520,"130 NORTH 2ND STREET","RIPLEY","OH",45167,38.747394173,-83.8463258689999,20,"130 NORTH 2ND STREET, RIPLEY, OH, 45167","Match","Exact","130 N 2ND ST, RIPLEY, OH, 45167",100971824,"R"
137521,"130 NORTH CENTRAL AVENUE","CHICAGO","IL",60644,41.8829165540001,-87.764958329,21,"130 NORTH CENTRAL AVENUE, CHICAGO, IL, 60644","Match","Exact","130 N CENTRAL AVE, CHICAGO, IL, 60644",111754222,"L"
137522,"130 NORTH COURT AVENUE","MEMPHIS","TN",38103,35.146335783,-90.0511122199999,22,"130 NORTH COURT AVENUE, MEMPHIS, TN, 38103","Match","Non_Exact","130 COURT AVE, MEMPHIS, TN, 38103",72903267,"L"
137523,"130 NORTH DAVIS HOLLOW ROAD","RICHLAND","MO",65556,37.95096219,-92.527557556,23,"130 NORTH DAVIS HOLLOW ROAD, RICHLAND, MO, 65556","Match","Exact","130 N DAVIS HOLLOW RD, RICHLAND, MO, 65556",22868941,"R"
137524,"130 NORTH DRIVE","VALLEYSTREAM","NY",11580,NA,NA,24,"130 NORTH DRIVE, VALLEYSTREAM, NY, 11580","No_Match",NA,NA,NA,NA
137525,"130 NORTH JOHN PRINE","DRAKESBORO","KY",42337,NA,NA,25,"130 NORTH JOHN PRINE, DRAKESBORO, KY, 42337","No_Match",NA,NA,NA,NA
137526,"130 NORTH LAFAYETTE","GRIFFITH","IN",46319,41.5233974490001,-87.42644151,26,"130 NORTH LAFAYETTE, GRIFFITH, IN, 46319","Match","Non_Exact","130 N LAFAYETTE ST, GRIFFITH, IN, 46319",98428918,"L"
137527,"130 NORTH MADISON STREET","IOWA CITY","IA",52242,41.662865841,-91.537666045,27,"130 NORTH MADISON STREET, IOWA CITY, IA, 52242","Match","Exact","130 N MADISON ST, IOWA CITY, IA, 52242",648845991,"L"
137528,"130 NORTH MAIN STREET","GOSHEN","IN",46526,41.586682411,-85.8344986659999,28,"130 NORTH MAIN STREET, GOSHEN, IN, 46526","Match","Exact","130 N MAIN ST, GOSHEN, IN, 46526",604679321,"R"
137529,"130 NORTH MAIN STREET","NORWOOD","NY",13668,44.759935129,-74.99223169,29,"130 NORTH MAIN STREET, NORWOOD, NY, 13668","Match","Exact","130 N MAIN ST, NORWOOD, NY, 13668",642866444,"R"
137530,"130 NORTH OKEEFE ST","CASSOPOLIS","MI",49031,41.9124926750001,-86.0100080889999,30,"130 NORTH OKEEFE ST, CASSOPOLIS, MI, 49031","Match","Non_Exact","130 N O KEEFE ST, CASSOPOLIS, MI, 49031",22572421,"R"
137531,"130 NORTH POPLAR","NEWPORT","IN",47966,NA,NA,31,"130 NORTH POPLAR, NEWPORT, IN, 47966","No_Match",NA,NA,NA,NA
137532,"130 NORTH TENTH STREET","LEBANON","PA",17046,40.3410785250001,-76.428219622,32,"130 NORTH TENTH STREET, LEBANON, PA, 17046","Match","Exact","130 N 10TH ST, LEBANON, PA, 17046",618515575,"R"
137533,"130 NORTH TYLER STREET","TYLER","MN",56178,44.277592557,-96.134912538,33,"130 NORTH TYLER STREET, TYLER, MN, 56178","Match","Exact","130 N TYLER ST, TYLER, MN, 56178",43957175,"R"
137534,"130 NORTHEAST 30TH COURT","POMPANO BEACH","FL",33064,26.268238707,-80.12215106,34,"130 NORTHEAST 30TH COURT, POMPANO BEACH, FL, 33064","Match","Exact","130 NE 30TH CT, POMPANO BEACH, FL, 33064",114822465,"R"
137535,"130 NORTHSIDE DRIVE","STARKVILLE","MS",39759,33.466907819,-88.828032975,35,"130 NORTHSIDE DRIVE, STARKVILLE, MS, 39759","Match","Exact","130 NORTHSIDE DR, STARKVILLE, MS, 39759",807804,"L"
137536,"130 NORTHWOODS DRIVE UNIT D","SENECA","SC",29678,34.6803421560001,-82.9901571199999,36,"130 NORTHWOODS DRIVE UNIT D, SENECA, SC, 29678","Match","Exact","130 NORTHWOODS DR, SENECA, SC, 29678",25664686,"R"
137537,"130 NUTMEG LANE APT 319","EAST HARTFORD","CT",6118,41.767516227,-72.6109167669999,37,"130 NUTMEG LANE APT 319, EAST HARTFORD, CT, 6118","Match","Exact","130 NUTMEG LN, EAST HARTFORD, CT, 06118",604942489,"L"
137538,"130 NW 13TH CT","BOCA RATON","FL",33486,NA,NA,38,"130 NW 13TH CT, BOCA RATON, FL, 33486","No_Match",NA,NA,NA,NA
137539,"130 NW 198TH ST","MIAMI GARDENS","FL",33169,25.9562212540001,-80.20364298,39,"130 NW 198TH ST, MIAMI GARDENS, FL, 33169","Match","Exact","130 NW 198TH ST, MIAMI GARDENS, FL, 33169",116029635,"L"
137540,"130 NW 49TH CIR","VANCOUVER","WA",98663,45.657895696,-122.670907704,40,"130 NW 49TH CIR, VANCOUVER, WA, 98663","Match","Exact","130 NW 49TH CIR, VANCOUVER, WA, 98663",158369651,"R"
137541,"130 NW LAKE VISTA GLEN","LAKE CITY","FL",32055,30.207486391,-82.680665919,41,"130 NW LAKE VISTA GLEN, LAKE CITY, FL, 32055","Match","Exact","130 NW LAKE VISTA GLEN, LAKE CITY, FL, 32055",5158639,"L"
137542,"130 OAK DRIVE","ATLANTA","GA",30354,33.635243755,-84.396756604,42,"130 OAK DRIVE, ATLANTA, GA, 30354","Match","Exact","130 OAK DR, ATLANTA, GA, 30354",23335292,"L"
137543,"130 OAK POINTE COURT","BOWLING GREEN","KY",42103,36.9221134210001,-86.400132742,43,"130 OAK POINTE COURT, BOWLING GREEN, KY, 42103","Match","Exact","130 OAK POINTE CT, BOWLING GREEN, KY, 42103",28022661,"L"
137544,"130 OAK ST","PALMERTON","PA",18071,40.8015739200001,-75.654611683,44,"130 OAK ST, PALMERTON, PA, 18071","Match","Exact","130 OAK ST, PALMERTON, PA, 18071",80629335,"L"
137545,"130 OAK STREET","TALLAHASSEE","FL",32301,30.442917063,-84.26712666,45,"130 OAK STREET, TALLAHASSEE, FL, 32301","Match","Exact","130 OAK ST, TALLAHASSEE, FL, 32301",82889462,"L"
137546,"130 OAKBROOK LANE","Cloverdale","CA",95425,38.807735338,-123.014762444,46,"130 OAKBROOK LANE, Cloverdale, CA, 95425","Match","Exact","130 OAKBROOK LN, CLOVERDALE, CA, 95425",633901018,"L"
137547,"130 OAKBROOK LANE","CLOVERDALE","CA",95425,38.807735338,-123.014762444,47,"130 OAKBROOK LANE, CLOVERDALE, CA, 95425","Match","Exact","130 OAKBROOK LN, CLOVERDALE, CA, 95425",633901018,"L"
137548,"130 OAKDALE ROAD","NEWTON HIGHLANDS","MA",2461,42.3183498990001,-71.200049561,48,"130 OAKDALE ROAD, NEWTON HIGHLANDS, MA, 2461","Match","Exact","130 OAKDALE RD, NEWTON HIGHLANDS, MA, 02461",634165002,"L"
137549,"130 OAKLAND ST","MOUNT HOLLY","NC",28120,35.296953768,-81.0181572509999,49,"130 OAKLAND ST, MOUNT HOLLY, NC, 28120","Match","Exact","130 OAKLAND ST, MOUNT HOLLY, NC, 28120",70391291,"R"
137550,"130 OAKMEADOWS PLACE","COVINGTON","GA",30016,33.4834621100001,-83.906138542,50,"130 OAKMEADOWS PLACE, COVINGTON, GA, 30016","Match","Non_Exact","130 OAK MEADOWS DR, COVINGTON, GA, 30016",619836934,"R"
137551,"130 OAKMONT DRIVE","BREMEN","IN",46506,41.4418617260001,-86.161597458,51,"130 OAKMONT DRIVE, BREMEN, IN, 46506","Match","Exact","130 OAKMONT DR, BREMEN, IN, 46506",7650465,"L"
137552,"130 OAKTRAIL","CHICKAMAUGA","GA",30707,NA,NA,52,"130 OAKTRAIL, CHICKAMAUGA, GA, 30707","No_Match",NA,NA,NA,NA
137553,"130 OAKWOOD ROAD","EDGEWATER","MD",21037,38.936811386,-76.55580093,53,"130 OAKWOOD ROAD, EDGEWATER, MD, 21037","Match","Exact","130 OAKWOOD RD, EDGEWATER, MD, 21037",68171516,"L"
137554,"130 OCEAN DRIVE","OCEAN RIDGE","FL",33435,26.5561839280001,-80.065875509,54,"130 OCEAN DRIVE, OCEAN RIDGE, FL, 33435","Match","Non_Exact","130 OCEAN PKWY, OCEAN RIDGE, FL, 33435",115295438,"R"
137555,"130 OCEAN GREENS LANE","CASWELL BEACH","NC",28465,33.9051701330001,-78.059254584,55,"130 OCEAN GREENS LANE, CASWELL BEACH, NC, 28465","Match","Non_Exact","130 OCEANGREENS LN, CASWELL BEACH, NC, 28465",153177086,"R"
137556,"130 OCOTILLO DR","WAXAHACHIE","TX",75165,32.405451649,-96.8654257269999,56,"130 OCOTILLO DR, WAXAHACHIE, TX, 75165","Match","Exact","130 OCOTILLO DR, WAXAHACHIE, TX, 75165",608357496,"L"
137557,"130 ODILL DRIVE","NORWAY","MI",49870,NA,NA,57,"130 ODILL DRIVE, NORWAY, MI, 49870","No_Match",NA,NA,NA,NA
137558,"130 ODILL","NORWAY","MI",49870,NA,NA,58,"130 ODILL, NORWAY, MI, 49870","No_Match",NA,NA,NA,NA
137559,"130 OLD NEW SALEM ROAD","UNIONTOWN","PA",15401,NA,NA,59,"130 OLD NEW SALEM ROAD, UNIONTOWN, PA, 15401","Tie",NA,NA,NA,NA
137560,"130 OLD ORCHARD ROAD","MADISON","MS",39110,NA,NA,60,"130 OLD ORCHARD ROAD, MADISON, MS, 39110","No_Match",NA,NA,NA,NA
137561,"130 OLD PIONEER TRL","CANTON","GA",30115,34.1973237990001,-84.451395722,61,"130 OLD PIONEER TRL, CANTON, GA, 30115","Match","Exact","130 OLD PIONEER TRL, CANTON, GA, 30115",642590512,"R"
137562,"130 OLDE FORT RD","ATHENS","GA",30606,33.974332996,-83.449036517,62,"130 OLDE FORT RD, ATHENS, GA, 30606","Match","Non_Exact","130 OLD FORT RD, ATHENS, GA, 30606",4800674,"R"
137563,"130 OLDS TRAIL","HENDERSONVILLE","NC",28739,35.313317839,-82.509119216,63,"130 OLDS TRAIL, HENDERSONVILLE, NC, 28739","Match","Exact","130 OLDS TRL, HENDERSONVILLE, NC, 28739",152273435,"R"
137564,"130 OLIVE STREET","NEW HAVEN","CT",6511,41.3062948720001,-72.9195393859999,64,"130 OLIVE STREET, NEW HAVEN, CT, 6511","Match","Exact","130 OLIVE ST, NEW HAVEN, CT, 06511",604740896,"L"
137565,"130 OPERA COURT","CENTREVILLE","MD",21617,39.024615586,-76.065376742,65,"130 OPERA COURT, CENTREVILLE, MD, 21617","Match","Exact","130 OPERA CT, CENTREVILLE, MD, 21617",607198586,"R"
137566,"130 ORIE GRIFFIN BOULEVARD","PALATKA","FL",32177,29.6679916680001,-81.6615612269999,66,"130 ORIE GRIFFIN BOULEVARD, PALATKA, FL, 32177","Match","Non_Exact","130 ORIE GRIFFIN DR, PALATKA, FL, 32177",613345198,"R"
137567,"130 ORIE GRIFFIN ROAD","PALATKA","FL",32177,29.6679916680001,-81.6615612269999,67,"130 ORIE GRIFFIN ROAD, PALATKA, FL, 32177","Match","Non_Exact","130 ORIE GRIFFIN DR, PALATKA, FL, 32177",613345198,"R"
137568,"130 OVERLOOK AVE APT  4F","HACKENSACK","NJ",7601,40.8870596040001,-74.0549904229999,68,"130 OVERLOOK AVE APT  4F, HACKENSACK, NJ, 7601","Match","Exact","130 OVERLOOK AVE, HACKENSACK, NJ, 07601",64385817,"R"
137569,"130 OVERLOOK AVE APT 17K","HACKENSACK","NJ",7601,40.8870596040001,-74.0549904229999,69,"130 OVERLOOK AVE APT 17K, HACKENSACK, NJ, 7601","Match","Exact","130 OVERLOOK AVE, HACKENSACK, NJ, 07601",64385817,"R"
137570,"130 PALERMO PLACE","LADY LAKE","FL",32159,28.9200666840001,-81.9450102339999,70,"130 PALERMO PLACE, LADY LAKE, FL, 32159","Match","Exact","130 PALERMO PL, LADY LAKE, FL, 32159",94170291,"R"
137571,"130 PALISADE AVE","GARFIELD","NJ",7026,40.8685406280001,-74.1077504909999,71,"130 PALISADE AVE, GARFIELD, NJ, 7026","Match","Exact","130 PALISADE AVE, GARFIELD, NJ, 07026",64392682,"R"
137572,"130 PALISADE CIRCLE","MANITOU SPRINGS","CO",80829,38.854371563,-104.889851921,72,"130 PALISADE CIRCLE, MANITOU SPRINGS, CO, 80829","Match","Exact","130 PALISADE CIR, MANITOU SPRINGS, CO, 80829",105506704,"R"
137573,"130 PALISADES DRIVE","LINCOLNTON","NC",28092,NA,NA,73,"130 PALISADES DRIVE, LINCOLNTON, NC, 28092","No_Match",NA,NA,NA,NA
137574,"130 PARK AVENUE","E BRIDGEWATER","MA",2333,42.022731768,-70.975900434,74,"130 PARK AVENUE, E BRIDGEWATER, MA, 2333","Match","Exact","130 PARK AVE, E BRIDGEWATER, MA, 02333",87483366,"L"
137575,"130 PARSONS DRIVE","HEMPSTEAD","NY",11550,40.700536646,-73.632227465,75,"130 PARSONS DRIVE, HEMPSTEAD, NY, 11550","Match","Exact","130 PARSONS DR, HEMPSTEAD, NY, 11550",147676025,"R"
137576,"130 PASTURE CROSSING DRIVE","SARVER","PA",16055,40.7392365690001,-79.7702190479999,76,"130 PASTURE CROSSING DRIVE, SARVER, PA, 16055","Match","Exact","130 PASTURE CROSSING DR, SARVER, PA, 16055",624951219,"L"
137577,"130 PEACHTREE LANE","AHOSKIE","NC",27910,36.3198985590001,-77.0777946809999,77,"130 PEACHTREE LANE, AHOSKIE, NC, 27910","Match","Non_Exact","130 PEACH TREE LN, AHOSKIE, NC, 27910",56782708,"L"
137578,"130 PEAL ST APT 902","DENVER","CO",80203,NA,NA,78,"130 PEAL ST APT 902, DENVER, CO, 80203","No_Match",NA,NA,NA,NA
137579,"130 PEAR TREE LN","FRANKLIN PARK","NJ",8823,40.4410410900001,-74.548413121,79,"130 PEAR TREE LN, FRANKLIN PARK, NJ, 8823","Match","Exact","130 PEAR TREE LN, FRANKLIN PARK, NJ, 08823",59999738,"R"
137580,"130 PEARL STREET - 305","DENVER","CO",80203,39.7186673,-104.980270145,80,"130 PEARL STREET - 305, DENVER, CO, 80203","Match","Exact","130 PEARL ST, DENVER, CO, 80203",177331501,"R"
137581,"130 PEBBLE BEACH DRIVE","GEORGETOWN","KY",40324,38.24827988,-84.57391982,81,"130 PEBBLE BEACH DRIVE, GEORGETOWN, KY, 40324","Match","Exact","130 PEBBLE BEACH DR, GEORGETOWN, KY, 40324",41232718,"L"
137582,"130 PEBBLE BEACH DRIVE","GEROGETOWN","KY",40324,38.24827988,-84.57391982,82,"130 PEBBLE BEACH DRIVE, GEROGETOWN, KY, 40324","Match","Non_Exact","130 PEBBLE BEACH DR, GEORGETOWN, KY, 40324",41232718,"L"
137583,"130 PENN BLVD","LANSDOWNE","PA",19050,39.9439795370001,-75.260702524,83,"130 PENN BLVD, LANSDOWNE, PA, 19050","Match","Exact","130 PENN BLVD, LANSDOWNE, PA, 19050",134878483,"L"
137584,"130 PEPPERIDGE DR","GENEVA","OH",44041,41.7869922410001,-80.9399307899999,84,"130 PEPPERIDGE DR, GENEVA, OH, 44041","Match","Exact","130 PEPPERIDGE DR, GENEVA, OH, 44041",117312702,"L"
137585,"130 PERRING DRIVE","DALLASTOWN","PA",17313,39.900234471,-76.6559247179999,85,"130 PERRING DRIVE, DALLASTOWN, PA, 17313","Match","Exact","130 PERRING DR, DALLASTOWN, PA, 17313",88757360,"L"
137586,"130 PETTIT COVE RD","SPARTA","TN",38579,35.838320029,-85.5217442059999,86,"130 PETTIT COVE RD, SPARTA, TN, 38579","Match","Non_Exact","130 PETTIT COVE RD, QUEBECK, TN, 38579",34270786,"R"
137587,"130 PHEASANT RIDGE DRIVE","ANDERSON","SC",29626,34.5044797790001,-82.725129287,87,"130 PHEASANT RIDGE DRIVE, ANDERSON, SC, 29626","Match","Exact","130 PHEASANT RIDGE DR, ANDERSON, SC, 29626",633022372,"R"
137588,"130 PIEDMONT CIRCLE","COVINGTON","GA",30016,33.6237442660001,-83.952455175,88,"130 PIEDMONT CIRCLE, COVINGTON, GA, 30016","Match","Exact","130 PIEDMONT CIR, COVINGTON, GA, 30016",618464764,"R"
137589,"130 PINE MEADOWS LOOP","HOT SPRINGS","AR",71901,34.4618027440001,-93.020384845,89,"130 PINE MEADOWS LOOP, HOT SPRINGS, AR, 71901","Match","Exact","130 PINE MEADOWS LOOP, HOT SPRINGS, AR, 71901",22771364,"R"
137590,"130 PITTSBORO STREET","STALEY","NC",27355,35.7940474060001,-79.549527037,90,"130 PITTSBORO STREET, STALEY, NC, 27355","Match","Exact","130 PITTSBORO ST, STALEY, NC, 27355",20403476,"R"
137591,"130 PLAIN STREET","REHOBOTH","MA",2769,41.807967714,-71.228717479,91,"130 PLAIN STREET, REHOBOTH, MA, 2769","Match","Exact","130 PLAIN ST, REHOBOTH, MA, 02769",642621600,"L"
137592,"130 PLANT STREET","NEW LONDON","CT",6320,41.3301983010001,-72.100948202,92,"130 PLANT STREET, NEW LONDON, CT, 6320","Match","Exact","130 PLANT ST, NEW LONDON, CT, 06320",56851420,"L"
137593,"130 PLANTATION DRIVE","RICHMOND","KY",40475,37.7305883870001,-84.347408112,93,"130 PLANTATION DRIVE, RICHMOND, KY, 40475","Match","Exact","130 PLANTATION DR, RICHMOND, KY, 40475",624941604,"R"
137594,"130 POCASSET ST","SOMERSET","MA",2725,41.7110375730001,-71.180544599,94,"130 POCASSET ST, SOMERSET, MA, 2725","Match","Exact","130 POCASSET ST, SOMERSET, MA, 02725",46767418,"R"
137595,"130 POINSETTIA AVENUE","MONROVIA","CA",91016,34.1524753640001,-117.995535102,95,"130 POINSETTIA AVENUE, MONROVIA, CA, 91016","Match","Exact","130 POINSETTIA AVE, MONROVIA, CA, 91016",141646095,"R"
137596,"130 POINT DRIVE NW","WILSON","NC",27896,NA,NA,96,"130 POINT DRIVE NW, WILSON, NC, 27896","No_Match",NA,NA,NA,NA
137597,"130 PONDEROSA CIRCLE","MIDWAY","FL",32343,30.5080331360001,-84.474022958,97,"130 PONDEROSA CIRCLE, MIDWAY, FL, 32343","Match","Exact","130 PONDEROSA CIR, MIDWAY, FL, 32343",633868929,"R"
137598,"130 PONDEROSA DR","SPEARFISH","SD",57783,44.496607387,-103.897086821,98,"130 PONDEROSA DR, SPEARFISH, SD, 57783","Match","Exact","130 PONDEROSA DR, SPEARFISH, SD, 57783",193374867,"L"
137599,"130 POOR FARM ROAD","HARVARD","MA",1451,42.5268725120001,-71.572783907,99,"130 POOR FARM ROAD, HARVARD, MA, 1451","Match","Exact","130 POOR FARM RD, HARVARD, MA, 01451",40106036,"R"
137600,"130 POSSUM TROT LANE","COLUMBUS","NC",28722,35.2671890330001,-82.16401624,100,"130 POSSUM TROT LANE, COLUMBUS, NC, 28722","Match","Exact","130 POSSUM TROT LN, COLUMBUS, NC, 28722",635494582,"R"
137601,"130 PR 5989","YANTIS","TX",75497,NA,NA,101,"130 PR 5989, YANTIS, TX, 75497","No_Match",NA,NA,NA,NA
137602,"130 PRADO LANE","CLARKSBURG","MD",20871,NA,NA,102,"130 PRADO LANE, CLARKSBURG, MD, 20871","No_Match",NA,NA,NA,NA
137603,"130 PRAIRIE AVE","BUTTERFIELD","MN",56120,43.953196146,-94.7943414,103,"130 PRAIRIE AVE, BUTTERFIELD, MN, 56120","Match","Exact","130 PRAIRIE AVE, BUTTERFIELD, MN, 56120",611816853,"L"
137604,"130 PRATO PALMA","SAN ANTONIO","TX",78253,29.430777388,-98.751591288,104,"130 PRATO PALMA, SAN ANTONIO, TX, 78253","Match","Exact","130 PRATO PALMA, SAN ANTONIO, TX, 78253",641448065,"L"
137605,"130 PRESTWICK PLACE","PADUCAH","KY",42001,37.0507390070001,-88.709308853,105,"130 PRESTWICK PLACE, PADUCAH, KY, 42001","Match","Exact","130 PRESTWICK PL, PADUCAH, KY, 42001",8408085,"R"
137606,"130 PRICHETT ST","GROVE HILL","AL",36451,NA,NA,106,"130 PRICHETT ST, GROVE HILL, AL, 36451","No_Match",NA,NA,NA,NA
137607,"130 PRINCETON TRACE","FAYETTEVILLE","GA",30214,33.517621664,-84.451356857,107,"130 PRINCETON TRACE, FAYETTEVILLE, GA, 30214","Match","Exact","130 PRINCETON TRCE, FAYETTEVILLE, GA, 30214",75930109,"R"
137608,"130 QUAIL RUN DR","WINFIELD","AL",35594,33.9473078120001,-87.798020142,108,"130 QUAIL RUN DR, WINFIELD, AL, 35594","Match","Non_Exact","130 QUAIL RUN RD, WINFIELD, AL, 35594",130633248,"L"
137609,"130 QUEENS LANE","EASTHAMPTON","NY",11937,40.9817879570001,-72.1712131099999,109,"130 QUEENS LANE, EASTHAMPTON, NY, 11937","Match","Non_Exact","130 QUEENS LN, EAST HAMPTON, NY, 11937",114068342,"L"
137610,"130 QUEENS LANE","ROYAL PALM BEACH","FL",33411,26.705550185,-80.244852112,110,"130 QUEENS LANE, ROYAL PALM BEACH, FL, 33411","Match","Exact","130 QUEENS LN, ROYAL PALM BEACH, FL, 33411",115581612,"L"
137611,"130 RADCLIFFE DRIVE","PITTSBURGH","PA",15237,40.5166939200001,-79.995983988,111,"130 RADCLIFFE DRIVE, PITTSBURGH, PA, 15237","Match","Non_Exact","130 RADCLIFF DR, PITTSBURGH, PA, 15237",51710568,"L"
137612,"130 RADLE RD","HARRISBURG","PA",17112,40.326328629,-76.7550233119999,112,"130 RADLE RD, HARRISBURG, PA, 17112","Match","Exact","130 RADLE RD, HARRISBURG, PA, 17112",634138147,"R"
137613,"130 RALEIGH DRIVE","ELIZABETHTOWN","KY",42701,37.715781179,-85.8349880819999,113,"130 RALEIGH DRIVE, ELIZABETHTOWN, KY, 42701","Match","Non_Exact","130 RALEIGH WAY, ELIZABETHTOWN, KY, 42701",647587610,"R"
137614,"130 RAMONA AVE","BUFFALO","NY",14220,42.841022073,-78.810528312,114,"130 RAMONA AVE, BUFFALO, NY, 14220","Match","Exact","130 RAMONA AVE, BUFFALO, NY, 14220",48303161,"L"
137615,"130 RAMSEN AVE","AVENEL","NJ",7001,NA,NA,115,"130 RAMSEN AVE, AVENEL, NJ, 7001","No_Match",NA,NA,NA,NA
137616,"130 RANCH ROAD","FRITCH","TX",79036,35.6358247810001,-101.579497031,116,"130 RANCH ROAD, FRITCH, TX, 79036","Match","Exact","130 RANCH RD, FRITCH, TX, 79036",185354762,"L"
137617,"130 RANSOM RD","LUMBERTON","NC",28360,34.7260220110001,-79.001004587,117,"130 RANSOM RD, LUMBERTON, NC, 28360","Match","Exact","130 RANSOM RD, LUMBERTON, NC, 28360",49157909,"R"
137618,"130 RED BARN","MATTESON","IL",60443,41.525143342,-87.768032627,118,"130 RED BARN, MATTESON, IL, 60443","Match","Non_Exact","130 RED BARN RD, MATTESON, IL, 60443",111706735,"R"
137619,"130 RED CLOUD DRIVE","DIAMOND BAR","CA",91765,34.0233246780001,-117.814865113,119,"130 RED CLOUD DRIVE, DIAMOND BAR, CA, 91765","Match","Exact","130 RED CLOUD DR, DIAMOND BAR, CA, 91765",141728979,"R"
137620,"130 RED HILL ROAD","DUCK HILL","MS",38925,33.6631164830001,-89.592755756,120,"130 RED HILL ROAD, DUCK HILL, MS, 38925","Match","Exact","130 RED HILL RD, DUCK HILL, MS, 38925",161386200,"R"
137621,"130 REDBUD DRIVE","NORTH AUGUSTA","SC",29860,33.571365815,-81.945696337,121,"130 REDBUD DRIVE, NORTH AUGUSTA, SC, 29860","Match","Exact","130 REDBUD DR, NORTH AUGUSTA, SC, 29860",65020507,"R"
137622,"130 RICE LANE","WAVERLY","OH",45690,39.193398331,-83.005971217,122,"130 RICE LANE, WAVERLY, OH, 45690","Match","Exact","130 RICE LN, WAVERLY, OH, 45690",37493809,"R"
137623,"130 RIDGE ST","LOCUST GROVE","GA",30248,33.343528711,-84.1097546569999,123,"130 RIDGE ST, LOCUST GROVE, GA, 30248","Match","Exact","130 RIDGE ST, LOCUST GROVE, GA, 30248",23211258,"L"
137624,"130 RIDGEWOOD AVE","NEWARK","NJ",7108,40.719200906,-74.1958491299999,124,"130 RIDGEWOOD AVE, NEWARK, NJ, 7108","Match","Exact","130 RIDGEWOOD AVE, NEWARK, NJ, 07108",63466379,"L"
137625,"130 RIVER LANDING DR STE 1D","DANIEL ISLAND","SC",29492,NA,NA,125,"130 RIVER LANDING DR STE 1D, DANIEL ISLAND, SC, 29492","No_Match",NA,NA,NA,NA
137626,"130 RIVER LANDING DRIVE","CHARLESTON","SC",29492,NA,NA,126,"130 RIVER LANDING DRIVE, CHARLESTON, SC, 29492","No_Match",NA,NA,NA,NA
137627,"130 RIVERWOOD DR","ST ROSE","LA",70087,29.9455864620001,-90.319841315,127,"130 RIVERWOOD DR, ST ROSE, LA, 70087","Match","Exact","130 RIVERWOOD DR, SAINT ROSE, LA, 70087",631937716,"L"
137628,"130 ROBERT AVE","BELLEVUE","OH",44811,41.2825095750001,-82.839743644,128,"130 ROBERT AVE, BELLEVUE, OH, 44811","Match","Exact","130 ROBERT AVE, BELLEVUE, OH, 44811",12622784,"L"
137629,"130 ROBIN HILL ROAD SUITE 100","GOLETA","CA",93117,34.4343675380001,-119.844871117,129,"130 ROBIN HILL ROAD SUITE 100, GOLETA, CA, 93117","Match","Exact","130 ROBIN HILL RD, GOLETA, CA, 93117",108695769,"L"
137630,"130 ROBIN HILL ROAD SUITE 100","SANTA BARBARA","CA",93117,34.4343675380001,-119.844871117,130,"130 ROBIN HILL ROAD SUITE 100, SANTA BARBARA, CA, 93117","Match","Exact","130 ROBIN HILL RD, SANTA BARBARA, CA, 93117",108695769,"L"
137631,"130 ROBIN LANE N6","HUMMELSTOWN","PA",17036,40.312742761,-76.700477516,131,"130 ROBIN LANE N6, HUMMELSTOWN, PA, 17036","Match","Exact","130 ROBIN LN, HUMMELSTOWN, PA, 17036",624887367,"L"
137632,"130 ROCK HILL ROAD","ASHEVILLE","NC",28803,35.5352588160001,-82.520447116,132,"130 ROCK HILL ROAD, ASHEVILLE, NC, 28803","Match","Exact","130 ROCK HILL RD, ASHEVILLE, NC, 28803",627656094,"L"
137633,"130 ROCKVIEW","IRVINE","CA",92612,33.6527726360001,-117.820415092,133,"130 ROCKVIEW, IRVINE, CA, 92612","Match","Exact","130 ROCKVIEW, IRVINE, CA, 92612",144097008,"R"
137634,"130 ROLLING GREEN DR","DOVER","AR",72837,35.370012122,-93.133089965,134,"130 ROLLING GREEN DR, DOVER, AR, 72837","Match","Exact","130 ROLLING GREEN DR, DOVER, AR, 72837",81893075,"L"
137635,"130 ROLLING HILLS EST","GLASGOW","KY",42141,36.9382187940001,-85.835581242,135,"130 ROLLING HILLS EST, GLASGOW, KY, 42141","Match","Exact","130 ROLLING HILLS EST, GLASGOW, KY, 42141",29527987,"L"
137636,"130 ROLLINS AVENUE APT 313","ROCKVILLE","MD",20852,39.05874125,-77.123192306,136,"130 ROLLINS AVENUE APT 313, ROCKVILLE, MD, 20852","Match","Exact","130 ROLLINS AVE, ROCKVILLE, MD, 20852",62056257,"L"
137637,"130 RONALD DR","WEST PARK","FL",33023,25.979328133,-80.201592596,137,"130 RONALD DR, WEST PARK, FL, 33023","Match","Non_Exact","130 RONALD RD, WEST PARK, FL, 33023",114735379,"R"
137638,"130 RONDAK CIRCLE","SMYRNA","GA",30080,33.871152355,-84.497155144,138,"130 RONDAK CIRCLE, SMYRNA, GA, 30080","Match","Exact","130 RONDAK CIR, SMYRNA, GA, 30080",17181813,"L"
137639,"130 ROSEGATE FARM DRIVE","MANCHESTER","NH",3109,42.9435611310001,-71.40697173,139,"130 ROSEGATE FARM DRIVE, MANCHESTER, NH, 3109","Match","Exact","130 ROSEGATE FARM DR, MANCHESTER, NH, 03109",113569120,"L"
137640,"130 ROSEMONT LOOP","OXFORD","MS",38655,34.3497951210001,-89.507659625,140,"130 ROSEMONT LOOP, OXFORD, MS, 38655","Match","Non_Exact","130 ROOSEMONT LOOP, OXFORD, MS, 38655",648121143,"R"
137641,"130 ROUNDTABLE DRIVE K2","SAN JOSE","CA",95111,37.260845219,-121.806008936,141,"130 ROUNDTABLE DRIVE K2, SAN JOSE, CA, 95111","Match","Exact","130 ROUNDTABLE DR, SAN JOSE, CA, 95111",122926421,"R"
137642,"130 ROUNSVILLE RD","HAMPTON","NJ",8827,NA,NA,142,"130 ROUNSVILLE RD, HAMPTON, NJ, 8827","Tie",NA,NA,NA,NA
137643,"130 ROUTE 31 NORTH SUITE A","PENNINGTON","NJ",8534,NA,NA,143,"130 ROUTE 31 NORTH SUITE A, PENNINGTON, NJ, 8534","No_Match",NA,NA,NA,NA
137644,"130 ROYAL COURT AT WATERFORD","YORK","PA",17402,NA,NA,144,"130 ROYAL COURT AT WATERFORD, YORK, PA, 17402","No_Match",NA,NA,NA,NA
137645,"130 RUMFORD STREET","CONCORD","NH",3301,43.21088187,-71.547291273,145,"130 RUMFORD STREET, CONCORD, NH, 3301","Match","Exact","130 RUMFORD ST, CONCORD, NH, 03301",117716319,"R"
137646,"130 S 200 W","HYDE PARK","UT",84318,41.7964530360001,-111.824502688,146,"130 S 200 W, HYDE PARK, UT, 84318","Match","Exact","130 S 200 W, HYDE PARK, UT, 84318",155109650,"R"
137647,"130 S 329TH PL APT 33C","FEDERAL WAY","WA",98003,47.3067292470001,-122.333441634,147,"130 S 329TH PL APT 33C, FEDERAL WAY, WA, 98003","Match","Non_Exact","130 S 329TH PL, FEDERAL WAY, WA, 98003",186689458,"L"
137648,"130 S 700 E APT 2","SALT LAKE CITY","UT",84102,40.7664176580001,-111.87106285,148,"130 S 700 E APT 2, SALT LAKE CITY, UT, 84102","Match","Non_Exact","130 S 700 E, SALT LAKE CITY, UT, 84102",176068017,"R"
137649,"130 S AUSTIN 2","OAK PARK","IL",60304,NA,NA,149,"130 S AUSTIN 2, OAK PARK, IL, 60304","No_Match",NA,NA,NA,NA
137650,"130 S BARRANCA ST","WEST COVINA","CA",91791,34.070254586,-117.881255161,150,"130 S BARRANCA ST, WEST COVINA, CA, 91791","Match","Exact","130 S BARRANCA ST, WEST COVINA, CA, 91791",241248630,"L"
137651,"130 S BEMISTON SUITE 200","CLAYTON","MO",63105,NA,NA,151,"130 S BEMISTON SUITE 200, CLAYTON, MO, 63105","No_Match",NA,NA,NA,NA
137652,"130 S CAMERON ST","WINCHESTER","VA",22601,39.182466591,-78.164647601,152,"130 S CAMERON ST, WINCHESTER, VA, 22601","Match","Exact","130 S CAMERON ST, WINCHESTER, VA, 22601",55578504,"R"
137653,"130 S CHARLOTTE","LOMBARD","IL",60148,41.885823916,-88.016212535,153,"130 S CHARLOTTE, LOMBARD, IL, 60148","Match","Non_Exact","130 S CHARLOTTE ST, LOMBARD, IL, 60148",112523770,"R"
137654,"130 S CLOW INTERNATIONAL PKWY","BOLINGBROOK","IL",60440,41.701994019,-88.1289368,154,"130 S CLOW INTERNATIONAL PKWY, BOLINGBROOK, IL, 60440","Match","Non_Exact","130 CLOW INTERNATIONAL PKWY, BOLINGBROOK, IL, 60490",607943865,"L"
137655,"130 S COLEMAN STREET","BRUCE","WI",54819,45.4501808750001,-91.2752393759999,155,"130 S COLEMAN STREET, BRUCE, WI, 54819","Match","Exact","130 S COLEMAN ST, BRUCE, WI, 54819",635616366,"L"
137656,"130 S CYPRES RD APT 613","POMPANO BEACH","FL",33060,26.229422361,-80.122541696,156,"130 S CYPRES RD APT 613, POMPANO BEACH, FL, 33060","Match","Non_Exact","130 CYPRESS RD, POMPANO BEACH, FL, 33060",114695104,"L"
137657,"130 S FOURTH ST","GOSPORT","IN",46151,39.4281359030001,-86.410808706,157,"130 S FOURTH ST, GOSPORT, IN, 46151","Match","Non_Exact","130 4TH ST, CENTERTON, IN, 46151",43563769,"L"
137658,"130 S FRONT ST APT 432","MEMPHIS","TN",38103,NA,NA,158,"130 S FRONT ST APT 432, MEMPHIS, TN, 38103","Tie",NA,NA,NA,NA
137659,"130 S FRONT STREET SUITE 331","MEMPHIS","TN",38103,NA,NA,159,"130 S FRONT STREET SUITE 331, MEMPHIS, TN, 38103","Tie",NA,NA,NA,NA
137660,"130 S GRANT STREET","WESTMONT","IL",60559,41.7929941830001,-87.97805257,160,"130 S GRANT STREET, WESTMONT, IL, 60559","Match","Exact","130 S GRANT ST, WESTMONT, IL, 60559",112547870,"R"
137661,"130 S INDIAN DRIVE","FORT PIERCE","FL",34950,NA,NA,161,"130 S INDIAN DRIVE, FORT PIERCE, FL, 34950","No_Match",NA,NA,NA,NA
137662,"130 S INDIAN RIVER DR STE 202","FORT PIERCE","FL",34950,NA,NA,162,"130 S INDIAN RIVER DR STE 202, FORT PIERCE, FL, 34950","Tie",NA,NA,NA,NA
137663,"130 S JEFFERSON / STE 350","CHICAGO","IL",60661,NA,NA,163,"130 S JEFFERSON / STE 350, CHICAGO, IL, 60661","No_Match",NA,NA,NA,NA
137664,"130 S LAFAYETTE PARK PL APT 401","LOS ANGELES","CA",90057,34.06991119,-118.278788329,164,"130 S LAFAYETTE PARK PL APT 401, LOS ANGELES, CA, 90057","Match","Non_Exact","130 S LA FAYETTE PARK PL, LOS ANGELES, CA, 90057",141605249,"L"
137665,"130 S MAIN ST","BOWLING GREEN","OH",43402,41.3737716640001,-83.650420179,165,"130 S MAIN ST, BOWLING GREEN, OH, 43402","Match","Exact","130 S MAIN ST, BOWLING GREEN, OH, 43402",38720176,"L"
137666,"130 S MASSACHUSETTS AVE","LAKELAND","FL",33801,28.0437237400001,-81.954144663,166,"130 S MASSACHUSETTS AVE, LAKELAND, FL, 33801","Match","Exact","130 S MASSACHUSETTS AVE, LAKELAND, FL, 33801",104810630,"L"
137667,"130 S MEADE","SOUTH BEND","IN",46619,41.6747479790001,-86.285836747,167,"130 S MEADE, SOUTH BEND, IN, 46619","Match","Non_Exact","130 S MEADE ST, SOUTH BEND, IN, 46619",8087330,"L"
137668,"130 S METZGER AVE","RITTMAN","OH",44270,40.9693767090001,-81.79345124,168,"130 S METZGER AVE, RITTMAN, OH, 44270","Match","Exact","130 S METZGER AVE, RITTMAN, OH, 44270",58720586,"R"
137669,"130 S METZGER","RITTMAN","OH",44270,40.9693767090001,-81.79345124,169,"130 S METZGER, RITTMAN, OH, 44270","Match","Non_Exact","130 S METZGER AVE, RITTMAN, OH, 44270",58720586,"R"
137670,"130 S MONTANA","DILLON","MT",59725,45.2167316250001,-112.638647015,170,"130 S MONTANA, DILLON, MT, 59725","Match","Non_Exact","130 S MONTANA ST, DILLON, MT, 59725",153005875,"R"
137671,"130 S PATTERSON AVE SUITE 1066","GOLETA","CA",93116,NA,NA,171,"130 S PATTERSON AVE SUITE 1066, GOLETA, CA, 93116","No_Match",NA,NA,NA,NA
137672,"130 S PINE AVE","ALBANY","NY",12208,42.663363539,-73.797572637,172,"130 S PINE AVE, ALBANY, NY, 12208","Match","Exact","130 S PINE AVE, ALBANY, NY, 12208",18308529,"R"
137673,"130 S PINE VLLEY ROAD","WINSTON-SALEM","NC",27104,NA,NA,173,"130 S PINE VLLEY ROAD, WINSTON-SALEM, NC, 27104","Tie",NA,NA,NA,NA
137674,"130 S SEGUIN AVE","NEW BRAUNFELS","TX",78130,29.702459849,-98.1238923989999,174,"130 S SEGUIN AVE, NEW BRAUNFELS, TX, 78130","Match","Exact","130 S SEGUIN AVE, NEW BRAUNFELS, TX, 78130",72245659,"R"
137675,"130 S SEPULVEDA BLVD APT 211","LOS ANGELES","CA",90049,NA,NA,175,"130 S SEPULVEDA BLVD APT 211, LOS ANGELES, CA, 90049","Tie",NA,NA,NA,NA
137676,"130 S SHERMAN STREET","VASSAR","MI",48768,43.369238835,-83.575570324,176,"130 S SHERMAN STREET, VASSAR, MI, 48768","Match","Exact","130 S SHERMAN ST, VASSAR, MI, 48768",81247729,"L"
137677,"130 S SPROUL RD","BROOMALL","PA",19008,39.9767791450001,-75.362765297,177,"130 S SPROUL RD, BROOMALL, PA, 19008","Match","Exact","130 S SPROUL RD, BROOMALL, PA, 19008",134873177,"R"
137678,"130 S STATE ST","TISKILWA","IL",61368,41.2918892600001,-89.5041692189999,178,"130 S STATE ST, TISKILWA, IL, 61368","Match","Exact","130 STATE ST, TISKILWA, IL, 61368",8481237,"L"
137679,"130 S STATE STREET","ELGIN","IL",60123,42.032965528,-88.284869401,179,"130 S STATE STREET, ELGIN, IL, 60123","Match","Exact","130 S STATE ST, ELGIN, IL, 60123",119503825,"R"
137680,"130 S VERMONT AVENUE","ATLANTIC CITY","NJ",8401,39.3657835930001,-74.412994398,180,"130 S VERMONT AVENUE, ATLANTIC CITY, NJ, 8401","Match","Exact","130 S VERMONT AVE, ATLANTIC CITY, NJ, 08401",202491438,"R"
137681,"130 S VILLA","WILLOWS","CA",95988,NA,NA,181,"130 S VILLA, WILLOWS, CA, 95988","Tie",NA,NA,NA,NA
137682,"130 SAGER ROAD","VALPARAISO","IN",46383,41.4539769950001,-87.058086869,182,"130 SAGER ROAD, VALPARAISO, IN, 46383","Match","Exact","130 SAGER RD, VALPARAISO, IN, 46383",641443559,"R"
137683,"130 SALINGER DRIVE","GEORGETOWN","KY",40324,38.191014597,-84.567333171,183,"130 SALINGER DRIVE, GEORGETOWN, KY, 40324","Match","Exact","130 SALINGER DR, GEORGETOWN, KY, 40324",211986272,"R"
137684,"130 SALISBURRY CIRCLE","LYNCHBURG","VA",24502,37.3571874530001,-79.227635568,184,"130 SALISBURRY CIRCLE, LYNCHBURG, VA, 24502","Match","Non_Exact","130 SALISBURY CIR, LYNCHBURG, VA, 24502",636767995,"L"
137685,"130 SAN BAR LN","DETROIT","MI",48214,42.359530459,-82.9630978169999,185,"130 SAN BAR LN, DETROIT, MI, 48214","Match","Non_Exact","130 SAND BAR LN, DETROIT, MI, 48214",639388382,"R"
137686,"130 SAND BAR LN","DETROIT","MI",48214,42.359530459,-82.9630978169999,186,"130 SAND BAR LN, DETROIT, MI, 48214","Match","Exact","130 SAND BAR LN, DETROIT, MI, 48214",639388382,"R"
137687,"130 SANDSTONE DRIVE","ATHENS","GA",30605,33.922108699,-83.31722774,187,"130 SANDSTONE DRIVE, ATHENS, GA, 30605","Match","Exact","130 SANDSTONE DR, ATHENS, GA, 30605",4808830,"L"
137688,"130 SANTA ROSA PLACE","SAN BARBARA","CA",93109,34.3975043200001,-119.707346244,188,"130 SANTA ROSA PLACE, SAN BARBARA, CA, 93109","Match","Exact","130 SANTA ROSA PL, SANTA BARBARA, CA, 93109",108607375,"R"
137689,"130 SCIENCE DRIVE BOX 90383","DURHAM","NC",27708,36.0022723440001,-78.942370839,189,"130 SCIENCE DRIVE BOX 90383, DURHAM, NC, 27708","Match","Non_Exact","130 SCIENCE DR, DURHAM, NC, 27705",71790693,"R"
137690,"130 SE 119TH AVE","PORTLAND","OR",97216,45.521533005,-122.540352754,190,"130 SE 119TH AVE, PORTLAND, OR, 97216","Match","Exact","130 SE 119TH AVE, PORTLAND, OR, 97216",157519693,"L"
137691,"130 SE 42ND ST","CAPE CORAL","FL",33904,26.574530646,-81.973074401,191,"130 SE 42ND ST, CAPE CORAL, FL, 33904","Match","Exact","130 SE 42ND ST, CAPE CORAL, FL, 33904",652506489,"R"
137692,"130 SELDON DRIVE","CHARLOTTE","NC",28216,35.2463554760001,-80.8617180799999,192,"130 SELDON DRIVE, CHARLOTTE, NC, 28216","Match","Exact","130 SELDON DR, CHARLOTTE, NC, 28216",70477480,"R"
137693,"130 SEYMOUR AVENUE","NEWARK","NJ",7108,40.720788322,-74.202542578,193,"130 SEYMOUR AVENUE, NEWARK, NJ, 7108","Match","Exact","130 SEYMOUR AVE, NEWARK, NJ, 07108",63485662,"L"
137694,"130 SHAWNEE PL","LEXINGTON","KY",40503,38.0215987510001,-84.511897523,194,"130 SHAWNEE PL, LEXINGTON, KY, 40503","Match","Exact","130 SHAWNEE PL, LEXINGTON, KY, 40503",31950799,"R"
137695,"130 SHELTER ROCK ROAD","STAMFORD","CT",6903,41.1236692890001,-73.590878001,195,"130 SHELTER ROCK ROAD, STAMFORD, CT, 6903","Match","Exact","130 SHELTER ROCK RD, STAMFORD, CT, 06903",618525211,"L"
137696,"130 SHEPARDS WAY","THOMASVILLE","GA",31757,30.8565171280001,-83.935302022,196,"130 SHEPARDS WAY, THOMASVILLE, GA, 31757","Match","Exact","130 SHEPARDS WAY, THOMASVILLE, GA, 31757",637668125,"R"
137697,"130 SHERIDAN AVENUE","HO HO KUS","NJ",7423,41.0007116800001,-74.1091072139999,197,"130 SHERIDAN AVENUE, HO HO KUS, NJ, 7423","Match","Exact","130 SHERIDAN AVE, HO HO KUS, NJ, 07423",64366655,"R"
137698,"130 SHERWOOD AVE UNIT 7","PATERSON","NJ",7502,40.9181085000001,-74.193799298,198,"130 SHERWOOD AVE UNIT 7, PATERSON, NJ, 7502","Match","Exact","130 SHERWOOD AVE, PATERSON, NJ, 07502",65260707,"R"
137699,"130 SHERWOOD STREET","HOT SPRINGS","AR",72901,34.471414096,-93.027671187,199,"130 SHERWOOD STREET, HOT SPRINGS, AR, 72901","Match","Non_Exact","130 SHERWOOD ST, HOT SPRINGS, AR, 71901",22733913,"L"
137700,"130 SHILOH RUN","KENNESAW","GA",30144,34.0590426200001,-84.5552104189999,200,"130 SHILOH RUN, KENNESAW, GA, 30144","Match","Non_Exact","130 SHILOH RUN NW, KENNESAW, GA, 30144",17167743,"R"
137701,"130 SHIRLEY DR","CARY","NC",27511,35.7777195250001,-78.7861621979999,201,"130 SHIRLEY DR, CARY, NC, 27511","Match","Exact","130 SHIRLEY DR, CARY, NC, 27511",72530192,"R"
137702,"130 SIGNAL DRIVE","RAPID CITY","SD",57701,44.0724619960001,-103.221034547,202,"130 SIGNAL DRIVE, RAPID CITY, SD, 57701","Match","Exact","130 SIGNAL DR, RAPID CITY, SD, 57701",205508634,"R"
137703,"130 SILVER CREEK ROAD","MEADOW VALLEY","CA",95956,39.9331793600001,-121.061393785,203,"130 SILVER CREEK ROAD, MEADOW VALLEY, CA, 95956","Match","Exact","130 SILVER CREEK RD, MEADOW VALLEY, CA, 95956",127218669,"R"
137704,"130 SILVER SPRINGS DR","FAYETTEVILLE","GA",30214,33.488638888,-84.4517953709999,204,"130 SILVER SPRINGS DR, FAYETTEVILLE, GA, 30214","Match","Exact","130 SILVER SPRINGS DR, FAYETTEVILLE, GA, 30214",75930173,"R"
137705,"130 SKELLY","HERCULES","CA",94547,38.010583341,-122.286806185,205,"130 SKELLY, HERCULES, CA, 94547","Match","Exact","130 SKELLY, HERCULES, CA, 94547",192113621,"L"
137706,"130 SKILLMAN STREET 3","BROOKLYN","NY",11205,40.6943458200001,-73.957068148,206,"130 SKILLMAN STREET 3, BROOKLYN, NY, 11205","Match","Exact","130 SKILLMAN ST, BROOKLYN, NY, 11205",59078624,"R"
137707,"130 SKYVIEW AVE","FAIRFAX","IA",52228,41.928994098,-91.7677674129999,207,"130 SKYVIEW AVE, FAIRFAX, IA, 52228","Match","Exact","130 SKYVIEW AVE, FAIRFAX, IA, 52228",17047807,"R"
137708,"130 SNAFFLE TRAIL","GEORGETOWN","KY",40324,38.2373878880001,-84.5454237,208,"130 SNAFFLE TRAIL, GEORGETOWN, KY, 40324","Match","Exact","130 SNAFFLE TRL, GEORGETOWN, KY, 40324",631701165,"R"
137709,"130 SOBRANTE RD","MORGANS POINT RESORT","TX",76513,31.159327381,-97.46557453,209,"130 SOBRANTE RD, MORGANS POINT RESORT, TX, 76513","Match","Exact","130 SOBRANTE RD, MORGANS POINT RESORT, TX, 76513",640635221,"R"
137710,"130 SOMERSET LANE","SPARTANBURG","SC",29302,34.9510197640001,-81.876242385,210,"130 SOMERSET LANE, SPARTANBURG, SC, 29302","Match","Exact","130 SOMERSET LN, SPARTANBURG, SC, 29302",19471823,"R"
137711,"130 SOUTH 16TH STREET","WEST MEMPHIS","AR",72301,35.14585629,-90.1652273399999,211,"130 SOUTH 16TH STREET, WEST MEMPHIS, AR, 72301","Match","Exact","130 S 16TH ST, WEST MEMPHIS, AR, 72301",69372973,"R"
137712,"130 SOUTH 16TH","WEST MEMPHIS","AR",72301,35.14585629,-90.1652273399999,212,"130 SOUTH 16TH, WEST MEMPHIS, AR, 72301","Match","Non_Exact","130 S 16TH ST, WEST MEMPHIS, AR, 72301",69372973,"R"
137713,"130 SOUTH 42ND STREET","BOULDER","CO",80305,39.9898761360001,-105.24343236,213,"130 SOUTH 42ND STREET, BOULDER, CO, 80305","Match","Exact","130 S 42ND ST, BOULDER, CO, 80305",220748703,"R"
137714,"130 SOUTH 500 WEST SUITE 732","SALT LAKE CITY","UT",84101,40.7664373700001,-111.905478276,214,"130 SOUTH 500 WEST SUITE 732, SALT LAKE CITY, UT, 84101","Match","Exact","130 S 500 W, SALT LAKE CITY, UT, 84101",176066986,"R"
137715,"130 SOUTH CANAL ST","CHICAGO","IL",60661,41.880379411,-87.639645662,215,"130 SOUTH CANAL ST, CHICAGO, IL, 60661","Match","Non_Exact","130 S CANAL ST, CHICAGO, IL, 60606",605109606,"R"
137716,"130 SOUTH FLORIDA STREET","BUCKHANNON","WV",26201,38.987129501,-80.21915384,216,"130 SOUTH FLORIDA STREET, BUCKHANNON, WV, 26201","Match","Exact","130 S FLORIDA ST, BUCKHANNON, WV, 26201",53442721,"R"
137717,"130 SOUTH FRONT STREET APT 331","MEMPHIS","TN",38103,35.141755382,-90.055590368,217,"130 SOUTH FRONT STREET APT 331, MEMPHIS, TN, 38103","Match","Exact","130 S FRONT ST, MEMPHIS, TN, 38103",72903206,"L"
137718,"130 SOUTH FRONT STREET SUITE 315","MEMPHIS","TN",38103,35.141755382,-90.055590368,218,"130 SOUTH FRONT STREET SUITE 315, MEMPHIS, TN, 38103","Match","Exact","130 S FRONT ST, MEMPHIS, TN, 38103",72903206,"L"
137719,"130 SOUTH JEFFERSON ST","STAUNTON","VA",24401,38.1469330240001,-79.078423835,219,"130 SOUTH JEFFERSON ST, STAUNTON, VA, 24401","Match","Exact","130 S JEFFERSON ST, STAUNTON, VA, 24401",98847423,"L"
137720,"130 SOUTH MAIN STREET","FOND DU LAC","WI",54936,43.775186449,-88.4470183619999,220,"130 SOUTH MAIN STREET, FOND DU LAC, WI, 54936","Match","Non_Exact","130 S MAIN ST, FOND DU LAC, WI, 54935",74811232,"R"
137721,"130 SOUTH MAIN STREET","UXBRIDGE","MA",1569,42.069551168,-71.623984034,221,"130 SOUTH MAIN STREET, UXBRIDGE, MA, 1569","Match","Exact","130 S MAIN ST, UXBRIDGE, MA, 01569",614094909,"L"
137722,"130 SOUTH MAIN","LOGAN","UT",84321,41.7292482490001,-111.835045784,222,"130 SOUTH MAIN, LOGAN, UT, 84321","Match","Non_Exact","130 S MAIN ST, LOGAN, UT, 84321",155094181,"R"
137723,"130 SOUTH ROAD","MILLBROOK","NY",12545,41.775243242,-73.741159717,223,"130 SOUTH ROAD, MILLBROOK, NY, 12545","Match","Exact","130 SOUTH RD, MILLBROOK, NY, 12545",4194167,"R"
137724,"130 SOUTH ST APT 2A","NEWARK","NJ",7114,40.7227188420001,-74.173342917,224,"130 SOUTH ST APT 2A, NEWARK, NJ, 7114","Match","Exact","130 SOUTH ST, NEWARK, NJ, 07114",63467948,"L"
137725,"130 SOUTH ST","NEWARK","NJ",7114,40.7227188420001,-74.173342917,225,"130 SOUTH ST, NEWARK, NJ, 7114","Match","Exact","130 SOUTH ST, NEWARK, NJ, 07114",63467948,"L"
137726,"130 SOUTH STEPHENS STREET","BOSTON","GA",31626,30.791398529,-83.788563991,226,"130 SOUTH STEPHENS STREET, BOSTON, GA, 31626","Match","Exact","130 S STEPHENS ST, BOSTON, GA, 31626",83105267,"L"
137727,"130 SOUTH STEVENS AVENUE","SOUTH AMBOY","NJ",8879,NA,NA,227,"130 SOUTH STEVENS AVENUE, SOUTH AMBOY, NJ, 8879","No_Match",NA,NA,NA,NA
137728,"130 SOUTH STREET APT 2A","NEWARK","NJ",7114,40.7227188420001,-74.173342917,228,"130 SOUTH STREET APT 2A, NEWARK, NJ, 7114","Match","Exact","130 SOUTH ST, NEWARK, NJ, 07114",63467948,"L"
137729,"130 SOUTH STREET","MEDFORD","MA",2155,42.4175886730001,-71.117142971,229,"130 SOUTH STREET, MEDFORD, MA, 2155","Match","Exact","130 SOUTH ST, MEDFORD, MA, 02155",86855891,"L"
137730,"130 SPENCER HILL CT","MACON","GA",31206,32.7964440170001,-83.6997843619999,230,"130 SPENCER HILL CT, MACON, GA, 31206","Match","Exact","130 SPENCER HILL CT, MACON, GA, 31206",81059978,"L"
137731,"130 SPINNAKER RIDGE DRIVE APT C 112","HUNTSVILLE","AL",35824,34.6675625290001,-86.7323627119999,231,"130 SPINNAKER RIDGE DRIVE APT C 112, HUNTSVILLE, AL, 35824","Match","Exact","130 SPINNAKER RIDGE DR, HUNTSVILLE, AL, 35824",58206487,"L"
137732,"130 SPRING RIDGE DR","ROSWELL","GA",30076,34.022293916,-84.293284786,232,"130 SPRING RIDGE DR, ROSWELL, GA, 30076","Match","Exact","130 SPRING RIDGE DR, ROSWELL, GA, 30076",17393567,"L"
137733,"130 SPRING STREET","SANTA CRUZ","CA",95060,36.975173537,-122.044307583,233,"130 SPRING STREET, SANTA CRUZ, CA, 95060","Match","Exact","130 SPRING ST, SANTA CRUZ, CA, 95060",125505475,"R"
137734,"130 SPRING WATER DR","MADISON","AL",35758,34.71852754,-86.7214596049999,234,"130 SPRING WATER DR, MADISON, AL, 35758","Match","Exact","130 SPRING WATER DR, MADISON, AL, 35758",58143322,"R"
137735,"130 SPRINGBROOK DR","CHEHALIS","WA",98532,46.6412412760001,-122.983776027,235,"130 SPRINGBROOK DR, CHEHALIS, WA, 98532","Match","Exact","130 SPRINGBROOK DR, CHEHALIS, WA, 98532",180739115,"R"
137736,"130 SPRINGSIDE AVENUE","NEW HAVEN","CT",6515,41.3317742190001,-72.956280566,236,"130 SPRINGSIDE AVENUE, NEW HAVEN, CT, 6515","Match","Exact","130 SPRINGSIDE AVE, NEW HAVEN, CT, 06515",628113960,"L"
137737,"130 SPRUCE STREET APT 32B","PHILADELPHIA","PA",19106,39.94439852,-75.1442151589999,237,"130 SPRUCE STREET APT 32B, PHILADELPHIA, PA, 19106","Match","Exact","130 SPRUCE ST, PHILADELPHIA, PA, 19106",131459633,"L"
137738,"130 ST EDWARDS STREET 12D","BROOKLYN","NY",11201,NA,NA,238,"130 ST EDWARDS STREET 12D, BROOKLYN, NY, 11201","No_Match",NA,NA,NA,NA
137739,"130 ST NICHOLAS LANE","SANTA ROSA","CA",95403,38.5019540050001,-122.754469403,239,"130 ST NICHOLAS LANE, SANTA ROSA, CA, 95403","Match","Exact","130 ST NICHOLAS LN, SANTA ROSA, CA, 95403",605031562,"R"
137740,"130 STATE ROUTE 153","PATERIOS","WA",98841,48.050719046,-119.92872404,240,"130 STATE ROUTE 153, PATERIOS, WA, 98841","Match","Non_Exact","130 STATE RTE 153, PATEROS, WA, 98846",629073778,"R"
137741,"130 STEBBINS HIL ROAD","LANCASTER","NH",3584,44.461512778,-71.615338112,241,"130 STEBBINS HIL ROAD, LANCASTER, NH, 3584","Match","Non_Exact","130 STEBBINS HILL RD, LANCASTER, NH, 03584",635526517,"R"
137742,"130 STERLING AVE","PROVIDENCE","RI",2909,41.810766303,-71.448829909,242,"130 STERLING AVE, PROVIDENCE, RI, 2909","Match","Exact","130 STERLING AVE, PROVIDENCE, RI, 02909",47460587,"L"
137743,"130 STEVENS STREET","NOKOMIS","IL",62075,39.3039854200001,-89.2747140819999,243,"130 STEVENS STREET, NOKOMIS, IL, 62075","Match","Exact","130 STEVENS ST, NOKOMIS, IL, 62075",99456099,"L"
137744,"130 STEWARD RD","MONSON","ME",4464,45.26725671,-69.449744497,244,"130 STEWARD RD, MONSON, ME, 4464","Match","Exact","130 STEWARD RD, MONSON, ME, 04464",123967338,"R"
137745,"130 STONE RIDGE RD","INDIANA","PA",15701,40.5905217710001,-79.2065822979999,245,"130 STONE RIDGE RD, INDIANA, PA, 15701","Match","Exact","130 STONE RIDGE RD, INDIANA, PA, 15701",66315038,"R"
137746,"130 STONECROP PL","MONTGOMERY","TX",77316,30.271447068,-95.547849301,246,"130 STONECROP PL, MONTGOMERY, TX, 77316","Match","Exact","130 STONECROP PL, MONTGOMERY, TX, 77316",646658404,"R"
137747,"130 STONEGATE DRIVE","FREDERICK","MD",21702,39.426594584,-77.464916359,247,"130 STONEGATE DRIVE, FREDERICK, MD, 21702","Match","Exact","130 STONEGATE DR, FREDERICK, MD, 21702",60749354,"R"
137748,"130 STRECKER DRIVE","TALLMADGE","OH",44278,41.0917106520001,-81.4365851589999,248,"130 STRECKER DRIVE, TALLMADGE, OH, 44278","Match","Exact","130 STRECKER DR, TALLMADGE, OH, 44278",61383764,"R"
137749,"130 STREIT","SEQUIM","WA",98382,48.0896682040001,-123.173935166,249,"130 STREIT, SEQUIM, WA, 98382","Match","Non_Exact","130 STREIT RD, SEQUIM, WA, 98382",150851191,"R"
137750,"130 STUART AVE","SOUTHPORT","NC",28461,33.930106859,-78.011305681,250,"130 STUART AVE, SOUTHPORT, NC, 28461","Match","Exact","130 STUART AVE, SOUTHPORT, NC, 28461",651430943,"R"
137751,"130 SUBURST CREEK AVE","LAS VEGAS","NV",89123,36.01905637,-115.166609952,251,"130 SUBURST CREEK AVE, LAS VEGAS, NV, 89123","Match","Non_Exact","130 SUNBURST CREEK AVE, LAS VEGAS, NV, 89123",201902522,"L"
137752,"130 SUFFOLK ST UNIT A","NEW YORK","NY",10002,40.7195916250001,-73.9857719299999,252,"130 SUFFOLK ST UNIT A, NEW YORK, NY, 10002","Match","Exact","130 SUFFOLK ST, NEW YORK, NY, 10002",59654140,"R"
137753,"130 SUGAR HILL RD","NORTH HAVEN","CT",6473,41.3438031800001,-72.845594477,253,"130 SUGAR HILL RD, NORTH HAVEN, CT, 6473","Match","Exact","130 SUGAR HILL RD, NORTH HAVEN, CT, 06473",633047493,"L"
137754,"130 SUGAR MIST DRIVE","DALLAS","GA",30132,34.017412887,-84.794415895,254,"130 SUGAR MIST DRIVE, DALLAS, GA, 30132","Match","Exact","130 SUGAR MIST DR, DALLAS, GA, 30132",618923779,"R"
137755,"130 SULLIVAN AVE","PADUCAH","KY",42003,36.9870065860001,-88.4994198219999,255,"130 SULLIVAN AVE, PADUCAH, KY, 42003","Match","Exact","130 SULLIVAN AVE, PADUCAH, KY, 42003",8400987,"R"
137756,"130 SULLIVAN WAY","WAXAHACHIE","TX",75167,32.3201775210001,-96.9688771789999,256,"130 SULLIVAN WAY, WAXAHACHIE, TX, 75167","Match","Exact","130 SULLIVAN WAY, WAXAHACHIE, TX, 75167",648641183,"L"
137757,"130 SUMIDA GARDEN LN APT 103","SANTA BARBARA","CA",93111,NA,NA,257,"130 SUMIDA GARDEN LN APT 103, SANTA BARBARA, CA, 93111","No_Match",NA,NA,NA,NA
137758,"130 SUMMER POINTE LN","MADISON","AL",35757,34.773160379,-86.736880179,258,"130 SUMMER POINTE LN, MADISON, AL, 35757","Match","Exact","130 SUMMER POINTE LN, MADISON, AL, 35757",650657946,"R"
137759,"130 SUMMER STREET","WESTON","MA",2493,42.359064629,-71.273085484,259,"130 SUMMER STREET, WESTON, MA, 2493","Match","Exact","130 SUMMER ST, WESTON, MA, 02493",87104312,"L"
137760,"130 SUNNYSLOPE RD","PETALUMA","CA",94952,38.22153124,-122.640571918,260,"130 SUNNYSLOPE RD, PETALUMA, CA, 94952","Match","Exact","130 SUNNYSLOPE RD, PETALUMA, CA, 94952",67488777,"R"
137761,"130 SUNSET BLUFFS DRIVE","FUQUAY VARINA","NC",27526,35.6285018020001,-78.7998616959999,261,"130 SUNSET BLUFFS DRIVE, FUQUAY VARINA, NC, 27526","Match","Exact","130 SUNSET BLUFFS DR, FUQUAY VARINA, NC, 27526",647025620,"R"
137762,"130 SUNSET BLULFFS DRIVE","FUQUAY VARINA","NC",27526,35.6285018020001,-78.7998616959999,262,"130 SUNSET BLULFFS DRIVE, FUQUAY VARINA, NC, 27526","Match","Non_Exact","130 SUNSET BLUFFS DR, FUQUAY VARINA, NC, 27526",647025620,"R"
137763,"130 SUNSET DRIVE","KARTHAUS","PA",16845,41.085557056,-78.06078826,263,"130 SUNSET DRIVE, KARTHAUS, PA, 16845","Match","Exact","130 SUNSET DR, KARTHAUS, PA, 16845",50376258,"R"
137764,"130 SUNSET LN","TENAFLY","NJ",7670,40.930350322,-73.973875151,264,"130 SUNSET LN, TENAFLY, NJ, 7670","Match","Exact","130 SUNSET LN, TENAFLY, NJ, 07670",64374022,"L"
137765,"130 SURF CT APT 223","HOUSTON","TX",77058,NA,NA,265,"130 SURF CT APT 223, HOUSTON, TX, 77058","No_Match",NA,NA,NA,NA
137766,"130 SUSAN WAY","MACON","GA",31216,32.730076721,-83.6956199319999,266,"130 SUSAN WAY, MACON, GA, 31216","Match","Exact","130 SUSAN WAY, MACON, GA, 31216",650755836,"R"
137767,"130 SUSSEX STREET 1B","JERSEY CITY","NJ",7302,40.7148264690001,-74.039691021,267,"130 SUSSEX STREET 1B, JERSEY CITY, NJ, 7302","Match","Exact","130 SUSSEX ST, JERSEY CITY, NJ, 07302",59606387,"R"
137768,"130 SUTHERLAND ROAD APT 3","BRIGHTON","MA",2135,42.340519284,-71.147683778,268,"130 SUTHERLAND ROAD APT 3, BRIGHTON, MA, 2135","Match","Exact","130 SUTHERLAND RD, BRIGHTON, MA, 02135",85696038,"L"
137769,"130 SUTTONS BRANCH DRIVE","MCGRADY","NC",28649,36.286332471,-81.1998156609999,269,"130 SUTTONS BRANCH DRIVE, MCGRADY, NC, 28649","Match","Non_Exact","130 SUTTONS BRANCH DR, MC GRADY, NC, 28649",637652791,"R"
137770,"130 SYCAMORE LANE","KENNEBUNK","ME",4043,NA,NA,270,"130 SYCAMORE LANE, KENNEBUNK, ME, 4043","No_Match",NA,NA,NA,NA
137771,"130 SYLVAN WAY","ZEBULON","NC",27597,35.901860942,-78.301830442,271,"130 SYLVAN WAY, ZEBULON, NC, 27597","Match","Exact","130 SYLVAN WAY, ZEBULON, NC, 27597",90243693,"R"
137772,"130 TALAVERA PKWY 1032","SAN ANTONIO","TX",78232,29.6050987690001,-98.507739798,272,"130 TALAVERA PKWY 1032, SAN ANTONIO, TX, 78232","Match","Exact","130 TALAVERA PKWY, SAN ANTONIO, TX, 78232",101576415,"R"
137773,"130 TALAVERA PKWY APT 1433","SAN ANTONIO","TX",78232,29.6050987690001,-98.507739798,273,"130 TALAVERA PKWY APT 1433, SAN ANTONIO, TX, 78232","Match","Exact","130 TALAVERA PKWY, SAN ANTONIO, TX, 78232",101576415,"R"
137774,"130 TALAVERA PKWY APT 434","SAN ANTONIO","TX",78232,29.6050987690001,-98.507739798,274,"130 TALAVERA PKWY APT 434, SAN ANTONIO, TX, 78232","Match","Exact","130 TALAVERA PKWY, SAN ANTONIO, TX, 78232",101576415,"R"
137775,"130 TALAVERA PKWY APT 532","SAN ANTONIO","TX",78232,29.6050987690001,-98.507739798,275,"130 TALAVERA PKWY APT 532, SAN ANTONIO, TX, 78232","Match","Exact","130 TALAVERA PKWY, SAN ANTONIO, TX, 78232",101576415,"R"
137776,"130 TALON LANE","WESTVILLE","NJ",8083,NA,NA,276,"130 TALON LANE, WESTVILLE, NJ, 8083","No_Match",NA,NA,NA,NA
137777,"130 TAMMEN DRIVE APT 1","BLUE RIDGE","GA",30513,34.8827606880001,-84.2909356339999,277,"130 TAMMEN DRIVE APT 1, BLUE RIDGE, GA, 30513","Match","Exact","130 TAMMEN DR, BLUE RIDGE, GA, 30513",632867133,"R"
137778,"130 TANGLEWOOD DRIVE","OAKLAND","MD",21550,39.4187496340001,-79.439491418,278,"130 TANGLEWOOD DRIVE, OAKLAND, MD, 21550","Match","Non_Exact","130 TANGLEWOOD RD, OAKLAND, MD, 21550",653244524,"R"
137779,"130 TAYLORS TRAIL","ANDERSON","SC",29621,34.546894138,-82.614221352,279,"130 TAYLORS TRAIL, ANDERSON, SC, 29621","Match","Exact","130 TAYLORS TRL, ANDERSON, SC, 29621",25496671,"R"
137780,"130 TEDDER LANE","MANY","LA",71449,31.627455748,-93.467582796,280,"130 TEDDER LANE, MANY, LA, 71449","Match","Exact","130 TEDDER LN, MANY, LA, 71449",610656061,"R"
137781,"130 TERRELL RD U-4","SAN ANTONIO","TX",78209,29.471302597,-98.462056259,281,"130 TERRELL RD U-4, SAN ANTONIO, TX, 78209","Match","Exact","130 TERRELL RD, SAN ANTONIO, TX, 78209",101524772,"R"
137782,"130 THAMES ST","NEW LONDON","CT",6320,41.3315627430001,-72.102004671,282,"130 THAMES ST, NEW LONDON, CT, 6320","Match","Exact","130 THAMES ST, NEW LONDON, CT, 06320",56851410,"L"
137783,"130 THEODORE FREMD AVE APT 4B","RYE","NY",10580,40.981115258,-73.689050446,283,"130 THEODORE FREMD AVE APT 4B, RYE, NY, 10580","Match","Exact","130 THEODORE FREMD AVE, RYE, NY, 10580",139756733,"R"
137784,"130 THIRD STREET","HANOVER","PA",17331,39.804509082,-76.991234412,284,"130 THIRD STREET, HANOVER, PA, 17331","Match","Exact","130 3RD ST, HANOVER, PA, 17331",611427733,"L"
137785,"130 THORNHILL CIRCLE","DOUBLE OAK","TX",75077,33.062379461,-97.129967445,285,"130 THORNHILL CIRCLE, DOUBLE OAK, TX, 75077","Match","Exact","130 THORNHILL CIR, DOUBLE OAK, TX, 75077",218063809,"R"
137786,"130 THORNTON DR","FAYETTEILLE","GA",30214,33.508229988,-84.4606427479999,286,"130 THORNTON DR, FAYETTEILLE, GA, 30214","Match","Non_Exact","130 THORNTON DR, FAYETTEVILLE, GA, 30214",644923225,"L"
137787,"130 THORNTON DRIVE","HARRIMAN","TN",37748,35.9745428640001,-84.481746809,287,"130 THORNTON DRIVE, HARRIMAN, TN, 37748","Match","Exact","130 THORNTON DR, HARRIMAN, TN, 37748",88609593,"R"
137788,"130 THRONBROOK CT","GREENWOOD","SC",29646,34.1873646760001,-82.185200586,288,"130 THRONBROOK CT, GREENWOOD, SC, 29646","Match","Non_Exact","130 THORNBROOK CT, GREENWOOD, SC, 29646",50816652,"L"
137789,"130 TIGER DR","FLORENCE","MS",39073,32.1419890060001,-90.022513779,289,"130 TIGER DR, FLORENCE, MS, 39073","Match","Exact","130 TIGER DR, FLORENCE, MS, 39073",116921411,"L"
137790,"130 TIGER DRIVE","FLORENCE","MS",39073,32.1419890060001,-90.022513779,290,"130 TIGER DRIVE, FLORENCE, MS, 39073","Match","Exact","130 TIGER DR, FLORENCE, MS, 39073",116921411,"L"
137791,"130 TITLOW AVE","OAK HILL","WV",25901,37.9808026210001,-81.147284998,291,"130 TITLOW AVE, OAK HILL, WV, 25901","Match","Exact","130 TITLOW AVE, OAK HILL, WV, 25901",75080161,"L"
137792,"130 TOMLINSON MILL RD","MARLTON","NJ",8053,39.8716562590001,-74.89536987,292,"130 TOMLINSON MILL RD, MARLTON, NJ, 8053","Match","Exact","130 TOMLINSON MILL RD, MARLTON, NJ, 08053",134064260,"R"
137793,"130 TORSEY SHORES RD","READFIELD","ME",4355,44.4063946850001,-69.985655703,293,"130 TORSEY SHORES RD, READFIELD, ME, 4355","Match","Exact","130 TORSEY SHORES RD, READFIELD, ME, 04355",75471596,"L"
137794,"130 TOWN CENTER BLVD","COPPELL","TX",75019,32.9746849210001,-96.992305948,294,"130 TOWN CENTER BLVD, COPPELL, TX, 75019","Match","Exact","130 TOWN CENTER BLVD, COPPELL, TX, 75019",638492880,"L"
137795,"130 TRIPP ROAD","ELLINGTON","CT",6029,41.8850812860001,-72.510261887,295,"130 TRIPP ROAD, ELLINGTON, CT, 6029","Match","Exact","130 TRIPP RD, ELLINGTON, CT, 06029",636086359,"L"
137796,"130 TRUMBULL STREET","ELIZABETH","NJ",7206,40.6550474900001,-74.1780221179999,296,"130 TRUMBULL STREET, ELIZABETH, NJ, 7206","Match","Exact","130 TRUMBULL ST, ELIZABETH, NJ, 07206",60579605,"L"
137797,"130 TUBBS LANE","HURT","VA",24563,37.0829203490001,-79.314272086,297,"130 TUBBS LANE, HURT, VA, 24563","Match","Exact","130 TUBBS LN, HURT, VA, 24563",56637421,"R"
137798,"130 TULIP TREE TRACE","ROSWELL","GA",30075,34.0716141020001,-84.381028538,298,"130 TULIP TREE TRACE, ROSWELL, GA, 30075","Match","Non_Exact","130 TULIP TREE LN, ROSWELL, GA, 30075",17331855,"L"
137799,"130 TUSK CT","WEATHERFORD","TX",76085,32.8935149860001,-97.621404012,299,"130 TUSK CT, WEATHERFORD, TX, 76085","Match","Exact","130 TUSK CT, WEATHERFORD, TX, 76085",103589796,"R"
137800,"130 ULRICH CT","HUMMELSTOWN","PA",17036,40.3390977510001,-76.689241634,300,"130 ULRICH CT, HUMMELSTOWN, PA, 17036","Match","Exact","130 ULRICH CT, HUMMELSTOWN, PA, 17036",70844177,"R"
137801,"130 UPPER STUMP RD","CHALFONT","PA",18914,40.3144962600001,-75.22191358,301,"130 UPPER STUMP RD, CHALFONT, PA, 18914","Match","Exact","130 UPPER STUMP RD, CHALFONT, PA, 18914",134785744,"R"
137802,"130 URLICH COURT","HUMMELSTOWN","PA",17036,NA,NA,302,"130 URLICH COURT, HUMMELSTOWN, PA, 17036","No_Match",NA,NA,NA,NA
137803,"130 URLICH CT","HUMMELSTOWN","PA",17036,NA,NA,303,"130 URLICH CT, HUMMELSTOWN, PA, 17036","No_Match",NA,NA,NA,NA
137804,"130 VALE LANE","CLINTON","TN",37716,NA,NA,304,"130 VALE LANE, CLINTON, TN, 37716","No_Match",NA,NA,NA,NA
137805,"130 VALLEY VIEW TERRACE","RICHMONDALE","PA",18412,41.631401286,-75.483895205,305,"130 VALLEY VIEW TERRACE, RICHMONDALE, PA, 18412","Match","Non_Exact","130 VALLEY VIEW TER, RICHMONDALE, PA, 18421",139348539,"R"
137806,"130 VANDALIA AVENUE - 19F","BROOKLYN","NY",11239,40.6509341300001,-73.884397054,306,"130 VANDALIA AVENUE - 19F, BROOKLYN, NY, 11239","Match","Exact","130 VANDALIA AVE, BROOKLYN, NY, 11239",650063704,"R"
137807,"130 VANDALIA AVENUE","BROOKLYN","NY",11239,40.6509341300001,-73.884397054,307,"130 VANDALIA AVENUE, BROOKLYN, NY, 11239","Match","Exact","130 VANDALIA AVE, BROOKLYN, NY, 11239",650063704,"R"
137808,"130 VARIAH","PALESTINE","TX",75801,31.7494044160001,-95.649217893,308,"130 VARIAH, PALESTINE, TX, 75801","Match","Non_Exact","130 VARIAH ST, PALESTINE, TX, 75801",74683205,"R"
137809,"130 VAUGHN ST","THROOP","PA",18512,NA,NA,309,"130 VAUGHN ST, THROOP, PA, 18512","No_Match",NA,NA,NA,NA
137810,"130 VETERANS ST","MAYNARDVILLE","TN",37807,36.2473761040001,-83.808342179,310,"130 VETERANS ST, MAYNARDVILLE, TN, 37807","Match","Exact","130 VETERAN ST, MAYNARDVILLE, TN, 37807",42745071,"L"
137811,"130 VICTORIA PLACE","FAYETTEVILLE","GA",30214,33.4715880210001,-84.474863348,311,"130 VICTORIA PLACE, FAYETTEVILLE, GA, 30214","Match","Exact","130 VICTORIA PL, FAYETTEVILLE, GA, 30214",75930259,"R"
137812,"130 VICTORY STREET","BRIDGEPORT","CT",6606,41.2172615270001,-73.208644998,312,"130 VICTORY STREET, BRIDGEPORT, CT, 6606","Match","Exact","130 VICTORY ST, BRIDGEPORT, CT, 06606",3222210,"R"
137813,"130 VILLA DI ESTE TER UNIT 204","LAKE MARY","FL",32746,28.7540158460001,-81.3674038029999,313,"130 VILLA DI ESTE TER UNIT 204, LAKE MARY, FL, 32746","Match","Exact","130 VILLA DI ESTE TER, LAKE MARY, FL, 32746",641072492,"R"
137814,"130 VILLAGE GREEN CIRCLE","TYRONE","GA",30290,33.488651927,-84.590520171,314,"130 VILLAGE GREEN CIRCLE, TYRONE, GA, 30290","Match","Exact","130 VILLAGE GREEN CIR, TYRONE, GA, 30290",635758019,"R"
137815,"130 VIOLA WAY","PENDLETON","SC",29670,34.617805908,-82.7508104739999,315,"130 VIOLA WAY, PENDLETON, SC, 29670","Match","Exact","130 VIOLA WAY, PENDLETON, SC, 29670",634517180,"R"
137816,"130 VIRGINIA RD  STE D","WHITE PLAIND","NY",10603,41.065513589,-73.779109889,316,"130 VIRGINIA RD  STE D, WHITE PLAIND, NY, 10603","Match","Non_Exact","130 VIRGINIA RD, WHITE PLAINS, NY, 10603",139736227,"L"
137817,"130 VIRGINIA RD APT D","WHITE PLAINS","NY",10603,41.065513589,-73.779109889,317,"130 VIRGINIA RD APT D, WHITE PLAINS, NY, 10603","Match","Exact","130 VIRGINIA RD, WHITE PLAINS, NY, 10603",139736227,"L"
137818,"130 VIRGINIA STREET","OAK HILL","WV",25901,37.977857644,-81.1507262869999,318,"130 VIRGINIA STREET, OAK HILL, WV, 25901","Match","Exact","130 VIRGINIA ST, OAK HILL, WV, 25901",75086488,"R"
137819,"130 W 113TH STREET","NEW YORK","NY",10026,40.800730576,-73.952625124,319,"130 W 113TH STREET, NEW YORK, NY, 10026","Match","Exact","130 W 113TH ST, NEW YORK, NY, 10026",59657694,"L"
137820,"130 W 26TH STREET APT 5","NEW YORK","NY",10001,40.745209528,-73.9923942249999,320,"130 W 26TH STREET APT 5, NEW YORK, NY, 10001","Match","Non_Exact","130 W 26TH ST, NEW YORK, NY, 10001",59653389,"L"
137821,"130 W 44TH STREET","MINNEAPOLIS","MN",55409,44.9232302680001,-93.280780034,321,"130 W 44TH STREET, MINNEAPOLIS, MN, 55409","Match","Exact","130 W 44TH ST, MINNEAPOLIS, MN, 55409",43634073,"R"
137822,"130 W BROAD STREET","CENTRAL CITY","KY",42330,37.2931257880001,-87.124885607,322,"130 W BROAD STREET, CENTRAL CITY, KY, 42330","Match","Exact","130 W BROAD ST, CENTRAL CITY, KY, 42330",206973603,"R"
137823,"130 W CANNON","PALOUSE","WA",99161,46.9138116770001,-117.077674739,323,"130 W CANNON, PALOUSE, WA, 99161","Match","Non_Exact","130 W CANNON ST, PALOUSE, WA, 99161",173288269,"L"
137824,"130 W CEDAR AVENUE","DENVER","CO",80206,39.713012748,-104.990483341,324,"130 W CEDAR AVENUE, DENVER, CO, 80206","Match","Non_Exact","130 W CEDAR AVE, DENVER, CO, 80223",177330854,"L"
137825,"130 W CELESTE AVENUE","FRESNO","CA",93704,36.8210805080001,-119.793408156,325,"130 W CELESTE AVENUE, FRESNO, CA, 93704","Match","Exact","130 W CELESTE AVE, FRESNO, CA, 93704",197572705,"R"
137826,"130 W CONGRESS - 11TH FLOOR","TUCSON","AZ",85701,NA,NA,326,"130 W CONGRESS - 11TH FLOOR, TUCSON, AZ, 85701","No_Match",NA,NA,NA,NA
137827,"130 W CRESTA BEND PLACE","SPRING","TX",77389,30.1488554050001,-95.538854301,327,"130 W CRESTA BEND PLACE, SPRING, TX, 77389","Match","Non_Exact","130 W CRESTA BEND, SPRING, TX, 77389",641636984,"L"
137828,"130 W ELM CREST","WOODLANDS","TX",77382,30.1985636470001,-95.486491542,328,"130 W ELM CREST, WOODLANDS, TX, 77382","Match","Non_Exact","130 W ELM CRES, THE WOODLANDS, TX, 77382",79317144,"L"
137829,"130 W EXCHANGE ST","AKRON","OH",44302,41.078559231,-81.5271971289999,329,"130 W EXCHANGE ST, AKRON, OH, 44302","Match","Exact","130 W EXCHANGE ST, AKRON, OH, 44302",61341255,"L"
137830,"130 W FIRST ST","SPRINGFIELD","GA",31329,32.3635671490001,-81.316690351,330,"130 W FIRST ST, SPRINGFIELD, GA, 31329","Match","Exact","130 W 1ST ST, SPRINGFIELD, GA, 31329",638960319,"L"
137831,"130 W FRANKLIN AVE NUMBER 1046","NEENAH","WI",54956,NA,NA,331,"130 W FRANKLIN AVE NUMBER 1046, NEENAH, WI, 54956","Tie",NA,NA,NA,NA
137832,"130 W GUADALUPE RD APT 2012","GILBERT","AZ",85233,33.3664165050001,-111.792591938,332,"130 W GUADALUPE RD APT 2012, GILBERT, AZ, 85233","Match","Non_Exact","130 W GUADALUPE RD, GILBERT, AZ, 85233",636304974,"R"
137833,"130 W GUADALUPE RD APT 2031","GILBERT","AZ",85233,33.3664165050001,-111.792591938,333,"130 W GUADALUPE RD APT 2031, GILBERT, AZ, 85233","Match","Non_Exact","130 W GUADALUPE RD, GILBERT, AZ, 85233",636304974,"R"
137834,"130 W ITHICA PL","BROKEN ARROW","OK",74012,36.0204214710001,-95.791410882,334,"130 W ITHICA PL, BROKEN ARROW, OK, 74012","Match","Exact","130 W ITHICA PL, BROKEN ARROW, OK, 74012",166465345,"L"
137835,"130 W KEKLICO STREET","GOOSE CREEK","SC",29445,32.9617472580001,-79.9381444759999,335,"130 W KEKLICO STREET, GOOSE CREEK, SC, 29445","Match","Non_Exact","130 W KEKLICO CT, GOOSE CREEK, SC, 29445",100748008,"R"
137836,"130 W KING ST","DALTON","GA",30720,34.7724256390001,-84.967953349,336,"130 W KING ST, DALTON, GA, 30720","Match","Exact","130 W KING ST, DALTON, GA, 30720",57365727,"R"
137837,"130 W KINGSBRIDGE ROAD","BRONX","NY",10468,40.8691986540001,-73.9031445259999,337,"130 W KINGSBRIDGE ROAD, BRONX, NY, 10468","Match","Exact","130 W KINGSBRIDGE RD, BRONX, NY, 10468",80298586,"L"
137838,"130 W LANDSDOWNE CIR","THE WOODLANDS","TX",77382,NA,NA,338,"130 W LANDSDOWNE CIR, THE WOODLANDS, TX, 77382","No_Match",NA,NA,NA,NA
137839,"130 W LOWELL AVE","TRACY","CA",95376,37.7478187840001,-121.427054766,339,"130 W LOWELL AVE, TRACY, CA, 95376","Match","Exact","130 W LOWELL AVE, TRACY, CA, 95376",133853943,"L"
137840,"130 W MADRID AVE","LAS CRUCES","NM",88005,32.327568001,-106.784341152,340,"130 W MADRID AVE, LAS CRUCES, NM, 88005","Match","Exact","130 W MADRID AVE, LAS CRUCES, NM, 88005",612721674,"R"
137841,"130 W MAIN ST","MESA","AZ",85201,33.41511977,-111.834967342,341,"130 W MAIN ST, MESA, AZ, 85201","Match","Exact","130 W MAIN ST, MESA, AZ, 85201",128234966,"R"
137842,"130 W MOUNTAIN ST APT 303","GLENDALE","CA",91202,34.1667379260001,-118.255728158,342,"130 W MOUNTAIN ST APT 303, GLENDALE, CA, 91202","Match","Non_Exact","130 W MOUNTAIN ST, GLENDALE, CA, 91202",141608664,"L"
137843,"130 W PENNSYLVANIA AVE","DELAND","FL",32720,29.0390553070001,-81.305181542,343,"130 W PENNSYLVANIA AVE, DELAND, FL, 32720","Match","Exact","130 W PENNSYLVANIA AVE, DELAND, FL, 32720",94510219,"L"
137844,"130 W PINE AVE","LONGWOOD","FL",32750,28.6987102780001,-81.3480209429999,344,"130 W PINE AVE, LONGWOOD, FL, 32750","Match","Exact","130 W PINE AVE, LONGWOOD, FL, 32750",93737972,"L"
137845,"130 W PORTLAND STREET APT 11","MECHANICSBURG","PA",17055,NA,NA,345,"130 W PORTLAND STREET APT 11, MECHANICSBURG, PA, 17055","Tie",NA,NA,NA,NA
137846,"130 W SECOND ST 10TH FL SUITE 100","DAYTON","OH",45402,NA,NA,346,"130 W SECOND ST 10TH FL SUITE 100, DAYTON, OH, 45402","Tie",NA,NA,NA,NA
137847,"130 W SECOND ST STE 1000 101","DAYTON","OH",45402,NA,NA,347,"130 W SECOND ST STE 1000 101, DAYTON, OH, 45402","Tie",NA,NA,NA,NA
137848,"130 W SECOND STREET","DAYTON","OH",45402,39.760588908,-84.194568663,348,"130 W SECOND STREET, DAYTON, OH, 45402","Match","Exact","130 W 2ND ST, DAYTON, OH, 45402",143571344,"L"
137849,"130 W SOUTH STREET","AKRON","OH",44311,41.061673867,-81.532300365,349,"130 W SOUTH STREET, AKRON, OH, 44311","Match","Exact","130 W SOUTH ST, AKRON, OH, 44311",61344645,"L"
137850,"130 W STOCKBRIDGE LANDING CIR","SPRING","TX",77382,30.2235388300001,-95.516274843,350,"130 W STOCKBRIDGE LANDING CIR, SPRING, TX, 77382","Match","Exact","130 W STOCKBRIDGE LANDING CIR, SPRING, TX, 77382",79310684,"R"
137851,"130 W TONTO DR","CHANDLER","AZ",85248,33.2411748280001,-111.84398026,351,"130 W TONTO DR, CHANDLER, AZ, 85248","Match","Exact","130 W TONTO DR, CHANDLER, AZ, 85248",625686419,"L"
137852,"130 W WALNUT AVENUE SUITE A1","PERRIS","CA",92571,33.826583241,-117.228922321,352,"130 W WALNUT AVENUE SUITE A1, PERRIS, CA, 92571","Match","Exact","130 WALNUT AVE, PERRIS, CA, 92571",194873518,"L"
137853,"130 W WALNUT LANE","PHILADELPHIA","PA",19144,40.038551039,-75.180637627,353,"130 W WALNUT LANE, PHILADELPHIA, PA, 19144","Match","Exact","130 W WALNUT LN, PHILADELPHIA, PA, 19144",131395523,"L"
137854,"130 W WALNUT STREET","SOUTHGATE","KY",41071,39.069777392,-84.475417568,354,"130 W WALNUT STREET, SOUTHGATE, KY, 41071","Match","Exact","130 W WALNUT ST, SOUTHGATE, KY, 41071",647707748,"R"
137855,"130 W WISCONSIN AVE","OCONOMOWOC","WI",53066,43.1116231120001,-88.5005444929999,355,"130 W WISCONSIN AVE, OCONOMOWOC, WI, 53066","Match","Exact","130 W WISCONSIN AVE, OCONOMOWOC, WI, 53066",53805061,"L"
137856,"130 WADES WAY","MOORESVILLE","NC",28117,35.5340941950001,-80.863779289,356,"130 WADES WAY, MOORESVILLE, NC, 28117","Match","Exact","130 WADES WAY, MOORESVILLE, NC, 28117",648753314,"R"
137857,"130 WAKEFIELD STREET","ROCHESTER","NH",3867,43.3124544410001,-70.977477375,357,"130 WAKEFIELD STREET, ROCHESTER, NH, 3867","Match","Exact","130 WAKEFIELD ST, ROCHESTER, NH, 03867",627244897,"L"
137858,"130 WALKERS CREED RD","ROCKBRIDGE BATHS","VA",24473,NA,NA,358,"130 WALKERS CREED RD, ROCKBRIDGE BATHS, VA, 24473","No_Match",NA,NA,NA,NA
137859,"130 WALLACES GRANT DRIVE","MOORESVILLE","NC",28115,35.6290545950001,-80.7811377579999,359,"130 WALLACES GRANT DRIVE, MOORESVILLE, NC, 28115","Match","Exact","130 WALLACES GRANT DR, MOORESVILLE, NC, 28115",646475267,"R"
137860,"130 WALNUT ST","WESTFIELD","PA",16950,41.920540703,-77.533047957,360,"130 WALNUT ST, WESTFIELD, PA, 16950","Match","Exact","130 WALNUT ST, WESTFIELD, PA, 16950",189654869,"L"
137861,"130 WALNUT STREET","HOUSTON","PA",15342,40.233332327,-80.2198481409999,361,"130 WALNUT STREET, HOUSTON, PA, 15342","Match","Exact","130 WALNUT ST, HOUSTON, PA, 15342",52803949,"R"
137862,"130 WALTON TRACE SOUTH","HENDERSONVILLE","TN",37075,36.2652185430001,-86.624190379,362,"130 WALTON TRACE SOUTH, HENDERSONVILLE, TN, 37075","Match","Exact","130 WALTON TRCE S, HENDERSONVILLE, TN, 37075",29790486,"R"
137863,"130 WARNECKER DRIVE","CLYDE","OH",43410,NA,NA,363,"130 WARNECKER DRIVE, CLYDE, OH, 43410","No_Match",NA,NA,NA,NA
137864,"130 WARRIOR LANE","WESTMINSTER","SC",29693,34.6210668910001,-83.0510423119999,364,"130 WARRIOR LANE, WESTMINSTER, SC, 29693","Match","Exact","130 WARRIOR LN, WESTMINSTER, SC, 29693",25661824,"R"
137865,"130 WASHINGTON AVE","ROCHESTER","NY",14617,43.2372659580001,-77.5963442949999,365,"130 WASHINGTON AVE, ROCHESTER, NY, 14617","Match","Exact","130 WASHINGTON AVE, ROCHESTER, NY, 14617",14535790,"R"
137866,"130 WASHINGTON ROAD","SPRINGFIELD","MA",1108,42.081021154,-72.569017505,366,"130 WASHINGTON ROAD, SPRINGFIELD, MA, 1108","Match","Exact","130 WASHINGTON RD, SPRINGFIELD, MA, 01108",4038192,"R"
137867,"130 WASHINGTON ST APT B","WOODSTOCK","IL",60098,NA,NA,367,"130 WASHINGTON ST APT B, WOODSTOCK, IL, 60098","No_Match",NA,NA,NA,NA
137868,"130 WASHINGTON STREET","LOCUST GROVE","VA",22508,38.34029357,-77.766991428,368,"130 WASHINGTON STREET, LOCUST GROVE, VA, 22508","Match","Exact","130 WASHINGTON ST, LOCUST GROVE, VA, 22508",29880867,"L"
137869,"130 WATER STREET 2B","NEW YORK","NY",10005,40.7054833880001,-74.006976948,369,"130 WATER STREET 2B, NEW YORK, NY, 10005","Match","Exact","130 WATER ST, NEW YORK, NY, 10005",59660512,"L"
137870,"130 WATER STREET 3C","NEW YORK","NY",10005,40.7054833880001,-74.006976948,370,"130 WATER STREET 3C, NEW YORK, NY, 10005","Match","Exact","130 WATER ST, NEW YORK, NY, 10005",59660512,"L"
137871,"130 WATER STREET","NEW YORK","NY",10005,40.7054833880001,-74.006976948,371,"130 WATER STREET, NEW YORK, NY, 10005","Match","Exact","130 WATER ST, NEW YORK, NY, 10005",59660512,"L"
137872,"130 WATERLILY ROAD","COINJOCK","NC",27923,36.3363864890001,-75.947720112,372,"130 WATERLILY ROAD, COINJOCK, NC, 27923","Match","Exact","130 WATERLILY RD, COINJOCK, NC, 27923",638656962,"L"
137873,"130 WATKINS ST","BROOKLYN","NY",11212,40.66992781,-73.907929339,373,"130 WATKINS ST, BROOKLYN, NY, 11212","Match","Exact","130 WATKINS ST, BROOKLYN, NY, 11212",59083934,"R"
137874,"130 WATSON DR","DOVER","NJ",7801,40.8797511540001,-74.546937051,374,"130 WATSON DR, DOVER, NJ, 7801","Match","Exact","130 WATSON DR, DOVER, NJ, 07801",60439010,"L"
137875,"130 WAYSIDE DRIVE","GRAMBLING","LA",71245,32.534284025,-92.7093548509999,375,"130 WAYSIDE DRIVE, GRAMBLING, LA, 71245","Match","Exact","130 WAYSIDE DR, GRAMBLING, LA, 71245",164092138,"L"
137876,"130 WEATHERIDGE DR","JACKSON","TN",38305,35.6942420070001,-88.8637174249999,376,"130 WEATHERIDGE DR, JACKSON, TN, 38305","Match","Exact","130 WEATHERIDGE DR, JACKSON, TN, 38305",21324854,"R"
137877,"130 WEBSTER LANE","VANCEBORO","NC",28586,35.2752566880001,-77.1560339609999,377,"130 WEBSTER LANE, VANCEBORO, NC, 28586","Match","Exact","130 WEBSTER LN, VANCEBORO, NC, 28586",635521595,"R"
137878,"130 WEDGEWOOD RD","NEWARK","DE",19711,39.702535471,-75.786911974,378,"130 WEDGEWOOD RD, NEWARK, DE, 19711","Match","Exact","130 WEDGEWOOD RD, NEWARK, DE, 19711",187290894,"R"
137879,"130 WENDY ACRES","LONGVIEW","TX",75602,32.4905277840001,-94.631415756,379,"130 WENDY ACRES, LONGVIEW, TX, 75602","Match","Non_Exact","130 WENDY ACRES AVE, LONGVIEW, TX, 75602",629582726,"L"
137880,"130 WESCOTT COURT","AUBURN","CA",95603,38.896648482,-121.064179885,380,"130 WESCOTT COURT, AUBURN, CA, 95603","Match","Exact","130 WESCOTT CT, AUBURN, CA, 95603",106772410,"L"
137881,"130 WEST 121ST STREET","NEW YORK","NY",10027,40.805613957,-73.9483129779999,381,"130 WEST 121ST STREET, NEW YORK, NY, 10027","Match","Exact","130 W 121ST ST, NEW YORK, NY, 10027",59657726,"L"
137882,"130 WEST 19TH ST - TOWNHOUSE E","NEW YORK","NY",10011,40.7408441740001,-73.995553328,382,"130 WEST 19TH ST - TOWNHOUSE E, NEW YORK, NY, 10011","Match","Exact","130 W 19TH ST, NEW YORK, NY, 10011",59653325,"L"
137883,"130 WEST 19TH ST APT 10B","NEW YORK","NY",10011,40.7408441740001,-73.995553328,383,"130 WEST 19TH ST APT 10B, NEW YORK, NY, 10011","Match","Exact","130 W 19TH ST, NEW YORK, NY, 10011",59653325,"L"
137884,"130 WEST 3RD AVENUE","BUENA VISTA","GA",31803,32.320322979,-84.5205617249999,384,"130 WEST 3RD AVENUE, BUENA VISTA, GA, 31803","Match","Exact","130 W 3RD AVE, BUENA VISTA, GA, 31803",634788907,"R"
137885,"130 WEST 3RD ST APT 4","NEW YORK","NY",10012,40.730571969,-74.000411189,385,"130 WEST 3RD ST APT 4, NEW YORK, NY, 10012","Match","Exact","130 W 3RD ST, NEW YORK, NY, 10012",59660026,"L"
137886,"130 WEST 3RD STREET","DOVER","OH",44622,40.5218322210001,-81.477281709,386,"130 WEST 3RD STREET, DOVER, OH, 44622","Match","Exact","130 W 3RD ST, DOVER, OH, 44622",44246723,"R"
137887,"130 WEST 42ND STREET SUITE 401","NEW YORK","NY",10036,40.7551634490001,-73.984887764,387,"130 WEST 42ND STREET SUITE 401, NEW YORK, NY, 10036","Match","Exact","130 W 42ND ST, NEW YORK, NY, 10036",59655316,"L"
137888,"130 WEST 79TH STREET APT 19B","NEW YORK","NY",10024,40.7822938950001,-73.9763005189999,388,"130 WEST 79TH STREET APT 19B, NEW YORK, NY, 10024","Match","Exact","130 W 79TH ST, NEW YORK, NY, 10024",650073091,"L"
137889,"130 WEST 86TH ST 16B","NEW YORK","NY",10024,40.786889323,-73.973134429,389,"130 WEST 86TH ST 16B, NEW YORK, NY, 10024","Match","Exact","130 W 86TH ST, NEW YORK, NY, 10024",59656716,"L"
137890,"130 WEST MAIN ST","SHORTSVILLE","NY",14548,42.9546851920001,-77.232399008,390,"130 WEST MAIN ST, SHORTSVILLE, NY, 14548","Match","Exact","130 W MAIN ST, SHORTSVILLE, NY, 14548",13473845,"L"
137891,"130 WEST MAIN STREET","MARION","KS",66861,38.348267132,-97.022642616,391,"130 WEST MAIN STREET, MARION, KS, 66861","Match","Exact","130 W MAIN ST, MARION, KS, 66861",120705705,"R"
137892,"130 WEST MINISTER DR","VERONA","PA",15147,40.4730763850001,-79.865672784,392,"130 WEST MINISTER DR, VERONA, PA, 15147","Match","Non_Exact","130 WESTMINSTER DR, VERONA, PA, 15147",51666367,"L"
137893,"130 WEST MONTGOMERY STREET APT D","VILLA RICA","GA",30180,33.72931135,-84.916207828,393,"130 WEST MONTGOMERY STREET APT D, VILLA RICA, GA, 30180","Match","Non_Exact","130 E MONTGOMERY ST, VILLA RICA, GA, 30180",17116152,"L"
137894,"130 WEST SECOND ST SUITE 1000-106","DAYTON","OH",45402,39.760590173,-84.1945598739999,394,"130 WEST SECOND ST SUITE 1000-106, DAYTON, OH, 45402","Match","Exact","130 W 2ND ST, DAYTON, OH, 45402",143571344,"L"
137895,"130 WEST WALKER DRIVE","ROGERS","AR",72756,NA,NA,395,"130 WEST WALKER DRIVE, ROGERS, AR, 72756","No_Match",NA,NA,NA,NA
137896,"130 WESTMINSTER DRIVE","VERONA","PA",15147,40.4730763850001,-79.865672784,396,"130 WESTMINSTER DRIVE, VERONA, PA, 15147","Match","Exact","130 WESTMINSTER DR, VERONA, PA, 15147",51666367,"L"
137897,"130 WHEELER ROAD","NEWTON","MA",2459,42.310780515,-71.19471077,397,"130 WHEELER ROAD, NEWTON, MA, 2459","Match","Exact","130 WHEELER RD, NEWTON, MA, 02459",86866498,"L"
137898,"130 WHIPPOORWILL DRIVE","ROMNEY","WV",26757,39.339499565,-78.7552045259999,398,"130 WHIPPOORWILL DRIVE, ROMNEY, WV, 26757","Match","Exact","130 WHIPPOORWILL DR, ROMNEY, WV, 26757",245410030,"R"
137899,"130 WHISPERING PINES DRIVE","WAYNESVILLE","NC",28786,35.4885731700001,-83.0209571569999,399,"130 WHISPERING PINES DRIVE, WAYNESVILLE, NC, 28786","Match","Exact","130 WHISPERING PINES DR, WAYNESVILLE, NC, 28786",151837425,"R"
137900,"130 WHITE OAK DR","MANSFIELD","LA",71052,32.074744523,-93.6939689879999,400,"130 WHITE OAK DR, MANSFIELD, LA, 71052","Match","Exact","130 WHITE OAK DR, MANSFIELD, LA, 71052",67642674,"R"
137901,"130 WILD HORSE LOOP","RANCHO SANTA MARGARI","CA",92688,33.64828708,-117.585197428,401,"130 WILD HORSE LOOP, RANCHO SANTA MARGARI, CA, 92688","Match","Non_Exact","130 WILD HORSE LOOP, RANCHO SANTA MARGARITA, CA, 92688",144097214,"L"
137902,"130 WILD ROSE LANE","ROCHESTER","IL",62563,39.7508948400001,-89.553393672,402,"130 WILD ROSE LANE, ROCHESTER, IL, 62563","Match","Exact","130 WILD ROSE LN, ROCHESTER, IL, 62563",97329546,"L"
137903,"130 WILD WIND CV","BUDA","TX",78610,30.0892789490001,-97.860865621,403,"130 WILD WIND CV, BUDA, TX, 78610","Match","Exact","130 WILD WIND COVE, BUDA, TX, 78610",627715829,"R"
137904,"130 WILDBIRD LANE","CRESTED BUTTE","CO",81224,38.8876513970001,-107.000884198,404,"130 WILDBIRD LANE, CRESTED BUTTE, CO, 81224","Match","Exact","130 WILDBIRD LN, CRESTED BUTTE, CO, 81224",607042918,"L"
137905,"130 WILLAS HILL DR","CANDLER","NC",28715,NA,NA,405,"130 WILLAS HILL DR, CANDLER, NC, 28715","No_Match",NA,NA,NA,NA
137906,"130 WILLIS AVENUE APT 4A","BRONX","NY",10454,40.8073868550001,-73.924112241,406,"130 WILLIS AVENUE APT 4A, BRONX, NY, 10454","Match","Exact","130 WILLIS AVE, BRONX, NY, 10454",80300403,"R"
137907,"130 WILLOW LEAF LN","BUDA","TX",78610,30.078477977,-97.813268298,407,"130 WILLOW LEAF LN, BUDA, TX, 78610","Match","Exact","130 WILLOW LEAF LN, BUDA, TX, 78610",627740405,"R"
137908,"130 WINCHESTER AVE","NEW HAVEN","CT",6511,41.317973785,-72.927270855,408,"130 WINCHESTER AVE, NEW HAVEN, CT, 6511","Match","Exact","130 WINCHESTER AVE, NEW HAVEN, CT, 06511",3701094,"L"
137909,"130 WINCHESTER PLACE","FAIRVIEW HEIGHTS","IL",62208,38.5729016390001,-89.983536241,409,"130 WINCHESTER PLACE, FAIRVIEW HEIGHTS, IL, 62208","Match","Exact","130 WINCHESTER PL, FAIRVIEW HTS, IL, 62208",107854166,"L"
137910,"130 WINDSOR PARK DRIVE","COVENTRY","RI",2816,41.688350262,-71.53597058,410,"130 WINDSOR PARK DRIVE, COVENTRY, RI, 2816","Match","Exact","130 WINDSOR PARK DR, COVENTRY, RI, 02816",159142842,"L"
137911,"130 WINFIELD","SPARTANBURG","SC",29307,34.970203229,-81.8673969929999,411,"130 WINFIELD, SPARTANBURG, SC, 29307","Match","Non_Exact","130 WINFIELD DR, SPARTANBURG, SC, 29307",621958509,"R"
137912,"130 WINN SPRINGS RD","COUNCE","TN",38326,35.025529315,-88.221128801,412,"130 WINN SPRINGS RD, COUNCE, TN, 38326","Match","Exact","130 WINN SPRINGS RD, COUNCE, TN, 38326",21181771,"L"
137913,"130 WINN WAY","FAYETTEVILLE","GA",30215,33.3563457810001,-84.42736208,413,"130 WINN WAY, FAYETTEVILLE, GA, 30215","Match","Exact","130 WINN WAY, FAYETTEVILLE, GA, 30215",634060858,"L"
137914,"130 WOLF DRIVE","ALLENTOWN","PA",18104,40.575025075,-75.5796624129999,414,"130 WOLF DRIVE, ALLENTOWN, PA, 18104","Match","Exact","130 WOLF DR, ALLENTOWN, PA, 18104",80787160,"L"
137915,"130 WOOD PINE CT","MILTON","GA",30004,34.1216401190001,-84.264226833,415,"130 WOOD PINE CT, MILTON, GA, 30004","Match","Exact","130 WOOD PINE CT, MILTON, GA, 30004",17395532,"L"
137916,"130 WOOD SPRINGS LANE","MT. AIRY","GA",30563,34.5275730290001,-83.4795582959999,416,"130 WOOD SPRINGS LANE, MT. AIRY, GA, 30563","Match","Exact","130 WOOD SPRINGS LN, MOUNT AIRY, GA, 30563",627891824,"R"
137917,"130 WOODBRIDGE AVE","METUCHEN","NJ",8840,40.540032533,-74.3517007519999,417,"130 WOODBRIDGE AVE, METUCHEN, NJ, 8840","Match","Exact","130 WOODBRIDGE AVE, METUCHEN, NJ, 08840",60277938,"R"
137918,"130 WOODBRIDGE DR","LEXINGTON","SC",29072,34.0198891570001,-81.2690776479999,418,"130 WOODBRIDGE DR, LEXINGTON, SC, 29072","Match","Exact","130 WOODBRIDGE DR, LEXINGTON, SC, 29072",70047914,"L"
137919,"130 WOODCHASE STREET","BELLE CHASSE","LA",70037,29.844285309,-89.9961633679999,419,"130 WOODCHASE STREET, BELLE CHASSE, LA, 70037","Match","Non_Exact","130 WOODCHASE DR, BELLE CHASSE, LA, 70037",191951540,"L"
137920,"130 WOODCREST DRIVE","ATHENS","GA",30606,33.954540299,-83.433911403,420,"130 WOODCREST DRIVE, ATHENS, GA, 30606","Match","Exact","130 WOODCREST DR, ATHENS, GA, 30606",4800907,"R"
137921,"130 WOODHILL DR","AMHERST","OH",44001,41.4018187390001,-82.2155328429999,421,"130 WOODHILL DR, AMHERST, OH, 44001","Match","Exact","130 WOODHILL DR, AMHERST, OH, 44001",55405132,"R"
137922,"130 WOODLAND AVE","RENO","NV",89523,39.508822319,-119.896623322,422,"130 WOODLAND AVE, RENO, NV, 89523","Match","Exact","130 WOODLAND AVE, RENO, NV, 89523",647885760,"R"
137923,"130 WOODLAND AVENUE","COLUMBUS","OH",43203,39.970386064,-82.957260698,423,"130 WOODLAND AVENUE, COLUMBUS, OH, 43203","Match","Exact","130 WOODLAND AVE, COLUMBUS, OH, 43203",135581343,"R"
137924,"130 WOODLAND DR","MADISON","WV",25130,38.057669767,-81.8303935769999,424,"130 WOODLAND DR, MADISON, WV, 25130","Match","Exact","130 WOODLAND DR, MADISON, WV, 25130",78548075,"L"
137925,"130 WOODLAWN AVENUE","VALLEY STREAM","NY",11581,40.6566395630001,-73.6920441949999,425,"130 WOODLAWN AVENUE, VALLEY STREAM, NY, 11581","Match","Exact","130 WOODLAWN AVE, VALLEY STREAM, NY, 11581",638237720,"R"
137926,"130 WOODTHRUSHER DR","MADISONVILLE","LA",70447,NA,NA,426,"130 WOODTHRUSHER DR, MADISONVILLE, LA, 70447","No_Match",NA,NA,NA,NA
137927,"130 WOODWARD AVENUE","ESCONDIDO","CA",92025,33.125584916,-117.084158638,427,"130 WOODWARD AVENUE, ESCONDIDO, CA, 92025","Match","Exact","130 WOODWARD AVE, ESCONDIDO, CA, 92025",637443402,"R"
137928,"130 WRENWOOD LANE","TERRACE","OH",45174,39.159307364,-84.3145653939999,428,"130 WRENWOOD LANE, TERRACE, OH, 45174","Match","Non_Exact","130 WRENWOOD LN, TERRACE PARK, OH, 45174",103940117,"R"
137929,"130 WYLDEROSE DR","MIDLOTHIAN","VA",23113,37.5098774780001,-77.679281945,429,"130 WYLDEROSE DR, MIDLOTHIAN, VA, 23113","Match","Exact","130 WYLDEROSE DR, MIDLOTHIAN, VA, 23113",616589104,"L"
137930,"130 WYNDING BROOK DRIVE","ROCKY HILL","CT",6067,41.6451000330001,-72.6832457689999,430,"130 WYNDING BROOK DRIVE, ROCKY HILL, CT, 6067","Match","Exact","130 WYNDING BROOK DR, ROCKY HILL, CT, 06067",631759508,"R"
137931,"130 WYNNBROOK DRIVE","MCDONOUGH","GA",30253,33.4651276230001,-84.191556651,431,"130 WYNNBROOK DRIVE, MCDONOUGH, GA, 30253","Match","Non_Exact","130 WYNBROOK DR, MCDONOUGH, GA, 30253",210414235,"R"
137932,"130-05 101ST AVENUE","SO. RICHMOND HILL","NY",11419,40.6925314260001,-73.816984288,432,"130-05 101ST AVENUE, SO. RICHMOND HILL, NY, 11419","Match","Exact","130-5 101ST AVE, SOUTH RICHMOND HILL, NY, 11419",59713091,"L"
137933,"130-05 101ST AVENUE","SO. RICHMOND HILLSO.","NY",11419,40.6925314260001,-73.816984288,433,"130-05 101ST AVENUE, SO. RICHMOND HILLSO., NY, 11419","Match","Non_Exact","130-5 101ST AVE, SOUTH RICHMOND HILL, NY, 11419",59713091,"L"
137934,"130-12 129TH ST","SOUTH OZONE","NY",11420,40.6720255930001,-73.809788227,434,"130-12 129TH ST, SOUTH OZONE, NY, 11420","Match","Non_Exact","130-12 129TH ST, SOUTH OZONE PARK, NY, 11420",59713950,"R"
137935,"130-12 232 STREET","LAURELTON","NY",11413,40.6803310220001,-73.735037087,435,"130-12 232 STREET, LAURELTON, NY, 11413","Match","Exact","130-12 232ND ST, LAURELTON, NY, 11413",59720971,"R"
137936,"130-12 232ND STREET","LAURELTON","NY",11413,40.6803310220001,-73.735037087,436,"130-12 232ND STREET, LAURELTON, NY, 11413","Match","Exact","130-12 232ND ST, LAURELTON, NY, 11413",59720971,"R"
137937,"130-19 178 STREET","JAMAICA","NY",11434,40.679634515,-73.764334784,437,"130-19 178 STREET, JAMAICA, NY, 11434","Match","Exact","130-19 178TH ST, JAMAICA, NY, 11434",59719352,"L"
137938,"130-28 121 ST","QUEENS","NY",11420,NA,NA,438,"130-28 121 ST, QUEENS, NY, 11420","No_Match",NA,NA,NA,NA
137939,"130-29 225TH STREET","LAURELTON","NY",11413,40.6824121920001,-73.742075422,439,"130-29 225TH STREET, LAURELTON, NY, 11413","Match","Exact","130-29 225TH ST, LAURELTON, NY, 11413",59720670,"L"
137940,"130-30 31ST AVE","FLUSHING","NY",11354,40.7691964860001,-73.837702679,440,"130-30 31ST AVE, FLUSHING, NY, 11354","Match","Exact","130-30 31ST AVE, FLUSHING, NY, 11354",640870332,"R"
137941,"130-33 217TH STREET","LAURELTON","NY",11313,40.6845990410001,-73.749547505,441,"130-33 217TH STREET, LAURELTON, NY, 11313","Match","Non_Exact","130 217TH ST, LAURELTON, NY, 11413",59720548,"L"
137942,"130-39 177ST","QUEENS","NY",11434,NA,NA,442,"130-39 177ST, QUEENS, NY, 11434","No_Match",NA,NA,NA,NA
137943,"130-41 233RD ST","ROSEDALE","NY",11422,40.6796512600001,-73.734392532,443,"130-41 233RD ST, ROSEDALE, NY, 11422","Match","Exact","130-41 233RD ST, ROSEDALE, NY, 11422",652213360,"L"
137944,"130-50 231 STREET","LAURELTON","NY",11413,40.6799675730001,-73.7362386579999,444,"130-50 231 STREET, LAURELTON, NY, 11413","Match","Exact","130-50 231ST ST, LAURELTON, NY, 11413",59720965,"R"
137945,"130-51 224TH STREET","LAURELTON","NY",11413,40.682310005,-73.743152782,445,"130-51 224TH STREET, LAURELTON, NY, 11413","Match","Exact","130-51 224TH ST, LAURELTON, NY, 11413",59720665,"L"
137946,"130-60 226 STREET","LAURELTON","NY",11413,40.6815854970001,-73.741548757,446,"130-60 226 STREET, LAURELTON, NY, 11413","Match","Exact","130-60 226TH ST, LAURELTON, NY, 11413",59720671,"R"
137947,"130-60 226STREET","LAURELTON","NY",11413,NA,NA,447,"130-60 226STREET, LAURELTON, NY, 11413","No_Match",NA,NA,NA,NA
137948,"130","FOLSOM","PA",19033,NA,NA,448,"130, FOLSOM, PA, 19033","No_Match",NA,NA,NA,NA
137949,"130","HOMER GLEN","IL",60491,NA,NA,449,"130, HOMER GLEN, IL, 60491","No_Match",NA,NA,NA,NA
137950,"130","PADUCAH","KY",42001,NA,NA,450,"130, PADUCAH, KY, 42001","No_Match",NA,NA,NA,NA
137951,"1300  180TH LANE","LOWELL","IN",46356,NA,NA,451,"1300  180TH LANE, LOWELL, IN, 46356","No_Match",NA,NA,NA,NA
137952,"1300  E SHAW AVE SUITE 119","FRESNO","CA",93710,NA,NA,452,"1300  E SHAW AVE SUITE 119, FRESNO, CA, 93710","No_Match",NA,NA,NA,NA
137953,"1300 114TH AVE SE STE 110","BELLEVUE","WA",98004,47.5986298770001,-122.18817008,453,"1300 114TH AVE SE STE 110, BELLEVUE, WA, 98004","Match","Exact","1300 114TH AVE SE, BELLEVUE, WA, 98004",239778114,"R"
137954,"1300 11TH AVENUE","SIDNEY","NE",69162,41.140798175,-102.977775734,454,"1300 11TH AVENUE, SIDNEY, NE, 69162","Match","Exact","1300 11TH AVE, SIDNEY, NE, 69162",135925549,"L"
137955,"1300 11TH STREET SW","MOULTRIE","GA",31768,31.164732337,-83.8007677149999,455,"1300 11TH STREET SW, MOULTRIE, GA, 31768","Match","Exact","1300 11TH ST SW, MOULTRIE, GA, 31768",84234599,"L"
137956,"1300 14TH ST","BENTONVILLE","AR",72712,NA,NA,456,"1300 14TH ST, BENTONVILLE, AR, 72712","Tie",NA,NA,NA,NA
137957,"1300 21ST ST","VIENNA","WV",26105,39.31655426,-81.5419518259999,457,"1300 21ST ST, VIENNA, WV, 26105","Match","Exact","1300 21ST ST, VIENNA, WV, 26105",90869854,"R"
137958,"1300 26TH AVENUE APT 301","SAN FRANCISCO","CA",94122,37.763083506,-122.48460627,458,"1300 26TH AVENUE APT 301, SAN FRANCISCO, CA, 94122","Match","Exact","1300 26TH AVE, SAN FRANCISCO, CA, 94122",192277433,"L"
137959,"1300 26TH ST S","ST PETERSBURG","FL",33712,27.75740763,-82.66913492,459,"1300 26TH ST S, ST PETERSBURG, FL, 33712","Match","Exact","1300 26TH ST S, SAINT PETERSBURG, FL, 33712",124706141,"L"
137960,"1300 28TH STREET S APT C7","BIRMINGHAM","AL",35205,33.503497967,-86.7821016459999,460,"1300 28TH STREET S APT C7, BIRMINGHAM, AL, 35205","Match","Exact","1300 28TH ST S, BIRMINGHAM, AL, 35205",81579824,"R"
137961,"1300 30TH ST A1-14","BOULDER","CO",80303,40.0079324440001,-105.253497034,461,"1300 30TH ST A1-14, BOULDER, CO, 80303","Match","Exact","1300 30TH ST, BOULDER, CO, 80303",642890296,"R"
137962,"1300 34TH STREET APARTMENT 13","DES MOINES","IA",50311,41.602173528,-93.663262692,462,"1300 34TH STREET APARTMENT 13, DES MOINES, IA, 50311","Match","Exact","1300 34TH ST, DES MOINES, IA, 50311",65780398,"L"
137963,"1300 35TH AVE","MERIDIAN","MS",39301,32.369906202,-88.71309314,463,"1300 35TH AVE, MERIDIAN, MS, 39301","Match","Exact","1300 35TH AVE, MERIDIAN, MS, 39301",194954,"R"
137964,"1300 3RD ST E","SAINT PAUL","MN",55106,44.956771137,-93.045431738,464,"1300 3RD ST E, SAINT PAUL, MN, 55106","Match","Exact","1300 3RD ST E, SAINT PAUL, MN, 55106",646716912,"R"
137965,"1300 42ND RD","UDALL","KS",67146,37.41967743,-97.1497462629999,465,"1300 42ND RD, UDALL, KS, 67146","Match","Exact","1300 42ND RD, UDALL, KS, 67146",44354434,"R"
137966,"1300 4TH STREET","JONESVILLE","LA",71343,31.6296967010001,-91.8257389509999,466,"1300 4TH STREET, JONESVILLE, LA, 71343","Match","Exact","1300 4TH ST, JONESVILLE, LA, 71343",118967217,"L"
137967,"1300 62ND PL S 5631","ST PETERSBURG","FL",33705,27.7106213800001,-82.651570708,467,"1300 62ND PL S 5631, ST PETERSBURG, FL, 33705","Match","Exact","1300 62ND PL S, SAINT PETERSBURG, FL, 33705",124711412,"L"
137968,"1300 95TH AVE NE","SALEM","OR",97317,44.9464717710001,-122.870193332,468,"1300 95TH AVE NE, SALEM, OR, 97317","Match","Exact","1300 95TH AVE NE, SALEM, OR, 97317",156264161,"R"
137969,"1300 A MASTERS LANE","GREENVILLE","NC",27834,35.5532116750001,-77.436517588,469,"1300 A MASTERS LANE, GREENVILLE, NC, 27834","Match","Exact","1300 MASTERS LN, GREENVILLE, NC, 27834",642385084,"R"
137970,"1300 ACADEMIC ROAD","CULVER","IN",46511,NA,NA,470,"1300 ACADEMIC ROAD, CULVER, IN, 46511","No_Match",NA,NA,NA,NA
137971,"1300 AINTREE ROAD","TOWSON","MD",21204,39.4232189360001,-76.5847667909999,471,"1300 AINTREE ROAD, TOWSON, MD, 21204","Match","Non_Exact","1300 AINTREE RD, TOWSON, MD, 21286",191474626,"L"
137972,"1300 AKRON DRIVE","TURLOCK","CA",95382,37.519647526,-120.834128462,472,"1300 AKRON DRIVE, TURLOCK, CA, 95382","Match","Exact","1300 AKRON DR, TURLOCK, CA, 95382",102594978,"R"
137973,"1300 ALLISON ST NW","WASHINGTON","DC",20011,38.945058363,-77.029858921,473,"1300 ALLISON ST NW, WASHINGTON, DC, 20011","Match","Exact","1300 ALLISON ST NW, WASHINGTON, DC, 20011",76223459,"L"
137974,"1300 ALLSION ST NW","WASHINGTON","DC",20011,38.945058363,-77.029858921,474,"1300 ALLSION ST NW, WASHINGTON, DC, 20011","Match","Non_Exact","1300 ALLISON ST NW, WASHINGTON, DC, 20011",76223459,"L"
137975,"1300 ALLSION SY NW","WASHINGTON","DC",20011,NA,NA,475,"1300 ALLSION SY NW, WASHINGTON, DC, 20011","No_Match",NA,NA,NA,NA
137976,"1300 AMERICAN AVENUE","MADERA","CA",93638,36.958455626,-120.041912483,476,"1300 AMERICAN AVENUE, MADERA, CA, 93638","Match","Exact","1300 AMERICAN AVE, MADERA, CA, 93638",102340126,"R"
137977,"1300 ANINA WAY B","ARCATA","CA",95521,40.8826885460001,-124.088200551,477,"1300 ANINA WAY B, ARCATA, CA, 95521","Match","Exact","1300 ANINA WAY, ARCATA, CA, 95521",112987674,"R"
137978,"1300 ARKANSAS","PITTSBURGH","PA",15216,40.3940980900001,-80.03123332,478,"1300 ARKANSAS, PITTSBURGH, PA, 15216","Match","Non_Exact","1300 ARKANSAS AVE, PITTSBURGH, PA, 15216",51922877,"R"
137979,"1300 ARMY NAVY DRIVE - 1028","ARLINGTON","VA",22202,NA,NA,479,"1300 ARMY NAVY DRIVE - 1028, ARLINGTON, VA, 22202","No_Match",NA,NA,NA,NA
137980,"1300 ARMY NAVY DRIVE APT  429","ARLINGTON","VA",22202,NA,NA,480,"1300 ARMY NAVY DRIVE APT  429, ARLINGTON, VA, 22202","No_Match",NA,NA,NA,NA
137981,"1300 ARMY NAVY DRIVE APT 120","ARLINGTON","VA",20175,NA,NA,481,"1300 ARMY NAVY DRIVE APT 120, ARLINGTON, VA, 20175","No_Match",NA,NA,NA,NA
137982,"1300 ARMY ST","KNOXVILLE","TN",37920,35.9321439890001,-83.928280199,482,"1300 ARMY ST, KNOXVILLE, TN, 37920","Match","Exact","1300 ARMY ST, KNOXVILLE, TN, 37920",647257296,"L"
137983,"1300 AUGUST DR","KILLEEN","TX",76549,31.087196428,-97.763365619,483,"1300 AUGUST DR, KILLEEN, TX, 76549","Match","Exact","1300 AUGUST DR, KILLEEN, TX, 76549",146164523,"L"
137984,"1300 AUGUSTA APT 26","HOUSTON","TX",77057,NA,NA,484,"1300 AUGUSTA APT 26, HOUSTON, TX, 77057","Tie",NA,NA,NA,NA
137985,"1300 AVE AT PORT IMPERIAL APT 441","WEEHAWKEN","NJ",7086,NA,NA,485,"1300 AVE AT PORT IMPERIAL APT 441, WEEHAWKEN, NJ, 7086","No_Match",NA,NA,NA,NA
137986,"1300 AVENUE AT PORT IMPERIAL 443","WEEHAWKEN","NJ",7086,NA,NA,486,"1300 AVENUE AT PORT IMPERIAL 443, WEEHAWKEN, NJ, 7086","No_Match",NA,NA,NA,NA
137987,"1300 AVENUE Q","HUNTSVILLE","TX",77340,30.721362776,-95.558524259,487,"1300 AVENUE Q, HUNTSVILLE, TX, 77340","Match","Exact","1300 AVE Q, HUNTSVILLE, TX, 77340",22196566,"L"
137988,"1300 AVENUE S","BROOKLYN","NY",11229,40.6032770890001,-73.959057214,488,"1300 AVENUE S, BROOKLYN, NY, 11229","Match","Exact","1300 AVENUE S, BROOKLYN, NY, 11229",59099175,"R"
137989,"1300 B ANINA WAY","ARCATA","CA",95521,40.8826886630001,-124.088202235,489,"1300 B ANINA WAY, ARCATA, CA, 95521","Match","Exact","1300 ANINA WAY, ARCATA, CA, 95521",112987674,"R"
137990,"1300 BACKUS STREET","EL PASO","TX",79925,31.774188252,-106.361769155,490,"1300 BACKUS STREET, EL PASO, TX, 79925","Match","Exact","1300 BACKUS ST, EL PASO, TX, 79925",189409606,"R"
137991,"1300 BAKE AVE","WHITEFISH","MT",59937,NA,NA,491,"1300 BAKE AVE, WHITEFISH, MT, 59937","No_Match",NA,NA,NA,NA
137992,"1300 BAKER AVE","WHITEFISH","MT",59937,48.4005205010001,-114.337547898,492,"1300 BAKER AVE, WHITEFISH, MT, 59937","Match","Exact","1300 BAKER AVE, WHITEFISH, MT, 59937",642903249,"R"
137993,"1300 BALLYCASTLE LANE","CORINTH","TX",76210,33.1447587380001,-97.0884928839999,493,"1300 BALLYCASTLE LANE, CORINTH, TX, 76210","Match","Exact","1300 BALLYCASTLE LN, CORINTH, TX, 76210",218067092,"R"
137994,"1300 BALTIMORE NO 2407","KANSAS CITY","MO",64105,NA,NA,494,"1300 BALTIMORE NO 2407, KANSAS CITY, MO, 64105","No_Match",NA,NA,NA,NA
137995,"1300 BARCLAY DR","CARROLLTON","TX",75007,33.0133508110001,-96.905439202,495,"1300 BARCLAY DR, CARROLLTON, TX, 75007","Match","Exact","1300 BARCLAY DR, CARROLLTON, TX, 75007",103420092,"L"
137996,"1300 BARLOW DRIVE","COOKEVILLE","TN",38501,36.154570263,-85.590242819,496,"1300 BARLOW DRIVE, COOKEVILLE, TN, 38501","Match","Exact","1300 BARLOW DR, COOKEVILLE, TN, 38501",624966411,"R"
137997,"1300 BARNSDALE ST","LEHIGH ACRES","FL",33936,26.6133365160001,-81.650437874,497,"1300 BARNSDALE ST, LEHIGH ACRES, FL, 33936","Match","Exact","1300 BARNSDALE ST, LEHIGH ACRES, FL, 33936",118053417,"R"
137998,"1300 BAXTER ST SUITE 100-B","CHARLOTTE","NC",28173,35.2112404970001,-80.835382147,498,"1300 BAXTER ST SUITE 100-B, CHARLOTTE, NC, 28173","Match","Non_Exact","1300 BAXTER ST, CHARLOTTE, NC, 28204",619677688,"R"
137999,"1300 BAXTER STREET","CHARLOTTE","NC",28204,35.2112404970001,-80.835382147,499,"1300 BAXTER STREET, CHARLOTTE, NC, 28204","Match","Exact","1300 BAXTER ST, CHARLOTTE, NC, 28204",619677688,"R"
138000,"1300 BEAR GULCH ROAD","WOODSIDE","CA",94062,37.402517372,-122.285994001,500,"1300 BEAR GULCH ROAD, WOODSIDE, CA, 94062","Match","Exact","1300 BEAR GULCH RD, WOODSIDE, CA, 94062",192383804,"R"
