"ID","Address","City","State","Zip","lat","long","id","input_address","match_indicator","match_type","matched_address","tiger_line_id","tiger_side"
298501,"19624 STRATMORE WAY","EDMOND","OK",73012,35.6707404110001,-97.5479884489999,1,"19624 STRATMORE WAY, EDMOND, OK, 73012","Match","Exact","19624 STRATMORE WAY, EDMOND, OK, 73012",641696549,"R"
298502,"19625 81ST PL W","EDMONDS","WA",98026,47.820995903,-122.343383327,2,"19625 81ST PL W, EDMONDS, WA, 98026","Match","Exact","19625 81ST PL W, EDMONDS, WA, 98026",187752250,"L"
298503,"19625 CEDAR RD","SONORA","CA",95370,37.9783609350001,-120.362267156,3,"19625 CEDAR RD, SONORA, CA, 95370","Match","Exact","19625 CEDAR RD, SONORA, CA, 95370",645232553,"R"
298504,"19625 FAGAN WAY","CERRITOS","CA",90703,33.852199268,-118.072720435,4,"19625 FAGAN WAY, CERRITOS, CA, 90703","Match","Exact","19625 FAGAN WAY, CERRITOS, CA, 90703",141744855,"R"
298505,"19625 NE 125TH COURT","WOODINVILLE","WA",98077,47.7104772100001,-122.07507899,5,"19625 NE 125TH COURT, WOODINVILLE, WA, 98077","Match","Exact","19625 NE 125TH CT, WOODINVILLE, WA, 98077",239776597,"L"
298506,"19625 RALEIGH CIRCLE S","SOUTHFIELD","MI",48076,42.498370822,-83.238200876,6,"19625 RALEIGH CIRCLE S, SOUTHFIELD, MI, 48076","Match","Exact","19625 RALEIGH CIR S, SOUTHFIELD, MI, 48076",69734997,"L"
298507,"19625 SE JACOBY RD","SANDY","OR",97055,45.38114197,-122.257750888,7,"19625 SE JACOBY RD, SANDY, OR, 97055","Match","Exact","19625 JACOBY RD, SANDY, OR, 97055",650965240,"L"
298508,"19625PARTHENIA ST","NORTHRIDGE","CA",91324,NA,NA,8,"19625PARTHENIA ST, NORTHRIDGE, CA, 91324","No_Match",NA,NA,NA,NA
298509,"19626 62ND CT NE","KENMORE","WA",98028,47.770994999,-122.258478504,9,"19626 62ND CT NE, KENMORE, WA, 98028","Match","Exact","19626 62ND CT NE, KENMORE, WA, 98028",186679990,"R"
298510,"19626 E HAMPDEN PLACE","AURORA","CO",80013,39.652418793,-104.758187416,10,"19626 E HAMPDEN PLACE, AURORA, CO, 80013","Match","Exact","19626 E HAMPDEN PL, AURORA, CO, 80013",177519142,"R"
298511,"19626 FLAIR OAK","SAN ANTONIO","TX",78258,29.6261314720001,-98.512831674,11,"19626 FLAIR OAK, SAN ANTONIO, TX, 78258","Match","Exact","19626 FLAIR OAK, SAN ANTONIO, TX, 78258",638591415,"R"
298512,"19626 SUMMERLIN DR","KATY","TX",77449,29.85685786,-95.7137309889999,12,"19626 SUMMERLIN DR, KATY, TX, 77449","Match","Exact","19626 SUMMERLIN DR, KATY, TX, 77449",624592860,"L"
298513,"19626 VENTURA BLVD STE 210","TARZANA","CA",91356,34.1727226260001,-118.56067029,13,"19626 VENTURA BLVD STE 210, TARZANA, CA, 91356","Match","Exact","19626 VENTURA BLVD, TARZANA, CA, 91356",141554085,"L"
298514,"19626 WAPATO LANE STE 208","POULSBO","WA",98370,NA,NA,14,"19626 WAPATO LANE STE 208, POULSBO, WA, 98370","No_Match",NA,NA,NA,NA
298515,"19627 AUBURNDALE","LIVONIA","MI",48152,42.431199382,-83.359706608,15,"19627 AUBURNDALE, LIVONIA, MI, 48152","Match","Non_Exact","19627 AUBURNDALE ST, LIVONIA, MI, 48152",95407002,"L"
298516,"19627 FRAMINGHAM DRIVE","GAITHERSBURG","MD",20879,39.1775375070001,-77.1844965619999,16,"19627 FRAMINGHAM DRIVE, GAITHERSBURG, MD, 20879","Match","Exact","19627 FRAMINGHAM DR, GAITHERSBURG, MD, 20879",62105087,"L"
298517,"19628 HILL VALLEY ROAD","THREE SPRINGS","PA",17264,40.234485847,-77.9531502569999,17,"19628 HILL VALLEY ROAD, THREE SPRINGS, PA, 17264","Match","Exact","19628 HILL VALLEY RD, THREE SPRINGS, PA, 17264",50623876,"L"
298518,"19628 MORAJEAN LN NW","POULSBO","WA",98370,47.741319203,-122.661114187,18,"19628 MORAJEAN LN NW, POULSBO, WA, 98370","Match","Exact","19628 MORAJEAN LN NW, POULSBO, WA, 98370",187634797,"R"
298519,"19628 NANCY CIRCLE","CERRITOS","CA",90703,33.8518171760001,-118.080670105,19,"19628 NANCY CIRCLE, CERRITOS, CA, 90703","Match","Exact","19628 NANCY CIR, CERRITOS, CA, 90703",141744543,"L"
298520,"19629 SCOTTSDALE BLVD","SHAKER HEIGHTS","OH",44122,41.457694131,-81.541787717,20,"19629 SCOTTSDALE BLVD, SHAKER HEIGHTS, OH, 44122","Match","Exact","19629 SCOTTSDALE BLVD, SHAKER HEIGHTS, OH, 44122",61129075,"L"
298521,"1963 10TH AVE NORTH","LAKE WORTH","FL",33461,26.627974539,-80.0716850749999,21,"1963 10TH AVE NORTH, LAKE WORTH, FL, 33461","Match","Exact","1963 10TH AVE N, LAKE WORTH, FL, 33461",115280944,"L"
298522,"1963 10TH AVENUE NORTH","LAKE WORTH","FL",33461,26.627974539,-80.0716850749999,22,"1963 10TH AVENUE NORTH, LAKE WORTH, FL, 33461","Match","Exact","1963 10TH AVE N, LAKE WORTH, FL, 33461",115280944,"L"
298523,"1963 ANNING DR","TURLOCK","CA",95382,37.510027705,-120.826540383,23,"1963 ANNING DR, TURLOCK, CA, 95382","Match","Exact","1963 ANNING DR, TURLOCK, CA, 95382",102613527,"L"
298524,"1963 ARNOLDS CREEK RD","WEST UNION","WV",26426,NA,NA,24,"1963 ARNOLDS CREEK RD, WEST UNION, WV, 26426","No_Match",NA,NA,NA,NA
298525,"1963 BANCROFT LN LOT 5","LINCOLNTON","NC",28092,35.5156353310001,-81.217426457,25,"1963 BANCROFT LN LOT 5, LINCOLNTON, NC, 28092","Match","Exact","1963 BANCROFT LN, LINCOLNTON, NC, 28092",69534145,"L"
298526,"1963 BARNET CENTER ROAD","BARNET","VT",5821,NA,NA,26,"1963 BARNET CENTER ROAD, BARNET, VT, 5821","No_Match",NA,NA,NA,NA
298527,"1963 BONNEVILLE","MUSKEGON","MI",49441,43.198481121,-86.2917968679999,27,"1963 BONNEVILLE, MUSKEGON, MI, 49441","Match","Non_Exact","1963 BONNEVILLE DR, MUSKEGON, MI, 49441",77652498,"L"
298528,"1963 CREST ROAD","CINCINNATI","OH",45240,39.295985154,-84.5585944549999,28,"1963 CREST ROAD, CINCINNATI, OH, 45240","Match","Exact","1963 CREST RD, CINCINNATI, OH, 45240",103960447,"R"
298529,"1963 E STRATFORD RD","OLATHE","KS",66062,38.8666751330001,-94.783021923,29,"1963 E STRATFORD RD, OLATHE, KS, 66062","Match","Exact","1963 E STRATFORD RD, OLATHE, KS, 66062",91284020,"R"
298530,"1963 EAST BLUE TICK","MERIDIAN","ID",83642,43.5847905040001,-116.369959062,30,"1963 EAST BLUE TICK, MERIDIAN, ID, 83642","Match","Non_Exact","1963 E BLUE TICK ST, MERIDIAN, ID, 83642",117890490,"L"
298531,"1963 EAST MAIN ST","OTTAWA","OH",45875,41.0216052970001,-84.022529154,31,"1963 EAST MAIN ST, OTTAWA, OH, 45875","Match","Exact","1963 E MAIN ST, OTTAWA, OH, 45875",208940527,"L"
298532,"1963 GA-42","MCDONOUGH","GA",30253,NA,NA,32,"1963 GA-42, MCDONOUGH, GA, 30253","No_Match",NA,NA,NA,NA
298533,"1963 GEORGETOWN BLVD","LANSING","MI",48911,42.6650475810001,-84.57870969,33,"1963 GEORGETOWN BLVD, LANSING, MI, 48911","Match","Exact","1963 GEORGETOWN BLVD, LANSING, MI, 48911",17527575,"R"
298534,"1963 GLENBURN DRIVE","WINSTON-SALEM","NC",27127,36.0463311440001,-80.278049408,34,"1963 GLENBURN DRIVE, WINSTON-SALEM, NC, 27127","Match","Exact","1963 GLENBURN DR, WINSTON SALEM, NC, 27127",634598502,"R"
298535,"1963 GLENFORD CT","REYNOLDSBURG","OH",43068,39.945230656,-82.786116718,35,"1963 GLENFORD CT, REYNOLDSBURG, OH, 43068","Match","Exact","1963 GLENFORD CT, REYNOLDSBURG, OH, 43068",218679032,"R"
298536,"1963 HACKWORTH HILL ROAD","OTWAY","OH",45657,38.93318113,-83.210143059,36,"1963 HACKWORTH HILL ROAD, OTWAY, OH, 45657","Match","Exact","1963 HACKWORTH HILL RD, OTWAY, OH, 45657",55102939,"L"
298537,"1963 HENDRICKS STATION ROAD","HARLEYSVILLE","PA",19438,40.306663278,-75.462413823,37,"1963 HENDRICKS STATION ROAD, HARLEYSVILLE, PA, 19438","Match","Exact","1963 HENDRICKS STATION RD, HARLEYSVILLE, PA, 19438",605663740,"L"
298538,"1963 LAURAL OAK DRIVE","FLINT","MI",48507,42.982869845,-83.712232023,38,"1963 LAURAL OAK DRIVE, FLINT, MI, 48507","Match","Non_Exact","1963 LAUREL OAK DR, FLINT, MI, 48507",69615480,"R"
298539,"1963 LIFE AVENUE","DALLAS","TX",75152,32.786314378,-96.85218894,39,"1963 LIFE AVENUE, DALLAS, TX, 75152","Match","Non_Exact","1963 LIFE AVE, DALLAS, TX, 75212",102904519,"R"
298540,"1963 LIFE AVENUE","DALLAS","TX",75212,32.786314378,-96.85218894,40,"1963 LIFE AVENUE, DALLAS, TX, 75212","Match","Exact","1963 LIFE AVE, DALLAS, TX, 75212",102904519,"R"
298541,"1963 LINCOLN HWY","CHESTER","WV",26034,40.5985567070001,-80.538776274,41,"1963 LINCOLN HWY, CHESTER, WV, 26034","Match","Exact","1963 LINCOLN HWY, CHESTER, WV, 26034",65504623,"R"
298542,"1963 MCKINLEY ST","CLEARWATER","FL",33765,27.9701780460001,-82.755615349,42,"1963 MCKINLEY ST, CLEARWATER, FL, 33765","Match","Exact","1963 MCKINLEY ST, CLEARWATER, FL, 33765",124669542,"R"
298543,"1963 MEADOW TRAILS DRIVE","FLORISSANT","MO",63031,38.8391670980001,-90.3308297729999,43,"1963 MEADOW TRAILS DRIVE, FLORISSANT, MO, 63031","Match","Exact","1963 MEADOW TRAILS DR, FLORISSANT, MO, 63031",100198816,"L"
298544,"1963 N WILMOT UNIT 3","CHICAGO","IL",60647,NA,NA,44,"1963 N WILMOT UNIT 3, CHICAGO, IL, 60647","No_Match",NA,NA,NA,NA
298545,"1963 NORTH JUNALUSKA DRIVE","RICHMOND","VA",23225,37.5286003100001,-77.516098314,45,"1963 NORTH JUNALUSKA DRIVE, RICHMOND, VA, 23225","Match","Exact","1963 N JUNALUSKA DR, RICHMOND, VA, 23225",201536348,"R"
298546,"1963 OLD MOUNTAIN RD","MARS HILL","NC",28754,35.90477488,-82.4743233739999,46,"1963 OLD MOUNTAIN RD, MARS HILL, NC, 28754","Match","Exact","1963 OLD MOUNTAIN RD, MARS HILL, NC, 28754",40929302,"L"
298547,"1963 PACIFIC STREET","NEW YORK","NY",11233,40.6762310190001,-73.923609928,47,"1963 PACIFIC STREET, NEW YORK, NY, 11233","Match","Non_Exact","1963 PACIFIC ST, BROOKLYN, NY, 11233",642653671,"L"
298548,"1963 PARK PLAZA","LANCASTER","PA",17601,40.0802419820001,-76.303501433,48,"1963 PARK PLAZA, LANCASTER, PA, 17601","Match","Exact","1963 PARK PLZ, LANCASTER, PA, 17601",179662179,"R"
298549,"1963 PERRIN ST","SHREVEPORT","LA",71101,32.509816856,-93.7709053249999,49,"1963 PERRIN ST, SHREVEPORT, LA, 71101","Match","Exact","1963 PERRIN ST, SHREVEPORT, LA, 71101",57435890,"L"
298550,"1963 PINE ST","NORTHFIELD","IL",60093,42.1087649140001,-87.777315458,50,"1963 PINE ST, NORTHFIELD, IL, 60093","Match","Exact","1963 PINE ST, NORTHFIELD, IL, 60093",111729711,"R"
298551,"1963 PIUTE ST","SOUTH LAKE TAHOE","CA",96150,38.8579964250001,-120.017074576,51,"1963 PIUTE ST, SOUTH LAKE TAHOE, CA, 96150","Match","Exact","1963 PIUTE ST, SOUTH LAKE TAHOE, CA, 96150",133022696,"R"
298552,"1963 ROLAND DRIVE","93230","CA",93230,36.3469161290001,-119.661451373,52,"1963 ROLAND DRIVE, 93230, CA, 93230","Match","Non_Exact","1963 ROLAND DR, HANFORD, CA, 93230",197988783,"L"
298553,"1963 ROOKWOOD RD","CLEVELAND","OH",44112,41.5490509850001,-81.5530778849999,53,"1963 ROOKWOOD RD, CLEVELAND, OH, 44112","Match","Exact","1963 ROOKWOOD RD, CLEVELAND, OH, 44112",61148326,"L"
298554,"1963 S 2500 E A","SALT LAKE CITY","UT",84108,40.727749015,-111.819146741,54,"1963 S 2500 E A, SALT LAKE CITY, UT, 84108","Match","Non_Exact","1963 S 2500 E, SALT LAKE CITY, UT, 84108",653304285,"L"
298555,"1963 S DELAWARE ST","ALLENTOWN","PA",18103,40.577207958,-75.4664607679999,55,"1963 S DELAWARE ST, ALLENTOWN, PA, 18103","Match","Exact","1963 S DELAWARE ST, ALLENTOWN, PA, 18103",80773483,"L"
298556,"1963 S DOWNING ST","DENVER","CO",80210,39.681037631,-104.973415894,56,"1963 S DOWNING ST, DENVER, CO, 80210","Match","Exact","1963 S DOWNING ST, DENVER, CO, 80210",177332418,"R"
298557,"1963 SADDLEHORN WAY","MARYSVILLE","OH",43040,40.2655305110001,-83.377445123,57,"1963 SADDLEHORN WAY, MARYSVILLE, OH, 43040","Match","Exact","1963 SADDLEHORN WAY, MARYSVILLE, OH, 43040",640105059,"R"
298558,"1963 SHAWMUT ROAD","BROCKPORT","PA",15823,41.285898864,-78.732518795,58,"1963 SHAWMUT ROAD, BROCKPORT, PA, 15823","Match","Exact","1963 SHAWMUT RD, BROCKPORT, PA, 15823",157861315,"L"
298559,"1963 WILD STAR WAY","CASTLE ROCK","CO",80104,39.385296354,-104.83024069,59,"1963 WILD STAR WAY, CASTLE ROCK, CO, 80104","Match","Exact","1963 WILD STAR WAY, CASTLE ROCK, CO, 80104",623716480,"L"
298560,"1963 WINDSOR CREEK DRIVE","CONYERS","GA",30094,33.6548472530001,-84.0451881819999,60,"1963 WINDSOR CREEK DRIVE, CONYERS, GA, 30094","Match","Non_Exact","1963 WINDSOR CREEK DR SW, CONYERS, GA, 30094",614160170,"L"
298561,"1963 WOODCOCK RD UNIT 201","SEQUIM","WA",98382,48.1161077250001,-123.174225673,61,"1963 WOODCOCK RD UNIT 201, SEQUIM, WA, 98382","Match","Exact","1963 WOODCOCK RD, SEQUIM, WA, 98382",150866654,"R"
298562,"1963 WOODLAND","TEMPERANCE","MI",48182,41.740940784,-83.592797697,62,"1963 WOODLAND, TEMPERANCE, MI, 48182","Match","Non_Exact","1963 WOODLAND DR, TEMPERANCE, MI, 48182",40499171,"R"
298563,"1963 YATES AVE","BRONX","NY",10461,40.8538365790001,-73.8529527109999,63,"1963 YATES AVE, BRONX, NY, 10461","Match","Exact","1963 YATES AVE, BRONX, NY, 10461",80305224,"L"
298564,"19630 BLACK SMITH PATH","CORONA","CA",92881,33.834804171,-117.53561648,64,"19630 BLACK SMITH PATH, CORONA, CA, 92881","Match","Non_Exact","19630 BLACKSMITH PATH, CORONA, CA, 92881",194871593,"R"
298565,"19630 LANDING ROAD","MOUNT VERNON","WA",98273,48.3628114150001,-122.451059966,65,"19630 LANDING ROAD, MOUNT VERNON, WA, 98273","Match","Exact","19630 LANDING RD, MOUNT VERNON, WA, 98273",627220986,"L"
298566,"19630 NW 4TH AVE","MIAMI","FL",33147,NA,NA,66,"19630 NW 4TH AVE, MIAMI, FL, 33147","No_Match",NA,NA,NA,NA
298567,"19630 SW 116TH AVENUE","MIAMI","FL",33157,25.5843979220001,-80.3797585899999,67,"19630 SW 116TH AVENUE, MIAMI, FL, 33157","Match","Exact","19630 SW 116TH AVE, MIAMI, FL, 33157",115994401,"R"
298568,"19630 VICTORIAN DRIVE","PARKER","CO",80138,39.519851879,-104.759580848,68,"19630 VICTORIAN DRIVE, PARKER, CO, 80138","Match","Exact","19630 VICTORIAN DR, PARKER, CO, 80138",130803927,"R"
298569,"19631 BARRENS ROAD SOUTH","STEWARTSTOWN","PA",17363,39.7400369580001,-76.583499546,69,"19631 BARRENS ROAD SOUTH, STEWARTSTOWN, PA, 17363","Match","Exact","19631 BARRENS RD S, STEWARTSTOWN, PA, 17363",88724762,"R"
298570,"19631 PAULING","FOOTHILL RANCH","CA",92610,33.678405728,-117.651519934,70,"19631 PAULING, FOOTHILL RANCH, CA, 92610","Match","Exact","19631 PAULING, FOOTHILL RNCH, CA, 92610",649783017,"R"
298571,"19631 YORBA LINDA BLVD   SUITE A","YORBA LINDA","CA",92886,33.88879731,-117.791227279,71,"19631 YORBA LINDA BLVD   SUITE A, YORBA LINDA, CA, 92886","Match","Exact","19631 YORBA LINDA BLVD, YORBA LINDA, CA, 92886",144414802,"L"
298572,"19632 BLUFFS HIGHWAY","ONAWAY","MI",49765,45.466291138,-84.202648819,72,"19632 BLUFFS HIGHWAY, ONAWAY, MI, 49765","Match","Non_Exact","19632 BLUFFS RD, ONAWAY, MI, 49765",130759213,"R"
298573,"19632 ELKHOUND DR","MACOMB","MI",48044,NA,NA,73,"19632 ELKHOUND DR, MACOMB, MI, 48044","No_Match",NA,NA,NA,NA
298574,"19632 PACIFIC COAST HIGHWAY","MALIBU","CA",90265,NA,NA,74,"19632 PACIFIC COAST HIGHWAY, MALIBU, CA, 90265","No_Match",NA,NA,NA,NA
298575,"19632 THUNDER ROAD WEST","COLORADO SPRINGS","CO",80908,39.117711064,-104.717409838,75,"19632 THUNDER ROAD WEST, COLORADO SPRINGS, CO, 80908","Match","Exact","19632 THUNDER RD W, COLORADO SPRINGS, CO, 80908",647969664,"L"
298576,"19632 WAVERLEY AVE","HAYWARD","CA",94541,37.6761967050001,-122.113116759,76,"19632 WAVERLEY AVE, HAYWARD, CA, 94541","Match","Non_Exact","19632 WAVERLY AVE, HAYWARD, CA, 94541",125019556,"L"
298577,"19632 WOODLAND","HARPER WOODS","MI",48225,42.436289017,-82.935699255,77,"19632 WOODLAND, HARPER WOODS, MI, 48225","Match","Non_Exact","19632 WOODLAND ST, HARPER WOODS, MI, 48225",95486560,"R"
298578,"19633 PULLING STREET","SOUTH BEND","IN",46614,41.6129627650001,-86.247237626,78,"19633 PULLING STREET, SOUTH BEND, IN, 46614","Match","Exact","19633 PULLING ST, SOUTH BEND, IN, 46614",8058112,"R"
298579,"19633 W 99TH ST","LENEXA","KS",66220,38.948647974,-94.8136403399999,79,"19633 W 99TH ST, LENEXA, KS, 66220","Match","Exact","19633 W 99TH ST, LENEXA, KS, 66220",640604550,"L"
298580,"19634 98TH AVE NE","BOTHELL","WA",98011,47.771221709,-122.209011701,80,"19634 98TH AVE NE, BOTHELL, WA, 98011","Match","Exact","19634 98TH AVE NE, BOTHELL, WA, 98011",239776786,"L"
298581,"19634 E 590 ROAD","WATTS","OK",74964,NA,NA,81,"19634 E 590 ROAD, WATTS, OK, 74964","No_Match",NA,NA,NA,NA
298582,"19634 VENTURA BLVD STE 314","TARZANA","CA",91356,34.1727096710001,-118.560820519,82,"19634 VENTURA BLVD STE 314, TARZANA, CA, 91356","Match","Exact","19634 VENTURA BLVD, TARZANA, CA, 91356",141554085,"L"
298583,"19634 VERNIER WOODS LANE","SPRING","TX",77379,30.0515024740001,-95.503337678,83,"19634 VERNIER WOODS LANE, SPRING, TX, 77379","Match","Exact","19634 VERNIER WOODS LN, SPRING, TX, 77379",96161426,"L"
298584,"19635 98TH AVENUE NE","BOTHELL","WA",98011,47.7712220650001,-122.209028007,84,"19635 98TH AVENUE NE, BOTHELL, WA, 98011","Match","Exact","19635 98TH AVE NE, BOTHELL, WA, 98011",239776786,"R"
298585,"19635 N CAVE CREEK RD APT 244","PHOENIX","AZ",85024,NA,NA,85,"19635 N CAVE CREEK RD APT 244, PHOENIX, AZ, 85024","No_Match",NA,NA,NA,NA
298586,"19635 NE 33RD PL","SAMMAMISH","WA",98074,47.637539546,-122.074403328,86,"19635 NE 33RD PL, SAMMAMISH, WA, 98074","Match","Exact","19635 NE 33RD PL, SAMMAMISH, WA, 98074",186921008,"R"
298587,"19635 ROSLYN","DETROIT","MI",48221,42.4375377370001,-83.137510188,87,"19635 ROSLYN, DETROIT, MI, 48221","Match","Non_Exact","19635 ROSLYN RD, DETROIT, MI, 48221",95506264,"L"
298588,"19635 VEGA WAY","ROWLAND HEIGHTS","CA",91748,33.974900259,-117.875360014,88,"19635 VEGA WAY, ROWLAND HEIGHTS, CA, 91748","Match","Exact","19635 VEGA WAY, ROWLAND HEIGHTS, CA, 91748",241247665,"L"
298589,"19636 BALL ROAD","BLACK RIVER","NY",13612,43.953141703,-75.762764734,89,"19636 BALL ROAD, BLACK RIVER, NY, 13612","Match","Exact","19636 BALL RD, BLACK RIVER, NY, 13612",154249599,"R"
298590,"19636 EAST CASPIAN CIRCLE","AURORA","CO",80013,39.676035733,-104.758420808,90,"19636 EAST CASPIAN CIRCLE, AURORA, CO, 80013","Match","Exact","19636 E CASPIAN CIR, AURORA, CO, 80013",177523071,"R"
298591,"19636 LONGVIEW ROAD","WAYNESVILLE","MO",65583,37.853760741,-92.201780228,91,"19636 LONGVIEW ROAD, WAYNESVILLE, MO, 65583","Match","Non_Exact","19636 LONGVIEW LN, WAYNESVILLE, MO, 65583",624862952,"R"
298592,"19636 RIVER BREEZE DR","BATON ROUGE","LA",70816,30.4165602460001,-90.967579587,92,"19636 RIVER BREEZE DR, BATON ROUGE, LA, 70816","Match","Exact","19636 RIVER BREEZE DR, BATON ROUGE, LA, 70816",619071468,"L"
298593,"19637 CORUNNA ROAD","CHESANING","MI",48616,43.135714777,-84.109494662,93,"19637 CORUNNA ROAD, CHESANING, MI, 48616","Match","Exact","19637 CORUNNA RD, CHESANING, MI, 48616",80205419,"R"
298594,"19637 TURTLE SPRING WAY","NORTHRIDGE","CA",91326,34.2930283810001,-118.561704333,94,"19637 TURTLE SPRING WAY, NORTHRIDGE, CA, 91326","Match","Exact","19637 TURTLE SPRINGS WAY, NORTHRIDGE, CA, 91326",142041078,"R"
298595,"19637 TURTLESPRINGS WAY","NORTHRIDGE","CA",91326,34.2930283810001,-118.561704333,95,"19637 TURTLESPRINGS WAY, NORTHRIDGE, CA, 91326","Match","Non_Exact","19637 TURTLE SPRINGS WAY, NORTHRIDGE, CA, 91326",142041078,"R"
298596,"19638 S MITKOF LOOP","EAGLE RIVER","AK",99577,61.3035983870001,-149.515854237,96,"19638 S MITKOF LOOP, EAGLE RIVER, AK, 99577","Match","Exact","19638 S MITKOF LOOP, EAGLE RIVER, AK, 99577",190825216,"R"
298597,"19639 HWY 98 N","OKEECHOBEE","FL",34972,NA,NA,97,"19639 HWY 98 N, OKEECHOBEE, FL, 34972","No_Match",NA,NA,NA,NA
298598,"19639 MAYBERRY ST","OMAHA","NE",68022,41.2497541600001,-96.222837667,98,"19639 MAYBERRY ST, OMAHA, NE, 68022","Match","Non_Exact","19639 MAYBERRY ST, ELKHORN, NE, 68022",647766528,"R"
298599,"1964 BARKWOOD AVE","BATON ROUGE","LA",70816,30.4453484420001,-91.0275090069999,99,"1964 BARKWOOD AVE, BATON ROUGE, LA, 70816","Match","Exact","1964 BARKWOOD AVE, BATON ROUGE, LA, 70816",92194428,"L"
298600,"1964 BLAIRMORE ROAD","LEXINGTON","KY",40502,38.017541169,-84.47261077,100,"1964 BLAIRMORE ROAD, LEXINGTON, KY, 40502","Match","Exact","1964 BLAIRMORE RD, LEXINGTON, KY, 40502",31927016,"R"
298601,"1964 BOBS HOLLOW LANE","DUPONT","WA",98327,47.098997137,-122.65223544,101,"1964 BOBS HOLLOW LANE, DUPONT, WA, 98327","Match","Exact","1964 BOBS HOLLOW LN, DUPONT, WA, 98327",625031252,"R"
298602,"1964 BOULDER DR","ANN ARBOR","MI",48105,42.260591929,-83.6947878459999,102,"1964 BOULDER DR, ANN ARBOR, MI, 48105","Match","Non_Exact","1964 BOULDER DR, ANN ARBOR, MI, 48104",26033109,"L"
298603,"1964 CO RT 2","RICHLAND","NY",13144,43.5756408290001,-75.9932912749999,103,"1964 CO RT 2, RICHLAND, NY, 13144","Match","Exact","1964 CO RTE 2, RICHLAND, NY, 13144",57813483,"L"
298604,"1964 COUNTY ROAD","WAYNESVILLE","NC",28786,35.5274743050001,-82.9616902229999,104,"1964 COUNTY ROAD, WAYNESVILLE, NC, 28786","Match","Non_Exact","1964 COUNTY RD, WAYNESVILLE, NC, 28785",151783116,"L"
298605,"1964 E CALLE MONTE VISTA","TEMPE","AZ",85284,33.3359330010001,-111.904393097,105,"1964 E CALLE MONTE VISTA, TEMPE, AZ, 85284","Match","Non_Exact","1964 E CALLE MONTE VISTA DR, TEMPE, AZ, 85284",128781121,"L"
298606,"1964 EAST CRARY STREET","PASADENA","CA",91104,34.1739102280001,-118.109554884,106,"1964 EAST CRARY STREET, PASADENA, CA, 91104","Match","Exact","1964 E CRARY ST, PASADENA, CA, 91104",640421711,"R"
298607,"1964 EL CAMINO DRIVE","BILOXI","MS",39532,30.426440686,-88.9528798809999,107,"1964 EL CAMINO DRIVE, BILOXI, MS, 39532","Match","Exact","1964 EL CAMINO DR, BILOXI, MS, 39532",111382665,"L"
298608,"1964 EXCALIBUR DRIVE","ORLANDO","FL",32822,28.518545316,-81.276880654,108,"1964 EXCALIBUR DRIVE, ORLANDO, FL, 32822","Match","Exact","1964 EXCALIBUR DR, ORLANDO, FL, 32822",94390203,"L"
298609,"1964 FOUNTAIN LAKE DRIVE","ORLANDO","FL",32839,NA,NA,109,"1964 FOUNTAIN LAKE DRIVE, ORLANDO, FL, 32839","No_Match",NA,NA,NA,NA
298610,"1964 GLADSTONE WAY","SALINAS","CA",93906,36.7153734730001,-121.635470458,110,"1964 GLADSTONE WAY, SALINAS, CA, 93906","Match","Exact","1964 GLADSTONE WAY, SALINAS, CA, 93906",196862677,"R"
298611,"1964 GRAND CONCOURSE APT 3F","BRONX","NY",10457,40.850693806,-73.904794163,111,"1964 GRAND CONCOURSE APT 3F, BRONX, NY, 10457","Match","Exact","1964 GRAND CONCOURSE, BRONX, NY, 10457",640810967,"R"
298612,"1964 GREENSBORO","WHEATON","IL",60189,41.833470144,-88.120271631,112,"1964 GREENSBORO, WHEATON, IL, 60189","Match","Non_Exact","1964 GREENSBORO DR, WHEATON, IL, 60189",112528121,"R"
298613,"1964 GREY FALCON CIRCLE SW","VERO BEACH","FL",32962,27.5661485800001,-80.4077084,113,"1964 GREY FALCON CIRCLE SW, VERO BEACH, FL, 32962","Match","Exact","1964 GREY FALCON CIR SW, VERO BEACH, FL, 32962",631726828,"L"
298614,"1964 HALE","MUSCATINE","IA",52761,41.4580875500001,-91.057577609,114,"1964 HALE, MUSCATINE, IA, 52761","Match","Non_Exact","1964 HALE ST, MUSCATINE, IA, 52761",99001986,"L"
298615,"1964 INMAN ROAD","SAINT PAUL","NE",68873,41.318405656,-98.4681260089999,115,"1964 INMAN ROAD, SAINT PAUL, NE, 68873","Match","Exact","1964 INMAN RD, SAINT PAUL, NE, 68873",198194397,"R"
298616,"1964 JEFFERSON ST","RIVERSIDE","CA",92504,33.909755132,-117.394384671,116,"1964 JEFFERSON ST, RIVERSIDE, CA, 92504","Match","Exact","1964 JEFFERSON ST, RIVERSIDE, CA, 92504",194743540,"L"
298617,"1964 LOYD ST","PEARL","MS",39208,32.2717427040001,-90.14035473,117,"1964 LOYD ST, PEARL, MS, 39208","Match","Exact","1964 LOYD ST, PEARL, MS, 39208",116904378,"L"
298618,"1964 MIDLOTHIAN DRIVE","ALTADENA","CA",91001,34.179811237,-118.10835162,118,"1964 MIDLOTHIAN DRIVE, ALTADENA, CA, 91001","Match","Exact","1964 MIDLOTHIAN DR, ALTADENA, CA, 91001",640418926,"R"
298619,"1964 N FITZGERALD LN","HANFORD","CA",93230,36.3475203260001,-119.66844193,119,"1964 N FITZGERALD LN, HANFORD, CA, 93230","Match","Exact","1964 N FITZGERALD LN, HANFORD, CA, 93230",197993014,"L"
298620,"1964 OLD NO 3 RD","UTICA","MS",39175,32.1535367970001,-90.6341786899999,120,"1964 OLD NO 3 RD, UTICA, MS, 39175","Match","Exact","1964 OLD NO 3 RD, UTICA, MS, 39175",639145559,"R"
298621,"1964 PRAIRIE DELL ROAD","UNION","MO",63084,NA,NA,121,"1964 PRAIRIE DELL ROAD, UNION, MO, 63084","No_Match",NA,NA,NA,NA
298622,"1964 PROVIDENCE WAY","LODI","CA",95242,38.1064245040001,-121.296396009,122,"1964 PROVIDENCE WAY, LODI, CA, 95242","Match","Exact","1964 PROVIDENCE WAY, LODI, CA, 95242",133876653,"R"
298623,"1964 ROSEMARY PLACE","COSTA MESA","CA",92627,33.643944375,-117.911645694,123,"1964 ROSEMARY PLACE, COSTA MESA, CA, 92627","Match","Exact","1964 ROSEMARY PL, COSTA MESA, CA, 92627",144048343,"R"
298624,"1964 S 400 E APT 1","SALT LAKE CITY","UT",84115,40.7274260930001,-111.879625206,124,"1964 S 400 E APT 1, SALT LAKE CITY, UT, 84115","Match","Non_Exact","1964 S 400 E, SALT LAKE CITY, UT, 84115",637522730,"R"
298625,"1964 SHAMROCK DRIVE","DECATUR","GA",30032,33.732923128,-84.257795592,125,"1964 SHAMROCK DRIVE, DECATUR, GA, 30032","Match","Exact","1964 SHAMROCK DR, DECATUR, GA, 30032",23370588,"L"
298626,"1964 SHAWMUT ROAD","BROCKPORT","PA",15823,41.2831804580001,-78.731401439,126,"1964 SHAWMUT ROAD, BROCKPORT, PA, 15823","Match","Exact","1964 SHAWMUT RD, BROCKPORT, PA, 15823",157861315,"R"
298627,"1964 SHORE VIEW DRIVE","INDIALANTIC","FL",32903,28.1095384130001,-80.5850712,127,"1964 SHORE VIEW DRIVE, INDIALANTIC, FL, 32903","Match","Exact","1964 SHORE VIEW DR, INDIALANTIC, FL, 32903",93905933,"R"
298628,"1964 SOUTH RD UNIT 204","POUGHKEEPSIE","NY",12601,41.6239488860001,-73.917463723,128,"1964 SOUTH RD UNIT 204, POUGHKEEPSIE, NY, 12601","Match","Exact","1964 SOUTH RD, POUGHKEEPSIE, NY, 12601",4218670,"R"
298629,"1964 STATE HWY 75 N","HUNTSVILLE","TX",77320,30.766335069,-95.667643524,129,"1964 STATE HWY 75 N, HUNTSVILLE, TX, 77320","Match","Exact","1964 STATE HWY 75 N, HUNTSVILLE, TX, 77320",22208838,"R"
298630,"1964 STEPHANIE CT","AUBURN","AL",36830,32.6355551710001,-85.4433910129999,130,"1964 STEPHANIE CT, AUBURN, AL, 36830","Match","Exact","1964 STEPHANIE CT, AUBURN, AL, 36830",653328786,"R"
298631,"1964 STONERIDGE DRIVE","AUBURN","AL",36830,32.587621997,-85.4509862,131,"1964 STONERIDGE DRIVE, AUBURN, AL, 36830","Match","Exact","1964 STONERIDGE DR, AUBURN, AL, 36830",1603003,"L"
298632,"1964 SWEET GUM DRIVE","AVON","IN",46123,39.733923621,-86.420506842,132,"1964 SWEET GUM DRIVE, AVON, IN, 46123","Match","Exact","1964 SWEET GUM DR, AVON, IN, 46123",89211708,"L"
298633,"1964 TERRACINA CIR","ROSEVILLE","CA",95747,38.8070306930001,-121.347948698,133,"1964 TERRACINA CIR, ROSEVILLE, CA, 95747","Match","Exact","1964 TERRACINA CIR, ROSEVILLE, CA, 95747",106818772,"R"
298634,"1964 TIMBERLANE WAY","SAN MATEO","CA",94402,37.5206651510001,-122.335222621,134,"1964 TIMBERLANE WAY, SAN MATEO, CA, 94402","Match","Exact","1964 TIMBERLANE WAY, SAN MATEO, CA, 94402",192390054,"L"
298635,"1964 TORCH HILL ROAD","COLUMBUS","GA",31903,NA,NA,135,"1964 TORCH HILL ROAD, COLUMBUS, GA, 31903","No_Match",NA,NA,NA,NA
298636,"1964 TUCKER TRAIL","EAU CLAIRE","WI",54703,44.819624205,-91.563487615,136,"1964 TUCKER TRAIL, EAU CLAIRE, WI, 54703","Match","Exact","1964 TUCKER TRL, EAU CLAIRE, WI, 54703",650428565,"R"
298637,"1964 W FAIRWOOD DR APTO 20","TAYLORSVILLE","UT",84129,40.6470793780001,-111.944467384,137,"1964 W FAIRWOOD DR APTO 20, TAYLORSVILLE, UT, 84129","Match","Non_Exact","1964 W FAIRWOOD DR, TAYLORSVILLE, UT, 84129",641601859,"R"
298638,"1964 WEST THREE STORY HILL ROAD","MORGANTOWN","IN",46160,39.333687164,-86.291150428,138,"1964 WEST THREE STORY HILL ROAD, MORGANTOWN, IN, 46160","Match","Non_Exact","1964 THREE STORY HILL RD, MORGANTOWN, IN, 46160",43523018,"R"
298639,"19640 BURGUNDY FARMS ROAD","ESTERO","FL",33928,26.458883751,-81.682098415,139,"19640 BURGUNDY FARMS ROAD, ESTERO, FL, 33928","Match","Exact","19640 BURGUNDY FARMS RD, ESTERO, FL, 33928",653199689,"R"
298640,"19640 IOWAS ROAD","BRUNSWICK","MO",65236,39.46087693,-93.095512844,140,"19640 IOWAS ROAD, BRUNSWICK, MO, 65236","Match","Exact","19640 IOWAS RD, BRUNSWICK, MO, 65236",20861524,"R"
298641,"19640 KORTE DR","CLINTON TOWNSHIP","MI",48038,42.5964968700001,-82.922107835,141,"19640 KORTE DR, CLINTON TOWNSHIP, MI, 48038","Match","Exact","19640 KORTE DR, CLINTON TOWNSHIP, MI, 48038",110679660,"L"
298642,"19640 KORTE","CLINTON TWP","MI",48038,42.5964968700001,-82.922107835,142,"19640 KORTE, CLINTON TWP, MI, 48038","Match","Non_Exact","19640 KORTE DR, CLINTON TOWNSHIP, MI, 48038",110679660,"L"
298643,"19640 NE 90TH PL","REDMOND","WA",98053,47.6825098690001,-122.078296257,143,"19640 NE 90TH PL, REDMOND, WA, 98053","Match","Exact","19640 NE 90TH PL, REDMOND, WA, 98053",648558310,"L"
298644,"19640 OAK DRIVE","NEW BUFFALO","MI",49117,41.7642340090001,-86.798618447,144,"19640 OAK DRIVE, NEW BUFFALO, MI, 49117","Match","Exact","19640 OAK DR, NEW BUFFALO, MI, 49117",119983865,"L"
298645,"19640 STATE ROUTE 698","JENERA","OH",45841,NA,NA,145,"19640 STATE ROUTE 698, JENERA, OH, 45841","No_Match",NA,NA,NA,NA
298646,"19640 SW PROSPECT ST","ALOHA","OR",97078,45.47474134,-122.879110293,146,"19640 SW PROSPECT ST, ALOHA, OR, 97078","Match","Exact","19640 SW PROSPECT ST, ALOHA, OR, 97078",158183371,"L"
298647,"19640 WAR ADMIRAL ROAD","EAGLE RIVER","AK",99577,61.3174573000001,-149.516513224,147,"19640 WAR ADMIRAL ROAD, EAGLE RIVER, AK, 99577","Match","Exact","19640 WAR ADMIRAL RD, EAGLE RIVER, AK, 99577",190820353,"R"
298648,"19641 ERIN AVE","PRIOR LAKE","MN",55372,44.6646692310001,-93.469354277,148,"19641 ERIN AVE, PRIOR LAKE, MN, 55372","Match","Exact","19641 ERIN AVE, PRIOR LAKE, MN, 55372",38155649,"R"
298649,"19641 TURTLE SPRINGS WAY","PORTER RANCH","CA",91326,34.2929490070001,-118.561944487,149,"19641 TURTLE SPRINGS WAY, PORTER RANCH, CA, 91326","Match","Exact","19641 TURTLE SPRINGS WAY, PORTER RANCH, CA, 91326",141788320,"R"
298650,"19642 FOREST GLEN PLACE","COTTONWOOD","CA",96022,40.36460637,-122.206951548,150,"19642 FOREST GLEN PLACE, COTTONWOOD, CA, 96022","Match","Exact","19642 FOREST GLEN PL, COTTONWOOD, CA, 96022",119384816,"R"
298651,"19642 KENDALL AVE","SAN BERNARDINO","CA",92407,34.200501515,-117.376673118,151,"19642 KENDALL AVE, SAN BERNARDINO, CA, 92407","Match","Non_Exact","19642 KENDALL DR, SAN BERNARDINO, CA, 92407",616133272,"L"
298652,"19642 PESANTE RD","SALINAS","CA",93950,36.7838784100001,-121.630362062,152,"19642 PESANTE RD, SALINAS, CA, 93950","Match","Non_Exact","19642 PESANTE RD, SALINAS, CA, 93907",647393161,"L"
298653,"19642 X ROAD","DENISON","KS",66419,39.3963548190001,-95.607776093,153,"19642 X ROAD, DENISON, KS, 66419","Match","Exact","19642 X RD, DENISON, KS, 66419",10121962,"R"
298654,"19643 JUNIPER BREEZE LN","SPRING","TX",77379,NA,NA,154,"19643 JUNIPER BREEZE LN, SPRING, TX, 77379","No_Match",NA,NA,NA,NA
298655,"19643 WEST RIVER RD","COLUMBIA STATION","OH",44028,41.278440489,-81.92951128,155,"19643 WEST RIVER RD, COLUMBIA STATION, OH, 44028","Match","Exact","19643 W RIVER RD, COLUMBIA STATION, OH, 44028",55415721,"L"
298656,"19644 COUNTY RD 99 SW","KENSINGTON","MN",56343,45.7741043550001,-95.671641167,156,"19644 COUNTY RD 99 SW, KENSINGTON, MN, 56343","Match","Exact","19644 CO RD 99 SW, KENSINGTON, MN, 56343",204666633,"R"
298657,"19645 AGATE CIRCLE","SALINAS","CA",93906,36.7301349360001,-121.632834127,157,"19645 AGATE CIRCLE, SALINAS, CA, 93906","Match","Exact","19645 AGATE CIR, SALINAS, CA, 93906",196823110,"L"
298658,"19645 LAKE SHORE DRIVE","LYNWOOD","IL",60411,41.5399612750001,-87.553325274,158,"19645 LAKE SHORE DRIVE, LYNWOOD, IL, 60411","Match","Exact","19645 LAKE SHORE DR, LYNWOOD, IL, 60411",637581877,"L"
298659,"19645 N 31ST AVENUE APT 3022","PHOENIX","AZ",85027,33.6647387630001,-112.125897082,159,"19645 N 31ST AVENUE APT 3022, PHOENIX, AZ, 85027","Match","Non_Exact","19645 N 31ST AVE, PHOENIX, AZ, 85027",128945427,"R"
298660,"19645 N COUNTY ROAD 349","O BRIEN","FL",32071,30.0920952540001,-83.062916531,160,"19645 N COUNTY ROAD 349, O BRIEN, FL, 32071","Match","Exact","19645 CO RD 349, O BRIEN, FL, 32071",610550336,"L"
298661,"19645 SE 260TH ST","COVINGTON","WA",98042,47.368916213,-122.077945989,161,"19645 SE 260TH ST, COVINGTON, WA, 98042","Match","Exact","19645 SE 260TH ST, COVINGTON, WA, 98042",648773486,"L"
298662,"19645 STATE HIGHWAY 24","PURCELL","OK",73080,34.9940623160001,-97.494453761,162,"19645 STATE HIGHWAY 24, PURCELL, OK, 73080","Match","Exact","19645 STATE HWY 24, PURCELL, OK, 73080",243245511,"L"
298663,"19646 LONE STAR LN","RIVERSIDE","CA",92645,33.8793550840001,-117.319166409,163,"19646 LONE STAR LN, RIVERSIDE, CA, 92645","Match","Non_Exact","19646 LONESTAR LN, RIVERSIDE, CA, 92508",608992627,"L"
298664,"19647 STATE HWY 54","ELBOW LAKE","MN",56531,NA,NA,164,"19647 STATE HWY 54, ELBOW LAKE, MN, 56531","No_Match",NA,NA,NA,NA
298665,"19649 BEAVER VALLEY","LEAVENWORTH","WA",98826,47.776552974,-120.668002283,165,"19649 BEAVER VALLEY, LEAVENWORTH, WA, 98826","Match","Non_Exact","19649 BEAVER VALLEY RD, LEAVENWORTH, WA, 98826",156993442,"R"
298666,"19649 CALOOSA STREET","SUMMERLAND KEY","FL",33042,24.6664862320001,-81.527953434,166,"19649 CALOOSA STREET, SUMMERLAND KEY, FL, 33042","Match","Exact","19649 CALOOSA ST, SUMMERLAND KEY, FL, 33042",116469786,"R"
298667,"19649 EAGLE RUN","GROVELAND","FL",34736,28.63265969,-81.864426141,167,"19649 EAGLE RUN, GROVELAND, FL, 34736","Match","Exact","19649 EAGLE RUN, GROVELAND, FL, 34736",94216297,"L"
298668,"19649 HILLIARD BLVD","ROCKY RIVER","OH",44116,41.4710028810001,-81.8399373409999,168,"19649 HILLIARD BLVD, ROCKY RIVER, OH, 44116","Match","Exact","19649 HILLIARD BLVD, ROCKY RIVER, OH, 44116",638251138,"L"
298669,"19649 W HARRISON ST","BUCKEYE","AZ",85326,33.443422663,-112.481830334,169,"19649 W HARRISON ST, BUCKEYE, AZ, 85326","Match","Exact","19649 W HARRISON ST, BUCKEYE, AZ, 85326",640961679,"L"
298670,"1965 12TH AVE W UNIT 102","SEATTLE","WA",98119,47.636488855,-122.372685339,170,"1965 12TH AVE W UNIT 102, SEATTLE, WA, 98119","Match","Exact","1965 12TH AVE W, SEATTLE, WA, 98119",187030374,"L"
298671,"1965 52ND STREET","BROOKLYN","NY",11204,40.624381451,-73.979009263,171,"1965 52ND STREET, BROOKLYN, NY, 11204","Match","Exact","1965 52ND ST, BROOKLYN, NY, 11204",59097911,"L"
298672,"1965 64TH STREET","GARRISON","IA",52229,42.096128363,-92.111298166,172,"1965 64TH STREET, GARRISON, IA, 52229","Match","Exact","1965 64TH ST, GARRISON, IA, 52229",94725439,"L"
298673,"1965 8TH STREET APT 5","LOS OSOS","CA",93402,35.315762378,-120.834407296,173,"1965 8TH STREET APT 5, LOS OSOS, CA, 93402","Match","Exact","1965 8TH ST, LOS OSOS, CA, 93402",109729869,"L"
298674,"1965 ALTON RD APT 201","MIAMI BEACH","FL",33139,25.795712313,-80.14052104,174,"1965 ALTON RD APT 201, MIAMI BEACH, FL, 33139","Match","Exact","1965 ALTON RD, MIAMI BEACH, FL, 33139",116286955,"R"
298675,"1965 ARDEN LANDING CV S","GERMANTOWN","TN",38139,35.0980738480001,-89.76214763,175,"1965 ARDEN LANDING CV S, GERMANTOWN, TN, 38139","Match","Exact","1965 ARDEN LANDING COVE S, GERMANTOWN, TN, 38139",614142404,"R"
298676,"1965 AUGUSTA TERR","CORAL SPRINGS","FL",33071,26.2563187920001,-80.2846496719999,176,"1965 AUGUSTA TERR, CORAL SPRINGS, FL, 33071","Match","Exact","1965 AUGUSTA TER, CORAL SPRINGS, FL, 33071",114772512,"L"
298677,"1965 AVENIDA LA POSTA","ENCINITAS","CA",92024,33.0607727230001,-117.242938311,177,"1965 AVENIDA LA POSTA, ENCINITAS, CA, 92024","Match","Exact","1965 AVE LA POSTA, ENCINITAS, CA, 92024",195296322,"R"
298678,"1965 AZTEC CIRCLE","CORONA","CA",92879,33.9036282970001,-117.532886118,178,"1965 AZTEC CIRCLE, CORONA, CA, 92879","Match","Exact","1965 AZTEC CIR, CORONA, CA, 92879",194869681,"R"
298679,"1965 BRATER COURT","SAN JOSE","CA",95131,37.383952762,-121.873374273,179,"1965 BRATER COURT, SAN JOSE, CA, 95131","Match","Exact","1965 BRATER CT, SAN JOSE, CA, 95131",122962943,"L"
298680,"1965 BROADWAY 20K","NEW YORK","NY",10023,40.7739392190001,-73.982224047,180,"1965 BROADWAY 20K, NEW YORK, NY, 10023","Match","Exact","1965 BROADWAY, NEW YORK, NY, 10023",59657012,"L"
298681,"1965 CANADA","CASNOVIA","MI",49318,43.216495566,-85.850072551,181,"1965 CANADA, CASNOVIA, MI, 49318","Match","Non_Exact","1965 CANADA RD, CASNOVIA, MI, 49318",77648346,"L"
298682,"1965 CAPITAL CIRCLE NE","TALLAHASSEE","FL",32308,30.476167549,-84.235918134,182,"1965 CAPITAL CIRCLE NE, TALLAHASSEE, FL, 32308","Match","Exact","1965 CAPITAL CIR NE, TALLAHASSEE, FL, 32308",82869003,"R"
298683,"1965 CHARLES AVE","LANCASTER","SC",29720,34.7592280920001,-80.787487159,183,"1965 CHARLES AVE, LANCASTER, SC, 29720","Match","Exact","1965 CHARLES AVE, LANCASTER, SC, 29720",40705419,"R"
298684,"1965 CHARLESTON ROAD","MOUNTAIN VIEW","CA",94043,37.421347294,-122.0881556,184,"1965 CHARLESTON ROAD, MOUNTAIN VIEW, CA, 94043","Match","Exact","1965 CHARLESTON RD, MOUNTAIN VIEW, CA, 94043",639650803,"L"
298685,"1965 CHARTWELL CT","MARIETTA","GA",30066,34.0354040730001,-84.491896995,185,"1965 CHARTWELL CT, MARIETTA, GA, 30066","Match","Exact","1965 CHARTWELL CT, MARIETTA, GA, 30066",17194578,"R"
298686,"1965 CLUB LAKE CIR","ROCKWALL","TX",75087,32.9485264790001,-96.4785118569999,186,"1965 CLUB LAKE CIR, ROCKWALL, TX, 75087","Match","Exact","1965 CLUB LAKE CIR, ROCKWALL, TX, 75087",213563075,"R"
298687,"1965 COPE AVE E","MAPLEWOOD","MN",55119,NA,NA,187,"1965 COPE AVE E, MAPLEWOOD, MN, 55119","No_Match",NA,NA,NA,NA
298688,"1965 COULSTON ST UNIT 34","LOMA MINDA","CA",92354,34.0684253320001,-117.244535369,188,"1965 COULSTON ST UNIT 34, LOMA MINDA, CA, 92354","Match","Non_Exact","1965 COULSTON ST, LOMA LINDA, CA, 92354",144982337,"R"
298689,"1965 COUNTY HOUSE ROAD","WATERLOO","NY",13165,42.8797034620001,-76.8347186129999,189,"1965 COUNTY HOUSE ROAD, WATERLOO, NY, 13165","Match","Exact","1965 COUNTY HOUSE RD, WATERLOO, NY, 13165",14664569,"L"
298690,"1965 COVENTRY WAY","EUGENE","OR",97405,44.038957114,-123.14226139,190,"1965 COVENTRY WAY, EUGENE, OR, 97405","Match","Exact","1965 COVENTRY WAY, EUGENE, OR, 97405",178164461,"L"
298691,"1965 CRABAPPLE LANE","WATERLOO","IA",50701,42.4464540970001,-92.394824199,191,"1965 CRABAPPLE LANE, WATERLOO, IA, 50701","Match","Exact","1965 CRABAPPLE LN, WATERLOO, IA, 50701",651044727,"R"
298692,"1965 DODSON DRIVE","ATLANTA","GA",30344,NA,NA,192,"1965 DODSON DRIVE, ATLANTA, GA, 30344","No_Match",NA,NA,NA,NA
298693,"1965 DUBONNET CT","MONTROSE","CO",81401,38.4584771030001,-107.855807385,193,"1965 DUBONNET CT, MONTROSE, CO, 81401","Match","Exact","1965 DUBONNET CT, MONTROSE, CO, 81401",122571705,"L"
298694,"1965 E 113 ST","LOS ANGELES","CA",90059,33.93246873,-118.237283489,194,"1965 E 113 ST, LOS ANGELES, CA, 90059","Match","Exact","1965 E 113TH ST, LOS ANGELES, CA, 90059",141674338,"L"
298695,"1965 E 6TH ST","CLEVELAND","OH",44114,41.5001878580001,-81.6893131429999,195,"1965 E 6TH ST, CLEVELAND, OH, 44114","Match","Exact","1965 E 6TH ST, CLEVELAND, OH, 44114",61109075,"L"
298696,"1965 E CIRCLE SOUTH DR","INVERNESS","FL",34453,28.88688526,-82.401728455,196,"1965 E CIRCLE SOUTH DR, INVERNESS, FL, 34453","Match","Exact","1965 E CIRCLE SOUTH DR, INVERNESS, FL, 34453",610748268,"R"
298697,"1965 EAST 21ST STREET","SIGNAL HILL","CA",90755,33.7952927760001,-118.168269455,197,"1965 EAST 21ST STREET, SIGNAL HILL, CA, 90755","Match","Exact","1965 E 21ST ST, SIGNAL HILL, CA, 90755",142775777,"L"
298698,"1965 EAST CHESTNUT","KANKAKEE","IL",60901,41.121014917,-87.837818076,198,"1965 EAST CHESTNUT, KANKAKEE, IL, 60901","Match","Non_Exact","1965 E CHESTNUT ST, KANKAKEE, IL, 60901",98358291,"L"
298699,"1965 EBENEZER RD","ROCK HILL","SC",29732,34.9634921900001,-81.050608364,199,"1965 EBENEZER RD, ROCK HILL, SC, 29732","Match","Exact","1965 EBENEZER RD, ROCK HILL, SC, 29732",19809016,"L"
298700,"1965 EDENWALD AVE","BRONX","NY",10466,40.8927796630001,-73.844254608,200,"1965 EDENWALD AVE, BRONX, NY, 10466","Match","Exact","1965 EDENWALD AVE, BRONX, NY, 10466",80297702,"L"
298701,"1965 EMBASSY WEST DRIVE","DUBUQUE","IA",52002,42.5046834340001,-90.744498038,201,"1965 EMBASSY WEST DRIVE, DUBUQUE, IA, 52002","Match","Exact","1965 EMBASSY WEST DR, DUBUQUE, IA, 52002",636486520,"L"
298702,"1965 EVERGREEN BLVD SUITE 300","DULUTH","GA",30096,33.969532261,-84.110437119,202,"1965 EVERGREEN BLVD SUITE 300, DULUTH, GA, 30096","Match","Exact","1965 EVERGREEN BLVD, DULUTH, GA, 30096",642535483,"L"
298703,"1965 GLENWOOD DYER RD","LYNWOOD","IL",60411,41.527794263,-87.568699569,203,"1965 GLENWOOD DYER RD, LYNWOOD, IL, 60411","Match","Exact","1965 GLENWOOD DYER RD, LYNWOOD, IL, 60411",111877970,"R"
298704,"1965 GRANITE HILLS ROAD","ATLANTA","GA",30318,NA,NA,204,"1965 GRANITE HILLS ROAD, ATLANTA, GA, 30318","No_Match",NA,NA,NA,NA
298705,"1965 HAMER RD","DYERSBURG","TN",38024,36.1129505970001,-89.360548506,205,"1965 HAMER RD, DYERSBURG, TN, 38024","Match","Exact","1965 HAMER RD, DYERSBURG, TN, 38024",636664750,"R"
298706,"1965 HARRINGTON MILL ROAD","SHELBYVILLE","KY",40065,38.2402757670001,-85.272252403,206,"1965 HARRINGTON MILL ROAD, SHELBYVILLE, KY, 40065","Match","Exact","1965 HARRINGTON MILL RD, SHELBYVILLE, KY, 40065",97085839,"L"
298707,"1965 HARVEST RIDGE","BUFORD","GA",30519,NA,NA,207,"1965 HARVEST RIDGE, BUFORD, GA, 30519","No_Match",NA,NA,NA,NA
298708,"1965 HUNT ROAD","WINDSOR","VT",5089,43.4848725090001,-72.43760543,208,"1965 HUNT ROAD, WINDSOR, VT, 5089","Match","Exact","1965 HUNT RD, WINDSOR, VT, 05089",647536613,"R"
298709,"1965 HWY A1A APT 304","INDIAN HARBOR BEACH","FL",32937,NA,NA,209,"1965 HWY A1A APT 304, INDIAN HARBOR BEACH, FL, 32937","No_Match",NA,NA,NA,NA
298710,"1965 KESWICK PLACE DRIVE","LAWRENCEVILLE","GA",30043,33.9903044390001,-84.040996412,210,"1965 KESWICK PLACE DRIVE, LAWRENCEVILLE, GA, 30043","Match","Exact","1965 KESWICK PLACE DR, LAWRENCEVILLE, GA, 30043",88918162,"R"
298711,"1965 KINGSTON DRIVE","DIXON","CA",95620,38.461438033,-121.824618944,211,"1965 KINGSTON DRIVE, DIXON, CA, 95620","Match","Exact","1965 KINGSTON DR, DIXON, CA, 95620",192610732,"R"
298712,"1965 LAFAYETTE AVE APT 3K","BRONX","NY",10473,40.8223396130001,-73.855902435,212,"1965 LAFAYETTE AVE APT 3K, BRONX, NY, 10473","Match","Exact","1965 LAFAYETTE AVE, BRONX, NY, 10473",80306056,"L"
298713,"1965 LAFAYETTE AVENUE APT 6G","BRONX","NY",10473,40.8223396130001,-73.855902435,213,"1965 LAFAYETTE AVENUE APT 6G, BRONX, NY, 10473","Match","Exact","1965 LAFAYETTE AVE, BRONX, NY, 10473",80306056,"L"
298714,"1965 LAFAYETTE AVENUE","BRONX","NY",10473,40.8223396130001,-73.855902435,214,"1965 LAFAYETTE AVENUE, BRONX, NY, 10473","Match","Exact","1965 LAFAYETTE AVE, BRONX, NY, 10473",80306056,"L"
298715,"1965 LAMBS ROAD","CHARLOTTESVILLE","VA",22901,38.0816419990001,-78.500409868,215,"1965 LAMBS ROAD, CHARLOTTESVILLE, VA, 22901","Match","Exact","1965 LAMBS RD, CHARLOTTESVILLE, VA, 22901",83403459,"L"
298716,"1965 LIVE OAK BOULEVARD SUITE A","YUBA CITY","CA",95991,39.1555891830001,-121.620029334,216,"1965 LIVE OAK BOULEVARD SUITE A, YUBA CITY, CA, 95991","Match","Exact","1965 LIVE OAK BLVD, YUBA CITY, CA, 95991",68568380,"R"
298717,"1965 LONG TERRACE","UNION","NJ",7083,40.7027770130001,-74.261742726,217,"1965 LONG TERRACE, UNION, NJ, 7083","Match","Exact","1965 LONG TER, UNION, NJ, 07083",60572868,"R"
298718,"1965 MARTIN L KING JR BVLD","WARRENTON","NC",27589,36.3633773700001,-78.250086606,218,"1965 MARTIN L KING JR BVLD, WARRENTON, NC, 27589","Match","Exact","1965 DR MARTIN LUTHER KING JR BLVD, WARRENTON, NC, 27589",612533017,"R"
298719,"1965 MELVOR LANE","WINCHESTER","VA",22601,39.1691383420001,-78.1900732569999,219,"1965 MELVOR LANE, WINCHESTER, VA, 22601","Match","Exact","1965 MELVOR LN, WINCHESTER, VA, 22601",625271457,"R"
298720,"1965 MISSOURI AVE","LAS CRUCES","NM",88001,32.296848762,-106.751558636,220,"1965 MISSOURI AVE, LAS CRUCES, NM, 88001","Match","Exact","1965 MISSOURI AVE, LAS CRUCES, NM, 88001",189546488,"L"
298721,"1965 MOOSEHEAD TRAIL","PLYMOUTH","ME",4969,44.771548696,-69.21035849,221,"1965 MOOSEHEAD TRAIL, PLYMOUTH, ME, 4969","Match","Exact","1965 MOOSEHEAD TRL, PLYMOUTH, ME, 04969",123624653,"R"
298722,"1965 MUSKET COURT","STONE MOUNTAIN","GA",30087,33.840957501,-84.154261852,222,"1965 MUSKET COURT, STONE MOUNTAIN, GA, 30087","Match","Exact","1965 MUSKET CT, STONE MOUNTAIN, GA, 30087",23374031,"L"
298723,"1965 N LINCOLN AVE  UNIT 2","CHICAGO","IL",60614,41.917823448,-87.638090136,223,"1965 N LINCOLN AVE  UNIT 2, CHICAGO, IL, 60614","Match","Non_Exact","1965 N LINCOLN AVE, CHICAGO, IL, 60614",111890283,"R"
298724,"1965 OSPREY AVE NO 4","ORLANDO","FL",32814,28.569415303,-81.337866366,224,"1965 OSPREY AVE NO 4, ORLANDO, FL, 32814","Match","Non_Exact","1965 OSPREY AVE, ORLANDO, FL, 32814",94425205,"R"
298725,"1965 PALMER RD","LEBANON","TN",37090,36.2069219100001,-86.38984692,225,"1965 PALMER RD, LEBANON, TN, 37090","Match","Exact","1965 PALMER RD, LEBANON, TN, 37090",647299275,"R"
298726,"1965 PARK SWAIN RD","GRAND JUNCTION","TN",38039,35.0267185920001,-89.182102693,226,"1965 PARK SWAIN RD, GRAND JUNCTION, TN, 38039","Match","Exact","1965 PARK SWAIN RD, GRAND JCT, TN, 38039",643354281,"R"
298727,"1965 PERIDOT CIR","KISSIMMEE","FL",34743,28.316610584,-81.367273056,227,"1965 PERIDOT CIR, KISSIMMEE, FL, 34743","Match","Exact","1965 PERIDOT CIR, KISSIMMEE, FL, 34743",627393996,"R"
298728,"1965 PERIDOT CIRCLE","KISSIMMEE","FL",34743,28.316610584,-81.367273056,228,"1965 PERIDOT CIRCLE, KISSIMMEE, FL, 34743","Match","Exact","1965 PERIDOT CIR, KISSIMMEE, FL, 34743",627393996,"R"
298729,"1965 PERO LAKE RD","LAPEER","MI",48446,43.082657969,-83.4131971209999,229,"1965 PERO LAKE RD, LAPEER, MI, 48446","Match","Exact","1965 PERO LAKE RD, LAPEER, MI, 48446",110461099,"R"
298730,"1965 PITTVIEW AVE/ APT 1","PITTSBURGH","PA",15212,40.469046882,-79.982848602,230,"1965 PITTVIEW AVE/ APT 1, PITTSBURGH, PA, 15212","Match","Non_Exact","1965 PITTVIEW AVE, PITTSBURGH, PA, 15212",51628173,"L"
298731,"1965 PRESTON WAY","CORCORAN","CA",93212,36.098744025,-119.571676358,231,"1965 PRESTON WAY, CORCORAN, CA, 93212","Match","Exact","1965 PRESTON WAY, CORCORAN, CA, 93212",197986579,"L"
298732,"1965 RABURN WAY","CENTRAL POINT","OR",97502,NA,NA,232,"1965 RABURN WAY, CENTRAL POINT, OR, 97502","No_Match",NA,NA,NA,NA
298733,"1965 RAVEN VIEW RD","FORT COLLINS","CO",80521,40.579916499,-105.113275948,233,"1965 RAVEN VIEW RD, FORT COLLINS, CO, 80521","Match","Exact","1965 RAVEN VIEW RD, FORT COLLINS, CO, 80521",617915307,"L"
298734,"1965 RIMVIEW DRIVE","SANTA CLARA","UT",84765,37.140820322,-113.663886263,234,"1965 RIMVIEW DRIVE, SANTA CLARA, UT, 84765","Match","Exact","1965 RIMVIEW DR, SANTA CLARA, UT, 84765",166178087,"L"
298735,"1965 RYANS RUN","LANSDALE","PA",19446,40.214986347,-75.327722959,235,"1965 RYANS RUN, LANSDALE, PA, 19446","Match","Exact","1965 RYANS RUN, LANSDALE, PA, 19446",605619606,"L"
298736,"1965 S FINCH CT","LIBERTYVILLE","IL",60048,42.324317663,-87.9117945629999,236,"1965 S FINCH CT, LIBERTYVILLE, IL, 60048","Match","Exact","1965 S FINCH CT, LIBERTYVILLE, IL, 60048",119704324,"L"
298737,"1965 THOMASVILLE ESTATES DR","ATLANTA","GA",30315,NA,NA,237,"1965 THOMASVILLE ESTATES DR, ATLANTA, GA, 30315","No_Match",NA,NA,NA,NA
298738,"1965 W 44TH STREET","CLEVELAND","OH",44113,41.480510963,-81.7164703399999,238,"1965 W 44TH STREET, CLEVELAND, OH, 44113","Match","Exact","1965 W 44TH ST, CLEVELAND, OH, 44113",61101711,"L"
298739,"1965 W BOOE RD","AUSTIN","IN",47102,38.7575752560001,-85.8135575589999,239,"1965 W BOOE RD, AUSTIN, IN, 47102","Match","Exact","1965 W BOOE RD, AUSTIN, IN, 47102",31606992,"R"
298740,"1965 W STONY DESERT ST","KUNA","ID",83634,43.4799124410001,-116.437924796,240,"1965 W STONY DESERT ST, KUNA, ID, 83634","Match","Exact","1965 W STONY DESERT ST, KUNA, ID, 83634",641533521,"R"
298741,"1965","LAWRENCEVILLE","GA",30043,NA,NA,241,"1965, LAWRENCEVILLE, GA, 30043","No_Match",NA,NA,NA,NA
298742,"19650 CARDONI ST","HIGHLAND PARK","MI",48203,42.4379959350001,-83.09177321,242,"19650 CARDONI ST, HIGHLAND PARK, MI, 48203","Match","Exact","19650 CARDONI ST, HIGHLAND PARK, MI, 48203",95462968,"R"
298743,"19650 E 53RD AVE","DENVER","CO",80249,39.792585091,-104.756921502,243,"19650 E 53RD AVE, DENVER, CO, 80249","Match","Exact","19650 E 53RD AVE, DENVER, CO, 80249",606075199,"R"
298744,"19650 NE 3O STREET","WILLISTON","FL",32696,NA,NA,244,"19650 NE 3O STREET, WILLISTON, FL, 32696","No_Match",NA,NA,NA,NA
298745,"19650 OLD CUTLER ROAD","MIAMI","FL",33189,NA,NA,245,"19650 OLD CUTLER ROAD, MIAMI, FL, 33189","Tie",NA,NA,NA,NA
298746,"19650 OWEN AVENUE","HASTINGS","MN",55033,44.663993842,-92.786269035,246,"19650 OWEN AVENUE, HASTINGS, MN, 55033","Match","Exact","19650 OWEN AVE, HASTINGS, MN, 55033",37914595,"L"
298747,"19651 SEAWIND CIR","HUNTINGTON BEACH","CA",92648,33.675953254,-118.007546061,247,"19651 SEAWIND CIR, HUNTINGTON BEACH, CA, 92648","Match","Exact","19651 SEAWIND CIR, HUNTINGTON BEACH, CA, 92648",144261872,"R"
298748,"19651 ST RT 554","BIDWELL","OH",45614,38.9003241140001,-82.3714761319999,248,"19651 ST RT 554, BIDWELL, OH, 45614","Match","Non_Exact","19651 STATE RTE 554, BIDWELL, OH, 45614",54973125,"R"
298749,"19652 RD A-5 NE","SOAP LAKE","WA",98851,47.3811351580001,-119.458206153,249,"19652 RD A-5 NE, SOAP LAKE, WA, 98851","Match","Non_Exact","19652 RD A.5 NE, SOAP LAKE, WA, 98851",157110218,"L"
298750,"19653 FLAIR OAK","SAN ANTONIO","TX",78258,29.62628526,-98.5129870059999,250,"19653 FLAIR OAK, SAN ANTONIO, TX, 78258","Match","Exact","19653 FLAIR OAK, SAN ANTONIO, TX, 78258",638591415,"L"
298751,"19653 S EDINBURGH LANE UNIT 201","FRANKFORT","IL",60423,NA,NA,251,"19653 S EDINBURGH LANE UNIT 201, FRANKFORT, IL, 60423","Tie",NA,NA,NA,NA
298752,"19655 HWY 77","GROSSE TETE","LA",70740,30.3955034310001,-91.417266119,252,"19655 HWY 77, GROSSE TETE, LA, 70740","Match","Non_Exact","19655 STATE RTE 77, GROSSE TETE, LA, 70740",85562687,"R"
298753,"19655 JAMESTOWN PLACE UNIT 103","BRISTOL","WI",53104,42.5614070440001,-88.046471619,253,"19655 JAMESTOWN PLACE UNIT 103, BRISTOL, WI, 53104","Match","Exact","19655 JAMESTOWN PL, BRISTOL, WI, 53104",79819072,"R"
298754,"19656 CRYSTAL RIDGE LN","PORTER RANCE","CA",91326,34.293803251,-118.562501777,254,"19656 CRYSTAL RIDGE LN, PORTER RANCE, CA, 91326","Match","Non_Exact","19656 CRYSTAL RIDGE LN, PORTER RANCH, CA, 91326",142668176,"L"
298755,"19656 N PINECONE RD","HAYDEN","ID",83835,47.850553555,-116.745931576,255,"19656 N PINECONE RD, HAYDEN, ID, 83835","Match","Exact","19656 N PINECONE RD, HAYDEN, ID, 83835",192935277,"R"
298756,"19657 CEDAR RD","SONORA","CA",95370,37.9787694670001,-120.363342893,256,"19657 CEDAR RD, SONORA, CA, 95370","Match","Exact","19657 CEDAR RD, SONORA, CA, 95370",645232553,"R"
298757,"19658 HIAWATHA STREET","CHATSWORTH","CA",91311,34.259203191,-118.561924181,257,"19658 HIAWATHA STREET, CHATSWORTH, CA, 91311","Match","Exact","19658 HIAWATHA ST, CHATSWORTH, CA, 91311",141538932,"L"
298758,"19658 W RT 22","LAKE ZURICH","IL",60047,NA,NA,258,"19658 W RT 22, LAKE ZURICH, IL, 60047","Tie",NA,NA,NA,NA
298759,"19659 R AMBERCROMBIE TRL","EVANSVILLE","MN",56326,NA,NA,259,"19659 R AMBERCROMBIE TRL, EVANSVILLE, MN, 56326","No_Match",NA,NA,NA,NA
298760,"19659 RIVERVIEW","DETROIT","MI",48219,42.4338916470001,-83.2755295279999,260,"19659 RIVERVIEW, DETROIT, MI, 48219","Match","Non_Exact","19659 RIVERVIEW ST, DETROIT, MI, 48219",95420444,"L"
298761,"19659 ROSITA STREET","TARZANA","CA",91356,34.158151682,-118.562359754,261,"19659 ROSITA STREET, TARZANA, CA, 91356","Match","Exact","19659 ROSITA ST, TARZANA, CA, 91356",141554150,"R"
298762,"1966 180TH AVE","WOLVERTON","MN",56594,NA,NA,262,"1966 180TH AVE, WOLVERTON, MN, 56594","No_Match",NA,NA,NA,NA
298763,"1966 1ST AVE APT 2A","NEW YORK","NY",10029,NA,NA,263,"1966 1ST AVE APT 2A, NEW YORK, NY, 10029","No_Match",NA,NA,NA,NA
298764,"1966 BURTON APT 34","GRAND RAPIDS","MI",49506,NA,NA,264,"1966 BURTON APT 34, GRAND RAPIDS, MI, 49506","No_Match",NA,NA,NA,NA
298765,"1966 BURTON SE APPT 13","GRAND RAPIDS","MI",49507,NA,NA,265,"1966 BURTON SE APPT 13, GRAND RAPIDS, MI, 49507","No_Match",NA,NA,NA,NA
298766,"1966 BUTTONWOOD CT","HARRISONBURG","VA",22802,38.485471503,-78.8734843949999,266,"1966 BUTTONWOOD CT, HARRISONBURG, VA, 22802","Match","Exact","1966 BUTTONWOOD CT, HARRISONBURG, VA, 22802",648450176,"R"
298767,"1966 CALHOUN AVE","GOLDFIELD","IA",50542,42.7634853010001,-93.922296121,267,"1966 CALHOUN AVE, GOLDFIELD, IA, 50542","Match","Exact","1966 CALHOUN AVE, GOLDFIELD, IA, 50542",90716824,"R"
298768,"1966 CARPATHIAN DR","APOPKA","FL",32712,28.71451452,-81.5300266199999,268,"1966 CARPATHIAN DR, APOPKA, FL, 32712","Match","Exact","1966 CARPATHIAN DR, APOPKA, FL, 32712",94405265,"L"
298769,"1966 CATHAY ST","AURORA","CO",80011,39.7465657490001,-104.766018158,269,"1966 CATHAY ST, AURORA, CO, 80011","Match","Exact","1966 CATHAY ST, AURORA, CO, 80011",177352379,"L"
298770,"1966 CHATTERTON AVE 1FL","BRONX","NY",10472,40.8273768380001,-73.85726627,270,"1966 CHATTERTON AVE 1FL, BRONX, NY, 10472","Match","Exact","1966 CHATTERTON AVE, BRONX, NY, 10472",80305034,"R"
298771,"1966 COMPTON AVENUE","CORONA","CA",92881,NA,NA,271,"1966 COMPTON AVENUE, CORONA, CA, 92881","No_Match",NA,NA,NA,NA
298772,"1966 DALE STREET N","ROSEVILLE","MN",55113,45.000376917,-93.126086071,272,"1966 DALE STREET N, ROSEVILLE, MN, 55113","Match","Exact","1966 DALE ST N, ROSEVILLE, MN, 55113",97670960,"R"
298773,"1966 DELWIN","CAPE GIRARDEAU","MO",63701,37.337556584,-89.5562641069999,273,"1966 DELWIN, CAPE GIRARDEAU, MO, 63701","Match","Non_Exact","1966 DELWIN ST, CAPE GIRARDEAU, MO, 63701",617366861,"R"
298774,"1966 E CLARKSVILLE RD","PORTLAND","MI",48875,42.84290071,-85.0351625449999,274,"1966 E CLARKSVILLE RD, PORTLAND, MI, 48875","Match","Exact","1966 E CLARKSVILLE RD, PORTLAND, MI, 48875",12147317,"L"
298775,"1966 EAST 900 SOUTH","SALT LAKE CITY","UT",84108,40.749755586,-111.834809575,275,"1966 EAST 900 SOUTH, SALT LAKE CITY, UT, 84108","Match","Exact","1966 E 900 S, SALT LAKE CITY, UT, 84108",176081485,"R"
298776,"1966 ELM STREET APT 3","MANCHESTER","NH",3104,43.007851939,-71.465748947,276,"1966 ELM STREET APT 3, MANCHESTER, NH, 3104","Match","Exact","1966 ELM ST, MANCHESTER, NH, 03104",113546025,"L"
298777,"1966 FENWICK WAY","CASSELBERRY","FL",32707,28.648348647,-81.330145487,277,"1966 FENWICK WAY, CASSELBERRY, FL, 32707","Match","Exact","1966 FENWICK WAY, CASSELBERRY, FL, 32707",629919931,"L"
298778,"1966 FIRST AVENUE APT 11C","NEW YORK","NY",10029,NA,NA,278,"1966 FIRST AVENUE APT 11C, NEW YORK, NY, 10029","No_Match",NA,NA,NA,NA
298779,"1966 HAMPSTEAD DR","COLUMBUS","OH",43229,40.0908437040001,-82.965455452,279,"1966 HAMPSTEAD DR, COLUMBUS, OH, 43229","Match","Exact","1966 HAMPSTEAD DR, COLUMBUS, OH, 43229",135570450,"L"
298780,"1966 HANLEY DRIVE","LAKEVIEW","NY",14085,42.7094508390001,-78.93568401,280,"1966 HANLEY DRIVE, LAKEVIEW, NY, 14085","Match","Non_Exact","1966 HANLEY DR, LAKE VIEW, NY, 14085",48293030,"L"
298781,"1966 HENRY RD","CONWAY","SC",29526,33.8225805540001,-78.94899276,281,"1966 HENRY RD, CONWAY, SC, 29526","Match","Exact","1966 HENRY RD, CONWAY, SC, 29526",631452678,"L"
298782,"1966 HUBERT","MEMPHIS","TN",38108,35.1687606770001,-89.991825471,282,"1966 HUBERT, MEMPHIS, TN, 38108","Match","Non_Exact","1966 HUBERT AVE, MEMPHIS, TN, 38108",72912096,"L"
298783,"1966 INWOOD ROAD","DALLAS","TX",75235,32.814788311,-96.844652518,283,"1966 INWOOD ROAD, DALLAS, TX, 75235","Match","Exact","1966 INWOOD RD, DALLAS, TX, 75235",103268318,"R"
298784,"1966 KELSEY DR","CUYAHOGA FALLS","OH",44221,NA,NA,284,"1966 KELSEY DR, CUYAHOGA FALLS, OH, 44221","No_Match",NA,NA,NA,NA
298785,"1966 LANE 9","POWELL","WY",82435,44.7529649680001,-108.964619252,285,"1966 LANE 9, POWELL, WY, 82435","Match","Non_Exact","1966 LN 9, POWELL, WY, 82435",612517887,"L"
298786,"1966 LARIAT TRAIL","EDMOND","OK",73012,35.6914524760001,-97.548160493,286,"1966 LARIAT TRAIL, EDMOND, OK, 73012","Match","Exact","1966 LARIAT TRL, EDMOND, OK, 73012",639570646,"R"
298787,"1966 LAUNA AVE","RED WING","MN",55066,44.545290982,-92.5388132419999,287,"1966 LAUNA AVE, RED WING, MN, 55066","Match","Exact","1966 LAUNA AVE, RED WING, MN, 55066",31539425,"L"
298788,"1966 LUM BROWN ROAD","WILLIAMSTON","NC",27892,35.8201930550001,-77.095166868,288,"1966 LUM BROWN ROAD, WILLIAMSTON, NC, 27892","Match","Exact","1966 LUM BROWN RD, WILLIAMSTON, NC, 27892",56811064,"L"
298789,"1966 MEADOWBROOK WAY","COSHOCTON","OH",43812,40.2579467690001,-81.839599241,289,"1966 MEADOWBROOK WAY, COSHOCTON, OH, 43812","Match","Exact","1966 MEADOWBROOK WAY, COSHOCTON, OH, 43812",52105543,"L"
298790,"1966 NE 176 STREET","N MIAMI BEACH","FL",33162,25.938004483,-80.161213472,290,"1966 NE 176 STREET, N MIAMI BEACH, FL, 33162","Match","Exact","1966 NE 176TH ST, N MIAMI BEACH, FL, 33162",116035768,"R"
298791,"1966 NEWBOLD AVENUE SUITE 502","BRONX","NY",10472,NA,NA,291,"1966 NEWBOLD AVENUE SUITE 502, BRONX, NY, 10472","No_Match",NA,NA,NA,NA
298792,"1966 NOTTINGHAM BLVD","FORT WORTH","TX",76112,32.749657465,-97.212515654,292,"1966 NOTTINGHAM BLVD, FORT WORTH, TX, 76112","Match","Exact","1966 NOTTINGHAM BLVD, FORT WORTH, TX, 76112",101900369,"R"
298793,"1966 PACIFIC AVE  APT  306","SAN FRANCISCO","CA",94109,37.794268726,-122.427574737,293,"1966 PACIFIC AVE  APT  306, SAN FRANCISCO, CA, 94109","Match","Exact","1966 PACIFIC AVE, SAN FRANCISCO, CA, 94109",192280060,"R"
298794,"1966 PARKGATE AVE","AKRON","OH",44320,41.1022415310001,-81.58466528,294,"1966 PARKGATE AVE, AKRON, OH, 44320","Match","Exact","1966 PARKGATE AVE, AKRON, OH, 44320",61338011,"L"
298795,"1966 POLK STREET","LARAME","WY",82070,41.314733098,-105.622467731,295,"1966 POLK STREET, LARAME, WY, 82070","Match","Non_Exact","1966 W POLK ST, LARAMIE, WY, 82070",617620502,"L"
298796,"1966 POLK STREET","LARAMIE","WY",82070,41.314733098,-105.622467731,296,"1966 POLK STREET, LARAMIE, WY, 82070","Match","Non_Exact","1966 W POLK ST, LARAMIE, WY, 82070",617620502,"L"
298797,"1966 RENSHAW RD","Yazoo City","MS",39194,32.95353399,-90.346386872,297,"1966 RENSHAW RD, Yazoo City, MS, 39194","Match","Exact","1966 RENSHAW RD, YAZOO CITY, MS, 39194",152200798,"R"
298798,"1966 S 11 STREET","LOS BANOS","CA",93635,37.046513104,-120.840188301,298,"1966 S 11 STREET, LOS BANOS, CA, 93635","Match","Exact","1966 S 11TH ST, LOS BANOS, CA, 93635",125290998,"L"
298799,"1966 S 11TH ST","LOS BANOS","CA",93635,37.046513104,-120.840188301,299,"1966 S 11TH ST, LOS BANOS, CA, 93635","Match","Exact","1966 S 11TH ST, LOS BANOS, CA, 93635",125290998,"L"
298800,"1966 S 11TH STREET","LOS BANOS","CA",93635,37.046513104,-120.840188301,300,"1966 S 11TH STREET, LOS BANOS, CA, 93635","Match","Exact","1966 S 11TH ST, LOS BANOS, CA, 93635",125290998,"L"
298801,"1966 S AMERICAN ST","RIDGECREST","CA",93555,35.588760355,-117.657976791,301,"1966 S AMERICAN ST, RIDGECREST, CA, 93555","Match","Exact","1966 AMERICAN ST, RIDGECREST, CA, 93555",109426033,"R"
298802,"1966 S MAIN ST","CENTRAL LAKE","MI",49622,45.063985786,-85.264050433,302,"1966 S MAIN ST, CENTRAL LAKE, MI, 49622","Match","Exact","1966 S MAIN ST, CENTRAL LAKE, MI, 49622",145830658,"R"
298803,"1966 S VIVIAN ST","LAKEWOOD","CO",80228,39.6786430810001,-105.133230828,303,"1966 S VIVIAN ST, LAKEWOOD, CO, 80228","Match","Exact","1966 S VIVIAN ST, LAKEWOOD, CO, 80228",177317600,"L"
298804,"1966 SHERMANS VALLEY RD","ELLIOTTSBURG","PA",17024,40.3963869070001,-77.276812634,304,"1966 SHERMANS VALLEY RD, ELLIOTTSBURG, PA, 17024","Match","Exact","1966 SHERMANS VALLEY RD, ELLIOTTSBURG, PA, 17024",61069231,"R"
298805,"1966 SPRINGFIELD AVENUE","MAPLEWOOD","NJ",7040,40.7200300170001,-74.274225324,305,"1966 SPRINGFIELD AVENUE, MAPLEWOOD, NJ, 7040","Match","Exact","1966 SPRINGFIELD AVE, MAPLEWOOD, NJ, 07040",63462630,"R"
298806,"1966 STONEMILL DR","BAINBRIDGE","PA",17502,40.1048476240001,-76.644276296,306,"1966 STONEMILL DR, BAINBRIDGE, PA, 17502","Match","Non_Exact","1966 STONEMILL RD, BAINBRIDGE, PA, 17502",179715794,"R"
298807,"1966 W 250 N","MARRIOTT-SLATERVILLE","UT",84404,41.2639311410001,-112.027924005,307,"1966 W 250 N, MARRIOTT-SLATERVILLE, UT, 84404","Match","Exact","1966 W 250 N, MARRIOTT SLATERVILLE, UT, 84404",605812819,"R"
298808,"1966 W BLEE ROAD","SPRINGFIELD","OH",45502,39.846467358,-83.85248401,308,"1966 W BLEE ROAD, SPRINGFIELD, OH, 45502","Match","Exact","1966 W BLEE RD, SPRINGFIELD, OH, 45502",652707976,"R"
298809,"1966 WATSON CIRCLE","ROCHESTER","MI",48306,42.7012346320001,-83.097110672,309,"1966 WATSON CIRCLE, ROCHESTER, MI, 48306","Match","Exact","1966 WATSON CIR, ROCHESTER, MI, 48306",69792836,"L"
298810,"1966 WEST 13TH STREET","BROOKLYN","NY",11223,40.5988871930001,-73.9846577329999,310,"1966 WEST 13TH STREET, BROOKLYN, NY, 11223","Match","Exact","1966 W 13TH ST, BROOKLYN, NY, 11223",59088941,"R"
298811,"1966 YORKTOWN DR","LODI","CA",95242,38.1078004770001,-121.296555265,311,"1966 YORKTOWN DR, LODI, CA, 95242","Match","Exact","1966 YORKTOWN DR, LODI, CA, 95242",133876651,"R"
298812,"1966 YORKTOWN DRIVE","LODI","CA",95242,38.1078004770001,-121.296555265,312,"1966 YORKTOWN DRIVE, LODI, CA, 95242","Match","Exact","1966 YORKTOWN DR, LODI, CA, 95242",133876651,"R"
298813,"19660 SEAWALL ROAD","RANDOLPH","KS",66554,39.5199830440001,-96.774141785,313,"19660 SEAWALL ROAD, RANDOLPH, KS, 66554","Match","Exact","19660 SEAWALL RD, RANDOLPH, KS, 66554",27787608,"L"
298814,"19660 SILVER LAKE TR","SHOREWOOD","MN",55331,44.8937407600001,-93.5304100709999,314,"19660 SILVER LAKE TR, SHOREWOOD, MN, 55331","Match","Exact","19660 SILVER LAKE TRL, SHOREWOOD, MN, 55331",43843902,"L"
298815,"19660 SYRACUSE STREET","DETROIT","MI",48234,42.4389662520001,-83.046155438,315,"19660 SYRACUSE STREET, DETROIT, MI, 48234","Match","Exact","19660 SYRACUSE ST, DETROIT, MI, 48234",95464501,"R"
298816,"19661 TEQUESTA ST","SUGARLOAF","FL",33042,24.665841616,-81.527915389,316,"19661 TEQUESTA ST, SUGARLOAF, FL, 33042","Match","Exact","19661 TEQUESTA ST, SUGARLOAF, FL, 33042",116469785,"R"
298817,"19661 WILDERNESS DR","CALDWELL","ID",83605,43.658335333,-116.618788446,317,"19661 WILDERNESS DR, CALDWELL, ID, 83605","Match","Exact","19661 WILDERNESS DR, CALDWELL, ID, 83605",633119613,"L"
298818,"19663 EAGLE RIDGE RD","FORESTHILL","CA",95631,39.0017529720001,-120.924859239,318,"19663 EAGLE RIDGE RD, FORESTHILL, CA, 95631","Match","Exact","19663 EAGLE RIDGE RD, FORESTHILL, CA, 95631",629707965,"L"
298819,"19663 REGENT","DETROIT","MI",48205,42.440422853,-82.975517387,319,"19663 REGENT, DETROIT, MI, 48205","Match","Non_Exact","19663 REGENT DR, DETROIT, MI, 48205",95468028,"L"
298820,"19663 SOLUS CAMPGROUND RD","LAKEHEAD","CA",96051,40.8555190170001,-122.340113892,320,"19663 SOLUS CAMPGROUND RD, LAKEHEAD, CA, 96051","Match","Exact","19663 SOLUS CAMPGROUND RD, LAKEHEAD, CA, 96051",126634564,"R"
298821,"19664 BRADY","REDFORD","MI",48240,42.4341116780001,-83.28868911,321,"19664 BRADY, REDFORD, MI, 48240","Match","Exact","19664 BRADY, REDFORD, MI, 48240",95419664,"R"
298822,"19664 WEST 36TH AVENUE APT 801","GULF SHORES","AL",36542,30.2974252710001,-87.689757519,322,"19664 WEST 36TH AVENUE APT 801, GULF SHORES, AL, 36542","Match","Exact","19664 W 36TH AVE, GULF SHORES, AL, 36542",131679979,"L"
298823,"19665 441ST AVE","ERWIN","SD",57233,44.5335203480001,-97.389941721,323,"19665 441ST AVE, ERWIN, SD, 57233","Match","Exact","19665 441ST AVE, ERWIN, SD, 57233",201182756,"R"
298824,"19665 E MANN CREEK DR APT E","PARKER","CO",80134,NA,NA,324,"19665 E MANN CREEK DR APT E, PARKER, CO, 80134","Tie",NA,NA,NA,NA
298825,"19665 HILLTOP COURT","PERRY","IA",50220,NA,NA,325,"19665 HILLTOP COURT, PERRY, IA, 50220","No_Match",NA,NA,NA,NA
298826,"19665 NE 179TH ST","WOODINVILLE","WA",98077,47.7582094620001,-122.074880582,326,"19665 NE 179TH ST, WOODINVILLE, WA, 98077","Match","Exact","19665 NE 179TH ST, WOODINVILLE, WA, 98077",186601618,"L"
298827,"19667 AMERICAN AVE 7","HILMAR","CA",95324,37.411458479,-120.844155931,327,"19667 AMERICAN AVE 7, HILMAR, CA, 95324","Match","Exact","19667 AMERICAN AVE, HILMAR, CA, 95324",647291645,"R"
298828,"19667 E ARROWHEAD TRAIL","QUEEN CREEK","AZ",85142,33.2671112560001,-111.66008872,328,"19667 E ARROWHEAD TRAIL, QUEEN CREEK, AZ, 85142","Match","Exact","19667 E ARROWHEAD TRL, QUEEN CREEK, AZ, 85142",649807162,"R"
298829,"19667 TURNBERRY WAY 17F","AVENTURA","FL",33180,25.957584221,-80.127157497,329,"19667 TURNBERRY WAY 17F, AVENTURA, FL, 33180","Match","Exact","19667 TURNBERRY WAY, AVENTURA, FL, 33180",609079451,"R"
298830,"19667 TURNBERRY WAY","AVENTURA","FL",33180,25.957584221,-80.127157497,330,"19667 TURNBERRY WAY, AVENTURA, FL, 33180","Match","Exact","19667 TURNBERRY WAY, AVENTURA, FL, 33180",609079451,"R"
298831,"19668 CR 1548","ADA","OK",74820,34.7706425120001,-96.604363016,331,"19668 CR 1548, ADA, OK, 74820","Match","Exact","19668 CR 1548, ADA, OK, 74820",616316144,"R"
298832,"19668 E RAVEN DR","QUEEN CREEK","AZ",85142,33.269091616,-111.663786908,332,"19668 E RAVEN DR, QUEEN CREEK, AZ, 85142","Match","Exact","19668 E RAVEN DR, QUEEN CREEK, AZ, 85142",243999813,"L"
298833,"19668 EAGLE COVE","GULFPORT","MS",39503,30.4597794040001,-89.157050517,333,"19668 EAGLE COVE, GULFPORT, MS, 39503","Match","Exact","19668 EAGLE COVE, GULFPORT, MS, 39503",111395833,"R"
298834,"19668 HONOR HWY","INTERLOCHEN","MI",49643,44.6591199900001,-85.844958659,334,"19668 HONOR HWY, INTERLOCHEN, MI, 49643","Match","Exact","19668 HONOR HWY, INTERLOCHEN, MI, 49643",145900351,"R"
298835,"19668 MEADOWLARK WAY","FARMINGTON","MN",55024,44.664671313,-93.171670617,335,"19668 MEADOWLARK WAY, FARMINGTON, MN, 55024","Match","Exact","19668 MEADOWLARK WAY, FARMINGTON, MN, 55024",627438025,"R"
298836,"19669 ELKHART","HARPERWOODS","MI",48225,42.43285925,-82.9375299819999,336,"19669 ELKHART, HARPERWOODS, MI, 48225","Match","Non_Exact","19669 ELKHART ST, HARPER WOODS, MI, 48225",95486534,"L"
298837,"19669 GAZELLE PLACE","COTTONWOOD","CA",96022,40.3651233430001,-122.203230437,337,"19669 GAZELLE PLACE, COTTONWOOD, CA, 96022","Match","Exact","19669 GAZELLE PL, COTTONWOOD, CA, 96022",119391998,"R"
298838,"19669 LANCASTER","HARPER WOODS","MI",48225,42.4443828030001,-82.93044969,338,"19669 LANCASTER, HARPER WOODS, MI, 48225","Match","Non_Exact","19669 LANCASTER ST, HARPER WOODS, MI, 48225",95486704,"L"
298839,"1967 BALTIMORE AVE","CINCINNATI","OH",45225,39.1380230300001,-84.5604324609999,339,"1967 BALTIMORE AVE, CINCINNATI, OH, 45225","Match","Exact","1967 BALTIMORE AVE, CINCINNATI, OH, 45225",103955486,"L"
298840,"1967 BLUE LANE","PLEASANT HILL","LA",71065,31.8186401240001,-93.526151778,340,"1967 BLUE LANE, PLEASANT HILL, LA, 71065","Match","Exact","1967 BLUE LN, PLEASANT HILL, LA, 71065",67785202,"R"
298841,"1967 BRIDLE PATH","INDEPENDENCE","KY",41051,38.9698741010001,-84.544767807,341,"1967 BRIDLE PATH, INDEPENDENCE, KY, 41051","Match","Exact","1967 BRIDLE PATH, INDEPENDENCE, KY, 41051",619741274,"L"
298842,"1967 CALLALANTEE DRIVE","MOUNTAIN CITY","TN",37683,36.458387826,-81.7851976489999,342,"1967 CALLALANTEE DRIVE, MOUNTAIN CITY, TN, 37683","Match","Exact","1967 CALLALANTEE DR, MOUNTAIN CITY, TN, 37683",616280123,"L"
298843,"1967 COMMODORE DR","NAVARRE","FL",32566,30.4079240790001,-86.9067279239999,343,"1967 COMMODORE DR, NAVARRE, FL, 32566","Match","Exact","1967 COMMODORE DR, NAVARRE, FL, 32566",74596807,"L"
298844,"1967 DAFFODIL DRIVE","XENIA","OH",45385,39.7691546180001,-84.003404138,344,"1967 DAFFODIL DRIVE, XENIA, OH, 45385","Match","Non_Exact","1967 DAFFIODIL DR, XENIA, OH, 45385",640730914,"R"
298845,"1967 DEVEERE DR","STERLING HEIGHTS","MI",48310,42.539885923,-83.0854783029999,345,"1967 DEVEERE DR, STERLING HEIGHTS, MI, 48310","Match","Exact","1967 DEVEERE DR, STERLING HEIGHTS, MI, 48310",110707782,"R"
298846,"1967 E MAPLE DR APT 139","NORTH CANTON","OH",44720,NA,NA,346,"1967 E MAPLE DR APT 139, NORTH CANTON, OH, 44720","No_Match",NA,NA,NA,NA
298847,"1967 ELIAM ROAD","ELBERTON","GA",30635,34.025711535,-82.785969074,347,"1967 ELIAM ROAD, ELBERTON, GA, 30635","Match","Exact","1967 ELIAM RD, ELBERTON, GA, 30635",22964117,"L"
298848,"1967 EMA DELL PL","LOGANVILLE","GA",30052,33.8254103140001,-83.978696138,348,"1967 EMA DELL PL, LOGANVILLE, GA, 30052","Match","Non_Exact","1967 EMA DELL PL SW, LOGANVILLE, GA, 30052",88955527,"L"
298849,"1967 EMA DELL PLACE","LOGANVILLE","MI",30052,NA,NA,349,"1967 EMA DELL PLACE, LOGANVILLE, MI, 30052","No_Match",NA,NA,NA,NA
298850,"1967 FRANCIS AVE SE","GRAND RAPIDS","MI",49507,42.9282673970001,-85.664181081,350,"1967 FRANCIS AVE SE, GRAND RAPIDS, MI, 49507","Match","Exact","1967 FRANCIS AVE SE, GRAND RAPIDS, MI, 49507",12459115,"R"
298851,"1967 HIGH CEDARVIEW DR","CEDAR CITY","UT",84720,37.6418077180001,-113.04486339,351,"1967 HIGH CEDARVIEW DR, CEDAR CITY, UT, 84720","Match","Non_Exact","1967 E HIGH CEDAR VIEW DR, CEDAR CITY, UT, 84720",165423524,"R"
298852,"1967 HILLCREST DR","COSHOCTON","OH",43812,40.261586912,-81.835550782,352,"1967 HILLCREST DR, COSHOCTON, OH, 43812","Match","Exact","1967 HILLCREST DR, COSHOCTON, OH, 43812",52105461,"L"
298853,"1967 HOEN AVE","SANTA ROSA","CA",95405,38.440675556,-122.691127613,353,"1967 HOEN AVE, SANTA ROSA, CA, 95405","Match","Exact","1967 HOEN AVE, SANTA ROSA, CA, 95405",604962815,"L"
298854,"1967 HWY 173","BONIFAY","FL",32425,30.849658332,-85.635594146,354,"1967 HWY 173, BONIFAY, FL, 32425","Match","Non_Exact","1967 CO RD 173, BONIFAY, FL, 32425",635618794,"R"
298855,"1967 LACASTER DRIVE","SPRINGDALE","AR",72762,NA,NA,355,"1967 LACASTER DRIVE, SPRINGDALE, AR, 72762","No_Match",NA,NA,NA,NA
298856,"1967 LEVINE LANE","CLEARWATER","FL",33760,27.9248513150001,-82.724059665,356,"1967 LEVINE LANE, CLEARWATER, FL, 33760","Match","Exact","1967 LEVINE LN, CLEARWATER, FL, 33760",124720040,"R"
298857,"1967 LONGMEADOW PARK","SISSONVILLE","WV",25320,38.509181212,-81.635884731,357,"1967 LONGMEADOW PARK, SISSONVILLE, WV, 25320","Match","Non_Exact","1967 LONGMEADOW DR, SISSONVILLE, WV, 25320",78580017,"L"
298858,"1967 LOVELL CT","MILFORD","MI",48381,42.5318169700001,-83.5732524479999,358,"1967 LOVELL CT, MILFORD, MI, 48381","Match","Non_Exact","1967 LOVELL, MILFORD, MI, 48381",69773798,"L"
298859,"1967 MARCASITE PLACE","CARLSBAD","CA",92009,33.109443234,-117.265110794,359,"1967 MARCASITE PLACE, CARLSBAD, CA, 92009","Match","Exact","1967 MARCASITE PL, CARLSBAD, CA, 92009",195767382,"L"
298860,"1967 N DARA","CLOVIS","CA",93611,NA,NA,360,"1967 N DARA, CLOVIS, CA, 93611","No_Match",NA,NA,NA,NA
298861,"1967 OAKWOOD GROVE DR","SNELLVILLE","GA",30078,33.857968961,-84.040877343,361,"1967 OAKWOOD GROVE DR, SNELLVILLE, GA, 30078","Match","Exact","1967 OAKWOOD GROVE DR, SNELLVILLE, GA, 30078",648615356,"L"
298862,"1967 RONALD DR","WHITEHALL","PA",18052,40.6351105590001,-75.504877855,362,"1967 RONALD DR, WHITEHALL, PA, 18052","Match","Exact","1967 RONALD DR, WHITEHALL, PA, 18052",80823592,"R"
298863,"1967 S JOSEPHINE ST APT 303","DENVER","CO",80210,39.6807138620001,-104.957933822,363,"1967 S JOSEPHINE ST APT 303, DENVER, CO, 80210","Match","Non_Exact","1967 S JOSEPHINE ST, DENVER, CO, 80210",638611327,"R"
298864,"1967 SALEMVILLE RD","NEW ENTERPRISE","PA",16664,40.1657798250001,-78.449385279,364,"1967 SALEMVILLE RD, NEW ENTERPRISE, PA, 16664","Match","Exact","1967 SALEMVILLE RD, NEW ENTERPRISE, PA, 16664",50187573,"L"
298865,"1967 SOUTH OCEAN BLVD 203A","POMPANO BEACH","FL",33062,26.206209791,-80.094380241,365,"1967 SOUTH OCEAN BLVD 203A, POMPANO BEACH, FL, 33062","Match","Exact","1967 S OCEAN BLVD, POMPANO BEACH, FL, 33062",650062993,"R"
298866,"1967 VIA LAGO DR","LAKELAND","FL",33803,28.1015471920001,-81.9883756789999,366,"1967 VIA LAGO DR, LAKELAND, FL, 33803","Match","Non_Exact","1967 VIA LAGO DR, LAKELAND, FL, 33810",647909715,"R"
298867,"1967 W FOSTER AVE","CHICAGO","IL",60640,41.9760449790001,-87.678588447,367,"1967 W FOSTER AVE, CHICAGO, IL, 60640","Match","Exact","1967 W FOSTER AVE, CHICAGO, IL, 60640",605185588,"L"
298868,"1967 W GRANVILLE","CHICAGO","IL",60660,41.99426959,-87.679276167,368,"1967 W GRANVILLE, CHICAGO, IL, 60660","Match","Non_Exact","1967 W GRANVILLE AVE, CHICAGO, IL, 60660",111744970,"L"
298869,"1967 WEHRLE DRIVE SUITE 1 086","BUFFALO","NY",14221,42.9566169190001,-78.720885165,369,"1967 WEHRLE DRIVE SUITE 1 086, BUFFALO, NY, 14221","Match","Exact","1967 WEHRLE DR, BUFFALO, NY, 14221",645418161,"R"
298870,"1967 WEHRLE DRIVE SUITE 1-086","BUFFALO","NY",14221,42.9566169190001,-78.720885165,370,"1967 WEHRLE DRIVE SUITE 1-086, BUFFALO, NY, 14221","Match","Exact","1967 WEHRLE DR, BUFFALO, NY, 14221",645418161,"R"
298871,"19670 120TH AVE","NEW ULM","MN",56073,44.2481852000001,-94.411897115,371,"19670 120TH AVE, NEW ULM, MN, 56073","Match","Exact","19670 120TH AVE, NEW ULM, MN, 56073",636274897,"R"
298872,"19670 BRIGHTON DR","SAUCIER","MS",39574,30.56012887,-89.160323251,372,"19670 BRIGHTON DR, SAUCIER, MS, 39574","Match","Exact","19670 BRIGHTON DR, SAUCIER, MS, 39574",624953122,"R"
298873,"19670 E SHANNON AVENUE","LIBERTY LAKE","WA",99016,47.676378383,-117.140553848,373,"19670 E SHANNON AVENUE, LIBERTY LAKE, WA, 99016","Match","Exact","19670 E SHANNON AVE, LIBERTY LAKE, WA, 99016",641097136,"R"
298874,"19670 LONEROCK ST","CANYON COUNTRY","CA",91351,34.42229473,-118.479983189,374,"19670 LONEROCK ST, CANYON COUNTRY, CA, 91351","Match","Exact","19670 LONEROCK ST, CANYON COUNTRY, CA, 91351",141519849,"R"
298875,"19670 RIDGE ROAD","RED BLUFF","CA",96080,40.1470490770001,-122.307369448,375,"19670 RIDGE ROAD, RED BLUFF, CA, 96080","Match","Exact","19670 RIDGE RD, RED BLUFF, CA, 96080",119366683,"L"
298876,"19671 CHAREST","DETROIT",NA,NA,42.439056281,-83.071571015,376,"19671 CHAREST, DETROIT, , ","Match","Non_Exact","19671 CHAREST ST, DETROIT, MI, 48234",95464058,"L"
298877,"19671 E SHANNON AVENUE","LIBERTY LAKE","WA",99016,47.6763814720001,-117.140476995,377,"19671 E SHANNON AVENUE, LIBERTY LAKE, WA, 99016","Match","Exact","19671 E SHANNON AVE, LIBERTY LAKE, WA, 99016",641097136,"L"
298878,"19671 STATE RT DD","ST JOSEPH","MO",64505,NA,NA,378,"19671 STATE RT DD, ST JOSEPH, MO, 64505","No_Match",NA,NA,NA,NA
298879,"19672 E COUNTRY CLUB DR","AVENTURA","FL",33180,25.9575777210001,-80.130388028,379,"19672 E COUNTRY CLUB DR, AVENTURA, FL, 33180","Match","Exact","19672 E COUNTRY CLUB DR, AVENTURA, FL, 33180",609038763,"L"
298880,"19672 E COUNTRY CLUB DRIVE","AVENTURA","FL",33180,25.9575777210001,-80.130388028,380,"19672 E COUNTRY CLUB DRIVE, AVENTURA, FL, 33180","Match","Exact","19672 E COUNTRY CLUB DR, AVENTURA, FL, 33180",609038763,"L"
298881,"19672 NEWGATE","BLOOMINGTON","IL",61705,40.4101439040001,-88.888747982,381,"19672 NEWGATE, BLOOMINGTON, IL, 61705","Match","Non_Exact","19672 NEWGATE ST, BLOOMINGTON, IL, 61705",20567411,"R"
298882,"19672 SCHRICK DRIVE","ATCHISON","KS",66002,39.4089237050001,-95.213066501,382,"19672 SCHRICK DRIVE, ATCHISON, KS, 66002","Match","Exact","19672 SCHRICK DR, ATCHISON, KS, 66002",22245680,"R"
298883,"19676 1200 NORTH AVENUE","TISKILWA","IL",61368,41.3209261420001,-89.477260367,383,"19676 1200 NORTH AVENUE, TISKILWA, IL, 61368","Match","Exact","19676 1200 NORTH AVE, TISKILWA, IL, 61368",8490718,"R"
298884,"19676 E WALNUT RD","QUEEN CREEK","AZ",85142,33.2610497310001,-111.659007579,384,"19676 E WALNUT RD, QUEEN CREEK, AZ, 85142","Match","Exact","19676 E WALNUT RD, QUEEN CREEK, AZ, 85142",641873060,"L"
298885,"19676 EAGLE RIDGE ROAD","FORESTHILL","CA",95631,39.001623276,-120.924928426,385,"19676 EAGLE RIDGE ROAD, FORESTHILL, CA, 95631","Match","Exact","19676 EAGLE RIDGE RD, FORESTHILL, CA, 95631",629707965,"R"
298886,"19678 PATRIOT LN NW","POULSBO","WA",98370,47.7417055930001,-122.66170644,386,"19678 PATRIOT LN NW, POULSBO, WA, 98370","Match","Exact","19678 PATRIOT LN NW, POULSBO, WA, 98370",187634795,"R"
298887,"19679 ECR 1300","WILLOW","OK",73673,NA,NA,387,"19679 ECR 1300, WILLOW, OK, 73673","No_Match",NA,NA,NA,NA
298888,"19679 ROSCOMMON","HARPER WOODS","MI",48225,42.4333130910001,-82.9364207529999,388,"19679 ROSCOMMON, HARPER WOODS, MI, 48225","Match","Non_Exact","19679 ROSCOMMON ST, HARPER WOODS, MI, 48225",95486530,"L"
298889,"19679 SOUTH SHORE ROAD","DEXTER","NY",13634,43.971933742,-76.171471153,389,"19679 SOUTH SHORE ROAD, DEXTER, NY, 13634","Match","Exact","19679 S SHORE RD, DEXTER, NY, 13634",154223865,"R"
298890,"1968 365TH","MADISON","KS",66860,38.1360126440001,-96.1611859129999,390,"1968 365TH, MADISON, KS, 66860","Match","Non_Exact","1968 365TH ST, MADISON, KS, 66860",10751192,"L"
298891,"1968 78TH ST","BROOKLYN","NY",11214,40.6095690820001,-73.9943003449999,391,"1968 78TH ST, BROOKLYN, NY, 11214","Match","Exact","1968 78TH ST, BROOKLYN, NY, 11214",59088443,"R"
298892,"1968 AARON AVENUE","ORLANDO","FL",32811,28.5194399810001,-81.432250016,392,"1968 AARON AVENUE, ORLANDO, FL, 32811","Match","Exact","1968 AARON AVE, ORLANDO, FL, 32811",94273650,"R"
298893,"1968 ALVARADO DR","ROUND ROCK","TX",78664,30.477510581,-97.650489457,393,"1968 ALVARADO DR, ROUND ROCK, TX, 78664","Match","Exact","1968 ALVARADO DR, ROUND ROCK, TX, 78664",648536485,"R"
298894,"1968 BEACHCRAFT","NORTHWOOD","OH",43619,41.616747623,-83.465081003,394,"1968 BEACHCRAFT, NORTHWOOD, OH, 43619","Match","Non_Exact","1968 BEACHCRAFT DR, NORTHWOOD, OH, 43619",38730680,"R"
298895,"1968 CAROL PARKWAY","KETTERING","OH",45440,39.6748706270001,-84.127061962,395,"1968 CAROL PARKWAY, KETTERING, OH, 45440","Match","Exact","1968 CAROL PKWY, KETTERING, OH, 45440",143584218,"R"
298896,"1968 CAROL PKWY","KETTERING","OH",45440,39.6748706270001,-84.127061962,396,"1968 CAROL PKWY, KETTERING, OH, 45440","Match","Exact","1968 CAROL PKWY, KETTERING, OH, 45440",143584218,"R"
298897,"1968 CARRIAGE WAY","WEST LINN","OR",97068,45.382729963,-122.652283925,397,"1968 CARRIAGE WAY, WEST LINN, OR, 97068","Match","Exact","1968 CARRIAGE WAY, WEST LINN, OR, 97068",157913794,"R"
298898,"1968 COUNTY ROAD 85","COFFEEVILLE","MS",38965,34.01780003,-89.642325326,398,"1968 COUNTY ROAD 85, COFFEEVILLE, MS, 38965","Match","Non_Exact","1968 CO RD 85, COFFEEVILLE, MS, 38922",649629953,"R"
298899,"1968 DEAN RD","JACKSONVILLE","FL",32216,30.286750333,-81.591962903,399,"1968 DEAN RD, JACKSONVILLE, FL, 32216","Match","Exact","1968 DEAN RD, JACKSONVILLE, FL, 32216",83918744,"R"
298900,"1968 DONOHUE CT","SAN JOSE","CA",95131,37.386981979,-121.876556494,400,"1968 DONOHUE CT, SAN JOSE, CA, 95131","Match","Exact","1968 DONOHUE CT, SAN JOSE, CA, 95131",122962919,"R"
298901,"1968 E CHESTNUT ST","KANKAKEE","IL",60901,41.1210052600001,-87.83769469,401,"1968 E CHESTNUT ST, KANKAKEE, IL, 60901","Match","Exact","1968 E CHESTNUT ST, KANKAKEE, IL, 60901",98358291,"R"
298902,"1968 EDENBRIDGE WAY","NASHVILLE","TN",37240,36.058622256,-86.828578131,402,"1968 EDENBRIDGE WAY, NASHVILLE, TN, 37240","Match","Non_Exact","1968 EDENBRIDGE WAY, NASHVILLE, TN, 37215",97210059,"R"
298903,"1968 EVERETT SPRINGS RD","CALHOUN","GA",30701,34.491315189,-85.114954424,403,"1968 EVERETT SPRINGS RD, CALHOUN, GA, 30701","Match","Exact","1968 EVERETT SPRINGS RD, CALHOUN, GA, 30701",30694415,"R"
298904,"1968 FAXON DR","ATWATER","CA",95301,37.340400683,-120.573689407,404,"1968 FAXON DR, ATWATER, CA, 95301","Match","Exact","1968 FAXON DR, ATWATER, CA, 95301",616754965,"R"
298905,"1968 FEDERAL ROAD","MADISONVILLE","TN",37354,35.530035759,-84.2786972389999,405,"1968 FEDERAL ROAD, MADISONVILLE, TN, 37354","Match","Exact","1968 FEDERAL RD, MADISONVILLE, TN, 37354",85310784,"L"
298906,"1968 FLOYD ROAD","RIDGELAND","SC",29936,32.45035247,-81.0728528939999,406,"1968 FLOYD ROAD, RIDGELAND, SC, 29936","Match","Exact","1968 FLOYD RD, RIDGELAND, SC, 29936",33146645,"R"
298907,"1968 FORO ROMANO ST","HENDERSON","NV",89044,35.9566818340001,-115.128335419,407,"1968 FORO ROMANO ST, HENDERSON, NV, 89044","Match","Exact","1968 FORO ROMANO ST, HENDERSON, NV, 89044",650845551,"R"
298908,"1968 GAIL ST","NEWTON","NC",28658,35.629151022,-81.188144786,408,"1968 GAIL ST, NEWTON, NC, 28658","Match","Exact","1968 GAIL ST, NEWTON, NC, 28658",45957717,"L"
298909,"1968 GRENVILLE ROAD","SCOTCH PLAINS","NJ",7076,40.623162286,-74.3486922389999,409,"1968 GRENVILLE ROAD, SCOTCH PLAINS, NJ, 7076","Match","Exact","1968 GRENVILLE RD, SCOTCH PLAINS, NJ, 07076",60561327,"R"
298910,"1968 GREY FALCON CIRCLE SW","VERO BEACH","FL",32962,27.566277337,-80.4074996579999,410,"1968 GREY FALCON CIRCLE SW, VERO BEACH, FL, 32962","Match","Exact","1968 GREY FALCON CIR SW, VERO BEACH, FL, 32962",631726828,"L"
298911,"1968 H ST","LAS VEGAS","NV",89106,36.1947487730001,-115.151842215,411,"1968 H ST, LAS VEGAS, NV, 89106","Match","Exact","1968 H ST, LAS VEGAS, NV, 89106",201865226,"R"
298912,"1968 HIGHWAY 441","WILSONVILLE","AL",35222,NA,NA,412,"1968 HIGHWAY 441, WILSONVILLE, AL, 35222","No_Match",NA,NA,NA,NA
298913,"1968 HUBBARD ST","DETROIT","MI",48209,42.3227088410001,-83.0925515439999,413,"1968 HUBBARD ST, DETROIT, MI, 48209","Match","Exact","1968 HUBBARD ST, DETROIT, MI, 48209",652800667,"R"
298914,"1968 JACKSON AVENUE","MEMPHIS","TN",38107,35.159993888,-89.992372152,414,"1968 JACKSON AVENUE, MEMPHIS, TN, 38107","Match","Exact","1968 JACKSON AVE, MEMPHIS, TN, 38107",635937233,"L"
298915,"1968 LESLIE BEACHLER LANE","MIDWEST CITY","OK",73130,35.4470064450001,-97.332856491,415,"1968 LESLIE BEACHLER LANE, MIDWEST CITY, OK, 73130","Match","Exact","1968 LESLIE BEACHLER LN, MIDWEST CITY, OK, 73130",624090888,"R"
298916,"1968 MCCAUSLEN MNR","STEUBENVILLE","OH",43952,40.367232411,-80.6335131869999,416,"1968 MCCAUSLEN MNR, STEUBENVILLE, OH, 43952","Match","Non_Exact","1968 MC CAUSLEN MNR, STEUBENVILLE, OH, 43952",37801137,"L"
298917,"1968 MCDUFFIE RD","AUSTELL","GA",30168,33.8434092470001,-84.6122460029999,417,"1968 MCDUFFIE RD, AUSTELL, GA, 30168","Match","Non_Exact","1968 MCDUFFIE RD, AUSTELL, GA, 30106",17250465,"R"
298918,"1968 MINNEHAHA AVENUE EAST","ST. PAUL","MN",55119,44.96306208,-93.0172987509999,418,"1968 MINNEHAHA AVENUE EAST, ST. PAUL, MN, 55119","Match","Exact","1968 MINNEHAHA AVE E, SAINT PAUL, MN, 55119",97653520,"R"
298919,"1968 N GATEWAY BLVD SUITE 101","FRESNO","CA",93727,36.7682419970001,-119.726602962,419,"1968 N GATEWAY BLVD SUITE 101, FRESNO, CA, 93727","Match","Non_Exact","1968 N GATEWAY BLVD, FRESNO, CA, 93727",197643150,"R"
298920,"1968 NE SANDS LP APT 2","BEND","OR",97701,NA,NA,420,"1968 NE SANDS LP APT 2, BEND, OR, 97701","No_Match",NA,NA,NA,NA
298921,"1968 OAKLAND AVE","WANTAGH","NY",11793,40.6726185270001,-73.502280444,421,"1968 OAKLAND AVE, WANTAGH, NY, 11793","Match","Exact","1968 OAKLAND AVE, WANTAGH, NY, 11793",638166424,"R"
298922,"1968 OAKWOOD STATION CT","HENDERSON","NV",89012,36.0190732790001,-115.071381261,422,"1968 OAKWOOD STATION CT, HENDERSON, NV, 89012","Match","Exact","1968 OAKWOOD STATION CT, HENDERSON, NV, 89012",201911023,"R"
298923,"1968 OLD BYRE WAY","APEX","NC",27502,35.709820773,-78.9000408699999,423,"1968 OLD BYRE WAY, APEX, NC, 27502","Match","Exact","1968 OLD BYRE WAY, APEX, NC, 27502",635561674,"L"
298924,"1968 PAMMEL PARK ROAD","WINTERSET","IA",50273,41.317061794,-94.056625761,424,"1968 PAMMEL PARK ROAD, WINTERSET, IA, 50273","Match","Exact","1968 PAMMEL PARK RD, WINTERSET, IA, 50273",639175953,"R"
298925,"1968 PHANTOM RIDER TRL","SPRING BRANCH","TX",78070,29.8655882300001,-98.436908747,425,"1968 PHANTOM RIDER TRL, SPRING BRANCH, TX, 78070","Match","Exact","1968 PHANTOM RIDER TRL, SPRING BRANCH, TX, 78070",72260186,"L"
298926,"1968 PINECREST DR","EAST LANSING","MI",48823,42.7572489890001,-84.4947585739999,426,"1968 PINECREST DR, EAST LANSING, MI, 48823","Match","Exact","1968 PINECREST DR, EAST LANSING, MI, 48823",17500663,"R"
298927,"1968 PINECREST DRIVE","ALTADENA","CA",91001,34.1919558020001,-118.111110532,427,"1968 PINECREST DRIVE, ALTADENA, CA, 91001","Match","Exact","1968 PINECREST DR, ALTADENA, CA, 91001",141631610,"R"
298928,"1968 PINEVALLEY RD","ROCK HILL","SC",29732,34.9699960510001,-81.010699242,428,"1968 PINEVALLEY RD, ROCK HILL, SC, 29732","Match","Exact","1968 PINEVALLEY RD, ROCK HILL, SC, 29732",19790831,"R"
298929,"1968 POINT VIEW","LOS ANGELES","CA",90034,NA,NA,429,"1968 POINT VIEW, LOS ANGELES, CA, 90034","No_Match",NA,NA,NA,NA
298930,"1968 S COAST HIGHWAY 3518","LAGUNA BEACH","CA",92651,33.5276611780001,-117.769826732,430,"1968 S COAST HIGHWAY 3518, LAGUNA BEACH, CA, 92651","Match","Non_Exact","1968 S COAST HWY, LAGUNA BEACH, CA, 92651",629798157,"L"
298931,"1968 S COAST HIGHWAY NUM 1542","LAGUNA BEACH","CA",92651,33.5276611780001,-117.769826732,431,"1968 S COAST HIGHWAY NUM 1542, LAGUNA BEACH, CA, 92651","Match","Non_Exact","1968 S COAST HWY, LAGUNA BEACH, CA, 92651",629798157,"L"
298932,"1968 S COAST HIGHWAY STE 177","LAGUNA BEACH","CA",92651,33.5276611780001,-117.769826732,432,"1968 S COAST HIGHWAY STE 177, LAGUNA BEACH, CA, 92651","Match","Non_Exact","1968 S COAST HWY, LAGUNA BEACH, CA, 92651",629798157,"L"
298933,"1968 S COAST HIGHWAY STE 2652","LAGUNA BEACH","CA",92651,33.5276611780001,-117.769826732,433,"1968 S COAST HIGHWAY STE 2652, LAGUNA BEACH, CA, 92651","Match","Non_Exact","1968 S COAST HWY, LAGUNA BEACH, CA, 92651",629798157,"L"
298934,"1968 S COAST HWY -  3687","LAGUNA BEACH","CA",92651,33.5276611780001,-117.769826732,434,"1968 S COAST HWY -  3687, LAGUNA BEACH, CA, 92651","Match","Non_Exact","1968 S COAST HWY, LAGUNA BEACH, CA, 92651",629798157,"L"
298935,"1968 S COAST HWY 2490","LAGUNA BEACH","CA",92651,33.5276611780001,-117.769826732,435,"1968 S COAST HWY 2490, LAGUNA BEACH, CA, 92651","Match","Non_Exact","1968 S COAST HWY, LAGUNA BEACH, CA, 92651",629798157,"L"
298936,"1968 S COAST HWY NUM 3789","LAGUNA BEACH","CA",92651,33.5276611780001,-117.769826732,436,"1968 S COAST HWY NUM 3789, LAGUNA BEACH, CA, 92651","Match","Non_Exact","1968 S COAST HWY, LAGUNA BEACH, CA, 92651",629798157,"L"
298937,"1968 S COAST HWY NUM 3789A","LAGUNA BEACH","CA",92651,33.5276611780001,-117.769826732,437,"1968 S COAST HWY NUM 3789A, LAGUNA BEACH, CA, 92651","Match","Non_Exact","1968 S COAST HWY, LAGUNA BEACH, CA, 92651",629798157,"L"
298938,"1968 S COAST HWY NUM 414","LAGUNA BEACH","CA",92651,33.5276611780001,-117.769826732,438,"1968 S COAST HWY NUM 414, LAGUNA BEACH, CA, 92651","Match","Non_Exact","1968 S COAST HWY, LAGUNA BEACH, CA, 92651",629798157,"L"
298939,"1968 S COAST HWY STE 1200","LAGUNA BEAC","CA",92651,NA,NA,439,"1968 S COAST HWY STE 1200, LAGUNA BEAC, CA, 92651","No_Match",NA,NA,NA,NA
298940,"1968 S COAST HWY STE 2376","LAGUNA BEACH","CA",92651,33.5276611780001,-117.769826732,440,"1968 S COAST HWY STE 2376, LAGUNA BEACH, CA, 92651","Match","Non_Exact","1968 S COAST HWY, LAGUNA BEACH, CA, 92651",629798157,"L"
298941,"1968 S COAST HWY STE3508","LAGUNA BEACH","CA",92651,33.5276611780001,-117.769826732,441,"1968 S COAST HWY STE3508, LAGUNA BEACH, CA, 92651","Match","Non_Exact","1968 S COAST HWY, LAGUNA BEACH, CA, 92651",629798157,"L"
298942,"1968 S COAST HWY SUITE 1551","LAGUNA BEACH","CA",92651,33.5276611780001,-117.769826732,442,"1968 S COAST HWY SUITE 1551, LAGUNA BEACH, CA, 92651","Match","Non_Exact","1968 S COAST HWY, LAGUNA BEACH, CA, 92651",629798157,"L"
298943,"1968 S COAST HWY SUITE 3014","LAGUNA BEACH","CA",92651,33.5276611780001,-117.769826732,443,"1968 S COAST HWY SUITE 3014, LAGUNA BEACH, CA, 92651","Match","Non_Exact","1968 S COAST HWY, LAGUNA BEACH, CA, 92651",629798157,"L"
298944,"1968 S COAST HWY UNIT 485","LAGUNA BEACH","CA",92651,33.5276611780001,-117.769826732,444,"1968 S COAST HWY UNIT 485, LAGUNA BEACH, CA, 92651","Match","Non_Exact","1968 S COAST HWY, LAGUNA BEACH, CA, 92651",629798157,"L"
298945,"1968 S COAST HWY","LAGUNA BEACH","CA",92651,33.5276611780001,-117.769826732,445,"1968 S COAST HWY, LAGUNA BEACH, CA, 92651","Match","Exact","1968 S COAST HWY, LAGUNA BEACH, CA, 92651",629798157,"L"
298946,"1968 S GREAT BASIN DRIVE","WASHINGTON","UT",84780,37.103671714,-113.496023797,446,"1968 S GREAT BASIN DRIVE, WASHINGTON, UT, 84780","Match","Exact","1968 GREAT BASIN DR, WASHINGTON, UT, 84780",627766955,"R"
298947,"1968 SILVER PALM RD","NORTH PORT","FL",34288,27.0550555190001,-82.150830753,447,"1968 SILVER PALM RD, NORTH PORT, FL, 34288","Match","Exact","1968 SILVER PALM RD, NORTH PORT, FL, 34288",16448143,"R"
298948,"1968 SOUTH COAST HIGHWAY SUITE 906","LAGUNA BEACH","CA",92651,33.5276695740001,-117.769836836,448,"1968 SOUTH COAST HIGHWAY SUITE 906, LAGUNA BEACH, CA, 92651","Match","Exact","1968 S COAST HWY, LAGUNA BEACH, CA, 92651",629798157,"L"
298949,"1968 SOUTH COAST HWY STE 2525","LAGUNA BEACH","CA",92651,33.5276695740001,-117.769836836,449,"1968 SOUTH COAST HWY STE 2525, LAGUNA BEACH, CA, 92651","Match","Exact","1968 S COAST HWY, LAGUNA BEACH, CA, 92651",629798157,"L"
298950,"1968 SOUTH COAST HWY STE 3289","LAGUNA BEACH","CA",92651,33.5276695740001,-117.769836836,450,"1968 SOUTH COAST HWY STE 3289, LAGUNA BEACH, CA, 92651","Match","Exact","1968 S COAST HWY, LAGUNA BEACH, CA, 92651",629798157,"L"
298951,"1968 SOUTH COAST HWY SUITE 1474","LAGUNA BEACH","CA",92651,33.5276695740001,-117.769836836,451,"1968 SOUTH COAST HWY SUITE 1474, LAGUNA BEACH, CA, 92651","Match","Exact","1968 S COAST HWY, LAGUNA BEACH, CA, 92651",629798157,"L"
298952,"1968 SOUTH COAST HWY UNIT 2498","LAGUNA BEACH","CA",92651,33.5276695740001,-117.769836836,452,"1968 SOUTH COAST HWY UNIT 2498, LAGUNA BEACH, CA, 92651","Match","Exact","1968 S COAST HWY, LAGUNA BEACH, CA, 92651",629798157,"L"
298953,"1968 THORNAPPLE AVENUE","AKRON","OH",44301,41.029755365,-81.517528641,453,"1968 THORNAPPLE AVENUE, AKRON, OH, 44301","Match","Exact","1968 THORNAPPLE AVE, AKRON, OH, 44301",61345515,"R"
298954,"1968 W ADAMS BLVD","LOS ANGELES","CA",90018,34.032693448,-118.308189457,454,"1968 W ADAMS BLVD, LOS ANGELES, CA, 90018","Match","Exact","1968 W ADAMS BLVD, LOS ANGELES, CA, 90018",141606040,"L"
298955,"1968 W RECORD STREET","TUCSON","AZ",85705,32.2865772100001,-111.008081732,455,"1968 W RECORD STREET, TUCSON, AZ, 85705","Match","Exact","1968 W RECORD ST, TUCSON, AZ, 85705",121160645,"L"
298956,"1968 WEST 11TH AVENUE","GARY","IN",46404,41.5914855780001,-87.360512155,456,"1968 WEST 11TH AVENUE, GARY, IN, 46404","Match","Exact","1968 W 11TH AVE, GARY, IN, 46404",618046452,"R"
298957,"1968 WEST 150 SOUTH","CEDAR CITY","UT",84720,37.6749488,-113.08621843,457,"1968 WEST 150 SOUTH, CEDAR CITY, UT, 84720","Match","Exact","1968 W 150 S, CEDAR CITY, UT, 84720",165420534,"R"
298958,"1968-3 OTTERVILLE BLVD","INDEPENDENCE","IA",50644,42.4977963170001,-91.890301979,458,"1968-3 OTTERVILLE BLVD, INDEPENDENCE, IA, 50644","Match","Exact","1968 OTTERVILLE BLVD, INDEPENDENCE, IA, 50644",101143472,"R"
298959,"19680 OLD SANTA CRUZ HIGHWAY","LOS GATOS","CA",95033,37.1929591410001,-121.9939632,459,"19680 OLD SANTA CRUZ HIGHWAY, LOS GATOS, CA, 95033","Match","Exact","19680 SANTA CRUZ HWY, LOS GATOS, CA, 95033",639674703,"L"
298960,"19680 ROSLYN ROAD","DETROIT","MI",48221,42.437632439,-83.137579714,460,"19680 ROSLYN ROAD, DETROIT, MI, 48221","Match","Exact","19680 ROSLYN RD, DETROIT, MI, 48221",95506264,"R"
298961,"19680 SOUTH GREEN ROAD","OLATHE","KS",66083,38.771478147,-94.8766361899999,461,"19680 SOUTH GREEN ROAD, OLATHE, KS, 66083","Match","Non_Exact","19680 S GREEN RD, SPRING HILL, KS, 66083",91282710,"L"
298962,"19681 HUDSON CIR NW","ELK RIVER","MN",55330,45.3277508560001,-93.604620104,462,"19681 HUDSON CIR NW, ELK RIVER, MN, 55330","Match","Non_Exact","19681 HUDSON CIR, ELK RIVER, MN, 55330",97770079,"L"
298963,"19682 OCCIDENTAL LANE","HUNTINGTON BEACH","CA",92626,33.677099427,-117.967606086,463,"19682 OCCIDENTAL LANE, HUNTINGTON BEACH, CA, 92626","Match","Non_Exact","19682 OCCIDENTAL LN, HUNTINGTON BEACH, CA, 92646",144020710,"L"
298964,"19682 RIDGEWOOD PLACE","YORBA LINDA","CA",92886,33.8815339600001,-117.790354561,464,"19682 RIDGEWOOD PLACE, YORBA LINDA, CA, 92886","Match","Exact","19682 RIDGEWOOD PL, YORBA LINDA, CA, 92886",143996618,"R"
298965,"19683 HWY 1804","PIERRE","SD",57501,44.533808477,-100.451698946,465,"19683 HWY 1804, PIERRE, SD, 57501","Match","Exact","19683 HWY 1804, PIERRE, SD, 57501",633510331,"L"
298966,"19683 SW 93RD LANE","DUNNELLON","FL",34432,29.0860201620001,-82.447229452,466,"19683 SW 93RD LANE, DUNNELLON, FL, 34432","Match","Exact","19683 SW 93RD LN, DUNNELLON, FL, 34432",116734137,"L"
298967,"19684 NW 122ND STREET","LAKE BUTLER","FL",32054,30.003794112,-82.247918678,467,"19684 NW 122ND STREET, LAKE BUTLER, FL, 32054","Match","Non_Exact","19684 NW 122ND AVE, LAKE BUTLER, FL, 32054",606617456,"L"
298968,"19684 S 225TH PLACE","QUEEN CREEK","AZ",85142,NA,NA,468,"19684 S 225TH PLACE, QUEEN CREEK, AZ, 85142","No_Match",NA,NA,NA,NA
298969,"19685 405TH AVE","DELAVAN","MN",56023,43.771424939,-94.057459281,469,"19685 405TH AVE, DELAVAN, MN, 56023","Match","Exact","19685 405TH AVE, DELAVAN, MN, 56023",28619871,"L"
298970,"19685 LONG LAKE RANCH BLVD","LUTZ","FL",33558,28.1887187740001,-82.499331414,470,"19685 LONG LAKE RANCH BLVD, LUTZ, FL, 33558","Match","Exact","19685 LONG LAKE RANCH BLVD, LUTZ, FL, 33558",650545301,"L"
298971,"19685 NORTH 2400TH ROAD","AVON","IL",61415,40.629861997,-90.5364359449999,471,"19685 NORTH 2400TH ROAD, AVON, IL, 61415","Match","Exact","19685 N 2400TH RD, AVON, IL, 61415",5382589,"L"
298972,"19685 PINEHURST LANE","SALINAS","CA",93906,36.7459414080001,-121.630957408,472,"19685 PINEHURST LANE, SALINAS, CA, 93906","Match","Exact","19685 PINEHURST LN, SALINAS, CA, 93906",196822932,"R"
298973,"19688 CORWIN ROAD","APPLE VALLEY","CA",92307,34.550721142,-117.234877013,473,"19688 CORWIN ROAD, APPLE VALLEY, CA, 92307","Match","Exact","19688 CORWIN RD, APPLE VALLEY, CA, 92307",144575187,"L"
298974,"19689 7TH AVENUE 329","POULSBO","WA",98370,47.7407928750001,-122.639887694,474,"19689 7TH AVENUE 329, POULSBO, WA, 98370","Match","Non_Exact","19689 7TH AVE NE, POULSBO, WA, 98370",187657863,"L"
298975,"1969 200TH RD","SABETHA","KS",66534,39.928132803,-95.886957458,475,"1969 200TH RD, SABETHA, KS, 66534","Match","Exact","1969 200TH RD, SABETHA, KS, 66534",10198724,"L"
298976,"1969 8TH STREET LANE SE","HICKORY","NC",28602,35.701656518,-81.322325436,476,"1969 8TH STREET LANE SE, HICKORY, NC, 28602","Match","Exact","1969 8TH STREET LN SE, HICKORY, NC, 28602",45942908,"L"
298977,"1969 AFTON LANE","JACKSONVILLE","FL",32211,30.3428233710001,-81.57842012,477,"1969 AFTON LANE, JACKSONVILLE, FL, 32211","Match","Exact","1969 AFTON LN, JACKSONVILLE, FL, 32211",83903852,"L"
298978,"1969 AMSTERDAM AVE","NEW YORK","NY",10032,40.833175198,-73.941796138,478,"1969 AMSTERDAM AVE, NEW YORK, NY, 10032","Match","Exact","1969 AMSTERDAM AVE, NEW YORK, NY, 10032",59655771,"R"
298979,"1969 BERGEN ST 2B","BROOKLYN","NY",11233,40.6742275660001,-73.915574563,479,"1969 BERGEN ST 2B, BROOKLYN, NY, 11233","Match","Exact","1969 BERGEN ST, BROOKLYN, NY, 11233",59083746,"L"
298980,"1969 BRIDGEVIEW LANE","CONNEAUT","OH",44030,41.9198893070001,-80.611320141,480,"1969 BRIDGEVIEW LANE, CONNEAUT, OH, 44030","Match","Exact","1969 BRIDGEVIEW LN, CONNEAUT, OH, 44030",117329778,"L"
298981,"1969 BRIDGEVIEW LN","CONNEAUT","OH",44030,41.9198893070001,-80.611320141,481,"1969 BRIDGEVIEW LN, CONNEAUT, OH, 44030","Match","Exact","1969 BRIDGEVIEW LN, CONNEAUT, OH, 44030",117329778,"L"
298982,"1969 BRIGHTLEAF WAY","MARIETTA","GA",30060,33.9018396270001,-84.496260037,482,"1969 BRIGHTLEAF WAY, MARIETTA, GA, 30060","Match","Exact","1969 BRIGHTLEAF WAY, MARIETTA, GA, 30060",642999302,"L"
298983,"1969 BRUIN PLACE","CHESAPEAKE","VA",23321,36.8478038540001,-76.408155973,483,"1969 BRUIN PLACE, CHESAPEAKE, VA, 23321","Match","Exact","1969 BRUIN PL, CHESAPEAKE, VA, 23321",121786608,"R"
298984,"1969 BUCKTHORN RD","OAK HARBOR","WA",98277,48.2930370110001,-122.72208478,484,"1969 BUCKTHORN RD, OAK HARBOR, WA, 98277","Match","Exact","1969 BUCKTHORN RD, OAK HARBOR, WA, 98277",187589699,"L"
298985,"1969 BURNING WOODS CT SE","GRAND RAPIDS","MI",49546,42.927555888,-85.563364284,485,"1969 BURNING WOODS CT SE, GRAND RAPIDS, MI, 49546","Match","Exact","1969 BURNING WOODS CT SE, GRAND RAPIDS, MI, 49546",12483403,"R"
298986,"1969 CAMBRIDGE CR","TULARE","CA",93274,36.2322323930001,-119.346265424,486,"1969 CAMBRIDGE CR, TULARE, CA, 93274","Match","Non_Exact","1969 N CAMBRIDGE CIR, TULARE, CA, 93274",202795790,"R"
298987,"1969 CO RD 101","HESPERUS","CO",81326,37.1179703390001,-108.146276882,487,"1969 CO RD 101, HESPERUS, CO, 81326","Match","Exact","1969 CO RD 101, HESPERUS, CO, 81326",91705483,"L"
298988,"1969 COLONIAL PARK DR","HARTSVILLE","SC",29550,34.4141361850001,-80.122560946,488,"1969 COLONIAL PARK DR, HARTSVILLE, SC, 29550","Match","Exact","1969 COLONIAL PARK DR, HARTSVILLE, SC, 29550",78405659,"R"
298989,"1969 CORD 1050 N","SECOR","IL",61771,40.7429488340001,-89.165137984,489,"1969 CORD 1050 N, SECOR, IL, 61771","Match","Exact","1969 CO RD 1050 N, SECOR, IL, 61771",605084702,"R"
298990,"1969 COUNTY ROAD 43","MEEKER","CO",81641,39.9845122830001,-107.824080776,490,"1969 COUNTY ROAD 43, MEEKER, CO, 81641","Match","Exact","1969 CO RD 43, MEEKER, CO, 81641",126002364,"L"
298991,"1969 COVINGTON DRIVE","LEXINGTON","KY",40509,38.0376805120001,-84.439746692,491,"1969 COVINGTON DRIVE, LEXINGTON, KY, 40509","Match","Exact","1969 COVINGTON DR, LEXINGTON, KY, 40509",650847072,"R"
298992,"1969 CRYSTAL GROVE DR APT 31","LAKELAND","FL",33801,28.018850092,-81.914519599,492,"1969 CRYSTAL GROVE DR APT 31, LAKELAND, FL, 33801","Match","Exact","1969 CRYSTAL GROVE DR, LAKELAND, FL, 33801",635621433,"L"
298993,"1969 DAVIS COURT","SHAKOPEE","MN",55379,44.7856975450001,-93.496357231,493,"1969 DAVIS COURT, SHAKOPEE, MN, 55379","Match","Exact","1969 DAVIS CT, SHAKOPEE, MN, 55379",38140850,"R"
298994,"1969 DIPOL COURTWAY","TITUSVILLE","FL",32780,28.592907783,-80.8283064619999,494,"1969 DIPOL COURTWAY, TITUSVILLE, FL, 32780","Match","Exact","1969 DIPOL COURTWAY, TITUSVILLE, FL, 32780",93919288,"L"
298995,"1969 E BROADWAY RD STE 3","TEMPE","AZ",85282,33.4074937620001,-111.901454224,495,"1969 E BROADWAY RD STE 3, TEMPE, AZ, 85282","Match","Non_Exact","1969 E BROADWAY RD, TEMPE, AZ, 85282",128232379,"R"
298996,"1969 FALCON RIDGE","WATERLOO","IA",50701,42.4496068600001,-92.394908502,496,"1969 FALCON RIDGE, WATERLOO, IA, 50701","Match","Exact","1969 FALCON RIDGE, WATERLOO, IA, 50701",77261630,"R"
298997,"1969 GOLD DUST","LAKE HAVASU CITY","AZ",86404,34.520778647,-114.354394286,497,"1969 GOLD DUST, LAKE HAVASU CITY, AZ, 86404","Match","Non_Exact","1969 GOLD DUST DR, LAKE HAVASU CITY, AZ, 86404",190349353,"L"
298998,"1969 HADDAM PLACE","HOFFMAN ESTATES","IL",60169,42.0604816590001,-88.131456,498,"1969 HADDAM PLACE, HOFFMAN ESTATES, IL, 60169","Match","Exact","1969 HADDAM PL, HOFFMAN EST, IL, 60169",111691087,"R"
298999,"1969 HAFLA CT","TRACY","CA",95376,37.7150766240001,-121.451956655,499,"1969 HAFLA CT, TRACY, CA, 95376","Match","Exact","1969 HAFLA CT, TRACY, CA, 95376",600315830,"R"
299000,"1969 HARRINGTON AVENUE","OAKLAND","CA",94601,37.7809092700001,-122.216267997,500,"1969 HARRINGTON AVENUE, OAKLAND, CA, 94601","Match","Exact","1969 HARRINGTON AVE, OAKLAND, CA, 94601",125007297,"L"
