"ID","Address","City","State","Zip","lat","long","id","input_address","match_indicator","match_type","matched_address","tiger_line_id","tiger_side"
459001,"2910 7TH STREET","TUSCALOOSA","AL",35401,33.2059749970001,-87.574446113,1,"2910 7TH STREET, TUSCALOOSA, AL, 35401","Match","Exact","2910 7TH ST, TUSCALOOSA, AL, 35401",82147635,"R"
459002,"2910 ADMORE LANE","EVANS","GA",30809,33.5840317170001,-82.20341001,2,"2910 ADMORE LANE, EVANS, GA, 30809","Match","Exact","2910 ADMORE LN, EVANS, GA, 30809",641038465,"L"
459003,"2910 AIRPORT","CALDWELL","ID",83605,43.6438656920001,-116.703063616,3,"2910 AIRPORT, CALDWELL, ID, 83605","Match","Non_Exact","2910 AIRPORT AVE, CALDWELL, ID, 83605",122814963,"L"
459004,"2910 ALEXANDER STREET","FORT WAYNE","IN",46806,41.0589781480001,-85.10909573,4,"2910 ALEXANDER STREET, FORT WAYNE, IN, 46806","Match","Exact","2910 ALEXANDER ST, FORT WAYNE, IN, 46806",6383339,"R"
459005,"2910 ARCHIBALD AVE STE 10","ONTARIO","CA",91761,34.0204692080001,-117.593179228,5,"2910 ARCHIBALD AVE STE 10, ONTARIO, CA, 91761","Match","Non_Exact","2910 S ARCHIBALD AVE, ONTARIO, CA, 91761",144637984,"R"
459006,"2910 ARKANSAS","AMARILLO","TX",79108,35.302707549,-101.869126025,6,"2910 ARKANSAS, AMARILLO, TX, 79108","Match","Non_Exact","2910 ARKANSAS TRL, AMARILLO, TX, 79108",182480417,"L"
459007,"2910 ASTORIA BLVD APT 2","ASTORIA","NY",11102,NA,NA,7,"2910 ASTORIA BLVD APT 2, ASTORIA, NY, 11102","No_Match",NA,NA,NA,NA
459008,"2910 AVENUE C","BRADENTON BEACH","FL",34217,27.488231528,-82.7056782509999,8,"2910 AVENUE C, BRADENTON BEACH, FL, 34217","Match","Exact","2910 AVE C, BRADENTON BEACH, FL, 34217",16231439,"L"
459009,"2910 BAYONNE AVENUE","BALTIMORE","MD",21214,39.355193613,-76.561168438,9,"2910 BAYONNE AVENUE, BALTIMORE, MD, 21214","Match","Exact","2910 BAYONNE AVE, BALTIMORE, MD, 21214",206465406,"L"
459010,"2910 BELTLINE RD NUM 116","GARLAND","TX",75044,32.944652583,-96.671629047,10,"2910 BELTLINE RD NUM 116, GARLAND, TX, 75044","Match","Non_Exact","2910 BELT LINE RD, GARLAND, TX, 75044",651504705,"L"
459011,"2910 BERRY PATCH LANE","TEMPLETON","CA",93465,35.5787676740001,-120.644289517,11,"2910 BERRY PATCH LANE, TEMPLETON, CA, 93465","Match","Exact","2910 BERRY PATCH LN, TEMPLETON, CA, 93465",109899873,"R"
459012,"2910 BLENHEIM PARK","SAN ANTONIO","TX",78163,29.8052280270001,-98.514199974,12,"2910 BLENHEIM PARK, SAN ANTONIO, TX, 78163","Match","Non_Exact","2910 BLENHEIM PARK, BULVERDE, TX, 78163",650287630,"R"
459013,"2910 BLUE HOLLY LANE","HERNDON","VA",20171,38.927176049,-77.4109860679999,13,"2910 BLUE HOLLY LANE, HERNDON, VA, 20171","Match","Exact","2910 BLUE HOLLY LN, HERNDON, VA, 20171",215979023,"L"
459014,"2910 BLUFF CREEK DR","COLUMBIA","MO",65201,38.917877522,-92.297205069,14,"2910 BLUFF CREEK DR, COLUMBIA, MO, 65201","Match","Exact","2910 BLUFF CREEK DR, COLUMBIA, MO, 65201",23492208,"R"
459015,"2910 BROADMOOR DRIVE","BRYAN","TX",77802,30.663620607,-96.3398058609999,15,"2910 BROADMOOR DRIVE, BRYAN, TX, 77802","Match","Exact","2910 BROADMOOR DR, BRYAN, TX, 77802",21815522,"R"
459016,"2910 BUFORD DR APT 109","BUFORD","GA",30519,34.053352611,-83.9945632719999,16,"2910 BUFORD DR APT 109, BUFORD, GA, 30519","Match","Exact","2910 BUFORD DR, BUFORD, GA, 30519",647940069,"R"
459017,"2910 BUFORD DRIVE APT 705","BUFORD","GA",30519,34.053352611,-83.9945632719999,17,"2910 BUFORD DRIVE APT 705, BUFORD, GA, 30519","Match","Exact","2910 BUFORD DR, BUFORD, GA, 30519",647940069,"R"
459018,"2910 BUFORD DRIVE NO 427","BUFORD","GA",30519,34.053352611,-83.9945632719999,18,"2910 BUFORD DRIVE NO 427, BUFORD, GA, 30519","Match","Non_Exact","2910 BUFORD DR, BUFORD, GA, 30519",647940069,"R"
459019,"2910 BUFORD DRIVE","BUFORD","GA",31519,34.053352611,-83.9945632719999,19,"2910 BUFORD DRIVE, BUFORD, GA, 31519","Match","Non_Exact","2910 BUFORD DR, BUFORD, GA, 30519",647940069,"R"
459020,"2910 BUFORD HWY","BUFORD","GA",30510,NA,NA,20,"2910 BUFORD HWY, BUFORD, GA, 30510","No_Match",NA,NA,NA,NA
459021,"2910 CANYON CREST DR  APT  2","RIVERSIDE","CA",92507,33.986471942,-117.331101191,21,"2910 CANYON CREST DR  APT  2, RIVERSIDE, CA, 92507","Match","Exact","2910 CANYON CREST DR, RIVERSIDE, CA, 92507",194877027,"L"
459022,"2910 CARLA RD","ROWLETT","TX",75088,32.8876964500001,-96.5746908519999,22,"2910 CARLA RD, ROWLETT, TX, 75088","Match","Non_Exact","2910 CARLA DR, ROWLETT, TX, 75088",102981128,"L"
459023,"2910 CHARME DR","JACKSONVILLE","FL",32277,30.354033949,-81.595693016,23,"2910 CHARME DR, JACKSONVILLE, FL, 32277","Match","Exact","2910 CHARME DR, JACKSONVILLE, FL, 32277",83902829,"L"
459024,"2910 CHEERY MILL COURT","HOUSTON","TX",77059,29.601761546,-95.134129318,24,"2910 CHEERY MILL COURT, HOUSTON, TX, 77059","Match","Non_Exact","2910 CHERRY MILL CT, HOUSTON, TX, 77059",96546689,"L"
459025,"2910 CHERRY STREET","ANTIOCH","CA",94509,37.9949517100001,-121.840480929,25,"2910 CHERRY STREET, ANTIOCH, CA, 94509","Match","Exact","2910 CHERRY ST, ANTIOCH, CA, 94509",192089820,"R"
459026,"2910 CLARKSVILLE STREET","PARIS","TX",75460,33.6513213420001,-95.525656211,26,"2910 CLARKSVILLE STREET, PARIS, TX, 75460","Match","Exact","2910 CLARKSVILLE ST, PARIS, TX, 75460",63575313,"L"
459027,"2910 CLEAR HILL LN","MT AIRY","MD",21771,NA,NA,27,"2910 CLEAR HILL LN, MT AIRY, MD, 21771","Tie",NA,NA,NA,NA
459028,"2910 COMMERCIAL CENTER BLVD 103-142","KATY","TX",77494,29.7363834060001,-95.777935815,28,"2910 COMMERCIAL CENTER BLVD 103-142, KATY, TX, 77494","Match","Exact","2910 COMMERCIAL CENTER BLVD, KATY, TX, 77494",630494232,"R"
459029,"2910 COMMERCIAL CENTER BLVD STE 101","KATY","TX",77494,29.7363834060001,-95.777935815,29,"2910 COMMERCIAL CENTER BLVD STE 101, KATY, TX, 77494","Match","Exact","2910 COMMERCIAL CENTER BLVD, KATY, TX, 77494",630494232,"R"
459030,"2910 CROSSWHITE DRIVE","HERMITAGE","PA",16148,41.194666818,-80.44949382,30,"2910 CROSSWHITE DRIVE, HERMITAGE, PA, 16148","Match","Exact","2910 CROSSWHITE DR, HERMITAGE, PA, 16148",70655021,"L"
459031,"2910 CROYDON DR","CANTON","OH",44718,40.831302238,-81.405075462,31,"2910 CROYDON DR, CANTON, OH, 44718","Match","Non_Exact","2910 CROYDON DR NW, CANTON, OH, 44718",64677425,"L"
459032,"2910 DAWN AVE","ODESSA","TX",79762,31.8765841590001,-102.356290037,32,"2910 DAWN AVE, ODESSA, TX, 79762","Match","Exact","2910 DAWN AVE, ODESSA, TX, 79762",139430051,"R"
459033,"2910 DOUGLASS AVE","CRESTVIEW","FL",32539,30.771113976,-86.5507683179999,33,"2910 DOUGLASS AVE, CRESTVIEW, FL, 32539","Match","Exact","2910 DOUGLASS AVE, CRESTVIEW, FL, 32539",74397619,"L"
459034,"2910 DUPONT AVE N 1","MINNEAPOLIS","MN",55411,45.009833739,-93.293056739,34,"2910 DUPONT AVE N 1, MINNEAPOLIS, MN, 55411","Match","Exact","2910 DUPONT AVE N, MINNEAPOLIS, MN, 55411",43622439,"R"
459035,"2910 DUPONT AVE N 2","MINNEAPOLIS","MN",55411,45.009833739,-93.293056739,35,"2910 DUPONT AVE N 2, MINNEAPOLIS, MN, 55411","Match","Exact","2910 DUPONT AVE N, MINNEAPOLIS, MN, 55411",43622439,"R"
459036,"2910 DUSTY ROAD","FORNEY","TX",75126,32.704004625,-96.455174463,36,"2910 DUSTY ROAD, FORNEY, TX, 75126","Match","Exact","2910 DUSTY RD, FORNEY, TX, 75126",651951516,"R"
459037,"2910 E 2ND STREET","DULUTH","MN",55812,46.8160917390001,-92.064104478,37,"2910 E 2ND STREET, DULUTH, MN, 55812","Match","Exact","2910 E 2ND ST, DULUTH, MN, 55812",163212646,"R"
459038,"2910 E 57TH AVE SUITE 5 205","SPOKANE","WA",99223,47.6021953490001,-117.367973152,38,"2910 E 57TH AVE SUITE 5 205, SPOKANE, WA, 99223","Match","Non_Exact","2910 E 57TH AVE, SPOKANE, WA, 99223",605677434,"R"
459039,"2910 E 57TH SUITE 5 205","SPOKANE","WA",99223,NA,NA,39,"2910 E 57TH SUITE 5 205, SPOKANE, WA, 99223","No_Match",NA,NA,NA,NA
459040,"2910 E BAYARD ST EXT","SENECA FALLS","NY",13148,42.914067614,-76.770545242,40,"2910 E BAYARD ST EXT, SENECA FALLS, NY, 13148","Match","Non_Exact","2910 E BAYARD ST EXD, SENECA FALLS, NY, 13148",14682067,"R"
459041,"2910 E BLACKBRUSH RD","TUCSON","AZ",85756,32.0604681470001,-110.929998983,41,"2910 E BLACKBRUSH RD, TUCSON, AZ, 85756","Match","Exact","2910 E BLACKBRUSH RD, TUCSON, AZ, 85756",650623434,"R"
459042,"2910 E BRIGSTOCK RD","MIDLOTHIAN","VA",23113,37.536903405,-77.662186946,42,"2910 E BRIGSTOCK RD, MIDLOTHIAN, VA, 23113","Match","Exact","2910 E BRIGSTOCK RD, MIDLOTHIAN, VA, 23113",201528542,"L"
459043,"2910 E CROYDEN ST","TUCSON","AZ",85716,32.217420088,-110.929590188,43,"2910 E CROYDEN ST, TUCSON, AZ, 85716","Match","Exact","2910 E CROYDEN ST, TUCSON, AZ, 85716",121174619,"R"
459044,"2910 E FRANKLIN APT 1111","MINNEAPOLIS","MN",55406,NA,NA,44,"2910 E FRANKLIN APT 1111, MINNEAPOLIS, MN, 55406","No_Match",NA,NA,NA,NA
459045,"2910 E FRANKLIN AVE APT -2002","MINNEAPOLIS","MN",55406,44.962772085,-93.2295442659999,45,"2910 E FRANKLIN AVE APT -2002, MINNEAPOLIS, MN, 55406","Match","Non_Exact","2910 E FRANKLIN AVE, MINNEAPOLIS, MN, 55406",43638490,"L"
459046,"2910 E FRANKLIN AVE APT 1108","MINNEAPOLIS","MN",55404,NA,NA,46,"2910 E FRANKLIN AVE APT 1108, MINNEAPOLIS, MN, 55404","No_Match",NA,NA,NA,NA
459047,"2910 E FRANKLIN AVE APT 1611","MINNEAPOLIS","MN",55406,44.962772085,-93.2295442659999,47,"2910 E FRANKLIN AVE APT 1611, MINNEAPOLIS, MN, 55406","Match","Non_Exact","2910 E FRANKLIN AVE, MINNEAPOLIS, MN, 55406",43638490,"L"
459048,"2910 E FRANKLIN AVE APT 1802","MINNEAPOLIS","MN",55406,44.962772085,-93.2295442659999,48,"2910 E FRANKLIN AVE APT 1802, MINNEAPOLIS, MN, 55406","Match","Non_Exact","2910 E FRANKLIN AVE, MINNEAPOLIS, MN, 55406",43638490,"L"
459049,"2910 E GLENN ST","TUCSON","AZ",85716,32.2576606860001,-110.929384211,49,"2910 E GLENN ST, TUCSON, AZ, 85716","Match","Exact","2910 E GLENN ST, TUCSON, AZ, 85716",121168584,"R"
459050,"2910 E MITCHELL ST","ARLINGTON","TX",76010,32.7260025780001,-97.058060466,50,"2910 E MITCHELL ST, ARLINGTON, TX, 76010","Match","Exact","2910 E MITCHELL ST, ARLINGTON, TX, 76010",101913261,"R"
459051,"2910 E ORANGE GROVE BLVD","PASADENA","CA",91107,34.1584757320001,-118.090220944,51,"2910 E ORANGE GROVE BLVD, PASADENA, CA, 91107","Match","Exact","2910 E ORANGE GROVE BLVD, PASADENA, CA, 91107",141632636,"R"
459052,"2910 EAST FRANKLIN AVE","MINNEAPOLIS","MN",55406,44.9627720780001,-93.22954713,52,"2910 EAST FRANKLIN AVE, MINNEAPOLIS, MN, 55406","Match","Exact","2910 E FRANKLIN AVE, MINNEAPOLIS, MN, 55406",43638490,"L"
459053,"2910 EVANS MILL RD B118","LITHONIA","GA",30038,33.6996788120001,-84.1183720239999,53,"2910 EVANS MILL RD B118, LITHONIA, GA, 30038","Match","Exact","2910 EVANS MILL RD, LITHONIA, GA, 30038",619388550,"L"
459054,"2910 EVANS MILL RD STE B339","LITHONIA","GA",30038,33.6996788120001,-84.1183720239999,54,"2910 EVANS MILL RD STE B339, LITHONIA, GA, 30038","Match","Exact","2910 EVANS MILL RD, LITHONIA, GA, 30038",619388550,"L"
459055,"2910 EVANS MILLS ROAD","LITHONIA","GA",30038,33.6996788120001,-84.1183720239999,55,"2910 EVANS MILLS ROAD, LITHONIA, GA, 30038","Match","Non_Exact","2910 EVANS MILL RD, LITHONIA, GA, 30038",619388550,"L"
459056,"2910 FILLMORE STREET","ALAMEDA","CA",94501,37.7550148940001,-122.239370942,56,"2910 FILLMORE STREET, ALAMEDA, CA, 94501","Match","Exact","2910 FILLMORE ST, ALAMEDA, CA, 94501",125006790,"R"
459057,"2910 FIRETHORN DRIVE","HIGH POINT","NC",27265,36.0141739220001,-79.960715858,57,"2910 FIRETHORN DRIVE, HIGH POINT, NC, 27265","Match","Exact","2910 FIRETHORN DR, HIGH POINT, NC, 27265",640602630,"L"
459058,"2910 FIREWALK TRACE","KATY","TX",77494,29.7477558350001,-95.859502009,58,"2910 FIREWALK TRACE, KATY, TX, 77494","Match","Exact","2910 FIREWALK TRCE, KATY, TX, 77494",625668427,"L"
459059,"2910 GEORGIA AVENUE","WASHINGTON DC","DC",20001,38.9274436210001,-77.0229994759999,59,"2910 GEORGIA AVENUE, WASHINGTON DC, DC, 20001","Match","Non_Exact","2910 GEORGIA AVE NW, WASHINGTON, DC, 20001",76224188,"L"
459060,"2910 GESSNER","HOUSTON","TX",77080,29.8251543220001,-95.545259005,60,"2910 GESSNER, HOUSTON, TX, 77080","Match","Non_Exact","2910 GESSNER RD, HOUSTON, TX, 77080",96639104,"R"
459061,"2910 GRAND CONCOURSE","BRONX","NY",10458,40.871128975,-73.8889750669999,61,"2910 GRAND CONCOURSE, BRONX, NY, 10458","Match","Exact","2910 GRAND CONCOURSE, BRONX, NY, 10458",641262441,"R"
459062,"2910 GREENWAY DR","ROCKWALL","TX",75087,32.96306896,-96.458676989,62,"2910 GREENWAY DR, ROCKWALL, TX, 75087","Match","Exact","2910 GREENWAY DR, ROCKWALL, TX, 75087",648031572,"L"
459063,"2910 HANES AVE","RICHMOND","VA",23222,37.5703286290001,-77.435187915,63,"2910 HANES AVE, RICHMOND, VA, 23222","Match","Exact","2910 HANES AVE, RICHMOND, VA, 23222",201539563,"L"
459064,"2910 HEMINGWAY DRIVE APT 102","CHASKA","MN",55318,NA,NA,64,"2910 HEMINGWAY DRIVE APT 102, CHASKA, MN, 55318","No_Match",NA,NA,NA,NA
459065,"2910 HENRIETTA ST","ST LOUIS","MO",63104,38.616530104,-90.227908161,65,"2910 HENRIETTA ST, ST LOUIS, MO, 63104","Match","Exact","2910 HENRIETTA ST, SAINT LOUIS, MO, 63104",107598407,"L"
459066,"2910 HERON DRIVE","GALVESTON","TX",77551,29.2734026110001,-94.823003984,66,"2910 HERON DRIVE, GALVESTON, TX, 77551","Match","Exact","2910 HERON DR, GALVESTON, TX, 77551",96678845,"L"
459067,"2910 HIGHLAND AVE","MERIDIAN","MS",39307,32.3882750500001,-88.716650832,67,"2910 HIGHLAND AVE, MERIDIAN, MS, 39307","Match","Exact","2910 HIGHLAND AVE, MERIDIAN, MS, 39307",607985636,"R"
459068,"2910 HOYT ST","CHATTANOOGA","TN",37404,35.0461196590001,-85.248779366,68,"2910 HOYT ST, CHATTANOOGA, TN, 37404","Match","Non_Exact","2910 W HOYT ST, CHATTANOOGA, TN, 37404",59309668,"R"
459069,"2910 INLAND EMPIRE BLVD STE 106","ONTARIO","CA",91764,NA,NA,69,"2910 INLAND EMPIRE BLVD STE 106, ONTARIO, CA, 91764","No_Match",NA,NA,NA,NA
459070,"2910 KAMERIN STREET","RANDLEMAN","NC",27317,35.786269659,-79.80668979,70,"2910 KAMERIN STREET, RANDLEMAN, NC, 27317","Match","Exact","2910 KAMERIN ST, RANDLEMAN, NC, 27317",20437347,"R"
459071,"2910 KERRY FOREST PKWY D4 302","TALLAHASSEE","FL",32309,30.541667633,-84.2266529299999,71,"2910 KERRY FOREST PKWY D4 302, TALLAHASSEE, FL, 32309","Match","Exact","2910 KERRY FOREST PKWY, TALLAHASSEE, FL, 32309",82880310,"R"
459072,"2910 KIMBALL COURT UNIT 8","PORT TOWNSEND","WA",98368,48.1217081070001,-122.784204384,72,"2910 KIMBALL COURT UNIT 8, PORT TOWNSEND, WA, 98368","Match","Exact","2910 KIMBALL CT, PORT TOWNSEND, WA, 98368",624278812,"L"
459073,"2910 LAKE COMMONS DR","SNELLVILLE","GA",30078,33.8508372740001,-83.987341081,73,"2910 LAKE COMMONS DR, SNELLVILLE, GA, 30078","Match","Exact","2910 LAKE COMMONS DR, SNELLVILLE, GA, 30078",88942409,"R"
459074,"2910 LAKE VILLA DR","MISSOURI CITY","TX",77459,29.544741704,-95.5197042199999,74,"2910 LAKE VILLA DR, MISSOURI CITY, TX, 77459","Match","Exact","2910 LAKE VILLA DR, MISSOURI CITY, TX, 77459",624672041,"L"
459075,"2910 LANCASTER RD","WILSON","NC",27896,35.764693397,-77.94525716,75,"2910 LANCASTER RD, WILSON, NC, 27896","Match","Non_Exact","2910 LANCASTER RD NW, WILSON, NC, 27896",26730577,"R"
459076,"2910 LAWNTON AVE","BRISTOL","PA",19007,40.103532279,-74.8851625729999,76,"2910 LAWNTON AVE, BRISTOL, PA, 19007","Match","Exact","2910 LAWNTON AVE, BRISTOL, PA, 19007",134716623,"R"
459077,"2910 LEAR DRIVE","CAPE GIRARDEAU","MO",63701,37.316837836,-89.5648648169999,77,"2910 LEAR DRIVE, CAPE GIRARDEAU, MO, 63701","Match","Exact","2910 LEAR DR, CAPE GIRARDEAU, MO, 63701",35182308,"R"
459078,"2910 LEWALLEN","DECATUR","IL",62521,39.8055765830001,-88.9022610549999,78,"2910 LEWALLEN, DECATUR, IL, 62521","Match","Non_Exact","2910 LEWALLEN PL, DECATUR, IL, 62521",20750367,"L"
459079,"2910 LIGHTNING BUG DRIVE","MURFREESBORO","TN",37129,35.8937204010001,-86.484467737,79,"2910 LIGHTNING BUG DRIVE, MURFREESBORO, TN, 37129","Match","Exact","2910 LIGHTNING BUG DR, MURFREESBORO, TN, 37129",636471686,"R"
459080,"2910 LIVE OAK DRIVE","ROWLETT","TX",75088,32.887286574,-96.573662385,80,"2910 LIVE OAK DRIVE, ROWLETT, TX, 75088","Match","Exact","2910 LIVE OAK DR, ROWLETT, TX, 75088",102981126,"L"
459081,"2910 LLOYD COURT","TEMPLE HILLS","MD",20748,38.8453141250001,-76.956528562,81,"2910 LLOYD COURT, TEMPLE HILLS, MD, 20748","Match","Exact","2910 LLOYD CT, TEMPLE HILLS, MD, 20748",76348410,"R"
459082,"2910 LOCUST AVE W","UNIVERSITY PLACE","WA",98466,47.233179142,-122.544036962,82,"2910 LOCUST AVE W, UNIVERSITY PLACE, WA, 98466","Match","Exact","2910 LOCUST AVE W, UNIVERSITY PLACE, WA, 98466",184618914,"R"
459083,"2910 MAGNOLIA PLACE","HATTIESBURG","MS",39402,31.3069780060001,-89.335440719,83,"2910 MAGNOLIA PLACE, HATTIESBURG, MS, 39402","Match","Exact","2910 MAGNOLIA PL, HATTIESBURG, MS, 39402",334512,"L"
459084,"2910 MARSH BREEZE LN","MT PLEASANT","SC",29466,32.8921897990001,-79.8259953149999,84,"2910 MARSH BREEZE LN, MT PLEASANT, SC, 29466","Match","Exact","2910 MARSH BREEZE LN, MOUNT PLEASANT, SC, 29466",108888162,"L"
459085,"2910 MCCOLLUM PARK RD","BEACH CITY","TX",77523,NA,NA,85,"2910 MCCOLLUM PARK RD, BEACH CITY, TX, 77523","No_Match",NA,NA,NA,NA
459086,"2910 MEADOW FARMS LN","LOUISVILLE","KY",40245,38.277946521,-85.480668737,86,"2910 MEADOW FARMS LN, LOUISVILLE, KY, 40245","Match","Non_Exact","2910 MEADOW FARMS PL, LOUISVILLE, KY, 40245",96937501,"L"
459087,"2910 MEADOW FARMS PL","LOUISVILLE","KY",40245,38.277946521,-85.480668737,87,"2910 MEADOW FARMS PL, LOUISVILLE, KY, 40245","Match","Exact","2910 MEADOW FARMS PL, LOUISVILLE, KY, 40245",96937501,"L"
459088,"2910 MEADOW THRUSH","SAN ANTONIO","TX",78231,29.5742021900001,-98.541283396,88,"2910 MEADOW THRUSH, SAN ANTONIO, TX, 78231","Match","Non_Exact","2910 MEADOW THRUSH ST, SAN ANTONIO, TX, 78231",101492036,"R"
459089,"2910 MONTBELLE DRIVE","KNOXVILLE","TN",37918,36.0418255500001,-83.935365605,89,"2910 MONTBELLE DRIVE, KNOXVILLE, TN, 37918","Match","Exact","2910 MONTBELLE DR, KNOXVILLE, TN, 37918",604667348,"R"
459090,"2910 MORRISON AVE","BISMARCK","ND",58504,NA,NA,90,"2910 MORRISON AVE, BISMARCK, ND, 58504","No_Match",NA,NA,NA,NA
459091,"2910 MUD HOUSE RD","LANCASTER","OH",43130,39.7555973230001,-82.541652315,91,"2910 MUD HOUSE RD, LANCASTER, OH, 43130","Match","Non_Exact","2910 MUD HOUSE RD NE, LANCASTER, OH, 43130",624493786,"L"
459092,"2910 N 28TH STREET","TACOMA","WA",98407,47.2728632880001,-122.47445258,92,"2910 N 28TH STREET, TACOMA, WA, 98407","Match","Exact","2910 N 28TH ST, TACOMA, WA, 98407",184645077,"L"
459093,"2910 N CENTRAL AVE","CHICAGO","IL",60634,41.9334076960001,-87.76632509,93,"2910 N CENTRAL AVE, CHICAGO, IL, 60634","Match","Exact","2910 N CENTRAL AVE, CHICAGO, IL, 60634",111751958,"L"
459094,"2910 N HILL PARKWAY","ATLANTA","GA",30341,33.9152030720001,-84.294825868,94,"2910 N HILL PARKWAY, ATLANTA, GA, 30341","Match","Exact","2910 N HILL PKWY, ATLANTA, GA, 30341",23390550,"L"
459095,"2910 N PARHAM RD","HENRICO","VA",23294,37.628459772,-77.546053983,95,"2910 N PARHAM RD, HENRICO, VA, 23294","Match","Exact","2910 N PARHAM RD, HENRICO, VA, 23294",106675794,"L"
459096,"2910 N POWERS BLVD  APT 220","COLORADO SPRINGS","CO",80922,NA,NA,96,"2910 N POWERS BLVD  APT 220, COLORADO SPRINGS, CO, 80922","No_Match",NA,NA,NA,NA
459097,"2910 N ROCKWELL ST","CHICAGO","IL",60618,41.9343637530001,-87.692801649,97,"2910 N ROCKWELL ST, CHICAGO, IL, 60618","Match","Exact","2910 N ROCKWELL ST, CHICAGO, IL, 60618",605207155,"L"
459098,"2910 NE 8TH TER APT 203","WILTON MANORS","FL",33334,26.166239864,-80.136699057,98,"2910 NE 8TH TER APT 203, WILTON MANORS, FL, 33334","Match","Non_Exact","2910 NE 8TH TER, WILTON MANORS, FL, 33334",637132321,"L"
459099,"2910 NEW HAVEN DRIVE APT 101","DURHAM","NC",27703,35.93824355,-78.845945676,99,"2910 NEW HAVEN DRIVE APT 101, DURHAM, NC, 27703","Match","Non_Exact","2910 NEW HAVEN DR, DURHAM, NC, 27703",71766806,"L"
459100,"2910 NORTH SHOREVIEW PLACE","TAMPA","FL",33602,27.9702865190001,-82.479307438,100,"2910 NORTH SHOREVIEW PLACE, TAMPA, FL, 33602","Match","Exact","2910 N SHOREVIEW PL, TAMPA, FL, 33602",104700901,"R"
459101,"2910 NW 52ND WAY","MARGATE","FL",33063,26.2642303820001,-80.19343665,101,"2910 NW 52ND WAY, MARGATE, FL, 33063","Match","Exact","2910 NW 52ND WAY, MARGATE, FL, 33063",114739135,"R"
459102,"2910 OAKDAL PL","BARTLESVILLE","OK",74006,NA,NA,102,"2910 OAKDAL PL, BARTLESVILLE, OK, 74006","No_Match",NA,NA,NA,NA
459103,"2910 OAKLAND DR","SUGAR LAND","TX",77479,29.5707140050001,-95.634017382,103,"2910 OAKLAND DR, SUGAR LAND, TX, 77479","Match","Exact","2910 OAKLAND DR, SUGAR LAND, TX, 77479",78288391,"R"
459104,"2910 OLIVE ST","FORT COLLINS","CO",80525,NA,NA,104,"2910 OLIVE ST, FORT COLLINS, CO, 80525","No_Match",NA,NA,NA,NA
459105,"2910 ONEILL DRIVE","BETHEL PARK","PA",15102,40.3201775850001,-80.03858573,105,"2910 ONEILL DRIVE, BETHEL PARK, PA, 15102","Match","Non_Exact","2910 O NEILL DR, BETHEL PARK, PA, 15102",51688885,"R"
459106,"2910 PARIS ROAD","OLYMPIA FIELDS","IL",60461,41.5113479140001,-87.686124824,106,"2910 PARIS ROAD, OLYMPIA FIELDS, IL, 60461","Match","Exact","2910 PARIS RD, OLYMPIA FIELDS, IL, 60461",112217664,"R"
459107,"2910 PARKWAY AVE","CHARLOTTE","NC",28208,35.2425276230001,-80.8778071629999,107,"2910 PARKWAY AVE, CHARLOTTE, NC, 28208","Match","Exact","2910 PARKWAY AVE, CHARLOTTE, NC, 28208",70476812,"R"
459108,"2910 PARKWAY AVENUE","CHARLOTTE","NC",28208,35.2425276230001,-80.8778071629999,108,"2910 PARKWAY AVENUE, CHARLOTTE, NC, 28208","Match","Exact","2910 PARKWAY AVE, CHARLOTTE, NC, 28208",70476812,"R"
459109,"2910 PARKWOOD AVE","RICHMOND","VA",23221,37.551234762,-77.478025144,109,"2910 PARKWOOD AVE, RICHMOND, VA, 23221","Match","Exact","2910 PARKWOOD AVE, RICHMOND, VA, 23221",610882980,"R"
459110,"2910 PARKWOOD DR","ROGERS","AR",72756,36.3369406050001,-94.158437099,110,"2910 PARKWOOD DR, ROGERS, AR, 72756","Match","Exact","2910 PARKWOOD DR, ROGERS, AR, 72756",47850761,"L"
459111,"2910 PEEBLES ROAD","TROY","OH",45373,40.0316310090001,-84.258030919,111,"2910 PEEBLES ROAD, TROY, OH, 45373","Match","Exact","2910 PEEBLES RD, TROY, OH, 45373",207643446,"R"
459112,"2910 PERDIDO BAY LANE","PEARLAND","TX",77584,29.558248215,-95.422054728,112,"2910 PERDIDO BAY LANE, PEARLAND, TX, 77584","Match","Exact","2910 PERDIDO BAY LN, PEARLAND, TX, 77584",627642660,"R"
459113,"2910 PILLAR LANE","AUGUSTA","GA",30909,33.4637295590001,-82.110358461,113,"2910 PILLAR LANE, AUGUSTA, GA, 30909","Match","Exact","2910 PILLAR LN, AUGUSTA, GA, 30909",55655620,"L"
459114,"2910 PILLSBURY AVE STE 344","MINNEAPOLIS","MN",55408,44.9502555970001,-93.281346123,114,"2910 PILLSBURY AVE STE 344, MINNEAPOLIS, MN, 55408","Match","Non_Exact","2910 PILLSBURY AVE S, MINNEAPOLIS, MN, 55408",636264540,"R"
459115,"2910 PILLSBURY AVENUE SOUTH 204A","MINNEAPOLIS","MN",55408,44.9502555970001,-93.281346123,115,"2910 PILLSBURY AVENUE SOUTH 204A, MINNEAPOLIS, MN, 55408","Match","Exact","2910 PILLSBURY AVE S, MINNEAPOLIS, MN, 55408",636264540,"R"
459116,"2910 PILLSBURY AVENUE SOUTH 204A","SAINT PAUL","MN",55117,NA,NA,116,"2910 PILLSBURY AVENUE SOUTH 204A, SAINT PAUL, MN, 55117","No_Match",NA,NA,NA,NA
459117,"2910 PILSBURY AVE","MINNEAPOLIS","MN",55408,44.9502555970001,-93.281346123,117,"2910 PILSBURY AVE, MINNEAPOLIS, MN, 55408","Match","Non_Exact","2910 PILLSBURY AVE S, MINNEAPOLIS, MN, 55408",636264540,"R"
459118,"2910 PINDELL LANE","LOUISVILLE","KY",40217,38.2102396430001,-85.731025927,118,"2910 PINDELL LANE, LOUISVILLE, KY, 40217","Match","Non_Exact","2910 PINDELL AVE, LOUISVILLE, KY, 40217",96847463,"R"
459119,"2910 PINKERTON LANE","ZANESVILLE","OH",43701,39.8964885660001,-82.043613341,119,"2910 PINKERTON LANE, ZANESVILLE, OH, 43701","Match","Exact","2910 PINKERTON LN, ZANESVILLE, OH, 43701",606097587,"R"
459120,"2910 POLO COURT","SWANSEA","IL",62226,38.5466977660001,-89.9953998889999,120,"2910 POLO COURT, SWANSEA, IL, 62226","Match","Exact","2910 POLO CT, SWANSEA, IL, 62226",107865993,"L"
459121,"2910 RAINBOW COURT","MASON CITY","IA",50401,43.1584007450001,-93.2437694559999,121,"2910 RAINBOW COURT, MASON CITY, IA, 50401","Match","Non_Exact","2910 RAINBOW DR, MASON CITY, IA, 50401",617525799,"R"
459122,"2910 RAINBOW DRIVE","MASON CITY","IA",50401,43.1584007450001,-93.2437694559999,122,"2910 RAINBOW DRIVE, MASON CITY, IA, 50401","Match","Exact","2910 RAINBOW DR, MASON CITY, IA, 50401",617525799,"R"
459123,"2910 REED APT 518","HOUSTON","TX",77051,29.657862476,-95.382366314,123,"2910 REED APT 518, HOUSTON, TX, 77051","Match","Non_Exact","2910 REED RD, HOUSTON, TX, 77051",638161399,"R"
459124,"2910 RIVERMONT AVE 304","LYNCHBURG","VA",24503,37.4374682110001,-79.1761941249999,124,"2910 RIVERMONT AVE 304, LYNCHBURG, VA, 24503","Match","Exact","2910 RIVERMONT AVE, LYNCHBURG, VA, 24503",62739905,"R"
459125,"2910 ROBESON PARK DR","CHAMPAIGN","IL",61822,40.089682537,-88.292848614,125,"2910 ROBESON PARK DR, CHAMPAIGN, IL, 61822","Match","Exact","2910 ROBESON PARK DR, CHAMPAIGN, IL, 61822",8827790,"L"
459126,"2910 S 18TH ST","LAFAYETTE","IN",47909,40.38763737,-86.8762932879999,126,"2910 S 18TH ST, LAFAYETTE, IN, 47909","Match","Exact","2910 S 18TH ST, LAFAYETTE, IN, 47909",27308848,"R"
459127,"2910 S ARCHIBALD AVENUE SUITE A 480","ONTARIO","CA",91761,34.0204595820001,-117.593179138,127,"2910 S ARCHIBALD AVENUE SUITE A 480, ONTARIO, CA, 91761","Match","Non_Exact","2910 S ARCHIBALD AVE, ONTARIO, CA, 91761",144637984,"R"
459128,"2910 S GREENVILLE ST UNIT E","SANTA ANA","CA",92704,33.708455153,-117.904119262,128,"2910 S GREENVILLE ST UNIT E, SANTA ANA, CA, 92704","Match","Non_Exact","2910 S GREENVILLE ST, SANTA ANA, CA, 92704",609060866,"R"
459129,"2910 S NORMAL AVE","CHICAGO","IL",60616,41.841480571,-87.639062762,129,"2910 S NORMAL AVE, CHICAGO, IL, 60616","Match","Exact","2910 S NORMAL AVE, CHICAGO, IL, 60616",111828634,"R"
459130,"2910 S18TH ST","LAFAYETTE","IN",47909,NA,NA,130,"2910 S18TH ST, LAFAYETTE, IN, 47909","No_Match",NA,NA,NA,NA
459131,"2910 SAN ISIDRO COURT","SANTA FE","NM",87507,35.6638546300001,-105.997741321,131,"2910 SAN ISIDRO COURT, SANTA FE, NM, 87507","Match","Exact","2910 SAN ISIDRO CT, SANTA FE, NM, 87507",169417618,"L"
459132,"2910 SE 13TH RD UNIT 106","HOMESTEAD","FL",33035,25.4424635010001,-80.4572127929999,132,"2910 SE 13TH RD UNIT 106, HOMESTEAD, FL, 33035","Match","Non_Exact","2910 SE 13TH RD, HOMESTEAD, FL, 33035",634011046,"L"
459133,"2910 SHERIDAN RD","BELLEVUE","NE",68123,41.1108740700001,-95.953788741,133,"2910 SHERIDAN RD, BELLEVUE, NE, 68123","Match","Exact","2910 SHERIDAN RD, BELLEVUE, NE, 68123",653355301,"L"
459134,"2910 SHOREHAM DRIVE","RICHMOND","VA",23235,37.5348833090001,-77.585332421,134,"2910 SHOREHAM DRIVE, RICHMOND, VA, 23235","Match","Exact","2910 SHOREHAM DR, RICHMOND, VA, 23235",201530694,"L"
459135,"2910 SNOW CREEK LANE","ONTARIO","CA",91761,34.0203130250001,-117.568029142,135,"2910 SNOW CREEK LANE, ONTARIO, CA, 91761","Match","Exact","2910 SNOW CREEK LN, ONTARIO, CA, 91761",144965376,"R"
459136,"2910 SOMMER STAR ROAD","PLACERVILLE","CA",95667,38.704540498,-120.673785306,136,"2910 SOMMER STAR ROAD, PLACERVILLE, CA, 95667","Match","Exact","2910 SOMMER STAR RD, PLACERVILLE, CA, 95667",133072832,"L"
459137,"2910 SOUTH ARCHIBALD AVE SUITE A170","ONTARIO","CA",91761,34.0204692080001,-117.593179228,137,"2910 SOUTH ARCHIBALD AVE SUITE A170, ONTARIO, CA, 91761","Match","Exact","2910 S ARCHIBALD AVE, ONTARIO, CA, 91761",144637984,"R"
459138,"2910 STATE ROUTE 30","SPECULATOR","NY",12164,43.5002184680001,-74.363200666,138,"2910 STATE ROUTE 30, SPECULATOR, NY, 12164","Match","Exact","2910 STATE RTE 30, SPECULATOR, NY, 12164",153686662,"R"
459139,"2910 STATE ROUTE 91","PRINCEVILLE","IL",61559,41.010689762,-89.754273197,139,"2910 STATE ROUTE 91, PRINCEVILLE, IL, 61559","Match","Exact","2910 STATE RTE 91, PRINCEVILLE, IL, 61559",8978994,"R"
459140,"2910 STEELE RD","VERSAILLES","KY",40383,NA,NA,140,"2910 STEELE RD, VERSAILLES, KY, 40383","No_Match",NA,NA,NA,NA
459141,"2910 STERRETTANIA ROAD","ERIE","PA",16506,42.0843369900001,-80.1396109679999,141,"2910 STERRETTANIA ROAD, ERIE, PA, 16506","Match","Exact","2910 STERRETTANIA RD, ERIE, PA, 16506",117495529,"R"
459142,"2910 STILLWOOD WAY","OPELIKA","AL",36804,32.614338479,-85.377661485,142,"2910 STILLWOOD WAY, OPELIKA, AL, 36804","Match","Exact","2910 STILLWOOD WAY, OPELIKA, AL, 36804",632868826,"R"
459143,"2910 STONEHEDGE COURT","MATHEWS","NC",28105,35.1197152780001,-80.672773015,143,"2910 STONEHEDGE COURT, MATHEWS, NC, 28105","Match","Non_Exact","2910 STONEHEDGE CT, MATTHEWS, NC, 28105",70536458,"L"
459144,"2910 STONEWOOD CIRCLE","LAKELAND","FL",33810,28.087393949,-82.004345811,144,"2910 STONEWOOD CIRCLE, LAKELAND, FL, 33810","Match","Exact","2910 STONEWOOD CIR, LAKELAND, FL, 33810",628011531,"R"
459145,"2910 SW PARK TERR","ALBANY","OR",97321,44.6150682780001,-123.121994318,145,"2910 SW PARK TERR, ALBANY, OR, 97321","Match","Non_Exact","2910 PARK TER SW, ALBANY, OR, 97321",156081707,"L"
459146,"2910 TAIT TERRACE","NORFOLK","VA",23509,36.867259206,-76.254624129,146,"2910 TAIT TERRACE, NORFOLK, VA, 23509","Match","Exact","2910 TAIT TER, NORFOLK, VA, 23509",122124353,"L"
459147,"2910 TEPUSQUET RD","SANTA MARIA","CA",93454,34.941834498,-120.227858917,147,"2910 TEPUSQUET RD, SANTA MARIA, CA, 93454","Match","Exact","2910 TEPUSQUET RD, SANTA MARIA, CA, 93454",108636757,"R"
459148,"2910 THREECHOPT ROAD","HAMPTON","VA",23666,37.03485463,-76.4221246279999,148,"2910 THREECHOPT ROAD, HAMPTON, VA, 23666","Match","Exact","2910 THREECHOPT RD, HAMPTON, VA, 23666",103804428,"R"
459149,"2910 TYRON CIRCLE","TALLAHASSEE","FL",32309,30.5221081190001,-84.213861277,149,"2910 TYRON CIRCLE, TALLAHASSEE, FL, 32309","Match","Exact","2910 TYRON CIR, TALLAHASSEE, FL, 32309",82846697,"L"
459150,"2910 W LAKE MARY BL","LAKE MARY","FL",32746,NA,NA,150,"2910 W LAKE MARY BL, LAKE MARY, FL, 32746","No_Match",NA,NA,NA,NA
459151,"2910 W LATAHM ST","PHOENIX","AZ",85009,33.460737898,-112.122059933,151,"2910 W LATAHM ST, PHOENIX, AZ, 85009","Match","Non_Exact","2910 W LATHAM ST, PHOENIX, AZ, 85009",128210206,"R"
459152,"2910 W LATHAM ST","PHOENIX","AZ",85009,33.460737898,-112.122059933,152,"2910 W LATHAM ST, PHOENIX, AZ, 85009","Match","Exact","2910 W LATHAM ST, PHOENIX, AZ, 85009",128210206,"R"
459153,"2910 WATSON STREET","PORTSMOUTH","VA",23707,36.832871421,-76.336975191,153,"2910 WATSON STREET, PORTSMOUTH, VA, 23707","Match","Exact","2910 WATSON ST, PORTSMOUTH, VA, 23707",122193882,"R"
459154,"2910 WELLINGTON PLACE","MURFREESBORO","TN",37128,35.831319611,-86.446630534,154,"2910 WELLINGTON PLACE, MURFREESBORO, TN, 37128","Match","Exact","2910 WELLINGTON PL, MURFREESBORO, TN, 37128",59039936,"R"
459155,"2910 WEST MLK JR BLVD","LOS ANGELES","CA",90008,34.010875437,-118.325231807,155,"2910 WEST MLK JR BLVD, LOS ANGELES, CA, 90008","Match","Exact","2910 W MARTIN LUTHER KING JR BLVD, LOS ANGELES, CA, 90008",141602641,"L"
459156,"2910 WILLOW MOUND LN","FLORISSANT","MO",63033,38.8203640840001,-90.3159807169999,156,"2910 WILLOW MOUND LN, FLORISSANT, MO, 63033","Match","Non_Exact","2910 WILLOW MOUND LN, FLORISSANT, MO, 63031",100165095,"R"
459157,"2910 WILMANS DR","BALD KNOB","AR",72010,NA,NA,157,"2910 WILMANS DR, BALD KNOB, AR, 72010","No_Match",NA,NA,NA,NA
459158,"2910 WINTER PARK PLACE","MADISON","WI",53719,43.0207929810001,-89.520326155,158,"2910 WINTER PARK PLACE, MADISON, WI, 53719","Match","Exact","2910 WINTER PARK PL, MADISON, WI, 53719",632416090,"R"
459159,"2910 YOUPON GLEN WAY","FRESNO","TX",77545,29.543273862,-95.491785224,159,"2910 YOUPON GLEN WAY, FRESNO, TX, 77545","Match","Exact","2910 YOUPON GLEN WAY, FRESNO, TX, 77545",635208407,"R"
459160,"2910-B EVANS MILL RD SUITE B107","LITHONIA","GA",30038,33.6996788120001,-84.1183720239999,160,"2910-B EVANS MILL RD SUITE B107, LITHONIA, GA, 30038","Match","Exact","2910 EVANS MILL RD, LITHONIA, GA, 30038",619388550,"L"
459161,"2910-C WEST LONG CIRCLE","LITTLETON","CO",80120,39.574334155,-105.025119945,161,"2910-C WEST LONG CIRCLE, LITTLETON, CO, 80120","Match","Exact","2910 W LONG CIR, LITTLETON, CO, 80120",177336020,"R"
459162,"29100 NORTHWESTERN HIGHWAY","SOUTHFIELD","MI",48034,42.5020484790001,-83.310349983,162,"29100 NORTHWESTERN HIGHWAY, SOUTHFIELD, MI, 48034","Match","Exact","29100 NORTHWESTERN HWY, SOUTHFIELD, MI, 48034",69828928,"R"
459163,"29100E 148TH AVE","BRIGHTON","CO",80603,39.9649375380001,-104.650159741,163,"29100E 148TH AVE, BRIGHTON, CO, 80603","Match","Exact","29100 148TH AVE, BRIGHTON, CO, 80603",627308302,"R"
459164,"29101 EUCLID AVENE","WICKLIFFE","OH",44092,41.604304841,-81.476474164,164,"29101 EUCLID AVENE, WICKLIFFE, OH, 44092","Match","Non_Exact","29101 EUCLID AVE, WICKLIFFE, OH, 44092",137459486,"L"
459165,"29101 EUCLID AVENUE","WICKLIFFE","OH",44092,41.604304841,-81.476474164,165,"29101 EUCLID AVENUE, WICKLIFFE, OH, 44092","Match","Exact","29101 EUCLID AVE, WICKLIFFE, OH, 44092",137459486,"L"
459166,"29101 FRANKLIN HILLS DR 111","SOUTHFIELD","MI",48034,42.50183832,-83.3012908489999,166,"29101 FRANKLIN HILLS DR 111, SOUTHFIELD, MI, 48034","Match","Exact","29101 FRANKLIN HILLS DR, SOUTHFIELD, MI, 48034",69815052,"L"
459167,"29101 SE 371ST ST","ENUMCLAW","WA",98022,47.2681108900001,-121.954677845,167,"29101 SE 371ST ST, ENUMCLAW, WA, 98022","Match","Exact","29101 SE 371ST ST, ENUMCLAW, WA, 98022",187052717,"L"
459168,"29102 NE 132ND AVE","BATTLEGROUND","WA",98604,45.833440248,-122.538571409,168,"29102 NE 132ND AVE, BATTLEGROUND, WA, 98604","Match","Non_Exact","29102 NE 132ND AVE, BATTLE GROUND, WA, 98604",646574681,"L"
459169,"29102 PORCH SWING","BOERNE","TX",78006,29.7297524090001,-98.689028169,169,"29102 PORCH SWING, BOERNE, TX, 78006","Match","Exact","29102 PORCH SWING, BOERNE, TX, 78006",648508630,"R"
459170,"29104 OAKDALE RD","MENIFEE","CA",92584,33.698852177,-117.209651352,170,"29104 OAKDALE RD, MENIFEE, CA, 92584","Match","Exact","29104 OAKDALE RD, MENIFEE, CA, 92584",194833917,"L"
459171,"29104 OCELOT ROAD","CASHTON","WI",54619,43.754762478,-90.808633753,171,"29104 OCELOT ROAD, CASHTON, WI, 54619","Match","Exact","29104 OCELOT RD, CASHTON, WI, 54619",51080117,"L"
459172,"29104 OKADALE RD","MENIFEE","CA",92584,NA,NA,172,"29104 OKADALE RD, MENIFEE, CA, 92584","No_Match",NA,NA,NA,NA
459173,"29105 TWIN CREEK DRIVE","GEORGETOWN","TX",78626,30.7359802490001,-97.5772130829999,173,"29105 TWIN CREEK DRIVE, GEORGETOWN, TX, 78626","Match","Exact","29105 TWIN CREEK DR, GEORGETOWN, TX, 78626",126477022,"R"
459174,"29106 DARDEN POINT ROAD","COURTLAND","VA",23837,36.76255617,-77.011958681,174,"29106 DARDEN POINT ROAD, COURTLAND, VA, 23837","Match","Exact","29106 DARDEN POINT RD, COURTLAND, VA, 23837",82723026,"L"
459175,"29106 SUPERIOR CIRCLE","EASTON","MD",21601,38.740323925,-76.0675883229999,175,"29106 SUPERIOR CIRCLE, EASTON, MD, 21601","Match","Exact","29106 SUPERIOR CR, EASTON, MD, 21601",637313295,"L"
459176,"29108 WEST SHORE DRIVE","PENGILLY","MN",55775,47.299367987,-93.193648368,176,"29108 WEST SHORE DRIVE, PENGILLY, MN, 55775","Match","Exact","29108 W SHORE DR, PENGILLY, MN, 55775",162931243,"L"
459177,"2911 107TH STREET","LUBBOCK","TX",79423,33.4969309040001,-101.878018135,177,"2911 107TH STREET, LUBBOCK, TX, 79423","Match","Exact","2911 107TH ST, LUBBOCK, TX, 79423",185274260,"L"
459178,"2911 10TH ST N","ST PETERSBURG","FL",33704,27.798562449,-82.6479145489999,178,"2911 10TH ST N, ST PETERSBURG, FL, 33704","Match","Exact","2911 10TH ST N, SAINT PETERSBURG, FL, 33704",124706850,"R"
459179,"2911 15TH ST","LUBBOCK","TX",79409,NA,NA,179,"2911 15TH ST, LUBBOCK, TX, 79409","No_Match",NA,NA,NA,NA
459180,"2911 2ND AVE NO 703","SEATTLE","WA",98121,NA,NA,180,"2911 2ND AVE NO 703, SEATTLE, WA, 98121","No_Match",NA,NA,NA,NA
459181,"2911 2ND AVE UNIT 1204","SEATTLE","WA",98121,NA,NA,181,"2911 2ND AVE UNIT 1204, SEATTLE, WA, 98121","No_Match",NA,NA,NA,NA
459182,"2911 31ST AVENUE APT 2R","ASTORIA","NY",11106,NA,NA,182,"2911 31ST AVENUE APT 2R, ASTORIA, NY, 11106","No_Match",NA,NA,NA,NA
459183,"2911 47TH STREET","DES MOINES","IA",50310,41.6212113,-93.681582802,183,"2911 47TH STREET, DES MOINES, IA, 50310","Match","Exact","2911 47TH ST, DES MOINES, IA, 50310",65828733,"R"
459184,"2911 5TH AVENUE","LOS ANGELES","CA",90018,34.0285482030001,-118.322402559,184,"2911 5TH AVENUE, LOS ANGELES, CA, 90018","Match","Exact","2911 5TH AVE, LOS ANGELES, CA, 90018",141605699,"R"
459185,"2911 AFTON VALLEY COURT","MAINEVILLE","OH",45039,39.3332472930001,-84.272077177,185,"2911 AFTON VALLEY COURT, MAINEVILLE, OH, 45039","Match","Exact","2911 AFTON VALLEY CT, MAINEVILLE, OH, 45039",159035175,"L"
459186,"2911 ALLEN DRIVE","EDINBURG","TX",78539,NA,NA,186,"2911 ALLEN DRIVE, EDINBURG, TX, 78539","No_Match",NA,NA,NA,NA
459187,"2911 AVENUE O","NEDERLAND","TX",77627,29.9536541950001,-93.9891213929999,187,"2911 AVENUE O, NEDERLAND, TX, 77627","Match","Exact","2911 AVE O, NEDERLAND, TX, 77627",73860764,"L"
459188,"2911 AVON ROAD","BETHLEHEM","PA",18017,40.6543255350001,-75.344437533,188,"2911 AVON ROAD, BETHLEHEM, PA, 18017","Match","Exact","2911 AVON RD, BETHLEHEM, PA, 18017",136877360,"L"
459189,"2911 BALVENIE PL NW","ACWORTH","GA",30101,34.0210975360001,-84.6815035019999,189,"2911 BALVENIE PL NW, ACWORTH, GA, 30101","Match","Exact","2911 BALVENIE PL NW, ACWORTH, GA, 30101",648401340,"L"
459190,"2911 BEVILLE FOREST DRIVE","BROWN SUMMIT","NC",27214,36.232056415,-79.737076691,190,"2911 BEVILLE FOREST DRIVE, BROWN SUMMIT, NC, 27214","Match","Non_Exact","2911 BEVILLE FOREST DR, BROWNS SUMMIT, NC, 27214",131110948,"L"
459191,"2911 BLACKBIRD CT","COLUMBUS","OH",43219,40.030775996,-82.92909126,191,"2911 BLACKBIRD CT, COLUMBUS, OH, 43219","Match","Exact","2911 BLACKBIRD CT, COLUMBUS, OH, 43219",625411937,"L"
459192,"2911 BLODGETT STREET","HOUSTON","TX",77004,29.7224388820001,-95.3680858019999,192,"2911 BLODGETT STREET, HOUSTON, TX, 77004","Match","Exact","2911 BLODGETT ST, HOUSTON, TX, 77004",96071951,"L"
459193,"2911 BLUE HOLLY LN","OAK HILL","VA",20171,38.9271837800001,-77.410996063,193,"2911 BLUE HOLLY LN, OAK HILL, VA, 20171","Match","Exact","2911 BLUE HOLLY LN, OAK HILL, VA, 20171",215979023,"R"
459194,"2911 BROYHILL COURT","FREDERICKSBURG","VA",22408,38.255540206,-77.430965466,194,"2911 BROYHILL COURT, FREDERICKSBURG, VA, 22408","Match","Exact","2911 BROYHILL CT, FREDERICKSBURG, VA, 22408",85025468,"L"
459195,"2911 BRUNSWICK AVE","NEW BERN","NC",28562,35.123400916,-77.09021339,195,"2911 BRUNSWICK AVE, NEW BERN, NC, 28562","Match","Exact","2911 BRUNSWICK AVE, NEW BERN, NC, 28562",624749038,"L"
459196,"2911 CARDINAL DRIVE","VERO BEACH","FL",32963,27.6487871310001,-80.3565305119999,196,"2911 CARDINAL DRIVE, VERO BEACH, FL, 32963","Match","Exact","2911 CARDINAL DR, VERO BEACH, FL, 32963",120307947,"L"
459197,"2911 CLAIRE BLVD","ROBBINS","IL",60472,41.64954306,-87.6926457,197,"2911 CLAIRE BLVD, ROBBINS, IL, 60472","Match","Non_Exact","2911 S CLAIRE BLVD, ROBBINS, IL, 60472",111826028,"L"
459198,"2911 CLYDEDALE","DALLAS","TX",75220,32.860125694,-96.875437011,198,"2911 CLYDEDALE, DALLAS, TX, 75220","Match","Non_Exact","2911 CLYDEDALE DR, DALLAS, TX, 75220",102894075,"L"
459199,"2911 CONROY COURT APT D","PARKVILLE","MD",21234,39.388223822,-76.542236383,199,"2911 CONROY COURT APT D, PARKVILLE, MD, 21234","Match","Exact","2911 CONROY CT, PARKVILLE, MD, 21234",191476812,"R"
459200,"2911 CONROY COURT","PARKVILLE","MD",21234,39.388223822,-76.542236383,200,"2911 CONROY COURT, PARKVILLE, MD, 21234","Match","Exact","2911 CONROY CT, PARKVILLE, MD, 21234",191476812,"R"
459201,"2911 CONROY CT","PARKVILLE","MD",21234,39.388223822,-76.542236383,201,"2911 CONROY CT, PARKVILLE, MD, 21234","Match","Exact","2911 CONROY CT, PARKVILLE, MD, 21234",191476812,"R"
459202,"2911 COTEAU RD LOT 39","NEW IBERIA","LA",70560,30.05082702,-91.9201485519999,202,"2911 COTEAU RD LOT 39, NEW IBERIA, LA, 70560","Match","Exact","2911 COTEAU RD, NEW IBERIA, LA, 70560",85369089,"L"
459203,"2911 COYOTE TRAIL CT","MISSOURI CITY","TX",77459,29.5436024040001,-95.5058861699999,203,"2911 COYOTE TRAIL CT, MISSOURI CITY, TX, 77459","Match","Exact","2911 COYOTE TRAIL CT, MISSOURI CITY, TX, 77459",635387763,"L"
459204,"2911 CREST DRIVE","MANHATTAN BEACH","CA",90266,33.89644092,-118.415352875,204,"2911 CREST DRIVE, MANHATTAN BEACH, CA, 90266","Match","Exact","2911 CREST DR, MANHATTAN BEACH, CA, 90266",141580465,"L"
459205,"2911 DEERPATH LANE","CARPENTERSVILLE","IL",60110,42.126125732,-88.3539614859999,205,"2911 DEERPATH LANE, CARPENTERSVILLE, IL, 60110","Match","Exact","2911 DEERPATH LN, CARPENTERSVILLE, IL, 60110",119569809,"L"
459206,"2911 DORRINGTON DR","DALLAS","TX",75228,NA,NA,206,"2911 DORRINGTON DR, DALLAS, TX, 75228","No_Match",NA,NA,NA,NA
459207,"2911 DR DERYL HART RD","BUENA VISTA","GA",31803,32.362369272,-84.461669974,207,"2911 DR DERYL HART RD, BUENA VISTA, GA, 31803","Match","Exact","2911 DR DERYL HART RD, BUENA VISTA, GA, 31803",30600684,"L"
459208,"2911 DUDLEY DR","PORTER","IN",46304,41.657964314,-87.076101706,208,"2911 DUDLEY DR, PORTER, IN, 46304","Match","Exact","2911 DUDLEY DR, PORTER, IN, 46304",119918998,"L"
459209,"2911 E COLLEGE WAY","MOUNT VERNON","WA",98273,48.4355842530001,-122.303776081,209,"2911 E COLLEGE WAY, MOUNT VERNON, WA, 98273","Match","Exact","2911 E COLLEGE WAY, MOUNT VERNON, WA, 98273",637864694,"L"
459210,"2911 E GATE CITY BOULEVARD","GREENSBORO","NC",27401,36.057745572,-79.7498261539999,210,"2911 E GATE CITY BOULEVARD, GREENSBORO, NC, 27401","Match","Exact","2911 E GATE CITY BLVD, GREENSBORO, NC, 27401",131114572,"R"
459211,"2911 E IDAVADA CT","NAMPA","ID",83686,43.529184452,-116.535010763,211,"2911 E IDAVADA CT, NAMPA, ID, 83686","Match","Exact","2911 E IDAVADA CT, NAMPA, ID, 83686",633116511,"R"
459212,"2911 E LAKE HILL DR","ORANGE","CA",92867,33.8331228420001,-117.823410029,212,"2911 E LAKE HILL DR, ORANGE, CA, 92867","Match","Exact","2911 E LAKE HILL DR, ORANGE, CA, 92867",144031498,"L"
459213,"2911 E TULARE ST","FRESNO","CA",93721,36.7405593870001,-119.780740624,213,"2911 E TULARE ST, FRESNO, CA, 93721","Match","Exact","2911 TULARE ST, FRESNO, CA, 93721",197580315,"L"
459214,"2911 EAST TULARE ST","FRESNO","CA",93721,36.7405593870001,-119.780740624,214,"2911 EAST TULARE ST, FRESNO, CA, 93721","Match","Non_Exact","2911 TULARE ST, FRESNO, CA, 93721",197580315,"L"
459215,"2911 ENNIS AVE","FORT WORTH","TX",76111,32.759278459,-97.305074016,215,"2911 ENNIS AVE, FORT WORTH, TX, 76111","Match","Exact","2911 ENNIS AVE, FORT WORTH, TX, 76111",101890840,"L"
459216,"2911 ESSARY RD STE 100","KNOXVILLE","TN",37918,36.0349070120001,-83.930277674,216,"2911 ESSARY RD STE 100, KNOXVILLE, TN, 37918","Match","Non_Exact","2911 ESSARY DR, KNOXVILLE, TN, 37918",42617140,"L"
459217,"2911 ESSARY ROAD SUITE C","KNOXVILLE","TN",37918,36.0349070120001,-83.930277674,217,"2911 ESSARY ROAD SUITE C, KNOXVILLE, TN, 37918","Match","Non_Exact","2911 ESSARY DR, KNOXVILLE, TN, 37918",42617140,"L"
459218,"2911 GABLE LANDING LN","KATY","TX",77494,29.7419186130001,-95.849328816,218,"2911 GABLE LANDING LN, KATY, TX, 77494","Match","Exact","2911 GABLE LANDING LN, KATY, TX, 77494",642953673,"L"
459219,"2911 GARDEN CREEK","CASPER","WY",82601,42.7705284780001,-106.344222919,219,"2911 GARDEN CREEK, CASPER, WY, 82601","Match","Non_Exact","2911 GARDEN CREEK RD, CASPER, WY, 82601",636535419,"R"
459220,"2911 GEORGE AVENUE","PARMA","OH",44134,41.403579064,-81.703891406,220,"2911 GEORGE AVENUE, PARMA, OH, 44134","Match","Exact","2911 GEORGE AVE, PARMA, OH, 44134",61156321,"L"
459221,"2911 GILLMAR STREET","DELTONA","FL",32738,28.9579386350001,-81.184661193,221,"2911 GILLMAR STREET, DELTONA, FL, 32738","Match","Exact","2911 GILLMAR ST, DELTONA, FL, 32738",94500938,"R"
459222,"2911 HARVARD BLVD","DAYTON","OH",45406,39.779258729,-84.2361733339999,222,"2911 HARVARD BLVD, DAYTON, OH, 45406","Match","Exact","2911 HARVARD BLVD, DAYTON, OH, 45406",143566791,"R"
459223,"2911 HAZLETT LANE","SPRINGFIELD","IL",62707,39.8431871130001,-89.71620603,223,"2911 HAZLETT LANE, SPRINGFIELD, IL, 62707","Match","Exact","2911 HAZLETT LN, SPRINGFIELD, IL, 62707",624371332,"L"
459224,"2911 HIGHLAND DRIVE","RUSSELVILLE","AR",72802,35.28188326,-93.172571916,224,"2911 HIGHLAND DRIVE, RUSSELVILLE, AR, 72802","Match","Non_Exact","2911 HIGHLAND DR, RUSSELLVILLE, AR, 72802",606054072,"L"
459225,"2911 HOLLISTER AVE","NORFOLK","VA",23504,36.855229265,-76.2524961239999,225,"2911 HOLLISTER AVE, NORFOLK, VA, 23504","Match","Exact","2911 HOLLISTER AVE, NORFOLK, VA, 23504",122129054,"R"
459226,"2911 HOOLAKO ST","LIHUE","HI",96766,21.9668876170001,-159.361919089,226,"2911 HOOLAKO ST, LIHUE, HI, 96766","Match","Exact","2911 HOOLAKO ST, LIHUE, HI, 96766",203392218,"R"
459227,"2911 JEFFERSON DAVIS HIGHWAY","RICHMOND","VA",23234,37.4846479510001,-77.444763531,227,"2911 JEFFERSON DAVIS HIGHWAY, RICHMOND, VA, 23234","Match","Exact","2911 JEFFERSON DAVIS HWY, RICHMOND, VA, 23234",610885715,"L"
459228,"2911 LA COMBADURA","SANTA BARBARA","CA",93105,34.445921567,-119.720319319,228,"2911 LA COMBADURA, SANTA BARBARA, CA, 93105","Match","Non_Exact","2911 LA COMBADURA RD, SANTA BARBARA, CA, 93105",108603954,"L"
459229,"2911 LAKESHORE HARBOUR DR","MISSOURI CITY","TX",77459,29.5427324090001,-95.517614954,229,"2911 LAKESHORE HARBOUR DR, MISSOURI CITY, TX, 77459","Match","Non_Exact","2911 LAKE SHORE HARBOUR DR, MISSOURI CITY, TX, 77459",641147455,"L"
459230,"2911 LAKEVIEW PARKWAY","LOCUST GROVE","VA",22508,38.322453512,-77.769878997,230,"2911 LAKEVIEW PARKWAY, LOCUST GROVE, VA, 22508","Match","Exact","2911 LAKEVIEW PKWY, LOCUST GROVE, VA, 22508",29880979,"L"
459231,"2911 LAUREL LAKE DRIVE","KINGWOOD","TX",77339,30.0521251850001,-95.19887396,231,"2911 LAUREL LAKE DRIVE, KINGWOOD, TX, 77339","Match","Exact","2911 LAUREL LAKE DR, KINGWOOD, TX, 77339",96048919,"R"
459232,"2911 LEBONNET","BEAUMONT","TX",77705,29.9151006980001,-94.150667012,232,"2911 LEBONNET, BEAUMONT, TX, 77705","Match","Non_Exact","2911 LEBONNETT, BEAUMONT, TX, 77705",73876503,"R"
459233,"2911 LINWOOD DR","SARASOTA","FL",34232,27.3074733240001,-82.4687492959999,233,"2911 LINWOOD DR, SARASOTA, FL, 34232","Match","Exact","2911 LINWOOD DR, SARASOTA, FL, 34232",16356146,"R"
459234,"2911 LITTLE COTTONWOOD RD","SANDY","UT",84092,40.5769787890001,-111.810209297,234,"2911 LITTLE COTTONWOOD RD, SANDY, UT, 84092","Match","Non_Exact","2911 E LITTLE COTTONWOOD RD, SANDY, UT, 84092",650451338,"L"
459235,"2911 LONGSHORE","PHILADELPHIA","PA",19149,40.0376608540001,-75.057124933,235,"2911 LONGSHORE, PHILADELPHIA, PA, 19149","Match","Non_Exact","2911 LONGSHORE AVE, PHILADELPHIA, PA, 19149",131434800,"L"
459236,"2911 LYNNWOOD","ARLINGTON","TX",76013,32.723624402,-97.153745968,236,"2911 LYNNWOOD, ARLINGTON, TX, 76013","Match","Non_Exact","2911 LYNNWOOD DR, ARLINGTON, TX, 76013",101904844,"R"
459237,"2911 MARK AVENUE","LINCOLN","NE",68502,40.771705104,-96.6773549759999,237,"2911 MARK AVENUE, LINCOLN, NE, 68502","Match","Exact","2911 MARK AVE, LINCOLN, NE, 68502",28256311,"R"
459238,"2911 MAY AVENUE","MISSION","TX",78574,26.234865819,-98.285475852,238,"2911 MAY AVENUE, MISSION, TX, 78574","Match","Exact","2911 MAY AVE, MISSION, TX, 78574",71528146,"L"
459239,"2911 MONROE AVENUE","KANSAS CITY","MO",64128,39.072540787,-94.5400458349999,239,"2911 MONROE AVENUE, KANSAS CITY, MO, 64128","Match","Exact","2911 MONROE AVE, KANSAS CITY, MO, 64128",91451178,"L"
459240,"2911 MORRIS","CLOVIS","CA",93611,36.8223676420001,-119.657018069,240,"2911 MORRIS, CLOVIS, CA, 93611","Match","Non_Exact","2911 MORRIS AVE, CLOVIS, CA, 93611",606266313,"L"
459241,"2911 MORTON COVE LANE","KATY","TX",77449,29.8157893040001,-95.748873636,241,"2911 MORTON COVE LANE, KATY, TX, 77449","Match","Exact","2911 MORTON COVE LN, KATY, TX, 77449",633571934,"R"
459242,"2911 MOUNTAIN VIEW DRIVE","CARLSBAD","MN",88220,NA,NA,242,"2911 MOUNTAIN VIEW DRIVE, CARLSBAD, MN, 88220","No_Match",NA,NA,NA,NA
459243,"2911 MOUNTCREST CIRCLE NW","CONCORD","NC",28027,35.4344360260001,-80.627682407,243,"2911 MOUNTCREST CIRCLE NW, CONCORD, NC, 28027","Match","Exact","2911 MOUNTCREST CIR NW, CONCORD, NC, 28027",24908466,"R"
459244,"2911 N 39TH TERR","SAINT JOSEPH","MO",64506,39.7946612210001,-94.799689869,244,"2911 N 39TH TERR, SAINT JOSEPH, MO, 64506","Match","Exact","2911 N 39TH TER, SAINT JOSEPH, MO, 64506",15960978,"R"
459245,"2911 N CICERO AVE","CHICAGO","IL",60641,41.9337785020001,-87.7466736389999,245,"2911 N CICERO AVE, CHICAGO, IL, 60641","Match","Exact","2911 N CICERO AVE, CHICAGO, IL, 60641",111755783,"R"
459246,"2911 N DOUSMAN SUITE 3","OCONOMOWOC","WI",53066,NA,NA,246,"2911 N DOUSMAN SUITE 3, OCONOMOWOC, WI, 53066","No_Match",NA,NA,NA,NA
459247,"2911 N OCOEE STREET","CLEVELAND","TN",37312,35.1814699340001,-84.860946836,247,"2911 N OCOEE STREET, CLEVELAND, TN, 37312","Match","Exact","2911 N OCOEE ST, CLEVELAND, TN, 37312",57574023,"L"
459248,"2911 NE 42ND ST","VANCOUVER","WA",98633,45.652098188,-122.640805575,248,"2911 NE 42ND ST, VANCOUVER, WA, 98633","Match","Non_Exact","2911 NE 42ND ST, VANCOUVER, WA, 98663",158326421,"R"
459249,"2911 NE 42ND ST","VANCOUVER","WA",98663,45.652098188,-122.640805575,249,"2911 NE 42ND ST, VANCOUVER, WA, 98663","Match","Exact","2911 NE 42ND ST, VANCOUVER, WA, 98663",158326421,"R"
459250,"2911 NE 68TH 71","VANCOUVER","WA",98665,NA,NA,250,"2911 NE 68TH 71, VANCOUVER, WA, 98665","No_Match",NA,NA,NA,NA
459251,"2911 NE 68TH AVENUE APT 79","VANCOUVER","WA",98665,NA,NA,251,"2911 NE 68TH AVENUE APT 79, VANCOUVER, WA, 98665","No_Match",NA,NA,NA,NA
459252,"2911 NICHOLAS COVE","NEW BRAUNFELS","TX",78130,29.6681682080001,-98.140277375,252,"2911 NICHOLAS COVE, NEW BRAUNFELS, TX, 78130","Match","Exact","2911 NICHOLAS CV, NEW BRAUNFELS, TX, 78130",651547110,"R"
459253,"2911 NORTH 26TH STREET","OMAHA","NE",68111,41.284926381,-95.950022704,253,"2911 NORTH 26TH STREET, OMAHA, NE, 68111","Match","Exact","2911 N 26TH ST, OMAHA, NE, 68111",116980325,"R"
459254,"2911 NORTH WOOD AVENUE","LINDEN","NJ",7036,40.6494547610001,-74.280497415,254,"2911 NORTH WOOD AVENUE, LINDEN, NJ, 7036","Match","Exact","2911 N WOOD AVE, LINDEN, NJ, 07036",60594287,"R"
459255,"2911 NW 41ST PLACE","GAINESVILLE","FL",32605,29.6919143920001,-82.365761177,255,"2911 NW 41ST PLACE, GAINESVILLE, FL, 32605","Match","Exact","2911 NW 41ST PL, GAINESVILLE, FL, 32605",6804883,"L"
459256,"2911 OLD NILES FERRY ROAD","MARYVILLE","TN",37803,35.702640436,-84.022959105,256,"2911 OLD NILES FERRY ROAD, MARYVILLE, TN, 37803","Match","Exact","2911 OLD NILES FERRY RD, MARYVILLE, TN, 37803",89849938,"L"
459257,"2911 OLDEN OAK 201","AUBURN HILLS","MI",48326,42.68592805,-83.232272732,257,"2911 OLDEN OAK 201, AUBURN HILLS, MI, 48326","Match","Non_Exact","2911 OLDEN OAK LN, AUBURN HILLS, MI, 48326",69799300,"L"
459258,"2911 OLDEN OAK LN","AUBURN HILLS","MI",48326,42.68592805,-83.232272732,258,"2911 OLDEN OAK LN, AUBURN HILLS, MI, 48326","Match","Exact","2911 OLDEN OAK LN, AUBURN HILLS, MI, 48326",69799300,"L"
459259,"2911 OWEN LN","MESQUITE","TX",75150,32.806777229,-96.642269314,259,"2911 OWEN LN, MESQUITE, TX, 75150","Match","Exact","2911 OWEN LN, MESQUITE, TX, 75150",102931628,"R"
459260,"2911 PAIGE STREET","HOUSTON","TX",77004,29.7336179050001,-95.3593418249999,260,"2911 PAIGE STREET, HOUSTON, TX, 77004","Match","Exact","2911 PAIGE ST, HOUSTON, TX, 77004",96073093,"L"
459261,"2911 PAKENHAM DR","CHALMETTE","LA",70043,29.948303337,-89.9700936689999,261,"2911 PAKENHAM DR, CHALMETTE, LA, 70043","Match","Exact","2911 PAKENHAM DR, CHALMETTE, LA, 70043",111186928,"R"
459262,"2911 PANORAMA DR","CARROLLTON","TX",75007,32.9954434580001,-96.903748503,262,"2911 PANORAMA DR, CARROLLTON, TX, 75007","Match","Exact","2911 PANORAMA DR, CARROLLTON, TX, 75007",642840602,"R"
459263,"2911 PARK STREET","LAKELAND","FL",33801,28.011006507,-81.905683886,263,"2911 PARK STREET, LAKELAND, FL, 33801","Match","Non_Exact","2911 PARK ST, LAKELAND, FL, 33803",104818751,"R"
459264,"2911 PASTURE LANE","SUGAR LAND","TX",77479,29.5797801630001,-95.607573718,264,"2911 PASTURE LANE, SUGAR LAND, TX, 77479","Match","Exact","2911 PASTURE LN, SUGAR LAND, TX, 77479",78268847,"R"
459265,"2911 PEACH STREET","WISCONSIN RAPIDS","WI",54494,44.3874397540001,-89.791579235,265,"2911 PEACH STREET, WISCONSIN RAPIDS, WI, 54494","Match","Exact","2911 PEACH ST, WISCONSIN RAPIDS, WI, 54494",51298947,"L"
459266,"2911 PEBBLE BANKS CT","RICHMOND","TX",77406,NA,NA,266,"2911 PEBBLE BANKS CT, RICHMOND, TX, 77406","No_Match",NA,NA,NA,NA
459267,"2911 PELZER AVENUE","MONTGOMERY","AL",36109,32.388900419,-86.265241675,267,"2911 PELZER AVENUE, MONTGOMERY, AL, 36109","Match","Exact","2911 PELZER AVE, MONTGOMERY, AL, 36109",1543936,"L"
459268,"2911 PENICK ST","SHREVEPORT","LA",71109,32.483539401,-93.784117828,268,"2911 PENICK ST, SHREVEPORT, LA, 71109","Match","Exact","2911 PENICK ST, SHREVEPORT, LA, 71109",57435514,"L"
459269,"2911 PICKFORD DR SE","ADA","MI",49301,42.9121747780001,-85.4389986099999,269,"2911 PICKFORD DR SE, ADA, MI, 49301","Match","Exact","2911 PICKFORD DR SE, ADA, MI, 49301",12514423,"L"
459270,"2911 PINEWOOD DRIVE","PALM BAY","FL",32905,28.0384604600001,-80.614617244,270,"2911 PINEWOOD DRIVE, PALM BAY, FL, 32905","Match","Non_Exact","2911 PINEWOOD DR NE, PALM BAY, FL, 32905",611184483,"R"
459271,"2911 PULASKI PIKE","HUNTSVILLE","AL",35810,34.7616031700001,-86.613971168,271,"2911 PULASKI PIKE, HUNTSVILLE, AL, 35810","Match","Non_Exact","2911 PULASKI PIKE NW, HUNTSVILLE, AL, 35810",58116342,"L"
459272,"2911 RED MAPLE DR","KATY","TX",77494,29.748611431,-95.865105838,272,"2911 RED MAPLE DR, KATY, TX, 77494","Match","Exact","2911 RED MAPLE DR, KATY, TX, 77494",641047912,"R"
459273,"2911 S 19TH ST","NEW CASTLE","IN",47362,39.9047991480001,-85.35968012,273,"2911 S 19TH ST, NEW CASTLE, IN, 47362","Match","Exact","2911 S 19TH ST, NEW CASTLE, IN, 47362",29984651,"L"
459274,"2911 S 381ST WAY","AUBURN","WA",98001,47.2613771520001,-122.296443305,274,"2911 S 381ST WAY, AUBURN, WA, 98001","Match","Exact","2911 S 381ST WAY, AUBURN, WA, 98001",186959057,"R"
459275,"2911 S HARBOR CITY BLVD","MELBOURNE","FL",32901,28.064684282,-80.597772908,275,"2911 S HARBOR CITY BLVD, MELBOURNE, FL, 32901","Match","Exact","2911 S HARBOR CITY BLVD, MELBOURNE, FL, 32901",93905553,"L"
459276,"2911 S PETERS ROAD","KNOXVILLE","TN",37918,NA,NA,276,"2911 S PETERS ROAD, KNOXVILLE, TN, 37918","No_Match",NA,NA,NA,NA
459277,"2911 S SANTA FE AVE","SAN MARCOS","CA",92069,33.159748501,-117.20357426,277,"2911 S SANTA FE AVE, SAN MARCOS, CA, 92069","Match","Exact","2911 S SANTA FE AVE, SAN MARCOS, CA, 92069",640049368,"R"
459278,"2911 S SANTA FE","SAN MARCOS","CA",92069,33.159748501,-117.20357426,278,"2911 S SANTA FE, SAN MARCOS, CA, 92069","Match","Non_Exact","2911 S SANTA FE AVE, SAN MARCOS, CA, 92069",640049368,"R"
459279,"2911 S WILEY ROAD","YAKIMA","WA",98903,NA,NA,279,"2911 S WILEY ROAD, YAKIMA, WA, 98903","Tie",NA,NA,NA,NA
459280,"2911 SAINT MARYS VIEW RD","ACCOKEEK","MD",20607,38.6989952640001,-76.95713109,280,"2911 SAINT MARYS VIEW RD, ACCOKEEK, MD, 20607","Match","Exact","2911 ST MARYS VIEW RD, ACCOKEEK, MD, 20607",638291748,"R"
459281,"2911 SCHAEFFER DRIVE SW","CEDAR RAPIDS","IA",52404,41.948111413,-91.6607860559999,281,"2911 SCHAEFFER DRIVE SW, CEDAR RAPIDS, IA, 52404","Match","Exact","2911 SCHAEFFER DR SW, CEDAR RAPIDS, IA, 52404",17049588,"L"
459282,"2911 SE VILLAGE LOOP APT 162","VANCOUVER","WA",98683,45.6009559620001,-122.508865792,282,"2911 SE VILLAGE LOOP APT 162, VANCOUVER, WA, 98683","Match","Non_Exact","2911 SE VILLAGE LOOP, VANCOUVER, WA, 98683",158359647,"L"
459283,"2911 SHADOWLANE DR","DICKINSON","TX",77539,29.4606573510001,-95.073068801,283,"2911 SHADOWLANE DR, DICKINSON, TX, 77539","Match","Exact","2911 SHADOWLANE DR, DICKINSON, TX, 77539",96735289,"L"
459284,"2911 SHIRLEY DR","NEWBURY PARK","CA",91320,34.187299104,-118.936392745,284,"2911 SHIRLEY DR, NEWBURY PARK, CA, 91320","Match","Exact","2911 SHIRLEY DR, NEWBURY PARK, CA, 91320",110049173,"R"
459285,"2911 SONATA CT","SAINT CLOUD","FL",34772,28.2016643040001,-81.300583124,285,"2911 SONATA CT, SAINT CLOUD, FL, 34772","Match","Exact","2911 SONATA CT, SAINT CLOUD, FL, 34772",624570036,"L"
459286,"2911 SOUTH 3RD STREET","KELSO","WA",98626,NA,NA,286,"2911 SOUTH 3RD STREET, KELSO, WA, 98626","No_Match",NA,NA,NA,NA
459287,"2911 SOUTH SHORE BLVD STE 150","LEAGUE CITY","TX",77573,29.540466125,-95.0626449229999,287,"2911 SOUTH SHORE BLVD STE 150, LEAGUE CITY, TX, 77573","Match","Exact","2911 S SHORE BLVD, LEAGUE CITY, TX, 77573",96682843,"L"
459288,"2911 SUNDANCE SUMMIT LANE","KATY","TX",77494,29.739539381,-95.8406500679999,288,"2911 SUNDANCE SUMMIT LANE, KATY, TX, 77494","Match","Exact","2911 SUNDANCE SUMMIT LN, KATY, TX, 77494",642953772,"R"
459289,"2911 SUNSET RIDGE","MCKINNEY","TX",75070,33.1768039470001,-96.657655884,289,"2911 SUNSET RIDGE, MCKINNEY, TX, 75070","Match","Non_Exact","2911 SUNSET RIDGE, MCKINNEY, TX, 75072",123526644,"L"
459290,"2911 SYCAMORE ST","ALEXANDRIA","VA",22305,38.8313664290001,-77.063068506,290,"2911 SYCAMORE ST, ALEXANDRIA, VA, 22305","Match","Exact","2911 SYCAMORE ST, ALEXANDRIA, VA, 22305",76064535,"R"
459291,"2911 TEAK AVE","LUBBOCK","TX",79404,33.5675900090001,-101.815245462,291,"2911 TEAK AVE, LUBBOCK, TX, 79404","Match","Exact","2911 TEAK AVE, LUBBOCK, TX, 79404",647832592,"R"
459292,"2911 THORNHILL DRIVE","FLATWOODS","KY",41139,38.51959372,-82.7429393579999,292,"2911 THORNHILL DRIVE, FLATWOODS, KY, 41139","Match","Exact","2911 THORNHILL DR, FLATWOODS, KY, 41139",151402839,"L"
459293,"2911 TORRENCE TRAIL","SPRING HILL","TN",37174,35.7521544950001,-86.891556334,293,"2911 TORRENCE TRAIL, SPRING HILL, TN, 37174","Match","Exact","2911 TORRENCE TRL, SPRING HILL, TN, 37174",73130637,"R"
459294,"2911 TURTLE CREEK BLVD STE 1100","DALLAS","TX",75219,32.8036908080001,-96.8058584359999,294,"2911 TURTLE CREEK BLVD STE 1100, DALLAS, TX, 75219","Match","Exact","2911 TURTLE CREEK BLVD, DALLAS, TX, 75219",103263095,"L"
459295,"2911 TURTLE CREEK BLVD SUITE 300","DALLAS","TX",75219,32.8036908080001,-96.8058584359999,295,"2911 TURTLE CREEK BLVD SUITE 300, DALLAS, TX, 75219","Match","Exact","2911 TURTLE CREEK BLVD, DALLAS, TX, 75219",103263095,"L"
459296,"2911 VIA CARMEN","SAN JOSE","CA",95124,37.2683523760001,-121.935196899,296,"2911 VIA CARMEN, SAN JOSE, CA, 95124","Match","Exact","2911 VIA CARMEN, SAN JOSE, CA, 95124",122920622,"R"
459297,"2911 VISTAS APT 326","FORT WORTH","TX",76135,NA,NA,297,"2911 VISTAS APT 326, FORT WORTH, TX, 76135","No_Match",NA,NA,NA,NA
459298,"2911 W 86TH","CHICAGO","IL",60411,NA,NA,298,"2911 W 86TH, CHICAGO, IL, 60411","No_Match",NA,NA,NA,NA
459299,"2911 W COYLE AVE","CHICAGO","IL",60645,42.0074938400001,-87.702560604,299,"2911 W COYLE AVE, CHICAGO, IL, 60645","Match","Exact","2911 W COYLE AVE, CHICAGO, IL, 60645",111744471,"L"
459300,"2911 W GRAND BLVD APT 4140","DETROIT","MI",48202,NA,NA,300,"2911 W GRAND BLVD APT 4140, DETROIT, MI, 48202","Tie",NA,NA,NA,NA
459301,"2911 W LONGFELLOW AVENUE","SPOKANE","WA",99205,47.6971584780001,-117.454277713,301,"2911 W LONGFELLOW AVENUE, SPOKANE, WA, 99205","Match","Exact","2911 W LONGFELLOW AVE, SPOKANE, WA, 99205",189870969,"L"
459302,"2911 WEST 26TH STREET 17P","BROOKLYN","NY",11224,NA,NA,302,"2911 WEST 26TH STREET 17P, BROOKLYN, NY, 11224","No_Match",NA,NA,NA,NA
459303,"2911 WEST 50 SOUTH","KOKOMO","IN",46902,NA,NA,303,"2911 WEST 50 SOUTH, KOKOMO, IN, 46902","No_Match",NA,NA,NA,NA
459304,"2911 WIND DRIFT LANE","BERTHOUD","CO",80513,NA,NA,304,"2911 WIND DRIFT LANE, BERTHOUD, CO, 80513","No_Match",NA,NA,NA,NA
459305,"2911 WINDSOR RIDGE DRIVE","WESTBOROUGH","MA",1581,42.290408949,-71.58817476,305,"2911 WINDSOR RIDGE DRIVE, WESTBOROUGH, MA, 1581","Match","Exact","2911 WINDSOR RIDGE DR, WESTBOROUGH, MA, 01581",40110039,"L"
459306,"2911","COPPERAS COVE","TX",76522,NA,NA,306,"2911, COPPERAS COVE, TX, 76522","No_Match",NA,NA,NA,NA
459307,"29111 HIGHPLAINS COURT","CASTAIC","CA",91384,34.4476885120001,-118.621805134,307,"29111 HIGHPLAINS COURT, CASTAIC, CA, 91384","Match","Exact","29111 HIGHPLAINS CT, CASTAIC, CA, 91384",141862534,"R"
459308,"29111 LAUREL WOODS DR  203","SOUTHFIELD","MI",48034,42.502115013,-83.26376888,308,"29111 LAUREL WOODS DR  203, SOUTHFIELD, MI, 48034","Match","Exact","29111 LAUREL WOODS DR, SOUTHFIELD, MI, 48034",69730494,"R"
459309,"29112 BRADNER RD","MILBURY","OH",43447,41.5746617350001,-83.434724024,309,"29112 BRADNER RD, MILBURY, OH, 43447","Match","Non_Exact","29112 BRADNER RD, MILLBURY, OH, 43447",623847229,"L"
459310,"29112 LANCASTER DR 102","SOUTHFIELD","MI",48034,42.5023164290001,-83.281442967,310,"29112 LANCASTER DR 102, SOUTHFIELD, MI, 48034","Match","Exact","29112 LANCASTER DR, SOUTHFIELD, MI, 48034",69823403,"R"
459311,"29112 N 132ND LN","PEORIA","AZ",85383,33.7468100990001,-112.346425533,311,"29112 N 132ND LN, PEORIA, AZ, 85383","Match","Exact","29112 N 132ND LN, PEORIA, AZ, 85383",646883841,"L"
459312,"29112 VISTA VALLEY DRIVE","VISTA","CA",92084,33.244152919,-117.189667328,312,"29112 VISTA VALLEY DRIVE, VISTA, CA, 92084","Match","Exact","29112 VISTA VALLEY DR, VISTA, CA, 92084",195441206,"R"
459313,"29113 LIGHTHOUSE COURT","MENIFEE","CA",92585,33.71398958,-117.152533768,313,"29113 LIGHTHOUSE COURT, MENIFEE, CA, 92585","Match","Exact","29113 LIGHTHOUSE CT, MENIFEE, CA, 92585",638578131,"R"
459314,"29114 MEADOW TERRACE DRIVE","FULSHEAR","TX",77441,NA,NA,314,"29114 MEADOW TERRACE DRIVE, FULSHEAR, TX, 77441","No_Match",NA,NA,NA,NA
459315,"29115 RACHID LANE","CHESTERFIELD","MI",48047,42.6539691450001,-82.809739171,315,"29115 RACHID LANE, CHESTERFIELD, MI, 48047","Match","Exact","29115 RACHID LN, CHESTERFIELD, MI, 48047",110732199,"L"
459316,"29115 S HULT RD","COLTON","OR",97017,45.1853171290001,-122.445206251,316,"29115 S HULT RD, COLTON, OR, 97017","Match","Exact","29115 S HULT RD, COLTON, OR, 97017",157938033,"L"
459317,"29115 VALLEY CENTER RD K139","VALLEY CENTER","CA",92082,33.23112523,-117.027658278,317,"29115 VALLEY CENTER RD K139, VALLEY CENTER, CA, 92082","Match","Exact","29115 VALLEY CENTER RD, VALLEY CENTER, CA, 92082",195385884,"R"
459318,"29115 VALLEY CENTER ROAD K134","VALLEY CENTER","CA",92082,33.23112523,-117.027658278,318,"29115 VALLEY CENTER ROAD K134, VALLEY CENTER, CA, 92082","Match","Exact","29115 VALLEY CENTER RD, VALLEY CENTER, CA, 92082",195385884,"R"
459319,"29115 WOOD LILY DR","KATY","TX",77494,29.7570758850001,-95.873616802,319,"29115 WOOD LILY DR, KATY, TX, 77494","Match","Exact","29115 WOOD LILY DR, KATY, TX, 77494",648706320,"L"
459320,"29116 FISH HATCHERY ROAD","ALSEA","OR",97324,44.421550354,-123.563970503,320,"29116 FISH HATCHERY ROAD, ALSEA, OR, 97324","Match","Exact","29116 FISH HATCHERY RD, ALSEA, OR, 97324",155860325,"L"
459321,"29117 GIMPL HILL RD","EUGENE","OR",97402,44.0089060830001,-123.195538956,321,"29117 GIMPL HILL RD, EUGENE, OR, 97402","Match","Exact","29117 GIMPL HILL RD, EUGENE, OR, 97402",641661173,"L"
459322,"29117 WASHINGTON AVE","BURLINGTON","WI",53105,42.7414921490001,-88.210772119,322,"29117 WASHINGTON AVE, BURLINGTON, WI, 53105","Match","Exact","29117 WASHINGTON AVE, BURLINGTON, WI, 53105",642049187,"R"
459323,"29117 WHITE OAK LANE","WATERFORD","WI",53185,42.805970261,-88.2157514799999,323,"29117 WHITE OAK LANE, WATERFORD, WI, 53185","Match","Exact","29117 WHITE OAK LN, WATERFORD, WI, 53185",647200974,"L"
459324,"29118 N 69TH PLACE","SCOTTSDALE","AZ",85262,33.749130644,-111.931459954,324,"29118 N 69TH PLACE, SCOTTSDALE, AZ, 85262","Match","Non_Exact","29118 N 69TH PL, SCOTTSDALE, AZ, 85266",243973256,"L"
459325,"291184","YIGO","GU",96929,NA,NA,325,"291184, YIGO, GU, 96929","No_Match",NA,NA,NA,NA
459326,"29119 1600 EAST ST","WALNUT","IL",61376,41.570098203,-89.550951369,326,"29119 1600 EAST ST, WALNUT, IL, 61376","Match","Exact","29119 1600 EAST ST, WALNUT, IL, 61376",8472777,"L"
459327,"29119 SCENIC DRIVE","CHISAGO CITY","MN",55013,45.3695766720001,-92.929471453,327,"29119 SCENIC DRIVE, CHISAGO CITY, MN, 55013","Match","Exact","29119 SCENIC DR, CHISAGO CITY, MN, 55013",633579162,"R"
459328,"2912 17TH ST","ANACORTES","WA",98221,48.5069214740001,-122.639604944,328,"2912 17TH ST, ANACORTES, WA, 98221","Match","Exact","2912 17TH ST, ANACORTES, WA, 98221",627139420,"L"
459329,"2912 224TH ST","SAUK VILLAGE","IL",60411,41.4830325,-87.550466596,329,"2912 224TH ST, SAUK VILLAGE, IL, 60411","Match","Exact","2912 224TH ST, SAUK VILLAGE, IL, 60411",111787186,"R"
459330,"2912 22ND STREET","MERIDIAN","MS",39301,32.380492476,-88.707777189,330,"2912 22ND STREET, MERIDIAN, MS, 39301","Match","Exact","2912 22ND ST, MERIDIAN, MS, 39301",189819,"R"
459331,"2912 28TH AVE WEST","SEATTLE","WA",98199,47.645954815,-122.392910738,331,"2912 28TH AVE WEST, SEATTLE, WA, 98199","Match","Exact","2912 28TH AVE W, SEATTLE, WA, 98199",186659822,"R"
459332,"2912 46TH AVENUE SOUTH","ST PETERSBURG","FL",33712,27.726528661,-82.6727028729999,332,"2912 46TH AVENUE SOUTH, ST PETERSBURG, FL, 33712","Match","Exact","2912 46TH AVE S, SAINT PETERSBURG, FL, 33712",124790366,"L"
459333,"2912 AARON DRIVE","CHESAPEAKE","VA",23323,36.7835593670001,-76.347405389,333,"2912 AARON DRIVE, CHESAPEAKE, VA, 23323","Match","Exact","2912 AARON DR, CHESAPEAKE, VA, 23323",121768984,"R"
459334,"2912 ASHBURY DR","ARLINGTON","TX",76017,32.6974638890001,-97.129618049,334,"2912 ASHBURY DR, ARLINGTON, TX, 76017","Match","Non_Exact","2912 ASHBURY DR, ARLINGTON, TX, 76015",102120750,"R"
459335,"2912 ASHER LANE","LAS VEGAS","NV",89032,36.2371701700001,-115.180661863,335,"2912 ASHER LANE, LAS VEGAS, NV, 89032","Match","Non_Exact","2912 ASHER LN, N LAS VEGAS, NV, 89032",201909033,"R"
459336,"2912 AVEBURY WAY","BROWNSBURG","IN",46112,39.8058896160001,-86.36815774,336,"2912 AVEBURY WAY, BROWNSBURG, IN, 46112","Match","Exact","2912 AVEBURY WAY, BROWNSBURG, IN, 46112",640530786,"L"
459337,"2912 BEACH LANE 200-103","TITUSVILLE","FL",32780,28.5465381490001,-80.8343204129999,337,"2912 BEACH LANE 200-103, TITUSVILLE, FL, 32780","Match","Exact","2912 BEACH LN, TITUSVILLE, FL, 32780",601722894,"L"
459338,"2912 BELMAR STREET","SACRAMENTO","CA",95826,38.553825799,-121.387486382,338,"2912 BELMAR STREET, SACRAMENTO, CA, 95826","Match","Exact","2912 BELMAR ST, SACRAMENTO, CA, 95826",133338592,"R"
459339,"2912 BENVENUE AVENUE","BERKELEY","CA",94705,37.8578392490001,-122.25439906,339,"2912 BENVENUE AVENUE, BERKELEY, CA, 94705","Match","Exact","2912 BENVENUE AVE, BERKELEY, CA, 94705",124998767,"R"
459340,"2912 BRIDGEHAMPTON COURT","FALLS CHURCH","VA",22042,38.8719066350001,-77.2127488309999,340,"2912 BRIDGEHAMPTON COURT, FALLS CHURCH, VA, 22042","Match","Exact","2912 BRIDGEHAMPTON CT, FALLS CHURCH, VA, 22042",75997033,"R"
459341,"2912 BRIDGEHAMPTON CT","FALLS CHURCH","VA",22042,38.8719066350001,-77.2127488309999,341,"2912 BRIDGEHAMPTON CT, FALLS CHURCH, VA, 22042","Match","Exact","2912 BRIDGEHAMPTON CT, FALLS CHURCH, VA, 22042",75997033,"R"
459342,"2912 BRIGHTON BLUFF DRIVE","APEX","NC",27539,35.6449407900001,-78.7292810929999,342,"2912 BRIGHTON BLUFF DRIVE, APEX, NC, 27539","Match","Exact","2912 BRIGHTON BLUFF DR, APEX, NC, 27539",612828409,"R"
459343,"2912 BUFORD WAY","BAKERSFIELD","CA",93309,35.328191883,-119.084510517,343,"2912 BUFORD WAY, BAKERSFIELD, CA, 93309","Match","Exact","2912 BUFORD WAY, BAKERSFIELD, CA, 93309",640633714,"L"
459344,"2912 CADDIEFIELD","SAINT LOUIS","MO",63136,NA,NA,344,"2912 CADDIEFIELD, SAINT LOUIS, MO, 63136","No_Match",NA,NA,NA,NA
459345,"2912 CATHERINE DRIVE","CLEARWATER","FL",33759,27.9841574640001,-82.7155097199999,345,"2912 CATHERINE DRIVE, CLEARWATER, FL, 33759","Match","Exact","2912 CATHERINE DR, CLEARWATER, FL, 33759",124683168,"L"
459346,"2912 COUNTY RD C3400","LENORAH","TX",79749,NA,NA,346,"2912 COUNTY RD C3400, LENORAH, TX, 79749","No_Match",NA,NA,NA,NA
459347,"2912 CR 3311","GREENVILLE","TX",75402,33.0602973840001,-96.0790822339999,347,"2912 CR 3311, GREENVILLE, TX, 75402","Match","Exact","2912 CO RD 3311, GREENVILLE, TX, 75402",652107190,"L"
459348,"2912 CRYSTAL WAY","GRAND PRAIRIE","TX",75052,32.6272803850001,-97.0545869269999,348,"2912 CRYSTAL WAY, GRAND PRAIRIE, TX, 75052","Match","Exact","2912 CRYSTAL WAY, GRAND PRAIRIE, TX, 75052",617671320,"R"
459349,"2912 DANDRIDGE DRIVE","GARNER","NC",27609,NA,NA,349,"2912 DANDRIDGE DRIVE, GARNER, NC, 27609","No_Match",NA,NA,NA,NA
459350,"2912 DEBRA DRIVE","RALEIGH","NC",27607,35.8215925160001,-78.684511712,350,"2912 DEBRA DRIVE, RALEIGH, NC, 27607","Match","Exact","2912 DEBRA DR, RALEIGH, NC, 27607",72501425,"R"
459351,"2912 DELMAR AVENUE","EDGEMERE","MD",21219,39.240766346,-76.454460244,351,"2912 DELMAR AVENUE, EDGEMERE, MD, 21219","Match","Exact","2912 DELMAR AVE, EDGEMERE, MD, 21219",191490934,"L"
459352,"2912 E 18TH AVE","SPOKANE","WA",99223,47.6391170270001,-117.368082176,352,"2912 E 18TH AVE, SPOKANE, WA, 99223","Match","Exact","2912 E 18TH AVE, SPOKANE, WA, 99223",189882490,"R"
459353,"2912 E 98TH STREET","TAMPA","FL",33612,28.0384449360001,-82.426856572,353,"2912 E 98TH STREET, TAMPA, FL, 33612","Match","Non_Exact","2912 98TH AVE, TAMPA, FL, 33612",104612607,"L"
459354,"2912 E HARTFORD","PONCA CITY","OK",74601,NA,NA,354,"2912 E HARTFORD, PONCA CITY, OK, 74601","No_Match",NA,NA,NA,NA
459355,"2912 E LK SAMMAMISH PKWY NE","SAMMAMISH","WA",98074,47.6355641270001,-122.072809832,355,"2912 E LK SAMMAMISH PKWY NE, SAMMAMISH, WA, 98074","Match","Exact","2912 E LAKE SAMMAMISH PKWY NE, SAMMAMISH, WA, 98074",647869644,"R"
459356,"2912 EDMONIA AVE","LOUISVILLE","KY",40220,38.223657829,-85.6238713449999,356,"2912 EDMONIA AVE, LOUISVILLE, KY, 40220","Match","Exact","2912 EDMONIA AVE, LOUISVILLE, KY, 40220",96893743,"R"
459357,"2912 EDMONIA AVENUE","LOUISVILLE","KY",40220,38.223657829,-85.6238713449999,357,"2912 EDMONIA AVENUE, LOUISVILLE, KY, 40220","Match","Exact","2912 EDMONIA AVE, LOUISVILLE, KY, 40220",96893743,"R"
459358,"2912 ELMO WAY","OKLAHOMA CITY","OK",73160,35.311038604,-97.477962833,358,"2912 ELMO WAY, OKLAHOMA CITY, OK, 73160","Match","Exact","2912 ELMO WAY, OKLAHOMA CITY, OK, 73160",641687668,"R"
459359,"2912 ELSITON LANE","ALLISON PARK","PA",15101,NA,NA,359,"2912 ELSITON LANE, ALLISON PARK, PA, 15101","No_Match",NA,NA,NA,NA
459360,"2912 ESSEX LP","BISMARCK","ND",58504,46.770235751,-100.799421162,360,"2912 ESSEX LP, BISMARCK, ND, 58504","Match","Exact","2912 ESSEX LOOP, BISMARCK, ND, 58504",198856310,"R"
459361,"2912 FAIRLAND RD","SILVER SPRING","MD",20904,39.0686673610001,-76.95119885,361,"2912 FAIRLAND RD, SILVER SPRING, MD, 20904","Match","Exact","2912 FAIRLAND RD, SILVER SPRING, MD, 20904",62074371,"L"
459362,"2912 FAIRWAY DR","ORANGE","TX",77630,30.117402376,-93.755142027,362,"2912 FAIRWAY DR, ORANGE, TX, 77630","Match","Exact","2912 FAIRWAY DR, ORANGE, TX, 77630",74008221,"L"
459363,"2912 FALLEN TREE DR","CANTONMENT","FL",32533,30.5719093180001,-87.2560902879999,363,"2912 FALLEN TREE DR, CANTONMENT, FL, 32533","Match","Exact","2912 FALLEN TREE DR, CANTONMENT, FL, 32533",93235336,"L"
459364,"2912 FIELDSTREAM LANE","IDAHO FALLS","ID",83404,43.4722851340001,-112.030178792,364,"2912 FIELDSTREAM LANE, IDAHO FALLS, ID, 83404","Match","Exact","2912 FIELDSTREAM LN, IDAHO FALLS, ID, 83404",119119377,"L"
459365,"2912 GENTILLY LN","FORT WORTH","TX",76123,32.619706251,-97.362338089,365,"2912 GENTILLY LN, FORT WORTH, TX, 76123","Match","Exact","2912 GENTILLY LN, FORT WORTH, TX, 76123",102119958,"R"
459366,"2912 GLADE AVE","SAINT LOUIS","MO",63136,38.734017012,-90.2719308979999,366,"2912 GLADE AVE, SAINT LOUIS, MO, 63136","Match","Exact","2912 GLADE AVE, SAINT LOUIS, MO, 63136",100147197,"L"
459367,"2912 GLENDALE AVE","BALTIMORE","MD",21234,39.3712426870001,-76.546991772,367,"2912 GLENDALE AVE, BALTIMORE, MD, 21234","Match","Exact","2912 GLENDALE AVE, BALTIMORE, MD, 21234",206410928,"L"
459368,"2912 GLENDALE AVE","PARKVILLE","MD",21234,39.3712426870001,-76.546991772,368,"2912 GLENDALE AVE, PARKVILLE, MD, 21234","Match","Exact","2912 GLENDALE AVE, PARKVILLE, MD, 21234",206410928,"L"
459369,"2912 GREENWAY DRIVE","BURLESON","TX",76028,32.4846339480001,-97.363286714,369,"2912 GREENWAY DRIVE, BURLESON, TX, 76028","Match","Exact","2912 GREENWAY DR, BURLESON, TX, 76028",634281976,"R"
459370,"2912 GRIFFITH RD","MONROE","NC",28112,34.9334806680001,-80.560032871,370,"2912 GRIFFITH RD, MONROE, NC, 28112","Match","Exact","2912 GRIFFITH RD, MONROE, NC, 28112",642589961,"L"
459371,"2912 GRIFFITH ROAD","MONROE","NC",28112,34.9334806680001,-80.560032871,371,"2912 GRIFFITH ROAD, MONROE, NC, 28112","Match","Exact","2912 GRIFFITH RD, MONROE, NC, 28112",642589961,"L"
459372,"2912 HADDON DR","REX","GA",30274,33.562589411,-84.2957148199999,372,"2912 HADDON DR, REX, GA, 30274","Match","Non_Exact","2912 HADDON DR, REX, GA, 30273",632647118,"L"
459373,"2912 HALTOM ROAD","HALTOM CITY","TX",76117,32.7979083120001,-97.273142616,373,"2912 HALTOM ROAD, HALTOM CITY, TX, 76117","Match","Exact","2912 HALTOM RD, HALTOM CITY, TX, 76117",101863493,"R"
459374,"2912 HARBOUR VIEW DRIVE","NASHVILLE","TN",37217,36.085977364,-86.6082270159999,374,"2912 HARBOUR VIEW DRIVE, NASHVILLE, TN, 37217","Match","Exact","2912 HARBOUR VIEW DR, NASHVILLE, TN, 37217",97200093,"R"
459375,"2912 HAWTREE DRIVE","RALEIGH","NC",27613,35.905906234,-78.688803616,375,"2912 HAWTREE DRIVE, RALEIGH, NC, 27613","Match","Exact","2912 HAWTREE DR, RALEIGH, NC, 27613",72621651,"R"
459376,"2912 HIDDEN HILLS ROAD UNIT 1206","WEST PALM BEACH","FL",33411,26.718825076,-80.142709484,376,"2912 HIDDEN HILLS ROAD UNIT 1206, WEST PALM BEACH, FL, 33411","Match","Exact","2912 HIDDEN HILLS RD, WEST PALM BEACH, FL, 33411",625221263,"L"
459377,"2912 HOMEWOOD AVE","ST. CHARLES","MO",63301,38.801728783,-90.5028737009999,377,"2912 HOMEWOOD AVE, ST. CHARLES, MO, 63301","Match","Exact","2912 HOMEWOOD AVE, SAINT CHARLES, MO, 63301",100021200,"R"
459378,"2912 HUNT VALLEY DRIVE","GLENWOOD","MD",21738,39.283832207,-77.0400961619999,378,"2912 HUNT VALLEY DRIVE, GLENWOOD, MD, 21738","Match","Exact","2912 HUNT VALLEY DR, GLENWOOD, MD, 21738",158937750,"R"
459379,"2912 HWY 1146","DERIDDER","LA",70634,30.9122416910001,-93.23666242,379,"2912 HWY 1146, DERIDDER, LA, 70634","Match","Non_Exact","2912 STATE RTE 1146, DERIDDER, LA, 70634",650870555,"R"
459380,"2912 HWY 1146","DERIDDER","LA",79634,NA,NA,380,"2912 HWY 1146, DERIDDER, LA, 79634","No_Match",NA,NA,NA,NA
459381,"2912 INVERNESS DRIVE","LOS ALAMITOS","CA",90720,33.789370827,-118.082870208,381,"2912 INVERNESS DRIVE, LOS ALAMITOS, CA, 90720","Match","Exact","2912 INVERNESS DR, LOS ALAMITOS, CA, 90720",144002585,"R"
459382,"2912 IVY STABLE LANE","SAINT CLOUD","FL",34772,28.2123918770001,-81.258729876,382,"2912 IVY STABLE LANE, SAINT CLOUD, FL, 34772","Match","Exact","2912 IVY STABLE LN, SAINT CLOUD, FL, 34772",650543493,"L"
459383,"2912 JEFF MYERS CIRCLE","SARASOTA","FL",34240,27.3053043250001,-82.42041857,383,"2912 JEFF MYERS CIRCLE, SARASOTA, FL, 34240","Match","Exact","2912 JEFF MYERS CIR, SARASOTA, FL, 34240",16379568,"R"
459384,"2912 JEFF MYERS CIRCLE","SARASTOA","FL",34240,27.3053043250001,-82.42041857,384,"2912 JEFF MYERS CIRCLE, SARASTOA, FL, 34240","Match","Non_Exact","2912 JEFF MYERS CIR, SARASOTA, FL, 34240",16379568,"R"
459385,"2912 JERMANTOWN RD","O","VA",22124,38.8760901700001,-77.303748981,385,"2912 JERMANTOWN RD, O, VA, 22124","Match","Non_Exact","2912 JERMANTOWN RD, OAKTON, VA, 22124",618646903,"R"
459386,"2912 JERMANTOWN RD","OAKTON","VA",22124,38.8760901700001,-77.303748981,386,"2912 JERMANTOWN RD, OAKTON, VA, 22124","Match","Exact","2912 JERMANTOWN RD, OAKTON, VA, 22124",618646903,"R"
459387,"2912 LAGUNA CT","PLANO","TX",75023,33.044138478,-96.7501842459999,387,"2912 LAGUNA CT, PLANO, TX, 75023","Match","Exact","2912 LAGUNA CT, PLANO, TX, 75023",123486633,"R"
459388,"2912 LAS CALINAS BLVD","SAINT AUGUSTINE","FL",32095,30.0419006340001,-81.378439795,388,"2912 LAS CALINAS BLVD, SAINT AUGUSTINE, FL, 32095","Match","Exact","2912 LAS CALINAS BLVD, SAINT AUGUSTINE, FL, 32095",651255632,"R"
459389,"2912 LELEHUNA PL","HAIKU","HI",96708,20.927904036,-156.319510581,389,"2912 LELEHUNA PL, HAIKU, HI, 96708","Match","Non_Exact","2912 E LELEHUNA PL, HAIKU, HI, 96708",85062248,"R"
459390,"2912 MAGGIE WAY","CHALFONT","PA",18914,NA,NA,390,"2912 MAGGIE WAY, CHALFONT, PA, 18914","No_Match",NA,NA,NA,NA
459391,"2912 MAPLE ST","HOPEWELL","VA",23860,37.2835569630001,-77.305558987,391,"2912 MAPLE ST, HOPEWELL, VA, 23860","Match","Exact","2912 MAPLE ST, HOPEWELL, VA, 23860",54149963,"R"
459392,"2912 MARAZAN ST","DENAIR","CA",95316,37.519654427,-120.799218503,392,"2912 MARAZAN ST, DENAIR, CA, 95316","Match","Exact","2912 MARAZAN ST, DENAIR, CA, 95316",627131388,"R"
459393,"2912 MARSHALL APT A33","GRAND RAPIDS","MI",49508,NA,NA,393,"2912 MARSHALL APT A33, GRAND RAPIDS, MI, 49508","No_Match",NA,NA,NA,NA
459394,"2912 MARYVILLE DRIVE","MCHENRY","IL",60051,42.3457362620001,-88.254751745,394,"2912 MARYVILLE DRIVE, MCHENRY, IL, 60051","Match","Exact","2912 MARYVILLE DR, MCHENRY, IL, 60051",119862768,"L"
459395,"2912 MASTERS VIEW RD","LEXINGTON","KY",40511,38.0929883250001,-84.550279417,395,"2912 MASTERS VIEW RD, LEXINGTON, KY, 40511","Match","Exact","2912 MASTERS VIEW RD, LEXINGTON, KY, 40511",31941640,"L"
459396,"2912 MERRY MOUNT CT APT B","COLUMBUS","OH",43232,39.91665864,-82.8711764939999,396,"2912 MERRY MOUNT CT APT B, COLUMBUS, OH, 43232","Match","Non_Exact","2912 MERRYMOUNT CT, COLUMBUS, OH, 43232",218645287,"L"
459397,"2912 MILLPOND DR UNIT 3A","HOLLAND","MI",49424,42.821212605,-86.086543203,397,"2912 MILLPOND DR UNIT 3A, HOLLAND, MI, 49424","Match","Exact","2912 MILLPOND DR, HOLLAND, MI, 49424",71102955,"R"
459398,"2912 MINERAL SPRINGS","SCHERTZ","TX",78108,29.616619045,-98.2403626,398,"2912 MINERAL SPRINGS, SCHERTZ, TX, 78108","Match","Exact","2912 MINERAL SPGS, SCHERTZ, TX, 78108",641467247,"R"
459399,"2912 MODRED LANE","TALLAHASSEE","FL",32301,30.4348744100001,-84.234228956,399,"2912 MODRED LANE, TALLAHASSEE, FL, 32301","Match","Exact","2912 MODRED LN, TALLAHASSEE, FL, 32301",82866048,"R"
459400,"2912 MULBERRY LANE UNIT E","GREENVILLE","NC",27858,35.5752845640001,-77.363617237,400,"2912 MULBERRY LANE UNIT E, GREENVILLE, NC, 27858","Match","Exact","2912 MULBERRY LN, GREENVILLE, NC, 27858",80042242,"L"
459401,"2912 N  MILWAUKEE 2F","CHICAGO","IL",60618,NA,NA,401,"2912 N  MILWAUKEE 2F, CHICAGO, IL, 60618","No_Match",NA,NA,NA,NA
459402,"2912 N 26TH STREET","TAMPA","FL",33605,27.969852605,-82.4306040499999,402,"2912 N 26TH STREET, TAMPA, FL, 33605","Match","Exact","2912 N 26TH ST, TAMPA, FL, 33605",104624614,"L"
459403,"2912 N 48TH ST","MILWAUKEE","WI",53210,43.071934357,-87.973618405,403,"2912 N 48TH ST, MILWAUKEE, WI, 53210","Match","Exact","2912 N 48TH ST, MILWAUKEE, WI, 53210",77732163,"R"
459404,"2912 N AVALON PLACE","PEORIA","IL",61604,40.7231104420001,-89.606265112,404,"2912 N AVALON PLACE, PEORIA, IL, 61604","Match","Exact","2912 N AVALON PL, PEORIA, IL, 61604",8721333,"R"
459405,"2912 N CYPRESS POINT","WADSWORTH","IL",60083,42.4058131420001,-87.915723955,405,"2912 N CYPRESS POINT, WADSWORTH, IL, 60083","Match","Exact","2912 N CYPRESS PT, WADSWORTH, IL, 60083",119704063,"R"
459406,"2912 N EDGINGTON","FRANKLIN PARK","IL",60131,41.931647395,-87.862868707,406,"2912 N EDGINGTON, FRANKLIN PARK, IL, 60131","Match","Non_Exact","2912 EDGINGTON ST, FRANKLIN PARK, IL, 60131",605259833,"L"
459407,"2912 N ROCK BRIDGE ST","DERBY","KS",67037,NA,NA,407,"2912 N ROCK BRIDGE ST, DERBY, KS, 67037","No_Match",NA,NA,NA,NA
459408,"2912 N SACRAMENTO UNIT 1","CHICAGO","IL",60618,NA,NA,408,"2912 N SACRAMENTO UNIT 1, CHICAGO, IL, 60618","No_Match",NA,NA,NA,NA
459409,"2912 N UNIVERSITY DRIVE UNIT 107","WAUKESHA","WI",53186,NA,NA,409,"2912 N UNIVERSITY DRIVE UNIT 107, WAUKESHA, WI, 53186","No_Match",NA,NA,NA,NA
459410,"2912 N WILDER RD","PLANT CITY","FL",33565,28.0424186440001,-82.0969216249999,410,"2912 N WILDER RD, PLANT CITY, FL, 33565","Match","Exact","2912 N WILDER RD, PLANT CITY, FL, 33565",640439710,"L"
459411,"2912 NASH PLACE SE","WASHINGTON","DC",20019,38.8760932100001,-76.967989215,411,"2912 NASH PLACE SE, WASHINGTON, DC, 20019","Match","Exact","2912 NASH PL SE, WASHINGTON, DC, 20019",76231687,"L"
459412,"2912 NE 8TH TERRACE","OAKLAND PARK","FL",33334,26.1662432750001,-80.136698989,412,"2912 NE 8TH TERRACE, OAKLAND PARK, FL, 33334","Match","Exact","2912 NE 8TH TER, OAKLAND PARK, FL, 33334",637132321,"L"
459413,"2912 NE JACKSON SCHOOL","HILLSBORO","OR",97124,45.5460666560001,-122.977804698,413,"2912 NE JACKSON SCHOOL, HILLSBORO, OR, 97124","Match","Non_Exact","2912 JACKSON SCHOOL RD, HILLSBORO, OR, 97124",605200940,"R"
459414,"2912 NELSON PL APT 2","WASHINGTON","DC",20019,38.8766337060001,-76.967328637,414,"2912 NELSON PL APT 2, WASHINGTON, DC, 20019","Match","Non_Exact","2912 NELSON PL SE, WASHINGTON, DC, 20019",76231689,"L"
459415,"2912 NEWPORT GAP PIKE","WILMINGTON","DE",19808,39.7491393990001,-75.6483435869999,415,"2912 NEWPORT GAP PIKE, WILMINGTON, DE, 19808","Match","Exact","2912 NEWPORT GAP PIKE, WILMINGTON, DE, 19808",630430963,"L"
459416,"2912 NEWTONS CREST CIRCLE","SNELLVILE","GA",30078,33.8442649520001,-84.02850624,416,"2912 NEWTONS CREST CIRCLE, SNELLVILE, GA, 30078","Match","Non_Exact","2912 NEWTONS CREST CIR SW, SNELLVILLE, GA, 30078",632818926,"L"
459417,"2912 NICHOLAS COVE","NEW BRAUNFELS","TX",78130,29.6681325800001,-98.140378653,417,"2912 NICHOLAS COVE, NEW BRAUNFELS, TX, 78130","Match","Exact","2912 NICHOLAS CV, NEW BRAUNFELS, TX, 78130",651547110,"L"
459418,"2912 NW 104 COURT APARTMENT 4","GAINESVILLE","FL",32606,29.679195196,-82.452673024,418,"2912 NW 104 COURT APARTMENT 4, GAINESVILLE, FL, 32606","Match","Non_Exact","2912 NW 104 CT, GAINESVILLE, FL, 32606",6878430,"L"
459419,"2912 NW 28TH TERRACE","OAKLAND PARK","FL",33311,26.1623153790001,-80.181544506,419,"2912 NW 28TH TERRACE, OAKLAND PARK, FL, 33311","Match","Non_Exact","2912 NW 28TH TER, OAKLAND PARK, FL, 33311",114777136,"R"
459420,"2912 OLIVE STREET","MEMPHIS","TN",38108,NA,NA,420,"2912 OLIVE STREET, MEMPHIS, TN, 38108","No_Match",NA,NA,NA,NA
459421,"2912 ORIENTAL DRIVE","FLORISSANT","MO",63031,38.82484974,-90.322208927,421,"2912 ORIENTAL DRIVE, FLORISSANT, MO, 63031","Match","Exact","2912 ORIENTAL DR, FLORISSANT, MO, 63031",100195293,"R"
459422,"2912 PARSIFAL LANE","CHARLOTTE","NC",28213,35.299285829,-80.711279647,422,"2912 PARSIFAL LANE, CHARLOTTE, NC, 28213","Match","Exact","2912 PARSIFAL LN, CHARLOTTE, NC, 28213",630163509,"R"
459423,"2912 PHILADELPHIA DR","DAYTON","OH",45406,39.7993523740001,-84.235225032,423,"2912 PHILADELPHIA DR, DAYTON, OH, 45406","Match","Non_Exact","2912 PHILADELPHIA DR, DAYTON, OH, 45405",143596259,"R"
459424,"2912 PLEASANT GLEN DRIVE","HERNDON","VA",20171,38.921190241,-77.4031147219999,424,"2912 PLEASANT GLEN DRIVE, HERNDON, VA, 20171","Match","Exact","2912 PLEASANT GLEN DR, HERNDON, VA, 20171",76003266,"L"
459425,"2912 REBECCA DR","BENICIA","CA",94533,38.283379317,-122.00651183,425,"2912 REBECCA DR, BENICIA, CA, 94533","Match","Non_Exact","2912 REBECCA DR, FAIRFIELD, CA, 94533",192604880,"L"
459426,"2912 ROSEWOOD LANE","OKLAHOMA CITY","OK",73120,35.5880256880001,-97.567509887,426,"2912 ROSEWOOD LANE, OKLAHOMA CITY, OK, 73120","Match","Exact","2912 ROSEWOOD LN, OKLAHOMA CITY, OK, 73120",100392548,"L"
459427,"2912 S 12 1ST EAST PL","TULSA","OK",74129,36.1221091,-95.8410035049999,427,"2912 S 12 1ST EAST PL, TULSA, OK, 74129","Match","Non_Exact","2912 S 121ST EAST PL, TULSA, OK, 74129",166468327,"L"
459428,"2912 S ADAMS RD","VERADALE","WA",99037,47.630464664,-117.207416103,428,"2912 S ADAMS RD, VERADALE, WA, 99037","Match","Exact","2912 S ADAMS RD, VERADALE, WA, 99037",653498616,"R"
459429,"2912 S GEKELER","BOISE","ID",83706,NA,NA,429,"2912 S GEKELER, BOISE, ID, 83706","Tie",NA,NA,NA,NA
459430,"2912 S MARIGOLD AVE","ONTARIO","CA",91761,34.0210087410001,-117.631788277,430,"2912 S MARIGOLD AVE, ONTARIO, CA, 91761","Match","Exact","2912 S MARIGOLD AVE, ONTARIO, CA, 91761",144677159,"L"
459431,"2912 SE BINGHAM CT","LEES SUMMIT","MO",64063,38.9119755830001,-94.313201331,431,"2912 SE BINGHAM CT, LEES SUMMIT, MO, 64063","Match","Exact","2912 SE BINGHAM CT, LEES SUMMIT, MO, 64063",91512221,"R"
459432,"2912 SELKIRK ROAD","SPRINGFIELD","IL",62702,39.829608271,-89.6100629009999,432,"2912 SELKIRK ROAD, SPRINGFIELD, IL, 62702","Match","Exact","2912 SELKIRK RD, SPRINGFIELD, IL, 62702",97326198,"R"
459433,"2912 SHANNON DRIVE","VIOLET","LA",70092,29.916189382,-89.896680934,433,"2912 SHANNON DRIVE, VIOLET, LA, 70092","Match","Exact","2912 SHANNON DR, VIOLET, LA, 70092",111193512,"R"
459434,"2912 SHIPLEY RD","COOKEVILLE","TN",38501,36.215733904,-85.531391989,434,"2912 SHIPLEY RD, COOKEVILLE, TN, 38501","Match","Exact","2912 SHIPLEY RD, COOKEVILLE, TN, 38501",25142168,"L"
459435,"2912 SILVERTAIL COURT","HENRICO","VA",23231,37.449107853,-77.334222287,435,"2912 SILVERTAIL COURT, HENRICO, VA, 23231","Match","Exact","2912 SILVERTAIL CT, HENRICO, VA, 23231",106669608,"L"
459436,"2912 SOMERVILLE DRIVE APT 1","FORT COLLINS","CO",80526,40.5624300600001,-105.130272028,436,"2912 SOMERVILLE DRIVE APT 1, FORT COLLINS, CO, 80526","Match","Exact","2912 SOMERVILLE DR, FORT COLLINS, CO, 80526",188489430,"R"
459437,"2912 SOUTH 16TH ST","PHILADELPHIA","PA",19145,39.9143885410001,-75.1748546979999,437,"2912 SOUTH 16TH ST, PHILADELPHIA, PA, 19145","Match","Exact","2912 S 16TH ST, PHILADELPHIA, PA, 19145",131411572,"R"
459438,"2912 SOUTH MEADOW","FORT WORTH","TX",76133,32.64095482,-97.3640273839999,438,"2912 SOUTH MEADOW, FORT WORTH, TX, 76133","Match","Non_Exact","2912 S MEADOW DR, FORT WORTH, TX, 76133",101893957,"L"
459439,"2912 SOUTHWEST TRAILSIDE PATH","STUART","FL",34997,27.0191186760001,-80.2959233879999,439,"2912 SOUTHWEST TRAILSIDE PATH, STUART, FL, 34997","Match","Exact","2912 SW TRAILSIDE PATH, STUART, FL, 34997",120471366,"R"
459440,"2912 SPRUCEWOOD DRIVE","DURHAM","NC",27707,35.9569169000001,-78.91894424,440,"2912 SPRUCEWOOD DRIVE, DURHAM, NC, 27707","Match","Exact","2912 SPRUCEWOOD DR, DURHAM, NC, 27707",71787884,"R"
459441,"2912 SW ARNOLD STREET","PORTLAND","OR",97219,45.4451739360001,-122.70690585,441,"2912 SW ARNOLD STREET, PORTLAND, OR, 97219","Match","Exact","2912 SW ARNOLD ST, PORTLAND, OR, 97219",157564714,"L"
459442,"2912 VALLEJO STREET","DENVER","CO",80211,39.7586832800001,-105.01313674,442,"2912 VALLEJO STREET, DENVER, CO, 80211","Match","Exact","2912 VALLEJO ST, DENVER, CO, 80211",639310247,"R"
459443,"2912 W BOYCE AVE","FORT WORTH","TX",76133,32.680305725,-97.358790745,443,"2912 W BOYCE AVE, FORT WORTH, TX, 76133","Match","Exact","2912 W BOYCE AVE, FORT WORTH, TX, 76133",634281079,"R"
459444,"2912 WATKINS TOWN RD","RALEIGH","NC",27616,35.8635319640001,-78.500778238,444,"2912 WATKINS TOWN RD, RALEIGH, NC, 27616","Match","Exact","2912 WATKINS TOWN RD, RALEIGH, NC, 27616",634948380,"R"
459445,"2912 WEST LARKSPUR ROAD","FLORENCE","SC",29501,34.1795736170001,-79.835571325,445,"2912 WEST LARKSPUR ROAD, FLORENCE, SC, 29501","Match","Non_Exact","2912 LARKSPUR RD, FLORENCE, SC, 29501",28877196,"L"
459446,"2912 WEST M-113","KINGSLEY","MI",49649,NA,NA,446,"2912 WEST M-113, KINGSLEY, MI, 49649","No_Match",NA,NA,NA,NA
459447,"2912 WESTRIDGE DRIVE","WOODRIDGE","IL",60517,41.7477774910001,-88.053352436,447,"2912 WESTRIDGE DRIVE, WOODRIDGE, IL, 60517","Match","Exact","2912 WESTRIDGE DR, WOODRIDGE, IL, 60517",112539045,"R"
459448,"29120 CAREY RD","SALEM","OH",44460,40.8650953850001,-80.946265952,448,"29120 CAREY RD, SALEM, OH, 44460","Match","Exact","29120 CAREY RD, SALEM, OH, 44460",63662826,"R"
459449,"29120 ENNISCRONE DR","SAN ANTONIO","FL",33576,28.301525601,-82.335062498,449,"29120 ENNISCRONE DR, SAN ANTONIO, FL, 33576","Match","Non_Exact","29120 ENNISCRONE CT, SAN ANTONIO, FL, 33576",625728385,"L"
459450,"29120 N 66TH ST","CAVE CREEK","AZ",85331,33.7497939090001,-111.938970162,450,"29120 N 66TH ST, CAVE CREEK, AZ, 85331","Match","Exact","29120 N 66TH ST, CAVE CREEK, AZ, 85331",128932060,"R"
459451,"29121 FIRTHRIDGE RD","RANCHO PALOS VERDES","CA",90275,33.768616255,-118.387940595,451,"29121 FIRTHRIDGE RD, RANCHO PALOS VERDES, CA, 90275","Match","Exact","29121 FIRTHRIDGE RD, RANCHO PALOS VERDES, CA, 90275",141585483,"R"
459452,"29122 PERCH LAKE ROAD","WATERTOWN","NY",13601,44.086115427,-75.908924875,452,"29122 PERCH LAKE ROAD, WATERTOWN, NY, 13601","Match","Exact","29122 PERCH LAKE RD, WATERTOWN, NY, 13601",154280989,"R"
459453,"29122 WAYFAIR COURT","LAKE ELSINORE","CA",92530,NA,NA,453,"29122 WAYFAIR COURT, LAKE ELSINORE, CA, 92530","No_Match",NA,NA,NA,NA
459454,"29123 416TH AVE","TRIPP","SD",57376,43.166253614,-97.8731993229999,454,"29123 416TH AVE, TRIPP, SD, 57376","Match","Exact","29123 416TH AVE, TRIPP, SD, 57376",172930807,"L"
459455,"29123 RACHID LANE","CHESTERFIELD","MI",48047,42.6539058010001,-82.8096116139999,455,"29123 RACHID LANE, CHESTERFIELD, MI, 48047","Match","Exact","29123 RACHID LN, CHESTERFIELD, MI, 48047",110732199,"L"
459456,"29124 GLENCASTLE DR","BLOOMFIELD","MI",48302,NA,NA,456,"29124 GLENCASTLE DR, BLOOMFIELD, MI, 48302","No_Match",NA,NA,NA,NA
459457,"29124 GLENCASTLE DR","FARMINGTON HILLS","MI",48336,42.480491697,-83.3353900449999,457,"29124 GLENCASTLE DR, FARMINGTON HILLS, MI, 48336","Match","Exact","29124 GLENCASTLE DR, FARMINGTON HILLS, MI, 48336",69815120,"R"
459458,"29125 DOVE LN","KATY","TX",77493,29.8275849720001,-95.875583548,458,"29125 DOVE LN, KATY, TX, 77493","Match","Non_Exact","29125 DOVE DR, KATY, TX, 77493",78357608,"L"
459459,"29128 CHATEAU COURT","FARMINGTON HILLS","MI",48334,42.5033981180001,-83.336681407,459,"29128 CHATEAU COURT, FARMINGTON HILLS, MI, 48334","Match","Exact","29128 CHATEAU CT, FARMINGTON HILLS, MI, 48334",69824656,"R"
459460,"29128 POLE RUNNING ROAD","MOUNT PLEASANT","NC",28124,35.360916231,-80.370261606,460,"29128 POLE RUNNING ROAD, MOUNT PLEASANT, NC, 28124","Match","Exact","29128 POLE RUNNING RD, MOUNT PLEASANT, NC, 28124",14079006,"R"
459461,"29129 CO HWY 54","DETROIT LAKES","MN",56501,46.7963623050001,-95.791626213,461,"29129 CO HWY 54, DETROIT LAKES, MN, 56501","Match","Non_Exact","29129 CO RD 54, DETROIT LAKES, MN, 56501",167954480,"L"
459462,"29129 JOHNSTON RD LOT 2708","DADE CITY","FL",33523,28.4053168570001,-82.334054749,462,"29129 JOHNSTON RD LOT 2708, DADE CITY, FL, 33523","Match","Exact","29129 JOHNSTON RD, DADE CITY, FL, 33523",86372888,"R"
459463,"29129 LIME CITY ROAD","PERRYSBURG","OH",43551,41.574350043,-83.5674111009999,463,"29129 LIME CITY ROAD, PERRYSBURG, OH, 43551","Match","Exact","29129 LIME CITY RD, PERRYSBURG, OH, 43551",650711623,"L"
459464,"2913 141ST STREET","BLUE ISLAND","IL",60406,41.6370068160001,-87.6920453879999,464,"2913 141ST STREET, BLUE ISLAND, IL, 60406","Match","Exact","2913 141ST ST, BLUE ISLAND, IL, 60406",111826154,"L"
459465,"2913 29TH PL","TEMPLE HILLS","MD",20745,NA,NA,465,"2913 29TH PL, TEMPLE HILLS, MD, 20745","No_Match",NA,NA,NA,NA
459466,"2913 35TH AVE","ROCK ISLAND","IL",61201,41.474406656,-90.559062897,466,"2913 35TH AVE, ROCK ISLAND, IL, 61201","Match","Exact","2913 35TH AVE, ROCK ISLAND, IL, 61201",9209042,"L"
459467,"2913 3RD ST UNIT 308","SANTA MONICA","CA",90405,34.000360985,-118.479395666,467,"2913 3RD ST UNIT 308, SANTA MONICA, CA, 90405","Match","Exact","2913 3RD ST, SANTA MONICA, CA, 90405",141559943,"L"
459468,"2913 63 STREET","KENOSHA","WI",53143,42.577592447,-87.8444566589999,468,"2913 63 STREET, KENOSHA, WI, 53143","Match","Exact","2913 63RD ST, KENOSHA, WI, 53143",79799615,"L"
459469,"2913 8TH STREET NW","ALBUQUERQUE","NM",87107,35.1152806910001,-106.651978249,469,"2913 8TH STREET NW, ALBUQUERQUE, NM, 87107","Match","Exact","2913 8TH ST NW, ALBUQUERQUE, NM, 87107",206705860,"L"
459470,"2913 ALDER PL","FULLERTON","CA",92835,33.9047036050001,-117.886419072,470,"2913 ALDER PL, FULLERTON, CA, 92835","Match","Exact","2913 ALDER PL, FULLERTON, CA, 92835",144008087,"L"
459471,"2913 ALTA VISTA","SAN ANGELO","TX",76904,31.4134075200001,-100.484526585,471,"2913 ALTA VISTA, SAN ANGELO, TX, 76904","Match","Non_Exact","2913 ALTA VISTA LN, SAN ANGELO, TX, 76904",190680586,"L"
459472,"2913 ANCON COURT","EDGEWOOD","MD",21040,39.4299340850001,-76.2764789519999,472,"2913 ANCON COURT, EDGEWOOD, MD, 21040","Match","Exact","2913 ANCON CT, EDGEWOOD, MD, 21040",191686273,"L"
459473,"2913 BANNUF COURT","RALEIGH","NC",27604,35.8161188010001,-78.586813331,473,"2913 BANNUF COURT, RALEIGH, NC, 27604","Match","Non_Exact","2913 BANNF CT, RALEIGH, NC, 27604",72604828,"R"
459474,"2913 BELLE AVE","ROANOKE","VA",24012,37.290276254,-79.897711971,474,"2913 BELLE AVE, ROANOKE, VA, 24012","Match","Non_Exact","2913 BELLE AVE NE, ROANOKE, VA, 24012",62906271,"R"
459475,"2913 BETSY COURT","EVANSVILLE","IN",47720,37.9875441,-87.609630465,475,"2913 BETSY COURT, EVANSVILLE, IN, 47720","Match","Exact","2913 BETSY CT, EVANSVILLE, IN, 47720",39798513,"L"
459476,"2913 BEVERLY DRIVE","PLANO","TX",75093,33.040298567,-96.8395654349999,476,"2913 BEVERLY DRIVE, PLANO, TX, 75093","Match","Exact","2913 BEVERLY DR, PLANO, TX, 75093",123531294,"L"
459477,"2913 BREAKWATER DRIVE","LONGMONT","CO",80503,40.193725892,-105.141209107,477,"2913 BREAKWATER DRIVE, LONGMONT, CO, 80503","Match","Exact","2913 BREAKWATER DR, LONGMONT, CO, 80503",220760902,"R"
459478,"2913 CALLE PRINCESA JUANA","SANTA FE","NM",87507,35.6448302840001,-105.987431763,478,"2913 CALLE PRINCESA JUANA, SANTA FE, NM, 87507","Match","Non_Exact","2913 CLL PRINCESA JUANA, SANTA FE, NM, 87507",169376965,"R"
459479,"2913 CALLE VERA CRUZ","SANTA FE","NM",87507,35.637007704,-106.002716367,479,"2913 CALLE VERA CRUZ, SANTA FE, NM, 87507","Match","Non_Exact","2913 CLL VERA CRUZ, SANTA FE, NM, 87507",636577399,"R"
459480,"2913 CHESTNUT STREET","OAKLAND","CA",94608,37.8210031260001,-122.28086987,480,"2913 CHESTNUT STREET, OAKLAND, CA, 94608","Match","Exact","2913 CHESTNUT ST, OAKLAND, CA, 94608",124995978,"L"
459481,"2913 CLIFFORD TOWER DRIVE","HENRICO","VA",23231,NA,NA,481,"2913 CLIFFORD TOWER DRIVE, HENRICO, VA, 23231","No_Match",NA,NA,NA,NA
459482,"2913 CUTLER AVE NE","ALBUQUERQUE","NM",87106,35.105027512,-106.613659681,482,"2913 CUTLER AVE NE, ALBUQUERQUE, NM, 87106","Match","Exact","2913 CUTLER AVE NE, ALBUQUERQUE, NM, 87106",206709553,"L"
459483,"2913 CUTLER AVE","ALBUQUERQUE","NM",87106,35.105027512,-106.613659681,483,"2913 CUTLER AVE, ALBUQUERQUE, NM, 87106","Match","Non_Exact","2913 CUTLER AVE NE, ALBUQUERQUE, NM, 87106",206709553,"L"
459484,"2913 DALE AVENUE","CERES","CA",95307,37.597620776,-120.940206387,484,"2913 DALE AVENUE, CERES, CA, 95307","Match","Exact","2913 DALE AVE, CERES, CA, 95307",102592747,"L"
459485,"2913 DETROIT","AMARILLO","TX",79103,35.1825066850001,-101.811409447,485,"2913 DETROIT, AMARILLO, TX, 79103","Match","Non_Exact","2913 DETROIT ST, AMARILLO, TX, 79103",182655731,"L"
459486,"2913 DOBBS","NASHVILLE","TN",37211,36.1082705920001,-86.736200474,486,"2913 DOBBS, NASHVILLE, TN, 37211","Match","Non_Exact","2913 DOBBS AVE, NASHVILLE, TN, 37211",97192977,"R"
459487,"2913 E MALLORY","MESA","AZ",85213,33.4607679580001,-111.768035452,487,"2913 E MALLORY, MESA, AZ, 85213","Match","Non_Exact","2913 E MALLORY ST, MESA, AZ, 85213",638562237,"L"
459488,"2913 E ORAIBI DR","PHOENIX","AZ",85050,33.6635321260001,-112.020804635,488,"2913 E ORAIBI DR, PHOENIX, AZ, 85050","Match","Exact","2913 E ORAIBI DR, PHOENIX, AZ, 85050",128304135,"L"
459489,"2913 ECKLESON STREET","LAKEWOOD","CA",90712,33.8486682010001,-118.157173107,489,"2913 ECKLESON STREET, LAKEWOOD, CA, 90712","Match","Exact","2913 ECKLESON ST, LAKEWOOD, CA, 90712",642861222,"L"
459490,"2913 EDITH ST","PORTAGE","IN",46368,41.5673441870001,-87.158701892,490,"2913 EDITH ST, PORTAGE, IN, 46368","Match","Exact","2913 EDITH ST, PORTAGE, IN, 46368",119930501,"L"
459491,"2913 EL CAMINO REAL - NO 139","TUSTIN","CA",92782,NA,NA,491,"2913 EL CAMINO REAL - NO 139, TUSTIN, CA, 92782","No_Match",NA,NA,NA,NA
459492,"2913 ELLINGTON  STREET","DOTHAN","AP",36303,NA,NA,492,"2913 ELLINGTON  STREET, DOTHAN, AP, 36303","No_Match",NA,NA,NA,NA
459493,"2913 FOSTER AVE  6E","BROOKLYN","NY",11210,40.638565478,-73.9490546609999,493,"2913 FOSTER AVE  6E, BROOKLYN, NY, 11210","Match","Exact","2913 FOSTER AVE, BROOKLYN, NY, 11210",59081725,"L"
459494,"2913 GOLDEN MEADOW","MESQUITE","TX",75181,32.7342969900001,-96.598746385,494,"2913 GOLDEN MEADOW, MESQUITE, TX, 75181","Match","Non_Exact","2913 GOLDEN MEADOW AVE, MESQUITE, TX, 75181",103170344,"R"
459495,"2913 GOLDEN ROD CT","BEDFORD","TX",76021,32.852535389,-97.1037253,495,"2913 GOLDEN ROD CT, BEDFORD, TX, 76021","Match","Exact","2913 GOLDEN ROD CT, BEDFORD, TX, 76021",102091372,"R"
459496,"2913 GRINNELL STREET","LUBBOCK","TX",79415,33.608611276,-101.87943093,496,"2913 GRINNELL STREET, LUBBOCK, TX, 79415","Match","Exact","2913 GRINNELL ST, LUBBOCK, TX, 79415",185246319,"L"
459497,"2913 HALIFAX DRIVE","BELLEVUE","NE",68123,41.1052035060001,-95.9532134299999,497,"2913 HALIFAX DRIVE, BELLEVUE, NE, 68123","Match","Exact","2913 HALIFAX DR, BELLEVUE, NE, 68123",28490040,"R"
459498,"2913 HICKORY PLACE","FULLERTION","CA",92835,33.9041828540001,-117.889099155,498,"2913 HICKORY PLACE, FULLERTION, CA, 92835","Match","Non_Exact","2913 HICKORY PL, FULLERTON, CA, 92835",144007792,"L"
459499,"2913 HIGHLAND RIDGE DRIVE","NORMAN","OK",73069,35.2537383310001,-97.44504398,499,"2913 HIGHLAND RIDGE DRIVE, NORMAN, OK, 73069","Match","Exact","2913 HIGHLAND RIDGE DR, NORMAN, OK, 73069",617928525,"R"
459500,"2913 HOLLY LANE","ENDWELL","NY",13760,42.1336898490001,-76.030698279,500,"2913 HOLLY LANE, ENDWELL, NY, 13760","Match","Exact","2913 HOLLY LN, ENDWELL, NY, 13760",46373798,"L"
