"ID","Address","City","State","Zip","lat","long","id","input_address","match_indicator","match_type","matched_address","tiger_line_id","tiger_side"
555501,"3649 LEMON AVE","LONG BEACH","CA",90807,33.8231580720001,-118.178490645,1,"3649 LEMON AVE, LONG BEACH, CA, 90807","Match","Exact","3649 LEMON AVE, LONG BEACH, CA, 90807",141686449,"L"
555502,"3649 LEOPARD ST STE 413","CORPUS CHRISTI","TX",78408,27.797254421,-97.430916901,2,"3649 LEOPARD ST STE 413, CORPUS CHRISTI, TX, 78408","Match","Exact","3649 LEOPARD ST, CORPUS CHRISTI, TX, 78408",647424912,"L"
555503,"3649 LINDENWOOD STREET","SIOUX CITY","IA",51104,42.533088766,-96.418874407,3,"3649 LINDENWOOD STREET, SIOUX CITY, IA, 51104","Match","Exact","3649 LINDENWOOD ST, SIOUX CITY, IA, 51104",636263499,"L"
555504,"3649 LOUISIANA ST 103","SAN DIEGO","CA",92104,32.7446846020001,-117.140048199,4,"3649 LOUISIANA ST 103, SAN DIEGO, CA, 92104","Match","Exact","3649 LOUISIANA ST, SAN DIEGO, CA, 92104",195345359,"R"
555505,"3649 LUPTON CT","WHITE PLAINS","MD",20695,38.611940389,-76.964820248,5,"3649 LUPTON CT, WHITE PLAINS, MD, 20695","Match","Exact","3649 LUPTON CT, WHITE PLAINS, MD, 20695",636192314,"R"
555506,"3649 LUPTON DR","WHITE PLAINS","MD",20695,38.611940389,-76.964820248,6,"3649 LUPTON DR, WHITE PLAINS, MD, 20695","Match","Non_Exact","3649 LUPTON CT, WHITE PLAINS, MD, 20695",636192314,"R"
555507,"3649 MUD PIKE RD","CHRISTIANSBURG","VA",24073,NA,NA,7,"3649 MUD PIKE RD, CHRISTIANSBURG, VA, 24073","No_Match",NA,NA,NA,NA
555508,"3649 N 2300 E","FILER","ID",83328,42.5311421070001,-114.594360901,8,"3649 N 2300 E, FILER, ID, 83328","Match","Non_Exact","3649 N 2300 RD E, FILER, ID, 83328",118788906,"L"
555509,"3649 N QUENZER WAY","MERIDIAN","ID",83646,43.6381644240001,-116.378489523,9,"3649 N QUENZER WAY, MERIDIAN, ID, 83646","Match","Exact","3649 N QUENZER WAY, MERIDIAN, ID, 83646",616420886,"R"
555510,"3649 NIHIPALI PL","HONOLULU","HI",96816,21.295454615,-157.791513853,10,"3649 NIHIPALI PL, HONOLULU, HI, 96816","Match","Exact","3649 NIHIPALI PL, HONOLULU, HI, 96816",203242913,"R"
555511,"3649 NORWOOD ROAD","CLEVELAND","MS",44122,NA,NA,11,"3649 NORWOOD ROAD, CLEVELAND, MS, 44122","No_Match",NA,NA,NA,NA
555512,"3649 PEACHTREE RD NE","ATLANTA","GA",30319,NA,NA,12,"3649 PEACHTREE RD NE, ATLANTA, GA, 30319","No_Match",NA,NA,NA,NA
555513,"3649 ROBERT C HAM RD","MONTGOMERY","AL",36108,32.2864934290001,-86.4492757359999,13,"3649 ROBERT C HAM RD, MONTGOMERY, AL, 36108","Match","Exact","3649 ROBERT C HAM RD, MONTGOMERY, AL, 36108",650728322,"L"
555514,"3649 RUSHWOOD COURT","WICHITA","KS",67226,37.7494073500001,-97.257696003,14,"3649 RUSHWOOD COURT, WICHITA, KS, 67226","Match","Exact","3649 RUSHWOOD CT, WICHITA, KS, 67226",115680931,"R"
555515,"3649 S PARK","INDEPENDENCE","MO",64052,39.055694046,-94.439098216,15,"3649 S PARK, INDEPENDENCE, MO, 64052","Match","Non_Exact","3649 S PARK AVE, INDEPENDENCE, MO, 64052",91463290,"L"
555516,"3649 S PEARBLOSSOM CIR","SALT LAKE CITY","UT",84109,40.691492553,-111.795417688,16,"3649 S PEARBLOSSOM CIR, SALT LAKE CITY, UT, 84109","Match","Exact","3649 PEARBLOSSOM CIR, SALT LAKE CITY, UT, 84109",176120784,"R"
555517,"3649 SE BELMONT","PORTLAND","OR",97214,45.516450596,-122.626533607,17,"3649 SE BELMONT, PORTLAND, OR, 97214","Match","Non_Exact","3649 SE BELMONT ST, PORTLAND, OR, 97214",157509854,"L"
555518,"3649 SOUTH PEARBLOSSOM CIRCLE","SALT LAKE CITY","UT",84109,40.6914967820001,-111.795415745,18,"3649 SOUTH PEARBLOSSOM CIRCLE, SALT LAKE CITY, UT, 84109","Match","Non_Exact","3649 PEARBLOSSOM CIR, SALT LAKE CITY, UT, 84109",176120784,"R"
555519,"3649 SPRING BRANCH RD","BAXLEY","GA",31513,31.877919369,-82.333888244,19,"3649 SPRING BRANCH RD, BAXLEY, GA, 31513","Match","Exact","3649 SPRING BRANCH RD, BAXLEY, GA, 31513",4488721,"L"
555520,"3649 SPRINGBRANCH CHURCH RD","BAXLEY","GA",31513,31.877919369,-82.333888244,20,"3649 SPRINGBRANCH CHURCH RD, BAXLEY, GA, 31513","Match","Non_Exact","3649 SPRING BRANCH RD, BAXLEY, GA, 31513",4488721,"L"
555521,"3649 SW ROSARDO STREET","PORT ST LUCIE","FL",34986,27.237245355,-80.375698273,21,"3649 SW ROSARDO STREET, PORT ST LUCIE, FL, 34986","Match","Non_Exact","3649 SW ROSARDO ST, PORT SAINT LUCIE, FL, 34953",120143540,"L"
555522,"3649 SWEETWATER CROSSING","ST. CHARLES","MO",63301,38.829683254,-90.481451536,22,"3649 SWEETWATER CROSSING, ST. CHARLES, MO, 63301","Match","Non_Exact","3649 SWEETWATER CROSSING PL, SAINT CHARLES, MO, 63301",649773052,"R"
555523,"3649 TOWNSIDE DRIVE","BISHOP","GA",30621,33.8195334490001,-83.446818514,23,"3649 TOWNSIDE DRIVE, BISHOP, GA, 30621","Match","Exact","3649 TOWNSIDE DR, BISHOP, GA, 30621",618764164,"L"
555524,"3649 VALVERDE CIRCLE","JACKSONVILLE","FL",32224,30.2777321790001,-81.465625265,24,"3649 VALVERDE CIRCLE, JACKSONVILLE, FL, 32224","Match","Exact","3649 VALVERDE CIR, JACKSONVILLE, FL, 32224",641023996,"L"
555525,"3649 VAN HORN WAY","BURTONSVILLE","MD",20866,39.08614161,-76.935535192,25,"3649 VAN HORN WAY, BURTONSVILLE, MD, 20866","Match","Exact","3649 VAN HORN WAY, BURTONSVILLE, MD, 20866",62089871,"R"
555526,"3649 W 70TH PL","CHICAGO","IL",60629,41.765124976,-87.71396053,26,"3649 W 70TH PL, CHICAGO, IL, 60629","Match","Exact","3649 W 70TH PL, CHICAGO, IL, 60629",111816876,"L"
555527,"3649 W POLK","PHOENIX","AZ",85009,33.453225467,-112.137754978,27,"3649 W POLK, PHOENIX, AZ, 85009","Match","Non_Exact","3649 W POLK ST, PHOENIX, AZ, 85009",128202069,"L"
555528,"3649 WEST 500 NORTH","KOKOMO","IN",46901,40.5480550010001,-86.195698578,28,"3649 WEST 500 NORTH, KOKOMO, IN, 46901","Match","Exact","3649 W 500 N, KOKOMO, IN, 46901",27261688,"R"
555529,"36490 RETREAT LANE","PRAIRIEVILLE","LA",70769,30.319820038,-90.9933118169999,29,"36490 RETREAT LANE, PRAIRIEVILLE, LA, 70769","Match","Exact","36490 RETREAT LN, PRAIRIEVILLE, LA, 70769",624660548,"R"
555530,"36490 W BILBAO ST","MARICOA","AZ",85138,33.060351446,-111.959717633,30,"36490 W BILBAO ST, MARICOA, AZ, 85138","Match","Non_Exact","36490 W BILBAO ST, MARICOPA, AZ, 85138",627495331,"L"
555531,"36491 YAMAS DR UNIT 2003","WILDOMAR","CA",92595,33.5910219420001,-117.232502528,31,"36491 YAMAS DR UNIT 2003, WILDOMAR, CA, 92595","Match","Exact","36491 YAMAS DR, WILDOMAR, CA, 92595",194713974,"L"
555532,"36491 YAMAS DR","WILDOMAR","CA",92595,33.5910219420001,-117.232502528,32,"36491 YAMAS DR, WILDOMAR, CA, 92595","Match","Exact","36491 YAMAS DR, WILDOMAR, CA, 92595",194713974,"L"
555533,"36491 YAMAS DRIVE APT 2501","WILDOMAR","CA",92595,33.5910219420001,-117.232502528,33,"36491 YAMAS DRIVE APT 2501, WILDOMAR, CA, 92595","Match","Exact","36491 YAMAS DR, WILDOMAR, CA, 92595",194713974,"L"
555534,"36495 VALLEY VIEW LANE","HALFWAY","OR",97834,44.905886923,-117.149160967,34,"36495 VALLEY VIEW LANE, HALFWAY, OR, 97834","Match","Exact","36495 VALLEY VIEW LN, HALFWAY, OR, 97834",617855819,"L"
555535,"36497 830TH STREET","HERON LAKE","MN",56137,NA,NA,35,"36497 830TH STREET, HERON LAKE, MN, 56137","No_Match",NA,NA,NA,NA
555536,"36498 BETTENCOURT","NEWARK","CA",94560,37.533093417,-122.047521334,36,"36498 BETTENCOURT, NEWARK, CA, 94560","Match","Non_Exact","36498 BETTENCOURT ST, NEWARK, CA, 94560",125027341,"L"
555537,"364B LASALLE SREET","BERWICK","PA",18603,41.0529046560001,-76.244185063,37,"364B LASALLE SREET, BERWICK, PA, 18603","Match","Non_Exact","364 LASALLE ST, BERWICK, PA, 18603",59238127,"R"
555538,"365 - 21ST STREET","SPRINGFIELD","OR",97477,NA,NA,38,"365 - 21ST STREET, SPRINGFIELD, OR, 97477","No_Match",NA,NA,NA,NA
555539,"365 1/2 22ND AVE","SAN FRANCISCO","CA",94121,37.7809831220001,-122.48157626,39,"365 1/2 22ND AVE, SAN FRANCISCO, CA, 94121","Match","Exact","365 22ND AVE, SAN FRANCISCO, CA, 94121",192277457,"R"
555540,"365 1/2 LAKE AVENUE","OCEAN","NJ",7712,40.217015265,-74.005165328,40,"365 1/2 LAKE AVENUE, OCEAN, NJ, 7712","Match","Exact","365 LAKE AVE, OCEAN, NJ, 07712",646959934,"R"
555541,"365 2ND ST","NATCHITOCHES","LA",71457,31.7572460860001,-93.0898581769999,41,"365 2ND ST, NATCHITOCHES, LA, 71457","Match","Exact","365 2ND ST, NATCHITOCHES, LA, 71457",13350448,"R"
555542,"365 7TH STREET SOUTH","SAINT PETERSBURG","FL",33701,27.7674356750001,-82.643278795,42,"365 7TH STREET SOUTH, SAINT PETERSBURG, FL, 33701","Match","Exact","365 7TH ST S, SAINT PETERSBURG, FL, 33701",124708146,"R"
555543,"365 80TH ST","BROOKLYN","NY",11209,40.627434405,-74.027563452,43,"365 80TH ST, BROOKLYN, NY, 11209","Match","Exact","365 80TH ST, BROOKLYN, NY, 11209",59094189,"L"
555544,"365 ALEXANDER ST","MEMPHIS","TN",38111,35.121835349,-89.951507638,44,"365 ALEXANDER ST, MEMPHIS, TN, 38111","Match","Exact","365 ALEXANDER ST, MEMPHIS, TN, 38111",72915778,"R"
555545,"365 AMPTHILL ROAD","CARTERSVILLE","VA",23027,37.6894604330001,-78.11367941,45,"365 AMPTHILL ROAD, CARTERSVILLE, VA, 23027","Match","Exact","365 AMPTHILL RD, CARTERSVILLE, VA, 23027",73705728,"L"
555546,"365 ANACAPA DR","ROSEVILLE","CA",95678,38.7828238660001,-121.297531595,46,"365 ANACAPA DR, ROSEVILLE, CA, 95678","Match","Exact","365 ANACAPA DR, ROSEVILLE, CA, 95678",106794057,"L"
555547,"365 ARROYO ROAD","SANTA BARBARA","CA",93110,34.435236117,-119.78001339,47,"365 ARROYO ROAD, SANTA BARBARA, CA, 93110","Match","Exact","365 ARROYO RD, SANTA BARBARA, CA, 93110",108602684,"R"
555548,"365 BALDWIN RD","ROCKMART","GA",30153,33.996919269,-85.0930750319999,48,"365 BALDWIN RD, ROCKMART, GA, 30153","Match","Exact","365 BALDWIN RD, ROCKMART, GA, 30153",29632113,"R"
555549,"365 BARDEN PARKWAY","CASTROVILLE","TX",78009,29.427132407,-98.83635555,49,"365 BARDEN PARKWAY, CASTROVILLE, TX, 78009","Match","Exact","365 BARDEN PKWY, CASTROVILLE, TX, 78009",651874409,"L"
555550,"365 BARR AVENUE","STARKVILLE","MS",39762,NA,NA,50,"365 BARR AVENUE, STARKVILLE, MS, 39762","No_Match",NA,NA,NA,NA
555551,"365 BARSHAY DR","COVINGTON","GA",30016,33.602681724,-83.9682249269999,51,"365 BARSHAY DR, COVINGTON, GA, 30016","Match","Exact","365 BARSHAY DR, COVINGTON, GA, 30016",634060420,"L"
555552,"365 BEALE AVE","ST AUGUSTINE","FL",32092,30.03058065,-81.568732105,52,"365 BEALE AVE, ST AUGUSTINE, FL, 32092","Match","Exact","365 BEALE AVE, SAINT AUGUSTINE, FL, 32092",652184247,"L"
555553,"365 BOND ST B318","BROOKLYN","NY",11231,40.678061391,-73.990936265,53,"365 BOND ST B318, BROOKLYN, NY, 11231","Match","Exact","365 BOND ST, BROOKLYN, NY, 11231",59075572,"L"
555554,"365 BOND STREET A223","BROOKLYN","NY",11231,40.678061391,-73.990936265,54,"365 BOND STREET A223, BROOKLYN, NY, 11231","Match","Exact","365 BOND ST, BROOKLYN, NY, 11231",59075572,"L"
555555,"365 BOND STREET","BROOKLYN","NY",11231,40.678061391,-73.990936265,55,"365 BOND STREET, BROOKLYN, NY, 11231","Match","Exact","365 BOND ST, BROOKLYN, NY, 11231",59075572,"L"
555556,"365 BOONE HOLLOW RD","WILLIAMS","IN",47470,38.862079297,-86.665424726,56,"365 BOONE HOLLOW RD, WILLIAMS, IN, 47470","Match","Exact","365 BOONE HOLLOW RD, WILLIAMS, IN, 47470",650505754,"L"
555557,"365 BOWERS RD","TROY","IL",62294,38.670314551,-89.88937321,57,"365 BOWERS RD, TROY, IL, 62294","Match","Exact","365 BOWERS RD, TROY, IL, 62294",107744744,"L"
555558,"365 BOWERS ROAD","TROY","IL",62294,38.670314551,-89.88937321,58,"365 BOWERS ROAD, TROY, IL, 62294","Match","Exact","365 BOWERS RD, TROY, IL, 62294",107744744,"L"
555559,"365 BRADBURY","BARTLETT","IL",60103,41.9887687510001,-88.175097637,59,"365 BRADBURY, BARTLETT, IL, 60103","Match","Non_Exact","365 BRADBURY LN, BARTLETT, IL, 60103",112388393,"R"
555560,"365 BREEZY HILL ROAD","HILLSDALE","NY",12529,42.1519135630001,-73.495355166,60,"365 BREEZY HILL ROAD, HILLSDALE, NY, 12529","Match","Exact","365 BREEZY HILL RD, HILLSDALE, NY, 12529",41510572,"L"
555561,"365 BRENTWOOD STREET","INKSTER","MI",48141,42.3084646900001,-83.3031003139999,61,"365 BRENTWOOD STREET, INKSTER, MI, 48141","Match","Exact","365 BRENTWOOD ST, INKSTER, MI, 48141",95502871,"L"
555562,"365 BRICKYARD HILL ROAD","RUFFSDALE","PA",15679,NA,NA,62,"365 BRICKYARD HILL ROAD, RUFFSDALE, PA, 15679","No_Match",NA,NA,NA,NA
555563,"365 BRIDGE ST 3PRO","BROOKLYN","NY",11201,40.6922746930001,-73.985264216,63,"365 BRIDGE ST 3PRO, BROOKLYN, NY, 11201","Match","Exact","365 BRIDGE ST, BROOKLYN, NY, 11201",639414323,"L"
555564,"365 BRIDGE STREET APT 10N","BROOKLYN","NY",11201,40.6922746930001,-73.985264216,64,"365 BRIDGE STREET APT 10N, BROOKLYN, NY, 11201","Match","Exact","365 BRIDGE ST, BROOKLYN, NY, 11201",639414323,"L"
555565,"365 BRIDGE STREET APT 4F","BROOKLYN","NY",11201,40.6922746930001,-73.985264216,65,"365 BRIDGE STREET APT 4F, BROOKLYN, NY, 11201","Match","Exact","365 BRIDGE ST, BROOKLYN, NY, 11201",639414323,"L"
555566,"365 BRIGGS ROAD","WESTPORT","MA",2790,41.6477595470001,-71.1089657529999,66,"365 BRIGGS ROAD, WESTPORT, MA, 2790","Match","Exact","365 BRIGGS RD, WESTPORT, MA, 02790",649755220,"L"
555567,"365 BROADWAY APT 3","BAYONNE","NJ",7002,40.659410677,-74.122094698,67,"365 BROADWAY APT 3, BAYONNE, NJ, 7002","Match","Exact","365 BROADWAY, BAYONNE, NJ, 07002",59602653,"L"
555568,"365 BRONX RIVER ROAD 5G","YONKERS","NY",10704,40.91244341,-73.8520771949999,68,"365 BRONX RIVER ROAD 5G, YONKERS, NY, 10704","Match","Exact","365 BRONX RIVER RD, YONKERS, NY, 10704",611228049,"L"
555569,"365 BROOKFIELD DRIVE","HELENA","MT",59602,46.6213365020001,-112.042654406,69,"365 BROOKFIELD DRIVE, HELENA, MT, 59602","Match","Exact","365 BROOKFIELD DR, HELENA, MT, 59602",617981406,"L"
555570,"365 BROOKS ROAD","REIDSVILLE","NC",27320,36.357358542,-79.6253713419999,70,"365 BROOKS ROAD, REIDSVILLE, NC, 27320","Match","Exact","365 BROOKS RD, REIDSVILLE, NC, 27320",56219794,"R"
555571,"365 BRYCE WAY","MT. WASHINGTON","KY",40047,38.035091634,-85.599480246,71,"365 BRYCE WAY, MT. WASHINGTON, KY, 40047","Match","Exact","365 BRYCE WAY, MOUNT WASHINGTON, KY, 40047",631026184,"L"
555572,"365 BUCHANAN ROAD","BRENTWOOD","CA",94513,NA,NA,72,"365 BUCHANAN ROAD, BRENTWOOD, CA, 94513","No_Match",NA,NA,NA,NA
555573,"365 BUCKINGHAM CIRCLE","HARLEYSVILLE","PA",19438,40.267383984,-75.368774451,73,"365 BUCKINGHAM CIRCLE, HARLEYSVILLE, PA, 19438","Match","Exact","365 BUCKINGHAM CIR, HARLEYSVILLE, PA, 19438",605636970,"R"
555574,"365 CALHOUN ROAD","WAYNESVILLE","NC",28786,35.5072930810001,-82.982122627,74,"365 CALHOUN ROAD, WAYNESVILLE, NC, 28786","Match","Exact","365 CALHOUN RD, WAYNESVILLE, NC, 28786",151834626,"L"
555575,"365 CAMBRIDGE DRIVE","RAMSEY","NJ",7446,41.0720346680001,-74.120709843,75,"365 CAMBRIDGE DRIVE, RAMSEY, NJ, 7446","Match","Exact","365 CAMBRIDGE DR, RAMSEY, NJ, 07446",627026895,"R"
555576,"365 CANAL STREET STE 2425","NEW ORLEANS","LA",70130,29.951193636,-90.065849354,76,"365 CANAL STREET STE 2425, NEW ORLEANS, LA, 70130","Match","Exact","365 CANAL ST, NEW ORLEANS, LA, 70130",191714480,"R"
555577,"365 CANAL STREET SUITE 2000","NEW ORLEANS","LA",70130,29.951193636,-90.065849354,77,"365 CANAL STREET SUITE 2000, NEW ORLEANS, LA, 70130","Match","Exact","365 CANAL ST, NEW ORLEANS, LA, 70130",191714480,"R"
555578,"365 CARIBBEAN ROAD","KEY BISCAYNE","FL",33149,25.6945962890001,-80.162192089,78,"365 CARIBBEAN ROAD, KEY BISCAYNE, FL, 33149","Match","Exact","365 CARIBBEAN RD, KEY BISCAYNE, FL, 33149",116021313,"L"
555579,"365 CARTER HILL ROAD","ROCKWELL","NC",28138,35.5063052630001,-80.508259687,79,"365 CARTER HILL ROAD, ROCKWELL, NC, 28138","Match","Exact","365 CARTER HILL RD, ROCKWELL, NC, 28138",25287807,"L"
555580,"365 CASTLETON CIRCLE","BOILING SPRINGS","SC",29316,NA,NA,80,"365 CASTLETON CIRCLE, BOILING SPRINGS, SC, 29316","No_Match",NA,NA,NA,NA
555581,"365 CENTER ROAD","GRANGEVILLE","ID",83530,46.0441212160001,-116.237738434,81,"365 CENTER ROAD, GRANGEVILLE, ID, 83530","Match","Exact","365 CENTER RD, GRANGEVILLE, ID, 83530",195958838,"R"
555582,"365 CHAPEL HILL LANE RD","WAXAHACHIE","TX",75165,32.481097258,-96.7617757949999,82,"365 CHAPEL HILL LANE RD, WAXAHACHIE, TX, 75165","Match","Exact","365 CHAPEL HILL LN, WAXAHACHIE, TX, 75165",103481613,"L"
555583,"365 CHURCHILL DR","NEWINGTON","CT",6111,41.677210804,-72.716478477,83,"365 CHURCHILL DR, NEWINGTON, CT, 6111","Match","Exact","365 CHURCHILL DR, NEWINGTON, CT, 06111",640560934,"R"
555584,"365 CIMARRON DRIVE","FLORESVILLE","TX",78114,29.2610942360001,-98.24130661,84,"365 CIMARRON DRIVE, FLORESVILLE, TX, 78114","Match","Exact","365 CIMARRON DR, FLORESVILLE, TX, 78114",648816698,"R"
555585,"365 CLEARLAKE DR","LA VERGNE","TN",37086,36.0566821940001,-86.545015918,85,"365 CLEARLAKE DR, LA VERGNE, TN, 37086","Match","Exact","365 CLEARLAKE DR, LA VERGNE, TN, 37086",645531302,"L"
555586,"365 COLD SPRING AVE","W SPRINGFIELD","MA",1089,42.095041393,-72.6250751699999,86,"365 COLD SPRING AVE, W SPRINGFIELD, MA, 1089","Match","Exact","365 COLD SPRING AVE, W SPRINGFIELD, MA, 01089",4033146,"L"
555587,"365 COLLEGE AVE","MECHANICSBURG","PA",17055,40.1587531710001,-76.98555938,87,"365 COLLEGE AVE, MECHANICSBURG, PA, 17055","Match","Exact","365 COLLEGE AVE, MECHANICSBURG, PA, 17055",650049640,"L"
555588,"365 COUNTRY LANE DRIVE","COCOA","FL",32926,28.3613834540001,-80.766947769,88,"365 COUNTRY LANE DRIVE, COCOA, FL, 32926","Match","Exact","365 COUNTRY LANE DR, COCOA, FL, 32926",93915759,"R"
555589,"365 COUNTY ROAD 2281","EUREKA SPRINGS","AR",72631,NA,NA,89,"365 COUNTY ROAD 2281, EUREKA SPRINGS, AR, 72631","No_Match",NA,NA,NA,NA
555590,"365 COUNTY ROAD 301","NACOGDOCHES","TX",75961,31.609759475,-94.533537662,90,"365 COUNTY ROAD 301, NACOGDOCHES, TX, 75961","Match","Exact","365 CO RD 301, NACOGDOCHES, TX, 75961",72437984,"L"
555591,"365 CRABTREE MOUNTAIN ROAD","CANTON","NC",28716,35.5610355470001,-82.857952326,91,"365 CRABTREE MOUNTAIN ROAD, CANTON, NC, 28716","Match","Exact","365 CRABTREE MOUNTAIN RD, CANTON, NC, 28716",151825661,"L"
555592,"365 CRESTDALE WAY","KLAMATH FALLS","OR",97603,42.2268996350001,-121.720513792,92,"365 CRESTDALE WAY, KLAMATH FALLS, OR, 97603","Match","Exact","365 CRESTDALE WAY, KLAMATH FALLS, OR, 97603",156660927,"L"
555593,"365 CRESTVIEW DR S","MAPLEWOOD","MN",55119,44.9293141090001,-92.998809434,93,"365 CRESTVIEW DR S, MAPLEWOOD, MN, 55119","Match","Non_Exact","365 CRESTVIEW DR, MAPLEWOOD, MN, 55119",97667035,"R"
555594,"365 CROCKETT DRIVE","LEWISVILLE","TX",75057,33.041055816,-97.00154964,94,"365 CROCKETT DRIVE, LEWISVILLE, TX, 75057","Match","Exact","365 CROCKETT DR, LEWISVILLE, TX, 75057",103349078,"R"
555595,"365 CROSSTOWN BLVD  APT 369","CHASKA","MN",55318,44.799142284,-93.5969623239999,95,"365 CROSSTOWN BLVD  APT 369, CHASKA, MN, 55318","Match","Exact","365 CROSSTOWN BLVD, CHASKA, MN, 55318",43513201,"R"
555596,"365 CUMBERLAND CIR","BOWLING GREEN","KY",42103,36.96892738,-86.3922796699999,96,"365 CUMBERLAND CIR, BOWLING GREEN, KY, 42103","Match","Exact","365 CUMBERLAND CIR, BOWLING GREEN, KY, 42103",28006119,"L"
555597,"365 DAKOTA AVE","MCDONALD","OH",44437,41.1653794690001,-80.7315608599999,97,"365 DAKOTA AVE, MCDONALD, OH, 44437","Match","Non_Exact","365 DAKOTA AVE, MC DONALD, OH, 44437",636567097,"R"
555598,"365 DALE ST","SOMONAUK","IL",60552,41.634499293,-88.678247055,98,"365 DALE ST, SOMONAUK, IL, 60552","Match","Non_Exact","365 E DALE ST, SOMONAUK, IL, 60552",52263979,"R"
555599,"365 DANIEL SIDING LOOP","RICHMOND HILL","GA",31324,NA,NA,99,"365 DANIEL SIDING LOOP, RICHMOND HILL, GA, 31324","Tie",NA,NA,NA,NA
555600,"365 DANIELS STREET","ISLAND","KY",42350,37.4453672600001,-87.1489487169999,100,"365 DANIELS STREET, ISLAND, KY, 42350","Match","Exact","365 DANIELS ST, ISLAND, KY, 42350",38602439,"L"
555601,"365 DECATUR STREET","BROOKLYN","NY",11233,40.681918701,-73.929374815,101,"365 DECATUR STREET, BROOKLYN, NY, 11233","Match","Exact","365 DECATUR ST, BROOKLYN, NY, 11233",59082793,"L"
555602,"365 DEPUTY LN UNIT A","NEWPORT NEWS","VA",23608,37.1443536040001,-76.5356314319999,102,"365 DEPUTY LN UNIT A, NEWPORT NEWS, VA, 23608","Match","Exact","365 DEPUTY LN, NEWPORT NEWS, VA, 23608",103822748,"R"
555603,"365 DEVON DRIVE","EXTON","PA",19341,40.0432988750001,-75.64744739,103,"365 DEVON DRIVE, EXTON, PA, 19341","Match","Exact","365 DEVON DR, EXTON, PA, 19341",179487411,"R"
555604,"365 DEWDROP RD","YORK","PA",17402,39.924053112,-76.6831586709999,104,"365 DEWDROP RD, YORK, PA, 17402","Match","Non_Exact","365 DEW DROP RD, YORK, PA, 17402",611430683,"L"
555605,"365 DIVISION STREET","CRETE","IL",60417,41.442439483,-87.6254990419999,105,"365 DIVISION STREET, CRETE, IL, 60417","Match","Exact","365 DIVISION ST, CRETE, IL, 60417",111553238,"L"
555606,"365 DORAL COURT","WESTMINSTER","MD",21158,39.5655169940001,-77.025639578,106,"365 DORAL COURT, WESTMINSTER, MD, 21158","Match","Exact","365 DORAL CT, WESTMINSTER, MD, 21158",61765491,"R"
555607,"365 DUNSTER DRIVE","CAMPBELL","CA",95008,37.2921813830001,-121.952152903,107,"365 DUNSTER DRIVE, CAMPBELL, CA, 95008","Match","Exact","365 DUNSTER DR, CAMPBELL, CA, 95008",122904677,"L"
555608,"365 DURAY COURT","JACKSONVILLE","FL",32208,30.3801553280001,-81.658790364,108,"365 DURAY COURT, JACKSONVILLE, FL, 32208","Match","Exact","365 DURAY CT, JACKSONVILLE, FL, 32208",83897643,"R"
555609,"365 E 184TH ST 606","BRONX","NY",10458,40.857711341,-73.8955673529999,109,"365 E 184TH ST 606, BRONX, NY, 10458","Match","Non_Exact","365 E 184TH ST, BRONX, NY, 10458",612148082,"L"
555610,"365 E 53RD ST","BROOKLYN","NY",11203,40.6511972340001,-73.927384342,110,"365 E 53RD ST, BROOKLYN, NY, 11203","Match","Exact","365 E 53RD ST, BROOKLYN, NY, 11203",59085747,"L"
555611,"365 E ARABIAN DR","GILBERT","AZ",85296,33.3360698120001,-111.782590883,111,"365 E ARABIAN DR, GILBERT, AZ, 85296","Match","Exact","365 E ARABIAN DR, GILBERT, AZ, 85296",128783038,"R"
555612,"365 E AVENIDA DE LOS ARBOLES 236","THOUSAND OAKS","CA",91360,34.217264862,-118.885301432,112,"365 E AVENIDA DE LOS ARBOLES 236, THOUSAND OAKS, CA, 91360","Match","Non_Exact","365 W AVE DE LOS ARBOLES, THOUSAND OAKS, CA, 91360",109967263,"R"
555613,"365 E JONESBORO ROAD","ATLANTA","GA",30307,NA,NA,113,"365 E JONESBORO ROAD, ATLANTA, GA, 30307","No_Match",NA,NA,NA,NA
555614,"365 E PECAN ST","HURST","TX",76053,32.819173241,-97.173797398,114,"365 E PECAN ST, HURST, TX, 76053","Match","Non_Exact","365 W PECAN ST, HURST, TX, 76053",101870015,"L"
555615,"365 E RIDGE ROAD","MIDDLETOWN,","CT",6457,NA,NA,115,"365 E RIDGE ROAD, MIDDLETOWN,, CT, 6457","Tie",NA,NA,NA,NA
555616,"365 EAST FREEHOLD ROAD","FREEHOLD","NJ",7728,40.272382787,-74.2477771809999,116,"365 EAST FREEHOLD ROAD, FREEHOLD, NJ, 7728","Match","Exact","365 E FREEHOLD RD, FREEHOLD, NJ, 07728",653263646,"L"
555617,"365 ECKER LANE","TULSA","OK",74126,NA,NA,117,"365 ECKER LANE, TULSA, OK, 74126","No_Match",NA,NA,NA,NA
555618,"365 EMILY LANE","CHAPEL HILL","NC",27516,35.8558674500001,-79.153670142,118,"365 EMILY LANE, CHAPEL HILL, NC, 27516","Match","Exact","365 EMILY LN, CHAPEL HILL, NC, 27516",634800029,"R"
555619,"365 EVANS ST","ERIE","CO",80516,40.052801247,-105.049401446,119,"365 EVANS ST, ERIE, CO, 80516","Match","Exact","365 EVANS ST, ERIE, CO, 80516",188733393,"L"
555620,"365 FAIRFAX DR","WINSTON SALEM","NC",27104,36.093322432,-80.293461973,120,"365 FAIRFAX DR, WINSTON SALEM, NC, 27104","Match","Exact","365 FAIRFAX DR, WINSTON SALEM, NC, 27104",84679365,"L"
555621,"365 FIFTH AVE S SUITE 200","NAPLES","FL",34102,NA,NA,121,"365 FIFTH AVE S SUITE 200, NAPLES, FL, 34102","No_Match",NA,NA,NA,NA
555622,"365 FIFTH AVE STE 5307","NEW YORK","NY",10016,40.7488392880001,-73.984259809,122,"365 FIFTH AVE STE 5307, NEW YORK, NY, 10016","Match","Exact","365 5TH AVE, NEW YORK, NY, 10016",59653432,"R"
555623,"365 FIFTH AVENUE ROOM 4406","NEW YORK","NY",10016,40.7488392880001,-73.984259809,123,"365 FIFTH AVENUE ROOM 4406, NEW YORK, NY, 10016","Match","Exact","365 5TH AVE, NEW YORK, NY, 10016",59653432,"R"
555624,"365 FIFTH AVENUE","NEW YORK","NY",10016,40.7488392880001,-73.984259809,124,"365 FIFTH AVENUE, NEW YORK, NY, 10016","Match","Exact","365 5TH AVE, NEW YORK, NY, 10016",59653432,"R"
555625,"365 FLORENCE AVE","OAKLAND","CA",94618,37.8391639710001,-122.228339409,125,"365 FLORENCE AVE, OAKLAND, CA, 94618","Match","Exact","365 FLORENCE AVE, OAKLAND, CA, 94618",125080539,"R"
555626,"365 FLORIDA BLVD","MERRITT ISLAND","FL",32953,28.3896165130001,-80.695201513,126,"365 FLORIDA BLVD, MERRITT ISLAND, FL, 32953","Match","Exact","365 FLORIDA BLVD, MERRITT ISLAND, FL, 32953",93893417,"R"
555627,"365 FORD STREET APT 4D4","BRONX","NY",10457,40.8556721640001,-73.896197716,127,"365 FORD STREET APT 4D4, BRONX, NY, 10457","Match","Exact","365 FORD ST, BRONX, NY, 10457",612146361,"R"
555628,"365 GIBBS POND RD","NESCONSET","NY",11767,40.840055072,-73.136476089,128,"365 GIBBS POND RD, NESCONSET, NY, 11767","Match","Exact","365 GIBBS POND RD, NESCONSET, NY, 11767",113991502,"L"
555629,"365 GOLF ROAD","REINHOLDS","PA",17569,40.298052275,-76.1195959839999,129,"365 GOLF ROAD, REINHOLDS, PA, 17569","Match","Exact","365 GOLF RD, REINHOLDS, PA, 17569",80429280,"R"
555630,"365 GRAND STREET","NEW YORK","NY",10002,40.7166246620001,-73.9889121269999,130,"365 GRAND STREET, NEW YORK, NY, 10002","Match","Exact","365 GRAND ST, NEW YORK, NY, 10002",59654286,"R"
555631,"365 GRAYSON WAY","ALPHARETTA","GA",30084,34.131581828,-84.2438663409999,131,"365 GRAYSON WAY, ALPHARETTA, GA, 30084","Match","Non_Exact","365 GRAYSON WAY, ALPHARETTA, GA, 30004",629552738,"L"
555632,"365 GREEN OAK DRIVE","KERRVILLE","TX",78028,30.0469657880001,-99.067464031,132,"365 GREEN OAK DRIVE, KERRVILLE, TX, 78028","Match","Exact","365 GREEN OAK DR, KERRVILLE, TX, 78028",176902525,"L"
555633,"365 GREENWOOD DR","LILBURN","GA",30047,33.885615321,-84.1562769509999,133,"365 GREENWOOD DR, LILBURN, GA, 30047","Match","Non_Exact","365 GREENWOOD DR NW, LILBURN, GA, 30047",638032024,"L"
555634,"365 GREENWOOD DRIVE NW","LILBURN","GA",30047,33.885615321,-84.1562769509999,134,"365 GREENWOOD DRIVE NW, LILBURN, GA, 30047","Match","Exact","365 GREENWOOD DR NW, LILBURN, GA, 30047",638032024,"L"
555635,"365 GULF RD","KEY BISCYANE","FL",33149,25.694598764,-80.161269616,135,"365 GULF RD, KEY BISCYANE, FL, 33149","Match","Non_Exact","365 GULF RD, KEY BISCAYNE, FL, 33149",116021314,"L"
555636,"365 HANES BAKER ROAD","CORBIN","KY",40701,36.971483128,-84.0830929859999,136,"365 HANES BAKER ROAD, CORBIN, KY, 40701","Match","Exact","365 HANES BAKER RD, CORBIN, KY, 40701",98735630,"R"
555637,"365 HIGH POINT CV","STATE COLLEGE","PA",16801,40.773632063,-77.870043202,137,"365 HIGH POINT CV, STATE COLLEGE, PA, 16801","Match","Exact","365 HIGH POINT COVE, STATE COLLEGE, PA, 16801",50378756,"L"
555638,"365 HIGH ST","ROCHESTER","MA",2770,41.7759164930001,-70.790707303,138,"365 HIGH ST, ROCHESTER, MA, 2770","Match","Exact","365 HIGH ST, ROCHESTER, MA, 02770",87423300,"L"
555639,"365 HIGH STREET","CLOSTER","NJ",7624,40.9725710970001,-73.964004453,139,"365 HIGH STREET, CLOSTER, NJ, 7624","Match","Exact","365 HIGH ST, CLOSTER, NJ, 07624",64370791,"R"
555640,"365 HILLBERG AVE","BROCKTON","MA",2301,42.0625835060001,-71.0360236829999,140,"365 HILLBERG AVE, BROCKTON, MA, 2301","Match","Exact","365 HILLBERG AVE, BROCKTON, MA, 02301",87443785,"R"
555641,"365 INVERNESS COURT","MOUNT LAUREL","NJ",8054,39.9533710760001,-74.881517705,141,"365 INVERNESS COURT, MOUNT LAUREL, NJ, 8054","Match","Exact","365 INVERNESS CT, MOUNT LAUREL, NJ, 08054",617127674,"R"
555642,"365 IRVINE LANE","FRANKLIN","TN",37064,35.8669400090001,-86.820118104,142,"365 IRVINE LANE, FRANKLIN, TN, 37064","Match","Exact","365 IRVINE LN, FRANKLIN, TN, 37064",642310470,"L"
555643,"365 JAY STREET APT 6A","Brooklyn","NY",11201,40.6928888150001,-73.9872558819999,143,"365 JAY STREET APT 6A, Brooklyn, NY, 11201","Match","Exact","365 JAY ST, BROOKLYN, NY, 11201",59098939,"L"
555644,"365 JOG ROAD","WEST PALM BEACH","FL",33415,26.6758668190001,-80.145197292,144,"365 JOG ROAD, WEST PALM BEACH, FL, 33415","Match","Non_Exact","365 JOG RD, WEST PALM BEACH, FL, 33413",115487458,"R"
555645,"365 JONES ROAD","CORDOVA","AL",35550,33.7837564590001,-87.155034417,145,"365 JONES ROAD, CORDOVA, AL, 35550","Match","Exact","365 JONES RD, CORDOVA, AL, 35550",120574832,"R"
555646,"365 KLEMER ROAD","NORTH TONAWANDA","NY",14120,NA,NA,146,"365 KLEMER ROAD, NORTH TONAWANDA, NY, 14120","No_Match",NA,NA,NA,NA
555647,"365 LAKEVIEW DRIVE","SPRING GROVE","PA",17362,39.8870476320001,-76.879288759,147,"365 LAKEVIEW DRIVE, SPRING GROVE, PA, 17362","Match","Exact","365 LAKEVIEW DR, SPRING GROVE, PA, 17362",635880216,"L"
555648,"365 LAZY AVE","EUGENE","OR",97404,44.1071517440001,-123.123941294,148,"365 LAZY AVE, EUGENE, OR, 97404","Match","Exact","365 LAZY AVE, EUGENE, OR, 97404",633030487,"L"
555649,"365 LEATHER LEAF","LEBANON","OH",45036,39.413670246,-84.213686918,149,"365 LEATHER LEAF, LEBANON, OH, 45036","Match","Non_Exact","365 LEATHER LEAF LN, LEBANON, OH, 45036",159044221,"R"
555650,"365 LINCOLN AVE APT 5G","ORANGE","NJ",7050,40.765025033,-74.240805111,150,"365 LINCOLN AVE APT 5G, ORANGE, NJ, 7050","Match","Exact","365 LINCOLN AVE, ORANGE, NJ, 07050",63494247,"R"
555651,"365 LOAR RD SE","SILVERTON","OR",97381,44.9261453990001,-122.66705029,151,"365 LOAR RD SE, SILVERTON, OR, 97381","Match","Exact","365 LOAR RD SE, SILVERTON, OR, 97381",613684705,"R"
555652,"365 LUELLA ST N APT 107","ST PAUL","MN",55119,44.9532503900001,-93.017658548,152,"365 LUELLA ST N APT 107, ST PAUL, MN, 55119","Match","Exact","365 LUELLA ST N, SAINT PAUL, MN, 55119",97653685,"L"
555653,"365 MAIN STREET","CATSKILL","NY",12414,42.218569175,-73.865265677,153,"365 MAIN STREET, CATSKILL, NY, 12414","Match","Exact","365 MAIN ST, CATSKILL, NY, 12414",35672917,"L"
555654,"365 MALACCA","AKRON","OH",44305,41.071949085,-81.4560074349999,154,"365 MALACCA, AKRON, OH, 44305","Match","Non_Exact","365 MALACCA ST, AKRON, OH, 44305",61352301,"R"
555655,"365 MAPLE CREEK ROAD","RUTHEFORDTON","NC",28139,35.3762328830001,-81.971437424,155,"365 MAPLE CREEK ROAD, RUTHEFORDTON, NC, 28139","Match","Non_Exact","365 MAPLE CREEK RD, RUTHERFORDTON, NC, 28139",636816562,"L"
555656,"365 MAPLE CREEK ROAD","RUTHERFORDTON","NC",28139,35.3762328830001,-81.971437424,156,"365 MAPLE CREEK ROAD, RUTHERFORDTON, NC, 28139","Match","Exact","365 MAPLE CREEK RD, RUTHERFORDTON, NC, 28139",636816562,"L"
555657,"365 MATHER STREET UNIT 15","HAMDEN","CT",6514,41.3577841630001,-72.9227489739999,157,"365 MATHER STREET UNIT 15, HAMDEN, CT, 6514","Match","Exact","365 MATHER ST, HAMDEN, CT, 06514",3699298,"R"
555658,"365 MEMORIAL MILE","AMERICUS","GA",31719,32.13270907,-84.2668527929999,158,"365 MEMORIAL MILE, AMERICUS, GA, 31719","Match","Exact","365 MEMORIAL MILE, AMERICUS, GA, 31719",650001513,"L"
555659,"365 MIAMI ST","PARK FOREST","IL",60446,41.481854442,-87.699941133,159,"365 MIAMI ST, PARK FOREST, IL, 60446","Match","Non_Exact","365 MIAMI ST, PARK FOREST, IL, 60466",111710645,"L"
555660,"365 MISSION COURT","ST LOUIS","MO",63130,38.653626414,-90.332544715,160,"365 MISSION COURT, ST LOUIS, MO, 63130","Match","Exact","365 MISSION CT, SAINT LOUIS, MO, 63130",100135568,"L"
555661,"365 MORELOCK DR LOT 10","BLOUNTVILLE","TN",37617,36.505733999,-82.3628219459999,161,"365 MORELOCK DR LOT 10, BLOUNTVILLE, TN, 37617","Match","Exact","365 MORELOCK DR, BLOUNTVILLE, TN, 37617",635440639,"L"
555662,"365 MORNINGSIDE DR","SARASOTA","FL",34236,27.327041281,-82.583690108,162,"365 MORNINGSIDE DR, SARASOTA, FL, 34236","Match","Exact","365 MORNINGSIDE DR, SARASOTA, FL, 34236",16347534,"L"
555663,"365 MORTON FARM LANE","ATHENS","GA",30605,33.8848757740001,-83.281917489,163,"365 MORTON FARM LANE, ATHENS, GA, 30605","Match","Exact","365 MORTON FARM LN, ATHENS, GA, 30605",4813331,"L"
555664,"365 MULLOCK RD","MIDDLETOWN","NY",10940,41.4018759620001,-74.5531449489999,164,"365 MULLOCK RD, MIDDLETOWN, NY, 10940","Match","Exact","365 MULLOCK RD, MIDDLETOWN, NY, 10940",652209918,"R"
555665,"365 N 300 E","WASHINGTON","UT",84780,37.136457668,-113.504872271,165,"365 N 300 E, WASHINGTON, UT, 84780","Match","Exact","365 N 300 E, WASHINGTON, UT, 84780",166163492,"L"
555666,"365 N 5TH","MONROE","OR",97456,NA,NA,166,"365 N 5TH, MONROE, OR, 97456","No_Match",NA,NA,NA,NA
555667,"365 N 775 E","LAFAYETTE","IN",47905,40.424676995,-86.756745225,167,"365 N 775 E, LAFAYETTE, IN, 47905","Match","Exact","365 N 775 E, LAFAYETTE, IN, 47905",27316368,"L"
555668,"365 N 900 W","PROVO","UT",84601,NA,NA,168,"365 N 900 W, PROVO, UT, 84601","Tie",NA,NA,NA,NA
555669,"365 N CENTER STREET","SALT LAKE CITY","UT",84103,40.777662456,-111.893489299,169,"365 N CENTER STREET, SALT LAKE CITY, UT, 84103","Match","Non_Exact","365 N CENTER ST, SALT LAKE CITY, UT, 84103",176067223,"L"
555670,"365 N DOS CAMINOS AVE","VENTURA","CA",93003,34.2791631490001,-119.256584287,170,"365 N DOS CAMINOS AVE, VENTURA, CA, 93003","Match","Exact","365 N DOS CAMINOS AVE, VENTURA, CA, 93003",109951607,"L"
555671,"365 N DOVER AVE","ATLANTIC CITY","NJ",8401,39.3537362280001,-74.461627974,171,"365 N DOVER AVE, ATLANTIC CITY, NJ, 8401","Match","Exact","365 N DOVER AVE, ATLANTIC CITY, NJ, 08401",202488927,"R"
555672,"365 N HALSTED ST NUM 906","CHICAGO","IL",60661,NA,NA,172,"365 N HALSTED ST NUM 906, CHICAGO, IL, 60661","Tie",NA,NA,NA,NA
555673,"365 N HALSTED","CHICAGO","IL",60661,NA,NA,173,"365 N HALSTED, CHICAGO, IL, 60661","No_Match",NA,NA,NA,NA
555674,"365 N JEFFERSON APT 2803","CHICAGO","IL",60661,NA,NA,174,"365 N JEFFERSON APT 2803, CHICAGO, IL, 60661","No_Match",NA,NA,NA,NA
555675,"365 N MAIN","KANOSH","UT",84637,NA,NA,175,"365 N MAIN, KANOSH, UT, 84637","Tie",NA,NA,NA,NA
555676,"365 N OAKHURST DR APT 21","AURORA","IL",60504,NA,NA,176,"365 N OAKHURST DR APT 21, AURORA, IL, 60504","Tie",NA,NA,NA,NA
555677,"365 N RICHARDS","COLORADO CITY","AZ",86021,NA,NA,177,"365 N RICHARDS, COLORADO CITY, AZ, 86021","No_Match",NA,NA,NA,NA
555678,"365 NATIONAL AVE","WINCHESTER","VA",22601,39.1855011120001,-78.1578094819999,178,"365 NATIONAL AVE, WINCHESTER, VA, 22601","Match","Exact","365 NATIONAL AVE, WINCHESTER, VA, 22601",55578353,"L"
555679,"365 NE 9TH PLACE","HILLSBORO","OR",97124,45.5252035840001,-122.974518902,179,"365 NE 9TH PLACE, HILLSBORO, OR, 97124","Match","Exact","365 NE 9TH PL, HILLSBORO, OR, 97124",158178865,"L"
555680,"365 NEW STREET","SOPERTON","GA",30457,32.378011879,-82.601315759,180,"365 NEW STREET, SOPERTON, GA, 30457","Match","Exact","365 NEW ST, SOPERTON, GA, 30457",38477226,"R"
555681,"365 NORTH 11TH STREET","SAN JOSE","CA",95112,37.3469031000001,-121.884238377,181,"365 NORTH 11TH STREET, SAN JOSE, CA, 95112","Match","Exact","365 N 11TH ST, SAN JOSE, CA, 95112",122907766,"L"
555682,"365 NORTH AVE","ATLANTA","GA",30308,33.6665472720001,-84.3986001599999,182,"365 NORTH AVE, ATLANTA, GA, 30308","Match","Non_Exact","365 NORTH AVE, ATLANTA, GA, 30354",641886935,"R"
555683,"365 NORTH COPUS ROAD","LIMA","OH",45807,40.742630251,-84.1872033989999,183,"365 NORTH COPUS ROAD, LIMA, OH, 45807","Match","Exact","365 N COPUS RD, LIMA, OH, 45807",209542765,"L"
555684,"365 NORTH CREEK DR","DEPEW","NY",14043,42.9139980690001,-78.730614512,184,"365 NORTH CREEK DR, DEPEW, NY, 14043","Match","Exact","365 N CREEK DR, DEPEW, NY, 14043",48306002,"R"
555685,"365 NORTH CREEK DRIVE","DEPEW","NY",14043,42.9139980690001,-78.730614512,185,"365 NORTH CREEK DRIVE, DEPEW, NY, 14043","Match","Exact","365 N CREEK DR, DEPEW, NY, 14043",48306002,"R"
555686,"365 NORTH MAIN ST","VALENTINE","NE",69201,42.8759568580001,-100.550720389,186,"365 NORTH MAIN ST, VALENTINE, NE, 69201","Match","Exact","365 N MAIN ST, VALENTINE, NE, 69201",640201121,"L"
555687,"365 NOTHSTEIN RD","LEHIGHTON","PA",18235,40.74701838,-75.762703142,187,"365 NOTHSTEIN RD, LEHIGHTON, PA, 18235","Match","Exact","365 NOTHSTEIN RD, LEHIGHTON, PA, 18235",617893613,"R"
555688,"365 OAK GROVE RD","DRESDEN","TN",38225,36.272546419,-88.739399114,188,"365 OAK GROVE RD, DRESDEN, TN, 38225","Match","Exact","365 OAK GROVE RD, DRESDEN, TN, 38225",40881041,"R"
555689,"365 OCEAN HOUSE ROAD","CAPE ELIZABETH","ME",4107,43.589121199,-70.225690382,189,"365 OCEAN HOUSE ROAD, CAPE ELIZABETH, ME, 4107","Match","Exact","365 OCEAN HOUSE RD, CAPE ELIZABETH, ME, 04107",78061804,"R"
555690,"365 OLD BARNSTABLE ROAD","E. FALMOUTH","MA",2536,41.5938860160001,-70.5545706139999,190,"365 OLD BARNSTABLE ROAD, E. FALMOUTH, MA, 2536","Match","Exact","365 OLD BARNSTABLE RD, EAST FALMOUTH, MA, 02536",624683771,"R"
555691,"365 ORCHAD DRIVE","MONROE","NY",10950,NA,NA,191,"365 ORCHAD DRIVE, MONROE, NY, 10950","No_Match",NA,NA,NA,NA
555692,"365 OWEGO ST APT2","PAINESVILLE","OH",44077,41.73039656,-81.247608511,192,"365 OWEGO ST APT2, PAINESVILLE, OH, 44077","Match","Exact","365 OWEGO ST, PAINESVILLE, OH, 44077",137465648,"L"
555693,"365 PACIFIC ST","PATERSON","NJ",7503,40.8950225570001,-74.16106603,193,"365 PACIFIC ST, PATERSON, NJ, 7503","Match","Exact","365 PACIFIC ST, PATERSON, NJ, 07503",65265917,"L"
555694,"365 PARKER AVENUE","HACKENSACK","NJ",7601,40.882503672,-74.06004386,194,"365 PARKER AVENUE, HACKENSACK, NJ, 7601","Match","Exact","365 PARKER AVE, HACKENSACK, NJ, 07601",64385556,"L"
555695,"365 PECK STREET","NEW HAVEN","CT",6513,41.3154293330001,-72.901901424,195,"365 PECK STREET, NEW HAVEN, CT, 6513","Match","Exact","365 PECK ST, NEW HAVEN, CT, 06513",3703606,"R"
555696,"365 PILGRIM RD","WEST PALM BEACH","FL",33405,26.6675237310001,-80.054153779,196,"365 PILGRIM RD, WEST PALM BEACH, FL, 33405","Match","Exact","365 PILGRIM RD, WEST PALM BEACH, FL, 33405",115280470,"R"
555697,"365 PLEASANT RIDGE ROAD","POUGHQUAG","NY",12570,41.64399188,-73.657146785,197,"365 PLEASANT RIDGE ROAD, POUGHQUAG, NY, 12570","Match","Exact","365 PLEASANT RIDGE RD, POUGHQUAG, NY, 12570",4229277,"L"
555698,"365 PLEASANT STREET","PAXTON","MA",1612,42.2979432430001,-71.906442134,198,"365 PLEASANT STREET, PAXTON, MA, 1612","Match","Exact","365 PLEASANT ST, PAXTON, MA, 01612",40083231,"L"
555699,"365 POTOMAC ST","BUFFALO","NY",14213,42.9240682820001,-78.885893355,199,"365 POTOMAC ST, BUFFALO, NY, 14213","Match","Non_Exact","365 POTOMAC AVE, BUFFALO, NY, 14213",48289051,"R"
555700,"365 RED BUD RD","JEFFERSON","GA",30549,34.1277864950001,-83.609713454,200,"365 RED BUD RD, JEFFERSON, GA, 30549","Match","Exact","365 RED BUD RD, JEFFERSON, GA, 30549",619831835,"L"
555701,"365 RED CEDAR ST 103","BLUFFTON","SC",29910,NA,NA,201,"365 RED CEDAR ST 103, BLUFFTON, SC, 29910","No_Match",NA,NA,NA,NA
555702,"365 RHODODENDRON DRIVE NW","BREMERTON","WA",98312,47.567811351,-122.843474412,202,"365 RHODODENDRON DRIVE NW, BREMERTON, WA, 98312","Match","Exact","365 RHODODENDRON DR NW, BREMERTON, WA, 98312",187638506,"R"
555703,"365 RIDGEWOOD TRAIL","CANTON","GA",30115,34.1746949240001,-84.462009326,203,"365 RIDGEWOOD TRAIL, CANTON, GA, 30115","Match","Exact","365 RIDGEWOOD TRL, CANTON, GA, 30115",642107540,"L"
555704,"365 RINDGE AVE","CAMBRIDGE","MA",2140,42.3938294650001,-71.1377389909999,204,"365 RINDGE AVE, CAMBRIDGE, MA, 2140","Match","Exact","365 RINDGE AVE, CAMBRIDGE, MA, 02140",650123614,"R"
555705,"365 RIVER FERN DR 3101","GARLAND","TX",75040,32.9537144970001,-96.609817334,205,"365 RIVER FERN DR 3101, GARLAND, TX, 75040","Match","Exact","365 RIVER FERN DR, GARLAND, TX, 75040",646564442,"R"
555706,"365 RIVERDALE DR","NORTHFIELD","IL",60093,42.1175185380001,-87.789425705,206,"365 RIVERDALE DR, NORTHFIELD, IL, 60093","Match","Exact","365 RIVERDALE DR, NORTHFIELD, IL, 60093",112386591,"L"
555707,"365 ROCKY ROAD","BOIS BLANC ISLAND","MI",49775,NA,NA,207,"365 ROCKY ROAD, BOIS BLANC ISLAND, MI, 49775","No_Match",NA,NA,NA,NA
555708,"365 ROLLINGWOOD DRIVE","NEWPORT","NC",28570,34.7271464520001,-76.94351476,208,"365 ROLLINGWOOD DRIVE, NEWPORT, NC, 28570","Match","Exact","365 ROLLINGWOOD DR, NEWPORT, NC, 28570",642923014,"R"
555709,"365 S 1370 E","TOOELE","UT",84074,40.523995783,-112.269617065,209,"365 S 1370 E, TOOELE, UT, 84074","Match","Exact","365 S 1370 E, TOOELE, UT, 84074",617535683,"L"
555710,"365 S 45TH ST","BOULDER","CO",80305,39.9869422850001,-105.242674993,210,"365 S 45TH ST, BOULDER, CO, 80305","Match","Exact","365 S 45TH ST, BOULDER, CO, 80305",188162977,"R"
555711,"365 S ARBOLEDA ST","CLEWISTON","FL",33440,26.626459853,-81.125798658,211,"365 S ARBOLEDA ST, CLEWISTON, FL, 33440","Match","Exact","365 S ARBOLEDA ST, CLEWISTON, FL, 33440",4513857,"L"
555712,"365 S STATE STREET","FERRON","UT",84523,39.085793693,-111.131925609,212,"365 S STATE STREET, FERRON, UT, 84523","Match","Exact","365 STATE ST, FERRON, UT, 84523",615438292,"R"
555713,"365 SACKMAN STREET","BROOKLYN","NY",11212,40.6688464210001,-73.904674429,213,"365 SACKMAN STREET, BROOKLYN, NY, 11212","Match","Exact","365 SACKMAN ST, BROOKLYN, NY, 11212",59084576,"L"
555714,"365 SAINT JOHNS PLACE NUMBER 5","BROOKLYN","NY",11104,40.674124094,-73.965494222,214,"365 SAINT JOHNS PLACE NUMBER 5, BROOKLYN, NY, 11104","Match","Non_Exact","365 ST JOHNS PL, BROOKLYN, NY, 11238",650086773,"L"
555715,"365 SCENIC DR","ST. LOUIS","MO",63137,38.7426863050001,-90.20788913,215,"365 SCENIC DR, ST. LOUIS, MO, 63137","Match","Exact","365 SCENIC DR, SAINT LOUIS, MO, 63137",100151401,"R"
555716,"365 SCHILLINGS CROSSING RD","EAST CHATHAM","NY",12060,42.4125813590001,-73.469689746,216,"365 SCHILLINGS CROSSING RD, EAST CHATHAM, NY, 12060","Match","Exact","365 SCHILLINGS CROSSING RD, EAST CHATHAM, NY, 12060",41484079,"L"
555717,"365 SCHILLINGS CROSSING ROAD","EAST CHATHAM","NY",12060,42.4125813590001,-73.469689746,217,"365 SCHILLINGS CROSSING ROAD, EAST CHATHAM, NY, 12060","Match","Exact","365 SCHILLINGS CROSSING RD, EAST CHATHAM, NY, 12060",41484079,"L"
555718,"365 SCHOOL AVENUE","WASKOM","TX",75692,32.4779569880001,-94.062643017,218,"365 SCHOOL AVENUE, WASKOM, TX, 75692","Match","Exact","365 SCHOOL AVE, WASKOM, TX, 75692",141165750,"R"
555719,"365 SCHOOL STREET","YORK","PA",17402,39.928875528,-76.672491134,219,"365 SCHOOL STREET, YORK, PA, 17402","Match","Exact","365 SCHOOL ST, YORK, PA, 17402",88758270,"R"
555720,"365 SE 3RD AVENUE","SOUTH BAY","FL",33493,26.6613892500001,-80.7100691809999,220,"365 SE 3RD AVENUE, SOUTH BAY, FL, 33493","Match","Exact","365 SE 3RD AVE, SOUTH BAY, FL, 33493",115343039,"R"
555721,"365 SEQUOIA CT","HOWELL","NJ",7731,40.2025964860001,-74.260396734,221,"365 SEQUOIA CT, HOWELL, NJ, 7731","Match","Exact","365 SEQUOIA CT, HOWELL, NJ, 07731",645488902,"R"
555722,"365 SEVILLE RD","WADSWORTH","OH",44281,41.0102938630001,-81.739548107,222,"365 SEVILLE RD, WADSWORTH, OH, 44281","Match","Exact","365 SEVILLE RD, WADSWORTH, OH, 44281",639700145,"L"
555723,"365 SHAGBARK RD","TAUNTON","MA",2780,41.9169665840001,-71.1570005089999,223,"365 SHAGBARK RD, TAUNTON, MA, 2780","Match","Non_Exact","365 SHAG BARK RD, TAUNTON, MA, 02780",46777573,"R"
555724,"365 SHANNOCK ROAD","SOUTH KINGSTOWN","RI",2879,41.4051820510001,-71.605284973,224,"365 SHANNOCK ROAD, SOUTH KINGSTOWN, RI, 2879","Match","Exact","365 SHANNOCK RD, SOUTH KINGSTOWN, RI, 02879",58912556,"L"
555725,"365 SHAWNEE LN","SUPERIOR","CO",80027,39.9566418840001,-105.177130842,225,"365 SHAWNEE LN, SUPERIOR, CO, 80027","Match","Exact","365 SHAWNEE LN, SUPERIOR, CO, 80027",188192465,"L"
555726,"365 SHORE ROAD","ELLSWORTH","ME",4605,44.561945026,-68.440589261,226,"365 SHORE ROAD, ELLSWORTH, ME, 4605","Match","Exact","365 SHORE RD, ELLSWORTH, ME, 04605",608812786,"R"
555727,"365 SIOUX DR","ABITA SPRINGS","LA",70420,30.4667750940001,-90.053150347,227,"365 SIOUX DR, ABITA SPRINGS, LA, 70420","Match","Exact","365 SIOUX DR, ABITA SPRINGS, LA, 70420",636681563,"L"
555728,"365 SLATE DRIVE","BOILING SPRINGS","SC",29316,35.0325418370001,-82.00563592,228,"365 SLATE DRIVE, BOILING SPRINGS, SC, 29316","Match","Exact","365 SLATE DR, BOILING SPRINGS, SC, 29316",619831036,"R"
555729,"365 SMITH RD","OSTEEN","FL",32764,28.839530558,-81.105692747,229,"365 SMITH RD, OSTEEN, FL, 32764","Match","Exact","365 SMITH RD, OSTEEN, FL, 32764",636388546,"L"
555730,"365 SNOWS BROOK ROAD","RANDOLPH CENTER","VT",5061,NA,NA,230,"365 SNOWS BROOK ROAD, RANDOLPH CENTER, VT, 5061","No_Match",NA,NA,NA,NA
555731,"365 SONOMA LANE","MCDONOUGH","GA",30253,33.488897846,-84.155227267,231,"365 SONOMA LANE, MCDONOUGH, GA, 30253","Match","Exact","365 SONOMA LN, MCDONOUGH, GA, 30253",649151456,"L"
555732,"365 SOUTH EDITH","PONTIAC","MI",48342,42.627880169,-83.271965617,232,"365 SOUTH EDITH, PONTIAC, MI, 48342","Match","Non_Exact","365 S EDITH ST, PONTIAC, MI, 48342",69706586,"L"
555733,"365 SOUTH EGG HARBOR RD","HAMMONTON","NJ",8037,39.6322747450001,-74.7990715669999,233,"365 SOUTH EGG HARBOR RD, HAMMONTON, NJ, 8037","Match","Exact","365 S EGG HARBOR RD, HAMMONTON, NJ, 08037",202477631,"R"
555734,"365 SOUTH LAKESHORE DRIVE","BATON ROUGE","LA",70808,NA,NA,234,"365 SOUTH LAKESHORE DRIVE, BATON ROUGE, LA, 70808","No_Match",NA,NA,NA,NA
555735,"365 SPRING FOREST WAY","SHARPSBURG","GA",30277,33.4073132,-84.655450044,235,"365 SPRING FOREST WAY, SHARPSBURG, GA, 30277","Match","Exact","365 SPRING FOREST WAY, SHARPSBURG, GA, 30277",632111897,"R"
555736,"365 SQUAREVIEW LANE","ROCHESTER","NY",14626,43.220270579,-77.6768631859999,236,"365 SQUAREVIEW LANE, ROCHESTER, NY, 14626","Match","Exact","365 SQUAREVIEW LN, ROCHESTER, NY, 14626",628434766,"L"
555737,"365 STATE STREET","ALBANY","NY",12210,42.6561560530001,-73.764726636,237,"365 STATE STREET, ALBANY, NY, 12210","Match","Exact","365 STATE ST, ALBANY, NY, 12210",18310345,"R"
555738,"365 STEWARD ROAD","UNALASKA","AK",99685,53.8575810550001,-166.509850089,238,"365 STEWARD ROAD, UNALASKA, AK, 99685","Match","Exact","365 STEWARD RD, UNALASKA, AK, 99685",207052349,"L"
555739,"365 STEWART AVENUE","GARDEN CITY","NY",11530,40.7268848460001,-73.633251597,239,"365 STEWART AVENUE, GARDEN CITY, NY, 11530","Match","Exact","365 STEWART AVE, GARDEN CITY, NY, 11530",147673606,"L"
555740,"365 STEWART ROAD","WALHALLA","SC",29691,34.729161472,-83.0658331609999,240,"365 STEWART ROAD, WALHALLA, SC, 29691","Match","Exact","365 STEWART RD, WALHALLA, SC, 29691",25659544,"R"
555741,"365 STOCK RD","METAMORA","MI",48455,42.9565624310001,-83.273392055,241,"365 STOCK RD, METAMORA, MI, 48455","Match","Exact","365 STOCK RD, METAMORA, MI, 48455",110472690,"L"
555742,"365 STRAWBERRY HILL DRIVE","BRANDENBURG","KY",40108,37.976898121,-86.1042948259999,242,"365 STRAWBERRY HILL DRIVE, BRANDENBURG, KY, 40108","Match","Exact","365 STRAWBERRY HILL DR, BRANDENBURG, KY, 40108",8174286,"L"
555743,"365 SUMMER ST","SPRINGFIELD","VT",5156,43.2923475900001,-72.465990128,243,"365 SUMMER ST, SPRINGFIELD, VT, 5156","Match","Exact","365 SUMMER ST, SPRINGFIELD, VT, 05156",139275187,"L"
555744,"365 SUN COURT","WOODLAND PARK","CO",80863,38.9746152010001,-105.032825778,244,"365 SUN COURT, WOODLAND PARK, CO, 80863","Match","Exact","365 SUN CT, WOODLAND PARK, CO, 80863",649207303,"R"
555745,"365 SUNSET RIDGE ROAD","CLEARFIELD","PA",16830,41.034537103,-78.459442447,245,"365 SUNSET RIDGE ROAD, CLEARFIELD, PA, 16830","Match","Exact","365 SUNSET RIDGE RD, CLEARFIELD, PA, 16830",50477284,"L"
555746,"365 SUSAN DR","JEFFERSON","OH",44047,41.7370617990001,-80.784870597,246,"365 SUSAN DR, JEFFERSON, OH, 44047","Match","Exact","365 SUSAN DR, JEFFERSON, OH, 44047",117317527,"R"
555747,"365 TANGIERS RD","JEFFERSON","TX",75657,32.7674656500001,-94.493295548,247,"365 TANGIERS RD, JEFFERSON, TX, 75657","Match","Exact","365 TANGIERS RD, JEFFERSON, TX, 75657",57752493,"R"
555748,"365 TECHNOLOGY WAY","BOWLING GREEN","KY",42101,NA,NA,248,"365 TECHNOLOGY WAY, BOWLING GREEN, KY, 42101","No_Match",NA,NA,NA,NA
555749,"365 THORNBURY LANE","POWELL","OH",43065,40.161135958,-83.052588348,249,"365 THORNBURY LANE, POWELL, OH, 43065","Match","Exact","365 THORNBURY LN, POWELL, OH, 43065",24589339,"L"
555750,"365 TIMBERLANE RD","PIKE ROAD","AL",36064,32.339861808,-86.111332853,250,"365 TIMBERLANE RD, PIKE ROAD, AL, 36064","Match","Exact","365 TIMBERLANE RD, PIKE ROAD, AL, 36064",618048377,"R"
555751,"365 TUCKIE ROAD","N. WINDHAM","CT",6256,41.7326500290001,-72.182394436,251,"365 TUCKIE ROAD, N. WINDHAM, CT, 6256","Match","Exact","365 TUCKIE RD, NORTH WINDHAM, CT, 06256",636268268,"L"
555752,"365 TWIN HILLS ROAD","GRINDSTONE","PA",15442,39.975805092,-79.85944634,252,"365 TWIN HILLS ROAD, GRINDSTONE, PA, 15442","Match","Exact","365 TWIN HILLS RD, GRINDSTONE, PA, 15442",613544800,"R"
555753,"365 UPTOWN BLVD APT 1204","CEDAR HILL","TX",75104,32.5974865250001,-96.944567212,253,"365 UPTOWN BLVD APT 1204, CEDAR HILL, TX, 75104","Match","Exact","365 UPTOWN BLVD, CEDAR HILL, TX, 75104",627902588,"L"
555754,"365 UPTOWN BLVD APT 5208","CEDAR HILL","TX",75104,32.5974865250001,-96.944567212,254,"365 UPTOWN BLVD APT 5208, CEDAR HILL, TX, 75104","Match","Exact","365 UPTOWN BLVD, CEDAR HILL, TX, 75104",627902588,"L"
555755,"365 UPTOWN BLVD SUITE 7208","CEDAR HILL","TX",75104,32.5974865250001,-96.944567212,255,"365 UPTOWN BLVD SUITE 7208, CEDAR HILL, TX, 75104","Match","Exact","365 UPTOWN BLVD, CEDAR HILL, TX, 75104",627902588,"L"
555756,"365 UPTOWN BLVD","CEDAR HILL","TX",75104,32.5974865250001,-96.944567212,256,"365 UPTOWN BLVD, CEDAR HILL, TX, 75104","Match","Exact","365 UPTOWN BLVD, CEDAR HILL, TX, 75104",627902588,"L"
555757,"365 VALLEJO ST APT 5","SAN FRANCISCO","CA",94133,37.799252171,-122.40338786,257,"365 VALLEJO ST APT 5, SAN FRANCISCO, CA, 94133","Match","Exact","365 VALLEJO ST, SAN FRANCISCO, CA, 94133",192281112,"L"
555758,"365 VALLEY RD","SALEM","OH",44460,40.8957280860001,-80.952453653,258,"365 VALLEY RD, SALEM, OH, 44460","Match","Exact","365 VALLEY RD, SALEM, OH, 44460",605040160,"R"
555759,"365 W 117TH ST APT 2","NEW YORK","NY",10025,NA,NA,259,"365 W 117TH ST APT 2, NEW YORK, NY, 10025","No_Match",NA,NA,NA,NA
555760,"365 W 2ND AVE","ESCONDIDO","CA",92026,33.118942229,-117.084395585,260,"365 W 2ND AVE, ESCONDIDO, CA, 92026","Match","Non_Exact","365 W 2ND AVE, ESCONDIDO, CA, 92025",195313393,"L"
555761,"365 W BERRIDGE DR","SIERRA VISTA","AZ",85635,31.548375166,-110.303168609,261,"365 W BERRIDGE DR, SIERRA VISTA, AZ, 85635","Match","Exact","365 BERRIDGE DR, SIERRA VISTA, AZ, 85635",120947454,"L"
555762,"365 W BURGUNDY ST 515","HIGHLANDS RANCH","CO",80129,39.5426403490001,-104.994168111,262,"365 W BURGUNDY ST 515, HIGHLANDS RANCH, CO, 80129","Match","Exact","365 BURGUNDY ST, HIGHLANDS RANCH, CO, 80129",648160302,"L"
555763,"365 W ELM","BURBANK","CA",91506,34.1639220760001,-118.307911346,263,"365 W ELM, BURBANK, CA, 91506","Match","Non_Exact","365 W ELM AVE, BURBANK, CA, 91506",142727310,"R"
555764,"365 W GARVEY AVE STE 102","MONTEREY PARK","CA",91754,34.0625395820001,-118.126985278,264,"365 W GARVEY AVE STE 102, MONTEREY PARK, CA, 91754","Match","Non_Exact","365 W GARVEY AVE, MONTEREY PARK, CA, 91754",141637109,"R"
555765,"365 W ILLINOIS AVENUE APT 22","SOUTHERN PINES","NC",28387,NA,NA,265,"365 W ILLINOIS AVENUE APT 22, SOUTHERN PINES, NC, 28387","Tie",NA,NA,NA,NA
555766,"365 WALNUT GLENN DRIVE","SPRINGFIELD","IL",62704,39.912340677,-89.663134215,266,"365 WALNUT GLENN DRIVE, SPRINGFIELD, IL, 62704","Match","Non_Exact","365 WALNUT GLEN DR, SPRINGFIELD, IL, 62707",653198696,"R"
555767,"365 WALNUT LANE","APPLE VALLEY","MN",55124,44.737676902,-93.246965786,267,"365 WALNUT LANE, APPLE VALLEY, MN, 55124","Match","Exact","365 WALNUT LN, APPLE VALLEY, MN, 55124",37906504,"L"
555768,"365 WARWICK AVENUE  NUMBER 201","OAKLAND","CA",94610,37.8134546920001,-122.253863033,268,"365 WARWICK AVENUE  NUMBER 201, OAKLAND, CA, 94610","Match","Exact","365 WARWICK AVE, OAKLAND, CA, 94610",125000728,"L"
555769,"365 WASHINGTON STREET","TAPPAN","NY",10983,41.022810834,-73.936452909,269,"365 WASHINGTON STREET, TAPPAN, NY, 10983","Match","Exact","365 WASHINGTON ST, TAPPAN, NY, 10983",624419809,"R"
555770,"365 WEKIVA SPRINGS RD STE 251","LONGWOOD","FL",32779,28.691098556,-81.408720697,270,"365 WEKIVA SPRINGS RD STE 251, LONGWOOD, FL, 32779","Match","Exact","365 WEKIVA SPRINGS RD, LONGWOOD, FL, 32779",605416564,"L"
555771,"365 WEST 118TH STREET APT 4C","NEW YORK CITY","NY",10026,40.806545801,-73.956351115,271,"365 WEST 118TH STREET APT 4C, NEW YORK CITY, NY, 10026","Match","Exact","365 W 118TH ST, NEW YORK, NY, 10026",59656058,"R"
555772,"365 WEST 120TH STREET","NEW YORK","NY",10027,40.807903133,-73.955673998,272,"365 WEST 120TH STREET, NEW YORK, NY, 10027","Match","Exact","365 W 120TH ST, NEW YORK, NY, 10027",59656056,"R"
555773,"365 WEST 125TH ST NUMBER 913","NEW YORK","NY",10027,40.8111019350001,-73.953358722,273,"365 WEST 125TH ST NUMBER 913, NEW YORK, NY, 10027","Match","Exact","365 W 125TH ST, NEW YORK, NY, 10027",59661827,"R"
555774,"365 WEST 20TH STREET","NEW YORK","NY",10011,40.7442600040001,-74.001807276,274,"365 WEST 20TH STREET, NEW YORK, NY, 10011","Match","Exact","365 W 20TH ST, NEW YORK, NY, 10011",639434583,"R"
555775,"365 WEST 28TH ST","NEW YORK","NY",10001,40.749416647,-73.997551014,275,"365 WEST 28TH ST, NEW YORK, NY, 10001","Match","Exact","365 W 28TH ST, NEW YORK, NY, 10001",610199410,"R"
555776,"365 WEST 28TH STREET APT 17E","NEW YORK","NY",10001,40.749416647,-73.997551014,276,"365 WEST 28TH STREET APT 17E, NEW YORK, NY, 10001","Match","Exact","365 W 28TH ST, NEW YORK, NY, 10001",610199410,"R"
555777,"365 WEST 28TH STREET APT 17G","NEW YORK","NY",10001,40.749416647,-73.997551014,277,"365 WEST 28TH STREET APT 17G, NEW YORK, NY, 10001","Match","Exact","365 W 28TH ST, NEW YORK, NY, 10001",610199410,"R"
555778,"365 WEST 28TH STREET APT 2E","NEW YORK","NY",10001,40.749416647,-73.997551014,278,"365 WEST 28TH STREET APT 2E, NEW YORK, NY, 10001","Match","Exact","365 W 28TH ST, NEW YORK, NY, 10001",610199410,"R"
555779,"365 WEST 28TH STREET APT 6E","NEW YORK","NY",10001,40.749416647,-73.997551014,279,"365 WEST 28TH STREET APT 6E, NEW YORK, NY, 10001","Match","Exact","365 W 28TH ST, NEW YORK, NY, 10001",610199410,"R"
555780,"365 WEST 34TH STREET","NEW YORK","NY",10001,40.752948975,-73.99524243,280,"365 WEST 34TH STREET, NEW YORK, NY, 10001","Match","Exact","365 W 34TH ST, NEW YORK, NY, 10001",59658570,"R"
555781,"365 WEST CHELTENHAM AVE","PHILADELPHIA","PA",19126,NA,NA,281,"365 WEST CHELTENHAM AVE, PHILADELPHIA, PA, 19126","No_Match",NA,NA,NA,NA
555782,"365 WEST COURT","OAKLAND","CA",94603,37.7284321880001,-122.18112271,282,"365 WEST COURT, OAKLAND, CA, 94603","Match","Exact","365 WEST CT, OAKLAND, CA, 94603",125062076,"L"
555783,"365 WEST CT","OAKLAND","CA",94603,37.7284321880001,-122.18112271,283,"365 WEST CT, OAKLAND, CA, 94603","Match","Exact","365 WEST CT, OAKLAND, CA, 94603",125062076,"L"
555784,"365 WEST END AVENUE 4G","NEW YORK","NY",10024,40.78324129,-73.981977474,284,"365 WEST END AVENUE 4G, NEW YORK, NY, 10024","Match","Exact","365 W END AVE, NEW YORK, NY, 10024",59656643,"L"
555785,"365 WEST END AVENUE APARTMENT 3E","NEW YORK","NY",10024,40.78324129,-73.981977474,285,"365 WEST END AVENUE APARTMENT 3E, NEW YORK, NY, 10024","Match","Exact","365 W END AVE, NEW YORK, NY, 10024",59656643,"L"
555786,"365 WEST END AVENUE","NEW YORK","NY",10024,40.78324129,-73.981977474,286,"365 WEST END AVENUE, NEW YORK, NY, 10024","Match","Exact","365 W END AVE, NEW YORK, NY, 10024",59656643,"L"
555787,"365 WEST KELLY AVE","JACKSON","WY",83001,43.4757251500001,-110.767323611,287,"365 WEST KELLY AVE, JACKSON, WY, 83001","Match","Exact","365 W KELLY AVE, JACKSON, WY, 83001",130413057,"R"
555788,"365 WEST LAKE AVENUE","BAY HEAD","NJ",8742,40.072282493,-74.044491498,288,"365 WEST LAKE AVENUE, BAY HEAD, NJ, 8742","Match","Non_Exact","365 LAKE AVE, BAY HEAD, NJ, 08742",203736041,"L"
555789,"365 WEST THIRD AVENUE","KETTLE","WA",99141,48.6104525970001,-118.062511382,289,"365 WEST THIRD AVENUE, KETTLE, WA, 99141","Match","Non_Exact","365 W 3RD AVE, KETTLE FALLS, WA, 99141",635739038,"R"
555790,"365 WESTFIELD AVE","CLARK","NJ",7066,40.6224330790001,-74.310613212,290,"365 WESTFIELD AVE, CLARK, NJ, 7066","Match","Exact","365 WESTFIELD AVE, CLARK, NJ, 07066",60584683,"L"
555791,"365 WESTFIELD WAY","PEWAUKEE","WI",53072,43.0899296760001,-88.241530545,291,"365 WESTFIELD WAY, PEWAUKEE, WI, 53072","Match","Exact","365 WESTFIELD WAY, PEWAUKEE, WI, 53072",53843347,"L"
555792,"365 WHITEHALL RD","REINHOLDS","PA",17569,40.28787849,-76.132244462,292,"365 WHITEHALL RD, REINHOLDS, PA, 17569","Match","Exact","365 WHITEHALL RD, REINHOLDS, PA, 17569",636371579,"L"
555793,"365 WHITING AVE APT 2","DEDHAM","MA",2026,42.242944257,-71.152432844,293,"365 WHITING AVE APT 2, DEDHAM, MA, 2026","Match","Exact","365 WHITING AVE, DEDHAM, MA, 02026",87281341,"R"
555794,"365 WIGTON DRIVE","ALPHARETTA","GA",30004,34.143473527,-84.296371256,294,"365 WIGTON DRIVE, ALPHARETTA, GA, 30004","Match","Exact","365 WIGTON DR, ALPHARETTA, GA, 30004",17428778,"R"
555795,"365 WILLIE WILSON RD","EASTOVER","SC",29044,33.9557344770001,-80.7284771339999,295,"365 WILLIE WILSON RD, EASTOVER, SC, 29044","Match","Exact","365 WILLIE WILSON RD, EASTOVER, SC, 29044",71812603,"L"
555796,"365 WILLIS AVENUE","MINEOLA","NY",11501,40.753036089,-73.643335727,296,"365 WILLIS AVENUE, MINEOLA, NY, 11501","Match","Exact","365 WILLIS AVE, MINEOLA, NY, 11501",147672694,"L"
555797,"365 WINDING RIVER DRIVE UNIT J","ATLANTA","GA",30350,33.9978918800001,-84.346506464,297,"365 WINDING RIVER DRIVE UNIT J, ATLANTA, GA, 30350","Match","Non_Exact","365 WINDING RIVER DR NE, ATLANTA, GA, 30350",17402883,"R"
555798,"365 WINTER CLOVE ROAD","ROUND TOP","NY",12473,42.248604218,-74.0288353829999,298,"365 WINTER CLOVE ROAD, ROUND TOP, NY, 12473","Match","Exact","365 WINTER CLOVE RD, ROUND TOP, NY, 12473",35667270,"R"
555799,"365 WOODLAWN AVE","MOUNTAINTOP","PA",18707,41.1567659,-75.870146139,299,"365 WOODLAWN AVE, MOUNTAINTOP, PA, 18707","Match","Non_Exact","365 WOODLAWN AVE, MOUNTAIN TOP, PA, 18707",636339060,"R"
555800,"365 YORK SPANN RD","HAMPTONVILLE","NC",27020,36.0156553310001,-80.795931743,300,"365 YORK SPANN RD, HAMPTONVILLE, NC, 27020","Match","Exact","365 YORK SPANN RD, HAMPTONVILLE, NC, 27020",46025881,"L"
555801,"365","CHICAGO","IL",60618,NA,NA,301,"365, CHICAGO, IL, 60618","No_Match",NA,NA,NA,NA
555802,"3650  S EASTERN AVE C","LAS VEGAS","NV",89169,36.1237007930001,-115.118780804,302,"3650  S EASTERN AVE C, LAS VEGAS, NV, 89169","Match","Non_Exact","3650 S EASTERN AVE, LAS VEGAS, NV, 89169",201871576,"L"
555803,"3650 1ST AVE APT 108","SAN DIEGO","CA",92103,32.7442292320001,-117.163857145,303,"3650 1ST AVE APT 108, SAN DIEGO, CA, 92103","Match","Exact","3650 1ST AVE, SAN DIEGO, CA, 92103",195342594,"L"
555804,"3650 34TH AVE WEST","SEATTLE","WA",98199,47.652771838,-122.400894824,304,"3650 34TH AVE WEST, SEATTLE, WA, 98199","Match","Exact","3650 34TH AVE W, SEATTLE, WA, 98199",186659367,"R"
555805,"3650 39TH ST NW APT 517","WASHINGTON","DC",20016,38.9373901430001,-77.077692177,305,"3650 39TH ST NW APT 517, WASHINGTON, DC, 20016","Match","Exact","3650 39TH ST NW, WASHINGTON, DC, 20016",76220505,"L"
555806,"3650 6TH STREET","SAN DIEGO","CA",92103,32.7443101910001,-117.159526347,306,"3650 6TH STREET, SAN DIEGO, CA, 92103","Match","Non_Exact","3650 6TH AVE, SAN DIEGO, CA, 92103",195342623,"L"
555807,"3650 ALEXANDER CROSSING","LOGANVILLE","GA",30052,33.8297667950001,-83.900449559,307,"3650 ALEXANDER CROSSING, LOGANVILLE, GA, 30052","Match","Exact","3650 ALEXANDER CROSSING, LOGANVILLE, GA, 30052",618466456,"R"
555808,"3650 AMBERSON AVENUE","CINCINNATI","OH",45208,39.1422811960001,-84.419127139,308,"3650 AMBERSON AVENUE, CINCINNATI, OH, 45208","Match","Exact","3650 AMBERSON AVE, CINCINNATI, OH, 45208",103933024,"R"
555809,"3650 ASHFORD DUNWOODY RD 125","BROOKHAVEN","GA",30319,33.89805834,-84.3307224329999,309,"3650 ASHFORD DUNWOODY RD 125, BROOKHAVEN, GA, 30319","Match","Exact","3650 ASHFORD DUNWOODY RD, BROOKHAVEN, GA, 30319",23406890,"L"
555810,"3650 ASHFORD DUNWOODY RDNE UNIT 821","BROOKHAVEN","GA",30319,33.89805834,-84.3307224329999,310,"3650 ASHFORD DUNWOODY RDNE UNIT 821, BROOKHAVEN, GA, 30319","Match","Non_Exact","3650 ASHFORD DUNWOODY RD, BROOKHAVEN, GA, 30319",23406890,"L"
555811,"3650 AUBURN BLVD STE B","SACRAMENTO","CA",95821,38.6384033630001,-121.379671381,311,"3650 AUBURN BLVD STE B, SACRAMENTO, CA, 95821","Match","Exact","3650 AUBURN BLVD, SACRAMENTO, CA, 95821",133446871,"R"
555812,"3650 BALDWIN AVE","ALLIANCE","OH",44601,40.8823279630001,-81.1267943289999,312,"3650 BALDWIN AVE, ALLIANCE, OH, 44601","Match","Exact","3650 BALDWIN AVE, ALLIANCE, OH, 44601",64695416,"L"
555813,"3650 BAMBOO LANE","HONOLULU","HI",96818,21.3582259830001,-157.911570891,313,"3650 BAMBOO LANE, HONOLULU, HI, 96818","Match","Exact","3650 BAMBOO LN, HONOLULU, HI, 96818",624917149,"L"
555814,"3650 BIG BEND DR","MEMPHIS","TN",38116,35.0490407550001,-90.000000514,314,"3650 BIG BEND DR, MEMPHIS, TN, 38116","Match","Non_Exact","3650 W BIG BEND DR, MEMPHIS, TN, 38116",72918868,"L"
555815,"3650 BORDER CREEK CT","DENVER","NC",28037,35.510761566,-80.9749431829999,315,"3650 BORDER CREEK CT, DENVER, NC, 28037","Match","Exact","3650 BORDER CREEK CT, DENVER, NC, 28037",69530969,"R"
555816,"3650 CAMELOT DRIVE","BARTLESVILLE","OK",74006,NA,NA,316,"3650 CAMELOT DRIVE, BARTLESVILLE, OK, 74006","No_Match",NA,NA,NA,NA
555817,"3650 CANDLE GLEN","SAN ANTONIO","TX",78244,29.4576827650001,-98.367967678,317,"3650 CANDLE GLEN, SAN ANTONIO, TX, 78244","Match","Non_Exact","3650 CANDLEGLENN, SAN ANTONIO, TX, 78244",101703911,"L"
555818,"3650 CAROL CT","EAST POINT","GA",30344,33.654937428,-84.4761611229999,318,"3650 CAROL CT, EAST POINT, GA, 30344","Match","Exact","3650 CAROL CT, EAST POINT, GA, 30344",17347453,"R"
555819,"3650 CARREL BLVD","OCEANSIDE","NY",11572,40.6220290630001,-73.6306074459999,319,"3650 CARREL BLVD, OCEANSIDE, NY, 11572","Match","Exact","3650 CARREL BLVD, OCEANSIDE, NY, 11572",147681927,"R"
555820,"3650 CAZADERO HWY APT 7","CAZADERO","CA",95421,38.5085423890001,-123.068696156,320,"3650 CAZADERO HWY APT 7, CAZADERO, CA, 95421","Match","Exact","3650 CAZADERO HWY, CAZADERO, CA, 95421",67458016,"R"
555821,"3650 CEDAR CREEK CT","JACKSON","WI",53037,43.3346631810001,-88.21837525,321,"3650 CEDAR CREEK CT, JACKSON, WI, 53037","Match","Exact","3650 CEDAR CREEK CT, JACKSON, WI, 53037",79571256,"L"
555822,"3650 CHESTNUT MEADOWS DR","DOUGLASVILLE","GA",30135,33.741382494,-84.6942109189999,322,"3650 CHESTNUT MEADOWS DR, DOUGLASVILLE, GA, 30135","Match","Exact","3650 CHESTNUT MEADOWS DR, DOUGLASVILLE, GA, 30135",618470654,"L"
555823,"3650 CIRCLE 4 CT","BUTTE VALLEY","CA",95965,39.6410320250001,-121.640881878,323,"3650 CIRCLE 4 CT, BUTTE VALLEY, CA, 95965","Match","Exact","3650 CIRCLE 4 CT, BUTTE VALLEY, CA, 95965",68416275,"L"
555824,"3650 CLAIREMONT DR SUITE 8A","SAN DIEGO","CA",92117,32.8070197530001,-117.201040397,324,"3650 CLAIREMONT DR SUITE 8A, SAN DIEGO, CA, 92117","Match","Exact","3650 CLAIREMONT DR, SAN DIEGO, CA, 92117",195680004,"L"
555825,"3650 CLAUSEN ACRES LANE NE","SALEM","OR",97303,45.060811417,-122.983323963,325,"3650 CLAUSEN ACRES LANE NE, SALEM, OR, 97303","Match","Exact","3650 CLAUSEN ACRES LN NE, SALEM, OR, 97303",651571663,"L"
555826,"3650 CLUB LAKE","ORANGE PARK","FL",32065,NA,NA,326,"3650 CLUB LAKE, ORANGE PARK, FL, 32065","No_Match",NA,NA,NA,NA
555827,"3650 CORDWOOD LANE","INDIANAPOLIS","IN",46214,39.820926521,-86.2949020139999,327,"3650 CORDWOOD LANE, INDIANAPOLIS, IN, 46214","Match","Exact","3650 CORDWOOD LN, INDIANAPOLIS, IN, 46214",108027595,"L"
555828,"3650 DARLING ROAD","GUTHRIE","OK",73044,NA,NA,328,"3650 DARLING ROAD, GUTHRIE, OK, 73044","No_Match",NA,NA,NA,NA
555829,"3650 DEPOT ROAD","ERIE","PA",16510,42.1478137650001,-79.939091114,329,"3650 DEPOT ROAD, ERIE, PA, 16510","Match","Exact","3650 DEPOT RD, ERIE, PA, 16510",648774984,"R"
555830,"3650 DESMARAIS","MOXEE","WA",98944,NA,NA,330,"3650 DESMARAIS, MOXEE, WA, 98944","No_Match",NA,NA,NA,NA
555831,"3650 EAST PENNY LANE","COTTOWOOD","AZ",86326,34.716675572,-111.987415436,331,"3650 EAST PENNY LANE, COTTOWOOD, AZ, 86326","Match","Non_Exact","3650 PENNY LN, COTTONWOOD, AZ, 86326",159494755,"L"
555832,"3650 FORESTBROOK ROAD","MYRTLE BEACH","SC",29588,33.6943600320001,-79.002213599,332,"3650 FORESTBROOK ROAD, MYRTLE BEACH, SC, 29588","Match","Exact","3650 FORESTBROOK RD, MYRTLE BEACH, SC, 29588",639628794,"L"
555833,"3650 FOSTER RD","ADDISON","NY",14801,42.1774420830001,-77.319778712,333,"3650 FOSTER RD, ADDISON, NY, 14801","Match","Exact","3650 FOSTER RD, ADDISON, NY, 14801",14761078,"R"
555834,"3650 FULL MOON AVE APT 2712","CHARLOTTE","NC",28262,35.367891699,-80.743942155,334,"3650 FULL MOON AVE APT 2712, CHARLOTTE, NC, 28262","Match","Exact","3650 FULL MOON AVE, CHARLOTTE, NC, 28262",648556615,"R"
555835,"3650 GA HIGHWAY 124","JEFFERSON","GA",30549,NA,NA,335,"3650 GA HIGHWAY 124, JEFFERSON, GA, 30549","No_Match",NA,NA,NA,NA
555836,"3650 GEORGE DIETER 308","EL PASO","TX",79936,31.8010274590001,-106.302269552,336,"3650 GEORGE DIETER 308, EL PASO, TX, 79936","Match","Non_Exact","3650 GEORGE DIETER DR, EL PASO, TX, 79936",189423376,"R"
555837,"3650 GILLIS CANYON ROAD","SHANDON","CA",93461,NA,NA,337,"3650 GILLIS CANYON ROAD, SHANDON, CA, 93461","No_Match",NA,NA,NA,NA
555838,"3650 GRANT ST","GARY","IN",46408,41.5524283550001,-87.3558818769999,338,"3650 GRANT ST, GARY, IN, 46408","Match","Exact","3650 GRANT ST, GARY, IN, 46408",98430445,"R"
555839,"3650 HAWKS LANDING CIR","PACE","FL",32571,30.6326521930001,-87.1686582839999,339,"3650 HAWKS LANDING CIR, PACE, FL, 32571","Match","Exact","3650 HAWKS LANDING CIR, PACE, FL, 32571",650716682,"L"
555840,"3650 HENRIETTA PLACE","SARASOTA","FL",34234,27.36642275,-82.508666917,340,"3650 HENRIETTA PLACE, SARASOTA, FL, 34234","Match","Exact","3650 HENRIETTA PL, SARASOTA, FL, 34234",16350030,"R"
555841,"3650 HIGHWAY 19 SUITE C","ZACHARY","LA",70791,30.640637473,-91.153974815,341,"3650 HIGHWAY 19 SUITE C, ZACHARY, LA, 70791","Match","Non_Exact","3650 STATE RTE 19, ZACHARY, LA, 70791",92177287,"R"
555842,"3650 HIGHWAY 19","ZACHARY","LA",70791,30.640637473,-91.153974815,342,"3650 HIGHWAY 19, ZACHARY, LA, 70791","Match","Non_Exact","3650 STATE RTE 19, ZACHARY, LA, 70791",92177287,"R"
555843,"3650 HILLSIDE DR","HUDSONVILLE","MI",49426,42.849941383,-85.872659018,343,"3650 HILLSIDE DR, HUDSONVILLE, MI, 49426","Match","Exact","3650 HILLSIDE DR, HUDSONVILLE, MI, 49426",71099909,"R"
555844,"3650 HOLLAND AVE","BRONX","NY",10467,40.8797155130001,-73.8634661689999,344,"3650 HOLLAND AVE, BRONX, NY, 10467","Match","Exact","3650 HOLLAND AVE, BRONX, NY, 10467",80297284,"R"
555845,"3650 HOLLAND AVENUE","BRONX","NY",10467,40.8797155130001,-73.8634661689999,345,"3650 HOLLAND AVENUE, BRONX, NY, 10467","Match","Exact","3650 HOLLAND AVE, BRONX, NY, 10467",80297284,"R"
555846,"3650 HOPKINS COURT","POWDER SPRINGS","GA",30127,33.868835549,-84.651605242,346,"3650 HOPKINS COURT, POWDER SPRINGS, GA, 30127","Match","Exact","3650 HOPKINS CT, POWDER SPGS, GA, 30127",17219363,"R"
555847,"3650 HUGH HARDY ROAD","LA GRANGE","NC",28551,NA,NA,347,"3650 HUGH HARDY ROAD, LA GRANGE, NC, 28551","No_Match",NA,NA,NA,NA
555848,"3650 HWY 395 N","SALEM","AR",72576,NA,NA,348,"3650 HWY 395 N, SALEM, AR, 72576","No_Match",NA,NA,NA,NA
555849,"3650 HWY 813","CONWAY","SC",29526,33.888107641,-79.029275916,349,"3650 HWY 813, CONWAY, SC, 29526","Match","Non_Exact","3650 STATE HWY 813, CONWAY, SC, 29526",29109617,"L"
555850,"3650 INNER PERIMETER ROAD","VALDOSTA","GA",31602,30.882891774,-83.2782289959999,350,"3650 INNER PERIMETER ROAD, VALDOSTA, GA, 31602","Match","Exact","3650 INNER PERIMETER RD, VALDOSTA, GA, 31602",621960686,"L"
555851,"3650 JOSEPH SIEWICK DRIVE","FAIRFAX","VA",22033,38.8840303530001,-77.378813786,351,"3650 JOSEPH SIEWICK DRIVE, FAIRFAX, VA, 22033","Match","Exact","3650 JOSEPH SIEWICK DR, FAIRFAX, VA, 22033",642144551,"R"
555852,"3650 KAISER AVE","SAINT CLOUD","FL",34772,28.1861162820001,-81.264024653,352,"3650 KAISER AVE, SAINT CLOUD, FL, 34772","Match","Exact","3650 KAISER AVE, SAINT CLOUD, FL, 34772",176661104,"R"
555853,"3650 KEENER RD W","MARION","OH",43302,40.5716692280001,-83.2282057319999,353,"3650 KEENER RD W, MARION, OH, 43302","Match","Non_Exact","3650 KEENER PIKE W, MARION, OH, 43302",12709389,"L"
555854,"3650 LINDELL BLVD","ST LOUIS","MN",63108,NA,NA,354,"3650 LINDELL BLVD, ST LOUIS, MN, 63108","No_Match",NA,NA,NA,NA
555855,"3650 LINDELL BLVD","ST LOUIS","MO",63108,38.6377713360001,-90.235376767,355,"3650 LINDELL BLVD, ST LOUIS, MO, 63108","Match","Exact","3650 LINDELL BLVD, SAINT LOUIS, MO, 63108",639469524,"L"
555856,"3650 LONG LAKE DRIVE","DOUGLASVILLE","GA",30135,33.7070255690001,-84.741984325,356,"3650 LONG LAKE DRIVE, DOUGLASVILLE, GA, 30135","Match","Exact","3650 LONG LAKE DR, DOUGLASVILLE, GA, 30135",619853907,"L"
555857,"3650 LUM RD","ATTICA","MI",48412,43.0979384610001,-83.2020660109999,357,"3650 LUM RD, ATTICA, MI, 48412","Match","Exact","3650 LUM RD, ATTICA, MI, 48412",110467405,"R"
555858,"3650 MARSH CIRCLE","MELBOURNE","FL",32904,NA,NA,358,"3650 MARSH CIRCLE, MELBOURNE, FL, 32904","No_Match",NA,NA,NA,NA
555859,"3650 MARTIN LUTHER KING BL 296","LOS ANGELES","CA",90008,34.011513795,-118.336503894,359,"3650 MARTIN LUTHER KING BL 296, LOS ANGELES, CA, 90008","Match","Non_Exact","3650 W MARTIN LUTHER KING JR BLVD, LOS ANGELES, CA, 90008",142452295,"L"
555860,"3650 MARTIN LUTHER LING BL 296","LOS ANGELES","CA",90008,NA,NA,360,"3650 MARTIN LUTHER LING BL 296, LOS ANGELES, CA, 90008","No_Match",NA,NA,NA,NA
555861,"3650 MARTIN LUTHERKING BL 296","LOS ANGELES","CA",90008,NA,NA,361,"3650 MARTIN LUTHERKING BL 296, LOS ANGELES, CA, 90008","No_Match",NA,NA,NA,NA
555862,"3650 MONTEREY RD APT 4","LOS ANGELES","CA",90032,34.0887780850001,-118.187992539,362,"3650 MONTEREY RD APT 4, LOS ANGELES, CA, 90032","Match","Exact","3650 MONTEREY RD, LOS ANGELES, CA, 90032",141622942,"R"
555863,"3650 MONTEREY ROAD APT 4","LOS ANGELES","CA",90032,34.0887780850001,-118.187992539,363,"3650 MONTEREY ROAD APT 4, LOS ANGELES, CA, 90032","Match","Exact","3650 MONTEREY RD, LOS ANGELES, CA, 90032",141622942,"R"
555864,"3650 MOSSWOOD CT","JACKSONVILLE","FL",32223,30.147518582,-81.616600423,364,"3650 MOSSWOOD CT, JACKSONVILLE, FL, 32223","Match","Exact","3650 MOSSWOOD CT, JACKSONVILLE, FL, 32223",83939696,"L"
555865,"3650 MOUNTAIN COVE RD","SNELLVILLE","GA",30039,33.7895818870001,-84.060611539,365,"3650 MOUNTAIN COVE RD, SNELLVILLE, GA, 30039","Match","Exact","3650 MOUNTAIN COVE RD, SNELLVILLE, GA, 30039",88905912,"L"
555866,"3650 N 56TH AVE  APT 520","HOLLYWOOD","FL",33021,26.0429801920001,-80.200690349,366,"3650 N 56TH AVE  APT 520, HOLLYWOOD, FL, 33021","Match","Non_Exact","3650 N 56TH AVE, HOLLYWOOD, FL, 33021",114716694,"L"
555867,"3650 N 5TH STREET SUITE 100","NORTH LAS VEGAS","NV",89032,36.225957226,-115.133961333,367,"3650 N 5TH STREET SUITE 100, NORTH LAS VEGAS, NV, 89032","Match","Non_Exact","3650 N 5TH ST, N LAS VEGAS, NV, 89032",201944687,"L"
555868,"3650 N NINTH ST","PHILADELPHIA","PA",19140,40.0074639110001,-75.1429065409999,368,"3650 N NINTH ST, PHILADELPHIA, PA, 19140","Match","Exact","3650 N 9TH ST, PHILADELPHIA, PA, 19140",131418578,"L"
555869,"3650 N RANCHO DR STE 106","LAS VEGAS","NV",89130,36.2253085250001,-115.219450749,369,"3650 N RANCHO DR STE 106, LAS VEGAS, NV, 89130","Match","Non_Exact","3650 N RANCHO DR, LAS VEGAS, NV, 89130",639333663,"R"
555870,"3650 N WOODLAWN -116","WICHITA","KS",67220,37.750911387,-97.2623774049999,370,"3650 N WOODLAWN -116, WICHITA, KS, 67220","Match","Exact","3650 WOODLAWN, WICHITA, KS, 67220",649190196,"R"
555871,"3650 NE 138TH","PORTLAND","OR",97230,45.549168706,-122.520821221,371,"3650 NE 138TH, PORTLAND, OR, 97230","Match","Non_Exact","3650 NE 138TH AVE, PORTLAND, OR, 97230",157522110,"R"
555872,"3650 NE MALLORY","PORTLAND","OR",97212,45.549175387,-122.66364938,372,"3650 NE MALLORY, PORTLAND, OR, 97212","Match","Non_Exact","3650 NE MALLORY AVE, PORTLAND, OR, 97212",157504092,"R"
555873,"3650 NICHOLSON DR","BATON ROUGE","LA",70803,30.4145536870001,-91.187316628,373,"3650 NICHOLSON DR, BATON ROUGE, LA, 70803","Match","Non_Exact","3650 NICHOLSON DR, BATON ROUGE, LA, 70802",92179750,"L"
555874,"3650 NOBSCOT COURT","INDIANAPOLIS","IN",46222,39.8223708450001,-86.2145431,374,"3650 NOBSCOT COURT, INDIANAPOLIS, IN, 46222","Match","Exact","3650 NOBSCOT CT, INDIANAPOLIS, IN, 46222",108025653,"L"
555875,"3650 NORTH RANCHO DRIVE STE 104","LAS VEGAS","NV",89130,36.225302008,-115.219444841,375,"3650 NORTH RANCHO DRIVE STE 104, LAS VEGAS, NV, 89130","Match","Exact","3650 N RANCHO DR, LAS VEGAS, NV, 89130",639333663,"R"
555876,"3650 NORTH SPITZ DRIVE APT 105","WAUKEGAN","IL",60087,42.4180876230001,-87.8581363229999,376,"3650 NORTH SPITZ DRIVE APT 105, WAUKEGAN, IL, 60087","Match","Exact","3650 N SPITZ DR, WAUKEGAN, IL, 60087",119753306,"L"
555877,"3650 NORTH WENDELL ROAD","TUCSON","AZ",85749,32.2737357820001,-110.759561687,377,"3650 NORTH WENDELL ROAD, TUCSON, AZ, 85749","Match","Exact","3650 N WENDELL RD, TUCSON, AZ, 85749",121187632,"R"
555878,"3650 NORTHWOOD DR","CONCORD","CA",94520,38.0007842040001,-122.039576781,378,"3650 NORTHWOOD DR, CONCORD, CA, 94520","Match","Exact","3650 NORTHWOOD DR, CONCORD, CA, 94520",607727045,"L"
555879,"3650 NW 4TH AVE","BOCA RATON","FL",33431,26.382833169,-80.090422484,379,"3650 NW 4TH AVE, BOCA RATON, FL, 33431","Match","Exact","3650 NW 4TH AVE, BOCA RATON, FL, 33431",115293377,"R"
555880,"3650 NW 82ND AVE","DORAL","FL",33166,25.8084351320001,-80.329334547,380,"3650 NW 82ND AVE, DORAL, FL, 33166","Match","Exact","3650 NW 82ND AVE, DORAL, FL, 33166",647856228,"R"
555881,"3650 NW 82ND AVENUE","DORAL","FL",33166,25.8084351320001,-80.329334547,381,"3650 NW 82ND AVENUE, DORAL, FL, 33166","Match","Exact","3650 NW 82ND AVE, DORAL, FL, 33166",647856228,"R"
555882,"3650 OAKDALE AVE","SAINT LOUIS","MO",63121,38.692695832,-90.281997872,382,"3650 OAKDALE AVE, SAINT LOUIS, MO, 63121","Match","Exact","3650 OAKDALE AVE, SAINT LOUIS, MO, 63121",100152725,"R"
555883,"3650 OLD POST CIR","SAN ANGELO","TX",76904,31.4328970980001,-100.486929521,383,"3650 OLD POST CIR, SAN ANGELO, TX, 76904","Match","Exact","3650 OLD POST CIR, SAN ANGELO, TX, 76904",190680424,"R"
555884,"3650 PARIS PIKE","GEORGETOWN","KY",40324,38.2208139370001,-84.506626126,384,"3650 PARIS PIKE, GEORGETOWN, KY, 40324","Match","Exact","3650 PARIS PIKE, GEORGETOWN, KY, 40324",627839796,"R"
555885,"3650 REDONDO BEACH AVE","REDONDO BEACH","CA",90278,33.8886118880001,-118.370131362,385,"3650 REDONDO BEACH AVE, REDONDO BEACH, CA, 90278","Match","Exact","3650 REDONDO BEACH AVE, REDONDO BEACH, CA, 90278",141662680,"R"
555886,"3650 RICHARD ST","MADISON","WI",53714,43.09367253,-89.3223936529999,386,"3650 RICHARD ST, MADISON, WI, 53714","Match","Exact","3650 RICHARD ST, MADISON, WI, 53714",49474521,"L"
555887,"3650 RUE DELPHINE","NEW ORLEANS","LA",70131,29.9153361950001,-90.000540536,387,"3650 RUE DELPHINE, NEW ORLEANS, LA, 70131","Match","Exact","3650 RUE DELPHINE, NEW ORLEANS, LA, 70131",191723413,"L"
555888,"3650 S EASTERN AVE C","LAS VEGAS","NV",89169,36.1237007930001,-115.118780804,388,"3650 S EASTERN AVE C, LAS VEGAS, NV, 89169","Match","Non_Exact","3650 S EASTERN AVE, LAS VEGAS, NV, 89169",201871576,"L"
555889,"3650 S FEDERAL BLVD   90","SHERIDAN","CO",80110,39.649489251,-105.025265055,389,"3650 S FEDERAL BLVD   90, SHERIDAN, CO, 80110","Match","Non_Exact","3650 S FEDERAL BLVD, SHERIDAN, CO, 80110",177329877,"L"
555890,"3650 S GLEBE RD 567","ARLINGTON","VA",22202,38.8426135660001,-77.0512799159999,390,"3650 S GLEBE RD 567, ARLINGTON, VA, 22202","Match","Non_Exact","3650 S GLEBE RD, ARLINGTON, VA, 22202",641112654,"R"
555891,"3650 S LINCOLN ST","ENGLEWOOD","CO",80113,39.6504009540001,-104.986417847,391,"3650 S LINCOLN ST, ENGLEWOOD, CO, 80113","Match","Exact","3650 S LINCOLN ST, ENGLEWOOD, CO, 80113",177333522,"L"
555892,"3650 SAN REMO DR","SANTA BARBARA","CA",93105,34.442334556,-119.742054788,392,"3650 SAN REMO DR, SANTA BARBARA, CA, 93105","Match","Exact","3650 SAN REMO DR, SANTA BARBARA, CA, 93105",108603476,"R"
555893,"3650 SANGO ROAD","CLARKSVILLE","TN",37043,36.504977808,-87.209912735,393,"3650 SANGO ROAD, CLARKSVILLE, TN, 37043","Match","Exact","3650 SANGO RD, CLARKSVILLE, TN, 37043",651887733,"L"
555894,"3650 SE 55TH CT","OCALA","FL",34480,29.151283452,-82.057330184,394,"3650 SE 55TH CT, OCALA, FL, 34480","Match","Exact","3650 SE 55TH CT, OCALA, FL, 34480",116780637,"R"
555895,"3650 SEVERN ROAD","CLEVELAND HEIGHTS","OH",44118,41.5124308040001,-81.549139235,395,"3650 SEVERN ROAD, CLEVELAND HEIGHTS, OH, 44118","Match","Exact","3650 SEVERN RD, CLEVELAND HEIGHTS, OH, 44118",61125060,"R"
555896,"3650 SOUTH STOCKENHAM AVE","MERIDIAN","ID",83642,43.5716508520001,-116.345164756,396,"3650 SOUTH STOCKENHAM AVE, MERIDIAN, ID, 83642","Match","Exact","3650 S STOCKENHAM AVE, MERIDIAN, ID, 83642",641523464,"L"
555897,"3650 STATE HWY 14","SANTA FE","NM",87508,35.471986627,-106.069213805,397,"3650 STATE HWY 14, SANTA FE, NM, 87508","Match","Exact","3650 STATE HWY 14, SANTA FE, NM, 87508",635530631,"R"
555898,"3650 STOBLER BLVD","LAS VEGAS","NV",89103,NA,NA,398,"3650 STOBLER BLVD, LAS VEGAS, NV, 89103","No_Match",NA,NA,NA,NA
555899,"3650 TEBALDI PL","MELBOURNE","FL",32940,28.1283709750001,-80.685355542,399,"3650 TEBALDI PL, MELBOURNE, FL, 32940","Match","Non_Exact","3650 TEBALDI PL, MELBOURNE, FL, 32934",627291243,"L"
555900,"3650 W PLUM","LINCON","NE",68522,40.792315161,-96.773415164,400,"3650 W PLUM, LINCON, NE, 68522","Match","Non_Exact","3650 W PLUM ST, LINCOLN, NE, 68522",645239268,"R"
555901,"3650 WARDER STREET NW","WASHINGTON","DC",20019,38.9364515140001,-77.0212909379999,401,"3650 WARDER STREET NW, WASHINGTON, DC, 20019","Match","Non_Exact","3650 WARDER ST NW, WASHINGTON, DC, 20010",76224131,"L"
555902,"3650 WEST DEER PARK DRIVE","ALSIP","IL",60803,41.6643487100001,-87.711320858,402,"3650 WEST DEER PARK DRIVE, ALSIP, IL, 60803","Match","Exact","3650 W DEER PARK DR, ALSIP, IL, 60803",112216360,"R"
555903,"3650 WESTFIELD LN","GLENVIEW","IL",60026,42.102581404,-87.846504368,403,"3650 WESTFIELD LN, GLENVIEW, IL, 60026","Match","Exact","3650 WESTFIELD LN, GLENVIEW, IL, 60026",111728452,"L"
555904,"3650 WHITEHALL DR APT 201","WEST PALM BEACH","FL",33401,26.7465190510001,-80.086228455,404,"3650 WHITEHALL DR APT 201, WEST PALM BEACH, FL, 33401","Match","Exact","3650 WHITEHALL DR, WEST PALM BEACH, FL, 33401",115581690,"L"
555905,"3650 WILCOX DRIVE","PEARL","MS",39208,32.2903385610001,-90.0986070009999,405,"3650 WILCOX DRIVE, PEARL, MS, 39208","Match","Exact","3650 WILCOX DR, PEARL, MS, 39208",116906534,"R"
555906,"3650 WISCONSIN","ST LOUIS","MO",63118,38.588192366,-90.221816808,406,"3650 WISCONSIN, ST LOUIS, MO, 63118","Match","Non_Exact","3650 WISCONSIN AVE, SAINT LOUIS, MO, 63118",107602755,"L"
555907,"3650","NORTH LAS VEGAS","NV",89032,NA,NA,407,"3650, NORTH LAS VEGAS, NV, 89032","No_Match",NA,NA,NA,NA
555908,"3650","ZION CURCH RD","NC",28025,NA,NA,408,"3650, ZION CURCH RD, NC, 28025","No_Match",NA,NA,NA,NA
555909,"36500 31 MILE","LENOX","MI",48050,42.794642959,-82.748156663,409,"36500 31 MILE, LENOX, MI, 48050","Match","Non_Exact","36500 31 MILE RD, LENOX, MI, 48050",110729997,"R"
555910,"36500 CHERRYWOOD DRIVE","YUCAIPA","CA",92399,NA,NA,410,"36500 CHERRYWOOD DRIVE, YUCAIPA, CA, 92399","No_Match",NA,NA,NA,NA
555911,"36500 FORD ROAD STE 115","WESTLAND","MI",48185,42.324222289,-83.4007426909999,411,"36500 FORD ROAD STE 115, WESTLAND, MI, 48185","Match","Exact","36500 FORD RD, WESTLAND, MI, 48185",617582357,"R"
555912,"36500 HERMINA ST","SLIDELL","LA",70458,30.3082070520001,-89.7912391959999,412,"36500 HERMINA ST, SLIDELL, LA, 70458","Match","Non_Exact","36500 HERMINA ST, SLIDELL, LA, 70460",647943756,"R"
555913,"36500 NYS RTE 26","CARTHAGE","NY",13619,43.988380459,-75.644303656,413,"36500 NYS RTE 26, CARTHAGE, NY, 13619","Match","Non_Exact","36500 STATE RTE 26, CARTHAGE, NY, 13619",154242620,"L"
555914,"36501 OWEN STREET","WHITEHALL","WI",54773,NA,NA,414,"36501 OWEN STREET, WHITEHALL, WI, 54773","No_Match",NA,NA,NA,NA
555915,"36502 BIG BEND DR","MEMPHIS","TN",38116,NA,NA,415,"36502 BIG BEND DR, MEMPHIS, TN, 38116","No_Match",NA,NA,NA,NA
555916,"36502 NOTCH PINE TRAIL","LAKE GEORGE","MN",56458,47.1893533250001,-95.002605312,416,"36502 NOTCH PINE TRAIL, LAKE GEORGE, MN, 56458","Match","Exact","36502 NOTCH PINE TRL, LAKE GEORGE, MN, 56458",168162661,"R"
555917,"36503 2ND AVE SW","FEDERAL WAY","WA",98023,47.2747792800001,-122.336918427,417,"36503 2ND AVE SW, FEDERAL WAY, WA, 98023","Match","Exact","36503 2ND AVE SW, FEDERAL WAY, WA, 98023",186651567,"L"
555918,"36504 HURON RIVER DRIVE","NEW BOSTON","MI",48164,42.157707557,-83.394106709,418,"36504 HURON RIVER DRIVE, NEW BOSTON, MI, 48164","Match","Exact","36504 HURON RIVER DR, NEW BOSTON, MI, 48164",95708106,"R"
555919,"36505 NE 241ST AVE","YACOLT","WA",98675,45.8857616390001,-122.426124697,419,"36505 NE 241ST AVE, YACOLT, WA, 98675","Match","Exact","36505 NE 241ST AVE, YACOLT, WA, 98675",158351363,"R"
555920,"36507 TOOL BOX SPRING RD","MOUNTAIN CENTER","CA",92561,33.600261072,-116.609576725,420,"36507 TOOL BOX SPRING RD, MOUNTAIN CENTER, CA, 92561","Match","Exact","36507 TOOL BOX SPRING RD, MOUNTAIN CENTER, CA, 92561",627907947,"L"
555921,"36508 AV DE PARIS DR","FLORISSANT","MO",63034,NA,NA,421,"36508 AV DE PARIS DR, FLORISSANT, MO, 63034","No_Match",NA,NA,NA,NA
555922,"3651 - 4TH STREET NORTH","MINNEAPOLIS","MN",55412,NA,NA,422,"3651 - 4TH STREET NORTH, MINNEAPOLIS, MN, 55412","No_Match",NA,NA,NA,NA
555923,"3651 54TH AVE N","SAINT PETERSBURG","FL",33714,27.8210813810001,-82.6830701329999,423,"3651 54TH AVE N, SAINT PETERSBURG, FL, 33714","Match","Exact","3651 54TH AVE N, SAINT PETERSBURG, FL, 33714",124701839,"R"
555924,"3651 ALANI DRIVE","HONOLULU","HI",96822,21.320000491,-157.798942061,424,"3651 ALANI DRIVE, HONOLULU, HI, 96822","Match","Exact","3651 ALANI DR, HONOLULU, HI, 96822",203238217,"R"
555925,"3651 ALOHEA AVE","HONOLULU","HI",96816,21.2709495190001,-157.803872621,425,"3651 ALOHEA AVE, HONOLULU, HI, 96816","Match","Exact","3651 ALOHEA AVE, HONOLULU, HI, 96816",203242654,"R"
555926,"3651 BELZ RD","SANGER","TX",76266,33.376935459,-97.191109825,426,"3651 BELZ RD, SANGER, TX, 76266","Match","Exact","3651 BELZ RD, SANGER, TX, 76266",649386207,"L"
555927,"3651 BRANDING IRON PLACE","DUBLIN","CA",94568,37.7324301680001,-121.867347681,427,"3651 BRANDING IRON PLACE, DUBLIN, CA, 94568","Match","Exact","3651 BRANDING IRON PL, DUBLIN, CA, 94568",637834561,"R"
555928,"3651 CASTLE RD","NORTH BRANCH","MI",48461,43.2381322210001,-83.2114300659999,428,"3651 CASTLE RD, NORTH BRANCH, MI, 48461","Match","Exact","3651 CASTLE RD, NORTH BRANCH, MI, 48461",642614218,"L"
555929,"3651 CHERRY HILL DR","GREENSBORO","NC",27310,36.134372355,-79.9178360879999,429,"3651 CHERRY HILL DR, GREENSBORO, NC, 27310","Match","Non_Exact","3651 CHERRY HILL DR, GREENSBORO, NC, 27410",131025348,"L"
555930,"3651 CHERRY HILL DR","GREENSBORO","NC",27410,36.134372355,-79.9178360879999,430,"3651 CHERRY HILL DR, GREENSBORO, NC, 27410","Match","Exact","3651 CHERRY HILL DR, GREENSBORO, NC, 27410",131025348,"L"
555931,"3651 COLLEGE BLVD SUITE 100A","LEAWOOD","KS",66211,38.9275527770001,-94.626147427,431,"3651 COLLEGE BLVD SUITE 100A, LEAWOOD, KS, 66211","Match","Exact","3651 COLLEGE BLVD, LEAWOOD, KS, 66211",642535525,"L"
555932,"3651 COUNTY RD HHH","KIELER","WI",53812,NA,NA,432,"3651 COUNTY RD HHH, KIELER, WI, 53812","No_Match",NA,NA,NA,NA
555933,"3651 DEVENWOOD WAY","BUFORD","GA",30519,34.090433137,-83.978631606,433,"3651 DEVENWOOD WAY, BUFORD, GA, 30519","Match","Exact","3651 DEVENWOOD WAY, BUFORD, GA, 30519",653671060,"L"
555934,"3651 E MARGINAL WAY S","SEATTLE","WA",98134,47.5703897010001,-122.339847486,434,"3651 E MARGINAL WAY S, SEATTLE, WA, 98134","Match","Exact","3651 E MARGINAL WAY S, SEATTLE, WA, 98134",239762566,"R"
555935,"3651 EAST 140TH STREET","CLEVELAND","OH",44120,41.4600355540001,-81.584634117,435,"3651 EAST 140TH STREET, CLEVELAND, OH, 44120","Match","Exact","3651 E 140TH ST, CLEVELAND, OH, 44120",61127119,"L"
555936,"3651 ELDER OAKS BLVD NO 3107","BOWIE","MD",20716,38.9399231450001,-76.723071439,436,"3651 ELDER OAKS BLVD NO 3107, BOWIE, MD, 20716","Match","Non_Exact","3651 ELDER OAKS BLVD, BOWIE, MD, 20716",76399726,"R"
555937,"3651 ELDER OAKS BLVD","BOWIE","MD",20716,38.9399231450001,-76.723071439,437,"3651 ELDER OAKS BLVD, BOWIE, MD, 20716","Match","Exact","3651 ELDER OAKS BLVD, BOWIE, MD, 20716",76399726,"R"
555938,"3651 FAU BLVD STE 400-EE5","BOCA RATON","FL",33431,26.3841759540001,-80.097953961,438,"3651 FAU BLVD STE 400-EE5, BOCA RATON, FL, 33431","Match","Exact","3651 FAU BLVD, BOCA RATON, FL, 33431",648315923,"R"
555939,"3651 HIGHWAY 1","NAPOLEONVILLE","LA",70390,29.8855358430001,-90.9890418099999,439,"3651 HIGHWAY 1, NAPOLEONVILLE, LA, 70390","Match","Exact","3651 HWY 1, NAPOLEONVILLE, LA, 70390",650988807,"L"
555940,"3651 HIGHWAY 104","OPELOUSAS","LA",70570,NA,NA,440,"3651 HIGHWAY 104, OPELOUSAS, LA, 70570","No_Match",NA,NA,NA,NA
555941,"3651 LA BREA AVE","LOS ANGELES","CA",90016,34.020593508,-118.355603621,441,"3651 LA BREA AVE, LOS ANGELES, CA, 90016","Match","Non_Exact","3651 S LA BREA AVE, LOS ANGELES, CA, 90016",141601428,"R"
555942,"3651 LINDELL RD D747","LAS VEGAS","NV",89103,36.1235333670001,-115.216490982,442,"3651 LINDELL RD D747, LAS VEGAS, NV, 89103","Match","Non_Exact","3651 S LINDELL RD, LAS VEGAS, NV, 89103",201862966,"R"
555943,"3651 LINDELL RD SUITE D-794","LAS VEGAS","NV",89103,36.1235333670001,-115.216490982,443,"3651 LINDELL RD SUITE D-794, LAS VEGAS, NV, 89103","Match","Non_Exact","3651 S LINDELL RD, LAS VEGAS, NV, 89103",201862966,"R"
555944,"3651 LINDELL ROAD SUITE D","LAS VEGAS","NV",89103,36.1235333670001,-115.216490982,444,"3651 LINDELL ROAD SUITE D, LAS VEGAS, NV, 89103","Match","Non_Exact","3651 S LINDELL RD, LAS VEGAS, NV, 89103",201862966,"R"
555945,"3651 LINDELL ROAD SUITE D422","LAS VEGAS","NV",89103,36.1235333670001,-115.216490982,445,"3651 LINDELL ROAD SUITE D422, LAS VEGAS, NV, 89103","Match","Non_Exact","3651 S LINDELL RD, LAS VEGAS, NV, 89103",201862966,"R"
555946,"3651 MANSFIELD PLACE","WALDORF","MD",20602,38.612660084,-76.9022760949999,446,"3651 MANSFIELD PLACE, WALDORF, MD, 20602","Match","Exact","3651 MANSFIELD PL, WALDORF, MD, 20602",25386492,"R"
555947,"3651 MARINER BLUFF CT","GAINESVILLE","GA",30506,34.3193913550001,-83.947817841,447,"3651 MARINER BLUFF CT, GAINESVILLE, GA, 30506","Match","Exact","3651 MARINER BLUFF CT, GAINESVILLE, GA, 30506",618457395,"L"
555948,"3651 N BROADWAY AVE APT 2102","TYLER","TX",75702,32.3867102950001,-95.301913337,448,"3651 N BROADWAY AVE APT 2102, TYLER, TX, 75702","Match","Non_Exact","3651 N BROADWAY AVE, TYLER, TX, 75702",641509517,"R"
555949,"3651 N MERRIMAC CIRCLE","STOCKTON","CA",95219,38.0038833560001,-121.363179009,449,"3651 N MERRIMAC CIRCLE, STOCKTON, CA, 95219","Match","Exact","3651 N MERRIMAC CIR, STOCKTON, CA, 95219",133842663,"R"
555950,"3651 NE 12TH TERRACE","POMPANO BEACH","FL",33064,26.276161745,-80.1063633749999,450,"3651 NE 12TH TERRACE, POMPANO BEACH, FL, 33064","Match","Exact","3651 NE 12TH TER, POMPANO BEACH, FL, 33064",114742819,"L"
555951,"3651 NEWBOLT COURT","DOYLESTOWN","PA",18902,40.3552379700001,-75.080137443,451,"3651 NEWBOLT COURT, DOYLESTOWN, PA, 18902","Match","Exact","3651 NEWBOLT CT, DOYLESTOWN, PA, 18902",134762560,"L"
555952,"3651 NORTH 100 EAST STE 300","PROVO","UT",84604,NA,NA,452,"3651 NORTH 100 EAST STE 300, PROVO, UT, 84604","No_Match",NA,NA,NA,NA
555953,"3651 NORTH 100 EAST SUITE 300","PROVO","UT",84604,NA,NA,453,"3651 NORTH 100 EAST SUITE 300, PROVO, UT, 84604","No_Match",NA,NA,NA,NA
555954,"3651 ORANGEFIELD DR","ALEXANDRIA","LA",71302,31.280086591,-92.434237517,454,"3651 ORANGEFIELD DR, ALEXANDRIA, LA, 71302","Match","Exact","3651 ORANGEFIELD DR, ALEXANDRIA, LA, 71302",11784761,"R"
555955,"3651 PEACHTREE PARKWAY SUITE E254","SUWANEE","GA",30024,34.0717577730001,-84.1665482289999,455,"3651 PEACHTREE PARKWAY SUITE E254, SUWANEE, GA, 30024","Match","Exact","3651 PEACHTREE PKWY, SUWANEE, GA, 30024",638302927,"R"
555956,"3651 PEACHTREE PKWY E 204","SUWANEE","GA",30024,34.0717577730001,-84.1665482289999,456,"3651 PEACHTREE PKWY E 204, SUWANEE, GA, 30024","Match","Non_Exact","3651 PEACHTREE PKWY, SUWANEE, GA, 30024",638302927,"R"
555957,"3651 PEACHTREE PKWY STE E380","SUWANEE","GA",30024,34.0717577730001,-84.1665482289999,457,"3651 PEACHTREE PKWY STE E380, SUWANEE, GA, 30024","Match","Exact","3651 PEACHTREE PKWY, SUWANEE, GA, 30024",638302927,"R"
555958,"3651 PEACHTREE PKWY","SUWANEE","GA",30024,34.0717577730001,-84.1665482289999,458,"3651 PEACHTREE PKWY, SUWANEE, GA, 30024","Match","Exact","3651 PEACHTREE PKWY, SUWANEE, GA, 30024",638302927,"R"
555959,"3651 PIEDMONT ST","NEW ORLEANS","LA",70122,29.9956559230001,-90.0534626469999,459,"3651 PIEDMONT ST, NEW ORLEANS, LA, 70122","Match","Non_Exact","3651 PIEDMONT DR, NEW ORLEANS, LA, 70122",191715298,"R"
555960,"3651 PRAIRIE WATERS DR APT 6105","GRAND PRAIRIE","TX",75052,32.606953506,-97.073584254,460,"3651 PRAIRIE WATERS DR APT 6105, GRAND PRAIRIE, TX, 75052","Match","Exact","3651 PRAIRIE WATERS DR, GRAND PRAIRIE, TX, 75052",650219433,"R"
555961,"3651 PRAIRIE WATERS DR APT 8201","GRAND PRAIRIE","TX",75052,32.606953506,-97.073584254,461,"3651 PRAIRIE WATERS DR APT 8201, GRAND PRAIRIE, TX, 75052","Match","Exact","3651 PRAIRIE WATERS DR, GRAND PRAIRIE, TX, 75052",650219433,"R"
555962,"3651 PRAIRIE WATERS DRIVE 5236","GRAND PRAIRIE","TX",75052,32.606953506,-97.073584254,462,"3651 PRAIRIE WATERS DRIVE 5236, GRAND PRAIRIE, TX, 75052","Match","Exact","3651 PRAIRIE WATERS DR, GRAND PRAIRIE, TX, 75052",650219433,"R"
555963,"3651 PRAIRIE WATERS DRIVE APT 5212","GRAND PRAIRIE","TX",75052,32.606953506,-97.073584254,463,"3651 PRAIRIE WATERS DRIVE APT 5212, GRAND PRAIRIE, TX, 75052","Match","Exact","3651 PRAIRIE WATERS DR, GRAND PRAIRIE, TX, 75052",650219433,"R"
555964,"3651 QUIGGLE AVENUE","ADA","MI",49301,42.898539617,-85.4499427499999,464,"3651 QUIGGLE AVENUE, ADA, MI, 49301","Match","Non_Exact","3651 QUIGGLE AVE SE, ADA, MI, 49301",12506129,"L"
555965,"3651 ROBERT LEE ROAD","SAINT CLOUD","FL",34772,28.188388355,-81.173340595,465,"3651 ROBERT LEE ROAD, SAINT CLOUD, FL, 34772","Match","Exact","3651 ROBERT LEE RD, SAINT CLOUD, FL, 34772",607053873,"L"
555966,"3651 S 645 E","SALT LAKE CITY","UT",84106,40.6915855020001,-111.872591883,466,"3651 S 645 E, SALT LAKE CITY, UT, 84106","Match","Exact","3651 S 645 E, SALT LAKE CITY, UT, 84106",176082426,"L"
555967,"3651 S LA BREA AVE - 428","LOS ANGELES","CA",90016,NA,NA,467,"3651 S LA BREA AVE - 428, LOS ANGELES, CA, 90016","No_Match",NA,NA,NA,NA
555968,"3651 S LA BREA AVE 188","LOS ANGELES","CA",90016,NA,NA,468,"3651 S LA BREA AVE 188, LOS ANGELES, CA, 90016","No_Match",NA,NA,NA,NA
555969,"3651 S LA BREA AVE STE 131","LOS ANGELES","CA",90016,NA,NA,469,"3651 S LA BREA AVE STE 131, LOS ANGELES, CA, 90016","No_Match",NA,NA,NA,NA
555970,"3651 S LA BREA AVE STE 141","LOS ANGELES","CA",90016,NA,NA,470,"3651 S LA BREA AVE STE 141, LOS ANGELES, CA, 90016","No_Match",NA,NA,NA,NA
555971,"3651 S LA BREA AVE STE 291","LOS ANGELES","CA",90016,NA,NA,471,"3651 S LA BREA AVE STE 291, LOS ANGELES, CA, 90016","No_Match",NA,NA,NA,NA
555972,"3651 S LA BREA AVE STE 306","LOS ANGELES","CA",90016,NA,NA,472,"3651 S LA BREA AVE STE 306, LOS ANGELES, CA, 90016","No_Match",NA,NA,NA,NA
555973,"3651 S LA BREA AVE STE 318","LOS ANGELES","CA",90016,NA,NA,473,"3651 S LA BREA AVE STE 318, LOS ANGELES, CA, 90016","No_Match",NA,NA,NA,NA
555974,"3651 S LA BREA AVE STE 809","LOS ANGELES","CA",90016,NA,NA,474,"3651 S LA BREA AVE STE 809, LOS ANGELES, CA, 90016","No_Match",NA,NA,NA,NA
555975,"3651 S LA BREA AVE- 428","LOS ANGELES","CA",90016,NA,NA,475,"3651 S LA BREA AVE- 428, LOS ANGELES, CA, 90016","No_Match",NA,NA,NA,NA
555976,"3651 S LA BREA AVENUE UNIT 204","LOS ANGELES","CA",90016,NA,NA,476,"3651 S LA BREA AVENUE UNIT 204, LOS ANGELES, CA, 90016","No_Match",NA,NA,NA,NA
555977,"3651 S LABREA AVE","LOS ANGELES","CA",90016,34.0205865470001,-118.355603508,477,"3651 S LABREA AVE, LOS ANGELES, CA, 90016","Match","Non_Exact","3651 S LA BREA AVE, LOS ANGELES, CA, 90016",141601428,"R"
555978,"3651 S LABREA AVENUE","LOS ANGELES","CA",90016,34.0205865470001,-118.355603508,478,"3651 S LABREA AVENUE, LOS ANGELES, CA, 90016","Match","Non_Exact","3651 S LA BREA AVE, LOS ANGELES, CA, 90016",141601428,"R"
555979,"3651 S SEELEY","CHICAGO","IL",60609,41.827516555,-87.6764143199999,479,"3651 S SEELEY, CHICAGO, IL, 60609","Match","Non_Exact","3651 S SEELEY AVE, CHICAGO, IL, 60609",604981165,"L"
555980,"3651 S VERMONT AVENUE","LOS ANGELES","CA",90007,34.0218066510001,-118.291541883,480,"3651 S VERMONT AVENUE, LOS ANGELES, CA, 90007","Match","Exact","3651 S VERMONT AVE, LOS ANGELES, CA, 90007",141607677,"R"
555981,"3651 S","LOS ANGELES","CA",90016,NA,NA,481,"3651 S, LOS ANGELES, CA, 90016","No_Match",NA,NA,NA,NA
555982,"3651 SE 2ND ST","BOYNTON BEACH","FL",33435,26.492139975,-80.0688812349999,482,"3651 SE 2ND ST, BOYNTON BEACH, FL, 33435","Match","Exact","3651 SE 2ND ST, BOYNTON BEACH, FL, 33435",115297514,"R"
555983,"3651 SOUTH CTY ROAD K","SOUTH RANGE","WI",54874,NA,NA,483,"3651 SOUTH CTY ROAD K, SOUTH RANGE, WI, 54874","No_Match",NA,NA,NA,NA
555984,"3651 SOUTH LA BREA AVENUE 267","LOS ANGELES","CA",90016,34.020593508,-118.355603621,484,"3651 SOUTH LA BREA AVENUE 267, LOS ANGELES, CA, 90016","Match","Exact","3651 S LA BREA AVE, LOS ANGELES, CA, 90016",141601428,"R"
555985,"3651 SOUTH LABREA","LOS ANGELES","CA",90016,34.020593508,-118.355603621,485,"3651 SOUTH LABREA, LOS ANGELES, CA, 90016","Match","Non_Exact","3651 S LA BREA AVE, LOS ANGELES, CA, 90016",141601428,"R"
555986,"3651 STONEVALLEY DRIVE","LAFAYETTE","IN",47909,40.3659953310001,-86.879782389,486,"3651 STONEVALLEY DRIVE, LAFAYETTE, IN, 47909","Match","Non_Exact","3651 STONE VALLEY DR, LAFAYETTE, IN, 47909",27318750,"L"
555987,"3651 SUNRIDGE DR","PARK CITY","UT",84098,40.7477933640001,-111.583462592,487,"3651 SUNRIDGE DR, PARK CITY, UT, 84098","Match","Exact","3651 SUNRIDGE DR, PARK CITY, UT, 84098",629587736,"R"
555988,"3651 TORRINGFORD STREET","TORRINGTON","CT",6790,41.872139098,-73.0678184989999,488,"3651 TORRINGFORD STREET, TORRINGTON, CT, 6790","Match","Exact","3651 TORRINGFORD ST, TORRINGTON, CT, 06790",3104885,"L"
555989,"3651 US HWY 17","FLEMING ISLAND","FL",32003,30.133353431,-81.7025822579999,489,"3651 US HWY 17, FLEMING ISLAND, FL, 32003","Match","Exact","3651 US HWY 17, FLEMING ISLAND, FL, 32003",636059463,"R"
555990,"3651 W WAGONTRAIL DR","DENVER","CO",80123,39.631005885,-105.035371507,490,"3651 W WAGONTRAIL DR, DENVER, CO, 80123","Match","Non_Exact","3651 W WAGON TRAIL DR, DENVER, CO, 80123",177329966,"R"
555991,"3651 WALNUT CREEK WAY","LITHONIA","GA",30038,33.675930556,-84.16741045,491,"3651 WALNUT CREEK WAY, LITHONIA, GA, 30038","Match","Exact","3651 WALNUT CREEK WAY, LITHONIA, GA, 30038",23400386,"R"
555992,"3651 WAYNESBORO WAY","ME",NA,NA,NA,NA,492,"3651 WAYNESBORO WAY, ME, , ","No_Match",NA,NA,NA,NA
555993,"3651 WAYNESBORO WAY","MELBOURNE","FL",32934,28.166719696,-80.679185799,493,"3651 WAYNESBORO WAY, MELBOURNE, FL, 32934","Match","Exact","3651 WAYNESBORO WAY, MELBOURNE, FL, 32934",93933372,"L"
555994,"3651 WENTWORTH DR SW","WYOMING","MI",49519,42.898224326,-85.733182861,494,"3651 WENTWORTH DR SW, WYOMING, MI, 49519","Match","Exact","3651 WENTWORTH DR SW, WYOMING, MI, 49519",12505720,"R"
555995,"3651 WHITE OAKS RDG","TUSCALOOSA","AL",35406,33.2572377970001,-87.489387587,495,"3651 WHITE OAKS RDG, TUSCALOOSA, AL, 35406","Match","Exact","3651 WHITE OAKS RIDGE, TUSCALOOSA, AL, 35406",640972881,"L"
555996,"36511 BARRINGTON DRIVE","EUSTIS","FL",32736,28.8811413710001,-81.5560708309999,496,"36511 BARRINGTON DRIVE, EUSTIS, FL, 32736","Match","Exact","36511 BARRINGTON DR, EUSTIS, FL, 32736",94213916,"L"
555997,"36511 MILE END RD","SOLEDAD","CA",93960,36.395255741,-121.349047374,497,"36511 MILE END RD, SOLEDAD, CA, 93960","Match","Exact","36511 MILE END RD, SOLEDAD, CA, 93960",196800241,"R"
555998,"36511 WCR 41","EATON","CO",80615,40.532668556,-104.67774085,498,"36511 WCR 41, EATON, CO, 80615","Match","Non_Exact","36511 CO RD 41, EATON, CO, 80615",188717090,"R"
555999,"365113 BRIDGES RD","WILLARDS","MD",21874,NA,NA,499,"365113 BRIDGES RD, WILLARDS, MD, 21874","No_Match",NA,NA,NA,NA
556000,"36514 BIRCH TRAIL","GRAND RAPIDS","MN",55744,47.404857142,-93.510131642,500,"36514 BIRCH TRAIL, GRAND RAPIDS, MN, 55744","Match","Exact","36514 BIRCH TRL, GRAND RAPIDS, MN, 55744",162946496,"L"
