"ID","Address","City","State","Zip","lat","long","id","input_address","match_indicator","match_type","matched_address","tiger_line_id","tiger_side"
163001,"1380 CLARK AVE","SANTA MARIA","CA",93455,34.8582308310001,-120.409967079,1,"1380 CLARK AVE, SANTA MARIA, CA, 93455","Match","Exact","1380 CLARK AVE, SANTA MARIA, CA, 93455",108672209,"R"
163002,"1380 COCHRAN CROSSING","MCDONOUGH","GA",30252,33.446917007,-84.1030497089999,2,"1380 COCHRAN CROSSING, MCDONOUGH, GA, 30252","Match","Exact","1380 COCHRAN CROSSING, MCDONOUGH, GA, 30252",619917963,"L"
163003,"1380 COCHRAN XING","MCDONOUGH","GA",30252,33.446917007,-84.1030497089999,3,"1380 COCHRAN XING, MCDONOUGH, GA, 30252","Match","Exact","1380 COCHRAN CROSSING, MCDONOUGH, GA, 30252",619917963,"L"
163004,"1380 COPPER CREEK DRIVE","LEXINGTON","KY",40514,37.9840017070001,-84.572326128,4,"1380 COPPER CREEK DRIVE, LEXINGTON, KY, 40514","Match","Exact","1380 COPPER CREEK DR, LEXINGTON, KY, 40514",31933989,"R"
163005,"1380 COUNTY RD R","AMES","NE",68621,NA,NA,5,"1380 COUNTY RD R, AMES, NE, 68621","No_Match",NA,NA,NA,NA
163006,"1380 CR 2224","DAINGERFIELD","TX",75638,32.9521751830001,-94.7416118209999,6,"1380 CR 2224, DAINGERFIELD, TX, 75638","Match","Exact","1380 CO RD 2224, DAINGERFIELD, TX, 75638",57782290,"L"
163007,"1380 CRAGLE RD","ROME","PA",18837,41.8605454280001,-76.2925096659999,7,"1380 CRAGLE RD, ROME, PA, 18837","Match","Exact","1380 CRAGLE RD, ROME, PA, 18837",176984835,"R"
163008,"1380 CRESCENT DRIVE","ELM GROVE","WI",53122,43.047989993,-88.0746187729999,8,"1380 CRESCENT DRIVE, ELM GROVE, WI, 53122","Match","Exact","1380 CRESCENT DR, ELM GROVE, WI, 53122",53817469,"R"
163009,"1380 DALSBURY LANE","VIRGINIA","VA",23456,36.7738258140001,-76.1429523429999,9,"1380 DALSBURY LANE, VIRGINIA, VA, 23456","Match","Non_Exact","1380 DALSBURY LN, VA BCH, VA, 23456",122291901,"L"
163010,"1380 DENVER AVE","LOVELAND","CO",80537,40.4068054730001,-105.044550393,10,"1380 DENVER AVE, LOVELAND, CO, 80537","Match","Exact","1380 DENVER AVE, LOVELAND, CO, 80537",188487194,"L"
163011,"1380 DOHENY PLACE","LOS ANGELES","CA",90069,34.095132875,-118.39113434,11,"1380 DOHENY PLACE, LOS ANGELES, CA, 90069","Match","Exact","1380 DOHENY PL, LOS ANGELES, CA, 90069",141571802,"R"
163012,"1380 E 13TH STREET APT 1406","CLEVELAND","OH",44114,41.5051930480001,-81.6857135019999,12,"1380 E 13TH STREET APT 1406, CLEVELAND, OH, 44114","Match","Non_Exact","1380 E 13TH ST, CLEVELAND, OH, 44114",61110519,"R"
163013,"1380 E 22ND AVE","COLUMBUS","OH",43211,40.00458294,-82.971744012,13,"1380 E 22ND AVE, COLUMBUS, OH, 43211","Match","Exact","1380 E 22ND AVE, COLUMBUS, OH, 43211",218652986,"L"
163014,"1380 E HOGAN STREET","EAGLE","ID",83616,43.7060307030001,-116.336322266,14,"1380 E HOGAN STREET, EAGLE, ID, 83616","Match","Exact","1380 E HOGAN ST, EAGLE, ID, 83616",117880737,"L"
163015,"1380 E HYDE PARK","CHICAGO","IL",60615,41.802422612,-87.5923196109999,15,"1380 E HYDE PARK, CHICAGO, IL, 60615","Match","Non_Exact","1380 E HYDE PARK BLVD, CHICAGO, IL, 60615",111771714,"L"
163016,"1380 E LARUEL AVE","TULARE","CA",93274,36.1841242770001,-119.326597608,16,"1380 E LARUEL AVE, TULARE, CA, 93274","Match","Non_Exact","1380 LAUREL AVE, TULARE, CA, 93274",202784609,"L"
163017,"1380 E SILVEADO RANCH BLVD","LAS VEGAS","NV",89183,NA,NA,17,"1380 E SILVEADO RANCH BLVD, LAS VEGAS, NV, 89183","No_Match",NA,NA,NA,NA
163018,"1380 E SQUARE LAKE ROAD","BLOOMFIELD HILLS","MI",48304,42.60481236,-83.2120798129999,18,"1380 E SQUARE LAKE ROAD, BLOOMFIELD HILLS, MI, 48304","Match","Exact","1380 E SQUARE LAKE RD, BLOOMFIELD HILLS, MI, 48304",69710108,"R"
163019,"1380 E TERRITORIAL RD","CAMDEN","MI",49232,41.7088875490001,-84.6241950639999,19,"1380 E TERRITORIAL RD, CAMDEN, MI, 49232","Match","Exact","1380 E TERRITORIAL RD, CAMDEN, MI, 49232",8286640,"L"
163020,"1380 E WINDERBROOK WAY","MILLCREEK","UT",84124,40.677540433,-111.85151974,20,"1380 E WINDERBROOK WAY, MILLCREEK, UT, 84124","Match","Exact","1380 WINDERBROOK WAY, MILLCREEK, UT, 84124",176142087,"L"
163021,"1380 EAST HYDE PARK BLVD APT 720","CHICAGO","IL",60615,41.8024222280001,-87.592350615,21,"1380 EAST HYDE PARK BLVD APT 720, CHICAGO, IL, 60615","Match","Exact","1380 E HYDE PARK BLVD, CHICAGO, IL, 60615",111771714,"L"
163022,"1380 EASTON ROAD","WARRINGTON","PA",18976,40.250950656,-75.133329961,22,"1380 EASTON ROAD, WARRINGTON, PA, 18976","Match","Exact","1380 EASTON RD, WARRINGTON, PA, 18976",637447452,"L"
163023,"1380 EL CAMINO REAL","MILLBRAE","CA",94030,37.6098573850001,-122.400801606,23,"1380 EL CAMINO REAL, MILLBRAE, CA, 94030","Match","Non_Exact","1380 S EL CAMINO REAL, MILLBRAE, CA, 94030",637383377,"R"
163024,"1380 ELSMERE LANE","RIVERDALE","GA",30296,33.586960968,-84.434978657,24,"1380 ELSMERE LANE, RIVERDALE, GA, 30296","Match","Exact","1380 ELSMERE LN, RIVERDALE, GA, 30296",23312348,"L"
163025,"1380 ESMONT AVENUE","SPRING HILL","FL",34608,28.4568341930001,-82.543791082,25,"1380 ESMONT AVENUE, SPRING HILL, FL, 34608","Match","Exact","1380 ESMONT AVE, SPRING HILL, FL, 34608",85446568,"L"
163026,"1380 GOLDEN OAK PARKWAY","AURORA","IL",60506,41.784865961,-88.340506843,26,"1380 GOLDEN OAK PARKWAY, AURORA, IL, 60506","Match","Non_Exact","1380 GOLDEN OAKS PKWY, AURORA, IL, 60506",119539958,"R"
163027,"1380 GRAND VIEW LODGE RD-PO BOX 4","PLYMOUTH","VT",5056,43.5539078730001,-72.740412259,27,"1380 GRAND VIEW LODGE RD-PO BOX 4, PLYMOUTH, VT, 5056","Match","Non_Exact","1380 GRAND VIEW LODGE RD, PLYMOUTH, VT, 05056",139239902,"R"
163028,"1380 HANGING ROCK ROAD","BOILING SPRINGS","SC",29316,35.04462311,-82.001753642,28,"1380 HANGING ROCK ROAD, BOILING SPRINGS, SC, 29316","Match","Exact","1380 HANGING ROCK RD, BOILING SPRINGS, SC, 29316",19499806,"L"
163029,"1380 HIDDEN CREEK DR S","SALINE","MI",48176,NA,NA,29,"1380 HIDDEN CREEK DR S, SALINE, MI, 48176","Tie",NA,NA,NA,NA
163030,"1380 HIGHLAND VILLAGE DR APT 14","DULUTH","MN",55811,46.8027821210001,-92.1177828799999,30,"1380 HIGHLAND VILLAGE DR APT 14, DULUTH, MN, 55811","Match","Exact","1380 HIGHLAND VILLAGE DR, DULUTH, MN, 55811",163256160,"R"
163031,"1380 HYDE PARK BLVD UNIT 313","CHICAGO","IL",60615,41.8024222280001,-87.592350615,31,"1380 HYDE PARK BLVD UNIT 313, CHICAGO, IL, 60615","Match","Non_Exact","1380 E HYDE PARK BLVD, CHICAGO, IL, 60615",111771714,"L"
163032,"1380 IVY COURT - 217","VERO BEACH","FL",32963,27.7553304800001,-80.39596218,32,"1380 IVY COURT - 217, VERO BEACH, FL, 32963","Match","Exact","1380 IVY CT, VERO BEACH, FL, 32963",633742859,"L"
163033,"1380 JOKELA LAKE DRIVE","PINE RIVER","MN",56474,46.6625893200001,-94.353310677,33,"1380 JOKELA LAKE DRIVE, PINE RIVER, MN, 56474","Match","Non_Exact","1380 JOKELA LAKE DR SW, PINE RIVER, MN, 56474",648217330,"R"
163034,"1380 JUDY DR PO BOX 71","SIX LAKES","MI",48886,NA,NA,34,"1380 JUDY DR PO BOX 71, SIX LAKES, MI, 48886","No_Match",NA,NA,NA,NA
163035,"1380 KERSEY LANE","ROCKVILLE","MD",20854,39.0646747480001,-77.168052968,35,"1380 KERSEY LANE, ROCKVILLE, MD, 20854","Match","Exact","1380 KERSEY LN, ROCKVILLE, MD, 20854",62054089,"L"
163036,"1380 KNOLL DRIVE","SHOREVIEW","MN",55126,45.1104782740001,-93.160416514,36,"1380 KNOLL DRIVE, SHOREVIEW, MN, 55126","Match","Exact","1380 KNOLL DR, SHOREVIEW, MN, 55126",97634727,"R"
163037,"1380 LAKE GASTON DR","GASBURG","VA",23857,36.5735376640001,-77.8688239639999,37,"1380 LAKE GASTON DR, GASBURG, VA, 23857","Match","Exact","1380 LAKE GASTON DR, GASBURG, VA, 23857",54031071,"L"
163038,"1380 LAND OLAKES DR","ROSWELL","GA",30075,34.0343442830001,-84.378524494,38,"1380 LAND OLAKES DR, ROSWELL, GA, 30075","Match","Non_Exact","1380 LAND O LAKES DR, ROSWELL, GA, 30075",17331967,"L"
163039,"1380 LEEWARD DRIVE","ROCKWALL","TX",75087,32.9470805060001,-96.484023867,39,"1380 LEEWARD DRIVE, ROCKWALL, TX, 75087","Match","Non_Exact","1380 LEEWARD LN, ROCKWALL, TX, 75087",123794811,"R"
163040,"1380 LEGION ROAD","DETROIT LAKES","MN",56501,46.8042262650001,-95.867280578,40,"1380 LEGION ROAD, DETROIT LAKES, MN, 56501","Match","Exact","1380 LEGION RD, DETROIT LAKES, MN, 56501",639595206,"R"
163041,"1380 LEISURE DRIVE","SAINT LOUIS","MO",63031,38.82069886,-90.3348452119999,41,"1380 LEISURE DRIVE, SAINT LOUIS, MO, 63031","Match","Non_Exact","1380 LEISURE DR, FLORISSANT, MO, 63031",644177823,"L"
163042,"1380 LUCAS AVE","COTTEKILL","NY",12419,41.877694649,-74.089590275,42,"1380 LUCAS AVE, COTTEKILL, NY, 12419","Match","Exact","1380 LUCAS AVE, COTTEKILL, NY, 12419",41888666,"R"
163043,"1380 LUDWICK ST","KEYSER","WV",26726,39.4320729200001,-78.9919997109999,43,"1380 LUDWICK ST, KEYSER, WV, 26726","Match","Exact","1380 LUDWICK ST, KEYSER, WV, 26726",74296428,"L"
163044,"1380 ludwick Street",NA,NA,NA,NA,NA,44,"1380 ludwick Street, , , ","No_Match",NA,NA,NA,NA
163045,"1380 LUSITANA ST STE 401","HONOLULU","HI",96813,21.30854027,-157.852831586,45,"1380 LUSITANA ST STE 401, HONOLULU, HI, 96813","Match","Exact","1380 LUSITANA ST, HONOLULU, HI, 96813",607811011,"L"
163046,"1380 LUSITANA ST STE 904","HONOLULU","HI",96813,21.30854027,-157.852831586,46,"1380 LUSITANA ST STE 904, HONOLULU, HI, 96813","Match","Exact","1380 LUSITANA ST, HONOLULU, HI, 96813",607811011,"L"
163047,"1380 MACENNA LANE","GARDNERVILLE","NV",89410,38.938377732,-119.730233315,47,"1380 MACENNA LANE, GARDNERVILLE, NV, 89410","Match","Exact","1380 MACENNA LN, GARDNERVILLE, NV, 89410",608200383,"R"
163048,"1380 MARKET AVE N","CANTON","OH",44714,40.8123393010001,-81.37126656,48,"1380 MARKET AVE N, CANTON, OH, 44714","Match","Exact","1380 MARKET AVE N, CANTON, OH, 44714",64720195,"R"
163049,"1380 MASTERS DR","WOODLAND PARK","CO",80863,39.0181827070001,-105.071882659,49,"1380 MASTERS DR, WOODLAND PARK, CO, 80863","Match","Exact","1380 MASTERS DR, WOODLAND PARK, CO, 80863",605748811,"L"
163050,"1380 MEADOW SWEET RD","GOLDEN","CO",80401,39.737580581,-105.148799946,50,"1380 MEADOW SWEET RD, GOLDEN, CO, 80401","Match","Non_Exact","1380 MEADOWSWEET RD, GOLDEN, CO, 80401",639431669,"R"
163051,"1380 MONROE STREET NW NO 229","WASHINGTON","DC",20010,38.9315295430001,-77.0321464259999,51,"1380 MONROE STREET NW NO 229, WASHINGTON, DC, 20010","Match","Exact","1380 MONROE ST NW, WASHINGTON, DC, 20010",76222979,"L"
163052,"1380 MT HWY 220","CHOTEAU","MT",59422,48.0143190490001,-112.156299516,52,"1380 MT HWY 220, CHOTEAU, MT, 59422","Match","Non_Exact","1380 STATE HWY 220, CHOTEAU, MT, 59422",202619492,"L"
163053,"1380 NE MIAMI GARDENS DRIVE APT264","NORTH MIAMI BEACH","FL",33179,NA,NA,53,"1380 NE MIAMI GARDENS DRIVE APT264, NORTH MIAMI BEACH, FL, 33179","No_Match",NA,NA,NA,NA
163054,"1380 NORTH AVE","ELIZABETH","NJ",7201,NA,NA,54,"1380 NORTH AVE, ELIZABETH, NJ, 7201","No_Match",NA,NA,NA,NA
163055,"1380 OAK CREEK DR","PALO ALTO","CA",94304,37.441611547,-122.175542257,55,"1380 OAK CREEK DR, PALO ALTO, CA, 94304","Match","Exact","1380 OAK CREEK DR, PALO ALTO, CA, 94304",612428045,"L"
163056,"1380 OAK CREEK DRIVE APT 211","PALO ALTO","CA",94304,NA,NA,56,"1380 OAK CREEK DRIVE APT 211, PALO ALTO, CA, 94304","No_Match",NA,NA,NA,NA
163057,"1380 OLD SANDERS RD","SMITHFIELD","NC",27577,35.46374955,-78.2918756019999,57,"1380 OLD SANDERS RD, SMITHFIELD, NC, 27577","Match","Exact","1380 OLD SANDERS RD, SMITHFIELD, NC, 27577",26543824,"L"
163058,"1380 ORTH LN","ELLISVILLE","MO",63011,38.5932630950001,-90.591178277,58,"1380 ORTH LN, ELLISVILLE, MO, 63011","Match","Exact","1380 ORTH LN, ELLISVILLE, MO, 63011",604553021,"L"
163059,"1380 OSAGE DRIVE","SODDY-DAISY","TN",37379,35.280843051,-85.136289587,59,"1380 OSAGE DRIVE, SODDY-DAISY, TN, 37379","Match","Exact","1380 OSAGE DR, SODDY DAISY, TN, 37379",635648890,"L"
163060,"1380 PARNELL DRIVE","EUGENE","OR",87405,44.085243173,-123.130924486,60,"1380 PARNELL DRIVE, EUGENE, OR, 87405","Match","Non_Exact","1380 PARNELL DR, EUGENE, OR, 97404",647944021,"L"
163061,"1380 PEBBLE CREEK ROAD","MARIETTA","GA",30067,33.9181600790001,-84.4580517859999,61,"1380 PEBBLE CREEK ROAD, MARIETTA, GA, 30067","Match","Exact","1380 PEBBLE CREEK RD, MARIETTA, GA, 30067",17183680,"R"
163062,"1380 PENHURST RD","CLEVELAND","OH",44110,41.569695316,-81.550946025,62,"1380 PENHURST RD, CLEVELAND, OH, 44110","Match","Exact","1380 PENHURST RD, CLEVELAND, OH, 44110",61123727,"R"
163063,"1380 PENHURST ROAD","CLEVELAND","OH",44110,41.569695316,-81.550946025,63,"1380 PENHURST ROAD, CLEVELAND, OH, 44110","Match","Exact","1380 PENHURST RD, CLEVELAND, OH, 44110",61123727,"R"
163064,"1380 QUINCY ST 5D","WASHINGTON","DC",20011,38.937602128,-77.0321459159999,64,"1380 QUINCY ST 5D, WASHINGTON, DC, 20011","Match","Non_Exact","1380 QUINCY ST NW, WASHINGTON, DC, 20011",652614342,"L"
163065,"1380 RED BARN RD","OXFORD","MI",48371,42.805948528,-83.256728199,65,"1380 RED BARN RD, OXFORD, MI, 48371","Match","Non_Exact","1380 RED BARN DR, OXFORD, MI, 48371",69698904,"R"
163066,"1380 RESORTS ROAD","CAMDENTON","MO",65020,38.0539975460001,-92.81993835,66,"1380 RESORTS ROAD, CAMDENTON, MO, 65020","Match","Exact","1380 RESORTS RD, CAMDENTON, MO, 65020",22868703,"R"
163067,"1380 REST POINT ROAD","ORONO","MN",55364,44.953057546,-93.6417314879999,67,"1380 REST POINT ROAD, ORONO, MN, 55364","Match","Non_Exact","1380 REST POINT RD, MOUND, MN, 55364",43817491,"L"
163068,"1380 RING ROAD","CALUMET CITY","IL",60409,41.59543546,-87.561259335,68,"1380 RING ROAD, CALUMET CITY, IL, 60409","Match","Exact","1380 RING RD, CALUMET CITY, IL, 60409",605647313,"R"
163069,"1380 RIO RANCHO BOULEVARD 228","RIO RANCHO","NM",87124,NA,NA,69,"1380 RIO RANCHO BOULEVARD 228, RIO RANCHO, NM, 87124","No_Match",NA,NA,NA,NA
163070,"1380 RIVERSIDE DR","NEW YORK","NY",10033,40.8522445990001,-73.941418105,70,"1380 RIVERSIDE DR, NEW YORK, NY, 10033","Match","Exact","1380 RIVERSIDE DR, NEW YORK, NY, 10033",650071197,"R"
163071,"1380 RIVERSIDE DRIVE APT 12G","NEW YORK","NY",10033,40.8522445990001,-73.941418105,71,"1380 RIVERSIDE DRIVE APT 12G, NEW YORK, NY, 10033","Match","Exact","1380 RIVERSIDE DR, NEW YORK, NY, 10033",650071197,"R"
163072,"1380 RIVERSIDE DRIVE","NEW YORK","NY",10033,40.8522445990001,-73.941418105,72,"1380 RIVERSIDE DRIVE, NEW YORK, NY, 10033","Match","Exact","1380 RIVERSIDE DR, NEW YORK, NY, 10033",650071197,"R"
163073,"1380 RIVERSTONE CT","HEMET","CA",92545,33.7706901500001,-117.024528891,73,"1380 RIVERSTONE CT, HEMET, CA, 92545","Match","Exact","1380 RIVERSTONE CT, HEMET, CA, 92545",609001093,"L"
163074,"1380 RUBIO ST","ALTADENA","CA",91001,34.1917563380001,-118.122818419,74,"1380 RUBIO ST, ALTADENA, CA, 91001","Match","Exact","1380 RUBIO ST, ALTADENA, CA, 91001",141628369,"R"
163075,"1380 RUFFNER ROAD","NISKAYUNA","NY",12309,42.810677942,-73.878750053,75,"1380 RUFFNER ROAD, NISKAYUNA, NY, 12309","Match","Exact","1380 RUFFNER RD, NISKAYUNA, NY, 12309",18034209,"L"
163076,"1380 S 400 W","OREM","UT",84058,40.272065637,-111.704918076,76,"1380 S 400 W, OREM, UT, 84058","Match","Exact","1380 S 400 W, OREM, UT, 84058",647662267,"R"
163077,"1380 S IDALIA ST UNIT G","AURORA","CO",80017,39.691459324,-104.805887336,77,"1380 S IDALIA ST UNIT G, AURORA, CO, 80017","Match","Non_Exact","1380 S IDALIA ST, AURORA, CO, 80017",177356160,"L"
163078,"1380 S MARGATE ST","CHANDLER","AZ",85286,NA,NA,78,"1380 S MARGATE ST, CHANDLER, AZ, 85286","No_Match",NA,NA,NA,NA
163079,"1380 SAINT VINCENT DRIVE","LEMONT","IL",60439,41.659172584,-87.9765751689999,79,"1380 SAINT VINCENT DRIVE, LEMONT, IL, 60439","Match","Non_Exact","1380 ST VINCENTS DR, LEMONT, IL, 60439",112205509,"R"
163080,"1380 SAPPHIRE DR","CARLSBAD","CA",92011,33.120590361,-117.296160768,80,"1380 SAPPHIRE DR, CARLSBAD, CA, 92011","Match","Exact","1380 SAPPHIRE DR, CARLSBAD, CA, 92011",195450253,"L"
163081,"1380 SE FLORENCE DRIVE UNIT 35","WAUKEE","IA",50263,41.598725508,-93.863130647,81,"1380 SE FLORENCE DRIVE UNIT 35, WAUKEE, IA, 50263","Match","Exact","1380 FLORENCE DR, WAUKEE, IA, 50263",65641671,"R"
163082,"1380 SEATTLE SLEW DR SE APT 111","SALEM","OR",97317,44.912804459,-122.961198124,82,"1380 SEATTLE SLEW DR SE APT 111, SALEM, OR, 97317","Match","Exact","1380 SEATTLE SLEW DR SE, SALEM, OR, 97317",613702810,"R"
163083,"1380 SOMERSET DRIVE","WEST SACRAMENTO","CA",95605,38.5907912280001,-121.532953838,83,"1380 SOMERSET DRIVE, WEST SACRAMENTO, CA, 95605","Match","Exact","1380 SOMERSET DR, WEST SACRAMENTO, CA, 95605",67702672,"R"
163084,"1380 SOMERSET LN","ELK GROVE VLG","IL",60007,41.993409108,-88.005918677,84,"1380 SOMERSET LN, ELK GROVE VLG, IL, 60007","Match","Exact","1380 SOMERSET LN, ELK GROVE VILLAGE, IL, 60007",111699970,"R"
163085,"1380 SOUTH CLARK ROAD","CEDAR HILL","TX",75104,32.559548733,-96.942551365,85,"1380 SOUTH CLARK ROAD, CEDAR HILL, TX, 75104","Match","Exact","1380 S CLARK RD, CEDAR HILL, TX, 75104",102944392,"R"
163086,"1380 SOUTH MOUNTAIN VIEW ROAD","CORNVILLE","AZ",86325,34.7135358850001,-111.898160864,86,"1380 SOUTH MOUNTAIN VIEW ROAD, CORNVILLE, AZ, 86325","Match","Non_Exact","1380 MOUNTAIN VIEW RD, CORNVILLE, AZ, 86325",159476143,"R"
163087,"1380 SOUTH ROOSEVELT AVENUE","COLUMBUS","OH",43209,39.941225839,-82.926499485,87,"1380 SOUTH ROOSEVELT AVENUE, COLUMBUS, OH, 43209","Match","Exact","1380 S ROOSEVELT AVE, COLUMBUS, OH, 43209",218678700,"L"
163088,"1380 SW 105TH AVE","PEMBROKE PINES","FL",33025,25.9963529990001,-80.286478379,88,"1380 SW 105TH AVE, PEMBROKE PINES, FL, 33025","Match","Exact","1380 SW 105TH AVE, PEMBROKE PINES, FL, 33025",114806368,"L"
163089,"1380 TAMANGO DRIVE","WEST MELBOURNE","FL",32904,28.052282797,-80.6476396899999,89,"1380 TAMANGO DRIVE, WEST MELBOURNE, FL, 32904","Match","Exact","1380 TAMANGO DR, W MELBOURNE, FL, 32904",653173642,"R"
163090,"1380 TERRACE DR APT 108","ROSEVILLE","MN",55113,45.0252190530001,-93.159377863,90,"1380 TERRACE DR APT 108, ROSEVILLE, MN, 55113","Match","Exact","1380 TERRACE DR, ROSEVILLE, MN, 55113",97640087,"L"
163091,"1380 TORREY ROAD","GROSSE POINTE WOODS","MI",48236,42.4289555220001,-82.9043203259999,91,"1380 TORREY ROAD, GROSSE POINTE WOODS, MI, 48236","Match","Exact","1380 TORREY RD, GROSSE POINTE WOODS, MI, 48236",95487905,"R"
163092,"1380 TUMBLEWEED WAY","SACRAMENTO","CA",95834,38.6282757120001,-121.492078406,92,"1380 TUMBLEWEED WAY, SACRAMENTO, CA, 95834","Match","Exact","1380 TUMBLEWEED WAY, SACRAMENTO, CA, 95834",133320130,"R"
163093,"1380 TUMBLRWEED WAY","SACRAMENTO","CA",95834,NA,NA,93,"1380 TUMBLRWEED WAY, SACRAMENTO, CA, 95834","No_Match",NA,NA,NA,NA
163094,"1380 TUSCANY DRIVE","GREENWOOD","IN",46143,39.595639593,-86.140668609,94,"1380 TUSCANY DRIVE, GREENWOOD, IN, 46143","Match","Exact","1380 TUSCANY DR, GREENWOOD, IN, 46143",625124975,"L"
163095,"1380 UNIVERSITY AVE APT 15J","BRONX","NY",10452,40.842803732,-73.925422181,95,"1380 UNIVERSITY AVE APT 15J, BRONX, NY, 10452","Match","Exact","1380 UNIVERSITY AVE, BRONX, NY, 10452",80299389,"R"
163096,"1380 US HWY 95A N STE 2 PMB 206","FERNLEY","NV",89408,NA,NA,96,"1380 US HWY 95A N STE 2 PMB 206, FERNLEY, NV, 89408","No_Match",NA,NA,NA,NA
163097,"1380 VILLAGE WAY C201","COSTA MESA","CA",92626,33.6775940200001,-117.916063085,97,"1380 VILLAGE WAY C201, COSTA MESA, CA, 92626","Match","Exact","1380 VILLAGE WAY, COSTA MESA, CA, 92626",144045953,"R"
163098,"1380 W 48TH STREET UNIT 26","SAN BERNARDINO","CA",92407,34.17178971,-117.315708235,98,"1380 W 48TH STREET UNIT 26, SAN BERNARDINO, CA, 92407","Match","Non_Exact","1380 W 48TH ST, SAN BERNARDINO, CA, 92407",144651363,"R"
163099,"1380 W FOOTHILL 70","UPLAND","CA",91786,NA,NA,99,"1380 W FOOTHILL 70, UPLAND, CA, 91786","No_Match",NA,NA,NA,NA
163100,"1380 W MAIN SPC 68","SANTA MARIA","CA",93458,NA,NA,100,"1380 W MAIN SPC 68, SANTA MARIA, CA, 93458","No_Match",NA,NA,NA,NA
163101,"1380 W ORANGE GROVE AVE APT D","POMONA","CA",91768,34.065436903,-117.774485989,101,"1380 W ORANGE GROVE AVE APT D, POMONA, CA, 91768","Match","Non_Exact","1380 W ORANGE GROVE AVE, POMONA, CA, 91768",142790115,"L"
163102,"1380 WASDEN RD","HOPE HULL","AL",36043,32.250414295,-86.401178596,102,"1380 WASDEN RD, HOPE HULL, AL, 36043","Match","Exact","1380 WASDEN RD, HOPE HULL, AL, 36043",636435259,"L"
163103,"1380 WEST CHARITY ROAD","ROSE HILL",NA,NA,34.8233148360001,-77.96433479,103,"1380 WEST CHARITY ROAD, ROSE HILL, , ","Match","Exact","1380 W CHARITY RD, ROSE HILL, NC, 28458",13425686,"L"
163104,"1380 WESTMORELAND ST","POMONA","CA",91766,34.0504406090001,-117.769459138,104,"1380 WESTMORELAND ST, POMONA, CA, 91766","Match","Exact","1380 WESTMORELAND ST, POMONA, CA, 91766",642869680,"R"
163105,"1380 WHISPERING WIND DRIVE","TRACY","CA",95377,37.699547803,-121.442096234,105,"1380 WHISPERING WIND DRIVE, TRACY, CA, 95377","Match","Exact","1380 WHISPERING WIND DR, TRACY, CA, 95377",133917439,"R"
163106,"1380 WHITE OAK CIRCLE","EGG HARBOR","NJ",8215,39.589738353,-74.69285232,106,"1380 WHITE OAK CIRCLE, EGG HARBOR, NJ, 8215","Match","Non_Exact","1380 WHITE OAK CIR, EGG HARBOR CY, NJ, 08215",202513253,"L"
163107,"1380 WINOLA LANE","BIRMINGHAM","AL",35235,33.6159114110001,-86.665659612,107,"1380 WINOLA LANE, BIRMINGHAM, AL, 35235","Match","Exact","1380 WINOLA LN, BIRMINGHAM, AL, 35235",81569455,"L"
163108,"1380 WOODMOOR DRIVE","MONUMENT","CO",80132,39.111224722,-104.852666325,108,"1380 WOODMOOR DRIVE, MONUMENT, CO, 80132","Match","Exact","1380 WOODMOOR DR, MONUMENT, CO, 80132",105527796,"R"
163109,"13800 114TH AVE N","DAYTON","MN",55369,45.1621067410001,-93.456277352,109,"13800 114TH AVE N, DAYTON, MN, 55369","Match","Non_Exact","13800 114TH AVE N, OSSEO, MN, 55369",43814580,"L"
163110,"13800 60TH AVENUE N","PLYMOUTH","MN",55446,45.0627741490001,-93.455403372,110,"13800 60TH AVENUE N, PLYMOUTH, MN, 55446","Match","Exact","13800 60TH AVE N, PLYMOUTH, MN, 55446",43849652,"R"
163111,"13800 BIOLA AVE","LA MIRADA","CA",90639,33.90449942,-118.017869643,111,"13800 BIOLA AVE, LA MIRADA, CA, 90639","Match","Non_Exact","13800 BIOLA AVE, LA MIRADA, CA, 90638",241252603,"L"
163112,"13800 BIOLA AVENUE","LA MIRADA","CA",60639,33.90449942,-118.017869643,112,"13800 BIOLA AVENUE, LA MIRADA, CA, 60639","Match","Non_Exact","13800 BIOLA AVE, LA MIRADA, CA, 90638",241252603,"L"
163113,"13800 BLAKEVILLE","LIVE OAK","TX",78233,29.568925951,-98.341105001,113,"13800 BLAKEVILLE, LIVE OAK, TX, 78233","Match","Exact","13800 BLAKEVILLE, LIVE OAK, TX, 78233",650630145,"R"
163114,"13800 BRADDOCK SPRINGS ROAD","CENTREVILLE","VA",20121,38.834822322,-77.424388638,114,"13800 BRADDOCK SPRINGS ROAD, CENTREVILLE, VA, 20121","Match","Exact","13800 BRADDOCK SPRINGS RD, CENTREVILLE, VA, 20121",76045566,"R"
163115,"13800 BRIAR CREEK LOOP","MANOR","TX",78653,30.313437778,-97.530858742,115,"13800 BRIAR CREEK LOOP, MANOR, TX, 78653","Match","Non_Exact","13800 BRIARCREEK LOOP, MANOR, TX, 78653",614184572,"L"
163116,"13800 COUNTY ROAD 450","UMATILLA","FL",32784,NA,NA,116,"13800 COUNTY ROAD 450, UMATILLA, FL, 32784","No_Match",NA,NA,NA,NA
163117,"13800 D HEACOCK ST SUITE 135 B","MORENO VALLEY","CA",92553,33.9199333500001,-117.243724443,117,"13800 D HEACOCK ST SUITE 135 B, MORENO VALLEY, CA, 92553","Match","Exact","13800 HEACOCK ST, MORENO VALLEY, CA, 92553",194790446,"L"
163118,"13800 DOUGLAS LANE RD","CENTERBURG","OH",43011,40.2496293930001,-82.576028853,118,"13800 DOUGLAS LANE RD, CENTERBURG, OH, 43011","Match","Exact","13800 DOUGLAS LANE RD, CENTERBURG, OH, 43011",61532947,"R"
163119,"13800 ELLA BLVD APT B105","HOUSTON","TX",77014,29.9675134570001,-95.430459046,119,"13800 ELLA BLVD APT B105, HOUSTON, TX, 77014","Match","Exact","13800 ELLA BLVD, HOUSTON, TX, 77014",96658910,"R"
163120,"13800 ELLA BLVD E312","HOUSTON","TX",77014,29.9675134570001,-95.430459046,120,"13800 ELLA BLVD E312, HOUSTON, TX, 77014","Match","Exact","13800 ELLA BLVD, HOUSTON, TX, 77014",96658910,"R"
163121,"13800 FAIRHILL RD APT 401","CLEVELAND","OH",44120,41.491120354,-81.589787846,121,"13800 FAIRHILL RD APT 401, CLEVELAND, OH, 44120","Match","Exact","13800 FAIRHILL RD, CLEVELAND, OH, 44120",61122781,"R"
163122,"13800 FAIRHILL RD","SHAKER HEIGHTS","OH",44120,41.491120354,-81.589787846,122,"13800 FAIRHILL RD, SHAKER HEIGHTS, OH, 44120","Match","Exact","13800 FAIRHILL RD, SHAKER HEIGHTS, OH, 44120",61122781,"R"
163123,"13800 FAIRHILL ROAD - SUITE 304","SHAKER HEIGHTS","OH",44120,41.491120354,-81.589787846,123,"13800 FAIRHILL ROAD - SUITE 304, SHAKER HEIGHTS, OH, 44120","Match","Exact","13800 FAIRHILL RD, SHAKER HEIGHTS, OH, 44120",61122781,"R"
163124,"13800 FAIRHILL ROAD","SHAKER HEIGHTS","OH",44120,41.491120354,-81.589787846,124,"13800 FAIRHILL ROAD, SHAKER HEIGHTS, OH, 44120","Match","Exact","13800 FAIRHILL RD, SHAKER HEIGHTS, OH, 44120",61122781,"R"
163125,"13800 GRATIOT AVENUE","DETROIT","MI",48205,42.428050598,-82.982314801,125,"13800 GRATIOT AVENUE, DETROIT, MI, 48205","Match","Exact","13800 GRATIOT AVE, DETROIT, MI, 48205",95468091,"R"
163126,"13800 HEMLOCK LANE N","DAYTON","MN",55327,45.2040717890001,-93.427694624,126,"13800 HEMLOCK LANE N, DAYTON, MN, 55327","Match","Exact","13800 HEMLOCK LN N, DAYTON, MN, 55327",43844491,"L"
163127,"13800 HIDDEN VALLEY RD 9843","VICTORVILLE","CA",92395,34.5019871970001,-117.27653365,127,"13800 HIDDEN VALLEY RD 9843, VICTORVILLE, CA, 92395","Match","Exact","13800 HIDDEN VALLEY RD, VICTORVILLE, CA, 92395",144572349,"L"
163128,"13800 IRONTON ROAD","LITTLE ROCK","AR",72206,34.629054711,-92.277323149,128,"13800 IRONTON ROAD, LITTLE ROCK, AR, 72206","Match","Exact","13800 IRONTON RD, LITTLE ROCK, AR, 72206",653153074,"R"
163129,"13800 JAMES GARFIELD STREET","MANOR","TX",78653,30.3578465740001,-97.521018021,129,"13800 JAMES GARFIELD STREET, MANOR, TX, 78653","Match","Exact","13800 JAMES GARFIELD ST, MANOR, TX, 78653",649000098,"L"
163130,"13800 JUNEAU BLVD","ELM GROVE","WI",NA,43.0457365280001,-88.084532252,130,"13800 JUNEAU BLVD, ELM GROVE, WI, ","Match","Exact","13800 JUNEAU BLVD, ELM GROVE, WI, 53122",53817372,"R"
163131,"13800 LONE RIDER TRL","AUSTIN","TX",78738,30.301729799,-97.9638032779999,131,"13800 LONE RIDER TRL, AUSTIN, TX, 78738","Match","Exact","13800 LONE RIDER TRL, AUSTIN, TX, 78738",64018701,"R"
163132,"13800 LYNDHURST ST UNIT 74","AUSTIN","TX",78717,30.479935341,-97.788267748,132,"13800 LYNDHURST ST UNIT 74, AUSTIN, TX, 78717","Match","Exact","13800 LYNDHURST ST, AUSTIN, TX, 78717",651910601,"R"
163133,"13800 NE 47TH AVENUE","ANTHONY","FL",32617,29.351244621,-82.0718367489999,133,"13800 NE 47TH AVENUE, ANTHONY, FL, 32617","Match","Exact","13800 NE 47TH AVE, ANTHONY, FL, 32617",116832436,"L"
163134,"13800 PARK CENTER LANE 134","TUSTIN","CA",92782,33.729335409,-117.804057109,134,"13800 PARK CENTER LANE 134, TUSTIN, CA, 92782","Match","Non_Exact","13800 PARKCENTER LN, TUSTIN, CA, 92782",144098243,"L"
163135,"13800 PARKCENTER LN APT 335","TUSTIN","CA",92782,33.729335409,-117.804057109,135,"13800 PARKCENTER LN APT 335, TUSTIN, CA, 92782","Match","Exact","13800 PARKCENTER LN, TUSTIN, CA, 92782",144098243,"L"
163136,"13800 PLEASANT VIEW DR","BOWIE","MD",20720,38.9610161200001,-76.7604289499999,136,"13800 PLEASANT VIEW DR, BOWIE, MD, 20720","Match","Exact","13800 PLEASANT VIEW DR, BOWIE, MD, 20720",76342594,"L"
163137,"13800 SW 149 CIRCLE LANE UNIT 4","MIAMI","FL",33186,25.6295733920001,-80.4169078899999,137,"13800 SW 149 CIRCLE LANE UNIT 4, MIAMI, FL, 33186","Match","Non_Exact","13800 SW 149TH CIRCLE LN, MIAMI, FL, 33186",642615310,"R"
163138,"13800 SW 152ND PLACE","MIAMI","FL",33196,25.6381170120001,-80.441096112,138,"13800 SW 152ND PLACE, MIAMI, FL, 33196","Match","Exact","13800 SW 152ND PL, MIAMI, FL, 33196",116081305,"L"
163139,"13800 TABIONA DR","SILVER SPRING","MD",20906,39.100943139,-77.0552892279999,139,"13800 TABIONA DR, SILVER SPRING, MD, 20906","Match","Exact","13800 TABIONA DR, SILVER SPRING, MD, 20906",62078402,"L"
163140,"13800 TERRACE ROAD","EAST CLEVELAND","OH",44112,41.5240690590001,-81.5838309869999,140,"13800 TERRACE ROAD, EAST CLEVELAND, OH, 44112","Match","Exact","13800 TERRACE RD, EAST CLEVELAND, OH, 44112",61148316,"R"
163141,"13800 WALNUT CEMETERY RD","BREMOND","TX",76629,31.178558206,-96.612682051,141,"13800 WALNUT CEMETERY RD, BREMOND, TX, 76629","Match","Exact","13800 WALNUT CEMETERY RD, BREMOND, TX, 76629",24676385,"R"
163142,"13800-56 SOUTH CLEVELAND AVE","FT MYERS","FL",33907,NA,NA,142,"13800-56 SOUTH CLEVELAND AVE, FT MYERS, FL, 33907","No_Match",NA,NA,NA,NA
163143,"13800-56 SOUTH CLEVELAND AVENUE","FT MYERS","FL",33907,NA,NA,143,"13800-56 SOUTH CLEVELAND AVENUE, FT MYERS, FL, 33907","No_Match",NA,NA,NA,NA
163144,"13801 BETHPAGE LN","SILVER SPRING","MD",20906,39.0812147840001,-77.058058661,144,"13801 BETHPAGE LN, SILVER SPRING, MD, 20906","Match","Exact","13801 BETHPAGE LN, SILVER SPRING, MD, 20906",62060657,"R"
163145,"13801 DAWN WHISTLE WAY","BOWIE","MD",20721,NA,NA,145,"13801 DAWN WHISTLE WAY, BOWIE, MD, 20721","No_Match",NA,NA,NA,NA
163146,"13801 FM 1774","PLANTERSVILLE","TX",77363,30.3608643920001,-95.873099231,146,"13801 FM 1774, PLANTERSVILLE, TX, 77363","Match","Non_Exact","13801 FM 1774 RD, PLANTERSVILLE, TX, 77363",648813263,"R"
163147,"13801 GRAND PALISADES PKWY","CHARLOTTE","NC",28278,35.070704452,-81.0357611059999,147,"13801 GRAND PALISADES PKWY, CHARLOTTE, NC, 28278","Match","Exact","13801 GRAND PALISADES PKWY, CHARLOTTE, NC, 28278",616590213,"R"
163148,"13801 GREEN MEADOWS CRT","GRANGER","IN",46530,41.752631471,-86.135767522,148,"13801 GREEN MEADOWS CRT, GRANGER, IN, 46530","Match","Non_Exact","13801 GREEN MEADOW CT, GRANGER, IN, 46530",8091005,"R"
163149,"13801 LEIGHFIELD STREET","CHANTILLY","VA",20151,38.87501745,-77.42287808,149,"13801 LEIGHFIELD STREET, CHANTILLY, VA, 20151","Match","Exact","13801 LEIGHFIELD ST, CHANTILLY, VA, 20151",215918686,"L"
163150,"13801 NAPOLI DRIVE APT 5301","HOUSTON","TX",77070,NA,NA,150,"13801 NAPOLI DRIVE APT 5301, HOUSTON, TX, 77070","No_Match",NA,NA,NA,NA
163151,"13801 NE 1ST PL","BELLEVUE","WA",98005,47.611299085,-122.155187312,151,"13801 NE 1ST PL, BELLEVUE, WA, 98005","Match","Exact","13801 NE 1ST PL, BELLEVUE, WA, 98005",186940827,"L"
163152,"13801 NW 84 CT UNIT 2505","MIAMI LAKES","FL",33016,25.89910179,-80.337577202,152,"13801 NW 84 CT UNIT 2505, MIAMI LAKES, FL, 33016","Match","Non_Exact","13801 NW 84TH CT, MIAMI LAKES, FL, 33016",631946141,"L"
163153,"13801 PANOLA DRIVE","LINDSTROM","MN",55045,45.310827713,-92.822376968,153,"13801 PANOLA DRIVE, LINDSTROM, MN, 55045","Match","Exact","13801 PANOLA DR, LINDSTROM, MN, 55045",97593226,"R"
163154,"13801 PARAMOUNT BLVD 3-120","PARAMOUNT","CA",90723,NA,NA,154,"13801 PARAMOUNT BLVD 3-120, PARAMOUNT, CA, 90723","No_Match",NA,NA,NA,NA
163155,"13801 PARAMOUNT BLVD APT 3-120","PARAMOUNT","CA",90723,NA,NA,155,"13801 PARAMOUNT BLVD APT 3-120, PARAMOUNT, CA, 90723","No_Match",NA,NA,NA,NA
163156,"13801 PARAMOUNT BLVD APT 3120","PARAMOUNT","CA",90723,NA,NA,156,"13801 PARAMOUNT BLVD APT 3120, PARAMOUNT, CA, 90723","No_Match",NA,NA,NA,NA
163157,"13801 PARAMOUNT BLVD UNIT 6","PARAMOUNT","CA",90723,NA,NA,157,"13801 PARAMOUNT BLVD UNIT 6, PARAMOUNT, CA, 90723","No_Match",NA,NA,NA,NA
163158,"13801 PARAMOUNT BLVD","PARAMOUNT","CA",90723,NA,NA,158,"13801 PARAMOUNT BLVD, PARAMOUNT, CA, 90723","No_Match",NA,NA,NA,NA
163159,"13801 PRAIRIE DRIVE","EVANSVILLE","IN",47725,38.1026579890001,-87.5001644129999,159,"13801 PRAIRIE DRIVE, EVANSVILLE, IN, 47725","Match","Exact","13801 PRAIRIE DR, EVANSVILLE, IN, 47725",633821003,"L"
163160,"13801 SW 275TH TER","HOMESTEAD","FL",33032,25.5115619900001,-80.4145379129999,160,"13801 SW 275TH TER, HOMESTEAD, FL, 33032","Match","Exact","13801 SW 275TH TER, HOMESTEAD, FL, 33032",116046519,"L"
163161,"13801 SW 75 AVE","PALMETTO BAY","FL",33158,25.642391726,-80.3156214059999,161,"13801 SW 75 AVE, PALMETTO BAY, FL, 33158","Match","Exact","13801 SW 75TH AVE, PALMETTO BAY, FL, 33158",115986578,"L"
163162,"13801 TIDEWATER CREST LANE","PEARLAND","TX",77584,29.5576378850001,-95.433688386,162,"13801 TIDEWATER CREST LANE, PEARLAND, TX, 77584","Match","Exact","13801 TIDEWATER CREST LN, PEARLAND, TX, 77584",649824518,"R"
163163,"13801 VILLAGE MILL DRIVE","MIDLOTHIAN","VA",23114,37.502756672,-77.655689692,163,"13801 VILLAGE MILL DRIVE, MIDLOTHIAN, VA, 23114","Match","Exact","13801 VILLAGE MILL DR, MIDLOTHIAN, VA, 23114",223164521,"L"
163164,"13801 WALSINGHAM RD APT 117","LARGO","FL",33774,27.880403083,-82.829749772,164,"13801 WALSINGHAM RD APT 117, LARGO, FL, 33774","Match","Exact","13801 WALSINGHAM RD, LARGO, FL, 33774",124672229,"R"
163165,"13801 WENEGARDEN DR","GERMANTOWN","MD",20874,NA,NA,165,"13801 WENEGARDEN DR, GERMANTOWN, MD, 20874","No_Match",NA,NA,NA,NA
163166,"13801 WESTERN MILL RD","LAWRENCEVILLE","VA",23868,36.746240325,-77.782770764,166,"13801 WESTERN MILL RD, LAWRENCEVILLE, VA, 23868","Match","Exact","13801 WESTERN MILL RD, LAWRENCEVILLE, VA, 23868",54024622,"L"
163167,"13801 YORK ROAD","COCKEYSVILLE","MD",21030,39.5029493580001,-76.6500736579999,167,"13801 YORK ROAD, COCKEYSVILLE, MD, 21030","Match","Exact","13801 YORK RD, COCKEYSVILLE, MD, 21030",191505975,"R"
163168,"13802 ABBEY LANE","SUGAR LAND","TX",77098,29.6482711720001,-95.627992568,168,"13802 ABBEY LANE, SUGAR LAND, TX, 77098","Match","Non_Exact","13802 ABBEY LN, SUGAR LAND, TX, 77498",635758850,"R"
163169,"13802 ASHWORTH STREET","CERRITOS","CA",90703,33.868627985,-118.037552777,169,"13802 ASHWORTH STREET, CERRITOS, CA, 90703","Match","Exact","13802 ASHWORTH ST, CERRITOS, CA, 90703",141754312,"R"
163170,"13802 BANNONFIELD","HOUSTON","TX",77041,NA,NA,170,"13802 BANNONFIELD, HOUSTON, TX, 77041","No_Match",NA,NA,NA,NA
163171,"13802 BURNISHED WOOD","UPPER MARLBORO","MD",20774,38.861833689,-76.7659066589999,171,"13802 BURNISHED WOOD, UPPER MARLBORO, MD, 20774","Match","Non_Exact","13802 BURNISHED WOOD CT, UPPER MARLBORO, MD, 20774",76417068,"L"
163172,"13802 CAMPOLEONE STREET","VENICE","FL",34293,27.0297410690001,-82.347952242,172,"13802 CAMPOLEONE STREET, VENICE, FL, 34293","Match","Exact","13802 CAMPOLEONE ST, VENICE, FL, 34293",650035012,"R"
163173,"13802 CANTWELL DRIVE","HOUSTON","TX",77014,29.96880629,-95.4364965029999,173,"13802 CANTWELL DRIVE, HOUSTON, TX, 77014","Match","Exact","13802 CANTWELL DR, HOUSTON, TX, 77014",96011512,"R"
163174,"13802 CHERRY BROOK LANE","TAMPA","FL",33618,28.0779733270001,-82.492483728,174,"13802 CHERRY BROOK LANE, TAMPA, FL, 33618","Match","Exact","13802 CHERRY BROOK LN, TAMPA, FL, 33618",104510804,"L"
163175,"13802 CORT ST","GARDEN GROVE","CA",92844,NA,NA,175,"13802 CORT ST, GARDEN GROVE, CA, 92844","No_Match",NA,NA,NA,NA
163176,"13802 CREEKMILL COURT","ROSHARON","TX",77583,29.508434972,-95.436627949,176,"13802 CREEKMILL COURT, ROSHARON, TX, 77583","Match","Exact","13802 CREEKMILL CT, ROSHARON, TX, 77583",624811550,"R"
163177,"13802 FRUIT RIDGE ROAD","DEFIANCE","OH",43512,41.241689798,-84.285432778,177,"13802 FRUIT RIDGE ROAD, DEFIANCE, OH, 43512","Match","Non_Exact","13802 FRUIT RIDGE DR, DEFIANCE, OH, 43512",207558915,"L"
163178,"13802 LAKEWOODS CT","PROSPECT","KY",40059,38.4227693650001,-85.608203313,178,"13802 LAKEWOODS CT, PROSPECT, KY, 40059","Match","Exact","13802 LAKEWOODS CT, PROSPECT, KY, 40059",130916338,"R"
163179,"13802 LANDSTAR BV 10","ORLANDO","FL",32824,28.3600671630001,-81.3650804649999,179,"13802 LANDSTAR BV 10, ORLANDO, FL, 32824","Match","Exact","13802 LANDSTAR BLVD, ORLANDO, FL, 32824",635628376,"R"
163180,"13802 LAYTON HILLS DRIVE","CYPRESS","TX",77429,29.974387924,-95.665425789,180,"13802 LAYTON HILLS DRIVE, CYPRESS, TX, 77429","Match","Exact","13802 LAYTON HILLS DR, CYPRESS, TX, 77429",96166421,"R"
163181,"13802 N SCOTTSDALE RD SUITE 115","SCOTTSDALE","AZ",85254,NA,NA,181,"13802 N SCOTTSDALE RD SUITE 115, SCOTTSDALE, AZ, 85254","No_Match",NA,NA,NA,NA
163182,"13802 NORTHERN OAK","SAN ANTONIO","TX",78217,29.569163077,-98.4103587129999,182,"13802 NORTHERN OAK, SAN ANTONIO, TX, 78217","Match","Exact","13802 NORTHERN OAK, SAN ANTONIO, TX, 78217",101704675,"L"
163183,"13802 NORTHWEST PASSAGE APT 310","MARINA DEL REY","CA",90292,NA,NA,183,"13802 NORTHWEST PASSAGE APT 310, MARINA DEL REY, CA, 90292","No_Match",NA,NA,NA,NA
163184,"13802 NW 55TH AVE","VANCOUVER","WA",98685,45.7206891280001,-122.726510012,184,"13802 NW 55TH AVE, VANCOUVER, WA, 98685","Match","Exact","13802 NW 55TH AVE, VANCOUVER, WA, 98685",648927863,"L"
163185,"13802 OLD JERICHO PARK RD","BOWIE","MD",20720,39.021466467,-76.767967444,185,"13802 OLD JERICHO PARK RD, BOWIE, MD, 20720","Match","Exact","13802 OLD JERICHO PARK RD, BOWIE, MD, 20720",76405195,"L"
163186,"13802 RYSTOCK COURT","CHESTER","VA",23836,37.3373530630001,-77.35757863,186,"13802 RYSTOCK COURT, CHESTER, VA, 23836","Match","Exact","13802 RYSTOCK CT, CHESTER, VA, 23836",201565317,"R"
163187,"13802 SW 39TH ST","WESTON","FL",33330,26.071966178,-80.331601859,187,"13802 SW 39TH ST, WESTON, FL, 33330","Match","Non_Exact","13802 SW 39TH ST, FT LAUDERDALE, FL, 33330",114790748,"R"
163188,"13802 TURTLE HILL ROAD","MIDLOTHIAN","VA",23112,37.4589713280001,-77.659560219,188,"13802 TURTLE HILL ROAD, MIDLOTHIAN, VA, 23112","Match","Exact","13802 TURTLE HILL RD, MIDLOTHIAN, VA, 23112",201563849,"L"
163189,"13802 W 81ST TERR","LENEXA","KS",66215,38.981156394,-94.7453640749999,189,"13802 W 81ST TERR, LENEXA, KS, 66215","Match","Exact","13802 W 81ST TER, LENEXA, KS, 66215",91269914,"L"
163190,"13802 WARD STREET","GARDEN GROVE","CA",92843,33.762437676,-117.945671834,190,"13802 WARD STREET, GARDEN GROVE, CA, 92843","Match","Exact","13802 WARD ST, GARDEN GROVE, CA, 92843",144035925,"L"
163191,"13802 WEST CYPRESS FOREST DRIVE","HOUSTON","TX",77070,29.975471466,-95.5776860939999,191,"13802 WEST CYPRESS FOREST DRIVE, HOUSTON, TX, 77070","Match","Exact","13802 W CYPRESS FOREST DR, HOUSTON, TX, 77070",96005537,"R"
163192,"13803 157TH CT","JUPITER","FL",33478,26.908788698,-80.2529692049999,192,"13803 157TH CT, JUPITER, FL, 33478","Match","Non_Exact","13803 157TH CT N, JUPITER, FL, 33478",115344475,"R"
163193,"13803 BROOKLET VIEW CT","HOUSTON","TX",77059,29.5970665930001,-95.1420267999999,193,"13803 BROOKLET VIEW CT, HOUSTON, TX, 77059","Match","Exact","13803 BROOKLET VIEW CT, HOUSTON, TX, 77059",96544097,"R"
163194,"13803 CARLENE DRIVE","UPPER MARLBORO","MD",20772,38.8433668340001,-76.765529193,194,"13803 CARLENE DRIVE, UPPER MARLBORO, MD, 20772","Match","Exact","13803 CARLENE DR, UPPER MARLBORO, MD, 20772",76344179,"R"
163195,"13803 CONNER DOWNS DR","PFLUGERVILLE","TX",78660,30.413666146,-97.646988148,195,"13803 CONNER DOWNS DR, PFLUGERVILLE, TX, 78660","Match","Exact","13803 CONNER DOWNS DR, PFLUGERVILLE, TX, 78660",63966867,"R"
163196,"13803 LAUREL LOCH CT","HOUSTON","TX",77584,29.5699006080001,-95.4348966599999,196,"13803 LAUREL LOCH CT, HOUSTON, TX, 77584","Match","Non_Exact","13803 LAUREL LOCH CT, PEARLAND, TX, 77584",641152864,"L"
163197,"13803 LEAMAN FARM RD","BOYDS","MD",20841,39.1622047970001,-77.287720825,197,"13803 LEAMAN FARM RD, BOYDS, MD, 20841","Match","Exact","13803 LEAMAN FARM RD, BOYDS, MD, 20841",618601651,"L"
163198,"13803 MADERA BEND LANE","ROSHARON","TX",77583,29.512119044,-95.437100571,198,"13803 MADERA BEND LANE, ROSHARON, TX, 77583","Match","Exact","13803 MADERA BEND LN, ROSHARON, TX, 77583",651962625,"R"
163199,"13803 MICHELLE AVE","HUDSON","FL",34667,28.3577472220001,-82.7037260979999,199,"13803 MICHELLE AVE, HUDSON, FL, 34667","Match","Exact","13803 MICHELLE AVE, HUDSON, FL, 34667",86335356,"L"
163200,"13803 MM AVE","IOWA FALLS","IA",50126,42.5027724380001,-93.2235772929999,200,"13803 MM AVE, IOWA FALLS, IA, 50126","Match","Exact","13803 MM AVE, IOWA FALLS, IA, 50126",77435469,"L"
163201,"13803 NORRIS ROAD","ROSHARON","TX",77583,29.344125976,-95.4070152199999,201,"13803 NORRIS ROAD, ROSHARON, TX, 77583","Match","Exact","13803 NORRIS RD, ROSHARON, TX, 77583",633316350,"L"
163202,"13803 PR 6052","HAWLEY","TX",79525,NA,NA,202,"13803 PR 6052, HAWLEY, TX, 79525","No_Match",NA,NA,NA,NA
163203,"13803 SE STEELE ST","PORTLAND","OR",97236,45.484765587,-122.52201232,203,"13803 SE STEELE ST, PORTLAND, OR, 97236","Match","Exact","13803 SE STEELE ST, PORTLAND, OR, 97236",157562371,"L"
163204,"13803 STATE RD 21","DESOTO","MO",63020,NA,NA,204,"13803 STATE RD 21, DESOTO, MO, 63020","No_Match",NA,NA,NA,NA
163205,"13803 URBANA LN","BOWIE","MD",20720,38.968992246,-76.766054976,205,"13803 URBANA LN, BOWIE, MD, 20720","Match","Exact","13803 URBANA LN, BOWIE, MD, 20720",76352568,"L"
163206,"13803 YOUNG DR","HUDSON","MI",49247,41.787182097,-84.383821449,206,"13803 YOUNG DR, HUDSON, MI, 49247","Match","Exact","13803 YOUNG DR, HUDSON, MI, 49247",8294905,"R"
163207,"13804 ALABAMA AVE S","SAVAGE","MN",55378,44.7537206100001,-93.355565009,207,"13804 ALABAMA AVE S, SAVAGE, MN, 55378","Match","Exact","13804 ALABAMA AVE S, SAVAGE, MN, 55378",38148681,"R"
163208,"13804 ANTELOPE PASS PLACE","COLORADO SPRINGS","CO",80921,39.032724425,-104.81386279,208,"13804 ANTELOPE PASS PLACE, COLORADO SPRINGS, CO, 80921","Match","Exact","13804 ANTELOPE PASS PL, COLORADO SPRINGS, CO, 80921",105574769,"R"
163209,"13804 DRAKE CT","PINE","CO",80470,39.4619273120001,-105.366675457,209,"13804 DRAKE CT, PINE, CO, 80470","Match","Exact","13804 DRAKE CT, PINE, CO, 80470",177731448,"L"
163210,"13804 GREENBRIER AVENUE","BELLFLOWER","CA",90706,33.9072927220001,-118.132872595,210,"13804 GREENBRIER AVENUE, BELLFLOWER, CA, 90706","Match","Exact","13804 GREENBRIER AVE, BELLFLOWER, CA, 90706",141698013,"L"
163211,"13804 HOTOMTOT DR","UPPER MARLBORO","MD",20747,38.87427784,-76.766149582,211,"13804 HOTOMTOT DR, UPPER MARLBORO, MD, 20747","Match","Non_Exact","13804 HOTOMTOT DR, UPPER MARLBORO, MD, 20774",639248963,"L"
163212,"13804 NORTH BOULEVARD","TAMPA","FL",33613,NA,NA,212,"13804 NORTH BOULEVARD, TAMPA, FL, 33613","No_Match",NA,NA,NA,NA
163213,"13804 OUTLOOK STREET","OVERLAND PARK","KS",66223,38.878275027,-94.65315795,213,"13804 OUTLOOK STREET, OVERLAND PARK, KS, 66223","Match","Exact","13804 OUTLOOK ST, OVERLAND PARK, KS, 66223",91325322,"L"
163214,"13804 TRUMPETVINE ST","HOUSTON","TX",77083,29.6858635930001,-95.628199137,214,"13804 TRUMPETVINE ST, HOUSTON, TX, 77083","Match","Exact","13804 TRUMPETVINE ST, HOUSTON, TX, 77083",96127452,"L"
163215,"13804 WEST END FARM ROAD","UPPER MARLBORO","MD",20772,38.742381962,-76.765798283,215,"13804 WEST END FARM ROAD, UPPER MARLBORO, MD, 20772","Match","Exact","13804 W END FARM RD, UPPER MARLBORO, MD, 20772",642142916,"L"
163216,"13805 18TH PLACE E","BRADENTON","FL",34212,27.4826030830001,-82.4037786069999,216,"13805 18TH PLACE E, BRADENTON, FL, 34212","Match","Exact","13805 18TH PL E, BRADENTON, FL, 34212",625727731,"L"
163217,"13805 62ND AVE CT E","PUYALLUP","WA",98373,NA,NA,217,"13805 62ND AVE CT E, PUYALLUP, WA, 98373","No_Match",NA,NA,NA,NA
163218,"13805 ALVIN AVE","GARFIELD HTS","OH",44105,41.435302388,-81.585368548,218,"13805 ALVIN AVE, GARFIELD HTS, OH, 44105","Match","Exact","13805 ALVIN AVE, GARFIELD HEIGHTS, OH, 44105",61179682,"L"
163219,"13805 AMBERFIELD COURT","UPPER MARLBOR","MD",20772,38.8254947410001,-76.764600587,219,"13805 AMBERFIELD COURT, UPPER MARLBOR, MD, 20772","Match","Non_Exact","13805 AMBERFIELD CT, UPPER MARLBORO, MD, 20772",76344398,"L"
163220,"13805 BENTWATERS DR","UPPER MARLBORO","MD",20772,38.824234432,-76.763591058,220,"13805 BENTWATERS DR, UPPER MARLBORO, MD, 20772","Match","Exact","13805 BENTWATERS DR, UPPER MARLBORO, MD, 20772",76344412,"R"
163221,"13805 BLUEBELL DRIVE","LITTLE ELM","TX",75068,33.207917835,-96.894546415,221,"13805 BLUEBELL DRIVE, LITTLE ELM, TX, 75068","Match","Exact","13805 BLUEBELL DR, LITTLE ELM, TX, 75068",646969912,"L"
163222,"13805 BOWLING ALLEY ROAD","BENTON","IL",62812,38.0242575500001,-88.8981557289999,222,"13805 BOWLING ALLEY ROAD, BENTON, IL, 62812","Match","Exact","13805 BOWLING ALLEY RD, BENTON, IL, 62812",92936665,"L"
163223,"13805 EAST 87TH PLACE","OWASSO","OK",74055,36.280003671,-95.8195055309999,223,"13805 EAST 87TH PLACE, OWASSO, OK, 74055","Match","Non_Exact","13805 E 87TH PL N, OWASSO, OK, 74055",166495093,"L"
163224,"13805 GENTLE WOOD AVE","RIVERVIEW","FL",33569,27.8449304230001,-82.263114549,224,"13805 GENTLE WOOD AVE, RIVERVIEW, FL, 33569","Match","Non_Exact","13805 GENTLE WOODS AVE, RIVERVIEW, FL, 33569",624857077,"R"
163225,"13805 GRANADA WAY","APPLE VALLEY","MN",55124,44.749768913,-93.219020884,225,"13805 GRANADA WAY, APPLE VALLEY, MN, 55124","Match","Exact","13805 GRANADA WAY, APPLE VALLEY, MN, 55124",624752790,"R"
163226,"13805 HERON WOOD LN","FT MYERS","FL",33919,26.5481377880001,-81.8893128299999,226,"13805 HERON WOOD LN, FT MYERS, FL, 33919","Match","Exact","13805 HERON WOOD LN, FORT MYERS, FL, 33919",619503631,"L"
163227,"13805 HIRAM CLARKE","HOUSTON","TX",77045,29.6269328110001,-95.4461327179999,227,"13805 HIRAM CLARKE, HOUSTON, TX, 77045","Match","Non_Exact","13805 HIRAM CLARKE RD, HOUSTON, TX, 77045",96040956,"L"
163228,"13805 KELLY DR","BELLEVUE","NE",68123,41.105184638,-95.952803119,228,"13805 KELLY DR, BELLEVUE, NE, 68123","Match","Exact","13805 KELLY DR, BELLEVUE, NE, 68123",28490045,"L"
163229,"13805 KING GREGORY WAY","UPPER MARLBORO","MD",20772,38.825487878,-76.7649379269999,229,"13805 KING GREGORY WAY, UPPER MARLBORO, MD, 20772","Match","Exact","13805 KING GREGORY WAY, UPPER MARLBORO, MD, 20772",76344418,"R"
163230,"13805 KORBYN DR","YUKON","OK",73099,35.6102353520001,-97.694166611,230,"13805 KORBYN DR, YUKON, OK, 73099","Match","Exact","13805 KORBYN DR, YUKON, OK, 73099",92566461,"L"
163231,"13805 LILAC VIEW COURT","PEARLAND","TX",77584,NA,NA,231,"13805 LILAC VIEW COURT, PEARLAND, TX, 77584","No_Match",NA,NA,NA,NA
163232,"13805 MONROES BUSINESS PARK","TAMPA","FL",33635,NA,NA,232,"13805 MONROES BUSINESS PARK, TAMPA, FL, 33635","No_Match",NA,NA,NA,NA
163233,"13805 NW 155TH AVE","ALACHUA","FL",32615,29.796737826,-82.492618527,233,"13805 NW 155TH AVE, ALACHUA, FL, 32615","Match","Exact","13805 NW 155TH AVE, ALACHUA, FL, 32615",6801461,"R"
163234,"13805 PORTPATRICK LN","MATTHEWS","NC",28105,35.119732652,-80.676399986,234,"13805 PORTPATRICK LN, MATTHEWS, NC, 28105","Match","Exact","13805 PORTPATRICK LN, MATTHEWS, NC, 28105",70506944,"R"
163235,"13805 SKY MEADOWS LANE","WIMAUMA","FL",33598,27.7545594420001,-82.247717606,235,"13805 SKY MEADOWS LANE, WIMAUMA, FL, 33598","Match","Exact","13805 SKY MEADOWS LN, WIMAUMA, FL, 33598",104664251,"R"
163236,"13805 SMOKEY POINT BLVB STE 103","MARYSVILLE","WA",98271,48.1208183970001,-122.182757955,236,"13805 SMOKEY POINT BLVB STE 103, MARYSVILLE, WA, 98271","Match","Non_Exact","13805 SMOKEY POINT BLVD, MARYSVILLE, WA, 98271",608940240,"L"
163237,"13805 SPRAGUE ST","OMAHA","NE",68164,41.2946442740001,-96.128168815,237,"13805 SPRAGUE ST, OMAHA, NE, 68164","Match","Exact","13805 SPRAGUE ST, OMAHA, NE, 68164",117016088,"L"
163238,"13805 TALL OAKS","RIVERVIEW","MI",48193,42.166147992,-83.192124746,238,"13805 TALL OAKS, RIVERVIEW, MI, 48193","Match","Non_Exact","13805 TALL OAKS DR, RIVERVIEW, MI, 48193",95458083,"L"
163239,"13805 W BURLEIGH RD","BROOKFIELD","WI",53005,43.075025253,-88.083468191,239,"13805 W BURLEIGH RD, BROOKFIELD, WI, 53005","Match","Non_Exact","13805 W BURLEIGH BLVD, BROOKFIELD, WI, 53005",53816619,"L"
163240,"13806 BRANNEN FIELD LANE","HOUSTON","TX",77041,29.895519602,-95.617661915,240,"13806 BRANNEN FIELD LANE, HOUSTON, TX, 77041","Match","Non_Exact","13806 BRANNON FIELD LN, HOUSTON, TX, 77041",647647296,"L"
163241,"13806 COIT ROAD","CLEVELAND","OH",44110,41.5509579860001,-81.586557802,241,"13806 COIT ROAD, CLEVELAND, OH, 44110","Match","Exact","13806 COIT RD, CLEVELAND, OH, 44110",61120217,"R"
163242,"13806 FELIX WILL RD","RIVERVIEW","FL",33579,27.7810305240001,-82.302520454,242,"13806 FELIX WILL RD, RIVERVIEW, FL, 33579","Match","Exact","13806 FELIX WILL RD, RIVERVIEW, FL, 33579",646577678,"L"
163243,"13806 FORT NELSON DR","HOUSTON","TX",77083,29.6987649020001,-95.6286493549999,243,"13806 FORT NELSON DR, HOUSTON, TX, 77083","Match","Exact","13806 FORT NELSON DR, HOUSTON, TX, 77083",641686463,"L"
163244,"13806 GREYLEDGE TURN","CHESTER","VA",23836,37.3365230630001,-77.362533029,244,"13806 GREYLEDGE TURN, CHESTER, VA, 23836","Match","Exact","13806 GREYLEDGE TURN, CHESTER, VA, 23836",625628134,"L"
163245,"13806 HUNTWICK DRIVE","ORLANDO","FL",32837,28.3628979430001,-81.432298884,245,"13806 HUNTWICK DRIVE, ORLANDO, FL, 32837","Match","Exact","13806 HUNTWICK DR, ORLANDO, FL, 32837",94368256,"L"
163246,"13806 JUNIPER SPRINGS DR","PEARLAND","TX",77584,29.5716758190001,-95.434003515,246,"13806 JUNIPER SPRINGS DR, PEARLAND, TX, 77584","Match","Exact","13806 JUNIPER SPRINGS DR, PEARLAND, TX, 77584",641152925,"R"
163247,"13806 LAKE VILLAGE PLACE","TAMPA","FL",33618,28.0725111850001,-82.510414695,247,"13806 LAKE VILLAGE PLACE, TAMPA, FL, 33618","Match","Exact","13806 LAKE VILLAGE PL, TAMPA, FL, 33618",104556014,"L"
163248,"13806 LEMOLI AVE APT 43","HAWTHORNE","CA",90250,33.9062181140001,-118.330806983,248,"13806 LEMOLI AVE APT 43, HAWTHORNE, CA, 90250","Match","Exact","13806 LEMOLI AVE, HAWTHORNE, CA, 90250",647460347,"L"
163249,"13806 N MESQUITE LANE","FOUNTAIN HILLS","AZ",85268,33.6120357450001,-111.752224037,249,"13806 N MESQUITE LANE, FOUNTAIN HILLS, AZ, 85268","Match","Exact","13806 N MESQUITE LN, FOUNTAIN HILLS, AZ, 85268",128828944,"R"
163250,"13806 NATHAN RIDGE LN","CYPRESS","TX",77429,30.0024919370001,-95.640656782,250,"13806 NATHAN RIDGE LN, CYPRESS, TX, 77429","Match","Exact","13806 NATHAN RIDGE LN, CYPRESS, TX, 77429",627777588,"R"
163251,"13806 NATHAN RIDGE LN","HOUSTON","TX",77083,NA,NA,251,"13806 NATHAN RIDGE LN, HOUSTON, TX, 77083","No_Match",NA,NA,NA,NA
163252,"13806 SUTHERLAND SPRING LANE","ROSHARON","TX",77583,29.5041851130001,-95.436550975,252,"13806 SUTHERLAND SPRING LANE, ROSHARON, TX, 77583","Match","Exact","13806 SUTHERLAND SPRING LN, ROSHARON, TX, 77583",614115480,"R"
163253,"13806 SW 275 STREET","HOMESTEAD","FL",33032,25.511556478,-80.414630229,253,"13806 SW 275 STREET, HOMESTEAD, FL, 33032","Match","Exact","13806 SW 275TH ST, HOMESTEAD, FL, 33032",116046519,"R"
163254,"13807  HAMMERMILL FIELD DRIVE","BOWIE","MD",20720,38.9497880370001,-76.766647542,254,"13807  HAMMERMILL FIELD DRIVE, BOWIE, MD, 20720","Match","Exact","13807 HAMMERMILL FIELD DR, BOWIE, MD, 20720",648072883,"R"
163255,"13807 250TH AVE SE","MONROE","WA",98272,47.872789986,-121.896181226,255,"13807 250TH AVE SE, MONROE, WA, 98272","Match","Exact","13807 250TH AVE SE, MONROE, WA, 98272",608935967,"R"
163256,"13807 BEND ROCK WAY","HOUSTON","TX",77044,29.967623729,-95.15754788,256,"13807 BEND ROCK WAY, HOUSTON, TX, 77044","Match","Exact","13807 BEND ROCK WAY, HOUSTON, TX, 77044",627955994,"R"
163257,"13807 CHUCK WOOD ROAD","HOUSTON","TX",77038,29.935622359,-95.4620691109999,257,"13807 CHUCK WOOD ROAD, HOUSTON, TX, 77038","Match","Non_Exact","13807 CHUCKWOOD RD, HOUSTON, TX, 77038",653305171,"L"
163258,"13807 FAREHAM RD","ODESSA","FL",33556,28.1880525190001,-82.5873734099999,258,"13807 FAREHAM RD, ODESSA, FL, 33556","Match","Non_Exact","13807 FARHAM RD, ODESSA, FL, 33556",634073608,"L"
163259,"13807 FOGGY HILLS CT","CLIFTON","VA",20124,38.814615861,-77.4237855,259,"13807 FOGGY HILLS CT, CLIFTON, VA, 20124","Match","Exact","13807 FOGGY HILLS CT, CLIFTON, VA, 20124",76011681,"R"
163260,"13807 GREENFIELD ROAD","OMAHA","NE",68138,41.1727631050001,-96.12971513,260,"13807 GREENFIELD ROAD, OMAHA, NE, 68138","Match","Exact","13807 GREENFIELD RD, OMAHA, NE, 68138",28474930,"R"
163261,"13807 HALE RD","OBERLIN","OH",44074,41.288439521,-82.166838458,261,"13807 HALE RD, OBERLIN, OH, 44074","Match","Exact","13807 HALE RD, OBERLIN, OH, 44074",55418745,"L"
163262,"13807 LONGACRES PRESERVE DR","POTOMAC","MD",20854,39.062205749,-77.2882594979999,262,"13807 LONGACRES PRESERVE DR, POTOMAC, MD, 20854","Match","Non_Exact","13807 LONGACRES PRESERVE, POTOMAC, MD, 20854",618797029,"R"
163263,"13807 REDFIELD DR","EUGENE","MO",65032,38.384688711,-92.400153539,263,"13807 REDFIELD DR, EUGENE, MO, 65032","Match","Exact","13807 REDFIELD DR, EUGENE, MO, 65032",34424380,"R"
163264,"13807 S 19TH COURT","BIXBY","OK",74008,35.9641198530001,-95.949841508,264,"13807 S 19TH COURT, BIXBY, OK, 74008","Match","Exact","13807 S 19TH CT, BIXBY, OK, 74008",166497161,"L"
163265,"13807 SILVERDUST LN","CHESTER","VA",23836,37.340193561,-77.3694696059999,265,"13807 SILVERDUST LN, CHESTER, VA, 23836","Match","Exact","13807 SILVERDUST LN, CHESTER, VA, 23836",627131286,"R"
163266,"13807 WESTERLO CT","UPPER MARLBORO","TX",20774,NA,NA,266,"13807 WESTERLO CT, UPPER MARLBORO, TX, 20774","No_Match",NA,NA,NA,NA
163267,"13808 BORDEAUX ST","BAKERSFIELD","CA",93314,35.3663819170001,-119.155882012,267,"13808 BORDEAUX ST, BAKERSFIELD, CA, 93314","Match","Exact","13808 BORDEAUX ST, BAKERSFIELD, CA, 93314",109530112,"R"
163268,"13808 BURBANK BLVD","SHERMAN OAKS","CA",91401,34.172120555,-118.43381484,268,"13808 BURBANK BLVD, SHERMAN OAKS, CA, 91401","Match","Exact","13808 BURBANK BLVD, SHERMAN OAKS, CA, 91401",141561764,"L"
163269,"13808 EAST SAGE HILLS DRIVE","VAIL","AZ",85641,32.0621891210001,-110.698884722,269,"13808 EAST SAGE HILLS DRIVE, VAIL, AZ, 85641","Match","Non_Exact","13808 SAGE HILLS DR, VAIL, AZ, 85641",625686871,"L"
163270,"13808 ELIZABETH STREET","THORNTON","CO",80602,39.9459835430001,-104.955611283,270,"13808 ELIZABETH STREET, THORNTON, CO, 80602","Match","Exact","13808 ELIZABETH ST, THORNTON, CO, 80602",177422421,"R"
163271,"13808 EXLINE ROAD","HANCOCK","MD",21750,39.688868767,-78.286643189,271,"13808 EXLINE ROAD, HANCOCK, MD, 21750","Match","Exact","13808 EXLINE RD, HANCOCK, MD, 21750",60781837,"L"
163272,"13808 FAREHAM LANE","UPPER MARLBOR","MD",20772,38.823502923,-76.762860255,272,"13808 FAREHAM LANE, UPPER MARLBOR, MD, 20772","Match","Non_Exact","13808 FAREHAM LN, UPPER MARLBORO, MD, 20772",76344436,"R"
163273,"13808 HWY 441 SOUTH","MICANOPY","FL",32667,NA,NA,273,"13808 HWY 441 SOUTH, MICANOPY, FL, 32667","No_Match",NA,NA,NA,NA
163274,"13808 HWY 49","GRASS VALLEY","CA",95949,39.165240086,-121.056890883,274,"13808 HWY 49, GRASS VALLEY, CA, 95949","Match","Non_Exact","13808 STATE RTE 49, GRASS VALLEY, CA, 95949",106553094,"L"
163275,"13808 LOWELL AVENUE","GRANDVIEW","MO",64030,38.873505204,-94.518122708,275,"13808 LOWELL AVENUE, GRANDVIEW, MO, 64030","Match","Exact","13808 LOWELL AVE, GRANDVIEW, MO, 64030",91521497,"R"
163276,"13808 MERCERSBURG RD","GREENCASTLE","PA",17236,39.737946079,-77.826075789,276,"13808 MERCERSBURG RD, GREENCASTLE, PA, 17236","Match","Non_Exact","13808 MERCERSBURG RD, GREENCASTLE, PA, 17225",605536461,"L"
163277,"13808 NW 155TH AVE","ALACHUA","FL",32615,29.796748424,-82.4926503999999,277,"13808 NW 155TH AVE, ALACHUA, FL, 32615","Match","Exact","13808 NW 155TH AVE, ALACHUA, FL, 32615",6801461,"L"
163278,"13808 RUSTLER PASS RANCH RD","ROANOKE","TX",76262,32.9830441840001,-97.285292392,278,"13808 RUSTLER PASS RANCH RD, ROANOKE, TX, 76262","Match","Exact","13808 RUSTLER PASS RANCH RD, ROANOKE, TX, 76262",619863976,"R"
163279,"13808 SPRINGER LANE","TAMPA","FL",33625,28.0722042400001,-82.552247622,279,"13808 SPRINGER LANE, TAMPA, FL, 33625","Match","Exact","13808 SPRINGER LN, TAMPA, FL, 33625",636084971,"R"
163280,"13808 WALNUT ST","WHITTIER","CA",90602,33.971605669,-118.027076645,280,"13808 WALNUT ST, WHITTIER, CA, 90602","Match","Exact","13808 WALNUT ST, WHITTIER, CA, 90602",141748047,"R"
163281,"13809 GENTLE WOODS AVE","RIVERVIEW","FL",33569,27.8449304230001,-82.263037841,281,"13809 GENTLE WOODS AVE, RIVERVIEW, FL, 33569","Match","Exact","13809 GENTLE WOODS AVE, RIVERVIEW, FL, 33569",624857077,"R"
163282,"13809 HIDDEN GLEN LANE","NORTH POTOMAC","MD",20878,39.0816780480001,-77.258676284,282,"13809 HIDDEN GLEN LANE, NORTH POTOMAC, MD, 20878","Match","Exact","13809 HIDDEN GLEN LN, N POTOMAC, MD, 20878",62048847,"R"
163283,"13809 HUNTING RUN LANE","FREDERICKSBURG","VA",22407,38.337651454,-77.643785496,283,"13809 HUNTING RUN LANE, FREDERICKSBURG, VA, 22407","Match","Non_Exact","13809 HUNTING RUN DR, FREDERICKSBURG, VA, 22407",641115520,"R"
163284,"13809 PURPLE BLOOM LANE","CHARLOTTE","NC",28262,35.346439859,-80.74098112,284,"13809 PURPLE BLOOM LANE, CHARLOTTE, NC, 28262","Match","Exact","13809 PURPLE BLOOM LN, CHARLOTTE, NC, 28262",70562245,"R"
163285,"13809 RESEARCH BLVD STE 810","AUSTIN","TX",78750,NA,NA,285,"13809 RESEARCH BLVD STE 810, AUSTIN, TX, 78750","No_Match",NA,NA,NA,NA
163286,"13809 SUNSET LAKE DRIVE","BURNSVILLE","MN",55337,44.753851243,-93.321681434,286,"13809 SUNSET LAKE DRIVE, BURNSVILLE, MN, 55337","Match","Exact","13809 SUNSET LAKE DR, BURNSVILLE, MN, 55337",37924422,"R"
163287,"1381 - 150TH AVENUE","MURRAY","IA",50174,NA,NA,287,"1381 - 150TH AVENUE, MURRAY, IA, 50174","No_Match",NA,NA,NA,NA
163288,"1381 AUTRY LN","CROWLEY","TX",76036,32.554057017,-97.399169636,288,"1381 AUTRY LN, CROWLEY, TX, 76036","Match","Exact","1381 AUTRY LN, CROWLEY, TX, 76036",101931721,"R"
163289,"1381 BANDY ROAD","CEDAR BLUFF","VA",24609,37.1193919250001,-81.7126826319999,289,"1381 BANDY ROAD, CEDAR BLUFF, VA, 24609","Match","Exact","1381 BANDY RD, CEDAR BLUFF, VA, 24609",47296271,"L"
163290,"1381 BARLEEN DRIVE","WALLA WALLA","WA",99362,46.0346812270001,-118.3511066,290,"1381 BARLEEN DRIVE, WALLA WALLA, WA, 99362","Match","Exact","1381 BARLEEN DR, WALLA WALLA, WA, 99362",174674667,"R"
163291,"1381 BOX CANYON RD","HERMOSA","SD",57744,NA,NA,291,"1381 BOX CANYON RD, HERMOSA, SD, 57744","No_Match",NA,NA,NA,NA
163292,"1381 BUCK STREET","WEST LINN","OR",97068,45.371557067,-122.617604137,292,"1381 BUCK STREET, WEST LINN, OR, 97068","Match","Exact","1381 BUCK ST, WEST LINN, OR, 97068",649975179,"L"
163293,"1381 BUFFALO RD","GILMER","TX",75644,32.7340338400001,-94.966415526,293,"1381 BUFFALO RD, GILMER, TX, 75644","Match","Exact","1381 BUFFALO RD, GILMER, TX, 75644",147609896,"L"
163294,"1381 CALLS CREEK CIRCLE","WATKINSVILLE","GA",30677,33.8765307260001,-83.3961935839999,294,"1381 CALLS CREEK CIRCLE, WATKINSVILLE, GA, 30677","Match","Exact","1381 CALLS CREEK CIR, WATKINSVILLE, GA, 30677",5043516,"R"
163295,"1381 COUNTY ROAD 121","NEW ALBANY","MS",38652,34.4343663130001,-88.959129408,295,"1381 COUNTY ROAD 121, NEW ALBANY, MS, 38652","Match","Exact","1381 CO RD 121, NEW ALBANY, MS, 38652",605045830,"L"
163296,"1381 COUNTY ROAD 34","RANBURNE","AL",36273,33.562600764,-85.327139068,296,"1381 COUNTY ROAD 34, RANBURNE, AL, 36273","Match","Exact","1381 CO RD 34, RANBURNE, AL, 36273",635521767,"R"
163297,"1381 COZY COVE LANE","LAWRENCEVILLE","GA",30045,33.940469385,-83.916294396,297,"1381 COZY COVE LANE, LAWRENCEVILLE, GA, 30045","Match","Exact","1381 COZY COVE LN, LAWRENCEVILLE, GA, 30045",627476834,"R"
163298,"1381 DURHAM SCHOOL RD","MCKEE","KY",40447,37.503339935,-84.117447028,298,"1381 DURHAM SCHOOL RD, MCKEE, KY, 40447","Match","Exact","1381 DURHAM SCHOOL RD, MCKEE, KY, 40447",628669192,"L"
163299,"1381 E 142ND ST S","GRINNLL","IA",50112,41.6865547670001,-92.798754486,299,"1381 E 142ND ST S, GRINNLL, IA, 50112","Match","Non_Exact","1381 E 142ND ST S, GRINNELL, IA, 50112",624721635,"R"
163300,"1381 E 8TH ST","BROOKLYN","NY",11230,40.6156908470001,-73.966350161,300,"1381 E 8TH ST, BROOKLYN, NY, 11230","Match","Non_Exact","1381 E 8TH ST, BROOKLYN, NY, 11230",59089632,"L"
163301,"1381 E NAPIER AVE","BENTON HARBOR","MI",49022,42.089049673,-86.424905329,301,"1381 E NAPIER AVE, BENTON HARBOR, MI, 49022","Match","Exact","1381 E NAPIER AVE, BENTON HARBOR, MI, 49022",119975695,"L"
163302,"1381 E PLACITA MAPACHE","TUCSON","AZ",85718,NA,NA,302,"1381 E PLACITA MAPACHE, TUCSON, AZ, 85718","No_Match",NA,NA,NA,NA
163303,"1381 EAST 16TH STREET","BROOKLYN","NY",11230,40.6162353300001,-73.958743923,303,"1381 EAST 16TH STREET, BROOKLYN, NY, 11230","Match","Exact","1381 E 16TH ST, BROOKLYN, NY, 11230",59089747,"L"
163304,"1381 EAST NEW YORK AVENUE","BROOKLYN","NY",11212,40.669822192,-73.916516803,304,"1381 EAST NEW YORK AVENUE, BROOKLYN, NY, 11212","Match","Exact","1381 E NEW YORK AVE, BROOKLYN, NY, 11212",59083806,"L"
163305,"1381 EASTER LANE","EAGAN","MN",55123,44.802014699,-93.166134514,305,"1381 EASTER LANE, EAGAN, MN, 55123","Match","Exact","1381 EASTER LN, EAGAN, MN, 55123",37908990,"R"
163306,"1381 ELM TREE ROAD","LAKE FOREST","IL",60045,42.2645697030001,-87.831447316,306,"1381 ELM TREE ROAD, LAKE FOREST, IL, 60045","Match","Exact","1381 ELM TREE RD, LAKE FOREST, IL, 60045",119647275,"R"
163307,"1381 ELMHURST DR NE","CEDAR RAPIDS","IA",52402,42.0055654860001,-91.655962626,307,"1381 ELMHURST DR NE, CEDAR RAPIDS, IA, 52402","Match","Exact","1381 ELMHURST DR NE, CEDAR RAPIDS, IA, 52402",17020685,"L"
163308,"1381 ESSEX DRIVE","ORANGEBURG","SC",29118,33.528716542,-80.853560267,308,"1381 ESSEX DRIVE, ORANGEBURG, SC, 29118","Match","Non_Exact","1381 ESSEX DR NE, ORANGEBURG, SC, 29118",19229124,"L"
163309,"1381 FIR AVENUE","WELLMAN","IA",52356,41.4523107520001,-91.84918185,309,"1381 FIR AVENUE, WELLMAN, IA, 52356","Match","Exact","1381 FIR AVE, WELLMAN, IA, 52356",84189800,"L"
163310,"1381 FLORIN ROAD","SACRAMENTO","CA",95822,38.4955179510001,-121.511660113,310,"1381 FLORIN ROAD, SACRAMENTO, CA, 95822","Match","Non_Exact","1381 FLORIN RD, SACRAMENTO, CA, 95831",133350332,"L"
163311,"1381 GIEL AVENUE","LAKEWOOD","OH",44107,41.486048141,-81.787594613,311,"1381 GIEL AVENUE, LAKEWOOD, OH, 44107","Match","Exact","1381 GIEL AVE, LAKEWOOD, OH, 44107",61100387,"L"
163312,"1381 GRAPESEED LANE","BEAUMONT","CA",92223,33.946114666,-116.961327504,312,"1381 GRAPESEED LANE, BEAUMONT, CA, 92223","Match","Exact","1381 GRAPESEED LN, BEAUMONT, CA, 92223",626534791,"L"
163313,"1381 GRAPESEED LN","BEAUMONT","CA",92223,33.946114666,-116.961327504,313,"1381 GRAPESEED LN, BEAUMONT, CA, 92223","Match","Exact","1381 GRAPESEED LN, BEAUMONT, CA, 92223",626534791,"L"
163314,"1381 HALEY COURT","TR","CA",95377,37.743501624,-121.473535681,314,"1381 HALEY COURT, TR, CA, 95377","Match","Non_Exact","1381 HALEY CT, TRACY, CA, 95377",133917201,"L"
163315,"1381 HALEY COURT","TRACY","CA",95377,37.743501624,-121.473535681,315,"1381 HALEY COURT, TRACY, CA, 95377","Match","Exact","1381 HALEY CT, TRACY, CA, 95377",133917201,"L"
163316,"1381 HEATHER RIDGE DR","NEWTOWN","PA",18940,40.246609172,-74.902724539,316,"1381 HEATHER RIDGE DR, NEWTOWN, PA, 18940","Match","Exact","1381 HEATHER RIDGE DR, NEWTOWN, PA, 18940",134731725,"R"
163317,"1381 HIGHLAND MEADOWS DR","FLINT","MI",48532,43.0271631270001,-83.8035681059999,317,"1381 HIGHLAND MEADOWS DR, FLINT, MI, 48532","Match","Exact","1381 HIGHLAND MEADOWS DR, FLINT, MI, 48532",69595054,"R"
163318,"1381 HILLCREST DR 102","ANCHORAGE","AK",99503,61.200604141,-149.909507931,318,"1381 HILLCREST DR 102, ANCHORAGE, AK, 99503","Match","Exact","1381 HILLCREST DR, ANCHORAGE, AK, 99503",190796807,"R"
163319,"1381 HOLTSLANDER","FLINT","MI",48505,43.076826709,-83.680432208,319,"1381 HOLTSLANDER, FLINT, MI, 48505","Match","Non_Exact","1381 HOLTSLANDER AVE, FLINT, MI, 48505",69566463,"L"
163320,"1381 HWY 80","WINDSOR","KY",42539,NA,NA,320,"1381 HWY 80, WINDSOR, KY, 42539","No_Match",NA,NA,NA,NA
163321,"1381 HWY 80","WINDSOR","KY",42565,37.1296591650001,-84.907374503,321,"1381 HWY 80, WINDSOR, KY, 42565","Match","Non_Exact","1381 STATE HWY 80, WINDSOR, KY, 42565",32504597,"R"
163322,"1381 KIMBERLY WAY SW APT 20208","ATLANTA","GA",30331,33.7175804410001,-84.52271121,322,"1381 KIMBERLY WAY SW APT 20208, ATLANTA, GA, 30331","Match","Exact","1381 KIMBERLY WAY SW, ATLANTA, GA, 30331",625019362,"L"
163323,"1381 KY 80","WINDSOR","KY",42565,37.1296591650001,-84.907374503,323,"1381 KY 80, WINDSOR, KY, 42565","Match","Non_Exact","1381 STATE HWY 80, WINDSOR, KY, 42565",32504597,"R"
163324,"1381 LAWRENCE NO 5","EUGENE","OR",97401,NA,NA,324,"1381 LAWRENCE NO 5, EUGENE, OR, 97401","No_Match",NA,NA,NA,NA
163325,"1381 LINDEN BLVD 12F","BROOKLYN","NY",11212,NA,NA,325,"1381 LINDEN BLVD 12F, BROOKLYN, NY, 11212","No_Match",NA,NA,NA,NA
163326,"1381 LINDEN BLVD APT 11K","BROOKLYN","NY",11212,NA,NA,326,"1381 LINDEN BLVD APT 11K, BROOKLYN, NY, 11212","No_Match",NA,NA,NA,NA
163327,"1381 LINDEN BLVD APT 14J","BROOKLYN","NY",11212,NA,NA,327,"1381 LINDEN BLVD APT 14J, BROOKLYN, NY, 11212","No_Match",NA,NA,NA,NA
163328,"1381 LINDEN BLVD","BROOKLYN","NY",11212,NA,NA,328,"1381 LINDEN BLVD, BROOKLYN, NY, 11212","No_Match",NA,NA,NA,NA
163329,"1381 LINDSEY CT","SAN JACINTO","CA",92583,33.774068562,-116.942613976,329,"1381 LINDSEY CT, SAN JACINTO, CA, 92583","Match","Exact","1381 LINDSEY CT, SAN JACINTO, CA, 92583",194826712,"L"
163330,"1381 LOW WATER WAY","LAWRENCEVILLE","GA",30045,33.9264078260001,-83.9032205509999,330,"1381 LOW WATER WAY, LAWRENCEVILLE, GA, 30045","Match","Exact","1381 LOW WATER WAY, LAWRENCEVILLE, GA, 30045",630324010,"L"
163331,"1381 MARYLANE","BEAUMONT","CA",92223,NA,NA,331,"1381 MARYLANE, BEAUMONT, CA, 92223","No_Match",NA,NA,NA,NA
163332,"1381 MERRIFIELD LANE","MARIETTA","GA",30062,33.9863544,-84.4987880309999,332,"1381 MERRIFIELD LANE, MARIETTA, GA, 30062","Match","Exact","1381 MERRIFIELD LN, MARIETTA, GA, 30062",643358947,"L"
163333,"1381 MULESHOE PASS","PLACERVILLE","CA",95667,38.6752296450001,-120.646089296,333,"1381 MULESHOE PASS, PLACERVILLE, CA, 95667","Match","Exact","1381 MULESHOE PASS, PLACERVILLE, CA, 95667",133051165,"R"
163334,"1381 NAPIER AVENUE","BENTON HARBOR","MI",49022,42.089049673,-86.424905329,334,"1381 NAPIER AVENUE, BENTON HARBOR, MI, 49022","Match","Non_Exact","1381 E NAPIER AVE, BENTON HARBOR, MI, 49022",119975695,"L"
163335,"1381 NORTH SYCAMORE AVENUE","RIALTO","CA",92376,34.1251251250001,-117.366074201,335,"1381 NORTH SYCAMORE AVENUE, RIALTO, CA, 92376","Match","Exact","1381 N SYCAMORE AVE, RIALTO, CA, 92376",144644400,"R"
163336,"1381 NORTHSIDE DRIVE NW","CONYERS","GA",30012,33.679887928,-84.013223969,336,"1381 NORTHSIDE DRIVE NW, CONYERS, GA, 30012","Match","Exact","1381 NORTHSIDE DR NW, CONYERS, GA, 30012",622151979,"R"
163337,"1381 NW 18TH DRIVE 201","POMPANO BEACH","FL",33069,26.244363649,-80.146418695,337,"1381 NW 18TH DRIVE 201, POMPANO BEACH, FL, 33069","Match","Non_Exact","1381 NW 18TH DR, POMPANO BEACH, FL, 33069",114810186,"L"
163338,"1381 PALMWOOD DR","SARASOTA","FL",34232,27.320709557,-82.485078518,338,"1381 PALMWOOD DR, SARASOTA, FL, 34232","Match","Exact","1381 PALMWOOD DR, SARASOTA, FL, 34232",16455978,"R"
163339,"1381 PALOMINO AVENUE","UPLAND","CA",91786,34.113416591,-117.671295791,339,"1381 PALOMINO AVENUE, UPLAND, CA, 91786","Match","Exact","1381 PALOMINO AVE, UPLAND, CA, 91786",144669731,"L"
163340,"1381 POND RD","MT. VERNON","ME",4352,44.4376447120001,-70.005725996,340,"1381 POND RD, MT. VERNON, ME, 4352","Match","Exact","1381 POND RD, MOUNT VERNON, ME, 04352",634280642,"L"
163341,"1381 PUCKETT RD","LAWRENCEBURG","KY",40342,38.059463351,-84.943705532,341,"1381 PUCKETT RD, LAWRENCEBURG, KY, 40342","Match","Exact","1381 PUCKETT RD, LAWRENCEBURG, KY, 40342",43458216,"L"
163342,"1381 ROCKY CREEK COURT","BELLEVILLE","IL",62220,38.506255412,-90.011611676,342,"1381 ROCKY CREEK COURT, BELLEVILLE, IL, 62220","Match","Exact","1381 ROCKY CREEK CT, BELLEVILLE, IL, 62220",107906364,"L"
163343,"1381 S 1220 W","OREM","UT",84058,NA,NA,343,"1381 S 1220 W, OREM, UT, 84058","No_Match",NA,NA,NA,NA
163344,"1381 S BATTALION WAY","SARATOGA SPRINGS","UT",84045,NA,NA,344,"1381 S BATTALION WAY, SARATOGA SPRINGS, UT, 84045","No_Match",NA,NA,NA,NA
163345,"1381 SAINT JOHNS PLACE","BROOKLYN","NY",11213,40.6706727760001,-73.932468365,345,"1381 SAINT JOHNS PLACE, BROOKLYN, NY, 11213","Match","Exact","1381 ST JOHNS PL, BROOKLYN, NY, 11213",59079774,"L"
163346,"1381 SANTA FE CIRCLE","NEEDLES","CA",92363,34.8305537540001,-114.610860534,346,"1381 SANTA FE CIRCLE, NEEDLES, CA, 92363","Match","Exact","1381 SANTA FE CIR, NEEDLES, CA, 92363",144697263,"L"
163347,"1381 SCOTTS CREEK CIR","MT PLEASANT","SC",29464,32.7980852800001,-79.84431304,347,"1381 SCOTTS CREEK CIR, MT PLEASANT, SC, 29464","Match","Exact","1381 SCOTTS CREEK CIR, MOUNT PLEASANT, SC, 29464",645444119,"R"
163348,"1381 SILVER SPRINGS DRIVE","LEXINGTON","KY",40511,NA,NA,348,"1381 SILVER SPRINGS DRIVE, LEXINGTON, KY, 40511","No_Match",NA,NA,NA,NA
163349,"1381 SKYWAY DR","YPSILANTI","MI",48197,42.2202436810001,-83.651096439,349,"1381 SKYWAY DR, YPSILANTI, MI, 48197","Match","Exact","1381 SKYWAY DR, YPSILANTI, MI, 48197",26018253,"L"
163350,"1381 SOUTH ST","PORTSMOUTH","NH",3801,43.0626067100001,-70.770264244,350,"1381 SOUTH ST, PORTSMOUTH, NH, 3801","Match","Exact","1381 SOUTH ST, PORTSMOUTH, NH, 03801",113666535,"R"
163351,"1381 SUNDANCE DRIVE","PLUMAS LAKE","CA",95961,39.0076251090001,-121.54716057,351,"1381 SUNDANCE DRIVE, PLUMAS LAKE, CA, 95961","Match","Non_Exact","1381 SUNDANCE, PLUMAS LAKE, CA, 95961",611583121,"L"
163352,"1381 SUNDANCE","PLUMAS LAKE","CA",95961,39.0076251090001,-121.54716057,352,"1381 SUNDANCE, PLUMAS LAKE, CA, 95961","Match","Exact","1381 SUNDANCE, PLUMAS LAKE, CA, 95961",611583121,"L"
163353,"1381 VISTA DE SOLEDAD","SOLEDAD","CA",93960,36.4437209120001,-121.331322931,353,"1381 VISTA DE SOLEDAD, SOLEDAD, CA, 93960","Match","Exact","1381 VIS DE SOLEDAD, SOLEDAD, CA, 93960",196869427,"L"
163354,"1381 W CASTLE AVE","PORTERVILLE","CA",93257,36.094676269,-119.047440122,354,"1381 W CASTLE AVE, PORTERVILLE, CA, 93257","Match","Exact","1381 W CASTLE AVE, PORTERVILLE, CA, 93257",202785676,"L"
163355,"1381 W ISLAND CLUB SQ","VERO BEACH","FL",32963,27.7450053650001,-80.395329639,355,"1381 W ISLAND CLUB SQ, VERO BEACH, FL, 32963","Match","Exact","1381 W ISLAND CLUB SQ, VERO BEACH, FL, 32963",610957578,"R"
163356,"1381 W OHIO PIKE","AMELIA","OH",45102,NA,NA,356,"1381 W OHIO PIKE, AMELIA, OH, 45102","Tie",NA,NA,NA,NA
163357,"1381 WEST MAIN STREET","RIVERHEAD","NY",11901,40.9169210750001,-72.697210345,357,"1381 WEST MAIN STREET, RIVERHEAD, NY, 11901","Match","Exact","1381 W MAIN ST, RIVERHEAD, NY, 11901",114250749,"R"
163358,"1381","NEWTOWN","PA",18940,NA,NA,358,"1381, NEWTOWN, PA, 18940","No_Match",NA,NA,NA,NA
163359,"13810 136TH AVE W","TAYLOR RIDGE","IL",61284,41.3852818,-90.7615239679999,359,"13810 136TH AVE W, TAYLOR RIDGE, IL, 61284","Match","Exact","13810 136TH AVE W, TAYLOR RIDGE, IL, 61284",9204094,"L"
163360,"13810 170TH STREET EAST","PUYALLUP","WA",98374,47.1016138430001,-122.244941404,360,"13810 170TH STREET EAST, PUYALLUP, WA, 98374","Match","Exact","13810 170TH ST E, PUYALLUP, WA, 98374",184742909,"R"
163361,"13810 BENTLEY PLACE STE 110","CERRITOS","CA",90703,33.8828374020001,-118.037540574,361,"13810 BENTLEY PLACE STE 110, CERRITOS, CA, 90703","Match","Exact","13810 BENTLEY PL, CERRITOS, CA, 90703",141754169,"R"
163362,"13810 BLUFF LANE","SAN ANTONIO","TX",78216,29.5710039800001,-98.500208379,362,"13810 BLUFF LANE, SAN ANTONIO, TX, 78216","Match","Exact","13810 BLUFF LN, SAN ANTONIO, TX, 78216",101495650,"L"
163363,"13810 CAPTAIN MARBURY LANE","UPPER MARLBORO","MD",20772,38.8268934590001,-76.766510454,363,"13810 CAPTAIN MARBURY LANE, UPPER MARLBORO, MD, 20772","Match","Exact","13810 CAPTAIN MARBURY LN, UPPER MARLBORO, MD, 20772",76344325,"L"
163364,"13810 CARTER HOUSE","SILVER SPRING","MD",20904,39.083709625,-76.9348267299999,364,"13810 CARTER HOUSE, SILVER SPRING, MD, 20904","Match","Non_Exact","13810 CARTER HOUSE WAY, SILVER SPRING, MD, 20904",638658145,"R"
163365,"13810 COVERED BRIDGE","LOWELL","MI",49331,NA,NA,365,"13810 COVERED BRIDGE, LOWELL, MI, 49331","No_Match",NA,NA,NA,NA
163366,"13810 CREEK CROSSING DR","DALLAS","TX",75253,32.671552939,-96.602417612,366,"13810 CREEK CROSSING DR, DALLAS, TX, 75253","Match","Exact","13810 CREEK CROSSING DR, DALLAS, TX, 75253",619138984,"L"
163367,"13810 E RENO AVE","CHOCTAW","OK",73020,35.464132449,-97.2864456029999,367,"13810 E RENO AVE, CHOCTAW, OK, 73020","Match","Exact","13810 E RENO AVE, CHOCTAW, OK, 73020",646686413,"R"
163368,"13810 FRANKLIN AVE APT 14N","FLUSHING","NY",11355,NA,NA,368,"13810 FRANKLIN AVE APT 14N, FLUSHING, NY, 11355","No_Match",NA,NA,NA,NA
163369,"13810 FREDERICK AVE","OMAHA","NE",68138,41.186661535,-96.130285401,369,"13810 FREDERICK AVE, OMAHA, NE, 68138","Match","Exact","13810 FREDERICK AVE, OMAHA, NE, 68138",28500143,"L"
163370,"13810 GREENFIELD AVE","MAUGANSVILLE","MD",21767,39.693897314,-77.742275413,370,"13810 GREENFIELD AVE, MAUGANSVILLE, MD, 21767","Match","Exact","13810 GREENFIELD AVE, MAUGANSVILLE, MD, 21767",60785096,"L"
163371,"13810 HARROLD POINT ROAD","WAPELLA","IL",61777,40.2444586670001,-88.995481503,371,"13810 HARROLD POINT ROAD, WAPELLA, IL, 61777","Match","Exact","13810 HARROLD POINT RD, WAPELLA, IL, 61777",20504512,"R"
163372,"13810 LAKEWATER DRIVE","PEARLAND","TX",77584,29.559665007,-95.4349036089999,372,"13810 LAKEWATER DRIVE, PEARLAND, TX, 77584","Match","Exact","13810 LAKEWATER DR, PEARLAND, TX, 77584",635193243,"R"
163373,"13810 MALLARD DRIVE","ROGERS","MN",55374,45.204909727,-93.539178071,373,"13810 MALLARD DRIVE, ROGERS, MN, 55374","Match","Exact","13810 MALLARD DR, ROGERS, MN, 55374",43853458,"L"
163374,"13810 PERTHSHIRE","HOUSTON","TX",77079,29.775480827,-95.58632692,374,"13810 PERTHSHIRE, HOUSTON, TX, 77079","Match","Non_Exact","13810 PERTHSHIRE RD, HOUSTON, TX, 77079",96022143,"R"
163375,"13810 RAMONA DR UNIT A","WHITTIER","CA",90605,33.962925639,-118.027139033,375,"13810 RAMONA DR UNIT A, WHITTIER, CA, 90605","Match","Exact","13810 RAMONA DR, WHITTIER, CA, 90605",141748473,"R"
163376,"13810 S CICERO AVENUE","CRESTWOOD","IL",60445,41.641738709,-87.737882041,376,"13810 S CICERO AVENUE, CRESTWOOD, IL, 60445","Match","Non_Exact","13810 CICERO AVE, CRESTWOOD, IL, 60418",111824336,"R"
163377,"13810 STAFFSHIRE LANE","COLORADO SPRINGS","CO",80908,39.032424297,-104.735236527,377,"13810 STAFFSHIRE LANE, COLORADO SPRINGS, CO, 80908","Match","Exact","13810 STAFFSHIRE LN, COLORADO SPRINGS, CO, 80908",610681977,"L"
163378,"13810 STEELECROFT FARM LN APT 106","CHARLOTTE","NC",28278,35.1050371100001,-80.993083472,378,"13810 STEELECROFT FARM LN APT 106, CHARLOTTE, NC, 28278","Match","Exact","13810 STEELECROFT FARM LN, CHARLOTTE, NC, 28278",630701015,"R"
163379,"13810 SUTTON PARK DR N UNIT 817","JACKSONVILLE","FL",32224,30.2607211970001,-81.4601901889999,379,"13810 SUTTON PARK DR N UNIT 817, JACKSONVILLE, FL, 32224","Match","Exact","13810 SUTTON PARK DR N, JACKSONVILLE, FL, 32224",614097250,"L"
163380,"13810 SUTTON PARK DR NORTH UNIT 211","JACKSONVILLE","FL",32224,30.2607211970001,-81.4601901889999,380,"13810 SUTTON PARK DR NORTH UNIT 211, JACKSONVILLE, FL, 32224","Match","Exact","13810 SUTTON PARK DR N, JACKSONVILLE, FL, 32224",614097250,"L"
163381,"13810 WEST VIA MANANA","SUN CITY WEST","AZ",85375,33.685818499,-112.358052093,381,"13810 WEST VIA MANANA, SUN CITY WEST, AZ, 85375","Match","Exact","13810 W VIA MANANA, SUN CITY WEST, AZ, 85375",128947215,"R"
163382,"13810","NEVADA CITY","CA",95959,NA,NA,382,"13810, NEVADA CITY, CA, 95959","No_Match",NA,NA,NA,NA
163383,"13811 BAUER RD","GRAND LEDGE","MI",48837,NA,NA,383,"13811 BAUER RD, GRAND LEDGE, MI, 48837","No_Match",NA,NA,NA,NA
163384,"13811 BERRYKNOLL DRIVE","SHELBY TWP","MI",48315,42.6471926410001,-82.991032306,384,"13811 BERRYKNOLL DRIVE, SHELBY TWP, MI, 48315","Match","Exact","13811 BERRYKNOLL DR, SHELBY TOWNSHIP, MI, 48315",625410655,"L"
163385,"13811 BOYDTON PLANK ROAD","DINWIDDIE","VA",23841,37.081454754,-77.582778826,385,"13811 BOYDTON PLANK ROAD, DINWIDDIE, VA, 23841","Match","Exact","13811 BOYDTON PLANK RD, DINWIDDIE, VA, 23841",649995406,"R"
163386,"13811 BURBANK BLVD","LOS ANGELES","CA",91401,34.1721315200001,-118.433836708,386,"13811 BURBANK BLVD, LOS ANGELES, CA, 91401","Match","Non_Exact","13811 BURBANK BLVD, VAN NUYS, CA, 91401",141561764,"R"
163387,"13811 FOXFIELD LANE","LITTLE ROCK","AR",72211,34.7367865890001,-92.427984495,387,"13811 FOXFIELD LANE, LITTLE ROCK, AR, 72211","Match","Exact","13811 FOXFIELD LN, LITTLE ROCK, AR, 72211",625290973,"L"
163388,"13811 HIGHWAY 159","SHONGALOO","LA",71072,32.972437046,-93.309458202,388,"13811 HIGHWAY 159, SHONGALOO, LA, 71072","Match","Non_Exact","13811 STATE RTE 159, SHONGALOO, LA, 71072",647233094,"R"
163389,"13811 NAOMI HOLLOW LANE","HOUSTON","TX",77082,29.722543154,-95.633328503,389,"13811 NAOMI HOLLOW LANE, HOUSTON, TX, 77082","Match","Exact","13811 NAOMI HOLLOW LN, HOUSTON, TX, 77082",96021123,"R"
163390,"13811 NOB AVE","DEL MAR","CA",92014,32.9485479470001,-117.259743827,390,"13811 NOB AVE, DEL MAR, CA, 92014","Match","Exact","13811 NOB AVE, DEL MAR, CA, 92014",612854899,"R"
163391,"13811 PERTHSHIRE RD","HOUSTON","TX",77079,29.7754700620001,-95.5863245209999,391,"13811 PERTHSHIRE RD, HOUSTON, TX, 77079","Match","Exact","13811 PERTHSHIRE RD, HOUSTON, TX, 77079",96022143,"L"
163392,"13811 ROCKINGHAM RD","GERMANTOWN","MD",20874,39.158594878,-77.28715177,392,"13811 ROCKINGHAM RD, GERMANTOWN, MD, 20874","Match","Exact","13811 ROCKINGHAM RD, GERMANTOWN, MD, 20874",62127859,"L"
163393,"13811 S WESTERN","BLUE ISLAND","IL",60406,41.642219083,-87.679719167,393,"13811 S WESTERN, BLUE ISLAND, IL, 60406","Match","Non_Exact","13811 WESTERN AVE, BLUE ISLAND, IL, 60406",605796794,"L"
163394,"13811 STONEHENDGE CIRCLE","PICKERINGTON","OH",43147,NA,NA,394,"13811 STONEHENDGE CIRCLE, PICKERINGTON, OH, 43147","No_Match",NA,NA,NA,NA
163395,"13811 WARWICK BLVD","NEWPORT NEWS","VA",23602,37.125457001,-76.53251912,395,"13811 WARWICK BLVD, NEWPORT NEWS, VA, 23602","Match","Exact","13811 WARWICK BLVD, NEWPORT NEWS, VA, 23602",103819996,"L"
163396,"13812 46TH LANE NE","ST MICHAEL","MN",55376,45.220216486,-93.6076102009999,396,"13812 46TH LANE NE, ST MICHAEL, MN, 55376","Match","Exact","13812 46TH LN NE, SAINT MICHAEL, MN, 55376",605435396,"L"
163397,"13812 ARTHUR AVENUE 9","PARAMOUNT","CA",90723,33.9101845500001,-118.163643987,397,"13812 ARTHUR AVENUE 9, PARAMOUNT, CA, 90723","Match","Exact","13812 ARTHUR AVE, PARAMOUNT, CA, 90723",142772769,"L"
163398,"13812 BARNES SPRING RD","MIDLOTHIAN","VA",23112,37.4427786100001,-77.658623759,398,"13812 BARNES SPRING RD, MIDLOTHIAN, VA, 23112","Match","Exact","13812 BARNES SPRING RD, MIDLOTHIAN, VA, 23112",201529741,"L"
163399,"13812 BARNES SPRING ROAD","MIDLOTHIAN","VA",23112,37.4427786100001,-77.658623759,399,"13812 BARNES SPRING ROAD, MIDLOTHIAN, VA, 23112","Match","Exact","13812 BARNES SPRING RD, MIDLOTHIAN, VA, 23112",201529741,"L"
163400,"13812 CHESTERFIELD CIRCLE","NORTH LITTLE ROCK","AR",72117,34.744979744,-92.111082896,400,"13812 CHESTERFIELD CIRCLE, NORTH LITTLE ROCK, AR, 72117","Match","Exact","13812 CHESTERFIELD CIR, N LITTLE ROCK, AR, 72117",83545294,"R"
163401,"13812 EATON DRIVE","PLYMOUTH","MI",48170,42.3809767560001,-83.497553776,401,"13812 EATON DRIVE, PLYMOUTH, MI, 48170","Match","Exact","13812 EATON DR, PLYMOUTH, MI, 48170",95716298,"L"
163402,"13812 GOLDEN FLAX TRAIL","PFLUGERVILLE","TX",78660,30.4204284790001,-97.6594776919999,402,"13812 GOLDEN FLAX TRAIL, PFLUGERVILLE, TX, 78660","Match","Exact","13812 GOLDEN FLAX TRL, PFLUGERVILLE, TX, 78660",64001906,"L"
163403,"13812 GREENWOOD DR","DALE CITY","VA",22193,38.651743003,-77.338285598,403,"13812 GREENWOOD DR, DALE CITY, VA, 22193","Match","Exact","13812 GREENWOOD DR, DALE CITY, VA, 22193",76508755,"R"
163404,"13812 HAYES STREET","OVERLAND PARK","KS",66221,38.8779299130001,-94.69069171,404,"13812 HAYES STREET, OVERLAND PARK, KS, 66221","Match","Exact","13812 HAYES ST, OVERLAND PARK, KS, 66221",91292515,"R"
163405,"13812 KNIGHTS RUN DRIVE","MIDLOTHIAN","VA",23113,37.547708534,-77.659492293,405,"13812 KNIGHTS RUN DRIVE, MIDLOTHIAN, VA, 23113","Match","Exact","13812 KNIGHTS RUN DR, MIDLOTHIAN, VA, 23113",626997692,"L"
163406,"13812 N 30TH LN","PHOENIX","AZ",85053,33.6115240190001,-112.123892721,406,"13812 N 30TH LN, PHOENIX, AZ, 85053","Match","Non_Exact","13812 N 30TH LN, PHOENIX, AZ, 85053",128181060,"L"
163407,"13812 RESEARCH BLVD B3","AUSTIN","TX",78750,NA,NA,407,"13812 RESEARCH BLVD B3, AUSTIN, TX, 78750","No_Match",NA,NA,NA,NA
163408,"13812 SPINNING AVENUE","GARDENA","CA",90249,33.906520786,-118.318913711,408,"13812 SPINNING AVENUE, GARDENA, CA, 90249","Match","Exact","13812 SPINNING AVE, GARDENA, CA, 90249",141661030,"L"
163409,"13812 US HIGHWAY 31","HOPE HULL","AL",36043,32.175584886,-86.367351145,409,"13812 US HIGHWAY 31, HOPE HULL, AL, 36043","Match","Exact","13812 US HWY 31, HOPE HULL, AL, 36043",1545139,"L"
163410,"13812 W PALO VERDE DR","LITCHFIELD PARK","AZ",85340,33.5212810940001,-112.355707769,410,"13812 W PALO VERDE DR, LITCHFIELD PARK, AZ, 85340","Match","Exact","13812 W PALO VERDE DR, LITCHFIELD PARK, AZ, 85340",128858916,"R"
163411,"13813 COPPER CANYON LANE","SPOKANE","WA",99218,NA,NA,411,"13813 COPPER CANYON LANE, SPOKANE, WA, 99218","No_Match",NA,NA,NA,NA
163412,"13813 CUMIN STEET","MORINO VALLEY","CA",92555,33.919982428,-117.210627967,412,"13813 CUMIN STEET, MORINO VALLEY, CA, 92555","Match","Non_Exact","13813 CUMIN ST, MORENO VALLEY, CA, 92553",194819299,"L"
163413,"13813 EXHALL DRIVE","CHESTER","VA",23831,37.332082982,-77.419257672,413,"13813 EXHALL DRIVE, CHESTER, VA, 23831","Match","Exact","13813 EXHALL DR, CHESTER, VA, 23831",201577469,"L"
163414,"13813 FERN VALLEY LANE","LITTLE ROCK","AR",72211,34.733115867,-92.426940153,414,"13813 FERN VALLEY LANE, LITTLE ROCK, AR, 72211","Match","Exact","13813 FERN VALLEY LN, LITTLE ROCK, AR, 72211",625290985,"R"
163415,"13813 GALLANT FOX DR","MIDLOTHIAN","VA",23112,37.3960066820001,-77.651402121,415,"13813 GALLANT FOX DR, MIDLOTHIAN, VA, 23112","Match","Exact","13813 GALLANT FOX DR, MIDLOTHIAN, VA, 23112",201562006,"R"
163416,"13813 LONG RUN DRIVE","HOMER GLEN","IL",60491,41.6365306710001,-87.985920417,416,"13813 LONG RUN DRIVE, HOMER GLEN, IL, 60491","Match","Exact","13813 LONG RUN DR, HOMER GLEN, IL, 60491",111554301,"L"
163417,"13813 MAUGANSVILLE ROAD","MAUGANSVILLE","MD",21767,39.6939950340001,-77.744809812,417,"13813 MAUGANSVILLE ROAD, MAUGANSVILLE, MD, 21767","Match","Exact","13813 MAUGANSVILLE RD, MAUGANSVILLE, MD, 21767",60785082,"R"
163418,"13813 MORNING MIST TR","MEMPHIS","IN",47143,38.470878817,-85.769131164,418,"13813 MORNING MIST TR, MEMPHIS, IN, 47143","Match","Exact","13813 MORNING MIST TRL, MEMPHIS, IN, 47143",64902969,"R"
163419,"13813 N COPPER CANYON LANE","SPOKANE","WA",99218,47.7833357810001,-117.391725846,419,"13813 N COPPER CANYON LANE, SPOKANE, WA, 99218","Match","Non_Exact","13813 N COPPER CANYON LN, SPOKANE, WA, 99208",633822110,"L"
163420,"13813 S OLCOTT AVE","TINLEY PARK","IL",60477,NA,NA,420,"13813 S OLCOTT AVE, TINLEY PARK, IL, 60477","No_Match",NA,NA,NA,NA
163421,"13813 SAVAGE DR","EAGLE RIVER","AL",99577,NA,NA,421,"13813 SAVAGE DR, EAGLE RIVER, AL, 99577","No_Match",NA,NA,NA,NA
163422,"13813 WARWICK BLVD  BLDG D","NEWPORT NEWS","VA",23602,37.125602762,-76.5327115919999,422,"13813 WARWICK BLVD  BLDG D, NEWPORT NEWS, VA, 23602","Match","Exact","13813 WARWICK BLVD, NEWPORT NEWS, VA, 23602",103819996,"L"
163423,"13813 WARWICK BLVD BLDG D","NEWPORT NEWS","VA",23602,37.125602762,-76.5327115919999,423,"13813 WARWICK BLVD BLDG D, NEWPORT NEWS, VA, 23602","Match","Exact","13813 WARWICK BLVD, NEWPORT NEWS, VA, 23602",103819996,"L"
163424,"13813 WARWICK BLVD","NEWPORT NEWS","VA",23602,37.125602762,-76.5327115919999,424,"13813 WARWICK BLVD, NEWPORT NEWS, VA, 23602","Match","Exact","13813 WARWICK BLVD, NEWPORT NEWS, VA, 23602",103819996,"L"
163425,"13814 109TH AVE CT E","PUYALLUP","WA",98374,47.1312467290001,-122.283078598,425,"13814 109TH AVE CT E, PUYALLUP, WA, 98374","Match","Exact","13814 109TH AVENUE CT E, PUYALLUP, WA, 98374",637628199,"R"
163426,"13814 BOWDEN CREEK DR","CYPRESS","TX",77433,29.9706429010001,-95.6566970549999,426,"13814 BOWDEN CREEK DR, CYPRESS, TX, 77433","Match","Non_Exact","13814 BOWDEN CREEK DR, CYPRESS, TX, 77429",96562079,"R"
163427,"13814 CARLENE DRIVE","UPPER MARLBORO","MD",20772,38.8430651940001,-76.767269867,427,"13814 CARLENE DRIVE, UPPER MARLBORO, MD, 20772","Match","Exact","13814 CARLENE DR, UPPER MARLBORO, MD, 20772",76344182,"L"
163428,"13814 CHERYL CREEK DRIVE","EL CAJON","CA",92020,32.8473641940001,-116.890412102,428,"13814 CHERYL CREEK DRIVE, EL CAJON, CA, 92020","Match","Non_Exact","13814 CHERYL CREEK DR, EL CAJON, CA, 92021",633694280,"L"
163429,"13814 DD HWY","NORBORNE","MO",64668,NA,NA,429,"13814 DD HWY, NORBORNE, MO, 64668","No_Match",NA,NA,NA,NA
163430,"13814 DUCHARME DR","DEWITT","MI",48820,42.8153977000001,-84.5865673169999,430,"13814 DUCHARME DR, DEWITT, MI, 48820","Match","Exact","13814 DUCHARME DR, DEWITT, MI, 48820",17298811,"R"
163431,"13814 E 100TH ST","OWASSO","OK",74055,36.298476968,-95.820072664,431,"13814 E 100TH ST, OWASSO, OK, 74055","Match","Non_Exact","13814 E 100TH ST N, OWASSO, OK, 74055",166491834,"R"
163432,"13814 E 600TH AVE","NEWTON","IL",62450,38.9361510250001,-88.1167500299999,432,"13814 E 600TH AVE, NEWTON, IL, 62450","Match","Non_Exact","13814 E 600TH AVE, NEWTON, IL, 62448",27011771,"R"
163433,"13814 E LEHIGH AVE UNIT G","AURORA","CO",80014,39.6472674240001,-104.828197022,433,"13814 E LEHIGH AVE UNIT G, AURORA, CO, 80014","Match","Non_Exact","13814 E LEHIGH AVE, AURORA, CO, 80014",636746844,"R"
163434,"13814 HOLGATE HILL DRIVE","CHARLOTTE","NC",28227,35.1360643950001,-80.663538655,434,"13814 HOLGATE HILL DRIVE, CHARLOTTE, NC, 28227","Match","Exact","13814 HOLGATE HILL DR, CHARLOTTE, NC, 28227",70539771,"R"
163435,"13814 NEWPORT LN","FAIRFAX","VA",20151,38.885942852,-77.4225548969999,435,"13814 NEWPORT LN, FAIRFAX, VA, 20151","Match","Exact","13814 NEWPORT LN, FAIRFAX, VA, 20151",75955250,"R"
163436,"13814 SHERBURN MANOR DR","CYPRESS","TX",77429,29.973153337,-95.6586484809999,436,"13814 SHERBURN MANOR DR, CYPRESS, TX, 77429","Match","Exact","13814 SHERBURN MANOR DR, CYPRESS, TX, 77429",638593376,"R"
163437,"13814 SIGLER STREET","TAMPA","FL",33579,27.7819492130001,-82.330135406,437,"13814 SIGLER STREET, TAMPA, FL, 33579","Match","Non_Exact","13814 SIGLER ST, RIVERVIEW, FL, 33579",104674664,"L"
163438,"13814 W BRILES RD","PEORIA","AZ",85383,33.7216795950001,-112.358034227,438,"13814 W BRILES RD, PEORIA, AZ, 85383","Match","Exact","13814 W BRILES RD, PEORIA, AZ, 85383",640921785,"L"
163439,"13815 BALMORE CIR","HOUSTON","TX",77069,29.9932484550001,-95.51688495,439,"13815 BALMORE CIR, HOUSTON, TX, 77069","Match","Exact","13815 BALMORE CIR, HOUSTON, TX, 77069",96009601,"L"
163440,"13815 BLUFF LANE","SAN ANTONIO","TX",78216,29.571043377,-98.500258849,440,"13815 BLUFF LANE, SAN ANTONIO, TX, 78216","Match","Exact","13815 BLUFF LN, SAN ANTONIO, TX, 78216",101495650,"R"
163441,"13815 BROOK HOLLOW","SAN ANTONIO","TX",78232,29.5709053200001,-98.4619965909999,441,"13815 BROOK HOLLOW, SAN ANTONIO, TX, 78232","Match","Non_Exact","13815 BROOK HOLLOW BLVD, SAN ANTONIO, TX, 78232",101496194,"L"
163442,"13815 CASTLE BLUFF LN","ROSHARON","TX",77583,29.502397386,-95.436417951,442,"13815 CASTLE BLUFF LN, ROSHARON, TX, 77583","Match","Exact","13815 CASTLE BLUFF LN, ROSHARON, TX, 77583",635836406,"R"
163443,"13815 CASTLEBROOK RD","EVANSVILLE","IN",47725,38.1037962240001,-87.515853275,443,"13815 CASTLEBROOK RD, EVANSVILLE, IN, 47725","Match","Non_Exact","13815 CASTLE BROOK RD, EVANSVILLE, IN, 47725",39794083,"L"
163444,"13815 FRANKLIN AVE NO 614","FLUSHING","NY",11355,NA,NA,444,"13815 FRANKLIN AVE NO 614, FLUSHING, NY, 11355","No_Match",NA,NA,NA,NA
163445,"13815 GINGER LANE","GULFPORT","MS",39503,30.490593887,-89.059372228,445,"13815 GINGER LANE, GULFPORT, MS, 39503","Match","Exact","13815 GINGER LN, GULFPORT, MS, 39503",625657368,"L"
163446,"13815 JEFFERSON PARK DRIVE APT 4408","HERNDON","VA",20171,38.9486085030001,-77.422090268,446,"13815 JEFFERSON PARK DRIVE APT 4408, HERNDON, VA, 20171","Match","Exact","13815 JEFFERSON PARK DR, HERNDON, VA, 20171",624434545,"L"
163447,"13815 JEFFERSON PARK DRIVE NUMB4408","HERNDON","VA",20171,38.9486085030001,-77.422090268,447,"13815 JEFFERSON PARK DRIVE NUMB4408, HERNDON, VA, 20171","Match","Exact","13815 JEFFERSON PARK DR, HERNDON, VA, 20171",624434545,"L"
163448,"13815 KINSMAN AVENUE","CLEVELAND","OH",44120,41.46480676,-81.5869670879999,448,"13815 KINSMAN AVENUE, CLEVELAND, OH, 44120","Match","Non_Exact","13815 KINSMAN RD, CLEVELAND, OH, 44120",61127109,"L"
163449,"13815 KNOWLES RD","LOVINGTON","NM",88260,32.857801217,-103.14488669,449,"13815 KNOWLES RD, LOVINGTON, NM, 88260","Match","Exact","13815 KNOWLES RD, LOVINGTON, NM, 88260",636625792,"L"
163450,"13815 N INDIAN RIVER DRIVE","SEBASTIAN","FL",32958,27.8453396580001,-80.483775142,450,"13815 N INDIAN RIVER DRIVE, SEBASTIAN, FL, 32958","Match","Exact","13815 N INDIAN RIVER DR, SEBASTIAN, FL, 32958",611121939,"L"
163451,"13815 PARAGON DR NW","PICKERINGTON","OH",43147,39.934297046,-82.7190554379999,451,"13815 PARAGON DR NW, PICKERINGTON, OH, 43147","Match","Non_Exact","13815 PARAGON DR, PICKERINGTON, OH, 43147",37248042,"R"
163452,"13815 PLANK RD","CLAYTON","MI",49235,41.899162334,-84.258839286,452,"13815 PLANK RD, CLAYTON, MI, 49235","Match","Exact","13815 PLANK RD, CLAYTON, MI, 49235",25941479,"R"
163453,"13815 PLANK ROAD","CLAYTON","MI",49235,41.899162334,-84.258839286,453,"13815 PLANK ROAD, CLAYTON, MI, 49235","Match","Exact","13815 PLANK RD, CLAYTON, MI, 49235",25941479,"R"
163454,"13815 SALVATION ARMY LANE","TAMPA","FL",33613,28.073148799,-82.4537107469999,454,"13815 SALVATION ARMY LANE, TAMPA, FL, 33613","Match","Exact","13815 SALVATION ARMY LN, TAMPA, FL, 33613",104561003,"R"
163455,"13815 SW 67TH PL","MIAMI","FL",33158,25.6430509300001,-80.302973187,455,"13815 SW 67TH PL, MIAMI, FL, 33158","Match","Non_Exact","13815 SW 67TH PL, MIAMI, FL, 33158",116065597,"L"
163456,"13816 248TH AVE SE","MONROE","WA",98272,47.8726071290001,-121.898655082,456,"13816 248TH AVE SE, MONROE, WA, 98272","Match","Exact","13816 248TH AVE SE, MONROE, WA, 98272",608936011,"R"
163457,"13816 CAPTAIN MARBURY LANE","UPPER MARLBORO","MD",20772,38.826909572,-76.766458891,457,"13816 CAPTAIN MARBURY LANE, UPPER MARLBORO, MD, 20772","Match","Exact","13816 CAPTAIN MARBURY LN, UPPER MARLBORO, MD, 20772",76344325,"L"
163458,"13816 CARLOW PARK DRIVE","RIVERVIEW","FL",33579,27.7813041260001,-82.2958807699999,458,"13816 CARLOW PARK DRIVE, RIVERVIEW, FL, 33579","Match","Exact","13816 CARLOW PARK DR, RIVERVIEW, FL, 33579",652186430,"L"
163459,"13816 MAGNOLIA LAKE LANE","HOUSTON","TX",77083,29.697217041,-95.628617294,459,"13816 MAGNOLIA LAKE LANE, HOUSTON, TX, 77083","Match","Exact","13816 MAGNOLIA LAKE LN, HOUSTON, TX, 77083",633576183,"L"
163460,"13816 ROANOKE DRIVE","COTTONDALE","AL",35453,33.0825410590001,-87.376454402,460,"13816 ROANOKE DRIVE, COTTONDALE, AL, 35453","Match","Exact","13816 ROANOKE DR, COTTONDALE, AL, 35453",82212233,"L"
163461,"13816 SHELLY LANE","BURNSVILLE","MN",55337,44.752282639,-93.309682847,461,"13816 SHELLY LANE, BURNSVILLE, MN, 55337","Match","Exact","13816 SHELLY LN, BURNSVILLE, MN, 55337",37903221,"R"
163462,"13816 STANFORD DR","CARMEL","IN",46074,39.987049443,-86.220060323,462,"13816 STANFORD DR, CARMEL, IN, 46074","Match","Exact","13816 STANFORD DR, CARMEL, IN, 46074",618464564,"L"
163463,"13816 TRAPP ROAD","ALPENA","MI",49707,45.223843453,-83.515339043,463,"13816 TRAPP ROAD, ALPENA, MI, 49707","Match","Exact","13816 TRAPP RD, ALPENA, MI, 49707",130758939,"L"
163464,"13816 VICTORIA LAKES DRIVE","JACKSONVILLE","FL",32226,30.485993211,-81.573654376,464,"13816 VICTORIA LAKES DRIVE, JACKSONVILLE, FL, 32226","Match","Exact","13816 VICTORIA LAKES DR, JACKSONVILLE, FL, 32226",640771272,"L"
163465,"13817 BRADSHAW STREET","OVERLAND PARK","KS",66221,38.876648491,-94.7369697829999,465,"13817 BRADSHAW STREET, OVERLAND PARK, KS, 66221","Match","Exact","13817 BRADSHAW ST, OVERLAND PARK, KS, 66221",91356360,"R"
163466,"13817 CASTLE BLVD","SILVER SPRING","MD",20904,NA,NA,466,"13817 CASTLE BLVD, SILVER SPRING, MD, 20904","No_Match",NA,NA,NA,NA
163467,"13817 CASTLE BLVD","SILVERSPRING","MD",20904,NA,NA,467,"13817 CASTLE BLVD, SILVERSPRING, MD, 20904","No_Match",NA,NA,NA,NA
163468,"13817 COUNTY ROAD 20","WEST UNITY","OH",43570,41.6137306150001,-84.4391747929999,468,"13817 COUNTY ROAD 20, WEST UNITY, OH, 43570","Match","Exact","13817 CO RD 20, WEST UNITY, OH, 43570",207465594,"L"
163469,"13817 EAGLES GLEN CT","ORLANDO","FL",32837,28.361229635,-81.3998229279999,469,"13817 EAGLES GLEN CT, ORLANDO, FL, 32837","Match","Exact","13817 EAGLES GLEN CT, ORLANDO, FL, 32837",94396495,"R"
163470,"13817 EAST 30TH","TULSA","OK",74134,36.120427449,-95.821217711,470,"13817 EAST 30TH, TULSA, OK, 74134","Match","Non_Exact","13817 E 30TH ST, TULSA, OK, 74134",166457721,"L"
163471,"13817 LOS COCHES ROAD EAST","EL CAJON","CA",92021,32.8357735380001,-116.894828464,471,"13817 LOS COCHES ROAD EAST, EL CAJON, CA, 92021","Match","Exact","13817 LOS COCHES RD E, EL CAJON, CA, 92021",195333220,"R"
163472,"13817 MALLARD LAKE","CHARLOTTE","NC",28262,35.3437236170001,-80.725602395,472,"13817 MALLARD LAKE, CHARLOTTE, NC, 28262","Match","Non_Exact","13817 MALLARD LAKE RD, CHARLOTTE, NC, 28262",618152418,"R"
163473,"13817 S PETERSBURG DR","PLAINFIELD","IL",60544,41.632310262,-88.155634503,473,"13817 S PETERSBURG DR, PLAINFIELD, IL, 60544","Match","Exact","13817 S PETERSBURG DR, PLAINFIELD, IL, 60544",111608392,"L"
163474,"13817 SE 42ND PL","BELLEVUE","WA",98006,47.570512423,-122.155605225,474,"13817 SE 42ND PL, BELLEVUE, WA, 98006","Match","Exact","13817 SE 42ND PL, BELLEVUE, WA, 98006",239779805,"L"
163475,"13818 106TH ST E","PUYALLUP","WA",98374,47.1599070230001,-122.245247998,475,"13818 106TH ST E, PUYALLUP, WA, 98374","Match","Exact","13818 106TH ST E, PUYALLUP, WA, 98374",651801452,"R"
163476,"13818 BELLE POINTE DR","LITTLE ROCK","AR",72212,34.7689140800001,-92.430292188,476,"13818 BELLE POINTE DR, LITTLE ROCK, AR, 72212","Match","Exact","13818 BELLE POINTE DR, LITTLE ROCK, AR, 72212",83532169,"L"
163477,"13818 BENEDETTA","SAN ANTONIO","TX",78253,29.4276553300001,-98.770099232,477,"13818 BENEDETTA, SAN ANTONIO, TX, 78253","Match","Exact","13818 BENEDETTA, SAN ANTONIO, TX, 78253",645146209,"L"
163478,"13818 CASTLE BLVD APT 103","SILVER SPRING","MD",20904,39.0821814820001,-76.9443222359999,478,"13818 CASTLE BLVD APT 103, SILVER SPRING, MD, 20904","Match","Exact","13818 CASTLE BLVD, SILVER SPRING, MD, 20904",62094097,"L"
163479,"13818 CROSSHAVEN DRIVE","HOUSTON","TX",77015,29.799119858,-95.177978879,479,"13818 CROSSHAVEN DRIVE, HOUSTON, TX, 77015","Match","Non_Exact","13818 CROSSHAVEN, HOUSTON, TX, 77015",96095928,"R"
163480,"13818 CROSSTIE DRIVE","GERMANTOWN","MD",20874,39.169538598,-77.286663495,480,"13818 CROSSTIE DRIVE, GERMANTOWN, MD, 20874","Match","Exact","13818 CROSSTIE DR, GERMANTOWN, MD, 20874",62091732,"L"
163481,"13818 DREAM CV","SAN ANTONIO","TX",78249,29.5732071950001,-98.585100477,481,"13818 DREAM CV, SAN ANTONIO, TX, 78249","Match","Exact","13818 DREAM COVE, SAN ANTONIO, TX, 78249",623998484,"L"
163482,"13818 E 42ND AVE","SPOKANE VALLEY","WA",99206,47.6163549730001,-117.219253731,482,"13818 E 42ND AVE, SPOKANE VALLEY, WA, 99206","Match","Exact","13818 E 42ND AVE, SPOKANE VALLEY, WA, 99206",189891022,"L"
163483,"13818 FAUST AVE","BELLFLOWER","CA",90706,33.9054353810001,-118.115365176,483,"13818 FAUST AVE, BELLFLOWER, CA, 90706","Match","Exact","13818 FAUST AVE, BELLFLOWER, CA, 90706",141740426,"L"
163484,"13818 FLANDERS","SOUTHGATE","MI",48195,42.20733291,-83.226548416,484,"13818 FLANDERS, SOUTHGATE, MI, 48195","Match","Non_Exact","13818 FLANDERS ST, SOUTHGATE, MI, 48195",95743355,"R"
163485,"13818 GLADE HOLLOW DRIVE","HOUSTON","TX",77014,29.9687301650001,-95.440853149,485,"13818 GLADE HOLLOW DRIVE, HOUSTON, TX, 77014","Match","Exact","13818 GLADE HOLLOW DR, HOUSTON, TX, 77014",96129991,"R"
163486,"13818 HARRIER WAY","CLARKSBURG","MD",20871,39.2184757260001,-77.2864044039999,486,"13818 HARRIER WAY, CLARKSBURG, MD, 20871","Match","Exact","13818 HARRIER WAY, CLARKSBURG, MD, 20871",650638207,"R"
163487,"13818 LULLABY ROAD","GERMANTOWN","MD",20874,39.177286612,-77.283806721,487,"13818 LULLABY ROAD, GERMANTOWN, MD, 20874","Match","Exact","13818 LULLABY RD, GERMANTOWN, MD, 20874",618604442,"L"
163488,"13818 NW 7 AVE","MIAMI","FL",33168,25.901362927,-80.211429379,488,"13818 NW 7 AVE, MIAMI, FL, 33168","Match","Exact","13818 NW 7TH AVE, MIAMI, FL, 33168",116254189,"L"
163489,"13818 PORTER RD","CHARLOTTE","NC",28262,NA,NA,489,"13818 PORTER RD, CHARLOTTE, NC, 28262","No_Match",NA,NA,NA,NA
163490,"13818 SW 152 ST STE 257","MIAMI","FL",33177,NA,NA,490,"13818 SW 152 ST STE 257, MIAMI, FL, 33177","No_Match",NA,NA,NA,NA
163491,"13818 W EARLL DR","AVONDALE","AZ",85392,33.483585115,-112.356271618,491,"13818 W EARLL DR, AVONDALE, AZ, 85392","Match","Exact","13818 EARLL DR, AVONDALE, AZ, 85392",128870799,"R"
163492,"13819 93RD AVE NW","GIG HARBOR","WA",98329,47.3840195390001,-122.662784143,492,"13819 93RD AVE NW, GIG HARBOR, WA, 98329","Match","Exact","13819 93RD AVE NW, GIG HARBOR, WA, 98329",625602540,"R"
163493,"13819 BLUE VISTA DRIVE","SUGAR LAND","TX",77498,29.6547333230001,-95.632218973,493,"13819 BLUE VISTA DRIVE, SUGAR LAND, TX, 77498","Match","Exact","13819 BLUE VISTA DR, SUGAR LAND, TX, 77498",617959413,"L"
163494,"13819 SE 76TH PLACE","NEWCASTLE","WA",98059,47.5348343050001,-122.155149559,494,"13819 SE 76TH PLACE, NEWCASTLE, WA, 98059","Match","Exact","13819 SE 76TH PL, NEWCASTLE, WA, 98059",186958714,"R"
163495,"13819 SHERMAN WAY APT 4","VAN NUYS","CA",92405,34.2012073650001,-118.433761178,495,"13819 SHERMAN WAY APT 4, VAN NUYS, CA, 92405","Match","Non_Exact","13819 SHERMAN WAY, VAN NUYS, CA, 91405",141561204,"R"
163496,"13819 WOODTHORPE LANE","HOUSTON","TX",77079,29.7762855170001,-95.58656717,496,"13819 WOODTHORPE LANE, HOUSTON, TX, 77079","Match","Exact","13819 WOODTHORPE LN, HOUSTON, TX, 77079",96022137,"L"
163497,"1381W  MCNICHOLS","DETROIT","MI",48235,NA,NA,497,"1381W  MCNICHOLS, DETROIT, MI, 48235","No_Match",NA,NA,NA,NA
163498,"1382 4H CAMP ROAD","MORGANTOWN","WV",26508,39.5508428030001,-79.981105307,498,"1382 4H CAMP ROAD, MORGANTOWN, WV, 26508","Match","Non_Exact","1382 4 H CAMP RD, MORGANTOWN, WV, 26508",648362653,"L"
163499,"1382 52ND AVE NE","ST PETERSBURG","FL",33703,27.819937915,-82.6133160099999,499,"1382 52ND AVE NE, ST PETERSBURG, FL, 33703","Match","Exact","1382 52ND AVE NE, SAINT PETERSBURG, FL, 33703",124712557,"R"
163500,"1382 A STREET","HAYWARD","CA",94541,37.6784250050001,-122.077587404,500,"1382 A STREET, HAYWARD, CA, 94541","Match","Exact","1382 A ST, HAYWARD, CA, 94541",125021187,"L"
