"ID","Address","City","State","Zip","lat","long","id","input_address","match_indicator","match_type","matched_address","tiger_line_id","tiger_side"
735001,"5703 SAWMILL BEND","SUGARLAND","TX",77479,29.573434654,-95.6803356839999,1,"5703 SAWMILL BEND, SUGARLAND, TX, 77479","Match","Non_Exact","5703 SAWMILL BEND LN, SUGAR LAND, TX, 77479",635386264,"L"
735002,"5703 SHELLBOURNES HILL","COLLEGE STATION","TX",77845,30.55850273,-96.363088655,2,"5703 SHELLBOURNES HILL, COLLEGE STATION, TX, 77845","Match","Exact","5703 SHELLBOURNES HILL, COLLEGE STATION, TX, 77845",636471118,"R"
735003,"5703 SOUTH MAGAZINE CIR","HOUSTON","TX",77084,29.8583491480001,-95.6274519249999,3,"5703 SOUTH MAGAZINE CIR, HOUSTON, TX, 77084","Match","Exact","5703 S MAGAZINE CIR, HOUSTON, TX, 77084",96552721,"R"
735004,"5703 SOUTH VICTOR ST","SEATTLE","WA",98178,47.510547343,-122.261895558,4,"5703 SOUTH VICTOR ST, SEATTLE, WA, 98178","Match","Exact","5703 S VICTOR ST, SEATTLE, WA, 98178",186629437,"R"
735005,"5703 STEDMAN RD","IONIA","MI",48846,43.071553753,-85.0353761699999,5,"5703 STEDMAN RD, IONIA, MI, 48846","Match","Exact","5703 STEDMAN RD, IONIA, MI, 48846",624126486,"L"
735006,"5703 STRASBURG RD","GAP","PA",17527,39.9724209340001,-75.985928529,6,"5703 STRASBURG RD, GAP, PA, 17527","Match","Exact","5703 STRASBURG RD, GAP, PA, 17527",179762926,"L"
735007,"5703 TORTOISE PLACE","APOLLO BEACH","FL",33572,27.754410884,-82.423548873,7,"5703 TORTOISE PLACE, APOLLO BEACH, FL, 33572","Match","Exact","5703 TORTOISE PL, APOLLO BEACH, FL, 33572",104675005,"R"
735008,"5703 W VICTORY WAY","FLORENCE","AZ",85132,33.0610468830001,-111.457231011,8,"5703 W VICTORY WAY, FLORENCE, AZ, 85132","Match","Exact","5703 W VICTORY WAY, FLORENCE, AZ, 85132",647407982,"L"
735009,"5703 WEBSTER ST SUITE J","DAYTON","OH",45414,NA,NA,9,"5703 WEBSTER ST SUITE J, DAYTON, OH, 45414","No_Match",NA,NA,NA,NA
735010,"5703 WEST ELKTON ROAD","SOMERVILLE","OH",45064,39.5312342180001,-84.552989639,10,"5703 WEST ELKTON ROAD, SOMERVILLE, OH, 45064","Match","Exact","5703 W ELKTON RD, SOMERVILLE, OH, 45064",652706258,"R"
735011,"5703 WESTGATE RD","LANHAM","MD",20706,38.9633821470001,-76.85362686,11,"5703 WESTGATE RD, LANHAM, MD, 20706","Match","Exact","5703 WESTGATE RD, LANHAM, MD, 20706",76308669,"R"
735012,"5703 WINDLESTRAW DR APT 28","DURHAM","NC",27713,35.9206141540001,-78.9280110719999,12,"5703 WINDLESTRAW DR APT 28, DURHAM, NC, 27713","Match","Exact","5703 WINDLESTRAW DR, DURHAM, NC, 27713",71748468,"L"
735013,"5703 WOODGATE DR","MATTESON","IL",60443,41.525818863,-87.75446263,13,"5703 WOODGATE DR, MATTESON, IL, 60443","Match","Exact","5703 WOODGATE DR, MATTESON, IL, 60443",111707162,"L"
735014,"5704 24TH AVE S","MINNEAPOLIS","MN",55417,44.8996385890001,-93.2374732389999,14,"5704 24TH AVE S, MINNEAPOLIS, MN, 55417","Match","Exact","5704 24TH AVE S, MINNEAPOLIS, MN, 55417",43639564,"R"
735015,"5704 77TH STREET","LUBBOCK","TX",79424,33.5240292020001,-101.936329089,15,"5704 77TH STREET, LUBBOCK, TX, 79424","Match","Exact","5704 77TH ST, LUBBOCK, TX, 79424",185252074,"R"
735016,"5704 8TH AVENUE - SUITE 3R","BROOKLYN","NY",11220,40.6371373750001,-74.007857196,16,"5704 8TH AVENUE - SUITE 3R, BROOKLYN, NY, 11220","Match","Exact","5704 8TH AVE, BROOKLYN, NY, 11220",59094846,"R"
735017,"5704 AVENUE F","AUSTIN","TX",78752,30.3222190000001,-97.718451892,17,"5704 AVENUE F, AUSTIN, TX, 78752","Match","Exact","5704 AVE F, AUSTIN, TX, 78752",63931677,"L"
735018,"5704 AVERY ROAD","DUBLIN","OH",43016,40.082718512,-83.158400356,18,"5704 AVERY ROAD, DUBLIN, OH, 43016","Match","Exact","5704 AVERY RD, DUBLIN, OH, 43016",218695661,"R"
735019,"5704 BEAR STONE RUN","OVIEDO","FL",32765,28.633168939,-81.230097254,19,"5704 BEAR STONE RUN, OVIEDO, FL, 32765","Match","Exact","5704 BEAR STONE RUN, OVIEDO, FL, 32765",93783836,"L"
735020,"5704 BRAINERD ROAD","CHATTANOOGA","TN",37411,35.0116182130001,-85.214194219,20,"5704 BRAINERD ROAD, CHATTANOOGA, TN, 37411","Match","Exact","5704 BRAINERD RD, CHATTANOOGA, TN, 37411",59315446,"R"
735021,"5704 BREWSTER LANE","ERIE","PA",16505,42.075568821,-80.2091760879999,21,"5704 BREWSTER LANE, ERIE, PA, 16505","Match","Exact","5704 BREWSTER LN, ERIE, PA, 16505",117491876,"R"
735022,"5704 CHAPMAN MILL DRIVE SUITE 130","ROCKVILLE","MD",20852,39.0354704380001,-77.115554975,22,"5704 CHAPMAN MILL DRIVE SUITE 130, ROCKVILLE, MD, 20852","Match","Exact","5704 CHAPMAN MILL DR, ROCKVILLE, MD, 20852",641038583,"L"
735023,"5704 CHEROKEE DRAW RD","AUSTIN","TX",78738,30.3265590620001,-98.028455256,23,"5704 CHEROKEE DRAW RD, AUSTIN, TX, 78738","Match","Exact","5704 CHEROKEE DRAW RD, AUSTIN, TX, 78738",641755124,"L"
735024,"5704 CORAL LAKE DRIVE","MARGATE","FL",33063,26.2651499310001,-80.196538778,24,"5704 CORAL LAKE DRIVE, MARGATE, FL, 33063","Match","Exact","5704 CORAL LAKE DR, MARGATE, FL, 33063",647921036,"L"
735025,"5704 COUNTY RD 6","FLORENCE","AL",35633,34.902706886,-87.777807614,25,"5704 COUNTY RD 6, FLORENCE, AL, 35633","Match","Exact","5704 CO RD 6, FLORENCE, AL, 35633",41312282,"L"
735026,"5704 CRECY COURT","BRYANS ROAD","MD",20616,38.6307442630001,-77.081475999,26,"5704 CRECY COURT, BRYANS ROAD, MD, 20616","Match","Exact","5704 CRECY CT, BRYANS ROAD, MD, 20616",25391583,"R"
735027,"5704 CROMWELL DR","BETHESDA","MD",20816,38.9658733410001,-77.116639918,27,"5704 CROMWELL DR, BETHESDA, MD, 20816","Match","Exact","5704 CROMWELL DR, BETHESDA, MD, 20816",62058917,"L"
735028,"5704 CROYDEN CIR","WICHITA","KS",67220,37.7274171490001,-97.268940205,28,"5704 CROYDEN CIR, WICHITA, KS, 67220","Match","Non_Exact","5704 E CROYDEN CIR, WICHITA, KS, 67220",115639279,"L"
735029,"5704 DARLENE DR","CLINTON","MD",20735,38.748915234,-76.906715318,29,"5704 DARLENE DR, CLINTON, MD, 20735","Match","Exact","5704 DARLENE DR, CLINTON, MD, 20735",76317509,"L"
735030,"5704 DIODORA WAY APT 1","TAMPA","FL",33615,27.983929629,-82.5656632179999,30,"5704 DIODORA WAY APT 1, TAMPA, FL, 33615","Match","Exact","5704 DIODORA WAY, TAMPA, FL, 33615",104625735,"L"
735031,"5704 E 44TH ST","TULSA","OK",74135,36.0995559040001,-95.9125809239999,31,"5704 E 44TH ST, TULSA, OK, 74135","Match","Exact","5704 E 44TH ST, TULSA, OK, 74135",166450848,"R"
735032,"5704 E AIRE LIBRE AVE UNIT 1108","SCOTTSDALE","AZ",85254,33.6368885520001,-111.957648171,32,"5704 E AIRE LIBRE AVE UNIT 1108, SCOTTSDALE, AZ, 85254","Match","Non_Exact","5704 E AIRE LIBRE AVE, SCOTTSDALE, AZ, 85254",640590265,"R"
735033,"5704 E AIRE LIBRE AVE","SCOTTSDALE","AZ",85254,33.6368885520001,-111.957648171,33,"5704 E AIRE LIBRE AVE, SCOTTSDALE, AZ, 85254","Match","Exact","5704 E AIRE LIBRE AVE, SCOTTSDALE, AZ, 85254",640590265,"R"
735034,"5704 E GRANT ROAD","TUCSON","AZ",85712,32.2506615510001,-110.870288346,34,"5704 E GRANT ROAD, TUCSON, AZ, 85712","Match","Exact","5704 E GRANT RD, TUCSON, AZ, 85712",606805128,"R"
735035,"5704 FALLING BARK DR","MEMPHIS","TN",38134,35.180603825,-89.8742925669999,35,"5704 FALLING BARK DR, MEMPHIS, TN, 38134","Match","Exact","5704 FALLING BARK DR, MEMPHIS, TN, 38134",610492367,"R"
735036,"5704 FIELDBROOK DR","E. AMHERST","NY",14051,43.003813144,-78.691790372,36,"5704 FIELDBROOK DR, E. AMHERST, NY, 14051","Match","Non_Exact","5704 FIELD BROOK DR, EAST AMHERST, NY, 14051",645596305,"R"
735037,"5704 FOREST COURT","GARY","IN",46403,41.6140846530001,-87.270634724,37,"5704 FOREST COURT, GARY, IN, 46403","Match","Exact","5704 FOREST CT, GARY, IN, 46403",606327140,"L"
735038,"5704 GREEN PINE ROAD","CEDAR GROVE","NC",27231,36.1789095340001,-79.1304478169999,38,"5704 GREEN PINE ROAD, CEDAR GROVE, NC, 27231","Match","Exact","5704 GREEN PINE RD, CEDAR GROVE, NC, 27231",72423948,"L"
735039,"5704 HARRODS GLEN DRIVE","40059","KY",40059,38.3288548190001,-85.608159078,39,"5704 HARRODS GLEN DRIVE, 40059, KY, 40059","Match","Non_Exact","5704 HARRODS GLEN DR, RIVER BLUFF, KY, 40059",647012255,"L"
735040,"5704 HARRODS GLEN DRIVE","PROSPECT","KY",40059,38.3288548190001,-85.608159078,40,"5704 HARRODS GLEN DRIVE, PROSPECT, KY, 40059","Match","Exact","5704 HARRODS GLEN DR, PROSPECT, KY, 40059",647012255,"L"
735041,"5704 HIBERNIA DR STE C","COLUMBUS","OH",43232,39.9520689460001,-82.8485358359999,41,"5704 HIBERNIA DR STE C, COLUMBUS, OH, 43232","Match","Exact","5704 HIBERNIA DR, COLUMBUS, OH, 43232",218649956,"R"
735042,"5704 HUNTINGTON PARKWAY","BETHESDA","MD",20814,38.992630848,-77.116008042,42,"5704 HUNTINGTON PARKWAY, BETHESDA, MD, 20814","Match","Exact","5704 HUNTINGTON PKWY, BETHESDA, MD, 20814",62058417,"L"
735043,"5704 KENDRICK LN","CUMMING","GA",30041,34.1415463810001,-84.123980568,43,"5704 KENDRICK LN, CUMMING, GA, 30041","Match","Exact","5704 KENDRICK LN, CUMMING, GA, 30041",635778981,"R"
735044,"5704 KIRKHAM CT","SPRINGFIELD","VA",22151,38.800610265,-77.237442862,44,"5704 KIRKHAM CT, SPRINGFIELD, VA, 22151","Match","Exact","5704 KIRKHAM CT, SPRINGFIELD, VA, 22151",76033581,"L"
735045,"5704 LEGATION COURT","NEW CARROLLTON","MD",20784,38.9601955970001,-76.8689997069999,45,"5704 LEGATION COURT, NEW CARROLLTON, MD, 20784","Match","Exact","5704 LEGATION CT, NEW CARROLLTON, MD, 20784",76309524,"L"
735046,"5704 LOCHNESS COURT","FAYETTEVILLE","NC",28304,35.023372124,-78.974688049,46,"5704 LOCHNESS COURT, FAYETTEVILLE, NC, 28304","Match","Exact","5704 LOCHNESS CT, FAYETTEVILLE, NC, 28304",64196303,"R"
735047,"5704 LUV RD","PLATTSMOUTH","NE",68048,41.023977249,-95.999997209,47,"5704 LUV RD, PLATTSMOUTH, NE, 68048","Match","Exact","5704 LUV RD, PLATTSMOUTH, NE, 68048",10370679,"L"
735048,"5704 MILLER ROAD","ROME","OH",44085,41.594688999,-80.8003085249999,48,"5704 MILLER ROAD, ROME, OH, 44085","Match","Exact","5704 MILLER RD, ROME, OH, 44085",117321445,"R"
735049,"5704 MITCHELL RD","RIDGEWAY","VA",24148,36.5922309950001,-79.823176038,49,"5704 MITCHELL RD, RIDGEWAY, VA, 24148","Match","Exact","5704 MITCHELL RD, RIDGEWAY, VA, 24148",55527388,"L"
735050,"5704 N GILLES RD","EDWARDS","IL",61528,40.7629670900001,-89.72770794,50,"5704 N GILLES RD, EDWARDS, IL, 61528","Match","Exact","5704 N GILLES RD, EDWARDS, IL, 61528",8727323,"R"
735051,"5704 N POLK DRIVE","KANSAS CITY","MO",64151,39.1977504210001,-94.63648224,51,"5704 N POLK DRIVE, KANSAS CITY, MO, 64151","Match","Exact","5704 N POLK DR, KANSAS CITY, MO, 64151",39703144,"R"
735052,"5704 N WILKINSON ROAD","PARADISE VALLEY","AZ",85253,33.5196498220001,-111.941026832,52,"5704 N WILKINSON ROAD, PARADISE VALLEY, AZ, 85253","Match","Exact","5704 N WILKINSON RD, PARADISE VALLEY, AZ, 85253",128278116,"L"
735053,"5704 NEWHOLME AVENUE","BALTIMORE","MD",21206,39.337088431,-76.538637658,53,"5704 NEWHOLME AVENUE, BALTIMORE, MD, 21206","Match","Exact","5704 NEWHOLME AVE, BALTIMORE, MD, 21206",206412231,"L"
735054,"5704 NEWPORT DR","EDINA","MN",55436,44.9020238260001,-93.3900038629999,54,"5704 NEWPORT DR, EDINA, MN, 55436","Match","Exact","5704 NEWPORT DR, EDINA, MN, 55436",43827692,"R"
735055,"5704 NORTH G STREET","SAN BERNARDINO","CA",92407,34.181097392,-117.299071908,55,"5704 NORTH G STREET, SAN BERNARDINO, CA, 92407","Match","Exact","5704 N G ST, SAN BERNARDINO, CA, 92407",144701439,"L"
735056,"5704 NW 109TH STREET","OKLAHOMA CITY","OK",73162,35.5820838920001,-97.618512801,56,"5704 NW 109TH STREET, OKLAHOMA CITY, OK, 73162","Match","Exact","5704 NW 109TH ST, OKLAHOMA CITY, OK, 73162",100388154,"L"
735057,"5704 OAK APPLE COURT","BURKE","VA",22015,38.797800603,-77.3195530359999,57,"5704 OAK APPLE COURT, BURKE, VA, 22015","Match","Exact","5704 OAK APPLE CT, BURKE, VA, 22015",75967604,"L"
735058,"5704 ORANGE AVENUE","LONG BEACH","CA",90805,33.859340483,-118.177268308,58,"5704 ORANGE AVENUE, LONG BEACH, CA, 90805","Match","Exact","5704 ORANGE AVE, LONG BEACH, CA, 90805",141684579,"R"
735059,"5704 PANDALE","SAN ANTONIO","TX",78261,29.6596956180001,-98.376648023,59,"5704 PANDALE, SAN ANTONIO, TX, 78261","Match","Exact","5704 PANDALE, SAN ANTONIO, TX, 78261",101705197,"R"
735060,"5704 PRENTER ROAD","SETH","WV",25181,38.078372878,-81.639429224,60,"5704 PRENTER ROAD, SETH, WV, 25181","Match","Exact","5704 PRENTER RD, SETH, WV, 25181",78559818,"L"
735061,"5704 RIVER HIGHLANDS","MCKINNEY","TX",75070,33.143710416,-96.729125605,61,"5704 RIVER HIGHLANDS, MCKINNEY, TX, 75070","Match","Non_Exact","5704 RIVER HIGHLANDS DR, MCKINNEY, TX, 75070",616524765,"R"
735062,"5704 RIVERRE DR","ORLANDO","FL",32808,NA,NA,62,"5704 RIVERRE DR, ORLANDO, FL, 32808","No_Match",NA,NA,NA,NA
735063,"5704 RUNNING DEER TR","MCFARLAND","WI",53558,43.015308399,-89.2801349389999,63,"5704 RUNNING DEER TR, MCFARLAND, WI, 53558","Match","Exact","5704 RUNNING DEER TRL, MCFARLAND, WI, 53558",639592252,"R"
735064,"5704 S 161ST AVENUE","OMAHA","NE",68135,41.1997251660001,-96.1672206009999,64,"5704 S 161ST AVENUE, OMAHA, NE, 68135","Match","Exact","5704 S 161ST AVE, OMAHA, NE, 68135",633149836,"R"
735065,"5704 SILK TREE DR","RIVERDALE","MD",20770,38.969517786,-76.9072968849999,65,"5704 SILK TREE DR, RIVERDALE, MD, 20770","Match","Non_Exact","5704 SILK TREE DR, RIVERDALE, MD, 20737",76350549,"R"
735066,"5704 SILVER SPUR","MCKINNEY","TX",75070,33.156096952,-96.6899860839999,66,"5704 SILVER SPUR, MCKINNEY, TX, 75070","Match","Non_Exact","5704 SILVER SPR, MCKINNEY, TX, 75070",635800960,"L"
735067,"5704 SILVER SPUR","MKINNEY","TX",75070,33.156096952,-96.6899860839999,67,"5704 SILVER SPUR, MKINNEY, TX, 75070","Match","Non_Exact","5704 SILVER SPR, MC KINNEY, TX, 75070",635800960,"L"
735068,"5704 SW LONGSPUR LANE","PALM CITY","FL",34990,27.1353480380001,-80.283388986,68,"5704 SW LONGSPUR LANE, PALM CITY, FL, 34990","Match","Exact","5704 SW LONGSPUR LN, PALM CITY, FL, 34990",650012209,"L"
735069,"5704 TIBURON CT","HANOVER PARK","IL",60133,41.9758736210001,-88.134729079,69,"5704 TIBURON CT, HANOVER PARK, IL, 60133","Match","Exact","5704 TIBURON CT, HANOVER PARK, IL, 60133",112595166,"L"
735070,"5704 TIERRA VIVA PLACE NW","ALBUQUERQUE","NM",87107,35.142789194,-106.658354843,70,"5704 TIERRA VIVA PLACE NW, ALBUQUERQUE, NM, 87107","Match","Exact","5704 TIERRA VIVA PL NW, ALBUQUERQUE, NM, 87107",645268461,"R"
735071,"5704 TURTLE CV","RALEIGH","NC",27609,NA,NA,71,"5704 TURTLE CV, RALEIGH, NC, 27609","Tie",NA,NA,NA,NA
735072,"5704 WEST MARKET STREET UNIT 19928","GREENSBORO","NC",27419,36.0765510680001,-79.89417007,72,"5704 WEST MARKET STREET UNIT 19928, GREENSBORO, NC, 27419","Match","Non_Exact","5704 W MARKET ST, GREENSBORO, NC, 27409",636625522,"R"
735073,"5704 YORKTOWN ROAD","PLAINFIELD","IN",46168,39.706348346,-86.4261736729999,73,"5704 YORKTOWN ROAD, PLAINFIELD, IN, 46168","Match","Exact","5704 YORKTOWN RD, PLAINFIELD, IN, 46168",635486178,"L"
735074,"5705 31ST PLACE","HYATTSVILLE","MD",20782,38.959923315,-76.965009282,74,"5705 31ST PLACE, HYATTSVILLE, MD, 20782","Match","Exact","5705 31ST PL, HYATTSVILLE, MD, 20782",76304317,"R"
735075,"5705 47TH ST NE","MARYSVILLE","WA",98270,48.0385721380001,-122.15185744,75,"5705 47TH ST NE, MARYSVILLE, WA, 98270","Match","Exact","5705 47TH ST NE, MARYSVILLE, WA, 98270",617631964,"R"
735076,"5705 64TH PL","RIVERDALE","MD",20737,38.956445746,-76.909024388,76,"5705 64TH PL, RIVERDALE, MD, 20737","Match","Exact","5705 64TH PL, RIVERDALE, MD, 20737",76307247,"R"
735077,"5705 75TH ST NE","SAUK RAPIDS","MN",56379,45.6765777360001,-94.0460052349999,77,"5705 75TH ST NE, SAUK RAPIDS, MN, 56379","Match","Exact","5705 75TH ST NE, SAUK RAPIDS, MN, 56379",642788057,"R"
735078,"5705 90TH AVENUE CIRCLE EAST","PARRISH","FL",34219,27.5652246070001,-82.472651172,78,"5705 90TH AVENUE CIRCLE EAST, PARRISH, FL, 34219","Match","Exact","5705 90TH AVENUE CIR E, PARRISH, FL, 34219",627946808,"L"
735079,"5705 91ST ST","LUBBOCK","TX",79424,33.5107714220001,-101.936317895,79,"5705 91ST ST, LUBBOCK, TX, 79424","Match","Exact","5705 91ST ST, LUBBOCK, TX, 79424",185252177,"R"
735080,"5705 ANTIOCH DRIVE","ROWLETT","TX",75089,32.909496303,-96.589423916,80,"5705 ANTIOCH DRIVE, ROWLETT, TX, 75089","Match","Exact","5705 ANTIOCH DR, ROWLETT, TX, 75089",638371323,"L"
735081,"5705 APRICOT LANE","HILLIARD","OH",43026,39.989793272,-83.157334884,81,"5705 APRICOT LANE, HILLIARD, OH, 43026","Match","Exact","5705 APRICOT LN, HILLIARD, OH, 43026",135631473,"R"
735082,"5705 AVOCADO BLLVD","WEST PALM BEACH","FL",33463,NA,NA,82,"5705 AVOCADO BLLVD, WEST PALM BEACH, FL, 33463","No_Match",NA,NA,NA,NA
735083,"5705 BENT OAK PLACE","DALLAS","TX",75248,32.974063632,-96.81678522,83,"5705 BENT OAK PLACE, DALLAS, TX, 75248","Match","Exact","5705 BENT OAK PL, DALLAS, TX, 75248",102895885,"L"
735084,"5705 BRAMBLEWOOD DRIVE","RALEIGH","NC",27612,35.860241726,-78.678878724,84,"5705 BRAMBLEWOOD DRIVE, RALEIGH, NC, 27612","Match","Exact","5705 BRAMBLEWOOD DR, RALEIGH, NC, 27612",72516360,"R"
735085,"5705 BRAYTON PARK PLACE","HOLLY SPRINGS","NC",27540,35.6301513990001,-78.840187387,85,"5705 BRAYTON PARK PLACE, HOLLY SPRINGS, NC, 27540","Match","Exact","5705 BRAYTON PARK PL, HOLLY SPRINGS, NC, 27540",72628415,"L"
735086,"5705 BRAZILWOOD CT","HARLINGEN","TX",78552,26.189740429,-97.7527317619999,86,"5705 BRAZILWOOD CT, HARLINGEN, TX, 78552","Match","Exact","5705 BRAZILWOOD CT, HARLINGEN, TX, 78552",89995482,"R"
735087,"5705 BRENTRIDGE DR","SHOREWOOD","MN",55331,44.900749751,-93.628449944,87,"5705 BRENTRIDGE DR, SHOREWOOD, MN, 55331","Match","Exact","5705 BRENTRIDGE DR, SHOREWOOD, MN, 55331",43838881,"L"
735088,"5705 BRENTWOOD TRCE","BRENTWOOD","TN",37027,36.0399503020001,-86.7758420069999,88,"5705 BRENTWOOD TRCE, BRENTWOOD, TN, 37027","Match","Exact","5705 BRENTWOOD TRCE, BRENTWOOD, TN, 37027",625256829,"R"
735089,"5705 BRIGSTOCK COURT APT 101","FREDERICKSBURG","VA",22408,NA,NA,89,"5705 BRIGSTOCK COURT APT 101, FREDERICKSBURG, VA, 22408","No_Match",NA,NA,NA,NA
735090,"5705 BROADWAY ST","WEST LINN","OR",97068,45.366459283,-122.61653237,90,"5705 BROADWAY ST, WEST LINN, OR, 97068","Match","Exact","5705 BROADWAY ST, WEST LINN, OR, 97068",157944119,"R"
735091,"5705 BURGIS AVE SE","KENTWOOD","MI",49508,42.8596196500001,-85.638078918,91,"5705 BURGIS AVE SE, KENTWOOD, MI, 49508","Match","Exact","5705 BURGIS AVE SE, KENTWOOD, MI, 49508",12465204,"R"
735092,"5705 CAMP ROBINSON RD","NORTH LITTLE ROCK","AR",72118,34.8081981830001,-92.2657310549999,92,"5705 CAMP ROBINSON RD, NORTH LITTLE ROCK, AR, 72118","Match","Exact","5705 CAMP ROBINSON RD, N LITTLE ROCK, AR, 72118",83507576,"L"
735093,"5705 CR 4516","COMMERCE","TX",75428,33.2757994720001,-95.922226668,93,"5705 CR 4516, COMMERCE, TX, 75428","Match","Exact","5705 CO RD 4516, COMMERCE, TX, 75428",647374464,"R"
735094,"5705 CYPRESS CREEK DRIVE APT 102","HYATTSVILLE","MD",20782,38.956639287,-76.981219316,94,"5705 CYPRESS CREEK DRIVE APT 102, HYATTSVILLE, MD, 20782","Match","Exact","5705 CYPRESS CREEK DR, HYATTSVILLE, MD, 20782",76366786,"R"
735095,"5705 DRIFTWOOD STREET","WEST PALM BEACH","FL",33462,NA,NA,95,"5705 DRIFTWOOD STREET, WEST PALM BEACH, FL, 33462","No_Match",NA,NA,NA,NA
735096,"5705 E PONY CREEK RD","CLEVELAND","MO",64734,38.6142433800001,-94.539882932,96,"5705 E PONY CREEK RD, CLEVELAND, MO, 64734","Match","Exact","5705 E PONY CREEK RD, CLEVELAND, MO, 64734",100940147,"L"
735097,"5705 E ROCKHILL","WICHITA","KS",67208,37.7170471040001,-97.269513622,97,"5705 E ROCKHILL, WICHITA, KS, 67208","Match","Non_Exact","5705 E ROCKHILL ST, WICHITA, KS, 67208",115639235,"R"
735098,"5705 FIELDVIEW CT","GWYNN OAK","MD",21207,39.333178945,-76.718249097,98,"5705 FIELDVIEW CT, GWYNN OAK, MD, 21207","Match","Exact","5705 FIELDVIEW CT, GWYNN OAK, MD, 21207",191469356,"L"
735099,"5705 FREEDOM LANE","ROWLETT","TX",75089,32.9109662970001,-96.5630859,99,"5705 FREEDOM LANE, ROWLETT, TX, 75089","Match","Exact","5705 FREEDOM LN, ROWLETT, TX, 75089",103249000,"L"
735100,"5705 GARFIELD STREET","HOLLYWOOD","FL",33021,26.0205123440001,-80.202280361,100,"5705 GARFIELD STREET, HOLLYWOOD, FL, 33021","Match","Exact","5705 GARFIELD ST, HOLLYWOOD, FL, 33021",114717145,"R"
735101,"5705 GLEN AVENUE","MINNETONKA","MN",55345,44.9000547250001,-93.469524276,101,"5705 GLEN AVENUE, MINNETONKA, MN, 55345","Match","Exact","5705 GLEN AVE, MINNETONKA, MN, 55345",43826514,"L"
735102,"5705 GRANBY","NORTH LITTLE ROCK","AR",72114,NA,NA,102,"5705 GRANBY, NORTH LITTLE ROCK, AR, 72114","No_Match",NA,NA,NA,NA
735103,"5705 GRANT CREEK RD","MISSOULA","MT",59808,46.917522277,-114.031862922,103,"5705 GRANT CREEK RD, MISSOULA, MT, 59808","Match","Exact","5705 GRANT CREEK RD, MISSOULA, MT, 59808",205262703,"L"
735104,"5705 GREENRIDGE DR","TOLEDO","OH",43615,41.6214836600001,-83.6769701599999,104,"5705 GREENRIDGE DR, TOLEDO, OH, 43615","Match","Exact","5705 GREENRIDGE DR, TOLEDO, OH, 43615",33955335,"L"
735105,"5705 GWENDOLYN ST","BAKERSFIELD","CA",93307,35.3039579540001,-119.031793806,105,"5705 GWENDOLYN ST, BAKERSFIELD, CA, 93307","Match","Non_Exact","5705 GWENDOLYN ST, BAKERSFIELD, CA, 93304",109092304,"R"
735106,"5705 HENNINGER DR APT A1","OMAHA","NE",68104,41.3150701930001,-96.002079626,106,"5705 HENNINGER DR APT A1, OMAHA, NE, 68104","Match","Exact","5705 HENNINGER DR, OMAHA, NE, 68104",116975849,"L"
735107,"5705 HILLCROFT STREET","DALLAS","TX",75227,32.7872024380001,-96.703550692,107,"5705 HILLCROFT STREET, DALLAS, TX, 75227","Match","Exact","5705 HILLCROFT ST, DALLAS, TX, 75227",102924192,"L"
735108,"5705 HILLCROFT","DALLAS","TX",75227,32.7872024380001,-96.703550692,108,"5705 HILLCROFT, DALLAS, TX, 75227","Match","Non_Exact","5705 HILLCROFT ST, DALLAS, TX, 75227",102924192,"L"
735109,"5705 JACKSON DRIVE","LA MESA","CA",91942,32.782414497,-117.01921995,109,"5705 JACKSON DRIVE, LA MESA, CA, 91942","Match","Exact","5705 JACKSON DR, LA MESA, CA, 91942",195325767,"R"
735110,"5705 KAMEHAMEHA V HIGHWAY","KAUNAKAKAI","HI",96748,NA,NA,110,"5705 KAMEHAMEHA V HIGHWAY, KAUNAKAKAI, HI, 96748","No_Match",NA,NA,NA,NA
735111,"5705 LAKEMOORE DR","AUSTIN","TX",78731,30.3648067830001,-97.787460563,111,"5705 LAKEMOORE DR, AUSTIN, TX, 78731","Match","Exact","5705 LAKEMOORE DR, AUSTIN, TX, 78731",63927340,"L"
735112,"5705 LEE BLVD SUITE 9","LEHIGH ACRES","FL",33971,NA,NA,112,"5705 LEE BLVD SUITE 9, LEHIGH ACRES, FL, 33971","No_Match",NA,NA,NA,NA
735113,"5705 LIBYAN DRIVE","AUSTIN","TX",78745,30.2104654340001,-97.7910354639999,113,"5705 LIBYAN DRIVE, AUSTIN, TX, 78745","Match","Exact","5705 LIBYAN DR, AUSTIN, TX, 78745",64013889,"L"
735114,"5705 LOWER WYANDOTTE ROAD","OROVILLE","CA",95966,39.4766236190001,-121.5305815,114,"5705 LOWER WYANDOTTE ROAD, OROVILLE, CA, 95966","Match","Exact","5705 LOWER WYANDOTTE RD, OROVILLE, CA, 95966",68431908,"R"
735115,"5705 MASCOT AVENUE","SACRAMENTO","CA",95824,38.523445145,-121.463595068,115,"5705 MASCOT AVENUE, SACRAMENTO, CA, 95824","Match","Exact","5705 MASCOT AVE, SACRAMENTO, CA, 95824",133327553,"L"
735116,"5705 MCKINLEY STREET","BETHESDA","MD",20817,38.996009687,-77.117075641,116,"5705 MCKINLEY STREET, BETHESDA, MD, 20817","Match","Exact","5705 MCKINLEY ST, BETHESDA, MD, 20817",62058384,"R"
735117,"5705 MEMORIAL DRIVE","STONE MOUNTAIN","GA",30083,33.801013358,-84.2049433239999,117,"5705 MEMORIAL DRIVE, STONE MOUNTAIN, GA, 30083","Match","Exact","5705 MEMORIAL DR, STONE MOUNTAIN, GA, 30083",23413344,"R"
735118,"5705 N 107TH ST","OMAHA","NE",68134,41.3116202470001,-96.0805863319999,118,"5705 N 107TH ST, OMAHA, NE, 68134","Match","Exact","5705 N 107TH ST, OMAHA, NE, 68134",116968375,"L"
735119,"5705 N 19TH ST","ARLINGTON","VA",22205,38.889230126,-77.138907487,119,"5705 N 19TH ST, ARLINGTON, VA, 22205","Match","Non_Exact","5705 19TH ST N, ARLINGTON, VA, 22205",76467133,"R"
735120,"5705 N CHARLES","WICHITA","KS",67204,37.787404823,-97.365424175,120,"5705 N CHARLES, WICHITA, KS, 67204","Match","Non_Exact","5705 N CHARLES ST, WICHITA, KS, 67204",115631493,"R"
735121,"5705 N E ST","SAN BERNARDINO","CA",92407,34.181019733,-117.294016778,121,"5705 N E ST, SAN BERNARDINO, CA, 92407","Match","Exact","5705 N E ST, SAN BERNARDINO, CA, 92407",144653550,"R"
735122,"5705 N MACARTHUR BLVD","WARR ACRES","OK",73123,35.528040794,-97.618985896,122,"5705 N MACARTHUR BLVD, WARR ACRES, OK, 73123","Match","Non_Exact","5705 N MACARTHUR BLVD, WARR ACRES, OK, 73122",100390200,"L"
735123,"5705 N NORTHCOTT AVENUE","CHICAGO","IL",60631,41.985346457,-87.790376247,123,"5705 N NORTHCOTT AVENUE, CHICAGO, IL, 60631","Match","Exact","5705 N NORTHCOTT AVE, CHICAGO, IL, 60631",111736362,"R"
735124,"5705 N PARKER AVE","INDIANAPOLIS","IN",46220,39.857417142,-86.114028702,124,"5705 N PARKER AVE, INDIANAPOLIS, IN, 46220","Match","Exact","5705 N PARKER AVE, INDIANAPOLIS, IN, 46220",107995437,"R"
735125,"5705 NE QUARTZ CIR","LEES' SUMMIT","MO",64064,39.01392409,-94.361221179,125,"5705 NE QUARTZ CIR, LEES' SUMMIT, MO, 64064","Match","Non_Exact","5705 NE QUARTZ CIR, LEES SUMMIT, MO, 64064",91509093,"L"
735126,"5705 OAKHAM STREET","HOUSTON","TX",77085,29.620036299,-95.468821556,126,"5705 OAKHAM STREET, HOUSTON, TX, 77085","Match","Exact","5705 OAKHAM ST, HOUSTON, TX, 77085",96040557,"L"
735127,"5705 OLD LAKEPORT RD","SIOUX CITY","IA",51106,NA,NA,127,"5705 OLD LAKEPORT RD, SIOUX CITY, IA, 51106","No_Match",NA,NA,NA,NA
735128,"5705 OLD WARSON CT","RALEIGH","NC",27612,35.855554715,-78.685903971,128,"5705 OLD WARSON CT, RALEIGH, NC, 27612","Match","Exact","5705 OLD WARSON CT, RALEIGH, NC, 27612",72540149,"L"
735129,"5705 OXFORD PL APT 764","LOUISVILLE","KY",40291,38.160710486,-85.602200861,129,"5705 OXFORD PL APT 764, LOUISVILLE, KY, 40291","Match","Exact","5705 OXFORD PL, LOUISVILLE, KY, 40291",612530220,"L"
735130,"5705 PATRICIA AVE","LAS VEGAS","NV",89130,36.237691431,-115.221265146,130,"5705 PATRICIA AVE, LAS VEGAS, NV, 89130","Match","Exact","5705 PATRICIA AVE, LAS VEGAS, NV, 89130",201859049,"L"
735131,"5705 PIN OAK AVE","MILTON","FL",32583,30.590812511,-87.08586783,131,"5705 PIN OAK AVE, MILTON, FL, 32583","Match","Exact","5705 PIN OAK AVE, MILTON, FL, 32583",74605643,"L"
735132,"5705 QUEBEC AVENUE NORTH APT 100B","NEW HOPE","MN",55428,45.056390568,-93.3755277399999,132,"5705 QUEBEC AVENUE NORTH APT 100B, NEW HOPE, MN, 55428","Match","Exact","5705 QUEBEC AVE N, NEW HOPE, MN, 55428",43836800,"R"
735133,"5705 QUEBEC AVENUE NORTH","NEW HOPE","MN",55428,45.056390568,-93.3755277399999,133,"5705 QUEBEC AVENUE NORTH, NEW HOPE, MN, 55428","Match","Exact","5705 QUEBEC AVE N, NEW HOPE, MN, 55428",43836800,"R"
735134,"5705 RHODES","ST. LOUIS","MO",63109,38.578812601,-90.2919065249999,134,"5705 RHODES, ST. LOUIS, MO, 63109","Match","Non_Exact","5705 RHODES AVE, SAINT LOUIS, MO, 63109",107599499,"R"
735135,"5705 ROBINWOOD RD","LOUISVILLE","KY",40218,38.16748461,-85.665440275,135,"5705 ROBINWOOD RD, LOUISVILLE, KY, 40218","Match","Exact","5705 ROBINWOOD RD, LOUISVILLE, KY, 40218",96858515,"L"
735136,"5705 ROYALTY ROAD","JACKSONVILLE","FL",32254,30.3567290890001,-81.742749515,136,"5705 ROYALTY ROAD, JACKSONVILLE, FL, 32254","Match","Exact","5705 ROYALTY RD, JACKSONVILLE, FL, 32254",645207892,"L"
735137,"5705 SABLE GLEN ROAD","ATLANTA","GA",30349,33.598514675,-84.502681299,137,"5705 SABLE GLEN ROAD, ATLANTA, GA, 30349","Match","Exact","5705 SABLE GLEN RD, ATLANTA, GA, 30349",629828537,"R"
735138,"5705 SE 82ND ST","OKLAHOMA CITY","OK",73135,35.384175794,-97.422404726,138,"5705 SE 82ND ST, OKLAHOMA CITY, OK, 73135","Match","Exact","5705 SE 82ND ST, OKLAHOMA CITY, OK, 73135",100448360,"R"
735139,"5705 SEASHORE DR","NEWPORT BEACH","CA",92663,33.624383935,-117.94644938,139,"5705 SEASHORE DR, NEWPORT BEACH, CA, 92663","Match","Exact","5705 SEASHORE DR, NEWPORT BEACH, CA, 92663",144046612,"L"
735140,"5705 SIDNEY LANE","MCKINNEY","TX",75070,33.164938996,-96.690525357,140,"5705 SIDNEY LANE, MCKINNEY, TX, 75070","Match","Exact","5705 SIDNEY LN, MCKINNEY, TX, 75070",123562334,"L"
735141,"5705 SILK TREE DRIVE","RIVERDALE","MD",20737,38.969507234,-76.907293053,141,"5705 SILK TREE DRIVE, RIVERDALE, MD, 20737","Match","Exact","5705 SILK TREE DR, RIVERDALE, MD, 20737",76350549,"L"
735142,"5705 SPIRIT LAKE DRIVE","FORT WORTH","TX",76179,32.846374617,-97.408725136,142,"5705 SPIRIT LAKE DRIVE, FORT WORTH, TX, 76179","Match","Exact","5705 SPIRIT LAKE DR, FORT WORTH, TX, 76179",627700870,"L"
735143,"5705 SPRINGTIDE DRIVE","FORT WORTH","TN",76135,NA,NA,143,"5705 SPRINGTIDE DRIVE, FORT WORTH, TN, 76135","No_Match",NA,NA,NA,NA
735144,"5705 STATE PARK ROAD","TRAVELERS REST","SC",29690,34.9678451890001,-82.412913019,144,"5705 STATE PARK ROAD, TRAVELERS REST, SC, 29690","Match","Exact","5705 STATE PARK RD, TRAVELERS REST, SC, 29690",38363660,"L"
735145,"5705 STEEPLE CHASE ROAD","SYKESVILLE","MD",21784,39.417564655,-77.005264837,145,"5705 STEEPLE CHASE ROAD, SYKESVILLE, MD, 21784","Match","Exact","5705 STEEPLE CHASE RD, SYKESVILLE, MD, 21784",653251728,"R"
735146,"5705 STERLING OAKS DRIVE","BRENTWOOD","TN",37027,36.03107714,-86.7471561789999,146,"5705 STERLING OAKS DRIVE, BRENTWOOD, TN, 37027","Match","Exact","5705 STERLING OAKS DR, BRENTWOOD, TN, 37027",97221413,"L"
735147,"5705 TIVOLI CIR APT 102","RICHMOND","VA",23227,37.6085434670001,-77.4246699999999,147,"5705 TIVOLI CIR APT 102, RICHMOND, VA, 23227","Match","Exact","5705 TIVOLI CIR, RICHMOND, VA, 23227",106673280,"R"
735148,"5705 TRELAWNEY LANE","AUSTIN","TX",78739,30.187859948,-97.8833290759999,148,"5705 TRELAWNEY LANE, AUSTIN, TX, 78739","Match","Exact","5705 TRELAWNEY LN, AUSTIN, TX, 78739",63990035,"L"
735149,"5705 TURNER ROAD","BROAD RUN","VA",20137,38.834071351,-77.683901986,149,"5705 TURNER ROAD, BROAD RUN, VA, 20137","Match","Exact","5705 TURNER RD, BROAD RUN, VA, 20137",207161984,"L"
735150,"5705 TY LINDSTROM","SHERTZ","TX",78108,29.6203208750001,-98.2183191569999,150,"5705 TY LINDSTROM, SHERTZ, TX, 78108","Match","Non_Exact","5705 TY LINDSTROM, SCHERTZ, TX, 78108",617378331,"L"
735151,"5705 UNIVERSITY PARK DR APT C","MISHAWAKA","IN",46545,41.711950948,-86.191031165,151,"5705 UNIVERSITY PARK DR APT C, MISHAWAKA, IN, 46545","Match","Exact","5705 UNIVERSITY PARK DR, MISHAWAKA, IN, 46545",636458639,"L"
735152,"5705 W TIMELESS COURT","HERRIMAN","UT",84096,40.503980633,-112.027095958,152,"5705 W TIMELESS COURT, HERRIMAN, UT, 84096","Match","Exact","5705 TIMELESS CT, HERRIMAN, UT, 84096",176150010,"R"
735153,"5705 WELLESLEY AVENUE","PITTSBURGH","PA",15206,40.473593968,-79.9231328449999,153,"5705 WELLESLEY AVENUE, PITTSBURGH, PA, 15206","Match","Exact","5705 WELLESLEY AVE, PITTSBURGH, PA, 15206",51644105,"L"
735154,"5705 WEST SHORE DRIVE","NEW PORT RICHEY","FL",34652,28.238959165,-82.761744092,154,"5705 WEST SHORE DRIVE, NEW PORT RICHEY, FL, 34652","Match","Non_Exact","5705 WESTSHORE DR, NEW PORT RICHEY, FL, 34652",86347856,"L"
735155,"5705 WEST WILSHIRE BOULEVARD","OKLAHOMA CITY","OK",73132,35.551113473,-97.61608491,155,"5705 WEST WILSHIRE BOULEVARD, OKLAHOMA CITY, OK, 73132","Match","Exact","5705 W WILSHIRE BLVD, OKLAHOMA CITY, OK, 73132",647953625,"R"
735156,"5705 WILDCAT ROAD","MISSOULA","MT",59802,46.91674327,-113.959973784,156,"5705 WILDCAT ROAD, MISSOULA, MT, 59802","Match","Exact","5705 WILDCAT RD, MISSOULA, MT, 59802",601302583,"R"
735157,"5705 YUKON STREET","ARVADA","CO",80002,39.8004042260001,-105.082597203,157,"5705 YUKON STREET, ARVADA, CO, 80002","Match","Exact","5705 YUKON ST, ARVADA, CO, 80002",177288782,"L"
735158,"57057 BEAVER DRIVE","BEND","OR",97707,NA,NA,158,"57057 BEAVER DRIVE, BEND, OR, 97707","No_Match",NA,NA,NA,NA
735159,"57059 CURTIS STREET","WASHINGTON TOWNSHIP","MI",48094,42.7140879410001,-83.0392113079999,159,"57059 CURTIS STREET, WASHINGTON TOWNSHIP, MI, 48094","Match","Exact","57059 CURTIS ST, WASHINGTON TOWNSHIP, MI, 48094",637093069,"R"
735160,"5705B SAMANTHA ST","FAYETTEVILLE","AR",72704,36.1331463330001,-94.158280029,160,"5705B SAMANTHA ST, FAYETTEVILLE, AR, 72704","Match","Exact","5705 SAMANTHA ST, FAYETTEVILLE, AR, 72704",49089235,"R"
735161,"5706  WARWICK ROAD","RICHMOND","VA",23224,NA,NA,161,"5706  WARWICK ROAD, RICHMOND, VA, 23224","No_Match",NA,NA,NA,NA
735162,"5706 1ST ST S","ARLINGTON","VA",22204,38.865340497,-77.125894592,162,"5706 1ST ST S, ARLINGTON, VA, 22204","Match","Exact","5706 1ST ST S, ARLINGTON, VA, 22204",76479243,"R"
735163,"5706 224TH ST SW","MOUNTLAKE TERRACE","WA",98043,47.7957136530001,-122.309895235,163,"5706 224TH ST SW, MOUNTLAKE TERRACE, WA, 98043","Match","Exact","5706 224TH ST SW, MOUNTLAKE TERRACE, WA, 98043",187756444,"L"
735164,"5706 233RD AVE E","BUCKLEY","WA",98321,47.2055287630001,-122.11800854,164,"5706 233RD AVE E, BUCKLEY, WA, 98321","Match","Exact","5706 233RD AVE E, BUCKLEY, WA, 98321",184705183,"L"
735165,"5706 45TH AV N","KENNETH CITY","FL",33709,27.812973347,-82.711114063,165,"5706 45TH AV N, KENNETH CITY, FL, 33709","Match","Exact","5706 45TH AVE N, KENNETH CITY, FL, 33709",124773217,"L"
735166,"5706 5TH ST NORTH","BESSEMER","AL",35020,33.428229641,-86.938568329,166,"5706 5TH ST NORTH, BESSEMER, AL, 35020","Match","Exact","5706 5TH ST N, BESSEMER, AL, 35020",81762094,"L"
735167,"5706 BALTIMORE DRIVE UNIT 341","LA MESA","CA",91942,32.785500556,-117.03439056,167,"5706 BALTIMORE DRIVE UNIT 341, LA MESA, CA, 91942","Match","Exact","5706 BALTIMORE DR, LA MESA, CA, 91942",195717674,"L"
735168,"5706 BARRINGTON RUN","UNION CITY","GA",30291,33.570350568,-84.516624446,168,"5706 BARRINGTON RUN, UNION CITY, GA, 30291","Match","Exact","5706 BARRINGTON RUN, UNION CITY, GA, 30291",17405622,"R"
735169,"5706 BELLONA AVE","BALTIMORE CITY","MD",21212,39.3589591260001,-76.6104488029999,169,"5706 BELLONA AVE, BALTIMORE CITY, MD, 21212","Match","Non_Exact","5706 BELLONA AVE, BALTIMORE, MD, 21212",206408144,"L"
735170,"5706 BIRMINGHAM CIR","KILLEEN","TX",76542,31.065680231,-97.683013837,170,"5706 BIRMINGHAM CIR, KILLEEN, TX, 76542","Match","Exact","5706 BIRMINGHAM CIR, KILLEEN, TX, 76542",619909531,"R"
735171,"5706 BROWN ROAD","ETHEL","LA",70730,30.826210302,-91.105460004,171,"5706 BROWN ROAD, ETHEL, LA, 70730","Match","Exact","5706 BROWN RD, ETHEL, LA, 70730",651020385,"L"
735172,"5706 CAHALAN AVENUE STE 23634","SAN JOSE","CA",95153,37.2486694250001,-121.847216627,172,"5706 CAHALAN AVENUE STE 23634, SAN JOSE, CA, 95153","Match","Non_Exact","5706 CAHALAN AVE, SAN JOSE, CA, 95123",122923671,"L"
735173,"5706 CALAIS COURT","CALABASAS","CA",91302,34.162062129,-118.711668836,173,"5706 CALAIS COURT, CALABASAS, CA, 91302","Match","Exact","5706 CALAIS CT, CALABASAS, CA, 91302",241190289,"L"
735174,"5706 CORTE LIBRE","PLEASANTON","CA",94566,37.674359592,-121.896193811,174,"5706 CORTE LIBRE, PLEASANTON, CA, 94566","Match","Exact","5706 CORTE LIBRE, PLEASANTON, CA, 94566",125031869,"R"
735175,"5706 DEER POND RD","CENTREVILLE","VA",20120,38.851672143,-77.458019006,175,"5706 DEER POND RD, CENTREVILLE, VA, 20120","Match","Exact","5706 DEER POND RD, CENTREVILLE, VA, 20120",76018550,"R"
735176,"5706 DORCHESTER AVENUE","HARRISBURG","NC",28075,35.297790865,-80.6710080949999,176,"5706 DORCHESTER AVENUE, HARRISBURG, NC, 28075","Match","Exact","5706 DORCHESTER AVE, HARRISBURG, NC, 28075",24903368,"L"
735177,"5706 E MOCKINGBIRD LANE 115-25","DALLAS","TX",75206,32.8365076690001,-96.7697991269999,177,"5706 E MOCKINGBIRD LANE 115-25, DALLAS, TX, 75206","Match","Exact","5706 MOCKINGBIRD LN, DALLAS, TX, 75206",103171484,"R"
735178,"5706 E MOCKINGBIRD LN 115-51","DALLAS","TX",75206,32.8365076690001,-96.7697991269999,178,"5706 E MOCKINGBIRD LN 115-51, DALLAS, TX, 75206","Match","Exact","5706 MOCKINGBIRD LN, DALLAS, TX, 75206",103171484,"R"
735179,"5706 E MOCKINGBIRD LN STE 115-504","DALLAS","TX",75206,32.8365076690001,-96.7697991269999,179,"5706 E MOCKINGBIRD LN STE 115-504, DALLAS, TX, 75206","Match","Exact","5706 MOCKINGBIRD LN, DALLAS, TX, 75206",103171484,"R"
735180,"5706 EAST MOCKINGBIRD LN 115-187","DALLAS","TX",75206,32.8365076800001,-96.769801491,180,"5706 EAST MOCKINGBIRD LN 115-187, DALLAS, TX, 75206","Match","Non_Exact","5706 MOCKINGBIRD LN, DALLAS, TX, 75206",103171484,"R"
735181,"5706 EMORY RD","UPPERCO","MD",21155,39.5379522420001,-76.848447101,181,"5706 EMORY RD, UPPERCO, MD, 21155","Match","Exact","5706 EMORY RD, UPPERCO, MD, 21155",191565247,"R"
735182,"5706 EVERHART MANOR LN","KATY","TX",77494,29.7168938730001,-95.796314847,182,"5706 EVERHART MANOR LN, KATY, TX, 77494","Match","Exact","5706 EVERHART MANOR LN, KATY, TX, 77494",630729030,"R"
735183,"5706 FAIR AVE APT 203","LOS ANGELES","CA",91601,34.1740923620001,-118.374583881,183,"5706 FAIR AVE APT 203, LOS ANGELES, CA, 91601","Match","Non_Exact","5706 FAIR AVE, VALLEY VILLAGE, CA, 91601",141591585,"R"
735184,"5706 FAIRWOOD DRIVE","ACWORTH","GA",30101,33.976223068,-84.723035655,184,"5706 FAIRWOOD DRIVE, ACWORTH, GA, 30101","Match","Exact","5706 FAIRWOOD DR, ACWORTH, GA, 30101",17240438,"R"
735185,"5706 GIST AVENUE","BALTIMORE","MD",21215,39.3518392170001,-76.68986532,185,"5706 GIST AVENUE, BALTIMORE, MD, 21215","Match","Exact","5706 GIST AVE, BALTIMORE, MD, 21215",206404618,"L"
735186,"5706 GOVERNORS POND CIR","ALEXANDRIA","VA",22310,38.7947284410001,-77.089351001,186,"5706 GOVERNORS POND CIR, ALEXANDRIA, VA, 22310","Match","Exact","5706 GOVERNORS POND CIR, ALEXANDRIA, VA, 22310",76046576,"L"
735187,"5706 GREENRIDGE","MIDLAN","TX",79707,31.9982512670001,-102.158128433,187,"5706 GREENRIDGE, MIDLAN, TX, 79707","Match","Non_Exact","5706 GREENRIDGE, MIDLAND, TX, 79707",139590237,"L"
735188,"5706 HEBRON LN","LAKELAND","FL",33812,27.9615328620001,-81.9207482369999,188,"5706 HEBRON LN, LAKELAND, FL, 33812","Match","Exact","5706 HEBRON LN, LAKELAND, FL, 33812",649840285,"R"
735189,"5706 HIGH RIDGE DR","YPSILANTI","MI",48197,42.2080152680001,-83.592327425,189,"5706 HIGH RIDGE DR, YPSILANTI, MI, 48197","Match","Exact","5706 HIGH RIDGE DR, YPSILANTI, MI, 48197",26033024,"R"
735190,"5706 HIGHWAY 154","BUTLER","KY",41006,38.8293575590001,-84.305440335,190,"5706 HIGHWAY 154, BUTLER, KY, 41006","Match","Exact","5706 HWY 154, BUTLER, KY, 41006",104477474,"R"
735191,"5706 IRON STONE RD","LOTHIAN","MD",20711,38.779371047,-76.607849699,191,"5706 IRON STONE RD, LOTHIAN, MD, 20711","Match","Exact","5706 IRON STONE RD, LOTHIAN, MD, 20711",617904192,"R"
735192,"5706 LALLEY LANE","ANDEROSN","CA",96007,40.454860415,-122.267873236,192,"5706 LALLEY LANE, ANDEROSN, CA, 96007","Match","Non_Exact","5706 LALLEY LN, ANDERSON, CA, 96007",126665606,"R"
735193,"5706 LALLEY LANE","ANDERSON","CA",96007,40.454860415,-122.267873236,193,"5706 LALLEY LANE, ANDERSON, CA, 96007","Match","Exact","5706 LALLEY LN, ANDERSON, CA, 96007",126665606,"R"
735194,"5706 LENTZIER TRACE","JEFFERSONVILLE","IN",47130,38.3531531260001,-85.688143759,194,"5706 LENTZIER TRACE, JEFFERSONVILLE, IN, 47130","Match","Exact","5706 LENTZIER TRCE, JEFFERSONVILLE, IN, 47130",64880007,"L"
735195,"5706 LONG CREEK LANE","HOUSTON","TX",77088,29.873130818,-95.471849202,195,"5706 LONG CREEK LANE, HOUSTON, TX, 77088","Match","Exact","5706 LONG CREEK LN, HOUSTON, TX, 77088",96225480,"R"
735196,"5706 MAGNUM DRIVE","ARLINGTON","TX",76018,32.652401668,-97.085150137,196,"5706 MAGNUM DRIVE, ARLINGTON, TX, 76018","Match","Exact","5706 MAGNUM DR, ARLINGTON, TX, 76018",102125736,"R"
735197,"5706 MAPLEBROOK LANE","FLINT","MI",48507,42.9577953130001,-83.6862882729999,197,"5706 MAPLEBROOK LANE, FLINT, MI, 48507","Match","Exact","5706 MAPLEBROOK LN, FLINT, MI, 48507",69575191,"L"
735198,"5706 MEDALIST","COLUMBUS","OH",43230,40.0613544060001,-82.866760886,198,"5706 MEDALIST, COLUMBUS, OH, 43230","Match","Exact","5706 MEDALIST, COLUMBUS, OH, 43230",636557458,"R"
735199,"5706 N 18TH ST","TAMPA","FL",33610,27.9989194980001,-82.439754616,199,"5706 N 18TH ST, TAMPA, FL, 33610","Match","Exact","5706 N 18TH ST, TAMPA, FL, 33610",104522590,"L"
735200,"5706 N RHODE ISLAND","OKLAHOMA CITY","OK",73111,35.527395998,-97.481066771,200,"5706 N RHODE ISLAND, OKLAHOMA CITY, OK, 73111","Match","Non_Exact","5706 N RHODE ISLAND AVE, OKLAHOMA CITY, OK, 73111",100411523,"R"
735201,"5706 NEWBERRY POINT DR","FLOWERY BRANCH","GA",30542,34.2063625330001,-83.9200770159999,201,"5706 NEWBERRY POINT DR, FLOWERY BRANCH, GA, 30542","Match","Exact","5706 NEWBERRY POINT DR, FLOWERY BR, GA, 30542",647788324,"L"
735202,"5706 NW 81 TERRACE","TAMARAC","FL",33321,26.195586141,-80.259117863,202,"5706 NW 81 TERRACE, TAMARAC, FL, 33321","Match","Exact","5706 NW 81ST TER, TAMARAC, FL, 33321",114701787,"R"
735203,"5706 PRIMROSE VISTA COURT","BAKERSFIELD","CA",93306,35.405863115,-118.848363107,203,"5706 PRIMROSE VISTA COURT, BAKERSFIELD, CA, 93306","Match","Exact","5706 PRIMROSE VISTA CT, BAKERSFIELD, CA, 93306",648534866,"R"
735204,"5706 PRIMROSE VISTA CT","BAKERSFIELD","CA",93305,35.405863115,-118.848363107,204,"5706 PRIMROSE VISTA CT, BAKERSFIELD, CA, 93305","Match","Non_Exact","5706 PRIMROSE VISTA CT, BAKERSFIELD, CA, 93306",648534866,"R"
735205,"5706 PRIMROSE VISTA CT","BAKERSFIELD","CA",93306,35.405863115,-118.848363107,205,"5706 PRIMROSE VISTA CT, BAKERSFIELD, CA, 93306","Match","Exact","5706 PRIMROSE VISTA CT, BAKERSFIELD, CA, 93306",648534866,"R"
735206,"5706 QUEBEC ST","BERWYN HEIGHTS","MD",20740,38.993311695,-76.916009274,206,"5706 QUEBEC ST, BERWYN HEIGHTS, MD, 20740","Match","Exact","5706 QUEBEC ST, BERWYN HEIGHTS, MD, 20740",76305473,"L"
735207,"5706 REEF LANDING WAY","WILMINGTON","NC",28409,34.1388466770001,-77.8706935439999,207,"5706 REEF LANDING WAY, WILMINGTON, NC, 28409","Match","Exact","5706 REEF LANDING WAY, WILMINGTON, NC, 28409",650671154,"R"
735208,"5706 SAGO COURT","NAPLES","FL",34119,26.217271773,-81.722172346,208,"5706 SAGO COURT, NAPLES, FL, 34119","Match","Exact","5706 SAGO CT, NAPLES, FL, 34119",619116669,"R"
735209,"5706 SAN CORDOBA PLAZA","TAMPA","FL",33617,28.059478617,-82.391592079,209,"5706 SAN CORDOBA PLAZA, TAMPA, FL, 33617","Match","Exact","5706 SAN CORDOBA PLZ, TAMPA, FL, 33617",650648757,"L"
735210,"5706 SAN JOSE AVENUE","RICHMOND","CA",94804,37.9029337370001,-122.308677357,210,"5706 SAN JOSE AVENUE, RICHMOND, CA, 94804","Match","Exact","5706 SAN JOSE AVE, RICHMOND, CA, 94804",192043795,"R"
735211,"5706 SE LAFAYETTE ST","PORTLAND","OR",97206,45.496798072,-122.604210237,211,"5706 SE LAFAYETTE ST, PORTLAND, OR, 97206","Match","Exact","5706 SE LAFAYETTE ST, PORTLAND, OR, 97206",157515083,"R"
735212,"5706 SKYDALE LN","RICHMOND","TX",77469,29.548767533,-95.70666343,212,"5706 SKYDALE LN, RICHMOND, TX, 77469","Match","Non_Exact","5706 SKY DALE LN, RICHMOND, TX, 77469",635325603,"L"
735213,"5706 STARFISH COURT","DISCOVERY BAY","CA",94505,37.9096188120001,-121.58933096,213,"5706 STARFISH COURT, DISCOVERY BAY, CA, 94505","Match","Exact","5706 STARFISH CT, DISCOVERY BAY, CA, 94505",192033426,"R"
735214,"5706 SUNSET OAK","SPRING","TX",77379,30.0352846380001,-95.502429421,214,"5706 SUNSET OAK, SPRING, TX, 77379","Match","Exact","5706 SUNSET OAK, SPRING, TX, 77379",96165918,"R"
735215,"5706 SUSAN DR","CASTALIA","OH",44824,41.37064959,-82.799087582,215,"5706 SUSAN DR, CASTALIA, OH, 44824","Match","Exact","5706 SUSAN DR, CASTALIA, OH, 44824",55327688,"R"
735216,"5706 TAYLOR CREST DR","AUSTIN","TX",78749,30.206525217,-97.8725220589999,216,"5706 TAYLOR CREST DR, AUSTIN, TX, 78749","Match","Non_Exact","5706 TAYLORCREST DR, AUSTIN, TX, 78749",64006007,"R"
735217,"5706 TRAFALGAR","HOUSTON","TX",77085,29.6183316250001,-95.4687255859999,217,"5706 TRAFALGAR, HOUSTON, TX, 77085","Match","Non_Exact","5706 TRAFALGAR DR, HOUSTON, TX, 77085",96040675,"R"
735218,"5706 TRINITY STREET","GREENVILLE","TX",75402,33.1125805120001,-96.1151575,218,"5706 TRINITY STREET, GREENVILLE, TX, 75402","Match","Exact","5706 TRINITY ST, GREENVILLE, TX, 75402",42836760,"L"
735219,"5706 US HWY 20","EAST SPRINGFIELD","NY",13333,42.830314431,-74.808695083,219,"5706 US HWY 20, EAST SPRINGFIELD, NY, 13333","Match","Exact","5706 US HWY 20, E SPRINGFIELD, NY, 13333",125947403,"L"
735220,"5706 VALLEY ROAD","AMES","IA",50014,42.07542154,-93.669602658,220,"5706 VALLEY ROAD, AMES, IA, 50014","Match","Exact","5706 VALLEY RD, AMES, IA, 50014",65955407,"R"
735221,"5706 W LAKE STREET 3W","CHICAGO","IL",60644,41.8878175770001,-87.767968658,221,"5706 W LAKE STREET 3W, CHICAGO, IL, 60644","Match","Non_Exact","5706 W LAKE ST, CHICAGO, IL, 60644",111753974,"R"
735222,"5706 WHITE WILLOW DRIVE","FORT COLLINS","CO",80528,40.507491954,-105.040314017,222,"5706 WHITE WILLOW DRIVE, FORT COLLINS, CO, 80528","Match","Exact","5706 WHITE WILLOW DR, FORT COLLINS, CO, 80528",188524916,"L"
735223,"5706 WILLOWMERE LN","SAN DIEGO","CA",92130,32.9297093320001,-117.195906917,223,"5706 WILLOWMERE LN, SAN DIEGO, CA, 92130","Match","Exact","5706 WILLOWMERE LN, SAN DIEGO, CA, 92130",195687263,"L"
735224,"5707 1/2 CONDON AVENUE","LOS ANGELES","CA",90056,33.989145094,-118.362192791,224,"5707 1/2 CONDON AVENUE, LOS ANGELES, CA, 90056","Match","Exact","5707 CONDON AVE, LOS ANGELES, CA, 90056",241248779,"R"
735225,"5707 57TH ST NW","GIG HARBOR","WA",98335,47.3104622130001,-122.61209896,225,"5707 57TH ST NW, GIG HARBOR, WA, 98335","Match","Exact","5707 57TH ST NW, GIG HARBOR, WA, 98335",184760182,"R"
735226,"5707 5TH STREET NE","WASHINGTON","DC",20011,38.959350413,-77.001875583,226,"5707 5TH STREET NE, WASHINGTON, DC, 20011","Match","Exact","5707 5TH ST NE, WASHINGTON, DC, 20011",76228001,"R"
735227,"5707 80TH AVE CT W","UNIVERSITY PLACE","WA",98467,47.204430233,-122.54349482,227,"5707 80TH AVE CT W, UNIVERSITY PLACE, WA, 98467","Match","Exact","5707 80TH AVENUE CT W, UNIVERSITY PLACE, WA, 98467",184678048,"L"
735228,"5707 ALLENDER ROAD","WHITE MARSH","MD",21162,39.405650603,-76.408932401,228,"5707 ALLENDER ROAD, WHITE MARSH, MD, 21162","Match","Exact","5707 ALLENDER RD, WHITE MARSH, MD, 21162",649763844,"R"
735229,"5707 ANTILLES DR","SARASOTA","FL",34231,27.2714986730001,-82.520449769,229,"5707 ANTILLES DR, SARASOTA, FL, 34231","Match","Exact","5707 ANTILLES DR, SARASOTA, FL, 34231",16354147,"L"
735230,"5707 ARABELLE LAKE STREET","HOUSTON","TX",77007,29.7826349740001,-95.424462846,230,"5707 ARABELLE LAKE STREET, HOUSTON, TX, 77007","Match","Exact","5707 ARABELLE LAKE ST, HOUSTON, TX, 77007",233404182,"L"
735231,"5707 B ADAMS AVENUE","AUSTIN","TX",78756,30.3315667190001,-97.7389451719999,231,"5707 B ADAMS AVENUE, AUSTIN, TX, 78756","Match","Exact","5707 ADAMS AVE, AUSTIN, TX, 78756",63931339,"R"
735232,"5707 BASKERVILLER DRIVE","RICHARDSON","TX",85082,NA,NA,232,"5707 BASKERVILLER DRIVE, RICHARDSON, TX, 85082","No_Match",NA,NA,NA,NA
735233,"5707 BEACONSFIELD ROAD","CHARLOTTE","NC",28214,35.262982859,-80.9275137939999,233,"5707 BEACONSFIELD ROAD, CHARLOTTE, NC, 28214","Match","Exact","5707 BEACONSFIELD RD, CHARLOTTE, NC, 28214",70504121,"R"
735234,"5707 BELMONT DR","PASCO","WA",99301,46.2582030450001,-119.165328703,234,"5707 BELMONT DR, PASCO, WA, 99301","Match","Exact","5707 BELMONT DR, PASCO, WA, 99301",651957801,"L"
735235,"5707 BERMUDA DUNES DR","HOUSTON","TX",77069,29.986693298,-95.520850264,235,"5707 BERMUDA DUNES DR, HOUSTON, TX, 77069","Match","Exact","5707 BERMUDA DUNES DR, HOUSTON, TX, 77069",649684961,"R"
735236,"5707 CHERRY ST","OOLETWAH","TN",37363,35.073612686,-85.056919083,236,"5707 CHERRY ST, OOLETWAH, TN, 37363","Match","Non_Exact","5707 CHERRY ST, OOLTEWAH, TN, 37363",59318483,"R"
735237,"5707 CHESTER STREET","ARLINGTON","TN",38002,35.283554576,-89.6521946779999,237,"5707 CHESTER STREET, ARLINGTON, TN, 38002","Match","Exact","5707 CHESTER ST, ARLINGTON, TN, 38002",646706900,"L"
735238,"5707 CHIPPEWA RD","CHIPPEWA LAKE","OH",44215,41.076822688,-81.894669215,238,"5707 CHIPPEWA RD, CHIPPEWA LAKE, OH, 44215","Match","Exact","5707 CHIPPEWA RD, CHIPPEWA LAKE, OH, 44215",58692691,"L"
735239,"5707 CLIFF HAVEN DRIVE","DALLAS","TX",75236,32.6774376480001,-96.929442541,239,"5707 CLIFF HAVEN DRIVE, DALLAS, TX, 75236","Match","Exact","5707 CLIFF HAVEN DR, DALLAS, TX, 75236",102939358,"R"
735240,"5707 COQUYT DR","MOUNT DORA","FL",32757,28.7840616570001,-81.6026815129999,240,"5707 COQUYT DR, MOUNT DORA, FL, 32757","Match","Exact","5707 COQUYT DR, MOUNT DORA, FL, 32757",624336244,"R"
735241,"5707 CREEK DALE DR","ORLANDO","FL",32810,28.61522323,-81.464291874,241,"5707 CREEK DALE DR, ORLANDO, FL, 32810","Match","Exact","5707 CREEK DALE DR, ORLANDO, FL, 32810",94311316,"L"
735242,"5707 E 4TH STREET","TUCSON","AZ",85711,32.2307349640001,-110.870654545,242,"5707 E 4TH STREET, TUCSON, AZ, 85711","Match","Exact","5707 E 4TH ST, TUCSON, AZ, 85711",121180557,"L"
735243,"5707 E BALCH AVE","FRESNO","CA",93727,36.7384545790001,-119.696535003,243,"5707 E BALCH AVE, FRESNO, CA, 93727","Match","Exact","5707 E BALCH AVE, FRESNO, CA, 93727",197586185,"L"
735244,"5707 FORD ROAD","THOMPSONVILLE","IL",62890,37.9452181140001,-88.807005793,244,"5707 FORD ROAD, THOMPSONVILLE, IL, 62890","Match","Exact","5707 FORD RD, THOMPSONVILLE, IL, 62890",647504725,"L"
735245,"5707 GEORGIA LANE","LOUISVILLE","KY",40219,38.146247913,-85.6549539979999,245,"5707 GEORGIA LANE, LOUISVILLE, KY, 40219","Match","Exact","5707 GEORGIA LN, LOUISVILLE, KY, 40219",96920536,"L"
735246,"5707 HAWKGROVE PLACE","LITHIA","FL",33547,27.8558220960001,-82.194027225,246,"5707 HAWKGROVE PLACE, LITHIA, FL, 33547","Match","Exact","5707 HAWKGROVE PL, LITHIA, FL, 33547",104592222,"R"
735247,"5707 HIGHLAND HILLS CIRCLE","AUSTIN","TX",78731,30.339952926,-97.758708584,247,"5707 HIGHLAND HILLS CIRCLE, AUSTIN, TX, 78731","Match","Exact","5707 HIGHLAND HILLS CIR, AUSTIN, TX, 78731",63928998,"R"
735248,"5707 HIGHWAY 7 UNIT 433","ST. LOUIS PARK","MN",55416,44.943183962,-93.348850554,248,"5707 HIGHWAY 7 UNIT 433, ST. LOUIS PARK, MN, 55416","Match","Non_Exact","5707 STATE HWY 7, SAINT LOUIS PARK, MN, 55416",653426105,"L"
735249,"5707 HUXLEY AVE APT 2","BRONX","NY",10471,40.9058436550001,-73.898615058,249,"5707 HUXLEY AVE APT 2, BRONX, NY, 10471","Match","Exact","5707 HUXLEY AVE, BRONX, NY, 10471",80296275,"L"
735250,"5707 LARRY DRIVE","TEXARKANA","TX",75503,33.473258657,-94.087638259,250,"5707 LARRY DRIVE, TEXARKANA, TX, 75503","Match","Exact","5707 LARRY DR, TEXARKANA, TX, 75503",57687527,"R"
735251,"5707 LIME HILL RD","LAUDERHILL","FL",33319,26.1673262960001,-80.2288924759999,251,"5707 LIME HILL RD, LAUDERHILL, FL, 33319","Match","Exact","5707 LIME HILL RD, LAUDERHILL, FL, 33319",114785343,"L"
735252,"5707 LYCOMB DR","HOUSTON","TX",77053,29.5917381310001,-95.472578436,252,"5707 LYCOMB DR, HOUSTON, TX, 77053","Match","Exact","5707 LYCOMB DR, HOUSTON, TX, 77053",78271710,"R"
735253,"5707 MARCONI AVENUE UNIT A","CARMICHAEL","CA",95608,38.6172021350001,-121.331771482,253,"5707 MARCONI AVENUE UNIT A, CARMICHAEL, CA, 95608","Match","Exact","5707 MARCONI AVE, CARMICHAEL, CA, 95608",133343337,"L"
735254,"5707 MORRIS RD","FLOWER MOUND","TX",75028,33.0636038820001,-97.061769109,254,"5707 MORRIS RD, FLOWER MOUND, TX, 75028","Match","Non_Exact","5707 MORRISS RD, FLOWER MOUND, TX, 75028",103427682,"R"
735255,"5707 N 450 E","CHURUBUSCO","IN",46723,41.2482403220001,-85.405566591,255,"5707 N 450 E, CHURUBUSCO, IN, 46723","Match","Exact","5707 N 450 E, CHURUBUSCO, IN, 46723",6648307,"L"
735256,"5707 N TRYON ST LOT 22","CHARLOTTE","NC",28213,35.2636644450001,-80.7711308459999,256,"5707 N TRYON ST LOT 22, CHARLOTTE, NC, 28213","Match","Non_Exact","5707 N TRYON ST, CHARLOTTE, NC, 28213",636704446,"L"
735257,"5707 NE 15TH STREET","PORTLAND","OR",97211,45.5639132000001,-122.65006856,257,"5707 NE 15TH STREET, PORTLAND, OR, 97211","Match","Non_Exact","5707 NE 15TH AVE, PORTLAND, OR, 97211",157505606,"L"
735258,"5707 NE 55TH AVE","VANCOUVER","WA",98661,45.6635913060001,-122.615691709,258,"5707 NE 55TH AVE, VANCOUVER, WA, 98661","Match","Exact","5707 NE 55TH AVE, VANCOUVER, WA, 98661",158351174,"R"
735259,"5707 NOTTINGHAM PLACE","BARTLESVILLE","OK",74006,36.7112147780001,-95.910827836,259,"5707 NOTTINGHAM PLACE, BARTLESVILLE, OK, 74006","Match","Exact","5707 NOTTINGHAM PL, BARTLESVILLE, OK, 74006",601462673,"R"
735260,"5707 Princeton Drive","PENSACOLA","FL",32526,30.4508988420001,-87.334456266,260,"5707 Princeton Drive, PENSACOLA, FL, 32526","Match","Exact","5707 PRINCETON DR, PENSACOLA, FL, 32526",93227997,"R"
735261,"5707 REBEL DR","CHARLOTTE","NC",28210,35.1350905090001,-80.832964792,261,"5707 REBEL DR, CHARLOTTE, NC, 28210","Match","Exact","5707 REBEL DR, CHARLOTTE, NC, 28210",70489424,"L"
735262,"5707 RICHARDS CIRCLE","SHAWNEE","KS",66216,39.024637182,-94.73623723,262,"5707 RICHARDS CIRCLE, SHAWNEE, KS, 66216","Match","Exact","5707 RICHARDS CIR, SHAWNEE, KS, 66216",91288937,"L"
735263,"5707 RIVER ROAD","LEICESTER","NY",14481,NA,NA,263,"5707 RIVER ROAD, LEICESTER, NY, 14481","No_Match",NA,NA,NA,NA
735264,"5707 ROCKAWAY DRIVE","UNION CITY","GA",30291,33.57283117,-84.5618641469999,264,"5707 ROCKAWAY DRIVE, UNION CITY, GA, 30291","Match","Exact","5707 ROCKAWAY DR, UNION CITY, GA, 30291",17405564,"R"
735265,"5707 S GOVE ST","TACOMA","WA",98409,47.206021364,-122.499537238,265,"5707 S GOVE ST, TACOMA, WA, 98409","Match","Exact","5707 S GOVE ST, TACOMA, WA, 98409",647960284,"R"
735266,"5707 S NEW HAVEN","TULSA","OK",74135,36.0808358780001,-95.932212398,266,"5707 S NEW HAVEN, TULSA, OK, 74135","Match","Non_Exact","5707 S NEW HAVEN AVE, TULSA, OK, 74135",166508125,"L"
735267,"5707 S SMALLWOOD WAY APT 21","TAYLORSVILLE","UT",84129,40.647454339,-111.946250855,267,"5707 S SMALLWOOD WAY APT 21, TAYLORSVILLE, UT, 84129","Match","Non_Exact","5707 S SMALLWOOD WAY, TAYLORSVILLE, UT, 84129",176142519,"R"
735268,"5707 SAN LEANDRO ST SUITE D","OAKLAND","CA",94621,37.761925901,-122.206864933,268,"5707 SAN LEANDRO ST SUITE D, OAKLAND, CA, 94621","Match","Exact","5707 SAN LEANDRO ST, OAKLAND, CA, 94621",606330792,"R"
735269,"5707 SE BELMONT","PORTLAND","OR",97215,45.5167585190001,-122.60509575,269,"5707 SE BELMONT, PORTLAND, OR, 97215","Match","Non_Exact","5707 SE BELMONT ST, PORTLAND, OR, 97215",157512510,"L"
735270,"5707 SHROPSHIRE COURT","ALEXANDRIA","VA",22315,38.746243599,-77.136743203,270,"5707 SHROPSHIRE COURT, ALEXANDRIA, VA, 22315","Match","Exact","5707 SHROPSHIRE CT, ALEXANDRIA, VA, 22315",75985985,"L"
735271,"5707 SOUTH QUEEN ST","LITTLETON","CO",80127,39.612033895,-105.125286824,271,"5707 SOUTH QUEEN ST, LITTLETON, CO, 80127","Match","Exact","5707 S QUEEN ST, LITTLETON, CO, 80127",177738857,"R"
735272,"5707 SOUTHWEST PARKWAY","AUSTIN","TX",78735,30.24577334,-97.845346666,272,"5707 SOUTHWEST PARKWAY, AUSTIN, TX, 78735","Match","Exact","5707 SOUTHWEST PKWY, AUSTIN, TX, 78735",641678738,"L"
735273,"5707 SUNVIEW DRIVE","SALT LAKE CITY","UT",84118,40.6477325700001,-112.026658812,273,"5707 SUNVIEW DRIVE, SALT LAKE CITY, UT, 84118","Match","Exact","5707 SUNVIEW DR, SALT LAKE CITY, UT, 84118",176129278,"L"
735274,"5707 TIMBERS TRAIL DR","HUMBLE","TX",77346,30.0062826590001,-95.188059083,274,"5707 TIMBERS TRAIL DR, HUMBLE, TX, 77346","Match","Exact","5707 TIMBERS TRAIL DR, HUMBLE, TX, 77346",638593499,"L"
735275,"5707 TPC PARKWAY APT 717","SAN ANTONIO","TX",78261,NA,NA,275,"5707 TPC PARKWAY APT 717, SAN ANTONIO, TX, 78261","No_Match",NA,NA,NA,NA
735276,"5707 TPC PARKWAY","SAN ANTONIO","TX",78261,29.6470155370001,-98.401283929,276,"5707 TPC PARKWAY, SAN ANTONIO, TX, 78261","Match","Exact","5707 TPC PKWY, SAN ANTONIO, TX, 78261",634130947,"R"
735277,"5707 TPC PKWY APT 326","SAN ANTONIO","TX",78261,NA,NA,277,"5707 TPC PKWY APT 326, SAN ANTONIO, TX, 78261","No_Match",NA,NA,NA,NA
735278,"5707 VALKEITH","HOUSTON","TX",77096,29.6719433370001,-95.487019572,278,"5707 VALKEITH, HOUSTON, TX, 77096","Match","Non_Exact","5707 VALKEITH DR, HOUSTON, TX, 77096",96038974,"L"
735279,"5707 VIA CERVANO","BAKERSFIELD","CA",93312,35.4120573600001,-119.106473782,279,"5707 VIA CERVANO, BAKERSFIELD, CA, 93312","Match","Exact","5707 VIA CERVANO, BAKERSFIELD, CA, 93312",109530800,"L"
735280,"5707 W HIDDEN SPRINGS DR","BOISE","ID",83714,43.725393726,-116.260052379,280,"5707 W HIDDEN SPRINGS DR, BOISE, ID, 83714","Match","Exact","5707 W HIDDEN SPRINGS DR, BOISE, ID, 83714",117891341,"R"
735281,"5707 WELLS LANE","SALADO","TX",76571,30.928427922,-97.5795792489999,281,"5707 WELLS LANE, SALADO, TX, 76571","Match","Exact","5707 WELLS LN, SALADO, TX, 76571",146227085,"R"
735282,"5707 WILLISTON DR","PARMA","OH",44129,41.377494213,-81.724983794,282,"5707 WILLISTON DR, PARMA, OH, 44129","Match","Exact","5707 WILLISTON DR, PARMA, OH, 44129",61107594,"L"
735283,"5707 YUCATAN DR","INDIANAPOLIS","IN",46237,39.6908871680001,-86.0694422889999,283,"5707 YUCATAN DR, INDIANAPOLIS, IN, 46237","Match","Exact","5707 YUCATAN DR, INDIANAPOLIS, IN, 46237",108009715,"R"
735284,"57073 BROOKFIELD WAY","WASHINGTON TWP","MI",48094,42.7149481440001,-83.003732354,284,"57073 BROOKFIELD WAY, WASHINGTON TWP, MI, 48094","Match","Exact","57073 BROOKFIELD WAY, WASHINGTON TOWNSHIP, MI, 48094",110721126,"L"
735285,"57073 PACE RD","SLIDELL","LA",70461,30.2575758630001,-89.7296035799999,285,"57073 PACE RD, SLIDELL, LA, 70461","Match","Non_Exact","57073 PACE ST, SLIDELL, LA, 70461",635838943,"L"
735286,"5708 151ST SE","EVERETT","WA",98208,47.860576914,-122.155304733,286,"5708 151ST SE, EVERETT, WA, 98208","Match","Non_Exact","5708 151ST ST SE, EVERETT, WA, 98208",187800193,"L"
735287,"5708 41ST AVE CT NW","GIG HARBOR","WA",98335,47.31088227,-122.594282847,287,"5708 41ST AVE CT NW, GIG HARBOR, WA, 98335","Match","Exact","5708 41ST AVENUE CT NW, GIG HARBOR, WA, 98335",184676092,"R"
735288,"5708 ARROW TREE ST","LAS VEGAS","NV",89130,36.263416491,-115.20778533,288,"5708 ARROW TREE ST, LAS VEGAS, NV, 89130","Match","Exact","5708 ARROW TREE ST, LAS VEGAS, NV, 89130",202004359,"L"
735289,"5708 BRANDON BOULEVARD","VIRGINIA BEACH","VA",23464,36.7905858190001,-76.193920925,289,"5708 BRANDON BOULEVARD, VIRGINIA BEACH, VA, 23464","Match","Exact","5708 BRANDON BLVD, VA BCH, VA, 23464",122258126,"R"
735290,"5708 BRIARCREST DR","GARLAND","TX",75043,32.846307826,-96.5661578959999,290,"5708 BRIARCREST DR, GARLAND, TX, 75043","Match","Exact","5708 BRIARCREST DR, GARLAND, TX, 75043",635762951,"L"
735291,"5708 CALADIUM DRIVE","DALLAS","TX",75230,32.9075571610001,-96.8101254439999,291,"5708 CALADIUM DRIVE, DALLAS, TX, 75230","Match","Exact","5708 CALADIUM DR, DALLAS, TX, 75230",102901255,"R"
735292,"5708 CHILHAM ROAD","BALTIMORE","MD",21209,39.364119514,-76.662367769,292,"5708 CHILHAM ROAD, BALTIMORE, MD, 21209","Match","Exact","5708 CHILHAM RD, BALTIMORE, MD, 21209",206445457,"L"
735293,"5708 DUNHAM RD","MAPLE HEIGHTS","OH",44137,41.4046568950001,-81.575256838,293,"5708 DUNHAM RD, MAPLE HEIGHTS, OH, 44137","Match","Exact","5708 DUNHAM RD, MAPLE HEIGHTS, OH, 44137",61128438,"R"
735294,"5708 E ROBERT ST","MUNCIE","IN",47303,40.195595043,-85.3203613379999,294,"5708 E ROBERT ST, MUNCIE, IN, 47303","Match","Exact","5708 E ROBERT ST, MUNCIE, IN, 47303",30839176,"L"
735295,"5708 EASTSIDE RD","ETNA","CA",96027,41.521164884,-122.841419384,295,"5708 EASTSIDE RD, ETNA, CA, 96027","Match","Exact","5708 EASTSIDE RD, ETNA, CA, 96027",113229586,"R"
735296,"5708 EISENHOWER DRIVE","FORT WORTH","TX",76112,32.7278158840001,-97.231780248,296,"5708 EISENHOWER DRIVE, FORT WORTH, TX, 76112","Match","Exact","5708 EISENHOWER DR, FORT WORTH, TX, 76112",101898183,"R"
735297,"5708 FALLS RIDGE LANE","CHARLOTTE","NC",28269,35.3522385570001,-80.815697733,297,"5708 FALLS RIDGE LANE, CHARLOTTE, NC, 28269","Match","Exact","5708 FALLS RIDGE LN, CHARLOTTE, NC, 28269",70543922,"L"
735298,"5708 FERN ST","EL CERRITO","CA",94530,37.9318710950001,-122.317565562,298,"5708 FERN ST, EL CERRITO, CA, 94530","Match","Exact","5708 FERN ST, EL CERRITO, CA, 94530",192043048,"R"
735299,"5708 FIELD ST","FARMINGTON","WV",26571,39.514925615,-80.255608934,299,"5708 FIELD ST, FARMINGTON, WV, 26571","Match","Exact","5708 FIELD ST, FARMINGTON, WV, 26571",51448145,"R"
735300,"5708 FOX TRAIL","FLORENCE","MT",59833,46.653901864,-114.058936917,300,"5708 FOX TRAIL, FLORENCE, MT, 59833","Match","Exact","5708 FOX TRL, FLORENCE, MT, 59833",153540642,"R"
735301,"5708 FREDRICK COURT","PLANO","TX",75093,33.0188817820001,-96.8168488589999,301,"5708 FREDRICK COURT, PLANO, TX, 75093","Match","Exact","5708 FREDRICK CT, PLANO, TX, 75093",123532751,"L"
735302,"5708 HEYWOOD ROAD","RICHMOND","VA",23224,37.483708005,-77.496352141,302,"5708 HEYWOOD ROAD, RICHMOND, VA, 23224","Match","Exact","5708 HEYWOOD RD, RICHMOND, VA, 23224",201537153,"R"
735303,"5708 HIGHBLUFF TERRACE","PLEASANTON","CA",94588,37.683918465,-121.935011794,303,"5708 HIGHBLUFF TERRACE, PLEASANTON, CA, 94588","Match","Exact","5708 HIGHBLUFF TER, PLEASANTON, CA, 94588",125064674,"L"
735304,"5708 HIGHCROFT DRIVE","CARY","NC",27519,35.79664244,-78.887599186,304,"5708 HIGHCROFT DRIVE, CARY, NC, 27519","Match","Exact","5708 HIGHCROFT DR, CARY, NC, 27519",612825648,"R"
735305,"5708 HUCKBURN COURT","LAUREL","MD",20707,39.107125888,-76.909201966,305,"5708 HUCKBURN COURT, LAUREL, MD, 20707","Match","Exact","5708 HUCKBURN CT, LAUREL, MD, 20707",62102832,"L"
735306,"5708 JAY ROAD","VASSAR","MI",48768,43.365721314,-83.59450287,306,"5708 JAY ROAD, VASSAR, MI, 48768","Match","Exact","5708 JAY RD, VASSAR, MI, 48768",81247768,"R"
735307,"5708 LAKE WEST TERRACE","GLEN ALLEN","VA",23059,37.6952348310001,-77.6183730129999,307,"5708 LAKE WEST TERRACE, GLEN ALLEN, VA, 23059","Match","Exact","5708 LAKE WEST TER, GLEN ALLEN, VA, 23059",106683738,"L"
735308,"5708 LINDENHURST AVE","LOS ANGELES","CA",90034,34.0656688380001,-118.351642588,308,"5708 LINDENHURST AVE, LOS ANGELES, CA, 90034","Match","Non_Exact","5708 LINDENHURST AVE, LOS ANGELES, CA, 90036",141599170,"L"
735309,"5708 LYONS VIEW PIKE","KNOXVILLE","TN",37919,35.929851506,-83.990341229,309,"5708 LYONS VIEW PIKE, KNOXVILLE, TN, 37919","Match","Exact","5708 LYONS VIEW PIKE, KNOXVILLE, TN, 37919",42616073,"L"
735310,"5708 MONTROSE DRIVE","KILLEEN","TX",76542,31.0561465270001,-97.6951242599999,310,"5708 MONTROSE DRIVE, KILLEEN, TX, 76542","Match","Exact","5708 MONTROSE DR, KILLEEN, TX, 76542",146228108,"L"
735311,"5708 N 19TH DRIVE","PHOENIX","AZ",85015,33.5210923380001,-112.100804577,311,"5708 N 19TH DRIVE, PHOENIX, AZ, 85015","Match","Exact","5708 N 19TH DR, PHOENIX, AZ, 85015",128205446,"L"
735312,"5708 N MUSCATEL AVE","SAN GABRIEL","CA",91775,34.1037708960001,-118.07720554,312,"5708 N MUSCATEL AVE, SAN GABRIEL, CA, 91775","Match","Exact","5708 N MUSCATEL AVE, SAN GABRIEL, CA, 91775",142736586,"R"
735313,"5708 N SHEPHERD - SUITE B","HOUSTON","TX",77091,NA,NA,313,"5708 N SHEPHERD - SUITE B, HOUSTON, TX, 77091","No_Match",NA,NA,NA,NA
735314,"5708 NE HIDDEN MEADOW","KANSAS CITY","MO",64064,NA,NA,314,"5708 NE HIDDEN MEADOW, KANSAS CITY, MO, 64064","Tie",NA,NA,NA,NA
735315,"5708 NORTH CAPITOL STREET NW","WASHINGTON","DC",20011,38.9588367790001,-77.009055926,315,"5708 NORTH CAPITOL STREET NW, WASHINGTON, DC, 20011","Match","Exact","5708 N CAPITOL ST NW, WASHINGTON, DC, 20011",76223818,"L"
735316,"5708 NW 65TH","WARR ACRES","OK",73132,35.5382524620001,-97.616434582,316,"5708 NW 65TH, WARR ACRES, OK, 73132","Match","Non_Exact","5708 NW 65TH ST, WARR ACRES, OK, 73132",100388709,"L"
735317,"5708 OSWAGO CIR","COLUMBIA","MO",65201,38.954118248,-92.250422642,317,"5708 OSWAGO CIR, COLUMBIA, MO, 65201","Match","Exact","5708 OSWAGO CIR, COLUMBIA, MO, 65201",643144701,"L"
735318,"5708 PACESETTER STREET","NORTH LAS VEGAS","NV",89081,36.2639261520001,-115.103754649,318,"5708 PACESETTER STREET, NORTH LAS VEGAS, NV, 89081","Match","Exact","5708 PACESETTER ST, N LAS VEGAS, NV, 89081",612692958,"R"
735319,"5708 PARK KNOLL DR","BATON ROUGE","LA",70816,NA,NA,319,"5708 PARK KNOLL DR, BATON ROUGE, LA, 70816","No_Match",NA,NA,NA,NA
735320,"5708 PENNY CREEK DR","AUSTIN","TX",78759,30.413195047,-97.75438963,320,"5708 PENNY CREEK DR, AUSTIN, TX, 78759","Match","Exact","5708 PENNY CREEK DR, AUSTIN, TX, 78759",63926384,"R"
735321,"5708 POLK DR","NOBLESVILLE","IN",46062,40.005399287,-86.072932814,321,"5708 POLK DR, NOBLESVILLE, IN, 46062","Match","Exact","5708 POLK DR, NOBLESVILLE, IN, 46062",231603525,"R"
735322,"5708 POST OAK CT","MOBILE","AL",36609,30.650295048,-88.1769226819999,322,"5708 POST OAK CT, MOBILE, AL, 36609","Match","Exact","5708 POST OAK CT, MOBILE, AL, 36609",61854646,"R"
735323,"5708 REMINGTON PLACE SUITE 600","SIOUX FALLS","SD",57108,43.4926337150001,-96.74818119,323,"5708 REMINGTON PLACE SUITE 600, SIOUX FALLS, SD, 57108","Match","Non_Exact","5708 S REMINGTON PL, SIOUX FALLS, SD, 57108",618468699,"L"
735324,"5708 RFD","LONG GROVE","IL",60047,42.203828005,-87.9825520269999,324,"5708 RFD, LONG GROVE, IL, 60047","Match","Exact","5708 RFD, LONG GROVE, IL, 60047",645722977,"R"
735325,"5708 S 159 AVE","OMAHA","NE",68135,41.1997305800001,-96.162962249,325,"5708 S 159 AVE, OMAHA, NE, 68135","Match","Exact","5708 S 159TH AVE, OMAHA, NE, 68135",117018916,"L"
735326,"5708 S KIMBARK AVE APT 3","CHICAGO","IL",60637,41.791153314,-87.594836113,326,"5708 S KIMBARK AVE APT 3, CHICAGO, IL, 60637","Match","Non_Exact","5708 S KIMBARK AVE, CHICAGO, IL, 60637",605501300,"R"
735327,"5708 S KIMMER COVE WAY","BOISE","ID",83709,43.5511531720001,-116.311043417,327,"5708 S KIMMER COVE WAY, BOISE, ID, 83709","Match","Exact","5708 S KIMMER COVE WAY, BOISE, ID, 83709",647661676,"L"
735328,"5708 S RIMPAU BLVD","LOS ANGELES","CA",90043,33.99060982,-118.339852326,328,"5708 S RIMPAU BLVD, LOS ANGELES, CA, 90043","Match","Exact","5708 S RIMPAU BLVD, LOS ANGELES, CA, 90043",142750313,"L"
735329,"5708 SIMMONDS AVE","BALTIMORE","MD",21215,39.3566271110001,-76.678693838,329,"5708 SIMMONDS AVE, BALTIMORE, MD, 21215","Match","Exact","5708 SIMMONDS AVE, BALTIMORE, MD, 21215",206464893,"L"
735330,"5708 STARBOARDWAY DRIVE","FORT WORTH","TX",76105,32.825658192,-97.412376957,330,"5708 STARBOARDWAY DRIVE, FORT WORTH, TX, 76105","Match","Non_Exact","5708 STARBOARDWAY DR, FT WORTH, TX, 76135",102114318,"L"
735331,"5708 SUTTER AVE","CARMICHAEL","CA",95608,38.6335226580001,-121.330945224,331,"5708 SUTTER AVE, CARMICHAEL, CA, 95608","Match","Exact","5708 SUTTER AVE, CARMICHAEL, CA, 95608",133343003,"R"
735332,"5708 SUTTER AVENUE","CARMICHAEL","CA",95608,38.6335226580001,-121.330945224,332,"5708 SUTTER AVENUE, CARMICHAEL, CA, 95608","Match","Exact","5708 SUTTER AVE, CARMICHAEL, CA, 95608",133343003,"R"
735333,"5708 TIJUNGA AVE APT 4","NORTH HOLLYWOOD","CA",91601,34.1742386070001,-118.379014567,333,"5708 TIJUNGA AVE APT 4, NORTH HOLLYWOOD, CA, 91601","Match","Non_Exact","5708 TUJUNGA AVE, N HOLLYWOOD, CA, 91601",141564919,"R"
735334,"5708 VERNON WAY","SUITLAND","MD",20746,38.8203415900001,-76.9088464609999,334,"5708 VERNON WAY, SUITLAND, MD, 20746","Match","Exact","5708 VERNON WAY, SUITLAND, MD, 20746",76314952,"L"
735335,"5708 W FRIER DR","GLENDALE","AZ",85301,33.549337415,-112.181662414,335,"5708 W FRIER DR, GLENDALE, AZ, 85301","Match","Exact","5708 W FRIER DR, GLENDALE, AZ, 85301",613296902,"R"
735336,"5708 W MILADA DR","LAVEEN","AZ",85339,33.363634851,-112.173904021,336,"5708 W MILADA DR, LAVEEN, AZ, 85339","Match","Exact","5708 W MILADA DR, LAVEEN, AZ, 85339",614553251,"R"
735337,"5708 WINDLESTRAW DRIVE APT 36","DURHAM","NC",27713,35.919369825,-78.9271337229999,337,"5708 WINDLESTRAW DRIVE APT 36, DURHAM, NC, 27713","Match","Exact","5708 WINDLESTRAW DR, DURHAM, NC, 27713",71748468,"R"
735338,"5708 YORKSHIRE RD","MCKINNEY","TX",75070,33.1492461020001,-96.689611359,338,"5708 YORKSHIRE RD, MCKINNEY, TX, 75070","Match","Exact","5708 YORKSHIRE RD, MCKINNEY, TX, 75070",650987896,"R"
735339,"5708","SUITLAND","MD",20746,NA,NA,339,"5708, SUITLAND, MD, 20746","No_Match",NA,NA,NA,NA
735340,"5708D PETTY STREET","HOUSTON","TX",77007,29.7805048860001,-95.42464696,340,"5708D PETTY STREET, HOUSTON, TX, 77007","Match","Exact","5708 PETTY ST, HOUSTON, TX, 77007",96059873,"R"
735341,"5709 ALMOND LANE","FORT WORTH","TX",76051,32.950691412,-97.258050891,341,"5709 ALMOND LANE, FORT WORTH, TX, 76051","Match","Non_Exact","5709 ALMOND LN, FT WORTH, TX, 76244",102117113,"L"
735342,"5709 BRONCO PL","MILTON","FL",32570,30.627411249,-87.084143274,342,"5709 BRONCO PL, MILTON, FL, 32570","Match","Exact","5709 BRONCO PL, MILTON, FL, 32570",74584350,"L"
735343,"5709 CANTERBURY DRIVE","COLUMBUS","GA",31909,32.5255963870001,-84.934785871,343,"5709 CANTERBURY DRIVE, COLUMBUS, GA, 31909","Match","Exact","5709 CANTERBURY DR, COLUMBUS, GA, 31909",98953896,"L"
735344,"5709 CARRINGTON DRIVE","WHITE MARSH","MD",21162,39.4073649800001,-76.405365836,344,"5709 CARRINGTON DRIVE, WHITE MARSH, MD, 21162","Match","Exact","5709 CARRINGTON DR, WHITE MARSH, MD, 21162",191520109,"R"
735345,"5709 CARRINGTON WAY","TRUSSVILLE","AL",35173,33.661323211,-86.527801982,345,"5709 CARRINGTON WAY, TRUSSVILLE, AL, 35173","Match","Exact","5709 CARRINGTON WAY, TRUSSVILLE, AL, 35173",81650924,"R"
735346,"5709 CEDAR WALK WAY","CENTREVILE","VA",20121,38.835922188,-77.420228558,346,"5709 CEDAR WALK WAY, CENTREVILE, VA, 20121","Match","Non_Exact","5709 CEDAR WALK, CENTREVILLE, VA, 20121",618773641,"R"
735347,"5709 CEDGATE ROAD","BALTIMORE","MD",21206,NA,NA,347,"5709 CEDGATE ROAD, BALTIMORE, MD, 21206","No_Match",NA,NA,NA,NA
735348,"5709 CHEVIOT RD","CINCINNATI","OH",45247,39.196245812,-84.600178737,348,"5709 CHEVIOT RD, CINCINNATI, OH, 45247","Match","Exact","5709 CHEVIOT RD, CINCINNATI, OH, 45247",652705997,"L"
735349,"5709 CYPRESS CREEK DR","CHILLUM","MO",20782,NA,NA,349,"5709 CYPRESS CREEK DR, CHILLUM, MO, 20782","No_Match",NA,NA,NA,NA
735350,"5709 DALE AVENUE","EDINA","MN",55436,44.900366408,-93.35952973,350,"5709 DALE AVENUE, EDINA, MN, 55436","Match","Exact","5709 DALE AVE, EDINA, MN, 55436",640486791,"L"
735351,"5709 DOMINGO PENA","CORPUS CHRISTI","TX",78417,27.7290305930001,-97.443692739,351,"5709 DOMINGO PENA, CORPUS CHRISTI, TX, 78417","Match","Non_Exact","5709 DOMINGO PENA ST, CORPUS CHRISTI, TX, 78417",635163292,"L"
735352,"5709 DREXEL ROAD","PHILADELPHIA","PA",19131,39.991094419,-75.238183883,352,"5709 DREXEL ROAD, PHILADELPHIA, PA, 19131","Match","Exact","5709 DREXEL RD, PHILADELPHIA, PA, 19131",131440636,"R"
735353,"5709 DRY CREEK LANE","JEFFERSON CITY","MO",65109,38.5643657300001,-92.302420957,353,"5709 DRY CREEK LANE, JEFFERSON CITY, MO, 65109","Match","Exact","5709 DRY CREEK LN, JEFFERSON CITY, MO, 65109",627115343,"L"
735354,"5709 E 102ND ST","KANSAS CITY","MO",64137,38.939948611,-94.5236821249999,354,"5709 E 102ND ST, KANSAS CITY, MO, 64137","Match","Exact","5709 E 102ND ST, KANSAS CITY, MO, 64137",652556667,"R"
735355,"5709 FRED RUSSO DR","STOCKTON","CA",95212,38.010512326,-121.278156757,355,"5709 FRED RUSSO DR, STOCKTON, CA, 95212","Match","Exact","5709 FRED RUSSO DR, STOCKTON, CA, 95212",133928943,"L"
735356,"5709 GEORGIA LN","LOUISVILLE","KY",40219,38.146246798,-85.6549314759999,356,"5709 GEORGIA LN, LOUISVILLE, KY, 40219","Match","Exact","5709 GEORGIA LN, LOUISVILLE, KY, 40219",96920536,"L"
735357,"5709 GRAND AVENUE","DULUTH","MN",55807,46.738909171,-92.16929215,357,"5709 GRAND AVENUE, DULUTH, MN, 55807","Match","Exact","5709 GRAND AVE, DULUTH, MN, 55807",163210129,"R"
735358,"5709 KEY AVENUE","BALTIMORE","MD",21215,39.3576986,-76.6783804089999,358,"5709 KEY AVENUE, BALTIMORE, MD, 21215","Match","Exact","5709 KEY AVE, BALTIMORE, MD, 21215",206404849,"R"
735359,"5709 LONGHORN LANE","MIDLAND","TX",79707,32.036903615,-102.187622173,359,"5709 LONGHORN LANE, MIDLAND, TX, 79707","Match","Exact","5709 LONGHORN LN, MIDLAND, TX, 79707",649130670,"L"
735360,"5709 LYON VIEW PIKE 1213","KNOXVILLE","TX",37919,NA,NA,360,"5709 LYON VIEW PIKE 1213, KNOXVILLE, TX, 37919","No_Match",NA,NA,NA,NA
735361,"5709 LYONS VIEW PIKE","KNOXVILLE","TN",37919,35.92861091,-83.991091985,361,"5709 LYONS VIEW PIKE, KNOXVILLE, TN, 37919","Match","Exact","5709 LYONS VIEW PIKE, KNOXVILLE, TN, 37919",42616109,"R"
735362,"5709 MACGREGORY DR","HALTOM CITY","TN",76148,NA,NA,362,"5709 MACGREGORY DR, HALTOM CITY, TN, 76148","No_Match",NA,NA,NA,NA
735363,"5709 MADISON AVE","NEWPORT NEWS","VA",23605,37.001833511,-76.4303353889999,363,"5709 MADISON AVE, NEWPORT NEWS, VA, 23605","Match","Exact","5709 MADISON AVE, NEWPORT NEWS, VA, 23605",103756298,"L"
735364,"5709 MARBLE ARCH WAY","ALEXANDRIA","VA",22315,38.74806283,-77.134851034,364,"5709 MARBLE ARCH WAY, ALEXANDRIA, VA, 22315","Match","Exact","5709 MARBLE ARCH WAY, ALEXANDRIA, VA, 22315",75986005,"L"
735365,"5709 N KEDVALE","CHICAGO","IL",60646,41.9843445010001,-87.732122139,365,"5709 N KEDVALE, CHICAGO, IL, 60646","Match","Non_Exact","5709 N KEDVALE AVE, CHICAGO, IL, 60646",111741739,"R"
735366,"5709 N SAPULPA AVE","OKLAHOMA CITY","OK",73112,35.528137916,-97.5885310259999,366,"5709 N SAPULPA AVE, OKLAHOMA CITY, OK, 73112","Match","Exact","5709 N SAPULPA AVE, OKLAHOMA CITY, OK, 73112",620037636,"L"
735367,"5709 N SAPULPA","OKLAHOMA CITY","OK",73112,35.528137916,-97.5885310259999,367,"5709 N SAPULPA, OKLAHOMA CITY, OK, 73112","Match","Non_Exact","5709 N SAPULPA AVE, OKLAHOMA CITY, OK, 73112",620037636,"L"
735368,"5709 NW 63RD PLACE","PARKLAND","FL",33067,26.309030869,-80.2029881189999,368,"5709 NW 63RD PLACE, PARKLAND, FL, 33067","Match","Exact","5709 NW 63RD PL, PARKLAND, FL, 33067",114768211,"L"
735369,"5709 OLDE SOUTH RD","RALEIGH","NC",27606,35.7047016280001,-78.709870786,369,"5709 OLDE SOUTH RD, RALEIGH, NC, 27606","Match","Exact","5709 OLDE SOUTH RD, RALEIGH, NC, 27606",72619682,"R"
735370,"5709 PALMER DRIVE","WEED","CA",96094,41.500422085,-122.381062762,370,"5709 PALMER DRIVE, WEED, CA, 96094","Match","Exact","5709 PALMER DR, WEED, CA, 96094",113231086,"R"
735371,"5709 PATE RD","HOUSTON","TX",77016,29.8551690240001,-95.3138249739999,371,"5709 PATE RD, HOUSTON, TX, 77016","Match","Exact","5709 PATE RD, HOUSTON, TX, 77016",96075130,"L"
735372,"5709 PEMBROKE DR","FITCHBURG","WI",53711,43.0079233700001,-89.437782956,372,"5709 PEMBROKE DR, FITCHBURG, WI, 53711","Match","Exact","5709 PEMBROKE DR, FITCHBURG, WI, 53711",49502001,"L"
735373,"5709 PINE VALLEY DRIVE","FLOWER MOUND","TX",75022,33.0621861230001,-97.166233571,373,"5709 PINE VALLEY DRIVE, FLOWER MOUND, TX, 75022","Match","Exact","5709 PINE VALLEY DR, FLOWER MOUND, TX, 75022",103388015,"R"
735374,"5709 ROCKPORT PLACE","KNIGHTDALE","NC",27545,35.7644359970001,-78.44955462,374,"5709 ROCKPORT PLACE, KNIGHTDALE, NC, 27545","Match","Exact","5709 ROCKPORT PL, KNIGHTDALE, NC, 27545",72599923,"R"
735375,"5709 ROSE HILL COURT","ROSHARON","TX",77583,29.4996190200001,-95.4403876599999,375,"5709 ROSE HILL COURT, ROSHARON, TX, 77583","Match","Exact","5709 ROSE HILL CT, ROSHARON, TX, 77583",627662833,"R"
735376,"5709 ROSSLARE LANE","FITCHBURG","WI",53711,43.0164169970001,-89.436010744,376,"5709 ROSSLARE LANE, FITCHBURG, WI, 53711","Match","Exact","5709 ROSSLARE LN, FITCHBURG, WI, 53711",49501985,"L"
735377,"5709 SARANAC DR","COLUMBUS","OH",43232,39.9411671980001,-82.842263007,377,"5709 SARANAC DR, COLUMBUS, OH, 43232","Match","Exact","5709 SARANAC DR, COLUMBUS, OH, 43232",218647817,"R"
735378,"5709 SARANAC DRIVE","COLUMBUS","OH",43232,39.9411671980001,-82.842263007,378,"5709 SARANAC DRIVE, COLUMBUS, OH, 43232","Match","Exact","5709 SARANAC DR, COLUMBUS, OH, 43232",218647817,"R"
735379,"5709 SAWYER RIDGE","PUEBLO","CO",81008,38.33277581,-104.636547334,379,"5709 SAWYER RIDGE, PUEBLO, CO, 81008","Match","Non_Exact","5709 SAWYER RIDGE DR, PUEBLO, CO, 81008",625687784,"L"
735380,"5709 SMITH ROAD/SUITE C","CLEVELAND","OH",44142,41.4075865390001,-81.803907887,380,"5709 SMITH ROAD/SUITE C, CLEVELAND, OH, 44142","Match","Non_Exact","5709 SMITH RD, CLEVELAND, OH, 44142",61103785,"L"
735381,"5709 SOUTH REMINGTON PLACE SUITE 10","SIOUX FALLS","SD",57108,43.4926715350001,-96.748116152,381,"5709 SOUTH REMINGTON PLACE SUITE 10, SIOUX FALLS, SD, 57108","Match","Exact","5709 S REMINGTON PL, SIOUX FALLS, SD, 57108",618468699,"R"
735382,"5709 STANDING OAK ROAD","MIDLOTHIAN","VA",23112,37.4240878890001,-77.679206941,382,"5709 STANDING OAK ROAD, MIDLOTHIAN, VA, 23112","Match","Exact","5709 STANDING OAK RD, MIDLOTHIAN, VA, 23112",201562916,"L"
735383,"5709 STATE RT 80","FORT DENAUD","FL",33935,NA,NA,383,"5709 STATE RT 80, FORT DENAUD, FL, 33935","No_Match",NA,NA,NA,NA
735384,"5709 TAHAMA STREET","SACRAMENTO","CA",95841,38.6702340890001,-121.340306989,384,"5709 TAHAMA STREET, SACRAMENTO, CA, 95841","Match","Exact","5709 TAHAMA ST, SACRAMENTO, CA, 95841",133341088,"L"
735385,"5709 TAHAMA STREET","SACREMENTO","CA",95841,38.6702340890001,-121.340306989,385,"5709 TAHAMA STREET, SACREMENTO, CA, 95841","Match","Non_Exact","5709 TAHAMA ST, SACRAMENTO, CA, 95841",133341088,"L"
735386,"5709 VAN ZANDT","HOUSTON","TX",77016,29.881764531,-95.304965883,386,"5709 VAN ZANDT, HOUSTON, TX, 77016","Match","Non_Exact","5709 VAN ZANDT ST, HOUSTON, TX, 77016",96075277,"L"
735387,"5709 W GATE CITY BLVD STE 201","GREENSBORO","NC",27407,NA,NA,387,"5709 W GATE CITY BLVD STE 201, GREENSBORO, NC, 27407","No_Match",NA,NA,NA,NA
735388,"5709 WALDEN DRIVE","PLANO","TX",75093,33.0197398450001,-96.8171324319999,388,"5709 WALDEN DRIVE, PLANO, TX, 75093","Match","Exact","5709 WALDEN DR, PLANO, TX, 75093",210506046,"L"
735389,"5709 WALLA AVE","FORT WORTH","TX",76133,32.662198695,-97.385989154,389,"5709 WALLA AVE, FORT WORTH, TX, 76133","Match","Exact","5709 WALLA AVE, FORT WORTH, TX, 76133",101883009,"L"
735390,"5709 WALTMAR DR","VIRGINIA BEACH","VA",23464,36.8079123050001,-76.190076855,390,"5709 WALTMAR DR, VIRGINIA BEACH, VA, 23464","Match","Exact","5709 WALTMAR DR, VA BCH, VA, 23464",122258078,"L"
735391,"5709 WASHOUGAL LN","PASCO","WA",99301,NA,NA,391,"5709 WASHOUGAL LN, PASCO, WA, 99301","No_Match",NA,NA,NA,NA
735392,"5709 WAYSIDE AVE","CINCINNATI","OH",45230,39.0867534070001,-84.402466181,392,"5709 WAYSIDE AVE, CINCINNATI, OH, 45230","Match","Exact","5709 WAYSIDE AVE, CINCINNATI, OH, 45230",630487368,"R"
735393,"5709 WINDMILL DRIVE","INDIANAPOLIS","IN",46254,39.8271865200001,-86.260114974,393,"5709 WINDMILL DRIVE, INDIANAPOLIS, IN, 46254","Match","Exact","5709 WINDMILL DR, INDIANAPOLIS, IN, 46254",107977980,"L"
735394,"5709 WINDSOR GATE LANE","FAIRFAX","VA",22030,38.811927494,-77.3631342039999,394,"5709 WINDSOR GATE LANE, FAIRFAX, VA, 22030","Match","Exact","5709 WINDSOR GATE LN, FAIRFAX, VA, 22030",215932379,"R"
735395,"5709 WINDY DRIVE SUITE D","STEVENS POINT","WI",54482,44.5247270900001,-89.502481883,395,"5709 WINDY DRIVE SUITE D, STEVENS POINT, WI, 54482","Match","Exact","5709 WINDY DR, STEVENS POINT, WI, 54482",646830485,"R"
735396,"5709 WINDY DRIVE SUTIE D","STEVENS POINT","WI",54482,44.5247270900001,-89.502481883,396,"5709 WINDY DRIVE SUTIE D, STEVENS POINT, WI, 54482","Match","Exact","5709 WINDY DR, STEVENS POINT, WI, 54482",646830485,"R"
735397,"5709 WOOF PL","KNIGHTDALE","NC",27545,35.767531805,-78.441926376,397,"5709 WOOF PL, KNIGHTDALE, NC, 27545","Match","Exact","5709 WOOF PL, KNIGHTDALE, NC, 27545",72599947,"L"
735398,"5709","LUBBOCK","TX",79424,NA,NA,398,"5709, LUBBOCK, TX, 79424","No_Match",NA,NA,NA,NA
735399,"570A MACON ST","BROOKLYN","NY",11233,40.6835763130001,-73.927909244,399,"570A MACON ST, BROOKLYN, NY, 11233","Match","Exact","570 MACON ST, BROOKLYN, NY, 11233",59082797,"R"
735400,"571 1/2 S WASHINGTON ST","TIFFIN","OH",44883,41.10188901,-83.174629238,400,"571 1/2 S WASHINGTON ST, TIFFIN, OH, 44883","Match","Exact","571 S WASHINGTON ST, TIFFIN, OH, 44883",12966989,"R"
735401,"571 22 1/2 ROAD","GRAND JUNCTION","CO",81507,39.086064795,-108.635865375,401,"571 22 1/2 ROAD, GRAND JUNCTION, CO, 81507","Match","Exact","571 22 1/2 RD, GRAND JCT, CO, 81507",624096663,"L"
735402,"571 2ND AVE 3C","NEW YORK","NY",10016,40.7431155420001,-73.97702465,402,"571 2ND AVE 3C, NEW YORK, NY, 10016","Match","Exact","571 2ND AVE, NEW YORK, NY, 10016",59654492,"L"
735403,"571 ABBYHILL DR","COLUMBIA","SC",29229,34.1833808710001,-80.877727608,403,"571 ABBYHILL DR, COLUMBIA, SC, 29229","Match","Non_Exact","571 ABBEYHILL DR, COLUMBIA, SC, 29229",641028059,"L"
735404,"571 ABBYHILL LN","COLUMBIA","SC",29229,34.1833808710001,-80.877727608,404,"571 ABBYHILL LN, COLUMBIA, SC, 29229","Match","Non_Exact","571 ABBEYHILL DR, COLUMBIA, SC, 29229",641028059,"L"
735405,"571 ALAMO STREET","SPARTANBURG","SC",29303,34.9765971740001,-81.9582914,405,"571 ALAMO STREET, SPARTANBURG, SC, 29303","Match","Exact","571 ALAMO ST, SPARTANBURG, SC, 29303",19466500,"R"
735406,"571 ALDINE STREET APT NUM 16","ST PAUL","MN",55104,44.9582887220001,-93.172110821,406,"571 ALDINE STREET APT NUM 16, ST PAUL, MN, 55104","Match","Non_Exact","571 N ALDINE ST, SAINT PAUL, MN, 55104",97641319,"L"
735407,"571 ALMY RD","SOMERSET","MA",2726,41.7706447300001,-71.1538427039999,407,"571 ALMY RD, SOMERSET, MA, 2726","Match","Exact","571 ALMY RD, SOMERSET, MA, 02726",46768127,"L"
735408,"571 AUTUMN LANE","MARIETTA","GA",30068,33.9641075230001,-84.394597307,408,"571 AUTUMN LANE, MARIETTA, GA, 30068","Match","Exact","571 AUTUMN LN, MARIETTA, GA, 30068",17184270,"R"
735409,"571 BERKELEY ROAD","COLUMBUS","OH",43205,39.9551768260001,-82.956457088,409,"571 BERKELEY ROAD, COLUMBUS, OH, 43205","Match","Exact","571 BERKELEY RD, COLUMBUS, OH, 43205",218649473,"R"
735410,"571 BETHANY CURVE","SANTA CRUZ","CA",95060,36.958603113,-122.040801681,410,"571 BETHANY CURVE, SANTA CRUZ, CA, 95060","Match","Exact","571 BETHANY CURVE, SANTA CRUZ, CA, 95060",125538995,"L"
735411,"571 BOSTON MILLS RD STE 100","HUDSON","OH",44236,41.251836186,-81.484045822,411,"571 BOSTON MILLS RD STE 100, HUDSON, OH, 44236","Match","Exact","571 BOSTON MILLS RD, HUDSON, OH, 44236",648153326,"L"
735412,"571 BUENA PKWY","BRIDGEWATER","NJ",8807,40.5895263,-74.658435245,412,"571 BUENA PKWY, BRIDGEWATER, NJ, 8807","Match","Exact","571 BUENA PKWY, BRIDGEWATER, NJ, 08807",647400726,"L"
735413,"571 CHARLEMAGNE BLVD","ELIZABETHTOWN","KY",42701,37.692763519,-85.889684781,413,"571 CHARLEMAGNE BLVD, ELIZABETHTOWN, KY, 42701","Match","Exact","571 CHARLEMAGNE BLVD, ELIZABETHTOWN, KY, 42701",34620422,"R"
735414,"571 CHESTERTOWN STREET","GAITHERSBURG","MD",20878,39.124047901,-77.245635421,414,"571 CHESTERTOWN STREET, GAITHERSBURG, MD, 20878","Match","Exact","571 CHESTERTOWN ST, GAITHERSBURG, MD, 20878",62098639,"L"
735415,"571 COLLINBROOK WAY","LANCASTER","VA",22503,37.748673452,-76.5031659649999,415,"571 COLLINBROOK WAY, LANCASTER, VA, 22503","Match","Non_Exact","571 COLINBROOK WAY, LANCASTER, VA, 22503",30803695,"R"
735416,"571 COLLINGSWORTH LANE","LAWRENCEVILLE","GA",30043,34.009701557,-83.938344292,416,"571 COLLINGSWORTH LANE, LAWRENCEVILLE, GA, 30043","Match","Exact","571 COLLINGSWORTH LN, LAWRENCEVILLE, GA, 30043",636106629,"L"
735417,"571 CREEKSIDE LN","MORGAN HILL","CA",95037,37.129866421,-121.644138241,417,"571 CREEKSIDE LN, MORGAN HILL, CA, 95037","Match","Exact","571 CREEKSIDE LN, MORGAN HILL, CA, 95037",123157791,"R"
735418,"571 CRYSTAL WAY","ORANGE PARK","FL",32065,NA,NA,418,"571 CRYSTAL WAY, ORANGE PARK, FL, 32065","No_Match",NA,NA,NA,NA
735419,"571 DANBURY RD","NEW MILFORD","CT",6776,41.5063389760001,-73.419319168,419,"571 DANBURY RD, NEW MILFORD, CT, 6776","Match","Exact","571 DANBURY RD, NEW MILFORD, CT, 06776",636080903,"L"
735420,"571 DAYBREAK DRIVE","PONCHATOULA","LA",70454,30.4308263680001,-90.424580411,420,"571 DAYBREAK DRIVE, PONCHATOULA, LA, 70454","Match","Exact","571 DAYBREAK DR, PONCHATOULA, LA, 70454",617088198,"L"
735421,"571 DAYBURG RD","COLDWATER","MI",49036,42.0147205390001,-84.967223754,421,"571 DAYBURG RD, COLDWATER, MI, 49036","Match","Exact","571 DAYBURG RD, COLDWATER, MI, 49036",8216370,"L"
735422,"571 DECATUR STREET","BROOKLYN","NY",11233,40.682943274,-73.920455212,422,"571 DECATUR STREET, BROOKLYN, NY, 11233","Match","Exact","571 DECATUR ST, BROOKLYN, NY, 11233",59082889,"L"
735423,"571 DELAWARE","PERRYSBURG","OH",43551,41.539730004,-83.669499807,423,"571 DELAWARE, PERRYSBURG, OH, 43551","Match","Non_Exact","571 DELAWARE DR, PERRYSBURG, OH, 43551",624459442,"R"
735424,"571 DIAMONDBACK DR","SPRING CREEK","NV",89815,40.7273163730001,-115.620875572,424,"571 DIAMONDBACK DR, SPRING CREEK, NV, 89815","Match","Exact","571 DIAMONDBACK DR, SPRING CREEK, NV, 89815",154555537,"L"
735425,"571 DUDLEY STREET STE A","BOSTON","MA",2125,42.3209759760001,-71.072116348,425,"571 DUDLEY STREET STE A, BOSTON, MA, 2125","Match","Exact","571 DUDLEY ST, BOSTON, MA, 02125",85701178,"R"
735426,"571 DUNCAN STATION DR","DUNCAN","SC",29334,34.9344021700001,-82.152607998,426,"571 DUNCAN STATION DR, DUNCAN, SC, 29334","Match","Exact","571 DUNCAN STATION DR, DUNCAN, SC, 29334",647235375,"L"
735427,"571 DUQUENSE BLVD","BRICK","NJ",8723,NA,NA,427,"571 DUQUENSE BLVD, BRICK, NJ, 8723","No_Match",NA,NA,NA,NA
735428,"571 E CONWAY RD","CTR CONWAY","NH",3813,44.0101613030001,-71.066793519,428,"571 E CONWAY RD, CTR CONWAY, NH, 3813","Match","Exact","571 E CONWAY RD, CENTER CONWAY, NH, 03813",230806771,"R"
735429,"571 E HWY 112","CENTER","CO",81125,37.7482032070001,-106.120065732,429,"571 E HWY 112, CENTER, CO, 81125","Match","Non_Exact","571 STATE HWY 112, CENTER, CO, 81125",647683569,"L"
735430,"571 EAST MARKET STREET","HARRISONBURG","VA",22801,38.448907073,-78.858637232,430,"571 EAST MARKET STREET, HARRISONBURG, VA, 22801","Match","Exact","571 E MARKET ST, HARRISONBURG, VA, 22801",55763652,"R"
735431,"571 FIESTA STREET","CLARKDALE","AZ",86324,34.779098393,-112.05321593,431,"571 FIESTA STREET, CLARKDALE, AZ, 86324","Match","Exact","571 FIESTA ST, CLARKDALE, AZ, 86324",651643302,"R"
735432,"571 FREEDOM TRAIL","BRUNSWICK","GA",31525,31.282750971,-81.485170178,432,"571 FREEDOM TRAIL, BRUNSWICK, GA, 31525","Match","Exact","571 FREEDOM TRL, BRUNSWICK, GA, 31525",637378350,"R"
735433,"571 GARDEN STREET","HARTFORD","CT",6112,41.785766278,-72.6829469319999,433,"571 GARDEN STREET, HARTFORD, CT, 6112","Match","Exact","571 GARDEN ST, HARTFORD, CT, 06112",633042982,"L"
735434,"571 GATES AVENUE 2ND FLOOR","BROOKLYN","NY",11221,40.687002212,-73.9438145679999,434,"571 GATES AVENUE 2ND FLOOR, BROOKLYN, NY, 11221","Match","Exact","571 GATES AVE, BROOKLYN, NY, 11221",59079188,"L"
735435,"571 GRAHAMS WOODS RD","CARLISLE","PA",17013,NA,NA,435,"571 GRAHAMS WOODS RD, CARLISLE, PA, 17013","No_Match",NA,NA,NA,NA
735436,"571 GREEN HILL RD","CTR CONWAY","NH",3813,44.042209461,-71.006674771,436,"571 GREEN HILL RD, CTR CONWAY, NH, 3813","Match","Exact","571 GREEN HILL RD, CENTER CONWAY, NH, 03813",145619698,"R"
735437,"571 HAYNES LANE","KIOWA","OK",74553,NA,NA,437,"571 HAYNES LANE, KIOWA, OK, 74553","No_Match",NA,NA,NA,NA
735438,"571 HIGHWAY 308","THIBODAUX","LA",70301,29.7916202430001,-90.789437014,438,"571 HIGHWAY 308, THIBODAUX, LA, 70301","Match","Exact","571 HWY 308, THIBODAUX, LA, 70301",604585175,"R"
735439,"571 HOLLIS AVE","YPSILANTI","MI",48198,42.2484151200001,-83.5922688539999,439,"571 HOLLIS AVE, YPSILANTI, MI, 48198","Match","Exact","571 HOLLIS AVE, YPSILANTI, MI, 48198",26021436,"L"
735440,"571 HOLLIS AVE","YPSILANTO","MI",48198,42.2484151200001,-83.5922688539999,440,"571 HOLLIS AVE, YPSILANTO, MI, 48198","Match","Non_Exact","571 HOLLIS AVE, YPSILANTI, MI, 48198",26021436,"L"
735441,"571 HOWARDSVILLE TPK","STUARTS DRAFT","VA",24477,38.000701624,-79.013481547,441,"571 HOWARDSVILLE TPK, STUARTS DRAFT, VA, 24477","Match","Exact","571 HOWARDSVILLE TPKE, STUARTS DRAFT, VA, 24477",98838953,"L"
735442,"571 JOHNSTONVILLE ROAD","BARNESVILLE","GA",30204,33.0684688630001,-84.1165684709999,442,"571 JOHNSTONVILLE ROAD, BARNESVILLE, GA, 30204","Match","Exact","571 JOHNSTONVILLE RD, BARNESVILLE, GA, 30204",647420864,"R"
735443,"571 KAIMALINO ST","KAILUA","HI",96734,21.4256035700001,-157.738753484,443,"571 KAIMALINO ST, KAILUA, HI, 96734","Match","Exact","571 KAIMALINO ST, KAILUA, HI, 96734",203239357,"L"
735444,"571 KEATON RD","LENOIR CITY","TN",37742,35.747143389,-84.179880483,444,"571 KEATON RD, LENOIR CITY, TN, 37742","Match","Non_Exact","571 KEATON RD, LENOIR CITY, TN, 37772",99977890,"L"
735445,"571 LAKE CORNISH WAY","ALGONQUIN","IL",60102,NA,NA,445,"571 LAKE CORNISH WAY, ALGONQUIN, IL, 60102","No_Match",NA,NA,NA,NA
735446,"571 LARKSPUR DRIVE","BOLINGBROOK","IL",60440,41.6839403800001,-88.08584617,446,"571 LARKSPUR DRIVE, BOLINGBROOK, IL, 60440","Match","Exact","571 LARKSPUR DR, BOLINGBROOK, IL, 60440",111615601,"R"
735447,"571 LAULEA ST","ELEELE","HI",96705,21.91168171,-159.5807402,447,"571 LAULEA ST, ELEELE, HI, 96705","Match","Exact","571 LAULEA ST, ELEELE, HI, 96705",203389164,"L"
735448,"571 LEONARD FARM RD","LOUISBURG","NC",27549,36.068437729,-78.240226131,448,"571 LEONARD FARM RD, LOUISBURG, NC, 27549","Match","Exact","571 LEONARD FARM RD, LOUISBURG, NC, 27549",90229239,"R"
735449,"571 LEONARD FARM ROAD","LOUISBURG","NC",27549,36.068437729,-78.240226131,449,"571 LEONARD FARM ROAD, LOUISBURG, NC, 27549","Match","Exact","571 LEONARD FARM RD, LOUISBURG, NC, 27549",90229239,"R"
735450,"571 LISBON AVENUE","BUFFALO","NY",14215,42.9466229220001,-78.807344777,450,"571 LISBON AVENUE, BUFFALO, NY, 14215","Match","Exact","571 LISBON AVE, BUFFALO, NY, 14215",48296907,"R"
735451,"571 MEADOW LANE","KINGSBURG","CA",93631,36.5164418270001,-119.562764256,451,"571 MEADOW LANE, KINGSBURG, CA, 93631","Match","Exact","571 MEADOW LN, KINGSBURG, CA, 93631",197630375,"L"
735452,"571 MERIDIAN DRIVE","BOWLING GREEN","KY",42101,36.974916933,-86.4969875,452,"571 MERIDIAN DRIVE, BOWLING GREEN, KY, 42101","Match","Exact","571 MERIDIAN DR, BOWLING GREEN, KY, 42101",614172083,"R"
735453,"571 MILFORD WARREN GLEN RD","MILFORD","NJ",8848,40.591779053,-75.1156150269999,453,"571 MILFORD WARREN GLEN RD, MILFORD, NJ, 8848","Match","Exact","571 MILFORD WARREN GLEN RD, MILFORD, NJ, 08848",647611241,"R"
735454,"571 MITCHELL AVENUE","SAN LEANDRO","CA",94577,37.735042487,-122.145527156,454,"571 MITCHELL AVENUE, SAN LEANDRO, CA, 94577","Match","Exact","571 MITCHELL AVE, SAN LEANDRO, CA, 94577",606132458,"R"
735455,"571 N 300 W","IVINS","UT",84738,37.178574009,-113.686023943,455,"571 N 300 W, IVINS, UT, 84738","Match","Exact","571 N 300 W, IVINS, UT, 84738",166187117,"L"
735456,"571 N 3RD ST","TECUMSEH","NE",68450,40.3744041200001,-96.1958015179999,456,"571 N 3RD ST, TECUMSEH, NE, 68450","Match","Exact","571 N 3RD ST, TECUMSEH, NE, 68450",32447503,"L"
735457,"571 N PIPER CT","DETROIT","MI",48215,42.367394012,-82.946007476,457,"571 N PIPER CT, DETROIT, MI, 48215","Match","Exact","571 N PIPER CT, DETROIT, MI, 48215",95510789,"L"
735458,"571 N SERENITY HILL CIRCLE","CHAPEL HILL","NC",27516,35.828958497,-79.1132858569999,458,"571 N SERENITY HILL CIRCLE, CHAPEL HILL, NC, 27516","Match","Exact","571 N SERENITY HILL CIR, CHAPEL HILL, NC, 27516",648086473,"R"
735459,"571 NE GLADWIN RD","BELFAIR","WA",98528,47.4326688950001,-122.870639321,459,"571 NE GLADWIN RD, BELFAIR, WA, 98528","Match","Exact","571 NE GLADWIN RD, BELFAIR, WA, 98528",180862018,"R"
735460,"571 NORTH STREET","TEANECK","NJ",7666,40.888532685,-74.0290706709999,460,"571 NORTH STREET, TEANECK, NJ, 7666","Match","Exact","571 NORTH ST, TEANECK, NJ, 07666",64388614,"R"
735461,"571 NORTHPOINTE DR","SUMMERTOWN","TN",38483,NA,NA,461,"571 NORTHPOINTE DR, SUMMERTOWN, TN, 38483","No_Match",NA,NA,NA,NA
735462,"571 NW 4TH COURT","MIAMI","FL",33136,25.7795366870001,-80.202022443,462,"571 NW 4TH COURT, MIAMI, FL, 33136","Match","Exact","571 NW 4TH CT, MIAMI, FL, 33136",116018173,"R"
735463,"571 OCEAN PARKWAY","BROOKLYN","NY",11218,40.6344974250001,-73.972133604,463,"571 OCEAN PARKWAY, BROOKLYN, NY, 11218","Match","Exact","571 OCEAN PKWY, BROOKLYN, NY, 11218",639410877,"R"
735464,"571 OLD SUDLOW LAKE ROAD","NORTH AUGUSTA","SC",29841,NA,NA,464,"571 OLD SUDLOW LAKE ROAD, NORTH AUGUSTA, SC, 29841","Tie",NA,NA,NA,NA
735465,"571 PARADISE ROAD","SALINAS","CA",93907,36.8178281730001,-121.689399992,465,"571 PARADISE ROAD, SALINAS, CA, 93907","Match","Exact","571 PARADISE RD, SALINAS, CA, 93907",626536806,"R"
735466,"571 PARKWOOD LN","COPPELL","TX",75019,32.9800993810001,-96.9768452759999,466,"571 PARKWOOD LN, COPPELL, TX, 75019","Match","Exact","571 PARKWOOD LN, COPPELL, TX, 75019",102992806,"L"
735467,"571 PATTERSON AVE","AKRON","OH",44310,41.1014403070001,-81.502172871,467,"571 PATTERSON AVE, AKRON, OH, 44310","Match","Exact","571 PATTERSON AVE, AKRON, OH, 44310",61349422,"R"
735468,"571 PAUKU","KAILUA","HI",96734,21.386613197,-157.731614557,468,"571 PAUKU, KAILUA, HI, 96734","Match","Non_Exact","571 PAUKU ST, KAILUA, HI, 96734",203240174,"L"
735469,"571 PAUL FRANK RD","OBERLIN","LA",70655,30.5825142840001,-92.685381897,469,"571 PAUL FRANK RD, OBERLIN, LA, 70655","Match","Exact","571 PAUL FRANK RD, OBERLIN, LA, 70655",13118754,"R"
735470,"571 PORTLAND AVENUE","BALDWIN","NY",11510,40.661826026,-73.6143868729999,470,"571 PORTLAND AVENUE, BALDWIN, NY, 11510","Match","Exact","571 PORTLAND AVE, BALDWIN, NY, 11510",147629773,"R"
735471,"571 PROCTOR TRAIL","BOWLING GREEN","KY",42101,37.0222703790001,-86.3797391149999,471,"571 PROCTOR TRAIL, BOWLING GREEN, KY, 42101","Match","Exact","571 PROCTOR TRL, BOWLING GREEN, KY, 42101",28012428,"L"
735472,"571 RIVER ROAD","LOUISVILLE","KY",40059,38.2600120650001,-85.7426345229999,472,"571 RIVER ROAD, LOUISVILLE, KY, 40059","Match","Non_Exact","571 RIVER RD, LOUISVILLE, KY, 40207",640122415,"L"
735473,"571 ROGERSVILLE RD","RADCLIFF","KY",40160,37.817892398,-85.9396185159999,473,"571 ROGERSVILLE RD, RADCLIFF, KY, 40160","Match","Exact","571 ROGERSVILLE RD, RADCLIFF, KY, 40160",34631994,"L"
735474,"571 S CENTER STREET","GRATZ","PA",17030,40.6067349690001,-76.718755798,474,"571 S CENTER STREET, GRATZ, PA, 17030","Match","Exact","571 S CENTER ST, GRATZ, PA, 17030",70843221,"R"
735475,"571 S FLOYD ST","LOUSIVILLE","KY",40202,38.248682542,-85.749103153,475,"571 S FLOYD ST, LOUSIVILLE, KY, 40202","Match","Non_Exact","571 S FLOYD ST, LOUISVILLE, KY, 40202",96927701,"L"
735476,"571 S MERIDIAN","HUDSON","MI",49247,41.8453008650001,-84.3616751659999,476,"571 S MERIDIAN, HUDSON, MI, 49247","Match","Non_Exact","571 S MERIDIAN RD, HUDSON, MI, 49247",636425713,"R"
735477,"571 S NEWMARK","TOOELE","UT",84074,40.520067624,-112.323519962,477,"571 S NEWMARK, TOOELE, UT, 84074","Match","Non_Exact","571 NEWMARK DR, TOOELE, UT, 84074",155401092,"L"
735478,"571 S SR 19","FREMONT","OH",43420,NA,NA,478,"571 S SR 19, FREMONT, OH, 43420","No_Match",NA,NA,NA,NA
735479,"571 S TRAFFIC WAY EXT","ARROYO GRANDE","CA",93420,NA,NA,479,"571 S TRAFFIC WAY EXT, ARROYO GRANDE, CA, 93420","Tie",NA,NA,NA,NA
735480,"571 SAN CLEMENTI DRIVE","FLEMING ISLAND","FL",32003,30.1066898220001,-81.703452276,480,"571 SAN CLEMENTI DRIVE, FLEMING ISLAND, FL, 32003","Match","Exact","571 SAN CLEMENTI DR, FLEMING ISLAND, FL, 32003",83815915,"R"
735481,"571 SAUNOOK RD","WAYNESVILLE","NC",28786,35.449087999,-83.040988165,481,"571 SAUNOOK RD, WAYNESVILLE, NC, 28786","Match","Exact","571 SAUNOOK RD, WAYNESVILLE, NC, 28786",648401191,"R"
735482,"571 SCHUMAN PL","VENTURA","CA",93003,34.268346293,-119.227110674,482,"571 SCHUMAN PL, VENTURA, CA, 93003","Match","Exact","571 SCHUMAN PL, VENTURA, CA, 93003",110037266,"L"
735483,"571 SERENE WATERS TRAIL","JONESBORO","GA",30236,33.515977762,-84.2755699479999,483,"571 SERENE WATERS TRAIL, JONESBORO, GA, 30236","Match","Exact","571 SERENE WATERS TRL, JONESBORO, GA, 30236",210422688,"L"
735484,"571 SHERMAN ST","NEWBERG","OR",97132,NA,NA,484,"571 SHERMAN ST, NEWBERG, OR, 97132","Tie",NA,NA,NA,NA
735485,"571 SOUTH 200 WEST","PROVIDENCE","UT",84332,41.697237419,-111.823199376,485,"571 SOUTH 200 WEST, PROVIDENCE, UT, 84332","Match","Non_Exact","571 200 W, PROVIDENCE, UT, 84332",155103845,"L"
735486,"571 SOUTH 600 WEST","OREM","UT",84058,40.28687462,-111.709863545,486,"571 SOUTH 600 WEST, OREM, UT, 84058","Match","Exact","571 S 600 W, OREM, UT, 84058",134205905,"L"
735487,"571 SW 89TH CT","MIAMI","FL",33174,25.763851781,-80.340655472,487,"571 SW 89TH CT, MIAMI, FL, 33174","Match","Exact","571 SW 89TH CT, MIAMI, FL, 33174",116047912,"L"
735488,"571 SYCAMORE MILLS RD","MEDIA","PA",19063,39.946464873,-75.424964105,488,"571 SYCAMORE MILLS RD, MEDIA, PA, 19063","Match","Exact","571 SYCAMORE MILLS RD, MEDIA, PA, 19063",134866661,"L"
735489,"571 TOWN FARM RD","OAKLAND","ME",4963,44.5595094970001,-69.7510870359999,489,"571 TOWN FARM RD, OAKLAND, ME, 4963","Match","Exact","571 TOWN FARM RD, OAKLAND, ME, 04963",75485981,"R"
735490,"571 TOWNESIDE LN NW","MARIETTA","GA",30064,33.9658997540001,-84.615885411,490,"571 TOWNESIDE LN NW, MARIETTA, GA, 30064","Match","Non_Exact","571 TOWNESIDE LN, MARIETTA, GA, 30064",614185467,"R"
735491,"571 TUDOR BRANCH","GROVETOWN","GA",30813,33.5177285140001,-82.188810458,491,"571 TUDOR BRANCH, GROVETOWN, GA, 30813","Match","Exact","571 TUDOR BRANCH, GROVETOWN, GA, 30813",629563018,"L"
735492,"571 VALLEY CLUB CIR","LITTLE ROCK","AR",72212,34.77337484,-92.408269274,492,"571 VALLEY CLUB CIR, LITTLE ROCK, AR, 72212","Match","Exact","571 VALLEY CLUB CIR, LITTLE ROCK, AR, 72212",83500023,"R"
735493,"571 VELOCE TRAIL","FORT MILL","SC",29715,34.9797475390001,-80.9234568259999,493,"571 VELOCE TRAIL, FORT MILL, SC, 29715","Match","Exact","571 VELOCE TRL, FORT MILL, SC, 29715",635308879,"L"
735494,"571 W 1800 N","CLINTON","UT",84015,41.13987222,-112.037249113,494,"571 W 1800 N, CLINTON, UT, 84015","Match","Exact","571 W 1800 N, CLINTON, UT, 84015",155304871,"R"
735495,"571 W 2775 S","NIBLEY","UT",84321,41.6825875530001,-111.846852468,495,"571 W 2775 S, NIBLEY, UT, 84321","Match","Exact","571 W 2775 S, NIBLEY, UT, 84321",155104098,"L"
735496,"571 W CLIFFSIDE AVE","AMARILLO","TX",79108,35.263179166,-101.841756461,496,"571 W CLIFFSIDE AVE, AMARILLO, TX, 79108","Match","Non_Exact","571 W CLIFFSIDE DR, AMARILLO, TX, 79108",182465445,"L"
735497,"571 W JACKSON BLVD","CHICAGO","IL",60661,41.878012273,-87.641980347,497,"571 W JACKSON BLVD, CHICAGO, IL, 60661","Match","Exact","571 W JACKSON BLVD, CHICAGO, IL, 60661",604999805,"L"
735498,"571 W MUSKET PL","CHANDLER","AZ",85286,33.2788852890001,-111.849274801,498,"571 W MUSKET PL, CHANDLER, AZ, 85286","Match","Exact","571 W MUSKET PL, CHANDLER, AZ, 85286",128822538,"R"
735499,"571 WADSWORTH","PISMO BEACH","CA",93449,35.1450030330001,-120.640981425,499,"571 WADSWORTH, PISMO BEACH, CA, 93449","Match","Non_Exact","571 WADSWORTH AVE, PISMO BEACH, CA, 93449",109737295,"L"
735500,"571 WARBLER DRIVE","BOLINGBROOK","IL",60490,41.7233190910001,-88.046319986,500,"571 WARBLER DRIVE, BOLINGBROOK, IL, 60490","Match","Non_Exact","571 WARBLER DR, BOLINGBROOK, IL, 60440",111583466,"R"
