"ID","Address","City","State","Zip","lat","long","id","input_address","match_indicator","match_type","matched_address","tiger_line_id","tiger_side"
995001,"PO BOX 72","CYPRESS","TX",77410,NA,NA,1,"PO BOX 72, CYPRESS, TX, 77410","No_Match",NA,NA,NA,NA
995002,"PO BOX 72","DAKOTA CITY","IA",50529,NA,NA,2,"PO BOX 72, DAKOTA CITY, IA, 50529","No_Match",NA,NA,NA,NA
995003,"PO BOX 72","DUVALL","WA",98019,NA,NA,3,"PO BOX 72, DUVALL, WA, 98019","No_Match",NA,NA,NA,NA
995004,"PO BOX 72","ELLENSBURG","WA",98926,NA,NA,4,"PO BOX 72, ELLENSBURG, WA, 98926","No_Match",NA,NA,NA,NA
995005,"PO BOX 72","ELMA","NY",14059,NA,NA,5,"PO BOX 72, ELMA, NY, 14059","No_Match",NA,NA,NA,NA
995006,"PO BOX 72","EUREKA","MT",59917,NA,NA,6,"PO BOX 72, EUREKA, MT, 59917","No_Match",NA,NA,NA,NA
995007,"PO BOX 72","GANADO","AZ",86505,NA,NA,7,"PO BOX 72, GANADO, AZ, 86505","No_Match",NA,NA,NA,NA
995008,"PO BOX 72","HOOD RIVER","OR",97031,NA,NA,8,"PO BOX 72, HOOD RIVER, OR, 97031","No_Match",NA,NA,NA,NA
995009,"PO BOX 72","KURTEN","TX",77862,NA,NA,9,"PO BOX 72, KURTEN, TX, 77862","No_Match",NA,NA,NA,NA
995010,"PO BOX 72","LAPORTE","PA",18626,NA,NA,10,"PO BOX 72, LAPORTE, PA, 18626","No_Match",NA,NA,NA,NA
995011,"PO BOX 72","LIGNITE","ND",58752,NA,NA,11,"PO BOX 72, LIGNITE, ND, 58752","No_Match",NA,NA,NA,NA
995012,"PO BOX 72","LIVINGSTON","IL",62058,NA,NA,12,"PO BOX 72, LIVINGSTON, IL, 62058","No_Match",NA,NA,NA,NA
995013,"PO BOX 72","LOMITA","CA",90717,NA,NA,13,"PO BOX 72, LOMITA, CA, 90717","No_Match",NA,NA,NA,NA
995014,"PO BOX 72","MANILA","AR",72442,NA,NA,14,"PO BOX 72, MANILA, AR, 72442","No_Match",NA,NA,NA,NA
995015,"PO BOX 72","MIDLAND","OR",97634,NA,NA,15,"PO BOX 72, MIDLAND, OR, 97634","No_Match",NA,NA,NA,NA
995016,"PO BOX 72","NORMANDY","TN",37360,NA,NA,16,"PO BOX 72, NORMANDY, TN, 37360","No_Match",NA,NA,NA,NA
995017,"PO BOX 72","OAKFIELD","WI",53065,NA,NA,17,"PO BOX 72, OAKFIELD, WI, 53065","No_Match",NA,NA,NA,NA
995018,"PO BOX 72","ONEILL","NE",68763,NA,NA,18,"PO BOX 72, ONEILL, NE, 68763","No_Match",NA,NA,NA,NA
995019,"PO BOX 72","PALISADE","CO",81526,NA,NA,19,"PO BOX 72, PALISADE, CO, 81526","No_Match",NA,NA,NA,NA
995020,"PO BOX 72","RICHLANDS","VA",24641,NA,NA,20,"PO BOX 72, RICHLANDS, VA, 24641","No_Match",NA,NA,NA,NA
995021,"PO BOX 72","SAN SABA","TX",76877,NA,NA,21,"PO BOX 72, SAN SABA, TX, 76877","No_Match",NA,NA,NA,NA
995022,"PO BOX 72","SINTON","TX",78387,NA,NA,22,"PO BOX 72, SINTON, TX, 78387","No_Match",NA,NA,NA,NA
995023,"PO BOX 72","SPOKANE","WA",99037,NA,NA,23,"PO BOX 72, SPOKANE, WA, 99037","No_Match",NA,NA,NA,NA
995024,"PO BOX 72","TENNENT","NJ",7763,NA,NA,24,"PO BOX 72, TENNENT, NJ, 7763","No_Match",NA,NA,NA,NA
995025,"PO BOX 72","VERONA","NJ",7044,NA,NA,25,"PO BOX 72, VERONA, NJ, 7044","No_Match",NA,NA,NA,NA
995026,"PO BOX 72","WELLS","NY",12190,NA,NA,26,"PO BOX 72, WELLS, NY, 12190","No_Match",NA,NA,NA,NA
995027,"PO BOX 72","WHITESVILLE","WV",25209,NA,NA,27,"PO BOX 72, WHITESVILLE, WV, 25209","No_Match",NA,NA,NA,NA
995028,"PO BOX 720","AZLE","TX",76098,NA,NA,28,"PO BOX 720, AZLE, TX, 76098","No_Match",NA,NA,NA,NA
995029,"PO BOX 720","BERRYVILLE","VA",22611,NA,NA,29,"PO BOX 720, BERRYVILLE, VA, 22611","No_Match",NA,NA,NA,NA
995030,"PO BOX 720","MOOSE LAKE","MN",55767,NA,NA,30,"PO BOX 720, MOOSE LAKE, MN, 55767","No_Match",NA,NA,NA,NA
995031,"PO BOX 720","NEW YORK","NY",10027,NA,NA,31,"PO BOX 720, NEW YORK, NY, 10027","No_Match",NA,NA,NA,NA
995032,"PO BOX 720","NORWAY","ME",4268,NA,NA,32,"PO BOX 720, NORWAY, ME, 4268","No_Match",NA,NA,NA,NA
995033,"PO BOX 720","SOMERSET","KY",42502,NA,NA,33,"PO BOX 720, SOMERSET, KY, 42502","No_Match",NA,NA,NA,NA
995034,"PO BOX 720026","DALLAS","TX",75362,NA,NA,34,"PO BOX 720026, DALLAS, TX, 75362","No_Match",NA,NA,NA,NA
995035,"PO BOX 720056","REDDING","CA",96099,NA,NA,35,"PO BOX 720056, REDDING, CA, 96099","No_Match",NA,NA,NA,NA
995036,"PO BOX 72006","DAVIS","CA",95617,NA,NA,36,"PO BOX 72006, DAVIS, CA, 95617","No_Match",NA,NA,NA,NA
995037,"PO BOX 720072","ATLANTA","GA",30358,NA,NA,37,"PO BOX 720072, ATLANTA, GA, 30358","No_Match",NA,NA,NA,NA
995038,"PO BOX 720091","MCALLEN","TX",78504,NA,NA,38,"PO BOX 720091, MCALLEN, TX, 78504","No_Match",NA,NA,NA,NA
995039,"PO BOX 7201","CONROE","TX",77306,NA,NA,39,"PO BOX 7201, CONROE, TX, 77306","No_Match",NA,NA,NA,NA
995040,"PO BOX 720101","SAN JOSE","CA",95172,NA,NA,40,"PO BOX 720101, SAN JOSE, CA, 95172","No_Match",NA,NA,NA,NA
995041,"PO BOX 720133","DALLAS","TX",75372,NA,NA,41,"PO BOX 720133, DALLAS, TX, 75372","No_Match",NA,NA,NA,NA
995042,"PO BOX 7202","MINNEAPOLIS","MN",55407,NA,NA,42,"PO BOX 7202, MINNEAPOLIS, MN, 55407","No_Match",NA,NA,NA,NA
995043,"PO BOX 7202","THE WOODLANDS","TX",77387,NA,NA,43,"PO BOX 7202, THE WOODLANDS, TX, 77387","No_Match",NA,NA,NA,NA
995044,"PO BOX 720352","NORMAN","OK",73070,NA,NA,44,"PO BOX 720352, NORMAN, OK, 73070","No_Match",NA,NA,NA,NA
995045,"PO BOX 720390","PINON HILLS","CA",92372,NA,NA,45,"PO BOX 720390, PINON HILLS, CA, 92372","No_Match",NA,NA,NA,NA
995046,"PO BOX 7204","HILO","HI",96720,NA,NA,46,"PO BOX 7204, HILO, HI, 96720","No_Match",NA,NA,NA,NA
995047,"PO BOX 7205","KNOXVILLE","TN",37921,NA,NA,47,"PO BOX 7205, KNOXVILLE, TN, 37921","No_Match",NA,NA,NA,NA
995048,"PO BOX 7205","OCEAN VIEW","HI",96737,NA,NA,48,"PO BOX 7205, OCEAN VIEW, HI, 96737","No_Match",NA,NA,NA,NA
995049,"PO BOX 720500","OKLAHOMA CITY","OK",73172,NA,NA,49,"PO BOX 720500, OKLAHOMA CITY, OK, 73172","No_Match",NA,NA,NA,NA
995050,"PO BOX 72053","DURHAM","NC",27722,NA,NA,50,"PO BOX 72053, DURHAM, NC, 27722","No_Match",NA,NA,NA,NA
995051,"PO BOX 72056","LOS ANGELES","CA",90002,NA,NA,51,"PO BOX 72056, LOS ANGELES, CA, 90002","No_Match",NA,NA,NA,NA
995052,"PO BOX 720636","MCALLEN","TX",78504,NA,NA,52,"PO BOX 720636, MCALLEN, TX, 78504","No_Match",NA,NA,NA,NA
995053,"PO BOX 720749","JACKSON HEIGHTS","NY",11372,NA,NA,53,"PO BOX 720749, JACKSON HEIGHTS, NY, 11372","No_Match",NA,NA,NA,NA
995054,"PO BOX 720781","SAN DIEGO","CA",92172,NA,NA,54,"PO BOX 720781, SAN DIEGO, CA, 92172","No_Match",NA,NA,NA,NA
995055,"PO BOX 720800","PINON HILLS","CA",92372,NA,NA,55,"PO BOX 720800, PINON HILLS, CA, 92372","No_Match",NA,NA,NA,NA
995056,"PO BOX 720833","HOUSTON","TX",77272,NA,NA,56,"PO BOX 720833, HOUSTON, TX, 77272","No_Match",NA,NA,NA,NA
995057,"PO BOX 720862","MCALLEN","TX",78504,NA,NA,57,"PO BOX 720862, MCALLEN, TX, 78504","No_Match",NA,NA,NA,NA
995058,"PO BOX 720875","HOUSTON","TX",77272,NA,NA,58,"PO BOX 720875, HOUSTON, TX, 77272","No_Match",NA,NA,NA,NA
995059,"PO BOX 720926","ORLANDO","FL",32872,NA,NA,59,"PO BOX 720926, ORLANDO, FL, 32872","No_Match",NA,NA,NA,NA
995060,"PO BOX 720927","ORLANDO","FL",32872,NA,NA,60,"PO BOX 720927, ORLANDO, FL, 32872","No_Match",NA,NA,NA,NA
995061,"PO BOX 721","BROOKINGS","OR",97415,NA,NA,61,"PO BOX 721, BROOKINGS, OR, 97415","No_Match",NA,NA,NA,NA
995062,"PO BOX 721","COLUMBUS","NC",28722,NA,NA,62,"PO BOX 721, COLUMBUS, NC, 28722","No_Match",NA,NA,NA,NA
995063,"PO BOX 721","FRANKSTON","TX",75763,NA,NA,63,"PO BOX 721, FRANKSTON, TX, 75763","No_Match",NA,NA,NA,NA
995064,"PO BOX 721","HONOLULU","HI",96808,NA,NA,64,"PO BOX 721, HONOLULU, HI, 96808","No_Match",NA,NA,NA,NA
995065,"PO BOX 721","LAMAR","AR",72846,NA,NA,65,"PO BOX 721, LAMAR, AR, 72846","No_Match",NA,NA,NA,NA
995066,"PO BOX 721","MERCER ISLAND","WA",98040,NA,NA,66,"PO BOX 721, MERCER ISLAND, WA, 98040","No_Match",NA,NA,NA,NA
995067,"PO BOX 721","POTTSBORO","TX",75076,NA,NA,67,"PO BOX 721, POTTSBORO, TX, 75076","No_Match",NA,NA,NA,NA
995068,"PO BOX 721","RIVERDALE","MD",20738,NA,NA,68,"PO BOX 721, RIVERDALE, MD, 20738","No_Match",NA,NA,NA,NA
995069,"PO BOX 721","ST MARYS","OH",45885,NA,NA,69,"PO BOX 721, ST MARYS, OH, 45885","No_Match",NA,NA,NA,NA
995070,"PO BOX 721","WALDO","AR",71770,NA,NA,70,"PO BOX 721, WALDO, AR, 71770","No_Match",NA,NA,NA,NA
995071,"PO BOX 721","WARREN","OH",44482,NA,NA,71,"PO BOX 721, WARREN, OH, 44482","No_Match",NA,NA,NA,NA
995072,"PO BOX 721","YACHATS","OR",97498,NA,NA,72,"PO BOX 721, YACHATS, OR, 97498","No_Match",NA,NA,NA,NA
995073,"PO BOX 721012","ORLANDO","FL",32807,NA,NA,73,"PO BOX 721012, ORLANDO, FL, 32807","No_Match",NA,NA,NA,NA
995074,"PO BOX 721013","DALLAS","TX",75372,NA,NA,74,"PO BOX 721013, DALLAS, TX, 75372","No_Match",NA,NA,NA,NA
995075,"PO BOX 721022","SAN DIEGO","CA",92172,NA,NA,75,"PO BOX 721022, SAN DIEGO, CA, 92172","No_Match",NA,NA,NA,NA
995076,"PO BOX 721086","ORLANDO","FL",32872,NA,NA,76,"PO BOX 721086, ORLANDO, FL, 32872","No_Match",NA,NA,NA,NA
995077,"PO BOX 721094","NORMAN","OK",73072,NA,NA,77,"PO BOX 721094, NORMAN, OK, 73072","No_Match",NA,NA,NA,NA
995078,"PO BOX 7211","COLUMBUS","GA",31908,NA,NA,78,"PO BOX 7211, COLUMBUS, GA, 31908","No_Match",NA,NA,NA,NA
995079,"PO BOX 7211","EDMOND","OK",73083,NA,NA,79,"PO BOX 7211, EDMOND, OK, 73083","No_Match",NA,NA,NA,NA
995080,"PO BOX 7211","JEFFERSON CITY","MO",65102,NA,NA,80,"PO BOX 7211, JEFFERSON CITY, MO, 65102","No_Match",NA,NA,NA,NA
995081,"PO BOX 721106","ORLANDO","FL",32807,NA,NA,81,"PO BOX 721106, ORLANDO, FL, 32807","No_Match",NA,NA,NA,NA
995082,"PO BOX 721106","ORLANDO","FL",32872,NA,NA,82,"PO BOX 721106, ORLANDO, FL, 32872","No_Match",NA,NA,NA,NA
995083,"PO BOX 7212","DENVER","CO",80207,NA,NA,83,"PO BOX 7212, DENVER, CO, 80207","No_Match",NA,NA,NA,NA
995084,"PO BOX 7212","RANCH SANTA FE","CA",92067,NA,NA,84,"PO BOX 7212, RANCH SANTA FE, CA, 92067","No_Match",NA,NA,NA,NA
995085,"PO BOX 721224","BERKLEY","MI",48072,NA,NA,85,"PO BOX 721224, BERKLEY, MI, 48072","No_Match",NA,NA,NA,NA
995086,"PO BOX 7213","REDLANDS","CA",92375,NA,NA,86,"PO BOX 7213, REDLANDS, CA, 92375","No_Match",NA,NA,NA,NA
995087,"PO BOX 7215","CLEARWATER","FL",33758,NA,NA,87,"PO BOX 7215, CLEARWATER, FL, 33758","No_Match",NA,NA,NA,NA
995088,"PO BOX 721718","PINON HILLS","CA",92372,NA,NA,88,"PO BOX 721718, PINON HILLS, CA, 92372","No_Match",NA,NA,NA,NA
995089,"PO BOX 721941","OKLAHOMA CITY","OK",73172,NA,NA,89,"PO BOX 721941, OKLAHOMA CITY, OK, 73172","No_Match",NA,NA,NA,NA
995090,"PO BOX 721991","ORLANDO","FL",32872,NA,NA,90,"PO BOX 721991, ORLANDO, FL, 32872","No_Match",NA,NA,NA,NA
995091,"PO BOX 722  201 CENTER STREET","PHILLIPSBURG","MO",65722,37.553880603,-92.7870275989999,91,"PO BOX 722  201 CENTER STREET, PHILLIPSBURG, MO, 65722","Match","Exact","201 CENTER ST, PHILLIPSBURG, MO, 65722",26102602,"L"
995092,"PO BOX 722 935 COMMERCIAL STREET","CONYERS","GA",30012,33.6661199490001,-84.016978251,92,"PO BOX 722 935 COMMERCIAL STREET, CONYERS, GA, 30012","Match","Non_Exact","935 COMMERCIAL ST NE, CONYERS, GA, 30012",23740922,"R"
995093,"PO BOX 722 935 COMMERCIAL STREET","CONYERS","GA",30013,NA,NA,93,"PO BOX 722 935 COMMERCIAL STREET, CONYERS, GA, 30013","No_Match",NA,NA,NA,NA
995094,"PO BOX 722","ABSAROKEE","MT",59001,NA,NA,94,"PO BOX 722, ABSAROKEE, MT, 59001","No_Match",NA,NA,NA,NA
995095,"PO BOX 722","ARVADA","CO",80001,NA,NA,95,"PO BOX 722, ARVADA, CO, 80001","No_Match",NA,NA,NA,NA
995096,"PO BOX 722","AVA","MO",65608,NA,NA,96,"PO BOX 722, AVA, MO, 65608","No_Match",NA,NA,NA,NA
995097,"PO BOX 722","AVON","NC",27915,NA,NA,97,"PO BOX 722, AVON, NC, 27915","No_Match",NA,NA,NA,NA
995098,"PO BOX 722","DELTA JUNCTION","AK",99737,NA,NA,98,"PO BOX 722, DELTA JUNCTION, AK, 99737","No_Match",NA,NA,NA,NA
995099,"PO BOX 722","DEMING","WA",98244,NA,NA,99,"PO BOX 722, DEMING, WA, 98244","No_Match",NA,NA,NA,NA
995100,"PO BOX 722","EUREKA","MT",59917,NA,NA,100,"PO BOX 722, EUREKA, MT, 59917","No_Match",NA,NA,NA,NA
995101,"PO BOX 722","FRESNO","TX",77545,NA,NA,101,"PO BOX 722, FRESNO, TX, 77545","No_Match",NA,NA,NA,NA
995102,"PO BOX 722","HAPPY CAMP","CA",96039,NA,NA,102,"PO BOX 722, HAPPY CAMP, CA, 96039","No_Match",NA,NA,NA,NA
995103,"PO BOX 722","LAJAS","PR",667,NA,NA,103,"PO BOX 722, LAJAS, PR, 667","No_Match",NA,NA,NA,NA
995104,"PO BOX 722","LAKIN","KS",67860,NA,NA,104,"PO BOX 722, LAKIN, KS, 67860","No_Match",NA,NA,NA,NA
995105,"PO BOX 722","LOVEJOY","GA",30250,NA,NA,105,"PO BOX 722, LOVEJOY, GA, 30250","No_Match",NA,NA,NA,NA
995106,"PO BOX 722","LUTZ","FL",33548,NA,NA,106,"PO BOX 722, LUTZ, FL, 33548","No_Match",NA,NA,NA,NA
995107,"PO BOX 722","MOAB","UT",84532,NA,NA,107,"PO BOX 722, MOAB, UT, 84532","No_Match",NA,NA,NA,NA
995108,"PO BOX 722","OURAY","CO",81427,NA,NA,108,"PO BOX 722, OURAY, CO, 81427","No_Match",NA,NA,NA,NA
995109,"PO BOX 722","PT REYES STATION","CA",94956,NA,NA,109,"PO BOX 722, PT REYES STATION, CA, 94956","No_Match",NA,NA,NA,NA
995110,"PO BOX 722","RIPLEY","WV",25271,NA,NA,110,"PO BOX 722, RIPLEY, WV, 25271","No_Match",NA,NA,NA,NA
995111,"PO BOX 722","SAINT THOMAS","VI",804,NA,NA,111,"PO BOX 722, SAINT THOMAS, VI, 804","No_Match",NA,NA,NA,NA
995112,"PO BOX 722","SALEM","OR",97308,NA,NA,112,"PO BOX 722, SALEM, OR, 97308","No_Match",NA,NA,NA,NA
995113,"PO BOX 722","SANIBEL","FL",33957,NA,NA,113,"PO BOX 722, SANIBEL, FL, 33957","No_Match",NA,NA,NA,NA
995114,"PO BOX 722","VAN","TX",75790,NA,NA,114,"PO BOX 722, VAN, TX, 75790","No_Match",NA,NA,NA,NA
995115,"PO BOX 722","VERDUGO CITY","CA",91046,NA,NA,115,"PO BOX 722, VERDUGO CITY, CA, 91046","No_Match",NA,NA,NA,NA
995116,"PO BOX 722","WARSAW","KY",41095,NA,NA,116,"PO BOX 722, WARSAW, KY, 41095","No_Match",NA,NA,NA,NA
995117,"PO BOX 722","WILLIAMSBURG","KY",40769,NA,NA,117,"PO BOX 722, WILLIAMSBURG, KY, 40769","No_Match",NA,NA,NA,NA
995118,"PO BOX 722","WILMINGTON","NC",28402,NA,NA,118,"PO BOX 722, WILMINGTON, NC, 28402","No_Match",NA,NA,NA,NA
995119,"PO BOX 7220","WASHINGTON","DC",20044,NA,NA,119,"PO BOX 7220, WASHINGTON, DC, 20044","No_Match",NA,NA,NA,NA
995120,"PO BOX 722098","HOUSTON","TX",77272,NA,NA,120,"PO BOX 722098, HOUSTON, TX, 77272","No_Match",NA,NA,NA,NA
995121,"PO BOX 7221","LOS ANGELES","CA",90007,NA,NA,121,"PO BOX 7221, LOS ANGELES, CA, 90007","No_Match",NA,NA,NA,NA
995122,"PO BOX 722306","HOUSTON","TX",77272,NA,NA,122,"PO BOX 722306, HOUSTON, TX, 77272","No_Match",NA,NA,NA,NA
995123,"PO BOX 7224","MINNEAPOLIS","MN",55407,NA,NA,123,"PO BOX 7224, MINNEAPOLIS, MN, 55407","No_Match",NA,NA,NA,NA
995124,"PO BOX 72243","WATTS","CA",90002,NA,NA,124,"PO BOX 72243, WATTS, CA, 90002","No_Match",NA,NA,NA,NA
995125,"PO BOX 72266","SPRINGFIELD","OR",97475,NA,NA,125,"PO BOX 72266, SPRINGFIELD, OR, 97475","No_Match",NA,NA,NA,NA
995126,"PO BOX 722663","SAN DIEGO","CA",92129,NA,NA,126,"PO BOX 722663, SAN DIEGO, CA, 92129","No_Match",NA,NA,NA,NA
995127,"PO BOX 72283","OAKLAND","CA",94612,NA,NA,127,"PO BOX 72283, OAKLAND, CA, 94612","No_Match",NA,NA,NA,NA
995128,"PO BOX 723","ABERDEEN","WA",98520,NA,NA,128,"PO BOX 723, ABERDEEN, WA, 98520","No_Match",NA,NA,NA,NA
995129,"PO BOX 723","CONCHO","AZ",85924,NA,NA,129,"PO BOX 723, CONCHO, AZ, 85924","No_Match",NA,NA,NA,NA
995130,"PO BOX 723","FLOYD","VA",24091,NA,NA,130,"PO BOX 723, FLOYD, VA, 24091","No_Match",NA,NA,NA,NA
995131,"PO BOX 723","FOREST KNOLLS","CA",94933,NA,NA,131,"PO BOX 723, FOREST KNOLLS, CA, 94933","No_Match",NA,NA,NA,NA
995132,"PO BOX 723","HALEIWA","HI",96712,NA,NA,132,"PO BOX 723, HALEIWA, HI, 96712","No_Match",NA,NA,NA,NA
995133,"PO BOX 723","HALLSTEAD","PA",18822,NA,NA,133,"PO BOX 723, HALLSTEAD, PA, 18822","No_Match",NA,NA,NA,NA
995134,"PO BOX 723","HOULTON","ME",4730,NA,NA,134,"PO BOX 723, HOULTON, ME, 4730","No_Match",NA,NA,NA,NA
995135,"PO BOX 723","KINGWOOD","WV",26537,NA,NA,135,"PO BOX 723, KINGWOOD, WV, 26537","No_Match",NA,NA,NA,NA
995136,"PO BOX 723","MELFA","VA",23410,NA,NA,136,"PO BOX 723, MELFA, VA, 23410","No_Match",NA,NA,NA,NA
995137,"PO BOX 723","NEWLAND","NC",28657,NA,NA,137,"PO BOX 723, NEWLAND, NC, 28657","No_Match",NA,NA,NA,NA
995138,"PO BOX 723","RAPID CITY","SD",57709,NA,NA,138,"PO BOX 723, RAPID CITY, SD, 57709","No_Match",NA,NA,NA,NA
995139,"PO BOX 723","SANDERSON","TX",79848,NA,NA,139,"PO BOX 723, SANDERSON, TX, 79848","No_Match",NA,NA,NA,NA
995140,"PO BOX 723","SOUTH GATE","CA",90280,NA,NA,140,"PO BOX 723, SOUTH GATE, CA, 90280","No_Match",NA,NA,NA,NA
995141,"PO BOX 723","VERO BEACH","FL",32961,NA,NA,141,"PO BOX 723, VERO BEACH, FL, 32961","No_Match",NA,NA,NA,NA
995142,"PO BOX 723","WAIMANALO","HI",96795,NA,NA,142,"PO BOX 723, WAIMANALO, HI, 96795","No_Match",NA,NA,NA,NA
995143,"PO BOX 7232","AUSTIN","TX",78713,NA,NA,143,"PO BOX 7232, AUSTIN, TX, 78713","No_Match",NA,NA,NA,NA
995144,"PO BOX 7232","CHANDLER","AZ",85246,NA,NA,144,"PO BOX 7232, CHANDLER, AZ, 85246","No_Match",NA,NA,NA,NA
995145,"PO BOX 723334","ATLANTA","GA",31139,NA,NA,145,"PO BOX 723334, ATLANTA, GA, 31139","No_Match",NA,NA,NA,NA
995146,"PO BOX 72358","TUSCALOOSA","AL",35407,NA,NA,146,"PO BOX 72358, TUSCALOOSA, AL, 35407","No_Match",NA,NA,NA,NA
995147,"PO BOX 7237","FORT GORDON","GA",30905,NA,NA,147,"PO BOX 7237, FORT GORDON, GA, 30905","No_Match",NA,NA,NA,NA
995148,"PO BOX 72375","TUSCALOOSA","AL",35407,NA,NA,148,"PO BOX 72375, TUSCALOOSA, AL, 35407","No_Match",NA,NA,NA,NA
995149,"PO BOX 723782","ATLANTA","GA",28377,NA,NA,149,"PO BOX 723782, ATLANTA, GA, 28377","No_Match",NA,NA,NA,NA
995150,"PO BOX 7238","WOODBRIDGE","VA",22195,NA,NA,150,"PO BOX 7238, WOODBRIDGE, VA, 22195","No_Match",NA,NA,NA,NA
995151,"PO BOX 723961","ATLANTA","GA",31139,NA,NA,151,"PO BOX 723961, ATLANTA, GA, 31139","No_Match",NA,NA,NA,NA
995152,"PO BOX 724","BALLINGER","TX",76821,NA,NA,152,"PO BOX 724, BALLINGER, TX, 76821","No_Match",NA,NA,NA,NA
995153,"PO BOX 724","BEECH GROVE","IN",46107,NA,NA,153,"PO BOX 724, BEECH GROVE, IN, 46107","No_Match",NA,NA,NA,NA
995154,"PO BOX 724","BLYTHE","CA",92226,NA,NA,154,"PO BOX 724, BLYTHE, CA, 92226","No_Match",NA,NA,NA,NA
995155,"PO BOX 724","EAGLE POINT","OR",97524,NA,NA,155,"PO BOX 724, EAGLE POINT, OR, 97524","No_Match",NA,NA,NA,NA
995156,"PO BOX 724","FRESNO","TX",77545,NA,NA,156,"PO BOX 724, FRESNO, TX, 77545","No_Match",NA,NA,NA,NA
995157,"PO BOX 724","MEREDITH","NH",3253,NA,NA,157,"PO BOX 724, MEREDITH, NH, 3253","No_Match",NA,NA,NA,NA
995158,"PO BOX 724","MOLALLA","OR",97038,NA,NA,158,"PO BOX 724, MOLALLA, OR, 97038","No_Match",NA,NA,NA,NA
995159,"PO BOX 724","MONROE","WA",98272,NA,NA,159,"PO BOX 724, MONROE, WA, 98272","No_Match",NA,NA,NA,NA
995160,"PO BOX 724","MOORHEAD","MS",38761,NA,NA,160,"PO BOX 724, MOORHEAD, MS, 38761","No_Match",NA,NA,NA,NA
995161,"PO BOX 724","NEW PROVIDENCE","NJ",7974,NA,NA,161,"PO BOX 724, NEW PROVIDENCE, NJ, 7974","No_Match",NA,NA,NA,NA
995162,"PO BOX 724","SHEPHERDSTOWN","WV",25443,NA,NA,162,"PO BOX 724, SHEPHERDSTOWN, WV, 25443","No_Match",NA,NA,NA,NA
995163,"PO BOX 724","SICKLERVILLE","NJ",8081,NA,NA,163,"PO BOX 724, SICKLERVILLE, NJ, 8081","No_Match",NA,NA,NA,NA
995164,"PO BOX 724","ST. IGNACE","MI",49781,NA,NA,164,"PO BOX 724, ST. IGNACE, MI, 49781","No_Match",NA,NA,NA,NA
995165,"PO BOX 724","TABERNASH","CO",80478,NA,NA,165,"PO BOX 724, TABERNASH, CO, 80478","No_Match",NA,NA,NA,NA
995166,"PO BOX 724","TEENTON","GA",30752,NA,NA,166,"PO BOX 724, TEENTON, GA, 30752","No_Match",NA,NA,NA,NA
995167,"PO BOX 724","TRENTON","GA",30752,NA,NA,167,"PO BOX 724, TRENTON, GA, 30752","No_Match",NA,NA,NA,NA
995168,"PO BOX 724","TRENTONB","GA",30752,NA,NA,168,"PO BOX 724, TRENTONB, GA, 30752","No_Match",NA,NA,NA,NA
995169,"PO BOX 724","TULLY","NY",13159,NA,NA,169,"PO BOX 724, TULLY, NY, 13159","No_Match",NA,NA,NA,NA
995170,"PO BOX 7241","KILL DEVIL HILLS","NC",27948,NA,NA,170,"PO BOX 7241, KILL DEVIL HILLS, NC, 27948","No_Match",NA,NA,NA,NA
995171,"PO BOX 72412","OAKLAND","CA",94612,NA,NA,171,"PO BOX 72412, OAKLAND, CA, 94612","No_Match",NA,NA,NA,NA
995172,"PO BOX 7242","HIGH POINT","NC",27262,NA,NA,172,"PO BOX 7242, HIGH POINT, NC, 27262","No_Match",NA,NA,NA,NA
995173,"PO BOX 7243","KETCHIKAN","AK",99901,NA,NA,173,"PO BOX 7243, KETCHIKAN, AK, 99901","No_Match",NA,NA,NA,NA
995174,"PO BOX 724553","ATLANTA","GA",31139,NA,NA,174,"PO BOX 724553, ATLANTA, GA, 31139","No_Match",NA,NA,NA,NA
995175,"PO BOX 724746","ATLANTA","GA",31139,NA,NA,175,"PO BOX 724746, ATLANTA, GA, 31139","No_Match",NA,NA,NA,NA
995176,"PO BOX 7249","PAGO PAGO","AS",96799,NA,NA,176,"PO BOX 7249, PAGO PAGO, AS, 96799","No_Match",NA,NA,NA,NA
995177,"PO BOX 725 27 VIRGINIA ROAD","IRVINGTON","VA",22480,37.6649547100001,-76.428159689,177,"PO BOX 725 27 VIRGINIA ROAD, IRVINGTON, VA, 22480","Match","Exact","27 VIRGINIA RD, IRVINGTON, VA, 22480",30797920,"L"
995178,"PO BOX 725","AFTON","WY",83110,NA,NA,178,"PO BOX 725, AFTON, WY, 83110","No_Match",NA,NA,NA,NA
995179,"PO BOX 725","BURKBURNETT","TX",76354,NA,NA,179,"PO BOX 725, BURKBURNETT, TX, 76354","No_Match",NA,NA,NA,NA
995180,"PO BOX 725","CARSON","WA",98610,NA,NA,180,"PO BOX 725, CARSON, WA, 98610","No_Match",NA,NA,NA,NA
995181,"PO BOX 725","CHOTEAU","MT",59422,NA,NA,181,"PO BOX 725, CHOTEAU, MT, 59422","No_Match",NA,NA,NA,NA
995182,"PO BOX 725","ELMIRA","OR",97437,NA,NA,182,"PO BOX 725, ELMIRA, OR, 97437","No_Match",NA,NA,NA,NA
995183,"PO BOX 725","IRVINGTON","VA",22480,NA,NA,183,"PO BOX 725, IRVINGTON, VA, 22480","No_Match",NA,NA,NA,NA
995184,"PO BOX 725","KIMBERLING CITY","MO",65686,NA,NA,184,"PO BOX 725, KIMBERLING CITY, MO, 65686","No_Match",NA,NA,NA,NA
995185,"PO BOX 725","KING MOUNTAIN","NC",28086,NA,NA,185,"PO BOX 725, KING MOUNTAIN, NC, 28086","No_Match",NA,NA,NA,NA
995186,"PO BOX 725","KINGWOOD","WV",26537,NA,NA,186,"PO BOX 725, KINGWOOD, WV, 26537","No_Match",NA,NA,NA,NA
995187,"PO BOX 725","ROCK HILL","SC",29731,NA,NA,187,"PO BOX 725, ROCK HILL, SC, 29731","No_Match",NA,NA,NA,NA
995188,"PO BOX 725","WELLTON","AZ",85326,NA,NA,188,"PO BOX 725, WELLTON, AZ, 85326","No_Match",NA,NA,NA,NA
995189,"PO BOX 725","WELLTON","AZ",85356,NA,NA,189,"PO BOX 725, WELLTON, AZ, 85356","No_Match",NA,NA,NA,NA
995190,"PO BOX 725076","ATLANTA","GA",31139,NA,NA,190,"PO BOX 725076, ATLANTA, GA, 31139","No_Match",NA,NA,NA,NA
995191,"PO BOX 725114","ROSELLE","IL",60172,NA,NA,191,"PO BOX 725114, ROSELLE, IL, 60172","No_Match",NA,NA,NA,NA
995192,"PO BOX 7252","AGAT","GU",96928,NA,NA,192,"PO BOX 7252, AGAT, GU, 96928","No_Match",NA,NA,NA,NA
995193,"PO BOX 7254","BEVERLY HILLS","CA",90212,NA,NA,193,"PO BOX 7254, BEVERLY HILLS, CA, 90212","No_Match",NA,NA,NA,NA
995194,"PO BOX 7255","WOODLAND PARK","CO",80863,NA,NA,194,"PO BOX 7255, WOODLAND PARK, CO, 80863","No_Match",NA,NA,NA,NA
995195,"PO BOX 725583","ATLANTA","GA",31139,NA,NA,195,"PO BOX 725583, ATLANTA, GA, 31139","No_Match",NA,NA,NA,NA
995196,"PO BOX 7258","DULUTH","MN",55807,NA,NA,196,"PO BOX 7258, DULUTH, MN, 55807","No_Match",NA,NA,NA,NA
995197,"PO BOX 7258","SILOAM SPRINGS","AR",72761,NA,NA,197,"PO BOX 7258, SILOAM SPRINGS, AR, 72761","No_Match",NA,NA,NA,NA
995198,"PO BOX 7259","BEND","OR",97708,NA,NA,198,"PO BOX 7259, BEND, OR, 97708","No_Match",NA,NA,NA,NA
995199,"PO BOX 726","FINDLAY","OH",45839,NA,NA,199,"PO BOX 726, FINDLAY, OH, 45839","No_Match",NA,NA,NA,NA
995200,"PO BOX 726","LYNDEN","WA",98264,NA,NA,200,"PO BOX 726, LYNDEN, WA, 98264","No_Match",NA,NA,NA,NA
995201,"PO BOX 726","MILES CITY","MT",59301,NA,NA,201,"PO BOX 726, MILES CITY, MT, 59301","No_Match",NA,NA,NA,NA
995202,"PO BOX 726","MULDROW","OK",74948,NA,NA,202,"PO BOX 726, MULDROW, OK, 74948","No_Match",NA,NA,NA,NA
995203,"PO BOX 726","OURAY","CO",81427,NA,NA,203,"PO BOX 726, OURAY, CO, 81427","No_Match",NA,NA,NA,NA
995204,"PO BOX 726","ROGERS","AR",72757,NA,NA,204,"PO BOX 726, ROGERS, AR, 72757","No_Match",NA,NA,NA,NA
995205,"PO BOX 7261","PASADENA","TX",77508,NA,NA,205,"PO BOX 7261, PASADENA, TX, 77508","No_Match",NA,NA,NA,NA
995206,"PO BOX 72612","RICHMOND","VA",23235,NA,NA,206,"PO BOX 72612, RICHMOND, VA, 23235","No_Match",NA,NA,NA,NA
995207,"PO BOX 7265","SANTA CRUZ","CA",95061,NA,NA,207,"PO BOX 7265, SANTA CRUZ, CA, 95061","No_Match",NA,NA,NA,NA
995208,"PO BOX 7266","THE WOODLANDS","TX",77387,NA,NA,208,"PO BOX 7266, THE WOODLANDS, TX, 77387","No_Match",NA,NA,NA,NA
995209,"PO BOX 727","ARBUCKLE","CA",95912,NA,NA,209,"PO BOX 727, ARBUCKLE, CA, 95912","No_Match",NA,NA,NA,NA
995210,"PO BOX 727","CLARKSBURG","NJ",8510,NA,NA,210,"PO BOX 727, CLARKSBURG, NJ, 8510","No_Match",NA,NA,NA,NA
995211,"PO BOX 727","CLEARFIELD","UT",84089,NA,NA,211,"PO BOX 727, CLEARFIELD, UT, 84089","No_Match",NA,NA,NA,NA
995212,"PO BOX 727","FRANKLIN","KY",42135,NA,NA,212,"PO BOX 727, FRANKLIN, KY, 42135","No_Match",NA,NA,NA,NA
995213,"PO BOX 727","HALEIWA","HI",98660,NA,NA,213,"PO BOX 727, HALEIWA, HI, 98660","No_Match",NA,NA,NA,NA
995214,"PO BOX 727","MIDLOTHIAN","TX",76065,NA,NA,214,"PO BOX 727, MIDLOTHIAN, TX, 76065","No_Match",NA,NA,NA,NA
995215,"PO BOX 727","MONTESANO","WA",98563,NA,NA,215,"PO BOX 727, MONTESANO, WA, 98563","No_Match",NA,NA,NA,NA
995216,"PO BOX 727","MOUNT VERNON","NY",10550,NA,NA,216,"PO BOX 727, MOUNT VERNON, NY, 10550","No_Match",NA,NA,NA,NA
995217,"PO BOX 727","PAGE","AZ",86040,NA,NA,217,"PO BOX 727, PAGE, AZ, 86040","No_Match",NA,NA,NA,NA
995218,"PO BOX 727","PARK CITY","UT",84060,NA,NA,218,"PO BOX 727, PARK CITY, UT, 84060","No_Match",NA,NA,NA,NA
995219,"PO BOX 727","STATESBORO","GA",30459,NA,NA,219,"PO BOX 727, STATESBORO, GA, 30459","No_Match",NA,NA,NA,NA
995220,"PO BOX 7270","PASADENA","TX",77508,NA,NA,220,"PO BOX 7270, PASADENA, TX, 77508","No_Match",NA,NA,NA,NA
995221,"PO BOX 7270","WOODBRIDGE","VA",22195,NA,NA,221,"PO BOX 7270, WOODBRIDGE, VA, 22195","No_Match",NA,NA,NA,NA
995222,"PO BOX 7273","HILO","HI",96720,NA,NA,222,"PO BOX 7273, HILO, HI, 96720","No_Match",NA,NA,NA,NA
995223,"PO BOX 7273","WACO","TX",76714,NA,NA,223,"PO BOX 7273, WACO, TX, 76714","No_Match",NA,NA,NA,NA
995224,"PO BOX 7275","LOVELAND","CO",80537,NA,NA,224,"PO BOX 7275, LOVELAND, CO, 80537","No_Match",NA,NA,NA,NA
995225,"PO BOX 7275","ST. THOMAS","VI",801,NA,NA,225,"PO BOX 7275, ST. THOMAS, VI, 801","No_Match",NA,NA,NA,NA
995226,"PO BOX 728","AMITY","OR",97101,NA,NA,226,"PO BOX 728, AMITY, OR, 97101","No_Match",NA,NA,NA,NA
995227,"PO BOX 728","BELLA VISTA","CA",96008,NA,NA,227,"PO BOX 728, BELLA VISTA, CA, 96008","No_Match",NA,NA,NA,NA
995228,"PO BOX 728","BONIFAY","FL",32425,NA,NA,228,"PO BOX 728, BONIFAY, FL, 32425","No_Match",NA,NA,NA,NA
995229,"PO BOX 728","CUSHING","OK",74023,NA,NA,229,"PO BOX 728, CUSHING, OK, 74023","No_Match",NA,NA,NA,NA
995230,"PO BOX 728","FORT MONTGOMERY","NY",10922,NA,NA,230,"PO BOX 728, FORT MONTGOMERY, NY, 10922","No_Match",NA,NA,NA,NA
995231,"PO BOX 728","PINE MOUNTAIN","GA",31822,NA,NA,231,"PO BOX 728, PINE MOUNTAIN, GA, 31822","No_Match",NA,NA,NA,NA
995232,"PO BOX 728","SANDY HOOK","KY",41171,NA,NA,232,"PO BOX 728, SANDY HOOK, KY, 41171","No_Match",NA,NA,NA,NA
995233,"PO BOX 728","SEASIDE","OR",97138,NA,NA,233,"PO BOX 728, SEASIDE, OR, 97138","No_Match",NA,NA,NA,NA
995234,"PO BOX 7284","GRAND RAPIDS","MI",49510,NA,NA,234,"PO BOX 7284, GRAND RAPIDS, MI, 49510","No_Match",NA,NA,NA,NA
995235,"PO BOX 729 / 400 EAST 3RD AVE NO","COLUMBUS","MT",59019,45.64030124,-109.253292604,235,"PO BOX 729 / 400 EAST 3RD AVE NO, COLUMBUS, MT, 59019","Match","Exact","400 E 3RD AVE N, COLUMBUS, MT, 59019",611326135,"R"
995236,"PO BOX 729","FALL CITY","WA",98024,NA,NA,236,"PO BOX 729, FALL CITY, WA, 98024","No_Match",NA,NA,NA,NA
995237,"PO BOX 729","FLAT ROCK","NC",28731,NA,NA,237,"PO BOX 729, FLAT ROCK, NC, 28731","No_Match",NA,NA,NA,NA
995238,"PO BOX 729","KILGORE","TX",75663,NA,NA,238,"PO BOX 729, KILGORE, TX, 75663","No_Match",NA,NA,NA,NA
995239,"PO BOX 729","MINOT","ND",58702,NA,NA,239,"PO BOX 729, MINOT, ND, 58702","No_Match",NA,NA,NA,NA
995240,"PO BOX 729","MOORCROFT","WY",82721,NA,NA,240,"PO BOX 729, MOORCROFT, WY, 82721","No_Match",NA,NA,NA,NA
995241,"PO BOX 729","OAKWOOD","GA",30566,NA,NA,241,"PO BOX 729, OAKWOOD, GA, 30566","No_Match",NA,NA,NA,NA
995242,"PO BOX 729","SOUTHAVEN","MS",38671,NA,NA,242,"PO BOX 729, SOUTHAVEN, MS, 38671","No_Match",NA,NA,NA,NA
995243,"PO BOX 729","STEDMAN","NC",28391,NA,NA,243,"PO BOX 729, STEDMAN, NC, 28391","No_Match",NA,NA,NA,NA
995244,"PO BOX 729","UNITY","ME",4988,NA,NA,244,"PO BOX 729, UNITY, ME, 4988","No_Match",NA,NA,NA,NA
995245,"PO BOX 7290","CAPE PORPOISE","ME",4014,NA,NA,245,"PO BOX 7290, CAPE PORPOISE, ME, 4014","No_Match",NA,NA,NA,NA
995246,"PO BOX 72921","FAIRBANKS","AK",99707,NA,NA,246,"PO BOX 72921, FAIRBANKS, AK, 99707","No_Match",NA,NA,NA,NA
995247,"PO BOX 72928","FORT BRAGG","NC",28307,NA,NA,247,"PO BOX 72928, FORT BRAGG, NC, 28307","No_Match",NA,NA,NA,NA
995248,"PO BOX 72946","PHOENIX","AZ",85050,NA,NA,248,"PO BOX 72946, PHOENIX, AZ, 85050","No_Match",NA,NA,NA,NA
995249,"PO BOX 7295 - NO 201975","TALLAHASSEE","FL",32314,NA,NA,249,"PO BOX 7295 - NO 201975, TALLAHASSEE, FL, 32314","No_Match",NA,NA,NA,NA
995250,"PO BOX 7296","ROANOKE","VA",24019,NA,NA,250,"PO BOX 7296, ROANOKE, VA, 24019","No_Match",NA,NA,NA,NA
995251,"PO BOX 7298","RUIDOSO","NM",88345,NA,NA,251,"PO BOX 7298, RUIDOSO, NM, 88345","No_Match",NA,NA,NA,NA
995252,"PO BOX 73  6238 SHERIDAN SPRINGS RD","LYONS","WI",53148,NA,NA,252,"PO BOX 73  6238 SHERIDAN SPRINGS RD, LYONS, WI, 53148","No_Match",NA,NA,NA,NA
995253,"PO BOX 73","ALEXIS","NC",28006,NA,NA,253,"PO BOX 73, ALEXIS, NC, 28006","No_Match",NA,NA,NA,NA
995254,"PO BOX 73","AMSTERDAM","OH",43903,NA,NA,254,"PO BOX 73, AMSTERDAM, OH, 43903","No_Match",NA,NA,NA,NA
995255,"PO BOX 73","AUGUSTA","KY",41002,NA,NA,255,"PO BOX 73, AUGUSTA, KY, 41002","No_Match",NA,NA,NA,NA
995256,"PO BOX 73","BIG CABIN","OK",74332,NA,NA,256,"PO BOX 73, BIG CABIN, OK, 74332","No_Match",NA,NA,NA,NA
995257,"PO BOX 73","BLUE JAY","CA",92317,NA,NA,257,"PO BOX 73, BLUE JAY, CA, 92317","No_Match",NA,NA,NA,NA
995258,"PO BOX 73","BOONVILLE","CA",95415,NA,NA,258,"PO BOX 73, BOONVILLE, CA, 95415","No_Match",NA,NA,NA,NA
995259,"PO BOX 73","BRISTOW","OK",74010,NA,NA,259,"PO BOX 73, BRISTOW, OK, 74010","No_Match",NA,NA,NA,NA
995260,"PO BOX 73","CAMP LAKE","WI",53019,NA,NA,260,"PO BOX 73, CAMP LAKE, WI, 53019","No_Match",NA,NA,NA,NA
995261,"PO BOX 73","CARDIFF BY THE SEA","CA",92007,NA,NA,261,"PO BOX 73, CARDIFF BY THE SEA, CA, 92007","No_Match",NA,NA,NA,NA
995262,"PO BOX 73","CARDINGTON","OH",43315,NA,NA,262,"PO BOX 73, CARDINGTON, OH, 43315","No_Match",NA,NA,NA,NA
995263,"PO BOX 73","CHRISTIANA","PA",17509,NA,NA,263,"PO BOX 73, CHRISTIANA, PA, 17509","No_Match",NA,NA,NA,NA
995264,"PO BOX 73","CLOVER","SC",29710,NA,NA,264,"PO BOX 73, CLOVER, SC, 29710","No_Match",NA,NA,NA,NA
995265,"PO BOX 73","EAGLE NEST","NM",87718,NA,NA,265,"PO BOX 73, EAGLE NEST, NM, 87718","No_Match",NA,NA,NA,NA
995266,"PO BOX 73","ENGLEWOOD","KS",67840,NA,NA,266,"PO BOX 73, ENGLEWOOD, KS, 67840","No_Match",NA,NA,NA,NA
995267,"PO BOX 73","EPHRAIM","WI",54211,NA,NA,267,"PO BOX 73, EPHRAIM, WI, 54211","No_Match",NA,NA,NA,NA
995268,"PO BOX 73","ESPERANCE","NY",12066,NA,NA,268,"PO BOX 73, ESPERANCE, NY, 12066","No_Match",NA,NA,NA,NA
995269,"PO BOX 73","FORT BIDWELL","CA",96112,NA,NA,269,"PO BOX 73, FORT BIDWELL, CA, 96112","No_Match",NA,NA,NA,NA
995270,"PO BOX 73","GOSHEN","OH",45122,NA,NA,270,"PO BOX 73, GOSHEN, OH, 45122","No_Match",NA,NA,NA,NA
995271,"PO BOX 73","GRAYVILLE","IL",62844,NA,NA,271,"PO BOX 73, GRAYVILLE, IL, 62844","No_Match",NA,NA,NA,NA
995272,"PO BOX 73","GREEN RIVER","WY",82935,NA,NA,272,"PO BOX 73, GREEN RIVER, WY, 82935","No_Match",NA,NA,NA,NA
995273,"PO BOX 73","GUSTAVUS","AK",99826,NA,NA,273,"PO BOX 73, GUSTAVUS, AK, 99826","No_Match",NA,NA,NA,NA
995274,"PO BOX 73","HIGH SPRINGS","FL",32655,NA,NA,274,"PO BOX 73, HIGH SPRINGS, FL, 32655","No_Match",NA,NA,NA,NA
995275,"PO BOX 73","HOCKINGPORT","OH",45739,NA,NA,275,"PO BOX 73, HOCKINGPORT, OH, 45739","No_Match",NA,NA,NA,NA
995276,"PO BOX 73","HOOD RIVER","OR",97031,NA,NA,276,"PO BOX 73, HOOD RIVER, OR, 97031","No_Match",NA,NA,NA,NA
995277,"PO BOX 73","KAUNAKAKAI","HI",96748,NA,NA,277,"PO BOX 73, KAUNAKAKAI, HI, 96748","No_Match",NA,NA,NA,NA
995278,"PO BOX 73","LAKE HELEN","FL",32744,NA,NA,278,"PO BOX 73, LAKE HELEN, FL, 32744","No_Match",NA,NA,NA,NA
995279,"PO BOX 73","LITHOPOLIS","OH",43136,NA,NA,279,"PO BOX 73, LITHOPOLIS, OH, 43136","No_Match",NA,NA,NA,NA
995280,"PO BOX 73","MANVILLE","WY",82227,NA,NA,280,"PO BOX 73, MANVILLE, WY, 82227","No_Match",NA,NA,NA,NA
995281,"PO BOX 73","MANZANITA","OR",97130,NA,NA,281,"PO BOX 73, MANZANITA, OR, 97130","No_Match",NA,NA,NA,NA
995282,"PO BOX 73","MATTITUCK","NY",11952,NA,NA,282,"PO BOX 73, MATTITUCK, NY, 11952","No_Match",NA,NA,NA,NA
995283,"PO BOX 73","OREFIELD","PA",18069,NA,NA,283,"PO BOX 73, OREFIELD, PA, 18069","No_Match",NA,NA,NA,NA
995284,"PO BOX 73","PATILLAS","PR",723,NA,NA,284,"PO BOX 73, PATILLAS, PR, 723","No_Match",NA,NA,NA,NA
995285,"PO BOX 73","PETERSBURG","TX",79250,NA,NA,285,"PO BOX 73, PETERSBURG, TX, 79250","No_Match",NA,NA,NA,NA
995286,"PO BOX 73","PORT ROYAL","PA",17082,NA,NA,286,"PO BOX 73, PORT ROYAL, PA, 17082","No_Match",NA,NA,NA,NA
995287,"PO BOX 73","SALIDA","CO",81201,NA,NA,287,"PO BOX 73, SALIDA, CO, 81201","No_Match",NA,NA,NA,NA
995288,"PO BOX 73","SCHENEVUS","NY",55121,NA,NA,288,"PO BOX 73, SCHENEVUS, NY, 55121","No_Match",NA,NA,NA,NA
995289,"PO BOX 73","STEVINSON","CA",95374,NA,NA,289,"PO BOX 73, STEVINSON, CA, 95374","No_Match",NA,NA,NA,NA
995290,"PO BOX 73","STRAWBERRY POINT","IA",52076,NA,NA,290,"PO BOX 73, STRAWBERRY POINT, IA, 52076","No_Match",NA,NA,NA,NA
995291,"PO BOX 73","TAHOLAH","WA",98587,NA,NA,291,"PO BOX 73, TAHOLAH, WA, 98587","No_Match",NA,NA,NA,NA
995292,"PO BOX 73","WEST RIDGE","AR",72391,NA,NA,292,"PO BOX 73, WEST RIDGE, AR, 72391","No_Match",NA,NA,NA,NA
995293,"PO BOX 73","WHITE PLAINS","KY",42464,NA,NA,293,"PO BOX 73, WHITE PLAINS, KY, 42464","No_Match",NA,NA,NA,NA
995294,"PO BOX 73","WISDOM","MT",59761,NA,NA,294,"PO BOX 73, WISDOM, MT, 59761","No_Match",NA,NA,NA,NA
995295,"PO BOX 73","WOODLAND HILLS","CA",91365,NA,NA,295,"PO BOX 73, WOODLAND HILLS, CA, 91365","No_Match",NA,NA,NA,NA
995296,"PO BOX 73","YESO","NM",88136,NA,NA,296,"PO BOX 73, YESO, NM, 88136","No_Match",NA,NA,NA,NA
995297,"PO BOX 730","BROOKSHIRE","TX",77423,NA,NA,297,"PO BOX 730, BROOKSHIRE, TX, 77423","No_Match",NA,NA,NA,NA
995298,"PO BOX 730","CARLTON","OR",97111,NA,NA,298,"PO BOX 730, CARLTON, OR, 97111","No_Match",NA,NA,NA,NA
995299,"PO BOX 730","JENNINGS","LA",70546,NA,NA,299,"PO BOX 730, JENNINGS, LA, 70546","No_Match",NA,NA,NA,NA
995300,"PO BOX 730","KANEOHE","HI",96744,NA,NA,300,"PO BOX 730, KANEOHE, HI, 96744","No_Match",NA,NA,NA,NA
995301,"PO BOX 730","LEADVILLE","CO",80461,NA,NA,301,"PO BOX 730, LEADVILLE, CO, 80461","No_Match",NA,NA,NA,NA
995302,"PO BOX 730","PARK RAPIDS","MN",56470,NA,NA,302,"PO BOX 730, PARK RAPIDS, MN, 56470","No_Match",NA,NA,NA,NA
995303,"PO BOX 730","RYE","TX",77369,NA,NA,303,"PO BOX 730, RYE, TX, 77369","No_Match",NA,NA,NA,NA
995304,"PO BOX 730","STANTON","TX",79782,NA,NA,304,"PO BOX 730, STANTON, TX, 79782","No_Match",NA,NA,NA,NA
995305,"PO BOX 7300","BOULDER","CO",80306,NA,NA,305,"PO BOX 7300, BOULDER, CO, 80306","No_Match",NA,NA,NA,NA
995306,"PO BOX 7300","RENO","NV",89510,NA,NA,306,"PO BOX 7300, RENO, NV, 89510","No_Match",NA,NA,NA,NA
995307,"PO BOX 73004","DAVIS","CA",95617,NA,NA,307,"PO BOX 73004, DAVIS, CA, 95617","No_Match",NA,NA,NA,NA
995308,"PO BOX 73009","RIO LINDA","CA",95673,NA,NA,308,"PO BOX 73009, RIO LINDA, CA, 95673","No_Match",NA,NA,NA,NA
995309,"PO BOX 730128","ORMOND BEACH","FL",32173,NA,NA,309,"PO BOX 730128, ORMOND BEACH, FL, 32173","No_Match",NA,NA,NA,NA
995310,"PO BOX 7302","GRAND RAPIDS","MI",49510,NA,NA,310,"PO BOX 7302, GRAND RAPIDS, MI, 49510","No_Match",NA,NA,NA,NA
995311,"PO BOX 7304","SPRECKELS","CA",93962,NA,NA,311,"PO BOX 7304, SPRECKELS, CA, 93962","No_Match",NA,NA,NA,NA
995312,"PO BOX 7306","EWING","NJ",8628,NA,NA,312,"PO BOX 7306, EWING, NJ, 8628","No_Match",NA,NA,NA,NA
995313,"PO BOX 73095","BATON ROUGE","LA",70874,NA,NA,313,"PO BOX 73095, BATON ROUGE, LA, 70874","No_Match",NA,NA,NA,NA
995314,"PO BOX 731 601 EAST 8TH AVE","HOMESTEAD","PA",15120,40.4090405910001,-79.9031737939999,314,"PO BOX 731 601 EAST 8TH AVE, HOMESTEAD, PA, 15120","Match","Exact","601 E 8TH AVE, HOMESTEAD, PA, 15120",607633915,"L"
995315,"PO BOX 731","CHESNEE","SC",29323,NA,NA,315,"PO BOX 731, CHESNEE, SC, 29323","No_Match",NA,NA,NA,NA
995316,"PO BOX 731","CUSTER","SD",57730,NA,NA,316,"PO BOX 731, CUSTER, SD, 57730","No_Match",NA,NA,NA,NA
995317,"PO BOX 731","EL VERANO","CA",95433,NA,NA,317,"PO BOX 731, EL VERANO, CA, 95433","No_Match",NA,NA,NA,NA
995318,"PO BOX 731","FAIRPLAY","CO",80440,NA,NA,318,"PO BOX 731, FAIRPLAY, CO, 80440","No_Match",NA,NA,NA,NA
995319,"PO BOX 731","FAR HILLS","NJ",7931,NA,NA,319,"PO BOX 731, FAR HILLS, NJ, 7931","No_Match",NA,NA,NA,NA
995320,"PO BOX 731","GREENBELT","MD",20768,NA,NA,320,"PO BOX 731, GREENBELT, MD, 20768","No_Match",NA,NA,NA,NA
995321,"PO BOX 731","LUBBOCK","TX",79408,NA,NA,321,"PO BOX 731, LUBBOCK, TX, 79408","No_Match",NA,NA,NA,NA
995322,"PO BOX 731","MANCHESTER","TN",37349,NA,NA,322,"PO BOX 731, MANCHESTER, TN, 37349","No_Match",NA,NA,NA,NA
995323,"PO BOX 731","MOUNT LEMMON","AZ",85619,NA,NA,323,"PO BOX 731, MOUNT LEMMON, AZ, 85619","No_Match",NA,NA,NA,NA
995324,"PO BOX 731","MUENSTER","TX",76252,NA,NA,324,"PO BOX 731, MUENSTER, TX, 76252","No_Match",NA,NA,NA,NA
995325,"PO BOX 731","OCEAN SHORES","WA",98569,NA,NA,325,"PO BOX 731, OCEAN SHORES, WA, 98569","No_Match",NA,NA,NA,NA
995326,"PO BOX 731","OLD BRIDGE","NJ",8857,NA,NA,326,"PO BOX 731, OLD BRIDGE, NJ, 8857","No_Match",NA,NA,NA,NA
995327,"PO BOX 731","RED LODGE","MT",59068,NA,NA,327,"PO BOX 731, RED LODGE, MT, 59068","No_Match",NA,NA,NA,NA
995328,"PO BOX 731","SHERMAN","TX",75090,NA,NA,328,"PO BOX 731, SHERMAN, TX, 75090","No_Match",NA,NA,NA,NA
995329,"PO BOX 731","STEPHENS CITY","VA",22655,NA,NA,329,"PO BOX 731, STEPHENS CITY, VA, 22655","No_Match",NA,NA,NA,NA
995330,"PO BOX 731","TELL CITY","IN",47586,NA,NA,330,"PO BOX 731, TELL CITY, IN, 47586","No_Match",NA,NA,NA,NA
995331,"PO BOX 731007","PUYALLUP","WA",98373,NA,NA,331,"PO BOX 731007, PUYALLUP, WA, 98373","No_Match",NA,NA,NA,NA
995332,"PO BOX 73101","FT. BRAGG","NC",28307,NA,NA,332,"PO BOX 73101, FT. BRAGG, NC, 28307","No_Match",NA,NA,NA,NA
995333,"PO BOX 731032","ELMHURST","NY",11373,NA,NA,333,"PO BOX 731032, ELMHURST, NY, 11373","No_Match",NA,NA,NA,NA
995334,"PO BOX 7311","LONGVIEW","TX",75607,NA,NA,334,"PO BOX 7311, LONGVIEW, TX, 75607","No_Match",NA,NA,NA,NA
995335,"PO BOX 73122","NEWNAN","GA",30271,NA,NA,335,"PO BOX 73122, NEWNAN, GA, 30271","No_Match",NA,NA,NA,NA
995336,"PO BOX 731242","ORMOND BEACH","FL",32173,NA,NA,336,"PO BOX 731242, ORMOND BEACH, FL, 32173","No_Match",NA,NA,NA,NA
995337,"PO BOX 7315","ANN ARBOR","MI",48107,NA,NA,337,"PO BOX 7315, ANN ARBOR, MI, 48107","No_Match",NA,NA,NA,NA
995338,"PO BOX 7316","FLINT","MI",48507,NA,NA,338,"PO BOX 7316, FLINT, MI, 48507","No_Match",NA,NA,NA,NA
995339,"PO BOX 7316","STOCKTON","CA",95267,NA,NA,339,"PO BOX 7316, STOCKTON, CA, 95267","No_Match",NA,NA,NA,NA
995340,"PO BOX 731762","PUYALLUP","WA",98373,NA,NA,340,"PO BOX 731762, PUYALLUP, WA, 98373","No_Match",NA,NA,NA,NA
995341,"PO BOX 731903","ORMOND BEACH","FL",32173,NA,NA,341,"PO BOX 731903, ORMOND BEACH, FL, 32173","No_Match",NA,NA,NA,NA
995342,"PO BOX 731905","PUYALLUP","WA",98373,NA,NA,342,"PO BOX 731905, PUYALLUP, WA, 98373","No_Match",NA,NA,NA,NA
995343,"PO BOX 732","BURTON","OH",44021,NA,NA,343,"PO BOX 732, BURTON, OH, 44021","No_Match",NA,NA,NA,NA
995344,"PO BOX 732","CHERRY HILL","NJ",8003,NA,NA,344,"PO BOX 732, CHERRY HILL, NJ, 8003","No_Match",NA,NA,NA,NA
995345,"PO BOX 732","CHIPLEY","FL",32428,NA,NA,345,"PO BOX 732, CHIPLEY, FL, 32428","No_Match",NA,NA,NA,NA
995346,"PO BOX 732","COEBURN","VA",24230,NA,NA,346,"PO BOX 732, COEBURN, VA, 24230","No_Match",NA,NA,NA,NA
995347,"PO BOX 732","CONNERSVILLE","IN",47331,NA,NA,347,"PO BOX 732, CONNERSVILLE, IN, 47331","No_Match",NA,NA,NA,NA
995348,"PO BOX 732","EDISTO ISLAND","SC",29438,NA,NA,348,"PO BOX 732, EDISTO ISLAND, SC, 29438","No_Match",NA,NA,NA,NA
995349,"PO BOX 732","GARRISONVILLE","VA",22463,NA,NA,349,"PO BOX 732, GARRISONVILLE, VA, 22463","No_Match",NA,NA,NA,NA
995350,"PO BOX 732","HARTFORD","VT",5047,NA,NA,350,"PO BOX 732, HARTFORD, VT, 5047","No_Match",NA,NA,NA,NA
995351,"PO BOX 732","IMMOKALEE","FL",34143,NA,NA,351,"PO BOX 732, IMMOKALEE, FL, 34143","No_Match",NA,NA,NA,NA
995352,"PO BOX 732","IVA","SC",29655,NA,NA,352,"PO BOX 732, IVA, SC, 29655","No_Match",NA,NA,NA,NA
995353,"PO BOX 732","JACKSON CENTER","OH",45334,NA,NA,353,"PO BOX 732, JACKSON CENTER, OH, 45334","No_Match",NA,NA,NA,NA
995354,"PO BOX 732","JUPITER","FL",33458,NA,NA,354,"PO BOX 732, JUPITER, FL, 33458","No_Match",NA,NA,NA,NA
995355,"PO BOX 732","KAUNAKAKAI","HI",96748,NA,NA,355,"PO BOX 732, KAUNAKAKAI, HI, 96748","No_Match",NA,NA,NA,NA
995356,"PO BOX 732","KNOXVILLE","TN",37901,NA,NA,356,"PO BOX 732, KNOXVILLE, TN, 37901","No_Match",NA,NA,NA,NA
995357,"PO BOX 732","MANSFIELD","WA",98830,NA,NA,357,"PO BOX 732, MANSFIELD, WA, 98830","No_Match",NA,NA,NA,NA
995358,"PO BOX 732","MOAPA","NV",89025,NA,NA,358,"PO BOX 732, MOAPA, NV, 89025","No_Match",NA,NA,NA,NA
995359,"PO BOX 732","MUSKEGO","WI",53150,NA,NA,359,"PO BOX 732, MUSKEGO, WI, 53150","No_Match",NA,NA,NA,NA
995360,"PO BOX 732","ODESSA","FL",33556,NA,NA,360,"PO BOX 732, ODESSA, FL, 33556","No_Match",NA,NA,NA,NA
995361,"PO BOX 732","OLYMPIA","WA",98507,NA,NA,361,"PO BOX 732, OLYMPIA, WA, 98507","No_Match",NA,NA,NA,NA
995362,"PO BOX 732","OZARK","MO",65721,NA,NA,362,"PO BOX 732, OZARK, MO, 65721","No_Match",NA,NA,NA,NA
995363,"PO BOX 732","PABLO","MT",59855,NA,NA,363,"PO BOX 732, PABLO, MT, 59855","No_Match",NA,NA,NA,NA
995364,"PO BOX 732","SANTA CLARA","CA",95052,NA,NA,364,"PO BOX 732, SANTA CLARA, CA, 95052","No_Match",NA,NA,NA,NA
995365,"PO BOX 732","SANTA CLARA","NM",88026,NA,NA,365,"PO BOX 732, SANTA CLARA, NM, 88026","No_Match",NA,NA,NA,NA
995366,"PO BOX 732","SHAW","MS",38773,NA,NA,366,"PO BOX 732, SHAW, MS, 38773","No_Match",NA,NA,NA,NA
995367,"PO BOX 73273","WASHINGTON","DC",20056,NA,NA,367,"PO BOX 73273, WASHINGTON, DC, 20056","No_Match",NA,NA,NA,NA
995368,"PO BOX 7329","HILO","HI",96720,NA,NA,368,"PO BOX 7329, HILO, HI, 96720","No_Match",NA,NA,NA,NA
995369,"PO BOX 733","COTTONWOOD","AZ",86326,NA,NA,369,"PO BOX 733, COTTONWOOD, AZ, 86326","No_Match",NA,NA,NA,NA
995370,"PO BOX 733","E ORANGE","NJ",7017,NA,NA,370,"PO BOX 733, E ORANGE, NJ, 7017","No_Match",NA,NA,NA,NA
995371,"PO BOX 733","ENOSBURG FALLS","VT",5450,NA,NA,371,"PO BOX 733, ENOSBURG FALLS, VT, 5450","No_Match",NA,NA,NA,NA
995372,"PO BOX 733","HALFWAY","OR",97834,NA,NA,372,"PO BOX 733, HALFWAY, OR, 97834","No_Match",NA,NA,NA,NA
995373,"PO BOX 733","HOWELL","MI",48844,NA,NA,373,"PO BOX 733, HOWELL, MI, 48844","No_Match",NA,NA,NA,NA
995374,"PO BOX 733","ISABELA","PR",662,NA,NA,374,"PO BOX 733, ISABELA, PR, 662","No_Match",NA,NA,NA,NA
995375,"PO BOX 733","NEW LONDON","NH",3257,NA,NA,375,"PO BOX 733, NEW LONDON, NH, 3257","No_Match",NA,NA,NA,NA
995376,"PO BOX 733","RED SPRINGS","NC",28377,NA,NA,376,"PO BOX 733, RED SPRINGS, NC, 28377","No_Match",NA,NA,NA,NA
995377,"PO BOX 733","RIO HONDO","TX",78583,NA,NA,377,"PO BOX 733, RIO HONDO, TX, 78583","No_Match",NA,NA,NA,NA
995378,"PO BOX 733","ROSEDALE","VA",24280,NA,NA,378,"PO BOX 733, ROSEDALE, VA, 24280","No_Match",NA,NA,NA,NA
995379,"PO BOX 733","TALKEETNA","AK",99676,NA,NA,379,"PO BOX 733, TALKEETNA, AK, 99676","No_Match",NA,NA,NA,NA
995380,"PO BOX 7330","NY","NY",10116,NA,NA,380,"PO BOX 7330, NY, NY, 10116","No_Match",NA,NA,NA,NA
995381,"PO BOX 7331","HILO","HI",96720,NA,NA,381,"PO BOX 7331, HILO, HI, 96720","No_Match",NA,NA,NA,NA
995382,"PO BOX 73314","WASHINGTON","DC",20056,NA,NA,382,"PO BOX 73314, WASHINGTON, DC, 20056","No_Match",NA,NA,NA,NA
995383,"PO BOX 7332","GRAND RAPIDS","MI",49510,NA,NA,383,"PO BOX 7332, GRAND RAPIDS, MI, 49510","No_Match",NA,NA,NA,NA
995384,"PO BOX 7332","MADISON","WA",53707,NA,NA,384,"PO BOX 7332, MADISON, WA, 53707","No_Match",NA,NA,NA,NA
995385,"PO BOX 7332","MADISON","WI",53707,NA,NA,385,"PO BOX 7332, MADISON, WI, 53707","No_Match",NA,NA,NA,NA
995386,"PO BOX 73321","HOUSTON","TX",77273,NA,NA,386,"PO BOX 73321, HOUSTON, TX, 77273","No_Match",NA,NA,NA,NA
995387,"PO BOX 7335","RICHMOND","VA",23221,NA,NA,387,"PO BOX 7335, RICHMOND, VA, 23221","No_Match",NA,NA,NA,NA
995388,"PO BOX 73354","DAVIS","CA",95617,NA,NA,388,"PO BOX 73354, DAVIS, CA, 95617","No_Match",NA,NA,NA,NA
995389,"PO BOX 7338","HICKSVILLE","NY",11802,NA,NA,389,"PO BOX 7338, HICKSVILLE, NY, 11802","No_Match",NA,NA,NA,NA
995390,"PO BOX 734","ANCHOR POINT","AK",99556,NA,NA,390,"PO BOX 734, ANCHOR POINT, AK, 99556","No_Match",NA,NA,NA,NA
995391,"PO BOX 734","APEX","NC",27502,NA,NA,391,"PO BOX 734, APEX, NC, 27502","No_Match",NA,NA,NA,NA
995392,"PO BOX 734","DEER PARK","WA",99006,NA,NA,392,"PO BOX 734, DEER PARK, WA, 99006","No_Match",NA,NA,NA,NA
995393,"PO BOX 734","EDGARTOWN","MA",2539,NA,NA,393,"PO BOX 734, EDGARTOWN, MA, 2539","No_Match",NA,NA,NA,NA
995394,"PO BOX 734","HENNIKER","NH",3242,NA,NA,394,"PO BOX 734, HENNIKER, NH, 3242","No_Match",NA,NA,NA,NA
995395,"PO BOX 734","HERLONG","CA",96113,NA,NA,395,"PO BOX 734, HERLONG, CA, 96113","No_Match",NA,NA,NA,NA
995396,"PO BOX 734","HILLSBORO","MO",63050,NA,NA,396,"PO BOX 734, HILLSBORO, MO, 63050","No_Match",NA,NA,NA,NA
995397,"PO BOX 734","LUSBY","MD",20657,NA,NA,397,"PO BOX 734, LUSBY, MD, 20657","No_Match",NA,NA,NA,NA
995398,"PO BOX 734","PHILADELPHIA","MS",39350,NA,NA,398,"PO BOX 734, PHILADELPHIA, MS, 39350","No_Match",NA,NA,NA,NA
995399,"PO BOX 734","PUT-IN-BAY","OH",43456,NA,NA,399,"PO BOX 734, PUT-IN-BAY, OH, 43456","No_Match",NA,NA,NA,NA
995400,"PO BOX 734","RED LODGE","MT",59068,NA,NA,400,"PO BOX 734, RED LODGE, MT, 59068","No_Match",NA,NA,NA,NA
995401,"PO BOX 734","ROANOKE RAPIDS","NC",27870,NA,NA,401,"PO BOX 734, ROANOKE RAPIDS, NC, 27870","No_Match",NA,NA,NA,NA
995402,"PO BOX 734","SAN ANTONIO","PR",690,NA,NA,402,"PO BOX 734, SAN ANTONIO, PR, 690","No_Match",NA,NA,NA,NA
995403,"PO BOX 734","SCOBEY","MT",59263,NA,NA,403,"PO BOX 734, SCOBEY, MT, 59263","No_Match",NA,NA,NA,NA
995404,"PO BOX 734","SPRINGFIELD","VT",5156,NA,NA,404,"PO BOX 734, SPRINGFIELD, VT, 5156","No_Match",NA,NA,NA,NA
995405,"PO BOX 734","TOWNSEND","MT",59644,NA,NA,405,"PO BOX 734, TOWNSEND, MT, 59644","No_Match",NA,NA,NA,NA
995406,"PO BOX 734","VICTOR","NY",14564,NA,NA,406,"PO BOX 734, VICTOR, NY, 14564","No_Match",NA,NA,NA,NA
995407,"PO BOX 734","WEST KINGSTON","RI",2880,NA,NA,407,"PO BOX 734, WEST KINGSTON, RI, 2880","No_Match",NA,NA,NA,NA
995408,"PO BOX 7340","ST. CROIX","VI",823,NA,NA,408,"PO BOX 7340, ST. CROIX, VI, 823","No_Match",NA,NA,NA,NA
995409,"PO BOX 7342","PETALUMA","CA",94955,NA,NA,409,"PO BOX 7342, PETALUMA, CA, 94955","No_Match",NA,NA,NA,NA
995410,"PO BOX 7343","BEAUMONT","TX",77726,NA,NA,410,"PO BOX 7343, BEAUMONT, TX, 77726","No_Match",NA,NA,NA,NA
995411,"PO BOX 7343","VISALIA","CA",93290,NA,NA,411,"PO BOX 7343, VISALIA, CA, 93290","No_Match",NA,NA,NA,NA
995412,"PO BOX 7344","ALBANY","NY",12207,NA,NA,412,"PO BOX 7344, ALBANY, NY, 12207","No_Match",NA,NA,NA,NA
995413,"PO BOX 7344","HILO","HI",96720,NA,NA,413,"PO BOX 7344, HILO, HI, 96720","No_Match",NA,NA,NA,NA
995414,"PO BOX 7344","TALLAHASSEE","FL",32314,NA,NA,414,"PO BOX 7344, TALLAHASSEE, FL, 32314","No_Match",NA,NA,NA,NA
995415,"PO BOX 7346","LARGO","MD",20792,NA,NA,415,"PO BOX 7346, LARGO, MD, 20792","No_Match",NA,NA,NA,NA
995416,"PO BOX 73462","HOUSTON","TX",77372,NA,NA,416,"PO BOX 73462, HOUSTON, TX, 77372","No_Match",NA,NA,NA,NA
995417,"PO BOX 73469","DAVIS","CA",95617,NA,NA,417,"PO BOX 73469, DAVIS, CA, 95617","No_Match",NA,NA,NA,NA
995418,"PO BOX 735","AUBREY","TX",76227,NA,NA,418,"PO BOX 735, AUBREY, TX, 76227","No_Match",NA,NA,NA,NA
995419,"PO BOX 735","BURTON","OH",44021,NA,NA,419,"PO BOX 735, BURTON, OH, 44021","No_Match",NA,NA,NA,NA
995420,"PO BOX 735","CEDAR HILL","TX",75106,NA,NA,420,"PO BOX 735, CEDAR HILL, TX, 75106","No_Match",NA,NA,NA,NA
995421,"PO BOX 735","DANNEMORA","NY",12929,NA,NA,421,"PO BOX 735, DANNEMORA, NY, 12929","No_Match",NA,NA,NA,NA
995422,"PO BOX 735","DHANIS","TX",78861,NA,NA,422,"PO BOX 735, DHANIS, TX, 78861","No_Match",NA,NA,NA,NA
995423,"PO BOX 735","GARDEN VALLEY","ID",83622,NA,NA,423,"PO BOX 735, GARDEN VALLEY, ID, 83622","No_Match",NA,NA,NA,NA
995424,"PO BOX 735","HERLONG","CA",96113,NA,NA,424,"PO BOX 735, HERLONG, CA, 96113","No_Match",NA,NA,NA,NA
995425,"PO BOX 735","KELLEYS IS","OH",43438,NA,NA,425,"PO BOX 735, KELLEYS IS, OH, 43438","No_Match",NA,NA,NA,NA
995426,"PO BOX 735","KREMMLING","CO",80459,NA,NA,426,"PO BOX 735, KREMMLING, CO, 80459","No_Match",NA,NA,NA,NA
995427,"PO BOX 735","MANTUA","OH",44255,NA,NA,427,"PO BOX 735, MANTUA, OH, 44255","No_Match",NA,NA,NA,NA
995428,"PO BOX 735","PICABO","ID",83348,NA,NA,428,"PO BOX 735, PICABO, ID, 83348","No_Match",NA,NA,NA,NA
995429,"PO BOX 735","ROCKMART","GA",30153,NA,NA,429,"PO BOX 735, ROCKMART, GA, 30153","No_Match",NA,NA,NA,NA
995430,"PO BOX 735","SPOKANE","WA",99210,NA,NA,430,"PO BOX 735, SPOKANE, WA, 99210","No_Match",NA,NA,NA,NA
995431,"PO BOX 735","TEA","SD",57064,NA,NA,431,"PO BOX 735, TEA, SD, 57064","No_Match",NA,NA,NA,NA
995432,"PO BOX 7352","NORTH PORT","FL",34290,NA,NA,432,"PO BOX 7352, NORTH PORT, FL, 34290","No_Match",NA,NA,NA,NA
995433,"PO BOX 7353","DENVER","CO",80207,NA,NA,433,"PO BOX 7353, DENVER, CO, 80207","No_Match",NA,NA,NA,NA
995434,"PO BOX 73540","WASHINGTON","DC",20056,NA,NA,434,"PO BOX 73540, WASHINGTON, DC, 20056","No_Match",NA,NA,NA,NA
995435,"PO BOX 7359","ACCRA-NORTH",NA,NA,NA,NA,435,"PO BOX 7359, ACCRA-NORTH, , ","No_Match",NA,NA,NA,NA
995436,"PO BOX 736","CIMARRON","KS",67835,NA,NA,436,"PO BOX 736, CIMARRON, KS, 67835","No_Match",NA,NA,NA,NA
995437,"PO BOX 736","FARWELL","TX",79325,NA,NA,437,"PO BOX 736, FARWELL, TX, 79325","No_Match",NA,NA,NA,NA
995438,"PO BOX 736","KIMBERLY","ID",83341,NA,NA,438,"PO BOX 736, KIMBERLY, ID, 83341","No_Match",NA,NA,NA,NA
995439,"PO BOX 736","LAKE ELSINORE","CA",92531,NA,NA,439,"PO BOX 736, LAKE ELSINORE, CA, 92531","No_Match",NA,NA,NA,NA
995440,"PO BOX 736","LONG BEACH","WA",98631,NA,NA,440,"PO BOX 736, LONG BEACH, WA, 98631","No_Match",NA,NA,NA,NA
995441,"PO BOX 736","LOXAHATCHEE","FL",33470,NA,NA,441,"PO BOX 736, LOXAHATCHEE, FL, 33470","No_Match",NA,NA,NA,NA
995442,"PO BOX 736","PALERMO","CA",95968,NA,NA,442,"PO BOX 736, PALERMO, CA, 95968","No_Match",NA,NA,NA,NA
995443,"PO BOX 736","SUMMERVILLE","SC",29484,NA,NA,443,"PO BOX 736, SUMMERVILLE, SC, 29484","No_Match",NA,NA,NA,NA
995444,"PO BOX 736","WAYNESBORO","TN",38485,NA,NA,444,"PO BOX 736, WAYNESBORO, TN, 38485","No_Match",NA,NA,NA,NA
995445,"PO BOX 7363","BOISE","ID",83707,NA,NA,445,"PO BOX 7363, BOISE, ID, 83707","No_Match",NA,NA,NA,NA
995446,"PO BOX 7364","TEXARKANA","TX",75505,NA,NA,446,"PO BOX 7364, TEXARKANA, TX, 75505","No_Match",NA,NA,NA,NA
995447,"PO BOX 7365","BRECKENRIDGE","CO",80424,NA,NA,447,"PO BOX 7365, BRECKENRIDGE, CO, 80424","No_Match",NA,NA,NA,NA
995448,"PO BOX 7367","TAHOE CITY","CA",96145,NA,NA,448,"PO BOX 7367, TAHOE CITY, CA, 96145","No_Match",NA,NA,NA,NA
995449,"PO BOX 737","KEAAU","HI",96749,NA,NA,449,"PO BOX 737, KEAAU, HI, 96749","No_Match",NA,NA,NA,NA
995450,"PO BOX 737","LAKELAND","MN",55043,NA,NA,450,"PO BOX 737, LAKELAND, MN, 55043","No_Match",NA,NA,NA,NA
995451,"PO BOX 737","NEW MEADOWS","ID",83654,NA,NA,451,"PO BOX 737, NEW MEADOWS, ID, 83654","No_Match",NA,NA,NA,NA
995452,"PO BOX 737","NEWPORT","OR",97365,NA,NA,452,"PO BOX 737, NEWPORT, OR, 97365","No_Match",NA,NA,NA,NA
995453,"PO BOX 737","OPHIR","CO",81426,NA,NA,453,"PO BOX 737, OPHIR, CO, 81426","No_Match",NA,NA,NA,NA
995454,"PO BOX 737","STANTON","TX",79782,NA,NA,454,"PO BOX 737, STANTON, TX, 79782","No_Match",NA,NA,NA,NA
995455,"PO BOX 7372","BUNKERVILLE","NV",89007,NA,NA,455,"PO BOX 7372, BUNKERVILLE, NV, 89007","No_Match",NA,NA,NA,NA
995456,"PO BOX 7373","AVON","CO",81620,NA,NA,456,"PO BOX 7373, AVON, CO, 81620","No_Match",NA,NA,NA,NA
995457,"PO BOX 7374","PITTSBURGH","PA",15213,NA,NA,457,"PO BOX 7374, PITTSBURGH, PA, 15213","No_Match",NA,NA,NA,NA
995458,"PO BOX 7375","APPLETON","WI",54912,NA,NA,458,"PO BOX 7375, APPLETON, WI, 54912","No_Match",NA,NA,NA,NA
995459,"PO BOX 738","CAMAS","WA",98607,NA,NA,459,"PO BOX 738, CAMAS, WA, 98607","No_Match",NA,NA,NA,NA
995460,"PO BOX 738","HELENDALE","CA",92342,NA,NA,460,"PO BOX 738, HELENDALE, CA, 92342","No_Match",NA,NA,NA,NA
995461,"PO BOX 738","HIGHTSTOWN","NJ",8520,NA,NA,461,"PO BOX 738, HIGHTSTOWN, NJ, 8520","No_Match",NA,NA,NA,NA
995462,"PO BOX 738","MCCALL","ID",83638,NA,NA,462,"PO BOX 738, MCCALL, ID, 83638","No_Match",NA,NA,NA,NA
995463,"PO BOX 738","RIVERSIDE","TX",77367,NA,NA,463,"PO BOX 738, RIVERSIDE, TX, 77367","No_Match",NA,NA,NA,NA
995464,"PO BOX 738","SILVERTON","CO",81433,NA,NA,464,"PO BOX 738, SILVERTON, CO, 81433","No_Match",NA,NA,NA,NA
995465,"PO BOX 738","TROY","MT",59935,NA,NA,465,"PO BOX 738, TROY, MT, 59935","No_Match",NA,NA,NA,NA
995466,"PO BOX 738","YOAKUM","TX",77995,NA,NA,466,"PO BOX 738, YOAKUM, TX, 77995","No_Match",NA,NA,NA,NA
995467,"PO BOX 7380","YORK","PA",17404,NA,NA,467,"PO BOX 7380, YORK, PA, 17404","No_Match",NA,NA,NA,NA
995468,"PO BOX 7383","JACKSONVILLE","NC",28540,NA,NA,468,"PO BOX 7383, JACKSONVILLE, NC, 28540","No_Match",NA,NA,NA,NA
995469,"PO BOX 739","AUBURN","WA",98071,NA,NA,469,"PO BOX 739, AUBURN, WA, 98071","No_Match",NA,NA,NA,NA
995470,"PO BOX 739","CLEARLAKE","WA",98235,NA,NA,470,"PO BOX 739, CLEARLAKE, WA, 98235","No_Match",NA,NA,NA,NA
995471,"PO BOX 739","FOREST","VA",24551,NA,NA,471,"PO BOX 739, FOREST, VA, 24551","No_Match",NA,NA,NA,NA
995472,"PO BOX 739","LOVELOCK","NV",89419,NA,NA,472,"PO BOX 739, LOVELOCK, NV, 89419","No_Match",NA,NA,NA,NA
995473,"PO BOX 739","MILAN","TN",38358,NA,NA,473,"PO BOX 739, MILAN, TN, 38358","No_Match",NA,NA,NA,NA
995474,"PO BOX 7391","HELENA","MT",59604,NA,NA,474,"PO BOX 7391, HELENA, MT, 59604","No_Match",NA,NA,NA,NA
995475,"PO BOX 7396","REDLANDS","CA",92375,NA,NA,475,"PO BOX 7396, REDLANDS, CA, 92375","No_Match",NA,NA,NA,NA
995476,"PO BOX 7399","BRECKENRIDGE","CO",80424,NA,NA,476,"PO BOX 7399, BRECKENRIDGE, CO, 80424","No_Match",NA,NA,NA,NA
995477,"PO BOX 74","ABBOT","TX",76621,NA,NA,477,"PO BOX 74, ABBOT, TX, 76621","No_Match",NA,NA,NA,NA
995478,"PO BOX 74","ALLENWOOD","NJ",8720,NA,NA,478,"PO BOX 74, ALLENWOOD, NJ, 8720","No_Match",NA,NA,NA,NA
995479,"PO BOX 74","ARMSTRONG","IL",61812,NA,NA,479,"PO BOX 74, ARMSTRONG, IL, 61812","No_Match",NA,NA,NA,NA
995480,"PO BOX 74","BOLIGEE","AL",35433,NA,NA,480,"PO BOX 74, BOLIGEE, AL, 35433","No_Match",NA,NA,NA,NA
995481,"PO BOX 74","BURKBURNETT","TX",76354,NA,NA,481,"PO BOX 74, BURKBURNETT, TX, 76354","No_Match",NA,NA,NA,NA
995482,"PO BOX 74","CEDAR","MI",49621,NA,NA,482,"PO BOX 74, CEDAR, MI, 49621","No_Match",NA,NA,NA,NA
995483,"PO BOX 74","CLARENDON","NC",28432,NA,NA,483,"PO BOX 74, CLARENDON, NC, 28432","No_Match",NA,NA,NA,NA
995484,"PO BOX 74","CLARKSBURG","CA",95612,NA,NA,484,"PO BOX 74, CLARKSBURG, CA, 95612","No_Match",NA,NA,NA,NA
995485,"PO BOX 74","COLD SPRING","NY",10516,NA,NA,485,"PO BOX 74, COLD SPRING, NY, 10516","No_Match",NA,NA,NA,NA
995486,"PO BOX 74","COLMESNEIL","TX",75938,NA,NA,486,"PO BOX 74, COLMESNEIL, TX, 75938","No_Match",NA,NA,NA,NA
995487,"PO BOX 74","CULLOWHEE","NC",28723,NA,NA,487,"PO BOX 74, CULLOWHEE, NC, 28723","No_Match",NA,NA,NA,NA
995488,"PO BOX 74","DEANVILLE","TX",77852,NA,NA,488,"PO BOX 74, DEANVILLE, TX, 77852","No_Match",NA,NA,NA,NA
995489,"PO BOX 74","DENMARK","IA",52624,NA,NA,489,"PO BOX 74, DENMARK, IA, 52624","No_Match",NA,NA,NA,NA
995490,"PO BOX 74","EDGEMONT","SD",57735,NA,NA,490,"PO BOX 74, EDGEMONT, SD, 57735","No_Match",NA,NA,NA,NA
995491,"PO BOX 74","HOOLEHUA","HI",96729,NA,NA,491,"PO BOX 74, HOOLEHUA, HI, 96729","No_Match",NA,NA,NA,NA
995492,"PO BOX 74","INKSTER","MI",48141,NA,NA,492,"PO BOX 74, INKSTER, MI, 48141","No_Match",NA,NA,NA,NA
995493,"PO BOX 74","KINGMAN","IN",47952,NA,NA,493,"PO BOX 74, KINGMAN, IN, 47952","No_Match",NA,NA,NA,NA
995494,"PO BOX 74","MAYER","AZ",86333,NA,NA,494,"PO BOX 74, MAYER, AZ, 86333","No_Match",NA,NA,NA,NA
995495,"PO BOX 74","NEW PORT RICHEY","FL",34656,NA,NA,495,"PO BOX 74, NEW PORT RICHEY, FL, 34656","No_Match",NA,NA,NA,NA
995496,"PO BOX 74","NOCONA","TX",76255,NA,NA,496,"PO BOX 74, NOCONA, TX, 76255","No_Match",NA,NA,NA,NA
995497,"PO BOX 74","NORTH HUDSON","NY",12855,NA,NA,497,"PO BOX 74, NORTH HUDSON, NY, 12855","No_Match",NA,NA,NA,NA
995498,"PO BOX 74","PEGGS","OK",74452,NA,NA,498,"PO BOX 74, PEGGS, OK, 74452","No_Match",NA,NA,NA,NA
995499,"PO BOX 74","PINEVILLE","AR",72566,NA,NA,499,"PO BOX 74, PINEVILLE, AR, 72566","No_Match",NA,NA,NA,NA
995500,"PO BOX 74","RADOM","IL",62876,NA,NA,500,"PO BOX 74, RADOM, IL, 62876","No_Match",NA,NA,NA,NA
