"ID","Address","City","State","Zip","lat","long","id","input_address","match_indicator","match_type","matched_address","tiger_line_id","tiger_side"
604501,"4115 BEAU CHIEN DRIVE","LAKE CHARLES","LA",70605,NA,NA,1,"4115 BEAU CHIEN DRIVE, LAKE CHARLES, LA, 70605","No_Match",NA,NA,NA,NA
604502,"4115 BOTANY","HOUSTON","TX",77047,29.6345556950001,-95.3627941519999,2,"4115 BOTANY, HOUSTON, TX, 77047","Match","Non_Exact","4115 BOTANY LN, HOUSTON, TX, 77047",96090255,"L"
604503,"4115 BRIDGEPORT WAY W SUITE B","UNIVERSITY PLACE","WA",98466,47.2194617280001,-122.537107103,3,"4115 BRIDGEPORT WAY W SUITE B, UNIVERSITY PLACE, WA, 98466","Match","Exact","4115 BRIDGEPORT WAY W, UNIVERSITY PLACE, WA, 98466",184711302,"L"
604504,"4115 BRUSH CHERRY DRIVE","MEDINA","OH",44256,41.107570326,-81.8355731199999,4,"4115 BRUSH CHERRY DRIVE, MEDINA, OH, 44256","Match","Exact","4115 BRUSH CHERRY DR, MEDINA, OH, 44256",651469302,"L"
604505,"4115 CAMPBELL ST","KANSAS CITY","MO",64110,39.052230443,-94.574688102,5,"4115 CAMPBELL ST, KANSAS CITY, MO, 64110","Match","Exact","4115 CAMPBELL ST, KANSAS CITY, MO, 64110",91447889,"L"
604506,"4115 CAPE COLE BOULEVARD","PUNTA GORDA","FL",33955,26.7663821140001,-82.048130253,6,"4115 CAPE COLE BOULEVARD, PUNTA GORDA, FL, 33955","Match","Exact","4115 CAPE COLE BLVD, PUNTA GORDA, FL, 33955",610497974,"L"
604507,"4115 CHATSWORTH DRIVE","MASON","OH",45040,39.376376839,-84.265247529,7,"4115 CHATSWORTH DRIVE, MASON, OH, 45040","Match","Exact","4115 CHATSWORTH DR, MASON, OH, 45040",649215123,"R"
604508,"4115 CHERRYBROOK DRIVE","CHARLOTTE","NC",28227,35.1888311220001,-80.639546303,8,"4115 CHERRYBROOK DRIVE, CHARLOTTE, NC, 28227","Match","Exact","4115 CHERRYBROOK DR, CHARLOTTE, NC, 28227",70532923,"R"
604509,"4115 COLUMBIA RD STE 5 PMB 318","MARTINEZ","GA",30907,33.508076133,-82.108841739,9,"4115 COLUMBIA RD STE 5 PMB 318, MARTINEZ, GA, 30907","Match","Exact","4115 COLUMBIA RD, MARTINEZ, GA, 30907",641051326,"R"
604510,"4115 COLUMBIA RD STE 5-304","MARTINEZ","GA",30909,33.508076133,-82.108841739,10,"4115 COLUMBIA RD STE 5-304, MARTINEZ, GA, 30909","Match","Non_Exact","4115 COLUMBIA RD, MARTINEZ, GA, 30907",641051326,"R"
604511,"4115 COLUMBIA ROAD","MARTINEZ","GA",30907,33.508076133,-82.108841739,11,"4115 COLUMBIA ROAD, MARTINEZ, GA, 30907","Match","Exact","4115 COLUMBIA RD, MARTINEZ, GA, 30907",641051326,"R"
604512,"4115 COPPER LEAF LN","CUMMING","GA",30040,34.265485658,-84.1278149089999,12,"4115 COPPER LEAF LN, CUMMING, GA, 30040","Match","Exact","4115 COPPER LEAF LN, CUMMING, GA, 30040",627546868,"L"
604513,"4115 COUNTRY TRAILS STREET","ALVIN","TX",77511,29.3833912000001,-95.217984209,13,"4115 COUNTRY TRAILS STREET, ALVIN, TX, 77511","Match","Exact","4115 COUNTRY TRAILS ST, ALVIN, TX, 77511",116594249,"R"
604514,"4115 COUNTY RD 18","CANANDIAGUA","NY",14424,42.8414722530001,-77.2248282159999,14,"4115 COUNTY RD 18, CANANDIAGUA, NY, 14424","Match","Non_Exact","4115 CO RD 18, CANANDAIGUA, NY, 14424",13477385,"L"
604515,"4115 DELANO PL STE 3","DALLAS","TX",75204,32.80195072,-96.78572653,15,"4115 DELANO PL STE 3, DALLAS, TX, 75204","Match","Exact","4115 DELANO PL, DALLAS, TX, 75204",102910753,"L"
604516,"4115 DORSET DRIVE","ROCKFORD","IL",61114,42.3003890950001,-89.035151019,16,"4115 DORSET DRIVE, ROCKFORD, IL, 61114","Match","Exact","4115 DORSET DR, ROCKFORD, IL, 61114",49291114,"L"
604517,"4115 DOUBLE CREEK CROSSING","CHARLOTTE","NC",28269,35.3314697600001,-80.802540573,17,"4115 DOUBLE CREEK CROSSING, CHARLOTTE, NC, 28269","Match","Non_Exact","4115 DOUBLE CREEK CROSSING DR, CHARLOTTE, NC, 28269",647266339,"L"
604518,"4115 DREXEL BLVD","CHICAGO","IL",60653,41.8196874710001,-87.60436519,18,"4115 DREXEL BLVD, CHICAGO, IL, 60653","Match","Non_Exact","4115 S DREXEL BLVD, CHICAGO, IL, 60653",111770822,"L"
604519,"4115 E CLOCKTOWER LN 244","MERIDIAN","ID",83642,43.6008705030001,-116.343155896,19,"4115 E CLOCKTOWER LN 244, MERIDIAN, ID, 83642","Match","Non_Exact","4115 E CLOCKTOWER LN, MERIDIAN, ID, 83642",616371870,"R"
604520,"4115 E COUNTY RD 462","WILDWOOD","FL",34785,28.8836011330001,-82.0359093289999,20,"4115 E COUNTY RD 462, WILDWOOD, FL, 34785","Match","Exact","4115 E CO RD 462, WILDWOOD, FL, 34785",618383603,"L"
604521,"4115 ENFIELD AVE","SKOKIE","IL",60076,42.0416650860001,-87.730656052,21,"4115 ENFIELD AVE, SKOKIE, IL, 60076","Match","Exact","4115 ENFIELD AVE, SKOKIE, IL, 60076",111740085,"L"
604522,"4115 EVERETT ROAD","MOBILE","AL",36613,30.7569784020001,-88.132342432,22,"4115 EVERETT ROAD, MOBILE, AL, 36613","Match","Exact","4115 EVERETT RD, MOBILE, AL, 36613",61959069,"L"
604523,"4115 FORTITUDE COURT","FLORISSANT","MO",63034,38.831073879,-90.292354512,23,"4115 FORTITUDE COURT, FLORISSANT, MO, 63034","Match","Exact","4115 FORTITUDE CT, FLORISSANT, MO, 63034",100183575,"L"
604524,"4115 HALCYON DRIVE","HUNTERSVILLE","NC",28078,35.413116035,-80.900979437,24,"4115 HALCYON DRIVE, HUNTERSVILLE, NC, 28078","Match","Exact","4115 HALCYON DR, HUNTERSVILLE, NC, 28078",641594573,"L"
604525,"4115 HARRIS ROAD","SANDUSKY","OH",44870,41.3406094490001,-82.744485862,25,"4115 HARRIS ROAD, SANDUSKY, OH, 44870","Match","Exact","4115 HARRIS RD, SANDUSKY, OH, 44870",55343415,"L"
604526,"4115 HENRY STREET","SHREVEPORT","LA",71109,32.4643431270001,-93.806474902,26,"4115 HENRY STREET, SHREVEPORT, LA, 71109","Match","Exact","4115 HENRY ST, SHREVEPORT, LA, 71109",57431350,"L"
604527,"4115 HIDDEN MEADOWS","ARNOLD","MO",63010,38.436337339,-90.439467421,27,"4115 HIDDEN MEADOWS, ARNOLD, MO, 63010","Match","Non_Exact","4115 HIDDEN MEADOWS DR, ARNOLD, MO, 63010",607919944,"R"
604528,"4115 HIGHKNOLL LANE","SEABROOK","TX",77586,29.5746539140001,-95.0647425079999,28,"4115 HIGHKNOLL LANE, SEABROOK, TX, 77586","Match","Exact","4115 HIGHKNOLL LN, SEABROOK, TX, 77586",96546012,"L"
604529,"4115 HUMMINGBIRD WAY","MT SHASTA","CA",96067,41.3500789710001,-122.371546737,29,"4115 HUMMINGBIRD WAY, MT SHASTA, CA, 96067","Match","Exact","4115 HUMMINGBIRD WAY, MOUNT SHASTA, CA, 96067",113331309,"R"
604530,"4115 JETTY TERRACE CIRCLE","MISSOURI CITY","TX",77459,29.593611676,-95.56853232,30,"4115 JETTY TERRACE CIRCLE, MISSOURI CITY, TX, 77459","Match","Exact","4115 JETTY TERRACE CIR, MISSOURI CITY, TX, 77459",78290731,"R"
604531,"4115 JOSLYN CT","COLUMBIA","MO",65203,38.9464153010001,-92.3959053029999,31,"4115 JOSLYN CT, COLUMBIA, MO, 65203","Match","Exact","4115 JOSLYN CT, COLUMBIA, MO, 65203",604986489,"L"
604532,"4115 KY HWY 643","WAYNESBURG","KY",40489,37.4233008250001,-84.593877536,32,"4115 KY HWY 643, WAYNESBURG, KY, 40489","Match","Non_Exact","4115 STATE HWY 643, WAYNESBURG, KY, 40489",32559514,"L"
604533,"4115 LARKSPUR LN","CHARLOTTE","NC",28205,35.2181856120001,-80.760073215,33,"4115 LARKSPUR LN, CHARLOTTE, NC, 28205","Match","Exact","4115 LARKSPUR LN, CHARLOTTE, NC, 28205",70579301,"L"
604534,"4115 LENOX PARK CIRCLE NE","BROOKHAVEN","GA",30319,33.8470105700001,-84.347733927,34,"4115 LENOX PARK CIRCLE NE, BROOKHAVEN, GA, 30319","Match","Exact","4115 LENOX PARK CIR NE, BROOKHAVEN, GA, 30319",23406086,"R"
604535,"4115 LEWIS AVE","TOLEDO","OH",43612,41.6939289370001,-83.565437602,35,"4115 LEWIS AVE, TOLEDO, OH, 43612","Match","Exact","4115 LEWIS AVE, TOLEDO, OH, 43612",33934341,"L"
604536,"4115 LOUETTA RD APT 4112","SPRING","TX",77388,30.0474740970001,-95.475573303,36,"4115 LOUETTA RD APT 4112, SPRING, TX, 77388","Match","Exact","4115 LOUETTA RD, SPRING, TX, 77388",642113484,"L"
604537,"4115 MALLORY LN","FRANKLIN","TN",37067,35.930020541,-86.8242988009999,37,"4115 MALLORY LN, FRANKLIN, TN, 37067","Match","Exact","4115 MALLORY LN, FRANKLIN, TN, 37067",607908566,"L"
604538,"4115 MARTHA AVENUE","LOUISVILLE","KY",40220,38.2175568640001,-85.617857693,38,"4115 MARTHA AVENUE, LOUISVILLE, KY, 40220","Match","Exact","4115 MARTHA AVE, LOUISVILLE, KY, 40220",639482071,"L"
604539,"4115 MATTSON RD","HIBBING","MN",55746,47.4121262560001,-92.8807413759999,39,"4115 MATTSON RD, HIBBING, MN, 55746","Match","Exact","4115 MATTSON RD, HIBBING, MN, 55746",163167681,"L"
604540,"4115 MCPHERSON AVE APT 107","SAINT LOUIS","MO",63108,38.64169586,-90.245652459,40,"4115 MCPHERSON AVE APT 107, SAINT LOUIS, MO, 63108","Match","Exact","4115 MCPHERSON AVE, SAINT LOUIS, MO, 63108",107596902,"R"
604541,"4115 MELROSE AVE","ERIE","PA",16509,42.0889891950001,-80.09357303,41,"4115 MELROSE AVE, ERIE, PA, 16509","Match","Exact","4115 MELROSE AVE, ERIE, PA, 16509",117494778,"L"
604542,"4115 MILES JOHNSON PKWY","SPRING HILL","TN",37174,35.770948823,-86.930216265,42,"4115 MILES JOHNSON PKWY, SPRING HILL, TN, 37174","Match","Exact","4115 MILES JOHNSON PKWY, SPRING HILL, TN, 37174",643550850,"R"
604543,"4115 MOHICAN-PRESCOT CROSSOVER 710","BATON ROUGE","LA",70805,30.4855933790001,-91.148549239,43,"4115 MOHICAN-PRESCOT CROSSOVER 710, BATON ROUGE, LA, 70805","Match","Non_Exact","4115 MOHICAN-PRESCOTT CROSSOVER, BATON ROUGE, LA, 70805",606187039,"L"
604544,"4115 MONTEITH DRIVE","LOS ANGELES","CA",90043,33.999885755,-118.347463291,44,"4115 MONTEITH DRIVE, LOS ANGELES, CA, 90043","Match","Exact","4115 MONTEITH DR, LOS ANGELES, CA, 90043",142729120,"R"
604545,"4115 N 22ND STREET","OMAHA","NE",68111,NA,NA,45,"4115 N 22ND STREET, OMAHA, NE, 68111","No_Match",NA,NA,NA,NA
604546,"4115 NE 106TH AVENUE","VANCOUVER","WA",98682,45.6519906180001,-122.5634063,46,"4115 NE 106TH AVENUE, VANCOUVER, WA, 98682","Match","Exact","4115 NE 106TH AVE, VANCOUVER, WA, 98682",158328752,"R"
604547,"4115 NEW HWY 96 W","FRANKLIN","TN",37069,NA,NA,47,"4115 NEW HWY 96 W, FRANKLIN, TN, 37069","No_Match",NA,NA,NA,NA
604548,"4115 NIA DR","IRVING","TX",75038,32.8596851780001,-96.981848149,48,"4115 NIA DR, IRVING, TX, 75038","Match","Exact","4115 NIA DR, IRVING, TX, 75038",637598510,"L"
604549,"4115 NW 191ST TERRACE","MIAMI GARDENS","FL",33055,25.948050111,-80.268872615,49,"4115 NW 191ST TERRACE, MIAMI GARDENS, FL, 33055","Match","Exact","4115 NW 191ST TER, MIAMI GARDENS, FL, 33055",116026821,"R"
604550,"4115 NW 24TH WAY","BOCA RATON","FL",33431,26.3879561260001,-80.133948851,50,"4115 NW 24TH WAY, BOCA RATON, FL, 33431","Match","Exact","4115 NW 24TH WAY, BOCA RATON, FL, 33431",115317477,"R"
604551,"4115 OXFORD CROSSING","DECATUR","GA",30034,33.700328579,-84.220636214,51,"4115 OXFORD CROSSING, DECATUR, GA, 30034","Match","Non_Exact","4115 OXFORD CROSSING DR, DECATUR, GA, 30034",23395537,"L"
604552,"4115 PAIGE CT","ROCKLIN","CA",95677,38.7842886230001,-121.233350028,52,"4115 PAIGE CT, ROCKLIN, CA, 95677","Match","Exact","4115 PAIGE CT, ROCKLIN, CA, 95677",106769608,"L"
604553,"4115 PERRY ST","DENVER","CO",80212,39.7727240070001,-105.039319956,53,"4115 PERRY ST, DENVER, CO, 80212","Match","Exact","4115 PERRY ST, DENVER, CO, 80212",177299716,"L"
604554,"4115 POSTGATE TERR APT 202","SILVER SPRING","MD",20906,39.087959762,-77.0790442759999,54,"4115 POSTGATE TERR APT 202, SILVER SPRING, MD, 20906","Match","Exact","4115 POSTGATE TER, SILVER SPRING, MD, 20906",643908592,"L"
604555,"4115 PUMPKIN PLACE","MONROE","NC",28110,35.047719081,-80.59119545,55,"4115 PUMPKIN PLACE, MONROE, NC, 28110","Match","Exact","4115 PUMPKIN PL, MONROE, NC, 28110",634087346,"L"
604556,"4115 RIVERGLEN CIRCLE","SUWANEE","GA",30024,34.0362258230001,-84.111671713,56,"4115 RIVERGLEN CIRCLE, SUWANEE, GA, 30024","Match","Exact","4115 RIVERGLEN CIR, SUWANEE, GA, 30024",632655097,"L"
604557,"4115 ROSEWOOD TERRACE","EAST STROUDSBURG","PA",18301,41.0306620330001,-75.240395028,57,"4115 ROSEWOOD TERRACE, EAST STROUDSBURG, PA, 18301","Match","Exact","4115 ROSEWOOD TER, E STROUDSBURG, PA, 18301",136777074,"R"
604558,"4115 RUSH CIRCLE","ADDISON","TX",75001,32.9475763200001,-96.84314783,58,"4115 RUSH CIRCLE, ADDISON, TX, 75001","Match","Exact","4115 RUSH CIR, ADDISON, TX, 75001",102897861,"L"
604559,"4115 S 139TH ST","TUKWILA","WA",98168,47.4788110970001,-122.282367581,59,"4115 S 139TH ST, TUKWILA, WA, 98168","Match","Exact","4115 S 139TH ST, TUKWILA, WA, 98168",186627006,"R"
604560,"4115 S GRANBY CIRCLE","AURORA","CO",80014,39.6415289010001,-104.811871061,60,"4115 S GRANBY CIRCLE, AURORA, CO, 80014","Match","Exact","4115 S GRANBY CIR, AURORA, CO, 80014",177548134,"L"
604561,"4115 S LAUREL GROVE RD","DOUGLASVILLE","GA",30135,33.6666036410001,-84.710095127,61,"4115 S LAUREL GROVE RD, DOUGLASVILLE, GA, 30135","Match","Exact","4115 S LAUREL GROVE RD, DOUGLASVILLE, GA, 30135",618477489,"R"
604562,"4115 S RIVER BASIN AVE","BOISE","ID",83716,43.5643812480001,-116.106717767,62,"4115 S RIVER BASIN AVE, BOISE, ID, 83716","Match","Exact","4115 S RIVER BASIN AVE, BOISE, ID, 83716",641555066,"L"
604563,"4115 SE 86 PLACE","MOORE","OK",73160,NA,NA,63,"4115 SE 86 PLACE, MOORE, OK, 73160","No_Match",NA,NA,NA,NA
604564,"4115 SE OLD HWY 13","COLLINS","MO",64738,37.9578961340001,-93.64399041,64,"4115 SE OLD HWY 13, COLLINS, MO, 64738","Match","Exact","4115 OLD HWY 13, COLLINS, MO, 64738",23156610,"R"
604565,"4115 SHADY VILLA","LOUISVILLE","KY",40219,38.1627216150001,-85.6853900579999,65,"4115 SHADY VILLA, LOUISVILLE, KY, 40219","Match","Non_Exact","4115 SHADY VILLA DR, LOUISVILLE, KY, 40219",96858387,"L"
604566,"4115 SIDNEY DR","FRISCO","TX",75033,33.1583774630001,-96.852444427,66,"4115 SIDNEY DR, FRISCO, TX, 75033","Match","Non_Exact","4115 SYDNEY DR, FRISCO, TX, 75033",641535916,"L"
604567,"4115 SKYHAWK LN","VACAVILLE","CA",95687,38.445480676,-121.998230592,67,"4115 SKYHAWK LN, VACAVILLE, CA, 95687","Match","Non_Exact","4115 SKYHAWK LN, VACAVILLE, CA, 95688",192584392,"R"
604568,"4115 SOUTH AURORA VIEW CIRCLE","PALMER","AK",99645,61.535235082,-148.991042108,68,"4115 SOUTH AURORA VIEW CIRCLE, PALMER, AK, 99645","Match","Exact","4115 S AURORA VIEW CIR, PALMER, AK, 99645",634194408,"L"
604569,"4115 SOUTH LAUREL GROVE RD","DOUGLASVILLE","GA",30135,33.6666036410001,-84.7100853169999,69,"4115 SOUTH LAUREL GROVE RD, DOUGLASVILLE, GA, 30135","Match","Exact","4115 S LAUREL GROVE RD, DOUGLASVILLE, GA, 30135",618477489,"R"
604570,"4115 SOUTH LEE STREET APT 21","BUFORD","GA",30518,34.093846016,-83.999141421,70,"4115 SOUTH LEE STREET APT 21, BUFORD, GA, 30518","Match","Exact","4115 S LEE ST, BUFORD, GA, 30518",636426708,"L"
604571,"4115 SOUTH NINE MILE ROAD","ALLEGANEY","NY",14706,42.0982150410001,-78.5269942039999,71,"4115 SOUTH NINE MILE ROAD, ALLEGANEY, NY, 14706","Match","Non_Exact","4115 S NINE MILE RD, ALLEGANY, NY, 14706",122037421,"L"
604572,"4115 STILLWELL PLACE","OAK LAWN","IL",60453,41.696623247,-87.723600824,72,"4115 STILLWELL PLACE, OAK LAWN, IL, 60453","Match","Exact","4115 STILLWELL PL, OAK LAWN, IL, 60453",111819017,"L"
604573,"4115 SUE LANE","PANAMA CITY","FL",32404,30.1474026170001,-85.603530275,73,"4115 SUE LANE, PANAMA CITY, FL, 32404","Match","Exact","4115 SUE LN, PANAMA CITY, FL, 32404",7032024,"L"
604574,"4115 SYKESVILLE RD","FINKSBURG","MD",21048,39.461409921,-76.932446826,74,"4115 SYKESVILLE RD, FINKSBURG, MD, 21048","Match","Exact","4115 SYKESVILLE RD, FINKSBURG, MD, 21048",614255260,"L"
604575,"4115 TEXAS AVE","GRAND ISLAND","NE",68803,40.9519919960001,-98.403705905,75,"4115 TEXAS AVE, GRAND ISLAND, NE, 68803","Match","Exact","4115 TEXAS AVE, GRAND ISLAND, NE, 68803",624467698,"L"
604576,"4115 W 101 STREET","INGLEWOOD","CA",90304,33.944551475,-118.34637761,76,"4115 W 101 STREET, INGLEWOOD, CA, 90304","Match","Exact","4115 W 101ST ST, INGLEWOOD, CA, 90304",141656837,"R"
604577,"4115 W 74TH AVE","MERRILLVILLE","IN",46410,41.483962633,-87.3875096209999,77,"4115 W 74TH AVE, MERRILLVILLE, IN, 46410","Match","Exact","4115 W 74TH AVE, MERRILLVILLE, IN, 46410",98441023,"R"
604578,"4115 W AERIE DR NUMBER 95","TUCSON","AZ",85741,32.334739395,-111.049166294,78,"4115 W AERIE DR NUMBER 95, TUCSON, AZ, 85741","Match","Non_Exact","4115 W AERIE DR, TUCSON, AZ, 85741",633506934,"L"
604579,"4115 W48TH ST","CLEVELAND","OH",44144,NA,NA,79,"4115 W48TH ST, CLEVELAND, OH, 44144","No_Match",NA,NA,NA,NA
604580,"4115 WASHINGTON","SAINT LOUIS","MO",63108,38.644710235,-90.243655444,80,"4115 WASHINGTON, SAINT LOUIS, MO, 63108","Match","Non_Exact","4115 WASHINGTON AVE, SAINT LOUIS, MO, 63108",107596873,"R"
604581,"4115 WEST 101 STREET","INGLEWOOD","CA",90304,33.944551543,-118.346356262,81,"4115 WEST 101 STREET, INGLEWOOD, CA, 90304","Match","Exact","4115 W 101ST ST, INGLEWOOD, CA, 90304",141656837,"R"
604582,"4115 WEST CENTURY BLVD APT1","INGLEWOOD","CA",90304,33.9454669560001,-118.346952612,82,"4115 WEST CENTURY BLVD APT1, INGLEWOOD, CA, 90304","Match","Exact","4115 W CENTURY BLVD, INGLEWOOD, CA, 90304",141656834,"R"
604583,"4115 WEST SPRUCE STREET","TAMPA","FL",33607,27.9595001370001,-82.512213555,83,"4115 WEST SPRUCE STREET, TAMPA, FL, 33607","Match","Exact","4115 W SPRUCE ST, TAMPA, FL, 33607",104582846,"R"
604584,"4115 WHEAT HARVEST LANE","KATY","TX",77494,29.722984941,-95.834027086,84,"4115 WHEAT HARVEST LANE, KATY, TX, 77494","Match","Exact","4115 WHEAT HARVEST LN, KATY, TX, 77494",641051991,"L"
604585,"4115 WHITING DR SE","ST PETERSBURG","FL",33705,27.7320859590001,-82.629488308,85,"4115 WHITING DR SE, ST PETERSBURG, FL, 33705","Match","Exact","4115 WHITING DR SE, SAINT PETERSBURG, FL, 33705",124713998,"R"
604586,"4115 WINDING OAKS TRAIL","LEWISVILLE","NC",27023,36.068042142,-80.4978215249999,86,"4115 WINDING OAKS TRAIL, LEWISVILLE, NC, 27023","Match","Exact","4115 WINDING OAKS TRL, LEWISVILLE, NC, 27023",84691161,"L"
604587,"41150 CROOKED STICK DR","TEMECULA","CA",92591,33.522964814,-117.114477614,87,"41150 CROOKED STICK DR, TEMECULA, CA, 92591","Match","Exact","41150 CROOKED STICK DR, TEMECULA, CA, 92591",195081245,"L"
604588,"41150 TOWN CENTER WAY STE B5","PALM DESERT","CA",92260,NA,NA,88,"41150 TOWN CENTER WAY STE B5, PALM DESERT, CA, 92260","No_Match",NA,NA,NA,NA
604589,"41151 COLONIAL DRIVE","SORRENTO","LA",70778,30.156753205,-90.915817977,89,"41151 COLONIAL DRIVE, SORRENTO, LA, 70778","Match","Exact","41151 COLONIAL DR, SORRENTO, LA, 70778",628466809,"R"
604590,"41151 NORTH HOOVER ROAD","PONCHATOULA","LA",70454,30.4526655450001,-90.414101223,90,"41151 NORTH HOOVER ROAD, PONCHATOULA, LA, 70454","Match","Exact","41151 N HOOVER RD, PONCHATOULA, LA, 70454",651749183,"L"
604591,"41153 NESTLEWOOD RD","LEESBURG","VA",20176,39.149896074,-77.578681451,91,"41153 NESTLEWOOD RD, LEESBURG, VA, 20176","Match","Exact","41153 NESTLEWOOD RD, LEESBURG, VA, 20176",62348843,"R"
604592,"41154 CARMEL ROAD","PALMDALE","CA",93551,34.6295442590001,-118.23541838,92,"41154 CARMEL ROAD, PALMDALE, CA, 93551","Match","Exact","41154 CARMEL RD, PALMDALE, CA, 93551",141782179,"L"
604593,"41154 MANCHESTER ST","INDIO","CA",92203,33.749979035,-116.224732074,93,"41154 MANCHESTER ST, INDIO, CA, 92203","Match","Exact","41154 MANCHESTER ST, INDIO, CA, 92203",608979276,"L"
604594,"41154 PINE DR","FOREST FALLS","CA",92339,34.0851081960001,-116.907020622,94,"41154 PINE DR, FOREST FALLS, CA, 92339","Match","Exact","41154 PINE DR, FOREST FALLS, CA, 92339",145192493,"L"
604595,"41157 390TH STREET SE","FOSSTON","MN",56542,NA,NA,95,"41157 390TH STREET SE, FOSSTON, MN, 56542","No_Match",NA,NA,NA,NA
604596,"41158 ELLEN COURT","FREMONT","CA",94538,37.5300733990001,-121.969185663,96,"41158 ELLEN COURT, FREMONT, CA, 94538","Match","Exact","41158 ELLEN CT, FREMONT, CA, 94538",125030653,"L"
604597,"41158 W PARKHILL DR","MARICOPA","AZ",85138,33.0786466640001,-112.003009769,97,"41158 W PARKHILL DR, MARICOPA, AZ, 85138","Match","Exact","41158 PARKHILL DR, MARICOPA, AZ, 85138",624983106,"R"
604598,"4116 180TH PL SE","BOTHELL","WA",98012,47.8340574440001,-122.177199201,98,"4116 180TH PL SE, BOTHELL, WA, 98012","Match","Exact","4116 180TH PL SE, BOTHELL, WA, 98012",648622722,"R"
604599,"4116 236TH ST SW Q306","MOUNTLAKE TERRANCE","WA",98409,NA,NA,99,"4116 236TH ST SW Q306, MOUNTLAKE TERRANCE, WA, 98409","No_Match",NA,NA,NA,NA
604600,"4116 30TH ST","MT RANIER","MD",20712,38.9398937650001,-76.965810716,100,"4116 30TH ST, MT RANIER, MD, 20712","Match","Non_Exact","4116 30TH ST, MOUNT RAINIER, MD, 20712",76304504,"L"
604601,"4116 4TH AVE","SACRAMENTO","CA",95817,38.5482735690001,-121.459093829,101,"4116 4TH AVE, SACRAMENTO, CA, 95817","Match","Exact","4116 4TH AVE, SACRAMENTO, CA, 95817",133327131,"R"
604602,"4116 94TH AVE SE","MERCER ISLAND","WA",98040,47.5723920450001,-122.214089582,102,"4116 94TH AVE SE, MERCER ISLAND, WA, 98040","Match","Exact","4116 94TH AVE SE, MERCER ISLAND, WA, 98040",186607704,"L"
604603,"4116 ARBOR AVE","CELINA","TX",75009,33.2691622680001,-96.80771163,103,"4116 ARBOR AVE, CELINA, TX, 75009","Match","Exact","4116 ARBOR AVE, CELINA, TX, 75009",646663448,"R"
604604,"4116 ARROWHEAD LN","GRANBURY","TX",76049,32.416424975,-97.721471666,104,"4116 ARROWHEAD LN, GRANBURY, TX, 76049","Match","Exact","4116 ARROWHEAD LN, GRANBURY, TX, 76049",158791543,"L"
604605,"4116 AYODHYA WAY","IJAMSVILLE","MD",21754,39.344171509,-77.28969761,105,"4116 AYODHYA WAY, IJAMSVILLE, MD, 21754","Match","Exact","4116 AYODHYA WAY, IJAMSVILLE, MD, 21754",60734048,"L"
604606,"4116 BEACHCRAFT COURT","TEMPLE HILLS","MD",20748,38.802312515,-76.937091943,106,"4116 BEACHCRAFT COURT, TEMPLE HILLS, MD, 20748","Match","Exact","4116 BEACHCRAFT CT, TEMPLE HILLS, MD, 20748",76316506,"L"
604607,"4116 BEECLIF DRIVE","COLUMBIA","SC",29250,33.986687513,-80.982034888,107,"4116 BEECLIF DRIVE, COLUMBIA, SC, 29250","Match","Non_Exact","4116 BEECLIFF DR, COLUMBIA, SC, 29205",622256790,"R"
604608,"4116 BOSENBERRY WAY","ELLENWOOD","GA",30294,33.6589199840001,-84.236999084,108,"4116 BOSENBERRY WAY, ELLENWOOD, GA, 30294","Match","Exact","4116 BOSENBERRY WAY, ELLENWOOD, GA, 30294",632070561,"R"
604609,"4116 BURNHAM AVE","TOLEDO","OH",43612,41.6942594700001,-83.559054082,109,"4116 BURNHAM AVE, TOLEDO, OH, 43612","Match","Exact","4116 BURNHAM AVE, TOLEDO, OH, 43612",33934417,"R"
604610,"4116 C STREET","SACRAMENTO","CA",95819,38.576077362,-121.447549955,110,"4116 C STREET, SACRAMENTO, CA, 95819","Match","Exact","4116 C ST, SACRAMENTO, CA, 95819",133325481,"R"
604611,"4116 CANDOR AVE","LOUISVILLE","KY",40216,38.18912314,-85.816376613,111,"4116 CANDOR AVE, LOUISVILLE, KY, 40216","Match","Exact","4116 CANDOR AVE, LOUISVILLE, KY, 40216",96893361,"R"
604612,"4116 CREEKWOOD CT","PLEASANTON","CA",94588,37.6698219150001,-121.918355928,112,"4116 CREEKWOOD CT, PLEASANTON, CA, 94588","Match","Exact","4116 CREEKWOOD CT, PLEASANTON, CA, 94588",125031571,"L"
604613,"4116 DEER CROSS WAY","SACRAMENTO","CA",95823,38.469029085,-121.458765146,113,"4116 DEER CROSS WAY, SACRAMENTO, CA, 95823","Match","Exact","4116 DEER CROSS WAY, SACRAMENTO, CA, 95823",133389315,"L"
604614,"4116 DESOTO AV","FORT MYERS","FL",33901,26.6622054600001,-81.830048731,114,"4116 DESOTO AV, FORT MYERS, FL, 33901","Match","Non_Exact","4116 DESOTO AVE, FORT MYERS, FL, 33916",118022547,"R"
604615,"4116 DUNES DRIVE","EVANS","GA",30809,33.538787991,-82.0989192599999,115,"4116 DUNES DRIVE, EVANS, GA, 30809","Match","Exact","4116 DUNES DR, EVANS, GA, 30809",55386888,"R"
604616,"4116 DUTCHER RD","GLADWIN","MI",48624,44.1039535730001,-84.532150579,116,"4116 DUTCHER RD, GLADWIN, MI, 48624","Match","Exact","4116 DUTCHER RD, GLADWIN, MI, 48624",110429252,"R"
604617,"4116 E 144TH ST","CLEVELAND","OH",44128,41.447288529,-81.580751385,117,"4116 E 144TH ST, CLEVELAND, OH, 44128","Match","Exact","4116 E 144TH ST, CLEVELAND, OH, 44128",61127267,"R"
604618,"4116 E 144TH","CLEVELAND","OH",44128,41.447288529,-81.580751385,118,"4116 E 144TH, CLEVELAND, OH, 44128","Match","Non_Exact","4116 E 144TH ST, CLEVELAND, OH, 44128",61127267,"R"
604619,"4116 E ALMERIA RD","PHOENIX","AZ",85008,33.4668170690001,-111.992702219,119,"4116 E ALMERIA RD, PHOENIX, AZ, 85008","Match","Exact","4116 E ALMERIA RD, PHOENIX, AZ, 85008",128223714,"L"
604620,"4116 E COOLBROOK AVE","PHOENIX","AZ",85032,33.6431420010001,-111.992726165,120,"4116 E COOLBROOK AVE, PHOENIX, AZ, 85032","Match","Exact","4116 E COOLBROOK AVE, PHOENIX, AZ, 85032",128375527,"L"
604621,"4116 E GREENLEA PLACE","ST LOUIS","MO",63115,38.6728509020001,-90.224451043,121,"4116 E GREENLEA PLACE, ST LOUIS, MO, 63115","Match","Non_Exact","4116 GREEN LEA PL, SAINT LOUIS, MO, 63115",647683653,"L"
604622,"4116 E LATOKA ST","SPRINGFIELD","MO",65809,37.177065429,-93.209903905,122,"4116 E LATOKA ST, SPRINGFIELD, MO, 65809","Match","Exact","4116 E LATOKA ST, SPRINGFIELD, MO, 65809",76686706,"R"
604623,"4116 FIELDSTONE","CHAMPAIGN","IL",61822,40.1143662060001,-88.31099836,123,"4116 FIELDSTONE, CHAMPAIGN, IL, 61822","Match","Non_Exact","4116 FIELDSTONE RD, CHAMPAIGN, IL, 61822",653857604,"R"
604624,"4116 FORREST VIEW DRIVE","CLARKSTON","MI",48346,NA,NA,124,"4116 FORREST VIEW DRIVE, CLARKSTON, MI, 48346","No_Match",NA,NA,NA,NA
604625,"4116 GARDEN PARK DRIVE","TOLEDO","OH",43613,41.6944036,-83.58585821,125,"4116 GARDEN PARK DRIVE, TOLEDO, OH, 43613","Match","Exact","4116 GARDEN PARK DR, TOLEDO, OH, 43613",33933524,"R"
604626,"4116 GARDENIA AVE","LAKE WORTH","FL",33461,26.624104431,-80.106351923,126,"4116 GARDENIA AVE, LAKE WORTH, FL, 33461","Match","Exact","4116 GARDENIA AVE, LAKE WORTH, FL, 33461",115284421,"L"
604627,"4116 GOLDEN HORN LN","FORT WORTH","TX",76123,32.611875248,-97.3838785679999,127,"4116 GOLDEN HORN LN, FORT WORTH, TX, 76123","Match","Exact","4116 GOLDEN HORN LN, FORT WORTH, TX, 76123",102189906,"R"
604628,"4116 GUTHRIE DR","PLANO","TX",75024,33.0898595030001,-96.7740698649999,128,"4116 GUTHRIE DR, PLANO, TX, 75024","Match","Exact","4116 GUTHRIE DR, PLANO, TX, 75024",123558001,"L"
604629,"4116 HARRISON ST","GARY","IN",46408,41.5437056660001,-87.3460767129999,129,"4116 HARRISON ST, GARY, IN, 46408","Match","Exact","4116 HARRISON ST, GARY, IN, 46408",98433614,"R"
604630,"4116 HARRISON STREET","WASHINGTON","DC",20015,38.9570171180001,-77.080671791,130,"4116 HARRISON STREET, WASHINGTON, DC, 20015","Match","Non_Exact","4116 HARRISON ST NW, WASHINGTON, DC, 20015",76219657,"L"
604631,"4116 HENRYVILLE OTISCO","HENRYVILLE","IN",47126,38.536333761,-85.747192556,131,"4116 HENRYVILLE OTISCO, HENRYVILLE, IN, 47126","Match","Non_Exact","4116 HENRYVILLE OTISCO RD, HENRYVILLE, IN, 47126",64873243,"R"
604632,"4116 HIGHWAY 231 N","PANAMA CITY","FL",32404,NA,NA,132,"4116 HIGHWAY 231 N, PANAMA CITY, FL, 32404","No_Match",NA,NA,NA,NA
604633,"4116 HILLVIEW CT","TRINITY","NC",27370,35.83945985,-79.937074673,133,"4116 HILLVIEW CT, TRINITY, NC, 27370","Match","Exact","4116 HILLVIEW CT, TRINITY, NC, 27370",20416607,"R"
604634,"4116 HOLLISTER LANE","PERRYSBURG","OH",43551,41.52581029,-83.64401034,134,"4116 HOLLISTER LANE, PERRYSBURG, OH, 43551","Match","Exact","4116 HOLLISTER LN, PERRYSBURG, OH, 43551",623831584,"L"
604635,"4116 HOME AVE","STICKNEY","IL",60402,41.8172621800001,-87.7973914949999,135,"4116 HOME AVE, STICKNEY, IL, 60402","Match","Exact","4116 HOME AVE, STICKNEY, IL, 60402",111795892,"R"
604636,"4116 HOUGHTON ST","PHILA","PA",19128,40.028118077,-75.207481526,136,"4116 HOUGHTON ST, PHILA, PA, 19128","Match","Exact","4116 HOUGHTON ST, PHILA, PA, 19128",131400197,"R"
604637,"4116 LORI DRIVE WEST","JACKSONVILLE","FL",32207,30.282358948,-81.612004132,137,"4116 LORI DRIVE WEST, JACKSONVILLE, FL, 32207","Match","Exact","4116 LORI DR W, JACKSONVILLE, FL, 32207",83918761,"R"
604638,"4116 MAPLE LEAF DR","NEW ORLEANS","LA",70130,29.9101596960001,-89.9925843889999,138,"4116 MAPLE LEAF DR, NEW ORLEANS, LA, 70130","Match","Non_Exact","4116 MAPLE LEAF DR, NEW ORLEANS, LA, 70131",648042622,"L"
604639,"4116 MARINE AVENUE","LAWNDALE","CA",90260,33.894654127,-118.346688853,139,"4116 MARINE AVENUE, LAWNDALE, CA, 90260","Match","Exact","4116 MARINE AVE, LAWNDALE, CA, 90260",141657495,"L"
604640,"4116 MATHEW DRIVE","PALM SPRINGS","CA",92264,33.7923201510001,-116.501156205,140,"4116 MATHEW DRIVE, PALM SPRINGS, CA, 92264","Match","Non_Exact","4116 MATTHEW DR, PALM SPRINGS, CA, 92264",194815173,"L"
604641,"4116 MEADOWGREEN DR","OLD HICKORY","TN",37138,36.218762397,-86.603229539,141,"4116 MEADOWGREEN DR, OLD HICKORY, TN, 37138","Match","Non_Exact","4116 MEADOW GREEN DR, OLD HICKORY, TN, 37138",97214211,"R"
604642,"4116 MOUNT VERNON DR","LOS ANGELES","CA",90008,34.002151398,-118.346969371,142,"4116 MOUNT VERNON DR, LOS ANGELES, CA, 90008","Match","Non_Exact","4116 W MOUNT VERNON DR, LOS ANGELES, CA, 90008",634247651,"L"
604643,"4116 MT OLIVET","KALAMAZOO","MI",49004,42.33067283,-85.54581948,143,"4116 MT OLIVET, KALAMAZOO, MI, 49004","Match","Non_Exact","4116 MOUNT OLIVET RD, KALAMAZOO, MI, 49004",12228027,"R"
604644,"4116 MYLAND DRIVE","RICHMOND","VA",23226,NA,NA,144,"4116 MYLAND DRIVE, RICHMOND, VA, 23226","No_Match",NA,NA,NA,NA
604645,"4116 N 39TH ST","TACOMA","WA",98407,47.283051485,-122.491943498,145,"4116 N 39TH ST, TACOMA, WA, 98407","Match","Exact","4116 N 39TH ST, TACOMA, WA, 98407",184732935,"L"
604646,"4116 N BOULEVARD PARK","HOUSTON","TX",77098,NA,NA,146,"4116 N BOULEVARD PARK, HOUSTON, TX, 77098","No_Match",NA,NA,NA,NA
604647,"4116 N BROADWAY APT 3","CHICAGO","IL",60613,NA,NA,147,"4116 N BROADWAY APT 3, CHICAGO, IL, 60613","No_Match",NA,NA,NA,NA
604648,"4116 N DAVIS ST","JACKSONVILLE","FL",32209,30.363941433,-81.6674235149999,148,"4116 N DAVIS ST, JACKSONVILLE, FL, 32209","Match","Exact","4116 N DAVIS ST, JACKSONVILLE, FL, 32209",83893308,"L"
604649,"4116 NHIGHWAY 213 N","PANAMA CITY","FL",32404,NA,NA,149,"4116 NHIGHWAY 213 N, PANAMA CITY, FL, 32404","No_Match",NA,NA,NA,NA
604650,"4116 NORTH JASMINE STREET","WICHITA","KS",67226,NA,NA,150,"4116 NORTH JASMINE STREET, WICHITA, KS, 67226","Tie",NA,NA,NA,NA
604651,"4116 NORTH KEELER AVENUE APT 2","CHICAGO","IL",60641,41.955816897,-87.732544838,151,"4116 NORTH KEELER AVENUE APT 2, CHICAGO, IL, 60641","Match","Exact","4116 N KEELER AVE, CHICAGO, IL, 60641",111755906,"L"
604652,"4116 NORTH KEELER AVENUE SUITE 2","CHICAGO","IL",60641,41.955816897,-87.732544838,152,"4116 NORTH KEELER AVENUE SUITE 2, CHICAGO, IL, 60641","Match","Exact","4116 N KEELER AVE, CHICAGO, IL, 60641",111755906,"L"
604653,"4116 O LEARY AVE","DEER PARK","OH",45236,39.202286675,-84.398900559,153,"4116 O LEARY AVE, DEER PARK, OH, 45236","Match","Exact","4116 O LEARY AVE, DEER PARK, OH, 45236",103980004,"L"
604654,"4116 OLD STATE ROUTE 34","LIMESTONE","TN",37681,36.2283911320001,-82.6420488959999,154,"4116 OLD STATE ROUTE 34, LIMESTONE, TN, 37681","Match","Exact","4116 OLD STATE RTE 34, LIMESTONE, TN, 37681",127929374,"L"
604655,"4116 OWEN WATKINS COURT","FRANKLIN","TN",37067,35.90907393,-86.775615718,155,"4116 OWEN WATKINS COURT, FRANKLIN, TN, 37067","Match","Exact","4116 OWEN WATKINS CT, FRANKLIN, TN, 37067",627382750,"R"
604656,"4116 PRAIRIEVIEW DRIVE","COLSTRIP","MT",59323,45.9165626650001,-106.625854518,156,"4116 PRAIRIEVIEW DRIVE, COLSTRIP, MT, 59323","Match","Exact","4116 PRAIRIEVIEW DR, COLSTRIP, MT, 59323",151106236,"L"
604657,"4116 RIVER CHASE DRIVE","GREENVILLE","NC",27858,35.592957719,-77.3090283499999,157,"4116 RIVER CHASE DRIVE, GREENVILLE, NC, 27858","Match","Exact","4116 RIVER CHASE DR, GREENVILLE, NC, 27858",636544526,"L"
604658,"4116 RIVERCHASE DRIVE","GREENVILLE","NC",27858,35.592957719,-77.3090283499999,158,"4116 RIVERCHASE DRIVE, GREENVILLE, NC, 27858","Match","Non_Exact","4116 RIVER CHASE DR, GREENVILLE, NC, 27858",636544526,"L"
604659,"4116 ROUNDHILL DR","ANDERSON","IN",46013,40.0742298340001,-85.658552774,159,"4116 ROUNDHILL DR, ANDERSON, IN, 46013","Match","Exact","4116 ROUNDHILL DR, ANDERSON, IN, 46013",31124650,"L"
604660,"4116 S CARRIER PARKWAY","GRAND PRAIRIE","TX",75052,32.6714444460001,-97.005826317,160,"4116 S CARRIER PARKWAY, GRAND PRAIRIE, TX, 75052","Match","Exact","4116 S CARRIER PKWY, GRAND PRAIRIE, TX, 75052",649824665,"R"
604661,"4116 S CARRIER PKWY STE 280 PBM719","GRAND PRAIRIE","TX",75052,32.6714444460001,-97.005826317,161,"4116 S CARRIER PKWY STE 280 PBM719, GRAND PRAIRIE, TX, 75052","Match","Non_Exact","4116 S CARRIER PKWY, GRAND PRAIRIE, TX, 75052",649824665,"R"
604662,"4116 S CARRIER PKWY","GRAND PRAIRIE","TX",75052,32.6714444460001,-97.005826317,162,"4116 S CARRIER PKWY, GRAND PRAIRIE, TX, 75052","Match","Exact","4116 S CARRIER PKWY, GRAND PRAIRIE, TX, 75052",649824665,"R"
604663,"4116 S SPRING","INDEPENDENCE","MO",64055,39.045271601,-94.423209717,163,"4116 S SPRING, INDEPENDENCE, MO, 64055","Match","Non_Exact","4116 S SPRING ST, INDEPENDENCE, MO, 64055",91464119,"R"
604664,"4116 SOUTH CARRIER PKWY STE 280","GRAND PRAIRIE","TX",75052,32.6714446930001,-97.005826526,164,"4116 SOUTH CARRIER PKWY STE 280, GRAND PRAIRIE, TX, 75052","Match","Exact","4116 S CARRIER PKWY, GRAND PRAIRIE, TX, 75052",649824665,"R"
604665,"4116 SOUTH CREEK ROAD","CHATTANOOGA","TN",37406,35.0923579180001,-85.2498704239999,165,"4116 SOUTH CREEK ROAD, CHATTANOOGA, TN, 37406","Match","Exact","4116 S CREEK RD, CHATTANOOGA, TN, 37406",59338436,"L"
604666,"4116 STARWOOD MEMPHIS","MEMPHIS","TN",38115,35.036719009,-89.8516586009999,166,"4116 STARWOOD MEMPHIS, MEMPHIS, TN, 38115","Match","Non_Exact","4116 STARWOOD DR, MEMPHIS, TN, 38115",72957455,"L"
604667,"4116 STONEBRIDGE DRIVE","DALLAS","TX",75204,32.817389753,-96.796251903,167,"4116 STONEBRIDGE DRIVE, DALLAS, TX, 75204","Match","Exact","4116 STONEBRIDGE DR, DALLAS, TX, 75204",102908940,"R"
604668,"4116 SW 15TH PL","GAINESVILLE","FL",32607,29.6380121380001,-82.386393378,168,"4116 SW 15TH PL, GAINESVILLE, FL, 32607","Match","Exact","4116 SW 15TH PL, GAINESVILLE, FL, 32607",6830077,"R"
604669,"4116 SW SHENANDOAH RD","TOPEKA","KS",66610,38.9925188500001,-95.766325734,169,"4116 SW SHENANDOAH RD, TOPEKA, KS, 66610","Match","Exact","4116 SW SHENANDOAH RD, TOPEKA, KS, 66610",17936594,"R"
604670,"4116 TIBER FALLS DR","ELLICOTT CITY","MD",21043,39.2647932670001,-76.813610685,170,"4116 TIBER FALLS DR, ELLICOTT CITY, MD, 21043","Match","Exact","4116 TIBER FALLS DR, ELLICOTT CITY, MD, 21043",619081279,"R"
604671,"4116 TWILIGHT TRAIL","PLANO","TX",75093,33.0290191440001,-96.7729540459999,171,"4116 TWILIGHT TRAIL, PLANO, TX, 75093","Match","Exact","4116 TWILIGHT TRL, PLANO, TX, 75093",123521373,"R"
604672,"4116 US 231","LOOGOOTEE","IN",47553,38.5552580360001,-86.901809091,172,"4116 US 231, LOOGOOTEE, IN, 47553","Match","Non_Exact","4116 US HWY 231, LOOGOOTEE, IN, 47553",32109858,"R"
604673,"4116 VALERY RD","NEW IBERIA","LA",70560,29.9826625050001,-91.919659754,173,"4116 VALERY RD, NEW IBERIA, LA, 70560","Match","Exact","4116 VALERY RD, NEW IBERIA, LA, 70560",85372057,"R"
604674,"4116 W NEWCOMB STREET","SIOUX FALLS","SD",57106,43.5370701240001,-96.773179827,174,"4116 W NEWCOMB STREET, SIOUX FALLS, SD, 57106","Match","Exact","4116 W NEWCOMB ST, SIOUX FALLS, SD, 57106",34982769,"R"
604675,"4116 W PALM AIRE DR","POMPANO BEACH","FL",33069,26.2176180440001,-80.178227673,175,"4116 W PALM AIRE DR, POMPANO BEACH, FL, 33069","Match","Exact","4116 W PALM AIRE DR, POMPANO BEACH, FL, 33069",648168583,"R"
604676,"4116 W VICKERY BLVD","FORT WORTH","TX",76107,32.726951236,-97.3773964329999,176,"4116 W VICKERY BLVD, FORT WORTH, TX, 76107","Match","Exact","4116 W VICKERY BLVD, FORT WORTH, TX, 76107",101884250,"R"
604677,"4116 WEST 13 MILE ROAD","ROYAL OAK","MI",48073,42.5175455740001,-83.1999126649999,177,"4116 WEST 13 MILE ROAD, ROYAL OAK, MI, 48073","Match","Exact","4116 W 13 MILE RD, ROYAL OAK, MI, 48073",69737507,"R"
604678,"4116 WEST ARCHER STREET","TAMPA","FL",33607,NA,NA,178,"4116 WEST ARCHER STREET, TAMPA, FL, 33607","No_Match",NA,NA,NA,NA
604679,"4116 WESTMAN COURT","ALEXANDRIA","VA",22306,38.764654611,-77.1045287009999,179,"4116 WESTMAN COURT, ALEXANDRIA, VA, 22306","Match","Exact","4116 WESTMAN CT, ALEXANDRIA, VA, 22306",76005694,"L"
604680,"4116 WHISPERING OAKS CT","GRAHAM","NC",27253,35.873810351,-79.294938854,180,"4116 WHISPERING OAKS CT, GRAHAM, NC, 27253","Match","Exact","4116 WHISPERING OAKS CT, GRAHAM, NC, 27253",71683917,"L"
604681,"4116-57TH COURT","VERO BEACH","FL",32967,NA,NA,181,"4116-57TH COURT, VERO BEACH, FL, 32967","No_Match",NA,NA,NA,NA
604682,"41162 MESA ROBLES CIR","TEMECULA","CA",92592,33.5107532980001,-117.085833678,182,"41162 MESA ROBLES CIR, TEMECULA, CA, 92592","Match","Exact","41162 MESA ROBLES CIR, TEMECULA, CA, 92592",645550039,"R"
604683,"41164 CLEARWATER AVE","GONZALES","LA",70737,30.2873365040001,-90.916208268,183,"41164 CLEARWATER AVE, GONZALES, LA, 70737","Match","Exact","41164 CLEARWATER AVE, GONZALES, LA, 70737",624473503,"R"
604684,"4116C WEST 13 MILE ROAD","ROYAL OAK","MI",48073,42.5175443620001,-83.1999599389999,184,"4116C WEST 13 MILE ROAD, ROYAL OAK, MI, 48073","Match","Exact","4116 W 13 MILE RD, ROYAL OAK, MI, 48073",69737507,"R"
604685,"4117 19TH STREET NE","WASHINGTON","DC",20018,38.9398930620001,-76.978305768,185,"4117 19TH STREET NE, WASHINGTON, DC, 20018","Match","Exact","4117 19TH ST NE, WASHINGTON, DC, 20018",76229059,"R"
604686,"4117 19TH STREET","WASHINGTON","DC",20018,38.9398930620001,-76.978305768,186,"4117 19TH STREET, WASHINGTON, DC, 20018","Match","Non_Exact","4117 19TH ST NE, WASHINGTON, DC, 20018",76229059,"R"
604687,"4117 221ST PLACE SE","ISSAQUAH","WA",98029,47.570397217,-122.045183523,187,"4117 221ST PLACE SE, ISSAQUAH, WA, 98029","Match","Exact","4117 221ST PL SE, ISSAQUAH, WA, 98029",239758572,"R"
604688,"4117 3RD AVENUE NORTH","GREAT FALLS","MT",59405,47.508298273,-111.23519043,188,"4117 3RD AVENUE NORTH, GREAT FALLS, MT, 59405","Match","Exact","4117 3RD AVE N, GREAT FALLS, MT, 59405",635462473,"L"
604689,"4117 BERKMAN DR","AUSTIN","TX",78723,30.2934041230001,-97.700154756,189,"4117 BERKMAN DR, AUSTIN, TX, 78723","Match","Exact","4117 BERKMAN DR, AUSTIN, TX, 78723",627053185,"L"
604690,"4117 BLECKER DRIVE","BATON ROUGE","LA",70809,30.4099243690001,-91.087041406,190,"4117 BLECKER DRIVE, BATON ROUGE, LA, 70809","Match","Exact","4117 BLECKER DR, BATON ROUGE, LA, 70809",92192705,"L"
604691,"4117 BRIGHT ROAD","CHARLOTTE","NC",28214,35.2278272730001,-80.996388181,191,"4117 BRIGHT ROAD, CHARLOTTE, NC, 28214","Match","Exact","4117 BRIGHT RD, CHARLOTTE, NC, 28214",618147674,"L"
604692,"4117 CARMEL DRIVE","NORTH RICHLAND HILLS","TX",76180,NA,NA,192,"4117 CARMEL DRIVE, NORTH RICHLAND HILLS, TX, 76180","No_Match",NA,NA,NA,NA
604693,"4117 CEDARGROVE DRIVE","SACRAMENTO","CA",95826,38.540878488,-121.356480688,193,"4117 CEDARGROVE DRIVE, SACRAMENTO, CA, 95826","Match","Exact","4117 CEDARGROVE DR, SACRAMENTO, CA, 95826",133340302,"L"
604694,"4117 COLERIDGE ST","HOUSTON","TX",77005,29.7184393060001,-95.4435146979999,194,"4117 COLERIDGE ST, HOUSTON, TX, 77005","Match","Exact","4117 COLERIDGE ST, HOUSTON, TX, 77005",96034597,"L"
604695,"4117 CONGAREE DR","INDIANAPOLIS","IN",46235,39.83251161,-85.966880942,195,"4117 CONGAREE DR, INDIANAPOLIS, IN, 46235","Match","Exact","4117 CONGAREE DR, INDIANAPOLIS, IN, 46235",609093337,"L"
604696,"4117 COUNTY LINE RD","MACEDON","NY",14502,43.152108879,-77.369535281,196,"4117 COUNTY LINE RD, MACEDON, NY, 14502","Match","Exact","4117 COUNTY LINE RD, MACEDON, NY, 14502",14909541,"L"
604697,"4117 CUTTY SARK ROAD","BALTIMORE","MD",21220,39.32869356,-76.381945441,197,"4117 CUTTY SARK ROAD, BALTIMORE, MD, 21220","Match","Exact","4117 CUTTY SARK RD, BALTIMORE, MD, 21220",626979935,"R"
604698,"4117 DECATUR STREET","PHILADELPHIA","PA",19136,40.0399341310001,-75.029474823,198,"4117 DECATUR STREET, PHILADELPHIA, PA, 19136","Match","Exact","4117 DECATUR ST, PHILADELPHIA, PA, 19136",131432802,"L"
604699,"4117 E LAKE DR","TUSCALOOSA","AL",35405,33.1663207,-87.4809378739999,199,"4117 E LAKE DR, TUSCALOOSA, AL, 35405","Match","Exact","4117 E LAKE DR, TUSCALOOSA, AL, 35405",82154888,"R"
604700,"4117 E PALO BREA LN","CAVE CREEK","AZ",85331,33.761395345,-111.993270276,200,"4117 E PALO BREA LN, CAVE CREEK, AZ, 85331","Match","Exact","4117 E PALO BREA LN, CAVE CREEK, AZ, 85331",128594673,"R"
604701,"4117 E PALO BREA LN","CAVE CREKK","AZ",85331,33.7613949220001,-111.993287195,201,"4117 E PALO BREA LN, CAVE CREKK, AZ, 85331","Match","Non_Exact","4117 E PALO BREA LN, CAVE CREEK, AZ, 85331",128594673,"R"
604702,"4117 EAST 148TH","CLEVELAND","OH",44128,41.447670047,-81.577460075,202,"4117 EAST 148TH, CLEVELAND, OH, 44128","Match","Non_Exact","4117 E 148TH ST, CLEVELAND, OH, 44128",61127289,"L"
604703,"4117 EDMUNDSON","WOODSON TERRACE","MO",63134,NA,NA,203,"4117 EDMUNDSON, WOODSON TERRACE, MO, 63134","No_Match",NA,NA,NA,NA
604704,"4117 GARFIELD RD","SMITHSBURG","MD",21783,39.6101826400001,-77.529279763,204,"4117 GARFIELD RD, SMITHSBURG, MD, 21783","Match","Exact","4117 GARFIELD RD, SMITHSBURG, MD, 21783",635806639,"L"
604705,"4117 GARFIELD ROAD","SMITHSBURG","MD",21783,39.6101826400001,-77.529279763,205,"4117 GARFIELD ROAD, SMITHSBURG, MD, 21783","Match","Exact","4117 GARFIELD RD, SMITHSBURG, MD, 21783",635806639,"L"
604706,"4117 GLADBROOK DR","COUNCIL BLUFFS","IA",51503,41.2474880250001,-95.7863299109999,206,"4117 GLADBROOK DR, COUNCIL BLUFFS, IA, 51503","Match","Exact","4117 GLADBROOK DR, COUNCIL BLUFFS, IA, 51503",43938477,"L"
604707,"4117 GREENVIEW AVENUE","CHICAGO","IL",60613,41.9566882610001,-87.667594579,207,"4117 GREENVIEW AVENUE, CHICAGO, IL, 60613","Match","Non_Exact","4117 N GREENVIEW AVE, CHICAGO, IL, 60613",111761859,"R"
604708,"4117 HALBURTON ROAD","RALEIGH","NC",27613,35.907395454,-78.7073364399999,208,"4117 HALBURTON ROAD, RALEIGH, NC, 27613","Match","Exact","4117 HALBURTON RD, RALEIGH, NC, 27613",645542562,"R"
604709,"4117 HAMILTON CREEK","CABOOL","MO",65689,37.192006298,-92.082902754,209,"4117 HAMILTON CREEK, CABOOL, MO, 65689","Match","Non_Exact","4117 HAMILTON CREEK RD, CABOOL, MO, 65689",26472385,"L"
604710,"4117 HERITAGE OAK CIRCLE","BIRMINGHAM","AL",35242,33.376060007,-86.714035896,210,"4117 HERITAGE OAK CIRCLE, BIRMINGHAM, AL, 35242","Match","Non_Exact","4117 HERITAGE OAKS CIR, BIRMINGHAM, AL, 35242",221534560,"R"
604711,"4117 HERITAGE OAKS CIRCLE","BIRMINGHAM","AL",35242,33.376060007,-86.714035896,211,"4117 HERITAGE OAKS CIRCLE, BIRMINGHAM, AL, 35242","Match","Exact","4117 HERITAGE OAKS CIR, BIRMINGHAM, AL, 35242",221534560,"R"
604712,"4117 HERITAGE OAKS CIRLES","BIRMINGHAM","AL",35242,33.376060007,-86.714035896,212,"4117 HERITAGE OAKS CIRLES, BIRMINGHAM, AL, 35242","Match","Non_Exact","4117 HERITAGE OAKS CIR, BIRMINGHAM, AL, 35242",221534560,"R"
604713,"4117 HIDDEN CREEK COURT","COLUMBIA","MO",65202,38.9714967460001,-92.275663661,213,"4117 HIDDEN CREEK COURT, COLUMBIA, MO, 65202","Match","Exact","4117 HIDDEN CREEK CT, COLUMBIA, MO, 65202",604850178,"L"
604714,"4117 HIDDEN VALLEY DR","FLINT","MI",48506,NA,NA,214,"4117 HIDDEN VALLEY DR, FLINT, MI, 48506","No_Match",NA,NA,NA,NA
604715,"4117 HILLSBORO PIKE","NASHVILLE","TN",37215,36.101660354,-86.8179705539999,215,"4117 HILLSBORO PIKE, NASHVILLE, TN, 37215","Match","Exact","4117 HILLSBORO PIKE, NASHVILLE, TN, 37215",97190289,"R"
604716,"4117 HILLSBORO RD STE 103","NASHVILLE","TN",37215,NA,NA,216,"4117 HILLSBORO RD STE 103, NASHVILLE, TN, 37215","Tie",NA,NA,NA,NA
604717,"4117 HILLSBORO RD SUITE 103274","NASHVILLE","TN",37215,NA,NA,217,"4117 HILLSBORO RD SUITE 103274, NASHVILLE, TN, 37215","Tie",NA,NA,NA,NA
604718,"4117 HILLSBORO ROAD SUITE 103274","NASHVILLE","TN",37215,NA,NA,218,"4117 HILLSBORO ROAD SUITE 103274, NASHVILLE, TN, 37215","Tie",NA,NA,NA,NA
604719,"4117 KENSINGTON","DETROIT","MI",48224,42.397419137,-82.930867359,219,"4117 KENSINGTON, DETROIT, MI, 48224","Match","Exact","4117 KENSINGTON, DETROIT, MI, 48224",95487309,"L"
604720,"4117 KILBY RD","PARK CITY","UT",84098,40.7531809450001,-111.591444109,220,"4117 KILBY RD, PARK CITY, UT, 84098","Match","Exact","4117 KILBY RD, PARK CITY, UT, 84098",607592644,"L"
604721,"4117 LA JOLLA DR","PALMDALE","CA",93552,34.556191557,-118.056185773,221,"4117 LA JOLLA DR, PALMDALE, CA, 93552","Match","Exact","4117 LA JOLLA DR, PALMDALE, CA, 93552",141837913,"L"
604722,"4117 LAKE LYNN DR APT 108","CHAPEL HILL","NC",27613,35.878911923,-78.701624526,222,"4117 LAKE LYNN DR APT 108, CHAPEL HILL, NC, 27613","Match","Non_Exact","4117 LAKE LYNN DR, RALEIGH, NC, 27613",72571603,"R"
604723,"4117 LAKE LYNN DRIVE 306","RALEIGH","NC",27613,35.878911923,-78.701624526,223,"4117 LAKE LYNN DRIVE 306, RALEIGH, NC, 27613","Match","Exact","4117 LAKE LYNN DR, RALEIGH, NC, 27613",72571603,"R"
604724,"4117 LATHROP AVE","RACINE","WI",53405,42.6838188420001,-87.8259248799999,224,"4117 LATHROP AVE, RACINE, WI, 53405","Match","Exact","4117 LATHROP AVE, RACINE, WI, 53405",77911649,"L"
604725,"4117 LITTLEWORTH WAY","SAN JOSE","CA",95135,37.3111455640001,-121.769133122,225,"4117 LITTLEWORTH WAY, SAN JOSE, CA, 95135","Match","Exact","4117 LITTLEWORTH WAY, SAN JOSE, CA, 95135",122918516,"R"
604726,"4117 LOCKSLEY","JACKSONVILLE","FL",32208,NA,NA,226,"4117 LOCKSLEY, JACKSONVILLE, FL, 32208","No_Match",NA,NA,NA,NA
604727,"4117 LOST SPRINGS DR","AGOURA HILLS","CA",91301,34.134539585,-118.707695688,227,"4117 LOST SPRINGS DR, AGOURA HILLS, CA, 91301","Match","Exact","4117 LOST SPRINGS DR, AGOURA HILLS, CA, 91301",141798437,"L"
604728,"4117 MCLAUGHLIN AVE -2","LOS ANGELES","CA",90066,34.002161487,-118.419466062,228,"4117 MCLAUGHLIN AVE -2, LOS ANGELES, CA, 90066","Match","Exact","4117 MCLAUGHLIN AVE, LOS ANGELES, CA, 90066",142719619,"R"
604729,"4117 MOUNTAIN COVE DRIVE","CHARLOTTE","NC",28216,35.336493332,-80.9488317829999,229,"4117 MOUNTAIN COVE DRIVE, CHARLOTTE, NC, 28216","Match","Exact","4117 MOUNTAIN COVE DR, CHARLOTTE, NC, 28216",70532076,"L"
604730,"4117 N 90TH COURT","MILWAUKEE","WI",53222,43.0918300530001,-88.025111055,230,"4117 N 90TH COURT, MILWAUKEE, WI, 53222","Match","Exact","4117 N 90TH CT, MILWAUKEE, WI, 53222",77727966,"L"
604731,"4117 N COMMERCIAL AVE","PORTLAND","OR",97217,45.5535030660001,-122.671213789,231,"4117 N COMMERCIAL AVE, PORTLAND, OR, 97217","Match","Exact","4117 N COMMERCIAL AVE, PORTLAND, OR, 97217",157503531,"L"
604732,"4117 OAK KNOLL DRIVE","YOUNGSTOWN","OH",44512,41.057420843,-80.667742731,232,"4117 OAK KNOLL DRIVE, YOUNGSTOWN, OH, 44512","Match","Exact","4117 OAK KNOLL DR, YOUNGSTOWN, OH, 44512",64598349,"L"
604733,"4117 OHIO AVE","RICHMOND","CA",94804,37.9306318440001,-122.32859998,233,"4117 OHIO AVE, RICHMOND, CA, 94804","Match","Exact","4117 OHIO AVE, RICHMOND, CA, 94804",192041466,"L"
604734,"4117 OLD CYPRESS MILL ROAD","BRUNSWICK","GA",31520,31.2065110610001,-81.4945359279999,234,"4117 OLD CYPRESS MILL ROAD, BRUNSWICK, GA, 31520","Match","Exact","4117 OLD CYPRESS MILL RD, BRUNSWICK, GA, 31520",9133442,"R"
604735,"4117 OVERLOOK ST","SOUTH PARK","PA",15129,40.285391594,-80.020374773,235,"4117 OVERLOOK ST, SOUTH PARK, PA, 15129","Match","Exact","4117 OVERLOOK ST, SOUTH PARK, PA, 15129",51935331,"R"
604736,"4117 PAINT ROCK DRIVE","AUSTIN","TX",78731,30.3670349550001,-97.761169986,236,"4117 PAINT ROCK DRIVE, AUSTIN, TX, 78731","Match","Exact","4117 PAINT ROCK DR, AUSTIN, TX, 78731",63927821,"L"
604737,"4117 PANTHER RIDGE LN","PLANO","TX",75074,33.0526429770001,-96.647308774,237,"4117 PANTHER RIDGE LN, PLANO, TX, 75074","Match","Exact","4117 PANTHER RIDGE LN, PLANO, TX, 75074",123553700,"L"
604738,"4117 PARK AVE","AYDEN","NC",28513,35.4706714600001,-77.422006078,238,"4117 PARK AVE, AYDEN, NC, 28513","Match","Exact","4117 PARK AVE, AYDEN, NC, 28513",80002127,"R"
604739,"4117 PARK AVENUE","AYDEN","NC",28513,35.4706714600001,-77.422006078,239,"4117 PARK AVENUE, AYDEN, NC, 28513","Match","Exact","4117 PARK AVE, AYDEN, NC, 28513",80002127,"R"
604740,"4117 PHILADELPHIA STREET","RALEIGH","NC",27606,NA,NA,240,"4117 PHILADELPHIA STREET, RALEIGH, NC, 27606","No_Match",NA,NA,NA,NA
604741,"4117 PIMA WAY","ANTELOPE","CA",95843,38.710242647,-121.371815037,241,"4117 PIMA WAY, ANTELOPE, CA, 95843","Match","Exact","4117 PIMA WAY, ANTELOPE, CA, 95843",133328249,"L"
604742,"4117 PINE FOREST DR","COLUMBIA","SC",29204,34.054814976,-81.0002832389999,242,"4117 PINE FOREST DR, COLUMBIA, SC, 29204","Match","Exact","4117 PINE FOREST DR, COLUMBIA, SC, 29204",71819662,"L"
604743,"4117 PINE FOREST","COLUMBIA","SC",29204,34.054814976,-81.0002832389999,243,"4117 PINE FOREST, COLUMBIA, SC, 29204","Match","Non_Exact","4117 PINE FOREST DR, COLUMBIA, SC, 29204",71819662,"L"
604744,"4117 POLK STREET","GARY","IN",46408,41.5437309930001,-87.348501019,244,"4117 POLK STREET, GARY, IN, 46408","Match","Exact","4117 POLK ST, GARY, IN, 46408",98430794,"L"
604745,"4117 PROVINCE DR","CARROLLTON","TX",75007,33.023482894,-96.869612703,245,"4117 PROVINCE DR, CARROLLTON, TX, 75007","Match","Exact","4117 PROVINCE DR, CARROLLTON, TX, 75007",103425358,"L"
604746,"4117 QUINCEY LANE","DULUTH","GA",30096,34.0114703310001,-84.169875125,246,"4117 QUINCEY LANE, DULUTH, GA, 30096","Match","Exact","4117 QUINCEY LN, DULUTH, GA, 30096",88916145,"R"
604747,"4117 ROBBINS AVE","ORLANDO","FL",32808,28.593975835,-81.455996275,247,"4117 ROBBINS AVE, ORLANDO, FL, 32808","Match","Exact","4117 ROBBINS AVE, ORLANDO, FL, 32808",94269622,"R"
604748,"4117 ROCHESTER RD APT 6","ROYAL OAK","MI",48073,42.5258416130001,-83.1378311999999,248,"4117 ROCHESTER RD APT 6, ROYAL OAK, MI, 48073","Match","Exact","4117 ROCHESTER RD, ROYAL OAK, MI, 48073",69743822,"L"
604749,"4117 ROCK CANYON COVE","MARBLE FALLS","TX",78654,30.4553064510001,-98.0370319369999,249,"4117 ROCK CANYON COVE, MARBLE FALLS, TX, 78654","Match","Exact","4117 ROCK CANYON COVE, MARBLE FALLS, TX, 78654",64110899,"R"
604750,"4117 RUSSELL LN","PANAMA CITY","FL",32404,30.15011695,-85.602893131,250,"4117 RUSSELL LN, PANAMA CITY, FL, 32404","Match","Exact","4117 RUSSELL LN, PANAMA CITY, FL, 32404",7091962,"L"
604751,"4117 S PRAIRIE","CHICAGO","IL",60653,41.8197987730001,-87.619870828,251,"4117 S PRAIRIE, CHICAGO, IL, 60653","Match","Non_Exact","4117 S PRAIRIE AVE, CHICAGO, IL, 60653",111770511,"L"
604752,"4117 SEMINOLE RD","WILSON","NC",27893,35.7522674900001,-77.8474141089999,252,"4117 SEMINOLE RD, WILSON, NC, 27893","Match","Exact","4117 SEMINOLE RD, WILSON, NC, 27893",26715523,"L"
604753,"4117 SH 154 S","SULPHUR SPRINGS","TX",75482,NA,NA,253,"4117 SH 154 S, SULPHUR SPRINGS, TX, 75482","No_Match",NA,NA,NA,NA
604754,"4117 SOUTH 570 EAST 16E","SALT LAKE CITY","UT",84107,40.682240361,-111.875055362,254,"4117 SOUTH 570 EAST 16E, SALT LAKE CITY, UT, 84107","Match","Exact","4117 S 570 E, SALT LAKE CITY, UT, 84107",176079844,"L"
604755,"4117 SOUTH DR","GRANITE CITY","IL",62040,38.736218636,-90.073129512,255,"4117 SOUTH DR, GRANITE CITY, IL, 62040","Match","Exact","4117 SOUTH DR, GRANITE CITY, IL, 62040",107751026,"L"
604756,"4117 STEVENSON BOULEVARD 263","FREMONT","CA",94538,37.539493049,-121.974119717,256,"4117 STEVENSON BOULEVARD 263, FREMONT, CA, 94538","Match","Exact","4117 STEVENSON BLVD, FREMONT, CA, 94538",125030476,"R"
604757,"4117 SUZANNE LN","DULUTH","GA",30096,34.015648433,-84.160870513,257,"4117 SUZANNE LN, DULUTH, GA, 30096","Match","Non_Exact","4117 SUZANNE LN NW, DULUTH, GA, 30096",88911168,"L"
604758,"4117 SW 20TH AVENUE APT 66","GAINESVILLE","FL",32607,29.634723539,-82.38616504,258,"4117 SW 20TH AVENUE APT 66, GAINESVILLE, FL, 32607","Match","Non_Exact","4117 SW 20TH AVE, GAINESVILLE, FL, 32607",6827106,"L"
604759,"4117 SW 52ND STREET","FORT LAUDERDALE","FL",33314,26.057318063,-80.202202803,259,"4117 SW 52ND STREET, FORT LAUDERDALE, FL, 33314","Match","Non_Exact","4117 SW 52ND ST, FORT LAUDERDALE, FL, 33314",114716626,"R"
604760,"4117 SW JAMES YOUNGER DR","LEES SUMMIT","MO",64082,38.8443990980001,-94.378683504,260,"4117 SW JAMES YOUNGER DR, LEES SUMMIT, MO, 64082","Match","Exact","4117 SW JAMES YOUNGER DR, LEES SUMMIT, MO, 64082",91530736,"L"
604761,"4117 TARRANT TRACE CIRCLE","HIGH POINT","NC",27265,36.0405671390001,-79.945213915,261,"4117 TARRANT TRACE CIRCLE, HIGH POINT, NC, 27265","Match","Exact","4117 TARRANT TRACE CIR, HIGH POINT, NC, 27265",131098223,"R"
604762,"4117 W MCFADDEN AVE 411","SANTA ANA","CA",92704,33.7382551540001,-117.924544646,262,"4117 W MCFADDEN AVE 411, SANTA ANA, CA, 92704","Match","Non_Exact","4117 W MCFADDEN AVE, SANTA ANA, CA, 92704",649790536,"R"
604763,"4117 WEST MCFADDEN AVE SPACE 724","SANTA ANA","CA",92704,33.7382551540001,-117.924544646,263,"4117 WEST MCFADDEN AVE SPACE 724, SANTA ANA, CA, 92704","Match","Exact","4117 W MCFADDEN AVE, SANTA ANA, CA, 92704",649790536,"R"
604764,"4117 WEST ROWEL ROAD","PHOENIX","AZ",85038,33.7242578600001,-112.148112557,264,"4117 WEST ROWEL ROAD, PHOENIX, AZ, 85038","Match","Non_Exact","4117 W ROWEL RD, PHOENIX, AZ, 85083",128866831,"R"
604765,"4117 WINTERHAZEL RD","PIKESVILLE","MD",21208,39.3770587590001,-76.769258787,265,"4117 WINTERHAZEL RD, PIKESVILLE, MD, 21208","Match","Exact","4117 WINTERHAZEL RD, PIKESVILLE, MD, 21208",637401057,"R"
604766,"4117 WOOD LANE","BAKERSFIELD","CA",93309,35.345149943,-119.047508374,266,"4117 WOOD LANE, BAKERSFIELD, CA, 93309","Match","Exact","4117 WOOD LN, BAKERSFIELD, CA, 93309",109086155,"L"
604767,"4117 WOODCREEK LANE","LANSING","MI",48911,42.695067173,-84.609203577,267,"4117 WOODCREEK LANE, LANSING, MI, 48911","Match","Exact","4117 WOODCREEK LN, LANSING, MI, 48911",12035848,"L"
604768,"4117 WYNCOTE","SOUTH EUCLID","OH",44121,41.505332326,-81.531433846,268,"4117 WYNCOTE, SOUTH EUCLID, OH, 44121","Match","Non_Exact","4117 WYNCOTE RD, SOUTH EUCLID, OH, 44121",61125687,"L"
604769,"41172 NEW ORLEANS DR","SORRENTO","LA",70778,30.157769693,-90.915667946,269,"41172 NEW ORLEANS DR, SORRENTO, LA, 70778","Match","Exact","41172 NEW ORLEANS DR, SORRENTO, LA, 70778",628466798,"L"
604770,"41175 HIDDEN COVE AVENUE","GONZALES","LA",70737,30.2773315860001,-90.914483946,270,"41175 HIDDEN COVE AVENUE, GONZALES, LA, 70737","Match","Exact","41175 HIDDEN COVE AVE, GONZALES, LA, 70737",650964272,"R"
604771,"41176 258TH STREET","MITCHELL","SD",57301,43.644318878,-97.971880931,271,"41176 258TH STREET, MITCHELL, SD, 57301","Match","Exact","41176 258TH ST, MITCHELL, SD, 57301",200663290,"R"
604772,"41176 ORIENT CT","MURRIETA","GA",92562,NA,NA,272,"41176 ORIENT CT, MURRIETA, GA, 92562","No_Match",NA,NA,NA,NA
604773,"41176 ST ANTHONY DRIVE","FREMONT","CA",94539,37.54724479,-121.939832956,273,"41176 ST ANTHONY DRIVE, FREMONT, CA, 94539","Match","Exact","41176 SAINT ANTHONY DR, FREMONT, CA, 94539",125033506,"L"
604774,"4117E 12TH PL","GARY","IN",46403,41.590899741,-87.28654614,274,"4117E 12TH PL, GARY, IN, 46403","Match","Non_Exact","4117 E 12TH PL, GARY, IN, 46403",98427659,"R"
604775,"4118 13TH AVE","CHATTANOOGA","TN",37407,34.9942980710001,-85.282290557,275,"4118 13TH AVE, CHATTANOOGA, TN, 37407","Match","Exact","4118 13TH AVE, CHATTANOOGA, TN, 37407",59313915,"L"
604776,"4118 18TH AVE SO","ST PETERSBURG","FL",33711,27.751954449,-82.6892534369999,276,"4118 18TH AVE SO, ST PETERSBURG, FL, 33711","Match","Exact","4118 18TH AVE S, SAINT PETERSBURG, FL, 33711",124701157,"L"
604777,"4118 24TH AVE","TEMPLE HILLS","MD",20748,38.833641787,-76.9551562789999,277,"4118 24TH AVE, TEMPLE HILLS, MD, 20748","Match","Exact","4118 24TH AVE, TEMPLE HILLS, MD, 20748",76312640,"L"
604778,"4118 ASPEN STREET","CHEVY CHASE","MD",20815,38.9866295890001,-77.081902734,278,"4118 ASPEN STREET, CHEVY CHASE, MD, 20815","Match","Exact","4118 ASPEN ST, CHEVY CHASE, MD, 20815",62066151,"L"
604779,"4118 AURORA STREET","DES MOINES","IA",50310,41.6364794250001,-93.673850798,279,"4118 AURORA STREET, DES MOINES, IA, 50310","Match","Non_Exact","4118 AURORA AVE, DES MOINES, IA, 50310",65779218,"L"
604780,"4118 AYODHYA WAY","IJAMSVILLE","MD",21754,39.344198772,-77.289686971,280,"4118 AYODHYA WAY, IJAMSVILLE, MD, 21754","Match","Exact","4118 AYODHYA WAY, IJAMSVILLE, MD, 21754",60734048,"L"
604781,"4118 BIG HORN BEND","SAN ANTONIO","TX",78253,29.474610182,-98.7651327199999,281,"4118 BIG HORN BEND, SAN ANTONIO, TX, 78253","Match","Exact","4118 BIG HORN BEND, SAN ANTONIO, TX, 78253",619954433,"L"
604782,"4118 BIG SPRINGS LOOP ROAD","MACKS INN","ID",83433,44.496589838,-111.333536645,282,"4118 BIG SPRINGS LOOP ROAD, MACKS INN, ID, 83433","Match","Exact","4118 BIG SPRINGS LOOP RD, MACKS INN, ID, 83433",119232207,"L"
604783,"4118 BIKIN DRIVE","SAN ANTONIO","TX",78218,NA,NA,283,"4118 BIKIN DRIVE, SAN ANTONIO, TX, 78218","No_Match",NA,NA,NA,NA
604784,"4118 BUFFALO BAYOU","SAN ANTONIO","TX",78251,29.4749071800001,-98.684666588,284,"4118 BUFFALO BAYOU, SAN ANTONIO, TX, 78251","Match","Non_Exact","4118 BUFFALO BAYOU RD, SAN ANTONIO, TX, 78251",101688859,"L"
604785,"4118 CANAL ST","ARLINGTON","TX",76016,32.683763652,-97.212310218,285,"4118 CANAL ST, ARLINGTON, TX, 76016","Match","Non_Exact","4118 CANAL CT, ARLINGTON, TX, 76016",101901643,"R"
604786,"4118 CARMA DR","NORTH RICHLAND HILLS","TX",76180,32.824483097,-97.2378123839999,286,"4118 CARMA DR, NORTH RICHLAND HILLS, TX, 76180","Match","Exact","4118 CARMA DR, NORTH RICHLAND HILLS, TX, 76180",101863192,"R"
604787,"4118 CAUSEY STREET APT C","GREENSBORO","NC",27407,36.0536791160001,-79.864365423,287,"4118 CAUSEY STREET APT C, GREENSBORO, NC, 27407","Match","Exact","4118 CAUSEY ST, GREENSBORO, NC, 27407",131028826,"R"
604788,"4118 CHELMSFORD ROAD","TALLAHASSEE","FL",32308,30.525402028,-84.1984809689999,288,"4118 CHELMSFORD ROAD, TALLAHASSEE, FL, 32308","Match","Non_Exact","4118 CHELMSFORD RD, TALLAHASSEE, FL, 32309",82846988,"L"
604789,"4118 CHERRY POINTE","SOUTH BEND","IN",46628,NA,NA,289,"4118 CHERRY POINTE, SOUTH BEND, IN, 46628","No_Match",NA,NA,NA,NA
604790,"4118 CHICAGO AVE","LUBBOCK","TX",79414,33.556833678,-101.931094136,290,"4118 CHICAGO AVE, LUBBOCK, TX, 79414","Match","Exact","4118 CHICAGO AVE, LUBBOCK, TX, 79414",185250652,"R"
604791,"4118 CORINNE STREET","NEW ORLEANS","LA",70127,NA,NA,291,"4118 CORINNE STREET, NEW ORLEANS, LA, 70127","No_Match",NA,NA,NA,NA
604792,"4118 COVE DR","YUKON","OK",73099,35.512616601,-97.6849842399999,292,"4118 COVE DR, YUKON, OK, 73099","Match","Exact","4118 COVE DR, YUKON, OK, 73099",92575673,"L"
604793,"4118 CREECH ST","HALTOM CITY","TX",76111,32.7891455920001,-97.286341928,293,"4118 CREECH ST, HALTOM CITY, TX, 76111","Match","Exact","4118 CREECH ST, HALTOM CITY, TX, 76111",101859166,"R"
604794,"4118 CYPRESS AVENUE","GROVE CITY","OH",43123,39.8910293660001,-83.1109989239999,294,"4118 CYPRESS AVENUE, GROVE CITY, OH, 43123","Match","Exact","4118 CYPRESS AVE, GROVE CITY, OH, 43123",218643027,"R"
604795,"4118 EDITH AVE","YUBA CITY","CA",95993,39.126063077,-121.690635981,295,"4118 EDITH AVE, YUBA CITY, CA, 95993","Match","Exact","4118 EDITH AVE, YUBA CITY, CA, 95993",68567197,"R"
604796,"4118 FAIRMONT","ABILENE","TX",79605,32.4379190060001,-99.7766015719999,296,"4118 FAIRMONT, ABILENE, TX, 79605","Match","Non_Exact","4118 FAIRMONT ST, ABILENE, TX, 79605",129958574,"R"
604797,"4118 FEDERER ST","SAINT LOUIS","MO",63116,38.569542267,-90.2709419079999,297,"4118 FEDERER ST, SAINT LOUIS, MO, 63116","Match","Non_Exact","4118 FEDERER PL, SAINT LOUIS, MO, 63116",107600444,"L"
604798,"4118 FRIENDSHIP LANE","MEMPHIS","TN",38115,35.0368261300001,-89.854655959,298,"4118 FRIENDSHIP LANE, MEMPHIS, TN, 38115","Match","Exact","4118 FRIENDSHIP LN, MEMPHIS, TN, 38115",72930406,"L"
604799,"4118 GLEN COVE CT","HOUSTON","TX",77021,29.7040759550001,-95.350332802,299,"4118 GLEN COVE CT, HOUSTON, TX, 77021","Match","Exact","4118 GLEN COVE CT, HOUSTON, TX, 77021",96573955,"L"
604800,"4118 HEATHMOOR DR","COLORADO SPRINGS","CO",80922,38.8893469020001,-104.696947186,300,"4118 HEATHMOOR DR, COLORADO SPRINGS, CO, 80922","Match","Exact","4118 HEATHMOOR DR, COLORADO SPRINGS, CO, 80922",105575319,"L"
604801,"4118 HOLLY TREE ROAD","TEMPLE HILLS","MD",20748,38.8259081090001,-76.938487809,301,"4118 HOLLY TREE ROAD, TEMPLE HILLS, MD, 20748","Match","Exact","4118 HOLLY TREE RD, TEMPLE HILLS, MD, 20748",76338896,"L"
604802,"4118 INDIAN PAINTBRUSH LN","HEARTLAND","TX",75126,32.680271664,-96.451752502,302,"4118 INDIAN PAINTBRUSH LN, HEARTLAND, TX, 75126","Match","Exact","4118 INDIAN PAINTBRUSH LN, HEARTLAND, TX, 75126",648267908,"L"
604803,"4118 IVEYGLEN AVE","ORLANDO","FL",32826,28.6021471560001,-81.169175255,303,"4118 IVEYGLEN AVE, ORLANDO, FL, 32826","Match","Exact","4118 IVEYGLEN AVE, ORLANDO, FL, 32826",94369093,"R"
604804,"4118 KELLYBROOK DRIVE","CONCORD","NC",28025,35.356266981,-80.559963668,304,"4118 KELLYBROOK DRIVE, CONCORD, NC, 28025","Match","Exact","4118 KELLYBROOK DR, CONCORD, NC, 28025",647185455,"R"
604805,"4118 KOSSUTH AVE","ST. LOUIS","MO",63115,38.669304697,-90.224573318,305,"4118 KOSSUTH AVE, ST. LOUIS, MO, 63115","Match","Non_Exact","4118 KOSSUTH AVE, SAINT LOUIS, MO, 63107",647676393,"L"
604806,"4118 LA GRANDE PRINCESSE 303","CHRISTIANSTED","VI",820,NA,NA,306,"4118 LA GRANDE PRINCESSE 303, CHRISTIANSTED, VI, 820","No_Match",NA,NA,NA,NA
604807,"4118 LASALLE ST","NEW ORLEANS","LA",70115,29.9345353480001,-90.099632136,307,"4118 LASALLE ST, NEW ORLEANS, LA, 70115","Match","Exact","4118 LASALLE ST, NEW ORLEANS, LA, 70115",191711784,"L"
604808,"4118 LEE CIRCLE","WATERFORD","WI",53185,42.7726025750001,-88.112138375,308,"4118 LEE CIRCLE, WATERFORD, WI, 53185","Match","Exact","4118 LEE CIR, WATERFORD, WI, 53185",77915439,"L"
604809,"4118 LILLY CT","BETTENDORF","IA",52722,41.5803125410001,-90.475640254,309,"4118 LILLY CT, BETTENDORF, IA, 52722","Match","Exact","4118 LILLY CT, BETTENDORF, IA, 52722",638339009,"R"
604810,"4118 LYMAN RD","OAKLAND","CA",94602,37.80941427,-122.210835796,310,"4118 LYMAN RD, OAKLAND, CA, 94602","Match","Exact","4118 LYMAN RD, OAKLAND, CA, 94602",125003891,"R"
604811,"4118 MAPLE RD","MORNINGSIDE","MD",20746,38.8337329600001,-76.8929848459999,311,"4118 MAPLE RD, MORNINGSIDE, MD, 20746","Match","Exact","4118 MAPLE RD, MORNINGSIDE, MD, 20746",636221043,"L"
604812,"4118 MIDDLE RIDGE DRIVE","FAIRFAX","VA",22033,38.8738981020001,-77.3895449779999,312,"4118 MIDDLE RIDGE DRIVE, FAIRFAX, VA, 22033","Match","Exact","4118 MIDDLE RIDGE DR, FAIRFAX, VA, 22033",75964788,"R"
604813,"4118 MIMOSA VIEW DR","LOUISVILLE","KY",40299,38.184168974,-85.562458485,313,"4118 MIMOSA VIEW DR, LOUISVILLE, KY, 40299","Match","Exact","4118 MIMOSA VIEW DR, LOUISVILLE, KY, 40299",96883781,"L"
604814,"4118 MINERAL HAVEN DR","HOUSTON","TX",77048,29.6041676450001,-95.3538956359999,314,"4118 MINERAL HAVEN DR, HOUSTON, TX, 77048","Match","Exact","4118 MINERAL HAVEN DR, HOUSTON, TX, 77048",636880560,"R"
604815,"4118 N 91ST ST","MILWAUKEE","WI",53222,43.092028412,-88.026370245,315,"4118 N 91ST ST, MILWAUKEE, WI, 53222","Match","Exact","4118 N 91ST ST, MILWAUKEE, WI, 53222",77727795,"R"
604816,"4118 N NEWHALL ST","SHOREWOOD","WI",53211,43.0914913300001,-87.889921812,316,"4118 N NEWHALL ST, SHOREWOOD, WI, 53211","Match","Exact","4118 N NEWHALL ST, SHOREWOOD, WI, 53211",77743221,"R"
604817,"4118 N0 FORTUNE LOOP","TUCSON","AZ",85719,32.2822757010001,-110.957270482,317,"4118 N0 FORTUNE LOOP, TUCSON, AZ, 85719","Match","Non_Exact","4118 N FORTUNE LOOP, TUCSON, AZ, 85719",624060285,"L"
604818,"4118 NE 50TH AVE","VANCOUVER","WA",98661,45.651490784,-122.620109661,318,"4118 NE 50TH AVE, VANCOUVER, WA, 98661","Match","Exact","4118 NE 50TH AVE, VANCOUVER, WA, 98661",623922930,"L"
604819,"4118 NORTH OVERHILL","NORRIDGE","IL",60706,41.954711042,-87.8195217589999,319,"4118 NORTH OVERHILL, NORRIDGE, IL, 60706","Match","Non_Exact","4118 N OVERHILL AVE, NORRIDGE, IL, 60706",111747280,"L"
604820,"4118 NW 88 AVE APT 102","CORAL SPRINGS","FL",33065,26.2796883680001,-80.242219827,320,"4118 NW 88 AVE APT 102, CORAL SPRINGS, FL, 33065","Match","Non_Exact","4118 NW 88TH AVE, CORAL SPRINGS, FL, 33065",114737730,"L"
604821,"4118 POWELL ST","SHREVEPORT","LA",71109,32.452955301,-93.8064033159999,321,"4118 POWELL ST, SHREVEPORT, LA, 71109","Match","Exact","4118 POWELL ST, SHREVEPORT, LA, 71109",57485123,"R"
604822,"4118 S RUSHFORD CT","WEST VALLEY CITY","UT",84128,40.6814791250001,-112.032412623,322,"4118 S RUSHFORD CT, WEST VALLEY CITY, UT, 84128","Match","Exact","4118 S RUSHFORD CT, WEST VALLEY CITY, UT, 84128",650211251,"R"
604823,"4118 SANTO TOMAS DRIVE","LOS ANGELES","CA",90008,34.0099767450001,-118.344758196,323,"4118 SANTO TOMAS DRIVE, LOS ANGELES, CA, 90008","Match","Exact","4118 SANTO TOMAS DR, LOS ANGELES, CA, 90008",141602309,"L"
604824,"4118 SHELBY AVE","HUNTSVILLE","AL",35801,34.7416645500001,-86.524448078,324,"4118 SHELBY AVE, HUNTSVILLE, AL, 35801","Match","Non_Exact","4118 SHELBY AVE SE, HUNTSVILLE, AL, 35801",58192721,"R"
604825,"4118 SIOUX DR","JOHNSON CITY","TN",37604,36.3721120700001,-82.411558003,325,"4118 SIOUX DR, JOHNSON CITY, TN, 37604","Match","Exact","4118 SIOUX DR, JOHNSON CITY, TN, 37604",127942576,"R"
604826,"4118 SOUTH 179TH CIRCLE","OMAHA","NE",68135,41.218750829,-96.195488726,326,"4118 SOUTH 179TH CIRCLE, OMAHA, NE, 68135","Match","Non_Exact","4118 S 179TH ST, OMAHA, NE, 68135",117018963,"R"
604827,"4118 SPARTA BLVD","ATLANTA","GA",30349,NA,NA,327,"4118 SPARTA BLVD, ATLANTA, GA, 30349","No_Match",NA,NA,NA,NA
604828,"4118 STRATHONA","HIGHLAND","MI",48357,42.6751221690001,-83.6319684109999,328,"4118 STRATHONA, HIGHLAND, MI, 48357","Match","Non_Exact","4118 STRATHCONA, HIGHLAND, MI, 48357",69687063,"L"
604829,"4118 SUMMERS HILL LANE","PRINCE GEORGE","VA",23875,37.2583680450001,-77.3056721139999,329,"4118 SUMMERS HILL LANE, PRINCE GEORGE, VA, 23875","Match","Exact","4118 SUMMERS HILL LN, PRINCE GEORGE, VA, 23875",54190966,"L"
604830,"4118 SUNRISE CIR","NORTHPORT","AL",35473,33.2696639070001,-87.59637215,330,"4118 SUNRISE CIR, NORTHPORT, AL, 35473","Match","Exact","4118 SUNRISE CIR, NORTHPORT, AL, 35473",82244419,"R"
604831,"4118 SWEET BAY CIRCLE","WICHITA","KS",67226,37.758316537,-97.250400384,331,"4118 SWEET BAY CIRCLE, WICHITA, KS, 67226","Match","Non_Exact","4118 N SWEET BAY CIR, WICHITA, KS, 67226",115670307,"R"
604832,"4118 TRENT ST","SUGAR LAND","TX",77479,29.5630588500001,-95.6076396019999,332,"4118 TRENT ST, SUGAR LAND, TX, 77479","Match","Exact","4118 TRENT ST, SUGAR LAND, TX, 77479",78287798,"L"
604833,"4118 TWIN DRIVE EAST","SANTA FE","TX",77510,29.3822625830001,-95.096342518,333,"4118 TWIN DRIVE EAST, SANTA FE, TX, 77510","Match","Exact","4118 TWIN DR E, SANTA FE, TX, 77510",96706640,"R"
604834,"4118 VISTA DRIVE","ERIE","PA",16506,42.0688649090001,-80.1484802689999,334,"4118 VISTA DRIVE, ERIE, PA, 16506","Match","Exact","4118 VISTA DR, ERIE, PA, 16506",117508474,"R"
604835,"4118 VT ROUTE 116","STARKSBORO","VT",5487,44.241454827,-73.058344168,335,"4118 VT ROUTE 116, STARKSBORO, VT, 5487","Match","Non_Exact","4118 STATE RTE 116, STARKSBORO, VT, 05487",136454256,"R"
604836,"4118 W 59TH PLACE","GARY","IN",46403,NA,NA,336,"4118 W 59TH PLACE, GARY, IN, 46403","No_Match",NA,NA,NA,NA
604837,"4118 W CULLOM AVENUE","CHICAGO","IL",60641,41.959104187,-87.730127447,337,"4118 W CULLOM AVENUE, CHICAGO, IL, 60641","Match","Exact","4118 W CULLOM AVE, CHICAGO, IL, 60641",605187216,"R"
604838,"4118 W ROOSEVELT DR","MILWAUKEE","WI",53216,43.086799822,-87.964515885,338,"4118 W ROOSEVELT DR, MILWAUKEE, WI, 53216","Match","Exact","4118 W ROOSEVELT DR, MILWAUKEE, WI, 53216",77731699,"R"
604839,"4118 W RUDELLA ROAD","MEQUON","WI",53092,43.2239696020001,-87.960609144,339,"4118 W RUDELLA ROAD, MEQUON, WI, 53092","Match","Exact","4118 W RUDELLA RD, MEQUON, WI, 53092",95908130,"R"
604840,"4118 W VASCONIA ST","TAMPA","FL",33629,27.912447295,-82.512750704,340,"4118 W VASCONIA ST, TAMPA, FL, 33629","Match","Exact","4118 W VASCONIA ST, TAMPA, FL, 33629",104525845,"L"
604841,"4118 WATTERSON ST","CINCINNIATI","OH",45227,39.1503775190001,-84.392491456,341,"4118 WATTERSON ST, CINCINNIATI, OH, 45227","Match","Non_Exact","4118 WATTERSON ST, CINCINNATI, OH, 45227",103933750,"R"
604842,"4118 WEST HORATIO","TAMPA","FL",33609,27.940335351,-82.512488736,342,"4118 WEST HORATIO, TAMPA, FL, 33609","Match","Non_Exact","4118 W HORATIO ST, TAMPA, FL, 33609",104525091,"L"
604843,"4118 WHEAT ST","SACRAMENTO","CA",95821,38.6387012590001,-121.363283593,343,"4118 WHEAT ST, SACRAMENTO, CA, 95821","Match","Exact","4118 WHEAT ST, SACRAMENTO, CA, 95821",133410154,"R"
604844,"4118 WINESAP BEND DRIVE","STAFFORD","TX",77477,29.606277666,-95.570899877,344,"4118 WINESAP BEND DRIVE, STAFFORD, TX, 77477","Match","Exact","4118 WINESAP BEND DR, STAFFORD, TX, 77477",637089789,"R"
604845,"41181 HWY 933","PRAIRIEVILLE","LA",70769,30.3137293730001,-90.916527588,345,"41181 HWY 933, PRAIRIEVILLE, LA, 70769","Match","Non_Exact","41181 STATE RTE 933, PRAIRIEVILLE, LA, 70769",115039371,"R"
604846,"41183 NESTLEWOOD FARM LANE","PAEONIAN SPRINGS","VA",20129,39.154938929,-77.577935372,346,"41183 NESTLEWOOD FARM LANE, PAEONIAN SPRINGS, VA, 20129","Match","Exact","41183 NESTLEWOOD FARM LN, PAEONIAN SPGS, VA, 20129",218935714,"R"
604847,"41184 BLUE OAT COURT","ALDIE","VA",20105,38.90813165,-77.5790557079999,347,"41184 BLUE OAT COURT, ALDIE, VA, 20105","Match","Exact","41184 BLUE OAT CT, ALDIE, VA, 20105",645674493,"R"
604848,"41185 GOLDEN GATE CIR NO 103","MURRIETA","CA",92562,33.5364739730001,-117.175939183,348,"41185 GOLDEN GATE CIR NO 103, MURRIETA, CA, 92562","Match","Non_Exact","41185 GOLDEN GATE CIR, MURRIETA, CA, 92562",194842928,"L"
604849,"4119 139TH ST","URBANDALE","IA",50323,41.634899492,-93.805722821,349,"4119 139TH ST, URBANDALE, IA, 50323","Match","Exact","4119 139TH ST, URBANDALE, IA, 50323",647802421,"R"
604850,"4119 19TH ST","ECORSE","MI",48229,42.2559424390001,-83.159553105,350,"4119 19TH ST, ECORSE, MI, 48229","Match","Exact","4119 19TH ST, ECORSE, MI, 48229",95450685,"L"
604851,"4119 216TH PL SE","BOTHELL","WA",98021,47.8012659680001,-122.174333243,351,"4119 216TH PL SE, BOTHELL, WA, 98021","Match","Exact","4119 216TH PL SE, BOTHELL, WA, 98021",608923189,"R"
604852,"4119 28TH AVENUE","TEMPLE HILLS","MD",20748,38.8335949620001,-76.94673471,352,"4119 28TH AVENUE, TEMPLE HILLS, MD, 20748","Match","Exact","4119 28TH AVE, TEMPLE HILLS, MD, 20748",76361079,"R"
604853,"4119 33RD STREET","CINCINNATI","OH",45209,39.1529904710001,-84.434365138,353,"4119 33RD STREET, CINCINNATI, OH, 45209","Match","Non_Exact","4119 33RD AVE, CINCINNATI, OH, 45209",103930916,"L"
604854,"4119 ALCAZAR ST NE","ALBUQUERQUE","NM",87109,35.1317061140001,-106.56805326,354,"4119 ALCAZAR ST NE, ALBUQUERQUE, NM, 87109","Match","Exact","4119 ALCAZAR ST NE, ALBUQUERQUE, NM, 87109",206735022,"L"
604855,"4119 ALCAZAR ST NE","ALBUQUERQUE","NM",87119,35.1317061140001,-106.56805326,355,"4119 ALCAZAR ST NE, ALBUQUERQUE, NM, 87119","Match","Non_Exact","4119 ALCAZAR ST NE, ALBUQUERQUE, NM, 87109",206735022,"L"
604856,"4119 ANGIE CT","CINCINNATI","OH",45248,39.169048778,-84.675889495,356,"4119 ANGIE CT, CINCINNATI, OH, 45248","Match","Exact","4119 ANGIE CT, CINCINNATI, OH, 45248",103950058,"L"
604857,"4119 APPLE BLOSSOM RD","LUTZ","FL",33558,28.142021056,-82.506352458,357,"4119 APPLE BLOSSOM RD, LUTZ, FL, 33558","Match","Exact","4119 APPLE BLOSSOM RD, LUTZ, FL, 33558",104572948,"R"
604858,"4119 BRIDGETON MEADOWS COURT","BRIDGETON","MO",63044,38.75400339,-90.4082316829999,358,"4119 BRIDGETON MEADOWS COURT, BRIDGETON, MO, 63044","Match","Exact","4119 BRIDGETON MEADOWS CT, BRIDGETON, MO, 63044",100184517,"R"
604859,"4119 BUTLER STREET","PITTSBURGH","PA",15201,40.469861984,-79.9608674579999,359,"4119 BUTLER STREET, PITTSBURGH, PA, 15201","Match","Exact","4119 BUTLER ST, PITTSBURGH, PA, 15201",51642759,"L"
604860,"4119 CHAPEL LAKE DR","DECATUR","GA",30034,33.7014357900001,-84.22039117,360,"4119 CHAPEL LAKE DR, DECATUR, GA, 30034","Match","Exact","4119 CHAPEL LAKE DR, DECATUR, GA, 30034",23387644,"R"
604861,"4119 CHATHAM VIEW DRIVE","BUFORD","GA",30518,34.0829978240001,-84.018382773,361,"4119 CHATHAM VIEW DRIVE, BUFORD, GA, 30518","Match","Exact","4119 CHATHAM VIEW DR, BUFORD, GA, 30518",88929332,"L"
604862,"4119 COMMANCHE AVE","HANNIBAL","MO",63401,39.7191577840001,-91.39467051,362,"4119 COMMANCHE AVE, HANNIBAL, MO, 63401","Match","Non_Exact","4119 COMMANCHE, HANNIBAL, MO, 63401",35342543,"L"
604863,"4119 CROMWELL ROAD","CHATTANOOGA","TN",37421,35.06674587,-85.2036562489999,363,"4119 CROMWELL ROAD, CHATTANOOGA, TN, 37421","Match","Exact","4119 CROMWELL RD, CHATTANOOGA, TN, 37421",605434353,"L"
604864,"4119 DUNCAN IVES DRIVE","BUFORD","GA",30519,34.1053361990001,-83.8928888999999,364,"4119 DUNCAN IVES DRIVE, BUFORD, GA, 30519","Match","Exact","4119 DUNCAN IVES DR, BUFORD, GA, 30519",627612123,"L"
604865,"4119 E MONTE VISTA ROAD","PHOENIX","AZ",85008,33.471181739,-111.993051809,365,"4119 E MONTE VISTA ROAD, PHOENIX, AZ, 85008","Match","Exact","4119 E MONTE VISTA RD, PHOENIX, AZ, 85008",128223688,"R"
604866,"4119 EMERIUS DRIVE","COLUMBUS","OH",43219,40.030176306,-82.904577499,366,"4119 EMERIUS DRIVE, COLUMBUS, OH, 43219","Match","Exact","4119 EMERIUS DR, COLUMBUS, OH, 43219",624000679,"L"
604867,"4119 EUCLID AVE","EAST CHICAGO","IN",46312,41.638603114,-87.4545067779999,367,"4119 EUCLID AVE, EAST CHICAGO, IN, 46312","Match","Exact","4119 EUCLID AVE, EAST CHICAGO, IN, 46312",619750663,"L"
604868,"4119 FAWN DR APT A","HARRISBURG","PA",17112,40.3059497180001,-76.8280538079999,368,"4119 FAWN DR APT A, HARRISBURG, PA, 17112","Match","Exact","4119 FAWN DR, HARRISBURG, PA, 17112",70820414,"R"
604869,"4119 FOREST LEAF CIRCLE","MISSOURI CITY","TX",77459,29.597744667,-95.568505246,369,"4119 FOREST LEAF CIRCLE, MISSOURI CITY, TX, 77459","Match","Exact","4119 FOREST LEAF CIR, MISSOURI CITY, TX, 77459",78281411,"R"
604870,"4119 GEORGIA AVE","KANSAS CITY","KS",66104,39.1359448950001,-94.6779241569999,370,"4119 GEORGIA AVE, KANSAS CITY, KS, 66104","Match","Exact","4119 GEORGIA AVE, KANSAS CITY, KS, 66104",642910519,"L"
604871,"4119 HARNETT-DUNN HWY","DUNN","NC",28334,35.2535862330001,-78.424314362,371,"4119 HARNETT-DUNN HWY, DUNN, NC, 28334","Match","Exact","4119 HARNETT-DUNN HWY, DUNN, NC, 28334",614320527,"R"
604872,"4119 HOYT","ERIE","PA",16510,42.1137051630001,-80.025036615,372,"4119 HOYT, ERIE, PA, 16510","Match","Non_Exact","4119 HOYT ST, ERIE, PA, 16510",117499577,"L"
604873,"4119 LARK STREET","SAN DIEGO","CA",92103,32.7521641590001,-117.175938968,373,"4119 LARK STREET, SAN DIEGO, CA, 92103","Match","Exact","4119 LARK ST, SAN DIEGO, CA, 92103",195341926,"R"
604874,"4119 LAUREL STREET","ANCHORAGE","AK",99508,61.183428899,-149.834453524,374,"4119 LAUREL STREET, ANCHORAGE, AK, 99508","Match","Exact","4119 LAUREL ST, ANCHORAGE, AK, 99508",190825678,"L"
604875,"4119 LLOYD AVE","ERLANGER","KY",41018,39.0177725560001,-84.613860786,375,"4119 LLOYD AVE, ERLANGER, KY, 41018","Match","Exact","4119 LLOYD AVE, ERLANGER, KY, 41018",103872902,"L"
604876,"4119 LYMER DRIVE","SAN DIEGO","CA",92116,32.7676683920001,-117.105765126,376,"4119 LYMER DRIVE, SAN DIEGO, CA, 92116","Match","Exact","4119 LYMER DR, SAN DIEGO, CA, 92116",195698441,"R"
604877,"4119 MATTOS DR","FREMONT","CA",94536,37.55284019,-122.000037056,377,"4119 MATTOS DR, FREMONT, CA, 94536","Match","Exact","4119 MATTOS DR, FREMONT, CA, 94536",125029453,"R"
604878,"4119 MEADE AVE","SAN DIEGO","CA",92116,32.7571001090001,-117.106755829,378,"4119 MEADE AVE, SAN DIEGO, CA, 92116","Match","Exact","4119 MEADE AVE, SAN DIEGO, CA, 92116",612873683,"R"
604879,"4119 MEADOW CREEK","MEMPHIS","TN",38115,35.036398547,-89.865610665,379,"4119 MEADOW CREEK, MEMPHIS, TN, 38115","Match","Non_Exact","4119 MEADOW CREEK RD, MEMPHIS, TN, 38115",72928905,"R"
604880,"4119 MISSION RD","KANSAS CITY","KS",66103,39.0520912470001,-94.621281401,380,"4119 MISSION RD, KANSAS CITY, KS, 66103","Match","Exact","4119 MISSION RD, KANSAS CITY, KS, 66103",91150100,"L"
604881,"4119 MONTROSE BLVD SUITE 300","HOUSTON","TX",77006,29.73596775,-95.391132372,381,"4119 MONTROSE BLVD SUITE 300, HOUSTON, TX, 77006","Match","Exact","4119 MONTROSE BLVD, HOUSTON, TX, 77006",96064659,"L"
604882,"4119 MOUNTAIN VIEW DRIVE","ANCHORAGE","AK",99508,61.2241911250001,-149.804167932,382,"4119 MOUNTAIN VIEW DRIVE, ANCHORAGE, AK, 99508","Match","Exact","4119 MOUNTAIN VIEW DR, ANCHORAGE, AK, 99508",190801524,"L"
604883,"4119 N BOULEVARD PARK","HOUSTON","TX",77098,NA,NA,383,"4119 N BOULEVARD PARK, HOUSTON, TX, 77098","No_Match",NA,NA,NA,NA
604884,"4119 N HANLEY","ST LOUIS","MO",63121,NA,NA,384,"4119 N HANLEY, ST LOUIS, MO, 63121","No_Match",NA,NA,NA,NA
604885,"4119 N HWY 67","FLORISSANT","MO",63034,NA,NA,385,"4119 N HWY 67, FLORISSANT, MO, 63034","No_Match",NA,NA,NA,NA
604886,"4119 NORTH CREEKMONT DRIVE","FRESNO","TX",77545,29.5275541070001,-95.49166939,386,"4119 NORTH CREEKMONT DRIVE, FRESNO, TX, 77545","Match","Exact","4119 N CREEKMONT DR, FRESNO, TX, 77545",641165295,"L"
604887,"4119 NW 10 STREET","LAUDERHILL","FL",33313,NA,NA,387,"4119 NW 10 STREET, LAUDERHILL, FL, 33313","No_Match",NA,NA,NA,NA
604888,"4119 OLD LEXINGTON ROAD","WINSTON-SALEM","NC",27107,36.030166792,-80.215095178,388,"4119 OLD LEXINGTON ROAD, WINSTON-SALEM, NC, 27107","Match","Exact","4119 OLD LEXINGTON RD, WINSTON SALEM, NC, 27107",84700400,"L"
604889,"4119 PEBBLE BEACH DRIVE","STOCKTON","CA",95219,37.9712380490001,-121.369471223,389,"4119 PEBBLE BEACH DRIVE, STOCKTON, CA, 95219","Match","Exact","4119 PEBBLE BEACH DR, STOCKTON, CA, 95219",133928696,"R"
604890,"4119 PETTUS RD","RICHMOND","VA",23234,37.4752787570001,-77.473187175,390,"4119 PETTUS RD, RICHMOND, VA, 23234","Match","Exact","4119 PETTUS RD, RICHMOND, VA, 23234",201545483,"L"
604891,"4119 PINE MEADOW DRIVE","PARRISH","FL",34219,27.550413383,-82.44995033,391,"4119 PINE MEADOW DRIVE, PARRISH, FL, 34219","Match","Non_Exact","4119 PINE MEADOWS DR, PARRISH, FL, 34219",645919030,"L"
604892,"4119 PRYTANIA ST","NEW ORLEANS","LA",70115,29.9252757250001,-90.09865063,392,"4119 PRYTANIA ST, NEW ORLEANS, LA, 70115","Match","Exact","4119 PRYTANIA ST, NEW ORLEANS, LA, 70115",191713011,"R"
604893,"4119 R AVE","ANACORTES","WA",98221,48.4869910520001,-122.610422145,393,"4119 R AVE, ANACORTES, WA, 98221","Match","Exact","4119 R AVE, ANACORTES, WA, 98221",183647502,"R"
604894,"4119 ROUTE 26","EATON","NY",13334,42.850202181,-75.6088158759999,394,"4119 ROUTE 26, EATON, NY, 13334","Match","Non_Exact","4119 STATE RTE 26, EATON, NY, 13334",46500968,"L"
604895,"4119 SAGE BRUSH COURT","MANVEL","TX",77578,29.524729843,-95.37826416,395,"4119 SAGE BRUSH COURT, MANVEL, TX, 77578","Match","Non_Exact","4119 SAGEBRUSH CT, MANVEL, TX, 77578",641630717,"L"
604896,"4119 SAINT CLAIR BRIDGE ROAD","JARRETTSVILLE","MD",21084,39.6463820920001,-76.4294408389999,396,"4119 SAINT CLAIR BRIDGE ROAD, JARRETTSVILLE, MD, 21084","Match","Exact","4119 SAINT CLAIR BRIDGE RD, JARRETTSVILLE, MD, 21084",191665223,"R"
604897,"4119 SANTA ROSALIA DRIVE APT D","LOS ANGELES","CA",90008,34.0125129250001,-118.343754454,397,"4119 SANTA ROSALIA DRIVE APT D, LOS ANGELES, CA, 90008","Match","Exact","4119 SANTA ROSALIA DR, LOS ANGELES, CA, 90008",141602311,"R"
604898,"4119 SPLIT ROCK RD","CAMILLUS","NY",13031,43.0216451810001,-76.229340587,398,"4119 SPLIT ROCK RD, CAMILLUS, NY, 13031","Match","Exact","4119 SPLIT ROCK RD, CAMILLUS, NY, 13031",46624567,"L"
604899,"4119 SPRINGFIELD ROAD","HENRICO","VA",23294,37.6458525260001,-77.5596267879999,399,"4119 SPRINGFIELD ROAD, HENRICO, VA, 23294","Match","Exact","4119 SPRINGFIELD RD, HENRICO, VA, 23294",106687532,"R"
604900,"4119 STATE HWY 304","ROSANKY","TX",78953,29.868655555,-97.3676584039999,400,"4119 STATE HWY 304, ROSANKY, TX, 78953","Match","Exact","4119 STATE HWY 304, ROSANKY, TX, 78953",45460246,"R"
604901,"4119 STEED GRANT WAY","FORT WASHINGTON","MD",20744,38.759581946,-76.95474458,401,"4119 STEED GRANT WAY, FORT WASHINGTON, MD, 20744","Match","Non_Exact","4119 STEEDS GRANT WAY, FT WASHINGTON, MD, 20744",76348866,"R"
604902,"4119 STONECREST DRIVE APT 208","BURLINGTON","NC",27215,36.0671600370001,-79.525520665,402,"4119 STONECREST DRIVE APT 208, BURLINGTON, NC, 27215","Match","Exact","4119 STONECREST DR, BURLINGTON, NC, 27215",652537430,"R"
604903,"4119 W 10TH N","WICHITA","KS",67212,37.7033879580001,-97.391090417,403,"4119 W 10TH N, WICHITA, KS, 67212","Match","Non_Exact","4119 W 10TH ST N, WICHITA, KS, 67212",115630778,"L"
604904,"4119 W 147TH ST","LAWNDALE","CA",90260,33.8982892440001,-118.346819008,404,"4119 W 147TH ST, LAWNDALE, CA, 90260","Match","Exact","4119 W 147TH ST, LAWNDALE, CA, 90260",142752636,"R"
604905,"4119 W GRENSHAW","CHICAGO","IL",60624,41.8670364320001,-87.7282297099999,405,"4119 W GRENSHAW, CHICAGO, IL, 60624","Match","Non_Exact","4119 W GRENSHAW ST, CHICAGO, IL, 60624",111798642,"L"
604906,"4119 WIDGEON LN","HUDSONVILLE","MI",49426,42.9087362600001,-85.885598597,406,"4119 WIDGEON LN, HUDSONVILLE, MI, 49426","Match","Exact","4119 WIDGEON LN, HUDSONVILLE, MI, 49426",642910950,"L"
604907,"4119 WILLIAM STYRON SQUARE NORTH","NEWPORT NEWS","VA",23606,37.084096683,-76.488361981,407,"4119 WILLIAM STYRON SQUARE NORTH, NEWPORT NEWS, VA, 23606","Match","Exact","4119 WILLIAM STYRON SQ N, NEWPORT NEWS, VA, 23606",618472887,"R"
604908,"4119 WILLOWBROOK","SAN ANTONIO","TX",78228,29.4803302600001,-98.565999517,408,"4119 WILLOWBROOK, SAN ANTONIO, TX, 78228","Match","Non_Exact","4119 WILLOWBROOK DR, SAN ANTONIO, TX, 78228",101509909,"R"
604909,"4119","FREMONT","CA",94536,NA,NA,409,"4119, FREMONT, CA, 94536","No_Match",NA,NA,NA,NA
604910,"41190 ROAD 769","GOTHENBURG","NE",69138,40.9741691150001,-100.148164394,410,"41190 ROAD 769, GOTHENBURG, NE, 69138","Match","Exact","41190 RD 769, GOTHENBURG, NE, 69138",137907917,"R"
604911,"41196 TURKEY OAK DR","ALDIE","VA",20105,38.938097612,-77.5767328169999,411,"41196 TURKEY OAK DR, ALDIE, VA, 20105","Match","Exact","41196 TURKEY OAK DR, ALDIE, VA, 20105",645739195,"L"
604912,"41197 SAINT ANTHONY DR","FREMONT","CA",94539,37.546890794,-121.939267841,412,"41197 SAINT ANTHONY DR, FREMONT, CA, 94539","Match","Exact","41197 SAINT ANTHONY DR, FREMONT, CA, 94539",125033506,"R"
604913,"411A HIGHLAND AVE SUITE 351","SOMERVILLE","MA",2144,42.395840256,-71.1208040989999,413,"411A HIGHLAND AVE SUITE 351, SOMERVILLE, MA, 2144","Match","Exact","411 HIGHLAND AVE, SOMERVILLE, MA, 02144",86856087,"R"
604914,"411A HIGHLAND AVENUE AND 353","SOMERVILLE","MA",2144,42.395840256,-71.1208040989999,414,"411A HIGHLAND AVENUE AND 353, SOMERVILLE, MA, 2144","Match","Exact","411 HIGHLAND AVE, SOMERVILLE, MA, 02144",86856087,"R"
604915,"411WEST WASHINGTON STREET","PITTSFIELD","IL",62363,NA,NA,415,"411WEST WASHINGTON STREET, PITTSFIELD, IL, 62363","No_Match",NA,NA,NA,NA
604916,"412  BARR ST","LANCASTER","SC",29720,NA,NA,416,"412  BARR ST, LANCASTER, SC, 29720","Tie",NA,NA,NA,NA
604917,"412  QUEEN STREET","GREENVILLE","SC",29611,34.849831518,-82.4209436629999,417,"412  QUEEN STREET, GREENVILLE, SC, 29611","Match","Exact","412 QUEEN ST, GREENVILLE, SC, 29611",38318792,"R"
604918,"412 1/2 COURT STREET","SAVANNAH","MO",64485,39.9410671420001,-94.829001164,418,"412 1/2 COURT STREET, SAVANNAH, MO, 64485","Match","Exact","412 COURT ST, SAVANNAH, MO, 64485",15923592,"L"
604919,"412 109TH ST SE","EVERETT","WA",98208,47.8994891510001,-122.226525536,419,"412 109TH ST SE, EVERETT, WA, 98208","Match","Exact","412 109TH ST SE, EVERETT, WA, 98208",187799856,"R"
604920,"412 10TH AVE W","HUNTINGTON","WV",25701,38.4109278610001,-82.449735916,420,"412 10TH AVE W, HUNTINGTON, WV, 25701","Match","Non_Exact","412 10TH AVE, HUNTINGTON, WV, 25701",101317543,"L"
604921,"412 10TH STREET","AMES","IA",50010,42.031269788,-93.615773899,421,"412 10TH STREET, AMES, IA, 50010","Match","Exact","412 10TH ST, AMES, IA, 50010",647660099,"L"
604922,"412 12TH ST SE","CHARLESTON","WV",25314,38.3420638010001,-81.634507151,422,"412 12TH ST SE, CHARLESTON, WV, 25314","Match","Exact","412 12TH ST SE, CHARLESTON, WV, 25314",78647653,"L"
604923,"412 13TH AVENUE NORTH","CASSELTON","ND",58012,46.9043061580001,-97.2027616729999,423,"412 13TH AVENUE NORTH, CASSELTON, ND, 58012","Match","Exact","412 13TH AVE N, CASSELTON, ND, 58012",151433328,"L"
604924,"412 13TH COURT NW","BIRMINGHAM","AL",35215,33.6206567730001,-86.693851357,424,"412 13TH COURT NW, BIRMINGHAM, AL, 35215","Match","Exact","412 13TH CT NW, BIRMINGHAM, AL, 35215",651789447,"R"
604925,"412 13TH COURT NW","CENTER POINT","AL",35215,33.6206567730001,-86.693851357,425,"412 13TH COURT NW, CENTER POINT, AL, 35215","Match","Exact","412 13TH CT NW, CENTER POINT, AL, 35215",651789447,"R"
604926,"412 13TH STREET","HERON LAKE","MN",56137,43.7910036870001,-95.321721496,426,"412 13TH STREET, HERON LAKE, MN, 56137","Match","Exact","412 13TH ST, HERON LAKE, MN, 56137",9936645,"L"
604927,"412 14 1/2 AVENUE","ALMENA","WI",54805,45.416979429,-92.071717115,427,"412 14 1/2 AVENUE, ALMENA, WI, 54805","Match","Exact","412 14 1/2 AVE, ALMENA, WI, 54805",126294041,"R"
604928,"412 164TH AVE NE","BELLEVUE","WA",98008,47.6135875150001,-122.121493044,428,"412 164TH AVE NE, BELLEVUE, WA, 98008","Match","Exact","412 164TH AVE NE, BELLEVUE, WA, 98008",186614386,"R"
604929,"412 1ST ST SW","BADGER","IA",50516,42.6116131140001,-94.148276169,429,"412 1ST ST SW, BADGER, IA, 50516","Match","Exact","412 1ST ST SW, BADGER, IA, 50516",66087233,"L"
604930,"412 20TH ST S","LA CROSSE","WI",54601,43.8064723580001,-91.2264380989999,430,"412 20TH ST S, LA CROSSE, WI, 54601","Match","Exact","412 20TH ST S, LA CROSSE, WI, 54601",51012910,"R"
604931,"412 228TH ST SW UNIT 201","BOTHELL","WA",98021,47.7914201190001,-122.238715104,431,"412 228TH ST SW UNIT 201, BOTHELL, WA, 98021","Match","Exact","412 228TH ST SW, BOTHELL, WA, 98021",608921445,"R"
604932,"412 22ND AVE S","MINNEAPOLIS","MN",55455,44.9691276190001,-93.240911516,432,"412 22ND AVE S, MINNEAPOLIS, MN, 55455","Match","Exact","412 22ND AVE S, MINNEAPOLIS, MN, 55455",640598202,"R"
604933,"412 2ND AVE SE","FAYETTE","AL",35555,33.6822308370001,-87.829065165,433,"412 2ND AVE SE, FAYETTE, AL, 35555","Match","Exact","412 2ND AVE SE, FAYETTE, AL, 35555",120516506,"L"
604934,"412 31TH AVE","GRINNELL","IA",50112,NA,NA,434,"412 31TH AVE, GRINNELL, IA, 50112","No_Match",NA,NA,NA,NA
604935,"412 33RD STREET SW","ROCHESTER","MN",55902,43.9752990910001,-92.467853492,435,"412 33RD STREET SW, ROCHESTER, MN, 55902","Match","Exact","412 33RD ST SW, ROCHESTER, MN, 55902",30553219,"L"
604936,"412 36TH STREET","SAN DIEGO","CA",92102,32.710041984,-117.116573469,436,"412 36TH STREET, SAN DIEGO, CA, 92102","Match","Exact","412 36TH ST, SAN DIEGO, CA, 92102",612871586,"L"
604937,"412 37TH PL SE APT 102","WASHINGTON","DC",20019,38.8839468360001,-76.9499005059999,437,"412 37TH PL SE APT 102, WASHINGTON, DC, 20019","Match","Exact","412 37TH PL SE, WASHINGTON, DC, 20019",76233639,"L"
604938,"412 3RD AVE APT 105","GRINNELL","IA",50112,41.741770914,-92.7314355949999,438,"412 3RD AVE APT 105, GRINNELL, IA, 50112","Match","Non_Exact","412 3RD AVE W, GRINNELL, IA, 50112",89574999,"R"
604939,"412 3RD AVE NE","BAUDETTE","MN",56623,48.714858566,-94.592395811,439,"412 3RD AVE NE, BAUDETTE, MN, 56623","Match","Exact","412 3RD AVE NE, BAUDETTE, MN, 56623",176525781,"R"
604940,"412 3RD ST NORTH","TEXAS CITY","TX",77590,29.3884539690001,-94.8979929879999,440,"412 3RD ST NORTH, TEXAS CITY, TX, 77590","Match","Exact","412 3RD ST N, TEXAS CITY, TX, 77590",96689123,"R"
604941,"412 42ND ST","OAKLAND","CA",94609,37.831043505,-122.25968172,441,"412 42ND ST, OAKLAND, CA, 94609","Match","Exact","412 42ND ST, OAKLAND, CA, 94609",125000121,"R"
604942,"412 47TH AVE","BELLWOOD","IL",60104,41.884742745,-87.890666901,442,"412 47TH AVE, BELLWOOD, IL, 60104","Match","Exact","412 47TH AVE, BELLWOOD, IL, 60104",111726800,"R"
604943,"412 55TH STREET","CLARENDON HILLS","IL",60514,NA,NA,443,"412 55TH STREET, CLARENDON HILLS, IL, 60514","No_Match",NA,NA,NA,NA
604944,"412 7TH AVE APT 4F","BROOKLYN","NY",11215,40.664299296,-73.983752083,444,"412 7TH AVE APT 4F, BROOKLYN, NY, 11215","Match","Exact","412 7TH AVE, BROOKLYN, NY, 11215",59078259,"R"
604945,"412 7TH ST","KENTWOOD","LA",70444,30.940084717,-90.512547572,445,"412 7TH ST, KENTWOOD, LA, 70444","Match","Exact","412 7TH ST, KENTWOOD, LA, 70444",75742715,"R"
604946,"412 7TH STREET","KENTWOOD","LA",70444,30.940084717,-90.512547572,446,"412 7TH STREET, KENTWOOD, LA, 70444","Match","Exact","412 7TH ST, KENTWOOD, LA, 70444",75742715,"R"
604947,"412 8TH AVENUE APT B4","BROOKLYN","NY",11215,40.668663919,-73.976801112,447,"412 8TH AVENUE APT B4, BROOKLYN, NY, 11215","Match","Exact","412 8TH AVE, BROOKLYN, NY, 11215",59078244,"R"
604948,"412 8TH STREET","PHILLIPS","NE",68865,NA,NA,448,"412 8TH STREET, PHILLIPS, NE, 68865","No_Match",NA,NA,NA,NA
604949,"412 A BROMLEY PLACE","WYCKOFF","GA",7481,NA,NA,449,"412 A BROMLEY PLACE, WYCKOFF, GA, 7481","No_Match",NA,NA,NA,NA
604950,"412 ABBY ROAD","THIBODAUX","LA",70301,29.8136538210001,-90.839773798,450,"412 ABBY ROAD, THIBODAUX, LA, 70301","Match","Exact","412 ABBY RD, THIBODAUX, LA, 70301",92345824,"R"
604951,"412 ABE CIRCLE","COLUMBIA","SC",29223,34.1212363220001,-80.891008705,451,"412 ABE CIRCLE, COLUMBIA, SC, 29223","Match","Exact","412 ABE CIR, COLUMBIA, SC, 29223",645309319,"R"
604952,"412 ACKLINGTON DRIVE","ANNA","TX",75409,33.3471151900001,-96.5592424439999,452,"412 ACKLINGTON DRIVE, ANNA, TX, 75409","Match","Exact","412 ACKLINGTON DR, ANNA, TX, 75409",619947829,"R"
604953,"412 ADAMSON SQUARE","CARROLLTON","GA",30117,33.580301187,-85.075142506,453,"412 ADAMSON SQUARE, CARROLLTON, GA, 30117","Match","Exact","412 ADAMSON SQ, CARROLLTON, GA, 30117",17134924,"R"
604954,"412 AFTER GLOW SUMMIT","CANTON","GA",30114,34.283100959,-84.486054439,454,"412 AFTER GLOW SUMMIT, CANTON, GA, 30114","Match","Non_Exact","412 AFTERGLOW SUMMIT, CANTON, GA, 30114",625653947,"R"
604955,"412 ALABAMA ST","LAKE WALES","FL",33853,27.9156524370001,-81.597793446,455,"412 ALABAMA ST, LAKE WALES, FL, 33853","Match","Exact","412 ALABAMA ST, LAKE WALES, FL, 33853",104831313,"R"
604956,"412 ALEXANDER","KINGSVILLE","TX",78363,NA,NA,456,"412 ALEXANDER, KINGSVILLE, TX, 78363","No_Match",NA,NA,NA,NA
604957,"412 ALYSSA STREET","TOMAH","WI",54660,43.99217988,-90.5344519,457,"412 ALYSSA STREET, TOMAH, WI, 54660","Match","Exact","412 ALYSSA ST, TOMAH, WI, 54660",653394134,"L"
604958,"412 AMBER LN","DESOTO","TX",75115,32.577551317,-96.850576716,458,"412 AMBER LN, DESOTO, TX, 75115","Match","Exact","412 AMBER LN, DESOTO, TX, 75115",102972684,"L"
604959,"412 AMBOY ST","BROOKLYN","NY",11212,40.6600838200001,-73.912199986,459,"412 AMBOY ST, BROOKLYN, NY, 11212","Match","Exact","412 AMBOY ST, BROOKLYN, NY, 11212",59084079,"R"
604960,"412 AMSTERDAM AVE APT 3N","NEW YORK","NY",10024,40.783636207,-73.977975573,460,"412 AMSTERDAM AVE APT 3N, NEW YORK, NY, 10024","Match","Exact","412 AMSTERDAM AVE, NEW YORK, NY, 10024",59656681,"L"
604961,"412 ANN CIR","NEWPORT","TN",37821,35.956132752,-83.191880324,461,"412 ANN CIR, NEWPORT, TN, 37821","Match","Exact","412 ANN CIR, NEWPORT, TN, 37821",132773384,"L"
604962,"412 ANN STREET","WILMINGTON","NC",28401,34.231920174,-77.944003949,462,"412 ANN STREET, WILMINGTON, NC, 28401","Match","Exact","412 ANN ST, WILMINGTON, NC, 28401",152730941,"R"
604963,"412 APPOMATTOX DR","SPRINGFIELD","IL",62711,39.8053904660001,-89.732206337,463,"412 APPOMATTOX DR, SPRINGFIELD, IL, 62711","Match","Exact","412 APPOMATTOX DR, SPRINGFIELD, IL, 62711",97361601,"R"
604964,"412 ARKANSAS STREET","CAMDEN","AR",71701,NA,NA,464,"412 ARKANSAS STREET, CAMDEN, AR, 71701","No_Match",NA,NA,NA,NA
604965,"412 ASBURY RD","RIO RANCHO","NM",87124,35.2643890840001,-106.652410511,465,"412 ASBURY RD, RIO RANCHO, NM, 87124","Match","Non_Exact","412 ASBURY RD NE, RIO RANCHO, NM, 87124",630122297,"L"
604966,"412 ASHBOURNE AVE","LINDENWOLD","NJ",8021,39.8108177350001,-74.965901972,466,"412 ASHBOURNE AVE, LINDENWOLD, NJ, 8021","Match","Exact","412 ASHBOURNE AVE, LINDENWOLD, NJ, 08021",134362279,"L"
604967,"412 ASHBROOK CIRCLE","EBENSBURG","PA",15931,40.471157928,-78.7387512289999,467,"412 ASHBROOK CIRCLE, EBENSBURG, PA, 15931","Match","Exact","412 ASHBROOK CIR, EBENSBURG, PA, 15931",50268039,"L"
604968,"412 ASHBURN LANE","DURHAM","NC",27703,35.9709535490001,-78.794762288,468,"412 ASHBURN LANE, DURHAM, NC, 27703","Match","Exact","412 ASHBURN LN, DURHAM, NC, 27703",633682031,"L"
604969,"412 AUBURN HILLS DRIVE","RALEIGH","NC",27606,NA,NA,469,"412 AUBURN HILLS DRIVE, RALEIGH, NC, 27606","No_Match",NA,NA,NA,NA
604970,"412 AUDREY DR","DUPO","IL",62234,38.5258092060001,-90.2036431829999,470,"412 AUDREY DR, DUPO, IL, 62234","Match","Non_Exact","412 AUDRY DR, DUPO, IL, 62239",624426762,"L"
604971,"412 AURORA AVENUE","ST. PAUL","MN",55103,44.954890902,-93.117468945,471,"412 AURORA AVENUE, ST. PAUL, MN, 55103","Match","Exact","412 AURORA AVE, SAINT PAUL, MN, 55103",97670253,"L"
604972,"412 AVE SANTA BARBARA  SUITE 5","SAN CLEMENTE","CA",92673,33.4219747070001,-117.617037266,472,"412 AVE SANTA BARBARA  SUITE 5, SAN CLEMENTE, CA, 92673","Match","Non_Exact","412 AVE SANTA BARBARA, SAN CLEMENTE, CA, 92672",648644634,"R"
604973,"412 B HILO DRIVE","CHARLOTTE","NC",28206,35.2574059250001,-80.80562438,473,"412 B HILO DRIVE, CHARLOTTE, NC, 28206","Match","Exact","412 HILO DR, CHARLOTTE, NC, 28206",636704495,"R"
604974,"412 BARRETT ST","PROVIDENCE","KY",42450,37.3974351460001,-87.767381652,474,"412 BARRETT ST, PROVIDENCE, KY, 42450","Match","Exact","412 BARRETT ST, PROVIDENCE, KY, 42450",12120859,"R"
604975,"412 BEACH 29TH STREET","QUEENS","NY",11691,40.5974325340001,-73.762383563,475,"412 BEACH 29TH STREET, QUEENS, NY, 11691","Match","Non_Exact","412 BEACH 29TH ST, FAR ROCKAWAY, NY, 11691",59723616,"R"
604976,"412 BEAVER ST","GENOA","WI",54632,NA,NA,476,"412 BEAVER ST, GENOA, WI, 54632","No_Match",NA,NA,NA,NA
604977,"412 BEDFORD AVE","BEDFORD","VA",24523,37.337076337,-79.524863868,477,"412 BEDFORD AVE, BEDFORD, VA, 24523","Match","Exact","412 BEDFORD AVE, BEDFORD, VA, 24523",62708195,"R"
604978,"412 BEECH BRANCH DR","IRMO","SC",29063,34.1356592060001,-81.1505866049999,478,"412 BEECH BRANCH DR, IRMO, SC, 29063","Match","Exact","412 BEECH BRANCH DR, IRMO, SC, 29063",604759926,"R"
604979,"412 BEECH STREET","ROME","NY",13440,43.2397364400001,-75.4432878819999,479,"412 BEECH STREET, ROME, NY, 13440","Match","Exact","412 BEECH ST, ROME, NY, 13440",171521583,"R"
604980,"412 BENNETT FARMS PLACE","ACWORTH","GA",30102,34.1187123400001,-84.604488562,480,"412 BENNETT FARMS PLACE, ACWORTH, GA, 30102","Match","Exact","412 BENNETT FARMS PL, ACWORTH, GA, 30102",68839996,"R"
604981,"412 BENT LEAF COURT","CHARLOTTE","NC",28216,35.286153128,-80.86852673,481,"412 BENT LEAF COURT, CHARLOTTE, NC, 28216","Match","Exact","412 BENT LEAF CT, CHARLOTTE, NC, 28216",70561894,"R"
604982,"412 BERKSHIRE COURT","JOPPA","MD",21085,39.3993460730001,-76.337822962,482,"412 BERKSHIRE COURT, JOPPA, MD, 21085","Match","Exact","412 BERKSHIRE CT, JOPPA, MD, 21085",191644388,"R"
604983,"412 BEVERLY PLACE","VIRGINIA BEACH","VA",23452,36.8458440530001,-76.0871057479999,483,"412 BEVERLY PLACE, VIRGINIA BEACH, VA, 23452","Match","Exact","412 BEVERLY PL, VA BCH, VA, 23452",122266897,"R"
604984,"412 BIGHAM STREET","PITTSBURGH","PA",15211,40.431794751,-80.015453006,484,"412 BIGHAM STREET, PITTSBURGH, PA, 15211","Match","Exact","412 BIGHAM ST, PITTSBURGH, PA, 15211",51633525,"R"
604985,"412 BRADLEY STREET","WATERTOWN","WI",53094,43.183377916,-88.6948621399999,485,"412 BRADLEY STREET, WATERTOWN, WI, 53094","Match","Exact","412 BRADLEY ST, WATERTOWN, WI, 53094",53224527,"R"
604986,"412 BRAEMAR ROAD","SHREVEPORT","LA",71106,32.373504236,-93.714579721,486,"412 BRAEMAR ROAD, SHREVEPORT, LA, 71106","Match","Non_Exact","412 BRAEMER RD, SHREVEPORT, LA, 71106",57487712,"R"
604987,"412 BRENTWOOD CIR","BRUNWICK","GA",31523,31.1848856610001,-81.5471568849999,487,"412 BRENTWOOD CIR, BRUNWICK, GA, 31523","Match","Non_Exact","412 BRENTWOOD CIR, BRUNSWICK, GA, 31523",9145641,"R"
604988,"412 BRIAR PLACE","ITASCA","IL",60143,41.9749016750001,-88.0051711039999,488,"412 BRIAR PLACE, ITASCA, IL, 60143","Match","Exact","412 BRIAR PL, ITASCA, IL, 60143",112523882,"L"
604989,"412 BRIARVISTA WAY NE","ATLANTA","GA",30329,33.8157441930001,-84.332057012,489,"412 BRIARVISTA WAY NE, ATLANTA, GA, 30329","Match","Exact","412 BRIARVISTA WAY NE, ATLANTA, GA, 30329",619384182,"L"
604990,"412 BRIDALWOOD DR","MANDEVILLE","LA",70448,30.3818986630001,-90.0718463699999,490,"412 BRIDALWOOD DR, MANDEVILLE, LA, 70448","Match","Exact","412 BRIDALWOOD DR, MANDEVILLE, LA, 70448",611483764,"R"
604991,"412 BRIDGESTONE PLACE","FLORENCE","MS",39073,32.146891268,-90.144938563,491,"412 BRIDGESTONE PLACE, FLORENCE, MS, 39073","Match","Exact","412 BRIDGESTONE PL, FLORENCE, MS, 39073",614382767,"R"
604992,"412 BROCK BRIDGE ROAD","LAUREL","MD",20724,39.086859889,-76.823051731,492,"412 BROCK BRIDGE ROAD, LAUREL, MD, 20724","Match","Exact","412 BROCK BRIDGE RD, LAUREL, MD, 20724",68204235,"R"
604993,"412 BROOK ROAD","TOWSON","MD",21286,39.3953731120001,-76.591335407,493,"412 BROOK ROAD, TOWSON, MD, 21286","Match","Exact","412 BROOK RD, TOWSON, MD, 21286",191475363,"L"
604994,"412 BROWN STREET","PHILADELPHIA","PA",19123,39.963863937,-75.144878438,494,"412 BROWN STREET, PHILADELPHIA, PA, 19123","Match","Exact","412 BROWN ST, PHILADELPHIA, PA, 19123",131422929,"L"
604995,"412 BROWNS ROAD","MANSFIELD","CT",6268,41.7646872920001,-72.236953752,495,"412 BROWNS ROAD, MANSFIELD, CT, 6268","Match","Non_Exact","412 BROWNS RD, STORRS MANSFIELD, CT, 06268",56992962,"L"
604996,"412 BRYANT STREET","SAN FRANCISCO","CA",94107,37.782820026,-122.393954041,496,"412 BRYANT STREET, SAN FRANCISCO, CA, 94107","Match","Exact","412 BRYANT ST, SAN FRANCISCO, CA, 94107",192289418,"R"
604997,"412 BUENA TIERRA CT","WINDSOR","CA",95492,38.558510875,-122.791983902,497,"412 BUENA TIERRA CT, WINDSOR, CA, 95492","Match","Exact","412 BUENA TIERRA CT, WINDSOR, CA, 95492",67511798,"R"
604998,"412 BURNING TREE ROAD","CHERRY HILL","NJ",8034,39.898941333,-74.9926186499999,498,"412 BURNING TREE ROAD, CHERRY HILL, NJ, 8034","Match","Exact","412 BURNING TREE RD, CHERRY HILL, NJ, 08034",134357961,"R"
604999,"412 BURNT MILLS AVENUE","SILVER SPRING","MD",20901,39.0366298550001,-77.001655043,499,"412 BURNT MILLS AVENUE, SILVER SPRING, MD, 20901","Match","Exact","412 BURNT MILLS AVE, SILVER SPRING, MD, 20901",62069079,"L"
605000,"412 BUTTERNUT STREET  NW","WASHINGTON","DC",20011,38.9736066620001,-77.0183703,500,"412 BUTTERNUT STREET  NW, WASHINGTON, DC, 20011","Match","Non_Exact","412 BUTTERNUT ST NW, WASHINGTON, DC, 20012",76221932,"L"
