"ID","Address","City","State","Zip","lat","long","id","input_address","match_indicator","match_type","matched_address","tiger_line_id","tiger_side"
333501,"21 WOODMEADOW DRIVE","SALEM","NH",3079,42.794130459,-71.212655207,1,"21 WOODMEADOW DRIVE, SALEM, NH, 3079","Match","Exact","21 WOODMEADOW DR, SALEM, NH, 03079",113712282,"L"
333502,"21 WOODMERE DRIVE","EATONTOWN","NJ",7724,40.2803835570001,-74.0645727739999,2,"21 WOODMERE DRIVE, EATONTOWN, NJ, 7724","Match","Exact","21 WOODMERE DR, EATONTOWN, NJ, 07724",90455399,"R"
333503,"21 WOODSPELL RD","SCARBOROUGH","ME",4074,43.6101137810001,-70.33314703,3,"21 WOODSPELL RD, SCARBOROUGH, ME, 4074","Match","Exact","21 WOODSPELL RD, SCARBOROUGH, ME, 04074",645511846,"R"
333504,"21 WOODSTREAM LN","GREENSBORO","NC",27410,36.0857563710001,-79.917270558,4,"21 WOODSTREAM LN, GREENSBORO, NC, 27410","Match","Exact","21 WOODSTREAM LN, GREENSBORO, NC, 27410",131025717,"R"
333505,"21 WOODVILLE ALTON ROAD","WOOD RIVER","RI",2894,41.440168898,-71.722878526,5,"21 WOODVILLE ALTON ROAD, WOOD RIVER, RI, 2894","Match","Non_Exact","21 WOODVILLE ALTON RD, WOOD RIVER JT, RI, 02894",636488526,"L"
333506,"21 WOOLF AVE","IOWA CITY","IA",52246,41.6634491610001,-91.549932809,6,"21 WOOLF AVE, IOWA CITY, IA, 52246","Match","Exact","21 WOOLF AVE, IOWA CITY, IA, 52246",638303620,"L"
333507,"21 WORMWOOD ST APT 504","BOSTON","MA",2210,42.347396852,-71.050234113,7,"21 WORMWOOD ST APT 504, BOSTON, MA, 2210","Match","Exact","21 WORMWOOD ST, BOSTON, MA, 02210",85730636,"R"
333508,"21 WYMAN R","GROTON","MA",1450,42.6541069800001,-71.55439756,8,"21 WYMAN R, GROTON, MA, 1450","Match","Exact","21 WYMAN RD, GROTON, MA, 01450",86840966,"L"
333509,"21 WYNDHAM KNOB","PAKERSBURG","WV",26104,39.301070608,-81.531659593,9,"21 WYNDHAM KNOB, PAKERSBURG, WV, 26104","Match","Non_Exact","21 WYNDHAM KNOB RD, PARKERSBURG, WV, 26104",90908213,"L"
333510,"21 WYNDHAM KNOB","PARKERSBURG","WV",26104,39.301070608,-81.531659593,10,"21 WYNDHAM KNOB, PARKERSBURG, WV, 26104","Match","Non_Exact","21 WYNDHAM KNOB RD, PARKERSBURG, WV, 26104",90908213,"L"
333511,"21 YALE ST","PORT JEFF STA","NY",11776,40.909724064,-73.0549374729999,11,"21 YALE ST, PORT JEFF STA, NY, 11776","Match","Exact","21 YALE ST, PORT JEFF STA, NY, 11776",114002886,"L"
333512,"21 YATES AVE","WATERBURY","CT",6710,41.5668109850001,-73.0438143379999,12,"21 YATES AVE, WATERBURY, CT, 6710","Match","Exact","21 YATES AVE, WATERBURY, CT, 06710",3728893,"L"
333513,"21 YELLOW ROSE LN","EASTON","PA",18045,40.6673963310001,-75.2485287339999,13,"21 YELLOW ROSE LN, EASTON, PA, 18045","Match","Exact","21 YELLOW ROSE LN, EASTON, PA, 18045",642779565,"L"
333514,"21 YELLOW TAIL COVE","SUNSET VALLEY","TX",78745,30.2246150020001,-97.814709014,14,"21 YELLOW TAIL COVE, SUNSET VALLEY, TX, 78745","Match","Exact","21 YELLOW TAIL COVE, SUNSET VALLEY, TX, 78745",64037115,"L"
333515,"21 YORK ROAD","EDGERTON","WI",53534,42.8321328700001,-89.06333295,15,"21 YORK ROAD, EDGERTON, WI, 53534","Match","Exact","21 YORK RD, EDGERTON, WI, 53534",49905624,"R"
333516,"21 YORKTOWN ROAD","CARMEL","NY",10512,41.459907754,-73.661025278,16,"21 YORKTOWN ROAD, CARMEL, NY, 10512","Match","Exact","21 YORKTOWN RD, CARMEL, NY, 10512",139710942,"R"
333517,"21 YOUNG CIRCLE","HANOVER","PA",17331,39.802736141,-76.9918355569999,17,"21 YOUNG CIRCLE, HANOVER, PA, 17331","Match","Exact","21 YOUNG CIR, HANOVER, PA, 17331",88709980,"L"
333518,"21- 15 77TH STREET","EAST ELMHURST","NY",11370,NA,NA,18,"21- 15 77TH STREET, EAST ELMHURST, NY, 11370","Tie",NA,NA,NA,NA
333519,"21-06 33RD STREET APT A1","ASTORIA","NY",11105,40.7769622600001,-73.907675742,19,"21-06 33RD STREET APT A1, ASTORIA, NY, 11105","Match","Exact","21-6 33RD ST, ASTORIA, NY, 11105",59697037,"R"
333520,"21-06 45TH AVENUE APT 1E","LONG ISLAND CITY","NY",11101,40.7472958700001,-73.9473043369999,20,"21-06 45TH AVENUE APT 1E, LONG ISLAND CITY, NY, 11101","Match","Exact","21-6 45TH AVE, LONG ISLAND CITY, NY, 11101",59691941,"R"
333521,"21-15 35TH AVE","ASTORIA","NY",11106,40.7611279610001,-73.934884536,21,"21-15 35TH AVE, ASTORIA, NY, 11106","Match","Exact","21-15 35TH AVE, ASTORIA, NY, 11106",59740373,"L"
333522,"21-19 22ND RD 2F","ASTORIA","NY",11105,40.779766684,-73.917233731,22,"21-19 22ND RD 2F, ASTORIA, NY, 11105","Match","Exact","21-19 22ND RD, ASTORIA, NY, 11105",59696898,"L"
333523,"21-19 35 STREET","ASTORIA","NY",11105,40.7762632660001,-73.9071921779999,23,"21-19 35 STREET, ASTORIA, NY, 11105","Match","Exact","21-19 35TH ST, ASTORIA, NY, 11105",59697039,"L"
333524,"21-20 23RD TERRACE","ASTORIA","NY",11105,40.7769768150001,-73.920610086,24,"21-20 23RD TERRACE, ASTORIA, NY, 11105","Match","Exact","21-20 23RD TER, ASTORIA, NY, 11105",59696640,"R"
333525,"21-20 34TH AVE APT 2F","ASTORIA","NY",11106,40.762723092,-73.933768272,25,"21-20 34TH AVE APT 2F, ASTORIA, NY, 11106","Match","Exact","21-20 34TH AVE, ASTORIA, NY, 11106",611864385,"R"
333526,"21-21 CRESCENT STREET","ASTORIA","NY",11105,40.7801441880001,-73.9127647019999,26,"21-21 CRESCENT STREET, ASTORIA, NY, 11105","Match","Exact","21-21 CRESCENT ST, ASTORIA, NY, 11105",59697008,"L"
333527,"21-22 77TH STREET","JACKSON HEIGHTS","NY",11370,40.7700129350001,-73.8927395649999,27,"21-22 77TH STREET, JACKSON HEIGHTS, NY, 11370","Match","Non_Exact","21 77TH ST, FLUSHING, NY, 11370",59697676,"R"
333528,"21-22 NEWTON AVENUE APARTMENT 3R","ASTORIA","NY",11102,NA,NA,28,"21-22 NEWTON AVENUE APARTMENT 3R, ASTORIA, NY, 11102","No_Match",NA,NA,NA,NA
333529,"21-23 21ST ROAD","ASTORIA","NY",11105,40.7812677960001,-73.915339106,29,"21-23 21ST ROAD, ASTORIA, NY, 11105","Match","Exact","21-23 21ST RD, ASTORIA, NY, 11105",59696496,"L"
333530,"21-24 43RD STREET","LONG ISLAND CITY","NY",11103,40.7726429410001,-73.90231182,30,"21-24 43RD STREET, LONG ISLAND CITY, NY, 11103","Match","Non_Exact","21 43RD ST, LONG IS CITY, NY, 11105",59697367,"R"
333531,"21-24 45TH AVE","LONG ISLAND CITY","NY",11101,40.747227647,-73.9469514369999,31,"21-24 45TH AVE, LONG ISLAND CITY, NY, 11101","Match","Exact","21-24 45TH AVE, LONG ISLAND CITY, NY, 11101",59691941,"R"
333532,"21-25 35TH AVENUE APT 6D","ASTORIA","NY",11106,40.761027997,-73.934670942,32,"21-25 35TH AVENUE APT 6D, ASTORIA, NY, 11106","Match","Exact","21-25 35TH AVE, ASTORIA, NY, 11106",59740373,"L"
333533,"21-27 41 STREET APT 1A","NEW YORK","NY",11105,40.7736130700001,-73.903766558,33,"21-27 41 STREET APT 1A, NEW YORK, NY, 11105","Match","Non_Exact","21-27 41ST ST, ASTORIA, NY, 11105",59697361,"L"
333534,"21-30 47TH STREET","ASTORIA","NY",11105,40.7710345310001,-73.9002841609999,34,"21-30 47TH STREET, ASTORIA, NY, 11105","Match","Exact","21-30 47TH ST, ASTORIA, NY, 11105",59697421,"R"
333535,"21-31 ASTORIA WAY APT 1","ASTORIA","NY",11105,NA,NA,35,"21-31 ASTORIA WAY APT 1, ASTORIA, NY, 11105","No_Match",NA,NA,NA,NA
333536,"21-32 CRESCENT STREET APT B4","ASTORIA","NY",11105,40.7799635040001,-73.9130052209999,36,"21-32 CRESCENT STREET APT B4, ASTORIA, NY, 11105","Match","Exact","21-32 CRESCENT ST, ASTORIA, NY, 11105",59697008,"R"
333537,"21-34 44TH RD","LONG ISLAND CITY","NY",11101,40.7486821590001,-73.9462449769999,37,"21-34 44TH RD, LONG ISLAND CITY, NY, 11101","Match","Exact","21-34 44TH RD, LONG ISLAND CITY, NY, 11101",59691933,"R"
333538,"21-39 45TH ROAD FLOOR 2","LONG ISLAND CITY","NY",11101,40.746496177,-73.9468983789999,38,"21-39 45TH ROAD FLOOR 2, LONG ISLAND CITY, NY, 11101","Match","Exact","21-39 45TH RD, LONG ISLAND CITY, NY, 11101",59691937,"L"
333539,"21-39 45TH ROAD STUDIO 216","LONG ISLAND CITY","NY",11101,40.746496177,-73.9468983789999,39,"21-39 45TH ROAD STUDIO 216, LONG ISLAND CITY, NY, 11101","Match","Exact","21-39 45TH RD, LONG ISLAND CITY, NY, 11101",59691937,"L"
333540,"21-44 45 STREET","ASTORIS","NY",11105,40.771824037,-73.9019794279999,40,"21-44 45 STREET, ASTORIS, NY, 11105","Match","Non_Exact","21 45TH ST, ASTORIA, NY, 11105",59697371,"R"
333541,"21-45 28TH ST APT C4","ASTORIA","NY",11105,40.7783072280001,-73.911162267,41,"21-45 28TH ST APT C4, ASTORIA, NY, 11105","Match","Exact","21-45 28TH ST, ASTORIA, NY, 11105",59697013,"L"
333542,"21-48 42ND STREET","ASTORIA","NY",11105,40.772770318,-73.9034831179999,42,"21-48 42ND STREET, ASTORIA, NY, 11105","Match","Exact","21-48 42ND ST, ASTORIA, NY, 11105",59697363,"R"
333543,"21-49 23RD STREET","ASTORIA","NY",11105,40.780568612,-73.914811646,43,"21-49 23RD STREET, ASTORIA, NY, 11105","Match","Exact","21-49 23RD ST, ASTORIA, NY, 11105",59696916,"L"
333544,"21-50 24TH STREET","ASTORIA","NY",11105,40.780163691,-73.91403944,44,"21-50 24TH STREET, ASTORIA, NY, 11105","Match","Exact","21-50 24TH ST, ASTORIA, NY, 11105",59696508,"R"
333545,"21-52 GREEN CAY","ST THOMAS","VI",802,NA,NA,45,"21-52 GREEN CAY, ST THOMAS, VI, 802","No_Match",NA,NA,NA,NA
333546,"21-53 78TH STREET","EAST ELMHURST","NY",11106,40.7696302940001,-73.891704746,46,"21-53 78TH STREET, EAST ELMHURST, NY, 11106","Match","Non_Exact","21 78TH ST, EAST ELMHURST, NY, 11370",59697682,"L"
333547,"21-58 35TH STREET APT 4G","ASTORIA","NY",11105,40.775642202,-73.907965013,47,"21-58 35TH STREET APT 4G, ASTORIA, NY, 11105","Match","Exact","21-58 35TH ST, ASTORIA, NY, 11105",59697039,"R"
333548,"21-68 37TH STREET","ASTORIA","NY",11105,40.77448681,-73.906736471,48,"21-68 37TH STREET, ASTORIA, NY, 11105","Match","Exact","21-68 37TH ST, ASTORIA, NY, 11105",59697317,"R"
333549,"21-71 47TH STREET","ASTORIA","NY",11105,40.770399981,-73.90103984,49,"21-71 47TH STREET, ASTORIA, NY, 11105","Match","Exact","21-71 47TH ST, ASTORIA, NY, 11105",59697421,"L"
333550,"21-83 STEINWAY ST","ASTORIA","NY",11105,40.7732477430001,-73.905566985,50,"21-83 STEINWAY ST, ASTORIA, NY, 11105","Match","Exact","21-83 STEINWAY ST, ASTORIA, NY, 11105",59697349,"L"
333551,"21","ASHBURN","VA",20148,NA,NA,51,"21, ASHBURN, VA, 20148","No_Match",NA,NA,NA,NA
333552,"21","BALLANTINE","MT",59006,NA,NA,52,"21, BALLANTINE, MT, 59006","No_Match",NA,NA,NA,NA
333553,"21","BELLE ISLE","FL",32809,NA,NA,53,"21, BELLE ISLE, FL, 32809","No_Match",NA,NA,NA,NA
333554,"21","BROOKLYN","MD",21225,NA,NA,54,"21, BROOKLYN, MD, 21225","No_Match",NA,NA,NA,NA
333555,"21","EADS","TN",38028,NA,NA,55,"21, EADS, TN, 38028","No_Match",NA,NA,NA,NA
333556,"21","LEWES","DE",19958,NA,NA,56,"21, LEWES, DE, 19958","No_Match",NA,NA,NA,NA
333557,"21","MOUNTAIN HOME","AR",72653,NA,NA,57,"21, MOUNTAIN HOME, AR, 72653","No_Match",NA,NA,NA,NA
333558,"21","NATICK","MA",1760,NA,NA,58,"21, NATICK, MA, 1760","No_Match",NA,NA,NA,NA
333559,"21","REDMOND","OR",97756,NA,NA,59,"21, REDMOND, OR, 97756","No_Match",NA,NA,NA,NA
333560,"21","RIO GRANDE CITY","TX",78582,NA,NA,60,"21, RIO GRANDE CITY, TX, 78582","No_Match",NA,NA,NA,NA
333561,"21","TRUMBULL","CT",6611,NA,NA,61,"21, TRUMBULL, CT, 6611","No_Match",NA,NA,NA,NA
333562,"210  KENWOOD DR","SHELBY","NC",28150,35.2800248190001,-81.527717208,62,"210  KENWOOD DR, SHELBY, NC, 28150","Match","Exact","210 KENWOOD DR, SHELBY, NC, 28150",19318547,"L"
333563,"210  WATER ST","BENTON HARBOR","MI",49022,42.117839562,-86.454729782,63,"210  WATER ST, BENTON HARBOR, MI, 49022","Match","Exact","210 WATER ST, BENTON HARBOR, MI, 49022",119972340,"L"
333564,"210 1/2 6TH ST NW","CANTON","OH",44702,40.8021233600001,-81.3744906699999,64,"210 1/2 6TH ST NW, CANTON, OH, 44702","Match","Exact","210 6TH ST NW, CANTON, OH, 44702",64682159,"L"
333565,"210 1/2 S RIVER ST","ENTERPRISE","OR",97828,45.4244402620001,-117.277567096,65,"210 1/2 S RIVER ST, ENTERPRISE, OR, 97828","Match","Exact","210 S RIVER ST, ENTERPRISE, OR, 97828",139009298,"L"
333566,"210 1/2 SUDBROOK LANE","PIKESVILLE","MD",21208,39.370714865,-76.7271811699999,66,"210 1/2 SUDBROOK LANE, PIKESVILLE, MD, 21208","Match","Exact","210 SUDBROOK LN, PIKESVILLE, MD, 21208",191468461,"R"
333567,"210 10TH STREET WEST","HASTINGS","MN",55033,44.7362829190001,-92.8540788509999,67,"210 10TH STREET WEST, HASTINGS, MN, 55033","Match","Exact","210 10TH ST W, HASTINGS, MN, 55033",37914041,"L"
333568,"210 11TH AVENUE SW","OLYMPIA","WA",98504,47.038073378,-122.902258957,68,"210 11TH AVENUE SW, OLYMPIA, WA, 98504","Match","Non_Exact","210 11TH AVE SW, OLYMPIA, WA, 98501",180944278,"R"
333569,"210 11TH STREET","HUNTINGTON","WV",25701,38.4229770540001,-82.440957181,69,"210 11TH STREET, HUNTINGTON, WV, 25701","Match","Exact","210 11TH ST, HUNTINGTON, WV, 25701",101317614,"L"
333570,"210 15TH STREET E 16","TUSCALOOSA","AL",35401,33.198421158,-87.53786151,70,"210 15TH STREET E 16, TUSCALOOSA, AL, 35401","Match","Non_Exact","210 15TH ST, TUSCALOOSA, AL, 35401",82150066,"R"
333571,"210 15TH STREET EAST APARTMENT 2","TUSCALOOSA","AL",35401,33.198421158,-87.53786151,71,"210 15TH STREET EAST APARTMENT 2, TUSCALOOSA, AL, 35401","Match","Non_Exact","210 15TH ST, TUSCALOOSA, AL, 35401",82150066,"R"
333572,"210 15TH STREET","ROCK ISLAND","IL",61201,41.510146553,-90.579142615,72,"210 15TH STREET, ROCK ISLAND, IL, 61201","Match","Exact","210 15TH ST, ROCK ISLAND, IL, 61201",9207605,"R"
333573,"210 16TH ST","MARYSVILLE","MI",48040,42.905289903,-82.481076017,73,"210 16TH ST, MARYSVILLE, MI, 48040","Match","Exact","210 16TH ST, MARYSVILLE, MI, 48040",110980796,"L"
333574,"210 16TH STREET NE - 202","ROCHESTER","MN",55906,44.0385353880001,-92.459210199,74,"210 16TH STREET NE - 202, ROCHESTER, MN, 55906","Match","Exact","210 16TH ST NE, ROCHESTER, MN, 55906",30551645,"R"
333575,"210 17TH ST","APALACHICOLA","FL",32320,29.7234398410001,-84.9999617509999,75,"210 17TH ST, APALACHICOLA, FL, 32320","Match","Exact","210 17TH ST, APALACHICOLA, FL, 32320",74338443,"L"
333576,"210 181 STREET APT - 1I","BRONX","NY",10457,40.85442578,-73.9009953619999,76,"210 181 STREET APT - 1I, BRONX, NY, 10457","Match","Non_Exact","210 E 181ST ST, BRONX, NY, 10457",80300989,"R"
333577,"210 18TH ST NE","SALEM","OR",97301,44.9361635340001,-123.018228369,77,"210 18TH ST NE, SALEM, OR, 97301","Match","Exact","210 18TH ST NE, SALEM, OR, 97301",635403317,"R"
333578,"210 1ST AVENUE","JOLIET","IL",60433,41.522496189,-88.0764903149999,78,"210 1ST AVENUE, JOLIET, IL, 60433","Match","Exact","210 1ST AVE, JOLIET, IL, 60433",111542899,"R"
333579,"210 1ST STREET NW","DILWORTH","MN",56529,46.878676124,-96.704342211,79,"210 1ST STREET NW, DILWORTH, MN, 56529","Match","Exact","210 1ST ST NW, DILWORTH, MN, 56529",168030885,"L"
333580,"210 22ND AVENUE NW","CENTERPOINT","AL",35215,33.642082681,-86.688327062,80,"210 22ND AVENUE NW, CENTERPOINT, AL, 35215","Match","Non_Exact","210 22ND AVE NW, CENTER POINT, AL, 35215",81566965,"R"
333581,"210 24 NASHVILLE BLVD","ST ALBANS","NY",11412,NA,NA,81,"210 24 NASHVILLE BLVD, ST ALBANS, NY, 11412","No_Match",NA,NA,NA,NA
333582,"210 24TH ST UNIT 204","COCOA BEACH","FL",32931,28.2823028130001,-80.6082860619999,82,"210 24TH ST UNIT 204, COCOA BEACH, FL, 32931","Match","Exact","210 24TH ST, COCOA BEACH, FL, 32931",93937512,"L"
333583,"210 27TH ST","COLUMBUS","GA",31904,32.4889830180001,-84.989940184,83,"210 27TH ST, COLUMBUS, GA, 31904","Match","Exact","210 27TH ST, COLUMBUS, GA, 31904",98936980,"R"
333584,"210 2ND STREET SOUTH","GROVE CITY","MN",56243,45.1496803970001,-94.679158016,84,"210 2ND STREET SOUTH, GROVE CITY, MN, 56243","Match","Exact","210 2ND ST S, GROVE CITY, MN, 56243",36965647,"L"
333585,"210 37TH ST SE APT 38","AUBURN","WA",98002,47.2756026340001,-122.226000493,85,"210 37TH ST SE APT 38, AUBURN, WA, 98002","Match","Exact","210 37TH ST SE, AUBURN, WA, 98002",239768537,"R"
333586,"210 38TH ST SE","CANTON","OH",44707,40.7537898080001,-81.375604792,86,"210 38TH ST SE, CANTON, OH, 44707","Match","Exact","210 38TH ST SE, CANTON, OH, 44707",64687025,"R"
333587,"210 3RD STREET WEST","BRADENTON","FL",34205,27.498512277,-82.5643679739999,87,"210 3RD STREET WEST, BRADENTON, FL, 34205","Match","Exact","210 3RD ST W, BRADENTON, FL, 34205",16252293,"R"
333588,"210 4TH ST","CHALMETTE","LA",70043,29.947560041,-89.984691094,88,"210 4TH ST, CHALMETTE, LA, 70043","Match","Exact","210 4TH ST, CHALMETTE, LA, 70043",111186725,"R"
333589,"210 4TH ST","FAIRBURY","NE",68352,40.135135012,-97.183786001,89,"210 4TH ST, FAIRBURY, NE, 68352","Match","Exact","210 4TH ST, FAIRBURY, NE, 68352",11134477,"L"
333590,"210 5TH AVE S UNIT 108","ST PETERSBURG","FL",33701,27.765712996,-82.6361689349999,90,"210 5TH AVE S UNIT 108, ST PETERSBURG, FL, 33701","Match","Exact","210 5TH AVE S, SAINT PETERSBURG, FL, 33701",638046163,"L"
333591,"210 5TH ST SE","WATERTOWN","SD",57201,44.8963623770001,-97.1074566949999,91,"210 5TH ST SE, WATERTOWN, SD, 57201","Match","Exact","210 5TH ST SE, WATERTOWN, SD, 57201",200730102,"R"
333592,"210 5TH ST SW","EVERETT","WA",98204,NA,NA,92,"210 5TH ST SW, EVERETT, WA, 98204","No_Match",NA,NA,NA,NA
333593,"210 5TH ST","NEOLA","IA",51559,41.4494328270001,-95.619507271,93,"210 5TH ST, NEOLA, IA, 51559","Match","Exact","210 5TH ST, NEOLA, IA, 51559",43920870,"L"
333594,"210 61ST STREET UNIT 415","GALVESTON","TX",77551,NA,NA,94,"210 61ST STREET UNIT 415, GALVESTON, TX, 77551","No_Match",NA,NA,NA,NA
333595,"210 6TH ST W","ANDALUSIA","IL",61232,41.4422697520001,-90.72621452,95,"210 6TH ST W, ANDALUSIA, IL, 61232","Match","Exact","210 6TH ST W, ANDALUSIA, IL, 61232",9206805,"R"
333596,"210 6TH STREET","JERSEY CITY","NJ",7302,40.7253151290001,-74.043410557,96,"210 6TH STREET, JERSEY CITY, NJ, 7302","Match","Exact","210 6TH ST, JERSEY CITY, NJ, 07302",59606171,"R"
333597,"210 7 ST NW APT 2","JAMESTOWN","ND",58401,46.9148712370001,-98.710707317,97,"210 7 ST NW APT 2, JAMESTOWN, ND, 58401","Match","Exact","210 7TH ST NW, JAMESTOWN, ND, 58401",151886363,"L"
333598,"210 7TH AVENUE SOUTHEAST","PERHAM","MN",56573,46.5893097860001,-95.5670073429999,98,"210 7TH AVENUE SOUTHEAST, PERHAM, MN, 56573","Match","Exact","210 7TH AVE SE, PERHAM, MN, 56573",168309432,"L"
333599,"210 8TH AVE","SEA CLIFF","NY",11579,40.8502752220001,-73.6442128479999,99,"210 8TH AVE, SEA CLIFF, NY, 11579","Match","Exact","210 8TH AVE, SEA CLIFF, NY, 11579",147661560,"R"
333600,"210 8TH ST","LEMMON","SD",57638,NA,NA,100,"210 8TH ST, LEMMON, SD, 57638","Tie",NA,NA,NA,NA
333601,"210 9TH ST E","HARVEY","ND",58341,47.769020826,-99.934142207,101,"210 9TH ST E, HARVEY, ND, 58341","Match","Exact","210 9TH ST E, HARVEY, ND, 58341",174073245,"L"
333602,"210 9TH ST","WEST BABYLON","NY",11704,40.7156476760001,-73.389064869,102,"210 9TH ST, WEST BABYLON, NY, 11704","Match","Exact","210 9TH ST, WEST BABYLON, NY, 11704",113971668,"L"
333603,"210 A KIMBERLY LN","LONGVIEW","TX",75604,32.5416926500001,-94.806934618,103,"210 A KIMBERLY LN, LONGVIEW, TX, 75604","Match","Exact","210 KIMBERLY LN, LONGVIEW, TX, 75604",141107150,"R"
333604,"210 ABBOT RD STE 22","E. LANSING","MI",48823,42.735685774,-84.483757001,104,"210 ABBOT RD STE 22, E. LANSING, MI, 48823","Match","Exact","210 ABBOT RD, EAST LANSING, MI, 48823",17502007,"R"
333605,"210 ACACIA AVE","SAN FRANCISCO","CA",94124,37.7367697720001,-122.380276012,105,"210 ACACIA AVE, SAN FRANCISCO, CA, 94124","Match","Exact","210 ACACIA AVE, SAN FRANCISCO, CA, 94124",646688018,"L"
333606,"210 ADAMS AVE","SILVERTON","OR",97381,44.9998388290001,-122.777857642,106,"210 ADAMS AVE, SILVERTON, OR, 97381","Match","Exact","210 ADAMS AVE, SILVERTON, OR, 97381",156263112,"R"
333607,"210 ADAMS LANE","RIVERSIDE","NJ",8075,40.0386031210001,-74.963021322,107,"210 ADAMS LANE, RIVERSIDE, NJ, 8075","Match","Non_Exact","210 ADAMS ST, RIVERSIDE, NJ, 08075",134024536,"L"
333608,"210 ADAMS WAY","MACON","GA",31220,32.865454662,-83.7841795859999,108,"210 ADAMS WAY, MACON, GA, 31220","Match","Exact","210 ADAMS WAY, MACON, GA, 31220",81080731,"R"
333609,"210 ADARE DRIVE","CARY","IL",60013,42.226496894,-88.241267882,109,"210 ADARE DRIVE, CARY, IL, 60013","Match","Exact","210 ADARE DR, CARY, IL, 60013",606266718,"L"
333610,"210 ADDISON","ELMHURST","IL",60126,NA,NA,110,"210 ADDISON, ELMHURST, IL, 60126","No_Match",NA,NA,NA,NA
333611,"210 ADIRONDACK LOOP","ROLAND","OK",74954,35.4114757130001,-94.508418284,111,"210 ADIRONDACK LOOP, ROLAND, OK, 74954","Match","Exact","210 ADIRONDACK LOOP, ROLAND, OK, 74954",53754844,"L"
333612,"210 AGUAVIVA","MANATI","PR",674,NA,NA,112,"210 AGUAVIVA, MANATI, PR, 674","No_Match",NA,NA,NA,NA
333613,"210 AMBERHILL RD","YADKINVILLE","NC",27055,36.038028958,-80.680651306,113,"210 AMBERHILL RD, YADKINVILLE, NC, 27055","Match","Non_Exact","210 AMBER HILL RD, YADKINVILLE, NC, 27055",218848877,"R"
333614,"210 AMBERWOOD DR SOUTH APT 917","KYLE","TX",78640,30.0286919650001,-97.847593369,114,"210 AMBERWOOD DR SOUTH APT 917, KYLE, TX, 78640","Match","Non_Exact","210 AMBERWOOD S, KYLE, TX, 78640",63847514,"R"
333615,"210 ANDERSONTOWN RD","MECHANICSBURG","PA",17055,40.1512592440001,-76.933092812,115,"210 ANDERSONTOWN RD, MECHANICSBURG, PA, 17055","Match","Exact","210 ANDERSONTOWN RD, MECHANICSBURG, PA, 17055",88737267,"R"
333616,"210 ANNIVERSARY LANE","ACWORTH","GA",30102,34.0850508140001,-84.632130618,116,"210 ANNIVERSARY LANE, ACWORTH, GA, 30102","Match","Exact","210 ANNIVERSARY LN, ACWORTH, GA, 30102",625413371,"R"
333617,"210 ANTHONY RD","SPARTANBURG","SC",29301,34.9352311660001,-81.97038043,117,"210 ANTHONY RD, SPARTANBURG, SC, 29301","Match","Exact","210 ANTHONY RD, SPARTANBURG, SC, 29301",19518428,"L"
333618,"210 ANTLER WAY DRIVE","SHERWOOD","AR",72120,34.887839838,-92.23891623,118,"210 ANTLER WAY DRIVE, SHERWOOD, AR, 72120","Match","Exact","210 ANTLER WAY DR, SHERWOOD, AR, 72120",640961852,"R"
333619,"210 ARLINGTON AVENUE","JAMESTOWN","NY",14701,42.11501809,-79.234590441,119,"210 ARLINGTON AVENUE, JAMESTOWN, NY, 14701","Match","Exact","210 ARLINGTON AVE, JAMESTOWN, NY, 14701",120752219,"R"
333620,"210 ARROWHEAD LANE","CANTON","GA",30114,34.1882370050001,-84.513197412,120,"210 ARROWHEAD LANE, CANTON, GA, 30114","Match","Exact","210 ARROWHEAD LN, CANTON, GA, 30114",629583228,"R"
333621,"210 ARTIST VIEW ROAD","WELLINGTON","NV",89444,38.814884342,-119.35548655,121,"210 ARTIST VIEW ROAD, WELLINGTON, NV, 89444","Match","Exact","210 ARTIST VIEW RD, WELLINGTON, NV, 89444",140345643,"L"
333622,"210 ARUNDEL BEACH ROAD","SEVERNA PARK","MD",21146,39.0838800600001,-76.536277904,122,"210 ARUNDEL BEACH ROAD, SEVERNA PARK, MD, 21146","Match","Exact","210 ARUNDEL BEACH RD, SEVERNA PARK, MD, 21146",606944176,"L"
333623,"210 ASH STREET","LYNCHBURG","VA",24503,37.435596665,-79.163988737,123,"210 ASH STREET, LYNCHBURG, VA, 24503","Match","Exact","210 ASH ST, LYNCHBURG, VA, 24503",62738568,"L"
333624,"210 ASHFORD CT","NOBLESVILLE","IN",46062,40.0847842810001,-86.053302658,124,"210 ASHFORD CT, NOBLESVILLE, IN, 46062","Match","Exact","210 ASHFORD CT, NOBLESVILLE, IN, 46062",29292996,"R"
333625,"210 ASPEN FOREST DRIVE","COVINGTON","GA",30016,33.468695794,-83.901804822,125,"210 ASPEN FOREST DRIVE, COVINGTON, GA, 30016","Match","Exact","210 ASPEN FOREST DR, COVINGTON, GA, 30016",23637034,"R"
333626,"210 ASTOR LANE","FRANKLIN PARK","NJ",8823,40.432275206,-74.556355031,126,"210 ASTOR LANE, FRANKLIN PARK, NJ, 8823","Match","Exact","210 ASTOR LN, FRANKLIN PARK, NJ, 08823",641257347,"R"
333627,"210 ASTORWOOD","PONTIAC","MI",48341,42.610662479,-83.279183739,127,"210 ASTORWOOD, PONTIAC, MI, 48341","Match","Non_Exact","210 ASTORWOOD ST, PONTIAC, MI, 48341",69836273,"R"
333628,"210 AUTUMN AVE","DUXBURY","MA",2332,42.0291761550001,-70.749848379,128,"210 AUTUMN AVE, DUXBURY, MA, 2332","Match","Exact","210 AUTUMN AVE, DUXBURY, MA, 02332",87435584,"R"
333629,"210 AUTUMN SAGE DR","ALPHARETTA","GA",30005,34.0673790390001,-84.236769178,129,"210 AUTUMN SAGE DR, ALPHARETTA, GA, 30005","Match","Exact","210 AUTUMN SAGE DR, ALPHARETTA, GA, 30005",17375257,"L"
333630,"210 AUTUMN WIND WAY","ROCKVILLE","MD",20850,39.080998714,-77.1632168199999,130,"210 AUTUMN WIND WAY, ROCKVILLE, MD, 20850","Match","Exact","210 AUTUMN WIND WAY, ROCKVILLE, MD, 20850",62118083,"L"
333631,"210 AVE D EAST PO BOX 258","NAPOLEON","ND",58561,46.5052217160001,-99.767349242,131,"210 AVE D EAST PO BOX 258, NAPOLEON, ND, 58561","Match","Exact","210 AVE D E, NAPOLEON, ND, 58561",174026022,"R"
333632,"210 AVENUE B","REDONDO BEACH","CA",90277,33.8266104900001,-118.388329404,132,"210 AVENUE B, REDONDO BEACH, CA, 90277","Match","Exact","210 AVE B, REDONDO BEACH, CA, 90277",141584212,"R"
333633,"210 AVERY DR","COVINGTON","GA",30016,33.4853909030001,-83.9107166639999,133,"210 AVERY DR, COVINGTON, GA, 30016","Match","Exact","210 AVERY DR, COVINGTON, GA, 30016",23637059,"R"
333634,"210 BACON AVE","OSHKOSH","WI",54901,44.0462783620001,-88.540431886,134,"210 BACON AVE, OSHKOSH, WI, 54901","Match","Exact","210 BACON AVE, OSHKOSH, WI, 54901",74488141,"R"
333635,"210 BAILEY DR","BOSSIER CITY","LA",71112,32.5220628910001,-93.694482271,135,"210 BAILEY DR, BOSSIER CITY, LA, 71112","Match","Exact","210 BAILEY DR, BOSSIER CITY, LA, 71112",108525434,"R"
333636,"210 BAKER DRIVE","BERRY","AL",35546,33.6814553880001,-87.585718632,136,"210 BAKER DRIVE, BERRY, AL, 35546","Match","Exact","210 BAKER DR, BERRY, AL, 35546",120509904,"L"
333637,"210 BARCLAY CIRCLE","CHELTENHAM","PA",19012,40.060370047,-75.1163338869999,137,"210 BARCLAY CIRCLE, CHELTENHAM, PA, 19012","Match","Exact","210 BARCLAY CIR, CHELTENHAM, PA, 19012",135106435,"L"
333638,"210 BARDEL DR","COATESVILLE","PA",19320,39.985620704,-75.876367263,138,"210 BARDEL DR, COATESVILLE, PA, 19320","Match","Exact","210 BARDEL DR, COATESVILLE, PA, 19320",632662734,"R"
333639,"210 BARNWELL STREET","OCEANSIDE","CA",92054,33.20376866,-117.347751696,139,"210 BARNWELL STREET, OCEANSIDE, CA, 92054","Match","Non_Exact","210 S BARNWELL ST, OCEANSIDE, CA, 92054",612852954,"L"
333640,"210 BARRETT AVE S","WESS. SPRINGS","SD",57382,44.0782093820001,-98.567966413,140,"210 BARRETT AVE S, WESS. SPRINGS, SD, 57382","Match","Non_Exact","210 BARRETT AVE S, WESSINGTN SPG, SD, 57382",199203815,"R"
333641,"210 BARRINGTON DRIVE","TARBORO","NC",27886,35.926704532,-77.61301513,141,"210 BARRINGTON DRIVE, TARBORO, NC, 27886","Match","Exact","210 BARRINGTON DR, TARBORO, NC, 27886",627973941,"L"
333642,"210 BATTERY CIRCLE","SAVANNAH","GA",31410,32.0403079750001,-80.9861092959999,142,"210 BATTERY CIRCLE, SAVANNAH, GA, 31410","Match","Exact","210 BATTERY CIR, SAVANNAH, GA, 31410",635842254,"L"
333643,"210 BEECH LN","STEVENSVILLE","MD",21666,38.9974998230001,-76.2992518,143,"210 BEECH LN, STEVENSVILLE, MD, 21666","Match","Exact","210 BEECH LN, STEVENSVILLE, MD, 21666",68051571,"L"
333644,"210 BELLEFAYE LANE","MC CORMICK","SC",29835,33.9092120890001,-82.3834255199999,144,"210 BELLEFAYE LANE, MC CORMICK, SC, 29835","Match","Exact","210 BELLEFAYE LN, MC CORMICK, SC, 29835",50923960,"L"
333645,"210 BELLEVUE BLVD S","BELLEVUE","NE",68005,41.159807121,-95.9024713599999,145,"210 BELLEVUE BLVD S, BELLEVUE, NE, 68005","Match","Exact","210 BELLEVUE BLVD S, BELLEVUE, NE, 68005",28471022,"R"
333646,"210 BELLO CT","SAN RAMON","CA",94583,37.76883831,-121.991659204,146,"210 BELLO CT, SAN RAMON, CA, 94583","Match","Exact","210 BELLO CT, SAN RAMON, CA, 94583",192065631,"L"
333647,"210 BENNETT AVENUE APT 7E","NEW YORK","NY",10040,40.856825546,-73.933665097,147,"210 BENNETT AVENUE APT 7E, NEW YORK, NY, 10040","Match","Exact","210 BENNETT AVE, NEW YORK, NY, 10040",59655567,"L"
333648,"210 BENTON STREET","LEAVENWORTH","WA",98826,47.5952354660001,-120.668293108,148,"210 BENTON STREET, LEAVENWORTH, WA, 98826","Match","Exact","210 BENTON ST, LEAVENWORTH, WA, 98826",156968920,"L"
333649,"210 BERELEY RIDGE DR","COLUMBIA","SC",29229,34.1827513220001,-80.882314693,149,"210 BERELEY RIDGE DR, COLUMBIA, SC, 29229","Match","Non_Exact","210 BERKELEY RIDGE DR, COLUMBIA, SC, 29229",608832029,"L"
333650,"210 BERKLEY DRIVE","HARRISBURG","PA",17110,NA,NA,150,"210 BERKLEY DRIVE, HARRISBURG, PA, 17110","No_Match",NA,NA,NA,NA
333651,"210 BERRY ST","NASHVILLE","TN",37207,36.1813389160001,-86.770700769,151,"210 BERRY ST, NASHVILLE, TN, 37207","Match","Exact","210 BERRY ST, NASHVILLE, TN, 37207",97187723,"R"
333652,"210 BIBB STREET","CAMPBELLSVILLE","KY",42718,37.336368486,-85.354266986,152,"210 BIBB STREET, CAMPBELLSVILLE, KY, 42718","Match","Exact","210 BIBB ST, CAMPBELLSVILLE, KY, 42718",35240655,"L"
333653,"210 BIDDLE STREET","BALTIMORE","MD",21202,39.3035828330001,-76.612548703,153,"210 BIDDLE STREET, BALTIMORE, MD, 21202","Match","Non_Exact","210 E BIDDLE ST, BALTIMORE, MD, 21202",206419496,"L"
333654,"210 BILLY HOLT DRIVE","SALISBURY","NC",28146,NA,NA,154,"210 BILLY HOLT DRIVE, SALISBURY, NC, 28146","No_Match",NA,NA,NA,NA
333655,"210 BIRCH DRIVE","ROSLYN","NY",11576,40.8005236170001,-73.635655543,155,"210 BIRCH DRIVE, ROSLYN, NY, 11576","Match","Exact","210 BIRCH DR, ROSLYN, NY, 11576",147663759,"R"
333656,"210 BIRCHLEAF DR","SAINT PETERS","MO",63376,38.7671372080001,-90.5755093939999,156,"210 BIRCHLEAF DR, SAINT PETERS, MO, 63376","Match","Exact","210 BIRCHLEAF DR, SAINT PETERS, MO, 63376",100087318,"R"
333657,"210 BLACK HORSE TAVERN ROAD","GETTYSBURG","PA",17325,39.807452772,-77.2684612369999,157,"210 BLACK HORSE TAVERN ROAD, GETTYSBURG, PA, 17325","Match","Exact","210 BLACK HORSE TAVERN RD, GETTYSBURG, PA, 17325",60881276,"L"
333658,"210 BLACK PINE RD","PHILIPBURG","MT",59858,46.3725655860001,-113.351961833,158,"210 BLACK PINE RD, PHILIPBURG, MT, 59858","Match","Non_Exact","210 BLACK PINE RD, PHILIPSBURG, MT, 59858",611083042,"R"
333659,"210 BLACKPINE ROAD","PHILIPSBURG","MT",59858,46.3725655860001,-113.351961833,159,"210 BLACKPINE ROAD, PHILIPSBURG, MT, 59858","Match","Non_Exact","210 BLACK PINE RD, PHILIPSBURG, MT, 59858",611083042,"R"
333660,"210 BLAKE ST","LEWISTON","ME",4240,44.093079684,-70.210861027,160,"210 BLAKE ST, LEWISTON, ME, 4240","Match","Exact","210 BLAKE ST, LEWISTON, ME, 04240",77961730,"L"
333661,"210 BLATCHLEY AVENUE","NEW HAVEN","CT",6513,41.3076350360001,-72.899181475,161,"210 BLATCHLEY AVENUE, NEW HAVEN, CT, 6513","Match","Exact","210 BLATCHLEY AVE, NEW HAVEN, CT, 06513",3703681,"L"
333662,"210 BLOOMFIELD ST","TOLEDO","OH",43609,41.636352317,-83.542041098,162,"210 BLOOMFIELD ST, TOLEDO, OH, 43609","Match","Exact","210 BLOOMFIELD ST, TOLEDO, OH, 43609",618107683,"R"
333663,"210 BLUEBONNET ROAD","LA VERNIA","TX",78121,29.3530186620001,-98.119922264,163,"210 BLUEBONNET ROAD, LA VERNIA, TX, 78121","Match","Exact","210 BLUEBONNET RD, LA VERNIA, TX, 78121",627731079,"R"
333664,"210 BLUESTONE AVE","MOUNTAIN TOP","PA",18707,41.160366991,-75.873017696,164,"210 BLUESTONE AVE, MOUNTAIN TOP, PA, 18707","Match","Exact","210 BLUESTONE AVE, MOUNTAIN TOP, PA, 18707",647571169,"R"
333665,"210 BOCA CIEGA COURT","ALPHARETTA","GA",30022,34.0492434430001,-84.21472521,165,"210 BOCA CIEGA COURT, ALPHARETTA, GA, 30022","Match","Exact","210 BOCA CIEGA CT, ALPHARETTA, GA, 30022",17374514,"L"
333666,"210 BONNIE ROAD","IRONWOOD","MI",49938,46.461679475,-90.124055309,166,"210 BONNIE ROAD, IRONWOOD, MI, 49938","Match","Exact","210 BONNIE RD, IRONWOOD, MI, 49938",164955036,"R"
333667,"210 BONNIE","IRONWOOD","MI",49938,NA,NA,167,"210 BONNIE, IRONWOOD, MI, 49938","Tie",NA,NA,NA,NA
333668,"210 BOOKTER STREET","BAY ST LOUIS","MS",39520,30.307303462,-89.332778374,168,"210 BOOKTER STREET, BAY ST LOUIS, MS, 39520","Match","Exact","210 BOOKTER ST, BAY SAINT LOUIS, MS, 39520",111132341,"L"
333669,"210 BOYLSTON AVE UNIT 103","SEATTLE","WA",98102,47.620061139,-122.32306745,169,"210 BOYLSTON AVE UNIT 103, SEATTLE, WA, 98102","Match","Non_Exact","210 BOYLSTON AVE E, SEATTLE, WA, 98102",186584334,"R"
333670,"210 BOZEMAN TRAIL","GLENROCK","WY",82637,42.861934698,-105.850094059,170,"210 BOZEMAN TRAIL, GLENROCK, WY, 82637","Match","Exact","210 BOZEMAN TRL, GLENROCK, WY, 82637",147012516,"L"
333671,"210 BRADFORD DRIVE","WEXFORD","PA",15090,40.643057298,-80.066082562,171,"210 BRADFORD DRIVE, WEXFORD, PA, 15090","Match","Exact","210 BRADFORD DR, WEXFORD, PA, 15090",607673155,"R"
333672,"210 BRANCHVIEW DR","COLUMBIA","SC",29229,34.156863108,-80.884915886,172,"210 BRANCHVIEW DR, COLUMBIA, SC, 29229","Match","Exact","210 BRANCHVIEW DR, COLUMBIA, SC, 29229",637575512,"R"
333673,"210 BRICKINGHAM WAY","COLUMBIA","SC",29229,34.1442951870001,-80.9002995119999,173,"210 BRICKINGHAM WAY, COLUMBIA, SC, 29229","Match","Exact","210 BRICKINGHAM WAY, COLUMBIA, SC, 29229",71863863,"L"
333674,"210 BRIDGEPORT DRIVE","HALF MOON BAY","CA",94019,37.5115165650001,-122.486266844,174,"210 BRIDGEPORT DRIVE, HALF MOON BAY, CA, 94019","Match","Exact","210 BRIDGEPORT DR, HALF MOON BAY, CA, 94019",192370683,"R"
333675,"210 BRIDGEWAY DR","MARYVILLE","TN",37801,35.7503908910001,-84.008305497,175,"210 BRIDGEWAY DR, MARYVILLE, TN, 37801","Match","Exact","210 BRIDGEWAY DR, MARYVILLE, TN, 37801",644941774,"R"
333676,"210 BRIDLE LN","VICTORIA","TX",77904,28.889426214,-97.0000498479999,176,"210 BRIDLE LN, VICTORIA, TX, 77904","Match","Exact","210 BRIDLE LN, VICTORIA, TX, 77904",627689933,"L"
333677,"210 BRISCOE BLVD","ELSBERRY","MO",63343,39.1650592240001,-90.793977118,177,"210 BRISCOE BLVD, ELSBERRY, MO, 63343","Match","Non_Exact","210 BRISCOE RD, ELSBERRY, MO, 63343",44870938,"R"
333678,"210 BRITTANY DR","ALBRIGHTSVILLE","PA",18210,40.997683065,-75.515593643,178,"210 BRITTANY DR, ALBRIGHTSVILLE, PA, 18210","Match","Exact","210 BRITTANY DR, ALBRIGHTSVILLE, PA, 18210",634154333,"L"
333679,"210 BROAD STREET","BEAUFORT","NC",28516,34.720888346,-76.666237774,179,"210 BROAD STREET, BEAUFORT, NC, 28516","Match","Exact","210 BROAD ST, BEAUFORT, NC, 28516",33861984,"L"
333680,"210 BROAD STREET","SCOTIA","NY",12302,42.833304899,-73.973823071,180,"210 BROAD STREET, SCOTIA, NY, 12302","Match","Exact","210 BROAD ST, SCOTIA, NY, 12302",18024747,"R"
333681,"210 BROADVIEW CT","CRANBERRY TP","PA",16066,40.716503607,-80.133108621,181,"210 BROADVIEW CT, CRANBERRY TP, PA, 16066","Match","Non_Exact","210 BROADVIEW CT, CRANBERRY TOWNSHIP, PA, 16066",618091438,"R"
333682,"210 BROKEN SADDLE LANE","KERNERSVILLE","NC",27284,36.1264306800001,-80.056111764,182,"210 BROKEN SADDLE LANE, KERNERSVILLE, NC, 27284","Match","Exact","210 BROKEN SADDLE LN, KERNERSVILLE, NC, 27284",84619094,"R"
333683,"210 BROOKLYN AVE","FEDERALSBURG","MD",21632,38.698881713,-75.764799448,183,"210 BROOKLYN AVE, FEDERALSBURG, MD, 21632","Match","Exact","210 BROOKLYN AVE, FEDERALSBURG, MD, 21632",68313944,"R"
333684,"210 BROOKSHIRE GARDENS DRIVE","LAFAYETTE","LA",70503,30.1608448580001,-92.068459499,184,"210 BROOKSHIRE GARDENS DRIVE, LAFAYETTE, LA, 70503","Match","Exact","210 BROOKSHIRE GARDENS DR, LAFAYETTE, LA, 70503",635126732,"R"
333685,"210 BROOKSIDE DRIVE","PARKERSBURG","IA",50665,42.578649969,-92.778886698,185,"210 BROOKSIDE DRIVE, PARKERSBURG, IA, 50665","Match","Exact","210 BROOKSIDE DR, PARKERSBURG, IA, 50665",9627247,"R"
333686,"210 BROWN RD","SAN JUAN BAUTISTA","CA",95045,36.872123173,-121.586403312,186,"210 BROWN RD, SAN JUAN BAUTISTA, CA, 95045","Match","Exact","210 BROWN RD, SAN JUAN BAUTISTA, CA, 95045",125461668,"L"
333687,"210 BROWNE DR","HASKINS","OH",43525,41.464186919,-83.696918705,187,"210 BROWNE DR, HASKINS, OH, 43525","Match","Exact","210 BROWNE DR, HASKINS, OH, 43525",628863631,"R"
333688,"210 BRYAN STREET","HAVELOCK","NC",28532,34.863681265,-76.9035818199999,188,"210 BRYAN STREET, HAVELOCK, NC, 28532","Match","Exact","210 BRYAN ST, HAVELOCK, NC, 28532",34150834,"L"
333689,"210 BUCKINGHAM PLACE","BLACKSBURG","VA",24060,37.241130072,-80.398882702,189,"210 BUCKINGHAM PLACE, BLACKSBURG, VA, 24060","Match","Exact","210 BUCKINGHAM PL, BLACKSBURG, VA, 24060",73629003,"R"
333690,"210 BUCKINGHAM","VICTORIA","TX",77904,28.85858783,-96.993502303,190,"210 BUCKINGHAM, VICTORIA, TX, 77904","Match","Non_Exact","210 BUCKINGHAM ST, VICTORIA, TX, 77904",44558198,"R"
333691,"210 BURNHAM","KALAMAZOO","MI",49007,42.28564099,-85.584789647,191,"210 BURNHAM, KALAMAZOO, MI, 49007","Match","Non_Exact","210 BURNHAM DR, KALAMAZOO, MI, 49007",12229021,"R"
333692,"210 CABERO RD","HAWKINSVILLE","GA",31036,32.327721861,-83.526893827,192,"210 CABERO RD, HAWKINSVILLE, GA, 31036","Match","Exact","210 CABERO RD, HAWKINSVILLE, GA, 31036",634749859,"R"
333693,"210 CALLE ARROYO","SHANDON","CA",93461,35.6569822180001,-120.36880933,193,"210 CALLE ARROYO, SHANDON, CA, 93461","Match","Non_Exact","210 CLL ARROYO, SHANDON, CA, 93461",109859104,"R"
333694,"210 CALLE GRANDE","ORANGE","CA",92869,33.7918885240001,-117.780667552,194,"210 CALLE GRANDE, ORANGE, CA, 92869","Match","Non_Exact","210 S CLL GRANDE, ORANGE, CA, 92869",144034646,"L"
333695,"210 CAMELOT DRIVE","FAYETTEVILLE","GA",30214,33.4818910340001,-84.500018296,195,"210 CAMELOT DRIVE, FAYETTEVILLE, GA, 30214","Match","Exact","210 CAMELOT DR, FAYETTEVILLE, GA, 30214",75945096,"R"
333696,"210 CAMELOT ROAD","PORTERSVILLE","PA",16051,40.9821612170001,-80.104206904,196,"210 CAMELOT ROAD, PORTERSVILLE, PA, 16051","Match","Exact","210 CAMELOT RD, PORTERSVILLE, PA, 16051",52696525,"R"
333697,"210 CAMILLE VICTORIA COURT","MT. JULIET","TN",37122,36.275534184,-86.511182474,197,"210 CAMILLE VICTORIA COURT, MT. JULIET, TN, 37122","Match","Exact","210 CAMILLE VICTORIA CT, MOUNT JULIET, TN, 37122",637299929,"R"
333698,"210 CAMINO DEL RINCON","SANTA FE","NM",87506,NA,NA,198,"210 CAMINO DEL RINCON, SANTA FE, NM, 87506","No_Match",NA,NA,NA,NA
333699,"210 CAMP RD","COWANSVILLE","PA",16218,40.914846835,-79.618609454,199,"210 CAMP RD, COWANSVILLE, PA, 16218","Match","Exact","210 CAMP RD, COWANSVILLE, PA, 16218",52476936,"L"
333700,"210 CAMPBELL AVE","ITHACA","NY",14850,42.455943403,-76.524148306,200,"210 CAMPBELL AVE, ITHACA, NY, 14850","Match","Exact","210 CAMPBELL AVE, ITHACA, NY, 14850",18862747,"L"
333701,"210 CANAL ST","PORT NECHES","TX",77651,29.986131476,-93.9384210589999,201,"210 CANAL ST, PORT NECHES, TX, 77651","Match","Exact","210 CANAL ST, PORT NECHES, TX, 77651",73862257,"L"
333702,"210 CANTERBURY RD","WESTFIELD","NJ",7070,NA,NA,202,"210 CANTERBURY RD, WESTFIELD, NJ, 7070","No_Match",NA,NA,NA,NA
333703,"210 CAPITAL AVENUE","HARTFORD","CT",6106,41.762830448,-72.682350275,203,"210 CAPITAL AVENUE, HARTFORD, CT, 6106","Match","Non_Exact","210 CAPITOL AVE, HARTFORD, CT, 06106",3541159,"R"
333704,"210 CAREYBROOK LN","OXON HILL","MD",20745,38.7832375310001,-77.00613723,204,"210 CAREYBROOK LN, OXON HILL, MD, 20745","Match","Exact","210 CAREYBROOK LN, OXON HILL, MD, 20745",76302118,"L"
333705,"210 CARLISLE RD","ALEXANDER CITY","AL",35010,32.962625351,-85.9392237929999,205,"210 CARLISLE RD, ALEXANDER CITY, AL, 35010","Match","Exact","210 CARLISLE RD, ALEX CITY, AL, 35010",1676262,"L"
333706,"210 CARMEL HILL RD N","BETHLEHEM","CT",6751,41.6332130800001,-73.2483090809999,206,"210 CARMEL HILL RD N, BETHLEHEM, CT, 6751","Match","Exact","210 CARMEL HILL RD N, BETHLEHEM, CT, 06751",3126740,"L"
333707,"210 CARRIE LANE APT B101","REDLANDS","CA",92373,34.0495243170001,-117.175257073,207,"210 CARRIE LANE APT B101, REDLANDS, CA, 92373","Match","Exact","210 CARRIE LN, REDLANDS, CA, 92373",635332015,"R"
333708,"210 CARSON DR","BRYAN","OH",43506,41.4730622450001,-84.571654676,208,"210 CARSON DR, BRYAN, OH, 43506","Match","Exact","210 CARSON DR, BRYAN, OH, 43506",8333503,"R"
333709,"210 CARSON DRIVE","POPLAR GROVE","IL",61065,42.370071749,-88.8190884049999,209,"210 CARSON DRIVE, POPLAR GROVE, IL, 61065","Match","Exact","210 CARSON DR, POPLAR GROVE, IL, 61065",92163481,"R"
333710,"210 CARSON ST PO BOX 504","HOPEDALE","OH",43976,40.3260359330001,-80.90221962,210,"210 CARSON ST PO BOX 504, HOPEDALE, OH, 43976","Match","Exact","210 CARSON ST, HOPEDALE, OH, 43976",37707805,"R"
333711,"210 CARVER STREET NO 101","GARLAND","TX",75040,NA,NA,211,"210 CARVER STREET NO 101, GARLAND, TX, 75040","No_Match",NA,NA,NA,NA
333712,"210 CASCADE TERRACE","MONTEREY","CA",91755,34.0423032260001,-118.105697268,212,"210 CASCADE TERRACE, MONTEREY, CA, 91755","Match","Non_Exact","210 CASCADE TER, MONTEREY PARK, CA, 91755",648663243,"R"
333713,"210 CASHUA FERRY RD","DARLINGTON","SC",29532,34.3119736720001,-79.8561305009999,213,"210 CASHUA FERRY RD, DARLINGTON, SC, 29532","Match","Exact","210 CASHUA FERRY RD, DARLINGTON, SC, 29532",635571375,"L"
333714,"210 CASTLE RIDGE COURT","FEDRICKSBURG","VA",22406,38.355843701,-77.495792448,214,"210 CASTLE RIDGE COURT, FEDRICKSBURG, VA, 22406","Match","Non_Exact","210 CASTLE RIDGE CT, FREDERICKSBURG, VA, 22406",25566908,"R"
333715,"210 CASWELL DRIVE","COLUMBUS","OH",43230,40.012207333,-82.850417475,215,"210 CASWELL DRIVE, COLUMBUS, OH, 43230","Match","Exact","210 CASWELL DR, COLUMBUS, OH, 43230",135746467,"L"
333716,"210 CATHERINE TERRACE","FAIRFIELD","CT",6824,41.135948415,-73.2551618959999,216,"210 CATHERINE TERRACE, FAIRFIELD, CT, 6824","Match","Exact","210 CATHERINE TER, FAIRFIELD, CT, 06824",3241342,"L"
333717,"210 CATHY ANN DRIVE","READING","PA",19606,40.326031979,-75.839537556,217,"210 CATHY ANN DRIVE, READING, PA, 19606","Match","Exact","210 CATHY ANN DR, READING, PA, 19606",80385664,"R"
333718,"210 CEDAR LANE","MURCHISON","TX",75778,32.364842235,-95.70084315,218,"210 CEDAR LANE, MURCHISON, TX, 75778","Match","Non_Exact","210 E CEDAR LN, MURCHISON, TX, 75778",42923141,"L"
333719,"210 CEDAR STREET","LATTA","SC",29565,34.344312863,-79.443185371,219,"210 CEDAR STREET, LATTA, SC, 29565","Match","Exact","210 CEDAR ST, LATTA, SC, 29565",28821819,"L"
333720,"210 CEMETARY RD","WARRENVILLE","SC",29851,33.545573705,-81.800000425,220,"210 CEMETARY RD, WARRENVILLE, SC, 29851","Match","Non_Exact","210 CEMETERY RD, WARRENVILLE, SC, 29851",64989471,"L"
333721,"210 CENTER ROAD","MONTPELIER","VT",5602,44.2747089750001,-72.55074411,221,"210 CENTER ROAD, MONTPELIER, VT, 5602","Match","Exact","210 CENTER RD, MONTPELIER, VT, 05602",136695455,"R"
333722,"210 CENTRAL CALDWOOD","BEAUMONT","TX",77706,NA,NA,222,"210 CENTRAL CALDWOOD, BEAUMONT, TX, 77706","No_Match",NA,NA,NA,NA
333723,"210 CHAD B BAKER STREET","RESERVE","LA",70084,30.0558399830001,-90.533378026,223,"210 CHAD B BAKER STREET, RESERVE, LA, 70084","Match","Exact","210 CHAD B BAKER ST, RESERVE, LA, 70084",639829226,"R"
333724,"210 CHANDLER RD","GREER","SC",29651,34.957649218,-82.234814743,224,"210 CHANDLER RD, GREER, SC, 29651","Match","Exact","210 CHANDLER RD, GREER, SC, 29651",643354608,"L"
333725,"210 CHAPEL COURT SOUTH","HENDERSONVILLE","TN",37075,36.3033136400001,-86.600069885,225,"210 CHAPEL COURT SOUTH, HENDERSONVILLE, TN, 37075","Match","Exact","210 CHAPEL CT S, HENDERSONVILLE, TN, 37075",617221398,"R"
333726,"210 CHARDA DRIVE","WESTMINSTER","SC",29693,34.699266552,-83.1019510099999,226,"210 CHARDA DRIVE, WESTMINSTER, SC, 29693","Match","Exact","210 CHARDA DR, WESTMINSTER, SC, 29693",25668252,"R"
333727,"210 CHARLES STREET APARTMENT 107","WALTHAM","MA",2453,NA,NA,227,"210 CHARLES STREET APARTMENT 107, WALTHAM, MA, 2453","No_Match",NA,NA,NA,NA
333728,"210 CHASTAIN CT","JACKSONVILLE","NC",28546,34.7947287000001,-77.3858071179999,228,"210 CHASTAIN CT, JACKSONVILLE, NC, 28546","Match","Exact","210 CHASTAIN CT, JACKSONVILLE, NC, 28546",619262669,"R"
333729,"210 CHATHAM LANE","PITTSBURGH","PA",15238,40.567843081,-79.887894398,229,"210 CHATHAM LANE, PITTSBURGH, PA, 15238","Match","Exact","210 CHATHAM LN, PITTSBURGH, PA, 15238",51712846,"R"
333730,"210 CHEROKEE DR","CAPE GIRARDEAU","MO",63701,37.396359293,-89.4705353429999,230,"210 CHEROKEE DR, CAPE GIRARDEAU, MO, 63701","Match","Exact","210 CHEROKEE DR, CAPE GIRARDEAU, MO, 63701",35192577,"R"
333731,"210 CHERRY HILL DRIVE","BELTON","MO",64012,38.8193631570001,-94.556082868,231,"210 CHERRY HILL DRIVE, BELTON, MO, 64012","Match","Exact","210 CHERRY HILL DR, BELTON, MO, 64012",100914730,"L"
333732,"210 CHESTNUT GROVE ROAD","DILLSBURG","PA",17019,40.1329788940001,-77.003491402,232,"210 CHESTNUT GROVE ROAD, DILLSBURG, PA, 17019","Match","Exact","210 CHESTNUT GROVE RD, DILLSBURG, PA, 17019",88725982,"L"
333733,"210 CHESTNUT ST","PENDLETON","KY",40055,38.4717423370001,-85.319706404,233,"210 CHESTNUT ST, PENDLETON, KY, 40055","Match","Exact","210 CHESTNUT ST, PENDLETON, KY, 40055",95300349,"L"
333734,"210 CHESTNUT ST","UXBRIDGE","MA",1569,42.0335098420001,-71.6331099779999,234,"210 CHESTNUT ST, UXBRIDGE, MA, 1569","Match","Exact","210 CHESTNUT ST, UXBRIDGE, MA, 01569",647974988,"L"
333735,"210 CHESTNUT TREE ROAD","HEBRON","MD",21830,38.41481459,-75.6826551029999,235,"210 CHESTNUT TREE ROAD, HEBRON, MD, 21830","Match","Exact","210 CHESTNUT TREE RD, HEBRON, MD, 21830",114445852,"R"
333736,"210 CHEVAL CIRCLE SE","BROWNSBORO","AL",35741,34.7081496480001,-86.509066452,236,"210 CHEVAL CIRCLE SE, BROWNSBORO, AL, 35741","Match","Non_Exact","210 CHEVAL CIR, BROWNSBORO, AL, 35741",58138769,"L"
333737,"210 CHICKADEE","HARRISON","AR",72601,36.261911947,-93.141642379,237,"210 CHICKADEE, HARRISON, AR, 72601","Match","Exact","210 CHICKADEE, HARRISON, AR, 72601",19979870,"L"
333738,"210 CHICKASAW LANE","LOUDON","TN",37774,35.73571867,-84.2637384289999,238,"210 CHICKASAW LANE, LOUDON, TN, 37774","Match","Non_Exact","210 CHICKSAW LN, LOUDON, TN, 37774",99975381,"R"
333739,"210 CHISHOLM TRAIL","SHERMAN","TX",75092,33.63150854,-96.64001724,239,"210 CHISHOLM TRAIL, SHERMAN, TX, 75092","Match","Exact","210 CHISHOLM TRL, SHERMAN, TX, 75092",636352778,"R"
333740,"210 CHISWICK CLOSE","ALPHARETTA","GA",30022,34.027889208,-84.19691715,240,"210 CHISWICK CLOSE, ALPHARETTA, GA, 30022","Match","Exact","210 CHISWICK CLOSE, ALPHARETTA, GA, 30022",17374813,"L"
333741,"210 CHRISTIE STREET","LEONIA","NJ",7605,40.8596619780001,-73.991852111,241,"210 CHRISTIE STREET, LEONIA, NJ, 7605","Match","Exact","210 CHRISTIE ST, LEONIA, NJ, 07605",64389873,"R"
333742,"210 CHUCKANUT POINT RD","BELLINGHAM","WA",98225,48.665751415,-122.492806544,242,"210 CHUCKANUT POINT RD, BELLINGHAM, WA, 98225","Match","Non_Exact","210 CHUCKANUT POINT RD, BELLINGHAM, WA, 98229",647270951,"R"
333743,"210 CHURCH ST","WINONA","TX",75792,32.4898785620001,-95.168424239,243,"210 CHURCH ST, WINONA, TX, 75792","Match","Exact","210 CHURCH ST, WINONA, TX, 75792",141267242,"R"
333744,"210 CHURCH STREET","MANCHESTER","KY",40962,37.1574813170001,-83.7682188429999,244,"210 CHURCH STREET, MANCHESTER, KY, 40962","Match","Exact","210 CHURCH ST, MANCHESTER, KY, 40962",90832400,"L"
333745,"210 CITY BLVD W APT 303","ORANGE","CA",92868,33.785916274,-117.894536878,245,"210 CITY BLVD W APT 303, ORANGE, CA, 92868","Match","Exact","210 CITY BLVD W, ORANGE, CA, 92868",144414463,"R"
333746,"210 CLARK RD","MONROE","NC",28110,34.9816908330001,-80.5895539529999,246,"210 CLARK RD, MONROE, NC, 28110","Match","Exact","210 CLARK RD, MONROE, NC, 28110",14174358,"L"
333747,"210 CLARK STREET","ROCKWALL","TX",32548,NA,NA,247,"210 CLARK STREET, ROCKWALL, TX, 32548","No_Match",NA,NA,NA,NA
333748,"210 CLARKE ST","SYRACUSE","NY",13210,43.0390305920001,-76.1162238699999,248,"210 CLARKE ST, SYRACUSE, NY, 13210","Match","Exact","210 CLARKE ST, SYRACUSE, NY, 13210",46573661,"R"
333749,"210 CLARKSTORE RD","CERULEAN","KY",42215,NA,NA,249,"210 CLARKSTORE RD, CERULEAN, KY, 42215","No_Match",NA,NA,NA,NA
333750,"210 CLAYTON DR","YORKTOWN","VA",23693,37.122025615,-76.473316988,250,"210 CLAYTON DR, YORKTOWN, VA, 23693","Match","Exact","210 CLAYTON DR, YORKTOWN, VA, 23693",103787178,"R"
333751,"210 CLAYWELL","SAN ANTONIO","TX",78209,29.4957106000001,-98.462180785,251,"210 CLAYWELL, SAN ANTONIO, TX, 78209","Match","Non_Exact","210 CLAYWELL DR, SAN ANTONIO, TX, 78209",649454112,"R"
333752,"210 CLEMAN AVE","YAKIMA","WA",98902,46.60025496,-120.54855992,252,"210 CLEMAN AVE, YAKIMA, WA, 98902","Match","Exact","210 CLEMAN AVE, YAKIMA, WA, 98902",184934282,"L"
333753,"210 CLINTON AVENUE - APT 12G","BROOKLYN","NY",11205,40.691908788,-73.96857069,253,"210 CLINTON AVENUE - APT 12G, BROOKLYN, NY, 11205","Match","Exact","210 CLINTON AVE, BROOKLYN, NY, 11205",59077777,"R"
333754,"210 CLINTON AVENUE 7D","BROOKLYN","NY",11205,40.691908788,-73.96857069,254,"210 CLINTON AVENUE 7D, BROOKLYN, NY, 11205","Match","Exact","210 CLINTON AVE, BROOKLYN, NY, 11205",59077777,"R"
333755,"210 CLINTON AVENUE APT 3C","BROOKLYN","NY",11205,40.691908788,-73.96857069,255,"210 CLINTON AVENUE APT 3C, BROOKLYN, NY, 11205","Match","Exact","210 CLINTON AVE, BROOKLYN, NY, 11205",59077777,"R"
333756,"210 CLINTON AVENUE","NORTH PLAINFIELD","NJ",7063,40.6013933840001,-74.444656121,256,"210 CLINTON AVENUE, NORTH PLAINFIELD, NJ, 7063","Match","Exact","210 CLINTON AVE, N PLAINFIELD, NJ, 07063",60602272,"R"
333757,"210 CLMA DR","GOODLETTSVILLE","TN",37072,NA,NA,257,"210 CLMA DR, GOODLETTSVILLE, TN, 37072","No_Match",NA,NA,NA,NA
333758,"210 CLOVERLAND DRIVE","ROCHESTER","NY",14610,43.1437743720001,-77.530819126,258,"210 CLOVERLAND DRIVE, ROCHESTER, NY, 14610","Match","Exact","210 CLOVERLAND DR, ROCHESTER, NY, 14610",652651470,"L"
333759,"210 CLYDE AVE","SMYRNA","TN",37167,35.982187363,-86.530044871,259,"210 CLYDE AVE, SMYRNA, TN, 37167","Match","Exact","210 CLYDE AVE, SMYRNA, TN, 37167",59033968,"R"
333760,"210 COACHMAN DRIVE","CHESAPEAKE","VA",23325,36.790938349,-76.251393508,260,"210 COACHMAN DRIVE, CHESAPEAKE, VA, 23325","Match","Exact","210 COACHMAN DR, CHESAPEAKE, VA, 23325",121772138,"L"
333761,"210 COBURN WOODS","NASHUA","NH",3063,42.7701914,-71.517334738,261,"210 COBURN WOODS, NASHUA, NH, 3063","Match","Exact","210 COBURN WOODS, NASHUA, NH, 03063",113544392,"L"
333762,"210 COLE AVE","WILLIAMSTOWN","MA",1267,42.7158576900001,-73.193250588,262,"210 COLE AVE, WILLIAMSTOWN, MA, 1267","Match","Exact","210 COLE AVE, WILLIAMSTOWN, MA, 01267",3915428,"R"
333763,"210 COLE CT","CANTON","GA",30114,34.212800477,-84.5094421599999,263,"210 COLE CT, CANTON, GA, 30114","Match","Exact","210 COLE CT, CANTON, GA, 30114",628077521,"R"
333764,"210 COLEMAN ROAD","WAVERLY","NY",14892,42.0788530080001,-76.494399056,264,"210 COLEMAN ROAD, WAVERLY, NY, 14892","Match","Exact","210 COLEMAN RD, WAVERLY, NY, 14892",46708631,"R"
333765,"210 COLLEGE STREET","YOUNGSVILLE","PA",16371,41.8524326560001,-79.315524054,265,"210 COLLEGE STREET, YOUNGSVILLE, PA, 16371","Match","Exact","210 COLLEGE ST, YOUNGSVILLE, PA, 16371",98685881,"L"
333766,"210 COLLINSVILLE","EAST ST LOUIS","IL",62201,38.6270332770001,-90.1593589679999,266,"210 COLLINSVILLE, EAST ST LOUIS, IL, 62201","Match","Non_Exact","210 COLLINSVILLE AVE, E SAINT LOUIS, IL, 62201",107829715,"R"
333767,"210 COLLINSVILLIE AVENUE","EAST ST LOUIS","IL",62201,38.6270332770001,-90.1593589679999,267,"210 COLLINSVILLIE AVENUE, EAST ST LOUIS, IL, 62201","Match","Non_Exact","210 COLLINSVILLE AVE, E SAINT LOUIS, IL, 62201",107829715,"R"
333768,"210 COLONIAL HILL DR","LUFKIN","TX",75901,31.2845326120001,-94.705262408,268,"210 COLONIAL HILL DR, LUFKIN, TX, 75901","Match","Exact","210 COLONIAL HILL DR, LUFKIN, TX, 75901",624253845,"L"
333769,"210 COLUMBIA ROAD","CARTERSVILLE","VA",23027,37.6636772250001,-78.144965578,269,"210 COLUMBIA ROAD, CARTERSVILLE, VA, 23027","Match","Exact","210 COLUMBIA RD, CARTERSVILLE, VA, 23027",73710392,"L"
333770,"210 COLUMBIA STREET UNIT 4","CAMBRIDGE","MA",2139,42.3682742730001,-71.0971175399999,270,"210 COLUMBIA STREET UNIT 4, CAMBRIDGE, MA, 2139","Match","Exact","210 COLUMBIA ST, CAMBRIDGE, MA, 02139",86869436,"R"
333771,"210 COLUMBIA STREET","BUTLER","PA",16001,40.86471607,-79.9062174049999,271,"210 COLUMBIA STREET, BUTLER, PA, 16001","Match","Exact","210 COLUMBIA ST, BUTLER, PA, 16001",607360188,"R"
333772,"210 COMMERCIAL","BROOKLYN","WI",53521,42.8532914560001,-89.3704991559999,272,"210 COMMERCIAL, BROOKLYN, WI, 53521","Match","Non_Exact","210 COMMERCIAL ST, BROOKLYN, WI, 53521",48528365,"R"
333773,"210 COMPTON DRIVE","WAXAHACHIE","TX",75167,32.380920098,-96.8706758929999,273,"210 COMPTON DRIVE, WAXAHACHIE, TX, 75167","Match","Exact","210 COMPTON DR, WAXAHACHIE, TX, 75167",103449138,"L"
333774,"210 CONCORD ROAD","SUDBURY","MA",1776,42.376527104,-71.4152270389999,274,"210 CONCORD ROAD, SUDBURY, MA, 1776","Match","Exact","210 CONCORD RD, SUDBURY, MA, 01776",86925404,"L"
333775,"210 CONGDON STREET E","MIDDLETOWN","CT",6457,41.571683433,-72.678980711,275,"210 CONGDON STREET E, MIDDLETOWN, CT, 6457","Match","Exact","210 CONGDON ST E, MIDDLETOWN, CT, 06457",618590921,"R"
333776,"210 CONTINENTE AVENUE","BRENTWOOD","CA",94513,37.9218106960001,-121.706964252,276,"210 CONTINENTE AVENUE, BRENTWOOD, CA, 94513","Match","Exact","210 CONTINENTE AVE, BRENTWOOD, CA, 94513",633748862,"L"
333777,"210 CONWAY RD APT J-1","ORLANDO","FL",32812,NA,NA,277,"210 CONWAY RD APT J-1, ORLANDO, FL, 32812","No_Match",NA,NA,NA,NA
333778,"210 COOK DRIVE","SIOUX CITY","IA",51104,42.5187493920001,-96.415027978,278,"210 COOK DRIVE, SIOUX CITY, IA, 51104","Match","Exact","210 COOK DR, SIOUX CITY, IA, 51104",651757955,"L"
333779,"210 COTTAGE AVENUE","WESTON","WV",26452,39.033142705,-80.465039702,279,"210 COTTAGE AVENUE, WESTON, WV, 26452","Match","Exact","210 COTTAGE AVE, WESTON, WV, 26452",639828547,"L"
333780,"210 COUNTRY CT","LUXEMBURG","WI",54217,44.5266952650001,-87.7083363419999,280,"210 COUNTRY CT, LUXEMBURG, WI, 54217","Match","Exact","210 COUNTRY CT, LUXEMBURG, WI, 54217",148184084,"R"
333781,"210 COUNTY ROAD 2722","MICO","TX",78056,29.535669086,-98.8479639079999,281,"210 COUNTY ROAD 2722, MICO, TX, 78056","Match","Exact","210 CO RD 2722, MICO, TX, 78056",102836472,"L"
333782,"210 COUNTY ROAD 326","FLORENCE","AL",35634,34.94379852,-87.630566231,282,"210 COUNTY ROAD 326, FLORENCE, AL, 35634","Match","Exact","210 CO RD 326, FLORENCE, AL, 35634",41334285,"L"
333783,"210 COUNTY ROAD 400","FYFFE","AL",35971,34.406510645,-85.9681686279999,283,"210 COUNTY ROAD 400, FYFFE, AL, 35971","Match","Exact","210 CO RD 400, FYFFE, AL, 35971",99156326,"R"
333784,"210 COUNTY ROAD 6877","NATALIA","TX",78059,29.1838612930001,-98.815665704,284,"210 COUNTY ROAD 6877, NATALIA, TX, 78059","Match","Exact","210 CO RD 6877, NATALIA, TX, 78059",629624114,"L"
333785,"210 COVINGTON SQUARE DRIVE","CARY","NC",27513,35.7763581410001,-78.844741336,285,"210 COVINGTON SQUARE DRIVE, CARY, NC, 27513","Match","Exact","210 COVINGTON SQUARE DR, CARY, NC, 27513",72576491,"L"
333786,"210 COX RD","ROBERT LEE","TX",76945,31.9198431190001,-100.444384188,286,"210 COX RD, ROBERT LEE, TX, 76945","Match","Exact","210 COX RD, ROBERT LEE, TX, 76945",647772605,"L"
333787,"210 CR 106","SANTA ANNA","TX",76878,NA,NA,287,"210 CR 106, SANTA ANNA, TX, 76878","No_Match",NA,NA,NA,NA
333788,"210 CR 262","JASPER","TX",75951,30.95881888,-93.982015831,288,"210 CR 262, JASPER, TX, 75951","Match","Exact","210 CO RD 262, JASPER, TX, 75951",32393022,"L"
333789,"210 CR 289/PO BOX 31","PACHUTA","MS",39347,NA,NA,289,"210 CR 289/PO BOX 31, PACHUTA, MS, 39347","No_Match",NA,NA,NA,NA
333790,"210 CRAWFORD ST","CAMPBELLSVILLE","KY",42718,37.337488632,-85.329964705,290,"210 CRAWFORD ST, CAMPBELLSVILLE, KY, 42718","Match","Exact","210 CRAWFORD ST, CAMPBELLSVILLE, KY, 42718",35250246,"R"
333791,"210 CRESCENT CIRCLE","CHICKAMAUGA","GA",30707,34.871311393,-85.297521274,291,"210 CRESCENT CIRCLE, CHICKAMAUGA, GA, 30707","Match","Non_Exact","210 CRESCENT AVE, CHICKAMAUGA, GA, 30707",66712260,"R"
333792,"210 CRESTVIEW LANE","WILLIAMSTOWN","KY",41097,38.658152855,-84.573172746,292,"210 CRESTVIEW LANE, WILLIAMSTOWN, KY, 41097","Match","Exact","210 CRESTVIEW LN, WILLIAMSTOWN, KY, 41097",103856091,"R"
333793,"210 CROSS CREEK DRIVE","HERNANDO","MS",38632,NA,NA,293,"210 CROSS CREEK DRIVE, HERNANDO, MS, 38632","No_Match",NA,NA,NA,NA
333794,"210 CROSS CREEK ROAD","LONGVIEW","TX",75602,32.464418161,-94.616263405,294,"210 CROSS CREEK ROAD, LONGVIEW, TX, 75602","Match","Exact","210 CROSS CREEK RD, LONGVIEW, TX, 75602",645542688,"R"
333795,"210 CROSS FIELD","GREENVILLE","SC",29607,34.80571438,-82.26867365,295,"210 CROSS FIELD, GREENVILLE, SC, 29607","Match","Non_Exact","210 CROSS FIELD RD, GREENVILLE, SC, 29607",38327153,"R"
333796,"210 CROSSGATE DRIVE","CHURCH HILL","MD",21623,39.1415278060001,-75.982158106,296,"210 CROSSGATE DRIVE, CHURCH HILL, MD, 21623","Match","Exact","210 CROSSGATE DR, CHURCH HILL, MD, 21623",625747758,"R"
333797,"210 CROSSWINDS DR","LITTLESTOWN","PA",17340,39.751870599,-77.1174080449999,297,"210 CROSSWINDS DR, LITTLESTOWN, PA, 17340","Match","Non_Exact","210 CROSSWIND DR, LITTLESTOWN, PA, 17340",650881166,"L"
333798,"210 CRYSTAL STREET SUITE A","CARY","IL",60013,42.2104275880001,-88.243541208,298,"210 CRYSTAL STREET SUITE A, CARY, IL, 60013","Match","Exact","210 CRYSTAL ST, CARY, IL, 60013",119823887,"L"
333799,"210 CUMBERLAND ST","GLOUCESTER","NJ",8030,39.8974726490001,-75.1255449179999,299,"210 CUMBERLAND ST, GLOUCESTER, NJ, 8030","Match","Non_Exact","210 CUMBERLAND ST, GLOUCESTER CY, NJ, 08030",134346652,"R"
333800,"210 CUMBERLAND","GLOUCESTER CITY","NJ",8030,39.8974726490001,-75.1255449179999,300,"210 CUMBERLAND, GLOUCESTER CITY, NJ, 8030","Match","Non_Exact","210 CUMBERLAND ST, GLOUCESTER CITY, NJ, 08030",134346652,"R"
333801,"210 CURICO LANE","SUMMERVILLE","SC",29483,33.0286548460001,-80.2458147249999,301,"210 CURICO LANE, SUMMERVILLE, SC, 29483","Match","Exact","210 CURICO LN, SUMMERVILLE, SC, 29483",611174467,"L"
333802,"210 CYANAMID LANE","ANDERSONVILLE","GA",31711,32.197756371,-84.1362540539999,302,"210 CYANAMID LANE, ANDERSONVILLE, GA, 31711","Match","Exact","210 CYANAMID LN, ANDERSONVILLE, GA, 31711",653489565,"L"
333803,"210 D LOVERTURE CIRCLE","TUSKEGEE","AL",36083,32.397550773,-85.7411871039999,303,"210 D LOVERTURE CIRCLE, TUSKEGEE, AL, 36083","Match","Non_Exact","210 L OVERTURE CIR, TUSKEGEE, AL, 36083",647417447,"R"
333804,"210 DANIEL PKWY","WASHINGTON","IL",61571,40.7072578080001,-89.4754756359999,304,"210 DANIEL PKWY, WASHINGTON, IL, 61571","Match","Exact","210 DANIEL PKWY, WASHINGTON, IL, 61571",22501836,"R"
333805,"210 DEERFIELD DR","COLUMBUS","MS",39702,33.4979604220001,-88.359716851,305,"210 DEERFIELD DR, COLUMBUS, MS, 39702","Match","Exact","210 DEERFIELD DR, COLUMBUS, MS, 39702",753576,"R"
333806,"210 DELAWARE ST SE","MINNEAPOLIS","MN",55455,44.9725845470001,-93.2322581619999,306,"210 DELAWARE ST SE, MINNEAPOLIS, MN, 55455","Match","Exact","210 DELAWARE ST SE, MINNEAPOLIS, MN, 55455",43638280,"R"
333807,"210 DELLWOOD","GREENVILLE","SC",29609,34.876304432,-82.369708402,307,"210 DELLWOOD, GREENVILLE, SC, 29609","Match","Non_Exact","210 DELLWOOD DR, GREENVILLE, SC, 29609",38302282,"R"
333808,"210 DEMERS N","HOT SPRINGS","MT",59845,47.610092455,-114.674250938,308,"210 DEMERS N, HOT SPRINGS, MT, 59845","Match","Non_Exact","210 DEMERS ST N, HOT SPRINGS, MT, 59845",204459486,"R"
333809,"210 DENNISON STREET","LITTLE ROCK","AR",72205,34.7492391600001,-92.298757332,309,"210 DENNISON STREET, LITTLE ROCK, AR, 72205","Match","Exact","210 DENNISON ST, LITTLE ROCK, AR, 72205",83509084,"R"
333810,"210 DENTON PLACE","ROOSEVELT","NY",11575,40.68608161,-73.5813885049999,310,"210 DENTON PLACE, ROOSEVELT, NY, 11575","Match","Exact","210 DENTON PL, ROOSEVELT, NY, 11575",147630856,"R"
333811,"210 DEVOE ST","JACKSONVILLE","FL",32220,30.3247356210001,-81.7951179519999,311,"210 DEVOE ST, JACKSONVILLE, FL, 32220","Match","Exact","210 DEVOE ST, JACKSONVILLE, FL, 32220",83957289,"L"
333812,"210 DEVON LN","WILMER","TX",75172,32.605722132,-96.6975280679999,312,"210 DEVON LN, WILMER, TX, 75172","Match","Non_Exact","210 DEVON, WILMER, TX, 75172",103218524,"R"
333813,"210 DIVISION ST","SANDSTONE","MN",55072,46.127654368,-92.8675516759999,313,"210 DIVISION ST, SANDSTONE, MN, 55072","Match","Exact","210 DIVISION ST, SANDSTONE, MN, 55072",163093641,"R"
333814,"210 DOGWOOD LANE","MERIDEN","CT",6450,41.5569919910001,-72.77432857,314,"210 DOGWOOD LANE, MERIDEN, CT, 6450","Match","Exact","210 DOGWOOD LN, MERIDEN, CT, 06450",3724439,"L"
333815,"210 DORAL CT","CAMPBELLSVILLE","KY",42718,37.3944222810001,-85.365873253,315,"210 DORAL CT, CAMPBELLSVILLE, KY, 42718","Match","Exact","210 DORAL CT, CAMPBELLSVILLE, KY, 42718",35239222,"L"
333816,"210 DOVER BLUFF DRIVE","ORANGE PARK","FL",32073,30.182600538,-81.784305183,316,"210 DOVER BLUFF DRIVE, ORANGE PARK, FL, 32073","Match","Exact","210 DOVER BLUFF DR, ORANGE PARK, FL, 32073",83834914,"L"
333817,"210 DOWNING DRIVE","GALT","CA",95632,38.2440918410001,-121.312574144,317,"210 DOWNING DRIVE, GALT, CA, 95632","Match","Exact","210 DOWNING DR, GALT, CA, 95632",133317103,"L"
333818,"210 DOWNY DR","HAMPSTEAD","NC",28443,34.3780783300001,-77.7081447309999,318,"210 DOWNY DR, HAMPSTEAD, NC, 28443","Match","Exact","210 DOWNY DR, HAMPSTEAD, NC, 28443",652094091,"R"
333819,"210 DOWS ST","GARRETSON","SD",57030,43.709771866,-96.5095932739999,319,"210 DOWS ST, GARRETSON, SD, 57030","Match","Exact","210 DOWS ST, GARRETSON, SD, 57030",647737960,"L"
333820,"210 DRAKE LANE","LEDGEWOOD","NJ",7852,40.876373448,-74.643724726,320,"210 DRAKE LANE, LEDGEWOOD, NJ, 7852","Match","Exact","210 DRAKE LN, LEDGEWOOD, NJ, 07852",60461854,"R"
333821,"210 DUCKETT RIDGE ROAD","TELLICO PLAINS","TN",37385,35.2288444820001,-84.342904103,321,"210 DUCKETT RIDGE ROAD, TELLICO PLAINS, TN, 37385","Match","Exact","210 DUCKETT RIDGE RD, TELLICO PLAINS, TN, 37385",85314844,"L"
333822,"210 DUFOUR ST EXT","MOREAUVILLE","LA",71355,31.0327702870001,-91.966923446,322,"210 DUFOUR ST EXT, MOREAUVILLE, LA, 71355","Match","Non_Exact","210 DUFOUR ST EXD, MOREAUVILLE, LA, 71355",13145273,"R"
333823,"210 DUPONT AVE","NITRO","WV",25143,38.40834635,-81.8449003759999,323,"210 DUPONT AVE, NITRO, WV, 25143","Match","Exact","210 DUPONT AVE, NITRO, WV, 25143",78582425,"L"
333824,"210 DURST DRIVE","NORTH AUGUSTA","SC",29860,33.5465289690001,-81.9858777489999,324,"210 DURST DRIVE, NORTH AUGUSTA, SC, 29860","Match","Exact","210 DURST DR, NORTH AUGUSTA, SC, 29860",650598602,"R"
333825,"210 E 10TH STREET","GENOA","OH",43430,41.522917627,-83.356204202,325,"210 E 10TH STREET, GENOA, OH, 43430","Match","Exact","210 E 10TH ST, GENOA, OH, 43430",44069156,"L"
333826,"210 E 1ST ST","CARNEGIE","OK",73015,NA,NA,326,"210 E 1ST ST, CARNEGIE, OK, 73015","Tie",NA,NA,NA,NA
333827,"210 E 2ND AVE","NORTH WILDWOOD","NJ",8260,39.0059949500001,-74.792723972,327,"210 E 2ND AVE, NORTH WILDWOOD, NJ, 8260","Match","Exact","210 E 2ND AVE, N WILDWOOD, NJ, 08260",174338785,"L"
333828,"210 E 36TH STREET APT 8C","NEW YORK","NY",10016,40.7467172250001,-73.976514971,328,"210 E 36TH STREET APT 8C, NEW YORK, NY, 10016","Match","Non_Exact","210 E 36TH ST, NEW YORK, NY, 10016",59654477,"R"
333829,"210 E 4TH ST","PLANKINTON","SD",57368,43.7170211440001,-98.483455984,329,"210 E 4TH ST, PLANKINTON, SD, 57368","Match","Exact","210 E 4TH ST, PLANKINTON, SD, 57368",199170762,"R"
333830,"210 E 51 STREET","BROOKLYN","NY",11203,40.657040399,-73.929940131,330,"210 E 51 STREET, BROOKLYN, NY, 11203","Match","Exact","210 E 51ST ST, BROOKLYN, NY, 11203",59083546,"R"
333831,"210 E 5TH ST","KINMUNDY","IL",62854,38.768992456,-88.8474362439999,331,"210 E 5TH ST, KINMUNDY, IL, 62854","Match","Exact","210 E 5TH ST, KINMUNDY, IL, 62854",640150147,"R"
333832,"210 E 5TH STREET","FREDERICK","MD",21701,39.4201131900001,-77.406627514,332,"210 E 5TH STREET, FREDERICK, MD, 21701","Match","Exact","210 E 5TH ST, FREDERICK, MD, 21701",60673824,"L"
333833,"210 E 600 N","MIDWAY","UT",84049,40.521826076,-111.468248059,333,"210 E 600 N, MIDWAY, UT, 84049","Match","Exact","210 E 600 N, MIDWAY, UT, 84049",640915664,"R"
333834,"210 E 78TH AVE","MERRILLVILLE","IN",46410,NA,NA,334,"210 E 78TH AVE, MERRILLVILLE, IN, 46410","Tie",NA,NA,NA,NA
333835,"210 E ADAMS ST","HUNTINGTON","OR",97907,NA,NA,335,"210 E ADAMS ST, HUNTINGTON, OR, 97907","Tie",NA,NA,NA,NA
333836,"210 E ADAMS STREET","HUNTINGTON","OR",97907,NA,NA,336,"210 E ADAMS STREET, HUNTINGTON, OR, 97907","Tie",NA,NA,NA,NA
333837,"210 E AUGUSTA LN","SLIDELL","LA",70458,30.2346543560001,-89.7894723919999,337,"210 E AUGUSTA LN, SLIDELL, LA, 70458","Match","Exact","210 E AUGUSTA LN, SLIDELL, LA, 70458",111284066,"R"
333838,"210 E BENTON STREET","MOUNT CARROLL","IL",61053,42.09480769,-89.976982565,338,"210 E BENTON STREET, MOUNT CARROLL, IL, 61053","Match","Exact","210 E BENTON ST, MOUNT CARROLL, IL, 61053",607142479,"R"
333839,"210 E CEDAR","TYLER","TX",75702,32.364339439,-95.299234857,339,"210 E CEDAR, TYLER, TX, 75702","Match","Non_Exact","210 E CEDAR ST, TYLER, TX, 75702",641635149,"L"
333840,"210 E CHICAGO AVE","WESTMONT","IL",60559,41.8028424240001,-87.9703270369999,340,"210 E CHICAGO AVE, WESTMONT, IL, 60559","Match","Exact","210 E CHICAGO AVE, WESTMONT, IL, 60559",651654878,"L"
333841,"210 E CLAY STREET","RICHMOND","VA",23219,37.5461970430001,-77.438367188,341,"210 E CLAY STREET, RICHMOND, VA, 23219","Match","Exact","210 E CLAY ST, RICHMOND, VA, 23219",201540387,"L"
333842,"210 E COPELAND","KINGMAN","KS",67068,37.6539167490001,-98.11161101,342,"210 E COPELAND, KINGMAN, KS, 67068","Match","Non_Exact","210 E COPELAND AVE, KINGMAN, KS, 67068",160947827,"R"
333843,"210 E DIXON STREET","JEFFERSON","TX",75657,32.760396416,-94.353619678,343,"210 E DIXON STREET, JEFFERSON, TX, 75657","Match","Exact","210 E DIXON ST, JEFFERSON, TX, 75657",57747065,"R"
333844,"210 E ELLIS ST","BELDING","MI",48809,43.1034770530001,-85.2263878919999,344,"210 E ELLIS ST, BELDING, MI, 48809","Match","Exact","210 E ELLIS ST, BELDING, MI, 48809",12148079,"L"
333845,"210 E FORSYTH STREET","JACKSONVILLE","FL",32202,30.326426526,-81.6551429689999,345,"210 E FORSYTH STREET, JACKSONVILLE, FL, 32202","Match","Exact","210 E FORSYTH ST, JACKSONVILLE, FL, 32202",83899819,"R"
333846,"210 E GENSESEE","STREET","IL",60531,NA,NA,346,"210 E GENSESEE, STREET, IL, 60531","No_Match",NA,NA,NA,NA
333847,"210 E HAZEL APT 1","INGLEWOOD","CA",90302,NA,NA,347,"210 E HAZEL APT 1, INGLEWOOD, CA, 90302","No_Match",NA,NA,NA,NA
333848,"210 E HAZEL ST APT 1","INGLEWOOD","CA",90302,33.970170894,-118.353925374,348,"210 E HAZEL ST APT 1, INGLEWOOD, CA, 90302","Match","Non_Exact","210 E HAZEL ST, INGLEWOOD, CA, 90302",142750079,"R"
333849,"210 E HAZEL ST APT 3","INGLEWOOD","CA",90302,33.970170894,-118.353925374,349,"210 E HAZEL ST APT 3, INGLEWOOD, CA, 90302","Match","Non_Exact","210 E HAZEL ST, INGLEWOOD, CA, 90302",142750079,"R"
333850,"210 E IVY AVE 1","INGLEWOOD","CA",90302,NA,NA,350,"210 E IVY AVE 1, INGLEWOOD, CA, 90302","Tie",NA,NA,NA,NA
333851,"210 E IVY AVE","INGLEWOOD","CA",90302,33.968444608,-118.353561019,351,"210 E IVY AVE, INGLEWOOD, CA, 90302","Match","Exact","210 E IVY AVE, INGLEWOOD, CA, 90302",142750061,"R"
333852,"210 E JUNIPER AVE","MITCHELL","SD",57301,43.699190161,-98.0238803459999,352,"210 E JUNIPER AVE, MITCHELL, SD, 57301","Match","Exact","210 E JUNIPER AVE, MITCHELL, SD, 57301",200661628,"L"
333853,"210 E KNOB HILL DRIVE","ARLINGTON HIGHTS","IL",60004,42.1150400810001,-87.979577207,353,"210 E KNOB HILL DRIVE, ARLINGTON HIGHTS, IL, 60004","Match","Non_Exact","210 E KNOB HILL DR, ARLINGTON HEIGHTS, IL, 60004",111715023,"L"
333854,"210 E LAKE DR","GOLDSBORO","NC",27530,NA,NA,354,"210 E LAKE DR, GOLDSBORO, NC, 27530","No_Match",NA,NA,NA,NA
333855,"210 E LAKE ST","LAKEVIEW","OH",43331,40.484356324,-83.9225423409999,355,"210 E LAKE ST, LAKEVIEW, OH, 43331","Match","Exact","210 E LAKE ST, LAKEVIEW, OH, 43331",52178301,"R"
333856,"210 E LIBERTY ST","CHARLES TOWN","WV",21414,39.290394991,-77.858918999,356,"210 E LIBERTY ST, CHARLES TOWN, WV, 21414","Match","Non_Exact","210 E LIBERTY ST, CHARLES TOWN, WV, 25414",123421945,"L"
333857,"210 E LIBERTY ST","CHARLES TOWN","WV",25414,39.290394991,-77.858918999,357,"210 E LIBERTY ST, CHARLES TOWN, WV, 25414","Match","Exact","210 E LIBERTY ST, CHARLES TOWN, WV, 25414",123421945,"L"
333858,"210 E LIBERTY STREET","CHARLES TOWN","WV",25414,39.290394991,-77.858918999,358,"210 E LIBERTY STREET, CHARLES TOWN, WV, 25414","Match","Exact","210 E LIBERTY ST, CHARLES TOWN, WV, 25414",123421945,"L"
333859,"210 E MAIN ST","AVON","MA",2322,42.1251667560001,-71.035498622,359,"210 E MAIN ST, AVON, MA, 2322","Match","Exact","210 E MAIN ST, AVON, MA, 02322",87311046,"R"
333860,"210 E MAIN STREET","WAUPUN","WI",53963,43.633178318,-88.731993625,360,"210 E MAIN STREET, WAUPUN, WI, 53963","Match","Exact","210 E MAIN ST, WAUPUN, WI, 53963",53536845,"R"
333861,"210 E MARSHALL ST","ITHACA","NY",14850,42.4461222990001,-76.4980542719999,361,"210 E MARSHALL ST, ITHACA, NY, 14850","Match","Exact","210 E MARSHALL ST, ITHACA, NY, 14850",18857518,"L"
333862,"210 E MONTICELLO DR","KAYSVILLE","UT",84037,41.0174772770001,-111.934531263,362,"210 E MONTICELLO DR, KAYSVILLE, UT, 84037","Match","Exact","210 E MONTICELLO DR, KAYSVILLE, UT, 84037",229363126,"L"
333863,"210 E NAVAJO","HUACHUCA CITY","AZ",85616,31.643619647,-110.335244384,363,"210 E NAVAJO, HUACHUCA CITY, AZ, 85616","Match","Non_Exact","210 NAVAJO ST, HUACHUCA CITY, AZ, 85616",120922452,"R"
333864,"210 E NORTH ST","SEYMOUR","IL",61875,NA,NA,364,"210 E NORTH ST, SEYMOUR, IL, 61875","Tie",NA,NA,NA,NA
333865,"210 E OAK","FORT COLLINS","CO",80524,40.585584414,-105.075411977,365,"210 E OAK, FORT COLLINS, CO, 80524","Match","Non_Exact","210 E OAK ST, FORT COLLINS, CO, 80524",188571169,"L"
333866,"210 E PEARSON ST 14AB","CHICAGO","IL",60611,41.897629781,-87.62135674,366,"210 E PEARSON ST 14AB, CHICAGO, IL, 60611","Match","Non_Exact","210 E PEARSON ST, CHICAGO, IL, 60611",111768977,"L"
333867,"210 E PORTLAND","SPRINGFIELD","MO",65807,37.1858582410001,-93.292461918,367,"210 E PORTLAND, SPRINGFIELD, MO, 65807","Match","Non_Exact","210 E PORTLAND ST, SPRINGFIELD, MO, 65807",76675584,"R"
333868,"210 E RACE ST PO BOX 45","LESLIE","MI",49251,42.452964588,-84.433291894,368,"210 E RACE ST PO BOX 45, LESLIE, MI, 49251","Match","Non_Exact","210 W RACE ST, LESLIE, MI, 49251",17509643,"R"
333869,"210 E RAILROAD AVE","SKYKOMISH","WA",98288,47.7093909290001,-121.359398549,369,"210 E RAILROAD AVE, SKYKOMISH, WA, 98288","Match","Exact","210 E RAILROAD AVE, SKYKOMISH, WA, 98288",186570896,"L"
333870,"210 E ROCKLAND ST","PHILADELPHIA","PA",19120,40.024310648,-75.1213211259999,370,"210 E ROCKLAND ST, PHILADELPHIA, PA, 19120","Match","Exact","210 E ROCKLAND ST, PHILADELPHIA, PA, 19120",131420065,"R"
333871,"210 E SONTERRA BLVD APT 534","SAN ANTONIO","TX",78258,29.6162608930001,-98.491552311,371,"210 E SONTERRA BLVD APT 534, SAN ANTONIO, TX, 78258","Match","Non_Exact","210 E SONTERRA BLVD, SAN ANTONIO, TX, 78258",645551586,"R"
333872,"210 E STATION ST","BAXTER","IA",50028,41.827257269,-93.148008163,372,"210 E STATION ST, BAXTER, IA, 50028","Match","Exact","210 E STATION ST, BAXTER, IA, 50028",89421594,"R"
333873,"210 E UNION CITY RD","COLDWATER","MI",49036,42.014680965,-85.0384634059999,373,"210 E UNION CITY RD, COLDWATER, MI, 49036","Match","Exact","210 E UNION CITY RD, COLDWATER, MI, 49036",8217463,"L"
333874,"210 E WANDA","GARLAND","TX",75040,32.9013216070001,-96.6259466389999,374,"210 E WANDA, GARLAND, TX, 75040","Match","Non_Exact","210 E WANDA DR, GARLAND, TX, 75040",102928027,"R"
333875,"210 E WASHINGTON","MT STERLING","IL",62353,39.986089382,-90.7606243,375,"210 E WASHINGTON, MT STERLING, IL, 62353","Match","Non_Exact","210 E WASHINGTON ST, MOUNT STERLING, IL, 62353",635816807,"L"
333876,"210 E WINTERGREEN APT 3204","DESOTO","TX",75115,NA,NA,376,"210 E WINTERGREEN APT 3204, DESOTO, TX, 75115","No_Match",NA,NA,NA,NA
333877,"210 EAGLE ST","GREENWOOD","MS",38930,33.5025372860001,-90.1432383709999,377,"210 EAGLE ST, GREENWOOD, MS, 38930","Match","Exact","210 EAGLE ST, GREENWOOD, MS, 38930",1049036,"R"
333878,"210 EASR FOURTH HIGH","CENTRAL CITY","CO",80427,NA,NA,378,"210 EASR FOURTH HIGH, CENTRAL CITY, CO, 80427","No_Match",NA,NA,NA,NA
333879,"210 EAST 110TH STREET","LOS ANGELES","CA",90061,33.935660919,-118.271487547,379,"210 EAST 110TH STREET, LOS ANGELES, CA, 90061","Match","Exact","210 E 110TH ST, LOS ANGELES, CA, 90061",141673006,"R"
333880,"210 EAST 16TH","COZAD","NE",69130,40.866807694,-99.9844189309999,380,"210 EAST 16TH, COZAD, NE, 69130","Match","Non_Exact","210 E 16TH ST, COZAD, NE, 69130",137911955,"R"
333881,"210 EAST 214TH ST","EUCLID","OH",44123,41.607262469,-81.531316706,381,"210 EAST 214TH ST, EUCLID, OH, 44123","Match","Exact","210 E 214TH ST, EUCLID, OH, 44123",61108283,"R"
333882,"210 EAST 28TH STREET","MISSION","TX",78574,26.236809083,-98.321282574,382,"210 EAST 28TH STREET, MISSION, TX, 78574","Match","Exact","210 E 28TH ST, MISSION, TX, 78574",71527885,"L"
333883,"210 EAST 38TH STREET","NEW YORK","NY",10016,40.747910049,-73.975493429,383,"210 EAST 38TH STREET, NEW YORK, NY, 10016","Match","Exact","210 E 38TH ST, NEW YORK, NY, 10016",59654473,"R"
333884,"210 EAST 42ND STREET","BROOKLYN","NY",11203,40.6506681500001,-73.9380104219999,384,"210 EAST 42ND STREET, BROOKLYN, NY, 11203","Match","Exact","210 E 42ND ST, BROOKLYN, NY, 11203",59081891,"R"
333885,"210 EAST 5TH STREET","KINMUNDY","IL",62854,38.7689926420001,-88.8474539429999,385,"210 EAST 5TH STREET, KINMUNDY, IL, 62854","Match","Exact","210 E 5TH ST, KINMUNDY, IL, 62854",640150147,"R"
333886,"210 EAST 83RD STREET APT 2A","NEW YORK","NY",10028,40.7767079550001,-73.955037573,386,"210 EAST 83RD STREET APT 2A, NEW YORK, NY, 10028","Match","Exact","210 E 83RD ST, NEW YORK, NY, 10028",59658275,"R"
333887,"210 EAST 86TH STREET SUITE 202A","NEW YORK","NY",10028,40.778618941,-73.9535135099999,387,"210 EAST 86TH STREET SUITE 202A, NEW YORK, NY, 10028","Match","Exact","210 E 86TH ST, NEW YORK, NY, 10028",652208963,"R"
333888,"210 EAST APPLEBY","CAMBRIDGE","MD",21613,NA,NA,388,"210 EAST APPLEBY, CAMBRIDGE, MD, 21613","No_Match",NA,NA,NA,NA
333889,"210 EAST BRAZIER STREET","PLAINVIEW","TX",79072,34.2003958060001,-101.702141199,389,"210 EAST BRAZIER STREET, PLAINVIEW, TX, 79072","Match","Non_Exact","210 BRAZIER ST, PLAINVIEW, TX, 79072",185695951,"L"
333890,"210 EAST BROADWAY H807","NEW YORK","NY",10002,40.7142704620001,-73.987771819,390,"210 EAST BROADWAY H807, NEW YORK, NY, 10002","Match","Exact","210 E BROADWAY, NEW YORK, NY, 10002",59654295,"L"
333891,"210 EAST CHARLESTON AVE","WILDWOOD CREST","NJ",8260,38.9636185570001,-74.848520956,391,"210 EAST CHARLESTON AVE, WILDWOOD CREST, NJ, 8260","Match","Exact","210 E CHARLESTON AVE, WILDWOOD CREST, NJ, 08260",174333105,"L"
333892,"210 EAST DYER STREET","BRECKENRIDGE","TX",76424,32.757318775,-98.901117357,392,"210 EAST DYER STREET, BRECKENRIDGE, TX, 76424","Match","Exact","210 E DYER ST, BRECKENRIDGE, TX, 76424",187522083,"R"
333893,"210 EAST ELIZA","SCHOOLCRAFT","MI",49087,42.114197935,-85.635630545,393,"210 EAST ELIZA, SCHOOLCRAFT, MI, 49087","Match","Non_Exact","210 E ELIZA ST, SCHOOLCRAFT, MI, 49087",12221661,"L"
333894,"210 EAST IRON ST","BESSEMER","MI",49911,46.48192635,-90.050072975,394,"210 EAST IRON ST, BESSEMER, MI, 49911","Match","Exact","210 E IRON ST, BESSEMER, MI, 49911",164954592,"R"
333895,"210 EAST IVY AVENUE 1","LOS ANGELES","CA",90302,33.968446111,-118.35357342,395,"210 EAST IVY AVENUE 1, LOS ANGELES, CA, 90302","Match","Non_Exact","210 E IVY AVE, INGLEWOOD, CA, 90302",142750061,"R"
333896,"210 EAST LEON STREET","LLANO","TX",78643,30.7636199720001,-98.673383617,396,"210 EAST LEON STREET, LLANO, TX, 78643","Match","Exact","210 E LEON ST, LLANO, TX, 78643",182241312,"L"
333897,"210 EAST MADISON STREET","EAST ISLIPS","NY",11730,40.742347355,-73.1706902569999,397,"210 EAST MADISON STREET, EAST ISLIPS, NY, 11730","Match","Non_Exact","210 E MADISON ST, EAST ISLIP, NY, 11730",113998955,"R"
333898,"210 EAST MAIN 593","ROSEBUD","TX",76570,NA,NA,398,"210 EAST MAIN 593, ROSEBUD, TX, 76570","No_Match",NA,NA,NA,NA
333899,"210 EAST MAIN STREET","ROSEBUD","TX",76570,31.0756172650001,-96.97338508,399,"210 EAST MAIN STREET, ROSEBUD, TX, 76570","Match","Non_Exact","210 MAIN ST, ROSEBUD, TX, 76570",24844220,"L"
333900,"210 EAST MAIN","ROSEBUD","TX",76570,NA,NA,400,"210 EAST MAIN, ROSEBUD, TX, 76570","No_Match",NA,NA,NA,NA
333901,"210 EAST MORSE BOULEVARD","WINTER PARK","FL",32789,28.59780771,-81.3496217379999,401,"210 EAST MORSE BOULEVARD, WINTER PARK, FL, 32789","Match","Exact","210 E MORSE BLVD, WINTER PARK, FL, 32789",94278589,"R"
333902,"210 EAST OAK STREET 416","NEW SHARRON","IA",50207,41.46386024,-92.649230065,402,"210 EAST OAK STREET 416, NEW SHARRON, IA, 50207","Match","Non_Exact","210 E OAK ST, NEW SHARON, IA, 50207",89375004,"L"
333903,"210 EAST OVERTON ROAD APT 1406","DALLAS","TX",75216,32.700650507,-96.815805467,403,"210 EAST OVERTON ROAD APT 1406, DALLAS, TX, 75216","Match","Exact","210 E OVERTON RD, DALLAS, TX, 75216",102951151,"R"
333904,"210 EAST ROAD","WEST BROOKFIELD","MA",1585,42.210436895,-72.183896449,404,"210 EAST ROAD, WEST BROOKFIELD, MA, 1585","Match","Exact","210 EAST RD, W BROOKFIELD, MA, 01585",39997699,"L"
333905,"210 EAST SUMTER STREET","MAYESVILLE","SC",29104,33.9911135950001,-80.206384422,405,"210 EAST SUMTER STREET, MAYESVILLE, SC, 29104","Match","Exact","210 E SUMTER ST, MAYESVILLE, SC, 29104",202701204,"R"
333906,"210 EAST UNION CITY ROAD","COLDWATER","MI",49036,42.014680523,-85.038531602,406,"210 EAST UNION CITY ROAD, COLDWATER, MI, 49036","Match","Exact","210 E UNION CITY RD, COLDWATER, MI, 49036",8217463,"L"
333907,"210 EAST WINCHESTER DR","RIALTO","CA",92376,34.125491723,-117.367555594,407,"210 EAST WINCHESTER DR, RIALTO, CA, 92376","Match","Exact","210 E WINCHESTER DR, RIALTO, CA, 92376",144731678,"L"
333908,"210 EASTERN","ELK CITY","OK",73644,NA,NA,408,"210 EASTERN, ELK CITY, OK, 73644","No_Match",NA,NA,NA,NA
333909,"210 EASTSIDE BLVD","WATERBURY","CT",6706,41.5198702260001,-73.01827444,409,"210 EASTSIDE BLVD, WATERBURY, CT, 6706","Match","Exact","210 EASTSIDE BLVD, WATERBURY, CT, 06706",3741479,"R"
333910,"210 EASTWOOD DR","BRANDON","MS",39042,32.276437103,-89.9658427319999,410,"210 EASTWOOD DR, BRANDON, MS, 39042","Match","Exact","210 EASTWOOD DR, BRANDON, MS, 39042",632788836,"R"
333911,"210 EASTWOOD","HIGBEE","MO",65257,39.3003365700001,-92.510479848,411,"210 EASTWOOD, HIGBEE, MO, 65257","Match","Non_Exact","210 EASTWOOD ST, HIGBEE, MO, 65257",23797854,"L"
333912,"210 ECTOR DR SUIT 152","EULESS","TX",76039,32.838074239,-97.090736824,412,"210 ECTOR DR SUIT 152, EULESS, TX, 76039","Match","Non_Exact","210 N ECTOR DR, EULESS, TX, 76039",102142625,"R"
333913,"210 EDGEWATER CIRCLE","CHAPEL HILL","NC",27516,35.886640506,-79.06310357,413,"210 EDGEWATER CIRCLE, CHAPEL HILL, NC, 27516","Match","Exact","210 EDGEWATER CIR, CHAPEL HILL, NC, 27516",636540775,"R"
333914,"210 EDGEWOOD ESTATES","HARRODSBURG","KY",40330,37.7389528370001,-84.876491387,414,"210 EDGEWOOD ESTATES, HARRODSBURG, KY, 40330","Match","Non_Exact","210 EDGEWOOD EST, HARRODSBURG, KY, 40330",32612900,"R"
333915,"210 EDNA","POLAND","OH",44514,41.0192090130001,-80.6033822749999,415,"210 EDNA, POLAND, OH, 44514","Match","Non_Exact","210 EDNA ST, POLAND, OH, 44514",64600383,"R"
333916,"210 EDWARDS RD","LYMAN","SC",29365,34.9605450830001,-82.145018039,416,"210 EDWARDS RD, LYMAN, SC, 29365","Match","Exact","210 EDWARDS RD, LYMAN, SC, 29365",618460570,"R"
333917,"210 EDWARDS ST","JEWELL","IA",50130,42.3069320500001,-93.6469511929999,417,"210 EDWARDS ST, JEWELL, IA, 50130","Match","Exact","210 EDWARDS ST, JEWELL, IA, 50130",65744680,"L"
333918,"210 ELANOR DR","FAIRHOPE","AL",36532,30.5175625200001,-87.8542869899999,418,"210 ELANOR DR, FAIRHOPE, AL, 36532","Match","Non_Exact","210 ELEANOR DR, FAIRHOPE, AL, 36532",619941175,"R"
333919,"210 ELEANOR AVE","SAN ANTONNIO","TX",78209,29.455423329,-98.469085826,419,"210 ELEANOR AVE, SAN ANTONNIO, TX, 78209","Match","Non_Exact","210 ELEANOR AVE, SAN ANTONIO, TX, 78209",101525146,"R"
333920,"210 ELECTRIC AVENUE APT 19","DECATUR","GA",30030,33.772006172,-84.30050489,420,"210 ELECTRIC AVENUE APT 19, DECATUR, GA, 30030","Match","Exact","210 ELECTRIC AVE, DECATUR, GA, 30030",23405003,"R"
333921,"210 ELKINGTON LOOP","LAREDO","TX",78045,27.584517347,-99.463560375,421,"210 ELKINGTON LOOP, LAREDO, TX, 78045","Match","Exact","210 ELKINGTON LOOP, LAREDO, TX, 78045",639647577,"R"
333922,"210 ELM ST","ROME","NY",13440,43.219074291,-75.453504117,422,"210 ELM ST, ROME, NY, 13440","Match","Exact","210 ELM ST, ROME, NY, 13440",171522138,"R"
333923,"210 ELM STEET","GROTON","NY",13073,42.587647185,-76.3638860519999,423,"210 ELM STEET, GROTON, NY, 13073","Match","Exact","210 ELM ST, GROTON, NY, 13073",18853585,"R"
333924,"210 ELM STREET","GROTON","NY",13073,42.587647185,-76.3638860519999,424,"210 ELM STREET, GROTON, NY, 13073","Match","Exact","210 ELM ST, GROTON, NY, 13073",18853585,"R"
333925,"210 ELMHURST","HOT SPRINGS","AR",71913,34.4760884070001,-93.073842481,425,"210 ELMHURST, HOT SPRINGS, AR, 71913","Match","Non_Exact","210 ELMHURST ST, HOT SPRINGS, AR, 71913",22733827,"L"
333926,"210 ELMWOOD DR","PITTSBURG","KS",66762,37.3983918960001,-94.716751417,426,"210 ELMWOOD DR, PITTSBURG, KS, 66762","Match","Exact","210 ELMWOOD DR, PITTSBURG, KS, 66762",33423738,"L"
333927,"210 EMANUEL CLEAVER II BLVD APT 3E","KANSAS CITY","MO",64112,39.042109381,-94.58378927,427,"210 EMANUEL CLEAVER II BLVD APT 3E, KANSAS CITY, MO, 64112","Match","Exact","210 EMANUEL CLEAVER II BLVD, KANSAS CITY, MO, 64112",91539801,"L"
333928,"210 ENCHANTED DR","SOMERSET","KY",42503,37.0291793000001,-84.668045723,428,"210 ENCHANTED DR, SOMERSET, KY, 42503","Match","Exact","210 ENCHANTED DR, SOMERSET, KY, 42503",39091151,"R"
333929,"210 ENCHANTMENT RD","RAPID CITY","SD",57701,44.0363260560001,-103.221958032,429,"210 ENCHANTMENT RD, RAPID CITY, SD, 57701","Match","Exact","210 ENCHANTMENT RD, RAPID CITY, SD, 57701",625304485,"L"
333930,"210 ENGLISH CT","SPRINGTOWN","TX",76082,32.9426884440001,-97.677995472,430,"210 ENGLISH CT, SPRINGTOWN, TX, 76082","Match","Exact","210 ENGLISH CT, SPRINGTOWN, TX, 76082",103599239,"R"
333931,"210 ENID LANE","NORTHFIELD","IL",60093,42.096062949,-87.786746431,431,"210 ENID LANE, NORTHFIELD, IL, 60093","Match","Exact","210 ENID LN, NORTHFIELD, IL, 60093",111729414,"L"
333932,"210 ERIE STREET","EDINBORO","PA",16412,41.8760637080001,-80.131563069,432,"210 ERIE STREET, EDINBORO, PA, 16412","Match","Exact","210 ERIE ST, EDINBORO, PA, 16412",117489045,"R"
333933,"210 ERNIE PYLE STREET","GALAX","VA",24333,36.651099376,-80.931232598,433,"210 ERNIE PYLE STREET, GALAX, VA, 24333","Match","Exact","210 ERNIE PYLE ST, GALAX, VA, 24333",153806609,"R"
333934,"210 ETOWAH LANDING","BALL GROUND","GA",30107,34.305414053,-84.267110954,434,"210 ETOWAH LANDING, BALL GROUND, GA, 30107","Match","Exact","210 ETOWAH LNDG, BALL GROUND, GA, 30107",625413472,"L"
333935,"210 EVERETT STREET","ALLSTON","MA",2134,42.360219516,-71.136574573,435,"210 EVERETT STREET, ALLSTON, MA, 2134","Match","Exact","210 EVERETT ST, ALLSTON, MA, 02134",85695348,"L"
333936,"210 EVERGREEN DR","ANNA","IL",62906,37.454405874,-89.229058284,436,"210 EVERGREEN DR, ANNA, IL, 62906","Match","Exact","210 EVERGREEN DR, ANNA, IL, 62906",5969227,"L"
333937,"210 FAIRFIELD DRIVE","ELLENWOOD","GA",30294,33.6210957500001,-84.226549721,437,"210 FAIRFIELD DRIVE, ELLENWOOD, GA, 30294","Match","Exact","210 FAIRFIELD DR, ELLENWOOD, GA, 30294",23188159,"R"
333938,"210 FAIRHOPE AVE UNIT C","FAIRHOPE","AL",36532,30.5230296130001,-87.906000023,438,"210 FAIRHOPE AVE UNIT C, FAIRHOPE, AL, 36532","Match","Exact","210 FAIRHOPE AVE, FAIRHOPE, AL, 36532",131649512,"R"
333939,"210 FAIRLANE DR","VAFB","CA",93437,34.7454461410001,-120.53158423,439,"210 FAIRLANE DR, VAFB, CA, 93437","Match","Non_Exact","210 FAIRLANE DR, LOMPOC, CA, 93437",108632236,"L"
333940,"210 FERDINAND STREET","FREDERICKSBURG","VA",22401,38.294098149,-77.457941881,440,"210 FERDINAND STREET, FREDERICKSBURG, VA, 22401","Match","Exact","210 FERDINAND ST, FREDERICKSBURG, VA, 22401",616380312,"L"
333941,"210 FERNDALE STREET NORTH","MAPLEWOOD","MN",55119,44.9469816180001,-92.989781216,441,"210 FERNDALE STREET NORTH, MAPLEWOOD, MN, 55119","Match","Non_Exact","210 FERNDALE ST, MAPLEWOOD, MN, 55119",97655450,"R"
333942,"210 FIELDSTOWN RD UNIT 313","GARDENDALE","AL",35071,NA,NA,442,"210 FIELDSTOWN RD UNIT 313, GARDENDALE, AL, 35071","No_Match",NA,NA,NA,NA
333943,"210 FINLEY AVE","HAMILTON","NJ",8610,40.2032867770001,-74.700615086,443,"210 FINLEY AVE, HAMILTON, NJ, 8610","Match","Exact","210 FINLEY AVE, HAMILTON, NJ, 08610",60183592,"L"
333944,"210 FIR AVE APT 304","FORKS","WA",98331,47.952111486,-124.3799869,444,"210 FIR AVE APT 304, FORKS, WA, 98331","Match","Exact","210 FIR AVE, FORKS, WA, 98331",623952496,"L"
333945,"210 FIRE STATION DRIVE","ALBION","IN",46701,41.395603328,-85.4082799459999,445,"210 FIRE STATION DRIVE, ALBION, IN, 46701","Match","Non_Exact","210 FIRESTATION DR, ALBION, IN, 46701",611565765,"L"
333946,"210 FIRETOWER RD","CAMDEN","SC",29020,34.2788748080001,-80.599994639,446,"210 FIRETOWER RD, CAMDEN, SC, 29020","Match","Non_Exact","210 FIRE TOWER RD, CAMDEN, SC, 29020",78486595,"R"
333947,"210 FIRETREE LANE","CARY","NC",21713,35.800513644,-78.843531007,447,"210 FIRETREE LANE, CARY, NC, 21713","Match","Non_Exact","210 FIRETREE LN, CARY, NC, 27513",72641248,"R"
333948,"210 FIRETREE LANE","CARY","NC",27513,35.800513644,-78.843531007,448,"210 FIRETREE LANE, CARY, NC, 27513","Match","Exact","210 FIRETREE LN, CARY, NC, 27513",72641248,"R"
333949,"210 FLEMINGTON RD","HUNTSVILLE","AL",35802,34.669351035,-86.566011036,449,"210 FLEMINGTON RD, HUNTSVILLE, AL, 35802","Match","Non_Exact","210 FLEMINGTON RD SE, HUNTSVILLE, AL, 35802",58216929,"R"
333950,"210 FLIVA AVENUE NORTHWEST","FORT WALTON BEACH","FL",32548,30.4251176970001,-86.624803614,450,"210 FLIVA AVENUE NORTHWEST, FORT WALTON BEACH, FL, 32548","Match","Exact","210 FLIVA AVE NW, FORT WALTON BEACH, FL, 32548",74391090,"L"
333951,"210 FLORES LN","AUGUSTA","GA",30907,33.521835696,-82.082416632,451,"210 FLORES LN, AUGUSTA, GA, 30907","Match","Exact","210 FLORES LN, AUGUSTA, GA, 30907",55374943,"R"
333952,"210 FLOWER HILL RD","SMITHVILLE","TX",78957,29.9562028010001,-97.142507649,452,"210 FLOWER HILL RD, SMITHVILLE, TX, 78957","Match","Exact","210 FLOWER HILL RD, SMITHVILLE, TX, 78957",45500997,"L"
333953,"210 FLOWER HILL ROAD","Smithville","TX",78957,29.9562028010001,-97.142507649,453,"210 FLOWER HILL ROAD, Smithville, TX, 78957","Match","Exact","210 FLOWER HILL RD, SMITHVILLE, TX, 78957",45500997,"L"
333954,"210 FM 303","SUDAN","TX",79371,NA,NA,454,"210 FM 303, SUDAN, TX, 79371","No_Match",NA,NA,NA,NA
333955,"210 FONTAINEBLEAU BLVD APT 405","MIAMI","FL",33172,25.77171201,-80.3393535279999,455,"210 FONTAINEBLEAU BLVD APT 405, MIAMI, FL, 33172","Match","Exact","210 FONTAINEBLEAU BLVD, MIAMI, FL, 33172",116091455,"R"
333956,"210 FOREST STREET","MADISON","WI",53726,43.0713121630001,-89.4212077299999,456,"210 FOREST STREET, MADISON, WI, 53726","Match","Exact","210 FOREST ST, MADISON, WI, 53726",49468915,"L"
333957,"210 FOUNTAIN ST","MANDEVILLE","LA",70448,30.3670536180001,-90.098589996,457,"210 FOUNTAIN ST, MANDEVILLE, LA, 70448","Match","Exact","210 FOUNTAIN ST, MANDEVILLE, LA, 70448",640228595,"L"
333958,"210 FOUNTAYNE LN","LAWRENCE","NJ",8648,40.281355096,-74.683900663,458,"210 FOUNTAYNE LN, LAWRENCE, NJ, 8648","Match","Exact","210 FOUNTAYNE LN, LAWRENCE, NJ, 08648",653265395,"R"
333959,"210 FOXTAIL LN","JANE LEW","WV",26378,NA,NA,459,"210 FOXTAIL LN, JANE LEW, WV, 26378","No_Match",NA,NA,NA,NA
333960,"210 FOXTROT LANE","ABILENE","TX",79602,32.3271037230001,-99.693757795,460,"210 FOXTROT LANE, ABILENE, TX, 79602","Match","Exact","210 FOXTROT LN, ABILENE, TX, 79602",646245569,"R"
333961,"210 FRANCISCO AVE","MISSION","TX",78572,NA,NA,461,"210 FRANCISCO AVE, MISSION, TX, 78572","Tie",NA,NA,NA,NA
333962,"210 FRANKLIN AVE","SILVER SPRING","MD",20910,39.009328714,-77.0129796109999,462,"210 FRANKLIN AVE, SILVER SPRING, MD, 20910","Match","Non_Exact","210 FRANKLIN AVE, SILVER SPRING, MD, 20901",62068300,"L"
333963,"210 FRANKLIN ST","CLYMER","PA",15728,40.6721385550001,-79.007463306,463,"210 FRANKLIN ST, CLYMER, PA, 15728","Match","Exact","210 FRANKLIN ST, CLYMER, PA, 15728",66314608,"L"
333964,"210 FRICK COURT","CHAPIN","SC",29036,34.1203250830001,-81.3396304039999,464,"210 FRICK COURT, CHAPIN, SC, 29036","Match","Exact","210 FRICK CT, CHAPIN, SC, 29036",70081079,"R"
333965,"210 FRIENDLY LANE","SEQUIM","WA",98382,48.141221864,-123.12164945,465,"210 FRIENDLY LANE, SEQUIM, WA, 98382","Match","Exact","210 FRIENDLY LN, SEQUIM, WA, 98382",150873425,"L"
333966,"210 FROLONA ROAD","FRANKLIN","GA",30217,33.3001910610001,-85.1384158819999,466,"210 FROLONA ROAD, FRANKLIN, GA, 30217","Match","Exact","210 FROLONA RD, FRANKLIN, GA, 30217",650986007,"L"
333967,"210 FULLERTON AVENUE","WHITEHALL","PA",18052,NA,NA,467,"210 FULLERTON AVENUE, WHITEHALL, PA, 18052","No_Match",NA,NA,NA,NA
333968,"210 FULTON STREET","HANCOCK","MD",21750,39.703343842,-78.1802740809999,468,"210 FULTON STREET, HANCOCK, MD, 21750","Match","Exact","210 FULTON ST, HANCOCK, MD, 21750",635755972,"R"
333969,"210 FUNSTON PLACE","SAN ANTONIO","TX",78209,29.4576395820001,-98.466512125,469,"210 FUNSTON PLACE, SAN ANTONIO, TX, 78209","Match","Exact","210 FUNSTON PL, SAN ANTONIO, TX, 78209",101525161,"R"
333970,"210 GARDEN TRAIL","MICHIGAN CITY","IN",46360,41.7191670760001,-86.865957195,470,"210 GARDEN TRAIL, MICHIGAN CITY, IN, 46360","Match","Exact","210 GARDEN TRL, MICHIGAN CITY, IN, 46360",15412697,"R"
333971,"210 GARMAN DR","CHAMBERSBURG","PA",17201,39.9189799740001,-77.603965612,471,"210 GARMAN DR, CHAMBERSBURG, PA, 17201","Match","Non_Exact","210 GARMAN DR, CHAMBERSBURG, PA, 17202",60084371,"R"
333972,"210 GARY STREET  APT B1","RALEIGH","NC",27606,35.791653739,-78.7182670829999,472,"210 GARY STREET  APT B1, RALEIGH, NC, 27606","Match","Exact","210 GARY ST, RALEIGH, NC, 27606",72500336,"R"
333973,"210 GATES","BAY CITY","MI",48708,43.5904533340001,-83.86954057,473,"210 GATES, BAY CITY, MI, 48708","Match","Non_Exact","210 GATES ST, BAY CITY, MI, 48708",81141893,"R"
333974,"210 GATEWAY DR NW APT 7","EAST GRAND FORKS","MN",56721,47.9351497530001,-97.023010809,474,"210 GATEWAY DR NW APT 7, EAST GRAND FORKS, MN, 56721","Match","Exact","210 GATEWAY DR NW, EAST GRAND FORKS, MN, 56721",639269160,"L"
333975,"210 GENERAL ST","DUMAS","AR",71639,NA,NA,475,"210 GENERAL ST, DUMAS, AR, 71639","No_Match",NA,NA,NA,NA
333976,"210 GEORGE ST","HARTFORD","IA",50118,41.4626762620001,-93.401297743,476,"210 GEORGE ST, HARTFORD, IA, 50118","Match","Exact","210 GEORGE ST, HARTFORD, IA, 50118",83761857,"R"
333977,"210 GILMAN ROAD","YARMOUTH","ME",4096,43.7860010690001,-70.167069834,477,"210 GILMAN ROAD, YARMOUTH, ME, 4096","Match","Exact","210 GILMAN RD, YARMOUTH, ME, 04096",78031919,"L"
333978,"210 GLEN AVENUE SOUTH","LAKEWOOD","NJ",8701,40.0866608540001,-74.238109999,478,"210 GLEN AVENUE SOUTH, LAKEWOOD, NJ, 8701","Match","Exact","210 GLEN AVE S, LAKEWOOD, NJ, 08701",203768300,"R"
333979,"210 GLEN MAR DR","LENOIR CITY","TN",37772,35.7822871440001,-84.204029744,479,"210 GLEN MAR DR, LENOIR CITY, TN, 37772","Match","Exact","210 GLEN MAR DR, LENOIR CITY, TN, 37772",99976246,"R"
333980,"210 GLENBROOK CT","FRANKFORT","KY",40601,38.14685509,-84.891766418,480,"210 GLENBROOK CT, FRANKFORT, KY, 40601","Match","Non_Exact","210 GLENBROOK DR, FRANKFORT, KY, 40601",97050730,"L"
333981,"210 GLENMARY","ELIZABETHTOWN","KY",42701,37.699044846,-85.861079407,481,"210 GLENMARY, ELIZABETHTOWN, KY, 42701","Match","Non_Exact","210 GLENMARY ST, ELIZABETHTOWN, KY, 42701",34624078,"R"
333982,"210 GLENN EAGLES DRIVE","OCEAN SPRINGS","MS",39564,30.3535505880001,-88.713334096,482,"210 GLENN EAGLES DRIVE, OCEAN SPRINGS, MS, 39564","Match","Non_Exact","210 GLEN EAGLES DR, OCEAN SPRINGS, MS, 39564",89288197,"L"
333983,"210 GOLD LEAF TERRACE","POWER SPRINGS","GA",30127,33.960084438,-84.7159949969999,483,"210 GOLD LEAF TERRACE, POWER SPRINGS, GA, 30127","Match","Non_Exact","210 GOLD LEAF TER, POWDER SPGS, GA, 30127",634051955,"R"
333984,"210 GOLDEN SUNSET DR","HARTSVILLE","SC",29550,34.383352287,-80.0319444419999,484,"210 GOLDEN SUNSET DR, HARTSVILLE, SC, 29550","Match","Exact","210 GOLDEN SUNSET DR, HARTSVILLE, SC, 29550",78392495,"L"
333985,"210 GOLDSMITH AVENUE","NEWARK","NJ",7112,40.7084909920001,-74.2158738799999,485,"210 GOLDSMITH AVENUE, NEWARK, NJ, 7112","Match","Exact","210 GOLDSMITH AVE, NEWARK, NJ, 07112",63465285,"L"
333986,"210 GORDON AVENUE","WILMINGTON","DE",19809,39.7627731320001,-75.512553705,486,"210 GORDON AVENUE, WILMINGTON, DE, 19809","Match","Exact","210 GORDON AVE, WILMINGTON, DE, 19809",187261431,"R"
333987,"210 GORDON ROAD","MINGUS","TX",76463,32.542772713,-98.421482703,487,"210 GORDON ROAD, MINGUS, TX, 76463","Match","Exact","210 GORDON RD, MINGUS, TX, 76463",158846522,"L"
333988,"210 GRAY FOX COURT","EDGEWATER","MD",21037,38.930951038,-76.5617144129999,488,"210 GRAY FOX COURT, EDGEWATER, MD, 21037","Match","Exact","210 GRAY FOX CT, EDGEWATER, MD, 21037",68209158,"R"
333989,"210 GRAY FOX RD","SPRINGVILLE","AL",35146,33.751356382,-86.427659152,489,"210 GRAY FOX RD, SPRINGVILLE, AL, 35146","Match","Exact","210 GRAY FOX RD, SPRINGVILLE, AL, 35146",617901943,"R"
333990,"210 GREEN LAKE DR","MYRTLE BEACH","WI",29572,NA,NA,490,"210 GREEN LAKE DR, MYRTLE BEACH, WI, 29572","No_Match",NA,NA,NA,NA
333991,"210 GREEN ST","SYRACUSE","NY",13203,43.05441484,-76.139709533,491,"210 GREEN ST, SYRACUSE, NY, 13203","Match","Exact","210 GREEN ST, SYRACUSE, NY, 13203",46571287,"R"
333992,"210 GREEN STREET","BISCOE","NC",27209,35.3642121170001,-79.7829473899999,492,"210 GREEN STREET, BISCOE, NC, 27209","Match","Exact","210 GREEN ST, BISCOE, NC, 27209",20043236,"L"
333993,"210 GREENE STREET","CAMDEN","SC",29020,34.2637797990001,-80.600288786,493,"210 GREENE STREET, CAMDEN, SC, 29020","Match","Exact","210 GREENE ST, CAMDEN, SC, 29020",78482324,"L"
333994,"210 GREENGATE DR","LAKE SAINT LOUIS","MO",63367,38.758806393,-90.809789423,494,"210 GREENGATE DR, LAKE SAINT LOUIS, MO, 63367","Match","Exact","210 GREENGATE DR, LAKE SAINT LOUIS, MO, 63367",633465355,"L"
333995,"210 GREENLAND DR","MCDONOUGH","GA",30253,33.4911155890001,-84.188196687,495,"210 GREENLAND DR, MCDONOUGH, GA, 30253","Match","Exact","210 GREENLAND DR, MCDONOUGH, GA, 30253",617922464,"R"
333996,"210 GREENO ROAD","HOLMEN","WI",54636,43.9487117040001,-91.2542138919999,496,"210 GREENO ROAD, HOLMEN, WI, 54636","Match","Exact","210 GREENO RD, HOLMEN, WI, 54636",51009163,"L"
333997,"210 GRISSOM RD","LEIGHTON","AL",35646,34.7020677080001,-87.530829356,497,"210 GRISSOM RD, LEIGHTON, AL, 35646","Match","Exact","210 GRISSOM RD, LEIGHTON, AL, 35646",635249617,"L"
333998,"210 GROSS ST","PITTSBURGH","PA",15224,40.464397325,-79.94423913,498,"210 GROSS ST, PITTSBURGH, PA, 15224","Match","Exact","210 GROSS ST, PITTSBURGH, PA, 15224",51932993,"R"
333999,"210 H STREET 12","CHULA VISTA","CA",91910,32.6353380210001,-117.07380475,499,"210 H STREET 12, CHULA VISTA, CA, 91910","Match","Exact","210 H ST, CHULA VISTA, CA, 91910",195356306,"L"
334000,"210 HALE AVENUE BLDG G308","HARRISBURG","PA",17104,40.2690401140001,-76.8475270279999,500,"210 HALE AVENUE BLDG G308, HARRISBURG, PA, 17104","Match","Exact","210 HALE AVE, HARRISBURG, PA, 17104",648584588,"R"
