"ID","Address","City","State","Zip","lat","long","id","input_address","match_indicator","match_type","matched_address","tiger_line_id","tiger_side"
978501,"PO BOX 220","SANTA FE","NM",87504,NA,NA,1,"PO BOX 220, SANTA FE, NM, 87504","No_Match",NA,NA,NA,NA
978502,"PO BOX 220","SAUTEE","GA",30571,NA,NA,2,"PO BOX 220, SAUTEE, GA, 30571","No_Match",NA,NA,NA,NA
978503,"PO BOX 220","WEST CALDWELL","NJ",7006,NA,NA,3,"PO BOX 220, WEST CALDWELL, NJ, 7006","No_Match",NA,NA,NA,NA
978504,"PO BOX 220","WINDSOR","ME",4363,NA,NA,4,"PO BOX 220, WINDSOR, ME, 4363","No_Match",NA,NA,NA,NA
978505,"PO BOX 220","WOODLAND","GA",31836,NA,NA,5,"PO BOX 220, WOODLAND, GA, 31836","No_Match",NA,NA,NA,NA
978506,"PO BOX 220023","SANTA CLARITA","CA",91322,NA,NA,6,"PO BOX 220023, SANTA CLARITA, CA, 91322","No_Match",NA,NA,NA,NA
978507,"PO BOX 2201","CLARKSVILLE","TN",37042,NA,NA,7,"PO BOX 2201, CLARKSVILLE, TN, 37042","No_Match",NA,NA,NA,NA
978508,"PO BOX 2201","HAWTHORNE","CA",90251,NA,NA,8,"PO BOX 2201, HAWTHORNE, CA, 90251","No_Match",NA,NA,NA,NA
978509,"PO BOX 2201","MEEKER","CO",81641,NA,NA,9,"PO BOX 2201, MEEKER, CO, 81641","No_Match",NA,NA,NA,NA
978510,"PO BOX 2201","ROWLETT",NA,NA,NA,NA,10,"PO BOX 2201, ROWLETT, , ","No_Match",NA,NA,NA,NA
978511,"PO BOX 2201","ROWLETT","TX",75030,NA,NA,11,"PO BOX 2201, ROWLETT, TX, 75030","No_Match",NA,NA,NA,NA
978512,"PO BOX 2201","ROWLETTGARLAND","TX",75030,NA,NA,12,"PO BOX 2201, ROWLETTGARLAND, TX, 75030","No_Match",NA,NA,NA,NA
978513,"PO BOX 2201","SAINT CLOUD","MN",56302,NA,NA,13,"PO BOX 2201, SAINT CLOUD, MN, 56302","No_Match",NA,NA,NA,NA
978514,"PO BOX 220118","CHARLOTTE","NC",28222,NA,NA,14,"PO BOX 220118, CHARLOTTE, NC, 28222","No_Match",NA,NA,NA,NA
978515,"PO BOX 220155","ANCHORAGE","AK",99522,NA,NA,15,"PO BOX 220155, ANCHORAGE, AK, 99522","No_Match",NA,NA,NA,NA
978516,"PO BOX 220193","CHANTILLY","VA",20153,NA,NA,16,"PO BOX 220193, CHANTILLY, VA, 20153","No_Match",NA,NA,NA,NA
978517,"PO BOX 2202","CLEARWATER","FL",33757,NA,NA,17,"PO BOX 2202, CLEARWATER, FL, 33757","No_Match",NA,NA,NA,NA
978518,"PO BOX 2202","CYPRESS","CA",90630,NA,NA,18,"PO BOX 2202, CYPRESS, CA, 90630","No_Match",NA,NA,NA,NA
978519,"PO BOX 2202","GRASS VALLEY","CA",95945,NA,NA,19,"PO BOX 2202, GRASS VALLEY, CA, 95945","No_Match",NA,NA,NA,NA
978520,"PO BOX 2202","TIFTON","GA",31793,NA,NA,20,"PO BOX 2202, TIFTON, GA, 31793","No_Match",NA,NA,NA,NA
978521,"PO BOX 2202","WOODVILLE","TX",75979,NA,NA,21,"PO BOX 2202, WOODVILLE, TX, 75979","No_Match",NA,NA,NA,NA
978522,"PO BOX 2203","AMHERST","MA",1004,NA,NA,22,"PO BOX 2203, AMHERST, MA, 1004","No_Match",NA,NA,NA,NA
978523,"PO BOX 2203","COLUMBUS","MS",39704,NA,NA,23,"PO BOX 2203, COLUMBUS, MS, 39704","No_Match",NA,NA,NA,NA
978524,"PO BOX 2203","HAWTHORNE","NV",89415,NA,NA,24,"PO BOX 2203, HAWTHORNE, NV, 89415","No_Match",NA,NA,NA,NA
978525,"PO BOX 2203","LOUISA","VA",23093,NA,NA,25,"PO BOX 2203, LOUISA, VA, 23093","No_Match",NA,NA,NA,NA
978526,"PO BOX 2203","MOSES LAKE","WA",98837,NA,NA,26,"PO BOX 2203, MOSES LAKE, WA, 98837","No_Match",NA,NA,NA,NA
978527,"PO BOX 2203","PORT ORCHARD","WA",98366,NA,NA,27,"PO BOX 2203, PORT ORCHARD, WA, 98366","No_Match",NA,NA,NA,NA
978528,"PO BOX 2203","REDMOND","OR",97756,NA,NA,28,"PO BOX 2203, REDMOND, OR, 97756","No_Match",NA,NA,NA,NA
978529,"PO BOX 2203","SALT LAKE CITY","UT",84110,NA,NA,29,"PO BOX 2203, SALT LAKE CITY, UT, 84110","No_Match",NA,NA,NA,NA
978530,"PO BOX 2203","SAVANNAH","GA",31402,NA,NA,30,"PO BOX 2203, SAVANNAH, GA, 31402","No_Match",NA,NA,NA,NA
978531,"PO BOX 2203","SYRACUSE","NY",13220,NA,NA,31,"PO BOX 2203, SYRACUSE, NY, 13220","No_Match",NA,NA,NA,NA
978532,"PO BOX 220324","PORTLAND","OR",97269,NA,NA,32,"PO BOX 220324, PORTLAND, OR, 97269","No_Match",NA,NA,NA,NA
978533,"PO BOX 220332","BROOKLYN","NY",11222,NA,NA,33,"PO BOX 220332, BROOKLYN, NY, 11222","No_Match",NA,NA,NA,NA
978534,"PO BOX 22039","PHOENIX","AZ",85028,NA,NA,34,"PO BOX 22039, PHOENIX, AZ, 85028","No_Match",NA,NA,NA,NA
978535,"PO BOX 2204","BAYAMON","PR",960,NA,NA,35,"PO BOX 2204, BAYAMON, PR, 960","No_Match",NA,NA,NA,NA
978536,"PO BOX 22041","OAKLAND","CA",94623,NA,NA,36,"PO BOX 22041, OAKLAND, CA, 94623","No_Match",NA,NA,NA,NA
978537,"PO BOX 220421","BOSTON","MA",2122,NA,NA,37,"PO BOX 220421, BOSTON, MA, 2122","No_Match",NA,NA,NA,NA
978538,"PO BOX 2205","BLOWING ROCK","NC",28605,NA,NA,38,"PO BOX 2205, BLOWING ROCK, NC, 28605","No_Match",NA,NA,NA,NA
978539,"PO BOX 2205","OAKHURST","CA",93644,NA,NA,39,"PO BOX 2205, OAKHURST, CA, 93644","No_Match",NA,NA,NA,NA
978540,"PO BOX 2205","THE DALLES","OR",97058,NA,NA,40,"PO BOX 2205, THE DALLES, OR, 97058","No_Match",NA,NA,NA,NA
978541,"PO BOX 220572","CHARLOTTE","NC",28222,NA,NA,41,"PO BOX 220572, CHARLOTTE, NC, 28222","No_Match",NA,NA,NA,NA
978542,"PO BOX 22058","WEST PALM BEACH","FL",33415,NA,NA,42,"PO BOX 22058, WEST PALM BEACH, FL, 33415","No_Match",NA,NA,NA,NA
978543,"PO BOX 2206","LARAMIE","WY",82073,NA,NA,43,"PO BOX 2206, LARAMIE, WY, 82073","No_Match",NA,NA,NA,NA
978544,"PO BOX 2206","MCKINNEY","TX",75070,NA,NA,44,"PO BOX 2206, MCKINNEY, TX, 75070","No_Match",NA,NA,NA,NA
978545,"PO BOX 2206","SAVANNAH","GA",31402,NA,NA,45,"PO BOX 2206, SAVANNAH, GA, 31402","No_Match",NA,NA,NA,NA
978546,"PO BOX 2206","WEIRTON","WV",26062,NA,NA,46,"PO BOX 2206, WEIRTON, WV, 26062","No_Match",NA,NA,NA,NA
978547,"PO BOX 22062","FORT LAUDERDALE","FL",33335,NA,NA,47,"PO BOX 22062, FORT LAUDERDALE, FL, 33335","No_Match",NA,NA,NA,NA
978548,"PO BOX 2207","BAKERSFIELD","CA",93390,NA,NA,48,"PO BOX 2207, BAKERSFIELD, CA, 93390","No_Match",NA,NA,NA,NA
978549,"PO BOX 2207","FLORENCE","AZ",85132,NA,NA,49,"PO BOX 2207, FLORENCE, AZ, 85132","No_Match",NA,NA,NA,NA
978550,"PO BOX 22077","BAKERSFIELD","CA",93307,NA,NA,50,"PO BOX 22077, BAKERSFIELD, CA, 93307","No_Match",NA,NA,NA,NA
978551,"PO BOX 22077","BAKERSFIELD","CA",93390,NA,NA,51,"PO BOX 22077, BAKERSFIELD, CA, 93390","No_Match",NA,NA,NA,NA
978552,"PO BOX 2208","BOONE","NC",28607,NA,NA,52,"PO BOX 2208, BOONE, NC, 28607","No_Match",NA,NA,NA,NA
978553,"PO BOX 22083","SEATTLE","WA",98102,NA,NA,53,"PO BOX 22083, SEATTLE, WA, 98102","No_Match",NA,NA,NA,NA
978554,"PO BOX 22087","WACO","TX",76702,NA,NA,54,"PO BOX 22087, WACO, TX, 76702","No_Match",NA,NA,NA,NA
978555,"PO BOX 220931","CHANTILLY","VA",20153,NA,NA,55,"PO BOX 220931, CHANTILLY, VA, 20153","No_Match",NA,NA,NA,NA
978556,"PO BOX 220952","CHANTILLY","VA",20153,NA,NA,56,"PO BOX 220952, CHANTILLY, VA, 20153","No_Match",NA,NA,NA,NA
978557,"PO BOX 220984","EL PASO","TX",79913,NA,NA,57,"PO BOX 220984, EL PASO, TX, 79913","No_Match",NA,NA,NA,NA
978558,"PO BOX 221","AKWESASNE","NY",13655,NA,NA,58,"PO BOX 221, AKWESASNE, NY, 13655","No_Match",NA,NA,NA,NA
978559,"PO BOX 221","AMBLER","PA",19002,NA,NA,59,"PO BOX 221, AMBLER, PA, 19002","No_Match",NA,NA,NA,NA
978560,"PO BOX 221","CAPON BRIDGE","WV",26711,NA,NA,60,"PO BOX 221, CAPON BRIDGE, WV, 26711","No_Match",NA,NA,NA,NA
978561,"PO BOX 221","CLEVELAND","UT",84518,NA,NA,61,"PO BOX 221, CLEVELAND, UT, 84518","No_Match",NA,NA,NA,NA
978562,"PO BOX 221","DIXON","CA",95620,NA,NA,62,"PO BOX 221, DIXON, CA, 95620","No_Match",NA,NA,NA,NA
978563,"PO BOX 221","EAGLE","ID",83616,NA,NA,63,"PO BOX 221, EAGLE, ID, 83616","No_Match",NA,NA,NA,NA
978564,"PO BOX 221","ESMOND","ND",58332,NA,NA,64,"PO BOX 221, ESMOND, ND, 58332","No_Match",NA,NA,NA,NA
978565,"PO BOX 221","GONZALES","LA",70737,NA,NA,65,"PO BOX 221, GONZALES, LA, 70737","No_Match",NA,NA,NA,NA
978566,"PO BOX 221","HAUULA","HI",96717,NA,NA,66,"PO BOX 221, HAUULA, HI, 96717","No_Match",NA,NA,NA,NA
978567,"PO BOX 221","IRONTON","MO",63650,NA,NA,67,"PO BOX 221, IRONTON, MO, 63650","No_Match",NA,NA,NA,NA
978568,"PO BOX 221","LACEYVILLE","PA",18623,NA,NA,68,"PO BOX 221, LACEYVILLE, PA, 18623","No_Match",NA,NA,NA,NA
978569,"PO BOX 221","LONG CREEK","OR",97856,NA,NA,69,"PO BOX 221, LONG CREEK, OR, 97856","No_Match",NA,NA,NA,NA
978570,"PO BOX 221","MEDARYVILLE","IN",47957,NA,NA,70,"PO BOX 221, MEDARYVILLE, IN, 47957","No_Match",NA,NA,NA,NA
978571,"PO BOX 221","MOHALL","ND",58761,NA,NA,71,"PO BOX 221, MOHALL, ND, 58761","No_Match",NA,NA,NA,NA
978572,"PO BOX 221","Ozark","AR",72949,NA,NA,72,"PO BOX 221, Ozark, AR, 72949","No_Match",NA,NA,NA,NA
978573,"PO BOX 221","PLUM BRANCH","SC",29845,NA,NA,73,"PO BOX 221, PLUM BRANCH, SC, 29845","No_Match",NA,NA,NA,NA
978574,"PO BOX 221","RIALTO","CA",92377,NA,NA,74,"PO BOX 221, RIALTO, CA, 92377","No_Match",NA,NA,NA,NA
978575,"PO BOX 221","ROCKSPRINGS","TX",78880,NA,NA,75,"PO BOX 221, ROCKSPRINGS, TX, 78880","No_Match",NA,NA,NA,NA
978576,"PO BOX 221","SHIRLEY","NY",11967,NA,NA,76,"PO BOX 221, SHIRLEY, NY, 11967","No_Match",NA,NA,NA,NA
978577,"PO BOX 221","SNOQUALMIE PASS","WA",98068,NA,NA,77,"PO BOX 221, SNOQUALMIE PASS, WA, 98068","No_Match",NA,NA,NA,NA
978578,"PO BOX 221","TALLULAH FALLS","GA",30573,NA,NA,78,"PO BOX 221, TALLULAH FALLS, GA, 30573","No_Match",NA,NA,NA,NA
978579,"PO BOX 221","THOMPSON FALLS","MT",59873,NA,NA,79,"PO BOX 221, THOMPSON FALLS, MT, 59873","No_Match",NA,NA,NA,NA
978580,"PO BOX 221","VILLAGE MILLS","TX",77663,NA,NA,80,"PO BOX 221, VILLAGE MILLS, TX, 77663","No_Match",NA,NA,NA,NA
978581,"PO BOX 221","WASHINGTON","MI",48094,NA,NA,81,"PO BOX 221, WASHINGTON, MI, 48094","No_Match",NA,NA,NA,NA
978582,"PO BOX 221","WASHINGTON","MI",48904,NA,NA,82,"PO BOX 221, WASHINGTON, MI, 48904","No_Match",NA,NA,NA,NA
978583,"PO BOX 221","WOODSTOCK","VT",5091,NA,NA,83,"PO BOX 221, WOODSTOCK, VT, 5091","No_Match",NA,NA,NA,NA
978584,"PO BOX 2210","LAGRANGE","GA",30241,NA,NA,84,"PO BOX 2210, LAGRANGE, GA, 30241","No_Match",NA,NA,NA,NA
978585,"PO BOX 2210","NEWARK","NJ",7101,NA,NA,85,"PO BOX 2210, NEWARK, NJ, 7101","No_Match",NA,NA,NA,NA
978586,"PO BOX 2210","SPRINGFIELD","OH",45501,NA,NA,86,"PO BOX 2210, SPRINGFIELD, OH, 45501","No_Match",NA,NA,NA,NA
978587,"PO BOX 2210","SPRINGFIELD","OH",NA,NA,NA,87,"PO BOX 2210, SPRINGFIELD, OH, ","No_Match",NA,NA,NA,NA
978588,"PO BOX 2210","WILKES BARRE","PA",18703,NA,NA,88,"PO BOX 2210, WILKES BARRE, PA, 18703","No_Match",NA,NA,NA,NA
978589,"PO BOX 2210004","NASHVILLE","TN",37221,NA,NA,89,"PO BOX 2210004, NASHVILLE, TN, 37221","No_Match",NA,NA,NA,NA
978590,"PO BOX 221095","SAN DIEGO","CA",92192,NA,NA,90,"PO BOX 221095, SAN DIEGO, CA, 92192","No_Match",NA,NA,NA,NA
978591,"PO BOX 2211","JOSHUA TREE","CA",92252,NA,NA,91,"PO BOX 2211, JOSHUA TREE, CA, 92252","No_Match",NA,NA,NA,NA
978592,"PO BOX 2211","NEW YORK","NY",10163,NA,NA,92,"PO BOX 2211, NEW YORK, NY, 10163","No_Match",NA,NA,NA,NA
978593,"PO BOX 2211","NEW YROK","NY",10163,NA,NA,93,"PO BOX 2211, NEW YROK, NY, 10163","No_Match",NA,NA,NA,NA
978594,"PO BOX 2211","PASADENA","CA",91102,NA,NA,94,"PO BOX 2211, PASADENA, CA, 91102","No_Match",NA,NA,NA,NA
978595,"PO BOX 221102","BEACHWOOD","OH",44122,NA,NA,95,"PO BOX 221102, BEACHWOOD, OH, 44122","No_Match",NA,NA,NA,NA
978596,"PO BOX 221122","CHICAGO","IL",60622,NA,NA,96,"PO BOX 221122, CHICAGO, IL, 60622","No_Match",NA,NA,NA,NA
978597,"PO BOX 221165","ANCHORAGE","AK",99522,NA,NA,97,"PO BOX 221165, ANCHORAGE, AK, 99522","No_Match",NA,NA,NA,NA
978598,"PO BOX 2212","GEARHART","OR",97138,NA,NA,98,"PO BOX 2212, GEARHART, OR, 97138","No_Match",NA,NA,NA,NA
978599,"PO BOX 2212","PORTLAND","OR",97208,NA,NA,99,"PO BOX 2212, PORTLAND, OR, 97208","No_Match",NA,NA,NA,NA
978600,"PO BOX 22121 HILTON","HEAD ISLAND","SC",29925,NA,NA,100,"PO BOX 22121 HILTON, HEAD ISLAND, SC, 29925","No_Match",NA,NA,NA,NA
978601,"PO BOX 221222","SACRAMENTO","CA",95822,NA,NA,101,"PO BOX 221222, SACRAMENTO, CA, 95822","No_Match",NA,NA,NA,NA
978602,"PO BOX 22126","BEACHWOOD","OH",44122,NA,NA,102,"PO BOX 22126, BEACHWOOD, OH, 44122","No_Match",NA,NA,NA,NA
978603,"PO BOX 22127","WEST PALM BEACH","FL",33416,NA,NA,103,"PO BOX 22127, WEST PALM BEACH, FL, 33416","No_Match",NA,NA,NA,NA
978604,"PO BOX 221284","SACRAMENTO","CA",95822,NA,NA,104,"PO BOX 221284, SACRAMENTO, CA, 95822","No_Match",NA,NA,NA,NA
978605,"PO BOX 2213","LYTLE","TX",78052,NA,NA,105,"PO BOX 2213, LYTLE, TX, 78052","No_Match",NA,NA,NA,NA
978606,"PO BOX 2213","RINCON","GA",31326,NA,NA,106,"PO BOX 2213, RINCON, GA, 31326","No_Match",NA,NA,NA,NA
978607,"PO BOX 2213","WHEAT RIDGE","CO",80034,NA,NA,107,"PO BOX 2213, WHEAT RIDGE, CO, 80034","No_Match",NA,NA,NA,NA
978608,"PO BOX 2214","ATLANTA","GA",30301,NA,NA,108,"PO BOX 2214, ATLANTA, GA, 30301","No_Match",NA,NA,NA,NA
978609,"PO BOX 2214","ORANGEBURG","SC",29116,NA,NA,109,"PO BOX 2214, ORANGEBURG, SC, 29116","No_Match",NA,NA,NA,NA
978610,"PO BOX 2214","SANTA ROSA BCH","FL",32459,NA,NA,110,"PO BOX 2214, SANTA ROSA BCH, FL, 32459","No_Match",NA,NA,NA,NA
978611,"PO BOX 221427","BEACHWOOD","OH",44122,NA,NA,111,"PO BOX 221427, BEACHWOOD, OH, 44122","No_Match",NA,NA,NA,NA
978612,"PO BOX 221427","BEACWOOD","OH",44122,NA,NA,112,"PO BOX 221427, BEACWOOD, OH, 44122","No_Match",NA,NA,NA,NA
978613,"PO BOX 221450","CHICAGO","IL",60622,NA,NA,113,"PO BOX 221450, CHICAGO, IL, 60622","No_Match",NA,NA,NA,NA
978614,"PO BOX 221456","LOUISVILLE","KY",40252,NA,NA,114,"PO BOX 221456, LOUISVILLE, KY, 40252","No_Match",NA,NA,NA,NA
978615,"PO BOX 22147","NASHVILLE","TN",37202,NA,NA,115,"PO BOX 22147, NASHVILLE, TN, 37202","No_Match",NA,NA,NA,NA
978616,"PO BOX 2215","AUBURNDALE","FL",33823,NA,NA,116,"PO BOX 2215, AUBURNDALE, FL, 33823","No_Match",NA,NA,NA,NA
978617,"PO BOX 2215","EL GRANADA","CA",94018,NA,NA,117,"PO BOX 2215, EL GRANADA, CA, 94018","No_Match",NA,NA,NA,NA
978618,"PO BOX 2215","LONDON","KY",40743,NA,NA,118,"PO BOX 2215, LONDON, KY, 40743","No_Match",NA,NA,NA,NA
978619,"PO BOX 2215","RICHLAND","WA",99352,NA,NA,119,"PO BOX 2215, RICHLAND, WA, 99352","No_Match",NA,NA,NA,NA
978620,"PO BOX 221581","CHANTILLY","VA",20153,NA,NA,120,"PO BOX 221581, CHANTILLY, VA, 20153","No_Match",NA,NA,NA,NA
978621,"PO BOX 221584","DENVER","CO",80222,NA,NA,121,"PO BOX 221584, DENVER, CO, 80222","No_Match",NA,NA,NA,NA
978622,"PO BOX 2216","CEDAR HILL","TX",75106,NA,NA,122,"PO BOX 2216, CEDAR HILL, TX, 75106","No_Match",NA,NA,NA,NA
978623,"PO BOX 2216","CENTER","ND",58530,NA,NA,123,"PO BOX 2216, CENTER, ND, 58530","No_Match",NA,NA,NA,NA
978624,"PO BOX 221601","CARMEL","CA",93922,NA,NA,124,"PO BOX 221601, CARMEL, CA, 93922","No_Match",NA,NA,NA,NA
978625,"PO BOX 22162","SAN FRANCISCO","CA",94122,NA,NA,125,"PO BOX 22162, SAN FRANCISCO, CA, 94122","No_Match",NA,NA,NA,NA
978626,"PO BOX 22168","CLEVELAND","OH",44122,NA,NA,126,"PO BOX 22168, CLEVELAND, OH, 44122","No_Match",NA,NA,NA,NA
978627,"PO BOX 22169","HOUSTON","TX",77227,NA,NA,127,"PO BOX 22169, HOUSTON, TX, 77227","No_Match",NA,NA,NA,NA
978628,"PO BOX 2217","DOVER","OH",44622,NA,NA,128,"PO BOX 2217, DOVER, OH, 44622","No_Match",NA,NA,NA,NA
978629,"PO BOX 2217","WEAVERILLE","CA",96093,NA,NA,129,"PO BOX 2217, WEAVERILLE, CA, 96093","No_Match",NA,NA,NA,NA
978630,"PO BOX 2217","WEAVERVILLE","CA",96093,NA,NA,130,"PO BOX 2217, WEAVERVILLE, CA, 96093","No_Match",NA,NA,NA,NA
978631,"PO BOX 2217","YUCCA VALLEY","CA",92286,NA,NA,131,"PO BOX 2217, YUCCA VALLEY, CA, 92286","No_Match",NA,NA,NA,NA
978632,"PO BOX 22175","LANSING","MI",48909,NA,NA,132,"PO BOX 22175, LANSING, MI, 48909","No_Match",NA,NA,NA,NA
978633,"PO BOX 2218","JACKSON","WY",83001,NA,NA,133,"PO BOX 2218, JACKSON, WY, 83001","No_Match",NA,NA,NA,NA
978634,"PO BOX 2218","JONESBORO","GA",30237,NA,NA,134,"PO BOX 2218, JONESBORO, GA, 30237","No_Match",NA,NA,NA,NA
978635,"PO BOX 22181","CARSON CITY","NV",89721,NA,NA,135,"PO BOX 22181, CARSON CITY, NV, 89721","No_Match",NA,NA,NA,NA
978636,"PO BOX 22182","LANSING","MI",48909,NA,NA,136,"PO BOX 22182, LANSING, MI, 48909","No_Match",NA,NA,NA,NA
978637,"PO BOX 22186","BEACHWOOD","OH",44122,NA,NA,137,"PO BOX 22186, BEACHWOOD, OH, 44122","No_Match",NA,NA,NA,NA
978638,"PO BOX 2219","JASPER","OR",97438,NA,NA,138,"PO BOX 2219, JASPER, OR, 97438","No_Match",NA,NA,NA,NA
978639,"PO BOX 2219","LEBANON","OR",97355,NA,NA,139,"PO BOX 2219, LEBANON, OR, 97355","No_Match",NA,NA,NA,NA
978640,"PO BOX 22192","NEWARK","NJ",7101,NA,NA,140,"PO BOX 22192, NEWARK, NJ, 7101","No_Match",NA,NA,NA,NA
978641,"PO BOX 22194","HOUSTON","TX",77227,NA,NA,141,"PO BOX 22194, HOUSTON, TX, 77227","No_Match",NA,NA,NA,NA
978642,"PO BOX 222","ALBION","ME",4910,NA,NA,142,"PO BOX 222, ALBION, ME, 4910","No_Match",NA,NA,NA,NA
978643,"PO BOX 222","BEACHWOOD","NJ",8722,NA,NA,143,"PO BOX 222, BEACHWOOD, NJ, 8722","No_Match",NA,NA,NA,NA
978644,"PO BOX 222","BLAIRSVILLE","GA",30514,NA,NA,144,"PO BOX 222, BLAIRSVILLE, GA, 30514","No_Match",NA,NA,NA,NA
978645,"PO BOX 222","BUFFALO","MO",65622,NA,NA,145,"PO BOX 222, BUFFALO, MO, 65622","No_Match",NA,NA,NA,NA
978646,"PO BOX 222","BUTTE FALLS","OR",97522,NA,NA,146,"PO BOX 222, BUTTE FALLS, OR, 97522","No_Match",NA,NA,NA,NA
978647,"PO BOX 222","CAMERON","TX",76520,NA,NA,147,"PO BOX 222, CAMERON, TX, 76520","No_Match",NA,NA,NA,NA
978648,"PO BOX 222","CEDARVILLE","NJ",8311,NA,NA,148,"PO BOX 222, CEDARVILLE, NJ, 8311","No_Match",NA,NA,NA,NA
978649,"PO BOX 222","COUGAR","WA",98616,NA,NA,149,"PO BOX 222, COUGAR, WA, 98616","No_Match",NA,NA,NA,NA
978650,"PO BOX 222","CRESCENT MILLS","CA",95934,NA,NA,150,"PO BOX 222, CRESCENT MILLS, CA, 95934","No_Match",NA,NA,NA,NA
978651,"PO BOX 222","FAUNSDALE","AL",36738,NA,NA,151,"PO BOX 222, FAUNSDALE, AL, 36738","No_Match",NA,NA,NA,NA
978652,"PO BOX 222","FRIDAY HARBOR","WA",98250,NA,NA,152,"PO BOX 222, FRIDAY HARBOR, WA, 98250","No_Match",NA,NA,NA,NA
978653,"PO BOX 222","HENRY","IL",61547,NA,NA,153,"PO BOX 222, HENRY, IL, 61547","No_Match",NA,NA,NA,NA
978654,"PO BOX 222","KIAMESHA LAKE","NY",12751,NA,NA,154,"PO BOX 222, KIAMESHA LAKE, NY, 12751","No_Match",NA,NA,NA,NA
978655,"PO BOX 222","MADISON","GA",30650,NA,NA,155,"PO BOX 222, MADISON, GA, 30650","No_Match",NA,NA,NA,NA
978656,"PO BOX 222","MALTA","MT",59538,NA,NA,156,"PO BOX 222, MALTA, MT, 59538","No_Match",NA,NA,NA,NA
978657,"PO BOX 222","MANNING","SC",29102,NA,NA,157,"PO BOX 222, MANNING, SC, 29102","No_Match",NA,NA,NA,NA
978658,"PO BOX 222","MENLO PARK","CA",94026,NA,NA,158,"PO BOX 222, MENLO PARK, CA, 94026","No_Match",NA,NA,NA,NA
978659,"PO BOX 222","MINNEOLA","KS",67865,NA,NA,159,"PO BOX 222, MINNEOLA, KS, 67865","No_Match",NA,NA,NA,NA
978660,"PO BOX 222","MONUMENT","CO",80132,NA,NA,160,"PO BOX 222, MONUMENT, CO, 80132","No_Match",NA,NA,NA,NA
978661,"PO BOX 222","MOUNT HEMRON","CA",95041,NA,NA,161,"PO BOX 222, MOUNT HEMRON, CA, 95041","No_Match",NA,NA,NA,NA
978662,"PO BOX 222","MOUNT HERMON","CA",95041,NA,NA,162,"PO BOX 222, MOUNT HERMON, CA, 95041","No_Match",NA,NA,NA,NA
978663,"PO BOX 222","NORTH PLATTE","NE",69101,NA,NA,163,"PO BOX 222, NORTH PLATTE, NE, 69101","No_Match",NA,NA,NA,NA
978664,"PO BOX 222","OMAK","WA",98841,NA,NA,164,"PO BOX 222, OMAK, WA, 98841","No_Match",NA,NA,NA,NA
978665,"PO BOX 222","RICHLAND","MI",49083,NA,NA,165,"PO BOX 222, RICHLAND, MI, 49083","No_Match",NA,NA,NA,NA
978666,"PO BOX 222","STRASBURG","CO",80136,NA,NA,166,"PO BOX 222, STRASBURG, CO, 80136","No_Match",NA,NA,NA,NA
978667,"PO BOX 222","UNADILLA","NY",13849,NA,NA,167,"PO BOX 222, UNADILLA, NY, 13849","No_Match",NA,NA,NA,NA
978668,"PO BOX 222","WOOLWICH","ME",4579,NA,NA,168,"PO BOX 222, WOOLWICH, ME, 4579","No_Match",NA,NA,NA,NA
978669,"PO BOX 2220","MARIPOSA","CA",95338,NA,NA,169,"PO BOX 2220, MARIPOSA, CA, 95338","No_Match",NA,NA,NA,NA
978670,"PO BOX 22207","HONOLULU","HI",96823,NA,NA,170,"PO BOX 22207, HONOLULU, HI, 96823","No_Match",NA,NA,NA,NA
978671,"PO BOX 2221","ANNA MARIA","FL",34216,NA,NA,171,"PO BOX 2221, ANNA MARIA, FL, 34216","No_Match",NA,NA,NA,NA
978672,"PO BOX 2221","CARTERSVILLE","GA",30120,NA,NA,172,"PO BOX 2221, CARTERSVILLE, GA, 30120","No_Match",NA,NA,NA,NA
978673,"PO BOX 2221","GRAY","GA",31032,NA,NA,173,"PO BOX 2221, GRAY, GA, 31032","No_Match",NA,NA,NA,NA
978674,"PO BOX 2221","LAKE CHARLES","LA",70602,NA,NA,174,"PO BOX 2221, LAKE CHARLES, LA, 70602","No_Match",NA,NA,NA,NA
978675,"PO BOX 2222","IOWA CITY","IA",52244,NA,NA,175,"PO BOX 2222, IOWA CITY, IA, 52244","No_Match",NA,NA,NA,NA
978676,"PO BOX 2222","KALAUPAPA","HI",96742,NA,NA,176,"PO BOX 2222, KALAUPAPA, HI, 96742","No_Match",NA,NA,NA,NA
978677,"PO BOX 2222","MOUNT JULIET","TN",37121,NA,NA,177,"PO BOX 2222, MOUNT JULIET, TN, 37121","No_Match",NA,NA,NA,NA
978678,"PO BOX 2222","SHELTON","WA",98584,NA,NA,178,"PO BOX 2222, SHELTON, WA, 98584","No_Match",NA,NA,NA,NA
978679,"PO BOX 2222","STREETSBORO","OH",44241,NA,NA,179,"PO BOX 2222, STREETSBORO, OH, 44241","No_Match",NA,NA,NA,NA
978680,"PO BOX 222204","DALLAS","TX",75222,NA,NA,180,"PO BOX 222204, DALLAS, TX, 75222","No_Match",NA,NA,NA,NA
978681,"PO BOX 2223","SAINT LOUIS","MO",63137,NA,NA,181,"PO BOX 2223, SAINT LOUIS, MO, 63137","No_Match",NA,NA,NA,NA
978682,"PO BOX 2223","SILVER CITY","NM",88062,NA,NA,182,"PO BOX 2223, SILVER CITY, NM, 88062","No_Match",NA,NA,NA,NA
978683,"PO BOX 222365","WEST PALM BEACH","FL",32246,NA,NA,183,"PO BOX 222365, WEST PALM BEACH, FL, 32246","No_Match",NA,NA,NA,NA
978684,"PO BOX 2224","ATLANTA","GA",30301,NA,NA,184,"PO BOX 2224, ATLANTA, GA, 30301","No_Match",NA,NA,NA,NA
978685,"PO BOX 2224","LITTLE ROCK","AR",72202,NA,NA,185,"PO BOX 2224, LITTLE ROCK, AR, 72202","No_Match",NA,NA,NA,NA
978686,"PO BOX 2224","MANITOWOC","WI",54221,NA,NA,186,"PO BOX 2224, MANITOWOC, WI, 54221","No_Match",NA,NA,NA,NA
978687,"PO BOX 2224","OCEANA","WV",24870,NA,NA,187,"PO BOX 2224, OCEANA, WV, 24870","No_Match",NA,NA,NA,NA
978688,"PO BOX 2224","PALM BEACH","FL",33480,NA,NA,188,"PO BOX 2224, PALM BEACH, FL, 33480","No_Match",NA,NA,NA,NA
978689,"PO BOX 2224","SEAL BEACH","CA",90740,NA,NA,189,"PO BOX 2224, SEAL BEACH, CA, 90740","No_Match",NA,NA,NA,NA
978690,"PO BOX 22252","BARRIGADA","GU",96921,NA,NA,190,"PO BOX 22252, BARRIGADA, GU, 96921","No_Match",NA,NA,NA,NA
978691,"PO BOX 2226","BAYAMON","PR",960,NA,NA,191,"PO BOX 2226, BAYAMON, PR, 960","No_Match",NA,NA,NA,NA
978692,"PO BOX 2226","SEDONA","AZ",86339,NA,NA,192,"PO BOX 2226, SEDONA, AZ, 86339","No_Match",NA,NA,NA,NA
978693,"PO BOX 2226","WILMINGTON","NC",28402,NA,NA,193,"PO BOX 2226, WILMINGTON, NC, 28402","No_Match",NA,NA,NA,NA
978694,"PO BOX 222696","CHANTILLY","VA",20151,NA,NA,194,"PO BOX 222696, CHANTILLY, VA, 20151","No_Match",NA,NA,NA,NA
978695,"PO BOX 222696","CHANTILLY","VA",20153,NA,NA,195,"PO BOX 222696, CHANTILLY, VA, 20153","No_Match",NA,NA,NA,NA
978696,"PO BOX 2227","BRENHAM","TX",77834,NA,NA,196,"PO BOX 2227, BRENHAM, TX, 77834","No_Match",NA,NA,NA,NA
978697,"PO BOX 2227","MURFREESBORO","TN",37133,NA,NA,197,"PO BOX 2227, MURFREESBORO, TN, 37133","No_Match",NA,NA,NA,NA
978698,"PO BOX 222771","CHRISTIANSTED","VI",822,NA,NA,198,"PO BOX 222771, CHRISTIANSTED, VI, 822","No_Match",NA,NA,NA,NA
978699,"PO BOX 2228","DESOTO","TX",75123,NA,NA,199,"PO BOX 2228, DESOTO, TX, 75123","No_Match",NA,NA,NA,NA
978700,"PO BOX 2228","KEYSTONE HEIGHTS","FL",32656,NA,NA,200,"PO BOX 2228, KEYSTONE HEIGHTS, FL, 32656","No_Match",NA,NA,NA,NA
978701,"PO BOX 2228","LILLINGTON","NC",27546,NA,NA,201,"PO BOX 2228, LILLINGTON, NC, 27546","No_Match",NA,NA,NA,NA
978702,"PO BOX 22281","OAKLAND","CA",94623,NA,NA,202,"PO BOX 22281, OAKLAND, CA, 94623","No_Match",NA,NA,NA,NA
978703,"PO BOX 2229","TULARE","CA",93275,NA,NA,203,"PO BOX 2229, TULARE, CA, 93275","No_Match",NA,NA,NA,NA
978704,"PO BOX 222988","WEST PALM BEACH","FL",33422,NA,NA,204,"PO BOX 222988, WEST PALM BEACH, FL, 33422","No_Match",NA,NA,NA,NA
978705,"PO BOX 222H","SCARSDALE","NY",10583,NA,NA,205,"PO BOX 222H, SCARSDALE, NY, 10583","No_Match",NA,NA,NA,NA
978706,"PO BOX 223","ALACHUA","FL",32616,NA,NA,206,"PO BOX 223, ALACHUA, FL, 32616","No_Match",NA,NA,NA,NA
978707,"PO BOX 223","ALBION","CA",95410,NA,NA,207,"PO BOX 223, ALBION, CA, 95410","No_Match",NA,NA,NA,NA
978708,"PO BOX 223","AROCK","OR",97902,NA,NA,208,"PO BOX 223, AROCK, OR, 97902","No_Match",NA,NA,NA,NA
978709,"PO BOX 223","CAMDEN","ME",4843,NA,NA,209,"PO BOX 223, CAMDEN, ME, 4843","No_Match",NA,NA,NA,NA
978710,"PO BOX 223","CHEROKEE","OK",73728,NA,NA,210,"PO BOX 223, CHEROKEE, OK, 73728","No_Match",NA,NA,NA,NA
978711,"PO BOX 223","COOPERS MILLS,","ME",4341,NA,NA,211,"PO BOX 223, COOPERS MILLS,, ME, 4341","No_Match",NA,NA,NA,NA
978712,"PO BOX 223","CRUM","WV",25669,NA,NA,212,"PO BOX 223, CRUM, WV, 25669","No_Match",NA,NA,NA,NA
978713,"PO BOX 223","GARRETTSVILLE","OH",44231,NA,NA,213,"PO BOX 223, GARRETTSVILLE, OH, 44231","No_Match",NA,NA,NA,NA
978714,"PO BOX 223","GETTYSBURG","SD",57442,NA,NA,214,"PO BOX 223, GETTYSBURG, SD, 57442","No_Match",NA,NA,NA,NA
978715,"PO BOX 223","GILLETTE","WY",82717,NA,NA,215,"PO BOX 223, GILLETTE, WY, 82717","No_Match",NA,NA,NA,NA
978716,"PO BOX 223","HARRISTOWN","IL",62537,NA,NA,216,"PO BOX 223, HARRISTOWN, IL, 62537","No_Match",NA,NA,NA,NA
978717,"PO BOX 223","KEYSER","WV",26726,NA,NA,217,"PO BOX 223, KEYSER, WV, 26726","No_Match",NA,NA,NA,NA
978718,"PO BOX 223","LAKE JUNALUSKA","NC",28745,NA,NA,218,"PO BOX 223, LAKE JUNALUSKA, NC, 28745","No_Match",NA,NA,NA,NA
978719,"PO BOX 223","LOS ALAMOS","CA",93440,NA,NA,219,"PO BOX 223, LOS ALAMOS, CA, 93440","No_Match",NA,NA,NA,NA
978720,"PO BOX 223","MEADVIEW","AZ",86444,NA,NA,220,"PO BOX 223, MEADVIEW, AZ, 86444","No_Match",NA,NA,NA,NA
978721,"PO BOX 223","MERLIN","OR",97532,NA,NA,221,"PO BOX 223, MERLIN, OR, 97532","No_Match",NA,NA,NA,NA
978722,"PO BOX 223","NELLIS","WV",25142,NA,NA,222,"PO BOX 223, NELLIS, WV, 25142","No_Match",NA,NA,NA,NA
978723,"PO BOX 223","NORWAY","ME",4268,NA,NA,223,"PO BOX 223, NORWAY, ME, 4268","No_Match",NA,NA,NA,NA
978724,"PO BOX 223","OGDEN","IL",61859,NA,NA,224,"PO BOX 223, OGDEN, IL, 61859","No_Match",NA,NA,NA,NA
978725,"PO BOX 223","RIO GRANDE","OH",45674,NA,NA,225,"PO BOX 223, RIO GRANDE, OH, 45674","No_Match",NA,NA,NA,NA
978726,"PO BOX 223","ROCKHILL FURNACE","PA",17249,NA,NA,226,"PO BOX 223, ROCKHILL FURNACE, PA, 17249","No_Match",NA,NA,NA,NA
978727,"PO BOX 223","ROLLINSFORD","NH",3869,NA,NA,227,"PO BOX 223, ROLLINSFORD, NH, 3869","No_Match",NA,NA,NA,NA
978728,"PO BOX 223","ROSEDALE","MS",38769,NA,NA,228,"PO BOX 223, ROSEDALE, MS, 38769","No_Match",NA,NA,NA,NA
978729,"PO BOX 223","ROUND LAKE","NY",12151,NA,NA,229,"PO BOX 223, ROUND LAKE, NY, 12151","No_Match",NA,NA,NA,NA
978730,"PO BOX 223","SANTA FE","NM",87574,NA,NA,230,"PO BOX 223, SANTA FE, NM, 87574","No_Match",NA,NA,NA,NA
978731,"PO BOX 223","SARATOGA","WY",82331,NA,NA,231,"PO BOX 223, SARATOGA, WY, 82331","No_Match",NA,NA,NA,NA
978732,"PO BOX 223","SASSER","GA",39885,NA,NA,232,"PO BOX 223, SASSER, GA, 39885","No_Match",NA,NA,NA,NA
978733,"PO BOX 223","SHELBY","NC",28151,NA,NA,233,"PO BOX 223, SHELBY, NC, 28151","No_Match",NA,NA,NA,NA
978734,"PO BOX 223","SKULL VALLEY","AZ",86338,NA,NA,234,"PO BOX 223, SKULL VALLEY, AZ, 86338","No_Match",NA,NA,NA,NA
978735,"PO BOX 223","VALLECITOS","NM",87581,NA,NA,235,"PO BOX 223, VALLECITOS, NM, 87581","No_Match",NA,NA,NA,NA
978736,"PO BOX 223","WARM SPRINGS","MT",59756,NA,NA,236,"PO BOX 223, WARM SPRINGS, MT, 59756","No_Match",NA,NA,NA,NA
978737,"PO BOX 2230","MCCALL","ID",83638,NA,NA,237,"PO BOX 2230, MCCALL, ID, 83638","No_Match",NA,NA,NA,NA
978738,"PO BOX 223044","PRINCEVILLE","HI",96754,NA,NA,238,"PO BOX 223044, PRINCEVILLE, HI, 96754","No_Match",NA,NA,NA,NA
978739,"PO BOX 2231","LAKE HAVASU CITY","AZ",86405,NA,NA,239,"PO BOX 2231, LAKE HAVASU CITY, AZ, 86405","No_Match",NA,NA,NA,NA
978740,"PO BOX 2231","LAKE HAVASU","AZ",86405,NA,NA,240,"PO BOX 2231, LAKE HAVASU, AZ, 86405","No_Match",NA,NA,NA,NA
978741,"PO BOX 2231","WALDPORT","OR",97394,NA,NA,241,"PO BOX 2231, WALDPORT, OR, 97394","No_Match",NA,NA,NA,NA
978742,"PO BOX 22311","KANSAS CITY","MO",64113,NA,NA,242,"PO BOX 22311, KANSAS CITY, MO, 64113","No_Match",NA,NA,NA,NA
978743,"PO BOX 22315","BEACHWOOD","OH",44122,NA,NA,243,"PO BOX 22315, BEACHWOOD, OH, 44122","No_Match",NA,NA,NA,NA
978744,"PO BOX 22316","GREEN BAY","WI",54305,NA,NA,244,"PO BOX 22316, GREEN BAY, WI, 54305","No_Match",NA,NA,NA,NA
978745,"PO BOX 22324","OKLAHOMA CITY","OK",73123,NA,NA,245,"PO BOX 22324, OKLAHOMA CITY, OK, 73123","No_Match",NA,NA,NA,NA
978746,"PO BOX 22325","SEATTLE","WA",98122,NA,NA,246,"PO BOX 22325, SEATTLE, WA, 98122","No_Match",NA,NA,NA,NA
978747,"PO BOX 22328","PHILADELPHIA","PA",19110,NA,NA,247,"PO BOX 22328, PHILADELPHIA, PA, 19110","No_Match",NA,NA,NA,NA
978748,"PO BOX 2233","BEAVERTON","OR",97075,NA,NA,248,"PO BOX 2233, BEAVERTON, OR, 97075","No_Match",NA,NA,NA,NA
978749,"PO BOX 223300 PMB 290","PRINCEVILLE","HI",96722,NA,NA,249,"PO BOX 223300 PMB 290, PRINCEVILLE, HI, 96722","No_Match",NA,NA,NA,NA
978750,"PO BOX 223300-300","PRINCEVILLE","HI",96722,NA,NA,250,"PO BOX 223300-300, PRINCEVILLE, HI, 96722","No_Match",NA,NA,NA,NA
978751,"PO BOX 223316","PRINCEVILLE","HI",96722,NA,NA,251,"PO BOX 223316, PRINCEVILLE, HI, 96722","No_Match",NA,NA,NA,NA
978752,"PO BOX 22332","HUNTSVILLE","AL",35814,NA,NA,252,"PO BOX 22332, HUNTSVILLE, AL, 35814","No_Match",NA,NA,NA,NA
978753,"PO BOX 223320","CHRISTIANTED","VI",822,NA,NA,253,"PO BOX 223320, CHRISTIANTED, VI, 822","No_Match",NA,NA,NA,NA
978754,"PO BOX 223343","CHRISITAINSTED","VI",822,NA,NA,254,"PO BOX 223343, CHRISITAINSTED, VI, 822","No_Match",NA,NA,NA,NA
978755,"PO BOX 223343","CHRISTIANSTED","VI",822,NA,NA,255,"PO BOX 223343, CHRISTIANSTED, VI, 822","No_Match",NA,NA,NA,NA
978756,"PO BOX 223363","PRINCEVILLE","HI",96722,NA,NA,256,"PO BOX 223363, PRINCEVILLE, HI, 96722","No_Match",NA,NA,NA,NA
978757,"PO BOX 2234","HENDERSONVILLE","NC",28793,NA,NA,257,"PO BOX 2234, HENDERSONVILLE, NC, 28793","No_Match",NA,NA,NA,NA
978758,"PO BOX 2234","LEWISTON","ID",83501,NA,NA,258,"PO BOX 2234, LEWISTON, ID, 83501","No_Match",NA,NA,NA,NA
978759,"PO BOX 2234","MANTECA","CA",95336,NA,NA,259,"PO BOX 2234, MANTECA, CA, 95336","No_Match",NA,NA,NA,NA
978760,"PO BOX 2234","TUSCALOOSA","AL",35403,NA,NA,260,"PO BOX 2234, TUSCALOOSA, AL, 35403","No_Match",NA,NA,NA,NA
978761,"PO BOX 223459","PRINCEVILLE","HI",96722,NA,NA,261,"PO BOX 223459, PRINCEVILLE, HI, 96722","No_Match",NA,NA,NA,NA
978762,"PO BOX 2235","TUSCALOOSA","AL",35403,NA,NA,262,"PO BOX 2235, TUSCALOOSA, AL, 35403","No_Match",NA,NA,NA,NA
978763,"PO BOX 223519","CARMEL","CA",93922,NA,NA,263,"PO BOX 223519, CARMEL, CA, 93922","No_Match",NA,NA,NA,NA
978764,"PO BOX 22352","KANSAS CITY","MO",64113,NA,NA,264,"PO BOX 22352, KANSAS CITY, MO, 64113","No_Match",NA,NA,NA,NA
978765,"PO BOX 223541","WEST PALM BEACH","FL",33422,NA,NA,265,"PO BOX 223541, WEST PALM BEACH, FL, 33422","No_Match",NA,NA,NA,NA
978766,"PO BOX 2236","GOODLETTSVILLE","TN",37070,NA,NA,266,"PO BOX 2236, GOODLETTSVILLE, TN, 37070","No_Match",NA,NA,NA,NA
978767,"PO BOX 22363","HONOLULU","HI",96823,NA,NA,267,"PO BOX 22363, HONOLULU, HI, 96823","No_Match",NA,NA,NA,NA
978768,"PO BOX 223632","PRINCEVILLE","HI",96722,NA,NA,268,"PO BOX 223632, PRINCEVILLE, HI, 96722","No_Match",NA,NA,NA,NA
978769,"PO BOX 22368","CARMEL","CA",93922,NA,NA,269,"PO BOX 22368, CARMEL, CA, 93922","No_Match",NA,NA,NA,NA
978770,"PO BOX 2237","BARSTOW","CA",92312,NA,NA,270,"PO BOX 2237, BARSTOW, CA, 92312","No_Match",NA,NA,NA,NA
978771,"PO BOX 2237","HAWTHORNE","NV",89415,NA,NA,271,"PO BOX 2237, HAWTHORNE, NV, 89415","No_Match",NA,NA,NA,NA
978772,"PO BOX 22371","MEMPHIS","TN",38122,NA,NA,272,"PO BOX 22371, MEMPHIS, TN, 38122","No_Match",NA,NA,NA,NA
978773,"PO BOX 223724","CARMEL","CA",93822,NA,NA,273,"PO BOX 223724, CARMEL, CA, 93822","No_Match",NA,NA,NA,NA
978774,"PO BOX 2238","LIVERPOOL","NY",13089,NA,NA,274,"PO BOX 2238, LIVERPOOL, NY, 13089","No_Match",NA,NA,NA,NA
978775,"PO BOX 22381","LEXINGTON","KY",40522,NA,NA,275,"PO BOX 22381, LEXINGTON, KY, 40522","No_Match",NA,NA,NA,NA
978776,"PO BOX 2239","KALAMA","WA",98625,NA,NA,276,"PO BOX 2239, KALAMA, WA, 98625","No_Match",NA,NA,NA,NA
978777,"PO BOX 224","ARLINGTON","VT",5250,NA,NA,277,"PO BOX 224, ARLINGTON, VT, 5250","No_Match",NA,NA,NA,NA
978778,"PO BOX 224","BROOMFIELD","CO",80038,NA,NA,278,"PO BOX 224, BROOMFIELD, CO, 80038","No_Match",NA,NA,NA,NA
978779,"PO BOX 224","BUFFALO","MN",55313,NA,NA,279,"PO BOX 224, BUFFALO, MN, 55313","No_Match",NA,NA,NA,NA
978780,"PO BOX 224","CLAYTON","CA",94517,NA,NA,280,"PO BOX 224, CLAYTON, CA, 94517","No_Match",NA,NA,NA,NA
978781,"PO BOX 224","DANBURY","CT",6813,NA,NA,281,"PO BOX 224, DANBURY, CT, 6813","No_Match",NA,NA,NA,NA
978782,"PO BOX 224","DIAMOND","OH",44412,NA,NA,282,"PO BOX 224, DIAMOND, OH, 44412","No_Match",NA,NA,NA,NA
978783,"PO BOX 224","EAST PETERSBURG","PA",17520,NA,NA,283,"PO BOX 224, EAST PETERSBURG, PA, 17520","No_Match",NA,NA,NA,NA
978784,"PO BOX 224","GAMBELL","AK",99742,NA,NA,284,"PO BOX 224, GAMBELL, AK, 99742","No_Match",NA,NA,NA,NA
978785,"PO BOX 224","GREAT BEND","NY",13643,NA,NA,285,"PO BOX 224, GREAT BEND, NY, 13643","No_Match",NA,NA,NA,NA
978786,"PO BOX 224","HYGIENE","CO",80533,NA,NA,286,"PO BOX 224, HYGIENE, CO, 80533","No_Match",NA,NA,NA,NA
978787,"PO BOX 224","JENKS","OK",74037,NA,NA,287,"PO BOX 224, JENKS, OK, 74037","No_Match",NA,NA,NA,NA
978788,"PO BOX 224","LANE","SC",29564,NA,NA,288,"PO BOX 224, LANE, SC, 29564","No_Match",NA,NA,NA,NA
978789,"PO BOX 224","LOUISVILLE","GA",30434,NA,NA,289,"PO BOX 224, LOUISVILLE, GA, 30434","No_Match",NA,NA,NA,NA
978790,"PO BOX 224","LUTTRELL","TN",37779,NA,NA,290,"PO BOX 224, LUTTRELL, TN, 37779","No_Match",NA,NA,NA,NA
978791,"PO BOX 224","MEEKER","CO",81641,NA,NA,291,"PO BOX 224, MEEKER, CO, 81641","No_Match",NA,NA,NA,NA
978792,"PO BOX 224","N LAKEWOOD","WA",98259,NA,NA,292,"PO BOX 224, N LAKEWOOD, WA, 98259","No_Match",NA,NA,NA,NA
978793,"PO BOX 224","NEWBURY","NH",3255,NA,NA,293,"PO BOX 224, NEWBURY, NH, 3255","No_Match",NA,NA,NA,NA
978794,"PO BOX 224","PARMELEE","SD",57566,NA,NA,294,"PO BOX 224, PARMELEE, SD, 57566","No_Match",NA,NA,NA,NA
978795,"PO BOX 224","RIGGINS","ID",83549,NA,NA,295,"PO BOX 224, RIGGINS, ID, 83549","No_Match",NA,NA,NA,NA
978796,"PO BOX 224","ROBBINS","TX",75097,NA,NA,296,"PO BOX 224, ROBBINS, TX, 75097","No_Match",NA,NA,NA,NA
978797,"PO BOX 224","TAHOLAH","WA",98587,NA,NA,297,"PO BOX 224, TAHOLAH, WA, 98587","No_Match",NA,NA,NA,NA
978798,"PO BOX 224","TALKEETNA","AK",99676,NA,NA,298,"PO BOX 224, TALKEETNA, AK, 99676","No_Match",NA,NA,NA,NA
978799,"PO BOX 224","THATCHER","AZ",85552,NA,NA,299,"PO BOX 224, THATCHER, AZ, 85552","No_Match",NA,NA,NA,NA
978800,"PO BOX 224","VALLECITOS","NM",87581,NA,NA,300,"PO BOX 224, VALLECITOS, NM, 87581","No_Match",NA,NA,NA,NA
978801,"PO BOX 224","WAYLAND","KY",41666,NA,NA,301,"PO BOX 224, WAYLAND, KY, 41666","No_Match",NA,NA,NA,NA
978802,"PO BOX 224","WAYLAND","MO",63472,NA,NA,302,"PO BOX 224, WAYLAND, MO, 63472","No_Match",NA,NA,NA,NA
978803,"PO BOX 224","WESTON","TX",75097,NA,NA,303,"PO BOX 224, WESTON, TX, 75097","No_Match",NA,NA,NA,NA
978804,"PO BOX 224","WICKLIFFE","KY",42087,NA,NA,304,"PO BOX 224, WICKLIFFE, KY, 42087","No_Match",NA,NA,NA,NA
978805,"PO BOX 224","WILMINGTON","DE",19899,NA,NA,305,"PO BOX 224, WILMINGTON, DE, 19899","No_Match",NA,NA,NA,NA
978806,"PO BOX 2241","BOUSE","AZ",85325,NA,NA,306,"PO BOX 2241, BOUSE, AZ, 85325","No_Match",NA,NA,NA,NA
978807,"PO BOX 2241","SEABROOK","NH",3874,NA,NA,307,"PO BOX 2241, SEABROOK, NH, 3874","No_Match",NA,NA,NA,NA
978808,"PO BOX 2241","SMYRNA","GA",30081,NA,NA,308,"PO BOX 2241, SMYRNA, GA, 30081","No_Match",NA,NA,NA,NA
978809,"PO BOX 2241","STONE MOUNTAIN","GA",30086,NA,NA,309,"PO BOX 2241, STONE MOUNTAIN, GA, 30086","No_Match",NA,NA,NA,NA
978810,"PO BOX 2241","UNIONTOWN","PA",15401,NA,NA,310,"PO BOX 2241, UNIONTOWN, PA, 15401","No_Match",NA,NA,NA,NA
978811,"PO BOX 22417","SANTA FE","NM",87502,NA,NA,311,"PO BOX 22417, SANTA FE, NM, 87502","No_Match",NA,NA,NA,NA
978812,"PO BOX 2242","AZLE","TX",76098,NA,NA,312,"PO BOX 2242, AZLE, TX, 76098","No_Match",NA,NA,NA,NA
978813,"PO BOX 2242","POULSBO","WA",98370,NA,NA,313,"PO BOX 2242, POULSBO, WA, 98370","No_Match",NA,NA,NA,NA
978814,"PO BOX 2242","VASHON","WA",98070,NA,NA,314,"PO BOX 2242, VASHON, WA, 98070","No_Match",NA,NA,NA,NA
978815,"PO BOX 224221","DALLAS","TX",75222,NA,NA,315,"PO BOX 224221, DALLAS, TX, 75222","No_Match",NA,NA,NA,NA
978816,"PO BOX 22428","LOUISVILLE","KY",40252,NA,NA,316,"PO BOX 22428, LOUISVILLE, KY, 40252","No_Match",NA,NA,NA,NA
978817,"PO BOX 224298","CHRISTIANSTED","VI",820,NA,NA,317,"PO BOX 224298, CHRISTIANSTED, VI, 820","No_Match",NA,NA,NA,NA
978818,"PO BOX 2243","CAYEY","PR",737,NA,NA,318,"PO BOX 2243, CAYEY, PR, 737","No_Match",NA,NA,NA,NA
978819,"PO BOX 2243","COVINGTON","GA",30015,NA,NA,319,"PO BOX 2243, COVINGTON, GA, 30015","No_Match",NA,NA,NA,NA
978820,"PO BOX 2243","IMPERIAL BEACH","CA",91933,NA,NA,320,"PO BOX 2243, IMPERIAL BEACH, CA, 91933","No_Match",NA,NA,NA,NA
978821,"PO BOX 2243","KAMUELA","HI",96743,NA,NA,321,"PO BOX 2243, KAMUELA, HI, 96743","No_Match",NA,NA,NA,NA
978822,"PO BOX 224323","CHRISTIANSTED","VI",822,NA,NA,322,"PO BOX 224323, CHRISTIANSTED, VI, 822","No_Match",NA,NA,NA,NA
978823,"PO BOX 2244","BAKERSFIELD","CA",93303,NA,NA,323,"PO BOX 2244, BAKERSFIELD, CA, 93303","No_Match",NA,NA,NA,NA
978824,"PO BOX 2244","CEDAR PARK","TX",78613,NA,NA,324,"PO BOX 2244, CEDAR PARK, TX, 78613","No_Match",NA,NA,NA,NA
978825,"PO BOX 2244","DECATUR","GA",30031,NA,NA,325,"PO BOX 2244, DECATUR, GA, 30031","No_Match",NA,NA,NA,NA
978826,"PO BOX 2244","FAYETTE","MS",39069,NA,NA,326,"PO BOX 2244, FAYETTE, MS, 39069","No_Match",NA,NA,NA,NA
978827,"PO BOX 2244","LIVINGSTON","TX",77351,NA,NA,327,"PO BOX 2244, LIVINGSTON, TX, 77351","No_Match",NA,NA,NA,NA
978828,"PO BOX 2244","OCALA","FL",34478,NA,NA,328,"PO BOX 2244, OCALA, FL, 34478","No_Match",NA,NA,NA,NA
978829,"PO BOX 2244","PALM BEACH","FL",33480,NA,NA,329,"PO BOX 2244, PALM BEACH, FL, 33480","No_Match",NA,NA,NA,NA
978830,"PO BOX 2244","VENTNOR","NJ",8406,NA,NA,330,"PO BOX 2244, VENTNOR, NJ, 8406","No_Match",NA,NA,NA,NA
978831,"PO BOX 2244","WOODBRIDGE","VA",22195,NA,NA,331,"PO BOX 2244, WOODBRIDGE, VA, 22195","No_Match",NA,NA,NA,NA
978832,"PO BOX 22442","FORT WORTH","TX",76122,NA,NA,332,"PO BOX 22442, FORT WORTH, TX, 76122","No_Match",NA,NA,NA,NA
978833,"PO BOX 22443","HOUSTON","TX",77227,NA,NA,333,"PO BOX 22443, HOUSTON, TX, 77227","No_Match",NA,NA,NA,NA
978834,"PO BOX 2245","ASHLAND","KY",41101,NA,NA,334,"PO BOX 2245, ASHLAND, KY, 41101","No_Match",NA,NA,NA,NA
978835,"PO BOX 2245","ASHLAND","KY",41105,NA,NA,335,"PO BOX 2245, ASHLAND, KY, 41105","No_Match",NA,NA,NA,NA
978836,"PO BOX 2245","BIGFORK","MT",59911,NA,NA,336,"PO BOX 2245, BIGFORK, MT, 59911","No_Match",NA,NA,NA,NA
978837,"PO BOX 2246","MERCED","CA",95344,NA,NA,337,"PO BOX 2246, MERCED, CA, 95344","No_Match",NA,NA,NA,NA
978838,"PO BOX 2246","NEWBURGH","NE",12550,NA,NA,338,"PO BOX 2246, NEWBURGH, NE, 12550","No_Match",NA,NA,NA,NA
978839,"PO BOX 2246","NEWBURGH","NY",12550,NA,NA,339,"PO BOX 2246, NEWBURGH, NY, 12550","No_Match",NA,NA,NA,NA
978840,"PO BOX 2246","STUART","FL",34995,NA,NA,340,"PO BOX 2246, STUART, FL, 34995","No_Match",NA,NA,NA,NA
978841,"PO BOX 22467","OAKLAND","CA",94609,NA,NA,341,"PO BOX 22467, OAKLAND, CA, 94609","No_Match",NA,NA,NA,NA
978842,"PO BOX 2247","MERCED","CA",95348,NA,NA,342,"PO BOX 2247, MERCED, CA, 95348","No_Match",NA,NA,NA,NA
978843,"PO BOX 2247","MESILLA PARK","NM",88047,NA,NA,343,"PO BOX 2247, MESILLA PARK, NM, 88047","No_Match",NA,NA,NA,NA
978844,"PO BOX 2247","PAGO PAGO","AS",96799,NA,NA,344,"PO BOX 2247, PAGO PAGO, AS, 96799","No_Match",NA,NA,NA,NA
978845,"PO BOX 2248","ROHNERT PARK","CA",94927,NA,NA,345,"PO BOX 2248, ROHNERT PARK, CA, 94927","No_Match",NA,NA,NA,NA
978846,"PO BOX 22484","FLAGSTAFF","AZ",86002,NA,NA,346,"PO BOX 22484, FLAGSTAFF, AZ, 86002","No_Match",NA,NA,NA,NA
978847,"PO BOX 224864","DALLAS","TX",75223,NA,NA,347,"PO BOX 224864, DALLAS, TX, 75223","No_Match",NA,NA,NA,NA
978848,"PO BOX 2249","SNOWFLAKE","AZ",85937,NA,NA,348,"PO BOX 2249, SNOWFLAKE, AZ, 85937","No_Match",NA,NA,NA,NA
978849,"PO BOX 224952","DALLAS","TX",75222,NA,NA,349,"PO BOX 224952, DALLAS, TX, 75222","No_Match",NA,NA,NA,NA
978850,"PO BOX 22496","HONOLULU","HI",96823,NA,NA,350,"PO BOX 22496, HONOLULU, HI, 96823","No_Match",NA,NA,NA,NA
978851,"PO BOX 224988","DALLAS","TX",75222,NA,NA,351,"PO BOX 224988, DALLAS, TX, 75222","No_Match",NA,NA,NA,NA
978852,"PO BOX 225 11 PORTER RD","MILTON","NH",3851,43.431532342,-70.987843899,352,"PO BOX 225 11 PORTER RD, MILTON, NH, 3851","Match","Exact","11 PORTER RD, MILTON, NH, 03851",117809429,"R"
978853,"PO BOX 225","ALTOONA","IA",50009,NA,NA,353,"PO BOX 225, ALTOONA, IA, 50009","No_Match",NA,NA,NA,NA
978854,"PO BOX 225","BELCHER","LA",71004,NA,NA,354,"PO BOX 225, BELCHER, LA, 71004","No_Match",NA,NA,NA,NA
978855,"PO BOX 225","CLARKDALE","AZ",86324,NA,NA,355,"PO BOX 225, CLARKDALE, AZ, 86324","No_Match",NA,NA,NA,NA
978856,"PO BOX 225","DELTAVILLE","VA",23043,NA,NA,356,"PO BOX 225, DELTAVILLE, VA, 23043","No_Match",NA,NA,NA,NA
978857,"PO BOX 225","DOLGEVILLE","NY",13329,NA,NA,357,"PO BOX 225, DOLGEVILLE, NY, 13329","No_Match",NA,NA,NA,NA
978858,"PO BOX 225","DRAIN","OR",97435,NA,NA,358,"PO BOX 225, DRAIN, OR, 97435","No_Match",NA,NA,NA,NA
978859,"PO BOX 225","EAST TROY","WI",53120,NA,NA,359,"PO BOX 225, EAST TROY, WI, 53120","No_Match",NA,NA,NA,NA
978860,"PO BOX 225","GARDEN","MI",49835,NA,NA,360,"PO BOX 225, GARDEN, MI, 49835","No_Match",NA,NA,NA,NA
978861,"PO BOX 225","GOOSE CREEK","SC",29445,NA,NA,361,"PO BOX 225, GOOSE CREEK, SC, 29445","No_Match",NA,NA,NA,NA
978862,"PO BOX 225","GROVELAND","CA",95321,NA,NA,362,"PO BOX 225, GROVELAND, CA, 95321","No_Match",NA,NA,NA,NA
978863,"PO BOX 225","INYOKERN","CA",93527,NA,NA,363,"PO BOX 225, INYOKERN, CA, 93527","No_Match",NA,NA,NA,NA
978864,"PO BOX 225","JOLIET","MT",59041,NA,NA,364,"PO BOX 225, JOLIET, MT, 59041","No_Match",NA,NA,NA,NA
978865,"PO BOX 225","LAKEVIEW","OR",97630,NA,NA,365,"PO BOX 225, LAKEVIEW, OR, 97630","No_Match",NA,NA,NA,NA
978866,"PO BOX 225","LANSING","NC",28643,NA,NA,366,"PO BOX 225, LANSING, NC, 28643","No_Match",NA,NA,NA,NA
978867,"PO BOX 225","LINCOLN","NH",3251,NA,NA,367,"PO BOX 225, LINCOLN, NH, 3251","No_Match",NA,NA,NA,NA
978868,"PO BOX 225","NEWPORT NEWS","VA",23607,NA,NA,368,"PO BOX 225, NEWPORT NEWS, VA, 23607","No_Match",NA,NA,NA,NA
978869,"PO BOX 225","NOBLESVILLE","IN",46061,NA,NA,369,"PO BOX 225, NOBLESVILLE, IN, 46061","No_Match",NA,NA,NA,NA
978870,"PO BOX 225","PERRYOPOLIS","PA",15473,NA,NA,370,"PO BOX 225, PERRYOPOLIS, PA, 15473","No_Match",NA,NA,NA,NA
978871,"PO BOX 225","PROSPECT","OR",97536,NA,NA,371,"PO BOX 225, PROSPECT, OR, 97536","No_Match",NA,NA,NA,NA
978872,"PO BOX 225","REYNOLDS","IN",47980,NA,NA,372,"PO BOX 225, REYNOLDS, IN, 47980","No_Match",NA,NA,NA,NA
978873,"PO BOX 225","ROSEMOUNT","MN",55068,NA,NA,373,"PO BOX 225, ROSEMOUNT, MN, 55068","No_Match",NA,NA,NA,NA
978874,"PO BOX 225","SAN IGNACIO BELIZE",NA,NA,NA,NA,374,"PO BOX 225, SAN IGNACIO BELIZE, , ","No_Match",NA,NA,NA,NA
978875,"PO BOX 225","WEAVERVILLE","CA",96093,NA,NA,375,"PO BOX 225, WEAVERVILLE, CA, 96093","No_Match",NA,NA,NA,NA
978876,"PO BOX 2250","HAWTHORNE","NV",89415,NA,NA,376,"PO BOX 2250, HAWTHORNE, NV, 89415","No_Match",NA,NA,NA,NA
978877,"PO BOX 2250","MESQUITE","NV",89024,NA,NA,377,"PO BOX 2250, MESQUITE, NV, 89024","No_Match",NA,NA,NA,NA
978878,"PO BOX 2250","SHELBY","NC",28151,NA,NA,378,"PO BOX 2250, SHELBY, NC, 28151","No_Match",NA,NA,NA,NA
978879,"PO BOX 225008","SAN FRANCISCO","CA",94122,NA,NA,379,"PO BOX 225008, SAN FRANCISCO, CA, 94122","No_Match",NA,NA,NA,NA
978880,"PO BOX 22501","SAN FRANCISCO","CA",94122,NA,NA,380,"PO BOX 22501, SAN FRANCISCO, CA, 94122","No_Match",NA,NA,NA,NA
978881,"PO BOX 22506","NASHVILLE","TN",37202,NA,NA,381,"PO BOX 22506, NASHVILLE, TN, 37202","No_Match",NA,NA,NA,NA
978882,"PO BOX 2251","MARION","NC",28752,NA,NA,382,"PO BOX 2251, MARION, NC, 28752","No_Match",NA,NA,NA,NA
978883,"PO BOX 2251","PALM HARBOR","FL",34682,NA,NA,383,"PO BOX 2251, PALM HARBOR, FL, 34682","No_Match",NA,NA,NA,NA
978884,"PO BOX 2251","RIVERSIDE","CA",92506,NA,NA,384,"PO BOX 2251, RIVERSIDE, CA, 92506","No_Match",NA,NA,NA,NA
978885,"PO BOX 22521","SANTA FE","NM",87502,NA,NA,385,"PO BOX 22521, SANTA FE, NM, 87502","No_Match",NA,NA,NA,NA
978886,"PO BOX 22522","LOUISVILLE","KY",40252,NA,NA,386,"PO BOX 22522, LOUISVILLE, KY, 40252","No_Match",NA,NA,NA,NA
978887,"PO BOX 22526","EAGAN","MN",55122,NA,NA,387,"PO BOX 22526, EAGAN, MN, 55122","No_Match",NA,NA,NA,NA
978888,"PO BOX 2253","COVINGTON","GA",30015,NA,NA,388,"PO BOX 2253, COVINGTON, GA, 30015","No_Match",NA,NA,NA,NA
978889,"PO BOX 2253","MANSFIELD","TX",76063,NA,NA,389,"PO BOX 2253, MANSFIELD, TX, 76063","No_Match",NA,NA,NA,NA
978890,"PO BOX 2253","NATCHEZ","MS",39121,NA,NA,390,"PO BOX 2253, NATCHEZ, MS, 39121","No_Match",NA,NA,NA,NA
978891,"PO BOX 2255","BRYSON CITY","NC",28713,NA,NA,391,"PO BOX 2255, BRYSON CITY, NC, 28713","No_Match",NA,NA,NA,NA
978892,"PO BOX 2255","CLEWISTON","FL",33440,NA,NA,392,"PO BOX 2255, CLEWISTON, FL, 33440","No_Match",NA,NA,NA,NA
978893,"PO BOX 2255","EL GRANADA","CA",94018,NA,NA,393,"PO BOX 2255, EL GRANADA, CA, 94018","No_Match",NA,NA,NA,NA
978894,"PO BOX 22560","BULLHEAD CITY","AZ",86439,NA,NA,394,"PO BOX 22560, BULLHEAD CITY, AZ, 86439","No_Match",NA,NA,NA,NA
978895,"PO BOX 225647","DALLAS","TX",75222,NA,NA,395,"PO BOX 225647, DALLAS, TX, 75222","No_Match",NA,NA,NA,NA
978896,"PO BOX 2257","HOBE SOUND","FL",33475,NA,NA,396,"PO BOX 2257, HOBE SOUND, FL, 33475","No_Match",NA,NA,NA,NA
978897,"PO BOX 2258","OAK HARBOR","WA",98277,NA,NA,397,"PO BOX 2258, OAK HARBOR, WA, 98277","No_Match",NA,NA,NA,NA
978898,"PO BOX 225820","DALLAS","TX",75222,NA,NA,398,"PO BOX 225820, DALLAS, TX, 75222","No_Match",NA,NA,NA,NA
978899,"PO BOX 22584","SEATTLE","WA",22584,NA,NA,399,"PO BOX 22584, SEATTLE, WA, 22584","No_Match",NA,NA,NA,NA
978900,"PO BOX 2259","PIKEVILLE","KY",41502,NA,NA,400,"PO BOX 2259, PIKEVILLE, KY, 41502","No_Match",NA,NA,NA,NA
978901,"PO BOX 22593","MILWAUKIE","OR",97269,NA,NA,401,"PO BOX 22593, MILWAUKIE, OR, 97269","No_Match",NA,NA,NA,NA
978902,"PO BOX 22594","NEWARK","NJ",7101,NA,NA,402,"PO BOX 22594, NEWARK, NJ, 7101","No_Match",NA,NA,NA,NA
978903,"PO BOX 226","ALIEF","TX",77411,NA,NA,403,"PO BOX 226, ALIEF, TX, 77411","No_Match",NA,NA,NA,NA
978904,"PO BOX 226","CHRISTINE","TX",78012,NA,NA,404,"PO BOX 226, CHRISTINE, TX, 78012","No_Match",NA,NA,NA,NA
978905,"PO BOX 226","CIRCLE","MT",59215,NA,NA,405,"PO BOX 226, CIRCLE, MT, 59215","No_Match",NA,NA,NA,NA
978906,"PO BOX 226","CONGRESS","AZ",85332,NA,NA,406,"PO BOX 226, CONGRESS, AZ, 85332","No_Match",NA,NA,NA,NA
978907,"PO BOX 226","DELAWARE","OH",43035,NA,NA,407,"PO BOX 226, DELAWARE, OH, 43035","No_Match",NA,NA,NA,NA
978908,"PO BOX 226","EDGEWOOD","TX",75117,NA,NA,408,"PO BOX 226, EDGEWOOD, TX, 75117","No_Match",NA,NA,NA,NA
978909,"PO BOX 226","ELGIN","OK",73538,NA,NA,409,"PO BOX 226, ELGIN, OK, 73538","No_Match",NA,NA,NA,NA
978910,"PO BOX 226","FARMINGVILLE","NY",11738,NA,NA,410,"PO BOX 226, FARMINGVILLE, NY, 11738","No_Match",NA,NA,NA,NA
978911,"PO BOX 226","FORT VALLEY","VA",22657,NA,NA,411,"PO BOX 226, FORT VALLEY, VA, 22657","No_Match",NA,NA,NA,NA
978912,"PO BOX 226","LIVINGSTON","NY",12541,NA,NA,412,"PO BOX 226, LIVINGSTON, NY, 12541","No_Match",NA,NA,NA,NA
978913,"PO BOX 226","LOS INDIOS","TX",78567,NA,NA,413,"PO BOX 226, LOS INDIOS, TX, 78567","No_Match",NA,NA,NA,NA
978914,"PO BOX 226","MARIETTA","GA",30061,NA,NA,414,"PO BOX 226, MARIETTA, GA, 30061","No_Match",NA,NA,NA,NA
978915,"PO BOX 226","RED RIVER","NM",87558,NA,NA,415,"PO BOX 226, RED RIVER, NM, 87558","No_Match",NA,NA,NA,NA
978916,"PO BOX 226","SEBASTOPOL","CA",95473,NA,NA,416,"PO BOX 226, SEBASTOPOL, CA, 95473","No_Match",NA,NA,NA,NA
978917,"PO BOX 226","SHAPLEIGH","ME",4076,NA,NA,417,"PO BOX 226, SHAPLEIGH, ME, 4076","No_Match",NA,NA,NA,NA
978918,"PO BOX 2260","EAGLE","CO",81631,NA,NA,418,"PO BOX 2260, EAGLE, CO, 81631","No_Match",NA,NA,NA,NA
978919,"PO BOX 2261","BANGOR","ME",4401,NA,NA,419,"PO BOX 2261, BANGOR, ME, 4401","No_Match",NA,NA,NA,NA
978920,"PO BOX 2261","JACKSON","MS",39225,NA,NA,420,"PO BOX 2261, JACKSON, MS, 39225","No_Match",NA,NA,NA,NA
978921,"PO BOX 226126","DALLAS","TX",75222,NA,NA,421,"PO BOX 226126, DALLAS, TX, 75222","No_Match",NA,NA,NA,NA
978922,"PO BOX 2262","ALBANY","TX",76430,NA,NA,422,"PO BOX 2262, ALBANY, TX, 76430","No_Match",NA,NA,NA,NA
978923,"PO BOX 2262","STILLWATER","OK",74076,NA,NA,423,"PO BOX 2262, STILLWATER, OK, 74076","No_Match",NA,NA,NA,NA
978924,"PO BOX 22625","HUNTSVILLE","AL",35814,NA,NA,424,"PO BOX 22625, HUNTSVILLE, AL, 35814","No_Match",NA,NA,NA,NA
978925,"PO BOX 2263","SEWARD","AK",99664,NA,NA,425,"PO BOX 2263, SEWARD, AK, 99664","No_Match",NA,NA,NA,NA
978926,"PO BOX 2264","BEAUFORT","NC",28516,NA,NA,426,"PO BOX 2264, BEAUFORT, NC, 28516","No_Match",NA,NA,NA,NA
978927,"PO BOX 2264","COVINGTON","GA",30015,NA,NA,427,"PO BOX 2264, COVINGTON, GA, 30015","No_Match",NA,NA,NA,NA
978928,"PO BOX 2265","JONESBORO","GA",30237,NA,NA,428,"PO BOX 2265, JONESBORO, GA, 30237","No_Match",NA,NA,NA,NA
978929,"PO BOX 2265","STOW","OH",44224,NA,NA,429,"PO BOX 2265, STOW, OH, 44224","No_Match",NA,NA,NA,NA
978930,"PO BOX 2266","CORRALES","NM",87048,NA,NA,430,"PO BOX 2266, CORRALES, NM, 87048","No_Match",NA,NA,NA,NA
978931,"PO BOX 2266","GLASGOW","KY",42141,NA,NA,431,"PO BOX 2266, GLASGOW, KY, 42141","No_Match",NA,NA,NA,NA
978932,"PO BOX 2266","MONCKS CORNER","SC",29461,NA,NA,432,"PO BOX 2266, MONCKS CORNER, SC, 29461","No_Match",NA,NA,NA,NA
978933,"PO BOX 2266","ST. CROIX","VI",851,NA,NA,433,"PO BOX 2266, ST. CROIX, VI, 851","No_Match",NA,NA,NA,NA
978934,"PO BOX 22661","BALTIMORE","MD",21203,NA,NA,434,"PO BOX 22661, BALTIMORE, MD, 21203","No_Match",NA,NA,NA,NA
978935,"PO BOX 22670","SANTA FE","NM",87501,NA,NA,435,"PO BOX 22670, SANTA FE, NM, 87501","No_Match",NA,NA,NA,NA
978936,"PO BOX 22673","FT WORTH","TX",76122,NA,NA,436,"PO BOX 22673, FT WORTH, TX, 76122","No_Match",NA,NA,NA,NA
978937,"PO BOX 2268","LA PLATA","MD",20646,NA,NA,437,"PO BOX 2268, LA PLATA, MD, 20646","No_Match",NA,NA,NA,NA
978938,"PO BOX 2268","REIDSVILLE","GA",30453,NA,NA,438,"PO BOX 2268, REIDSVILLE, GA, 30453","No_Match",NA,NA,NA,NA
978939,"PO BOX 22687","HONOLULU","HI",96823,NA,NA,439,"PO BOX 22687, HONOLULU, HI, 96823","No_Match",NA,NA,NA,NA
978940,"PO BOX 22688","MINNEAPOLIS","MN",55422,NA,NA,440,"PO BOX 22688, MINNEAPOLIS, MN, 55422","No_Match",NA,NA,NA,NA
978941,"PO BOX 2269","LONG BEACH","CA",90801,NA,NA,441,"PO BOX 2269, LONG BEACH, CA, 90801","No_Match",NA,NA,NA,NA
978942,"PO BOX 2269","WEST COLUMBIA","SC",29171,NA,NA,442,"PO BOX 2269, WEST COLUMBIA, SC, 29171","No_Match",NA,NA,NA,NA
978943,"PO BOX 22697","HONOLULU","HI",96823,NA,NA,443,"PO BOX 22697, HONOLULU, HI, 96823","No_Match",NA,NA,NA,NA
978944,"PO BOX 227","CHEPACHET","RI",2814,NA,NA,444,"PO BOX 227, CHEPACHET, RI, 2814","No_Match",NA,NA,NA,NA
978945,"PO BOX 227","EAGLE SPRINGS","NC",27242,NA,NA,445,"PO BOX 227, EAGLE SPRINGS, NC, 27242","No_Match",NA,NA,NA,NA
978946,"PO BOX 227","EAST LYNNE","MO",64743,NA,NA,446,"PO BOX 227, EAST LYNNE, MO, 64743","No_Match",NA,NA,NA,NA
978947,"PO BOX 227","FOXWORTH","MS",39483,NA,NA,447,"PO BOX 227, FOXWORTH, MS, 39483","No_Match",NA,NA,NA,NA
978948,"PO BOX 227","FRANKFORT","MI",49635,NA,NA,448,"PO BOX 227, FRANKFORT, MI, 49635","No_Match",NA,NA,NA,NA
978949,"PO BOX 227","GRAND MOUND","IA",52751,NA,NA,449,"PO BOX 227, GRAND MOUND, IA, 52751","No_Match",NA,NA,NA,NA
978950,"PO BOX 227","HELLERTOWN","PA",18055,NA,NA,450,"PO BOX 227, HELLERTOWN, PA, 18055","No_Match",NA,NA,NA,NA
978951,"PO BOX 227","JACKSON","WY",83001,NA,NA,451,"PO BOX 227, JACKSON, WY, 83001","No_Match",NA,NA,NA,NA
978952,"PO BOX 227","JEFFERSON","ME",4348,NA,NA,452,"PO BOX 227, JEFFERSON, ME, 4348","No_Match",NA,NA,NA,NA
978953,"PO BOX 227","LAKE OSWEGO","OR",97034,NA,NA,453,"PO BOX 227, LAKE OSWEGO, OR, 97034","No_Match",NA,NA,NA,NA
978954,"PO BOX 227","MOORES HILL","IN",47032,NA,NA,454,"PO BOX 227, MOORES HILL, IN, 47032","No_Match",NA,NA,NA,NA
978955,"PO BOX 227","MOUNT VICTORY","OH",43340,NA,NA,455,"PO BOX 227, MOUNT VICTORY, OH, 43340","No_Match",NA,NA,NA,NA
978956,"PO BOX 227","MOUNTAIN VIEW","HI",96771,NA,NA,456,"PO BOX 227, MOUNTAIN VIEW, HI, 96771","No_Match",NA,NA,NA,NA
978957,"PO BOX 227","OLD WESTBURY","NY",11568,NA,NA,457,"PO BOX 227, OLD WESTBURY, NY, 11568","No_Match",NA,NA,NA,NA
978958,"PO BOX 227","ORCHARD","TX",77464,NA,NA,458,"PO BOX 227, ORCHARD, TX, 77464","No_Match",NA,NA,NA,NA
978959,"PO BOX 227","OVERPECK","OH",45055,NA,NA,459,"PO BOX 227, OVERPECK, OH, 45055","No_Match",NA,NA,NA,NA
978960,"PO BOX 227","SAN MIGUEL","CA",93451,NA,NA,460,"PO BOX 227, SAN MIGUEL, CA, 93451","No_Match",NA,NA,NA,NA
978961,"PO BOX 227","SEVILLE","OH",44273,NA,NA,461,"PO BOX 227, SEVILLE, OH, 44273","No_Match",NA,NA,NA,NA
978962,"PO BOX 227","ZIEGLERVILLE","PA",19492,NA,NA,462,"PO BOX 227, ZIEGLERVILLE, PA, 19492","No_Match",NA,NA,NA,NA
978963,"PO BOX 2270","DAVIDSON","NC",28036,NA,NA,463,"PO BOX 2270, DAVIDSON, NC, 28036","No_Match",NA,NA,NA,NA
978964,"PO BOX 2270","DOLORES","CO",81323,NA,NA,464,"PO BOX 2270, DOLORES, CO, 81323","No_Match",NA,NA,NA,NA
978965,"PO BOX 22702","FORT LAUDERDALE","FL",33335,NA,NA,465,"PO BOX 22702, FORT LAUDERDALE, FL, 33335","No_Match",NA,NA,NA,NA
978966,"PO BOX 22704","JUNEAU","AK",99802,NA,NA,466,"PO BOX 22704, JUNEAU, AK, 99802","No_Match",NA,NA,NA,NA
978967,"PO BOX 2271 W MALVERN AVE SUITE 370","FULLERTON","CA",92833,NA,NA,467,"PO BOX 2271 W MALVERN AVE SUITE 370, FULLERTON, CA, 92833","No_Match",NA,NA,NA,NA
978968,"PO BOX 2271","BRATTLEBORO","VT",5302,NA,NA,468,"PO BOX 2271, BRATTLEBORO, VT, 5302","No_Match",NA,NA,NA,NA
978969,"PO BOX 2271","DURHAM","NC",27702,NA,NA,469,"PO BOX 2271, DURHAM, NC, 27702","No_Match",NA,NA,NA,NA
978970,"PO BOX 2271","YUCCA VALLEY","CA",92286,NA,NA,470,"PO BOX 2271, YUCCA VALLEY, CA, 92286","No_Match",NA,NA,NA,NA
978971,"PO BOX 22712","ROCHESTER","NY",14692,NA,NA,471,"PO BOX 22712, ROCHESTER, NY, 14692","No_Match",NA,NA,NA,NA
978972,"PO BOX 2272","BOOTHWYN","PA",19061,NA,NA,472,"PO BOX 2272, BOOTHWYN, PA, 19061","No_Match",NA,NA,NA,NA
978973,"PO BOX 2272","HENDERSON","TX",75653,NA,NA,473,"PO BOX 2272, HENDERSON, TX, 75653","No_Match",NA,NA,NA,NA
978974,"PO BOX 227224","DALLAS","TX",75222,NA,NA,474,"PO BOX 227224, DALLAS, TX, 75222","No_Match",NA,NA,NA,NA
978975,"PO BOX 22723","SAVANNAH","GA",31403,NA,NA,475,"PO BOX 22723, SAVANNAH, GA, 31403","No_Match",NA,NA,NA,NA
978976,"PO BOX 2273","CUMMING","GA",30028,NA,NA,476,"PO BOX 2273, CUMMING, GA, 30028","No_Match",NA,NA,NA,NA
978977,"PO BOX 2273","DALLAS","GA",30132,NA,NA,477,"PO BOX 2273, DALLAS, GA, 30132","No_Match",NA,NA,NA,NA
978978,"PO BOX 2273","WHITE SALMON","WA",98672,NA,NA,478,"PO BOX 2273, WHITE SALMON, WA, 98672","No_Match",NA,NA,NA,NA
978979,"PO BOX 22730","SEATTLE","WA",98122,NA,NA,479,"PO BOX 22730, SEATTLE, WA, 98122","No_Match",NA,NA,NA,NA
978980,"PO BOX 227341","DALLAS","TX",75222,NA,NA,480,"PO BOX 227341, DALLAS, TX, 75222","No_Match",NA,NA,NA,NA
978981,"PO BOX 2274","GLENWOOD SPRINGS","CO",81602,NA,NA,481,"PO BOX 2274, GLENWOOD SPRINGS, CO, 81602","No_Match",NA,NA,NA,NA
978982,"PO BOX 2274","WEATHERFORD","TX",76086,NA,NA,482,"PO BOX 2274, WEATHERFORD, TX, 76086","No_Match",NA,NA,NA,NA
978983,"PO BOX 22753","SEATTLE","WA",98122,NA,NA,483,"PO BOX 22753, SEATTLE, WA, 98122","No_Match",NA,NA,NA,NA
978984,"PO BOX 2276","FRISCO","CO",80443,NA,NA,484,"PO BOX 2276, FRISCO, CO, 80443","No_Match",NA,NA,NA,NA
978985,"PO BOX 2276","WESTERVILLE","OH",43086,NA,NA,485,"PO BOX 2276, WESTERVILLE, OH, 43086","No_Match",NA,NA,NA,NA
978986,"PO BOX 2277","MORGANTON","NC",28680,NA,NA,486,"PO BOX 2277, MORGANTON, NC, 28680","No_Match",NA,NA,NA,NA
978987,"PO BOX 2277","WHITE SALMON","WA",98672,NA,NA,487,"PO BOX 2277, WHITE SALMON, WA, 98672","No_Match",NA,NA,NA,NA
978988,"PO BOX 2278","KYLE","TX",78640,NA,NA,488,"PO BOX 2278, KYLE, TX, 78640","No_Match",NA,NA,NA,NA
978989,"PO BOX 228","DAYTON","TN",37321,NA,NA,489,"PO BOX 228, DAYTON, TN, 37321","No_Match",NA,NA,NA,NA
978990,"PO Box 228","Deary","ID",83823,NA,NA,490,"PO Box 228, Deary, ID, 83823","No_Match",NA,NA,NA,NA
978991,"PO BOX 228","Deary","ID",83823,NA,NA,491,"PO BOX 228, Deary, ID, 83823","No_Match",NA,NA,NA,NA
978992,"PO BOX 228","ESTER","AK",99725,NA,NA,492,"PO BOX 228, ESTER, AK, 99725","No_Match",NA,NA,NA,NA
978993,"PO BOX 228","HYGIENE","CO",80533,NA,NA,493,"PO BOX 228, HYGIENE, CO, 80533","No_Match",NA,NA,NA,NA
978994,"PO BOX 228","KENNA","WV",25248,NA,NA,494,"PO BOX 228, KENNA, WV, 25248","No_Match",NA,NA,NA,NA
978995,"PO BOX 228","MARBLEHEAD","MA",1945,NA,NA,495,"PO BOX 228, MARBLEHEAD, MA, 1945","No_Match",NA,NA,NA,NA
978996,"PO BOX 228","ORANGEFIELD","TX",77639,NA,NA,496,"PO BOX 228, ORANGEFIELD, TX, 77639","No_Match",NA,NA,NA,NA
978997,"PO BOX 228","PEABODY","MA",1960,NA,NA,497,"PO BOX 228, PEABODY, MA, 1960","No_Match",NA,NA,NA,NA
978998,"PO BOX 228","STEVENS POINT","WI",54481,NA,NA,498,"PO BOX 228, STEVENS POINT, WI, 54481","No_Match",NA,NA,NA,NA
978999,"PO BOX 2280","BOULDER","CO",80306,NA,NA,499,"PO BOX 2280, BOULDER, CO, 80306","No_Match",NA,NA,NA,NA
979000,"PO BOX 2280","PINEDALE","WY",82941,NA,NA,500,"PO BOX 2280, PINEDALE, WY, 82941","No_Match",NA,NA,NA,NA
