"ID","Address","City","State","Zip","lat","long","id","input_address","match_indicator","match_type","matched_address","tiger_line_id","tiger_side"
1000001,"PO BOX 983003","PAGO PAGO","AS",96799,NA,NA,1,"PO BOX 983003, PAGO PAGO, AS, 96799","No_Match",NA,NA,NA,NA
1000002,"PO BOX 9831","CHESAPEAKE","VA",23321,NA,NA,2,"PO BOX 9831, CHESAPEAKE, VA, 23321","No_Match",NA,NA,NA,NA
1000003,"PO BOX 983337","DES MOINES","WA",98198,NA,NA,3,"PO BOX 983337, DES MOINES, WA, 98198","No_Match",NA,NA,NA,NA
1000004,"PO BOX 98337","DES MOINES","WA",98198,NA,NA,4,"PO BOX 98337, DES MOINES, WA, 98198","No_Match",NA,NA,NA,NA
1000005,"PO BOX 9838","WICHITA FALLS","TX",76308,NA,NA,5,"PO BOX 9838, WICHITA FALLS, TX, 76308","No_Match",NA,NA,NA,NA
1000006,"PO BOX 9838","WICHTA FALLS","TX",76308,NA,NA,6,"PO BOX 9838, WICHTA FALLS, TX, 76308","No_Match",NA,NA,NA,NA
1000007,"PO BOX 98394","SEATTLE","WA",98198,NA,NA,7,"PO BOX 98394, SEATTLE, WA, 98198","No_Match",NA,NA,NA,NA
1000008,"PO BOX 984","BOISE","ID",83701,NA,NA,8,"PO BOX 984, BOISE, ID, 83701","No_Match",NA,NA,NA,NA
1000009,"PO BOX 984","CARUTHERSVILLE","MO",63830,NA,NA,9,"PO BOX 984, CARUTHERSVILLE, MO, 63830","No_Match",NA,NA,NA,NA
1000010,"PO BOX 984","CHARLESTON","AR",72933,NA,NA,10,"PO BOX 984, CHARLESTON, AR, 72933","No_Match",NA,NA,NA,NA
1000011,"PO BOX 984","CHEEKTOWAGA","NY",14225,NA,NA,11,"PO BOX 984, CHEEKTOWAGA, NY, 14225","No_Match",NA,NA,NA,NA
1000012,"PO BOX 984","DALTON","GA",30722,NA,NA,12,"PO BOX 984, DALTON, GA, 30722","No_Match",NA,NA,NA,NA
1000013,"PO BOX 984","DEL VALLE","TX",78617,NA,NA,13,"PO BOX 984, DEL VALLE, TX, 78617","No_Match",NA,NA,NA,NA
1000014,"PO BOX 984","DENMARK","SC",29042,NA,NA,14,"PO BOX 984, DENMARK, SC, 29042","No_Match",NA,NA,NA,NA
1000015,"PO BOX 984","HAWTHORNE","NV",89415,NA,NA,15,"PO BOX 984, HAWTHORNE, NV, 89415","No_Match",NA,NA,NA,NA
1000016,"PO BOX 984","HEALDSBURG","CA",95448,NA,NA,16,"PO BOX 984, HEALDSBURG, CA, 95448","No_Match",NA,NA,NA,NA
1000017,"PO BOX 984","OAKDALE","CA",95361,NA,NA,17,"PO BOX 984, OAKDALE, CA, 95361","No_Match",NA,NA,NA,NA
1000018,"PO BOX 984","PETERSBURG","AK",99833,NA,NA,18,"PO BOX 984, PETERSBURG, AK, 99833","No_Match",NA,NA,NA,NA
1000019,"PO BOX 984","SEWARD","AK",99664,NA,NA,19,"PO BOX 984, SEWARD, AK, 99664","No_Match",NA,NA,NA,NA
1000020,"PO BOX 984","SUMMIT","MS",39666,NA,NA,20,"PO BOX 984, SUMMIT, MS, 39666","No_Match",NA,NA,NA,NA
1000021,"PO BOX 984","VAUGHN","WA",98394,NA,NA,21,"PO BOX 984, VAUGHN, WA, 98394","No_Match",NA,NA,NA,NA
1000022,"PO BOX 984","WARRENTON","OR",97146,NA,NA,22,"PO BOX 984, WARRENTON, OR, 97146","No_Match",NA,NA,NA,NA
1000023,"PO BOX 984","YELM","WA",98597,NA,NA,23,"PO BOX 984, YELM, WA, 98597","No_Match",NA,NA,NA,NA
1000024,"PO BOX 98421","ATLANTA","GA",30359,NA,NA,24,"PO BOX 98421, ATLANTA, GA, 30359","No_Match",NA,NA,NA,NA
1000025,"PO BOX 98432","REDDING","CA",96099,NA,NA,25,"PO BOX 98432, REDDING, CA, 96099","No_Match",NA,NA,NA,NA
1000026,"PO BOX 9846","ERIE","PA",16505,NA,NA,26,"PO BOX 9846, ERIE, PA, 16505","No_Match",NA,NA,NA,NA
1000027,"PO BOX 985","ASHLAND","WI",54806,NA,NA,27,"PO BOX 985, ASHLAND, WI, 54806","No_Match",NA,NA,NA,NA
1000028,"PO BOX 985","BURNET","TX",78611,NA,NA,28,"PO BOX 985, BURNET, TX, 78611","No_Match",NA,NA,NA,NA
1000029,"PO BOX 985","CALDWELL","TX",77836,NA,NA,29,"PO BOX 985, CALDWELL, TX, 77836","No_Match",NA,NA,NA,NA
1000030,"PO BOX 985","COLOMA","MI",49038,NA,NA,30,"PO BOX 985, COLOMA, MI, 49038","No_Match",NA,NA,NA,NA
1000031,"PO BOX 985","HOUSTON","TX",77001,NA,NA,31,"PO BOX 985, HOUSTON, TX, 77001","No_Match",NA,NA,NA,NA
1000032,"PO BOX 985","SILVER CITY","NM",88062,NA,NA,32,"PO BOX 985, SILVER CITY, NM, 88062","No_Match",NA,NA,NA,NA
1000033,"PO BOX 985","SPRING CITY","TN",37381,NA,NA,33,"PO BOX 985, SPRING CITY, TN, 37381","No_Match",NA,NA,NA,NA
1000034,"PO BOX 985","TERRY","MS",39170,NA,NA,34,"PO BOX 985, TERRY, MS, 39170","No_Match",NA,NA,NA,NA
1000035,"PO BOX 98530","DES MOINES","WA",98198,NA,NA,35,"PO BOX 98530, DES MOINES, WA, 98198","No_Match",NA,NA,NA,NA
1000036,"PO BOX 9856","DOTHAN","AL",36304,NA,NA,36,"PO BOX 9856, DOTHAN, AL, 36304","No_Match",NA,NA,NA,NA
1000037,"PO BOX 986","ANCHOR POINT","AK",99556,NA,NA,37,"PO BOX 986, ANCHOR POINT, AK, 99556","No_Match",NA,NA,NA,NA
1000038,"PO BOX 986","BUFFALO","NY",14207,NA,NA,38,"PO BOX 986, BUFFALO, NY, 14207","No_Match",NA,NA,NA,NA
1000039,"PO BOX 986","CLINTON","NC",28329,NA,NA,39,"PO BOX 986, CLINTON, NC, 28329","No_Match",NA,NA,NA,NA
1000040,"PO BOX 986","COLUMBIA STATION","OH",44028,NA,NA,40,"PO BOX 986, COLUMBIA STATION, OH, 44028","No_Match",NA,NA,NA,NA
1000041,"PO BOX 986","LYMAN","WY",82937,NA,NA,41,"PO BOX 986, LYMAN, WY, 82937","No_Match",NA,NA,NA,NA
1000042,"PO BOX 986","SPOKANE","WA",99210,NA,NA,42,"PO BOX 986, SPOKANE, WA, 99210","No_Match",NA,NA,NA,NA
1000043,"PO BOX 98638","VANCOVER","WA",98687,NA,NA,43,"PO BOX 98638, VANCOVER, WA, 98687","No_Match",NA,NA,NA,NA
1000044,"PO BOX 987","BURNSVILLE","NC",28714,NA,NA,44,"PO BOX 987, BURNSVILLE, NC, 28714","No_Match",NA,NA,NA,NA
1000045,"PO BOX 987","DICKINSON","ND",58602,NA,NA,45,"PO BOX 987, DICKINSON, ND, 58602","No_Match",NA,NA,NA,NA
1000046,"PO BOX 987","MATHEWS","VA",23109,NA,NA,46,"PO BOX 987, MATHEWS, VA, 23109","No_Match",NA,NA,NA,NA
1000047,"PO BOX 987","MERIDIAN","TX",76665,NA,NA,47,"PO BOX 987, MERIDIAN, TX, 76665","No_Match",NA,NA,NA,NA
1000048,"PO BOX 987","PEOTONE","IL",60468,NA,NA,48,"PO BOX 987, PEOTONE, IL, 60468","No_Match",NA,NA,NA,NA
1000049,"PO BOX 98747","DES MOINES","WA",98198,NA,NA,49,"PO BOX 98747, DES MOINES, WA, 98198","No_Match",NA,NA,NA,NA
1000050,"PO BOX 98747","DESMOINES","WA",98198,NA,NA,50,"PO BOX 98747, DESMOINES, WA, 98198","No_Match",NA,NA,NA,NA
1000051,"PO BOX 98781","RALEIGH","NC",27624,NA,NA,51,"PO BOX 98781, RALEIGH, NC, 27624","No_Match",NA,NA,NA,NA
1000052,"PO BOX 988","EASTPOINT","FL",32328,NA,NA,52,"PO BOX 988, EASTPOINT, FL, 32328","No_Match",NA,NA,NA,NA
1000053,"PO BOX 988","HELOTES","TX",78023,NA,NA,53,"PO BOX 988, HELOTES, TX, 78023","No_Match",NA,NA,NA,NA
1000054,"PO BOX 988","PARAMOUNT","CA",90723,NA,NA,54,"PO BOX 988, PARAMOUNT, CA, 90723","No_Match",NA,NA,NA,NA
1000055,"PO BOX 9880266","HOUSTON","TX",77098,NA,NA,55,"PO BOX 9880266, HOUSTON, TX, 77098","No_Match",NA,NA,NA,NA
1000056,"PO BOX 989","COLUMBUS","MT",59019,NA,NA,56,"PO BOX 989, COLUMBUS, MT, 59019","No_Match",NA,NA,NA,NA
1000057,"PO BOX 989","LOWER LAKE","CA",95457,NA,NA,57,"PO BOX 989, LOWER LAKE, CA, 95457","No_Match",NA,NA,NA,NA
1000058,"PO BOX 98921","RALEIGH","NC",27624,NA,NA,58,"PO BOX 98921, RALEIGH, NC, 27624","No_Match",NA,NA,NA,NA
1000059,"PO BOX 9893","ST THOMAS","VI",801,NA,NA,59,"PO BOX 9893, ST THOMAS, VI, 801","No_Match",NA,NA,NA,NA
1000060,"PO BOX 9898","WICHITA FALLS","TX",76308,NA,NA,60,"PO BOX 9898, WICHITA FALLS, TX, 76308","No_Match",NA,NA,NA,NA
1000061,"PO BOX 99  215 NORTH BROADWAY","ALDEN","MN",56009,43.669143595,-93.576534357,61,"PO BOX 99  215 NORTH BROADWAY, ALDEN, MN, 56009","Match","Exact","215 N BROADWAY, ALDEN, MN, 56009",39532427,"R"
1000062,"PO BOX 99 215 NORTH BROADWAY","ALDEN","MN",56009,43.669143595,-93.576534357,62,"PO BOX 99 215 NORTH BROADWAY, ALDEN, MN, 56009","Match","Exact","215 N BROADWAY, ALDEN, MN, 56009",39532427,"R"
1000063,"PO BOX 99","BURLINGTON","WV",26799,NA,NA,63,"PO BOX 99, BURLINGTON, WV, 26799","No_Match",NA,NA,NA,NA
1000064,"PO BOX 99","CHICKASA","OK",73024,NA,NA,64,"PO BOX 99, CHICKASA, OK, 73024","No_Match",NA,NA,NA,NA
1000065,"PO BOX 99","CLARKDALE","AZ",86324,NA,NA,65,"PO BOX 99, CLARKDALE, AZ, 86324","No_Match",NA,NA,NA,NA
1000066,"PO BOX 99","CLINTON","WA",98236,NA,NA,66,"PO BOX 99, CLINTON, WA, 98236","No_Match",NA,NA,NA,NA
1000067,"PO BOX 99","COLLEGE PLACE","WA",99324,NA,NA,67,"PO BOX 99, COLLEGE PLACE, WA, 99324","No_Match",NA,NA,NA,NA
1000068,"PO BOX 99","DRYDEN","NY",13053,NA,NA,68,"PO BOX 99, DRYDEN, NY, 13053","No_Match",NA,NA,NA,NA
1000069,"PO BOX 99","EDEN","TX",76837,NA,NA,69,"PO BOX 99, EDEN, TX, 76837","No_Match",NA,NA,NA,NA
1000070,"PO BOX 99","HAMPTON","VA",23669,NA,NA,70,"PO BOX 99, HAMPTON, VA, 23669","No_Match",NA,NA,NA,NA
1000071,"PO BOX 99","HOWELLS","NE",68641,NA,NA,71,"PO BOX 99, HOWELLS, NE, 68641","No_Match",NA,NA,NA,NA
1000072,"PO BOX 99","JEFFERSONVILLE","VT",5464,NA,NA,72,"PO BOX 99, JEFFERSONVILLE, VT, 5464","No_Match",NA,NA,NA,NA
1000073,"PO BOX 99","KENTS STORE","VA",23084,NA,NA,73,"PO BOX 99, KENTS STORE, VA, 23084","No_Match",NA,NA,NA,NA
1000074,"PO BOX 99","MANCHESTER","TN",37349,NA,NA,74,"PO BOX 99, MANCHESTER, TN, 37349","No_Match",NA,NA,NA,NA
1000075,"PO BOX 99","NEWFIELDS","NH",3856,NA,NA,75,"PO BOX 99, NEWFIELDS, NH, 3856","No_Match",NA,NA,NA,NA
1000076,"PO BOX 99","OCONTO FALLS","WI",54154,NA,NA,76,"PO BOX 99, OCONTO FALLS, WI, 54154","No_Match",NA,NA,NA,NA
1000077,"PO BOX 99","OWENS X RDS","AL",35763,NA,NA,77,"PO BOX 99, OWENS X RDS, AL, 35763","No_Match",NA,NA,NA,NA
1000078,"PO BOX 99","PAGO PAGO","AS",96799,NA,NA,78,"PO BOX 99, PAGO PAGO, AS, 96799","No_Match",NA,NA,NA,NA
1000079,"PO BOX 99","SUMPTER","OR",97877,NA,NA,79,"PO BOX 99, SUMPTER, OR, 97877","No_Match",NA,NA,NA,NA
1000080,"PO BOX 99","SUTHERLIN","OR",97479,NA,NA,80,"PO BOX 99, SUTHERLIN, OR, 97479","No_Match",NA,NA,NA,NA
1000081,"PO BOX 99","TENINO","WA",98589,NA,NA,81,"PO BOX 99, TENINO, WA, 98589","No_Match",NA,NA,NA,NA
1000082,"PO BOX 99","TRUCKEE","CA",96160,NA,NA,82,"PO BOX 99, TRUCKEE, CA, 96160","No_Match",NA,NA,NA,NA
1000083,"PO BOX 99","VINCENT","OH",45784,NA,NA,83,"PO BOX 99, VINCENT, OH, 45784","No_Match",NA,NA,NA,NA
1000084,"PO BOX 99","WEST HALIFAX","VT",5358,NA,NA,84,"PO BOX 99, WEST HALIFAX, VT, 5358","No_Match",NA,NA,NA,NA
1000085,"PO BOX 99","WOODLAND","NC",27897,NA,NA,85,"PO BOX 99, WOODLAND, NC, 27897","No_Match",NA,NA,NA,NA
1000086,"PO BOX 990-397 CHAPMAN STREET","WAYNESVILLE","OH",45068,NA,NA,86,"PO BOX 990-397 CHAPMAN STREET, WAYNESVILLE, OH, 45068","No_Match",NA,NA,NA,NA
1000087,"PO BOX 990","EDWARDS","CO",81632,NA,NA,87,"PO BOX 990, EDWARDS, CO, 81632","No_Match",NA,NA,NA,NA
1000088,"PO BOX 990","GREENSBURG","PA",15601,NA,NA,88,"PO BOX 990, GREENSBURG, PA, 15601","No_Match",NA,NA,NA,NA
1000089,"PO BOX 990","KITTY HAWK","NC",27949,NA,NA,89,"PO BOX 990, KITTY HAWK, NC, 27949","No_Match",NA,NA,NA,NA
1000090,"PO BOX 990","MOUNTAIN VIEW","WY",82939,NA,NA,90,"PO BOX 990, MOUNTAIN VIEW, WY, 82939","No_Match",NA,NA,NA,NA
1000091,"PO BOX 990","THERMOPOLIS","WY",82443,NA,NA,91,"PO BOX 990, THERMOPOLIS, WY, 82443","No_Match",NA,NA,NA,NA
1000092,"PO BOX 990027","REDDING","CA",96099,NA,NA,92,"PO BOX 990027, REDDING, CA, 96099","No_Match",NA,NA,NA,NA
1000093,"PO BOX 990085","NAPLES","FL",34116,NA,NA,93,"PO BOX 990085, NAPLES, FL, 34116","No_Match",NA,NA,NA,NA
1000094,"PO BOX 990123","REDDING","CA",96099,NA,NA,94,"PO BOX 990123, REDDING, CA, 96099","No_Match",NA,NA,NA,NA
1000095,"PO BOX 99014","RALEIGH","NC",27624,NA,NA,95,"PO BOX 99014, RALEIGH, NC, 27624","No_Match",NA,NA,NA,NA
1000096,"PO BOX 990301","REDDING","CA",96099,NA,NA,96,"PO BOX 990301, REDDING, CA, 96099","No_Match",NA,NA,NA,NA
1000097,"PO BOX 990444","REDDING","CA",96099,NA,NA,97,"PO BOX 990444, REDDING, CA, 96099","No_Match",NA,NA,NA,NA
1000098,"PO BOX 9905","NEWARK","DE",19714,NA,NA,98,"PO BOX 9905, NEWARK, DE, 19714","No_Match",NA,NA,NA,NA
1000099,"PO BOX 99086","LAKEWOOD","WA",98496,NA,NA,99,"PO BOX 99086, LAKEWOOD, WA, 98496","No_Match",NA,NA,NA,NA
1000100,"PO BOX 991","ANDOVER","KS",67002,NA,NA,100,"PO BOX 991, ANDOVER, KS, 67002","No_Match",NA,NA,NA,NA
1000101,"PO BOX 991","ARMA","KS",66712,NA,NA,101,"PO BOX 991, ARMA, KS, 66712","No_Match",NA,NA,NA,NA
1000102,"PO BOX 991","CHRISTIANSTED","VI",821,NA,NA,102,"PO BOX 991, CHRISTIANSTED, VI, 821","No_Match",NA,NA,NA,NA
1000103,"PO BOX 991","DOTHAN","AL",36303,NA,NA,103,"PO BOX 991, DOTHAN, AL, 36303","No_Match",NA,NA,NA,NA
1000104,"PO BOX 991","GEORGETOWN","SC",29442,NA,NA,104,"PO BOX 991, GEORGETOWN, SC, 29442","No_Match",NA,NA,NA,NA
1000105,"PO BOX 991","HAYDEN","CO",81639,NA,NA,105,"PO BOX 991, HAYDEN, CO, 81639","No_Match",NA,NA,NA,NA
1000106,"PO BOX 991","HUGO","OK",74743,NA,NA,106,"PO BOX 991, HUGO, OK, 74743","No_Match",NA,NA,NA,NA
1000107,"PO BOX 991","LAKE PLACID","NY",12946,NA,NA,107,"PO BOX 991, LAKE PLACID, NY, 12946","No_Match",NA,NA,NA,NA
1000108,"PO BOX 991","SAINT CLOUD","MN",56302,NA,NA,108,"PO BOX 991, SAINT CLOUD, MN, 56302","No_Match",NA,NA,NA,NA
1000109,"PO BOX 991","SAN MARTIN","CA",95046,NA,NA,109,"PO BOX 991, SAN MARTIN, CA, 95046","No_Match",NA,NA,NA,NA
1000110,"PO BOX 991","ST. GEORGE","AK",99591,NA,NA,110,"PO BOX 991, ST. GEORGE, AK, 99591","No_Match",NA,NA,NA,NA
1000111,"PO BOX 991","TRUCKEE","CA",96160,NA,NA,111,"PO BOX 991, TRUCKEE, CA, 96160","No_Match",NA,NA,NA,NA
1000112,"PO BOX 9910","WILMINGTON","DE",19809,NA,NA,112,"PO BOX 9910, WILMINGTON, DE, 19809","No_Match",NA,NA,NA,NA
1000113,"PO BOX 991052","REDDING","CA",96099,NA,NA,113,"PO BOX 991052, REDDING, CA, 96099","No_Match",NA,NA,NA,NA
1000114,"PO BOX 9912","SEATTLE","WA",98109,NA,NA,114,"PO BOX 9912, SEATTLE, WA, 98109","No_Match",NA,NA,NA,NA
1000115,"PO BOX 991224","LOUISVILLE","KY",40241,NA,NA,115,"PO BOX 991224, LOUISVILLE, KY, 40241","No_Match",NA,NA,NA,NA
1000116,"PO BOX 9914","VIRGINIA BEACH","VA",23450,NA,NA,116,"PO BOX 9914, VIRGINIA BEACH, VA, 23450","No_Match",NA,NA,NA,NA
1000117,"PO BOX 991474","REDDING","CA",96099,NA,NA,117,"PO BOX 991474, REDDING, CA, 96099","No_Match",NA,NA,NA,NA
1000118,"PO BOX 991541","REDDING","TX",96099,NA,NA,118,"PO BOX 991541, REDDING, TX, 96099","No_Match",NA,NA,NA,NA
1000119,"PO BOX 9916","COLLEGE STATION","TX",77845,NA,NA,119,"PO BOX 9916, COLLEGE STATION, TX, 77845","No_Match",NA,NA,NA,NA
1000120,"PO BOX 991702","LOUISVILLE","KY",40269,NA,NA,120,"PO BOX 991702, LOUISVILLE, KY, 40269","No_Match",NA,NA,NA,NA
1000121,"PO BOX 99182","EMERYVILLE","CA",94662,NA,NA,121,"PO BOX 99182, EMERYVILLE, CA, 94662","No_Match",NA,NA,NA,NA
1000122,"PO BOX 992","CARMEL","CA",93921,NA,NA,122,"PO BOX 992, CARMEL, CA, 93921","No_Match",NA,NA,NA,NA
1000123,"PO BOX 992","ELKVIEW","WV",25071,NA,NA,123,"PO BOX 992, ELKVIEW, WV, 25071","No_Match",NA,NA,NA,NA
1000124,"PO BOX 992","GROTON","MA",1450,NA,NA,124,"PO BOX 992, GROTON, MA, 1450","No_Match",NA,NA,NA,NA
1000125,"PO BOX 992","JACKSON","SC",29831,NA,NA,125,"PO BOX 992, JACKSON, SC, 29831","No_Match",NA,NA,NA,NA
1000126,"PO BOX 992","LELAND","MI",49654,NA,NA,126,"PO BOX 992, LELAND, MI, 49654","No_Match",NA,NA,NA,NA
1000127,"PO BOX 992","MONTEREY PARK","CA",91754,NA,NA,127,"PO BOX 992, MONTEREY PARK, CA, 91754","No_Match",NA,NA,NA,NA
1000128,"PO BOX 992","MONUMENT BEACH","MA",2553,NA,NA,128,"PO BOX 992, MONUMENT BEACH, MA, 2553","No_Match",NA,NA,NA,NA
1000129,"PO BOX 992","NEW YORK","NY",10030,NA,NA,129,"PO BOX 992, NEW YORK, NY, 10030","No_Match",NA,NA,NA,NA
1000130,"PO BOX 992","PAGO PAGO","AS",96799,NA,NA,130,"PO BOX 992, PAGO PAGO, AS, 96799","No_Match",NA,NA,NA,NA
1000131,"PO BOX 992","PINELAND","TX",75968,NA,NA,131,"PO BOX 992, PINELAND, TX, 75968","No_Match",NA,NA,NA,NA
1000132,"PO BOX 992","POCA","WV",25159,NA,NA,132,"PO BOX 992, POCA, WV, 25159","No_Match",NA,NA,NA,NA
1000133,"PO BOX 992","RANCHO MURIETA","CA",95683,NA,NA,133,"PO BOX 992, RANCHO MURIETA, CA, 95683","No_Match",NA,NA,NA,NA
1000134,"PO BOX 99204","PITTSBURGH","PA",15233,NA,NA,134,"PO BOX 99204, PITTSBURGH, PA, 15233","No_Match",NA,NA,NA,NA
1000135,"PO BOX 9923","COLLEGE STATION","TX",77842,NA,NA,135,"PO BOX 9923, COLLEGE STATION, TX, 77842","No_Match",NA,NA,NA,NA
1000136,"PO BOX 9924","TRUCKEE","CA",96162,NA,NA,136,"PO BOX 9924, TRUCKEE, CA, 96162","No_Match",NA,NA,NA,NA
1000137,"PO BOX 99281","LOUISVILLE","KY",40269,NA,NA,137,"PO BOX 99281, LOUISVILLE, KY, 40269","No_Match",NA,NA,NA,NA
1000138,"PO BOX 99284","PITTSBURGH","PA",15233,NA,NA,138,"PO BOX 99284, PITTSBURGH, PA, 15233","No_Match",NA,NA,NA,NA
1000139,"PO BOX 993","FARMINGTON","NM",87499,NA,NA,139,"PO BOX 993, FARMINGTON, NM, 87499","No_Match",NA,NA,NA,NA
1000140,"PO BOX 993","GREEN BAY","WI",54301,NA,NA,140,"PO BOX 993, GREEN BAY, WI, 54301","No_Match",NA,NA,NA,NA
1000141,"PO BOX 993","MIDDLEBURY","VT",5753,NA,NA,141,"PO BOX 993, MIDDLEBURY, VT, 5753","No_Match",NA,NA,NA,NA
1000142,"PO BOX 993","PLACITAS","NM",87043,NA,NA,142,"PO BOX 993, PLACITAS, NM, 87043","No_Match",NA,NA,NA,NA
1000143,"PO BOX 993","SPOKANE VALLEY","WA",99037,NA,NA,143,"PO BOX 993, SPOKANE VALLEY, WA, 99037","No_Match",NA,NA,NA,NA
1000144,"PO BOX 993","SPRINGERVILLE","AZ",85938,NA,NA,144,"PO BOX 993, SPRINGERVILLE, AZ, 85938","No_Match",NA,NA,NA,NA
1000145,"PO BOX 993","STERLING","AK",99672,NA,NA,145,"PO BOX 993, STERLING, AK, 99672","No_Match",NA,NA,NA,NA
1000146,"PO BOX 994","BELFAIR","WA",98528,NA,NA,146,"PO BOX 994, BELFAIR, WA, 98528","No_Match",NA,NA,NA,NA
1000147,"PO BOX 994","BOZEMAN","MT",59771,NA,NA,147,"PO BOX 994, BOZEMAN, MT, 59771","No_Match",NA,NA,NA,NA
1000148,"PO BOX 994","CASPER","WY",82602,NA,NA,148,"PO BOX 994, CASPER, WY, 82602","No_Match",NA,NA,NA,NA
1000149,"PO BOX 994","COPPERAS COVE","TX",76522,NA,NA,149,"PO BOX 994, COPPERAS COVE, TX, 76522","No_Match",NA,NA,NA,NA
1000150,"PO BOX 994","CULVER CITY","CA",90232,NA,NA,150,"PO BOX 994, CULVER CITY, CA, 90232","No_Match",NA,NA,NA,NA
1000151,"PO BOX 994","KALAHEO","HI",96741,NA,NA,151,"PO BOX 994, KALAHEO, HI, 96741","No_Match",NA,NA,NA,NA
1000152,"PO BOX 994","KEALAKEKUA","HI",96704,NA,NA,152,"PO BOX 994, KEALAKEKUA, HI, 96704","No_Match",NA,NA,NA,NA
1000153,"PO BOX 994","PLACERVILLE","CA",95667,NA,NA,153,"PO BOX 994, PLACERVILLE, CA, 95667","No_Match",NA,NA,NA,NA
1000154,"PO BOX 994","SMYRNA","GA",30080,NA,NA,154,"PO BOX 994, SMYRNA, GA, 30080","No_Match",NA,NA,NA,NA
1000155,"PO BOX 994","TIBURON","CA",94920,NA,NA,155,"PO BOX 994, TIBURON, CA, 94920","No_Match",NA,NA,NA,NA
1000156,"PO BOX 9949","SAN JUAN","PR",908,NA,NA,156,"PO BOX 9949, SAN JUAN, PR, 908","No_Match",NA,NA,NA,NA
1000157,"PO BOX 99498","HONOLULU","HI",96830,NA,NA,157,"PO BOX 99498, HONOLULU, HI, 96830","No_Match",NA,NA,NA,NA
1000158,"PO BOX 995","CATLIN","IL",61817,NA,NA,158,"PO BOX 995, CATLIN, IL, 61817","No_Match",NA,NA,NA,NA
1000159,"PO BOX 995","CLIFTON","AZ",85533,NA,NA,159,"PO BOX 995, CLIFTON, AZ, 85533","No_Match",NA,NA,NA,NA
1000160,"PO BOX 995","LONE GROVE","OK",73443,NA,NA,160,"PO BOX 995, LONE GROVE, OK, 73443","No_Match",NA,NA,NA,NA
1000161,"PO BOX 995","OAKLAND","FL",34760,NA,NA,161,"PO BOX 995, OAKLAND, FL, 34760","No_Match",NA,NA,NA,NA
1000162,"PO BOX 995","PORT ARANSAS","TX",78373,NA,NA,162,"PO BOX 995, PORT ARANSAS, TX, 78373","No_Match",NA,NA,NA,NA
1000163,"PO BOX 995","SANDERSON","TX",79848,NA,NA,163,"PO BOX 995, SANDERSON, TX, 79848","No_Match",NA,NA,NA,NA
1000164,"PO BOX 995","SANDPOINT","ID",83864,NA,NA,164,"PO BOX 995, SANDPOINT, ID, 83864","No_Match",NA,NA,NA,NA
1000165,"PO BOX 99534","PITTSBURGH","PA",15233,NA,NA,165,"PO BOX 99534, PITTSBURGH, PA, 15233","No_Match",NA,NA,NA,NA
1000166,"PO BOX 9955","JACKSON","MS",39286,NA,NA,166,"PO BOX 9955, JACKSON, MS, 39286","No_Match",NA,NA,NA,NA
1000167,"PO BOX 9958","RANCHO SANTA FE","CA",92067,NA,NA,167,"PO BOX 9958, RANCHO SANTA FE, CA, 92067","No_Match",NA,NA,NA,NA
1000168,"PO BOX 996","BURKESVILLE","KY",42602,NA,NA,168,"PO BOX 996, BURKESVILLE, KY, 42602","No_Match",NA,NA,NA,NA
1000169,"PO BOX 996","CHANNELVIEW","TX",77530,NA,NA,169,"PO BOX 996, CHANNELVIEW, TX, 77530","No_Match",NA,NA,NA,NA
1000170,"PO BOX 996","CYPRESS","TX",77410,NA,NA,170,"PO BOX 996, CYPRESS, TX, 77410","No_Match",NA,NA,NA,NA
1000171,"PO BOX 996","HONAKER","VA",24260,NA,NA,171,"PO BOX 996, HONAKER, VA, 24260","No_Match",NA,NA,NA,NA
1000172,"PO BOX 996","REMSENBURG","NY",11960,NA,NA,172,"PO BOX 996, REMSENBURG, NY, 11960","No_Match",NA,NA,NA,NA
1000173,"PO BOX 996","STANTON","TX",79782,NA,NA,173,"PO BOX 996, STANTON, TX, 79782","No_Match",NA,NA,NA,NA
1000174,"PO BOX 996","SUMMIT","SD",57266,NA,NA,174,"PO BOX 996, SUMMIT, SD, 57266","No_Match",NA,NA,NA,NA
1000175,"PO BOX 996","WATERFLOW","NM",87420,NA,NA,175,"PO BOX 996, WATERFLOW, NM, 87420","No_Match",NA,NA,NA,NA
1000176,"PO BOX 996","WILBER","NE",68465,NA,NA,176,"PO BOX 996, WILBER, NE, 68465","No_Match",NA,NA,NA,NA
1000177,"PO BOX 99672","ATLANTA","GA",30364,NA,NA,177,"PO BOX 99672, ATLANTA, GA, 30364","No_Match",NA,NA,NA,NA
1000178,"PO BOX 997","APALACHICOLA","FL",32329,NA,NA,178,"PO BOX 997, APALACHICOLA, FL, 32329","No_Match",NA,NA,NA,NA
1000179,"PO BOX 997","BODEGA BAY","CA",94923,NA,NA,179,"PO BOX 997, BODEGA BAY, CA, 94923","No_Match",NA,NA,NA,NA
1000180,"PO BOX 997","CHRISTIANSTED","VI",820,NA,NA,180,"PO BOX 997, CHRISTIANSTED, VI, 820","No_Match",NA,NA,NA,NA
1000181,"PO BOX 997","DEER PARK","NY",11729,NA,NA,181,"PO BOX 997, DEER PARK, NY, 11729","No_Match",NA,NA,NA,NA
1000182,"PO BOX 997","DONNELLEY","ID",83615,NA,NA,182,"PO BOX 997, DONNELLEY, ID, 83615","No_Match",NA,NA,NA,NA
1000183,"PO BOX 997","EAGLE","ID",83616,NA,NA,183,"PO BOX 997, EAGLE, ID, 83616","No_Match",NA,NA,NA,NA
1000184,"PO BOX 997","MELBOURNE","FL",32902,NA,NA,184,"PO BOX 997, MELBOURNE, FL, 32902","No_Match",NA,NA,NA,NA
1000185,"PO BOX 997","RUIDOSO DOWNS","NM",88346,NA,NA,185,"PO BOX 997, RUIDOSO DOWNS, NM, 88346","No_Match",NA,NA,NA,NA
1000186,"PO BOX 99723","RALEIGH","NC",27624,NA,NA,186,"PO BOX 99723, RALEIGH, NC, 27624","No_Match",NA,NA,NA,NA
1000187,"PO BOX 99737","CLEVELAND","OH",44199,NA,NA,187,"PO BOX 99737, CLEVELAND, OH, 44199","No_Match",NA,NA,NA,NA
1000188,"PO BOX 998","PINE PLAINS","NY",12567,NA,NA,188,"PO BOX 998, PINE PLAINS, NY, 12567","No_Match",NA,NA,NA,NA
1000189,"PO BOX 998","ROCHELLE","GA",31079,NA,NA,189,"PO BOX 998, ROCHELLE, GA, 31079","No_Match",NA,NA,NA,NA
1000190,"PO BOX 998","WEST JORDAN","UT",84084,NA,NA,190,"PO BOX 998, WEST JORDAN, UT, 84084","No_Match",NA,NA,NA,NA
1000191,"PO BOX 998165","PAGO PAGO","AS",96799,NA,NA,191,"PO BOX 998165, PAGO PAGO, AS, 96799","No_Match",NA,NA,NA,NA
1000192,"PO BOX 998257","PAGO PAGO","AS",96799,NA,NA,192,"PO BOX 998257, PAGO PAGO, AS, 96799","No_Match",NA,NA,NA,NA
1000193,"PO BOX 998292","PAGO PAGO","AS",96799,NA,NA,193,"PO BOX 998292, PAGO PAGO, AS, 96799","No_Match",NA,NA,NA,NA
1000194,"PO BOX 998297","PAGO PAGO","AS",96799,NA,NA,194,"PO BOX 998297, PAGO PAGO, AS, 96799","No_Match",NA,NA,NA,NA
1000195,"PO BOX 998417","PAGO PAGO","AS",96799,NA,NA,195,"PO BOX 998417, PAGO PAGO, AS, 96799","No_Match",NA,NA,NA,NA
1000196,"PO BOX 99892","SAN DIEGO","CA",92169,NA,NA,196,"PO BOX 99892, SAN DIEGO, CA, 92169","No_Match",NA,NA,NA,NA
1000197,"PO BOX 999","COMFORT","TX",78013,NA,NA,197,"PO BOX 999, COMFORT, TX, 78013","No_Match",NA,NA,NA,NA
1000198,"PO BOX 999","HOLLY SPRINGS","NC",27540,NA,NA,198,"PO BOX 999, HOLLY SPRINGS, NC, 27540","No_Match",NA,NA,NA,NA
1000199,"PO BOX 999","INDIANTOWN","FL",34956,NA,NA,199,"PO BOX 999, INDIANTOWN, FL, 34956","No_Match",NA,NA,NA,NA
1000200,"PO BOX 999","MESQUITE","NM",88048,NA,NA,200,"PO BOX 999, MESQUITE, NM, 88048","No_Match",NA,NA,NA,NA
1000201,"PO BOX 999","PRAIRIE VIEW","TX",77446,NA,NA,201,"PO BOX 999, PRAIRIE VIEW, TX, 77446","No_Match",NA,NA,NA,NA
1000202,"PO BOX 999","VENETA","OR",97405,NA,NA,202,"PO BOX 999, VENETA, OR, 97405","No_Match",NA,NA,NA,NA
1000203,"PO BOX A","BELMAR","NJ",7719,NA,NA,203,"PO BOX A, BELMAR, NJ, 7719","No_Match",NA,NA,NA,NA
1000204,"PO BOX A","DALLAS CITY","IL",62330,NA,NA,204,"PO BOX A, DALLAS CITY, IL, 62330","No_Match",NA,NA,NA,NA
1000205,"PO BOX A","DETROIT","OR",97342,NA,NA,205,"PO BOX A, DETROIT, OR, 97342","No_Match",NA,NA,NA,NA
1000206,"PO BOX A","LANSING","NY",14882,NA,NA,206,"PO BOX A, LANSING, NY, 14882","No_Match",NA,NA,NA,NA
1000207,"PO BOX A","SCAPPOOSE","OR",97056,NA,NA,207,"PO BOX A, SCAPPOOSE, OR, 97056","No_Match",NA,NA,NA,NA
1000208,"PO BOX A","ST MARYS CITY","MD",20686,NA,NA,208,"PO BOX A, ST MARYS CITY, MD, 20686","No_Match",NA,NA,NA,NA
1000209,"PO BOX A","TROY","MO",63379,NA,NA,209,"PO BOX A, TROY, MO, 63379","No_Match",NA,NA,NA,NA
1000210,"PO BOX A241","TSAILE","AZ",86556,NA,NA,210,"PO BOX A241, TSAILE, AZ, 86556","No_Match",NA,NA,NA,NA
1000211,"PO BOX AH 162 ACHIMOTA","ACCRA",NA,NA,NA,NA,211,"PO BOX AH 162 ACHIMOTA, ACCRA, , ","No_Match",NA,NA,NA,NA
1000212,"PO BOX AMERISHAM WAY","Boca Raton","FL",33486,NA,NA,212,"PO BOX AMERISHAM WAY, Boca Raton, FL, 33486","No_Match",NA,NA,NA,NA
1000213,"PO BOX AN 7857 ACCRA NORTH","GHANA AFRICA",NA,NA,NA,NA,213,"PO BOX AN 7857 ACCRA NORTH, GHANA AFRICA, , ","No_Match",NA,NA,NA,NA
1000214,"PO BOX AQ","WINSLOW","AZ",86047,NA,NA,214,"PO BOX AQ, WINSLOW, AZ, 86047","No_Match",NA,NA,NA,NA
1000215,"PO BOX AT 1936","ACHIMOTA ACCRA GH","GA",0,NA,NA,215,"PO BOX AT 1936, ACHIMOTA ACCRA GH, GA, 0","No_Match",NA,NA,NA,NA
1000216,"PO BOX B","KINGSVILLE","TX",78364,NA,NA,216,"PO BOX B, KINGSVILLE, TX, 78364","No_Match",NA,NA,NA,NA
1000217,"PO BOX B","WAXAHACHIE","TX",75168,NA,NA,217,"PO BOX B, WAXAHACHIE, TX, 75168","No_Match",NA,NA,NA,NA
1000218,"PO BOX BOX 115","HILLSVILLE","PA",16132,NA,NA,218,"PO BOX BOX 115, HILLSVILLE, PA, 16132","No_Match",NA,NA,NA,NA
1000219,"PO BOX BOX 50296","MESA","AZ",85208,NA,NA,219,"PO BOX BOX 50296, MESA, AZ, 85208","No_Match",NA,NA,NA,NA
1000220,"PO BOX C","DE SOTO","KS",66018,NA,NA,220,"PO BOX C, DE SOTO, KS, 66018","No_Match",NA,NA,NA,NA
1000221,"PO BOX C","GARRETSON","SD",57030,NA,NA,221,"PO BOX C, GARRETSON, SD, 57030","No_Match",NA,NA,NA,NA
1000222,"PO BOX C","SANDPOINT","ID",83864,NA,NA,222,"PO BOX C, SANDPOINT, ID, 83864","No_Match",NA,NA,NA,NA
1000223,"PO BOX C","WARM SPRINGS","OR",97761,NA,NA,223,"PO BOX C, WARM SPRINGS, OR, 97761","No_Match",NA,NA,NA,NA
1000224,"PO BOX CH","BEAUMONT","CA",92223,NA,NA,224,"PO BOX CH, BEAUMONT, CA, 92223","No_Match",NA,NA,NA,NA
1000225,"PO BOX D","CASTINE","ME",4421,NA,NA,225,"PO BOX D, CASTINE, ME, 4421","No_Match",NA,NA,NA,NA
1000226,"PO BOX D","HEBER","CA",92249,NA,NA,226,"PO BOX D, HEBER, CA, 92249","No_Match",NA,NA,NA,NA
1000227,"PO BOX E","ANAHUAC","TX",77514,NA,NA,227,"PO BOX E, ANAHUAC, TX, 77514","No_Match",NA,NA,NA,NA
1000228,"PO BOX F","CONNELL","WA",99326,NA,NA,228,"PO BOX F, CONNELL, WA, 99326","No_Match",NA,NA,NA,NA
1000229,"PO BOX F","NEW BERLIN","NY",13411,NA,NA,229,"PO BOX F, NEW BERLIN, NY, 13411","No_Match",NA,NA,NA,NA
1000230,"PO BOX G","BIRD ISLAND","MN",55310,NA,NA,230,"PO BOX G, BIRD ISLAND, MN, 55310","No_Match",NA,NA,NA,NA
1000231,"PO BOX G","KATY","TX",77492,NA,NA,231,"PO BOX G, KATY, TX, 77492","No_Match",NA,NA,NA,NA
1000232,"PO BOX G","OURAY","CO",81427,NA,NA,232,"PO BOX G, OURAY, CO, 81427","No_Match",NA,NA,NA,NA
1000233,"PO BOX G","PINETOPS","NC",27864,NA,NA,233,"PO BOX G, PINETOPS, NC, 27864","No_Match",NA,NA,NA,NA
1000234,"PO BOX GG","CARMEL","CA",93921,NA,NA,234,"PO BOX GG, CARMEL, CA, 93921","No_Match",NA,NA,NA,NA
1000235,"PO BOX H","BIRD ISLAND","MN",55310,NA,NA,235,"PO BOX H, BIRD ISLAND, MN, 55310","No_Match",NA,NA,NA,NA
1000236,"PO BOX H","BOULDER","MT",59632,NA,NA,236,"PO BOX H, BOULDER, MT, 59632","No_Match",NA,NA,NA,NA
1000237,"PO BOX H","BREESPORT","NY",14816,NA,NA,237,"PO BOX H, BREESPORT, NY, 14816","No_Match",NA,NA,NA,NA
1000238,"PO BOX H","KNOX","PA",16232,NA,NA,238,"PO BOX H, KNOX, PA, 16232","No_Match",NA,NA,NA,NA
1000239,"PO BOX H","VASHON ISLAND","WA",98070,NA,NA,239,"PO BOX H, VASHON ISLAND, WA, 98070","No_Match",NA,NA,NA,NA
1000240,"PO BOX I76","BROOKLYN","CT",6234,NA,NA,240,"PO BOX I76, BROOKLYN, CT, 6234","No_Match",NA,NA,NA,NA
1000241,"PO BOX IS 31","BLACKLICK","OH",43004,NA,NA,241,"PO BOX IS 31, BLACKLICK, OH, 43004","No_Match",NA,NA,NA,NA
1000242,"PO BOX J","SHEPHERDSTOWN","WV",25443,NA,NA,242,"PO BOX J, SHEPHERDSTOWN, WV, 25443","No_Match",NA,NA,NA,NA
1000243,"PO BOX K","CONNELL","WA",99326,NA,NA,243,"PO BOX K, CONNELL, WA, 99326","No_Match",NA,NA,NA,NA
1000244,"PO BOX K","MENLO PARK","CA",94026,NA,NA,244,"PO BOX K, MENLO PARK, CA, 94026","No_Match",NA,NA,NA,NA
1000245,"PO BOX KXA - 4","KASAAN","AK",99950,NA,NA,245,"PO BOX KXA - 4, KASAAN, AK, 99950","No_Match",NA,NA,NA,NA
1000246,"PO BOX L","TIVOLI","TX",77990,NA,NA,246,"PO BOX L, TIVOLI, TX, 77990","No_Match",NA,NA,NA,NA
1000247,"PO BOX LG 683","LEGON ACCRA",NA,NA,NA,NA,247,"PO BOX LG 683, LEGON ACCRA, , ","No_Match",NA,NA,NA,NA
1000248,"PO BOX M","BOULDER","CO",80306,NA,NA,248,"PO BOX M, BOULDER, CO, 80306","No_Match",NA,NA,NA,NA
1000249,"PO BOX M","UNION","OR",97883,NA,NA,249,"PO BOX M, UNION, OR, 97883","No_Match",NA,NA,NA,NA
1000250,"PO BOX MXY 12","GLENNALLEN","AK",99588,NA,NA,250,"PO BOX MXY 12, GLENNALLEN, AK, 99588","No_Match",NA,NA,NA,NA
1000251,"PO BOX MXY 50","GLENNALLEN","AK",99588,NA,NA,251,"PO BOX MXY 50, GLENNALLEN, AK, 99588","No_Match",NA,NA,NA,NA
1000252,"PO BOX MXY","GLENNALLEN","AK",99588,NA,NA,252,"PO BOX MXY, GLENNALLEN, AK, 99588","No_Match",NA,NA,NA,NA
1000253,"PO BOX N10045","NASSAU, BAHAMAS",NA,NA,NA,NA,253,"PO BOX N10045, NASSAU, BAHAMAS, , ","No_Match",NA,NA,NA,NA
1000254,"PO BOX NN","MCLEAN","VA",22101,NA,NA,254,"PO BOX NN, MCLEAN, VA, 22101","No_Match",NA,NA,NA,NA
1000255,"PO BOX ONE ONE SIX","WAYNESBORO","VA",22980,NA,NA,255,"PO BOX ONE ONE SIX, WAYNESBORO, VA, 22980","No_Match",NA,NA,NA,NA
1000256,"PO BOX ONE","TRENTON","SC",29847,NA,NA,256,"PO BOX ONE, TRENTON, SC, 29847","No_Match",NA,NA,NA,NA
1000257,"PO BOX PO BOX 1446","COPPERAS COVE","TX",76522,NA,NA,257,"PO BOX PO BOX 1446, COPPERAS COVE, TX, 76522","No_Match",NA,NA,NA,NA
1000258,"PO BOX PPB 1ST AIRPORT RD","PAGO PAGO","AS",96799,NA,NA,258,"PO BOX PPB 1ST AIRPORT RD, PAGO PAGO, AS, 96799","No_Match",NA,NA,NA,NA
1000259,"PO BOX PPB","PAGO PAGO","AS",96799,NA,NA,259,"PO BOX PPB, PAGO PAGO, AS, 96799","No_Match",NA,NA,NA,NA
1000260,"PO BOX R","CARMEL","CA",93921,NA,NA,260,"PO BOX R, CARMEL, CA, 93921","No_Match",NA,NA,NA,NA
1000261,"PO BOX R","PEMBROKE","ME",4666,NA,NA,261,"PO BOX R, PEMBROKE, ME, 4666","No_Match",NA,NA,NA,NA
1000262,"PO BOX R","SANTA CLARA","CA",95055,NA,NA,262,"PO BOX R, SANTA CLARA, CA, 95055","No_Match",NA,NA,NA,NA
1000263,"PO BOX S","LAKESIDE","OR",97449,NA,NA,263,"PO BOX S, LAKESIDE, OR, 97449","No_Match",NA,NA,NA,NA
1000264,"PO BOX SS6394 FARRINGTON RAOD","NASSAU BAHAMAS",NA,NA,NA,NA,264,"PO BOX SS6394 FARRINGTON RAOD, NASSAU BAHAMAS, , ","No_Match",NA,NA,NA,NA
1000265,"PO BOX SVCC","RICHLANDS","VA",24641,NA,NA,265,"PO BOX SVCC, RICHLANDS, VA, 24641","No_Match",NA,NA,NA,NA
1000266,"PO BOX T","NEW BERLIN","NY",13411,NA,NA,266,"PO BOX T, NEW BERLIN, NY, 13411","No_Match",NA,NA,NA,NA
1000267,"PO BOX TE150","ESIAMA GHANA",NA,NA,NA,NA,267,"PO BOX TE150, ESIAMA GHANA, , ","No_Match",NA,NA,NA,NA
1000268,"PO BOX U","EL CAJON","CA",92022,NA,NA,268,"PO BOX U, EL CAJON, CA, 92022","No_Match",NA,NA,NA,NA
1000269,"PO BOX W","BOULDER","CO",80304,NA,NA,269,"PO BOX W, BOULDER, CO, 80304","No_Match",NA,NA,NA,NA
1000270,"PO BOX WWP 31","KETCHIKAN","AK",99950,NA,NA,270,"PO BOX WWP 31, KETCHIKAN, AK, 99950","No_Match",NA,NA,NA,NA
1000271,"PO BOX X28","LILONGWE, MALAWI",NA,NA,NA,NA,271,"PO BOX X28, LILONGWE, MALAWI, , ","No_Match",NA,NA,NA,NA
1000272,"PO BOX Y","HOLDEN","WV",25625,NA,NA,272,"PO BOX Y, HOLDEN, WV, 25625","No_Match",NA,NA,NA,NA
1000273,"PO BOX Z","BISBEE","AZ",85603,NA,NA,273,"PO BOX Z, BISBEE, AZ, 85603","No_Match",NA,NA,NA,NA
1000274,"PO BOX Z","WAVERLY","PA",18471,NA,NA,274,"PO BOX Z, WAVERLY, PA, 18471","No_Match",NA,NA,NA,NA
1000275,"PO BOX","1037","CA",95962,NA,NA,275,"PO BOX, 1037, CA, 95962","No_Match",NA,NA,NA,NA
1000276,"PO BOX","160","MI",63637,NA,NA,276,"PO BOX, 160, MI, 63637","No_Match",NA,NA,NA,NA
1000277,"PO BOX","176","MO",65714,NA,NA,277,"PO BOX, 176, MO, 65714","No_Match",NA,NA,NA,NA
1000278,"PO BOX","2639","AR",72712,NA,NA,278,"PO BOX, 2639, AR, 72712","No_Match",NA,NA,NA,NA
1000279,"PO BOX","266736","FL",33326,NA,NA,279,"PO BOX, 266736, FL, 33326","No_Match",NA,NA,NA,NA
1000280,"PO BOX","2764","TX",78634,NA,NA,280,"PO BOX, 2764, TX, 78634","No_Match",NA,NA,NA,NA
1000281,"PO BOX","294","TX",75439,NA,NA,281,"PO BOX, 294, TX, 75439","No_Match",NA,NA,NA,NA
1000282,"PO BOX","3114","VA",24402,NA,NA,282,"PO BOX, 3114, VA, 24402","No_Match",NA,NA,NA,NA
1000283,"PO BOX","320932","FL",32862,NA,NA,283,"PO BOX, 320932, FL, 32862","No_Match",NA,NA,NA,NA
1000284,"PO BOX","APPLETON","WI",54912,NA,NA,284,"PO BOX, APPLETON, WI, 54912","No_Match",NA,NA,NA,NA
1000285,"PO BOX","ARECIBO","PR",613,NA,NA,285,"PO BOX, ARECIBO, PR, 613","No_Match",NA,NA,NA,NA
1000286,"PO BOX","AUBURN","WA",98022,NA,NA,286,"PO BOX, AUBURN, WA, 98022","No_Match",NA,NA,NA,NA
1000287,"PO BOX","AUBURNDALE","FL",33823,NA,NA,287,"PO BOX, AUBURNDALE, FL, 33823","No_Match",NA,NA,NA,NA
1000288,"PO BOX","BAILEYTON","AL",35019,NA,NA,288,"PO BOX, BAILEYTON, AL, 35019","No_Match",NA,NA,NA,NA
1000289,"PO BOX","BAKERSFIELD","CA",93380,NA,NA,289,"PO BOX, BAKERSFIELD, CA, 93380","No_Match",NA,NA,NA,NA
1000290,"PO BOX","BARRINGTON","RI",2806,NA,NA,290,"PO BOX, BARRINGTON, RI, 2806","No_Match",NA,NA,NA,NA
1000291,"PO BOX","BECKER","MN",55308,NA,NA,291,"PO BOX, BECKER, MN, 55308","No_Match",NA,NA,NA,NA
1000292,"PO BOX","BELFAST","NY",14711,NA,NA,292,"PO BOX, BELFAST, NY, 14711","No_Match",NA,NA,NA,NA
1000293,"PO BOX","BELTON","SC",29627,NA,NA,293,"PO BOX, BELTON, SC, 29627","No_Match",NA,NA,NA,NA
1000294,"PO BOX","BENHAM","KY",40807,NA,NA,294,"PO BOX, BENHAM, KY, 40807","No_Match",NA,NA,NA,NA
1000295,"PO BOX","BETHESDA","MD",20824,NA,NA,295,"PO BOX, BETHESDA, MD, 20824","No_Match",NA,NA,NA,NA
1000296,"PO BOX","BODFISH","CA",93205,NA,NA,296,"PO BOX, BODFISH, CA, 93205","No_Match",NA,NA,NA,NA
1000297,"PO BOX","BRISTOL","VA",24203,NA,NA,297,"PO BOX, BRISTOL, VA, 24203","No_Match",NA,NA,NA,NA
1000298,"PO BOX","BROOKFIELD","WI",53008,NA,NA,298,"PO BOX, BROOKFIELD, WI, 53008","No_Match",NA,NA,NA,NA
1000299,"PO BOX","BRYSON CITY","NC",28713,NA,NA,299,"PO BOX, BRYSON CITY, NC, 28713","No_Match",NA,NA,NA,NA
1000300,"PO BOX","CABOT","AR",72023,NA,NA,300,"PO BOX, CABOT, AR, 72023","No_Match",NA,NA,NA,NA
1000301,"PO BOX","CEDARVILLE","NJ",8311,NA,NA,301,"PO BOX, CEDARVILLE, NJ, 8311","No_Match",NA,NA,NA,NA
1000302,"PO BOX","CHESTER","VA",23831,NA,NA,302,"PO BOX, CHESTER, VA, 23831","No_Match",NA,NA,NA,NA
1000303,"PO BOX","CLAREMONT","NH",3743,NA,NA,303,"PO BOX, CLAREMONT, NH, 3743","No_Match",NA,NA,NA,NA
1000304,"PO BOX","CLEVELAND","OH",44101,NA,NA,304,"PO BOX, CLEVELAND, OH, 44101","No_Match",NA,NA,NA,NA
1000305,"PO BOX","CROSBY","TX",77532,NA,NA,305,"PO BOX, CROSBY, TX, 77532","No_Match",NA,NA,NA,NA
1000306,"PO BOX","CROSBYTON","TX",79322,NA,NA,306,"PO BOX, CROSBYTON, TX, 79322","No_Match",NA,NA,NA,NA
1000307,"PO BOX","DALLAS","TX",75241,NA,NA,307,"PO BOX, DALLAS, TX, 75241","No_Match",NA,NA,NA,NA
1000308,"PO BOX","DEARBORN","MI",48121,NA,NA,308,"PO BOX, DEARBORN, MI, 48121","No_Match",NA,NA,NA,NA
1000309,"PO BOX","DECATUR","AL",35602,NA,NA,309,"PO BOX, DECATUR, AL, 35602","No_Match",NA,NA,NA,NA
1000310,"PO BOX","DES MOINES","WA",98198,NA,NA,310,"PO BOX, DES MOINES, WA, 98198","No_Match",NA,NA,NA,NA
1000311,"PO BOX","DESOTO","TX",75123,NA,NA,311,"PO BOX, DESOTO, TX, 75123","No_Match",NA,NA,NA,NA
1000312,"PO BOX","DETROIT","MI",48244,NA,NA,312,"PO BOX, DETROIT, MI, 48244","No_Match",NA,NA,NA,NA
1000313,"PO BOX","DEXTER","NY",13634,NA,NA,313,"PO BOX, DEXTER, NY, 13634","No_Match",NA,NA,NA,NA
1000314,"PO BOX","DUBLIN","GA",31021,NA,NA,314,"PO BOX, DUBLIN, GA, 31021","No_Match",NA,NA,NA,NA
1000315,"PO BOX","EAGLE LAKE","FL",33839,NA,NA,315,"PO BOX, EAGLE LAKE, FL, 33839","No_Match",NA,NA,NA,NA
1000316,"PO BOX","ELGIN","IL",60121,NA,NA,316,"PO BOX, ELGIN, IL, 60121","No_Match",NA,NA,NA,NA
1000317,"PO BOX","FLIPPIN","AR",72634,NA,NA,317,"PO BOX, FLIPPIN, AR, 72634","No_Match",NA,NA,NA,NA
1000318,"PO BOX","FORNEY","TX",75126,NA,NA,318,"PO BOX, FORNEY, TX, 75126","No_Match",NA,NA,NA,NA
1000319,"PO BOX","FORT LAUDERDALE","FL",33312,NA,NA,319,"PO BOX, FORT LAUDERDALE, FL, 33312","No_Match",NA,NA,NA,NA
1000320,"PO BOX","FRANCISCO","IN",47649,NA,NA,320,"PO BOX, FRANCISCO, IN, 47649","No_Match",NA,NA,NA,NA
1000321,"PO BOX","FRANCISCO","OH",47649,NA,NA,321,"PO BOX, FRANCISCO, OH, 47649","No_Match",NA,NA,NA,NA
1000322,"PO BOX","FRANKLIN PARK","NJ",8823,NA,NA,322,"PO BOX, FRANKLIN PARK, NJ, 8823","No_Match",NA,NA,NA,NA
1000323,"PO BOX","FRISCO","TX",75034,NA,NA,323,"PO BOX, FRISCO, TX, 75034","No_Match",NA,NA,NA,NA
1000324,"PO BOX","GLEN FLORA","TX",77443,NA,NA,324,"PO BOX, GLEN FLORA, TX, 77443","No_Match",NA,NA,NA,NA
1000325,"PO BOX","GOWRIE","IA",50543,NA,NA,325,"PO BOX, GOWRIE, IA, 50543","No_Match",NA,NA,NA,NA
1000326,"PO BOX","GRANITE QUARRY","NC",28072,NA,NA,326,"PO BOX, GRANITE QUARRY, NC, 28072","No_Match",NA,NA,NA,NA
1000327,"PO BOX","GREELEY","CO",80632,NA,NA,327,"PO BOX, GREELEY, CO, 80632","No_Match",NA,NA,NA,NA
1000328,"PO BOX","GULFPORT","MS",39505,NA,NA,328,"PO BOX, GULFPORT, MS, 39505","No_Match",NA,NA,NA,NA
1000329,"PO BOX","HARLOWTON","MT",59036,NA,NA,329,"PO BOX, HARLOWTON, MT, 59036","No_Match",NA,NA,NA,NA
1000330,"PO BOX","HAWTHORNE","WI",54842,NA,NA,330,"PO BOX, HAWTHORNE, WI, 54842","No_Match",NA,NA,NA,NA
1000331,"PO BOX","HONOLULU","HI",96825,NA,NA,331,"PO BOX, HONOLULU, HI, 96825","No_Match",NA,NA,NA,NA
1000332,"PO BOX","HOUSTON","TX",77259,NA,NA,332,"PO BOX, HOUSTON, TX, 77259","No_Match",NA,NA,NA,NA
1000333,"PO BOX","HUGO","CO",80821,NA,NA,333,"PO BOX, HUGO, CO, 80821","No_Match",NA,NA,NA,NA
1000334,"PO BOX","HUNTLEY","MT",59037,NA,NA,334,"PO BOX, HUNTLEY, MT, 59037","No_Match",NA,NA,NA,NA
1000335,"PO BOX","JACKSON","MS",39284,NA,NA,335,"PO BOX, JACKSON, MS, 39284","No_Match",NA,NA,NA,NA
1000336,"PO BOX","JAX","FL",32209,NA,NA,336,"PO BOX, JAX, FL, 32209","No_Match",NA,NA,NA,NA
1000337,"PO BOX","JENKS","OK",74037,NA,NA,337,"PO BOX, JENKS, OK, 74037","No_Match",NA,NA,NA,NA
1000338,"PO BOX","KOLOA","HI",96756,NA,NA,338,"PO BOX, KOLOA, HI, 96756","No_Match",NA,NA,NA,NA
1000339,"PO BOX","LA CRESCENTA","CA",91224,NA,NA,339,"PO BOX, LA CRESCENTA, CA, 91224","No_Match",NA,NA,NA,NA
1000340,"PO BOX","LAKE WINOLA","PA",18625,NA,NA,340,"PO BOX, LAKE WINOLA, PA, 18625","No_Match",NA,NA,NA,NA
1000341,"PO BOX","LAKEVILLE","OH",44638,NA,NA,341,"PO BOX, LAKEVILLE, OH, 44638","No_Match",NA,NA,NA,NA
1000342,"PO BOX","LANCASTER","KS",66041,NA,NA,342,"PO BOX, LANCASTER, KS, 66041","No_Match",NA,NA,NA,NA
1000343,"PO BOX","LEWISBERRY","PA",17339,NA,NA,343,"PO BOX, LEWISBERRY, PA, 17339","No_Match",NA,NA,NA,NA
1000344,"PO BOX","LIHUE","HI",96766,NA,NA,344,"PO BOX, LIHUE, HI, 96766","No_Match",NA,NA,NA,NA
1000345,"PO BOX","LITHIA","FL",33547,NA,NA,345,"PO BOX, LITHIA, FL, 33547","No_Match",NA,NA,NA,NA
1000346,"PO BOX","LOGANVILLE","GA",30052,NA,NA,346,"PO BOX, LOGANVILLE, GA, 30052","No_Match",NA,NA,NA,NA
1000347,"PO BOX","LOWMANSVILLE","KY",41232,NA,NA,347,"PO BOX, LOWMANSVILLE, KY, 41232","No_Match",NA,NA,NA,NA
1000348,"PO BOX","LYNCHBURG","VA",24502,NA,NA,348,"PO BOX, LYNCHBURG, VA, 24502","No_Match",NA,NA,NA,NA
1000349,"PO BOX","MALAKOFF","TX",75148,NA,NA,349,"PO BOX, MALAKOFF, TX, 75148","No_Match",NA,NA,NA,NA
1000350,"PO BOX","MANCHESTER","NH",3108,NA,NA,350,"PO BOX, MANCHESTER, NH, 3108","No_Match",NA,NA,NA,NA
1000351,"PO BOX","MARTINSVILLE","TX",75958,NA,NA,351,"PO BOX, MARTINSVILLE, TX, 75958","No_Match",NA,NA,NA,NA
1000352,"PO BOX","MASON","OH",45040,NA,NA,352,"PO BOX, MASON, OH, 45040","No_Match",NA,NA,NA,NA
1000353,"PO BOX","MEDINA","OH",44258,NA,NA,353,"PO BOX, MEDINA, OH, 44258","No_Match",NA,NA,NA,NA
1000354,"PO BOX","MERIDIAN","ID",83680,NA,NA,354,"PO BOX, MERIDIAN, ID, 83680","No_Match",NA,NA,NA,NA
1000355,"PO BOX","MERTZON","TX",76941,NA,NA,355,"PO BOX, MERTZON, TX, 76941","No_Match",NA,NA,NA,NA
1000356,"PO BOX","MIAMI","FL",33255,NA,NA,356,"PO BOX, MIAMI, FL, 33255","No_Match",NA,NA,NA,NA
1000357,"PO BOX","MILLBROOK","NY",12545,NA,NA,357,"PO BOX, MILLBROOK, NY, 12545","No_Match",NA,NA,NA,NA
1000358,"PO BOX","MONTCLAIR","CA",91763,NA,NA,358,"PO BOX, MONTCLAIR, CA, 91763","No_Match",NA,NA,NA,NA
1000359,"PO BOX","MORENO VALLEY","CA",92555,NA,NA,359,"PO BOX, MORENO VALLEY, CA, 92555","No_Match",NA,NA,NA,NA
1000360,"PO BOX","NEW ALBANY","OH",43054,NA,NA,360,"PO BOX, NEW ALBANY, OH, 43054","No_Match",NA,NA,NA,NA
1000361,"PO BOX","NEWARK","NJ",7106,NA,NA,361,"PO BOX, NEWARK, NJ, 7106","No_Match",NA,NA,NA,NA
1000362,"PO BOX","NIXA","MO",65714,NA,NA,362,"PO BOX, NIXA, MO, 65714","No_Match",NA,NA,NA,NA
1000363,"PO BOX","NORTH GRANBY","CT",6060,NA,NA,363,"PO BOX, NORTH GRANBY, CT, 6060","No_Match",NA,NA,NA,NA
1000364,"PO BOX","OKLAHOMA CITY","OK",73113,NA,NA,364,"PO BOX, OKLAHOMA CITY, OK, 73113","No_Match",NA,NA,NA,NA
1000365,"PO BOX","OLATHE","KS",66063,NA,NA,365,"PO BOX, OLATHE, KS, 66063","No_Match",NA,NA,NA,NA
1000366,"PO BOX","OMAHA","NE",68103,NA,NA,366,"PO BOX, OMAHA, NE, 68103","No_Match",NA,NA,NA,NA
1000367,"PO BOX","ONECO","FL",34264,NA,NA,367,"PO BOX, ONECO, FL, 34264","No_Match",NA,NA,NA,NA
1000368,"PO BOX","ORCHARD","TX",77464,NA,NA,368,"PO BOX, ORCHARD, TX, 77464","No_Match",NA,NA,NA,NA
1000369,"PO BOX","OTTERVILLE","MO",65348,NA,NA,369,"PO BOX, OTTERVILLE, MO, 65348","No_Match",NA,NA,NA,NA
1000370,"PO BOX","PAGO PAGO","AS",96799,NA,NA,370,"PO BOX, PAGO PAGO, AS, 96799","No_Match",NA,NA,NA,NA
1000371,"PO BOX","PASCO","WA",99302,NA,NA,371,"PO BOX, PASCO, WA, 99302","No_Match",NA,NA,NA,NA
1000372,"PO BOX","PAYSON","AZ",85547,NA,NA,372,"PO BOX, PAYSON, AZ, 85547","No_Match",NA,NA,NA,NA
1000373,"PO BOX","PERRY","GA",31069,NA,NA,373,"PO BOX, PERRY, GA, 31069","No_Match",NA,NA,NA,NA
1000374,"PO BOX","PHILADELPHIA","PA",19141,NA,NA,374,"PO BOX, PHILADELPHIA, PA, 19141","No_Match",NA,NA,NA,NA
1000375,"PO BOX","PINECREST","FL",33256,NA,NA,375,"PO BOX, PINECREST, FL, 33256","No_Match",NA,NA,NA,NA
1000376,"PO BOX","PORTAND","ME",4112,NA,NA,376,"PO BOX, PORTAND, ME, 4112","No_Match",NA,NA,NA,NA
1000377,"PO BOX","PRYOR","OK",74361,NA,NA,377,"PO BOX, PRYOR, OK, 74361","No_Match",NA,NA,NA,NA
1000378,"PO BOX","REDDING","CA",96099,NA,NA,378,"PO BOX, REDDING, CA, 96099","No_Match",NA,NA,NA,NA
1000379,"PO BOX","RENO","NV",89533,NA,NA,379,"PO BOX, RENO, NV, 89533","No_Match",NA,NA,NA,NA
1000380,"PO BOX","RICHMOND HTS","OH",44143,NA,NA,380,"PO BOX, RICHMOND HTS, OH, 44143","No_Match",NA,NA,NA,NA
1000381,"PO BOX","ROCHESTER","NY",14614,NA,NA,381,"PO BOX, ROCHESTER, NY, 14614","No_Match",NA,NA,NA,NA
1000382,"PO BOX","ROCHESTER","NY",14626,NA,NA,382,"PO BOX, ROCHESTER, NY, 14626","No_Match",NA,NA,NA,NA
1000383,"PO BOX","SABINAL","TX",78881,NA,NA,383,"PO BOX, SABINAL, TX, 78881","No_Match",NA,NA,NA,NA
1000384,"PO BOX","SAN DIEGO","CA",92174,NA,NA,384,"PO BOX, SAN DIEGO, CA, 92174","No_Match",NA,NA,NA,NA
1000385,"PO BOX","SAN FELIPE","TX",77473,NA,NA,385,"PO BOX, SAN FELIPE, TX, 77473","No_Match",NA,NA,NA,NA
1000386,"PO BOX","SAN GERONIMO","CA",94963,NA,NA,386,"PO BOX, SAN GERONIMO, CA, 94963","No_Match",NA,NA,NA,NA
1000387,"PO BOX","SANFORD","FL",32772,NA,NA,387,"PO BOX, SANFORD, FL, 32772","No_Match",NA,NA,NA,NA
1000388,"PO BOX","SDALEMBURG","NC",28385,NA,NA,388,"PO BOX, SDALEMBURG, NC, 28385","No_Match",NA,NA,NA,NA
1000389,"PO BOX","SIKES","LA",71473,NA,NA,389,"PO BOX, SIKES, LA, 71473","No_Match",NA,NA,NA,NA
1000390,"PO BOX","SONORA","CA",95370,NA,NA,390,"PO BOX, SONORA, CA, 95370","No_Match",NA,NA,NA,NA
1000391,"PO BOX","SOUTHFIELD","MI",48037,NA,NA,391,"PO BOX, SOUTHFIELD, MI, 48037","No_Match",NA,NA,NA,NA
1000392,"PO BOX","ST STEPHEN","SC",29479,NA,NA,392,"PO BOX, ST STEPHEN, SC, 29479","No_Match",NA,NA,NA,NA
1000393,"PO BOX","STANTON","TN",38069,NA,NA,393,"PO BOX, STANTON, TN, 38069","No_Match",NA,NA,NA,NA
1000394,"PO BOX","SUMMERVILLE","SC",29483,NA,NA,394,"PO BOX, SUMMERVILLE, SC, 29483","No_Match",NA,NA,NA,NA
1000395,"PO BOX","SUTTON","AK",99674,NA,NA,395,"PO BOX, SUTTON, AK, 99674","No_Match",NA,NA,NA,NA
1000396,"PO BOX","TAFTSVILLE","VT",5073,NA,NA,396,"PO BOX, TAFTSVILLE, VT, 5073","No_Match",NA,NA,NA,NA
1000397,"PO BOX","THOMPSON STATION","TN",32179,NA,NA,397,"PO BOX, THOMPSON STATION, TN, 32179","No_Match",NA,NA,NA,NA
1000398,"PO BOX","TROY","MI",48099,NA,NA,398,"PO BOX, TROY, MI, 48099","No_Match",NA,NA,NA,NA
1000399,"PO BOX","TROY","NY",12182,NA,NA,399,"PO BOX, TROY, NY, 12182","No_Match",NA,NA,NA,NA
1000400,"PO BOX","TURNER","OR",97392,NA,NA,400,"PO BOX, TURNER, OR, 97392","No_Match",NA,NA,NA,NA
1000401,"PO BOX","TUSCALOOSA","AL",35407,NA,NA,401,"PO BOX, TUSCALOOSA, AL, 35407","No_Match",NA,NA,NA,NA
1000402,"PO BOX","VALRICO","FL",33595,NA,NA,402,"PO BOX, VALRICO, FL, 33595","No_Match",NA,NA,NA,NA
1000403,"PO BOX","VAN ALSTYNE","TX",75495,NA,NA,403,"PO BOX, VAN ALSTYNE, TX, 75495","No_Match",NA,NA,NA,NA
1000404,"PO BOX","VELARDE","NM",87582,NA,NA,404,"PO BOX, VELARDE, NM, 87582","No_Match",NA,NA,NA,NA
1000405,"PO BOX","VISTA","CA",92085,NA,NA,405,"PO BOX, VISTA, CA, 92085","No_Match",NA,NA,NA,NA
1000406,"PO BOX","WACO","TX",76703,NA,NA,406,"PO BOX, WACO, TX, 76703","No_Match",NA,NA,NA,NA
1000407,"PO BOX","WATERMAN","IL",60556,NA,NA,407,"PO BOX, WATERMAN, IL, 60556","No_Match",NA,NA,NA,NA
1000408,"PO BOX","WEST CHESTER","PA",19382,NA,NA,408,"PO BOX, WEST CHESTER, PA, 19382","No_Match",NA,NA,NA,NA
1000409,"PO BOX","WHEATLEY HEIGHTS","NY",11798,NA,NA,409,"PO BOX, WHEATLEY HEIGHTS, NY, 11798","No_Match",NA,NA,NA,NA
1000410,"PO BOX","WHITE HALL","AR",71612,NA,NA,410,"PO BOX, WHITE HALL, AR, 71612","No_Match",NA,NA,NA,NA
1000411,"PO BOX","WHITWELL","TN",37397,NA,NA,411,"PO BOX, WHITWELL, TN, 37397","No_Match",NA,NA,NA,NA
1000412,"PO BOX","WITTMANN","AZ",85361,NA,NA,412,"PO BOX, WITTMANN, AZ, 85361","No_Match",NA,NA,NA,NA
1000413,"PO BOX","YOUNGSTOWN","OH",44504,NA,NA,413,"PO BOX, YOUNGSTOWN, OH, 44504","No_Match",NA,NA,NA,NA
1000414,"PO BOX0274","OCEAN SHORES","WA",98569,NA,NA,414,"PO BOX0274, OCEAN SHORES, WA, 98569","No_Match",NA,NA,NA,NA
1000415,"PO BOX10113","KILLEEN","TX",76549,NA,NA,415,"PO BOX10113, KILLEEN, TX, 76549","No_Match",NA,NA,NA,NA
1000416,"PO BOX101236","PALM BAY","FL",32910,NA,NA,416,"PO BOX101236, PALM BAY, FL, 32910","No_Match",NA,NA,NA,NA
1000417,"PO BOX1027","HUNTINGTON","TX",75949,NA,NA,417,"PO BOX1027, HUNTINGTON, TX, 75949","No_Match",NA,NA,NA,NA
1000418,"PO BOX103","DRY FORK","VA",24549,NA,NA,418,"PO BOX103, DRY FORK, VA, 24549","No_Match",NA,NA,NA,NA
1000419,"PO BOX1062","DALLAS","TX",75106,NA,NA,419,"PO BOX1062, DALLAS, TX, 75106","No_Match",NA,NA,NA,NA
1000420,"PO BOX10626","SAN JOSE","CA",95117,NA,NA,420,"PO BOX10626, SAN JOSE, CA, 95117","No_Match",NA,NA,NA,NA
1000421,"PO BOX1064","LAFAYETTE","IN",47904,NA,NA,421,"PO BOX1064, LAFAYETTE, IN, 47904","No_Match",NA,NA,NA,NA
1000422,"PO BOX1084","RUIDOSO DOWNS","NM",88346,NA,NA,422,"PO BOX1084, RUIDOSO DOWNS, NM, 88346","No_Match",NA,NA,NA,NA
1000423,"PO BOX1092","BANDERA","TX",78003,NA,NA,423,"PO BOX1092, BANDERA, TX, 78003","No_Match",NA,NA,NA,NA
1000424,"PO BOX1106","PAHOA","HI",96778,NA,NA,424,"PO BOX1106, PAHOA, HI, 96778","No_Match",NA,NA,NA,NA
1000425,"PO BOX11173","WINSTON SALEM","NC",27116,NA,NA,425,"PO BOX11173, WINSTON SALEM, NC, 27116","No_Match",NA,NA,NA,NA
1000426,"PO BOX114 702 SOUTH MAIN STREET","PADEN","OK",74860,NA,NA,426,"PO BOX114 702 SOUTH MAIN STREET, PADEN, OK, 74860","No_Match",NA,NA,NA,NA
1000427,"PO BOX114","GREENBANK","WA",98253,NA,NA,427,"PO BOX114, GREENBANK, WA, 98253","No_Match",NA,NA,NA,NA
1000428,"PO BOX1164","HUNTSVILLE","TX",77342,NA,NA,428,"PO BOX1164, HUNTSVILLE, TX, 77342","No_Match",NA,NA,NA,NA
1000429,"PO BOX11642","CARSON","CA",90746,NA,NA,429,"PO BOX11642, CARSON, CA, 90746","No_Match",NA,NA,NA,NA
1000430,"PO BOX1198","FORSYTH","MT",59327,NA,NA,430,"PO BOX1198, FORSYTH, MT, 59327","No_Match",NA,NA,NA,NA
1000431,"PO BOX120","LOIZA","PR",772,NA,NA,431,"PO BOX120, LOIZA, PR, 772","No_Match",NA,NA,NA,NA
1000432,"PO BOX1201","TALLAHASSEE","FL",32302,NA,NA,432,"PO BOX1201, TALLAHASSEE, FL, 32302","No_Match",NA,NA,NA,NA
1000433,"PO BOX120146","ST ALBANS","NY",11412,NA,NA,433,"PO BOX120146, ST ALBANS, NY, 11412","No_Match",NA,NA,NA,NA
1000434,"PO BOX122","EAST FULTONHAM","OH",43735,NA,NA,434,"PO BOX122, EAST FULTONHAM, OH, 43735","No_Match",NA,NA,NA,NA
1000435,"PO BOX123","MERIDIAN","ID",83642,NA,NA,435,"PO BOX123, MERIDIAN, ID, 83642","No_Match",NA,NA,NA,NA
1000436,"PO BOX12514","SEATTLE","WA",98111,NA,NA,436,"PO BOX12514, SEATTLE, WA, 98111","No_Match",NA,NA,NA,NA
1000437,"PO BOX1258","AMES","IA",50014,NA,NA,437,"PO BOX1258, AMES, IA, 50014","No_Match",NA,NA,NA,NA
1000438,"PO BOX1264","LEMON GROVE","CA",91946,NA,NA,438,"PO BOX1264, LEMON GROVE, CA, 91946","No_Match",NA,NA,NA,NA
1000439,"PO BOX127","WAINSCOTT","NY",11975,NA,NA,439,"PO BOX127, WAINSCOTT, NY, 11975","No_Match",NA,NA,NA,NA
1000440,"PO BOX13","LISBON","OH",44432,NA,NA,440,"PO BOX13, LISBON, OH, 44432","No_Match",NA,NA,NA,NA
1000441,"PO BOX1307","SANTA MONICA","CA",90406,NA,NA,441,"PO BOX1307, SANTA MONICA, CA, 90406","No_Match",NA,NA,NA,NA
1000442,"PO BOX1351","STOCKTON","CA",95201,NA,NA,442,"PO BOX1351, STOCKTON, CA, 95201","No_Match",NA,NA,NA,NA
1000443,"PO BOX13974","SAN DIEGO","CA",92170,NA,NA,443,"PO BOX13974, SAN DIEGO, CA, 92170","No_Match",NA,NA,NA,NA
1000444,"PO BOX140","WASHOUGAL","WA",98671,NA,NA,444,"PO BOX140, WASHOUGAL, WA, 98671","No_Match",NA,NA,NA,NA
1000445,"PO BOX1421","PORT ORFORD","OR",97465,NA,NA,445,"PO BOX1421, PORT ORFORD, OR, 97465","No_Match",NA,NA,NA,NA
1000446,"PO BOX143","ESMOND","ND",58332,NA,NA,446,"PO BOX143, ESMOND, ND, 58332","No_Match",NA,NA,NA,NA
1000447,"PO BOX1477","TITUSVILLE","FL",32780,NA,NA,447,"PO BOX1477, TITUSVILLE, FL, 32780","No_Match",NA,NA,NA,NA
1000448,"PO BOX1491","FORSYTH","MT",59327,NA,NA,448,"PO BOX1491, FORSYTH, MT, 59327","No_Match",NA,NA,NA,NA
1000449,"PO BOX1495","LARAMIE","WY",82073,NA,NA,449,"PO BOX1495, LARAMIE, WY, 82073","No_Match",NA,NA,NA,NA
1000450,"PO BOX15","SOUTH PEKIN","IL",61564,NA,NA,450,"PO BOX15, SOUTH PEKIN, IL, 61564","No_Match",NA,NA,NA,NA
1000451,"PO BOX1517","PAUMA VALLEY","CA",92061,NA,NA,451,"PO BOX1517, PAUMA VALLEY, CA, 92061","No_Match",NA,NA,NA,NA
1000452,"PO BOX15249","SEATTLE","WA",98115,NA,NA,452,"PO BOX15249, SEATTLE, WA, 98115","No_Match",NA,NA,NA,NA
1000453,"PO BOX153","PAW CREEK","NC",28130,NA,NA,453,"PO BOX153, PAW CREEK, NC, 28130","No_Match",NA,NA,NA,NA
1000454,"PO BOX155","ACME","WA",98220,NA,NA,454,"PO BOX155, ACME, WA, 98220","No_Match",NA,NA,NA,NA
1000455,"PO BOX155","MOUNT TABOR","NJ",7878,NA,NA,455,"PO BOX155, MOUNT TABOR, NJ, 7878","No_Match",NA,NA,NA,NA
1000456,"PO BOX160","CHIPLEY","FL",32428,NA,NA,456,"PO BOX160, CHIPLEY, FL, 32428","No_Match",NA,NA,NA,NA
1000457,"PO BOX1626","GRASS VALLEY","CA",95945,NA,NA,457,"PO BOX1626, GRASS VALLEY, CA, 95945","No_Match",NA,NA,NA,NA
1000458,"PO BOX164","BLACK MOUNTAIN","NC",28711,NA,NA,458,"PO BOX164, BLACK MOUNTAIN, NC, 28711","No_Match",NA,NA,NA,NA
1000459,"PO BOX1653","LAS VEGAS","NM",87701,NA,NA,459,"PO BOX1653, LAS VEGAS, NM, 87701","No_Match",NA,NA,NA,NA
1000460,"PO BOX16596","TAMPA","FL",33687,NA,NA,460,"PO BOX16596, TAMPA, FL, 33687","No_Match",NA,NA,NA,NA
1000461,"PO BOX167","MANSFIELD","LA",71052,NA,NA,461,"PO BOX167, MANSFIELD, LA, 71052","No_Match",NA,NA,NA,NA
1000462,"PO BOX1673","TONOPAH","NV",89049,NA,NA,462,"PO BOX1673, TONOPAH, NV, 89049","No_Match",NA,NA,NA,NA
1000463,"PO BOX170302","MILWAUKEE","WI",53217,NA,NA,463,"PO BOX170302, MILWAUKEE, WI, 53217","No_Match",NA,NA,NA,NA
1000464,"PO BOX1746","ALBRIGHTSVILLE","PA",18210,NA,NA,464,"PO BOX1746, ALBRIGHTSVILLE, PA, 18210","No_Match",NA,NA,NA,NA
1000465,"PO BOX1824","FORT COLLINS","CO",80522,NA,NA,465,"PO BOX1824, FORT COLLINS, CO, 80522","No_Match",NA,NA,NA,NA
1000466,"PO BOX1838","SPLENDORA","TX",77372,NA,NA,466,"PO BOX1838, SPLENDORA, TX, 77372","No_Match",NA,NA,NA,NA
1000467,"PO BOX184","PORTSMOUTH","OH",45662,NA,NA,467,"PO BOX184, PORTSMOUTH, OH, 45662","No_Match",NA,NA,NA,NA
1000468,"PO BOX1841","WAILUKU","HI",96793,NA,NA,468,"PO BOX1841, WAILUKU, HI, 96793","No_Match",NA,NA,NA,NA
1000469,"PO BOX1851","WEST DOVER","VT",5356,NA,NA,469,"PO BOX1851, WEST DOVER, VT, 5356","No_Match",NA,NA,NA,NA
1000470,"PO BOX1930","CROSSETT","AR",71635,NA,NA,470,"PO BOX1930, CROSSETT, AR, 71635","No_Match",NA,NA,NA,NA
1000471,"PO BOX194","THONOSASSA","FL",33592,NA,NA,471,"PO BOX194, THONOSASSA, FL, 33592","No_Match",NA,NA,NA,NA
1000472,"PO BOX201812","AUSTIN","TX",78720,NA,NA,472,"PO BOX201812, AUSTIN, TX, 78720","No_Match",NA,NA,NA,NA
1000473,"PO BOX20252","TAMPA","FL",33622,NA,NA,473,"PO BOX20252, TAMPA, FL, 33622","No_Match",NA,NA,NA,NA
1000474,"PO BOX2185","RENO","NV",89505,NA,NA,474,"PO BOX2185, RENO, NV, 89505","No_Match",NA,NA,NA,NA
1000475,"PO BOX221","ESMOND","ND",58332,NA,NA,475,"PO BOX221, ESMOND, ND, 58332","No_Match",NA,NA,NA,NA
1000476,"PO BOX2316","STREETSBORO","OH",44241,NA,NA,476,"PO BOX2316, STREETSBORO, OH, 44241","No_Match",NA,NA,NA,NA
1000477,"PO BOX239","WELCOME","NC",27374,NA,NA,477,"PO BOX239, WELCOME, NC, 27374","No_Match",NA,NA,NA,NA
1000478,"PO BOX24089","PITTSBURGH","PA",15206,NA,NA,478,"PO BOX24089, PITTSBURGH, PA, 15206","No_Match",NA,NA,NA,NA
1000479,"PO BOX26255","CHRISTIANSTED","VI",824,NA,NA,479,"PO BOX26255, CHRISTIANSTED, VI, 824","No_Match",NA,NA,NA,NA
1000480,"PO BOX268","RENTZ","GA",31075,NA,NA,480,"PO BOX268, RENTZ, GA, 31075","No_Match",NA,NA,NA,NA
1000481,"PO BOX28033","SEATTLE","WA",98118,NA,NA,481,"PO BOX28033, SEATTLE, WA, 98118","No_Match",NA,NA,NA,NA
1000482,"PO BOX294076","SACRAMENTO","CA",95829,NA,NA,482,"PO BOX294076, SACRAMENTO, CA, 95829","No_Match",NA,NA,NA,NA
1000483,"PO BOX311","SHOSHONE","ID",83352,NA,NA,483,"PO BOX311, SHOSHONE, ID, 83352","No_Match",NA,NA,NA,NA
1000484,"PO BOX312909 SOUTH MAINSTREET","PADEN","OK",74860,NA,NA,484,"PO BOX312909 SOUTH MAINSTREET, PADEN, OK, 74860","No_Match",NA,NA,NA,NA
1000485,"PO BOX317","ARROYO HONDO","NM",87513,NA,NA,485,"PO BOX317, ARROYO HONDO, NM, 87513","No_Match",NA,NA,NA,NA
1000486,"PO BOX3225","WORCESTER","MA",1613,NA,NA,486,"PO BOX3225, WORCESTER, MA, 1613","No_Match",NA,NA,NA,NA
1000487,"PO BOX323","BLACK CANYON CITY","AZ",85324,NA,NA,487,"PO BOX323, BLACK CANYON CITY, AZ, 85324","No_Match",NA,NA,NA,NA
1000488,"PO BOX331","MATAWAN","NJ",7747,NA,NA,488,"PO BOX331, MATAWAN, NJ, 7747","No_Match",NA,NA,NA,NA
1000489,"PO BOX342","HOLDERNESS","NH",3245,NA,NA,489,"PO BOX342, HOLDERNESS, NH, 3245","No_Match",NA,NA,NA,NA
1000490,"PO BOX347","CROWLEY","TX",76036,NA,NA,490,"PO BOX347, CROWLEY, TX, 76036","No_Match",NA,NA,NA,NA
1000491,"PO BOX348","DETROIT LAKES","MN",56502,NA,NA,491,"PO BOX348, DETROIT LAKES, MN, 56502","No_Match",NA,NA,NA,NA
1000492,"PO BOX359","DIXFIELD","ME",4224,NA,NA,492,"PO BOX359, DIXFIELD, ME, 4224","No_Match",NA,NA,NA,NA
1000493,"PO BOX361","ANNABELLA","UT",84711,NA,NA,493,"PO BOX361, ANNABELLA, UT, 84711","No_Match",NA,NA,NA,NA
1000494,"PO BOX370190","MONTARA","CA",94037,NA,NA,494,"PO BOX370190, MONTARA, CA, 94037","No_Match",NA,NA,NA,NA
1000495,"PO BOX371","TIMNATH","CO",80547,NA,NA,495,"PO BOX371, TIMNATH, CO, 80547","No_Match",NA,NA,NA,NA
1000496,"PO BOX373","MUMFORD","NY",14511,NA,NA,496,"PO BOX373, MUMFORD, NY, 14511","No_Match",NA,NA,NA,NA
1000497,"PO BOX37612","SHREVEPORT","LA",71133,NA,NA,497,"PO BOX37612, SHREVEPORT, LA, 71133","No_Match",NA,NA,NA,NA
1000498,"PO BOX3946","SPARKS","NV",89432,NA,NA,498,"PO BOX3946, SPARKS, NV, 89432","No_Match",NA,NA,NA,NA
1000499,"PO BOX401743","LAS VEGAS","NV",89140,NA,NA,499,"PO BOX401743, LAS VEGAS, NV, 89140","No_Match",NA,NA,NA,NA
1000500,"PO BOX415","BOYD","TX",76023,NA,NA,500,"PO BOX415, BOYD, TX, 76023","No_Match",NA,NA,NA,NA
