"ID","Address","City","State","Zip","lat","long","id","input_address","match_indicator","match_type","matched_address","tiger_line_id","tiger_side"
798501,"667 RTE 114","SOUTH SUTTON","NH",3273,43.3190450390001,-71.934477622,1,"667 RTE 114, SOUTH SUTTON, NH, 3273","Match","Non_Exact","667 STATE RTE 114, SOUTH SUTTON, NH, 03273",117709352,"L"
798502,"667 S 22ND AVE","BRIGHTON","CO",80601,39.9739702480001,-104.7941389,2,"667 S 22ND AVE, BRIGHTON, CO, 80601","Match","Exact","667 S 22ND AVE, BRIGHTON, CO, 80601",177412027,"R"
798503,"667 S DETROIT APT 409","LOS ANGELES","CA",90036,NA,NA,3,"667 S DETROIT APT 409, LOS ANGELES, CA, 90036","No_Match",NA,NA,NA,NA
798504,"667 SE BARNES","GRESHAM","OR",97080,45.4918884530001,-122.392627579,4,"667 SE BARNES, GRESHAM, OR, 97080","Match","Non_Exact","667 SE BARNES AVE, GRESHAM, OR, 97080",157530983,"R"
798505,"667 SENECA ST","VOLO","IL",60073,42.3188446340001,-88.142107535,5,"667 SENECA ST, VOLO, IL, 60073","Match","Exact","667 SENECA ST, VOLO, IL, 60073",601203224,"R"
798506,"667 SEQUOIA VALLEY RD","MILL VALLEY","CA",94941,37.8992330300001,-122.558518233,6,"667 SEQUOIA VALLEY RD, MILL VALLEY, CA, 94941","Match","Exact","667 SEQUOIA VALLEY RD, MILL VALLEY, CA, 94941",647377112,"L"
798507,"667 SEVEN DEVILS RD","RIGGINS","ID",83549,45.40988055,-116.386413229,7,"667 SEVEN DEVILS RD, RIGGINS, ID, 83549","Match","Exact","667 SEVEN DEVILS RD, RIGGINS, ID, 83549",195970774,"R"
798508,"667 SHORE DRIVE","COLUMBUS","OH",43229,40.080743683,-82.999601736,8,"667 SHORE DRIVE, COLUMBUS, OH, 43229","Match","Exact","667 SHORE DR, COLUMBUS, OH, 43229",218695753,"R"
798509,"667 SOUTH BUTLER STREET","EAGAR","AZ",85925,34.0994734880001,-109.287286496,9,"667 SOUTH BUTLER STREET, EAGAR, AZ, 85925","Match","Exact","667 S BUTLER ST, EAGAR, AZ, 85925",172176212,"R"
798510,"667 SOUTH JUNE ST","LOS ANGELES","CA",90005,34.0630707380001,-118.334749549,10,"667 SOUTH JUNE ST, LOS ANGELES, CA, 90005","Match","Exact","667 S JUNE ST, LOS ANGELES, CA, 90005",642863813,"R"
798511,"667 SOUTH RICE ROAD","OJAI","CA",93023,34.4429720750001,-119.291513018,11,"667 SOUTH RICE ROAD, OJAI, CA, 93023","Match","Exact","667 S RICE RD, OJAI, CA, 93023",109982639,"L"
798512,"667 SOUTH STREET","WRENTHAM","MA",2093,42.0524013630001,-71.3435017909999,12,"667 SOUTH STREET, WRENTHAM, MA, 2093","Match","Exact","667 SOUTH ST, WRENTHAM, MA, 02093",87261143,"L"
798513,"667 STEINMAN DRIVE","LANCASTER","PA",17603,40.0482107770001,-76.3482506249999,13,"667 STEINMAN DRIVE, LANCASTER, PA, 17603","Match","Exact","667 STEINMAN DR, LANCASTER, PA, 17603",179661037,"L"
798514,"667 STONEBURY CIRCLE","BLYTHEWOOD","SC",29016,34.150314053,-80.982641168,14,"667 STONEBURY CIRCLE, BLYTHEWOOD, SC, 29016","Match","Non_Exact","667 STONEBURRY CIRCL, BLYTHEWOOD, SC, 29016",627709462,"R"
798515,"667 SUNNYSIDE DRIVE","AKRON","OH",44303,41.1124392510001,-81.539766718,15,"667 SUNNYSIDE DRIVE, AKRON, OH, 44303","Match","Non_Exact","667 SUNNYSIDE AVE, AKRON, OH, 44303",61339649,"R"
798516,"667 TERRA LN","AMHERST","OH",44001,41.408326049,-82.216845925,16,"667 TERRA LN, AMHERST, OH, 44001","Match","Exact","667 TERRA LN, AMHERST, OH, 44001",55405038,"R"
798517,"667 TIVOLI ROAD","FREDERICK","MD",21703,39.393234314,-77.4330498859999,17,"667 TIVOLI ROAD, FREDERICK, MD, 21703","Match","Exact","667 TIVOLI RD, FREDERICK, MD, 21703",624487172,"R"
798518,"667 TRAVIS AVENUE","STATEN ISLAND","NY",10314,40.5923837460001,-74.161131122,18,"667 TRAVIS AVENUE, STATEN ISLAND, NY, 10314","Match","Exact","667 TRAVIS AVE, STATEN ISLAND, NY, 10314",59881974,"R"
798519,"667 TREECE GULCH","STEVENSVILLE","MT",59870,46.4667656,-114.061101195,19,"667 TREECE GULCH, STEVENSVILLE, MT, 59870","Match","Non_Exact","667 TREECE GULCH RD, STEVENSVILLE, MT, 59870",153532820,"R"
798520,"667 TURNBURRY LN","ANTIOCH","IL",60002,42.485616447,-88.115589814,20,"667 TURNBURRY LN, ANTIOCH, IL, 60002","Match","Exact","667 TURNBURRY LN, ANTIOCH, IL, 60002",119712670,"L"
798521,"667 VALLANCE WAY NE","SAINT PETERSBURG","FL",33716,27.8739264340001,-82.626378603,21,"667 VALLANCE WAY NE, SAINT PETERSBURG, FL, 33716","Match","Exact","667 VALLANCE WAY NE, SAINT PETERSBURG, FL, 33716",643905908,"R"
798522,"667 W 177TH STREET APT 41","NEW YORK","NY",10033,40.8474263410001,-73.937266426,22,"667 W 177TH STREET APT 41, NEW YORK, NY, 10033","Match","Non_Exact","667 W 177TH ST, NEW YORK, NY, 10033",59655607,"R"
798523,"667 W LINCOLN AVE","RAHWAY","NJ",8854,NA,NA,23,"667 W LINCOLN AVE, RAHWAY, NJ, 8854","No_Match",NA,NA,NA,NA
798524,"667 WARREN ROAD","MOHAWK","NY",13407,42.991628016,-75.0238828179999,24,"667 WARREN ROAD, MOHAWK, NY, 13407","Match","Exact","667 WARREN RD, MOHAWK, NY, 13407",153741436,"L"
798525,"667 WASHINGTON BLVD","BALTIMORE","MD",21230,39.2838808710001,-76.6253990499999,25,"667 WASHINGTON BLVD, BALTIMORE, MD, 21230","Match","Exact","667 WASHINGTON BLVD, BALTIMORE, MD, 21230",639169031,"L"
798526,"667 WELIG COURT","GRAND JUNCTION","CO",81504,39.099314561,-108.508508387,26,"667 WELIG COURT, GRAND JUNCTION, CO, 81504","Match","Exact","667 WELIG CT, GRAND JCT, CO, 81504",122466741,"L"
798527,"667 WEST  LINCOLN AVE","RAHWAY","NJ",7065,40.6209888220001,-74.276480642,27,"667 WEST  LINCOLN AVE, RAHWAY, NJ, 7065","Match","Exact","667 W LINCOLN AVE, RAHWAY, NJ, 07065",60562511,"R"
798528,"667 WEST 161 STREET APT5G","NEW YORK","NY",10032,40.837598621,-73.945520989,28,"667 WEST 161 STREET APT5G, NEW YORK, NY, 10032","Match","Exact","667 W 161ST ST, NEW YORK, NY, 10032",59655436,"R"
798529,"667 WEST GALLAGHER RD","WEST BRANCH","MI",48661,44.262714492,-84.151924922,29,"667 WEST GALLAGHER RD, WEST BRANCH, MI, 48661","Match","Exact","667 W GALLAGHER RD, WEST BRANCH, MI, 48661",635489412,"R"
798530,"667 WEST SONOMA AVENUE","STOCKTON","CA",95204,37.9770688500001,-121.308053783,30,"667 WEST SONOMA AVENUE, STOCKTON, CA, 95204","Match","Exact","667 W SONOMA AVE, STOCKTON, CA, 95204",133848103,"R"
798531,"667 WYNKOOP AVENUE","HUNTINGTON VALLEY","PA",19006,40.123782652,-75.065037607,31,"667 WYNKOOP AVENUE, HUNTINGTON VALLEY, PA, 19006","Match","Non_Exact","667 WYNKOOP AVE, HUNTINGDON VALLEY, PA, 19006",135095741,"R"
798532,"667","MEMPHIS","TN",38107,NA,NA,32,"667, MEMPHIS, TN, 38107","No_Match",NA,NA,NA,NA
798533,"6670 A PUUPILO PL","KAPAA","HI",96746,22.0616838330001,-159.381939961,33,"6670 A PUUPILO PL, KAPAA, HI, 96746","Match","Exact","6670 PUUPILO PL, KAPAA, HI, 96746",614439500,"L"
798534,"6670 AINTREE CR","DALLAS","TX",75214,32.85282619,-96.744820675,34,"6670 AINTREE CR, DALLAS, TX, 75214","Match","Exact","6670 AINTREE CIR, DALLAS, TX, 75214",103171483,"R"
798535,"6670 BLACK FOREST DRIVE","EASTVALE","CA",92880,33.967576577,-117.573889433,35,"6670 BLACK FOREST DRIVE, EASTVALE, CA, 92880","Match","Exact","6670 BLACK FOREST DR, EASTVALE, CA, 92880",629828237,"R"
798536,"6670 CHASE LAKE ROAD","FOWLERVILLE","MI",48836,42.699819131,-84.050146205,36,"6670 CHASE LAKE ROAD, FOWLERVILLE, MI, 48836","Match","Exact","6670 CHASE LAKE RD, FOWLERVILLE, MI, 48836",23565715,"L"
798537,"6670 DANA DR","MACON","GA",31220,32.834089443,-83.778993477,37,"6670 DANA DR, MACON, GA, 31220","Match","Exact","6670 DANA DR, MACON, GA, 31220",81081481,"L"
798538,"6670 DOWNS ROAD NORTH","HARRINGTON","WA",99134,47.356110825,-118.401452139,38,"6670 DOWNS ROAD NORTH, HARRINGTON, WA, 99134","Match","Exact","6670 DOWNS RD N, HARRINGTON, WA, 99134",607289750,"R"
798539,"6670 GEORGIA AVENUE NW","WASHINGTON","DC",20012,38.971608449,-77.027107682,39,"6670 GEORGIA AVENUE NW, WASHINGTON, DC, 20012","Match","Exact","6670 GEORGIA AVE NW, WASHINGTON, DC, 20012",76221792,"L"
798540,"6670 GULF OF MEXICO DR","LONGBOAT KEY","FL",47406,27.4295391900001,-82.680130692,40,"6670 GULF OF MEXICO DR, LONGBOAT KEY, FL, 47406","Match","Non_Exact","6670 GULF OF MEXICO DR, LONGBOAT KEY, FL, 34228",16276113,"R"
798541,"6670 HIGH HILL CIRCLE","RACINE","WI",53402,42.8072136050001,-87.818896261,41,"6670 HIGH HILL CIRCLE, RACINE, WI, 53402","Match","Exact","6670 HIGH HILL CIR, RACINE, WI, 53402",77916269,"R"
798542,"6670 HIGHWAY 1693","WELLINGTON","KY",40387,37.9775849260001,-83.471229659,42,"6670 HIGHWAY 1693, WELLINGTON, KY, 40387","Match","Exact","6670 HWY 1693, WELLINGTON, KY, 40387",43441037,"R"
798543,"6670 KIMBERLY MILL RD","COLLEGE PARK","GA",30349,33.573864912,-84.4896906769999,43,"6670 KIMBERLY MILL RD, COLLEGE PARK, GA, 30349","Match","Exact","6670 KIMBERLY MILL RD, COLLEGE PARK, GA, 30349",17351387,"L"
798544,"6670 LINCOLN DRIVE","PHILADELPHIA","PA",19119,40.044984936,-75.192925949,44,"6670 LINCOLN DRIVE, PHILADELPHIA, PA, 19119","Match","Exact","6670 LINCOLN DR, PHILADELPHIA, PA, 19119",131394591,"L"
798545,"6670 LUCIA LANE NORTHEAST 6","FRIDLEY","MN",55432,45.089565844,-93.241885474,45,"6670 LUCIA LANE NORTHEAST 6, FRIDLEY, MN, 55432","Match","Exact","6670 LUCIA LN NE, FRIDLEY, MN, 55432",97511865,"L"
798546,"6670 MOSCOW","JEROME","MI",49249,41.997309251,-84.5064433649999,46,"6670 MOSCOW, JEROME, MI, 49249","Match","Non_Exact","6670 MOSCOW RD, JEROME, MI, 49249",8294230,"L"
798547,"6670 NE BAYVIEW BLVD","BAINBRIDGE ISLAND","WA",98110,47.6731291400001,-122.560842029,47,"6670 NE BAYVIEW BLVD, BAINBRIDGE ISLAND, WA, 98110","Match","Exact","6670 NE BAYVIEW BLVD, BAINBRIDGE ISLAND, WA, 98110",187666964,"R"
798548,"6670 OLD RIVER TRAIL","LANSING","MI",48917,42.7604317080001,-84.646009783,48,"6670 OLD RIVER TRAIL, LANSING, MI, 48917","Match","Exact","6670 OLD RIVER TRL, LANSING, MI, 48917",12034393,"R"
798549,"6670 PEACHTREE INDUST BLVD APT A","ATLANTA","GA",30360,NA,NA,49,"6670 PEACHTREE INDUST BLVD APT A, ATLANTA, GA, 30360","No_Match",NA,NA,NA,NA
798550,"6670 PEACHTREE INDUSTRIAL BLVD E","DUNWOODY","GA",30360,33.926271722,-84.2759064909999,50,"6670 PEACHTREE INDUSTRIAL BLVD E, DUNWOODY, GA, 30360","Match","Non_Exact","6670 PEACHTREE INDUSTRIAL BLVD, DUNWOODY, GA, 30360",23389484,"L"
798551,"6670 PTREE INDUSTRIAL BLVD APT H","DUNWOODY","GA",30360,NA,NA,51,"6670 PTREE INDUSTRIAL BLVD APT H, DUNWOODY, GA, 30360","No_Match",NA,NA,NA,NA
798552,"6670 REGENTS PARK DRIVE","ZIONSVILLE","IN",46077,39.954269138,-86.328712477,52,"6670 REGENTS PARK DRIVE, ZIONSVILLE, IN, 46077","Match","Exact","6670 REGENTS PARK DR, ZIONSVILLE, IN, 46077",610974145,"R"
798553,"6670 SOUTH BRAINARD UNIT 106","COUNTRYSIDE","IL",60525,41.770312808,-87.877378058,53,"6670 SOUTH BRAINARD UNIT 106, COUNTRYSIDE, IL, 60525","Match","Non_Exact","6670 S BRAINARD AVE, COUNTRYSIDE, IL, 60525",111867528,"R"
798554,"6670 SW AMBER LN","PORTLAND","OR",97225,45.4820186260001,-122.745902069,54,"6670 SW AMBER LN, PORTLAND, OR, 97225","Match","Exact","6670 SW AMBER LN, PORTLAND, OR, 97225",605220850,"L"
798555,"6670 SW FOOD BRIDGE RD","HILLSBORO","OR",97123,NA,NA,55,"6670 SW FOOD BRIDGE RD, HILLSBORO, OR, 97123","No_Match",NA,NA,NA,NA
798556,"6670 WASHINGTON CIRCLE","FRANKLIN","OH",45005,39.5010408360001,-84.332787787,56,"6670 WASHINGTON CIRCLE, FRANKLIN, OH, 45005","Match","Exact","6670 WASHINGTON CIR, FRANKLIN, OH, 45005",159044123,"R"
798557,"6670","TULSA","OK",74136,NA,NA,57,"6670, TULSA, OK, 74136","No_Match",NA,NA,NA,NA
798558,"66701 NOTREDAME","WASHINGTON","MI",48095,NA,NA,58,"66701 NOTREDAME, WASHINGTON, MI, 48095","No_Match",NA,NA,NA,NA
798559,"66703 M62 N","EDWARDSBURG","MI",49112,41.8292127780001,-86.0512322279999,59,"66703 M62 N, EDWARDSBURG, MI, 49112","Match","Non_Exact","66703 M 62, EDWARDSBURG, MI, 49112",22588381,"L"
798560,"66703 QUENTON DR","CALIFORNIA","MO",65025,NA,NA,60,"66703 QUENTON DR, CALIFORNIA, MO, 65025","No_Match",NA,NA,NA,NA
798561,"6671 68TH STREET E","BRADENTON","FL",34203,27.421720656,-82.4718388599999,61,"6671 68TH STREET E, BRADENTON, FL, 34203","Match","Exact","6671 68TH ST E, BRADENTON, FL, 34203",16270922,"L"
798562,"6671 AFTON RD","BAXTER","MN",56425,46.366377207,-94.261913314,62,"6671 AFTON RD, BAXTER, MN, 56425","Match","Exact","6671 AFTON RD, BAXTER, MN, 56425",162856150,"R"
798563,"6671 ALTESINO DR","SPARKS","NV",89436,39.612915738,-119.6722044,63,"6671 ALTESINO DR, SPARKS, NV, 89436","Match","Exact","6671 ALTESINO DR, SPARKS, NV, 89436",600718795,"R"
798564,"6671 CREST ROAD","RANCHO PALOS VERDES","CA",90275,NA,NA,64,"6671 CREST ROAD, RANCHO PALOS VERDES, CA, 90275","No_Match",NA,NA,NA,NA
798565,"6671 FAIRWAY RIDGE DRIVE","DOUGLASVILLE","GA",30134,33.735846607,-84.75005698,65,"6671 FAIRWAY RIDGE DRIVE, DOUGLASVILLE, GA, 30134","Match","Exact","6671 FAIRWAY RIDGE DR, DOUGLASVILLE, GA, 30134",16655298,"L"
798566,"6671 FOXWOOD CT","SACRAMENTO","CA",95841,NA,NA,66,"6671 FOXWOOD CT, SACRAMENTO, CA, 95841","No_Match",NA,NA,NA,NA
798567,"6671 GILFILLAN AVENUE","FONTANA","CA",92336,34.133613783,-117.467680474,67,"6671 GILFILLAN AVENUE, FONTANA, CA, 92336","Match","Non_Exact","6671 GILFILLAN DR, FONTANA, CA, 92336",649794147,"R"
798568,"6671 HWY 36","JOES","CO",80822,39.6558872320001,-102.67579754,68,"6671 HWY 36, JOES, CO, 80822","Match","Non_Exact","6671 US HWY 36, JOES, CO, 80822",161468798,"R"
798569,"6671 MARILYN DRIVE","HUNTINGTON BEACH","CA",92647,33.7180751430001,-118.01186328,69,"6671 MARILYN DRIVE, HUNTINGTON BEACH, CA, 92647","Match","Exact","6671 MARILYN DR, HUNTINGTON BEACH, CA, 92647",144255174,"L"
798570,"6671 OAK RIDGE TRAIL","BLACKSHEAR","GA",31516,NA,NA,70,"6671 OAK RIDGE TRAIL, BLACKSHEAR, GA, 31516","No_Match",NA,NA,NA,NA
798571,"6671 PINE HOLLOW DRIVE","WESTERVILLE","OH",43082,40.1501980040001,-82.90846432,71,"6671 PINE HOLLOW DRIVE, WESTERVILLE, OH, 43082","Match","Exact","6671 PINE HOLLOW DR, WESTERVILLE, OH, 43082",24595080,"R"
798572,"6671 PRESIDENTIAL DRIVE","JACKSON","MS",39212,32.377227169,-90.2566214569999,72,"6671 PRESIDENTIAL DRIVE, JACKSON, MS, 39212","Match","Non_Exact","6671 PRESIDENTIAL DR, JACKSON, MS, 39213",65359369,"L"
798573,"6671 RIVER FALLS DR S","JACKSONVILLE","FL",32219,NA,NA,73,"6671 RIVER FALLS DR S, JACKSONVILLE, FL, 32219","No_Match",NA,NA,NA,NA
798574,"6671 SE ALDERCREST CT","MILWAUKIE","OR",97267,45.411547022,-122.595518247,74,"6671 SE ALDERCREST CT, MILWAUKIE, OR, 97267","Match","Exact","6671 SE ALDERCREST CT, MILWAUKIE, OR, 97267",157916688,"L"
798575,"6671 SUNSET BLVD","LOS ANGELES","CA",99028,NA,NA,75,"6671 SUNSET BLVD, LOS ANGELES, CA, 99028","No_Match",NA,NA,NA,NA
798576,"6671 W INDIANTOWN RD STE 50 PMB 102","JUPITER","FL",33458,26.9344727910001,-80.1364235889999,76,"6671 W INDIANTOWN RD STE 50 PMB 102, JUPITER, FL, 33458","Match","Non_Exact","6671 W INDIANTOWN RD, JUPITER, FL, 33458",115532295,"L"
798577,"6671 W INDIANTOWN RD STE 50-396","JUPITER","FL",33458,26.9344727910001,-80.1364235889999,77,"6671 W INDIANTOWN RD STE 50-396, JUPITER, FL, 33458","Match","Non_Exact","6671 W INDIANTOWN RD, JUPITER, FL, 33458",115532295,"L"
798578,"6671 W SUNSET BLVD STE 1585 - 109","LOS ANGELES","CA",90028,34.0979846980001,-118.335637622,78,"6671 W SUNSET BLVD STE 1585 - 109, LOS ANGELES, CA, 90028","Match","Non_Exact","6671 W SUNSET BLVD, LOS ANGELES, CA, 90028",141599696,"R"
798579,"6671 W SUNSET BLVD SUITE 1585-109","LOS ANGELES","CA",90028,34.0979846980001,-118.335637622,79,"6671 W SUNSET BLVD SUITE 1585-109, LOS ANGELES, CA, 90028","Match","Non_Exact","6671 W SUNSET BLVD, LOS ANGELES, CA, 90028",141599696,"R"
798580,"66710 INDIAN HILLS WAY","SALOME","AZ",85348,33.7593625420001,-113.615517611,80,"66710 INDIAN HILLS WAY, SALOME, AZ, 85348","Match","Exact","66710 INDIAN HILLS WAY, SALOME, AZ, 85348",129742855,"R"
798581,"6672 DASHER CT","COLUMBIA","MD",21045,39.1882478300001,-76.833090833,81,"6672 DASHER CT, COLUMBIA, MD, 21045","Match","Exact","6672 DASHER CT, COLUMBIA, MD, 21045",158938173,"R"
798582,"6672 DOUG WILLIAMS AVENUE","COCOA","FL",32926,28.397366102,-80.842969239,82,"6672 DOUG WILLIAMS AVENUE, COCOA, FL, 32926","Match","Exact","6672 DOUG WILLIAMS AVE, COCOA, FL, 32926",93914224,"R"
798583,"6672 HUMMINGBIRD DRIVE","MASON","OH",45040,39.29838132,-84.347661546,83,"6672 HUMMINGBIRD DRIVE, MASON, OH, 45040","Match","Exact","6672 HUMMINGBIRD DR, MASON, OH, 45040",159036708,"R"
798584,"6672 LISBURN LANE","FRISCO","TX",75035,33.1328047120001,-96.75972797,84,"6672 LISBURN LANE, FRISCO, TX, 75035","Match","Non_Exact","6672 LISBURN DR, FRISCO, TX, 75035",641737022,"L"
798585,"6672 MOTTAR ROAD","ROCHESTER","IL",62563,39.6846612800001,-89.522757382,85,"6672 MOTTAR ROAD, ROCHESTER, IL, 62563","Match","Exact","6672 MOTTAR RD, ROCHESTER, IL, 62563",643406386,"R"
798586,"6672 NW 107TH CT","DORAL","FL",33178,25.834642268,-80.370723499,86,"6672 NW 107TH CT, DORAL, FL, 33178","Match","Exact","6672 NW 107TH CT, DORAL, FL, 33178",629014475,"L"
798587,"6672 ROCHELLE AVE","NEWARK","CA",94560,37.5405680110001,-122.046732151,87,"6672 ROCHELLE AVE, NEWARK, CA, 94560","Match","Exact","6672 ROCHELLE AVE, NEWARK, CA, 94560",125027301,"L"
798588,"6672 ROCHELLE","FREMONT","CA",94536,NA,NA,88,"6672 ROCHELLE, FREMONT, CA, 94536","No_Match",NA,NA,NA,NA
798589,"6672 RUBY ST","PLAINFIELD","IN",46168,39.6553570900001,-86.405732578,89,"6672 RUBY ST, PLAINFIELD, IN, 46168","Match","Exact","6672 RUBY ST, PLAINFIELD, IN, 46168",624965292,"R"
798590,"6672 S HILL WAY","LITTLETON","CO",80120,39.596289572,-105.011696509,90,"6672 S HILL WAY, LITTLETON, CO, 80120","Match","Exact","6672 S HILL WAY, LITTLETON, CO, 80120",177335759,"L"
798591,"66724 BROOKS ROAD","IMBLER","OR",97841,45.468192666,-117.96268931,91,"66724 BROOKS ROAD, IMBLER, OR, 97841","Match","Exact","66724 BROOKS RD, IMBLER, OR, 97841",630155306,"L"
798592,"6673 KALINOWSKI","TARAWA TERRACE","NC",28543,NA,NA,92,"6673 KALINOWSKI, TARAWA TERRACE, NC, 28543","No_Match",NA,NA,NA,NA
798593,"6673 KIRBY OAKS LANE","MEMPHIS","TN",38119,35.074715397,-89.840709053,93,"6673 KIRBY OAKS LANE, MEMPHIS, TN, 38119","Match","Exact","6673 KIRBY OAKS LN, MEMPHIS, TN, 38119",72936825,"R"
798594,"6673 ORLY CT","FONTANA","CA",92336,34.1324976020001,-117.470383937,94,"6673 ORLY CT, FONTANA, CA, 92336","Match","Exact","6673 ORLY CT, FONTANA, CA, 92336",144983965,"R"
798595,"6673 PINE POINT DRIVE","TINLEY PARK","IL",60477,41.581515822,-87.782121299,95,"6673 PINE POINT DRIVE, TINLEY PARK, IL, 60477","Match","Exact","6673 PINE POINT DR, TINLEY PARK, IL, 60477",111702948,"L"
798596,"6673 SAY KALLY RD","CHEYENNE","WY",82009,41.185094292,-104.727220765,96,"6673 SAY KALLY RD, CHEYENNE, WY, 82009","Match","Non_Exact","6673 SAYKALLY RD, CHEYENNE, WY, 82009",604965686,"R"
798597,"6673 SLUCKS ROAD","ELDERSBURG","MD",21784,39.392852976,-76.932199735,97,"6673 SLUCKS ROAD, ELDERSBURG, MD, 21784","Match","Non_Exact","6673 SLACKS RD, ELDERSBURG, MD, 21784",61760829,"R"
798598,"6673 STATE ROUTE 42","WOODBOURNE","NY",12788,41.7835975770001,-74.582809368,98,"6673 STATE ROUTE 42, WOODBOURNE, NY, 12788","Match","Exact","6673 STATE RTE 42, WOODBOURNE, NY, 12788",640442230,"L"
798599,"6673 VINING CREEK COVE","MEMPHIS","TN",38119,NA,NA,99,"6673 VINING CREEK COVE, MEMPHIS, TN, 38119","No_Match",NA,NA,NA,NA
798600,"6673 WALNUTWOOD CIRCLE","BALTIMORE","MD",21212,39.3760018900001,-76.6201022829999,100,"6673 WALNUTWOOD CIRCLE, BALTIMORE, MD, 21212","Match","Exact","6673 WALNUTWOOD CIR, BALTIMORE, MD, 21212",624950920,"L"
798601,"66730 WASHBURN WAY","SALOME","AZ",85348,33.7613473280001,-113.615535213,101,"66730 WASHBURN WAY, SALOME, AZ, 85348","Match","Non_Exact","66730 WASH BURN WAY, SALOME, AZ, 85348",639721440,"R"
798602,"66733 M62 N","EDWARDSBURG","MI",49112,41.8287363380001,-86.051500307,102,"66733 M62 N, EDWARDSBURG, MI, 49112","Match","Non_Exact","66733 M 62, EDWARDSBURG, MI, 49112",22588381,"L"
798603,"6674 CALHOUN 160","HAMPTON","AR",71744,NA,NA,103,"6674 CALHOUN 160, HAMPTON, AR, 71744","No_Match",NA,NA,NA,NA
798604,"6674 COLLINSDALE RD APT D","PARKVILLE","MD",21234,39.3786472420001,-76.5785839329999,104,"6674 COLLINSDALE RD APT D, PARKVILLE, MD, 21234","Match","Exact","6674 COLLINSDALE RD, PARKVILLE, MD, 21234",191475669,"L"
798605,"6674 COUNTY ROAD D","AMHERST","WI",54406,NA,NA,105,"6674 COUNTY ROAD D, AMHERST, WI, 54406","No_Match",NA,NA,NA,NA
798606,"6674 CRESCENT WOODS CIR","LAKELAND","FL",33813,NA,NA,106,"6674 CRESCENT WOODS CIR, LAKELAND, FL, 33813","No_Match",NA,NA,NA,NA
798607,"6674 CRESTVIEW","STOCKTON","CA",95219,38.0549670670001,-121.392586683,107,"6674 CRESTVIEW, STOCKTON, CA, 95219","Match","Non_Exact","6674 CRESTVIEW CIR, STOCKTON, CA, 95219",133930356,"L"
798608,"6674 E GALWAY","DIMONDALE","MI",48821,42.6638769080001,-84.6482313079999,108,"6674 E GALWAY, DIMONDALE, MI, 48821","Match","Non_Exact","6674 E GALWAY CIR, DIMONDALE, MI, 48821",12046813,"R"
798609,"6674 ENOLA AVE","KALAMAZOO","MI",49048,42.3205151220001,-85.499125626,109,"6674 ENOLA AVE, KALAMAZOO, MI, 49048","Match","Exact","6674 ENOLA AVE, KALAMAZOO, MI, 49048",12243595,"R"
798610,"6674 LAS FLORES DRIVE","BOCA RATON","FL",33433,26.359767063,-80.1481706179999,110,"6674 LAS FLORES DRIVE, BOCA RATON, FL, 33433","Match","Exact","6674 LAS FLORES DR, BOCA RATON, FL, 33433",115484959,"R"
798611,"6674 MEADOWLARK DRIVE","RIVERDALE","GA",30296,33.572592709,-84.42122001,111,"6674 MEADOWLARK DRIVE, RIVERDALE, GA, 30296","Match","Exact","6674 MEADOWLARK DR, RIVERDALE, GA, 30296",23319316,"L"
798612,"6674 PRUE RD APT 1902","SAN ANTONIO","TX",78240,29.544627232,-98.617894567,112,"6674 PRUE RD APT 1902, SAN ANTONIO, TX, 78240","Match","Exact","6674 PRUE RD, SAN ANTONIO, TX, 78240",648245856,"L"
798613,"6674 S ROME STREET","AURORA","CO",80016,39.5952411740001,-104.730682297,113,"6674 S ROME STREET, AURORA, CO, 80016","Match","Exact","6674 S ROME ST, AURORA, CO, 80016",177543247,"L"
798614,"6674 SNOW HILL ROAD","SNOW HILL","MD",21863,38.2264026060001,-75.467861429,114,"6674 SNOW HILL ROAD, SNOW HILL, MD, 21863","Match","Exact","6674 SNOW HILL RD, SNOW HILL, MD, 21863",114545685,"R"
798615,"6674 TRAQUAIR PLACE","DUBLIN","OH",43016,40.088072375,-83.168755317,115,"6674 TRAQUAIR PLACE, DUBLIN, OH, 43016","Match","Exact","6674 TRAQUAIR PL, DUBLIN, OH, 43016",218673575,"L"
798616,"6674 W CROSBECK CT","HERNANDO","FL",34446,28.795664179,-82.544407483,116,"6674 W CROSBECK CT, HERNANDO, FL, 34446","Match","Non_Exact","6674 W CROSBECK CT, HOMOSASSA, FL, 34446",86201065,"R"
798617,"6675 - 36th Ave SE","ST CLOUD","MN",56304,NA,NA,117,"6675 - 36th Ave SE, ST CLOUD, MN, 56304","No_Match",NA,NA,NA,NA
798618,"6675 29TH STREET SOUTH","SAINT PETERSBURG","FL",33712,27.708158982,-82.67219249,118,"6675 29TH STREET SOUTH, SAINT PETERSBURG, FL, 33712","Match","Exact","6675 29TH ST S, SAINT PETERSBURG, FL, 33712",124710485,"R"
798619,"6675 36TH AVE SE","ST CLOUD","MN",56304,45.473219418,-94.074042122,119,"6675 36TH AVE SE, ST CLOUD, MN, 56304","Match","Exact","6675 36TH AVE SE, SAINT CLOUD, MN, 56304",97766497,"L"
798620,"6675 BETHANY RIDGE","GUYSVILLE","OH",45735,39.284106367,-81.8731074029999,120,"6675 BETHANY RIDGE, GUYSVILLE, OH, 45735","Match","Non_Exact","6675 BETHANY RIDGE RD, GUYSVILLE, OH, 45735",37105890,"L"
798621,"6675 BRECKENRIDGE DRIVE","DOUGLASVILLE","GA",30134,33.767274695,-84.7451441919999,121,"6675 BRECKENRIDGE DRIVE, DOUGLASVILLE, GA, 30134","Match","Exact","6675 BRECKENRIDGE DR, DOUGLASVILLE, GA, 30134",633951449,"R"
798622,"6675 BRICKELL COURT","ORLANDO","FL",32809,28.4632552470001,-81.382838394,122,"6675 BRICKELL COURT, ORLANDO, FL, 32809","Match","Exact","6675 BRICKELL CT, ORLANDO, FL, 32809",94290664,"L"
798623,"6675 E 750TH ST","COLCHESTER","IL",62326,40.3818937190001,-90.765908877,123,"6675 E 750TH ST, COLCHESTER, IL, 62326","Match","Exact","6675 E 750TH ST, COLCHESTER, IL, 62326",5375267,"R"
798624,"6675 EAST FOX HOLLOW LANE","QUEEN CREEK","AZ",85140,33.1953936670001,-111.493489773,124,"6675 EAST FOX HOLLOW LANE, QUEEN CREEK, AZ, 85140","Match","Exact","6675 E FOX HOLLOW LN, QUEEN CREEK, AZ, 85140",129165350,"L"
798625,"6675 EAST HIGHWAY 11 SE","ELIZABETH","IN",47117,38.0826750090001,-86.0009733699999,125,"6675 EAST HIGHWAY 11 SE, ELIZABETH, IN, 47117","Match","Exact","6675 E HWY 11 SE, ELIZABETH, IN, 47117",34810879,"L"
798626,"6675 FAIRDALE DRIVE","CAMBRIDGE","OH",43725,40.0155977540001,-81.616850923,126,"6675 FAIRDALE DRIVE, CAMBRIDGE, OH, 43725","Match","Exact","6675 FAIRDALE DR, CAMBRIDGE, OH, 43725",37654059,"L"
798627,"6675 FAIRFAX ROAD","CHEVY CHASE","DC",20815,NA,NA,127,"6675 FAIRFAX ROAD, CHEVY CHASE, DC, 20815","No_Match",NA,NA,NA,NA
798628,"6675 FAIRFAX ROAD","CHEVY CHASE","MD",20815,38.9763151970001,-77.101397732,128,"6675 FAIRFAX ROAD, CHEVY CHASE, MD, 20815","Match","Exact","6675 FAIRFAX RD, CHEVY CHASE, MD, 20815",62077867,"R"
798629,"6675 GLENEDEN BEACH LOOP ROAD","GLENEDEN BEACH","OR",97388,44.8779258810001,-124.033137257,129,"6675 GLENEDEN BEACH LOOP ROAD, GLENEDEN BEACH, OR, 97388","Match","Exact","6675 GLENEDEN BEACH LOOP, GLENEDEN BEACH, OR, 97388",155957226,"L"
798630,"6675 JACKSON RUN ROAD","WARREN","PA",16365,41.914646754,-79.2601456149999,130,"6675 JACKSON RUN ROAD, WARREN, PA, 16365","Match","Exact","6675 JACKSON RUN RD, WARREN, PA, 16365",98674428,"L"
798631,"6675 JAMESTOWN","HORNLAKE","MS",38637,34.957535013,-90.060059092,131,"6675 JAMESTOWN, HORNLAKE, MS, 38637","Match","Non_Exact","6675 JAMESTOWN AVE, HORN LAKE, MS, 38637",91824263,"R"
798632,"6675 MARSHALL ROAD","SAINT LEONARD","MD",20685,38.442460919,-76.526037021,132,"6675 MARSHALL ROAD, SAINT LEONARD, MD, 20685","Match","Exact","6675 MARSHALL RD, SAINT LEONARD, MD, 20685",78182661,"L"
798633,"6675 NORTH PARK CIRCLE","SHREVEPORT","LA",71107,32.6088833260001,-93.8812891649999,133,"6675 NORTH PARK CIRCLE, SHREVEPORT, LA, 71107","Match","Exact","6675 N PARK CIR, SHREVEPORT, LA, 71107",57460023,"L"
798634,"6675 OLD GAY HILL RD","BRENHAM","TX",77833,30.2396362310001,-96.457085309,134,"6675 OLD GAY HILL RD, BRENHAM, TX, 77833","Match","Exact","6675 OLD GAY HILL RD, BRENHAM, TX, 77833",39259369,"L"
798635,"6675 PLANTATION WAY","CINCINNATI","OH",45224,39.212233865,-84.528071081,135,"6675 PLANTATION WAY, CINCINNATI, OH, 45224","Match","Exact","6675 PLANTATION WAY, CINCINNATI, OH, 45224",103923251,"R"
798636,"6675 QUINTARA DRIVE","INDIANAPOLIS","IN",46260,39.8781293050001,-86.182423516,136,"6675 QUINTARA DRIVE, INDIANAPOLIS, IN, 46260","Match","Exact","6675 QUINTARA DR, INDIANAPOLIS, IN, 46260",636092703,"L"
798637,"6675 SW 155TH AVE","BEAVERTON","OR",97007,45.471967503,-122.837433446,137,"6675 SW 155TH AVE, BEAVERTON, OR, 97007","Match","Exact","6675 SW 155TH AVE, BEAVERTON, OR, 97007",635628758,"R"
798638,"6675 SW 96TH STREET","PINECREST","FL",33156,25.6817428580001,-80.3022295329999,138,"6675 SW 96TH STREET, PINECREST, FL, 33156","Match","Exact","6675 SW 96TH ST, PINECREST, FL, 33156",115985502,"R"
798639,"6675","RIDGELAND","MS",30157,NA,NA,139,"6675, RIDGELAND, MS, 30157","No_Match",NA,NA,NA,NA
798640,"66757 GREAT RIVER ROAD","JACOBSON","MN",55752,46.980422036,-93.2962384799999,140,"66757 GREAT RIVER ROAD, JACOBSON, MN, 55752","Match","Exact","66757 GREAT RIVER RD, JACOBSON, MN, 55752",640408865,"L"
798641,"6676 FEDER RD","GALLOWAY","OH",43119,39.973571953,-83.1843296169999,141,"6676 FEDER RD, GALLOWAY, OH, 43119","Match","Exact","6676 FEDER RD, GALLOWAY, OH, 43119",135606922,"R"
798642,"6676 LANA LN","JACKSONVILLE","FL",32244,30.2263289840001,-81.776585811,142,"6676 LANA LN, JACKSONVILLE, FL, 32244","Match","Exact","6676 LANA LN, JACKSONVILLE, FL, 32244",83941804,"R"
798643,"6676 MARTHA POINT","MEMPHIS","TN",38141,NA,NA,143,"6676 MARTHA POINT, MEMPHIS, TN, 38141","No_Match",NA,NA,NA,NA
798644,"6676 MISSION STREET","DALY CITY","CA",94014,37.7021985160001,-122.463243767,144,"6676 MISSION STREET, DALY CITY, CA, 94014","Match","Exact","6676 MISSION ST, DALY CITY, CA, 94014",192367607,"R"
798645,"6676 NORTH DUNCAN ROAD","LINDEN","CA",95236,38.0380920220001,-121.095992038,145,"6676 NORTH DUNCAN ROAD, LINDEN, CA, 95236","Match","Non_Exact","6676 DUNCAN RD, LINDEN, CA, 95236",133857442,"R"
798646,"6676 PAISLEY DR","CINCINNATI","OH",45236,39.189874307,-84.390956219,146,"6676 PAISLEY DR, CINCINNATI, OH, 45236","Match","Exact","6676 PAISLEY DR, CINCINNATI, OH, 45236",640627934,"R"
798647,"6676 QUAILRUN COURT","LOVELAND","OH",45140,39.241231063,-84.268801479,147,"6676 QUAILRUN COURT, LOVELAND, OH, 45140","Match","Non_Exact","6676 QUAIL RUN CT, LOVELAND, OH, 45140",118444139,"L"
798648,"6676 QUAY RD AE","TUCUMCARI","NM",88401,35.2268079630001,-103.542671146,148,"6676 QUAY RD AE, TUCUMCARI, NM, 88401","Match","Exact","6676 QUAY ROAD AE, TUCUMCARI, NM, 88401",617694648,"R"
798649,"6676 ROHR STREET","NIAGARA FALLS","NY",14304,43.102268999,-78.913932841,149,"6676 ROHR STREET, NIAGARA FALLS, NY, 14304","Match","Exact","6676 ROHR ST, NIAGARA FALLS, NY, 14304",48688447,"R"
798650,"6676 SOUTHERN OAKS DRIVE","JACKSONVILLE","FL",32244,30.233168839,-81.7532449879999,150,"6676 SOUTHERN OAKS DRIVE, JACKSONVILLE, FL, 32244","Match","Non_Exact","6676 E SOUTHERN OAKS DR, JACKSONVILLE, FL, 32244",624970014,"R"
798651,"6676 SUMMERDALE COURT WEST","YPSILANTI","MI",48197,42.1915833410001,-83.610068949,151,"6676 SUMMERDALE COURT WEST, YPSILANTI, MI, 48197","Match","Exact","6676 SUMMERDALE CT W, YPSILANTI, MI, 48197",26055519,"R"
798652,"6676 TIMARIND DR","BEDFORD","OH",44146,41.375798769,-81.501491045,152,"6676 TIMARIND DR, BEDFORD, OH, 44146","Match","Non_Exact","6676 TAMARIND DR, BEDFORD, OH, 44146",61148633,"R"
798653,"6676 WEST 14800 SOUTH","HERRIMAN","UT",84096,40.482204338,-112.050700704,153,"6676 WEST 14800 SOUTH, HERRIMAN, UT, 84096","Match","Exact","6676 W 14800 S, HERRIMAN, UT, 84096",640994869,"R"
798654,"6677 BOSTON DRIVE","LANTANA","FL",33462,26.576741063,-80.087995264,154,"6677 BOSTON DRIVE, LANTANA, FL, 33462","Match","Exact","6677 BOSTON DR, LANTANA, FL, 33462",115502213,"R"
798655,"6677 BUSCH BLVD","COLUMBUS","OH",43229,40.1002954590001,-82.99334286,155,"6677 BUSCH BLVD, COLUMBUS, OH, 43229","Match","Exact","6677 BUSCH BLVD, COLUMBUS, OH, 43229",135569920,"L"
798656,"6677 CAMDEN AVE","SAN JOSE","CA",95120,37.221209969,-121.849371519,156,"6677 CAMDEN AVE, SAN JOSE, CA, 95120","Match","Exact","6677 CAMDEN AVE, SAN JOSE, CA, 95120",122925752,"R"
798657,"6677 KARLEIGH DR","BROWNSBURG","IN",46112,39.860311359,-86.366631984,157,"6677 KARLEIGH DR, BROWNSBURG, IN, 46112","Match","Exact","6677 KARLEIGH DR, BROWNSBURG, IN, 46112",89238408,"L"
798658,"6677 MILL RUN","CALEDONIA","MI",49316,42.8445180850001,-85.575969478,158,"6677 MILL RUN, CALEDONIA, MI, 49316","Match","Non_Exact","6677 MILL RUN SE, CALEDONIA, MI, 49316",12475438,"L"
798659,"6677 NE WINDERMERE ROAD","SEATTLE","WA",98115,47.673568738,-122.254802453,159,"6677 NE WINDERMERE ROAD, SEATTLE, WA, 98115","Match","Exact","6677 NE WINDERMERE RD, SEATTLE, WA, 98115",634385447,"R"
798660,"6677 OAKLAND CT","NEWBURGH","IN",47630,37.9927908170001,-87.371931155,160,"6677 OAKLAND CT, NEWBURGH, IN, 47630","Match","Exact","6677 OAKLAND CT, NEWBURGH, IN, 47630",32217381,"R"
798661,"6677 OLSON HWY","GOLDEN VALLEY","MN",55427,NA,NA,161,"6677 OLSON HWY, GOLDEN VALLEY, MN, 55427","No_Match",NA,NA,NA,NA
798662,"6677 RIDGE HAVEN LN","HIXSON","TN",37343,35.1407169180001,-85.1850794759999,162,"6677 RIDGE HAVEN LN, HIXSON, TN, 37343","Match","Exact","6677 RIDGE HAVEN LN, HIXSON, TN, 37343",59327799,"L"
798663,"6677 SANTA MONICA BOULEVARD","LOS ANGELES","CA",90038,34.09072694,-118.335445025,163,"6677 SANTA MONICA BOULEVARD, LOS ANGELES, CA, 90038","Match","Exact","6677 SANTA MONICA BLVD, LOS ANGELES, CA, 90038",141599753,"R"
798664,"6677 SPRING MILL CIRCLE","GWYNN OAK","MD",21207,39.333663438,-76.725666717,164,"6677 SPRING MILL CIRCLE, GWYNN OAK, MD, 21207","Match","Exact","6677 SPRING MILL CIR, GWYNN OAK, MD, 21207",191468981,"R"
798665,"6677 VIADUCT ROAD","DANE","WI",53529,43.2784270610001,-89.505146751,165,"6677 VIADUCT ROAD, DANE, WI, 53529","Match","Exact","6677 VIADUCT RD, DANE, WI, 53529",635632705,"R"
798666,"6677 W THUNDERBIRD RD","GLENDALE","AZ",85306,33.6106070330001,-112.202120915,166,"6677 W THUNDERBIRD RD, GLENDALE, AZ, 85306","Match","Exact","6677 W THUNDERBIRD RD, GLENDALE, AZ, 85306",642658472,"L"
798667,"6677 WILMOT LANE","AVON","IN",46123,39.7510310540001,-86.4056904779999,167,"6677 WILMOT LANE, AVON, IN, 46123","Match","Exact","6677 WILMOT LN, AVON, IN, 46123",646620590,"L"
798668,"66772 SUMMERVILLE RD","IMBLER","OR",97841,45.464059729,-117.972206364,168,"66772 SUMMERVILLE RD, IMBLER, OR, 97841","Match","Exact","66772 SUMMERVILLE RD, IMBLER, OR, 97841",605950034,"L"
798669,"66772 SUMMERVILLE ROAD","IMBLER","OR",97841,45.464059729,-117.972206364,169,"66772 SUMMERVILLE ROAD, IMBLER, OR, 97841","Match","Exact","66772 SUMMERVILLE RD, IMBLER, OR, 97841",605950034,"L"
798670,"66777 COUNTY ROAD 1","MAZEPPA","MN",55956,44.3533629510001,-92.545574776,170,"66777 COUNTY ROAD 1, MAZEPPA, MN, 55956","Match","Exact","66777 CO RD 1, MAZEPPA, MN, 55956",31638682,"L"
798671,"66779 BELMONT MORRISTOWN RD","BELMONT","OH",43718,40.064044913,-81.055495745,171,"66779 BELMONT MORRISTOWN RD, BELMONT, OH, 43718","Match","Exact","66779 BELMONT MORRISTOWN RD, BELMONT, OH, 43718",640062866,"R"
798672,"6678 DREW RANCH LN","BOULDER","CO",80301,40.0752254600001,-105.199284888,172,"6678 DREW RANCH LN, BOULDER, CO, 80301","Match","Exact","6678 DREW RANCH LN, BOULDER, CO, 80301",636168379,"R"
798673,"6678 ESTATE VIEW DR NORTH","BLACKLICK","OH",43004,40.005251668,-82.8336522119999,173,"6678 ESTATE VIEW DR NORTH, BLACKLICK, OH, 43004","Match","Exact","6678 ESTATE VIEW DR N, BLACKLICK, OH, 43004",218682267,"L"
798674,"6678 FALMOUTH CURVE","SHAKOPEE","MN",55379,44.7822736680001,-93.4331926629999,174,"6678 FALMOUTH CURVE, SHAKOPEE, MN, 55379","Match","Exact","6678 FALMOUTH CURVE, SHAKOPEE, MN, 55379",38152976,"R"
798675,"6678 KELLY WILLIS RD","GREENBRIER","TN",37073,36.4219103040001,-86.770792711,175,"6678 KELLY WILLIS RD, GREENBRIER, TN, 37073","Match","Exact","6678 KELLY WILLIS RD, GREENBRIER, TN, 37073",649774001,"L"
798676,"6678 W 200 N","DELPHI","IN",46923,40.5764433310001,-86.652852761,176,"6678 W 200 N, DELPHI, IN, 46923","Match","Exact","6678 W 200 N, DELPHI, IN, 46923",27049257,"L"
798677,"6679 20 MILE ROAD","BARRYTON","MI",49305,NA,NA,177,"6679 20 MILE ROAD, BARRYTON, MI, 49305","No_Match",NA,NA,NA,NA
798678,"6679 HIGHWAY 84","PATTERSON","GA",31557,31.393310017,-82.1327360929999,178,"6679 HIGHWAY 84, PATTERSON, GA, 31557","Match","Non_Exact","6679 US HWY 84, PATTERSON, GA, 31557",4617933,"R"
798679,"6679 LEEDS LN","HAMILTON","OH",45011,39.390824251,-84.531283806,179,"6679 LEEDS LN, HAMILTON, OH, 45011","Match","Exact","6679 LEEDS LN, HAMILTON, OH, 45011",624093208,"R"
798680,"6679 LINCOLN ST","BONNERS FERRY","ID",83805,48.6845800950001,-116.322960379,180,"6679 LINCOLN ST, BONNERS FERRY, ID, 83805","Match","Non_Exact","6679 LINCOLN, BONNERS FERRY, ID, 83805",169222928,"R"
798681,"6679 ROAD 24","GOODLAND","KS",67735,NA,NA,181,"6679 ROAD 24, GOODLAND, KS, 67735","No_Match",NA,NA,NA,NA
798682,"667A 5TH AVENUE","BROOKLYN","NY",11215,40.662032099,-73.992701037,182,"667A 5TH AVENUE, BROOKLYN, NY, 11215","Match","Exact","667 5TH AVE, BROOKLYN, NY, 11215",59075766,"L"
798683,"668 AMERICAN LEGION DRIVE","TEANECK","NJ",7666,40.886354468,-74.02240803,183,"668 AMERICAN LEGION DRIVE, TEANECK, NJ, 7666","Match","Exact","668 AMERICAN LEGION DR, TEANECK, NJ, 07666",64388721,"L"
798684,"668 ANCHORAGE AVE","GRAYSON","GA",30017,33.897934524,-83.9785149749999,184,"668 ANCHORAGE AVE, GRAYSON, GA, 30017","Match","Exact","668 ANCHORAGE AVE, GRAYSON, GA, 30017",88935030,"L"
798685,"668 ANCHORAGE DR","NORTH PALM BCH","FL",33408,26.8163486460001,-80.0653434709999,185,"668 ANCHORAGE DR, NORTH PALM BCH, FL, 33408","Match","Exact","668 ANCHORAGE DR, NORTH PALM BEACH, FL, 33408",115275355,"R"
798686,"668 AUGUSTA AVE","COLUMBUS","OH",43228,39.9397207650001,-83.110003208,186,"668 AUGUSTA AVE, COLUMBUS, OH, 43228","Match","Exact","668 AUGUSTA AVE, COLUMBUS, OH, 43228",218677612,"L"
798687,"668 BEDFORD AVENUE","BROOKLYN","NY",11249,40.7013065880001,-73.957980399,187,"668 BEDFORD AVENUE, BROOKLYN, NY, 11249","Match","Exact","668 BEDFORD AVE, BROOKLYN, NY, 11249",59077861,"R"
798688,"668 BRIGHTON ST","PICKERINGTON","OH",43147,39.8737642630001,-82.764489243,188,"668 BRIGHTON ST, PICKERINGTON, OH, 43147","Match","Exact","668 BRIGHTON ST, PICKERINGTON, OH, 43147",37248082,"L"
798689,"668 BRIXHAM RD","COLUMBUS","OH",43204,39.9397521380001,-83.093971782,189,"668 BRIXHAM RD, COLUMBUS, OH, 43204","Match","Exact","668 BRIXHAM RD, COLUMBUS, OH, 43204",218635498,"R"
798690,"668 BROADVIEW AVENUE","WARRENTON","VA",20186,38.7342707620001,-77.8037200209999,190,"668 BROADVIEW AVENUE, WARRENTON, VA, 20186","Match","Exact","668 BROADVIEW AVE, WARRENTON, VA, 20186",636717228,"L"
798691,"668 CAREY CHAPEL ROAD","RED BANKS","MI",38661,NA,NA,191,"668 CAREY CHAPEL ROAD, RED BANKS, MI, 38661","No_Match",NA,NA,NA,NA
798692,"668 CAREY CHAPEL ROAD","RED BANKS","MS",38661,34.9259250370001,-89.527783284,192,"668 CAREY CHAPEL ROAD, RED BANKS, MS, 38661","Match","Exact","668 CAREY CHAPEL RD, RED BANKS, MS, 38661",608009192,"R"
798693,"668 CASE TRAIL NW","BROOKHAVEN","MS",39601,31.6374141700001,-90.485994062,193,"668 CASE TRAIL NW, BROOKHAVEN, MS, 39601","Match","Exact","668 CASE TRL NW, BROOKHAVEN, MS, 39601",649460579,"L"
798694,"668 CHATEAU CIRCLE","VACAVILLE","CA",95687,38.3371633850001,-121.936659447,194,"668 CHATEAU CIRCLE, VACAVILLE, CA, 95687","Match","Exact","668 CHATEAU CIR, VACAVILLE, CA, 95687",192620833,"R"
798695,"668 CHEROKEE STREET","MOBILE","AL",36603,30.6682751540001,-88.08493672,195,"668 CHEROKEE STREET, MOBILE, AL, 36603","Match","Non_Exact","668 CHEROKEE ST, MOBILE, AL, 36606",61861352,"R"
798696,"668 CLARINADA AVENUE","DALY CITY","CA",94015,37.671235344,-122.482572586,196,"668 CLARINADA AVENUE, DALY CITY, CA, 94015","Match","Exact","668 CLARINADA AVE, DALY CITY, CA, 94015",192368919,"R"
798697,"668 COALFIRE AVE","HUEYTOWN","AL",35023,33.464992824,-86.9741833319999,197,"668 COALFIRE AVE, HUEYTOWN, AL, 35023","Match","Exact","668 COALFIRE AVE, HUEYTOWN, AL, 35023",81691129,"L"
798698,"668 COALFIRE AVENUE","HUEYTOWN","AL",35023,33.464992824,-86.9741833319999,198,"668 COALFIRE AVENUE, HUEYTOWN, AL, 35023","Match","Exact","668 COALFIRE AVE, HUEYTOWN, AL, 35023",81691129,"L"
798699,"668 COLDSTREAM DRIVE","EL CAJON","CA",92020,32.7798515760001,-116.954050155,199,"668 COLDSTREAM DRIVE, EL CAJON, CA, 92020","Match","Exact","668 COLDSTREAM DR, EL CAJON, CA, 92020",195329620,"L"
798700,"668 COLTSFOOT LANE","MCGAHEYSVILLE","VA",22840,38.361064147,-78.759678137,200,"668 COLTSFOOT LANE, MCGAHEYSVILLE, VA, 22840","Match","Exact","668 COLTSFOOT LN, MCGAHEYSVILLE, VA, 22840",651788288,"R"
798701,"668 COOPERTOWN ROAD","UNIONVILLE","TN",37180,35.656897256,-86.579470143,201,"668 COOPERTOWN ROAD, UNIONVILLE, TN, 37180","Match","Exact","668 COOPERTOWN RD, UNIONVILLE, TN, 37180",624384562,"R"
798702,"668 COUNTY ROAD 26","STEUBENVILLE","OH",43953,NA,NA,202,"668 COUNTY ROAD 26, STEUBENVILLE, OH, 43953","No_Match",NA,NA,NA,NA
798703,"668 COUNTY ROAD 4614","CASTROVILLE","TX",78009,29.336142554,-98.967489068,203,"668 COUNTY ROAD 4614, CASTROVILLE, TX, 78009","Match","Exact","668 CO RD 4614, CASTROVILLE, TX, 78009",102830162,"R"
798704,"668 CR 202","DURANGO","CO",81301,37.421462633,-107.844429346,204,"668 CR 202, DURANGO, CO, 81301","Match","Exact","668 CO RD 202, DURANGO, CO, 81301",627318529,"L"
798705,"668 CR 785","NACOGDOCHES","TX",75943,31.624970294,-94.883568069,205,"668 CR 785, NACOGDOCHES, TX, 75943","Match","Non_Exact","668 CO RD 785, DOUGLASS, TX, 75943",651662282,"R"
798706,"668 CREST LANE","HERSHEY","PA",17033,40.2873233110001,-76.625329946,206,"668 CREST LANE, HERSHEY, PA, 17033","Match","Exact","668 CREST LN, HERSHEY, PA, 17033",608445486,"R"
798707,"668 CYPRESS POINT DR","EGG HARBOR CITY","NJ",8215,39.489421673,-74.608011163,207,"668 CYPRESS POINT DR, EGG HARBOR CITY, NJ, 8215","Match","Exact","668 CYPRESS POINT DR, EGG HARBOR CITY, NJ, 08215",617101372,"R"
798708,"668 CYPRESS POINT DRIVE","EGG HARBOR CITY","NJ",8215,39.489421673,-74.608011163,208,"668 CYPRESS POINT DRIVE, EGG HARBOR CITY, NJ, 8215","Match","Exact","668 CYPRESS POINT DR, EGG HARBOR CITY, NJ, 08215",617101372,"R"
798709,"668 E 43RD STREET","LOS ANGEL;ES","CA",90011,34.0057141400001,-118.261978295,209,"668 E 43RD STREET, LOS ANGEL;ES, CA, 90011","Match","Non_Exact","668 E 43RD ST, LOS ANGELES, CA, 90011",141619921,"R"
798710,"668 E MAIN ST CIR","CROTHERSVILLE","IN",47229,38.796343467,-85.833612467,210,"668 E MAIN ST CIR, CROTHERSVILLE, IN, 47229","Match","Exact","668 E MAIN ST CIR, CROTHERSVILLE, IN, 47229",31278854,"L"
798711,"668 E SANDRA LN","GRAND PRAIRIE","TX",75052,32.649389683,-97.008882031,211,"668 E SANDRA LN, GRAND PRAIRIE, TX, 75052","Match","Exact","668 SANDRA LN, GRAND PRAIRIE, TX, 75052",627305070,"L"
798712,"668 EAST MAIN ST","CROTHERSVILLE","IN",47229,38.7970508510001,-85.8347997069999,212,"668 EAST MAIN ST, CROTHERSVILLE, IN, 47229","Match","Exact","668 E MAIN ST, CROTHERSVILLE, IN, 47229",31249148,"L"
798713,"668 EAST WATSON STREET","BEDFORD","PA",15522,40.0124558050001,-78.491515605,213,"668 EAST WATSON STREET, BEDFORD, PA, 15522","Match","Exact","668 E WATSON ST, BEDFORD, PA, 15522",50169675,"R"
798714,"668 ELLIS OAK DR","CHARLESTON","SC",29412,32.7473490040001,-79.968109182,214,"668 ELLIS OAK DR, CHARLESTON, SC, 29412","Match","Exact","668 ELLIS OAK DR, CHARLESTON, SC, 29412",605841429,"R"
798715,"668 ELM STREET","DEERSFIELD","IL",60660,NA,NA,215,"668 ELM STREET, DEERSFIELD, IL, 60660","No_Match",NA,NA,NA,NA
798716,"668 EXCHANGE STREET ROAD","ATTICA","NY",14011,42.8517868480001,-78.2759444879999,216,"668 EXCHANGE STREET ROAD, ATTICA, NY, 14011","Match","Exact","668 EXCHANGE STREET RD, ATTICA, NY, 14011",48873210,"L"
798717,"668 FINCH ISLAND AV","HENDERSON","NV",89015,36.03201318,-115.005217083,217,"668 FINCH ISLAND AV, HENDERSON, NV, 89015","Match","Exact","668 FINCH ISLAND AVE, HENDERSON, NV, 89015",639317064,"L"
798718,"668 FINCH ISLAND AVE","HENDERSON","NV",89015,36.03201318,-115.005217083,218,"668 FINCH ISLAND AVE, HENDERSON, NV, 89015","Match","Exact","668 FINCH ISLAND AVE, HENDERSON, NV, 89015",639317064,"L"
798719,"668 FLORENCE AVE","OAKLAND","CA",94618,37.83748662,-122.221831093,219,"668 FLORENCE AVE, OAKLAND, CA, 94618","Match","Exact","668 FLORENCE AVE, OAKLAND, CA, 94618",125000026,"L"
798720,"668 GLENBROOK RD UNIT 5","STAMFORD","CT",6906,41.0748370580001,-73.5165323159999,220,"668 GLENBROOK RD UNIT 5, STAMFORD, CT, 6906","Match","Exact","668 GLENBROOK RD, STAMFORD, CT, 06906",3246621,"L"
798721,"668 GORDON ROAD","DYERSBURG","TN",38024,36.0210157880001,-89.249937959,221,"668 GORDON ROAD, DYERSBURG, TN, 38024","Match","Exact","668 GORDON RD, DYERSBURG, TN, 38024",40655158,"R"
798722,"668 HANOVER CENTER ROAD","HANOVER","NH",3755,43.759193829,-72.161233055,222,"668 HANOVER CENTER ROAD, HANOVER, NH, 3755","Match","Exact","668 HANOVER CENTER RD, HANOVER, NH, 03755",145679328,"L"
798723,"668 HAVEN PLACE","TARPON SPRINGS","FL",34689,28.13961521,-82.741986658,223,"668 HAVEN PLACE, TARPON SPRINGS, FL, 34689","Match","Exact","668 HAVEN PL, TARPON SPNGS, FL, 34689",639242992,"L"
798724,"668 HIGH RIDGE LOOP","SLIDELL","LA",70458,30.321567186,-89.7561341109999,224,"668 HIGH RIDGE LOOP, SLIDELL, LA, 70458","Match","Exact","668 HIGH RIDGE LOOP, SLIDELL, LA, 70458",651492025,"L"
798725,"668 HOPSON RD","MONTICELLO","FL",32344,30.60071435,-83.835302194,225,"668 HOPSON RD, MONTICELLO, FL, 32344","Match","Exact","668 HOPSON RD, MONTICELLO, FL, 32344",82683576,"L"
798726,"668 IRONWOOD DR","MELBOURNE","FL",32935,28.1178860740001,-80.6437426959999,226,"668 IRONWOOD DR, MELBOURNE, FL, 32935","Match","Exact","668 IRONWOOD DR, MELBOURNE, FL, 32935",93902604,"L"
798727,"668 IVY BROOK WAY","MACON","GA",31210,32.849174482,-83.709201557,227,"668 IVY BROOK WAY, MACON, GA, 31210","Match","Exact","668 IVY BROOK WAY, MACON, GA, 31210",647696729,"R"
798728,"668 JEFFERSON ST","JEFFERSON","LA",70121,29.964313432,-90.170444322,228,"668 JEFFERSON ST, JEFFERSON, LA, 70121","Match","Exact","668 JEFFERSON ST, JEFFERSON, LA, 70121",93501277,"L"
798729,"668 JEFFERSON STREET","JEFFERSON","LA",70121,29.964313432,-90.170444322,229,"668 JEFFERSON STREET, JEFFERSON, LA, 70121","Match","Exact","668 JEFFERSON ST, JEFFERSON, LA, 70121",93501277,"L"
798730,"668 KENWOOD PL","MORGANTOWN","WV",26505,39.66536596,-79.967243518,230,"668 KENWOOD PL, MORGANTOWN, WV, 26505","Match","Exact","668 KENWOOD PL, MORGANTOWN, WV, 26505",50755113,"R"
798731,"668 KINGSGATE RIDGE","STONE MOUNTAIN","GA",30088,33.7762947410001,-84.1707774929999,231,"668 KINGSGATE RIDGE, STONE MOUNTAIN, GA, 30088","Match","Exact","668 KINGSGATE RIDGE, STONE MOUNTAIN, GA, 30088",23385103,"L"
798732,"668 KIRKLAND RD","CONVINGTON","GA",30016,33.5912739280001,-83.932689247,232,"668 KIRKLAND RD, CONVINGTON, GA, 30016","Match","Non_Exact","668 KIRKLAND RD, COVINGTON, GA, 30016",23620192,"R"
798733,"668 LAKE CAROLYN PARKWAY APT 102","IRVING","TX",75039,32.8626658260001,-96.9284051609999,233,"668 LAKE CAROLYN PARKWAY APT 102, IRVING, TX, 75039","Match","Exact","668 LAKE CAROLYN PKWY, IRVING, TX, 75039",643181137,"R"
798734,"668 LAKESIDE DOCK DRIVE","KINGSPORT","TN",37663,36.453375663,-82.408373166,234,"668 LAKESIDE DOCK DRIVE, KINGSPORT, TN, 37663","Match","Exact","668 LAKESIDE DOCK DR, KINGSPORT, TN, 37663",127859228,"R"
798735,"668 LANGDON ST","ORANGE","NJ",7050,40.760056272,-74.2504480809999,235,"668 LANGDON ST, ORANGE, NJ, 7050","Match","Exact","668 LANGDON ST, ORANGE, NJ, 07050",63461108,"L"
798736,"668 LAQUINTA CT","NEENAH","WI",54956,NA,NA,236,"668 LAQUINTA CT, NEENAH, WI, 54956","No_Match",NA,NA,NA,NA
798737,"668 LENOX ROAD","BROOKLYN","NY",11203,40.6550744250001,-73.934956901,237,"668 LENOX ROAD, BROOKLYN, NY, 11203","Match","Exact","668 LENOX RD, BROOKLYN, NY, 11203",59079951,"R"
798738,"668 LOOKOUT LAKES DR","JACKSONVILLE","FL",32220,30.3258720790001,-81.85014304,238,"668 LOOKOUT LAKES DR, JACKSONVILLE, FL, 32220","Match","Exact","668 LOOKOUT LAKES DR, JACKSONVILLE, FL, 32220",639970126,"L"
798739,"668 LORAH LANE","HOTCHKISS","CO",81419,38.8025940590001,-107.712231819,239,"668 LORAH LANE, HOTCHKISS, CO, 81419","Match","Exact","668 LORAH LN, HOTCHKISS, CO, 81419",122366962,"R"
798740,"668 MACDONOUGH ST 3","BROOKLYN","NY",11233,40.6837966320001,-73.919445555,240,"668 MACDONOUGH ST 3, BROOKLYN, NY, 11233","Match","Exact","668 MACDONOUGH ST, BROOKLYN, NY, 11233",642653807,"R"
798741,"668 MARYS RD","RIDGWAY","CO",81432,38.077999391,-107.708863003,241,"668 MARYS RD, RIDGWAY, CO, 81432","Match","Exact","668 MARYS RD, RIDGWAY, CO, 81432",610902422,"R"
798742,"668 MCVAY AVE","LAKE OSWEGO","OR",97034,45.4106750710001,-122.666608894,242,"668 MCVAY AVE, LAKE OSWEGO, OR, 97034","Match","Non_Exact","668 MCVEY AVE, LAKE OSWEGO, OR, 97034",642887139,"L"
798743,"668 MESQUITE LN","ABILENE","TX",79601,32.5037559080001,-99.6489372249999,243,"668 MESQUITE LN, ABILENE, TX, 79601","Match","Exact","668 MESQUITE LN, ABILENE, TX, 79601",129975844,"L"
798744,"668 MIDDLE TPKE","STORRS","CT",6268,41.8284262280001,-72.2636862699999,244,"668 MIDDLE TPKE, STORRS, CT, 6268","Match","Exact","668 MIDDLE TPKE, STORRS, CT, 06268",57000683,"R"
798745,"668 MIDDLE TURNPIKE","STORRS","CT",6268,41.8284262280001,-72.2636862699999,245,"668 MIDDLE TURNPIKE, STORRS, CT, 6268","Match","Exact","668 MIDDLE TPKE, STORRS, CT, 06268",57000683,"R"
798746,"668 MONTANA","LOVELL","WY",82431,44.833575066,-108.391352374,246,"668 MONTANA, LOVELL, WY, 82431","Match","Non_Exact","668 MONTANA AVE, LOVELL, WY, 82431",180492925,"L"
798747,"668 MORGAN HARE ROAD","MONROE","LA",71203,32.6211470220001,-91.951381915,247,"668 MORGAN HARE ROAD, MONROE, LA, 71203","Match","Exact","668 MORGAN HARE RD, MONROE, LA, 71203",161090193,"R"
798748,"668 MUNGER STREET","MIDDLEBURY","VT",5753,44.0280845840001,-73.114328503,248,"668 MUNGER STREET, MIDDLEBURY, VT, 5753","Match","Exact","668 MUNGER ST, MIDDLEBURY, VT, 05753",136452230,"R"
798749,"668 N COAST HWY 1225","LAGUNA BEACH","CA",92651,NA,NA,249,"668 N COAST HWY 1225, LAGUNA BEACH, CA, 92651","Tie",NA,NA,NA,NA
798750,"668 N COAST HWY SUITE 254","LAGUNA BEACH","CA",92651,NA,NA,250,"668 N COAST HWY SUITE 254, LAGUNA BEACH, CA, 92651","Tie",NA,NA,NA,NA
798751,"668 N INKSTER RD","DEARBORN HEIGHTS","MI",48127,NA,NA,251,"668 N INKSTER RD, DEARBORN HEIGHTS, MI, 48127","No_Match",NA,NA,NA,NA
798752,"668 N KINGSBURY STREET UNIT 407","CHICAGO","IL",60654,41.8941138010001,-87.641474705,252,"668 N KINGSBURY STREET UNIT 407, CHICAGO, IL, 60654","Match","Non_Exact","668 N KINGSBURY ST, CHICAGO, IL, 60654",111768309,"L"
798753,"668 N TIMBERLAKE DR","WESTERVILLE","OH",43081,40.121734991,-82.955454205,253,"668 N TIMBERLAKE DR, WESTERVILLE, OH, 43081","Match","Exact","668 TIMBERLAKE DR, WESTERVILLE, OH, 43081",218698293,"R"
798754,"668 NORTH COAST HIGHWAY STE 1330","LAGUNA BEACH","CA",92651,33.5465815110001,-117.794819707,254,"668 NORTH COAST HIGHWAY STE 1330, LAGUNA BEACH, CA, 92651","Match","Exact","668 N COAST HWY, LAGUNA BEACH, CA, 92651",629774832,"L"
798755,"668 NORTH HARRISON ROAD","BELLEFONTE","PA",16823,40.8867020540001,-77.74159131,255,"668 NORTH HARRISON ROAD, BELLEFONTE, PA, 16823","Match","Exact","668 N HARRISON RD, BELLEFONTE, PA, 16823",50380478,"L"
798756,"668 NORTH SHADOWFOX PLACE","EAGLE","ID",83616,43.7009381300001,-116.314648911,256,"668 NORTH SHADOWFOX PLACE, EAGLE, ID, 83616","Match","Exact","668 N SHADOWFOX PL, EAGLE, ID, 83616",617936335,"R"
798757,"668 NUCKOLS OLD BUCK CREEK","CALHOUN","KY",42327,37.5286777310001,-87.14104272,257,"668 NUCKOLS OLD BUCK CREEK, CALHOUN, KY, 42327","Match","Non_Exact","668 NUCKOLS OLD BUCK CREEK RD, CALHOUN, KY, 42327",38607579,"L"
798758,"668 NW NORTH RIVER DRIVE","MIAMI","FL",33136,25.7802470170001,-80.208821878,258,"668 NW NORTH RIVER DRIVE, MIAMI, FL, 33136","Match","Exact","668 NW NORTH RIVER DR, MIAMI, FL, 33136",116016250,"L"
798759,"668 OAHU ST","DIAMOND HEAD","MS",39525,30.3855055430001,-89.353293918,259,"668 OAHU ST, DIAMOND HEAD, MS, 39525","Match","Non_Exact","668 OAHU ST, DIAMONDHEAD, MS, 39525",111129519,"R"
798760,"668 OAKHILL AVE","ATTLEBORO","MA",2703,41.91162166,-71.278705509,260,"668 OAKHILL AVE, ATTLEBORO, MA, 2703","Match","Exact","668 OAKHILL AVE, ATTLEBORO, MA, 02703",46785567,"L"
798761,"668 OAKHURST COURT","NAPERVILLE","IL",60540,41.7593205540001,-88.180389428,261,"668 OAKHURST COURT, NAPERVILLE, IL, 60540","Match","Exact","668 OAKHURST CT, NAPERVILLE, IL, 60540",112566837,"L"
798762,"668 OAKRIDGE","BANDERA","TX",78003,29.7772919380001,-99.120906431,262,"668 OAKRIDGE, BANDERA, TX, 78003","Match","Non_Exact","668 OAK RIDGE DR, BANDERA, TX, 78003",102721945,"L"
798763,"668 OBISPO AVE","LONG BEACH","CA",90814,33.7746567610001,-118.154575131,263,"668 OBISPO AVE, LONG BEACH, CA, 90814","Match","Non_Exact","668 N OBISPO AVE, LONG BEACH, CA, 90814",652036789,"R"
798764,"668 OXFORD DRIVE","BROADVIEW HEIGHTS","OH",44147,41.278443624,-81.678834718,264,"668 OXFORD DRIVE, BROADVIEW HEIGHTS, OH, 44147","Match","Exact","668 OXFORD DR, BROADVIEW HEIGHTS, OH, 44147",61161451,"L"
798765,"668 PARK AVE WEST","MANSFIELD","OH",44906,40.759035318,-82.5396581109999,265,"668 PARK AVE WEST, MANSFIELD, OH, 44906","Match","Exact","668 PARK AVE W, MANSFIELD, OH, 44906",647448217,"R"
798766,"668 PEACEFUL WOODS TRAIL","HOLLY LAKE RANCH","TX",75765,32.717540618,-95.1888965699999,266,"668 PEACEFUL WOODS TRAIL, HOLLY LAKE RANCH, TX, 75765","Match","Exact","668 PEACEFUL WOODS TRL, HOLLY LAKE RANCH, TX, 75765",42987429,"L"
798767,"668 QUEENSLAND","STOCKTON","CA",95206,37.9111546170001,-121.294514403,267,"668 QUEENSLAND, STOCKTON, CA, 95206","Match","Non_Exact","668 QUEENSLAND CIR, STOCKTON, CA, 95206",636411528,"L"
798768,"668 RANDALL ROBERTS ROAD","FORT WALTON BEACH","FL",32547,30.428562291,-86.6639442709999,268,"668 RANDALL ROBERTS ROAD, FORT WALTON BEACH, FL, 32547","Match","Exact","668 RANDALL ROBERTS RD, FORT WALTON BEACH, FL, 32547",647864285,"R"
798769,"668 RED CHUTE LANE","BOSSIER CITY","LA",71112,32.420948481,-93.5740869259999,269,"668 RED CHUTE LANE, BOSSIER CITY, LA, 71112","Match","Exact","668 RED CHUTE LN, BOSSIER CITY, LA, 71112",618234621,"L"
798770,"668 RIVENDELL DR","MILTON","WI",53563,42.788060312,-88.9635321379999,270,"668 RIVENDELL DR, MILTON, WI, 53563","Match","Exact","668 RIVENDELL DR, MILTON, WI, 53563",640580024,"L"
798771,"668 ROUTE 148","KILLINGWORTH","CT",6419,41.4151142920001,-72.615905127,271,"668 ROUTE 148, KILLINGWORTH, CT, 6419","Match","Non_Exact","668 STATE HWY 148, KILLINGWORTH, CT, 06419",636463156,"R"
798772,"668 S ST JAMES PLACE","CEDAR CITY","UT",84720,37.665590041,-113.075578122,272,"668 S ST JAMES PLACE, CEDAR CITY, UT, 84720","Match","Exact","668 S SAINT JAMES PL, CEDAR CITY, UT, 84720",165420923,"R"
798773,"668 SABLE OAKS LN","ROCHESTER","NY",14625,43.1350572700001,-77.50220782,273,"668 SABLE OAKS LN, ROCHESTER, NY, 14625","Match","Exact","668 SABLE OAKS LN, ROCHESTER, NY, 14625",624263854,"R"
798774,"668 SHADOWMOSS CIRCLE","LAKE MARY","FL",32746,28.7750736400001,-81.4000756459999,274,"668 SHADOWMOSS CIRCLE, LAKE MARY, FL, 32746","Match","Exact","668 SHADOWMOSS CIR, LAKE MARY, FL, 32746",93791575,"L"
798775,"668 SHAKESPEARE DRIVE","BEREA","OH",44017,41.383817133,-81.858022525,275,"668 SHAKESPEARE DRIVE, BEREA, OH, 44017","Match","Exact","668 SHAKESPEARE DR, BEREA, OH, 44017",61099429,"R"
798776,"668 SLOCUM","AUBURN HILLS","MI",48326,42.6251623520001,-83.2208425329999,276,"668 SLOCUM, AUBURN HILLS, MI, 48326","Match","Non_Exact","668 SLOCUM DR, AUBURN HILLS, MI, 48326",69772397,"R"
798777,"668 SMITH NECK RD","DARTMOUTH","MA",2747,NA,NA,277,"668 SMITH NECK RD, DARTMOUTH, MA, 2747","No_Match",NA,NA,NA,NA
798778,"668 SOUTHLAKE DR","ORMOND BEACH","FL",32174,29.378233005,-81.167982476,278,"668 SOUTHLAKE DR, ORMOND BEACH, FL, 32174","Match","Exact","668 SOUTHLAKE DR, ORMOND BEACH, FL, 32174",648117085,"L"
798779,"668 SPRINGHILL DR","WOODBURY","MN",55125,44.939001783,-92.9258165589999,279,"668 SPRINGHILL DR, WOODBURY, MN, 55125","Match","Non_Exact","668 SPRING HILL DR, WOODBURY, MN, 55125",639958047,"R"
798780,"668 ST ANDREWS DR","DAYTON","NV",89403,39.2449377300001,-119.554534535,280,"668 ST ANDREWS DR, DAYTON, NV, 89403","Match","Exact","668 ST ANDREWS DR, DAYTON, NV, 89403",605188991,"L"
798781,"668 STAYMAN ROAD","QUICKSBURG","VA",22847,38.688464045,-78.680709743,281,"668 STAYMAN ROAD, QUICKSBURG, VA, 22847","Match","Exact","668 STAYMAN RD, QUICKSBURG, VA, 22847",55932907,"R"
798782,"668 SUGAR MILL DR","NASHVILLE","TN",37211,36.0173985280001,-86.697393259,282,"668 SUGAR MILL DR, NASHVILLE, TN, 37211","Match","Exact","668 SUGAR MILL DR, NASHVILLE, TN, 37211",633336003,"L"
798783,"668 SUNDIAL CIRCLE","INDIANAPOLIS","IN",46231,39.7555068820001,-86.3198759109999,283,"668 SUNDIAL CIRCLE, INDIANAPOLIS, IN, 46231","Match","Exact","668 SUNDIAL CIR, INDIANAPOLIS, IN, 46231",108021365,"L"
798784,"668 SUNRISE LAKE PLACE","HENDERSON","NV",89002,36.004711817,-114.947087299,284,"668 SUNRISE LAKE PLACE, HENDERSON, NV, 89002","Match","Exact","668 SUNRISE LAKE PL, HENDERSON, NV, 89002",624792486,"R"
798785,"668 TREASTER VALLEY ROAD","MILROY","PA",17063,40.7475345350001,-77.509550904,285,"668 TREASTER VALLEY ROAD, MILROY, PA, 17063","Match","Exact","668 TREASTER VALLEY RD, MILROY, PA, 17063",48021926,"R"
798786,"668 TREMONT ST APT 3","BOSTON","MA",2118,42.3415187800001,-71.076230407,286,"668 TREMONT ST APT 3, BOSTON, MA, 2118","Match","Exact","668 TREMONT ST, BOSTON, MA, 02118",85700695,"L"
798787,"668 TURNPIKE RD","CANTON","NC",28716,35.518120067,-82.796205634,287,"668 TURNPIKE RD, CANTON, NC, 28716","Match","Exact","668 TURNPIKE RD, CANTON, NC, 28716",151785797,"R"
798788,"668 VALLEY DR","HARRODSBURG","KY",40330,37.7515691580001,-84.840880437,288,"668 VALLEY DR, HARRODSBURG, KY, 40330","Match","Exact","668 VALLEY DR, HARRODSBURG, KY, 40330",32608457,"L"
798789,"668 W 4400 S","RIVERDALE","UT",84405,41.182146802,-111.995424839,289,"668 W 4400 S, RIVERDALE, UT, 84405","Match","Exact","668 4400 S, RIVERDALE, UT, 84405",605788503,"R"
798790,"668 W BAY FRONT ROAD","LOTHIAN","MD",20711,38.7883715300001,-76.6459378169999,290,"668 W BAY FRONT ROAD, LOTHIAN, MD, 20711","Match","Exact","668 W BAY FRONT RD, LOTHIAN, MD, 20711",640664779,"R"
798791,"668 W BEVERLY DRIVE","CLOVIS","CA",93612,36.8124692850001,-119.723916709,291,"668 W BEVERLY DRIVE, CLOVIS, CA, 93612","Match","Exact","668 W BEVERLY DR, CLOVIS, CA, 93612",197577962,"L"
798792,"668 W JEFFERSON COVE","SANDY","UT",84070,NA,NA,292,"668 W JEFFERSON COVE, SANDY, UT, 84070","Tie",NA,NA,NA,NA
798793,"668 W NAOMI AVE UNIT B","ARCADIA","CA",91007,34.1241830970001,-118.053758955,293,"668 W NAOMI AVE UNIT B, ARCADIA, CA, 91007","Match","Non_Exact","668 W NAOMI AVE, ARCADIA, CA, 91007",141644701,"L"
798794,"668 W NAOMI AVENUE B","ARCADIA","CA",91007,34.1241830970001,-118.053758955,294,"668 W NAOMI AVENUE B, ARCADIA, CA, 91007","Match","Non_Exact","668 W NAOMI AVE, ARCADIA, CA, 91007",141644701,"L"
798795,"668 W PARK AVE","PRINCETON","IN",47670,38.3446522,-87.57765678,295,"668 W PARK AVE, PRINCETON, IN, 47670","Match","Exact","668 PARK AVE, PRINCETON, IN, 47670",632898664,"R"
798796,"668 WALKER DRIVE","NORTHAMPTON","PA",18067,40.678009982,-75.474809767,296,"668 WALKER DRIVE, NORTHAMPTON, PA, 18067","Match","Exact","668 WALKER DR, NORTHAMPTON, PA, 18067",634752692,"L"
798797,"668 WEST 1950 NORTH","WEST BOUNTIFUL","UT",84010,40.910560918,-111.899212458,297,"668 WEST 1950 NORTH, WEST BOUNTIFUL, UT, 84010","Match","Non_Exact","668 W 1950 N, W BOUNTIFUL, UT, 84087",155310746,"L"
798798,"668 WEST 232ND STREET","BRONX","NV",10463,NA,NA,298,"668 WEST 232ND STREET, BRONX, NV, 10463","No_Match",NA,NA,NA,NA
798799,"668 WEST IRVING PARK ROAD UNIT H4","CHICAGO","IL",60613,41.95460576,-87.647646762,299,"668 WEST IRVING PARK ROAD UNIT H4, CHICAGO, IL, 60613","Match","Exact","668 W IRVING PARK RD, CHICAGO, IL, 60613",111766590,"R"
798800,"668 WESTFIELD WAY","PEWAUKEE","WI",53072,43.0858909340001,-88.234966957,300,"668 WESTFIELD WAY, PEWAUKEE, WI, 53072","Match","Exact","668 WESTFIELD WAY, PEWAUKEE, WI, 53072",53870254,"R"
798801,"668 WESTWOOD AVE","LONG BRANCH","NJ",7740,40.284016966,-73.998773774,301,"668 WESTWOOD AVE, LONG BRANCH, NJ, 7740","Match","Exact","668 WESTWOOD AVE, LONG BRANCH, NJ, 07740",90461572,"R"
798802,"668 WILSON AVENUE","COLUMBUS","OH",43205,39.951956309,-82.967102073,302,"668 WILSON AVENUE, COLUMBUS, OH, 43205","Match","Exact","668 WILSON AVE, COLUMBUS, OH, 43205",135581653,"L"
798803,"6680 240TH STREET","GORDON","NE",69343,NA,NA,303,"6680 240TH STREET, GORDON, NE, 69343","No_Match",NA,NA,NA,NA
798804,"6680 ALHAMBRA AVE STE 147","MARTINEZ","CA",94553,37.9599566250001,-122.094186755,304,"6680 ALHAMBRA AVE STE 147, MARTINEZ, CA, 94553","Match","Exact","6680 ALHAMBRA AVE, MARTINEZ, CA, 94553",637133229,"R"
798805,"6680 BENNETT CREEK DRIVE APT 1134","JACKSONVILLE","FL",32216,30.2621037850001,-81.5937733919999,305,"6680 BENNETT CREEK DRIVE APT 1134, JACKSONVILLE, FL, 32216","Match","Exact","6680 BENNETT CREEK DR, JACKSONVILLE, FL, 32216",646787521,"R"
798806,"6680 BENNETT CREEK DRIVE","JACKSONVILLE","FL",32216,30.2621037850001,-81.5937733919999,306,"6680 BENNETT CREEK DRIVE, JACKSONVILLE, FL, 32216","Match","Exact","6680 BENNETT CREEK DR, JACKSONVILLE, FL, 32216",646787521,"R"
798807,"6680 BENNETT CREEK LN APT 721","JACKSONVILLE","FL",32216,30.2621037850001,-81.5937733919999,307,"6680 BENNETT CREEK LN APT 721, JACKSONVILLE, FL, 32216","Match","Non_Exact","6680 BENNETT CREEK DR, JACKSONVILLE, FL, 32216",646787521,"R"
798808,"6680 BIGERTON BEND","CANAL WINCHESTER","OH",43110,39.84980016,-82.822109643,308,"6680 BIGERTON BEND, CANAL WINCHESTER, OH, 43110","Match","Exact","6680 BIGERTON BEND, CANAL WINCHESTER, OH, 43110",218700052,"R"
798809,"6680 BRIDGE STREAM ROAD","CUMMING","GA",30028,34.3033962100001,-84.178961224,309,"6680 BRIDGE STREAM ROAD, CUMMING, GA, 30028","Match","Exact","6680 BRIDGE STREAM RD, CUMMING, GA, 30028",625073383,"R"
798810,"6680 BUFFHAM RD","SEVILLE","OH",44273,41.0411390290001,-81.930149054,310,"6680 BUFFHAM RD, SEVILLE, OH, 44273","Match","Exact","6680 BUFFHAM RD, SEVILLE, OH, 44273",58674092,"R"
798811,"6680 CENTRY ARBOR PLACE EAST","MEMPHIS","TN",38134,35.167113869,-89.840542194,311,"6680 CENTRY ARBOR PLACE EAST, MEMPHIS, TN, 38134","Match","Non_Exact","6680 CENTURY ARBOR PL E, MEMPHIS, TN, 38134",607414542,"L"
798812,"6680 CHARLOTTE PIKE","NASHVILLE","TN",37209,36.1372537940001,-86.8828859879999,312,"6680 CHARLOTTE PIKE, NASHVILLE, TN, 37209","Match","Exact","6680 CHARLOTTE PIKE, NASHVILLE, TN, 37209",606828844,"R"
798813,"6680 CLINTON STREET","ELMA","NY",14059,42.855644365,-78.638615801,313,"6680 CLINTON STREET, ELMA, NY, 14059","Match","Exact","6680 CLINTON ST, ELMA, NY, 14059",48313328,"R"
798814,"6680 EMILY LANE","AUSTELL","GA",30168,33.79188759,-84.592694496,314,"6680 EMILY LANE, AUSTELL, GA, 30168","Match","Exact","6680 EMILY LN, AUSTELL, GA, 30168",17212759,"R"
798815,"6680 GRIZZLY FLAT RD","SOMERSET","CA",95684,38.64121127,-120.658087424,315,"6680 GRIZZLY FLAT RD, SOMERSET, CA, 95684","Match","Exact","6680 GRIZZLY FLAT RD, SOMERSET, CA, 95684",133029541,"L"
798816,"6680 HIGHWAY 6 S","HOUSTON","TX",77083,NA,NA,316,"6680 HIGHWAY 6 S, HOUSTON, TX, 77083","No_Match",NA,NA,NA,NA
798817,"6680 INDIAN RUN RD","PLEASANTVILLE","OH",43148,39.8170699560001,-82.455695613,317,"6680 INDIAN RUN RD, PLEASANTVILLE, OH, 43148","Match","Non_Exact","6680 INDIAN RUN RD NE, PLEASANTVILLE, OH, 43148",37232434,"R"
798818,"6680 MERRYVALE LANE","PORT ORANGE","FL",32128,29.0617382300001,-81.0291598809999,318,"6680 MERRYVALE LANE, PORT ORANGE, FL, 32128","Match","Exact","6680 MERRYVALE LN, PORT ORANGE, FL, 32128",94596080,"R"
798819,"6680 N TEUTONIA AVE","MILWAUKEE","WI",53209,43.138470506,-87.954002434,319,"6680 N TEUTONIA AVE, MILWAUKEE, WI, 53209","Match","Exact","6680 N TEUTONIA AVE, MILWAUKEE, WI, 53209",77735232,"R"
798820,"6680 N TEUTONIA AVENUE","MILWAUKEE","WI",53209,43.138470506,-87.954002434,320,"6680 N TEUTONIA AVENUE, MILWAUKEE, WI, 53209","Match","Exact","6680 N TEUTONIA AVE, MILWAUKEE, WI, 53209",77735232,"R"
798821,"6680 NW 76TH CT","PARKLAND","FL",33067,26.3259855900001,-80.212372618,321,"6680 NW 76TH CT, PARKLAND, FL, 33067","Match","Non_Exact","6680 NW 76TH DR, PARKLAND, FL, 33067",114768854,"R"
798822,"6680 POPLAR GROVE WAY","STONE MOUNTAIN","GA",30087,33.780034958,-84.112345154,322,"6680 POPLAR GROVE WAY, STONE MOUNTAIN, GA, 30087","Match","Exact","6680 POPLAR GROVE WAY, STONE MOUNTAIN, GA, 30087",23394822,"R"
798823,"6680 PORTOLA ROAD","ATASCADERO","CA",93422,35.4780668590001,-120.680754354,323,"6680 PORTOLA ROAD, ATASCADERO, CA, 93422","Match","Exact","6680 PORTOLA RD, ATASCADERO, CA, 93422",109795655,"L"
798824,"6680 QUEENS WAY","NORTH ROYALTON","OH",44133,41.335534598,-81.731296392,324,"6680 QUEENS WAY, NORTH ROYALTON, OH, 44133","Match","Exact","6680 QUEENS WAY, N ROYALTON, OH, 44133",61170104,"L"
798825,"6680 ROUTE 16","SHIPMAN","IL",62685,39.116287449,-90.017818813,325,"6680 ROUTE 16, SHIPMAN, IL, 62685","Match","Non_Exact","6680 STATE RTE 16, SHIPMAN, IL, 62685",97934327,"R"
798826,"6680 S WALNUT ST","OWENSBURG","IN",47453,NA,NA,326,"6680 S WALNUT ST, OWENSBURG, IN, 47453","No_Match",NA,NA,NA,NA
798827,"6680 SE 224 RD","OSCEOLA","MO",64776,37.98695825,-93.664158764,327,"6680 SE 224 RD, OSCEOLA, MO, 64776","Match","Exact","6680 SE 224 RD, OSCEOLA, MO, 64776",23157469,"R"
798828,"6680 SNOWBIRD DRIVE","COLORADO SPRINGS","CO",80918,38.926883757,-104.78858743,328,"6680 SNOWBIRD DRIVE, COLORADO SPRINGS, CO, 80918","Match","Exact","6680 SNOWBIRD DR, COLORADO SPRINGS, CO, 80918",105541187,"L"
798829,"6680 WAKEFIELD RD","HIRAM","OH",44234,41.309622883,-81.150792609,329,"6680 WAKEFIELD RD, HIRAM, OH, 44234","Match","Exact","6680 WAKEFIELD RD, HIRAM, OH, 44234",137534436,"R"
798830,"6681 2ND STREET","JUPITER","FL",33458,26.938943904,-80.138285931,330,"6681 2ND STREET, JUPITER, FL, 33458","Match","Exact","6681 2ND ST, JUPITER, FL, 33458",115260691,"L"
798831,"6681 APACHE ROAD","LOVELAND","CO",80534,40.4029308190001,-104.934079083,331,"6681 APACHE ROAD, LOVELAND, CO, 80534","Match","Exact","6681 APACHE RD, LOVELAND, CO, 80534",624835723,"L"
798832,"6681 BIG RIDGE RD","HIXSON","TN",37343,35.141196128,-85.186684596,332,"6681 BIG RIDGE RD, HIXSON, TN, 37343","Match","Exact","6681 BIG RIDGE RD, HIXSON, TN, 37343",59328575,"R"
798833,"6681 BLOSSOM VIEW DRIVE","FLORISSANT","MO",63033,38.80524473,-90.238716846,333,"6681 BLOSSOM VIEW DRIVE, FLORISSANT, MO, 63033","Match","Exact","6681 BLOSSOM VIEW DR, FLORISSANT, MO, 63033",100148408,"L"
798834,"6681 CAPITAN RIDGE","EL PASO","TX",79912,31.8789216640001,-106.54087432,334,"6681 CAPITAN RIDGE, EL PASO, TX, 79912","Match","Exact","6681 CAPITAN RIDGE, EL PASO, TX, 79912",189434010,"R"
798835,"6681 FALCON AVE","LONG BEACH","CA",90805,33.876012508,-118.174105371,335,"6681 FALCON AVE, LONG BEACH, CA, 90805","Match","Non_Exact","6681 N FALCON AVE, LONG BEACH, CA, 90805",141684011,"L"
798836,"6681 GRASSLAND DR","SANDY LEVEL","VA",24161,36.9727083560001,-79.5464721009999,336,"6681 GRASSLAND DR, SANDY LEVEL, VA, 24161","Match","Exact","6681 GRASSLAND DR, SANDY LEVEL, VA, 24161",649739081,"L"
798837,"6681 HIGHLAND AVE","BUENA PARK","CA",90621,33.8634691550001,-118.005772099,337,"6681 HIGHLAND AVE, BUENA PARK, CA, 90621","Match","Exact","6681 HIGHLAND AVE, BUENA PARK, CA, 90621",144257057,"R"
798838,"6681 LOCH HILL RD","BALTIMORE","MD",21239,39.3749726020001,-76.584254372,338,"6681 LOCH HILL RD, BALTIMORE, MD, 21239","Match","Exact","6681 LOCH HILL RD, BALTIMORE, MD, 21239",191475533,"R"
798839,"6681 NC 150 EAST","REIDSVILLE","NC",27320,36.3668057890001,-79.439644673,339,"6681 NC 150 EAST, REIDSVILLE, NC, 27320","Match","Non_Exact","6681 STATE HWY 150, REIDSVILLE, NC, 27320",96780051,"R"
798840,"6681 PINE VALLEY TRACE","STONE MOUNTAIN","GA",30087,33.7968273480001,-84.116370922,340,"6681 PINE VALLEY TRACE, STONE MOUNTAIN, GA, 30087","Match","Exact","6681 PINE VALLEY TRCE, STONE MOUNTAIN, GA, 30087",619382773,"L"
798841,"6681 POPLAR GROVE","STONE MOUNTAIN","GA",30087,33.7801119490001,-84.112329455,341,"6681 POPLAR GROVE, STONE MOUNTAIN, GA, 30087","Match","Non_Exact","6681 POPLAR GROVE WAY, STONE MOUNTAIN, GA, 30087",23394822,"L"
798842,"6681 RIVERMILL CLUB DR","LAKE WORTH","FL",33463,26.5769156000001,-80.127021198,342,"6681 RIVERMILL CLUB DR, LAKE WORTH, FL, 33463","Match","Exact","6681 RIVERMILL CLUB DR, LAKE WORTH, FL, 33463",115568309,"R"
798843,"6681 TAYLOR RD","CINCINNATI","OH",45248,39.1640694380001,-84.666824458,343,"6681 TAYLOR RD, CINCINNATI, OH, 45248","Match","Exact","6681 TAYLOR RD, CINCINNATI, OH, 45248",103915800,"L"
798844,"6681 TORENIA TRAIL APT 214","SAN DIEGO","CA",92130,32.9680782520001,-117.174686796,344,"6681 TORENIA TRAIL APT 214, SAN DIEGO, CA, 92130","Match","Exact","6681 TORENIA TRL, SAN DIEGO, CA, 92130",645301683,"L"
798845,"6681 WALNUT AVE","LONG BEACH","CA",90805,33.8760205770001,-118.173040807,345,"6681 WALNUT AVE, LONG BEACH, CA, 90805","Match","Exact","6681 WALNUT AVE, LONG BEACH, CA, 90805",141684022,"L"
798846,"6681 WHITSTONE CT","WEST RICHLAND","WA",99353,46.2883272830001,-119.375093988,346,"6681 WHITSTONE CT, WEST RICHLAND, WA, 99353","Match","Non_Exact","6681 WHITESTONE ST, WEST RICHLAND, WA, 99353",642953657,"L"
798847,"6681 WINDSOR RIDGE LANE","WINDSOR","WI",53598,43.2144744350001,-89.337288776,347,"6681 WINDSOR RIDGE LANE, WINDSOR, WI, 53598","Match","Exact","6681 WINDSOR RIDGE LN, WINDSOR, WI, 53598",647056414,"L"
798848,"6682 AMTY LANE","KEIZER","OR",97303,NA,NA,348,"6682 AMTY LANE, KEIZER, OR, 97303","No_Match",NA,NA,NA,NA
798849,"6682 BEAUTY RD","BEAUTY","KY",41203,37.827277646,-82.4439530449999,349,"6682 BEAUTY RD, BEAUTY, KY, 41203","Match","Exact","6682 BEAUTY RD, BEAUTY, KY, 41203",34883267,"R"
798850,"6682 GREENBAY ROAD","ARBUCKLE","CA",95912,38.9655575470001,-122.05394861,350,"6682 GREENBAY ROAD, ARBUCKLE, CA, 95912","Match","Exact","6682 GREENBAY RD, ARBUCKLE, CA, 95912",67123464,"R"
798851,"6682 HELEN ST","GARDEN CITY","MI",48135,42.33562964,-83.3180325989999,351,"6682 HELEN ST, GARDEN CITY, MI, 48135","Match","Exact","6682 HELEN ST, GARDEN CITY, MI, 48135",95429053,"R"
798852,"6682 HUNTLEY LANE SOUTH","NAPLES","FL",34104,26.1574732600001,-81.731075195,352,"6682 HUNTLEY LANE SOUTH, NAPLES, FL, 34104","Match","Exact","6682 HUNTLEY LN S, NAPLES, FL, 34104",115153374,"L"
798853,"6682 MARINE AVE","ARBUCKLE","CA",95912,38.9584575320001,-122.058286964,353,"6682 MARINE AVE, ARBUCKLE, CA, 95912","Match","Exact","6682 MARINE AVE, ARBUCKLE, CA, 95912",67123507,"R"
798854,"6682 SERVICE ROAD","TRUSSVILLE","AL",35173,33.656962293,-86.596940595,354,"6682 SERVICE ROAD, TRUSSVILLE, AL, 35173","Match","Exact","6682 SERVICE RD, TRUSSVILLE, AL, 35173",81766310,"L"
798855,"6682 TIME SQUARE AVE UNIT 102","ORLANDO","FL",32835,28.5076444150001,-81.47369228,355,"6682 TIME SQUARE AVE UNIT 102, ORLANDO, FL, 32835","Match","Exact","6682 TIME SQUARE AVE, ORLANDO, FL, 32835",94419915,"L"
798856,"6682 W WESTON RD","MORENCI","MI",49256,41.7568232890001,-84.1502171559999,356,"6682 W WESTON RD, MORENCI, MI, 49256","Match","Exact","6682 W WESTON RD, MORENCI, MI, 49256",25945769,"L"
798857,"66821 ROBIN ROAD","NORTH BEND","OR",97459,43.4397563030001,-124.207916853,357,"66821 ROBIN ROAD, NORTH BEND, OR, 97459","Match","Non_Exact","66821 ROBIN DR, NORTH BEND, OR, 97459",137055727,"R"
798858,"66824 BANTRY COURT","DARIEN","IL",60561,NA,NA,358,"66824 BANTRY COURT, DARIEN, IL, 60561","No_Match",NA,NA,NA,NA
798859,"66824 E CRYSTAL CREEK RD PO BOX 466","WELCHES","OR",97067,45.3398470290001,-121.977999027,359,"66824 E CRYSTAL CREEK RD PO BOX 466, WELCHES, OR, 97067","Match","Non_Exact","66824 E CRYSTAL CREEK RD, WELCHES, OR, 97067",157894070,"L"
798860,"66829 64TH","SALOME","AZ",85348,NA,NA,360,"66829 64TH, SALOME, AZ, 85348","Tie",NA,NA,NA,NA
798861,"6683 BROOK FALLS CIRCLE","STOCKTON","CA",95219,37.992485625,-121.356100404,361,"6683 BROOK FALLS CIRCLE, STOCKTON, CA, 95219","Match","Exact","6683 BROOK FALLS CIR, STOCKTON, CA, 95219",133889148,"R"
798862,"6683 COTTONWOOD KNOLL","WEST BLOOMFIELD","MI",48322,42.540220107,-83.3473948239999,362,"6683 COTTONWOOD KNOLL, WEST BLOOMFIELD, MI, 48322","Match","Exact","6683 COTTONWOOD KNOLL, W BLOOMFIELD, MI, 48322",69727157,"L"
798863,"6683 EDGEWOOD","CANTON","MI",48187,42.332219276,-83.491773995,363,"6683 EDGEWOOD, CANTON, MI, 48187","Match","Non_Exact","6683 EDGEWOOD RD, CANTON, MI, 48187",95408793,"R"
798864,"6683 HAWKSMOOR DRIVE","ORLANDO","FL",32818,28.629930674,-81.479324574,364,"6683 HAWKSMOOR DRIVE, ORLANDO, FL, 32818","Match","Exact","6683 HAWKSMOOR DR, ORLANDO, FL, 32818",94373055,"L"
798865,"6683 KIRBY OAKS LN","MEMPHIS","TN",38119,35.0743723160001,-89.8402811139999,365,"6683 KIRBY OAKS LN, MEMPHIS, TN, 38119","Match","Exact","6683 KIRBY OAKS LN, MEMPHIS, TN, 38119",72936827,"R"
798866,"6683 PLAINVIEW ROAD","CHRISTIANA","TN",37037,35.7126944080001,-86.3443034809999,366,"6683 PLAINVIEW ROAD, CHRISTIANA, TN, 37037","Match","Exact","6683 PLAINVIEW RD, CHRISTIANA, TN, 37037",59018864,"R"
798867,"6683 PROCTOR ROAD","SARASOTA","FL",34241,27.283719503,-82.438031832,367,"6683 PROCTOR ROAD, SARASOTA, FL, 34241","Match","Exact","6683 PROCTOR RD, SARASOTA, FL, 34241",16426493,"L"
798868,"6683 RAINWOOD COVE LANE","LAKE WORTH","FL",33463,26.5767016610001,-80.12933534,368,"6683 RAINWOOD COVE LANE, LAKE WORTH, FL, 33463","Match","Exact","6683 RAINWOOD COVE LN, LAKE WORTH, FL, 33463",115558420,"L"
798869,"6683 S GRANT ST","CENTENNIAL","CO",80121,39.595581071,-104.983014788,369,"6683 S GRANT ST, CENTENNIAL, CO, 80121","Match","Exact","6683 S GRANT ST, CENTENNIAL, CO, 80121",177337452,"R"
798870,"6683 SANDY CREEK LANE","ZACHARY","LA",70791,30.669756702,-91.1770465,370,"6683 SANDY CREEK LANE, ZACHARY, LA, 70791","Match","Exact","6683 SANDY CREEK LN, ZACHARY, LA, 70791",632762498,"L"
798871,"6683 SANDY CREEK LN","ZACHARY","LA",70791,30.669756702,-91.1770465,371,"6683 SANDY CREEK LN, ZACHARY, LA, 70791","Match","Exact","6683 SANDY CREEK LN, ZACHARY, LA, 70791",632762498,"L"
798872,"6683 SW 152ND LANE","LAKE BUTLER","FL",32054,29.9716284400001,-82.367718402,372,"6683 SW 152ND LANE, LAKE BUTLER, FL, 32054","Match","Exact","6683 SW 152ND LN, LAKE BUTLER, FL, 32054",6786066,"R"
798873,"6684 CRANE AVE","FAIRBURN,GA","GA",30213,33.627992141,-84.606249368,373,"6684 CRANE AVE, FAIRBURN,GA, GA, 30213","Match","Non_Exact","6684 CRANE AVE, FAIRBURN, GA, 30213",625747578,"R"
798874,"6684 E BEAVERTON ROAD","CLARE","MI",48617,43.8730023260001,-84.716122704,374,"6684 E BEAVERTON ROAD, CLARE, MI, 48617","Match","Exact","6684 E BEAVERTON RD, CLARE, MI, 48617",110382740,"R"
798875,"6684 E HWY 124","PRESCOTT","WA",99348,46.298814744,-118.343917496,375,"6684 E HWY 124, PRESCOTT, WA, 99348","Match","Non_Exact","6684 STATE RTE 124, PRESCOTT, WA, 99348",638571552,"L"
798876,"6684 ELKGATE DRIVE","MEMPHIS","TN",38141,35.0301925540001,-89.8405190029999,376,"6684 ELKGATE DRIVE, MEMPHIS, TN, 38141","Match","Non_Exact","6684 ELKGATE, MEMPHIS, TN, 38141",72943274,"L"
798877,"6684 ELKGATE","MEMPHIS","TN",38141,35.0301925540001,-89.8405190029999,377,"6684 ELKGATE, MEMPHIS, TN, 38141","Match","Exact","6684 ELKGATE, MEMPHIS, TN, 38141",72943274,"L"
798878,"6684 JONES ROAD","NORTH BRANCH","MI",48461,43.225521029,-83.2254067819999,378,"6684 JONES ROAD, NORTH BRANCH, MI, 48461","Match","Exact","6684 JONES RD, NORTH BRANCH, MI, 48461",110455919,"R"
798879,"6684 POMPEII RD","ORLANDO","FL",32822,28.4925623190001,-81.301482537,379,"6684 POMPEII RD, ORLANDO, FL, 32822","Match","Exact","6684 POMPEII RD, ORLANDO, FL, 32822",94295110,"R"
798880,"6684 ST JUDE DRIVE","FAIBURN","GA",30213,33.575868816,-84.623388297,380,"6684 ST JUDE DRIVE, FAIBURN, GA, 30213","Match","Non_Exact","6684 ST JUDE DR, FAIRBURN, GA, 30213",624578427,"R"
798881,"66845 OTTER RD","MONTROSE","CO",81401,38.4389422620001,-107.840325584,381,"66845 OTTER RD, MONTROSE, CO, 81401","Match","Exact","66845 OTTER RD, MONTROSE, CO, 81401",122568559,"R"
798882,"6685 BETA DRIVE","CLEVELAND","OH",44143,NA,NA,382,"6685 BETA DRIVE, CLEVELAND, OH, 44143","No_Match",NA,NA,NA,NA
798883,"6685 BUTTERFIELD RIDGE","LAS CRUCES","NM",88007,NA,NA,383,"6685 BUTTERFIELD RIDGE, LAS CRUCES, NM, 88007","Tie",NA,NA,NA,NA
798884,"6685 CHESTERFIELD LN","RENO","NV",89523,39.5210162010001,-119.894474475,384,"6685 CHESTERFIELD LN, RENO, NV, 89523","Match","Exact","6685 CHESTERFIELD LN, RENO, NV, 89523",107109097,"R"
798885,"6685 COYOTE RD","LAS CRUCES","NM",88012,32.4237336460001,-106.65305984,385,"6685 COYOTE RD, LAS CRUCES, NM, 88012","Match","Exact","6685 COYOTE RD, LAS CRUCES, NM, 88012",645323428,"L"
798886,"6685 CR 202","CLYDE","TX",79510,32.1276965980001,-99.519434771,386,"6685 CR 202, CLYDE, TX, 79510","Match","Exact","6685 CO RD 202, CLYDE, TX, 79510",129548337,"R"
798887,"6685 CUTTALOSSA ROAD","NEW HOPE","PA",18938,40.398114052,-75.019757834,387,"6685 CUTTALOSSA ROAD, NEW HOPE, PA, 18938","Match","Exact","6685 CUTTALOSSA RD, NEW HOPE, PA, 18938",134778851,"R"
798888,"6685 E CO RD 150 N","GREENSBURG","IN",47240,39.3601636390001,-85.353323826,388,"6685 E CO RD 150 N, GREENSBURG, IN, 47240","Match","Exact","6685 E CO RD 150 N, GREENSBURG, IN, 47240",31184292,"L"
798889,"6685 HWY 69 S","COLUMBUS","MS",39739,33.422178059,-88.336674841,389,"6685 HWY 69 S, COLUMBUS, MS, 39739","Match","Non_Exact","6685 HWY 69 S, COLUMBUS, MS, 39702",610605965,"R"
798890,"6685 LEXINGTON DR APT 28","BEAUMONT","TX",77706,30.07907555,-94.174604801,390,"6685 LEXINGTON DR APT 28, BEAUMONT, TX, 77706","Match","Exact","6685 LEXINGTON DR, BEAUMONT, TX, 77706",73852078,"L"
798891,"6685 N SEQUOIA","FRESNO","CA",93711,36.8355650300001,-119.832521174,391,"6685 N SEQUOIA, FRESNO, CA, 93711","Match","Non_Exact","6685 N SEQUOIA DR, FRESNO, CA, 93711",197614647,"R"
798892,"6685 NORTH PETERSEN","FREDERIC","MI",49733,44.7838674490001,-84.686194295,392,"6685 NORTH PETERSEN, FREDERIC, MI, 49733","Match","Non_Exact","6685 N PETERSEN RD, FREDERIC, MI, 49733",174476655,"R"
798893,"6685 QUEENS BOROUGH AVE APT 102","ORLANDO","FL",32835,28.508692356,-81.474922534,393,"6685 QUEENS BOROUGH AVE APT 102, ORLANDO, FL, 32835","Match","Exact","6685 QUEENS BOROUGH AVE, ORLANDO, FL, 32835",606121930,"L"
798894,"6685 S GRAHAM","SAINT CHARLES","MI",48655,43.3272663720001,-84.141645965,394,"6685 S GRAHAM, SAINT CHARLES, MI, 48655","Match","Non_Exact","6685 S GRAHAM RD, SAINT CHARLES, MI, 48655",80202868,"R"
798895,"6685 SOUTH JAY RD","WEST MILTON","OH",45383,39.9397587240001,-84.336868935,395,"6685 SOUTH JAY RD, WEST MILTON, OH, 45383","Match","Non_Exact","6685 JAY RD, WEST MILTON, OH, 45383",207641705,"L"
798896,"6685 ST JUDE DR","FAIRBURN","GA",30213,33.5759004600001,-84.6234014569999,396,"6685 ST JUDE DR, FAIRBURN, GA, 30213","Match","Exact","6685 ST JUDE DR, FAIRBURN, GA, 30213",624578427,"L"
798897,"6685 UTSA BLVD APARTMENT 2501","SAN ANTONIO","TX",78249,29.5774302180001,-98.620274531,397,"6685 UTSA BLVD APARTMENT 2501, SAN ANTONIO, TX, 78249","Match","Exact","6685 UTSA BLVD, SAN ANTONIO, TX, 78249",650096234,"L"
798898,"6685 UTSA BLVD APT 309","SAN ANTONIO","TX",78249,29.5774302180001,-98.620274531,398,"6685 UTSA BLVD APT 309, SAN ANTONIO, TX, 78249","Match","Exact","6685 UTSA BLVD, SAN ANTONIO, TX, 78249",650096234,"L"
798899,"6685 VREELAND RD","YPSILANTI","MI",48198,42.2893977090001,-83.6272671,399,"6685 VREELAND RD, YPSILANTI, MI, 48198","Match","Exact","6685 VREELAND RD, YPSILANTI, MI, 48198",26030831,"L"
798900,"6685 WEST OLIVEWOOD CT","CRYSTAL RIVER","FL",34429,28.8745964290001,-82.54601518,400,"6685 WEST OLIVEWOOD CT, CRYSTAL RIVER, FL, 34429","Match","Exact","6685 W OLIVEWOOD CT, CRYSTAL RIVER, FL, 34429",649172025,"R"
798901,"6686 CHIMES TOWER AVE","LAS VEGAS","NV",89139,36.0443701410001,-115.238298245,401,"6686 CHIMES TOWER AVE, LAS VEGAS, NV, 89139","Match","Exact","6686 CHIMES TOWER AVE, LAS VEGAS, NV, 89139",201983394,"R"
798902,"6686 E 144TH ST N","COLLINSVILLE","OK",74021,36.362786193,-95.8995828929999,402,"6686 E 144TH ST N, COLLINSVILLE, OK, 74021","Match","Exact","6686 E 144TH ST N, COLLINSVILLE, OK, 74021",617313771,"R"
798903,"6686 GLEASON HILL ROAD LOT 3","BELFAST","NY",14711,42.3311304590001,-78.116404148,403,"6686 GLEASON HILL ROAD LOT 3, BELFAST, NY, 14711","Match","Exact","6686 GLEASON HILL RD, BELFAST, NY, 14711",82596882,"L"
798904,"6686 LOCH HILL ROAD","LOCH HILL","MD",21239,39.3744222190001,-76.58408488,404,"6686 LOCH HILL ROAD, LOCH HILL, MD, 21239","Match","Exact","6686 LOCH HILL RD, LOCH HILL, MD, 21239",191475533,"L"
798905,"6686 MER ROUGE ROAD","BASTROP","LA",71220,32.772880662,-91.850950461,405,"6686 MER ROUGE ROAD, BASTROP, LA, 71220","Match","Exact","6686 MER ROUGE RD, BASTROP, LA, 71220",75386115,"L"
798906,"6686 OAK RIDGE DR","HEBRON","MD",21830,38.377062159,-75.67488202,406,"6686 OAK RIDGE DR, HEBRON, MD, 21830","Match","Exact","6686 OAK RIDGE DR, HEBRON, MD, 21830",114463221,"R"
798907,"6686 ODANA ROAD","MADISON","WI",53719,43.0564831240001,-89.496140272,407,"6686 ODANA ROAD, MADISON, WI, 53719","Match","Exact","6686 ODANA RD, MADISON, WI, 53719",49536540,"R"
798908,"6686 ROXBURY LN LA GORCE IS","MIAMI BEACH","FL",33141,25.8489917140001,-80.128826138,408,"6686 ROXBURY LN LA GORCE IS, MIAMI BEACH, FL, 33141","Match","Exact","6686 ROXBURY LN, MIAMI BEACH, FL, 33141",116008723,"L"
798909,"6686 S DERINDA RD","ELIZABETH","IL",61028,42.2751523420001,-90.167767963,409,"6686 S DERINDA RD, ELIZABETH, IL, 61028","Match","Exact","6686 S DERINDA RD, ELIZABETH, IL, 61028",27726680,"L"
798910,"6686 WHITE ROAD","INDIAN RIVER","MI",49749,NA,NA,410,"6686 WHITE ROAD, INDIAN RIVER, MI, 49749","No_Match",NA,NA,NA,NA
798911,"66860 THIRD STREET","DESERT HOT SPRINGS","CA",92240,33.963498712,-116.4949548,411,"66860 THIRD STREET, DESERT HOT SPRINGS, CA, 92240","Match","Exact","66860 3RD ST, DESERT HOT SPRINGS, CA, 92240",194690702,"R"
798912,"6687 BLACK HAWK RD","EASTVALE","CA",NA,33.9662536050001,-117.578314231,412,"6687 BLACK HAWK RD, EASTVALE, CA, ","Match","Exact","6687 BLACK HAWK RD, EASTVALE, CA, 92880",608987130,"R"
798913,"6687 CABIN CREEK DRIVE","COLORADO SPRINGS","CO",80923,38.933771608,-104.743011167,413,"6687 CABIN CREEK DRIVE, COLORADO SPRINGS, CO, 80923","Match","Exact","6687 CABIN CREEK DR, COLORADO SPRINGS, CO, 80923",105566338,"L"
798914,"6687 COKER WAY","JONESBORO","GA",30238,NA,NA,414,"6687 COKER WAY, JONESBORO, GA, 30238","No_Match",NA,NA,NA,NA
798915,"6687 CRANE AVE","FAIRBURN","GA",30213,33.6281084450001,-84.6065212679999,415,"6687 CRANE AVE, FAIRBURN, GA, 30213","Match","Exact","6687 CRANE AVE, FAIRBURN, GA, 30213",625747577,"L"
798916,"6687 EDMONTON ROAD","GREENSBURG","KY",42743,37.1689195280001,-85.533257178,416,"6687 EDMONTON ROAD, GREENSBURG, KY, 42743","Match","Exact","6687 EDMONTON RD, GREENSBURG, KY, 42743",69320577,"R"
798917,"6687 NW 110 WAY","PARKLAND","FL",33076,26.313813602,-80.273837503,417,"6687 NW 110 WAY, PARKLAND, FL, 33076","Match","Exact","6687 NW 110TH WAY, PARKLAND, FL, 33076",114798838,"L"
798918,"6687 PRESTO CT","LAS VEGAS","NV",89139,36.03746198,-115.238645081,418,"6687 PRESTO CT, LAS VEGAS, NV, 89139","Match","Exact","6687 PRESTO CT, LAS VEGAS, NV, 89139",650725233,"L"
798919,"6687 SKIPPER ROAD APT 614","MACON","GA",31216,32.724950273,-83.719194495,419,"6687 SKIPPER ROAD APT 614, MACON, GA, 31216","Match","Exact","6687 SKIPPER RD, MACON, GA, 31216",81065918,"L"
798920,"6687 SKIPPER ROAD APT 817","MACON","GA",31216,32.724950273,-83.719194495,420,"6687 SKIPPER ROAD APT 817, MACON, GA, 31216","Match","Exact","6687 SKIPPER RD, MACON, GA, 31216",81065918,"L"
798921,"6687 TAPPS RIDGE RD","VEVAY","IN",47043,38.7816791830001,-85.021728925,421,"6687 TAPPS RIDGE RD, VEVAY, IN, 47043","Match","Exact","6687 TAPPS RIDGE RD, VEVAY, IN, 47043",647851830,"L"
798922,"66872 CSAH 33","DARWIN","MN",55324,NA,NA,422,"66872 CSAH 33, DARWIN, MN, 55324","No_Match",NA,NA,NA,NA
798923,"6688 AUBURN RD","CONCORD TWP","OH",44077,41.6887102900001,-81.2430664359999,423,"6688 AUBURN RD, CONCORD TWP, OH, 44077","Match","Exact","6688 AUBURN RD, CONCORD TWP, OH, 44077",604777396,"R"
798924,"6688 COUNTY ROAD 12","NAPLES","NY",14512,42.6965808730001,-77.3784752,424,"6688 COUNTY ROAD 12, NAPLES, NY, 14512","Match","Exact","6688 CO RD 12, NAPLES, NY, 14512",13479755,"L"
798925,"6688 E DARTMOUTH AVE","DENVER","CO",80224,39.6599461490001,-104.910409621,425,"6688 E DARTMOUTH AVE, DENVER, CO, 80224","Match","Exact","6688 E DARTMOUTH AVE, DENVER, CO, 80224",177381849,"R"
798926,"6688 E DARTMOUTH AVE","DENVER","CO",80231,39.6599461490001,-104.910409621,426,"6688 E DARTMOUTH AVE, DENVER, CO, 80231","Match","Non_Exact","6688 E DARTMOUTH AVE, DENVER, CO, 80224",177381849,"R"
798927,"6688 FONDER DR","PARKER","CO",80134,39.4378377360001,-104.761089836,427,"6688 FONDER DR, PARKER, CO, 80134","Match","Exact","6688 FONDER DR, PARKER, CO, 80134",130831735,"L"
798928,"6688 GROUSE LANE","MEMPHIS","TN",38141,35.02213268,-89.840038608,428,"6688 GROUSE LANE, MEMPHIS, TN, 38141","Match","Exact","6688 GROUSE LN, MEMPHIS, TN, 38141",72943293,"R"
798929,"6688 HILL CREEK COVE","LITHONIA","GA",30058,33.75315977,-84.116371186,429,"6688 HILL CREEK COVE, LITHONIA, GA, 30058","Match","Exact","6688 HILL CREEK COVE, LITHONIA, GA, 30058",628078470,"R"
798930,"6688 NORTH COUNTY ROAD 475 E","PITTSBORO","IN",46167,NA,NA,430,"6688 NORTH COUNTY ROAD 475 E, PITTSBORO, IN, 46167","No_Match",NA,NA,NA,NA
798931,"6688 ORANGEWOOD RD","HIGHLAND","CA",92346,34.1324060580001,-117.1776479,431,"6688 ORANGEWOOD RD, HIGHLAND, CA, 92346","Match","Exact","6688 ORANGEWOOD RD, HIGHLAND, CA, 92346",144967715,"R"
798932,"6688 S AVENIDA CARMENCITA","TUCSON","AZ",85756,32.130965642,-110.869185555,432,"6688 S AVENIDA CARMENCITA, TUCSON, AZ, 85756","Match","Exact","6688 S AVE CARMENCITA, TUCSON, AZ, 85756",627664552,"R"
798933,"6688 SABADO TARDE RD UNIT A","GOLETA","CA",93117,34.4104693310001,-119.861966194,433,"6688 SABADO TARDE RD UNIT A, GOLETA, CA, 93117","Match","Exact","6688 SABADO TARDE RD, GOLETA, CA, 93117",108600762,"R"
798934,"6688 SOUTH BELL PLACE","CHANDLER","AZ",85249,33.2088490030001,-111.791433758,434,"6688 SOUTH BELL PLACE, CHANDLER, AZ, 85249","Match","Exact","6688 S BELL PL, CHANDLER, AZ, 85249",128855352,"R"
798935,"6688 UPPER BYRNES MILL ROAD","HOUSE SPRINGS","MO",63051,NA,NA,435,"6688 UPPER BYRNES MILL ROAD, HOUSE SPRINGS, MO, 63051","No_Match",NA,NA,NA,NA
798936,"6688 W LEVERING RD","LEVERING","MI",49755,45.6368231980001,-84.786345721,436,"6688 W LEVERING RD, LEVERING, MI, 49755","Match","Non_Exact","6688 E LEVERING RD, LEVERING, MI, 49755",133980296,"L"
798937,"6689 COLLINS RD","ONAWAY","MI",49765,45.361181663,-84.334389911,437,"6689 COLLINS RD, ONAWAY, MI, 49765","Match","Exact","6689 COLLINS RD, ONAWAY, MI, 49765",134546055,"R"
798938,"6689 CREWSVILLE RD","ZOLFO SPRINGS","FL",33890,27.399540616,-81.617501096,438,"6689 CREWSVILLE RD, ZOLFO SPRINGS, FL, 33890","Match","Exact","6689 CREWSVILLE RD, ZOLFO SPRINGS, FL, 33890",648188698,"L"
798939,"6689 EAST LOST WOODS LANE","CENTRALIA","MO",65240,39.1776317640001,-92.229986256,439,"6689 EAST LOST WOODS LANE, CENTRALIA, MO, 65240","Match","Exact","6689 E LOST WOODS LN, CENTRALIA, MO, 65240",23477207,"R"
798940,"6689 MARTIN RD","THE DALLES","OR",97058,45.643987086,-121.303552067,440,"6689 MARTIN RD, THE DALLES, OR, 97058","Match","Exact","6689 MARTIN RD, THE DALLES, OR, 97058",611140286,"L"
798941,"6689 ORCHARD LAKE 110","WEST BLOOMFIELD","MI",48322,NA,NA,441,"6689 ORCHARD LAKE 110, WEST BLOOMFIELD, MI, 48322","No_Match",NA,NA,NA,NA
798942,"6689 ORCHARD LAKE 110","WEST BLOOMFIELD","MN",48322,NA,NA,442,"6689 ORCHARD LAKE 110, WEST BLOOMFIELD, MN, 48322","No_Match",NA,NA,NA,NA
798943,"6689 ORCHARD LAKE RD STE 325","WEST BLOOMFIELD","MI",48322,NA,NA,443,"6689 ORCHARD LAKE RD STE 325, WEST BLOOMFIELD, MI, 48322","No_Match",NA,NA,NA,NA
798944,"6689 ORCHARD LAKE RD","WEST BLOOMFIELD","MI",48322,NA,NA,444,"6689 ORCHARD LAKE RD, WEST BLOOMFIELD, MI, 48322","No_Match",NA,NA,NA,NA
798945,"6689 ORCHARD LAKE ROAD 185 WEST","BLOOMFILED","MI",48322,NA,NA,445,"6689 ORCHARD LAKE ROAD 185 WEST, BLOOMFILED, MI, 48322","No_Match",NA,NA,NA,NA
798946,"6689 ORCHARD LAKE ROAD 290","WEST BLOOMFIELD","MI",48322,NA,NA,446,"6689 ORCHARD LAKE ROAD 290, WEST BLOOMFIELD, MI, 48322","No_Match",NA,NA,NA,NA
798947,"6689 OWENS DRIVE SUITE 100","PLEASANTON","CA",94588,37.699531161,-121.908560511,447,"6689 OWENS DRIVE SUITE 100, PLEASANTON, CA, 94588","Match","Exact","6689 OWENS DR, PLEASANTON, CA, 94588",125017479,"R"
798948,"6689 SOUTH 1460 WEST","SALT LAKE CITY","UT",84123,40.6295887410001,-111.933443684,448,"6689 SOUTH 1460 WEST, SALT LAKE CITY, UT, 84123","Match","Exact","6689 S 1460 W, SALT LAKE CITY, UT, 84123",652893279,"L"
798949,"6689 W NUEVA VISTA DR","TUCSON","AZ",85743,32.3568178570001,-111.107853892,449,"6689 W NUEVA VISTA DR, TUCSON, AZ, 85743","Match","Exact","6689 W NUEVA VISTA DR, TUCSON, AZ, 85743",121222601,"R"
798950,"6689 W SAM HOUSTON PKWY S","HOUSTON","TX",77072,29.7053359340001,-95.556764207,450,"6689 W SAM HOUSTON PKWY S, HOUSTON, TX, 77072","Match","Exact","6689 W SAM HOUSTON PKWY S, HOUSTON, TX, 77072",96608666,"R"
798951,"6689 WILDERNESS PARK DR","MACKINAW CITY","MI",49701,45.7636341050001,-84.7790302079999,451,"6689 WILDERNESS PARK DR, MACKINAW CITY, MI, 49701","Match","Non_Exact","6689 E WILDERNESS PARK DR, MACKINAW CITY, MI, 49701",635789404,"L"
798952,"6689 WILLOW LANE","MASON","OH",45040,39.342978723,-84.316008289,452,"6689 WILLOW LANE, MASON, OH, 45040","Match","Exact","6689 WILLOW LN, MASON, OH, 45040",159030859,"R"
798953,"6689 WINDIATE RD","WATERFORD","MI",48329,42.7026305790001,-83.42181421,453,"6689 WINDIATE RD, WATERFORD, MI, 48329","Match","Exact","6689 WINDIATE RD, WATERFORD, MI, 48329",642870699,"L"
798954,"669  LABARRE ST","MANDEVILLE","LA",70448,30.361855298,-90.033534467,454,"669  LABARRE ST, MANDEVILLE, LA, 70448","Match","Exact","669 LABARRE ST, MANDEVILLE, LA, 70448",611481617,"L"
798955,"669 11TH STREET","COLUMBUS","NE",68601,41.422759151,-97.341028797,455,"669 11TH STREET, COLUMBUS, NE, 68601","Match","Non_Exact","669 11TH AVE, COLUMBUS, NE, 68601",136388230,"R"
798956,"669 29TH AVENUE","SAN FRANCISCO","CA",94121,37.776736343,-122.488791499,456,"669 29TH AVENUE, SAN FRANCISCO, CA, 94121","Match","Exact","669 29TH AVE, SAN FRANCISCO, CA, 94121",192277302,"R"
798957,"669 300TH STREET","MORRILL","KS",66515,39.942757284,-95.6810702499999,457,"669 300TH STREET, MORRILL, KS, 66515","Match","Exact","669 300TH ST, MORRILL, KS, 66515",9765764,"L"
798958,"669 ARCHWOOD RD","WADSWORTH","OH",44281,41.030503751,-81.705582471,458,"669 ARCHWOOD RD, WADSWORTH, OH, 44281","Match","Exact","669 ARCHWOOD RD, WADSWORTH, OH, 44281",58690799,"L"
798959,"669 AROOSTOOK ROAD","FORT KENT","ME",4743,NA,NA,459,"669 AROOSTOOK ROAD, FORT KENT, ME, 4743","No_Match",NA,NA,NA,NA
798960,"669 BARBER LANE","JOLIET","IL",60435,41.5343859330001,-88.1531419359999,460,"669 BARBER LANE, JOLIET, IL, 60435","Match","Exact","669 BARBER LN, JOLIET, IL, 60435",111556837,"R"
798961,"669 BARRINGTON RD","COLLEGEVILLE","PA",19426,40.155564321,-75.4445504079999,461,"669 BARRINGTON RD, COLLEGEVILLE, PA, 19426","Match","Exact","669 BARRINGTON RD, COLLEGEVILLE, PA, 19426",135068359,"R"
798962,"669 BELVEDERE DR","BENICIA","CA",94510,38.088437695,-122.177667841,462,"669 BELVEDERE DR, BENICIA, CA, 94510","Match","Exact","669 BELVEDERE DR, BENICIA, CA, 94510",192545749,"R"
798963,"669 BETA ST","TWIN FALLS","ID",83301,42.573716118,-114.49620388,463,"669 BETA ST, TWIN FALLS, ID, 83301","Match","Exact","669 BETA ST, TWIN FALLS, ID, 83301",617972100,"R"
798964,"669 BLOOMFIELD AVE","BLOOMFIELD","CT",6002,41.8240092280001,-72.737358391,464,"669 BLOOMFIELD AVE, BLOOMFIELD, CT, 6002","Match","Exact","669 BLOOMFIELD AVE, BLOOMFIELD, CT, 06002",3485728,"L"
798965,"669 CAPISTRANO","BERKELEY","CA",94707,NA,NA,465,"669 CAPISTRANO, BERKELEY, CA, 94707","No_Match",NA,NA,NA,NA
798966,"669 CASTLEBOTTOM DRIVE","LAWRENCEVILLE","GA",30045,33.9555346990001,-83.933092782,466,"669 CASTLEBOTTOM DRIVE, LAWRENCEVILLE, GA, 30045","Match","Exact","669 CASTLEBOTTOM DR, LAWRENCEVILLE, GA, 30045",623984299,"R"
798967,"669 CENTERPOINTE CV","OXFORD","MS",38655,34.4138995590001,-89.51299696,467,"669 CENTERPOINTE CV, OXFORD, MS, 38655","Match","Exact","669 CENTERPOINTE COVE, OXFORD, MS, 38655",625183822,"L"
798968,"669 CHERRYDALE DRIVE","LAFAYETTE HILL","PA",19444,40.0806251490001,-75.259329408,468,"669 CHERRYDALE DRIVE, LAFAYETTE HILL, PA, 19444","Match","Exact","669 CHERRYDALE DR, LAFAYETTE HILL, PA, 19444",135118232,"R"
798969,"669 CLOVER LN APT 1","MEADVILLE","PA",16335,41.645130785,-80.146699815,469,"669 CLOVER LN APT 1, MEADVILLE, PA, 16335","Match","Exact","669 CLOVER LN, MEADVILLE, PA, 16335",98571193,"R"
798970,"669 CORNER LOOP ROAD","GEORGETOWN","SC",29440,33.2372124780001,-79.413752361,470,"669 CORNER LOOP ROAD, GEORGETOWN, SC, 29440","Match","Exact","669 CORNER LOOP, GEORGETOWN, SC, 29440",28981573,"R"
798971,"669 CORNERSTONE PL","EVANS","GA",30809,33.549645793,-82.188648695,471,"669 CORNERSTONE PL, EVANS, GA, 30809","Match","Exact","669 CORNERSTONE PL, EVANS, GA, 30809",55389092,"L"
798972,"669 CORONADO DR","POINCIANA","FL",34759,28.116416735,-81.482640824,472,"669 CORONADO DR, POINCIANA, FL, 34759","Match","Exact","669 CORONADO DR, POINCIANA, FL, 34759",104943401,"R"
798973,"669 COUNTY RD SUITE 110","WAYNESVILLE","NC",28785,35.530889712,-82.9790279379999,473,"669 COUNTY RD SUITE 110, WAYNESVILLE, NC, 28785","Match","Exact","669 COUNTY RD, WAYNESVILLE, NC, 28785",151781207,"L"
798974,"669 CRESCENT CT","GRAND JUNCTION","CO",81506,39.1047519960001,-108.583371621,474,"669 CRESCENT CT, GRAND JUNCTION, CO, 81506","Match","Non_Exact","669 CRESCENT CT, GRAND JCT, CO, 81505",122456553,"R"
798975,"669 CRESCENT RIDGE TRAIL SE","MABLETON","GA",30126,33.838818987,-84.5324616089999,475,"669 CRESCENT RIDGE TRAIL SE, MABLETON, GA, 30126","Match","Non_Exact","669 CRESCENT RIDGE TRL, MABLETON, GA, 30126",17219644,"L"
798976,"669 CRESCENT RIDGE TRL SE","MABLETON","GA",30126,33.838818987,-84.5324616089999,476,"669 CRESCENT RIDGE TRL SE, MABLETON, GA, 30126","Match","Non_Exact","669 CRESCENT RIDGE TRL, MABLETON, GA, 30126",17219644,"L"
798977,"669 CTY HWY N","STOUGHTON","WI",53589,NA,NA,477,"669 CTY HWY N, STOUGHTON, WI, 53589","No_Match",NA,NA,NA,NA
798978,"669 DARTMORE LANE UNIT 150","HAYWARD","CA",94544,37.6337870240001,-122.045299083,478,"669 DARTMORE LANE UNIT 150, HAYWARD, CA, 94544","Match","Exact","669 DARTMORE LN, HAYWARD, CA, 94544",125059938,"R"
798979,"669 E LOVEGRASS DR","SAN TAN VALLEY","AZ",85143,33.147633451,-111.558973697,479,"669 E LOVEGRASS DR, SAN TAN VALLEY, AZ, 85143","Match","Exact","669 E LOVEGRASS DR, SAN TAN VALLEY, AZ, 85143",129347227,"L"
798980,"669 E MAIN ST","NEW HOLLAND","PA",17557,40.1094308580001,-76.0687209129999,480,"669 E MAIN ST, NEW HOLLAND, PA, 17557","Match","Exact","669 E MAIN ST, NEW HOLLAND, PA, 17557",179650763,"L"
798981,"669 EAST 38 STREET","BROOKLYN","NY",11210,40.638896909,-73.940569363,481,"669 EAST 38 STREET, BROOKLYN, NY, 11210","Match","Exact","669 E 38TH ST, BROOKLYN, NY, 11210",59081991,"L"
798982,"669 EAST 78TH ST","BROOKLYN","NY",11236,40.636659321,-73.917099706,482,"669 EAST 78TH ST, BROOKLYN, NY, 11236","Match","Exact","669 E 78TH ST, BROOKLYN, NY, 11236",59086381,"L"
798983,"669 EAST 78TH STREET","BROOKLYN","NY",11238,40.636659321,-73.917099706,483,"669 EAST 78TH STREET, BROOKLYN, NY, 11238","Match","Non_Exact","669 E 78TH ST, BROOKLYN, NY, 11236",59086381,"L"
798984,"669 EAST 81 STREET","BROOKLYN","NY",11236,40.638069795,-73.914794402,484,"669 EAST 81 STREET, BROOKLYN, NY, 11236","Match","Exact","669 E 81ST ST, BROOKLYN, NY, 11236",59086401,"L"
798985,"669 EAST HWY 50","CLERMONT","FL",34711,NA,NA,485,"669 EAST HWY 50, CLERMONT, FL, 34711","No_Match",NA,NA,NA,NA
798986,"669 EAST SUNSET DRIVE","ATMORE","AL",36502,31.048743367,-87.482118407,486,"669 EAST SUNSET DRIVE, ATMORE, AL, 36502","Match","Exact","669 E SUNSET DR, ATMORE, AL, 36502",1927948,"L"
798987,"669 GARDEN STREET","MAYWOOD","NJ",7607,40.905815106,-74.058221471,487,"669 GARDEN STREET, MAYWOOD, NJ, 7607","Match","Exact","669 GARDEN ST, MAYWOOD, NJ, 07607",64385601,"L"
798988,"669 GEORGETOWN CIR","FAYETTEVILLE","NC",28314,35.0654262680001,-78.9924609569999,488,"669 GEORGETOWN CIR, FAYETTEVILLE, NC, 28314","Match","Exact","669 GEORGETOWN CIR, FAYETTEVILLE, NC, 28314",64195255,"R"
798989,"669 GLADIOLUS DR","COLUMBIA","SC",29229,34.1620475870001,-80.903089639,489,"669 GLADIOLUS DR, COLUMBIA, SC, 29229","Match","Exact","669 GLADIOLUS DR, COLUMBIA, SC, 29229",627503753,"L"
798990,"669 GRANT HOUCK ROAD","TODD","NC",28684,36.331618608,-81.53870556,490,"669 GRANT HOUCK ROAD, TODD, NC, 28684","Match","Exact","669 GRANT HOUCK RD, TODD, NC, 28684",652163794,"R"
798991,"669 HARRIS ROAD","FERNDALE","NY",12734,41.744931632,-74.734903934,491,"669 HARRIS ROAD, FERNDALE, NY, 12734","Match","Exact","669 HARRIS RD, FERNDALE, NY, 12734",128983039,"R"
798992,"669 HIGHTOWER COURT","ATLANTA","GA",30318,33.7732641320001,-84.473570416,492,"669 HIGHTOWER COURT, ATLANTA, GA, 30318","Match","Non_Exact","669 HIGHTOWER RD, ATLANTA, GA, 30318",17339479,"R"
798993,"669 HUGO STREET NE","FRIDLEY","MN",55432,45.116055723,-93.288632706,493,"669 HUGO STREET NE, FRIDLEY, MN, 55432","Match","Exact","669 HUGO ST NE, FRIDLEY, MN, 55432",97485348,"R"
798994,"669 JOHN C STENNIS DRIVE","MERIDIAN","MS",39305,32.536681593,-88.647349662,494,"669 JOHN C STENNIS DRIVE, MERIDIAN, MS, 39305","Match","Exact","669 JOHN C STENNIS DR, MERIDIAN, MS, 39305",608001996,"L"
798995,"669 KINGSTON ROAD","GORVETOWN","GA",30813,33.4617636,-82.167493693,495,"669 KINGSTON ROAD, GORVETOWN, GA, 30813","Match","Non_Exact","669 KINGSTON RD, GROVETOWN, GA, 30813",653441816,"R"
798996,"669 LAFAYETTE AVE","PALMERTON","PA",18071,40.807730039,-75.601199734,496,"669 LAFAYETTE AVE, PALMERTON, PA, 18071","Match","Exact","669 LAFAYETTE AVE, PALMERTON, PA, 18071",80622153,"L"
798997,"669 LARKWOOD DR","HOLLAND","MI",49423,42.7715542110001,-86.142961064,497,"669 LARKWOOD DR, HOLLAND, MI, 49423","Match","Exact","669 LARKWOOD DR, HOLLAND, MI, 49423",71075519,"R"
798998,"669 LITTLE CREEK TRAIL","BERKELEY SPRINGS","WV",25411,39.660930541,-78.195730141,498,"669 LITTLE CREEK TRAIL, BERKELEY SPRINGS, WV, 25411","Match","Non_Exact","669 LITTLE CREEK LN, BERKELEY SPRINGS, WV, 25411",123463583,"R"
798999,"669 LYNCH SW","GRAND RAPIDS","MI",49509,NA,NA,499,"669 LYNCH SW, GRAND RAPIDS, MI, 49509","No_Match",NA,NA,NA,NA
799000,"669 MAPLE DR","GRIFFIN","GA",30224,33.2372830200001,-84.261046614,500,"669 MAPLE DR, GRIFFIN, GA, 30224","Match","Exact","669 MAPLE DR, GRIFFIN, GA, 30224",23761405,"L"
