"ID","Address","City","State","Zip","lat","long","id","input_address","match_indicator","match_type","matched_address","tiger_line_id","tiger_side"
185001,"14473 E WILLIAM STREET","MOORES HILL","IN",47032,NA,NA,1,"14473 E WILLIAM STREET, MOORES HILL, IN, 47032","No_Match",NA,NA,NA,NA
185002,"14473 MOORING DRIVE","SEMINOLE","FL",33776,27.862600753,-82.837799046,2,"14473 MOORING DRIVE, SEMINOLE, FL, 33776","Match","Exact","14473 MOORING DR, SEMINOLE, FL, 33776",124672750,"R"
185003,"14474 FM 1602","HICO","TX",76457,31.7864300470001,-97.976743832,3,"14474 FM 1602, HICO, TX, 76457","Match","Exact","14474 FM 1602, HICO, TX, 76457",158764298,"R"
185004,"14474 MADISONPIKE","MORNINGVIEW","KY",41063,NA,NA,4,"14474 MADISONPIKE, MORNINGVIEW, KY, 41063","No_Match",NA,NA,NA,NA
185005,"14474 PETTYCOAT LANE","SAINT LOUIS","MO",63034,38.818024462,-90.2599717579999,5,"14474 PETTYCOAT LANE, SAINT LOUIS, MO, 63034","Match","Non_Exact","14474 PETTYCOAT LN, FLORISSANT, MO, 63034",100144072,"L"
185006,"14474 PETTYCOAT LN","FLORISSANT","MO",63034,38.818024462,-90.2599717579999,6,"14474 PETTYCOAT LN, FLORISSANT, MO, 63034","Match","Exact","14474 PETTYCOAT LN, FLORISSANT, MO, 63034",100144072,"L"
185007,"14474 SW 139TH CT","MIAMI","FL",33186,25.632122813,-80.420768568,7,"14474 SW 139TH CT, MIAMI, FL, 33186","Match","Exact","14474 SW 139TH CT, MIAMI, FL, 33186",647903752,"L"
185008,"14474 SW 56 TERRACE","MIAMI","FL",33183,25.7134946940001,-80.4292652299999,8,"14474 SW 56 TERRACE, MIAMI, FL, 33183","Match","Exact","14474 SW 56TH TER, MIAMI, FL, 33183",116044698,"L"
185009,"14475 ANGELUS CIRCLE","GRAND HAVEN","MI",49417,43.0316424910001,-86.182178967,9,"14475 ANGELUS CIRCLE, GRAND HAVEN, MI, 49417","Match","Exact","14475 ANGELUS CIR, GRAND HAVEN, MI, 49417",71086167,"R"
185010,"14475 ESSEX CT","MAGALIA","CA",95954,39.835419007,-121.609771425,10,"14475 ESSEX CT, MAGALIA, CA, 95954","Match","Exact","14475 ESSEX CT, MAGALIA, CA, 95954",68412074,"L"
185011,"14475 GA HWY 18","PINE MOUNTAIN","GA",31822,32.8493173620001,-84.8891948309999,11,"14475 GA HWY 18, PINE MOUNTAIN, GA, 31822","Match","Non_Exact","14475 STATE RTE 18, PINE MOUNTAIN, GA, 31822",1740311,"L"
185012,"14475 HUMPHREY DRIVE 200","ORLAND PARK","IL",60462,NA,NA,12,"14475 HUMPHREY DRIVE 200, ORLAND PARK, IL, 60462","No_Match",NA,NA,NA,NA
185013,"14475 PLYMOUTH ROCK DR","CARMEL","IN",46203,39.9969929280001,-86.074539369,13,"14475 PLYMOUTH ROCK DR, CARMEL, IN, 46203","Match","Non_Exact","14475 PLYMOUTH ROCK DR, CARMEL, IN, 46033",29329894,"R"
185014,"14475 SE FOSTER RD","DAYTON","OR",97114,45.2246863350001,-123.089130083,14,"14475 SE FOSTER RD, DAYTON, OR, 97114","Match","Exact","14475 SE FOSTER RD, DAYTON, OR, 97114",605758331,"L"
185015,"14475 UNIVERSITY AVENUE","WAUKEE","IA",50263,41.600430864,-93.822104659,15,"14475 UNIVERSITY AVENUE, WAUKEE, IA, 50263","Match","Exact","14475 UNIVERSITY AVE, WAUKEE, IA, 50263",65635100,"R"
185016,"14476 300TH AVENUE","CANTON","MO",63435,40.1857489770001,-91.5733716129999,16,"14476 300TH AVENUE, CANTON, MO, 63435","Match","Exact","14476 300TH AVE, CANTON, MO, 63435",607731572,"R"
185017,"14476 MARSALA WAY","NAPLES","FL",34109,26.2471217290001,-81.748329682,17,"14476 MARSALA WAY, NAPLES, FL, 34109","Match","Exact","14476 MARSALA WAY, NAPLES, FL, 34109",619142454,"L"
185018,"14476 REUTER STRASSE CIR APT 4","TAMPA","FL",33613,28.078424102,-82.4128685439999,18,"14476 REUTER STRASSE CIR APT 4, TAMPA, FL, 33613","Match","Exact","14476 REUTER STRASSE CIR, TAMPA, FL, 33613",639493890,"L"
185019,"14476 SEDGWICK DRIVE","GRANGER","IN",46530,41.7495757770001,-86.150436842,19,"14476 SEDGWICK DRIVE, GRANGER, IN, 46530","Match","Non_Exact","14476 SEDGWICK CT, GRANGER, IN, 46530",8090827,"R"
185020,"14476 TOUSAINT CT","STERLING HTS","MI",48313,42.605181524,-82.981361167,20,"14476 TOUSAINT CT, STERLING HTS, MI, 48313","Match","Non_Exact","14476 TOUSSAINT CT, STERLING HEIGHTS, MI, 48313",618493461,"R"
185021,"14477 HOLLAND CT","APPLE VALLEY","MN",55124,44.739947052,-93.2408642889999,21,"14477 HOLLAND CT, APPLE VALLEY, MN, 55124","Match","Exact","14477 HOLLAND CT, APPLE VALLEY, MN, 55124",37906537,"R"
185022,"14477 N 58TH AVENUE","GLENDALE","AZ",85306,33.6170642390001,-112.183206507,22,"14477 N 58TH AVENUE, GLENDALE, AZ, 85306","Match","Exact","14477 N 58TH AVE, GLENDALE, AZ, 85306",128283250,"R"
185023,"14477 PANGBOURNE WAY","HANNOVER","MD",21076,NA,NA,23,"14477 PANGBOURNE WAY, HANNOVER, MD, 21076","No_Match",NA,NA,NA,NA
185024,"14478 BALDWIN LANE","CARMEL","IN",46032,39.9960213590001,-86.182732108,24,"14478 BALDWIN LANE, CARMEL, IN, 46032","Match","Exact","14478 BALDWIN LN, CARMEL, IN, 46032",29343616,"R"
185025,"14478 E MICHIGAN AVE","GRASS LAKE","MI",49240,42.266492471,-84.142768938,25,"14478 E MICHIGAN AVE, GRASS LAKE, MI, 49240","Match","Exact","14478 E MICHIGAN AVE, GRASS LAKE, MI, 49240",617060661,"L"
185026,"14478 S KNAPPER RIDGE COVE","HERRIMAN","UT",84096,40.4902911030001,-112.045285561,26,"14478 S KNAPPER RIDGE COVE, HERRIMAN, UT, 84096","Match","Exact","14478 S KNAPPER RIDGE COVE, HERRIMAN, UT, 84096",653304154,"R"
185027,"14478 WOODLEIGH DR","CHESTER","VA",23831,37.3204887890001,-77.452987752,27,"14478 WOODLEIGH DR, CHESTER, VA, 23831","Match","Exact","14478 WOODLEIGH DR, CHESTER, VA, 23831",616583531,"R"
185028,"14479 HERRON STREET","SYLMAR","CA",91342,34.2957832600001,-118.448452948,28,"14479 HERRON STREET, SYLMAR, CA, 91342","Match","Exact","14479 HERRON ST, SYLMAR, CA, 91342",141547478,"R"
185029,"14479 HUBBARD RD","PRAIRIE GROVE","AR",72753,35.904276989,-94.319052293,29,"14479 HUBBARD RD, PRAIRIE GROVE, AR, 72753","Match","Exact","14479 HUBBARD RD, PRAIRIE GROVE, AR, 72753",640550984,"L"
185030,"14479 SONGBIRD LANE","HASLET","TX",76052,33.0149448280001,-97.3818493159999,30,"14479 SONGBIRD LANE, HASLET, TX, 76052","Match","Exact","14479 SONGBIRD LN, HASLET, TX, 76052",103424298,"R"
185031,"14479 SW 138 CT","MIAMI","FL",33186,25.6324497090001,-80.4178449949999,31,"14479 SW 138 CT, MIAMI, FL, 33186","Match","Exact","14479 SW 138TH CT, MIAMI, FL, 33186",116069760,"L"
185032,"14479 SW STATE ROAD 47","FORT WHITE","FL",32038,29.97924113,-82.709936448,32,"14479 SW STATE ROAD 47, FORT WHITE, FL, 32038","Match","Non_Exact","14479 SW STATE RD 47, FORT WHITE, FL, 32038",649249386,"R"
185033,"1447A W CARMEN AVE","CHICAGO","IL",60640,41.9743953460001,-87.666071599,33,"1447A W CARMEN AVE, CHICAGO, IL, 60640","Match","Exact","1447 W CARMEN AVE, CHICAGO, IL, 60640",605158035,"L"
185034,"1448  SW 25TH PL APT C","BOYNTON BEACH","FL",33426,26.504142814,-80.089066395,34,"1448  SW 25TH PL APT C, BOYNTON BEACH, FL, 33426","Match","Non_Exact","1448 SW 25TH PL, BOYNTON BEACH, FL, 33426",115509615,"L"
185035,"1448 10TH STREET","WEST BABYLON","NY",11704,40.723401994,-73.365641812,35,"1448 10TH STREET, WEST BABYLON, NY, 11704","Match","Exact","1448 10TH ST, WEST BABYLON, NY, 11704",113975348,"L"
185036,"1448 110TH AVE","EYOTA","MN",55934,43.999958915,-92.259074797,36,"1448 110TH AVE, EYOTA, MN, 55934","Match","Non_Exact","1448 110TH AVE SE, EYOTA, MN, 55934",612124724,"L"
185037,"1448 130TH ST","ALEDO","IL",61231,41.2747068300001,-90.841109919,37,"1448 130TH ST, ALEDO, IL, 61231","Match","Exact","1448 130TH ST, ALEDO, IL, 61231",5474618,"L"
185038,"1448 18TH AVENUE","KINGSBURG","CA",93631,36.5139058340001,-119.54789198,38,"1448 18TH AVENUE, KINGSBURG, CA, 93631","Match","Exact","1448 18TH AVE, KINGSBURG, CA, 93631",197593283,"R"
185039,"1448 50TH STREET","BROOKLYN","NY",11219,40.632480044,-73.9894172959999,39,"1448 50TH STREET, BROOKLYN, NY, 11219","Match","Exact","1448 50TH ST, BROOKLYN, NY, 11219",59080266,"R"
185040,"1448 8TH ST","DES MOINES","IA",50314,41.6049013940001,-93.628001924,40,"1448 8TH ST, DES MOINES, IA, 50314","Match","Exact","1448 8TH ST, DES MOINES, IA, 50314",65782252,"L"
185041,"1448 AJAX WAY","LONGMONT","CO",80504,40.1859377380001,-105.060649056,41,"1448 AJAX WAY, LONGMONT, CO, 80504","Match","Exact","1448 AJAX WAY, LONGMONT, CO, 80504",636022445,"L"
185042,"1448 ARLINGTON","HOUSTON","TX",77008,29.7971805540001,-95.394328684,42,"1448 ARLINGTON, HOUSTON, TX, 77008","Match","Non_Exact","1448 ARLINGTON ST, HOUSTON, TX, 77008",96061317,"R"
185043,"1448 ASTER PLACE","CINCINNATI","OH",45212,39.191825377,-84.54401004,43,"1448 ASTER PLACE, CINCINNATI, OH, 45212","Match","Non_Exact","1448 ASTER PL, CINCINNATI, OH, 45224",103921338,"L"
185044,"1448 AVONLEA COURT","MOBILE","AL",36618,30.7188937130001,-88.176484694,44,"1448 AVONLEA COURT, MOBILE, AL, 36618","Match","Exact","1448 AVONLEA CT, MOBILE, AL, 36618",631953791,"L"
185045,"1448 BARNSDALE STREET","PITTSBURGH","PA",15217,40.443341268,-79.9151864569999,45,"1448 BARNSDALE STREET, PITTSBURGH, PA, 15217","Match","Non_Exact","1448 BARNESDALE ST, PITTSBURGH, PA, 15217",51652176,"R"
185046,"1448 BELL AVE","SACRAMENTO","CA",95838,38.6473733550001,-121.432619753,46,"1448 BELL AVE, SACRAMENTO, CA, 95838","Match","Exact","1448 BELL AVE, SACRAMENTO, CA, 95838",642585767,"R"
185047,"1448 BERKELEY ST B","SANTA MONICA","CA",90404,34.03624475,-118.468552311,47,"1448 BERKELEY ST B, SANTA MONICA, CA, 90404","Match","Exact","1448 BERKELEY ST, SANTA MONICA, CA, 90404",142717364,"R"
185048,"1448 BERKELEY STREET - B","SANTA MONICA","CA",90404,34.03624475,-118.468552311,48,"1448 BERKELEY STREET - B, SANTA MONICA, CA, 90404","Match","Exact","1448 BERKELEY ST, SANTA MONICA, CA, 90404",142717364,"R"
185049,"1448 BERNITA WAY","EL CAJON","CA",92020,32.774179508,-116.947258205,49,"1448 BERNITA WAY, EL CAJON, CA, 92020","Match","Exact","1448 BERNITA WAY, EL CAJON, CA, 92020",195656364,"L"
185050,"1448 BLUE GRADE","EAST WENATCHEE","WA",98802,NA,NA,50,"1448 BLUE GRADE, EAST WENATCHEE, WA, 98802","No_Match",NA,NA,NA,NA
185051,"1448 BRIERCREST LANE APT 7","MEMPHIS","TN",38127,35.2240451340001,-90.0167876689999,51,"1448 BRIERCREST LANE APT 7, MEMPHIS, TN, 38127","Match","Exact","1448 BRIERCREST LN, MEMPHIS, TN, 38127",72902155,"L"
185052,"1448 BROOKPARK DR","MANSFIELD","OH",44906,40.7194743150001,-82.559222049,52,"1448 BROOKPARK DR, MANSFIELD, OH, 44906","Match","Exact","1448 BROOKPARK DR, MANSFIELD, OH, 44906",12832035,"R"
185053,"1448 BROOKSIDE DRIVE","GERMANTOWN","TN",38138,35.109570385,-89.832595211,53,"1448 BROOKSIDE DRIVE, GERMANTOWN, TN, 38138","Match","Exact","1448 BROOKSIDE DR, GERMANTOWN, TN, 38138",72929305,"L"
185054,"1448 CALLE DEL JONELLA","PACIFIC PALISADES","CA",90272,34.0765431570001,-118.568373046,54,"1448 CALLE DEL JONELLA, PACIFIC PALISADES, CA, 90272","Match","Non_Exact","1448 CLL DEL JONELA, PACIFIC PALISADES, CA, 90272",141557182,"R"
185055,"1448 CARRINGTON RIDGE LANE","VIENNA","VA",22182,38.9355692090001,-77.2517069689999,55,"1448 CARRINGTON RIDGE LANE, VIENNA, VA, 22182","Match","Exact","1448 CARRINGTON RIDGE LN, VIENNA, VA, 22182",76046539,"R"
185056,"1448 CASTLETON AVE","STATEN ISLAND","NY",10302,40.634296648,-74.1310642989999,56,"1448 CASTLETON AVE, STATEN ISLAND, NY, 10302","Match","Exact","1448 CASTLETON AVE, STATEN ISLAND, NY, 10302",59877789,"L"
185057,"1448 CEDARWOOD DRIVE","SAN MATEO","CA",94403,37.5272533300001,-122.327751864,57,"1448 CEDARWOOD DRIVE, SAN MATEO, CA, 94403","Match","Exact","1448 CEDARWOOD DR, SAN MATEO, CA, 94403",192378813,"L"
185058,"1448 CENTRAL AVE","ST. LOUIS","MO",63139,38.625456969,-90.3043419049999,58,"1448 CENTRAL AVE, ST. LOUIS, MO, 63139","Match","Exact","1448 CENTRAL AVE, SAINT LOUIS, MO, 63139",107593467,"L"
185059,"1448 CHALK ROAD","WAKE FOREST","NC",27587,35.950704731,-78.485913308,59,"1448 CHALK ROAD, WAKE FOREST, NC, 27587","Match","Exact","1448 CHALK RD, WAKE FOREST, NC, 27587",634907073,"L"
185060,"1448 COLLEGE STREET","MEMPHIS","TN",38106,35.1079241750001,-90.030521919,60,"1448 COLLEGE STREET, MEMPHIS, TN, 38106","Match","Exact","1448 COLLEGE ST, MEMPHIS, TN, 38106",72908494,"L"
185061,"1448 COMMONWEALTH WAY","HEPHZIBAH","GA",30815,33.3247671350001,-81.9803390549999,61,"1448 COMMONWEALTH WAY, HEPHZIBAH, GA, 30815","Match","Exact","1448 COMMONWEALTH WAY, HEPHZIBAH, GA, 30815",604932985,"R"
185062,"1448 COUNTY ROAD 73 LOT 3","MYRTLE","MS",38650,34.5832408950001,-89.070794674,62,"1448 COUNTY ROAD 73 LOT 3, MYRTLE, MS, 38650","Match","Exact","1448 CO RD 73, MYRTLE, MS, 38650",605030008,"R"
185063,"1448 CR 230","MEADOW","TX",79345,33.3413787490001,-102.357258063,63,"1448 CR 230, MEADOW, TX, 79345","Match","Exact","1448 CO RD 230, MEADOW, TX, 79345",185889698,"L"
185064,"1448 CROCKER DR","EL DORADO HILLS","CA",95762,38.721392818,-121.094205421,64,"1448 CROCKER DR, EL DORADO HILLS, CA, 95762","Match","Exact","1448 CROCKER DR, EL DORADO HILLS, CA, 95762",645232570,"L"
185065,"1448 E 52ND ST STE 398","CHICAGO","IL",60615,41.8010073740001,-87.5897864469999,65,"1448 E 52ND ST STE 398, CHICAGO, IL, 60615","Match","Non_Exact","1448 E 52ND ST, CHICAGO, IL, 60615",111771725,"L"
185066,"1448 E 52ND ST","CHICAGO","IL",60615,41.8010073740001,-87.5897864469999,66,"1448 E 52ND ST, CHICAGO, IL, 60615","Match","Exact","1448 E 52ND ST, CHICAGO, IL, 60615",111771725,"L"
185067,"1448 E 52ND STREET - SUITE 164","CHICAGO","IL",60615,41.8010073740001,-87.5897864469999,67,"1448 E 52ND STREET - SUITE 164, CHICAGO, IL, 60615","Match","Non_Exact","1448 E 52ND ST, CHICAGO, IL, 60615",111771725,"L"
185068,"1448 E 85TH STREET 1FLOOR","BROOKLYN","NY",11236,40.612670693,-74.009988275,68,"1448 E 85TH STREET 1FLOOR, BROOKLYN, NY, 11236","Match","Non_Exact","1448 85TH ST, BROOKLYN, NY, 11228",59087842,"R"
185069,"1448 E BOB LN","SANDY","UT",84092,40.549371539,-111.849304021,69,"1448 E BOB LN, SANDY, UT, 84092","Match","Exact","1448 BOB LN, SANDY, UT, 84092",621650514,"R"
185070,"1448 E KATIE LN","PALATINE","IL",60074,42.096309094,-88.0087211539999,70,"1448 E KATIE LN, PALATINE, IL, 60074","Match","Exact","1448 E KATIE LN, PALATINE, IL, 60074",617314198,"R"
185071,"1448 EAST 22ND AVE","EUGENE","OR",97403,44.0356216690001,-123.070837226,71,"1448 EAST 22ND AVE, EUGENE, OR, 97403","Match","Exact","1448 E 22ND AVE, EUGENE, OR, 97403",178231470,"R"
185072,"1448 EAST STOKER COURT","MILFORD","OH",45140,39.221132009,-84.226047239,72,"1448 EAST STOKER COURT, MILFORD, OH, 45140","Match","Non_Exact","1448 E STOKER CT, MONTGOMERY, OH, 45140",118463827,"L"
185073,"1448 FOREST AVENUE","LAKEWOOD","NJ",8701,40.1054527520001,-74.221366126,73,"1448 FOREST AVENUE, LAKEWOOD, NJ, 8701","Match","Exact","1448 FOREST AVE, LAKEWOOD, NJ, 08701",203723408,"L"
185074,"1448 FREEMANS CT","PLUMAS LAKE","CA",95961,39.008814913,-121.545328838,74,"1448 FREEMANS CT, PLUMAS LAKE, CA, 95961","Match","Exact","1448 FREEMANS CT, PLUMAS LAKE, CA, 95961",611583332,"R"
185075,"1448 GROVE PARK DRIVE 1402","COLUMBUS","GA",31904,32.5585644270001,-84.9693166439999,75,"1448 GROVE PARK DRIVE 1402, COLUMBUS, GA, 31904","Match","Exact","1448 GROVE PARK DR, COLUMBUS, GA, 31904",650038666,"R"
185076,"1448 GROVE PARK DRIVE APT 111","COLUMBUS","GA",31904,32.5585644270001,-84.9693166439999,76,"1448 GROVE PARK DRIVE APT 111, COLUMBUS, GA, 31904","Match","Exact","1448 GROVE PARK DR, COLUMBUS, GA, 31904",650038666,"R"
185077,"1448 GROVE PARK DRIVE APT 1406","COLUMBUS","GA",31904,32.5585644270001,-84.9693166439999,77,"1448 GROVE PARK DRIVE APT 1406, COLUMBUS, GA, 31904","Match","Exact","1448 GROVE PARK DR, COLUMBUS, GA, 31904",650038666,"R"
185078,"1448 GROVE PARK DRIVE APT 1604","COLUBUS","GA",31904,32.5585644270001,-84.9693166439999,78,"1448 GROVE PARK DRIVE APT 1604, COLUBUS, GA, 31904","Match","Non_Exact","1448 GROVE PARK DR, COLUMBUS, GA, 31904",650038666,"R"
185079,"1448 GROVE PARK DRIVE","COLUMBUS","GA",31904,32.5585644270001,-84.9693166439999,79,"1448 GROVE PARK DRIVE, COLUMBUS, GA, 31904","Match","Exact","1448 GROVE PARK DR, COLUMBUS, GA, 31904",650038666,"R"
185080,"1448 HEBRON AVENUE","GLASTONBURY","CT",6033,41.716246158,-72.554826476,80,"1448 HEBRON AVENUE, GLASTONBURY, CT, 6033","Match","Exact","1448 HEBRON AVE, GLASTONBURY, CT, 06033",627158080,"R"
185081,"1448 INDIAN OAKS TRAIL","ARDEN HILLS","MN",55112,45.0696391070001,-93.1607046089999,81,"1448 INDIAN OAKS TRAIL, ARDEN HILLS, MN, 55112","Match","Exact","1448 INDIAN OAKS TRL, ARDEN HILLS, MN, 55112",97634982,"L"
185082,"1448 KIRKWOOD ROAD","HARRISBURG","PA",17110,40.32254242,-76.881129331,82,"1448 KIRKWOOD ROAD, HARRISBURG, PA, 17110","Match","Exact","1448 KIRKWOOD RD, HARRISBURG, PA, 17110",70840157,"R"
185083,"1448 LAFAYETTE DRIVE","OKC","OK",73119,35.4149982610001,-97.542100349,83,"1448 LAFAYETTE DRIVE, OKC, OK, 73119","Match","Non_Exact","1448 LAFAYETTE DR, OKLAHOMA CITY, OK, 73119",100405700,"L"
185084,"1448 LAUREL ST NE","VALDESE","NC",28690,35.7599113900001,-81.560037804,84,"1448 LAUREL ST NE, VALDESE, NC, 28690","Match","Exact","1448 LAUREL ST NE, VALDESE, NC, 28690",37158372,"L"
185085,"1448 LIBERTY CHURCH RD","MOCKSVILLE","NC",27028,36.012296597,-80.651214001,85,"1448 LIBERTY CHURCH RD, MOCKSVILLE, NC, 27028","Match","Exact","1448 LIBERTY CHURCH RD, MOCKSVILLE, NC, 27028",640642571,"R"
185086,"1448 LONDON DRIVE","HIGH POINT","NC",27260,35.9788253940001,-79.968122934,86,"1448 LONDON DRIVE, HIGH POINT, NC, 27260","Match","Exact","1448 LONDON DR, HIGH POINT, NC, 27260",131042742,"R"
185087,"1448 MADRONA","SEATTLE","WA",98122,47.6134754290001,-122.282566589,87,"1448 MADRONA, SEATTLE, WA, 98122","Match","Non_Exact","1448 MADRONA DR, SEATTLE, WA, 98122",186965825,"R"
185088,"1448 MAPLE AVE","BERWYN","IL",60402,41.8604754630001,-87.80274385,88,"1448 MAPLE AVE, BERWYN, IL, 60402","Match","Exact","1448 MAPLE AVE, BERWYN, IL, 60402",111793927,"R"
185089,"1448 MARTY DRIVE","REYNOLDSBURG","OH",43068,39.952866763,-82.8118359979999,89,"1448 MARTY DRIVE, REYNOLDSBURG, OH, 43068","Match","Exact","1448 MARTY DR, REYNOLDSBURG, OH, 43068",218650047,"L"
185090,"1448 N ALMOND WAY","BANNING","CA",92220,33.938555971,-116.866954655,90,"1448 N ALMOND WAY, BANNING, CA, 92220","Match","Exact","1448 ALMOND WAY, BANNING, CA, 92220",194688574,"R"
185091,"1448 N CLIFF VALLEY WAY APT D","ATLANTA","GA",30319,NA,NA,91,"1448 N CLIFF VALLEY WAY APT D, ATLANTA, GA, 30319","No_Match",NA,NA,NA,NA
185092,"1448 N HEIGHTS LN","SHERIDAN","WY",82801,44.8138695800001,-106.974935492,92,"1448 N HEIGHTS LN, SHERIDAN, WY, 82801","Match","Exact","1448 N HEIGHTS LN, SHERIDAN, WY, 82801",147405759,"L"
185093,"1448 N LIBERTY ST","JACKSONVILLE","FL",32206,30.3407279470001,-81.649839174,93,"1448 N LIBERTY ST, JACKSONVILLE, FL, 32206","Match","Exact","1448 N LIBERTY ST, JACKSONVILLE, FL, 32206",83899390,"L"
185094,"1448 NORTH 250 SOUTH","LEHI","UT",84043,40.405642147,-111.853448089,94,"1448 NORTH 250 SOUTH, LEHI, UT, 84043","Match","Non_Exact","1448 N 250 W, LEHI, UT, 84043",134263922,"R"
185095,"1448 NORTH MAPLEWOOD AVE APT 1-R","CHICAGO","IL",60622,41.9075272600001,-87.69083914,95,"1448 NORTH MAPLEWOOD AVE APT 1-R, CHICAGO, IL, 60622","Match","Exact","1448 N MAPLEWOOD AVE, CHICAGO, IL, 60622",111763199,"L"
185096,"1448 NW 42ND STREET","MIAMI","FL",33142,25.814103926,-80.220932869,96,"1448 NW 42ND STREET, MIAMI, FL, 33142","Match","Exact","1448 NW 42ND ST, MIAMI, FL, 33142",116005283,"L"
185097,"1448 OAK STREET","WASHINGTON","DC",20010,38.9342620370001,-77.034294525,97,"1448 OAK STREET, WASHINGTON, DC, 20010","Match","Non_Exact","1448 OAK ST NW, WASHINGTON, DC, 20010",76222944,"L"
185098,"1448 PALM BEACH STREET","CHULA VISTA","CA",91915,32.6315291510001,-116.951551777,98,"1448 PALM BEACH STREET, CHULA VISTA, CA, 91915","Match","Exact","1448 PALM BEACH ST, CHULA VISTA, CA, 91915",195672491,"R"
185099,"1448 PICARD RD","COLUMBUS","OH",43227,39.9425289910001,-82.903574339,99,"1448 PICARD RD, COLUMBUS, OH, 43227","Match","Exact","1448 PICARD RD, COLUMBUS, OH, 43227",218678770,"L"
185100,"1448 RED HILL RD","MT. VERNON","AR",72111,35.193581904,-92.0858820289999,100,"1448 RED HILL RD, MT. VERNON, AR, 72111","Match","Exact","1448 RED HILL RD, MOUNT VERNON, AR, 72111",605763131,"R"
185101,"1448 REDMOND CIR E","CORDOVA","TN",38016,35.164673592,-89.7132652349999,101,"1448 REDMOND CIR E, CORDOVA, TN, 38016","Match","Exact","1448 REDMOND CIR E, CORDOVA, TN, 38016",612564076,"L"
185102,"1448 REDMOND CIR E","CORDOVE","TN",38016,35.164673592,-89.7132652349999,102,"1448 REDMOND CIR E, CORDOVE, TN, 38016","Match","Non_Exact","1448 REDMOND CIR E, CORDOVA, TN, 38016",612564076,"L"
185103,"1448 RIO GRAND AVE","ORLANDO","FL",32805,28.5264419910001,-81.399786881,103,"1448 RIO GRAND AVE, ORLANDO, FL, 32805","Match","Non_Exact","1448 GRAND ST, ORLANDO, FL, 32805",653886602,"L"
185104,"1448 RIPPLING WATERS CIRCLE","SEVIERVILLE","TN",37876,35.9107450230001,-83.691977052,104,"1448 RIPPLING WATERS CIRCLE, SEVIERVILLE, TN, 37876","Match","Exact","1448 RIPPLING WATERS CIR, SEVIERVILLE, TN, 37876",614701248,"L"
185105,"1448 ROUGH RIDER LN","PARKTON","NC",28371,34.9533518800001,-78.983367184,105,"1448 ROUGH RIDER LN, PARKTON, NC, 28371","Match","Exact","1448 ROUGH RIDER LN, PARKTON, NC, 28371",627862243,"R"
185106,"1448 ROUGH RYDER LN","PARKTON","NC",28371,34.9533518800001,-78.983367184,106,"1448 ROUGH RYDER LN, PARKTON, NC, 28371","Match","Non_Exact","1448 ROUGH RIDER LN, PARKTON, NC, 28371",627862243,"R"
185107,"1448 S ALTMAN DR","NEW RICHMOND","OH",45157,38.905131424,-84.236875171,107,"1448 S ALTMAN DR, NEW RICHMOND, OH, 45157","Match","Exact","1448 S ALTMAN DR, NEW RICHMOND, OH, 45157",118451609,"R"
185108,"1448 S FAIRFIELD AVE","LOMBARD","IL",60148,41.8558349460001,-88.004754213,108,"1448 S FAIRFIELD AVE, LOMBARD, IL, 60148","Match","Exact","1448 S FAIRFIELD AVE, LOMBARD, IL, 60148",639891406,"R"
185109,"1448 S FAIRWOOD AVE","SPRINGFIELD","MO",65809,37.1850664790001,-93.179270327,109,"1448 S FAIRWOOD AVE, SPRINGFIELD, MO, 65809","Match","Exact","1448 S FAIRWOOD AVE, SPRINGFIELD, MO, 65809",76686577,"L"
185110,"1448 S HWY 341","CHICKAMAUGA","GA",30741,NA,NA,110,"1448 S HWY 341, CHICKAMAUGA, GA, 30741","No_Match",NA,NA,NA,NA
185111,"1448 SAN PABLO AVE","BERKELEY","CA",94702,37.877220305,-122.294887327,111,"1448 SAN PABLO AVE, BERKELEY, CA, 94702","Match","Exact","1448 SAN PABLO AVE, BERKELEY, CA, 94702",124992915,"R"
185112,"1448 SE 13TH ST","FORT LAUDERDALE","FL",33316,26.1056295490001,-80.128587389,112,"1448 SE 13TH ST, FORT LAUDERDALE, FL, 33316","Match","Exact","1448 SE 13TH ST, FORT LAUDERDALE, FL, 33316",114728346,"R"
185113,"1448 SEAGULL DRIVE APT 312","PALM HARBOR","FL",34685,28.067722385,-82.707598429,113,"1448 SEAGULL DRIVE APT 312, PALM HARBOR, FL, 34685","Match","Exact","1448 SEAGULL DR, PALM HARBOR, FL, 34685",630022538,"L"
185114,"1448 SNOWDEN AVE","MEMPHIS","TN",38107,35.15706111,-90.0109454719999,114,"1448 SNOWDEN AVE, MEMPHIS, TN, 38107","Match","Exact","1448 SNOWDEN AVE, MEMPHIS, TN, 38107",72904746,"L"
185115,"1448 SOUTH 9TH STREET","CAMDEN","NJ",8104,39.9286703770001,-75.111303914,115,"1448 SOUTH 9TH STREET, CAMDEN, NJ, 8104","Match","Exact","1448 S 9TH ST, CAMDEN, NJ, 08104",134346242,"L"
185116,"1448 SR 116","ST. MARYS","OH",45885,NA,NA,116,"1448 SR 116, ST. MARYS, OH, 45885","No_Match",NA,NA,NA,NA
185117,"1448 SUMNER AVE","SCHENECTADY","NY",12309,42.816514172,-73.906055496,117,"1448 SUMNER AVE, SCHENECTADY, NY, 12309","Match","Exact","1448 SUMNER AVE, SCHENECTADY, NY, 12309",637574691,"R"
185118,"1448 SWEETBAY CT","BELLINGHAM","WA",98229,48.749188229,-122.445979415,118,"1448 SWEETBAY CT, BELLINGHAM, WA, 98229","Match","Exact","1448 SWEETBAY CT, BELLINGHAM, WA, 98229",183786246,"R"
185119,"1448 TALISMAN CIRCLE","VIRGINIA BEACH","VA",23464,36.796097536,-76.171483772,119,"1448 TALISMAN CIRCLE, VIRGINIA BEACH, VA, 23464","Match","Exact","1448 TALISMAN CIR, VA BCH, VA, 23464",122264560,"L"
185120,"1448 THOMAS AVENUE","SAN DIEGO","CA",92109,32.7962737490001,-117.242737278,120,"1448 THOMAS AVENUE, SAN DIEGO, CA, 92109","Match","Exact","1448 THOMAS AVE, SAN DIEGO, CA, 92109",195303010,"L"
185121,"1448 TUMBLEROCK COURT","LOGANVILLE","GA",30052,33.8275588500001,-83.9517992999999,121,"1448 TUMBLEROCK COURT, LOGANVILLE, GA, 30052","Match","Exact","1448 TUMBLEROCK CT, LOGANVILLE, GA, 30052",627979782,"L"
185122,"1448 UNION ST","BROOKLYN","NY",11213,40.668433125,-73.9418517249999,122,"1448 UNION ST, BROOKLYN, NY, 11213","Match","Exact","1448 UNION ST, BROOKLYN, NY, 11213",59079698,"R"
185123,"1448 VERNON AVE","LOUISVILLE","KY",40206,38.257619591,-85.7065772509999,123,"1448 VERNON AVE, LOUISVILLE, KY, 40206","Match","Exact","1448 VERNON AVE, LOUISVILLE, KY, 40206",96913110,"L"
185124,"1448 VICKSBURG DRIVE","BELLEVILLE","IL",62221,38.512576682,-89.939936996,124,"1448 VICKSBURG DRIVE, BELLEVILLE, IL, 62221","Match","Exact","1448 VICKSBURG DR, BELLEVILLE, IL, 62221",107844328,"R"
185125,"1448 VISTA LEAF DRIVE","DECATUR","GA",30033,33.822766345,-84.289238296,125,"1448 VISTA LEAF DRIVE, DECATUR, GA, 30033","Match","Exact","1448 VISTA LEAF DR, DECATUR, GA, 30033",23386422,"L"
185126,"1448 W LARKSPUR LANE","RIVER HILLS","WI",53217,43.175428783,-87.927002172,126,"1448 W LARKSPUR LANE, RIVER HILLS, WI, 53217","Match","Exact","1448 W LARKSPUR LN, RIVER HILLS, WI, 53217",77734949,"R"
185127,"1448 WEST GRANGE STREET","PHILADELPHIA","PA",19141,40.0412987870001,-75.145313274,127,"1448 WEST GRANGE STREET, PHILADELPHIA, PA, 19141","Match","Non_Exact","1448 W GRANGE AVE, PHILADELPHIA, PA, 19141",131449383,"L"
185128,"1448 WOODGATE WAY","TALLAHASEE","FL",32308,30.4845162070001,-84.249960635,128,"1448 WOODGATE WAY, TALLAHASEE, FL, 32308","Match","Non_Exact","1448 WOODGATE WAY, TALLAHASSEE, FL, 32308",82853095,"L"
185129,"1448","SACRAMENTO","CA",95838,NA,NA,129,"1448, SACRAMENTO, CA, 95838","No_Match",NA,NA,NA,NA
185130,"14480 BELLEPOINTE ROAD","MARYSVILLE","OH",43040,40.2213333810001,-83.2429918299999,130,"14480 BELLEPOINTE ROAD, MARYSVILLE, OH, 43040","Match","Non_Exact","14480 BELLEPOINT RD, MARYSVILLE, OH, 43040",135353345,"L"
185131,"14480 DOUBLE DUTCH CIRCLE","PARKER","CO",80134,39.514360814,-104.825040609,131,"14480 DOUBLE DUTCH CIRCLE, PARKER, CO, 80134","Match","Exact","14480 DOUBLE DUTCH CIR, PARKER, CO, 80134",645843123,"L"
185132,"14480 GLOBSTAD BEACH ROAD","LAKE PARK","MN",56554,46.752259237,-96.1043810469999,132,"14480 GLOBSTAD BEACH ROAD, LAKE PARK, MN, 56554","Match","Exact","14480 GLOBSTAD BEACH RD, LAKE PARK, MN, 56554",167961569,"L"
185133,"14480 LIVINGSTON LANE","CARMEL","IN",46074,39.997672965,-86.208611,133,"14480 LIVINGSTON LANE, CARMEL, IN, 46074","Match","Exact","14480 LIVINGSTON LN, CARMEL, IN, 46074",619982398,"L"
185134,"14480 OUTER HESPERIA","VICTORVILLE","CA",92395,34.5140152880001,-117.298774165,134,"14480 OUTER HESPERIA, VICTORVILLE, CA, 92395","Match","Non_Exact","14480 OUTER HESPERIA RD, VICTORVILLE, CA, 92395",144574014,"L"
185135,"14480 PENDOLA RD","CAMPTONVILLE","CA",95922,NA,NA,135,"14480 PENDOLA RD, CAMPTONVILLE, CA, 95922","No_Match",NA,NA,NA,NA
185136,"14480 SHRINERS BLVD","BILOXI","MS",39532,30.4981902490001,-88.963975477,136,"14480 SHRINERS BLVD, BILOXI, MS, 39532","Match","Exact","14480 SHRINERS BLVD, BILOXI, MS, 39532",111434139,"R"
185137,"14481 BLACK HORSE CT","CENTREVILLE","VA",20120,38.8445548920001,-77.445434147,137,"14481 BLACK HORSE CT, CENTREVILLE, VA, 20120","Match","Exact","14481 BLACK HORSE CT, CENTREVILLE, VA, 20120",76011376,"L"
185138,"14481 CANADA ROAD","TUCKASEGEE","NC",28783,35.2154874720001,-82.988221498,138,"14481 CANADA ROAD, TUCKASEGEE, NC, 28783","Match","Exact","14481 CANADA RD, TUCKASEGEE, NC, 28783",35990560,"R"
185139,"14481 COQUILLE CT","LOCKEFORD","CA",95237,38.156278808,-121.139464167,139,"14481 COQUILLE CT, LOCKEFORD, CA, 95237","Match","Exact","14481 COQUILLE CT, LOCKEFORD, CA, 95237",133862497,"L"
185140,"14481 DANES CIRCLE","HUNTINGTON BEACH","CA",92647,33.751982931,-118.023073936,140,"14481 DANES CIRCLE, HUNTINGTON BEACH, CA, 92647","Match","Exact","14481 DANES CIR, HUNTINGTON BEACH, CA, 92647",144004224,"R"
185141,"14481 MCCASSLIN LAKE RD","LINDEN","MI",48451,42.812775732,-83.8609162,141,"14481 MCCASSLIN LAKE RD, LINDEN, MI, 48451","Match","Non_Exact","14481 MCCASLIN LAKE RD, LINDEN, MI, 48451",624781379,"R"
185142,"14481 SE 98TH CT","SUMMERFIELD","FL",34491,29.011772754,-81.989935475,142,"14481 SE 98TH CT, SUMMERFIELD, FL, 34491","Match","Exact","14481 SE 98TH CT, SUMMERFIELD, FL, 34491",116802520,"R"
185143,"14481 SOUTHERN HILLS LANE","POWAY","CA",92064,32.9715972320001,-117.020604041,143,"14481 SOUTHERN HILLS LANE, POWAY, CA, 92064","Match","Exact","14481 SOUTHERN HILLS LN, POWAY, CA, 92064",612892860,"R"
185144,"14481 SOUTHERN HILLS LANE","POWAY",NA,NA,32.9715972320001,-117.020604041,144,"14481 SOUTHERN HILLS LANE, POWAY, , ","Match","Exact","14481 SOUTHERN HILLS LN, POWAY, CA, 92064",612892860,"R"
185145,"14481 WALKER ROAD","CONROE","TX",77302,30.1777676580001,-95.355824734,145,"14481 WALKER ROAD, CONROE, TX, 77302","Match","Exact","14481 WALKER RD, CONROE, TX, 77302",79311098,"R"
185146,"14481 WILLOW CIRCLE","STRONGSVILLE","OH",44136,41.3362033860001,-81.7976081309999,146,"14481 WILLOW CIRCLE, STRONGSVILLE, OH, 44136","Match","Exact","14481 WILLOW CIR, STRONGSVILLE, OH, 44136",61150690,"R"
185147,"14482 305TH AVE NW","PRINCETON","MN",55371,NA,NA,147,"14482 305TH AVE NW, PRINCETON, MN, 55371","No_Match",NA,NA,NA,NA
185148,"14482 CAMBRIA RD","CARTERVILLE","IL",62918,37.8050111910001,-89.1209618729999,148,"14482 CAMBRIA RD, CARTERVILLE, IL, 62918","Match","Exact","14482 CAMBRIA RD, CARTERVILLE, IL, 62918",6003476,"R"
185149,"14482 LAWTON ROAD","COTTONDALE","AL",35453,33.195101123,-87.370720459,149,"14482 LAWTON ROAD, COTTONDALE, AL, 35453","Match","Exact","14482 LAWTON RD, COTTONDALE, AL, 35453",82172284,"L"
185150,"14482 N LANTANA BLVD","SKIATOOK","OK",74070,36.36428741,-95.930187487,150,"14482 N LANTANA BLVD, SKIATOOK, OK, 74070","Match","Non_Exact","14482 N LANTANA BLVD E, SKIATOOK, OK, 74070",633722972,"R"
185151,"14483 FENTON ST","BROOMFIELD","CO",80020,39.9590538260001,-105.059986731,151,"14483 FENTON ST, BROOMFIELD, CO, 80020","Match","Exact","14483 FENTON ST, BROOMFIELD, CO, 80020",220748559,"R"
185152,"14483 NE 140TH AVENUE","WALDO","FL",32694,29.783834051,-82.16866099,152,"14483 NE 140TH AVENUE, WALDO, FL, 32694","Match","Exact","14483 NE 140TH AVE, WALDO, FL, 32694",637950338,"R"
185153,"14483 RD 31","ANTWERP","OH",45813,41.1892199490001,-84.761070316,153,"14483 RD 31, ANTWERP, OH, 45813","Match","Exact","14483 RD 31, ANTWERP, OH, 45813",635504364,"R"
185154,"14484 300TH STREET","OBLONG","IL",62449,39.0638364210001,-87.8903769629999,154,"14484 300TH STREET, OBLONG, IL, 62449","Match","Non_Exact","14484 N 300TH ST, OBLONG, IL, 62449",26966515,"L"
185155,"14485 NW 160TH AVE","WILLISTON","FL",32696,29.3525529930001,-82.388710233,155,"14485 NW 160TH AVE, WILLISTON, FL, 32696","Match","Exact","14485 NW 160TH AVE, WILLISTON, FL, 32696",651729717,"R"
185156,"14485 SW PRAIRIE CREEK RD","ROSE HILL","KS",67133,37.6151026630001,-97.116968643,156,"14485 SW PRAIRIE CREEK RD, ROSE HILL, KS, 67133","Match","Exact","14485 SW PRAIRIE CREEK RD, ROSE HILL, KS, 67133",32274894,"L"
185157,"14485 SWITCHBACK ROAD","SPRING HILL","FL",34609,28.5174539180001,-82.483060401,157,"14485 SWITCHBACK ROAD, SPRING HILL, FL, 34609","Match","Non_Exact","14485 SWITCH BACK RD, SPRING HILL, FL, 34609",85426927,"R"
185158,"14485 TAWNEY RIDGE LANE","VICTORVILLE","CA",92394,34.535745632,-117.349598386,158,"14485 TAWNEY RIDGE LANE, VICTORVILLE, CA, 92394","Match","Exact","14485 TAWNEY RIDGE LN, VICTORVILLE, CA, 92394",614863582,"L"
185159,"14486 LELAND CIRCLE","SARATOGA","CA",95070,37.257668805,-122.005308444,159,"14486 LELAND CIRCLE, SARATOGA, CA, 95070","Match","Exact","14486 LELAND CIR, SARATOGA, CA, 95070",122943330,"R"
185160,"14486 NCR 3300","PAULS VALLEY","OK",73075,NA,NA,160,"14486 NCR 3300, PAULS VALLEY, OK, 73075","No_Match",NA,NA,NA,NA
185161,"14486 SE LYON CT","HAPPY VALLEY","OR",97086,45.4282281440001,-122.514460745,161,"14486 SE LYON CT, HAPPY VALLEY, OR, 97086","Match","Exact","14486 SE LYON CT, HAPPY VALLEY, OR, 97086",641447908,"R"
185162,"14487 CUCHARA WAY","HERRIMAN","UT",84096,40.487970031,-112.030902198,162,"14487 CUCHARA WAY, HERRIMAN, UT, 84096","Match","Non_Exact","14487 S CUCHARA WAY, HERRIMAN, UT, 84096",604582177,"L"
185163,"144872 COUNTY ROAD N","MARATHON","WI",54448,NA,NA,163,"144872 COUNTY ROAD N, MARATHON, WI, 54448","No_Match",NA,NA,NA,NA
185164,"14488 58TH AVE S","TUKWILA","WA",98168,47.4731262070001,-122.260769611,164,"14488 58TH AVE S, TUKWILA, WA, 98168","Match","Exact","14488 58TH AVE S, TUKWILA, WA, 98168",239776124,"L"
185165,"14488 EAST 101ST PLACE","COMMERCE CITY","CO",80022,39.881184095,-104.81920924,165,"14488 EAST 101ST PLACE, COMMERCE CITY, CO, 80022","Match","Exact","14488 E 101ST PL, COMMERCE CITY, CO, 80022",177425628,"L"
185166,"14488 JEKYLL ISLAND CT","NAPLES","FL",34119,26.2615897430001,-81.7027975619999,166,"14488 JEKYLL ISLAND CT, NAPLES, FL, 34119","Match","Exact","14488 JEKYLL ISLAND CT, NAPLES, FL, 34119",115212364,"R"
185167,"14488 NELSON HILL ROAD","MILFORD","VA",22514,38.014899848,-77.3909688429999,167,"14488 NELSON HILL ROAD, MILFORD, VA, 22514","Match","Exact","14488 NELSON HILL RD, MILFORD, VA, 22514",640004495,"R"
185168,"14488 RAVENNA AVENUE","ALLIANCE","OH",44601,40.981295597,-81.249718435,168,"14488 RAVENNA AVENUE, ALLIANCE, OH, 44601","Match","Non_Exact","14488 RAVENNA AVE NE, ALLIANCE, OH, 44601",652733128,"R"
185169,"14488 WINTERGREEN DR","GRAND HAVEN","MI",49417,43.0089738200001,-86.1465374649999,169,"14488 WINTERGREEN DR, GRAND HAVEN, MI, 49417","Match","Non_Exact","14488 WINTERGREEN, GRAND HAVEN, MI, 49417",625080605,"L"
185170,"14489 BRAMELL","DETROIT","MI",48223,42.392787802,-83.264133903,170,"14489 BRAMELL, DETROIT, MI, 48223","Match","Exact","14489 BRAMELL, DETROIT, MI, 48223",95431094,"L"
185171,"14489 E RADCLIFF DR","AURORA","CO",80015,39.637683683,-104.819772103,171,"14489 E RADCLIFF DR, AURORA, CO, 80015","Match","Exact","14489 E RADCLIFF DR, AURORA, CO, 80015",177548025,"L"
185172,"14489 GIBRALTER RD","ANACORTES","WA",98221,48.4321671870001,-122.582343667,172,"14489 GIBRALTER RD, ANACORTES, WA, 98221","Match","Exact","14489 GIBRALTER RD, ANACORTES, WA, 98221",183647745,"R"
185173,"14489 N JACK TONE RD","LODI","CA",95240,38.112339723,-121.150864071,173,"14489 N JACK TONE RD, LODI, CA, 95240","Match","Exact","14489 N JACK TONE RD, LODI, CA, 95240",133855886,"L"
185174,"14489 RUSTLING LEAVES LN","CENTREVILLE","VA",20121,38.8348954040001,-77.447029481,174,"14489 RUSTLING LEAVES LN, CENTREVILLE, VA, 20121","Match","Exact","14489 RUSTLING LEAVES LN, CENTREVILLE, VA, 20121",75955618,"R"
185175,"1449 41ST STREET","BROOKLYN","NY",11218,40.6374618510001,-73.984056085,175,"1449 41ST STREET, BROOKLYN, NY, 11218","Match","Exact","1449 41ST ST, BROOKLYN, NY, 11218",652209051,"L"
185176,"1449 52ND AVE NORTHEAST","SAINT PETERSBURG","FL",33703,27.8199396640001,-82.6120605199999,176,"1449 52ND AVE NORTHEAST, SAINT PETERSBURG, FL, 33703","Match","Exact","1449 52ND AVE NE, SAINT PETERSBURG, FL, 33703",124712560,"L"
185177,"1449 ATLANTA DRIVE","BISMARCK","ND",58504,46.7881452030001,-100.782452847,177,"1449 ATLANTA DRIVE, BISMARCK, ND, 58504","Match","Exact","1449 ATLANTA DR, BISMARCK, ND, 58504",198849329,"L"
185178,"1449 BRETT SHANE","GASTONIA","NC",28052,35.247695902,-81.216544502,178,"1449 BRETT SHANE, GASTONIA, NC, 28052","Match","Exact","1449 BRETT SHANE, GASTONIA, NC, 28052",624866127,"R"
185179,"1449 BRYDEN RD APT C","COLUMBUS","OH",43205,39.9602999140001,-82.9608185709999,179,"1449 BRYDEN RD APT C, COLUMBUS, OH, 43205","Match","Exact","1449 BRYDEN RD, COLUMBUS, OH, 43205",135581697,"R"
185180,"1449 CAMBRIDGE DR","CORPUS CHRISTI","TX",78415,27.7525077920001,-97.405014916,180,"1449 CAMBRIDGE DR, CORPUS CHRISTI, TX, 78415","Match","Exact","1449 CAMBRIDGE DR, CORPUS CHRISTI, TX, 78415",178517407,"R"
185181,"1449 CEDARCREST LN","BRYAN","TX",77803,30.6626125220001,-96.38285093,181,"1449 CEDARCREST LN, BRYAN, TX, 77803","Match","Exact","1449 CEDARCREST LN, BRYAN, TX, 77803",21834955,"R"
185182,"1449 CHEBOYGAN RD","OKEMOS","MI",48864,42.704022282,-84.400848864,182,"1449 CHEBOYGAN RD, OKEMOS, MI, 48864","Match","Exact","1449 CHEBOYGAN RD, OKEMOS, MI, 48864",17506389,"L"
185183,"1449 CONNECTICUT DRIVE","REDWOOD CITY","CA",94061,37.460293639,-122.237054906,183,"1449 CONNECTICUT DRIVE, REDWOOD CITY, CA, 94061","Match","Exact","1449 CONNECTICUT DR, REDWOOD CITY, CA, 94061",192362740,"L"
185184,"1449 COUNTY ROAD 2297","CLEVELAND","TX",77327,30.258324644,-94.8954729019999,184,"1449 COUNTY ROAD 2297, CLEVELAND, TX, 77327","Match","Exact","1449 CO RD 2297, CLEVELAND, TX, 77327",24105880,"L"
185185,"1449 COUNTY ROAD 3413","CHANDLER","TX",75758,32.2308909400001,-95.551448828,185,"1449 COUNTY ROAD 3413, CHANDLER, TX, 75758","Match","Exact","1449 CO RD 3413, CHANDLER, TX, 75758",125829820,"L"
185186,"1449 E BRUCE AVE","GILBERT","AZ",85234,33.352529412,-111.758065028,186,"1449 E BRUCE AVE, GILBERT, AZ, 85234","Match","Exact","1449 E BRUCE AVE, GILBERT, AZ, 85234",128796591,"R"
185187,"1449 E HAZELTINE STREET","ONTARIO","CA",91761,34.02454972,-117.621920396,187,"1449 E HAZELTINE STREET, ONTARIO, CA, 91761","Match","Exact","1449 E HAZELTINE ST, ONTARIO, CA, 91761",144636927,"R"
185188,"1449 EAST D STREET","ONTARIO","CA",91764,34.0671133210001,-117.621568508,188,"1449 EAST D STREET, ONTARIO, CA, 91764","Match","Exact","1449 E D ST, ONTARIO, CA, 91764",614818896,"L"
185189,"1449 ETZLER RD","TROUTVILLE","VA",24175,37.4444005890001,-79.9335617149999,189,"1449 ETZLER RD, TROUTVILLE, VA, 24175","Match","Exact","1449 ETZLER RD, TROUTVILLE, VA, 24175",62469750,"L"
185190,"1449 EVERGREEN DR","LEWISVILLE","TX",75067,33.046544016,-97.029725948,190,"1449 EVERGREEN DR, LEWISVILLE, TX, 75067","Match","Exact","1449 EVERGREEN DR, LEWISVILLE, TX, 75067",103348365,"L"
185191,"1449 F ST","PAWNEE CITY","NE",68420,40.117177391,-96.1542820499999,191,"1449 F ST, PAWNEE CITY, NE, 68420","Match","Exact","1449 F ST, PAWNEE CITY, NE, 68420",34451434,"L"
185192,"1449 FERDINAND STREET","TACOMA","WA",98405,NA,NA,192,"1449 FERDINAND STREET, TACOMA, WA, 98405","No_Match",NA,NA,NA,NA
185193,"1449 FUNSTON AVE","ATLANTA","GA",30315,NA,NA,193,"1449 FUNSTON AVE, ATLANTA, GA, 30315","No_Match",NA,NA,NA,NA
185194,"1449 GAIRLOCH DR","FAYETTEVILLE","NC",28304,35.034049586,-78.994176612,194,"1449 GAIRLOCH DR, FAYETTEVILLE, NC, 28304","Match","Exact","1449 GAIRLOCH DR, FAYETTEVILLE, NC, 28304",64195571,"R"
185195,"1449 GRANADA PLACE","FAR ROCKAWAY","NY",11691,NA,NA,195,"1449 GRANADA PLACE, FAR ROCKAWAY, NY, 11691","No_Match",NA,NA,NA,NA
185196,"1449 H STREET","PAWNEE CITY","NE",68420,40.117395742,-96.1519834269999,196,"1449 H STREET, PAWNEE CITY, NE, 68420","Match","Exact","1449 H ST, PAWNEE CITY, NE, 68420",34451438,"L"
185197,"1449 HARVARD STREET NW","WASHINGTON","DC",20009,38.9264016650001,-77.034277886,197,"1449 HARVARD STREET NW, WASHINGTON, DC, 20009","Match","Exact","1449 HARVARD ST NW, WASHINGTON, DC, 20009",76223005,"R"
185198,"1449 HAYNESCREST CT","GRAYSON","GA",30017,33.8627598460001,-83.974541887,198,"1449 HAYNESCREST CT, GRAYSON, GA, 30017","Match","Exact","1449 HAYNESCREST CT, GRAYSON, GA, 30017",624794679,"R"
185199,"1449 HIGHWAY 304 LOT 2","THIBODAUX","LA",70301,29.859436514,-90.849899352,199,"1449 HIGHWAY 304 LOT 2, THIBODAUX, LA, 70301","Match","Exact","1449 HWY 304, THIBODAUX, LA, 70301",92329966,"R"
185200,"1449 HIGHWAY 5 NE","BOTTINEAU","ND",58318,NA,NA,200,"1449 HIGHWAY 5 NE, BOTTINEAU, ND, 58318","No_Match",NA,NA,NA,NA
185201,"1449 HIGHWAY CHURCH RD","ELGIN","SC",29045,34.1628334420001,-80.7937188989999,201,"1449 HIGHWAY CHURCH RD, ELGIN, SC, 29045","Match","Exact","1449 HIGHWAY CHURCH RD, ELGIN, SC, 29045",632425355,"L"
185202,"1449 HILLCREST AVE NW","GRAND RAPIDS","MI",49504,42.9906405470001,-85.716447906,202,"1449 HILLCREST AVE NW, GRAND RAPIDS, MI, 49504","Match","Exact","1449 HILLCREST AVE NW, GRAND RAPIDS, MI, 49504",12453265,"L"
185203,"1449 HILLSIDE DRIVE","RENO","NV",89503,39.5427551430001,-119.818865473,203,"1449 HILLSIDE DRIVE, RENO, NV, 89503","Match","Exact","1449 HILLSIDE DR, RENO, NV, 89503",107042774,"L"
185204,"1449 HOME ROAD","WOODSIDE","CA",94062,37.3926834480001,-122.24508747,204,"1449 HOME ROAD, WOODSIDE, CA, 94062","Match","Exact","1449 HOME RD, WOODSIDE, CA, 94062",640128275,"R"
185205,"1449 KEYWAY RD","ENGLEWOOD","FL",34223,27.006573718,-82.3869130639999,205,"1449 KEYWAY RD, ENGLEWOOD, FL, 34223","Match","Exact","1449 KEYWAY RD, ENGLEWOOD, FL, 34223",16364835,"R"
185206,"1449 LAURA LN","DALLAS","TX",75241,32.6639101710001,-96.800122943,206,"1449 LAURA LN, DALLAS, TX, 75241","Match","Exact","1449 LAURA LN, DALLAS, TX, 75241",102954573,"L"
185207,"1449 LEE ROAD 400","OPELIKA","AL",36804,32.5446569700001,-85.347023139,207,"1449 LEE ROAD 400, OPELIKA, AL, 36804","Match","Exact","1449 LEE ROAD 400, OPELIKA, AL, 36804",640140385,"L"
185208,"1449 LEXINGTON AVE - SUITE 4A","NEW YORK","NY",10128,40.784650008,-73.951811667,208,"1449 LEXINGTON AVE - SUITE 4A, NEW YORK, NY, 10128","Match","Exact","1449 LEXINGTON AVE, NEW YORK, NY, 10128",59657945,"R"
185209,"1449 LEXINGTON AVENUE  STE 4A","NEW YORK","NY",10128,40.784650008,-73.951811667,209,"1449 LEXINGTON AVENUE  STE 4A, NEW YORK, NY, 10128","Match","Exact","1449 LEXINGTON AVE, NEW YORK, NY, 10128",59657945,"R"
185210,"1449 MAPLEWOOD TERRACE","PLAINFIELD","NJ",7060,40.6072078890001,-74.397464596,210,"1449 MAPLEWOOD TERRACE, PLAINFIELD, NJ, 7060","Match","Exact","1449 MAPLEWOOD TER, PLAINFIELD, NJ, 07060",60560896,"L"
185211,"1449 MC GHEE ROAD","WOODLAWN","VA",24381,36.8062145480001,-80.879343534,211,"1449 MC GHEE ROAD, WOODLAWN, VA, 24381","Match","Non_Exact","1449 MCGHEE RD, WOODLAWN, VA, 24381",153802313,"L"
185212,"1449 MIRACERROS LOOP S","SANTA FE","NM",87505,35.666906904,-105.950834406,212,"1449 MIRACERROS LOOP S, SANTA FE, NM, 87505","Match","Exact","1449 MIRACERROS LOOP S, SANTA FE, NM, 87505",169398969,"R"
185213,"1449 MONA LOOP","HILO","HI",96720,19.6807446650001,-155.094719896,213,"1449 MONA LOOP, HILO, HI, 96720","Match","Exact","1449 MONA LOOP, HILO, HI, 96720",203000239,"R"
185214,"1449 MORROW ST","GREEN BAY","WI",54302,44.509104408,-87.9900839439999,214,"1449 MORROW ST, GREEN BAY, WI, 54302","Match","Exact","1449 MORROW ST, GREEN BAY, WI, 54302",148102789,"L"
185215,"1449 N CANTERBURY LANE","FAYETTEVILLE","AR",72703,NA,NA,215,"1449 N CANTERBURY LANE, FAYETTEVILLE, AR, 72703","No_Match",NA,NA,NA,NA
185216,"1449 N MIRO ST","NEW ORLEANS","LA",70119,29.974154255,-90.0728842939999,216,"1449 N MIRO ST, NEW ORLEANS, LA, 70119","Match","Exact","1449 N MIRO ST, NEW ORLEANS, LA, 70119",191710225,"L"
185217,"1449 N SEDGWICK","CHICAGO","IL",60610,41.9084234960001,-87.6385,217,"1449 N SEDGWICK, CHICAGO, IL, 60610","Match","Non_Exact","1449 N SEDGWICK ST, CHICAGO, IL, 60610",111767458,"R"
185218,"1449 NORTH CLAIBORNE AVE","NEW ORLEANS","LA",70116,29.970434003,-90.0679534349999,218,"1449 NORTH CLAIBORNE AVE, NEW ORLEANS, LA, 70116","Match","Exact","1449 N CLAIBORNE AVE, NEW ORLEANS, LA, 70116",191710386,"L"
185219,"1449 NORTH THUNDERBIRD AVE","GILBERT","AZ",85234,33.37646929,-111.724854926,219,"1449 NORTH THUNDERBIRD AVE, GILBERT, AZ, 85234","Match","Exact","1449 N THUNDERBIRD AVE, GILBERT, AZ, 85234",636793483,"R"
185220,"1449 NORTH WYNN ROAD","OKEANA","OH",45053,39.3815993700001,-84.758222476,220,"1449 NORTH WYNN ROAD, OKEANA, OH, 45053","Match","Exact","1449 N WYNN RD, OKEANA, OH, 45053",113786584,"R"
185221,"1449 NOVA AVE","CAPITOL HEIGHTS","MD",20743,38.8686791800001,-76.925025541,221,"1449 NOVA AVE, CAPITOL HEIGHTS, MD, 20743","Match","Exact","1449 NOVA AVE, CAPITOL HEIGHTS, MD, 20743",76313638,"R"
185222,"1449 OLDSMAR AVENUE","MADISON","OH",44057,41.8348456050001,-81.0406768509999,222,"1449 OLDSMAR AVENUE, MADISON, OH, 44057","Match","Exact","1449 OLDSMAR AVE, MADISON, OH, 44057",137468514,"L"
185223,"1449 PEACEABLE STREET","BALLSTON SPA","NY",12020,42.9848481830001,-73.95593772,223,"1449 PEACEABLE STREET, BALLSTON SPA, NY, 12020","Match","Exact","1449 PEACEABLE ST, BALLSTON SPA, NY, 12020",18786767,"R"
185224,"1449 RANCHO DRIVE","CHINO HILLS","CA",91709,NA,NA,224,"1449 RANCHO DRIVE, CHINO HILLS, CA, 91709","No_Match",NA,NA,NA,NA
185225,"1449 RARITAN ROAD","CLARK","NJ",7066,40.6351174330001,-74.301291775,225,"1449 RARITAN ROAD, CLARK, NJ, 7066","Match","Exact","1449 RARITAN RD, CLARK, NJ, 07066",60574705,"L"
185226,"1449 RARITAN ROADRARITAN ROAD","CLARK","NJ",7066,40.6351174330001,-74.301291775,226,"1449 RARITAN ROADRARITAN ROAD, CLARK, NJ, 7066","Match","Non_Exact","1449 RARITAN RD, CLARK, NJ, 07066",60574705,"L"
185227,"1449 REVERE RD","WINSTON SALEM","NC",27103,36.0711935160001,-80.2822569799999,227,"1449 REVERE RD, WINSTON SALEM, NC, 27103","Match","Exact","1449 REVERE RD, WINSTON SALEM, NC, 27103",84648229,"L"
185228,"1449 RICHARD AVE","SANGER","CA",93657,36.696147931,-119.56650931,228,"1449 RICHARD AVE, SANGER, CA, 93657","Match","Exact","1449 RICHARD AVE, SANGER, CA, 93657",197612743,"L"
185229,"1449 RIPLEY ST","NORTH PORT","FL",34287,27.0657247,-82.1738020669999,229,"1449 RIPLEY ST, NORTH PORT, FL, 34287","Match","Non_Exact","1449 RIPLEY ST, NORTH PORT, FL, 34286",16339817,"L"
185230,"1449 RIVER ROAD","CALAIS","ME",4619,NA,NA,230,"1449 RIVER ROAD, CALAIS, ME, 4619","No_Match",NA,NA,NA,NA
185231,"1449 ROOKLIDGE ST","DUPONT","WA",98327,47.0997892990001,-122.642490811,231,"1449 ROOKLIDGE ST, DUPONT, WA, 98327","Match","Exact","1449 ROOKLIDGE ST, DUPONT, WA, 98327",184700461,"R"
185232,"1449 S CHURCH ST APT 420","CHARLOTTE","NC",28203,35.218490586,-80.8578168449999,232,"1449 S CHURCH ST APT 420, CHARLOTTE, NC, 28203","Match","Non_Exact","1449 S CHURCH ST, CHARLOTTE, NC, 28203",70523535,"L"
185233,"1449 S GOLDKING WAY 101","BOISE","ID",83709,43.5908858290001,-116.306651101,233,"1449 S GOLDKING WAY 101, BOISE, ID, 83709","Match","Non_Exact","1449 S GOLDKING WAY, BOISE, ID, 83709",641565166,"L"
185234,"1449 S KIRKMAN ROAD APT 1018","ORLANDO","FL",32811,28.5258205120001,-81.4590490099999,234,"1449 S KIRKMAN ROAD APT 1018, ORLANDO, FL, 32811","Match","Non_Exact","1449 S KIRKMAN RD, ORLANDO, FL, 32811",637885872,"R"
185235,"1449 S LAWNDALE AVE","CHICAGO","IL",60623,41.8611320680001,-87.717697846,235,"1449 S LAWNDALE AVE, CHICAGO, IL, 60623","Match","Exact","1449 S LAWNDALE AVE, CHICAGO, IL, 60623",605096447,"L"
185236,"1449 S TRIPP","CHICAGO","IL",60623,41.861523456,-87.731138309,236,"1449 S TRIPP, CHICAGO, IL, 60623","Match","Non_Exact","1449 S TRIPP AVE, CHICAGO, IL, 60623",111798653,"L"
185237,"1449 SANDRA DR","VESTAL","NY",13760,42.121852077,-76.074081473,237,"1449 SANDRA DR, VESTAL, NY, 13760","Match","Non_Exact","1449 SANDRA DR, ENDICOTT, NY, 13760",46336859,"L"
185238,"1449 SANZON DR","FAIRBORN","OH",45324,39.7790233970001,-84.071875451,238,"1449 SANZON DR, FAIRBORN, OH, 45324","Match","Exact","1449 SANZON DR, FAIRBORN, OH, 45324",143386989,"L"
185239,"1449 SOUTH CHRISTIANA","CHICAGO","IL",60623,41.861620143,-87.709179341,239,"1449 SOUTH CHRISTIANA, CHICAGO, IL, 60623","Match","Non_Exact","1449 S CHRISTIANA AVE, CHICAGO, IL, 60623",605096033,"L"
185240,"1449 SOUTH FERNINAND","TACOMA","WA",98405,NA,NA,240,"1449 SOUTH FERNINAND, TACOMA, WA, 98405","No_Match",NA,NA,NA,NA
185241,"1449 SOUTH MARIETTA PKWY SE","MARIETTA","GA",30067,33.9395300750001,-84.509640233,241,"1449 SOUTH MARIETTA PKWY SE, MARIETTA, GA, 30067","Match","Non_Exact","1449 S MARIETTA PKWY, MARIETTA, GA, 30067",647806732,"R"
185242,"1449 SOUTH VICTORIA AVENUE SUITE A","VENTURA","CA",93003,34.2614513240001,-119.211621143,242,"1449 SOUTH VICTORIA AVENUE SUITE A, VENTURA, CA, 93003","Match","Exact","1449 S VICTORIA AVE, VENTURA, CA, 93003",109953654,"R"
185243,"1449 SOUTH VICTORIA AVENUE","VENTURA","CA",93003,34.2614513240001,-119.211621143,243,"1449 SOUTH VICTORIA AVENUE, VENTURA, CA, 93003","Match","Exact","1449 S VICTORIA AVE, VENTURA, CA, 93003",109953654,"R"
185244,"1449 SQUIRE LANE","CUMMING","GA",30041,34.130815473,-84.1770741939999,244,"1449 SQUIRE LANE, CUMMING, GA, 30041","Match","Exact","1449 SQUIRE LN, CUMMING, GA, 30041",70184511,"L"
185245,"1449 THAMES COURT","MYRTLE BEACH","SC",29577,33.664927032,-78.961480002,245,"1449 THAMES COURT, MYRTLE BEACH, SC, 29577","Match","Exact","1449 THAMES CT, MYRTLE BEACH, SC, 29577",627233131,"L"
185246,"1449 ULRICH","ROSEBURG","OR",97471,NA,NA,246,"1449 ULRICH, ROSEBURG, OR, 97471","No_Match",NA,NA,NA,NA
185247,"1449 URLAGE DR","BURLINGTON","KY",41005,38.9870381260001,-84.718112241,247,"1449 URLAGE DR, BURLINGTON, KY, 41005","Match","Exact","1449 URLAGE DR, BURLINGTON, KY, 41005",81964506,"R"
185248,"1449 US HWY 19 S UNIT B","LEESBURG","GA",31763,NA,NA,248,"1449 US HWY 19 S UNIT B, LEESBURG, GA, 31763","No_Match",NA,NA,NA,NA
185249,"1449 VIA TERRASSA","ENCINITAS","CA",92024,33.0475032190001,-117.262410304,249,"1449 VIA TERRASSA, ENCINITAS, CA, 92024","Match","Exact","1449 VIA TERRASSA, ENCINITAS, CA, 92024",195293525,"L"
185250,"1449 VISTA GRAND DR","SAN LEANDRO","CA",94577,37.7189965380001,-122.130489881,250,"1449 VISTA GRAND DR, SAN LEANDRO, CA, 94577","Match","Non_Exact","1449 VISTAGRAND DR, SAN LEANDRO, CA, 94577",125013414,"R"
185251,"1449 W 30TH ST","ERIE","PA",16508,42.097925966,-80.101340673,251,"1449 W 30TH ST, ERIE, PA, 16508","Match","Exact","1449 W 30TH ST, ERIE, PA, 16508",117494670,"L"
185252,"1449 W 540 N","PLEASANT GROVE","UT",84062,40.369831736,-111.760886872,252,"1449 W 540 N, PLEASANT GROVE, UT, 84062","Match","Exact","1449 W 540 N, PLEASANT GROVE, UT, 84062",134245917,"R"
185253,"1449 W 72ND PLACE","CHICAGO","IL",60636,41.762219708,-87.6607886749999,253,"1449 W 72ND PLACE, CHICAGO, IL, 60636","Match","Exact","1449 W 72ND PL, CHICAGO, IL, 60636",111820967,"L"
185254,"1449 W ONYX WAY","MUSTANG","OK",73064,35.3934398820001,-97.7555969759999,254,"1449 W ONYX WAY, MUSTANG, OK, 73064","Match","Exact","1449 W ONYX WAY, MUSTANG, OK, 73064",92553543,"L"
185255,"1449 W ROSCOE UNIT 1","CHICAGO","IL",69657,NA,NA,255,"1449 W ROSCOE UNIT 1, CHICAGO, IL, 69657","No_Match",NA,NA,NA,NA
185256,"1449 W STEPHENSON ST","FREEPORT","IL",61032,42.2947334080001,-89.6472489609999,256,"1449 W STEPHENSON ST, FREEPORT, IL, 61032","Match","Exact","1449 W STEPHENSON ST, FREEPORT, IL, 61032",32693493,"R"
185257,"1449 W WALTON ST APT 2","CHICAGO","IL",60642,41.898850585,-87.663995245,257,"1449 W WALTON ST APT 2, CHICAGO, IL, 60642","Match","Non_Exact","1449 W WALTON ST, CHICAGO, IL, 60642",605069519,"L"
185258,"1449 WARPATH DRIVE","KINGSPORT","TN",37664,36.5263368770001,-82.518677988,258,"1449 WARPATH DRIVE, KINGSPORT, TN, 37664","Match","Exact","1449 WARPATH DR, KINGSPORT, TN, 37664",127830360,"R"
185259,"1449 WELLESLEY AVE","ST PAUL","MN",55105,44.931522783,-93.160630849,259,"1449 WELLESLEY AVE, ST PAUL, MN, 55105","Match","Non_Exact","1449 W WELLESLEY AVE, SAINT PAUL, MN, 55105",97645912,"R"
185260,"1449 WEST 1ST AVENUE","COLUMBUS","OH",43212,39.9817860570001,-83.043771834,260,"1449 WEST 1ST AVENUE, COLUMBUS, OH, 43212","Match","Exact","1449 W 1ST AVE, COLUMBUS, OH, 43212",218650814,"L"
185261,"1449 WEST 30 TH STREET","ERIE","PA",16508,42.0979331510001,-80.101321,261,"1449 WEST 30 TH STREET, ERIE, PA, 16508","Match","Non_Exact","1449 W 30TH ST, ERIE, PA, 16508",117494670,"L"
185262,"1449 WESTOVER AVE","NORFOLK","VA",23507,36.8713183880001,-76.3091603999999,262,"1449 WESTOVER AVE, NORFOLK, VA, 23507","Match","Exact","1449 WESTOVER AVE, NORFOLK, VA, 23507",122122531,"L"
185263,"1449 WESTWOOD PLACE","OCEANSIDE","CA",92056,33.222886552,-117.269017344,263,"1449 WESTWOOD PLACE, OCEANSIDE, CA, 92056","Match","Exact","1449 WESTWOOD PL, OCEANSIDE, CA, 92056",195286066,"L"
185264,"1449 WHITE DOE COURT","AUBURN","CA",95602,NA,NA,264,"1449 WHITE DOE COURT, AUBURN, CA, 95602","No_Match",NA,NA,NA,NA
185265,"1449 WILD RIDGE WAY","EL PASO","TX",79936,31.7378221550001,-106.300814671,265,"1449 WILD RIDGE WAY, EL PASO, TX, 79936","Match","Exact","1449 WILD RIDGE WAY, EL PASO, TX, 79936",189419449,"L"
185266,"1449 YOLANDA DRIVE","YUBA CITY","CA",95993,39.1065726480001,-121.65267666,266,"1449 YOLANDA DRIVE, YUBA CITY, CA, 95993","Match","Exact","1449 YOLANDA DR, YUBA CITY, CA, 95993",68583464,"L"
185267,"1449 YORKTOWN DRIVE","LAPLACE","LA",70068,NA,NA,267,"1449 YORKTOWN DRIVE, LAPLACE, LA, 70068","No_Match",NA,NA,NA,NA
185268,"1449-80 254TH STREET","ROSEDALE","NY",11422,NA,NA,268,"1449-80 254TH STREET, ROSEDALE, NY, 11422","No_Match",NA,NA,NA,NA
185269,"14490 300TH ST","TREYNOR","IA",51575,41.225165034,-95.6130095939999,269,"14490 300TH ST, TREYNOR, IA, 51575","Match","Exact","14490 300TH ST, TREYNOR, IA, 51575",43909056,"R"
185270,"14490 FALLING WATERS DR","JACKSONVILLE","FL",32258,30.114990823,-81.505385555,270,"14490 FALLING WATERS DR, JACKSONVILLE, FL, 32258","Match","Exact","14490 FALLING WATERS DR, JACKSONVILLE, FL, 32258",624995972,"R"
185271,"14490 ST ANDREWS LANE","ASHLAND","VA",23005,37.802007603,-77.5400664159999,271,"14490 ST ANDREWS LANE, ASHLAND, VA, 23005","Match","Exact","14490 ST ANDREWS LN, ASHLAND, VA, 23005",84974039,"R"
185272,"14490 WILLIAMSBURG DRIVE","GULFPORT","MS",39503,30.447333327,-89.084781677,272,"14490 WILLIAMSBURG DRIVE, GULFPORT, MS, 39503","Match","Exact","14490 WILLIAMSBURG DR, GULFPORT, MS, 39503",111396914,"L"
185273,"14491 BLACK LAKE PRESERVE ST","WINTER GARDEN","FL",34787,NA,NA,273,"14491 BLACK LAKE PRESERVE ST, WINTER GARDEN, FL, 34787","No_Match",NA,NA,NA,NA
185274,"14492 CHAPLEWOOD LN","FISHERS","IN",46037,39.9648659810001,-85.9054306,274,"14492 CHAPLEWOOD LN, FISHERS, IN, 46037","Match","Non_Exact","14492 CHAPELWOOD LN, FISHERS, IN, 46037",29339613,"L"
185275,"14492 KOHLER LN","WAPAKONETA","OH",45895,40.559998842,-84.250219293,275,"14492 KOHLER LN, WAPAKONETA, OH, 45895","Match","Exact","14492 KOHLER LN, WAPAKONETA, OH, 45895",36421989,"R"
185276,"14492 SPA DRIVE","HUNTINGTON BEACH","CA",92647,NA,NA,276,"14492 SPA DRIVE, HUNTINGTON BEACH, CA, 92647","No_Match",NA,NA,NA,NA
185277,"14493 BROWNELL RD","BEULAH","MI",49617,44.6449636410001,-85.9487578869999,277,"14493 BROWNELL RD, BEULAH, MI, 49617","Match","Exact","14493 BROWNELL RD, BEULAH, MI, 49617",618491833,"L"
185278,"14493 LEE HIGHWAY","AMISSVILLE","VA",20106,38.6873562820001,-78.020988973,278,"14493 LEE HIGHWAY, AMISSVILLE, VA, 20106","Match","Exact","14493 LEE HWY, AMISSVILLE, VA, 20106",29948349,"L"
185279,"14493 RIVERSIDE DRIVE","ASHLAND","VA",23005,37.8053353660001,-77.5454855259999,279,"14493 RIVERSIDE DRIVE, ASHLAND, VA, 23005","Match","Exact","14493 RIVERSIDE DR, ASHLAND, VA, 23005",84976132,"L"
185280,"14493 S PADRE ISLAND DRIVE SUITE A","CORPUS CHRISTI","TX",78418,27.6178505680001,-97.221876755,280,"14493 S PADRE ISLAND DRIVE SUITE A, CORPUS CHRISTI, TX, 78418","Match","Non_Exact","14493 S PADRE ISLAND DR, CORPUS CHRISTI, TX, 78418",615818573,"L"
185281,"14493 SOUTH RENE STREET","OLATHE","KS",66062,38.866035314,-94.744613869,281,"14493 SOUTH RENE STREET, OLATHE, KS, 66062","Match","Exact","14493 S RENE ST, OLATHE, KS, 66062",91312622,"L"
185282,"14493 SPID A-249","CORPUS CHRISTI","TX",78418,NA,NA,282,"14493 SPID A-249, CORPUS CHRISTI, TX, 78418","No_Match",NA,NA,NA,NA
185283,"144930 SQUIRREL LN","MARATHON","WI",54448,44.8883925060001,-89.740775839,283,"144930 SQUIRREL LN, MARATHON, WI, 54448","Match","Exact","144930 SQUIRREL LN, MARATHON, WI, 54448",117155665,"L"
185284,"14494 VALLEY HI CIRCLE","FARMERS BRANCH","TX",75234,32.9434495460001,-96.860593275,284,"14494 VALLEY HI CIRCLE, FARMERS BRANCH, TX, 75234","Match","Exact","14494 VALLEY HI CIR, FARMERS BRANCH, TX, 75234",102897455,"R"
185285,"14495 SOUTH VALLEY ROAD","OROVADA","NV",89425,NA,NA,285,"14495 SOUTH VALLEY ROAD, OROVADA, NV, 89425","No_Match",NA,NA,NA,NA
185286,"14495 SW FAIROAKS DRIVE","SHERWOOD","OR",97140,45.3563472810001,-122.825829202,286,"14495 SW FAIROAKS DRIVE, SHERWOOD, OR, 97140","Match","Exact","14495 SW FAIROAKS DR, SHERWOOD, OR, 97140",158221820,"L"
185287,"14495 VIVA DRIVE","EASTVALE","CA",92880,33.9540407540001,-117.600068329,287,"14495 VIVA DRIVE, EASTVALE, CA, 92880","Match","Exact","14495 VIVA DR, EASTVALE, CA, 92880",646298577,"L"
185288,"14496 AIRLINE HWY UNIT 736","GONZALES","LA",70737,30.2806238380001,-90.951774286,288,"14496 AIRLINE HWY UNIT 736, GONZALES, LA, 70737","Match","Exact","14496 AIRLINE HWY, GONZALES, LA, 70737",639230438,"R"
185289,"14496 CROGHAN PIKE","MOUNT UNION","PA",17066,40.3651343990001,-77.864922468,289,"14496 CROGHAN PIKE, MOUNT UNION, PA, 17066","Match","Exact","14496 CROGHAN PIKE, MOUNT UNION, PA, 17066",50606219,"L"
185290,"14496 S FOX CREEK DR","HERRIMAN","UT",84096,40.487960344,-112.054936133,290,"14496 S FOX CREEK DR, HERRIMAN, UT, 84096","Match","Exact","14496 S FOX CREEK DR, HERRIMAN, UT, 84096",604582175,"R"
185291,"14496 WAUKEENAH HWY","MONTICELLO","FL",32344,30.358528709,-83.9889737789999,291,"14496 WAUKEENAH HWY, MONTICELLO, FL, 32344","Match","Exact","14496 WAUKEENAH HWY, MONTICELLO, FL, 32344",610848615,"R"
185292,"14497 AKKER CT","GAINESVILLE","VA",20155,38.8413117100001,-77.600725413,292,"14497 AKKER CT, GAINESVILLE, VA, 20155","Match","Exact","14497 AKKER CT, GAINESVILLE, VA, 20155",207145060,"L"
185293,"14497 C R 43","TYLER","TX",75706,NA,NA,293,"14497 C R 43, TYLER, TX, 75706","No_Match",NA,NA,NA,NA
185294,"14497 DALEBROOK DR","EASTVALE","CA",92880,33.961411975,-117.599375873,294,"14497 DALEBROOK DR, EASTVALE, CA, 92880","Match","Exact","14497 DALEBROOK DR, EASTVALE, CA, 92880",629795712,"R"
185295,"14497 DUTCH CROSS RD","CENTERBERG","OH",43011,40.2575239820001,-82.640685392,295,"14497 DUTCH CROSS RD, CENTERBERG, OH, 43011","Match","Non_Exact","14497 DUTCH CROSS RD, CENTERBURG, OH, 43011",61498003,"L"
185296,"14497 N HWY 63","JACKSONVILLE","MO",65260,39.6026805220001,-92.4716058019999,296,"14497 N HWY 63, JACKSONVILLE, MO, 65260","Match","Non_Exact","14497 US HWY 63, JACKSONVILLE, MO, 65260",649868915,"L"
185297,"14497 NW 22ND PLACE","NEWBERRY","FL",32669,29.673886554,-82.4977501819999,297,"14497 NW 22ND PLACE, NEWBERRY, FL, 32669","Match","Exact","14497 NW 22ND PL, NEWBERRY, FL, 32669",626398790,"L"
185298,"14497 SOUTH RONAN LANE O-B1","HERRIMAN","UT",84096,NA,NA,298,"14497 SOUTH RONAN LANE O-B1, HERRIMAN, UT, 84096","No_Match",NA,NA,NA,NA
185299,"14498 COMISKY DR","BOISE","OR",83713,NA,NA,299,"14498 COMISKY DR, BOISE, OR, 83713","No_Match",NA,NA,NA,NA
185300,"14499 BEGONIA APT 5","VICTORVILLE","CA",92392,NA,NA,300,"14499 BEGONIA APT 5, VICTORVILLE, CA, 92392","No_Match",NA,NA,NA,NA
185301,"14499 BEGONIA RD 26","VICTORVILLE","CA",92392,NA,NA,301,"14499 BEGONIA RD 26, VICTORVILLE, CA, 92392","No_Match",NA,NA,NA,NA
185302,"14499 DULCE REAL","FORT PIERCE","FL",34951,27.555860953,-80.477530229,302,"14499 DULCE REAL, FORT PIERCE, FL, 34951","Match","Non_Exact","14499 DULCE REAL AVE, FORT PIERCE, FL, 34951",120169027,"R"
185303,"14499 FURROW ROAD","LARKSPUR","CO",80118,39.148659503,-104.823636246,303,"14499 FURROW ROAD, LARKSPUR, CO, 80118","Match","Exact","14499 FURROW RD, LARKSPUR, CO, 80118",130798399,"L"
185304,"14499 KETTLERSVILLE RD","WAPAKONETA","OH",45895,40.5619989350001,-84.259816265,304,"14499 KETTLERSVILLE RD, WAPAKONETA, OH, 45895","Match","Exact","14499 KETTLERSVILLE RD, WAPAKONETA, OH, 45895",209201610,"L"
185305,"1449A OAKLEY ST","BRONX","NY",10469,40.879830263,-73.850331183,305,"1449A OAKLEY ST, BRONX, NY, 10469","Match","Exact","1449 OAKLEY ST, BRONX, NY, 10469",80297985,"L"
185306,"144A KAPUAHI STREET","MAKAWAO","HI",96768,20.842785512,-156.328346448,306,"144A KAPUAHI STREET, MAKAWAO, HI, 96768","Match","Exact","144 KAPUAHI ST, MAKAWAO, HI, 96768",85069569,"L"
185307,"144A MOUNT AUBURN","CAMBRIDGE","MA",2138,42.3740006780001,-71.124716307,307,"144A MOUNT AUBURN, CAMBRIDGE, MA, 2138","Match","Non_Exact","144 MOUNT AUBURN ST, CAMBRIDGE, MA, 02138",86868032,"L"
185308,"144B HIGHLAND STREET","PLYMOUTH","NH",3264,43.762213386,-71.7060681099999,308,"144B HIGHLAND STREET, PLYMOUTH, NH, 3264","Match","Exact","144 HIGHLAND ST, PLYMOUTH, NH, 03264",145698278,"R"
185309,"144ELK PLACE APT 1511","NEW ORLEANS","LA",70112,NA,NA,309,"144ELK PLACE APT 1511, NEW ORLEANS, LA, 70112","No_Match",NA,NA,NA,NA
185310,"145 15TH ST NE 628","ATLANTA","GA",30309,33.788826425,-84.382088939,310,"145 15TH ST NE 628, ATLANTA, GA, 30309","Match","Exact","145 15TH ST NE, ATLANTA, GA, 30309",648245712,"R"
185311,"145 15TH STREET NE 821","ATLANTA","GA",30309,33.788826425,-84.382088939,311,"145 15TH STREET NE 821, ATLANTA, GA, 30309","Match","Exact","145 15TH ST NE, ATLANTA, GA, 30309",648245712,"R"
185312,"145 15TH STREET UNIT 409","ATLANTA","GA",30309,33.788826425,-84.382088939,312,"145 15TH STREET UNIT 409, ATLANTA, GA, 30309","Match","Non_Exact","145 15TH ST NE, ATLANTA, GA, 30309",648245712,"R"
185313,"145 16TH ST","BUFFALO","NY",14213,42.908009077,-78.885008335,313,"145 16TH ST, BUFFALO, NY, 14213","Match","Exact","145 16TH ST, BUFFALO, NY, 14213",48289228,"R"
185314,"145 1ST ST SW","BREWSTER","OH",44613,40.712617664,-81.598642405,314,"145 1ST ST SW, BREWSTER, OH, 44613","Match","Exact","145 1ST ST SW, BREWSTER, OH, 44613",64719475,"R"
185315,"145 28TH AVE","SEATTLE","WA",98122,47.60251835,-122.295990707,315,"145 28TH AVE, SEATTLE, WA, 98122","Match","Exact","145 28TH AVE, SEATTLE, WA, 98122",186593151,"L"
185316,"145 2ND AVENUE S UNIT 624","ST. PETERSBURG","FL",33701,27.7694443410001,-82.6346945289999,316,"145 2ND AVENUE S UNIT 624, ST. PETERSBURG, FL, 33701","Match","Exact","145 2ND AVE S, SAINT PETERSBURG, FL, 33701",124713665,"R"
185317,"145 4TH AVE / APT 14M","NEW YORK","NY",10003,40.733701388,-73.989849036,317,"145 4TH AVE / APT 14M, NEW YORK, NY, 10003","Match","Exact","145 4TH AVE, NEW YORK, NY, 10003",59653681,"R"
185318,"145 4TH AVENUE APT 10F","NEW YORK","NY",10003,40.733701388,-73.989849036,318,"145 4TH AVENUE APT 10F, NEW YORK, NY, 10003","Match","Exact","145 4TH AVE, NEW YORK, NY, 10003",59653681,"R"
185319,"145 4TH AVENUE APT 7F","NEW YORK","NY",10003,40.733701388,-73.989849036,319,"145 4TH AVENUE APT 7F, NEW YORK, NY, 10003","Match","Exact","145 4TH AVE, NEW YORK, NY, 10003",59653681,"R"
185320,"145 4TH AVENUE","NEW YORK","NY",10003,40.733701388,-73.989849036,320,"145 4TH AVENUE, NEW YORK, NY, 10003","Match","Exact","145 4TH AVE, NEW YORK, NY, 10003",59653681,"R"
185321,"145 5TH AVE","MOUNDVILLE","AL",35474,32.9990571020001,-87.627907357,321,"145 5TH AVE, MOUNDVILLE, AL, 35474","Match","Exact","145 5TH AVE, MOUNDVILLE, AL, 35474",38986108,"L"
185322,"145 72 STREET A1","BROOKLYN","NY",11209,40.6346257910001,-74.031582784,322,"145 72 STREET A1, BROOKLYN, NY, 11209","Match","Exact","145 72ND ST, BROOKLYN, NY, 11209",59094118,"L"
185323,"145 72ND ST APT C8","BROOKLYN","NY",11209,40.6346257910001,-74.031582784,323,"145 72ND ST APT C8, BROOKLYN, NY, 11209","Match","Exact","145 72ND ST, BROOKLYN, NY, 11209",59094118,"L"
185324,"145 72ND STREET - SUITE A1","BROOKLYN","NY",11209,40.6346257910001,-74.031582784,324,"145 72ND STREET - SUITE A1, BROOKLYN, NY, 11209","Match","Exact","145 72ND ST, BROOKLYN, NY, 11209",59094118,"L"
185325,"145 95TH STREET APT 4","BROOKLYN","NY",11236,40.6168884910001,-74.03731941,325,"145 95TH STREET APT 4, BROOKLYN, NY, 11236","Match","Non_Exact","145 95TH ST, BROOKLYN, NY, 11209",59087401,"L"
185326,"145 ADAMS ST","WALTHAM","MA",2453,42.366025796,-71.241020654,326,"145 ADAMS ST, WALTHAM, MA, 2453","Match","Exact","145 ADAMS ST, WALTHAM, MA, 02453",86862001,"R"
185327,"145 AFTERNOON RAIN AVE","HENDERSON","NV",89002,35.987806505,-114.984655259,327,"145 AFTERNOON RAIN AVE, HENDERSON, NV, 89002","Match","Exact","145 AFTERNOON RAIN AVE, HENDERSON, NV, 89002",612988686,"R"
185328,"145 AFTON STREET","ROCHESTER","NY",14612,43.2386756450001,-77.618498845,328,"145 AFTON STREET, ROCHESTER, NY, 14612","Match","Exact","145 AFTON ST, ROCHESTER, NY, 14612",14535620,"R"
185329,"145 AGATE DR","LEWISTOWN","MT",59457,47.0530163390001,-109.426383867,329,"145 AGATE DR, LEWISTOWN, MT, 59457","Match","Exact","145 AGATE DR, LEWISTOWN, MT, 59457",170610481,"L"
185330,"145 AGAVE LN","GOLDSBORO","NC",27534,35.432761059,-77.940849661,330,"145 AGAVE LN, GOLDSBORO, NC, 27534","Match","Exact","145 AGAVE LN, GOLDSBORO, NC, 27534",14420676,"L"
185331,"145 AIRPORT RD","MANTEO","NC",27954,35.929678036,-75.6957762119999,331,"145 AIRPORT RD, MANTEO, NC, 27954","Match","Exact","145 AIRPORT RD, MANTEO, NC, 27954",81302152,"R"
185332,"145 ALDERWOOD DR","MADISON","AL",35748,34.7040989000001,-86.720442761,332,"145 ALDERWOOD DR, MADISON, AL, 35748","Match","Non_Exact","145 ALDERWOOD DR, MADISON, AL, 35758",630195301,"R"
185333,"145 ALTA VISTA COVE","MARION","AR",72364,35.206723563,-90.1963753799999,333,"145 ALTA VISTA COVE, MARION, AR, 72364","Match","Exact","145 ALTA VISTA COVE, MARION, AR, 72364",69371681,"R"
185334,"145 ANDERSON ST APT 1","PORTLAND","ME",4101,43.6676832470001,-70.255717282,334,"145 ANDERSON ST APT 1, PORTLAND, ME, 4101","Match","Exact","145 ANDERSON ST, PORTLAND, ME, 04101",78028331,"R"
185335,"145 ANVIL STREET","FEEDING HILLS","MA",1030,42.073587763,-72.6813646369999,335,"145 ANVIL STREET, FEEDING HILLS, MA, 1030","Match","Exact","145 ANVIL ST, FEEDING HILLS, MA, 01030",4047065,"L"
185336,"145 ARBOR GROVE BAPTIST CHURCH ROAD","NORTH WILKESBORO","NC",28659,36.213847586,-81.0363448639999,336,"145 ARBOR GROVE BAPTIST CHURCH ROAD, NORTH WILKESBORO, NC, 28659","Match","Exact","145 ARBOR GROVE BAPTIST CHURCH RD, N WILKESBORO, NC, 28659",46151498,"L"
185337,"145 ARBUTUS DRIVE","CLARKSBURG","WV",26301,39.2667085050001,-80.325098006,337,"145 ARBUTUS DRIVE, CLARKSBURG, WV, 26301","Match","Exact","145 ARBUTUS DR, CLARKSBURG, WV, 26301",53310775,"R"
185338,"145 ARCH STREET E UNIT C","ST PAUL","MN",55130,NA,NA,338,"145 ARCH STREET E UNIT C, ST PAUL, MN, 55130","No_Match",NA,NA,NA,NA
185339,"145 ARTAVIA STREET","DULUTH","MN",55811,46.817650229,-92.0966204219999,339,"145 ARTAVIA STREET, DULUTH, MN, 55811","Match","Exact","145 ARTAVIA ST, DULUTH, MN, 55811",163211719,"L"
185340,"145 ASHWOOD DRIVE","AIKEN","SC",28803,33.5355407060001,-81.70003622,340,"145 ASHWOOD DRIVE, AIKEN, SC, 28803","Match","Non_Exact","145 ASHWOOD DR, AIKEN, SC, 29801",64996118,"R"
185341,"145 ASPENWOOD DRIVE","CHAGRIN FALLS","OH",44022,41.433980434,-81.431443648,341,"145 ASPENWOOD DRIVE, CHAGRIN FALLS, OH, 44022","Match","Exact","145 ASPENWOOD DR, CHAGRIN FALLS, OH, 44022",638515085,"L"
185342,"145 ASTON HALL","MACON","GA",31210,32.904765298,-83.7623631829999,342,"145 ASTON HALL, MACON, GA, 31210","Match","Exact","145 ASTON HALL, MACON, GA, 31210",650747741,"L"
185343,"145 AUTUMN VIEW CT","FLETCHER","NC",28732,35.4056975550001,-82.469288883,343,"145 AUTUMN VIEW CT, FLETCHER, NC, 28732","Match","Exact","145 AUTUMN VIEW CT, FLETCHER, NC, 28732",152305616,"L"
185344,"145 BACKDRAFT DR","ROSSVILLE","GA",30741,34.9783774300001,-85.222143038,344,"145 BACKDRAFT DR, ROSSVILLE, GA, 30741","Match","Non_Exact","145 BACKDRAFT LN, ROSSVILLE, GA, 30741",618749049,"L"
185345,"145 BANCROFT STREET","IMALY CITY","MI",48444,43.024931377,-83.075984179,345,"145 BANCROFT STREET, IMALY CITY, MI, 48444","Match","Non_Exact","145 BANCROFT ST, IMLAY CITY, MI, 48444",110460049,"L"
185346,"145 BAR 2 RD","KIRBY","AR",71950,34.2558242050001,-93.706859886,346,"145 BAR 2 RD, KIRBY, AR, 71950","Match","Exact","145 BAR 2 RD, KIRBY, AR, 71950",11199500,"L"
185347,"145 BAR D LAKE LN","SOMERSET","PA",15501,39.9604038790001,-79.1154121229999,347,"145 BAR D LAKE LN, SOMERSET, PA, 15501","Match","Exact","145 BAR D LAKE LN, SOMERSET, PA, 15501",70261442,"L"
185348,"145 BARKSDALE DRIVE","ATLANTA","GA",30309,33.794240186,-84.377188501,348,"145 BARKSDALE DRIVE, ATLANTA, GA, 30309","Match","Non_Exact","145 BARKSDALE DR NE, ATLANTA, GA, 30309",17415465,"R"
185349,"145 BARTON AVE","BELCHERTOWN","MA",1007,42.2562670680001,-72.448987034,349,"145 BARTON AVE, BELCHERTOWN, MA, 1007","Match","Exact","145 BARTON AVE, BELCHERTOWN, MA, 01007",39871221,"L"
185350,"145 BARTON DRIVE","SPRING CITY","PA",19475,NA,NA,350,"145 BARTON DRIVE, SPRING CITY, PA, 19475","No_Match",NA,NA,NA,NA
185351,"145 BEACH 117TH STREET","ROCKAWAY PARK","NY",11694,40.5784043310001,-73.837468653,351,"145 BEACH 117TH STREET, ROCKAWAY PARK, NY, 11694","Match","Exact","145 BEACH 117TH ST, ROCKAWAY PARK, NY, 11694",59709491,"L"
185352,"145 BEACH 120 TH","ROCKAWAY PARK","NY",11694,40.577537636,-73.839920665,352,"145 BEACH 120 TH, ROCKAWAY PARK, NY, 11694","Match","Non_Exact","145 BEACH 120TH ST, ROCKAWAY PARK, NY, 11694",640970425,"L"
185353,"145 BEADLE ST","MORGAN CITY","LA",70380,29.659659886,-91.105125823,353,"145 BEADLE ST, MORGAN CITY, LA, 70380","Match","Exact","145 BEADLE ST, MORGAN CITY, LA, 70380",85891297,"R"
185354,"145 BEAVER ST","HYDE PARK","MA",2136,42.2552050850001,-71.131647237,354,"145 BEAVER ST, HYDE PARK, MA, 2136","Match","Exact","145 BEAVER ST, HYDE PARK, MA, 02136",636133473,"R"
185355,"145 BEDFORD STREET","WEST BRIDGEWATER","MA",2379,42.0045739930001,-70.999574539,355,"145 BEDFORD STREET, WEST BRIDGEWATER, MA, 2379","Match","Exact","145 BEDFORD ST, W BRIDGEWATER, MA, 02379",614332807,"R"
185356,"145 BEECHWOOD ROAD","SUMMIT","NJ",7901,40.724571279,-74.3606158969999,356,"145 BEECHWOOD ROAD, SUMMIT, NJ, 7901","Match","Exact","145 BEECHWOOD RD, SUMMIT, NJ, 07901",60603063,"R"
185357,"145 BELLE GROVE CIRCLE","BRANDON","MS",39047,32.3647402280001,-90.0279441229999,357,"145 BELLE GROVE CIRCLE, BRANDON, MS, 39047","Match","Non_Exact","145 BELLEGROVE CIR, BRANDON, MS, 39047",116922469,"R"
185358,"145 BELMONT AVE","BRIDGETON","NJ",8302,39.4192073990001,-75.241966728,358,"145 BELMONT AVE, BRIDGETON, NJ, 8302","Match","Exact","145 BELMONT AVE, BRIDGETON, NJ, 08302",174108718,"R"
185359,"145 BENT TREE DR","SEDONA","AZ",86351,34.7727080280001,-111.77454893,359,"145 BENT TREE DR, SEDONA, AZ, 86351","Match","Exact","145 BENT TREE DR, SEDONA, AZ, 86351",159546269,"L"
185360,"145 BERAM AVE","BRIDGEVILLE","PA",15017,40.3682873810001,-80.1013757919999,360,"145 BERAM AVE, BRIDGEVILLE, PA, 15017","Match","Exact","145 BERAM AVE, BRIDGEVILLE, PA, 15017",51618191,"L"
185361,"145 BERRIDGE DR","SHEPHERDSTOWN","WV",25443,39.438175959,-77.836250734,361,"145 BERRIDGE DR, SHEPHERDSTOWN, WV, 25443","Match","Exact","145 BERRIDGE DR, SHEPHERDSTOWN, WV, 25443",123427362,"R"
185362,"145 BEVERLY ROAD","MOUNT KISCO","NY",10549,41.203356236,-73.7398111479999,362,"145 BEVERLY ROAD, MOUNT KISCO, NY, 10549","Match","Exact","145 BEVERLY RD, MOUNT KISCO, NY, 10549",647188933,"R"
185363,"145 BEXHILL DR","CARMEL","IN",46032,39.98089372,-86.113943104,363,"145 BEXHILL DR, CARMEL, IN, 46032","Match","Exact","145 BEXHILL DR, CARMEL, IN, 46032",29295098,"L"
185364,"145 BIG SANDY LN","LANCASTER","TX",75146,32.583755007,-96.783036448,364,"145 BIG SANDY LN, LANCASTER, TX, 75146","Match","Exact","145 BIG SANDY LN, LANCASTER, TX, 75146",103169075,"R"
185365,"145 BIRCH HILL ROAD","NORTH CONWAY","NH",3860,44.0338455,-71.143200475,365,"145 BIRCH HILL ROAD, NORTH CONWAY, NH, 3860","Match","Exact","145 BIRCH HILL RD, NORTH CONWAY, NH, 03860",145586419,"R"
185366,"145 BIRCH HILL","NEW DURHAM","NH",3855,43.4468622630001,-71.144174732,366,"145 BIRCH HILL, NEW DURHAM, NH, 3855","Match","Non_Exact","145 BIRCH HILL RD, NEW DURHAM, NH, 03855",117812094,"R"
185367,"145 BISHOP LAMY ROAD","LAMY","NM",87540,35.5029930250001,-105.873920281,367,"145 BISHOP LAMY ROAD, LAMY, NM, 87540","Match","Exact","145 BISHOP LAMY RD, LAMY, NM, 87540",169407552,"L"
185368,"145 BLACK BIRCH ROAD","WRENTHAM","MA",2093,42.078310124,-71.356177718,368,"145 BLACK BIRCH ROAD, WRENTHAM, MA, 2093","Match","Non_Exact","145 BLACK BIRCH DR, WRENTHAM, MA, 02093",648436727,"R"
185369,"145 BLACK ISLAND ROAD","OXFORD","ME",4270,44.0689370050001,-70.478822615,369,"145 BLACK ISLAND ROAD, OXFORD, ME, 4270","Match","Exact","145 BLACK ISLAND RD, OXFORD, ME, 04270",92669527,"L"
185370,"145 BLACK MOUNTAIN CIR","FREMONT","CA",94536,37.588789665,-122.001757522,370,"145 BLACK MOUNTAIN CIR, FREMONT, CA, 94536","Match","Exact","145 BLACK MOUNTAIN CIR, FREMONT, CA, 94536",125082134,"R"
185371,"145 BLAIR DRIVE","NORTH AUGUSTA","SC",29860,33.5542594930001,-81.981770925,371,"145 BLAIR DRIVE, NORTH AUGUSTA, SC, 29860","Match","Exact","145 BLAIR DR, NORTH AUGUSTA, SC, 29860",653531881,"R"
185372,"145 BLAKELY COURT","SAGLE","ID",83860,48.153307511,-116.57620855,372,"145 BLAKELY COURT, SAGLE, ID, 83860","Match","Non_Exact","145 BLAKLEY CT, SAGLE, ID, 83860",169499852,"L"
185373,"145 BLUE OAK TRAIL","HARPER","TX",78631,30.320883559,-99.349348543,373,"145 BLUE OAK TRAIL, HARPER, TX, 78631","Match","Exact","145 BLUE OAK TRL, HARPER, TX, 78631",624479524,"L"
185374,"145 BLUE PINE LANE","LEXINGTON","SC",29073,33.9799853160001,-81.169876652,374,"145 BLUE PINE LANE, LEXINGTON, SC, 29073","Match","Exact","145 BLUE PINE LN, LEXINGTON, SC, 29073",616265224,"L"
185375,"145 BOHN RD","ELLSWORTH","ME",4605,44.6524296360001,-68.5596211819999,375,"145 BOHN RD, ELLSWORTH, ME, 4605","Match","Exact","145 BOHN RD, ELLSWORTH, ME, 04605",110266794,"R"
185376,"145 BOSTON AVENUE","YOUNGSTOWN","OH",44502,NA,NA,376,"145 BOSTON AVENUE, YOUNGSTOWN, OH, 44502","No_Match",NA,NA,NA,NA
185377,"145 BOXWOOD LN","BRIDGEWATER","MA",2324,41.962554949,-71.000467864,377,"145 BOXWOOD LN, BRIDGEWATER, MA, 2324","Match","Exact","145 BOXWOOD LN, BRIDGEWATER, MA, 02324",87459085,"L"
185378,"145 BRAHMS WAY","SUNNYVALE","CA",94087,37.363343705,-122.030753286,378,"145 BRAHMS WAY, SUNNYVALE, CA, 94087","Match","Exact","145 BRAHMS WAY, SUNNYVALE, CA, 94087",122938249,"L"
185379,"145 BREA CANYON RD","WALNUT","CA",91789,34.0182282800001,-117.840436948,379,"145 BREA CANYON RD, WALNUT, CA, 91789","Match","Exact","145 BREA CANYON RD, WALNUT, CA, 91789",142840607,"R"
185380,"145 BRENTWOOD DRIVE","ATHENS","GA",30605,33.915467268,-83.3406667899999,380,"145 BRENTWOOD DRIVE, ATHENS, GA, 30605","Match","Exact","145 BRENTWOOD DR, ATHENS, GA, 30605",4806937,"L"
185381,"145 BREWER DRIVE","MARQUETTE","MI",49855,46.480064532,-87.2874909459999,381,"145 BREWER DRIVE, MARQUETTE, MI, 49855","Match","Exact","145 BREWER DR, MARQUETTE, MI, 49855",182053692,"R"
185382,"145 BRIAN LANE","SANTA CLARA","CA",95051,37.3264571920001,-121.985694135,382,"145 BRIAN LANE, SANTA CLARA, CA, 95051","Match","Exact","145 BRIAN LN, SANTA CLARA, CA, 95051",122898462,"R"
185383,"145 BRIDGE STREET","COLLEGEVILLE","PA",19426,40.2266433890001,-75.456374177,383,"145 BRIDGE STREET, COLLEGEVILLE, PA, 19426","Match","Exact","145 BRIDGE ST, COLLEGEVILLE, PA, 19426",135067736,"L"
185384,"145 BROADWAY","WEST BABYLON","NY",11704,40.716335671,-73.346907645,384,"145 BROADWAY, WEST BABYLON, NY, 11704","Match","Exact","145 BROADWAY, WEST BABYLON, NY, 11704",114054041,"L"
185385,"145 BROOK CIRCLE","DANVILLE","VA",24541,36.5981468350001,-79.4500343019999,385,"145 BROOK CIRCLE, DANVILLE, VA, 24541","Match","Exact","145 BROOK CIR, DANVILLE, VA, 24541",56587720,"L"
185386,"145 BROWN AVE","HOLYOKE","MA",1040,42.190666294,-72.625822102,386,"145 BROWN AVE, HOLYOKE, MA, 1040","Match","Exact","145 BROWN AVE, HOLYOKE, MA, 01040",4017737,"R"
185387,"145 BUCKLEY LANE","BATTLE CREEK","MI",49015,42.2747145750001,-85.213227333,387,"145 BUCKLEY LANE, BATTLE CREEK, MI, 49015","Match","Exact","145 BUCKLEY LN, BATTLE CREEK, MI, 49015",11712781,"L"
185388,"145 BURD STREET APT 1","NYACK","NY",10960,41.0911996290001,-73.922827631,388,"145 BURD STREET APT 1, NYACK, NY, 10960","Match","Exact","145 BURD ST, NYACK, NY, 10960",124600510,"L"
185389,"145 BURKE ST","EAST HARTFORD","CT",6118,41.7337585500001,-72.593418614,389,"145 BURKE ST, EAST HARTFORD, CT, 6118","Match","Exact","145 BURKE ST, EAST HARTFORD, CT, 06118",3497176,"R"
185390,"145 BUROAK DRIVE","JEFFERSON","GA",30549,34.09252465,-83.6813485059999,390,"145 BUROAK DRIVE, JEFFERSON, GA, 30549","Match","Exact","145 BUROAK DR, JEFFERSON, GA, 30549",627448371,"L"
185391,"145 CABLE LANE","CRESCENT CITY","CA",95531,41.7919576670001,-124.070044424,391,"145 CABLE LANE, CRESCENT CITY, CA, 95531","Match","Exact","145 CABLE LN, CRESCENT CITY, CA, 95531",627574055,"L"
185392,"145 CALLE VADITO NW","ALBUQUERQUE","NM",87120,35.1250532620001,-106.704007632,392,"145 CALLE VADITO NW, ALBUQUERQUE, NM, 87120","Match","Non_Exact","145 CLL VADITO NW, ALBUQUERQUE, NM, 87120",206699105,"L"
185393,"145 CALYER ST","BROOKLYN","NY",11222,40.7274836660001,-73.955253457,393,"145 CALYER ST, BROOKLYN, NY, 11222","Match","Exact","145 CALYER ST, BROOKLYN, NY, 11222",59076396,"L"
185394,"145 CARPENTER STREET","SALEM","NJ",8079,39.5714904370001,-75.472322549,394,"145 CARPENTER STREET, SALEM, NJ, 8079","Match","Exact","145 CARPENTER ST, SALEM, NJ, 08079",174419451,"R"
185395,"145 CASUDA CANYON DR","MONTEREY PARK","CA",91754,34.0608009580001,-118.153379537,395,"145 CASUDA CANYON DR, MONTEREY PARK, CA, 91754","Match","Exact","145 CASUDA CANYON DR, MONTEREY PARK, CA, 91754",141636032,"R"
185396,"145 CATHERINE ST","BRIDGEPORT","CT",6604,41.1854373780001,-73.19551745,396,"145 CATHERINE ST, BRIDGEPORT, CT, 6604","Match","Exact","145 CATHERINE ST, BRIDGEPORT, CT, 06604",3224040,"L"
185397,"145 CEDAR WAY APT 9","LAGUNA BEACH","CA",92651,33.545410793,-117.784567022,397,"145 CEDAR WAY APT 9, LAGUNA BEACH, CA, 92651","Match","Exact","145 CEDAR WAY, LAGUNA BEACH, CA, 92651",144068379,"L"
185398,"145 CENTRAL PARK WEST","NEW YORK","NY",10023,40.7775900680001,-73.974963702,398,"145 CENTRAL PARK WEST, NEW YORK, NY, 10023","Match","Exact","145 CENTRAL PARK W, NEW YORK, NY, 10023",59657075,"L"
185399,"145 CHALMERS WAY","FAYETTEVILLE","GA",30215,33.4244316140001,-84.463542574,399,"145 CHALMERS WAY, FAYETTEVILLE, GA, 30215","Match","Exact","145 CHALMERS WAY, FAYETTEVILLE, GA, 30215",625119580,"L"
185400,"145 CHAPARRAL STREET","SAN MARCOS","TX",78666,29.89640189,-97.960840929,400,"145 CHAPARRAL STREET, SAN MARCOS, TX, 78666","Match","Exact","145 CHAPARRAL ST, SAN MARCOS, TX, 78666",63845024,"L"
185401,"145 CHARLES STREET","SCHELLSBURG","PA",15559,40.0528414070001,-78.644777001,401,"145 CHARLES STREET, SCHELLSBURG, PA, 15559","Match","Exact","145 CHARLES ST, SCHELLSBURG, PA, 15559",50151317,"L"
185402,"145 CHARTER OAK DRIVE","WATERTOWN","CT",6795,41.6231341020001,-73.152166783,402,"145 CHARTER OAK DRIVE, WATERTOWN, CT, 6795","Match","Exact","145 CHARTER OAK DR, WATERTOWN, CT, 06795",3124293,"R"
185403,"145 CHASTAIN LOOP","NEWNAN","GA",30263,33.374989041,-84.779386433,403,"145 CHASTAIN LOOP, NEWNAN, GA, 30263","Match","Exact","145 CHASTAIN LOOP, NEWNAN, GA, 30263",9343849,"R"
185404,"145 CHATEAU WHISTLER COURT","LAS VEGAS","NV",89148,36.048045834,-115.283801698,404,"145 CHATEAU WHISTLER COURT, LAS VEGAS, NV, 89148","Match","Exact","145 CHATEAU WHISTLER CT, LAS VEGAS, NV, 89148",201941099,"R"
185405,"145 CHATWOOD TERRACE","ST. LOUIS","MO",63126,38.566968049,-90.3869551669999,405,"145 CHATWOOD TERRACE, ST. LOUIS, MO, 63126","Match","Exact","145 CHATWOOD TER, SAINT LOUIS, MO, 63126",635627801,"R"
185406,"145 CHEMISTRY CIRCLE","LADSON","SC",29456,32.9641100470001,-80.137506397,406,"145 CHEMISTRY CIRCLE, LADSON, SC, 29456","Match","Exact","145 CHEMISTRY CIR, LADSON, SC, 29456",178486426,"L"
185407,"145 CHERRY STREET","STEPHENS","GA",30667,33.753551535,-83.171853985,407,"145 CHERRY STREET, STEPHENS, GA, 30667","Match","Exact","145 CHERRY ST, STEPHENS, GA, 30667",5059567,"L"
185408,"145 CHERYL LN","SEWANEE","TN",37375,35.150427983,-85.880946536,408,"145 CHERYL LN, SEWANEE, TN, 37375","Match","Exact","145 CHERYL LN, SEWANEE, TN, 37375",57978531,"L"
185409,"145 CHESTER AVE","COATESVILLE","PA",19320,39.9820207970001,-75.808437625,409,"145 CHESTER AVE, COATESVILLE, PA, 19320","Match","Exact","145 CHESTER AVE, COATESVILLE, PA, 19320",179481232,"L"
185410,"145 CHESTERFIELD LANE","MAUMEE","OH",43537,41.581349561,-83.662991136,410,"145 CHESTERFIELD LANE, MAUMEE, OH, 43537","Match","Exact","145 CHESTERFIELD LN, MAUMEE, OH, 43537",33930799,"L"
185411,"145 CHESTNUT STREET","KINGMAN","AZ",86401,35.193863288,-114.056895494,411,"145 CHESTNUT STREET, KINGMAN, AZ, 86401","Match","Exact","145 CHESTNUT ST, KINGMAN, AZ, 86401",190314479,"R"
185412,"145 CHRISMAN AVE","VENTURA","CA",93001,34.2780170880001,-119.278015286,412,"145 CHRISMAN AVE, VENTURA, CA, 93001","Match","Exact","145 CHRISMAN AVE, VENTURA, CA, 93001",109951187,"R"
185413,"145 CHRISTOPHER ROAD","COLUMBUS","MS",39705,33.536074748,-88.4087878829999,413,"145 CHRISTOPHER ROAD, COLUMBUS, MS, 39705","Match","Exact","145 CHRISTOPHER RD, COLUMBUS, MS, 39705",636561248,"R"
185414,"145 CHURCH STREET","WEST HAVEN","CT",6516,41.2694195030001,-72.953976357,414,"145 CHURCH STREET, WEST HAVEN, CT, 6516","Match","Exact","145 CHURCH ST, W HAVEN, CT, 06516",3700801,"R"
185415,"145 CIRCLE DRIVE","RONCEVERTE","WV",24970,NA,NA,415,"145 CIRCLE DRIVE, RONCEVERTE, WV, 24970","No_Match",NA,NA,NA,NA
185416,"145 CITY PLACE SUITE 300","PALM COAST","FL",32164,NA,NA,416,"145 CITY PLACE SUITE 300, PALM COAST, FL, 32164","No_Match",NA,NA,NA,NA
185417,"145 CITY PLACE SUITE 301","PALM COAST","FL",32164,NA,NA,417,"145 CITY PLACE SUITE 301, PALM COAST, FL, 32164","No_Match",NA,NA,NA,NA
185418,"145 CLARA DRIVE","AVONDALE","LA",70094,29.905288855,-90.206271338,418,"145 CLARA DRIVE, AVONDALE, LA, 70094","Match","Exact","145 CLARA DR, AVONDALE, LA, 70094",93550333,"L"
185419,"145 CLARA STREET","NEW BEDFORD","MA",2744,41.608494325,-70.910420115,419,"145 CLARA STREET, NEW BEDFORD, MA, 2744","Match","Exact","145 CLARA ST, NEW BEDFORD, MA, 02744",46787760,"R"
185420,"145 CLAREMORE AVENUE","JACKSONVILLE","FL",32220,30.317197041,-81.8432911739999,420,"145 CLAREMORE AVENUE, JACKSONVILLE, FL, 32220","Match","Exact","145 CLAREMORE AVE, JACKSONVILLE, FL, 32220",83885996,"R"
185421,"145 CLARK ROAD","DALLAS","GA",30157,33.8995005310001,-84.9224270349999,421,"145 CLARK ROAD, DALLAS, GA, 30157","Match","Exact","145 CLARK RD, DALLAS, GA, 30157",635631294,"L"
185422,"145 CLERMONT AVE","HEMPSTEAD","NY",11550,40.70329818,-73.6077787259999,422,"145 CLERMONT AVE, HEMPSTEAD, NY, 11550","Match","Exact","145 CLERMONT AVE, HEMPSTEAD, NY, 11550",147629139,"L"
185423,"145 CLIFF ROAD","MONTROSS","VA",22520,38.1700992930001,-76.865902815,423,"145 CLIFF ROAD, MONTROSS, VA, 22520","Match","Exact","145 CLIFF RD, MONTROSS, VA, 22520",22164146,"L"
185424,"145 CLOVERFIELD DRIVE","CAMPBELLSVILLE","KY",42718,37.3028890480001,-85.349074521,424,"145 CLOVERFIELD DRIVE, CAMPBELLSVILLE, KY, 42718","Match","Exact","145 CLOVERFIELD DR, CAMPBELLSVILLE, KY, 42718",35248009,"R"
185425,"145 CLYDE RAY ROAD","DEEP GAP","NC",28618,36.2502603930001,-81.549910848,425,"145 CLYDE RAY ROAD, DEEP GAP, NC, 28618","Match","Exact","145 CLYDE RAY RD, DEEP GAP, NC, 28618",649343900,"L"
185426,"145 COACH CIRCLE DRIVE","ROBINS","IA",52328,42.066952622,-91.650486105,426,"145 COACH CIRCLE DRIVE, ROBINS, IA, 52328","Match","Exact","145 COACH CIR, ROBINS, IA, 52328",17035820,"R"
185427,"145 COLCHESTER ROAD","NEW PROVIDENCE","NJ",7974,40.686887364,-74.409964915,427,"145 COLCHESTER ROAD, NEW PROVIDENCE, NJ, 7974","Match","Exact","145 COLCHESTER RD, NEW PROVIDENCE, NJ, 07974",60602909,"R"
185428,"145 COLEMAN CROSSING","MARYSVILLE","OH",43040,NA,NA,428,"145 COLEMAN CROSSING, MARYSVILLE, OH, 43040","No_Match",NA,NA,NA,NA
185429,"145 COLLEGE AVENUE","ELIZABETHTOWN","PA",17022,40.1479396720001,-76.6005582179999,429,"145 COLLEGE AVENUE, ELIZABETHTOWN, PA, 17022","Match","Exact","145 COLLEGE AVE, ELIZABETHTOWN, PA, 17022",179693271,"L"
185430,"145 CONEJO DRIVE","MILLBRAE","CA",94030,37.586230174,-122.405053472,430,"145 CONEJO DRIVE, MILLBRAE, CA, 94030","Match","Exact","145 CONEJO DR, MILLBRAE, CA, 94030",192412622,"L"
185431,"145 CONFEDERATE AVENUE","DANVILLE","VA",24541,36.5618412580001,-79.4004016389999,431,"145 CONFEDERATE AVENUE, DANVILLE, VA, 24541","Match","Exact","145 CONFEDERATE AVE, DANVILLE, VA, 24541",56590185,"R"
185432,"145 COOK RD","CARMEL","ME",4419,44.7844695700001,-69.058623547,432,"145 COOK RD, CARMEL, ME, 4419","Match","Exact","145 COOK RD, CARMEL, ME, 04419",123640378,"L"
185433,"145 COOL SPRINGS ROAD","NORTH EAST","MD",21901,39.585868298,-75.98228319,433,"145 COOL SPRINGS ROAD, NORTH EAST, MD, 21901","Match","Non_Exact","145 COOL SPRINGS DR, NORTH EAST, MD, 21901",648461151,"L"
185434,"145 CORN PLANTERS STREET","DANIEL ISLAND","SC",29492,32.861975968,-79.915760146,434,"145 CORN PLANTERS STREET, DANIEL ISLAND, SC, 29492","Match","Exact","145 CORN PLANTERS ST, DANIEL ISLAND, SC, 29492",100783698,"R"
185435,"145 CORNWELL RD","KELSO","WA",98626,46.0833290160001,-122.838012965,435,"145 CORNWELL RD, KELSO, WA, 98626","Match","Exact","145 CORNWELL RD, KELSO, WA, 98626",649683294,"R"
185436,"145 CORRINE DRIVE","GREENVILLE","SC",29607,34.8673548990001,-82.368786642,436,"145 CORRINE DRIVE, GREENVILLE, SC, 29607","Match","Exact","145 CORRINE DR, GREENVILLE, SC, 29607",38357783,"L"
185437,"145 CORTE MADERA TOWN CENTER 442","CORTE MADERA","CA",94925,NA,NA,437,"145 CORTE MADERA TOWN CENTER 442, CORTE MADERA, CA, 94925","No_Match",NA,NA,NA,NA
185438,"145 CORTE MADERA TOWN CTR 502","CORTE MADERA","CA",94925,NA,NA,438,"145 CORTE MADERA TOWN CTR 502, CORTE MADERA, CA, 94925","No_Match",NA,NA,NA,NA
185439,"145 COUNTRY VIEW DR","HARRISON","OH",45030,39.255665402,-84.788393529,439,"145 COUNTRY VIEW DR, HARRISON, OH, 45030","Match","Exact","145 COUNTRY VIEW DR, HARRISON, OH, 45030",103955875,"R"
185440,"145 COUNTY RD 173","CORINTH","MS",38834,34.975270568,-88.442394075,440,"145 COUNTY RD 173, CORINTH, MS, 38834","Match","Exact","145 CO RD 173, CORINTH, MS, 38834",91051133,"R"
185441,"145 COURSON AVE","STATEN ISLAND","NY",10301,40.6376012700001,-74.083548604,441,"145 COURSON AVE, STATEN ISLAND, NY, 10301","Match","Non_Exact","145 CORSON AVE, STATEN ISLAND, NY, 10301",59878947,"R"
185442,"145 COURT AVE  SUITE 411","MEMPHIS","TN",38104,35.145804733,-90.0509750799999,442,"145 COURT AVE  SUITE 411, MEMPHIS, TN, 38104","Match","Non_Exact","145 COURT AVE, MEMPHIS, TN, 38103",72944027,"R"
185443,"145 COURTNEYS LN","FAYETTEVILLE","GA",30215,33.4134828200001,-84.3910207339999,443,"145 COURTNEYS LN, FAYETTEVILLE, GA, 30215","Match","Exact","145 COURTNEYS LN, FAYETTEVILLE, GA, 30215",632412634,"R"
185444,"145 COYOTE CT","WEST COLUMBIA","NC",29169,NA,NA,444,"145 COYOTE CT, WEST COLUMBIA, NC, 29169","No_Match",NA,NA,NA,NA
185445,"145 CR 147","TISHOMINGO","MS",38873,34.6865265640001,-88.2337033169999,445,"145 CR 147, TISHOMINGO, MS, 38873","Match","Exact","145 CO RD 147, TISHOMINGO, MS, 38873",607736692,"L"
185446,"145 CR 192","HOUSTON","MS",38851,33.8227142470001,-88.8832188919999,446,"145 CR 192, HOUSTON, MS, 38851","Match","Exact","145 CO RD 192, HOUSTON, MS, 38851",607213095,"L"
185447,"145 CR 350","SAN SABA","TX",76877,31.148409256,-98.925438983,447,"145 CR 350, SAN SABA, TX, 76877","Match","Exact","145 CO RD 350, SAN SABA, TX, 76877",183606626,"L"
185448,"145 CREEK VIEW TRAIL","FAYETTEVILLE","GA",30214,33.4891344770001,-84.468128408,448,"145 CREEK VIEW TRAIL, FAYETTEVILLE, GA, 30214","Match","Non_Exact","145 CREEKVIEW TRL, FAYETTEVILLE, GA, 30214",75932516,"R"
185449,"145 CREEKMONT CT","ROSWELL","GA",30062,34.0161172580001,-84.306052559,449,"145 CREEKMONT CT, ROSWELL, GA, 30062","Match","Non_Exact","145 CREEKMONT CT, ROSWELL, GA, 30076",17353361,"R"
185450,"145 CREEKMONT CT","ROSWELL","GA",30076,34.0161172580001,-84.306052559,450,"145 CREEKMONT CT, ROSWELL, GA, 30076","Match","Exact","145 CREEKMONT CT, ROSWELL, GA, 30076",17353361,"R"
185451,"145 CRESTMOOR AVE","LOUISVILLE","KY",40206,NA,NA,451,"145 CRESTMOOR AVE, LOUISVILLE, KY, 40206","Tie",NA,NA,NA,NA
185452,"145 CROSS BROOK RD","WOODBURY","CT",6798,41.589366269,-73.263004082,452,"145 CROSS BROOK RD, WOODBURY, CT, 6798","Match","Exact","145 CROSS BROOK RD, WOODBURY, CT, 06798",611467556,"L"
185453,"145 CROSSLAKE DR","PLEASANTON","TX",78064,29.0011768040001,-98.4087488929999,453,"145 CROSSLAKE DR, PLEASANTON, TX, 78064","Match","Non_Exact","145 CROSS LAKE DR, PLEASANTON, TX, 78064",634067379,"L"
185454,"145 CROTON AVENUE","MOUNT KISCO","NY",10549,41.213908901,-73.73567665,454,"145 CROTON AVENUE, MOUNT KISCO, NY, 10549","Match","Exact","145 CROTON AVE, MOUNT KISCO, NY, 10549",139843847,"R"
185455,"145 CYPRESS CIRCLE APT B","FORT GORDON","GA",30905,33.4188892440001,-82.121040356,455,"145 CYPRESS CIRCLE APT B, FORT GORDON, GA, 30905","Match","Exact","145 CYPRESS CIR, FORT GORDON, GA, 30905",629577732,"L"
185456,"145 CYPRESS POINT PKWY","PALM COAST","FL",32164,29.551110351,-81.226829107,456,"145 CYPRESS POINT PKWY, PALM COAST, FL, 32164","Match","Exact","145 CYPRESS POINT PKWY, PALM COAST, FL, 32164",610959636,"R"
185457,"145 DAN DRIVE","HOLLISTER","CA",95023,36.81313046,-121.354659985,457,"145 DAN DRIVE, HOLLISTER, CA, 95023","Match","Exact","145 DAN DR, HOLLISTER, CA, 95023",125454464,"L"
185458,"145 DANLEY RANCH RD","ALAMOGORDO","NM",88310,32.9704720570001,-106.013984629,458,"145 DANLEY RANCH RD, ALAMOGORDO, NM, 88310","Match","Exact","145 DANLEY RANCH RD, ALAMOGORDO, NM, 88310",132339358,"L"
185459,"145 DARK WOOD DRIVE","SPRING LAKE","NC",28390,35.264355337,-78.9436429689999,459,"145 DARK WOOD DRIVE, SPRING LAKE, NC, 28390","Match","Non_Exact","145 DARKWOOD DR, SPRING LAKE, NC, 28390",71988639,"L"
185460,"145 DARRYL DR","CAMPBELL","CA",95008,37.2890065820001,-121.962932488,460,"145 DARRYL DR, CAMPBELL, CA, 95008","Match","Exact","145 DARRYL DR, CAMPBELL, CA, 95008",122901778,"L"
185461,"145 DAVISON RD","LOCKPORT","NY",14094,43.1751525810001,-78.664362712,461,"145 DAVISON RD, LOCKPORT, NY, 14094","Match","Exact","145 DAVISON RD, LOCKPORT, NY, 14094",48696900,"R"
185462,"145 DAYTON DR","SOUTHINGTON","CT",6489,41.6034981270001,-72.9098471899999,462,"145 DAYTON DR, SOUTHINGTON, CT, 6489","Match","Exact","145 DAYTON DR, SOUTHINGTON, CT, 06489",3538539,"L"
185463,"145 DEATSVILLE CONNECTOR","COXS CREEK","KY",40013,NA,NA,463,"145 DEATSVILLE CONNECTOR, COXS CREEK, KY, 40013","No_Match",NA,NA,NA,NA
185464,"145 DEBORO RD","N ATTLEBORO","MA",48304,41.987985774,-71.274187699,464,"145 DEBORO RD, N ATTLEBORO, MA, 48304","Match","Non_Exact","145 DEBORA RD, NORTH ATTLEBORO, MA, 02760",46797892,"R"
185465,"145 DEERFIELD LANE","CARBONDALE","IL",62902,37.6360716070001,-89.207041116,465,"145 DEERFIELD LANE, CARBONDALE, IL, 62902","Match","Exact","145 DEERFIELD LN, CARBONDALE, IL, 62902",634202160,"L"
185466,"145 DEMETTE ROAD","LAFAYETTTE","LA",70508,30.1369265270001,-92.045092869,466,"145 DEMETTE ROAD, LAFAYETTTE, LA, 70508","Match","Non_Exact","145 DEMETTE DR, LAFAYETTE, LA, 70508",627876374,"R"
185467,"145 DISNEY COURT","OWINGS MILLS","MD",21117,39.426639536,-76.797352546,467,"145 DISNEY COURT, OWINGS MILLS, MD, 21117","Match","Exact","145 DISNEY CT, OWINGS MILLS, MD, 21117",191505038,"R"
185468,"145 DIXON AVENUE","AMITYVILLE","NY",11701,40.6836146910001,-73.412829113,468,"145 DIXON AVENUE, AMITYVILLE, NY, 11701","Match","Exact","145 DIXON AVE, AMITYVILLE, NY, 11701",113972408,"R"
185469,"145 DRENNON DRIVE","JESUP","GA",31545,31.605276582,-81.905374137,469,"145 DRENNON DRIVE, JESUP, GA, 31545","Match","Exact","145 DRENNON DR, JESUP, GA, 31545",4834850,"L"
185470,"145 DURHAM DRIVE","COATESVILLE","PA",19320,40.0293225790001,-75.89802789,470,"145 DURHAM DRIVE, COATESVILLE, PA, 19320","Match","Exact","145 DURHAM DR, COATESVILLE, PA, 19320",642678350,"L"
185471,"145 E 27 STREET - APT 9A","NEW YORK","NY",10016,40.741919835,-73.9826368619999,471,"145 E 27 STREET - APT 9A, NEW YORK, NY, 10016","Match","Non_Exact","145 E 27TH ST, NEW YORK, NY, 10016",59662773,"R"
185472,"145 E 27TH ST APT 5J","NEW YORK","NY",10016,40.741919835,-73.9826368619999,472,"145 E 27TH ST APT 5J, NEW YORK, NY, 10016","Match","Non_Exact","145 E 27TH ST, NEW YORK, NY, 10016",59662773,"R"
185473,"145 E 34TH ST","STEGER","IL",60475,41.4698242900001,-87.627706233,473,"145 E 34TH ST, STEGER, IL, 60475","Match","Exact","145 E 34TH ST, STEGER, IL, 60475",111553178,"L"
185474,"145 E 400 N","RICHFIELD","UT",84701,38.7736845100001,-112.082110915,474,"145 E 400 N, RICHFIELD, UT, 84701","Match","Exact","145 E 400 N, RICHFIELD, UT, 84701",175331865,"L"
185475,"145 E 71ST ST","LOS ANGELES","CA",90003,33.9754357900001,-118.272750326,475,"145 E 71ST ST, LOS ANGELES, CA, 90003","Match","Exact","145 E 71ST ST, LOS ANGELES, CA, 90003",141670421,"L"
185476,"145 E 71ST STREET","LOS ANGELES","CA",90003,33.9754357900001,-118.272750326,476,"145 E 71ST STREET, LOS ANGELES, CA, 90003","Match","Exact","145 E 71ST ST, LOS ANGELES, CA, 90003",141670421,"L"
185477,"145 E 91ST ST","BROOKLYN","NY",11212,40.660705889,-73.9274434179999,477,"145 E 91ST ST, BROOKLYN, NY, 11212","Match","Exact","145 E 91ST ST, BROOKLYN, NY, 11212",59083528,"L"
185478,"145 E BROADWAY","DRUMRIGHT","OK",74030,35.98847742,-96.600783792,478,"145 E BROADWAY, DRUMRIGHT, OK, 74030","Match","Non_Exact","145 E BROADWAY ST, DRUMRIGHT, OK, 74030",639138686,"R"
185479,"145 E GRANT STREET","LELAND","IL",60531,41.6176613380001,-88.797847331,479,"145 E GRANT STREET, LELAND, IL, 60531","Match","Exact","145 GRANT ST, LELAND, IL, 60531",8601717,"L"
185480,"145 E HIGH ST","HUMMELSTOWN","PA",17036,40.264213666,-76.704470557,480,"145 E HIGH ST, HUMMELSTOWN, PA, 17036","Match","Exact","145 E HIGH ST, HUMMELSTOWN, PA, 17036",70825421,"R"
185481,"145 E MAIN ST","HORTONVILLE","WI",54944,44.334885145,-88.636806082,481,"145 E MAIN ST, HORTONVILLE, WI, 54944","Match","Exact","145 E MAIN ST, HORTONVILLE, WI, 54944",624162250,"L"
185482,"145 E MAJESTIC ELMS PLACE5","SALT LAKE CITY","UT",84115,NA,NA,482,"145 E MAJESTIC ELMS PLACE5, SALT LAKE CITY, UT, 84115","No_Match",NA,NA,NA,NA
185483,"145 E RICH AVE SUITE D","DELAND","FL",32724,29.0299048460001,-81.302374088,483,"145 E RICH AVE SUITE D, DELAND, FL, 32724","Match","Non_Exact","145 E RICH AVE, DELAND, FL, 32724",653177422,"L"
185484,"145 E STATE ST","ATHENS","OH",45701,39.33372123,-82.096987973,484,"145 E STATE ST, ATHENS, OH, 45701","Match","Exact","145 E STATE ST, ATHENS, OH, 45701",37103203,"R"
185485,"145 E STORY RD","WINTER GARDEN","FL",34787,28.5583507960001,-81.582120678,485,"145 E STORY RD, WINTER GARDEN, FL, 34787","Match","Exact","145 E STORY RD, WINTER GARDEN, FL, 34787",94264931,"L"
185486,"145 E WALNUT","ASHLAND","OH",44805,40.86583303,-82.3119123019999,486,"145 E WALNUT, ASHLAND, OH, 44805","Match","Non_Exact","145 E WALNUT ST, ASHLAND, OH, 44805",30146605,"R"
185487,"145 E WYOMING AVENUE","ABSECON","NJ",8201,39.4327015590001,-74.4921853119999,487,"145 E WYOMING AVENUE, ABSECON, NJ, 8201","Match","Exact","145 WYOMING AVE, ABSECON, NJ, 08201",647582079,"L"
185488,"145 EAGLE NEST DRIVE","EAGLE ROCK","VA",24085,37.655700116,-79.810504965,488,"145 EAGLE NEST DRIVE, EAGLE ROCK, VA, 24085","Match","Non_Exact","145 EAGLES NEST DR, EAGLE ROCK, VA, 24085",214937111,"L"
185489,"145 EAGLES NEST COVE","AUSTIN","AP",72007,NA,NA,489,"145 EAGLES NEST COVE, AUSTIN, AP, 72007","No_Match",NA,NA,NA,NA
185490,"145 EAST 126 APT 3C","NEW YORK","NY",10002,NA,NA,490,"145 EAST 126 APT 3C, NEW YORK, NY, 10002","No_Match",NA,NA,NA,NA
185491,"145 EAST 16TH STREET 7F","NEW YORK","NY",10003,40.735082167,-73.9872922609999,491,"145 EAST 16TH STREET 7F, NEW YORK, NY, 10003","Match","Exact","145 E 16TH ST, NEW YORK, NY, 10003",59653687,"L"
185492,"145 EAST 16TH STREET APT 4E","NEW YORK","NY",10003,40.735082167,-73.9872922609999,492,"145 EAST 16TH STREET APT 4E, NEW YORK, NY, 10003","Match","Exact","145 E 16TH ST, NEW YORK, NY, 10003",59653687,"L"
185493,"145 EAST 18TH ST","BROOKLYN","NY",11226,40.647633962,-73.962722849,493,"145 EAST 18TH ST, BROOKLYN, NY, 11226","Match","Exact","145 E 18TH ST, BROOKLYN, NY, 11226",59080966,"L"
185494,"145 EAST 27TH STREET APT 1L","NEW YORK","NY",10016,40.7419289360001,-73.982658395,494,"145 EAST 27TH STREET APT 1L, NEW YORK, NY, 10016","Match","Exact","145 E 27TH ST, NEW YORK, NY, 10016",59662773,"R"
185495,"145 EAST 35TH STREET SUITE 7FW","NEW YORK","NY",10016,40.7469633590001,-73.978970128,495,"145 EAST 35TH STREET SUITE 7FW, NEW YORK, NY, 10016","Match","Exact","145 E 35TH ST, NEW YORK, NY, 10016",642471683,"L"
185496,"145 EAST 48TH STREET 29D","NEW YORK","NY",10017,40.7550674140001,-73.972835468,496,"145 EAST 48TH STREET 29D, NEW YORK, NY, 10017","Match","Exact","145 E 48TH ST, NEW YORK, NY, 10017",59658697,"L"
185497,"145 EAST 4TH SOUTH","COWLEY","WY",82420,44.877329144,-108.466577126,497,"145 EAST 4TH SOUTH, COWLEY, WY, 82420","Match","Non_Exact","145 E 4TH ST S, COWLEY, WY, 82420",180502796,"R"
185498,"145 EAST 76TH STREET","NEW YORK","NY",10021,40.772960964,-73.9601862379999,498,"145 EAST 76TH STREET, NEW YORK, NY, 10021","Match","Exact","145 E 76TH ST, NEW YORK, NY, 10021",59657400,"L"
185499,"145 EAST 81 STREET 7C","NEW YORK","NY",10028,40.7761724040001,-73.957667714,499,"145 EAST 81 STREET 7C, NEW YORK, NY, 10028","Match","Exact","145 E 81ST ST, NEW YORK, NY, 10028",59657358,"L"
185500,"145 EAST ADDITION ST","SEARCHLIGHT","NV",89046,35.4664840830001,-114.916898963,500,"145 EAST ADDITION ST, SEARCHLIGHT, NV, 89046","Match","Exact","145 E ADDITION ST, SEARCHLIGHT, NV, 89046",201854336,"R"
