"ID","Address","City","State","Zip","lat","long","id","input_address","match_indicator","match_type","matched_address","tiger_line_id","tiger_side"
224501,"1601 WEST 2ND STREET","SANTA ANA","CA",92703,33.7462148020001,-117.890049453,1,"1601 WEST 2ND STREET, SANTA ANA, CA, 92703","Match","Exact","1601 W 2ND ST, SANTA ANA, CA, 92703",144040803,"R"
224502,"1601 WEST 53RD AVENUE","MERRILLVILLE","IN",46410,41.5219204840001,-87.354796721,2,"1601 WEST 53RD AVENUE, MERRILLVILLE, IN, 46410","Match","Exact","1601 W 53RD AVE, MERRILLVILLE, IN, 46410",98431302,"L"
224503,"1601 WEST GARDEN STREET","PENSACOLA","FL",32502,30.4115764060001,-87.2351739169999,3,"1601 WEST GARDEN STREET, PENSACOLA, FL, 32502","Match","Exact","1601 W GARDEN ST, PENSACOLA, FL, 32502",93223940,"L"
224504,"1601 WEST HUCTHISON","CROWLEY","LA",70526,NA,NA,4,"1601 WEST HUCTHISON, CROWLEY, LA, 70526","No_Match",NA,NA,NA,NA
224505,"1601 WEST RIVER DRIVE","STEVENS POINT","WI",54481,44.5173547630001,-89.591636638,5,"1601 WEST RIVER DRIVE, STEVENS POINT, WI, 54481","Match","Exact","1601 W RIVER DR, STEVENS POINT, WI, 54481",126795579,"R"
224506,"1601 WEST WEBSTER UNIT 17","HOUSTON","TX",77006,NA,NA,6,"1601 WEST WEBSTER UNIT 17, HOUSTON, TX, 77006","No_Match",NA,NA,NA,NA
224507,"1601 WHEATLAND AVE","LANCASTER","PA",17603,40.0408465310001,-76.34627922,7,"1601 WHEATLAND AVE, LANCASTER, PA, 17603","Match","Exact","1601 WHEATLAND AVE, LANCASTER, PA, 17603",179661071,"R"
224508,"1601 WHITMAN DR","WEST MELBOURNE","FL",32904,28.0566020000001,-80.650212704,8,"1601 WHITMAN DR, WEST MELBOURNE, FL, 32904","Match","Exact","1601 WHITMAN DR, W MELBOURNE, FL, 32904",601722466,"L"
224509,"1601 WILLIAMS WAY","WEST CHESTER","PA",19380,39.9707229540001,-75.529138282,9,"1601 WILLIAMS WAY, WEST CHESTER, PA, 19380","Match","Exact","1601 WILLIAMS WAY, WEST CHESTER, PA, 19380",179497366,"L"
224510,"1601 WINDING BROOK WAY","WINDSOR MILL","MD",21244,39.3124154710001,-76.768244566,10,"1601 WINDING BROOK WAY, WINDSOR MILL, MD, 21244","Match","Exact","1601 WINDING BROOK WAY, WINDSOR MILL, MD, 21244",191508998,"R"
224511,"1601 WINSLOW DRIVE","BLACKSBURG","VA",24060,37.251277778,-80.423286551,11,"1601 WINSLOW DRIVE, BLACKSBURG, VA, 24060","Match","Exact","1601 WINSLOW DR, BLACKSBURG, VA, 24060",73632344,"R"
224512,"1601 WOODLAND DR","SOPERTON","GA",30457,32.3670679640001,-82.586111908,12,"1601 WOODLAND DR, SOPERTON, GA, 30457","Match","Exact","1601 WOODLAND DR, SOPERTON, GA, 30457",38478916,"L"
224513,"1601 WYNNTON ROAD","COLUMBUS","GA",31906,32.4675457220001,-84.968717797,13,"1601 WYNNTON ROAD, COLUMBUS, GA, 31906","Match","Exact","1601 WYNNTON RD, COLUMBUS, GA, 31906",98938410,"L"
224514,"1601 YALECREST AVENUE","SALT LAKE CITY","UT",84105,40.746088866,-111.844175339,14,"1601 YALECREST AVENUE, SALT LAKE CITY, UT, 84105","Match","Exact","1601 YALECREST AVE, SALT LAKE CITY, UT, 84105",176081454,"L"
224515,"1601 ZARIEDA","ORTONVILLE","MI",48462,42.8290655660001,-83.437738322,15,"1601 ZARIEDA, ORTONVILLE, MI, 48462","Match","Non_Exact","1601 ZARIEDA ST, ORTONVILLE, MI, 48462",69688764,"L"
224516,"1601 ZYDECO","ARTESIA","NM",88210,32.8448502300001,-104.417475678,16,"1601 ZYDECO, ARTESIA, NM, 88210","Match","Exact","1601 ZYDECO, ARTESIA, NM, 88210",131263246,"L"
224517,"1601-1 N MAIN ST 3159","JACKSONVILLE","FL",32206,30.3383296100001,-81.421722071,17,"1601-1 N MAIN ST 3159, JACKSONVILLE, FL, 32206","Match","Non_Exact","1601 MAIN ST, JACKSONVILLE, FL, 32233",83962165,"R"
224518,"1601-1 N MAIN ST","JACKSONVILLE","FL",32206,30.3432041230001,-81.654243235,18,"1601-1 N MAIN ST, JACKSONVILLE, FL, 32206","Match","Exact","1601 N MAIN ST, JACKSONVILLE, FL, 32206",83898962,"R"
224519,"1601-19TH AVENUE","GULFPORT","MS",39501,NA,NA,19,"1601-19TH AVENUE, GULFPORT, MS, 39501","No_Match",NA,NA,NA,NA
224520,"1601","HIGHLAND PARK","IL",60035,NA,NA,20,"1601, HIGHLAND PARK, IL, 60035","No_Match",NA,NA,NA,NA
224521,"1601","TACOMA","WA",98405,NA,NA,21,"1601, TACOMA, WA, 98405","No_Match",NA,NA,NA,NA
224522,"16010 13TH AVE CT E","TACOMA","WA",98445,47.1110309380001,-122.411856277,22,"16010 13TH AVE CT E, TACOMA, WA, 98445","Match","Non_Exact","16010 13TH AVE E, TACOMA, WA, 98445",652029923,"R"
224523,"16010 89TH AVE APT 2B","JAMAICA","NY",11432,NA,NA,23,"16010 89TH AVE APT 2B, JAMAICA, NY, 11432","No_Match",NA,NA,NA,NA
224524,"16010 LAWRENCE AVE","BELTON","MO",64012,38.8336214760001,-94.514367753,24,"16010 LAWRENCE AVE, BELTON, MO, 64012","Match","Exact","16010 LAWRENCE AVE, BELTON, MO, 64012",100907615,"L"
224525,"16010 MACEDONIA DRIVE","WOODBRIDGE","VA",22191,38.6043013440001,-77.2797780069999,25,"16010 MACEDONIA DRIVE, WOODBRIDGE, VA, 22191","Match","Exact","16010 MACEDONIA DR, WOODBRIDGE, VA, 22191",76512163,"L"
224526,"16010 PONDEROSA PASS","HELOTES","TX",78023,29.5938461960001,-98.659291045,26,"16010 PONDEROSA PASS, HELOTES, TX, 78023","Match","Exact","16010 PONDEROSA PASS, HELOTES, TX, 78023",619994375,"L"
224527,"16010 RAWLINGS HEIGHTS DRIVE","RAWLINGS","MD",21557,39.538630493,-78.8798152109999,27,"16010 RAWLINGS HEIGHTS DRIVE, RAWLINGS, MD, 21557","Match","Exact","16010 RAWLINGS HEIGHTS DR, RAWLINGS, MD, 21557",123305874,"L"
224528,"16010 SW DEWBERRY LN","TIGARD","OR",97223,45.4247058020001,-122.84224517,28,"16010 SW DEWBERRY LN, TIGARD, OR, 97223","Match","Exact","16010 SW DEWBERRY LN, TIGARD, OR, 97223",158216835,"R"
224529,"16010 UNIVERSITY OAK STE 104","SAN ANTONIO","TX",78249,29.587436913,-98.5776475869999,29,"16010 UNIVERSITY OAK STE 104, SAN ANTONIO, TX, 78249","Match","Exact","16010 UNIVERSITY OAK, SAN ANTONIO, TX, 78249",101570120,"L"
224530,"16010 US HWY 87 WEST","ADKINS","TX",78101,NA,NA,30,"16010 US HWY 87 WEST, ADKINS, TX, 78101","No_Match",NA,NA,NA,NA
224531,"16011 CROSSWIND AVE","CHINO","CA",91708,33.962854205,-117.631563278,31,"16011 CROSSWIND AVE, CHINO, CA, 91708","Match","Exact","16011 CROSSWIND AVE, CHINO, CA, 91708",614811790,"L"
224532,"16011 EL CAMINO REAL","HOUSTON","TX",77062,29.5630763950001,-95.127978571,32,"16011 EL CAMINO REAL, HOUSTON, TX, 77062","Match","Exact","16011 EL CAMINO REAL, HOUSTON, TX, 77062",96543724,"L"
224533,"16011 FOREMAST PLACE","LAKEWOOD RANCH","FL",34202,27.3928968870001,-82.37909037,33,"16011 FOREMAST PLACE, LAKEWOOD RANCH, FL, 34202","Match","Exact","16011 FOREMAST PL, LAKEWOOD RCH, FL, 34202",625409371,"L"
224534,"16011 GLENBROOK KNOLL LANE","HOUSTON","TX",77095,29.8829760630001,-95.651594946,34,"16011 GLENBROOK KNOLL LANE, HOUSTON, TX, 77095","Match","Exact","16011 GLENBROOK KNOLL LN, HOUSTON, TX, 77095",96144005,"L"
224535,"16011 LAS PALMERAS AVE","LA MIRADA","CA",90638,33.904635237,-117.989827949,35,"16011 LAS PALMERAS AVE, LA MIRADA, CA, 90638","Match","Exact","16011 LAS PALMERAS AVE, LA MIRADA, CA, 90638",141775374,"R"
224536,"16011 LINDENWOOD CIR","BENNINGTON","NE",68007,41.369111801,-96.1647078299999,36,"16011 LINDENWOOD CIR, BENNINGTON, NE, 68007","Match","Exact","16011 LINDENWOOD CIR, BENNINGTON, NE, 68007",117018270,"L"
224537,"16011 N MAIN ST 3159 SMB 1999","JACKSONVILLE","FL",32206,NA,NA,37,"16011 N MAIN ST 3159 SMB 1999, JACKSONVILLE, FL, 32206","No_Match",NA,NA,NA,NA
224538,"16011 SOUTH 108TH AVENUE","ORLAND PARK","IL",60467,41.5987985720001,-87.881747653,38,"16011 SOUTH 108TH AVENUE, ORLAND PARK, IL, 60467","Match","Non_Exact","16011 108TH AVE, ORLAND PARK, IL, 60467",605643046,"L"
224539,"16011 SW 80TH PLACE","TIGARD","OR",97224,45.40483691,-122.759786365,39,"16011 SW 80TH PLACE, TIGARD, OR, 97224","Match","Exact","16011 SW 80TH PL, TIGARD, OR, 97224",605222958,"R"
224540,"16011 W SUNNYSIDE DRIVE  UNIT 105","PHOENIX","AZ",85029,NA,NA,40,"16011 W SUNNYSIDE DRIVE  UNIT 105, PHOENIX, AZ, 85029","No_Match",NA,NA,NA,NA
224541,"16012 IMPERIAL EAGLE CT","WOODBRIDGE","VA",22191,38.6035295450001,-77.299929213,41,"16012 IMPERIAL EAGLE CT, WOODBRIDGE, VA, 22191","Match","Exact","16012 IMPERIAL EAGLE CT, WOODBRIDGE, VA, 22191",640850703,"L"
224542,"16012 LEGACY RD APT405","TUSTIN","CA",92782,33.7022403650001,-117.828336595,42,"16012 LEGACY RD APT405, TUSTIN, CA, 92782","Match","Exact","16012 LEGACY RD, TUSTIN, CA, 92782",646721445,"R"
224543,"16012 MELBOURNE CT","TRUCKEE","CA",96161,39.361239923,-120.091953222,43,"16012 MELBOURNE CT, TRUCKEE, CA, 96161","Match","Exact","16012 MELBOURNE CT, TRUCKEE, CA, 96161",106526360,"R"
224544,"16012 NE 95TH CT","REDMOND","WA",98052,47.6861955690001,-122.125559761,44,"16012 NE 95TH CT, REDMOND, WA, 98052","Match","Exact","16012 NE 95TH CT, REDMOND, WA, 98052",186610099,"R"
224545,"16013 DUNBURY DRIVE","MAPLE HEIGHTS","OH",44137,41.398518193,-81.566611006,45,"16013 DUNBURY DRIVE, MAPLE HEIGHTS, OH, 44137","Match","Exact","16013 DUNBURY DR, MAPLE HEIGHTS, OH, 44137",61128568,"L"
224546,"16013 E CRESTLINE DR","LA MIRADA","CA",90638,33.9104112970001,-117.987865539,46,"16013 E CRESTLINE DR, LA MIRADA, CA, 90638","Match","Exact","16013 CRESTLINE DR, LA MIRADA, CA, 90638",142652012,"R"
224547,"16013 E RENZ DR","SPOKANE VALLEY","WA",99037,47.6385796860001,-117.188451689,47,"16013 E RENZ DR, SPOKANE VALLEY, WA, 99037","Match","Exact","16013 E RENZ DR, SPOKANE VALLEY, WA, 99037",189916337,"L"
224548,"16013 HALSTED ST","HARVEY","IL",60426,41.5987569000001,-87.6364217509999,48,"16013 HALSTED ST, HARVEY, IL, 60426","Match","Exact","16013 HALSTED ST, HARVEY, IL, 60426",111858838,"L"
224549,"16013 HILLSIDE AVE","JAMAICA","NY",11432,NA,NA,49,"16013 HILLSIDE AVE, JAMAICA, NY, 11432","No_Match",NA,NA,NA,NA
224550,"16013 LONEOAK VIEW DR","LITHIA","FL",33547,27.8448014580001,-82.217770946,50,"16013 LONEOAK VIEW DR, LITHIA, FL, 33547","Match","Exact","16013 LONEOAK VIEW DR, LITHIA, FL, 33547",641039803,"R"
224551,"16013 PUESTA DEL SOL DR","VICTORVILLE","CA",92394,34.5434209740001,-117.315012403,51,"16013 PUESTA DEL SOL DR, VICTORVILLE, CA, 92394","Match","Exact","16013 PUESTA DEL SOL DR, VICTORVILLE, CA, 92394",144746240,"R"
224552,"16013 S DESERT FOOTHILLS PKWY BLDG","PHOENIX","AZ",85048,33.2993154820001,-112.060044822,52,"16013 S DESERT FOOTHILLS PKWY BLDG, PHOENIX, AZ, 85048","Match","Non_Exact","16013 S DESERT FOOTHILLS PKWY, PHOENIX, AZ, 85048",128944614,"R"
224553,"16013 S DESERT FOOTHILLS PKWY","PHOENIX","AZ",84048,33.2993154820001,-112.060044822,53,"16013 S DESERT FOOTHILLS PKWY, PHOENIX, AZ, 84048","Match","Non_Exact","16013 S DESERT FOOTHILLS PKWY, PHOENIX, AZ, 85048",128944614,"R"
224554,"16013 TERNGLADE DRIVE","LITHIA","FL",33547,27.849341807,-82.2174257739999,54,"16013 TERNGLADE DRIVE, LITHIA, FL, 33547","Match","Exact","16013 TERNGLADE DR, LITHIA, FL, 33547",630321623,"L"
224555,"16014 221ST ROAD","LIVE OAK","FL",32060,30.1582417870001,-83.206258088,55,"16014 221ST ROAD, LIVE OAK, FL, 32060","Match","Exact","16014 221ST RD, LIVE OAK, FL, 32060",610551706,"R"
224556,"16014 E NICHOLS PL","ENGLEWOOD","CO",80112,39.5706970850001,-104.80308745,56,"16014 E NICHOLS PL, ENGLEWOOD, CO, 80112","Match","Exact","16014 E NICHOLS PL, ENGLEWOOD, CO, 80112",177541545,"L"
224557,"16014 HICKORY COVE DRIVE","HOUSTON","TX",77095,29.8954840120001,-95.652369128,57,"16014 HICKORY COVE DRIVE, HOUSTON, TX, 77095","Match","Exact","16014 HICKORY COVE DR, HOUSTON, TX, 77095",96144066,"L"
224558,"16014 WOODBURY AVE","CLEVELAND","OH",44135,41.440127223,-81.8099745379999,58,"16014 WOODBURY AVE, CLEVELAND, OH, 44135","Match","Exact","16014 WOODBURY AVE, CLEVELAND, OH, 44135",61102411,"R"
224559,"16015 29TH AVE CT E","TACOMA","WA",98445,47.110699025,-122.390110147,59,"16015 29TH AVE CT E, TACOMA, WA, 98445","Match","Exact","16015 29TH AVENUE CT E, TACOMA, WA, 98445",624361182,"R"
224560,"16015 ALLISON WAY","FONTANA","CA",92336,34.1271804190001,-117.455427406,60,"16015 ALLISON WAY, FONTANA, CA, 92336","Match","Exact","16015 ALLISON WAY, FONTANA, CA, 92336",614820388,"R"
224561,"16015 BARTON RIVER LANE","HOUSTON","TX",77044,NA,NA,61,"16015 BARTON RIVER LANE, HOUSTON, TX, 77044","No_Match",NA,NA,NA,NA
224562,"16015 CAIRNWAY DR 841493","HOUSTON","TX",77284,29.841398349,-95.641865082,62,"16015 CAIRNWAY DR 841493, HOUSTON, TX, 77284","Match","Non_Exact","16015 CAIRNWAY DR, HOUSTON, TX, 77084",96552749,"L"
224563,"16015 CASE RD SW","ROCHESTER","WA",98579,46.8546154480001,-122.977167109,63,"16015 CASE RD SW, ROCHESTER, WA, 98579","Match","Exact","16015 CASE RD SW, ROCHESTER, WA, 98579",625603846,"L"
224564,"16015 CR 356","BUENA VISTA","CO",81211,38.852891754,-106.169637491,64,"16015 CR 356, BUENA VISTA, CO, 81211","Match","Exact","16015 CO RD 356, BUENA VISTA, CO, 81211",108259754,"L"
224565,"16015 DUBUQUE RD","SNOHOMISH","WA",98290,47.9633254450001,-122.013356181,65,"16015 DUBUQUE RD, SNOHOMISH, WA, 98290","Match","Exact","16015 DUBUQUE RD, SNOHOMISH, WA, 98290",187766756,"L"
224566,"16015 HEMLOCK DR","NEWALLA","OK",NA,35.3086314060001,-97.208086271,66,"16015 HEMLOCK DR, NEWALLA, OK, ","Match","Exact","16015 HEMLOCK DR, NEWALLA, OK, 74857",99922115,"L"
224567,"16015 IVY LAKE DR","ODESSA","FL",33556,NA,NA,67,"16015 IVY LAKE DR, ODESSA, FL, 33556","No_Match",NA,NA,NA,NA
224568,"16015 S GEORGE CT","PLAINFIELD","IL",60586,41.5914837600001,-88.187683857,68,"16015 S GEORGE CT, PLAINFIELD, IL, 60586","Match","Exact","16015 S GEORGE CT, PLAINFIELD, IL, 60586",111534049,"L"
224569,"16015 S US HIGHWAY 385","ODESSA","TX",79766,31.688128663,-102.34066642,69,"16015 S US HIGHWAY 385, ODESSA, TX, 79766","Match","Exact","16015 US HWY 385, ODESSA, TX, 79766",638823615,"R"
224570,"16015 SHUKSAN RIM DRIVE","GLACIER","WA",98244,NA,NA,70,"16015 SHUKSAN RIM DRIVE, GLACIER, WA, 98244","Tie",NA,NA,NA,NA
224571,"16015 WALNUT SHORES","HUMBLE","TX",77044,NA,NA,71,"16015 WALNUT SHORES, HUMBLE, TX, 77044","No_Match",NA,NA,NA,NA
224572,"16015 YORK MINSTER DRIVE","SPRING","TX",77379,30.012897551,-95.511722671,72,"16015 YORK MINSTER DRIVE, SPRING, TX, 77379","Match","Exact","16015 YORK MINSTER DR, SPRING, TX, 77379",96007726,"L"
224573,"16016 95TH AVE SE","SNOHOMISH","WA",98296,47.8512363300001,-122.104569141,73,"16016 95TH AVE SE, SNOHOMISH, WA, 98296","Match","Exact","16016 95TH AVE SE, SNOHOMISH, WA, 98296",649707219,"L"
224574,"16016 AMHERST AVE","BEVERLY HILLS","MI",48025,42.521372947,-83.2088953589999,74,"16016 AMHERST AVE, BEVERLY HILLS, MI, 48025","Match","Exact","16016 AMHERST AVE, BEVERLY HILLS, MI, 48025",69736077,"R"
224575,"16016 BABCOCK STREET STE 69","SAN DIEGO","CA",92127,NA,NA,75,"16016 BABCOCK STREET STE 69, SAN DIEGO, CA, 92127","No_Match",NA,NA,NA,NA
224576,"16016 BAKER CANYON RD","SANTA CLARITA","CA",91390,34.454351634,-118.416328331,76,"16016 BAKER CANYON RD, SANTA CLARITA, CA, 91390","Match","Exact","16016 BAKER CANYON RD, SANTA CLARITA, CA, 91390",142702759,"L"
224577,"16016 FAIRFAX","SOUTHFIELD","MI",48075,42.467717275,-83.205747109,77,"16016 FAIRFAX, SOUTHFIELD, MI, 48075","Match","Non_Exact","16016 FAIRFAX ST, SOUTHFIELD, MI, 48075",69740478,"R"
224578,"16016 LEMOYNE BLVD APT 912","BILOXI","MS",39532,30.4407366610001,-88.8755801299999,78,"16016 LEMOYNE BLVD APT 912, BILOXI, MS, 39532","Match","Exact","16016 LEMOYNE BLVD, BILOXI, MS, 39532",89256844,"R"
224579,"16016 S LOTUS DR","CLEVELAND","OH",44128,NA,NA,79,"16016 S LOTUS DR, CLEVELAND, OH, 44128","Tie",NA,NA,NA,NA
224580,"16016 VIA DESCANSO","SAN LORENZO","CA",94580,37.680322856,-122.124065716,80,"16016 VIA DESCANSO, SAN LORENZO, CA, 94580","Match","Exact","16016 VIA DESCANSO, SAN LORENZO, CA, 94580",125019436,"L"
224581,"16017 118TH PL NE","BOTHELL","WA",98011,47.7439630590001,-122.182522851,81,"16017 118TH PL NE, BOTHELL, WA, 98011","Match","Exact","16017 118TH PL NE, BOTHELL, WA, 98011",627329354,"L"
224582,"16017 19TH AVE CT E","TACOMA","WA",98445,47.1110060080001,-122.40290914,82,"16017 19TH AVE CT E, TACOMA, WA, 98445","Match","Exact","16017 19TH AVENUE CT E, TACOMA, WA, 98445",184704911,"R"
224583,"16017 41ST AVE SE","BOTHELL","WA",98012,47.8521528320001,-122.17698905,83,"16017 41ST AVE SE, BOTHELL, WA, 98012","Match","Exact","16017 41ST AVE SE, BOTHELL, WA, 98012",652047438,"R"
224584,"16017 77TH AVE NE","ARLINGTON","WA",98223,48.1419339780001,-122.127410065,84,"16017 77TH AVE NE, ARLINGTON, WA, 98223","Match","Exact","16017 77TH AVE NE, ARLINGTON, WA, 98223",187741537,"R"
224585,"16017 DAYTON AVE N","SHORELINE","WA",98133,47.745306097,-122.353244789,85,"16017 DAYTON AVE N, SHORELINE, WA, 98133","Match","Exact","16017 DAYTON AVE N, SHORELINE, WA, 98133",186573823,"L"
224586,"16017 JOHNS LAKE RD","CLERMONT","FL",34711,28.525069853,-81.689891174,86,"16017 JOHNS LAKE RD, CLERMONT, FL, 34711","Match","Exact","16017 JOHNS LAKE RD, CLERMONT, FL, 34711",94203063,"R"
224587,"16017 JUANITA WOODINVILLE WAY NE","BOTHELL","WA",98011,47.743533169,-122.185844598,87,"16017 JUANITA WOODINVILLE WAY NE, BOTHELL, WA, 98011","Match","Exact","16017 JUANITA WOODINVILLE WAY NE, BOTHELL, WA, 98011",186599664,"L"
224588,"16017 MIDDLE ISLAND DR","SOUTH BEND","NE",68058,41.0054702580001,-96.242256778,88,"16017 MIDDLE ISLAND DR, SOUTH BEND, NE, 68058","Match","Exact","16017 MIDDLE ISLAND DR, SOUTH BEND, NE, 68058",10369560,"L"
224589,"16017 PAGETT PLACE COURT","HOUSTON","TX",77044,NA,NA,89,"16017 PAGETT PLACE COURT, HOUSTON, TX, 77044","No_Match",NA,NA,NA,NA
224590,"16017 SE 251ST STREET","COVINGTON","WA",98042,47.376957169,-122.127663008,90,"16017 SE 251ST STREET, COVINGTON, WA, 98042","Match","Exact","16017 SE 251ST ST, COVINGTON, WA, 98042",647878881,"R"
224591,"16017 ST ELMO RD","ERATH","LA",70533,29.91906906,-92.0049696089999,91,"16017 ST ELMO RD, ERATH, LA, 70533","Match","Exact","16017 ST ELMO RD, ERATH, LA, 70533",85981971,"R"
224592,"16018 46TH AVE S","TUKWILA","WA",98188,47.4593440450001,-122.275594994,92,"16018 46TH AVE S, TUKWILA, WA, 98188","Match","Exact","16018 46TH AVE S, TUKWILA, WA, 98188",239765888,"L"
224593,"16018 51ST PL W","EDMONDS","WA",98026,47.8536139070001,-122.302877104,93,"16018 51ST PL W, EDMONDS, WA, 98026","Match","Exact","16018 51ST PL W, EDMONDS, WA, 98026",187773825,"R"
224594,"16018 AUDREY ST","OMAHA","NE",68136,41.190115174,-96.165361219,94,"16018 AUDREY ST, OMAHA, NE, 68136","Match","Exact","16018 AUDREY ST, OMAHA, NE, 68136",28483316,"L"
224595,"16018 BAXTER CREEK DR","JACKSONVILLE","FL",32218,30.5304161130001,-81.6465445919999,95,"16018 BAXTER CREEK DR, JACKSONVILLE, FL, 32218","Match","Exact","16018 BAXTER CREEK DR, JACKSONVILLE, FL, 32218",650098565,"L"
224596,"16018 KURA CT","TEGA CAY","SC",29708,35.032744946,-81.0212898939999,96,"16018 KURA CT, TEGA CAY, SC, 29708","Match","Exact","16018 KURA CT, TEGA CAY, SC, 29708",19789389,"R"
224597,"16018 PLATTER RD","NEW HAVEN","IN",46774,41.1302580650001,-84.93787095,97,"16018 PLATTER RD, NEW HAVEN, IN, 46774","Match","Exact","16018 PLATTER RD, NEW HAVEN, IN, 46774",6388453,"R"
224598,"16018 QUINCE STREET NW","ANDOVER","MN",55304,45.259913784,-93.286486419,98,"16018 QUINCE STREET NW, ANDOVER, MN, 55304","Match","Exact","16018 QUINCE ST NW, ANDOVER, MN, 55304",624966198,"R"
224599,"16018 S VERMONT AVE APT D","GARDENA","CA",90247,33.886112847,-118.291380262,99,"16018 S VERMONT AVE APT D, GARDENA, CA, 90247","Match","Non_Exact","16018 S VERMONT AVE, GARDENA, CA, 90247",142650556,"L"
224600,"16018 SADDLESTRING DRIVE","TAMPA","FL",33618,28.100675407,-82.4915663469999,100,"16018 SADDLESTRING DRIVE, TAMPA, FL, 33618","Match","Exact","16018 SADDLESTRING DR, TAMPA, FL, 33618",104510565,"R"
224601,"16018 SR 62","DAMASCUS","OH",44619,NA,NA,101,"16018 SR 62, DAMASCUS, OH, 44619","No_Match",NA,NA,NA,NA
224602,"16018 SWEETWATER CREEK DRIVE","HOUSTON","TX",77095,29.8985763700001,-95.651352171,102,"16018 SWEETWATER CREEK DRIVE, HOUSTON, TX, 77095","Match","Exact","16018 SWEETWATER CREEK DR, HOUSTON, TX, 77095",96144098,"R"
224603,"16018 WILSON BLVD","BROOKSVILLE","FL",34604,28.444587896,-82.465615669,103,"16018 WILSON BLVD, BROOKSVILLE, FL, 34604","Match","Exact","16018 WILSON BLVD, BROOKSVILLE, FL, 34604",85433795,"R"
224604,"16019 WATERLOO ROAD","CLEVELAND","OH",44110,41.571136176,-81.568959772,104,"16019 WATERLOO ROAD, CLEVELAND, OH, 44110","Match","Exact","16019 WATERLOO RD, CLEVELAND, OH, 44110",61121196,"L"
224605,"16019 WOLF CREEK","SAN ANTONIO","TX",78232,29.5869596750001,-98.5024831599999,105,"16019 WOLF CREEK, SAN ANTONIO, TX, 78232","Match","Exact","16019 WOLF CREEK, SAN ANTONIO, TX, 78232",101495470,"R"
224606,"1601B N VAN DORN STREET","ALEXANDRIA","VA",22304,38.8276672370001,-77.116831831,106,"1601B N VAN DORN STREET, ALEXANDRIA, VA, 22304","Match","Exact","1601 N VAN DORN ST, ALEXANDRIA, VA, 22304",613092900,"R"
224607,"1602 11TH AVENUE NE","KASSON","MN",55944,44.044015406,-92.736824354,107,"1602 11TH AVENUE NE, KASSON, MN, 55944","Match","Exact","1602 11TH AVE NE, KASSON, MN, 55944",635832552,"R"
224608,"1602 16TH TERRACE","PALM BEACH GARDENS","FL",33418,26.8335330670001,-80.1364072549999,108,"1602 16TH TERRACE, PALM BEACH GARDENS, FL, 33418","Match","Exact","1602 16TH TER, PALM BEACH GARDENS, FL, 33418",115315314,"L"
224609,"1602 17TH STREET","EMMETSBURG","IA",50536,43.10480327,-94.6715858859999,109,"1602 17TH STREET, EMMETSBURG, IA, 50536","Match","Exact","1602 17TH ST, EMMETSBURG, IA, 50536",9883211,"L"
224610,"1602 263RD PLACE","OCEAN PARK","WA",98640,46.4929489090001,-124.048800014,110,"1602 263RD PLACE, OCEAN PARK, WA, 98640","Match","Exact","1602 263RD PL, OCEAN PARK, WA, 98640",175993877,"R"
224611,"1602 28TH AVE SW","ALTOONA","IA",50009,41.637247383,-93.49696685,111,"1602 28TH AVE SW, ALTOONA, IA, 50009","Match","Exact","1602 28TH AVE SW, ALTOONA, IA, 50009",651718846,"L"
224612,"1602 2ND AVE E","SPENCER","IA",51301,43.153952771,-95.1427558239999,112,"1602 2ND AVE E, SPENCER, IA, 51301","Match","Exact","1602 2ND AVE E, SPENCER, IA, 51301",82785730,"R"
224613,"1602 36TH STREET","OGDEN","UT",84403,41.197111308,-111.93837824,113,"1602 36TH STREET, OGDEN, UT, 84403","Match","Exact","1602 36TH ST, OGDEN, UT, 84403",627744927,"L"
224614,"1602 3RD ST","LEESBURG","FL",34748,28.817400376,-81.849793888,114,"1602 3RD ST, LEESBURG, FL, 34748","Match","Exact","1602 3RD ST, LEESBURG, FL, 34748",640587718,"L"
224615,"1602 5TH ST W","EVELETH","MN",55734,47.45624166,-92.576542978,115,"1602 5TH ST W, EVELETH, MN, 55734","Match","Exact","1602 5TH ST W, EVELETH, MN, 55734",163172375,"R"
224616,"1602 6TH STREET","BEDFOR","IN",47421,38.873002915,-86.492527912,116,"1602 6TH STREET, BEDFOR, IN, 47421","Match","Non_Exact","1602 6TH ST, BEDFORD, IN, 47421",42073568,"R"
224617,"1602 6TH STREET","LA GRANDE","OR",97850,45.3256856350001,-118.094395731,117,"1602 6TH STREET, LA GRANDE, OR, 97850","Match","Exact","1602 6TH ST, LA GRANDE, OR, 97850",138854147,"L"
224618,"1602 70TH STREET SUITE B","NORTH BERGEN","NJ",7047,40.799785097,-74.020649143,118,"1602 70TH STREET SUITE B, NORTH BERGEN, NJ, 7047","Match","Exact","1602 70TH ST, NORTH BERGEN, NJ, 07047",59598474,"R"
224619,"1602 88TH AVE SW","OLYMPIA","WA",98512,46.960025939,-122.923588648,119,"1602 88TH AVE SW, OLYMPIA, WA, 98512","Match","Exact","1602 88TH AVE SW, OLYMPIA, WA, 98512",180965595,"R"
224620,"1602 8TH STREET","ORION","IL",61273,41.3434485990001,-90.375734433,120,"1602 8TH STREET, ORION, IL, 61273","Match","Exact","1602 8TH ST, ORION, IL, 61273",8924724,"L"
224621,"1602 ALA LANI STREET","HONOLULU","HI",96819,21.370925727,-157.888102281,121,"1602 ALA LANI STREET, HONOLULU, HI, 96819","Match","Exact","1602 ALA LANI ST, HONOLULU, HI, 96819",203234019,"L"
224622,"1602 ALBERTA DRIVE","SALEM","VA",24153,37.277419164,-80.031910301,122,"1602 ALBERTA DRIVE, SALEM, VA, 24153","Match","Exact","1602 ALBERTA DR, SALEM, VA, 24153",62901844,"R"
224623,"1602 ALLENDALE LAKE RD","GREENWOOD","MO",64034,38.837818198,-94.348070423,123,"1602 ALLENDALE LAKE RD, GREENWOOD, MO, 64034","Match","Non_Exact","1602 S ALLENDALE LAKE RD, GREENWOOD, MO, 64034",91493904,"R"
224624,"1602 ANNA STREET","DENTON","TX",76201,33.2277177290001,-97.1360191589999,124,"1602 ANNA STREET, DENTON, TX, 76201","Match","Exact","1602 ANNA ST, DENTON, TX, 76201",103338130,"R"
224625,"1602 ASH ST","NORTH BEND","OR",97459,43.411486574,-124.245137224,125,"1602 ASH ST, NORTH BEND, OR, 97459","Match","Exact","1602 ASH ST, NORTH BEND, OR, 97459",137029999,"L"
224626,"1602 ASHURST ROAD","PHILADEPHIA","PA",19151,39.972957353,-75.271630543,126,"1602 ASHURST ROAD, PHILADEPHIA, PA, 19151","Match","Non_Exact","1602 ASHURST RD, PHILADELPHIA, PA, 19151",131393029,"L"
224627,"1602 ASTAIRE COURT","LEXINGTON","KY",40511,38.078363686,-84.484440621,127,"1602 ASTAIRE COURT, LEXINGTON, KY, 40511","Match","Exact","1602 ASTAIRE CT, LEXINGTON, KY, 40511",31921319,"R"
224628,"1602 AVENUE E","DEL RIO","TX",78840,29.379863416,-100.90061088,128,"1602 AVENUE E, DEL RIO, TX, 78840","Match","Non_Exact","1602 AVE I, DEL RIO, TX, 78840",173573144,"L"
224629,"1602 B EAST FORSYTH ST","AMERICUS","GA",31709,32.0723172670001,-84.214233388,129,"1602 B EAST FORSYTH ST, AMERICUS, GA, 31709","Match","Exact","1602 E FORSYTH ST, AMERICUS, GA, 31709",30755851,"R"
224630,"1602 BARRATT ST","LARAMIE","WY",82070,41.2956825300001,-105.576821144,130,"1602 BARRATT ST, LARAMIE, WY, 82070","Match","Non_Exact","1602 E BARRATT ST, LARAMIE, WY, 82070",168740820,"R"
224631,"1602 BELLE VIEW BLVD 1090","ALEXANDRIA","VA",22307,38.775075391,-77.059979079,131,"1602 BELLE VIEW BLVD 1090, ALEXANDRIA, VA, 22307","Match","Exact","1602 BELLE VIEW BLVD, ALEXANDRIA, VA, 22307",641080851,"R"
224632,"1602 BELLE VIEW BLVD STE 2005","ALEXANDRIA","VA",22307,38.775075391,-77.059979079,132,"1602 BELLE VIEW BLVD STE 2005, ALEXANDRIA, VA, 22307","Match","Exact","1602 BELLE VIEW BLVD, ALEXANDRIA, VA, 22307",641080851,"R"
224633,"1602 BELLE VISTA BLVD - 3134","ALEXANDRIA","VA",22307,NA,NA,133,"1602 BELLE VISTA BLVD - 3134, ALEXANDRIA, VA, 22307","No_Match",NA,NA,NA,NA
224634,"1602 BELMEADE DR","KINGSPORT","TN",37664,36.542520074,-82.531076624,134,"1602 BELMEADE DR, KINGSPORT, TN, 37664","Match","Exact","1602 BELMEADE DR, KINGSPORT, TN, 37664",127829901,"L"
224635,"1602 BEVERLY STREET","JEFFERSON CITY","MO",65109,38.591833835,-92.1930655899999,135,"1602 BEVERLY STREET, JEFFERSON CITY, MO, 65109","Match","Exact","1602 BEVERLY ST, JEFFERSON CITY, MO, 65109",34410216,"L"
224636,"1602 BLACKWELL DIARY ROAD","JASPER","AL",35504,33.863444015,-87.2191822899999,136,"1602 BLACKWELL DIARY ROAD, JASPER, AL, 35504","Match","Non_Exact","1602 BLACKWELL DAIRY RD, JASPER, AL, 35504",612937345,"L"
224637,"1602 BLOSSOM PARK","LAKEWOOD","OH",44107,41.4802696200001,-81.793075497,137,"1602 BLOSSOM PARK, LAKEWOOD, OH, 44107","Match","Non_Exact","1602 BLOSSOM PARK AVE, LAKEWOOD, OH, 44107",61100311,"R"
224638,"1602 BLUE HEATHER LANE","FRESNO","TX",77545,29.522811468,-95.476352004,138,"1602 BLUE HEATHER LANE, FRESNO, TX, 77545","Match","Exact","1602 BLUE HEATHER LN, FRESNO, TX, 77545",78279193,"R"
224639,"1602 BOULEVARD LORRAINE","ATLANTA","GA",30311,NA,NA,139,"1602 BOULEVARD LORRAINE, ATLANTA, GA, 30311","No_Match",NA,NA,NA,NA
224640,"1602 BOWIE CT","ALLEN","TX",75013,33.113827185,-96.706597016,140,"1602 BOWIE CT, ALLEN, TX, 75013","Match","Exact","1602 BOWIE CT, ALLEN, TX, 75013",123561321,"L"
224641,"1602 BREN LEE COURT","ORLANDO","FL",32805,28.5205736670001,-81.4013321319999,141,"1602 BREN LEE COURT, ORLANDO, FL, 32805","Match","Exact","1602 BREN LEE CT, ORLANDO, FL, 32805",94400622,"R"
224642,"1602 CARDINAL APT 1311","NACOGDOCHES","TX",75964,NA,NA,142,"1602 CARDINAL APT 1311, NACOGDOCHES, TX, 75964","No_Match",NA,NA,NA,NA
224643,"1602 CARLISLE AVE","RICHMOND","VA",23231,37.5164386970001,-77.3964791239999,143,"1602 CARLISLE AVE, RICHMOND, VA, 23231","Match","Exact","1602 CARLISLE AVE, RICHMOND, VA, 23231",201549184,"L"
224644,"1602 CARLYLE DRIVE","CROFTON","MD",21114,39.010974375,-76.6934043369999,144,"1602 CARLYLE DRIVE, CROFTON, MD, 21114","Match","Exact","1602 CARLYLE DR, CROFTON, MD, 21114",606929632,"R"
224645,"1602 CEDARBROOK DR","MESQUITE","TX",75181,32.741854318,-96.577043826,145,"1602 CEDARBROOK DR, MESQUITE, TX, 75181","Match","Exact","1602 CEDARBROOK DR, MESQUITE, TX, 75181",634282179,"L"
224646,"1602 CENTRAL AVENUE","SANDUSKY","OH",44870,41.441202128,-82.7140772929999,146,"1602 CENTRAL AVENUE, SANDUSKY, OH, 44870","Match","Exact","1602 CENTRAL AVE, SANDUSKY, OH, 44870",55324908,"R"
224647,"1602 CLINTON AVENUE","BOONE","IA",50036,42.072283929,-93.869581932,147,"1602 CLINTON AVENUE, BOONE, IA, 50036","Match","Non_Exact","1602 CLINTON ST, BOONE, IA, 50036",64942103,"R"
224648,"1602 CLINTON DRIVE","DUBLIN","GA",31021,32.5569835800001,-82.954145097,148,"1602 CLINTON DRIVE, DUBLIN, GA, 31021","Match","Exact","1602 CLINTON DR, DUBLIN, GA, 31021",100653817,"R"
224649,"1602 COLONIAL DR","WEST MEMPHIS","AR",72301,35.1604712390001,-90.217565094,149,"1602 COLONIAL DR, WEST MEMPHIS, AR, 72301","Match","Non_Exact","1602 N COLONIAL DR, WEST MEMPHIS, AR, 72301",645502048,"L"
224650,"1602 COLONIAL DRIVE","LONGVIEW","TX",75605,32.5478692030001,-94.7734788609999,150,"1602 COLONIAL DRIVE, LONGVIEW, TX, 75605","Match","Exact","1602 COLONIAL DR, LONGVIEW, TX, 75605",634025124,"R"
224651,"1602 COTHERSTONE DRIVE","DURHAM","NC",27712,36.099311599,-78.939382122,151,"1602 COTHERSTONE DRIVE, DURHAM, NC, 27712","Match","Exact","1602 COTHERSTONE DR, DURHAM, NC, 27712",71734826,"L"
224652,"1602 COUNTY ROAD 522","IGNACIO","CO",81137,NA,NA,152,"1602 COUNTY ROAD 522, IGNACIO, CO, 81137","No_Match",NA,NA,NA,NA
224653,"1602 COUNTY ROUTE 23","CONSTANTIA","NY",13044,43.3427193100001,-75.993414764,153,"1602 COUNTY ROUTE 23, CONSTANTIA, NY, 13044","Match","Exact","1602 CO RTE 23, CONSTANTIA, NY, 13044",57843369,"L"
224654,"1602 CR 3007","BARTLESVILLE","OK",74003,36.773102986,-96.017917153,154,"1602 CR 3007, BARTLESVILLE, OK, 74003","Match","Exact","1602 CO RD 3007, BARTLESVILLE, OK, 74003",82376005,"R"
224655,"1602 CRAWFORD STREET","KINSTON","NC",28504,35.289662649,-77.602370391,155,"1602 CRAWFORD STREET, KINSTON, NC, 28504","Match","Exact","1602 CRAWFORD ST, KINSTON, NC, 28504",13875210,"L"
224656,"1602 CRAZY HORSE CIR","EDWARDS","CO",81632,39.6526676460001,-106.612310215,156,"1602 CRAZY HORSE CIR, EDWARDS, CO, 81632","Match","Exact","1602 CRAZY HORSE CIR, EDWARDS, CO, 81632",651703559,"R"
224657,"1602 CRITTENDEN ST NW","WASHINGTON","DC",20011,38.9473045390001,-77.036653698,157,"1602 CRITTENDEN ST NW, WASHINGTON, DC, 20011","Match","Exact","1602 CRITTENDEN ST NW, WASHINGTON, DC, 20011",76222371,"L"
224658,"1602 CROSSWINDS AVENUE","NORTH MYRTLE BEACH","SC",29582,33.84658941,-78.659272254,158,"1602 CROSSWINDS AVENUE, NORTH MYRTLE BEACH, SC, 29582","Match","Exact","1602 CROSSWINDS AVE, N MYRTLE BCH, SC, 29582",29084733,"R"
224659,"1602 DEVON COURT","SOUTHLAKE","TX",76092,32.9600472500001,-97.1657840939999,159,"1602 DEVON COURT, SOUTHLAKE, TX, 76092","Match","Exact","1602 DEVON CT, SOUTHLAKE, TX, 76092",102089587,"R"
224660,"1602 DIVISION ST","NEW LONDON","WI",54961,44.3790662320001,-88.736832529,160,"1602 DIVISION ST, NEW LONDON, WI, 54961","Match","Exact","1602 DIVISION ST, NEW LONDON, WI, 54961",635632678,"R"
224661,"1602 DODGE LN","WALLIS","TX",77485,29.5720232480001,-96.039964404,161,"1602 DODGE LN, WALLIS, TX, 77485","Match","Non_Exact","1602 DODGE RD, WALLIS, TX, 77485",78345655,"L"
224662,"1602 DONCASTLE COURT","CONCORD","NC",28025,35.450525397,-80.6024692559999,162,"1602 DONCASTLE COURT, CONCORD, NC, 28025","Match","Exact","1602 DONCASTLE CT, CONCORD, NC, 28025",24929156,"L"
224663,"1602 E 167TH AVE","THORNTON","CO",80602,39.998009924,-104.966172082,163,"1602 E 167TH AVE, THORNTON, CO, 80602","Match","Exact","1602 E 167TH AVE, THORNTON, CO, 80602",601645298,"R"
224664,"1602 E 50 NORTH ROAD","BEECHER CITY","IL",62414,NA,NA,164,"1602 E 50 NORTH ROAD, BEECHER CITY, IL, 62414","No_Match",NA,NA,NA,NA
224665,"1602 E 55TH ST","BROOKLYN","NY",11234,40.6174946560001,-73.921890321,165,"1602 E 55TH ST, BROOKLYN, NY, 11234","Match","Exact","1602 E 55TH ST, BROOKLYN, NY, 11234",59098314,"R"
224666,"1602 E 7TH ST","SUPERIOR","WI",54880,NA,NA,166,"1602 E 7TH ST, SUPERIOR, WI, 54880","Tie",NA,NA,NA,NA
224667,"1602 E ASPEN LOOP","PROVO","UT",84606,40.221008237,-111.630459056,167,"1602 E ASPEN LOOP, PROVO, UT, 84606","Match","Exact","1602 ASPEN LOOP, PROVO, UT, 84606",645136061,"R"
224668,"1602 E CROCUS DR","PHOENIX","AZ",85022,33.6163825890001,-112.046650998,168,"1602 E CROCUS DR, PHOENIX, AZ, 85022","Match","Exact","1602 E CROCUS DR, PHOENIX, AZ, 85022",128376302,"R"
224669,"1602 EAST DENMAN AVENUE","LUFKIN","TX",75901,31.32172116,-94.704992116,169,"1602 EAST DENMAN AVENUE, LUFKIN, TX, 75901","Match","Exact","1602 E DENMAN AVE, LUFKIN, TX, 75901",23842249,"L"
224670,"1602 EAST FORT AVENUE","BALTIMORE","MD",21230,39.268533743,-76.592295075,170,"1602 EAST FORT AVENUE, BALTIMORE, MD, 21230","Match","Exact","1602 E FORT AVE, BALTIMORE, MD, 21230",206465968,"L"
224671,"1602 EAST MCGRAW STREET","SEATTLE","WA",98112,47.640293048,-122.310558448,171,"1602 EAST MCGRAW STREET, SEATTLE, WA, 98112","Match","Exact","1602 E MCGRAW ST, SEATTLE, WA, 98112",186587386,"L"
224672,"1602 EAST RIVERVIEW AVE","ORANGE","CA",92865,33.846408291,-117.83792543,172,"1602 EAST RIVERVIEW AVE, ORANGE, CA, 92865","Match","Exact","1602 E RIVERVIEW AVE, ORANGE, CA, 92865",144029475,"R"
224673,"1602 EIGHTTH STREET","MOUNDSVILLE","WV",26041,NA,NA,173,"1602 EIGHTTH STREET, MOUNDSVILLE, WV, 26041","No_Match",NA,NA,NA,NA
224674,"1602 ELBERTA RD","WARNER ROBINS","GA",31093,32.631120336,-83.64405057,174,"1602 ELBERTA RD, WARNER ROBINS, GA, 31093","Match","Exact","1602 ELBERTA RD, WARNER ROBINS, GA, 31093",91222481,"R"
224675,"1602 ELBERTA ROAD","WARNER ROBINS","GA",31093,32.631120336,-83.64405057,175,"1602 ELBERTA ROAD, WARNER ROBINS, GA, 31093","Match","Exact","1602 ELBERTA RD, WARNER ROBINS, GA, 31093",91222481,"R"
224676,"1602 ELGIN STREET","HOUSTON","TX",77004,29.738479613,-95.371802739,176,"1602 ELGIN STREET, HOUSTON, TX, 77004","Match","Exact","1602 ELGIN ST, HOUSTON, TX, 77004",96071531,"R"
224677,"1602 ELLINGTON ROAD SE","CONYERS","GA",30013,33.6236155300001,-83.995721257,177,"1602 ELLINGTON ROAD SE, CONYERS, GA, 30013","Match","Exact","1602 ELLINGTON RD SE, CONYERS, GA, 30013",642557231,"R"
224678,"1602 ELLINGTON ROADE SE","CONYERS","GA",30013,NA,NA,178,"1602 ELLINGTON ROADE SE, CONYERS, GA, 30013","No_Match",NA,NA,NA,NA
224679,"1602 ENCLAVE PKWY 2010","HOUSTON","TX",77077,29.7505497650001,-95.618810702,179,"1602 ENCLAVE PKWY 2010, HOUSTON, TX, 77077","Match","Exact","1602 ENCLAVE PKWY, HOUSTON, TX, 77077",612153052,"L"
224680,"1602 ENCLAVE PKWY APT 1909","HOUSTON","TX",77077,29.7505497650001,-95.618810702,180,"1602 ENCLAVE PKWY APT 1909, HOUSTON, TX, 77077","Match","Exact","1602 ENCLAVE PKWY, HOUSTON, TX, 77077",612153052,"L"
224681,"1602 ENCLAVE PKWY","HOUSTON","TX",77077,29.7505497650001,-95.618810702,181,"1602 ENCLAVE PKWY, HOUSTON, TX, 77077","Match","Exact","1602 ENCLAVE PKWY, HOUSTON, TX, 77077",612153052,"L"
224682,"1602 FAIRFIELD","STILLWATER","OK",74074,36.104102955,-97.120158531,182,"1602 FAIRFIELD, STILLWATER, OK, 74074","Match","Non_Exact","1602 FAIRFIELD DR, STILLWATER, OK, 74074",166383763,"R"
224683,"1602 FAIRLAMB AVE","COLUMBIA","SC",29223,NA,NA,183,"1602 FAIRLAMB AVE, COLUMBIA, SC, 29223","No_Match",NA,NA,NA,NA
224684,"1602 FONTANA DRIVE","ST LOUIS","MO",63146,38.6908982030001,-90.45700686,184,"1602 FONTANA DRIVE, ST LOUIS, MO, 63146","Match","Exact","1602 FONTANA DR, SAINT LOUIS, MO, 63146",100174073,"R"
224685,"1602 GOLF HILL DRIVE","JEFFERSONVILLE","IN",47130,38.3127531960001,-85.736200766,185,"1602 GOLF HILL DRIVE, JEFFERSONVILLE, IN, 47130","Match","Non_Exact","1602 GOLF HILL RD, JEFFERSONVILLE, IN, 47130",64888556,"R"
224686,"1602 GOVERNORS DR APT 1621","PENSACOLA","FL",32514,30.521308257,-87.22425249,186,"1602 GOVERNORS DR APT 1621, PENSACOLA, FL, 32514","Match","Exact","1602 GOVERNORS DR, PENSACOLA, FL, 32514",645829535,"L"
224687,"1602 GRAY BARK DR","OLDSMAR","FL",34677,28.0456168160001,-82.686789076,187,"1602 GRAY BARK DR, OLDSMAR, FL, 34677","Match","Exact","1602 GRAY BARK DR, OLDSMAR, FL, 34677",124754280,"R"
224688,"1602 GREEN MOUNTAIN DR","LITTLEROCK","AR",72211,34.767502241,-92.40330112,188,"1602 GREEN MOUNTAIN DR, LITTLEROCK, AR, 72211","Match","Non_Exact","1602 GREEN MOUNTAIN DR, LITTLE ROCK, AR, 72211",648152139,"L"
224689,"1602 GREENWYCHE RD SE","HUNTSVILLE","AL",35801,34.7223996920001,-86.560161079,189,"1602 GREENWYCHE RD SE, HUNTSVILLE, AL, 35801","Match","Exact","1602 GREENWYCHE RD SE, HUNTSVILLE, AL, 35801",58217135,"R"
224690,"1602 HAUENSTEIN DRIVE","NEW ULM","MN",56073,44.294732407,-94.450918507,190,"1602 HAUENSTEIN DRIVE, NEW ULM, MN, 56073","Match","Exact","1602 HAUENSTEIN DR, NEW ULM, MN, 56073",608234026,"L"
224691,"1602 HIDDEN HILL DRIVE","VERONA","WI",53593,43.036525822,-89.560416532,191,"1602 HIDDEN HILL DRIVE, VERONA, WI, 53593","Match","Exact","1602 HIDDEN HILL DR, VERONA, WI, 53593",627825168,"R"
224692,"1602 HIGHLAND DUNES WAY","FERNANDINA","FL",32034,30.674823609,-81.447276845,192,"1602 HIGHLAND DUNES WAY, FERNANDINA, FL, 32034","Match","Exact","1602 HIGHLAND DUNES WAY, FERNANDINA, FL, 32034",646731140,"L"
224693,"1602 HONEYSUCKLE RIDGE CT","ANNAPOLIS","MD",21401,39.013665888,-76.579554113,193,"1602 HONEYSUCKLE RIDGE CT, ANNAPOLIS, MD, 21401","Match","Exact","1602 HONEYSUCKLE RIDGE CT, ANNAPOLIS, MD, 21401",68202117,"R"
224694,"1602 HWY 35 N","ROCKPORT","TX",78382,NA,NA,194,"1602 HWY 35 N, ROCKPORT, TX, 78382","No_Match",NA,NA,NA,NA
224695,"1602 I STREET","BEDFORD","IN",47421,38.8609619060001,-86.482733433,195,"1602 I STREET, BEDFORD, IN, 47421","Match","Exact","1602 I ST, BEDFORD, IN, 47421",606741811,"R"
224696,"1602 JACKSON KELLER RD APT 2202","SAN ANTONIO","TX",78213,29.5092272410001,-98.517309241,196,"1602 JACKSON KELLER RD APT 2202, SAN ANTONIO, TX, 78213","Match","Exact","1602 JACKSON KELLER RD, SAN ANTONIO, TX, 78213",101494367,"L"
224697,"1602 JACOBSEN ROAD","NEENAH","WI",54956,44.2143079350001,-88.500424542,197,"1602 JACOBSEN ROAD, NEENAH, WI, 54956","Match","Exact","1602 JACOBSEN RD, NEENAH, WI, 54956",74519201,"R"
224698,"1602 JEFFERSON AVE","CLIFTON FORGE","VA",24422,37.8322398380001,-79.819712682,198,"1602 JEFFERSON AVE, CLIFTON FORGE, VA, 24422","Match","Exact","1602 JEFFERSON AVE, CLIFTON FORGE, VA, 24422",62550156,"R"
224699,"1602 JENNIFER RD 23","LEXINGTON","KY",40505,38.0465493890001,-84.4493499719999,199,"1602 JENNIFER RD 23, LEXINGTON, KY, 40505","Match","Exact","1602 JENNIFER RD, LEXINGTON, KY, 40505",31926576,"R"
224700,"1602 JESSI OURS RD","SCHERR","WV",26726,NA,NA,200,"1602 JESSI OURS RD, SCHERR, WV, 26726","No_Match",NA,NA,NA,NA
224701,"1602 KRISWOOD DR","HOUSTON","TX",77014,29.9701112770001,-95.442509934,201,"1602 KRISWOOD DR, HOUSTON, TX, 77014","Match","Exact","1602 KRISWOOD DR, HOUSTON, TX, 77014",96226148,"R"
224702,"1602 LANCASTER DRIVE","ROANOKE","VA",24017,37.3039380910001,-79.993210427,202,"1602 LANCASTER DRIVE, ROANOKE, VA, 24017","Match","Non_Exact","1602 LANCASTER DR NW, ROANOKE, VA, 24017",62902756,"L"
224703,"1602 LARKSPUR","SAN ANTONIO","TX",78213,29.5411889580001,-98.517545435,203,"1602 LARKSPUR, SAN ANTONIO, TX, 78213","Match","Non_Exact","1602 LARKSPUR DR, SAN ANTONIO, TX, 78213",101493889,"L"
224704,"1602 LEDWICH AVE","YAKIMA","WA",98902,46.5759101240001,-120.502875236,204,"1602 LEDWICH AVE, YAKIMA, WA, 98902","Match","Exact","1602 LEDWICH AVE, YAKIMA, WA, 98902",184959850,"R"
224705,"1602 LINCOLN AVENUE","WILMINGTON","DE",19809,39.785757387,-75.481175766,205,"1602 LINCOLN AVENUE, WILMINGTON, DE, 19809","Match","Exact","1602 LINCOLN AVE, WILMINGTON, DE, 19809",187261153,"R"
224706,"1602 LYNDALE AVE","EAU CLAIRE","WI",54701,44.8063674210001,-91.4783279229999,206,"1602 LYNDALE AVE, EAU CLAIRE, WI, 54701","Match","Exact","1602 LYNDALE AVE, EAU CLAIRE, WI, 54701",46068131,"L"
224707,"1602 MARK MORRIS CT","LONGVIEW","WA",98632,46.144469787,-122.935089645,207,"1602 MARK MORRIS CT, LONGVIEW, WA, 98632","Match","Exact","1602 MARK MORRIS CT, LONGVIEW, WA, 98632",645182382,"L"
224708,"1602 MARSHBANK DR","PONTIAC","MI",48340,42.6804468560001,-83.322854953,208,"1602 MARSHBANK DR, PONTIAC, MI, 48340","Match","Exact","1602 MARSHBANK DR, PONTIAC, MI, 48340",69796921,"R"
224709,"1602 MARTIN ROAD","AMARILLO","TX",79107,35.2305517820001,-101.809651584,209,"1602 MARTIN ROAD, AMARILLO, TX, 79107","Match","Exact","1602 MARTIN RD, AMARILLO, TX, 79107",182466819,"R"
224710,"1602 MARY LANE","MOSINEE","WI",54455,NA,NA,210,"1602 MARY LANE, MOSINEE, WI, 54455","No_Match",NA,NA,NA,NA
224711,"1602 MATILDA ST","PEKIN","IL",61554,40.5804314320001,-89.628002236,211,"1602 MATILDA ST, PEKIN, IL, 61554","Match","Exact","1602 MATILDA ST, PEKIN, IL, 61554",22497661,"R"
224712,"1602 MAYS LANDING RD","FOLSOM","NJ",8037,39.574110766,-74.8237146339999,212,"1602 MAYS LANDING RD, FOLSOM, NJ, 8037","Match","Non_Exact","1602 MAYS LANDING RD, BLUE ANCHOR, NJ, 08037",202478303,"R"
224713,"1602 MCMILLAN STREET","DEARBORN","MI",48128,42.3229098630001,-83.257381392,213,"1602 MCMILLAN STREET, DEARBORN, MI, 48128","Match","Exact","1602 MCMILLAN ST, DEARBORN, MI, 48128",95433351,"R"
224714,"1602 MELADY AVE","SEBRING","FL",33870,27.48285958,-81.4258731149999,214,"1602 MELADY AVE, SEBRING, FL, 33870","Match","Exact","1602 MELADY AVE, SEBRING, FL, 33870",4651906,"R"
224715,"1602 MELLARD ESTATES ROAD","HANAHAN","SC",29410,NA,NA,215,"1602 MELLARD ESTATES ROAD, HANAHAN, SC, 29410","No_Match",NA,NA,NA,NA
224716,"1602 MORNINGSIDE AVENUE","SIOUX CITY","IA",51106,42.4746407110001,-96.358142578,216,"1602 MORNINGSIDE AVENUE, SIOUX CITY, IA, 51106","Match","Exact","1602 MORNINGSIDE AVE, SIOUX CITY, IA, 51106",93424413,"L"
224717,"1602 MOUNTAIN TOP LANE","COOKEVILLE","TN",38506,36.1496514950001,-85.436760034,217,"1602 MOUNTAIN TOP LANE, COOKEVILLE, TN, 38506","Match","Exact","1602 MOUNTAIN TOP LN, COOKEVILLE, TN, 38506",640160644,"R"
224718,"1602 N 21ST ST","TAMPA","FL",33605,27.958880913,-82.435513467,218,"1602 N 21ST ST, TAMPA, FL, 33605","Match","Exact","1602 N 21ST ST, TAMPA, FL, 33605",104524370,"L"
224719,"1602 N 7TH","COEUR D ALENE","ID",83814,47.690277576,-116.776351185,219,"1602 N 7TH, COEUR D ALENE, ID, 83814","Match","Non_Exact","1602 N 7TH ST, COEUR D ALENE, ID, 83814",192902187,"R"
224720,"1602 N 8TH ST","MANITOWOC","WI",54220,44.117303936,-87.657898024,220,"1602 N 8TH ST, MANITOWOC, WI, 54220","Match","Exact","1602 N 8TH ST, MANITOWOC, WI, 54220",147949509,"L"
224721,"1602 N APPLETON","BALTIMORE","MD",21217,39.3067127690001,-76.648879928,221,"1602 N APPLETON, BALTIMORE, MD, 21217","Match","Non_Exact","1602 APPLETON ST, BALTIMORE, MD, 21217",206414621,"L"
224722,"1602 N EAGLE HOLLOW RD","MADISON","IN",47250,38.758882285,-85.3271415949999,222,"1602 N EAGLE HOLLOW RD, MADISON, IN, 47250","Match","Exact","1602 N EAGLE HOLLOW RD, MADISON, IN, 47250",31393193,"R"
224723,"1602 N GRANT ST","KNOXVILLE","IA",50138,41.3321417440001,-93.1053470369999,223,"1602 N GRANT ST, KNOXVILLE, IA, 50138","Match","Exact","1602 N GRANT ST, KNOXVILLE, IA, 50138",89479268,"R"
224724,"1602 N HARDING AVENUE","LOS ANGELES","CA",91104,34.1735905520001,-118.101647161,224,"1602 N HARDING AVENUE, LOS ANGELES, CA, 91104","Match","Non_Exact","1602 N HARDING AVE, PASADENA, CA, 91104",652036242,"R"
224725,"1602 N LEWIS","DEXTER","MO",63841,36.802328146,-89.984789731,225,"1602 N LEWIS, DEXTER, MO, 63841","Match","Non_Exact","1602 N LEWIS ST, DEXTER, MO, 63841",35395398,"R"
224726,"1602 N MAIN","SPRINGFIELD","MO",65803,37.2275719570001,-93.2965462929999,226,"1602 N MAIN, SPRINGFIELD, MO, 65803","Match","Non_Exact","1602 N MAIN AVE, SPRINGFIELD, MO, 65803",76673636,"R"
224727,"1602 N MARIPOSA AVE STE 16","LOS ANGELES","CA",90027,NA,NA,227,"1602 N MARIPOSA AVE STE 16, LOS ANGELES, CA, 90027","No_Match",NA,NA,NA,NA
224728,"1602 N ORCHARD","TACOMA","WA",98406,47.264634266,-122.505235266,228,"1602 N ORCHARD, TACOMA, WA, 98406","Match","Non_Exact","1602 N ORCHARD ST, TACOMA, WA, 98406",184644300,"L"
224729,"1602 N PALM LANE","MIAMI","AZ",85539,33.416447433,-110.820518159,229,"1602 N PALM LANE, MIAMI, AZ, 85539","Match","Exact","1602 PALM LN, MIAMI, AZ, 85539",624277847,"R"
224730,"1602 N REUS STREET","PENSACOLA","FL",32501,30.428104558,-87.224148283,230,"1602 N REUS STREET, PENSACOLA, FL, 32501","Match","Exact","1602 N REUS ST, PENSACOLA, FL, 32501",93220040,"R"
224731,"1602 N RUTGERS ST","WICHITA","KS",67212,NA,NA,231,"1602 N RUTGERS ST, WICHITA, KS, 67212","Tie",NA,NA,NA,NA
224732,"1602 N TIMBER RIDGE LANE SUITE 1","WALNUT","CA",91789,34.049188461,-117.850504197,232,"1602 N TIMBER RIDGE LANE SUITE 1, WALNUT, CA, 91789","Match","Exact","1602 TIMBER RIDGE LN, WALNUT, CA, 91789",142240509,"R"
224733,"1602 N TIMBER RIDGE LANE","WALNUT","CA",91789,34.0491861100001,-117.850509504,233,"1602 N TIMBER RIDGE LANE, WALNUT, CA, 91789","Match","Exact","1602 TIMBER RIDGE LN, WALNUT, CA, 91789",142240509,"R"
224734,"1602 NE 74TH TERR","KANSAS CITY","MO",64118,39.2285765500001,-94.560120999,234,"1602 NE 74TH TERR, KANSAS CITY, MO, 64118","Match","Exact","1602 NE 74TH TER, KANSAS CITY, MO, 64118",89755098,"L"
224735,"1602 NE GREENBRIAR RD","BENTONVILLE","AR",72712,36.390689278,-94.194662538,235,"1602 NE GREENBRIAR RD, BENTONVILLE, AR, 72712","Match","Non_Exact","1602 NE GREENBRIER RD, BENTONVILLE, AR, 72712",47886147,"L"
224736,"1602 NILE RD","SUMMERSVILLE","WV",26651,38.304859795,-80.7525294129999,236,"1602 NILE RD, SUMMERSVILLE, WV, 26651","Match","Exact","1602 NILE RD, SUMMERSVILLE, WV, 26651",50038647,"L"
224737,"1602 NW FARRIS","LAWTON","OK",73507,NA,NA,237,"1602 NW FARRIS, LAWTON, OK, 73507","No_Match",NA,NA,NA,NA
224738,"1602 OLD STAGE RD","WESTFORD","VT",5494,44.622616259,-73.043483725,238,"1602 OLD STAGE RD, WESTFORD, VT, 5494","Match","Exact","1602 OLD STAGE RD, WESTFORD, VT, 05494",135838943,"L"
224739,"1602 OXLEYMARE DRIVE","RALEIGH","NC",27610,35.752755177,-78.563923468,239,"1602 OXLEYMARE DRIVE, RALEIGH, NC, 27610","Match","Exact","1602 OXLEYMARE DR, RALEIGH, NC, 27610",619264295,"R"
224740,"1602 PARIS DR","GRAND PRAIRIE","TX",75050,32.7556664800001,-97.025648398,240,"1602 PARIS DR, GRAND PRAIRIE, TX, 75050","Match","Exact","1602 PARIS DR, GRAND PRAIRIE, TX, 75050",102935224,"R"
224741,"1602 PARK CROSSING WAY","LILBURN","GA",30047,33.898216516,-84.162119214,241,"1602 PARK CROSSING WAY, LILBURN, GA, 30047","Match","Non_Exact","1602 PARK CROSSING WAY NW, LILBURN, GA, 30047",88901389,"R"
224742,"1602 PARKFIELD CIR","ROUND ROCK","TX",78664,30.489434187,-97.65799929,242,"1602 PARKFIELD CIR, ROUND ROCK, TX, 78664","Match","Exact","1602 PARKFIELD CIR, ROUND ROCK, TX, 78664",126481977,"R"
224743,"1602 PAYTON WAY","NIPOMO","CA",93444,35.035225063,-120.551598803,243,"1602 PAYTON WAY, NIPOMO, CA, 93444","Match","Exact","1602 PAYTON WAY, NIPOMO, CA, 93444",631778037,"R"
224744,"1602 PEACOCK LANE","SILVER SPRING","MD",20904,39.075659715,-76.9797488139999,244,"1602 PEACOCK LANE, SILVER SPRING, MD, 20904","Match","Exact","1602 PEACOCK LN, SILVER SPRING, MD, 20904",62072734,"L"
224745,"1602 PEARLSTONE LN","MATTHEWS","NC",28104,35.028320185,-80.765533767,245,"1602 PEARLSTONE LN, MATTHEWS, NC, 28104","Match","Exact","1602 PEARLSTONE LN, MATTHEWS, NC, 28104",618496596,"R"
224746,"1602 PENA ST UNIT 2","CARRIZO SPRINGS","TX",78834,28.5247421130001,-99.8692416059999,246,"1602 PENA ST UNIT 2, CARRIZO SPRINGS, TX, 78834","Match","Exact","1602 PENA ST, CARRIZO SPRINGS, TX, 78834",182996179,"L"
224747,"1602 PHEASANTWOOD TRAIL","NORTHFIELD","MN",55057,44.442460333,-93.1738720179999,247,"1602 PHEASANTWOOD TRAIL, NORTHFIELD, MN, 55057","Match","Exact","1602 PHEASANTWOOD TRL, NORTHFIELD, MN, 55057",37335516,"R"
224748,"1602 PLANTATION DR","RICHMOND","TX",77406,29.6256519190001,-95.73131757,248,"1602 PLANTATION DR, RICHMOND, TX, 77406","Match","Exact","1602 PLANTATION DR, RICHMOND, TX, 77406",78264621,"L"
224749,"1602 POT SPRING ROAD","LUTHERVILLE","MD",21093,39.427885976,-76.598838821,249,"1602 POT SPRING ROAD, LUTHERVILLE, MD, 21093","Match","Exact","1602 POT SPRING RD, LUTHERVILLE, MD, 21093",651068142,"L"
224750,"1602 PRESTON RD","ALEXANDRIA","VA",22302,38.8365987130001,-77.080231629,250,"1602 PRESTON RD, ALEXANDRIA, VA, 22302","Match","Exact","1602 PRESTON RD, ALEXANDRIA, VA, 22302",76065602,"L"
224751,"1602 PRICE ST","ROCKFORD","IL",61103,42.2896340820001,-89.088264972,251,"1602 PRICE ST, ROCKFORD, IL, 61103","Match","Exact","1602 PRICE ST, ROCKFORD, IL, 61103",49253025,"L"
224752,"1602 RED MOUNTAIN DRIVE","LONGMONT","CO",80504,40.1771004230001,-105.062597542,252,"1602 RED MOUNTAIN DRIVE, LONGMONT, CO, 80504","Match","Exact","1602 RED MOUNTAIN DR, LONGMONT, CO, 80504",188241449,"L"
224753,"1602 RITA DR NE","ALBUQUERQUE","NM",87106,35.096738864,-106.605526956,253,"1602 RITA DR NE, ALBUQUERQUE, NM, 87106","Match","Exact","1602 RITA DR NE, ALBUQUERQUE, NM, 87106",206709802,"R"
224754,"1602 ROLLING HILLS DRIVE SUITE 203","HENRICO","VA",23229,37.60195622,-77.546604206,254,"1602 ROLLING HILLS DRIVE SUITE 203, HENRICO, VA, 23229","Match","Exact","1602 ROLLING HILLS DR, HENRICO, VA, 23229",106644714,"L"
224755,"1602 ROLLINGHILL CIR","GARLAND","TX",75043,32.886420479,-96.604455055,255,"1602 ROLLINGHILL CIR, GARLAND, TX, 75043","Match","Exact","1602 ROLLINGHILL CIR, GARLAND, TX, 75043",102929253,"R"
224756,"1602 RUNNYMEDE ROAD","NORFOLK","VA",23505,36.914048952,-76.305235147,256,"1602 RUNNYMEDE ROAD, NORFOLK, VA, 23505","Match","Exact","1602 RUNNYMEDE RD, NORFOLK, VA, 23505",122131347,"R"
224757,"1602 S ABREGO DRIVE","GREEN VALLEY","AZ",85614,NA,NA,257,"1602 S ABREGO DRIVE, GREEN VALLEY, AZ, 85614","Tie",NA,NA,NA,NA
224758,"1602 S HILLSIDE COURT","STILLWATER","OK",74074,36.103765535,-97.120995907,258,"1602 S HILLSIDE COURT, STILLWATER, OK, 74074","Match","Exact","1602 HILLSIDE CT, STILLWATER, OK, 74074",166376616,"R"
224759,"1602 S MAIN STREET","NORTH CANTON","OH",44709,40.8569064120001,-81.39470283,259,"1602 S MAIN STREET, NORTH CANTON, OH, 44709","Match","Exact","1602 S MAIN ST, NORTH CANTON, OH, 44709",64706108,"R"
224760,"1602 S ROCKY RIDGE DR","SPOKANE VALLEY","WA",99212,47.64238376,-117.328993439,260,"1602 S ROCKY RIDGE DR, SPOKANE VALLEY, WA, 99212","Match","Exact","1602 S ROCKY RIDGE DR, SPOKANE VALLEY, WA, 99212",189885060,"R"
224761,"1602 S SHEPHERD","CHICKASHA","OK",73018,NA,NA,261,"1602 S SHEPHERD, CHICKASHA, OK, 73018","No_Match",NA,NA,NA,NA
224762,"1602 SAHARA AVENUE","AUSTIN","TX",78745,30.209107585,-97.794849996,262,"1602 SAHARA AVENUE, AUSTIN, TX, 78745","Match","Exact","1602 SAHARA AVE, AUSTIN, TX, 78745",63939205,"R"
224763,"1602 SAINT ANN STREET","SCOTCH PLAINS","NJ",7076,40.6473668400001,-74.405770375,263,"1602 SAINT ANN STREET, SCOTCH PLAINS, NJ, 7076","Match","Exact","1602 SAINT ANN ST, SCOTCH PLAINS, NJ, 07076",60567180,"R"
224764,"1602 SANDBAG WAY","MIDLOTHIAN","VA",23113,37.513090161,-77.6325829259999,264,"1602 SANDBAG WAY, MIDLOTHIAN, VA, 23113","Match","Exact","1602 SANDBAG WAY, MIDLOTHIAN, VA, 23113",201558229,"L"
224765,"1602 SE SUNRISE STREET","BENTONVILLE","AR",72712,36.3544962300001,-94.187477859,265,"1602 SE SUNRISE STREET, BENTONVILLE, AR, 72712","Match","Exact","1602 SE SUNRISE ST, BENTONVILLE, AR, 72712",47833011,"R"
224766,"1602 SHERWOOD DR","CONWAY","SC",29526,33.8543781450001,-79.049667539,266,"1602 SHERWOOD DR, CONWAY, SC, 29526","Match","Exact","1602 SHERWOOD DR, CONWAY, SC, 29526",29040499,"R"
224767,"1602 SOLAR DR","MISSION","TX",78572,26.2321088480001,-98.298245543,267,"1602 SOLAR DR, MISSION, TX, 78572","Match","Non_Exact","1602 SOLAR DR, MISSION, TX, 78574",624902531,"L"
224768,"1602 SORRELL RD","MALVERN","PA",19301,40.0720238160001,-75.48108963,268,"1602 SORRELL RD, MALVERN, PA, 19301","Match","Non_Exact","1602 SORRELL RD, MALVERN, PA, 19355",179522284,"R"
224769,"1602 SOUTH GRAND AVENUE","EVANSVILLE","IN",47713,37.9553830500001,-87.549066625,269,"1602 SOUTH GRAND AVENUE, EVANSVILLE, IN, 47713","Match","Exact","1602 S GRAND AVE, EVANSVILLE, IN, 47713",39785735,"L"
224770,"1602 SOUTHCREST COURT","BRANDON","FL",33510,27.9679482980001,-82.308259538,270,"1602 SOUTHCREST COURT, BRANDON, FL, 33510","Match","Exact","1602 SOUTHCREST CT, BRANDON, FL, 33510",104541210,"L"
224771,"1602 STRECKER WOODS CT","WILDWOOD","MO",63011,38.6030211280001,-90.6126548619999,271,"1602 STRECKER WOODS CT, WILDWOOD, MO, 63011","Match","Exact","1602 STRECKER WOODS CT, WILDWOOD, MO, 63011",645672399,"R"
224772,"1602 STRECKER WOODS CT","WILDWOOD","MO",63025,38.6030211280001,-90.6126548619999,272,"1602 STRECKER WOODS CT, WILDWOOD, MO, 63025","Match","Non_Exact","1602 STRECKER WOODS CT, WILDWOOD, MO, 63011",645672399,"R"
224773,"1602 SUN VALLEY PLACE","HUNTSVILLE","AL",35801,34.723977452,-86.5591706979999,273,"1602 SUN VALLEY PLACE, HUNTSVILLE, AL, 35801","Match","Non_Exact","1602 SUNVALLEY PL SE, HUNTSVILLE, AL, 35801",58170955,"R"
224774,"1602 SUSSEX LANE","WILSON","NC",27893,35.7492552850001,-77.914147973,274,"1602 SUSSEX LANE, WILSON, NC, 27893","Match","Non_Exact","1602 SUSSEX LN N, WILSON, NC, 27893",26716881,"R"
224775,"1602 SW 159 STREET","DAVIE","FL",33326,26.1000364510001,-80.359585545,275,"1602 SW 159 STREET, DAVIE, FL, 33326","Match","Non_Exact","1602 SW 159TH AVE, DAVIE, FL, 33326",114795497,"L"
224776,"1602 SW 19TH TER","CAPE CORAL","FL",33991,26.6171999100001,-82.007432501,276,"1602 SW 19TH TER, CAPE CORAL, FL, 33991","Match","Exact","1602 SW 19TH TER, CAPE CORAL, FL, 33991",118087935,"R"
224777,"1602 SWEETBAY TRACE","LAWRENCEVILLE","GA",30044,33.9279236300001,-84.030916901,277,"1602 SWEETBAY TRACE, LAWRENCEVILLE, GA, 30044","Match","Exact","1602 SWEETBAY TRCE, LAWRENCEVILLE, GA, 30044",88964164,"R"
224778,"1602 TENNESSEE AVE","DALHART","TX",79022,36.0507405710001,-102.513567838,278,"1602 TENNESSEE AVE, DALHART, TX, 79022","Match","Non_Exact","1602 TENNESSEE BLVD, DALHART, TX, 79022",164626669,"R"
224779,"1602 TERNS NEST RD","CHARLESTON","SC",29412,32.6887310020001,-79.9547539549999,279,"1602 TERNS NEST RD, CHARLESTON, SC, 29412","Match","Exact","1602 TERNS NEST RD, CHARLESTON, SC, 29412",108813355,"R"
224780,"1602 TIMBER RIDGE LANE","WALNUT","CA",91789,34.0491861100001,-117.850509504,280,"1602 TIMBER RIDGE LANE, WALNUT, CA, 91789","Match","Exact","1602 TIMBER RIDGE LN, WALNUT, CA, 91789",142240509,"R"
224781,"1602 UPLAND AVE","JENKINTOWN","PA",19046,40.103325861,-75.122947451,281,"1602 UPLAND AVE, JENKINTOWN, PA, 19046","Match","Exact","1602 UPLAND AVE, JENKINTOWN, PA, 19046",135093473,"L"
224782,"1602 UVALDE DR","HUTTO","TX",78634,30.5322577650001,-97.5610179779999,282,"1602 UVALDE DR, HUTTO, TX, 78634","Match","Exact","1602 UVALDE DR, HUTTO, TX, 78634",126508649,"R"
224783,"1602 VIOLA DR","POMONA","CA",91768,34.075079503,-117.773191942,283,"1602 VIOLA DR, POMONA, CA, 91768","Match","Non_Exact","1602 VIOLA PL, POMONA, CA, 91768",141729688,"R"
224784,"1602 W 34TH 1/2 ST","HOUSTON","TX",77018,29.8186422750001,-95.426436496,284,"1602 W 34TH 1/2 ST, HOUSTON, TX, 77018","Match","Exact","1602 W 34TH 1/2 ST, HOUSTON, TX, 77018",646802365,"R"
224785,"1602 W 590 N","LINDON","UT",84042,40.3479203640001,-111.75415366,285,"1602 W 590 N, LINDON, UT, 84042","Match","Exact","1602 W 590 N, LINDON, UT, 84042",617443172,"L"
224786,"1602 W CLOVER LANE","MEQUON","WI",53092,43.202273807,-87.928907771,286,"1602 W CLOVER LANE, MEQUON, WI, 53092","Match","Exact","1602 W CLOVER LN, MEQUON, WI, 53092",95903676,"R"
224787,"1602 W RIVERSIDE DR","CARLSBAD","NM",88220,32.441646501,-104.247252839,287,"1602 W RIVERSIDE DR, CARLSBAD, NM, 88220","Match","Exact","1602 W RIVERSIDE DR, CARLSBAD, NM, 88220",131209532,"R"
224788,"1602 W TRIPOLI ST","CARBONDALE","IL",62901,NA,NA,288,"1602 W TRIPOLI ST, CARBONDALE, IL, 62901","No_Match",NA,NA,NA,NA
224789,"1602 WATERFORD DR","LEWISVILLE","TX",75077,33.0640674590001,-97.040234874,289,"1602 WATERFORD DR, LEWISVILLE, TX, 75077","Match","Exact","1602 WATERFORD DR, LEWISVILLE, TX, 75077",218063724,"L"
224790,"1602 WEBSTER STREET NW","WASHINGTON","DC",20011,38.943996172,-77.036660288,290,"1602 WEBSTER STREET NW, WASHINGTON, DC, 20011","Match","Exact","1602 WEBSTER ST NW, WASHINGTON, DC, 20011",76222396,"L"
224791,"1602 WEST SNOWQUEEN PLACE APT 147","SALT LAKE CITY","UT",84104,40.7337138600001,-111.935666456,291,"1602 WEST SNOWQUEEN PLACE APT 147, SALT LAKE CITY, UT, 84104","Match","Non_Exact","1602 W SNOW QUEEN PL, SALT LAKE CITY, UT, 84104",176139288,"R"
224792,"1602 WESTGATE DR","KISSIMMEE","FL",34746,28.258920656,-81.448945926,292,"1602 WESTGATE DR, KISSIMMEE, FL, 34746","Match","Exact","1602 WESTGATE DR, KISSIMMEE, FL, 34746",607054978,"R"
224793,"1602 WESTWOOD RD","CHARLOTTESVILLE","VA",22903,38.0447310710001,-78.487726719,293,"1602 WESTWOOD RD, CHARLOTTESVILLE, VA, 22903","Match","Exact","1602 WESTWOOD RD, CHARLOTTESVILLE, VA, 22903",83368826,"L"
224794,"1602 WIKER AVE APT 2","LANCASTER","PA",17602,40.032594757,-76.270557379,294,"1602 WIKER AVE APT 2, LANCASTER, PA, 17602","Match","Exact","1602 WIKER AVE, LANCASTER, PA, 17602",179666911,"R"
224795,"1602 WILLOW MILL","MISSOURI CITY","TX",77489,29.605409196,-95.520369789,295,"1602 WILLOW MILL, MISSOURI CITY, TX, 77489","Match","Non_Exact","1602 WILLOW MILL DR, MISSOURI CITY, TX, 77489",78270149,"L"
224796,"1602 WILLOW STREET","HEARNE","TX",77859,30.867678067,-96.591000589,296,"1602 WILLOW STREET, HEARNE, TX, 77859","Match","Exact","1602 WILLOW ST, HEARNE, TX, 77859",24683234,"L"
224797,"1602 WILSON PLACE","SILVER SPRING","MD",20910,39.0023338570001,-77.037311932,297,"1602 WILSON PLACE, SILVER SPRING, MD, 20910","Match","Exact","1602 WILSON PL, SILVER SPRING, MD, 20910",62107670,"L"
224798,"1602 WIMBELTON WAY","WAUNAKEE","WI",53597,43.1746823440001,-89.444353999,298,"1602 WIMBELTON WAY, WAUNAKEE, WI, 53597","Match","Non_Exact","1602 WIMBLETON WAY, WAUNAKEE, WI, 53597",49497569,"L"
224799,"1602 WOODARD DR","CULLMAN","AL",35055,34.1837977440001,-86.8600077259999,299,"1602 WOODARD DR, CULLMAN, AL, 35055","Match","Non_Exact","1602 WOODARD DR NW, CULLMAN, AL, 35055",130247772,"R"
224800,"1602 WRIGHTSON DRIVE","MCLEAN","VA",22101,38.9257409360001,-77.1749494269999,300,"1602 WRIGHTSON DRIVE, MCLEAN, VA, 22101","Match","Exact","1602 WRIGHTSON DR, MCLEAN, VA, 22101",75963492,"R"
224801,"1602","HOUSTON","TX",77077,NA,NA,301,"1602, HOUSTON, TX, 77077","No_Match",NA,NA,NA,NA
224802,"16020 58TH PLACE N","PLYMOUTH","MN",55446,45.0590801660001,-93.4834530809999,302,"16020 58TH PLACE N, PLYMOUTH, MN, 55446","Match","Exact","16020 58TH PL N, PLYMOUTH, MN, 55446",641215787,"L"
224803,"16020 7TH COURT SOUTH","BURIEN","WA",98148,47.459487306,-122.325012561,303,"16020 7TH COURT SOUTH, BURIEN, WA, 98148","Match","Exact","16020 7TH CT S, BURIEN, WA, 98148",186670791,"L"
224804,"16020 A NEHRU AVE","BATON ROUGE","LA",70816,30.439277281,-91.0091052,304,"16020 A NEHRU AVE, BATON ROUGE, LA, 70816","Match","Exact","16020 NEHRU AVE, BATON ROUGE, LA, 70816",645469329,"L"
224805,"16020 ARCTURUS AVE","GARDENA","CA",90249,33.885177658,-118.322380645,305,"16020 ARCTURUS AVE, GARDENA, CA, 90249","Match","Exact","16020 ARCTURUS AVE, GARDENA, CA, 90249",142690540,"L"
224806,"16020 CANYON GLEN PARKWAY","FT WAYNE","IN",46845,41.2327485160001,-85.114145217,306,"16020 CANYON GLEN PARKWAY, FT WAYNE, IN, 46845","Match","Exact","16020 CANYON GLEN PKWY, FORT WAYNE, IN, 46845",6375023,"L"
224807,"16020 CHURCH ST","AMELIA","VA",23002,37.342296746,-77.972488309,307,"16020 CHURCH ST, AMELIA, VA, 23002","Match","Non_Exact","16020 CHURCH ST, AMELIA COURT HOUSE, VA, 23002",73733039,"L"
224808,"16020 CHURCH STREET","AMELIA COURT HOUSE","VA",23002,37.342296746,-77.972488309,308,"16020 CHURCH STREET, AMELIA COURT HOUSE, VA, 23002","Match","Exact","16020 CHURCH ST, AMELIA COURT HOUSE, VA, 23002",73733039,"L"
224809,"16020 CROSSWIND AVE","CHINO","CA",91708,33.9627714550001,-117.631576157,309,"16020 CROSSWIND AVE, CHINO, CA, 91708","Match","Exact","16020 CROSSWIND AVE, CHINO, CA, 91708",614811790,"R"
224810,"16020 FOOTHILL BLVD","FONTANA","CA",92335,34.106639515,-117.455365255,310,"16020 FOOTHILL BLVD, FONTANA, CA, 92335","Match","Exact","16020 FOOTHILL BLVD, FONTANA, CA, 92335",636194270,"R"
224811,"16020 HARVARD DR","LAKEVILLE","MN",55044,44.716675003,-93.232710078,311,"16020 HARVARD DR, LAKEVILLE, MN, 55044","Match","Exact","16020 HARVARD DR, LAKEVILLE, MN, 55044",37928591,"L"
224812,"16020 HEARST WILLITS RD","WILLITS","CA",95490,NA,NA,312,"16020 HEARST WILLITS RD, WILLITS, CA, 95490","No_Match",NA,NA,NA,NA
224813,"16020 LAHEY ST","GRANADA HILLS","CA",91344,34.2727869500001,-118.481246036,313,"16020 LAHEY ST, GRANADA HILLS, CA, 91344","Match","Exact","16020 LAHEY ST, GRANADA HILLS, CA, 91344",141543207,"L"
224814,"16020 LARUE RD","VANCLEAVE","MS",39565,30.575081874,-88.848572368,314,"16020 LARUE RD, VANCLEAVE, MS, 39565","Match","Exact","16020 LARUE RD, VANCLEAVE, MS, 39565",89244220,"R"
224815,"16020 PROMONTORY RD","EDMOND","OK",73013,35.633515522,-97.609859028,315,"16020 PROMONTORY RD, EDMOND, OK, 73013","Match","Exact","16020 PROMONTORY RD, EDMOND, OK, 73013",100451271,"R"
224816,"16020 TERNGLADE DR","LITHIA","FL",33547,27.8496570390001,-82.215744582,316,"16020 TERNGLADE DR, LITHIA, FL, 33547","Match","Exact","16020 TERNGLADE DR, LITHIA, FL, 33547",630321623,"R"
224817,"16020 TIGER DRIVE","LOCKPORT","IL",60441,41.5697197480001,-88.0073295619999,317,"16020 TIGER DRIVE, LOCKPORT, IL, 60441","Match","Exact","16020 TIGER DR, LOCKPORT, IL, 60441",111607387,"L"
224818,"16021 147TH PLACE NE","WOODINVILLE","WA",98072,47.744315596,-122.143115427,318,"16021 147TH PLACE NE, WOODINVILLE, WA, 98072","Match","Exact","16021 147TH PL NE, WOODINVILLE, WA, 98072",186600739,"R"
224819,"16021 48TH AVE S","TUKWILA","WA",98188,47.4593153750001,-122.273191475,319,"16021 48TH AVE S, TUKWILA, WA, 98188","Match","Exact","16021 48TH AVE S, TUKWILA, WA, 98188",186627884,"R"
224820,"16021 ACADIA DRIVE","PRAIRIEVILLE","LA",70769,30.2993128360001,-90.932777825,320,"16021 ACADIA DRIVE, PRAIRIEVILLE, LA, 70769","Match","Exact","16021 ACADIA DR, PRAIRIEVILLE, LA, 70769",115036480,"L"
224821,"16021 BILTMORE AVE APT 821","PFLUGERVILLE","TX",78660,NA,NA,321,"16021 BILTMORE AVE APT 821, PFLUGERVILLE, TX, 78660","No_Match",NA,NA,NA,NA
224822,"16021 E GEDDES DR","AURORA","CO",80016,39.584942418,-104.802152428,322,"16021 E GEDDES DR, AURORA, CO, 80016","Match","Exact","16021 E GEDDES DR, AURORA, CO, 80016",617960281,"L"
224823,"16021 ELEGANT COURT","BOWIE","MD",20716,38.943207155,-76.727125251,323,"16021 ELEGANT COURT, BOWIE, MD, 20716","Match","Exact","16021 ELEGANT CT, BOWIE, MD, 20716",76347912,"R"
224824,"16021 ELIZABETH ST","ANCHORAGE","AK",99516,61.0758022470001,-149.770526132,324,"16021 ELIZABETH ST, ANCHORAGE, AK, 99516","Match","Exact","16021 ELIZABETH ST, ANCHORAGE, AK, 99516",190818540,"L"
224825,"16021 FENWAY DR","EVANSVILLE","IN",47725,38.1238911190001,-87.547012179,325,"16021 FENWAY DR, EVANSVILLE, IN, 47725","Match","Exact","16021 FENWAY DR, EVANSVILLE, IN, 47725",39810716,"R"
224826,"16021 PIERCE FERRY RD PMB127","DOLAN SPRINGS","AZ",86441,35.590061065,-114.274430021,326,"16021 PIERCE FERRY RD PMB127, DOLAN SPRINGS, AZ, 86441","Match","Exact","16021 PIERCE FERRY RD, DOLAN SPRINGS, AZ, 86441",651655853,"L"
224827,"16021 PIERCE FERRY ROAD PMB 18","DOLAN SPRINGS","NV",86441,NA,NA,327,"16021 PIERCE FERRY ROAD PMB 18, DOLAN SPRINGS, NV, 86441","No_Match",NA,NA,NA,NA
224828,"16021 SE 65TH ROAD","FAUCETT","MO",64448,39.5760203240001,-94.7534633669999,328,"16021 SE 65TH ROAD, FAUCETT, MO, 64448","Match","Non_Exact","16021 65TH RD SE, FAUCETT, MO, 64448",15968537,"R"
224829,"16021 SW 288TH STREET","HOMESTEAD","FL",33033,25.4993030160001,-80.450941254,329,"16021 SW 288TH STREET, HOMESTEAD, FL, 33033","Match","Exact","16021 SW 288TH ST, HOMESTEAD, FL, 33033",642086290,"R"
224830,"16022 114TH AVE SE","RENTON","WA",98055,47.4594679590001,-122.188884972,330,"16022 114TH AVE SE, RENTON, WA, 98055","Match","Exact","16022 114TH AVE SE, RENTON, WA, 98055",186633535,"L"
224831,"16022 BARTON RIVER LANE","HOUSTON","TX",77044,29.918399283,-95.183339428,331,"16022 BARTON RIVER LANE, HOUSTON, TX, 77044","Match","Exact","16022 BARTON RIVER LN, HOUSTON, TX, 77044",645142886,"R"
224832,"16022 MARION DR","SOUTH HOLLAND","IL",60473,41.60403289,-87.594529923,332,"16022 MARION DR, SOUTH HOLLAND, IL, 60473","Match","Exact","16022 MARION DR, SOUTH HOLLAND, IL, 60473",111780183,"R"
224833,"16022 VIA PINALE","SAN LORENZO","CA",94580,37.677195784,-122.132493181,333,"16022 VIA PINALE, SAN LORENZO, CA, 94580","Match","Exact","16022 VIA PINALE, SAN LORENZO, CA, 94580",125019223,"L"
224834,"16023 59TH ST CT KP N","LAKEBAY","WA",98349,NA,NA,334,"16023 59TH ST CT KP N, LAKEBAY, WA, 98349","No_Match",NA,NA,NA,NA
224835,"16023 74TH AVENUE NE","KENMORE","WA",98020,47.744544563,-122.242001755,335,"16023 74TH AVENUE NE, KENMORE, WA, 98020","Match","Non_Exact","16023 74TH AVE NE, KENMORE, WA, 98028",186597812,"R"
224836,"16023 BIRCH CT","ORLAND HILLS","IL",60487,41.5984338000001,-87.835793129,336,"16023 BIRCH CT, ORLAND HILLS, IL, 60487","Match","Exact","16023 BIRCH CT, ORLAND HILLS, IL, 60487",112388042,"L"
224837,"16023 CONNERS ACE","SPRING","TX",77379,30.017415779,-95.504430907,337,"16023 CONNERS ACE, SPRING, TX, 77379","Match","Non_Exact","16023 CONNERS ACE DR, SPRING, TX, 77379",96162294,"R"
224838,"16023 FLEETHAVEN LANE","HOUSTON","TX",77084,29.8610926910001,-95.651796582,338,"16023 FLEETHAVEN LANE, HOUSTON, TX, 77084","Match","Exact","16023 FLEETHAVEN LN, HOUSTON, TX, 77084",624593535,"R"
224839,"16023 HICKORY KNOLL","HOUSTON","TX",77059,29.5943444420001,-95.115159864,339,"16023 HICKORY KNOLL, HOUSTON, TX, 77059","Match","Non_Exact","16023 HICKORY KNOLL DR, HOUSTON, TX, 77059",96592732,"L"
224840,"16023 LINCOLN AVENUE","HARVEY","IL",60426,41.598530338,-87.663166062,340,"16023 LINCOLN AVENUE, HARVEY, IL, 60426","Match","Exact","16023 LINCOLN AVE, HARVEY, IL, 60426",111705934,"L"
224841,"16023 MAYCREST CT","TOMBALL","TX",77377,30.008017135,-95.591498386,341,"16023 MAYCREST CT, TOMBALL, TX, 77377","Match","Exact","16023 MAYCREST CT, TOMBALL, TX, 77377",635285269,"L"
224842,"16023 SAILFIN ST","CROSBY","TX",77532,29.9140299850001,-95.081439098,342,"16023 SAILFIN ST, CROSBY, TX, 77532","Match","Exact","16023 SAILFIN ST, CROSBY, TX, 77532",96554482,"L"
224843,"16023 SW 97TH TER","MIAMI","FL",33196,25.6756600100001,-80.455345994,343,"16023 SW 97TH TER, MIAMI, FL, 33196","Match","Exact","16023 SW 97TH TER, MIAMI, FL, 33196",116267370,"R"
224844,"16023 SW 97TH TERRACE","MIAMI","FL",33196,25.6756600100001,-80.455345994,344,"16023 SW 97TH TERRACE, MIAMI, FL, 33196","Match","Exact","16023 SW 97TH TER, MIAMI, FL, 33196",116267370,"R"
224845,"16023 W SAUARO LN","SURPRICE","AZ",85374,NA,NA,345,"16023 W SAUARO LN, SURPRICE, AZ, 85374","No_Match",NA,NA,NA,NA
224846,"16023 WHITEHEAD DR","LINDEN","MI",48451,42.794677581,-83.835242342,346,"16023 WHITEHEAD DR, LINDEN, MI, 48451","Match","Exact","16023 WHITEHEAD DR, LINDEN, MI, 48451",69558479,"R"
224847,"16023 WHITEHEAD","LINDEN","MI",48451,42.794677581,-83.835242342,347,"16023 WHITEHEAD, LINDEN, MI, 48451","Match","Non_Exact","16023 WHITEHEAD DR, LINDEN, MI, 48451",69558479,"R"
224848,"16024 CENTRAL COMMERCE DR","PFLUGERVILLE","TX",78660,30.4535774990001,-97.655493282,348,"16024 CENTRAL COMMERCE DR, PFLUGERVILLE, TX, 78660","Match","Exact","16024 CENTRAL COMMERCE DR, PFLUGERVILLE, TX, 78660",63970420,"R"
224849,"16024 MANCHESTER ROAD","ELLISVILLE","MO",63011,38.5908254760001,-90.594400755,349,"16024 MANCHESTER ROAD, ELLISVILLE, MO, 63011","Match","Exact","16024 MANCHESTER RD, ELLISVILLE, MO, 63011",100112086,"L"
224850,"16024 SHELLCRACKER RD","JACKSONVILLE","FL",32226,30.5284712540001,-81.47548051,350,"16024 SHELLCRACKER RD, JACKSONVILLE, FL, 32226","Match","Exact","16024 SHELLCRACKER RD, JACKSONVILLE, FL, 32226",83905661,"R"
224851,"16024 SOUTH ELMRIDGE STREET","OLATHE","KS",66062,38.8358809650001,-94.784687859,351,"16024 SOUTH ELMRIDGE STREET, OLATHE, KS, 66062","Match","Exact","16024 S ELMRIDGE ST, OLATHE, KS, 66062",619893049,"R"
224852,"16025 12TH AVE NE","SHORELINE","WA",98155,47.7449838220001,-122.315751523,352,"16025 12TH AVE NE, SHORELINE, WA, 98155","Match","Exact","16025 12TH AVE NE, SHORELINE, WA, 98155",186575858,"L"
224853,"16025 CINCA TERRA DR","AUSTIN","TX",78738,30.31450936,-97.993914347,353,"16025 CINCA TERRA DR, AUSTIN, TX, 78738","Match","Exact","16025 CINCA TERRA DR, AUSTIN, TX, 78738",641772389,"L"
224854,"16025 GAULT AVE","VAN NUYS","CA",91406,34.1993557800001,-118.481936388,354,"16025 GAULT AVE, VAN NUYS, CA, 91406","Match","Non_Exact","16025 GAULT ST, VAN NUYS, CA, 91406",141556365,"R"
224855,"16025 NW 28 COURT","MIAMI","FL",33054,25.9201459170001,-80.246936916,355,"16025 NW 28 COURT, MIAMI, FL, 33054","Match","Non_Exact","16025 NW 28TH CT, MIAMI GARDENS, FL, 33054",116028217,"R"
224856,"16025 OLD FREDERICK RD","EMMITSBURG","MD",21727,39.6751451370001,-77.334808548,356,"16025 OLD FREDERICK RD, EMMITSBURG, MD, 21727","Match","Exact","16025 OLD FREDERICK RD, EMMITSBURG, MD, 21727",60713422,"L"
224857,"16025 S 50TH STREET APT 2066","PHOENIX","AZ",85048,33.299453559,-111.976039118,357,"16025 S 50TH STREET APT 2066, PHOENIX, AZ, 85048","Match","Non_Exact","16025 S 50TH ST, PHOENIX, AZ, 85048",646535368,"L"
224858,"16025 S WESTERN AVE","GARDENA","CA",90147,33.885384668,-118.30914094,358,"16025 S WESTERN AVE, GARDENA, CA, 90147","Match","Non_Exact","16025 S WESTERN AVE, GARDENA, CA, 90247",241243321,"R"
224859,"16025 S WESTERN AVE","GARDENA","CA",90247,33.885384668,-118.30914094,359,"16025 S WESTERN AVE, GARDENA, CA, 90247","Match","Exact","16025 S WESTERN AVE, GARDENA, CA, 90247",241243321,"R"
224860,"16025 TOM GILL","PENITAS","TX",78576,26.3136761970001,-98.433825776,360,"16025 TOM GILL, PENITAS, TX, 78576","Match","Non_Exact","16025 TOM GILL RD, PENITAS, TX, 78576",607654274,"L"
224861,"16026 9TH AVE SW","BURIEN","WA",98166,47.4593808160001,-122.345810946,361,"16026 9TH AVE SW, BURIEN, WA, 98166","Match","Exact","16026 9TH AVE SW, BURIEN, WA, 98166",239765561,"L"
224862,"16026 DARNEY CARTER RD","PITRONELLE","AL",36522,NA,NA,362,"16026 DARNEY CARTER RD, PITRONELLE, AL, 36522","No_Match",NA,NA,NA,NA
224863,"16026 FLATFOOT ROAD","DINWIDDIE","VA",23841,37.05229244,-77.562961297,363,"16026 FLATFOOT ROAD, DINWIDDIE, VA, 23841","Match","Exact","16026 FLATFOOT RD, DINWIDDIE, VA, 23841",649999216,"L"
224864,"16026 KENTUCKY RD","BELTON","MO",64012,38.8327656270001,-94.4907640329999,364,"16026 KENTUCKY RD, BELTON, MO, 64012","Match","Exact","16026 KENTUCKY RD, BELTON, MO, 64012",614096323,"R"
224865,"16026 N 171ST LANE","SURPRISE","AZ",85388,33.630477904,-112.428607402,365,"16026 N 171ST LANE, SURPRISE, AZ, 85388","Match","Exact","16026 N 171ST LN, SURPRISE, AZ, 85388",243969578,"R"
224866,"16027 BROOKHURST ST  I-503","FOUNTAIN VALLEY","CA",92708,NA,NA,366,"16027 BROOKHURST ST  I-503, FOUNTAIN VALLEY, CA, 92708","No_Match",NA,NA,NA,NA
224867,"16027 BROOKHURST ST  SUITE I-503","FOUNTAIN VALLEY","CA",92708,NA,NA,367,"16027 BROOKHURST ST  SUITE I-503, FOUNTAIN VALLEY, CA, 92708","No_Match",NA,NA,NA,NA
224868,"16027 BROOKHURST ST UNIT I438","FOUNTAIN VALLEY","CA",92708,NA,NA,368,"16027 BROOKHURST ST UNIT I438, FOUNTAIN VALLEY, CA, 92708","No_Match",NA,NA,NA,NA
224869,"16027 CARY STREET","OMAHA","NE",68136,41.1732873880001,-96.165230288,369,"16027 CARY STREET, OMAHA, NE, 68136","Match","Exact","16027 CARY ST, OMAHA, NE, 68136",624437325,"R"
224870,"16027 VENTURA BLVD / 301","ENCINO","CA",91436,34.156170128,-118.482093528,370,"16027 VENTURA BLVD / 301, ENCINO, CA, 91436","Match","Exact","16027 VENTURA BLVD, ENCINO, CA, 91436",141556674,"R"
224871,"16028 BUCKLAND RIVER RD","WAPAKONETA","OH",45895,40.5853461020001,-84.2349839939999,371,"16028 BUCKLAND RIVER RD, WAPAKONETA, OH, 45895","Match","Exact","16028 BUCKLAND RIVER RD, WAPAKONETA, OH, 45895",649050094,"R"
224872,"16028 EDMORE DR","DETROIT","MI",48205,42.447369748,-82.95566057,372,"16028 EDMORE DR, DETROIT, MI, 48205","Match","Exact","16028 EDMORE DR, DETROIT, MI, 48205",95467556,"R"
224873,"16028 RIO FLORIDA DRIVE","WHITTIER","CA",90603,33.959427783,-117.99008175,373,"16028 RIO FLORIDA DRIVE, WHITTIER, CA, 90603","Match","Exact","16028 RIO FLORIDA DR, WHITTIER, CA, 90603",141750715,"R"
224874,"16029 COLE BRANCH ROAD","MARQUEZ","TX",77865,31.23887389,-96.361556729,374,"16029 COLE BRANCH ROAD, MARQUEZ, TX, 77865","Match","Exact","16029 COLE BRANCH RD, MARQUEZ, TX, 77865",625659143,"L"
224875,"16029 HAYES LANE","WOODBRIDGE","VA",22191,38.6011289890001,-77.270608376,375,"16029 HAYES LANE, WOODBRIDGE, VA, 22191","Match","Exact","16029 HAYES LN, WOODBRIDGE, VA, 22191",76521624,"L"
224876,"16029 LOCH RAVEN ROAD","HUNTERSVILLE","NC",28078,35.411074291,-80.8123903759999,376,"16029 LOCH RAVEN ROAD, HUNTERSVILLE, NC, 28078","Match","Exact","16029 LOCH RAVEN RD, HUNTERSVILLE, NC, 28078",648379511,"L"
224877,"16029 NE 95TH CT","REDMOND","WA",98052,NA,NA,377,"16029 NE 95TH CT, REDMOND, WA, 98052","No_Match",NA,NA,NA,NA
224878,"16029 SE BOYD STREET","BLOUNTSTOWN","FL",32424,NA,NA,378,"16029 SE BOYD STREET, BLOUNTSTOWN, FL, 32424","No_Match",NA,NA,NA,NA
224879,"16029 WOODLAWN EAST","SOUTH HOLLAND","IL",60473,41.6037261230001,-87.5882513129999,379,"16029 WOODLAWN EAST, SOUTH HOLLAND, IL, 60473","Match","Non_Exact","16029 WOODLAWN EAST AVE, SOUTH HOLLAND, IL, 60473",111780402,"L"
224880,"1603 121ST AVE SE","BELLEVUE","WA",98005,47.5959405090001,-122.178210452,380,"1603 121ST AVE SE, BELLEVUE, WA, 98005","Match","Exact","1603 121ST AVE SE, BELLEVUE, WA, 98005",186608070,"R"
224881,"1603 149TH PL SE 3","BELLEVUE","WA",98007,47.5962455820001,-122.140674364,381,"1603 149TH PL SE 3, BELLEVUE, WA, 98007","Match","Exact","1603 149TH PL SE, BELLEVUE, WA, 98007",186671681,"R"
224882,"1603 14TH LN N","PRINCETON","MN",55371,45.586542142,-93.5979359849999,382,"1603 14TH LN N, PRINCETON, MN, 55371","Match","Exact","1603 14TH LN N, PRINCETON, MN, 55371",163060733,"L"
224883,"1603 15TH AVENUE","COLUMBUS","GA",31901,32.47661335,-84.9703543959999,383,"1603 15TH AVENUE, COLUMBUS, GA, 31901","Match","Exact","1603 15TH AVE, COLUMBUS, GA, 31901",98938231,"L"
224884,"1603 18TH ST WEST","BRADENTON","FL",34205,27.4852201950001,-82.5794018839999,384,"1603 18TH ST WEST, BRADENTON, FL, 34205","Match","Exact","1603 18TH ST W, BRADENTON, FL, 34205",16234847,"L"
224885,"1603 62ND AVE","GULFPORT","MS",39501,NA,NA,385,"1603 62ND AVE, GULFPORT, MS, 39501","No_Match",NA,NA,NA,NA
224886,"1603 7TH AVE N","ST CLOUD","MN",56303,45.5644118720001,-94.1755032569999,386,"1603 7TH AVE N, ST CLOUD, MN, 56303","Match","Non_Exact","1603 7TH ST N, SAINT CLOUD, MN, 56303",611983278,"R"
224887,"1603 84TH STREET NW","BRADENTON","FL",34209,27.514011145,-82.64567071,387,"1603 84TH STREET NW, BRADENTON, FL, 34209","Match","Exact","1603 84TH ST NW, BRADENTON, FL, 34209",16241825,"R"
224888,"1603 AMARILLO ST","WELLINGTON","TX",79095,34.8473466310001,-100.215185359,388,"1603 AMARILLO ST, WELLINGTON, TX, 79095","Match","Non_Exact","1603 S AMARILLO ST, WELLINGTON, TX, 79095",164593305,"L"
224889,"1603 ANDERSON LN","LAFAYETTE","TN",37083,NA,NA,389,"1603 ANDERSON LN, LAFAYETTE, TN, 37083","No_Match",NA,NA,NA,NA
224890,"1603 ARVADA DRIVE","RICHARDSON","TX",75081,32.971508591,-96.694480732,390,"1603 ARVADA DRIVE, RICHARDSON, TX, 75081","Match","Exact","1603 ARVADA DR, RICHARDSON, TX, 75081",102915531,"L"
224891,"1603 AVERY ST","PARKERSBURG","WV",26101,39.2744435290001,-81.549938358,391,"1603 AVERY ST, PARKERSBURG, WV, 26101","Match","Exact","1603 AVERY ST, PARKERSBURG, WV, 26101",90870169,"L"
224892,"1603 AVIATION BLVD","REDONDO BEACH","CA",90277,33.8692322220001,-118.382605101,392,"1603 AVIATION BLVD, REDONDO BEACH, CA, 90277","Match","Non_Exact","1603 AVIATION BLVD, REDONDO BEACH, CA, 90278",141582963,"L"
224893,"1603 BAYHOUSE POINT DRIVE  BA 212","SARASOTA","FL",34231,NA,NA,393,"1603 BAYHOUSE POINT DRIVE  BA 212, SARASOTA, FL, 34231","Tie",NA,NA,NA,NA
224894,"1603 BAYHOUSE POINT DRIVE BA 212","SARASOTA","FL",34231,NA,NA,394,"1603 BAYHOUSE POINT DRIVE BA 212, SARASOTA, FL, 34231","Tie",NA,NA,NA,NA
224895,"1603 BEAR PAW LANE","HANOVER","MD",21076,39.147231021,-76.722408004,395,"1603 BEAR PAW LANE, HANOVER, MD, 21076","Match","Exact","1603 BEAR PAW LN, HANOVER, MD, 21076",618559735,"R"
224896,"1603 BEAVER CREEK DR","DUNCANVILLE","TX",75137,32.6287087150001,-96.9296285029999,396,"1603 BEAVER CREEK DR, DUNCANVILLE, TX, 75137","Match","Exact","1603 BEAVER CREEK DR, DUNCANVILLE, TX, 75137",102942106,"R"
224897,"1603 BLODGETT APT F","CARLSBAD","NM",88220,NA,NA,397,"1603 BLODGETT APT F, CARLSBAD, NM, 88220","No_Match",NA,NA,NA,NA
224898,"1603 BLUE CAT","AUSTIN","TX",78734,30.389277301,-97.963635902,398,"1603 BLUE CAT, AUSTIN, TX, 78734","Match","Non_Exact","1603 BLUE CAT LN, AUSTIN, TX, 78734",627998816,"R"
224899,"1603 BOAGAN DR","TUPELO","MS",38801,34.2528017400001,-88.7333721049999,399,"1603 BOAGAN DR, TUPELO, MS, 38801","Match","Non_Exact","1603 BOGGAN DR, TUPELO, MS, 38801",90653956,"R"
224900,"1603 BOBWHITE WAY","CAMILLA","GA",31730,31.3015995370001,-84.060405282,400,"1603 BOBWHITE WAY, CAMILLA, GA, 31730","Match","Non_Exact","1603 BOB WHITE WAY, CAMILLA, GA, 31730",84154742,"L"
224901,"1603 BOLTON STREET","BALTIMORE","MD",21217,39.307843705,-76.627007826,401,"1603 BOLTON STREET, BALTIMORE, MD, 21217","Match","Exact","1603 BOLTON ST, BALTIMORE, MD, 21217",206417083,"R"
224902,"1603 BRADLEY AVE","ROCKVILLE","MD",20851,39.0800152350001,-77.1185954699999,402,"1603 BRADLEY AVE, ROCKVILLE, MD, 20851","Match","Exact","1603 BRADLEY AVE, ROCKVILLE, MD, 20851",62055343,"R"
224903,"1603 BRENTWOOD CROSSING","CONYERS","GA",30013,33.6259177470001,-83.9981485389999,403,"1603 BRENTWOOD CROSSING, CONYERS, GA, 30013","Match","Non_Exact","1603 BRENTWOOD CROSSING SE, CONYERS, GA, 30013",23745486,"R"
224904,"1603 BRILLIANT CUT WAY","VALRICO","FL",33594,27.964457467,-82.245115155,404,"1603 BRILLIANT CUT WAY, VALRICO, FL, 33594","Match","Exact","1603 BRILLIANT CUT WAY, VALRICO, FL, 33594",635368617,"L"
224905,"1603 BRILLINAT CUT WAY","VALRICO","FL",33594,27.964457467,-82.245115155,405,"1603 BRILLINAT CUT WAY, VALRICO, FL, 33594","Match","Non_Exact","1603 BRILLIANT CUT WAY, VALRICO, FL, 33594",635368617,"L"
224906,"1603 BROADMOOR","AUSTIN","TX",78723,30.306958331,-97.6986853779999,406,"1603 BROADMOOR, AUSTIN, TX, 78723","Match","Non_Exact","1603 BROADMOOR DR, AUSTIN, TX, 78723",63947524,"R"
224907,"1603 BUTTERFIELD STAGE RD","OTTERVILLE","MO",65348,38.710302567,-93.034014728,407,"1603 BUTTERFIELD STAGE RD, OTTERVILLE, MO, 65348","Match","Exact","1603 BUTTERFIELD STAGE RD, OTTERVILLE, MO, 65348",606250698,"L"
224908,"1603 CABBAGE KEY DR","RUSKIN","FL",33570,27.7302365640001,-82.41320551,408,"1603 CABBAGE KEY DR, RUSKIN, FL, 33570","Match","Exact","1603 CABBAGE KEY DR, RUSKIN, FL, 33570",648178032,"R"
224909,"1603 CAMILLA BOULEVARD","TUCSON","AZ",85716,32.241652835,-110.924647954,409,"1603 CAMILLA BOULEVARD, TUCSON, AZ, 85716","Match","Non_Exact","1603 N CAMILLA BLVD, TUCSON, AZ, 85716",121174922,"L"
224910,"1603 CANTERBURY LANE","FERNANDINA BEACH","FL",32034,30.6357337580001,-81.450772909,410,"1603 CANTERBURY LANE, FERNANDINA BEACH, FL, 32034","Match","Exact","1603 CANTERBURY LN, FERNANDINA BCH, FL, 32034",84111257,"R"
224911,"1603 CAPSTAN ROAD","HOUSTON","TX",77062,29.5730506670001,-95.122541623,411,"1603 CAPSTAN ROAD, HOUSTON, TX, 77062","Match","Exact","1603 CAPSTAN RD, HOUSTON, TX, 77062",96115512,"L"
224912,"1603 CARROLL STREET","BROOKLYN NY","NY",11213,40.666239498,-73.9333176339999,412,"1603 CARROLL STREET, BROOKLYN NY, NY, 11213","Match","Non_Exact","1603 CARROLL ST, BROOKLYN, NY, 11213",59079782,"L"
224913,"1603 CASTLE CREEK DRIVE","MISSOURI CITY","TX",77489,29.6060148970001,-95.52177732,413,"1603 CASTLE CREEK DRIVE, MISSOURI CITY, TX, 77489","Match","Exact","1603 CASTLE CREEK DR, MISSOURI CITY, TX, 77489",78270141,"R"
224914,"1603 CENTER STREET","LADE LAKE","FL",34748,28.815212694,-81.890871099,414,"1603 CENTER STREET, LADE LAKE, FL, 34748","Match","Non_Exact","1603 CENTER ST, LEESBURG, FL, 34748",94096806,"L"
224915,"1603 CHASE RD","FOREST CITY","NC",28043,NA,NA,415,"1603 CHASE RD, FOREST CITY, NC, 28043","No_Match",NA,NA,NA,NA
224916,"1603 CHURCH ROAD","PLEASANT HILL","LA",71065,31.82290791,-93.52282903,416,"1603 CHURCH ROAD, PLEASANT HILL, LA, 71065","Match","Non_Exact","1603 CHURCH ST, PLEASANT HILL, LA, 71065",67765197,"L"
224917,"1603 CHURCH ST","BRENHAM","TX",77833,30.1552588930001,-96.39576184,417,"1603 CHURCH ST, BRENHAM, TX, 77833","Match","Exact","1603 CHURCH ST, BRENHAM, TX, 77833",39235108,"R"
224918,"1603 COAL RIVER ROAD","GLEN DANIELS","WV",25844,37.8144084630001,-81.353931485,418,"1603 COAL RIVER ROAD, GLEN DANIELS, WV, 25844","Match","Non_Exact","1603 COAL RIVER RD, GLEN DANIEL, WV, 25844",78849891,"L"
224919,"1603 COLUMBIA ARMS CIRCLE UNIT 209","KISSIMMEE","FL",34741,28.3071886700001,-81.412117316,419,"1603 COLUMBIA ARMS CIRCLE UNIT 209, KISSIMMEE, FL, 34741","Match","Exact","1603 COLUMBIA ARMS CIR, KISSIMMEE, FL, 34741",607057536,"L"
224920,"1603 COOPER POINT RD NW","OLYMPIA","WA",98502,47.058626437,-122.941218056,420,"1603 COOPER POINT RD NW, OLYMPIA, WA, 98502","Match","Exact","1603 COOPER PT RD NW, OLYMPIA, WA, 98502",649696946,"L"
224921,"1603 COOSA COUNTY ROAD 193","GOODWATER","AL",35072,NA,NA,421,"1603 COOSA COUNTY ROAD 193, GOODWATER, AL, 35072","No_Match",NA,NA,NA,NA
224922,"1603 COOSA COUNTY ROAD 66","GOODWATER","AL",35072,NA,NA,422,"1603 COOSA COUNTY ROAD 66, GOODWATER, AL, 35072","No_Match",NA,NA,NA,NA
224923,"1603 CURTIS DRIVE","GREENWOOD","MO",64034,38.8585617740001,-94.353914506,423,"1603 CURTIS DRIVE, GREENWOOD, MO, 64034","Match","Exact","1603 CURTIS DR, GREENWOOD, MO, 64034",624359531,"L"
224924,"1603 DEERWOOD  LANE","FARIBAULT","MN",55432,44.27129482,-93.2870060289999,424,"1603 DEERWOOD  LANE, FARIBAULT, MN, 55432","Match","Non_Exact","1603 DEERWOOD LN, FARIBAULT, MN, 55021",37333645,"R"
224925,"1603 DUHAMEL WAY","NORTH LAS VEGAS","NV",89032,36.2221074940001,-115.162794262,425,"1603 DUHAMEL WAY, NORTH LAS VEGAS, NV, 89032","Match","Exact","1603 DUHAMEL WAY, N LAS VEGAS, NV, 89032",201916521,"L"
224926,"1603 E 19TH STREET SUITE 108","EDMOND","OK",73013,35.635202615,-97.459359695,426,"1603 E 19TH STREET SUITE 108, EDMOND, OK, 73013","Match","Non_Exact","1603 E 19TH ST, EDMOND, OK, 73013",100422863,"L"
224927,"1603 E 68TH ST","LONG BEACH","CA",90805,33.8782660840001,-118.172944444,427,"1603 E 68TH ST, LONG BEACH, CA, 90805","Match","Exact","1603 E 68TH ST, LONG BEACH, CA, 90805",141684027,"L"
224928,"1603 E CENTRAL ROAD APT 111","ARLINGTON HEIGHTS","IL",60005,42.0637337520001,-87.964340866,428,"1603 E CENTRAL ROAD APT 111, ARLINGTON HEIGHTS, IL, 60005","Match","Exact","1603 CENTRAL RD, ARLINGTON HEIGHTS, IL, 60005",642123976,"R"
224929,"1603 E CRYSTAL DR","LAGRANGE","KY",40031,38.4040315990001,-85.367719059,429,"1603 E CRYSTAL DR, LAGRANGE, KY, 40031","Match","Exact","1603 E CRYSTAL DR, LAGRANGE, KY, 40031",634434310,"L"
224930,"1603 E GARLAND AVE","SPOKANE","WA",99207,47.6935157240001,-117.386759303,430,"1603 E GARLAND AVE, SPOKANE, WA, 99207","Match","Exact","1603 E GARLAND AVE, SPOKANE, WA, 99207",189878325,"L"
224931,"1603 E HOBERT AVE","ELLENSBURG","WA",98926,46.9858969040001,-120.520981392,431,"1603 E HOBERT AVE, ELLENSBURG, WA, 98926","Match","Exact","1603 E HOBERT AVE, ELLENSBURG, WA, 98926",624340661,"L"
224932,"1603 E HUNTLEY AVE","COEUR D' ALENE","ID",83815,47.7144926710001,-116.763878757,432,"1603 E HUNTLEY AVE, COEUR D' ALENE, ID, 83815","Match","Non_Exact","1603 E HUNTLEY AVE, COEUR D ALENE, ID, 83815",192934080,"L"
224933,"1603 E PINEY ROAD","DICKSON","TN",37055,35.992752545,-87.417652963,433,"1603 E PINEY ROAD, DICKSON, TN, 37055","Match","Exact","1603 E PINEY RD, DICKSON, TN, 37055",72749898,"R"
224934,"1603 EAST 18TH STREET","BROOKLYN","NY",11230,40.6112210520001,-73.955827401,434,"1603 EAST 18TH STREET, BROOKLYN, NY, 11230","Match","Exact","1603 E 18TH ST, BROOKLYN, NY, 11230",59090061,"L"
224935,"1603 EDGEWOOD DRIVE","AL","WI",54720,44.7999796030001,-91.436072837,435,"1603 EDGEWOOD DRIVE, AL, WI, 54720","Match","Non_Exact","1603 EDGEWOOD DR, ALTOONA, WI, 54720",46071832,"L"
224936,"1603 ELECTRIC APT 1","SEAL BEACH","CA",90740,33.738683587,-118.099056558,436,"1603 ELECTRIC APT 1, SEAL BEACH, CA, 90740","Match","Non_Exact","1603 ELECTRIC AVE, SEAL BEACH, CA, 90740",144012903,"L"
224937,"1603 ENCINO DRIVE","LEANDER","TX",78641,30.5678515540001,-97.873804638,437,"1603 ENCINO DRIVE, LEANDER, TX, 78641","Match","Exact","1603 ENCINO DR, LEANDER, TX, 78641",126477956,"L"
224938,"1603 ESTES LANE","GILLETTE","WY",82716,44.301912959,-105.477561975,438,"1603 ESTES LANE, GILLETTE, WY, 82716","Match","Exact","1603 ESTES LN, GILLETTE, WY, 82716",636506534,"L"
224939,"1603 FAIRFIELD RD","YARDLEY","PA",19067,40.253187881,-74.875481185,439,"1603 FAIRFIELD RD, YARDLEY, PA, 19067","Match","Exact","1603 FAIRFIELD RD, YARDLEY, PA, 19067",134780510,"L"
224940,"1603 FAWNHOPE DRIVE","HOUSTON","TX",77008,29.7980268480001,-95.448164463,440,"1603 FAWNHOPE DRIVE, HOUSTON, TX, 77008","Match","Exact","1603 FAWNHOPE DR, HOUSTON, TX, 77008",96032731,"L"
224941,"1603 FIARWAY DRIVE","CORINTH","TX",76210,33.1551322660001,-97.0874674249999,441,"1603 FIARWAY DRIVE, CORINTH, TX, 76210","Match","Non_Exact","1603 FAIRWAY DR, CORINTH, TX, 76210",103374902,"L"
224942,"1603 FM 1326","AVERY","TX",75554,33.5592294150001,-94.6909140289999,442,"1603 FM 1326, AVERY, TX, 75554","Match","Exact","1603 FM 1326, AVERY, TX, 75554",57656751,"L"
224943,"1603 FORT BRAGG ROAD","FAYETTEVILLE","NC",28305,35.0612767160001,-78.907165993,443,"1603 FORT BRAGG ROAD, FAYETTEVILLE, NC, 28305","Match","Exact","1603 FORT BRAGG RD, FAYETTEVILLE, NC, 28305",64200008,"L"
224944,"1603 FRANKLIN AVE","COLUMBUS","OH",43205,39.961281721,-82.9568308189999,444,"1603 FRANKLIN AVE, COLUMBUS, OH, 43205","Match","Exact","1603 FRANKLIN AVE, COLUMBUS, OH, 43205",218680236,"R"
224945,"1603 FREEMAN MILL ROAD APT B","GREENSBORO","NC",27406,36.0544015720001,-79.8043338479999,445,"1603 FREEMAN MILL ROAD APT B, GREENSBORO, NC, 27406","Match","Exact","1603 FREEMAN MILL RD, GREENSBORO, NC, 27406",131114241,"L"
224946,"1603 GILBERT","TOLEDO","OH",43614,41.611480752,-83.598603376,446,"1603 GILBERT, TOLEDO, OH, 43614","Match","Non_Exact","1603 GILBERT RD, TOLEDO, OH, 43614",33939366,"L"
224947,"1603 GRAND CYPRESS BLVD","WAYNESVILLE","OH",45068,39.5587765710001,-84.162475307,447,"1603 GRAND CYPRESS BLVD, WAYNESVILLE, OH, 45068","Match","Exact","1603 GRAND CYPRESS BLVD, WAYNESVILLE, OH, 45068",159048054,"R"
224948,"1603 GREENRBRIER ROAD","SEAMAN","OH",45679,NA,NA,448,"1603 GREENRBRIER ROAD, SEAMAN, OH, 45679","No_Match",NA,NA,NA,NA
224949,"1603 GREGG AVE APT 2B","FLORENCE","SC",29501,34.192327897,-79.796975244,449,"1603 GREGG AVE APT 2B, FLORENCE, SC, 29501","Match","Exact","1603 GREGG AVE, FLORENCE, SC, 29501",28877592,"R"
224950,"1603 HIGHGROVE COURT SOUTH","MYRTLE  BEACH","SC",29575,NA,NA,450,"1603 HIGHGROVE COURT SOUTH, MYRTLE  BEACH, SC, 29575","No_Match",NA,NA,NA,NA
224951,"1603 HIGHLAND ST","MIDDLETOWN","OH",45044,39.4989961690001,-84.3811633829999,451,"1603 HIGHLAND ST, MIDDLETOWN, OH, 45044","Match","Exact","1603 HIGHLAND ST, MIDDLETOWN, OH, 45044",113806999,"L"
224952,"1603 HORNBECK ROAD","MORGANTOWN","WV",26508,39.544531002,-79.96223996,452,"1603 HORNBECK ROAD, MORGANTOWN, WV, 26508","Match","Exact","1603 HORNBECK RD, MORGANTOWN, WV, 26508",50752732,"R"
224953,"1603 HUDSON RD","GREER","SC",29650,34.876695383,-82.29493712,453,"1603 HUDSON RD, GREER, SC, 29650","Match","Exact","1603 HUDSON RD, GREER, SC, 29650",640757722,"R"
224954,"1603 HULETT DRIVE","BRANDON","FL",33511,27.909852745,-82.329177236,454,"1603 HULETT DRIVE, BRANDON, FL, 33511","Match","Exact","1603 HULETT DR, BRANDON, FL, 33511",104577030,"L"
224955,"1603 HUNT CLUB DRIVE","GREENSBURG","PA",15601,40.298424434,-79.57662017,455,"1603 HUNT CLUB DRIVE, GREENSBURG, PA, 15601","Match","Exact","1603 HUNT CLUB DR, GREENSBURG, PA, 15601",648082112,"L"
224956,"1603 HUSBAND ROAD","PADUCAH","KY",42003,37.0383355930001,-88.58588637,456,"1603 HUSBAND ROAD, PADUCAH, KY, 42003","Match","Exact","1603 HUSBAND RD, PADUCAH, KY, 42003",8397865,"L"
224957,"1603 HWY 13","BRANDON","MS",39042,32.106556267,-89.7432685369999,457,"1603 HWY 13, BRANDON, MS, 39042","Match","Non_Exact","1603 STATE HWY 13, BRANDON, MS, 39042",116902375,"R"
224958,"1603 IDLEWILDE","MIDLAND","TX",79707,NA,NA,458,"1603 IDLEWILDE, MIDLAND, TX, 79707","No_Match",NA,NA,NA,NA
224959,"1603 JACKSON ST APT A","LAGRANGE","GA",30240,33.0281795430001,-85.052066813,459,"1603 JACKSON ST APT A, LAGRANGE, GA, 30240","Match","Exact","1603 JACKSON ST, LAGRANGE, GA, 30240",1761798,"L"
224960,"1603 JOLIET STREET","NEW ORLEANS","LA",70118,29.9530133440001,-90.130051596,460,"1603 JOLIET STREET, NEW ORLEANS, LA, 70118","Match","Exact","1603 JOLIET ST, NEW ORLEANS, LA, 70118",191700425,"R"
224961,"1603 JUNIPER CIRCLE APARTMENT C","SPRINGDALE","AR",72764,36.1445598540001,-94.147390704,461,"1603 JUNIPER CIRCLE APARTMENT C, SPRINGDALE, AR, 72764","Match","Exact","1603 JUNIPER CIR, SPRINGDALE, AR, 72764",49045830,"R"
224962,"1603 JUSTICE","PORT LAVACA","TX",77979,28.6013576920001,-96.63143072,462,"1603 JUSTICE, PORT LAVACA, TX, 77979","Match","Non_Exact","1603 JUSTICE DR, PORT LAVACA, TX, 77979",79227629,"L"
224963,"1603 KATHERINE STREET","NEW CASTLE","PA",16105,41.0168678320001,-80.35510598,463,"1603 KATHERINE STREET, NEW CASTLE, PA, 16105","Match","Exact","1603 KATHERINE ST, NEW CASTLE, PA, 16105",65178191,"L"
224964,"1603 KEYSTONE DR","FRIENDSWOOD","TX",77546,29.501136634,-95.197888249,464,"1603 KEYSTONE DR, FRIENDSWOOD, TX, 77546","Match","Exact","1603 KEYSTONE DR, FRIENDSWOOD, TX, 77546",96702142,"L"
224965,"1603 KINGSWAY RD","BALTIMORE","MD",21218,39.344293829,-76.589298745,465,"1603 KINGSWAY RD, BALTIMORE, MD, 21218","Match","Exact","1603 KINGSWAY RD, BALTIMORE, MD, 21218",206410018,"R"
224966,"1603 KIRBY ROAD","MCLEAN","VA",22101,38.927188303,-77.147620731,466,"1603 KIRBY ROAD, MCLEAN, VA, 22101","Match","Exact","1603 KIRBY RD, MCLEAN, VA, 22101",76029947,"L"
224967,"1603 LAGENIA COURT","DALTON","GA",30721,34.843527959,-84.970035963,467,"1603 LAGENIA COURT, DALTON, GA, 30721","Match","Exact","1603 LAGENIA CT, DALTON, GA, 30721",640675896,"L"
224968,"1603 LAKEWOOD DRIVE","COLUMBIA","MO",65202,38.9645838000001,-92.250320059,468,"1603 LAKEWOOD DRIVE, COLUMBIA, MO, 65202","Match","Exact","1603 LAKEWOOD DR, COLUMBIA, MO, 65202",604978783,"L"
224969,"1603 LARCHWOOD DRIVE","DAYTON","OH",45432,39.7340246690001,-84.1113837889999,469,"1603 LARCHWOOD DRIVE, DAYTON, OH, 45432","Match","Exact","1603 LARCHWOOD DR, DAYTON, OH, 45432",143576592,"R"
224970,"1603 LARK AVE","REDWOOD CITY","CA",94061,37.4659022970001,-122.231458519,470,"1603 LARK AVE, REDWOOD CITY, CA, 94061","Match","Exact","1603 LARK AVE, REDWOOD CITY, CA, 94061",192362687,"L"
224971,"1603 LARK LN","BRANDON","FL",33510,27.9445987290001,-82.3087305019999,471,"1603 LARK LN, BRANDON, FL, 33510","Match","Exact","1603 LARK LN, BRANDON, FL, 33510",104542789,"L"
224972,"1603 LARRY AVE","PENSACOLA","FL",32505,30.43000153,-87.254128705,472,"1603 LARRY AVE, PENSACOLA, FL, 32505","Match","Exact","1603 LARRY AVE, PENSACOLA, FL, 32505",93214939,"R"
224973,"1603 LAUDERDALE DR","HENRICO","VA",23238,37.6021526150001,-77.6230620869999,473,"1603 LAUDERDALE DR, HENRICO, VA, 23238","Match","Exact","1603 LAUDERDALE DR, HENRICO, VA, 23238",106642030,"R"
224974,"1603 LEFTY GARICA WAY","HENDERSON","NV",89002,35.9906478230001,-114.92418614,474,"1603 LEFTY GARICA WAY, HENDERSON, NV, 89002","Match","Non_Exact","1603 LEFTY GARCIA WAY, HENDERSON, NV, 89002",612990709,"R"
224975,"1603 LIPPER AVE","HIGGINSVILLE","MO",64037,39.078933007,-93.712071329,475,"1603 LIPPER AVE, HIGGINSVILLE, MO, 64037","Match","Exact","1603 LIPPER AVE, HIGGINSVILLE, MO, 64037",20920037,"L"
224976,"1603 LOCUST STREET","TERRE HAUTE","IN",47807,39.477520322,-87.3905259369999,476,"1603 LOCUST STREET, TERRE HAUTE, IN, 47807","Match","Exact","1603 LOCUST ST, TERRE HAUTE, IN, 47807",27116028,"R"
224977,"1603 MAIN STREET","WELLSVILE","OH",43968,40.5984572040001,-80.6567820769999,477,"1603 MAIN STREET, WELLSVILE, OH, 43968","Match","Non_Exact","1603 MAIN ST, WELLSVILLE, OH, 43968",63641389,"L"
224978,"1603 MAIN STREET","WELLSVILLE","OH",43968,40.5984572040001,-80.6567820769999,478,"1603 MAIN STREET, WELLSVILLE, OH, 43968","Match","Exact","1603 MAIN ST, WELLSVILLE, OH, 43968",63641389,"L"
224979,"1603 MARBURG ST","DALLAS","TX",75215,32.748875109,-96.7654566149999,479,"1603 MARBURG ST, DALLAS, TX, 75215","Match","Exact","1603 MARBURG ST, DALLAS, TX, 75215",102955587,"L"
224980,"1603 MATTHEWS AVENUE","VENTURA","CA",93003,34.2717167180001,-119.159040171,480,"1603 MATTHEWS AVENUE, VENTURA, CA, 93003","Match","Non_Exact","1603 MATTHEWS AVE, VENTURA, CA, 93004",110026343,"L"
224981,"1603 MEADOW ROAD","GRAND ISLAND","NE",68803,40.9353900090001,-98.396830307,481,"1603 MEADOW ROAD, GRAND ISLAND, NE, 68803","Match","Exact","1603 MEADOW RD, GRAND ISLAND, NE, 68803",649962576,"R"
224982,"1603 MEARNS MEADOW BLVD","AUSTIN","TX",78758,30.3781760040001,-97.706197629,482,"1603 MEARNS MEADOW BLVD, AUSTIN, TX, 78758","Match","Exact","1603 MEARNS MEADOW BLVD, AUSTIN, TX, 78758",63930430,"L"
224983,"1603 MICHIGAN AVE","LA PORTE","IN",46350,41.601234558,-86.712181309,483,"1603 MICHIGAN AVE, LA PORTE, IN, 46350","Match","Exact","1603 MICHIGAN AVE, LA PORTE, IN, 46350",15407674,"R"
224984,"1603 MICHIGAN AVE","LA PORTE","TX",46350,NA,NA,484,"1603 MICHIGAN AVE, LA PORTE, TX, 46350","No_Match",NA,NA,NA,NA
224985,"1603 MINERVA AVE","JACKSONVILLE","FL",32207,30.308969022,-81.6526431089999,485,"1603 MINERVA AVE, JACKSONVILLE, FL, 32207","Match","Exact","1603 MINERVA AVE, JACKSONVILLE, FL, 32207",83914832,"L"
224986,"1603 MISSION SPRINGS CT","KATY","TX",77450,29.759973772,-95.719858188,486,"1603 MISSION SPRINGS CT, KATY, TX, 77450","Match","Non_Exact","1603 MISSION SPRINGS DR, KATY, TX, 77450",96016729,"R"
224987,"1603 MISSISSIPPI ST","CROSSETT","AR",71636,NA,NA,487,"1603 MISSISSIPPI ST, CROSSETT, AR, 71636","No_Match",NA,NA,NA,NA
224988,"1603 MISTY BEND DR","KATY","TX",77494,29.7665874360001,-95.811113328,488,"1603 MISTY BEND DR, KATY, TX, 77494","Match","Exact","1603 MISTY BEND DR, KATY, TX, 77494",78321000,"L"
224989,"1603 MONT VISTA AVE","GODFREY","IL",62035,38.9318072620001,-90.215607909,489,"1603 MONT VISTA AVE, GODFREY, IL, 62035","Match","Exact","1603 MONT VISTA AVE, GODFREY, IL, 62035",107731792,"L"
224990,"1603 MORAN DRIVE","SHOREWOOD","IL",60404,41.528038612,-88.23237397,490,"1603 MORAN DRIVE, SHOREWOOD, IL, 60404","Match","Exact","1603 MORAN DR, SHOREWOOD, IL, 60404",617586795,"L"
224991,"1603 MYRTLE AVE","CHESAPEAKE","VA",23325,36.810681351,-76.236263631,491,"1603 MYRTLE AVE, CHESAPEAKE, VA, 23325","Match","Exact","1603 MYRTLE AVE, CHESAPEAKE, VA, 23325",121772648,"R"
224992,"1603 MYRTLE AVENUE","CHESAPEAKE","VA",23325,36.810681351,-76.236263631,492,"1603 MYRTLE AVENUE, CHESAPEAKE, VA, 23325","Match","Exact","1603 MYRTLE AVE, CHESAPEAKE, VA, 23325",121772648,"R"
224993,"1603 N 11TH ST","POPLAR BLUFF","MO",NA,36.7710085750001,-90.4055353269999,493,"1603 N 11TH ST, POPLAR BLUFF, MO, ","Match","Exact","1603 N 11TH ST, POPLAR BLUFF, MO, 63901",47387141,"L"
224994,"1603 N 77TH STREET","PHILADELPHIA","PA",19151,39.974161124,-75.270218933,494,"1603 N 77TH STREET, PHILADELPHIA, PA, 19151","Match","Exact","1603 N 77TH ST, PHILADELPHIA, PA, 19151",131393033,"R"
224995,"1603 N 8TH STREET","LAMESA","TX",79331,32.7370525630001,-101.96800335,495,"1603 N 8TH STREET, LAMESA, TX, 79331","Match","Exact","1603 N 8TH ST, LAMESA, TX, 79331",182755995,"R"
224996,"1603 N COLLEGE ST","NEWBERG","OR",97132,45.311500525,-122.973414186,496,"1603 N COLLEGE ST, NEWBERG, OR, 97132","Match","Exact","1603 N COLLEGE ST, NEWBERG, OR, 97132",156499308,"L"
224997,"1603 N CR 1670","LUBBOCK","TX",79416,33.615603714,-101.961010986,497,"1603 N CR 1670, LUBBOCK, TX, 79416","Match","Non_Exact","1603 C R 1670, LUBBOCK, TX, 79416",642967163,"R"
224998,"1603 N KASPER","ARLINGTON HEIGHTS","IL",60004,NA,NA,498,"1603 N KASPER, ARLINGTON HEIGHTS, IL, 60004","Tie",NA,NA,NA,NA
224999,"1603 N PARKRIDGE ST","WICHITA","KS",67212,37.7119641410001,-97.477491822,499,"1603 N PARKRIDGE ST, WICHITA, KS, 67212","Match","Exact","1603 N PARKRIDGE ST, WICHITA, KS, 67212",115694616,"L"
225000,"1603 N V RD","HAMPTON","NE",68843,40.9204678310001,-97.903088247,500,"1603 N V RD, HAMPTON, NE, 68843","Match","Exact","1603 N V RD, HAMPTON, NE, 68843",159722249,"L"
