"ID","Address","City","State","Zip","lat","long","id","input_address","match_indicator","match_type","matched_address","tiger_line_id","tiger_side"
162501,"138 BEAVER DRIVE","RICHMOND","KY",40475,37.7960790020001,-84.266742972,1,"138 BEAVER DRIVE, RICHMOND, KY, 40475","Match","Exact","138 BEAVER DR, RICHMOND, KY, 40475",31982279,"L"
162502,"138 BELLA DONNA","SAN ANTONIO","TX",78253,NA,NA,2,"138 BELLA DONNA, SAN ANTONIO, TX, 78253","No_Match",NA,NA,NA,NA
162503,"138 BERKELEY PLACE APT 1","BROOKLYN","NY",11217,40.6754836630001,-73.976030296,3,"138 BERKELEY PLACE APT 1, BROOKLYN, NY, 11217","Match","Exact","138 BERKELEY PL, BROOKLYN, NY, 11217",59078121,"R"
162504,"138 BERKLEY RD","DEVON","PA",19333,40.044179328,-75.420920285,4,"138 BERKLEY RD, DEVON, PA, 19333","Match","Non_Exact","138 BERKELEY RD, DEVON, PA, 19333",179499360,"L"
162505,"138 BILBAO ST","ROYAL PALM BEACH","FL",33411,26.7116611000001,-80.21394994,5,"138 BILBAO ST, ROYAL PALM BEACH, FL, 33411","Match","Exact","138 BILBAO ST, ROYAL PALM BEACH, FL, 33411",115579824,"R"
162506,"138 BONITA DR","DAYTON","OH",45415,39.8205480460001,-84.227063704,6,"138 BONITA DR, DAYTON, OH, 45415","Match","Exact","138 BONITA DR, DAYTON, OH, 45415",143565466,"R"
162507,"138 BRADFORD PEAR COURT","THOMASVILLE","NC",27360,35.9438359220001,-80.1136685719999,7,"138 BRADFORD PEAR COURT, THOMASVILLE, NC, 27360","Match","Exact","138 BRADFORD PEAR CT, THOMASVILLE, NC, 27360",20239841,"R"
162508,"138 BRADLEY STREET","NEW HAVEN","CT",6511,41.31224996,-72.917009602,8,"138 BRADLEY STREET, NEW HAVEN, CT, 6511","Match","Exact","138 BRADLEY ST, NEW HAVEN, CT, 06511",3701429,"L"
162509,"138 BREEZY POINT DRIVE","YORKTOWN","VA",23692,37.1389467880001,-76.4384602389999,9,"138 BREEZY POINT DRIVE, YORKTOWN, VA, 23692","Match","Exact","138 BREEZY POINT DR, YORKTOWN, VA, 23692",103766010,"R"
162510,"138 BRICKYARD RD","LANSING","NY",14882,42.5493434730001,-76.534737155,10,"138 BRICKYARD RD, LANSING, NY, 14882","Match","Exact","138 BRICKYARD RD, LANSING, NY, 14882",18851892,"L"
162511,"138 BRIGHTON LANE","MARS","PA",16046,NA,NA,11,"138 BRIGHTON LANE, MARS, PA, 16046","No_Match",NA,NA,NA,NA
162512,"138 BROOK WAY","ITHACA","NY",14850,42.49360532,-76.486024254,12,"138 BROOK WAY, ITHACA, NY, 14850","Match","Exact","138 BROOK WAY, ITHACA, NY, 14850",18856873,"L"
162513,"138 BROOKSTOWN ROAD","RICHMOND","KY",40475,37.7858513830001,-84.24233444,13,"138 BROOKSTOWN ROAD, RICHMOND, KY, 40475","Match","Exact","138 BROOKSTOWN RD, RICHMOND, KY, 40475",635638487,"L"
162514,"138 BROWN STREET","JACKSON","MS",39213,32.393174592,-90.154776431,14,"138 BROWN STREET, JACKSON, MS, 39213","Match","Exact","138 BROWN ST, JACKSON, MS, 39213",616299483,"R"
162515,"138 BUENA VISTA","CORTE MADERA","CA",94925,37.9220120730001,-122.521136336,15,"138 BUENA VISTA, CORTE MADERA, CA, 94925","Match","Non_Exact","138 BUENA VISTA AVE, CORTE MADERA, CA, 94925",192768269,"L"
162516,"138 BUIST AVE","GREENVILLE","SC",29609,34.868390622,-82.397264133,16,"138 BUIST AVE, GREENVILLE, SC, 29609","Match","Exact","138 BUIST AVE, GREENVILLE, SC, 29609",38298982,"R"
162517,"138 BUNTROCK AVENUE","THIENSVILLE","WA",53092,NA,NA,17,"138 BUNTROCK AVENUE, THIENSVILLE, WA, 53092","No_Match",NA,NA,NA,NA
162518,"138 BUNTROCK AVENUE","THIENSVILLE","WI",53092,43.230509495,-87.988278809,18,"138 BUNTROCK AVENUE, THIENSVILLE, WI, 53092","Match","Exact","138 BUNTROCK AVE, THIENSVILLE, WI, 53092",640763579,"R"
162519,"138 BURTOM RD","EATONTON","GA",31024,33.2267929170001,-83.424077922,19,"138 BURTOM RD, EATONTON, GA, 31024","Match","Non_Exact","138 BURTOM RD SW, EATONTON, GA, 31024",636345983,"R"
162520,"138 CAMBRIDGE DR","LYNDEN","WA",98246,48.9554763510001,-122.448253272,20,"138 CAMBRIDGE DR, LYNDEN, WA, 98246","Match","Non_Exact","138 CAMBRIDGE DR, LYNDEN, WA, 98264",624728027,"R"
162521,"138 CAMBRIDGE RD","WOBURN","MA",1801,NA,NA,21,"138 CAMBRIDGE RD, WOBURN, MA, 1801","Tie",NA,NA,NA,NA
162522,"138 CAMBRIDGE ROAD","KING OF PRUSSIA","PA",19406,40.1071401680001,-75.370476856,22,"138 CAMBRIDGE ROAD, KING OF PRUSSIA, PA, 19406","Match","Exact","138 CAMBRIDGE RD, KING OF PRUSSIA, PA, 19406",135104873,"L"
162523,"138 CAMBRIDGE","BUFFALO","NY",14215,42.918408894,-78.8226300749999,23,"138 CAMBRIDGE, BUFFALO, NY, 14215","Match","Non_Exact","138 CAMBRIDGE AVE, BUFFALO, NY, 14215",48296691,"L"
162524,"138 CAMDEN ROAD","PARSIPPANY","NJ",7054,40.8614269010001,-74.435310178,24,"138 CAMDEN ROAD, PARSIPPANY, NJ, 7054","Match","Exact","138 CAMDEN RD, PARSIPPANY, NJ, 07054",60445019,"R"
162525,"138 CAMFIELD SQUARE DR","CREVE COEUR","MO",63141,38.6545598660001,-90.434558752,25,"138 CAMFIELD SQUARE DR, CREVE COEUR, MO, 63141","Match","Exact","138 CAMFIELD SQUARE DR, CREVE COEUR, MO, 63141",100125716,"L"
162526,"138 CAMPBELL COVE RD","TURTLETOWN","TN",37391,35.0799423220001,-84.386010902,26,"138 CAMPBELL COVE RD, TURTLETOWN, TN, 37391","Match","Exact","138 CAMPBELL COVE RD, TURTLETOWN, TN, 37391",57644385,"L"
162527,"138 CAMPI CIRCLE","ADDISON","PA",15411,NA,NA,27,"138 CAMPI CIRCLE, ADDISON, PA, 15411","No_Match",NA,NA,NA,NA
162528,"138 CARDINAL","IRVINE","CA",92618,33.698861547,-117.722114941,28,"138 CARDINAL, IRVINE, CA, 92618","Match","Exact","138 CARDINAL, IRVINE, CA, 92618",650595341,"R"
162529,"138 CARLEIGH FALLS DR","MERIDIANVILLE","AL",35759,34.885166322,-86.5266475879999,29,"138 CARLEIGH FALLS DR, MERIDIANVILLE, AL, 35759","Match","Non_Exact","138 CARLEIGHFALLS DR, MERIDIANVILLE, AL, 35759",650923479,"R"
162530,"138 CARRIAGE LAKE DR","STOCKBRIDGE","GA",30281,33.5269156790001,-84.2575167219999,30,"138 CARRIAGE LAKE DR, STOCKBRIDGE, GA, 30281","Match","Exact","138 CARRIAGE LAKE DR, STOCKBRIDGE, GA, 30281",23208490,"R"
162531,"138 CENTER CIR","MOCKSVILLE","NC",27028,35.923973242,-80.63855946,31,"138 CENTER CIR, MOCKSVILLE, NC, 27028","Match","Exact","138 CENTER CIR, MOCKSVILLE, NC, 27028",640644634,"L"
162532,"138 CENTRAL AVE","PORT REPUBLIC","NJ",8241,39.522779078,-74.4958292109999,32,"138 CENTRAL AVE, PORT REPUBLIC, NJ, 8241","Match","Exact","138 CENTRAL AVE, PORT REPUBLIC, NJ, 08241",202500161,"R"
162533,"138 CHALK BUTTE ROAD","DOUGLAS","WY",82633,42.7347176000001,-105.431057847,33,"138 CHALK BUTTE ROAD, DOUGLAS, WY, 82633","Match","Non_Exact","138 CHALK BUTTES RD, DOUGLAS, WY, 82633",146999832,"R"
162534,"138 CHAPEL HARBOR DRIVE","PITTSBURGH","PA",15238,40.485338352,-79.880015895,34,"138 CHAPEL HARBOR DRIVE, PITTSBURGH, PA, 15238","Match","Exact","138 CHAPEL HARBOR DR, PITTSBURGH, PA, 15238",632928982,"R"
162535,"138 CHAUCER PLACE","CHERRY HILL","NJ",8003,39.865120941,-75.001321315,35,"138 CHAUCER PLACE, CHERRY HILL, NJ, 8003","Match","Exact","138 CHAUCER PL, CHERRY HILL, NJ, 08003",134358477,"L"
162536,"138 CHERRYWOOD PARC DRIVE","O FALLON","MO",63368,38.7692862050001,-90.698688573,36,"138 CHERRYWOOD PARC DRIVE, O FALLON, MO, 63368","Match","Exact","138 CHERRYWOOD PARC DR, O FALLON, MO, 63368",100048186,"L"
162537,"138 CHESTNUT RIDGE DR APT C","HARRISONBURG","VA",22801,38.418515298,-78.842163488,37,"138 CHESTNUT RIDGE DR APT C, HARRISONBURG, VA, 22801","Match","Exact","138 CHESTNUT RIDGE DR, HARRISONBURG, VA, 22801",55765617,"L"
162538,"138 CHESTNUT STREET","REHOBOTH","FL",2769,NA,NA,38,"138 CHESTNUT STREET, REHOBOTH, FL, 2769","No_Match",NA,NA,NA,NA
162539,"138 CHRISTOPHER DR","HIRAM","GA",30141,33.910088235,-84.742536968,39,"138 CHRISTOPHER DR, HIRAM, GA, 30141","Match","Exact","138 CHRISTOPHER DR, HIRAM, GA, 30141",207993743,"R"
162540,"138 CHURN ROAD","MATTESON","IL",60443,41.525559748,-87.766858278,40,"138 CHURN ROAD, MATTESON, IL, 60443","Match","Exact","138 CHURN RD, MATTESON, IL, 60443",112206930,"R"
162541,"138 CLINTON AVE","OAK PARK","IL",60302,41.8858552610001,-87.798589479,41,"138 CLINTON AVE, OAK PARK, IL, 60302","Match","Exact","138 CLINTON AVE, OAK PARK, IL, 60302",605117454,"L"
162542,"138 COLCHESTER AVENUE","BURLINGTON","VT",5401,44.481243922,-73.19493298,42,"138 COLCHESTER AVENUE, BURLINGTON, VT, 5401","Match","Exact","138 COLCHESTER AVE, BURLINGTON, VT, 05401",637143274,"L"
162543,"138 COLD STREAM FARM RD","MADISONVILLE","TN",37354,35.5633422280001,-84.3269530709999,43,"138 COLD STREAM FARM RD, MADISONVILLE, TN, 37354","Match","Exact","138 COLD STREAM FARM RD, MADISONVILLE, TN, 37354",85299838,"R"
162544,"138 COLIN CAMPBELL","BEAUFORT","SC",29906,32.4228295,-80.77544439,44,"138 COLIN CAMPBELL, BEAUFORT, SC, 29906","Match","Non_Exact","138 COLLIN CAMPBELL, BEAUFORT, SC, 29906",87648000,"R"
162545,"138 COLLEGE ST APT 515","MIDDLETOWN","CT",6457,41.5585786080001,-72.650884128,45,"138 COLLEGE ST APT 515, MIDDLETOWN, CT, 6457","Match","Exact","138 COLLEGE ST, MIDDLETOWN, CT, 06457",636463639,"L"
162546,"138 COLLINS ROAD","NEWTON","MA",2468,42.323599287,-71.2297548299999,46,"138 COLLINS ROAD, NEWTON, MA, 2468","Match","Non_Exact","138 COLLINS RD, WABAN, MA, 02468",86863420,"L"
162547,"138 COLUMBA WAY","VALLEJO","CA",94589,38.1501908430001,-122.26603947,47,"138 COLUMBA WAY, VALLEJO, CA, 94589","Match","Non_Exact","138 COLUMBIA WAY, VALLEJO, CA, 94589",192620674,"L"
162548,"138 COMANCHE TRAIL","WEST MONROE","LA",71291,32.5551218310001,-92.238864012,48,"138 COMANCHE TRAIL, WEST MONROE, LA, 71291","Match","Exact","138 COMANCHE TRL, WEST MONROE, LA, 71291",161097331,"L"
162549,"138 COOPER ROAD","RICHLANDS","NC",28574,34.82960115,-77.58251799,49,"138 COOPER ROAD, RICHLANDS, NC, 28574","Match","Exact","138 COOPER RD, RICHLANDS, NC, 28574",637121223,"R"
162550,"138 CORNWALL RD","REHOBOTH BEACH","DE",19971,38.700631355,-75.0995240359999,50,"138 CORNWALL RD, REHOBOTH BEACH, DE, 19971","Match","Exact","138 CORNWALL RD, REHOBOTH BCH, DE, 19971",106136868,"L"
162551,"138 COUNTRY CLUB DR","UNICOI","TN",37692,36.2292808070001,-82.3303685399999,51,"138 COUNTRY CLUB DR, UNICOI, TN, 37692","Match","Exact","138 COUNTRY CLUB DR, UNICOI, TN, 37692",41142140,"R"
162552,"138 COUNTRY CLUB ROAD","MELROSE","MA",2176,42.4647866510001,-71.054119741,52,"138 COUNTRY CLUB ROAD, MELROSE, MA, 2176","Match","Exact","138 COUNTRY CLUB RD, MELROSE, MA, 02176",86871720,"L"
162553,"138 COURT ST","FARMINGTON","ME",4938,44.6729913670001,-70.1467443509999,53,"138 COURT ST, FARMINGTON, ME, 4938","Match","Exact","138 COURT ST, FARMINGTON, ME, 04938",165298104,"L"
162554,"138 CR 656","ATHENS","TN",37303,35.3864644870001,-84.594494857,54,"138 CR 656, ATHENS, TN, 37303","Match","Exact","138 CO RD 656, ATHENS, TN, 37303",88545969,"L"
162555,"138 CR 870 G","ALVIN","TX",77511,29.475390782,-95.263836571,55,"138 CR 870 G, ALVIN, TX, 77511","Match","Non_Exact","138 CO RD 870G, ALVIN, TX, 77511",116594801,"L"
162556,"138 CRANBERRY ST","BETHEL","AK",99559,60.789210041,-161.813475934,56,"138 CRANBERRY ST, BETHEL, AK, 99559","Match","Exact","138 CRANBERRY ST, BETHEL, AK, 99559",191295072,"R"
162557,"138 CRANBERRY","BETHEL","AK",99559,60.789210041,-161.813475934,57,"138 CRANBERRY, BETHEL, AK, 99559","Match","Non_Exact","138 CRANBERRY ST, BETHEL, AK, 99559",191295072,"R"
162558,"138 CREIGHTON LN","MARIETTA","GA",30008,33.920325131,-84.5550881519999,58,"138 CREIGHTON LN, MARIETTA, GA, 30008","Match","Exact","138 CREIGHTON LN, MARIETTA, GA, 30008",618318625,"L"
162559,"138 CRESTWOOD VIEW","BLAIRSVILLE","GA",30512,34.842593917,-83.9604327869999,59,"138 CRESTWOOD VIEW, BLAIRSVILLE, GA, 30512","Match","Exact","138 CRESTWOOD VW, BLAIRSVILLE, GA, 30512",627725026,"L"
162560,"138 CROYDEN DRIVE","KERNERSVILLE","NC",27284,36.1233288510001,-80.115147521,60,"138 CROYDEN DRIVE, KERNERSVILLE, NC, 27284","Match","Exact","138 CROYDEN DR, KERNERSVILLE, NC, 27284",84679858,"R"
162561,"138 CRUSHED APPLE TRAIL","HEDGESVILLE","WV",25427,39.624931571,-78.0676649759999,61,"138 CRUSHED APPLE TRAIL, HEDGESVILLE, WV, 25427","Match","Exact","138 CRUSHED APPLE TRL, HEDGESVILLE, WV, 25427",123464515,"L"
162562,"138 CUMBERLAND RIDGE CT","RUSSELL SPRINGS","KY",42642,37.048701077,-85.013411189,62,"138 CUMBERLAND RIDGE CT, RUSSELL SPRINGS, KY, 42642","Match","Exact","138 CUMBERLAND RIDGE CT, RUSSELL SPRINGS, KY, 42642",635004761,"R"
162563,"138 CUMBERLAND WLK APT 4C","BROOKLYN","NY",11205,40.6947618990001,-73.974406361,63,"138 CUMBERLAND WLK APT 4C, BROOKLYN, NY, 11205","Match","Non_Exact","138 CUMBERLAND WALK, BROOKLYN, NY, 11205",630495934,"R"
162564,"138 CURTIS STREET","PITTSBURGH","PA",15235,40.462154437,-79.851009382,64,"138 CURTIS STREET, PITTSBURGH, PA, 15235","Match","Exact","138 CURTIS ST, PITTSBURGH, PA, 15235",51813960,"R"
162565,"138 DANZID DRIVE","SUMMERVILLE","SC",29483,32.993711019,-80.230332814,65,"138 DANZID DRIVE, SUMMERVILLE, SC, 29483","Match","Exact","138 DANZID DR, SUMMERVILLE, SC, 29483",178472770,"R"
162566,"138 DELACY AVENUE","NORTH PLAINFIELD","NJ",7060,40.627434581,-74.426783858,66,"138 DELACY AVENUE, NORTH PLAINFIELD, NJ, 7060","Match","Exact","138 DELACY AVE, N PLAINFIELD, NJ, 07060",59948983,"R"
162567,"138 DEVILS FORK RD","DRASCO","AR",72530,NA,NA,67,"138 DEVILS FORK RD, DRASCO, AR, 72530","No_Match",NA,NA,NA,NA
162568,"138 DICKINSON DR","SHELTON","CT",6484,41.3615627560001,-73.158018656,68,"138 DICKINSON DR, SHELTON, CT, 6484","Match","Exact","138 DICKINSON DR, SHELTON, CT, 06484",3218689,"L"
162569,"138 DOCKSIDE TER","WESTON","FL",33327,26.1180857740001,-80.401010653,69,"138 DOCKSIDE TER, WESTON, FL, 33327","Match","Exact","138 DOCKSIDE TER, WESTON, FL, 33327",114782605,"R"
162570,"138 DODDS ROAD","BUTLER","PA",16002,NA,NA,70,"138 DODDS ROAD, BUTLER, PA, 16002","Tie",NA,NA,NA,NA
162571,"138 DONALD LANE","OXFORD","NY",13830,42.417392944,-75.5640729369999,71,"138 DONALD LANE, OXFORD, NY, 13830","Match","Exact","138 DONALD LN, OXFORD, NY, 13830",636753974,"R"
162572,"138 DUANE ST 3S","NEW YORK","NY",10013,40.7162478330001,-74.0076486259999,72,"138 DUANE ST 3S, NEW YORK, NY, 10013","Match","Exact","138 DUANE ST, NEW YORK, NY, 10013",59660342,"L"
162573,"138 E 12300 S  SUITE C-460","DRAPER","UT",84020,NA,NA,73,"138 E 12300 S  SUITE C-460, DRAPER, UT, 84020","No_Match",NA,NA,NA,NA
162574,"138 E 12300 S STE C230","DRAPER","UT",84020,NA,NA,74,"138 E 12300 S STE C230, DRAPER, UT, 84020","No_Match",NA,NA,NA,NA
162575,"138 E 12300 S SUITE C-460","DRAPER","UT",84020,NA,NA,75,"138 E 12300 S SUITE C-460, DRAPER, UT, 84020","No_Match",NA,NA,NA,NA
162576,"138 E 5TH STREET","RICHLAND CENTER","WI",53581,43.3418771300001,-90.38477091,76,"138 E 5TH STREET, RICHLAND CENTER, WI, 53581","Match","Exact","138 E 5TH ST, RICHLAND CENTER, WI, 53581",48580000,"R"
162577,"138 E 94TH STREET","NEW YORK","NY",10128,40.7847170900001,-73.952250115,77,"138 E 94TH STREET, NEW YORK, NY, 10128","Match","Exact","138 E 94TH ST, NEW YORK, NY, 10128",59657863,"R"
162578,"138 E BLAIR ST","WEST CHICAGO","IN",60185,NA,NA,78,"138 E BLAIR ST, WEST CHICAGO, IN, 60185","No_Match",NA,NA,NA,NA
162579,"138 E BROADWAY ST","SOUTH BEND","IN",46601,41.6600629760001,-86.2486841419999,79,"138 E BROADWAY ST, SOUTH BEND, IN, 46601","Match","Exact","138 E BROADWAY ST, SOUTH BEND, IN, 46601",8083909,"R"
162580,"138 E BROADWAY","SOUTH BEND","IN",46637,NA,NA,80,"138 E BROADWAY, SOUTH BEND, IN, 46637","No_Match",NA,NA,NA,NA
162581,"138 E FERGUSON AVE","VISALIA","CA",93291,NA,NA,81,"138 E FERGUSON AVE, VISALIA, CA, 93291","Tie",NA,NA,NA,NA
162582,"138 E FULTON ST","GLOVERSVILLE","NY",12078,43.0510249970001,-74.3375763719999,82,"138 E FULTON ST, GLOVERSVILLE, NY, 12078","Match","Exact","138 E FULTON ST, GLOVERSVILLE, NY, 12078",153637440,"L"
162583,"138 E PINE STREET","AUDUBON","NJ",8106,39.89335314,-75.0625330839999,83,"138 E PINE STREET, AUDUBON, NJ, 8106","Match","Exact","138 E PINE ST, AUDUBON, NJ, 08106",134350588,"R"
162584,"138 EAST 22ND COURT","RIVIERA BEACH","FL",33404,26.7807200830001,-80.0528316799999,84,"138 EAST 22ND COURT, RIVIERA BEACH, FL, 33404","Match","Exact","138 E 22ND CT, RIVIERA BEACH, FL, 33404",115276325,"L"
162585,"138 EAST 36TH STREET APT 5A","NEW YORK","NY",10016,40.747598108,-73.978593573,85,"138 EAST 36TH STREET APT 5A, NEW YORK, NY, 10016","Match","Exact","138 E 36TH ST, NEW YORK, NY, 10016",59654430,"R"
162586,"138 EAST 400 NORTH","PRICE","UT",84501,39.606633994,-110.808087039,86,"138 EAST 400 NORTH, PRICE, UT, 84501","Match","Exact","138 E 400 N, PRICE, UT, 84501",132831206,"L"
162587,"138 EAST 56 STREET APT 1R","BROOKLYN","NY",11203,40.6535283430001,-73.924756628,87,"138 EAST 56 STREET APT 1R, BROOKLYN, NY, 11203","Match","Exact","138 E 56TH ST, BROOKLYN, NY, 11203",59083677,"R"
162588,"138 EAST 7TH AVE","ROSELLE,","NJ",7203,40.6527836920001,-74.2605880309999,88,"138 EAST 7TH AVE, ROSELLE,, NJ, 7203","Match","Exact","138 E 7TH AVE, ROSELLE, NJ, 07203",60573498,"R"
162589,"138 EAST 91ST STREET","LOS ANGELES","CA",90003,33.9537671750001,-118.272986676,89,"138 EAST 91ST STREET, LOS ANGELES, CA, 90003","Match","Exact","138 E 91ST ST, LOS ANGELES, CA, 90003",141670964,"R"
162590,"138 EAST BLVD","GLASSBORO","NJ",8028,39.693120707,-75.1128150169999,90,"138 EAST BLVD, GLASSBORO, NJ, 8028","Match","Exact","138 EAST BLVD, GLASSBORO, NJ, 08028",134598205,"L"
162591,"138 EAST FULTON STREET","GLOVERSVILLE","NY",12078,43.0510249970001,-74.3375763719999,91,"138 EAST FULTON STREET, GLOVERSVILLE, NY, 12078","Match","Exact","138 E FULTON ST, GLOVERSVILLE, NY, 12078",153637440,"L"
162592,"138 EAST ROAD","DOYLSETOWN","PA",18901,40.309502179,-75.110475116,92,"138 EAST ROAD, DOYLSETOWN, PA, 18901","Match","Non_Exact","138 EAST RD, DOYLESTOWN, PA, 18901",134703936,"R"
162593,"138 EAST ST","MOUNT WASHINGTON","MA",1258,42.123959245,-73.463950814,93,"138 EAST ST, MOUNT WASHINGTON, MA, 1258","Match","Exact","138 EAST ST, MOUNT WASHINGTON, MA, 01258",3958939,"R"
162594,"138 ELIZABETH HOLLOWAY DRIVE","MENDENHALL","MS",39114,32.0219162080001,-89.8683485609999,94,"138 ELIZABETH HOLLOWAY DRIVE, MENDENHALL, MS, 39114","Match","Non_Exact","138 ELIZABETH HOLLOWAY RD, MENDENHALL, MS, 39114",527469,"R"
162595,"138 ELKHORN RD APT 205","EAGLE","WI",53119,42.8781301760001,-88.4768585469999,95,"138 ELKHORN RD APT 205, EAGLE, WI, 53119","Match","Exact","138 ELKHORN RD, EAGLE, WI, 53119",53806108,"L"
162596,"138 ELM STREET APT 2","SOUTHBRIDGE","MA",1550,42.0715067620001,-72.035768226,96,"138 ELM STREET APT 2, SOUTHBRIDGE, MA, 1550","Match","Exact","138 ELM ST, SOUTHBRIDGE, MA, 01550",40000769,"L"
162597,"138 ESSEX ROAD","ELK GROVE VILLAGE","SC",60007,NA,NA,97,"138 ESSEX ROAD, ELK GROVE VILLAGE, SC, 60007","No_Match",NA,NA,NA,NA
162598,"138 ESTES ROAD","ROCHESTER","NH",3869,NA,NA,98,"138 ESTES ROAD, ROCHESTER, NH, 3869","No_Match",NA,NA,NA,NA
162599,"138 FAIRLANE","LANSING","KS",66043,39.257244837,-94.900898483,99,"138 FAIRLANE, LANSING, KS, 66043","Match","Non_Exact","138 FAIRLANE ST, LANSING, KS, 66043",91403070,"R"
162600,"138 FAIRVIEW AVE","SARDINIA","OH",45171,39.004890027,-83.8054226469999,100,"138 FAIRVIEW AVE, SARDINIA, OH, 45171","Match","Exact","138 FAIRVIEW AVE, SARDINIA, OH, 45171",100978224,"R"
162601,"138 FALEY DRIVE","WESTFIELD","MA",1085,42.094706069,-72.726391785,101,"138 FALEY DRIVE, WESTFIELD, MA, 1085","Match","Non_Exact","138 FALLEY DR, WESTFIELD, MA, 01085",4031127,"L"
162602,"138 FANO ST UNIT A","ARCADIA","CA",91006,34.133503359,-118.026946722,102,"138 FANO ST UNIT A, ARCADIA, CA, 91006","Match","Exact","138 FANO ST, ARCADIA, CA, 91006",141645229,"R"
162603,"138 FAREWELL AVENUE","FAIRBANKS","AK",99701,64.8446934360001,-147.687836131,103,"138 FAREWELL AVENUE, FAIRBANKS, AK, 99701","Match","Exact","138 FAREWELL AVE, FAIRBANKS, AK, 99701",190894710,"L"
162604,"138 FIDDLERS GREEN","WAITSFIELD","VA",5673,NA,NA,104,"138 FIDDLERS GREEN, WAITSFIELD, VA, 5673","No_Match",NA,NA,NA,NA
162605,"138 FIESTA CIRCLE","MORRO BAY","CA",93442,NA,NA,105,"138 FIESTA CIRCLE, MORRO BAY, CA, 93442","No_Match",NA,NA,NA,NA
162606,"138 FIRST ST","RAVENDEN","AR",72459,36.2348098320001,-91.251554684,106,"138 FIRST ST, RAVENDEN, AR, 72459","Match","Exact","138 1ST ST, RAVENDEN, AR, 72459",638893090,"L"
162607,"138 FLORIBEL AVENUE","SAN ANSELMO","CA",94960,NA,NA,107,"138 FLORIBEL AVENUE, SAN ANSELMO, CA, 94960","Tie",NA,NA,NA,NA
162608,"138 FLORIBEL","SAN ANSELMO","CA",94960,NA,NA,108,"138 FLORIBEL, SAN ANSELMO, CA, 94960","Tie",NA,NA,NA,NA
162609,"138 FM 2035","MERKEL","TX",79536,32.3999150650001,-100.086957835,109,"138 FM 2035, MERKEL, TX, 79536","Match","Exact","138 FM 2035, MERKEL, TX, 79536",647457468,"L"
162610,"138 FOLGER STREET","CLEMSON","SC",29631,34.688307799,-82.8423701839999,110,"138 FOLGER STREET, CLEMSON, SC, 29631","Match","Exact","138 FOLGER ST, CLEMSON, SC, 29631",26163821,"R"
162611,"138 FOREST BLVD","PARK FOREST","IL",60466,41.486577815,-87.678924985,111,"138 FOREST BLVD, PARK FOREST, IL, 60466","Match","Exact","138 FOREST BLVD, PARK FOREST, IL, 60466",605652662,"R"
162612,"138 FOREST STREET","STAMFORD","CT",6901,41.056575228,-73.5331858879999,112,"138 FOREST STREET, STAMFORD, CT, 6901","Match","Exact","138 FOREST ST, STAMFORD, CT, 06901",3245769,"L"
162613,"138 FORT HILL AVE APARTMENT 3","CANANDAIGUA","NY",14424,42.8970498730001,-77.2803304509999,113,"138 FORT HILL AVE APARTMENT 3, CANANDAIGUA, NY, 14424","Match","Exact","138 FORT HILL AVE, CANANDAIGUA, NY, 14424",13471698,"L"
162614,"138 FORT ROAD","LEITCHFIELD","KY",42754,37.5561995570001,-86.356393963,114,"138 FORT ROAD, LEITCHFIELD, KY, 42754","Match","Exact","138 FORT RD, LEITCHFIELD, KY, 42754",15777857,"R"
162615,"138 FORTRESS RIDGE","WEAVERVILLE","NC",28787,35.704874062,-82.551482112,115,"138 FORTRESS RIDGE, WEAVERVILLE, NC, 28787","Match","Exact","138 FORTRESS RIDGE, WEAVERVILLE, NC, 28787",645422331,"L"
162616,"138 FOUR SEASONS WAY","MOORESVILLE","NC",28117,35.5610070340001,-80.842074563,116,"138 FOUR SEASONS WAY, MOORESVILLE, NC, 28117","Match","Exact","138 FOUR SEASONS WAY, MOORESVILLE, NC, 28117",651476295,"L"
162617,"138 FOX HILL COURT","CENTER POINT","AL",35215,33.6553443080001,-86.685099409,117,"138 FOX HILL COURT, CENTER POINT, AL, 35215","Match","Exact","138 FOX HILL CT, CENTER POINT, AL, 35215",81566920,"R"
162618,"138 FOX LANE","TROUT CREEK","MT",59874,NA,NA,118,"138 FOX LANE, TROUT CREEK, MT, 59874","No_Match",NA,NA,NA,NA
162619,"138 FRANCIS MARION DR","WILMINGTON","NC",28411,34.3082022340001,-77.744583726,119,"138 FRANCIS MARION DR, WILMINGTON, NC, 28411","Match","Exact","138 FRANCIS MARION DR, WILMINGTON, NC, 28411",14138452,"R"
162620,"138 FRED DELONG RD","COLFAX","LA",71417,31.6430594170001,-92.710413697,120,"138 FRED DELONG RD, COLFAX, LA, 71417","Match","Exact","138 FRED DELONG RD, COLFAX, LA, 71417",13266110,"R"
162621,"138 FREETOWN ROAD","WALLKILL","NY",12589,41.6564551490001,-74.0828790639999,121,"138 FREETOWN ROAD, WALLKILL, NY, 12589","Match","Exact","138 FREETOWN RD, WALLKILL, NY, 12589",635603728,"R"
162622,"138 FULLER STREET","SOMERSET","NJ",8873,40.483814861,-74.48128525,122,"138 FULLER STREET, SOMERSET, NJ, 8873","Match","Exact","138 FULLER ST, SOMERSET, NJ, 08873",59942776,"L"
162623,"138 GA HWY 127 W","MAUK","GA",31058,NA,NA,123,"138 GA HWY 127 W, MAUK, GA, 31058","No_Match",NA,NA,NA,NA
162624,"138 GARNETT AVE","WINTHROP HARBOR","IL",60096,42.492217715,-87.832541051,124,"138 GARNETT AVE, WINTHROP HARBOR, IL, 60096","Match","Exact","138 GARNETT AVE, WINTHROP HARBOR, IL, 60096",647179927,"R"
162625,"138 GAYLE POND TRACE","COLUMBIA","SC",29209,33.9641660820001,-80.9293330259999,125,"138 GAYLE POND TRACE, COLUMBIA, SC, 29209","Match","Exact","138 GAYLE POND TRCE, COLUMBIA, SC, 29209",653316664,"L"
162626,"138 GLADSTONE DRIVE","PARSIPPANY","NJ",7054,40.864884611,-74.381891109,126,"138 GLADSTONE DRIVE, PARSIPPANY, NJ, 7054","Match","Exact","138 GLADSTONE DR, PARSIPPANY, NJ, 07054",627065520,"R"
162627,"138 GLENEAGLES WAY","FAYETTEVILLE","GA",30215,33.421617966,-84.389087004,127,"138 GLENEAGLES WAY, FAYETTEVILLE, GA, 30215","Match","Exact","138 GLENEAGLES WAY, FAYETTEVILLE, GA, 30215",23327166,"L"
162628,"138 GLENN STREET","WHITMIRE","SC",29178,34.5028869970001,-81.611954655,128,"138 GLENN STREET, WHITMIRE, SC, 29178","Match","Exact","138 GLENN ST, WHITMIRE, SC, 29178",45377979,"L"
162629,"138 GLEZEN LANE","WAYLAND","MA",1778,42.3834963690001,-71.3531469339999,129,"138 GLEZEN LANE, WAYLAND, MA, 1778","Match","Exact","138 GLEZEN LN, WAYLAND, MA, 01778",86851339,"L"
162630,"138 GOLDEN LEAF LANE","MOUNT AIRY","NC",27030,36.5344466560001,-80.761496168,130,"138 GOLDEN LEAF LANE, MOUNT AIRY, NC, 27030","Match","Exact","138 GOLDEN LEAF LN, MOUNT AIRY, NC, 27030",154195282,"R"
162631,"138 GOODSON DRIVE","HOUSTON","TX",77060,29.925176122,-95.403674785,131,"138 GOODSON DRIVE, HOUSTON, TX, 77060","Match","Exact","138 GOODSON DR, HOUSTON, TX, 77060",642864140,"R"
162632,"138 GRAHAM HALL SOUTH","RIDGELAND","SC",29936,32.455594137,-80.969651044,132,"138 GRAHAM HALL SOUTH, RIDGELAND, SC, 29936","Match","Exact","138 GRAHAM HALL S, RIDGELAND, SC, 29936",637544373,"R"
162633,"138 GRAMATAN AVENUE","MOUNT VERNON","NY",10550,40.9148411080001,-73.837409927,133,"138 GRAMATAN AVENUE, MOUNT VERNON, NY, 10550","Match","Exact","138 GRAMATAN AVE, MOUNT VERNON, NY, 10550",139747029,"L"
162634,"138 GRAND CHAMPIONS LN","SLIDELL","LA",70458,30.2333404710001,-89.774272147,134,"138 GRAND CHAMPIONS LN, SLIDELL, LA, 70458","Match","Exact","138 GRAND CHAMPIONS LN, SLIDELL, LA, 70458",638898336,"R"
162635,"138 GRANT STREET","DEPEW","NY",14043,42.91799317,-78.687535291,135,"138 GRANT STREET, DEPEW, NY, 14043","Match","Exact","138 GRANT ST, DEPEW, NY, 14043",48306869,"L"
162636,"138 GREEN ACRES ROAD","ELIZAVILLE","NY",12523,42.0878636740001,-73.7541532119999,136,"138 GREEN ACRES ROAD, ELIZAVILLE, NY, 12523","Match","Non_Exact","138 GREEN ACRE RD, ELIZAVILLE, NY, 12523",41522748,"R"
162637,"138 GREENBANK RD","FREDERICKSBURG","VA",22406,38.3545389330001,-77.5268740879999,137,"138 GREENBANK RD, FREDERICKSBURG, VA, 22406","Match","Exact","138 GREENBANK RD, FREDERICKSBURG, VA, 22406",647902396,"L"
162638,"138 GREISON TRAIL - APT 4105","NEWNAN","GA",30263,33.37085505,-84.777617511,138,"138 GREISON TRAIL - APT 4105, NEWNAN, GA, 30263","Match","Exact","138 GREISON TRL, NEWNAN, GA, 30263",9331938,"L"
162639,"138 GRIFFIN ROAD","RUSTON","LA",71270,32.5788863280001,-92.698865927,139,"138 GRIFFIN ROAD, RUSTON, LA, 71270","Match","Exact","138 GRIFFIN RD, RUSTON, LA, 71270",164093365,"L"
162640,"138 GROVE ST APT 137","ROCKLAND","MA",2370,42.1257741250001,-70.920619498,140,"138 GROVE ST APT 137, ROCKLAND, MA, 2370","Match","Exact","138 GROVE ST, ROCKLAND, MA, 02370",87431337,"L"
162641,"138 GURNEE ROAD","NEWARK","NY",14513,43.0324050770001,-77.141693834,141,"138 GURNEE ROAD, NEWARK, NY, 14513","Match","Exact","138 GURNEE RD, NEWARK, NY, 14513",13468860,"L"
162642,"138 H STREET","BOSTON","MA",2127,42.3329829570001,-71.041469166,142,"138 H STREET, BOSTON, MA, 2127","Match","Exact","138 H ST, BOSTON, MA, 02127",85712964,"L"
162643,"138 HALF CLOVE COURT","BOCA GRANDE","FL",33921,26.7459789860001,-82.26095888,143,"138 HALF CLOVE COURT, BOCA GRANDE, FL, 33921","Match","Exact","138 HALF CLOVE CT, BOCA GRANDE, FL, 33921",118062182,"R"
162644,"138 HAMILTON STREET","PHILLIPS","NE",NA,40.9012468700001,-98.215952559,144,"138 HAMILTON STREET, PHILLIPS, NE, ","Match","Exact","138 HAMILTON ST, PHILLIPS, NE, 68865",159710680,"R"
162645,"138 HAMPTON HILLS BLVD","CANTON","MP",39046,NA,NA,145,"138 HAMPTON HILLS BLVD, CANTON, MP, 39046","No_Match",NA,NA,NA,NA
162646,"138 HANSBOROUGH ROAD","FRANKFORT","KY",40601,38.1934697990001,-85.060644848,146,"138 HANSBOROUGH ROAD, FRANKFORT, KY, 40601","Match","Non_Exact","138 HANSBOUROUGH RD, FRANKFORT, KY, 40601",97083163,"R"
162647,"138 HARVARD RD","STOW","MA",1775,42.4402857640001,-71.533409628,147,"138 HARVARD RD, STOW, MA, 1775","Match","Exact","138 HARVARD RD, STOW, MA, 01775",87172193,"R"
162648,"138 HARVIN ST","SPARTANBURG","SC",29303,34.9686048730001,-81.96007573,148,"138 HARVIN ST, SPARTANBURG, SC, 29303","Match","Exact","138 HARVIN ST, SPARTANBURG, SC, 29303",19491583,"L"
162649,"138 HAWKINS LANE","COLUMBIANA","OH",44408,40.8689869580001,-80.6801113779999,149,"138 HAWKINS LANE, COLUMBIANA, OH, 44408","Match","Exact","138 HAWKINS LN, COLUMBIANA, OH, 44408",63661229,"L"
162650,"138 HAWTHORNE CIRCLE","FAIRHOPE","AL",36532,NA,NA,150,"138 HAWTHORNE CIRCLE, FAIRHOPE, AL, 36532","No_Match",NA,NA,NA,NA
162651,"138 HAZLET AVENUE","HAZLET","NJ",7730,40.4130699840001,-74.187660668,151,"138 HAZLET AVENUE, HAZLET, NJ, 7730","Match","Exact","138 HAZLET AVE, HAZLET, NJ, 07730",90535760,"R"
162652,"138 HELEN LANE","TOLEDO","WA",98591,46.4663697450001,-122.812373566,152,"138 HELEN LANE, TOLEDO, WA, 98591","Match","Exact","138 HELEN LN, TOLEDO, WA, 98591",180754471,"R"
162653,"138 HENDRIX ST","WEST COLUMBIA","SC",29169,33.986505763,-81.091211635,153,"138 HENDRIX ST, WEST COLUMBIA, SC, 29169","Match","Exact","138 HENDRIX ST, WEST COLUMBIA, SC, 29169",70078233,"R"
162654,"138 HERITAGE RIVERWOOD DRIVE APT P","CENTRAL","SC",29630,34.6875962240001,-82.7821136329999,154,"138 HERITAGE RIVERWOOD DRIVE APT P, CENTRAL, SC, 29630","Match","Exact","138 HERITAGE RIVERWOOD DR, CENTRAL, SC, 29630",26219404,"R"
162655,"138 HIBBARD CT S","PONTIAC","MI",48341,42.630882166,-83.2969654619999,155,"138 HIBBARD CT S, PONTIAC, MI, 48341","Match","Exact","138 HIBBARD CT S, PONTIAC, MI, 48341",69794770,"L"
162656,"138 HICKORY HILL BLVD","TOTOWA","NJ",7512,40.915795712,-74.2192330619999,156,"138 HICKORY HILL BLVD, TOTOWA, NJ, 7512","Match","Exact","138 HICKORY HILL BLVD, TOTOWA, NJ, 07512",635464637,"R"
162657,"138 HIGHLAND AVENUE","WESTPORT","MA",2790,41.649241675,-71.0521634579999,157,"138 HIGHLAND AVENUE, WESTPORT, MA, 2790","Match","Exact","138 HIGHLAND AVE, WESTPORT, MA, 02790",46789106,"L"
162658,"138 HILLCREST COVE","MARION","AR",72364,35.2001892010001,-90.193172638,158,"138 HILLCREST COVE, MARION, AR, 72364","Match","Exact","138 HILLCREST COVE, MARION, AR, 72364",69374294,"R"
162659,"138 HILLCREST DRIVE","MURPHY","TX",75094,33.0272538620001,-96.6149350049999,159,"138 HILLCREST DRIVE, MURPHY, TX, 75094","Match","Exact","138 HILLCREST DR, MURPHY, TX, 75094",123565194,"L"
162660,"138 HILLCREST","LA VERNIA","TX",78121,29.359235778,-98.127827354,160,"138 HILLCREST, LA VERNIA, TX, 78121","Match","Non_Exact","138 HILLCREST DR, LA VERNIA, TX, 78121",54888927,"R"
162661,"138 HILLSIDE AVE","BRIDGEWATER","NJ",8807,40.6026940130001,-74.615161053,161,"138 HILLSIDE AVE, BRIDGEWATER, NJ, 8807","Match","Exact","138 HILLSIDE AVE, BRIDGEWATER, NJ, 08807",59937554,"R"
162662,"138 HOLIDAY LANE","BLANCHESTER","OH",45107,39.3522299250001,-83.93998225,162,"138 HOLIDAY LANE, BLANCHESTER, OH, 45107","Match","Exact","138 HOLIDAY LN, BLANCHESTER, OH, 45107",146850719,"R"
162663,"138 HOMESTEAD BLVD","MILL VALLEY","CA",94941,37.892247152,-122.537046598,163,"138 HOMESTEAD BLVD, MILL VALLEY, CA, 94941","Match","Exact","138 HOMESTEAD BLVD, MILL VALLEY, CA, 94941",192766632,"R"
162664,"138 HOOVER ST","SUN PRAIRIE","WI",53590,43.194784756,-89.210032531,164,"138 HOOVER ST, SUN PRAIRIE, WI, 53590","Match","Exact","138 HOOVER ST, SUN PRAIRIE, WI, 53590",49479133,"L"
162665,"138 HORSE FARM ROAD","SHARON","VT",5065,43.789725731,-72.465917858,165,"138 HORSE FARM ROAD, SHARON, VT, 5065","Match","Exact","138 HORSE FARM RD, SHARON, VT, 05065",139265754,"R"
162666,"138 HORSEMAN LANE","MOREHEAD","KY",40351,NA,NA,166,"138 HORSEMAN LANE, MOREHEAD, KY, 40351","No_Match",NA,NA,NA,NA
162667,"138 HORSESHOE ROAD","MILLBROOK","NY",12545,41.7639660080001,-73.714347916,167,"138 HORSESHOE ROAD, MILLBROOK, NY, 12545","Match","Exact","138 HORSESHOE RD, MILLBROOK, NY, 12545",649726395,"R"
162668,"138 HOWARD ST","EASTON","MA",2375,41.998118322,-71.100283614,168,"138 HOWARD ST, EASTON, MA, 2375","Match","Non_Exact","138 HOWARD ST, SOUTH EASTON, MA, 02375",616166862,"L"
162669,"138 HOWARD STREET","EASTON","MA",2375,41.998118322,-71.100283614,169,"138 HOWARD STREET, EASTON, MA, 2375","Match","Non_Exact","138 HOWARD ST, SOUTH EASTON, MA, 02375",616166862,"L"
162670,"138 HUGGINS STREET","LAKE PROVIDENCE","LA",71254,32.80816924,-91.1804856219999,170,"138 HUGGINS STREET, LAKE PROVIDENCE, LA, 71254","Match","Exact","138 HUGGINS ST, LAKE PROVIDENCE, LA, 71254",71148344,"L"
162671,"138 HURDS HILL ROAD","WOODBURY","CT",6798,41.514895892,-73.1726140339999,171,"138 HURDS HILL ROAD, WOODBURY, CT, 6798","Match","Exact","138 HURDS HILL RD, WOODBURY, CT, 06798",649725188,"R"
162672,"138 HUTCHINSON LANE","CHESHIRE","MA",1225,42.5361060490001,-73.182410831,172,"138 HUTCHINSON LANE, CHESHIRE, MA, 1225","Match","Exact","138 HUTCHINSON LN, CHESHIRE, MA, 01225",3936125,"L"
162673,"138 IDLEWOOD ROAD","PITTSBURGH","PA",15235,40.463789734,-79.8116073959999,173,"138 IDLEWOOD ROAD, PITTSBURGH, PA, 15235","Match","Exact","138 IDLEWOOD RD, PITTSBURGH, PA, 15235",51668397,"R"
162674,"138 INGLEWOOD DRIVE","ROCHESTER","NY",14619,43.14037362,-77.6547902619999,174,"138 INGLEWOOD DRIVE, ROCHESTER, NY, 14619","Match","Exact","138 INGLEWOOD DR, ROCHESTER, NY, 14619",14532837,"R"
162675,"138 IRIS ROAD","LAKEWOOD","NJ",8701,40.0980874950001,-74.2337905859999,175,"138 IRIS ROAD, LAKEWOOD, NJ, 8701","Match","Exact","138 IRIS RD, LAKEWOOD, NJ, 08701",203723315,"L"
162676,"138 JACKSON DRIVE","WILTON","NH",3086,NA,NA,176,"138 JACKSON DRIVE, WILTON, NH, 3086","No_Match",NA,NA,NA,NA
162677,"138 JACKSON LANE","GILBERT","LA",71336,32.075786792,-91.684204602,177,"138 JACKSON LANE, GILBERT, LA, 71336","Match","Exact","138 JACKSON LN, GILBERT, LA, 71336",636249996,"R"
162678,"138 JAMES MADISON DRIVE","MECHANICSBURG","PA",17050,40.211627579,-77.0438771029999,178,"138 JAMES MADISON DRIVE, MECHANICSBURG, PA, 17050","Match","Exact","138 JAMES MADISON DR, MECHANICSBURG, PA, 17050",651568227,"R"
162679,"138 JAMES MOORE DR","JACKSON","GA",30233,33.281907077,-83.964173359,179,"138 JAMES MOORE DR, JACKSON, GA, 30233","Match","Exact","138 JAMES MOORE DR, JACKSON, GA, 30233",23292494,"R"
162680,"138 JASPER CT","GRIFFIN","GA",30223,33.321714103,-84.246242367,180,"138 JASPER CT, GRIFFIN, GA, 30223","Match","Exact","138 JASPER CT, GRIFFIN, GA, 30223",637391042,"L"
162681,"138 JEFFERSON AVE","CARTHAGE","TN",37030,NA,NA,181,"138 JEFFERSON AVE, CARTHAGE, TN, 37030","Tie",NA,NA,NA,NA
162682,"138 JERSEY STREET","ROCHESTER","NY",14609,43.162295471,-77.55580546,182,"138 JERSEY STREET, ROCHESTER, NY, 14609","Match","Exact","138 JERSEY ST, ROCHESTER, NY, 14609",14542166,"R"
162683,"138 JOEL WRIGHT DR","HENDERSONVILLE","NC",28793,35.3061454190001,-82.4569837989999,183,"138 JOEL WRIGHT DR, HENDERSONVILLE, NC, 28793","Match","Non_Exact","138 JOEL WRIGHT DR, HENDERSONVILLE, NC, 28792",152309035,"R"
162684,"138 JOHN QUICK RD","HOT SPRINGS","AR",71913,34.4053086260001,-93.071298258,184,"138 JOHN QUICK RD, HOT SPRINGS, AR, 71913","Match","Exact","138 JOHN QUICK RD, HOT SPRINGS, AR, 71913",22736179,"L"
162685,"138 JOY DRIVE","FAYETTEVILLE","NC",28312,35.0318865620001,-78.798614578,185,"138 JOY DRIVE, FAYETTEVILLE, NC, 28312","Match","Non_Exact","138 JOY AVE, FAYETTEVILLE, NC, 28312",64271639,"R"
162686,"138 KENILWORTH AVE NE","WARREN","OH",44483,41.237499304,-80.7959382029999,186,"138 KENILWORTH AVE NE, WARREN, OH, 44483","Match","Exact","138 KENILWORTH AVE NE, WARREN, OH, 44483",117405975,"R"
162687,"138 KINGFISHER CIRCLE","POOLER","GA",31322,32.085776948,-81.292342202,187,"138 KINGFISHER CIRCLE, POOLER, GA, 31322","Match","Exact","138 KINGFISHER CIR, POOLER, GA, 31322",640710943,"R"
162688,"138 KLINGER AVENUE","TONAWANDA","NY",14150,43.00997862,-78.888012568,188,"138 KLINGER AVENUE, TONAWANDA, NY, 14150","Match","Exact","138 KLINGER AVE, TONAWANDA, NY, 14150",48284112,"R"
162689,"138 KNIGHTS COURT","SOUTHINGTON","CT",6489,41.6083438800001,-72.874524193,189,"138 KNIGHTS COURT, SOUTHINGTON, CT, 6489","Match","Exact","138 KNIGHTS CT, SOUTHINGTON, CT, 06489",625272381,"R"
162690,"138 LA RUE VES RENARDS","CARNECRO","LA",70520,30.305732129,-92.0867444529999,190,"138 LA RUE VES RENARDS, CARNECRO, LA, 70520","Match","Non_Exact","138 LA RUE DES RENARDS RD, CARENCRO, LA, 70520",85610681,"L"
162691,"138 LAF 192","LEWISVILLE","AR",71845,NA,NA,191,"138 LAF 192, LEWISVILLE, AR, 71845","No_Match",NA,NA,NA,NA
162692,"138 LAKE AVE NE","CLEARBROOK","MN",56634,47.6976809880001,-95.42648908,192,"138 LAKE AVE NE, CLEARBROOK, MN, 56634","Match","Non_Exact","138 LAKE AVE, CLEARBROOK, MN, 56634",168123667,"L"
162693,"138 LAKEVIEW ST","BESSEMER","PA",16112,40.9842948250001,-80.501882435,193,"138 LAKEVIEW ST, BESSEMER, PA, 16112","Match","Exact","138 LAKEVIEW ST, BESSEMER, PA, 16112",634373326,"R"
162694,"138 LAMAR DR","ATHENS","OH",45701,39.306544005,-82.100928879,194,"138 LAMAR DR, ATHENS, OH, 45701","Match","Exact","138 LAMAR DR, ATHENS, OH, 45701",37098684,"R"
162695,"138 LANGHAM STREET","MONROEVILLE","AL",36460,NA,NA,195,"138 LANGHAM STREET, MONROEVILLE, AL, 36460","No_Match",NA,NA,NA,NA
162696,"138 LAUREL OAKS ROAD","MADISONVILLE","LA",70447,30.4419677760001,-90.225684956,196,"138 LAUREL OAKS ROAD, MADISONVILLE, LA, 70447","Match","Exact","138 LAUREL OAKS RD, MADISONVILLE, LA, 70447",648179014,"R"
162697,"138 LEACH HILL ROAD","S ABINGTON TWP","PA",18411,NA,NA,197,"138 LEACH HILL ROAD, S ABINGTON TWP, PA, 18411","No_Match",NA,NA,NA,NA
162698,"138 LEGION STREET","RICHMOND","OH",43944,40.4316631680001,-80.770055511,198,"138 LEGION STREET, RICHMOND, OH, 43944","Match","Non_Exact","138 E LEGION ST, RICHMOND, OH, 43944",37796615,"R"
162699,"138 LENOXPLACE","RALEIGH","NC",27606,NA,NA,199,"138 LENOXPLACE, RALEIGH, NC, 27606","No_Match",NA,NA,NA,NA
162700,"138 LEXINGTON AVE","PROVIDENCE","RI",2905,NA,NA,200,"138 LEXINGTON AVE, PROVIDENCE, RI, 2905","Tie",NA,NA,NA,NA
162701,"138 LEXINGTON ST","PROVIDENCE","RI",2907,41.798406519,-71.421722143,201,"138 LEXINGTON ST, PROVIDENCE, RI, 2907","Match","Non_Exact","138 LEXINGTON AVE, PROVIDENCE, RI, 02907",47466855,"L"
162702,"138 LIBERTY STREET","CLINTON","CT",6413,41.2913022340001,-72.523744068,202,"138 LIBERTY STREET, CLINTON, CT, 6413","Match","Exact","138 LIBERTY ST, CLINTON, CT, 06413",113879621,"L"
162703,"138 LIMESTONE WAY","FREDERICKSBURG","VA",22406,38.3646342480001,-77.5013822829999,203,"138 LIMESTONE WAY, FREDERICKSBURG, VA, 22406","Match","Exact","138 LIMESTONE WAY, FREDERICKSBURG, VA, 22406",25584480,"R"
162704,"138 LINCOLN DRIVE","MOUNT VERNON","IA",52314,41.9182238160001,-91.4066654119999,204,"138 LINCOLN DRIVE, MOUNT VERNON, IA, 52314","Match","Exact","138 LINCOLN DR, MOUNT VERNON, IA, 52314",17034456,"R"
162705,"138 LINCOLN ROAD","PINE BLUFF","AR",71603,NA,NA,205,"138 LINCOLN ROAD, PINE BLUFF, AR, 71603","No_Match",NA,NA,NA,NA
162706,"138 LITTLE BUTTE DRIVE","EAGLE POINT","OR",97524,42.467397298,-122.809792814,206,"138 LITTLE BUTTE DRIVE, EAGLE POINT, OR, 97524","Match","Exact","138 LITTLE BUTTE DR, EAGLE POINT, OR, 97524",155597360,"L"
162707,"138 LITTLE CLAY LANE","ROPER","NC",27970,35.8695882210001,-76.61125469,207,"138 LITTLE CLAY LANE, ROPER, NC, 27970","Match","Exact","138 LITTLE CLAY LN, ROPER, NC, 27970",18687515,"L"
162708,"138 LONG LEAF WAY","DADEVILLE","AL",36853,32.760520694,-85.8145685709999,208,"138 LONG LEAF WAY, DADEVILLE, AL, 36853","Match","Exact","138 LONG LEAF WAY, DADEVILLE, AL, 36853",1684194,"R"
162709,"138 LORENZO RD APT A","SANTA FE","NM",87501,35.683436767,-105.915931237,209,"138 LORENZO RD APT A, SANTA FE, NM, 87501","Match","Exact","138 LORENZO RD, SANTA FE, NM, 87501",636575848,"R"
162710,"138 LORRAINE LOOP","STATEN ISLAND","NY",10309,40.5452623740001,-74.2202851389999,210,"138 LORRAINE LOOP, STATEN ISLAND, NY, 10309","Match","Exact","138 LORRAINE LOOP, STATEN ISLAND, NY, 10309",59885071,"L"
162711,"138 LOST RD","GRANTSVILLE","WV",26147,38.866428737,-81.1074156129999,211,"138 LOST RD, GRANTSVILLE, WV, 26147","Match","Exact","138 LOST RD, GRANTSVILLE, WV, 26147",49928339,"R"
162712,"138 LUCILLE STREET","FAIRFIELD","CT",6825,41.191830178,-73.248053667,212,"138 LUCILLE STREET, FAIRFIELD, CT, 6825","Match","Exact","138 LUCILLE ST, FAIRFIELD, CT, 06825",3283339,"R"
162713,"138 LUDLOW STREET","NEW YORK","NY",10002,40.720394309,-73.9881852939999,213,"138 LUDLOW STREET, NEW YORK, NY, 10002","Match","Exact","138 LUDLOW ST, NEW YORK, NY, 10002",59654106,"R"
162714,"138 LYMAN ROAD","BEULAVILLE","NC",28518,34.9192600640001,-77.76196228,214,"138 LYMAN ROAD, BEULAVILLE, NC, 28518","Match","Exact","138 LYMAN RD, BEULAVILLE, NC, 28518",653470391,"L"
162715,"138 MAIN STREET","OCEANPORT","NJ",7757,40.306765107,-74.038956899,215,"138 MAIN STREET, OCEANPORT, NJ, 7757","Match","Exact","138 MAIN ST, OCEANPORT, NJ, 07757",90455138,"L"
162716,"138 MAIN STREET","WINTHROP","MA",2152,42.3822127190001,-70.988947008,216,"138 MAIN STREET, WINTHROP, MA, 2152","Match","Exact","138 MAIN ST, WINTHROP, MA, 02152",85714425,"L"
162717,"138 MANCHESTER DR","EULESS","TX",76039,32.838660943,-97.096514795,217,"138 MANCHESTER DR, EULESS, TX, 76039","Match","Exact","138 MANCHESTER DR, EULESS, TX, 76039",102142597,"L"
162718,"138 MANG AVENUE","KENMORE","NY",14217,42.9618848210001,-78.8751218149999,218,"138 MANG AVENUE, KENMORE, NY, 14217","Match","Exact","138 MANG AVE, KENMORE, NY, 14217",48287977,"L"
162719,"138 MARGERY DRIVE","NEWARK","OH",43055,40.085775767,-82.3493953129999,219,"138 MARGERY DRIVE, NEWARK, OH, 43055","Match","Non_Exact","138 MARGERY DR NE, NEWARK, OH, 43055",61508613,"R"
162720,"138 MARIANNA PLACE","GARNER","NC",27529,35.590121476,-78.561292233,220,"138 MARIANNA PLACE, GARNER, NC, 27529","Match","Exact","138 MARIANNA PL, GARNER, NC, 27529",26545713,"L"
162721,"138 MARTIN LUTHER KING BLVD 1704","NEWARK","NJ",7104,NA,NA,221,"138 MARTIN LUTHER KING BLVD 1704, NEWARK, NJ, 7104","Tie",NA,NA,NA,NA
162722,"138 MARTIN ST","SHARON","WI",53585,42.4964756860001,-88.7274688099999,222,"138 MARTIN ST, SHARON, WI, 53585","Match","Exact","138 MARTIN ST, SHARON, WI, 53585",53674402,"R"
162723,"138 MAULSBY","BEL AIR","MD",21014,39.539712152,-76.3583861129999,223,"138 MAULSBY, BEL AIR, MD, 21014","Match","Non_Exact","138 MAULSBY AVE, BEL AIR, MD, 21014",191640949,"R"
162724,"138 MAYAPPLE TRL","CLYDE","NC",28721,35.606887081,-82.8926288119999,224,"138 MAYAPPLE TRL, CLYDE, NC, 28721","Match","Exact","138 MAYAPPLE TRL, CLYDE, NC, 28721",151819234,"R"
162725,"138 MCDOWELL ROAD","MURPHYSBORO","IL",62966,37.798644854,-89.33453021,225,"138 MCDOWELL ROAD, MURPHYSBORO, IL, 62966","Match","Exact","138 MCDOWELL RD, MURPHYSBORO, IL, 62966",95124319,"R"
162726,"138 MEADOW LANE","CHOCTAW","OK",73020,35.4660715730001,-97.206148072,226,"138 MEADOW LANE, CHOCTAW, OK, 73020","Match","Exact","138 MEADOW LN, CHOCTAW, OK, 73020",646735659,"R"
162727,"138 MEADOWLARK","JOHNSBOURGH","TN",37659,36.313468867,-82.507054827,227,"138 MEADOWLARK, JOHNSBOURGH, TN, 37659","Match","Non_Exact","138 MEADOWLARK DR, JONESBOROUGH, TN, 37659",624777786,"R"
162728,"138 MEADOWSIDE LANE","SAVANNAH","GA",31405,32.022532018,-81.20707391,228,"138 MEADOWSIDE LANE, SAVANNAH, GA, 31405","Match","Exact","138 MEADOWSIDE LN, SAVANNAH, GA, 31405",624669815,"L"
162729,"138 MEDFORD AVENUE","PATCHOGUE","NY",11772,40.77111985,-73.0074198409999,229,"138 MEDFORD AVENUE, PATCHOGUE, NY, 11772","Match","Exact","138 MEDFORD AVE, PATCHOGUE, NY, 11772",114013068,"L"
162730,"138 MEIGS DR","MURFREESBORO","TN",37128,35.780945624,-86.4029640479999,230,"138 MEIGS DR, MURFREESBORO, TN, 37128","Match","Exact","138 MEIGS DR, MURFREESBORO, TN, 37128",606764447,"R"
162731,"138 MERIAN STREET","SCHRIEVER","LA",70395,29.727624823,-90.8051972119999,231,"138 MERIAN STREET, SCHRIEVER, LA, 70395","Match","Exact","138 MERIAN ST, SCHRIEVER, LA, 70395",92067487,"L"
162732,"138 MICKLER DRIVE","LADSON","SC",29456,32.970281071,-80.146120981,232,"138 MICKLER DRIVE, LADSON, SC, 29456","Match","Exact","138 MICKLER DR, LADSON, SC, 29456",178460856,"L"
162733,"138 MIDGET CAMP RD","BOLIVAR","PA",15923,40.3433873930001,-79.138167756,233,"138 MIDGET CAMP RD, BOLIVAR, PA, 15923","Match","Exact","138 MIDGET CAMP RD, BOLIVAR, PA, 15923",52951319,"R"
162734,"138 MIDGET CAMP ROAD","BOLIVAR","PA",15923,40.3433873930001,-79.138167756,234,"138 MIDGET CAMP ROAD, BOLIVAR, PA, 15923","Match","Exact","138 MIDGET CAMP RD, BOLIVAR, PA, 15923",52951319,"R"
162735,"138 MOND STREET","OGDEN","UT",84404,41.2530277920001,-111.979378085,235,"138 MOND STREET, OGDEN, UT, 84404","Match","Exact","138 MOND ST, OGDEN, UT, 84404",155695012,"R"
162736,"138 MONTVIEW DRIVE","RUCKERSVILLE","VA",22968,38.263035137,-78.431142452,236,"138 MONTVIEW DRIVE, RUCKERSVILLE, VA, 22968","Match","Exact","138 MONTVIEW DR, RUCKERSVILLE, VA, 22968",29873296,"L"
162737,"138 MOSLE ROAD","FAR HILLS","NJ",7931,40.7474453950001,-74.632750372,237,"138 MOSLE ROAD, FAR HILLS, NJ, 7931","Match","Exact","138 MOSLE RD, FAR HILLS, NJ, 07931",636221866,"L"
162738,"138 MOUNT BROOK","SPRINGVILLE","AL",35146,33.7729130590001,-86.479742699,238,"138 MOUNT BROOK, SPRINGVILLE, AL, 35146","Match","Exact","138 MOUNTAIN BROOK, SPRINGVILLE, AL, 35146",66905586,"R"
162739,"138 MOUNT VERNON","LOWELL","MA",1854,42.6456132380001,-71.324977772,239,"138 MOUNT VERNON, LOWELL, MA, 1854","Match","Non_Exact","138 MOUNT VERNON ST, LOWELL, MA, 01854",87087670,"L"
162740,"138 N 2875 WEST","CEDAR CITY","UT",84720,37.6801060080001,-113.105792433,240,"138 N 2875 WEST, CEDAR CITY, UT, 84720","Match","Exact","138 N 2875 W, CEDAR CITY, UT, 84720",651905828,"R"
162741,"138 N 30TH STREET","CAMDEN","NJ",8105,39.9494690160001,-75.0832986249999,241,"138 N 30TH STREET, CAMDEN, NJ, 8105","Match","Exact","138 N 30TH ST, CAMDEN, NJ, 08105",134342703,"R"
162742,"138 N BEAUDRY","LOS ANGELES","CA",90012,34.059911277,-118.253707811,242,"138 N BEAUDRY, LOS ANGELES, CA, 90012","Match","Non_Exact","138 N BEAUDRY AVE, LOS ANGELES, CA, 90012",141617215,"R"
162743,"138 N BELMONT ST APT 1","GLENDALE","CA",91206,34.14716351,-118.243051696,243,"138 N BELMONT ST APT 1, GLENDALE, CA, 91206","Match","Non_Exact","138 N BELMONT ST, GLENDALE, CA, 91206",652035829,"R"
162744,"138 N BOULEVARD CT","DELAND","FL",32720,29.0472385310001,-81.3052730749999,244,"138 N BOULEVARD CT, DELAND, FL, 32720","Match","Exact","138 N BOULEVARD CT, DELAND, FL, 32720",648406106,"R"
162745,"138 N DOUGLAS CIRCLE","ANDOVER","KS",67002,37.6875476430001,-97.1403322849999,245,"138 N DOUGLAS CIRCLE, ANDOVER, KS, 67002","Match","Exact","138 DOUGLAS CIR, ANDOVER, KS, 67002",32286034,"R"
162746,"138 N EGREMONT RD","ALFRED","MA",1230,42.2216125080001,-73.4287062509999,246,"138 N EGREMONT RD, ALFRED, MA, 1230","Match","Non_Exact","138 N EGREMONT RD, GREAT BARRINGTON, MA, 01230",3946690,"L"
162747,"138 N KENTUCKY AVE","DELAND","FL",32724,29.0292397960001,-81.293080581,247,"138 N KENTUCKY AVE, DELAND, FL, 32724","Match","Exact","138 N KENTUCKY AVE, DELAND, FL, 32724",94510663,"L"
162748,"138 N MAIN STREET","ANDERSON","SC",29621,34.504397774,-82.650433575,248,"138 N MAIN STREET, ANDERSON, SC, 29621","Match","Exact","138 N MAIN ST, ANDERSON, SC, 29621",25452479,"R"
162749,"138 N PINE STREET","LANCASTER","PA",17603,40.0391421950001,-76.31630004,249,"138 N PINE STREET, LANCASTER, PA, 17603","Match","Exact","138 N PINE ST, LANCASTER, PA, 17603",179676496,"L"
162750,"138 N RIVER ST","RICO","CO",81332,37.694397414,-108.032589767,250,"138 N RIVER ST, RICO, CO, 81332","Match","Exact","138 N RIVER ST, RICO, CO, 81332",91663279,"R"
162751,"138 N WEST ST APT B","NORWALK","OH",44857,NA,NA,251,"138 N WEST ST APT B, NORWALK, OH, 44857","No_Match",NA,NA,NA,NA
162752,"138 NAHUNTA DRIVE NW","PIKEVILLE","NC",27863,35.483565082,-78.051106996,252,"138 NAHUNTA DRIVE NW, PIKEVILLE, NC, 27863","Match","Non_Exact","138 NAHUNTA DR, PIKEVILLE, NC, 27863",14409247,"L"
162753,"138 NE 1ST AVE","HALLANDALE BEACH","FL",33009,25.9885822740001,-80.1478905,253,"138 NE 1ST AVE, HALLANDALE BEACH, FL, 33009","Match","Exact","138 NE 1ST AVE, HALLANDALE BEACH, FL, 33009",114736659,"R"
162754,"138 NEVADA STREET","EL SEGUNDO","CA",90245,33.9170004530001,-118.40370927,254,"138 NEVADA STREET, EL SEGUNDO, CA, 90245","Match","Exact","138 NEVADA ST, EL SEGUNDO, CA, 90245",141580586,"R"
162755,"138 NEWLAND ST","MALDEN","MA",2148,42.424270689,-71.0461293659999,255,"138 NEWLAND ST, MALDEN, MA, 2148","Match","Exact","138 NEWLAND ST, MALDEN, MA, 02148",86873048,"L"
162756,"138 NEWTOWN TPK","WESTON","CT",6883,NA,NA,256,"138 NEWTOWN TPK, WESTON, CT, 6883","No_Match",NA,NA,NA,NA
162757,"138 NORTH BEAR LAKE RD","MUSKEGON","MI",49445,43.254986258,-86.293387087,257,"138 NORTH BEAR LAKE RD, MUSKEGON, MI, 49445","Match","Exact","138 N BEAR LAKE RD, MUSKEGON, MI, 49445",77666860,"R"
162758,"138 NORTH BYBEE","YERINGTON","NV",89447,39.062372527,-119.0511459,258,"138 NORTH BYBEE, YERINGTON, NV, 89447","Match","Non_Exact","138 N BYBEE LN, YERINGTON, NV, 89447",624504892,"R"
162759,"138 NORTH JAMESTOWN RD","MOON TWP","PA",15108,40.5329820850001,-80.209053919,259,"138 NORTH JAMESTOWN RD, MOON TWP, PA, 15108","Match","Exact","138 N JAMESTOWN RD, MOON TOWNSHIP, PA, 15108",51610253,"L"
162760,"138 NORTH ROCKBURN STREET","YORK","PA",17402,39.975766117,-76.689979955,260,"138 NORTH ROCKBURN STREET, YORK, PA, 17402","Match","Exact","138 N ROCKBURN ST, YORK, PA, 17402",88733153,"L"
162761,"138 NORTH ST","COAL GROVE","OH",45638,38.5002820190001,-82.643413283,261,"138 NORTH ST, COAL GROVE, OH, 45638","Match","Exact","138 NORTH ST, COAL GROVE, OH, 45638",639638915,"R"
162762,"138 NORTH STREET W","EAGLE BEND","MN",56446,46.1657639950001,-95.037067626,262,"138 NORTH STREET W, EAGLE BEND, MN, 56446","Match","Exact","138 NORTH ST W, EAGLE BEND, MN, 56446",201421279,"L"
162763,"138 NORWOOD AVE","ASHEVILLE","NC",28804,35.6159202590001,-82.550769461,263,"138 NORWOOD AVE, ASHEVILLE, NC, 28804","Match","Exact","138 NORWOOD AVE, ASHEVILLE, NC, 28804",36845017,"R"
162764,"138 NOTTINGHAM LANE","OCEAN PINES","MD",21811,38.3649666430001,-75.160965303,264,"138 NOTTINGHAM LANE, OCEAN PINES, MD, 21811","Match","Exact","138 NOTTINGHAM LN, OCEAN PNES, MD, 21811",114514582,"R"
162765,"138 NOVOSEL WAY","SPECULATOR","NY",12164,43.5089135480001,-74.35790286,265,"138 NOVOSEL WAY, SPECULATOR, NY, 12164","Match","Exact","138 NOVOSEL WAY, SPECULATOR, NY, 12164",153699085,"R"
162766,"138 OAK STREET","GENEVA","NY",14456,42.8711018930001,-76.990596361,266,"138 OAK STREET, GENEVA, NY, 14456","Match","Exact","138 OAK ST, GENEVA, NY, 14456",13469909,"L"
162767,"138 OAKGROVE AVE","BUFFALO","NY",14211,42.924120556,-78.846502873,267,"138 OAKGROVE AVE, BUFFALO, NY, 14211","Match","Non_Exact","138 OAKGROVE AVE, BUFFALO, NY, 14208",639744143,"L"
162768,"138 OAKMONT","SPRINGFIELD","IL",62704,39.7826089920001,-89.6996089309999,268,"138 OAKMONT, SPRINGFIELD, IL, 62704","Match","Non_Exact","138 OAKMONT DR, SPRINGFIELD, IL, 62704",97321989,"L"
162769,"138 OMBRE ROSE DRIVE","COMBINED LOCKS","WI",54113,44.26159491,-88.296188026,269,"138 OMBRE ROSE DRIVE, COMBINED LOCKS, WI, 54113","Match","Exact","138 OMBRE ROSE DR, COMBINED LOCKS, WI, 54113",74898258,"R"
162770,"138 ORCHARD PARK DR APT 304","DAVIS","CA",95616,38.5406621970001,-121.76399137,270,"138 ORCHARD PARK DR APT 304, DAVIS, CA, 95616","Match","Exact","138 ORCHARD PARK DR, DAVIS, CA, 95616",631777392,"L"
162771,"138 ORCHARD STREET","NEWBURGH","NY",12550,41.5061748410001,-74.036873812,271,"138 ORCHARD STREET, NEWBURGH, NY, 12550","Match","Exact","138 ORCHARD ST, NEWBURGH, NY, 12550",644430106,"L"
162772,"138 OVERLOOK DRIVE","HURRICANE","WV",25526,38.443105578,-82.000740547,272,"138 OVERLOOK DRIVE, HURRICANE, WV, 25526","Match","Exact","138 OVERLOOK DR, HURRICANE, WV, 25526",130525409,"R"
162773,"138 OXFORD LANE","SAN BRUNO","CA",94066,37.608074807,-122.429398907,273,"138 OXFORD LANE, SAN BRUNO, CA, 94066","Match","Exact","138 OXFORD LN, SAN BRUNO, CA, 94066",192384256,"R"
162774,"138 PALYASH DR","BEAVER FALLS","PA",15010,40.7647804320001,-80.419455055,274,"138 PALYASH DR, BEAVER FALLS, PA, 15010","Match","Exact","138 PALYASH DR, BEAVER FALLS, PA, 15010",52588205,"L"
162775,"138 PARK PLACE","SCHENECTADY","NY",12305,42.818791382,-73.934069031,275,"138 PARK PLACE, SCHENECTADY, NY, 12305","Match","Exact","138 PARK PL, SCHENECTADY, NY, 12305",18025747,"R"
162776,"138 PARKHILL AVE","MASSAPEQUA","NY",11758,40.682006071,-73.466365509,276,"138 PARKHILL AVE, MASSAPEQUA, NY, 11758","Match","Exact","138 PARKHILL AVE, MASSAPEQUA, NY, 11758",147651323,"R"
162777,"138 PARKRIDGE COURT","ROCKY MOUNT","NC",27804,35.9876226970001,-77.8346444649999,277,"138 PARKRIDGE COURT, ROCKY MOUNT, NC, 27804","Match","Exact","138 PARKRIDGE CT, ROCKY MOUNT, NC, 27804",604966088,"L"
162778,"138 PEACOCK ST","CLEBURNE","TX",76031,32.354125256,-97.380520962,278,"138 PEACOCK ST, CLEBURNE, TX, 76031","Match","Exact","138 PEACOCK ST, CLEBURNE, TX, 76031",103522313,"L"
162779,"138 PECAN COVE","JACKSON","MS",39212,32.2521495610001,-90.303049011,279,"138 PECAN COVE, JACKSON, MS, 39212","Match","Exact","138 PECAN COVE, JACKSON, MS, 39212",65367866,"R"
162780,"138 PELHAM ST UNIT 24","METHUEN","MA",1844,42.726758665,-71.1990495169999,280,"138 PELHAM ST UNIT 24, METHUEN, MA, 1844","Match","Exact","138 PELHAM ST, METHUEN, MA, 01844",86688906,"L"
162781,"138 PERSHING STREET NE","SAINT PETERSBURG","FL",33703,27.831291589,-82.634490769,281,"138 PERSHING STREET NE, SAINT PETERSBURG, FL, 33703","Match","Non_Exact","138 PERSHING ST NE, SAINT PETERSBURG, FL, 33702",124712020,"R"
162782,"138 PICKERING ST","BROOKVILLE","PA",15825,41.160091428,-79.07960783,282,"138 PICKERING ST, BROOKVILLE, PA, 15825","Match","Exact","138 PICKERING ST, BROOKVILLE, PA, 15825",66432044,"R"
162783,"138 PINE STREET","ALLPORT","PA",16821,40.965486029,-78.203925525,283,"138 PINE STREET, ALLPORT, PA, 16821","Match","Exact","138 PINE ST, ALLPORT, PA, 16821",50521390,"R"
162784,"138 PINE VALLEY ROAD","DOVER","DE",19904,39.176253015,-75.5736107879999,284,"138 PINE VALLEY ROAD, DOVER, DE, 19904","Match","Exact","138 PINE VALLEY RD, DOVER, DE, 19904",68087740,"R"
162785,"138 PLANTATION TRAIL","STATESBORO","GA",30458,32.420104816,-81.8336829369999,285,"138 PLANTATION TRAIL, STATESBORO, GA, 30458","Match","Exact","138 PLANTATION TRL, STATESBORO, GA, 30458",6128704,"R"
162786,"138 PLATT DRIVE","HAUGHTON","LA",71037,32.562672048,-93.5668117179999,286,"138 PLATT DRIVE, HAUGHTON, LA, 71037","Match","Exact","138 PLATT DR, HAUGHTON, LA, 71037",108525203,"L"
162787,"138 PLAZA DRIVE PLACE","WILKESBORO","NC",28697,36.099836209,-81.17219921,287,"138 PLAZA DRIVE PLACE, WILKESBORO, NC, 28697","Match","Exact","138 PLAZA DRIVE PL, WILKESBORO, NC, 28697",46151123,"R"
162788,"138 PR 1410","LIBERTY","TX",77575,NA,NA,288,"138 PR 1410, LIBERTY, TX, 77575","No_Match",NA,NA,NA,NA
162789,"138 PRAIRIE PARK LANE SE","YELM","WA",98597,NA,NA,289,"138 PRAIRIE PARK LANE SE, YELM, WA, 98597","No_Match",NA,NA,NA,NA
162790,"138 PRICHARD STREET","FITCHBURG","MA",1420,42.585712379,-71.8005005529999,290,"138 PRICHARD STREET, FITCHBURG, MA, 1420","Match","Exact","138 PRICHARD ST, FITCHBURG, MA, 01420",40027990,"R"
162791,"138 PRIVATE ROAD 4889","NEWARK","TX",76071,NA,NA,291,"138 PRIVATE ROAD 4889, NEWARK, TX, 76071","No_Match",NA,NA,NA,NA
162792,"138 PROVIDENCE AVE","CUT OFF","LA",70345,29.533267048,-90.349235227,292,"138 PROVIDENCE AVE, CUT OFF, LA, 70345","Match","Exact","138 PROVIDENCE AVE, CUT OFF, LA, 70345",639086346,"R"
162793,"138 PULASKI HIGHWAY","ANSONIA","CT",6401,41.330826852,-73.0457747029999,293,"138 PULASKI HIGHWAY, ANSONIA, CT, 6401","Match","Exact","138 PULASKI HWY, ANSONIA, CT, 06401",3735331,"L"
162794,"138 PUMPING STATION RD","HANOVER","PA",17331,39.7655423950001,-76.955528237,294,"138 PUMPING STATION RD, HANOVER, PA, 17331","Match","Exact","138 PUMPING STATION RD, HANOVER, PA, 17331",613721046,"L"
162795,"138 PURDY STREET","HIGHTSTOWN","NJ",8520,40.2729054100001,-74.523669179,295,"138 PURDY STREET, HIGHTSTOWN, NJ, 8520","Match","Exact","138 PURDY ST, HIGHTSTOWN, NJ, 08520",60201459,"R"
162796,"138 QUAIL ROAD","NEW LONDON","NH",3257,43.4016441540001,-71.9725380799999,296,"138 QUAIL ROAD, NEW LONDON, NH, 3257","Match","Non_Exact","138 QUAIL RUN, NEW LONDON, NH, 03257",117737328,"R"
162797,"138 QUINCY AVE","DEDHAM","MA",2026,42.2392686960001,-71.1512075699999,297,"138 QUINCY AVE, DEDHAM, MA, 2026","Match","Exact","138 QUINCY AVE, DEDHAM, MA, 02026",87246471,"L"
162798,"138 RATTLESNAKE HILL RD","ANDOVER","MA",1810,42.6123237640001,-71.143580083,298,"138 RATTLESNAKE HILL RD, ANDOVER, MA, 1810","Match","Exact","138 RATTLESNAKE HILL RD, ANDOVER, MA, 01810",86665879,"L"
162799,"138 RAUCH DR","SPRINGVILLE","NY",14141,42.5050845480001,-78.653295995,299,"138 RAUCH DR, SPRINGVILLE, NY, 14141","Match","Exact","138 RAUCH DR, SPRINGVILLE, NY, 14141",600390763,"L"
162800,"138 RC CREWS LANE","FOLKSTON","GA",31537,30.811003596,-81.996539602,300,"138 RC CREWS LANE, FOLKSTON, GA, 31537","Match","Non_Exact","138 R C CREWS RD, FOLKSTON, GA, 31537",16117963,"R"
162801,"138 READYS DR","LUCEDALE","MS",39452,30.9572111030001,-88.655036504,301,"138 READYS DR, LUCEDALE, MS, 39452","Match","Exact","138 READYS DR, LUCEDALE, MS, 39452",62282500,"R"
162802,"138 REID STREET","ROCK HILL","SC",29730,34.923967421,-81.021966339,302,"138 REID STREET, ROCK HILL, SC, 29730","Match","Exact","138 REID ST, ROCK HILL, SC, 29730",19792038,"R"
162803,"138 RICE AVE","NORTHBOROUGH","MA",1532,42.332802482,-71.630577718,303,"138 RICE AVE, NORTHBOROUGH, MA, 1532","Match","Exact","138 RICE AVE, NORTHBOROUGH, MA, 01532",40093201,"R"
162804,"138 RIDGEVIEW DRIVE EXT","GEORGIA","VT",5468,NA,NA,304,"138 RIDGEVIEW DRIVE EXT, GEORGIA, VT, 5468","No_Match",NA,NA,NA,NA
162805,"138 ROANOKE AVENUE","CUYAHOGA FALLS","OH",44221,41.1573526670001,-81.481709139,305,"138 ROANOKE AVENUE, CUYAHOGA FALLS, OH, 44221","Match","Exact","138 ROANOKE AVE, CUYAHOGA FALLS, OH, 44221",61348449,"R"
162806,"138 ROBINSON ST","GENOA","IL",60135,42.096447428,-88.683411898,306,"138 ROBINSON ST, GENOA, IL, 60135","Match","Exact","138 ROBINSON ST, GENOA, IL, 60135",52266323,"R"
162807,"138 ROCK CREEK DRIVE","CLIFTON","NJ",7014,NA,NA,307,"138 ROCK CREEK DRIVE, CLIFTON, NJ, 7014","No_Match",NA,NA,NA,NA
162808,"138 ROCKLAND ST","NEW BEDFORD","MA",2740,41.6223103940001,-70.929666873,308,"138 ROCKLAND ST, NEW BEDFORD, MA, 2740","Match","Exact","138 ROCKLAND ST, NEW BEDFORD, MA, 02740",46754608,"L"
162809,"138 ROCKLAND STREET","NEW BEDFORD","MA",2740,41.6223103940001,-70.929666873,309,"138 ROCKLAND STREET, NEW BEDFORD, MA, 2740","Match","Exact","138 ROCKLAND ST, NEW BEDFORD, MA, 02740",46754608,"L"
162810,"138 ROGERS MILL DRIVE","DUNCAN","SC",29334,34.894753081,-82.128460423,310,"138 ROGERS MILL DRIVE, DUNCAN, SC, 29334","Match","Non_Exact","138 ROGERS MILL RD, DUNCAN, SC, 29334",628037826,"R"
162811,"138 ROGERS ST","TEWKSBURY","MA",1876,42.6140373790001,-71.254429101,311,"138 ROGERS ST, TEWKSBURY, MA, 1876","Match","Exact","138 ROGERS ST, TEWKSBURY, MA, 01876",86926618,"L"
162812,"138 RON DE LE DRIVE","ARNOLD","MO",63010,38.4052347900001,-90.399499916,312,"138 RON DE LE DRIVE, ARNOLD, MO, 63010","Match","Exact","138 RON DE LE DR, ARNOLD, MO, 63010",647255021,"R"
162813,"138 ROYAL TROON DR SE","CORTLAND","OH",44410,NA,NA,313,"138 ROYAL TROON DR SE, CORTLAND, OH, 44410","No_Match",NA,NA,NA,NA
162814,"138 S 116TH LANE","AVONDALE","AZ",85323,33.446467496,-112.311106065,314,"138 S 116TH LANE, AVONDALE, AZ, 85323","Match","Exact","138 116TH LN, AVONDALE, AZ, 85323",128871093,"R"
162815,"138 S ARDMORE AVE","LOS ANGELES","CA",90004,34.072686364,-118.301664194,315,"138 S ARDMORE AVE, LOS ANGELES, CA, 90004","Match","Exact","138 S ARDMORE AVE, LOS ANGELES, CA, 90004",141603458,"L"
162816,"138 S BROAD ST","GLOBE","AZ",85501,33.396527443,-110.787465018,316,"138 S BROAD ST, GLOBE, AZ, 85501","Match","Non_Exact","138 N BROAD ST, GLOBE, AZ, 85501",159303750,"L"
162817,"138 S CASSADY AVE","BEXLEY","OH",43209,39.9668206810001,-82.933224491,317,"138 S CASSADY AVE, BEXLEY, OH, 43209","Match","Exact","138 S CASSADY AVE, BEXLEY, OH, 43209",135590605,"L"
162818,"138 S FRONT STREET","SOUDERTON","PA",18964,40.3082651230001,-75.318642692,318,"138 S FRONT STREET, SOUDERTON, PA, 18964","Match","Exact","138 S FRONT ST, SOUDERTON, PA, 18964",135132026,"L"
162819,"138 S MAIN ST","NEW LONDON","OH",44851,41.0815024410001,-82.3977658429999,319,"138 S MAIN ST, NEW LONDON, OH, 44851","Match","Exact","138 S MAIN ST, NEW LONDON, OH, 44851",12605258,"L"
162820,"138 S MUNN","EAST ORANGE","NJ",7018,40.7507300140001,-74.2146079939999,320,"138 S MUNN, EAST ORANGE, NJ, 7018","Match","Non_Exact","138 S MUNN AVE, EAST ORANGE, NJ, 07018",63456072,"L"
162821,"138 SAGEWOOD DR","THIBODAUX","LA",70301,29.7715137060001,-90.813290531,321,"138 SAGEWOOD DR, THIBODAUX, LA, 70301","Match","Exact","138 SAGEWOOD DR, THIBODAUX, LA, 70301",628132935,"L"
162822,"138 SAINT JOSEPH ST","TRENTON","MI",48183,42.1421434490001,-83.176844714,322,"138 SAINT JOSEPH ST, TRENTON, MI, 48183","Match","Exact","138 ST JOSEPH ST, TRENTON, MI, 48183",95458661,"R"
162823,"138 SAINT PAUL AVE SUITE E017","MEMPHIS","TN",38126,35.131618216,-90.057861611,323,"138 SAINT PAUL AVE SUITE E017, MEMPHIS, TN, 38126","Match","Exact","138 ST PAUL AVE, MEMPHIS, TN, 38126",652881592,"L"
162824,"138 SAINT PAUL AVE SUITE E107","MEMPHIS","TN",38126,35.131618216,-90.057861611,324,"138 SAINT PAUL AVE SUITE E107, MEMPHIS, TN, 38126","Match","Exact","138 ST PAUL AVE, MEMPHIS, TN, 38126",652881592,"L"
162825,"138 SAN PASCUAL AVENUE - 5","LOS ANGELES","CA",90042,34.1138369170001,-118.178685835,325,"138 SAN PASCUAL AVENUE - 5, LOS ANGELES, CA, 90042","Match","Non_Exact","138 N SAN PASCUAL AVE, LOS ANGELES, CA, 90042",141615414,"R"
162826,"138 SANDRA AVENUE","WILLOW GROVE","PA",19090,40.1500501690001,-75.138850127,326,"138 SANDRA AVENUE, WILLOW GROVE, PA, 19090","Match","Exact","138 SANDRA AVE, WILLOW GROVE, PA, 19090",135079268,"L"
162827,"138 SANDY GROVE ROAD","PARKTON","NC",28371,34.9198288600001,-79.05363037,327,"138 SANDY GROVE ROAD, PARKTON, NC, 28371","Match","Exact","138 SANDY GROVE RD, PARKTON, NC, 28371",633683532,"L"
162828,"138 SARATOAG AVE","SOUTH GLENS FALLS","OK",12803,NA,NA,328,"138 SARATOAG AVE, SOUTH GLENS FALLS, OK, 12803","No_Match",NA,NA,NA,NA
162829,"138 SCHUYLER ST","BOONVILLE","NY",13309,43.4836256780001,-75.338547623,329,"138 SCHUYLER ST, BOONVILLE, NY, 13309","Match","Exact","138 SCHUYLER ST, BOONVILLE, NY, 13309",171533882,"R"
162830,"138 SCOTTIE DR","CHARLES TOWN","WV",25414,39.2497114940001,-77.877383707,330,"138 SCOTTIE DR, CHARLES TOWN, WV, 25414","Match","Exact","138 SCOTTIE DR, CHARLES TOWN, WV, 25414",123437022,"L"
162831,"138 SEA GROVE MAIN ST 840038","ST AUGUSTINE BEACH","FL",32080,NA,NA,331,"138 SEA GROVE MAIN ST 840038, ST AUGUSTINE BEACH, FL, 32080","No_Match",NA,NA,NA,NA
162832,"138 SEA TRAIL","PALM COAST","FL",32164,29.4238158680001,-81.1765812419999,332,"138 SEA TRAIL, PALM COAST, FL, 32164","Match","Exact","138 SEA TRL, PALM COAST, FL, 32164",94961613,"L"
162833,"138 SEABISCUIT PLACE","EDGEWATER","MD",21037,38.91530304,-76.5703885199999,333,"138 SEABISCUIT PLACE, EDGEWATER, MD, 21037","Match","Exact","138 SEABISCUIT PL, EDGEWATER, MD, 21037",68206597,"R"
162834,"138 SEAGROVE MAIN STREET","ST AUGUSTINE","FL",32080,29.8455913880001,-81.2785673939999,334,"138 SEAGROVE MAIN STREET, ST AUGUSTINE, FL, 32080","Match","Non_Exact","138 SEA GROVE MAIN ST, SAINT AUGUSTINE, FL, 32080",639476805,"R"
162835,"138 SEELEY STREET APT 3C","BROOKLYN","NY",11218,40.654184833,-73.977313483,335,"138 SEELEY STREET APT 3C, BROOKLYN, NY, 11218","Match","Exact","138 SEELEY ST, BROOKLYN, NY, 11218",59078370,"R"
162836,"138 SHAKER HEIGHTS","CAMILLUS","NY",13031,43.0410216500001,-76.29714609,336,"138 SHAKER HEIGHTS, CAMILLUS, NY, 13031","Match","Exact","138 SHAKER HTS, CAMILLUS, NY, 13031",633883971,"R"
162837,"138 SHAMUS WAY","JEFFERSON","GA",30549,34.1017092340001,-83.678345075,337,"138 SHAMUS WAY, JEFFERSON, GA, 30549","Match","Exact","138 SHAMUS WAY, JEFFERSON, GA, 30549",619856860,"R"
162838,"138 SHAMUS","JEFFERSON","GA",30549,34.1017092340001,-83.678345075,338,"138 SHAMUS, JEFFERSON, GA, 30549","Match","Non_Exact","138 SHAMUS WAY, JEFFERSON, GA, 30549",619856860,"R"
162839,"138 SHANE DR","MINDEN","LA",71055,32.639624601,-93.312139136,339,"138 SHANE DR, MINDEN, LA, 71055","Match","Exact","138 SHANE DR, MINDEN, LA, 71055",73392446,"L"
162840,"138 SHELLCOVE RD","PASADENA","MD",21122,39.1575654810001,-76.508179936,340,"138 SHELLCOVE RD, PASADENA, MD, 21122","Match","Exact","138 SHELLCOVE RD, PASADENA, MD, 21122",68206741,"L"
162841,"138 SHORELINE COURT","ORIENTAL","NC",28571,35.0412167200001,-76.7114214059999,341,"138 SHORELINE COURT, ORIENTAL, NC, 28571","Match","Exact","138 SHORELINE CT, ORIENTAL, NC, 28571",67925521,"R"
162842,"138 SIEBERT ROAD","PITTSBURGH","PA",15237,40.5291724410001,-79.995705957,342,"138 SIEBERT ROAD, PITTSBURGH, PA, 15237","Match","Exact","138 SIEBERT RD, PITTSBURGH, PA, 15237",51711214,"R"
162843,"138 SO BEAR LAKE BLV PO BOX 88","GARDEN CITY","UT",84028,NA,NA,343,"138 SO BEAR LAKE BLV PO BOX 88, GARDEN CITY, UT, 84028","Tie",NA,NA,NA,NA
162844,"138 SOUTH 17TH PLACE","LA CROSSE","WI",54601,NA,NA,344,"138 SOUTH 17TH PLACE, LA CROSSE, WI, 54601","No_Match",NA,NA,NA,NA
162845,"138 SOUTH AVE","SWEDESBORO","NJ",8055,NA,NA,345,"138 SOUTH AVE, SWEDESBORO, NJ, 8055","No_Match",NA,NA,NA,NA
162846,"138 SOUTH BATTLEFIELD PLACE","MOUNTAIN HOME","AR",72653,36.29022775,-92.372395559,346,"138 SOUTH BATTLEFIELD PLACE, MOUNTAIN HOME, AR, 72653","Match","Exact","138 S BATTLEFIELD PL, MOUNTAIN HOME, AR, 72653",625112669,"R"
162847,"138 SOUTH BROADWAY BLVD","ELDORADO","AR",71730,33.233461424,-92.6726026649999,347,"138 SOUTH BROADWAY BLVD, ELDORADO, AR, 71730","Match","Non_Exact","138 S BROADWAY BLVD, EL DORADO, AR, 71730",28159524,"L"
162848,"138 SOUTH LYNN STREET","BRYAN","OH",43506,41.4740595210001,-84.552378824,348,"138 SOUTH LYNN STREET, BRYAN, OH, 43506","Match","Exact","138 S LYNN ST, BRYAN, OH, 43506",8324391,"L"
162849,"138 SOUTH MAIN STREET","WILKES BARRE","PA",18701,41.2433572950001,-75.886381781,349,"138 SOUTH MAIN STREET, WILKES BARRE, PA, 18701","Match","Exact","138 S MAIN ST, WILKES BARRE, PA, 18701",639560328,"L"
162850,"138 SOUTH VINE STREET","ST MARYS","OH",45885,40.545508694,-84.3804757729999,350,"138 SOUTH VINE STREET, ST MARYS, OH, 45885","Match","Exact","138 S VINE ST, SAINT MARYS, OH, 45885",36420483,"R"
162851,"138 SOUTHWINDS E","ALEXANDER CITY","AL",35010,32.7403020670001,-85.9071835519999,351,"138 SOUTHWINDS E, ALEXANDER CITY, AL, 35010","Match","Exact","138 SOUTHWINDS E, ALEX CITY, AL, 35010",635634182,"L"
162852,"138 SPLIT RAIL DRIVE","SOUTH CHARLESTON","WV",25309,38.2791658030001,-81.7682737809999,352,"138 SPLIT RAIL DRIVE, SOUTH CHARLESTON, WV, 25309","Match","Exact","138 SPLIT RAIL DR, S CHARLESTON, WV, 25309",78685031,"L"
162853,"138 SPRING ST","GARDINER","ME",4345,44.234674248,-69.780144561,353,"138 SPRING ST, GARDINER, ME, 4345","Match","Exact","138 SPRING ST, GARDINER, ME, 04345",75460904,"L"
162854,"138 SPRING STREEET","GARDINER","ME",4345,44.234674248,-69.780144561,354,"138 SPRING STREEET, GARDINER, ME, 4345","Match","Non_Exact","138 SPRING ST, GARDINER, ME, 04345",75460904,"L"
162855,"138 SPRINGWOOD DRIVE","ALLENTOWN","PA",18104,40.587463589,-75.53265871,355,"138 SPRINGWOOD DRIVE, ALLENTOWN, PA, 18104","Match","Non_Exact","138 SPRING WOOD DR, ALLENTOWN, PA, 18104",80827051,"L"
162856,"138 SQUIRREL TREE LANE","MOUNT LAUREL","NJ",8054,39.9888043400001,-74.864902145,356,"138 SQUIRREL TREE LANE, MOUNT LAUREL, NJ, 8054","Match","Exact","138 SQUIRREL TREE LN, MOUNT LAUREL, NJ, 08054",134032566,"R"
162857,"138 STAFFORD STREET","CHARLTON","MA",1507,NA,NA,357,"138 STAFFORD STREET, CHARLTON, MA, 1507","No_Match",NA,NA,NA,NA
162858,"138 STAGE DRIVE","SALTILLO","MS",39866,34.3739354640001,-88.704724302,358,"138 STAGE DRIVE, SALTILLO, MS, 39866","Match","Non_Exact","138 STAGE DR, SALTILLO, MS, 38866",636703995,"L"
162859,"138 STANTON ST","NEW YORK","NY",10002,40.720632403,-73.985762262,359,"138 STANTON ST, NEW YORK, NY, 10002","Match","Exact","138 STANTON ST, NEW YORK, NY, 10002",59654134,"L"
162860,"138 STEINBRIGHT DR","COLLEGEVILLE","PA",19426,40.168007211,-75.4161055169999,360,"138 STEINBRIGHT DR, COLLEGEVILLE, PA, 19426","Match","Exact","138 STEINBRIGHT DR, COLLEGEVILLE, PA, 19426",635655930,"L"
162861,"138 STEPHANIE DRIVE","KERRVILLE","TX",78028,30.068289991,-99.174883494,361,"138 STEPHANIE DRIVE, KERRVILLE, TX, 78028","Match","Exact","138 STEPHANIE DR, KERRVILLE, TX, 78028",176903339,"L"
162862,"138 STILLWATER","BILLINGS","MT",59105,45.82937044,-108.483650856,362,"138 STILLWATER, BILLINGS, MT, 59105","Match","Non_Exact","138 STILLWATER LN, BILLINGS, MT, 59105",181502132,"R"
162863,"138 STORRS RD","MANSFIELD","CT",6250,41.7362632470001,-72.1987743879999,363,"138 STORRS RD, MANSFIELD, CT, 6250","Match","Non_Exact","138 STORRS RD, MANSFIELD CTR, CT, 06250",56993486,"R"
162864,"138 STRAIT LANE","SIX MILE RUN","PA",16679,40.1480274240001,-78.226909744,364,"138 STRAIT LANE, SIX MILE RUN, PA, 16679","Match","Exact","138 STRAIT LN, SIX MILE RUN, PA, 16679",50207680,"R"
162865,"138 STRATFORD PL","LAKEWOOD","NJ",8701,40.106538245,-74.207243916,365,"138 STRATFORD PL, LAKEWOOD, NJ, 8701","Match","Exact","138 STRATFORD PL, LAKEWOOD, NJ, 08701",203811278,"L"
162866,"138 STUART AVE","SOUTHPORT","NC",28461,33.9302290690001,-78.011710253,366,"138 STUART AVE, SOUTHPORT, NC, 28461","Match","Exact","138 STUART AVE, SOUTHPORT, NC, 28461",651430943,"R"
162867,"138 SUNNYSIDE AVENUE","MILL VALLEY","CA",94941,37.906066072,-122.541901121,367,"138 SUNNYSIDE AVENUE, MILL VALLEY, CA, 94941","Match","Exact","138 SUNNYSIDE AVE, MILL VALLEY, CA, 94941",192766398,"R"
162868,"138 SUNRISE TERRACE","WASHINGTON","NJ",7882,40.76696794,-74.968100686,368,"138 SUNRISE TERRACE, WASHINGTON, NJ, 7882","Match","Exact","138 SUNRISE TER, WASHINGTON, NJ, 07882",98119254,"R"
162869,"138 SW 12TH AVENUE","DELRAY BEACH","FL",33444,26.459062805,-80.085322675,369,"138 SW 12TH AVENUE, DELRAY BEACH, FL, 33444","Match","Exact","138 SW 12TH AVE, DELRAY BEACH, FL, 33444",115290962,"R"
162870,"138 SYLVANIA ST","CENTRAL FAALS","RI",2863,41.891253428,-71.390749001,370,"138 SYLVANIA ST, CENTRAL FAALS, RI, 2863","Match","Non_Exact","138 SYLVIAN ST, CENTRAL FALLS, RI, 02863",47455599,"L"
162871,"138 TALL TIMBER DRIVE","GIBSONVIILLE","NC",27249,36.0864005130001,-79.538089825,371,"138 TALL TIMBER DRIVE, GIBSONVIILLE, NC, 27249","Match","Non_Exact","138 TALL TIMBER DR, GIBSONVILLE, NC, 27249",648258953,"L"
162872,"138 TALL TIMBER DRIVE","GIBSONVILLE","NC",27249,36.0864005130001,-79.538089825,372,"138 TALL TIMBER DRIVE, GIBSONVILLE, NC, 27249","Match","Exact","138 TALL TIMBER DR, GIBSONVILLE, NC, 27249",648258953,"L"
162873,"138 TAYLOR RD","GALLIPOLIS","OH",45631,38.7801866120001,-82.3460127769999,373,"138 TAYLOR RD, GALLIPOLIS, OH, 45631","Match","Exact","138 TAYLOR RD, GALLIPOLIS, OH, 45631",54959337,"L"
162874,"138 TERRACE AVE","KENTFIELD","CA",94904,37.9553455660001,-122.54364866,374,"138 TERRACE AVE, KENTFIELD, CA, 94904","Match","Exact","138 TERRACE AVE, KENTFIELD, CA, 94904",605781637,"R"
162875,"138 THOREAU DR","PLAINSBORO","NJ",8536,40.325510536,-74.568950845,375,"138 THOREAU DR, PLAINSBORO, NJ, 8536","Match","Exact","138 THOREAU DR, PLAINSBORO, NJ, 08536",60362872,"L"
162876,"138 THOREAU DRIVE","PLAINSBORO","NJ",8536,40.325510536,-74.568950845,376,"138 THOREAU DRIVE, PLAINSBORO, NJ, 8536","Match","Exact","138 THOREAU DR, PLAINSBORO, NJ, 08536",60362872,"L"
162877,"138 TOWER DRIVE","STATESVILLE","NC",28677,35.758094041,-80.93450057,377,"138 TOWER DRIVE, STATESVILLE, NC, 28677","Match","Exact","138 TOWER DR, STATESVILLE, NC, 28677",45999334,"R"
162878,"138 TOWER RD","NEW RINGGOLD","PA",17960,40.7315053570001,-75.884021767,378,"138 TOWER RD, NEW RINGGOLD, PA, 17960","Match","Exact","138 TOWER RD, NEW RINGGOLD, PA, 17960",70979650,"R"
162879,"138 TOWNSEND ST","PEPPERELL","MA",1463,42.6538701200001,-71.625849607,379,"138 TOWNSEND ST, PEPPERELL, MA, 1463","Match","Exact","138 TOWNSEND ST, PEPPERELL, MA, 01463",638523844,"R"
162880,"138 TRACTION STREET","GREENVILLE","SC",29611,34.8438441820001,-82.4250750589999,380,"138 TRACTION STREET, GREENVILLE, SC, 29611","Match","Exact","138 TRACTION ST, GREENVILLE, SC, 29611",648664962,"L"
162881,"138 TROPICAL FISH ROAD","CANAAN","ME",4924,44.774554913,-69.520250635,381,"138 TROPICAL FISH ROAD, CANAAN, ME, 4924","Match","Exact","138 TROPICAL FISH RD, CANAAN, ME, 04924",124171694,"R"
162882,"138 TROUT RUN MEWS WEST","MEDIA","PA",19063,39.946544223,-75.3768047,382,"138 TROUT RUN MEWS WEST, MEDIA, PA, 19063","Match","Exact","138 TROUT RUN MEWS W, MEDIA, PA, 19063",134892798,"R"
162883,"138 TWIN OAKS ROAD","LOUISA","VA",23093,37.9330755980001,-77.992242486,383,"138 TWIN OAKS ROAD, LOUISA, VA, 23093","Match","Exact","138 TWIN OAKS RD, LOUISA, VA, 23093",84922019,"R"
162884,"138 UNION STREET","DEEP RIVER","CT",6417,41.3865379980001,-72.442668025,384,"138 UNION STREET, DEEP RIVER, CT, 6417","Match","Exact","138 UNION ST, DEEP RIVER, CT, 06417",113881445,"R"
162885,"138 VALLEY STREET","NEW HAVEN","CT",6515,41.3302835760001,-72.962658538,385,"138 VALLEY STREET, NEW HAVEN, CT, 6515","Match","Exact","138 VALLEY ST, NEW HAVEN, CT, 06515",3744477,"L"
162886,"138 VANN DRIVE","ASHFORD","AL",36312,31.1944804010001,-85.2375201259999,386,"138 VANN DRIVE, ASHFORD, AL, 36312","Match","Exact","138 VANN DR, ASHFORD, AL, 36312",101219159,"R"
162887,"138 VERNON ROAD","SCITUATE","MA",2066,42.189629138,-70.7870101829999,387,"138 VERNON ROAD, SCITUATE, MA, 2066","Match","Exact","138 VERNON RD, SCITUATE, MA, 02066",87432389,"R"
162888,"138 VILLERE DRIVE","DESTREHAN","LA",70047,29.9772977490001,-90.375051141,388,"138 VILLERE DRIVE, DESTREHAN, LA, 70047","Match","Non_Exact","138 VILLERE PL, DESTREHAN, LA, 70047",93634484,"R"
162889,"138 VINEYARD ROAD","HAMDEN","CT",6517,41.3607719720001,-72.8917332839999,389,"138 VINEYARD ROAD, HAMDEN, CT, 6517","Match","Exact","138 VINEYARD RD, HAMDEN, CT, 06517",3702751,"L"
162890,"138 W 132ND STREET","NEW YORK","NY",10027,40.8127368040001,-73.943545639,390,"138 W 132ND STREET, NEW YORK, NY, 10027","Match","Exact","138 W 132ND ST, NEW YORK, NY, 10027",642471676,"L"
162891,"138 W 28TH","MERCED","CA",95340,37.310422691,-120.471637678,391,"138 W 28TH, MERCED, CA, 95340","Match","Non_Exact","138 W 28TH ST, MERCED, CA, 95340",125281941,"L"
162892,"138 W 2ND AVE UNIT 2","DENVER","CO",80223,39.7193480240001,-104.989858121,392,"138 W 2ND AVE UNIT 2, DENVER, CO, 80223","Match","Non_Exact","138 W 2ND AVE, DENVER, CO, 80223",177330715,"L"
162893,"138 W 5TH ST","ZUMBROTA","MN",55992,44.2924173590001,-92.670731781,393,"138 W 5TH ST, ZUMBROTA, MN, 55992","Match","Exact","138 W 5TH ST, ZUMBROTA, MN, 55992",31546355,"R"
162894,"138 W 7TH ST","LEADVILLE","CO",80461,39.249361149,-106.293115341,394,"138 W 7TH ST, LEADVILLE, CO, 80461","Match","Exact","138 W 7TH ST, LEADVILLE, CO, 80461",105936428,"L"
162895,"138 W AUGUSTA LANE","SLIDELL","LA",70458,30.2376181930001,-89.788783066,395,"138 W AUGUSTA LANE, SLIDELL, LA, 70458","Match","Exact","138 W AUGUSTA LN, SLIDELL, LA, 70458",647949196,"R"
162896,"138 W C ST","BENICIA","CA",94510,38.0464102120001,-122.161340883,396,"138 W C ST, BENICIA, CA, 94510","Match","Exact","138 W C ST, BENICIA, CA, 94510",192530724,"R"
162897,"138 W DOUBLEGATE DRIVE","ALBANY","GA",31721,31.6322359230001,-84.259307221,397,"138 W DOUBLEGATE DRIVE, ALBANY, GA, 31721","Match","Exact","138 W DOUBLEGATE DR, ALBANY, GA, 31721",652436668,"L"
162898,"138 W HEATHER RD","BEL AIR","MD",21014,39.5177132210001,-76.341997492,398,"138 W HEATHER RD, BEL AIR, MD, 21014","Match","Exact","138 W HEATHER RD, BEL AIR, MD, 21014",191659672,"R"
162899,"138 W HWY N","WENTZVILLE","MO",63385,38.7755236200001,-90.868599309,399,"138 W HWY N, WENTZVILLE, MO, 63385","Match","Exact","138 W HWY N, WENTZVILLE, MO, 63385",645657643,"R"
162900,"138 W YALE LOOP","IRVINE","CA",92604,33.6875318350001,-117.80152488,400,"138 W YALE LOOP, IRVINE, CA, 92604","Match","Exact","138 W YALE LOOP, IRVINE, CA, 92604",144059790,"R"
162901,"138 WADE DRIVE NE","CALHOUN","GA",30701,34.5277015450001,-84.856474407,401,"138 WADE DRIVE NE, CALHOUN, GA, 30701","Match","Exact","138 WADE DR NE, CALHOUN, GA, 30701",57332008,"R"
162902,"138 WAGON WAY","CEDAR CREEK","TX",78602,30.139703728,-97.416791229,402,"138 WAGON WAY, CEDAR CREEK, TX, 78602","Match","Non_Exact","138 WAGON WAY, BASTROP, TX, 78602",624922000,"R"
162903,"138 WAGONWHEEL","WYLIE","TX",75098,32.9716153910001,-96.5281976539999,403,"138 WAGONWHEEL, WYLIE, TX, 75098","Match","Non_Exact","138 WAGONWHEEL LN, WYLIE, TX, 75098",103257986,"L"
162904,"138 WALL DR","SPARTANBURG","SC",29301,34.9060336850001,-82.052593133,404,"138 WALL DR, SPARTANBURG, SC, 29301","Match","Exact","138 WALL DR, SPARTANBURG, SC, 29301",19485483,"L"
162905,"138 WALNUT MANOR A1","MONTCLAIR","NJ",7042,40.8182456650001,-74.21309963,405,"138 WALNUT MANOR A1, MONTCLAIR, NJ, 7042","Match","Non_Exact","138 WALNUT ST, MONTCLAIR, NJ, 07042",63448260,"R"
162906,"138 WARWICK ROAD","PAWTUCKET","RI",2861,41.879420845,-71.348449449,406,"138 WARWICK ROAD, PAWTUCKET, RI, 2861","Match","Exact","138 WARWICK RD, PAWTUCKET, RI, 02861",47469308,"L"
162907,"138 WASHINGTON ST","LONG BRANCH","NJ",7740,40.3046696640001,-74.000894745,407,"138 WASHINGTON ST, LONG BRANCH, NJ, 7740","Match","Exact","138 WASHINGTON ST, LONG BRANCH, NJ, 07740",90460405,"L"
162908,"138 WATT ST","CIRCLEVILLE","OH",43113,39.602685174,-82.943418396,408,"138 WATT ST, CIRCLEVILLE, OH, 43113","Match","Exact","138 WATT ST, CIRCLEVILLE, OH, 43113",37447270,"R"
162909,"138 WELCHMAN AVE","GOOSE CREEK","SC",29445,32.9996969640001,-80.075796956,409,"138 WELCHMAN AVE, GOOSE CREEK, SC, 29445","Match","Exact","138 WELCHMAN AVE, GOOSE CREEK, SC, 29445",638900237,"R"
162910,"138 WESAUKING DRIVE","TOWANDA","PA",18848,41.805228314,-76.400541123,410,"138 WESAUKING DRIVE, TOWANDA, PA, 18848","Match","Exact","138 WESAUKING DR, TOWANDA, PA, 18848",651836895,"R"
162911,"138 WEST 121ST STREET","NEW YORK","NY",10027,40.8056963770001,-73.948508138,411,"138 WEST 121ST STREET, NEW YORK, NY, 10027","Match","Exact","138 W 121ST ST, NEW YORK, NY, 10027",59657726,"L"
162912,"138 WEST 25TH STREET","NY","NY",10001,40.744668834,-73.9930251219999,412,"138 WEST 25TH STREET, NY, NY, 10001","Match","Exact","138 W 25TH ST, NEW YORK, NY, 10001",59653401,"L"
162913,"138 WEST 78TH STREET","CUT OFF","LA",70345,29.515290491,-90.335116165,413,"138 WEST 78TH STREET, CUT OFF, LA, 70345","Match","Exact","138 W 78TH ST, CUT OFF, LA, 70345",92339192,"L"
162914,"138 WEST BRAEWOOD DRIVE","COPPELL","TX",75019,32.9666396810001,-96.99578931,414,"138 WEST BRAEWOOD DRIVE, COPPELL, TX, 75019","Match","Exact","138 W BRAEWOOD DR, COPPELL, TX, 75019",627180601,"R"
162915,"138 WEST CASCADE ST","LA VETA","CO",81055,37.502500755,-105.010407269,415,"138 WEST CASCADE ST, LA VETA, CO, 81055","Match","Exact","138 W CASCADE ST, LA VETA, CO, 81055",607512927,"R"
162916,"138 WEST POMONA STREET","PHILADEPHIA","PA",19144,40.0420544150001,-75.1830837209999,416,"138 WEST POMONA STREET, PHILADEPHIA, PA, 19144","Match","Non_Exact","138 W POMONA ST, PHILADELPHIA, PA, 19144",131395438,"L"
162917,"138 WEST SEMPLE ROAD","WILLIAMSBURG","VA",23185,37.2689959200001,-76.670956782,417,"138 WEST SEMPLE ROAD, WILLIAMSBURG, VA, 23185","Match","Exact","138 W SEMPLE RD, WILLIAMSBURG, VA, 23185",223120951,"L"
162918,"138 WEST UNDERWOOD ST","CLEVELAND","GA",30528,34.5952655400001,-83.765507368,418,"138 WEST UNDERWOOD ST, CLEVELAND, GA, 30528","Match","Exact","138 W UNDERWOOD ST, CLEVELAND, GA, 30528",89031880,"R"
162919,"138 WEXFORD STREET","BRENTWOOD","CA",94513,37.923485715,-121.691225997,419,"138 WEXFORD STREET, BRENTWOOD, CA, 94513","Match","Exact","138 WEXFORD ST, BRENTWOOD, CA, 94513",192111414,"L"
162920,"138 WEYBRIDGE CIR","ROYAL PLM BCH","FL",33411,26.705589779,-80.234948865,420,"138 WEYBRIDGE CIR, ROYAL PLM BCH, FL, 33411","Match","Exact","138 WEYBRIDGE CIR, ROYAL PLM BCH, FL, 33411",115264837,"R"
162921,"138 WHITE AVENUE","OZARK","AL",36360,31.4539972060001,-85.6324913609999,421,"138 WHITE AVENUE, OZARK, AL, 36360","Match","Exact","138 WHITE AVE, OZARK, AL, 36360",99597205,"L"
162922,"138 WHITE BLOSSOM DR","SHEPHERDSVILLE","KY",40165,37.9706893700001,-85.7303949449999,422,"138 WHITE BLOSSOM DR, SHEPHERDSVILLE, KY, 40165","Match","Exact","138 WHITE BLOSSOM DR, SHEPHERDSVILLE, KY, 40165",614118533,"R"
162923,"138 WHITE OAK STREET","WALHALLA","SC",29691,34.777326069,-83.055236615,423,"138 WHITE OAK STREET, WALHALLA, SC, 29691","Match","Exact","138 WHITE OAK ST, WALHALLA, SC, 29691",25672502,"R"
162924,"138 WHITE ROCK DRIVE","MONTPELIER","VT",5602,44.3004060050001,-72.561530701,424,"138 WHITE ROCK DRIVE, MONTPELIER, VT, 5602","Match","Exact","138 WHITE ROCK DR, MONTPELIER, VT, 05602",637398038,"R"
162925,"138 WHITEHAVEN CIRCLE","HIGHLANDS RANCH","CO",80129,39.530025046,-104.989524255,425,"138 WHITEHAVEN CIRCLE, HIGHLANDS RANCH, CO, 80129","Match","Exact","138 WHITEHAVEN CIR, HIGHLANDS RANCH, CO, 80129",631024327,"R"
162926,"138 WILCOX ST","NEW BRITAIN","CT",6051,41.680419633,-72.777223406,426,"138 WILCOX ST, NEW BRITAIN, CT, 6051","Match","Exact","138 WILCOX ST, NEW BRITAIN, CT, 06051",3510119,"L"
162927,"138 WILIMINGTON RD","BURLINGTON","MA",1803,42.537709299,-71.201804543,427,"138 WILIMINGTON RD, BURLINGTON, MA, 1803","Match","Non_Exact","138 WILMINGTON RD, BURLINGTON, MA, 01803",86905110,"L"
162928,"138 WINCHESTER COURT","STATE COLLEGE","PA",16801,40.77734703,-77.849213619,428,"138 WINCHESTER COURT, STATE COLLEGE, PA, 16801","Match","Exact","138 WINCHESTER CT, STATE COLLEGE, PA, 16801",634168936,"R"
162929,"138 WINDRIDGE ROAD","VALPARAISO","IN",46385,41.4541298280001,-87.098869472,429,"138 WINDRIDGE ROAD, VALPARAISO, IN, 46385","Match","Exact","138 WINDRIDGE RD, VALPARAISO, IN, 46385",606978763,"L"
162930,"138 WINDSWEPT LANE","HOHENWALD","TN",38462,35.572472287,-87.472290565,430,"138 WINDSWEPT LANE, HOHENWALD, TN, 38462","Match","Exact","138 WINDSWEPT LN, HOHENWALD, TN, 38462",26753247,"R"
162931,"138 WINSTON CHURCHILL AVE PMB 733","SAN JUAN","PR",926,NA,NA,431,"138 WINSTON CHURCHILL AVE PMB 733, SAN JUAN, PR, 926","No_Match",NA,NA,NA,NA
162932,"138 WINWARD DRIVE","DOUGLAS","GA",31535,NA,NA,432,"138 WINWARD DRIVE, DOUGLAS, GA, 31535","No_Match",NA,NA,NA,NA
162933,"138 WIRE MILL ROAD","STAMFORD","CT",6903,41.103875686,-73.5604217549999,433,"138 WIRE MILL ROAD, STAMFORD, CT, 6903","Match","Exact","138 WIRE MILL RD, STAMFORD, CT, 06903",3242221,"L"
162934,"138 WOOD DRIVE","ALBANY","GA",31701,31.6311802660001,-84.11193521,434,"138 WOOD DRIVE, ALBANY, GA, 31701","Match","Exact","138 WOOD DR, ALBANY, GA, 31701",639679863,"L"
162935,"138 WOODBERRY PLACE","MADISON","MS",39110,32.4331473550001,-90.087684768,435,"138 WOODBERRY PLACE, MADISON, MS, 39110","Match","Exact","138 WOODBERRY PL, MADISON, MS, 39110",152491431,"L"
162936,"138 WOODLAND DRIVE N","NEVIS","MN",56467,NA,NA,436,"138 WOODLAND DRIVE N, NEVIS, MN, 56467","No_Match",NA,NA,NA,NA
162937,"138 WOODLAND RD","FREDERICKSBURG","VA",22401,38.298878963,-77.487981399,437,"138 WOODLAND RD, FREDERICKSBURG, VA, 22401","Match","Exact","138 WOODLAND RD, FREDERICKSBURG, VA, 22401",85005400,"R"
162938,"138 WOODMONT ROAD","HOPEWELL JUNCTION","NY",12533,41.5122397230001,-73.7795172529999,438,"138 WOODMONT ROAD, HOPEWELL JUNCTION, NY, 12533","Match","Exact","138 WOODMONT RD, HOPEWELL JCT, NY, 12533",4198111,"R"
162939,"138 YALE AVENUE","SALT LAKE CITY","UT",84111,40.7453880910001,-111.887052902,439,"138 YALE AVENUE, SALT LAKE CITY, UT, 84111","Match","Exact","138 YALE AVE, SALT LAKE CITY, UT, 84111",176078157,"R"
162940,"138-01 101 AVENUE","JAMAICA","NY",11435,40.6942689530001,-73.810829853,440,"138-01 101 AVENUE, JAMAICA, NY, 11435","Match","Exact","138-01 101ST AVE, JAMAICA, NY, 11435",59713248,"L"
162941,"138-02 QUEENS BLVD","BRIARWOOD","NY",11435,40.708694388,-73.8186814269999,441,"138-02 QUEENS BLVD, BRIARWOOD, NY, 11435","Match","Exact","138-2 QUEENS BLVD, BRIARWOOD, NY, 11435",59710544,"R"
162942,"138-03 78TH ROAD","FLUSHING","NY",11367,40.7188778990001,-73.823238228,442,"138-03 78TH ROAD, FLUSHING, NY, 11367","Match","Exact","138-3 78TH RD, FLUSHING, NY, 11367",59710258,"L"
162943,"138-05 FOCH BLVD","JAMAICA","NY",11436,40.677867135,-73.802582725,443,"138-05 FOCH BLVD, JAMAICA, NY, 11436","Match","Exact","138-5 FOCH BLVD, JAMAICA, NY, 11436",59715119,"L"
162944,"138-06 35TH AVE 2B","FLUSHING","NY",11354,40.765125185,-73.828897709,444,"138-06 35TH AVE 2B, FLUSHING, NY, 11354","Match","Exact","138-6 35TH AVE, FLUSHING, NY, 11354",59701039,"R"
162945,"138-09 231 STREET","LAURELTON","NY",11413,40.6702378200001,-73.741891261,445,"138-09 231 STREET, LAURELTON, NY, 11413","Match","Exact","138-9 231ST ST, LAURELTON, NY, 11413",59721304,"L"
162946,"138-10 FRANKLIN AVENUE APT 12A","FLUSHING","NY",11355,40.754668204,-73.82673734,446,"138-10 FRANKLIN AVENUE APT 12A, FLUSHING, NY, 11355","Match","Exact","138-10 FRANKLIN AVE, FLUSHING, NY, 11355",635788253,"R"
162947,"138-10 FRANKLYN AVE","FLUSHING","NY",11355,40.754668204,-73.82673734,447,"138-10 FRANKLYN AVE, FLUSHING, NY, 11355","Match","Non_Exact","138 FRANKLIN AVE, FLUSHING, NY, 11355",635788253,"R"
162948,"138-10 LINDEN BLVD","QUEENS","NY",11436,40.683132877,-73.8050442059999,448,"138-10 LINDEN BLVD, QUEENS, NY, 11436","Match","Non_Exact","138 LINDEN BLVD, JAMAICA, NY, 11436",59713551,"R"
162949,"138-14 97TH AVENUE","JAMAICA QUEENS","CA",11435,NA,NA,449,"138-14 97TH AVENUE, JAMAICA QUEENS, CA, 11435","No_Match",NA,NA,NA,NA
162950,"138-14 97TH AVENUE","JAMAICA","NY",11435,40.6955828370001,-73.811073847,450,"138-14 97TH AVENUE, JAMAICA, NY, 11435","Match","Exact","138-14 97TH AVE, JAMAICA, NY, 11435",59713119,"R"
162951,"138-16 59TH AVENUE","FLUSHING","NY",11355,40.7440021940001,-73.827127654,451,"138-16 59TH AVENUE, FLUSHING, NY, 11355","Match","Exact","138-16 59TH AVE, FLUSHING, NY, 11355",59709651,"R"
162952,"138-162 MARTIN LUTHER KING JR BLVD","NEWARK","NJ",7104,NA,NA,452,"138-162 MARTIN LUTHER KING JR BLVD, NEWARK, NJ, 7104","Tie",NA,NA,NA,NA
162953,"138-18  228 STREET","LAURELTON","NY",11413,40.671369031,-73.74549934,453,"138-18  228 STREET, LAURELTON, NY, 11413","Match","Exact","138-18 228TH ST, LAURELTON, NY, 11413",59721276,"R"
162954,"138-19 224TH STREET","LAURELTON","NY",11413,40.672493935,-73.749083135,454,"138-19 224TH STREET, LAURELTON, NY, 11413","Match","Exact","138-19 224TH ST, LAURELTON, NY, 11413",59721150,"L"
162955,"138-20 CANEY LANE","ROSEDALE","NY",11422,40.6628207750001,-73.729512818,455,"138-20 CANEY LANE, ROSEDALE, NY, 11422","Match","Exact","138-20 CANEY LN, ROSEDALE, NY, 11422",59721953,"R"
162956,"138-23 223RD STREET","LAURELTON","NY",11423,NA,NA,456,"138-23 223RD STREET, LAURELTON, NY, 11423","No_Match",NA,NA,NA,NA
162957,"138-29 82 DR  2FL","JAMAICA","NY",11435,40.713635122,-73.8198316739999,457,"138-29 82 DR  2FL, JAMAICA, NY, 11435","Match","Exact","138-29 82ND DR, JAMAICA, NY, 11435",59710502,"L"
162958,"138-35 223RD STREET","LAURELTON","NY",11423,40.6727543270001,-73.749979282,458,"138-35 223RD STREET, LAURELTON, NY, 11423","Match","Non_Exact","138 223RD ST, LAURELTON, NY, 11413",59721124,"L"
162959,"138-35 JEWEL AVE 2 C","FLUSHING","NY",11367,40.729087958,-73.8267892499999,459,"138-35 JEWEL AVE 2 C, FLUSHING, NY, 11367","Match","Exact","138-35 JEWEL AVE, FLUSHING, NY, 11367",59710216,"L"
162960,"138-41 97TH AVE","JAMAICA","NY",11435,40.69574634,-73.810539591,460,"138-41 97TH AVE, JAMAICA, NY, 11435","Match","Exact","138-41 97TH AVE, JAMAICA, NY, 11435",59713235,"L"
162961,"138-44 QUEENS BLVD STE C409","BRIARWOOD","NY",11435,40.708094487,-73.8180953839999,461,"138-44 QUEENS BLVD STE C409, BRIARWOOD, NY, 11435","Match","Exact","138-44 QUEENS BLVD, BRIARWOOD, NY, 11435",59710544,"R"
162962,"138-44 QUEENS BLVD SUITE C102","BRIARWOOD","NY",11435,40.708094487,-73.8180953839999,462,"138-44 QUEENS BLVD SUITE C102, BRIARWOOD, NY, 11435","Match","Exact","138-44 QUEENS BLVD, BRIARWOOD, NY, 11435",59710544,"R"
162963,"138-46 223RD STREET","LAURELTON","NY",11422,40.6723773630001,-73.750220441,463,"138-46 223RD STREET, LAURELTON, NY, 11422","Match","Non_Exact","138 223RD ST, LAURELTON, NY, 11413",59721124,"R"
162964,"138-47 68TH DRIVE","FLUSHING","NY",11367,40.731099843,-73.827677716,464,"138-47 68TH DRIVE, FLUSHING, NY, 11367","Match","Exact","138-47 68TH DR, FLUSHING, NY, 11367",59709815,"L"
162965,"138-49 77TH AVENUE","FLUSHING","NY",11367,NA,NA,465,"138-49 77TH AVENUE, FLUSHING, NY, 11367","Tie",NA,NA,NA,NA
162966,"138-49 BARCLAY AVE UNIT 3C","FLUSHING","NY",11355,40.758293603,-73.8269869809999,466,"138-49 BARCLAY AVE UNIT 3C, FLUSHING, NY, 11355","Match","Exact","138-49 BARCLAY AVE, FLUSHING, NY, 11355",59732074,"L"
162967,"138-59 231 STREET","LAURELTON","NY",11413,40.6695142400001,-73.7423443599999,467,"138-59 231 STREET, LAURELTON, NY, 11413","Match","Exact","138-59 231ST ST, LAURELTON, NY, 11413",59721304,"L"
162968,"138-60 227TH STREET","LAURELTON","NY",11413,40.6710818760001,-73.746765259,468,"138-60 227TH STREET, LAURELTON, NY, 11413","Match","Exact","138-60 227TH ST, LAURELTON, NY, 11413",59721242,"R"
162969,"138-70 ELDER AVE 7R","FLUSHING","NY",11355,40.7528943830001,-73.8223888809999,469,"138-70 ELDER AVE 7R, FLUSHING, NY, 11355","Match","Exact","138-70 ELDER AVE, FLUSHING, NY, 11355",612459127,"R"
162970,"138","BLOOMINGDALE","OH",43910,NA,NA,470,"138, BLOOMINGDALE, OH, 43910","No_Match",NA,NA,NA,NA
162971,"138","BRIARWOOD","NY",11435,NA,NA,471,"138, BRIARWOOD, NY, 11435","No_Match",NA,NA,NA,NA
162972,"138","DOWELL","MD",20629,NA,NA,472,"138, DOWELL, MD, 20629","No_Match",NA,NA,NA,NA
162973,"1380 11TH LANE FI","FOX ISLAND","WA",98333,NA,NA,473,"1380 11TH LANE FI, FOX ISLAND, WA, 98333","No_Match",NA,NA,NA,NA
162974,"1380 190TH ST","ROCKFORD","IA",50468,43.0828641480001,-92.947331377,474,"1380 190TH ST, ROCKFORD, IA, 50468","Match","Exact","1380 190TH ST, ROCKFORD, IA, 50468",7341044,"L"
162975,"1380 190TH STREET","ROCKFORD","IA",50468,43.0828641480001,-92.947331377,475,"1380 190TH STREET, ROCKFORD, IA, 50468","Match","Exact","1380 190TH ST, ROCKFORD, IA, 50468",7341044,"L"
162976,"1380 1ST AVE APT 2C","NEW YORK","NY",10021,NA,NA,476,"1380 1ST AVE APT 2C, NEW YORK, NY, 10021","No_Match",NA,NA,NA,NA
162977,"1380 60TH STREET","CEDAR RAPIDS","IA",52402,42.03813051,-91.657195163,477,"1380 60TH STREET, CEDAR RAPIDS, IA, 52402","Match","Non_Exact","1380 60TH ST NE, CEDAR RAPIDS, IA, 52402",17038968,"L"
162978,"1380 7TH ST NW -APT 7","NEW BRIGHTEN","MN",55112,45.061012497,-93.205147027,478,"1380 7TH ST NW -APT 7, NEW BRIGHTEN, MN, 55112","Match","Non_Exact","1380 7TH ST NW, NEW BRIGHTON, MN, 55112",619844114,"R"
162979,"1380 84TH ST SE","BYRON CENTER","MI",49315,42.811802662,-85.629567612,479,"1380 84TH ST SE, BYRON CENTER, MI, 49315","Match","Exact","1380 84TH ST SE, BYRON CENTER, MI, 49315",12479548,"R"
162980,"1380 ABBOT WAY","DELAND","FL",32724,NA,NA,480,"1380 ABBOT WAY, DELAND, FL, 32724","No_Match",NA,NA,NA,NA
162981,"1380 AGNEW STREET","SIMI VALLEY","CA",93065,34.27824041,-118.7726477,481,"1380 AGNEW STREET, SIMI VALLEY, CA, 93065","Match","Exact","1380 AGNEW ST, SIMI VALLEY, CA, 93065",110014530,"R"
162982,"1380 ANNANDALE DR","NASHVILLE","IN",47448,39.217635747,-86.266105693,482,"1380 ANNANDALE DR, NASHVILLE, IN, 47448","Match","Exact","1380 ANNANDALE DR, NASHVILLE, IN, 47448",43529195,"L"
162983,"1380 AROOSTOOK ROAD","WALLAGRASS","ME",4781,47.1661878800001,-68.596615313,483,"1380 AROOSTOOK ROAD, WALLAGRASS, ME, 4781","Match","Exact","1380 AROOSTOOK RD, WALLAGRASS, ME, 04781",624361025,"R"
162984,"1380 AUDUBON COURT","ATLANTA","GA",30311,33.721797592,-84.4702693849999,484,"1380 AUDUBON COURT, ATLANTA, GA, 30311","Match","Exact","1380 AUDUBON CT, ATLANTA, GA, 30311",618350079,"R"
162985,"1380 AURORA AVE","NAPERVILLE","IL",60540,41.7662801380001,-88.177285347,485,"1380 AURORA AVE, NAPERVILLE, IL, 60540","Match","Exact","1380 AURORA AVE, NAPERVILLE, IL, 60540",112591309,"L"
162986,"1380 AURORA AVENUE","NAPERVILLE","IL",60540,41.7662801380001,-88.177285347,486,"1380 AURORA AVENUE, NAPERVILLE, IL, 60540","Match","Exact","1380 AURORA AVE, NAPERVILLE, IL, 60540",112591309,"L"
162987,"1380 AVINEDA RINCON  SUITE 102","SANTA FE","NM",87506,NA,NA,487,"1380 AVINEDA RINCON  SUITE 102, SANTA FE, NM, 87506","No_Match",NA,NA,NA,NA
162988,"1380 BAY SHORE DRIVE","ENGLEWOOD","FL",34223,26.994890491,-82.3903398589999,488,"1380 BAY SHORE DRIVE, ENGLEWOOD, FL, 34223","Match","Non_Exact","1380 BAYSHORE DR, ENGLEWOOD, FL, 34223",16421691,"R"
162989,"1380 BIDWELL STREET SUITE 303","ST PAUL","MN",55118,44.9052160050001,-93.0908548529999,489,"1380 BIDWELL STREET SUITE 303, ST PAUL, MN, 55118","Match","Exact","1380 BIDWELL ST, SAINT PAUL, MN, 55118",37915902,"L"
162990,"1380 BISCAYNE DRIVE","MONTGOMERY","AL",36116,32.320881527,-86.284314923,490,"1380 BISCAYNE DRIVE, MONTGOMERY, AL, 36116","Match","Exact","1380 BISCAYNE DR, MONTGOMERY, AL, 36116",1544565,"R"
162991,"1380 BONNIEBRAE DRIVE","LAKE OSWEGO","OR",97034,45.4311657690001,-122.682235874,491,"1380 BONNIEBRAE DRIVE, LAKE OSWEGO, OR, 97034","Match","Exact","1380 BONNIEBRAE DR, LAKE OSWEGO, OR, 97034",157992530,"L"
162992,"1380 BRYANT ST NE APT 20","WASHINGTON","DC",20018,38.921089759,-76.986011515,492,"1380 BRYANT ST NE APT 20, WASHINGTON, DC, 20018","Match","Exact","1380 BRYANT ST NE, WASHINGTON, DC, 20018",76228936,"L"
162993,"1380 BRYANT STREET NE","WASHINGTON","DC",20018,38.921089759,-76.986011515,493,"1380 BRYANT STREET NE, WASHINGTON, DC, 20018","Match","Exact","1380 BRYANT ST NE, WASHINGTON, DC, 20018",76228936,"L"
162994,"1380 BUENA VISTA ROAD","RUSSELLVILLE","KY",42276,36.8691704340001,-86.95610991,494,"1380 BUENA VISTA ROAD, RUSSELLVILLE, KY, 42276","Match","Exact","1380 BUENA VISTA RD, RUSSELLVILLE, KY, 42276",636238364,"R"
162995,"1380 BUSCH CREEK","GRAND BLANC","MI",48439,42.922128695,-83.596347265,495,"1380 BUSCH CREEK, GRAND BLANC, MI, 48439","Match","Non_Exact","1380 BUSH CREEK DR, GRAND BLANC, MI, 48439",69583926,"R"
162996,"1380 CALLEJON SEGOVIA UNIT 38","CHULA VISTA","CA",91910,32.6460396410001,-117.004942654,496,"1380 CALLEJON SEGOVIA UNIT 38, CHULA VISTA, CA, 91910","Match","Exact","1380 CALLEJON SEGOVIA, CHULA VISTA, CA, 91910",195654959,"R"
162997,"1380 CARMEN LANE","GASTONIA","NC",28054,35.2502612820001,-81.1566091989999,497,"1380 CARMEN LANE, GASTONIA, NC, 28054","Match","Exact","1380 CARMEN LN, GASTONIA, NC, 28054",70380615,"L"
162998,"1380 CHAPMAN HILL DR","SALEM","OR",97304,44.9565652110001,-123.065498703,498,"1380 CHAPMAN HILL DR, SALEM, OR, 97304","Match","Non_Exact","1380 CHAPMAN HILL DR NW, SALEM, OR, 97304",155786207,"R"
162999,"1380 CHERRYTREE RD NE","WINNABOW","NC",28479,34.126481547,-78.1394873849999,499,"1380 CHERRYTREE RD NE, WINNABOW, NC, 28479","Match","Exact","1380 CHERRYTREE RD NE, WINNABOW, NC, 28479",153153748,"L"
163000,"1380 CIRCLE","KANKAKEE","IL",60901,NA,NA,500,"1380 CIRCLE, KANKAKEE, IL, 60901","No_Match",NA,NA,NA,NA
