"ID","Address","City","State","Zip","lat","long","id","input_address","match_indicator","match_type","matched_address","tiger_line_id","tiger_side"
506001,"3201 LINCOLN AVE","EAST ST LOUIS","IL",62204,38.634397021,-90.114331452,1,"3201 LINCOLN AVE, EAST ST LOUIS, IL, 62204","Match","Exact","3201 LINCOLN AVE, E SAINT LOUIS, IL, 62204",107830705,"L"
506002,"3201 LINE AVE","SHREVEPORT","LA",71104,32.4804037980001,-93.746036313,2,"3201 LINE AVE, SHREVEPORT, LA, 71104","Match","Non_Exact","3201 LINE AVE, SHREVEPORT, LA, 71106",57485783,"L"
506003,"3201 LINE AVENUE","SHREVEPORT","LA",71104,32.4804037980001,-93.746036313,3,"3201 LINE AVENUE, SHREVEPORT, LA, 71104","Match","Non_Exact","3201 LINE AVE, SHREVEPORT, LA, 71106",57485783,"L"
506004,"3201 LINEAGE LOOP UNIT A","KILLEEN","TX",76549,31.079420128,-97.7864599229999,4,"3201 LINEAGE LOOP UNIT A, KILLEEN, TX, 76549","Match","Exact","3201 LINEAGE LOOP, KILLEEN, TX, 76549",648775589,"L"
506005,"3201 LONDON CT","MIDDLETOWN","NJ",7748,NA,NA,5,"3201 LONDON CT, MIDDLETOWN, NJ, 7748","No_Match",NA,NA,NA,NA
506006,"3201 LONG BEACH BLVD","LONG BEACH","CA",90807,33.8153459490001,-118.189290242,6,"3201 LONG BEACH BLVD, LONG BEACH, CA, 90807","Match","Non_Exact","3201 N LONG BEACH BLVD, LONG BEACH, CA, 90807",141686668,"L"
506007,"3201 LOVING COVE","BELTON","TX",76513,31.0941920380001,-97.477891261,7,"3201 LOVING COVE, BELTON, TX, 76513","Match","Exact","3201 LOVING COVE, BELTON, TX, 76513",624921552,"L"
506008,"3201 LYNN BENNETT ROAD","YORK","AL",36925,32.4655590880001,-88.2121468399999,8,"3201 LYNN BENNETT ROAD, YORK, AL, 36925","Match","Exact","3201 LYNN BENNETT RD, YORK, AL, 36925",666594,"L"
506009,"3201 MACKINAC ISLAND LN","RALEIGH","NC",27610,35.737618937,-78.533464124,9,"3201 MACKINAC ISLAND LN, RALEIGH, NC, 27610","Match","Exact","3201 MACKINAC ISLAND LN, RALEIGH, NC, 27610",619836058,"R"
506010,"3201 MACON RD STE 139","COLUMBUS","GA",31906,32.4803092230001,-84.943420864,10,"3201 MACON RD STE 139, COLUMBUS, GA, 31906","Match","Exact","3201 MACON RD, COLUMBUS, GA, 31906",98953447,"L"
506011,"3201 MARATHON DRIVE","SAN DIEGO","CA",92123,32.8015482010001,-117.127038381,11,"3201 MARATHON DRIVE, SAN DIEGO, CA, 92123","Match","Exact","3201 MARATHON DR, SAN DIEGO, CA, 92123",642901128,"R"
506012,"3201 MARSHFIELD PRESERVE WAY","KISSIMMEE","FL",34746,NA,NA,12,"3201 MARSHFIELD PRESERVE WAY, KISSIMMEE, FL, 34746","No_Match",NA,NA,NA,NA
506013,"3201 MCCUTCHEON CROSSING DR","COLUMBUS","OH",43219,40.031483441,-82.9266742999999,13,"3201 MCCUTCHEON CROSSING DR, COLUMBUS, OH, 43219","Match","Exact","3201 MCCUTCHEON CROSSING DR, COLUMBUS, OH, 43219",218575072,"L"
506014,"3201 MCELROY STREET","EAU CLAIRE","WI",54701,44.7798877320001,-91.460030731,14,"3201 MCELROY STREET, EAU CLAIRE, WI, 54701","Match","Exact","3201 MCELROY ST, EAU CLAIRE, WI, 54701",46078194,"R"
506015,"3201 MEADOW CT","INDEPENDENCE","KY",41051,NA,NA,15,"3201 MEADOW CT, INDEPENDENCE, KY, 41051","No_Match",NA,NA,NA,NA
506016,"3201 MEADOWCREST DRIVE","ANDERSON","IN",46011,NA,NA,16,"3201 MEADOWCREST DRIVE, ANDERSON, IN, 46011","No_Match",NA,NA,NA,NA
506017,"3201 MID DALE LN","LOUISVILLE","KY",40220,38.2118659820001,-85.6341231769999,17,"3201 MID DALE LN, LOUISVILLE, KY, 40220","Match","Exact","3201 MID DALE LN, LOUISVILLE, KY, 40220",96856742,"L"
506018,"3201 MISSOURI STREET","PINE BLUFF","AR",71601,34.197437038,-91.99588368,18,"3201 MISSOURI STREET, PINE BLUFF, AR, 71601","Match","Non_Exact","3201 S MISSOURI ST, PINE BLUFF, AR, 71601",2554286,"L"
506019,"3201 MONTCREST RD","COLUMBIA","SC",29210,34.0368922420001,-81.138190661,19,"3201 MONTCREST RD, COLUMBIA, SC, 29210","Match","Exact","3201 MONTCREST RD, COLUMBIA, SC, 29210",70086347,"R"
506020,"3201 MURRAY COURT","LIVINGSTON","NJ",7039,NA,NA,20,"3201 MURRAY COURT, LIVINGSTON, NJ, 7039","No_Match",NA,NA,NA,NA
506021,"3201 N 16TH STREET STE 15","PHOENIX","AZ",85016,33.4839266290001,-112.047642689,21,"3201 N 16TH STREET STE 15, PHOENIX, AZ, 85016","Match","Non_Exact","3201 N 16TH ST, PHOENIX, AZ, 85016",128214102,"R"
506022,"3201 N AUSTRALIAN AVE","WEST PALM BEACH","FL",33407,NA,NA,22,"3201 N AUSTRALIAN AVE, WEST PALM BEACH, FL, 33407","Tie",NA,NA,NA,NA
506023,"3201 N EASTERN AVE","LOS ANGELES","CA",90033,NA,NA,23,"3201 N EASTERN AVE, LOS ANGELES, CA, 90033","No_Match",NA,NA,NA,NA
506024,"3201 N ORANGE AVENUE","SARASOTA","FL",34234,27.3658045650001,-82.538109644,24,"3201 N ORANGE AVENUE, SARASOTA, FL, 34234","Match","Exact","3201 N ORANGE AVE, SARASOTA, FL, 34234",16346794,"L"
506025,"3201 N RAVENSWOOD UNIT 107","CHICAGO","IL",60657,NA,NA,25,"3201 N RAVENSWOOD UNIT 107, CHICAGO, IL, 60657","No_Match",NA,NA,NA,NA
506026,"3201 NE 183 STREET APT 1502","AVENTURA","FL",33160,25.945024027,-80.138778875,26,"3201 NE 183 STREET APT 1502, AVENTURA, FL, 33160","Match","Non_Exact","3201 NE 183RD ST, AVENTURA, FL, 33160",116292093,"L"
506027,"3201 NE 36TH ST UNIT 128","FT LAUDERDALE","FL",33308,26.172615992,-80.102650716,27,"3201 NE 36TH ST UNIT 128, FT LAUDERDALE, FL, 33308","Match","Non_Exact","3201 NE 36TH ST, FORT LAUDERDALE, FL, 33308",639262961,"L"
506028,"3201 NEPTUNE AVENUE","BROOKLYN","NY",11224,40.5774046500001,-73.998902307,28,"3201 NEPTUNE AVENUE, BROOKLYN, NY, 11224","Match","Exact","3201 NEPTUNE AVE, BROOKLYN, NY, 11224",59088800,"R"
506029,"3201 NJ-27","KENDALL PARK","NJ",8824,NA,NA,29,"3201 NJ-27, KENDALL PARK, NJ, 8824","No_Match",NA,NA,NA,NA
506030,"3201 NORTH ORANGE AVE","SARASOTA","FL",34234,27.3658045650001,-82.538109644,30,"3201 NORTH ORANGE AVE, SARASOTA, FL, 34234","Match","Exact","3201 N ORANGE AVE, SARASOTA, FL, 34234",16346794,"L"
506031,"3201 NORTH ORANGE AVENUE","SARASOTA","FL",34234,27.3658045650001,-82.538109644,31,"3201 NORTH ORANGE AVENUE, SARASOTA, FL, 34234","Match","Exact","3201 N ORANGE AVE, SARASOTA, FL, 34234",16346794,"L"
506032,"3201 NW 107TH AVE","CORAL SPRINGS","FL",33065,26.269450003,-80.268256961,32,"3201 NW 107TH AVE, CORAL SPRINGS, FL, 33065","Match","Exact","3201 NW 107TH AVE, CORAL SPRINGS, FL, 33065",114689942,"R"
506033,"3201 O st","VANCOUVER","WA",98662,45.6443746530001,-122.656409549,33,"3201 O st, VANCOUVER, WA, 98662","Match","Non_Exact","3201 O ST, VANCOUVER, WA, 98663",158325284,"R"
506034,"3201 OAK AVE","BROOKFIELD","IL",60513,41.8329846670001,-87.848055932,34,"3201 OAK AVE, BROOKFIELD, IL, 60513","Match","Exact","3201 OAK AVE, BROOKFIELD, IL, 60513",111791617,"L"
506035,"3201 OLYMPUS BOULEVARD","DALLAS","TX",75019,NA,NA,35,"3201 OLYMPUS BOULEVARD, DALLAS, TX, 75019","No_Match",NA,NA,NA,NA
506036,"3201 ORIENT FISHTAIL RD","LAUREL","MD",20724,39.1081701150001,-76.797856791,36,"3201 ORIENT FISHTAIL RD, LAUREL, MD, 20724","Match","Exact","3201 ORIENT FISHTAIL RD, LAUREL, MD, 20724",68198938,"R"
506037,"3201 OVERLAND AVE APT 1229","LOS ANGELES","CA",90034,34.0296289560001,-118.415387873,37,"3201 OVERLAND AVE APT 1229, LOS ANGELES, CA, 90034","Match","Exact","3201 OVERLAND AVE, LOS ANGELES, CA, 90034",141573417,"R"
506038,"3201 PAMPLONA STREET","GRAND PRAIRIE","TX",75054,32.5852409940001,-97.057959658,38,"3201 PAMPLONA STREET, GRAND PRAIRIE, TX, 75054","Match","Non_Exact","3201 PAMPLONA, GRAND PRAIRIE, TX, 75054",617672322,"L"
506039,"3201 PARADISE STREET","VERNON","TX",76384,34.150644518,-99.2997022119999,39,"3201 PARADISE STREET, VERNON, TX, 76384","Match","Exact","3201 PARADISE ST, VERNON, TX, 76384",183240267,"R"
506040,"3201 PAUL LANE","BRUSLY","LA",70719,30.373587598,-91.2480864089999,40,"3201 PAUL LANE, BRUSLY, LA, 70719","Match","Exact","3201 PAUL LN, BRUSLY, LA, 70719",92291349,"L"
506041,"3201 PITTSON AVENUE","SCRANTON","PA",18505,NA,NA,41,"3201 PITTSON AVENUE, SCRANTON, PA, 18505","No_Match",NA,NA,NA,NA
506042,"3201 PITTSTON AVENUE","SCRANTON","PA",18505,41.3772305630001,-75.6938803359999,42,"3201 PITTSTON AVENUE, SCRANTON, PA, 18505","Match","Exact","3201 PITTSTON AVE, SCRANTON, PA, 18505",139352417,"L"
506043,"3201 PLUMAS ST","RENO","NV",89509,39.4925097030001,-119.812580595,43,"3201 PLUMAS ST, RENO, NV, 89509","Match","Exact","3201 PLUMAS ST, RENO, NV, 89509",107045716,"R"
506044,"3201 POPLAR ST","GREENVILLE","TX",75402,33.1101832160001,-96.114916621,44,"3201 POPLAR ST, GREENVILLE, TX, 75402","Match","Non_Exact","3201 POPLAR AVE, GREENVILLE, TX, 75402",42835974,"L"
506045,"3201 POPLAR","PINE BLUFF","AR",71603,NA,NA,45,"3201 POPLAR, PINE BLUFF, AR, 71603","No_Match",NA,NA,NA,NA
506046,"3201 PRINCETON","MEMPHIS","TN",38112,35.1456053860001,-89.9545858669999,46,"3201 PRINCETON, MEMPHIS, TN, 38112","Match","Non_Exact","3201 PRINCETON AVE, MEMPHIS, TN, 38112",72915612,"R"
506047,"3201 RED MARBLE RD","VALLEY","WA",99109,48.2150484060001,-117.838932239,47,"3201 RED MARBLE RD, VALLEY, WA, 99109","Match","Non_Exact","3201 RED MARBLE RD, CHEWELAH, WA, 99109",639695618,"R"
506048,"3201 RICH VALLEY RD","EMPORIUM","PA",15834,41.536416101,-78.3040468469999,48,"3201 RICH VALLEY RD, EMPORIUM, PA, 15834","Match","Exact","3201 RICH VALLEY RD, EMPORIUM, PA, 15834",636349790,"R"
506049,"3201 RICH VALLEY","EMPORIUM","PA",15834,41.536416101,-78.3040468469999,49,"3201 RICH VALLEY, EMPORIUM, PA, 15834","Match","Non_Exact","3201 RICH VALLEY RD, EMPORIUM, PA, 15834",636349790,"R"
506050,"3201 ROGERS AVE","JACKSONVILLE","FL",32208,30.407771444,-81.704011239,50,"3201 ROGERS AVE, JACKSONVILLE, FL, 32208","Match","Exact","3201 ROGERS AVE, JACKSONVILLE, FL, 32208",83978995,"R"
506051,"3201 ROGERS DRIVE","FAYETTEVILLE","NC",28303,35.078686916,-78.928217853,51,"3201 ROGERS DRIVE, FAYETTEVILLE, NC, 28303","Match","Exact","3201 ROGERS DR, FAYETTEVILLE, NC, 28303",64198288,"L"
506052,"3201 ROSSMORE CIRCLE","POWELL","OH",43065,40.2007698720001,-83.0921080959999,52,"3201 ROSSMORE CIRCLE, POWELL, OH, 43065","Match","Exact","3201 ROSSMORE CIR, POWELL, OH, 43065",649709552,"L"
506053,"3201 RUE PARC FONTAINE 3022","NEW ORLEANS","LA",70131,NA,NA,53,"3201 RUE PARC FONTAINE 3022, NEW ORLEANS, LA, 70131","No_Match",NA,NA,NA,NA
506054,"3201 RUE PARC FONTAINE APT 2905","NEW ORLEANS","LA",70131,NA,NA,54,"3201 RUE PARC FONTAINE APT 2905, NEW ORLEANS, LA, 70131","No_Match",NA,NA,NA,NA
506055,"3201 S 63RD LANE","PHOENIX","AZ",85043,33.418752372,-112.196064273,55,"3201 S 63RD LANE, PHOENIX, AZ, 85043","Match","Exact","3201 S 63RD LN, PHOENIX, AZ, 85043",243922999,"L"
506056,"3201 S AUSTIN AVE STE 320","GEORGETOWN","TX",78626,30.613589274,-97.68282583,56,"3201 S AUSTIN AVE STE 320, GEORGETOWN, TX, 78626","Match","Non_Exact","3201 S AUSTIN AVE, GEORGETOWN, TX, 78626",126487901,"R"
506057,"3201 S GILBERT ROAD","CHANDLER","AZ",85286,NA,NA,57,"3201 S GILBERT ROAD, CHANDLER, AZ, 85286","No_Match",NA,NA,NA,NA
506058,"3201 S L HENRY ST","WEST MEMPHIS","AK",72301,NA,NA,58,"3201 S L HENRY ST, WEST MEMPHIS, AK, 72301","No_Match",NA,NA,NA,NA
506059,"3201 S MINGUS DRIVE","CHANDLER","AZ",85286,33.260328397,-111.775640344,59,"3201 S MINGUS DRIVE, CHANDLER, AZ, 85286","Match","Exact","3201 S MINGUS DR, CHANDLER, AZ, 85286",646887193,"R"
506060,"3201 S O ST","FORT SMITH","AR",72903,35.3676283680001,-94.3973672659999,60,"3201 S O ST, FORT SMITH, AR, 72903","Match","Non_Exact","3201 O ST S, FORT SMITH, AR, 72903",56114665,"L"
506061,"3201 S RAILROAD ST APT 22","PHENIX CITY","AL",36867,32.4923895200001,-85.0336262549999,61,"3201 S RAILROAD ST APT 22, PHENIX CITY, AL, 36867","Match","Non_Exact","3201 S RAILROAD ST, PHENIX CITY, AL, 36867",69267544,"L"
506062,"3201 S RAILROAD ST","PHENIX CITY","AL",36867,32.4923895200001,-85.0336262549999,62,"3201 S RAILROAD ST, PHENIX CITY, AL, 36867","Match","Exact","3201 S RAILROAD ST, PHENIX CITY, AL, 36867",69267544,"L"
506063,"3201 SHALLOW SPRINGS TERRACE","CHICO","CA",95928,NA,NA,63,"3201 SHALLOW SPRINGS TERRACE, CHICO, CA, 95928","No_Match",NA,NA,NA,NA
506064,"3201 SHAWFERRY ROAD","LENOIR CITY","TN",37772,35.8169521730001,-84.24392318,64,"3201 SHAWFERRY ROAD, LENOIR CITY, TN, 37772","Match","Non_Exact","3201 SHAW FERRY RD, LENOIR CITY, TN, 37772",99973124,"L"
506065,"3201 SOLAR DRIVE NW","WARREN","OH",44485,41.2503129130001,-80.862665083,65,"3201 SOLAR DRIVE NW, WARREN, OH, 44485","Match","Non_Exact","3201 SOLAR ST NW, WARREN, OH, 44485",652279318,"L"
506066,"3201 SOUTH 192TH ST","SEATTAC","WA",98188,NA,NA,66,"3201 SOUTH 192TH ST, SEATTAC, WA, 98188","No_Match",NA,NA,NA,NA
506067,"3201 SOUTH HENNEPEN","SIOUX CITY","IA",51106,42.4528808480001,-96.347466911,67,"3201 SOUTH HENNEPEN, SIOUX CITY, IA, 51106","Match","Non_Exact","3201 S HENNEPIN ST, SIOUX CITY, IA, 51106",93425901,"R"
506068,"3201 STELLHORN RD","FORT WAYNE","IN",46815,NA,NA,68,"3201 STELLHORN RD, FORT WAYNE, IN, 46815","No_Match",NA,NA,NA,NA
506069,"3201 SUSAN AVENUE","MARINA","CA",93933,36.690125982,-121.795927505,69,"3201 SUSAN AVENUE, MARINA, CA, 93933","Match","Exact","3201 SUSAN AVE, MARINA, CA, 93933",196844978,"L"
506070,"3201 SW 173RD TERRACE","MIRAMAR","FL",33029,25.9823074510001,-80.3772010289999,70,"3201 SW 173RD TERRACE, MIRAMAR, FL, 33029","Match","Exact","3201 SW 173RD TER, MIRAMAR, FL, 33029",114780989,"R"
506071,"3201 SW RANDOLPH APT D","TOPEKA","KS",66611,NA,NA,71,"3201 SW RANDOLPH APT D, TOPEKA, KS, 66611","No_Match",NA,NA,NA,NA
506072,"3201 SYLVAN AVENUE","MODESTO","CA",95355,37.6889952510001,-120.935072419,72,"3201 SYLVAN AVENUE, MODESTO, CA, 95355","Match","Exact","3201 SYLVAN AVE, MODESTO, CA, 95355",614136647,"L"
506073,"3201 TOBAGO ROAD","FORT WORTH","TX",76123,32.6085047500001,-97.3691371049999,73,"3201 TOBAGO ROAD, FORT WORTH, TX, 76123","Match","Exact","3201 TOBAGO RD, FORT WORTH, TX, 76123",619864741,"L"
506074,"3201 TROY BRETT TRAIL","DULUTH","MN",55803,46.9498727320001,-92.021099104,74,"3201 TROY BRETT TRAIL, DULUTH, MN, 55803","Match","Exact","3201 TROY BRETT TRL, DULUTH, MN, 55803",163240428,"L"
506075,"3201 VANDENBERG DRIVE","TULLAHOMA","TN",37388,35.3223655950001,-86.06761274,75,"3201 VANDENBERG DRIVE, TULLAHOMA, TN, 37388","Match","Non_Exact","3201 VANDENBURG DR, TULLAHOMA, TN, 37388",57960128,"R"
506076,"3201 VILLA VISTA DRIVE","DES MOINES","IA",50316,41.624182799,-93.596271599,76,"3201 VILLA VISTA DRIVE, DES MOINES, IA, 50316","Match","Exact","3201 VILLA VISTA DR, DES MOINES, IA, 50316",65855261,"R"
506077,"3201 VILLAGE CREST","FLOWER MOUND","TX",75022,NA,NA,77,"3201 VILLAGE CREST, FLOWER MOUND, TX, 75022","Tie",NA,NA,NA,NA
506078,"3201 W 15TH ST","TAMPA","FL",33605,27.9724649070001,-82.4429696129999,78,"3201 W 15TH ST, TAMPA, FL, 33605","Match","Non_Exact","3201 N 15TH ST, TAMPA, FL, 33605",104523755,"R"
506079,"3201 W 43RD STE 16","SIOUX FALLS","SD",57106,NA,NA,79,"3201 W 43RD STE 16, SIOUX FALLS, SD, 57106","No_Match",NA,NA,NA,NA
506080,"3201 W 7TH ST","ELK CITY","OK",73644,35.407487121,-99.445136479,80,"3201 W 7TH ST, ELK CITY, OK, 73644","Match","Exact","3201 W 7TH ST, ELK CITY, OK, 73644",653883915,"L"
506081,"3201 W ARGYLE ST","CHICAGO","IL",60625,41.972084855,-87.708626585,81,"3201 W ARGYLE ST, CHICAGO, IL, 60625","Match","Exact","3201 W ARGYLE ST, CHICAGO, IL, 60625",605174362,"L"
506082,"3201 W AUBURN HILLS CIR","SIOUX FALLS","SD",57108,43.4783100540001,-96.764244064,82,"3201 W AUBURN HILLS CIR, SIOUX FALLS, SD, 57108","Match","Exact","3201 W AUBURN HILLS CIR, SIOUX FALLS, SD, 57108",176331546,"L"
506083,"3201 W BARKER CIR","KANSAS CITY","KS",66104,39.1445356900001,-94.702889652,83,"3201 W BARKER CIR, KANSAS CITY, KS, 66104","Match","Exact","3201 W BARKER CIR, KANSAS CITY, KS, 66104",91152129,"R"
506084,"3201 W HILLSBOROUGH AVE","TAMPA","FL",33614,27.9960545650001,-82.496257059,84,"3201 W HILLSBOROUGH AVE, TAMPA, FL, 33614","Match","Exact","3201 W HILLSBOROUGH AVE, TAMPA, FL, 33614",104516094,"R"
506085,"3201 W STREET","LINCOLN","NE",68503,40.8217501930001,-96.674287115,85,"3201 W STREET, LINCOLN, NE, 68503","Match","Exact","3201 W ST, LINCOLN, NE, 68503",28254145,"R"
506086,"3201 WASHINGTON AVENUE  APT  313","NEWPORT NEWS","VA",23607,36.9822770010001,-76.433165327,86,"3201 WASHINGTON AVENUE  APT  313, NEWPORT NEWS, VA, 23607","Match","Exact","3201 WASHINGTON AVE, NEWPORT NEWS, VA, 23607",103746050,"L"
506087,"3201 WATERFORD MILL ROAD","BOWIE","MD",20721,38.9333420570001,-76.7805908299999,87,"3201 WATERFORD MILL ROAD, BOWIE, MD, 20721","Match","Exact","3201 WATERFORD MILL RD, BOWIE, MD, 20721",76400456,"R"
506088,"3201 WATSON RD","ROCKVALE","TN",37153,35.8009163580001,-86.55798046,88,"3201 WATSON RD, ROCKVALE, TN, 37153","Match","Exact","3201 WATSON RD, ROCKVALE, TN, 37153",59013110,"R"
506089,"3201 WAVE DRIVE","EVERETT","WA",98203,47.954098994,-122.277264467,89,"3201 WAVE DRIVE, EVERETT, WA, 98203","Match","Exact","3201 WAVE DR, EVERETT, WA, 98203",187797241,"R"
506090,"3201 WEST 16TH STREET","SEDALIA","MO",65301,NA,NA,90,"3201 WEST 16TH STREET, SEDALIA, MO, 65301","No_Match",NA,NA,NA,NA
506091,"3201 WEST LOOP 289 APT 216","LUBBOCK","TX",79407,33.5651595850001,-101.943516709,91,"3201 WEST LOOP 289 APT 216, LUBBOCK, TX, 79407","Match","Exact","3201 W LOOP 289, LUBBOCK, TX, 79407",185327019,"L"
506092,"3201 WESTSHORE DR","ROWLETT","TX",75088,32.891798287,-96.580283633,92,"3201 WESTSHORE DR, ROWLETT, TX, 75088","Match","Exact","3201 WESTSHORE DR, ROWLETT, TX, 75088",103168147,"L"
506093,"3201 WESTWOOD PARKWAY","FLINT","MI",48503,42.9918858980001,-83.7260415439999,93,"3201 WESTWOOD PARKWAY, FLINT, MI, 48503","Match","Exact","3201 WESTWOOD PKWY, FLINT, MI, 48503",69573771,"L"
506094,"3201 WILDCATTER DRIVE","BELTON","TX",76513,31.0939473060001,-97.487911119,94,"3201 WILDCATTER DRIVE, BELTON, TX, 76513","Match","Exact","3201 WILDCATTER DR, BELTON, TX, 76513",642827791,"L"
506095,"3201 WILMOTH CT","NASHVILLE","TN",37207,36.236644391,-86.779187521,95,"3201 WILMOTH CT, NASHVILLE, TN, 37207","Match","Exact","3201 WILMOTH CT, NASHVILLE, TN, 37207",97186497,"L"
506096,"3201 WOODFORD DRIVE","ARLINGTON","TX",76013,32.729722387,-97.158516035,96,"3201 WOODFORD DRIVE, ARLINGTON, TX, 76013","Match","Exact","3201 WOODFORD DR, ARLINGTON, TX, 76013",101904823,"L"
506097,"3201 WOODLAND TRACE EAST","SOUTHAVEN","MS",38672,34.9074712010001,-89.985197988,97,"3201 WOODLAND TRACE EAST, SOUTHAVEN, MS, 38672","Match","Exact","3201 WOODLAND TRCE E, SOUTHAVEN, MS, 38672",91842559,"L"
506098,"3201 YESO RD","ROSWELL","NM",88201,33.4363487680001,-104.479562841,98,"3201 YESO RD, ROSWELL, NM, 88201","Match","Exact","3201 YESO RD, ROSWELL, NM, 88201",131809627,"R"
506099,"3201 YORKTOWN AVENUE/2B","DURHAM","NC",NA,35.9363655990001,-78.893410221,99,"3201 YORKTOWN AVENUE/2B, DURHAM, NC, ","Match","Non_Exact","3201 YORKTOWN AVE, DURHAM, NC, 27713",71758229,"L"
506100,"3201","TUCSON","AZ",85749,NA,NA,100,"3201, TUCSON, AZ, 85749","No_Match",NA,NA,NA,NA
506101,"32010 E 161ST STREET","PLEASANT HILL","MO",64080,38.8246092090001,-94.216888486,101,"32010 E 161ST STREET, PLEASANT HILL, MO, 64080","Match","Exact","32010 E 161ST ST, PLEASANT HILL, MO, 64080",100939830,"R"
506102,"32010 E LAKE PARK DR","SOUTH BEND","NE",68058,41.0130687180001,-96.256790691,102,"32010 E LAKE PARK DR, SOUTH BEND, NE, 68058","Match","Non_Exact","32010 W LAKE PARK DR, SOUTH BEND, NE, 68058",653350329,"L"
506103,"32010 E161ST STREET","PLEASANT HILL","MO",64080,NA,NA,103,"32010 E161ST STREET, PLEASANT HILL, MO, 64080","No_Match",NA,NA,NA,NA
506104,"32011 71ST AVE COURT EAST","EATONVILLE","WA",98328,46.965159074,-122.337837013,104,"32011 71ST AVE COURT EAST, EATONVILLE, WA, 98328","Match","Exact","32011 71ST AVENUE CT E, EATONVILLE, WA, 98328",184663419,"L"
506105,"32016 N 23RD AVE","PHOENIX","AZ",85085,33.7751705160001,-112.107975748,105,"32016 N 23RD AVE, PHOENIX, AZ, 85085","Match","Exact","32016 N 23RD AVE, PHOENIX, AZ, 85085",244022276,"L"
506106,"32018 52ND AVE S","AUBURN","WA",98001,47.3148902,-122.27025471,106,"32018 52ND AVE S, AUBURN, WA, 98001","Match","Exact","32018 52ND AVE S, AUBURN, WA, 98001",186959148,"L"
506107,"32018 MANOTA COURT","VISALIA","CA",93291,36.3713300310001,-119.300141627,107,"32018 MANOTA COURT, VISALIA, CA, 93291","Match","Exact","32018 MANOTA CT, VISALIA, CA, 93291",607557244,"R"
506108,"32019 SHAKER BLVD","PEPPER PIKE","OH",44124,41.478454635,-81.452121232,108,"32019 SHAKER BLVD, PEPPER PIKE, OH, 44124","Match","Exact","32019 SHAKER BLVD, PEPPER PIKE, OH, 44124",61135148,"L"
506109,"3202 21ST STREET","MERIDIAN","MS",39301,32.3792014630001,-88.7107000359999,109,"3202 21ST STREET, MERIDIAN, MS, 39301","Match","Exact","3202 21ST ST, MERIDIAN, MS, 39301",189876,"R"
506110,"3202 32ND ST PL SE","PUYALLUP","WA",98374,47.1606690880001,-122.249898471,110,"3202 32ND ST PL SE, PUYALLUP, WA, 98374","Match","Exact","3202 32ND ST PL SE, PUYALLUP, WA, 98374",184695104,"L"
506111,"3202 34TH ST","LUBBOCK","TX",79413,33.563270951,-101.883638912,111,"3202 34TH ST, LUBBOCK, TX, 79413","Match","Non_Exact","3202 34TH ST, LUBBOCK, TX, 79410",185253289,"R"
506112,"3202 7TH AVE N","MOORHEAD","MN",56560,46.883110071,-96.7300764139999,112,"3202 7TH AVE N, MOORHEAD, MN, 56560","Match","Exact","3202 7TH AVE N, MOORHEAD, MN, 56560",168038243,"L"
506113,"3202 AINSLIE WAY","LOUISVILLE","KY",40220,38.211504833,-85.646362577,113,"3202 AINSLIE WAY, LOUISVILLE, KY, 40220","Match","Exact","3202 AINSLIE WAY, LOUISVILLE, KY, 40220",96856515,"R"
506114,"3202 ALDER WAY","GREENSBORO","NC",27407,36.021825908,-79.850039594,114,"3202 ALDER WAY, GREENSBORO, NC, 27407","Match","Exact","3202 ALDER WAY, GREENSBORO, NC, 27407",131049677,"R"
506115,"3202 AMBASSADOR LANE","VALENCIA","PA",16059,40.682179798,-79.9777584669999,115,"3202 AMBASSADOR LANE, VALENCIA, PA, 16059","Match","Exact","3202 AMBASSADOR LN, VALENCIA, PA, 16059",634173585,"L"
506116,"3202 ARROWHEAD DRIVE","NEW BLOOMFIELD","MO",65063,38.7481095310001,-92.063400676,116,"3202 ARROWHEAD DRIVE, NEW BLOOMFIELD, MO, 65063","Match","Exact","3202 ARROWHEAD DR, NEW BLOOMFIELD, MO, 65063",34386815,"R"
506117,"3202 BEACON ST","TALLAHASSEE","FL",32305,30.4049278750001,-84.267820501,117,"3202 BEACON ST, TALLAHASSEE, FL, 32305","Match","Exact","3202 BEACON ST, TALLAHASSEE, FL, 32305",652503525,"R"
506118,"3202 BEAVER DR","DOUGLASVILLE","GA",30135,33.7227439710001,-84.68098377,118,"3202 BEAVER DR, DOUGLASVILLE, GA, 30135","Match","Exact","3202 BEAVER DR, DOUGLASVILLE, GA, 30135",16651379,"R"
506119,"3202 BIRCH PARK LANE","HOUSTON","TX",77073,30.0138682030001,-95.382735001,119,"3202 BIRCH PARK LANE, HOUSTON, TX, 77073","Match","Exact","3202 BIRCH PARK LN, HOUSTON, TX, 77073",96146754,"L"
506120,"3202 BIRCH RD","PHILADELPHIA","MD",19154,NA,NA,120,"3202 BIRCH RD, PHILADELPHIA, MD, 19154","No_Match",NA,NA,NA,NA
506121,"3202 BIRCH RD","PHILADELPHIA","PA",19154,40.098124366,-74.98369808,121,"3202 BIRCH RD, PHILADELPHIA, PA, 19154","Match","Exact","3202 BIRCH RD, PHILADELPHIA, PA, 19154",131433522,"R"
506122,"3202 BLANCHARD RD","SHREVEPORT","LA",71103,32.5073582840001,-93.79099404,122,"3202 BLANCHARD RD, SHREVEPORT, LA, 71103","Match","Exact","3202 BLANCHARD RD, SHREVEPORT, LA, 71103",57473145,"R"
506123,"3202 BROWNSBORO VISTA DRIVE","LOUISVILLE","KY",40242,38.2953348980001,-85.593490665,123,"3202 BROWNSBORO VISTA DRIVE, LOUISVILLE, KY, 40242","Match","Exact","3202 BROWNSBORO VISTA DR, LOUISVILLE, KY, 40242",96893581,"L"
506124,"3202 CHAUMONT ROAD","PARK CITY","KY",42160,37.1161120630001,-86.1112603729999,124,"3202 CHAUMONT ROAD, PARK CITY, KY, 42160","Match","Non_Exact","3202 CHAUMOUNT RD, PARK CITY, KY, 42160",15753281,"R"
506125,"3202 CHERRY HILL CIR S","LAKELAND","FL",33810,28.1559699970001,-82.010894841,125,"3202 CHERRY HILL CIR S, LAKELAND, FL, 33810","Match","Exact","3202 CHERRY HILL CIR S, LAKELAND, FL, 33810",104869584,"R"
506126,"3202 CHICKASAW DRIVE","MUSKOGEE","OK",74403,35.7855088470001,-95.326191411,126,"3202 CHICKASAW DRIVE, MUSKOGEE, OK, 74403","Match","Exact","3202 CHICKASAW DR, MUSKOGEE, OK, 74403",91929444,"R"
506127,"3202 COMAL SPRINGS","SAN ANTONIO","TX",78253,29.465947858,-98.742834177,127,"3202 COMAL SPRINGS, SAN ANTONIO, TX, 78253","Match","Exact","3202 COMAL SPRINGS, SAN ANTONIO, TX, 78253",645129456,"R"
506128,"3202 CREEKSTONE DR","SUGAR LAND","TX",77479,29.5685820030001,-95.6319654609999,128,"3202 CREEKSTONE DR, SUGAR LAND, TX, 77479","Match","Exact","3202 CREEKSTONE DR, SUGAR LAND, TX, 77479",78288425,"R"
506129,"3202 CRESTWOOD DRIVE APT D","KINSTON","NC",28504,35.2917776790001,-77.6144397049999,129,"3202 CRESTWOOD DRIVE APT D, KINSTON, NC, 28504","Match","Exact","3202 CRESTWOOD DR, KINSTON, NC, 28504",13887510,"L"
506130,"3202 DAMASCUS CHURCH ROAD","LONG CREEK","SC",29658,34.742585611,-83.295513905,130,"3202 DAMASCUS CHURCH ROAD, LONG CREEK, SC, 29658","Match","Exact","3202 DAMASCUS CHURCH RD, LONG CREEK, SC, 29658",25657552,"L"
506131,"3202 DELAFORD DR","CARROLLTON","TX",75007,33.0071254590001,-96.894371848,131,"3202 DELAFORD DR, CARROLLTON, TX, 75007","Match","Exact","3202 DELAFORD DR, CARROLLTON, TX, 75007",103352017,"L"
506132,"3202 DODSON AVENUE","CHATTANOOGA","TN",37406,35.0743261750001,-85.2490000129999,132,"3202 DODSON AVENUE, CHATTANOOGA, TN, 37406","Match","Exact","3202 DODSON AVE, CHATTANOOGA, TN, 37406",59307358,"R"
506133,"3202 DUVALLE DR","LOUISVILLE","KY",40211,38.227103572,-85.8090527959999,133,"3202 DUVALLE DR, LOUISVILLE, KY, 40211","Match","Exact","3202 DUVALLE DR, LOUISVILLE, KY, 40211",96926285,"L"
506134,"3202 E 28TH STREET","TUCSON","AZ",85713,32.2020379690001,-110.924285768,134,"3202 E 28TH STREET, TUCSON, AZ, 85713","Match","Exact","3202 E 28TH ST, TUCSON, AZ, 85713",121176490,"R"
506135,"3202 E POINT ST","ATLANTA","GA",30344,33.668410656,-84.445779311,135,"3202 E POINT ST, ATLANTA, GA, 30344","Match","Exact","3202 E POINT ST, ATLANTA, GA, 30344",17348001,"L"
506136,"3202 EAGLES NEST DR","BOWIE","MD",20716,38.9341025570001,-76.721617029,136,"3202 EAGLES NEST DR, BOWIE, MD, 20716","Match","Exact","3202 EAGLES NEST DR, BOWIE, MD, 20716",76347852,"R"
506137,"3202 EAST PELICAN DRIVE","OAK ISLAND","NC",28465,33.914886473,-78.137532203,137,"3202 EAST PELICAN DRIVE, OAK ISLAND, NC, 28465","Match","Exact","3202 E PELICAN DR, OAK ISLAND, NC, 28465",153141014,"R"
506138,"3202 EAST WAVERLY STREET","TUCSON","AZ",85716,32.2459693650001,-110.924470617,138,"3202 EAST WAVERLY STREET, TUCSON, AZ, 85716","Match","Exact","3202 E WAVERLY ST, TUCSON, AZ, 85716",121174837,"R"
506139,"3202 ECHO BAY CT","LEANDER","TX",78641,30.5523865120001,-97.828648534,139,"3202 ECHO BAY CT, LEANDER, TX, 78641","Match","Exact","3202 ECHO BAY CT, LEANDER, TX, 78641",126462645,"L"
506140,"3202 FARROW AVE","KANSAS CITY","KS",66104,39.1445717670001,-94.6650513009999,140,"3202 FARROW AVE, KANSAS CITY, KS, 66104","Match","Exact","3202 FARROW AVE, KANSAS CITY, KS, 66104",91134772,"R"
506141,"3202 FLUVIA","GRAND PRAIRIE","TX",75054,32.5774157390001,-97.052567912,141,"3202 FLUVIA, GRAND PRAIRIE, TX, 75054","Match","Exact","3202 FLUVIA, GRAND PRAIRIE, TX, 75054",617671253,"R"
506142,"3202 FREEDON CT  UNIT D","DANVILLE","IL",61832,40.1751181000001,-87.6276677989999,142,"3202 FREEDON CT  UNIT D, DANVILLE, IL, 61832","Match","Non_Exact","3202 FREEDOM CT, DANVILLE, IL, 61832",611995563,"L"
506143,"3202 G DEFENSE TERRACE","PHILADELPHIA","PA",19129,40.010962358,-75.17900123,143,"3202 G DEFENSE TERRACE, PHILADELPHIA, PA, 19129","Match","Exact","3202 DEFENSE TER, PHILADELPHIA, PA, 19129",131401721,"L"
506144,"3202 GOVERNOR DR STE 100","SAN DIEGO","CA",92122,32.851459968,-117.21665752,144,"3202 GOVERNOR DR STE 100, SAN DIEGO, CA, 92122","Match","Exact","3202 GOVERNOR DR, SAN DIEGO, CA, 92122",195302051,"L"
506145,"3202 HANOVER","BOSSIER CITY","LA",71111,32.593118804,-93.711382481,145,"3202 HANOVER, BOSSIER CITY, LA, 71111","Match","Exact","3202 HANOVER, BOSSIER CITY, LA, 71111",108533280,"R"
506146,"3202 HAWKS HILL LANE","KEEDYSVILLE","MD",21756,39.3943797950001,-77.710905634,146,"3202 HAWKS HILL LANE, KEEDYSVILLE, MD, 21756","Match","Exact","3202 HAWKS HILL LN, KEEDYSVILLE, MD, 21756",60796730,"L"
506147,"3202 JACKSON STREET","ROCKFORD","IL",61110,42.271625666,-89.045697431,147,"3202 JACKSON STREET, ROCKFORD, IL, 61110","Match","Non_Exact","3202 JACKSON ST, ROCKFORD, IL, 61107",49260227,"L"
506148,"3202 KERR HALL CB 7569","CHAPEL HILL","NC",27599,NA,NA,148,"3202 KERR HALL CB 7569, CHAPEL HILL, NC, 27599","No_Match",NA,NA,NA,NA
506149,"3202 KIRBY ST","DURHAM","NC",27713,35.9451843300001,-78.893394745,149,"3202 KIRBY ST, DURHAM, NC, 27713","Match","Exact","3202 KIRBY ST, DURHAM, NC, 27713",71779120,"R"
506150,"3202 LAMONTA ROAD","PRINEVILLE","OR",97754,44.3291267180001,-120.880372083,150,"3202 LAMONTA ROAD, PRINEVILLE, OR, 97754","Match","Exact","3202 LAMONTA RD, PRINEVILLE, OR, 97754",152403117,"R"
506151,"3202 LINCOLN DR","SELMA","AL",36701,32.438284738,-87.0492505019999,151,"3202 LINCOLN DR, SELMA, AL, 36701","Match","Exact","3202 LINCOLN DR, SELMA, AL, 36701",1309658,"R"
506152,"3202 LONGWOOD DRIVE","PITTSBURGH","PA",15227,40.3746089430001,-79.989681514,152,"3202 LONGWOOD DRIVE, PITTSBURGH, PA, 15227","Match","Exact","3202 LONGWOOD DR, PITTSBURGH, PA, 15227",635648594,"R"
506153,"3202 MAIN STREET","SPRINGTOWN","PA",18081,40.556864268,-75.2862731289999,153,"3202 MAIN STREET, SPRINGTOWN, PA, 18081","Match","Exact","3202 MAIN ST, SPRINGTOWN, PA, 18081",134694190,"L"
506154,"3202 MAPLEWOOD","TOLEDO","OH",43610,41.6810469980001,-83.562445576,154,"3202 MAPLEWOOD, TOLEDO, OH, 43610","Match","Non_Exact","3202 MAPLEWOOD AVE, TOLEDO, OH, 43610",33934532,"R"
506155,"3202 MCBREEN AVW","ROBBINS","IL",60472,41.6380154710001,-87.706138842,155,"3202 MCBREEN AVW, ROBBINS, IL, 60472","Match","Non_Exact","3202 MCBREEN AVE, ROBBINS, IL, 60472",111825196,"L"
506156,"3202 MCEWAN LANE","ORLANDO","FL",32812,28.504050374,-81.3222012859999,156,"3202 MCEWAN LANE, ORLANDO, FL, 32812","Match","Exact","3202 MCEWAN LN, ORLANDO, FL, 32812",94307966,"R"
506157,"3202 MEADOW AVE","BROOMFIELD","CO",80020,39.925906121,-105.028129814,157,"3202 MEADOW AVE, BROOMFIELD, CO, 80020","Match","Exact","3202 MEADOW AVE, BROOMFIELD, CO, 80020",177397153,"L"
506158,"3202 MEADOWCREEK CIRCLE","GOODLETTSVILLE","TN",37072,36.3027703500001,-86.7208625439999,158,"3202 MEADOWCREEK CIRCLE, GOODLETTSVILLE, TN, 37072","Match","Exact","3202 MEADOWCREEK CIR, GOODLETTSVILLE, TN, 37072",97232051,"L"
506159,"3202 MEBANE OAKS ROAD","MEBANE","NC",27302,36.023533292,-79.2574545479999,159,"3202 MEBANE OAKS ROAD, MEBANE, NC, 27302","Match","Exact","3202 MEBANE OAKS RD, MEBANE, NC, 27302",72424797,"R"
506160,"3202 MINERAL CREEK CT","LEAGUE CITY","TX",77573,29.500927645,-95.024484733,160,"3202 MINERAL CREEK CT, LEAGUE CITY, TX, 77573","Match","Non_Exact","3202 MINERAL CREEK LN, LEAGUE CITY, TX, 77573",650360519,"R"
506161,"3202 MOCKINGBIRD LANE","DOTHAN","AL",36303,31.2564719860001,-85.445059719,161,"3202 MOCKINGBIRD LANE, DOTHAN, AL, 36303","Match","Exact","3202 MOCKINGBIRD LN, DOTHAN, AL, 36303",101212505,"R"
506162,"3202 MORRISON RD W UNIT B","UNIVERSITY PLACE","WA",98466,47.23068506,-122.534369914,162,"3202 MORRISON RD W UNIT B, UNIVERSITY PLACE, WA, 98466","Match","Exact","3202 MORRISON RD W, UNIVERSITY PLACE, WA, 98466",184657780,"L"
506163,"3202 NASH-THOMPSON LANE","TEXARKANA","AR",71854,33.4411705530001,-94.015857136,163,"3202 NASH-THOMPSON LANE, TEXARKANA, AR, 71854","Match","Exact","3202 NASH-THOMPSON LN, TEXARKANA, AR, 71854",636200680,"R"
506164,"3202 NE 204TH STREET","SEATTLE","WA",98155,47.7765229340001,-122.296690061,164,"3202 NE 204TH STREET, SEATTLE, WA, 98155","Match","Exact","3202 NE 204TH ST, SEATTLE, WA, 98155",239771928,"L"
506165,"3202 NICOL AVE","OAKLAND","CA",94602,37.7918469430001,-122.212720441,165,"3202 NICOL AVE, OAKLAND, CA, 94602","Match","Exact","3202 NICOL AVE, OAKLAND, CA, 94602",125004070,"L"
506166,"3202 NICOL AVE","OAKLAND",NA,NA,37.7918469430001,-122.212720441,166,"3202 NICOL AVE, OAKLAND, , ","Match","Exact","3202 NICOL AVE, OAKLAND, CA, 94602",125004070,"L"
506167,"3202 NORTH HOWARD AVENUE","TAMPA","FL",33607,27.9682205710001,-82.48280264,167,"3202 NORTH HOWARD AVENUE, TAMPA, FL, 33607","Match","Exact","3202 N HOWARD AVE, TAMPA, FL, 33607",104521038,"L"
506168,"3202 NORTH MERIDIAN STREET","INDIANAPOLIS","IN",46208,39.8140113110001,-86.156760804,168,"3202 NORTH MERIDIAN STREET, INDIANAPOLIS, IN, 46208","Match","Exact","3202 N MERIDIAN ST, INDIANAPOLIS, IN, 46208",107989079,"L"
506169,"3202 NORTH SHILOH ROAD","GARLAND","TX",75044,32.947475791,-96.665181101,169,"3202 NORTH SHILOH ROAD, GARLAND, TX, 75044","Match","Exact","3202 N SHILOH RD, GARLAND, TX, 75044",103255993,"L"
506170,"3202 OAKWOOD DRIVE","FOLSOM","NJ",8037,39.5685311300001,-74.8245517839999,170,"3202 OAKWOOD DRIVE, FOLSOM, NJ, 8037","Match","Non_Exact","3202 OAKWOOD DR, BLUE ANCHOR, NJ, 08037",202510215,"R"
506171,"3202 ORTEGA AVENUE","LAFAYETTE","CA",94549,37.8996323630001,-122.094164838,171,"3202 ORTEGA AVENUE, LAFAYETTE, CA, 94549","Match","Exact","3202 ORTEGA AVE, LAFAYETTE, CA, 94549",636764079,"R"
506172,"3202 OZARK ST","HOUSTON","TX",77021,29.7072634790001,-95.374587895,172,"3202 OZARK ST, HOUSTON, TX, 77021","Match","Exact","3202 OZARK ST, HOUSTON, TX, 77021",96072310,"R"
506173,"3202 PARKLAND DRIVE","INDIAN TRAIL","NC",28079,35.074488016,-80.634476948,173,"3202 PARKLAND DRIVE, INDIAN TRAIL, NC, 28079","Match","Exact","3202 PARKLAND DR, INDIAN TRAIL, NC, 28079",14193420,"L"
506174,"3202 PENNSYLVANIA AVE  APT 4","INDIANAPOLIS","IN",46205,NA,NA,174,"3202 PENNSYLVANIA AVE  APT 4, INDIANAPOLIS, IN, 46205","No_Match",NA,NA,NA,NA
506175,"3202 PENNSYLVANIA AVE APT 4","INDIANAPOLIS","IN",46205,NA,NA,175,"3202 PENNSYLVANIA AVE APT 4, INDIANAPOLIS, IN, 46205","No_Match",NA,NA,NA,NA
506176,"3202 S 62ND STREET  22","FORT SMITH","AR",72903,35.351479064,-94.3646107499999,176,"3202 S 62ND STREET  22, FORT SMITH, AR, 72903","Match","Non_Exact","3202 S 62ND ST, FORT SMITH, AR, 72903",56113146,"R"
506177,"3202 S COUNTY ROAD 1067","MIDLAND","TX",79706,32.009592135,-101.866083613,177,"3202 S COUNTY ROAD 1067, MIDLAND, TX, 79706","Match","Exact","3202 S CO RD 1067, MIDLAND, TX, 79706",139592742,"L"
506178,"3202 S MASON AVE B 203","TACOMA","WA",98409,NA,NA,178,"3202 S MASON AVE B 203, TACOMA, WA, 98409","No_Match",NA,NA,NA,NA
506179,"3202 S SCHILLER ST","TAMPA","FL",33629,27.9160460790001,-82.520929252,179,"3202 S SCHILLER ST, TAMPA, FL, 33629","Match","Exact","3202 S SCHILLER ST, TAMPA, FL, 33629",104525726,"L"
506180,"3202 SANDEROSA ROAD","FAYETTEVILLE","NC",28302,35.077023683,-78.7876242419999,180,"3202 SANDEROSA ROAD, FAYETTEVILLE, NC, 28302","Match","Non_Exact","3202 SANDEROSA RD, FAYETTEVILLE, NC, 28312",615440194,"R"
506181,"3202 SCOTTS STREET","SPRINGDALE","AR",72762,NA,NA,181,"3202 SCOTTS STREET, SPRINGDALE, AR, 72762","No_Match",NA,NA,NA,NA
506182,"3202 SE LAKE VILLAGE","KANSAS CITY","MO",64014,NA,NA,182,"3202 SE LAKE VILLAGE, KANSAS CITY, MO, 64014","No_Match",NA,NA,NA,NA
506183,"3202 SOCORRO AVE","ORLANDO","FL",32829,28.505069194,-81.264811413,183,"3202 SOCORRO AVE, ORLANDO, FL, 32829","Match","Exact","3202 SOCORRO AVE, ORLANDO, FL, 32829",94295677,"R"
506184,"3202 SOLSTICE LOOP","SANFORD","FL",32771,28.8025604870001,-81.334895155,184,"3202 SOLSTICE LOOP, SANFORD, FL, 32771","Match","Exact","3202 SOLSTICE LOOP, SANFORD, FL, 32771",650966401,"R"
506185,"3202 SOUTH MASON AVE APT E101","TACOMA","WA",98409,47.2301971100001,-122.496345113,185,"3202 SOUTH MASON AVE APT E101, TACOMA, WA, 98409","Match","Non_Exact","3202 S MASON PL, TACOMA, WA, 98409",650040639,"R"
506186,"3202 SOUTH OLIVE ST APT 1","PINE BLUFF","AR",71603,34.19716114,-92.007002846,186,"3202 SOUTH OLIVE ST APT 1, PINE BLUFF, AR, 71603","Match","Exact","3202 S OLIVE ST, PINE BLUFF, AR, 71603",2553957,"R"
506187,"3202 SOUTHMERE LANE","PEARLAND","TX",77584,29.5721156130001,-95.370987392,187,"3202 SOUTHMERE LANE, PEARLAND, TX, 77584","Match","Exact","3202 SOUTHMERE LN, PEARLAND, TX, 77584",116617118,"L"
506188,"3202 SPRAGUE AVE","ANOKA","MN",55303,45.2126080880001,-93.3763592879999,188,"3202 SPRAGUE AVE, ANOKA, MN, 55303","Match","Non_Exact","3202 SPRAGUE ST, ANOKA, MN, 55303",97482836,"R"
506189,"3202 STOCKTON PLACE","HOLLAND","PA",18966,40.207567442,-74.947253852,189,"3202 STOCKTON PLACE, HOLLAND, PA, 18966","Match","Exact","3202 STOCKTON PL, HOLLAND, PA, 18966",134710869,"R"
506190,"3202 STRICKLAND RD","BATTLE CREEK","MI",49017,42.427763031,-85.22521108,190,"3202 STRICKLAND RD, BATTLE CREEK, MI, 49017","Match","Exact","3202 STRICKLAND RD, BATTLE CREEK, MI, 49017",647567426,"R"
506191,"3202 SUFFOLK COURT SE","CLEVELAND","TN",37323,35.1182527780001,-84.883630698,191,"3202 SUFFOLK COURT SE, CLEVELAND, TN, 37323","Match","Non_Exact","3202 SUFFOLK CT, CLEVELAND, TN, 37323",57582314,"R"
506192,"3202 SUNDALE DRIVE","GLENSHAW","PA",15116,40.5500153200001,-79.987432413,192,"3202 SUNDALE DRIVE, GLENSHAW, PA, 15116","Match","Exact","3202 SUNDALE DR, GLENSHAW, PA, 15116",51624644,"R"
506193,"3202 SW 153RD DR","BEAVERTON","OR",97003,45.4969706790001,-122.833750312,193,"3202 SW 153RD DR, BEAVERTON, OR, 97003","Match","Exact","3202 SW 153RD DR, BEAVERTON, OR, 97003",641902781,"R"
506194,"3202 TERRY RD","CHEYENNE","WY",82007,41.0886796190001,-104.801730302,194,"3202 TERRY RD, CHEYENNE, WY, 82007","Match","Exact","3202 TERRY RD, CHEYENNE, WY, 82007",160163509,"R"
506195,"3202 THORNDELL CT","LOUISVILLE","KY",40241,38.2930334230001,-85.569125508,195,"3202 THORNDELL CT, LOUISVILLE, KY, 40241","Match","Exact","3202 THORNDELL CT, LOUISVILLE, KY, 40241",96863514,"L"
506196,"3202 THURLOW DR","PEARLAND","TX",77581,29.5481552480001,-95.270275421,196,"3202 THURLOW DR, PEARLAND, TX, 77581","Match","Exact","3202 THURLOW DR, PEARLAND, TX, 77581",614111071,"R"
506197,"3202 TRULLEY AVE","HOUSTON","TX",77004,29.7367797200001,-95.3530514349999,197,"3202 TRULLEY AVE, HOUSTON, TX, 77004","Match","Non_Exact","3202 TRULLEY ST, HOUSTON, TX, 77004",96418766,"R"
506198,"3202 ULUHI STREET","LIHUE","HI",96766,21.9793069630001,-159.36410559,198,"3202 ULUHI STREET, LIHUE, HI, 96766","Match","Non_Exact","3202 ULUHUI ST, LIHUE, HI, 96766",203392620,"L"
506199,"3202 UNICORN LAKE BLVD APT 343","DENTON","TX",76210,33.1744282400001,-97.096927754,199,"3202 UNICORN LAKE BLVD APT 343, DENTON, TX, 76210","Match","Exact","3202 UNICORN LAKE BLVD, DENTON, TX, 76210",627997042,"R"
506200,"3202 UNICORN LAKE BLVD","DENTON","TX",76210,33.1744282400001,-97.096927754,200,"3202 UNICORN LAKE BLVD, DENTON, TX, 76210","Match","Exact","3202 UNICORN LAKE BLVD, DENTON, TX, 76210",627997042,"R"
506201,"3202 URBAN AVE","DALLAS","TX",75227,32.764975033,-96.695719936,201,"3202 URBAN AVE, DALLAS, TX, 75227","Match","Exact","3202 URBAN AVE, DALLAS, TX, 75227",103197223,"R"
506202,"3202 VIOLET DRIVE","PINE BLUFF","AR",72160,34.2025783340001,-92.039237075,202,"3202 VIOLET DRIVE, PINE BLUFF, AR, 72160","Match","Non_Exact","3202 VIOLET DR, PINE BLUFF, AR, 71603",2549878,"L"
506203,"3202 W 5TH ST","SANTA ANA","CA",92703,33.7488746560001,-117.912058782,203,"3202 W 5TH ST, SANTA ANA, CA, 92703","Match","Exact","3202 W 5TH ST, SANTA ANA, CA, 92703",144251551,"L"
506204,"3202 W ALLENS PEAK DRIVE","QUEEN CREEK","AZ",85142,33.182291573,-111.600376277,204,"3202 W ALLENS PEAK DRIVE, QUEEN CREEK, AZ, 85142","Match","Exact","3202 W ALLENS PEAK DR, QUEEN CREEK, AZ, 85142",627632190,"L"
506205,"3202 W BELL RD -1083","PHOENIX","AZ",85053,NA,NA,205,"3202 W BELL RD -1083, PHOENIX, AZ, 85053","No_Match",NA,NA,NA,NA
506206,"3202 W BELL RD","PHOENIX","AZ",85053,NA,NA,206,"3202 W BELL RD, PHOENIX, AZ, 85053","No_Match",NA,NA,NA,NA
506207,"3202 W STRATHMORE AVE","BALTIMORE","MD",21209,39.362892662,-76.6908618969999,207,"3202 W STRATHMORE AVE, BALTIMORE, MD, 21209","Match","Non_Exact","3202 W STRATHMORE AVE, BALTIMORE, MD, 21215",206464153,"L"
506208,"3202 WATFORD WAY","MADISON","WI",53713,43.0284567200001,-89.4000223739999,208,"3202 WATFORD WAY, MADISON, WI, 53713","Match","Exact","3202 WATFORD WAY, MADISON, WI, 53713",49499403,"R"
506209,"3202 WEST EMERSON","SEATTLE","WA",98199,47.654061873,-122.39834292,209,"3202 WEST EMERSON, SEATTLE, WA, 98199","Match","Non_Exact","3202 W EMERSON ST, SEATTLE, WA, 98199",186659371,"R"
506210,"3202 WEST FOREST LAKE DRIVE","FLORENCE","SC",29501,34.1599234890001,-79.836173905,210,"3202 WEST FOREST LAKE DRIVE, FLORENCE, SC, 29501","Match","Exact","3202 W FOREST LAKE DR, FLORENCE, SC, 29501",28900661,"L"
506211,"3202 YALE ST","FLINT","MI",48503,42.9952853020001,-83.728130724,211,"3202 YALE ST, FLINT, MI, 48503","Match","Exact","3202 YALE ST, FLINT, MI, 48503",69573710,"R"
506212,"32020 HIDDEN VALLEY RD","LEBANON","OR",97355,NA,NA,212,"32020 HIDDEN VALLEY RD, LEBANON, OR, 97355","No_Match",NA,NA,NA,NA
506213,"32021 AVE E  SPACE 65","YUCAIPA","CA",92399,NA,NA,213,"32021 AVE E  SPACE 65, YUCAIPA, CA, 92399","No_Match",NA,NA,NA,NA
506214,"32021 AVENUE E APT 40","YUCAIPA","CA",92399,NA,NA,214,"32021 AVENUE E APT 40, YUCAIPA, CA, 92399","No_Match",NA,NA,NA,NA
506215,"32021 SHORT ST","ROCKWOOD","MI",48173,42.0726843210001,-83.2544919589999,215,"32021 SHORT ST, ROCKWOOD, MI, 48173","Match","Exact","32021 SHORT ST, ROCKWOOD, MI, 48173",95505472,"L"
506216,"32023 SE PIPELINE RD","GRESHAM","OR",97080,45.4833070550001,-122.333519117,216,"32023 SE PIPELINE RD, GRESHAM, OR, 97080","Match","Exact","32023 SE PIPELINE RD, GRESHAM, OR, 97080",157547667,"L"
506217,"32026 MOUNTAIN VIEW AVENUE","LAKE ELSINORE","CA",92350,NA,NA,217,"32026 MOUNTAIN VIEW AVENUE, LAKE ELSINORE, CA, 92350","No_Match",NA,NA,NA,NA
506218,"32028 GRENVILLE COURT","WESTLAKE VILLAGE","CA",91361,34.143256695,-118.819395492,218,"32028 GRENVILLE COURT, WESTLAKE VILLAGE, CA, 91361","Match","Exact","32028 GRENVILLE CT, WESTLAKE VILLAGE, CA, 91361",641036602,"L"
506219,"3203 106TH AVE SE","BELLEVUE","WA",98004,47.581695149,-122.198804734,219,"3203 106TH AVE SE, BELLEVUE, WA, 98004","Match","Exact","3203 106TH AVE SE, BELLEVUE, WA, 98004",186678468,"R"
506220,"3203 1ST STREET","DES MOINES","IA",50313,41.624319325,-93.6187252889999,220,"3203 1ST STREET, DES MOINES, IA, 50313","Match","Exact","3203 1ST ST, DES MOINES, IA, 50313",65781639,"R"
506221,"3203 26 STREET SW","LEHIGH ACRES","FL",33976,26.58931554,-81.679852752,221,"3203 26 STREET SW, LEHIGH ACRES, FL, 33976","Match","Exact","3203 26TH ST SW, LEHIGH ACRES, FL, 33976",118070088,"R"
506222,"3203 ALATA VISTA RD","ROCKFORD","IL",61107,42.2897466270001,-89.046033118,222,"3203 ALATA VISTA RD, ROCKFORD, IL, 61107","Match","Non_Exact","3203 ALTA VISTA RD, ROCKFORD, IL, 61107",49260030,"R"
506223,"3203 ALPINE ROAD","AUGUSTA","GA",30909,33.4740211930001,-82.06651028,223,"3203 ALPINE ROAD, AUGUSTA, GA, 30909","Match","Exact","3203 ALPINE RD, AUGUSTA, GA, 30909",55635302,"R"
506224,"3203 ALTA VISTA RD","ROCKFORD","IL",61107,42.2897466270001,-89.046033118,224,"3203 ALTA VISTA RD, ROCKFORD, IL, 61107","Match","Exact","3203 ALTA VISTA RD, ROCKFORD, IL, 61107",49260030,"R"
506225,"3203 ARGONNE DRIVE NW","ATLANTA","GA",30305,33.842441407,-84.406270996,225,"3203 ARGONNE DRIVE NW, ATLANTA, GA, 30305","Match","Exact","3203 ARGONNE DR NW, ATLANTA, GA, 30305",17416265,"R"
506226,"3203 ASHE CREEK DRIVE","LEAGUE CITY","TX",77573,29.502513723,-95.1300136569999,226,"3203 ASHE CREEK DRIVE, LEAGUE CITY, TX, 77573","Match","Exact","3203 ASHE CREEK DR, LEAGUE CITY, TX, 77573",96743962,"L"
506227,"3203 AVENUE L","BROOKLYN","NY",11210,40.6222237210001,-73.943952795,227,"3203 AVENUE L, BROOKLYN, NY, 11210","Match","Exact","3203 AVE L, BROOKLYN, NY, 11210",59090244,"L"
506228,"3203 BALDWIN AVE","SARASOTA","FL",34232,27.3051874280001,-82.474617203,228,"3203 BALDWIN AVE, SARASOTA, FL, 34232","Match","Exact","3203 BALDWIN AVE, SARASOTA, FL, 34232",16404394,"L"
506229,"3203 BECKER GLEN ST","FRESNO","TX",77545,29.539639046,-95.4873338959999,229,"3203 BECKER GLEN ST, FRESNO, TX, 77545","Match","Exact","3203 BECKER GLEN ST, FRESNO, TX, 77545",633678671,"L"
506230,"3203 BEXLEY DRIVE","MIDDLETOWN","OH",45042,39.527638917,-84.37156952,230,"3203 BEXLEY DRIVE, MIDDLETOWN, OH, 45042","Match","Exact","3203 BEXLEY DR, MIDDLETOWN, OH, 45042",113793003,"L"
506231,"3203 BLUE GRASS CIR","CASTLE ROCK","CO",80109,39.4125156380001,-104.897391348,231,"3203 BLUE GRASS CIR, CASTLE ROCK, CO, 80109","Match","Exact","3203 BLUE GRASS CIR, CASTLE ROCK, CO, 80109",130821426,"L"
506232,"3203 BOCA SIEGA DR C12","NAPLES","FL",34112,26.118006307,-81.750237301,232,"3203 BOCA SIEGA DR C12, NAPLES, FL, 34112","Match","Non_Exact","3203 BOCA CIEGA DR, NAPLES, FL, 34112",115145564,"L"
506233,"3203 BRENNAN LANE","BLOOMINGTON","IL",61704,40.5055113060001,-88.917159268,233,"3203 BRENNAN LANE, BLOOMINGTON, IL, 61704","Match","Exact","3203 BRENNAN LN, BLOOMINGTON, IL, 61704",20562782,"R"
506234,"3203 BROOKHURST LANE","DEER PARK","TX",77536,29.682627923,-95.132782815,234,"3203 BROOKHURST LANE, DEER PARK, TX, 77536","Match","Exact","3203 BROOKHURST LN, DEER PARK, TX, 77536",96105733,"R"
506235,"3203 BUFFALO RUN ROAD","BELLEFONTE","PA",16823,40.850595899,-77.898972537,235,"3203 BUFFALO RUN ROAD, BELLEFONTE, PA, 16823","Match","Exact","3203 BUFFALO RUN RD, BELLEFONTE, PA, 16823",640756229,"L"
506236,"3203 CALLE DE DEBESA","CAMARILLO","CA",93010,34.2507268570001,-119.086113301,236,"3203 CALLE DE DEBESA, CAMARILLO, CA, 93010","Match","Non_Exact","3203 CLL DE DEBESA, CAMARILLO, CA, 93010",110008734,"L"
506237,"3203 CAMELLIA ST","HOUMA","LA",70363,29.5905489400001,-90.6829570209999,237,"3203 CAMELLIA ST, HOUMA, LA, 70363","Match","Non_Exact","3203 CAMELLIA AVE, HOUMA, LA, 70363",92052712,"L"
506238,"3203 CHESTERFIELD LANE","STAFFORD","TX",77477,29.6264231260001,-95.588090393,238,"3203 CHESTERFIELD LANE, STAFFORD, TX, 77477","Match","Exact","3203 CHESTERFIELD LN, STAFFORD, TX, 77477",78267822,"L"
506239,"3203 CLAYTON ROAD UNIT 9","CONCORD","CA",94519,37.97304489,-122.020047894,239,"3203 CLAYTON ROAD UNIT 9, CONCORD, CA, 94519","Match","Exact","3203 CLAYTON RD, CONCORD, CA, 94519",192054945,"L"
506240,"3203 CLIFFORD ROAD","HUNTSVILLE","AL",35810,34.7666153750001,-86.640190956,240,"3203 CLIFFORD ROAD, HUNTSVILLE, AL, 35810","Match","Non_Exact","3203 CLIFFORD RD NW, HUNTSVILLE, AL, 35810",58112875,"L"
506241,"3203 COVEDALE STREET","HIGH POINT","NC",27265,36.0045482370001,-80.002782152,241,"3203 COVEDALE STREET, HIGH POINT, NC, 27265","Match","Exact","3203 COVEDALE ST, HIGH POINT, NC, 27265",131038493,"L"
506242,"3203 CRANE BROOK WAY","PEABODY","MA",1960,42.5543269180001,-70.975970326,242,"3203 CRANE BROOK WAY, PEABODY, MA, 1960","Match","Exact","3203 CRANE BROOK WAY, PEABODY, MA, 01960",624670050,"R"
506243,"3203 CYPRESS PARK ROAD","GREENSBORO","NC",27406,36.030290576,-79.845871082,243,"3203 CYPRESS PARK ROAD, GREENSBORO, NC, 27406","Match","Non_Exact","3203 CYPRESS PARK RD, GREENSBORO, NC, 27407",131106356,"L"
506244,"3203 DAVIS ST","OAKLAND","CA",94601,37.7892162840001,-122.218425257,244,"3203 DAVIS ST, OAKLAND, CA, 94601","Match","Exact","3203 DAVIS ST, OAKLAND, CA, 94601",125038072,"R"
506245,"3203 DOMINIQUE DR","GALVESTON","TX",77551,29.2613036650001,-94.84541458,245,"3203 DOMINIQUE DR, GALVESTON, TX, 77551","Match","Exact","3203 DOMINIQUE DR, GALVESTON, TX, 77551",96678512,"R"
506246,"3203 DOVETAIL HOLLOW LANE","PORTER","TX",77365,NA,NA,246,"3203 DOVETAIL HOLLOW LANE, PORTER, TX, 77365","No_Match",NA,NA,NA,NA
506247,"3203 DRY RUN ST","TIPP CITY","OH",45371,39.8893209440001,-84.108870735,247,"3203 DRY RUN ST, TIPP CITY, OH, 45371","Match","Exact","3203 DRY RUN ST, TIPP CITY, OH, 45371",648998090,"R"
506248,"3203 EASTEX FREEWAY","HOUSTON","TX",77026,NA,NA,248,"3203 EASTEX FREEWAY, HOUSTON, TX, 77026","No_Match",NA,NA,NA,NA
506249,"3203 EL TORO COVE","AUSTIN","TX",78746,30.321784356,-97.789361222,249,"3203 EL TORO COVE, AUSTIN, TX, 78746","Match","Exact","3203 EL TORO CV, AUSTIN, TX, 78746",63928623,"R"
506250,"3203 FOUR M CIRCLE","KODAK","TN",37764,35.937511326,-83.62644792,250,"3203 FOUR M CIRCLE, KODAK, TN, 37764","Match","Exact","3203 FOUR M CIR, KODAK, TN, 37764",107541263,"R"
506251,"3203 FRONTIER DR","MIDLAND","TX",79705,32.0164130310001,-102.11956945,251,"3203 FRONTIER DR, MIDLAND, TX, 79705","Match","Exact","3203 FRONTIER DR, MIDLAND, TX, 79705",139578834,"L"
506252,"3203 GOLD STAR DR","HOUSTON","TX",77082,29.724125057,-95.656863581,252,"3203 GOLD STAR DR, HOUSTON, TX, 77082","Match","Exact","3203 GOLD STAR DR, HOUSTON, TX, 77082",634981088,"L"
506253,"3203 GOLD STAR","HOUSTON","TX",77082,29.724125057,-95.656863581,253,"3203 GOLD STAR, HOUSTON, TX, 77082","Match","Non_Exact","3203 GOLD STAR DR, HOUSTON, TX, 77082",634981088,"L"
506254,"3203 HERING AVENUE","BRONX","NY",10469,40.871398357,-73.8536392999999,254,"3203 HERING AVENUE, BRONX, NY, 10469","Match","Exact","3203 HERING AVE, BRONX, NY, 10469",80303631,"L"
506255,"3203 HOLLAND RD","SUFFOLK","VA",23434,36.706382186,-76.683997017,255,"3203 HOLLAND RD, SUFFOLK, VA, 23434","Match","Exact","3203 HOLLAND RD, SUFFOLK, VA, 23434",122243273,"R"
506256,"3203 HOLMES STREET","DALLAS","TX",75215,32.758778771,-96.7766433789999,256,"3203 HOLMES STREET, DALLAS, TX, 75215","Match","Exact","3203 HOLMES ST, DALLAS, TX, 75215",102950469,"R"
506257,"3203 KARSTEN CT","NAMPA","ID",83686,NA,NA,257,"3203 KARSTEN CT, NAMPA, ID, 83686","No_Match",NA,NA,NA,NA
506258,"3203 LAKERIDGE DRIVE","MARIETTA","GA",30067,33.924244964,-84.4584687719999,258,"3203 LAKERIDGE DRIVE, MARIETTA, GA, 30067","Match","Exact","3203 LAKERIDGE DR, MARIETTA, GA, 30067",17253986,"L"
506259,"3203 LANDMARK DRIVE UNIT 2203","CLEARWATER","FL",33761,28.0382911560001,-82.71330849,259,"3203 LANDMARK DRIVE UNIT 2203, CLEARWATER, FL, 33761","Match","Exact","3203 LANDMARK DR, CLEARWATER, FL, 33761",124681234,"L"
506260,"3203 MAGNOLIA COURT","GRAND ISLAND","NE",68803,40.926670992,-98.3765304199999,260,"3203 MAGNOLIA COURT, GRAND ISLAND, NE, 68803","Match","Exact","3203 MAGNOLIA CT, GRAND ISLAND, NE, 68803",196262278,"R"
506261,"3203 MANDEVILLA COURT","PLEASANTON","CA",94588,37.691796148,-121.858865585,261,"3203 MANDEVILLA COURT, PLEASANTON, CA, 94588","Match","Exact","3203 MANDEVILLA CT, PLEASANTON, CA, 94588",125072524,"R"
506262,"3203 MARGEE DRIVE APT 2205","LOUISVILLE","KY",40216,38.1918147160001,-85.8456789319999,262,"3203 MARGEE DRIVE APT 2205, LOUISVILLE, KY, 40216","Match","Exact","3203 MARGEE DR, LOUISVILLE, KY, 40216",618509001,"L"
506263,"3203 MARVIN AVE REAR","CLEVELAND","OH",44109,41.4599682090001,-81.704350334,263,"3203 MARVIN AVE REAR, CLEVELAND, OH, 44109","Match","Exact","3203 MARVIN AVE, CLEVELAND, OH, 44109",61115408,"L"
506264,"3203 MCDOW AVE","HUNTSVILLE","AL",35816,34.7387259060001,-86.6229914209999,264,"3203 MCDOW AVE, HUNTSVILLE, AL, 35816","Match","Non_Exact","3203 MCDOW AVE NW, HUNTSVILLE, AL, 35816",58116560,"L"
506265,"3203 MEADOWBROOK DRIVE","RAPID CITY","SD",57702,44.0549489590001,-103.278317627,265,"3203 MEADOWBROOK DRIVE, RAPID CITY, SD, 57702","Match","Exact","3203 MEADOWBROOK DR, RAPID CITY, SD, 57702",205507110,"R"
506266,"3203 MEDICINE MAN WAY","LAS VEGAS","NV",89169,36.131376791,-115.125120636,266,"3203 MEDICINE MAN WAY, LAS VEGAS, NV, 89169","Match","Exact","3203 MEDICINE MAN WAY, LAS VEGAS, NV, 89169",201871031,"R"
506267,"3203 MID DALE LANE","LOUISVILLE","KY",40220,38.211876553,-85.634069403,267,"3203 MID DALE LANE, LOUISVILLE, KY, 40220","Match","Exact","3203 MID DALE LN, LOUISVILLE, KY, 40220",96856742,"L"
506268,"3203 N 36TH AVE","HOLLYWOOD","FL",33021,26.0386078660001,-80.180396222,268,"3203 N 36TH AVE, HOLLYWOOD, FL, 33021","Match","Exact","3203 N 36TH AVE, HOLLYWOOD, FL, 33021",114791099,"R"
506269,"3203 N 44TH STREET","TAMPA","FL",33605,27.97292435,-82.409235109,269,"3203 N 44TH STREET, TAMPA, FL, 33605","Match","Exact","3203 N 44TH ST, TAMPA, FL, 33605",104534774,"R"
506270,"3203 N ASPEN DRIVE","FARMINGTON","NM",87401,36.7579044840001,-108.207069892,270,"3203 N ASPEN DRIVE, FARMINGTON, NM, 87401","Match","Exact","3203 ASPEN DR, FARMINGTON, NM, 87401",127402211,"L"
506271,"3203 N CHAMBERS STREET","WICHITA","KS",67205,37.7410050180001,-97.476310564,271,"3203 N CHAMBERS STREET, WICHITA, KS, 67205","Match","Exact","3203 N CHAMBERS ST, WICHITA, KS, 67205",641681253,"L"
506272,"3203 N ELSTON AVE","CHICAGO","IL",60618,41.9394977200001,-87.6984611299999,272,"3203 N ELSTON AVE, CHICAGO, IL, 60618","Match","Exact","3203 N ELSTON AVE, CHICAGO, IL, 60618",111760680,"R"
506273,"3203 N IVORY LN","AVONDALE","AZ",85392,33.4828043740001,-112.303551935,273,"3203 N IVORY LN, AVONDALE, AZ, 85392","Match","Exact","3203 N IVORY LN, AVONDALE, AZ, 85392",128264730,"R"
506274,"3203 N OAKS BLVD","NORTH BRUNSWICK","NJ",8902,40.460781319,-74.477091689,274,"3203 N OAKS BLVD, NORTH BRUNSWICK, NJ, 8902","Match","Exact","3203 N OAKS BLVD, N BRUNSWICK, NJ, 08902",60368929,"L"
506275,"3203 N TEXAS AVE","BRYAN","TX",77803,30.698785668,-96.386321266,275,"3203 N TEXAS AVE, BRYAN, TX, 77803","Match","Exact","3203 N TEXAS AVE, BRYAN, TX, 77803",21811884,"L"
506276,"3203 NORTHRIDGE DRIVE","SAN ANTONIO","TX",78209,29.5014338060001,-98.4368562829999,276,"3203 NORTHRIDGE DRIVE, SAN ANTONIO, TX, 78209","Match","Exact","3203 NORTHRIDGE DR, SAN ANTONIO, TX, 78209",101499600,"L"
506277,"3203 OLDE BARRANCAS AVE","PENSACOLA","FL",32507,30.3963393830001,-87.247355018,277,"3203 OLDE BARRANCAS AVE, PENSACOLA, FL, 32507","Match","Exact","3203 OLDE BARRANCAS AVE, PENSACOLA, FL, 32507",93216927,"L"
506278,"3203 OLIVER WHITE AVE","NEW ORLEANS","LA",70126,29.98959381,-90.0336015239999,278,"3203 OLIVER WHITE AVE, NEW ORLEANS, LA, 70126","Match","Exact","3203 OLIVER WHITE AVE, NEW ORLEANS, LA, 70126",646684699,"L"
506279,"3203 OREANA DRIVE","CARSON CITY","NV",89701,39.138772923,-119.751267315,279,"3203 OREANA DRIVE, CARSON CITY, NV, 89701","Match","Exact","3203 OREANA DR, CARSON CITY, NV, 89701",199526880,"R"
506280,"3203 OVERHILL DR","FRISCO","TX",75034,33.1722733660001,-96.862112262,280,"3203 OVERHILL DR, FRISCO, TX, 75034","Match","Non_Exact","3203 OVERHILL DR, FRISCO, TX, 75033",624565543,"R"
506281,"3203 PAMPLONA STREET","GRAND PRAIRIE","TX",75054,32.5852272400001,-97.05800335,281,"3203 PAMPLONA STREET, GRAND PRAIRIE, TX, 75054","Match","Non_Exact","3203 PAMPLONA, GRAND PRAIRIE, TX, 75054",617672322,"L"
506282,"3203 PINE VALLEY WAY","E STROUDSBURG","PA",18302,41.0810266280001,-75.0962063809999,282,"3203 PINE VALLEY WAY, E STROUDSBURG, PA, 18302","Match","Exact","3203 PINE VALLEY WAY, E STROUDSBURG, PA, 18302",634166652,"R"
506283,"3203 POMONA BLVD","POMONA","CA",91768,34.0505285080001,-117.805975503,283,"3203 POMONA BLVD, POMONA, CA, 91768","Match","Exact","3203 POMONA BLVD, POMONA, CA, 91768",142244300,"R"
506284,"3203 POMONA BOULEVARD","POMONA","CA",91768,34.0505285080001,-117.805975503,284,"3203 POMONA BOULEVARD, POMONA, CA, 91768","Match","Exact","3203 POMONA BLVD, POMONA, CA, 91768",142244300,"R"
506285,"3203 PRAIRIE AVE","ROYAL OAK","MI",48073,42.512827691,-83.201357722,285,"3203 PRAIRIE AVE, ROYAL OAK, MI, 48073","Match","Exact","3203 PRAIRIE AVE, ROYAL OAK, MI, 48073",69736154,"L"
506286,"3203 QUENTIN ROAD APT 2R","BROOKLYN","NY",11234,40.6128342280001,-73.9396155219999,286,"3203 QUENTIN ROAD APT 2R, BROOKLYN, NY, 11234","Match","Exact","3203 QUENTIN RD, BROOKLYN, NY, 11234",59090464,"L"
506287,"3203 RIVERSIDE DR","ROSWELL","NM",88201,33.3985072990001,-104.566856692,287,"3203 RIVERSIDE DR, ROSWELL, NM, 88201","Match","Exact","3203 RIVERSIDE DR, ROSWELL, NM, 88201",636539848,"R"
506288,"3203 S 18TH ST","PHILADELPHIA","PA",19145,39.9098248500001,-75.1782484189999,288,"3203 S 18TH ST, PHILADELPHIA, PA, 19145","Match","Exact","3203 S 18TH ST, PHILADELPHIA, PA, 19145",131454460,"L"
506289,"3203 S 90TH LN","TOLLESON","AZ",85353,33.417828587,-112.254520809,289,"3203 S 90TH LN, TOLLESON, AZ, 85353","Match","Exact","3203 S 90TH LN, TOLLESON, AZ, 85353",640977373,"R"
506290,"3203 SEQUOIA AVE","BALTIMORE","MD",21215,39.3283804820001,-76.667339351,290,"3203 SEQUOIA AVE, BALTIMORE, MD, 21215","Match","Exact","3203 SEQUOIA AVE, BALTIMORE, MD, 21215",206406456,"L"
506291,"3203 SHENANDOAH","HOUSTON","TX",77021,29.709427389,-95.373811554,291,"3203 SHENANDOAH, HOUSTON, TX, 77021","Match","Non_Exact","3203 SHENANDOAH ST, HOUSTON, TX, 77021",96072239,"L"
506292,"3203 SHORTRIDGE LANE","MITCHELLVILLE","MD",20721,38.934007159,-76.78933091,292,"3203 SHORTRIDGE LANE, MITCHELLVILLE, MD, 20721","Match","Exact","3203 SHORTRIDGE LN, MITCHELLVILLE, MD, 20721",645473271,"R"
506293,"3203 SINGLETARY DR    APT 112","BAKER","LA",70714,30.5995035720001,-91.164284456,293,"3203 SINGLETARY DR    APT 112, BAKER, LA, 70714","Match","Exact","3203 SINGLETARY DR, BAKER, LA, 70714",92197436,"L"
506294,"3203 SOUTH KNIGHT","WICHITA","KS",67217,37.6366969150001,-97.384027687,294,"3203 SOUTH KNIGHT, WICHITA, KS, 67217","Match","Non_Exact","3203 S KNIGHT ST, WICHITA, KS, 67217",115643017,"R"
506295,"3203 SPRING MESA CT","SNELLVILLE","GA",30039,33.825992587,-84.026879558,295,"3203 SPRING MESA CT, SNELLVILLE, GA, 30039","Match","Non_Exact","3203 SPRING MESA CT SW, SNELLVILLE, GA, 30039",623805715,"L"
506296,"3203 SPRINGVIEW AVE","DALLAS","TX",75216,32.714704242,-96.772352032,296,"3203 SPRINGVIEW AVE, DALLAS, TX, 75216","Match","Exact","3203 SPRINGVIEW AVE, DALLAS, TX, 75216",102952193,"L"
506297,"3203 SUNDALE ROAD","COLUMBUS","OH",43232,39.9118082640001,-82.855482923,297,"3203 SUNDALE ROAD, COLUMBUS, OH, 43232","Match","Exact","3203 SUNDALE RD, COLUMBUS, OH, 43232",218643896,"R"
506298,"3203 SYLVESTER ROAD","ALBANY","GA",31705,31.5722835820001,-84.063367553,298,"3203 SYLVESTER ROAD, ALBANY, GA, 31705","Match","Non_Exact","3203 SYLVESTER HWY, ALBANY, GA, 31705",84332740,"L"
506299,"3203 TIMPSON AVE SE","LOWELL","MI",49331,42.906590464,-85.390830874,299,"3203 TIMPSON AVE SE, LOWELL, MI, 49331","Match","Exact","3203 TIMPSON AVE SE, LOWELL, MI, 49331",12523672,"L"
506300,"3203 TUGGLE DR","CHERRY VALLEY","IL",61016,42.236397036,-88.966080206,300,"3203 TUGGLE DR, CHERRY VALLEY, IL, 61016","Match","Exact","3203 TUGGLE DR, CHERRY VALLEY, IL, 61016",49279435,"R"
506301,"3203 TUSCANY WAY","BOYNTON BEACH","FL",33435,26.507368091,-80.058874814,301,"3203 TUSCANY WAY, BOYNTON BEACH, FL, 33435","Match","Exact","3203 TUSCANY WAY, BOYNTON BEACH, FL, 33435",115583063,"L"
506302,"3203 TYSON AVE","PHILADELPHIA","PA",19149,40.0362096540001,-75.0512222309999,302,"3203 TYSON AVE, PHILADELPHIA, PA, 19149","Match","Exact","3203 TYSON AVE, PHILADELPHIA, PA, 19149",131434955,"L"
506303,"3203 VALLEY CREEK","SAN ANTONIO","TX",78261,29.664672335,-98.43387854,303,"3203 VALLEY CREEK, SAN ANTONIO, TX, 78261","Match","Exact","3203 VALLEY CREEK, SAN ANTONIO, TX, 78261",619981812,"L"
506304,"3203 VERNA RD","LOUISVILLE","KY",40210,38.2089653890001,-85.8195218609999,304,"3203 VERNA RD, LOUISVILLE, KY, 40210","Match","Non_Exact","3203 VERNA RD, LOUISVILLE, KY, 40216",96837062,"L"
506305,"3203 WALNUT","CHICAGO","IL",60624,NA,NA,305,"3203 WALNUT, CHICAGO, IL, 60624","No_Match",NA,NA,NA,NA
506306,"3203 WALTERS LANE APT 104","DISTRICT HEIGHTS","MD",20747,38.845285464,-76.891841399,306,"3203 WALTERS LANE APT 104, DISTRICT HEIGHTS, MD, 20747","Match","Exact","3203 WALTERS LN, DISTRICT HEIGHTS, MD, 20747",647276498,"R"
506307,"3203 WALTON WAY","ROSWELL","GA",30076,34.0112586390001,-84.300447672,307,"3203 WALTON WAY, ROSWELL, GA, 30076","Match","Exact","3203 WALTON WAY, ROSWELL, GA, 30076",642692776,"R"
506308,"3203 WASHINGTON","KENOSHA","WI",53144,NA,NA,308,"3203 WASHINGTON, KENOSHA, WI, 53144","No_Match",NA,NA,NA,NA
506309,"3203 WHEATON WAY APT G","ELLICOTT CITY","MD",21043,39.2846097030001,-76.802214533,309,"3203 WHEATON WAY APT G, ELLICOTT CITY, MD, 21043","Match","Exact","3203 WHEATON WAY, ELLICOTT CITY, MD, 21043",158959051,"L"
506310,"3203 WHITE CIRCLE","MARINA","CA",93033,36.687563203,-121.789034265,310,"3203 WHITE CIRCLE, MARINA, CA, 93033","Match","Non_Exact","3203 WHITE CIR, MARINA, CA, 93933",196836996,"L"
506311,"3203 WINTON DRIVE","JACKSONVILLE","FL",32208,30.3925978020001,-81.7023689279999,311,"3203 WINTON DRIVE, JACKSONVILLE, FL, 32208","Match","Exact","3203 WINTON DR, JACKSONVILLE, FL, 32208",83891733,"R"
506312,"32030 15TH PL SW","FEDERAL WAY","WA",98023,47.314103393,-122.354851407,312,"32030 15TH PL SW, FEDERAL WAY, WA, 98023","Match","Exact","32030 15TH PL SW, FEDERAL WAY, WA, 98023",186648344,"R"
506313,"32030 SE 62ND WAY","FALL CITY","WA",98024,47.545601493,-121.917087241,313,"32030 SE 62ND WAY, FALL CITY, WA, 98024","Match","Exact","32030 SE 62ND WAY, FALL CITY, WA, 98024",629171364,"R"
506314,"32031 LAZY GLEN LANE","TRABUCO CANYON","CA",92679,33.652307824,-117.573292436,314,"32031 LAZY GLEN LANE, TRABUCO CANYON, CA, 92679","Match","Exact","32031 LAZY GLEN LN, TRABUCO CANYON, CA, 92679",144419953,"L"
506315,"32031 SPERLING DR","ST HELENS","OR",97051,45.86986138,-122.909835327,315,"32031 SPERLING DR, ST HELENS, OR, 97051","Match","Exact","32031 SPERLING DR, SAINT HELENS, OR, 97051",158081927,"L"
506316,"32032 28 MILE RD","LENOX","MI",48048,42.749240281,-82.790456552,316,"32032 28 MILE RD, LENOX, MI, 48048","Match","Exact","32032 28 MILE RD, LENOX, MI, 48048",110697612,"R"
506317,"32032 28 MILE ROAD","LENOX","MI",48048,42.749240281,-82.790456552,317,"32032 28 MILE ROAD, LENOX, MI, 48048","Match","Exact","32032 28 MILE RD, LENOX, MI, 48048",110697612,"R"
506318,"32032 GRANITE AVE","SIOUX CITY","IA",51108,42.589879642,-96.390316108,318,"32032 GRANITE AVE, SIOUX CITY, IA, 51108","Match","Exact","32032 GRANITE AVE, SIOUX CITY, IA, 51108",93332231,"L"
506319,"32034 MILLER ST","RAYMOND","CA",93653,37.2153891510001,-119.908448216,319,"32034 MILLER ST, RAYMOND, CA, 93653","Match","Non_Exact","32034 MILLER AVE, RAYMOND, CA, 93653",612099299,"L"
506320,"32035 CO RD 18","STARBUCK","MN",56381,45.58534854,-95.58484809,320,"32035 CO RD 18, STARBUCK, MN, 56381","Match","Exact","32035 CO RD 18, STARBUCK, MN, 56381",165114281,"R"
506321,"32035 JORDAN COURT","SALISBURY","MD",21804,38.3086257160001,-75.5035480339999,321,"32035 JORDAN COURT, SALISBURY, MD, 21804","Match","Exact","32035 JORDAN CT, SALISBURY, MD, 21804",114454565,"R"
506322,"32035 JOSEPH RD","HOCKLEY","TX",77447,30.1530956280001,-95.8971649649999,322,"32035 JOSEPH RD, HOCKLEY, TX, 77447","Match","Exact","32035 JOSEPH RD, HOCKLEY, TX, 77447",652307587,"L"
506323,"32035 MOUNTAIN SHADOW DRIVE","ACTON","CA",93510,34.472770403,-118.209815173,323,"32035 MOUNTAIN SHADOW DRIVE, ACTON, CA, 93510","Match","Non_Exact","32035 MOUNTAIN SHADOW RD, ACTON, CA, 93510",142705728,"L"
506324,"32036 200TH STREET","UNDERWOOD","MN",56586,46.2527816800001,-95.820533531,324,"32036 200TH STREET, UNDERWOOD, MN, 56586","Match","Exact","32036 200TH ST, UNDERWOOD, MN, 56586",168334241,"L"
506325,"32036 EMERALD LANE","CASTAIC","CA",91384,34.5013160190001,-118.6235497,325,"32036 EMERALD LANE, CASTAIC, CA, 91384","Match","Exact","32036 EMERALD LN, CASTAIC, CA, 91384",141831862,"L"
506326,"32036 GRIFFITH DRIVE","GALENA","MD",21635,39.3517929590001,-75.857116128,326,"32036 GRIFFITH DRIVE, GALENA, MD, 21635","Match","Exact","32036 GRIFFITH DR, GALENA, MD, 21635",653245097,"L"
506327,"32039 GRAMERCY LANE","AVON LAKE","OH",44012,41.499631515,-81.98695832,327,"32039 GRAMERCY LANE, AVON LAKE, OH, 44012","Match","Exact","32039 GRAMERCY LN, AVON LAKE, OH, 44012",617712675,"R"
506328,"32039 MCLAGAN RD","TANGENT","OR",97389,44.509562257,-123.137653377,328,"32039 MCLAGAN RD, TANGENT, OR, 97389","Match","Exact","32039 MCLAGAN RD, TANGENT, OR, 97389",156094354,"R"
506329,"32039 N CYPRESS WAY","CASTAIC","CA",91384,34.50234096,-118.618594327,329,"32039 N CYPRESS WAY, CASTAIC, CA, 91384","Match","Exact","32039 CYPRESS WAY, CASTAIC, CA, 91384",141860384,"L"
506330,"3203A RAMSBURY COURT","MOUNT LAUREL","NJ",8054,39.9473497160001,-74.8645627019999,330,"3203A RAMSBURY COURT, MOUNT LAUREL, NJ, 8054","Match","Exact","3203 RAMSBURY CT, MOUNT LAUREL, NJ, 08054",134061521,"L"
506331,"3204 21ST W","LEHIGH ACRES","FL",33973,NA,NA,331,"3204 21ST W, LEHIGH ACRES, FL, 33973","No_Match",NA,NA,NA,NA
506332,"3204 22ND STREET","MENOMINEE","MI",49858,45.1283337740001,-87.628668622,332,"3204 22ND STREET, MENOMINEE, MI, 49858","Match","Exact","3204 22ND ST, MENOMINEE, MI, 49858",170209475,"R"
506333,"3204 30TH STREET","LUBBOCK","TX",79410,33.5669177400001,-101.883969337,333,"3204 30TH STREET, LUBBOCK, TX, 79410","Match","Exact","3204 30TH ST, LUBBOCK, TX, 79410",185253294,"R"
506334,"3204 90TH AVE CT WEST","ROCK ISLAND","IL",61201,41.4306405180001,-90.6130778799999,334,"3204 90TH AVE CT WEST, ROCK ISLAND, IL, 61201","Match","Exact","3204 90TH AVENUE CT W, ROCK ISLAND, IL, 61201",9210200,"L"
506335,"3204 ALTAMONT AVE E","JACKSONVILLE","FL",32208,NA,NA,335,"3204 ALTAMONT AVE E, JACKSONVILLE, FL, 32208","No_Match",NA,NA,NA,NA
506336,"3204 ATLANTA STREET","DALLAS","TX",75215,32.765599251,-96.7689348119999,336,"3204 ATLANTA STREET, DALLAS, TX, 75215","Match","Exact","3204 ATLANTA ST, DALLAS, TX, 75215",102950563,"L"
506337,"3204 ATLANTA","DALLAS","TX",75215,32.765599251,-96.7689348119999,337,"3204 ATLANTA, DALLAS, TX, 75215","Match","Non_Exact","3204 ATLANTA ST, DALLAS, TX, 75215",102950563,"L"
506338,"3204 AVE B","SNYDER","TX",79549,32.7100421280001,-100.895422028,338,"3204 AVE B, SNYDER, TX, 79549","Match","Exact","3204 AVE B, SNYDER, TX, 79549",183177105,"R"
506339,"3204 AWN CT","UPPER MARLBORO","MD",20772,38.8446262670001,-76.767111922,339,"3204 AWN CT, UPPER MARLBORO, MD, 20772","Match","Exact","3204 AWN CT, UPPER MARLBORO, MD, 20772",76344196,"L"
506340,"3204 BARRINGTON ROAD","BALTIMORE","MD",21215,39.3276086880001,-76.668083458,340,"3204 BARRINGTON ROAD, BALTIMORE, MD, 21215","Match","Exact","3204 BARRINGTON RD, BALTIMORE, MD, 21215",206443121,"R"
506341,"3204 BEANNA STREET APT B","AUSTIN","TX",2138,NA,NA,341,"3204 BEANNA STREET APT B, AUSTIN, TX, 2138","No_Match",NA,NA,NA,NA
506342,"3204 BELSTEAD DRIVE","GROVE CITY","OH",43123,39.862344658,-83.089648607,342,"3204 BELSTEAD DRIVE, GROVE CITY, OH, 43123","Match","Exact","3204 BELSTEAD DR, GROVE CITY, OH, 43123",625412289,"R"
506343,"3204 BIRCHWOOD DRIVE","BELLEVUE","NE",68123,41.1049794740001,-95.9621076239999,343,"3204 BIRCHWOOD DRIVE, BELLEVUE, NE, 68123","Match","Exact","3204 BIRCHWOOD DR, BELLEVUE, NE, 68123",28495236,"R"
506344,"3204 BRIGHTWOOD AVE","BALTIMORE","MD",21207,39.327128239,-76.701577829,344,"3204 BRIGHTWOOD AVE, BALTIMORE, MD, 21207","Match","Exact","3204 BRIGHTWOOD AVE, BALTIMORE, MD, 21207",206404325,"L"
506345,"3204 BRUCE DRIVE","AUSTIN","TX",78735,30.2363009590001,-97.8071109799999,345,"3204 BRUCE DRIVE, AUSTIN, TX, 78735","Match","Exact","3204 BRUCE DR, AUSTIN, TX, 78735",63938749,"R"
506346,"3204 BUENNA VISTA TERRACE SE","WASHINGTON","DC",20002,38.8505187800001,-76.966304136,346,"3204 BUENNA VISTA TERRACE SE, WASHINGTON, DC, 20002","Match","Non_Exact","3204 BUENA VISTA TER SE, WASHINGTON, DC, 20020",76232831,"L"
506347,"3204 BURNETT ROAD","BYRON","GA",31008,32.6441395860001,-83.8397803349999,347,"3204 BURNETT ROAD, BYRON, GA, 31008","Match","Exact","3204 BURNETT RD, BYRON, GA, 31008",651811758,"L"
506348,"3204 BURNTWOOD CIRCLE","RALEIGH","NC",27610,35.738365306,-78.615814225,348,"3204 BURNTWOOD CIRCLE, RALEIGH, NC, 27610","Match","Exact","3204 BURNTWOOD CIR, RALEIGH, NC, 27610",72509955,"R"
506349,"3204 CANOE BROOK PARKWAY","RALEIGH","NC",27614,35.926199963,-78.555970438,349,"3204 CANOE BROOK PARKWAY, RALEIGH, NC, 27614","Match","Exact","3204 CANOE BROOK PKWY, RALEIGH, NC, 27614",612818926,"R"
506350,"3204 CAPRIZZI LANE","BOSSIER CITY","LA",71111,32.5345143970001,-93.6647286049999,350,"3204 CAPRIZZI LANE, BOSSIER CITY, LA, 71111","Match","Exact","3204 CAPRIZZI LN, BOSSIER CITY, LA, 71111",650817884,"L"
506351,"3204 CASTLE DR","KENNER","LA",70065,30.013827088,-90.2556162559999,351,"3204 CASTLE DR, KENNER, LA, 70065","Match","Exact","3204 CASTLE DR, KENNER, LA, 70065",93492945,"R"
506352,"3204 CHAMOUNE AVE","SAN DIEGO","CA",92105,32.739360902,-117.096577677,352,"3204 CHAMOUNE AVE, SAN DIEGO, CA, 92105","Match","Exact","3204 CHAMOUNE AVE, SAN DIEGO, CA, 92105",195699011,"L"
506353,"3204 CITATION AVE NW","KENNESAW","GA",30144,34.0342168550001,-84.640401362,353,"3204 CITATION AVE NW, KENNESAW, GA, 30144","Match","Non_Exact","3204 CITATION AVE, KENNESAW, GA, 30144",635537117,"L"
506354,"3204 COUNTY ROAD 11","WAVERLY","AL",36879,32.7639700390001,-85.568976231,354,"3204 COUNTY ROAD 11, WAVERLY, AL, 36879","Match","Exact","3204 CO RD 11, WAVERLY, AL, 36879",653330918,"R"
506355,"3204 CROSBY COURT","SUMMERFIELD","NC",27358,NA,NA,355,"3204 CROSBY COURT, SUMMERFIELD, NC, 27358","No_Match",NA,NA,NA,NA
506356,"3204 DEER RIDGE PL","SANDY","UT",84092,40.5565860510001,-111.80252396,356,"3204 DEER RIDGE PL, SANDY, UT, 84092","Match","Exact","3204 DEER RIDGE PL, SANDY, UT, 84092",624585623,"L"
506357,"3204 DELICADO DR","HUNTVILLE","AL",35810,34.7667142270001,-86.643934217,357,"3204 DELICADO DR, HUNTVILLE, AL, 35810","Match","Non_Exact","3204 DELICADO DR NW, HUNTSVILLE, AL, 35810",58112789,"R"
506358,"3204 DONNELLY AVENUE","KANSAS CITY","MO",64129,39.0655212670001,-94.4863953019999,358,"3204 DONNELLY AVENUE, KANSAS CITY, MO, 64129","Match","Exact","3204 DONNELLY AVE, KANSAS CITY, MO, 64129",91459775,"R"
506359,"3204 DUPIN DR","LOUISVILLE","KY",40219,NA,NA,359,"3204 DUPIN DR, LOUISVILLE, KY, 40219","No_Match",NA,NA,NA,NA
506360,"3204 E 12TH STREET","KANSAS CITY","MO",64127,39.0986147020001,-94.5442128,360,"3204 E 12TH STREET, KANSAS CITY, MO, 64127","Match","Exact","3204 E 12TH ST, KANSAS CITY, MO, 64127",91449470,"L"
506361,"3204 E 2ND STREET","LONG BEACH","CA",90803,33.76391963,-118.15447885,361,"3204 E 2ND STREET, LONG BEACH, CA, 90803","Match","Exact","3204 E 2ND ST, LONG BEACH, CA, 90803",141701954,"R"
506362,"3204 E BIRCH AVE","VISALIA","CA",93292,36.3350857570001,-119.257681194,362,"3204 E BIRCH AVE, VISALIA, CA, 93292","Match","Exact","3204 E BIRCH AVE, VISALIA, CA, 93292",202782306,"L"
506363,"3204 E GREENWOOD STREET","STOCKTON","CA",95205,37.95819992,-121.245917587,363,"3204 E GREENWOOD STREET, STOCKTON, CA, 95205","Match","Exact","3204 GREENWOOD ST, STOCKTON, CA, 95205",133852192,"R"
506364,"3204 E STATE RD 61","VINCENNES","IN",47591,38.6592800450001,-87.4789340789999,364,"3204 E STATE RD 61, VINCENNES, IN, 47591","Match","Exact","3204 STATE RD 61, VINCENNES, IN, 47591",30061181,"R"
506365,"3204 EAST 29TH RD","SENECA","IL",61360,41.3999759600001,-88.613887574,365,"3204 EAST 29TH RD, SENECA, IL, 61360","Match","Exact","3204 E 29TH RD, SENECA, IL, 61360",8584889,"R"
506366,"3204 EL CAMINO STREET","PONCA CITY","OK",74604,36.7408369400001,-97.054282106,366,"3204 EL CAMINO STREET, PONCA CITY, OK, 74604","Match","Exact","3204 EL CAMINO ST, PONCA CITY, OK, 74604",115903868,"L"
506367,"3204 ELM AVE","RAPID CITY","SD",57701,44.054437906,-103.209623014,367,"3204 ELM AVE, RAPID CITY, SD, 57701","Match","Exact","3204 ELM AVE, RAPID CITY, SD, 57701",205510294,"L"
506368,"3204 FERNIRIDGE APT B","ALBANY","GA",31721,31.5881425630001,-84.2330819319999,368,"3204 FERNIRIDGE APT B, ALBANY, GA, 31721","Match","Non_Exact","3204 FERNRIDGE DR, ALBANY, GA, 31721",647401200,"L"
506369,"3204 GOLDCREST AVE","MCALLEN","TX",78504,26.258497549,-98.247513236,369,"3204 GOLDCREST AVE, MCALLEN, TX, 78504","Match","Exact","3204 GOLDCREST AVE, MCALLEN, TX, 78504",71523593,"L"
506370,"3204 GRANITE CREEK","COLUMBIA","MO",65202,38.981678206,-92.3828110269999,370,"3204 GRANITE CREEK, COLUMBIA, MO, 65202","Match","Non_Exact","3204 GRANITE CREEK DR, COLUMBIA, MO, 65202",626326793,"R"
506371,"3204 GRANTHAM DRIVE","RICHARDSON","TX",75082,32.994674753,-96.614093243,371,"3204 GRANTHAM DRIVE, RICHARDSON, TX, 75082","Match","Exact","3204 GRANTHAM DR, RICHARDSON, TX, 75082",123528684,"R"
506372,"3204 GRETA CT","COLLEGE STATION","TX",77845,30.5763560610001,-96.311655479,372,"3204 GRETA CT, COLLEGE STATION, TX, 77845","Match","Exact","3204 GRETA CT, COLLEGE STATION, TX, 77845",21831907,"R"
506373,"3204 HASTINGS ROAD","HUNTSVILLE","AL",35801,NA,NA,373,"3204 HASTINGS ROAD, HUNTSVILLE, AL, 35801","No_Match",NA,NA,NA,NA
506374,"3204 HIGHLAND AVE","KANSAS CITY","MO",64109,39.0682097000001,-94.563294115,374,"3204 HIGHLAND AVE, KANSAS CITY, MO, 64109","Match","Exact","3204 HIGHLAND AVE, KANSAS CITY, MO, 64109",91449824,"R"
506375,"3204 HONEYHILL LANE","LEXINGTON","KY",40502,37.9969917940001,-84.483209261,375,"3204 HONEYHILL LANE, LEXINGTON, KY, 40502","Match","Exact","3204 HONEYHILL LN, LEXINGTON, KY, 40502",31935998,"L"
506376,"3204 HOWARD STRET","RICHMOND","VA",23223,37.5669395800001,-77.385959552,376,"3204 HOWARD STRET, RICHMOND, VA, 23223","Match","Non_Exact","3204 HOWARD ST, RICHMOND, VA, 23223",106650134,"L"
506377,"3204 HUTCHINS STREET","HOUSTON","TX",77004,29.7353843120001,-95.366804562,377,"3204 HUTCHINS STREET, HOUSTON, TX, 77004","Match","Exact","3204 HUTCHINS ST, HOUSTON, TX, 77004",96071601,"R"
506378,"3204 HUTCHINS","HOUSTON","TX",77004,29.7353843120001,-95.366804562,378,"3204 HUTCHINS, HOUSTON, TX, 77004","Match","Non_Exact","3204 HUTCHINS ST, HOUSTON, TX, 77004",96071601,"R"
506379,"3204 IDAHO AVE","KENNER","LA",70065,30.014290858,-90.237769624,379,"3204 IDAHO AVE, KENNER, LA, 70065","Match","Exact","3204 IDAHO AVE, KENNER, LA, 70065",93493793,"R"
506380,"3204 IDLEWOOD VILLAGE DR","RALEIGH","NC",27610,35.7376179930001,-78.61524922,380,"3204 IDLEWOOD VILLAGE DR, RALEIGH, NC, 27610","Match","Exact","3204 IDLEWOOD VILLAGE DR, RALEIGH, NC, 27610",648795591,"R"
506381,"3204 INDIGO WATERS DRIVE","AUSTIN","TX",78732,30.3778692170001,-97.903037689,381,"3204 INDIGO WATERS DRIVE, AUSTIN, TX, 78732","Match","Exact","3204 INDIGO WATERS DR, AUSTIN, TX, 78732",64006448,"R"
506382,"3204 KNOLLWOOD LANE","HOMEWOOD","IL",60430,41.553941652,-87.6945496119999,382,"3204 KNOLLWOOD LANE, HOMEWOOD, IL, 60430","Match","Exact","3204 KNOLLWOOD LN, HOMEWOOD, IL, 60430",111708841,"L"
506383,"3204 LA SALA CUADRA NE","ALBUQUERQUE","NM",87111,35.1204651680001,-106.545500584,383,"3204 LA SALA CUADRA NE, ALBUQUERQUE, NM, 87111","Match","Exact","3204 LA SALA CUADRA NE, ALBUQUERQUE, NM, 87111",206719014,"R"
506384,"3204 LAKE BLUFF CIR NW","PRIOR LAKE","MN",55372,44.716964402,-93.455673344,384,"3204 LAKE BLUFF CIR NW, PRIOR LAKE, MN, 55372","Match","Non_Exact","3204 LAKE BLUFF CIR, PRIOR LAKE, MN, 55372",38156636,"R"
506385,"3204 LAKELAND DR","NASHVILLE","TN",37214,36.155395797,-86.643459757,385,"3204 LAKELAND DR, NASHVILLE, TN, 37214","Match","Exact","3204 LAKELAND DR, NASHVILLE, TN, 37214",97196265,"L"
506386,"3204 LIBBIE STREET","TYLER","TX",75707,32.292025795,-95.260355051,386,"3204 LIBBIE STREET, TYLER, TX, 75707","Match","Exact","3204 LIBBIE ST, TYLER, TX, 75707",141274546,"L"
506387,"3204 LYONS","HOUSTON","TX",77020,29.775974519,-95.337562501,387,"3204 LYONS, HOUSTON, TX, 77020","Match","Non_Exact","3204 LYONS AVE, HOUSTON, TX, 77020",96069186,"R"
506388,"3204 MAHAN CIRCLE","MESQUITE","TX",75149,32.785241168,-96.643286234,388,"3204 MAHAN CIRCLE, MESQUITE, TX, 75149","Match","Exact","3204 MAHAN CIR, MESQUITE, TX, 75149",102931854,"R"
506389,"3204 MALONE DR","LEXINGTON","KY",40513,38.0210009420001,-84.571147433,389,"3204 MALONE DR, LEXINGTON, KY, 40513","Match","Exact","3204 MALONE DR, LEXINGTON, KY, 40513",31954010,"R"
506390,"3204 MARSHALL RD","OTTAWA","KS",66067,38.594011273,-95.221229828,390,"3204 MARSHALL RD, OTTAWA, KS, 66067","Match","Exact","3204 MARSHALL RD, OTTAWA, KS, 66067",10619813,"R"
506391,"3204 MEADOW POINTE DR","OFALLON","MO",63366,38.808136597,-90.733699218,391,"3204 MEADOW POINTE DR, OFALLON, MO, 63366","Match","Non_Exact","3204 MEADOW POINTE DR, O FALLON, MO, 63366",647293146,"L"
506392,"3204 MENCHACA RD 204","AUSTIN","TX",78704,NA,NA,392,"3204 MENCHACA RD 204, AUSTIN, TX, 78704","No_Match",NA,NA,NA,NA
506393,"3204 MILL BROOK DRIVE","CORPUS CHRISTI","TX",78418,27.633030612,-97.296948926,393,"3204 MILL BROOK DRIVE, CORPUS CHRISTI, TX, 78418","Match","Exact","3204 MILL BROOK DR, CORPUS CHRISTI, TX, 78418",178546868,"R"
506394,"3204 MONTANA AVE NUMBER 7","EL PASO","TX",79903,31.7837196470001,-106.456714173,394,"3204 MONTANA AVE NUMBER 7, EL PASO, TX, 79903","Match","Exact","3204 MONTANA AVE, EL PASO, TX, 79903",189343045,"R"
506395,"3204 N 6TH ST","MCALLEN","TX",78501,26.2317749330001,-98.22071908,395,"3204 N 6TH ST, MCALLEN, TX, 78501","Match","Exact","3204 N 6TH ST, MCALLEN, TX, 78501",71494945,"R"
506396,"3204 N HAWTHORNE DR","BOISE","ID",83703,43.64967033,-116.242206597,396,"3204 N HAWTHORNE DR, BOISE, ID, 83703","Match","Exact","3204 HAWTHORNE DR, BOISE, ID, 83703",117858372,"R"
506397,"3204 N SMITH ST","SPOKANE","WA",99207,47.6866869190001,-117.372219087,397,"3204 N SMITH ST, SPOKANE, WA, 99207","Match","Exact","3204 N SMITH ST, SPOKANE, WA, 99207",189879722,"R"
506398,"3204 NE 198TH PLACE","LAKE FOREST PARK","WA",98155,47.772247958,-122.294623856,398,"3204 NE 198TH PLACE, LAKE FOREST PARK, WA, 98155","Match","Exact","3204 NE 198TH PL, LAKE FOREST PARK, WA, 98155",239761052,"L"
506399,"3204 NORRIS CT","AUGUSTA","GA",30907,33.503817123,-82.064873067,399,"3204 NORRIS CT, AUGUSTA, GA, 30907","Match","Exact","3204 NORRIS CT, AUGUSTA, GA, 30907",55644580,"L"
506400,"3204 NORTH 121ST PLAZA APT 359","OMAHA","NE",68164,41.2882918550001,-96.1022842679999,400,"3204 NORTH 121ST PLAZA APT 359, OMAHA, NE, 68164","Match","Exact","3204 N 121ST PLZ, OMAHA, NE, 68164",117013572,"R"
506401,"3204 NORTH 34TH STREET","MILWAUKEE","WI",53210,43.077218084,-87.9560927759999,401,"3204 NORTH 34TH STREET, MILWAUKEE, WI, 53210","Match","Non_Exact","3204 N 34TH ST, MILWAUKEE, WI, 53216",77737904,"R"
506402,"3204 NORTH I ST","MIDLAND","TX",79705,32.0242158780001,-102.100125462,402,"3204 NORTH I ST, MIDLAND, TX, 79705","Match","Exact","3204 N I ST, MIDLAND, TX, 79705",139579230,"R"
506403,"3204 NORTHRIDGE CT","WEST RICHLAND","WA",99353,46.2710132030001,-119.343815673,403,"3204 NORTHRIDGE CT, WEST RICHLAND, WA, 99353","Match","Exact","3204 NORTHRIDGE CT, WEST RICHLAND, WA, 99353",617979505,"R"
506404,"3204 NW 61ST TER","OKLAHOMA CITY","OK",73112,35.534155109,-97.572527121,404,"3204 NW 61ST TER, OKLAHOMA CITY, OK, 73112","Match","Exact","3204 NW 61ST TER, OKLAHOMA CITY, OK, 73112",100393400,"L"
506405,"3204 NW 64TH ST","SEATTLE","WA",98107,47.6748382100001,-122.398637901,405,"3204 NW 64TH ST, SEATTLE, WA, 98107","Match","Exact","3204 NW 64TH ST, SEATTLE, WA, 98107",186658196,"R"
506406,"3204 PACES STATION RDG","ATLANTA","GA",30339,33.8568080580001,-84.47553038,406,"3204 PACES STATION RDG, ATLANTA, GA, 30339","Match","Exact","3204 PACES STATION RIDGE, ATLANTA, GA, 30339",17207432,"L"
506407,"3204 PESANTE ROAD","BAKERSFIELD","CA",93306,35.3821810430001,-118.942822885,407,"3204 PESANTE ROAD, BAKERSFIELD, CA, 93306","Match","Exact","3204 PESANTE RD, BAKERSFIELD, CA, 93306",109095893,"L"
506408,"3204 POINSETT WAY","POOLER","GA",31322,NA,NA,408,"3204 POINSETT WAY, POOLER, GA, 31322","No_Match",NA,NA,NA,NA
506409,"3204 POLLY DRIVE","CLARKSVILLE","TN",37042,NA,NA,409,"3204 POLLY DRIVE, CLARKSVILLE, TN, 37042","No_Match",NA,NA,NA,NA
506410,"3204 PRYTANIA ST SUITE F","NEW ORLEANS","LA",70115,29.9276953900001,-90.088708732,410,"3204 PRYTANIA ST SUITE F, NEW ORLEANS, LA, 70115","Match","Exact","3204 PRYTANIA ST, NEW ORLEANS, LA, 70115",191712762,"L"
506411,"3204 PURPLE SAGE DR","BELTON","TX",76513,31.094254431,-97.4888256839999,411,"3204 PURPLE SAGE DR, BELTON, TX, 76513","Match","Exact","3204 PURPLE SAGE DR, BELTON, TX, 76513",642827794,"R"
506412,"3204 REDDING RD APT 5B","RED BANK","TN",37411,35.107347974,-85.2961196749999,412,"3204 REDDING RD APT 5B, RED BANK, TN, 37411","Match","Non_Exact","3204 REDDING RD, RED BANK, TN, 37415",639698799,"R"
506413,"3204 ROSEMEAD BL STE 200","EL MONTE","CA",91731,34.065747636,-118.068156852,413,"3204 ROSEMEAD BL STE 200, EL MONTE, CA, 91731","Match","Exact","3204 ROSEMEAD BLVD, EL MONTE, CA, 91731",142739931,"R"
506414,"3204 S 130TH AVENUE CIR","OMAHA","NE",68144,41.229940979,-96.117638884,414,"3204 S 130TH AVENUE CIR, OMAHA, NE, 68144","Match","Exact","3204 S 130TH AVENUE CIR, OMAHA, NE, 68144",116970756,"R"
506415,"3204 S 130TH AVENUE CIRCLE","Omaha","NE",68144,41.229940979,-96.117638884,415,"3204 S 130TH AVENUE CIRCLE, Omaha, NE, 68144","Match","Exact","3204 S 130TH AVENUE CIR, OMAHA, NE, 68144",116970756,"R"
506416,"3204 S 130TH AVENUE CIRCLE","OMAHA","NE",68144,41.229940979,-96.117638884,416,"3204 S 130TH AVENUE CIRCLE, OMAHA, NE, 68144","Match","Exact","3204 S 130TH AVENUE CIR, OMAHA, NE, 68144",116970756,"R"
506417,"3204 S 300E 21","SALT LAKE CITY","UT",84115,NA,NA,417,"3204 S 300E 21, SALT LAKE CITY, UT, 84115","No_Match",NA,NA,NA,NA
506418,"3204 S ELIZABETH AVE","INDEPENDENCE","MO",64057,39.0604897520001,-94.360928096,418,"3204 S ELIZABETH AVE, INDEPENDENCE, MO, 64057","Match","Exact","3204 S ELIZABETH AVE, INDEPENDENCE, MO, 64057",91506607,"R"
506419,"3204 S FARM ROAD 69","REPUBLIC","MO",65738,37.159792613,-93.501296342,419,"3204 S FARM ROAD 69, REPUBLIC, MO, 65738","Match","Non_Exact","3204 S FARM RD 69, REPUBLIC, MO, 65738",76706845,"R"
506420,"3204 S HOPKINS AVE","TITUSVILLE","FL",32780,28.5801066770001,-80.804987126,420,"3204 S HOPKINS AVE, TITUSVILLE, FL, 32780","Match","Exact","3204 S HOPKINS AVE, TITUSVILLE, FL, 32780",651309163,"R"
506421,"3204 S MILWAUKEE STREET","DENVER","CO",80210,39.658511608,-104.95144169,421,"3204 S MILWAUKEE STREET, DENVER, CO, 80210","Match","Exact","3204 S MILWAUKEE ST, DENVER, CO, 80210",177340790,"L"
506422,"3204 SAGESTONE DR 5117","FORT WORTH","TX",76177,32.910876107,-97.310672928,422,"3204 SAGESTONE DR 5117, FORT WORTH, TX, 76177","Match","Exact","3204 SAGESTONE DR, FORT WORTH, TX, 76177",648639042,"L"
506423,"3204 SAGESTONE DR NUM 5314","FORT WORTH","TX",76177,32.910876107,-97.310672928,423,"3204 SAGESTONE DR NUM 5314, FORT WORTH, TX, 76177","Match","Exact","3204 SAGESTONE DR, FORT WORTH, TX, 76177",648639042,"L"
506424,"3204 SAYBROOK COURT","DUBLIN","OH",43017,40.086321814,-83.102362688,424,"3204 SAYBROOK COURT, DUBLIN, OH, 43017","Match","Exact","3204 SAYBROOK CT, DUBLIN, OH, 43017",135560913,"R"
506425,"3204 SE IRVINGHAM","TOPEKA","KS",66605,39.0088060310001,-95.678644839,425,"3204 SE IRVINGHAM, TOPEKA, KS, 66605","Match","Non_Exact","3204 SE IRVINGHAM ST, TOPEKA, KS, 66605",17892039,"L"
506426,"3204 SEATTLE COURT","WAKE FOREST","NC",27587,35.9070570480001,-78.524224177,426,"3204 SEATTLE COURT, WAKE FOREST, NC, 27587","Match","Exact","3204 SEATTLE CT, WAKE FOREST, NC, 27587",72525786,"L"
506427,"3204 SHENANDOAH DRIVE","HOUSTON","TX",77021,29.7094076970001,-95.373788968,427,"3204 SHENANDOAH DRIVE, HOUSTON, TX, 77021","Match","Non_Exact","3204 SHENANDOAH ST, HOUSTON, TX, 77021",96072239,"R"
506428,"3204 SHERRY COURT","VIRIGNIA BEACH","VA",23464,36.820511228,-76.21947649,428,"3204 SHERRY COURT, VIRIGNIA BEACH, VA, 23464","Match","Non_Exact","3204 SHERRY CT, VIRGINIA BCH, VA, 23464",122257431,"R"
506429,"3204 SHONDA CIR","TUPELO","MS",38801,34.2135241030001,-88.72967993,429,"3204 SHONDA CIR, TUPELO, MS, 38801","Match","Exact","3204 SHONDA CIR, TUPELO, MS, 38801",90658095,"R"
506430,"3204 SKYBROOK LANE","DURHAM","NC",27703,35.927219279,-78.832594735,430,"3204 SKYBROOK LANE, DURHAM, NC, 27703","Match","Exact","3204 SKYBROOK LN, DURHAM, NC, 27703",640012422,"R"
506431,"3204 SLOAN SQUARE NE","ATLANTA","GA",30329,33.8137664110001,-84.3365673019999,431,"3204 SLOAN SQUARE NE, ATLANTA, GA, 30329","Match","Exact","3204 SLOAN SQ NE, ATLANTA, GA, 30329",23399216,"L"
506432,"3204 SOUTH 1575 EAST","SALT LAKE CITY","UT",84106,40.7006930320001,-111.84645867,432,"3204 SOUTH 1575 EAST, SALT LAKE CITY, UT, 84106","Match","Exact","3204 S 1575 E, SALT LAKE CITY, UT, 84106",176083352,"R"
506433,"3204 SOUTH SAINT JOSEPH ST","SOUTH BEND","IN",46614,41.641035441,-86.246401609,433,"3204 SOUTH SAINT JOSEPH ST, SOUTH BEND, IN, 46614","Match","Exact","3204 S SAINT JOSEPH ST, SOUTH BEND, IN, 46614",8056791,"L"
506434,"3204 SPANISH TRAIL SW","EAST POINT","GA",30344,33.634048954,-84.494291827,434,"3204 SPANISH TRAIL SW, EAST POINT, GA, 30344","Match","Exact","3204 SPANISH TRL SW, EAST POINT, GA, 30344",17339121,"L"
506435,"3204 ST JOHNS DR","DALLAS","TX",75205,32.8344943640001,-96.78350643,435,"3204 ST JOHNS DR, DALLAS, TX, 75205","Match","Exact","3204 SAINT JOHNS DR, DALLAS, TX, 75205",102907771,"R"
506436,"3204 STONE THROW LN APT 1","DURHAM","NC",27713,35.8917247100001,-78.8831225759999,436,"3204 STONE THROW LN APT 1, DURHAM, NC, 27713","Match","Non_Exact","3204 STONES THROW LN, DURHAM, NC, 27713",640628041,"L"
506437,"3204 STONESBORO ROAD","FORT WASHINGTON","MD",20744,38.768397237,-76.9516921809999,437,"3204 STONESBORO ROAD, FORT WASHINGTON, MD, 20744","Match","Exact","3204 STONESBORO RD, FT WASHINGTON, MD, 20744",76316722,"L"
506438,"3204 SUNSET AVE","RALEIGH","NC",27604,NA,NA,438,"3204 SUNSET AVE, RALEIGH, NC, 27604","No_Match",NA,NA,NA,NA
506439,"3204 SWEETWATER VONORE RD","SWEETWATER","TN",37874,35.6064667200001,-84.360391925,439,"3204 SWEETWATER VONORE RD, SWEETWATER, TN, 37874","Match","Exact","3204 SWEETWATER VONORE RD, SWEETWATER, TN, 37874",639941578,"R"
506440,"3204 SYBIL COURT","MARRERRO","LA",70072,29.8468031800001,-90.128983169,440,"3204 SYBIL COURT, MARRERRO, LA, 70072","Match","Non_Exact","3204 SYBIL CT, MARRERO, LA, 70072",93506192,"L"
506441,"3204 TANGLEWOOD TRAIL","FORT WORTH","TX",76109,32.7038455370001,-97.381157544,441,"3204 TANGLEWOOD TRAIL, FORT WORTH, TX, 76109","Match","Exact","3204 TANGLEWOOD TRL, FORT WORTH, TX, 76109",101886063,"R"
506442,"3204 TAYLOR STREET","MOUNT RAINIER","MD",20712,38.9414340660001,-76.96363293,442,"3204 TAYLOR STREET, MOUNT RAINIER, MD, 20712","Match","Exact","3204 TAYLOR ST, MOUNT RAINIER, MD, 20712",76304527,"L"
506443,"3204 THATCHER COURT","NEW BERN","NC",28562,35.0292388450001,-77.0182186019999,443,"3204 THATCHER COURT, NEW BERN, NC, 28562","Match","Exact","3204 THATCHER CT, NEW BERN, NC, 28562",642407355,"R"
506444,"3204 THOMAS LANE","MONTGOMERY","IL",60538,41.707209392,-88.4152753669999,444,"3204 THOMAS LANE, MONTGOMERY, IL, 60538","Match","Exact","3204 THOMAS LN, MONTGOMERY, IL, 60538",54499552,"L"
506445,"3204 TOM GREEN ST APT 6","AUSTIN","TX",78705,NA,NA,445,"3204 TOM GREEN ST APT 6, AUSTIN, TX, 78705","No_Match",NA,NA,NA,NA
506446,"3204 TRAVIS COURT","LEXINGTON","KY",40515,37.9875783740001,-84.457584735,446,"3204 TRAVIS COURT, LEXINGTON, KY, 40515","Match","Exact","3204 TRAVIS CT, LEXINGTON, KY, 40515",31928656,"L"
506447,"3204 TREETOP VIEW LANE","APEX","NC",27539,35.6925500250001,-78.74295474,447,"3204 TREETOP VIEW LANE, APEX, NC, 27539","Match","Exact","3204 TREETOP VIEW LN, APEX, NC, 27539",72665195,"R"
506448,"3204 VALLEY FOREST DRIVE","UPPER MARLBORO","MD",20772,38.845803775,-76.834926281,448,"3204 VALLEY FOREST DRIVE, UPPER MARLBORO, MD, 20772","Match","Exact","3204 VALLEY FOREST DR, UPPER MARLBORO, MD, 20772",635287887,"L"
506449,"3204 VAQUERO LN","CEDAR PARK","TX",78641,30.55275242,-97.786611664,449,"3204 VAQUERO LN, CEDAR PARK, TX, 78641","Match","Exact","3204 VAQUERO LN, CEDAR PARK, TX, 78641",648537412,"R"
506450,"3204 W 27TH","LOSANGELES","CA",90018,NA,NA,450,"3204 W 27TH, LOSANGELES, CA, 90018","No_Match",NA,NA,NA,NA
506451,"3204 W KENT DR","CARBONDALE","IL",62901,37.724587759,-89.2657788079999,451,"3204 W KENT DR, CARBONDALE, IL, 62901","Match","Exact","3204 W KENT DR, CARBONDALE, IL, 62901",95122344,"R"
506452,"3204 WALLACE AVENUE","TAMPA","FL",33611,27.885197292,-82.4960703209999,452,"3204 WALLACE AVENUE, TAMPA, FL, 33611","Match","Exact","3204 WALLACE AVE, TAMPA, FL, 33611",104528934,"L"
506453,"3204 WALNUT RIDGE","ATANATA","GA",30349,33.6673781530001,-84.589112175,453,"3204 WALNUT RIDGE, ATANATA, GA, 30349","Match","Non_Exact","3204 WALNUT RIDGE, ATLANTA, GA, 30349",644634580,"L"
506454,"3204 WALNUT RIDGE","ATLANTA","GA",30349,33.6673781530001,-84.589112175,454,"3204 WALNUT RIDGE, ATLANTA, GA, 30349","Match","Exact","3204 WALNUT RIDGE, ATLANTA, GA, 30349",644634580,"L"
506455,"3204 WANSTEAD PARK DRIVE APT 607","SUWANEE","GA",30024,34.032646803,-84.0552964839999,455,"3204 WANSTEAD PARK DRIVE APT 607, SUWANEE, GA, 30024","Match","Exact","3204 WANSTEAD PARK DR, SUWANEE, GA, 30024",646777308,"L"
506456,"3204 WANSTEAD PARK DRIVE","SUWANEE","GA",30024,34.032646803,-84.0552964839999,456,"3204 WANSTEAD PARK DRIVE, SUWANEE, GA, 30024","Match","Exact","3204 WANSTEAD PARK DR, SUWANEE, GA, 30024",646777308,"L"
506457,"3204 WEST 27TH STREET","LOS ANGELES","CA",90018,34.03062656,-118.319083547,457,"3204 WEST 27TH STREET, LOS ANGELES, CA, 90018","Match","Exact","3204 W 27TH ST, LOS ANGELES, CA, 90018",141605721,"L"
506458,"3204 WESTERN AVE","PARK FOREST","NJ",60466,NA,NA,458,"3204 WESTERN AVE, PARK FOREST, NJ, 60466","No_Match",NA,NA,NA,NA
506459,"3204 WHELAHAN FARM RD","KNOXVILLE","TN",37924,36.0473451130001,-83.860100221,459,"3204 WHELAHAN FARM RD, KNOXVILLE, TN, 37924","Match","Exact","3204 WHELAHAN FARM RD, KNOXVILLE, TN, 37924",641743956,"L"
506460,"3204 WHELAHAN FARM ROAD","KNOXVILLE","TN",37924,36.0473451130001,-83.860100221,460,"3204 WHELAHAN FARM ROAD, KNOXVILLE, TN, 37924","Match","Exact","3204 WHELAHAN FARM RD, KNOXVILLE, TN, 37924",641743956,"L"
506461,"3204 WHISPERING WOODS CT","ROUND ROCK","TX",78681,30.532910884,-97.726731749,461,"3204 WHISPERING WOODS CT, ROUND ROCK, TX, 78681","Match","Exact","3204 WHISPERING WOODS CT, ROUND ROCK, TX, 78681",126474886,"R"
506462,"3204 WILLOW LANE SE","MINOT","ND",58701,48.2013732140001,-101.270363622,462,"3204 WILLOW LANE SE, MINOT, ND, 58701","Match","Non_Exact","3204 WILLOW LN, MINOT, ND, 58701",638147256,"R"
506463,"3204 WINDFALL RD","LAREDO","TX",78045,27.58871664,-99.450063977,463,"3204 WINDFALL RD, LAREDO, TX, 78045","Match","Exact","3204 WINDFALL RD, LAREDO, TX, 78045",617775779,"L"
506464,"3204 WINDY BANK LANE","PEARLAND","TX",77581,29.5726215350001,-95.269612825,464,"3204 WINDY BANK LANE, PEARLAND, TX, 77581","Match","Exact","3204 WINDY BANK LN, PEARLAND, TX, 77581",627722501,"R"
506465,"3204 YATTIKA PLACE","LONGWOOD","FL",32779,28.7476016430001,-81.395290226,465,"3204 YATTIKA PLACE, LONGWOOD, FL, 32779","Match","Non_Exact","3204 YATTICA PL, LONGWOOD, FL, 32779",93767125,"L"
506466,"3204-5 MEADOW AVENUE","NORMAN","OK",73072,35.1850181680001,-97.462721392,466,"3204-5 MEADOW AVENUE, NORMAN, OK, 73072","Match","Exact","3204 MEADOW AVE, NORMAN, OK, 73072",99910951,"R"
506467,"3204-H LAWNDALE DRIVE","GREENSBORO","NC",27408,36.1111856480001,-79.820439462,467,"3204-H LAWNDALE DRIVE, GREENSBORO, NC, 27408","Match","Exact","3204 LAWNDALE DR, GREENSBORO, NC, 27408",131030353,"R"
506468,"32040 WAKEMAN BAY TRAIL","GRAND RAPIDS","MN",55744,47.4018820850001,-93.536360077,468,"32040 WAKEMAN BAY TRAIL, GRAND RAPIDS, MN, 55744","Match","Exact","32040 WAKEMAN BAY TRL, GRAND RAPIDS, MN, 55744",624891124,"R"
506469,"32040 WATERSIDE LANE","WESTLAKE VILLAGE","CA",91361,34.1392317200001,-118.821517832,469,"32040 WATERSIDE LANE, WESTLAKE VILLAGE, CA, 91361","Match","Exact","32040 WATERSIDE LN, WESTLAKE VILLAGE, CA, 91361",141719390,"L"
506470,"32044 48TH AVENUE","PAW PAW","MI",49079,42.2448469980001,-85.863762417,470,"32044 48TH AVENUE, PAW PAW, MI, 49079","Match","Exact","32044 48TH AVE, PAW PAW, MI, 49079",34756377,"L"
506471,"32044 HURON RIVER DRIVE","NEW BOSTON","MI",48164,42.1516629180001,-83.350683213,471,"32044 HURON RIVER DRIVE, NEW BOSTON, MI, 48164","Match","Exact","32044 HURON RIVER DR, NEW BOSTON, MI, 48164",95454629,"L"
506472,"32047 CO RD 101","LAKE PARK","MN",56554,47.036628745,-96.066830438,472,"32047 CO RD 101, LAKE PARK, MN, 56554","Match","Exact","32047 CO RD 101, LAKE PARK, MN, 56554",653513665,"R"
506473,"32049 MEADOW WOOD LN","LAKE ELSINORE","CA",92532,33.6626172320001,-117.257697828,473,"32049 MEADOW WOOD LN, LAKE ELSINORE, CA, 92532","Match","Exact","32049 MEADOW WOOD LN, LAKE ELSINORE, CA, 92532",608994627,"R"
506474,"3205  BEECH AVENUE SW","BIRMINGHAM","AL",35221,33.459405442,-86.88534322,474,"3205  BEECH AVENUE SW, BIRMINGHAM, AL, 35221","Match","Exact","3205 BEECH AVE SW, BIRMINGHAM, AL, 35221",81557442,"L"
506475,"3205 170TH ST","RANDOLPH","IA",51649,40.8012356310001,-95.575397068,475,"3205 170TH ST, RANDOLPH, IA, 51649","Match","Exact","3205 170TH ST, RANDOLPH, IA, 51649",9905625,"L"
506476,"3205 17TH AVE S","MINNEAPOLIS","MN",55407,44.944540713,-93.249934911,476,"3205 17TH AVE S, MINNEAPOLIS, MN, 55407","Match","Exact","3205 17TH AVE S, MINNEAPOLIS, MN, 55407",43638961,"L"
506477,"3205 198TH PL SE","BOTHELL","WA",98012,47.8182794950001,-122.189842745,477,"3205 198TH PL SE, BOTHELL, WA, 98012","Match","Exact","3205 198TH PL SE, BOTHELL, WA, 98012",187762688,"L"
506478,"3205 19TH AVE SE","RIO RANCHO","NM",87124,35.225157091,-106.672791003,478,"3205 19TH AVE SE, RIO RANCHO, NM, 87124","Match","Exact","3205 19TH AVE SE, RIO RANCHO, NM, 87124",193999520,"L"
506479,"3205 30TH AVENUE SOUTH APT 1","MINNEAPOLIS","MN",55406,44.9447676820001,-93.228419555,479,"3205 30TH AVENUE SOUTH APT 1, MINNEAPOLIS, MN, 55406","Match","Exact","3205 30TH AVE S, MINNEAPOLIS, MN, 55406",43639784,"L"
506480,"3205 34TH ST DR NE","HICKORY","NC",28601,NA,NA,480,"3205 34TH ST DR NE, HICKORY, NC, 28601","No_Match",NA,NA,NA,NA
506481,"3205 6TH STREET EAST","PALMETTO","FL",34221,NA,NA,481,"3205 6TH STREET EAST, PALMETTO, FL, 34221","No_Match",NA,NA,NA,NA
506482,"3205 93RD PL SE","EVERETT","WA",98208,47.913071159,-122.189326367,482,"3205 93RD PL SE, EVERETT, WA, 98208","Match","Exact","3205 93RD PL SE, EVERETT, WA, 98208",651950596,"L"
506483,"3205 ABELL AVE","BALTIMORE","MD",21218,39.3272075620001,-76.6121103089999,483,"3205 ABELL AVE, BALTIMORE, MD, 21218","Match","Exact","3205 ABELL AVE, BALTIMORE, MD, 21218",206408905,"R"
506484,"3205 ALDER COURT","TEGA CAY","NC",29708,NA,NA,484,"3205 ALDER COURT, TEGA CAY, NC, 29708","No_Match",NA,NA,NA,NA
506485,"3205 ARROWWOOD LANE","BOULDER","CO",80303,40.002775651,-105.251304713,485,"3205 ARROWWOOD LANE, BOULDER, CO, 80303","Match","Exact","3205 ARROWWOOD LN, BOULDER, CO, 80303",188162800,"L"
506486,"3205 ASHWOOD RD","CLEVELAND","OH",44120,41.47259096,-81.584925841,486,"3205 ASHWOOD RD, CLEVELAND, OH, 44120","Match","Exact","3205 ASHWOOD RD, CLEVELAND, OH, 44120",650990684,"L"
506487,"3205 ASHWOOD RD","CLEVELAND","OH",44137,41.47259096,-81.584925841,487,"3205 ASHWOOD RD, CLEVELAND, OH, 44137","Match","Non_Exact","3205 ASHWOOD RD, CLEVELAND, OH, 44120",650990684,"L"
506488,"3205 BELGIAN DRIVE","NORCO","CA",92860,33.915244639,-117.577035902,488,"3205 BELGIAN DRIVE, NORCO, CA, 92860","Match","Exact","3205 BELGIAN DR, NORCO, CA, 92860",194831630,"L"
506489,"3205 BONHAM AVE","TEMPLE","TX",76502,31.0787260540001,-97.399961232,489,"3205 BONHAM AVE, TEMPLE, TX, 76502","Match","Exact","3205 BONHAM AVE, TEMPLE, TX, 76502",146152984,"R"
506490,"3205 BRADBURY","ST. MERAUX","LA",70075,NA,NA,490,"3205 BRADBURY, ST. MERAUX, LA, 70075","No_Match",NA,NA,NA,NA
506491,"3205 BROOKFIELD ROAD","HARRISBURG","PA",17109,40.2900420350001,-76.847929267,491,"3205 BROOKFIELD ROAD, HARRISBURG, PA, 17109","Match","Exact","3205 BROOKFIELD RD, HARRISBURG, PA, 17109",70820718,"R"
506492,"3205 CABRIOLET CT","CARMICHAEL","CA",95608,38.6235843910001,-121.339159582,492,"3205 CABRIOLET CT, CARMICHAEL, CA, 95608","Match","Exact","3205 CABRIOLET CT, CARMICHAEL, CA, 95608",133343109,"R"
506493,"3205 CARLISLE AVENUE","BALTIMORE","MD",21216,39.3186633830001,-76.67101859,493,"3205 CARLISLE AVENUE, BALTIMORE, MD, 21216","Match","Exact","3205 CARLISLE AVE, BALTIMORE, MD, 21216",206413191,"L"
506494,"3205 CLAIREMONT DRIVE UNIT 3","SAN DIEGO","CA",92117,32.7999438140001,-117.195478627,494,"3205 CLAIREMONT DRIVE UNIT 3, SAN DIEGO, CA, 92117","Match","Exact","3205 CLAIREMONT DR, SAN DIEGO, CA, 92117",195305388,"R"
506495,"3205 CLARENDON AVENUE","BROOKLYN","NY",11226,40.6433753320001,-73.9467701149999,495,"3205 CLARENDON AVENUE, BROOKLYN, NY, 11226","Match","Non_Exact","3205 CLARENDON RD, BROOKLYN, NY, 11226",652211986,"L"
506496,"3205 CUMBERLAND BLVD APT 351","ATLANTA","GA",30339,33.8774623790001,-84.4625564,496,"3205 CUMBERLAND BLVD APT 351, ATLANTA, GA, 30339","Match","Exact","3205 CUMBERLAND BLVD, ATLANTA, GA, 30339",643428022,"L"
506497,"3205 CUMBERLAND BLVD SE APT 456","ATLANTA","GA",30339,33.877995823,-84.459449166,497,"3205 CUMBERLAND BLVD SE APT 456, ATLANTA, GA, 30339","Match","Exact","3205 CUMBERLAND BLVD SE, ATLANTA, GA, 30339",17193100,"L"
506498,"3205 CUMBERLAND BLVD SE UNIT 561","ATLANTA","GA",30339,33.877995823,-84.459449166,498,"3205 CUMBERLAND BLVD SE UNIT 561, ATLANTA, GA, 30339","Match","Exact","3205 CUMBERLAND BLVD SE, ATLANTA, GA, 30339",17193100,"L"
506499,"3205 DAUTERIVE DRIVE","CHALMETTE","LA",70043,29.944700599,-89.952719797,499,"3205 DAUTERIVE DRIVE, CHALMETTE, LA, 70043","Match","Exact","3205 DAUTERIVE DR, CHALMETTE, LA, 70043",111187563,"R"
506500,"3205 DENTON DRIVE","AUGUSTA","GA",30906,33.4283890310001,-82.076158312,500,"3205 DENTON DRIVE, AUGUSTA, GA, 30906","Match","Exact","3205 DENTON DR, AUGUSTA, GA, 30906",55651206,"L"
