"ID","Address","City","State","Zip","lat","long","id","input_address","match_indicator","match_type","matched_address","tiger_line_id","tiger_side"
424501,"2616 N SAINT ANTHONY RD","JACKSON","MI",49203,NA,NA,1,"2616 N SAINT ANTHONY RD, JACKSON, MI, 49203","Tie",NA,NA,NA,NA
424502,"2616 N WATTS","PORTLAND","OR",97217,45.581270675,-122.69381665,2,"2616 N WATTS, PORTLAND, OR, 97217","Match","Non_Exact","2616 N WATTS ST, PORTLAND, OR, 97217",157495282,"L"
424503,"2616 NE 202ND","MIAMI","FL",33180,25.9627013530001,-80.149076765,3,"2616 NE 202ND, MIAMI, FL, 33180","Match","Non_Exact","2616 NE 202ND ST, MIAMI, FL, 33180",116035191,"R"
424504,"2616 NEWELL DRIVE","WILMINGTON","DE",19808,39.7431044630001,-75.63075344,4,"2616 NEWELL DRIVE, WILMINGTON, DE, 19808","Match","Exact","2616 NEWELL DR, WILMINGTON, DE, 19808",187253624,"R"
424505,"2616 NORTH 91ST STREET","LINCOLN","NE",68507,40.8384206810001,-96.596823097,5,"2616 NORTH 91ST STREET, LINCOLN, NE, 68507","Match","Exact","2616 N 91ST ST, LINCOLN, NE, 68507",645236036,"R"
424506,"2616 NW 112TH STREET","OKLAHOMA CITY","OK",73120,35.5843736420001,-97.561973854,6,"2616 NW 112TH STREET, OKLAHOMA CITY, OK, 73120","Match","Exact","2616 NW 112TH ST, OKLAHOMA CITY, OK, 73120",100392602,"L"
424507,"2616 NW 52ND AVE","GAINESVILLE","FL",32605,29.7019511300001,-82.3611682069999,7,"2616 NW 52ND AVE, GAINESVILLE, FL, 32605","Match","Exact","2616 NW 52ND AVE, GAINESVILLE, FL, 32605",6802684,"R"
424508,"2616 OAKWOOD CIRCLE","OSHKOSH","WI",54904,44.0351636620001,-88.598392712,8,"2616 OAKWOOD CIRCLE, OSHKOSH, WI, 54904","Match","Exact","2616 OAKWOOD CIR, OSHKOSH, WI, 54904",74507110,"R"
424509,"2616 OAKWOOD DR APT 113","BEDFORD","TX",76021,32.850677622,-97.1048765259999,9,"2616 OAKWOOD DR APT 113, BEDFORD, TX, 76021","Match","Exact","2616 OAKWOOD DR, BEDFORD, TX, 76021",102143748,"R"
424510,"2616 OGDEN AVENUE","SUPERIOR","WI",54880,46.707537448,-92.102473357,10,"2616 OGDEN AVENUE, SUPERIOR, WI, 54880","Match","Exact","2616 OGDEN AVE, SUPERIOR, WI, 54880",164840456,"L"
424511,"2616 OGLETON RD","ANNAPOLIS","MD",21403,38.9486281280001,-76.471529457,11,"2616 OGLETON RD, ANNAPOLIS, MD, 21403","Match","Exact","2616 OGLETON RD, ANNAPOLIS, MD, 21403",68176622,"L"
424512,"2616 PEBBLE CREEK DRIVE","SHELBY","NC",28152,35.279021749,-81.6063085,12,"2616 PEBBLE CREEK DRIVE, SHELBY, NC, 28152","Match","Exact","2616 PEBBLE CREEK DR, SHELBY, NC, 28152",19343435,"R"
424513,"2616 PEDDLERS VILLAGE RD SUITE 2","GOSHEN","IN",46526,41.608751022,-85.880595779,13,"2616 PEDDLERS VILLAGE RD SUITE 2, GOSHEN, IN, 46526","Match","Exact","2616 PEDDLERS VILLAGE RD, GOSHEN, IN, 46526",7771085,"R"
424514,"2616 PHIPPS AVE UNIT B","SIMI VALLEY","CA",93065,34.2664322950001,-118.746463334,14,"2616 PHIPPS AVE UNIT B, SIMI VALLEY, CA, 93065","Match","Exact","2616 PHIPPS AVE, SIMI VALLEY, CA, 93065",109978552,"R"
424515,"2616 PINEY WOOD TERRACE","EAST POINT","GA",30088,33.683979046,-84.482602363,15,"2616 PINEY WOOD TERRACE, EAST POINT, GA, 30088","Match","Non_Exact","2616 PINEY WOOD TER, EAST POINT, GA, 30344",17338488,"L"
424516,"2616 PURDUE DRIVE","VESTAL","NY",13850,42.0878317410001,-76.005228065,16,"2616 PURDUE DRIVE, VESTAL, NY, 13850","Match","Exact","2616 PURDUE DR, VESTAL, NY, 13850",46339112,"R"
424517,"2616 RAINY SPRING COURT","ODENTON","MD",21113,39.1042554150001,-76.701241,17,"2616 RAINY SPRING COURT, ODENTON, MD, 21113","Match","Exact","2616 RAINY SPRING CT, ODENTON, MD, 21113",653276776,"R"
424518,"2616 REAGIN STREET","LITHONIA","GA",30058,33.709164695,-84.1129583009999,18,"2616 REAGIN STREET, LITHONIA, GA, 30058","Match","Exact","2616 REAGIN ST, LITHONIA, GA, 30058",644780517,"L"
424519,"2616 RICHARD AVENUE","ROANOKE",NA,NA,37.2895268070001,-79.902940969,19,"2616 RICHARD AVENUE, ROANOKE, , ","Match","Non_Exact","2616 RICHARD AVE NE, ROANOKE, VA, 24012",62941544,"L"
424520,"2616 ROSEDALE STREET","HOUSTON","TX",77044,29.722029079,-95.372022884,20,"2616 ROSEDALE STREET, HOUSTON, TX, 77044","Match","Non_Exact","2616 ROSEDALE ST, HOUSTON, TX, 77004",96071929,"R"
424521,"2616 ROSELAWN AVENUE APT 1","BALTIMORE","MD",21214,39.358298323,-76.5632771959999,21,"2616 ROSELAWN AVENUE APT 1, BALTIMORE, MD, 21214","Match","Exact","2616 ROSELAWN AVE, BALTIMORE, MD, 21214",206410692,"L"
424522,"2616 S 224TH STREET A306","DES MOINES","WA",98198,47.4009601650001,-122.299869732,22,"2616 S 224TH STREET A306, DES MOINES, WA, 98198","Match","Non_Exact","2616 S 224TH ST, DES MOINES, WA, 98198",239765982,"L"
424523,"2616 S HAWTHORNE AVE","SIOUX FALLS","SD",57105,43.5216918900001,-96.7486244149999,23,"2616 S HAWTHORNE AVE, SIOUX FALLS, SD, 57105","Match","Exact","2616 S HAWTHORNE AVE, SIOUX FALLS, SD, 57105",34971817,"L"
424524,"2616 S HILTON STREET","BOISE","ID",83705,43.578725343,-116.246083804,24,"2616 S HILTON STREET, BOISE, ID, 83705","Match","Exact","2616 S HILTON ST, BOISE, ID, 83705",117863526,"L"
424525,"2616 S LIONS AVE","BROKEN ARROW","OK",74012,36.02405824,-95.804561346,25,"2616 S LIONS AVE, BROKEN ARROW, OK, 74012","Match","Exact","2616 S LIONS AVE, BROKEN ARROW, OK, 74012",166464242,"R"
424526,"2616 S MATTHIAS ST","APPLETON","WI",54915,44.2387761460001,-88.369273111,26,"2616 S MATTHIAS ST, APPLETON, WI, 54915","Match","Exact","2616 S MATTHIAS ST, APPLETON, WI, 54915",74788908,"R"
424527,"2616 S RIDGELEY DR","LOS ANGELES","CA",90016,34.0322360280001,-118.361630834,27,"2616 S RIDGELEY DR, LOS ANGELES, CA, 90016","Match","Exact","2616 S RIDGELEY DR, LOS ANGELES, CA, 90016",141601116,"L"
424528,"2616 SALADO STREET","AUSTIN","TX",78705,30.2911399810001,-97.745341627,28,"2616 SALADO STREET, AUSTIN, TX, 78705","Match","Exact","2616 SALADO ST, AUSTIN, TX, 78705",63942632,"L"
424529,"2616 SANITARIUM ROAD","CLIFTON SPRINGS","NY",14432,42.9758600430001,-77.1334945799999,29,"2616 SANITARIUM ROAD, CLIFTON SPRINGS, NY, 14432","Match","Exact","2616 SANITARIUM RD, CLIFTON SPGS, NY, 14432",13473204,"L"
424530,"2616 SHEPARD BOULEVARD","COLUMBIA","MO",65201,38.9376273140001,-92.2976791199999,30,"2616 SHEPARD BOULEVARD, COLUMBIA, MO, 65201","Match","Exact","2616 SHEPARD BLVD, COLUMBIA, MO, 65201",23482458,"R"
424531,"2616 SHIPSTON COURT","WARREN","MI",48091,42.47377169,-83.077931956,31,"2616 SHIPSTON COURT, WARREN, MI, 48091","Match","Exact","2616 SHIPSTON CT, WARREN, MI, 48091",110737296,"R"
424532,"2616 SIR GAWAIN LANE","LEWISVILLE","TX",75056,33.038184544,-96.893474737,32,"2616 SIR GAWAIN LANE, LEWISVILLE, TX, 75056","Match","Exact","2616 SIR GAWAIN LN, LEWISVILLE, TX, 75056",103401209,"R"
424533,"2616 SOUTH LOOP WEST NUMBER 400","HOUSTON","TX",77054,NA,NA,33,"2616 SOUTH LOOP WEST NUMBER 400, HOUSTON, TX, 77054","No_Match",NA,NA,NA,NA
424534,"2616 SOUTH LOOP WEST SUITE 400","HOUSTON","TX",77054,NA,NA,34,"2616 SOUTH LOOP WEST SUITE 400, HOUSTON, TX, 77054","No_Match",NA,NA,NA,NA
424535,"2616 SOUTH WEST FREEWAY","HOUSTON","TX",77054,NA,NA,35,"2616 SOUTH WEST FREEWAY, HOUSTON, TX, 77054","No_Match",NA,NA,NA,NA
424536,"2616 SOUTHWEST FREEWAY","HOUSTON","MD",77054,NA,NA,36,"2616 SOUTHWEST FREEWAY, HOUSTON, MD, 77054","No_Match",NA,NA,NA,NA
424537,"2616 SOUTHWEST FREEWAY","HOUSTON","TX",77054,NA,NA,37,"2616 SOUTHWEST FREEWAY, HOUSTON, TX, 77054","No_Match",NA,NA,NA,NA
424538,"2616 STARCREST DR","DUARTE","CA",91010,34.1520945560001,-117.948181386,38,"2616 STARCREST DR, DUARTE, CA, 91010","Match","Exact","2616 STARCREST DR, DUARTE, CA, 91010",141707659,"R"
424539,"2616 STOCKTON DR","ARLINGTON","TX",76006,32.7809148270001,-97.0627363409999,39,"2616 STOCKTON DR, ARLINGTON, TX, 76006","Match","Exact","2616 STOCKTON DR, ARLINGTON, TX, 76006",101929159,"R"
424540,"2616 STRATFORD DR","GREENSBORO","NC",27408,36.1069158080001,-79.830089372,40,"2616 STRATFORD DR, GREENSBORO, NC, 27408","Match","Exact","2616 STRATFORD DR, GREENSBORO, NC, 27408",131028253,"R"
424541,"2616 SUNSET","ESCONDIDO","CA",92025,33.080389199,-117.042754872,41,"2616 SUNSET, ESCONDIDO, CA, 92025","Match","Non_Exact","2616 SUNSET HLS, ESCONDIDO, CA, 92025",651671242,"L"
424542,"2616 TAYLOR RIDGE RD","TEMPLE","TX",76502,NA,NA,42,"2616 TAYLOR RIDGE RD, TEMPLE, TX, 76502","No_Match",NA,NA,NA,NA
424543,"2616 TEEPLE STREET","KNOXVILLE","TN",37917,36.003453607,-83.90867128,43,"2616 TEEPLE STREET, KNOXVILLE, TN, 37917","Match","Non_Exact","2616 TEEPLE ST NE, KNOXVILLE, TN, 37917",42621152,"R"
424544,"2616 THORNHILL DR","SAN CARLOS","CA",94070,37.4882951270001,-122.26543785,44,"2616 THORNHILL DR, SAN CARLOS, CA, 94070","Match","Exact","2616 THORNHILL DR, SAN CARLOS, CA, 94070",192385409,"R"
424545,"2616 TIMBERLY DR","INDIANAPOLIS","IN",46220,39.877137643,-86.119954036,45,"2616 TIMBERLY DR, INDIANAPOLIS, IN, 46220","Match","Exact","2616 TIMBERLY DR, INDIANAPOLIS, IN, 46220",107984865,"L"
424546,"2616 VALLETTA RD","LOUISVILLE","KY",40205,38.2249321,-85.676419219,46,"2616 VALLETTA RD, LOUISVILLE, KY, 40205","Match","Exact","2616 VALLETTA RD, LOUISVILLE, KY, 40205",633980703,"R"
424547,"2616 VICTORY MEMORIAL DR","MINNEAPOLIS","MN",55412,45.037338048,-93.314479557,47,"2616 VICTORY MEMORIAL DR, MINNEAPOLIS, MN, 55412","Match","Exact","2616 VICTORY MEMORIAL DR, MINNEAPOLIS, MN, 55412",43620766,"R"
424548,"2616 W 17TH STREET","PLAINVIEW","TX",79072,34.198584152,-101.734989597,48,"2616 W 17TH STREET, PLAINVIEW, TX, 79072","Match","Exact","2616 W 17TH ST, PLAINVIEW, TX, 79072",185696012,"L"
424549,"2616 W AUGUSTA BLVD APT 2","CHICAGO","IL",60622,41.899331547,-87.692401522,49,"2616 W AUGUSTA BLVD APT 2, CHICAGO, IL, 60622","Match","Non_Exact","2616 W AUGUSTA BLVD, CHICAGO, IL, 60622",111763476,"R"
424550,"2616 W CRYSTAL ST","CHICAGO","IL",60622,41.9039140890001,-87.692518088,50,"2616 W CRYSTAL ST, CHICAGO, IL, 60622","Match","Exact","2616 W CRYSTAL ST, CHICAGO, IL, 60622",111763445,"R"
424551,"2616 W ORANGETHORPE AVE SPACE 27","90745","CA",90745,NA,NA,51,"2616 W ORANGETHORPE AVE SPACE 27, 90745, CA, 90745","No_Match",NA,NA,NA,NA
424552,"2616 WAKECREST DR","FORT WORTH","TX",76108,32.7355954490001,-97.511617954,52,"2616 WAKECREST DR, FORT WORTH, TX, 76108","Match","Exact","2616 WAKECREST DR, FORT WORTH, TX, 76108",102190720,"R"
424553,"2616 WALNUT STREET","BELLINGHAM","WA",98225,48.764924212,-122.491798085,53,"2616 WALNUT STREET, BELLINGHAM, WA, 98225","Match","Exact","2616 WALNUT ST, BELLINGHAM, WA, 98225",624537399,"R"
424554,"2616 WHITE FOX CIRCLE","EDMOND","OK",73034,35.6734829980001,-97.44583969,54,"2616 WHITE FOX CIRCLE, EDMOND, OK, 73034","Match","Exact","2616 WHITE FOX CIR, EDMOND, OK, 73034",100434352,"R"
424555,"2616 WHITNEY DRIVE","ALHAMBRA","CA",91803,34.062094689,-118.145650991,55,"2616 WHITNEY DRIVE, ALHAMBRA, CA, 91803","Match","Exact","2616 WHITNEY DR, ALHAMBRA, CA, 91803",141636109,"L"
424556,"2616 WILLOW WREN DRIVE","N LAS VEGAS","NV",89084,36.304796169,-115.177337034,56,"2616 WILLOW WREN DRIVE, N LAS VEGAS, NV, 89084","Match","Exact","2616 WILLOW WREN DR, N LAS VEGAS, NV, 89084",612686226,"R"
424557,"2616 WILMINGTON ROAD - B","NEW CASTLE","PA",16101,41.03396938,-80.355254895,57,"2616 WILMINGTON ROAD - B, NEW CASTLE, PA, 16101","Match","Non_Exact","2616 WILMINGTON RD, NEW CASTLE, PA, 16105",65197476,"R"
424558,"2616 WINTERS RUN RD","JOPPA","MD",21085,39.458555624,-76.323947603,58,"2616 WINTERS RUN RD, JOPPA, MD, 21085","Match","Exact","2616 WINTERS RUN RD, JOPPA, MD, 21085",191672525,"R"
424559,"26160 457TH AVE","HUMBOLDT","SD",57035,43.590479568,-97.069457009,59,"26160 457TH AVE, HUMBOLDT, SD, 57035","Match","Exact","26160 457TH AVE, HUMBOLDT, SD, 57035",651731757,"R"
424560,"26160 SANDY CT","MECHANICSVILLE","MD",20659,38.3873174920001,-76.833144623,60,"26160 SANDY CT, MECHANICSVILLE, MD, 20659","Match","Exact","26160 SANDY CT, MECHANICSVILLE, MD, 20659",36615700,"L"
424561,"26161 LAKESHORE BLVD AP 201","EUCLID","OH",44123,41.6212032280001,-81.5017449389999,61,"26161 LAKESHORE BLVD AP 201, EUCLID, OH, 44123","Match","Non_Exact","26161 LAKESHORE BLVD, EUCLID, OH, 44132",649549203,"L"
424562,"26163 GLASGOW DRIVE","SOUTH RIDING","VA",20152,38.8913578620001,-77.5031981,62,"26163 GLASGOW DRIVE, SOUTH RIDING, VA, 20152","Match","Exact","26163 GLASGOW DR, SOUTH RIDING, VA, 20152",62348429,"R"
424563,"26165 E 93RD ST S","BROKEN ARROW","OK",74014,36.027751719,-95.684281283,63,"26165 E 93RD ST S, BROKEN ARROW, OK, 74014","Match","Exact","26165 E 93RD ST S, BROKEN ARROW, OK, 74014",650182228,"L"
424564,"26165 PINERIDGE DR","WEST HARRISON","OH",47060,NA,NA,64,"26165 PINERIDGE DR, WEST HARRISON, OH, 47060","No_Match",NA,NA,NA,NA
424565,"26165 SANZ APT C353","MISSION VIEJO","CA",92691,33.623342694,-117.672789696,65,"26165 SANZ APT C353, MISSION VIEJO, CA, 92691","Match","Exact","26165 SANZ, MISSION VIEJO, CA, 92691",623946304,"R"
424566,"26165 WOODVILLA PL","SOUTHFIELD","MI",48076,42.4825266730001,-83.212435821,66,"26165 WOODVILLA PL, SOUTHFIELD, MI, 48076","Match","Exact","26165 WOODVILLA PL, SOUTHFIELD, MI, 48076",69740036,"L"
424567,"26168 PACIFIC COAST HIGHWAY","MALIBU","CA",90265,34.0328247460001,-118.744288729,67,"26168 PACIFIC COAST HIGHWAY, MALIBU, CA, 90265","Match","Exact","26168 PACIFIC COAST HWY, MALIBU, CA, 90265",142668767,"R"
424568,"2617 236TH PL NE","SAMMAMISH","WA",98074,47.63379826,-122.02454176,68,"2617 236TH PL NE, SAMMAMISH, WA, 98074","Match","Exact","2617 236TH PL NE, SAMMAMISH, WA, 98074",186921054,"R"
424569,"2617 ALFORD AVE","LOUISVILLE","KY",40212,38.264953129,-85.793850157,69,"2617 ALFORD AVE, LOUISVILLE, KY, 40212","Match","Exact","2617 ALFORD AVE, LOUISVILLE, KY, 40212",96841424,"R"
424570,"2617 ASHBY AVE","DES MOINES","IA",50310,41.623897519,-93.653451761,70,"2617 ASHBY AVE, DES MOINES, IA, 50310","Match","Exact","2617 ASHBY AVE, DES MOINES, IA, 50310",65780427,"R"
424571,"2617 BEAR SPRINGS TRAIL","AUSTIN","TX",78748,30.1461957170001,-97.8549445199999,71,"2617 BEAR SPRINGS TRAIL, AUSTIN, TX, 78748","Match","Exact","2617 BEAR SPRINGS TRL, AUSTIN, TX, 78748",635102808,"R"
424572,"2617 BEAR SPRINGS TRL","AUSTIN","TX",78748,30.1461957170001,-97.8549445199999,72,"2617 BEAR SPRINGS TRL, AUSTIN, TX, 78748","Match","Exact","2617 BEAR SPRINGS TRL, AUSTIN, TX, 78748",635102808,"R"
424573,"2617 BELCHERS FORK ROAD","GRUNDY","VA",24614,37.2699012800001,-82.1884494779999,73,"2617 BELCHERS FORK ROAD, GRUNDY, VA, 24614","Match","Exact","2617 BELCHERS FORK RD, GRUNDY, VA, 24614",649015902,"R"
424574,"2617 BETHUNE AVENUE","MIMS","FL",32754,28.6691624040001,-80.838301024,74,"2617 BETHUNE AVENUE, MIMS, FL, 32754","Match","Exact","2617 BETHUNE AVE, MIMS, FL, 32754",93890043,"R"
424575,"2617 BETHUNE AVENUE","MIMS","FL",33418,28.6691624040001,-80.838301024,75,"2617 BETHUNE AVENUE, MIMS, FL, 33418","Match","Non_Exact","2617 BETHUNE AVE, MIMS, FL, 32754",93890043,"R"
424576,"2617 BIRCHWOOD DRIVE","GASTONIA","NC",28052,35.2382830080001,-81.224050013,76,"2617 BIRCHWOOD DRIVE, GASTONIA, NC, 28052","Match","Exact","2617 BIRCHWOOD DR, GASTONIA, NC, 28052",70377654,"L"
424577,"2617 BRISBANE ROAD","AUSTIN","TX",78745,30.198644717,-97.8219041629999,77,"2617 BRISBANE ROAD, AUSTIN, TX, 78745","Match","Exact","2617 BRISBANE RD, AUSTIN, TX, 78745",641778051,"L"
424578,"2617 BROOKDALE LANE","BROOKLYN PARK","MN",55444,45.092237266,-93.315633068,78,"2617 BROOKDALE LANE, BROOKLYN PARK, MN, 55444","Match","Exact","2617 BROOKDALE LN, BROOKLYN PARK, MN, 55444",640738897,"R"
424579,"2617 BRUSHWOOD LANE","MESQUITE","TX",75150,32.800866055,-96.606798925,79,"2617 BRUSHWOOD LANE, MESQUITE, TX, 75150","Match","Exact","2617 BRUSHWOOD LN, MESQUITE, TX, 75150",103200215,"L"
424580,"2617 BURNEY DRIVE","COLUMBIA","SC",29205,33.989916425,-81.0076952599999,80,"2617 BURNEY DRIVE, COLUMBIA, SC, 29205","Match","Exact","2617 BURNEY DR, COLUMBIA, SC, 29205",71828240,"L"
424581,"2617 BURNSIDE AVE","LOS ANGELES","CA",90016,34.03218811,-118.360599593,81,"2617 BURNSIDE AVE, LOS ANGELES, CA, 90016","Match","Non_Exact","2617 S BURNSIDE AVE, LOS ANGELES, CA, 90016",141601121,"R"
424582,"2617 BYRDS MILL RD","NEWTOWN","VA",23126,37.9419605430001,-77.1313938439999,82,"2617 BYRDS MILL RD, NEWTOWN, VA, 23126","Match","Exact","2617 BYRDS MILL RD, NEWTOWN, VA, 23126",649999917,"L"
424583,"2617 CARDINAL WAY","BUFFALO","MN",55313,45.211068891,-93.842030408,83,"2617 CARDINAL WAY, BUFFALO, MN, 55313","Match","Exact","2617 CARDINAL WAY, BUFFALO, MN, 55313",646233146,"L"
424584,"2617 CASTRO WAY","SACRAMENTO","CA",95818,38.5535822160001,-121.480356499,84,"2617 CASTRO WAY, SACRAMENTO, CA, 95818","Match","Exact","2617 CASTRO WAY, SACRAMENTO, CA, 95818",133324579,"L"
424585,"2617 CEDAR ELM LANE","PLANO","TX",75075,33.0271473500001,-96.742217678,85,"2617 CEDAR ELM LANE, PLANO, TX, 75075","Match","Exact","2617 CEDAR ELM LN, PLANO, TX, 75075",123486827,"R"
424586,"2617 CHINOOK DR","WALNUT CREEK","CA",94598,37.907168518,-122.017743128,86,"2617 CHINOOK DR, WALNUT CREEK, CA, 94598","Match","Exact","2617 CHINOOK DR, WALNUT CREEK, CA, 94598",192057508,"R"
424587,"2617 CLEBURNE","HOUSTON","TX",77004,29.727639153,-95.367500406,87,"2617 CLEBURNE, HOUSTON, TX, 77004","Match","Non_Exact","2617 CLEBURNE ST, HOUSTON, TX, 77004",96071945,"L"
424588,"2617 COLLIER AVENUE","SAN DIEGO","CA",92116,32.764733875,-117.135991154,88,"2617 COLLIER AVENUE, SAN DIEGO, CA, 92116","Match","Exact","2617 COLLIER AVE, SAN DIEGO, CA, 92116",195345211,"R"
424589,"2617 COUNTRYWOOD PARKWAY","CORDOVA","TN",38016,35.198090232,-89.7829216969999,89,"2617 COUNTRYWOOD PARKWAY, CORDOVA, TN, 38016","Match","Exact","2617 COUNTRYWOOD PKWY, CORDOVA, TN, 38016",610507401,"L"
424590,"2617 COUNTY ROAD 11","HEFLIN","AL",36264,33.551387377,-85.6442091819999,90,"2617 COUNTY ROAD 11, HEFLIN, AL, 36264","Match","Exact","2617 CO RD 11, HEFLIN, AL, 36264",30371598,"R"
424591,"2617 CUMBERLAND TRAIL","BALCH SPRINGS","TX",75181,32.7322716890001,-96.600930687,91,"2617 CUMBERLAND TRAIL, BALCH SPRINGS, TX, 75181","Match","Exact","2617 CUMBERLAND TRL, BALCH SPRINGS, TX, 75181",636908600,"L"
424592,"2617 CUYLER AVE","BERWYN","IL",60402,41.842796397,-87.78208963,92,"2617 CUYLER AVE, BERWYN, IL, 60402","Match","Exact","2617 CUYLER AVE, BERWYN, IL, 60402",605105180,"L"
424593,"2617 CYPRESS SPRINGS DR","PEARLAND","TX",77584,29.564738891,-95.416687581,93,"2617 CYPRESS SPRINGS DR, PEARLAND, TX, 77584","Match","Exact","2617 CYPRESS SPRINGS DR, PEARLAND, TX, 77584",633558905,"R"
424594,"2617 DALTON AVENUE","LOS ANGELES","CA",90018,34.0323182770001,-118.304085334,94,"2617 DALTON AVENUE, LOS ANGELES, CA, 90018","Match","Exact","2617 DALTON AVE, LOS ANGELES, CA, 90018",141606090,"R"
424595,"2617 DARTMOOR RD","CLEVELAND HTS","OH",44118,41.4878682,-81.5632603729999,95,"2617 DARTMOOR RD, CLEVELAND HTS, OH, 44118","Match","Exact","2617 DARTMOOR RD, CLEVELAND HEIGHTS, OH, 44118",640776920,"L"
424596,"2617 DEACON ST","PHILA","PA",19129,40.015482035,-75.170551433,96,"2617 DEACON ST, PHILA, PA, 19129","Match","Exact","2617 DEACON ST, PHILA, PA, 19129",131401555,"R"
424597,"2617 DEARBNORN LN","FRISCO","TX",75036,NA,NA,97,"2617 DEARBNORN LN, FRISCO, TX, 75036","No_Match",NA,NA,NA,NA
424598,"2617 DEARBORN LANE","FRISCO","TX",75036,33.1408098090001,-96.8674153329999,98,"2617 DEARBORN LANE, FRISCO, TX, 75036","Match","Exact","2617 DEARBORN LN, FRISCO, TX, 75036",614142561,"R"
424599,"2617 DODD ROAD","WILLOUGHBY HLS.","OH",44094,41.59781579,-81.398160235,99,"2617 DODD ROAD, WILLOUGHBY HLS., OH, 44094","Match","Exact","2617 DODD RD, WILLOUGHBY HILLS, OH, 44094",137472808,"L"
424600,"2617 DOUGLASS ROAD SE UNIT 201","WASHINGTON","DC",20020,38.8578619260001,-76.991151101,100,"2617 DOUGLASS ROAD SE UNIT 201, WASHINGTON, DC, 20020","Match","Non_Exact","2617 DOUGLAS RD SE, WASHINGTON, DC, 20020",76237547,"R"
424601,"2617 E 21ST PLACE","GARY","IN",46407,41.5784625800001,-87.3035737719999,101,"2617 E 21ST PLACE, GARY, IN, 46407","Match","Exact","2617 E 21ST PL, GARY, IN, 46407",606334494,"R"
424602,"2617 E 21ST ST","TULSA","OK",74114,36.1332665260001,-95.953141982,102,"2617 E 21ST ST, TULSA, OK, 74114","Match","Exact","2617 E 21ST ST, TULSA, OK, 74114",166443141,"L"
424603,"2617 E 74TH PL","CHICAGO","IL",60649,41.7600598970001,-87.5604555909999,103,"2617 E 74TH PL, CHICAGO, IL, 60649","Match","Exact","2617 E 74TH PL, CHICAGO, IL, 60649",111775791,"R"
424604,"2617 E BUFFALO DR","COLUMBIA","MO",65202,39.0252942820001,-92.2980396839999,104,"2617 E BUFFALO DR, COLUMBIA, MO, 65202","Match","Non_Exact","2617 BUFFALO DR E, COLUMBIA, MO, 65202",604841191,"L"
424605,"2617 E HWY 82 APT15","GAINESVILLE","TX",76240,33.643390084,-97.116529402,105,"2617 E HWY 82 APT15, GAINESVILLE, TX, 76240","Match","Non_Exact","2617 US HWY 82, GAINESVILLE, TX, 76240",604741204,"L"
424606,"2617 E MANCHESTER ST","TUCSON","AZ",85716,32.220247414,-110.933373276,106,"2617 E MANCHESTER ST, TUCSON, AZ, 85716","Match","Exact","2617 E MANCHESTER ST, TUCSON, AZ, 85716",121174613,"L"
424607,"2617 E SPRING VALLEY PAINTERVILLE","XENIA","OH",45385,NA,NA,107,"2617 E SPRING VALLEY PAINTERVILLE, XENIA, OH, 45385","No_Match",NA,NA,NA,NA
424608,"2617 E SPRINGHILL CT","GODDARD","KS",67052,37.6770595690001,-97.544600297,108,"2617 E SPRINGHILL CT, GODDARD, KS, 67052","Match","Non_Exact","2617 SPRING HILL CT, GODDARD, KS, 67052",624767873,"L"
424609,"2617 E STATE ROAD 18","FLORA","IN",46929,40.546957315,-86.47487277,109,"2617 E STATE ROAD 18, FLORA, IN, 46929","Match","Non_Exact","2617 E STATE RD 18, FLORA, IN, 46929",27048686,"R"
424610,"2617 E WALNUT","DES MOINES","IA",50317,41.5934265830001,-93.5674359499999,110,"2617 E WALNUT, DES MOINES, IA, 50317","Match","Non_Exact","2617 E WALNUT ST, DES MOINES, IA, 50317",65789745,"R"
424611,"2617 E WARWICK AVE","FRESNO","CA",93720,36.8628907510001,-119.737785672,111,"2617 E WARWICK AVE, FRESNO, CA, 93720","Match","Exact","2617 E WARWICK AVE, FRESNO, CA, 93720",640747842,"R"
424612,"2617 EAST WASHINGTON AVE","MADISON","WI",53704,NA,NA,112,"2617 EAST WASHINGTON AVE, MADISON, WI, 53704","No_Match",NA,NA,NA,NA
424613,"2617 ESSEX PL","NASHVILLE","TN",37212,36.132453538,-86.810577639,113,"2617 ESSEX PL, NASHVILLE, TN, 37212","Match","Exact","2617 ESSEX PL, NASHVILLE, TN, 37212",606379189,"L"
424614,"2617 FAYETTE STREET","KENNER","LA",70062,30.00231223,-90.2677356459999,114,"2617 FAYETTE STREET, KENNER, LA, 70062","Match","Exact","2617 FAYETTE ST, KENNER, LA, 70062",93533688,"L"
424615,"2617 FRANK ROAD","LAUREL","MT",59044,45.6539317420001,-108.819946176,115,"2617 FRANK ROAD, LAUREL, MT, 59044","Match","Exact","2617 FRANK RD, LAUREL, MT, 59044",632791174,"R"
424616,"2617 G STREET APT 1","SACRAMENTO","CA",95816,38.577762512,-121.470162961,116,"2617 G STREET APT 1, SACRAMENTO, CA, 95816","Match","Exact","2617 G ST, SACRAMENTO, CA, 95816",133324903,"L"
424617,"2617 GOETTENS WAY","SAINT CLOUD","MN",55301,45.543341309,-94.188139528,117,"2617 GOETTENS WAY, SAINT CLOUD, MN, 55301","Match","Non_Exact","2617 GOETTENS WAY, SAINT CLOUD, MN, 56301",635834971,"R"
424618,"2617 HANSFORD AVE","BATAVIA","IL",60510,41.8621238270001,-88.3528395879999,118,"2617 HANSFORD AVE, BATAVIA, IL, 60510","Match","Exact","2617 HANSFORD AVE, BATAVIA, IL, 60510",640203278,"L"
424619,"2617 HARTFORD LANE","LANCASTER","TX",75134,32.616161495,-96.7720034439999,119,"2617 HARTFORD LANE, LANCASTER, TX, 75134","Match","Exact","2617 HARTFORD LN, LANCASTER, TX, 75134",102989906,"L"
424620,"2617 HERSHFIELD COURT","SILVER SPRING","MD",20904,39.065703951,-76.955078274,120,"2617 HERSHFIELD COURT, SILVER SPRING, MD, 20904","Match","Exact","2617 HERSHFIELD CT, SILVER SPRING, MD, 20904",62094144,"L"
424621,"2617 HUNTDALE TRAIL","ZEBULON","NC",27597,35.8523736720001,-78.282138657,121,"2617 HUNTDALE TRAIL, ZEBULON, NC, 27597","Match","Exact","2617 HUNTDALE TRL, ZEBULON, NC, 27597",72602699,"L"
424622,"2617 HUNTLY LN","FLOWER MOUND","TX",75022,33.0224950190001,-97.096298093,122,"2617 HUNTLY LN, FLOWER MOUND, TX, 75022","Match","Exact","2617 HUNTLY LN, FLOWER MOUND, TX, 75022",103402921,"R"
424623,"2617 HWY  31 S","PELHAM","AL",35124,NA,NA,123,"2617 HWY  31 S, PELHAM, AL, 35124","No_Match",NA,NA,NA,NA
424624,"2617 KNOPP SCHOOL RD","FREDERICKSBURG","TX",78624,30.2963565050001,-98.7919047089999,124,"2617 KNOPP SCHOOL RD, FREDERICKSBURG, TX, 78624","Match","Exact","2617 KNOPP SCHOOL RD, FREDERICKSBURG, TX, 78624",625670439,"R"
424625,"2617 LABURNUM AVENUE","CHARLOTTE","NC",28205,35.209196363,-80.8054920069999,125,"2617 LABURNUM AVENUE, CHARLOTTE, NC, 28205","Match","Exact","2617 LABURNUM AVE, CHARLOTTE, NC, 28205",70488697,"L"
424626,"2617 LINWOOD AVE","ERIE","PA",16510,42.134630155,-80.018880657,126,"2617 LINWOOD AVE, ERIE, PA, 16510","Match","Exact","2617 LINWOOD AVE, ERIE, PA, 16510",117499501,"R"
424627,"2617 LONG LASSO PASS","LEANDER","TX",78641,30.5319731120001,-97.8783836709999,127,"2617 LONG LASSO PASS, LEANDER, TX, 78641","Match","Exact","2617 LONG LASSO PASS, LEANDER, TX, 78641",649000641,"R"
424628,"2617 MARION AVENUE","MANHATTAN","KS",66502,39.2217180060001,-96.604665476,128,"2617 MARION AVENUE, MANHATTAN, KS, 66502","Match","Exact","2617 MARION AVE, MANHATTAN, KS, 66502",27800734,"L"
424629,"2617 MEADOWSWEET COURT","WALDORF","MD",20601,38.63900283,-76.925449068,129,"2617 MEADOWSWEET COURT, WALDORF, MD, 20601","Match","Non_Exact","2617 MEADOWSWEET DR, WALDORF, MD, 20601",25393217,"R"
424630,"2617 MOORE ROAD","RED BANKS","MS",38661,34.87550215,-89.592601284,130,"2617 MOORE ROAD, RED BANKS, MS, 38661","Match","Exact","2617 MOORE RD, RED BANKS, MS, 38661",608011825,"R"
424631,"2617 MORNING GLORY DR","NORMAN","OK",73026,NA,NA,131,"2617 MORNING GLORY DR, NORMAN, OK, 73026","No_Match",NA,NA,NA,NA
424632,"2617 N 115TH DR","AVONDALE","AZ",85392,33.475596781,-112.307336511,132,"2617 N 115TH DR, AVONDALE, AZ, 85392","Match","Exact","2617 115TH DR, AVONDALE, AZ, 85392",128870879,"R"
424633,"2617 N 120TH AVE","OMAHA","NE",68164,41.281779273,-96.1014029419999,133,"2617 N 120TH AVE, OMAHA, NE, 68164","Match","Exact","2617 N 120TH AVE, OMAHA, NE, 68164",116968555,"R"
424634,"2617 N GUADALUPE ST","SEGUIN","TX",78155,29.6032406160001,-97.970101399,134,"2617 N GUADALUPE ST, SEGUIN, TX, 78155","Match","Exact","2617 N GUADALUPE ST, SEGUIN, TX, 78155",637942182,"L"
424635,"2617 NATCHEZ AVE","CLEVELAND","OH",44109,41.433271215,-81.7010814929999,135,"2617 NATCHEZ AVE, CLEVELAND, OH, 44109","Match","Exact","2617 NATCHEZ AVE, CLEVELAND, OH, 44109",61116383,"L"
424636,"2617 NORTHCREST","PLANO","TX",75075,33.009835385,-96.743256867,136,"2617 NORTHCREST, PLANO, TX, 75075","Match","Non_Exact","2617 NORTHCREST DR, PLANO, TX, 75075",123488193,"R"
424637,"2617 NORTHWESTERN AVE","AMES","IA",50010,42.0475867120001,-93.6259679729999,137,"2617 NORTHWESTERN AVE, AMES, IA, 50010","Match","Exact","2617 NORTHWESTERN AVE, AMES, IA, 50010",65946256,"L"
424638,"2617 PATIO CT","LOUISVILLE","KY",40214,38.16600821,-85.806824556,138,"2617 PATIO CT, LOUISVILLE, KY, 40214","Match","Exact","2617 PATIO CT, LOUISVILLE, KY, 40214",96848260,"R"
424639,"2617 PICCADELLY COURT","LINCOLN","NE",68512,40.7671795630001,-96.68313108,139,"2617 PICCADELLY COURT, LINCOLN, NE, 68512","Match","Non_Exact","2617 PICCADILLY CT, LINCOLN, NE, 68512",28256236,"L"
424640,"2617 PITTSBURG STREET","FORT WAYNE","IN",46803,41.0737764670001,-85.104000546,140,"2617 PITTSBURG STREET, FORT WAYNE, IN, 46803","Match","Exact","2617 PITTSBURG ST, FORT WAYNE, IN, 46803",6380748,"L"
424641,"2617 RIVERSIDE DRIVE","HOUSTON","TX",77004,29.71535304,-95.3749706689999,141,"2617 RIVERSIDE DRIVE, HOUSTON, TX, 77004","Match","Exact","2617 RIVERSIDE DR, HOUSTON, TX, 77004",96072205,"L"
424642,"2617 ROSE BAY DRIVE","PEARLAND","TX",77584,29.563087232,-95.4349530919999,142,"2617 ROSE BAY DRIVE, PEARLAND, TX, 77584","Match","Exact","2617 ROSE BAY DR, PEARLAND, TX, 77584",635421556,"R"
424643,"2617 S 21ST CT","RIDGEFIELD","WA",98642,45.7962962730001,-122.727268514,143,"2617 S 21ST CT, RIDGEFIELD, WA, 98642","Match","Exact","2617 S 21ST CT, RIDGEFIELD, WA, 98642",648928105,"R"
424644,"2617 S BEVERLY DR","LOS ANGELES","CA",90034,34.0394843760001,-118.395612323,144,"2617 S BEVERLY DR, LOS ANGELES, CA, 90034","Match","Exact","2617 S BEVERLY DR, LOS ANGELES, CA, 90034",141574598,"R"
424645,"2617 S EMERALD AVE","CHICAGO","IL",60616,41.844812846,-87.645217675,145,"2617 S EMERALD AVE, CHICAGO, IL, 60616","Match","Exact","2617 S EMERALD AVE, CHICAGO, IL, 60616",616888682,"L"
424646,"2617 SALISBURY PLAIN","RALEIGH","NC",27613,35.891088704,-78.683173702,146,"2617 SALISBURY PLAIN, RALEIGH, NC, 27613","Match","Exact","2617 SALISBURY PLAIN, RALEIGH, NC, 27613",72495174,"L"
424647,"2617 SALLY LANE","NORTH PORT","FL",34286,27.0460282710001,-82.188878366,147,"2617 SALLY LANE, NORTH PORT, FL, 34286","Match","Exact","2617 SALLY LN, NORTH PORT, FL, 34286",16408911,"L"
424648,"2617 SHADY AVE APT 3","PITTSBURGH","PA",15217,40.4287671160001,-79.9216275209999,148,"2617 SHADY AVE APT 3, PITTSBURGH, PA, 15217","Match","Exact","2617 SHADY AVE, PITTSBURGH, PA, 15217",51652231,"L"
424649,"2617 SHENANDOAH AVE","DURHAM","NC",27704,36.0238807160001,-78.8942736549999,149,"2617 SHENANDOAH AVE, DURHAM, NC, 27704","Match","Exact","2617 SHENANDOAH AVE, DURHAM, NC, 27704",71741182,"L"
424650,"2617 SILVERDALE DR","SILVER SPRING","MD",20906,39.0738859470001,-77.0558918689999,150,"2617 SILVERDALE DR, SILVER SPRING, MD, 20906","Match","Exact","2617 SILVERDALE DR, SILVER SPRING, MD, 20906",62060756,"R"
424651,"2617 SOUTH FRENCH AVE APT A","SANDFORD","FL",32773,28.780574949,-81.272942347,151,"2617 SOUTH FRENCH AVE APT A, SANDFORD, FL, 32773","Match","Non_Exact","2617 S FRENCH AVE, SANFORD, FL, 32773",93750495,"L"
424652,"2617 SOUTH PAGOSA STEET","AURORA","CO",80013,39.6689829270001,-104.788615492,152,"2617 SOUTH PAGOSA STEET, AURORA, CO, 80013","Match","Exact","2617 S PAGOSA ST, AURORA, CO, 80013",177357432,"R"
424653,"2617 STREAM BANK DRIVE","CHARLOTTE","NC",28269,35.290750163,-80.8463812969999,153,"2617 STREAM BANK DRIVE, CHARLOTTE, NC, 28269","Match","Exact","2617 STREAM BANK DR, CHARLOTTE, NC, 28269",618155663,"L"
424654,"2617 SUGDEN ST","TEXARKANA","TX",75501,33.411554315,-94.072001013,154,"2617 SUGDEN ST, TEXARKANA, TX, 75501","Match","Exact","2617 SUGDEN ST, TEXARKANA, TX, 75501",57669722,"L"
424655,"2617 THEODOSIA DRIVE","BATON ROUGE","LA",70809,30.426423637,-91.0823616609999,155,"2617 THEODOSIA DRIVE, BATON ROUGE, LA, 70809","Match","Exact","2617 THEODOSIA DR, BATON ROUGE, LA, 70809",92191224,"L"
424656,"2617 TRIANGLE LEAF DR","FORT WORTH","TX",76244,32.939517704,-97.30542538,156,"2617 TRIANGLE LEAF DR, FORT WORTH, TX, 76244","Match","Exact","2617 TRIANGLE LEAF DR, FORT WORTH, TX, 76244",638655541,"L"
424657,"2617 W 39TH AVE","DENVER","CO",80211,39.770520526,-105.019319343,157,"2617 W 39TH AVE, DENVER, CO, 80211","Match","Exact","2617 W 39TH AVE, DENVER, CO, 80211",177301053,"R"
424658,"2617 W 86TH ST","CHICAGO","IL",60652,41.737049977,-87.6884471769999,158,"2617 W 86TH ST, CHICAGO, IL, 60652","Match","Exact","2617 W 86TH ST, CHICAGO, IL, 60652",111820328,"L"
424659,"2617 W ESTES ST","CHICAGO","IL",60645,42.010341743,-87.695950443,159,"2617 W ESTES ST, CHICAGO, IL, 60645","Match","Non_Exact","2617 W ESTES AVE, CHICAGO, IL, 60645",605265390,"L"
424660,"2617 WARSAW AVE","MOBILE","AL",36617,30.733087031,-88.110272745,160,"2617 WARSAW AVE, MOBILE, AL, 36617","Match","Exact","2617 WARSAW AVE, MOBILE, AL, 36617",61850024,"L"
424661,"2617 WEST NEWTON STREET","SEATTLE","WA",98199,47.6369738330001,-122.390759867,161,"2617 WEST NEWTON STREET, SEATTLE, WA, 98199","Match","Exact","2617 W NEWTON ST, SEATTLE, WA, 98199",186660086,"L"
424662,"2617 WEST UNIVERSITY AVE","GAINESVILLE","FL",32607,29.651988983,-82.3618192759999,162,"2617 WEST UNIVERSITY AVE, GAINESVILLE, FL, 32607","Match","Exact","2617 W UNIVERSITY AVE, GAINESVILLE, FL, 32607",6805358,"L"
424663,"2617 WESTSHIRE CIRCLE","WEST VALLEY CITY","UT",84119,40.6846187250001,-111.955693669,163,"2617 WESTSHIRE CIRCLE, WEST VALLEY CITY, UT, 84119","Match","Exact","2617 WESTSHIRE CIR, WEST VALLEY CITY, UT, 84119",176072367,"L"
424664,"2617 WILKERSON DRIVE","MARRERO","LA",70072,29.856738192,-90.107025957,164,"2617 WILKERSON DRIVE, MARRERO, LA, 70072","Match","Exact","2617 WILKERSON DR, MARRERO, LA, 70072",93508957,"L"
424665,"2617 WILLOW GRASS COURT","COLORADO SPRINGS","CO",80920,38.9721959010001,-104.779057627,165,"2617 WILLOW GRASS COURT, COLORADO SPRINGS, CO, 80920","Match","Exact","2617 WILLOW GRASS CT, CO SPGS, CO, 80920",611885820,"R"
424666,"26170 462ND AVENUE","HARTFORD","SD",57033,43.5922678690001,-96.970165792,166,"26170 462ND AVENUE, HARTFORD, SD, 57033","Match","Exact","26170 462ND AVE, HARTFORD, SD, 57033",34998356,"R"
424667,"26172 10TH STREET W","ZIMMERMAN","MN",55398,45.444847979,-93.601078561,167,"26172 10TH STREET W, ZIMMERMAN, MN, 55398","Match","Exact","26172 10TH ST W, ZIMMERMAN, MN, 55398",97761516,"R"
424668,"26173 HIGHWAY 84E","WHATLEY","AL",36482,NA,NA,168,"26173 HIGHWAY 84E, WHATLEY, AL, 36482","No_Match",NA,NA,NA,NA
424669,"26173 PUEBLO BONITO BLVD","BONITA SPRINGS","FL",34135,26.358236279,-81.790489674,169,"26173 PUEBLO BONITO BLVD, BONITA SPRINGS, FL, 34135","Match","Exact","26173 PUEBLO BONITO BLVD, BONITA SPGS, FL, 34135",118066697,"L"
424670,"26175 AUGUSTA WAY 103","TWIN PEAKS","CA",92391,NA,NA,170,"26175 AUGUSTA WAY 103, TWIN PEAKS, CA, 92391","No_Match",NA,NA,NA,NA
424671,"26175 AUGUSTA WAY","LAKE ARROWHEAD","CA",92352,NA,NA,171,"26175 AUGUSTA WAY, LAKE ARROWHEAD, CA, 92352","No_Match",NA,NA,NA,NA
424672,"26175 BURLWOOD DRIVE","DENHAM SPRINGS","LA",70726,30.444939091,-90.871140307,172,"26175 BURLWOOD DRIVE, DENHAM SPRINGS, LA, 70726","Match","Non_Exact","26175 BURLWOOD AVE, DENHAM SPRINGS, LA, 70726",612914649,"L"
424673,"26179 TRESTLE CREEK AVENUE","PAW PAW","MI",49079,NA,NA,173,"26179 TRESTLE CREEK AVENUE, PAW PAW, MI, 49079","No_Match",NA,NA,NA,NA
424674,"2617C WEST HOLCOMBE BLVD 194","HOUSTON","TX",77025,29.706158848,-95.418663601,174,"2617C WEST HOLCOMBE BLVD 194, HOUSTON, TX, 77025","Match","Exact","2617 W HOLCOMBE BLVD, HOUSTON, TX, 77025",96609786,"L"
424675,"2617JOKER ROAD","MT ZION","WV",26151,NA,NA,175,"2617JOKER ROAD, MT ZION, WV, 26151","No_Match",NA,NA,NA,NA
424676,"2618 174TH ST E","TACOMA","WA",98445,47.098953699,-122.393462384,176,"2618 174TH ST E, TACOMA, WA, 98445","Match","Exact","2618 174TH ST E, TACOMA, WA, 98445",184704939,"R"
424677,"2618 184TH SOUTH COURT EAST","TACOMA","WA",98445,NA,NA,177,"2618 184TH SOUTH COURT EAST, TACOMA, WA, 98445","No_Match",NA,NA,NA,NA
424678,"2618 38TH ST","LUBBOCK","TX",79413,33.5596614830001,-101.873104587,178,"2618 38TH ST, LUBBOCK, TX, 79413","Match","Exact","2618 38TH ST, LUBBOCK, TX, 79413",185253995,"R"
424679,"2618 4TH AVENUE SOUTH","SAINT PETERSBURG","FL",33712,27.767392952,-82.6688126129999,179,"2618 4TH AVENUE SOUTH, SAINT PETERSBURG, FL, 33712","Match","Exact","2618 4TH AVE S, SAINT PETERSBURG, FL, 33712",124705891,"L"
424680,"2618 ALTAMIRA DRIVE","WEST COVINA","CA",91792,34.0263048350001,-117.90893012,180,"2618 ALTAMIRA DRIVE, WEST COVINA, CA, 91792","Match","Exact","2618 ALTAMIRA DR, WEST COVINA, CA, 91792",141716510,"L"
424681,"2618 ATHENA PLACE","FULLERTON","CA",92833,33.88404927,-117.969883391,181,"2618 ATHENA PLACE, FULLERTON, CA, 92833","Match","Exact","2618 ATHENA PL, FULLERTON, CA, 92833",144001484,"L"
424682,"2618 AVE N","GALVESTON","TX",77550,29.294640771,-94.7942642579999,182,"2618 AVE N, GALVESTON, TX, 77550","Match","Exact","2618 AVENUE N, GALVESTON, TX, 77550",96680200,"R"
424683,"2618 AVENUE T","BROOKLYN","NY",11229,40.6022906960001,-73.945877174,183,"2618 AVENUE T, BROOKLYN, NY, 11229","Match","Exact","2618 AVE T, BROOKLYN, NY, 11229",59090230,"R"
424684,"2618 AVENUE W","BROOKLYN","NY",11229,40.5955230980001,-73.94459073,184,"2618 AVENUE W, BROOKLYN, NY, 11229","Match","Exact","2618 AVENUE W, BROOKLYN, NY, 11229",59091956,"R"
424685,"2618 BERMUDA LAKE DR APT103","TAMPA","FL",33609,NA,NA,185,"2618 BERMUDA LAKE DR APT103, TAMPA, FL, 33609","No_Match",NA,NA,NA,NA
424686,"2618 BIENVILLE ST","NEW ORLEANS","LA",70119,29.9665262670001,-90.0847717459999,186,"2618 BIENVILLE ST, NEW ORLEANS, LA, 70119","Match","Exact","2618 BIENVILLE ST, NEW ORLEANS, LA, 70119",191709461,"L"
424687,"2618 BRISTOL RIDGE ROAD","BRISTOL","IL",60512,41.6839332910001,-88.416515514,187,"2618 BRISTOL RIDGE ROAD, BRISTOL, IL, 60512","Match","Exact","2618 BRISTOL RIDGE RD, BRISTOL, IL, 60512",54497687,"L"
424688,"2618 BRODIE LANE","CRESTVIEW","FL",32536,30.7006663970001,-86.5780895459999,188,"2618 BRODIE LANE, CRESTVIEW, FL, 32536","Match","Exact","2618 BRODIE LN, CRESTVIEW, FL, 32536",74441087,"R"
424689,"2618 BUCKSKIN DRIVE","MCKINNEY","TX",75071,33.2253468530001,-96.6459553079999,189,"2618 BUCKSKIN DRIVE, MCKINNEY, TX, 75071","Match","Exact","2618 BUCKSKIN DR, MCKINNEY, TX, 75071",123562379,"L"
424690,"2618 BURLINGTON AVENUE","DOWNERS GROVE","IL",60515,41.7964405060001,-88.04614838,190,"2618 BURLINGTON AVENUE, DOWNERS GROVE, IL, 60515","Match","Exact","2618 BURLINGTON AVE, DOWNERS GROVE, IL, 60515",639889126,"R"
424691,"2618 CAPITOL STREET","HOUSTON","TX",77003,29.7508021100001,-95.3492400379999,191,"2618 CAPITOL STREET, HOUSTON, TX, 77003","Match","Exact","2618 CAPITOL ST, HOUSTON, TX, 77003",96069938,"R"
424692,"2618 CENIZO DRIVE","EAGLE PASS","TX",78852,NA,NA,192,"2618 CENIZO DRIVE, EAGLE PASS, TX, 78852","No_Match",NA,NA,NA,NA
424693,"2618 CLAYTON BLVD","CHAMPAIGN","IL",61822,40.122727959,-88.2889549769999,193,"2618 CLAYTON BLVD, CHAMPAIGN, IL, 61822","Match","Exact","2618 CLAYTON BLVD, CHAMPAIGN, IL, 61822",8815817,"L"
424694,"2618 CLEAR CT","JACKSONVILLE","FL",32207,30.298624782,-81.624246912,194,"2618 CLEAR CT, JACKSONVILLE, FL, 32207","Match","Exact","2618 CLEAR CT, JACKSONVILLE, FL, 32207",83927165,"R"
424695,"2618 CLINTON AVE","MINNEAPOLIS","MN",55408,44.9551051270001,-93.271510775,195,"2618 CLINTON AVE, MINNEAPOLIS, MN, 55408","Match","Non_Exact","2618 CLINTON AVE S, MINNEAPOLIS, MN, 55408",43835776,"R"
424696,"2618 COLORADO AVENUE","ROCKFORD","IL",61108,42.237633309,-89.0394907909999,196,"2618 COLORADO AVENUE, ROCKFORD, IL, 61108","Match","Non_Exact","2618 COLORADO AVE, ROCKFORD, IL, 61109",605029833,"L"
424697,"2618 COUNTRY CLUB DRIVE","PEARLAND","TX",77581,29.5645440820001,-95.244114423,197,"2618 COUNTRY CLUB DRIVE, PEARLAND, TX, 77581","Match","Exact","2618 COUNTRY CLUB DR, PEARLAND, TX, 77581",624097641,"R"
424698,"2618 COUNTY CLUB DRIVE","PEARLAND","TX",77581,29.5645440820001,-95.244114423,198,"2618 COUNTY CLUB DRIVE, PEARLAND, TX, 77581","Match","Non_Exact","2618 COUNTRY CLUB DR, PEARLAND, TX, 77581",624097641,"R"
424699,"2618 COVE CAY DR STE 207","CLEARWATER","FL",33760,27.9323419090001,-82.729795387,199,"2618 COVE CAY DR STE 207, CLEARWATER, FL, 33760","Match","Exact","2618 COVE CAY DR, CLEARWATER, FL, 33760",650556153,"L"
424700,"2618 CROCKETT DR","CORINTH","TX",76210,33.137789739,-97.0757669989999,200,"2618 CROCKETT DR, CORINTH, TX, 76210","Match","Exact","2618 CROCKETT DR, CORINTH, TX, 76210",103431718,"R"
424701,"2618 DAISY LANE","ROWLETT","TX",75089,32.9206322900001,-96.572732316,201,"2618 DAISY LANE, ROWLETT, TX, 75089","Match","Exact","2618 DAISY LN, ROWLETT, TX, 75089",102928953,"L"
424702,"2618 DEMING AVE","COLUMBUS","OH",43202,40.0167325530001,-83.0032435959999,202,"2618 DEMING AVE, COLUMBUS, OH, 43202","Match","Exact","2618 DEMING AVE, COLUMBUS, OH, 43202",218691820,"R"
424703,"2618 E FARMINGTON CT","BELVIDERE","IL",61008,42.246261265,-88.812096944,203,"2618 E FARMINGTON CT, BELVIDERE, IL, 61008","Match","Exact","2618 E FARMINGTON CT, BELVIDERE, IL, 61008",92162447,"L"
424704,"2618 E MALVERN ST","TUCSON","AZ",85716,32.216064525,-110.932505191,204,"2618 E MALVERN ST, TUCSON, AZ, 85716","Match","Exact","2618 E MALVERN ST, TUCSON, AZ, 85716",121174710,"R"
424705,"2618 FIGUEROA BLVD","SAN DIEGO","CA",92109,32.804336633,-117.222342081,205,"2618 FIGUEROA BLVD, SAN DIEGO, CA, 92109","Match","Exact","2618 FIGUEROA BLVD, SAN DIEGO, CA, 92109",612859297,"L"
424706,"2618 FLEMMING ST","ROYCE CITY","TX",75189,32.8813444730001,-96.322570007,206,"2618 FLEMMING ST, ROYCE CITY, TX, 75189","Match","Non_Exact","2618 FLEMING ST, ROYSE CITY, TX, 75189",627398587,"R"
424707,"2618 FLINT WAY APT A201","SAN BERNARDINO","CA",92408,34.05408283,-117.275064901,207,"2618 FLINT WAY APT A201, SAN BERNARDINO, CA, 92408","Match","Non_Exact","2618 N FLINT WAY, SAN BERNARDINO, CA, 92408",144659615,"R"
424708,"2618 FORBES AVE","SANTA CLARA","CA",95051,37.33475708,-121.968363211,208,"2618 FORBES AVE, SANTA CLARA, CA, 95051","Match","Exact","2618 FORBES AVE, SANTA CLARA, CA, 95051",122899565,"L"
424709,"2618 FOUNTAIN CIR","PLATTSMOUTH","NE",68048,41.05069738,-95.952059189,209,"2618 FOUNTAIN CIR, PLATTSMOUTH, NE, 68048","Match","Exact","2618 FOUNTAIN CIR, PLATTSMOUTH, NE, 68048",10360932,"R"
424710,"2618 FOXFIRE DR","SALISBURY","NC",28147,35.65181513,-80.512575612,210,"2618 FOXFIRE DR, SALISBURY, NC, 28147","Match","Non_Exact","2618 FOX FIRE DR, SALISBURY, NC, 28147",25282307,"L"
424711,"2618 FULLER AVE","MINDEN","NV",89423,39.0283938050001,-119.72396158,211,"2618 FULLER AVE, MINDEN, NV, 89423","Match","Exact","2618 FULLER AVE, MINDEN, NV, 89423",173743041,"L"
424712,"2618 GLADSTONE TER","WOODSTOCK","GA",30189,34.1282291730001,-84.5545291399999,212,"2618 GLADSTONE TER, WOODSTOCK, GA, 30189","Match","Exact","2618 GLADSTONE TER, WOODSTOCK, GA, 30189",68842692,"R"
424713,"2618 GLENDALE DR","WACO","TX",76705,31.5559210920001,-97.1878486699999,213,"2618 GLENDALE DR, WACO, TX, 76705","Match","Non_Exact","2618 GLENDALE DR, WACO, TX, 76710",634273130,"L"
424714,"2618 GOVERNORS POINT","INDIANAPOLIS","IN",46217,39.6667332390001,-86.204246247,214,"2618 GOVERNORS POINT, INDIANAPOLIS, IN, 46217","Match","Non_Exact","2618 GOVERNORS POINT AVE, INDIANAPOLIS, IN, 46217",108046261,"R"
424715,"2618 GRAYLAND AVE","RICHMOND","VA",23220,37.549297799,-77.4750416479999,215,"2618 GRAYLAND AVE, RICHMOND, VA, 23220","Match","Exact","2618 GRAYLAND AVE, RICHMOND, VA, 23220",201536018,"R"
424716,"2618 HACKS CROSS RD","GERMANTOWN","TN",38138,35.0778254700001,-89.793240183,216,"2618 HACKS CROSS RD, GERMANTOWN, TN, 38138","Match","Exact","2618 HACKS CROSS RD, GERMANTOWN, TN, 38138",607451282,"L"
424717,"2618 HATCHER","DALLAS","TX",75215,NA,NA,217,"2618 HATCHER, DALLAS, TX, 75215","No_Match",NA,NA,NA,NA
424718,"2618 KNADLER STREET","LARAMIE","WY",82072,41.3258712100001,-105.562492094,218,"2618 KNADLER STREET, LARAMIE, WY, 82072","Match","Exact","2618 KNADLER ST, LARAMIE, WY, 82072",646498641,"R"
424719,"2618 KNOLL SHADOWS LANE","KATY","TX",77449,29.8113659430001,-95.749001732,219,"2618 KNOLL SHADOWS LANE, KATY, TX, 77449","Match","Exact","2618 KNOLL SHADOWS LN, KATY, TX, 77449",624813549,"L"
424720,"2618 LADY ANNES WAY","HUNTINGTOWN","MD",20639,38.59445601,-76.5736678219999,220,"2618 LADY ANNES WAY, HUNTINGTOWN, MD, 20639","Match","Exact","2618 LADY ANNES WAY, HUNTINGTOWN, MD, 20639",78172321,"R"
424721,"2618 LAFAYETTE AVE","SAINT LOUIS","MO",63104,38.6148979500001,-90.222115822,221,"2618 LAFAYETTE AVE, SAINT LOUIS, MO, 63104","Match","Exact","2618 LAFAYETTE AVE, SAINT LOUIS, MO, 63104",107598653,"L"
424722,"2618 LAKE POINT DRIVE","COLUMBUS","OH",43230,NA,NA,222,"2618 LAKE POINT DRIVE, COLUMBUS, OH, 43230","No_Match",NA,NA,NA,NA
424723,"2618 LAMSON ROAD","PHOENIX","NY",13135,43.2192201820001,-76.327450368,223,"2618 LAMSON ROAD, PHOENIX, NY, 13135","Match","Exact","2618 LAMSON RD, PHOENIX, NY, 13135",46581150,"R"
424724,"2618 LITTLE HICKORY DR","LANSING","MI",48911,42.658068589,-84.574485115,224,"2618 LITTLE HICKORY DR, LANSING, MI, 48911","Match","Exact","2618 LITTLE HICKORY DR, LANSING, MI, 48911",633511366,"L"
424725,"2618 LONGFELLOW DR","WILMINGTON","DE",19808,39.720161325,-75.6769921539999,225,"2618 LONGFELLOW DR, WILMINGTON, DE, 19808","Match","Exact","2618 LONGFELLOW DR, WILMINGTON, DE, 19808",187264328,"L"
424726,"2618 LOUANN LANE","HARLINGEN","TX",78550,26.217919818,-97.684621126,226,"2618 LOUANN LANE, HARLINGEN, TX, 78550","Match","Non_Exact","2618 LOU ANN LN, HARLINGEN, TX, 78550",89971179,"L"
424727,"2618 MARION DR","FORT LAUDERDALE","FL",33316,26.099922823,-80.1108889989999,227,"2618 MARION DR, FORT LAUDERDALE, FL, 33316","Match","Exact","2618 MARION DR, FORT LAUDERDALE, FL, 33316",114731158,"R"
424728,"2618 MARTINVILLE DR","HOUSTON","TX",77017,29.6724862740001,-95.2329189659999,228,"2618 MARTINVILLE DR, HOUSTON, TX, 77017","Match","Exact","2618 MARTINVILLE DR, HOUSTON, TX, 77017",96600215,"R"
424729,"2618 MCMICKEN CIRCLE 100 UNIV PAVIL","CINCINNATI","OH",45221,NA,NA,229,"2618 MCMICKEN CIRCLE 100 UNIV PAVIL, CINCINNATI, OH, 45221","No_Match",NA,NA,NA,NA
424730,"2618 N IDITAROD","KUNA","ID",83634,43.512460493,-116.420476972,230,"2618 N IDITAROD, KUNA, ID, 83634","Match","Non_Exact","2618 N IDITAROD WAY, KUNA, ID, 83634",648979594,"R"
424731,"2618 N NORTHSHORE CT","WICHITA","KS",67205,37.731439993,-97.414403595,231,"2618 N NORTHSHORE CT, WICHITA, KS, 67205","Match","Non_Exact","2618 N NORTH SHORE CT, WICHITA, KS, 67205",115677716,"L"
424732,"2618 NORTH MAIN STREET","RACINE","WI",53402,42.7522444410001,-87.7841717589999,232,"2618 NORTH MAIN STREET, RACINE, WI, 53402","Match","Exact","2618 N MAIN ST, RACINE, WI, 53402",77906363,"L"
424733,"2618 NORTHHAMPTON ST NW","WASHINGTON","DC",20010,NA,NA,233,"2618 NORTHHAMPTON ST NW, WASHINGTON, DC, 20010","No_Match",NA,NA,NA,NA
424734,"2618 OLD NC HWY 49","ASHEBORO","NC",27205,35.676484427,-79.886241044,234,"2618 OLD NC HWY 49, ASHEBORO, NC, 27205","Match","Exact","2618 OLD STATE HWY 49, ASHEBORO, NC, 27205",20404645,"L"
424735,"2618 OLD SOUTH DR","RICHMOND","TX",77406,29.632837663,-95.734937001,235,"2618 OLD SOUTH DR, RICHMOND, TX, 77406","Match","Exact","2618 OLD SOUTH DR, RICHMOND, TX, 77406",649372066,"R"
424736,"2618 OXFORD DR","SUTHERLAND","VA",23885,37.234942195,-77.570400283,236,"2618 OXFORD DR, SUTHERLAND, VA, 23885","Match","Exact","2618 OXFORD DR, SUTHERLAND, VA, 23885",54171281,"L"
424737,"2618 PALM","HOUSTON","TX",77004,29.7213686010001,-95.37245295,237,"2618 PALM, HOUSTON, TX, 77004","Match","Non_Exact","2618 PALM ST, HOUSTON, TX, 77004",96072369,"R"
424738,"2618 PAULINE OAKS DRIVE","FRANKLINTON","NC",27525,36.1589713340001,-78.549278923,238,"2618 PAULINE OAKS DRIVE, FRANKLINTON, NC, 27525","Match","Exact","2618 PAULINE OAKS DR, FRANKLINTON, NC, 27525",624047598,"R"
424739,"2618 PEARSON WAY","ROUND ROCK","TX",78665,30.5482129550001,-97.614999029,239,"2618 PEARSON WAY, ROUND ROCK, TX, 78665","Match","Exact","2618 PEARSON WAY, ROUND ROCK, TX, 78665",617767953,"L"
424740,"2618 PLANTERSVIEW LN","MISSOURI CITY","TX",77459,29.552808296,-95.544214339,240,"2618 PLANTERSVIEW LN, MISSOURI CITY, TX, 77459","Match","Non_Exact","2618 PLANTERS VIEW LN, MISSOURI CITY, TX, 77459",647984701,"R"
424741,"2618 POPLAR POST ROAD","VESTAVIA","AL",35243,33.428412661,-86.763425645,241,"2618 POPLAR POST ROAD, VESTAVIA, AL, 35243","Match","Exact","2618 POPLAR POST RD, VESTAVIA, AL, 35243",81621265,"L"
424742,"2618 RAYBURN RIDGE DRIVE","KATY","TX",77450,29.7453828980001,-95.737621969,242,"2618 RAYBURN RIDGE DRIVE, KATY, TX, 77450","Match","Exact","2618 RAYBURN RIDGE DR, KATY, TX, 77450",96298575,"R"
424743,"2618 ROSE MONT LANE","BOWIE","MD",20721,38.92373221,-76.8406417269999,243,"2618 ROSE MONT LANE, BOWIE, MD, 20721","Match","Non_Exact","2618 ROSE MOUNT LN, BOWIE, MD, 20721",650139889,"R"
424744,"2618 S 200 W   STE 1","BOUNTIFUL","UT",84010,40.8612174620001,-111.885791727,244,"2618 S 200 W   STE 1, BOUNTIFUL, UT, 84010","Match","Non_Exact","2618 S 200 W, BOUNTIFUL, UT, 84010",155311987,"R"
424745,"2618 S CINCINNATI AVE","TULSA","OK",74114,36.1261572920001,-95.981575114,245,"2618 S CINCINNATI AVE, TULSA, OK, 74114","Match","Exact","2618 S CINCINNATI AVE, TULSA, OK, 74114",166442179,"R"
424746,"2618 S RHYOLITE RD","SPOKANE","WA",99203,47.6307353400001,-117.396697277,246,"2618 S RHYOLITE RD, SPOKANE, WA, 99203","Match","Exact","2618 S RHYOLITE RD, SPOKANE, WA, 99203",189881328,"R"
424747,"2618 SAN MIGUEL DR NUM 240","NEWPORT BEACH","CA",92660,33.625782213,-117.850116784,247,"2618 SAN MIGUEL DR NUM 240, NEWPORT BEACH, CA, 92660","Match","Exact","2618 SAN MIGUEL DR, NEWPORT BEACH, CA, 92660",144059240,"R"
424748,"2618 SAN MIGUEL DRIVE -272","NEWPORT BEACH","CA",92660,33.625782213,-117.850116784,248,"2618 SAN MIGUEL DRIVE -272, NEWPORT BEACH, CA, 92660","Match","Exact","2618 SAN MIGUEL DR, NEWPORT BEACH, CA, 92660",144059240,"R"
424749,"2618 SAN MIGUEL DRIVE STE 1213","NEWPORT BEACH","CA",92660,33.625782213,-117.850116784,249,"2618 SAN MIGUEL DRIVE STE 1213, NEWPORT BEACH, CA, 92660","Match","Exact","2618 SAN MIGUEL DR, NEWPORT BEACH, CA, 92660",144059240,"R"
424750,"2618 SAN MIGUEL DRIVE STE 296","NEWPORT BEACH","CA",92660,33.625782213,-117.850116784,250,"2618 SAN MIGUEL DRIVE STE 296, NEWPORT BEACH, CA, 92660","Match","Exact","2618 SAN MIGUEL DR, NEWPORT BEACH, CA, 92660",144059240,"R"
424751,"2618 SAN MIGUEL DRIVE SUITE 269","NEWPORT BEACH","CA",92660,33.625782213,-117.850116784,251,"2618 SAN MIGUEL DRIVE SUITE 269, NEWPORT BEACH, CA, 92660","Match","Exact","2618 SAN MIGUEL DR, NEWPORT BEACH, CA, 92660",144059240,"R"
424752,"2618 SAN MIGUEL DRIVE SUITE 507","NEWPORT BEACH","CA",92660,33.625782213,-117.850116784,252,"2618 SAN MIGUEL DRIVE SUITE 507, NEWPORT BEACH, CA, 92660","Match","Exact","2618 SAN MIGUEL DR, NEWPORT BEACH, CA, 92660",144059240,"R"
424753,"2618 SAN MIGUEL DRIVE","NEWPORT BEACH","CA",92660,33.625782213,-117.850116784,253,"2618 SAN MIGUEL DRIVE, NEWPORT BEACH, CA, 92660","Match","Exact","2618 SAN MIGUEL DR, NEWPORT BEACH, CA, 92660",144059240,"R"
424754,"2618 SAN MIGUEL SUITE 1113","NEWPORT BEACH","CA",92660,33.625782213,-117.850116784,254,"2618 SAN MIGUEL SUITE 1113, NEWPORT BEACH, CA, 92660","Match","Non_Exact","2618 SAN MIGUEL DR, NEWPORT BEACH, CA, 92660",144059240,"R"
424755,"2618 SAN MIGUELL DRIVE APT 218","NEWPORT BEACH","CA",92660,33.625782213,-117.850116784,255,"2618 SAN MIGUELL DRIVE APT 218, NEWPORT BEACH, CA, 92660","Match","Non_Exact","2618 SAN MIGUEL DR, NEWPORT BEACH, CA, 92660",144059240,"R"
424756,"2618 SANDERLING WAY","PLEASANTON","CA",94566,37.682575709,-121.883614866,256,"2618 SANDERLING WAY, PLEASANTON, CA, 94566","Match","Exact","2618 SANDERLING WAY, PLEASANTON, CA, 94566",125032052,"L"
424757,"2618 SHARPVIEW LANE","DALLAS","TX",75228,32.796198583,-96.706493541,257,"2618 SHARPVIEW LANE, DALLAS, TX, 75228","Match","Exact","2618 SHARPVIEW LN, DALLAS, TX, 75228",102923882,"R"
424758,"2618 SHEARWATER BEND","HUMBLE","TX",77396,29.970029803,-95.231253151,258,"2618 SHEARWATER BEND, HUMBLE, TX, 77396","Match","Non_Exact","2618 SHEARWATER BEND DR, HUMBLE, TX, 77396",628032711,"R"
424759,"2618 SOUTH 18TH AVE","YUMA","AZ",85364,32.6796720200001,-114.641304781,259,"2618 SOUTH 18TH AVE, YUMA, AZ, 85364","Match","Exact","2618 S 18TH AVE, YUMA, AZ, 85364",129643765,"R"
424760,"2618 SOUTH SPRINGS STREET","LITTLE ROCK","AR",72206,34.723193904,-92.2774413879999,260,"2618 SOUTH SPRINGS STREET, LITTLE ROCK, AR, 72206","Match","Exact","2618 S SPRING ST, LITTLE ROCK, AR, 72206",83511410,"R"
424761,"2618 SPRING CANYON","SAN ANTONIO","TX",78232,29.5881917240001,-98.444316807,261,"2618 SPRING CANYON, SAN ANTONIO, TX, 78232","Match","Exact","2618 SPRING CANYON, SAN ANTONIO, TX, 78232",101498238,"R"
424762,"2618 SW 81ST TERRACE","MIRAMAR","FL",33025,25.986147487,-80.2494089529999,262,"2618 SW 81ST TERRACE, MIRAMAR, FL, 33025","Match","Exact","2618 SW 81ST TER, MIRAMAR, FL, 33025",617658154,"R"
424763,"2618 TAMPICO DR","PITTBURG","CA",94565,38.014045261,-121.972640721,263,"2618 TAMPICO DR, PITTBURG, CA, 94565","Match","Non_Exact","2618 TAMPICO DR, PITTSBURG, CA, 94565",646608322,"L"
424764,"2618 TEALVIEW LN","KATY","TX",77494,29.7504826800001,-95.789292002,264,"2618 TEALVIEW LN, KATY, TX, 77494","Match","Non_Exact","2618 TEAL VIEW LN, KATY, TX, 77494",624602457,"L"
424765,"2618 VALENCIA DRIVE","SARASOTA","FL",34239,27.304541928,-82.518140497,265,"2618 VALENCIA DRIVE, SARASOTA, FL, 34239","Match","Exact","2618 VALENCIA DR, SARASOTA, FL, 34239",16352205,"R"
424766,"2618 W 52ND ST","MINNEAPOLIS","MN",55410,44.9087902540001,-93.3127634049999,266,"2618 W 52ND ST, MINNEAPOLIS, MN, 55410","Match","Exact","2618 W 52ND ST, MINNEAPOLIS, MN, 55410",43628349,"R"
424767,"2618 W 52ND STREET","MINNEAPOLIS","MN",55410,44.9087902540001,-93.3127634049999,267,"2618 W 52ND STREET, MINNEAPOLIS, MN, 55410","Match","Exact","2618 W 52ND ST, MINNEAPOLIS, MN, 55410",43628349,"R"
424768,"2618 W CACTUS WREN","APACHE JUNCTION","AS",85120,NA,NA,268,"2618 W CACTUS WREN, APACHE JUNCTION, AS, 85120","No_Match",NA,NA,NA,NA
424769,"2618 W GABY ROAD","PHOENIX","AZ",85041,33.403719665,-112.114333608,269,"2618 W GABY ROAD, PHOENIX, AZ, 85041","Match","Exact","2618 W GABY RD, PHOENIX, AZ, 85041",244001462,"L"
424770,"2618 W GLENLAKE AVE","CHICAGO","IL",60659,41.992227987,-87.6954332669999,270,"2618 W GLENLAKE AVE, CHICAGO, IL, 60659","Match","Exact","2618 W GLENLAKE AVE, CHICAGO, IL, 60659",605169548,"R"
424771,"2618 W GUNNISON APT 2","CHICAGO","IL",60625,NA,NA,271,"2618 W GUNNISON APT 2, CHICAGO, IL, 60625","No_Match",NA,NA,NA,NA
424772,"2618 W SINTO AVE","SPOKANE","WA",99201,47.6699016650001,-117.450035856,272,"2618 W SINTO AVE, SPOKANE, WA, 99201","Match","Exact","2618 W SINTO AVE, SPOKANE, WA, 99201",189873377,"R"
424773,"2618 WARWICK DRIVE","BLOOMFIELD HILLS","MI",48304,42.601316141,-83.2434637709999,273,"2618 WARWICK DRIVE, BLOOMFIELD HILLS, MI, 48304","Match","Exact","2618 WARWICK DR, BLOOMFIELD HILLS, MI, 48304",69709539,"R"
424774,"2618 WELLER ROAD","SILVER SPRING","MD",20906,39.0710723070001,-77.055889581,274,"2618 WELLER ROAD, SILVER SPRING, MD, 20906","Match","Exact","2618 WELLER RD, SILVER SPRING, MD, 20906",62060774,"L"
424775,"2618 WEST MEYER DRIVE","MORROW","GA",30260,33.5796996810001,-84.304373954,275,"2618 WEST MEYER DRIVE, MORROW, GA, 30260","Match","Exact","2618 W MEYER DR, MORROW, GA, 30260",623938689,"R"
424776,"2618 WHITETAIL COURT","ANTIOCH","CA",94531,37.973384536,-121.778931888,276,"2618 WHITETAIL COURT, ANTIOCH, CA, 94531","Match","Exact","2618 WHITETAIL CT, ANTIOCH, CA, 94531",192080155,"R"
424777,"2618 WINCHESTER ROAD","MEMPHIS","TN",38116,35.052489408,-89.977369054,277,"2618 WINCHESTER ROAD, MEMPHIS, TN, 38116","Match","Exact","2618 WINCHESTER RD, MEMPHIS, TN, 38116",649084648,"L"
424778,"2618 WINDHOLLOW DRIVE","CORPUS CHRISTI","TX",78414,27.6782657140001,-97.358108693,278,"2618 WINDHOLLOW DRIVE, CORPUS CHRISTI, TX, 78414","Match","Non_Exact","2618 WIND HOLLOW DR, CORPUS CHRISTI, TX, 78414",628010272,"R"
424779,"2618 WOODYHILL DR","NASHVILLE","TN",37207,36.2122715620001,-86.758184612,279,"2618 WOODYHILL DR, NASHVILLE, TN, 37207","Match","Exact","2618 WOODYHILL DR, NASHVILLE, TN, 37207",606833043,"L"
424780,"2618 WYNTERCREST LANE","DURHAM","NC",27713,35.943717846,-78.889922139,280,"2618 WYNTERCREST LANE, DURHAM, NC, 27713","Match","Exact","2618 WYNTERCREST LN, DURHAM, NC, 27713",618109109,"R"
424781,"26180 COUNTRY CLUB DR APT 309","MISSION VIEJO","CA",92691,33.581885218,-117.662995588,281,"26180 COUNTRY CLUB DR APT 309, MISSION VIEJO, CA, 92691","Match","Exact","26180 COUNTRY CLUB DR, MISSION VIEJO, CA, 92691",640192245,"L"
424782,"26181 SW 132 PLACE","NARANJA","FL",33032,25.523851984,-80.4060971659999,282,"26181 SW 132 PLACE, NARANJA, FL, 33032","Match","Exact","26181 SW 132ND PL, NARANJA, FL, 33032",640556962,"L"
424783,"26182 CIRCLE DR NW","POULSBO","WA",98370,47.800286242,-122.669387008,283,"26182 CIRCLE DR NW, POULSBO, WA, 98370","Match","Exact","26182 CIRCLE DR NW, POULSBO, WA, 98370",187632904,"R"
424784,"26182","MILTON","DE",19968,NA,NA,284,"26182, MILTON, DE, 19968","No_Match",NA,NA,NA,NA
424785,"26183 HUMMINGBIRD DR","SOUTH BEND","IN",46619,41.6859370430001,-86.37484334,285,"26183 HUMMINGBIRD DR, SOUTH BEND, IN, 46619","Match","Exact","26183 HUMMINGBIRD DR, SOUTH BEND, IN, 46619",8071877,"R"
424786,"26183 HUMMINGBIRD RD","SOUTH BEND","IN",46619,41.6859370430001,-86.37484334,286,"26183 HUMMINGBIRD RD, SOUTH BEND, IN, 46619","Match","Non_Exact","26183 HUMMINGBIRD DR, SOUTH BEND, IN, 46619",8071877,"R"
424787,"26185 CARRONADE DRIVE","PERRYSBURG","OH",43551,41.5348917420001,-83.611075462,287,"26185 CARRONADE DRIVE, PERRYSBURG, OH, 43551","Match","Exact","26185 CARRONADE DR, PERRYSBURG, OH, 43551",648350980,"R"
424788,"26185 CEDAR COVE DRIVE","DENHAM SPRINGS","LA",70726,NA,NA,288,"26185 CEDAR COVE DRIVE, DENHAM SPRINGS, LA, 70726","No_Match",NA,NA,NA,NA
424789,"26186 COUNTY ROAD 16","NICKERSON","NE",68044,41.581864409,-96.411743326,289,"26186 COUNTY ROAD 16, NICKERSON, NE, 68044","Match","Exact","26186 CO RD 16, NICKERSON, NE, 68044",176774201,"L"
424790,"2619 150TH ST","PRESCOTT","IA",50859,41.0860433240001,-94.620894707,290,"2619 150TH ST, PRESCOTT, IA, 50859","Match","Exact","2619 150TH ST, PRESCOTT, IA, 50859",647581092,"R"
424791,"2619 32ND ST","WASHINGTON","DC",20020,38.8581065340001,-76.961506975,291,"2619 32ND ST, WASHINGTON, DC, 20020","Match","Non_Exact","2619 32ND ST SE, WASHINGTON, DC, 20020",76232899,"R"
424792,"2619 ALABAMA COURT","JOPLIN","MO",64804,37.0598414520001,-94.486615274,292,"2619 ALABAMA COURT, JOPLIN, MO, 64804","Match","Exact","2619 ALABAMA CT, JOPLIN, MO, 64804",66158463,"L"
424793,"2619 BELLVIEW STREET","LAMARQUE","TX",77568,29.375509988,-94.9830299929999,293,"2619 BELLVIEW STREET, LAMARQUE, TX, 77568","Match","Non_Exact","2619 BELLVIEW ST, LA MARQUE, TX, 77568",96687853,"L"
424794,"2619 BLUFFSIDE DR","ROCKFORD","IL",61109,42.213133381,-89.0650029079999,294,"2619 BLUFFSIDE DR, ROCKFORD, IL, 61109","Match","Exact","2619 BLUFFSIDE DR, ROCKFORD, IL, 61109",49279803,"L"
424795,"2619 BRET AVE","SALINA","KS",67401,38.7924622580001,-97.599936945,295,"2619 BRET AVE, SALINA, KS, 67401","Match","Exact","2619 BRET AVE, SALINA, KS, 67401",639157979,"R"
424796,"2619 BRISBANE RD","AUSTIN","TX",78745,30.1986563290001,-97.821914173,296,"2619 BRISBANE RD, AUSTIN, TX, 78745","Match","Exact","2619 BRISBANE RD, AUSTIN, TX, 78745",641778051,"L"
424797,"2619 BUCKLEIGH DRIVE","CHARLOTTE","NC",28215,35.2710053100001,-80.711480379,297,"2619 BUCKLEIGH DRIVE, CHARLOTTE, NC, 28215","Match","Exact","2619 BUCKLEIGH DR, CHARLOTTE, NC, 28215",70627635,"R"
424798,"2619 CAMPBELL CIRCLE","PITTSBURGH","PA",15122,40.364858944,-79.8764370169999,298,"2619 CAMPBELL CIRCLE, PITTSBURGH, PA, 15122","Match","Exact","2619 CAMPBELL CIR, PITTSBURGH, PA, 15122",641866757,"L"
424799,"2619 CHERRY LAUREL DRIVE","HARRISBURG","NC",28075,35.2968049630001,-80.6236416359999,299,"2619 CHERRY LAUREL DRIVE, HARRISBURG, NC, 28075","Match","Exact","2619 CHERRY LAUREL DR, HARRISBURG, NC, 28075",648067513,"R"
424800,"2619 CHRISTIE STREET","CHARLOTTE","NC",28208,35.2074316260001,-80.903010649,300,"2619 CHRISTIE STREET, CHARLOTTE, NC, 28208","Match","Exact","2619 CHRISTIE ST, CHARLOTTE, NC, 28208",70484005,"L"
424801,"2619 CLEARVIEW STREET","OTTUMWA","IA",52501,41.051657822,-92.408217668,301,"2619 CLEARVIEW STREET, OTTUMWA, IA, 52501","Match","Exact","2619 CLEARVIEW ST, OTTUMWA, IA, 52501",89614678,"L"
424802,"2619 COLTON DR","CHARLOTTE","NC",28211,35.178803552,-80.817664603,302,"2619 COLTON DR, CHARLOTTE, NC, 28211","Match","Exact","2619 COLTON DR, CHARLOTTE, NC, 28211",648376920,"L"
424803,"2619 CORRECTION VILLE RD","SIOUX CITY","IA",51106,42.4902207370001,-96.3751932929999,303,"2619 CORRECTION VILLE RD, SIOUX CITY, IA, 51106","Match","Non_Exact","2619 CORRECTIONVILLE RD, SIOUX CITY, IA, 51106",93443968,"L"
424804,"2619 CORRECTIONVILLE ROAD","SIOUX CITY","IA",51106,42.4902207370001,-96.3751932929999,304,"2619 CORRECTIONVILLE ROAD, SIOUX CITY, IA, 51106","Match","Exact","2619 CORRECTIONVILLE RD, SIOUX CITY, IA, 51106",93443968,"L"
424805,"2619 COUNTY ROAD 202","LLANO","TX",78643,30.8084393390001,-98.566705134,305,"2619 COUNTY ROAD 202, LLANO, TX, 78643","Match","Exact","2619 CO RD 202, LLANO, TX, 78643",652153423,"L"
424806,"2619 DANFORTH LN","DECATUR","GA",30033,33.8260822,-84.281146185,306,"2619 DANFORTH LN, DECATUR, GA, 30033","Match","Exact","2619 DANFORTH LN, DECATUR, GA, 30033",23384429,"R"
424807,"2619 DEN HILL ROAD","CHRISTIANSBURG","VA",24073,37.1561906760001,-80.3187011529999,307,"2619 DEN HILL ROAD, CHRISTIANSBURG, VA, 24073","Match","Exact","2619 DEN HILL RD, CHRISTIANSBURG, VA, 24073",73619965,"L"
424808,"2619 DENWOOD","JEFFERSON CITY","MO",65101,38.4929800240001,-92.155637902,308,"2619 DENWOOD, JEFFERSON CITY, MO, 65101","Match","Non_Exact","2619 DENWOOD ESTS, JEFFERSON CITY, MO, 65101",633515220,"R"
424809,"2619 DIVING DUCK CT","HUMBLE","TX",77396,29.965672308,-95.229538602,309,"2619 DIVING DUCK CT, HUMBLE, TX, 77396","Match","Exact","2619 DIVING DUCK CT, HUMBLE, TX, 77396",624859687,"L"
424810,"2619 DOUBLE LAKE DR","MISSOURI CITY","TX",77459,29.576885685,-95.578899577,310,"2619 DOUBLE LAKE DR, MISSOURI CITY, TX, 77459","Match","Exact","2619 DOUBLE LAKE DR, MISSOURI CITY, TX, 77459",78290688,"R"
424811,"2619 E WALNUT RD","GILBERT","AZ",85298,33.2610628360001,-111.733082061,311,"2619 E WALNUT RD, GILBERT, AZ, 85298","Match","Exact","2619 E WALNUT RD, GILBERT, AZ, 85298",636754719,"R"
424812,"2619 EVA LANE","LAKE CHARLES","LA",70607,30.1427482890001,-93.179048527,312,"2619 EVA LANE, LAKE CHARLES, LA, 70607","Match","Exact","2619 EVA LN, LAKE CHARLES, LA, 70607",88450207,"L"
424813,"2619 FOLEY ROAD","CROSBY","TX",77532,29.9482446920001,-95.125388322,313,"2619 FOLEY ROAD, CROSBY, TX, 77532","Match","Exact","2619 FOLEY RD, CROSBY, TX, 77532",96051440,"L"
424814,"2619 GALLIA STREET","PORTSMOUTH","OH",45662,38.7397261770001,-82.966546389,314,"2619 GALLIA STREET, PORTSMOUTH, OH, 45662","Match","Exact","2619 GALLIA ST, PORTSMOUTH, OH, 45662",650845267,"L"
424815,"2619 GAYLORD AVE","BETHEL","OH",45106,38.953637981,-84.0769345849999,315,"2619 GAYLORD AVE, BETHEL, OH, 45106","Match","Exact","2619 GAYLORD AVE, BETHEL, OH, 45106",118451076,"L"
424816,"2619 GLENGYLE DR","VIENNA","VA",22181,38.8949100360001,-77.281279921,316,"2619 GLENGYLE DR, VIENNA, VA, 22181","Match","Exact","2619 GLENGYLE DR, VIENNA, VA, 22181",76025416,"L"
424817,"2619 GLENNWOOD TRAIL","CEDAR PARK","TX",78613,NA,NA,317,"2619 GLENNWOOD TRAIL, CEDAR PARK, TX, 78613","No_Match",NA,NA,NA,NA
424818,"2619 HARRISON ST 3","SAN FRANCISCO","CA",94110,37.7554601430001,-122.412154472,318,"2619 HARRISON ST 3, SAN FRANCISCO, CA, 94110","Match","Exact","2619 HARRISON ST, SAN FRANCISCO, CA, 94110",192288429,"L"
424819,"2619 HAY 21 WEST","BRYAN","TX",77803,30.670914376,-96.401858249,319,"2619 HAY 21 WEST, BRYAN, TX, 77803","Match","Non_Exact","2619 HWY 21 W, BRYAN, TX, 77803",21838493,"L"
424820,"2619 HIGH ST SW","CONYERS","GA",30094,33.628868674,-84.0579053069999,320,"2619 HIGH ST SW, CONYERS, GA, 30094","Match","Exact","2619 HIGH ST SW, CONYERS, GA, 30094",23745283,"L"
424821,"2619 HIGHWAY A","PALMYRA","MO",63461,NA,NA,321,"2619 HIGHWAY A, PALMYRA, MO, 63461","No_Match",NA,NA,NA,NA
424822,"2619 HWY 21 WEST","BRYAN","TX",77803,30.670914376,-96.401858249,322,"2619 HWY 21 WEST, BRYAN, TX, 77803","Match","Exact","2619 HWY 21 W, BRYAN, TX, 77803",21838493,"L"
424823,"2619 HYDRAULIC RD","CHARLOTTESVILLE","VA",22901,38.0694644980001,-78.4982951219999,323,"2619 HYDRAULIC RD, CHARLOTTESVILLE, VA, 22901","Match","Exact","2619 HYDRAULIC RD, CHARLOTTESVILLE, VA, 22901",83401963,"L"
424824,"2619 JUNIPER STREET 1","SANTA ANA","CA",92704,33.69934227,-117.904519858,324,"2619 JUNIPER STREET 1, SANTA ANA, CA, 92704","Match","Non_Exact","2619 W JUNIPER ST, SANTA ANA, CA, 92704",144042979,"R"
424825,"2619 KNOLLBROOK LN","SPRING","TX",77373,30.080298256,-95.399243021,325,"2619 KNOLLBROOK LN, SPRING, TX, 77373","Match","Exact","2619 KNOLLBROOK LN, SPRING, TX, 77373",96041556,"R"
424826,"2619 LAKEVIEW DR","ORTONVILLE","MI",48462,42.8277734280001,-83.4012774449999,326,"2619 LAKEVIEW DR, ORTONVILLE, MI, 48462","Match","Exact","2619 LAKEVIEW DR, ORTONVILLE, MI, 48462",69689112,"R"
424827,"2619 LEONIDAS STREET","NEW ORLEANS","LA",70118,29.9610467260001,-90.12295209,327,"2619 LEONIDAS STREET, NEW ORLEANS, LA, 70118","Match","Exact","2619 LEONIDAS ST, NEW ORLEANS, LA, 70118",191700873,"R"
424828,"2619 LYNDALE AVENUE NORTH","MINNEAPOLIS","MN",55411,45.006333291,-93.2879943249999,328,"2619 LYNDALE AVENUE NORTH, MINNEAPOLIS, MN, 55411","Match","Exact","2619 LYNDALE AVE N, MINNEAPOLIS, MN, 55411",43622563,"L"
424829,"2619 MAZARO WAY","ROUND ROCK","TX",78665,30.5772509290001,-97.643327764,329,"2619 MAZARO WAY, ROUND ROCK, TX, 78665","Match","Exact","2619 MAZARO WAY, ROUND ROCK, TX, 78665",648536854,"R"
424830,"2619 MCKINNEY AVE APT 1106","DALLAS","TX",75204,32.7971120760001,-96.8015295179999,330,"2619 MCKINNEY AVE APT 1106, DALLAS, TX, 75204","Match","Exact","2619 MCKINNEY AVE, DALLAS, TX, 75204",102909139,"L"
424831,"2619 MCKINNEY AVENUE APT 1408","DALLAS","TN",75204,NA,NA,331,"2619 MCKINNEY AVENUE APT 1408, DALLAS, TN, 75204","No_Match",NA,NA,NA,NA
424832,"2619 MCKINNEY AVENUE APT 1408","DALLAS","TX",75204,32.7971120760001,-96.8015295179999,332,"2619 MCKINNEY AVENUE APT 1408, DALLAS, TX, 75204","Match","Exact","2619 MCKINNEY AVE, DALLAS, TX, 75204",102909139,"L"
424833,"2619 MOUNTAIN LAUREL PL","RESTON","VA",20191,38.92208788,-77.359572606,333,"2619 MOUNTAIN LAUREL PL, RESTON, VA, 20191","Match","Exact","2619 MOUNTAIN LAUREL PL, RESTON, VA, 20191",75958978,"L"
424834,"2619 N BIGELOW ST","PEORIA","IL",61604,40.71914953,-89.5969622809999,334,"2619 N BIGELOW ST, PEORIA, IL, 61604","Match","Exact","2619 N BIGELOW ST, PEORIA, IL, 61604",635486898,"L"
424835,"2619 N CR 200 W","NEW CASTLE","IN",47362,39.969818821,-85.42341068,335,"2619 N CR 200 W, NEW CASTLE, IN, 47362","Match","Exact","2619 N CO RD 200 W, NEW CASTLE, IN, 47362",29982235,"L"
424836,"2619 N JACARANDA ST","SANTA ANA","CA",92705,33.771883555,-117.850522541,336,"2619 N JACARANDA ST, SANTA ANA, CA, 92705","Match","Exact","2619 JACARANDA ST, SANTA ANA, CA, 92705",144051319,"R"
424837,"2619 N MCVICKER","CHICAGO","IL",60639,41.927903185,-87.777059837,337,"2619 N MCVICKER, CHICAGO, IL, 60639","Match","Non_Exact","2619 N MCVICKER AVE, CHICAGO, IL, 60639",111753136,"R"
424838,"2619 N ROUGH STONE PLACE","MERIDIAN","ID",83646,43.628818611,-116.419745958,338,"2619 N ROUGH STONE PLACE, MERIDIAN, ID, 83646","Match","Non_Exact","2619 N ROUGH STONE WAY, MERIDIAN, ID, 83646",117931295,"L"
424839,"2619 N STEDMAN DR NUMBER 43","PETERSBURG","VA",23803,37.2128324010001,-77.350326932,339,"2619 N STEDMAN DR NUMBER 43, PETERSBURG, VA, 23803","Match","Non_Exact","2619 N STEDMAN DR, PETERSBURG, VA, 23803",54214510,"L"
424840,"2619 N WEST","WILMINGTON","DE",19802,39.756432573,-75.537104647,340,"2619 N WEST, WILMINGTON, DE, 19802","Match","Non_Exact","2619 WEST ST, WILMINGTON, DE, 19802",187259005,"L"
424841,"2619 NAPLES LANE","GRAND PRAIRIE","TX",75052,32.654717406,-97.046238911,341,"2619 NAPLES LANE, GRAND PRAIRIE, TX, 75052","Match","Exact","2619 NAPLES LN, GRAND PRAIRIE, TX, 75052",643209559,"L"
424842,"2619 NE TWIN SPITS ROAD","HANSVILLE","WA",98340,47.9258964460001,-122.614552984,342,"2619 NE TWIN SPITS ROAD, HANSVILLE, WA, 98340","Match","Exact","2619 NE TWIN SPITS RD, HANSVILLE, WA, 98340",640184073,"L"
424843,"2619 NEMO CT","BOWIE","MD",20716,38.9273418400001,-76.7341605029999,343,"2619 NEMO CT, BOWIE, MD, 20716","Match","Exact","2619 NEMO CT, BOWIE, MD, 20716",76399664,"L"
424844,"2619 NUTMEG COURT","MAYS LANDING","NJ",8330,39.4563062180001,-74.648123104,344,"2619 NUTMEG COURT, MAYS LANDING, NJ, 8330","Match","Exact","2619 NUTMEG CT, MAYS LANDING, NJ, 08330",202510268,"L"
424845,"2619 NW 10TH STREET","POMPANO BEACH","FL",33069,26.2411139750001,-80.157915631,345,"2619 NW 10TH STREET, POMPANO BEACH, FL, 33069","Match","Exact","2619 NW 10TH ST, POMPANO BEACH, FL, 33069",114693754,"R"
424846,"2619 PACKARD AVE","YPSILANTI","MI",48197,42.2450494010001,-83.652992813,346,"2619 PACKARD AVE, YPSILANTI, MI, 48197","Match","Non_Exact","2619 PACKARD RD, YPSILANTI, MI, 48197",26027984,"L"
424847,"2619 PALM DEER DRIVE","LOXAHATCHEE","FL",33470,26.7187905530001,-80.341177245,347,"2619 PALM DEER DRIVE, LOXAHATCHEE, FL, 33470","Match","Exact","2619 PALM DEER DR, LOXAHATCHEE, FL, 33470",115314270,"R"
424848,"2619 POINCIANA PLACE","DALLAS","TX",75212,32.7922435780001,-96.863919352,348,"2619 POINCIANA PLACE, DALLAS, TX, 75212","Match","Exact","2619 POINCIANA PL, DALLAS, TX, 75212",647930081,"R"
424849,"2619 POWDERHORN DR","CALDWELL","ID",83605,43.6465209740001,-116.651769616,349,"2619 POWDERHORN DR, CALDWELL, ID, 83605","Match","Exact","2619 POWDERHORN DR, CALDWELL, ID, 83605",647484945,"R"
424850,"2619 RIDGEWOOD CT","NEW CASTLE","PA",16101,40.9655496300001,-80.3237771779999,350,"2619 RIDGEWOOD CT, NEW CASTLE, PA, 16101","Match","Exact","2619 RIDGEWOOD CT, NEW CASTLE, PA, 16101",65187406,"L"
424851,"2619 ROWAN ST","LOUISVILLE","KY",40212,38.262154965,-85.793975926,351,"2619 ROWAN ST, LOUISVILLE, KY, 40212","Match","Exact","2619 ROWAN ST, LOUISVILLE, KY, 40212",640116553,"R"
424852,"2619 S 14TH PLACE","BROKEN ARROW","OK",74012,36.026255647,-95.775009855,352,"2619 S 14TH PLACE, BROKEN ARROW, OK, 74012","Match","Exact","2619 S 14TH PL, BROKEN ARROW, OK, 74012",617314154,"R"
424853,"2619 S 750 W","FARMLAND","IN",47340,40.127954254,-85.115888226,353,"2619 S 750 W, FARMLAND, IN, 47340","Match","Exact","2619 S 750 W, FARMLAND, IN, 47340",31223319,"R"
424854,"2619 S AUGUSTINE","MESA","AZ",85209,33.3679517480001,-111.677252234,354,"2619 S AUGUSTINE, MESA, AZ, 85209","Match","Exact","2619 S AUGUSTINE, MESA, AZ, 85209",128819440,"L"
424855,"2619 S GENESEE AVENUE","LOS ANGELES","CA",90016,34.032136473,-118.369972341,355,"2619 S GENESEE AVENUE, LOS ANGELES, CA, 90016","Match","Exact","2619 S GENESEE AVE, LOS ANGELES, CA, 90016",141600822,"R"
424856,"2619 S LASSEN AVE 2619","ONTARIO","CA",91761,34.026008803,-117.620685833,356,"2619 S LASSEN AVE 2619, ONTARIO, CA, 91761","Match","Non_Exact","2619 S LASSEN AVE, ONTARIO, CA, 91761",144636923,"L"
424857,"2619 S LASSEN AVENUE","ONTARIO","CA",91761,34.026008803,-117.620685833,357,"2619 S LASSEN AVENUE, ONTARIO, CA, 91761","Match","Exact","2619 S LASSEN AVE, ONTARIO, CA, 91761",144636923,"L"
424858,"2619 SAINTFIELD PL","CHARLOTTE","NC",29270,35.104764091,-80.7730276349999,358,"2619 SAINTFIELD PL, CHARLOTTE, NC, 29270","Match","Non_Exact","2619 SAINTFIELD PL, CHARLOTTE, NC, 28270",70521694,"R"
424859,"2619 SANTA BARBARA","ATLANTA","GA",30311,NA,NA,359,"2619 SANTA BARBARA, ATLANTA, GA, 30311","No_Match",NA,NA,NA,NA
424860,"2619 SILVER AVE SE","ALB","NM",87106,35.079114835,-106.616738875,360,"2619 SILVER AVE SE, ALB, NM, 87106","Match","Non_Exact","2619 SILVER AVE SE, ALBUQUERQUE, NM, 87106",206710049,"L"
424861,"2619 SOUTH LINCOLN BLVD","MARION","IN",46953,40.537813887,-85.644046064,361,"2619 SOUTH LINCOLN BLVD, MARION, IN, 46953","Match","Exact","2619 S LINCOLN BLVD, MARION, IN, 46953",95010358,"L"
424862,"2619 SW FISSURE LOOP N","REDMOND","OR",97756,44.2712996240001,-121.196984168,362,"2619 SW FISSURE LOOP N, REDMOND, OR, 97756","Match","Non_Exact","2619 SW FISSURE LOOP, REDMOND, OR, 97756",152574307,"R"
424863,"2619 SYRACUSE COURT","SEWICKLEY","PA",15143,40.603173628,-80.102050823,363,"2619 SYRACUSE COURT, SEWICKLEY, PA, 15143","Match","Exact","2619 SYRACUSE CT, SEWICKLEY, PA, 15143",641913843,"L"
424864,"2619 TOWNHOUSE DR NE","CEDAR RAPIDS","IA",52402,NA,NA,364,"2619 TOWNHOUSE DR NE, CEDAR RAPIDS, IA, 52402","No_Match",NA,NA,NA,NA
424865,"2619 W FARM RD 182","SPRINGFIELD","MO",65810,37.116535109,-93.332192236,365,"2619 W FARM RD 182, SPRINGFIELD, MO, 65810","Match","Exact","2619 W FARM RD 182, SPRINGFIELD, MO, 65810",76676961,"L"
424866,"2619 W VALLEY BLVD","ALHAMBRA","CA",91803,34.076891808,-118.152157657,366,"2619 W VALLEY BLVD, ALHAMBRA, CA, 91803","Match","Exact","2619 W VALLEY BLVD, ALHAMBRA, CA, 91803",141635609,"R"
424867,"2619 W WALNUT HILL LANE APT 245","IRVING","TX",75038,32.8666101910001,-96.979299168,367,"2619 W WALNUT HILL LANE APT 245, IRVING, TX, 75038","Match","Non_Exact","2619 W WALNUT HILL LN, IRVING, TX, 75038",649832145,"R"
424868,"2619 WEST WINNEMAC AVE","CHICAGO","IL",60625,41.9731172580001,-87.6945262039999,368,"2619 WEST WINNEMAC AVE, CHICAGO, IL, 60625","Match","Exact","2619 W WINNEMAC AVE, CHICAGO, IL, 60625",111760052,"L"
424869,"2619 WESTERN BLVD","RALEIGH","NC",27606,35.780149222,-78.673608878,369,"2619 WESTERN BLVD, RALEIGH, NC, 27606","Match","Exact","2619 WESTERN BLVD, RALEIGH, NC, 27606",72503000,"L"
424870,"2619 WILSHIRE BLVD APT 909","LOS ANGELES","CA",90057,34.0606097830001,-118.281620993,370,"2619 WILSHIRE BLVD APT 909, LOS ANGELES, CA, 90057","Match","Exact","2619 WILSHIRE BLVD, LOS ANGELES, CA, 90057",141605232,"R"
424871,"2619","LAWRENCEVILLE","GA",30044,NA,NA,371,"2619, LAWRENCEVILLE, GA, 30044","No_Match",NA,NA,NA,NA
424872,"26190 HIGHVIEW AVENUE","FARMINGTON","MN",55024,44.5697210390001,-93.238130638,372,"26190 HIGHVIEW AVENUE, FARMINGTON, MN, 55024","Match","Exact","26190 HIGHVIEW AVE, FARMINGTON, MN, 55024",647223330,"R"
424873,"26190 JONAH WAY","MURRIETA","CA",92563,33.5530142160001,-117.173737645,373,"26190 JONAH WAY, MURRIETA, CA, 92563","Match","Exact","26190 JONAH WAY, MURRIETA, CA, 92563",636593560,"R"
424874,"26190 MIDDLE BRIDGE LOOP","BAKER CITY","OR",97814,44.8400077740001,-117.52383409,374,"26190 MIDDLE BRIDGE LOOP, BAKER CITY, OR, 97814","Match","Exact","26190 MIDDLE BRIDGE LP, BAKER CITY, OR, 97814",608796920,"R"
424875,"26190 SOMERSET HILLS COURT","DENHAM SPRINGS","LA",70726,30.447166227,-90.929457026,375,"26190 SOMERSET HILLS COURT, DENHAM SPRINGS, LA, 70726","Match","Exact","26190 SOMERSET HILLS CT, DENHAM SPRINGS, LA, 70726",646582487,"L"
424876,"26190 SW 45TH DRIVE","WILSONVILLE","OR",97070,45.3308560350001,-122.722752663,376,"26190 SW 45TH DRIVE, WILSONVILLE, OR, 97070","Match","Exact","26190 SW 45TH DR, WILSONVILLE, OR, 97070",157911166,"L"
424877,"26192 608TH STREET","MANTORVILLE","MN",55955,44.067858163,-92.712231002,377,"26192 608TH STREET, MANTORVILLE, MN, 55955","Match","Exact","26192 608TH ST, MANTORVILLE, MN, 55955",31430482,"R"
424878,"26192 CR 270","CARROLLTON","MO",64633,39.3698981220001,-93.455368699,378,"26192 CR 270, CARROLLTON, MO, 64633","Match","Exact","26192 CR 270, CARROLLTON, MO, 64633",20818097,"L"
424879,"26194 KILTARTAN","FARMINGTON HILLS","MI",48334,42.487594911,-83.339788664,379,"26194 KILTARTAN, FARMINGTON HILLS, MI, 48334","Match","Non_Exact","26194 KILTARTON ST, FARMINGTON HILLS, MI, 48334",69784532,"R"
424880,"26194 SNOWCREEK DR","MENIFEE","CA",92584,33.687928049,-117.203647277,380,"26194 SNOWCREEK DR, MENIFEE, CA, 92584","Match","Non_Exact","26194 SNOW CREEK DR, MENIFEE, CA, 92586",194832336,"L"
424881,"26196 CROWN VALLEY PKWY STE 617","MISSION VIEJO","CA",92692,NA,NA,381,"26196 CROWN VALLEY PKWY STE 617, MISSION VIEJO, CA, 92692","No_Match",NA,NA,NA,NA
424882,"26196 CROWN VALLEY PKWY STE 821","MISSION VIEJO","CA",92692,NA,NA,382,"26196 CROWN VALLEY PKWY STE 821, MISSION VIEJO, CA, 92692","No_Match",NA,NA,NA,NA
424883,"26196 E PINE ST","CALUMET","MI",49913,NA,NA,383,"26196 E PINE ST, CALUMET, MI, 49913","No_Match",NA,NA,NA,NA
424884,"26198 N 85TH LN","PEORIA","AZ",85383,33.7211208350001,-112.243462523,384,"26198 N 85TH LN, PEORIA, AZ, 85383","Match","Exact","26198 85TH LN, PEORIA, AZ, 85383",128882461,"R"
424885,"26198 WOODRIDGE DR","WARRENTON","MO",63383,38.7873990840001,-91.161200659,385,"26198 WOODRIDGE DR, WARRENTON, MO, 63383","Match","Exact","26198 WOODRIDGE DR, WARRENTON, MO, 63383",217419466,"L"
424886,"261A LOVING TRAIL","DRIPPING SPRINGS","TX",78620,30.2068406290001,-98.085057265,386,"261A LOVING TRAIL, DRIPPING SPRINGS, TX, 78620","Match","Exact","261 LOVING TRL, DRIPPING SPRINGS, TX, 78620",63847838,"R"
424887,"261A OLD WENDELL ROAD","NORTHFIELD","MA",1360,42.647868816,-72.4253225959999,387,"261A OLD WENDELL ROAD, NORTHFIELD, MA, 1360","Match","Exact","261 OLD WENDELL RD, NORTHFIELD, MA, 01360",39940334,"R"
424888,"261B WESTSIDE SCHOOL ROAD","NEWNAN","GA",30263,33.3733053440001,-84.833496474,388,"261B WESTSIDE SCHOOL ROAD, NEWNAN, GA, 30263","Match","Exact","261 WESTSIDE SCHOOL RD, NEWNAN, GA, 30263",9324391,"L"
424889,"261D MAIN STREET","NYACK","NY",10960,41.091878089,-73.927418038,389,"261D MAIN STREET, NYACK, NY, 10960","Match","Exact","261 MAIN ST, NYACK, NY, 10960",124600416,"L"
424890,"261W W DEYETTE RD","SHELTON","WA",98584,47.309150462,-123.200784685,390,"261W W DEYETTE RD, SHELTON, WA, 98584","Match","Exact","261 W DEYETTE RD, SHELTON, WA, 98584",180848865,"L"
424891,"262 11TH AVENUE FLOOR 2","NEWARK","NJ",7103,40.7489502010001,-74.204807014,391,"262 11TH AVENUE FLOOR 2, NEWARK, NJ, 7103","Match","Exact","262 11TH AVE, NEWARK, NJ, 07103",63496004,"L"
424892,"262 11TH AVENUE","NEWARK","NJ",7103,40.7489502010001,-74.204807014,392,"262 11TH AVENUE, NEWARK, NJ, 7103","Match","Exact","262 11TH AVE, NEWARK, NJ, 07103",63496004,"L"
424893,"262 12TH ST ARCATA","ARCATA","CA",95521,40.870187528,-124.080318097,393,"262 12TH ST ARCATA, ARCATA, CA, 95521","Match","Exact","262 12TH ST, ARCATA, CA, 95521",113044421,"R"
424894,"262 22ND STREET","ASHLAND","NE",68003,NA,NA,394,"262 22ND STREET, ASHLAND, NE, 68003","Tie",NA,NA,NA,NA
424895,"262 22ND STREET","IRVINGTON","NY",7111,NA,NA,395,"262 22ND STREET, IRVINGTON, NY, 7111","No_Match",NA,NA,NA,NA
424896,"262 3RD AVE","AVONDALE ESTATES","GA",30002,33.7822660470001,-84.260577734,396,"262 3RD AVE, AVONDALE ESTATES, GA, 30002","Match","Exact","262 3RD AVE, AVONDALE EST, GA, 30002",23369550,"L"
424897,"262 8TH ST","DAVIS","WV",26260,39.128962351,-79.470749822,397,"262 8TH ST, DAVIS, WV, 26260","Match","Exact","262 8TH ST, DAVIS, WV, 26260",53420071,"R"
424898,"262 8TH STREET","COOKEVILLE","TN",38501,NA,NA,398,"262 8TH STREET, COOKEVILLE, TN, 38501","Tie",NA,NA,NA,NA
424899,"262 ADAMS STREET SUITE 201","ABINGTON","MA",2351,42.128965506,-70.944419723,399,"262 ADAMS STREET SUITE 201, ABINGTON, MA, 2351","Match","Exact","262 ADAMS ST, ABINGTON, MA, 02351",87431139,"L"
424900,"262 ALMOND RD","TWIN CITY","GA",30471,32.655947203,-82.193393898,400,"262 ALMOND RD, TWIN CITY, GA, 30471","Match","Exact","262 ALMOND RD, TWIN CITY, GA, 30471",16042873,"L"
424901,"262 AMBERWOOD DR","WALNUT","CA",91789,34.018407805,-117.853874754,401,"262 AMBERWOOD DR, WALNUT, CA, 91789","Match","Exact","262 AMBERWOOD DR, WALNUT, CA, 91789",141728603,"R"
424902,"262 BARBARA STREET","STEVENSVILLE","MT",59870,46.503639062,-114.095922793,402,"262 BARBARA STREET, STEVENSVILLE, MT, 59870","Match","Exact","262 BARBARA ST, STEVENSVILLE, MT, 59870",153540662,"R"
424903,"262 BARRY ROAD","ROCHESTER","NY",14617,43.2010349620001,-77.610951281,403,"262 BARRY ROAD, ROCHESTER, NY, 14617","Match","Exact","262 BARRY RD, ROCHESTER, NY, 14617",14537435,"L"
424904,"262 BAY PINE ROAD LOT 6","BEAUFORT","SC",29906,NA,NA,404,"262 BAY PINE ROAD LOT 6, BEAUFORT, SC, 29906","No_Match",NA,NA,NA,NA
424905,"262 BEACH AIRPORT RD","CONROE","TX",77301,NA,NA,405,"262 BEACH AIRPORT RD, CONROE, TX, 77301","No_Match",NA,NA,NA,NA
424906,"262 BEAUMONT HEIGHTS","MACON","GA",31206,32.8011452920001,-83.692467493,406,"262 BEAUMONT HEIGHTS, MACON, GA, 31206","Match","Exact","262 BEAUMONT HTS, MACON, GA, 31206",81093501,"L"
424907,"262 BENT STREAM LANE","BROWNSBURG","IN",46112,39.829018826,-86.372226226,407,"262 BENT STREAM LANE, BROWNSBURG, IN, 46112","Match","Exact","262 BENT STREAM LN, BROWNSBURG, IN, 46112",89235223,"R"
424908,"262 BETTYS BRANCH RD","ARVONIA","VA",23004,37.6544041550001,-78.4816948659999,408,"262 BETTYS BRANCH RD, ARVONIA, VA, 23004","Match","Non_Exact","262 BETTIES BRANCH RD, ARVONIA, VA, 23004",73753255,"R"
424909,"262 BLEECKER STREET","NEW YORK","NY",10014,40.7311189230001,-74.0029376379999,409,"262 BLEECKER STREET, NEW YORK, NY, 10014","Match","Exact","262 BLEECKER ST, NEW YORK, NY, 10014",59659953,"L"
424910,"262 BOCANA STREET","SAN FRANCISCO","CA",94110,37.7397937640001,-122.418271416,410,"262 BOCANA STREET, SAN FRANCISCO, CA, 94110","Match","Exact","262 BOCANA ST, SAN FRANCISCO, CA, 94110",192288583,"R"
424911,"262 BRAUN ST","CROSSVILLE","TN",38555,35.9533328310001,-85.0247389799999,411,"262 BRAUN ST, CROSSVILLE, TN, 38555","Match","Exact","262 BRAUN ST, CROSSVILLE, TN, 38555",26268200,"R"
424912,"262 BRETT ROAD","ROCHESTER","NY",14609,43.167393728,-77.546513499,412,"262 BRETT ROAD, ROCHESTER, NY, 14609","Match","Exact","262 BRETT RD, ROCHESTER, NY, 14609",14542391,"L"
424913,"262 BROWNS ROAD","NESCONSET","NY",11767,40.8524995990001,-73.13883342,413,"262 BROWNS ROAD, NESCONSET, NY, 11767","Match","Exact","262 BROWNS RD, NESCONSET, NY, 11767",113990922,"R"
424914,"262 BRUSHEY ROAD","CENTERVILLE","TN",37033,35.6779699900001,-87.507841005,414,"262 BRUSHEY ROAD, CENTERVILLE, TN, 37033","Match","Non_Exact","262 BRUSHY RD, CENTERVILLE, TN, 37033",639540235,"L"
424915,"262 CALLE URUGUAY APT 9F","SAN JUAN","PR",917,18.426364452,-66.056551746,415,"262 CALLE URUGUAY APT 9F, SAN JUAN, PR, 917","Match","Non_Exact","262 CLL URUGUAY, SAN JUAN, PR, 00917",206649202,"L"
424916,"262 CAPOTE COURT","SEVERNA PARK","MD",21146,NA,NA,416,"262 CAPOTE COURT, SEVERNA PARK, MD, 21146","Tie",NA,NA,NA,NA
424917,"262 CELESTIAL HTS RD","PEMBROKE","VA",24136,37.3469386560001,-80.552887756,417,"262 CELESTIAL HTS RD, PEMBROKE, VA, 24136","Match","Exact","262 CELESTIAL HEIGHTS RD, PEMBROKE, VA, 24136",637511241,"L"
424918,"262 CHAD B BAKER ST","RESERVE","LA",70084,30.057919229,-90.533769066,418,"262 CHAD B BAKER ST, RESERVE, LA, 70084","Match","Exact","262 CHAD B BAKER ST, RESERVE, LA, 70084",93702254,"R"
424919,"262 CHEROKEE DRIVE","NEWPORT","TN",37821,35.962277563,-83.1826823649999,419,"262 CHEROKEE DRIVE, NEWPORT, TN, 37821","Match","Exact","262 CHEROKEE DR, NEWPORT, TN, 37821",132773311,"R"
424920,"262 CHERRY AVENUE","MCKENZIE","TN",38201,36.136764869,-88.517909319,420,"262 CHERRY AVENUE, MCKENZIE, TN, 38201","Match","Non_Exact","262 CHERRY AVE, MC KENZIE, TN, 38201",638338191,"L"
424921,"262 CHRISTIANA ST","NORTH TONAWANDA","NV",14120,NA,NA,421,"262 CHRISTIANA ST, NORTH TONAWANDA, NV, 14120","No_Match",NA,NA,NA,NA
424922,"262 CHURCH STREET","HARPERSVILLE","AL",35078,33.3404691000001,-86.426659742,422,"262 CHURCH STREET, HARPERSVILLE, AL, 35078","Match","Exact","262 CHURCH ST, HARPERSVILLE, AL, 35078",82117221,"L"
424923,"262 CLENDENNY AVE","JERSEY CITY","NJ",7304,40.7214107660001,-74.0883314499999,423,"262 CLENDENNY AVE, JERSEY CITY, NJ, 7304","Match","Exact","262 CLENDENNY AVE, JERSEY CITY, NJ, 07304",59602033,"R"
424924,"262 CLINTON AVENUE APT 4","BROOKLYN","NY",11205,40.6903038400001,-73.968251757,424,"262 CLINTON AVENUE APT 4, BROOKLYN, NY, 11205","Match","Exact","262 CLINTON AVE, BROOKLYN, NY, 11205",639460791,"R"
424925,"262 CLINTON ROAD","BROOKLINE","MA",2445,42.3353015650001,-71.143876211,425,"262 CLINTON ROAD, BROOKLINE, MA, 2445","Match","Exact","262 CLINTON RD, BROOKLINE, MA, 02445",87244650,"L"
424926,"262 COLEBROOK RD","MIDDLETOWN","PA",17057,40.199386229,-76.7006446359999,426,"262 COLEBROOK RD, MIDDLETOWN, PA, 17057","Match","Exact","262 COLEBROOK RD, MIDDLETOWN, PA, 17057",70826244,"R"
424927,"262 COUNTY RD 750","ATHENS","TN",37303,35.394824612,-84.5882160199999,427,"262 COUNTY RD 750, ATHENS, TN, 37303","Match","Exact","262 CO RD 750, ATHENS, TN, 37303",88545950,"L"
424928,"262 COUNTY ROAD 701","TEAGUE","TX",75860,31.586792029,-96.200144595,428,"262 COUNTY ROAD 701, TEAGUE, TX, 75860","Match","Exact","262 CO RD 701, TEAGUE, TX, 75860",88985251,"R"
424929,"262 CR 4229","ATLANTA","TX",75551,33.035368421,-94.1912421279999,429,"262 CR 4229, ATLANTA, TX, 75551","Match","Exact","262 CO RD 4229, ATLANTA, TX, 75551",57071070,"R"
424930,"262 CRANBERRY MEADOW RD","BERWICK","ME",3901,43.307408782,-70.85356293,430,"262 CRANBERRY MEADOW RD, BERWICK, ME, 3901","Match","Exact","262 CRANBERRY MEADOW RD, BERWICK, ME, 03901",92758836,"R"
424931,"262 CRESCENT ST","NEW HAVEN","CT",6511,41.3277606300001,-72.9413020499999,431,"262 CRESCENT ST, NEW HAVEN, CT, 6511","Match","Exact","262 CRESCENT ST, NEW HAVEN, CT, 06511",3699084,"L"
424932,"262 CROSBY BLVD","AMHERST","NY",14226,42.964595912,-78.806880725,432,"262 CROSBY BLVD, AMHERST, NY, 14226","Match","Exact","262 CROSBY BLVD, AMHERST, NY, 14226",48295750,"L"
424933,"262 CROSBY","AMHERST","NY",14226,42.964595912,-78.806880725,433,"262 CROSBY, AMHERST, NY, 14226","Match","Non_Exact","262 CROSBY BLVD, AMHERST, NY, 14226",48295750,"L"
424934,"262 CYPRESS LAKES DRIVE","SLIDELL","LA",70458,30.242243397,-89.781909368,434,"262 CYPRESS LAKES DRIVE, SLIDELL, LA, 70458","Match","Exact","262 CYPRESS LAKES DR, SLIDELL, LA, 70458",617906531,"R"
424935,"262 DANIEL AVE","ATLANTA","GA",30317,33.745924071,-84.2992243739999,435,"262 DANIEL AVE, ATLANTA, GA, 30317","Match","Non_Exact","262 DANIEL AVE SE, ATLANTA, GA, 30317",23367520,"L"
424936,"262 DANNY PLACE MAIL","MEMPHIS","TN",38105,NA,NA,436,"262 DANNY PLACE MAIL, MEMPHIS, TN, 38105","No_Match",NA,NA,NA,NA
424937,"262 DRAKE AVENUE","NEW ROCHELLE","NY",10801,40.8949370400001,-73.783234106,437,"262 DRAKE AVENUE, NEW ROCHELLE, NY, 10801","Match","Non_Exact","262 DRAKE AVE, NEW ROCHELLE, NY, 10805",139751472,"L"
424938,"262 E WALNUT ST","NEWELL","IA",50568,42.6050753210001,-94.994969423,438,"262 E WALNUT ST, NEWELL, IA, 50568","Match","Exact","262 E WALNUT ST, NEWELL, IA, 50568",77381544,"R"
424939,"262 EAST 140TH STREET","LOS ANGELES","CA",90061,33.9042593820001,-118.269994461,439,"262 EAST 140TH STREET, LOS ANGELES, CA, 90061","Match","Exact","262 E 140TH ST, LOS ANGELES, CA, 90061",141673701,"R"
424940,"262 EAST 42ND ST","BROOKLYN","NY",11203,40.649429598,-73.9378774199999,440,"262 EAST 42ND ST, BROOKLYN, NY, 11203","Match","Exact","262 E 42ND ST, BROOKLYN, NY, 11203",59081903,"R"
424941,"262 EAST STREET","LEXINGTON","MA",2421,NA,NA,441,"262 EAST STREET, LEXINGTON, MA, 2421","No_Match",NA,NA,NA,NA
424942,"262 EASTERN PARKWAY APT 11","FARMINGDALE","NY",11735,40.7365466520001,-73.434859106,442,"262 EASTERN PARKWAY APT 11, FARMINGDALE, NY, 11735","Match","Exact","262 EASTERN PKWY, FARMINGDALE, NY, 11735",113970397,"R"
424943,"262 EASTLAND HILL DR","LINCOLN","AL",35096,33.563946248,-86.185655735,443,"262 EASTLAND HILL DR, LINCOLN, AL, 35096","Match","Exact","262 EASTLAND HILL, LINCOLN, AL, 35096",66976937,"R"
424944,"262 EASTON ROAD","GLENSIDE","PA",19038,40.1041518550001,-75.150172137,444,"262 EASTON ROAD, GLENSIDE, PA, 19038","Match","Exact","262 EASTON RD, GLENSIDE, PA, 19038",135092361,"L"
424945,"262 EASTPOINT CT","SPRING HILL","FL",34606,28.4377237350001,-82.622055958,445,"262 EASTPOINT CT, SPRING HILL, FL, 34606","Match","Exact","262 EASTPOINT CT, SPRING HILL, FL, 34606",85449389,"R"
424946,"262 ELM STREET","LITTLETON","NH",3561,44.3130773330001,-71.77438843,446,"262 ELM STREET, LITTLETON, NH, 3561","Match","Exact","262 ELM ST, LITTLETON, NH, 03561",145672022,"R"
424947,"262 ELWELL SW","GRAND RAPIDS","MI",49548,42.8781874690001,-85.671130778,447,"262 ELWELL SW, GRAND RAPIDS, MI, 49548","Match","Non_Exact","262 ELWELL ST SW, GRAND RAPIDS, MI, 49548",12502408,"L"
424948,"262 ELWELL SW","WYOMING","MI",49548,42.8781874690001,-85.671130778,448,"262 ELWELL SW, WYOMING, MI, 49548","Match","Non_Exact","262 ELWELL ST SW, WYOMING, MI, 49548",12502408,"L"
424949,"262 FAIRFIELD DRIVE EAST","HOLBROOK","NY",11741,40.8074158920001,-73.060116122,449,"262 FAIRFIELD DRIVE EAST, HOLBROOK, NY, 11741","Match","Exact","262 FAIRFIELD DR E, HOLBROOK, NY, 11741",642834031,"R"
424950,"262 FARMING CREEK WAY","LEXINGTON","SC",29072,34.01345186,-81.30921191,450,"262 FARMING CREEK WAY, LEXINGTON, SC, 29072","Match","Exact","262 FARMING CREEK WAY, LEXINGTON, SC, 29072",623997527,"R"
424951,"262 FINCH LANE","MARSHALLVILLE","GA",31057,32.4719369790001,-83.8727743599999,451,"262 FINCH LANE, MARSHALLVILLE, GA, 31057","Match","Exact","262 FINCH LN, MARSHALLVILLE, GA, 31057",30527170,"L"
424952,"262 FORSTIE","ESKO","MN",55733,46.7453449600001,-92.371473018,452,"262 FORSTIE, ESKO, MN, 55733","Match","Non_Exact","262 FORSTIE RD, ESKO, MN, 55733",612106970,"R"
424953,"262 FOSTER ROAD","FORT COVINGTON","NY",12937,44.965802196,-74.487138493,453,"262 FOSTER ROAD, FORT COVINGTON, NY, 12937","Match","Exact","262 FOSTER RD, FORT COVINGTON, NY, 12937",647657241,"L"
424954,"262 FOX HOLLOW LANE","PALMYRA","VA",22963,37.895399486,-78.3392225279999,454,"262 FOX HOLLOW LANE, PALMYRA, VA, 22963","Match","Exact","262 FOX HOLLOW LN, PALMYRA, VA, 22963",73794627,"L"
424955,"262 FOX POINT ROAD","NEWINGTON","NH",3801,43.110210346,-70.84522132,455,"262 FOX POINT ROAD, NEWINGTON, NH, 3801","Match","Exact","262 FOX POINT RD, NEWINGTON, NH, 03801",113665478,"R"
424956,"262 FRANK STREET","BETHLEHEM","PA",18020,40.695621508,-75.3148892359999,456,"262 FRANK STREET, BETHLEHEM, PA, 18020","Match","Exact","262 FRANK ST, BETHLEHEM, PA, 18020",136895237,"R"
424957,"262 GENE AVE NW","ALBUQUERQUE","NM",87107,35.1395828220001,-106.638389528,457,"262 GENE AVE NW, ALBUQUERQUE, NM, 87107","Match","Exact","262 GENE AVE NW, ALBUQUERQUE, NM, 87107",644968136,"L"
424958,"262 GEORGIA AVENUE","VALPARAISO","FL",32580,30.4946490300001,-86.489395544,458,"262 GEORGIA AVENUE, VALPARAISO, FL, 32580","Match","Exact","262 GEORGIA AVE, VALPARAISO, FL, 32580",74393460,"R"
424959,"262 GLEN AVENUE","AVON","IN",46123,NA,NA,459,"262 GLEN AVENUE, AVON, IN, 46123","No_Match",NA,NA,NA,NA
424960,"262 GLENDALE DR","MIAMI SPRINGS","FL",33166,25.8135084690001,-80.302347918,460,"262 GLENDALE DR, MIAMI SPRINGS, FL, 33166","Match","Exact","262 GLENDALE DR, MIAMI SPRINGS, FL, 33166",116253834,"L"
424961,"262 GLENWOOD AVE","ROCHESTER","NY",14613,43.176939632,-77.636629762,461,"262 GLENWOOD AVE, ROCHESTER, NY, 14613","Match","Exact","262 GLENWOOD AVE, ROCHESTER, NY, 14613",14532109,"R"
424962,"262 GOETZ","SAGINAW","MI",48602,43.426315356,-83.98295546,462,"262 GOETZ, SAGINAW, MI, 48602","Match","Non_Exact","262 GOETZ ST, SAGINAW, MI, 48602",80231975,"L"
424963,"262 GRAND BLVD","BEDFORD","OH",44146,41.4058624680001,-81.540521321,463,"262 GRAND BLVD, BEDFORD, OH, 44146","Match","Exact","262 GRAND BLVD, BEDFORD, OH, 44146",61130043,"R"
424964,"262 H ROCKWELL RD","GRANVILLE SUMMIT","PA",16926,41.6925180540001,-76.6592422579999,464,"262 H ROCKWELL RD, GRANVILLE SUMMIT, PA, 16926","Match","Exact","262 H ROCKWELL RD, GRANVILLE SUMMIT, PA, 16926",648596792,"R"
424965,"262 HALL RD","HANNIBAL","NY",13074,43.3714976530001,-76.595963411,465,"262 HALL RD, HANNIBAL, NY, 13074","Match","Exact","262 HALL RD, HANNIBAL, NY, 13074",57808052,"L"
424966,"262 HAMILTON AVENUE","PATERSON","NJ",7501,40.920024348,-74.1607970379999,466,"262 HAMILTON AVENUE, PATERSON, NJ, 7501","Match","Exact","262 HAMILTON AVE, PATERSON, NJ, 07501",65264280,"R"
424967,"262 HAMPSHIRE COURT","PISCATAWAY","NJ",8854,40.530801207,-74.459225465,467,"262 HAMPSHIRE COURT, PISCATAWAY, NJ, 8854","Match","Exact","262 HAMPSHIRE CT, PISCATAWAY, NJ, 08854",60290259,"R"
424968,"262 HANOVER AVE APT 1","OAKLAND","CA",94606,37.8026419110001,-122.252556688,468,"262 HANOVER AVE APT 1, OAKLAND, CA, 94606","Match","Exact","262 HANOVER AVE, OAKLAND, CA, 94606",125001230,"R"
424969,"262 HARRISON ST UNIT 2A","PASSAIC","NJ",7055,40.869128549,-74.1271361789999,469,"262 HARRISON ST UNIT 2A, PASSAIC, NJ, 7055","Match","Exact","262 HARRISON ST, PASSAIC, NJ, 07055",65252199,"R"
424970,"262 HAWTHORNE ST APT 6","MONTEREY","CA",93940,36.6097967320001,-121.899806691,470,"262 HAWTHORNE ST APT 6, MONTEREY, CA, 93940","Match","Exact","262 HAWTHORNE ST, MONTEREY, CA, 93940",196814539,"R"
424971,"262 HAWTHORNE STREET APT 6","MONTERE","CA",93940,36.6097967320001,-121.899806691,471,"262 HAWTHORNE STREET APT 6, MONTERE, CA, 93940","Match","Non_Exact","262 HAWTHORNE ST, MONTEREY, CA, 93940",196814539,"R"
424972,"262 HAWTHORNE STREET APT 6","MONTEREY","CA",93940,36.6097967320001,-121.899806691,472,"262 HAWTHORNE STREET APT 6, MONTEREY, CA, 93940","Match","Exact","262 HAWTHORNE ST, MONTEREY, CA, 93940",196814539,"R"
424973,"262 HEATHEN HILL ROAD","FRANKLIN","NY",13775,42.3021537860001,-75.1486542649999,473,"262 HEATHEN HILL ROAD, FRANKLIN, NY, 13775","Match","Exact","262 HEATHEN HILL RD, FRANKLIN, NY, 13775",649719736,"R"
424974,"262 HEWES ST","BROOKLYN","NY",11211,40.7054721370001,-73.954771479,474,"262 HEWES ST, BROOKLYN, NY, 11211","Match","Exact","262 HEWES ST, BROOKLYN, NY, 11211",59076778,"R"
424975,"262 HILDRETH STREET","LOWELL","MA",1850,42.660099969,-71.308297148,475,"262 HILDRETH STREET, LOWELL, MA, 1850","Match","Exact","262 HILDRETH ST, LOWELL, MA, 01850",86877492,"L"
424976,"262 HOPSON ROAD","NORWICH","VT",5055,43.706044025,-72.3191409459999,476,"262 HOPSON ROAD, NORWICH, VT, 5055","Match","Exact","262 HOPSON RD, NORWICH, VT, 05055",139250595,"L"
424977,"262 HOSMER AVE","BRONX","NY",10465,40.814248934,-73.8269643149999,477,"262 HOSMER AVE, BRONX, NY, 10465","Match","Exact","262 HOSMER AVE, BRONX, NY, 10465",80307282,"R"
424978,"262 HUNTSMAN RD","NORFOLK","VA",23502,36.837949505,-76.217985792,478,"262 HUNTSMAN RD, NORFOLK, VA, 23502","Match","Exact","262 HUNTSMAN RD, NORFOLK, VA, 23502",122129810,"L"
424979,"262 INDIAN RIDGE ROAD","BLAINE","TN",37709,36.1525804290001,-83.69913553,479,"262 INDIAN RIDGE ROAD, BLAINE, TN, 37709","Match","Exact","262 INDIAN RIDGE RD, BLAINE, TN, 37709",639098175,"L"
424980,"262 JAMES DR","MILLBROOK","AL",36054,32.5013805090001,-86.374456219,480,"262 JAMES DR, MILLBROOK, AL, 36054","Match","Exact","262 JAMES DR, MILLBROOK, AL, 36054",1382022,"R"
424981,"262 JAYCOX RD","AVON LAKE","OH",44012,41.504315697,-81.997247257,481,"262 JAYCOX RD, AVON LAKE, OH, 44012","Match","Exact","262 JAYCOX RD, AVON LAKE, OH, 44012",55420184,"R"
424982,"262 JOAQUIN ST","CRESCENT CITY","CA",95531,41.7596051570001,-124.214699274,482,"262 JOAQUIN ST, CRESCENT CITY, CA, 95531","Match","Exact","262 JOAQUIN ST, CRESCENT CITY, CA, 95531",113161607,"R"
424983,"262 JORDAN RD","BRYSON CITY","NC",28713,35.4408146810001,-83.461469079,483,"262 JORDAN RD, BRYSON CITY, NC, 28713","Match","Exact","262 JORDAN RD, BRYSON CITY, NC, 28713",636473977,"R"
424984,"262 KENT CIRCLE NE","NEW PHILA.","OH",44663,40.477362584,-81.4172520989999,484,"262 KENT CIRCLE NE, NEW PHILA., OH, 44663","Match","Exact","262 KENT CIR NE, NEW PHILA, OH, 44663",44257523,"L"
424985,"262 KERRINGTON BLVD","NEWARK","NJ",7106,NA,NA,485,"262 KERRINGTON BLVD, NEWARK, NJ, 7106","No_Match",NA,NA,NA,NA
424986,"262 KNOBCREEK RD","SHEPHERDSVILLE","KY",40165,38.0102823870001,-85.863267591,486,"262 KNOBCREEK RD, SHEPHERDSVILLE, KY, 40165","Match","Non_Exact","262 KNOB CREEK RD, SHEPHERDSVILLE, KY, 40165",47733556,"R"
424987,"262 LANCER OAK DR","APOPKA","FL",32712,28.6993044020001,-81.5187404709999,487,"262 LANCER OAK DR, APOPKA, FL, 32712","Match","Exact","262 LANCER OAK DR, APOPKA, FL, 32712",647528909,"L"
424988,"262 LANTANA DR","LOCUST GROVE","GA",30248,33.338182073,-84.1780960249999,488,"262 LANTANA DR, LOCUST GROVE, GA, 30248","Match","Exact","262 LANTANA DR, LOCUST GROVE, GA, 30248",619925019,"L"
424989,"262 LANTANA DRIVE","LOCUST GROVE","GA",30248,33.338182073,-84.1780960249999,489,"262 LANTANA DRIVE, LOCUST GROVE, GA, 30248","Match","Exact","262 LANTANA DR, LOCUST GROVE, GA, 30248",619925019,"L"
424990,"262 LARAWAY STREET","OCEANSIDE","CA",92058,33.2177330960001,-117.386291149,490,"262 LARAWAY STREET, OCEANSIDE, CA, 92058","Match","Exact","262 LARAWAY ST, OCEANSIDE, CA, 92058",195756916,"L"
424991,"262 LAS BRISAS","SEGUIN","TX",78155,29.630577669,-98.040908837,491,"262 LAS BRISAS, SEGUIN, TX, 78155","Match","Non_Exact","262 LAS BRISAS BLVD, SEGUIN, TX, 78155",54853530,"L"
424992,"262 LAUREL BAY DR","MURRELLS INLET","SC",29576,33.5823062220001,-79.050668586,492,"262 LAUREL BAY DR, MURRELLS INLET, SC, 29576","Match","Exact","262 LAUREL BAY DR, MURRELLS INLET, SC, 29576",631001011,"R"
424993,"262 LEE ROAD","LENOX","MA",1240,42.3310993430001,-73.264372287,493,"262 LEE ROAD, LENOX, MA, 1240","Match","Exact","262 LEE RD, LENOX, MA, 01240",636379829,"L"
424994,"262 MACE STREET","STATEN ISLAND","NY",10306,40.5736296600001,-74.137422956,494,"262 MACE STREET, STATEN ISLAND, NY, 10306","Match","Exact","262 MACE ST, STATEN ISLAND, NY, 10306",59876623,"L"
424995,"262 MADDEX FARM DRIVE","SHEPHERDSTOWN","WV",25443,39.439004933,-77.820599879,495,"262 MADDEX FARM DRIVE, SHEPHERDSTOWN, WV, 25443","Match","Exact","262 MADDEX FARM DR, SHEPHERDSTOWN, WV, 25443",632676450,"L"
424996,"262 MAIN ST","BEREA","OH",44017,41.359675167,-81.853866291,496,"262 MAIN ST, BEREA, OH, 44017","Match","Exact","262 MAIN ST, BEREA, OH, 44017",61130934,"R"
424997,"262 MAPLE HILL RD","GLENCOE","IL",60473,42.1417831840001,-87.7619981779999,497,"262 MAPLE HILL RD, GLENCOE, IL, 60473","Match","Non_Exact","262 MAPLE HILL RD, GLENCOE, IL, 60022",605022671,"L"
424998,"262 MAPLEWOOD","COLUMBUS","OH",43213,39.967577485,-82.902723938,498,"262 MAPLEWOOD, COLUMBUS, OH, 43213","Match","Non_Exact","262 MAPLEWOOD AVE, COLUMBUS, OH, 43213",218680316,"L"
424999,"262 MARLBOROUGH RD","BROOKLYN","NY",11226,40.64351292,-73.964867138,499,"262 MARLBOROUGH RD, BROOKLYN, NY, 11226","Match","Exact","262 MARLBOROUGH RD, BROOKLYN, NY, 11226",59080929,"R"
425000,"262 MARTIN STREET","APOPKA","FL",32712,28.6912297060001,-81.516508129,500,"262 MARTIN STREET, APOPKA, FL, 32712","Match","Non_Exact","262 W MARTIN ST, APOPKA, FL, 32712",94261486,"L"
